##########################################################
# Query made at 12/28/2012 16:59:11 UTC
# Time interval: from 12/01/2012 00:00  to 12/31/2012 23:59  UTC
##########################################################

##########################################################
# KTMB, Miami, Kendall-Tamiami Executive Airport (United States)
# WMO index: -----
# Latitude 25-38-31N. Longitude 080-26-05W. Altitude 3 m.
##########################################################

###################################
#  METAR/SPECI from KTMB
###################################
201212281553 METAR KTMB 281553Z 12010KT 10SM OVC022 24/19 A3008 RMK AO2
                        SLP184 T02440194=
201212281453 METAR KTMB 281453Z 11008KT 10SM BKN022 24/18 A3008 RMK AO2
                        SLP187 T02390183 53010=
201212281353 METAR KTMB 281353Z 09004KT 10SM CLR 22/16 A3007 RMK AO2 SLP182
                        T02170161=
201212281253 METAR KTMB 281253Z 08003KT 10SM CLR 16/13 A3006 RMK AO2 SLP179
                        T01560133=
201212281153 METAR KTMB 281153Z 00000KT 10SM FEW028 16/13 A3005 RMK AO2
                        SLP176 T01560128 10161 20122 53006=
201212281053 METAR KTMB 281053Z AUTO 00000KT 10SM OVC028 16/12 A3004 RMK
                        AO2 SLP172 T01560122=
201212280953 METAR KTMB 280953Z AUTO 06004KT 10SM BKN028 15/11 A3004 RMK
                        AO2 SLP170 T01500111=
201212280853 METAR KTMB 280853Z AUTO 00000KT 10SM SCT039 14/11 A3004 RMK
                        AO2 SLP170 T01390106 56005=
201212280753 METAR KTMB 280753Z AUTO 00000KT 10SM CLR 14/09 A3004 RMK
                        AO2 SLP171 T01390094=
201212280653 METAR KTMB 280653Z AUTO 00000KT 10SM CLR 14/09 A3004 RMK
                        AO2 SLP172 T01390094=
201212280553 METAR KTMB 280553Z AUTO 00000KT 10SM CLR 13/09 A3005 RMK
                        AO2 SLP175 T01280089 10172 20122
                        58007=
201212280453 METAR KTMB 280453Z AUTO 00000KT 10SM CLR 14/10 A3007 RMK
                        AO2 SLP180 T01440100 402280117=
201212280353 METAR KTMB 280353Z 00000KT 10SM CLR 14/11 A3007 RMK AO2 SLP181
                        T01390111=
201212280253 METAR KTMB 280253Z 00000KT 10SM CLR 13/11 A3007 RMK AO2 SLP182
                        T01280111 53010=
201212280153 METAR KTMB 280153Z 00000KT 10SM CLR 14/11 A3006=
201212280053 METAR KTMB 280053Z 00000KT 10SM CLR 14/11 A3005 RMK AO2 SLP174
                        T01440111=
201212272353 METAR KTMB 272353Z 00000KT 10SM CLR 17/11 A3004 RMK AO2 SLP172
                        T01720111 10228 20161 51014=
201212272253 METAR KTMB 272253Z 00000KT 10SM CLR 18/09 A3003 RMK AO2 SLP170
                        T01780094=
201212272153 METAR KTMB 272153Z 33007KT 10SM CLR 21/09 A3002 RMK AO2 SLP165
                        T02110094=
201212272053 METAR KTMB 272053Z 30008KT 10SM CLR 22/11 A3000 RMK AO2 SLP158
                        T02220106 56009=
201212271953 METAR KTMB 271953Z 29008KT 10SM CLR 22/11 A3000 RMK AO2 SLP158
                        T02220106=
201212271853 METAR KTMB 271853Z 33004KT 10SM CLR 23/09 A3001 RMK AO2 SLP160
                        T02280089=
201212271753 METAR KTMB 271753Z VRB03KT 10SM CLR 22/09 A3003=
201212271653 METAR KTMB 271653Z 34005KT 10SM CLR 20/09 A3006 RMK AO2 SLP178
                        T02000094=
201212271553 METAR KTMB 271553Z 33005KT 10SM CLR 18/09 A3008 RMK AO2 SLP185
                        T01830094=
201212271453 METAR KTMB 271453Z 34006KT 10SM CLR 17/09 A3009 RMK AO2 SLP189
                        T01670094 52013=
201212271353 METAR KTMB 271353Z 36010KT 10SM CLR 15/09 A3008 RMK AO2 SLP185
                        T01500094=
201212271253 METAR KTMB 271253Z 35005KT 10SM CLR 13/11 A3007 RMK AO2 SLP181
                        T01330106=
201212271153 METAR KTMB 271153Z 34006KT 10SM CLR 13/11 A3005 RMK AO2 SLP176
                        T01280106 10178 20128 53017=
201212271053 METAR KTMB 271053Z AUTO 34009KT 10SM CLR 14/11 A3002 RMK
                        AO2 SLP165 T01390111=
201212270953 METAR KTMB 270953Z AUTO 34009KT 10SM CLR 14/12 A3001 RMK
                        AO2 SLP162 T01440117=
201212270853 METAR KTMB 270853Z AUTO 33010KT 10SM CLR 15/12 A3001 RMK
                        AO2 SLP160 T01500122 55001=
201212270753 METAR KTMB 270753Z AUTO 34007KT 10SM CLR 16/13 A3000 RMK
                        AO2 SLP157 T01610133=
201212270653 METAR KTMB 270653Z AUTO 33009KT 10SM CLR 17/14 A3000 RMK
                        AO2 SLP158 T01720139=
201212270553 METAR KTMB 270553Z AUTO 33007KT 10SM CLR 18/16 A3001 RMK
                        AO2 SLP161 T01780156 10233 20178
                        51007=
201212270453 METAR KTMB 270453Z AUTO 34012KT 10SM BKN023 19/16 A3000 RMK
                        AO2 SLP159 T01890156 402830189=
201212270353 METAR KTMB 270353Z AUTO 33011KT 10SM OVC018 20/17 A3000 RMK
                        AO2 SLP159 T02000172=
201212270253 METAR KTMB 270253Z 32008KT 10SM SCT034 21/18 A2999 RMK AO2
                        SLP154 T02060183 53024=
201212270153 METAR KTMB 270153Z 31009KT 10SM CLR 21/18 A2997 RMK AO2 WSHFT
                        0123 SLP146 T02060183=
201212270053 METAR KTMB 270053Z 23007KT 10SM CLR 23/22 A2993 RMK AO2 SLP134
                        T02280217=
201212262353 METAR KTMB 262353Z 22005KT 10SM CLR 24/22 A2992 RMK AO2 SLP130
                        T02390217 10283 20239 53012=
201212262253 METAR KTMB 262253Z 22007KT 10SM FEW022 BKN033 BKN075 25/22
                        A2990 RMK AO2 SLP125 T02500217=
201212262153 METAR KTMB 262153Z 22010KT 10SM FEW028 SCT085 26/21 A2989
                        RMK AO2 SLP121 T02560211=
201212262053 METAR KTMB 262053Z 23010G18KT 10SM FEW024 SCT040 BKN060 26/21
                        A2988 RMK AO2 SLP118 T02610211 56010=
201212261953 METAR KTMB 261953Z 22015G21KT 10SM FEW075 28/21 A2988 RMK
                        AO2 SLP118 T02780206=
201212261853 METAR KTMB 261853Z 23011G20KT 10SM SCT027 BKN038 BKN070 27/21
                        A2990 RMK AO2 SLP122 T02720206=
201212261753 METAR KTMB 261753Z 22012G19KT 10SM SCT027 BKN034 BKN065 27/21
                        A2991 RMK AO2 SLP128 T02670206 10278
                        20200 58019=
201212261653 METAR KTMB 261653Z 21011G16KT 10SM SCT028 SCT039 BKN065 27/21
                        A2994 RMK AO2 SLP139 T02720206=
201212261553 METAR KTMB 261553Z 21010G17KT 10SM SCT027 SCT032 BKN060 27/20
                        A2996 RMK AO2 SLP145 T02720200=
201212261453 METAR KTMB 261453Z 20009G15KT 10SM BKN060 26/21 A2997 RMK
                        AO2 SLP147 T02560211 51005=
201212261353 METAR KTMB 261353Z 19006KT 10SM BKN060 23/21 A2996 RMK AO2
                        SLP145 T02280206=
201212261253 METAR KTMB 261253Z 18003KT 10SM FEW029 21/20 A2996 RMK AO2
                        SLP144 T02110200=
201212261153 METAR KTMB 261153Z 15003KT 10SM FEW050 20/19 A2995 RMK AO2
                        SLP142 T02000194 10222 20194 51009=
201212261053 METAR KTMB 261053Z AUTO 00000KT 10SM OVC049 21/19 A2995 RMK
                        AO2 SLP140 T02060194=
201212260953 METAR KTMB 260953Z AUTO 00000KT 10SM FEW019 SCT024 BKN036
                        21/19 A2993 RMK AO2 SLP135 T02060194=
201212260853 METAR KTMB 260853Z AUTO 13003KT 10SM BKN040 22/19 A2993 RMK
                        AO2 SLP133 T02170194 55002=
201212260753 METAR KTMB 260753Z AUTO 15004KT 10SM FEW022 22/19 A2991 RMK
                        AO2 SLP129 T02170194=
201212260653 METAR KTMB 260653Z AUTO 15006KT 10SM CLR 22/19 A2991 RMK
                        AO2 SLP128 T02220194=
201212260553 METAR KTMB 260553Z AUTO 15005KT 10SM CLR 22/18 A2993 RMK
                        AO2 SLP134 T02170183 10217 20200
                        58014=
201212260453 METAR KTMB 260453Z AUTO 14006KT 10SM CLR 21/18 A2995 RMK
                        AO2 SLP141 T02110178 402610133=
201212260353 METAR KTMB 260353Z AUTO 14005KT 10SM CLR 21/17 A2997 RMK
                        AO2 SLP146 T02110172=
201212260253 METAR KTMB 260253Z 12006KT 10SM CLR 21/17 A2997 RMK AO2 SLP149
                        T02110172 51005=
201212260153 METAR KTMB 260153Z 12006KT 10SM CLR 21/17 A2997 RMK AO2 SLP147
                        T02110172=
201212260053 METAR KTMB 260053Z 12004KT 10SM CLR 21/17 A2997 RMK AO2 SLP147
                        T02060167=
201212252353 METAR KTMB 252353Z 13004KT 10SM CLR 21/16 A2996 RMK AO2 SLP144
                        T02110161 10261 20211 51001=
201212252253 METAR KTMB 252253Z 14006KT 10SM CLR 22/16 A2996 RMK AO2 SLP144
                        T02220161=
201212252153 METAR KTMB 252153Z 13007KT 10SM FEW035 23/16 A2996 RMK AO2
                        SLP143 T02330161=
201212252053 METAR KTMB 252053Z 12010KT 10SM SCT035 25/16 A2996 RMK AO2
                        SLP143 T02500161 56010=
201212251953 METAR KTMB 251953Z 12014G18KT 10SM SCT039 26/16 A2996 RMK
                        AO2 SLP144 T02560161=
201212251853 METAR KTMB 251853Z 13014G21KT 10SM BKN039 26/16 A2997 RMK
                        AO2 SLP148 T02560156=
201212251753 METAR KTMB 251753Z 12012G17KT 10SM SCT037 26/16 A2999 RMK
                        AO2 SLP153 T02560156 10261 20139
                        58024=
201212251653 METAR KTMB 251653Z 11011KT 10SM FEW038 26/14 A3002 RMK AO2
                        SLP164 T02610144=
201212251553 METAR KTMB 251553Z 11007KT 10SM SCT038 26/16 A3004 RMK AO2
                        SLP173 T02560156=
201212251453 METAR KTMB 251453Z VRB04KT 10SM CLR 24/16 A3006 RMK AO2 SLP177
                        T02390156 52012=
201212251353 METAR KTMB 251353Z 05003KT 10SM CLR 21/16 A3005=
201212251253 METAR KTMB 251253Z 00000KT 9SM FEW045 16/15 A3003 RMK AO2
                        SLP168 T01560150=
201212251153 METAR KTMB 251153Z 00000KT 7SM CLR 14/13 A3002 RMK AO2 SLP165
                        T01390133 10167 20133 53008=
201212251053 METAR KTMB 251053Z 00000KT 9SM BKN043 14/14 A3001 RMK AO2
                        SLP161 T01440139=
201212250953 METAR KTMB 250953Z 00000KT 9SM CLR 14/13 A3000 RMK AO2 SLP157
                        T01390133=
201212250853 METAR KTMB 250853Z 00000KT 9SM CLR 14/13 A3000 RMK AO2 SLP157
                        T01390128 58010=
201212250753 METAR KTMB 250753Z 00000KT 10SM CLR 17/15 A3000 RMK AO2 SLP158
                        T01670150=
201212250653 METAR KTMB 250653Z 00000KT 10SM CLR 15/14 A3002 RMK AO2 SLP166
                        T01500139=
201212250553 METAR KTMB 250553Z 00000KT 10SM CLR 16/14 A3003 RMK AO2 SLP167
                        T01610144 10206 20150 58005=
201212250453 METAR KTMB 250453Z 00000KT 10SM CLR 16/14 A3003 RMK AO2 SLP169
                        T01610139 402610106=
201212250353 METAR KTMB 250353Z 00000KT 10SM CLR 17/14 A3005 RMK AO2 SLP174
                        T01720144=
201212250253 METAR KTMB 250253Z 04003KT 10SM CLR 18/14 A3004 RMK AO2 SLP172
                        T01780139 55001=
201212250153 METAR KTMB 250153Z 17003KT 10SM CLR 20/14 A3003 RMK AO2 SLP167
                        T02000144=
201212250053 METAR KTMB 250053Z 17004KT 10SM CLR 20/15 A3003 RMK AO2 SLP167
                        T02000150=
201212242353 METAR KTMB 242353Z 00000KT 10SM CLR 21/14 A3004 RMK AO2 SLP173
                        T02060139 10261 20206 53001=
201212242253 METAR KTMB 242253Z 14004KT 10SM CLR 21/14 A3004 RMK AO2 SLP170
                        T02110139=
201212242153 METAR KTMB 242153Z 16007KT 10SM CLR 23/13 A3004 RMK AO2 SLP172
                        T02280133=
201212242053 METAR KTMB 242053Z 16005KT 10SM SCT045 BKN065 24/13 A3004
                        RMK AO2 SLP172 T02440133 55011=
201212241953 METAR KTMB 241953Z 16007KT 10SM CLR 25/13 A3004 RMK AO2 SLP170
                        T02500133=
201212241853 METAR KTMB 241853Z 13010KT 10SM SCT049 26/13 A3005 RMK AO2
                        SLP173 T02560133=
201212241753 METAR KTMB 241753Z 13009KT 10SM FEW047 26/13 A3007 RMK AO2
                        SLP183 T02560128 10261 20122 58021=
201212241653 METAR KTMB 241653Z 15008G16KT 10SM BKN060 26/14 A3011 RMK
                        AO2 SLP196 T02560139=
201212241553 METAR KTMB 241553Z 15011G17KT 10SM SCT041 SCT050 SCT060 25/14
                        A3012 RMK AO2 SLP198 T02500139=
201212241453 METAR KTMB 241453Z 06003KT 10SM SCT055 22/13 A3014 RMK AO2
                        SLP204 T02220133 53009=
201212241353 METAR KTMB 241353Z 05005KT 10SM FEW042 18/13 A3013 RMK AO2
                        SLP201 T01830128=
201212241253 METAR KTMB 241253Z 00000KT 10SM CLR 14/13 A3012 RMK AO2 SLP198
                        T01440128=
201212241153 METAR KTMB 241153Z 00000KT 10SM CLR 12/11 A3011 RMK AO2 SLP195
                        T01220111 10150 20106 53003=
201212241053 METAR KTMB 241053Z 00000KT 10SM CLR 14/12 A3009 RMK AO2 SLP190
                        T01390117=
201212240953 METAR KTMB 240953Z 00000KT 10SM CLR 12/10 A3008 RMK AO2 SLP186
                        T01170100=
201212240853 METAR KTMB 240853Z 00000KT 10SM FEW060 12/11 A3010 RMK AO2
                        SLP193 T01220111 58014=
201212240753 METAR KTMB 240753Z 00000KT 10SM CLR 14/12 A3011 RMK AO2 SLP195
                        T01440117=
201212240653 METAR KTMB 240653Z 35003KT 10SM SCT055 12/10 A3014 RMK AO2
                        SLP204 T01170100=
201212240553 METAR KTMB 240553Z 00000KT 10SM BKN055 13/12 A3014 RMK AO2
                        SLP206 T01280117 10172 20106 56011=
201212240453 METAR KTMB 240453Z 00000KT 10SM CLR 13/12 A3015 RMK AO2 SLP207
                        T01330117 402330067=
201212240353 METAR KTMB 240353Z 00000KT 10SM CLR 12/11 A3017 RMK AO2 SLP215
                        T01170106=
201212240253 METAR KTMB 240253Z 00000KT 10SM FEW049 13/11 A3018 RMK AO2
                        SLP217 T01330106 52004=
201212240153 METAR KTMB 240153Z 00000KT 10SM FEW047 14/11 A3017 RMK AO2
                        SLP216 T01440111=
201212240053 METAR KTMB 240053Z 00000KT 10SM FEW047 15/11 A3017 RMK AO2
                        SLP215 T01500111=
201212232353 METAR KTMB 232353Z 00000KT 10SM FEW045 16/11 A3016 RMK AO2
                        SLP213 T01610106 10233 20161 53004=
201212232253 METAR KTMB 232253Z 00000KT 10SM CLR 19/11 A3015 RMK AO2 SLP210
                        T01890106=
201212232153 METAR KTMB 232153Z 10005KT 10SM CLR 21/10 A3016 RMK AO2 SLP211
                        T02060100=
201212232053 METAR KTMB 232053Z 11006KT 10SM CLR 21/10 A3015 RMK AO2 SLP209
                        T02110100 56009=
201212231953 METAR KTMB 231953Z 10010KT 10SM CLR 22/10 A3016 RMK AO2 SLP211
                        T02220100=
201212231853 METAR KTMB 231853Z 10009G15KT 10SM FEW044 22/10 A3016 RMK
                        AO2 SLP212 T02220100=
201212231753 METAR KTMB 231753Z 09011KT 10SM CLR 23/09 A3018 RMK AO2 SLP218
                        T02280094 10233 20083 58023=
201212231653 METAR KTMB 231653Z 09010KT 10SM FEW041 23/12 A3021 RMK AO2
                        SLP230 T02280117=
201212231553 METAR KTMB 231553Z 04006KT 10SM CLR 20/09 A3024 RMK AO2 SLP238
                        T02000089=
201212231453 METAR KTMB 231453Z 01004KT 10SM CLR 18/07 A3025 RMK AO2 SLP241
                        T01780067 51013=
201212231353 METAR KTMB 231353Z 02006KT 10SM CLR 14/06 A3024=
201212231253 METAR KTMB 231253Z 01003KT 10SM CLR 11/06 A3022 RMK AO2 SLP233
                        T01110056=
201212231153 METAR KTMB 231153Z 01004KT 10SM CLR 10/03 A3021 RMK AO2 SLP229
                        T01000033 10100 20067 53005=
201212231053 METAR KTMB 231053Z 34006KT 10SM CLR 09/02 A3021 RMK AO2 SLP228
                        T00890022=
201212230953 METAR KTMB 230953Z 02005KT 10SM CLR 10/02 A3019 RMK AO2 SLP222
                        T01000022=
201212230853 METAR KTMB 230853Z 36003KT 10SM CLR 08/03 A3020 RMK AO2 SLP224
                        T00830028 58010=
201212230753 METAR KTMB 230753Z 33003KT 10SM CLR 07/03 A3021 RMK AO2 SLP228
                        T00670033=
201212230653 METAR KTMB 230653Z 00000KT 10SM CLR 10/03 A3022 RMK AO2 SLP233
                        T01000028=
201212230553 METAR KTMB 230553Z 34004KT 10SM CLR 08/02 A3023 RMK AO2 SLP235
                        T00830022 10122 20083 58010=
201212230453 METAR KTMB 230453Z 35004KT 10SM CLR 09/02 A3024 RMK AO2 SLP238
                        T00940022 401830078=
201212230353 METAR KTMB 230353Z 01003KT 10SM CLR 09/01 A3025 RMK AO2 SLP243
                        T00940011=
201212230253 METAR KTMB 230253Z 36003KT 10SM CLR 10/01 A3026 RMK AO2 SLP245
                        T01000006 51010=
201212230153 METAR KTMB 230153Z 01003KT 10SM CLR 11/01 A3025 RMK AO2 SLP242
                        T01060011=
201212230053 METAR KTMB 230053Z 00000KT 10SM CLR 11/00 A3024 RMK AO2 SLP239
                        T01110000=
201212222353 METAR KTMB 222353Z 01005KT 10SM CLR 12/M01 A3023 RMK AO2
                        SLP234 T01171006 10183 20117 53011=
201212222253 METAR KTMB 222253Z 01007KT 10SM CLR 13/M01 A3021 RMK AO2
                        SLP230 T01331011=
201212222153 METAR KTMB 222153Z 34008KT 10SM CLR 17/M02 A3020 RMK AO2
                        SLP225 T01721017=
201212222053 METAR KTMB 222053Z 33012G16KT 10SM CLR 18/M04 A3019 RMK AO2
                        SLP224 T01781039 55010=
201212221953 METAR KTMB 221953Z 34011KT 10SM CLR 18/M03 A3019 RMK AO2
                        SLP223 T01781028=
201212221853 METAR KTMB 221853Z 33012KT 10SM CLR 17/M02 A3020 RMK AO2
                        SLP226 T01721022=
201212221753 METAR KTMB 221753Z 33012KT 10SM CLR 16/M01 A3022=
201212221653 METAR KTMB 221653Z 33013KT 10SM CLR 16/M01 A3025 RMK AO2
                        SLP243 T01561006=
201212221553 METAR KTMB 221553Z 35012KT 10SM CLR 14/M01 A3027 RMK AO2
                        SLP248 T01441011=
201212221453 METAR KTMB 221453Z 36012KT 10SM CLR 13/M02 A3028 RMK AO2
                        SLP252 T01281017 51016=
201212221353 METAR KTMB 221353Z 35016KT 10SM CLR 11/M01 A3027 RMK AO2
                        SLP250 T01111011=
201212221253 METAR KTMB 221253Z 36015KT 10SM CLR 09/00 A3025 RMK AO2 SLP243
                        T00940000=
201212221153 METAR KTMB 221153Z 35011KT 10SM CLR 09/01 A3023 RMK AO2 SLP235
                        T00890011 10106 20078 53011=
201212221053 METAR KTMB 221053Z AUTO 36010KT 10SM CLR 09/02 A3021 RMK
                        AO2 SLP228 T00890022=
201212220953 METAR KTMB 220953Z AUTO 34006KT 10SM CLR 08/03 A3020 RMK
                        AO2 SLP224 T00830028=
201212220853 METAR KTMB 220853Z AUTO 35012G17KT 10SM CLR 10/02 A3020 RMK
                        AO2 SLP224 T01000022 51002=
201212220753 METAR KTMB 220753Z AUTO 34010KT 10SM CLR 10/02 A3019 RMK
                        AO2 SLP223 T01000022=
201212220653 METAR KTMB 220653Z AUTO 33011KT 10SM CLR 10/02 A3019 RMK
                        AO2 SLP224 T01000022=
201212220553 METAR KTMB 220553Z AUTO 34012G20KT 10SM CLR 11/03 A3019 RMK
                        AO2 SLP222 T01060028 10150 20106
                        51005=
201212220453 METAR KTMB 220453Z AUTO 34014G22KT 10SM CLR 11/03 A3019 RMK
                        AO2 SLP222 T01110033 402110111=
201212220353 METAR KTMB 220353Z AUTO 33015G21KT 10SM CLR 12/04 A3018 RMK
                        AO2 SLP220 T01220039=
201212220253 METAR KTMB 220253Z 33013G22KT 10SM CLR 13/03 A3017 RMK AO2
                        SLP217 T01330033 52020=
201212220153 METAR KTMB 220153Z 33013KT 10SM CLR 14/01 A3016=
201212220053 METAR KTMB 220053Z 32007KT 10SM CLR 14/04 A3013 RMK AO2 SLP203
                        T01440039=
201212212353 METAR KTMB 212353Z 33008KT 10SM CLR 14/04 A3011 RMK AO2 SLP197
                        T01440039 10206 20144 53015=
201212212253 METAR KTMB 212253Z 34011KT 10SM CLR 17/03 A3010 RMK AO2 SLP192
                        T01670033=
201212212153 METAR KTMB 212153Z 34013KT 10SM CLR 19/04 A3008 RMK AO2 SLP185
                        T01890039=
201212212053 METAR KTMB 212053Z 34017G22KT 10SM CLR 20/04 A3007 RMK AO2
                        SLP182 T02000044 55003=
201212211953 METAR KTMB 211953Z 33015G23KT 10SM CLR 20/06 A3006 RMK AO2
                        SLP177 T02000056=
201212211853 METAR KTMB 211853Z 34014G23KT 10SM CLR 19/06 A3007 RMK AO2
                        PK WND 34026/1820 SLP181 T01940056=
201212211753 METAR KTMB 211753Z 34015G23KT 10SM CLR 19/06 A3008 RMK AO2
                        PK WND 35028/1729 SLP185 T01940061
                        10211 20183 58008=
201212211653 METAR KTMB 211653Z 34018G24KT 10SM CLR 19/08 A3010 RMK AO2
                        PK WND 31031/1642 SLP193 T01940083=
201212211553 METAR KTMB 211553Z 34019G24KT 10SM CLR 19/09 A3011 RMK AO2
                        SLP194 T01890094=
201212211453 METAR KTMB 211453Z 33015KT 10SM SCT023 BKN034 19/12 A3011
                        RMK AO2 PK WND 32027/1402 SLP194
                        T01940122 51034=
201212211353 METAR KTMB 211353Z 34015G22KT 10SM BKN017 OVC030 19/14 A3008
                        RMK AO2 SLP185 T01890144=
201212211253 METAR KTMB 211253Z 32012KT 10SM OVC015 20/18 A3005 RMK AO2
                        WSHFT 1207 SLP175 T02000178=
201212211153 METAR KTMB 211153Z AUTO 25006KT 10SM FEW033 21/21 A3001 RMK
                        AO2 SLP160 60001 70001 T02110206
                        10211 20172 53003 TSNO=
201212211053 METAR KTMB 211053Z 22005KT 9SM FEW035 21/20 A2999 RMK AO2
                        SLP154 T02060200=
201212210953 METAR KTMB 210953Z 21005KT 10SM CLR 20/19 A2998 RMK AO2 SLP153
                        T02000194=
201212210853 METAR KTMB 210853Z 23004KT 10SM FEW085 19/19 A3000 RMK AO2
                        SLP157 60001 T01940189 56012=
201212210753 METAR KTMB 210753Z 22004KT 10SM CLR 20/19 A3000 RMK AO2 SLP159
                        P0001 T02000189=
201212210653 METAR KTMB 210653Z 24004KT 10SM CLR 19/18 A3002 RMK AO2 SLP166
                        T01940183=
201212210553 METAR KTMB 210553Z 25003KT 10SM CLR 18/17 A3003 RMK AO2 SLP169
                        T01780172 10228 20172 58003=
201212210453 METAR KTMB 210453Z 00000KT 10SM CLR 19/18 A3004 RMK AO2 SLP171
                        T01940183 402780172=
201212210353 METAR KTMB 210353Z 00000KT 10SM CLR 19/18 A3004 RMK AO2 SLP172
                        T01890183=
201212210253 METAR KTMB 210253Z 00000KT 10SM CLR 19/18 A3004 RMK AO2 SLP172
                        T01890178 53001=
201212210153 METAR KTMB 210153Z 00000KT 10SM CLR 22/18 A3004 RMK AO2 SLP171
                        T02170183=
201212210053 METAR KTMB 210053Z 16004KT 10SM CLR 22/18 A3002 RMK AO2 SLP165
                        T02170183=
201212202353 METAR KTMB 202353Z 00000KT 10SM CLR 22/18 A3004 RMK AO2 SLP171
                        T02220183 10278 20222 53014=
201212202253 METAR KTMB 202253Z 18004KT 10SM CLR 24/18 A3001 RMK AO2 SLP161
                        T02390183=
201212202153 METAR KTMB 202153Z 15010KT 10SM FEW036 SCT045 25/19 A2999
                        RMK AO2 SLP155 T02500189=
201212202053 METAR KTMB 202053Z 15010KT 10SM CLR 26/19 A3000 RMK AO2 SLP156
                        T02610189 56019=
201212201953 METAR KTMB 201953Z 13011KT 10SM FEW036 27/18 A3000 RMK AO2
                        SLP159 T02670183=
201212201853 METAR KTMB 201853Z 14012G17KT 10SM SCT034 BKN043 27/19 A3002=
201212201753 METAR KTMB 201753Z VRB04KT 10SM SCT040 26/17 A3005 RMK AO2
                        SLP175 T02610172 10272 20178 58014=
201212201653 METAR KTMB 201653Z 14009KT 10SM FEW041 27/17 A3008 RMK AO2
                        SLP186 T02670167=
201212201553 METAR KTMB 201553Z 15008G15KT 10SM CLR 27/17 A3009 RMK AO2
                        SLP189 T02670167=
201212201453 METAR KTMB 201453Z 14009G16KT 10SM CLR 26/17 A3009 RMK AO2
                        SLP189 T02610167 53004=
201212201353 METAR KTMB 201353Z 13007KT 10SM CLR 24/19 A3009 RMK AO2 SLP187
                        T02440194=
201212201253 METAR KTMB 201253Z 00000KT 10SM FEW034 19/18 A3008 RMK AO2
                        SLP186 T01940178=
201212201153 METAR KTMB 201153Z 00000KT 10SM BKN032 BKN041 18/17 A3008
                        RMK AO2 SLP185 T01780172 10211 20172
                        53006=
201212201053 METAR KTMB 201053Z AUTO 00000KT 10SM SCT028 SCT037 18/17
                        A3006=
201212200953 METAR KTMB 200953Z AUTO 08003KT 10SM CLR 19/18 A3005 RMK
                        AO2 SLP176 T01890178=
201212200853 METAR KTMB 200853Z AUTO 00000KT 10SM CLR 17/17 A3006 RMK
                        AO2 SLP178 T01720167 58004=
201212200753 METAR KTMB 200753Z AUTO 00000KT 10SM CLR 18/17 A3007 RMK
                        AO2 SLP180 T01780167=
201212200653 METAR KTMB 200653Z AUTO 00000KT 10SM CLR 19/18 A3007 RMK
                        AO2 SLP181 T01940178=
201212200553 METAR KTMB 200553Z AUTO 12003KT 10SM CLR 21/18 A3007 RMK
                        AO2 SLP182 T02060183 10228 20189
                        58006=
201212200453 METAR KTMB 200453Z AUTO 12004KT 10SM CLR 21/18 A3008 RMK
                        AO2 SLP185 T02060178 402830161=
201212200353 METAR KTMB 200353Z AUTO 12006KT 10SM CLR 21/19 A3009 RMK
                        AO2 SLP187 T02110189=
201212200253 METAR KTMB 200253Z 09004KT 10SM CLR 19/18 A3009 RMK AO2 SLP189
                        T01940183 51010=
201212200153 METAR KTMB 200153Z 08003KT 10SM CLR 21/19 A3008 RMK AO2 SLP185
                        T02110194=
201212200053 METAR KTMB 200053Z 08004KT 10SM CLR 21/19 A3007 RMK AO2 SLP183
                        T02110189=
201212192353 METAR KTMB 192353Z 10006KT 10SM CLR 22/19 A3006 RMK AO2 SLP178
                        T02170189 10283 20211 51010=
201212192253 METAR KTMB 192253Z 09007KT 10SM CLR 23/19 A3005 RMK AO2 SLP175
                        T02280189=
201212192153 METAR KTMB 192153Z 11006KT 10SM FEW045 26/18 A3004 RMK AO2
                        SLP172 T02560183=
201212192053 METAR KTMB 192053Z 09009KT 10SM SCT045 27/19 A3003 RMK AO2
                        SLP168 T02720189 55007=
201212191953 METAR KTMB 191953Z 11007KT 10SM FEW037 27/19 A3003 RMK AO2
                        SLP167 T02670189=
201212191853 METAR KTMB 191853Z 13005KT 10SM FEW043 28/19 A3003 RMK AO2
                        SLP169 T02780189=
201212191753 METAR KTMB 191753Z 08004KT 10SM CLR 28/18 A3005 RMK AO2 PK
                        WND 15028/1744 SLP175 T02780178 10283
                        20172 58017=
201212191653 METAR KTMB 191653Z VRB03KT 10SM CLR 28/17 A3008 RMK AO2 SLP186
                        T02780172=
201212191553 METAR KTMB 191553Z 08004KT 10SM CLR 27/16 A3010 RMK AO2 SLP191
                        T02670156=
201212191453 METAR KTMB 191453Z 03004KT 10SM CLR 24/15 A3010 RMK AO2 SLP192
                        T02390150 51018=
201212191353 METAR KTMB 191353Z 01004KT 10SM CLR 22/16 A3009 RMK AO2 SLP188
                        T02170161=
201212191253 METAR KTMB 191253Z 36004KT 10SM CLR 19/17 A3007 RMK AO2 SLP180
                        T01890172=
201212191153 METAR KTMB 191153Z 01005KT 10SM CLR 18/17 A3005 RMK AO2 SLP174
                        60001 70001 T01780172 10194 20161
                        53009=
201212191053 METAR KTMB 191053Z AUTO 00000KT 5SM BR CLR 17/17 A3004 RMK
                        AO2 SLP170 T01670167=
201212190953 METAR KTMB 190953Z AUTO 00000KT 8SM CLR 18/18 A3002 RMK AO2
                        SLP166 T01830178=
201212190853 METAR KTMB 190853Z AUTO 02003KT 10SM CLR 19/19 A3002 RMK
                        AO2 SLP165 60001 T01940189 58002=
201212190753 METAR KTMB 190753Z AUTO 34005KT 1 3/4SM BR FEW004 18/18 A3002
                        RMK AO2 VIS 1V4 SLP166 P0001 T01780178=
201212190653 METAR KTMB 190653Z AUTO 32003KT 1 1/4SM BR CLR 18/18 A3003
                        RMK AO2 SLP167 T01830183=
201212190553 METAR KTMB 190553Z AUTO 30003KT 1 1/4SM BR CLR 19/19 A3003
                        RMK AO2 SLP167 T01890189 10228 20178
                        56001=
201212190453 METAR KTMB 190453Z AUTO 31003KT 1/4SM FG VV002 18/18 A3002
                        RMK AO2 SLP166 T01830183 402940172=
201212190353 METAR KTMB 190353Z 00000KT 3/4SM BR VV004 19/19 A3003 RMK
                        AO2 SLP168 T01940194=
201212190253 METAR KTMB 190253Z 00000KT 10SM CLR 20/19 A3003 RMK AO2 SLP167
                        T02000189 51012=
201212190153 METAR KTMB 190153Z 27004KT 10SM CLR 21/19 A3002 RMK AO2 SLP163
                        T02110194=
201212190053 METAR KTMB 190053Z 24004KT 10SM CLR 22/19 A3000 RMK AO2 SLP159
                        T02220189=
201212182353 METAR KTMB 182353Z 26007KT 10SM CLR 22/18 A2999 RMK AO2 SLP155
                        T02220183 10294 20217 53013=
201212182253 METAR KTMB 182253Z 25005KT 10SM CLR 24/18 A2997 RMK AO2 SLP148
                        T02440178=
201212182153 METAR KTMB 182153Z 25006KT 10SM CLR 27/18 A2996 RMK AO2 SLP144
                        T02720183=
201212182053 METAR KTMB 182053Z 28009KT 10SM CLR 28/18 A2995 RMK AO2 SLP141
                        T02830178 55008=
201212181953 METAR KTMB 181953Z 28010KT 10SM CLR 29/17 A2995 RMK AO2 SLP141
                        T02890172=
201212181853 METAR KTMB 181853Z 27010KT 10SM FEW038 29/18 A2995 RMK AO2
                        SLP143 T02890183=
201212181753 METAR KTMB 181753Z 27007KT 10SM CLR 28/19 A2997 RMK AO2 SLP149
                        T02830189 10289 20189 58015=
201212181653 METAR KTMB 181653Z 28006KT 10SM CLR 28/19 A3000 RMK AO2 SLP158
                        T02780189=
201212181553 METAR KTMB 181553Z 29009KT 10SM CLR 27/19 A3002 RMK AO2 SLP164
                        T02720189=
201212181453 METAR KTMB 181453Z 26007KT 10SM CLR 26/21 A3002 RMK AO2 SLP164
                        T02610206 51016 $=
201212181353 METAR KTMB 181353Z 28006KT 10SM SCT100 23/22 A3000 RMK AO2
                        SLP159 T02330217 $=
201212181253 METAR KTMB 181253Z 00000KT 10SM SCT100 19/18 A2999 RMK AO2
                        SLP155 T01890183=
201212181153 METAR KTMB 181153Z 33004KT 8SM CLR 19/19 A2997 RMK AO2 SLP148
                        T01940194 10206 20172 53010=
201212181053 METAR KTMB 181053Z 21004KT 9SM FEW004 20/19 A2995 RMK AO2
                        SLP142 T02000194=
201212180953 METAR KTMB 180953Z 00000KT 4SM BR SCT016 SCT026 OVC060 19/19
                        A2995 RMK AO2 SLP141 T01940194=
201212180853 METAR KTMB 180853Z 31003KT 1/4SM FG VV002 19/19 A2994 RMK
                        AO2 SLP137 T01890189 55002=
201212180753 METAR KTMB 180753Z 32004KT 1/4SM FG VV002 17/17 A2994 RMK
                        AO2 SLP137 T01720172=
201212180653 METAR KTMB 180653Z 00000KT 10SM CLR 20/20 A2994 RMK AO2 SLP139
                        T02000200=
201212180553 METAR KTMB 180553Z 00000KT 10SM CLR 20/19 A2996 RMK AO2 SLP143
                        T02000189 10244 20189 58009=
201212180453 METAR KTMB 180453Z 00000KT 10SM CLR 19/18 A2998 RMK AO2 SLP150
                        T01890183 402830167=
201212180353 METAR KTMB 180353Z 00000KT 10SM CLR 20/19 A2999 RMK AO2 SLP154
                        T02000194=
201212180253 METAR KTMB 180253Z 00000KT 10SM CLR 21/19 A2998 RMK AO2 SLP152
                        T02060189 51005=
201212180153 METAR KTMB 180153Z 22003KT 10SM SCT070 23/21 A2998 RMK AO2
                        SLP151 T02330206=
201212180053 METAR KTMB 180053Z 22004KT 10SM OVC070 24/21 A2997 RMK AO2
                        SLP149 T02390206=
201212172353 METAR KTMB 172353Z 23003KT 10SM FEW027 OVC070 24/21 A2997
                        RMK AO2 SLP147 T02440206 10283 20244
                        53017=
201212172253 METAR KTMB 172253Z 23004KT 10SM FEW070 25/20 A2995 RMK AO2
                        SLP141 T02500200=
201212172153 METAR KTMB 172153Z 23008KT 10SM FEW037 SCT065 27/19 A2993
                        RMK AO2 SLP135 T02670189=
201212172053 METAR KTMB 172053Z 22010KT 10SM FEW036 28/18 A2992 RMK AO2
                        SLP130 T02780183 55006=
201212171953 METAR KTMB 171953Z 22012G17KT 10SM FEW035 28/19 A2991 RMK
                        AO2 SLP127 T02780189=
201212171853 METAR KTMB 171853Z 22010G15KT 10SM FEW037 SCT045 BKN065 28/19
                        A2991 RMK AO2 SLP127 T02830189=
201212171753 METAR KTMB 171753Z 21011KT 10SM SCT038 SCT045 OVC060 28/19
                        A2993 RMK AO2 SLP136 T02780189 10283
                        20172 58019=
201212171653 METAR KTMB 171653Z 19005KT 10SM FEW039 OVC055 27/19 A2997
                        RMK AO2 SLP147 T02720189=
201212171553 METAR KTMB 171553Z 18007KT 10SM FEW055 27/20 A2998 RMK AO2
                        SLP151 T02670200=
201212171453 METAR KTMB 171453Z VRB06KT 10SM CLR 25/19 A2999 RMK AO2 SLP155
                        T02500194 53004=
201212171353 METAR KTMB 171353Z 00000KT 10SM CLR 23/19 A2999 RMK AO2 SLP154
                        T02280194=
201212171253 METAR KTMB 171253Z 00000KT 10SM CLR 19/18 A2997 RMK AO2 PK
                        WND 15026/1215 SLP149 T01890183=
201212171153 METAR KTMB 171153Z 00000KT 10SM CLR 18/17 A2998 RMK AO2 SLP151
                        P0001 60001 70002 T01780172 10183
                        20167 53003=
201212171053 METAR KTMB 171053Z AUTO 10003KT 10SM CLR 18/17 A2997 RMK
                        AO2 SLP148 T01780172=
201212170953 METAR KTMB 170953Z 00000KT 10SM CLR 17/17 A2997 RMK AO2 SLP149
                        T01720167=
201212170853 METAR KTMB 170853Z 00000KT 10SM CLR 18/18 A2997 RMK AO2 SLP148
                        T01830178 58004=
201212170753 METAR KTMB 170753Z 00000KT 7SM CLR 18/17 A2999 RMK AO2 SLP153
                        T01780172=
201212170653 METAR KTMB 170653Z 00000KT 1SM BR CLR 17/17 A2999 RMK AO2
                        SLP155 T01720167=
201212170553 METAR KTMB 170553Z 00000KT 2SM BR CLR 18/17 A2998 RMK AO2
                        VIS 1V5 SLP152 T01780172 10217 20172
                        56007=
201212170453 METAR KTMB 170453Z 00000KT 10SM CLR 18/17 A2999 RMK AO2 SLP156
                        T01780172 402780172=
201212170353 METAR KTMB 170353Z 16003KT 10SM CLR 18/18 A2999 RMK AO2 SLP153
                        T01830178=
201212170253 METAR KTMB 170253Z 00000KT 10SM CLR 18/17 A3000 RMK AO2 SLP159
                        T01830172 53008=
201212170153 METAR KTMB 170153Z 00000KT 10SM CLR 20/18 A2998 RMK AO2 SLP152
                        T02000183=
201212170053 METAR KTMB 170053Z 00000KT 10SM CLR 20/18 A2999 RMK AO2 SLP153
                        T02000178=
201212162353 METAR KTMB 162353Z 00000KT 10SM CLR 22/18 A2998 RMK AO2 SLP151
                        T02170178 10278 20211 51005=
201212162253 METAR KTMB 162253Z 13004KT 10SM CLR 23/17 A2997 RMK AO2 SLP149
                        T02280172=
201212162153 METAR KTMB 162153Z 13005KT 10SM CLR 24/18 A2998 RMK AO2 SLP152
                        T02440178=
201212162053 METAR KTMB 162053Z 14008KT 10SM CLR 25/18 A2996 RMK AO2 SLP145
                        T02500178 55012=
201212161953 METAR KTMB 161953Z 16007KT 10SM SCT035 BKN043 26/18 A2996
                        RMK AO2 SLP144 T02560178=
201212161853 METAR KTMB 161853Z 12010KT 10SM BKN036 27/18 A2997 RMK AO2
                        SLP149 T02670183=
201212161753 METAR KTMB 161753Z 12007KT 10SM FEW036 SCT060 26/19 A3000
                        RMK AO2 SLP157 60001 T02610189 10272
                        20200 58019=
201212161653 METAR KTMB 161653Z 14011KT 10SM SCT029 SCT037 BKN060 27/19
                        A3002 RMK AO2 SLP166 T02670189=
201212161553 METAR KTMB 161553Z 13008KT 10SM FEW070 26/19 A3004 RMK AO2
                        SLP172 T02610194=
201212161453 METAR KTMB 161453Z 14005KT 10SM FEW025 BKN039 BKN046 25/21
                        A3005 RMK AO2 RAE15 SLP176 P0000
                        60001 T02500206 51010=
201212161353 METAR KTMB 161353Z 00000KT 10SM -RA SCT027 BKN039 OVC065
                        22/20 A3005 RMK AO2 RAB29 SLP176
                        P0001 T02170200=
201212161253 METAR KTMB 161253Z 00000KT 10SM OVC065 21/20 A3004 RMK AO2
                        RAE1159 SLP173 P0000 T02060200=
201212161153 METAR KTMB 161153Z 00000KT 10SM -RA BKN027 OVC040 20/19 A3002
                        RMK AO2 RAB07E28B47 SLP166 P0000
                        60000 70018 T02000194 10206 20172
                        53008=
201212161053 METAR KTMB 161053Z 00000KT 10SM SCT038 BKN050 18/18 A3001
                        RMK AO2 SLP163 T01830183=
201212160953 METAR KTMB 160953Z 00000KT 10SM CLR 18/18 A3001 RMK AO2 SLP160
                        T01780178=
201212160853 METAR KTMB 160853Z 00000KT 10SM CLR 19/18 A3000 RMK AO2 SLP158
                        T01890178 58009=
201212160753 METAR KTMB 160753Z 14004KT 10SM FEW060 19/18 A3000 RMK AO2
                        SLP159 T01890183=
201212160653 METAR KTMB 160653Z 00000KT 10SM CLR 18/17 A3003 RMK AO2 SLP167
                        T01780172=
201212160553 METAR KTMB 160553Z 00000KT 10SM FEW039 19/18 A3003 RMK AO2
                        SLP167 T01890178 10222 20183 58017=
201212160453 METAR KTMB 160453Z 00000KT 10SM FEW031 20/18 A3006 RMK AO2
                        SLP177 T02000183 402670161=
201212160353 METAR KTMB 160353Z 06004KT 10SM FEW029 19/18 A3006 RMK AO2
                        SLP177 T01940178=
201212160253 METAR KTMB 160253Z 04007KT 10SM FEW038 SCT060 OVC075 22/19
                        A3008 RMK AO2 SLP184 T02170189 51005=
201212160153 METAR KTMB 160153Z 04007KT 10SM FEW032 OVC070 22/18 A3008
                        RMK AO2 SLP184 T02170183=
201212160053 METAR KTMB 160053Z 00000KT 10SM OVC075 21/19 A3007 RMK AO2
                        SLP182 T02110194=
201212152353 METAR KTMB 152353Z 35003KT 10SM OVC070 22/19 A3006 RMK AO2
                        SLP179 60010 T02170194 10239 20217
                        53009=
201212152253 METAR KTMB 152253Z 14003KT 10SM SCT032 BKN048 OVC055 22/18
                        A3005 RMK AO2 SLP174 T02220183=
201212152153 METAR KTMB 152153Z AUTO 06007KT 10SM BKN049 OVC080 23/18
                        A3003 RMK AO2 SLP169 T02280178 TSNO=
201212152053 METAR KTMB 152053Z AUTO 07009KT 10SM FEW024 OVC043 22/19
                        A3003 RMK AO2 RAB25E49 SLP169 P0006
                        60010 T02220189 56006 TSNO=
201212151953 METAR KTMB 151953Z AUTO 11010KT 090V150 10SM OVC047 24/19
                        A3004 RMK AO2 SLP171 T02390189 TSNO=
201212151853 METAR KTMB 151853Z AUTO 07010KT 10SM BKN043 OVC060 24/20
                        A3004 RMK AO2 RAE29 SLP173 P0004
                        T02390200 TSNO=
201212151753 METAR KTMB 151753Z AUTO 06011KT 6SM -RA BR SCT025 BKN030
                        OVC045 22/20 A3005 RMK AO2 RAE00B29
                        SLP176 P0008 60008 T02220200 10267
                        20200 58017 TSNO=
201212151653 METAR KTMB 151653Z 05010KT 10SM -RA FEW020 BKN045 OVC070
                        23/20 A3007 RMK AO2 RAB1557E11B44
                        SLP182 P0000 T02330200=
201212151553 METAR KTMB 151553Z 09013G20KT 10SM SCT025 BKN034 BKN048 23/19
                        A3010 RMK AO2 RAB36E48 SLP192 P0000
                        T02330194=
201212151453 METAR KTMB 151453Z 08005KT 10SM CLR 24/19 A3010 RMK AO2 SLP193
                        T02390194 51013=
201212151353 METAR KTMB 151353Z 34006KT 10SM CLR 23/19 A3010 RMK AO2 SLP191
                        T02280194=
201212151253 METAR KTMB 151253Z 00000KT 10SM CLR 20/19 A3008 RMK AO2 SLP185
                        T02000189=
201212151153 METAR KTMB 151153Z AUTO 34003KT 10SM BKN033 BKN043 19/18
                        A3007 RMK AO2 SLP181 60002 70002
                        T01940183 10194 20161 53010 TSNO=
201212151053 METAR KTMB 151053Z AUTO 34004KT 10SM FEW048 OVC070 19/18
                        A3005 RMK AO2 RAB20E38 SLP176 P0002
                        T01940183=
201212150953 METAR KTMB 150953Z AUTO 00000KT 10SM FEW031 SCT041 OVC075
                        18/18 A3004 RMK AO2 RAB32E43 SLP172
                        P0000 T01830183=
201212150853 METAR KTMB 150853Z AUTO 00000KT 9SM CLR 17/17 A3004 RMK AO2
                        SLP170 T01720172 56009=
201212150753 METAR KTMB 150753Z AUTO 00000KT 10SM CLR 17/17 A3004 RMK
                        AO2 SLP170 T01720172=
201212150653 METAR KTMB 150653Z AUTO 34003KT 10SM CLR 18/17 A3005 RMK
                        AO2 SLP175 T01830172=
201212150553 METAR KTMB 150553Z AUTO 01005KT 10SM FEW075 19/18 A3006 RMK
                        AO2 SLP179 60000 T01940178 10228
                        20172 58015=
201212150453 METAR KTMB 150453Z AUTO 36005KT 10SM FEW031 BKN039 20/18
                        A3009 RMK AO2 RAB12E21 SLP187 P0000
                        T02000178 402720172=
201212150353 METAR KTMB 150353Z AUTO 00000KT 10SM FEW034 SCT045 18/17
                        A3009 RMK AO2 SLP190 T01830172=
201212150253 METAR KTMB 150253Z 32003KT 10SM CLR 17/16 A3011 RMK AO2 SLP194
                        T01720161 53013=
201212150153 METAR KTMB 150153Z 05004KT 10SM CLR 21/17 A3008 RMK AO2 SLP186
                        T02060167=
201212150053 METAR KTMB 150053Z 03006KT 10SM CLR 22/17 A3008 RMK AO2 SLP185
                        T02170167=
201212142353 METAR KTMB 142353Z 04005KT 10SM CLR 23/17 A3007 RMK AO2 SLP181
                        T02280167 10272 20228 53002=
201212142253 METAR KTMB 142253Z 06008KT 10SM FEW037 BKN065 23/17 A3006
                        RMK AO2 SLP180 T02330167=
201212142153 METAR KTMB 142153Z 06012KT 10SM FEW050 24/17 A3005 RMK AO2
                        SLP175 T02440167=
201212142053 METAR KTMB 142053Z 05013KT 10SM FEW030 BKN050 25/16 A3006
                        RMK AO2 SLP179 T02500161 55004=
201212141953 METAR KTMB 141953Z 05015KT 10SM SCT023 27/18 A3006 RMK AO2
                        SLP178 T02670178=
201212141853 METAR KTMB 141853Z 06010KT 10SM BKN036 BKN075 26/17 A3007
                        RMK AO2 SLP181 T02610172=
201212141753 METAR KTMB 141753Z 04012G16KT 10SM SCT032 BKN046 27/18 A3007
                        RMK AO2 SLP183 T02670183 10272 20178
                        58020=
201212141653 METAR KTMB 141653Z VRB03KT 10SM CLR 26/19 A3011 RMK AO2 SLP194
                        T02560189=
201212141553 METAR KTMB 141553Z 01008KT 10SM CLR 24/18 A3013 RMK AO2 SLP202
                        T02390183=
201212141453 METAR KTMB 141453Z 34007KT 10SM CLR 22/18 A3013 RMK AO2 SLP202
                        T02220183 51012=
201212141353 METAR KTMB 141353Z 01007KT 10SM OVC004 19/17 A3012 RMK AO2
                        SLP198 T01890172=
201212141253 METAR KTMB 141253Z 35007KT 9SM OVC004 18/17 A3011 RMK AO2
                        SLP194 T01780172=
201212141153 METAR KTMB 141153Z 34009KT 10SM OVC006 18/17 A3010 RMK AO2
                        SLP191 T01780167 10183 20178 53008=
201212141053 METAR KTMB 141053Z AUTO 35007KT 10SM OVC006 18/17 A3008 RMK
                        AO2 SLP185 T01780167=
201212140953 METAR KTMB 140953Z AUTO 36008KT 10SM OVC006 18/17 A3007 RMK
                        AO2 SLP182 T01780167=
201212140853 METAR KTMB 140853Z AUTO 36008KT 10SM OVC006 18/17 A3007 RMK
                        AO2 SLP182 T01780167 55005=
201212140753 METAR KTMB 140753Z AUTO 01008KT 10SM OVC008 18/17 A3007 RMK
                        AO2 SLP182 T01780167=
201212140653 METAR KTMB 140653Z AUTO 36009KT 10SM SCT070 18/17 A3008 RMK
                        AO2 SLP184 T01830167=
201212140553 METAR KTMB 140553Z AUTO 01010KT 10SM SCT009 SCT023 BKN070
                        18/17 A3009 RMK AO2 SLP188 T01830167
                        10222 20183 56008=
201212140453 METAR KTMB 140453Z AUTO 01010G18KT 10SM BKN049 19/17 A3009
                        RMK AO2 SLP188 T01890167 402940189=
201212140353 METAR KTMB 140353Z 35011KT 10SM SCT048 19/17 A3011 RMK AO2
                        SLP194 T01940172=
201212140253 METAR KTMB 140253Z 36009KT 10SM OVC042 21/17 A3011 RMK AO2
                        SLP196 T02060172 53009=
201212140153 METAR KTMB 140153Z 36008KT 10SM OVC042 21/18 A3010 RMK AO2
                        SLP191 T02110178=
201212140053 METAR KTMB 140053Z 02010KT 10SM FEW037 22/18 A3009 RMK AO2
                        SLP188 T02170178=
201212132353 METAR KTMB 132353Z 01010KT 10SM FEW029 OVC035 22/18 A3008
                        RMK AO2 SLP186 T02220183 10261 20217
                        53009=
201212132300 METAR KTMB NIL=
201212132200 METAR KTMB NIL=
201212132053 METAR KTMB 132053Z 36012KT 10SM OVC012 23/19 A3006 RMK AO2
                        SLP177 T02280194 56004=
201212131953 METAR KTMB 131953Z 36013KT 10SM OVC012 23/20 A3006 RMK AO2
                        SLP179 T02330200=
201212131853 METAR KTMB 131853Z 35013G20KT 10SM OVC012 24/21 A3006 RMK
                        AO2 SLP178 T02440206=
201212131753 METAR KTMB 131753Z 35013KT 10SM SCT015 BKN038 BKN049 25/21
                        A3007 RMK AO2 WSHFT 1652 RAB02E12B33E43
                        SLP181 P0000 60000 T02500211 10294
                        20189 58012=
201212131653 METAR KTMB 131653Z 30010KT 10SM FEW026 BKN065 29/22 A3009
                        RMK AO2 RAB12E15 SLP187 P0000 T02940217=
201212131553 METAR KTMB 131553Z 26006KT 10SM BR FEW041 27/22 A3010 RMK
                        AO2 SLP191 T02720217=
201212131453 METAR KTMB 131453Z 27007KT 10SM BR BKN013 27/22 A3010 RMK
                        AO2 SLP193 T02670222 51006=
201212131353 METAR KTMB 131353Z 25003KT 10SM BR CLR 24/23 A3010 RMK AO2
                        SLP191 T02440228=
201212131253 METAR KTMB 131253Z 00000KT 4SM BR CLR 21/20 A3009 RMK AO2
                        SLP187 T02110200=
201212131153 METAR KTMB 131153Z 27003KT 6SM BR CLR 20/19 A3007 RMK AO2
                        SLP182 P0001 60001 70001 T02000194
                        10217 20194 53009=
201212131053 METAR KTMB 131053Z AUTO 00000KT 10SM CLR 21/21 A3006 RMK
                        AO2 SLP178 T02110211=
201212130953 METAR KTMB 130953Z AUTO 00000KT 8SM CLR 21/20 A3005 RMK AO2
                        SLP173 T02060200=
201212130853 METAR KTMB 130853Z AUTO 00000KT 10SM CLR 22/21 A3004 RMK
                        AO2 SLP173 T02170211 58008=
201212130753 METAR KTMB 130753Z AUTO 00000KT 9SM SCT048 OVC060 21/21 A3006
                        RMK AO2 SLP177 T02110211=
201212130653 METAR KTMB 130653Z AUTO 30003KT 8SM FEW014 20/19 A3006 RMK
                        AO2 SLP179 T02000194=
201212130553 METAR KTMB 130553Z AUTO 00000KT 10SM CLR 20/20 A3007 RMK
                        AO2 SLP181 T02000200 10250 20200
                        58004=
201212130453 METAR KTMB 130453Z AUTO 00000KT 10SM CLR 23/21 A3007 RMK
                        AO2 SLP182 T02280211 402890211=
201212130353 METAR KTMB 130353Z AUTO 13003KT 10SM CLR 23/21 A3008 RMK
                        AO2 SLP186 T02280211=
201212130253 METAR KTMB 130253Z 00000KT 10SM CLR 23/21 A3008 RMK AO2 SLP185
                        T02330211 58001=
201212130153 METAR KTMB 130153Z 17003KT 10SM CLR 24/21 A3009 RMK AO2 SLP187
                        T02390211=
201212130053 METAR KTMB 130053Z 15003KT 10SM CLR 24/21 A3009 RMK AO2 SLP188
                        T02390211=
201212122353 METAR KTMB 122353Z 00000KT 10SM SCT046 25/21 A3008 RMK AO2
                        SLP186 T02500211 10289 20250 51015=
201212122253 METAR KTMB 122253Z 21004KT 10SM CLR 26/21 A3007 RMK AO2 SLP181
                        T02560211=
201212122153 METAR KTMB 122153Z 21005KT 10SM SCT026 BKN031 26/21 A3006
                        RMK AO2 SLP177 T02610211=
201212122053 METAR KTMB 122053Z 18007KT 10SM SCT033 27/21 A3004 RMK AO2
                        SLP171 T02670211 55004=
201212121953 METAR KTMB 121953Z 18007KT 10SM FEW026 28/21 A3003 RMK AO2
                        SLP168 T02780211=
201212121853 METAR KTMB 121853Z 17008KT 10SM SCT029 28/21 A3004 RMK AO2
                        SLP170 T02830211=
201212121753 METAR KTMB 121753Z 14013KT 10SM SCT029 28/21 A3005 RMK AO2
                        SLP175 T02780211 10289 20239 58019=
201212121700 METAR KTMB NIL=
201212121653 METAR KTMB 121653Z 16011KT 10SM SCT021 28/21 A3008 RMK AO2
                        SLP184 T02780211=
201212121553 METAR KTMB 121553Z 15011G17KT 10SM SCT021 27/22 A3009 RMK
                        AO2 SLP188 T02670217=
201212121453 METAR KTMB 121453Z 15005KT 10SM FEW021 26/22 A3011 RMK AO2
                        SLP194 T02610217 51013=
201212121353 METAR KTMB 121353Z 18006KT 10SM FEW021 26/22 A3011 RMK AO2
                        SLP194 T02560217=
201212121253 METAR KTMB 121253Z 17004KT 10SM CLR 25/22 A3008 RMK AO2 SLP186
                        T02500222=
201212121153 METAR KTMB 121153Z 15004KT 10SM CLR 24/22 A3007 RMK AO2 SLP181
                        T02440222 10244 20239 53008=
201212121053 METAR KTMB 121053Z AUTO 13007KT 10SM CLR 24/22 A3004 RMK
                        AO2 SLP171 T02440222 TSNO=
201212120953 METAR KTMB 120953Z AUTO 14007KT 10SM CLR 24/22 A3003 RMK
                        AO2 SLP169 T02440222 TSNO=
201212120853 METAR KTMB 120853Z AUTO 14004KT 10SM CLR 24/23 A3004 RMK
                        AO2 SLP173 T02390228 56003 TSNO=
201212120753 METAR KTMB 120753Z AUTO 15004KT 10SM SCT017 24/23 A3004 RMK
                        AO2 SLP173 T02390228 TSNO=
201212120653 METAR KTMB 120653Z AUTO 13005KT 10SM CLR 24/23 A3004 RMK
                        AO2 SLP172 T02440228 TSNO=
201212120553 METAR KTMB 120553Z AUTO 15004KT 10SM CLR 24/23 A3005 RMK
                        AO2 SLP175 T02440228 10256 20244
                        58002 TSNO=
201212120453 METAR KTMB 120453Z AUTO 14005KT 10SM CLR 24/23 A3006 RMK
                        AO2 SLP179 T02440228 403060206 TSNO=
201212120353 METAR KTMB 120353Z 15004KT 10SM CLR 25/23 A3006 RMK AO2 SLP178
                        T02500233=
201212120253 METAR KTMB 120253Z 00000KT 10SM FEW014 25/23 A3006 RMK AO2
                        SLP178 T02500233 53026=
201212120153 METAR KTMB 120153Z 14004KT 10SM FEW014 SCT027 25/23 A3003
                        RMK AO2 SLP167 T02500233=
201212111753 METAR KTMB 111753Z 22008KT 10SM FEW031 SCT042 30/22 A2999
                        RMK AO2 SLP153 T03000222 10300 20211
                        58010=
201212111653 METAR KTMB 111653Z 22009KT 10SM CLR 29/22 A3002 RMK AO2 SLP164
                        T02940222=
201212111553 METAR KTMB 111553Z 22008KT 10SM BKN023 28/23 A3004 RMK AO2
                        SLP171 T02830228=
201212111453 METAR KTMB 111453Z 18008KT 10SM FEW015 28/24 A3002 RMK AO2
                        SLP163 T02780239 50015=
201212111353 METAR KTMB 111353Z 17004KT 10SM CLR 26/24 A3002 RMK AO2 SLP164
                        T02610244=
201212111253 METAR KTMB 111253Z 00000KT 10SM CLR 24/23 A3001 RMK AO2 SLP162
                        T02390228=
201212111153 METAR KTMB 111153Z AUTO 11004KT 10SM CLR 21/21 A2997=
201212111053 METAR KTMB 111053Z AUTO 16004KT 10SM FEW016 22/21 A2997 RMK
                        AO2 SLP148 T02220211=
201212110953 METAR KTMB 110953Z AUTO 00000KT 10SM BKN020 BKN025 OVC030
                        22/21 A2996 RMK AO2 RAB0859E27 SLP145
                        P0001 T02220206=
201212110853 METAR KTMB 110853Z 31005KT 10SM OVC016 23/21 A2998 RMK AO2
                        LTG DSNT NE SLP150 T02280206 53004=
201212110753 METAR KTMB 110753Z 17003KT 10SM FEW013 BKN017 OVC100 24/23
                        A2997 RMK AO2 LTG DSNT N AND NW SLP147
                        T02440233=
201212110653 METAR KTMB 110653Z 16005KT 10SM FEW015 25/23 A2995 RMK AO2
                        LTG DSNT W AND NW SLP142 T02500233=
201212110553 METAR KTMB 110553Z 15006KT 10SM BKN015 BKN044 25/23 A2996
                        RMK AO2 SLP146 T02500233 10256 20250
                        56005=
201212110453 METAR KTMB 110453Z 15006KT 10SM CLR 25/23 A2997 RMK AO2 SLP149
                        T02500233 402890200=
201212110353 METAR KTMB 110353Z 15006KT 10SM CLR 25/23 A2997 RMK AO2 SLP148
                        T02500233=
201212110253 METAR KTMB 110253Z 16007KT 10SM CLR 26/24 A2998 RMK AO2 SLP152
                        T02560239 50010=
201212110153 METAR KTMB 110153Z 16004KT 10SM CLR 26/24 A2998 RMK AO2 SLP152
                        T02560239=
201212110053 METAR KTMB 110053Z 17005KT 10SM CLR 26/23 A2996 RMK AO2 SLP146
                        T02560233=
201212102353 METAR KTMB 102353Z 17005KT 10SM CLR 26/23 A2995 RMK AO2 SLP141
                        T02560233 10289 20256 51006=
201212102253 METAR KTMB 102253Z 17005KT 10SM FEW018 26/23 A2995 RMK AO2
                        SLP141 T02610233=
201212102153 METAR KTMB 102153Z 16007KT 10SM SCT022 27/23 A2994 RMK AO2
                        SLP137 T02670228=
201212102053 METAR KTMB 102053Z 18008KT 10SM FEW024 SCT030 28/22 A2993
                        RMK AO2 SLP135 T02780222 56008=
201212101953 METAR KTMB 101953Z 17007KT 10SM FEW024 28/22 A2994 RMK AO2
                        SLP138 T02830222=
201212101853 METAR KTMB 101853Z 16008G14KT 10SM BKN023 BKN035 OVC043 28/23
                        A2994 RMK AO2 SLP139 T02780228=
201212101753 METAR KTMB 101753Z 16009KT 10SM FEW020 BKN028 BKN033 28/23
                        A2996 RMK AO2 SLP143 T02830228 10289
                        20228 58022=
201212101653 METAR KTMB 101653Z 15010KT 10SM FEW018 SCT026 SCT034 28/23
                        A2999 RMK AO2 SLP155 T02780228=
201212101553 METAR KTMB 101553Z 16010KT 10SM FEW022 SCT029 BKN039 27/23
                        A3001 RMK AO2 SLP163 T02720228=
201212101453 METAR KTMB 101453Z 15007G15KT 10SM SCT016 28/23 A3002=
201212101353 METAR KTMB 101353Z COR 15007KT 10SM BKN013 26/24 A3002 RMK
                        AO2 SLP165 T02610239=
201212101253 METAR KTMB 101253Z 00000KT 10SM FEW013 24/23 A3002 RMK AO2
                        SLP165 T02390233=
201212101153 METAR KTMB 101153Z 15003KT 10SM CLR 23/23 A3000 RMK AO2 SLP158
                        60001 70001 T02280228 10228 20200
                        53004=
201212101053 METAR KTMB 101053Z AUTO 14003KT 8SM SCT014 22/22 A2999 RMK
                        AO2 SLP153 T02170217=
201212100953 METAR KTMB 100953Z AUTO 12003KT 7SM SCT013 22/22 A2998 RMK
                        AO2 SLP151 P0001 T02170217=
201212100853 METAR KTMB 100853Z AUTO 00000KT 1 3/4SM BR BKN012 20/20 A2999
                        RMK AO2 VIS 3/4V5 SLP154 T02000200
                        56010=
201212100753 METAR KTMB 100753Z AUTO 00000KT 1/4SM FG VV014 21/21 A3000
                        RMK AO2 SLP158 T02110211=
201212100653 METAR KTMB 100653Z AUTO 00000KT 3/4SM BR VV017 21/21 A3002
                        RMK AO2 SLP164 T02060206=
201212100553 METAR KTMB 100553Z AUTO 00000KT 1/4SM FG VV015 21/21 A3003
                        RMK AO2 SLP167 T02110211 10244 20211
                        56008=
201212100453 METAR KTMB 100453Z AUTO 00000KT 1/2SM FG VV015 22/22 A3004
                        RMK AO2 SLP171 T02220217 402940194=
201212100353 METAR KTMB 100353Z AUTO 00000KT 1 3/4SM BR CLR 22/22 A3005
                        RMK AO2 VIS 1V5 SLP175 T02220222=
201212100253 METAR KTMB 100253Z 00000KT 10SM CLR 23/23 A3005 RMK AO2 SLP174
                        T02330228 51005=
201212100153 METAR KTMB 100153Z 00000KT 10SM CLR 23/23 A3005 RMK AO2 SLP173
                        T02330228=
201212100053 METAR KTMB 100053Z 00000KT 10SM CLR 24/23 A3004 RMK AO2 SLP172
                        T02390228=
201212092353 METAR KTMB 092353Z 12003KT 10SM CLR 24/23 A3003 RMK AO2 SLP170
                        T02390228 10294 20239 53013=
201212092253 METAR KTMB 092253Z 14004KT 10SM CLR 26/23 A3002 RMK AO2 SLP165
                        T02560228=
201212092153 METAR KTMB 092153Z 13008KT 10SM CLR 27/22 A3001 RMK AO2 SLP161
                        T02670222=
201212092053 METAR KTMB 092053Z 13007KT 10SM FEW025 28/22 A3000 RMK AO2
                        SLP157 T02830222 56011=
201212091953 METAR KTMB 091953Z 12007KT 10SM FEW023 29/22 A3000 RMK AO2
                        SLP158 T02890222=
201212091853 METAR KTMB 091853Z 16006KT 10SM FEW023 28/22 A3001 RMK AO2
                        SLP160 T02780222=
201212091753 METAR KTMB 091753Z 12005KT 10SM FEW023 29/22 A3003 RMK AO2
                        SLP168 T02890222 10289 20200 58022=
201212091653 METAR KTMB 091653Z 17004KT 10SM BKN022 BKN026 OVC043 28/23
                        A3006 RMK AO2 SLP179 T02780228=
201212091553 METAR KTMB 091553Z 00000KT 10SM FEW020 BKN035 BKN047 27/23
                        A3008 RMK AO2 SLP186 T02720228=
201212091453 METAR KTMB 091453Z 13004KT 10SM SCT013 27/23 A3009 RMK AO2
                        SLP190 T02670233 51016=
201212091353 METAR KTMB 091353Z 00000KT 10SM CLR 24/23 A3008 RMK AO2 SLP184
                        T02390233=
201212091253 METAR KTMB 091253Z 00000KT 10SM CLR 21/21 A3007 RMK AO2 SLP181
                        T02110206=
201212091153 METAR KTMB 091153Z 00000KT 1/2SM FG VV017 20/20 A3005 RMK
                        AO2 SLP174 70002 T02000200 10217
                        20194 53010=
201212091053 METAR KTMB 091053Z 00000KT 3/4SM BR VV018 20/20 A3003 RMK
                        AO2 SLP169 T02000200=
201212090953 METAR KTMB 090953Z 00000KT 1 1/2SM BR SCT014 BKN028 21/21
                        A3002 RMK AO2 SLP165 T02060206=
201212090853 METAR KTMB 090853Z 00000KT 1 3/4SM BR BKN016 21/20 A3002
                        RMK AO2 SLP164 T02060200 56000=
201212090753 METAR KTMB 090753Z 00000KT 1/4SM FG VV013 20/20 A3001 RMK
                        AO2 SLP161 T02000200=
201212090653 METAR KTMB 090653Z 00000KT 3/4SM BR VV018 20/20 A3002 RMK
                        AO2 SLP164 T02000200=
201212090553 METAR KTMB 090553Z 00000KT 2SM BR FEW014 21/21 A3002 RMK
                        AO2 VIS 1V5 SLP166 P0001 60001 T02110211
                        10239 20211 58005=
201212090453 METAR KTMB 090453Z 11003KT 10SM CLR 23/22 A3003 RMK AO2 SLP168
                        T02280217 402780189=
201212090353 METAR KTMB 090353Z 12005KT 10SM CLR 23/22 A3004 RMK AO2 SLP171
                        T02330222=
201212090253 METAR KTMB 090253Z 12007KT 10SM CLR 23/22 A3004 RMK AO2 SLP171
                        60000 T02330222 51011=
201212090153 METAR KTMB 090153Z 08004KT 10SM FEW013 BKN025 23/21 A3003
                        RMK AO2 RAB0054E03 SLP169 P0000 T02280211=
201212090053 METAR KTMB 090053Z 10006KT 10SM FEW027 SCT070 23/22 A3002
                        RMK AO2 SLP164 T02330222=
201212082353 METAR KTMB 082353Z 10003KT 10SM CLR 24/22 A3001 RMK AO2 SLP161
                        T02390222 10272 20239 53013=
201212082253 METAR KTMB 082253Z 11005KT 10SM SCT016 25/22 A2999 RMK AO2
                        SLP156 T02500222=
201212082153 METAR KTMB 082153Z 11008KT 10SM FEW016 SCT023 26/22 A2997
                        RMK AO2 SLP149 T02560217=
201212082053 METAR KTMB 082053Z 12008KT 10SM SCT020 26/22 A2997 RMK AO2
                        SLP148 T02560217 55001=
201212081953 METAR KTMB 081953Z 12009KT 10SM FEW020 SCT029 26/22 A2997
                        RMK AO2 SLP147 T02610217=
201212081853 METAR KTMB 081853Z 12009KT 10SM FEW023 SCT060 27/21 A2996
                        RMK AO2 SLP144 T02720211=
201212081753 METAR KTMB 081753Z 12009KT 10SM SCT025 BKN038 BKN070 27/21
                        A2997 RMK AO2 SLP149 60001 T02720211
                        10278 20200 58021=
201212081653 METAR KTMB 081653Z 11010G15KT 10SM FEW025 SCT033 BKN044 27/21
                        A3000 RMK AO2 SLP159 T02670211=
201212081553 METAR KTMB 081553Z 10012KT 10SM SCT019 BKN024 BKN029 26/22
                        A3002 RMK AO2 RAE1456B18E35 SLP166
                        P0000 T02610217=
201212081453 METAR KTMB 081453Z 10009KT 10SM -RA SCT025 25/22 A3003 RMK
                        AO2 RAB02E16B45 SLP169 P0001 60001
                        T02500217 51015=
201212081353 METAR KTMB 081353Z 09004KT 10SM FEW070 SCT120 24/22 A3003
                        RMK AO2 SLP167 T02440222=
201212081253 METAR KTMB 081253Z 00000KT 10SM OVC065 22/22 A3001 RMK AO2
                        SLP161 T02220217=
201212081153 METAR KTMB 081153Z 04003KT 10SM SCT060 21/20 A2999 RMK AO2
                        SLP154 T02060200 10211 20189 53010=
201212081053 METAR KTMB 081053Z AUTO 05003KT 10SM OVC060 20/19 A2998 RMK
                        AO2 SLP151 T02000194=
201212080953 METAR KTMB 080953Z AUTO 07003KT 10SM CLR 19/19 A2996 RMK
                        AO2 SLP146 T01940194=
201212080853 METAR KTMB 080853Z AUTO 05003KT 10SM CLR 19/19 A2996 RMK
                        AO2 SLP145 T01940189 56005=
201212080753 METAR KTMB 080753Z AUTO 00000KT 10SM CLR 19/19 A2996 RMK
                        AO2 SLP145 T01940189=
201212080653 METAR KTMB 080653Z AUTO 09003KT 10SM CLR 20/19 A2997 RMK
                        AO2 SLP147 T02000194=
201212080553 METAR KTMB 080553Z AUTO 06003KT 10SM CLR 19/18 A2997 RMK
                        AO2 SLP149 T01890183 10222 20189
                        58004=
201212080453 METAR KTMB 080453Z AUTO 00000KT 10SM CLR 20/18 A2999 RMK
                        AO2 SLP153 T02000183 402720172=
201212080353 METAR KTMB 080353Z AUTO 09004KT 10SM CLR 20/18 A2999 RMK
                        AO2 SLP154 T02000183=
201212080253 METAR KTMB 080253Z 12004KT 10SM CLR 22/20 A2999 RMK AO2 SLP153
                        T02170200 52009=
201212080153 METAR KTMB 080153Z 11005KT 10SM CLR 22/20 A2998 RMK AO2 SLP150
                        T02170200=
201212080053 METAR KTMB 080053Z 12005KT 10SM CLR 22/20 A2997 RMK AO2 SLP146
                        T02170200=
201212072353 METAR KTMB 072353Z 12004KT 10SM FEW075 BKN095 22/20 A2996
                        RMK AO2 SLP143 T02220200 10272 20217
                        53016=
201212072253 METAR KTMB 072253Z 12004KT 10SM SCT095 23/20 A2994 RMK AO2
                        SLP137 T02280200=
201212072153 METAR KTMB 072153Z 12006KT 10SM SCT100 24/20 A2993 RMK AO2
                        SLP133 T02440200=
201212072053 METAR KTMB 072053Z 11009KT 10SM SCT026 SCT080 26/20 A2991
                        RMK AO2 SLP128 T02560200 56009=
201212071953 METAR KTMB 071953Z 09010KT 10SM FEW028 26/19 A2991 RMK AO2
                        SLP128 T02610194=
201212071853 METAR KTMB 071853Z 15008KT 10SM FEW034 26/20 A2991 RMK AO2
                        SLP128 T02610200=
201212071753 METAR KTMB 071753Z 11007KT 10SM FEW027 SCT034 26/19 A2994
                        RMK AO2 SLP137 60000 T02610194 10267
                        20200 58017=
201212071653 METAR KTMB 071653Z 13008KT 10SM FEW027 27/19 A2997 RMK AO2
                        SLP147 T02670194=
201212071553 METAR KTMB 071553Z 14007KT 10SM FEW024 26/20 A2998 RMK AO2
                        SLP152 T02610200=
201212071453 METAR KTMB 071453Z 16007KT 10SM BKN021 BKN027 25/19 A2999
                        RMK AO2 SLP154 60000 T02500194 53013=
201212071353 METAR KTMB 071353Z 13004KT 10SM CLR 24/21 A2997 RMK AO2 SLP149
                        T02440211=
201212071253 METAR KTMB 071253Z 00000KT 10SM SCT024 BKN060 22/21 A2996
                        RMK AO2 RAE1156 SLP145 P0000 T02170206=
201212071153 METAR KTMB 071153Z 07004KT 10SM -RA FEW019 BKN050 OVC100
                        21/20 A2995 RMK AO2 RAB17 SLP141
                        P0023 60024 70024 T02060200 10211
                        20172 53013=
201212071053 METAR KTMB 071053Z 00000KT 3/4SM BR VV004 18/18 A2994 RMK
                        AO2 SLP136 T01780178=
201212070953 METAR KTMB 070953Z 00000KT 1 3/4SM BR FEW120 19/19 A2992
                        RMK AO2 SLP131 T01940189=
201212070853 METAR KTMB 070853Z 00000KT 10SM SCT120 20/19 A2991 RMK AO2
                        RAE03 SLP128 P0000 60001 T02000194
                        58013=
201212070753 METAR KTMB 070753Z 18006KT 10SM -RA SCT022 BKN049 OVC100
                        21/20 A2992 RMK AO2 RAB25 SLP131
                        P0001 T02110200=
201212070653 METAR KTMB 070653Z 09005KT 10SM SCT036 OVC055 21/19 A2994
                        RMK AO2 SLP139 T02060194=
201212070553 METAR KTMB 070553Z 00000KT 10SM FEW033 SCT043 19/18 A2995
                        RMK AO2 SLP140 T01890178 10222 20172
                        55004=
201212070453 METAR KTMB 070453Z 00000KT 10SM CLR 18/17 A2995 RMK AO2 SLP140
                        T01780172 402780172=
201212070353 METAR KTMB 070353Z 00000KT 10SM CLR 19/18 A2996 RMK AO2 SLP143
                        T01940183=
201212070253 METAR KTMB 070253Z 00000KT 10SM CLR 19/18 A2996 RMK AO2 SLP145
                        T01940183 50006=
201212070153 METAR KTMB 070153Z 00000KT 10SM CLR 20/18 A2997 RMK AO2 SLP147
                        T02000178=
201212070053 METAR KTMB 070053Z 00000KT 10SM BKN060 21/18 A2996 RMK AO2
                        SLP145 T02110178=
201212062353 METAR KTMB 062353Z 10003KT 10SM CLR 21/18 A2994 RMK AO2 SLP139
                        T02110178 10272 20211 51008=
201212062253 METAR KTMB 062253Z 10004KT 10SM BKN060 23/18 A2994 RMK AO2
                        SLP138 T02280183=
201212062153 METAR KTMB 062153Z 13007KT 10SM CLR 24/18 A2992 RMK AO2 SLP131
                        T02440183=
201212062053 METAR KTMB 062053Z 12008KT 10SM OVC040 26/18 A2992 RMK AO2
                        SLP131 T02560178 55009=
201212061953 METAR KTMB 061953Z 11007KT 10SM OVC035 25/18 A2992 RMK AO2
                        SLP130 T02500178=
201212061853 METAR KTMB 061853Z 05005KT 10SM FEW035 26/17 A2992 RMK AO2
                        SLP131 T02610172=
201212061753 METAR KTMB 061753Z 32003KT 10SM CLR 27/18 A2995 RMK AO2 SLP140
                        T02720178 10278 20172 58019=
201212061653 METAR KTMB 061653Z 00000KT 10SM FEW024 26/18 A2997 RMK AO2
                        SLP149 T02610178=
201212061553 METAR KTMB 061553Z 00000KT 10SM CLR 24/19 A3000 RMK AO2 SLP158
                        T02440194=
201212061453 METAR KTMB 061453Z 00000KT 10SM CLR 23/20 A3000 RMK AO2 SLP159
                        T02280200 50005=
201212061353 METAR KTMB 061353Z 00000KT 10SM CLR 21/19 A3001 RMK AO2 SLP160
                        T02060194=
201212061253 METAR KTMB 061253Z 00000KT 10SM CLR 19/18 A3000 RMK AO2 SLP157
                        T01890183=
201212061153 METAR KTMB 061153Z 00000KT 9SM CLR 17/17 A2999 RMK AO2 SLP154
                        T01720167 10194 20172 53004=
201212061053 METAR KTMB 061053Z 00000KT 10SM CLR 18/18 A2997 RMK AO2 SLP149
                        T01830178=
201212060953 METAR KTMB 060953Z 03004KT 10SM FEW025 19/18 A2997 RMK AO2
                        SLP149 T01890178=
201212060853 METAR KTMB 060853Z 00000KT 10SM FEW024 18/18 A2998 RMK AO2
                        SLP151 T01830178 56013=
201212060753 METAR KTMB 060753Z 00000KT 10SM CLR 18/17 A2999 RMK AO2 SLP155
                        T01780172=
201212060653 METAR KTMB 060653Z 00000KT 10SM CLR 19/18 A3000 RMK AO2 SLP159
                        T01890178=
201212060553 METAR KTMB 060553Z 00000KT 10SM CLR 19/17 A3002=
201212060453 METAR KTMB 060453Z 00000KT 10SM CLR 19/18 A3002 RMK AO2 SLP166
                        T01890178 402670178=
201212060353 METAR KTMB 060353Z 00000KT 10SM FEW030 SCT041 BKN070 19/18
                        A3003 RMK AO2 RAB39E48 SLP169 P0000
                        T01940183=
201212060253 METAR KTMB 060253Z 31003KT 10SM CLR 18/17 A3004 RMK AO2 SLP172
                        T01830172 51003=
201212060153 METAR KTMB 060153Z 00000KT 10SM CLR 22/17 A3004 RMK AO2 SLP172
                        T02170172=
201212060053 METAR KTMB 060053Z 08005KT 10SM CLR 21/17 A3004 RMK AO2 SLP171
                        T02110172=
201212052353 METAR KTMB 052353Z 11005KT 10SM CLR 21/17 A3003 RMK AO2 SLP170
                        T02110172 10261 20211 58003=
201212052253 METAR KTMB 052253Z 11005KT 10SM CLR 21/17 A3004 RMK AO2 SLP171
                        T02110172=
201212052153 METAR KTMB 052153Z 09007KT 10SM CLR 23/17 A3004 RMK AO2 SLP172
                        T02280167=
201212052053 METAR KTMB 052053Z 10008KT 10SM FEW030 26/16 A3004 RMK AO2
                        SLP172 T02560161 56016=
201212051953 METAR KTMB 051953Z 12007KT 10SM CLR 25/15 A3005 RMK AO2 SLP174
                        T02500150=
201212051853 METAR KTMB 051853Z 10009KT 10SM CLR 26/16 A3006 RMK AO2 SLP178
                        T02610156=
201212051753 METAR KTMB 051753Z 12008KT 10SM CLR 26/16 A3009 RMK AO2 SLP189
                        T02560156 10267 20194 58021=
201212051653 METAR KTMB 051653Z 10010KT 10SM CLR 26/16 A3011 RMK AO2 SLP196
                        T02610161=
201212051553 METAR KTMB 051553Z 10010KT 10SM CLR 25/16 A3015 RMK AO2 SLP208
                        T02500161=
201212051453 METAR KTMB 051453Z 10011KT 10SM CLR 25/16 A3015 RMK AO2 SLP209
                        T02500161 51013=
201212051353 METAR KTMB 051353Z 12006KT 10SM BKN070 24/17 A3014 RMK AO2
                        SLP206 T02390172=
201212051253 METAR KTMB 051253Z 00000KT 10SM OVC070 21/18 A3013 RMK AO2
                        SLP202 T02110183=
201212051153 METAR KTMB 051153Z 00000KT 10SM FEW046 OVC070 19/18 A3011
                        RMK AO2 SLP196 T01940178 10211 20178
                        53001=
201212051053 METAR KTMB 051053Z AUTO 00000KT 10SM OVC075 18/17 A3011 RMK
                        AO2 SLP194 T01830172=
201212050953 METAR KTMB 050953Z AUTO 00000KT 10SM BKN075 18/17 A3010 RMK
                        AO2 SLP192 T01830167=
201212050853 METAR KTMB 050853Z AUTO 00000KT 10SM OVC075 18/17 A3011 RMK
                        AO2 SLP196 T01830172 58012=
201212050753 METAR KTMB 050753Z AUTO 00000KT 10SM OVC075 19/17 A3012 RMK
                        AO2 SLP200 T01940167=
201212050653 METAR KTMB 050653Z AUTO 00000KT 10SM BKN075 20/17 A3014 RMK
                        AO2 SLP205 T02000167=
201212050553 METAR KTMB 050553Z AUTO 00000KT 10SM OVC075 20/17 A3015 RMK
                        AO2 SLP207 60000 T02000172 10222
                        20183 58009=
201212050453 METAR KTMB 050453Z AUTO 00000KT 10SM BKN070 18/16 A3015 RMK
                        AO2 SLP210 T01830156 402720139=
201212050353 METAR KTMB 050353Z AUTO 09006KT 10SM CLR 21/17 A3016 RMK
                        AO2 SLP214 T02060167=
201212050253 METAR KTMB 050253Z 09007KT 10SM FEW070 21/16 A3017 RMK AO2
                        SLP216 60000 T02060156 58001=
201212050153 METAR KTMB 050153Z 08007KT 10SM BKN075 22/16 A3018 RMK AO2
                        RAE20 SLP218 P0000 T02170156=
201212050053 METAR KTMB 050053Z 10007KT 10SM -RA FEW043 SCT050 OVC060
                        22/16 A3018 RMK AO2 RAB49 SLP219
                        P0000 T02220156=
201212042353 METAR KTMB 042353Z 09006KT 10SM FEW060 BKN080 19/15 A3018
                        RMK AO2 SLP217 T01940150 10267 20194
                        53007=
201212042253 METAR KTMB 042253Z 08007KT 10SM FEW075 22/15 A3017 RMK AO2
                        SLP215 T02220150=
201212042153 METAR KTMB 042153Z 08011KT 10SM BKN075 23/15 A3016 RMK AO2
                        SLP210 T02330150=
201212042053 METAR KTMB 042053Z 09014KT 10SM OVC075 24/15 A3015 RMK AO2
                        SLP210 T02390150 55009=
201212041953 METAR KTMB 041953Z 09016KT 10SM FEW045 OVC075 24/15 A3015
                        RMK AO2 SLP208 T02440150=
201212041853 METAR KTMB 041853Z 08016KT 10SM SCT041 BKN050 OVC075 26/16
                        A3016 RMK AO2 SLP212 T02560156=
201212041753 METAR KTMB 041753Z 10015G22KT 10SM FEW037 26/16 A3018 RMK
                        AO2 SLP219 T02610161 10272 20150
                        58014=
201212041653 METAR KTMB 041653Z 10016G22KT 10SM BKN037 BKN045 BKN070 26/16
                        A3021 RMK AO2 SLP229 T02610161=
201212041553 METAR KTMB 041553Z 12015G22KT 10SM FEW035 BKN046 26/18 A3022
                        RMK AO2 SLP233 T02560178=
201212041453 METAR KTMB 041453Z 09014G21KT 10SM CLR 26/17 A3022 RMK AO2
                        SLP233 T02560167 51010=
201212041353 METAR KTMB 041353Z 07005KT 10SM CLR 23/17 A3021 RMK AO2 SLP230
                        T02330172=
201212041253 METAR KTMB 041253Z 00000KT 10SM CLR 18/16 A3020 RMK AO2 SLP227
                        T01780161=
201212041153 METAR KTMB 041153Z 00000KT 10SM CLR 16/14 A3019 RMK AO2 SLP223
                        T01610139 10183 20139 53006=
201212041053 METAR KTMB 041053Z 00000KT 10SM CLR 17/13 A3018 RMK AO2 SLP218
                        T01670133=
201212040953 METAR KTMB 040953Z 00000KT 10SM FEW036 BKN075 18/13 A3017
                        RMK AO2 SLP215 T01780133=
201212040853 METAR KTMB 040853Z 00000KT 10SM FEW050 BKN065 18/12 A3017
                        RMK AO2 SLP217 T01780117 56006=
201212040753 METAR KTMB 040753Z 00000KT 10SM SCT060 16/12 A3018 RMK AO2
                        SLP217 T01610117=
201212040653 METAR KTMB 040653Z 00000KT 10SM CLR 16/11 A3018 RMK AO2 SLP219
                        T01610111=
201212040553 METAR KTMB 040553Z 00000KT 10SM CLR 14/11 A3019 RMK AO2 SLP223
                        T01440111 10217 20144 58006=
201212040453 METAR KTMB 040453Z 08006KT 10SM CLR 17/11 A3020 RMK AO2 SLP226
                        T01720106 402670150=
201212040353 METAR KTMB 040353Z 10003KT 10SM CLR 17/10 A3021 RMK AO2 SLP228
                        T01670100=
201212040253 METAR KTMB 040253Z 00000KT 10SM CLR 17/13 A3021 RMK AO2 SLP229
                        T01720133 51005=
201212040153 METAR KTMB 040153Z 00000KT 10SM CLR 18/13 A3020 RMK AO2 SLP227
                        T01830128=
201212040053 METAR KTMB 040053Z 04004KT 10SM BKN049 21/13 A3020 RMK AO2
                        SLP227 T02110133=
201212032353 METAR KTMB 032353Z 05006KT 10SM SCT044 SCT055 22/13 A3019
                        RMK AO2 SLP224 T02170133 10267 20217
                        51014=
201212032253 METAR KTMB 032253Z 05009KT 10SM CLR 22/13 A3018 RMK AO2 SLP220
                        T02220128=
201212032153 METAR KTMB 032153Z 06010KT 10SM SCT045 SCT055 24/14 A3016
                        RMK AO2 SLP213 T02440144=
201212032053 METAR KTMB 032053Z 10016G22KT 10SM SCT040 BKN055 25/16 A3015=
201212031953 METAR KTMB 031953Z 09015KT 10SM FEW037 SCT045 SCT055 26/16
                        A3015 RMK AO2 SLP210 T02560161=
201212031853 METAR KTMB 031853Z 08014G24KT 10SM SCT037 26/16 A3016 RMK
                        AO2 SLP214 T02610161=
201212031753 METAR KTMB 031753Z 10017G24KT 10SM SCT037 SCT055 BKN075 26/16
                        A3018 RMK AO2 SLP220 T02610161 10267
                        20178 56019=
201212031653 METAR KTMB 031653Z 09016G22KT 10SM SCT037 SCT046 SCT080 26/17
                        A3020 RMK AO2 SLP225 T02610172=
201212031553 METAR KTMB 031553Z 11015KT 10SM FEW033 SCT080 26/18 A3022
                        RMK AO2 SLP232 T02610178=
201212031453 METAR KTMB 031453Z 09014KT 10SM FEW031 SCT047 BKN080 26/17
                        A3024 RMK AO2 SLP238 T02560172 53016=
201212031353 METAR KTMB 031353Z 09013KT 10SM FEW034 BKN080 24/18 A3022
                        RMK AO2 SLP233 T02390178=
201212031253 METAR KTMB 031253Z 04003KT 10SM BKN075 20/17 A3021 RMK AO2
                        SLP228 T02000172=
201212031153 METAR KTMB 031153Z 00000KT 10SM SCT070 18/16 A3019 RMK AO2
                        SLP223 70005 T01780161 10200 20167
                        53011=
201212031053 METAR KTMB 031053Z AUTO 00000KT 10SM CLR 18/16 A3017 RMK
                        AO2 SLP217 T01780161=
201212030953 METAR KTMB 030953Z AUTO 00000KT 10SM FEW033 18/16 A3016 RMK
                        AO2 SLP212 T01830161=
201212030853 METAR KTMB 030853Z AUTO 00000KT 10SM CLR 19/16 A3016 RMK
                        AO2 SLP212 T01890161 56008=
201212030753 METAR KTMB 030753Z AUTO 09006KT 10SM CLR 19/16 A3016 RMK
                        AO2 SLP213 T01890156=
201212030653 METAR KTMB 030653Z AUTO 09006KT 10SM CLR 19/16 A3018 RMK
                        AO2 SLP218 T01890161=
201212030553 METAR KTMB 030553Z AUTO 09006KT 10SM CLR 19/16 A3018 RMK
                        AO2 SLP220 T01890161 10217 20189
                        58003=
201212030453 METAR KTMB 030453Z AUTO 09007KT 10SM FEW075 21/17 A3019 RMK
                        AO2 SLP223 T02060172 402670172=
201212030353 METAR KTMB 030353Z AUTO 09006KT 10SM CLR 20/17 A3020 RMK
                        AO2 SLP227 T02000167=
201212030253 METAR KTMB 030253Z 09007KT 10SM CLR 21/17 A3019 RMK AO2 SLP223
                        T02060167 53005=
201212030153 METAR KTMB 030153Z 08007KT 10SM FEW028 21/17 A3019=
201212030053 METAR KTMB 030053Z 09008KT 10SM CLR 21/17 A3018 RMK AO2 SLP218
                        T02110172=
201212022353 METAR KTMB 022353Z 09007KT 10SM CLR 22/18 A3018 RMK AO2 SLP217
                        T02170178 10267 20217 53012=
201212022253 METAR KTMB 022253Z 09010KT 10SM OVC075 23/17 A3015 RMK AO2
                        SLP210 T02330172=
201212022153 METAR KTMB 022153Z COR 09012KT 10SM FEW031 SCT035 BKN075
                        24/18 A3015 RMK AO2 SLP208 T02440178=
201212022053 METAR KTMB 022053Z 10016KT 10SM SCT035 26/17 A3014 RMK AO2
                        SLP206 T02560172 56010=
201212021953 METAR KTMB 021953Z 10017KT 10SM FEW039 26/18 A3014 RMK AO2
                        SLP206 T02610178=
201212021853 METAR KTMB 021853Z 10014G23KT 10SM FEW065 26/18 A3015 RMK
                        AO2 SLP208 T02610183=
201212021753 METAR KTMB 021753Z 10012KT 10SM FEW039 BKN080 24/18 A3017
                        RMK AO2 RAB05E18 SLP216 P0002 60005
                        T02440183 10267 20206 58015=
201212021653 METAR KTMB 021653Z 08017G22KT 10SM FEW035 BKN075 27/18 A3019
                        RMK AO2 SLP224 T02670178=
201212021553 METAR KTMB 021553Z 07014KT 10SM SCT029 BKN049 OVC075 25/19
                        A3022 RMK AO2 SLP231 T02500189=
201212021453 METAR KTMB 021453Z 05010KT 10SM BKN030 BKN039 25/20 A3022
                        RMK AO2 RAE1359 SLP231 P0000 60003
                        T02500200 51014=
201212021353 METAR KTMB 021353Z 08005KT 5SM -RA BR BKN036 OVC060 22/19
                        A3021 RMK AO2 RAB05 SLP229 P0003
                        T02170194=
201212021253 METAR KTMB 021253Z 03006KT 10SM FEW049 BKN065 OVC075 22/19
                        A3019 RMK AO2 RAB28E38 SLP223 P0000
                        T02170189=
201212021153 METAR KTMB 021153Z 05006KT 10SM BKN070 21/18 A3017 RMK AO2
                        SLP217 60001 70003 T02060183 10217
                        20172 53009=
201212021053 METAR KTMB 021053Z 05003KT 10SM FEW034 SCT043 BKN080 19/18
                        A3016 RMK AO2 RAB39E52 SLP213 P0001
                        T01940183=
201212020953 METAR KTMB 020953Z 00000KT 10SM FEW032 18/17 A3015 RMK AO2
                        SLP210 T01830167=
201212020853 METAR KTMB 020853Z 00000KT 10SM FEW075 18/17 A3015 RMK AO2
                        SLP208 T01830167 55008=
201212020753 METAR KTMB 020753Z 09005KT 10SM CLR 19/17 A3014 RMK AO2 SLP207
                        T01890167=
201212020653 METAR KTMB 020653Z 07005KT 10SM CLR 20/17 A3016 RMK AO2 SLP213
                        T02000172=
201212020553 METAR KTMB 020553Z 08006KT 10SM SCT070 21/18 A3017 RMK AO2
                        SLP215 60001 T02110178 10217 20194
                        55002=
201212020453 METAR KTMB 020453Z 08006KT 10SM FEW036 BKN050 OVC070 22/18
                        A3017 RMK AO2 SLP215 T02170178 402720194=
201212020353 METAR KTMB 020353Z 05005KT 10SM FEW030 SCT070 21/18 A3018
                        RMK AO2 RAE07 SLP217 P0001 T02060183=
201212020253 METAR KTMB 020253Z 08013G17KT 10SM -RA SCT027 BKN032 OVC040
                        21/18 A3018 RMK AO2 RAB36 SLP217
                        P0000 60000 T02110183 51009=
201212020153 METAR KTMB 020153Z 04003KT 10SM SCT060 21/16 A3017 RMK AO2
                        SLP215 T02060156=
201212020053 METAR KTMB 020053Z 04005KT 10SM CLR 21/16 A3016 RMK AO2 SLP213
                        T02110156=
201212012353 METAR KTMB 012353Z 05006KT 10SM CLR 22/16 A3015 RMK AO2 SLP208
                        T02170156 10272 20217 53004=
201212012253 METAR KTMB 012253Z 06010KT 10SM CLR 23/16 A3014 RMK AO2 SLP204
                        T02280156=
201212012153 METAR KTMB 012153Z 06013KT 10SM CLR 24/14 A3014 RMK AO2 SLP205
                        T02390144=
201212012053 METAR KTMB 012053Z 06013KT 10SM CLR 25/15 A3014 RMK AO2 SLP204
                        T02500150 55007=
201212011953 METAR KTMB 011953Z 06013KT 10SM FEW047 26/15 A3013 RMK AO2
                        SLP203 T02610150=
201212011853 METAR KTMB 011853Z 08014G21KT 10SM FEW044 26/16 A3014 RMK
                        AO2 SLP206 T02610156=
201212011753 METAR KTMB 011753Z 08012KT 10SM FEW060 25/16 A3016 RMK AO2
                        RAB1657E10 SLP211 P0000 60001 T02500156
                        10250 20211 58010=
201212011653 METAR KTMB 011653Z 08015G22KT 10SM BKN034 OVC043 24/18 A3018
                        RMK AO2 RAE01 SLP219 P0000 T02390178=
201212011553 METAR KTMB 011553Z 09009KT 10SM -RA SCT034 BKN042 OVC049
                        23/19 A3018 RMK AO2 RAB48 SLP219
                        P0000 T02330189=
201212011453 METAR KTMB 011453Z 09005KT 10SM FEW039 BKN060 24/19 A3018
                        RMK AO2 SLP221 60001 T02390189 51016=
201212011353 METAR KTMB 011353Z 08005KT 10SM BKN045 OVC050 22/19 A3017
                        RMK AO2 RAE00 SLP216 P0000 T02220189=
201212011253 METAR KTMB 011253Z 07009KT 8SM -RA FEW024 OVC041 21/19 A3016
                        RMK AO2 RAB23 SLP211 P0001 T02110194=
201212011153 METAR KTMB 011153Z 04006KT 10SM FEW031 BKN045 OVC060 21/18
                        A3014 RMK AO2 SLP204 T02110183 10217
                        20206 53005=
201212011053 METAR KTMB 011053Z AUTO 03007KT 10SM SCT036 BKN047 OVC060
                        21/18 A3013 RMK AO2 SLP201 T02110178=
201212010953 METAR KTMB 010953Z AUTO 05006KT 10SM OVC041 21/17 A3012 RMK
                        AO2 SLP198 T02110172=
201212010853 METAR KTMB 010853Z AUTO 05006KT 10SM OVC043 21/18 A3012 RMK
                        AO2 SLP199 T02110178 56007=
201212010753 METAR KTMB 010753Z AUTO 05009KT 10SM FEW038 SCT050 21/18
                        A3012 RMK AO2 SLP199 T02110178=
201212010653 METAR KTMB 010653Z AUTO 04007KT 10SM BKN042 21/18 A3013 RMK
                        AO2 SLP202 T02060183=
201212010553 METAR KTMB 010553Z AUTO 03004KT 10SM FEW037 SCT046 OVC060
                        21/19 A3014 RMK AO2 RAB12E40 SLP207
                        P0000 60000 T02110189 55004=
201212010453 METAR KTMB 010453Z AUTO 02010KT 10SM FEW037 21/18 A3014 RMK
                        AO2 SLP206 T02110183 402610200=
201212010353 METAR KTMB 010353Z 02005KT 10SM FEW038 OVC049 22/18 A3015
                        RMK AO2 SLP210 T02170183=
201212010253 METAR KTMB 010253Z 04006KT 10SM BKN042 OVC049 A3015 RMK AO2
                        SLP211 51006 $=
201212010153 METAR KTMB 010153Z 07006KT 10SM FEW100 A3015 RMK AO2 SLP211
                        $=
201212010053 METAR KTMB 010053Z 08006KT 10SM BKN050 BKN075 22/16 A3014
                        RMK AO2 SLP206 T02220161=
