##########################################################
# Query made at 12/28/2012 17:05:07 UTC
# Time interval: from 02/01/2012 00:00  to 03/02/2012 23:59  UTC
##########################################################

##########################################################
# KTMB, Miami, Kendall-Tamiami Executive Airport (United States)
# WMO index: -----
# Latitude 25-38-31N. Longitude 080-26-05W. Altitude 3 m.
##########################################################

###################################
#  METAR/SPECI from KTMB
###################################
201203022353 METAR KTMB 022353Z 15006KT 10SM FEW033 24/20 A3001 RMK AO2
                        SLP163 T02440200 10289 20244 53006=
201203022253 METAR KTMB 022253Z 14010G14KT 10SM SCT035 26/21 A3000 RMK
                        AO2 SLP160 T02560206=
201203022153 METAR KTMB 022153Z 16009G16KT 10SM CLR 27/20 A3000 RMK AO2
                        SLP158 T02670200=
201203022053 METAR KTMB 022053Z 14009KT 10SM CLR 27/20 A3000 RMK AO2 SLP156
                        T02720200 56012=
201203021953 METAR KTMB 021953Z 14011G17KT 10SM SCT036 SCT045 28/20 A3000
                        RMK AO2 SLP158 T02780200=
201203021853 METAR KTMB 021853Z 13008G18KT 10SM BKN034 BKN055 27/19 A3001
                        RMK AO2 SLP162 T02720194=
201203021753 METAR KTMB 021753Z 15009G14KT 10SM SCT035 BKN047 BKN055 28/19
                        A3003 RMK AO2 SLP169 T02780194 10289
                        20178 58013=
201203021653 METAR KTMB 021653Z 18006G16KT 10SM SCT031 BKN035 BKN046 27/19
                        A3005 RMK AO2 SLP177 T02720194=
201203021635 SPECI KTMB 021635Z 14013G16KT 10SM BKN029 BKN037 BKN045 27/20
                        A3006 RMK AO2=
201203021553 METAR KTMB 021553Z 14011KT 10SM FEW036 SCT045 28/19 A3007
                        RMK AO2 SLP181 T02780194=
201203021453 METAR KTMB 021453Z 15009KT 10SM FEW029 27/19 A3007 RMK AO2
                        SLP182 T02720194 51009=
201203021353 METAR KTMB 021353Z 17006KT 10SM FEW027 25/21 A3007 RMK AO2
                        SLP181 T02500206=
201203021304 SPECI KTMB 021304Z 00000KT 10SM FEW028 SCT035 22/20 A3006
                        RMK AO2=
201203021253 METAR KTMB 021253Z 00000KT 10SM BKN028 22/20 A3006 RMK AO2
                        SLP178 T02170200=
201203021223 SPECI KTMB 021223Z 00000KT 10SM BKN026 19/19 A3005 RMK AO2=
201203021153 METAR KTMB 021153Z 05004KT 10SM CLR 18/17 A3004 RMK AO2 SLP172
                        T01780172 10189 20161 53008=
201203021059 SPECI KTMB 021059Z AUTO 00000KT 3SM BR CLR 18/18 A3003 RMK
                        AO2=
201203021053 METAR KTMB 021053Z AUTO 00000KT 1 3/4SM BR CLR 18/18 A3002
                        RMK AO2 SLP166 T01780178=
201203021051 SPECI KTMB 021051Z AUTO 00000KT 1 3/4SM BR CLR 18/18 A3003
                        RMK AO2=
201203021003 SPECI KTMB 021003Z AUTO 00000KT 10SM SCT027 18/18 A3002 RMK
                        AO2=
201203020953 METAR KTMB 020953Z AUTO 00000KT 5SM BR BKN025 18/18 A3002
                        RMK AO2 SLP164 T01780178=
201203020917 SPECI KTMB 020917Z AUTO 00000KT 9SM BKN023 17/17 A3002 RMK
                        AO2=
201203020853 METAR KTMB 020853Z AUTO 00000KT 10SM CLR 17/17 A3002 RMK
                        AO2 SLP165 T01670167 56010=
201203020842 SPECI KTMB 020842Z AUTO 00000KT 8SM FEW009 17/17 A3002 RMK
                        AO2=
201203020828 SPECI KTMB 020828Z AUTO 00000KT 2SM BR FEW009 18/18 A3002
                        RMK AO2=
201203020825 SPECI KTMB 020825Z AUTO 00000KT 1SM BR VV009 18/18 A3002
                        RMK AO2=
201203020819 SPECI KTMB 020819Z AUTO 00000KT 3/4SM BR VV010 18/18 A3002
                        RMK AO2 VIS 1/4V5=
201203020816 SPECI KTMB 020816Z AUTO 00000KT 1 1/2SM BR FEW014 18/18 A3002
                        RMK AO2 VIS 1/2V5=
201203020802 SPECI KTMB 020802Z AUTO 00000KT 6SM BR CLR 18/18 A3002 RMK
                        AO2=
201203020753 METAR KTMB 020753Z AUTO 00000KT 2SM BR CLR 18/18 A3002 RMK
                        AO2 SLP166 T01780178=
201203020653 METAR KTMB 020653Z 00000KT 10SM CLR 18/18 A3003 RMK AO2 SLP170
                        T01780178=
201203020553 METAR KTMB 020553Z 00000KT 10SM CLR 18/18 A3005 RMK AO2 SLP175
                        T01830183 10244 20178 58006=
201203020453 METAR KTMB 020453Z 00000KT 10SM CLR 18/18 A3006 RMK AO2 SLP177
                        T01830178 402890183=
201203020353 METAR KTMB 020353Z 00000KT 10SM CLR 19/19 A3007=
201203020253 METAR KTMB 020253Z 00000KT 10SM CLR 22/19 A3007 RMK AO2 SLP181
                        T02170194 51010=
201203020153 METAR KTMB 020153Z 00000KT 10SM CLR 22/19 A3007 RMK AO2 SLP181
                        T02220194=
201203020053 METAR KTMB 020053Z 17003KT 10SM CLR 23/19 A3005 RMK AO2 SLP174
                        T02330194=
201203012353 METAR KTMB 012353Z 15006KT 10SM CLR 24/19 A3004 RMK AO2 SLP172
                        T02440194 10289 20244 53001=
201203012253 METAR KTMB 012253Z AUTO 15008KT 10SM CLR 26/19 A3004 RMK
                        AO2 SLP171 T02560189 TSNO=
201203012153 METAR KTMB 012153Z AUTO 15007KT 10SM CLR 27/19 A3004 RMK
                        AO2 SLP170 T02720194 TSNO=
201203012053 METAR KTMB 012053Z 17009KT 10SM CLR 28/19 A3004 RMK AO2 SLP171
                        T02780189 56016=
201203011953 METAR KTMB 011953Z 14009KT 10SM FEW041 28/19 A3004 RMK AO2
                        SLP172 T02830189=
201203011853 METAR KTMB 011853Z 15008KT 10SM SCT036 SCT048 27/19 A3007
                        RMK AO2 SLP180 T02720189=
201203011753 METAR KTMB 011753Z 16011G17KT 130V190 10SM FEW036 28/19 A3008
                        RMK AO2 SLP186 T02830194 10289 20189
                        58015 $=
201203011653 METAR KTMB 011653Z 17011G17KT 10SM SCT033 28/19 A3011 RMK
                        AO2 SLP196 T02830194 $=
201203011553 METAR KTMB 011553Z 16009G18KT 10SM SCT029 SCT038 27/20 A3014
                        RMK AO2 SLP204 T02720200 $=
201203011533 SPECI KTMB 011533Z 18010KT 10SM SCT027 27/20 A3013 RMK AO2
                        $=
201203011510 SPECI KTMB 011510Z 16009KT 10SM BKN025 BKN034 26/20 A3013
                        RMK AO2 $=
201203011502 SPECI KTMB 011502Z 18010KT 10SM SCT025 BKN032 OVC046 26/20
                        A3013 RMK AO2 $=
201203011453 METAR KTMB 011453Z 14009KT 10SM BKN023 BKN029 OVC046 27/21
                        A3013 RMK AO2 SLP202 T02670211 51006
                        $=
201203011428 SPECI KTMB 011428Z VRB05KT 10SM BKN021 25/21 A3013 RMK AO2
                        $=
201203011353 METAR KTMB 011353Z 19004KT 10SM FEW018 23/21 A3012 RMK AO2
                        SLP200 T02330211 $=
201203011253 METAR KTMB 011253Z 00000KT 10SM FEW023 22/21 A3012 RMK AO2
                        SLP198 T02170211 $=
201203011153 METAR KTMB 011153Z 00000KT 10SM CLR 19/19 A3011 RMK AO2 SLP196
                        60000 T01940194 10217 20194 53008=
201203011053 METAR KTMB 011053Z AUTO 00000KT 10SM FEW055 20/20 A3010 RMK
                        AO2 SLP192 T02000200=
201203010953 METAR KTMB 010953Z AUTO 00000KT 10SM CLR 22/21 A3009 RMK
                        AO2 RAB0858E10 SLP190 P0000 T02170211=
201203010853 METAR KTMB 010853Z AUTO 13003KT 10SM FEW023 BKN034 BKN044
                        22/21 A3009 RMK AO2 RAB0757E07 SLP188
                        P0000 60000 T02170211 56011=
201203010811 SPECI KTMB 010811Z AUTO 15003KT 10SM SCT022 BKN032 BKN048
                        22/21 A3009 RMK AO2 RAB0757E07 P0000=
201203010753 METAR KTMB 010753Z AUTO 14003KT 10SM SCT020 BKN026 OVC033
                        21/21 A3009 RMK AO2 RAB25E39 SLP189
                        P0000 T02110206=
201203010723 SPECI KTMB 010723Z AUTO 00000KT 10SM BKN020 BKN029 21/20
                        A3009 RMK AO2=
201203010653 METAR KTMB 010653Z AUTO 00000KT 10SM CLR 21/21 A3010 RMK
                        AO2 SLP193 T02110206=
201203010553 METAR KTMB 010553Z AUTO 00000KT 10SM BKN090 21/20 A3012 RMK
                        AO2 SLP199 T02110200 10239 20206
                        57008=
201203010453 METAR KTMB 010453Z AUTO 10003KT 10SM CLR 22/20 A3012 RMK
                        AO2 SLP200 T02220200 402830200=
201203010353 METAR KTMB 010353Z 00000KT 10SM FEW028 22/20 A3014 RMK AO2
                        SLP205 T02170200=
201203010253 METAR KTMB 010253Z 13003KT 10SM CLR 22/21 A3014 RMK AO2 SLP206
                        T02220206 50006=
201203010153 METAR KTMB 010153Z 11004KT 10SM CLR 22/19 A3014 RMK AO2 SLP207
                        T02220194=
201203010053 METAR KTMB 010053Z 12005KT 10SM CLR 23/20 A3013 RMK AO2 SLP202
                        T02330200=
201202292353 METAR KTMB 292353Z 12005KT 10SM CLR 24/20 A3012 RMK AO2 SLP200
                        T02390200 10283 20239 52002=
201202292253 METAR KTMB 292253Z 13010KT 10SM SCT025 25/19 A3012 RMK AO2
                        SLP200 T02500194=
201202292153 METAR KTMB 292153Z 16008KT 10SM SCT027 26/19 A3012 RMK AO2
                        SLP198 T02610194=
201202292103 SPECI KTMB 292103Z 14010KT 10SM FEW024 SCT029 SCT048 26/20
                        A3012 RMK AO2=
201202292053 METAR KTMB 292053Z 14009KT 10SM BKN025 BKN048 27/20 A3012
                        RMK AO2 SLP198 T02670200=
201202291953 METAR KTMB 291953Z 14007KT 10SM FEW023 OVC070 26/19 A3014
                        RMK AO2 SLP205 T02610194=
201202291853 METAR KTMB 291853Z AUTO 12013KT 10SM FEW024 SCT029 BKN047
                        28/21 A3015 RMK AO2 SLP209 T02780206
                        TSNO $=
201202291753 METAR KTMB 291753Z 11012G17KT 10SM FEW030 SCT038 BKN075 28/19
                        A3018 RMK AO2 RAB39E48 SLP220 P0000
                        60000 T02780194 10278 20211 58007=
201202291653 METAR KTMB 291653Z 12009KT 10SM SCT028 SCT036 OVC060 26/20
                        A3021 RMK AO2 RAB31E44 SLP230 P0000
                        T02560200=
201202291644 SPECI KTMB 291644Z 13009KT 10SM SCT028 BKN043 OVC060 27/19
                        A3021 RMK AO2 RAB31E44 P0000=
201202291634 SPECI KTMB 291634Z 12012G17KT 10SM -RA BKN028 BKN037 OVC060
                        26/19 A3021 RMK AO2 RAB31 P0000=
201202291553 METAR KTMB 291553Z 14011KT 10SM FEW028 SCT035 BKN046 27/19
                        A3022 RMK AO2 SLP232 T02670189=
201202291530 SPECI KTMB 291530Z 12013G16KT 10SM SCT028 BKN048 27/18 A3021
                        RMK AO2=
201202291512 SPECI KTMB 291512Z 13011KT 10SM BKN026 OVC044 27/19 A3021
                        RMK AO2=
201202291453 METAR KTMB 291453Z 12010KT 10SM SCT023 SCT040 26/19 A3020
                        RMK AO2 SLP227 T02560194 53006=
201202291353 METAR KTMB 291353Z 14009G17KT 10SM SCT025 25/19 A3019 RMK
                        AO2 SLP223 T02500194=
201202291253 METAR KTMB 291253Z 12007KT 10SM CLR 24/20 A3019 RMK AO2 SLP223
                        T02390200=
201202291153 METAR KTMB 291153Z 12006KT 10SM CLR 22/19 A3019 RMK AO2 SLP221
                        70001 T02220194 10222 20200 51006=
201202291053 METAR KTMB 291053Z AUTO 09004KT 10SM FEW022 SCT028 BKN044
                        21/19 A3018 RMK AO2 SLP220 T02060189=
201202290953 METAR KTMB 290953Z AUTO 08004KT 10SM CLR 20/18 A3017 RMK
                        AO2 SLP217 T02000183=
201202290853 METAR KTMB 290853Z AUTO 06003KT 10SM SCT023 SCT030 SCT040
                        21/19 A3017 RMK AO2 SLP214 T02110194
                        56009=
201202290753 METAR KTMB 290753Z AUTO 09005KT 10SM SCT032 21/19 A3017 RMK
                        AO2 SLP215 T02110194=
201202290653 METAR KTMB 290653Z AUTO 09007KT 10SM CLR 21/19 A3018 RMK
                        AO2 SLP218 T02110194=
201202290553 METAR KTMB 290553Z AUTO 10006KT 10SM CLR 21/19 A3019 RMK
                        AO2 SLP224 60001 T02110189 10233
                        20211 58010=
201202290453 METAR KTMB 290453Z AUTO 09008KT 10SM CLR 22/19 A3021 RMK
                        AO2 SLP228 T02220194 402890194=
201202290353 METAR KTMB 290353Z AUTO 09007KT 10SM FEW024 22/19 A3022 RMK
                        AO2 SLP232 T02220194=
201202290253 METAR KTMB 290253Z 09008KT 10SM CLR 23/19 A3022 RMK AO2 SLP234
                        60001 T02280194 53009=
201202290153 METAR KTMB 290153Z 09008KT 10SM FEW020 23/19 A3022 RMK AO2
                        SLP231 P0001 T02280194=
201202290053 METAR KTMB 290053Z 09007KT 10SM CLR 23/19 A3020 RMK AO2 SLP226
                        T02280194=
201202282353 METAR KTMB 282353Z 09008KT 10SM CLR 23/19 A3020 RMK AO2 SLP225
                        T02330194 10283 20233 53008=
201202282253 METAR KTMB 282253Z 10011KT 10SM CLR 25/19 A3018 RMK AO2 SLP221
                        T02500189=
201202282153 METAR KTMB 282153Z 10013KT 10SM FEW025 26/19 A3017 RMK AO2
                        SLP217 T02560189=
201202282053 METAR KTMB 282053Z 10012KT 10SM SCT029 27/19 A3017 RMK AO2
                        SLP217 T02670194 56015=
201202281953 METAR KTMB 281953Z 10010KT 10SM FEW035 27/19 A3018 RMK AO2
                        SLP219 T02670189=
201202281853 METAR KTMB 281853Z 11013G18KT 10SM SCT035 SCT043 28/19 A3020
                        RMK AO2 SLP226 T02830194=
201202281753 METAR KTMB 281753Z 12013KT 10SM SCT031 28/19 A3022 RMK AO2
                        SLP232 T02830194 10289 20206 58009=
201202281653 METAR KTMB 281653Z 11013KT 10SM SCT034 28/19 A3024 RMK AO2
                        SLP239 T02780194=
201202281553 METAR KTMB 281553Z 10009KT 10SM SCT032 28/19 A3025 RMK AO2
                        SLP241 T02780194=
201202281516 SPECI KTMB 281516Z 09011KT 10SM SCT026 BKN036 BKN048 27/19
                        A3025 RMK AO2=
201202281503 SPECI KTMB 281503Z 11011KT 10SM BKN026 BKN034 BKN048 27/19
                        A3025 RMK AO2=
201202281453 METAR KTMB 281453Z 05008KT 10SM SCT026 SCT035 BKN048 26/20
                        A3025 RMK AO2 SLP241 T02610200 51009=
201202281353 METAR KTMB 281353Z 09011KT 10SM FEW020 25/21 A3024 RMK AO2
                        SLP239 T02500206=
201202281253 METAR KTMB 281253Z 07004KT 10SM CLR 23/21 A3023 RMK AO2 SLP236
                        T02280211=
201202281153 METAR KTMB 281153Z 06005KT 10SM FEW020 21/20 A3022 RMK AO2
                        SLP232 T02060200 10233 20194 53008=
201202281117 SPECI KTMB 281117Z 05003KT 10SM FEW021 20/19 A3021 RMK AO2=
201202281110 SPECI KTMB 281110Z 00000KT 10SM SCT021 BKN028 20/20 A3021
                        RMK AO2=
201202281053 METAR KTMB 281053Z 00000KT 10SM FEW019 20/19 A3021 RMK AO2
                        SLP228 T02000194=
201202280953 METAR KTMB 280953Z 00000KT 10SM SCT019 SCT025 20/19 A3020
                        RMK AO2 SLP225 T02000194=
201202280853 METAR KTMB 280853Z 09005KT 10SM CLR 21/20 A3019 RMK AO2 SLP224
                        T02060200 56013=
201202280753 METAR KTMB 280753Z 09007KT 10SM FEW028 21/20 A3020 RMK AO2
                        SLP224 T02110200=
201202280653 METAR KTMB 280653Z 09008KT 10SM FEW030 23/21 A3023 RMK AO2
                        SLP235 T02330206=
201202280620 SPECI KTMB 280620Z 11009KT 10SM SCT021 SCT028 23/21 A3023
                        RMK AO2=
201202280604 SPECI KTMB 280604Z 10008KT 10SM SCT019 BKN028 23/21 A3023
                        RMK AO2=
201202280553 METAR KTMB 280553Z 09008KT 10SM SCT024 23/21 A3023 RMK AO2
                        SLP236 T02330211 10239 20228 58004=
201202280453 METAR KTMB 280453Z 10010KT 10SM FEW018 SCT031 23/21 A3025
                        RMK AO2 SLP242 T02330211 402890228=
201202280400 SPECI KTMB 280400Z 09008KT 10SM SCT020 BKN027 23/21 A3026
                        RMK AO2=
201202280353 METAR KTMB 280353Z 09008KT 10SM FEW018 SCT027 23/21 A3026
                        RMK AO2 SLP247 T02280211=
201202280253 METAR KTMB 280253Z 10010KT 10SM FEW026 23/21 A3024 RMK AO2
                        SLP241 T02330206 51013=
201202280221 SPECI KTMB 280221Z 11008KT 10SM FEW017 BKN030 23/21 A3024
                        RMK AO2=
201202280153 METAR KTMB 280153Z 09009KT 10SM SCT019 BKN026 23/21 A3024
                        RMK AO2 SLP240 T02280206=
201202280144 SPECI KTMB 280144Z 10008KT 10SM FEW017 BKN026 23/21 A3024
                        RMK AO2=
201202280053 METAR KTMB 280053Z 10009KT 10SM FEW017 SCT026 23/21 A3022
                        RMK AO2 SLP233 T02330206=
201202272353 METAR KTMB 272353Z 11011KT 10SM CLR 24/21 A3021 RMK AO2 SLP228
                        T02390206 10289 20239 55000=
201202272312 SPECI KTMB 272312Z 10010KT 10SM SCT020 24/21 A3021 RMK AO2=
201202272304 SPECI KTMB 272304Z 10011KT 10SM BKN020 24/21 A3021 RMK AO2=
201202272253 METAR KTMB 272253Z 11012KT 10SM SCT022 25/21 A3021 RMK AO2
                        SLP228 T02500206=
201202272153 METAR KTMB 272153Z 11011KT 10SM SCT024 26/20 A3021 RMK AO2
                        SLP227 T02560200=
201202272053 METAR KTMB 272053Z 11012KT 10SM FEW026 26/20 A3021 RMK AO2
                        SLP228 T02610200 56015=
201202271953 METAR KTMB 271953Z 11013KT 10SM FEW026 27/21 A3021 RMK AO2
                        SLP230 T02720206=
201202271853 METAR KTMB 271853Z 11013G18KT 10SM FEW028 SCT039 29/21 A3023
                        RMK AO2 SLP235 T02890206=
201202271813 SPECI KTMB 271813Z 12012KT 10SM SCT026 SCT033 BKN041 28/21
                        A3024 RMK AO2=
201202271753 METAR KTMB 271753Z 10013KT 10SM BKN026 BKN035 BKN070 27/20
                        A3025 RMK AO2 SLP244 T02720200 10278
                        20233 58007=
201202271653 METAR KTMB 271653Z 10016KT 10SM SCT024 BKN034 27/20 A3026
                        RMK AO2 SLP246 T02720200=
201202271553 METAR KTMB 271553Z 12013G22KT 10SM SCT024 BKN034 27/21 A3027
                        RMK AO2 SLP250 T02670206=
201202271505 SPECI KTMB 271505Z 13015G20KT 10SM SCT022 27/20 A3027 RMK
                        AO2=
201202271453 METAR KTMB 271453Z 11013G20KT 10SM BKN022 26/21 A3027 RMK
                        AO2 SLP251 T02610206 53016=
201202271436 SPECI KTMB 271436Z 13012G20KT 10SM BKN022 BKN026 BKN032 26/21
                        A3027 RMK AO2=
201202271353 METAR KTMB 271353Z 11014G21KT 10SM FEW020 26/21 A3025 RMK
                        AO2 SLP242 T02560206=
201202271253 METAR KTMB 271253Z COR 11011G17KT 10SM FEW021 SCT031 24/21
                        A3024 RMK AO2 SLP239 T02440206=
201202271234 SPECI KTMB 271234Z 11009KT 10SM FEW022 SCT028 24/21 A3024
                        RMK AO2=
201202271153 METAR KTMB 271153Z 11009KT 10SM BKN022 BKN026 23/21 A3023
                        RMK AO2 SLP234 60000 70011 T02330206
                        10233 20228 53006=
201202271144 SPECI KTMB 271144Z 11008KT 10SM BKN022 23/21 A3022 RMK AO2=
201202271053 METAR KTMB 271053Z AUTO 11009KT 10SM FEW021 SCT026 23/21
                        A3021 RMK AO2 SLP230 T02280206 TSNO=
201202271029 SPECI KTMB 271029Z AUTO 11009KT 10SM BKN023 23/21 A3021 RMK
                        AO2 TSNO=
201202271022 SPECI KTMB 271022Z AUTO 11011KT 10SM SCT023 23/21 A3021 RMK
                        AO2 TSNO=
201202271011 SPECI KTMB 271011Z AUTO 11010KT 10SM BKN023 23/21 A3020 RMK
                        AO2 TSNO=
201202270953 METAR KTMB 270953Z AUTO 11009KT 10SM FEW021 SCT026 23/21
                        A3021 RMK AO2 SLP228 T02280206 TSNO=
201202270943 SPECI KTMB 270943Z AUTO 11009KT 10SM FEW019 SCT025 23/21
                        A3020 RMK AO2 TSNO=
201202270853 METAR KTMB 270853Z AUTO 11010KT 10SM BKN025 23/21 A3021 RMK
                        AO2 RAB07E26 SLP229 P0000 60000 T02280206
                        58008 TSNO=
201202270843 SPECI KTMB 270843Z AUTO 10008KT 10SM FEW021 BKN029 BKN060
                        23/21 A3021 RMK AO2 RAB07E26 P0000
                        TSNO=
201202270753 METAR KTMB 270753Z AUTO 10012KT 10SM SCT022 BKN065 OVC080
                        23/21 A3022 RMK AO2 RAB19E41 SLP233
                        P0000 T02330206 TSNO=
201202270742 SPECI KTMB 270742Z AUTO 10012KT 10SM BKN023 BKN038 OVC050
                        23/21 A3022 RMK AO2 RAB19E41 P0000
                        TSNO=
201202270653 METAR KTMB 270653Z AUTO 09012KT 10SM FEW020 BKN042 OVC080
                        23/20 A3023 RMK AO2 SLP235 T02330200
                        TSNO=
201202270553 METAR KTMB 270553Z AUTO 09015KT 10SM FEW038 SCT049 OVC065
                        23/20 A3023 RMK AO2 SLP237 T02330200
                        10233 20228 50001 TSNO=
201202270453 METAR KTMB 270453Z AUTO 09011KT 10SM SCT024 OVC031 23/20
                        A3024 RMK AO2 SLP240 T02330200 402670222
                        TSNO=
201202270353 METAR KTMB 270353Z AUTO 09012KT 10SM FEW022 BKN055 23/20
                        A3024 RMK AO2 SLP239 T02280200 TSNO=
201202270253 METAR KTMB 270253Z 10016KT 10SM BKN030 23/20 A3023 RMK AO2
                        SLP237 T02280200 51009=
201202270153 METAR KTMB 270153Z 09012G21KT 10SM FEW020 OVC032 23/19 A3023
                        RMK AO2 SLP236 T02280194=
201202270053 METAR KTMB 270053Z 09012KT 10SM FEW022 BKN032 OVC041 23/19
                        A3022 RMK AO2 SLP232 T02280194=
201202270037 SPECI KTMB 270037Z 09013KT 10SM FEW021 SCT028 OVC034 23/19
                        A3021 RMK AO2=
201202270000 SPECI KTMB 270000Z AUTO 09017G20KT 10SM BKN021 OVC030 23/19
                        A3021 RMK AO2=
201202262353 METAR KTMB 262353Z AUTO 09016KT 10SM SCT021 OVC030 23/19
                        A3021 RMK AO2 SLP228 60000 T02330194
                        10267 20233 52005=
201202262325 SPECI KTMB 262325Z AUTO 09012KT 10SM SCT021 BKN030 23/19
                        A3020 RMK AO2=
201202262316 SPECI KTMB 262316Z AUTO 09012G20KT 10SM BKN021 BKN030 OVC035
                        23/19 A3020 RMK AO2=
201202262253 METAR KTMB 262253Z 09015KT 10SM SCT021 OVC034 23/19 A3020
                        RMK AO2 SLP225 T02330194=
201202262248 SPECI KTMB 262248Z 09011KT 10SM SCT021 SCT028 OVC034 24/19
                        A3020 RMK AO2=
201202262220 SPECI KTMB 262220Z 10015G22KT 10SM SCT021 BKN028 BKN037 24/20
                        A3020 RMK AO2=
201202262153 METAR KTMB 262153Z 09016KT 10SM FEW021 25/19 A3019 RMK AO2
                        SLP223 T02500194=
201202262144 SPECI KTMB 262144Z 10018G24KT 10SM FEW021 26/20 A3019 RMK
                        AO2=
201202262131 SPECI KTMB 262131Z 09016KT 10SM BKN021 24/20 A3019 RMK AO2=
201202262053 METAR KTMB 262053Z 10017KT 10SM SCT023 25/20 A3018 RMK AO2
                        SLP219 60000 T02500200 56012=
201202262019 SPECI KTMB 262019Z 09015KT 10SM SCT023 BKN035 BKN044 25/19
                        A3019 RMK AO2=
201202261953 METAR KTMB 261953Z 09013KT 10SM SCT023 BKN029 26/20 A3019
                        RMK AO2 RAE1855 SLP223 P0000 T02560200=
201202261927 SPECI KTMB 261927Z 10018G21KT 10SM BKN023 BKN029 BKN034 26/20
                        A3019 RMK AO2 RAE1855 P0000=
201202261853 METAR KTMB 261853Z 10017KT 10SM -RA FEW021 SCT043 BKN060
                        25/20 A3020 RMK AO2 PK WND 11026/1839
                        RAB43 SLP226 P0000 T02500200=
201202261836 SPECI KTMB 261836Z 10020G24KT 10SM SCT022 BKN032 BKN045 26/21
                        A3020 RMK AO2=
201202261815 SPECI KTMB 261815Z 08017G24KT 10SM SCT022 BKN027 OVC047 26/20
                        A3021 RMK AO2=
201202261753 METAR KTMB 261753Z 10016KT 10SM FEW022 SCT027 BKN046 26/20
                        A3022 RMK AO2 SLP231 60011 T02560200
                        10261 20222 58006=
201202261718 SPECI KTMB 261718Z 11017KT 10SM SCT022 BKN039 OVC047 25/20
                        A3023 RMK AO2=
201202261701 SPECI KTMB 261701Z 10017KT 10SM BKN022 BKN026 BKN046 24/20
                        A3023 RMK AO2=
201202261653 METAR KTMB 261653Z 10018KT 10SM SCT022 BKN032 BKN045 25/21
                        A3023 RMK AO2 SLP236 P0010 T02500206=
201202261629 SPECI KTMB 261629Z 10018KT 10SM FEW018 SCT024 BKN033 26/21
                        A3023 RMK AO2 P0010=
201202261600 SPECI KTMB 261600Z 10016KT 10SM BKN016 BKN023 OVC032 24/22
                        A3023 RMK AO2 P0005=
201202261553 METAR KTMB 261553Z 08015G18KT 10SM BKN014 BKN020 OVC026 24/22
                        A3023 RMK AO2 RAB27E53 SLP236 P0001
                        T02390217=
201202261551 SPECI KTMB 261551Z 09015G18KT 10SM -RA BKN014 BKN020 OVC037
                        24/22 A3023 RMK AO2 RAB27 P0001=
201202261453 METAR KTMB 261453Z 07014KT 10SM SCT017 BKN023 OVC040 23/21
                        A3022=
201202261420 SPECI KTMB 261420Z 08013KT 8SM -RA SCT019 BKN032 OVC070 23/21
                        A3022 RMK AO2 P0000=
201202261353 METAR KTMB 261353Z 06012KT 9SM -RA SCT017 BKN023 OVC029 23/20
                        A3023 RMK AO2 RAB12E21B48 SLP234
                        P0000 T02280200=
201202261336 SPECI KTMB 261336Z 05010KT 10SM BKN017 BKN034 OVC044 23/20
                        A3022 RMK AO2 RAB12E21 P0000=
201202261323 SPECI KTMB 261323Z 05010KT 10SM SCT017 BKN031 OVC055 23/20
                        A3021 RMK AO2 RAB12E21 P0000=
201202261253 METAR KTMB 261253Z 05005KT 10SM BKN015 BKN022 OVC040 22/19
                        A3021 RMK AO2 SLP228 T02220194=
201202261224 SPECI KTMB 261224Z 04008KT 10SM BKN017 BKN023 OVC045 22/19
                        A3020 RMK AO2=
201202261153 METAR KTMB 261153Z 06008KT 10SM FEW019 BKN045 OVC075 22/19
                        A3019 RMK AO2 SLP223 T02220189 10222
                        20222 50005=
201202261148 SPECI KTMB 261148Z 06007KT 10SM FEW019 BKN036 OVC045 22/19
                        A3019 RMK AO2=
201202261053 METAR KTMB 261053Z AUTO 07009KT 10SM BKN021 BKN026 OVC037
                        22/19 A3019 RMK AO2 SLP221 T02220189=
201202261041 SPECI KTMB 261041Z AUTO 06008KT 10SM SCT021 BKN026 OVC070
                        22/19 A3018 RMK AO2=
201202260953 METAR KTMB 260953Z AUTO 05007KT 10SM SCT041 OVC060 22/18
                        A3018 RMK AO2 SLP218 T02220183=
201202260853 METAR KTMB 260853Z AUTO 07010KT 10SM SCT043 BKN050 OVC080
                        22/18 A3017 RMK AO2 SLP215 T02220183
                        50000=
201202260753 METAR KTMB 260753Z 06010KT 10SM FEW023 BKN032 OVC043 22/18
                        A3017=
201202260744 SPECI KTMB 260744Z 07010KT 10SM FEW019 BKN031 OVC043 22/18
                        A3018 RMK AO2=
201202260653 METAR KTMB 260653Z 07011KT 10SM SCT021 BKN029 OVC037 22/18
                        A3017 RMK AO2 SLP216 T02220183=
201202260553 METAR KTMB 260553Z 08013KT 10SM OVC023 22/18 A3017 RMK AO2
                        SLP215 T02220183 10233 20222 58000=
201202260516 SPECI KTMB 260516Z 07012KT 10SM BKN023 OVC047 22/18 A3017
                        RMK AO2=
201202260453 METAR KTMB 260453Z 07012KT 10SM FEW023 SCT035 OVC047 22/18
                        A3017 RMK AO2 SLP215 T02220178 403060178=
201202260353 METAR KTMB 260353Z 06014KT 10SM SCT026 OVC035 23/18 A3018
                        RMK AO2 SLP217 T02280178=
201202260253 METAR KTMB 260253Z 05017G21KT 10SM OVC024 23/18 A3017 RMK
                        AO2 SLP216 T02280178 51021=
201202260153 METAR KTMB 260153Z 06014KT 10SM BKN024 OVC035 23/18 A3016
                        RMK AO2 SLP213 T02280183=
201202260053 METAR KTMB 260053Z 05014KT 10SM OVC022 23/19 A3013 RMK AO2
                        SLP203 T02330189=
201202260003 SPECI KTMB 260003Z 05011KT 10SM BKN022 BKN030 OVC048 23/19
                        A3011 RMK AO2=
201202252353 METAR KTMB 252353Z 05010G19KT 10SM SCT022 BKN033 OVC048 23/19
                        A3011 RMK AO2 SLP194 T02330189 10306
                        20233 53010=
201202252343 SPECI KTMB 252343Z 04013KT 10SM SCT022 BKN030 OVC035 23/19
                        A3011 RMK AO2=
201202252253 METAR KTMB 252253Z 05016KT 10SM BKN024 OVC031 24/19 A3009
                        RMK AO2 SLP189 T02390189=
201202252212 SPECI KTMB 252212Z 05012KT 10SM BKN026 BKN047 OVC060 25/19
                        A3009 RMK AO2=
201202252200 SPECI KTMB 252200Z 05014KT 10SM SCT024 BKN047 OVC060 25/19
                        A3008 RMK AO2=
201202252153 METAR KTMB 252153Z 06013KT 10SM FEW022 BKN029 OVC060 25/20
                        A3008 RMK AO2 SLP187 T02500200=
201202252131 SPECI KTMB 252131Z 07015G19KT 10SM BKN022 BKN029 OVC036 25/20
                        A3008 RMK AO2=
201202252053 METAR KTMB 252053Z 09010KT 10SM SCT020 BKN046 26/21 A3008
                        RMK AO2 SLP184 T02610211 55007=
201202251953 METAR KTMB 251953Z 11014G17KT 10SM SCT047 BKN060 BKN075 28/19
                        A3007 RMK AO2 SLP181 T02780194=
201202251853 METAR KTMB 251853Z 10005KT 10SM CLR 29/18 A3007 RMK AO2 SLP183
                        T02940183=
201202251753 METAR KTMB 251753Z VRB04KT 10SM FEW042 30/19 A3010 RMK AO2
                        SLP191 T03000189 10300 20178 58013=
201202251653 METAR KTMB 251653Z VRB05KT 10SM FEW036 SCT047 SCT060 29/19
                        A3013 RMK AO2 SLP201 T02890194=
201202251553 METAR KTMB 251553Z 00000KT 10SM FEW032 28/19 A3014 RMK AO2
                        SLP205 T02830194=
201202251453 METAR KTMB 251453Z 00000KT 10SM CLR 26/20 A3014 RMK AO2 SLP205
                        T02610200 53010=
201202251353 METAR KTMB 251353Z 24003KT 9SM FEW046 24/23 A3013 RMK AO2
                        SLP203 T02390228=
201202251308 SPECI KTMB 251308Z 00000KT 6SM BR CLR 22/22 A3011 RMK AO2=
201202251300 SPECI KTMB 251300Z 00000KT 4SM BR BKN002 21/21 A3011 RMK
                        AO2=
201202251253 METAR KTMB 251253Z 00000KT 2 1/2SM BR OVC002 21/21 A3011
                        RMK AO2 SLP195 T02110211=
201202251249 SPECI KTMB 251249Z 00000KT 2 1/2SM BR OVC002 21/21 A3011
                        RMK AO2=
201202251236 SPECI KTMB 251236Z 00000KT 3SM BR BKN002 OVC045 21/21 A3011
                        RMK AO2=
201202251229 SPECI KTMB 251229Z 00000KT 1SM BR BKN002 OVC045 19/19 A3010
                        RMK AO2=
201202251209 SPECI KTMB 251209Z 00000KT 1/4SM FG BKN002 OVC044 18/18 A3010
                        RMK AO2=
201202251153 METAR KTMB 251153Z 00000KT 3/4SM BR VV003 18/18 A3009 RMK
                        AO2 SLP189 T01830183 10211 20178
                        53018=
201202251146 SPECI KTMB 251146Z 00000KT 1/2SM FG VV002 18/18 A3009 RMK
                        AO2=
201202251053 METAR KTMB 251053Z AUTO 00000KT 1/4SM FG VV002 18/18 A3007
                        RMK AO2 SLP180 T01780178=
201202251018 SPECI KTMB 251018Z AUTO 00000KT 1/4SM FG VV004 19/19 A3005
                        RMK AO2=
201202251007 SPECI KTMB 251007Z AUTO 00000KT 3/4SM BR VV004 20/20 A3005
                        RMK AO2=
201202251005 SPECI KTMB 251005Z AUTO 00000KT 1 1/2SM BR FEW005 20/20 A3005
                        RMK AO2=
201202250953 METAR KTMB 250953Z AUTO 00000KT 3SM BR CLR 21/21 A3005 RMK
                        AO2 SLP174 T02060206=
201202250919 SPECI KTMB 250919Z AUTO 18004KT 3SM BR FEW007 20/20 A3003
                        RMK AO2=
201202250914 SPECI KTMB 250914Z AUTO 00000KT 1 1/4SM BR FEW007 21/20 A3004
                        RMK AO2 VIS 1/2V4=
201202250859 SPECI KTMB 250859Z 00000KT 1/2SM FG VV007 20/20 A3004 RMK
                        AO2=
201202250853 METAR KTMB 250853Z 00000KT 1 1/4SM BR CLR 20/20 A3004 RMK
                        AO2 SLP171 T02000200 58006=
201202250851 SPECI KTMB 250851Z 00000KT 1 3/4SM BR CLR 20/20 A3004 RMK
                        AO2=
201202250753 METAR KTMB 250753Z 00000KT 10SM BKN060 19/19 A3005 RMK AO2
                        SLP174 T01940189=
201202250708 SPECI KTMB 250708Z 00000KT 3SM BR FEW009 BKN055 19/19 A3006
                        RMK AO2=
201202250704 SPECI KTMB 250704Z 00000KT 3/4SM BR FEW009 BKN055 19/19 A3006
                        RMK AO2=
201202250653 METAR KTMB 250653Z 00000KT 1 1/4SM BR FEW007 BKN055 19/19
                        A3006 RMK AO2 SLP177 T01890189=
201202250649 SPECI KTMB 250649Z 00000KT 3/4SM BR SCT007 BKN055 19/19 A3006
                        RMK AO2=
201202250636 SPECI KTMB 250636Z 00000KT 1/2SM FG BKN007 OVC055 19/19 A3006
                        RMK AO2=
201202250627 SPECI KTMB 250627Z 00000KT 1/4SM FG VV007 19/18 A3006 RMK
                        AO2=
201202250553 METAR KTMB 250553Z 00000KT 1/2SM FG VV008 19/19 A3007 RMK
                        AO2 SLP180 T01890189 10244 20189
                        51003=
201202250545 SPECI KTMB 250545Z 00000KT 3/4SM BR VV007 19/19 A3006 RMK
                        AO2=
201202250539 SPECI KTMB 250539Z 00000KT 1 1/2SM BR CLR 19/19 A3006 RMK
                        AO2=
201202250517 SPECI KTMB 250517Z 00000KT 3SM BR CLR 19/19 A3006 RMK AO2=
201202250507 SPECI KTMB 250507Z 00000KT 1 1/2SM BR FEW007 19/19 A3006
                        RMK AO2=
201202250453 METAR KTMB 250453Z 00000KT 6SM BR CLR 20/19 A3006 RMK AO2
                        SLP180 T02000194 403110194=
201202250401 SPECI KTMB 250401Z 00000KT 9SM CLR 21/21 A3007 RMK AO2=
201202250353 METAR KTMB 250353Z 00000KT 1 3/4SM BR CLR 21/21 A3007 RMK
                        AO2 SLP180 T02110206=
201202250349 SPECI KTMB 250349Z 00000KT 1 3/4SM BR CLR 21/20 A3007 RMK
                        AO2=
201202250253 METAR KTMB 250253Z 18003KT 10SM CLR 23/21 A3006 RMK AO2 SLP177
                        T02280211 53006=
201202250153 METAR KTMB 250153Z 17005KT 10SM CLR 23/21 A3004 RMK AO2 SLP173
                        T02330211=
201202250053 METAR KTMB 250053Z 17005KT 10SM CLR 24/21 A3003 RMK AO2 SLP168
                        T02440211=
201202242353 METAR KTMB 242353Z 20003KT 10SM CLR 25/21 A3004 RMK AO2 SLP171
                        T02500206 10311 20250 53017=
201202242253 METAR KTMB 242253Z 19009KT 10SM CLR 27/20 A3000 RMK AO2 SLP157
                        T02720200=
201202242153 METAR KTMB 242153Z 19009KT 10SM CLR 29/19 A2999=
201202242053 METAR KTMB 242053Z 19009KT 10SM FEW043 29/19 A2999 RMK AO2
                        SLP154 T02940189 56015=
201202241953 METAR KTMB 241953Z 19008G15KT 10SM CLR 30/18 A2999 RMK AO2
                        SLP156 T03000183=
201202241853 METAR KTMB 241853Z 23010G15KT 10SM CLR 30/18 A3000 RMK AO2
                        SLP160 T03000178=
201202241753 METAR KTMB 241753Z 19010KT 10SM FEW047 31/17 A3003 RMK AO2
                        SLP168 T03060172 10306 20206 58011=
201202241653 METAR KTMB 241653Z 19005KT 10SM CLR 29/18 A3005 RMK AO2 SLP176
                        T02890178=
201202241553 METAR KTMB 241553Z 18008KT 10SM CLR 28/19 A3006 RMK AO2 SLP179
                        T02780194=
201202241453 METAR KTMB 241453Z 17008KT 10SM CLR 26/21 A3006 RMK AO2 SLP179
                        T02610211 51016=
201202241353 METAR KTMB 241353Z 17006KT 10SM CLR 24/22 A3005 RMK AO2 SLP176
                        T02390222=
201202241253 METAR KTMB 241253Z 18004KT 8SM CLR 22/21 A3003 RMK AO2 SLP169
                        T02170211=
201202241153 METAR KTMB 241153Z 16004KT 8SM CLR 21/21 A3001 RMK AO2 SLP163
                        T02060206 10206 20200 53011=
201202241053 METAR KTMB 241053Z AUTO 17003KT 6SM BR CLR 21/20 A3000 RMK
                        AO2 SLP158 T02060200=
201202240953 METAR KTMB 240953Z 17003KT 5SM BR CLR 20/20 A2999 RMK AO2
                        SLP153 T02000200=
201202240853 METAR KTMB 240853Z 18004KT 6SM BR CLR 20/20 A2998 RMK AO2
                        SLP152 T02000200 56008=
201202240753 METAR KTMB 240753Z 17003KT 6SM BR CLR 20/20 A2999 RMK AO2
                        SLP153 T02000200=
201202240653 METAR KTMB 240653Z 00000KT 7SM CLR 20/20 A3000 RMK AO2 SLP156
                        T02000200=
201202240553 METAR KTMB 240553Z 00000KT 6SM BR CLR 20/20 A3000 RMK AO2
                        SLP159 T02000200 10244 20200 58003=
201202240453 METAR KTMB 240453Z 16004KT 9SM CLR 21/21 A3002 RMK AO2 SLP163
                        T02110206 402940139=
201202240353 METAR KTMB 240353Z 19005KT 10SM CLR 21/21 A3002 RMK AO2 SLP163
                        T02110206=
201202240253 METAR KTMB 240253Z 18004KT 10SM CLR 22/21 A3001 RMK AO2 SLP163
                        T02170206 51012=
201202240153 METAR KTMB 240153Z 18004KT 10SM CLR 22/21 A3001 RMK AO2 SLP162
                        T02220206=
201202240053 METAR KTMB 240053Z 19005KT 10SM CLR 23/20 A3000 RMK AO2 SLP157
                        T02330200=
201202232353 METAR KTMB 232353Z 20005KT 10SM CLR 24/18 A2998 RMK AO2 SLP150
                        T02440183 10294 20244 53011=
201202232253 METAR KTMB 232253Z 20006KT 10SM CLR 27/18 A2996 RMK AO2 SLP146
                        T02670178=
201202232153 METAR KTMB 232153Z 20009KT 10SM CLR 28/18 A2995 RMK AO2 SLP140
                        T02830183=
201202232053 METAR KTMB 232053Z 20010KT 10SM CLR 29/19 A2994 RMK AO2 SLP139
                        T02890189 56015=
201202231953 METAR KTMB 231953Z 18008KT 10SM CLR 29/19 A2995 RMK AO2 SLP140
                        T02890194=
201202231853 METAR KTMB 231853Z 19010G16KT 10SM CLR 29/19 A2997 RMK AO2
                        SLP147 T02890189=
201202231753 METAR KTMB 231753Z 20010KT 10SM CLR 28/19 A2999 RMK AO2 SLP155
                        T02830189 10289 20144 58012=
201202231653 METAR KTMB 231653Z 21008G15KT 10SM CLR 28/19 A3001 RMK AO2
                        SLP161 T02780189=
201202231553 METAR KTMB 231553Z 19008KT 10SM CLR 27/19 A3003 RMK AO2 SLP168
                        T02670194=
201202231453 METAR KTMB 231453Z 18010KT 10SM FEW018 25/20 A3003 RMK AO2
                        SLP167 T02500200 51014=
201202231353 METAR KTMB 231353Z 19005KT 10SM CLR 22/20 A3001 RMK AO2 SLP163
                        T02170200 $=
201202231253 METAR KTMB 231253Z 18004KT 10SM CLR 18/18 A3000 RMK AO2 SLP157
                        T01830183 $=
201202231209 SPECI KTMB 231209Z 17003KT 5SM BR CLR 15/15 A2999 RMK AO2
                        $=
201202231153 METAR KTMB 231153Z 00000KT 1 1/4SM BR CLR 15/15 A2999 RMK
                        AO2 SLP153 T01500150 10178 20139
                        53007 $=
201202231139 SPECI KTMB 231139Z AUTO 00000KT 1 3/4SM BR CLR 16/16 A2998
                        RMK AO2=
201202231053 METAR KTMB 231053Z 00000KT 5SM BR CLR 16/16 A2997 RMK AO2
                        SLP148 T01560156=
201202231038 SPECI KTMB 231038Z 00000KT 3SM BR CLR 16/16 A2997 RMK AO2=
201202231027 SPECI KTMB 231027Z 00000KT 1 3/4SM BR CLR 16/16 A2997 RMK
                        AO2 VIS 3/4V5=
201202230953 METAR KTMB 230953Z 00000KT 10SM CLR 15/15 A2997 RMK AO2 SLP147
                        T01500150=
201202230853 METAR KTMB 230853Z 19003KT 10SM CLR 17/17 A2996 RMK AO2 SLP145
                        T01720167 56015=
201202230753 METAR KTMB 230753Z 20003KT 10SM CLR 17/17 A2998 RMK AO2 SLP150
                        T01720167=
201202230653 METAR KTMB 230653Z 00000KT 10SM CLR 17/17 A2999 RMK AO2 SLP156
                        T01720167=
201202230553 METAR KTMB 230553Z 19004KT 10SM CLR 18/17 A3001 RMK AO2 SLP160
                        T01780172 10228 20156 58012=
201202230453 METAR KTMB 230453Z 18003KT 10SM CLR 17/17 A3002 RMK AO2 SLP166
                        T01720167 402720128=
201202230353 METAR KTMB 230353Z 00000KT 10SM CLR 17/17 A3004 RMK AO2 SLP170
                        T01720167=
201202230253 METAR KTMB 230253Z 00000KT 10SM CLR 19/16 A3004 RMK AO2 SLP173
                        T01890161 53015=
201202230153 METAR KTMB 230153Z 19003KT 10SM CLR 21/17 A3003 RMK AO2 SLP166
                        T02060172=
201202230053 METAR KTMB 230053Z 18003KT 10SM CLR 22/17 A3000 RMK AO2 SLP160
                        T02170172=
201202222353 METAR KTMB 222353Z 19005KT 10SM CLR 23/17 A3000 RMK AO2 SLP158
                        T02280167 10272 20228 53009=
201202222253 METAR KTMB 222253Z 21008KT 10SM CLR 24/17 A2999 RMK AO2 SLP154
                        T02440167=
201202222153 METAR KTMB 222153Z 17009KT 10SM CLR 26/17 A2997 RMK AO2 SLP148
                        T02610167=
201202222053 METAR KTMB 222053Z 12011KT 10SM SCT045 26/17 A2997 RMK AO2
                        SLP149 T02610172 56029=
201202221953 METAR KTMB 221953Z 13010KT 10SM FEW046 27/18 A2999 RMK AO2
                        SLP156 T02670178=
201202221853 METAR KTMB 221853Z 14008G14KT 10SM FEW040 27/17 A3002 RMK
                        AO2 SLP164 T02670172=
201202221753 METAR KTMB 221753Z 12003KT 10SM FEW036 26/17 A3006 RMK AO2
                        SLP178 T02610172 10267 20128 58021=
201202221653 METAR KTMB 221653Z VRB03KT 10SM SCT034 26/17 A3010 RMK AO2
                        SLP190 T02560167=
201202221553 METAR KTMB 221553Z 20006KT 10SM OVC032 24/16 A3011 RMK AO2
                        SLP196 T02390161=
201202221453 METAR KTMB 221453Z 12005KT 10SM BKN034 23/17 A3012 RMK AO2
                        SLP198 T02330167 50011=
201202221353 METAR KTMB 221353Z 00000KT 10SM BKN030 21/17 A3013 RMK AO2
                        SLP201 T02060167=
201202221253 METAR KTMB 221253Z 00000KT 10SM FEW029 16/16 A3011 RMK AO2
                        SLP196 T01610156=
201202221153 METAR KTMB 221153Z 35004KT 10SM CLR 13/13 A3009 RMK AO2 SLP188
                        T01330128 10183 20128 53002=
201202221053 METAR KTMB 221053Z AUTO 00000KT 10SM CLR 13/13 A3007 RMK
                        AO2 SLP183 T01330128=
201202220953 METAR KTMB 220953Z AUTO 00000KT 10SM CLR 14/14 A3006 RMK
                        AO2 SLP180 T01440139 $=
201202220853 METAR KTMB 220853Z AUTO 27003KT 10SM CLR 14/13 A3008=
201202220753 METAR KTMB 220753Z AUTO 25003KT 10SM CLR 14/14 A3009 RMK
                        AO2 SLP190 T01440139=
201202220653 METAR KTMB 220653Z AUTO 00000KT 10SM CLR 16/13 A3012 RMK
                        AO2 SLP197 T01610133=
201202220553 METAR KTMB 220553Z AUTO 00000KT 10SM CLR 18/14 A3014 RMK
                        AO2 SLP204 T01830144 10194 20172
                        58010=
201202220453 METAR KTMB 220453Z AUTO 12005KT 10SM CLR 18/14 A3015 RMK
                        AO2 SLP208 T01830139 402500133=
201202220353 METAR KTMB 220353Z AUTO 10006KT 10SM CLR 17/14 A3016 RMK
                        AO2 SLP212 T01720139=
201202220253 METAR KTMB 220253Z 12005KT 10SM CLR 18/14 A3017 RMK AO2 SLP215
                        T01780139 50007=
201202220153 METAR KTMB 220153Z 10007KT 10SM CLR 17/13 A3017 RMK AO2 SLP215
                        T01720133=
201202220053 METAR KTMB 220053Z 09008KT 10SM CLR 18/14 A3015 RMK AO2 SLP210
                        T01830139=
201202212353 METAR KTMB 212353Z 10007KT 10SM CLR 19/14 A3015 RMK AO2 SLP208
                        T01940139 10250 20194 50003=
201202212253 METAR KTMB 212253Z 09009KT 10SM CLR 21/13 A3015 RMK AO2 SLP208
                        T02110133=
201202212153 METAR KTMB 212153Z 11007KT 10SM FEW041 23/14 A3014 RMK AO2
                        SLP206 T02280139=
201202212053 METAR KTMB 212053Z 12009KT 10SM FEW038 24/14 A3014 RMK AO2
                        SLP205 T02390144 56013=
201202211953 METAR KTMB 211953Z 08008KT 10SM CLR 24/14 A3014 RMK AO2 SLP205
                        T02440144=
201202211853 METAR KTMB 211853Z 10008KT 10SM FEW037 24/14 A3016 RMK AO2
                        SLP211 T02440144=
201202211753 METAR KTMB 211753Z 10011KT 10SM CLR 24/14 A3018 RMK AO2 SLP218
                        T02440139 10244 20144 58013=
201202211653 METAR KTMB 211653Z 11010KT 10SM CLR 24/13 A3020 RMK AO2 SLP224
                        T02390133=
201202211553 METAR KTMB 211553Z 09010KT 10SM FEW038 23/14 A3022 RMK AO2
                        SLP232 T02330139=
201202211453 METAR KTMB 211453Z 11013KT 10SM FEW036 23/14 A3021 RMK AO2
                        SLP230 T02330139 53016=
201202211353 METAR KTMB 211353Z 09010G14KT 10SM SCT034 22/14 A3020 RMK
                        AO2 SLP225 T02170144=
201202211253 METAR KTMB 211253Z 00000KT 10SM FEW034 17/15 A3018 RMK AO2
                        SLP218 T01720150=
201202211153 METAR KTMB 211153Z 00000KT 10SM SCT036 16/14 A3017 RMK AO2
                        SLP214 T01560139 10167 20133 53009=
201202211053 METAR KTMB 211053Z AUTO 00000KT 10SM BKN034 13/13 A3015 RMK
                        AO2 SLP209 T01330128=
201202210953 METAR KTMB 210953Z 00000KT 10SM OVC034 15/13 A3014 RMK AO2
                        SLP204 T01500133=
201202210853 METAR KTMB 210853Z 00000KT 10SM CLR 14/13 A3014 RMK AO2 SLP205
                        T01440128 56007=
201202210753 METAR KTMB 210753Z 02005KT 10SM FEW037 16/14 A3015=
201202210653 METAR KTMB 210653Z 01004KT 10SM CLR 16/13 A3015 RMK AO2 SLP210
                        T01610133=
201202210553 METAR KTMB 210553Z 02004KT 10SM CLR 17/13 A3016 RMK AO2 SLP212
                        T01670133 10206 20167 51001=
201202210453 METAR KTMB 210453Z 02007KT 10SM CLR 17/14 A3016 RMK AO2 SLP212
                        T01720139 402560167=
201202210353 METAR KTMB 210353Z 02007KT 10SM BKN038 18/14 A3016 RMK AO2
                        SLP213 T01830139=
201202210253 METAR KTMB 210253Z 01007KT 10SM BKN036 19/14 A3016=
201202210153 METAR KTMB 210153Z 04003KT 10SM CLR 19/14 A3015 RMK AO2 SLP208
                        T01890139=
201202210053 METAR KTMB 210053Z 05006KT 10SM CLR 19/14 A3013 RMK AO2 SLP203
                        T01940139=
201202202353 METAR KTMB 202353Z 06009KT 10SM CLR 21/13 A3011 RMK AO2 SLP197
                        T02060128 10256 20200 53017=
201202202253 METAR KTMB 202253Z 07013KT 10SM CLR 22/13 A3010 RMK AO2 SLP191
                        T02170128=
201202202153 METAR KTMB 202153Z AUTO 08011KT 10SM CLR 23/13 A3008 RMK
                        AO2 SLP185 T02330133 TSNO=
201202202053 METAR KTMB 202053Z AUTO 09009KT 10SM CLR 24/14 A3006 RMK
                        AO2 SLP180 T02390139 55008 TSNO=
201202201953 METAR KTMB 201953Z 34007KT 10SM CLR 25/12 A3006 RMK AO2 SLP178
                        T02500117=
201202201853 METAR KTMB 201853Z 03006KT 10SM CLR 23/12 A3007 RMK AO2 SLP182
                        T02330117=
201202201753 METAR KTMB 201753Z VRB06KT 10SM CLR 22/13 A3009 RMK AO2 SLP188
                        T02220128 10233 20167 58004=
201202201653 METAR KTMB 201653Z 35008KT 10SM CLR 22/13 A3009 RMK AO2 SLP190
                        T02220133=
201202201553 METAR KTMB 201553Z 02006KT 10SM CLR 21/13 A3011 RMK AO2 SLP195
                        T02060128=
201202201453 METAR KTMB 201453Z 34011G14KT 10SM FEW021 20/13 A3010=
201202201353 METAR KTMB 201353Z 33009KT 10SM FEW021 19/13 A3008 RMK AO2
                        SLP185 T01890133=
201202201253 METAR KTMB 201253Z 34008KT 10SM SCT021 17/13 A3005=
201202201153 METAR KTMB 201153Z 34007KT 10SM CLR 17/14 A3003 RMK AO2 SLP168
                        T01670144 10206 20167 53019=
201202201053 METAR KTMB 201053Z AUTO 34011KT 10SM SCT020 18/16 A3000 RMK
                        AO2 SLP158 T01780156=
201202200953 METAR KTMB 200953Z AUTO 34008KT 10SM FEW018 18/16 A2998 RMK
                        AO2 SLP151 T01780161=
201202200907 SPECI KTMB 200907Z AUTO 32008KT 10SM SCT018 18/17 A2997 RMK
                        AO2=
201202200853 METAR KTMB 200853Z AUTO 31007KT 9SM BKN018 18/17 A2997 RMK
                        AO2 SLP149 T01830172 51003=
201202200753 METAR KTMB 200753Z AUTO 31005KT 10SM OVC016 19/18 A2997=
201202200728 SPECI KTMB 200728Z AUTO 31005KT 10SM BKN014 19/18 A2997 RMK
                        AO2=
201202200720 SPECI KTMB 200720Z AUTO 31006KT 10SM BKN016 19/18 A2997 RMK
                        AO2=
201202200653 METAR KTMB 200653Z AUTO 31008KT 10SM CLR 19/18 A2997 RMK
                        AO2 SLP147 T01940178=
201202200553 METAR KTMB 200553Z AUTO 30008KT 10SM CLR 21/18 A2996 RMK
                        AO2 SLP146 T02060183 10239 20206
                        51008=
201202200453 METAR KTMB 200453Z AUTO 29009KT 10SM CLR 22/20 A2995 RMK
                        AO2 SLP143 T02170200 403060189=
201202200400 SPECI KTMB 200400Z AUTO 28010KT 10SM FEW012 SCT023 22/22
                        A2996 RMK AO2=
201202200353 METAR KTMB 200353Z AUTO 27008KT 10SM SCT014 SCT020 BKN025
                        22/22 A2995 RMK AO2 SLP141 T02220217=
201202200329 SPECI KTMB 200329Z 25009KT 10SM SCT014 BKN020 BKN024 23/22
                        A2995 RMK AO2=
201202200253 METAR KTMB 200253Z AUTO 24007KT 10SM CLR 23/22 A2994 RMK
                        AO2 SLP138 T02330217 51007 TSNO=
201202200153 METAR KTMB 200153Z 24007KT 10SM CLR 23/21 A2994 RMK AO2 SLP136
                        T02330211=
201202200053 METAR KTMB 200053Z 24006KT 9SM CLR 24/21 A2993 RMK AO2 SLP133
                        T02390211=
201202192353 METAR KTMB 192353Z 25011KT 10SM BKN032 25/21 A2992 RMK AO2
                        SLP130 T02500206 10306 20250 53006=
201202192253 METAR KTMB 192253Z 25015G20KT 10SM BKN032 BKN041 BKN050 26/21
                        A2991 RMK AO2 SLP127 T02610206=
201202192153 METAR KTMB 192153Z 25014G20KT 10SM SCT032 BKN041 BKN050 27/21
                        A2990 RMK AO2 SLP123 T02720206=
201202192053 METAR KTMB 192053Z 25016KT 10SM FEW036 SCT055 29/20 A2990
                        RMK AO2 SLP124 T02890200 56011=
201202191953 METAR KTMB 191953Z 26017G23KT 10SM SCT039 SCT046 BKN060 28/19
                        A2990=
201202191853 METAR KTMB 191853Z 26018G23KT 10SM SCT047 31/19 A2991 RMK
                        AO2 SLP127 T03060189=
201202191753 METAR KTMB 191753Z 25015G25KT 10SM FEW042 SCT049 SCT060 29/19
                        A2993 RMK AO2 SLP135 T02940189 10300
                        20189 58017=
201202191653 METAR KTMB 191653Z 24015G20KT 10SM BKN038 BKN050 29/19 A2996
                        RMK AO2 SLP144 T02890194=
201202191553 METAR KTMB 191553Z 24010KT 10SM SCT027 BKN037 28/20 A2998
                        RMK AO2 SLP152 T02780200=
201202191453 METAR KTMB 191453Z 20009KT 10SM CLR 26/21 A2998 RMK AO2 SLP153
                        T02560206 50008=
201202191353 METAR KTMB 191353Z 22009KT 10SM FEW011 SCT025 23/22 A2999
                        RMK AO2 SLP156 T02330222=
201202191327 SPECI KTMB 191327Z 22007KT 10SM FEW011 SCT028 23/22 A2999
                        RMK AO2=
201202191307 SPECI KTMB 191307Z 22005KT 10SM FEW011 OVC028 22/21 A2998
                        RMK AO2=
201202191253 METAR KTMB 191253Z 22003KT 10SM SCT016 BKN035 21/21 A2998
                        RMK AO2 SLP151 T02110206=
201202191153 METAR KTMB 191153Z 00000KT 7SM FEW014 20/19 A2996 RMK AO2
                        SLP144 T02000194 10211 20200 53010=
201202191053 METAR KTMB 191053Z AUTO 00000KT 10SM CLR 21/20 A2993=
201202191012 SPECI KTMB 191012Z AUTO 16003KT 10SM FEW017 21/20 A2992 RMK
                        AO2=
201202191001 SPECI KTMB 191001Z AUTO 17004KT 10SM BKN019 21/20 A2992 RMK
                        AO2=
201202190953 METAR KTMB 190953Z AUTO 15004KT 10SM SCT021 21/20 A2992 RMK
                        AO2 SLP132 T02110200=
201202190853 METAR KTMB 190853Z AUTO 16004KT 10SM BKN040 21/20 A2993 RMK
                        AO2 SLP134 T02110200 56010=
201202190753 METAR KTMB 190753Z AUTO 16003KT 10SM SCT021 21/19 A2994 RMK
                        AO2 SLP137 T02110194=
201202190653 METAR KTMB 190653Z AUTO 17005KT 10SM FEW023 SCT046 21/19
                        A2995 RMK AO2 SLP139 T02110194=
201202190617 SPECI KTMB 190617Z AUTO 00000KT 10SM SCT021 OVC046 21/19
                        A2996 RMK AO2=
201202190602 SPECI KTMB 190602Z AUTO 18003KT 10SM BKN021 21/19 A2996 RMK
                        AO2=
201202190553 METAR KTMB 190553Z AUTO 17003KT 10SM SCT021 21/19 A2996 RMK
                        AO2 SLP145 T02110194 10233 20211
                        58001=
201202190453 METAR KTMB 190453Z AUTO 16003KT 10SM CLR 21/19 A2996 RMK
                        AO2 SLP146 T02110194 402780167=
201202190353 METAR KTMB 190353Z AUTO 15003KT 10SM CLR 22/19 A2997 RMK
                        AO2 SLP147 T02170194=
201202190253 METAR KTMB 190253Z 14003KT 10SM CLR 21/19 A2996 RMK AO2 SLP146
                        T02110189 50007=
201202190153 METAR KTMB 190153Z 14003KT 10SM SCT023 22/19 A2997 RMK AO2
                        SLP148 T02220189=
201202190136 SPECI KTMB 190136Z 00000KT 10SM BKN023 22/19 A2997 RMK AO2=
201202190053 METAR KTMB 190053Z 14003KT 10SM CLR 22/18 A2996 RMK AO2 SLP143
                        T02220183=
201202182353 METAR KTMB 182353Z 15004KT 10SM CLR 23/18 A2994 RMK AO2 SLP138
                        T02330178 10278 20228 51008=
201202182253 METAR KTMB 182253Z 15008KT 10SM CLR 24/18 A2993 RMK AO2 SLP135
                        T02440178=
201202182153 METAR KTMB 182153Z 15006KT 10SM CLR 26/18 A2993 RMK AO2 SLP135
                        T02560183=
201202182053 METAR KTMB 182053Z 16010KT 10SM CLR 26/18 A2992 RMK AO2 SLP130
                        T02610183 56021=
201202181953 METAR KTMB 181953Z 17009KT 10SM FEW031 27/19 A2993 RMK AO2
                        SLP133 T02670189=
201202181853 METAR KTMB 181853Z 15008KT 120V180 10SM FEW033 27/19 A2995
                        RMK AO2 SLP140 T02720189=
201202181753 METAR KTMB 181753Z 14008KT 10SM FEW035 SCT042 27/19 A2998
                        RMK AO2 SLP151 T02670189 10272 20172
                        58023=
201202181653 METAR KTMB 181653Z 12007KT 10SM BKN034 26/18 A3001 RMK AO2
                        SLP162 T02560178=
201202181553 METAR KTMB 181553Z 14006KT 10SM FEW028 26/18 A3003 RMK AO2
                        SLP169 T02560178=
201202181453 METAR KTMB 181453Z 00000KT 10SM SCT021 24/18 A3005 RMK AO2
                        SLP174 T02440183 51014=
201202181353 METAR KTMB 181353Z 00000KT 10SM CLR 23/19 A3004 RMK AO2 SLP171
                        T02280194=
201202181253 METAR KTMB 181253Z 00000KT 10SM CLR 19/19 A3003 RMK AO2 SLP168
                        T01940189=
201202181153 METAR KTMB 181153Z 00000KT 9SM CLR 17/17 A3001 RMK AO2 SLP160
                        T01720172 10183 20167 53003=
201202181112 SPECI KTMB 181112Z AUTO 00000KT 10SM CLR 18/17 A3000 RMK
                        AO2=
201202181103 SPECI KTMB 181103Z AUTO 00000KT 2 1/2SM BR CLR 18/17 A3000
                        RMK AO2=
201202181053 METAR KTMB 181053Z AUTO 00000KT 10SM CLR 17/17 A3000 RMK
                        AO2 SLP159 T01720167=
201202180953 METAR KTMB 180953Z 00000KT 10SM CLR 18/18 A2999 RMK AO2 SLP155
                        T01780178=
201202180946 SPECI KTMB 180946Z 00000KT 4SM BR CLR 18/18 A2999 RMK AO2=
201202180934 SPECI KTMB 180934Z 00000KT 1 3/4SM BR CLR 18/17 A2999 RMK
                        AO2=
201202180853 METAR KTMB 180853Z 00000KT 10SM CLR 18/17 A3000 RMK AO2 SLP157
                        T01780172 58007=
201202180753 METAR KTMB 180753Z 00000KT 10SM CLR 17/17 A3001 RMK AO2 SLP161
                        T01670167=
201202180653 METAR KTMB 180653Z 31003KT 9SM CLR 17/17 A3002 RMK AO2 SLP166
                        T01720167=
201202180553 METAR KTMB 180553Z 00000KT 10SM CLR 18/17 A3002 RMK AO2 SLP164
                        T01830172 10233 20178 58009=
201202180453 METAR KTMB 180453Z 00000KT 10SM CLR 19/18 A3002 RMK AO2 SLP166
                        T01940183 402780161=
201202180353 METAR KTMB 180353Z 00000KT 10SM CLR 18/17 A3005 RMK AO2 SLP176
                        T01830172=
201202180253 METAR KTMB 180253Z 00000KT 10SM CLR 20/17 A3005 RMK AO2 SLP173
                        T02000172 50003=
201202180153 METAR KTMB 180153Z 00000KT 10SM CLR 22/18 A3005 RMK AO2 SLP176
                        T02170178=
201202180053 METAR KTMB 180053Z 16004KT 10SM FEW055 22/18 A3004 RMK AO2
                        SLP172 T02220178=
201202172353 METAR KTMB 172353Z 15005KT 10SM FEW050 23/18 A3004 RMK AO2
                        SLP170 T02330178 10278 20233 53005=
201202172253 METAR KTMB 172253Z 13007KT 10SM FEW055 24/18 A3002 RMK AO2
                        SLP166 T02440178=
201202172153 METAR KTMB 172153Z 16008KT 10SM FEW055 26/17 A3002 RMK AO2
                        SLP165 T02560167=
201202172053 METAR KTMB 172053Z 16007KT 10SM FEW030 26/16 A3002 RMK AO2
                        SLP165 T02610161 55012=
201202171953 METAR KTMB 171953Z 16008KT 10SM CLR 27/17 A3001 RMK AO2 SLP163
                        T02670167=
201202171853 METAR KTMB 171853Z 13009KT 10SM FEW038 28/17 A3002 RMK AO2
                        SLP166 T02780172=
201202171753 METAR KTMB 171753Z 16008KT 10SM SCT034 BKN048 BKN060 27/18
                        A3006 RMK AO2 SLP177 T02670178 10272
                        20178 58019=
201202171653 METAR KTMB 171653Z VRB03KT 10SM SCT034 BKN050 25/17 A3008
                        RMK AO2 SLP184 T02500172=
201202171553 METAR KTMB 171553Z 15005KT 10SM FEW031 SCT035 SCT047 26/18
                        A3010 RMK AO2 SLP192 T02560178=
201202171453 METAR KTMB 171453Z 19006KT 10SM FEW021 24/19 A3011 RMK AO2
                        SLP196 T02390189 53008=
201202171353 METAR KTMB 171353Z 00000KT 10SM CLR 23/19 A3010 RMK AO2 SLP192
                        T02280194=
201202171253 METAR KTMB 171253Z 00000KT 10SM CLR 19/19 A3009 RMK AO2 SLP189
                        T01940189=
201202171153 METAR KTMB 171153Z 00000KT 10SM CLR 18/18 A3009 RMK AO2 SLP188
                        T01780178 10189 20161 53012=
201202171053 METAR KTMB 171053Z 00000KT 10SM CLR 17/16 A3006 RMK AO2 SLP179
                        T01670161=
201202171051 SPECI KTMB 171051Z 00000KT 10SM CLR 17/16 A3006 RMK AO2=
201202171030 SPECI KTMB 171030Z 00000KT 2 1/2SM BR CLR 18/18 A3005 RMK
                        AO2=
201202171011 SPECI KTMB 171011Z 00000KT 1SM BR CLR 18/18 A3005 RMK AO2=
201202170953 METAR KTMB 170953Z 00000KT 2 1/2SM BR CLR 17/17 A3005 RMK
                        AO2 SLP176 T01720172=
201202170853 METAR KTMB 170853Z 00000KT 10SM CLR 18/18 A3006 RMK AO2 SLP178
                        T01780178 56008=
201202170753 METAR KTMB 170753Z 00000KT 10SM CLR 18/18 A3006 RMK AO2 SLP179
                        T01830178=
201202170653 METAR KTMB 170653Z 00000KT 10SM CLR 19/18 A3007 RMK AO2 SLP182
                        T01890178=
201202170553 METAR KTMB 170553Z 00000KT 10SM CLR 18/18 A3008 RMK AO2 SLP186
                        T01830178 10222 20172 58012=
201202170453 METAR KTMB 170453Z 00000KT 10SM CLR 18/17 A3010 RMK AO2 SLP192
                        T01780172 402670172=
201202170353 METAR KTMB 170353Z 00000KT 10SM CLR 20/18 A3011 RMK AO2 SLP195
                        T02000183=
201202170253 METAR KTMB 170253Z 00000KT 10SM CLR 21/18 A3012 RMK AO2 SLP198
                        T02110183 50004=
201202170153 METAR KTMB 170153Z 12003KT 10SM CLR 22/19 A3012 RMK AO2 SLP198
                        T02170189=
201202170053 METAR KTMB 170053Z 13004KT 10SM CLR 22/18 A3012 RMK AO2 SLP198
                        T02170183=
201202162353 METAR KTMB 162353Z 12005KT 10SM CLR 22/18 A3011 RMK AO2 SLP194
                        T02220183 10267 20222 55000=
201202162253 METAR KTMB 162253Z 15006KT 10SM CLR 23/18 A3010 RMK AO2 SLP193
                        T02330183=
201202162153 METAR KTMB 162153Z 15006KT 10SM FEW027 24/18 A3010 RMK AO2
                        SLP193 T02440183=
201202162053 METAR KTMB 162053Z 14009KT 10SM SCT028 SCT033 BKN048 24/18
                        A3011 RMK AO2 SLP194 T02440178 56016=
201202161953 METAR KTMB 161953Z 14011KT 10SM SCT030 26/18 A3011 RMK AO2
                        SLP196 T02610183=
201202161853 METAR KTMB 161853Z 14009KT 10SM FEW032 26/18 A3013 RMK AO2
                        SLP204 T02610183=
201202161753 METAR KTMB 161753Z 13010KT 10SM FEW031 26/18 A3015 RMK AO2
                        SLP210 T02610178 10267 20172 58017=
201202161653 METAR KTMB 161653Z 13011G18KT 10SM SCT033 26/18 A3018 RMK
                        AO2 SLP220 T02610178=
201202161553 METAR KTMB 161553Z 13010KT 10SM SCT028 BKN035 BKN042 24/18
                        A3020 RMK AO2 SLP227 T02440178=
201202161453 METAR KTMB 161453Z 13010KT 10SM SCT030 24/18 A3020 RMK AO2
                        SLP227 T02440178 51009=
201202161353 METAR KTMB 161353Z 11007KT 10SM CLR 24/18 A3020 RMK AO2 SLP227
                        T02390183=
201202161253 METAR KTMB 161253Z 10003KT 10SM CLR 20/18 A3019 RMK AO2 SLP223
                        T02000183=
201202161153 METAR KTMB 161153Z 00000KT 10SM CLR 18/17 A3018 RMK AO2 SLP218
                        T01830172 10211 20183 53008=
201202161053 METAR KTMB 161053Z AUTO 12004KT 10SM CLR 19/17 A3017 RMK
                        AO2 SLP215 T01890172=
201202160953 METAR KTMB 160953Z AUTO 12003KT 10SM CLR 20/18 A3016 RMK
                        AO2 SLP211 T02000178=
201202160853 METAR KTMB 160853Z AUTO 12004KT 10SM CLR 20/18 A3015 RMK
                        AO2 SLP210 T02000178 56010=
201202160753 METAR KTMB 160753Z 13006KT 10SM CLR 21/18 A3015 RMK AO2 SLP210
                        T02060178=
201202160653 METAR KTMB 160653Z 12006KT 10SM CLR 21/19 A3017 RMK AO2 SLP214
                        T02110189=
201202160553 METAR KTMB 160553Z 10005KT 10SM FEW023 21/19 A3018 RMK AO2
                        SLP220 T02060189 10206 20172 55002=
201202160453 METAR KTMB 160453Z 09005KT 10SM CLR 19/17 A3017 RMK AO2 SLP217
                        T01890172 402610133=
201202160353 METAR KTMB 160353Z 09004KT 10SM CLR 18/17 A3018 RMK AO2 SLP220
                        T01780167=
201202160253 METAR KTMB 160253Z 09003KT 10SM CLR 19/17 A3019 RMK AO2 SLP222
                        T01890172 51004=
201202160153 METAR KTMB 160153Z 00000KT 10SM CLR 19/16 A3019 RMK AO2 SLP222
                        T01890161=
201202160053 METAR KTMB 160053Z 09003KT 10SM CLR 20/16 A3018 RMK AO2 SLP219
                        T02000161=
201202152353 METAR KTMB 152353Z 09004KT 10SM CLR 20/16 A3018 RMK AO2 SLP217
                        60000 T02000156 10261 20194 53013=
201202152253 METAR KTMB 152253Z 11006KT 10SM CLR 22/16 A3016 RMK AO2 SLP213
                        T02220156=
201202152153 METAR KTMB 152153Z 10009KT 10SM CLR 24/16 A3015 RMK AO2 SLP207
                        T02390161=
201202152053 METAR KTMB 152053Z 12011KT 10SM CLR 24/16 A3014 RMK AO2 SLP205
                        60000 T02440161 56016=
201202151953 METAR KTMB 151953Z 12008KT 10SM SCT037 25/16 A3015 RMK AO2
                        RAE1858 SLP207 P0000 T02500161=
201202151853 METAR KTMB 151853Z 13009KT 10SM -RA FEW040 26/15 A3016 RMK
                        AO2 RAB52 SLP213 P0000 T02560150=
201202151753 METAR KTMB 151753Z 10007KT 10SM CLR 24/15 A3019 RMK AO2 SLP221
                        T02440150 10256 20133 58006=
201202151653 METAR KTMB 151653Z 08010KT 10SM BKN038 26/16 A3020 RMK AO2
                        SLP227 T02560161=
201202151553 METAR KTMB 151553Z 10010G14KT 10SM SCT036 25/16 A3021=
201202151453 METAR KTMB 151453Z 10009KT 10SM SCT030 24/17 A3020 RMK AO2
                        SLP227 T02440167 51013=
201202151353 METAR KTMB 151353Z 12005KT 10SM CLR 22/18 A3020 RMK AO2 SLP225
                        T02170178=
201202151253 METAR KTMB 151253Z 00000KT 10SM CLR 16/16 A3018 RMK AO2 SLP221
                        T01610161=
201202151153 METAR KTMB 151153Z COR 00000KT 4SM BR FEW029 13/13 A3016
                        RMK AO2 SLP214 T01330133 10178 20133
                        53014=
201202151053 METAR KTMB 151053Z AUTO 00000KT 10SM CLR 14/14 A3014 RMK
                        AO2 SLP204 T01440144=
201202151013 SPECI KTMB 151013Z AUTO 00000KT 3SM BR CLR 15/15 A3012 RMK
                        AO2=
201202151006 SPECI KTMB 151006Z AUTO 00000KT 1 3/4SM BR CLR 14/14 A3012
                        RMK AO2 VIS 1V4=
201202150953 METAR KTMB 150953Z AUTO 00000KT 7SM CLR 14/14 A3012 RMK AO2
                        SLP200 T01440139=
201202150853 METAR KTMB 150853Z AUTO 00000KT 10SM CLR 15/15 A3013 RMK
                        AO2 SLP200 T01500150 56007=
201202150753 METAR KTMB 150753Z AUTO 11003KT 9SM CLR 16/16 A3013 RMK AO2
                        SLP201 T01610156=
201202150653 METAR KTMB 150653Z AUTO 00000KT 10SM CLR 16/16 A3014 RMK
                        AO2 SLP206 T01610156=
201202150553 METAR KTMB 150553Z AUTO 11003KT 10SM CLR 17/16 A3015 RMK
                        AO2 SLP207 T01670161 10200 20156
                        58007=
201202150453 METAR KTMB 150453Z AUTO 11003KT 10SM CLR 17/16 A3015 RMK
                        AO2 SLP210 T01720156 402500122=
201202150353 METAR KTMB 150353Z 00000KT 10SM CLR 17/15 A3016 RMK AO2 SLP213
                        T01670150=
201202150253 METAR KTMB 150253Z 10003KT 10SM CLR 18/16 A3017 RMK AO2 SLP214
                        T01780156 53015=
201202150153 METAR KTMB 150153Z 12004KT 10SM CLR 19/16 A3015 RMK AO2 SLP208
                        T01890156=
201202150053 METAR KTMB 150053Z 12003KT 10SM CLR 19/15 A3014 RMK AO2 SLP204
                        T01940150=
201202142353 METAR KTMB 142353Z 11003KT 10SM CLR 20/14 A3012 RMK AO2 SLP200
                        T02000144 10250 20194 53012=
201202142253 METAR KTMB 142253Z 13008KT 10SM CLR 22/14 A3011 RMK AO2 SLP195
                        T02170144=
201202142153 METAR KTMB 142153Z 12009KT 10SM FEW038 23/14 A3010=
201202142053 METAR KTMB 142053Z 12010KT 10SM FEW037 BKN048 24/15 A3009
                        RMK AO2 SLP187 T02390150 56015=
201202141953 METAR KTMB 141953Z 13007KT 090V170 10SM SCT039 OVC050 23/14
                        A3009=
201202141853 METAR KTMB 141853Z 11012KT 10SM FEW040 23/14 A3010 RMK AO2
                        SLP193 T02330144=
201202141753 METAR KTMB 141753Z 12011G21KT 10SM BKN042 BKN050 24/14 A3013
                        RMK AO2 SLP202 T02440144 10244 20122
                        58007=
201202141653 METAR KTMB 141653Z 15006KT 10SM BKN042 OVC049 24/14 A3014
                        RMK AO2 SLP206 T02390139=
201202141553 METAR KTMB 141553Z 12008G18KT 10SM BKN041 23/13 A3015 RMK
                        AO2 SLP209 T02280133=
201202141453 METAR KTMB 141453Z 13011KT 10SM FEW039 23/14 A3015 RMK AO2
                        SLP209 T02280139 52011=
201202141353 METAR KTMB 141353Z 12005KT 10SM CLR 21/14 A3014 RMK AO2 SLP205
                        T02060139=
201202141253 METAR KTMB 141253Z 00000KT 10SM CLR 15/13 A3013 RMK AO2 SLP202
                        T01500133=
201202141153 METAR KTMB 141153Z 00000KT 10SM CLR 12/12 A3012 RMK AO2 SLP198
                        T01220117 10144 20122 53008=
201202141053 METAR KTMB 141053Z 00000KT 10SM CLR 13/12 A3010 RMK AO2 SLP192
                        T01280117=
201202140953 METAR KTMB 140953Z 00000KT 10SM CLR 13/12 A3009 RMK AO2 SLP188
                        T01280117=
201202140853 METAR KTMB 140853Z 00000KT 10SM CLR 13/12 A3009 RMK AO2 SLP190
                        T01330117 56014=
201202140753 METAR KTMB 140753Z 00000KT 10SM CLR 13/12 A3011 RMK AO2 SLP194
                        T01280117=
201202140653 METAR KTMB 140653Z 00000KT 10SM CLR 14/12 A3011 RMK AO2 SLP197
                        T01390117=
201202140553 METAR KTMB 140553Z 00000KT 10SM CLR 14/11 A3013 RMK AO2 SLP203
                        T01440111 10167 20133 58008=
201202140453 METAR KTMB 140453Z 00000KT 10SM CLR 14/11 A3014 RMK AO2 SLP206
                        T01440106 402170078=
201202140353 METAR KTMB 140353Z 00000KT 10SM CLR 15/10 A3015 RMK AO2 SLP210
                        T01500100=
201202140253 METAR KTMB 140253Z 09003KT 10SM CLR 15/10 A3016=
201202140153 METAR KTMB 140153Z 10003KT 10SM CLR 17/10 A3015 RMK AO2 SLP210
                        T01670100=
201202140053 METAR KTMB 140053Z 09005KT 10SM CLR 16/10 A3015 RMK AO2 SLP209
                        T01610100=
201202132353 METAR KTMB 132353Z 10006KT 10SM CLR 17/10 A3014 RMK AO2 SLP207
                        T01670100 10217 20167 53003=
201202132253 METAR KTMB 132253Z 09009KT 10SM CLR 18/09 A3014 RMK AO2 SLP207
                        T01830094=
201202132153 METAR KTMB 132153Z 11009KT 10SM BKN055 19/09 A3013 RMK AO2
                        SLP203 T01890089=
201202132053 METAR KTMB 132053Z 11010KT 10SM SCT050 21/09 A3014 RMK AO2
                        SLP204 T02110089 56016=
201202131953 METAR KTMB 131953Z 10011KT 10SM SCT030 21/09 A3014 RMK AO2
                        SLP206 T02110089=
201202131853 METAR KTMB 131853Z 10011KT 10SM SCT050 21/08 A3014 RMK AO2
                        SLP207 T02060078=
201202131753 METAR KTMB 131753Z 10011G18KT 10SM FEW049 19/08 A3018 RMK
                        AO2 SLP220 T01940083 10217 20078
                        56019=
201202131653 METAR KTMB 131653Z 10013G21KT 10SM FEW047 20/08 A3019 RMK
                        AO2 SLP221 T02000083=
201202131553 METAR KTMB 131553Z 09010G16KT 10SM CLR 19/09 A3022 RMK AO2
                        SLP232 T01940094=
201202131453 METAR KTMB 131453Z 36006KT 10SM CLR 16/10 A3024 RMK AO2 SLP238
                        T01610100 53012=
201202131353 METAR KTMB 131353Z 36005KT 10SM CLR 13/08 A3022 RMK AO2 SLP233
                        T01280083=
201202131253 METAR KTMB 131253Z 01005KT 10SM CLR 10/07 A3020 RMK AO2 SLP226
                        T01000072=
201202131153 METAR KTMB 131153Z 35006KT 10SM CLR 08/06 A3020 RMK AO2 SLP227
                        T00780056 10089 20078 53004=
201202131053 METAR KTMB 131053Z AUTO 01006KT 10SM CLR 08/06 A3018=
201202130953 METAR KTMB 130953Z AUTO 36009KT 10SM CLR 08/05 A3019 RMK
                        AO2 SLP221 T00830050=
201202130853 METAR KTMB 130853Z AUTO 35007KT 10SM CLR 08/05 A3019=
201202130753 METAR KTMB 130753Z AUTO 36009KT 10SM CLR 08/05 A3019 RMK
                        AO2 SLP222 T00830050=
201202130653 METAR KTMB 130653Z AUTO 36009KT 10SM CLR 09/05 A3021 RMK
                        AO2 SLP229 T00890050=
201202130553 METAR KTMB 130553Z AUTO 36009KT 10SM CLR 09/05 A3022 RMK
                        AO2 SLP232 T00890050 10122 20089
                        58008=
201202130453 METAR KTMB 130453Z AUTO 35010KT 10SM CLR 09/05 A3024 RMK
                        AO2 SLP239 T00890050 401560083=
201202130353 METAR KTMB 130353Z AUTO 36007KT 10SM CLR 09/05 A3024 RMK
                        AO2 SLP239 T00940050=
201202130253 METAR KTMB 130253Z 35010KT 10SM CLR 11/05 A3024 RMK AO2 SLP240
                        T01060050 53006=
201202130153 METAR KTMB 130153Z 35010KT 10SM CLR 11/04 A3023 RMK AO2 SLP236
                        T01110044=
201202130053 METAR KTMB 130053Z 36009KT 10SM CLR 12/04 A3023 RMK AO2 SLP235
                        T01170039=
201202122353 METAR KTMB 122353Z 35008KT 10SM CLR 12/03 A3023 RMK AO2 SLP235
                        T01220033 10156 20117 53013=
201202122253 METAR KTMB 122253Z 01010KT 10SM CLR 14/03 A3020 RMK AO2 SLP227
                        T01390028=
201202122153 METAR KTMB 122153Z 36012KT 10SM CLR 15/02 A3020 RMK AO2 SLP225
                        T01500017=
201202122053 METAR KTMB 122053Z 01010KT 10SM CLR 15/01 A3019 RMK AO2 SLP222
                        T01500011 56015=
201202121953 METAR KTMB 121953Z 02012KT 10SM CLR 15/02 A3019 RMK AO2 SLP222
                        T01500017=
201202121853 METAR KTMB 121853Z 01013G20KT 10SM CLR 14/03 A3020 RMK AO2
                        SLP225 T01390028=
201202121753 METAR KTMB 121753Z 36012KT 10SM CLR 14/03 A3023 RMK AO2 SLP236
                        T01390028 10139 20083 58006=
201202121653 METAR KTMB 121653Z 01011G18KT 10SM CLR 13/03 A3026 RMK AO2
                        SLP245 T01330028=
201202121553 METAR KTMB 121553Z 36014KT 10SM CLR 12/02 A3028 RMK AO2 SLP252
                        T01220022=
201202121453 METAR KTMB 121453Z 35014G20KT 10SM CLR 10/02 A3025 RMK AO2
                        SLP242 T01000017 51025=
201202121353 METAR KTMB 121353Z 36013G21KT 10SM CLR 10/01 A3023 RMK AO2
                        PK WND 36028/1310 SLP235 T01000006=
201202121253 METAR KTMB 121253Z 36013G19KT 10SM CLR 09/M03 A3020 RMK AO2
                        PK WND 36027/1154 SLP225 T00891028=
201202121153 METAR KTMB 121153Z 01017G22KT 10SM CLR 09/M01 A3017 RMK AO2
                        PK WND 36026/1140 SLP217 7//// T00891006
                        10122 20089 53023=
201202121053 METAR KTMB 121053Z AUTO 35013G21KT 10SM CLR 11/04 A3014 RMK
                        AO2 SLP207 T01060044=
201202120953 METAR KTMB 120953Z AUTO 35018G24KT 10SM CLR 11/04 A3013 RMK
                        AO2 SLP202 T01110039=
201202120853 METAR KTMB 120853Z AUTO 35012KT 10SM CLR 11/05 A3011 RMK
                        AO2 SLP194 T01110050 51001=
201202120753 METAR KTMB 120753Z AUTO 34014G20KT 10SM CLR 12/06 A3010 RMK
                        AO2 PK WND 34026/0704 SLP193 T01170061=
201202120653 METAR KTMB 120653Z AUTO 34015G24KT 10SM CLR 12/06 A3011 RMK
                        AO2 PK WND 33027/0642 SLP196 T01220056=
201202120553 METAR KTMB 120553Z AUTO 33018G25KT 10SM CLR 12/06 A3010 RMK
                        AO2 PK WND 33027/0525 SLP193 T01220061
                        10183 20122 51015=
201202120453 METAR KTMB 120453Z AUTO 33018G23KT 10SM CLR 13/08 A3010 RMK
                        AO2 SLP192 T01330078 402280133=
201202120353 METAR KTMB 120353Z 32018G22KT 10SM CLR 14/09 A3009 RMK AO2
                        PK WND 32026/0339 SLP189 T01440089=
201202120253 METAR KTMB 120253Z 33013KT 10SM FEW030 16/10 A3006 RMK AO2
                        SLP178 T01560100 51030=
201202120153 METAR KTMB 120153Z 29012KT 10SM SCT037 16/13 A3003 RMK AO2
                        SLP170 T01610128=
201202120053 METAR KTMB 120053Z 30012KT 10SM CLR 18/13 A3001 RMK AO2 SLP161
                        T01780128=
201202112353 METAR KTMB 112353Z 33008KT 10SM FEW047 18/13 A2997 RMK AO2
                        SLP148 T01830128 10228 20183 53013=
201202112253 METAR KTMB 112253Z 31006KT 10SM CLR 19/13 A2995 RMK AO2 SLP143
                        T01940133=
201202112153 METAR KTMB 112153Z 31012KT 10SM CLR 21/13 A2994=
201202112053 METAR KTMB 112053Z 33013KT 10SM FEW035 BKN045 22/14 A2993=
201202111953 METAR KTMB 111953Z 32013KT 10SM SCT035 22/14 A2993 RMK AO2
                        SLP135 T02170144=
201202111930 SPECI KTMB 111930Z 34013KT 10SM FEW024 SCT029 SCT042 21/14
                        A2994 RMK AO2=
201202111900 SPECI KTMB 111900Z 34014KT 10SM BKN020 BKN025 OVC030 20/15
                        A2994 RMK AO2=
201202111853 METAR KTMB 111853Z 34016G24KT 10SM SCT027 OVC036 21/16 A2995
                        RMK AO2 SLP141 T02060156=
201202111753 METAR KTMB 111753Z 32013KT 10SM BKN036 22/17 A2996 RMK AO2
                        SLP144 6//// T02220167 10228 20189
                        58004=
201202111653 METAR KTMB 111653Z 32011G19KT 10SM FEW023 OVC035 22/17 A2997
                        RMK AO2 SLP148 T02170167=
201202111553 METAR KTMB 111553Z 32015G21KT 10SM FEW020 22/18 A2998 RMK
                        AO2 SLP150 T02220178 PNO $=
201202111453 METAR KTMB 111453Z 30013KT 10SM FEW120 21/18 A2997 RMK AO2
                        SLP148 6//// T02060178 53016 PNO
                        $=
201202111353 METAR KTMB 111353Z 26005KT 10SM CLR 20/20 A2995 RMK AO2 SLP140
                        T02000200 PNO $=
201202111253 METAR KTMB 111253Z 28004KT 10SM CLR 19/19 A2994 RMK AO2 SLP138
                        T01890189 PNO $=
201202111153 METAR KTMB 111153Z 19004KT 10SM SCT025 19/19 A2992 RMK AO2
                        SLP132 6//// 7//// T01890189 10211
                        20183 55006 PNO $=
201202111053 METAR KTMB 111053Z 26003KT 10SM CLR 19/19 A2991 RMK AO2 RAE01
                        SLP129 T01890189 PNO $=
201202111024 SPECI KTMB 111024Z 34005KT 10SM SCT008 SCT012 19/19 A2990
                        RMK AO2 RAE01 PNO $=
201202111000 SPECI KTMB 111000Z 33008KT 10SM -RA BKN008 BKN049 OVC100
                        20/20 A2992 RMK AO2 PNO $=
201202110953 METAR KTMB 110953Z 32006KT 10SM -RA SCT008 BKN049 OVC100
                        19/19 A2992 RMK AO2 TSB23E49 SLP132
                        T01940194 PNO $=
201202110949 SPECI KTMB 110949Z 32003KT 8SM -RA SCT008 BKN060 OVC085 19/19
                        A2992 RMK AO2 LTG DSNT SE TSB23E49
                        PNO $=
201202110929 SPECI KTMB 110929Z 31004KT 4SM VCTS RA BR SCT080 BKN090 OVC110
                        19/19 A2992 RMK AO2 LTG DSNT S AND
                        SW TSB23 PNO $=
201202110853 METAR KTMB 110853Z 32010KT 9SM -RA FEW011 BKN060 BKN075 20/20
                        A2994 RMK AO2 LTG DSNT E AND SE SLP138
                        6//// T02000200 51003 PNO $=
201202110848 SPECI KTMB 110848Z 32009KT 8SM -RA FEW009 SCT055 BKN070 20/20
                        A2993 RMK AO2 LTG DSNT E AND SE PNO
                        $=
201202110803 SPECI KTMB 110803Z 34009KT 10SM -RA FEW016 BKN031 OVC046
                        20/19 A2993 RMK AO2 LTG DSNT NE AND
                        SW P0000=
201202110753 METAR KTMB 110753Z 33008KT 10SM -RA FEW012 BKN025 OVC030
                        21/19 A2994 RMK AO2 LTG DSNT SW RAB14
                        SLP139 P0000 T02060194=
201202110739 SPECI KTMB 110739Z 32012KT 7SM -RA BKN013 OVC018 21/20 A2996
                        RMK AO2 LTG DSNT N AND NW RAB14 P0000=
201202110653 METAR KTMB 110653Z 32008KT 10SM BKN009 21/20 A2993 RMK AO2
                        LTG DSNT W CIG 006V011 SLP134 T02060200=
201202110636 SPECI KTMB 110636Z 32006KT 8SM SCT009 20/20 A2994 RMK AO2=
201202110553 METAR KTMB 110553Z 24005KT 10SM BKN055 21/20 A2994 RMK AO2
                        SLP139 T02060200 10233 20206 58002=
201202110529 SPECI KTMB 110529Z 25006KT 10SM FEW007 SCT065 21/20 A2994
                        RMK AO2=
201202110453 METAR KTMB 110453Z 27006KT 10SM BKN007 21/21 A2995 RMK AO2
                        SLP142 T02110206 402720206=
201202110441 SPECI KTMB 110441Z 27006KT 8SM BKN009 BKN024 21/21 A2996
                        RMK AO2=
201202110436 SPECI KTMB 110436Z 27006KT 8SM SCT009 SCT024 21/21 A2996
                        RMK AO2=
201202110353 METAR KTMB 110353Z 25005KT 10SM FEW060 22/21 A2996 RMK AO2
                        SLP146 T02170211=
201202110253 METAR KTMB 110253Z 21005KT 10SM CLR 22/22 A2995 RMK AO2 SLP141
                        T02170217 53003=
201202110153 METAR KTMB 110153Z 21005KT 10SM CLR 22/21 A2995 RMK AO2 SLP141
                        T02220211=
201202110053 METAR KTMB 110053Z 19004KT 10SM CLR 22/21 A2994 RMK AO2 SLP136
                        T02220211=
201202102353 METAR KTMB 102353Z 19006KT 10SM CLR 23/21 A2994 RMK AO2 SLP138
                        6//// T02330211 10267 20233 51002=
201202102253 METAR KTMB 102253Z 20006KT 10SM FEW029 SCT048 SCT055 25/21
                        A2994 RMK AO2 SLP138 T02500211=
201202102153 METAR KTMB 102153Z 18007KT 10SM FEW024 BKN031 26/22 A2994
                        RMK AO2 SLP136 T02560217 $=
201202102148 SPECI KTMB 102148Z 18008KT 10SM SCT026 BKN033 26/22 A2993
                        RMK AO2 $=
201202102132 SPECI KTMB 102132Z 19007KT 10SM BKN026 BKN038 OVC047 27/22
                        A2994 RMK AO2 $=
201202102053 METAR KTMB 102053Z 18010KT 5SM HZ FEW037 SCT045 BKN065 26/23
                        A2994 RMK AO2 RAE22 SLP138 6////
                        T02560228 56018 $=
201202102035 SPECI KTMB 102035Z 19008KT 5SM HZ SCT022 SCT030 BKN036 27/24
                        A2995 RMK AO2 RAE22 $=
201202102011 SPECI KTMB 102011Z 30009G16KT 5SM -RA BR OVC024 23/22 A2996
                        RMK AO2 $=
201202102009 SPECI KTMB 102009Z 31010G16KT 1 3/4SM RA BR BKN024 OVC038
                        23/22 A2996 RMK AO2 $=
201202102001 SPECI KTMB 102001Z 31015G19KT 2SM +RA BR SCT022 BKN027 OVC050
                        24/22 A2997 RMK AO2 VIS 1V5 $=
201202101953 METAR KTMB 101953Z 32009KT 3SM RA BR BKN023 BKN037 OVC050
                        24/22 A2996=
201202101926 SPECI KTMB 101926Z 32006KT 10SM -RA FEW013 BKN022 OVC048
                        24/22 A2996 RMK AO2 P0000=
201202101853 METAR KTMB 101853Z 15007KT 110V170 10SM -RA FEW019 SCT043
                        BKN065 26/22 A2997 RMK AO2 RAE15B45
                        SLP148 AIRCRAFT ACCIDENT P0007 T02610222=
201202101839 SPECI KTMB 101839Z 17007KT 10SM FEW021 BKN035 BKN075 26/22
                        A2998 RMK AO2 RAE15 AIRCRAFT ACCIDENT
                        P0007=
201202101811 SPECI KTMB 101811Z 16007KT 10SM -RA SCT021 BKN029 BKN035
                        26/22 A2998 RMK AO2 AIRCRAFT ACCIDENT
                        P0007=
201202101807 SPECI KTMB 101807Z 00000KT 4SM -RA SCT021 BKN027 BKN035 25/22
                        A2999 RMK AO2 P0007=
201202101758 SPECI KTMB 101758Z 00000KT 1 3/4SM +RA FEW023 BKN027 OVC060
                        25/22 A2999 RMK AO2 VIS 3/4V5 P0007=
201202101753 METAR KTMB 101753Z 16005KT 7SM -RA FEW023 BKN027 OVC060 26/21
                        A2999 RMK AO2 RAB51 SLP156 P0002
                        6//// T02610206 10272 20206 58023=
201202101743 SPECI KTMB 101743Z 18006KT 10SM BKN027 BKN060 27/21 A3000
                        RMK AO2=
201202101653 METAR KTMB 101653Z 18005KT 10SM FEW037 BKN049 27/21 A3003
                        RMK AO2 PK WND 16027/1637 SLP168
                        T02670211=
201202101629 SPECI KTMB 101629Z 20005KT 10SM SCT023 BKN030 BKN047 26/21
                        A3004 RMK AO2=
201202101553 METAR KTMB 101553Z VRB03KT 10SM BKN019 27/21 A3006 RMK AO2
                        SLP178 T02670211 PNO $=
201202101540 SPECI KTMB 101540Z AUTO VRB03KT 10SM BKN019 27/22 A3006 RMK
                        AO2 TSNO PNO=
201202101453 METAR KTMB 101453Z 00000KT 10SM CLR 24/22 A3006 RMK AO2 SLP179
                        6//// T02390217 51014 PNO=
201202101353 METAR KTMB 101353Z 00000KT 10SM FEW022 OVC046 22/21 A3006
                        RMK AO2 SLP179 T02220211 PNO=
201202101253 METAR KTMB 101253Z 00000KT 10SM FEW025 OVC044 21/21 A3005
                        RMK AO2 SLP175 T02110211 PNO=
201202101240 SPECI KTMB 101240Z 08004KT 10SM SCT025 BKN040 OVC049 21/21
                        A3004 RMK AO2 PNO=
201202101153 METAR KTMB 101153Z 10006KT 10SM FEW006 BKN027 OVC040 21/21
                        A3002 RMK AO2 SLP165 6//// 7////
                        T02060206 10211 20206 53001 PNO $=
201202101134 SPECI KTMB 101134Z 09005KT 10SM FEW006 OVC029 21/21 A3001
                        RMK AO2 PNO $=
201202101115 SPECI KTMB 101115Z AUTO 07003KT 10SM FEW007 BKN033 OVC043
                        21/21 A3002 RMK AO2 PNO $=
201202101107 SPECI KTMB 101107Z AUTO 07004KT 10SM FEW007 BKN019 OVC041
                        21/21 A3001 RMK AO2 PNO $=
201202101053 METAR KTMB 101053Z AUTO 00000KT 10SM BKN007 BKN014 OVC019
                        21/21 A3001 RMK AO2 RAE04 SLP162
                        T02060206 PNO $=
201202101039 SPECI KTMB 101039Z AUTO 00000KT 10SM BKN007 OVC021 21/21
                        A3001 RMK AO2 RAE04 PNO $=
201202101029 SPECI KTMB 101029Z AUTO 08003KT 10SM SCT007 BKN019 OVC055
                        21/21 A3001 RMK AO2 RAE04 PNO $=
201202101014 SPECI KTMB 101014Z 00000KT 7SM SCT014 BKN025 OVC055 21/21
                        A3001 RMK AO2 RAE04 PNO $=
201202100953 METAR KTMB 100953Z 15003KT 3SM -RA BR SCT007 OVC013 21/21
                        A3002 RMK AO2 SLP164 T02060206 PNO
                        $=
201202100938 SPECI KTMB 100938Z 14005KT 2 1/2SM -RA BR OVC007 21/21 A3002
                        RMK AO2 CIG 004V011 PNO $=
201202100924 SPECI KTMB 100924Z 11006KT 7SM -RA BKN005 OVC016 21/21 A3002
                        RMK AO2 CIG 004V008 PNO $=
201202100853 METAR KTMB 100853Z 08004KT 8SM -RA FEW005 BKN016 OVC023 21/21
                        A3002 RMK AO2 SLP164 6//// T02110211
                        57013 PNO $=
201202100844 SPECI KTMB 100844Z 06005KT 7SM -RA BKN014 BKN023 OVC065 21/21
                        A3002 RMK AO2 PNO $=
201202100816 SPECI KTMB 100816Z 05008KT 5SM -RA BR SCT008 BKN017 OVC039
                        21/21 A3003 RMK AO2 PNO $=
201202100805 SPECI KTMB 100805Z 07007KT 2 1/2SM +RA BR FEW008 BKN027 OVC038
                        21/21 A3002 RMK AO2 PNO $=
201202100753 METAR KTMB 100753Z 05007KT 7SM -RA BKN016 BKN028 OVC038 21/21
                        A3003 RMK AO2 SLP168 T02110211 PNO
                        $=
201202100731 SPECI KTMB 100731Z 03006KT 6SM -RA BR FEW007 BKN018 OVC037
                        21/21 A3003 RMK AO2 PNO $=
201202100724 SPECI KTMB 100724Z 03007KT 5SM -RA BR FEW007 BKN014 OVC034
                        21/21 A3004 RMK AO2 PNO $=
201202100717 SPECI KTMB 100717Z 05006KT 5SM -RA BR SCT009 BKN016 OVC021
                        21/21 A3004 RMK AO2 PNO $=
201202100703 SPECI KTMB 100703Z 05006KT 6SM -RA BR SCT009 BKN014 OVC020
                        21/21 A3004 RMK AO2 PNO $=
201202100653 METAR KTMB 100653Z 06006KT 7SM -RA BKN009 OVC015 21/21 A3005
                        RMK AO2 RAE31B53 CIG 007V012 SLP173
                        T02110211 PNO $=
201202100619 SPECI KTMB 100619Z 04005KT 8SM -RA FEW009 BKN013 OVC025 21/21
                        A3005 RMK AO2 PNO $=
201202100615 SPECI KTMB 100615Z 05006KT 8SM -RA SCT011 BKN017 OVC027 21/21
                        A3005 RMK AO2 PNO $=
201202100553 METAR KTMB 100553Z 05006KT 5SM -RA BR BKN013 BKN020 OVC030
                        21/21 A3006 RMK AO2 SLP177 6////
                        T02110211 10222 20211 58008 PNO $=
201202100533 SPECI KTMB 100533Z 06007KT 4SM -RA BR FEW011 BKN028 OVC036
                        21/21 A3006 RMK AO2 PNO $=
201202100453 METAR KTMB 100453Z 06008KT 5SM -RA BR FEW031 BKN042 OVC055
                        21/21 A3007 RMK AO2 RAB32 SLP182
                        T02110206 402560183 PNO $=
201202100353 METAR KTMB 100353Z 07008KT 10SM FEW007 SCT047 OVC055 21/21
                        A3008 RMK AO2 SLP184 T02110206 PNO
                        $=
201202100300 SPECI KTMB 100300Z 06008KT 10SM FEW006 BKN044 OVC070 21/21
                        A3008 RMK AO2 PNO $=
201202100253 METAR KTMB 100253Z 06007KT 10SM BKN004 BKN029 OVC040 21/21
                        A3008 RMK AO2 RAE51 SLP185 6////
                        T02110206 52013 PNO $=
201202100208 SPECI KTMB 100208Z 06006KT 5SM -RA BR BKN004 BKN029 OVC040
                        21/21 A3008 RMK AO2 PNO $=
201202100200 SPECI KTMB 100200Z 06007KT 6SM -RA BR SCT009 SCT029 OVC040
                        21/21 A3008 RMK AO2 PNO $=
201202100153 METAR KTMB 100153Z 06007KT 7SM -RA BKN009 BKN012 OVC042 21/21
                        A3007 RMK AO2 SLP182 T02110206 PNO
                        $=
201202100130 SPECI KTMB 100130Z 06006KT 5SM -RA BR BKN009 BKN022 OVC030
                        21/21 A3007 RMK AO2 PNO $=
201202100053 METAR KTMB 100053Z 07006KT 5SM -RA BR FEW012 BKN026 OVC045
                        21/21 A3005 RMK AO2 RAB29 SLP177
                        T02110206 PNO $=
201202092353 METAR KTMB 092353Z 03005KT 10SM BKN021 BKN029 OVC065 22/20
                        A3004 RMK AO2 SLP173 60000 T02220200
                        10244 20222 51007=
201202092324 SPECI KTMB 092324Z 03007KT 10SM SCT021 BKN028 OVC060 22/20
                        A3004 RMK AO2=
201202092253 METAR KTMB 092253Z 03007KT 10SM FEW021 BKN060 OVC070 22/21
                        A3004 RMK AO2 RAB2157E15B36E53 SLP171
                        P0000 T02220206=
201202092241 SPECI KTMB 092241Z 02007KT 10SM -RA SCT021 BKN041 OVC070
                        22/21 A3004 RMK AO2 RAB2157E15B36
                        P0000=
201202092153 METAR KTMB 092153Z 04014KT 10SM SCT019 BKN026 OVC032 23/19
                        A3003 RMK AO2 SLP169 T02330194=
201202092104 SPECI KTMB 092104Z 04012KT 10SM BKN019 BKN043 OVC080 24/19
                        A3002 RMK AO2=
201202092053 METAR KTMB 092053Z 06010KT 10SM SCT019 OVC041 24/19 A3002
                        RMK AO2 SLP166 T02390194 55013=
201202091953 METAR KTMB 091953Z 06014G18KT 10SM FEW022 SCT047 OVC060 24/19
                        A3002=
201202091853 METAR KTMB 091853Z 06012KT 10SM BKN044 OVC050 24/20 A3003
                        RMK AO2 SLP169 T02390200=
201202091753 METAR KTMB 091753Z 05010KT 5SM BR FEW029 OVC040 23/21 A3006
                        RMK AO2 RAB19E49 SLP179 P0000 60000
                        T02280206 10256 20183 58010=
201202091741 SPECI KTMB 091741Z 06011KT 5SM -RA FEW021 SCT027 OVC036 23/21
                        A3006 RMK AO2 RAB19 P0000=
201202091731 SPECI KTMB 091731Z 07011KT 5SM RA BR SCT021 BKN028 OVC036
                        23/21 A3007 RMK AO2 RAB19 P0000=
201202091728 SPECI KTMB 091728Z 06011KT 2 1/2SM -RA BR SCT019 BKN032 OVC046
                        23/21 A3007 RMK AO2 RAB19 P0000=
201202091718 SPECI KTMB 091718Z 07012KT 9SM SCT021 BKN029 BKN070 24/19
                        A3007 RMK AO2=
201202091653 METAR KTMB 091653Z 05014KT 10SM FEW021 SCT060 SCT080 26/19
                        A3008 RMK AO2 SLP185 T02560194=
201202091553 METAR KTMB 091553Z 05011KT 10SM SCT019 SCT032 OVC055 24/19
                        A3010 RMK AO2 SLP192 T02440194=
201202091453 METAR KTMB 091453Z 04010KT 10SM BKN055 23/19 A3009 RMK AO2
                        SLP189 T02280194 51017=
201202091353 METAR KTMB 091353Z 36007KT 10SM BKN060 BKN070 21/18 A3009
                        RMK AO2 SLP188 T02060183=
201202091253 METAR KTMB 091253Z 01006KT 10SM OVC049 19/17 A3007 RMK AO2
                        SLP180 T01940172=
201202091153 METAR KTMB 091153Z 35004KT 10SM BKN045 18/17 A3004 RMK AO2
                        SLP173 7//// T01830167 10200 20183
                        53007=
201202091053 METAR KTMB 091053Z 36005KT 10SM SCT034 BKN042 18/16 A3003
                        RMK AO2 SLP167 T01830161=
201202090953 METAR KTMB 090953Z 01007KT 10SM CLR 18/16 A3001 RMK AO2 SLP162
                        T01830161=
201202090853 METAR KTMB 090853Z 34006KT 10SM SCT060 19/17 A3002 RMK AO2
                        SLP166 T01890167 55003=
201202090753 METAR KTMB 090753Z 34004KT 10SM CLR 19/18 A3002 RMK AO2 SLP165
                        T01940178=
201202090653 METAR KTMB 090653Z 36005KT 10SM CLR 19/17 A3003 RMK AO2 SLP168
                        T01940172=
201202090553 METAR KTMB 090553Z 02004KT 10SM CLR 20/18 A3003 RMK AO2 SLP168
                        T02000178 10211 20183 58009=
201202090453 METAR KTMB 090453Z 02005KT 10SM CLR 20/18 A3004 RMK AO2 SLP173
                        T02000183 402330183=
201202090353 METAR KTMB 090353Z 36003KT 9SM CLR 19/18 A3006 RMK AO2 SLP178
                        T01890183=
201202090253 METAR KTMB 090253Z 00000KT 10SM CLR 20/18 A3006 RMK AO2 SLP177
                        T02000183 53013=
201202090153 METAR KTMB 090153Z 00000KT 10SM FEW025 19/18 A3004 RMK AO2
                        SLP172 T01940183=
201202090053 METAR KTMB 090053Z 00000KT 10SM CLR 21/18 A3003 RMK AO2 SLP168
                        T02060183=
201202082353 METAR KTMB 082353Z 35006KT 10SM CLR 21/18 A3002 RMK AO2 SLP164
                        T02060183 10233 20206 53005=
201202082253 METAR KTMB 082253Z 01007KT 10SM CLR 22/18 A3002 RMK AO2 SLP163
                        T02170183=
201202082234 SPECI KTMB 082234Z 36008KT 10SM SCT021 23/18 A3001 RMK AO2=
201202082153 METAR KTMB 082153Z 35009KT 10SM OVC021 23/18 A3000 RMK AO2
                        SLP159 T02280183=
201202082053 METAR KTMB 082053Z 31008KT 10SM OVC019 23/19 A3000 RMK AO2
                        SLP159 T02330194 55013=
201202082006 SPECI KTMB 082006Z VRB05KT 10SM OVC015 23/19 A3000 RMK AO2=
201202081953 METAR KTMB 081953Z 01007KT 10SM OVC013 23/19 A3000 RMK AO2
                        SLP156 T02280189=
201202081908 SPECI KTMB 081908Z 33008KT 10SM OVC011 22/19 A3002 RMK AO2=
201202081853 METAR KTMB 081853Z 33008KT 10SM OVC009 22/19 A3002 RMK AO2
                        SLP165 T02220194=
201202081753 METAR KTMB 081753Z 33007KT 8SM OVC007 21/19 A3004 RMK AO2
                        CIG 006V009 SLP172 6//// T02110194
                        10217 20200 58012=
201202081653 METAR KTMB 081653Z AUTO 36007KT 8SM OVC006 21/20 A3006 RMK
                        AO2 SLP180 T02110200 TSNO PNO $=
201202081600 SPECI KTMB 081600Z AUTO 35007KT 5SM BR OVC004 21/20 A3008
                        RMK AO2 TSNO PNO $=
201202081553 METAR KTMB 081553Z AUTO 34006KT 2SM BR OVC004 21/20 A3008
                        RMK AO2 SLP184 T02060200 TSNO PNO=
201202081500 SPECI KTMB 081500Z 33004KT 2SM BR OVC004 21/20 A3008 RMK
                        AO2 PNO=
201202081453 METAR KTMB 081453Z 36003KT 1SM BR OVC004 21/20 A3008 RMK
                        AO2 SLP184 6//// T02060200 53018
                        PNO=
201202081353 METAR KTMB 081353Z 02005KT 1 1/2SM BR OVC004 20/20 A3004
                        RMK AO2 SLP172 T02000200 PNO=
201202081311 SPECI KTMB 081311Z 36004KT 1/2SM FG OVC004 20/20 A3003 RMK
                        AO2 PNO=
201202081253 METAR KTMB 081253Z 05003KT 2SM BR OVC002 20/20 A3003 RMK
                        AO2 SLP167 T02000200 PNO=
201202081202 SPECI KTMB 081202Z 36006KT 2SM BR OVC002 20/20 A3003 RMK
                        AO2 PNO $=
201202081153 METAR KTMB 081153Z 35007KT 3SM BR OVC002 20/20 A3002 RMK
                        AO2 SLP166 6//// 7//// T02000200
                        10211 20200 53011 PNO $=
201202081124 SPECI KTMB 081124Z AUTO 34006KT 2SM BR OVC002 20/20 A3002
                        RMK AO2 PNO $=
201202081053 METAR KTMB 081053Z AUTO 34007KT 1 1/4SM BR OVC002 20/20 A3000
                        RMK AO2 SLP159 T02000200 PNO $=
201202081005 SPECI KTMB 081005Z AUTO 34006KT 1SM BR OVC002 21/21 A3000
                        RMK AO2 PNO $=
201202080953 METAR KTMB 080953Z AUTO 35005KT 2SM BR OVC002 21/21 A3000
                        RMK AO2 SLP157 T02060206 PNO $=
201202080931 SPECI KTMB 080931Z AUTO 36004KT 1 1/2SM BR OVC002 21/21 A3000
                        RMK AO2 PNO $=
201202080853 METAR KTMB 080853Z AUTO 34003KT 3/4SM BR VV002 21/21 A2999
                        RMK AO2 SLP156 6//// T02060206 56008
                        PNO $=
201202080843 SPECI KTMB 080843Z AUTO 02004KT 3/4SM BR VV002 21/21 A2999
                        RMK AO2 PNO $=
201202080832 SPECI KTMB 080832Z AUTO 34005KT 1 3/4SM BR OVC002 21/21 A2999
                        RMK AO2 PNO $=
201202080827 SPECI KTMB 080827Z AUTO 35005KT 3SM BR OVC002 21/21 A2999
                        RMK AO2 PNO $=
201202080812 SPECI KTMB 080812Z AUTO 34003KT 2 1/2SM BR OVC002 21/21 A3000
                        RMK AO2 PNO $=
201202080753 METAR KTMB 080753Z AUTO 33005KT 6SM BR OVC004 21/21 A3000=
201202080653 METAR KTMB 080653Z AUTO 01003KT 10SM OVC004 21/21 A3000 RMK
                        AO2 SLP159 T02110211 PNO $=
201202080553 METAR KTMB 080553Z AUTO 35003KT 9SM BKN004 OVC060 21/21 A3002
                        RMK AO2 SLP164 6//// T02110206 10217
                        20194 55003 PNO $=
201202080550 SPECI KTMB 080550Z AUTO 35004KT 10SM BKN004 BKN060 21/21
                        A3002 RMK AO2 PNO $=
201202080453 METAR KTMB 080453Z AUTO 00000KT 6SM BR SCT008 20/19 A3002
                        RMK AO2 SLP165 T02000194 402830194
                        PNO $=
201202080451 SPECI KTMB 080451Z AUTO 00000KT 4SM BR FEW008 20/19 A3002
                        RMK AO2 402830194 PNO $=
201202080448 SPECI KTMB 080448Z AUTO 00000KT 1 1/4SM BR FEW008 20/20 A3002
                        RMK AO2 402830194 PNO $=
201202080441 SPECI KTMB 080441Z AUTO 00000KT 1/2SM FG CLR 20/20 A3002
                        RMK AO2 PNO $=
201202080431 SPECI KTMB 080431Z AUTO 00000KT 1 3/4SM BR CLR 20/20 A3002
                        RMK AO2 VIS 1V5 PNO $=
201202080353 METAR KTMB 080353Z AUTO 00000KT 10SM CLR 20/19 A3003 RMK
                        AO2 SLP167 T02000194 PNO $=
201202080253 METAR KTMB 080253Z 00000KT 10SM CLR 20/20 A3002 RMK AO2 SLP163
                        6//// T02000200 51015 PNO $=
201202080153 METAR KTMB 080153Z 30003KT 10SM FEW040 21/20 A3000 RMK AO2
                        SLP159 T02060200 PNO $=
201202080053 METAR KTMB 080053Z 36003KT 10SM SCT033 BKN044 22/21 A2999
                        RMK AO2 SLP155 T02170206 PNO $=
201202072353 METAR KTMB 072353Z 00000KT 10SM FEW048 BKN110 21/21 A2997
                        RMK AO2 RAE42 SLP149 6//// T02110206
                        10283 20211 PNO $=
201202072253 METAR KTMB 072253Z 00000KT 6SM RA BR FEW050 SCT075 OVC100
                        21/21 A2997 RMK AO2 RAE10B51 SLP149
                        T02110206 PNO $=
201202072210 SPECI KTMB 072210Z 20007KT 3SM BKN034 OVC070 21/21 A2997
                        RMK AO2 RAE10 PNO $=
201202072153 METAR KTMB 072153Z 18007KT 3/4SM +RA BR BKN032 OVC055 22/21
                        A2997 RMK AO2 RAB16 SLP148 T02170206
                        PNO $=
201202072142 SPECI KTMB 072142Z 16004KT 1 1/2SM +RA BR BKN030 OVC055 22/21
                        A2997 RMK AO2 RAB16 PNO $=
201202072131 SPECI KTMB 072131Z 14003KT 3/4SM +RA BR 22/22 A2997 RMK AO2
                        RAB16 PNO $=
201202072124 SPECI KTMB 072124Z 17003KT 1SM +RA BR 22/22 A2998 RMK AO2
                        RAB16 P0000=
201202072053 METAR KTMB 072053Z 13009KT 3SM +RA BR SCT022 BKN040 OVC065
                        22/21 A2995 RMK AO2 SLP142 6////
                        T02220211 56002=
201202072051 SPECI KTMB 072051Z 13011KT 3SM +RA BR SCT020 BKN040 OVC065
                        22/21 A2995 RMK AO2=
201202072043 SPECI KTMB 072043Z AUTO 13007KT 1 1/4SM -RA BR SCT020 BKN042
                        OVC050 23/22 A2995 RMK AO2 TSNO=
201202072040 SPECI KTMB 072040Z AUTO 12007KT 3/4SM RA BR BKN020 BKN039
                        OVC055 22/22 A2995 RMK AO2 TSNO=
201202072031 SPECI KTMB 072031Z AUTO 06003KT 1 1/2SM +RA BR FEW010 BKN026
                        OVC039 23/22 A2995 RMK AO2 TSNO PNO
                        $=
201202072028 SPECI KTMB 072028Z AUTO 01003KT 5SM -RA BR FEW010 BKN022
                        OVC041 23/22 A2995 RMK AO2 TSNO PNO
                        $=
201202072003 SPECI KTMB 072003Z 10009KT 10SM -RA FEW008 BKN031 OVC038
                        24/23 A2995 RMK AO2 PNO=
201202071953 METAR KTMB 071953Z 11008KT 4SM RA BR BKN026 BKN036 OVC048
                        24/22 A2996 RMK AO2 SLP143 T02390222
                        PNO=
201202071943 SPECI KTMB 071943Z 10007KT 10SM -RA BKN027 BKN038 OVC060
                        24/22 A2995 RMK AO2 PNO=
201202071934 SPECI KTMB 071934Z 09006KT 7SM -RA SCT029 BKN036 OVC070 24/21
                        A2996 RMK AO2 PNO=
201202071915 SPECI KTMB 071915Z 02007KT 10SM -RA BKN029 BKN039 OVC060
                        26/21 A2996 RMK AO2 PNO=
201202071853 METAR KTMB 071853Z 36004KT 9SM -RA FEW032 BKN055 OVC070 27/21
                        A2996 RMK AO2 RAB43 SLP144 T02670211
                        PNO=
201202071841 SPECI KTMB 071841Z 32006KT 10SM FEW028 SCT034 BKN042 27/21
                        A2996 RMK AO2 PNO=
201202071805 SPECI KTMB 071805Z 00000KT 10SM BKN028 28/21 A2997 RMK AO2
                        PNO=
201202071753 METAR KTMB 071753Z 00000KT 10SM SCT024 SCT035 28/21 A2998
                        RMK AO2 SLP152 6//// T02780206 10278
                        20211 58019 PNO=
201202071717 SPECI KTMB 071717Z VRB03KT 10SM BKN022 27/21 A3000 RMK AO2
                        PNO=
201202071653 METAR KTMB 071653Z 22006KT 10SM SCT020 BKN085 27/21 A3001
                        RMK AO2 SLP160 T02670211 PNO=
201202071553 METAR KTMB 071553Z 18005KT 10SM SCT009 BKN055 BKN090 24/21
                        A3003 RMK AO2 SLP167 T02390206 PNO=
201202071513 SPECI KTMB 071513Z 13009KT 10SM SCT009 BKN075 OVC090 23/21
                        A3004 RMK AO2 PNO=
201202071453 METAR KTMB 071453Z COR 14008KT 10SM SCT007 BKN031 BKN070
                        23/22 A3004 RMK AO2 SLP172 6////
                        T02330217 53013 PNO $=
201202071422 SPECI KTMB 071422Z 13008KT 10SM FEW007 SCT049 OVC065 23/22
                        A3004 RMK AO2 PNO $=
201202071353 METAR KTMB 071353Z 13004KT 10SM OVC048 22/21 A3003 RMK AO2
                        SLP168 T02220211 PNO $=
201202071253 METAR KTMB 071253Z 15004KT 10SM OVC055 22/21 A3001 RMK AO2
                        SLP162 T02170211 PNO $=
201202071153 METAR KTMB 071153Z 13003KT 10SM SCT049 OVC065 21/21 A3000
                        RMK AO2 RAB1059E47 SLP159 6//// 7////
                        T02110206 10217 20206 50002 PNO $=
201202071114 SPECI KTMB 071114Z AUTO 00000KT 3SM -RA BR FEW010 BKN034
                        OVC046 21/21 A3001 RMK AO2 RAB1059
                        PNO $=
201202071053 METAR KTMB 071053Z AUTO 00000KT 10SM FEW010 BKN022 OVC060
                        21/21 A3000=
201202071032 SPECI KTMB 071032Z AUTO 05005KT 10SM SCT008 SCT016 OVC065
                        21/21 A2998 RMK AO2 LTG DSNT E PNO
                        $=
201202070958 SPECI KTMB 070958Z 32003KT 10SM BKN008 OVC065 21/21 A3000
                        RMK AO2 LTG DSNT SE PNO $=
201202070953 METAR KTMB 070953Z 29003KT 10SM SCT010 SCT048 OVC065 21/21
                        A3000 RMK AO2 RAE31 SLP158 T02110206
                        PNO $=
201202070934 SPECI KTMB 070934Z 00000KT 10SM FEW028 BKN040 OVC060 21/20
                        A2999 RMK AO2 LTG DSNT NE RAE31 PNO
                        $=
201202070923 SPECI KTMB 070923Z 00000KT 9SM -RA BKN028 BKN046 OVC055 21/21
                        A2999 RMK AO2 LTG DSNT SE PNO $=
201202070907 SPECI KTMB 070907Z 18006KT 2SM +RA BR FEW010 BKN028 OVC060
                        21/20 A3000 RMK AO2 LTG DSNT SE PNO
                        $=
201202070853 METAR KTMB 070853Z 00000KT 6SM -RA BR SCT014 BKN032 OVC060
                        21/20 A2999=
201202070838 SPECI KTMB 070838Z 19004KT 3SM RA BR FEW006 SCT011 OVC032
                        21/20 A2999 RMK AO2 LTG DSNT N PNO
                        $=
201202070836 SPECI KTMB 070836Z 20004KT 2SM RA BR FEW006 SCT011 OVC027
                        21/20 A2999 RMK AO2 LTG DSNT N AND
                        SE PNO $=
201202070823 SPECI KTMB 070823Z VRB05KT 1 3/4SM +RA BR SCT006 BKN011 OVC020
                        21/21 A3000 RMK AO2 VIS 3/4V5 LTG
                        DSNT SE PNO $=
201202070808 SPECI KTMB 070808Z 29005KT 3SM -RA BR FEW006 OVC011 21/21
                        A2998 RMK AO2 LTG DSNT N PNO $=
201202070800 SPECI KTMB 070800Z 29006KT 1 3/4SM +RA BR FEW006 OVC013 21/21
                        A2998 RMK AO2 LTG DSNT N PNO $=
201202070753 METAR KTMB 070753Z 00000KT 8SM -RA FEW006 BKN013 OVC019 21/21
                        A2999 RMK AO2 SLP154 T02110206 PNO
                        $=
201202070743 SPECI KTMB 070743Z 00000KT 3SM RA BR FEW006 BKN015 OVC060
                        21/21 A2999 RMK AO2 PNO $=
201202070739 SPECI KTMB 070739Z VRB05KT 1 1/2SM +RA BR FEW006 BKN020 OVC060
                        21/21 A3000 RMK AO2 PNO $=
201202070732 SPECI KTMB 070732Z VRB05KT 2SM +RA BR SCT013 BKN026 OVC060
                        21/21 A3000 RMK AO2 PNO $=
201202070712 SPECI KTMB 070712Z 24005KT 9SM -RA FEW011 BKN034 OVC065 21/21
                        A3000 RMK AO2 PNO $=
201202070704 SPECI KTMB 070704Z 23008G17KT 2SM RA BR SCT012 BKN026 OVC047
                        21/21 A3000 RMK AO2 PNO $=
201202070701 SPECI KTMB 070701Z 22008G19KT 1 1/2SM +RA BR FEW010 BKN024
                        OVC047 21/21 A3000 RMK AO2 PNO $=
201202070653 METAR KTMB 070653Z 21007KT 2 1/2SM +RA BR SCT010 BKN017 OVC028
                        22/21 A3000 RMK AO2 SLP159 T02170211
                        PNO $=
201202070649 SPECI KTMB 070649Z 19006KT 6SM BR BKN010 BKN017 OVC028 22/21
                        A3001 RMK AO2 RAE38 CIG 005V014 PNO
                        $=
201202070631 SPECI KTMB 070631Z 00000KT 5SM -RA BR FEW009 BKN019 OVC045
                        22/21 A3000 RMK AO2 PNO $=
201202070600 SPECI KTMB 070600Z 00000KT 10SM -RA FEW014 BKN020 OVC080
                        22/21 A3001 RMK AO2 PNO $=
201202070553 METAR KTMB 070553Z 00000KT 10SM -RA SCT020 BKN039 OVC080
                        22/21 A3001 RMK AO2 RAE00B24 SLP161
                        6//// T02170211 10233 20206 56013
                        PNO $=
201202070515 SPECI KTMB 070515Z 00000KT 10SM SCT020 OVC070 21/21 A3002
                        RMK AO2 RAE00 PNO $=
201202070453 METAR KTMB 070453Z 00000KT 10SM -RA SCT009 BKN020 OVC065
                        22/21 A3002 RMK AO2 SLP165 T02170206
                        402610206 PNO $=
201202070446 SPECI KTMB 070446Z 00000KT 5SM -RA BR BKN009 BKN020 OVC026
                        22/21 A3002 RMK AO2 PNO $=
201202070440 SPECI KTMB 070440Z 00000KT 3SM RA BR SCT011 BKN020 OVC055
                        22/21 A3002 RMK AO2 PNO $=
201202070431 SPECI KTMB 070431Z 26005KT 1 1/2SM +RA BR SCT009 BKN020 OVC049
                        22/21 A3003 RMK AO2 PNO $=
201202070423 SPECI KTMB 070423Z 19004KT 2 1/2SM +RA BR FEW007 BKN016 OVC049
                        21/21 A3004 RMK AO2 PNO $=
201202070402 SPECI KTMB 070402Z 13005KT 3SM RA BR SCT017 BKN025 OVC055
                        22/21 A3003 RMK AO2 PNO $=
201202070353 METAR KTMB 070353Z 18004KT 4SM -RA BR FEW011 BKN035 OVC046
                        21/20 A3003 RMK AO2 SLP169 T02110200
                        PNO $=
201202070253 METAR KTMB 070253Z 00000KT 3SM RA BR BKN034 BKN048 OVC070
                        21/20 A3005 RMK AO2 SLP174 6////
                        T02060200 51015 PNO $=
201202070239 SPECI KTMB 070239Z 16004KT 3SM +RA BR BKN033 OVC055 21/19
                        A3004 RMK AO2 PNO $=
201202070218 SPECI KTMB 070218Z 15005KT 2 1/2SM RA BR FEW014 BKN030 OVC036
                        21/20 A3004 RMK AO2 PNO $=
201202070202 SPECI KTMB 070202Z 18005G14KT 1SM +RA BR FEW017 BKN024 OVC060
                        21/20 A3004 RMK AO2 P0000=
201202070153 METAR KTMB 070153Z 21008KT 1 3/4SM +RA BR FEW007 BKN032 OVC050
                        21/21 A3004 RMK AO2 RAB31 SLP171
                        P0000 T02110206=
201202070151 SPECI KTMB 070151Z 19008KT 2 1/2SM +RA BR FEW007 BKN040 OVC065
                        22/21 A3004 RMK AO2 RAB31 P0000=
201202070053 METAR KTMB 070053Z 14003KT 10SM OVC055 22/20 A3002 RMK AO2
                        RAE22 SLP164 P0000 T02220200=
201202062353 METAR KTMB 062353Z 20006KT 10SM -RA BKN070 23/19 A3000 RMK
                        AO2 RAB49 SLP158 P0000 60000 T02330194
                        10256 20228 53003=
201202062253 METAR KTMB 062253Z 13009KT 10SM OVC070 24/19 A3000 RMK AO2
                        SLP156 T02390194=
201202062153 METAR KTMB 062153Z 13010KT 10SM OVC070 24/19 A2999 RMK AO2
                        SLP153 T02440194=
201202062053 METAR KTMB 062053Z 13009KT 10SM FEW025 BKN070 24/20 A2999
                        RMK AO2 SLP155 60000 T02440200 55013=
201202061953 METAR KTMB 061953Z 15006KT 10SM FEW024 SCT070 SCT095 23/21
                        A2999 RMK AO2 RAB30E47 SLP154 P0000
                        T02330211=
201202061853 METAR KTMB 061853Z 13008KT 10SM FEW021 SCT042 BKN090 24/22
                        A3001 RMK AO2 RAB41E53 SLP161 P0000
                        T02440217=
201202061753 METAR KTMB 061753Z 14013KT 10SM FEW025 SCT075 26/19 A3003
                        RMK AO2 SLP168 60000 T02560194 10261
                        20206 58018=
201202061720 SPECI KTMB 061720Z 16012G18KT 10SM FEW021 SCT026 BKN080 25/19
                        A3005 RMK AO2=
201202061653 METAR KTMB 061653Z 13009G16KT 10SM SCT021 BKN026 BKN120 25/20
                        A3006 RMK AO2 SLP179 T02500200=
201202061553 METAR KTMB 061553Z 14011KT 10SM SCT022 OVC100 23/19 A3008
                        RMK AO2 SLP186 T02330189=
201202061551 SPECI KTMB 061551Z 14010KT 10SM SCT022 OVC100 23/19 A3008
                        RMK AO2=
201202061532 SPECI KTMB 061532Z 16008KT 10SM BKN022 BKN035 24/19 A3008
                        RMK AO2 $=
201202061453 METAR KTMB 061453Z 13004KT 10SM SCT095 23/21 A3007 RMK AO2
                        SLP182 60000 T02280206 53010 $=
201202061424 SPECI KTMB 061424Z 16004KT 10SM FEW018 22/20 A3007 RMK AO2
                        $=
201202061409 SPECI KTMB 061409Z 14006KT 10SM SCT018 BKN024 BKN120 22/20
                        A3006 RMK AO2 $=
201202061353 METAR KTMB 061353Z 15003KT 10SM FEW024 SCT120 21/21 A3005
                        RMK AO2 RAE11 SLP176 P0000 T02110206
                        $=
201202061253 METAR KTMB 061253Z 16006KT 9SM -RA FEW014 BKN080 OVC090 21/20
                        A3004=
201202061243 SPECI KTMB 061243Z 15008G18KT 7SM -RA FEW014 BKN026 OVC055
                        21/20 A3003 RMK AO2 RAB02 P0000 $=
201202061209 SPECI KTMB 061209Z 00000KT 10SM -RA FEW013 BKN050 OVC095
                        21/21 A3003 RMK AO2 RAB02 P0000 $=
201202061153 METAR KTMB 061153Z 04003KT 10SM SCT015 BKN021 OVC100 22/21
                        A3002 RMK AO2 SLP166 60000 7////
                        T02170211 10217 20206 53012 $=
201202061053 METAR KTMB 061053Z AUTO 00000KT 6SM BR SCT022 BKN028 BKN110
                        21/21 A3000 RMK AO2 RAE00 SLP158
                        P0000 T02110211=
201202061024 SPECI KTMB 061024Z AUTO 00000KT 7SM SCT020 21/21 A2999 RMK
                        AO2 RAE00 P0000=
201202060953 METAR KTMB 060953Z AUTO 00000KT 10SM -RA BKN020 BKN095 BKN110
                        21/21 A2999=
201202060853 METAR KTMB 060853Z AUTO 00000KT 6SM -RA BR FEW085 OVC100
                        21/21 A2999 RMK AO2 SLP154 P0000
                        60000 T02060206 56014=
201202060753 METAR KTMB 060753Z AUTO 00000KT 10SM -RA BKN120 21/21 A3001
                        RMK AO2 RAB43 SLP160 P0000 T02110211=
201202060653 METAR KTMB 060653Z AUTO 15003KT 10SM BKN120 22/21 A3001 RMK
                        AO2 RAE18 SLP161 P0000 T02170206=
201202060553 METAR KTMB 060553Z AUTO 03003KT 10SM -RA FEW018 BKN100 OVC110
                        21/20 A3003 RMK AO2 TSB19E36 SLP168
                        P0000 60000 T02110200 10228 20211
                        58006=
201202060542 SPECI KTMB 060542Z AUTO 00000KT 10SM -RA FEW016 BKN060 OVC095
                        21/21 A3004 RMK AO2 TSB19E36 P0000=
201202060525 SPECI KTMB 060525Z AUTO 00000KT 10SM VCTS -RA SCT018 BKN048
                        OVC095 21/21 A3004 RMK AO2 TSB19
                        P0000=
201202060511 SPECI KTMB 060511Z AUTO 00000KT 10SM -RA SCT011 BKN039 OVC095
                        21/21 A3004 RMK AO2 P0000=
201202060459 SPECI KTMB 060459Z AUTO 26005KT 3SM -RA BR BKN011 BKN019
                        OVC100 21/21 A3004 RMK AO2 P0000=
201202060453 METAR KTMB 060453Z AUTO 26005KT 2 1/2SM RA BR SCT009 BKN015
                        OVC039 21/21 A3004 RMK AO2 VIS 1
                        3/4V5 RAB06 SLP173 P0000 T02110206
                        402560178=
201202060445 SPECI KTMB 060445Z AUTO 22007KT 8SM -RA SCT007 OVC015 21/21
                        A3005 RMK AO2 RAB06 P0000=
201202060417 SPECI KTMB 060417Z AUTO 34004KT 7SM -RA FEW012 BKN017 OVC090
                        23/21 A3005 RMK AO2 RAB06 P0000=
201202060353 METAR KTMB 060353Z AUTO 08004KT 10SM FEW017 23/21 A3006 RMK
                        AO2 LTG DSNT S AND SW SLP177 T02280206=
201202060253 METAR KTMB 060253Z 12005KT 10SM FEW019 23/21 A3005 RMK AO2
                        SLP174 T02280206 53009=
201202060243 SPECI KTMB 060243Z 12006KT 10SM FEW019 22/21 A3005 RMK AO2=
201202060153 METAR KTMB 060153Z 09004KT 10SM BKN022 22/21 A3004 RMK AO2
                        SLP171 T02220206=
201202060143 SPECI KTMB 060143Z 10004KT 10SM BKN020 23/21 A3004 RMK AO2=
201202060053 METAR KTMB 060053Z 08005KT 10SM CLR 23/21 A3003 RMK AO2 SLP168
                        T02280206=
201202052353 METAR KTMB 052353Z 09004KT 10SM SCT019 23/21 A3002 RMK AO2
                        SLP165 T02280206 10256 20228 53007=
201202052332 SPECI KTMB 052332Z 09005KT 10SM FEW018 SCT022 BKN038 23/21
                        A3001 RMK AO2 $=
201202052314 SPECI KTMB 052314Z 09006KT 10SM BKN020 BKN038 23/21 A3001
                        RMK AO2 $=
201202052300 SPECI KTMB 052300Z 10005KT 10SM SCT020 BKN070 23/21 A3001
                        RMK AO2 $=
201202052253 METAR KTMB 052253Z 08004KT 10SM BKN020 BKN055 23/21 A3000
                        RMK AO2 SLP160 T02330206 $=
201202052153 METAR KTMB 052153Z 10006KT 10SM BKN020 BKN055 24/21 A3001
                        RMK AO2 SLP160 T02390206 $=
201202052053 METAR KTMB 052053Z 12007KT 10SM SCT020 BKN028 24/20 A3000
                        RMK AO2 SLP157 T02440200 55011 $=
201202052009 SPECI KTMB 052009Z 13007KT 10SM BKN022 BKN028 24/20 A2999
                        RMK AO2 $=
201202051953 METAR KTMB 051953Z 13008KT 10SM SCT024 24/19 A2999 RMK AO2
                        SLP156 T02440194 $=
201202051938 SPECI KTMB 051938Z 13009KT 10SM SCT024 25/19 A2999 RMK AO2
                        $=
201202051919 SPECI KTMB 051919Z 12010KT 10SM BKN024 BKN029 25/19 A2999
                        RMK AO2 $=
201202051903 SPECI KTMB 051903Z 13008KT 10SM SCT022 25/19 A3000 RMK AO2
                        $=
201202051853 METAR KTMB 051853Z 11008KT 10SM SCT022 BKN026 BKN032 25/20
                        A3000 RMK AO2 SLP158 T02500200 $=
201202051753 METAR KTMB 051753Z AUTO 12013KT 10SM SCT020 25/19 A3003 RMK
                        AO2 SLP169 6//// T02500194 10256
                        20178 TSNO $=
201202051653 METAR KTMB 051653Z 10SM 24/19 A3005 RMK AO2 SLP174 T02440194
                        $=
201202051553 METAR KTMB 051553Z 12013KT 10SM FEW035 25/19 A3007=
201202051453 METAR KTMB 051453Z 13013G18KT 10SM CLR 25/19 A3007 RMK AO2
                        SLP182 T02500194 51010=
201202051353 METAR KTMB 051353Z 12008KT 10SM CLR 24/20 A3006 RMK AO2 SLP180
                        T02390200=
201202051253 METAR KTMB 051253Z 00000KT 10SM FEW060 21/20 A3005 RMK AO2
                        SLP176 T02110200=
201202051153 METAR KTMB 051153Z 05003KT 10SM SCT060 19/19 A3004 RMK AO2
                        SLP172 T01940189 10211 20183 53002=
201202051053 METAR KTMB 051053Z AUTO 08003KT 10SM CLR 19/18 A3004 RMK
                        AO2 SLP171 T01940183=
201202050953 METAR KTMB 050953Z AUTO 10004KT 10SM CLR 20/19 A3002 RMK
                        AO2 SLP166 T02000189=
201202050853 METAR KTMB 050853Z AUTO 10003KT 10SM BKN055 21/19 A3004 RMK
                        AO2 SLP170 T02060189 58009=
201202050753 METAR KTMB 050753Z AUTO 05005KT 10SM CLR 21/19 A3005 RMK
                        AO2 SLP174 T02060189=
201202050653 METAR KTMB 050653Z AUTO 07005KT 10SM CLR 21/19 A3006 RMK
                        AO2 SLP179 T02060189=
201202050553 METAR KTMB 050553Z AUTO 09004KT 10SM CLR 21/19 A3006 RMK
                        AO2 SLP180 T02060194 10228 20206
                        58005=
201202050453 METAR KTMB 050453Z AUTO 12004KT 10SM CLR 22/19 A3007 RMK
                        AO2 SLP181 T02170194 402780211=
201202050353 METAR KTMB 050353Z AUTO 09007KT 10SM FEW024 22/19 A3008 RMK
                        AO2 SLP184 T02170194=
201202050253 METAR KTMB 050253Z 09008KT 10SM SCT050 22/19 A3008 RMK AO2
                        SLP185 T02220194 53002=
201202050153 METAR KTMB 050153Z 10008KT 10SM SCT050 22/19 A3008 RMK AO2
                        SLP184 T02220189=
201202050053 METAR KTMB 050053Z 09009KT 10SM FEW030 BKN050 22/19 A3007
                        RMK AO2 SLP182 T02220189=
201202042353 METAR KTMB 042353Z 09010KT 10SM FEW025 SCT046 22/19 A3007=
201202042253 METAR KTMB 042253Z 08009KT 10SM FEW025 BKN037 BKN046 23/18
                        A3007 RMK AO2 SLP183 T02280183=
201202042153 METAR KTMB 042153Z 09012KT 10SM SCT025 BKN030 24/18 A3006
                        RMK AO2 SLP180 T02390183=
201202042133 SPECI KTMB 042133Z 10011KT 10SM BKN027 24/18 A3006 RMK AO2=
201202042053 METAR KTMB 042053Z 11011G20KT 10SM FEW025 26/18 A3006 RMK
                        AO2 SLP180 T02560183 56017=
201202041953 METAR KTMB 041953Z 11013KT 10SM FEW025 25/18 A3008 RMK AO2
                        SLP186 T02500183=
201202041853 METAR KTMB 041853Z 10014KT 10SM FEW027 BKN032 BKN045 26/18
                        A3010 RMK AO2 SLP191 T02560178=
201202041753 METAR KTMB 041753Z 10014KT 10SM FEW027 SCT033 26/18 A3012
                        RMK AO2 SLP197 T02610178 10278 20222
                        56015=
201202041749 SPECI KTMB 041749Z 10015KT 10SM SCT029 BKN036 27/18 A3012
                        RMK AO2=
201202041722 SPECI KTMB 041722Z 09012KT 10SM BKN027 27/18 A3014 RMK AO2=
201202041653 METAR KTMB 041653Z 09013KT 10SM FEW023 SCT032 SCT045 26/18
                        A3015 RMK AO2 SLP208 T02560183=
201202041553 METAR KTMB 041553Z 10018G23KT 10SM SCT025 BKN033 26/19 A3016
                        RMK AO2 SLP211 T02560189=
201202041453 METAR KTMB 041453Z 09017G24KT 10SM FEW024 24/18 A3016 RMK
                        AO2 SLP212 T02390183 53008=
201202041353 METAR KTMB 041353Z 10016G21KT 10SM BKN032 BKN046 BKN060 23/18
                        A3015 RMK AO2 SLP209 T02330183=
201202041253 METAR KTMB 041253Z 09014KT 10SM OVC060 23/18 A3014 RMK AO2
                        SLP206 T02280183=
201202041153 METAR KTMB 041153Z 10013KT 10SM BKN060 22/17 A3014 RMK AO2
                        SLP204 T02220172 10228 20217 53005=
201202041053 METAR KTMB 041053Z AUTO 09012KT 10SM OVC055 22/18 A3013 RMK
                        AO2 SLP201 T02220178=
201202040953 METAR KTMB 040953Z AUTO 09011KT 10SM BKN055 22/17 A3011 RMK
                        AO2 SLP196 T02220172=
201202040853 METAR KTMB 040853Z AUTO 09013KT 10SM FEW060 22/17 A3012 RMK
                        AO2 SLP199 T02220172 56009=
201202040753 METAR KTMB 040753Z AUTO 09012KT 10SM FEW026 BKN047 22/18
                        A3012 RMK AO2 SLP200 T02220183=
201202040653 METAR KTMB 040653Z 09012KT 10SM BKN045 22/17 A3014 RMK AO2
                        SLP204 T02220172=
201202040553 METAR KTMB 040553Z 10012KT 10SM SCT043 BKN050 22/17 A3015=
201202040453 METAR KTMB 040453Z 10012KT 10SM SCT035 BKN045 22/18 A3015
                        RMK AO2 SLP209 T02220178 402670183=
201202040353 METAR KTMB 040353Z 09010KT 10SM FEW024 22/18 A3016 RMK AO2
                        SLP213 T02220178=
201202040253 METAR KTMB 040253Z 09011KT 10SM FEW026 22/18 A3017 RMK AO2
                        SLP215 T02220178 51006=
201202040153 METAR KTMB 040153Z 09012KT 10SM CLR 22/17 A3016=
201202040053 METAR KTMB 040053Z 09012KT 10SM CLR 22/17 A3016 RMK AO2 SLP214
                        T02220172=
201202032353 METAR KTMB 032353Z 09013KT 10SM CLR 23/17 A3015 RMK AO2 SLP208
                        T02280172 10267 20228 51010=
201202032253 METAR KTMB 032253Z 10012KT 10SM FEW030 23/18 A3015 RMK AO2
                        SLP207 T02330178=
201202032153 METAR KTMB 032153Z 09013KT 10SM CLR 24/18 A3012 RMK AO2 SLP200
                        T02390178=
201202032053 METAR KTMB 032053Z 11014G21KT 10SM SCT027 24/18 A3012 RMK
                        AO2 SLP198 T02440183 56015=
201202031953 METAR KTMB 031953Z 10016G22KT 10SM SCT026 SCT030 BKN040 25/18
                        A3012 RMK AO2 SLP199 T02500183=
201202031853 METAR KTMB 031853Z 11016G22KT 10SM FEW027 SCT065 26/18 A3013
                        RMK AO2 SLP203 T02560178=
201202031753 METAR KTMB 031753Z 09017KT 10SM SCT031 BKN040 25/18 A3016
                        RMK AO2 SLP213 60000 T02500178 10267
                        20200 58010=
201202031653 METAR KTMB 031653Z 10015KT 10SM FEW029 26/18 A3018 RMK AO2
                        SLP219 T02610178=
201202031553 METAR KTMB 031553Z 09017G24KT 10SM FEW033 26/17 A3019 RMK
                        AO2 SLP221 T02610172=
201202031453 METAR KTMB 031453Z 10016KT 10SM FEW031 26/17 A3019 RMK AO2
                        SLP223 60000 T02560172 51015=
201202031353 METAR KTMB 031353Z 10011KT 10SM BKN065 24/18 A3018 RMK AO2
                        SLP219 T02440183=
201202031253 METAR KTMB 031253Z 10008KT 10SM BKN060 22/18 A3016 RMK AO2
                        RAB19E29 SLP214 P0000 T02170178=
201202031153 METAR KTMB 031153Z 09004KT 10SM FEW048 BKN060 20/18 A3015
                        RMK AO2 SLP208 T02000178 10206 20183
                        53012=
201202031053 METAR KTMB 031053Z AUTO 08005KT 10SM CLR 19/17 A3012 RMK
                        AO2 SLP200 T01890167=
201202030953 METAR KTMB 030953Z 07005KT 10SM OVC070 20/18 A3011 RMK AO2
                        SLP195 T02000178=
201202030853 METAR KTMB 030853Z 08004KT 10SM BKN070 18/18 A3011 RMK AO2
                        SLP196 T01830183 56006=
201202030753 METAR KTMB 030753Z 00000KT 10SM FEW060 19/19 A3012 RMK AO2
                        SLP198 T01890189=
201202030653 METAR KTMB 030653Z 00000KT 9SM SCT075 19/19 A3012 RMK AO2
                        SLP199 T01940189=
201202030553 METAR KTMB 030553Z 04004KT 10SM FEW026 BKN065 20/19 A3013=
201202030453 METAR KTMB 030453Z 04005KT 10SM CLR 20/18 A3015 RMK AO2 SLP208
                        T02000183 402670167=
201202030353 METAR KTMB 030353Z 09004KT 10SM CLR 20/18 A3015 RMK AO2 SLP210
                        T02000183=
201202030253 METAR KTMB 030253Z 07004KT 10SM CLR 19/17 A3015 RMK AO2 SLP208
                        T01890172 51009=
201202030153 METAR KTMB 030153Z 07005KT 10SM CLR 19/18 A3014 RMK AO2 SLP206
                        T01940183=
201202030053 METAR KTMB 030053Z 10005KT 10SM CLR 20/18 A3013 RMK AO2 SLP203
                        T02000178=
201202022353 METAR KTMB 022353Z 11006KT 10SM CLR 22/18 A3012 RMK AO2 SLP199
                        T02170183 10261 20211 53016=
201202022253 METAR KTMB 022253Z 10009KT 10SM CLR 23/18 A3011 RMK AO2 SLP194
                        T02280178=
201202022206 SPECI KTMB 022206Z 11008KT 10SM CLR 24/18 A3009 RMK AO2=
201202022153 METAR KTMB 022153Z 10008KT 10SM CLR 24/18 A3009 RMK AO2 SLP188
                        T02440178=
201202022053 METAR KTMB 022053Z 10008KT 10SM SCT035 26/18 A3008 RMK AO2
                        SLP183 T02560178 56014=
201202021953 METAR KTMB 021953Z 13009KT 10SM CLR 26/18 A3008 RMK AO2 SLP184
                        T02610183=
201202021853 METAR KTMB 021853Z 11010KT 10SM CLR 26/18 A3009 RMK AO2 SLP188
                        T02610178=
201202021753 METAR KTMB 021753Z 12009KT 10SM FEW026 SCT032 BKN049 26/18
                        A3012 RMK AO2 SLP197 T02610183 10267
                        20167 58020=
201202021728 SPECI KTMB 021728Z 10010G14KT 10SM BKN028 BKN036 27/18 A3013
                        RMK AO2=
201202021653 METAR KTMB 021653Z 14009KT 10SM FEW024 25/19 A3014 RMK AO2
                        SLP205 T02500189=
201202021553 METAR KTMB 021553Z 11010KT 10SM SCT022 BKN150 25/19 A3017
                        RMK AO2 SLP215 T02500189=
201202021453 METAR KTMB 021453Z 12008KT 10SM SCT026 SCT033 SCT042 25/18
                        A3018 RMK AO2 SLP217 T02500183 53006=
201202021439 SPECI KTMB 021439Z 12007KT 10SM FEW020 BKN026 BKN033 24/19
                        A3017 RMK AO2=
201202021353 METAR KTMB 021353Z 11006KT 10SM CLR 23/21 A3016 RMK AO2 SLP213
                        T02280206=
201202021332 SPECI KTMB 021332Z 00000KT 4SM BR CLR 21/21 A3016 RMK AO2=
201202021253 METAR KTMB 021253Z 00000KT 2SM BR CLR 19/18 A3015 RMK AO2
                        SLP210 T01890183=
201202021242 SPECI KTMB 021242Z 00000KT 2 1/2SM BR CLR 18/18 A3015 RMK
                        AO2=
201202021223 SPECI KTMB 021223Z 00000KT 3SM BR FEW020 18/18 A3015 RMK
                        AO2=
201202021220 SPECI KTMB 021220Z 00000KT 1 1/2SM BR FEW020 17/17 A3015
                        RMK AO2=
201202021214 SPECI KTMB 021214Z 00000KT 3/4SM BR VV020 17/17 A3015 RMK
                        AO2 VIS 1/4V4=
201202021203 SPECI KTMB 021203Z 00000KT 1/4SM FG VV020 18/18 A3015 RMK
                        AO2=
201202021200 SPECI KTMB 021200Z 00000KT 1/2SM FG FEW021 18/18 A3016 RMK
                        AO2=
201202021153 METAR KTMB 021153Z 00000KT 5SM BR CLR 19/19 A3016 RMK AO2
                        SLP211 T01890189 10211 20178 53010=
201202021053 METAR KTMB 021053Z 00000KT 7SM CLR 18/18 A3014 RMK AO2 SLP205
                        T01780178=
201202020953 METAR KTMB 020953Z 00000KT 4SM BR CLR 18/18 A3013 RMK AO2
                        SLP202 T01830178=
201202020853 METAR KTMB 020853Z 00000KT 5SM BR FEW021 SCT027 BKN043 19/19
                        A3013=
201202020753 METAR KTMB 020753Z 00000KT 6SM BR CLR 19/19 A3013=
201202020653 METAR KTMB 020653Z 11004KT 10SM SCT065 21/19 A3014 RMK AO2
                        SLP204 T02060189=
201202020621 SPECI KTMB 020621Z 00000KT 10SM SCT023 BKN042 OVC060 21/19
                        A3015 RMK AO2=
201202020611 SPECI KTMB 020611Z 00000KT 10SM SCT021 BKN028 OVC065 21/19
                        A3015 RMK AO2=
201202020553 METAR KTMB 020553Z 06004KT 10SM SCT023 BKN032 BKN065 20/19
                        A3015 RMK AO2 SLP209 T02000189 10211
                        20194 58003=
201202020453 METAR KTMB 020453Z 06003KT 10SM CLR 20/18 A3016 RMK AO2 SLP213
                        T02000183 402720167=
201202020353 METAR KTMB 020353Z 04003KT 10SM FEW022 20/18 A3017 RMK AO2
                        SLP215 T02000183=
201202020253 METAR KTMB 020253Z 09007KT 10SM CLR 21/19 A3016 RMK AO2 SLP213
                        T02110189 51003=
201202020153 METAR KTMB 020153Z 09006KT 10SM CLR 19/18 A3016 RMK AO2 SLP213
                        T01940178=
201202020053 METAR KTMB 020053Z 09006KT 10SM CLR 21/18 A3016 RMK AO2 SLP213
                        T02060183=
201202012353 METAR KTMB 012353Z 09006KT 10SM CLR 22/18 A3015 RMK AO2 SLP209
                        T02170178 10267 20217 53001=
201202012253 METAR KTMB 012253Z 10011KT 10SM CLR 23/18 A3015 RMK AO2 SLP210
                        T02280178=
201202012153 METAR KTMB 012153Z 11010KT 10SM CLR 24/17 A3015 RMK AO2 SLP207
                        T02440172=
201202012127 SPECI KTMB 012127Z 10010KT 10SM SCT026 24/18 A3015 RMK AO2=
201202012108 SPECI KTMB 012108Z 10013KT 10SM BKN024 BKN038 26/18 A3015
                        RMK AO2=
201202012053 METAR KTMB 012053Z 10013KT 10SM SCT026 BKN038 BKN049 26/18
                        A3015 RMK AO2 SLP208 T02610183 56013=
201202011953 METAR KTMB 011953Z 11014KT 10SM FEW029 25/18 A3015 RMK AO2
                        SLP209 T02500178=
201202011853 METAR KTMB 011853Z 11011G18KT 10SM SCT029 BKN037 26/18 A3017
                        RMK AO2 SLP215 T02610178=
201202011753 METAR KTMB 011753Z 11013KT 10SM FEW030 SCT040 SCT055 25/17
                        A3019 RMK AO2 SLP222 T02500172 10272
                        20167 58017=
201202011653 METAR KTMB 011653Z 10013KT 10SM SCT028 SCT036 26/18 A3022
                        RMK AO2 SLP232 T02560178=
201202011553 METAR KTMB 011553Z 10013KT 10SM FEW028 BKN038 26/18 A3023
                        RMK AO2 SLP237 T02560183=
201202011530 SPECI KTMB 011530Z 10012G21KT 10SM SCT026 BKN034 25/18 A3023
                        RMK AO2=
201202011453 METAR KTMB 011453Z 09016G21KT 10SM BKN026 25/18 A3024 RMK
                        AO2 SLP238 T02500178 53005=
201202011446 SPECI KTMB 011446Z 10013KT 10SM BKN026 25/18 A3024 RMK AO2=
201202011353 METAR KTMB 011353Z 10013KT 10SM CLR 23/18 A3023 RMK AO2 SLP236
                        T02330183=
201202011253 METAR KTMB 011253Z 08007KT 10SM CLR 21/18 A3023 RMK AO2 SLP235
                        T02060178=
201202011153 METAR KTMB 011153Z 08006KT 10SM CLR 17/16 A3022 RMK AO2 SLP233
                        T01670161 10194 20167 53007=
201202011053 METAR KTMB 011053Z AUTO 09006KT 10SM CLR 17/16 A3021 RMK
                        AO2 SLP229 T01720161=
201202010953 METAR KTMB 010953Z AUTO 08006KT 10SM CLR 17/16 A3020 RMK
                        AO2 SLP227 T01720161=
201202010853 METAR KTMB 010853Z AUTO 08005KT 10SM CLR 17/16 A3020 RMK
                        AO2 SLP226 T01720156 56010=
201202010753 METAR KTMB 010753Z AUTO 08005KT 10SM FEW048 18/17 A3021 RMK
                        AO2 SLP228 T01830167=
201202010653 METAR KTMB 010653Z AUTO 08005KT 10SM FEW029 18/17 A3022 RMK
                        AO2 SLP232 T01830167=
201202010553 METAR KTMB 010553Z AUTO 08005KT 10SM CLR 19/17 A3023 RMK
                        AO2 SLP236 T01890167 10217 20189
                        58007=
201202010453 METAR KTMB 010453Z AUTO 09006KT 10SM SCT050 19/17 A3024 RMK
                        AO2 SLP239 T01940167 402610183=
201202010353 METAR KTMB 010353Z AUTO 07007KT 10SM FEW050 21/17 A3024 RMK
                        AO2 SLP241 T02060167=
201202010253 METAR KTMB 010253Z 08008KT 10SM CLR 21/17 A3025 RMK AO2 SLP243
                        T02060167 50005=
201202010153 METAR KTMB 010153Z 09009KT 10SM CLR 21/17 A3026 RMK AO2 SLP245
                        T02060167=
201202010053 METAR KTMB 010053Z 08010KT 10SM CLR 21/17 A3025 RMK AO2 SLP243
                        T02110172=
