##########################################################
# Query made at 12/28/2012 17:04:19 UTC
# Time interval: from 01/01/2012 00:00  to 01/31/2012 23:59  UTC
##########################################################

##########################################################
# KTMB, Miami, Kendall-Tamiami Executive Airport (United States)
# WMO index: -----
# Latitude 25-38-31N. Longitude 080-26-05W. Altitude 3 m.
##########################################################

###################################
#  METAR/SPECI from KTMB
###################################
201201312353 METAR KTMB 312353Z 09010KT 10SM FEW033 22/17 A3024 RMK AO2
                        SLP238 T02170172 10261 20217 53007=
201201312253 METAR KTMB 312253Z 09011KT 10SM SCT030 22/17 A3023 RMK AO2
                        SLP236 T02220172=
201201312153 METAR KTMB 312153Z 09014KT 10SM SCT028 BKN034 23/17 A3022
                        RMK AO2 SLP233 T02330172=
201201312053 METAR KTMB 312053Z 07013KT 10SM FEW029 24/17 A3022 RMK AO2
                        SLP231 T02390172 56015=
201201311953 METAR KTMB 311953Z 08014KT 10SM SCT031 BKN049 OVC060 25/17
                        A3022=
201201311939 SPECI KTMB 311939Z 08016KT 10SM BKN031 BKN041 OVC050 24/17
                        A3023 RMK AO2=
201201311918 SPECI KTMB 311918Z 09014KT 10SM BKN029 BKN042 OVC060 24/17
                        A3023 RMK AO2=
201201311853 METAR KTMB 311853Z 08015KT 10SM FEW045 SCT055 24/17 A3024
                        RMK AO2 SLP238 T02390172=
201201311753 METAR KTMB 311753Z 09015KT 10SM FEW036 SCT060 24/17 A3026
                        RMK AO2 SLP246 T02390172 10256 20183
                        58012=
201201311653 METAR KTMB 311653Z 08015G22KT 10SM SCT029 OVC038 24/17 A3029
                        RMK AO2 SLP256 T02440172=
201201311650 SPECI KTMB 311650Z 08017G22KT 10SM SCT029 BKN038 OVC049 24/17
                        A3029 RMK AO2=
201201311639 SPECI KTMB 311639Z 09018G21KT 10SM BKN029 BKN038 OVC046 24/17
                        A3029 RMK AO2=
201201311553 METAR KTMB 311553Z 07014G23KT 10SM FEW025 SCT055 25/17 A3030
                        RMK AO2 SLP258 T02500172=
201201311453 METAR KTMB 311453Z 08018G22KT 10SM SCT029 BKN050 24/17 A3030
                        RMK AO2 SLP260 T02440172 51011=
201201311353 METAR KTMB 311353Z 07012KT 10SM FEW025 SCT055 23/17 A3029
                        RMK AO2 SLP256 T02280167=
201201311253 METAR KTMB 311253Z 06007KT 10SM SCT050 21/16 A3028 RMK AO2
                        SLP254 T02110161=
201201311153 METAR KTMB 311153Z 08004KT 10SM CLR 19/16 A3027 RMK AO2 SLP249
                        T01940156 10217 20194 53011=
201201311053 METAR KTMB 311053Z 08009KT 10SM CLR 20/16 A3025 RMK AO2 SLP242
                        T02000161=
201201310953 METAR KTMB 310953Z 08010KT 10SM FEW060 21/16 A3024 RMK AO2
                        SLP238 T02110161=
201201310853 METAR KTMB 310853Z 09011KT 10SM OVC060 22/16 A3023 RMK AO2
                        SLP238 T02170161 55008=
201201310753 METAR KTMB 310753Z 07011KT 10SM OVC055 22/17 A3023 RMK AO2
                        SLP237 T02170167=
201201310653 METAR KTMB 310653Z 07013G21KT 10SM FEW025 SCT033 OVC050 22/17
                        A3025 RMK AO2 SLP242 T02170167=
201201310633 SPECI KTMB 310633Z 07013KT 10SM FEW027 SCT034 OVC055 22/17
                        A3025 RMK AO2=
201201310619 SPECI KTMB 310619Z 08015G22KT 10SM BKN027 BKN035 OVC055 22/17
                        A3025 RMK AO2=
201201310553 METAR KTMB 310553Z 07014KT 10SM FEW025 BKN035 OVC042 22/17
                        A3026 RMK AO2 SLP246 T02170167 10222
                        20217 58004=
201201310453 METAR KTMB 310453Z 06015G20KT 10SM OVC050 22/16 A3027 RMK
                        AO2 SLP249 T02220161 402610156=
201201310353 METAR KTMB 310353Z 06015KT 10SM OVC050 22/16 A3028 RMK AO2
                        SLP252 T02220156=
201201310253 METAR KTMB 310253Z 07014G18KT 10SM OVC050 22/16 A3027 RMK
                        AO2 SLP250 T02220156 51007=
201201310153 METAR KTMB 310153Z 07013KT 10SM BKN050 22/15 A3027 RMK AO2
                        SLP250 T02220150=
201201310053 METAR KTMB 310053Z 07016G22KT 10SM OVC050 22/15 A3026 RMK
                        AO2 SLP246 T02220150=
201201302353 METAR KTMB 302353Z 06011KT 10SM FEW040 22/15 A3025 RMK AO2
                        SLP243 T02170150 10261 20217 53005=
201201302253 METAR KTMB 302253Z 06015G21KT 10SM FEW070 22/14 A3024 RMK
                        AO2 SLP239 T02220144=
201201302153 METAR KTMB 302153Z 05016KT 10SM FEW041 SCT070 23/14 A3024
                        RMK AO2 SLP238 T02330139=
201201302053 METAR KTMB 302053Z 05017G23KT 10SM SCT040 24/13 A3024 RMK
                        AO2 SLP238 T02440133 55008=
201201301953 METAR KTMB 301953Z 07016G22KT 10SM FEW042 SCT120 25/13 A3023
                        RMK AO2 SLP237 T02500133=
201201301853 METAR KTMB 301853Z 04018G23KT 10SM SCT042 25/13 A3024 RMK
                        AO2 SLP241 T02500133=
201201301753 METAR KTMB 301753Z 09021G28KT 10SM BKN040 26/14 A3026 RMK
                        AO2 PK WND 09028/1750 SLP246 T02610144
                        10261 20161 58010=
201201301653 METAR KTMB 301653Z 09020G25KT 10SM BKN038 26/14 A3028 RMK
                        AO2 PK WND 08027/1619 SLP252 T02560144=
201201301553 METAR KTMB 301553Z 09018G22KT 10SM SCT042 25/14 A3029 RMK
                        AO2 SLP258 T02500139=
201201301453 METAR KTMB 301453Z 07015KT 10SM SCT040 23/14 A3029 RMK AO2
                        SLP256 T02330139 51018=
201201301353 METAR KTMB 301353Z 02006KT 10SM BKN034 19/16 A3028 RMK AO2
                        SLP251 T01940161=
201201301253 METAR KTMB 301253Z 01005KT 10SM OVC038 17/16 A3026 RMK AO2
                        SLP247 T01670161=
201201301153 METAR KTMB 301153Z 36005KT 10SM FEW040 16/15 A3024 RMK AO2
                        SLP238 T01610150 10183 20156 53011=
201201301053 METAR KTMB 301053Z AUTO 02004KT 10SM CLR 16/16 A3021 RMK
                        AO2 SLP230 T01610156=
201201300953 METAR KTMB 300953Z AUTO 36005KT 10SM CLR 17/16 A3021=
201201300853 METAR KTMB 300853Z AUTO 36005KT 10SM CLR 17/16 A3021=
201201300753 METAR KTMB 300753Z AUTO 35003KT 10SM FEW032 17/16 A3022=
201201300653 METAR KTMB 300653Z AUTO 02003KT 10SM CLR 18/16 A3023 RMK
                        AO2 SLP235 T01780161=
201201300553 METAR KTMB 300553Z AUTO 01004KT 10SM BKN095 18/17 A3023 RMK
                        AO2 SLP237 T01830167 10217 20183
                        50000=
201201300453 METAR KTMB 300453Z AUTO 01005KT 10SM BKN090 19/17 A3024 RMK
                        AO2 SLP240 T01940167 402560189=
201201300353 METAR KTMB 300353Z AUTO 01008KT 10SM BKN085 20/17 A3024 RMK
                        AO2 SLP240 T02000172=
201201300253 METAR KTMB 300253Z 03006KT 10SM OVC070 21/17 A3023=
201201300229 SPECI KTMB 300229Z 02008KT 10SM SCT028 OVC065 21/17 A3024
                        RMK AO2=
201201300211 SPECI KTMB 300211Z 36007KT 10SM BKN026 BKN049 OVC060 21/19
                        A3024 RMK AO2=
201201300153 METAR KTMB 300153Z 02006KT 10SM OVC055 21/18 A3023 RMK AO2
                        SLP237 T02110183=
201201300053 METAR KTMB 300053Z 03008KT 10SM FEW023 OVC049 21/19 A3022
                        RMK AO2 SLP232 T02110189=
201201300042 SPECI KTMB 300042Z 04014KT 10SM FEW023 SCT030 OVC049 21/19
                        A3021 RMK AO2=
201201300024 SPECI KTMB 300024Z 04013KT 10SM FEW023 BKN029 OVC045 22/18
                        A3021 RMK AO2=
201201292353 METAR KTMB 292353Z 05014KT 10SM CLR 22/18 A3020 RMK AO2 SLP225
                        T02170183 10256 20217 53012=
201201292253 METAR KTMB 292253Z 04013KT 10SM FEW025 BKN034 OVC060 23/18
                        A3018 RMK AO2 SLP218 T02330183=
201201292153 METAR KTMB 292153Z 04011KT 10SM FEW022 SCT033 24/18 A3017
                        RMK AO2 SLP214 T02390183=
201201292053 METAR KTMB 292053Z 05009KT 10SM FEW024 SCT029 SCT039 24/19
                        A3016 RMK AO2 SLP213 T02440189 56009=
201201291953 METAR KTMB 291953Z 05011KT 10SM SCT023 BKN032 OVC042 24/19
                        A3016 RMK AO2 SLP214 T02440189=
201201291938 SPECI KTMB 291938Z 05011KT 10SM FEW023 BKN039 OVC065 24/19
                        A3017 RMK AO2=
201201291927 SPECI KTMB 291927Z 05010KT 10SM SCT023 BKN029 OVC035 24/19
                        A3017 RMK AO2=
201201291917 SPECI KTMB 291917Z 05010KT 10SM SCT023 OVC033 24/19 A3017
                        RMK AO2=
201201291906 SPECI KTMB 291906Z 04012KT 10SM BKN023 BKN030 24/19 A3017
                        RMK AO2=
201201291853 METAR KTMB 291853Z 03010KT 10SM SCT023 SCT032 26/19 A3017
                        RMK AO2 SLP217 T02560189=
201201291837 SPECI KTMB 291837Z 05011KT 10SM FEW025 26/19 A3018 RMK AO2=
201201291809 SPECI KTMB 291809Z 05011KT 10SM BKN025 BKN037 25/19 A3019
                        RMK AO2=
201201291753 METAR KTMB 291753Z 05008KT 10SM SCT025 BKN036 25/19 A3019
                        RMK AO2 SLP223 T02500189 10256 20189
                        58013=
201201291735 SPECI KTMB 291735Z 06004KT 10SM BKN025 BKN036 25/19 A3020
                        RMK AO2=
201201291653 METAR KTMB 291653Z 04005KT 10SM FEW021 BKN035 24/18 A3022
                        RMK AO2 SLP233 T02440183=
201201291553 METAR KTMB 291553Z COR 04006KT 10SM BKN045 23/18 A3023 RMK
                        AO2 SLP235 T02330178=
201201291516 SPECI KTMB 291516Z 06008KT 10SM SCT015 SCT036 23/17 A3023
                        RMK AO2=
201201291453 METAR KTMB 291453Z 03007KT 10SM SCT015 OVC028 22/17 A3023
                        RMK AO2 SLP235 T02170167 53018=
201201291439 SPECI KTMB 291439Z 03007KT 10SM BKN015 BKN028 22/17 A3023
                        RMK AO2=
201201291353 METAR KTMB 291353Z 04008KT 10SM SCT030 21/17 A3020 RMK AO2
                        SLP225 T02060167=
201201291253 METAR KTMB 291253Z 01005KT 10SM CLR 20/17 A3019 RMK AO2 SLP222
                        T02000172=
201201291238 SPECI KTMB 291238Z 36005KT 10SM SCT026 19/17 A3018 RMK AO2=
201201291210 SPECI KTMB 291210Z 34003KT 10SM BKN022 BKN027 OVC034 19/17
                        A3018 RMK AO2=
201201291153 METAR KTMB 291153Z 33003KT 10SM SCT022 BKN030 19/17 A3017
                        RMK AO2 SLP217 T01890172 10211 20189
                        53016=
201201291053 METAR KTMB 291053Z AUTO 36004KT 10SM CLR 19/17 A3015 RMK
                        AO2 SLP209 T01890172=
201201290953 METAR KTMB 290953Z AUTO 35006KT 10SM CLR 19/18 A3014 RMK
                        AO2 SLP204 T01940178=
201201290853 METAR KTMB 290853Z AUTO 36004KT 10SM FEW011 SCT022 19/18
                        A3013 RMK AO2 SLP201 T01940183 58003=
201201290843 SPECI KTMB 290843Z AUTO 36005KT 10SM FEW011 BKN022 20/19
                        A3013 RMK AO2=
201201290753 METAR KTMB 290753Z AUTO 36006KT 10SM CLR 20/19 A3013 RMK
                        AO2 SLP201 T02000189=
201201290732 SPECI KTMB 290732Z AUTO 33004KT 8SM FEW006 20/19 A3013 RMK
                        AO2=
201201290708 SPECI KTMB 290708Z AUTO 34004KT 7SM BKN006 20/20 A3013 RMK
                        AO2=
201201290653 METAR KTMB 290653Z AUTO 30004KT 4SM BR SCT006 19/19 A3013
                        RMK AO2 SLP203 T01890189=
201201290651 SPECI KTMB 290651Z AUTO 30004KT 4SM BR SCT006 19/19 A3013
                        RMK AO2=
201201290553 METAR KTMB 290553Z AUTO 30003KT 7SM BKN110 19/19 A3014=
201201290453 METAR KTMB 290453Z AUTO 29004KT 10SM BKN110 20/19 A3015 RMK
                        AO2 SLP209 T02000189 402830172=
201201290353 METAR KTMB 290353Z AUTO 00000KT 10SM FEW018 SCT023 BKN043
                        22/20 A3015 RMK AO2 SLP209 T02170200=
201201290325 SPECI KTMB 290325Z 28003KT 9SM BKN016 BKN049 BKN065 21/20
                        A3016 RMK AO2=
201201290253 METAR KTMB 290253Z 27003KT 8SM OVC044 22/21 A3016 RMK AO2
                        SLP211 T02170206 51014=
201201290153 METAR KTMB 290153Z 00000KT 9SM FEW043 21/20 A3014 RMK AO2
                        SLP207 T02110200=
201201290053 METAR KTMB 290053Z 00000KT 10SM OVC060 23/21 A3013 RMK AO2
                        SLP202 T02280206=
201201282353 METAR KTMB 282353Z 11003KT 10SM FEW065 23/21 A3012 RMK AO2
                        SLP197 T02280206 10283 20228 52014=
201201282253 METAR KTMB 282253Z 12005KT 10SM OVC065 24/19 A3010 RMK AO2
                        SLP193 T02440194=
201201282153 METAR KTMB 282153Z 12007KT 10SM SCT046 BKN060 26/19 A3009
                        RMK AO2 SLP187 T02560189=
201201282053 METAR KTMB 282053Z VRB06KT 10SM FEW045 28/17 A3007 RMK AO2
                        SLP183 T02780172 56016=
201201281953 METAR KTMB 281953Z VRB03KT 10SM BKN065 28/17 A3008 RMK AO2
                        SLP185 T02780172=
201201281853 METAR KTMB 281853Z 29003KT 10SM SCT039 OVC060 27/18 A3010
                        RMK AO2 SLP190 T02670178=
201201281753 METAR KTMB 281753Z 00000KT 10SM SCT029 26/18 A3012=
201201281653 METAR KTMB 281653Z 00000KT 10SM SCT029 26/18 A3014 RMK AO2
                        SLP206 T02560183=
201201281553 METAR KTMB 281553Z 04003KT 10SM CLR 25/19 A3016 RMK AO2 SLP213
                        T02500189=
201201281453 METAR KTMB 281453Z 05006KT 10SM CLR 23/19 A3016 RMK AO2 SLP214
                        T02330189 51018=
201201281353 METAR KTMB 281353Z 02009KT 10SM SCT024 22/19 A3015 RMK AO2
                        SLP208 T02170189=
201201281300 SPECI KTMB 281300Z 01006KT 10SM SCT024 21/19 A3013 RMK AO2=
201201281253 METAR KTMB 281253Z 36005KT 10SM OVC024 21/19 A3013 RMK AO2
                        SLP202 T02060194=
201201281210 SPECI KTMB 281210Z 02004KT 10SM BKN024 BKN120 19/19 A3012
                        RMK AO2=
201201281153 METAR KTMB 281153Z 02003KT 10SM BKN120 19/19 A3011 RMK AO2
                        SLP196 T01940189 10206 20172 53012=
201201281053 METAR KTMB 281053Z AUTO 36007KT 10SM FEW011 SCT018 SCT024
                        20/19 A3009 RMK AO2 SLP190 T02000189=
201201281048 SPECI KTMB 281048Z AUTO 36006KT 10SM SCT011 SCT018 BKN024
                        20/19 A3009 RMK AO2=
201201281039 SPECI KTMB 281039Z AUTO 36007KT 10SM BKN011 BKN018 OVC032
                        20/19 A3009 RMK AO2=
201201281012 SPECI KTMB 281012Z AUTO 35009KT 9SM BKN009 OVC025 20/20 A3008
                        RMK AO2=
201201281004 SPECI KTMB 281004Z AUTO 34005KT 8SM SCT009 BKN025 OVC030
                        19/19 A3008 RMK AO2=
201201280953 METAR KTMB 280953Z AUTO 33004KT 8SM BKN025 OVC030 19/19 A3008
                        RMK AO2 SLP184 T01890189=
201201280938 SPECI KTMB 280938Z AUTO 33004KT 7SM OVC025 18/18 A3007 RMK
                        AO2=
201201280931 SPECI KTMB 280931Z AUTO 00000KT 2SM BR OVC025 18/18 A3007
                        RMK AO2=
201201280909 SPECI KTMB 280909Z AUTO 00000KT 3/4SM BR OVC025 17/17 A3007
                        RMK AO2=
201201280902 SPECI KTMB 280902Z AUTO 00000KT 2 1/2SM BR BKN022 OVC028
                        18/18 A3007 RMK AO2=
201201280853 METAR KTMB 280853Z AUTO 00000KT 1/2SM FG BKN016 OVC028 18/18
                        A3007 RMK AO2 SLP182 T01780178 53000=
201201280836 SPECI KTMB 280836Z AUTO 00000KT 1/4SM FG VV011 19/19 A3007
                        RMK AO2=
201201280806 SPECI KTMB 280806Z AUTO 00000KT 1/2SM FG VV011 18/18 A3006
                        RMK AO2=
201201280755 SPECI KTMB 280755Z AUTO 00000KT 1/2SM FG VV019 19/19 A3007
                        RMK AO2=
201201280753 METAR KTMB 280753Z AUTO 00000KT 1SM BR FEW025 19/19 A3007
                        RMK AO2 SLP180 T01940194=
201201280653 METAR KTMB 280653Z AUTO 00000KT 9SM CLR 21/20 A3007 RMK AO2
                        SLP180 T02060200=
201201280553 METAR KTMB 280553Z AUTO 00000KT 4SM BR CLR 19/19 A3007=
201201280453 METAR KTMB 280453Z 00000KT 10SM CLR 20/20 A3008 RMK AO2 SLP185
                        T02000200 402940194=
201201280416 SPECI KTMB 280416Z 26003KT 8SM SCT017 21/20 A3008 RMK AO2=
201201280409 SPECI KTMB 280409Z 26003KT 9SM BKN017 20/19 A3008 RMK AO2=
201201280353 METAR KTMB 280353Z 28004KT 10SM SCT017 20/19 A3008 RMK AO2
                        SLP184 T02000194=
201201280253 METAR KTMB 280253Z 00000KT 10SM CLR 21/20 A3007 RMK AO2 SLP182
                        T02110200 51013=
201201280153 METAR KTMB 280153Z 22003KT 10SM CLR 23/21 A3006 RMK AO2 SLP178
                        T02280206=
201201280053 METAR KTMB 280053Z 19005KT 10SM CLR 23/21 A3005 RMK AO2 SLP175
                        T02330206=
201201272353 METAR KTMB 272353Z 20005KT 10SM CLR 24/21 A3004 RMK AO2 SLP170
                        T02390206 10294 20239 51016=
201201272253 METAR KTMB 272253Z 20006KT 10SM CLR 25/19 A3002 RMK AO2 SLP166
                        T02500194=
201201272153 METAR KTMB 272153Z 21008KT 10SM BKN080 27/18 A3000 RMK AO2
                        SLP159 T02670183=
201201272053 METAR KTMB 272053Z 21008KT 10SM FEW037 SCT050 28/18 A2999
                        RMK AO2 SLP154 T02780178 55004=
201201271953 METAR KTMB 271953Z 20012KT 10SM CLR 28/18 A2998 RMK AO2 SLP151
                        T02830178=
201201271853 METAR KTMB 271853Z 19011G19KT 10SM CLR 29/17 A2998 RMK AO2
                        SLP150 T02940172=
201201271753 METAR KTMB 271753Z 20012G18KT 10SM CLR 29/18 A3000 RMK AO2
                        SLP158 T02890178 10294 20194 58032=
201201271653 METAR KTMB 271653Z 21009G16KT 10SM SCT040 29/18 A3004=
201201271553 METAR KTMB 271553Z 21009KT 10SM CLR 27/19 A3006 RMK AO2 SLP179
                        T02720189=
201201271453 METAR KTMB 271453Z 25009KT 10SM FEW070 26/21 A3009 RMK AO2
                        SLP189 T02560211 51010=
201201271353 METAR KTMB 271353Z 21006KT 10SM SCT090 BKN120 24/22 A3009
                        RMK AO2 SLP188 T02390217=
201201271253 METAR KTMB 271253Z 00000KT 10SM FEW018 BKN090 21/20 A3009
                        RMK AO2 SLP188 T02060200=
201201271153 METAR KTMB 271153Z 00000KT 10SM FEW020 BKN030 21/19 A3006
                        RMK AO2 SLP179 T02060194 10228 20200
                        53017=
201201271053 METAR KTMB 271053Z AUTO 18004KT 10SM FEW042 22/20 A3003 RMK
                        AO2 SLP168 T02170200 TSNO=
201201270953 METAR KTMB 270953Z AUTO 17004KT 10SM FEW032 21/19 A3001 RMK
                        AO2 SLP162 T02110194 TSNO=
201201270853 METAR KTMB 270853Z 17004KT 10SM FEW039 BKN050 22/20 A3001
                        RMK AO2 SLP162 T02170200 55001=
201201270753 METAR KTMB 270753Z 16003KT 10SM SCT034 22/20 A3000 RMK AO2
                        SLP159 T02220200=
201201270653 METAR KTMB 270653Z 16004KT 10SM FEW019 23/20 A3001 RMK AO2
                        SLP162 T02280200=
201201270553 METAR KTMB 270553Z 16006KT 10SM FEW020 SCT065 23/21 A3001
                        RMK AO2 SLP163 60000 T02280206 10233
                        20222 56007=
201201270550 SPECI KTMB 270550Z 16006KT 10SM FEW020 SCT070 23/20 A3001
                        RMK AO2=
201201270527 SPECI KTMB 270527Z 16006KT 10SM SCT024 BKN029 BKN070 23/21
                        A3001 RMK AO2=
201201270453 METAR KTMB 270453Z 15007KT 10SM CLR 23/20 A3002 RMK AO2 SLP165
                        T02280200 402720194=
201201270353 METAR KTMB 270353Z 15006KT 10SM CLR 23/20 A3003 RMK AO2 SLP170
                        T02280200=
201201270312 SPECI KTMB 270312Z 15007KT 10SM FEW022 SCT034 23/21 A3004
                        RMK AO2=
201201270253 METAR KTMB 270253Z 14006KT 10SM SCT022 BKN029 OVC038 23/21
                        A3004 RMK AO2 SLP171 60000 T02330206
                        50000=
201201270244 SPECI KTMB 270244Z 15006KT 10SM BKN022 BKN030 OVC080 23/21
                        A3004 RMK AO2=
201201270153 METAR KTMB 270153Z 00000KT 10SM FEW070 OVC080 23/19 A3005
                        RMK AO2 RAB28E37 SLP174 P0000 T02280194=
201201270053 METAR KTMB 270053Z 13007KT 10SM FEW018 BKN055 OVC075 23/20
                        A3004 RMK AO2 RAB39E51 SLP172 P0000
                        T02280200=
201201262353 METAR KTMB 262353Z 15005KT 10SM FEW027 SCT075 23/20 A3004
                        RMK AO2 SLP171 T02330200 10272 20233
                        53008=
201201262253 METAR KTMB 262253Z 15010G18KT 10SM CLR 24/19 A3002 RMK AO2
                        SLP166 T02390194=
201201262153 METAR KTMB 262153Z 14010G17KT 10SM FEW025 24/19 A3002 RMK
                        AO2 SLP164 T02440189=
201201262053 METAR KTMB 262053Z 14014KT 10SM SCT027 SCT033 26/19 A3002
                        RMK AO2 SLP163 T02560189 55015=
201201261953 METAR KTMB 261953Z 16013G21KT 10SM SCT032 27/18 A3001 RMK
                        AO2 SLP163 T02670183=
201201261853 METAR KTMB 261853Z 13015G23KT 10SM SCT033 SCT080 27/18 A3003
                        RMK AO2 SLP168 T02670178=
201201261753 METAR KTMB 261753Z 13015G20KT 10SM FEW032 SCT041 26/18 A3006
                        RMK AO2 SLP178 T02610183 10267 20211
                        58024=
201201261653 METAR KTMB 261653Z 15013G18KT 10SM FEW028 BKN042 BKN050 26/18
                        A3010 RMK AO2 SLP192 T02560178=
201201261553 METAR KTMB 261553Z 15011KT 10SM SCT028 BKN037 BKN050 26/18
                        A3013 RMK AO2 SLP201 T02560183=
201201261453 METAR KTMB 261453Z 14010G17KT 10SM SCT026 24/19 A3013 RMK
                        AO2 SLP201 T02440189 51009=
201201261353 METAR KTMB 261353Z 13008KT 10SM FEW026 24/19 A3012 RMK AO2
                        SLP199 T02390194=
201201261253 METAR KTMB 261253Z 12004KT 10SM CLR 22/19 A3012 RMK AO2 SLP198
                        T02220189=
201201261153 METAR KTMB 261153Z 12006KT 10SM CLR 21/19 A3010 RMK AO2 SLP193
                        T02110189 10217 20194 53007=
201201261053 METAR KTMB 261053Z AUTO 11005KT 10SM CLR 20/18 A3009 RMK
                        AO2 SLP189 T02000183 TSNO=
201201260953 METAR KTMB 260953Z AUTO 12004KT 10SM CLR 21/18 A3009 RMK
                        AO2 SLP187 T02060183 TSNO=
201201260853 METAR KTMB 260853Z AUTO 12005KT 10SM CLR 21/18 A3008 RMK
                        AO2 SLP185 T02060183 55001 TSNO=
201201260753 METAR KTMB 260753Z AUTO 13006KT 10SM FEW042 21/19 A3008 RMK
                        AO2 SLP184 T02110189 TSNO=
201201260653 METAR KTMB 260653Z 12005KT 10SM CLR 21/19 A3008 RMK AO2 SLP185
                        T02110189=
201201260553 METAR KTMB 260553Z 12007KT 10SM CLR 22/19 A3008 RMK AO2 SLP187
                        60000 T02170189 10222 20206 58009=
201201260453 METAR KTMB 260453Z 12007KT 10SM FEW023 22/19 A3009 RMK AO2
                        RAB07E17 SLP190 P0000 T02170194 402720167=
201201260353 METAR KTMB 260353Z 12007KT 10SM FEW028 SCT070 22/19 A3011
                        RMK AO2 SLP194 T02170194=
201201260253 METAR KTMB 260253Z 11007KT 10SM FEW030 22/19 A3011 RMK AO2
                        SLP196 60000 T02220194 58000=
201201260153 METAR KTMB 260153Z 09008KT 10SM FEW028 BKN055 OVC070 22/20
                        A3011 RMK AO2 RAB0056E23 SLP197 P0000
                        T02220200=
201201260146 SPECI KTMB 260146Z 09007KT 10SM FEW024 BKN050 OVC070 22/20
                        A3012 RMK AO2 RAB0056E23 P0000=
201201260125 SPECI KTMB 260125Z 10005KT 10SM FEW016 BKN023 OVC070 22/21
                        A3011 RMK AO2 RAB0056E23 P0000=
201201260053 METAR KTMB 260053Z 08007KT 10SM FEW023 22/19 A3012 RMK AO2
                        SLP198 T02170194=
201201252353 METAR KTMB 252353Z 09008KT 10SM CLR 22/19 A3011 RMK AO2 SLP196
                        T02170189 10267 20217 51004=
201201252253 METAR KTMB 252253Z 10009KT 10SM FEW024 SCT030 23/18 A3011
                        RMK AO2 SLP195 T02330183=
201201252153 METAR KTMB 252153Z 12009KT 10SM FEW028 24/18 A3011 RMK AO2
                        SLP194 T02390178=
201201252102 SPECI KTMB 252102Z 11011KT 10SM SCT030 25/18 A3010 RMK AO2=
201201252053 METAR KTMB 252053Z 10012G18KT 10SM BKN028 BKN039 26/18 A3010
                        RMK AO2 SLP192 T02610178 56010=
201201251953 METAR KTMB 251953Z 11013KT 10SM FEW030 SCT038 26/18 A3010
                        RMK AO2 SLP193 T02610178=
201201251853 METAR KTMB 251853Z 10012KT 10SM SCT028 27/18 A3012 RMK AO2
                        SLP197 T02670183=
201201251753 METAR KTMB 251753Z 10015G20KT 10SM FEW026 27/18 A3013 RMK
                        AO2 SLP202 T02670183 10272 20172
                        58018=
201201251653 METAR KTMB 251653Z 10014KT 10SM FEW026 SCT032 27/18 A3015
                        RMK AO2 SLP210 T02720183=
201201251624 SPECI KTMB 251624Z 11015KT 10SM FEW026 SCT030 26/18 A3017
                        RMK AO2=
201201251553 METAR KTMB 251553Z 11014KT 10SM BKN026 BKN033 26/19 A3018
                        RMK AO2 SLP218 T02560189=
201201251453 METAR KTMB 251453Z 10013KT 10SM FEW027 25/18 A3018 RMK AO2
                        SLP220 T02500183 51010=
201201251353 METAR KTMB 251353Z 11012KT 10SM CLR 23/19 A3017 RMK AO2 SLP217
                        T02330194=
201201251253 METAR KTMB 251253Z 07005KT 10SM CLR 19/19 A3017 RMK AO2 SLP214
                        T01890189=
201201251153 METAR KTMB 251153Z 09003KT 10SM FEW020 17/17 A3015 RMK AO2
                        SLP210 T01670167 10189 20167 53009=
201201251053 METAR KTMB 251053Z AUTO 06003KT 10SM CLR 17/17 A3014 RMK
                        AO2 SLP204 T01670167=
201201250953 METAR KTMB 250953Z AUTO 00000KT 10SM FEW080 18/18 A3013 RMK
                        AO2 SLP203 T01830183=
201201250853 METAR KTMB 250853Z AUTO 08004KT 10SM CLR 18/18 A3013 RMK
                        AO2 SLP201 T01780178 57007=
201201250753 METAR KTMB 250753Z AUTO 08003KT 10SM CLR 18/18 A3013 RMK
                        AO2 SLP203 T01830183=
201201250653 METAR KTMB 250653Z AUTO 05004KT 10SM FEW021 17/17 A3014 RMK
                        AO2 SLP207 T01720172=
201201250553 METAR KTMB 250553Z AUTO 00000KT 10SM CLR 18/18 A3015 RMK
                        AO2 SLP209 T01780178 10206 20178
                        58006=
201201250453 METAR KTMB 250453Z AUTO 10005KT 10SM CLR 18/18 A3016=
201201250353 METAR KTMB 250353Z 08004KT 10SM CLR 19/18 A3016 RMK AO2 SLP214
                        T01940183=
201201250253 METAR KTMB 250253Z 08006KT 10SM CLR 19/18 A3017 RMK AO2 SLP214
                        T01890183 51013=
201201250153 METAR KTMB 250153Z 09005KT 10SM CLR 18/18 A3016 RMK AO2 SLP212
                        T01830178=
201201250053 METAR KTMB 250053Z 10006KT 10SM CLR 19/18 A3015 RMK AO2 SLP207
                        T01890178=
201201242353 METAR KTMB 242353Z 10007KT 10SM CLR 21/18 A3013 RMK AO2 SLP202
                        T02060183 10267 20206 51008=
201201242253 METAR KTMB 242253Z 11008KT 10SM CLR 23/18 A3012 RMK AO2 SLP200
                        T02280183=
201201242153 SPECI KTMB 242153Z 10009KT 10SM FEW028 24/18 A3011 RMK AO2
                        SLP197 T02440183=
201201242053 METAR KTMB 242053Z 10012KT 10SM SCT027 26/18 A3010 RMK AO2
                        SLP193 T02560183 55010=
201201241953 METAR KTMB 241953Z COR 11013KT 10SM SCT030 26/18 A3010 RMK
                        AO2 SLP191 T02610178=
201201241853 METAR KTMB 241853Z 11009KT 10SM FEW029 SCT037 SCT045 26/18
                        A3011 RMK AO2 SLP197 T02560183=
201201241800 SPECI KTMB 241800Z 09011KT 10SM BKN030 BKN038 26/18 A3013
                        RMK AO2=
201201241753 METAR KTMB 241753Z 11012G16KT 10SM BKN029 BKN036 27/18 A3013
                        RMK AO2 SLP203 T02670183 10272 20172
                        58015=
201201241703 SPECI KTMB 241703Z 11012KT 10SM BKN029 BKN036 26/18 A3016
                        RMK AO2=
201201241653 METAR KTMB 241653Z 10010KT 10SM SCT029 BKN036 27/18 A3016=
201201241553 METAR KTMB 241553Z 10010KT 10SM FEW027 26/18 A3018 RMK AO2
                        SLP218 T02560178=
201201241453 METAR KTMB 241453Z 11010KT 10SM CLR 25/18 A3018 RMK AO2 SLP218
                        T02500183 53014=
201201241353 METAR KTMB 241353Z 10007KT 10SM CLR 23/19 A3016 RMK AO2 SLP212
                        T02330194=
201201241253 METAR KTMB 241253Z 09003KT 10SM FEW025 18/18 A3014 RMK AO2
                        SLP207 T01830183=
201201241235 SPECI KTMB 241235Z 00000KT 10SM FEW023 18/18 A3014 RMK AO2=
201201241227 SPECI KTMB 241227Z 00000KT 2SM BR CLR 17/17 A3014 RMK AO2=
201201241218 SPECI KTMB 241218Z 06003KT 1/2SM FG CLR 18/18 A3014 RMK AO2=
201201241205 SPECI KTMB 241205Z 00000KT 1 1/2SM BR CLR 17/17 A3014 RMK
                        AO2=
201201241153 METAR KTMB 241153Z 00000KT 4SM BR CLR 17/17 A3013 RMK AO2
                        SLP204 T01720172 10200 20161 53013=
201201241142 SPECI KTMB 241142Z 00000KT 1 1/4SM BR CLR 17/17 A3013 RMK
                        AO2=
201201241135 SPECI KTMB 241135Z 00000KT 3/4SM BR CLR 17/17 A3013 RMK AO2=
201201241125 SPECI KTMB 241125Z 00000KT 1 1/2SM BR CLR 17/17 A3013 RMK
                        AO2=
201201241116 SPECI KTMB 241116Z 00000KT 3SM BR CLR 17/17 A3013 RMK AO2=
201201241058 SPECI KTMB 241058Z 00000KT 1 3/4SM BR CLR 18/18 A3012 RMK
                        AO2=
201201241053 METAR KTMB 241053Z 00000KT 9SM CLR 18/18 A3012 RMK AO2 SLP199
                        T01830178=
201201240953 METAR KTMB 240953Z 00000KT 10SM FEW080 18/18 A3011 RMK AO2
                        SLP194 T01830183=
201201240853 METAR KTMB 240853Z 07003KT 10SM FEW024 17/17 A3010 RMK AO2
                        SLP191 T01720172 55002=
201201240753 METAR KTMB 240753Z 09005KT 10SM CLR 18/18 A3010=
201201240653 METAR KTMB 240653Z 06003KT 10SM CLR 17/17 A3010=
201201240644 SPECI KTMB 240644Z 05003KT 2SM BR CLR 18/18 A3011 RMK AO2
                        VIS 1V5=
201201240634 SPECI KTMB 240634Z 00000KT 1/2SM FG CLR 18/18 A3011 RMK AO2=
201201240626 SPECI KTMB 240626Z 00000KT 1 1/4SM BR CLR 18/18 A3011 RMK
                        AO2 VIS 1/4V5=
201201240553 METAR KTMB 240553Z 00000KT 10SM CLR 17/17 A3011 RMK AO2 SLP194
                        T01720172 10211 20167 58001=
201201240453 METAR KTMB 240453Z 00000KT 10SM CLR 18/17 A3011 RMK AO2 SLP195
                        T01780167 402610161=
201201240353 METAR KTMB 240353Z 00000KT 10SM CLR 19/19 A3011 RMK AO2 SLP196
                        T01940189=
201201240253 METAR KTMB 240253Z 09004KT 10SM CLR 18/18 A3011 RMK AO2 SLP195
                        T01830178 50006=
201201240153 METAR KTMB 240153Z 09004KT 10SM CLR 19/18 A3011 RMK AO2 SLP196
                        T01940183=
201201240053 METAR KTMB 240053Z 07004KT 10SM CLR 21/18 A3011 RMK AO2 SLP194
                        T02060183=
201201232353 METAR KTMB 232353Z 11005KT 10SM CLR 21/18 A3009 RMK AO2 SLP189
                        T02060178 10261 20206 52004=
201201232253 METAR KTMB 232253Z 10006KT 10SM CLR 22/17 A3009 RMK AO2 SLP188
                        T02220172=
201201232153 METAR KTMB 232153Z 11009KT 10SM CLR 24/17 A3008 RMK AO2 SLP187
                        T02440172=
201201232053 METAR KTMB 232053Z 12009KT 10SM CLR 25/17 A3008 RMK AO2 SLP185
                        T02500172 55005=
201201231953 METAR KTMB 231953Z 11010KT 10SM BKN031 BKN036 BKN044 26/17
                        A3008 RMK AO2 SLP185 T02610172=
201201231853 METAR KTMB 231853Z 11010KT 10SM FEW034 BKN060 24/17 A3008
                        RMK AO2 SLP186 T02440172=
201201231753 METAR KTMB 231753Z 12013G20KT 10SM SCT029 SCT038 25/18 A3010
                        RMK AO2 SLP191 T02500178 10261 20167
                        58014=
201201231653 METAR KTMB 231653Z 11014G18KT 10SM SCT027 BKN037 25/18 A3012
                        RMK AO2 SLP198 T02500178=
201201231553 METAR KTMB 231553Z 12010G16KT 10SM BKN027 26/18 A3014 RMK
                        AO2 SLP204 T02560183=
201201231453 METAR KTMB 231453Z 13013G19KT 10SM FEW025 23/18 A3014 RMK
                        AO2 SLP204 T02330183 53009=
201201231353 METAR KTMB 231353Z 11009KT 10SM CLR 23/19 A3012 RMK AO2 SLP198
                        T02280189=
201201231253 METAR KTMB 231253Z 09004KT 10SM CLR 18/18 A3011 RMK AO2 SLP197
                        T01780178=
201201231153 METAR KTMB 231153Z 00000KT 9SM CLR 18/18 A3011 RMK AO2 SLP195
                        60000 T01780178 10194 20161 51002=
201201231144 SPECI KTMB 231144Z AUTO 11003KT 2 1/2SM BR CLR 18/18 A3011
                        RMK AO2=
201201231053 METAR KTMB 231053Z AUTO 10003KT 10SM CLR 18/18 A3011 RMK
                        AO2 SLP194 T01830183=
201201230953 METAR KTMB 230953Z AUTO 09003KT 5SM BR CLR 18/18 A3010 RMK
                        AO2 SLP193 T01830183=
201201230853 METAR KTMB 230853Z AUTO 00000KT 10SM CLR 19/18 A3011 RMK
                        AO2 SLP194 60000 T01890183 55002=
201201230753 METAR KTMB 230753Z AUTO 00000KT 10SM SCT025 BKN047 OVC075
                        19/18 A3010 RMK AO2 RAB27E46 SLP192
                        P0000 T01890183=
201201230724 SPECI KTMB 230724Z AUTO 00000KT 4SM BR FEW024 BKN075 17/17
                        A3011 RMK AO2=
201201230715 SPECI KTMB 230715Z AUTO 00000KT 1 1/2SM BR FEW020 SCT070
                        17/17 A3011 RMK AO2=
201201230653 METAR KTMB 230653Z AUTO 00000KT 8SM CLR 18/17 A3010 RMK AO2
                        SLP193 T01780172=
201201230553 METAR KTMB 230553Z AUTO 00000KT 6SM BR CLR 18/17 A3011 RMK
                        AO2 SLP196 T01780172 10206 20167
                        57005=
201201230453 METAR KTMB 230453Z AUTO 08003KT 10SM FEW049 18/17 A3012 RMK
                        AO2 SLP198 T01830172 402720133=
201201230353 METAR KTMB 230353Z 07003KT 10SM CLR 19/17 A3012 RMK AO2 SLP199
                        T01890167=
201201230253 METAR KTMB 230253Z 00000KT 10SM CLR 18/17 A3013 RMK AO2 SLP201
                        T01830167 50004=
201201230153 METAR KTMB 230153Z 09005KT 10SM CLR 18/17 A3013 RMK AO2 SLP201
                        T01830167=
201201230053 METAR KTMB 230053Z 08006KT 10SM CLR 18/16 A3012 RMK AO2 SLP199
                        T01780156=
201201222353 METAR KTMB 222353Z 08006KT 10SM CLR 21/17 A3011 RMK AO2 SLP197
                        T02060167 10272 20206 53012=
201201222253 METAR KTMB 222253Z 08011KT 10SM CLR 23/17 A3009 RMK AO2 SLP190
                        T02280172=
201201222153 METAR KTMB 222153Z 10010KT 10SM CLR 24/17 A3009 RMK AO2 SLP188
                        T02390167=
201201222053 METAR KTMB 222053Z 12012KT 10SM FEW033 SCT043 24/17 A3008
                        RMK AO2 SLP185 T02440172 55007=
201201221953 METAR KTMB 221953Z 10014KT 10SM FEW035 SCT055 BKN065 24/17
                        A3008 RMK AO2 SLP184 T02440172=
201201221853 METAR KTMB 221853Z 12009KT 10SM CLR 27/16 A3008 RMK AO2 SLP186
                        T02670161=
201201221753 METAR KTMB 221753Z 12007KT 10SM CLR 27/15 A3010 RMK AO2 SLP193
                        T02670150 10267 20139 58014=
201201221653 METAR KTMB 221653Z 12008KT 10SM FEW039 26/15 A3013 RMK AO2
                        SLP200 T02610150=
201201221553 METAR KTMB 221553Z 07007KT 10SM CLR 25/14 A3014 RMK AO2 SLP206
                        T02500144=
201201221453 METAR KTMB 221453Z 03005KT 10SM CLR 23/14 A3014 RMK AO2 SLP206
                        T02330144 53013=
201201221353 METAR KTMB 221353Z 04004KT 10SM CLR 21/14 A3013 RMK AO2 SLP202
                        T02110144=
201201221253 METAR KTMB 221253Z 00000KT 10SM CLR 16/14 A3012=
201201221153 METAR KTMB 221153Z 00000KT 10SM CLR 14/13 A3011 RMK AO2 SLP194
                        T01440133 10183 20133 53004=
201201221053 METAR KTMB 221053Z AUTO 31003KT 10SM CLR 13/13 A3009 RMK
                        AO2 SLP188 T01330133=
201201220953 METAR KTMB 220953Z AUTO 00000KT 10SM CLR 14/13 A3008 RMK
                        AO2 SLP185 T01440133=
201201220853 METAR KTMB 220853Z AUTO 00000KT 10SM CLR 17/14 A3009 RMK
                        AO2 SLP190 T01670144 58008=
201201220753 METAR KTMB 220753Z AUTO 01006KT 10SM CLR 18/14 A3010 RMK
                        AO2 SLP191 T01780144=
201201220653 METAR KTMB 220653Z AUTO 01006KT 10SM CLR 18/15 A3012 RMK
                        AO2 SLP197 T01780150=
201201220553 METAR KTMB 220553Z AUTO 00000KT 10SM OVC055 18/16 A3012 RMK
                        AO2 SLP198 T01830161 10211 20161
                        51002=
201201220453 METAR KTMB 220453Z AUTO 00000KT 10SM CLR 18/17 A3011 RMK
                        AO2 SLP196 T01780167 402610117=
201201220353 METAR KTMB 220353Z 00000KT 9SM CLR 16/16 A3012 RMK AO2 SLP198
                        T01610161=
201201220253 METAR KTMB 220253Z 00000KT 10SM CLR 18/17 A3011 RMK AO2 SLP196
                        T01780167 51010=
201201220153 METAR KTMB 220153Z 00000KT 10SM CLR 20/17 A3011 RMK AO2 SLP195
                        T02000172=
201201220053 METAR KTMB 220053Z 00000KT 10SM CLR 21/17 A3010 RMK AO2 SLP192
                        T02060172=
201201212353 METAR KTMB 212353Z 15004KT 10SM CLR 21/17 A3008 RMK AO2 SLP186
                        T02110167 10261 20211 53004=
201201212253 METAR KTMB 212253Z 14006KT 10SM CLR 23/16 A3007 RMK AO2 SLP182
                        T02280161=
201201212153 METAR KTMB 212153Z 21004KT 10SM FEW055 25/12 A3007 RMK AO2
                        SLP181 T02500117=
201201212053 METAR KTMB 212053Z 18007KT 10SM FEW055 26/12 A3007 RMK AO2
                        SLP181 T02610122 56008=
201201211953 METAR KTMB 211953Z 16006KT 10SM FEW050 25/13 A3007 RMK AO2
                        SLP181 T02500128=
201201211853 METAR KTMB 211853Z 13005KT 10SM SCT046 26/15 A3008 RMK AO2
                        SLP185 T02560150=
201201211753 METAR KTMB 211753Z 17009KT 10SM BKN046 26/14 A3009 RMK AO2
                        SLP190 T02560139 10261 20117 58026=
201201211653 METAR KTMB 211653Z 00000KT 10SM BKN042 24/13 A3013 RMK AO2
                        SLP202 T02440133=
201201211553 METAR KTMB 211553Z 17004KT 10SM OVC038 24/14 A3016 RMK AO2
                        SLP213 T02390144=
201201211453 METAR KTMB 211453Z 17005KT 10SM CLR 23/14 A3017 RMK AO2 SLP216
                        T02280144 51013=
201201211353 METAR KTMB 211353Z 00000KT 10SM FEW034 19/16 A3016 RMK AO2
                        SLP213 T01940161=
201201211253 METAR KTMB 211253Z 00000KT 10SM CLR 13/12 A3014 RMK AO2 SLP207
                        T01330122=
201201211153 METAR KTMB 211153Z 00000KT 10SM FEW035 13/13 A3013 RMK AO2
                        SLP204 T01280128 10172 20128 53005=
201201211053 METAR KTMB 211053Z AUTO 00000KT 10SM SCT035 13/13 A3013 RMK
                        AO2 SLP202 T01280128=
201201210953 METAR KTMB 210953Z AUTO 00000KT 10SM FEW034 15/13 A3012 RMK
                        AO2 SLP197 T01500133=
201201210853 METAR KTMB 210853Z AUTO 00000KT 10SM BKN036 16/13 A3012 RMK
                        AO2 SLP199 T01610133 58013=
201201210753 METAR KTMB 210753Z 12004KT 10SM SCT036 17/14 A3013 RMK AO2
                        SLP203 T01670139=
201201210653 METAR KTMB 210653Z 00000KT 10SM BKN036 15/13 A3016 RMK AO2
                        SLP213 T01500133=
201201210553 METAR KTMB 210553Z 00000KT 10SM FEW034 14/13 A3016 RMK AO2
                        SLP211 T01440128 10178 20139 57004=
201201210453 METAR KTMB 210453Z 11003KT 10SM CLR 17/14 A3016 RMK AO2 SLP213
                        T01720139 402500106=
201201210353 METAR KTMB 210353Z 09004KT 10SM CLR 17/13 A3016 RMK AO2 SLP214
                        T01720133=
201201210253 METAR KTMB 210253Z 08005KT 10SM CLR 16/13 A3017 RMK AO2 SLP216
                        T01560128 52001=
201201210153 METAR KTMB 210153Z 10005KT 10SM CLR 16/13 A3017 RMK AO2 SLP214
                        T01610128=
201201210053 METAR KTMB 210053Z 09006KT 10SM CLR 17/13 A3017 RMK AO2 SLP216
                        T01670128=
201201202353 METAR KTMB 202353Z 09005KT 10SM CLR 18/14 A3017 RMK AO2 SLP214
                        T01780139 10250 20178 51008=
201201202253 METAR KTMB 202253Z AUTO 10007KT 10SM SCT037 21/14 A3016 RMK
                        AO2 SLP213 T02060139 TSNO=
201201202153 METAR KTMB 202153Z 09010KT 10SM SCT040 23/14 A3015 RMK AO2
                        SLP210 T02280139=
201201202053 METAR KTMB 202053Z 10012KT 10SM FEW035 23/13 A3014 RMK AO2
                        SLP206 T02330128 55007=
201201201953 METAR KTMB 201953Z 12013KT 10SM CLR 24/12 A3014 RMK AO2 SLP205
                        T02440122=
201201201853 METAR KTMB 201853Z 09012G18KT 10SM SCT044 24/13 A3015 RMK
                        AO2 SLP209 T02390128=
201201201753 METAR KTMB 201753Z 12012KT 10SM SCT042 24/13 A3016 RMK AO2
                        SLP213 60000 T02440133 10250 20117
                        58014=
201201201653 METAR KTMB 201653Z 10011G18KT 10SM SCT042 24/13 A3019 RMK
                        AO2 RAE01 SLP221 P0000 T02390133=
201201201553 METAR KTMB 201553Z 11012KT 10SM -RA BKN040 24/13 A3020 RMK
                        AO2 RAB03 SLP227 P0000 T02390128=
201201201453 METAR KTMB 201453Z 09007KT 10SM CLR 23/13 A3020 RMK AO2 SLP227
                        T02280133 51017=
201201201353 METAR KTMB 201353Z 05003KT 10SM CLR 19/14 A3019 RMK AO2 SLP221
                        T01890144=
201201201253 METAR KTMB 201253Z 00000KT 10SM CLR 13/12 A3017 RMK AO2 SLP217
                        T01280117=
201201201153 METAR KTMB 201153Z 05003KT 10SM CLR 12/11 A3015 RMK AO2 SLP210
                        T01220111 10144 20106 53014=
201201201053 METAR KTMB 201053Z 00000KT 10SM CLR 12/12 A3014 RMK AO2 SLP206
                        T01170117=
201201200953 METAR KTMB 200953Z 00000KT 10SM CLR 13/12 A3012 RMK AO2 SLP200
                        T01330117=
201201200853 METAR KTMB 200853Z 00000KT 10SM CLR 13/12 A3011 RMK AO2 SLP196
                        T01330117 56009=
201201200753 METAR KTMB 200753Z 00000KT 10SM CLR 12/12 A3011 RMK AO2 SLP197
                        T01220117=
201201200653 METAR KTMB 200653Z 00000KT 10SM CLR 13/12 A3013 RMK AO2 SLP203
                        T01280122=
201201200553 METAR KTMB 200553Z 00000KT 10SM CLR 13/12 A3014 RMK AO2 SLP206
                        T01330122 10189 20122 50003=
201201200453 METAR KTMB 200453Z 00000KT 10SM CLR 13/12 A3014 RMK AO2 SLP206
                        T01330117 402560133=
201201200353 METAR KTMB 200353Z 00000KT 10SM CLR 15/11 A3014=
201201200253 METAR KTMB 200253Z 00000KT 10SM CLR 16/12 A3013 RMK AO2 SLP203
                        T01610117 50005=
201201200153 METAR KTMB 200153Z 00000KT 10SM CLR 16/12 A3014 RMK AO2 SLP205
                        T01610117=
201201200053 METAR KTMB 200053Z 00000KT 10SM CLR 16/11 A3013 RMK AO2 SLP200
                        T01610106=
201201192353 METAR KTMB 192353Z 06005KT 10SM CLR 18/11 A3012 RMK AO2 SLP198
                        T01780106 10256 20178 51014=
201201192253 METAR KTMB 192253Z 08006KT 10SM CLR 21/11 A3010 RMK AO2 SLP192
                        T02060106=
201201192153 METAR KTMB 192153Z 06010KT 10SM CLR 23/10 A3009 RMK AO2 SLP190
                        T02280100=
201201192053 METAR KTMB 192053Z 07008KT 10SM CLR 24/12 A3008 RMK AO2 SLP184
                        T02440117 56008=
201201191953 METAR KTMB 191953Z 02007KT 10SM CLR 25/08 A3008 RMK AO2 SLP184
                        T02500078=
201201191853 METAR KTMB 191853Z 36008KT 10SM CLR 24/08 A3009 RMK AO2 SLP188
                        T02440078=
201201191753 METAR KTMB 191753Z 36012KT 10SM CLR 24/11 A3010 RMK AO2 SLP193
                        T02390111 10244 20139 58013=
201201191653 METAR KTMB 191653Z 02012KT 10SM CLR 23/15 A3012 RMK AO2 SLP200
                        T02330150=
201201191553 METAR KTMB 191553Z 34008KT 10SM SCT030 22/17 A3014 RMK AO2
                        SLP207 T02170172=
201201191453 METAR KTMB 191453Z 36008KT 10SM OVC010 19/17 A3014 RMK AO2
                        SLP205 T01890167 51022=
201201191431 SPECI KTMB 191431Z 01010KT 10SM BKN005 18/17 A3014 RMK AO2=
201201191410 SPECI KTMB 191410Z 36009KT 9SM BKN010 18/16 A3013 RMK AO2=
201201191400 SPECI KTMB 191400Z 35010KT 9SM BKN006 17/16 A3013 RMK AO2=
201201191353 METAR KTMB 191353Z 01012KT 9SM BKN010 17/16 A3012 RMK AO2
                        SLP200 T01720161=
201201191346 SPECI KTMB 191346Z 02012KT 10SM SCT007 18/17 A3012 RMK AO2=
201201191253 METAR KTMB 191253Z 34004KT 7SM OVC080 16/16 A3010 RMK AO2
                        SLP191 T01560156=
201201191153 METAR KTMB 191153Z 00000KT 7SM SCT004 14/14 A3008 RMK AO2
                        SLP184 T01390139 10172 20133 53018=
201201191132 SPECI KTMB 191132Z 00000KT 7SM CLR 14/14 A3006 RMK AO2=
201201191106 SPECI KTMB 191106Z AUTO 30003KT 1 1/4SM BR CLR 13/13 A3006
                        RMK AO2=
201201191053 METAR KTMB 191053Z AUTO 30003KT 4SM BR CLR 14/14 A3005 RMK
                        AO2 SLP176 T01440144=
201201190953 METAR KTMB 190953Z AUTO 00000KT 7SM CLR 14/14 A3002 RMK AO2
                        SLP166 T01440144=
201201190950 SPECI KTMB 190950Z AUTO 00000KT 2 1/2SM BR FEW005 14/14 A3002
                        RMK AO2=
201201190948 SPECI KTMB 190948Z AUTO 00000KT 1SM BR VV005 14/14 A3003
                        RMK AO2=
201201190942 SPECI KTMB 190942Z AUTO 00000KT 1/4SM FG VV005 14/14 A3003
                        RMK AO2=
201201190917 SPECI KTMB 190917Z AUTO 00000KT 1/2SM FG VV006 14/14 A3002
                        RMK AO2=
201201190911 SPECI KTMB 190911Z AUTO 00000KT 1 1/4SM BR CLR 15/15 A3003
                        RMK AO2=
201201190905 SPECI KTMB 190905Z AUTO 00000KT 5SM BR CLR 15/15 A3003 RMK
                        AO2=
201201190853 METAR KTMB 190853Z AUTO 00000KT 2 1/2SM BR FEW005 14/14 A3002
                        RMK AO2 VIS 1V4 SLP166 T01440144
                        56017=
201201190848 SPECI KTMB 190848Z AUTO 00000KT 1 1/2SM BR FEW005 14/14 A3003
                        RMK AO2=
201201190835 SPECI KTMB 190835Z AUTO 00000KT 3/4SM BR VV005 14/14 A3003
                        RMK AO2=
201201190829 SPECI KTMB 190829Z AUTO 00000KT 1 3/4SM BR CLR 14/14 A3003
                        RMK AO2 VIS 1V5=
201201190821 SPECI KTMB 190821Z AUTO 00000KT 2SM BR CLR 14/14 A3003 RMK
                        AO2=
201201190753 METAR KTMB 190753Z AUTO 00000KT 10SM CLR 16/15 A3003 RMK
                        AO2 SLP168 T01560150=
201201190653 METAR KTMB 190653Z AUTO 00000KT 10SM CLR 17/16 A3005 RMK
                        AO2 SLP174 T01670161=
201201190553 METAR KTMB 190553Z AUTO 28004KT 10SM CLR 16/16 A3007 RMK
                        AO2 SLP183 T01610161 10194 20161
                        53005=
201201190453 METAR KTMB 190453Z AUTO 26004KT 10SM CLR 17/16 A3006 RMK
                        AO2 SLP179 T01720161 402720128=
201201190353 METAR KTMB 190353Z AUTO 20005KT 10SM CLR 18/16 A3004 RMK
                        AO2 SLP172 T01780156=
201201190253 METAR KTMB 190253Z 21003KT 10SM CLR 18/16 A3006 RMK AO2 SLP178
                        T01830161 58007=
201201190153 METAR KTMB 190153Z 26003KT 10SM CLR 17/15 A3008 RMK AO2 SLP186
                        T01720150=
201201190053 METAR KTMB 190053Z 26005KT 10SM CLR 18/15 A3008 RMK AO2 SLP186
                        T01830150=
201201182353 METAR KTMB 182353Z 27007KT 10SM CLR 19/15 A3008 RMK AO2 SLP185
                        T01890150 10272 20189 53009=
201201182253 METAR KTMB 182253Z 27008KT 10SM CLR 22/14 A3007 RMK AO2 SLP183
                        T02170144=
201201182153 METAR KTMB 182153Z 28009KT 10SM CLR 25/14 A3006 RMK AO2 SLP178
                        T02500144=
201201182053 METAR KTMB 182053Z 27014KT 10SM FEW050 26/14 A3005 RMK AO2
                        SLP176 T02610139 56014=
201201181953 METAR KTMB 181953Z 25010KT 10SM FEW035 27/13 A3005 RMK AO2
                        SLP176 T02720128=
201201181853 METAR KTMB 181853Z 27008KT 10SM CLR 27/14 A3007 RMK AO2 SLP183
                        T02720139=
201201181753 METAR KTMB 181753Z 28009KT 10SM SCT050 27/14 A3009 RMK AO2
                        SLP190 T02670139 10272 20128 58021=
201201181653 METAR KTMB 181653Z 00000KT 10SM FEW045 26/14 A3013 RMK AO2
                        SLP203 T02560144=
201201181553 METAR KTMB 181553Z 21006KT 10SM CLR 24/14 A3015 RMK AO2 SLP208
                        T02440144=
201201181453 METAR KTMB 181453Z 20005KT 10SM CLR 23/17 A3016 RMK AO2 SLP211
                        T02330167 51009=
201201181353 METAR KTMB 181353Z 00000KT 10SM CLR 20/17 A3015 RMK AO2 SLP210
                        T02000172=
201201181253 METAR KTMB 181253Z 00000KT 7SM SCT030 15/15 A3014 RMK AO2
                        SLP205 T01500150=
201201181240 SPECI KTMB 181240Z 00000KT 7SM BKN028 13/13 A3014 RMK AO2=
201201181218 SPECI KTMB 181218Z 00000KT 1/4SM FG BKN024 13/13 A3013 RMK
                        AO2=
201201181153 METAR KTMB 181153Z 00000KT 3/4SM BR SCT022 13/13 A3013 RMK
                        AO2 SLP202 T01330128 10167 20128
                        53009=
201201181148 SPECI KTMB 181148Z 00000KT 3/4SM BR FEW022 13/13 A3013 RMK
                        AO2=
201201181117 SPECI KTMB 181117Z AUTO 00000KT 3SM BR FEW021 14/14 A3012
                        RMK AO2=
201201181106 SPECI KTMB 181106Z AUTO 00000KT 1 1/2SM BR CLR 13/13 A3012
                        RMK AO2=
201201181053 METAR KTMB 181053Z AUTO 00000KT 4SM BR CLR 14/13 A3012 RMK
                        AO2 PRESRR SLP198 T01390133=
201201180953 METAR KTMB 180953Z AUTO 00000KT 10SM FEW046 16/14 A3010 RMK
                        AO2 SLP190 T01560144=
201201180853 METAR KTMB 180853Z AUTO 00000KT 10SM FEW036 SCT043 BKN049
                        15/14 A3010 RMK AO2 SLP193 T01500144
                        58017=
201201180753 METAR KTMB 180753Z AUTO 00000KT 10SM CLR 16/15 A3012 RMK
                        AO2 SLP199 T01560150=
201201180653 METAR KTMB 180653Z AUTO 00000KT 10SM FEW026 BKN048 16/15
                        A3015 RMK AO2 SLP210 T01610150=
201201180553 METAR KTMB 180553Z AUTO 00000KT 10SM CLR 14/14 A3015 RMK
                        AO2 SLP210 T01440139 10206 20133
                        58019=
201201180453 METAR KTMB 180453Z AUTO 00000KT 10SM CLR 16/14 A3018 RMK
                        AO2 SLP218 T01610144 402560111=
201201180353 METAR KTMB 180353Z 00000KT 10SM CLR 17/14 A3019 RMK AO2 SLP222
                        T01670144=
201201180253 METAR KTMB 180253Z 00000KT 10SM CLR 18/15 A3021 RMK AO2 SLP229
                        T01830150 50002=
201201180153 METAR KTMB 180153Z 00000KT 10SM CLR 16/14 A3022 RMK AO2 SLP232
                        T01610144=
201201180053 METAR KTMB 180053Z 00000KT 10SM CLR 18/14 A3021 RMK AO2 SLP229
                        T01780144=
201201172353 METAR KTMB 172353Z 09003KT 10SM CLR 19/15 A3020=
201201172253 METAR KTMB 172253Z 12004KT 10SM CLR 20/14 A3020 RMK AO2 SLP226
                        T02000144=
201201172153 METAR KTMB 172153Z 14008KT 10SM CLR 23/15 A3018 RMK AO2 SLP220
                        T02330150=
201201172053 METAR KTMB 172053Z 14010KT 10SM SCT040 24/14 A3018 RMK AO2
                        SLP219 T02390144 56015=
201201171953 METAR KTMB 171953Z 16007KT 10SM BKN040 24/14 A3019 RMK AO2
                        SLP223 T02440144=
201201171853 METAR KTMB 171853Z 13006KT 10SM SCT038 25/14 A3021 RMK AO2
                        SLP228 T02500139=
201201171753 METAR KTMB 171753Z 14008G16KT 10SM SCT038 24/14 A3022 RMK
                        AO2 SLP233 T02440144 10256 20111
                        58029=
201201171653 METAR KTMB 171653Z 12010KT 10SM FEW038 24/14 A3026 RMK AO2
                        SLP245 T02390144=
201201171553 METAR KTMB 171553Z 10012KT 10SM CLR 24/14 A3030 RMK AO2 SLP259
                        T02440144=
201201171453 METAR KTMB 171453Z 12010KT 10SM CLR 23/14 A3031 RMK AO2 SLP262
                        T02330144 53010=
201201171353 METAR KTMB 171353Z 00000KT 10SM CLR 21/15 A3029 RMK AO2 SLP258
                        T02060150=
201201171253 METAR KTMB 171253Z 00000KT 9SM CLR 13/12 A3028 RMK AO2 SLP254
                        T01280117 $=
201201171153 METAR KTMB 171153Z AUTO 00000KT 10SM CLR 12/11 A3028 RMK
                        AO2 SLP252 T01170106 10183 20111
                        50006 $=
201201171053 METAR KTMB 171053Z 00000KT 10SM CLR 14/12 A3028 RMK AO2 SLP252
                        T01390122 $=
201201170953 METAR KTMB 170953Z 00000KT 10SM CLR 16/12 A3026 RMK AO2 SLP247
                        T01610122 $=
201201170853 METAR KTMB 170853Z 12006KT 10SM CLR 18/13 A3026 RMK AO2 SLP246
                        T01780128 58016 $=
201201170753 METAR KTMB 170753Z 10008KT 10SM SCT043 18/13 A3028 RMK AO2
                        SLP252 T01830128 $=
201201170653 METAR KTMB 170653Z 11006KT 10SM BKN047 18/12 A3030 RMK AO2
                        SLP258 T01830122 $=
201201170553 METAR KTMB 170553Z 09008KT 10SM BKN045 18/12 A3031 RMK AO2
                        SLP261 T01780117 10194 20156 58013
                        $=
201201170453 METAR KTMB 170453Z 10006KT 10SM CLR 17/12 A3033 RMK AO2 SLP268
                        T01720117 402330111 $=
201201170353 METAR KTMB 170353Z 12007KT 10SM BKN050 18/13 A3034 RMK AO2
                        SLP271 T01830128 $=
201201170253 METAR KTMB 170253Z 11005KT 10SM CLR 17/11 A3034 RMK AO2 SLP274
                        T01670111 52005 $=
201201170153 METAR KTMB 170153Z 11008KT 10SM SCT049 18/12 A3034 RMK AO2
                        SLP273 T01830117 $=
201201170053 METAR KTMB 170053Z 09008KT 10SM FEW042 OVC049 19/13 A3033
                        RMK AO2 SLP270 T01940128 $=
201201162353 METAR KTMB 162353Z 09007KT 10SM SCT049 18/11 A3033 RMK AO2
                        SLP269 T01830106 10228 20183 51004
                        $=
201201162253 METAR KTMB 162253Z 09010KT 10SM FEW040 OVC049 20/12 A3033
                        RMK AO2 SLP269 T02000117 $=
201201162153 METAR KTMB 162153Z 08013KT 10SM OVC049 21/12 A3032 RMK AO2
                        SLP267 T02110122 $=
201201162053 METAR KTMB 162053Z 08015KT 10SM SCT038 OVC048 21/13 A3032
                        RMK AO2 SLP265 T02110128 55011 $=
201201161953 METAR KTMB 161953Z 07013G21KT 10SM BKN044 22/12 A3031 RMK
                        AO2 SLP263 T02170117 $=
201201161853 METAR KTMB 161853Z 09016G21KT 10SM SCT042 22/12 A3033 RMK
                        AO2 SLP269 T02170117 $=
201201161753 METAR KTMB 161753Z 08020G25KT 10SM FEW039 SCT046 23/13 A3035
                        RMK AO2 PK WND 08026/1701 SLP276
                        T02330128 10233 20111 58022 $=
201201161653 METAR KTMB 161653Z 07015G24KT 10SM BKN045 22/12 A3039 RMK
                        AO2 SLP289 T02220117 $=
201201161553 METAR KTMB 161553Z 07015G22KT 10SM OVC048 21/12 A3041 RMK
                        AO2 SLP297 T02110117 $=
201201161453 METAR KTMB 161453Z 03004KT 10SM BKN046 19/12 A3041 RMK AO2
                        SLP298 T01940117 51018 $=
201201161353 METAR KTMB 161353Z 02005KT 10SM OVC044 16/11 A3040 RMK AO2
                        SLP293 T01610111 $=
201201161253 METAR KTMB 161253Z 02004KT 10SM BKN042 15/11 A3038 RMK AO2
                        SLP286 T01500106 $=
201201161153 METAR KTMB 161153Z 00000KT 10SM BKN042 12/09 A3036 RMK AO2
                        SLP280 T01170094 10150 20117 53007
                        $=
201201161053 METAR KTMB 161053Z AUTO 00000KT 10SM BKN040 12/09 A3035 RMK
                        AO2 SLP276 T01220089 $=
201201160953 METAR KTMB 160953Z AUTO 02005KT 10SM FEW042 12/08 A3034 RMK
                        AO2 SLP272 T01220078 $=
201201160853 METAR KTMB 160853Z AUTO 01009KT 10SM CLR 13/07 A3034 RMK
                        AO2 SLP273 T01330067 56017 $=
201201160753 METAR KTMB 160753Z AUTO 01008KT 10SM CLR 13/06 A3035 RMK
                        AO2 SLP276 T01330056 $=
201201160653 METAR KTMB 160653Z AUTO 01008KT 10SM CLR 14/06 A3037 RMK
                        AO2 SLP283 T01390061 $=
201201160553 METAR KTMB 160553Z AUTO 02008KT 10SM CLR 15/06 A3039 RMK
                        AO2 SLP289 T01500061 10172 20133
                        58006 $=
201201160453 METAR KTMB 160453Z AUTO 02008KT 10SM CLR 15/06 A3040 RMK
                        AO2 SLP292 T01500061 402280061 $=
201201160353 METAR KTMB 160353Z AUTO 02006KT 10SM CLR 14/06 A3040 RMK
                        AO2 SLP294 T01390056 $=
201201160253 METAR KTMB 160253Z 01009KT 10SM CLR 15/06 A3040 RMK AO2 SLP295
                        T01500061 50009 $=
201201160153 METAR KTMB 160153Z 01006KT 10SM CLR 14/05 A3041 RMK AO2 SLP295
                        T01440050 $=
201201160053 METAR KTMB 160053Z 03006KT 10SM CLR 16/04 A3039 RMK AO2 SLP291
                        T01560044 $=
201201152353 METAR KTMB 152353Z 05011KT 10SM CLR 17/02 A3038 RMK AO2 SLP286
                        T01720022 10228 20172 51014 $=
201201152253 METAR KTMB 152253Z 05011KT 10SM CLR 19/03 A3036 RMK AO2 SLP281
                        T01890028 $=
201201152153 METAR KTMB 152153Z 08009KT 10SM CLR 21/05 A3035 RMK AO2 SLP277
                        T02110050 $=
201201152053 METAR KTMB 152053Z 04006KT 10SM CLR 22/03 A3034 RMK AO2 SLP272
                        T02220028 56016 $=
201201151953 METAR KTMB 151953Z 01008KT 10SM CLR 22/M02 A3034 RMK AO2
                        SLP272 T02221022 $=
201201151853 METAR KTMB 151853Z 04006G14KT 10SM CLR 22/M04 A3036 RMK AO2
                        SLP278 T02171039 $=
201201151753 METAR KTMB 151753Z 36012G16KT 10SM CLR 21/M03 A3038 RMK AO2
                        SLP288 T02111028 10211 20061 58018
                        $=
201201151653 METAR KTMB 151653Z 01011KT 10SM CLR 20/M03 A3042 RMK AO2
                        SLP299 T02001033 $=
201201151553 METAR KTMB 151553Z 02012KT 10SM CLR 18/M05 A3043 RMK AO2
                        SLP305 T01831050 $=
201201151453 METAR KTMB 151453Z 01011KT 10SM CLR 16/M03 A3044 RMK AO2
                        SLP306 T01611033 53022 $=
201201151353 METAR KTMB 151353Z 01006KT 10SM CLR 13/02 A3041 RMK AO2 SLP298
                        T01330017 $=
201201151253 METAR KTMB 151253Z 36005KT 10SM CLR 09/02 A3039 RMK AO2 SLP290
                        T00940022 $=
201201151153 METAR KTMB 151153Z 00000KT 10SM CLR 07/02 A3037 RMK AO2 SLP285
                        T00720017 10122 20067 53013=
201201151053 METAR KTMB 151053Z AUTO 35004KT 10SM CLR 08/02 A3036 RMK
                        AO2 SLP279 T00780017=
201201150953 METAR KTMB 150953Z AUTO 36009KT 10SM CLR 11/02 A3034 RMK
                        AO2 SLP272 T01060022=
201201150853 METAR KTMB 150853Z AUTO 01005KT 10SM CLR 10/03 A3033 RMK
                        AO2 SLP271 T01000028 56002=
201201150753 METAR KTMB 150753Z AUTO 01007KT 10SM CLR 11/02 A3033 RMK
                        AO2 SLP271 T01110017=
201201150653 METAR KTMB 150653Z AUTO 01008KT 10SM CLR 12/02 A3033 RMK
                        AO2 SLP271 T01220017=
201201150553 METAR KTMB 150553Z AUTO 01009KT 10SM CLR 12/02 A3034 RMK
                        AO2 SLP273 T01220022 10139 20111
                        50001=
201201150453 METAR KTMB 150453Z AUTO 36011KT 10SM CLR 13/05 A3034 RMK
                        AO2 SLP274 T01280050 401890111=
201201150353 METAR KTMB 150353Z AUTO 36008KT 10SM CLR 13/08 A3035 RMK
                        AO2 SLP275 T01280083=
201201150253 METAR KTMB 150253Z 34003KT 10SM CLR 13/09 A3034 RMK AO2 SLP272
                        T01280089 53013=
201201150153 METAR KTMB 150153Z 36009KT 10SM CLR 14/08 A3032 RMK AO2 SLP266
                        T01390083=
201201150053 METAR KTMB 150053Z 35008KT 10SM CLR 14/05 A3031 RMK AO2 SLP263
                        T01390050=
201201142353 METAR KTMB 142353Z 35005KT 10SM CLR 13/03 A3030 RMK AO2 SLP259
                        T01280033 10189 20128 51013=
201201142253 METAR KTMB 142253Z 36007KT 10SM BKN095 14/03 A3029 RMK AO2
                        SLP256 T01440028=
201201142153 METAR KTMB 142153Z 01010KT 10SM SCT100 16/03 A3027=
201201142053 METAR KTMB 142053Z 36008KT 10SM BKN110 17/02 A3026 RMK AO2
                        SLP247 T01670022 55001=
201201141953 METAR KTMB 141953Z 35011KT 10SM CLR 18/M01 A3025 RMK AO2
                        SLP243 T01831006=
201201141853 METAR KTMB 141853Z 01010KT 10SM CLR 18/M02 A3025 RMK AO2
                        SLP244 T01781022=
201201141753 METAR KTMB 141753Z 01013KT 10SM CLR 17/01 A3027 RMK AO2 SLP248
                        T01720011 10178 20122 58017=
201201141653 METAR KTMB 141653Z 36011KT 10SM CLR 18/02 A3029 RMK AO2 SLP256
                        T01780017=
201201141553 METAR KTMB 141553Z 36012KT 10SM FEW120 16/03 A3031 RMK AO2
                        SLP263 T01560028=
201201141453 METAR KTMB 141453Z 01012KT 10SM CLR 14/04 A3032 RMK AO2 SLP265
                        T01440044 51021=
201201141353 METAR KTMB 141353Z 36017G21KT 10SM FEW065 13/07 A3030 RMK
                        AO2 SLP258 T01330067=
201201141253 METAR KTMB 141253Z 36008KT 10SM CLR 12/07 A3028 RMK AO2 SLP252
                        T01220067=
201201141153 METAR KTMB 141153Z 35012G19KT 10SM CLR 12/06 A3025 RMK AO2
                        SLP244 T01220056 10183 20122 51020=
201201141053 METAR KTMB 141053Z AUTO 35011KT 10SM OVC120 13/05 A3024 RMK
                        AO2 SLP238 T01280050=
201201140953 METAR KTMB 140953Z 35014KT 10SM OVC120 13/07 A3021 RMK AO2
                        SLP231 T01330067=
201201140853 METAR KTMB 140853Z 36011KT 10SM FEW070 OVC120 14/06 A3019
                        RMK AO2 SLP224 T01440061 51005=
201201140753 METAR KTMB 140753Z 35014KT 10SM FEW070 OVC110 15/06 A3019
                        RMK AO2 SLP223 T01500061=
201201140653 METAR KTMB 140653Z 35011KT 10SM SCT090 OVC110 16/09 A3019
                        RMK AO2 SLP222 T01610089=
201201140553 METAR KTMB 140553Z 33010KT 10SM BKN085 OVC110 18/11 A3018
                        RMK AO2 SLP219 T01830106 10206 20172
                        53006=
201201140453 METAR KTMB 140453Z 33005KT 10SM OVC090 18/12 A3017 RMK AO2
                        SLP215 T01830122 402440172=
201201140353 METAR KTMB 140353Z 35003KT 10SM BKN080 17/14 A3016=
201201140253 METAR KTMB 140253Z 36003KT 10SM CLR 18/15 A3016 RMK AO2 SLP213
                        T01780150 53007=
201201140153 METAR KTMB 140153Z 00000KT 10SM OVC080 19/17 A3016 RMK AO2
                        SLP211 T01890167=
201201140053 METAR KTMB 140053Z 35003KT 10SM OVC080 20/16 A3014 RMK AO2
                        SLP206 T02000156=
201201132353 METAR KTMB 132353Z 00000KT 10SM OVC080 21/16 A3014 RMK AO2
                        SLP206 T02060156 10233 20200 51016=
201201132253 METAR KTMB 132253Z 36004KT 10SM OVC080 21/16 A3013 RMK AO2
                        SLP201 T02110156=
201201132153 METAR KTMB 132153Z 36006KT 10SM FEW055 BKN080 BKN090 22/16
                        A3011 RMK AO2 SLP196 T02220161=
201201132053 METAR KTMB 132053Z 00000KT 10SM BKN049 BKN070 OVC100 23/16
                        A3009 RMK AO2 SLP190 T02280161 55004=
201201131953 METAR KTMB 131953Z 34008KT 10SM SCT048 OVC060 22/16 A3009
                        RMK AO2 SLP189 T02220161=
201201131853 METAR KTMB 131853Z 35009KT 10SM OVC047 22/16 A3010 RMK AO2
                        SLP191 T02220161=
201201131753 METAR KTMB 131753Z 35007KT 10SM FEW021 BKN070 23/17 A3011
                        RMK AO2 SLP194 T02330167 10244 20183
                        58011=
201201131718 SPECI KTMB 131718Z 31006KT 10SM SCT019 OVC075 23/17 A3012
                        RMK AO2=
201201131700 SPECI KTMB 131700Z 35009KT 10SM BKN019 BKN024 OVC080 22/17
                        A3012 RMK AO2=
201201131653 METAR KTMB 131653Z 35008KT 10SM FEW021 22/17 A3012 RMK AO2
                        SLP200 T02220172=
201201131553 METAR KTMB 131553Z 31011KT 10SM FEW021 23/18 A3013 RMK AO2
                        SLP201 T02330178=
201201131453 METAR KTMB 131453Z 29003KT 10SM OVC090 22/18 A3014 RMK AO2
                        SLP206 T02220183 53020=
201201131353 METAR KTMB 131353Z 00000KT 10SM BKN080 21/18 A3012 RMK AO2
                        SLP200 T02060183=
201201131253 METAR KTMB 131253Z 00000KT 10SM CLR 19/18 A3009 RMK AO2 SLP190
                        T01890178=
201201131153 METAR KTMB 131153Z 28003KT 10SM BKN080 OVC100 18/18 A3008
                        RMK AO2 RAB1055E29 SLP186 P0000 60000
                        T01830178 10200 20183 51018=
201201131053 METAR KTMB 131053Z 00000KT 10SM BKN060 OVC095 18/18 A3007
                        RMK AO2 SLP181 T01830178=
201201130953 METAR KTMB 130953Z 29003KT 10SM BKN070 OVC095 18/18 A3005
                        RMK AO2 SLP176 T01830178=
201201130900 METAR KTMB NIL=
201201130753 METAR KTMB 130753Z 00000KT 7SM BKN070 OVC090 19/18 A3003
                        RMK AO2 RAB24E38 SLP168 P0000 T01890178=
201201130653 METAR KTMB 130653Z 25004KT 9SM OVC070 20/17 A3004 RMK AO2
                        SLP173 T02000172=
201201130553 METAR KTMB 130553Z 26003KT 10SM BKN075 OVC090 19/17 A3002
                        RMK AO2 SLP165 T01940172 10228 20189
                        51004=
201201130453 METAR KTMB 130453Z 00000KT 10SM BKN075 OVC120 20/17 A3002
                        RMK AO2 SLP164 T02000172 402500161=
201201130353 METAR KTMB 130353Z 00000KT 10SM BKN100 BKN110 20/17 A3002
                        RMK AO2 SLP164 T02000172=
201201130253 METAR KTMB 130253Z 28003KT 10SM FEW075 BKN120 20/17 A3001
                        RMK AO2 LTG DSNT E AND SE SLP162
                        T02000172 51013=
201201130153 METAR KTMB 130153Z 26005KT 10SM FEW075 BKN090 OVC110 22/18
                        A3000 RMK AO2 SLP158 T02170183=
201201130053 METAR KTMB 130053Z 23004KT 10SM BKN075 22/19 A2999 RMK AO2
                        SLP154 T02220194=
201201122353 METAR KTMB 122353Z 23003KT 10SM BKN070 BKN090 23/20 A2997
                        RMK AO2 SLP148 T02280200 10250 20228
                        53016=
201201122253 METAR KTMB 122253Z 19003KT 10SM FEW030 OVC085 23/19 A2996
                        RMK AO2 SLP143 T02330194=
201201122153 METAR KTMB 122153Z 15006KT 10SM FEW028 OVC090 24/19 A2994
                        RMK AO2 SLP137 T02440189=
201201122053 METAR KTMB 122053Z 18004KT 10SM SCT030 BKN075 BKN090 25/18
                        A2993 RMK AO2 SLP133 T02500183 58004=
201201121953 METAR KTMB 121953Z 23005KT 10SM FEW035 OVC070 24/18 A2993
                        RMK AO2 SLP136 T02440183=
201201121853 METAR KTMB 121853Z VRB04KT 10SM BKN038 OVC075 24/18 A2994
                        RMK AO2 SLP138 T02440183=
201201121811 SPECI KTMB 121811Z 00000KT 10SM SCT026 OVC038 24/18 A2994
                        RMK AO2=
201201121753 METAR KTMB 121753Z 00000KT 10SM OVC026 24/18 A2994 RMK AO2
                        SLP137 T02390178 10244 20172 58023=
201201121653 METAR KTMB 121653Z 00000KT 10SM OVC026 23/18 A2997 RMK AO2
                        SLP147 T02330178=
201201121638 SPECI KTMB 121638Z 00000KT 10SM BKN026 OVC033 23/17 A2997
                        RMK AO2=
201201121553 METAR KTMB 121553Z 06003KT 10SM BKN035 23/17 A2999 RMK AO2
                        SLP155 T02280167=
201201121511 SPECI KTMB 121511Z 01004KT 10SM BKN035 23/17 A3001 RMK AO2=
201201121453 METAR KTMB 121453Z 03003KT 10SM BKN022 OVC028 22/17 A3001
                        RMK AO2 SLP160 T02220172 51025=
201201121406 SPECI KTMB 121406Z 00000KT 10SM BKN022 21/18 A2999 RMK AO2=
201201121353 METAR KTMB 121353Z 00000KT 10SM FEW022 21/19 A2998 RMK AO2
                        SLP153 T02060194=
201201121253 METAR KTMB 121253Z 00000KT 4SM BR FEW017 19/19 A2996 RMK
                        AO2 SLP144 T01890189=
201201121247 SPECI KTMB 121247Z 00000KT 3SM BR FEW017 SCT120 18/18 A2996
                        RMK AO2=
201201121244 SPECI KTMB 121244Z 00000KT 1SM BR FEW017 BKN120 18/18 A2996
                        RMK AO2=
201201121226 SPECI KTMB 121226Z 00000KT 1/4SM FG SCT015 BKN120 18/18 A2995
                        RMK AO2=
201201121153 METAR KTMB 121153Z 00000KT 1/4SM FG BKN013 BKN120 18/18 A2993
                        RMK AO2 SLP135 T01780178 10194 20161
                        51016=
201201121148 SPECI KTMB 121148Z AUTO 00000KT 1/4SM FG SCT013 BKN120 18/18
                        A2993 RMK AO2=
201201121137 SPECI KTMB 121137Z AUTO 00000KT 3/4SM BR FEW013 SCT120 19/18
                        A2993 RMK AO2=
201201121129 SPECI KTMB 121129Z AUTO 00000KT 2 1/2SM BR SCT011 SCT120
                        19/19 A2992 RMK AO2=
201201121113 SPECI KTMB 121113Z AUTO 00000KT 8SM OVC011 19/19 A2992 RMK
                        AO2=
201201121053 METAR KTMB 121053Z AUTO 24003KT 8SM OVC009 19/19 A2991 RMK
                        AO2 CIG 006V010 SLP129 T01890189=
201201121029 SPECI KTMB 121029Z AUTO 26004KT 7SM BKN009 18/18 A2991 RMK
                        AO2=
201201121019 SPECI KTMB 121019Z AUTO 28004KT 7SM SCT007 18/18 A2990 RMK
                        AO2=
201201120953 METAR KTMB 120953Z AUTO 30005KT 6SM BR CLR 18/18 A2989 RMK
                        AO2 SLP119 T01780178=
201201120853 METAR KTMB 120853Z AUTO 29006KT 7SM CLR 18/18 A2988 RMK AO2
                        SLP118 T01830183 58003=
201201120753 METAR KTMB 120753Z AUTO 28007KT 5SM BR CLR 18/18 A2989 RMK
                        AO2 SLP120 T01830178=
201201120653 METAR KTMB 120653Z AUTO 29006KT 6SM BR CLR 17/17 A2989 RMK
                        AO2 SLP122 T01720167=
201201120553 METAR KTMB 120553Z AUTO 28005KT 6SM BR CLR 16/16 A2989 RMK
                        AO2 SLP122 T01610161 10206 20161
                        51003=
201201120453 METAR KTMB 120453Z AUTO 29004KT 7SM CLR 17/17 A2989 RMK AO2
                        SLP121 T01720172 402440133=
201201120353 METAR KTMB 120353Z AUTO 29004KT 8SM CLR 18/18 A2989 RMK AO2
                        SLP121 T01830178=
201201120253 METAR KTMB 120253Z 31006KT 10SM CLR 20/19 A2988 RMK AO2 SLP119
                        T02000189 53002=
201201120153 METAR KTMB 120153Z 32006KT 10SM CLR 20/19 A2988 RMK AO2 SLP117
                        T02000189=
201201120053 METAR KTMB 120053Z 32003KT 10SM CLR 19/18 A2987 RMK AO2 SLP114
                        T01890183=
201201112353 METAR KTMB 112353Z 00000KT 10SM CLR 20/19 A2988 RMK AO2 SLP117
                        60000 T02000189 10239 20200 53016=
201201112253 METAR KTMB 112253Z 00000KT 10SM CLR 22/19 A2985 RMK AO2 SLP108
                        T02170189=
201201112153 METAR KTMB 112153Z 20005KT 10SM CLR 23/19 A2985 RMK AO2 SLP106
                        T02330194=
201201112053 METAR KTMB 112053Z 20011G18KT 10SM CLR 24/19 A2983 RMK AO2
                        PK WND 21027/1955 SLP101 60000 T02390194
                        55014=
201201111953 METAR KTMB 111953Z 19017G26KT 10SM CLR 23/19 A2980 RMK AO2
                        PK WND 19028/1935 SLP090 T02330194=
201201111853 METAR KTMB 111853Z 19011G22KT 10SM FEW019 SCT120 23/19 A2984
                        RMK AO2 RAB41E51 SLP105 P0000 T02330194=
201201111753 METAR KTMB 111753Z 19013G21KT 10SM CLR 24/18 A2987 RMK AO2
                        SLP116 T02390183 10244 20150 58036=
201201111653 METAR KTMB 111653Z 19013G19KT 10SM CLR 24/18 A2993 RMK AO2
                        SLP133 T02390178=
201201111553 METAR KTMB 111553Z 17013G21KT 10SM CLR 24/18 A2996 RMK AO2
                        SLP143 T02440178=
201201111453 METAR KTMB 111453Z 18009KT 10SM BKN150 OVC250 23/18 A2998
                        RMK AO2 SLP152 T02330183 53004 $=
201201111353 METAR KTMB 111353Z COR 17006KT 10SM FEW030 SCT150 OVC250
                        22/18 A2996 RMK AO2 SLP144 T02170183
                        $=
201201111253 METAR KTMB 111253Z 15005KT 10SM CLR 19/17 A2995 RMK AO2 SLP142
                        T01890172 $=
201201111153 METAR KTMB 111153Z 00000KT 10SM CLR 15/14 A2997 RMK AO2 SLP148
                        7//// T01500139 10172 20133 53006
                        $=
201201111053 METAR KTMB 111053Z AUTO 00000KT 10SM CLR 16/16 A2996 RMK
                        AO2 SLP144 T01560156=
201201110953 METAR KTMB 110953Z AUTO 13003KT 10SM CLR 15/14 A2994 RMK
                        AO2 SLP139 T01500144=
201201110919 SPECI KTMB 110919Z AUTO 00000KT 3SM BR CLR 14/13 A2995 RMK
                        AO2=
201201110910 SPECI KTMB 110910Z AUTO 00000KT 1 3/4SM BR CLR 14/14 A2995
                        RMK AO2 VIS 1/2V5=
201201110853 METAR KTMB 110853Z AUTO 00000KT 9SM CLR 16/15 A2995 RMK AO2
                        SLP141 T01560150 56013=
201201110846 SPECI KTMB 110846Z AUTO 00000KT 4SM BR CLR 15/14 A2995 RMK
                        AO2=
201201110839 SPECI KTMB 110839Z AUTO 00000KT 2 1/2SM BR CLR 14/14 A2995
                        RMK AO2 VIS 1V4=
201201110833 SPECI KTMB 110833Z AUTO 00000KT 1/2SM FG CLR 14/14 A2996
                        RMK AO2=
201201110825 SPECI KTMB 110825Z AUTO 00000KT 1 1/2SM BR CLR 14/14 A2996
                        RMK AO2=
201201110820 SPECI KTMB 110820Z AUTO 00000KT 4SM BR CLR 14/14 A2996 RMK
                        AO2=
201201110816 SPECI KTMB 110816Z AUTO 00000KT 1 1/2SM BR CLR 14/14 A2996
                        RMK AO2=
201201110753 METAR KTMB 110753Z AUTO 00000KT 10SM CLR 15/14 A2996 RMK
                        AO2 SLP144 T01500144=
201201110653 METAR KTMB 110653Z AUTO 00000KT 10SM CLR 16/16 A2997 RMK
                        AO2 SLP148 T01560156=
201201110553 METAR KTMB 110553Z AUTO 00000KT 9SM CLR 16/15 A2999 RMK AO2
                        SLP155 T01560150 10194 20150 58012=
201201110453 METAR KTMB 110453Z AUTO 00000KT 10SM CLR 15/14 A3002 RMK
                        AO2 SLP163 T01500139 402610139=
201201110353 METAR KTMB 110353Z 15003KT 10SM CLR 19/16 A3003 RMK AO2 SLP167
                        T01890161=
201201110253 METAR KTMB 110253Z 13004KT 10SM CLR 19/16 A3002 RMK AO2 SLP166
                        T01890161 51002=
201201110153 METAR KTMB 110153Z 12004KT 10SM CLR 19/17 A3002 RMK AO2 SLP166
                        T01890167=
201201110053 METAR KTMB 110053Z 10005KT 10SM CLR 18/16 A3003 RMK AO2 SLP170
                        T01780156=
201201102353 METAR KTMB 102353Z 10005KT 10SM CLR 18/15 A3002 RMK AO2 SLP164
                        6//// T01830150 10261 20183 53008=
201201102253 METAR KTMB 102253Z 11006KT 10SM SCT035 21/15 A3001 RMK AO2
                        SLP160 T02110150=
201201102153 METAR KTMB 102153Z 10011KT 10SM SCT035 23/16 A2999 RMK AO2
                        SLP154 T02330161=
201201102053 METAR KTMB 102053Z 12010KT 10SM 25/15 A2999 RMK AO2 SLP156
                        6//// T02500150=
201201101953 METAR KTMB 101953Z AUTO 14009KT 10SM 25/15 A3000 RMK AO2
                        SLP158 T02500150 TSNO=
201201101853 METAR KTMB 101853Z 10010G14KT 10SM 26/16 A3001=
201201101753 METAR KTMB 101753Z 11009G15KT 080V150 10SM 24/15 A3004 RMK
                        AO2 SLP171 T02440150 10261 20144
                        58029 $=
201201101653 METAR KTMB 101653Z 11007KT 10SM FEW038 25/15 A3007 RMK AO2
                        SLP183 T02500150=
201201101553 METAR KTMB 101553Z 12008G15KT 10SM FEW036 24/16 A3011 RMK
                        AO2 SLP196 T02390156=
201201101453 METAR KTMB 101453Z 11007KT 10SM CLR 23/16 A3013 RMK AO2 SLP200
                        T02280161 53013=
201201101353 METAR KTMB 101353Z 04004KT 10SM FEW030 21/17 A3011 RMK AO2
                        SLP195 T02110172=
201201101253 METAR KTMB 101253Z VRB04KT 10SM CLR 16/14 A3009 RMK AO2 SLP189
                        T01560144=
201201101153 METAR KTMB 101153Z 00000KT 10SM FEW035 SCT048 15/14 A3009
                        RMK AO2 SLP188 T01500139 10156 20139
                        53002=
201201101053 METAR KTMB 101053Z 00000KT 10SM FEW037 14/14 A3008=
201201100953 METAR KTMB 100953Z 00000KT 10SM CLR 15/14 A3008 RMK AO2 SLP184
                        T01500144=
201201100853 METAR KTMB 100853Z 00000KT 10SM FEW035 15/14 A3008 RMK AO2
                        SLP186 T01500139 58005=
201201100753 METAR KTMB 100753Z 00000KT 10SM FEW035 14/14 A3008 RMK AO2
                        SLP187 T01440144=
201201100653 METAR KTMB 100653Z 00000KT 10SM CLR 14/14 A3009 RMK AO2 SLP190
                        T01440139=
201201100553 METAR KTMB 100553Z 00000KT 10SM CLR 16/15 A3010 RMK AO2 SLP190
                        T01560150 10194 20144 58012=
201201100453 METAR KTMB 100453Z 00000KT 10SM CLR 15/14 A3012 RMK AO2 SLP197
                        T01500139 402560139=
201201100353 METAR KTMB 100353Z 00000KT 10SM CLR 16/14 A3012 RMK AO2 SLP199
                        T01560139=
201201100253 METAR KTMB 100253Z 00000KT 10SM CLR 16/14 A3013 RMK AO2 SLP202
                        T01560139 53005=
201201100153 METAR KTMB 100153Z 00000KT 10SM CLR 18/16 A3012 RMK AO2 SLP199
                        T01780156=
201201100053 METAR KTMB 100053Z 00000KT 10SM CLR 17/14 A3012 RMK AO2 SLP200
                        T01720144=
201201092353 METAR KTMB 092353Z 11004KT 10SM CLR 19/15 A3012 RMK AO2 SLP197
                        T01940150 10256 20178 54000=
201201092253 METAR KTMB 092253Z 10007KT 10SM CLR 20/15 A3012 RMK AO2 SLP199
                        T02000150=
201201092153 METAR KTMB 092153Z 12010KT 10SM CLR 23/15 A3011 RMK AO2 SLP196
                        T02330150=
201201092053 METAR KTMB 092053Z 09011KT 10SM CLR 24/14 A3012 RMK AO2 SLP197
                        T02440144 56011=
201201091953 METAR KTMB 091953Z 10009KT 10SM FEW040 25/14 A3012 RMK AO2
                        SLP198 T02500144=
201201091853 METAR KTMB 091853Z 11011KT 10SM CLR 25/15 A3012 RMK AO2 SLP200
                        T02500150=
201201091753 METAR KTMB 091753Z 11010KT 10SM SCT036 25/15 A3015 RMK AO2
                        SLP209 T02500150 10256 20150 58021=
201201091653 METAR KTMB 091653Z 10011KT 10SM FEW030 25/14 A3019 RMK AO2
                        SLP222 T02500144=
201201091553 METAR KTMB 091553Z 12012KT 10SM CLR 25/15 A3021 RMK AO2 SLP229
                        T02500150=
201201091453 METAR KTMB 091453Z 11013KT 10SM CLR 24/16 A3021 RMK AO2 SLP229
                        T02440156 51014=
201201091353 METAR KTMB 091353Z 11007KT 10SM CLR 22/17 A3020 RMK AO2 SLP226
                        T02220167=
201201091253 METAR KTMB 091253Z 12003KT 10SM CLR 16/16 A3019 RMK AO2 SLP222
                        T01610156=
201201091153 METAR KTMB 091153Z 00000KT 10SM CLR 16/15 A3017 RMK AO2 SLP215
                        T01560150 10167 20139 53011=
201201091053 METAR KTMB 091053Z AUTO 00000KT 10SM CLR 15/14 A3016 RMK
                        AO2 SLP213 T01500144=
201201090953 METAR KTMB 090953Z AUTO 00000KT 10SM CLR 15/15 A3014 RMK
                        AO2 SLP205 T01500150=
201201090853 METAR KTMB 090853Z AUTO 00000KT 10SM CLR 16/15 A3014 RMK
                        AO2 SLP205 T01560150 56016=
201201090753 METAR KTMB 090753Z AUTO 09003KT 10SM FEW041 17/15 A3015 RMK
                        AO2 SLP208 T01670150=
201201090653 METAR KTMB 090653Z AUTO 00000KT 10SM CLR 16/14 A3016 RMK
                        AO2 SLP211 T01560144=
201201090553 METAR KTMB 090553Z AUTO 00000KT 10SM FEW049 16/14 A3018 RMK
                        AO2 SLP220 T01610144 10200 20144
                        58013=
201201090453 METAR KTMB 090453Z AUTO 00000KT 10SM CLR 17/14 A3020 RMK
                        AO2 SLP226 T01720144 402500106=
201201090353 METAR KTMB 090353Z AUTO 03003KT 10SM FEW050 16/14 A3021 RMK
                        AO2 SLP230 T01610144=
201201090253 METAR KTMB 090253Z 00000KT 10SM FEW044 16/14 A3022 RMK AO2
                        SLP233 T01610144 53008=
201201090153 METAR KTMB 090153Z 00000KT 10SM CLR 17/14 A3021 RMK AO2 SLP228
                        T01720144=
201201090053 METAR KTMB 090053Z 06003KT 10SM CLR 19/15 A3020 RMK AO2 SLP227
                        T01890150=
201201082353 METAR KTMB 082353Z 09004KT 10SM SCT038 19/14 A3020 RMK AO2
                        SLP225 T01940144 10250 20183 53012=
201201082253 METAR KTMB 082253Z 08005KT 10SM FEW043 20/14 A3019 RMK AO2
                        SLP221 T02000139=
201201082153 METAR KTMB 082153Z 09008KT 10SM CLR 23/13 A3017 RMK AO2 SLP216
                        T02280133=
201201082053 METAR KTMB 082053Z 11008KT 10SM FEW045 24/13 A3016 RMK AO2
                        SLP213 T02390128 56009=
201201081953 METAR KTMB 081953Z 11010KT 10SM CLR 24/12 A3016 RMK AO2 SLP214
                        T02440117=
201201081853 METAR KTMB 081853Z 12011KT 10SM CLR 24/12 A3018 RMK AO2 SLP217
                        T02440122=
201201081753 METAR KTMB 081753Z 12014G17KT 10SM FEW043 24/13 A3019 RMK
                        AO2 SLP223 T02440133 10250 20106
                        58019=
201201081653 METAR KTMB 081653Z 08008G17KT 10SM CLR 24/13 A3022 RMK AO2
                        SLP234 T02440128=
201201081553 METAR KTMB 081553Z 13010KT 10SM CLR 24/13 A3025 RMK AO2 SLP241
                        T02390133=
201201081453 METAR KTMB 081453Z 01005KT 10SM CLR 22/13 A3025 RMK AO2 SLP241
                        T02170133 51018=
201201081353 METAR KTMB 081353Z 03003KT 10SM CLR 18/14 A3023 RMK AO2 SLP236
                        T01830144=
201201081253 METAR KTMB 081253Z 00000KT 7SM CLR 12/12 A3021 RMK AO2 SLP229
                        T01220117=
201201081153 METAR KTMB 081153Z 00000KT 10SM CLR 11/10 A3019 RMK AO2 SLP223
                        T01060100 10133 20106 53007=
201201081053 METAR KTMB 081053Z AUTO 00000KT 9SM CLR 12/11 A3018 RMK AO2
                        SLP220 T01170111=
201201080953 METAR KTMB 080953Z AUTO 00000KT 9SM CLR 12/12 A3017 RMK AO2
                        SLP216 T01170117=
201201080853 METAR KTMB 080853Z AUTO 00000KT 7SM CLR 11/11 A3017 RMK AO2
                        SLP216 T01110106 58004=
201201080753 METAR KTMB 080753Z AUTO 00000KT 6SM BR CLR 12/12 A3017 RMK
                        AO2 SLP216 T01170117=
201201080653 METAR KTMB 080653Z AUTO 00000KT 6SM BR CLR 13/12 A3018 RMK
                        AO2 SLP220 T01280117=
201201080553 METAR KTMB 080553Z AUTO 00000KT 8SM CLR 13/12 A3018 RMK AO2
                        SLP220 T01330122 10194 20122 58003=
201201080453 METAR KTMB 080453Z AUTO 00000KT 5SM BR CLR 13/13 A3019 RMK
                        AO2 SLP222 T01280128 402500089=
201201080353 METAR KTMB 080353Z 00000KT 10SM CLR 13/12 A3020 RMK AO2 SLP224
                        T01330117=
201201080253 METAR KTMB 080253Z 00000KT 10SM CLR 13/12 A3019 RMK AO2 SLP223
                        T01330117 53010=
201201080153 METAR KTMB 080153Z 00000KT 10SM CLR 17/13 A3018 RMK AO2 SLP219
                        T01670133=
201201080053 METAR KTMB 080053Z 00000KT 10SM CLR 17/12 A3017 RMK AO2 SLP215
                        T01720122=
201201072353 METAR KTMB 072353Z 00000KT 10SM CLR 19/13 A3016 RMK AO2 SLP214
                        T01890128 10250 20183 53012=
201201072253 METAR KTMB 072253Z 11004KT 10SM CLR 19/12 A3015 RMK AO2 SLP210
                        T01940122=
201201072153 METAR KTMB 072153Z 14004KT 10SM FEW050 22/12 A3014=
201201072053 METAR KTMB 072053Z 14008KT 9SM CLR 23/12 A3013 RMK AO2 SLP202
                        T02330122 55009=
201201071953 METAR KTMB 071953Z 14006KT 10SM CLR 24/12 A3013 RMK AO2 SLP202
                        T02390122=
201201071853 METAR KTMB 071853Z VRB05KT 10SM FEW060 24/12 A3013 RMK AO2
                        SLP203 T02390117=
201201071753 METAR KTMB 071753Z VRB03KT 10SM SCT055 25/11 A3016 RMK AO2
                        SLP211 T02500106 10250 20089 58020=
201201071653 METAR KTMB 071653Z 16004KT 10SM CLR 23/11 A3019 RMK AO2 SLP221
                        T02330106=
201201071553 METAR KTMB 071553Z 03003KT 10SM CLR 22/12 A3021 RMK AO2 SLP228
                        T02220117=
201201071453 METAR KTMB 071453Z 00000KT 10SM CLR 21/11 A3022 RMK AO2 SLP231
                        T02110106 51018=
201201071353 METAR KTMB 071353Z 00000KT 10SM BR CLR 17/12 A3020 RMK AO2
                        SLP226 T01670122=
201201071253 METAR KTMB 071253Z 00000KT 6SM BR CLR 10/09 A3018 RMK AO2
                        SLP219 T01000094=
201201071153 METAR KTMB 071153Z 00000KT 5SM BR CLR 09/09 A3016 RMK AO2
                        SLP214 T00890089 10122 20089 53005=
201201071101 SPECI KTMB 071101Z AUTO 00000KT 3SM BR CLR 09/09 A3016 RMK
                        AO2=
201201071053 METAR KTMB 071053Z AUTO 00000KT 1SM BR CLR 09/09 A3016 RMK
                        AO2 VIS 1/2V5 SLP211 T00890089=
201201071048 SPECI KTMB 071048Z AUTO 00000KT 1 1/2SM BR CLR 09/09 A3016
                        RMK AO2 VIS 1/2V5=
201201070953 METAR KTMB 070953Z 00000KT 10SM CLR 11/10 A3015 RMK AO2 SLP208
                        T01060100=
201201070853 METAR KTMB 070853Z 04003KT 10SM CLR 12/11 A3015 RMK AO2 SLP209
                        T01170106 58009=
201201070753 METAR KTMB 070753Z 00000KT 5SM BR FEW047 10/10 A3016 RMK
                        AO2 SLP212 T01000100=
201201070653 METAR KTMB 070653Z 00000KT 8SM SCT049 11/11 A3017 RMK AO2
                        SLP216 T01110106=
201201070553 METAR KTMB 070553Z 00000KT 8SM FEW047 09/09 A3018 RMK AO2
                        SLP218 T00940089 10172 20094 58005=
201201070453 METAR KTMB 070453Z 00000KT 8SM CLR 11/11 A3018 RMK AO2 SLP220
                        T01060106 402280050=
201201070353 METAR KTMB 070353Z 00000KT 10SM CLR 11/11 A3019 RMK AO2 SLP222
                        T01110106=
201201070253 METAR KTMB 070253Z 00000KT 10SM CLR 13/12 A3019 RMK AO2 SLP224
                        T01330117 51008=
201201070153 METAR KTMB 070153Z 00000KT 10SM CLR 14/12 A3019 RMK AO2 SLP221
                        T01390122=
201201070053 METAR KTMB 070053Z 00000KT 10SM CLR 16/13 A3018=
201201062353 METAR KTMB 062353Z 09003KT 10SM CLR 17/12 A3017 RMK AO2 SLP216
                        T01720122 10228 20161 53005=
201201062253 METAR KTMB 062253Z 10005KT 10SM CLR 17/11 A3016 RMK AO2 SLP213
                        T01670111=
201201062153 METAR KTMB 062153Z 12007KT 10SM CLR 20/09 A3016=
201201062053 METAR KTMB 062053Z 12007KT 10SM CLR 22/09 A3016 RMK AO2 SLP211
                        T02170089 56015=
201201061953 METAR KTMB 061953Z VRB05KT 10SM CLR 23/08 A3016 RMK AO2 SLP211
                        T02280078=
201201061853 METAR KTMB 061853Z VRB06KT 10SM CLR 23/07 A3017=
201201061753 METAR KTMB 061753Z 00000KT 10SM CLR 22/08 A3020 RMK AO2 SLP226
                        T02170078 10222 20072 58020=
201201061653 METAR KTMB 061653Z 00000KT 10SM CLR 21/08 A3023 RMK AO2 SLP235
                        T02060083=
201201061553 METAR KTMB 061553Z 36003KT 10SM CLR 19/08 A3025=
201201061453 METAR KTMB 061453Z 02008KT 10SM CLR 18/07 A3026 RMK AO2 SLP245
                        T01780067 53016=
201201061353 METAR KTMB 061353Z 35005KT 10SM CLR 16/08 A3024 RMK AO2 SLP240
                        T01560078=
201201061253 METAR KTMB 061253Z 00000KT 10SM CLR 10/07 A3022 RMK AO2 PK
                        WND 03032/1230 SLP232 T01000072=
201201061153 METAR KTMB 061153Z 00000KT 10SM CLR 08/07 A3021 RMK AO2 SLP229
                        T00780067 10083 20050 53005=
201201061053 METAR KTMB 061053Z 00000KT 10SM CLR 08/07 A3021 RMK AO2 SLP228
                        T00780067=
201201060953 METAR KTMB 060953Z 32003KT 10SM CLR 07/06 A3020 RMK AO2 SLP226
                        T00670061=
201201060853 METAR KTMB 060853Z 31004KT 10SM CLR 06/05 A3020 RMK AO2 SLP225
                        T00610050 56006=
201201060753 METAR KTMB 060753Z 00000KT 10SM CLR 06/04 A3020 RMK AO2 SLP225
                        T00610039=
201201060653 METAR KTMB 060653Z 00000KT 10SM CLR 07/04 A3021=
201201060553 METAR KTMB 060553Z 00000KT 10SM CLR 07/04 A3022 RMK AO2 SLP231
                        T00720044 10128 20072 58013=
201201060453 METAR KTMB 060453Z 00000KT 10SM CLR 08/04 A3023 RMK AO2 SLP236
                        T00780044 402000078=
201201060353 METAR KTMB 060353Z 00000KT 10SM CLR 08/03 A3025 RMK AO2 SLP242
                        T00830028=
201201060253 METAR KTMB 060253Z 18003KT 10SM CLR 09/02 A3026 RMK AO2 SLP244
                        T00940022 51009=
201201060153 METAR KTMB 060153Z 00000KT 10SM CLR 09/02 A3025 RMK AO2 SLP242
                        T00940017=
201201060053 METAR KTMB 060053Z 00000KT 10SM CLR 12/M01 A3024 RMK AO2
                        SLP240 T01171006=
201201052353 METAR KTMB 052353Z 36003KT 10SM CLR 11/M02 A3023 RMK AO2
                        SLP235 T01061022 10200 20106 53005=
201201052253 METAR KTMB 052253Z 34006KT 10SM CLR 14/M03 A3023 RMK AO2
                        SLP234 T01391028=
201201052153 METAR KTMB 052153Z 34008KT 10SM CLR 18/M04 A3021 RMK AO2
                        SLP228 T01831039=
201201052053 METAR KTMB 052053Z 34009KT 10SM CLR 19/M01 A3021 RMK AO2
                        SLP230 T01891006 55010=
201201051953 METAR KTMB 051953Z 34008KT 10SM CLR 19/M01 A3021 RMK AO2
                        SLP230 T01941006=
201201051853 METAR KTMB 051853Z 33010KT 10SM CLR 19/03 A3023 RMK AO2 SLP235
                        T01890028=
201201051753 METAR KTMB 051753Z 33009KT 10SM CLR 19/03 A3024 RMK AO2 SLP241
                        T01940033 10194 20094 58023=
201201051653 METAR KTMB 051653Z 33012KT 10SM CLR 18/02 A3028 RMK AO2 SLP254
                        T01830017=
201201051553 METAR KTMB 051553Z 34009KT 10SM CLR 17/03 A3031 RMK AO2 SLP262
                        T01720028=
201201051453 METAR KTMB 051453Z 36006KT 10SM CLR 16/03 A3031 RMK AO2 SLP264
                        T01560033 51011=
201201051353 METAR KTMB 051353Z 36007KT 10SM CLR 13/03 A3030 RMK AO2 SLP261
                        T01280033=
201201051253 METAR KTMB 051253Z 35004KT 10SM CLR 11/05 A3029 RMK AO2 SLP257
                        T01060050=
201201051153 METAR KTMB 051153Z 36006KT 10SM CLR 09/04 A3028 RMK AO2 SLP253
                        T00940039 10117 20094 52007=
201201051053 METAR KTMB 051053Z AUTO 36007KT 10SM CLR 10/04 A3027 RMK
                        AO2 SLP251 T01000039=
201201050953 METAR KTMB 050953Z AUTO 36007KT 10SM SCT050 11/03 A3027 RMK
                        AO2 SLP248 T01060033=
201201050853 METAR KTMB 050853Z AUTO 35005KT 10SM CLR 10/03 A3026 RMK
                        AO2 SLP246 T01000028 56008=
201201050753 METAR KTMB 050753Z AUTO 36007KT 10SM CLR 10/02 A3026 RMK
                        AO2 SLP248 T01000017=
201201050653 METAR KTMB 050653Z AUTO 35007KT 10SM CLR 11/01 A3027 RMK
                        AO2 SLP250 T01060006=
201201050553 METAR KTMB 050553Z AUTO 36005KT 10SM CLR 11/03 A3028 RMK
                        AO2 SLP254 T01060028 10156 20083
                        56013=
201201050453 METAR KTMB 050453Z AUTO 02004KT 10SM CLR 12/03 A3029 RMK
                        AO2 SLP255 T01170033 401890039=
201201050353 METAR KTMB 050353Z AUTO 01007KT 10SM CLR 13/03 A3030 RMK
                        AO2 SLP260 T01280028=
201201050253 METAR KTMB 050253Z 01007KT 10SM BKN034 OVC047 14/03 A3032
                        RMK AO2 SLP266 T01440033 50011=
201201050153 METAR KTMB 050153Z 36006KT 10SM BKN034 OVC045 15/07 A3033
                        RMK AO2 SLP269 T01500067=
201201050053 METAR KTMB 050053Z 01009KT 10SM BKN040 OVC050 16/07 A3030
                        RMK AO2 SLP259 T01560067=
201201042353 METAR KTMB 042353Z 01006KT 10SM SCT044 15/08 A3029 RMK AO2
                        SLP255 T01500083 10189 20150 53006=
201201042253 METAR KTMB 042253Z 35008KT 10SM SCT040 16/09 A3028 RMK AO2
                        SLP252 T01610089=
201201042153 METAR KTMB 042153Z 35007KT 10SM CLR 18/08 A3027 RMK AO2 SLP251
                        T01780083=
201201042053 METAR KTMB 042053Z 01007G14KT 10SM CLR 18/08 A3027 RMK AO2
                        SLP249 T01830078 55014=
201201041953 METAR KTMB 041953Z 02010G15KT 10SM CLR 18/08 A3027 RMK AO2
                        SLP249 T01830078=
201201041853 METAR KTMB 041853Z 34010KT 10SM CLR 18/07 A3028 RMK AO2 SLP253
                        T01780067=
201201041753 METAR KTMB 041753Z 35012KT 10SM CLR 17/06 A3031 RMK AO2 SLP263
                        T01670056 10167 20056 58032=
201201041653 METAR KTMB 041653Z 01012KT 10SM CLR 16/05 A3035 RMK AO2 SLP276
                        T01560050=
201201041553 METAR KTMB 041553Z 35009KT 10SM CLR 13/04 A3038 RMK AO2 SLP288
                        T01330039=
201201041453 METAR KTMB 041453Z AUTO 36010KT 10SM CLR 11/02 A3040 RMK
                        AO2 SLP295 T01060017 51016 TSNO=
201201041353 METAR KTMB 041353Z 35011KT 10SM CLR 08/01 A3040 RMK AO2 SLP292
                        T00830006=
201201041253 METAR KTMB 041253Z 35008KT 10SM 07/M01 A3038 RMK AO2 SLP288
                        T00671006 $=
201201041153 METAR KTMB 041153Z 35007KT 10SM CLR 06/M01 A3036=
201201041053 METAR KTMB 041053Z AUTO 35007KT 10SM 05/M02 A3035 RMK AO2
                        SLP275 T00501017 $=
201201040953 METAR KTMB 040953Z AUTO 35007KT 10SM 05/M02 A3033 RMK AO2
                        SLP271 T00501022 $=
201201040853 METAR KTMB 040853Z AUTO 36007KT 10SM 06/M02 A3032 RMK AO2
                        SLP267 T00561017 58012 $=
201201040753 METAR KTMB 040753Z AUTO 36010KT 10SM 06/M03 A3033 RMK AO2
                        SLP270 T00561033 $=
201201040653 METAR KTMB 040653Z AUTO 35010KT 10SM 06/M03 A3035 RMK AO2
                        SLP276 T00561028 $=
201201040553 METAR KTMB 040553Z AUTO 35007KT 10SM 04/M03 A3035 RMK AO2
                        SLP278 T00441028 10083 20039 58007
                        $=
201201040453 METAR KTMB 040453Z AUTO 34006KT 10SM 04/M03 A3036 RMK AO2
                        SLP281 T00441028 401170044 $=
201201040353 METAR KTMB 040353Z AUTO 35007KT 10SM CLR 06/M03 A3037 RMK
                        AO2 SLP284 T00561028 $=
201201040253 METAR KTMB 040253Z 36007KT 10SM CLR 06/M03 A3037 RMK AO2
                        SLP285 T00611028 53014 $=
201201040153 METAR KTMB 040153Z 35005KT 10SM CLR 06/M03 A3036 RMK AO2
                        SLP280 T00611033 $=
201201040053 METAR KTMB 040053Z 36004KT 10SM CLR 07/M04 A3035 RMK AO2
                        SLP275 T00671044 $=
201201032353 METAR KTMB 032353Z 35008KT 10SM CLR 08/M05 A3033 RMK AO2
                        SLP270 6//// T00831050 $=
201201032253 METAR KTMB 032253Z 36007KT 10SM CLR 09/M07 A3031 RMK AO2
                        SLP263 T00941072 $=
201201032153 METAR KTMB 032153Z 35009G20KT 10SM CLR 11/M07 A3030 RMK AO2
                        SLP261 T01061072 $=
201201032100 METAR KTMB NIL=
201201032000 METAR KTMB NIL=
201201031853 METAR KTMB 031853Z 36017G25KT 10SM CLR 12/M08 A3028 RMK AO2
                        PK WND 33026/1755 SLP251 T01221078=
201201031753 METAR KTMB 031753Z 35016G24KT 10SM CLR 12/M03 A3029 RMK AO2
                        PK WND 34030/1708 SLP255 T01171033
                        10139 20106 58015=
201201031653 METAR KTMB 031653Z 35021G27KT 10SM CLR 12/M01 A3031 RMK AO2
                        PK WND 34031/1609 SLP262 T01171011=
201201031553 METAR KTMB 031553Z 01018G27KT 10SM CLR 12/02 A3033 RMK AO2
                        PK WND 35033/1514 SLP269 T01220022=
201201031453 METAR KTMB 031453Z 34025G33KT 10SM CLR 12/03 A3033 RMK AO2
                        PK WND 34033/1451 SLP269 T01220028
                        53027 $=
201201031353 METAR KTMB 031353Z 34024G30KT 10SM CLR 13/04 A3029 RMK AO2
                        PK WND 32032/1342 SLP257 T01330039
                        $=
201201031253 METAR KTMB 031253Z 30005KT 10SM 11/06 A3027 RMK AO2 SLP248
                        T01110056 $=
201201031153 METAR KTMB 031153Z 33007KT 10SM 11/04 A3025 RMK AO2 SLP242
                        T01110044 10122 20106 51013 $=
201201031053 METAR KTMB 031053Z 34010KT 10SM 12/04 A3024 RMK AO2 SLP239
                        T01170044 $=
201201030953 METAR KTMB 030953Z 34010KT 10SM 11/04 A3022 RMK AO2 SLP234
                        T01110039 $=
201201030853 METAR KTMB 030853Z 33012KT 10SM CLR 11/04 A3021 RMK AO2 SLP229
                        T01110039 51005 $=
201201030753 METAR KTMB 030753Z 33017KT 10SM CLR 12/04 A3021 RMK AO2 SLP228
                        T01170039 $=
201201030653 METAR KTMB 030653Z 33013G22KT 10SM CLR 12/06 A3020 RMK AO2
                        SLP226 T01170056 $=
201201030553 METAR KTMB 030553Z 33014KT 10SM CLR 12/06 A3019 RMK AO2 SLP224
                        T01220061 10206 20122 58006 $=
201201030453 METAR KTMB 030453Z 32007KT 10SM CLR 12/06 A3020 RMK AO2 SLP226
                        T01220056 402610122 $=
201201030353 METAR KTMB 030353Z 34017KT 10SM CLR 13/03 A3022 RMK AO2 SLP233
                        T01330028 $=
201201030253 METAR KTMB 030253Z 33014KT 10SM CLR 15/M01 A3021 RMK AO2
                        PK WND 33026/0156 SLP230 T01501006
                        51027 $=
201201030153 METAR KTMB 030153Z 33016G23KT 10SM SCT034 17/06 A3020 RMK
                        AO2 SLP224 T01720061 $=
201201030053 METAR KTMB 030053Z 32013KT 10SM OVC031 20/16 A3015 RMK AO2
                        WSHFT 0031 SLP210 T02000156 $=
201201030048 SPECI KTMB 030048Z 33014KT 10SM FEW024 OVC031 21/16 A3015
                        RMK AO2 WSHFT 0031 $=
201201030040 SPECI KTMB 030040Z 32014KT 10SM BKN027 OVC033 21/17 A3015
                        RMK AO2 $=
201201022353 METAR KTMB 022353Z 28006KT 10SM FEW032 19/18 A3013 RMK AO2
                        SLP203 60000 T01890178 10261 20189
                        53018 $=
201201022253 METAR KTMB 022253Z 28007KT 10SM FEW049 BKN060 21/18 A3012
                        RMK AO2 SLP198 T02110183 $=
201201022153 METAR KTMB 022153Z 32008KT 10SM BKN030 BKN037 BKN065 22/19
                        A3009 RMK AO2 RAB27E49 SLP190 P0000
                        T02220194 $=
201201022144 SPECI KTMB 022144Z 32009KT 4SM -RA FEW008 OVC034 22/19 A3009
                        RMK AO2 RAB27 P0000 $=
201201022053 METAR KTMB 022053Z 27008KT 10SM BKN045 24/16 A3008 RMK AO2
                        SLP185 T02440156 55016 $=
201201021953 METAR KTMB 021953Z 29008KT 10SM CLR 26/15 A3007 RMK AO2 SLP183
                        T02560150 $=
201201021853 METAR KTMB 021853Z 29009KT 10SM FEW040 26/14 A3009 RMK AO2
                        SLP188 T02560144 $=
201201021753 METAR KTMB 021753Z 28009KT 10SM CLR 24/14 A3013 RMK AO2 SLP201
                        T02440144 10250 20122 58017 $=
201201021653 METAR KTMB 021653Z 27003KT 10SM CLR 24/15 A3016 RMK AO2 SLP211
                        T02390150 $=
201201021553 METAR KTMB 021553Z 30005KT 10SM CLR 23/16 A3017 RMK AO2 SLP215
                        T02280161 $=
201201021453 METAR KTMB 021453Z 00000KT 10SM CLR 22/16 A3018 RMK AO2 SLP219
                        T02220161 53009 $=
201201021353 METAR KTMB 021353Z 00000KT 10SM CLR 18/17 A3017 RMK AO2 SLP215
                        T01830172 $=
201201021302 SPECI KTMB 021302Z 00000KT 6SM BR SCT002 16/16 A3016 RMK
                        AO2 $=
201201021253 METAR KTMB 021253Z 00000KT 10SM BKN002 14/14 A3016 RMK AO2
                        SLP211 T01390139 $=
201201021230 SPECI KTMB 021230Z 00000KT 10SM OVC002 12/12 A3015 RMK AO2
                        $=
201201021212 SPECI KTMB 021212Z 28003KT M1/4SM FG BKN002 OVC006 13/13
                        A3015 RMK AO2 $=
201201021153 METAR KTMB 021153Z 28003KT 1/4SM FG FEW001 OVC006 14/14 A3015
                        RMK AO2 SLP209 T01390139 10167 20122
                        53007 $=
201201021053 METAR KTMB 021053Z AUTO 29003KT 1/4SM FG SCT001 OVC006 13/13
                        A3014 RMK AO2 SLP206 T01280128 $=
201201021028 SPECI KTMB 021028Z AUTO 00000KT 1/4SM FG BKN001 OVC006 12/12
                        A3014 RMK AO2 $=
201201021023 SPECI KTMB 021023Z AUTO 28003KT 1 1/4SM BR BKN001 OVC006
                        13/13 A3014 RMK AO2 $=
201201021016 SPECI KTMB 021016Z AUTO 29003KT 1/4SM FG BKN001 BKN006 13/13
                        A3014 RMK AO2 $=
201201021009 SPECI KTMB 021009Z AUTO 27003KT 1/2SM FG VV001 13/13 A3013
                        RMK AO2 $=
201201021002 SPECI KTMB 021002Z AUTO 28003KT 1SM BR VV001 13/13 A3013
                        RMK AO2 $=
201201020955 SPECI KTMB 020955Z AUTO 28003KT 2 1/2SM BR FEW001 14/13 A3013
                        RMK AO2 $=
201201020953 METAR KTMB 020953Z AUTO 27003KT 1SM BR VV001 13/13 A3013
                        RMK AO2 SLP203 T01330133 $=
201201020945 SPECI KTMB 020945Z AUTO 00000KT 1 1/4SM BR FEW001 14/14 A3013
                        RMK AO2 $=
201201020943 SPECI KTMB 020943Z AUTO 00000KT 3SM BR CLR 14/14 A3013 RMK
                        AO2 $=
201201020922 SPECI KTMB 020922Z AUTO 00000KT 1 3/4SM BR CLR 13/13 A3013
                        RMK AO2 VIS 1V4=
201201020914 SPECI KTMB 020914Z AUTO 00000KT 3SM BR CLR 13/13 A3014 RMK
                        AO2=
201201020902 SPECI KTMB 020902Z AUTO 26003KT 2 1/2SM BR FEW001 14/13 A3014
                        RMK AO2=
201201020853 METAR KTMB 020853Z AUTO 00000KT 5SM BR CLR 14/14 A3014 RMK
                        AO2 SLP205 T01390139 56014=
201201020830 SPECI KTMB 020830Z AUTO 27003KT 3SM BR CLR 15/15 A3014 RMK
                        AO2=
201201020817 SPECI KTMB 020817Z AUTO 27003KT 1 1/2SM BR CLR 15/14 A3014
                        RMK AO2 VIS 1/2V5=
201201020813 SPECI KTMB 020813Z AUTO 26003KT 3SM BR CLR 14/14 A3014 RMK
                        AO2=
201201020753 METAR KTMB 020753Z AUTO 00000KT 1SM BR CLR 15/15 A3014 RMK
                        AO2 SLP207 T01500150=
201201020713 SPECI KTMB 020713Z AUTO 27003KT 3SM BR CLR 16/16 A3015 RMK
                        AO2=
201201020703 SPECI KTMB 020703Z AUTO 28004KT 1 1/4SM BR CLR 15/15 A3016
                        RMK AO2=
201201020653 METAR KTMB 020653Z AUTO 28003KT 2 1/2SM BR CLR 16/15 A3016
                        RMK AO2 VIS 1 1/4V5 SLP212 T01560150=
201201020644 SPECI KTMB 020644Z AUTO 00000KT 1 3/4SM BR CLR 15/14 A3016
                        RMK AO2=
201201020553 METAR KTMB 020553Z AUTO 00000KT 8SM CLR 16/16 A3018 RMK AO2
                        SLP218 T01610161 10200 20144 58011=
201201020453 METAR KTMB 020453Z AUTO 28003KT 10SM CLR 17/16 A3020 RMK
                        AO2 SLP226 T01670161 402670139=
201201020353 METAR KTMB 020353Z AUTO 29006KT 10SM CLR 15/14 A3022 RMK
                        AO2 SLP231 T01500144=
201201020253 METAR KTMB 020253Z 00000KT 10SM CLR 16/15 A3021 RMK AO2 SLP229
                        T01610150 50005=
201201020153 METAR KTMB 020153Z 00000KT 10SM CLR 18/16 A3021 RMK AO2 SLP230
                        T01780161=
201201020053 METAR KTMB 020053Z 08003KT 10SM CLR 19/16 A3021 RMK AO2 SLP229
                        T01940161=
201201012353 METAR KTMB 012353Z 11005KT 10SM CLR 19/15 A3020 RMK AO2 SLP224
                        60000 T01940150 10267 20189 51008=
201201012253 METAR KTMB 012253Z 10006KT 10SM CLR 21/15 A3019 RMK AO2 SLP223
                        T02060150=
201201012153 METAR KTMB 012153Z 11007KT 10SM CLR 24/16 A3018 RMK AO2 SLP220
                        T02390156=
201201012053 METAR KTMB 012053Z 11008KT 10SM FEW050 25/16 A3017 RMK AO2
                        SLP216 60000 T02500156 56012=
201201011953 METAR KTMB 011953Z 13007KT 10SM FEW046 26/16 A3017 RMK AO2
                        SLP217 T02610161=
201201011853 METAR KTMB 011853Z 11008KT 10SM SCT042 26/16 A3018 RMK AO2
                        RAB26E46 SLP221 P0000 T02560161=
201201011753 METAR KTMB 011753Z 11008KT 10SM SCT041 26/16 A3021 RMK AO2
                        SLP228 T02560161 10267 20150 58024=
201201011653 METAR KTMB 011653Z 13006KT 10SM FEW030 26/16 A3024 RMK AO2
                        SLP240 T02560156=
201201011553 METAR KTMB 011553Z 10006KT 10SM CLR 25/16 A3026 RMK AO2 SLP248
                        T02500156=
201201011453 METAR KTMB 011453Z 02004KT 10SM CLR 23/17 A3028 RMK AO2 SLP252
                        T02330167 53019=
201201011353 METAR KTMB 011353Z 02004KT 8SM CLR 21/17 A3025 RMK AO2 SLP243
                        T02060172=
201201011303 SPECI KTMB 011303Z 00000KT 4SM BR CLR 17/16 A3024 RMK AO2=
201201011253 METAR KTMB 011253Z 04003KT 2 1/2SM BR CLR 16/16 A3024 RMK
                        AO2 SLP238 T01610161=
201201011243 SPECI KTMB 011243Z 00000KT 2SM BR CLR 16/16 A3024 RMK AO2=
201201011223 SPECI KTMB 011223Z 00000KT 1/2SM FG CLR 15/15 A3023 RMK AO2=
201201011153 METAR KTMB 011153Z 00000KT 1/4SM FG VV001 14/14 A3022 RMK
                        AO2 SLP233 T01440144 10161 20139
                        53014=
201201011144 SPECI KTMB 011144Z AUTO 00000KT 3/4SM BR VV001 16/16 A3022
                        RMK AO2=
201201011128 SPECI KTMB 011128Z AUTO 00000KT 1 1/4SM BR SCT001 16/16 A3021
                        RMK AO2=
201201011123 SPECI KTMB 011123Z AUTO 00000KT 1/2SM FG VV001 15/15 A3021
                        RMK AO2=
201201011112 SPECI KTMB 011112Z AUTO 00000KT 1/4SM FG VV001 14/14 A3020
                        RMK AO2=
201201011101 SPECI KTMB 011101Z AUTO 00000KT 3/4SM BR VV001 15/15 A3020
                        RMK AO2=
201201011053 METAR KTMB 011053Z AUTO 00000KT 1SM BR VV001 15/15 A3020
                        RMK AO2 SLP226 T01500150=
201201011047 SPECI KTMB 011047Z AUTO 00000KT 1 1/4SM BR FEW001 16/16 A3020
                        RMK AO2=
201201011042 SPECI KTMB 011042Z AUTO 00000KT 3/4SM BR VV001 15/15 A3020
                        RMK AO2=
201201011031 SPECI KTMB 011031Z AUTO 00000KT 3/4SM BR CLR 15/15 A3019
                        RMK AO2=
201201011002 SPECI KTMB 011002Z AUTO 00000KT 1 1/4SM BR FEW001 15/15 A3019
                        RMK AO2=
201201010953 METAR KTMB 010953Z AUTO 00000KT 1/2SM FG VV001 14/14 A3018
                        RMK AO2 SLP220 T01440144=
201201010922 SPECI KTMB 010922Z AUTO 00000KT 1/4SM FG VV001 14/14 A3018
                        RMK AO2=
201201010904 SPECI KTMB 010904Z AUTO 00000KT 1SM BR VV001 14/14 A3018
                        RMK AO2=
201201010853 METAR KTMB 010853Z AUTO 00000KT 1/4SM FG VV001 14/14 A3018
                        RMK AO2 SLP219 T01440144 56008=
201201010832 SPECI KTMB 010832Z AUTO 00000KT 3/4SM BR CLR 15/15 A3018
                        RMK AO2=
201201010753 METAR KTMB 010753Z AUTO 00000KT 1SM BR CLR 16/16 A3019 RMK
                        AO2 SLP221 T01560156=
201201010716 SPECI KTMB 010716Z AUTO 00000KT 1 1/2SM BR CLR 15/15 A3019
                        RMK AO2=
201201010653 METAR KTMB 010653Z AUTO 00000KT 2SM BR CLR 15/15 A3020 RMK
                        AO2 SLP225 T01500150=
201201010630 SPECI KTMB 010630Z AUTO 00000KT 3SM BR CLR 16/16 A3020 RMK
                        AO2=
201201010621 SPECI KTMB 010621Z AUTO 30003KT 2 1/2SM BR CLR 15/15 A3020
                        RMK AO2=
201201010609 SPECI KTMB 010609Z AUTO 29003KT 3SM BR CLR 15/15 A3020 RMK
                        AO2=
201201010553 METAR KTMB 010553Z AUTO 00000KT 2 1/2SM BR CLR 16/16 A3020
                        RMK AO2 SLP227 T01610156 10217 20139
                        58005=
201201010453 METAR KTMB 010453Z AUTO 00000KT 8SM CLR 15/15 A3021 RMK AO2
                        SLP230 T01500150 402720128=
201201010353 METAR KTMB 010353Z 00000KT 7SM CLR 17/17 A3022 RMK AO2 SLP233
                        T01720167=
201201010253 METAR KTMB 010253Z 00000KT 8SM CLR 19/17 A3022 RMK AO2 SLP232
                        T01890172 51013=
201201010153 METAR KTMB 010153Z 10004KT 10SM CLR 19/17 A3021 RMK AO2 SLP229
                        T01890172=
201201010053 METAR KTMB 010053Z 11003KT 10SM CLR 20/17 A3020 RMK AO2 SLP224
                        T02000167=
