##########################################################
# Query made at 11/07/2014 15:41:33 UTC
# Time interval: from 04/01/2010 00:00  to 05/01/2010 23:59  UTC
##########################################################

##########################################################
# LPPR, Porto / Pedras Rubras (Portugal)
# WMO index: 08545
# Latitude 41-14N. Longitude 008-41W. Altitude 69 m.
##########################################################

###################################
#  METAR/SPECI from LPPR
###################################
201004302330 METAR LPPR 302330Z 00000KT 9999 FEW020 SCT060 11/10 Q1015=
201004302300 METAR LPPR 302300Z 00000KT CAVOK 11/10 Q1015=
201004302230 METAR LPPR 302230Z 00000KT CAVOK 12/11 Q1015=
201004302200 METAR LPPR 302200Z 00000KT CAVOK 12/11 Q1015=
201004302130 METAR LPPR 302130Z VRB01KT 9999 FEW015 13/11 Q1015=
201004302100 METAR LPPR 302100Z VRB02KT 9999 FEW015 13/11 Q1015=
201004302030 METAR LPPR 302030Z 33003KT 9999 FEW012 SCT250 13/12 Q1015=
201004302000 METAR LPPR 302000Z 32005KT 9999 SCT012 14/12 Q1015=
201004301930 METAR LPPR 301930Z 32005KT 280V340 9999 FEW012 SCT035 BKN080
                        14/12 Q1015=
201004301900 METAR LPPR 301900Z 32008KT 280V350 9000 -RA FEW015 SCT040
                        BKN080 14/12 Q1015=
201004301830 METAR LPPR 301830Z 32009KT 9999 FEW015 SCT040 BKN080 15/12
                        Q1015=
201004301800 METAR LPPR 301800Z 32011KT 9999 SCT017 BKN080 15/12 Q1015=
201004301730 METAR LPPR 301730Z 32011KT 290V350 9999 FEW018 BKN080 16/12
                        Q1015=
201004301700 METAR LPPR 301700Z 31012KT 9999 FEW018 BKN090 16/12 Q1015=
201004301630 METAR LPPR 301630Z 32011KT 290V350 9999 FEW020 BKN100 17/12
                        Q1015=
201004301600 METAR LPPR 301600Z 32012KT 9999 FEW020 SCT100 BKN200 17/12
                        Q1015=
201004301530 METAR LPPR 301530Z 32013KT 9999 FEW020 BKN200 17/12 Q1015=
201004301500 METAR LPPR 301500Z 32013KT 9999 FEW020 BKN200 17/11 Q1015=
201004301430 METAR LPPR 301430Z 31013KT 280V340 9999 FEW020 BKN200 18/13
                        Q1015=
201004301400 METAR LPPR 301400Z 31013KT 9999 FEW020 BKN200 17/12 Q1015=
201004301330 METAR LPPR 301330Z 31013KT 9999 FEW020 BKN200 18/13 Q1015=
201004301300 METAR LPPR 301300Z 31012KT 280V340 9999 FEW015 BKN200 18/13
                        Q1015=
201004301230 METAR LPPR 301230Z 30012KT 270V330 9999 FEW015 BKN200 17/12
                        Q1015=
201004301200 METAR LPPR 301200Z 32012KT 280V350 9999 SCT018 SCT200 18/13
                        Q1015=
201004301130 METAR LPPR 301130Z 30009KT 260V330 9999 SCT017 SCT200 18/13
                        Q1016=
201004301100 METAR LPPR 301100Z 30009KT 270V340 9999 SCT017 SCT035 BKN200
                        17/13 Q1016=
201004301030 METAR LPPR 301030Z 29006KT 250V330 9999 SCT017 SCT030 BKN200
                        17/13 Q1016=
201004301000 METAR LPPR 301000Z 34004KT 280V020 9999 SCT017 SCT030 BKN200
                        17/12 Q1016=
201004300930 METAR LPPR 300930Z 33006KT 280V010 9999 FEW015 SCT030 BKN200
                        16/13 Q1016=
201004300900 METAR LPPR 300900Z 32006KT 9999 FEW015 SCT035 BKN200 16/13
                        Q1016=
201004300830 METAR LPPR 300830Z VRB03KT 9999 FEW020 BKN030 15/13 Q1016=
201004300800 METAR LPPR 300800Z VRB01KT 9999 FEW020 BKN035 15/13 Q1016=
201004300730 METAR LPPR 300730Z 00000KT 9999 FEW020 BKN035 14/13 Q1016=
201004300700 METAR LPPR 300700Z 00000KT 9999 FEW020 BKN030 14/13 Q1015=
201004300630 METAR LPPR 300630Z VRB01KT 9999 FEW020 BKN030 13/13 Q1015=
201004300600 METAR LPPR 300600Z 14001KT 9999 FEW020 BKN030 13/12 Q1015=
201004300530 METAR LPPR 300530Z 00000KT 9999 FEW020 BKN030 13/12 Q1015=
201004300500 METAR LPPR 300500Z 00000KT 9999 FEW020 BKN030 13/12 Q1015=
201004300430 METAR LPPR 300430Z 04004KT 010V070 9999 FEW020 SCT035 12/12
                        Q1015=
201004300400 METAR LPPR 300400Z 00000KT 9999 FEW020 SCT035 11/11 Q1016=
201004300330 METAR LPPR 300330Z 00000KT 9999 FEW020 SCT035 12/11 Q1016=
201004300300 METAR LPPR 300300Z 00000KT 9999 FEW025 SCT035 12/12 Q1016=
201004300230 METAR LPPR 300230Z 00000KT 9999 SCT025 SCT030 12/12 Q1016=
201004300200 METAR LPPR 300200Z 00000KT 9999 SCT027 SCT032 12/12 Q1016=
201004300130 METAR LPPR 300130Z 00000KT 9999 FEW025 SCT032 11/11 Q1017=
201004300100 METAR LPPR 300100Z 00000KT 9999 SCT032 12/11 Q1017=
201004300030 METAR LPPR 300030Z 00000KT 9999 SCT030 12/11 Q1017=
201004300000 METAR LPPR 300000Z 00000KT CAVOK 12/11 Q1017=
201004292330 METAR LPPR 292330Z 00000KT 9999 FEW014 13/12 Q1017=
201004292300 METAR LPPR 292300Z 00000KT 9999 FEW017 13/12 Q1017=
201004292230 METAR LPPR 292230Z 00000KT CAVOK 13/12 Q1018=
201004292200 METAR LPPR 292200Z 00000KT CAVOK 14/12 Q1018=
201004292130 METAR LPPR 292130Z 00000KT 9999 FEW015 14/12 Q1018=
201004292100 METAR LPPR 292100Z VRB03KT 9999 FEW015 SCT019 14/13 Q1018=
201004292030 METAR LPPR 292030Z 34004KT 9999 SCT015 14/12 Q1018=
201004292000 METAR LPPR 292000Z 33005KT 9999 SCT017 15/13 Q1017=
201004291930 METAR LPPR 291930Z 32007KT 9999 SCT017 16/12 Q1017=
201004291900 METAR LPPR 291900Z 31010KT 9999 SCT017 17/13 Q1017=
201004291830 METAR LPPR 291830Z 32010KT 9999 SCT017 17/13 Q1018=
201004291800 METAR LPPR 291800Z 32011KT 290V350 9999 BKN017 17/13 Q1018=
201004291730 METAR LPPR 291730Z 31012KT 9999 SCT020 18/13 Q1018=
201004291700 METAR LPPR 291700Z 31011KT 280V340 9999 FEW020 19/13 Q1018=
201004291630 METAR LPPR 291630Z 32011G21KT 280V350 9999 FEW015 19/13 Q1018=
201004291600 METAR LPPR 291600Z 31011KT 270V340 9999 SCT015 19/14 Q1018=
201004291530 METAR LPPR 291530Z 30012KT 9999 BKN015 19/14 Q1018=
201004291500 METAR LPPR 291500Z 31013KT 9999 BKN015 19/14 Q1018=
201004291430 METAR LPPR 291430Z 31012KT 9999 BKN015 19/15 Q1018=
201004291400 METAR LPPR 291400Z 32013KT 9999 BKN015 19/15 Q1018=
201004291330 METAR LPPR 291330Z 30011KT 270V330 9999 BKN012 19/16 Q1018=
201004291300 METAR LPPR 291300Z 31012KT 290V350 9999 BKN012 18/15 Q1018=
201004291230 METAR LPPR 291230Z 30012KT 270V340 9999 BKN012 19/16 Q1018=
201004291200 METAR LPPR 291200Z 29010KT 260V330 9999 FEW020 SCT250 19/15
                        Q1019=
201004291130 METAR LPPR 291130Z 29008KT 240V330 9999 FEW020 SCT250 19/15
                        Q1019=
201004291100 METAR LPPR 291100Z 32009KT 280V340 9999 FEW020 SCT250 19/15
                        Q1018=
201004291030 METAR LPPR 291030Z 30009KT 9999 FEW025 SCT030 19/15 Q1018=
201004291000 METAR LPPR 291000Z 30008KT 9999 FEW025 SCT030 18/15 Q1018=
201004290930 METAR LPPR 290930Z 30006KT 260V340 9999 FEW025 SCT030 18/15
                        Q1018=
201004290900 METAR LPPR 290900Z 31007KT 280V350 9999 SCT015 BKN030 18/15
                        Q1018=
201004290830 METAR LPPR 290830Z 31005KT 270V340 9999 SCT015 SCT025 18/15
                        Q1018=
201004290800 METAR LPPR 290800Z 33006KT 9999 SCT015 BKN200 18/15 Q1018=
201004290730 METAR LPPR 290730Z 32008KT 9999 FEW008 BKN017 17/15 Q1018=
201004290700 METAR LPPR 290700Z 32008KT 9999 SCT009 BKN015 16/15 Q1017=
201004290630 METAR LPPR 290630Z 32008KT 9999 SCT006 BKN008 16/15 Q1017=
201004290600 METAR LPPR 290600Z 32008KT 280V350 9999 SCT007 BKN011 16/15
                        Q1017=
201004290530 METAR LPPR 290530Z 33009KT 9999 SCT007 BKN010 16/15 Q1016=
201004290500 METAR LPPR 290500Z 33009KT 9999 SCT006 BKN008 16/15 Q1016=
201004290430 METAR LPPR 290430Z 32010KT 9000 SCT005 BKN007 16/15 Q1016=
201004290400 METAR LPPR 290400Z 33012KT 8000 SCT004 BKN006 17/15 Q1016=
201004290330 METAR LPPR 290330Z 31011KT 270V330 8000 FEW004 SCT006 BKN080
                        17/16 Q1016=
201004290300 METAR LPPR 290300Z 30005KT 270V330 9999 FEW017 SCT080 17/14
                        Q1016=
201004290230 METAR LPPR 290230Z 00000KT 9999 FEW017 BKN080 17/14 Q1015=
201004290200 METAR LPPR 290200Z 00000KT 9999 FEW017 BKN080 17/13 Q1015=
201004290130 METAR LPPR 290130Z 00000KT 9999 SCT017 BKN080 17/13 Q1015=
201004290100 METAR LPPR 290100Z 00000KT 9999 FEW017 BKN080 18/12 Q1016=
201004290030 METAR LPPR 290030Z 28006KT 9999 FEW017 BKN080 18/11 Q1016=
201004290000 METAR LPPR 290000Z 00000KT 9999 FEW017 FEW020CB SCT070 19/10
                        Q1016=
201004282330 METAR LPPR 282330Z 03006KT 360V070 9999 FEW017 FEW020CB SCT060
                        18/09 Q1016=
201004282300 METAR LPPR 282300Z 01004KT 340V040 9999 TS FEW017 FEW020CB
                        SCT060 17/09 Q1016=
201004282230 METAR LPPR 282230Z 01005KT 9999 FEW017 FEW020CB SCT060 18/10
                        Q1016=
201004282200 METAR LPPR 282200Z 34010KT 9999 TS FEW020 FEW025CB SCT070
                        18/11 Q1016=
201004282130 METAR LPPR 282130Z 33017KT 9999 FEW020 19/11 Q1016=
201004282100 METAR LPPR 282100Z 34016KT 9999 FEW020 SCT080 18/10 Q1016=
201004282030 METAR LPPR 282030Z 33017KT 9999 FEW020 BKN090 18/08 Q1016=
201004282000 METAR LPPR 282000Z 33015KT 9999 FEW020 BKN090 18/11 Q1016=
201004281930 METAR LPPR 281930Z 32016KT 290V350 9999 FEW020 BKN090 19/14
                        Q1015=
201004281900 METAR LPPR 281900Z 29010KT 9999 FEW020 BKN100 21/14 Q1014=
201004281830 METAR LPPR 281830Z 00000KT 8000 FEW020 BKN120 26/16 Q1014=
201004281800 METAR LPPR 281800Z 30001KT 9999 FEW020 SCT120 BKN200 26/16
                        Q1014=
201004281730 METAR LPPR 281730Z 00000KT 9999 FEW020 SCT140 BKN200 26/14
                        Q1014=
201004281700 METAR LPPR 281700Z VRB03KT 9999 FEW020 BKN200 26/12 Q1014=
201004281630 METAR LPPR 281630Z 36005KT 9999 FEW020 BKN200 26/12 Q1014=
201004281600 METAR LPPR 281600Z 34007KT 310V010 9999 FEW020 BKN200 25/11
                        Q1015=
201004281530 METAR LPPR 281530Z 34010KT 9999 FEW020 BKN200 24/08 Q1015=
201004281500 METAR LPPR 281500Z 33012KT 290V350 9999 FEW020 BKN250 24/11
                        Q1016=
201004281430 METAR LPPR 281430Z 32009KT 280V340 9999 FEW020 BKN250 25/15
                        Q1016=
201004281400 METAR LPPR 281400Z 32006KT 290V350 9999 FEW020 BKN250 27/16
                        Q1016=
201004281330 METAR LPPR 281330Z 32005KT 280V350 CAVOK 27/16 Q1016=
201004281300 METAR LPPR 281300Z 27005KT 210V360 CAVOK 27/17 Q1016=
201004281230 METAR LPPR 281230Z 29006KT 260V320 CAVOK 26/16 Q1016=
201004281200 METAR LPPR 281200Z 28007KT 200V010 8000 BKN250 25/17 Q1017=
201004281130 METAR LPPR 281130Z 27005KT 220V290 8000 BKN250 25/17 Q1017=
201004281100 METAR LPPR 281100Z VRB03KT 8000 BKN250 26/18 Q1017=
201004281030 METAR LPPR 281030Z 33004KT 270V360 8000 BKN250 25/18 Q1017=
201004281000 METAR LPPR 281000Z VRB03KT CAVOK 24/17 Q1018=
201004280930 METAR LPPR 280930Z 00000KT CAVOK 25/18 Q1018=
201004280900 METAR LPPR 280900Z 00000KT CAVOK 24/16 Q1018=
201004280830 METAR LPPR 280830Z 00000KT CAVOK 24/16 Q1018=
201004280800 METAR LPPR 280800Z 00000KT CAVOK 21/15 Q1018=
201004280730 METAR LPPR 280730Z 00000KT CAVOK 19/15 Q1018=
201004280700 METAR LPPR 280700Z 00000KT CAVOK 16/14 Q1018=
201004280630 METAR LPPR 280630Z 00000KT CAVOK 15/13 Q1017=
201004280600 METAR LPPR 280600Z 00000KT CAVOK 15/12 Q1017=
201004280530 METAR LPPR 280530Z 00000KT CAVOK 15/12 Q1017=
201004280500 METAR LPPR 280500Z 00000KT CAVOK 16/12 Q1017=
201004280430 METAR LPPR 280430Z 00000KT CAVOK 17/12 Q1017=
201004280400 METAR LPPR 280400Z 00000KT CAVOK 17/11 Q1018=
201004280330 METAR LPPR 280330Z 00000KT CAVOK 18/11 Q1018=
201004280300 METAR LPPR 280300Z 10004KT CAVOK 17/11 Q1018=
201004280230 METAR LPPR 280230Z VRB02KT CAVOK 16/09 Q1018=
201004280200 METAR LPPR 280200Z 00000KT CAVOK 17/10 Q1019=
201004280130 METAR LPPR 280130Z 10004KT CAVOK 17/08 Q1019=
201004280100 METAR LPPR 280100Z 00000KT CAVOK 16/11 Q1019=
201004280030 METAR LPPR 280030Z 00000KT CAVOK 17/11 Q1019=
201004280000 METAR LPPR 280000Z 00000KT CAVOK 17/11 Q1020=
201004272330 METAR LPPR 272330Z 00000KT CAVOK 17/11 Q1020=
201004272300 METAR LPPR 272300Z 02003KT CAVOK 17/12 Q1020=
201004272230 METAR LPPR 272230Z 36003KT CAVOK 18/13 Q1020=
201004272200 METAR LPPR 272200Z 30004KT 270V330 CAVOK 18/07 Q1020=
201004272130 METAR LPPR 272130Z 04004KT CAVOK 18/07 Q1020=
201004272100 METAR LPPR 272100Z 02003KT CAVOK 19/09 Q1020=
201004272030 METAR LPPR 272030Z VRB02KT CAVOK 19/09 Q1020=
201004272000 METAR LPPR 272000Z 00000KT CAVOK 20/09 Q1019=
201004271930 METAR LPPR 271930Z 02003KT CAVOK 21/08 Q1019=
201004271900 METAR LPPR 271900Z 35004KT CAVOK 21/09 Q1019=
201004271830 METAR LPPR 271830Z 33006KT CAVOK 23/10 Q1019=
201004271800 METAR LPPR 271800Z 33009KT CAVOK 25/09 Q1019=
201004271730 METAR LPPR 271730Z 31006KT CAVOK 27/09 Q1019=
201004271700 METAR LPPR 271700Z 30006KT CAVOK 27/10 Q1019=
201004271630 METAR LPPR 271630Z 32005KT 290V350 CAVOK 26/12 Q1019=
201004271600 METAR LPPR 271600Z 32006KT 290V350 CAVOK 25/13 Q1020=
201004271530 METAR LPPR 271530Z 32008KT CAVOK 26/11 Q1020=
201004271500 METAR LPPR 271500Z 33007KT CAVOK 27/13 Q1020=
201004271430 METAR LPPR 271430Z 30005KT 260V350 CAVOK 27/13 Q1020=
201004271400 METAR LPPR 271400Z 29005KT 250V330 CAVOK 27/13 Q1020=
201004271330 METAR LPPR 271330Z 28004KT 220V350 CAVOK 26/16 Q1021=
201004271300 METAR LPPR 271300Z 27006KT 240V310 CAVOK 25/15 Q1021=
201004271230 METAR LPPR 271230Z 27006KT 250V050 CAVOK 26/17 Q1021=
201004271200 METAR LPPR 271200Z 28004KT 230V010 CAVOK 26/17 Q1021=
201004271130 METAR LPPR 271130Z 28004KT CAVOK 25/17 Q1021=
201004271100 METAR LPPR 271100Z VRB02KT CAVOK 25/18 Q1022=
201004271030 METAR LPPR 271030Z 27004KT 240V300 CAVOK 24/17 Q1022=
201004271000 METAR LPPR 271000Z 00000KT CAVOK 26/17 Q1021=
201004270930 METAR LPPR 270930Z 00000KT CAVOK 25/16 Q1021=
201004270900 METAR LPPR 270900Z 00000KT CAVOK 23/15 Q1021=
201004270830 METAR LPPR 270830Z 10004KT 050V160 CAVOK 22/15 Q1021=
201004270800 METAR LPPR 270800Z VRB02KT CAVOK 19/14 Q1021=
201004270730 METAR LPPR 270730Z 13004KT 090V170 CAVOK 19/14 Q1021=
201004270700 METAR LPPR 270700Z VRB03KT CAVOK 16/14 Q1021=
201004270630 METAR LPPR 270630Z VRB02KT CAVOK 15/13 Q1021=
201004270600 METAR LPPR 270600Z 09003KT CAVOK 15/13 Q1021=
201004270530 METAR LPPR 270530Z 10005KT 8000 BKN250 15/13 Q1021=
201004270500 METAR LPPR 270500Z 00000KT 8000 SCT250 13/12 Q1021=
201004270430 METAR LPPR 270430Z 09004KT 8000 SCT250 14/13 Q1021=
201004270400 METAR LPPR 270400Z VRB01KT CAVOK 13/12 Q1021=
201004270330 METAR LPPR 270330Z 00000KT CAVOK 13/12 Q1021=
201004270300 METAR LPPR 270300Z 00000KT CAVOK 13/13 Q1021=
201004270230 METAR LPPR 270230Z 00000KT CAVOK 14/13 Q1021=
201004270200 METAR LPPR 270200Z 00000KT 9000 BKN250 14/13 Q1021=
201004270130 METAR LPPR 270130Z 00000KT 8000 BKN250 13/13 Q1022=
201004270100 METAR LPPR 270100Z 00000KT 8000 BKN250 14/13 Q1022=
201004270030 METAR LPPR 270030Z 00000KT 8000 BKN250 14/13 Q1022=
201004270000 METAR LPPR 270000Z 00000KT 9000 BKN250 14/14 Q1022=
201004262330 METAR LPPR 262330Z 04001KT CAVOK 15/14 Q1023=
201004262300 METAR LPPR 262300Z 04002KT 8000 FEW250 14/14 Q1023=
201004262230 METAR LPPR 262230Z 34002KT 8000 FEW250 15/13 Q1023=
201004262200 METAR LPPR 262200Z 35002KT CAVOK 15/14 Q1023=
201004262130 METAR LPPR 262130Z 36002KT CAVOK 16/14 Q1023=
201004262100 METAR LPPR 262100Z 34002KT CAVOK 16/14 Q1023=
201004262030 METAR LPPR 262030Z 35003KT CAVOK 17/14 Q1023=
201004262000 METAR LPPR 262000Z 35002KT CAVOK 17/14 Q1022=
201004261930 METAR LPPR 261930Z 33004KT CAVOK 18/14 Q1022=
201004261900 METAR LPPR 261900Z 32007KT 270V340 CAVOK 20/15 Q1022=
201004261830 METAR LPPR 261830Z 32005KT CAVOK 22/16 Q1022=
201004261800 METAR LPPR 261800Z 32007KT CAVOK 22/15 Q1022=
201004261730 METAR LPPR 261730Z 31007KT CAVOK 22/16 Q1022=
201004261700 METAR LPPR 261700Z 31007KT CAVOK 23/16 Q1022=
201004261630 METAR LPPR 261630Z 27006KT CAVOK 24/16 Q1022=
201004261600 METAR LPPR 261600Z 31006G16KT 280V010 CAVOK 24/15 Q1022=
201004261530 METAR LPPR 261530Z 30005KT 260V340 CAVOK 23/16 Q1022=
201004261500 METAR LPPR 261500Z 30005KT 250V360 CAVOK 24/16 Q1022=
201004261430 METAR LPPR 261430Z 27005KT CAVOK 23/16 Q1023=
201004261400 METAR LPPR 261400Z 27006KT 220V310 CAVOK 23/17 Q1023=
201004261330 METAR LPPR 261330Z 29006KT 260V340 CAVOK 22/17 Q1023=
201004261300 METAR LPPR 261300Z 27005KT 220V300 CAVOK 22/18 Q1023=
201004261230 METAR LPPR 261230Z 29005KT CAVOK 21/17 Q1023=
201004261200 METAR LPPR 261200Z 27004KT 230V320 CAVOK 21/17 Q1023=
201004261130 METAR LPPR 261130Z 28005G15KT 230V350 CAVOK 20/17 Q1023=
201004261100 METAR LPPR 261100Z 28007KT CAVOK 21/17 Q1023=
201004261030 METAR LPPR 261030Z 26005KT 210V290 CAVOK 23/17 Q1023=
201004261000 METAR LPPR 261000Z VRB01KT CAVOK 23/16 Q1023=
201004260930 METAR LPPR 260930Z 12004KT 070V160 CAVOK 21/16 Q1023=
201004260900 METAR LPPR 260900Z 00000KT CAVOK 20/16 Q1024=
201004260830 METAR LPPR 260830Z VRB02KT CAVOK 18/15 Q1024=
201004260800 METAR LPPR 260800Z VRB03KT CAVOK 17/15 Q1024=
201004260730 METAR LPPR 260730Z 00000KT CAVOK 15/15 Q1024=
201004260700 METAR LPPR 260700Z 00000KT CAVOK 13/13 Q1024=
201004260630 METAR LPPR 260630Z 00000KT CAVOK 12/11 Q1024=
201004260600 METAR LPPR 260600Z 00000KT CAVOK 13/12 Q1023=
201004260530 METAR LPPR 260530Z 00000KT CAVOK 13/12 Q1023=
201004260500 METAR LPPR 260500Z VRB02KT CAVOK 14/13 Q1023=
201004260430 METAR LPPR 260430Z 12003KT CAVOK 13/12 Q1023=
201004260400 METAR LPPR 260400Z VRB01KT CAVOK 13/12 Q1023=
201004260330 METAR LPPR 260330Z 11001KT CAVOK 13/12 Q1023=
201004260300 METAR LPPR 260300Z 00000KT CAVOK 14/13 Q1023=
201004260230 METAR LPPR 260230Z VRB03KT CAVOK 14/13 Q1023=
201004260200 METAR LPPR 260200Z VRB02KT CAVOK 14/13 Q1023=
201004260130 METAR LPPR 260130Z 00000KT CAVOK 13/12 Q1023=
201004260100 METAR LPPR 260100Z 00000KT CAVOK 14/13 Q1023=
201004260030 METAR LPPR 260030Z 00000KT CAVOK 14/13 Q1023=
201004260000 METAR LPPR 260000Z 11003KT CAVOK 14/13 Q1023=
201004252330 METAR LPPR 252330Z 00000KT CAVOK 14/13 Q1023=
201004252300 METAR LPPR 252300Z 00000KT CAVOK 14/13 Q1024=
201004252230 METAR LPPR 252230Z 00000KT CAVOK 15/13 Q1024=
201004252200 METAR LPPR 252200Z 00000KT CAVOK 15/13 Q1024=
201004252130 METAR LPPR 252130Z 00000KT CAVOK 15/13 Q1024=
201004252100 METAR LPPR 252100Z VRB03KT CAVOK 16/13 Q1024=
201004252030 METAR LPPR 252030Z 32005KT CAVOK 16/13 Q1023=
201004252000 METAR LPPR 252000Z 33004KT CAVOK 17/14 Q1023=
201004251930 METAR LPPR 251930Z 33009KT CAVOK 17/14 Q1023=
201004251900 METAR LPPR 251900Z 34008KT CAVOK 18/14 Q1023=
201004251830 METAR LPPR 251830Z 34010KT CAVOK 19/14 Q1022=
201004251800 METAR LPPR 251800Z 32009KT CAVOK 20/15 Q1022=
201004251730 METAR LPPR 251730Z 32010KT CAVOK 21/14 Q1022=
201004251700 METAR LPPR 251700Z 33009KT CAVOK 21/14 Q1022=
201004251630 METAR LPPR 251630Z 32009KT CAVOK 21/15 Q1022=
201004251600 METAR LPPR 251600Z 34011KT CAVOK 21/14 Q1022=
201004251530 METAR LPPR 251530Z 32013KT CAVOK 22/14 Q1023=
201004251500 METAR LPPR 251500Z 32012KT CAVOK 22/14 Q1022=
201004251430 METAR LPPR 251430Z 32011KT 290V350 CAVOK 22/15 Q1022=
201004251400 METAR LPPR 251400Z 32013KT CAVOK 21/14 Q1023=
201004251330 METAR LPPR 251330Z 32012KT CAVOK 21/15 Q1023=
201004251300 METAR LPPR 251300Z 31011KT 9999 FEW018 SCT250 21/15 Q1022=
201004251230 METAR LPPR 251230Z 30011KT 9999 FEW018 20/16 Q1023=
201004251200 METAR LPPR 251200Z 31009KT 9999 FEW018 BKN250 21/16 Q1023=
201004251130 METAR LPPR 251130Z 30008KT 270V330 9999 FEW018 BKN250 21/16
                        Q1023=
201004251100 METAR LPPR 251100Z 30007KT 270V330 9999 FEW018 SCT250 21/16
                        Q1023=
201004251030 METAR LPPR 251030Z 30007KT 270V340 9999 SCT018 SCT250 20/16
                        Q1023=
201004251000 METAR LPPR 251000Z 35004KT 320V050 9999 SCT020 20/16 Q1023=
201004250930 METAR LPPR 250930Z 34006KT 310V040 9999 FEW020 19/15 Q1023=
201004250900 METAR LPPR 250900Z 34006KT 9999 FEW020 19/15 Q1023=
201004250830 METAR LPPR 250830Z VRB03KT 9999 FEW020 18/15 Q1023=
201004250800 METAR LPPR 250800Z VRB01KT 9999 FEW020 17/15 Q1023=
201004250730 METAR LPPR 250730Z 00000KT 9999 FEW020 16/15 Q1023=
201004250700 METAR LPPR 250700Z 00000KT 7000 FEW080 14/14 Q1023=
201004250630 METAR LPPR 250630Z 00000KT 5000 BR FEW080 14/13 Q1022=
201004250600 METAR LPPR 250600Z 00000KT 5000 BR FEW080 13/13 Q1022=
201004250530 METAR LPPR 250530Z 06003KT 8000 FEW017 14/13 Q1022=
201004250500 METAR LPPR 250500Z 02002KT 7000 SCT017 14/13 Q1022=
201004250430 METAR LPPR 250430Z 00000KT 7000 SCT017 BKN025 15/13 Q1022=
201004250400 METAR LPPR 250400Z 00000KT 7000 SCT017 BKN025 15/14 Q1022=
201004250330 METAR LPPR 250330Z 00000KT 9000 SCT017 BKN025 16/15 Q1021=
201004250300 METAR LPPR 250300Z 00000KT 9000 OVC017 16/15 Q1021=
201004250230 METAR LPPR 250230Z 00000KT 9999 OVC017 16/15 Q1021=
201004250200 METAR LPPR 250200Z 00000KT 9999 BKN017 16/15 Q1021=
201004250130 METAR LPPR 250130Z VRB03KT 9999 BKN017 16/15 Q1021=
201004250100 METAR LPPR 250100Z VRB02KT 9999 FEW013 BKN020 16/15 Q1022=
201004250030 METAR LPPR 250030Z 05001KT 9999 FEW013 BKN020 16/14 Q1022=
201004250000 METAR LPPR 250000Z VRB02KT 9999 FEW013 SCT025 16/15 Q1021=
201004242330 METAR LPPR 242330Z VRB02KT 9999 FEW011 BKN025 17/15 Q1021=
201004242300 METAR LPPR 242300Z 13005KT 110V170 9999 FEW009 SCT011 BKN025
                        17/15 Q1021=
201004242230 METAR LPPR 242230Z 17004KT 9999 SCT013 BKN020 16/15 Q1022=
201004242200 METAR LPPR 242200Z 12002KT 9999 FEW012 SCT030 16/15 Q1021=
201004242130 METAR LPPR 242130Z 00000KT 9999 SCT012 SCT040 16/15 Q1021=
201004242100 METAR LPPR 242100Z 00000KT 9999 FEW012 SCT040 16/15 Q1021=
201004242030 METAR LPPR 242030Z 00000KT 9999 FEW012 SCT040 17/15 Q1021=
201004242000 METAR LPPR 242000Z VRB02KT 9999 FEW011 SCT017 17/15 Q1020=
201004241930 METAR LPPR 241930Z 23003KT 9999 FEW011 SCT017 17/15 Q1020=
201004241900 METAR LPPR 241900Z VRB04KT 9999 FEW011 SCT017 17/15 Q1020=
201004241830 METAR LPPR 241830Z 25004KT 200V290 9999 FEW012 19/15 Q1019=
201004241800 METAR LPPR 241800Z 24005KT 170V260 9999 FEW012 19/15 Q1019=
201004241730 METAR LPPR 241730Z 23006KT 190V260 9999 FEW012 SCT070 19/15
                        Q1019=
201004241700 METAR LPPR 241700Z 24007KT 190V280 9999 FEW012 19/15 Q1019=
201004241630 METAR LPPR 241630Z 23008G19KT 190V260 9999 FEW012 19/15 Q1018=
201004241600 METAR LPPR 241600Z 22010KT 200V270 9999 FEW020 SCT250 19/15
                        Q1018=
201004241530 METAR LPPR 241530Z 23008KT 200V270 9999 FEW020 SCT250 20/15
                        Q1018=
201004241500 METAR LPPR 241500Z 22010KT 9999 FEW020 SCT080 19/15 Q1018=
201004241430 METAR LPPR 241430Z 23009KT 200V260 9999 FEW020 SCT080 20/15
                        Q1018=
201004241400 METAR LPPR 241400Z 22010KT 190V250 9999 FEW017 BKN040 19/15
                        Q1018=
201004241330 METAR LPPR 241330Z 20010KT 170V240 9999 FEW020 SCT100 20/15
                        Q1018=
201004241300 METAR LPPR 241300Z 21011KT 180V240 9999 FEW019 SCT110 20/15
                        Q1018=
201004241230 METAR LPPR 241230Z 20010KT 170V230 9999 FEW025 SCT080 19/14
                        Q1018=
201004241200 METAR LPPR 241200Z 21010KT 9999 FEW025 SCT080 19/14 Q1018=
201004241130 METAR LPPR 241130Z 18009KT 9999 FEW020 SCT100 19/14 Q1018=
201004241100 METAR LPPR 241100Z 20008KT 160V230 9999 FEW020 SCT070 19/13
                        Q1018=
201004241030 METAR LPPR 241030Z 19008KT 160V220 9999 FEW020 SCT100 19/12
                        Q1018=
201004241000 METAR LPPR 241000Z 21007KT 160V240 9999 FEW020 SCT250 18/12
                        Q1018=
201004240930 METAR LPPR 240930Z 16005KT 100V220 9999 FEW020 SCT250 18/12
                        Q1017=
201004240900 METAR LPPR 240900Z 14006KT 100V160 9999 FEW020 BKN250 17/12
                        Q1017=
201004240830 METAR LPPR 240830Z 14006KT 9999 FEW017 SCT250 16/13 Q1017=
201004240800 METAR LPPR 240800Z 12006KT 9999 FEW017 SCT250 15/12 Q1017=
201004240730 METAR LPPR 240730Z 11004KT 070V150 9999 FEW017 SCT250 13/12
                        Q1017=
201004240700 METAR LPPR 240700Z 11007KT 9999 FEW017 SCT250 12/11 Q1016=
201004240630 METAR LPPR 240630Z 11007KT CAVOK 12/11 Q1016=
201004240600 METAR LPPR 240600Z VRB03KT CAVOK 12/11 Q1016=
201004240530 METAR LPPR 240530Z 10006KT CAVOK 12/11 Q1016=
201004240500 METAR LPPR 240500Z 10006KT CAVOK 12/11 Q1015=
201004240430 METAR LPPR 240430Z 11007KT 8000 FEW020 12/11 Q1016=
201004240400 METAR LPPR 240400Z 11004KT 8000 FEW020 12/11 Q1016=
201004240330 METAR LPPR 240330Z 11006KT 8000 SKC 13/11 Q1016=
201004240300 METAR LPPR 240300Z 11006KT CAVOK 13/11 Q1016=
201004240230 METAR LPPR 240230Z 10006KT 8000 FEW020 13/12 Q1016=
201004240200 METAR LPPR 240200Z 10002KT 8000 FEW020 12/11 Q1016=
201004240130 METAR LPPR 240130Z 00000KT 8000 FEW016 13/12 Q1016=
201004240100 METAR LPPR 240100Z 00000KT 8000 FEW020 13/12 Q1016=
201004240030 METAR LPPR 240030Z 00000KT 9999 FEW017 13/12 Q1016=
201004240000 METAR LPPR 240000Z 00000KT 9999 FEW017 13/12 Q1016=
201004232330 METAR LPPR 232330Z 00000KT CAVOK 13/12 Q1016=
201004232300 METAR LPPR 232300Z 00000KT CAVOK 13/12 Q1016=
201004232230 METAR LPPR 232230Z 00000KT CAVOK 13/11 Q1016=
201004232200 METAR LPPR 232200Z 00000KT CAVOK 14/12 Q1016=
201004232130 METAR LPPR 232130Z 00000KT CAVOK 14/12 Q1016=
201004232100 METAR LPPR 232100Z 00000KT CAVOK 15/12 Q1016=
201004232030 METAR LPPR 232030Z 31003KT CAVOK 15/12 Q1015=
201004232000 METAR LPPR 232000Z 31003KT 9999 FEW020 SCT250 15/12 Q1015=
201004231930 METAR LPPR 231930Z 31004KT 250V010 9999 FEW020 SCT250 16/12
                        Q1015=
201004231900 METAR LPPR 231900Z 31005KT 270V330 9999 FEW020 SCT250 17/12
                        Q1014=
201004231830 METAR LPPR 231830Z 32005KT 230V010 9999 FEW018 SCT250 17/12
                        Q1014=
201004231800 METAR LPPR 231800Z 34004KT 280V010 9999 FEW018 SCT250 18/12
                        Q1014=
201004231730 METAR LPPR 231730Z 28006KT 260V320 9999 FEW018 SCT250 18/12
                        Q1015=
201004231700 METAR LPPR 231700Z 30005KT 230V350 9999 FEW018 SCT250 18/12
                        Q1015=
201004231630 METAR LPPR 231630Z 28005KT 240V330 9999 FEW018 BKN250 18/13
                        Q1014=
201004231600 METAR LPPR 231600Z 27006KT 190V300 9999 FEW018 SCT040 BKN250
                        18/13 Q1015=
201004231530 METAR LPPR 231530Z 27007KT 250V320 9999 FEW018 SCT040 BKN250
                        18/12 Q1015=
201004231500 METAR LPPR 231500Z 29007KT 250V320 9999 FEW018 SCT040 19/12
                        Q1014=
201004231430 METAR LPPR 231430Z 29007KT 250V330 9999 FEW018 SCT040 19/12
                        Q1014=
201004231400 METAR LPPR 231400Z 27008G19KT 220V320 9999 FEW018 SCT040
                        19/12 Q1015=
201004231330 METAR LPPR 231330Z 28006KT 260V320 9999 FEW018 BKN040 18/12
                        Q1014=
201004231300 METAR LPPR 231300Z 29004KT 240V350 9999 SCT018 BKN040 18/13
                        Q1014=
201004231230 METAR LPPR 231230Z VRB03KT 9999 SCT018 BKN040 18/13 Q1014=
201004231200 METAR LPPR 231200Z VRB02KT 9999 SCT018 BKN040 18/13 Q1014=
201004231130 METAR LPPR 231130Z VRB03KT 9999 SCT013 BKN043 17/14 Q1015=
201004231100 METAR LPPR 231100Z 35004KT 300V060 9999 SCT012 SCT020 BKN040
                        17/14 Q1015=
201004231030 METAR LPPR 231030Z 34005KT 300V040 9999 BKN012 SCT025 17/14
                        Q1014=
201004231000 METAR LPPR 231000Z 35005KT 9999 SCT012 SCT020 BKN040 16/14
                        Q1014=
201004230930 METAR LPPR 230930Z 36005KT 9999 FEW010 SCT012 BKN030 16/14
                        Q1014=
201004230900 METAR LPPR 230900Z 32007KT 290V350 9999 SCT010 BKN030 16/13
                        Q1014=
201004230830 METAR LPPR 230830Z 31006KT 9999 FEW017 BKN030 16/13 Q1014=
201004230800 METAR LPPR 230800Z VRB03KT 9999 FEW017 BKN030 15/13 Q1013=
201004230730 METAR LPPR 230730Z 01003KT 9999 FEW020 BKN030 15/13 Q1013=
201004230700 METAR LPPR 230700Z 35003KT 9999 FEW009 SCT012 BKN025 15/13
                        Q1013=
201004230630 METAR LPPR 230630Z 36002KT 9999 FEW015 BKN020 15/13 Q1013=
201004230600 METAR LPPR 230600Z 35003KT 9999 FEW015 BKN020 15/13 Q1013=
201004230530 METAR LPPR 230530Z VRB03KT 9999 FEW015 BKN020 15/13 Q1012=
201004230500 METAR LPPR 230500Z 35004KT 9999 FEW015 BKN020 15/13 Q1012=
201004230430 METAR LPPR 230430Z 34002KT 9999 FEW015 BKN020 15/14 Q1012=
201004230400 METAR LPPR 230400Z 01003KT 9999 FEW009 BKN020 15/14 Q1012=
201004230330 METAR LPPR 230330Z 01002KT 9999 FEW015 BKN020 15/13 Q1012=
201004230300 METAR LPPR 230300Z 35003KT 9999 FEW013 BKN020 15/13 Q1012=
201004230230 METAR LPPR 230230Z 33003KT 9999 FEW009 SCT015 BKN020 15/13
                        Q1012=
201004230200 METAR LPPR 230200Z 34004KT 9999 FEW009 SCT015 BKN020 15/13
                        Q1012=
201004230130 METAR LPPR 230130Z 35002KT 9999 FEW009 SCT015 BKN020 15/13
                        Q1012=
201004230100 METAR LPPR 230100Z 36003KT 9999 FEW009 SCT015 BKN019 15/14
                        Q1012=
201004230030 METAR LPPR 230030Z 36004KT 330V040 9999 SCT009 SCT013 BKN019
                        16/14 Q1012=
201004230000 METAR LPPR 230000Z 32004KT 280V020 9999 SCT009 SCT013 BKN019
                        16/14 Q1012=
201004222330 METAR LPPR 222330Z 32005KT 9999 SCT009 BKN017 16/14 Q1012=
201004222300 METAR LPPR 222300Z 32006KT 9999 FEW009 BKN030 16/14 Q1012=
201004222230 METAR LPPR 222230Z 32006KT 280V350 9999 FEW009 BKN030 16/13
                        Q1012=
201004222200 METAR LPPR 222200Z 32006KT 280V350 9999 FEW009 BKN030 16/13
                        Q1013=
201004222130 METAR LPPR 222130Z 33006KT 9999 FEW009 BKN030 16/13 Q1013=
201004222100 METAR LPPR 222100Z 32006KT 270V350 9999 SCT015 BKN017 16/13
                        Q1012=
201004222030 METAR LPPR 222030Z 32007KT 290V010 9999 FEW009 BKN016 16/14
                        Q1012=
201004222000 METAR LPPR 222000Z 31007KT 240V340 9999 FEW009 BKN025 16/13
                        Q1012=
201004221930 METAR LPPR 221930Z 32007KT 9999 FEW009 BKN015 17/14 Q1012=
201004221900 METAR LPPR 221900Z 33009KT 270V350 9999 SCT012 BKN017 17/14
                        Q1011=
201004221830 METAR LPPR 221830Z 32009KT 280V340 9999 SCT014 17/14 Q1011=
201004221800 METAR LPPR 221800Z 32009KT 9999 SCT014 17/14 Q1011=
201004221730 METAR LPPR 221730Z 33010KT 280V010 9999 FEW008 BKN015 18/15
                        Q1011=
201004221700 METAR LPPR 221700Z 31010KT 280V350 9999 FEW008 BKN015 18/15
                        Q1010=
201004221630 METAR LPPR 221630Z 32010KT 9999 FEW008 SCT017 19/15 Q1010=
201004221600 METAR LPPR 221600Z 31009KT 280V350 9999 FEW009 SCT016 19/15
                        Q1010=
201004221530 METAR LPPR 221530Z 31010KT 280V340 9999 FEW009 SCT017 19/15
                        Q1010=
201004221500 METAR LPPR 221500Z 29011KT 260V320 9999 FEW008 SCT017 FEW025CB
                        19/15 Q1010=
201004221430 METAR LPPR 221430Z 29008KT 250V330 9999 FEW020 FEW025CB 20/16
                        Q1010=
201004221400 METAR LPPR 221400Z 27008KT 240V340 9999 SCT020 FEW025CB 20/14
                        Q1010=
201004221330 METAR LPPR 221330Z 28011KT 250V310 9999 SCT020 FEW025CB 20/14
                        Q1010=
201004221300 METAR LPPR 221300Z 28010KT 260V320 9999 SCT020 FEW025CB 20/14
                        Q1010=
201004221230 METAR LPPR 221230Z 28010KT 9999 SCT020 FEW025CB 20/14 Q1010=
201004221200 METAR LPPR 221200Z 30009KT 260V320 9999 SCT020 FEW025CB 20/14
                        Q1010=
201004221130 METAR LPPR 221130Z 32006KT 260V360 9999 SCT020 FEW025CB 21/14
                        Q1010=
201004221100 METAR LPPR 221100Z VRB04KT 9999 SCT020 21/14 Q1011=
201004221030 METAR LPPR 221030Z 35004KT 320V020 9999 SCT020 SCT090 20/14
                        Q1011=
201004221000 METAR LPPR 221000Z 32005KT 290V350 9999 SCT020 SCT090 19/15
                        Q1011=
201004220930 METAR LPPR 220930Z 31005KT 260V010 9999 FEW020 SCT090 19/14
                        Q1011=
201004220900 METAR LPPR 220900Z 00000KT 9999 FEW020 BKN100 19/13 Q1010=
201004220830 METAR LPPR 220830Z 00000KT 9999 FEW025 BKN100 17/13 Q1010=
201004220800 METAR LPPR 220800Z 00000KT 9999 FEW025 BKN100 16/13 Q1010=
201004220730 METAR LPPR 220730Z VRB01KT 9999 FEW025 BKN090 16/13 Q1010=
201004220700 METAR LPPR 220700Z 07003KT 9999 FEW025 BKN090 15/13 Q1010=
201004220630 METAR LPPR 220630Z VRB02KT 9999 FEW025 BKN090 15/13 Q1010=
201004220600 METAR LPPR 220600Z VRB03KT 9999 FEW040 BKN090 14/13 Q1009=
201004220530 METAR LPPR 220530Z 04003KT 9999 FEW030 BKN090 14/13 Q1009=
201004220500 METAR LPPR 220500Z 00000KT CAVOK 14/13 Q1009=
201004220430 METAR LPPR 220430Z VRB02KT CAVOK 15/13 Q1009=
201004220400 METAR LPPR 220400Z 00000KT 9999 FEW030 SCT080 15/13 Q1009=
201004220330 METAR LPPR 220330Z 00000KT 9999 FEW017 SCT030 BKN070 15/13
                        Q1009=
201004220300 METAR LPPR 220300Z 00000KT 9999 SCT030 SCT070 16/14 Q1009=
201004220230 METAR LPPR 220230Z VRB01KT 9999 FEW020CB SCT030 BKN070 16/13
                        Q1010=
201004220200 METAR LPPR 220200Z 09004KT 050V140 9999 FEW017 FEW025CB BKN070
                        16/14 Q1010=
201004220130 METAR LPPR 220130Z VRB03KT 9999 SCT017 FEW025CB SCT030 16/14
                        Q1010=
201004220100 METAR LPPR 220100Z 08004KT 040V160 9999 -SHRA FEW017 FEW025CB
                        BKN035 16/14 Q1010=
201004220030 METAR LPPR 220030Z 12003KT 9999 -TSRA FEW017 SCT025CB BKN035
                        17/14 Q1010=
201004220000 METAR LPPR 220000Z 18007KT 9999 TS FEW017 SCT025CB BKN035
                        17/15 Q1010=
201004212330 METAR LPPR 212330Z VRB03KT 9999 FEW017 FEW025CB BKN035 17/15
                        Q1010=
201004212300 METAR LPPR 212300Z 17008KT 9999 FEW017 FEW025CB BKN035 17/15
                        Q1010=
201004212230 METAR LPPR 212230Z 00000KT 9000 TS FEW017 FEW025CB BKN035
                        17/14 Q1010=
201004212200 METAR LPPR 212200Z 00000KT 9999 TS FEW017 SCT020CB SCT040
                        BKN070 16/14 Q1011=
201004212130 METAR LPPR 212130Z 00000KT 9000 TS FEW017 SCT020CB SCT070
                        BKN200 16/15 Q1011=
201004212100 METAR LPPR 212100Z VRB02KT 9000 TS FEW017 SCT020CB SCT080
                        17/14 Q1010=
201004212030 METAR LPPR 212030Z 33003KT 9999 FEW017 FEW020CB SCT080 17/14
                        Q1010=
201004212000 METAR LPPR 212000Z 03001KT 9999 SCT020 FEW025CB SCT080 18/14
                        Q1010=
201004211930 METAR LPPR 211930Z 00000KT 9999 FEW020 SCT025CB BKN070 18/14
                        Q1010=
201004211900 METAR LPPR 211900Z 33004KT 270V350 9999 FEW020 FEW025CB BKN070
                        19/14 Q1009=
201004211830 METAR LPPR 211830Z VRB03KT 9999 FEW020 FEW025CB BKN070 20/13
                        Q1009=
201004211800 METAR LPPR 211800Z VRB02KT 9999 FEW020 FEW025CB BKN060 20/14
                        Q1009=
201004211730 METAR LPPR 211730Z VRB03KT 9999 FEW020 FEW025CB BKN060 21/14
                        Q1009=
201004211700 METAR LPPR 211700Z 26004G14KT 210V320 9999 FEW020 FEW025CB
                        SCT070 21/14 Q1009=
201004211630 METAR LPPR 211630Z 26004KT 220V300 9999 FEW020 FEW025CB SCT070
                        21/15 Q1009=
201004211600 METAR LPPR 211600Z 26005KT 220V330 9999 FEW025 SCT070 20/15
                        Q1009=
201004211530 METAR LPPR 211530Z 25006KT 220V280 9999 FEW025 BKN070 21/14
                        Q1009=
201004211500 METAR LPPR 211500Z 24005KT 190V300 9999 FEW020 BKN060 21/14
                        Q1010=
201004211430 METAR LPPR 211430Z 22007KT 180V260 9999 SCT020 FEW025TCU
                        BKN070 21/14 Q1010=
201004211400 METAR LPPR 211400Z 24007KT 200V280 9999 SCT020 FEW025TCU
                        BKN070 21/15 Q1010=
201004211330 METAR LPPR 211330Z 23007KT 200V260 9999 SCT025 SCT070 22/15
                        Q1010=
201004211300 METAR LPPR 211300Z 21008KT 170V280 9999 SCT025 SCT070 22/14
                        Q1011=
201004211230 METAR LPPR 211230Z 21010KT 180V240 9999 SCT020 BKN080 21/14
                        Q1011=
201004211200 METAR LPPR 211200Z 19013KT 9999 SCT019 SCT080 22/15 Q1011=
201004211130 METAR LPPR 211130Z VRB03KT 9999 SCT019 SCT080 22/16 Q1011=
201004211100 METAR LPPR 211100Z 06004KT 010V110 9999 FEW025 SCT040 BKN070
                        20/17 Q1011=
201004211030 METAR LPPR 211030Z 03003KT 8000 -SHRA FEW025 SCT040 BKN070
                        19/16 Q1012=
201004211000 METAR LPPR 211000Z VRB01KT 9999 FEW025 SCT040 BKN070 18/16
                        Q1011=
201004210930 METAR LPPR 210930Z 03004KT 350V050 9999 FEW025 SCT040 BKN070
                        18/16 Q1011=
201004210900 METAR LPPR 210900Z VRB03KT 8000 -RA FEW025 SCT040 BKN080
                        18/16 Q1012=
201004210830 METAR LPPR 210830Z VRB02KT 9999 FEW025 SCT040 BKN080 17/16
                        Q1012=
201004210800 METAR LPPR 210800Z 00000KT 8000 -RA FEW025 SCT040 BKN080
                        17/16 Q1011=
201004210730 METAR LPPR 210730Z VRB02KT 9999 FEW025 SCT040 BKN080 17/16
                        Q1011=
201004210700 METAR LPPR 210700Z 14007KT 9999 FEW025 SCT040 BKN070 17/15
                        Q1011=
201004210630 METAR LPPR 210630Z 11006KT 9999 SCT040 BKN060 17/15 Q1011=
201004210600 METAR LPPR 210600Z 09005KT 060V120 9999 SCT040 BKN060 16/15
                        Q1011 RERA=
201004210530 METAR LPPR 210530Z VRB02KT 9999 FEW017 SCT035 BKN080 16/15
                        Q1010=
201004210500 METAR LPPR 210500Z VRB01KT 9999 FEW017 SCT035 BKN080 16/15
                        Q1010=
201004210430 METAR LPPR 210430Z 02004KT 350V060 9999 SCT017 SCT035 BKN080
                        16/15 Q1011=
201004210400 METAR LPPR 210400Z 09004KT 050V130 9999 SCT017 SCT035 BKN080
                        17/15 Q1011=
201004210330 METAR LPPR 210330Z 11005KT 080V140 9999 SCT017 SCT035 BKN080
                        17/15 Q1011=
201004210300 METAR LPPR 210300Z 09004KT 040V120 9999 FEW017 SCT035 BKN080
                        17/15 Q1011=
201004210230 METAR LPPR 210230Z 08004KT 030V140 9999 FEW017 SCT035 BKN080
                        16/15 Q1011=
201004210200 METAR LPPR 210200Z VRB03KT 9999 FEW017 SCT035 BKN080 16/16
                        Q1012=
201004210130 METAR LPPR 210130Z 07002KT 9999 FEW017 SCT035 BKN080 16/16
                        Q1012=
201004210100 METAR LPPR 210100Z 00000KT 9999 FEW017 SCT035 BKN080 16/16
                        Q1013=
201004210030 METAR LPPR 210030Z VRB02KT 9999 FEW017 SCT035 BKN070 16/16
                        Q1013=
201004210000 METAR LPPR 210000Z VRB03KT 8000 -RA FEW017 SCT035 BKN070
                        16/16 Q1014=
201004202330 METAR LPPR 202330Z 10004KT 060V130 8000 -RA FEW017 BKN025
                        BKN060 16/15 Q1014 RERA=
201004202300 METAR LPPR 202300Z 12005KT 8000 RA FEW017 BKN025 BKN060 16/15
                        Q1014=
201004202230 METAR LPPR 202230Z 00000KT 8000 SHRA SCT017 SCT025 BKN060
                        16/15 Q1014=
201004202200 METAR LPPR 202200Z VRB01KT 8000 SHRA SCT017 SCT025 BKN070
                        17/14 Q1014=
201004202130 METAR LPPR 202130Z 23012G27KT 190V260 6000 SHRA FEW006 SCT017
                        BKN040 18/15 Q1015 WS ALL RWY=
201004202100 METAR LPPR 202100Z 32003KT 9999 -RA SCT040 BKN080 19/12 Q1013=
201004202030 METAR LPPR 202030Z 33004KT 9999 SCT045 BKN080 19/12 Q1013=
201004202000 METAR LPPR 202000Z 36006KT 9999 SCT045 BKN080 19/11 Q1012=
201004201930 METAR LPPR 201930Z 34005KT 9999 FEW025 SCT045 BKN080 19/13
                        Q1013=
201004201900 METAR LPPR 201900Z 34004KT 9999 FEW025 SCT045 BKN080 20/14
                        Q1013=
201004201830 METAR LPPR 201830Z 32004KT 9999 FEW025 BKN080 21/12 Q1013=
201004201800 METAR LPPR 201800Z 33006KT 9999 FEW025 BKN080 21/12 Q1013=
201004201730 METAR LPPR 201730Z 33007KT 290V350 9999 FEW025 BKN080 22/12
                        Q1013=
201004201700 METAR LPPR 201700Z 31007KT 9999 FEW025 BKN080 22/12 Q1013=
201004201630 METAR LPPR 201630Z 31006KT 9999 FEW025 BKN080 23/12 Q1013=
201004201600 METAR LPPR 201600Z 28006KT 9999 FEW025 BKN080 23/13 Q1013=
201004201530 METAR LPPR 201530Z 31004KT 270V340 9999 FEW025 SCT080 BKN250
                        24/13 Q1013=
201004201500 METAR LPPR 201500Z 31006KT 280V350 9999 FEW025 SCT070 BKN250
                        23/13 Q1014=
201004201430 METAR LPPR 201430Z 30006KT 270V340 9999 FEW025 SCT080 BKN250
                        23/13 Q1014=
201004201400 METAR LPPR 201400Z 30004KT 260V340 9999 FEW025 SCT070 BKN250
                        23/14 Q1014=
201004201330 METAR LPPR 201330Z 26005KT 230V330 9999 SCT030 BKN070 23/13
                        Q1015=
201004201300 METAR LPPR 201300Z VRB02KT 9999 SCT025 BKN070 23/14 Q1015=
201004201230 METAR LPPR 201230Z VRB02KT 9999 SCT025 BKN070 24/13 Q1015=
201004201200 METAR LPPR 201200Z VRB02KT 9999 FEW020 BKN070 23/13 Q1015=
201004201130 METAR LPPR 201130Z VRB03KT 9999 FEW020 BKN070 BKN250 23/13
                        Q1015=
201004201100 METAR LPPR 201100Z VRB03KT 9999 FEW045 SCT070 BKN250 22/13
                        Q1016=
201004201030 METAR LPPR 201030Z 14005KT 100V190 9999 FEW045 SCT070 BKN250
                        21/13 Q1016=
201004201000 METAR LPPR 201000Z 13006KT 100V160 9999 FEW040 BKN070 BKN200
                        20/13 Q1016=
201004200930 METAR LPPR 200930Z 12008KT CAVOK 20/13 Q1016=
201004200900 METAR LPPR 200900Z 11008KT 080V140 CAVOK 19/13 Q1015=
201004200830 METAR LPPR 200830Z 11007KT 080V140 CAVOK 18/13 Q1015=
201004200800 METAR LPPR 200800Z 10006KT CAVOK 17/13 Q1015=
201004200730 METAR LPPR 200730Z 10007KT CAVOK 16/13 Q1015=
201004200700 METAR LPPR 200700Z 11006KT CAVOK 16/13 Q1015=
201004200630 METAR LPPR 200630Z 11006KT CAVOK 15/13 Q1015=
201004200600 METAR LPPR 200600Z 11006KT CAVOK 15/13 Q1015=
201004200530 METAR LPPR 200530Z 10007KT CAVOK 15/13 Q1015=
201004200500 METAR LPPR 200500Z 10006KT CAVOK 15/13 Q1015=
201004200430 METAR LPPR 200430Z 10005KT 060V120 CAVOK 15/13 Q1015=
201004200400 METAR LPPR 200400Z 08004KT 050V110 CAVOK 15/13 Q1015=
201004200330 METAR LPPR 200330Z 10005KT 070V130 CAVOK 15/12 Q1016=
201004200300 METAR LPPR 200300Z 10005KT 9999 FEW030 SCT250 14/12 Q1016=
201004200230 METAR LPPR 200230Z 10005KT 9999 FEW030 SCT250 14/12 Q1016=
201004200200 METAR LPPR 200200Z 10003KT 9999 FEW030 SCT250 14/12 Q1016=
201004200130 METAR LPPR 200130Z 00000KT 9999 SCT030 SCT250 14/12 Q1017=
201004200100 METAR LPPR 200100Z 09004KT 9999 SCT030 SCT250 15/13 Q1017=
201004200030 METAR LPPR 200030Z 00000KT 9999 BKN030 SCT070 14/13 Q1017=
201004200000 METAR LPPR 200000Z 00000KT 9999 SCT030 SCT250 14/12 Q1017=
201004192330 METAR LPPR 192330Z 00000KT 9999 SCT030 SCT250 14/12 Q1017=
201004192300 METAR LPPR 192300Z 00000KT 9999 FEW040 SCT250 14/12 Q1017=
201004192230 METAR LPPR 192230Z 00000KT 9999 FEW040 15/13 Q1017=
201004192200 METAR LPPR 192200Z 00000KT 9999 FEW040 15/13 Q1017=
201004192130 METAR LPPR 192130Z 00000KT 9999 FEW040 16/13 Q1017=
201004192100 METAR LPPR 192100Z VRB01KT 9999 SCT040 SCT250 16/13 Q1017=
201004192030 METAR LPPR 192030Z VRB02KT 9999 SCT040 SCT250 16/13 Q1016=
201004192000 METAR LPPR 192000Z 27002KT 9999 FEW020 SCT040 17/13 Q1016=
201004191930 METAR LPPR 191930Z VRB02KT 9999 FEW025 SCT040 BKN250 17/13
                        Q1016=
201004191900 METAR LPPR 191900Z VRB03KT 9999 FEW025 SCT040 18/13 Q1016=
201004191830 METAR LPPR 191830Z 32004KT 300V360 CAVOK 19/13 Q1015=
201004191800 METAR LPPR 191800Z VRB03KT 9999 FEW025 SCT250 20/13 Q1016=
201004191730 METAR LPPR 191730Z 27004KT 240V330 9999 FEW025 SCT250 20/13
                        Q1015=
201004191700 METAR LPPR 191700Z 28004KT 240V350 9999 FEW025 SCT250 20/13
                        Q1015=
201004191630 METAR LPPR 191630Z VRB04KT 9999 FEW025 BKN060 20/15 Q1016=
201004191600 METAR LPPR 191600Z 25006KT 9999 FEW025 SCT007 20/14 Q1016=
201004191530 METAR LPPR 191530Z 24006KT 200V270 9999 FEW025 SCT070 19/14
                        Q1016=
201004191500 METAR LPPR 191500Z 24006KT 160V280 9999 FEW025 SCT070 20/14
                        Q1016=
201004191430 METAR LPPR 191430Z 29007KT 9999 FEW025 SCT070 19/14 Q1016=
201004191400 METAR LPPR 191400Z 27007KT 230V010 9999 FEW030 BKN060 19/14
                        Q1016=
201004191330 METAR LPPR 191330Z 25009KT 220V290 9999 FEW030 BKN250 19/14
                        Q1017=
201004191300 METAR LPPR 191300Z 28009KT 250V320 9999 FEW040 BKN250 19/13
                        Q1016=
201004191230 METAR LPPR 191230Z 27008KT 9999 FEW040 SCT250 19/13 Q1016=
201004191200 METAR LPPR 191200Z 27005KT 250V350 9999 SCT030 SCT250 20/13
                        Q1016=
201004191130 METAR LPPR 191130Z 11004KT 030V190 9999 SCT030 SCT250 21/13
                        Q1017=
201004191100 METAR LPPR 191100Z 15006KT 110V180 9999 FEW032 21/12 Q1017=
201004191030 METAR LPPR 191030Z 15005KT 100V190 9999 FEW024 SCT250 20/13
                        Q1017=
201004191000 METAR LPPR 191000Z 19004KT 120V250 9999 FEW024 SCT250 20/13
                        Q1017=
201004190930 METAR LPPR 190930Z VRB03KT 9999 FEW017 SCT250 19/13 Q1017=
201004190900 METAR LPPR 190900Z 14005KT 100V180 9999 FEW017 SCT040 18/14
                        Q1017=
201004190830 METAR LPPR 190830Z VRB03KT 9999 FEW017 SCT035 17/14 Q1017=
201004190800 METAR LPPR 190800Z 12006KT 9999 FEW017 BKN030 15/13 Q1017=
201004190730 METAR LPPR 190730Z 12004KT 9999 FEW017 BKN025 14/13 Q1016=
201004190700 METAR LPPR 190700Z 10006KT 9999 FEW017 SCT025 14/13 Q1016=
201004190630 METAR LPPR 190630Z 11004KT 9999 FEW025 SCT090 13/13 Q1015=
201004190600 METAR LPPR 190600Z 11006KT CAVOK 13/13 Q1015=
201004190530 METAR LPPR 190530Z 11005KT CAVOK 13/13 Q1015=
201004190500 METAR LPPR 190500Z 10005KT CAVOK 13/13 Q1015=
201004190430 METAR LPPR 190430Z VRB02KT CAVOK 12/11 Q1015=
201004190400 METAR LPPR 190400Z 00000KT CAVOK 13/12 Q1014=
201004190330 METAR LPPR 190330Z 10005KT CAVOK 14/13 Q1014=
201004190300 METAR LPPR 190300Z 11005KT CAVOK 14/13 Q1014=
201004190230 METAR LPPR 190230Z 11005KT CAVOK 14/13 Q1014=
201004190200 METAR LPPR 190200Z 11005KT CAVOK 14/13 Q1014=
201004190130 METAR LPPR 190130Z 11005KT CAVOK 15/13 Q1014=
201004190100 METAR LPPR 190100Z 11005KT CAVOK 14/13 Q1015=
201004190030 METAR LPPR 190030Z 11002KT CAVOK 14/13 Q1015=
201004190000 METAR LPPR 190000Z 00000KT CAVOK 14/12 Q1015=
201004182330 METAR LPPR 182330Z VRB01KT CAVOK 14/12 Q1015=
201004182300 METAR LPPR 182300Z 00000KT CAVOK 14/12 Q1015=
201004182230 METAR LPPR 182230Z 07001KT 9999 FEW040 14/12 Q1014=
201004182200 METAR LPPR 182200Z 01001KT CAVOK 14/12 Q1014=
201004182130 METAR LPPR 182130Z 00000KT 9999 FEW048 14/13 Q1014=
201004182100 METAR LPPR 182100Z VRB02KT 9999 FEW020 FEW025TCU 15/13 Q1014=
201004182030 METAR LPPR 182030Z 33002KT 9999 FEW020 FEW025TCU 15/13 Q1013=
201004182000 METAR LPPR 182000Z 30003KT 9999 FEW020 FEW025CB 16/13 Q1012=
201004181930 METAR LPPR 181930Z 28002KT 9999 FEW020 FEW025CB 16/13 Q1012=
201004181900 METAR LPPR 181900Z 33003KT 9999 FEW020 FEW025CB 17/13 Q1012=
201004181830 METAR LPPR 181830Z 31005KT 9999 FEW020 FEW025CB 18/13 Q1012=
201004181800 METAR LPPR 181800Z 30006KT 270V330 9999 FEW020 FEW025TCU
                        18/13 Q1011=
201004181730 METAR LPPR 181730Z 32006KT 290V350 9999 FEW020 FEW025TCU
                        19/13 Q1011=
201004181700 METAR LPPR 181700Z 30005KT 250V340 9999 FEW020 FEW025TCU
                        19/13 Q1011=
201004181630 METAR LPPR 181630Z 28006KT 9999 R17/P1500 R35/P1500 FEW020 FEW025TCU
                        19/13 Q1011=
201004181600 METAR LPPR 181600Z 29008KT 9999 FEW020 FEW025TCU 19/13 Q1011=
201004181530 METAR LPPR 181530Z 27007KT 250V310 9999 FEW020 FEW025TCU
                        19/13 Q1011=
201004181500 METAR LPPR 181500Z 27006KT 240V310 9999 FEW020 FEW025TCU
                        20/13 Q1011=
201004181430 METAR LPPR 181430Z 28005KT 260V320 9999 FEW020 FEW025TCU
                        SCT090 19/13 Q1011=
201004181400 METAR LPPR 181400Z 29005G15KT 250V050 9999 FEW020 FEW025TCU
                        SCT080 19/13 Q1010=
201004181330 METAR LPPR 181330Z VRB03KT 9999 FEW020 FEW025TCU SCT045 19/14
                        Q1010=
201004181300 METAR LPPR 181300Z 29004KT 9999 BKN020 FEW025TCU 17/14 Q1010=
201004181230 METAR LPPR 181230Z 26004KT 9999 -SHRA BKN020 FEW025TCU 17/13
                        Q1010=
201004181200 METAR LPPR 181200Z 17006KT 130V250 9999 BKN020 FEW025TCU
                        19/11 Q1010=
201004181130 METAR LPPR 181130Z 14006KT 090V170 9999 BKN020 BKN040 20/12
                        Q1010=
201004181100 METAR LPPR 181100Z 11005KT 080V170 9999 BKN020 BKN040 19/11
                        Q1011=
201004181030 METAR LPPR 181030Z 11005KT 060V140 9999 FEW017 BKN030 18/12
                        Q1011=
201004181000 METAR LPPR 181000Z 11005KT 080V140 9999 FEW017 BKN030 17/12
                        Q1010=
201004180930 METAR LPPR 180930Z 12005KT 080V150 9999 BKN030 BKN070 17/12
                        Q1010=
201004180900 METAR LPPR 180900Z 10006KT 080V140 9999 BKN030 BKN070 16/12
                        Q1010=
201004180830 METAR LPPR 180830Z 11006KT 080V140 9999 SCT040 BKN070 15/12
                        Q1010=
201004180800 METAR LPPR 180800Z 11005KT 080V140 9999 SCT040 BKN070 15/12
                        Q1010=
201004180730 METAR LPPR 180730Z 10005KT 9999 SCT040 BKN070 14/12 Q1010=
201004180700 METAR LPPR 180700Z 10004KT 9999 SCT040 BKN070 14/12 Q1010=
201004180630 METAR LPPR 180630Z 10004KT 9999 SCT040 BKN070 14/11 Q1009=
201004180600 METAR LPPR 180600Z 08003KT 9999 SCT040 BKN070 13/11 Q1009=
201004180530 METAR LPPR 180530Z 09004KT 9999 SCT040 BKN070 13/11 Q1009=
201004180500 METAR LPPR 180500Z 11004KT 9999 BKN040 BKN070 14/11 Q1009=
201004180430 METAR LPPR 180430Z 08004KT 050V110 9999 BKN040 BKN070 13/12
                        Q1009=
201004180400 METAR LPPR 180400Z VRB03KT 9999 BKN040 BKN070 13/12 Q1009=
201004180330 METAR LPPR 180330Z 10004KT 9999 BKN040 SCT070 13/12 Q1009=
201004180300 METAR LPPR 180300Z 10004KT 9999 BKN040 SCT070 14/12 Q1009=
201004180230 METAR LPPR 180230Z VRB03KT 9999 BKN040 SCT070 14/12 Q1009=
201004180200 METAR LPPR 180200Z 12004KT 9999 BKN040 SCT070 14/12 Q1009=
201004180130 METAR LPPR 180130Z 12006KT 9999 BKN040 SCT070 14/12 Q1009=
201004180100 METAR LPPR 180100Z 12005KT 9999 BKN040 SCT070 14/12 Q1010=
201004180030 METAR LPPR 180030Z 12006KT 9999 BKN040 SCT070 14/12 Q1010=
201004180000 METAR LPPR 180000Z 12006KT 9999 BKN040 SCT070 14/12 Q1010=
201004172330 METAR LPPR 172330Z 12004KT 9999 SCT040 BKN070 14/12 Q1010=
201004172300 METAR LPPR 172300Z 11005KT 080V140 9999 SCT040 BKN070 14/12
                        Q1010=
201004172230 METAR LPPR 172230Z 09004KT 060V130 9999 -SHRA SCT040 BKN070
                        14/12 Q1010=
201004172200 METAR LPPR 172200Z 11005KT 9999 SCT040 BKN070 14/12 Q1010=
201004172130 METAR LPPR 172130Z 11006KT 070V130 9999 SCT040 BKN070 14/13
                        Q1010=
201004172100 METAR LPPR 172100Z VRB02KT 9999 FEW020 SCT040 SCT070 14/12
                        Q1010=
201004172030 METAR LPPR 172030Z 09003KT 9999 FEW020 FEW030CB BKN070 14/13
                        Q1009=
201004172000 METAR LPPR 172000Z VRB03KT 9999 FEW020 FEW030CB BKN070 14/13
                        Q1009=
201004171930 METAR LPPR 171930Z VRB03KT 9999 FEW020 FEW030CB BKN070 15/13
                        Q1009=
201004171900 METAR LPPR 171900Z VRB03KT 9999 FEW030CB BKN070 15/13 Q1008=
201004171830 METAR LPPR 171830Z VRB03KT 9999 FEW030CB BKN070 15/13 Q1008=
201004171800 METAR LPPR 171800Z 07004KT 030V100 9999 FEW030CB BKN070 15/13
                        Q1009=
201004171730 METAR LPPR 171730Z 09005KT 050V130 9999 -SHRA FEW020 FEW030CB
                        BKN060 15/13 Q1009=
201004171700 METAR LPPR 171700Z 17008KT 9000 -TSRA FEW015 SCT025CB BKN060
                        15/13 Q1009=
201004171630 METAR LPPR 171630Z 19013KT 9999 SCT015 FEW025CB BKN050 17/12
                        Q1009=
201004171600 METAR LPPR 171600Z 26007KT 220V290 9999 FEW025 FEW030CB BKN050
                        19/10 Q1008=
201004171530 METAR LPPR 171530Z 28008KT 220V310 9999 SCT025 FEW030TCU
                        SCT060 20/10 Q1008=
201004171500 METAR LPPR 171500Z 28007KT 240V340 9999 SCT025 FEW030TCU
                        20/10 Q1008=
201004171430 METAR LPPR 171430Z 27006KT 230V310 9999 SCT025 20/11 Q1008=
201004171400 METAR LPPR 171400Z 27006KT 230V330 9999 SCT025 SCT040 20/11
                        Q1009=
201004171330 METAR LPPR 171330Z 27006KT 220V330 9999 SCT025 SCT040 20/11
                        Q1009=
201004171300 METAR LPPR 171300Z 27005KT 200V320 9999 SCT025 20/12 Q1009=
201004171230 METAR LPPR 171230Z 27004KT 210V300 9999 SCT025 BKN080 18/12
                        Q1009=
201004171200 METAR LPPR 171200Z 25005KT 190V280 9999 SCT025 BKN070 18/12
                        Q1010=
201004171130 METAR LPPR 171130Z 16005KT 070V200 9999 SCT025 SCT045 20/12
                        Q1010=
201004171100 METAR LPPR 171100Z 10004KT 040V170 9999 FEW020 SCT040 BKN090
                        18/13 Q1010=
201004171030 METAR LPPR 171030Z 10007KT 070V130 9999 SCT040 BKN080 17/13
                        Q1010=
201004171000 METAR LPPR 171000Z 10005KT 050V130 9999 SCT040 SCT070 BKN090
                        16/13 Q1010=
201004170930 METAR LPPR 170930Z 11006KT 9999 SCT035 SCT060 BKN090 16/13
                        Q1010=
201004170900 METAR LPPR 170900Z 11004KT 9999 SCT040 SCT070 BKN090 15/13
                        Q1010=
201004170830 METAR LPPR 170830Z VRB03KT 9999 SCT040 SCT070 BKN090 15/12
                        Q1010=
201004170800 METAR LPPR 170800Z VRB03KT 9999 SCT040 SCT070 BKN100 15/12
                        Q1010=
201004170730 METAR LPPR 170730Z 10004KT 070V130 9999 SCT040 BKN080 14/12
                        Q1010=
201004170700 METAR LPPR 170700Z 10005KT 9999 SCT040 BKN080 14/12 Q1009=
201004170630 METAR LPPR 170630Z 10005KT 9999 FEW035 BKN080 14/12 Q1009=
201004170600 METAR LPPR 170600Z 10005KT 9999 FEW030 BKN080 14/12 Q1009=
201004170530 METAR LPPR 170530Z 11005KT CAVOK 14/12 Q1009=
201004170500 METAR LPPR 170500Z 10005KT CAVOK 14/12 Q1009=
201004170430 METAR LPPR 170430Z 09004KT CAVOK 13/12 Q1009=
201004170400 METAR LPPR 170400Z 10004KT 9999 FEW030 SCT070 14/12 Q1009=
201004170330 METAR LPPR 170330Z 10004KT 9999 FEW030 SCT070 14/13 Q1009=
201004170300 METAR LPPR 170300Z 10004KT 9999 SCT030 BKN070 14/13 Q1009=
201004170230 METAR LPPR 170230Z 09005KT 060V130 9999 FEW013 SCT030 BKN070
                        14/13 Q1009=
201004170200 METAR LPPR 170200Z 10005KT 9999 SCT013 BKN030 14/13 Q1010=
201004170130 METAR LPPR 170130Z 10005KT 070V130 9999 SCT013 BKN030 14/13
                        Q1010=
201004170100 METAR LPPR 170100Z 09005KT 050V120 9999 FEW013 SCT030 BKN060
                        14/13 Q1010=
201004170030 METAR LPPR 170030Z 10005KT 9000 -RA BKN030 BKN060 14/13 Q1010=
201004170000 METAR LPPR 170000Z 10004KT 9999 BKN030 BKN060 14/13 Q1010=
201004162330 METAR LPPR 162330Z 11004KT 9000 -RA SCT012 BKN020 14/12 Q1010=
201004162300 METAR LPPR 162300Z 15007KT 8000 -RA SCT011 BKN020 14/12 Q1010=
201004162230 METAR LPPR 162230Z 16012KT 8000 -RA SCT013 BKN020 14/13 Q1010=
201004162200 METAR LPPR 162200Z 18009KT 9000 -RA FEW015 SCT025 BKN033
                        15/13 Q1010=
201004162130 METAR LPPR 162130Z 18007KT 9999 FEW015 BKN030 15/13 Q1010=
201004162100 METAR LPPR 162100Z 17007KT 9999 FEW015 BKN030 16/13 Q1010=
201004162030 METAR LPPR 162030Z 16008KT 9999 FEW015 BKN030 16/13 Q1009=
201004162000 METAR LPPR 162000Z 18015KT 9999 FEW015 FEW018CB BKN030 16/13
                        Q1009=
201004161930 METAR LPPR 161930Z 16012KT 130V190 9999 -SHRA FEW015 FEW018CB
                        BKN030 BKN200 17/12 Q1008=
201004161900 METAR LPPR 161900Z 16009KT 9999 FEW020 BKN040 16/12 Q1008=
201004161830 METAR LPPR 161830Z 18015KT 8000 -SHRA FEW017 BKN040 16/13
                        Q1007=
201004161800 METAR LPPR 161800Z 15014G25KT 100V180 9999 FEW017 BKN040
                        16/14 Q1007=
201004161730 METAR LPPR 161730Z 09005KT 050V130 8000 -SHRA SCT017 FEW020CB
                        BKN040 17/14 Q1006=
201004161700 METAR LPPR 161700Z 18008KT 140V210 8000 -SHRA SCT017 FEW020CB
                        BKN040 17/15 Q1007=
201004161630 METAR LPPR 161630Z 23007KT 210V270 9999 SCT017 FEW020CB SCT040
                        BKN250 17/15 Q1006=
201004161600 METAR LPPR 161600Z 25008KT 210V270 9999 SCT017 SCT040 BKN250
                        19/14 Q1006=
201004161530 METAR LPPR 161530Z 16013KT 120V180 9999 BKN017 SCT250 22/10
                        Q1005=
201004161500 METAR LPPR 161500Z 14012KT 110V170 9999 BKN017 SCT080 22/09
                        Q1005=
201004161430 METAR LPPR 161430Z 13010KT 100V170 9999 SCT017 BKN250 23/10
                        Q1005=
201004161400 METAR LPPR 161400Z 13011KT 100V160 9999 SCT017 BKN250 22/10
                        Q1005=
201004161330 METAR LPPR 161330Z 12012KT 080V150 9999 SCT017 BKN040 22/10
                        Q1005=
201004161300 METAR LPPR 161300Z 13010KT 100V160 9999 SCT017 BKN040 21/11
                        Q1005=
201004161230 METAR LPPR 161230Z 12011KT 090V150 9999 SCT018 BKN040 20/10
                        Q1006=
201004161200 METAR LPPR 161200Z 12009KT 9999 SCT018 BKN040 20/11 Q1006=
201004161130 METAR LPPR 161130Z 13009KT 9999 SCT018 BKN040 20/10 Q1006=
201004161100 METAR LPPR 161100Z 14012KT 9999 SCT018 BKN040 19/10 Q1006=
201004161030 METAR LPPR 161030Z 14015KT 110V180 9999 SCT018 BKN040 19/11
                        Q1006=
201004161000 METAR LPPR 161000Z 12011KT 9999 SCT018 SCT040 20/11 Q1006=
201004160930 METAR LPPR 160930Z 12009KT 070V160 9999 FEW020 SCT040 BKN250
                        20/12 Q1005=
201004160900 METAR LPPR 160900Z 10008KT 050V140 9999 FEW020 BKN250 19/12
                        Q1005=
201004160830 METAR LPPR 160830Z 11008KT 060V140 9999 FEW020 BKN250 18/12
                        Q1005=
201004160800 METAR LPPR 160800Z 10008KT 070V150 9999 FEW020 BKN250 16/11
                        Q1005=
201004160730 METAR LPPR 160730Z 10005KT 060V120 9999 FEW040 BKN250 15/11
                        Q1005=
201004160700 METAR LPPR 160700Z 10005KT 050V130 9999 FEW040 BKN250 15/11
                        Q1004=
201004160630 METAR LPPR 160630Z 09005KT 040V140 9999 FEW015 SCT070 15/11
                        Q1004=
201004160600 METAR LPPR 160600Z 09006KT 050V170 9999 FEW015 SCT070 14/11
                        Q1004=
201004160530 METAR LPPR 160530Z 09006KT 060V140 9999 FEW015 BKN070 14/11
                        Q1004=
201004160500 METAR LPPR 160500Z 09005KT 050V110 9999 FEW040 SCT060 14/11
                        Q1004=
201004160430 METAR LPPR 160430Z 10006KT 9999 FEW040 14/11 Q1004=
201004160400 METAR LPPR 160400Z 09005KT 040V110 9999 FEW040 14/11 Q1004=
201004160330 METAR LPPR 160330Z 10006KT 060V140 9999 SCT040 14/11 Q1004=
201004160300 METAR LPPR 160300Z 10007KT 9999 FEW040 BKN080 14/12 Q1005=
201004160230 METAR LPPR 160230Z 10005KT 070V130 9999 SCT040 BKN080 14/12
                        Q1004=
201004160200 METAR LPPR 160200Z 09004KT 060V130 9999 FEW015 SCT040 BKN070
                        14/12 Q1005=
201004160130 METAR LPPR 160130Z 09005KT 050V130 9999 FEW015 SCT040 BKN080
                        14/12 Q1005=
201004160100 METAR LPPR 160100Z 09005KT 050V130 9999 FEW015 SCT040 BKN080
                        14/13 Q1005=
201004160030 METAR LPPR 160030Z 09004KT 060V120 9999 -RA FEW015 SCT040
                        BKN070 14/13 Q1005=
201004160000 METAR LPPR 160000Z 11005KT 060V140 9999 -RA FEW015 FEW025CB
                        SCT030 BKN070 14/13 Q1005=
201004152330 METAR LPPR 152330Z VRB03KT 9999 -RA SCT015 FEW025CB BKN080
                        14/14 Q1005=
201004152300 METAR LPPR 152300Z VRB02KT 9999 -RA SCT015 FEW025CB BKN080
                        14/14 Q1005=
201004152230 METAR LPPR 152230Z VRB02KT 9999 -SHRA SCT015 FEW025CB BKN080
                        14/13 Q1005=
201004152200 METAR LPPR 152200Z 19009KT 7000 -TSRA SCT015 SCT025CB BKN070
                        15/14 Q1006=
201004152130 METAR LPPR 152130Z 16012KT 7000 -SHRA SCT015 FEW025CB BKN070
                        15/13 Q1006=
201004152100 METAR LPPR 152100Z 03006KT 9999 FEW015 FEW025CB BKN070 15/14
                        Q1004=
201004152030 METAR LPPR 152030Z 03006KT 9999 FEW015 FEW025CB BKN070 15/14
                        Q1004=
201004152000 METAR LPPR 152000Z VRB03KT 9999 -SHRA SCT015 SCT025CB BKN070
                        15/14 Q1004=
201004151930 METAR LPPR 151930Z VRB03KT 9999 FEW015 SCT025CB BKN070 15/13
                        Q1004=
201004151900 METAR LPPR 151900Z VRB09KT 8000 SCT015 SCT025CB BKN070 14/13
                        Q1004 RETS=
201004151830 METAR LPPR 151830Z 16012G24KT 3000 +TSRA SCT017 BKN025CB
                        BKN045 19/14 Q1004 WS ALL RWY=
201004151800 METAR LPPR 151800Z 04008KT 9999 SCT020 FEW025CB BKN080 20/14
                        Q1003=
201004151730 METAR LPPR 151730Z 02007KT 350V050 9999 FEW018 FEW025CB BKN080
                        21/14 Q1002=
201004151700 METAR LPPR 151700Z VRB03KT 9999 FEW017 FEW025CB BKN090 21/11
                        Q1002=
201004151630 METAR LPPR 151630Z VRB02KT 9999 FEW017 FEW030CB BKN090 21/12
                        Q1002=
201004151600 METAR LPPR 151600Z 28004KT 240V330 9999 FEW020 FEW030CB SCT080
                        20/13 Q1002=
201004151530 METAR LPPR 151530Z 22006KT 180V260 9999 FEW020 FEW030CB BKN080
                        20/13 Q1002=
201004151500 METAR LPPR 151500Z 22008KT 190V250 9999 FEW025 FEW030CB SCT045
                        21/13 Q1002=
201004151430 METAR LPPR 151430Z 22008KT 200V270 9999 FEW025TCU FEW030CB
                        21/14 Q1002=
201004151400 METAR LPPR 151400Z 22008KT 190V270 9999 FEW020 FEW025TCU
                        FEW030CB 21/14 Q1002=
201004151330 METAR LPPR 151330Z 23011KT 9999 FEW020 FEW030CB 21/14 Q1002=
201004151300 METAR LPPR 151300Z 20012KT 170V230 9999 FEW020 FEW030CB 21/14
                        Q1002=
201004151230 METAR LPPR 151230Z 21012KT 180V240 9999 FEW020 SCT030TCU
                        20/13 Q1002=
201004151200 METAR LPPR 151200Z 20014KT 9999 SCT025 SCT030TCU SCT045 19/14
                        Q1002=
201004151130 METAR LPPR 151130Z 19015KT 9999 SCT020 SCT045 20/13 Q1002=
201004151100 METAR LPPR 151100Z 17017KT 9999 SCT025 SCT040 20/13 Q1002=
201004151030 METAR LPPR 151030Z 17018KT 9999 SCT025 BKN040 19/14 Q1002=
201004151000 METAR LPPR 151000Z 15015KT 110V170 9999 SCT025 BKN040 19/13
                        Q1001=
201004150930 METAR LPPR 150930Z 11010KT 080V140 9999 SCT020 BKN040 18/13
                        Q1001=
201004150900 METAR LPPR 150900Z 12014KT 9999 FEW020 SCT040 BKN070 17/12
                        Q1001=
201004150830 METAR LPPR 150830Z 10008KT 060V140 9999 FEW020 SCT040 BKN070
                        17/12 Q1000=
201004150800 METAR LPPR 150800Z 10009KT 050V130 9999 FEW020 SCT040 BKN070
                        16/12 Q1000=
201004150730 METAR LPPR 150730Z 10010KT 9999 FEW020 SCT040 BKN070 16/12
                        Q1000=
201004150700 METAR LPPR 150700Z 10010KT 050V120 9999 FEW020 SCT040 BKN070
                        15/11 Q0999=
201004150630 METAR LPPR 150630Z 10009KT 060V140 9999 FEW020 SCT040 BKN070
                        15/11 Q0999=
201004150600 METAR LPPR 150600Z 09009KT 050V130 9999 FEW020 BKN040 15/11
                        Q0999=
201004150530 METAR LPPR 150530Z 10007KT 050V130 9999 FEW020 SCT040 BKN070
                        14/11 Q0999=
201004150500 METAR LPPR 150500Z 09006KT 060V120 9999 FEW020 SCT040 BKN070
                        14/11 Q0999=
201004150430 METAR LPPR 150430Z 09009KT 060V120 9999 -RA FEW020 SCT040
                        BKN070 14/11 Q0999=
201004150400 METAR LPPR 150400Z 09008KT 050V120 9999 SCT040 BKN080 14/11
                        Q0999=
201004150330 METAR LPPR 150330Z 10007KT 9999 BKN040 BKN080 14/11 Q1000=
201004150300 METAR LPPR 150300Z 10009KT 070V140 9999 BKN040 BKN070 15/11
                        Q1000=
201004150230 METAR LPPR 150230Z 10007KT 060V130 9999 BKN040 BKN070 14/11
                        Q1000=
201004150200 METAR LPPR 150200Z 08007KT 050V110 9999 SCT040 BKN070 14/11
                        Q1000=
201004150130 METAR LPPR 150130Z 08007KT 010V130 9999 SCT040 BKN070 14/11
                        Q1000=
201004150100 METAR LPPR 150100Z 09005KT 040V140 9999 -RA SCT045 BKN070
                        14/12 Q1001=
201004150030 METAR LPPR 150030Z 07007KT 020V100 9999 SCT050 BKN070 14/12
                        Q1001=
201004150000 METAR LPPR 150000Z 09006KT 050V140 9000 -RA SCT045 BKN070
                        14/12 Q1002=
201004142330 METAR LPPR 142330Z 08006KT 050V120 9000 -RA SCT045 BKN070
                        14/12 Q1002=
201004142300 METAR LPPR 142300Z 09006KT 050V130 8000 -RA BR FEW050 BKN070
                        14/12 Q1002=
201004142230 METAR LPPR 142230Z 07006KT 020V100 8000 -RA BR FEW050 BKN070
                        14/12 Q1002=
201004142200 METAR LPPR 142200Z 09005KT 050V130 9000 -RA FEW045 BKN060
                        BKN070 15/12 Q1002=
201004142130 METAR LPPR 142130Z 09007KT 050V120 9000 -RA FEW045 BKN060
                        BKN070 15/11 Q1003=
201004142100 METAR LPPR 142100Z 09007KT 060V130 9999 FEW045 BKN070 17/10
                        Q1003=
201004142030 METAR LPPR 142030Z 09008KT 050V140 9999 FEW045 BKN070 17/09
                        Q1003=
201004142000 METAR LPPR 142000Z 09007KT 040V120 9999 SCT045 BKN070 17/10
                        Q1003=
201004141930 METAR LPPR 141930Z 10008KT 060V130 9999 SCT050 BKN080 18/09
                        Q1003=
201004141900 METAR LPPR 141900Z 10007KT 070V130 9999 FEW025 SCT050 BKN070
                        18/09 Q1003=
201004141830 METAR LPPR 141830Z 10009KT 080V140 9999 FEW025 SCT050 BKN070
                        18/08 Q1003=
201004141800 METAR LPPR 141800Z 10009KT 060V140 9999 FEW025 SCT050 BKN070
                        19/08 Q1003=
201004141730 METAR LPPR 141730Z 11010KT 080V140 9999 FEW025 SCT050 BKN070
                        19/09 Q1003=
201004141700 METAR LPPR 141700Z 11008KT 080V140 9999 FEW025 SCT050 BKN070
                        19/09 Q1003=
201004141630 METAR LPPR 141630Z 11008KT 080V140 9999 FEW025 SCT050 BKN070
                        19/08 Q1003=
201004141600 METAR LPPR 141600Z 11008KT 080V140 9999 FEW025 SCT050 BKN070
                        19/08 Q1003=
201004141530 METAR LPPR 141530Z 11007KT 080V140 9999 FEW025 BKN050 20/09
                        Q1004=
201004141500 METAR LPPR 141500Z 12008KT 090V150 9999 FEW025 BKN050 20/09
                        Q1004=
201004141430 METAR LPPR 141430Z 10008KT 060V140 9999 FEW025 SCT040 BKN080
                        20/09 Q1004=
201004141400 METAR LPPR 141400Z 12008KT 090V160 9999 FEW025 SCT080 21/09
                        Q1004=
201004141330 METAR LPPR 141330Z 08006KT 020V170 9999 FEW025 SCT040 21/09
                        Q1004=
201004141300 METAR LPPR 141300Z 09008KT 030V160 9999 FEW025 SCT050 21/09
                        Q1005=
201004141230 METAR LPPR 141230Z 10008KT 060V130 9999 FEW025 SCT050 21/09
                        Q1005=
201004141200 METAR LPPR 141200Z 08009KT 040V130 9999 FEW050 SCT090 20/09
                        Q1005=
201004141130 METAR LPPR 141130Z 09012G22KT 050V140 9999 SCT050 SCT090
                        19/08 Q1005=
201004141100 METAR LPPR 141100Z 10012KT 050V140 9999 SCT050 SCT090 19/08
                        Q1005=
201004141030 METAR LPPR 141030Z 09010KT 050V130 CAVOK 18/08 Q1005=
201004141000 METAR LPPR 141000Z 08010KT 040V130 CAVOK 17/07 Q1005=
201004140930 METAR LPPR 140930Z 09011KT 050V120 9999 FEW050 BKN080 16/07
                        Q1005=
201004140900 METAR LPPR 140900Z 09010KT 050V130 9999 FEW050 SCT080 14/07
                        Q1005=
201004140830 METAR LPPR 140830Z 09010KT 060V120 CAVOK 14/06 Q1006=
201004140800 METAR LPPR 140800Z 09006KT 050V130 CAVOK 14/06 Q1006=
201004140730 METAR LPPR 140730Z 08008KT 040V110 CAVOK 13/06 Q1006=
201004140700 METAR LPPR 140700Z 08007KT 050V120 CAVOK 13/05 Q1006=
201004140630 METAR LPPR 140630Z 08006KT 030V120 CAVOK 13/05 Q1006=
201004140600 METAR LPPR 140600Z 09006KT 030V130 CAVOK 13/06 Q1006=
201004140530 METAR LPPR 140530Z 08008KT 030V120 9999 FEW040 BKN080 13/06
                        Q1006=
201004140500 METAR LPPR 140500Z 08010KT 040V140 9999 FEW040 BKN080 13/06
                        Q1005=
201004140430 METAR LPPR 140430Z 09008KT 050V130 9999 FEW040 BKN080 13/06
                        Q1006=
201004140400 METAR LPPR 140400Z 10008KT 070V130 9999 FEW040 BKN080 13/07
                        Q1006=
201004140330 METAR LPPR 140330Z 09009KT 050V120 9999 FEW040 OVC080 13/06
                        Q1006=
201004140300 METAR LPPR 140300Z 09007KT 040V120 9999 SCT040 OVC080 14/06
                        Q1006=
201004140230 METAR LPPR 140230Z 08007KT 040V120 9999 -RA SCT040 OVC080
                        14/06 Q1006=
201004140200 METAR LPPR 140200Z 08009KT 030V110 9999 -RA FEW040 OVC080
                        15/05 Q1007=
201004140130 METAR LPPR 140130Z 10010KT 070V130 9999 -RA FEW040 BKN070
                        BKN100 15/04 Q1007=
201004140100 METAR LPPR 140100Z 09007KT 060V140 CAVOK 16/03 Q1007=
201004140030 METAR LPPR 140030Z 08004KT 030V140 9999 FEW060 OVC070 16/03
                        Q1007=
201004140000 METAR LPPR 140000Z 11008KT 090V150 9999 FEW040 OVC070 17/04
                        Q1007=
201004132330 METAR LPPR 132330Z 00000KT 9999 FEW040 OVC070 17/04 Q1007=
201004132300 METAR LPPR 132300Z 13006KT 100V160 9999 FEW040 OVC070 18/03
                        Q1007=
201004132230 METAR LPPR 132230Z 00000KT 9999 FEW040 OVC070 17/05 Q1006=
201004132200 METAR LPPR 132200Z 00000KT CAVOK 17/05 Q1006=
201004132130 METAR LPPR 132130Z 00000KT CAVOK 17/05 Q1006=
201004132100 METAR LPPR 132100Z 00000KT CAVOK 17/06 Q1005=
201004132030 METAR LPPR 132030Z 00000KT CAVOK 17/05 Q1005=
201004132000 METAR LPPR 132000Z 00000KT CAVOK 17/05 Q1005=
201004131930 METAR LPPR 131930Z VRB02KT CAVOK 18/05 Q1005=
201004131900 METAR LPPR 131900Z 10004KT 070V130 CAVOK 18/05 Q1005=
201004131830 METAR LPPR 131830Z 10006KT 060V120 CAVOK 19/05 Q1005=
201004131800 METAR LPPR 131800Z 12007KT 080V140 CAVOK 19/05 Q1005=
201004131730 METAR LPPR 131730Z 13005KT 090V170 9999 FEW020 BKN060 BKN250
                        19/06 Q1005=
201004131700 METAR LPPR 131700Z VRB02KT 9999 FEW020 SCT060 BKN250 19/08
                        Q1005=
201004131630 METAR LPPR 131630Z 29007KT 260V330 9999 FEW020 SCT060 BKN250
                        19/08 Q1005=
201004131600 METAR LPPR 131600Z 32005KT 230V020 9999 FEW020 BKN250 19/08
                        Q1005=
201004131530 METAR LPPR 131530Z VRB06KT 9999 FEW020 BKN250 20/06 Q1005=
201004131500 METAR LPPR 131500Z 11006KT 050V200 9999 FEW020 BKN250 21/06
                        Q1005=
201004131430 METAR LPPR 131430Z 10007KT 050V160 9999 FEW020 BKN250 21/06
                        Q1006=
201004131400 METAR LPPR 131400Z 10007KT 050V140 9999 FEW020 BKN250 20/05
                        Q1006=
201004131330 METAR LPPR 131330Z 11009KT 070V160 CAVOK 20/05 Q1006=
201004131300 METAR LPPR 131300Z 10007KT 050V140 CAVOK 19/06 Q1006=
201004131230 METAR LPPR 131230Z 11008KT 050V170 CAVOK 19/05 Q1007=
201004131200 METAR LPPR 131200Z 08008KT 030V140 CAVOK 18/05 Q1007=
201004131130 METAR LPPR 131130Z 09010KT 030V120 CAVOK 17/04 Q1007=
201004131100 METAR LPPR 131100Z 08011KT 040V130 CAVOK 16/03 Q1007=
201004131030 METAR LPPR 131030Z 10009KT 050V130 CAVOK 16/03 Q1007=
201004131000 METAR LPPR 131000Z 10011KT 080V140 CAVOK 15/03 Q1008=
201004130930 METAR LPPR 130930Z 09009KT 060V120 CAVOK 15/02 Q1007=
201004130900 METAR LPPR 130900Z 10011KT 060V120 CAVOK 13/02 Q1008=
201004130830 METAR LPPR 130830Z 10012G23KT 060V130 CAVOK 13/01 Q1007=
201004130800 METAR LPPR 130800Z 10011KT 060V130 CAVOK 12/00 Q1007=
201004130730 METAR LPPR 130730Z 09009KT 050V150 CAVOK 12/01 Q1007=
201004130700 METAR LPPR 130700Z 09009KT 050V140 CAVOK 11/M00 Q1007=
201004130630 METAR LPPR 130630Z 10008KT 060V120 CAVOK 10/M00 Q1007=
201004130600 METAR LPPR 130600Z 08007KT 030V120 CAVOK 10/M00 Q1007=
201004130530 METAR LPPR 130530Z 08006KT 050V130 CAVOK 10/M01 Q1007=
201004130500 METAR LPPR 130500Z 08007KT 030V150 CAVOK 11/M01 Q1007=
201004130430 METAR LPPR 130430Z 08008KT 040V110 CAVOK 11/M01 Q1007=
201004130400 METAR LPPR 130400Z 07008KT 020V110 CAVOK 11/M02 Q1007=
201004130330 METAR LPPR 130330Z 07008KT 020V130 CAVOK 11/M02 Q1007=
201004130300 METAR LPPR 130300Z 07009KT 030V110 CAVOK 12/M03 Q1007=
201004130230 METAR LPPR 130230Z 07009KT 030V110 CAVOK 12/M04 Q1007=
201004130200 METAR LPPR 130200Z 07011G21KT 040V100 CAVOK 13/M04 Q1007=
201004130130 METAR LPPR 130130Z 07010KT 020V100 CAVOK 14/M03 Q1007=
201004130100 METAR LPPR 130100Z 07008KT 040V110 CAVOK 14/M02 Q1007=
201004130030 METAR LPPR 130030Z 08009KT 030V110 CAVOK 14/M01 Q1007=
201004130000 METAR LPPR 130000Z 07008KT 010V110 CAVOK 15/00 Q1007=
201004122330 METAR LPPR 122330Z 07008KT 020V110 CAVOK 15/01 Q1007=
201004122300 METAR LPPR 122300Z 07007KT 030V100 CAVOK 15/03 Q1007=
201004122230 METAR LPPR 122230Z 07004KT 020V130 CAVOK 15/04 Q1007=
201004122200 METAR LPPR 122200Z 08004KT 050V130 CAVOK 16/04 Q1006=
201004122130 METAR LPPR 122130Z 08004KT CAVOK 16/04 Q1006=
201004122100 METAR LPPR 122100Z 06004KT 030V100 9999 FEW020 SCT080 16/04
                        Q1006=
201004122030 METAR LPPR 122030Z VRB03KT 9999 FEW020 SCT080 15/05 Q1006=
201004122000 METAR LPPR 122000Z VRB02KT 9999 FEW020 SCT080 BKN250 16/05
                        Q1005=
201004121930 METAR LPPR 121930Z 06004KT 010V110 9999 FEW020 SCT080 BKN250
                        17/05 Q1005=
201004121900 METAR LPPR 121900Z 09004KT 050V140 9999 FEW020 SCT080 BKN250
                        17/05 Q1005=
201004121830 METAR LPPR 121830Z 10007KT 060V130 9999 FEW020 SCT080 BKN250
                        17/06 Q1005=
201004121800 METAR LPPR 121800Z 10008KT 060V140 9999 FEW020 SCT040 SCT080
                        18/06 Q1005=
201004121730 METAR LPPR 121730Z 10009KT 050V140 9999 FEW020 SCT040 BKN080
                        18/08 Q1005=
201004121700 METAR LPPR 121700Z 08009KT 050V110 9999 SCT040 BKN080 18/08
                        Q1005=
201004121630 METAR LPPR 121630Z 08007KT 020V120 9999 FEW020 SCT040 BKN080
                        18/08 Q1005=
201004121600 METAR LPPR 121600Z 01008KT 350V050 9999 FEW020 SCT040 BKN080
                        18/09 Q1005=
201004121530 METAR LPPR 121530Z 08010KT 040V120 9999 FEW020 BKN100 20/04
                        Q1005=
201004121500 METAR LPPR 121500Z 09009KT 050V130 9999 FEW020 BKN100 21/04
                        Q1005=
201004121430 METAR LPPR 121430Z 08010KT 030V130 9999 FEW020 BKN100 21/04
                        Q1005=
201004121400 METAR LPPR 121400Z 07009KT 020V120 9999 FEW020 BKN090 21/04
                        Q1005=
201004121330 METAR LPPR 121330Z 09008KT 040V140 9999 FEW020 BKN090 21/03
                        Q1005=
201004121300 METAR LPPR 121300Z 11010KT 060V140 CAVOK 21/03 Q1005=
201004121230 METAR LPPR 121230Z 09008KT 050V130 CAVOK 20/02 Q1005=
201004121200 METAR LPPR 121200Z 10010KT 060V140 CAVOK 20/01 Q1005=
201004121130 METAR LPPR 121130Z 08007KT 030V130 CAVOK 20/02 Q1005=
201004121100 METAR LPPR 121100Z 10009KT 060V140 9999 FEW020 SCT100 21/01
                        Q1005=
201004121030 METAR LPPR 121030Z 10012KT 070V130 9999 FEW020 SCT100 19/M01
                        Q1005=
201004121000 METAR LPPR 121000Z 10011KT 070V140 9999 FEW020 SCT100 19/M00
                        Q1005=
201004120930 METAR LPPR 120930Z 09010KT 060V120 9999 FEW020 SCT100 18/00
                        Q1005=
201004120900 METAR LPPR 120900Z 09006KT 050V120 9999 FEW020 SCT100 17/01
                        Q1005=
201004120830 METAR LPPR 120830Z 09006KT 050V130 CAVOK 16/M01 Q1005=
201004120800 METAR LPPR 120800Z 09004KT 030V130 CAVOK 16/M02 Q1005=
201004120730 METAR LPPR 120730Z 10004KT 060V140 CAVOK 15/M02 Q1005=
201004120700 METAR LPPR 120700Z 11004KT CAVOK 13/M00 Q1005=
201004120630 METAR LPPR 120630Z VRB03KT CAVOK 14/03 Q1005=
201004120600 METAR LPPR 120600Z VRB02KT CAVOK 14/05 Q1005=
201004120530 METAR LPPR 120530Z 13005KT CAVOK 15/05 Q1004=
201004120500 METAR LPPR 120500Z 12005KT CAVOK 14/07 Q1005=
201004120430 METAR LPPR 120430Z 11005KT CAVOK 13/07 Q1005=
201004120400 METAR LPPR 120400Z 00000KT CAVOK 11/09 Q1005=
201004120330 METAR LPPR 120330Z 00000KT CAVOK 12/09 Q1005=
201004120300 METAR LPPR 120300Z 00000KT CAVOK 13/10 Q1005=
201004120230 METAR LPPR 120230Z VRB02KT CAVOK 12/10 Q1005=
201004120200 METAR LPPR 120200Z VRB03KT CAVOK 13/10 Q1006=
201004120130 METAR LPPR 120130Z 00000KT CAVOK 13/12 Q1006=
201004120100 METAR LPPR 120100Z 00000KT CAVOK 13/12 Q1006=
201004120030 METAR LPPR 120030Z 13003KT CAVOK 14/13 Q1006=
201004120000 METAR LPPR 120000Z 00000KT 9000 FEW009 13/12 Q1006=
201004112330 METAR LPPR 112330Z 14002KT CAVOK 14/13 Q1006=
201004112300 METAR LPPR 112300Z 17004KT CAVOK 14/13 Q1007=
201004112230 METAR LPPR 112230Z VRB03KT CAVOK 15/13 Q1007=
201004112200 METAR LPPR 112200Z 21004KT CAVOK 15/13 Q1007=
201004112130 METAR LPPR 112130Z 20004KT CAVOK 15/13 Q1007=
201004112100 METAR LPPR 112100Z 02005KT CAVOK 15/13 Q1007=
201004112030 METAR LPPR 112030Z 01005KT CAVOK 15/13 Q1007=
201004112000 METAR LPPR 112000Z 36005KT CAVOK 15/13 Q1007=
201004111930 METAR LPPR 111930Z 35004KT CAVOK 16/13 Q1007=
201004111900 METAR LPPR 111900Z 33007KT CAVOK 17/12 Q1007=
201004111830 METAR LPPR 111830Z 32008KT 290V350 CAVOK 18/12 Q1007=
201004111800 METAR LPPR 111800Z 31010KT CAVOK 19/13 Q1007=
201004111730 METAR LPPR 111730Z 31009KT CAVOK 19/13 Q1007=
201004111700 METAR LPPR 111700Z 31008KT 270V330 CAVOK 20/11 Q1008=
201004111630 METAR LPPR 111630Z 31008KT 270V340 CAVOK 20/11 Q1008=
201004111600 METAR LPPR 111600Z 31011KT CAVOK 20/12 Q1008=
201004111530 METAR LPPR 111530Z 32011KT CAVOK 21/10 Q1009=
201004111500 METAR LPPR 111500Z 32010KT CAVOK 22/08 Q1009=
201004111430 METAR LPPR 111430Z 32012KT CAVOK 22/06 Q1009=
201004111400 METAR LPPR 111400Z 32011KT 290V350 CAVOK 22/06 Q1009=
201004111330 METAR LPPR 111330Z 31010KT CAVOK 22/08 Q1010=
201004111300 METAR LPPR 111300Z 31011KT CAVOK 22/09 Q1010=
201004111230 METAR LPPR 111230Z 31008KT 280V340 CAVOK 23/09 Q1010=
201004111200 METAR LPPR 111200Z 27008KT 230V290 CAVOK 23/10 Q1011=
201004111130 METAR LPPR 111130Z VRB04KT CAVOK 24/10 Q1011=
201004111100 METAR LPPR 111100Z 12006KT 080V160 CAVOK 24/06 Q1012=
201004111030 METAR LPPR 111030Z 11004KT 020V170 CAVOK 23/07 Q1012=
201004111000 METAR LPPR 111000Z 10005KT 060V150 CAVOK 22/06 Q1012=
201004110930 METAR LPPR 110930Z 10007KT 060V130 CAVOK 21/06 Q1012=
201004110900 METAR LPPR 110900Z 10006KT 070V130 CAVOK 20/05 Q1012=
201004110830 METAR LPPR 110830Z 09004KT 020V150 CAVOK 19/06 Q1012=
201004110800 METAR LPPR 110800Z 10007KT 070V140 CAVOK 18/05 Q1012=
201004110730 METAR LPPR 110730Z 11008KT CAVOK 17/05 Q1012=
201004110700 METAR LPPR 110700Z 10010KT CAVOK 16/04 Q1012=
201004110630 METAR LPPR 110630Z 11007KT CAVOK 15/04 Q1012=
201004110600 METAR LPPR 110600Z 10004KT CAVOK 14/05 Q1012=
201004110530 METAR LPPR 110530Z 10003KT CAVOK 14/05 Q1012=
201004110500 METAR LPPR 110500Z 10005KT CAVOK 14/05 Q1012=
201004110430 METAR LPPR 110430Z 10005KT CAVOK 14/05 Q1012=
201004110400 METAR LPPR 110400Z 00000KT CAVOK 12/06 Q1012=
201004110330 METAR LPPR 110330Z VRB03KT CAVOK 14/06 Q1012=
201004110300 METAR LPPR 110300Z 08005KT CAVOK 15/05 Q1013=
201004110230 METAR LPPR 110230Z 10006KT CAVOK 15/05 Q1013=
201004110200 METAR LPPR 110200Z 10005KT CAVOK 16/05 Q1013=
201004110130 METAR LPPR 110130Z 10004KT CAVOK 17/05 Q1014=
201004110100 METAR LPPR 110100Z 10005KT CAVOK 17/05 Q1014=
201004110030 METAR LPPR 110030Z 05006KT 030V090 CAVOK 18/05 Q1014=
201004110000 METAR LPPR 110000Z 05006KT CAVOK 18/05 Q1014=
201004102330 METAR LPPR 102330Z 05006KT 020V080 CAVOK 16/05 Q1014=
201004102300 METAR LPPR 102300Z 01002KT CAVOK 13/08 Q1014=
201004102230 METAR LPPR 102230Z VRB03KT CAVOK 16/08 Q1015=
201004102200 METAR LPPR 102200Z 06003KT CAVOK 19/04 Q1015=
201004102130 METAR LPPR 102130Z 07004KT CAVOK 18/05 Q1015=
201004102100 METAR LPPR 102100Z VRB02KT CAVOK 15/08 Q1015=
201004102030 METAR LPPR 102030Z 35003KT CAVOK 16/08 Q1015=
201004102000 METAR LPPR 102000Z 35003KT CAVOK 16/08 Q1015=
201004101930 METAR LPPR 101930Z 35004KT CAVOK 17/08 Q1015=
201004101900 METAR LPPR 101900Z 34005KT CAVOK 18/08 Q1015=
201004101830 METAR LPPR 101830Z 34010KT CAVOK 20/08 Q1015=
201004101800 METAR LPPR 101800Z 34011KT CAVOK 21/08 Q1015=
201004101730 METAR LPPR 101730Z 33012KT CAVOK 22/07 Q1015=
201004101700 METAR LPPR 101700Z 33014G24KT 290V350 CAVOK 23/07 Q1015=
201004101630 METAR LPPR 101630Z 33012KT CAVOK 23/08 Q1015=
201004101600 METAR LPPR 101600Z 32011KT CAVOK 23/09 Q1016=
201004101530 METAR LPPR 101530Z 30010KT 260V350 CAVOK 22/11 Q1016=
201004101500 METAR LPPR 101500Z 32007KT 270V350 CAVOK 23/09 Q1016=
201004101430 METAR LPPR 101430Z 31006KT 260V350 9999 FEW017 24/10 Q1017=
201004101400 METAR LPPR 101400Z 09006KT 020V150 CAVOK 25/05 Q1017=
201004101330 METAR LPPR 101330Z 11005KT 050V190 CAVOK 25/05 Q1018=
201004101300 METAR LPPR 101300Z 05007KT 010V100 CAVOK 24/05 Q1018=
201004101230 METAR LPPR 101230Z 10005KT 010V150 CAVOK 24/06 Q1018=
201004101200 METAR LPPR 101200Z 10005KT 050V150 CAVOK 24/07 Q1019=
201004101130 METAR LPPR 101130Z 11006KT 070V160 CAVOK 24/06 Q1019=
201004101100 METAR LPPR 101100Z 09004KT 020V150 CAVOK 23/07 Q1019=
201004101030 METAR LPPR 101030Z 10007KT 050V130 CAVOK 22/06 Q1020=
201004101000 METAR LPPR 101000Z 10009KT CAVOK 21/06 Q1020=
201004100930 METAR LPPR 100930Z 11008KT CAVOK 21/07 Q1020=
201004100900 METAR LPPR 100900Z 10009KT 070V130 CAVOK 19/06 Q1020=
201004100830 METAR LPPR 100830Z 10006KT 060V130 CAVOK 18/06 Q1020=
201004100800 METAR LPPR 100800Z 10006KT 070V130 CAVOK 17/06 Q1020=
201004100730 METAR LPPR 100730Z 09006KT 070V130 CAVOK 16/06 Q1020=
201004100700 METAR LPPR 100700Z 09006KT 060V120 CAVOK 15/05 Q1020=
201004100630 METAR LPPR 100630Z 10006KT CAVOK 14/05 Q1020=
201004100600 METAR LPPR 100600Z 10006KT CAVOK 14/06 Q1020=
201004100530 METAR LPPR 100530Z 10006KT CAVOK 14/06 Q1020=
201004100500 METAR LPPR 100500Z VRB03KT CAVOK 14/06 Q1020=
201004100430 METAR LPPR 100430Z 10005KT CAVOK 14/06 Q1020=
201004100400 METAR LPPR 100400Z 10005KT CAVOK 14/06 Q1020=
201004100330 METAR LPPR 100330Z 12007KT CAVOK 14/06 Q1020=
201004100300 METAR LPPR 100300Z 10006KT 070V130 CAVOK 15/06 Q1020=
201004100230 METAR LPPR 100230Z 11006KT CAVOK 15/06 Q1020=
201004100200 METAR LPPR 100200Z 10006KT CAVOK 15/07 Q1020=
201004100130 METAR LPPR 100130Z 11005KT CAVOK 15/07 Q1020=
201004100100 METAR LPPR 100100Z 10005KT 070V130 CAVOK 15/08 Q1020=
201004100030 METAR LPPR 100030Z 10005KT CAVOK 15/09 Q1020=
201004100000 METAR LPPR 100000Z 09004KT CAVOK 15/08 Q1020=
201004092330 METAR LPPR 092330Z 10005KT CAVOK 14/09 Q1020=
201004092300 METAR LPPR 092300Z 00000KT CAVOK 11/09 Q1020=
201004092230 METAR LPPR 092230Z 00000KT CAVOK 12/10 Q1020=
201004092200 METAR LPPR 092200Z 00000KT CAVOK 12/10 Q1020=
201004092130 METAR LPPR 092130Z 05002KT CAVOK 13/10 Q1020=
201004092100 METAR LPPR 092100Z 00000KT CAVOK 13/11 Q1020=
201004092030 METAR LPPR 092030Z VRB01KT CAVOK 14/11 Q1020=
201004092000 METAR LPPR 092000Z 36003KT CAVOK 14/11 Q1020=
201004091930 METAR LPPR 091930Z 34006KT CAVOK 15/11 Q1019=
201004091900 METAR LPPR 091900Z 34008KT CAVOK 16/11 Q1019=
201004091830 METAR LPPR 091830Z 34010KT CAVOK 17/09 Q1019=
201004091800 METAR LPPR 091800Z 33010KT CAVOK 19/08 Q1019=
201004091730 METAR LPPR 091730Z 34012KT CAVOK 19/08 Q1019=
201004091700 METAR LPPR 091700Z 34012KT CAVOK 20/08 Q1019=
201004091630 METAR LPPR 091630Z 32010KT 280V350 CAVOK 21/07 Q1019=
201004091600 METAR LPPR 091600Z 32009KT CAVOK 21/07 Q1019=
201004091530 METAR LPPR 091530Z 33010KT CAVOK 21/07 Q1020=
201004091500 METAR LPPR 091500Z 31009KT 290V350 CAVOK 21/08 Q1020=
201004091430 METAR LPPR 091430Z 29008KT 260V340 CAVOK 22/07 Q1020=
201004091400 METAR LPPR 091400Z 28007KT 250V310 CAVOK 22/08 Q1020=
201004091330 METAR LPPR 091330Z VRB02KT CAVOK 24/06 Q1020=
201004091300 METAR LPPR 091300Z VRB03KT CAVOK 23/04 Q1020=
201004091230 METAR LPPR 091230Z VRB03KT CAVOK 23/06 Q1021=
201004091200 METAR LPPR 091200Z 07004KT 020V150 CAVOK 22/05 Q1021=
201004091130 METAR LPPR 091130Z 09006KT 030V130 CAVOK 21/05 Q1021=
201004091100 METAR LPPR 091100Z 08007KT 020V120 CAVOK 20/05 Q1021=
201004091030 METAR LPPR 091030Z 08009KT 050V130 CAVOK 19/04 Q1021=
201004091000 METAR LPPR 091000Z 09011KT 050V120 CAVOK 18/03 Q1021=
201004090930 METAR LPPR 090930Z 09011KT 050V120 CAVOK 17/02 Q1021=
201004090900 METAR LPPR 090900Z 09010KT 050V130 CAVOK 17/02 Q1021=
201004090830 METAR LPPR 090830Z 09010KT 050V130 CAVOK 16/02 Q1021=
201004090800 METAR LPPR 090800Z 09008KT 060V120 CAVOK 15/02 Q1021=
201004090730 METAR LPPR 090730Z 10009KT 060V140 CAVOK 15/02 Q1021=
201004090700 METAR LPPR 090700Z 08011KT 040V110 CAVOK 14/02 Q1021=
201004090630 METAR LPPR 090630Z 08005KT 040V120 CAVOK 13/03 Q1021=
201004090600 METAR LPPR 090600Z 08006KT 040V130 CAVOK 13/04 Q1021=
201004090530 METAR LPPR 090530Z 08005KT 050V120 CAVOK 13/04 Q1021=
201004090500 METAR LPPR 090500Z 07004KT 020V120 CAVOK 12/04 Q1021=
201004090430 METAR LPPR 090430Z VRB03KT CAVOK 13/04 Q1021=
201004090400 METAR LPPR 090400Z 05004KT CAVOK 13/04 Q1020=
201004090330 METAR LPPR 090330Z 06004KT CAVOK 11/05 Q1021=
201004090300 METAR LPPR 090300Z 07004KT CAVOK 12/06 Q1021=
201004090230 METAR LPPR 090230Z 00000KT CAVOK 10/07 Q1021=
201004090200 METAR LPPR 090200Z 09003KT CAVOK 11/08 Q1021=
201004090130 METAR LPPR 090130Z VRB02KT CAVOK 11/08 Q1021=
201004090100 METAR LPPR 090100Z VRB02KT CAVOK 13/08 Q1021=
201004090030 METAR LPPR 090030Z 09003KT CAVOK 10/08 Q1021=
201004090000 METAR LPPR 090000Z 00000KT CAVOK 10/09 Q1021=
201004082330 METAR LPPR 082330Z 01001KT CAVOK 11/09 Q1021=
201004082300 METAR LPPR 082300Z VRB01KT CAVOK 11/09 Q1021=
201004082230 METAR LPPR 082230Z 00000KT CAVOK 12/10 Q1021=
201004082200 METAR LPPR 082200Z VRB01KT CAVOK 12/10 Q1021=
201004082130 METAR LPPR 082130Z 00000KT CAVOK 12/11 Q1021=
201004082100 METAR LPPR 082100Z 00000KT CAVOK 13/10 Q1021=
201004082030 METAR LPPR 082030Z 34001KT CAVOK 13/11 Q1021=
201004082000 METAR LPPR 082000Z VRB02KT CAVOK 14/11 Q1021=
201004081930 METAR LPPR 081930Z 35005KT CAVOK 15/11 Q1021=
201004081900 METAR LPPR 081900Z 33007KT CAVOK 17/10 Q1021=
201004081830 METAR LPPR 081830Z 33008KT CAVOK 18/10 Q1021=
201004081800 METAR LPPR 081800Z 34009KT CAVOK 19/09 Q1021=
201004081730 METAR LPPR 081730Z 34011KT CAVOK 19/08 Q1020=
201004081700 METAR LPPR 081700Z 34013KT CAVOK 20/08 Q1021=
201004081630 METAR LPPR 081630Z 33012KT CAVOK 20/09 Q1021=
201004081600 METAR LPPR 081600Z 33012KT CAVOK 21/10 Q1021=
201004081530 METAR LPPR 081530Z 31009KT CAVOK 21/12 Q1021=
201004081500 METAR LPPR 081500Z VRB04KT CAVOK 23/04 Q1021=
201004081430 METAR LPPR 081430Z 09005KT 040V160 CAVOK 23/05 Q1022=
201004081400 METAR LPPR 081400Z 09006KT 040V160 CAVOK 22/06 Q1022=
201004081330 METAR LPPR 081330Z 10005KT 020V160 CAVOK 22/06 Q1022=
201004081300 METAR LPPR 081300Z VRB06KT CAVOK 21/06 Q1022=
201004081230 METAR LPPR 081230Z 09006KT 020V150 CAVOK 21/06 Q1023=
201004081200 METAR LPPR 081200Z 07007KT 040V120 CAVOK 20/05 Q1023=
201004081130 METAR LPPR 081130Z 07008KT 020V100 CAVOK 19/05 Q1023=
201004081100 METAR LPPR 081100Z 09009KT 040V130 CAVOK 19/05 Q1024=
201004081030 METAR LPPR 081030Z 08008KT 030V130 CAVOK 18/06 Q1024=
201004081000 METAR LPPR 081000Z 10012KT 070V130 CAVOK 17/04 Q1024=
201004080930 METAR LPPR 080930Z 10011KT 060V120 CAVOK 16/04 Q1023=
201004080900 METAR LPPR 080900Z 10012KT 070V130 CAVOK 15/04 Q1023=
201004080830 METAR LPPR 080830Z 09012KT 070V130 CAVOK 14/04 Q1023=
201004080800 METAR LPPR 080800Z 09011KT 060V120 CAVOK 14/04 Q1023=
201004080730 METAR LPPR 080730Z 09008KT 050V130 CAVOK 13/04 Q1023=
201004080700 METAR LPPR 080700Z 09009KT 050V120 CAVOK 13/04 Q1023=
201004080630 METAR LPPR 080630Z 09008KT CAVOK 12/04 Q1023=
201004080600 METAR LPPR 080600Z 09010KT 050V120 CAVOK 13/04 Q1023=
201004080530 METAR LPPR 080530Z 09008KT 060V120 CAVOK 13/04 Q1022=
201004080500 METAR LPPR 080500Z 10010KT 060V130 CAVOK 13/05 Q1022=
201004080430 METAR LPPR 080430Z 10010KT CAVOK 14/05 Q1022=
201004080400 METAR LPPR 080400Z 10008KT CAVOK 13/05 Q1022=
201004080330 METAR LPPR 080330Z 10006KT CAVOK 13/06 Q1022=
201004080300 METAR LPPR 080300Z 09003KT CAVOK 13/06 Q1022=
201004080230 METAR LPPR 080230Z 09005KT 050V120 CAVOK 13/07 Q1022=
201004080200 METAR LPPR 080200Z 11005KT CAVOK 13/08 Q1022=
201004080130 METAR LPPR 080130Z 10004KT CAVOK 13/08 Q1022=
201004080100 METAR LPPR 080100Z 09005KT CAVOK 13/08 Q1022=
201004080030 METAR LPPR 080030Z 09004KT CAVOK 14/09 Q1022=
201004080000 METAR LPPR 080000Z 09005KT CAVOK 14/09 Q1022=
201004072330 METAR LPPR 072330Z 09005KT CAVOK 13/09 Q1022=
201004072300 METAR LPPR 072300Z 11003KT CAVOK 12/08 Q1022=
201004072230 METAR LPPR 072230Z 00000KT CAVOK 11/08 Q1022=
201004072200 METAR LPPR 072200Z VRB01KT CAVOK 12/09 Q1021=
201004072130 METAR LPPR 072130Z 00000KT CAVOK 12/09 Q1021=
201004072100 METAR LPPR 072100Z 00000KT CAVOK 13/10 Q1021=
201004072030 METAR LPPR 072030Z 03003KT CAVOK 13/10 Q1021=
201004072000 METAR LPPR 072000Z 02003KT CAVOK 13/10 Q1020=
201004071930 METAR LPPR 071930Z 35005KT CAVOK 14/11 Q1020=
201004071900 METAR LPPR 071900Z 35008KT CAVOK 16/11 Q1020=
201004071830 METAR LPPR 071830Z 35010KT CAVOK 16/11 Q1020=
201004071800 METAR LPPR 071800Z 35010KT CAVOK 17/11 Q1020=
201004071730 METAR LPPR 071730Z 34012KT CAVOK 17/10 Q1020=
201004071700 METAR LPPR 071700Z 34014KT CAVOK 17/10 Q1020=
201004071630 METAR LPPR 071630Z 33015KT CAVOK 17/10 Q1020=
201004071600 METAR LPPR 071600Z 34016KT CAVOK 17/10 Q1021=
201004071530 METAR LPPR 071530Z 33016KT CAVOK 18/10 Q1021=
201004071500 METAR LPPR 071500Z 32013KT CAVOK 17/10 Q1021=
201004071430 METAR LPPR 071430Z 32013KT CAVOK 17/11 Q1021=
201004071400 METAR LPPR 071400Z 31011KT CAVOK 17/11 Q1021=
201004071330 METAR LPPR 071330Z 32012KT CAVOK 17/10 Q1021=
201004071300 METAR LPPR 071300Z 31015KT CAVOK 16/10 Q1021=
201004071230 METAR LPPR 071230Z 32012KT 280V340 CAVOK 16/09 Q1022=
201004071200 METAR LPPR 071200Z 31011KT 280V340 CAVOK 16/09 Q1022=
201004071130 METAR LPPR 071130Z 31011KT CAVOK 15/09 Q1022=
201004071100 METAR LPPR 071100Z 34007KT 290V020 CAVOK 16/07 Q1022=
201004071030 METAR LPPR 071030Z 33008KT CAVOK 15/07 Q1022=
201004071000 METAR LPPR 071000Z 35009KT CAVOK 14/07 Q1022=
201004070930 METAR LPPR 070930Z 36008KT CAVOK 13/08 Q1022=
201004070900 METAR LPPR 070900Z 36008KT 330V030 CAVOK 12/07 Q1022=
201004070830 METAR LPPR 070830Z 34008KT CAVOK 11/08 Q1022=
201004070800 METAR LPPR 070800Z 35004KT CAVOK 11/09 Q1022=
201004070730 METAR LPPR 070730Z 34003KT CAVOK 09/08 Q1022=
201004070700 METAR LPPR 070700Z VRB03KT CAVOK 08/08 Q1021=
201004070630 METAR LPPR 070630Z VRB03KT CAVOK 08/07 Q1021=
201004070600 METAR LPPR 070600Z VRB02KT CAVOK 08/08 Q1021=
201004070530 METAR LPPR 070530Z VRB03KT CAVOK 08/08 Q1020=
201004070500 METAR LPPR 070500Z 01004KT CAVOK 09/08 Q1020=
201004070430 METAR LPPR 070430Z 35008KT 9999 FEW009 09/09 Q1020=
201004070400 METAR LPPR 070400Z 35007KT 9999 FEW005 09/09 Q1020=
201004070330 METAR LPPR 070330Z 36004KT 8000 FEW005 10/10 Q1020=
201004070300 METAR LPPR 070300Z 35005KT 6000 FEW003 SCT005 10/10 Q1020=
201004070230 METAR LPPR 070230Z 02005KT 5000 BR SCT001 BKN004 11/11 Q1019=
201004070200 METAR LPPR 070200Z 36005KT 7000 SCT003 BKN005 11/11 Q1020=
201004070130 METAR LPPR 070130Z 35004KT 8000 SCT004 BKN007 11/11 Q1019=
201004070100 METAR LPPR 070100Z 00000KT 9999 SCT007 SCT020 11/10 Q1019=
201004070030 METAR LPPR 070030Z 00000KT 9999 FEW009 SCT020 11/11 Q1019=
201004070000 METAR LPPR 070000Z 35004KT 9999 SCT009 BKN017 12/12 Q1019=
201004062330 METAR LPPR 062330Z 34007KT 9999 FEW003 SCT006 BKN012 12/12
                        Q1019=
201004062300 METAR LPPR 062300Z 22004KT 190V250 4000 -DZ BR SCT002 BKN004
                        12/12 Q1019=
201004062230 METAR LPPR 062230Z 21003KT 4000 -DZ BR SCT002 BKN004 12/12
                        Q1019=
201004062200 METAR LPPR 062200Z 21003KT 4000 -DZ BR SCT002 BKN005 12/12
                        Q1019=
201004062130 METAR LPPR 062130Z VRB03KT 2500 -DZ BR SCT001 BKN003 13/12
                        Q1018=
201004062100 METAR LPPR 062100Z 24004KT 180V270 3000 -RADZ BR SCT001 BKN004
                        13/12 Q1018=
201004062030 METAR LPPR 062030Z 24004KT 5000 -RA BR SCT002 SCT004 BKN013
                        13/12 Q1018=
201004062000 METAR LPPR 062000Z VRB02KT 7000 -RA SCT009 BKN013 13/11 Q1018=
201004061930 METAR LPPR 061930Z VRB02KT 9999 -RA FEW015 BKN040 BKN060
                        14/11 Q1017=
201004061900 METAR LPPR 061900Z 27004KT 230V360 9999 FEW015 BKN040 14/11
                        Q1017=
201004061830 METAR LPPR 061830Z 25003KT 9999 FEW015 BKN040 14/11 Q1017=
201004061800 METAR LPPR 061800Z 28005G15KT 250V320 9999 SCT015 SCT080
                        BKN250 14/11 Q1017=
201004061730 METAR LPPR 061730Z 26004KT 230V290 9999 SCT015 SCT070 BKN250
                        14/11 Q1017=
201004061700 METAR LPPR 061700Z 26004KT 200V310 9999 SCT015 SCT080 BKN250
                        15/11 Q1016=
201004061630 METAR LPPR 061630Z 27005KT 230V300 9999 FEW015 SCT080 BKN250
                        15/11 Q1017=
201004061600 METAR LPPR 061600Z VRB04KT 9999 FEW016 SCT100 OVC250 15/11
                        Q1016=
201004061530 METAR LPPR 061530Z 27004KT 210V340 9999 FEW017 SCT100 OVC250
                        15/12 Q1017=
201004061500 METAR LPPR 061500Z 24006KT 190V300 9999 FEW017 SCT100 OVC250
                        16/11 Q1017=
201004061430 METAR LPPR 061430Z 25005KT 180V300 9999 FEW017 SCT100 OVC250
                        16/10 Q1017=
201004061400 METAR LPPR 061400Z 25004KT 200V330 9999 FEW016 BKN250 16/09
                        Q1017=
201004061330 METAR LPPR 061330Z 27005KT 230V340 9999 FEW016 BKN250 17/10
                        Q1017=
201004061300 METAR LPPR 061300Z 28006KT 260V320 9999 FEW016 BKN250 16/10
                        Q1017=
201004061230 METAR LPPR 061230Z 28008KT 260V320 9999 FEW019 BKN250 16/11
                        Q1017=
201004061200 METAR LPPR 061200Z 27006KT 230V310 9999 FEW019 BKN250 17/09
                        Q1017=
201004061130 METAR LPPR 061130Z 24007KT 210V280 CAVOK 17/09 Q1017=
201004061100 METAR LPPR 061100Z 22006KT 180V260 CAVOK 17/11 Q1017=
201004061030 METAR LPPR 061030Z 23007KT 190V260 CAVOK 17/11 Q1017=
201004061000 METAR LPPR 061000Z 20006KT 170V230 CAVOK 16/09 Q1017=
201004060930 METAR LPPR 060930Z 20007KT CAVOK 16/07 Q1017=
201004060900 METAR LPPR 060900Z 15005KT CAVOK 15/07 Q1016=
201004060830 METAR LPPR 060830Z 12007KT CAVOK 13/06 Q1016=
201004060800 METAR LPPR 060800Z 11009KT CAVOK 12/06 Q1016=
201004060730 METAR LPPR 060730Z 11008KT CAVOK 11/06 Q1016=
201004060700 METAR LPPR 060700Z 11008KT CAVOK 10/05 Q1016=
201004060630 METAR LPPR 060630Z 11009KT CAVOK 10/05 Q1016=
201004060600 METAR LPPR 060600Z 11006KT CAVOK 10/05 Q1016=
201004060530 METAR LPPR 060530Z VRB01KT CAVOK 09/05 Q1016=
201004060500 METAR LPPR 060500Z 12004KT 100V180 CAVOK 09/05 Q1016=
201004060430 METAR LPPR 060430Z 13004KT 100V170 CAVOK 10/05 Q1016=
201004060400 METAR LPPR 060400Z 10004KT 070V170 CAVOK 09/05 Q1016=
201004060330 METAR LPPR 060330Z VRB02KT CAVOK 10/05 Q1016=
201004060300 METAR LPPR 060300Z VRB03KT CAVOK 10/04 Q1016=
201004060230 METAR LPPR 060230Z VRB02KT CAVOK 10/04 Q1016=
201004060200 METAR LPPR 060200Z 10005KT CAVOK 10/04 Q1016=
201004060130 METAR LPPR 060130Z 00000KT CAVOK 09/04 Q1017=
201004060100 METAR LPPR 060100Z 10006KT CAVOK 10/04 Q1017=
201004060030 METAR LPPR 060030Z 09003KT CAVOK 09/04 Q1018=
201004060000 METAR LPPR 060000Z 10001KT CAVOK 09/04 Q1018=
201004052330 METAR LPPR 052330Z 00000KT CAVOK 10/06 Q1018=
201004052300 METAR LPPR 052300Z 00000KT CAVOK 10/05 Q1018=
201004052230 METAR LPPR 052230Z 36002KT CAVOK 11/05 Q1019=
201004052200 METAR LPPR 052200Z 36003KT CAVOK 11/05 Q1019=
201004052130 METAR LPPR 052130Z VRB03KT CAVOK 11/05 Q1019=
201004052100 METAR LPPR 052100Z 35003KT CAVOK 12/04 Q1019=
201004052030 METAR LPPR 052030Z 34004KT CAVOK 12/05 Q1019=
201004052000 METAR LPPR 052000Z 34005KT CAVOK 12/05 Q1019=
201004051930 METAR LPPR 051930Z 33003KT CAVOK 13/06 Q1018=
201004051900 METAR LPPR 051900Z 35006KT CAVOK 14/07 Q1018=
201004051830 METAR LPPR 051830Z 34007KT CAVOK 16/08 Q1018=
201004051800 METAR LPPR 051800Z 32008KT CAVOK 18/05 Q1018=
201004051730 METAR LPPR 051730Z 32009KT CAVOK 18/05 Q1018=
201004051700 METAR LPPR 051700Z 32010KT 290V350 CAVOK 18/06 Q1018=
201004051630 METAR LPPR 051630Z 31010KT 270V350 CAVOK 18/07 Q1018=
201004051600 METAR LPPR 051600Z 32008KT CAVOK 18/08 Q1019=
201004051530 METAR LPPR 051530Z 31010KT CAVOK 18/10 Q1019=
201004051500 METAR LPPR 051500Z 30007KT 260V350 CAVOK 19/10 Q1019=
201004051430 METAR LPPR 051430Z 28007KT 230V330 CAVOK 19/09 Q1020=
201004051400 METAR LPPR 051400Z 28007KT 240V300 CAVOK 19/09 Q1020=
201004051330 METAR LPPR 051330Z 27007KT CAVOK 19/08 Q1021=
201004051300 METAR LPPR 051300Z 27006KT CAVOK 19/08 Q1021=
201004051230 METAR LPPR 051230Z 28007KT 220V300 CAVOK 18/10 Q1022=
201004051200 METAR LPPR 051200Z VRB03KT CAVOK 20/09 Q1023=
201004051130 METAR LPPR 051130Z 13005KT 100V190 CAVOK 19/04 Q1023=
201004051100 METAR LPPR 051100Z 12006KT 070V160 CAVOK 18/05 Q1023=
201004051030 METAR LPPR 051030Z 11009KT CAVOK 17/05 Q1024=
201004051000 METAR LPPR 051000Z 11009KT 080V140 CAVOK 16/05 Q1024=
201004050930 METAR LPPR 050930Z 11007KT 080V140 CAVOK 15/06 Q1024=
201004050900 METAR LPPR 050900Z 11009KT CAVOK 14/05 Q1024=
201004050830 METAR LPPR 050830Z 10005KT 060V140 CAVOK 13/06 Q1024=
201004050800 METAR LPPR 050800Z 10006KT 060V120 CAVOK 11/05 Q1024=
201004050730 METAR LPPR 050730Z VRB03KT CAVOK 07/06 Q1024=
201004050700 METAR LPPR 050700Z VRB03KT CAVOK 05/03 Q1024=
201004050630 METAR LPPR 050630Z VRB02KT CAVOK 06/03 Q1024=
201004050600 METAR LPPR 050600Z 06002KT CAVOK 06/04 Q1023=
201004050530 METAR LPPR 050530Z 03003KT CAVOK 07/04 Q1024=
201004050500 METAR LPPR 050500Z 04004KT CAVOK 07/04 Q1024=
201004050430 METAR LPPR 050430Z 03004KT CAVOK 07/04 Q1024=
201004050400 METAR LPPR 050400Z 06005KT CAVOK 08/05 Q1024=
201004050330 METAR LPPR 050330Z 06005KT CAVOK 07/06 Q1024=
201004050300 METAR LPPR 050300Z 05004KT CAVOK 06/05 Q1025=
201004050230 METAR LPPR 050230Z 03002KT CAVOK 06/05 Q1025=
201004050200 METAR LPPR 050200Z 02003KT CAVOK 06/05 Q1025=
201004050130 METAR LPPR 050130Z 00000KT CAVOK 07/05 Q1025=
201004050100 METAR LPPR 050100Z 08004KT 040V100 CAVOK 07/06 Q1026=
201004050030 METAR LPPR 050030Z 09003KT CAVOK 07/05 Q1026=
201004050000 METAR LPPR 050000Z 04001KT CAVOK 07/05 Q1026=
201004042330 METAR LPPR 042330Z 03003KT CAVOK 07/05 Q1026=
201004042300 METAR LPPR 042300Z 35002KT CAVOK 07/06 Q1026=
201004042230 METAR LPPR 042230Z 35003KT CAVOK 08/06 Q1027=
201004042200 METAR LPPR 042200Z 01003KT CAVOK 08/06 Q1027=
201004042130 METAR LPPR 042130Z 01002KT CAVOK 09/06 Q1027=
201004042100 METAR LPPR 042100Z 34003KT CAVOK 09/06 Q1027=
201004042030 METAR LPPR 042030Z 35005KT CAVOK 10/06 Q1027=
201004042000 METAR LPPR 042000Z 35006KT CAVOK 10/07 Q1026=
201004041930 METAR LPPR 041930Z 34007KT CAVOK 11/07 Q1026=
201004041900 METAR LPPR 041900Z 33009KT CAVOK 12/07 Q1026=
201004041830 METAR LPPR 041830Z 34011KT CAVOK 13/06 Q1026=
201004041800 METAR LPPR 041800Z 33010KT 300V360 CAVOK 13/06 Q1026=
201004041730 METAR LPPR 041730Z 32013KT 9999 FEW020 14/07 Q1026=
201004041700 METAR LPPR 041700Z 32013KT 9999 FEW020 14/06 Q1026=
201004041630 METAR LPPR 041630Z 33014KT 9999 FEW020 14/06 Q1026=
201004041600 METAR LPPR 041600Z 32012KT 280V340 9999 FEW020 14/07 Q1027=
201004041530 METAR LPPR 041530Z 33013KT 9999 FEW030 14/06 Q1027=
201004041500 METAR LPPR 041500Z 31013KT 9999 FEW030 14/06 Q1027=
201004041430 METAR LPPR 041430Z 31011KT 250V330 9999 SCT030 14/06 Q1027=
201004041400 METAR LPPR 041400Z 31011KT 9999 SCT030 14/07 Q1027=
201004041330 METAR LPPR 041330Z 31009KT 270V340 9999 SCT030 14/07 Q1027=
201004041300 METAR LPPR 041300Z 28009KT 260V320 9999 SCT030 14/08 Q1027=
201004041230 METAR LPPR 041230Z 33006KT 240V030 9999 FEW025 SCT030 14/06
                        Q1027=
201004041200 METAR LPPR 041200Z 01005KT 300V100 9999 SCT025 14/06 Q1028=
201004041130 METAR LPPR 041130Z 05006KT 350V090 9999 FEW025 13/04 Q1028=
201004041100 METAR LPPR 041100Z 01006KT 320V060 9999 FEW020 13/05 Q1028=
201004041030 METAR LPPR 041030Z 02006KT 340V060 9999 FEW025 13/04 Q1028=
201004041000 METAR LPPR 041000Z 02004KT 320V080 9999 FEW025 12/06 Q1028=
201004040930 METAR LPPR 040930Z VRB03KT 9999 FEW020 11/07 Q1027=
201004040900 METAR LPPR 040900Z 12004KT 080V170 9999 FEW020 10/07 Q1027=
201004040830 METAR LPPR 040830Z VRB03KT 9999 FEW020 09/08 Q1027=
201004040800 METAR LPPR 040800Z VRB02KT CAVOK 08/07 Q1027=
201004040730 METAR LPPR 040730Z 10004KT 070V130 CAVOK 06/06 Q1026=
201004040700 METAR LPPR 040700Z 11001KT CAVOK 05/04 Q1026=
201004040630 METAR LPPR 040630Z 00000KT CAVOK 04/04 Q1026=
201004040600 METAR LPPR 040600Z 00000KT CAVOK 05/04 Q1025=
201004040530 METAR LPPR 040530Z 00000KT CAVOK 05/04 Q1025=
201004040500 METAR LPPR 040500Z 00000KT CAVOK 05/04 Q1025=
201004040430 METAR LPPR 040430Z 00000KT CAVOK 05/04 Q1025=
201004040400 METAR LPPR 040400Z 00000KT CAVOK 05/04 Q1024=
201004040330 METAR LPPR 040330Z 10003KT CAVOK 05/05 Q1024=
201004040300 METAR LPPR 040300Z VRB03KT CAVOK 05/05 Q1024=
201004040230 METAR LPPR 040230Z 00000KT CAVOK 06/05 Q1024=
201004040200 METAR LPPR 040200Z 00000KT CAVOK 06/05 Q1024=
201004040130 METAR LPPR 040130Z VRB02KT CAVOK 06/05 Q1024=
201004040100 METAR LPPR 040100Z 00000KT 9999 FEW035 06/06 Q1024=
201004040030 METAR LPPR 040030Z VRB02KT 9999 SCT035 07/06 Q1023=
201004040000 METAR LPPR 040000Z VRB01KT 9999 FEW018 SCT035 07/06 Q1023=
201004032330 METAR LPPR 032330Z VRB02KT 9999 FEW017 BKN035 07/06 Q1023=
201004032300 METAR LPPR 032300Z 30002KT 9999 FEW018 SCT035 07/06 Q1023=
201004032230 METAR LPPR 032230Z VRB01KT 9999 FEW017 SCT035 07/06 Q1022=
201004032200 METAR LPPR 032200Z VRB03KT 9999 FEW017 SCT035 08/06 Q1022=
201004032130 METAR LPPR 032130Z VRB03KT 9999 -SHRA SCT017 SCT035 08/07
                        Q1022=
201004032100 METAR LPPR 032100Z VRB03KT 9999 -SHRA SCT017 FEW025CB BKN035
                        09/07 Q1022=
201004032030 METAR LPPR 032030Z 04004KT 010V080 9999 -SHRA SCT017 FEW025CB
                        BKN035 08/07 Q1021=
201004032000 METAR LPPR 032000Z 08005KT 020V110 9999 SCT017 FEW025CB 08/07
                        Q1021=
201004031930 METAR LPPR 031930Z 03006KT 8000 SHRA SCT017 FEW025CB BKN035
                        08/07 Q1021=
201004031900 METAR LPPR 031900Z 01004KT 330V060 6000 -SHRA BKN017 SCT020CB
                        09/07 Q1020=
201004031830 METAR LPPR 031830Z 02007KT 9999 -SHRA SCT017 FEW020CB SCT030
                        09/07 Q1020=
201004031800 METAR LPPR 031800Z 33022G32KT 300V010 9999 BKN017 SCT020CB
                        11/06 Q1019=
201004031730 METAR LPPR 031730Z 31010KT 9999 SCT015 SCT017CB 13/08 Q1019=
201004031700 METAR LPPR 031700Z 31010KT 280V340 9999 SCT015 FEW017CB 13/07
                        Q1018=
201004031630 METAR LPPR 031630Z 31015KT 280V340 9999 BKN015 FEW017CB 12/08
                        Q1018 RERA=
201004031600 METAR LPPR 031600Z 31013KT 270V330 9999 SCT017 FEW020TCU
                        14/08 Q1018=
201004031530 METAR LPPR 031530Z 31012KT 9999 SCT020 FEW025TCU 14/08 Q1018=
201004031500 METAR LPPR 031500Z 29012KT 260V320 9999 SCT020 FEW025TCU
                        14/06 Q1017=
201004031430 METAR LPPR 031430Z 28012KT 250V320 9999 SCT020 FEW025TCU
                        14/06 Q1017=
201004031400 METAR LPPR 031400Z 29010KT 250V330 9999 SCT020 14/06 Q1018=
201004031330 METAR LPPR 031330Z 29009KT 260V330 9999 SCT020 FEW025TCU
                        14/05 Q1018=
201004031300 METAR LPPR 031300Z 30011KT 260V330 9999 SCT020 FEW025TCU
                        14/05 Q1018=
201004031230 METAR LPPR 031230Z 30010KT 260V330 9999 SCT020 FEW025TCU
                        14/06 Q1018=
201004031200 METAR LPPR 031200Z 31012KT 270V340 9999 SCT020 SCT080 14/05
                        Q1017=
201004031130 METAR LPPR 031130Z 29012KT 260V330 9999 SCT020 13/07 Q1017=
201004031100 METAR LPPR 031100Z 29006KT 230V340 9999 SCT017 FEW020TCU
                        13/09 Q1018=
201004031030 METAR LPPR 031030Z 32013KT 280V340 9999 SCT017 FEW020TCU
                        14/06 Q1017=
201004031000 METAR LPPR 031000Z 30010KT 270V330 9999 SCT017 FEW020TCU
                        SCT070 13/07 Q1017=
201004030930 METAR LPPR 030930Z 30009KT 270V330 9999 -SHRA SCT017 FEW020TCU
                        SCT025 13/08 Q1017=
201004030900 METAR LPPR 030900Z 32010KT 290V350 9999 SCT017 FEW020TCU
                        SCT025 13/08 Q1017=
201004030830 METAR LPPR 030830Z 31011KT 9999 SCT017 SCT025 12/08 Q1016=
201004030800 METAR LPPR 030800Z 30009KT 260V330 9999 SCT017 SCT025 12/08
                        Q1016=
201004030730 METAR LPPR 030730Z 30009KT 270V330 9999 SCT017 SCT025 BKN070
                        12/08 Q1016=
201004030700 METAR LPPR 030700Z 30008KT 9999 SCT017 SCT040 BKN070 11/08
                        Q1016=
201004030630 METAR LPPR 030630Z 31008KT 9999 SCT015 SCT035 BKN070 11/09
                        Q1015=
201004030600 METAR LPPR 030600Z 28009KT 9999 SCT015 SCT040 BKN070 13/07
                        Q1015=
201004030530 METAR LPPR 030530Z 28008KT 250V310 9999 FEW015 SCT040 BKN070
                        12/09 Q1015=
201004030500 METAR LPPR 030500Z 23006KT 200V260 9999 SCT015 SCT040 BKN070
                        12/09 Q1015=
201004030430 METAR LPPR 030430Z 26007KT 230V290 9999 SCT015 SCT040 BKN070
                        13/09 Q1015=
201004030400 METAR LPPR 030400Z 25007KT 220V280 9999 SCT015 SCT030 BKN080
                        13/10 Q1015=
201004030330 METAR LPPR 030330Z 24007KT 210V270 9999 SCT015 SCT040 BKN080
                        13/09 Q1015=
201004030300 METAR LPPR 030300Z 24006KT 9999 FEW020 BKN040 13/09 Q1015=
201004030230 METAR LPPR 030230Z 25005KT 210V300 9999 FEW019 SCT025 BKN100
                        13/09 Q1016=
201004030200 METAR LPPR 030200Z 25006KT 210V270 9999 FEW019 SCT025 BKN100
                        13/08 Q1016=
201004030130 METAR LPPR 030130Z 25005KT 210V290 9999 FEW019 SCT025 BKN100
                        13/09 Q1017=
201004030100 METAR LPPR 030100Z 26005KT 230V320 9999 FEW019 SCT025 BKN100
                        13/09 Q1017=
201004030030 METAR LPPR 030030Z 26006KT 220V300 9999 FEW019 SCT025 BKN100
                        13/08 Q1017=
201004030000 METAR LPPR 030000Z 26006KT 230V300 9999 FEW013 BKN040 13/09
                        Q1017=
201004022330 METAR LPPR 022330Z 27008KT 240V320 9999 SCT013 BKN040 13/09
                        Q1017=
201004022300 METAR LPPR 022300Z 25007KT 210V280 9999 SCT013 BKN040 13/10
                        Q1017=
201004022230 METAR LPPR 022230Z 21007KT 9999 SCT015 BKN030 13/11 Q1017=
201004022200 METAR LPPR 022200Z 22008KT 9999 FEW015 BKN030 13/10 Q1018=
201004022130 METAR LPPR 022130Z 22008KT 190V250 9999 FEW013 BKN040 13/10
                        Q1018=
201004022100 METAR LPPR 022100Z 22006KT 200V260 9999 FEW013 BKN040 13/10
                        Q1018=
201004022030 METAR LPPR 022030Z 23005KT 200V260 9999 FEW013 BKN040 13/11
                        Q1018=
201004022000 METAR LPPR 022000Z 24006KT 210V280 9999 FEW012 BKN040 13/10
                        Q1018=
201004021930 METAR LPPR 021930Z 23007KT 190V250 9999 FEW013 BKN040 13/11
                        Q1018=
201004021900 METAR LPPR 021900Z 24008KT 210V300 9999 SCT013 BKN040 14/11
                        Q1018=
201004021830 METAR LPPR 021830Z 23008KT 200V260 9999 SCT012 BKN040 14/11
                        Q1018=
201004021800 METAR LPPR 021800Z 24009KT 190V300 9999 SCT012 FEW017TCU
                        SCT040 14/11 Q1018=
201004021730 METAR LPPR 021730Z 24011KT 200V260 9999 FEW013 FEW017TCU
                        SCT040 15/12 Q1018=
201004021700 METAR LPPR 021700Z 23008KT 200V260 9999 SCT012 BKN025 14/11
                        Q1018=
201004021630 METAR LPPR 021630Z 23010KT 190V260 9999 SCT013 FEW017TCU
                        BKN025 14/11 Q1018=
201004021600 METAR LPPR 021600Z 23011KT 210V270 9999 SCT013 FEW017TCU
                        BKN030 14/10 Q1018 WS ALL RWY=
201004021530 METAR LPPR 021530Z 24010KT 200V270 9999 SCT013 OVC030 14/11
                        Q1018=
201004021500 METAR LPPR 021500Z 26011G22KT 220V290 6000 -SHRA FEW007 SCT013
                        BKN030 14/11 Q1019=
201004021430 METAR LPPR 021430Z 24010KT 190V270 8000 -SHRA FEW007 SCT013
                        BKN030 14/11 Q1019=
201004021400 METAR LPPR 021400Z 23009KT 190V270 9999 SCT013 FEW020TCU
                        BKN030 14/11 Q1019=
201004021330 METAR LPPR 021330Z 23011KT 200V260 9999 BKN013 BKN030 15/11
                        Q1019=
201004021300 METAR LPPR 021300Z 23010KT 200V270 9999 SCT017 BKN030 14/10
                        Q1019=
201004021230 METAR LPPR 021230Z 19015KT 9999 SCT017 BKN030 14/11 Q1019=
201004021200 METAR LPPR 021200Z 20014KT 9999 BKN017 BKN035 14/10 Q1020=
201004021130 METAR LPPR 021130Z 20014KT 9999 BKN015 BKN035 14/10 Q1020=
201004021100 METAR LPPR 021100Z 20016KT 9999 SCT015 BKN035 14/10 Q1020=
201004021030 METAR LPPR 021030Z 21012KT 180V240 9999 SCT015 SCT035 14/11
                        Q1020=
201004021000 METAR LPPR 021000Z 21007KT 9999 SCT015 BKN035 13/11 Q1020=
201004020930 METAR LPPR 020930Z 17009KT 9999 SCT013 BKN030 12/10 Q1020=
201004020900 METAR LPPR 020900Z 23005KT 190V270 9999 FEW007 SCT013 BKN025
                        12/11 Q1020=
201004020830 METAR LPPR 020830Z 20004KT 160V250 5000 -SHRA BR SCT007 SCT013
                        BKN020 11/10 Q1020=
201004020800 METAR LPPR 020800Z 18011KT 160V220 9000 -SHRA SCT013 BKN025
                        11/09 Q1020=
201004020730 METAR LPPR 020730Z 17008KT 9000 -SHRA SCT015 BKN025 10/08
                        Q1019=
201004020700 METAR LPPR 020700Z 18010KT 9999 SCT017 SCT025 BKN060 11/07
                        Q1019=
201004020630 METAR LPPR 020630Z 18010KT 9999 SCT017 SCT025 BKN060 10/07
                        Q1019=
201004020600 METAR LPPR 020600Z 17011KT 9999 FEW017 SCT030 BKN060 10/07
                        Q1019=
201004020530 METAR LPPR 020530Z 17010KT 9999 FEW017 BKN027 BKN070 10/07
                        Q1019=
201004020500 METAR LPPR 020500Z 17008KT 9999 FEW020 SCT030 BKN060 10/07
                        Q1019=
201004020430 METAR LPPR 020430Z 16008KT 9999 BKN030 BKN060 10/07 Q1019=
201004020400 METAR LPPR 020400Z 16007KT 9999 SCT020 BKN030 10/07 Q1019=
201004020330 METAR LPPR 020330Z 18007KT 9999 SCT017 SCT030 10/07 Q1019=
201004020300 METAR LPPR 020300Z 21006KT 9999 BKN017 SCT030 11/07 Q1020=
201004020230 METAR LPPR 020230Z 21006KT 9999 SCT017 BKN030 11/07 Q1020=
201004020200 METAR LPPR 020200Z 22006KT 9999 FEW017 SCT030 11/06 Q1020=
201004020130 METAR LPPR 020130Z 22005KT 200V260 9999 FEW017 10/05 Q1021=
201004020100 METAR LPPR 020100Z 22005KT 190V260 9999 FEW017 11/06 Q1021=
201004020030 METAR LPPR 020030Z 23004KT 190V270 9999 FEW017 11/06 Q1021=
201004020000 METAR LPPR 020000Z 24004KT 200V270 9999 SCT017 11/07 Q1021=
201004012330 METAR LPPR 012330Z 20006KT 180V240 9999 FEW017 SCT030 11/08
                        Q1022=
201004012300 METAR LPPR 012300Z VRB03KT 9999 FEW020 SCT030 10/07 Q1022=
201004012230 METAR LPPR 012230Z 21004KT 170V280 9000 -SHRA SCT020 BKN030
                        10/08 Q1022=
201004012200 METAR LPPR 012200Z 23006KT 190V270 8000 -SHRA SCT020 SCT035
                        12/07 Q1022=
201004012130 METAR LPPR 012130Z 21004KT 140V240 9999 SCT020 SCT040 11/06
                        Q1022=
201004012100 METAR LPPR 012100Z VRB03KT 9999 SCT020 11/06 Q1022=
201004012030 METAR LPPR 012030Z VRB03KT 9999 SCT020 11/05 Q1022=
201004012000 METAR LPPR 012000Z VRB02KT 9999 BKN020 11/06 Q1022=
201004011930 METAR LPPR 011930Z 23004KT 200V270 9999 BKN020 12/06 Q1021=
201004011900 METAR LPPR 011900Z 24004G15KT 190V270 9999 SCT025 BKN040
                        12/06 Q1021=
201004011830 METAR LPPR 011830Z VRB03KT 9999 BKN025 12/04 Q1021=
201004011800 METAR LPPR 011800Z 27004KT 230V320 9999 SCT020 13/05 Q1021=
201004011730 METAR LPPR 011730Z 30006KT 260V340 9999 SCT020 13/06 Q1021=
201004011700 METAR LPPR 011700Z 27007KT 230V320 9999 SCT020 13/05 Q1021=
201004011630 METAR LPPR 011630Z 27006G17KT 230V300 9999 SCT020 13/06 Q1021=
201004011600 METAR LPPR 011600Z 30008KT 260V330 9999 SCT020 14/06 Q1021=
201004011530 METAR LPPR 011530Z VRB07KT 9999 SCT020 14/06 Q1021=
201004011500 METAR LPPR 011500Z 29006KT 240V330 9999 SCT020 14/05 Q1022=
201004011430 METAR LPPR 011430Z 25009KT 220V300 9999 SCT020 14/07 Q1022=
201004011400 METAR LPPR 011400Z 26006KT 180V330 9999 BKN020 14/07 Q1022=
201004011330 METAR LPPR 011330Z 26006KT 190V330 9999 BKN020 14/07 Q1022=
201004011300 METAR LPPR 011300Z 25006KT 190V300 9999 BKN020 13/07 Q1022=
201004011230 METAR LPPR 011230Z 25007KT 210V270 9999 SCT020 SCT035 13/06
                        Q1022=
201004011200 METAR LPPR 011200Z 25006KT 200V290 9999 SCT020 FEW025TCU
                        SCT040 13/06 Q1022=
201004011130 METAR LPPR 011130Z 26005KT 9999 SCT020 FEW025TCU SCT040 12/06
                        Q1022=
201004011100 METAR LPPR 011100Z 23005KT 200V270 9999 SCT020 FEW020TCU
                        SCT040 12/06 Q1022=
201004011030 METAR LPPR 011030Z 22005KT 180V260 9999 SCT020 FEW025TCU
                        SCT040 12/07 Q1022=
201004011000 METAR LPPR 011000Z VRB03KT 9999 SCT020 FEW025TCU 13/06 Q1022=
201004010930 METAR LPPR 010930Z 12004KT 080V160 9999 FEW020 FEW025TCU
                        12/06 Q1022=
201004010900 METAR LPPR 010900Z VRB02KT 9999 FEW020 11/06 Q1021=
201004010830 METAR LPPR 010830Z VRB03KT 9999 FEW020 10/08 Q1021=
201004010800 METAR LPPR 010800Z VRB02KT 9999 -SHRA FEW017 SCT035 09/07
                        Q1021=
201004010730 METAR LPPR 010730Z VRB02KT 9999 FEW017 SCT030 08/07 Q1021=
201004010700 METAR LPPR 010700Z VRB02KT 9999 FEW017 SCT030 07/06 Q1021=
201004010630 METAR LPPR 010630Z VRB03KT 9999 -RA FEW017 SCT030 BKN040
                        07/06 Q1021=
201004010600 METAR LPPR 010600Z 34004KT 9999 -RA SCT030 BKN040 07/06 Q1021=
201004010530 METAR LPPR 010530Z 00000KT 9999 SCT030 BKN060 07/06 Q1020=
201004010500 METAR LPPR 010500Z 00000KT 9999 SCT030 BKN070 07/05 Q1020=
201004010430 METAR LPPR 010430Z VRB01KT 9999 FEW030 SCT070 07/05 Q1020=
201004010400 METAR LPPR 010400Z VRB02KT 9999 FEW030 SCT070 08/06 Q1020=
201004010330 METAR LPPR 010330Z VRB03KT 9999 -RADZ SCT030 BKN060 07/06
                        Q1020=
201004010300 METAR LPPR 010300Z 00000KT 9999 SCT035 07/05 Q1020=
201004010230 METAR LPPR 010230Z 08001KT 9999 FEW035 07/05 Q1020=
201004010200 METAR LPPR 010200Z 05002KT 9999 FEW030 SCT060 08/06 Q1020=
201004010130 METAR LPPR 010130Z VRB02KT 9999 SCT030 BKN060 08/07 Q1020=
201004010100 METAR LPPR 010100Z VRB03KT 9999 -RADZ SCT030 BKN060 08/06
                        Q1020=
201004010030 METAR LPPR 010030Z 00000KT 9999 SCT030 08/06 Q1020=
201004010000 METAR LPPR 010000Z 34001KT 9999 SCT030 08/06 Q1020=
