##########################################################
# Query made at 11/07/2014 15:03:31 UTC
# Time interval: from 04/01/2009 00:00  to 05/01/2009 23:59  UTC
##########################################################

##########################################################
# LPPR, Porto / Pedras Rubras (Portugal)
# WMO index: 08545
# Latitude 41-14N. Longitude 008-41W. Altitude 69 m.
##########################################################

###################################
#  METAR/SPECI from LPPR
###################################
200904302330 METAR LPPR 302330Z VRB03KT CAVOK 11/08 Q1024=
200904302300 METAR LPPR 302300Z 02004KT 350V080 CAVOK 11/08 Q1024=
200904302230 METAR LPPR 302230Z 36005KT CAVOK 10/08 Q1024=
200904302200 METAR LPPR 302200Z 35005KT CAVOK 10/08 Q1024=
200904302130 METAR LPPR 302130Z 36004KT CAVOK 11/09 Q1024=
200904302100 METAR LPPR 302100Z 33008KT CAVOK 12/09 Q1024=
200904302030 METAR LPPR 302030Z 33013KT CAVOK 12/09 Q1023=
200904302000 METAR LPPR 302000Z 33013KT CAVOK 13/09 Q1023=
200904301930 METAR LPPR 301930Z 33013KT CAVOK 13/09 Q1023=
200904301900 METAR LPPR 301900Z 33016KT 9999 FEW015 14/09 Q1022=
200904301830 METAR LPPR 301830Z 33014KT 290V350 9999 FEW015 15/08 Q1022=
200904301800 METAR LPPR 301800Z 32013KT 9999 FEW015 15/08 Q1022=
200904301730 METAR LPPR 301730Z 32016KT 9999 FEW015 15/08 Q1022=
200904301700 METAR LPPR 301700Z 32017KT 9999 FEW015 16/09 Q1022 WS ALL
                        RWY=
200904301630 METAR LPPR 301630Z 32016KT 9999 FEW015 16/09 Q1022 WS ALL
                        RWY=
200904301600 METAR LPPR 301600Z 32017KT 9999 FEW015 16/10 Q1021=
200904301530 METAR LPPR 301530Z 32016KT 290V350 9999 FEW015 16/11 Q1021=
200904301500 METAR LPPR 301500Z 32017KT 9999 SCT015 16/11 Q1021=
200904301430 METAR LPPR 301430Z 32016KT 9999 SCT015 16/12 Q1021=
200904301400 METAR LPPR 301400Z 31015KT 280V350 9999 SCT015 16/12 Q1021=
200904301330 METAR LPPR 301330Z 31014KT 9999 SCT015 17/12 Q1021=
200904301300 METAR LPPR 301300Z 31014KT 9999 SCT015 16/12 Q1021=
200904301230 METAR LPPR 301230Z 32013KT 9999 SCT015 16/13 Q1021=
200904301200 METAR LPPR 301200Z 32012KT 280V350 9999 SCT015 17/12 Q1021=
200904301130 METAR LPPR 301130Z 32011KT 9999 BKN013 17/13 Q1021=
200904301100 METAR LPPR 301100Z 32011KT 9999 BKN013 16/13 Q1020=
200904301030 METAR COR LPPR 301030Z 31011KT 280V340 9999 BKN012 15/13
                        Q1020=
200904301000 METAR LPPR 301000Z 31007KT 280V340 9999 FEW006 BKN015 15/14
                        Q1020=
200904300930 METAR LPPR 300930Z 31006KT 270V350 9999 FEW006 SCT013 BKN030
                        14/13 Q1020=
200904300900 METAR LPPR 300900Z 31006KT 270V350 8000 -RA SCT005 SCT012
                        BKN030 13/12 Q1020=
200904300830 METAR LPPR 300830Z 31012KT 9999 SCT003 SCT012 BKN030 15/13
                        Q1019=
200904300800 METAR LPPR 300800Z 24005KT 180V270 9999 SCT007 BKN012 14/14
                        Q1019=
200904300730 METAR LPPR 300730Z 23007KT 9999 SCT007 BKN012 14/14 Q1019=
200904300700 METAR LPPR 300700Z 23008KT 200V270 8000 SCT004 SCT008 BKN015
                        13/13 Q1019=
200904300630 METAR LPPR 300630Z 21006KT 8000 SCT004 SCT008 BKN012 13/13
                        Q1019=
200904300600 METAR LPPR 300600Z 21007KT 180V250 5000 -RA BR SCT003 SCT007
                        BKN012 13/13 Q1018=
200904300530 METAR LPPR 300530Z 21010KT 7000 -RA SCT005 SCT009 BKN015
                        12/12 Q1018=
200904300500 METAR LPPR 300500Z 23010KT 8000 SCT007 SCT012 BKN016 13/12
                        Q1018=
200904300430 METAR LPPR 300430Z 19012KT 9999 SCT006 SCT010 BKN015 14/14
                        Q1018=
200904300400 METAR LPPR 300400Z 18012KT 8000 SCT006 SCT012 SCT016 14/13
                        Q1018=
200904300330 METAR LPPR 300330Z 18011KT 7000 -RA SCT003 SCT007 BKN012
                        14/14 Q1018=
200904300300 METAR LPPR 300300Z 20009KT 6000 -RA SCT001 SCT004 BKN012
                        14/14 Q1019=
200904300230 METAR LPPR 300230Z 19011KT 6000 -RA SCT002 SCT005 BKN013
                        14/14 Q1019=
200904300200 METAR LPPR 300200Z 19011KT 9999 SCT002 BKN009 14/14 Q1019=
200904300130 METAR LPPR 300130Z 19011KT 9999 SCT003 BKN007 BKN013 14/14
                        1019=
200904300100 METAR LPPR 300100Z 18009KT 9999 SCT007 SCT009 BKN020 14/13
                        Q1019=
200904300030 METAR LPPR 300030Z 18009KT 9999 FEW008 SCT015 BKN060 14/13
                        Q1020=
200904300000 METAR LPPR 300000Z 17008KT 9999 SCT013 SCT030 BKN060 13/13
                        Q1020=
200904292330 METAR LPPR 292330Z 17008KT 9999 FEW015 SCT025 BKN060 13/13
                        Q1020=
200904292300 METAR LPPR 292300Z 17008KT 9999 FEW005 SCT015 BKN022 13/13
                        Q1020=
200904292230 METAR LPPR 292230Z 16008KT 9999 SCT003 SCT015 BKN060 13/12
                        Q1020=
200904292200 METAR LPPR 292200Z 19006KT 160V220 9999 FEW002 SCT007 BKN015
                        13/13 Q1020=
200904292130 METAR LPPR 292130Z 24005KT 200V260 8000 SCT008 SCT015 BKN025
                        13/12 Q1020=
200904292100 METAR LPPR 292100Z 18011KT 6000 -DZ SCT005 SCT009 BKN015
                        14/13 Q1020=
200904292030 METAR LPPR 292030Z 17010KT 9999 FEW008 SCT015 BKN025 14/13
                        Q1020=
200904292000 METAR LPPR 292000Z 18009KT 9999 FEW008 SCT015 BKN025 14/12
                        Q1020=
200904291930 METAR LPPR 291930Z 19011KT 160V230 9999 FEW008 SCT015 BKN025
                        14/13 Q1020=
200904291900 METAR LPPR 291900Z 19009KT 9999 FEW008 SCT011 BKN017 15/12
                        Q1020=
200904291830 METAR LPPR 291830Z 20007KT 160V220 9999 FEW008 SCT012 BKN025
                        15/12 Q1020=
200904291800 METAR LPPR 291800Z 19009KT 160V230 9999 FEW008 SCT012 BKN025
                        15/12 Q1020=
200904291730 METAR LPPR 291730Z 21008KT 180V250 9999 SCT012 BKN025 14/12
                        Q1020=
200904291700 METAR LPPR 291700Z 22007KT 9999 SCT013 BKN035 15/12 Q1020=
200904291630 METAR LPPR 291630Z 21009KT 9999 SCT013 BKN040 15/12 Q1020=
200904291600 METAR LPPR 291600Z 21009KT 9999 SCT013 BKN040 15/12 Q1020=
200904291530 METAR LPPR 291530Z 22009KT 190V250 9999 SCT015 BKN040 16/12
                        Q1020=
200904291500 METAR LPPR 291500Z 19008KT 160V230 9999 SCT015 BKN040 16/12
                        Q1020=
200904291430 METAR LPPR 291430Z 21004KT 180V250 9999 SCT015 BKN040 15/12
                        Q1021=
200904291400 METAR LPPR 291400Z 22010KT 9999 SCT015 BKN040 15/13 Q1021=
200904291330 METAR LPPR 291330Z 20009KT 9999 SCT015 BKN040 16/12 Q1021=
200904291300 METAR LPPR 291300Z 20006KT 160V240 9999 SCT017 BKN040 17/11
                        Q1020=
200904291230 METAR LPPR 291230Z 22008KT 190V250 9999 SCT017 BKN040 16/11
                        Q1020=
200904291200 METAR LPPR 291200Z 20007KT 170V230 9999 SCT017 BKN040 16/11
                        Q1020=
200904291130 METAR LPPR 291130Z 22007KT 180V260 9999 SCT017 BKN040 16/12
                        Q1020=
200904291100 METAR LPPR 291100Z 26006KT 9999 SCT015 BKN040 16/11 Q1020=
200904291030 METAR LPPR 291030Z VRB03KT 9999 FEW015 BKN040 16/11 Q1020=
200904291000 METAR LPPR 291000Z VRB03KT 9999 FEW015 BKN040 15/10 Q1020=
200904290930 METAR LPPR 290930Z 19005KT 130V220 9999 FEW015 BKN040 15/12
                        Q1020=
200904290900 METAR LPPR 290900Z 00000KT 9999 FEW015 BKN040 14/11 Q1020=
200904290830 METAR LPPR 290830Z 00000KT 9999 FEW015 BKN030 13/12 Q1020=
200904290800 METAR LPPR 290800Z VRB02KT 9999 FEW007 SCT015 BKN025 12/12
                        Q1020=
200904290730 METAR LPPR 290730Z 28005KT 250V320 6000 -RA SCT005 SCT013
                        BKN030 12/11 Q1020=
200904290700 METAR LPPR 290700Z 00000KT 7000 SCT005 SCT013 BKN035 13/13
                        Q1020=
200904290630 METAR LPPR 290630Z 00000KT 8000 FEW008 SCT017 BKN040 13/12
                        Q1020=
200904290600 METAR LPPR 290600Z 00000KT 8000 FEW008 SCT017 BKN040 12/12
                        Q1020=
200904290530 METAR LPPR 290530Z 00000KT 9999 FEW008 SCT017 BKN060 12/12
                        Q1019=
200904290500 METAR LPPR 290500Z 00000KT 9999 FEW008 SCT017 BKN060 12/12
                        Q1020=
200904290430 METAR LPPR 290430Z 00000KT 9999 FEW008 SCT017 BKN060 12/12
                        Q1020=
200904290400 METAR LPPR 290400Z 00000KT 9999 FEW008 SCT017 BKN060 12/12
                        Q1020=
200904290330 METAR LPPR 290330Z 00000KT 9999 FEW009 SCT017 BKN060 12/12
                        Q1019=
200904290300 METAR LPPR 290300Z 00000KT 9999 SCT008 BKN017 BKN060 12/12
                        Q1019=
200904290230 METAR LPPR 290230Z 00000KT 9999 SCT009 BKN020 BKN060 13/12
                        Q1019=
200904290200 METAR LPPR 290200Z 27004KT 200V320 8000 -RA SCT008 BKN020
                        BKN060 13/12 Q1019=
200904290130 METAR LPPR 290130Z 22004KT 8000 SCT008 BKN020 13/12 Q1020=
200904290100 METAR LPPR 290100Z 22004KT 8000 -RA SCT009 BKN020 13/12 Q1020=
200904290030 METAR LPPR 290030Z 00000KT 9999 SCT009 BKN020 13/12 Q1020=
200904290000 METAR LPPR 290000Z 00000KT 9999 BKN008 BKN020 13/12 Q1020=
200904282330 METAR LPPR 282330Z 00000KT 9999 BKN008 BKN020 13/12 Q1020=
200904282300 METAR LPPR 282300Z 00000KT 9999 BKN007 BKN017 13/12 Q1020=
200904282230 METAR LPPR 282230Z 00000KT 9999 FEW008 SCT017 BKN035 13/12
                        Q1020=
200904282200 METAR LPPR 282200Z 00000KT 9999 FEW008 SCT017 BKN035 13/12
                        Q1020=
200904282130 METAR LPPR 282130Z 00000KT 9999 SCT008 SCT017 BKN035 13/12
                        Q1020=
200904282100 METAR LPPR 282100Z VRB02KT 8000 SCT007 SCT017 BKN035 12/12
                        Q1020=
200904282030 METAR LPPR 282030Z VRB04G14KT 7000 -DZ SCT006 BKN015 13/12
                        Q1020=
200904282000 METAR LPPR 282000Z 00000KT 7000 -DZ SCT006 BKN015 13/12 Q1020=
200904281930 METAR LPPR 281930Z 00000KT 8000 SCT007 SCT013 BKN025 13/12
                        Q1019=
200904281900 METAR LPPR 281900Z VRB03KT 8000 SCT005 SCT013 BKN025 13/12
                        Q1019=
200904281830 METAR LPPR 281830Z VRB03KT 8000 SCT006 SCT015 BKN025 13/12
                        Q1019=
200904281800 METAR LPPR 281800Z 00000KT 4000 -DZ BR SCT006 SCT013 BKN020
                        13/12 Q1019=
200904281730 METAR LPPR 281730Z VRB03KT 8000 -DZ SCT009 SCT015 BKN025
                        13/11 Q1019=
200904281700 METAR LPPR 281700Z 30004KT 230V330 9999 FEW009 SCT015 BKN025
                        14/11 Q1019=
200904281630 METAR LPPR 281630Z 29005G16KT 250V030 9999 FEW009 SCT015
                        BKN025 15/11 Q1019=
200904281600 METAR LPPR 281600Z 31006KT 270V020 9999 FEW009 SCT015 BKN030
                        14/11 Q1019=
200904281530 METAR LPPR 281530Z 29008KT 260V020 9999 FEW009 SCT013 BKN030
                        14/11 Q1019=
200904281500 METAR LPPR 281500Z 28007KT 250V310 9999 SCT009 SCT013 BKN030
                        14/12 Q1019=
200904281430 METAR LPPR 281430Z 28006KT 250V310 9999 SCT009 SCT015 BKN030
                        14/12 Q1019=
200904281400 METAR LPPR 281400Z 28009KT 250V320 9999 FEW009 SCT012 BKN030
                        14/11 Q1019=
200904281330 METAR LPPR 281330Z 28010KT 250V320 9999 SCT012 BKN030 15/11
                        Q1019=
200904281300 METAR LPPR 281300Z 28009KT 250V320 9999 SCT015 BKN040 15/12
                        Q1019=
200904281230 METAR LPPR 281230Z 30007KT 260V330 9999 FEW015 BKN040 15/10
                        Q1019=
200904281200 METAR LPPR 281200Z 29007KT 260V320 9999 FEW015 BKN035 14/10
                        Q1019=
200904281130 METAR LPPR 281130Z 28007KT 250V320 9999 FEW015 BKN030 14/10
                        Q1019=
200904281100 METAR LPPR 281100Z 30007KT 270V330 9999 FEW015 BKN035 14/10
                        Q1019=
200904281030 METAR LPPR 281030Z 31007KT 260V340 9999 FEW015 BKN040 15/10
                        Q1019=
200904281000 METAR LPPR 281000Z 31008KT 270V330 9999 FEW015 BKN040 14/10
                        Q1018=
200904280930 METAR LPPR 280930Z 31009KT 260V330 9999 SCT015 BKN030 15/10
                        Q1018=
200904280900 METAR LPPR 280900Z 32006KT 280V360 9999 FEW015 SCT025 14/10
                        Q1018=
200904280830 METAR LPPR 280830Z 34007KT 310V010 9999 FEW015 BKN045 14/10
                        Q1018=
200904280800 METAR LPPR 280800Z 33008KT 290V350 9999 FEW013 BKN040 13/10
                        Q1018=
200904280730 METAR LPPR 280730Z 33005KT 9999 FEW013 BKN040 13/10 Q1018=
200904280700 METAR LPPR 280700Z 33007KT 9999 FEW013 BKN040 12/10 Q1017=
200904280630 METAR LPPR 280630Z 34004KT 9999 FEW013 BKN040 12/10 Q1017=
200904280600 METAR LPPR 280600Z 34003KT 9999 FEW013 BKN040 11/10 Q1017=
200904280530 METAR LPPR 280530Z 00000KT 9999 FEW013 BKN040 11/10 Q1017=
200904280500 METAR LPPR 280500Z 32003KT 9999 SCT007 BKN040 11/10 Q1017=
200904280430 METAR LPPR 280430Z 32004KT 9999 SCT007 BKN030 11/10 Q1017=
200904280400 METAR LPPR 280400Z 35003KT 8000 SCT007 BKN020 11/10 Q1016=
200904280330 METAR LPPR 280330Z 33012KT 7000 -RA BKN007 BKN011 12/11 Q1016=
200904280300 METAR LPPR 280300Z 31005KT 290V350 9000 SCT007 SCT009 BKN013
                        12/12 Q1016=
200904280230 METAR LPPR 280230Z 32006KT 7000 -DZ SCT007 BKN009 12/11 Q1016=
200904280200 METAR LPPR 280200Z 30009KT 260V340 5000 -RADZ BR SCT005 BKN009
                        13/11 Q1016=
200904280130 METAR LPPR 280130Z VRB03KT 9999 SCT012 SCT040 BKN060 13/12
                        Q1016=
200904280100 METAR LPPR 280100Z 00000KT 9999 FEW009 SCT017 BKN060 12/11
                        Q1017=
200904280030 METAR LPPR 280030Z VRB02KT 9999 FEW009 SCT017 BKN060 12/11
                        Q1017=
200904280000 METAR LPPR 280000Z 31003KT 9000 FEW009 SCT017 BKN060 12/11
                        Q1017=
200904272330 METAR LPPR 272330Z 31004KT 9000 SCT009 BKN017 11/11 Q1017=
200904272300 METAR LPPR 272300Z 32007KT 7000 -DZ SCT004 SCT006 BKN017
                        11/11 Q1017 RERA=
200904272230 METAR LPPR 272230Z 33008KT 2500 DZ BR SCT002 BKN004 12/11
                        Q1017=
200904272200 METAR LPPR 272200Z 31006KT 9999 FEW009 BKN020 13/11 Q1017=
200904272130 METAR LPPR 272130Z 31007KT 270V330 9999 FEW009 SCT012 BKN040
                        13/11 Q1017=
200904272100 METAR LPPR 272100Z VRB03KT 9999 SCT009 BKN012 12/12 Q1017=
200904272030 METAR LPPR 272030Z 30005KT 260V320 8000 BKN007 BKN017 12/12
                        Q1016=
200904272000 METAR LPPR 272000Z 31009KT 270V330 3000 -RADZ BR BKN002 BKN005
                        12/12 Q1016=
200904271930 METAR LPPR 271930Z 31003KT 5000 -DZ SCT006 SCT011 BKN017
                        13/12 Q1016=
200904271900 METAR LPPR 271900Z 31010KT 8000 -RADZ FEW007 SCT015 BKN025
                        13/12 Q1016=
200904271830 METAR LPPR 271830Z 28007KT 240V320 9999 FEW006 SCT015 BKN025
                        14/12 Q1016=
200904271800 METAR LPPR 271800Z VRB03KT 9999 -SHRA FEW006 SCT015 BKN020
                        14/12 Q1016=
200904271730 METAR LPPR 271730Z 28005KT 260V330 9999 FEW006 SCT013 BKN017
                        14/12 Q1016=
200904271700 METAR LPPR 271700Z 31005KT 260V350 9999 FEW006 SCT015 BKN030
                        13/12 Q1016=
200904271630 METAR LPPR 271630Z 28010KT 7000 -SHRA FEW006 SCT015 BKN025
                        14/12 Q1016=
200904271600 METAR LPPR 271600Z 23009KT 9999 FEW006 FEW015 BKN020 15/12
                        Q1016=
200904271530 METAR LPPR 271530Z 24009KT 210V270 9999 FEW006 SCT015 BKN020
                        15/11 Q1016=
200904271500 METAR LPPR 271500Z 24010KT 9999 FEW006 SCT015 BKN035 15/11
                        Q1017=
200904271430 METAR LPPR 271430Z 24009KT 210V280 9999 FEW006 SCT015 BKN035
                        15/11 Q1017=
200904271400 METAR LPPR 271400Z 25009KT 210V290 9999 FEW006 SCT015 BKN040
                        16/11 Q1017=
200904271330 METAR LPPR 271330Z 23010KT 180V250 9999 FEW006 SCT015 BKN070
                        17/12 Q1017=
200904271300 METAR LPPR 271300Z 25010KT 210V290 9999 FEW006 BKN015 16/12
                        Q1017=
200904271230 METAR LPPR 271230Z 24009KT 200V310 9999 FEW006 BKN015 16/11
                        Q1018=
200904271200 METAR LPPR 271200Z 27008KT 220V320 9999 FEW006 SCT015 15/11
                        Q1018=
200904271130 METAR LPPR 271130Z 24008KT 190V260 9999 SCT015 16/12 Q1018=
200904271100 METAR LPPR 271100Z 25007KT 200V300 9999 FEW005 SCT015 15/12
                        Q1018=
200904271030 METAR LPPR 271030Z 20007KT 160V220 9999 SCT005 SCT015 BKN020
                        15/12 Q1018=
200904271000 METAR LPPR 271000Z 19009KT 9999 SCT005 SCT015 BKN020 14/12
                        Q1018=
200904270930 METAR LPPR 270930Z 20007KT 9999 SCT005 SCT013 BKN017 14/12
                        Q1018=
200904270900 METAR LPPR 270900Z 18007KT 9999 SCT005 SCT013 13/12 Q1018=
200904270830 METAR LPPR 270830Z 17005KT 9999 BKN005 SCT013 13/12 Q1018=
200904270800 METAR LPPR 270800Z 15005KT 110V180 9999 FEW008 SCT015 12/12
                        Q1018=
200904270730 METAR LPPR 270730Z VRB03KT 8000 -SHRA FEW003 SCT008 BKN013
                        11/11 Q1018=
200904270700 METAR LPPR 270700Z 00000KT 8000 -SHRA SCT008 BKN013 11/10
                        Q1018=
200904270630 METAR LPPR 270630Z 14005KT 9999 -SHRA SCT008 BKN015 11/10
                        Q1018=
200904270600 METAR LPPR 270600Z 13004KT 9999 SCT008 BKN016 11/10 Q1018=
200904270530 METAR LPPR 270530Z 14004KT 9999 SCT003 BKN014 11/09 Q1018=
200904270500 METAR LPPR 270500Z VRB03KT 8000 -DZ SCT007 BKN014 11/09 Q1018=
200904270430 METAR LPPR 270430Z 12003KT 9999 FEW015 BKN020 11/08 Q1018=
200904270400 METAR LPPR 270400Z 11003KT 9999 FEW015 BKN020 11/08 Q1018=
200904270330 METAR LPPR 270330Z 00000KT 9999 FEW015 BKN025 11/08 Q1018=
200904270300 METAR LPPR 270300Z 00000KT 9999 SCT015 BKN030 11/08 Q1018=
200904270230 METAR LPPR 270230Z 00000KT 9999 FEW015 SCT030 BKN250 10/08
                        Q1019=
200904270200 METAR LPPR 270200Z 00000KT 9999 FEW017 SCT040 BKN250 10/08
                        Q1019=
200904270130 METAR LPPR 270130Z 00000KT 9999 FEW017 SCT040 BKN250 09/07
                        Q1019=
200904270100 METAR LPPR 270100Z 34002KT 9999 FEW017 BKN250 09/07 Q1019=
200904270030 METAR LPPR 270030Z 00000KT 9999 FEW017 BKN250 09/07 Q1019=
200904270000 METAR LPPR 270000Z 34002KT 9999 FEW017 BKN250 09/07 Q1019=
200904262330 METAR LPPR 262330Z 35002KT 9999 FEW020 BKN250 10/07 Q1019=
200904262300 METAR LPPR 262300Z 00000KT 9999 FEW020 SCT090 BKN250 10/07
                        Q1020=
200904262230 METAR LPPR 262230Z 00000KT 9999 FEW020 11/07 Q1020=
200904262200 METAR LPPR 262200Z 00000KT 9999 FEW020 10/07 Q1020=
200904262130 METAR LPPR 262130Z 34005KT 9999 FEW020 10/07 Q1020=
200904262100 METAR LPPR 262100Z 33009KT 9999 FEW020 11/07 Q1019=
200904262030 METAR LPPR 262030Z 33009KT 9999 FEW020 11/07 Q1019=
200904262000 METAR LPPR 262000Z 33008KT 9999 FEW020 12/07 Q1019=
200904261930 METAR LPPR 261930Z 33009KT 9999 FEW020 12/07 Q1018=
200904261900 METAR LPPR 261900Z 33013KT 9999 FEW020 13/08 Q1018 WS ALL
                        RWY=
200904261830 METAR LPPR 261830Z 33016G26KT 9999 FEW020 14/07 Q1018 WS
                        ALL RWY=
200904261800 METAR LPPR 261800Z 32018KT 9999 FEW020 14/07 Q1018 WS ALL
                        RWY=
200904261730 METAR LPPR 261730Z 32017KT 9999 FEW020 SCT030 15/08 Q1018=
200904261700 METAR LPPR 261700Z 32017KT 9999 FEW020 15/08 Q1018=
200904261630 METAR LPPR 261630Z 32019KT 9999 FEW020 15/07 Q1018 WS ALL
                        RWY=
200904261600 METAR LPPR 261600Z 32022G32KT 9999 FEW020 15/07 Q1018 WS
                        ALL RWY=
200904261530 METAR LPPR 261530Z 32020KT 9999 SCT020 15/07 Q1017 WS ALL
                        RWY=
200904261500 METAR LPPR 261500Z 32023KT 290V350 9999 SCT020 15/08 Q1017
                        WS ALL RWY=
200904261430 METAR LPPR 261430Z 32020G30KT 9999 SCT020 15/08 Q1017 WS
                        ALL RWY=
200904261400 METAR LPPR 261400Z 32021KT 290V350 9999 SCT020 15/08 Q1017
                        WS ALL RWY=
200904261330 METAR LPPR 261330Z 33020KT 9999 FEW020 15/07 Q1017 WS ALL
                        RWY=
200904261300 METAR LPPR 261300Z 32018KT 290V350 9999 FEW017 15/07 Q1017=
200904261230 METAR LPPR 261230Z 31017KT 9999 FEW017 15/07 Q1017=
200904261200 METAR LPPR 261200Z 32017KT 9999 FEW017 15/07 Q1017=
200904261130 METAR LPPR 261130Z 32017KT 9999 FEW017 15/07 Q1017=
200904261100 METAR LPPR 261100Z 33013KT 290V350 9999 FEW017 15/07 Q1017=
200904261030 METAR LPPR 261030Z 36012G22KT 300V050 9999 FEW017 15/05 Q1017=
200904261000 METAR LPPR 261000Z 35012G22KT 330V030 9999 FEW017 14/05 Q1017=
200904260930 METAR LPPR 260930Z 35011KT 320V040 9999 FEW017 13/05 Q1017=
200904260900 METAR LPPR 260900Z 34012KT 9999 FEW017 12/06 Q1017=
200904260830 METAR LPPR 260830Z 35009KT 9999 FEW017 11/06 Q1017=
200904260800 METAR LPPR 260800Z 33006KT 310V010 9999 FEW017 10/06 Q1016=
200904260730 METAR LPPR 260730Z 34005KT 300V360 9999 FEW017 09/06 Q1016=
200904260700 METAR LPPR 260700Z 35004KT 320V020 9999 FEW017 07/05 Q1016=
200904260630 METAR LPPR 260630Z 00000KT 9999 FEW017 06/04 Q1015=
200904260600 METAR LPPR 260600Z 35003KT 9999 FEW017 05/03 Q1015=
200904260530 METAR LPPR 260530Z 02004KT CAVOK 06/04 Q1015=
200904260500 METAR LPPR 260500Z 02004KT CAVOK 06/04 Q1014=
200904260430 METAR LPPR 260430Z 34003KT CAVOK 05/04 Q1014=
200904260400 METAR LPPR 260400Z 36002KT CAVOK 06/04 Q1014=
200904260330 METAR LPPR 260330Z 35003KT CAVOK 06/04 Q1014=
200904260300 METAR LPPR 260300Z VRB02KT CAVOK 06/04 Q1014=
200904260230 METAR LPPR 260230Z 35003KT CAVOK 06/04 Q1014=
200904260200 METAR LPPR 260200Z 01004KT 340V040 9999 FEW020 07/05 Q1014=
200904260130 METAR LPPR 260130Z 34002KT 9999 FEW020 06/05 Q1014=
200904260100 METAR LPPR 260100Z 00000KT CAVOK 07/05 Q1014=
200904260030 METAR LPPR 260030Z 00000KT 9999 FEW020 07/05 Q1014=
200904260000 METAR LPPR 260000Z 33002KT 9999 FEW020 SCT200 08/05 Q1014=
200904252330 METAR LPPR 252330Z 00000KT 9999 FEW020 SCT045 08/06 Q1014=
200904252300 METAR LPPR 252300Z 35002KT 9999 FEW020 SCT045 08/06 Q1014=
200904252230 METAR LPPR 252230Z 00000KT 9999 FEW020 SCT200 09/06 Q1014=
200904252200 METAR LPPR 252200Z 00000KT 9999 FEW020 BKN200 09/06 Q1014=
200904252130 METAR LPPR 252130Z VRB02KT 9999 FEW020 BKN250 10/06 Q1014=
200904252100 METAR LPPR 252100Z 00000KT 9999 FEW020 BKN250 10/06 Q1014=
200904252030 METAR LPPR 252030Z 00000KT 9999 FEW020 BKN250 10/06 Q1014=
200904252000 METAR LPPR 252000Z VRB02KT 9999 FEW020 BKN250 10/06 Q1013=
200904251930 METAR LPPR 251930Z 32005KT 9999 FEW020 BKN250 11/06 Q1013=
200904251900 METAR LPPR 251900Z 32007KT 9999 FEW020 BKN250 12/06 Q1013=
200904251830 METAR LPPR 251830Z 32009KT 290V350 9999 FEW020 BKN250 13/06
                        Q1013=
200904251800 METAR LPPR 251800Z 31008KT 270V340 9999 FEW020 BKN250 13/06
                        Q1013=
200904251730 METAR LPPR 251730Z 32007KT 9999 FEW020 SCT040 BKN250 12/06
                        Q1014=
200904251700 METAR LPPR 251700Z 30010KT 270V340 9999 FEW020 SCT040 BKN250
                        13/07 Q1013=
200904251630 METAR LPPR 251630Z 31011KT 9999 FEW020 BKN250 14/07 Q1013=
200904251600 METAR LPPR 251600Z 28010KT 260V320 9999 FEW020 BKN250 14/06
                        Q1013=
200904251530 METAR LPPR 251530Z 30010KT 250V340 9999 FEW020 BKN250 14/06
                        Q1013=
200904251500 METAR LPPR 251500Z 30011KT 260V330 9999 FEW020 BKN250 14/06
                        Q1014=
200904251430 METAR LPPR 251430Z 29010KT 250V340 9999 FEW020 BKN060 13/06
                        Q1014=
200904251400 METAR LPPR 251400Z 29010KT 260V320 9999 FEW020 BKN070 14/08
                        Q1014=
200904251330 METAR LPPR 251330Z 29008KT 260V360 9999 SCT020 14/08 Q1014=
200904251300 METAR LPPR 251300Z 30010KT 240V330 9999 SCT020 BKN250 14/08
                        Q1014=
200904251230 METAR LPPR 251230Z 28010KT 230V330 9999 FEW020 BKN250 14/07
                        Q1014=
200904251200 METAR LPPR 251200Z 29010KT 260V330 9999 FEW020 BKN250 14/07
                        Q1014=
200904251130 METAR LPPR 251130Z 32011KT 9999 FEW020 BKN250 14/05 Q1014=
200904251100 METAR LPPR 251100Z 32010KT 270V340 9999 FEW020 SCT250 14/05
                        Q1014=
200904251030 METAR LPPR 251030Z 30010KT 270V350 9999 FEW020 SCT250 14/06
                        Q1015=
200904251000 METAR LPPR 251000Z 31011G22KT 270V340 9999 FEW020 SCT250
                        13/06 Q1015=
200904250930 METAR LPPR 250930Z 32011KT 280V350 9999 FEW020 SCT070 13/05
                        Q1015=
200904250900 METAR LPPR 250900Z 34011KT 300V010 9999 FEW020 SCT070 13/06
                        Q1015=
200904250830 METAR LPPR 250830Z 34008KT 310V010 9999 FEW020 SCT070 13/06
                        Q1015=
200904250800 METAR LPPR 250800Z 33008KT 300V360 9999 FEW020 SCT070 12/07
                        Q1015=
200904250730 METAR LPPR 250730Z VRB03KT 9999 FEW020 SCT040 BKN070 10/08
                        Q1015=
200904250700 METAR LPPR 250700Z 00000KT 9999 FEW020 09/07 Q1015=
200904250630 METAR LPPR 250630Z 03003KT 9999 FEW020 06/05 Q1014=
200904250600 METAR LPPR 250600Z 00000KT 9999 FEW035 06/05 Q1014=
200904250530 METAR LPPR 250530Z 00000KT 9999 FEW020 SCT090 06/05 Q1014=
200904250500 METAR LPPR 250500Z 00000KT CAVOK 06/05 Q1014=
200904250430 METAR LPPR 250430Z 00000KT CAVOK 06/05 Q1014=
200904250400 METAR LPPR 250400Z 00000KT CAVOK 06/05 Q1014=
200904250330 METAR LPPR 250330Z 35002KT CAVOK 07/05 Q1014=
200904250300 METAR LPPR 250300Z 35003KT CAVOK 07/05 Q1015=
200904250230 METAR LPPR 250230Z 36003KT 9999 FEW020 07/05 Q1015=
200904250200 METAR LPPR 250200Z 35002KT 9999 FEW020 07/05 Q1015=
200904250130 METAR LPPR 250130Z 34003KT CAVOK 07/05 Q1015=
200904250100 METAR LPPR 250100Z VRB03KT CAVOK 08/06 Q1015=
200904250030 METAR LPPR 250030Z 35004KT CAVOK 08/06 Q1015=
200904250000 METAR LPPR 250000Z VRB03KT CAVOK 09/06 Q1015=
200904242330 METAR LPPR 242330Z 35007KT CAVOK 09/06 Q1015=
200904242300 METAR LPPR 242300Z 34008KT 9999 FEW017 09/06 Q1016=
200904242230 METAR LPPR 242230Z 34007KT 9999 FEW017 10/07 Q1016=
200904242200 METAR LPPR 242200Z 35008KT 9999 FEW017 10/07 Q1016=
200904242130 METAR LPPR 242130Z 35007KT 9999 FEW017 10/07 Q1016=
200904242100 METAR LPPR 242100Z 34010KT 9999 FEW017 11/07 Q1016=
200904242030 METAR LPPR 242030Z 33011KT 9999 FEW017 11/07 Q1016=
200904242000 METAR LPPR 242000Z 33013KT 9999 FEW017 12/06 Q1016=
200904241930 METAR LPPR 241930Z 33013KT 9999 FEW017 12/06 Q1016=
200904241900 METAR LPPR 241900Z 33016KT 9999 FEW017 13/07 Q1015=
200904241830 METAR LPPR 241830Z 33015KT 9999 FEW017 14/07 Q1015=
200904241800 METAR LPPR 241800Z 32015KT 9999 SCT017 14/07 Q1015 WS ALL
                        RWY=
200904241730 METAR LPPR 241730Z 32017KT 9999 SCT017 15/08 Q1015 WS ALL
                        RWY=
200904241700 METAR LPPR 241700Z 32017KT 9999 SCT017 15/08 Q1015 WS ALL
                        RWY=
200904241630 METAR LPPR 241630Z 32015KT 290V350 9999 SCT017 15/08 Q1015
                        WS ALL RWY=
200904241600 METAR LPPR 241600Z 32017KT 9999 SCT017 15/08 Q1016=
200904241530 METAR LPPR 241530Z 32016KT 9999 SCT017 SCT040 16/07 Q1016
                        WS ALL RWY=
200904241500 METAR LPPR 241500Z 32016G27KT 9999 FEW017 BKN035 15/09 Q1016
                        WS ALL RWY=
200904241430 METAR LPPR 241430Z 33015KT 9999 FEW017 BKN035 16/08 Q1016=
200904241400 METAR LPPR 241400Z 34017KT 9999 FEW017 BKN035 16/09 Q1017=
200904241330 METAR LPPR 241330Z 33015KT 9999 FEW017 BKN030 15/08 Q1017=
200904241300 METAR LPPR 241300Z 33014KT 9999 SCT017 BKN025 14/09 Q1017=
200904241230 METAR LPPR 241230Z 33017KT 9999 FEW007 BKN016 13/10 Q1017=
200904241200 METAR LPPR 241200Z 32014KT 290V350 9999 SCT007 BKN012 14/11
                        Q1017=
200904241130 METAR LPPR 241130Z 33014KT 9999 SCT006 BKN012 13/12 Q1017=
200904241100 METAR LPPR 241100Z 29010KT 260V340 4000 -DZRA BR SCT008 BKN012
                        15/11 Q1017=
200904241030 METAR LPPR 241030Z 30008KT 250V350 9999 FEW015 BKN025 15/11
                        Q1017=
200904241000 METAR LPPR 241000Z 31008KT 270V330 9999 FEW015 BKN025 15/11
                        Q1017=
200904240930 METAR LPPR 240930Z 32004KT 260V010 9999 BKN025 SCT060 16/11
                        Q1017=
200904240900 METAR LPPR 240900Z VRB03KT 9999 BKN025 SCT060 15/10 Q1017=
200904240830 METAR LPPR 240830Z 00000KT CAVOK 15/11 Q1017=
200904240800 METAR LPPR 240800Z VRB02KT CAVOK 13/10 Q1017=
200904240730 METAR LPPR 240730Z 33003KT 8000 FEW070 SCT250 12/11 Q1017=
200904240700 METAR LPPR 240700Z VRB02KT 8000 SCT250 12/11 Q1016=
200904240630 METAR LPPR 240630Z 00000KT 7000 SCT250 10/10 Q1016=
200904240600 METAR LPPR 240600Z 33003KT 8000 FEW008 10/09 Q1016=
200904240530 METAR LPPR 240530Z VRB03KT 7000 FEW008 10/10 Q1016=
200904240500 METAR LPPR 240500Z 00000KT 6000 SCT008 10/09 Q1016=
200904240430 METAR LPPR 240430Z 00000KT 8000 SCT008 11/10 Q1016=
200904240400 METAR LPPR 240400Z 00000KT 7000 SCT007 SCT015 12/11 Q1016=
200904240330 METAR LPPR 240330Z 00000KT 6000 SCT007 BKN012 12/11 Q1016=
200904240300 METAR LPPR 240300Z 00000KT 4000 BR SCT007 BKN009 12/11 Q1016=
200904240230 METAR LPPR 240230Z 00000KT 5000 BR SCT007 SCT009 11/11 Q1016=
200904240200 METAR LPPR 240200Z 00000KT 5000 BR SCT007 SCT009 11/10 Q1016=
200904240130 METAR LPPR 240130Z 34003KT 5000 BR SCT007 12/11 Q1017=
200904240100 METAR LPPR 240100Z 33005KT 4000 BR SCT005 BKN007 13/12 Q1017=
200904240030 METAR LPPR 240030Z 33005KT 4000 BR SCT004 BKN006 12/12 Q1017=
200904240000 METAR LPPR 240000Z 33005KT 5000 BR SCT006 13/12 Q1017=
200904232330 METAR LPPR 232330Z 32006KT 5000 BR BKN005 13/12 Q1017=
200904232300 METAR LPPR 232300Z 32007KT 5000 BR BKN005 13/13 Q1017=
200904232230 METAR LPPR 232230Z 32004KT 5000 BR SCT002 BKN005 13/13 Q1017=
200904232200 METAR LPPR 232200Z 32003KT 8000 FEW250 12/11 Q1017=
200904232130 METAR LPPR 232130Z 00000KT CAVOK 13/12 Q1017=
200904232100 METAR LPPR 232100Z 00000KT CAVOK 14/12 Q1017=
200904232030 METAR LPPR 232030Z VRB02KT CAVOK 14/12 Q1017=
200904232000 METAR LPPR 232000Z VRB03KT CAVOK 16/12 Q1017=
200904231930 METAR LPPR 231930Z 00000KT CAVOK 17/14 Q1017=
200904231900 METAR LPPR 231900Z 33003KT CAVOK 18/13 Q1017=
200904231830 METAR LPPR 231830Z 31003KT CAVOK 19/11 Q1017=
200904231800 METAR LPPR 231800Z 32007KT 290V350 CAVOK 20/11 Q1017=
200904231730 METAR LPPR 231730Z 32007KT CAVOK 20/11 Q1017=
200904231700 METAR LPPR 231700Z 32007KT 290V350 CAVOK 20/11 Q1017=
200904231630 METAR LPPR 231630Z 32008KT CAVOK 20/10 Q1017=
200904231600 METAR LPPR 231600Z 27006KT CAVOK 21/09 Q1017=
200904231530 METAR LPPR 231530Z VRB06G16KT CAVOK 21/10 Q1018=
200904231500 METAR LPPR 231500Z 28005KT 260V320 CAVOK 22/10 Q1018=
200904231430 METAR LPPR 231430Z 28004KT 210V340 CAVOK 22/11 Q1018=
200904231400 METAR LPPR 231400Z 27005KT 210V320 CAVOK 22/09 Q1018=
200904231330 METAR LPPR 231330Z 26005KT 230V290 CAVOK 22/10 Q1019=
200904231300 METAR LPPR 231300Z 27004KT 240V300 CAVOK 21/10 Q1019=
200904231230 METAR LPPR 231230Z 25005KT 210V270 CAVOK 21/12 Q1019=
200904231200 METAR LPPR 231200Z 24004KT 160V290 CAVOK 22/14 Q1019=
200904231130 METAR LPPR 231130Z 23006KT 190V260 CAVOK 22/11 Q1019=
200904231100 METAR LPPR 231100Z 26005KT 220V300 CAVOK 23/13 Q1019=
200904231030 METAR LPPR 231030Z 16005KT 110V200 CAVOK 24/09 Q1019=
200904231000 METAR LPPR 231000Z 12005KT 090V160 CAVOK 23/09 Q1019=
200904230930 METAR LPPR 230930Z 12006KT 100V160 CAVOK 22/10 Q1019=
200904230900 METAR LPPR 230900Z 12007KT CAVOK 21/10 Q1019=
200904230830 METAR LPPR 230830Z 10006KT 080V140 CAVOK 18/11 Q1019=
200904230800 METAR LPPR 230800Z VRB03KT CAVOK 17/11 Q1019=
200904230730 METAR LPPR 230730Z VRB02KT CAVOK 16/10 Q1020=
200904230700 METAR LPPR 230700Z 00000KT CAVOK 14/10 Q1020=
200904230630 METAR LPPR 230630Z VRB02KT CAVOK 11/09 Q1019=
200904230600 METAR LPPR 230600Z 00000KT CAVOK 10/07 Q1019=
200904230530 METAR LPPR 230530Z VRB03KT CAVOK 12/08 Q1019=
200904230500 METAR LPPR 230500Z 07004KT 020V090 CAVOK 12/09 Q1019=
200904230430 METAR LPPR 230430Z 00000KT CAVOK 11/08 Q1019=
200904230400 METAR LPPR 230400Z 04003KT CAVOK 12/08 Q1019=
200904230330 METAR LPPR 230330Z VRB03KT CAVOK 13/09 Q1019=
200904230300 METAR LPPR 230300Z VRB03KT CAVOK 13/08 Q1019=
200904230230 METAR LPPR 230230Z 09006KT CAVOK 14/08 Q1020=
200904230200 METAR LPPR 230200Z 09006KT CAVOK 12/08 Q1020=
200904230130 METAR LPPR 230130Z VRB02KT CAVOK 11/08 Q1020=
200904230100 METAR LPPR 230100Z 00000KT CAVOK 11/09 Q1020=
200904230030 METAR LPPR 230030Z 00000KT CAVOK 11/08 Q1021=
200904230000 METAR LPPR 230000Z 00000KT CAVOK 11/08 Q1021=
200904222330 METAR LPPR 222330Z 00000KT CAVOK 11/09 Q1021=
200904222300 METAR LPPR 222300Z 00000KT CAVOK 12/09 Q1021=
200904222230 METAR LPPR 222230Z 00000KT CAVOK 13/09 Q1021=
200904222200 METAR LPPR 222200Z 00000KT CAVOK 13/09 Q1021=
200904222130 METAR LPPR 222130Z 00000KT CAVOK 14/09 Q1021=
200904222100 METAR LPPR 222100Z 33003KT CAVOK 14/09 Q1021=
200904222030 METAR LPPR 222030Z 33005KT CAVOK 14/09 Q1021=
200904222000 METAR LPPR 222000Z 35006KT CAVOK 15/09 Q1021=
200904221930 METAR LPPR 221930Z 34006KT CAVOK 16/09 Q1021=
200904221900 METAR LPPR 221900Z 34007KT CAVOK 17/09 Q1021=
200904221830 METAR LPPR 221830Z 34010KT CAVOK 18/09 Q1021=
200904221800 METAR LPPR 221800Z 34009KT CAVOK 19/09 Q1021=
200904221730 METAR LPPR 221730Z 32010KT CAVOK 20/10 Q1021=
200904221700 METAR LPPR 221700Z 32009KT CAVOK 22/10 Q1021=
200904221630 METAR LPPR 221630Z 32009KT 290V350 CAVOK 21/11 Q1021=
200904221600 METAR LPPR 221600Z 31010KT CAVOK 21/11 Q1021=
200904221530 METAR LPPR 221530Z 32008KT 280V340 CAVOK 20/12 Q1021=
200904221500 METAR LPPR 221500Z 31009KT 280V030 CAVOK 20/13 Q1022=
200904221430 METAR LPPR 221430Z 30011KT CAVOK 19/12 Q1022=
200904221400 METAR LPPR 221400Z 31008KT CAVOK 19/14 Q1022=
200904221330 METAR LPPR 221330Z 28007KT 260V320 CAVOK 19/14 Q1022=
200904221300 METAR LPPR 221300Z 28008KT CAVOK 19/14 Q1023=
200904221230 METAR LPPR 221230Z 28005KT 240V310 CAVOK 21/13 Q1023=
200904221200 METAR LPPR 221200Z 27004KT 240V320 CAVOK 20/13 Q1023=
200904221130 METAR LPPR 221130Z 27005KT 210V300 CAVOK 19/12 Q1023=
200904221100 METAR LPPR 221100Z 25008KT CAVOK 20/12 Q1023=
200904221030 METAR LPPR 221030Z VRB03KT CAVOK 22/09 Q1023=
200904221000 METAR LPPR 221000Z VRB03KT CAVOK 21/09 Q1024=
200904220930 METAR LPPR 220930Z 09004KT 040V150 CAVOK 20/09 Q1023=
200904220900 METAR LPPR 220900Z VRB03KT CAVOK 19/10 Q1024=
200904220830 METAR LPPR 220830Z VRB03KT CAVOK 18/10 Q1024=
200904220800 METAR LPPR 220800Z VRB03KT CAVOK 16/10 Q1024=
200904220730 METAR LPPR 220730Z 00000KT CAVOK 14/09 Q1024=
200904220700 METAR LPPR 220700Z 10004KT CAVOK 12/09 Q1024=
200904220630 METAR LPPR 220630Z 00000KT CAVOK 10/08 Q1023=
200904220600 METAR LPPR 220600Z VRB03KT CAVOK 10/07 Q1023=
200904220530 METAR LPPR 220530Z VRB03KT CAVOK 10/08 Q1023=
200904220500 METAR LPPR 220500Z 00000KT CAVOK 10/07 Q1023=
200904220430 METAR LPPR 220430Z 00000KT CAVOK 11/07 Q1023=
200904220400 METAR LPPR 220400Z 11005KT CAVOK 11/07 Q1023=
200904220330 METAR LPPR 220330Z 00000KT CAVOK 09/07 Q1023=
200904220300 METAR LPPR 220300Z 00000KT CAVOK 09/07 Q1023=
200904220230 METAR LPPR 220230Z 00000KT CAVOK 09/07 Q1023=
200904220200 METAR LPPR 220200Z 00000KT CAVOK 09/07 Q1023=
200904220130 METAR LPPR 220130Z 00000KT CAVOK 09/07 Q1024=
200904220100 METAR LPPR 220100Z 00000KT CAVOK 09/07 Q1024=
200904220030 METAR LPPR 220030Z 00000KT CAVOK 10/08 Q1024=
200904220000 METAR LPPR 220000Z 00000KT CAVOK 10/07 Q1024=
200904212330 METAR LPPR 212330Z 00000KT CAVOK 11/07 Q1024=
200904212300 METAR LPPR 212300Z VRB03KT CAVOK 12/07 Q1024=
200904212230 METAR LPPR 212230Z 00000KT CAVOK 12/08 Q1024=
200904212200 METAR LPPR 212200Z 00000KT CAVOK 12/09 Q1024=
200904212130 METAR LPPR 212130Z 00000KT CAVOK 12/10 Q1025=
200904212100 METAR LPPR 212100Z 00000KT CAVOK 13/09 Q1025=
200904212030 METAR LPPR 212030Z 00000KT CAVOK 13/08 Q1025=
200904212000 METAR LPPR 212000Z VRB02KT CAVOK 13/09 Q1025=
200904211930 METAR LPPR 211930Z 33004KT CAVOK 15/09 Q1024=
200904211900 METAR LPPR 211900Z 31005KT CAVOK 16/09 Q1024=
200904211830 METAR LPPR 211830Z 32008KT CAVOK 17/07 Q1024=
200904211800 METAR LPPR 211800Z 31007KT 270V350 CAVOK 19/07 Q1024=
200904211730 METAR LPPR 211730Z 34009KT CAVOK 19/06 Q1024=
200904211700 METAR LPPR 211700Z 33008KT CAVOK 19/08 Q1024=
200904211630 METAR LPPR 211630Z 32009KT 280V350 CAVOK 19/07 Q1024=
200904211600 METAR LPPR 211600Z 32010KT 290V350 CAVOK 19/07 Q1024=
200904211530 METAR LPPR 211530Z 32011KT 280V340 CAVOK 18/09 Q1024=
200904211500 METAR LPPR 211500Z 31010KT 280V010 CAVOK 19/09 Q1024=
200904211430 METAR LPPR 211430Z 32009KT CAVOK 19/09 Q1024=
200904211400 METAR LPPR 211400Z 31011KT CAVOK 19/09 Q1025=
200904211330 METAR LPPR 211330Z 31011KT CAVOK 19/08 Q1025=
200904211300 METAR LPPR 211300Z 32008KT 270V330 CAVOK 19/09 Q1025=
200904211230 METAR LPPR 211230Z 31008KT 280V340 CAVOK 19/10 Q1025=
200904211200 METAR LPPR 211200Z 31009KT 280V340 CAVOK 19/11 Q1026=
200904211130 METAR LPPR 211130Z 31007KT 270V330 CAVOK 19/11 Q1025=
200904211100 METAR LPPR 211100Z 28009KT CAVOK 18/12 Q1025=
200904211030 METAR LPPR 211030Z VRB02KT CAVOK 20/11 Q1026=
200904211000 METAR LPPR 211000Z 10005KT 350V130 CAVOK 19/08 Q1026=
200904210930 METAR LPPR 210930Z VRB02KT CAVOK 18/10 Q1026=
200904210900 METAR LPPR 210900Z VRB03KT CAVOK 17/09 Q1026=
200904210830 METAR LPPR 210830Z VRB02KT CAVOK 15/12 Q1026=
200904210800 METAR LPPR 210800Z 00000KT CAVOK 13/12 Q1026=
200904210730 METAR LPPR 210730Z VRB02KT 8000 SKC 12/11 Q1026=
200904210700 METAR LPPR 210700Z 00000KT 7000 SKC 09/09 Q1026=
200904210630 METAR LPPR 210630Z 00000KT 5000 BR SKC 07/07 Q1026=
200904210600 METAR LPPR 210600Z 00000KT 6000 SKC 07/07 Q1025=
200904210530 METAR LPPR 210530Z 00000KT CAVOK 08/07 Q1025=
200904210500 METAR LPPR 210500Z 00000KT CAVOK 09/08 Q1025=
200904210430 METAR LPPR 210430Z VRB03KT CAVOK 09/09 Q1025=
200904210400 METAR LPPR 210400Z 10004KT CAVOK 09/09 Q1025=
200904210330 METAR LPPR 210330Z 00000KT CAVOK 08/08 Q1025=
200904210300 METAR LPPR 210300Z 00000KT CAVOK 08/08 Q1025=
200904210230 METAR LPPR 210230Z 00000KT CAVOK 09/08 Q1025=
200904210200 METAR LPPR 210200Z 09003KT CAVOK 10/09 Q1025=
200904210130 METAR LPPR 210130Z 00000KT CAVOK 10/09 Q1025=
200904210100 METAR LPPR 210100Z 00000KT 8000 SKC 09/09 Q1025=
200904210030 METAR LPPR 210030Z 00000KT 8000 SKC 10/09 Q1025=
200904210000 METAR LPPR 210000Z 00000KT CAVOK 10/09 Q1025=
200904202330 METAR LPPR 202330Z 00000KT CAVOK 11/10 Q1025=
200904202300 METAR LPPR 202300Z 10002KT CAVOK 12/10 Q1025=
200904202230 METAR LPPR 202230Z VRB03KT CAVOK 12/11 Q1025=
200904202200 METAR LPPR 202200Z VRB02KT CAVOK 12/11 Q1025=
200904202130 METAR LPPR 202130Z 34003KT CAVOK 12/11 Q1025=
200904202100 METAR LPPR 202100Z 32004KT 290V350 CAVOK 13/12 Q1025=
200904202030 METAR LPPR 202030Z 33007KT 9999 FEW006 13/12 Q1025=
200904202000 METAR LPPR 202000Z 32008KT 9999 FEW006 13/12 Q1025=
200904201930 METAR LPPR 201930Z 32008KT 290V350 9999 FEW006 14/12 Q1025=
200904201900 METAR LPPR 201900Z 33010KT 9999 FEW008 14/11 Q1024=
200904201830 METAR LPPR 201830Z 32009KT 280V350 CAVOK 15/11 Q1024=
200904201800 METAR LPPR 201800Z 31009KT 9999 FEW008 16/12 Q1024=
200904201730 METAR LPPR 201730Z 31009KT 9999 FEW008 16/13 Q1024=
200904201700 METAR LPPR 201700Z 30010KT 9999 FEW008 SCT013 15/12 Q1024=
200904201630 METAR LPPR 201630Z 30010KT 270V330 9999 SCT008 SCT013 15/13
                        Q1024=
200904201600 METAR LPPR 201600Z 30009KT 250V340 9999 FEW008 BKN013 16/13
                        Q1024=
200904201530 METAR LPPR 201530Z VRB10KT 9999 FEW012 SCT250 16/12 Q1024=
200904201500 METAR LPPR 201500Z 31010KT 270V330 9999 FEW012 SCT250 16/13
                        Q1024=
200904201430 METAR LPPR 201430Z 29009KT 240V330 9999 FEW012 SCT250 16/13
                        Q1025=
200904201400 METAR LPPR 201400Z 29009KT 260V320 9999 FEW012 SCT250 16/12
                        Q1025=
200904201330 METAR LPPR 201330Z 30009KT 270V330 9999 FEW012 SCT250 16/12
                        Q1025=
200904201300 METAR LPPR 201300Z 28008KT 240V310 9999 FEW012 BKN250 16/12
                        Q1025=
200904201230 METAR LPPR 201230Z 28006KT 200V330 9999 FEW012 BKN250 17/12
                        Q1025=
200904201200 METAR LPPR 201200Z 27005KT 9999 FEW012 BKN250 16/12 Q1025=
200904201130 METAR LPPR 201130Z 27007KT 250V020 9999 FEW012 BKN250 17/12
                        Q1025=
200904201100 METAR LPPR 201100Z VRB03KT 9999 FEW012 SCT030 BKN250 17/12
                        Q1026=
200904201030 METAR LPPR 201030Z VRB02KT 9999 FEW012 SCT030 BKN250 16/12
                        Q1025=
200904201000 METAR LPPR 201000Z VRB03KT 9999 FEW012 SCT030 BKN250 15/11
                        Q1026=
200904200930 METAR LPPR 200930Z 00000KT 9999 FEW012 SCT030 BKN250 14/11
                        Q1026=
200904200900 METAR LPPR 200900Z 03004KT 360V080 9999 FEW011 SCT025 BKN250
                        14/11 Q1025=
200904200830 METAR LPPR 200830Z VRB03KT 9999 SCT012 BKN250 12/11 Q1026=
200904200800 METAR LPPR 200800Z 03004KT 8000 FEW009 BKN012 12/11 Q1026=
200904200730 METAR LPPR 200730Z VRB03KT 8000 SCT008 SCT012 11/11 Q1025=
200904200700 METAR LPPR 200700Z 05004KT 020V090 7000 FEW009 SCT012 10/10
                        Q1025=
200904200630 METAR LPPR 200630Z VRB03KT 7000 FEW008 SCT012 10/09 Q1025=
200904200600 METAR LPPR 200600Z 06004KT 030V090 7000 SCT009 SCT010 11/10
                        Q1025=
200904200530 METAR LPPR 200530Z 00000KT 9999 SCT008 SCT010 11/10 Q1025=
200904200500 METAR LPPR 200500Z VRB03KT 3500 BR SCT008 BKN010 11/10 Q1025=
200904200430 METAR LPPR 200430Z VRB03KT 4000 BR SCT008 BKN010 10/10 Q1025=
200904200400 METAR LPPR 200400Z 00000KT 7000 SCT007 BKN008 10/10 Q1025=
200904200330 METAR LPPR 200330Z 00000KT 9999 FEW007 10/09 Q1025=
200904200300 METAR LPPR 200300Z 00000KT 8000 FEW007 SCT012 10/10 Q1024=
200904200230 METAR LPPR 200230Z 08003KT 8000 SCT008 BKN012 11/11 Q1025=
200904200200 METAR LPPR 200200Z 00000KT 8000 SCT008 BKN012 11/10 Q1025=
200904200130 METAR LPPR 200130Z 00000KT 8000 FEW007 SCT009 10/10 Q1025=
200904200100 METAR LPPR 200100Z 00000KT 9999 SCT007 BKN009 10/09 Q1025=
200904200030 METAR LPPR 200030Z 00000KT 9999 FEW009 11/10 Q1025=
200904200000 METAR LPPR 200000Z 00000KT 9999 FEW009 11/10 Q1025=
200904192330 METAR LPPR 192330Z 36003KT CAVOK 12/10 Q1025=
200904192300 METAR LPPR 192300Z 32005KT CAVOK 13/11 Q1025=
200904192230 METAR LPPR 192230Z 31003KT CAVOK 13/11 Q1025=
200904192200 METAR LPPR 192200Z 32006KT 270V340 CAVOK 13/11 Q1025=
200904192130 METAR LPPR 192130Z 31004KT 260V340 9999 FEW030 SCT090 13/11
                        Q1025=
200904192100 METAR LPPR 192100Z 32005KT 9999 FEW009 SCT030 BKN090 13/11
                        Q1025=
200904192030 METAR LPPR 192030Z 32007KT 9999 FEW009 SCT025 BKN080 13/11
                        Q1024=
200904192000 METAR LPPR 192000Z 32007KT 9999 FEW009 SCT025 BKN080 13/11
                        Q1024=
200904191930 METAR LPPR 191930Z 32006KT 9999 FEW009 SCT020 BKN080 13/11
                        Q1024=
200904191900 METAR LPPR 191900Z 31008KT 9999 SCT015 SCT025 BKN080 14/11
                        Q1024=
200904191830 METAR LPPR 191830Z 33011KT 9999 SCT012 SCT080 BKN200 14/11
                        Q1023=
200904191800 METAR LPPR 191800Z 31011KT 290V350 9999 SCT012 SCT090 BKN200
                        14/11 Q1024=
200904191730 METAR LPPR 191730Z 32011KT 270V350 9999 SCT015 SCT090 BKN200
                        15/11 Q1023=
200904191700 METAR LPPR 191700Z 32011KT 290V360 9999 FEW015 SCT090 BKN200
                        15/11 Q1023=
200904191630 METAR LPPR 191630Z 31011KT 9999 FEW015 SCT100 BKN200 15/11
                        Q1023=
200904191600 METAR LPPR 191600Z 31011KT 9999 FEW015 SCT100 BKN200 16/10
                        Q1023=
200904191530 METAR LPPR 191530Z 32010KT 9999 FEW015 SCT100 BKN200 16/11
                        Q1023=
200904191500 METAR LPPR 191500Z 32011KT 9999 FEW015 SCT100 BKN200 16/11
                        Q1023=
200904191430 METAR LPPR 191430Z 32009KT 9999 FEW015 SCT100 BKN200 16/09
                        Q1023=
200904191400 METAR LPPR 191400Z 31010KT 9999 FEW015 SCT100 BKN200 15/10
                        Q1023=
200904191330 METAR LPPR 191330Z 32009KT 280V340 9999 FEW015 SCT090 BKN200
                        16/09 Q1022=
200904191300 METAR LPPR 191300Z 31008KT 270V330 9999 FEW013 SCT090 BKN250
                        16/07 Q1022=
200904191230 METAR LPPR 191230Z 31005KT 240V350 9999 FEW013 BKN250 17/09
                        Q1022=
200904191200 METAR LPPR 191200Z 32006KT 270V030 9999 FEW013 SCT250 16/08
                        Q1022=
200904191130 METAR LPPR 191130Z 32008KT 9999 FEW013 SCT250 15/09 Q1022=
200904191100 METAR LPPR 191100Z 29008KT 260V320 9999 FEW013 SCT250 15/09
                        Q1022=
200904191030 METAR LPPR 191030Z 30005KT 270V350 CAVOK 15/09 Q1022=
200904191000 METAR LPPR 191000Z 28007KT CAVOK 14/09 Q1022=
200904190930 METAR LPPR 190930Z VRB03KT CAVOK 15/08 Q1021=
200904190900 METAR LPPR 190900Z 00000KT CAVOK 14/08 Q1021=
200904190830 METAR LPPR 190830Z VRB02KT CAVOK 13/08 Q1021=
200904190800 METAR LPPR 190800Z VRB03KT CAVOK 12/08 Q1020=
200904190730 METAR LPPR 190730Z 00000KT CAVOK 11/08 Q1020=
200904190700 METAR LPPR 190700Z 03005KT CAVOK 09/07 Q1019=
200904190630 METAR LPPR 190630Z 02006KT CAVOK 08/06 Q1019=
200904190600 METAR LPPR 190600Z 05003KT CAVOK 07/06 Q1019=
200904190530 METAR LPPR 190530Z VRB02KT CAVOK 07/06 Q1018=
200904190500 METAR LPPR 190500Z 01004KT 330V050 CAVOK 07/06 Q1018=
200904190430 METAR LPPR 190430Z 02005KT CAVOK 08/08 Q1018=
200904190400 METAR LPPR 190400Z 34007KT CAVOK 07/06 Q1018=
200904190330 METAR LPPR 190330Z 36004KT 330V040 CAVOK 07/06 Q1017=
200904190300 METAR LPPR 190300Z 02004KT 350V060 CAVOK 08/07 Q1017=
200904190230 METAR LPPR 190230Z VRB03KT CAVOK 08/07 Q1017=
200904190200 METAR LPPR 190200Z 33003KT CAVOK 08/07 Q1017=
200904190130 METAR LPPR 190130Z 01003KT CAVOK 08/08 Q1017=
200904190100 METAR LPPR 190100Z 35005KT CAVOK 08/08 Q1017=
200904190030 METAR LPPR 190030Z VRB03KT CAVOK 09/08 Q1017=
200904190000 METAR LPPR 190000Z VRB02KT 9999 SCT015 10/09 Q1017=
200904182330 METAR LPPR 182330Z 00000KT 9999 FEW015 SCT080 10/09 Q1017=
200904182300 METAR LPPR 182300Z VRB03KT 9999 SCT013 11/10 Q1017=
200904182230 METAR LPPR 182230Z 01002KT 9999 SCT013 12/10 Q1017=
200904182200 METAR LPPR 182200Z 32004KT 290V350 9999 SCT013 12/11 Q1017=
200904182130 METAR LPPR 182130Z 31006KT 9999 SCT007 SCT013 13/12 Q1016=
200904182100 METAR LPPR 182100Z 31005KT 9999 SCT006 SCT013 13/12 Q1016=
200904182030 METAR LPPR 182030Z 30004KT 270V330 9999 FEW007 SCT015 BKN030
                        13/11 Q1016=
200904182000 METAR LPPR 182000Z 30005KT 260V330 9999 FEW008 SCT015 BKN030
                        13/11 Q1015=
200904181930 METAR LPPR 181930Z 28005KT 250V320 9999 FEW008 SCT015 BKN030
                        13/11 Q1015=
200904181900 METAR LPPR 181900Z 28005KT 240V300 9999 FEW008 BKN015 13/12
                        Q1015=
200904181830 METAR LPPR 181830Z 28005KT 250V320 9999 FEW008 SCT015 BKN070
                        13/12 Q1015=
200904181800 METAR LPPR 181800Z 24006KT 9999 SCT008 BKN015 14/11 Q1015=
200904181730 METAR LPPR 181730Z 26006KT 9999 SCT008 BKN015 14/11 Q1015=
200904181700 METAR LPPR 181700Z 23005KT 200V270 9999 SCT007 BKN015 15/12
                        Q1015=
200904181630 METAR LPPR 181630Z 25005KT 210V350 9999 SCT007 SCT013 BKN030
                        14/12 Q1015=
200904181600 METAR LPPR 181600Z 24006G16KT 160V280 9999 SCT006 SCT013
                        BKN030 14/12 Q1015=
200904181530 METAR LPPR 181530Z 24005KT 200V280 9999 SCT006 SCT013 BKN030
                        14/12 Q1015=
200904181500 METAR LPPR 181500Z 22007KT 180V240 9999 SCT004 SCT008 BKN030
                        14/12 Q1015=
200904181430 METAR LPPR 181430Z 21009KT 190V250 9999 SCT007 SCT015 BKN030
                        14/12 Q1015=
200904181400 METAR LPPR 181400Z 21008KT 9999 SCT006 SCT015 BKN030 14/12
                        Q1015=
200904181330 METAR LPPR 181330Z 22010KT 9999 SCT008 SCT015 BKN035 14/12
                        Q1015=
200904181300 METAR LPPR 181300Z 23009KT 200V260 9999 SCT015 BKN030 14/12
                        Q1015=
200904181230 METAR LPPR 181230Z 20012KT 9999 SCT015 BKN025 14/10 Q1015=
200904181200 METAR LPPR 181200Z 19010KT 9999 FEW009 SCT015 BKN025 14/10
                        Q1015=
200904181130 METAR LPPR 181130Z 20010KT 180V240 9999 FEW008 SCT013 BKN030
                        14/11 Q1016=
200904181100 METAR LPPR 181100Z 22007KT 180V270 9999 FEW008 SCT013 BKN025
                        13/11 Q1016=
200904181030 METAR LPPR 181030Z 19010KT 160V220 8000 -SHRA FEW007 SCT013
                        BKN025 14/11 Q1015=
200904181000 METAR LPPR 181000Z 19010KT 9999 SCT015 FEW020CB BKN040 14/12
                        Q1015=
200904180930 METAR LPPR 180930Z 18009KT 8000 -SHRA FEW009 SCT015 FEW017CB
                        BKN030 13/12 Q1015=
200904180900 METAR LPPR 180900Z 21008KT 170V240 9999 FEW009 SCT015 FEW020CB
                        BKN035 13/11 Q1015=
200904180830 METAR LPPR 180830Z 17007KT 9999 SCT015 SCT025 BKN060 13/12
                        Q1015=
200904180800 METAR LPPR 180800Z 16007KT 9999 SCT015 SCT030 12/11 Q1015=
200904180730 METAR LPPR 180730Z 16006KT 9999 -RA SCT015 SCT025 12/11 Q1015=
200904180700 METAR LPPR 180700Z 16006KT 9999 FEW015 BKN040 11/10 Q1015=
200904180630 METAR LPPR 180630Z 19004KT 170V240 9999 FEW013 SCT040 10/09
                        Q1015=
200904180600 METAR LPPR 180600Z 16006KT 9999 FEW013 SCT040 10/09 Q1014=
200904180530 METAR LPPR 180530Z 14003KT 9999 FEW013 BKN040 10/09 Q1014=
200904180500 METAR LPPR 180500Z 16005KT 9999 FEW020 BKN050 10/09 Q1014=
200904180430 METAR LPPR 180430Z 15003KT 9999 -RA SCT020 BKN040 10/09 Q1014
                        RERA=
200904180400 METAR LPPR 180400Z 24008KT 210V300 1500 RA BR SCT004 SCT005
                        BKN011 11/10 Q1014=
200904180330 METAR LPPR 180330Z 16008KT 9999 SCT008 SCT012 BKN060 12/12
                        Q1014=
200904180300 METAR LPPR 180300Z 17008KT 4000 -RADZ BR SCT005 SCT007 BKN012
                        12/12 Q1014=
200904180230 METAR LPPR 180230Z 17009KT 7000 -RA SCT006 BKN008 13/12 Q1014=
200904180200 METAR LPPR 180200Z 17008KT 9999 SCT007 BKN020 13/11 Q1015=
200904180130 METAR LPPR 180130Z 17008KT 9999 SCT008 BKN030 13/12 Q1015=
200904180100 METAR LPPR 180100Z 16007KT 9999 FEW009 SCT040 BKN070 13/12
                        Q1015=
200904180030 METAR LPPR 180030Z 16006KT 9999 SCT009 BKN070 13/11 Q1015=
200904180000 METAR LPPR 180000Z 15006KT 9999 SCT007 BKN009 13/11 Q1015=
200904172330 METAR LPPR 172330Z 16007KT 9999 SCT040 SCT070 12/11 Q1015=
200904172300 METAR LPPR 172300Z 16007KT 9999 FEW009 SCT015 BKN070 13/11
                        Q1015=
200904172230 METAR LPPR 172230Z 16005KT 9999 FEW013 SCT040 BKN070 12/11
                        Q1016=
200904172200 METAR LPPR 172200Z 16005KT 9999 FEW013 SCT040 12/11 Q1016=
200904172130 METAR LPPR 172130Z 20004KT 9999 FEW013 SCT020 13/11 Q1016=
200904172100 METAR LPPR 172100Z 20005KT 160V240 9999 FEW013 BKN018 13/11
                        Q1016=
200904172030 METAR LPPR 172030Z 18004KT 160V240 9999 FEW013 SCT030 13/11
                        Q1015=
200904172000 METAR LPPR 172000Z 19005KT 170V240 9999 FEW013 FEW020TCU
                        SCT030 13/10 Q1015=
200904171930 METAR LPPR 171930Z 18007KT 9999 FEW013 FEW020TCU BKN030 13/10
                        Q1015=
200904171900 METAR LPPR 171900Z 19006KT 160V230 9999 FEW015 SCT040 13/10
                        Q1015=
200904171830 METAR LPPR 171830Z 20006KT 170V240 9999 FEW015 BKN040 13/10
                        Q1015=
200904171800 METAR LPPR 171800Z 22004KT 9999 FEW015 BKN040 13/11 Q1015=
200904171730 METAR LPPR 171730Z 22006KT 190V260 9999 SCT013 SCT025 BKN060
                        13/11 Q1015=
200904171700 METAR LPPR 171700Z 22007KT 9999 SCT013 SCT020 BKN070 13/11
                        Q1015=
200904171630 METAR LPPR 171630Z 20010KT 170V240 9999 SCT015 SCT025 BKN080
                        14/10 Q1015=
200904171600 METAR LPPR 171600Z 21010KT 180V240 9999 FEW015 SCT025 BKN080
                        14/10 Q1015=
200904171530 METAR LPPR 171530Z 21011KT 9999 FEW013 SCT025 BKN080 15/09
                        Q1015=
200904171500 METAR LPPR 171500Z 22010KT 200V270 9999 SCT013 SCT020 BKN080
                        15/10 Q1015=
200904171430 METAR LPPR 171430Z 22010KT 190V280 9999 BKN013 FEW020TCU
                        SCT080 15/11 Q1015=
200904171400 METAR LPPR 171400Z 21010KT 180V240 9999 BKN013 FEW017TCU
                        SCT020 15/11 Q1015=
200904171330 METAR LPPR 171330Z 21011KT 9999 SCT013 FEW020TCU SCT080 15/11
                        Q1015=
200904171300 METAR LPPR 171300Z 22011KT 9999 SCT013 FEW020TCU SCT030 14/11
                        Q1015=
200904171230 METAR LPPR 171230Z 21012KT 9999 SCT008 BKN013 FEW020TCU 14/12
                        Q1015=
200904171200 METAR LPPR 171200Z 19012KT 9999 SCT008 BKN013 FEW020TCU 14/12
                        Q1015 WS ALL RWY=
200904171130 METAR LPPR 171130Z 19014KT 9999 BKN013 FEW020TCU 15/13 Q1016
                        WS ALL RWY=
200904171100 METAR LPPR 171100Z 18013KT 9999 BKN013 FEW020TCU 13/12 Q1016=
200904171030 METAR LPPR 171030Z 18010KT 9999 -SHRA BKN013 FEW020TCU 13/11
                        Q1016=
200904171000 METAR LPPR 171000Z 19011KT 9999 BKN013 FEW020TCU 14/11 Q1016=
200904170930 METAR LPPR 170930Z 18009KT 9999 BKN013 FEW020TCU 14/11 Q1016=
200904170900 METAR LPPR 170900Z 18010KT 9999 SCT013 FEW020TCU SCT030 14/12
                        Q1016=
200904170830 METAR LPPR 170830Z 18009KT 9999 SCT013 FEW020TCU SCT030 13/11
                        Q1016=
200904170800 METAR LPPR 170800Z 16007KT 9999 SCT013 FEW020TCU SCT025 13/11
                        Q1015=
200904170730 METAR LPPR 170730Z 15006KT 9999 SCT013 FEW020TCU SCT025 12/10
                        Q1015=
200904170700 METAR LPPR 170700Z 13004KT 9999 SCT013 FEW020TCU SCT025 12/10
                        Q1015=
200904170630 METAR LPPR 170630Z VRB03KT 9999 BKN015 FEW020TCU 11/10 Q1015=
200904170600 METAR LPPR 170600Z VRB03KT 9999 BKN015 FEW020TCU 12/10 Q1015=
200904170530 METAR LPPR 170530Z VRB03KT 9999 SCT015 FEW020TCU 12/10 Q1015=
200904170500 METAR LPPR 170500Z VRB03KT 9999 SCT015 12/10 Q1015=
200904170430 METAR LPPR 170430Z 23004KT 9999 SCT015 12/09 Q1015=
200904170400 METAR LPPR 170400Z 22003KT 9999 SCT015 12/10 Q1015=
200904170330 METAR LPPR 170330Z 24005KT 9999 SCT012 12/10 Q1015=
200904170300 METAR LPPR 170300Z 22005KT 9999 SCT012 12/10 Q1015=
200904170230 METAR LPPR 170230Z 22006KT 9999 SCT012 12/10 Q1014=
200904170200 METAR LPPR 170200Z 23006KT 9999 SCT012 BKN030 12/10 Q1015=
200904170130 METAR LPPR 170130Z 22007KT 190V250 9999 -SHRA SCT012 BKN030
                        12/10 Q1015=
200904170100 METAR LPPR 170100Z 22005KT 190V260 9999 SCT012 12/10 Q1015=
200904170030 METAR LPPR 170030Z 22005KT 190V250 9999 SCT015 BKN030 12/10
                        Q1015=
200904170000 METAR LPPR 170000Z 22005KT 9999 SCT015 12/10 Q1015=
200904162330 METAR LPPR 162330Z 00000KT 9999 SCT015 11/10 Q1015=
200904162300 METAR LPPR 162300Z VRB02KT 9999 SCT015 BKN030 11/10 Q1015=
200904162230 METAR LPPR 162230Z 30004KT 270V340 9999 SCT015 BKN030 12/09
                        Q1015=
200904162200 METAR LPPR 162200Z 22006KT 180V240 9999 SCT017 FEW025TCU
                        12/10 Q1015=
200904162130 METAR LPPR 162130Z VRB03KT 9999 SCT017 FEW025TCU 12/10 Q1015=
200904162100 METAR LPPR 162100Z 24004KT 200V270 9999 SCT017 FEW025TCU
                        13/10 Q1015=
200904162030 METAR LPPR 162030Z VRB02KT 9999 SCT017 FEW025TCU 12/09 Q1014=
200904162000 METAR LPPR 162000Z VRB03KT 9999 FEW017 FEW002TCU 13/09 Q1014=
200904161930 METAR LPPR 161930Z VRB03G14KT 9999 SCT017 FEW025TCU 13/09
                        Q1014=
200904161900 METAR LPPR 161900Z 26005KT 160V330 9999 SCT017 FEW025TCU
                        14/09 Q1014=
200904161830 METAR LPPR 161830Z 27005KT 220V300 9999 SCT017 FEW025TCU
                        14/09 Q1014=
200904161800 METAR LPPR 161800Z 28007KT 240V310 9999 SCT017 FEW025TCU
                        15/10 Q1013=
200904161730 METAR LPPR 161730Z 27008KT 240V310 9999 SCT017 FEW025TCU
                        15/09 Q1013=
200904161700 METAR LPPR 161700Z 28008KT 250V330 9999 SCT017 FEW025TCU
                        15/10 Q1013=
200904161630 METAR LPPR 161630Z 28010G21KT 9999 SCT017 FEW025TCU 15/10
                        Q1012=
200904161600 METAR LPPR 161600Z 28011KT 240V300 9999 SCT017 FEW025TCU
                        15/10 Q1012=
200904161530 METAR LPPR 161530Z 27010KT 240V320 9999 SCT017 FEW025TCU
                        16/10 Q1012=
200904161500 METAR LPPR 161500Z 23009KT 190V260 9999 BKN017 FEW025TCU
                        15/11 Q1012=
200904161430 METAR LPPR 161430Z 24010KT 210V270 9999 BKN017 FEW025TCU
                        15/10 Q1012=
200904161400 METAR LPPR 161400Z 25010KT 200V290 9999 BKN017 FEW025TCU
                        15/10 Q1011=
200904161330 METAR LPPR 161330Z 24010KT 9999 BKN017 FEW025CB 15/11 Q1011=
200904161300 METAR LPPR 161300Z 23010KT 190V260 9999 SCT017 FEW025CB 15/11
                        Q1011=
200904161230 METAR LPPR 161230Z 25009KT 210V280 9999 SCT015 FEW025CB 15/11
                        Q1011=
200904161200 METAR LPPR 161200Z 23010KT 190V260 9999 SCT015 FEW025CB 15/10
                        Q1011=
200904161130 METAR LPPR 161130Z 23010KT 200V260 9999 SCT015 FEW025CB 15/11
                        Q1011=
200904161100 METAR LPPR 161100Z 23010KT 200V260 9999 SCT015 SCT020CB 14/10
                        Q1011=
200904161030 METAR LPPR 161030Z 23005KT 200V260 9999 SCT015 SCT020CB 11/10
                        Q1010=
200904161000 METAR LPPR 161000Z 23008KT 180V310 9999 -SHRA FEW008 BKN015
                        FEW020CB 11/09 Q1010=
200904160930 METAR LPPR 160930Z 20009KT 9999 FEW008 BKN015 FEW020CB 13/11
                        Q1009=
200904160900 METAR LPPR 160900Z 22008KT 180V270 9999 FEW008 BKN015 FEW020CB
                        12/09 Q1009=
200904160830 METAR LPPR 160830Z 22008KT 180V290 9999 FEW008 BKN013 FEW020CB
                        11/10 Q1008=
200904160800 METAR LPPR 160800Z 18010KT 9999 FEW008 BKN013 FEW020CB 11/10
                        Q1008=
200904160730 METAR LPPR 160730Z 19011KT 9999 FEW008 BKN013 FEW020CB 11/09
                        Q1008=
200904160700 METAR LPPR 160700Z VRB05G15KT 9999 FEW008 BKN015 SCT020CB
                        10/09 Q1008=
200904160630 METAR LPPR 160630Z 17012KT 9999 FEW008 BKN015 SCT020CB 10/09
                        Q1007=
200904160600 METAR COR LPPR 160600Z 17012KT 9999 BKN015 FEW020CB 10/09
                        Q1007=
200904160530 METAR LPPR 160530Z 17013KT 9999 SCT015 FEW020CB BKN025 10/09
                        Q1007=
200904160500 METAR LPPR 160500Z 17010KT 9999 FEW015 FEW020CB BKN040 10/08
                        Q1007=
200904160430 METAR LPPR 160430Z 20008KT 9999 FEW015 FEW020CB BKN040 10/08
                        Q1007=
200904160400 METAR LPPR 160400Z 19009KT 160V250 9999 -SHRA SCT012 SCT017CB
                        BKN030 10/09 Q1007=
200904160330 METAR LPPR 160330Z 16011KT 9999 -RA SCT011 SCT017CB BKN025
                        10/09 Q1007=
200904160300 METAR LPPR 160300Z 16010KT 7000 TSRA SCT013 SCT017CB BKN025
                        10/08 Q1006=
200904160230 METAR LPPR 160230Z 15011KT 9999 FEW015 FEW020CB BKN040 10/08
                        Q1006=
200904160200 METAR LPPR 160200Z 16009KT 9999 FEW013 FEW020CB BKN040 10/08
                        Q1007=
200904160130 METAR LPPR 160130Z 15010KT 9999 FEW013 FEW020CB BKN040 10/08
                        Q1006=
200904160100 METAR LPPR 160100Z 15009KT 9999 FEW013 FEW020CB BKN040 10/08
                        Q1007=
200904160030 METAR LPPR 160030Z 15009KT 9999 FEW013 FEW020CB BKN040 10/08
                        Q1007=
200904160000 METAR LPPR 160000Z 14008KT 110V170 9999 FEW013 FEW020CB BKN040
                        09/08 Q1007=
200904152330 METAR LPPR 152330Z 15010KT 9999 SCT013 FEW020CB BKN040 09/08
                        Q1007=
200904152300 METAR LPPR 152300Z 18009KT 9999 SCT013 SCT020CB BKN040 10/08
                        Q1007=
200904152230 METAR LPPR 152230Z 20008KT 150V260 8000 -TSRA SCT013 SCT020CB
                        BKN025 11/09 Q1007=
200904152200 METAR LPPR 152200Z 17009KT 9999 SCT013 FEW020CB BKN030 11/09
                        Q1007=
200904152130 METAR LPPR 152130Z 18009KT 9999 SCT013 FEW020CB BKN040 11/09
                        Q1007=
200904152100 METAR LPPR 152100Z 19009KT 9999 SCT013 FEW020CB BKN040 11/09
                        Q1007=
200904152030 METAR LPPR 152030Z 22006G16KT 200V270 9999 SCT013 FEW020CB
                        BKN040 11/08 Q1006=
200904152000 METAR LPPR 152000Z 17007KT 9999 -SHRA SCT013 SCT017CB BKN020
                        11/10 Q1006=
200904151930 METAR LPPR 151930Z 19009KT 160V220 9999 SCT013 SCT020CB BKN040
                        12/09 Q1006=
200904151900 METAR COR LPPR 151900Z 19007KT 9999 FEW013 SCT020CB SCT040
                        BKN250 12/10 Q1006=
200904151830 METAR LPPR 151830Z 20010KT 8000 -SHRA FEW015 SCT020CB SCT040
                        BKN250 12/10 Q1005 RERA=
200904151800 METAR LPPR 151800Z 20010KT 170V250 9999 FEW015 BKN020CB SCT040
                        12/09 Q1005=
200904151730 METAR LPPR 151730Z 19010KT 9999 FEW017 SCT025CB SCT030 BKN250
                        12/09 Q1005=
200904151700 METAR LPPR 151700Z 23008KT 190V250 9999 FEW017 SCT025CB SCT030
                        BKN250 12/10 Q1005=
200904151630 METAR LPPR 151630Z 24009KT 9999 FEW017 SCT025CB BKN030 12/09
                        Q1005=
200904151600 METAR LPPR 151600Z 22013KT 9999 FEW017 SCT025CB BKN030 13/09
                        Q1005 WS ALL RWY=
200904151530 METAR COR LPPR 151530Z 20014KT 9999 FEW017 SCT025CB BKN030
                        13/10 Q1005 WS ALL RWY=
200904151500 METAR LPPR 151500Z 20015KT 160V220 9999 FEW017 SCT025CB SCT030
                        BKN250 14/10 Q1005=
200904151430 METAR LPPR 151430Z 20013KT 9999 FEW017 SCT025CB BKN030 13/10
                        Q1005=
200904151400 METAR LPPR 151400Z 20013KT 170V230 9999 FEW017 SCT025CB BKN030
                        13/10 Q1005=
200904151330 METAR LPPR 151330Z 19009KT 160V220 9999 FEW014 SCT025CB BKN030
                        12/10 Q1005=
200904151300 METAR LPPR 151300Z 17011KT 9999 -SHRA FEW014 SCT025CB BKN030
                        12/10 Q1005=
200904151230 METAR LPPR 151230Z 18013KT 160V220 5000 -SHRA BR FEW004 SCT025CB
                        BKN030 11/09 Q1005=
200904151200 METAR LPPR 151200Z 16009KT 9999 FEW017 SCT025CB BKN030 12/09
                        Q1006=
200904151130 METAR LPPR 151130Z 14006KT 110V180 9999 -SHRA FEW017 SCT025CB
                        BKN030 11/09 Q1006=
200904151100 METAR LPPR 151100Z 13009KT 100V160 9999 -SHRA FEW017 SCT025CB
                        BKN030 10/09 Q1006=
200904151030 METAR LPPR 151030Z 15013KT 9999 -SHRA FEW017 SCT025CB BKN030
                        10/08 Q1006 RERA=
200904151000 METAR LPPR 151000Z 16013KT 9999 FEW017 SCT025CB SCT030 11/08
                        Q1006=
200904150930 METAR LPPR 150930Z 17012KT 9999 SCT017 SCT025CB SCT030 BKN200
                        11/08 Q1005=
200904150900 METAR LPPR 150900Z 16013KT 9999 SCT017 FEW025CB BKN030 10/08
                        Q1005=
200904150830 METAR LPPR 150830Z 16012KT 140V200 9999 SCT017 FEW025CB BKN030
                        10/08 Q1005=
200904150800 METAR LPPR 150800Z 16009KT 9999 -SHRA SCT017 FEW025CB BKN030
                        09/08 Q1005=
200904150730 METAR LPPR 150730Z 15008KT 8000 -SHRA SCT017 FEW025CB BKN030
                        09/08 Q1005=
200904150700 METAR LPPR 150700Z 15008KT 8000 -SHRA FEW009 SCT017 FEW025CB
                        BKN030 09/08 Q1005=
200904150630 METAR LPPR 150630Z 14008KT 8000 SCT017 FEW025CB BKN030 08/07
                        Q1005=
200904150600 METAR LPPR 150600Z 16010KT 8000 SCT017 FEW025CB BKN030 08/07
                        Q1005=
200904150530 METAR LPPR 150530Z 16010KT 9999 BKN020 FEW025CB BKN030 08/07
                        Q1004=
200904150500 METAR LPPR 150500Z 17012KT 9999 BKN025 BKN080 09/08 Q1004=
200904150430 METAR LPPR 150430Z 13005KT 8000 -RA BKN025 BKN080 08/08 Q1004=
200904150400 METAR LPPR 150400Z 13004KT 070V170 7000 -SHRA SCT017 FEW025CB
                        BKN030 08/07 Q1004=
200904150330 METAR LPPR 150330Z 15009KT 8000 -SHRA SCT017 FEW025CB BKN030
                        08/07 Q1005=
200904150300 METAR LPPR 150300Z 16009KT 9999 FEW015 SCT070 08/07 Q1005=
200904150230 METAR LPPR 150230Z 16009KT 9999 SCT015 08/08 Q1005=
200904150200 METAR LPPR 150200Z 16009KT 9999 FEW015 FEW025CB SCT035 09/08
                        Q1005=
200904150130 METAR LPPR 150130Z 16008KT 9999 FEW015 FEW020CB BKN030 09/08
                        Q1005=
200904150100 METAR LPPR 150100Z 17010KT 8000 -SHRA SCT015 FEW020CB BKN030
                        09/08 Q1005=
200904150030 METAR LPPR 150030Z VRB03KT 9999 FEW017 FEW025CB BKN035 10/08
                        Q1006=
200904150000 METAR LPPR 150000Z 18004KT 9999 FEW015 FEW025CB SCT040 10/08
                        Q1006=
200904142330 METAR LPPR 142330Z 23003KT 9999 SCT017 FEW025CB SCT045 10/07
                        Q1006=
200904142300 METAR LPPR 142300Z 00000KT 9999 FEW017 FEW025CB SCT050 10/08
                        Q1006=
200904142230 METAR LPPR 142230Z 00000KT 9999 FEW017 FEW025CB SCT045 10/07
                        Q1006=
200904142200 METAR LPPR 142200Z VRB02KT 9999 FEW017 FEW025CB BKN040 10/07
                        Q1006=
200904142130 METAR LPPR 142130Z 00000KT 9999 FEW017 FEW025CB BKN050 10/08
                        Q1006=
200904142100 METAR LPPR 142100Z 23003KT 9999 -SHRA FEW017 FEW025CB BKN200
                        10/08 Q1006=
200904142030 METAR LPPR 142030Z 22002KT 9999 FEW015 BKN050 10/07 Q1005=
200904142000 METAR LPPR 142000Z 00000KT 9999 FEW015 BKN040 10/08 Q1005=
200904141930 METAR LPPR 141930Z 00000KT 9999 FEW015 FEW025CB BKN040 11/08
                        Q1005=
200904141900 METAR LPPR 141900Z 00000KT 9999 FEW015 FEW025CB BKN040 11/09
                        Q1005=
200904141830 METAR LPPR 141830Z VRB02KT 9999 SCT015 FEW025CB SCT040 11/09
                        Q1005=
200904141800 METAR LPPR 141800Z 28005KT 240V310 9999 -SHRA SCT015 FEW020CB
                        BKN040 12/08 Q1005=
200904141730 METAR LPPR 141730Z 22009KT 180V250 9999 BKN015 SCT040 13/08
                        Q1005=
200904141700 METAR LPPR 141700Z 21010KT 9999 SCT015 FEW025CB SCT040 13/07
                        Q1005=
200904141630 METAR LPPR 141630Z 22007KT 180V250 9999 FEW015 FEW025CB BKN070
                        12/08 Q1006=
200904141600 METAR LPPR 141600Z 22008KT 200V260 9999 FEW015 FEW025CB BKN040
                        13/07 Q1006=
200904141530 METAR LPPR 141530Z 22005KT 170V270 9999 FEW015 FEW025CB BKN040
                        13/08 Q1006=
200904141500 METAR LPPR 141500Z 21007KT 180V240 9999 SCT015 FEW025CB SCT035
                        13/08 Q1006=
200904141430 METAR LPPR 141430Z 24007KT 190V270 9999 SCT015 FEW025CB BKN035
                        12/09 Q1006=
200904141400 METAR LPPR 141400Z 22007KT 180V260 9999 SCT015 FEW025CB BKN035
                        12/10 Q1007=
200904141330 METAR LPPR 141330Z 21009KT 180V260 8000 -SHRA SCT015 FEW025CB
                        BKN035 12/09 Q1007=
200904141300 METAR LPPR 141300Z 17010KT 8000 -SHRA SCT015 FEW025CB BKN040
                        12/09 Q1007=
200904141230 METAR LPPR 141230Z 19012KT 8000 -SHRA SCT015 FEW025CB BKN035
                        11/09 Q1007=
200904141200 METAR LPPR 141200Z 18012G22KT 9999 SCT015 FEW025CB BKN030
                        13/08 Q1008=
200904141130 METAR LPPR 141130Z 20011KT 180V240 9999 SCT015 FEW025CB BKN250
                        14/08 Q1008=
200904141100 METAR LPPR 141100Z 19010KT 9999 SCT015 FEW025CB BKN035 12/07
                        Q1008=
200904141030 METAR LPPR 141030Z 18013KT 150V210 9999 -SHRA SCT015 FEW025CB
                        BKN035 14/09 Q1008=
200904141000 METAR LPPR 141000Z 18008KT 150V210 9999 SCT015 FEW025CB BKN035
                        13/09 Q1008=
200904140930 METAR LPPR 140930Z 18009KT 9999 SCT015 FEW025CB 13/10 Q1008=
200904140900 METAR LPPR 140900Z 15008KT 110V190 9999 FEW015 FEW025CB 12/09
                        Q1009=
200904140830 METAR LPPR 140830Z 15007KT 9999 FEW015 FEW025CB 11/09 Q1009=
200904140800 METAR LPPR 140800Z 15006KT 9999 FEW015 SCT040 10/09 Q1009=
200904140730 METAR LPPR 140730Z 14006KT 9999 FEW015 FEW020CB SCT040 09/09
                        Q1009=
200904140700 METAR LPPR 140700Z 17007KT 150V210 9999 -SHRA SCT015 FEW020CB
                        BKN035 09/08 Q1009=
200904140630 METAR LPPR 140630Z 20009KT 170V230 8000 -TSRA SCT015 SCT020CB
                        BKN025 10/09 Q1009=
200904140600 METAR LPPR 140600Z 15008KT 9999 FEW007 SCT015 SCT020TCU 10/09
                        Q1009=
200904140530 METAR LPPR 140530Z 00000KT 9999 FEW007 SCT013 BKN025 09/09
                        Q1009=
200904140500 METAR LPPR 140500Z 17006KT 7000 -SHRA FEW006 BKN020 09/09
                        Q1009=
200904140430 METAR LPPR 140430Z 12004KT 9999 FEW007 BKN020 09/09 Q1010=
200904140400 METAR LPPR 140400Z 13006KT 8000 FEW006 SCT018 09/09 Q1010=
200904140330 METAR LPPR 140330Z 11005KT 6000 FEW006 SCT015 09/09 Q1010=
200904140300 METAR LPPR 140300Z 13005KT 7000 FEW008 SCT015 09/09 Q1011=
200904140230 METAR LPPR 140230Z 12003KT 8000 SCT015 09/09 Q1011=
200904140200 METAR LPPR 140200Z VRB03KT 6000 FEW008 SCT015 09/09 Q1011=
200904140130 METAR LPPR 140130Z 14003KT 8000 BKN015 09/09 Q1012=
200904140100 METAR LPPR 140100Z VRB02KT 8000 SCT015 10/09 Q1012=
200904140030 METAR LPPR 140030Z 12005KT 8000 FEW015 SCT025 10/10 Q1012=
200904140000 METAR LPPR 140000Z VRB03KT 8000 FEW015 SCT025 09/09 Q1013=
200904132330 METAR LPPR 132330Z 00000KT 8000 FEW015 SCT025 09/09 Q1013=
200904132300 METAR LPPR 132300Z 09003KT 8000 FEW015 SCT025 09/09 Q1013=
200904132230 METAR LPPR 132230Z VRB03KT 8000 FEW015 BKN025 10/08 Q1013=
200904132200 METAR LPPR 132200Z 00000KT 9999 SCT015 BKN025 10/09 Q1013=
200904132130 METAR LPPR 132130Z 00000KT 9999 FEW015 BKN025 11/09 Q1013=
200904132100 METAR LPPR 132100Z 00000KT 8000 FEW008 SCT015 BKN025 11/09
                        Q1013=
200904132030 METAR LPPR 132030Z 30004KT 270V330 5000 -RA BR SCT006 BKN025
                        11/09 Q1013=
200904132000 METAR LPPR 132000Z 20003KT 8000 SCT015 BKN025 13/11 Q1013=
200904131930 METAR LPPR 131930Z VRB02KT 8000 SCT015 BKN035 13/11 Q1013=
200904131900 METAR LPPR 131900Z VRB03KT 9999 FEW015 SCT035 13/10 Q1013=
200904131830 METAR LPPR 131830Z 27004KT 250V330 9999 FEW015 SCT035 13/10
                        Q1013=
200904131800 METAR LPPR 131800Z 27006KT 9999 FEW015 SCT035 14/10 Q1013=
200904131730 METAR LPPR 131730Z 29007KT 250V330 9999 SCT015 14/11 Q1013=
200904131700 METAR LPPR 131700Z 30007KT 260V320 9999 SCT015 15/11 Q1013=
200904131630 METAR LPPR 131630Z 29007KT 240V320 9999 SCT015 15/11 Q1014=
200904131600 METAR LPPR 131600Z 29006KT 220V330 9999 FEW006 SCT015 BKN035
                        14/12 Q1014=
200904131530 METAR LPPR 131530Z 27006KT 240V310 9999 SCT006 BKN015 14/12
                        Q1014=
200904131500 METAR LPPR 131500Z 28006KT 9999 BKN006 BKN025 13/12 Q1014=
200904131430 METAR LPPR 131430Z 29005KT 260V330 9999 SCT009 BKN025 13/12
                        Q1014=
200904131400 METAR LPPR 131400Z 28008KT 250V320 8000 -RA SCT004 BKN025
                        13/12 Q1014=
200904131330 METAR LPPR 131330Z 23004KT 200V270 5000 -RA BR BKN002 BKN004
                        13/13 Q1014=
200904131300 METAR LPPR 131300Z 20010KT 2000 -RA BR BKN002 BKN004 13/12
                        Q1015=
200904131230 METAR LPPR 131230Z 19012KT 2000 -RADZ BR BKN003 BKN006 13/13
                        Q1015=
200904131200 METAR LPPR 131200Z 18013KT 8000 BKN006 BKN013 14/13 Q1015=
200904131130 METAR LPPR 131130Z 19013KT 9999 BKN006 BKN012 14/13 Q1015=
200904131100 METAR LPPR 131100Z 19011KT 9999 BKN005 BKN008 14/12 Q1015=
200904131030 METAR LPPR 131030Z 17010KT 8000 SCT005 BKN008 BKN015 13/12
                        Q1016=
200904131000 METAR LPPR 131000Z 13006KT 8000 SCT004 BKN008 BKN015 12/12
                        Q1016=
200904130930 METAR LPPR 130930Z 13005KT 6000 SCT003 BKN006 BKN015 12/11
                        Q1016=
200904130900 METAR LPPR 130900Z 12004KT 5000 -DZ BR SCT004 BKN007 BKN015
                        11/10 Q1016=
200904130830 METAR LPPR 130830Z 14004KT 100V160 2500 -DZ BR BKN005 BKN015
                        11/10 Q1016=
200904130800 METAR LPPR 130800Z 12007KT 6000 BKN006 BKN015 10/10 Q1016=
200904130730 METAR LPPR 130730Z 11005KT 090V150 5000 BR BKN005 BKN013
                        10/09 Q1016=
200904130700 METAR LPPR 130700Z 11005KT 3000 BR BKN005 BKN013 10/09 Q1016=
200904130630 METAR LPPR 130630Z 12006KT 5000 -DZ BR BKN005 BKN013 10/09
                        Q1016=
200904130600 METAR LPPR 130600Z 12006KT 6000 SCT008 BKN012 BKN080 10/09
                        Q1016=
200904130530 METAR LPPR 130530Z 12004KT 5000 -DZ BR BKN006 BKN012 10/09
                        Q1016=
200904130500 METAR LPPR 130500Z 13004KT 100V160 5000 -DZ BR BKN008 BKN012
                        10/09 Q1016=
200904130430 METAR LPPR 130430Z 12007KT 9999 SCT017 BKN025 10/09 Q1016=
200904130400 METAR LPPR 130400Z 11007KT 9999 SCT017 BKN030 10/09 Q1016=
200904130330 METAR LPPR 130330Z 11007KT 9999 SCT020 SCT040 BKN070 10/09
                        Q1017=
200904130300 METAR LPPR 130300Z 11006KT 9999 SCT020 SCT070 BKN250 10/09
                        Q1017=
200904130230 METAR LPPR 130230Z 11006KT 9999 SCT020 SCT060 BKN250 10/09
                        Q1017=
200904130200 METAR LPPR 130200Z 11005KT 9999 SCT040 10/09 Q1017=
200904130130 METAR LPPR 130130Z 12005KT 9999 SCT017 10/09 Q1018=
200904130100 METAR LPPR 130100Z 00000KT 9999 FEW013 10/09 Q1018=
200904130030 METAR LPPR 130030Z 11004KT 9999 FEW013 10/09 Q1018=
200904130000 METAR LPPR 130000Z 00000KT 9999 FEW013 09/09 Q1018=
200904122330 METAR LPPR 122330Z 00000KT 9999 FEW017 09/09 Q1018=
200904122300 METAR LPPR 122300Z 00000KT CAVOK 10/09 Q1018=
200904122230 METAR LPPR 122230Z 00000KT CAVOK 10/09 Q1019=
200904122200 METAR LPPR 122200Z 00000KT CAVOK 11/09 Q1019=
200904122130 METAR LPPR 122130Z 11002KT CAVOK 11/09 Q1019=
200904122100 METAR LPPR 122100Z VRB03KT CAVOK 11/09 Q1019=
200904122030 METAR LPPR 122030Z 36003KT CAVOK 11/09 Q1019=
200904122000 METAR LPPR 122000Z 32006KT CAVOK 12/10 Q1018=
200904121930 METAR LPPR 121930Z 32007KT 290V350 9999 FEW009 13/10 Q1018=
200904121900 METAR LPPR 121900Z 31008KT 280V340 9999 FEW009 13/10 Q1018=
200904121830 METAR LPPR 121830Z 31007KT 270V330 CAVOK 14/09 Q1018=
200904121800 METAR LPPR 121800Z 32011KT CAVOK 14/09 Q1018=
200904121730 METAR LPPR 121730Z 31010KT 270V330 9999 FEW017 15/09 Q1018=
200904121700 METAR LPPR 121700Z 31011KT 9999 FEW017 SCT060 15/09 Q1018=
200904121630 METAR LPPR 121630Z 32010KT 280V340 9999 FEW017 SCT060 15/10
                        Q1018=
200904121600 METAR LPPR 121600Z 29010KT 260V330 9999 FEW017 SCT060 15/10
                        Q1018=
200904121530 METAR LPPR 121530Z 29010KT 250V330 9999 FEW017 15/09 Q1018=
200904121500 METAR LPPR 121500Z 30010KT 250V340 9999 SCT017 15/09 Q1018=
200904121430 METAR LPPR 121430Z 30009KT 260V340 9999 SCT017 16/09 Q1018=
200904121400 METAR LPPR 121400Z 29010KT 260V330 9999 SCT017 16/09 Q1019=
200904121330 METAR LPPR 121330Z 29010G20KT 250V330 9999 SCT017 15/08 Q1018=
200904121300 METAR LPPR 121300Z 30010KT 260V330 9999 SCT017 16/09 Q1018=
200904121230 METAR LPPR 121230Z 30009KT 270V330 9999 SCT017 15/08 Q1019=
200904121200 METAR LPPR 121200Z 29008KT 250V320 9999 SCT017 14/08 Q1019=
200904121130 METAR LPPR 121130Z 31009KT 270V340 9999 SCT017 15/08 Q1019=
200904121100 METAR LPPR 121100Z 31007KT 260V340 9999 SCT017 15/08 Q1019=
200904121030 METAR LPPR 121030Z 32006KT 270V030 9999 SCT017 15/08 Q1019=
200904121000 METAR LPPR 121000Z 34006KT 290V040 9999 FEW017 SCT060 14/08
                        Q1019=
200904120930 METAR LPPR 120930Z 34005KT 300V070 9999 FEW017 BKN060 14/09
                        Q1019=
200904120900 METAR LPPR 120900Z VRB03KT 9999 FEW015 BKN060 13/09 Q1019=
200904120830 METAR LPPR 120830Z 00000KT 9999 FEW017 SCT060 12/09 Q1019=
200904120800 METAR LPPR 120800Z 00000KT CAVOK 11/08 Q1019=
200904120730 METAR LPPR 120730Z 00000KT 9999 FEW017 SCT060 10/09 Q1019=
200904120700 METAR LPPR 120700Z 00000KT 9999 FEW017 SCT060 08/07 Q1018=
200904120630 METAR LPPR 120630Z 00000KT 9999 SCT025 SCT060 07/07 Q1018=
200904120600 METAR LPPR 120600Z 00000KT 9999 SCT025 SCT060 08/07 Q1018=
200904120530 METAR LPPR 120530Z 00000KT 9999 SCT025 SCT060 08/07 Q1018=
200904120500 METAR LPPR 120500Z 00000KT 9999 SCT020 SCT060 08/07 Q1018=
200904120430 METAR LPPR 120430Z 00000KT CAVOK 08/07 Q1018=
200904120400 METAR LPPR 120400Z 00000KT CAVOK 08/07 Q1018=
200904120330 METAR LPPR 120330Z 00000KT CAVOK 09/08 Q1018=
200904120300 METAR LPPR 120300Z 00000KT CAVOK 10/08 Q1017=
200904120230 METAR LPPR 120230Z 00000KT 9999 BKN040 SCT060 10/08 Q1017=
200904120200 METAR LPPR 120200Z 00000KT 9999 SCT040 SCT060 10/08 Q1017=
200904120130 METAR LPPR 120130Z 00000KT 9999 SCT040 BKN060 10/08 Q1018=
200904120100 METAR LPPR 120100Z VRB02KT 9999 FEW040 BKN060 11/08 Q1018=
200904120030 METAR LPPR 120030Z 00000KT 9999 FEW017 SCT040 BKN060 11/09
                        Q1018=
200904120000 METAR LPPR 120000Z 34002KT 9999 FEW017 SCT040 BKN060 11/08
                        Q1018=
200904112330 METAR LPPR 112330Z 33004KT 9999 FEW017 BKN060 11/09 Q1018=
200904112300 METAR LPPR 112300Z 34002KT 9999 FEW017 SCT060 10/08 Q1018=
200904112230 METAR LPPR 112230Z 34003KT 9999 FEW017 SCT060 10/07 Q1018=
200904112200 METAR LPPR 112200Z 35006KT 9999 FEW017 11/08 Q1018=
200904112130 METAR LPPR 112130Z 34007KT 9999 FEW015 BKN060 11/09 Q1018=
200904112100 METAR LPPR 112100Z 33008KT 9999 FEW015 BKN060 12/09 Q1018=
200904112030 METAR LPPR 112030Z 32010KT 9999 -SHRA SCT015 SCT040 BKN060
                        12/10 Q1017=
200904112000 METAR LPPR 112000Z 33010KT 9999 SCT015 SCT040 BKN060 13/09
                        Q1017=
200904111930 METAR LPPR 111930Z 33009KT 9999 SCT015 BKN040 13/09 Q1017=
200904111900 METAR LPPR 111900Z 32011KT 9999 SCT017 SCT035 BKN060 13/09
                        Q1016=
200904111830 METAR LPPR 111830Z 33014KT 9999 SCT017 SCT060 13/08 Q1016=
200904111800 METAR LPPR 111800Z 32015KT 290V350 9999 SCT017 13/08 Q1016=
200904111730 METAR LPPR 111730Z 33018KT 9999 SCT017 14/08 Q1016=
200904111700 METAR LPPR 111700Z 32014G24KT 290V350 9999 SCT017 14/08 Q1015=
200904111630 METAR LPPR 111630Z 31013KT 280V340 9999 SCT017 14/08 Q1015=
200904111600 METAR LPPR 111600Z 32017KT 9999 SCT017 15/09 Q1015=
200904111530 METAR LPPR 111530Z 32016KT 9999 SCT017 15/08 Q1015=
200904111500 METAR LPPR 111500Z 31016KT 280V340 9999 SCT017 15/08 Q1015=
200904111430 METAR LPPR 111430Z 32016KT 280V340 9999 SCT015 15/09 Q1015=
200904111400 METAR LPPR 111400Z 31013KT 270V340 9999 SCT015 15/09 Q1015=
200904111330 METAR LPPR 111330Z 31014KT 9999 SCT015 SCT035 15/09 Q1015=
200904111300 METAR LPPR 111300Z 30014KT 260V330 9999 SCT015 SCT030 15/08
                        Q1015=
200904111230 METAR LPPR 111230Z 30012KT 270V330 9999 SCT015 14/08 Q1015=
200904111200 METAR LPPR 111200Z 31010KT 280V340 9999 SCT015 SCT040 14/08
                        Q1015=
200904111130 METAR LPPR 111130Z 30011KT 9999 SCT015 SCT040 14/08 Q1015=
200904111100 METAR LPPR 111100Z 31011KT 270V340 9999 SCT015 SCT040 13/09
                        Q1015=
200904111030 METAR LPPR 111030Z 30008KT 260V350 9999 SCT015 SCT040 13/09
                        Q1015=
200904111000 METAR LPPR 111000Z 31006KT 270V350 9999 SCT015 SCT070 12/09
                        Q1014=
200904110930 METAR LPPR 110930Z 31006KT 270V350 9999 SCT015 13/09 Q1014=
200904110900 METAR LPPR 110900Z 33004KT 280V030 9999 SCT015 12/10 Q1014=
200904110830 METAR LPPR 110830Z 31004KT 9999 SCT015 SCT070 11/09 Q1014=
200904110800 METAR LPPR 110800Z 00000KT 9999 FEW015 BKN040 10/10 Q1014=
200904110730 METAR LPPR 110730Z 00000KT 9999 SCT015 SCT040 10/10 Q1013=
200904110700 METAR LPPR 110700Z 00000KT 9999 FEW015 BKN035 10/09 Q1013=
200904110630 METAR LPPR 110630Z 00000KT 9999 FEW015 BKN035 10/09 Q1013=
200904110600 METAR LPPR 110600Z 00000KT 9999 FEW015 BKN030 09/09 Q1013=
200904110530 METAR LPPR 110530Z 00000KT 9999 FEW015 BKN040 09/09 Q1012=
200904110500 METAR LPPR 110500Z VRB02KT 9999 -SHRA SCT015 BKN040 09/09
                        Q1012=
200904110430 METAR LPPR 110430Z 10004KT 9999 SCT015 BKN035 09/09 Q1012=
200904110400 METAR LPPR 110400Z 12003KT 9999 SCT015 BKN045 09/09 Q1012=
200904110330 METAR LPPR 110330Z VRB02KT 9999 SCT015 FEW020CB BKN045 09/08
                        Q1012=
200904110300 METAR LPPR 110300Z VRB02KT 9999 SCT015 FEW020CB BKN050 08/08
                        Q1012=
200904110230 METAR LPPR 110230Z 00000KT 9999 SCT015 FEW020CB BKN060 08/07
                        Q1012=
200904110200 METAR LPPR 110200Z 00000KT 9999 FEW015 FEW020CB 09/08 Q1012=
200904110130 METAR LPPR 110130Z 00000KT 9999 FEW015 BKN050 09/08 Q1012=
200904110100 METAR LPPR 110100Z 16002KT 9999 FEW015 SCT045 BKN080 09/08
                        Q1012=
200904110030 METAR LPPR 110030Z 00000KT 9999 SCT015 SCT040 BKN045 10/09
                        Q1012=
200904110000 METAR LPPR 110000Z 00000KT 9999 SCT015 BKN040 10/09 Q1013=
200904102330 METAR LPPR 102330Z 00000KT 9999 -SHRA SCT015 SCT030 BKN045
                        10/08 Q1013=
200904102300 METAR LPPR 102300Z 01002KT 9999 -SHRA SCT015 BKN035 10/08
                        Q1013=
200904102230 METAR LPPR 102230Z 30004KT 270V340 9999 SCT015 BKN035 10/08
                        Q1013=
200904102200 METAR LPPR 102200Z 29004KT 260V330 9999 SCT015 BKN040 11/08
                        Q1013=
200904102130 METAR LPPR 102130Z 31006KT 260V330 9999 SCT015 BKN040 11/09
                        Q1013=
200904102100 METAR LPPR 102100Z 32003KT 9999 -SHRA SCT015 BKN040 11/07
                        Q1013=
200904102030 METAR LPPR 102030Z 32004KT 9999 FEW015 SCT025 12/07 Q1012=
200904102000 METAR LPPR 102000Z 31004KT 9999 FEW015 BKN025 11/07 Q1012=
200904101930 METAR LPPR 101930Z 31005KT 270V330 9999 FEW015 BKN030 11/07
                        Q1012=
200904101900 METAR LPPR 101900Z 31006KT 270V340 9999 SCT015 SCT025 12/07
                        Q1012=
200904101830 METAR LPPR 101830Z 31008KT 280V350 9999 SCT015 12/06 Q1012=
200904101800 METAR LPPR 101800Z 31009KT 9999 SCT015 13/08 Q1012=
200904101730 METAR LPPR 101730Z 31010KT 9999 SCT015 SCT080 13/07 Q1012=
200904101700 METAR LPPR 101700Z 31009KT 9999 SCT015 13/07 Q1012=
200904101630 METAR LPPR 101630Z 32010KT 290V350 9999 SCT015 13/07 Q1012=
200904101600 METAR LPPR 101600Z 31009KT 270V340 9999 SCT015 13/07 Q1012=
200904101530 METAR LPPR 101530Z 34008KT 290V010 9999 SCT015 FEW020CB 12/08
                        Q1012=
200904101500 METAR LPPR 101500Z 31014KT 260V330 9999 SCT015 SCT030 14/08
                        Q1012=
200904101430 METAR LPPR 101430Z 31017KT 9999 SCT015 FEW020CB 13/07 Q1012=
200904101400 METAR LPPR 101400Z 31016KT 270V340 9999 SCT015 FEW020CB 13/06
                        Q1012=
200904101330 METAR LPPR 101330Z 29009KT 250V340 9999 SCT015 FEW020CB 13/07
                        Q1012=
200904101300 METAR LPPR 101300Z 32011KT 270V330 9999 SCT015 FEW020CB 12/07
                        Q1012=
200904101230 METAR LPPR 101230Z 32007KT 280V350 9999 SCT015 FEW020CB 11/07
                        Q1012 RERA=
200904101200 METAR LPPR 101200Z 32014G27KT 260V350 8000 SHRA SCT015 FEW020CB
                        11/07 Q1012=
200904101130 METAR LPPR 101130Z VRB03KT 9999 SCT015 FEW020CB 12/07 Q1012=
200904101100 METAR LPPR 101100Z VRB03KT 9999 SCT015 FEW020CB 11/07 Q1012=
200904101030 METAR LPPR 101030Z VRB03KT 8000 -SHRA FEW008 SCT015 FEW020CB
                        BKN030 10/07 Q1012=
200904101000 METAR LPPR 101000Z 30004G14KT 240V360 8000 -SHRA FEW008 SCT015
                        FEW020CB 10/06 Q1012=
200904100930 METAR LPPR 100930Z VRB02KT 9999 SCT015 FEW020CB 11/07 Q1012=
200904100900 METAR LPPR 100900Z 00000KT 9999 SCT015 FEW020CB 09/05 Q1012=
200904100830 METAR LPPR 100830Z 05004KT 020V110 9999 SCT015 FEW020CB 08/06
                        Q1011=
200904100800 METAR LPPR 100800Z VRB02KT 9999 SCT015 FEW020CB 09/05 Q1011=
200904100730 METAR LPPR 100730Z 00000KT 9999 SCT015 FEW020CB 08/06 Q1011=
200904100700 METAR LPPR 100700Z VRB03KT 9999 SCT015 SCT020CB 07/05 Q1010
                        RERA=
200904100630 METAR LPPR 100630Z 34015G25KT 320V020 8000 SHRA BKN015 SCT020CB
                        07/05 Q1010 WS ALL RWY=
200904100600 METAR LPPR 100600Z 34012KT 9999 SCT015 SCT020CB 08/05 Q1009=
200904100530 METAR LPPR 100530Z 32011KT 280V350 9999 SCT015 FEW020CB SCT030
                        09/04 Q1009=
200904100500 METAR LPPR 100500Z 35009KT 9999 SCT015 FEW020CB SCT030 07/05
                        Q1009=
200904100430 METAR LPPR 100430Z 35011KT 320V020 9999 SCT015 FEW020CB BKN030
                        08/06 Q1009=
200904100400 METAR LPPR 100400Z 33010KT 9999 -SHRA SCT015 FEW020CB BKN030
                        08/05 Q1009=
200904100330 METAR LPPR 100330Z 33015KT 9999 FEW015 FEW020CB SCT030 08/05
                        Q1008=
200904100300 METAR LPPR 100300Z 31011G21KT 9999 FEW015 FEW020CB SCT030
                        09/03 Q1008=
200904100230 METAR LPPR 100230Z 31014G25KT 9999 FEW015 SCT025 09/05 Q1008=
200904100200 METAR LPPR 100200Z 31015G25KT 9999 FEW015 SCT023 10/06 Q1008=
200904100130 METAR LPPR 100130Z 32012KT 9999 SCT015 SCT025 BKN080 10/07
                        Q1008=
200904100100 METAR LPPR 100100Z 31011KT 8000 -SHRA SCT015 BKN025 09/07
                        Q1008=
200904100030 METAR LPPR 100030Z 31016KT 270V340 6000 -SHRA FEW005 SCT015
                        BKN030 10/07 Q1008=
200904100000 METAR LPPR 100000Z 32010KT 8000 -SHRA SCT015 BKN023 11/08
                        Q1008=
200904092330 METAR LPPR 092330Z 29010KT 260V320 9999 SCT015 SCT025 12/08
                        Q1008=
200904092300 METAR LPPR 092300Z 30009KT 260V330 9999 FEW005 SCT015 BKN025
                        12/09 Q1008=
200904092230 METAR LPPR 092230Z 28006KT 250V320 9999 FEW005 SCT015 BKN030
                        12/10 Q1008=
200904092200 METAR LPPR 092200Z 27008KT 160V310 6000 -SHRA SCT004 SCT015
                        BKN030 12/11 Q1008=
200904092130 METAR LPPR 092130Z 28008KT 260V330 5000 -SHRA BR SCT005 SCT015
                        BKN030 12/11 Q1008=
200904092100 METAR LPPR 092100Z 29007KT 260V330 8000 SCT015 BKN030 11/11
                        Q1008=
200904092030 METAR LPPR 092030Z 25011KT 220V290 3000 -RADZ BR SCT004 SCT006
                        BKN015 13/12 Q1008=
200904092000 METAR LPPR 092000Z 20009KT 8000 SCT003 SCT012 BKN020 13/13
                        Q1008=
200904091930 METAR LPPR 091930Z 20008KT 180V240 7000 BKN005 BKN013 13/12
                        Q1008=
200904091900 METAR LPPR 091900Z 20008KT 7000 SCT003 BKN006 13/12 Q1008=
200904091830 METAR LPPR 091830Z 19009KT 9000 SCT003 SCT006 FEW013TCU 13/12
                        Q1009=
200904091800 METAR LPPR 091800Z 21010KT 150V240 9999 SCT006 SCT012 FEW017TCU
                        BKN030 13/12 Q1009=
200904091730 METAR LPPR 091730Z 22006KT 9999 FEW006 SCT012 FEW017TCU BKN030
                        13/13 Q1009=
200904091700 METAR LPPR 091700Z 18008KT 6000 RA SCT006 BKN017 13/12 Q1009=
200904091630 METAR LPPR 091630Z 20010KT 5000 -RA BR FEW008 SCT012 BKN030
                        13/12 Q1009=
200904091600 METAR LPPR 091600Z 18015KT 4000 -RA BR FEW008 BKN012 BKN020
                        13/12 Q1009=
200904091530 METAR LPPR 091530Z 18015KT 5000 -RA SCT008 BKN020 13/12 Q1010
                        RERA=
200904091500 METAR LPPR 091500Z 18013KT 8000 -RA SCT008 SCT013 BKN025
                        13/12 Q1010=
200904091430 METAR LPPR 091430Z 17016KT 7000 -RA SCT006 BKN020 13/12 Q1011=
200904091400 METAR LPPR 091400Z 17017KT 9999 FEW012 BKN040 13/12 Q1011=
200904091330 METAR LPPR 091330Z 18016KT 8000 -RA FEW012 BKN040 13/12 Q1011=
200904091300 METAR LPPR 091300Z 18016KT 8000 -RA FEW012 BKN035 13/11 Q1012=
200904091230 METAR LPPR 091230Z 18015KT 9999 -RA FEW012 BKN030 14/11 Q1012=
200904091200 METAR LPPR 091200Z 19015KT 9999 FEW012 BKN040 14/10 Q1012=
200904091130 METAR LPPR 091130Z 18018KT 9999 FEW012 BKN030 14/10 Q1013=
200904091100 METAR LPPR 091100Z 18017KT 9999 FEW012 BKN035 14/10 Q1013=
200904091030 METAR LPPR 091030Z 18017KT 9999 FEW012 BKN035 14/10 Q1013=
200904091000 METAR LPPR 091000Z 18016KT 9999 FEW014 SCT020 BKN050 15/10
                        Q1013=
200904090930 METAR LPPR 090930Z 18015KT 9999 FEW014 SCT020 BKN250 15/11
                        Q1013=
200904090900 METAR LPPR 090900Z 18013KT 9999 FEW015 SCT020 BKN250 14/10
                        Q1013=
200904090830 METAR LPPR 090830Z 17011KT 9999 FEW015 SCT030 13/10 Q1013=
200904090800 METAR LPPR 090800Z 16008KT 9999 FEW015 BKN030 12/10 Q1013=
200904090730 METAR LPPR 090730Z 13005KT 9999 FEW015 SCT025 11/09 Q1013=
200904090700 METAR LPPR 090700Z 12005KT 9999 FEW015 SCT025 10/09 Q1013=
200904090630 METAR LPPR 090630Z 11007KT 9999 FEW015 SCT025 10/09 Q1013=
200904090600 METAR LPPR 090600Z 12007KT 9999 FEW015 SCT025 10/09 Q1013=
200904090530 METAR LPPR 090530Z 11008KT 8000 FEW015 BKN025 10/09 Q1013=
200904090500 METAR LPPR 090500Z 11006KT 8000 FEW015 BKN025 10/09 Q1013=
200904090430 METAR LPPR 090430Z 11007KT 8000 SCT015 10/09 Q1013=
200904090400 METAR LPPR 090400Z 11008KT 8000 SCT015 10/10 Q1014=
200904090330 METAR LPPR 090330Z 11007KT 8000 FEW006 SCT015 10/09 Q1014=
200904090300 METAR LPPR 090300Z 11006KT 8000 FEW008 SCT015 10/10 Q1014=
200904090230 METAR LPPR 090230Z 11006KT 8000 FEW008 SCT016 10/10 Q1015=
200904090200 METAR LPPR 090200Z 12006KT 8000 FEW008 SCT016 11/10 Q1015=
200904090130 METAR LPPR 090130Z 11005KT 8000 FEW008 SCT017 11/10 Q1015=
200904090100 METAR LPPR 090100Z 11004KT 8000 FEW008 SCT015 10/10 Q1016=
200904090030 METAR LPPR 090030Z 12003KT 8000 FEW008 SCT015 10/09 Q1016=
200904090000 METAR LPPR 090000Z 00000KT 9999 FEW008 SCT015 10/09 Q1016=
200904082330 METAR LPPR 082330Z 00000KT 9999 FEW008 SCT015 11/10 Q1016=
200904082300 METAR LPPR 082300Z 00000KT 9999 FEW008 SCT015 11/10 Q1016=
200904082230 METAR LPPR 082230Z 00000KT 9999 FEW008 SCT015 11/10 Q1017=
200904082200 METAR LPPR 082200Z 00000KT 9999 FEW008 SCT015 11/10 Q1017=
200904082130 METAR LPPR 082130Z 00000KT 9999 FEW008 SCT015 11/11 Q1017=
200904082100 METAR LPPR 082100Z 00000KT 9999 FEW008 BKN250 11/10 Q1017=
200904082030 METAR LPPR 082030Z VRB03KT 9999 FEW008 BKN250 12/11 Q1017=
200904082000 METAR LPPR 082000Z 32003KT 9999 FEW008 BKN250 12/10 Q1017=
200904081930 METAR LPPR 081930Z 32004KT 9999 FEW008 BKN250 13/10 Q1017=
200904081900 METAR LPPR 081900Z 32005KT 270V340 CAVOK 13/11 Q1017=
200904081830 METAR LPPR 081830Z 32007KT CAVOK 14/11 Q1017=
200904081800 METAR LPPR 081800Z 31008KT 270V330 CAVOK 15/11 Q1017=
200904081730 METAR LPPR 081730Z 32009KT 280V340 CAVOK 15/10 Q1017=
200904081700 METAR LPPR 081700Z 30009KT CAVOK 15/10 Q1017=
200904081630 METAR LPPR 081630Z 30010KT 270V330 CAVOK 15/10 Q1017=
200904081600 METAR LPPR 081600Z 30009KT 260V350 9999 FEW020 SCT250 16/11
                        Q1018=
200904081530 METAR LPPR 081530Z 29009KT 250V350 9999 FEW020 SCT250 16/10
                        Q1018=
200904081500 METAR LPPR 081500Z 29009KT 260V330 9999 FEW020 BKN250 15/10
                        Q1018=
200904081430 METAR LPPR 081430Z 28009KT 240V310 9999 FEW020 SCT250 16/10
                        Q1018=
200904081400 METAR LPPR 081400Z 29009KT 250V330 9999 FEW020 SCT250 16/10
                        Q1019=
200904081330 METAR LPPR 081330Z 28007KT 250V310 9999 FEW020 SCT250 16/10
                        Q1019=
200904081300 METAR LPPR 081300Z 25006KT 220V300 9999 FEW020 16/10 Q1020=
200904081230 METAR LPPR 081230Z 27005G17KT 230V330 9999 SCT020 15/10 Q1020=
200904081200 METAR LPPR 081200Z VRB03G13KT 9999 BKN020 15/09 Q1020=
200904081130 METAR LPPR 081130Z VRB03KT 9999 SCT018 16/10 Q1021=
200904081100 METAR LPPR 081100Z VRB02KT 9999 SCT017 SCT025 15/10 Q1021=
200904081030 METAR LPPR 081030Z VRB02KT 9999 SCT015 SCT030 15/09 Q1022=
200904081000 METAR LPPR 081000Z 10005KT 050V130 9999 FEW015 SCT030 13/09
                        Q1022=
200904080930 METAR LPPR 080930Z 10005KT 9999 FEW015 BKN030 12/08 Q1022=
200904080900 METAR LPPR 080900Z 11005KT 070V130 9999 SCT015 BKN030 11/08
                        Q1022=
200904080830 METAR LPPR 080830Z 11004KT 9999 SCT015 BKN030 11/08 Q1022=
200904080800 METAR LPPR 080800Z 11006KT 9999 BKN025 10/08 Q1022=
200904080730 METAR LPPR 080730Z 11007KT 9999 FEW015 BKN025 10/07 Q1022=
200904080700 METAR LPPR 080700Z 11006KT 9999 FEW015 BKN025 09/07 Q1021=
200904080630 METAR LPPR 080630Z 10006KT 9999 FEW015 BKN025 09/07 Q1021=
200904080600 METAR LPPR 080600Z 10006KT 9999 FEW015 BKN020 09/07 Q1021=
200904080530 METAR LPPR 080530Z 11006KT 9999 FEW017 BKN030 09/07 Q1021=
200904080500 METAR LPPR 080500Z 10006KT 9999 FEW017 BKN030 09/07 Q1021=
200904080430 METAR LPPR 080430Z VRB03KT 9999 FEW017 BKN030 09/07 Q1021=
200904080400 METAR LPPR 080400Z 11006KT 9999 FEW017 SCT030 BKN250 09/07
                        Q1021=
200904080330 METAR LPPR 080330Z 11006KT 9999 FEW017 BKN250 09/07 Q1021=
200904080300 METAR LPPR 080300Z 11005KT 9999 FEW017 SCT035 BKN250 09/07
                        Q1021=
200904080230 METAR LPPR 080230Z 11006KT 9999 FEW017 SCT035 BKN250 09/07
                        Q1021=
200904080200 METAR LPPR 080200Z 11004KT 9999 FEW017 BKN250 09/07 Q1022=
200904080130 METAR LPPR 080130Z 00000KT 9999 FEW017 BKN250 08/06 Q1022=
200904080100 METAR LPPR 080100Z 00000KT 9999 FEW017 BKN250 09/07 Q1022=
200904080030 METAR LPPR 080030Z 11003KT 9999 FEW017 BKN250 09/08 Q1022=
200904080000 METAR LPPR 080000Z 00000KT 9999 FEW017 BKN250 08/07 Q1022=
200904072330 METAR LPPR 072330Z 00000KT 9999 FEW017 BKN250 08/07 Q1022=
200904072300 METAR LPPR 072300Z 00000KT 9999 FEW017 BKN250 09/07 Q1022=
200904072230 METAR LPPR 072230Z 00000KT 9999 FEW017 BKN250 10/07 Q1022=
200904072200 METAR LPPR 072200Z 09002KT 9999 FEW017 BKN250 10/07 Q1022=
200904072130 METAR LPPR 072130Z VRB03KT 9999 FEW017 BKN250 10/07 Q1023=
200904072100 METAR LPPR 072100Z 00000KT 9999 FEW017 BKN250 10/07 Q1022=
200904072030 METAR LPPR 072030Z 33004KT 9999 FEW017 BKN250 10/07 Q1022=
200904072000 METAR LPPR 072000Z 33004KT 9999 FEW017 BKN250 11/07 Q1022=
200904071930 METAR LPPR 071930Z 34003KT 9999 FEW017 BKN250 12/07 Q1022=
200904071900 METAR LPPR 071900Z 32006KT 9999 FEW017 BKN250 12/07 Q1021=
200904071830 METAR LPPR 071830Z 32007KT 270V340 9999 FEW017 BKN250 13/07
                        Q1021=
200904071800 METAR LPPR 071800Z 32011KT 9999 FEW017 BKN250 13/07 Q1021=
200904071730 METAR LPPR 071730Z 32011KT 9999 FEW017 BKN250 14/07 Q1021=
200904071700 METAR LPPR 071700Z 31011KT 290V350 9999 FEW017 BKN250 14/06
                        Q1021=
200904071630 METAR LPPR 071630Z 31011KT 280V340 9999 FEW017 SCT250 14/07
                        Q1020=
200904071600 METAR LPPR 071600Z 31010KT 280V340 9999 FEW017 SCT250 15/07
                        Q1020=
200904071530 METAR LPPR 071530Z 31011KT 260V340 9999 FEW017 SCT250 15/07
                        Q1020=
200904071500 METAR LPPR 071500Z 29010KT 260V330 9999 SCT017 SCT250 15/07
                        Q1020=
200904071430 METAR LPPR 071430Z 31010KT 270V350 9999 SCT017 15/07 Q1020=
200904071400 METAR LPPR 071400Z 30012KT 270V330 9999 SCT017 14/07 Q1020=
200904071330 METAR LPPR 071330Z 29012KT 260V320 9999 SCT017 14/06 Q1020=
200904071300 METAR LPPR 071300Z 30011KT 270V330 9999 SCT017 14/07 Q1020=
200904071230 METAR LPPR 071230Z 32011KT 9999 SCT017 14/07 Q1020=
200904071200 METAR LPPR 071200Z 31010KT 270V350 9999 SCT017 14/07 Q1020=
200904071130 METAR LPPR 071130Z 33005KT 250V030 9999 SCT017 14/08 Q1020=
200904071100 METAR LPPR 071100Z 31006KT 270V350 9999 SCT017 13/08 Q1020=
200904071030 METAR LPPR 071030Z 30008KT 260V330 9999 BKN017 SCT030 13/08
                        Q1020=
200904071000 METAR LPPR 071000Z 32009KT 290V010 9999 BKN017 SCT030 13/08
                        Q1020=
200904070930 METAR LPPR 070930Z 01004KT 340V060 9999 SCT017 SCT030 13/08
                        Q1020=
200904070900 METAR LPPR 070900Z 00000KT 9999 SCT017 SCT030 12/08 Q1019=
200904070830 METAR LPPR 070830Z 00000KT 9999 SCT017 SCT030 10/09 Q1019=
200904070800 METAR LPPR 070800Z 00000KT 9999 -SHRA SCT017 FEW020TCU SCT030
                        09/08 Q1019=
200904070730 METAR LPPR 070730Z 11003KT 9999 SCT017 FEW020TCU SCT030 09/08
                        Q1018=
200904070700 METAR LPPR 070700Z 10004KT 9999 SCT017 FEW020TCU 08/07 Q1018=
200904070630 METAR LPPR 070630Z 00000KT 9999 SCT015 FEW020TCU 07/06 Q1018=
200904070600 METAR LPPR 070600Z 10003KT 9999 SCT015 08/07 Q1017=
200904070530 METAR LPPR 070530Z 00000KT 9999 FEW015 SCT030 08/07 Q1017=
200904070500 METAR LPPR 070500Z VRB03KT 9999 FEW015 SCT030 08/07 Q1017=
200904070430 METAR LPPR 070430Z 02004KT 350V050 9999 FEW015 SCT030 08/07
                        Q1017=
200904070400 METAR LPPR 070400Z VRB03KT 9000 -SHRA SCT013 FEW020TCU SCT030
                        08/07 Q1017 RERA=
200904070330 METAR LPPR 070330Z 00000KT 9999 SCT013 SCT030 08/07 Q1016=
200904070300 METAR LPPR 070300Z 15002KT 9999 FEW013 SCT030 08/08 Q1016=
200904070230 METAR LPPR 070230Z 00000KT 9999 -SHRA SCT013 SCT030 08/07
                        Q1017=
200904070200 METAR LPPR 070200Z 00000KT 9999 SCT015 SCT025 08/07 Q1017=
200904070130 METAR LPPR 070130Z VRB02KT 7000 -SHRA SCT015 SCT025 08/07
                        Q1017=
200904070100 METAR LPPR 070100Z 00000KT 9999 FEW015 SCT040 07/05 Q1017=
200904070030 METAR LPPR 070030Z 00000KT 9999 FEW015 07/06 Q1017=
200904070000 METAR LPPR 070000Z 00000KT 9999 FEW015 08/06 Q1017=
200904062330 METAR LPPR 062330Z 00000KT 9999 FEW015 08/06 Q1017=
200904062300 METAR LPPR 062300Z 00000KT 9999 FEW015 09/07 Q1017=
200904062230 METAR LPPR 062230Z 00000KT 9999 FEW015 09/07 Q1017=
200904062200 METAR LPPR 062200Z 34003KT 9999 FEW009 09/07 Q1017=
200904062130 METAR LPPR 062130Z 36003KT 9999 FEW017 SCT030 10/07 Q1017=
200904062100 METAR LPPR 062100Z 33006KT 9999 FEW017 SCT040 11/08 Q1017=
200904062030 METAR LPPR 062030Z 32007KT 9999 SCT017 11/07 Q1016=
200904062000 METAR LPPR 062000Z 33006KT 9999 SCT017 11/08 Q1016=
200904061930 METAR LPPR 061930Z 32007KT 290V010 9999 SCT017 11/08 Q1016=
200904061900 METAR LPPR 061900Z 32008KT 9999 BKN015 12/08 Q1016=
200904061830 METAR LPPR 061830Z 32010KT 280V350 9999 BKN015 14/08 Q1015=
200904061800 METAR LPPR 061800Z 31009KT 9999 BKN015 14/09 Q1015=
200904061730 METAR LPPR 061730Z 32010KT 280V340 9999 BKN015 14/09 Q1015=
200904061700 METAR LPPR 061700Z 32009KT 250V350 9999 BKN015 15/10 Q1015=
200904061630 METAR LPPR 061630Z 31010KT 270V330 9999 BKN015 14/10 Q1015=
200904061600 METAR LPPR 061600Z 28007KT 230V320 9999 SCT015 BKN025 14/12
                        Q1015=
200904061530 METAR LPPR 061530Z 24006KT 200V280 9999 SCT015 BKN030 13/11
                        Q1015=
200904061500 METAR LPPR 061500Z 24008KT 200V270 7000 -SHRA FEW007 SCT015
                        BKN030 13/11 Q1015=
200904061430 METAR LPPR 061430Z 21009KT 180V250 9999 SCT007 BKN015 14/12
                        Q1015=
200904061400 METAR LPPR 061400Z 20008KT 9999 SCT007 BKN015 14/12 Q1015=
200904061330 METAR LPPR 061330Z 22008KT 180V240 9999 SCT008 SCT015 BKN025
                        14/11 Q1016=
200904061300 METAR LPPR 061300Z 21009KT 8000 FEW008 SCT015 BKN025 13/11
                        Q1016=
200904061230 METAR LPPR 061230Z 20006KT 7000 SCT005 SCT008 BKN025 13/12
                        Q1016=
200904061200 METAR LPPR 061200Z 22005KT 180V250 7000 SCT005 SCT008 BKN025
                        13/11 Q1016=
200904061130 METAR LPPR 061130Z 16004KT 130V190 7000 SCT005 SCT008 BKN025
                        13/12 Q1016=
200904061100 METAR LPPR 061100Z 16006KT 140V200 6000 -RA SCT004 SCT008
                        BKN020 12/11 Q1016=
200904061030 METAR LPPR 061030Z 14007KT 120V180 5000 -RA BR SCT004 SCT008
                        BKN020 12/11 Q1016=
200904061000 METAR LPPR 061000Z 15007KT 5000 -RA BR SCT004 SCT008 BKN020
                        12/11 Q1016=
200904060930 METAR LPPR 060930Z 13007KT 5000 -RA BR SCT003 SCT006 BKN020
                        12/11 Q1016=
200904060900 METAR LPPR 060900Z 13006KT 5000 -RADZ BR SCT003 SCT006 BKN017
                        12/11 Q1016=
200904060830 METAR LPPR 060830Z 16005KT 3000 -DZ BR SCT001 SCT004 BKN013
                        12/11 Q1016=
200904060800 METAR LPPR 060800Z VRB03KT 3000 -RA BR SCT001 SCT005 BKN013
                        12/11 Q1016=
200904060730 METAR LPPR 060730Z 23008KT 190V290 3000 -RA BR SCT005 BKN008
                        BKN015 11/11 Q1016=
200904060700 METAR LPPR 060700Z 16006KT 4000 BR SCT009 BKN015 11/10 Q1016=
200904060630 METAR LPPR 060630Z 13007KT 9999 SCT017 BKN030 11/09 Q1015=
200904060600 METAR LPPR 060600Z 13007KT 9999 SCT020 BKN040 11/09 Q1015=
200904060530 METAR LPPR 060530Z 14004KT 8000 FEW015 BKN030 11/09 Q1015=
200904060500 METAR LPPR 060500Z 13005KT 8000 FEW015 SCT025 BKN040 11/09
                        Q1015=
200904060430 METAR LPPR 060430Z 12005KT 8000 FEW015 BKN040 11/09 Q1016=
200904060400 METAR LPPR 060400Z 12005KT 8000 FEW015 BKN040 11/09 Q1016=
200904060330 METAR LPPR 060330Z 11005KT 8000 FEW015 BKN040 10/09 Q1016=
200904060300 METAR LPPR 060300Z 11004KT 8000 FEW015 SCT070 10/09 Q1016=
200904060230 METAR LPPR 060230Z 00000KT 8000 FEW015 SCT070 09/08 Q1017=
200904060200 METAR LPPR 060200Z 12005KT 8000 FEW015 SCT070 10/09 Q1017=
200904060130 METAR LPPR 060130Z VRB02KT 9999 FEW015 SCT020 09/08 Q1017=
200904060100 METAR LPPR 060100Z 00000KT 9999 FEW015 SCT020 09/08 Q1018=
200904060030 METAR LPPR 060030Z 00000KT 9999 SCT015 SCT020 08/08 Q1018=
200904060000 METAR LPPR 060000Z 00000KT 9999 SCT015 08/07 Q1018=
200904052330 METAR LPPR 052330Z 00000KT 9999 SCT015 08/07 Q1018=
200904052300 METAR LPPR 052300Z 00000KT 9999 FEW015 SCT070 09/08 Q1019=
200904052230 METAR LPPR 052230Z 00000KT 9999 FEW015 SCT070 09/08 Q1019=
200904052200 METAR LPPR 052200Z 00000KT 9999 FEW015 10/08 Q1019=
200904052130 METAR LPPR 052130Z 00000KT 9999 FEW015 10/09 Q1019=
200904052100 METAR LPPR 052100Z 00000KT 9999 FEW015 SCT020 11/09 Q1019=
200904052030 METAR LPPR 052030Z 00000KT 9999 SCT015 SCT020 11/09 Q1019=
200904052000 METAR LPPR 052000Z 00000KT 9999 SCT015 SCT020 12/09 Q1019=
200904051930 METAR LPPR 051930Z 28002KT 9999 SCT015 SCT020 12/09 Q1019=
200904051900 METAR LPPR 051900Z VRB03G15KT 9999 SCT014 SCT030 13/10 Q1019=
200904051830 METAR LPPR 051830Z VRB03KT 9999 SCT012 BKN030 13/10 Q1019=
200904051800 METAR LPPR 051800Z 28004KT 220V330 9999 SCT012 14/10 Q1019=
200904051730 METAR LPPR 051730Z 27005KT 230V320 9999 SCT012 SCT030 14/10
                        Q1019=
200904051700 METAR LPPR 051700Z 28006KT 9999 FEW011 BKN030 13/10 Q1019=
200904051630 METAR LPPR 051630Z 27006KT 190V320 9999 FEW008 SCT011 BKN030
                        13/10 Q1019=
200904051600 METAR LPPR 051600Z 25005KT 210V300 9999 FEW008 SCT011 BKN030
                        14/10 Q1019=
200904051530 METAR LPPR 051530Z 25005KT 210V020 9999 FEW008 SCT011 BKN030
                        14/10 Q1020=
200904051500 METAR LPPR 051500Z 24007KT 200V300 9999 SCT011 BKN030 15/10
                        Q1020=
200904051430 METAR LPPR 051430Z 24007KT 200V270 9999 SCT012 BKN250 15/10
                        Q1020=
200904051400 METAR LPPR 051400Z 25007KT 210V300 9999 SCT013 BKN250 15/11
                        Q1020=
200904051330 METAR LPPR 051330Z 23007G19KT 190V290 9999 SCT013 SCT250
                        16/10 Q1021=
200904051300 METAR LPPR 051300Z 21007KT 180V260 9999 SCT013 16/10 Q1021=
200904051230 METAR LPPR 051230Z 22006KT 180V270 9999 SCT014 SCT019 15/10
                        Q1021=
200904051200 METAR LPPR 051200Z 21005KT 160V270 9999 SCT014 SCT019 15/11
                        Q1021=
200904051130 METAR LPPR 051130Z 19005KT 160V220 9999 FEW014 BKN019 14/10
                        Q1021=
200904051100 METAR LPPR 051100Z VRB02KT 9999 FEW014 BKN019 14/10 Q1021=
200904051030 METAR LPPR 051030Z VRB03KT 9999 FEW013 BKN018 14/10 Q1022=
200904051000 METAR LPPR 051000Z 17004KT 130V230 9999 FEW013 BKN018 14/10
                        Q1022=
200904050930 METAR LPPR 050930Z 13004KT 100V170 9999 FEW012 BKN016 13/10
                        Q1022=
200904050900 METAR LPPR 050900Z 11005KT 9000 FEW012 BKN016 12/10 Q1022=
200904050830 METAR LPPR 050830Z 10006KT 070V140 8000 FEW012 BKN016 12/10
                        Q1022=
200904050800 METAR LPPR 050800Z 11005KT 080V140 8000 SCT009 BKN015 11/10
                        Q1021=
200904050730 METAR LPPR 050730Z 10006KT 8000 SCT009 BKN012 11/09 Q1021=
200904050700 METAR LPPR 050700Z 11006KT 8000 SCT009 BKN012 11/09 Q1021=
200904050630 METAR LPPR 050630Z 11005KT 8000 SCT009 BKN012 11/09 Q1021=
200904050600 METAR LPPR 050600Z 11006KT 9999 SCT008 BKN011 11/09 Q1021=
200904050530 METAR LPPR 050530Z 11006KT 9999 SCT008 BKN011 11/09 Q1021=
200904050500 METAR LPPR 050500Z 12006KT 9999 SCT008 BKN011 11/10 Q1021=
200904050430 METAR LPPR 050430Z 10005KT 7000 BKN007 BKN008 11/09 Q1021=
200904050400 METAR LPPR 050400Z 09005KT 7000 BKN007 BKN008 11/10 Q1022=
200904050330 METAR LPPR 050330Z 11004KT 7000 BKN007 BKN008 11/10 Q1022=
200904050300 METAR LPPR 050300Z 12003KT 7000 SCT007 SCT008 12/10 Q1022=
200904050230 METAR LPPR 050230Z 11003KT 8000 SCT007 BKN009 12/11 Q1022=
200904050200 METAR LPPR 050200Z 12003KT 9999 BKN008 12/11 Q1022=
200904050130 METAR LPPR 050130Z 00000KT 9000 SCT007 BKN008 12/11 Q1023=
200904050100 METAR LPPR 050100Z 00000KT 8000 BKN005 BKN007 12/11 Q1023=
200904050030 METAR LPPR 050030Z 00000KT 9000 SCT005 BKN007 12/11 Q1023=
200904050000 METAR LPPR 050000Z 00000KT 9000 SCT005 BKN008 11/11 Q1023=
200904042330 METAR LPPR 042330Z 00000KT 9000 SCT005 BKN008 11/11 Q1023=
200904042300 METAR LPPR 042300Z 00000KT 9000 SCT006 BKN008 11/11 Q1024=
200904042230 METAR LPPR 042230Z 32004KT 9999 BKN006 11/11 Q1024=
200904042200 METAR LPPR 042200Z 31005KT 9999 FEW015 12/11 Q1024=
200904042130 METAR LPPR 042130Z 32006KT CAVOK 12/11 Q1024=
200904042100 METAR LPPR 042100Z 31006KT CAVOK 12/11 Q1024=
200904042030 METAR LPPR 042030Z 32006G16KT 280V350 CAVOK 12/11 Q1024=
200904042000 METAR LPPR 042000Z 32006KT CAVOK 12/10 Q1024=
200904041930 METAR LPPR 041930Z 33007KT 9999 FEW011 SCT250 12/11 Q1023=
200904041900 METAR LPPR 041900Z 32008KT 9999 FEW012 BKN250 13/11 Q1023=
200904041830 METAR LPPR 041830Z 33009G20KT 290V360 9999 FEW012 BKN250
                        14/11 Q1023=
200904041800 METAR LPPR 041800Z 32011KT 9999 SCT012 BKN250 14/11 Q1023=
200904041730 METAR LPPR 041730Z 31010KT 290V350 9999 SCT012 BKN250 15/11
                        Q1023=
200904041700 METAR LPPR 041700Z 33010KT 9999 FEW009 SCT012 BKN250 15/12
                        Q1023=
200904041630 METAR LPPR 041630Z 32011KT 9999 FEW009 SCT012 BKN250 15/12
                        Q1023=
200904041600 METAR LPPR 041600Z 31010G23KT 280V340 9999 SCT012 BKN250
                        16/12 Q1023=
200904041530 METAR LPPR 041530Z 32010KT 9999 FEW012 SCT250 16/13 Q1023=
200904041500 METAR LPPR 041500Z 32009KT 270V350 9999 FEW012 SCT030 17/12
                        Q1023=
200904041430 METAR LPPR 041430Z 29008KT 9999 FEW012 SCT030 BKN080 16/13
                        Q1023=
200904041400 METAR LPPR 041400Z 30007KT 250V350 6000 FEW006 SCT012 BKN030
                        16/13 Q1023=
200904041330 METAR LPPR 041330Z 29006KT 240V330 5000 BR SCT007 SCT012
                        BKN030 16/13 Q1024=
200904041300 METAR LPPR 041300Z 28005KT 250V320 4000 BR SCT005 BKN007
                        15/13 Q1024=
200904041230 METAR COR LPPR 041230Z 28004KT 260V320 3000 BR SCT004 BKN007
                        14/13 Q1024=
200904041200 METAR LPPR 041200Z 28004KT 230V330 0800 R17/P1500 R35/P1500
                        -DZ BCFG BKN001 BKN003 13/13 Q1024=
200904041130 METAR LPPR 041130Z 28003KT 0800 R17/P1500 R35/1400N -DZ BCFG
                        BKN001 BKN003 14/13 Q1024=
200904041100 METAR LPPR 041100Z VRB03KT 2500 -DZ BR SCT003 BKN005 14/13
                        Q1024=
200904041030 METAR LPPR 041030Z 00000KT 7000 BKN007 BKN009 15/12 Q1024=
200904041000 METAR LPPR 041000Z VRB03KT 7000 SCT007 BKN009 15/11 Q1024=
200904040930 METAR LPPR 040930Z VRB02KT 7000 SCT006 BKN009 14/10 Q1024=
200904040900 METAR LPPR 040900Z 00000KT 6000 BKN006 BKN008 13/10 Q1024=
200904040830 METAR LPPR 040830Z 00000KT 5000 BR SCT005 BKN007 12/10 Q1024=
200904040800 METAR LPPR 040800Z 11003KT 6000 SCT006 BKN009 12/09 Q1023=
200904040730 METAR LPPR 040730Z 10003KT 6000 SCT006 BKN009 11/09 Q1023=
200904040700 METAR LPPR 040700Z VRB03KT 7000 SCT006 BKN008 11/09 Q1023=
200904040630 METAR LPPR 040630Z 10004KT 060V140 7000 SCT007 BKN013 11/09
                        Q1023=
200904040600 METAR LPPR 040600Z 10005KT 7000 SCT007 BKN013 11/09 Q1022=
200904040530 METAR LPPR 040530Z 11006KT 7000 SCT006 BKN013 11/09 Q1022=
200904040500 METAR LPPR 040500Z 11004KT 7000 SCT006 BKN015 11/09 Q1022=
200904040430 METAR COR LPPR 040430Z 09002KT 8000 FEW008 BKN015 11/10 Q1023=
200904040400 METAR LPPR 040400Z 00000KT 8000 FEW008 BKN017 10/10 Q1023=
200904040330 METAR LPPR 040330Z 00000KT 8000 BKN015 10/09 Q1023=
200904040300 METAR LPPR 040300Z 00000KT 8000 BKN015 11/10 Q1022=
200904040230 METAR LPPR 040230Z 10003KT 8000 BKN015 11/10 Q1023=
200904040200 METAR LPPR 040200Z 10002KT 8000 SCT010 11/10 Q1023=
200904040130 METAR LPPR 040130Z VRB02KT 8000 SCT008 12/11 Q1023=
200904040100 METAR LPPR 040100Z 01005KT 8000 BKN009 13/11 Q1023=
200904040030 METAR LPPR 040030Z VRB03KT 6000 BKN007 12/11 Q1023=
200904040000 METAR LPPR 040000Z VRB03KT 8000 BKN009 12/11 Q1023=
200904032330 METAR LPPR 032330Z 35003KT 9999 BKN009 12/11 Q1023=
200904032300 METAR LPPR 032300Z 34003KT 9999 BKN009 12/11 Q1023=
200904032230 METAR LPPR 032230Z 33004KT 9999 BKN008 12/11 Q1024=
200904032200 METAR LPPR 032200Z 33005KT 9999 BKN008 12/11 Q1024=
200904032130 METAR LPPR 032130Z 32005KT 9999 BKN008 12/11 Q1023=
200904032100 METAR LPPR 032100Z 33004KT 300V020 8000 SCT008 12/10 Q1023=
200904032030 METAR LPPR 032030Z 32004KT 8000 SCT008 12/10 Q1023=
200904032000 METAR LPPR 032000Z 32005KT 270V350 8000 FEW008 12/10 Q1023=
200904031930 METAR LPPR 031930Z VRB03KT 9999 FEW008 12/10 Q1022=
200904031900 METAR LPPR 031900Z 31006KT 280V350 CAVOK 12/09 Q1022=
200904031830 METAR LPPR 031830Z 31004KT 290V350 CAVOK 13/09 Q1022=
200904031800 METAR LPPR 031800Z 31008KT 290V350 9999 FEW006 13/10 Q1021=
200904031730 METAR LPPR 031730Z 32007KT 9999 FEW006 14/09 Q1021=
200904031700 METAR LPPR 031700Z 31009KT 9999 FEW007 14/09 Q1021=
200904031630 METAR LPPR 031630Z 30010KT 270V330 CAVOK 14/09 Q1021=
200904031600 METAR LPPR 031600Z 32011KT 290V350 CAVOK 14/08 Q1021=
200904031530 METAR LPPR 031530Z 31012G22KT 290V360 CAVOK 14/09 Q1021=
200904031500 METAR LPPR 031500Z 32011KT 280V340 9999 FEW006 BKN250 14/10
                        Q1021=
200904031430 METAR LPPR 031430Z 30010KT CAVOK 14/09 Q1022=
200904031400 METAR LPPR 031400Z 30009KT 260V330 8000 SCT250 15/09 Q1022=
200904031330 METAR LPPR 031330Z 30009KT 270V330 7000 FEW009 14/09 Q1022=
200904031300 METAR LPPR 031300Z 29007KT 270V330 6000 FEW008 14/10 Q1022=
200904031230 METAR LPPR 031230Z 28006KT 230V310 6000 FEW008 14/10 Q1022=
200904031200 METAR LPPR 031200Z 28005KT 240V330 6000 SCT008 14/10 Q1022=
200904031130 METAR LPPR 031130Z 24004KT 180V330 5000 BR SCT008 15/10 Q1022=
200904031100 METAR LPPR 031100Z 28005KT 220V320 5000 BR SCT008 SCT015
                        13/10 Q1022=
200904031030 METAR LPPR 031030Z VRB03KT 5000 BR SCT007 BKN015 13/10 Q1022=
200904031000 METAR LPPR 031000Z VRB02KT 5000 BR SCT007 BKN015 13/09 Q1022=
200904030930 METAR LPPR 030930Z 00000KT 5000 BR SCT007 BKN012 12/09 Q1022=
200904030900 METAR LPPR 030900Z VRB03KT 4000 BR SCT007 BKN011 11/10 Q1022=
200904030830 METAR LPPR 030830Z 00000KT 4000 BR SCT007 BKN011 10/10 Q1022=
200904030800 METAR LPPR 030800Z 00000KT 4000 BR SCT005 BKN011 09/09 Q1022=
200904030730 METAR LPPR 030730Z 00000KT 3000 BR SCT005 BKN008 09/09 Q1021=
200904030700 METAR LPPR 030700Z 00000KT 3000 BR SCT006 BKN008 08/08 Q1021=
200904030630 METAR LPPR 030630Z 00000KT 3000 BR FEW007 BKN008 07/07 Q1021=
200904030600 METAR LPPR 030600Z VRB02KT 4000 BR SCT007 BKN008 07/07 Q1020=
200904030530 METAR LPPR 030530Z 00000KT 4000 BR SCT007 06/06 Q1020=
200904030500 METAR LPPR 030500Z 00000KT 3000 BR SCT008 06/06 Q1020=
200904030430 METAR LPPR 030430Z 00000KT 3000 BR SCT005 BKN008 06/06 Q1020=
200904030400 METAR LPPR 030400Z 00000KT 3000 BR SCT005 BKN008 06/06 Q1020=
200904030330 METAR LPPR 030330Z 35002KT 3000 BR SCT005 BKN008 06/06 Q1020=
200904030300 METAR LPPR 030300Z 00000KT 4000 BR BKN006 07/07 Q1019=
200904030230 METAR LPPR 030230Z 00000KT 4000 BR FEW001 SCT006 08/07 Q1019=
200904030200 METAR LPPR 030200Z 11006KT 7000 SKC 09/08 Q1019=
200904030130 METAR LPPR 030130Z 10006KT 8000 SKC 09/08 Q1019=
200904030100 METAR LPPR 030100Z 00000KT 9000 SKC 08/08 Q1019=
200904030030 METAR LPPR 030030Z 13002KT CAVOK 09/08 Q1019=
200904030000 METAR LPPR 030000Z 13002KT CAVOK 09/08 Q1019=
200904022330 METAR LPPR 022330Z 00000KT CAVOK 09/09 Q1020=
200904022300 METAR LPPR 022300Z 00000KT CAVOK 10/08 Q1019=
200904022230 METAR LPPR 022230Z 34003KT CAVOK 10/08 Q1019=
200904022200 METAR LPPR 022200Z 33004KT CAVOK 11/09 Q1020=
200904022130 METAR LPPR 022130Z 33005KT CAVOK 11/09 Q1020=
200904022100 METAR LPPR 022100Z 33008KT CAVOK 11/09 Q1019=
200904022030 METAR LPPR 022030Z 32010KT CAVOK 11/09 Q1019=
200904022000 METAR LPPR 022000Z 32010KT 290V350 7000 FEW250 12/09 Q1019=
200904021930 METAR LPPR 021930Z 32010KT 7000 FEW250 12/09 Q1018=
200904021900 METAR LPPR 021900Z 32011KT 8000 FEW250 12/09 Q1018=
200904021830 METAR LPPR 021830Z 32010KT 8000 FEW250 13/09 Q1018=
200904021800 METAR LPPR 021800Z 33014KT 8000 FEW015 14/09 Q1018=
200904021730 METAR LPPR 021730Z 31012KT 8000 FEW015 14/10 Q1018=
200904021700 METAR LPPR 021700Z 31011KT 8000 SKC 15/09 Q1017=
200904021630 METAR LPPR 021630Z 31011KT 280V350 8000 SKC 15/08 Q1017=
200904021600 METAR LPPR 021600Z 31012KT 280V340 8000 SKC 15/08 Q1017=
200904021530 METAR LPPR 021530Z 31010KT 270V340 8000 SKC 15/09 Q1017=
200904021500 METAR LPPR 021500Z 30010KT 8000 SKC 15/08 Q1017=
200904021430 METAR LPPR 021430Z 30010KT 8000 SKC 15/09 Q1017=
200904021400 METAR LPPR 021400Z 29009KT 250V330 8000 SKC 15/09 Q1017=
200904021330 METAR LPPR 021330Z 29008KT 260V340 8000 FEW017 15/09 Q1017=
200904021300 METAR LPPR 021300Z 27008KT 230V320 8000 FEW015 15/10 Q1018=
200904021230 METAR LPPR 021230Z 26006KT 210V310 8000 FEW013 16/11 Q1018=
200904021200 METAR LPPR 021200Z 25007KT 210V290 8000 FEW013 16/11 Q1017=
200904021130 METAR LPPR 021130Z 23006KT 200V260 8000 FEW013 16/11 Q1018=
200904021100 METAR LPPR 021100Z VRB02KT 8000 FEW009 16/10 Q1018=
200904021030 METAR LPPR 021030Z 00000KT 8000 FEW009 16/10 Q1018=
200904021000 METAR LPPR 021000Z VRB03KT 8000 FEW009 15/10 Q1018=
200904020930 METAR LPPR 020930Z 20004KT 140V240 8000 SCT008 14/10 Q1018=
200904020900 METAR LPPR 020900Z 14005KT 110V170 8000 FEW009 12/09 Q1018=
200904020830 METAR LPPR 020830Z 12004KT 8000 FEW009 11/08 Q1018=
200904020800 METAR LPPR 020800Z 10004KT 8000 FEW009 10/07 Q1018=
200904020730 METAR LPPR 020730Z 10004KT 070V130 8000 SCT009 09/07 Q1017=
200904020700 METAR LPPR 020700Z 00000KT 8000 FEW009 07/06 Q1017=
200904020630 METAR LPPR 020630Z 11004KT 080V150 8000 SKC 08/06 Q1017=
200904020600 METAR LPPR 020600Z 11005KT 8000 SKC 08/06 Q1017=
200904020530 METAR LPPR 020530Z 11006KT 8000 SKC 08/06 Q1017=
200904020500 METAR LPPR 020500Z 11006KT 7000 SCT006 09/07 Q1017=
200904020430 METAR LPPR 020430Z 10005KT 7000 BKN006 09/07 Q1017=
200904020400 METAR LPPR 020400Z 11005KT 7000 BKN006 09/07 Q1016=
200904020330 METAR LPPR 020330Z 11004KT 5000 BR BKN007 09/07 Q1016=
200904020300 METAR LPPR 020300Z 00000KT 6000 BKN007 09/07 Q1016=
200904020230 METAR LPPR 020230Z 11005KT 6000 SCT008 09/07 Q1016=
200904020200 METAR LPPR 020200Z 12006KT CAVOK 09/07 Q1016=
200904020130 METAR LPPR 020130Z 10004KT CAVOK 09/08 Q1016=
200904020100 METAR LPPR 020100Z 11002KT CAVOK 08/07 Q1016=
200904020030 METAR LPPR 020030Z 00000KT CAVOK 08/07 Q1017=
200904020000 METAR LPPR 020000Z 00000KT CAVOK 08/07 Q1017=
200904012330 METAR LPPR 012330Z 00000KT CAVOK 08/07 Q1017=
200904012300 METAR LPPR 012300Z 00000KT CAVOK 09/07 Q1017=
200904012230 METAR LPPR 012230Z 00000KT CAVOK 09/08 Q1017=
200904012200 METAR LPPR 012200Z 00000KT CAVOK 10/08 Q1017=
200904012130 METAR LPPR 012130Z 00000KT CAVOK 10/08 Q1017=
200904012100 METAR LPPR 012100Z 33002KT CAVOK 10/08 Q1017=
200904012030 METAR LPPR 012030Z 33007KT CAVOK 11/08 Q1016=
200904012000 METAR LPPR 012000Z 32007KT CAVOK 12/09 Q1016=
200904011930 METAR LPPR 011930Z 32008KT CAVOK 12/08 Q1016=
200904011900 METAR LPPR 011900Z 32007KT CAVOK 12/07 Q1016=
200904011830 METAR LPPR 011830Z 32007KT CAVOK 13/06 Q1016=
200904011800 METAR LPPR 011800Z 32008KT CAVOK 14/06 Q1016=
200904011730 METAR LPPR 011730Z 31009KT CAVOK 15/04 Q1016=
200904011700 METAR LPPR 011700Z 31009KT CAVOK 15/04 Q1016=
200904011630 METAR LPPR 011630Z 32009KT CAVOK 15/04 Q1016=
200904011600 METAR LPPR 011600Z 32010KT 280V340 CAVOK 15/04 Q1016=
200904011530 METAR LPPR 011530Z 31011KT CAVOK 15/05 Q1016=
200904011500 METAR LPPR 011500Z 31011KT CAVOK 15/05 Q1016=
200904011430 METAR LPPR 011430Z 29010KT 260V320 CAVOK 16/03 Q1016=
200904011400 METAR LPPR 011400Z 28010KT 240V310 CAVOK 16/02 Q1016=
200904011330 METAR LPPR 011330Z 27010KT 250V010 CAVOK 16/02 Q1016=
200904011300 METAR LPPR 011300Z 28009KT CAVOK 16/03 Q1016=
200904011230 METAR LPPR 011230Z 28007KT CAVOK 16/05 Q1017=
200904011200 METAR LPPR 011200Z 27006KT 220V350 CAVOK 16/05 Q1017=
200904011130 METAR LPPR 011130Z 28004KT 210V300 CAVOK 16/04 Q1017=
200904011100 METAR LPPR 011100Z 00000KT CAVOK 16/02 Q1017=
200904011030 METAR LPPR 011030Z 14005KT 100V170 CAVOK 15/01 Q1017=
200904011000 METAR LPPR 011000Z VRB03KT CAVOK 14/02 Q1017=
200904010930 METAR LPPR 010930Z VRB03KT CAVOK 14/01 Q1017=
200904010900 METAR LPPR 010900Z 11006KT 080V140 CAVOK 12/01 Q1017=
200904010830 METAR LPPR 010830Z 00000KT CAVOK 11/02 Q1016=
200904010800 METAR LPPR 010800Z 00000KT CAVOK 08/03 Q1016=
200904010730 METAR LPPR 010730Z 00000KT CAVOK 06/01 Q1016=
200904010700 METAR LPPR 010700Z 00000KT CAVOK 05/00 Q1015=
200904010630 METAR LPPR 010630Z 00000KT CAVOK 04/00 Q1015=
200904010600 METAR LPPR 010600Z 00000KT CAVOK 05/00 Q1015=
200904010530 METAR LPPR 010530Z 00000KT CAVOK 05/00 Q1015=
200904010500 METAR LPPR 010500Z 00000KT CAVOK 06/01 Q1015=
200904010430 METAR LPPR 010430Z 00000KT CAVOK 08/M00 Q1015=
200904010400 METAR LPPR 010400Z 00000KT CAVOK 06/M01 Q1015=
200904010330 METAR LPPR 010330Z VRB02KT CAVOK 09/M00 Q1015=
200904010300 METAR LPPR 010300Z 09005KT CAVOK 09/M00 Q1015=
200904010230 METAR LPPR 010230Z 08002KT CAVOK 09/00 Q1015=
200904010200 METAR LPPR 010200Z 09004KT CAVOK 10/01 Q1015=
200904010130 METAR LPPR 010130Z 10005KT CAVOK 10/02 Q1015=
200904010100 METAR LPPR 010100Z 10006KT CAVOK 10/02 Q1015=
200904010030 METAR LPPR 010030Z 10005KT CAVOK 10/03 Q1015=
200904010000 METAR LPPR 010000Z 00000KT CAVOK 08/05 Q1015=
