##########################################################
# Query made at 11/07/2014 17:06:05 UTC
# Time interval: from 04/01/2012 00:00  to 05/01/2012 23:59  UTC
##########################################################

##########################################################
# LPPR, Porto / Pedras Rubras (Portugal)
# WMO index: 08545
# Latitude 41-14N. Longitude 008-41W. Altitude 69 m.
##########################################################

###################################
#  METAR/SPECI from LPPR
###################################
201204302330 METAR LPPR 302330Z VRB02KT 9999 FEW015 FEW020CB BKN030 11/08
                        Q1014=
201204302300 METAR LPPR 302300Z 21004KT 9999 FEW015 FEW020CB BKN040 11/07
                        Q1014=
201204302230 METAR LPPR 302230Z 22004KT 190V260 9999 FEW015 FEW020CB SCT040
                        09/07 Q1014=
201204302200 METAR LPPR 302200Z VRB01KT 9999 FEW014 FEW020CB BKN040 10/07
                        Q1015=
201204302130 METAR LPPR 302130Z 23006KT 180V270 9999 FEW014 FEW020CB BKN030
                        11/07 Q1015=
201204302100 METAR LPPR 302100Z 21003KT 170V270 9999 FEW020 FEW025CB SCT040
                        10/06 Q1015=
201204302030 METAR LPPR 302030Z 23003KT 180V280 9999 SCT020 FEW025CB 10/06
                        Q1015=
201204302000 METAR LPPR 302000Z 27005KT 230V330 9999 SCT020 FEW025CB BKN040
                        11/06 Q1015=
201204301930 METAR LPPR 301930Z 26004KT 210V310 9999 SCT020 FEW025CB 12/06
                        Q1014=
201204301900 METAR LPPR 301900Z 25005KT 190V300 9999 SCT020 FEW025CB BKN040
                        12/06 Q1015=
201204301830 METAR LPPR 301830Z 26006KT 180V310 9999 SCT020 FEW025CB 13/06
                        Q1015=
201204301800 METAR LPPR 301800Z 25007KT 190V320 9999 SCT016 FEW020CB 12/06
                        Q1015=
201204301730 METAR LPPR 301730Z 23004KT 190V270 9999 FEW016 FEW020CB SCT040
                        11/08 Q1015=
201204301700 METAR LPPR 301700Z 28005KT 210V010 9999 SCT015 FEW020CB BKN040
                        12/06 Q1015=
201204301630 METAR LPPR 301630Z 28006KT 180V320 9999 FEW015 FEW020CB SCT040
                        13/06 Q1015=
201204301600 METAR LPPR 301600Z 30006KT 270V330 9999 FEW019 FEW025CB 13/06
                        Q1015=
201204301530 METAR LPPR 301530Z 29007KT 240V330 9999 FEW019 FEW025CB BKN030
                        13/05 Q1015=
201204301500 METAR LPPR 301500Z 30009KT 260V340 9999 FEW019 FEW025CB SCT030
                        12/07 Q1015=
201204301430 METAR LPPR 301430Z 27008KT 210V330 9999 FEW020 FEW025CB 14/06
                        Q1015=
201204301400 METAR LPPR 301400Z 29009KT 240V330 9999 FEW020 FEW025CB 14/05
                        Q1015=
201204301330 METAR LPPR 301330Z 29007KT 250V340 9999 FEW020 FEW025CB 14/05
                        Q1015=
201204301300 METAR LPPR 301300Z 29008KT 250V340 9999 FEW020 FEW025CB SCT045
                        15/06 Q1015=
201204301230 METAR LPPR 301230Z 29008KT 250V320 9999 FEW025 FEW030CB SCT035
                        13/07 Q1015=
201204301200 METAR LPPR 301200Z 28007KT 220V340 9999 FEW020 FEW025CB SCT030
                        13/06 Q1015=
201204301130 METAR LPPR 301130Z 28007KT 230V340 9999 FEW025 FEW030CB BKN040
                        13/06 Q1015=
201204301100 METAR LPPR 301100Z 29006KT 230V320 9999 FEW025 FEW030CB BKN035
                        13/07 Q1015=
201204301030 METAR LPPR 301030Z 29007KT 240V320 9999 FEW025 FEW030CB BKN040
                        13/06 Q1015=
201204301000 METAR LPPR 301000Z 21007KT 160V240 9999 FEW016 FEW025CB BKN045
                        12/08 Q1015=
201204300930 METAR LPPR 300930Z 25004KT 210V290 9999 -SHRA FEW020 FEW030CB
                        BKN040 12/09 Q1015=
201204300900 METAR LPPR 300900Z VRB04KT 9999 SCT025 FEW030CB BKN040 12/08
                        Q1015=
201204300830 METAR LPPR 300830Z 17003KT 100V220 9999 SCT020 FEW030CB 12/08
                        Q1015=
201204300800 METAR LPPR 300800Z 13003KT 080V230 9999 SCT020 FEW030CB 12/08
                        Q1015=
201204300730 METAR LPPR 300730Z 13004KT 9999 FEW020 FEW030CB 10/08 Q1015=
201204300700 METAR LPPR 300700Z 12003KT 040V170 9999 FEW020 FEW030CB 08/07
                        Q1015=
201204300630 METAR LPPR 300630Z 12004KT 070V160 9999 FEW003 FEW025CB SCT048
                        08/07 Q1015=
201204300600 METAR LPPR 300600Z VRB03KT 9999 FEW017 FEW025CB SCT040 07/06
                        Q1014=
201204300530 METAR LPPR 300530Z 03004KT 340V070 9000 -SHRA FEW017 FEW025CB
                        SCT030 BKN048 07/06 Q1014=
201204300500 METAR LPPR 300500Z 01007KT 330V030 8000 -SHRA FEW002 SCT013
                        FEW023CB BKN040 07/07 Q1014=
201204300430 METAR LPPR 300430Z VRB02KT 9999 FEW003 06/06 Q1014=
201204300400 METAR LPPR 300400Z VRB01KT 9999 FEW020 07/06 Q1014=
201204300330 METAR LPPR 300330Z 13002KT 9999 FEW020 06/06 Q1014=
201204300300 METAR LPPR 300300Z VRB01KT 9999 FEW020 06/06 Q1014=
201204300230 METAR LPPR 300230Z VRB01KT 9999 FEW020 07/06 Q1013=
201204300200 METAR LPPR 300200Z 00000KT 9999 FEW020 07/07 Q1013=
201204300130 METAR LPPR 300130Z 04001KT 9999 FEW018 07/06 Q1013=
201204300100 METAR LPPR 300100Z 36001KT 9999 FEW018 08/07 Q1013=
201204300030 METAR LPPR 300030Z 35002KT 9999 FEW023 08/07 Q1013=
201204300000 METAR LPPR 300000Z 35003KT 9999 FEW023 09/07 Q1013=
201204292330 METAR LPPR 292330Z 34004KT 9999 FEW020 09/07 Q1013=
201204292300 METAR LPPR 292300Z 34003KT CAVOK 10/07 Q1013=
201204292230 METAR LPPR 292230Z 35003KT CAVOK 10/07 Q1013=
201204292200 METAR LPPR 292200Z 34004KT CAVOK 11/07 Q1013=
201204292130 METAR LPPR 292130Z 35007KT CAVOK 11/07 Q1013=
201204292100 METAR LPPR 292100Z 35008KT 9999 FEW030 11/08 Q1013=
201204292030 METAR LPPR 292030Z 35006KT 320V030 9999 FEW030 11/08 Q1012=
201204292000 METAR LPPR 292000Z 34007KT 9999 FEW030 12/08 Q1012=
201204291930 METAR LPPR 291930Z 34008KT 9999 FEW020 FEW035CB 12/08 Q1012=
201204291900 METAR LPPR 291900Z 34009KT 290V360 9999 FEW020 FEW030CB SCT040
                        13/07 Q1012=
201204291830 METAR LPPR 291830Z 33010KT 9999 FEW020 FEW030CB 14/07 Q1011=
201204291800 METAR LPPR 291800Z 33009KT 290V360 9999 FEW020 FEW027CB 14/08
                        Q1011=
201204291730 METAR LPPR 291730Z 32009KT 280V360 9999 FEW017 FEW025CB 14/08
                        Q1011=
201204291700 METAR LPPR 291700Z 32009KT 280V350 9999 FEW017 FEW025CB 14/07
                        Q1011=
201204291630 METAR LPPR 291630Z 32010KT 290V350 9999 FEW018 SCT025CB 14/09
                        Q1011=
201204291600 METAR LPPR 291600Z 32009KT 270V340 9999 SCT018 FEW025CB 14/08
                        Q1010=
201204291530 METAR LPPR 291530Z 28007KT 230V330 9999 SCT017 FEW023CB 15/09
                        Q1010=
201204291500 METAR LPPR 291500Z 28007KT 230V330 9999 SCT015 FEW020CB 15/09
                        Q1010=
201204291430 METAR LPPR 291430Z 28007KT 230V340 9999 SCT015 FEW025CB 15/08
                        Q1010=
201204291400 METAR LPPR 291400Z 28007KT 230V330 9999 SCT017 FEW025CB 15/08
                        Q1010=
201204291330 METAR LPPR 291330Z 27006KT 210V330 9999 SCT015 FEW020CB 14/07
                        Q1010=
201204291300 METAR LPPR 291300Z 25006KT 220V310 9999 TS SCT015 FEW020CB
                        15/08 Q1010=
201204291230 METAR LPPR 291230Z 21008KT 170V260 9999 SCT015 FEW020CB 14/08
                        Q1010=
201204291200 METAR LPPR 291200Z 24009KT 200V270 9999 SCT015 FEW020CB 15/09
                        Q1010=
201204291130 METAR LPPR 291130Z 21008KT 170V260 9999 SCT015 FEW020CB 14/09
                        Q1010=
201204291100 METAR LPPR 291100Z 21007KT 170V250 9999 SCT015 FEW025CB 13/09
                        Q1010=
201204291030 METAR LPPR 291030Z 21007KT 180V250 9999 SCT015 FEW025CB 12/08
                        Q1010=
201204291000 METAR LPPR 291000Z 21007KT 180V260 9999 SCT015 FEW025CB 12/08
                        Q1010=
201204290930 METAR LPPR 290930Z 20008KT 9999 SCT014 FEW025CB 12/08 Q1010=
201204290900 METAR LPPR 290900Z 21007KT 9999 SCT014 FEW025CB 12/08 Q1010=
201204290830 METAR LPPR 290830Z 17004KT 130V200 9999 SCT014 FEW025CB 12/09
                        Q1009=
201204290800 METAR LPPR 290800Z 18005KT 9999 SCT014 FEW025CB 11/09 Q1009=
201204290730 METAR LPPR 290730Z 15004KT 100V200 9999 FEW020 FEW025CB BKN040
                        11/08 Q1009=
201204290700 METAR LPPR 290700Z 13006KT 9999 SCT020 FEW030CB 10/08 Q1009=
201204290630 METAR LPPR 290630Z 12004KT 9999 SCT020 FEW030CB 09/08 Q1009=
201204290600 METAR LPPR 290600Z 08003KT 020V130 9999 TS FEW020 SCT030CB
                        07/06 Q1008=
201204290530 METAR LPPR 290530Z 11004KT 8000 TS FEW020 SCT030CB 07/06
                        Q1008=
201204290500 METAR LPPR 290500Z 12004KT 070V140 9999 SCT020 FEW030CB 07/06
                        Q1008 RETS=
201204290430 METAR LPPR 290430Z 13005KT 9999 TS SCT020 SCT030CB 07/06
                        Q1008=
201204290400 METAR LPPR 290400Z 13005KT 9999 TS SCT019 SCT040CB 08/06
                        Q1008=
201204290330 METAR LPPR 290330Z 13005KT 9999 FEW018 08/06 Q1008=
201204290300 METAR LPPR 290300Z 14004KT 120V180 9999 FEW018 08/06 Q1008=
201204290230 METAR LPPR 290230Z VRB02KT 9999 FEW020 08/07 Q1008=
201204290200 METAR LPPR 290200Z 19003KT 9999 FEW020 08/07 Q1008=
201204290130 METAR LPPR 290130Z 14006KT 9999 FEW020 09/07 Q1008=
201204290100 METAR LPPR 290100Z 13006KT 9999 FEW020 08/07 Q1008=
201204290030 METAR LPPR 290030Z VRB01KT 9999 FEW020 08/07 Q1008=
201204290000 METAR LPPR 290000Z 13002KT CAVOK 08/06 Q1008=
201204282330 METAR LPPR 282330Z 15003KT CAVOK 08/06 Q1008=
201204282300 METAR LPPR 282300Z VRB02KT CAVOK 09/07 Q1008=
201204282230 METAR LPPR 282230Z 00000KT CAVOK 08/06 Q1008=
201204282200 METAR LPPR 282200Z 00000KT CAVOK 09/07 Q1008=
201204282130 METAR LPPR 282130Z 00000KT 9999 FEW020 10/07 Q1008=
201204282100 METAR LPPR 282100Z VRB01KT 9999 FEW020 10/07 Q1008=
201204282030 METAR LPPR 282030Z 36003KT 9999 FEW020 FEW030CB 10/07 Q1007=
201204282000 METAR LPPR 282000Z 34005KT 9999 FEW020 FEW030CB 12/07 Q1007=
201204281930 METAR LPPR 281930Z 33006KT 9999 FEW020 FEW030CB 12/07 Q1007=
201204281900 METAR LPPR 281900Z 33007KT 9999 FEW020 FEW030CB 13/08 Q1007=
201204281830 METAR LPPR 281830Z 34008KT 300V010 9999 FEW020 FEW030CB 13/08
                        Q1007=
201204281800 METAR LPPR 281800Z 33008KT 290V010 9999 FEW020 FEW030CB 13/08
                        Q1007=
201204281730 METAR LPPR 281730Z 31007KT 270V340 9999 FEW020 FEW030CB 13/07
                        Q1007=
201204281700 METAR LPPR 281700Z 31008KT 270V350 9999 FEW020 FEW030CB 14/07
                        Q1007=
201204281630 METAR LPPR 281630Z 31007KT 270V340 9999 FEW020 FEW030CB 14/07
                        Q1007=
201204281600 METAR LPPR 281600Z 31007KT 270V340 9999 FEW020 FEW030CB 14/07
                        Q1007=
201204281530 METAR LPPR 281530Z 29007KT 230V340 9999 FEW020 FEW030CB 14/07
                        Q1007=
201204281500 METAR LPPR 281500Z 28007KT 220V330 9999 FEW020 FEW030CB 14/07
                        Q1007=
201204281430 METAR LPPR 281430Z 30007KT 240V350 9999 FEW020 FEW030CB 14/07
                        Q1007=
201204281400 METAR LPPR 281400Z 29007KT 210V340 9999 FEW020 FEW030CB 14/07
                        Q1007=
201204281330 METAR LPPR 281330Z 29007KT 230V310 9999 FEW020 FEW030CB 14/08
                        Q1007=
201204281300 METAR LPPR 281300Z 28007KT 230V320 9999 FEW020 FEW030CB 14/07
                        Q1007=
201204281230 METAR LPPR 281230Z 29007KT 240V330 9999 FEW020 FEW025TCU
                        FEW035CB 14/06 Q1007=
201204281200 METAR LPPR 281200Z 28007KT 230V320 9999 FEW020 FEW025TCU
                        FEW035CB 15/07 Q1007=
201204281130 METAR LPPR 281130Z 28005KT 230V360 9999 FEW020 FEW035CB 14/07
                        Q1007=
201204281100 METAR LPPR 281100Z 29005KT 240V330 9999 FEW020 FEW030CB 14/07
                        Q1007=
201204281030 METAR LPPR 281030Z 29004KT 260V320 9999 FEW017 FEW030CB 14/08
                        Q1007=
201204281000 METAR LPPR 281000Z VRB03KT 9999 FEW017 FEW030CB 14/06 Q1007=
201204280930 METAR LPPR 280930Z 11003KT 060V160 9999 FEW017 FEW030CB 14/06
                        Q1007=
201204280900 METAR LPPR 280900Z VRB02KT 9999 FEW017 FEW030CB 13/06 Q1008=
201204280830 METAR LPPR 280830Z 12004KT 9999 FEW020 FEW030CB 13/08 Q1007=
201204280800 METAR LPPR 280800Z 12004KT 9999 FEW020 FEW030CB 11/07 Q1008=
201204280730 METAR LPPR 280730Z 12005KT 080V160 9999 FEW020 FEW025CB 10/08
                        Q1008=
201204280700 METAR LPPR 280700Z 09004KT 060V120 9999 FEW025CB 09/08 Q1008=
201204280630 METAR LPPR 280630Z 10005KT 060V140 CAVOK 07/06 Q1007=
201204280600 METAR LPPR 280600Z 10004KT 060V130 CAVOK 07/06 Q1007=
201204280530 METAR LPPR 280530Z VRB01KT CAVOK 05/05 Q1007=
201204280500 METAR LPPR 280500Z VRB01KT CAVOK 06/06 Q1007=
201204280430 METAR LPPR 280430Z 07003KT 030V110 CAVOK 06/05 Q1007=
201204280400 METAR LPPR 280400Z 07003KT 340V100 CAVOK 07/06 Q1007=
201204280330 METAR LPPR 280330Z VRB03KT CAVOK 07/06 Q1008=
201204280300 METAR LPPR 280300Z VRB02KT CAVOK 06/06 Q1008=
201204280230 METAR LPPR 280230Z 10004KT CAVOK 07/06 Q1008=
201204280200 METAR LPPR 280200Z VRB01KT CAVOK 08/07 Q1008=
201204280130 METAR LPPR 280130Z VRB01KT CAVOK 07/06 Q1009=
201204280100 METAR LPPR 280100Z VRB03KT CAVOK 08/07 Q1010=
201204280030 METAR LPPR 280030Z VRB01KT CAVOK 08/06 Q1010=
201204280000 METAR LPPR 280000Z 00000KT CAVOK 08/07 Q1010=
201204272330 METAR LPPR 272330Z VRB01KT CAVOK 08/07 Q1010=
201204272300 METAR LPPR 272300Z 36002KT CAVOK 08/07 Q1010=
201204272230 METAR LPPR 272230Z 04001KT 9999 FEW025 08/07 Q1011=
201204272200 METAR LPPR 272200Z VRB01KT 9999 FEW025 09/07 Q1011=
201204272130 METAR LPPR 272130Z 05001KT 9999 FEW025 09/07 Q1011=
201204272100 METAR LPPR 272100Z VRB02KT 9999 FEW025 09/07 Q1011=
201204272030 METAR LPPR 272030Z VRB01KT 9999 FEW025 10/07 Q1011=
201204272000 METAR LPPR 272000Z VRB02KT 9999 FEW025 11/07 Q1011=
201204271930 METAR LPPR 271930Z 32003KT 270V340 9999 FEW025 12/07 Q1010=
201204271900 METAR LPPR 271900Z 30004KT 260V350 9999 FEW025 13/07 Q1010=
201204271830 METAR LPPR 271830Z 30004KT 250V360 9999 FEW030 13/07 Q1010=
201204271800 METAR LPPR 271800Z 30005KT 240V350 9999 FEW030 13/07 Q1010=
201204271730 METAR LPPR 271730Z 29005KT 230V340 9999 FEW030 14/07 Q1010=
201204271700 METAR LPPR 271700Z 29006KT 240V350 9999 FEW030 14/07 Q1010=
201204271630 METAR LPPR 271630Z 30006KT 230V350 9999 FEW025 14/07 Q1010=
201204271600 METAR LPPR 271600Z 29006KT 220V330 9999 FEW025 14/07 Q1011=
201204271530 METAR LPPR 271530Z 28007KT 250V340 9999 FEW025 14/07 Q1011=
201204271500 METAR LPPR 271500Z 29007KT 230V340 9999 FEW025CB 15/07 Q1011=
201204271430 METAR LPPR 271430Z 28007KT 230V320 9999 FEW028TCU 15/08 Q1011=
201204271400 METAR LPPR 271400Z 29007KT 230V320 9999 FEW028CB 14/06 Q1011=
201204271330 METAR LPPR 271330Z 30007KT 260V350 9999 FEW026CB 15/07 Q1011=
201204271300 METAR LPPR 271300Z 26007KT 220V300 9999 FEW026CB 15/06 Q1011=
201204271230 METAR LPPR 271230Z 28005KT 220V330 9999 FEW026CB 15/07 Q1011=
201204271200 METAR LPPR 271200Z 26006KT 210V330 9999 FEW028CB 14/07 Q1011=
201204271130 METAR LPPR 271130Z 28006KT 190V310 9999 FEW020 FEW028CB 14/08
                        Q1012=
201204271100 METAR LPPR 271100Z 25004KT 200V310 9999 FEW022 FEW028CB 13/09
                        Q1011=
201204271030 METAR LPPR 271030Z 25006KT 210V280 9999 VCSH FEW020 SCT027CB
                        13/08 Q1012=
201204271000 METAR LPPR 271000Z 21005KT 150V270 9999 FEW020 SCT027CB 13/08
                        Q1012=
201204270930 METAR LPPR 270930Z 15005KT 110V210 9999 SCT025 FEW027CB 14/06
                        Q1012=
201204270900 METAR LPPR 270900Z 14005KT 110V180 9999 FEW024CB 14/07 Q1011=
201204270830 METAR LPPR 270830Z 12007KT 9999 FEW023CB 13/08 Q1011=
201204270800 METAR LPPR 270800Z 11007KT 090V180 9999 FEW023CB 12/08 Q1011=
201204270730 METAR LPPR 270730Z 11008KT 9999 FEW023CB 10/07 Q1011=
201204270700 METAR LPPR 270700Z 11008KT 9999 FEW025 10/08 Q1011=
201204270630 METAR LPPR 270630Z 11007KT 9999 FEW025 08/07 Q1011=
201204270600 METAR LPPR 270600Z 12006KT 090V200 9999 FEW025 SCT030 07/06
                        Q1011=
201204270530 METAR LPPR 270530Z 12006KT 9999 FEW034 08/06 Q1011=
201204270500 METAR LPPR 270500Z 12006KT 9999 FEW034 08/06 Q1011=
201204270430 METAR LPPR 270430Z 12005KT 9999 FEW014 SCT034 08/07 Q1011=
201204270400 METAR LPPR 270400Z 12005KT 9999 FEW034 08/07 Q1011=
201204270330 METAR LPPR 270330Z 13005KT 9999 FEW030 09/06 Q1011=
201204270300 METAR LPPR 270300Z 11006KT 9999 FEW024 09/06 Q1011=
201204270230 METAR LPPR 270230Z 12006KT 9999 FEW025 SCT035 09/07 Q1011=
201204270200 METAR LPPR 270200Z 11006KT 9999 FEW026 SCT033 10/08 Q1011=
201204270130 METAR LPPR 270130Z 12003KT 9999 FEW025 SCT031 10/08 Q1011=
201204270100 METAR LPPR 270100Z 10003KT 9999 FEW025 SCT030 10/08 Q1011=
201204270030 METAR LPPR 270030Z VRB02KT 9999 FEW025 SCT033 09/08 Q1012=
201204270000 METAR LPPR 270000Z 13003KT 9999 FEW025 SCT033 09/08 Q1011=
201204262330 METAR LPPR 262330Z 12003KT 9999 FEW025 SCT038 10/07 Q1011=
201204262300 METAR LPPR 262300Z 13001KT 9999 FEW025 SCT034 09/07 Q1011=
201204262230 METAR LPPR 262230Z VRB01KT 9999 FEW025TCU SCT034 10/07 Q1011=
201204262200 METAR LPPR 262200Z 00000KT 9999 SCT030 10/08 Q1011=
201204262130 METAR LPPR 262130Z 18001KT 9999 SCT047 11/08 Q1011=
201204262100 METAR LPPR 262100Z VRB02KT 9999 SCT030 12/08 Q1011=
201204262030 METAR LPPR 262030Z VRB02KT 9999 FEW030 12/08 Q1011=
201204262000 METAR LPPR 262000Z 21003KT 180V240 9999 FEW025 SCT029 12/08
                        Q1010=
201204261930 METAR LPPR 261930Z 23003KT 200V270 9999 FEW025 SCT031 13/07
                        Q1010=
201204261900 METAR LPPR 261900Z 23003KT 180V270 9999 FEW025TCU SCT029
                        13/08 Q1010=
201204261830 METAR LPPR 261830Z 23004KT 190V260 9999 FEW023 FEW025TCU
                        13/07 Q1010=
201204261800 METAR LPPR 261800Z 19007KT 160V220 9999 FEW027TCU SCT028
                        13/08 Q1010=
201204261730 METAR LPPR 261730Z 19009KT 9999 FEW025TCU BKN029 14/08 Q1010=
201204261700 METAR LPPR 261700Z 20008KT 170V230 9999 FEW027TCU SCT038
                        14/07 Q1010=
201204261630 METAR LPPR 261630Z 22009KT 170V250 9999 FEW020 FEW025TCU
                        14/07 Q1009=
201204261600 METAR LPPR 261600Z 22009KT 190V280 9999 FEW020 FEW025TCU
                        14/07 Q1009=
201204261530 METAR LPPR 261530Z 21009KT 180V250 9999 FEW020 FEW025TCU
                        14/07 Q1009=
201204261500 METAR LPPR 261500Z 22010KT 190V260 9999 FEW020 15/07 Q1009=
201204261430 METAR LPPR 261430Z 22010KT 190V260 9999 FEW020 15/07 Q1009=
201204261400 METAR LPPR 261400Z 22010KT 180V250 9999 FEW020 15/08 Q1009=
201204261330 METAR LPPR 261330Z 23011KT 9999 FEW025 15/07 Q1009=
201204261300 METAR LPPR 261300Z 20010KT 170V230 9999 FEW030 15/08 Q1009=
201204261230 METAR LPPR 261230Z 20013KT 9999 SCT035 14/06 Q1009=
201204261200 METAR LPPR 261200Z 22010KT 180V260 9999 FEW018 SCT040 14/07
                        Q1009=
201204261130 METAR LPPR 261130Z 23008KT 190V300 9999 FEW017 14/07 Q1008=
201204261100 METAR LPPR 261100Z 22009KT 180V260 9999 FEW020 14/06 Q1008=
201204261030 METAR LPPR 261030Z 22008KT 190V250 9999 FEW018 SCT040 13/07
                        Q1008=
201204261000 METAR LPPR 261000Z 19010KT 9999 FEW015 SCT035 13/07 Q1008=
201204260930 METAR LPPR 260930Z 19010KT 9999 FEW035 13/07 Q1007=
201204260900 METAR LPPR 260900Z 21007KT 170V250 9999 FEW015 SCT033 13/07
                        Q1007=
201204260830 METAR LPPR 260830Z 21008KT 180V240 9999 SCT034 12/07 Q1007=
201204260800 METAR LPPR 260800Z 23008KT 190V260 9999 FEW030 SCT045 12/05
                        Q1007=
201204260730 METAR LPPR 260730Z 22007KT 180V270 9999 FEW025 SCT045 12/06
                        Q1006=
201204260700 METAR LPPR 260700Z 23007KT 180V280 9999 FEW028 FEW030CB 12/05
                        Q1006=
201204260630 METAR LPPR 260630Z 23007KT 180V270 9999 FEW025TCU 12/06 Q1006=
201204260600 METAR LPPR 260600Z 23007KT 190V260 9999 SCT025TCU 11/05 Q1005=
201204260530 METAR LPPR 260530Z 22007KT 180V250 9999 FEW023TCU SCT032
                        11/05 Q1005=
201204260500 METAR LPPR 260500Z 23007KT 9999 FEW023 11/05 Q1005=
201204260430 METAR LPPR 260430Z 23008KT 200V270 9999 FEW023TCU SCT030
                        11/05 Q1005=
201204260400 METAR LPPR 260400Z 23007KT 190V260 9999 FEW023TCU SCT030
                        11/06 Q1005=
201204260330 METAR LPPR 260330Z 22006KT 180V260 9999 SCT030 SCT045 10/06
                        Q1005=
201204260300 METAR LPPR 260300Z 22006KT 190V260 9999 SCT026 11/06 Q1004=
201204260230 METAR LPPR 260230Z 22007KT 180V260 9999 BKN026 11/07 Q1004=
201204260200 METAR LPPR 260200Z 23009KT 190V250 9999 SCT028 11/06 Q1004=
201204260130 METAR LPPR 260130Z 22008KT 190V260 9999 SCT025 11/06 Q1004=
201204260100 METAR LPPR 260100Z 23008KT 200V270 9999 SCT022 11/06 Q1004=
201204260030 METAR LPPR 260030Z 23007KT 180V250 9999 FEW022 11/07 Q1004=
201204260000 METAR LPPR 260000Z 23009G20KT 200V260 9999 FEW022 SCT045
                        11/07 Q1004=
201204252330 METAR LPPR 252330Z 22007KT 200V270 9999 -RA FEW022 FEW025TCU
                        SCT040 11/08 Q1004=
201204252300 METAR LPPR 252300Z 26008KT 210V300 9999 -RA FEW022 FEW025TCU
                        BKN035 11/06 Q1004 RERA=
201204252230 METAR LPPR 252230Z 23007KT 200V280 9000 VCSH FEW022 SCT030
                        12/07 Q1004=
201204252200 METAR LPPR 252200Z 23009KT 180V260 9999 FEW025 SCT040 12/07
                        Q1004=
201204252130 METAR LPPR 252130Z 23008KT 200V270 9999 FEW028 12/07 Q1004=
201204252100 METAR LPPR 252100Z 24007KT 220V300 9999 FEW020 11/07 Q1004=
201204252030 METAR LPPR 252030Z 22006KT 190V250 9999 FEW018 FEW028TCU
                        SCT030 11/07 Q1004=
201204252000 METAR LPPR 252000Z 28007KT 220V320 5000 -SHRA FEW017 SCT030TCU
                        SCT040 11/08 Q1003=
201204251930 METAR LPPR 251930Z 24008KT 200V300 9999 FEW020 SCT030TCU
                        13/07 Q1003=
201204251900 METAR LPPR 251900Z 25006KT 180V290 9999 VCSH FEW023 SCT030TCU
                        13/08 Q1003=
201204251830 METAR LPPR 251830Z 27005KT 200V340 9999 FEW025 SCT030 FEW032CB
                        13/08 Q1003=
201204251800 METAR LPPR 251800Z 23011KT 200V260 9999 FEW025 SCT032 FEW033CB
                        14/08 Q1003=
201204251730 METAR LPPR 251730Z 23009KT 190V270 9999 FEW022 SCT032 FEW033CB
                        14/08 Q1003=
201204251700 METAR LPPR 251700Z 23010KT 190V270 9999 FEW022TCU 14/08 Q1003=
201204251630 METAR LPPR 251630Z 24012KT 200V270 9999 FEW025TCU 14/08 Q1003=
201204251600 METAR LPPR 251600Z 23009KT 200V270 9999 FEW026 SCT048 14/08
                        Q1003=
201204251530 METAR LPPR 251530Z 24009KT 200V270 9000 VCSH FEW028 SCT040
                        14/08 Q1003=
201204251500 METAR LPPR 251500Z 23011KT 210V270 9999 SCT039 BKN050 15/08
                        Q1003=
201204251430 METAR LPPR 251430Z 24011KT 210V270 9999 SCT028 15/09 Q1003=
201204251400 METAR LPPR 251400Z 24013KT 200V280 9999 SCT027 SCT034 BKN048
                        16/09 Q1003=
201204251330 METAR LPPR 251330Z 24012KT 200V270 9999 SCT027 BKN049 16/09
                        Q1003=
201204251300 METAR LPPR 251300Z 24009KT 190V300 9999 SCT026 BKN050 15/09
                        Q1003=
201204251230 METAR LPPR 251230Z 24008KT 200V290 9999 FEW023 BKN029 BKN045
                        15/10 Q1003=
201204251200 METAR LPPR 251200Z 24009KT 210V280 9999 SCT027 BKN032 15/10
                        Q1003=
201204251130 METAR LPPR 251130Z 25005KT 190V300 9999 SCT023 SCT028 BKN050
                        14/10 Q1003=
201204251100 METAR LPPR 251100Z 25004KT 170V340 9000 SCT025 BKN034 BKN050
                        12/11 Q1003=
201204251030 METAR LPPR 251030Z 28005KT 230V330 2200 -RA BR SCT005 SCT015
                        OVC019 11/10 Q1003=
201204251000 METAR LPPR 251000Z 26007G18KT 220V310 1900 RA BR SCT005 BKN010
                        BKN019 11/11 Q1003=
201204250930 METAR LPPR 250930Z 24004KT 190V300 1800 RA BR SCT003 BKN017
                        BKN023 12/11 Q1003=
201204250900 METAR LPPR 250900Z 29004KT 230V330 2100 RA BR SCT003 BKN005
                        BKN017 12/11 Q1003=
201204250830 METAR LPPR 250830Z 28005KT 220V360 1600 RA BR BKN002 BKN009
                        BKN018 12/11 Q1003=
201204250800 METAR LPPR 250800Z 28006KT 230V340 1600 R17/1600U RA BR BKN003
                        BKN006 BKN024 12/11 Q1003 RERA=
201204250730 METAR LPPR 250730Z 20019G34KT 1800 RA BR BKN003 BKN005 13/13
                        Q1002=
201204250700 METAR LPPR 250700Z 20023G34KT 2000 -RA BR BKN003 13/12 Q1002=
201204250630 METAR LPPR 250630Z 20023G34KT 1800 -RA BR BKN003 13/12 Q1002=
201204250600 METAR LPPR 250600Z 20021G35KT 2000 -RA BR BKN004 13/12 Q1003=
201204250530 METAR LPPR 250530Z 20019KT 5000 -RA BR BKN005 13/12 Q1003=
201204250500 METAR LPPR 250500Z 20018KT 4000 RA BR BKN006 BKN009 13/12
                        Q1004=
201204250430 METAR LPPR 250430Z 19018KT 6000 -RA SCT009 BKN012 BKN015
                        13/11 Q1004=
201204250400 METAR LPPR 250400Z 19020KT 9999 -DZ FEW012 BKN015 BKN020
                        13/11 Q1005=
201204250330 METAR LPPR 250330Z 19019KT 9999 SCT014 BKN018 BKN025 13/10
                        Q1005=
201204250300 METAR LPPR 250300Z 19019KT 9999 BKN020 13/10 Q1006=
201204250230 METAR LPPR 250230Z 18019KT 9999 FEW015 BKN025 BKN030 13/10
                        Q1006=
201204250200 METAR LPPR 250200Z 19016KT 9999 -RA SCT015 BKN025 BKN030
                        12/10 Q1007=
201204250130 METAR LPPR 250130Z 19016KT 9999 FEW012 BKN025 12/09 Q1008=
201204250100 METAR LPPR 250100Z 18017KT 9999 SCT014 BKN030 12/09 Q1009=
201204250030 METAR LPPR 250030Z 19015KT 9999 SCT015 BKN020 BKN040 12/09
                        Q1010=
201204250000 METAR LPPR 250000Z 18017KT 9999 SCT015 BKN020 12/09 Q1010=
201204242330 METAR LPPR 242330Z 18016KT 9999 BKN018 BKN025 12/09 Q1011=
201204242300 METAR LPPR 242300Z 18016KT 9999 FEW015 BKN020 BKN030 13/09
                        Q1011=
201204242230 METAR LPPR 242230Z 19014KT 9999 FEW015 BKN017 BKN020 12/09
                        Q1012=
201204242200 METAR LPPR 242200Z 19013KT 9999 FEW018 BKN030 BKN040 13/09
                        Q1013=
201204242130 METAR LPPR 242130Z 19013KT 9999 FEW018 SCT020 BKN030 13/09
                        Q1013=
201204242100 METAR LPPR 242100Z 19012KT 9999 SCT020 BKN030 13/09 Q1014=
201204242030 METAR LPPR 242030Z 19013KT 9999 FEW019 BKN030 12/09 Q1014=
201204242000 METAR LPPR 242000Z 19013KT 9999 SCT018 BKN030 12/09 Q1014=
201204241930 METAR LPPR 241930Z 20010KT 9999 FEW019 BKN030 13/09 Q1015=
201204241900 METAR LPPR 241900Z 20010KT 9999 FEW020 BKN040 13/08 Q1015=
201204241830 METAR LPPR 241830Z 21008KT 180V250 9999 FEW025 BKN040 13/07
                        Q1015=
201204241800 METAR LPPR 241800Z 22008KT 190V260 9999 FEW025 BKN040 13/07
                        Q1015=
201204241730 METAR LPPR 241730Z 22007KT 170V260 9999 FEW025 BKN040 13/07
                        Q1016=
201204241700 METAR LPPR 241700Z 21008KT 180V250 9999 SCT025 BKN040 13/07
                        Q1016=
201204241630 METAR LPPR 241630Z 23008KT 180V270 9999 SCT020 BKN040 14/08
                        Q1016=
201204241600 METAR LPPR 241600Z 20010KT 170V240 9999 SCT020 BKN040 14/08
                        Q1017=
201204241530 METAR LPPR 241530Z 22010KT 180V250 9999 SCT020 BKN040 14/07
                        Q1017=
201204241500 METAR LPPR 241500Z 21008KT 170V260 9999 FEW025 BKN040 13/07
                        Q1017=
201204241430 METAR LPPR 241430Z 23008KT 180V260 9999 FEW025 BKN045 13/06
                        Q1018=
201204241400 METAR LPPR 241400Z 22008KT 180V260 9999 FEW025 SCT030 14/07
                        Q1018=
201204241330 METAR LPPR 241330Z 25008KT 200V290 9999 FEW025 14/07 Q1018=
201204241300 METAR LPPR 241300Z 23008KT 190V250 9999 FEW022 14/07 Q1018=
201204241230 METAR LPPR 241230Z 25007KT 200V330 9999 FEW020 14/08 Q1018=
201204241200 METAR LPPR 241200Z 23008KT 180V290 9999 FEW020 14/08 Q1019=
201204241130 METAR LPPR 241130Z 26006KT 210V300 9999 FEW022 SCT030 14/08
                        Q1019=
201204241100 METAR LPPR 241100Z 28006KT 230V340 9999 FEW025 BKN030 13/07
                        Q1019=
201204241030 METAR LPPR 241030Z 31006KT 250V350 9999 FEW024 BKN030 13/07
                        Q1019=
201204241000 METAR LPPR 241000Z VRB03KT 9999 FEW020 BKN030 13/07 Q1019=
201204240930 METAR LPPR 240930Z 36004KT 320V050 9999 FEW020 BKN030 12/07
                        Q1019=
201204240900 METAR LPPR 240900Z VRB02KT 9999 FEW020 BKN030 11/08 Q1019=
201204240830 METAR LPPR 240830Z 35003KT 310V040 9999 FEW017 BKN030 10/08
                        Q1019=
201204240800 METAR LPPR 240800Z 02007KT 350V050 9000 -SHRA FEW020 SCT030
                        10/07 Q1019=
201204240730 METAR LPPR 240730Z 09003KT 9999 FEW020 SCT035 10/08 Q1019=
201204240700 METAR LPPR 240700Z 06002KT 9999 FEW018 09/08 Q1019=
201204240630 METAR LPPR 240630Z VRB01KT 9999 FEW017 SCT035 09/07 Q1019=
201204240600 METAR LPPR 240600Z VRB02KT 9999 FEW020 SCT030 BKN045 09/08
                        Q1018=
201204240530 METAR LPPR 240530Z 34003KT 320V020 9999 FEW020 SCT030 BKN040
                        09/08 Q1019=
201204240500 METAR LPPR 240500Z 35003KT 9999 FEW023 SCT030 BKN040 09/07
                        Q1019=
201204240430 METAR LPPR 240430Z 36009KT 9000 -SHRA FEW023 SCT030 BKN040
                        09/08 Q1019=
201204240400 METAR LPPR 240400Z 36002KT 9999 SCT027 OVC045 09/06 Q1019=
201204240330 METAR LPPR 240330Z 36002KT 9999 FEW020 BKN040 09/06 Q1019=
201204240300 METAR LPPR 240300Z 36003KT 320V020 9999 FEW020 BKN040 08/06
                        Q1019=
201204240230 METAR LPPR 240230Z 35004KT 9999 FEW020 BKN035 09/06 Q1019=
201204240200 METAR LPPR 240200Z 35003KT 9999 FEW025 BKN035 09/06 Q1019=
201204240130 METAR LPPR 240130Z 34003KT 9999 FEW025 BKN035 09/05 Q1019=
201204240100 METAR LPPR 240100Z 35003KT 320V050 9999 FEW025 BKN035 10/06
                        Q1019=
201204240030 METAR LPPR 240030Z 35004KT 9999 FEW025 SCT035 10/06 Q1020=
201204240000 METAR LPPR 240000Z 34004KT 9999 FEW025 SCT035 10/06 Q1020=
201204232330 METAR LPPR 232330Z 34007KT 9999 FEW020 SCT035 10/06 Q1020=
201204232300 METAR LPPR 232300Z 33008KT 9999 FEW020 BKN035 11/06 Q1020=
201204232230 METAR LPPR 232230Z 33010KT 9999 FEW020 SCT035 12/06 Q1020=
201204232200 METAR LPPR 232200Z 33009KT 300V360 9999 SCT020 BKN040 12/07
                        Q1020=
201204232130 METAR LPPR 232130Z 32009KT 290V010 9999 SCT020 BKN040 12/08
                        Q1020=
201204232100 METAR LPPR 232100Z 32008KT 290V010 9999 SCT020 BKN040 12/08
                        Q1019=
201204232030 METAR LPPR 232030Z 34006KT 9999 FEW020 BKN040 11/08 Q1019=
201204232000 METAR LPPR 232000Z 33008KT 300V360 9999 FEW011 SCT020 BKN032
                        11/08 Q1019=
201204231930 METAR LPPR 231930Z 32009KT 290V350 9999 FEW015 SCT025 BKN030
                        12/08 Q1018=
201204231900 METAR LPPR 231900Z 32009KT 290V350 9999 FEW020 SCT040 12/07
                        Q1018=
201204231830 METAR LPPR 231830Z 32009KT 9999 FEW015 BKN040 13/08 Q1018=
201204231800 METAR LPPR 231800Z 32011KT 280V350 9999 FEW015 SCT022 BKN037
                        13/08 Q1018=
201204231730 METAR LPPR 231730Z 30007KT 260V350 9999 FEW015 SCT021 BKN047
                        13/09 Q1018=
201204231700 METAR LPPR 231700Z 32007KT 270V350 9999 FEW018 SCT028 BKN040
                        13/08 Q1018=
201204231630 METAR LPPR 231630Z 31008KT 260V350 9999 FEW018 BKN040 14/09
                        Q1018=
201204231600 METAR LPPR 231600Z 31007KT 270V340 9999 FEW020 SCT033 BKN040
                        14/09 Q1018=
201204231530 METAR LPPR 231530Z 31008KT 270V350 9999 FEW025 BKN040 14/09
                        Q1018=
201204231500 METAR LPPR 231500Z 30009KT 270V340 9999 FEW025 BKN040 14/09
                        Q1018=
201204231430 METAR LPPR 231430Z 29006KT 240V350 9999 SCT030 BKN040 14/09
                        Q1018=
201204231400 METAR LPPR 231400Z 29009KT 240V320 9999 FEW025 BKN040 14/09
                        Q1018=
201204231330 METAR LPPR 231330Z 32009KT 280V350 9999 SCT011 BKN030 13/09
                        Q1019=
201204231300 METAR LPPR 231300Z 32010KT 270V350 5000 -DZ BR FEW009 SCT015
                        BKN030 12/10 Q1018=
201204231230 METAR LPPR 231230Z 29008KT 250V330 9999 FEW025 BKN040 14/09
                        Q1018=
201204231200 METAR LPPR 231200Z 30008KT 270V340 9999 FEW025 BKN040 15/10
                        Q1018=
201204231130 METAR LPPR 231130Z 32008KT 260V360 9999 SCT020 BKN040 14/09
                        Q1018=
201204231100 METAR LPPR 231100Z 30007KT 270V340 9999 FEW020 BKN040 14/10
                        Q1018=
201204231030 METAR LPPR 231030Z 31007KT 270V360 9999 FEW020 BKN040 14/10
                        Q1018=
201204231000 METAR LPPR 231000Z 30009KT 250V350 9999 FEW015 SCT019 BKN040
                        14/11 Q1018=
201204230930 METAR LPPR 230930Z 29007KT 260V320 9999 FEW020 BKN040 14/11
                        Q1017=
201204230900 METAR LPPR 230900Z 29006KT 260V330 9999 FEW008 BKN040 14/12
                        Q1017=
201204230830 METAR LPPR 230830Z 30005KT 260V340 9999 FEW008 SCT018 BKN040
                        14/12 Q1017=
201204230800 METAR LPPR 230800Z 26005KT 180V350 9999 FEW004 BKN010 BKN017
                        13/13 Q1017=
201204230730 METAR LPPR 230730Z 25006KT 210V290 9000 SCT003 BKN011 BKN016
                        13/13 Q1017=
201204230700 METAR LPPR 230700Z 24007KT 180V270 6000 -RADZ SCT003 BKN009
                        13/12 Q1017=
201204230630 METAR LPPR 230630Z 22006KT 180V270 8000 -RADZ SCT003 BKN009
                        12/12 Q1017=
201204230600 METAR LPPR 230600Z 21010KT 2900 -RADZ BR FEW003 BKN007 12/11
                        Q1017=
201204230530 METAR LPPR 230530Z 21009KT 180V240 5000 -RADZ BR SCT003 BKN008
                        11/11 Q1017=
201204230500 METAR LPPR 230500Z 22008KT 180V260 3900 -RADZ BR SCT003 BKN008
                        11/10 Q1017=
201204230430 METAR LPPR 230430Z 22006KT 190V250 4400 -RADZ BR SCT004 BKN008
                        11/10 Q1018=
201204230400 METAR LPPR 230400Z 22005KT 190V270 8000 -RADZ FEW008 SCT012
                        BKN025 11/09 Q1018=
201204230330 METAR LPPR 230330Z 23007KT 160V270 9999 FEW014 BKN025 12/09
                        Q1018=
201204230300 METAR LPPR 230300Z 23005KT 180V280 9999 FEW017 BKN025 12/09
                        Q1018=
201204230230 METAR LPPR 230230Z 21004KT 180V240 9999 FEW017 BKN030 12/09
                        Q1019=
201204230200 METAR LPPR 230200Z 21004KT 9999 FEW018 BKN038 11/09 Q1019=
201204230130 METAR LPPR 230130Z 18003KT 9999 FEW023 SCT045 10/08 Q1019=
201204230100 METAR LPPR 230100Z 15003KT 9999 SCT049 09/07 Q1020=
201204230030 METAR LPPR 230030Z 16003KT 9999 FEW019 09/07 Q1020=
201204230000 METAR LPPR 230000Z 15002KT 9999 FEW019 SCT030 08/07 Q1020=
201204222330 METAR LPPR 222330Z 00000KT 9999 FEW020 SCT030 09/07 Q1021=
201204222300 METAR LPPR 222300Z 00000KT 9999 SCT030 09/07 Q1021=
201204222230 METAR LPPR 222230Z 17001KT 9999 SCT030 10/06 Q1021=
201204222200 METAR LPPR 222200Z 06001KT 9999 FEW020 10/06 Q1021=
201204222130 METAR LPPR 222130Z 33004KT 9999 FEW020 SCT045 11/06 Q1021=
201204222100 METAR LPPR 222100Z 33004KT 290V350 9999 FEW020 BKN046 12/06
                        Q1020=
201204222030 METAR LPPR 222030Z 33006KT 9999 FEW020 BKN046 12/06 Q1020=
201204222000 METAR LPPR 222000Z 32007KT 9999 FEW020 BKN048 12/06 Q1020=
201204221930 METAR LPPR 221930Z 32007KT 270V350 9999 FEW020 BKN049 12/07
                        Q1020=
201204221900 METAR LPPR 221900Z 32005KT 270V360 9999 FEW020 12/08 Q1020=
201204221830 METAR LPPR 221830Z 32007KT 270V010 9999 FEW021TCU 13/08 Q1019=
201204221800 METAR LPPR 221800Z 32008KT 270V350 9999 FEW021TCU 13/08 Q1020=
201204221730 METAR LPPR 221730Z 31007KT 270V360 9999 SCT022TCU 14/08 Q1020=
201204221700 METAR LPPR 221700Z 30008KT 260V350 9999 SCT021TCU 14/08 Q1020=
201204221630 METAR LPPR 221630Z 29007KT 260V360 9999 SCT023 14/07 Q1020=
201204221600 METAR LPPR 221600Z 29008KT 250V330 9999 SCT022 14/08 Q1020=
201204221530 METAR LPPR 221530Z 29007KT 240V320 9999 SCT022 14/09 Q1020=
201204221500 METAR LPPR 221500Z 28007KT 240V320 9999 FEW020 14/09 Q1020=
201204221430 METAR LPPR 221430Z 28007KT 240V330 9999 FEW020 14/08 Q1020=
201204221400 METAR LPPR 221400Z 28008KT 220V330 9999 FEW018 14/08 Q1020=
201204221330 METAR LPPR 221330Z 28007KT 230V030 9999 FEW017 SCT030 14/08
                        Q1020=
201204221300 METAR LPPR 221300Z 30006KT 260V340 9999 FEW017 SCT027 15/08
                        Q1020=
201204221230 METAR LPPR 221230Z 29006KT 210V340 9999 FEW017 SCT025 14/07
                        Q1020=
201204221200 METAR LPPR 221200Z 31006KT 280V010 9999 FEW014 SCT025 BKN042
                        14/08 Q1020=
201204221130 METAR LPPR 221130Z 29005KT 240V320 9999 FEW020 SCT029 BKN048
                        14/08 Q1020=
201204221100 METAR LPPR 221100Z 30005KT 260V330 9999 FEW020 SCT033 14/07
                        Q1020=
201204221030 METAR LPPR 221030Z 33006KT 290V350 9999 FEW020 SCT034 14/07
                        Q1020=
201204221000 METAR LPPR 221000Z 33005KT 290V010 9999 FEW020 SCT030 BKN050
                        14/07 Q1020=
201204220930 METAR LPPR 220930Z 34005KT 310V010 9999 FEW020 SCT030 BKN050
                        13/07 Q1020=
201204220900 METAR LPPR 220900Z 35003KT 310V010 CAVOK 13/07 Q1020=
201204220830 METAR LPPR 220830Z 35003KT CAVOK 13/07 Q1020=
201204220800 METAR LPPR 220800Z 01003KT 330V060 CAVOK 12/08 Q1019=
201204220730 METAR LPPR 220730Z 02003KT 320V050 9999 BKN045 12/08 Q1019=
201204220700 METAR LPPR 220700Z VRB01KT 9999 BKN040 11/08 Q1019=
201204220630 METAR LPPR 220630Z 02003KT 330V060 9999 BKN040 11/09 Q1019=
201204220600 METAR LPPR 220600Z 36003KT 300V050 9999 BKN040 10/08 Q1019=
201204220530 METAR LPPR 220530Z VRB01KT 9999 FEW030 BKN040 10/09 Q1019=
201204220500 METAR LPPR 220500Z 00000KT 9999 BKN040 11/08 Q1019=
201204220430 METAR LPPR 220430Z 09003KT 040V140 9999 BKN040 11/08 Q1019=
201204220400 METAR LPPR 220400Z VRB01KT 9999 BKN040 11/07 Q1019=
201204220330 METAR LPPR 220330Z VRB01KT 9999 BKN040 11/08 Q1019=
201204220300 METAR LPPR 220300Z VRB01KT 9999 BKN040 11/09 Q1019=
201204220230 METAR LPPR 220230Z VRB01KT 9999 FEW030 BKN040 11/09 Q1020=
201204220200 METAR LPPR 220200Z 34002KT 9999 SCT030 BKN040 12/08 Q1020=
201204220130 METAR LPPR 220130Z 01003KT 9999 SCT030 BKN040 11/09 Q1020=
201204220100 METAR LPPR 220100Z VRB01KT 9999 SCT030 BKN040 11/09 Q1020=
201204220030 METAR LPPR 220030Z 04002KT 9999 BKN040 11/09 Q1020=
201204220000 METAR LPPR 220000Z 05002KT 9999 BKN040 11/09 Q1020=
201204212330 METAR LPPR 212330Z 34002KT 9999 BKN040 11/10 Q1020=
201204212300 METAR LPPR 212300Z 35004KT 310V020 9999 BKN040 11/10 Q1020=
201204212230 METAR LPPR 212230Z 32003KT 9999 BKN040 10/09 Q1020=
201204212200 METAR LPPR 212200Z VRB01KT 9999 BKN040 10/09 Q1020=
201204212130 METAR LPPR 212130Z 01001KT 9999 FEW040 10/09 Q1020=
201204212100 METAR LPPR 212100Z VRB01KT 9999 FEW040 11/09 Q1019=
201204212030 METAR LPPR 212030Z 32004KT 9999 FEW040 12/10 Q1019=
201204212000 METAR LPPR 212000Z 32005KT 9999 FEW040 12/10 Q1019=
201204211930 METAR LPPR 211930Z 32005KT 9999 FEW040 13/10 Q1018=
201204211900 METAR LPPR 211900Z 32007KT 290V360 9999 FEW009 SCT040 13/10
                        Q1018=
201204211830 METAR LPPR 211830Z 32006KT 280V350 9999 SCT009 BKN040 14/11
                        Q1018=
201204211800 METAR LPPR 211800Z 31007KT 240V350 9999 SCT012 SCT016 BKN040
                        14/12 Q1018=
201204211730 METAR LPPR 211730Z 32010KT 280V350 9999 SCT012 FEW015TCU
                        BKN017 15/12 Q1018=
201204211700 METAR LPPR 211700Z 29006KT 250V340 9999 SCT012 FEW015TCU
                        BKN017 15/12 Q1018=
201204211630 METAR LPPR 211630Z 30007KT 270V340 9999 BKN012 FEW015TCU
                        BKN030 15/12 Q1018=
201204211600 METAR LPPR 211600Z 30005KT 190V360 9999 SCT013 FEW015TCU
                        BKN030 14/11 Q1017=
201204211530 METAR LPPR 211530Z 30007KT 270V340 9999 SCT015 FEW018TCU
                        BKN025 15/11 Q1017=
201204211500 METAR LPPR 211500Z 29006KT 9999 SCT016 FEW017TCU BKN025 15/12
                        Q1017=
201204211430 METAR LPPR 211430Z 29006KT 230V360 9999 FEW009 SCT012 FEW013TCU
                        15/13 Q1017=
201204211400 METAR LPPR 211400Z 30006KT 260V350 9999 FEW009 SCT012 FEW013TCU
                        15/13 Q1017=
201204211330 METAR LPPR 211330Z 30006KT 260V340 9999 FEW008 SCT014 FEW015TCU
                        BKN038 15/12 Q1017=
201204211300 METAR LPPR 211300Z 31007KT 270V350 9999 FEW008 SCT013 FEW014TCU
                        BKN042 16/13 Q1017=
201204211230 METAR LPPR 211230Z 29006KT 230V350 9999 SCT009 FEW012TCU
                        BKN040 15/13 Q1017=
201204211200 METAR LPPR 211200Z 31007KT 260V340 9999 FEW008 BKN011 FEW012TCU
                        BKN030 15/12 Q1017=
201204211130 METAR LPPR 211130Z 29006KT 260V320 9999 SCT007 BKN025 15/13
                        Q1017=
201204211100 METAR LPPR 211100Z 28007KT 240V330 9999 BKN005 BKN018 15/13
                        Q1016=
201204211030 METAR LPPR 211030Z 29006KT 250V320 9999 SCT005 BKN010 14/14
                        Q1016=
201204211000 METAR LPPR 211000Z 26005KT 210V310 5000 -DZRA BR BKN003 BKN012
                        14/14 Q1016=
201204210930 METAR LPPR 210930Z 25005KT 210V300 2000 -DZRA BR BKN002 BKN003
                        14/13 Q1016=
201204210900 METAR LPPR 210900Z 25006KT 190V340 5000 BR SCT002 BKN003
                        14/13 Q1015=
201204210830 METAR LPPR 210830Z 24006KT 190V300 3500 -DZ BR SCT001 BKN002
                        13/13 Q1015=
201204210800 METAR COR LPPR 210800Z 24006KT 210V280 2000 -DZ BR SCT001
                        BKN002 13/13 Q1015=
201204210730 METAR LPPR 210730Z 24008KT 210V290 1800 -DZRA BR SCT001 BKN002
                        13/13 Q1014=
201204210700 METAR LPPR 210700Z 23007KT 190V270 2200 -RADZ BR BKN003 BKN004
                        13/12 Q1014=
201204210630 METAR LPPR 210630Z 21004KT 170V260 9000 SCT008 BKN010 BKN023
                        13/12 Q1014=
201204210600 METAR LPPR 210600Z 23004KT 180V270 9999 SCT003 BKN013 BKN017
                        13/12 Q1014=
201204210530 METAR LPPR 210530Z 24003KT 170V290 9999 SCT003 BKN013 BKN026
                        13/12 Q1014=
201204210500 METAR LPPR 210500Z 26003KT 180V320 9999 -SHRA SCT005 BKN017
                        BKN025 13/12 Q1014=
201204210430 METAR LPPR 210430Z 25003KT 210V320 9999 SCT002 BKN005 BKN015
                        13/13 Q1014=
201204210400 METAR LPPR 210400Z 27003KT 230V340 9999 SCT003 BKN010 BKN015
                        13/13 Q1014=
201204210330 METAR LPPR 210330Z 28005KT 240V320 9999 SCT002 BKN004 BKN016
                        13/13 Q1014=
201204210300 METAR LPPR 210300Z 26005KT 190V350 9999 -RADZ BKN002 BKN004
                        13/13 Q1014=
201204210230 METAR LPPR 210230Z 23007KT 160V260 6000 -RADZ BKN002 BKN004
                        13/13 Q1014=
201204210200 METAR LPPR 210200Z 24006KT 210V270 6000 -RADZ BKN002 BKN004
                        13/13 Q1014=
201204210130 METAR LPPR 210130Z 24007KT 200V290 6000 -RADZ BKN002 BKN004
                        13/13 Q1014=
201204210100 METAR LPPR 210100Z 24006KT 200V290 7000 -RADZ BKN002 BKN005
                        13/13 Q1014=
201204210030 METAR LPPR 210030Z 25005KT 220V280 8000 -RADZ BKN002 BKN005
                        13/13 Q1015=
201204210000 METAR LPPR 210000Z 25005KT 210V320 6000 -RADZ BKN002 BKN005
                        13/13 Q1015=
201204202330 METAR LPPR 202330Z 26004KT 160V320 8000 -RADZ BKN002 BKN005
                        13/13 Q1015=
201204202300 METAR LPPR 202300Z 25006KT 190V310 3500 RADZ BR BKN002 OVC004
                        14/13 Q1015=
201204202230 METAR LPPR 202230Z 24005KT 170V290 4200 RADZ BR FEW001 OVC002
                        13/13 Q1015=
201204202200 METAR LPPR 202200Z 20006KT 6000 RADZ OVC003 13/12 Q1015=
201204202130 METAR LPPR 202130Z 19006KT 6000 RADZ BKN003 OVC009 13/12
                        Q1015=
201204202100 METAR LPPR 202100Z 22004KT 170V260 8000 RADZ SCT003 BKN005
                        OVC012 13/12 Q1015=
201204202030 METAR LPPR 202030Z 22004KT 190V260 7000 RADZ SCT003 BKN009
                        BKN015 13/12 Q1015=
201204202000 METAR LPPR 202000Z 23005KT 200V260 9999 -RADZ BKN003 BKN010
                        OVC012 13/12 Q1015=
201204201930 METAR LPPR 201930Z 21005KT 180V250 8000 -RADZ SCT004 SCT008
                        BKN013 13/12 Q1015=
201204201900 METAR LPPR 201900Z 24006KT 190V290 9999 SCT006 BKN013 BKN015
                        14/12 Q1015=
201204201830 METAR LPPR 201830Z 23004KT 190V280 9999 SCT009 BKN016 BKN029
                        14/12 Q1015=
201204201800 METAR LPPR 201800Z 24005KT 200V270 9999 SCT009 SCT015 BKN028
                        14/12 Q1015=
201204201730 METAR LPPR 201730Z 24007KT 210V280 9999 SCT009 SCT011 BKN034
                        15/12 Q1015=
201204201700 METAR LPPR 201700Z 25006KT 210V310 9999 R35/P2000 SCT008 SCT015
                        BKN037 15/12 Q1015=
201204201630 METAR LPPR 201630Z 23006KT 200V290 9999 SCT008 BKN012 BKN043
                        15/13 Q1015=
201204201600 METAR LPPR 201600Z 28004KT 220V340 9999 SCT008 SCT013 BKN024
                        15/12 Q1015=
201204201530 METAR LPPR 201530Z 26005KT 200V340 9999 FEW008 SCT010 BKN029
                        15/13 Q1015=
201204201500 METAR LPPR 201500Z 25007KT 200V300 9999 FEW007 BKN013 BKN030
                        15/13 Q1015=
201204201430 METAR LPPR 201430Z 24008KT 210V310 9999 FEW008 BKN012 BKN035
                        15/12 Q1015=
201204201400 METAR LPPR 201400Z 26007KT 210V300 9999 FEW013 BKN040 16/11
                        Q1015=
201204201330 METAR LPPR 201330Z 27006KT 210V010 9999 FEW011 BKN045 16/11
                        Q1014=
201204201300 METAR LPPR 201300Z 28005KT 230V340 9999 SCT010 BKN045 16/12
                        Q1014=
201204201230 METAR LPPR 201230Z 28006KT 220V320 9999 SCT007 BKN014 BKN045
                        16/12 Q1014=
201204201200 METAR LPPR 201200Z 26006KT 210V310 9999 SCT007 SCT015 BKN040
                        15/13 Q1014=
201204201130 METAR LPPR 201130Z 26007KT 220V290 9999 FEW007 SCT015 BKN040
                        15/13 Q1014=
201204201100 METAR LPPR 201100Z 24006KT 200V310 9999 SCT009 BKN016 14/12
                        Q1014=
201204201030 METAR LPPR 201030Z 27005KT 210V310 9999 SCT009 BKN015 OVC018
                        14/11 Q1014=
201204201000 METAR LPPR 201000Z 27004KT 210V300 9999 SCT011 SCT015 BKN020
                        14/12 Q1013=
201204200930 METAR LPPR 200930Z 31005KT 260V360 9999 FEW009 SCT012 BKN023
                        14/12 Q1013=
201204200900 METAR LPPR 200900Z 32005KT 250V030 9999 FEW008 BKN018 BKN040
                        14/12 Q1013=
201204200830 METAR LPPR 200830Z 30005KT 260V340 9999 FEW008 BKN012 OVC020
                        13/12 Q1012=
201204200800 METAR LPPR 200800Z 30006KT 270V350 9999 FEW007 BKN011 OVC020
                        13/12 Q1012=
201204200730 METAR LPPR 200730Z 30005KT 270V350 9999 FEW007 BKN017 BKN025
                        13/12 Q1012=
201204200700 METAR LPPR 200700Z 31005KT 270V350 9999 -RA FEW007 SCT015
                        BKN028 13/12 Q1012=
201204200630 METAR LPPR 200630Z VRB05KT 9000 BKN005 BKN025 13/12 Q1011=
201204200600 METAR LPPR 200600Z 31008KT 270V350 9999 BKN006 BKN026 13/12
                        Q1011=
201204200530 METAR LPPR 200530Z 30010KT 270V330 8000 BKN004 BKN007 13/12
                        Q1010=
201204200500 METAR LPPR 200500Z 30006KT 270V340 4000 -DZRA BR BKN002 BKN014
                        13/12 Q1010=
201204200430 METAR LPPR 200430Z 29010KT 260V360 4600 -DZRA BR BKN003 BKN005
                        13/12 Q1010=
201204200400 METAR LPPR 200400Z 27007KT 200V320 8000 BKN002 BKN005 13/12
                        Q1010=
201204200330 METAR LPPR 200330Z 24008KT 200V290 3300 -DZ BR OVC002 13/12
                        Q1010 REDZ=
201204200300 METAR LPPR 200300Z 24006KT 210V290 2500 +DZ BR OVC002 12/12
                        Q1010=
201204200230 METAR LPPR 200230Z 27007KT 220V310 8000 -DZRA BKN004 BKN018
                        12/11 Q1010=
201204200200 METAR LPPR 200200Z 26004KT 200V340 9000 -DZRA SCT008 BKN014
                        13/11 Q1011=
201204200130 METAR LPPR 200130Z 27005KT 210V320 9999 -RA FEW010 BKN014
                        BKN032 13/11 Q1011=
201204200100 METAR LPPR 200100Z 27004KT 210V330 9999 -RA FEW010 SCT014
                        BKN030 13/11 Q1011=
201204200030 METAR LPPR 200030Z 28005KT 230V350 5000 -DZRA BR SCT006 BKN012
                        13/12 Q1011=
201204200000 METAR LPPR 200000Z 25006KT 190V300 9000 -RA FEW010 SCT015
                        BKN030 13/11 Q1011=
201204192330 METAR LPPR 192330Z 25005KT 210V330 6000 -DZRA FEW008 BKN015
                        BKN030 13/11 Q1012=
201204192300 METAR LPPR 192300Z 23006KT 200V270 9999 -RA FEW006 BKN015
                        BKN033 12/11 Q1012=
201204192230 METAR LPPR 192230Z 23004KT 190V270 9999 FEW010 BKN016 12/11
                        Q1012=
201204192200 METAR LPPR 192200Z 25003KT 180V340 9999 R35/P2000 -RA SCT011 BKN017
                        BKN022 12/10 Q1012=
201204192130 METAR LPPR 192130Z 29003KT 240V340 9000 -RA SCT013 BKN017
                        BKN020 12/10 Q1012=
201204192100 METAR LPPR 192100Z 29005KT 240V330 9999 -RA SCT013 BKN015
                        BKN039 12/10 Q1012=
201204192030 METAR LPPR 192030Z 27004KT 230V330 9999 SCT019 BKN038 BKN045
                        12/10 Q1012=
201204192000 METAR LPPR 192000Z 28005KT 230V320 9999 FEW020 BKN039 BKN046
                        12/09 Q1011=
201204191930 METAR LPPR 191930Z 29005KT 250V330 9999 SCT039 BKN044 12/08
                        Q1011=
201204191900 METAR LPPR 191900Z 27004KT 200V320 9000 SCT018 BKN047 12/09
                        Q1011=
201204191830 METAR LPPR 191830Z 26003KT 200V320 9999 FEW015 SCT035 BKN045
                        11/09 Q1011=
201204191800 METAR LPPR 191800Z 31004KT 260V350 9999 SCT011 BKN037 BKN049
                        11/09 Q1011=
201204191730 METAR LPPR 191730Z 32006KT 280V360 8000 2800S -RA SCT013
                        BKN031 BKN039 12/09 Q1011=
201204191700 METAR LPPR 191700Z 30006KT 260V350 9999 SCT018 BKN021 OVC047
                        13/09 Q1011=
201204191630 METAR LPPR 191630Z 29007KT 260V320 9999 SCT021 BKN050 13/08
                        Q1011=
201204191600 METAR LPPR 191600Z 29008KT 260V330 9999 FEW020TCU SCT027
                        BKN047 13/08 Q1010=
201204191530 METAR LPPR 191530Z 29008KT 260V330 9999 FEW017 FEW020TCU
                        BKN048 13/09 Q1011=
201204191500 METAR LPPR 191500Z 30010KT 260V350 9999 FEW018 FEW020TCU
                        BKN045 13/08 Q1011=
201204191430 METAR LPPR 191430Z 30009KT 270V340 9999 R35/P2000 FEW016 FEW019TCU
                        BKN030 14/10 Q1010=
201204191400 METAR LPPR 191400Z 33010KT 270V360 9999 SCT019 BKN031 13/09
                        Q1011=
201204191330 METAR LPPR 191330Z 31009KT 260V350 9999 FEW020 BKN040 13/09
                        Q1010=
201204191300 METAR LPPR 191300Z 29009KT 260V330 9999 FEW016 SCT030 14/10
                        Q1010=
201204191230 METAR LPPR 191230Z 32012KT 9999 FEW014 SCT030 14/09 Q1010=
201204191200 METAR LPPR 191200Z 33012KT 9999 FEW016 SCT033 12/09 Q1010=
201204191130 METAR LPPR 191130Z 32012KT 280V340 9999 FEW018 SCT042 14/09
                        Q1010=
201204191100 METAR LPPR 191100Z 30010KT 270V360 9999 FEW019 SCT033 14/09
                        Q1010=
201204191030 METAR LPPR 191030Z 32010KT 290V350 9999 FEW020 SCT035 14/09
                        Q1009=
201204191000 METAR LPPR 191000Z 32009KT 290V350 9999 FEW019 SCT025 13/09
                        Q1009=
201204190930 METAR LPPR 190930Z 32010KT 290V350 9999 FEW015 SCT025 13/10
                        Q1009=
201204190900 METAR LPPR 190900Z 32009KT 260V360 9999 FEW012 SCT030 12/10
                        Q1009=
201204190830 METAR LPPR 190830Z 31007KT 260V350 9999 FEW020 BKN045 13/10
                        Q1008=
201204190800 METAR LPPR 190800Z 31007KT 280V360 9999 FEW012 BKN045 12/10
                        Q1008=
201204190730 METAR LPPR 190730Z 31007KT 270V350 9000 FEW019 BKN030 12/10
                        Q1008=
201204190700 METAR LPPR 190700Z 30005KT 270V350 9999 FEW020 SCT035 12/10
                        Q1008=
201204190630 METAR LPPR 190630Z 28003KT 230V320 8000 FEW020 BKN040 11/10
                        Q1007=
201204190600 METAR LPPR 190600Z 29005KT 250V330 9999 FEW016 BKN035 11/10
                        Q1007=
201204190530 METAR LPPR 190530Z 31005KT 260V350 9999 SCT018 BN035 10/08
                        Q1007=
201204190500 METAR LPPR 190500Z 30010G23KT 240V340 8000 -SHRA FEW012 BKN018
                        OVC035 11/09 Q1007=
201204190430 METAR LPPR 190430Z 29008KT 260V340 9999 SCT016 BKN024 12/10
                        Q1007=
201204190400 METAR LPPR 190400Z 29007KT 260V330 9999 SCT012 BKN018 12/10
                        Q1007=
201204190330 METAR LPPR 190330Z 29007KT 250V330 9999 SCT012 SCT018 BKN022
                        12/10 Q1007=
201204190300 METAR LPPR 190300Z 29007KT 250V320 9999 -SHRA SCT012 BKN018
                        BKN038 12/10 Q1007=
201204190230 METAR LPPR 190230Z 29007KT 240V340 9999 FEW013 BKN017 OVC040
                        12/10 Q1008=
201204190200 METAR LPPR 190200Z 30006KT 270V350 9999 FEW015 SCT025 BKN035
                        12/09 Q1008=
201204190130 METAR LPPR 190130Z 31008KT 260V020 9999 SCT008 BKN023 11/09
                        Q1008=
201204190100 METAR LPPR 190100Z 28007G19KT 220V330 6000 -SHRA BKN017 BKN024
                        12/10 Q1008=
201204190030 METAR LPPR 190030Z 29006KT 250V320 9999 FEW018 SCT030 BKN045
                        12/09 Q1009=
201204190000 METAR LPPR 190000Z 30010G20KT 260V330 9999 -RA BKN017 BKN025
                        11/09 Q1009=
201204182330 METAR LPPR 182330Z 28006KT 220V320 8000 -RA SCT020 BKN040
                        12/10 Q1009=
201204182300 METAR LPPR 182300Z 29007KT 260V330 9999 -RA SCT020 BKN030
                        12/09 Q1010=
201204182230 METAR LPPR 182230Z 29007KT 260V360 9000 -RA SCT020 BKN040
                        12/10 Q1010=
201204182200 METAR LPPR 182200Z 30008KT 250V350 9999 -RA SCT017 BKN040
                        12/10 Q1010=
201204182130 METAR LPPR 182130Z 29009KT 250V350 9999 -SHRA SCT015 BKN020
                        12/10 Q1010=
201204182100 METAR LPPR 182100Z 28006KT 250V330 9000 -SHRA FEW015 SCT020
                        BKN025 12/10 Q1010=
201204182030 METAR LPPR 182030Z 29008KT 250V330 9999 -SHRA FEW012 SCT020
                        BKN040 12/10 Q1010=
201204182000 METAR LPPR 182000Z 30010G20KT 260V340 5000 -SHRA BR FEW012
                        BKN015 BKN020 11/09 Q1010=
201204181930 METAR LPPR 181930Z 28007KT 240V320 7000 -RA FEW009 SCT015
                        BKN025 12/10 Q1010=
201204181900 METAR LPPR 181900Z 29009G22KT 260V340 6000 -RA SCT015 BKN017
                        BKN025 12/10 Q1010=
201204181830 METAR LPPR 181830Z 29009KT 260V330 6000 -RA SCT015 BKN017
                        BKN025 12/10 Q1010=
201204181800 METAR LPPR 181800Z 29008KT 250V320 7000 -SHRA FEW015 BKN017
                        BKN030 12/10 Q1010=
201204181730 METAR LPPR 181730Z 29011G21KT 260V330 6000 -SHRA FEW009 SCT015
                        BKN020 11/10 Q1011=
201204181700 METAR LPPR 181700Z 28007KT 250V320 7000 -SHRA FEW009 BKN019
                        BKN030 12/10 Q1011=
201204181630 METAR LPPR 181630Z 29008G18KT 270V350 7000 -RA SCT007 BKN015
                        BKN020 11/10 Q1011=
201204181600 METAR LPPR 181600Z 29011G21KT 240V320 4000 -RA BR FEW009
                        SCT015 BKN020 11/09 Q1011=
201204181530 METAR LPPR 181530Z 28007KT 240V320 8000 -SHRA SCT015 BKN020
                        12/10 Q1011=
201204181500 METAR LPPR 181500Z 29009KT 260V320 9000 -SHRA SCT020 BKN030
                        12/09 Q1012=
201204181430 METAR LPPR 181430Z 28011G21KT 240V320 8000 -SHRA SCT015 BKN030
                        12/10 Q1012=
201204181400 METAR LPPR 181400Z 28009KT 230V310 9999 SCT017 BKN030 13/10
                        Q1013=
201204181330 METAR LPPR 181330Z 28009KT 240V310 9999 FEW017 BKN035 13/09
                        Q1013=
201204181300 METAR LPPR 181300Z 28009KT 250V340 9999 SCT016 BKN030 13/09
                        Q1013=
201204181230 METAR LPPR 181230Z 29009KT 230V340 8000 FEW020 BKN030 12/09
                        Q1013=
201204181200 METAR LPPR 181200Z 28008KT 240V330 9000 FEW015 FEW025CB BKN030
                        12/09 Q1013=
201204181130 METAR LPPR 181130Z 28007KT 230V330 9999 FEW012 FEW025CB BKN030
                        12/10 Q1014=
201204181100 METAR LPPR 181100Z 29010G22KT 250V340 8000 SCT016 FEW025CB
                        BKN030 11/09 Q1014=
201204181030 METAR LPPR 181030Z 29006KT 230V330 9999 FEW015 FEW025CB BKN045
                        12/09 Q1014=
201204181000 METAR LPPR 181000Z 29007KT 250V330 8000 -SHRA FEW020 FEW025CB
                        BKN037 12/09 Q1014=
201204180930 METAR LPPR 180930Z 28006KT 230V330 9999 FEW020 FEW025CB BKN040
                        12/09 Q1015=
201204180900 METAR LPPR 180900Z 28006KT 230V350 9999 FEW012 FEW020CB BKN048
                        11/09 Q1015=
201204180830 METAR LPPR 180830Z 31007KT 260V350 9999 SCT006 SCT018 BKN030
                        11/10 Q1015=
201204180800 METAR LPPR 180800Z 28005KT 220V320 9999 FEW014 FEW025CB BKN030
                        12/09 Q1015=
201204180730 METAR LPPR 180730Z 30007KT 260V330 5000 -SHRA BR SCT019 BKN023
                        11/09 Q1015=
201204180700 METAR LPPR 180700Z 29004KT 230V340 9999 FEW025 SCT035 11/09
                        Q1015=
201204180630 METAR LPPR 180630Z 28005KT 250V320 9999 FEW009 SCT017 BKN040
                        10/08 Q1015=
201204180600 METAR LPPR 180600Z 30004KT 260V350 8000 -SHRA FEW006 SCT008
                        BKN012 OVC037 10/09 Q1016=
201204180530 METAR LPPR 180530Z 32008KT 280V350 9000 -SHRA FEW007 SCT015
                        BKN025 10/08 Q1016=
201204180500 METAR LPPR 180500Z 29007KT 240V320 9999 FEW020 BKN035 12/07
                        Q1016=
201204180430 METAR LPPR 180430Z 29006KT 250V330 9999 FEW023 BKN045 12/07
                        Q1016=
201204180400 METAR LPPR 180400Z 30006KT 250V330 9999 FEW020 SCT040 12/06
                        Q1016=
201204180330 METAR LPPR 180330Z 31005KT 250V010 9999 FEW020 BKN040 11/06
                        Q1016=
201204180300 METAR LPPR 180300Z 29005KT 260V330 9999 FEW020 BKN033 BKN050
                        12/08 Q1017=
201204180230 METAR LPPR 180230Z 32007KT 270V350 9999 SCT020 SCT040 OVC050
                        12/06 Q1017=
201204180200 METAR LPPR 180200Z 30005KT 250V360 9999 FEW020 SCT045 12/08
                        Q1018=
201204180130 METAR LPPR 180130Z 30004KT 240V350 9999 FEW020 SCT045 11/07
                        Q1018=
201204180100 METAR LPPR 180100Z 31004KT 270V010 9999 FEW020 BKN045 11/07
                        Q1018=
201204180030 METAR LPPR 180030Z 32008KT 280V360 9999 FEW020 BKN045 12/07
                        Q1019=
201204180000 METAR LPPR 180000Z 32004KT 260V360 9999 FEW020 SCT040 11/07
                        Q1019=
201204172330 METAR LPPR 172330Z 31004KT 270V350 9999 FEW020 SCT035 11/06
                        Q1020=
201204172300 METAR LPPR 172300Z 33007KT 290V360 9999 FEW020 SCT035 11/06
                        Q1020=
201204172230 METAR LPPR 172230Z 33005KT 9999 FEW020 SCT035 10/06 Q1020=
201204172200 METAR LPPR 172200Z 34003KT 310V010 9999 FEW018 BKN035 10/07
                        Q1020=
201204172130 METAR LPPR 172130Z 33005KT 9999 FEW018 BKN035 10/07 Q1020=
201204172100 METAR LPPR 172100Z 33009KT 9000 -SHRA SCT018 BKN035 10/07
                        Q1020=
201204172030 METAR LPPR 172030Z 33005KT 9999 FEW017 BKN033 11/07 Q1020=
201204172000 METAR LPPR 172000Z 33005KT 9999 FEW017 BKN030 11/07 Q1020=
201204171930 METAR LPPR 171930Z 33007KT 9999 FEW017 SCT030 11/07 Q1020=
201204171900 METAR LPPR 171900Z 33011KT 9999 FEW017 SCT030 12/07 Q1020=
201204171830 METAR LPPR 171830Z 33007KT 9999 SCT013 BKN040 12/09 Q1020=
201204171800 METAR LPPR 171800Z 33007KT 290V350 9000 FEW007 SCT013 BKN026
                        12/10 Q1020=
201204171730 METAR LPPR 171730Z 33010G20KT 290V360 9000 FEW005 BKN007
                        OVC022 11/10 Q1020=
201204171700 METAR LPPR 171700Z 33013KT 300V360 3000 -RADZ BR BKN004 OVC012
                        11/10 Q1020=
201204171630 METAR LPPR 171630Z 32009KT 280V350 6000 -RA SCT003 BKN005
                        OVC015 12/11 Q1020=
201204171600 METAR LPPR 171600Z 32010KT 290V350 4000 -RADZ BR BKN002 BKN005
                        OVC011 13/12 Q1020=
201204171530 METAR LPPR 171530Z 24006KT 180V290 2500 -RADZ BR BKN002 BKN003
                        13/13 Q1020=
201204171500 METAR LPPR 171500Z 24007KT 210V290 3500 -DZ BR SCT004 BKN007
                        14/13 Q1020=
201204171430 METAR LPPR 171430Z 24006KT 200V300 6000 -DZ BKN006 BKN008
                        14/12 Q1021=
201204171400 METAR LPPR 171400Z 24009KT 200V270 6000 -DZ BKN007 BKN020
                        14/12 Q1021=
201204171330 METAR LPPR 171330Z 24007KT 210V300 9999 FEW010 SCT022 BKN030
                        15/12 Q1022=
201204171300 METAR LPPR 171300Z 24007KT 210V310 9999 FEW009 SCT025 BKN040
                        15/12 Q1022=
201204171230 METAR LPPR 171230Z VRB06KT 9999 SCT009 SCT015 BKN045 15/12
                        Q1022=
201204171200 METAR LPPR 171200Z 30005KT 260V350 9999 SCT008 SCT019 BKN040
                        14/12 Q1023=
201204171130 METAR LPPR 171130Z 28005KT 240V330 9999 SCT007 BKN025 13/12
                        Q1023=
201204171100 METAR LPPR 171100Z VRB02KT 9999 FEW005 BKN008 OVC025 13/12
                        Q1023=
201204171030 METAR LPPR 171030Z VRB03KT 7000 BKN003 BKN006 OVC029 13/12
                        Q1023=
201204171000 METAR LPPR 171000Z 20005KT 160V230 3000 -DZ BR OVC002 12/11
                        Q1024=
201204170930 METAR LPPR 170930Z 17004KT 1600 R17/1400U -DZ VCFG OVC002
                        11/11 Q1024=
201204170900 METAR LPPR 170900Z 17004KT 140V200 1600 -DZ BR BKN002 OVC004
                        11/10 Q1024=
201204170830 METAR LPPR 170830Z 16005KT 2000 -DZ BR BKN002 11/10 Q1024=
201204170800 METAR LPPR 170800Z VRB02KT 3500 BR BKN002 BKN005 11/10 Q1024=
201204170730 METAR LPPR 170730Z 18004KT 3500 BR BKN003 BKN008 11/10 Q1024=
201204170700 METAR LPPR 170700Z VRB01KT 4700 BR VCFG SCT003 BKN009 11/10
                        Q1024=
201204170630 METAR LPPR 170630Z VRB02KT 3500 BR VCFG FEW004 BKN007 BKN025
                        11/10 Q1024=
201204170600 METAR LPPR 170600Z VRB01KT 4000 BR FEW005 SCT011 BKN025 11/09
                        Q1024=
201204170530 METAR LPPR 170530Z VRB01KT 8000 SCT012 BKN025 11/09 Q1024=
201204170500 METAR LPPR 170500Z 31003KT 260V340 9999 SCT013 BKN025 11/09
                        Q1024=
201204170430 METAR LPPR 170430Z VRB02KT 9999 SCT014 BKN025 11/08 Q1024=
201204170400 METAR LPPR 170400Z VRB01KT 9999 SCT015 BKN025 11/08 Q1024=
201204170330 METAR LPPR 170330Z VRB02KT 9999 SCT017 BKN025 11/08 Q1024=
201204170300 METAR LPPR 170300Z 31004KT 9999 SCT017 BKN025 11/08 Q1024=
201204170230 METAR LPPR 170230Z 33004KT 300V360 9999 SCT019 BKN025 11/08
                        Q1024=
201204170200 METAR LPPR 170200Z 34005KT 9999 FEW018 SCT025 11/08 Q1025=
201204170130 METAR LPPR 170130Z 34004KT 9999 SCT025 10/08 Q1025=
201204170100 METAR LPPR 170100Z 35004KT 9999 SCT030 09/07 Q1025=
201204170030 METAR LPPR 170030Z 34005KT 9999 FEW049 09/07 Q1025=
201204170000 METAR LPPR 170000Z 35006KT 9999 FEW035 SCT049 10/07 Q1025=
201204162330 METAR LPPR 162330Z 35009KT 9999 SCT035 11/06 Q1026=
201204162300 METAR LPPR 162300Z 35006KT 320V030 9999 BKN036 11/06 Q1026=
201204162230 METAR LPPR 162230Z 34006KT 9999 BKN042 10/05 Q1026=
201204162200 METAR LPPR 162200Z 33006KT 310V020 CAVOK 11/04 Q1026=
201204162130 METAR LPPR 162130Z 34008KT CAVOK 11/03 Q1026=
201204162100 METAR LPPR 162100Z 34009KT CAVOK 11/04 Q1026=
201204162030 METAR LPPR 162030Z 34012KT CAVOK 11/04 Q1026=
201204162000 METAR LPPR 162000Z 34012KT CAVOK 11/04 Q1025=
201204161930 METAR LPPR 161930Z 34012KT CAVOK 12/03 Q1025=
201204161900 METAR LPPR 161900Z 33012KT CAVOK 12/03 Q1025=
201204161830 METAR LPPR 161830Z 33012KT CAVOK 12/06 Q1025=
201204161800 METAR LPPR 161800Z 34013KT CAVOK 13/06 Q1025=
201204161730 METAR LPPR 161730Z 34016KT CAVOK 13/07 Q1025=
201204161700 METAR LPPR 161700Z 33017KT CAVOK 13/07 Q1025=
201204161630 METAR LPPR 161630Z 34016KT 300V360 CAVOK 14/07 Q1025=
201204161600 METAR LPPR 161600Z 33014KT CAVOK 13/06 Q1025=
201204161530 METAR LPPR 161530Z 33013KT CAVOK 14/06 Q1025=
201204161500 METAR LPPR 161500Z 33015KT 300V360 CAVOK 14/06 Q1024=
201204161430 METAR LPPR 161430Z 33016KT CAVOK 14/06 Q1024=
201204161400 METAR LPPR 161400Z 33013KT 290V350 CAVOK 14/06 Q1025=
201204161330 METAR LPPR 161330Z 32014KT CAVOK 14/06 Q1025=
201204161300 METAR LPPR 161300Z 33012KT 300V360 CAVOK 14/06 Q1025=
201204161230 METAR LPPR 161230Z 33011KT 290V360 CAVOK 14/05 Q1025=
201204161200 METAR LPPR 161200Z 32013KT CAVOK 14/05 Q1026=
201204161130 METAR LPPR 161130Z 36014KT 330V050 CAVOK 14/00 Q1026=
201204161100 METAR LPPR 161100Z 35014KT 320V020 CAVOK 14/01 Q1027=
201204161030 METAR LPPR 161030Z 35014KT CAVOK 13/02 Q1027=
201204161000 METAR LPPR 161000Z 02009KT 330V050 CAVOK 13/02 Q1027=
201204160930 METAR LPPR 160930Z 01010KT 340V070 CAVOK 12/02 Q1027=
201204160900 METAR LPPR 160900Z 36013KT CAVOK 11/02 Q1027=
201204160830 METAR LPPR 160830Z 01009KT CAVOK 10/03 Q1027=
201204160800 METAR LPPR 160800Z 35006KT 330V050 CAVOK 09/02 Q1026=
201204160730 METAR LPPR 160730Z 34004KT CAVOK 09/03 Q1026=
201204160700 METAR LPPR 160700Z 35005KT 320V040 CAVOK 08/03 Q1026=
201204160630 METAR LPPR 160630Z 35005KT 300V020 CAVOK 06/02 Q1026=
201204160600 METAR LPPR 160600Z 35008KT CAVOK 07/02 Q1026=
201204160530 METAR LPPR 160530Z 33007KT CAVOK 08/02 Q1026=
201204160500 METAR LPPR 160500Z 36008KT CAVOK 06/02 Q1025=
201204160430 METAR LPPR 160430Z 35010KT CAVOK 07/02 Q1025=
201204160400 METAR LPPR 160400Z 35006KT CAVOK 07/02 Q1025=
201204160330 METAR LPPR 160330Z 33010KT CAVOK 07/03 Q1025=
201204160300 METAR LPPR 160300Z 33008KT CAVOK 08/02 Q1025=
201204160230 METAR LPPR 160230Z 34006KT 310V010 CAVOK 08/02 Q1025=
201204160200 METAR LPPR 160200Z 31003KT 280V350 CAVOK 07/03 Q1025=
201204160130 METAR LPPR 160130Z 33006KT 290V050 CAVOK 08/02 Q1025=
201204160100 METAR LPPR 160100Z 32006KT CAVOK 09/02 Q1025=
201204160030 METAR LPPR 160030Z 36006KT 310V050 CAVOK 09/02 Q1025=
201204160000 METAR LPPR 160000Z 34006KT CAVOK 09/02 Q1025=
201204152330 METAR LPPR 152330Z 31003KT 260V010 CAVOK 09/03 Q1025=
201204152300 METAR LPPR 152300Z 36009KT CAVOK 08/03 Q1024=
201204152230 METAR LPPR 152230Z 01009KT CAVOK 10/03 Q1024=
201204152200 METAR LPPR 152200Z 01008KT CAVOK 10/03 Q1024=
201204152130 METAR LPPR 152130Z 01006KT 9999 FEW035 09/04 Q1023=
201204152100 METAR LPPR 152100Z 03006KT 350V060 9999 FEW035 11/03 Q1023=
201204152030 METAR LPPR 152030Z 01011KT 340V040 9999 FEW035 11/04 Q1023=
201204152000 METAR LPPR 152000Z 35014KT 9999 FEW035 11/04 Q1022=
201204151930 METAR LPPR 151930Z 36013KT 9999 FEW038 12/04 Q1022=
201204151900 METAR LPPR 151900Z 36014KT 340V040 9999 FEW038 12/04 Q1021=
201204151830 METAR LPPR 151830Z 33013KT 9999 FEW040 12/06 Q1021=
201204151800 METAR LPPR 151800Z 34010KT 9999 FEW040 13/07 Q1020=
201204151730 METAR LPPR 151730Z 32015G25KT 290V350 9999 FEW042 FEW048TCU
                        13/07 Q1020=
201204151700 METAR LPPR 151700Z 34016KT 300V360 9999 FEW048 FEW050CB 14/07
                        Q1020=
201204151630 METAR LPPR 151630Z 34017KT 9999 FEW048 FEW050TCU 14/06 Q1019=
201204151600 METAR LPPR 151600Z 33017G31KT 9999 FEW048 SCT050TCU 14/06
                        Q1019=
201204151530 METAR LPPR 151530Z 33022G34KT 9999 FEW048 14/05 Q1019=
201204151500 METAR LPPR 151500Z 33018KT 300V360 9999 FEW040 SCT048 14/06
                        Q1019=
201204151430 METAR LPPR 151430Z 33019KT 300V360 9999 FEW038 SCT042 13/06
                        Q1019=
201204151400 METAR LPPR 151400Z 33015KT 9999 FEW035 SCT045 13/05 Q1019=
201204151330 METAR LPPR 151330Z 34016G26KT 9999 FEW035 SCT042 FEW045CB
                        13/05 Q1019=
201204151300 METAR LPPR 151300Z 34014G24KT 9999 VCSH FEW030 FEW045CB SCT049
                        13/05 Q1020=
201204151230 METAR LPPR 151230Z 32014KT 290V350 9999 VCSH FEW030 SCT037
                        13/05 Q1019=
201204151200 METAR LPPR 151200Z 35014KT 9999 SCT044 FEW045TCU 14/04 Q1019=
201204151130 METAR LPPR 151130Z 34012KT 9999 FEW035 BKN044 FEW045TCU 13/03
                        Q1019=
201204151100 METAR LPPR 151100Z 36015G25KT 320V030 9999 SCT035 SCT045
                        14/03 Q1019=
201204151030 METAR LPPR 151030Z 36012KT 340V040 9999 SCT035 SCT040 13/03
                        Q1019=
201204151000 METAR LPPR 151000Z 01011KT 330V050 9999 SCT028 FEW030TCU
                        SCT045 12/03 Q1019=
201204150930 METAR LPPR 150930Z 35016KT 9999 SCT022 12/04 Q1019=
201204150900 METAR LPPR 150900Z 35014KT 9999 FEW020 12/04 Q1019=
201204150830 METAR LPPR 150830Z 36011KT 9999 FEW016 FEW020TCU 11/04 Q1019=
201204150800 METAR LPPR 150800Z 34008KT 9999 FEW016 FEW020TCU 10/05 Q1018=
201204150730 METAR LPPR 150730Z 35005KT 9999 FEW022TCU 09/05 Q1018=
201204150700 METAR LPPR 150700Z 03003KT 350V060 9999 FEW020 FEW025TCU
                        07/05 Q1018=
201204150630 METAR LPPR 150630Z 35003KT 9999 FEW020 06/04 Q1018=
201204150600 METAR LPPR 150600Z 36004KT 9999 FEW020 06/03 Q1017=
201204150530 METAR LPPR 150530Z 35005KT CAVOK 06/04 Q1017=
201204150500 METAR LPPR 150500Z 36005KT CAVOK 06/04 Q1017=
201204150430 METAR LPPR 150430Z 36003KT CAVOK 05/04 Q1017=
201204150400 METAR LPPR 150400Z VRB02KT CAVOK 06/04 Q1017=
201204150330 METAR LPPR 150330Z VRB02KT CAVOK 06/04 Q1017=
201204150300 METAR LPPR 150300Z 36003KT 330V030 CAVOK 07/05 Q1017=
201204150230 METAR LPPR 150230Z 00000KT CAVOK 07/05 Q1017=
201204150200 METAR LPPR 150200Z VRB01KT CAVOK 07/04 Q1016=
201204150130 METAR LPPR 150130Z VRB01KT CAVOK 07/05 Q1016=
201204150100 METAR LPPR 150100Z 35004KT CAVOK 07/04 Q1016=
201204150030 METAR LPPR 150030Z 35003KT CAVOK 08/05 Q1016=
201204150000 METAR LPPR 150000Z 33006KT CAVOK 09/05 Q1016=
201204142330 METAR LPPR 142330Z 34009KT CAVOK 10/05 Q1016=
201204142300 METAR LPPR 142300Z 34011KT CAVOK 10/05 Q1016=
201204142230 METAR LPPR 142230Z 33010KT 9999 FEW026 10/05 Q1016=
201204142200 METAR LPPR 142200Z 34012KT 9999 FEW026 10/05 Q1016=
201204142130 METAR LPPR 142130Z 35013KT 9999 SCT025 11/06 Q1016=
201204142100 METAR LPPR 142100Z 34011KT 9999 SCT026 11/06 Q1015=
201204142030 METAR LPPR 142030Z 34015KT 9999 FEW025 FEW027TCU 11/06 Q1015=
201204142000 METAR LPPR 142000Z 34015KT 9999 FEW025 FEW027TCU 11/06 Q1014=
201204141930 METAR LPPR 141930Z 34014KT 9999 FEW025 FEW027TCU 11/06 Q1014=
201204141900 METAR LPPR 141900Z 33016KT 9999 FEW026 FEW030TCU 12/06 Q1013=
201204141830 METAR LPPR 141830Z 34020G30KT 9999 SCT026 FEW030TCU 12/06
                        Q1013=
201204141800 METAR LPPR 141800Z 34015KT 9999 SCT023 SCT026TCU 13/08 Q1013=
201204141730 METAR LPPR 141730Z 34017G28KT 9999 SCT024 SCT030CB BKN046
                        12/08 Q1012=
201204141700 METAR LPPR 141700Z 32017G28KT 290V350 9999 SCT026 FEW030CB
                        14/08 Q1012=
201204141630 METAR LPPR 141630Z 33016KT 290V350 9999 SCT021 FEW025TCU
                        13/07 Q1012=
201204141600 METAR LPPR 141600Z 33018KT 9999 SCT023 FEW027TCU 14/08 Q1012=
201204141530 METAR LPPR 141530Z 33017G27KT 300V360 9999 SCT025 FEW027TCU
                        14/07 Q1011=
201204141500 METAR LPPR 141500Z 32016G26KT 290V350 9999 SCT020 14/08 Q1011=
201204141430 METAR LPPR 141430Z 33019KT 9999 SCT020 14/08 Q1011=
201204141400 METAR LPPR 141400Z 33017KT 9999 SCT020 13/08 Q1011=
201204141330 METAR LPPR 141330Z 32016KT 290V350 9999 SCT020 14/09 Q1011=
201204141300 METAR LPPR 141300Z 31013G23KT 280V350 9999 SCT020 14/09 Q1011=
201204141230 METAR LPPR 141230Z 32014KT 290V350 9999 FEW018 SCT030 14/09
                        Q1011=
201204141200 METAR LPPR 141200Z 32013KT 270V350 9999 FEW015 BKN023 13/09
                        Q1011=
201204141130 METAR LPPR 141130Z 32009KT 290V360 9999 FEW020 SCT038 13/09
                        Q1011=
201204141100 METAR LPPR 141100Z 34012KT 310V010 9999 -SHRA SCT015 BKN022
                        11/08 Q1012=
201204141030 METAR LPPR 141030Z 35015KT 9999 SCT020 BKN025 13/09 Q1011=
201204141000 METAR LPPR 141000Z 32012KT 290V350 9999 SCT020 BKN025 13/09
                        Q1011=
201204140930 METAR LPPR 140930Z 32010KT 280V350 9999 SCT022 BKN045 13/09
                        Q1010=
201204140900 METAR LPPR 140900Z 32011KT 290V350 9999 FEW020 SCT045 12/09
                        Q1010=
201204140830 METAR LPPR 140830Z 31012G25KT 270V340 9999 -SHRA SCT019 BKN045
                        11/07 Q1010=
201204140800 METAR LPPR 140800Z 32009KT 270V360 9999 SCT020 BKN030 12/09
                        Q1010=
201204140730 METAR LPPR 140730Z 31006KT 280V350 9999 FEW020 BKN045 11/09
                        Q1010=
201204140700 METAR LPPR 140700Z 32008KT 260V350 9999 -RA SCT015 FEW016TCU
                        11/09 Q1010=
201204140630 METAR LPPR 140630Z 33012G24KT 9999 3000N -SHRA SCT014 FEW016TCU
                        10/08 Q1009=
201204140600 METAR LPPR 140600Z 32010KT 9999 VCSH FEW012 SCT018 FEW019TCU
                        11/08 Q1009=
201204140530 METAR LPPR 140530Z 32008KT 270V350 9999 FEW012 SCT018 FEW019TCU
                        11/09 Q1009=
201204140500 METAR LPPR 140500Z 34011KT 320V020 9000 -RA FEW014 BKN020
                        11/09 Q1009=
201204140430 METAR LPPR 140430Z 32007KT 270V350 9999 FEW010 SCT017 12/10
                        Q1008=
201204140400 METAR LPPR 140400Z 33008KT 260V350 9999 -RA SCT012 BKN047
                        11/09 Q1008=
201204140330 METAR LPPR 140330Z 30008KT 260V340 9999 -RA FEW009 SCT015
                        BKN040 12/10 Q1009=
201204140300 METAR LPPR 140300Z 29006KT 220V360 9999 FEW009 BKN016 BKN045
                        12/10 Q1009=
201204140230 METAR LPPR 140230Z 33006KT 300V010 9999 -RA FEW009 SCT045
                        11/09 Q1009 RERA=
201204140200 METAR LPPR 140200Z 31006KT 270V020 4000 +RA BR SCT008 BKN014
                        12/11 Q1009=
201204140130 METAR LPPR 140130Z 30005KT 260V360 9999 -RA FEW007 SCT014
                        12/10 Q1010 RERA=
201204140100 METAR LPPR 140100Z 28010G20KT 240V320 5000 RA SCT004 SCT030
                        11/10 Q1010=
201204140030 METAR LPPR 140030Z 25010KT 190V290 6000 -RA FEW004 BKN006
                        BKN016 12/11 Q1010=
201204140000 METAR LPPR 140000Z 27008G18KT 200V320 7000 -RA SCT006 BKN015
                        12/11 Q1011=
201204132330 METAR LPPR 132330Z 27007KT 230V320 9000 -RA SCT006 BKN014
                        12/11 Q1011=
201204132300 METAR LPPR 132300Z 26008KT 200V300 7000 -RA SCT005 BKN014
                        12/11 Q1011=
201204132230 METAR LPPR 132230Z 24010KT 210V270 9999 -RA FEW005 BKN015
                        BKN035 12/11 Q1012=
201204132200 METAR LPPR 132200Z 25004KT 180V310 9999 -SHRA FEW015 BKN035
                        12/11 Q1012=
201204132130 METAR LPPR 132130Z 23006KT 190V280 9999 FEW019 SCT030 12/10
                        Q1013=
201204132100 METAR LPPR 132100Z 23006KT 200V280 9999 FEW020 SCT025 12/10
                        Q1013=
201204132030 METAR LPPR 132030Z 26004KT 200V300 9999 FEW018 SCT025 12/10
                        Q1013=
201204132000 METAR LPPR 132000Z 27005KT 210V360 9999 FEW017 SCT030 12/10
                        Q1014=
201204131930 METAR LPPR 131930Z 00000KT 9999 SCT015 BKN045 11/10 Q1014=
201204131900 METAR LPPR 131900Z VRB02KT 9000 -SHRA SCT014 BKN035 11/10
                        Q1014=
201204131830 METAR LPPR 131830Z VRB04KT 8000 -SHRA SCT015 BKN030 11/09
                        Q1014=
201204131800 METAR LPPR 131800Z 27004KT 200V310 9999 SCT014 BKN038 12/09
                        Q1015=
201204131730 METAR LPPR 131730Z 28005KT 240V340 9999 SCT015 BKN040 12/09
                        Q1015=
201204131700 METAR LPPR 131700Z 29006KT 240V340 9999 SCT013 SCT030 12/09
                        Q1015=
201204131630 METAR LPPR 131630Z 30004KT 270V360 9999 -SHRA SCT015 BKN030
                        12/09 Q1015=
201204131600 METAR LPPR 131600Z 32007KT 280V350 9999 -SHRA SCT012 BKN030
                        12/08 Q1015=
201204131530 METAR LPPR 131530Z 32006KT 260V350 9000 -SHRA FEW008 SCT012
                        BKN030 12/09 Q1015=
201204131500 METAR LPPR 131500Z 32007KT 280V360 9999 -RA SCT010 BKN015
                        BKN043 12/10 Q1015=
201204131430 METAR LPPR 131430Z 32007KT 280V350 9999 -RA SCT012 BKN019
                        BKN038 12/09 Q1015=
201204131400 METAR LPPR 131400Z 31007KT 270V350 9999 -RA SCT018 BKN035
                        BKN049 13/09 Q1015=
201204131330 METAR LPPR 131330Z 29008KT 250V320 9999 SCT020 BKN044 BKN050
                        13/08 Q1015=
201204131300 METAR LPPR 131300Z 30008KT 270V330 9999 SCT018 BKN050 14/09
                        Q1015=
201204131230 METAR LPPR 131230Z 24006KT 190V290 9999 SCT015 BKN024 14/10
                        Q1015=
201204131200 METAR LPPR 131200Z 23006KT 160V290 9999 SCT019 BKN032 14/10
                        Q1014=
201204131130 METAR LPPR 131130Z 25005KT 200V290 9999 SCT016 BKN044 13/09
                        Q1015=
201204131100 METAR LPPR 131100Z 23004KT 190V260 9999 SCT014 BKN045 12/09
                        Q1015=
201204131030 METAR LPPR 131030Z 24005KT 190V320 9999 SCT014 BKN050 13/09
                        Q1015=
201204131000 METAR LPPR 131000Z VRB02KT 9999 SCT012 BKN029 BKN050 12/08
                        Q1015=
201204130930 METAR LPPR 130930Z VRB03KT 9999 SCT025 BKN033 BKN043 11/08
                        Q1015=
201204130900 METAR LPPR 130900Z 29003KT 250V360 9000 -SHRA SCT025 BKN031
                        BKN036 11/08 Q1015=
201204130830 METAR LPPR 130830Z VRB02KT 9000 R35/P2000 -SHRA FEW025 SCT031
                        BKN035 11/08 Q1015=
201204130800 METAR LPPR 130800Z VRB01KT 9000 R35/P2000 FEW029TCU SCT042 BKN050
                        10/08 Q1015=
201204130730 METAR LPPR 130730Z 05002KT 9999 FEW025 FEW029TCU BKN034 BKN045
                        09/07 Q1015=
201204130700 METAR LPPR 130700Z VRB01KT 9999 FEW025 BKN035 08/07 Q1014=
201204130630 METAR LPPR 130630Z VRB01KT 9999 -SHRA FEW025 BKN035 08/07
                        Q1014=
201204130600 METAR LPPR 130600Z VRB02KT 9999 BKN040 07/06 Q1014=
201204130530 METAR LPPR 130530Z 00000KT 9999 SCT045 08/06 Q1014=
201204130500 METAR LPPR 130500Z 34003KT 300V360 9999 SCT045 07/05 Q1014=
201204130430 METAR LPPR 130430Z VRB02KT 9999 SCT045 07/05 Q1013=
201204130400 METAR LPPR 130400Z 36003KT 9999 SCT045 08/06 Q1013=
201204130330 METAR LPPR 130330Z VRB02KT 9999 SCT045 08/07 Q1013=
201204130300 METAR LPPR 130300Z 36003KT 310V040 CAVOK 08/06 Q1014=
201204130230 METAR LPPR 130230Z 34005KT CAVOK 08/06 Q1013=
201204130200 METAR LPPR 130200Z 36008KT 9999 SCT040 09/06 Q1013=
201204130130 METAR LPPR 130130Z 34005KT 9999 FEW025 SCT040 09/07 Q1013=
201204130100 METAR LPPR 130100Z 34007KT CAVOK 10/07 Q1013=
201204130030 METAR LPPR 130030Z 34007KT CAVOK 10/06 Q1014=
201204130000 METAR LPPR 130000Z 34008KT CAVOK 10/06 Q1013=
201204122330 METAR LPPR 122330Z 34009KT CAVOK 11/06 Q1013=
201204122300 METAR LPPR 122300Z 34006KT CAVOK 10/07 Q1013=
201204122230 METAR LPPR 122230Z 34009KT CAVOK 10/07 Q1013=
201204122200 METAR LPPR 122200Z 34011KT CAVOK 11/07 Q1013=
201204122130 METAR LPPR 122130Z 34011KT CAVOK 11/07 Q1013=
201204122100 METAR LPPR 122100Z 34012KT CAVOK 11/07 Q1013=
201204122030 METAR LPPR 122030Z 34012KT CAVOK 11/07 Q1012=
201204122000 METAR LPPR 122000Z 34013KT 9999 FEW020 11/07 Q1012=
201204121930 METAR LPPR 121930Z 33016G26KT 9999 FEW020 12/07 Q1012=
201204121900 METAR LPPR 121900Z 34014KT 9999 FEW020 12/07 Q1011=
201204121830 METAR LPPR 121830Z 34017G28KT 9999 FEW020 13/07 Q1011=
201204121800 METAR LPPR 121800Z 34020KT 9999 FEW025 13/07 Q1011=
201204121730 METAR LPPR 121730Z 34018G30KT 9999 FEW025 13/07 Q1011=
201204121700 METAR LPPR 121700Z 34019KT 9999 FEW025 14/07 Q1011=
201204121630 METAR LPPR 121630Z 33017KT 9999 FEW025 14/07 Q1010=
201204121600 METAR LPPR 121600Z 33019KT 9999 FEW020 14/07 Q1010=
201204121530 METAR LPPR 121530Z 33019G29KT 9999 FEW020 14/07 Q1010=
201204121500 METAR LPPR 121500Z 33018G28KT 9999 FEW020 FEW030CB 14/08
                        Q1010=
201204121430 METAR LPPR 121430Z 33018KT 9999 FEW020 FEW029CB 14/08 Q1010=
201204121400 METAR LPPR 121400Z 33017KT 9999 FEW020 14/08 Q1011=
201204121330 METAR LPPR 121330Z 33014KT 290V350 9999 FEW015 14/08 Q1011=
201204121300 METAR LPPR 121300Z 33016G26KT 9999 FEW015 15/08 Q1011=
201204121230 METAR LPPR 121230Z 33016G27KT 9999 FEW025 SCT040 14/08 Q1010=
201204121200 METAR LPPR 121200Z 33013KT 290V010 9999 FEW025 SCT040 14/08
                        Q1011=
201204121130 METAR LPPR 121130Z 35014KT 310V010 9999 FEW015 SCT040 14/05
                        Q1011=
201204121100 METAR LPPR 121100Z 35014KT 310V020 9999 FEW015 SCT035 14/06
                        Q1011=
201204121030 METAR LPPR 121030Z 01016KT 340V040 9999 FEW015 SCT035 14/06
                        Q1011=
201204121000 METAR LPPR 121000Z 35014KT 320V020 9999 FEW015 13/07 Q1011=
201204120930 METAR LPPR 120930Z 36014KT 9999 FEW015 13/07 Q1010=
201204120900 METAR LPPR 120900Z 01010KT 9999 FEW020 13/07 Q1010=
201204120830 METAR LPPR 120830Z 35011KT 300V010 9999 FEW020 SCT045 12/07
                        Q1010=
201204120800 METAR LPPR 120800Z 36009KT 9999 FEW020 SCT045 11/07 Q1009=
201204120730 METAR LPPR 120730Z 36005KT 330V030 9999 FEW015 SCT030 11/07
                        Q1009=
201204120700 METAR LPPR 120700Z 36007KT 330V050 9999 FEW015 SCT030 BKN048
                        11/08 Q1009=
201204120630 METAR LPPR 120630Z 34011KT 9999 FEW015 SCT030 11/08 Q1008=
201204120600 METAR LPPR 120600Z 34011KT 9999 FEW012 SCT030 11/08 Q1008=
201204120530 METAR LPPR 120530Z 33012KT 9999 FEW012 SCT030 11/09 Q1008=
201204120500 METAR LPPR 120500Z 34013KT 9999 FEW014 SCT030 11/09 Q1008=
201204120430 METAR LPPR 120430Z 34012KT 300V360 9999 FEW014 SCT030 11/09
                        Q1008=
201204120400 METAR LPPR 120400Z 34010KT 9999 SCT014 SCT045 11/09 Q1008=
201204120330 METAR LPPR 120330Z 34012KT 9999 SCT014 SCT030 11/09 Q1008=
201204120300 METAR LPPR 120300Z 33013KT 9999 SCT013 BKN048 11/09 Q1008=
201204120230 METAR LPPR 120230Z 33014KT 300V360 9999 FEW013 BKN015 BKN048
                        11/09 Q1008=
201204120200 METAR LPPR 120200Z 33011KT 9999 FEW009 BKN015 11/09 Q1008=
201204120130 METAR LPPR 120130Z 33012KT 9999 FEW008 BKN012 BKN030 11/09
                        Q1009=
201204120100 METAR LPPR 120100Z 33011KT 300V360 9999 SCT008 BKN012 BKN022
                        11/10 Q1009=
201204120030 METAR LPPR 120030Z 34010KT 8000 -SHRA FEW005 BKN008 BKN017
                        11/10 Q1009=
201204120000 METAR LPPR 120000Z 33012KT 9999 FEW005 BKN008 BKN015 12/10
                        Q1009=
201204112330 METAR LPPR 112330Z 33009KT 290V350 9000 -SHRA FEW004 BKN007
                        BKN015 12/11 Q1009=
201204112300 METAR LPPR 112300Z 32006KT 270V360 9999 -DZ SCT007 BKN009
                        BKN017 12/11 Q1009=
201204112230 METAR LPPR 112230Z 30005KT 240V360 9999 FEW008 SCT010 BKN034
                        12/11 Q1009=
201204112200 METAR LPPR 112200Z 29004KT 190V360 9999 SCT009 BKN013 BKN040
                        12/11 Q1009=
201204112130 METAR LPPR 112130Z 21004KT 9999 FEW009 SCT013 BKN017 12/11
                        Q1009=
201204112100 METAR LPPR 112100Z 21004KT 170V250 9999 FEW006 BKN013 OVC030
                        12/11 Q1009=
201204112030 METAR LPPR 112030Z VRB03KT 6000 -SHRA FEW006 BKN017 OVC028
                        12/11 Q1009=
201204112000 METAR LPPR 112000Z 24006KT 200V350 9000 -RA SCT002 SCT018
                        OVC028 11/11 Q1009 RERA=
201204111930 METAR LPPR 111930Z 21012KT 4000 DZ BR BKN003 OVC012 12/11
                        Q1008=
201204111900 METAR LPPR 111900Z 21009KT 170V270 2300 BKN002 OVC004 12/11
                        Q1009 RERA=
201204111830 METAR LPPR 111830Z 20010KT 2100 RADZ BR BKN003 OVC005 12/11
                        Q1009=
201204111800 METAR LPPR 111800Z 21008KT 170V240 2500 -RADZ BR SCT003 BKN005
                        OVC015 12/11 Q1009=
201204111730 METAR LPPR 111730Z 22008KT 190V260 4000 -RADZ BR SCT005 SCT012
                        OVC018 12/11 Q1010=
201204111700 METAR LPPR 111700Z 22010KT 170V270 8000 -SHRA FEW009 SCT017
                        BKN030 12/09 Q1010=
201204111630 METAR LPPR 111630Z 22007KT 170V260 9999 -SHRA SCT017 BKN035
                        OVC040 13/11 Q1010=
201204111600 METAR LPPR 111600Z 22007KT 190V260 8000 -SHRA FEW018 SCT024
                        BKN040 14/10 Q1010=
201204111530 METAR LPPR 111530Z 22008KT 180V260 9999 -SHRA SCT018 BKN038
                        14/10 Q1011=
201204111500 METAR LPPR 111500Z 21008KT 180V280 9999 SCT018 BKN038 14/10
                        Q1011=
201204111430 METAR LPPR 111430Z 22008KT 170V250 9999 SCT018 BKN030 14/10
                        Q1011=
201204111400 METAR LPPR 111400Z 22007KT 180V270 9999 -SHRA BKN020 OVC035
                        13/10 Q1012=
201204111330 METAR LPPR 111330Z 22009KT 180V250 9999 BKN025 BKN045 14/09
                        Q1012=
201204111300 METAR LPPR 111300Z 22008KT 190V270 9999 SCT020 BKN045 14/10
                        Q1012=
201204111230 METAR LPPR 111230Z 22009KT 190V280 9999 SCT015 BKN045 14/09
                        Q1012=
201204111200 METAR LPPR 111200Z 22007KT 180V260 9999 SCT015 BKN040 14/10
                        Q1012=
201204111130 METAR LPPR 111130Z 21007KT 180V240 9999 SCT014 BKN035 13/10
                        Q1013=
201204111100 METAR LPPR 111100Z 21009KT 9999 SCT018 BKN040 14/09 Q1013=
201204111030 METAR LPPR 111030Z 21007KT 180V260 9999 SCT020 BKN040 13/09
                        Q1013=
201204111000 METAR LPPR 111000Z 21006KT 190V250 9999 SCT020 BKN042 13/08
                        Q1013=
201204110930 METAR LPPR 110930Z 23004KT 180V320 9999 SCT015 BKN042 13/09
                        Q1013=
201204110900 METAR LPPR 110900Z 23004KT 130V290 9999 SCT017 BKN040 13/09
                        Q1013=
201204110830 METAR LPPR 110830Z 21003KT 170V250 9999 SCT015 BKN030 12/09
                        Q1013=
201204110800 METAR LPPR 110800Z 22003KT 190V260 9999 SCT015 FEW025CB BKN030
                        11/09 Q1014=
201204110730 METAR LPPR 110730Z VRB02KT 9999 SCT020 FEW025CB BKN035 10/09
                        Q1014=
201204110700 METAR LPPR 110700Z VRB02KT 9999 SCT020 FEW025CB BKN035 10/09
                        Q1014=
201204110630 METAR LPPR 110630Z 33008KT 9999 FEW007 SCT017 BKN030 10/09
                        Q1014=
201204110600 METAR LPPR 110600Z 27007KT 210V330 8000 -SHRA SCT012 BKN047
                        11/08 Q1014=
201204110530 METAR LPPR 110530Z 25004KT 210V290 9999 FEW022 SCT047 12/09
                        Q1013=
201204110500 METAR LPPR 110500Z VRB02KT 9999 FEW023 SCT047 12/09 Q1014=
201204110430 METAR LPPR 110430Z 27004KT 210V320 9999 FEW022 SCT049 12/08
                        Q1014=
201204110400 METAR LPPR 110400Z 31004KT 260V350 9999 FEW023 12/08 Q1014=
201204110330 METAR LPPR 110330Z 29004KT 240V320 9999 FEW025 12/08 Q1014=
201204110300 METAR LPPR 110300Z 24003KT 200V270 9999 FEW025 12/08 Q1014=
201204110230 METAR LPPR 110230Z 28005KT 210V320 9999 FEW022 12/08 Q1013=
201204110200 METAR LPPR 110200Z 28005KT 210V320 9999 FEW022 12/08 Q1014=
201204110130 METAR LPPR 110130Z 28004KT 230V350 9999 FEW023 12/08 Q1014=
201204110100 METAR LPPR 110100Z 28004KT 230V020 9999 FEW025 12/09 Q1014=
201204110030 METAR LPPR 110030Z 29005KT 220V330 9999 FEW025 SCT048 12/08
                        Q1014=
201204110000 METAR LPPR 110000Z 30004KT 250V360 9999 FEW025 12/08 Q1014=
201204102330 METAR LPPR 102330Z VRB03KT 9999 FEW025 12/08 Q1014=
201204102300 METAR LPPR 102300Z 30005KT 260V340 9999 FEW023 12/08 Q1014=
201204102230 METAR LPPR 102230Z 30003KT 240V020 9999 FEW025 12/08 Q1014=
201204102200 METAR LPPR 102200Z 31004KT 270V010 9999 FEW025 12/07 Q1014=
201204102130 METAR LPPR 102130Z 32004KT 270V350 9999 FEW025 12/08 Q1014=
201204102100 METAR LPPR 102100Z 31004KT 250V360 9999 FEW025 12/07 Q1014=
201204102030 METAR LPPR 102030Z 30004KT 260V350 9999 FEW025 12/08 Q1013=
201204102000 METAR LPPR 102000Z VRB03KT 9999 FEW025 12/07 Q1013=
201204101930 METAR LPPR 101930Z VRB02KT 9999 FEW025 11/09 Q1013=
201204101900 METAR LPPR 101900Z 29004KT 240V330 9999 FEW025 SCT042 11/08
                        Q1013=
201204101830 METAR LPPR 101830Z 32007KT 280V350 9999 FEW023 BKN045 13/08
                        Q1013=
201204101800 METAR LPPR 101800Z 31007KT 270V350 9999 FEW020 13/08 Q1013=
201204101730 METAR LPPR 101730Z 31006KT 260V020 9999 FEW020 SCT035 13/08
                        Q1012=
201204101700 METAR LPPR 101700Z 32010KT 280V350 9999 FEW020 BKN045 13/08
                        Q1012=
201204101630 METAR LPPR 101630Z 28008KT 250V320 9999 FEW020 SCT045 15/08
                        Q1012=
201204101600 METAR LPPR 101600Z 30008KT 250V360 9999 FEW020 14/08 Q1012=
201204101530 METAR LPPR 101530Z 30008KT 260V340 9999 FEW020 14/07 Q1012=
201204101500 METAR LPPR 101500Z 31008KT 270V350 9999 FEW020 FEW025TCU
                        14/08 Q1011=
201204101430 METAR LPPR 101430Z 30009KT 270V350 9999 FEW020 FEW027TCU
                        14/08 Q1011=
201204101400 METAR LPPR 101400Z 30009KT 270V340 9999 FEW020 FEW027TCU
                        14/08 Q1011=
201204101330 METAR LPPR 101330Z 30010KT 260V340 9999 FEW020 FEW030TCU
                        15/08 Q1011=
201204101300 METAR LPPR 101300Z 31008KT 270V350 9999 FEW018 SCT025 BKN040
                        14/08 Q1010=
201204101230 METAR LPPR 101230Z 31009KT 280V340 9999 FEW018 SCT025 BKN045
                        14/08 Q1010=
201204101200 METAR LPPR 101200Z 32011KT 260V360 9999 FEW017 SCT040 14/09
                        Q1010=
201204101130 METAR LPPR 101130Z 30010KT 240V050 9999 SCT017 SCT030 15/10
                        Q1009=
201204101100 METAR LPPR 101100Z 30009KT 270V360 9999 SCT017 BKN040 14/09
                        Q1009=
201204101030 METAR LPPR 101030Z 30005KT 270V340 9999 FEW009 SCT017 BKN037
                        13/11 Q1009=
201204101000 METAR LPPR 101000Z 32006KT 280V350 9999 R35/P2000 FEW007 SCT020
                        BKN038 12/11 Q1009=
201204100930 METAR LPPR 100930Z 33012KT 3600 -RA BR FEW004 SCT008 BKN015
                        11/10 Q1008=
201204100900 METAR LPPR 100900Z 32009KT 290V350 6000 -RA BKN003 BKN009
                        BKN017 12/11 Q1008=
201204100830 METAR LPPR 100830Z 24010KT 210V280 3500 -RADZ BR BKN004 BKN008
                        12/12 Q1007 RERA=
201204100800 METAR LPPR 100800Z 24010KT 210V300 3000 RA BR SCT004 BKN007
                        OVC012 13/12 Q1007=
201204100730 METAR LPPR 100730Z 23008KT 190V270 8000 -RA FEW004 BKN008
                        BKN012 12/11 Q1007=
201204100700 METAR LPPR 100700Z 23011KT 200V260 5000 -RADZ BR SCT004 BKN008
                        OVC014 12/12 Q1007 RERA=
201204100630 METAR LPPR 100630Z 22008KT 170V250 9999 SCT009 SCT014 BKN018
                        12/11 Q1007=
201204100600 METAR LPPR 100600Z 23007KT 190V270 9999 -RADZ SCT008 SCT013
                        BKN030 12/11 Q1007=
201204100530 METAR LPPR 100530Z 21005KT 190V250 9999 SCT004 SCT007 BKN020
                        12/11 Q1007=
201204100500 METAR LPPR 100500Z 21008KT 190V250 8000 -RADZ FEW005 SCT009
                        OVC022 12/11 Q1007=
201204100430 METAR LPPR 100430Z 23008KT 200V270 9999 -RADZ FEW003 SCT007
                        OVC018 12/11 Q1008=
201204100400 METAR LPPR 100400Z 20007KT 180V240 8000 -RADZ FEW004 SCT006
                        OVC016 12/10 Q1008=
201204100330 METAR LPPR 100330Z 20006KT 170V240 9999 FEW008 SCT015 BKN027
                        11/10 Q1008=
201204100300 METAR LPPR 100300Z 20006KT 9999 FEW011 BKN035 11/10 Q1008=
201204100230 METAR LPPR 100230Z 20003KT 9999 SCT015 BKN035 11/10 Q1008=
201204100200 METAR LPPR 100200Z 22004KT 180V270 9999 -RADZ SCT007 SCT020
                        BKN028 11/10 Q1009=
201204100130 METAR LPPR 100130Z 27004KT 210V310 9999 FEW008 SCT020 BKN027
                        12/08 Q1009=
201204100100 METAR LPPR 100100Z 21003KT 170V280 9999 SCT020 BKN030 12/08
                        Q1009=
201204100030 METAR LPPR 100030Z 21003KT 160V230 9999 SCT020 BKN028 12/08
                        Q1009=
201204100000 METAR LPPR 100000Z VRB02KT 9999 SCT020 BKN026 12/08 Q1010=
201204092330 METAR LPPR 092330Z VRB02KT 9999 BKN026 12/08 Q1010=
201204092300 METAR LPPR 092300Z 26003KT 220V300 9999 SCT020 BKN026 12/08
                        Q1010=
201204092230 METAR LPPR 092230Z 29004KT 210V320 9999 SCT020 BKN025 12/08
                        Q1010=
201204092200 METAR LPPR 092200Z 31004KT 250V350 9999 SCT018 BKN024 12/08
                        Q1010=
201204092130 METAR LPPR 092130Z 29004KT 240V350 9999 FEW019 BKN024 12/08
                        Q1010=
201204092100 METAR LPPR 092100Z 32007KT 280V350 9999 FEW018 BKN026 12/09
                        Q1010=
201204092030 METAR LPPR 092030Z 33006KT 9999 FEW017 BKN023 12/09 Q1010=
201204092000 METAR LPPR 092000Z 32007KT 280V350 9999 BKN016 12/09 Q1010=
201204091930 METAR LPPR 091930Z 33006KT 9999 SCT015 12/09 Q1010=
201204091900 METAR LPPR 091900Z 33006KT 9999 SCT013 12/09 Q1010=
201204091830 METAR LPPR 091830Z 33008KT 300V360 9999 FEW012 12/09 Q1009=
201204091800 METAR LPPR 091800Z 33010KT 290V360 9999 FEW012 13/10 Q1010=
201204091730 METAR LPPR 091730Z 32009KT 280V350 9999 FEW016 14/10 Q1010=
201204091700 METAR LPPR 091700Z 32009KT 280V350 9999 FEW016 14/11 Q1010=
201204091630 METAR LPPR 091630Z 33009KT 9999 FEW014 15/11 Q1010=
201204091600 METAR LPPR 091600Z 31007KT 270V350 9999 FEW018 15/11 Q1010=
201204091530 METAR LPPR 091530Z 29006KT 260V330 9999 FEW023 15/10 Q1011=
201204091500 METAR LPPR 091500Z 29006KT 260V330 9999 FEW026 15/10 Q1011=
201204091430 METAR LPPR 091430Z 30007KT 260V350 9999 FEW028 16/09 Q1011=
201204091400 METAR LPPR 091400Z 30007KT 270V350 9999 FEW030 16/09 Q1011=
201204091330 METAR LPPR 091330Z 29006KT 240V320 9999 FEW030 16/08 Q1012=
201204091300 METAR LPPR 091300Z 29006KT 240V340 9999 FEW030 16/09 Q1012=
201204091230 METAR LPPR 091230Z 28005KT 210V320 CAVOK 16/09 Q1012=
201204091200 METAR LPPR 091200Z 30005KT 240V330 CAVOK 16/09 Q1013=
201204091130 METAR LPPR 091130Z 29005KT 210V320 CAVOK 15/09 Q1013=
201204091100 METAR LPPR 091100Z 29005KT 240V320 CAVOK 16/08 Q1013=
201204091030 METAR LPPR 091030Z 25005KT 200V310 CAVOK 16/08 Q1013=
201204091000 METAR LPPR 091000Z 29004KT 240V320 CAVOK 15/07 Q1014=
201204090930 METAR LPPR 090930Z 29003KT 230V330 CAVOK 16/08 Q1014=
201204090900 METAR LPPR 090900Z VRB02KT CAVOK 15/07 Q1014=
201204090830 METAR LPPR 090830Z 10003KT 030V150 CAVOK 14/08 Q1014=
201204090800 METAR LPPR 090800Z 12004KT 070V140 CAVOK 13/08 Q1014=
201204090730 METAR LPPR 090730Z VRB02KT CAVOK 10/07 Q1014=
201204090700 METAR LPPR 090700Z VRB02KT CAVOK 09/06 Q1014=
201204090630 METAR LPPR 090630Z VRB02KT CAVOK 06/04 Q1014=
201204090600 METAR LPPR 090600Z VRB03KT CAVOK 06/05 Q1014=
201204090530 METAR LPPR 090530Z VRB02KT CAVOK 05/04 Q1014=
201204090500 METAR LPPR 090500Z VRB02KT CAVOK 06/05 Q1014=
201204090430 METAR LPPR 090430Z 08003KT 050V110 CAVOK 05/04 Q1014=
201204090400 METAR LPPR 090400Z VRB02KT CAVOK 05/04 Q1015=
201204090330 METAR LPPR 090330Z 00000KT CAVOK 06/05 Q1015=
201204090300 METAR LPPR 090300Z VRB01KT CAVOK 06/04 Q1015=
201204090230 METAR LPPR 090230Z 08002KT CAVOK 06/05 Q1015=
201204090200 METAR LPPR 090200Z VRB02KT CAVOK 07/05 Q1015=
201204090130 METAR LPPR 090130Z 00000KT CAVOK 09/05 Q1016=
201204090100 METAR LPPR 090100Z VRB02KT CAVOK 09/05 Q1016=
201204090030 METAR LPPR 090030Z VRB01KT CAVOK 07/05 Q1016=
201204090000 METAR LPPR 090000Z VRB02KT CAVOK 07/05 Q1016=
201204082330 METAR LPPR 082330Z VRB02KT CAVOK 07/05 Q1016=
201204082300 METAR LPPR 082300Z VRB01KT CAVOK 08/06 Q1017=
201204082230 METAR LPPR 082230Z VRB02KT CAVOK 08/06 Q1017=
201204082200 METAR LPPR 082200Z 02002KT CAVOK 08/07 Q1017=
201204082130 METAR LPPR 082130Z 36002KT CAVOK 08/06 Q1017=
201204082100 METAR LPPR 082100Z VRB01KT CAVOK 09/06 Q1017=
201204082030 METAR LPPR 082030Z 01004KT 320V060 CAVOK 10/06 Q1017=
201204082000 METAR LPPR 082000Z 01003KT CAVOK 10/06 Q1017=
201204081930 METAR LPPR 081930Z 34004KT CAVOK 12/07 Q1017=
201204081900 METAR LPPR 081900Z 32005KT CAVOK 13/08 Q1017=
201204081830 METAR LPPR 081830Z 32006KT 280V340 CAVOK 14/07 Q1017=
201204081800 METAR LPPR 081800Z 32008KT 290V350 CAVOK 14/07 Q1017=
201204081730 METAR LPPR 081730Z 32006KT 290V360 CAVOK 15/07 Q1018=
201204081700 METAR LPPR 081700Z 33011KT 290V360 CAVOK 15/08 Q1018=
201204081630 METAR LPPR 081630Z 34011KT 300V360 CAVOK 15/07 Q1018=
201204081600 METAR LPPR 081600Z 33010KT 290V360 9999 FEW025 16/07 Q1018=
201204081530 METAR LPPR 081530Z 32009KT 280V350 9999 FEW025 16/07 Q1018=
201204081500 METAR LPPR 081500Z 32009KT 290V350 CAVOK 16/07 Q1018=
201204081430 METAR LPPR 081430Z 30008KT 270V340 CAVOK 16/08 Q1018=
201204081400 METAR LPPR 081400Z 31007KT 270V350 CAVOK 16/08 Q1019=
201204081330 METAR LPPR 081330Z 32009KT 290V350 CAVOK 15/08 Q1019=
201204081300 METAR LPPR 081300Z 29006KT 250V330 CAVOK 16/09 Q1019=
201204081230 METAR LPPR 081230Z 30006KT 250V340 CAVOK 16/09 Q1019=
201204081200 METAR LPPR 081200Z 29006KT 230V310 CAVOK 16/09 Q1019=
201204081130 METAR LPPR 081130Z 29007KT 230V330 CAVOK 16/09 Q1019=
201204081100 METAR LPPR 081100Z 29003KT 240V330 CAVOK 16/10 Q1019=
201204081030 METAR LPPR 081030Z 13004KT 090V160 CAVOK 16/08 Q1019=
201204081000 METAR LPPR 081000Z 11004KT 070V150 CAVOK 15/08 Q1019=
201204080930 METAR LPPR 080930Z 10005KT 030V150 CAVOK 15/08 Q1019=
201204080900 METAR LPPR 080900Z 12005KT 080V140 CAVOK 14/08 Q1019=
201204080830 METAR LPPR 080830Z 09004KT 050V120 CAVOK 13/08 Q1019=
201204080800 METAR LPPR 080800Z VRB04KT CAVOK 11/08 Q1019=
201204080730 METAR LPPR 080730Z 10003KT 040V140 8000 NSC 08/07 Q1019=
201204080700 METAR LPPR 080700Z VRB01KT 6000 NSC 07/07 Q1019=
201204080630 METAR LPPR 080630Z 12003KT 050V150 6000 NSC 06/06 Q1018=
201204080600 METAR LPPR 080600Z 12003KT 080V230 7000 NSC 07/06 Q1018=
201204080530 METAR LPPR 080530Z VRB01KT 7000 NSC 06/05 Q1018=
201204080500 METAR LPPR 080500Z 05003KT 010V080 7000 NSC 06/06 Q1018=
201204080430 METAR LPPR 080430Z 04003KT 6000 NSC 06/06 Q1018=
201204080400 METAR LPPR 080400Z VRB02KT 5000 BR NSC 06/06 Q1018=
201204080330 METAR LPPR 080330Z 11002KT 8000 NSC 07/06 Q1018=
201204080300 METAR LPPR 080300Z 00000KT 8000 NSC 07/06 Q1018=
201204080230 METAR LPPR 080230Z 01003KT 7000 NSC 06/06 Q1018=
201204080200 METAR LPPR 080200Z VRB02KT 7000 NSC 07/06 Q1018=
201204080130 METAR LPPR 080130Z 01002KT 5000 BR NSC 06/06 Q1018=
201204080100 METAR LPPR 080100Z 07003KT 030V100 6000 NSC 07/06 Q1018=
201204080030 METAR LPPR 080030Z VRB01KT 9000 4200N NSC 06/06 Q1018=
201204080000 METAR LPPR 080000Z VRB01KT 5000 BR NSC 07/07 Q1018=
201204072330 METAR LPPR 072330Z 00000KT 6000 NSC 07/06 Q1018=
201204072300 METAR LPPR 072300Z 00000KT 5000 BR NSC 07/06 Q1018=
201204072230 METAR LPPR 072230Z 00000KT 7000 NSC 08/07 Q1018=
201204072200 METAR LPPR 072200Z 05002KT 7000 NSC 08/07 Q1018=
201204072130 METAR LPPR 072130Z 00000KT 9000 NSC 08/07 Q1018=
201204072100 METAR LPPR 072100Z 14003KT CAVOK 09/08 Q1018=
201204072030 METAR LPPR 072030Z 17001KT CAVOK 08/07 Q1017=
201204072000 METAR LPPR 072000Z 00000KT 9999 FEW049 10/08 Q1017=
201204071930 METAR LPPR 071930Z 32003KT 9999 FEW049 11/08 Q1017=
201204071900 METAR LPPR 071900Z 34004KT 9999 FEW020 SCT049 12/08 Q1017=
201204071830 METAR LPPR 071830Z 32005KT 9999 FEW020 SCT045 13/08 Q1017=
201204071800 METAR LPPR 071800Z 32004KT 290V350 9999 FEW020 SCT045 13/08
                        Q1017=
201204071730 METAR LPPR 071730Z 31006KT 270V340 9999 FEW020 SCT045 13/08
                        Q1016=
201204071700 METAR LPPR 071700Z 33006KT 9999 FEW020 SCT045 13/08 Q1016=
201204071630 METAR LPPR 071630Z 32005KT 290V010 9999 FEW020 SCT049 13/08
                        Q1016=
201204071600 METAR LPPR 071600Z 33006KT 280V010 9999 FEW020 SCT040 13/08
                        Q1016=
201204071530 METAR LPPR 071530Z 32006KT 270V350 9999 FEW019 SCT040 13/08
                        Q1016=
201204071500 METAR LPPR 071500Z 28005KT 240V320 9999 FEW019 SCT049 13/08
                        Q1016=
201204071430 METAR LPPR 071430Z 28005KT 240V320 9999 SCT028 BKN049 13/08
                        Q1016=
201204071400 METAR LPPR 071400Z 29005KT 230V330 9999 SCT018 SCT045 14/09
                        Q1016=
201204071330 METAR LPPR 071330Z 29003KT 230V360 9999 SCT018 BKN049 14/09
                        Q1016=
201204071300 METAR LPPR 071300Z 31005KT 250V360 9999 FEW018 SCT034 BKN041
                        13/09 Q1016=
201204071230 METAR LPPR 071230Z 32005KT 270V350 9999 SCT021 BKN031 BKN035
                        12/08 Q1016=
201204071200 METAR LPPR 071200Z 31005KT 260V340 9999 SCT020 BKN025 BKN031
                        12/08 Q1016=
201204071130 METAR LPPR 071130Z VRB04KT 9999 SCT019 BKN022 13/08 Q1016=
201204071100 METAR LPPR 071100Z 25004KT 180V350 9999 SCT020 BKN045 12/07
                        Q1015=
201204071030 METAR LPPR 071030Z 16004KT 100V260 9999 FEW016 SCT021 BKN031
                        12/08 Q1015=
201204071000 METAR LPPR 071000Z 18004KT 100V220 9999 SCT023 BKN027 12/08
                        Q1016=
201204070930 METAR LPPR 070930Z 13003KT 100V170 9999 BKN023 BKN026 11/07
                        Q1015=
201204070900 METAR LPPR 070900Z 17003KT 130V210 9999 SCT022 BKN029 10/07
                        Q1015=
201204070830 METAR LPPR 070830Z 12004KT 090V160 9999 FEW026 SCT034 BKN040
                        10/07 Q1014=
201204070800 METAR LPPR 070800Z 12006KT 9999 SCT028 BKN041 BKN048 SCT035
                        BKN041 10/07 Q1014=
201204070730 METAR LPPR 070730Z 12006KT 9999 -RA SCT036 BKN044 10/07 Q1014=
201204070700 METAR LPPR 070700Z 11003KT 060V180 9999 OVC040 09/07 Q1013=
201204070630 METAR LPPR 070630Z 12004KT 040V140 9999 OVC040 09/07 Q1013=
201204070600 METAR LPPR 070600Z 13005KT 080V170 9999 BKN035 09/07 Q1013=
201204070530 METAR LPPR 070530Z 12004KT 9999 OVC035 09/07 Q1012=
201204070500 METAR LPPR 070500Z 15005KT 9999 BKN035 09/07 Q1012=
201204070430 METAR LPPR 070430Z 16007KT 9999 BKN035 09/08 Q1012=
201204070400 METAR LPPR 070400Z 15005KT 9999 -RA BKN035 09/08 Q1012=
201204070330 METAR LPPR 070330Z 18004KT 9999 -RA SCT030 BKN040 09/08 Q1012=
201204070300 METAR LPPR 070300Z 17005KT 9999 -RA SCT030 BKN043 09/08 Q1012=
201204070230 METAR LPPR 070230Z 14004KT 9999 SCT025 BKN040 09/07 Q1013=
201204070200 METAR LPPR 070200Z 04003KT 010V080 9999 -RA SCT020 BKN035
                        09/07 Q1012=
201204070130 METAR LPPR 070130Z VRB02KT 9000 -RA SCT020 BKN038 09/07 Q1012=
201204070100 METAR LPPR 070100Z 17003KT 140V200 9999 -DZ SCT025 BKN035
                        09/07 Q1012=
201204070030 METAR LPPR 070030Z 13004KT 9999 FEW037 BKN045 09/06 Q1012=
201204070000 METAR LPPR 070000Z VRB02KT 9999 SCT045 09/05 Q1012=
201204062330 METAR LPPR 062330Z VRB02KT 9999 SCT045 08/05 Q1012=
201204062300 METAR LPPR 062300Z VRB01KT 9999 SCT045 08/05 Q1012=
201204062230 METAR LPPR 062230Z VRB01KT CAVOK 07/05 Q1012=
201204062200 METAR LPPR 062200Z VRB01KT CAVOK 07/04 Q1012=
201204062130 METAR LPPR 062130Z 00000KT CAVOK 06/04 Q1012=
201204062100 METAR LPPR 062100Z VRB01KT CAVOK 07/05 Q1012=
201204062030 METAR LPPR 062030Z 00000KT 9999 FEW020 07/05 Q1011=
201204062000 METAR LPPR 062000Z VRB01KT 9999 FEW020 08/05 Q1011=
201204061930 METAR LPPR 061930Z VRB02KT 9999 FEW020 10/05 Q1011=
201204061900 METAR LPPR 061900Z 32003KT 9999 FEW018 10/05 Q1010=
201204061830 METAR LPPR 061830Z 31003KT 240V350 9999 FEW018 11/04 Q1010=
201204061800 METAR LPPR 061800Z 32004KT 270V360 9999 FEW018 11/04 Q1010=
201204061730 METAR LPPR 061730Z 30005KT 270V350 9999 FEW018 FEW025CB 11/04
                        Q1010=
201204061700 METAR LPPR 061700Z 29005KT 250V320 9999 FEW018 FEW025 12/03
                        Q1010=
201204061630 METAR LPPR 061630Z 30006KT 260V340 9999 FEW018 FEW025 12/04
                        Q1009=
201204061600 METAR LPPR 061600Z 29005KT 220V340 9999 FEW018 FEW025 12/05
                        Q1009=
201204061530 METAR LPPR 061530Z 29005KT 220V340 9999 FEW018 FEW025 12/05
                        Q1009=
201204061500 METAR LPPR 061500Z 28005KT 220V320 9999 FEW018 FEW025CB 12/04
                        Q1009=
201204061430 METAR LPPR 061430Z 26006KT 200V310 9999 FEW018 FEW025CB 11/05
                        Q1009=
201204061400 METAR LPPR 061400Z 28005KT 200V350 9999 FEW018 FEW025CB 11/05
                        Q1009=
201204061330 METAR LPPR 061330Z 23008KT 200V270 9999 FEW018 FEW025CB 12/06
                        Q1009=
201204061300 METAR LPPR 061300Z 23008KT 190V290 9999 FEW018 FEW025CB 11/06
                        Q1009=
201204061230 METAR LPPR 061230Z 22008KT 170V260 9999 FEW018 FEW025CB 12/06
                        Q1009=
201204061200 METAR LPPR 061200Z 20008KT 170V250 9999 FEW018 FEW025CB 12/05
                        Q1009=
201204061130 METAR LPPR 061130Z 20010KT 170V230 9999 FEW018 FEW025CB 12/06
                        Q1009=
201204061100 METAR LPPR 061100Z 19011KT 9999 FEW018 FEW025CB 11/05 Q1009=
201204061030 METAR COR LPPR 061030Z 19010KT 160V220 9999 FEW017 FEW017CB
                        11/06 Q1009=
201204061000 METAR LPPR 061000Z 18010KT 160V220 9999 FEW017 FEW025CB SCT031
                        10/06 Q1009=
201204060930 METAR LPPR 060930Z 18011KT 9999 FEW017 FEW025CB BKN039 10/06
                        Q1009=
201204060900 METAR LPPR 060900Z 18009KT 9999 FEW016 FEW025CB 09/05 Q1008=
201204060830 METAR LPPR 060830Z 18008KT 9999 FEW017 FEW025CB 08/06 Q1008=
201204060800 METAR LPPR 060800Z 15006KT 120V180 9999 FEW017 FEW025CB 08/06
                        Q1008=
201204060730 METAR LPPR 060730Z 13004KT 070V150 9999 FEW017 FEW025CB 07/05
                        Q1007=
201204060700 METAR LPPR 060700Z 15006KT 9999 FEW017 FEW025CB 07/04 Q1007=
201204060630 METAR LPPR 060630Z 16005KT 9999 -SHRA FEW017 FEW025CB SCT035
                        07/05 Q1006=
201204060600 METAR LPPR 060600Z 17004KT 9999 FEW017 FEW023CB SCT040 07/05
                        Q1006=
201204060530 METAR LPPR 060530Z 17007KT 9999 -SHRA FEW017 FEW023CB SCT040
                        07/06 Q1007=
201204060500 METAR LPPR 060500Z 17008KT 9999 TS FEW020 FEW023CB SCT030
                        07/05 Q1006=
201204060430 METAR LPPR 060430Z 16006KT 9999 TS FEW020 FEW025CB SCT040
                        06/05 Q1006=
201204060400 METAR LPPR 060400Z 15004KT 9999 FEW020 SCT040 05/04 Q1006=
201204060330 METAR LPPR 060330Z 12006KT 9999 FEW020 SCT030 06/05 Q1006=
201204060300 METAR LPPR 060300Z 12008KT 9999 FEW020 SCT030 06/04 Q1007=
201204060230 METAR LPPR 060230Z 12006KT 9999 FEW020 SCT030 06/05 Q1007=
201204060200 METAR LPPR 060200Z VRB04KT 9999 FEW030 06/04 Q1007=
201204060130 METAR LPPR 060130Z 11005KT 9999 FEW025 06/04 Q1007=
201204060100 METAR LPPR 060100Z 13004KT 100V170 9999 FEW025 06/03 Q1007=
201204060030 METAR LPPR 060030Z 16002KT 9999 FEW025 08/04 Q1007=
201204060000 METAR LPPR 060000Z 05001KT CAVOK 07/04 Q1007=
201204052330 METAR LPPR 052330Z 01002KT 9999 FEW047 07/04 Q1007=
201204052300 METAR LPPR 052300Z 32004KT 9999 FEW047 09/04 Q1007=
201204052230 METAR LPPR 052230Z 33004KT 9999 SCT047 09/04 Q1008=
201204052200 METAR LPPR 052200Z 34004KT 9999 FEW025 SCT047 09/05 Q1008=
201204052130 METAR LPPR 052130Z 33004KT 9999 FEW025 SCT040 09/05 Q1008=
201204052100 METAR LPPR 052100Z 34007KT 9999 FEW025 SCT040 10/05 Q1008=
201204052030 METAR LPPR 052030Z 34008KT 300V360 9999 FEW020 FEW030CB BKN040
                        10/05 Q1008=
201204052000 METAR LPPR 052000Z VRB03KT 9999 FEW017 FEW025CB BKN035 10/05
                        Q1007=
201204051930 METAR LPPR 051930Z 14006KT 9999 FEW017 FEW025CB BKN035 10/04
                        Q1007=
201204051900 METAR LPPR 051900Z 12006KT 9999 FEW017 FEW025CB BKN030 10/04
                        Q1007=
201204051830 METAR LPPR 051830Z 15006KT 9999 -SHRA FEW020 FEW027CB BKN034
                        10/04 Q1007=
201204051800 METAR LPPR 051800Z 12012KT 090V160 9999 FEW020 FEW030CB BKN033
                        10/04 Q1007=
201204051730 METAR LPPR 051730Z VRB07KT 9999 FEW020 FEW030CB BKN040 11/04
                        Q1007=
201204051700 METAR COR LPPR 051700Z 33014KT 290V360 9999 FEW020 FEW030CB
                        SCT040 11/05 Q1007 WS ALL RWY=
201204051630 METAR LPPR 051630Z 33014KT 9999 FEW020 FEW030CB SCT045 12/05
                        Q1006=
201204051600 METAR LPPR 051600Z 33016KT 9999 FEW020 FEW030CB 12/04 Q1006=
201204051530 METAR LPPR 051530Z 33018G28KT 9999 FEW020 FEW030CB 12/05
                        Q1006=
201204051500 METAR LPPR 051500Z 33019G29KT 9999 FEW020 FEW025CB 13/05
                        Q1006=
201204051430 METAR LPPR 051430Z 32017KT 290V360 9999 FEW020 FEW025CB 13/05
                        Q1007=
201204051400 METAR LPPR 051400Z 33019KT 9999 FEW020 12/04 Q1007=
201204051330 METAR LPPR 051330Z 33017G27KT 9999 FEW020 12/04 Q1007=
201204051300 METAR LPPR 051300Z 33016KT 9999 FEW020 13/04 Q1007=
201204051230 METAR LPPR 051230Z 32015KT 290V350 9999 FEW020 SCT040 13/04
                        Q1007=
201204051200 METAR LPPR 051200Z 32015KT 9999 FEW020 SCT040 13/04 Q1008=
201204051130 METAR LPPR 051130Z 33010G21KT 300V360 9999 FEW020 SCT040
                        13/03 Q1008=
201204051100 METAR LPPR 051100Z 01010KT 340V040 9999 FEW020 SCT045 13/02
                        Q1008=
201204051030 METAR LPPR 051030Z 01009KT 310V100 9999 FEW020 12/03 Q1008=
201204051000 METAR LPPR 051000Z 34010KT 9999 FEW020 12/03 Q1008=
201204050930 METAR LPPR 050930Z 01010KT 340V040 9999 FEW020 10/02 Q1008=
201204050900 METAR LPPR 050900Z 01011KT 9999 FEW020 10/02 Q1008=
201204050830 METAR LPPR 050830Z 34009KT 9999 FEW020 09/03 Q1008=
201204050800 METAR LPPR 050800Z 36007KT 9999 FEW020 08/03 Q1008=
201204050730 METAR LPPR 050730Z 35005KT 9999 FEW020 05/02 Q1008=
201204050700 METAR LPPR 050700Z 36005KT 9999 FEW020 05/02 Q1008=
201204050630 METAR LPPR 050630Z 35005KT 9999 FEW025 05/02 Q1008=
201204050600 METAR LPPR 050600Z 35005KT 9999 FEW025 05/01 Q1008=
201204050530 METAR LPPR 050530Z 36006KT CAVOK 05/02 Q1008=
201204050500 METAR LPPR 050500Z 35006KT CAVOK 05/02 Q1008=
201204050430 METAR LPPR 050430Z 35007KT CAVOK 05/02 Q1008=
201204050400 METAR LPPR 050400Z 35006KT CAVOK 05/02 Q1008=
201204050330 METAR LPPR 050330Z 35008KT CAVOK 06/02 Q1008=
201204050300 METAR LPPR 050300Z 34008KT CAVOK 07/02 Q1008=
201204050230 METAR LPPR 050230Z 34008KT CAVOK 07/02 Q1008=
201204050200 METAR LPPR 050200Z 35007KT CAVOK 06/02 Q1008=
201204050130 METAR LPPR 050130Z 35008KT CAVOK 07/02 Q1008=
201204050100 METAR LPPR 050100Z 36007KT CAVOK 08/02 Q1009=
201204050030 METAR LPPR 050030Z 36007KT CAVOK 08/02 Q1009=
201204050000 METAR LPPR 050000Z 34009KT CAVOK 08/03 Q1009=
201204042330 METAR LPPR 042330Z 34011KT CAVOK 09/03 Q1009=
201204042300 METAR LPPR 042300Z 34011KT CAVOK 09/04 Q1009=
201204042230 METAR LPPR 042230Z 34010KT CAVOK 10/04 Q1009=
201204042200 METAR LPPR 042200Z 34008KT CAVOK 10/05 Q1008=
201204042130 METAR LPPR 042130Z 34007KT CAVOK 11/05 Q1008=
201204042100 METAR LPPR 042100Z 36006KT CAVOK 10/05 Q1008=
201204042030 METAR LPPR 042030Z 36005KT CAVOK 12/06 Q1008=
201204042000 METAR LPPR 042000Z 33007KT CAVOK 12/07 Q1008=
201204041930 METAR LPPR 041930Z 34008KT 9999 FEW049 13/07 Q1007=
201204041900 METAR LPPR 041900Z 33012KT 9999 FEW028 13/07 Q1007=
201204041830 METAR LPPR 041830Z 34012KT 9999 FEW028 14/07 Q1007=
201204041800 METAR LPPR 041800Z 34013KT 9999 FEW030 14/06 Q1007=
201204041730 METAR LPPR 041730Z 33014KT 9999 FEW035TCU 14/07 Q1007=
201204041700 METAR LPPR 041700Z 33015KT 9999 FEW035TCU 14/08 Q1007=
201204041630 METAR LPPR 041630Z 33015KT 300V360 9999 FEW035TCU 14/08 Q1007=
201204041600 METAR LPPR 041600Z 33015KT 9999 FEW035TCU 15/08 Q1007=
201204041530 METAR LPPR 041530Z 33017KT 9999 FEW030 15/07 Q1007=
201204041500 METAR LPPR 041500Z 33016G26KT CAVOK 15/08 Q1007=
201204041430 METAR LPPR 041430Z 33018KT CAVOK 15/08 Q1008=
201204041400 METAR LPPR 041400Z 33017KT CAVOK 15/08 Q1008=
201204041330 METAR LPPR 041330Z 33017KT 9999 FEW040 15/07 Q1008=
201204041300 METAR LPPR 041300Z 33013KT 9999 FEW040 15/07 Q1008=
201204041230 METAR LPPR 041230Z 33012KT 290V350 9999 FEW040 15/08 Q1008=
201204041200 METAR LPPR 041200Z 32011KT 9999 FEW035 14/07 Q1008=
201204041130 METAR LPPR 041130Z 33009KT 280V360 9999 FEW030 15/07 Q1009=
201204041100 METAR LPPR 041100Z 36009KT 320V050 9999 FEW030 15/05 Q1009=
201204041030 METAR LPPR 041030Z 02008KT 340V060 9999 FEW025 15/06 Q1009=
201204041000 METAR LPPR 041000Z 01011KT CAVOK 13/05 Q1009=
201204040930 METAR LPPR 040930Z 35010KT CAVOK 13/05 Q1009=
201204040900 METAR LPPR 040900Z 36009KT CAVOK 12/05 Q1009=
201204040830 METAR LPPR 040830Z 36009KT CAVOK 10/05 Q1009=
201204040800 METAR LPPR 040800Z 36007KT CAVOK 10/05 Q1008=
201204040730 METAR LPPR 040730Z 35005KT CAVOK 08/05 Q1008=
201204040700 METAR LPPR 040700Z 35005KT CAVOK 07/04 Q1008=
201204040630 METAR LPPR 040630Z 34006KT CAVOK 06/04 Q1008=
201204040600 METAR LPPR 040600Z 34006KT CAVOK 07/04 Q1007=
201204040530 METAR LPPR 040530Z 35005KT CAVOK 07/04 Q1007=
201204040500 METAR LPPR 040500Z 36004KT CAVOK 07/04 Q1007=
201204040430 METAR LPPR 040430Z 36005KT CAVOK 07/04 Q1007=
201204040400 METAR LPPR 040400Z 35006KT CAVOK 08/04 Q1007=
201204040330 METAR LPPR 040330Z 35006KT CAVOK 08/04 Q1007=
201204040300 METAR LPPR 040300Z 35005KT CAVOK 08/04 Q1007=
201204040230 METAR LPPR 040230Z 35004KT CAVOK 09/04 Q1007=
201204040200 METAR LPPR 040200Z 35004KT CAVOK 09/04 Q1007=
201204040130 METAR LPPR 040130Z 34006KT CAVOK 11/05 Q1007=
201204040100 METAR LPPR 040100Z 35007KT 9999 SCT045 11/05 Q1008=
201204040030 METAR LPPR 040030Z 36006KT 9999 SCT045 12/06 Q1008=
201204040000 METAR LPPR 040000Z 34006KT 9999 SCT045 12/06 Q1007=
201204032330 METAR LPPR 032330Z 34005KT 9999 SCT045 13/06 Q1008=
201204032300 METAR LPPR 032300Z 33003KT 9999 SCT045 13/07 Q1007=
201204032230 METAR LPPR 032230Z 35003KT 9999 SCT045 13/07 Q1008=
201204032200 METAR LPPR 032200Z 36003KT 9999 SCT045 13/08 Q1007=
201204032130 METAR LPPR 032130Z 34005KT 9999 SCT045 13/08 Q1007=
201204032100 METAR LPPR 032100Z 35004KT 330V030 9999 SCT045 13/08 Q1007=
201204032030 METAR LPPR 032030Z 34005KT 9999 SCT042 14/08 Q1007=
201204032000 METAR LPPR 032000Z 34005KT 9999 BKN045 14/09 Q1007=
201204031930 METAR LPPR 031930Z 34005KT 9999 BKN043 14/08 Q1006=
201204031900 METAR LPPR 031900Z 33006KT 9999 BKN043 14/08 Q1006=
201204031830 METAR LPPR 031830Z 32005KT 270V360 9999 SCT045 14/08 Q1006=
201204031800 METAR LPPR 031800Z 32006KT 290V350 9999 SCT045 14/08 Q1006=
201204031730 METAR LPPR 031730Z 33009KT 9999 BKN045 14/09 Q1006=
201204031700 METAR LPPR 031700Z 33011KT 9999 SCT045 14/08 Q1006=
201204031630 METAR LPPR 031630Z 33011KT 9999 FEW025 BKN045 15/08 Q1006=
201204031600 METAR LPPR 031600Z 33010KT 9999 FEW025 BKN045 15/08 Q1006=
201204031530 METAR LPPR 031530Z 32010KT 290V350 9999 FEW025 BKN040 15/08
                        Q1006=
201204031500 METAR LPPR 031500Z 32011KT 290V360 9999 FEW030 SCT039 15/08
                        Q1006=
201204031430 METAR LPPR 031430Z 32011KT 290V350 9999 FEW030 BKN042 15/09
                        Q1007=
201204031400 METAR LPPR 031400Z 32008KT 290V350 9999 SCT030 BKN042 15/09
                        Q1007=
201204031330 METAR LPPR 031330Z 32009KT 290V350 9999 FEW019 SCT030 15/09
                        Q1007=
201204031300 METAR LPPR 031300Z 31006KT 270V350 9999 FEW020 SCT032 15/10
                        Q1007=
201204031230 METAR LPPR 031230Z 32007KT 290V350 9999 FEW020 BKN030 15/09
                        Q1007=
201204031200 METAR LPPR 031200Z 31006KT 260V340 9000 VCSH FEW020 BKN029
                        BKN049 15/10 Q1007=
201204031130 METAR LPPR 031130Z 30004KT 230V360 9999 FEW022 SCT030 BKN049
                        16/09 Q1007=
201204031100 METAR LPPR 031100Z 32006KT 290V360 9000 SCT025 FEW030TCU
                        BKN048 15/09 Q1008=
201204031030 METAR LPPR 031030Z 32005KT 280V040 9999 SCT022 FEW026TCU
                        BKN044 15/10 Q1008=
201204031000 METAR LPPR 031000Z 01005KT 310V060 8000 SCT020 BKN041 14/09
                        Q1008=
201204030930 METAR LPPR 030930Z 35003KT 320V030 7000 FEW028 BKN042 14/10
                        Q1007=
201204030900 METAR LPPR 030900Z 33004KT 290V360 6000 FEW026 BKN038 13/10
                        Q1007=
201204030830 METAR LPPR 030830Z 36003KT 340V050 6000 FEW025 SCT032 BKN039
                        13/10 Q1007=
201204030800 METAR LPPR 030800Z 35004KT 300V020 5000 BR FEW025 BKN036
                        13/10 Q1007=
201204030730 METAR LPPR 030730Z 36002KT 7000 FEW025 BKN038 12/10 Q1007=
201204030700 METAR LPPR 030700Z VRB01KT 7000 SCT025 BKN036 12/10 Q1006=
201204030630 METAR LPPR 030630Z 33003KT 7000 SCT025 BKN037 12/10 Q1006=
201204030600 METAR LPPR 030600Z VRB02KT 9999 SCT030 SCT036 BKN041 12/10
                        Q1006=
201204030530 METAR LPPR 030530Z VRB01KT 9000 FEW030 BKN040 11/10 Q1006=
201204030500 METAR LPPR 030500Z 35003KT 9999 BKN040 12/10 Q1006=
201204030430 METAR LPPR 030430Z 33002KT 9999 BKN039 12/10 Q1006=
201204030400 METAR LPPR 030400Z 01002KT 9999 BKN038 12/10 Q1006=
201204030330 METAR LPPR 030330Z VRB01KT 9999 BKN038 12/10 Q1006=
201204030300 METAR LPPR 030300Z 27003KT 230V320 9999 FEW025 BKN037 13/10
                        Q1006=
201204030230 METAR LPPR 030230Z VRB02KT 9999 FEW025 BKN035 13/10 Q1007=
201204030200 METAR LPPR 030200Z VRB02KT 9999 SCT025 BKN033 13/09 Q1007=
201204030130 METAR LPPR 030130Z 22003KT 9999 SCT025 BKN031 13/09 Q1007=
201204030100 METAR LPPR 030100Z VRB02KT 9999 FEW020 BKN030 13/09 Q1007=
201204030030 METAR LPPR 030030Z VRB02KT 9999 SCT022 SCT028 BKN032 13/10
                        Q1007=
201204030000 METAR LPPR 030000Z VRB02KT 9999 SCT016 BKN030 13/10 Q1007=
201204022330 METAR LPPR 022330Z VRB02KT 9999 SCT017 SCT025 BKN029 12/10
                        Q1008=
201204022300 METAR LPPR 022300Z 26003KT 230V300 9999 SCT017 BKN026 13/09
                        Q1008=
201204022230 METAR LPPR 022230Z VRB02KT 9999 SCT019 BKN027 13/09 Q1008=
201204022200 METAR LPPR 022200Z 30003KT 220V350 9999 BKN025 13/09 Q1008=
201204022130 METAR LPPR 022130Z 30004KT 260V330 9999 FEW014 BKN026 13/09
                        Q1008=
201204022100 METAR LPPR 022100Z VRB02KT 9999 FEW014 BKN026 13/10 Q1008=
201204022030 METAR LPPR 022030Z 33003KT 9000 FEW016 BKN028 13/10 Q1008=
201204022000 METAR LPPR 022000Z 32004KT 9999 FEW018 BKN028 13/10 Q1007=
201204021930 METAR LPPR 021930Z 33004KT 7000 BKN028 13/10 Q1007=
201204021900 METAR LPPR 021900Z 33006KT 7000 FEW014 BKN028 13/10 Q1007=
201204021830 METAR LPPR 021830Z 33007KT 7000 FEW024 BKN029 14/11 Q1007=
201204021800 METAR LPPR 021800Z 33007KT 300V360 7000 FEW014 SCT027 14/11
                        Q1007=
201204021730 METAR LPPR 021730Z 32007KT 7000 FEW014 SCT026 BKN030 15/11
                        Q1007=
201204021700 METAR LPPR 021700Z 31006KT 270V360 7000 FEW014 SCT017 BKN025
                        15/12 Q1007=
201204021630 METAR LPPR 021630Z 30006KT 270V340 7000 SCT014 BKN017 16/11
                        Q1006=
201204021600 METAR LPPR 021600Z 29006KT 9000 FEW014 SCT016 BKN020 16/12
                        Q1007=
201204021530 METAR LPPR 021530Z 28005KT 220V330 9000 FEW016 SCT019 BKN027
                        16/11 Q1007=
201204021500 METAR LPPR 021500Z 30006KT 260V340 9000 FEW014 BKN016 BKN027
                        16/11 Q1007=
201204021430 METAR LPPR 021430Z 29007KT 240V340 9000 FEW013 BKN020 17/11
                        Q1007=
201204021400 METAR LPPR 021400Z 26007KT 210V310 9000 FEW012 SCT017 17/12
                        Q1007=
201204021330 METAR LPPR 021330Z VRB08KT 9000 FEW012 BKN022 17/12 Q1007=
201204021300 METAR LPPR 021300Z 24007KT 200V310 9000 FEW012 BKN025 17/11
                        Q1008=
201204021230 METAR LPPR 021230Z 24007KT 200V300 9000 FEW015 BKN027 17/11
                        Q1008=
201204021200 METAR LPPR 021200Z 23007KT 200V260 8000 FEW014 BKN027 17/12
                        Q1008=
201204021130 METAR LPPR 021130Z 24006KT 200V300 8000 FEW012 BKN025 16/11
                        Q1008=
201204021100 METAR LPPR 021100Z 25007KT 220V290 9000 FEW014 BKN023 16/11
                        Q1008=
201204021030 METAR LPPR 021030Z 23006KT 200V280 8000 FEW014 BKN023 16/12
                        Q1008=
201204021000 METAR LPPR 021000Z 20005KT 8000 FEW012 BKN022 16/12 Q1008=
201204020930 METAR LPPR 020930Z 21005KT 170V230 6000 SCT014 BKN022 15/12
                        Q1008=
201204020900 METAR LPPR 020900Z 19004KT 160V250 6000 SCT014 BKN022 15/12
                        Q1008=
201204020830 METAR LPPR 020830Z 15005KT 6000 SCT012 BKN021 15/12 Q1008=
201204020800 METAR LPPR 020800Z 13006KT 4000 BR SCT013 BKN021 14/12 Q1007=
201204020730 METAR LPPR 020730Z 14006KT 4000 BR SCT014 BKN022 14/12 Q1007=
201204020700 METAR LPPR 020700Z VRB02KT 3500 BR SCT015 BKN022 14/12 Q1007=
201204020630 METAR LPPR 020630Z 11003KT 050V170 3500 BR BKN013 SCT020
                        14/12 Q1007=
201204020600 METAR LPPR 020600Z 11004KT 070V130 6000 BKN013 BKN022 13/12
                        Q1007=
201204020530 METAR LPPR 020530Z 10004KT 5000 BR SCT011 BKN022 14/12 Q1007=
201204020500 METAR LPPR 020500Z 09003KT 060V170 5000 BR SCT010 BKN020
                        13/11 Q1007=
201204020430 METAR LPPR 020430Z VRB01KT 6000 SCT011 BKN020 13/11 Q1007=
201204020400 METAR LPPR 020400Z 03002KT 5000 BR SCT009 BKN016 13/11 Q1007=
201204020330 METAR LPPR 020330Z 34002KT 6000 SCT009 BKN014 13/11 Q1007=
201204020300 METAR LPPR 020300Z VRB02KT 5000 BR SCT009 BKN014 13/11 Q1007=
201204020230 METAR LPPR 020230Z 36005KT 5000 BR SCT009 SCT013 13/11 Q1007=
201204020200 METAR LPPR 020200Z 20006KT 6000 FEW010 13/11 Q1006=
201204020130 METAR LPPR 020130Z 19003KT 7000 FEW015 13/11 Q1007=
201204020100 METAR LPPR 020100Z VRB01KT 6000 FEW015 12/11 Q1007=
201204020030 METAR LPPR 020030Z VRB01KT 6000 FEW015 12/11 Q1008=
201204020000 METAR LPPR 020000Z 01002KT 6000 FEW017 12/11 Q1008=
201204012330 METAR LPPR 012330Z 33001KT 5000 BR FEW017 13/11 Q1008=
201204012300 METAR LPPR 012300Z VRB02KT 7000 FEW016 13/11 Q1008=
201204012230 METAR LPPR 012230Z 08006KT 7000 SCT012 BKN016 13/12 Q1009=
201204012200 METAR LPPR 012200Z 11002KT 6000 SCT013 12/11 Q1008=
201204012130 METAR LPPR 012130Z 10004KT 5000 BR BKN013 12/11 Q1008=
201204012100 METAR LPPR 012100Z 06004KT 020V090 5000 BR SCT012 11/10 Q1008=
201204012030 METAR LPPR 012030Z VRB02KT 6000 FEW011 12/11 Q1008=
201204012000 METAR LPPR 012000Z 22003KT 7000 FEW012 13/11 Q1008=
201204011930 METAR LPPR 011930Z VRB02KT 7000 SCT012 14/11 Q1007=
201204011900 METAR LPPR 011900Z VRB02KT 8000 SCT012 14/11 Q1008=
201204011830 METAR LPPR 011830Z VRB02KT 9000 SCT012 15/11 Q1008=
201204011800 METAR LPPR 011800Z VRB03KT 9000 SCT012 15/12 Q1008=
201204011730 METAR LPPR 011730Z 26004KT 210V330 9000 SCT012 15/12 Q1007=
201204011700 METAR LPPR 011700Z 28005KT 230V340 9000 SCT012 16/12 Q1007=
201204011630 METAR LPPR 011630Z 29005KT 200V340 9000 FEW012 FEW025TCU
                        15/12 Q1007=
201204011600 METAR LPPR 011600Z 27005KT 210V320 9000 FEW012 FEW025TCU
                        16/12 Q1007=
201204011530 METAR LPPR 011530Z 28005KT 230V320 9000 FEW011 FEW025TCU
                        16/12 Q1007=
201204011500 METAR LPPR 011500Z 29004KT 260V320 9000 FEW012 FEW025TCU
                        16/12 Q1008=
201204011430 METAR LPPR 011430Z 27005KT 230V330 9000 FEW015 FEW025TCU
                        16/12 Q1008=
201204011400 METAR LPPR 011400Z 29005KT 230V320 9000 FEW011 SCT020TCU
                        16/12 Q1008=
201204011330 METAR LPPR 011330Z 29006KT 240V320 9000 FEW014 16/13 Q1008=
201204011300 METAR LPPR 011300Z VRB04KT 9000 FEW013 16/12 Q1009=
201204011230 METAR LPPR 011230Z 25005KT 180V310 9000 NSC 17/13 Q1009=
201204011200 METAR LPPR 011200Z 25006KT 210V320 8000 FEW020TCU 16/12 Q1009=
201204011130 METAR LPPR 011130Z 27004KT 220V340 7000 FEW020TCU 17/13 Q1009=
201204011100 METAR LPPR 011100Z 29004KT 230V340 7000 SCT016 FEW020TCU
                        16/12 Q1009=
201204011030 METAR LPPR 011030Z VRB02KT 6000 FEW015 SCT020TCU 18/12 Q1009=
201204011000 METAR LPPR 011000Z 19003KT 110V270 5000 BR SCT015 SCT020TCU
                        16/12 Q1009=
201204010930 METAR LPPR 010930Z 15003KT 080V230 4100 BR SCT010 SCT050
                        15/12 Q1009=
201204010900 METAR LPPR 010900Z 04004KT 010V070 4600 BR SCT025 14/12 Q1010=
201204010830 METAR LPPR 010830Z VRB02KT 4500 BR SCT018 SCT025 14/12 Q1009=
201204010800 METAR LPPR 010800Z VRB01KT 4200 BR SCT012 BKN025 13/11 Q1010=
201204010730 METAR LPPR 010730Z 09002KT 4100 BR BKN010 BKN012 13/11 Q1010=
201204010700 METAR LPPR 010700Z 06004KT 3500 BR FEW005 BKN010 12/11 Q1009=
201204010630 METAR LPPR 010630Z VRB02KT 4000 BR FEW004 BKN010 12/10 Q1009=
201204010600 METAR LPPR 010600Z VRB01KT 6000 FEW005 BKN010 12/11 Q1009=
201204010530 METAR LPPR 010530Z 00000KT 7000 FEW005 BKN009 11/10 Q1009=
201204010500 METAR LPPR 010500Z 00000KT 6000 FEW005 BKN010 12/10 Q1009=
201204010430 METAR LPPR 010430Z 00000KT 7000 FEW005 BKN009 11/10 Q1009=
201204010400 METAR LPPR 010400Z VRB02KT 7000 FEW005 BKN009 11/10 Q1009=
201204010330 METAR LPPR 010330Z VRB01KT 7000 SCT005 BKN008 11/10 Q1009=
201204010300 METAR LPPR 010300Z 00000KT 6000 FEW004 BKN008 10/09 Q1009=
201204010230 METAR LPPR 010230Z 00000KT 6000 FEW004 10/10 Q1009=
201204010200 METAR LPPR 010200Z VRB02KT 6000 FEW006 11/10 Q1010=
201204010130 METAR LPPR 010130Z VRB01KT 6000 FEW006 11/10 Q1010=
201204010100 METAR LPPR 010100Z VRB01KT 6000 NSC 12/10 Q1010=
201204010030 METAR LPPR 010030Z 19004KT 150V230 6000 NSC 13/11 Q1010=
201204010000 METAR LPPR 010000Z 27003KT 210V310 7000 NSC 13/10 Q1010=

</pre>

</body>
</html>
