##########################################################
# Query made at 11/07/2014 14:25:29 UTC
# Time interval: from 04/01/2008 00:00  to 05/01/2008 23:59  UTC
##########################################################

##########################################################
# LPPR, Porto / Pedras Rubras (Portugal)
# WMO index: 08545
# Latitude 41-14N. Longitude 008-41W. Altitude 69 m.
##########################################################

###################################
#  METAR/SPECI from LPPR
###################################
200804302330 METAR LPPR 302330Z 00000KT 9999 FEW020 10/08 Q1013=
200804302300 METAR LPPR 302300Z 00000KT 9999 FEW020 11/08 Q1013=
200804302230 METAR LPPR 302230Z 00000KT 9999 FEW020 12/09 Q1013=
200804302200 METAR LPPR 302200Z 00000KT 9999 FEW020 12/09 Q1013=
200804302130 METAR LPPR 302130Z 00000KT 9999 FEW020 13/09 Q1013=
200804302100 METAR LPPR 302100Z VRB02KT 9999 FEW020 13/09 Q1013=
200804302030 METAR LPPR 302030Z VRB02KT 9999 SCT020 14/09 Q1013=
200804302000 METAR LPPR 302000Z VRB02KT 9999 FEW020 SCT060 14/08 Q1013=
200804301930 METAR LPPR 301930Z VRB02KT 9999 FEW020 SCT060 14/08 Q1013=
200804301900 METAR LPPR 301900Z 28004KT 250V320 9999 FEW020 14/08 Q1013=
200804301830 METAR LPPR 301830Z 29005KT 260V320 9999 FEW020 15/08 Q1012=
200804301800 METAR LPPR 301800Z 30007KT 270V340 9999 FEW020 15/07 Q1013=
200804301730 METAR LPPR 301730Z 29008KT 260V320 9999 FEW020 16/08 Q1013=
200804301700 METAR LPPR 301700Z 29007KT 250V320 9999 FEW020 16/08 Q1013=
200804301630 METAR LPPR 301630Z 30007KT 260V340 9999 SCT020 16/08 Q1012=
200804301600 METAR LPPR 301600Z 27007KT 200V330 9999 SCT020 16/09 Q1012=
200804301530 METAR LPPR 301530Z 28007KT 240V320 9999 SCT020 16/09 Q1013=
200804301500 METAR LPPR 301500Z 29008KT 250V330 9999 SCT020 16/08 Q1013=
200804301430 METAR LPPR 301430Z 27007KT 230V320 9999 SCT020 16/08 Q1013=
200804301400 METAR LPPR 301400Z 30007KT 210V010 9999 SCT020 16/08 Q1013=
200804301330 METAR LPPR 301330Z 26009KT 180V340 9999 SCT020 16/09 Q1013=
200804301300 METAR LPPR 301300Z 27008KT 240V310 9999 SCT020 16/08 Q1013=
200804301230 METAR LPPR 301230Z 26008KT 220V360 9999 SCT020 16/09 Q1013=
200804301200 METAR LPPR 301200Z 28006KT 230V350 9999 SCT020 16/08 Q1013=
200804301130 METAR LPPR 301130Z 29006KT 210V360 9999 SCT017 15/09 Q1013=
200804301100 METAR LPPR 301100Z 27006KT 200V350 9999 SCT017 FEW025TCU
                        15/09 Q1013=
200804301030 METAR LPPR 301030Z 29004KT 230V350 9999 SCT017 FEW025TCU
                        14/10 Q1013=
200804301000 METAR LPPR 301000Z 30005KT 200V360 9999 SCT017 FEW025TCU
                        14/10 Q1013=
200804300930 METAR LPPR 300930Z 00000KT 9999 SCT017 FEW025TCU 15/10 Q1013=
200804300900 METAR LPPR 300900Z VRB03KT 9999 SCT017 FEW025TCU 13/10 Q1013=
200804300830 METAR LPPR 300830Z VRB03KT 9999 SCT017 FEW025TCU 13/10 Q1012=
200804300800 METAR LPPR 300800Z 13004KT 9999 VCSH SCT018 BKN035 13/11
                        Q1012=
200804300730 METAR LPPR 300730Z 12004KT 9999 FEW018 SCT035 11/11 Q1012=
200804300700 METAR LPPR 300700Z 11004KT 9999 FEW018 11/11 Q1012=
200804300630 METAR LPPR 300630Z 15003KT 9999 FEW018 SCT035 10/10 Q1012=
200804300600 METAR LPPR 300600Z 10003KT 8000 -SHRA SCT018 BKN035 10/10
                        Q1011=
200804300530 METAR LPPR 300530Z 00000KT 9999 SCT018 10/09 Q1011=
200804300500 METAR LPPR 300500Z 00000KT 9999 SCT017 10/10 Q1011=
200804300430 METAR LPPR 300430Z 34004KT 300V020 8000 -SHRA SCT015 BKN035
                        11/10 Q1011=
200804300400 METAR LPPR 300400Z 27004KT 210V320 7000 -SHRA SCT015 BKN025
                        10/10 Q1011=
200804300330 METAR LPPR 300330Z 08002KT 9999 FEW015 BKN030 10/09 Q1011=
200804300300 METAR LPPR 300300Z 01004KT 340V040 9999 SCT015 11/10 Q1011=
200804300230 METAR LPPR 300230Z 32007KT 8000 SCT015 BKN030 11/09 Q1011=
200804300200 METAR LPPR 300200Z VRB02KT 9999 SCT015 11/08 Q1011=
200804300130 METAR LPPR 300130Z 33005KT 9999 SCT015 12/08 Q1011=
200804300100 METAR LPPR 300100Z 32009KT 290V350 9999 SCT015 12/08 Q1011=
200804300030 METAR LPPR 300030Z 32007KT 280V340 9999 SCT015 12/09 Q1011=
200804300000 METAR LPPR 300000Z 32007KT 9999 SCT015 12/08 Q1011=
200804292330 METAR LPPR 292330Z 32009KT 9999 SCT012 BKN030 12/08 Q1011=
200804292300 METAR LPPR 292300Z 33006KT 9999 SCT012 BKN030 12/08 Q1011=
200804292230 METAR LPPR 292230Z 33007KT 9999 SCT012 12/08 Q1011=
200804292200 METAR LPPR 292200Z 33009KT 290V350 9999 FEW012 12/07 Q1012=
200804292130 METAR LPPR 292130Z 32007KT 290V350 9999 SCT012 SCT030 BKN070
                        12/09 Q1011=
200804292100 METAR LPPR 292100Z 32010KT 9999 SCT012 SCT030 BKN070 12/09
                        Q1011=
200804292030 METAR LPPR 292030Z 32007KT 290V350 9999 SCT012 SCT030 BKN070
                        12/10 Q1011=
200804292000 METAR LPPR 292000Z 32008KT 9999 SCT012 SCT030 BKN070 12/11
                        Q1011=
200804291930 METAR LPPR 291930Z 32012KT 290V350 9999 FEW008 SCT012 BKN030
                        12/11 Q1011 RERA=
200804291900 METAR LPPR 291900Z 31012G23KT 260V340 6000 RA SCT006 SCT012
                        BKN030 12/11 Q1011=
200804291830 METAR LPPR 291830Z 31023KT 250V330 7000 -SHRA SCT005 SCT015
                        BKN030 13/11 Q1010=
200804291800 METAR LPPR 291800Z 29010KT 260V320 9999 FEW008 SCT015 BKN030
                        14/12 Q1010=
200804291730 METAR LPPR 291730Z 26009KT 220V290 9999 FEW017 SCT030 BKN070
                        15/11 Q1011=
200804291700 METAR LPPR 291700Z 23010KT 190V260 9999 FEW017 SCT030 BKN070
                        14/12 Q1011=
200804291630 METAR LPPR 291630Z 25012G22KT 210V290 9999 FEW017 SCT030
                        BKN070 15/12 Q1011=
200804291600 METAR LPPR 291600Z 27009KT 200V310 9999 FEW017 BKN030 14/12
                        Q1011=
200804291530 METAR LPPR 291530Z 26012G22KT 230V290 9999 FEW017 BKN030
                        16/10 Q1011=
200804291500 METAR LPPR 291500Z 25012G22KT 220V290 9999 FEW017 BKN030
                        15/11 Q1012=
200804291430 METAR LPPR 291430Z 24006KT 200V270 9999 FEW017 BKN030 14/13
                        Q1012=
200804291400 METAR LPPR 291400Z 24012G22KT 200V280 3000 SHRA SCT009 BKN013
                        BKN025 14/11 Q1013=
200804291330 METAR LPPR 291330Z 23010KT 200V270 9999 FEW017 SCT025 BKN050
                        15/10 Q1013=
200804291300 METAR LPPR 291300Z 23011KT 200V280 9999 FEW017 BKN050 16/10
                        Q1013=
200804291230 METAR LPPR 291230Z 23011KT 200V270 9999 FEW017 SCT030 BKN050
                        16/10 Q1013=
200804291200 METAR LPPR 291200Z 25011KT 210V280 9999 FEW017 BKN050 16/10
                        Q1013=
200804291130 METAR LPPR 291130Z 25008KT 200V290 9999 FEW017 BKN050 15/10
                        Q1013=
200804291100 METAR LPPR 291100Z 26011G26KT 210V290 9999 SCT017 BKN025
                        15/10 Q1014=
200804291030 METAR LPPR 291030Z 25010KT 210V290 9999 FEW017 BKN050 15/10
                        Q1014=
200804291000 METAR LPPR 291000Z 25008KT 210V290 9999 FEW017 BKN050 15/10
                        Q1014=
200804290930 METAR LPPR 290930Z 27008KT 240V300 9999 FEW017 BKN050 15/09
                        Q1014=
200804290900 METAR LPPR 290900Z 26007KT 200V310 9999 FEW017 BKN050 14/11
                        Q1014=
200804290830 METAR LPPR 290830Z 25006KT 210V280 9999 FEW017 BKN045 14/10
                        Q1014=
200804290800 METAR LPPR 290800Z 28005KT 240V350 9999 FEW017 BKN035 13/11
                        Q1014=
200804290730 METAR LPPR 290730Z 27006KT 230V300 9999 FEW017 BKN035 14/09
                        Q1014=
200804290700 METAR LPPR 290700Z VRB03KT 9999 FEW017 BKN035 13/11 Q1015=
200804290630 METAR LPPR 290630Z VRB03KT 9999 FEW017 BKN030 12/11 Q1015=
200804290600 METAR LPPR 290600Z 18004KT 120V220 9999 FEW017 BKN030 BKN080
                        12/11 Q1015=
200804290530 METAR LPPR 290530Z 11004KT 9999 -RA BKN025 BKN080 11/10 Q1015=
200804290500 METAR LPPR 290500Z 11003KT 9999 FEW017 BKN025 BKN070 12/11
                        Q1015=
200804290430 METAR LPPR 290430Z 05004KT 360V080 9999 FEW017 BKN025 BKN070
                        12/11 Q1015=
200804290400 METAR LPPR 290400Z VRB03KT 9999 FEW017 BKN025 BKN060 12/10
                        Q1016=
200804290330 METAR LPPR 290330Z 13004KT 100V160 9999 FEW017 BKN030 BKN060
                        12/09 Q1016=
200804290300 METAR LPPR 290300Z 12005KT 9999 FEW017 SCT030 BKN060 12/09
                        Q1016=
200804290230 METAR LPPR 290230Z 12003KT 9999 SCT030 BKN060 11/09 Q1016=
200804290200 METAR LPPR 290200Z 00000KT 9999 SCT030 SCT060 11/09 Q1017=
200804290130 METAR LPPR 290130Z 00000KT 9999 FEW017 SCT030 12/09 Q1017=
200804290100 METAR LPPR 290100Z 00000KT 9999 FEW017 SCT030 11/09 Q1018=
200804290030 METAR LPPR 290030Z 13004KT 9999 FEW017 SCT030 11/08 Q1018=
200804290000 METAR LPPR 290000Z 00000KT 9999 FEW017 SCT030 10/08 Q1018=
200804282330 METAR LPPR 282330Z 00000KT 9999 FEW017 SCT030 11/08 Q1019=
200804282300 METAR LPPR 282300Z 00000KT 9999 FEW017 SCT030 11/08 Q1019=
200804282230 METAR LPPR 282230Z 00000KT 9999 FEW020 11/08 Q1019=
200804282200 METAR LPPR 282200Z 00000KT 9999 FEW020 11/07 Q1020=
200804282130 METAR LPPR 282130Z 00000KT 9999 FEW020 11/07 Q1020=
200804282100 METAR LPPR 282100Z 35003KT 9999 FEW017 11/07 Q1020=
200804282030 METAR LPPR 282030Z 33005KT 9999 FEW020 12/07 Q1020=
200804282000 METAR LPPR 282000Z 33006KT 9999 FEW020 13/07 Q1020=
200804281930 METAR LPPR 281930Z 33007KT 290V350 9999 SCT020 13/07 Q1020=
200804281900 METAR LPPR 281900Z 33011KT 9999 SCT020 14/07 Q1019=
200804281830 METAR LPPR 281830Z 32010KT 290V350 9999 FEW017 SCT030 14/09
                        Q1019=
200804281800 METAR LPPR 281800Z 33010KT 290V350 9999 FEW017 SCT025 15/09
                        Q1020=
200804281730 METAR LPPR 281730Z 32011KT 270V350 9999 FEW017 SCT025 15/09
                        Q1020=
200804281700 METAR LPPR 281700Z 32012KT 280V350 9999 FEW017 SCT025 16/08
                        Q1019=
200804281630 METAR LPPR 281630Z 32010KT 270V010 9999 FEW017 SCT025 15/09
                        Q1019=
200804281600 METAR LPPR 281600Z 32013KT 270V350 9999 FEW017 16/08 Q1019=
200804281530 METAR LPPR 281530Z 31012KT 280V350 9999 SCT017 16/08 Q1019=
200804281500 METAR LPPR 281500Z 31012KT 270V340 9999 SCT017 16/08 Q1020=
200804281430 METAR LPPR 281430Z 33013KT 290V350 9999 SCT017 16/08 Q1020=
200804281400 METAR LPPR 281400Z 32013KT 9999 SCT017 17/09 Q1020=
200804281330 METAR LPPR 281330Z 33014KT 9999 SCT017 16/09 Q1020=
200804281300 METAR LPPR 281300Z 32012KT 280V340 9999 SCT017 16/10 Q1020=
200804281230 METAR LPPR 281230Z 31013KT 270V350 9999 SCT017 16/09 Q1020=
200804281200 METAR LPPR 281200Z 31013KT 9999 SCT017 16/10 Q1020=
200804281130 METAR LPPR 281130Z 31012KT 260V350 9999 SCT017 16/10 Q1020=
200804281100 METAR LPPR 281100Z 33010KT 280V350 9999 SCT017 16/09 Q1020=
200804281030 METAR LPPR 281030Z 33012KT 9999 SCT017 16/10 Q1020=
200804281000 METAR LPPR 281000Z 33013KT 9999 BKN017 15/10 Q1020=
200804280930 METAR LPPR 280930Z 34007KT 290V030 9999 BKN017 15/12 Q1020=
200804280900 METAR LPPR 280900Z 35006KT 320V020 9999 SCT017 SCT030 13/12
                        Q1020=
200804280830 METAR LPPR 280830Z 36008KT 9999 SCT017 BKN030 13/12 Q1019=
200804280800 METAR LPPR 280800Z 01006KT 340V050 9999 SCT017 BKN025 12/12
                        Q1019=
200804280730 METAR LPPR 280730Z 33004KT 270V010 7000 -SHRA SCT017 BKN025
                        13/11 Q1019=
200804280700 METAR LPPR 280700Z 36002KT 9999 BKN015 BKN035 12/11 Q1019=
200804280630 METAR LPPR 280630Z 34004KT 300V010 9999 SCT015 BKN045 12/11
                        Q1019=
200804280600 METAR LPPR 280600Z 35015KT 8000 -RA SCT009 BKN015 BKN030
                        12/11 Q1019=
200804280530 METAR LPPR 280530Z 00000KT 9999 BKN017 SCT035 13/10 Q1018=
200804280500 METAR LPPR 280500Z 00000KT 9999 FEW035 SCT090 BKN250 12/10
                        Q1019=
200804280430 METAR LPPR 280430Z 00000KT 9999 FEW035 BKN090 BKN250 12/10
                        Q1019=
200804280400 METAR LPPR 280400Z 35002KT 9999 FEW035 BKN090 BKN250 12/10
                        Q1019=
200804280330 METAR LPPR 280330Z 00000KT 9999 FEW035 SCT100 BKN250 12/10
                        Q1019=
200804280300 METAR LPPR 280300Z 35003KT 9999 FEW017CB SCT100 BKN250 13/10
                        Q1019=
200804280230 METAR LPPR 280230Z 33008KT 9999 FEW017 SCT030 13/10 Q1019=
200804280200 METAR LPPR 280200Z 33007KT 9999 SCT017 BKN030 13/11 Q1019=
200804280130 METAR LPPR 280130Z 33008KT 9999 SCT017 BKN030 14/11 Q1020=
200804280100 METAR LPPR 280100Z 33008KT 9999 SCT017 BKN030 14/12 Q1020=
200804280030 METAR LPPR 280030Z 33006KT 290V350 9999 SCT017 BKN030 14/12
                        Q1020=
200804280000 METAR LPPR 280000Z 33005KT 9999 SCT017 SCT035 14/12 Q1020=
200804272330 METAR LPPR 272330Z 32004KT 290V350 9999 SCT017 SCT040 14/12
                        Q1020=
200804272300 METAR LPPR 272300Z 33005KT 9999 SCT040 SCT100 14/12 Q1020=
200804272230 METAR LPPR 272230Z 33006KT 9999 FEW040 SCT100 14/12 Q1020=
200804272200 METAR LPPR 272200Z 33007KT 9999 FEW040 SCT100 14/12 Q1020=
200804272130 METAR LPPR 272130Z 33005KT CAVOK 14/12 Q1020=
200804272100 METAR LPPR 272100Z 33007KT CAVOK 14/12 Q1020=
200804272030 METAR LPPR 272030Z 33010KT CAVOK 15/12 Q1020=
200804272000 METAR LPPR 272000Z 33011KT CAVOK 15/12 Q1020=
200804271930 METAR LPPR 271930Z 33012KT 290V350 CAVOK 15/12 Q1020=
200804271900 METAR LPPR 271900Z 32011KT CAVOK 16/12 Q1019=
200804271830 METAR LPPR 271830Z 33013KT CAVOK 16/12 Q1019=
200804271800 METAR LPPR 271800Z 33014KT CAVOK 17/12 Q1020=
200804271730 METAR LPPR 271730Z 33014KT 290V350 CAVOK 17/13 Q1020=
200804271700 METAR LPPR 271700Z 32015KT 9999 FEW015 SCT250 17/14 Q1020=
200804271630 METAR LPPR 271630Z 32014KT 290V350 9999 FEW017 BKN250 18/14
                        Q1020=
200804271600 METAR LPPR 271600Z 33013KT 9999 FEW017 BKN250 18/14 Q1019=
200804271530 METAR LPPR 271530Z 33014KT CAVOK 18/13 Q1020=
200804271500 METAR LPPR 271500Z 33015KT 9999 FEW015 SCT250 18/14 Q1020=
200804271430 METAR LPPR 271430Z 32013KT 290V350 9999 FEW015 SCT250 19/15
                        Q1020=
200804271400 METAR LPPR 271400Z 33011KT 290V350 CAVOK 19/15 Q1020=
200804271330 METAR LPPR 271330Z 31012KT CAVOK 19/15 Q1020=
200804271300 METAR LPPR 271300Z 31010KT 9999 FEW015 SCT250 19/15 Q1020=
200804271230 METAR LPPR 271230Z 31010KT 280V340 9999 FEW015 BKN250 19/15
                        Q1021=
200804271200 METAR LPPR 271200Z 30009KT 270V330 9999 FEW015 BKN250 19/15
                        Q1021=
200804271130 METAR LPPR 271130Z 32010KT 290V350 CAVOK 19/15 Q1021=
200804271100 METAR LPPR 271100Z 29008KT 260V340 CAVOK 19/15 Q1021=
200804271030 METAR LPPR 271030Z 28006KT 240V340 8000 SCT250 19/15 Q1021=
200804271000 METAR LPPR 271000Z 26005KT 220V290 8000 SCT250 19/15 Q1021=
200804270930 METAR LPPR 270930Z VRB02KT 7000 FEW008 SCT250 19/15 Q1021=
200804270900 METAR LPPR 270900Z VRB03G15KT 6000 SCT008 17/15 Q1021=
200804270830 METAR LPPR 270830Z 00000KT 5000 BR SCT006 SCT008 17/15 Q1021=
200804270800 METAR LPPR 270800Z VRB02KT 5000 BR SCT005 BKN009 16/15 Q1021=
200804270730 METAR LPPR 270730Z 34006KT 300V010 5000 BR SCT005 BKN009
                        16/16 Q1021=
200804270700 METAR LPPR 270700Z 36005KT 330V050 5000 BR SCT005 BKN009
                        15/15 Q1020=
200804270630 METAR LPPR 270630Z 32009KT 4000 BR SCT004 BKN008 16/16 Q1021=
200804270600 METAR LPPR 270600Z 33005KT 3000 BR SCT004 BKN007 15/15 Q1020=
200804270530 METAR LPPR 270530Z 33004KT 280V360 2500 BR SCT002 BKN006
                        15/15 Q1020=
200804270500 METAR LPPR 270500Z VRB03KT 4000 BR FEW004 SCT250 14/14 Q1019=
200804270430 METAR LPPR 270430Z VRB03KT 4000 BR SCT004 SCT250 15/15 Q1019=
200804270400 METAR LPPR 270400Z 13005KT 3000 BR SCT004 SCT250 16/16 Q1019=
200804270330 METAR LPPR 270330Z 13004KT 2500 BR BKN004 SCT250 15/15 Q1019=
200804270300 METAR LPPR 270300Z 00000KT 2500 BR SCT002 BKN004 16/16 Q1019=
200804270230 METAR LPPR 270230Z 33007KT 3000 BR BKN003 BKN004 16/16 Q1020=
200804270200 METAR LPPR 270200Z VRB03KT 3000 BR SCT003 BKN005 16/16 Q1020=
200804270130 METAR LPPR 270130Z VRB03KT 4000 BR SCT003 BKN250 16/16 Q1020=
200804270100 METAR LPPR 270100Z 26005KT 5000 BR BKN250 16/16 Q1020=
200804270030 METAR LPPR 270030Z 18003KT 6000 BKN250 16/16 Q1020=
200804270000 METAR LPPR 270000Z 21002KT 6000 BKN250 16/16 Q1020=
200804262330 METAR LPPR 262330Z 00000KT 6000 BKN250 16/16 Q1020=
200804262300 METAR LPPR 262300Z 00000KT 7000 BKN250 16/16 Q1020=
200804262230 METAR LPPR 262230Z VRB03KT 7000 BKN250 17/16 Q1020=
200804262200 METAR LPPR 262200Z VRB04KT 8000 BKN250 17/16 Q1020=
200804262130 METAR LPPR 262130Z 31006KT 9000 BKN250 18/17 Q1020=
200804262100 METAR LPPR 262100Z VRB03KT CAVOK 18/15 Q1020=
200804262030 METAR LPPR 262030Z 28005KT CAVOK 20/16 Q1019=
200804262000 METAR LPPR 262000Z 00000KT CAVOK 20/15 Q1019=
200804261930 METAR LPPR 261930Z 00000KT CAVOK 21/16 Q1019=
200804261900 METAR LPPR 261900Z 34003KT CAVOK 21/15 Q1019=
200804261830 METAR LPPR 261830Z VRB03KT CAVOK 23/15 Q1019=
200804261800 METAR LPPR 261800Z 31006KT CAVOK 23/14 Q1019=
200804261730 METAR LPPR 261730Z 33007KT CAVOK 23/14 Q1019=
200804261700 METAR LPPR 261700Z 32009KT CAVOK 24/14 Q1019=
200804261630 METAR LPPR 261630Z 32008KT CAVOK 24/14 Q1019=
200804261600 METAR LPPR 261600Z 32006KT 270V350 9999 FEW017 SCT250 26/13
                        Q1019=
200804261530 METAR LPPR 261530Z 29005KT 260V320 9999 FEW017 SCT250 27/14
                        Q1019=
200804261500 METAR LPPR 261500Z 30005KT 9999 FEW015 SCT250 27/14 Q1019=
200804261430 METAR LPPR 261430Z 28004KT 260V320 9999 FEW017 SCT250 27/15
                        Q1019=
200804261400 METAR LPPR 261400Z 29005KT 9999 FEW017 SCT250 26/16 Q1020=
200804261330 METAR LPPR 261330Z 29006KT 250V320 9999 FEW015 SCT250 26/16
                        Q1020=
200804261300 METAR LPPR 261300Z 29005KT 260V320 9999 FEW015 BKN250 27/17
                        Q1020=
200804261230 METAR LPPR 261230Z 29006KT 9999 FEW015 BKN250 27/16 Q1020=
200804261200 METAR LPPR 261200Z 29004KT 250V320 9999 FEW015 BKN250 27/17
                        Q1020=
200804261130 METAR LPPR 261130Z 28005KT 230V360 9999 FEW015 BKN250 26/17
                        Q1020=
200804261100 METAR LPPR 261100Z 00000KT CAVOK 29/13 Q1020=
200804261030 METAR LPPR 261030Z VRB03KT CAVOK 27/13 Q1020=
200804261000 METAR LPPR 261000Z 12004KT 070V170 CAVOK 26/15 Q1020=
200804260930 METAR LPPR 260930Z VRB03KT CAVOK 25/15 Q1021=
200804260900 METAR LPPR 260900Z VRB03KT CAVOK 24/14 Q1020=
200804260830 METAR LPPR 260830Z 11005KT 060V130 CAVOK 22/14 Q1020=
200804260800 METAR LPPR 260800Z VRB03KT CAVOK 20/14 Q1020=
200804260730 METAR LPPR 260730Z 06003KT CAVOK 18/15 Q1021=
200804260700 METAR LPPR 260700Z 00000KT CAVOK 17/15 Q1021=
200804260630 METAR LPPR 260630Z 00000KT CAVOK 16/14 Q1020=
200804260600 METAR LPPR 260600Z 00000KT CAVOK 16/13 Q1020=
200804260530 METAR LPPR 260530Z 00000KT CAVOK 18/13 Q1020=
200804260500 METAR LPPR 260500Z 11006KT CAVOK 19/14 Q1020=
200804260430 METAR LPPR 260430Z 11007KT 080V140 CAVOK 19/13 Q1020=
200804260400 METAR LPPR 260400Z 10005KT 070V130 CAVOK 19/13 Q1020=
200804260330 METAR LPPR 260330Z 00000KT CAVOK 18/13 Q1020=
200804260300 METAR LPPR 260300Z 00000KT CAVOK 19/13 Q1020=
200804260230 METAR LPPR 260230Z VRB02KT CAVOK 19/13 Q1020=
200804260200 METAR LPPR 260200Z 10004KT CAVOK 18/13 Q1020=
200804260130 METAR LPPR 260130Z 00000KT CAVOK 17/13 Q1021=
200804260100 METAR LPPR 260100Z 00000KT CAVOK 18/13 Q1021=
200804260030 METAR LPPR 260030Z 00000KT CAVOK 19/13 Q1021=
200804260000 METAR LPPR 260000Z 00000KT CAVOK 20/13 Q1021=
200804252330 METAR LPPR 252330Z 09004KT CAVOK 21/12 Q1021=
200804252300 METAR LPPR 252300Z 00000KT CAVOK 20/14 Q1021=
200804252230 METAR LPPR 252230Z 00000KT CAVOK 20/13 Q1022=
200804252200 METAR LPPR 252200Z 00000KT CAVOK 20/12 Q1022=
200804252130 METAR LPPR 252130Z 00000KT CAVOK 20/13 Q1022=
200804252100 METAR LPPR 252100Z 00000KT CAVOK 21/13 Q1022=
200804252030 METAR LPPR 252030Z 02002KT CAVOK 22/13 Q1022=
200804252000 METAR LPPR 252000Z 00000KT CAVOK 22/13 Q1022=
200804251930 METAR LPPR 251930Z 34003KT CAVOK 23/13 Q1021=
200804251900 METAR LPPR 251900Z 36004KT CAVOK 24/13 Q1021=
200804251830 METAR LPPR 251830Z 35005KT CAVOK 26/14 Q1021=
200804251800 METAR LPPR 251800Z 33005KT CAVOK 28/11 Q1022=
200804251730 METAR LPPR 251730Z 33005KT 9999 FEW020 28/11 Q1022=
200804251700 METAR LPPR 251700Z 33007G23KT 270V350 9999 FEW020 28/10 Q1022=
200804251630 METAR LPPR 251630Z 32007KT 9999 FEW020 28/09 Q1022=
200804251600 METAR LPPR 251600Z 31006KT 270V340 9999 FEW020 29/10 Q1022=
200804251530 METAR LPPR 251530Z 32006KT 280V340 9999 FEW020 29/08 Q1022=
200804251500 METAR LPPR 251500Z 33006KT 9999 FEW020 29/09 Q1022=
200804251430 METAR LPPR 251430Z 28006KT 220V330 9999 FEW020 30/09 Q1023=
200804251400 METAR LPPR 251400Z 28005G15KT 240V330 9999 FEW020 29/11 Q1023=
200804251330 METAR LPPR 251330Z 30004G16KT 260V340 CAVOK 29/10 Q1023=
200804251300 METAR LPPR 251300Z 00000KT 9999 FEW017 29/10 Q1023=
200804251230 METAR LPPR 251230Z VRB03KT CAVOK 29/12 Q1023=
200804251200 METAR LPPR 251200Z 00000KT CAVOK 29/10 Q1024=
200804251130 METAR LPPR 251130Z 00000KT CAVOK 28/11 Q1024=
200804251100 METAR LPPR 251100Z 12006KT 090V150 CAVOK 27/12 Q1024=
200804251030 METAR LPPR 251030Z 12007KT 090V150 CAVOK 26/13 Q1024=
200804251000 METAR LPPR 251000Z 11008KT CAVOK 25/14 Q1024=
200804250930 METAR LPPR 250930Z 11009KT CAVOK 24/14 Q1024=
200804250900 METAR LPPR 250900Z 11009KT CAVOK 22/13 Q1024=
200804250830 METAR LPPR 250830Z 12008KT 080V140 CAVOK 21/13 Q1024=
200804250800 METAR LPPR 250800Z 11010KT CAVOK 20/13 Q1024=
200804250730 METAR LPPR 250730Z 11009KT CAVOK 19/13 Q1024=
200804250700 METAR LPPR 250700Z 11009KT CAVOK 18/12 Q1024=
200804250630 METAR LPPR 250630Z 11008KT CAVOK 17/12 Q1024=
200804250600 METAR LPPR 250600Z 10004KT CAVOK 14/13 Q1024=
200804250530 METAR LPPR 250530Z VRB02KT CAVOK 13/13 Q1024=
200804250500 METAR LPPR 250500Z 00000KT CAVOK 13/12 Q1024=
200804250430 METAR LPPR 250430Z VRB02KT CAVOK 15/13 Q1024=
200804250400 METAR LPPR 250400Z VRB03KT CAVOK 15/14 Q1024=
200804250330 METAR LPPR 250330Z 00000KT CAVOK 14/13 Q1024=
200804250300 METAR LPPR 250300Z 00000KT CAVOK 14/14 Q1024=
200804250230 METAR LPPR 250230Z 10004KT CAVOK 15/15 Q1024=
200804250200 METAR LPPR 250200Z 00000KT CAVOK 13/13 Q1024=
200804250130 METAR LPPR 250130Z 35002KT CAVOK 12/12 Q1025=
200804250100 METAR LPPR 250100Z 35003KT CAVOK 13/13 Q1025=
200804250030 METAR LPPR 250030Z 02002KT CAVOK 13/13 Q1025=
200804250000 METAR LPPR 250000Z 00000KT CAVOK 13/13 Q1025=
200804242330 METAR LPPR 242330Z 00000KT CAVOK 14/13 Q1025=
200804242300 METAR LPPR 242300Z 00000KT CAVOK 15/13 Q1025=
200804242230 METAR LPPR 242230Z 00000KT CAVOK 15/13 Q1025=
200804242200 METAR LPPR 242200Z 00000KT CAVOK 14/13 Q1026=
200804242130 METAR LPPR 242130Z 00000KT CAVOK 14/13 Q1026=
200804242100 METAR LPPR 242100Z 00000KT CAVOK 14/13 Q1026=
200804242030 METAR LPPR 242030Z 35003KT CAVOK 15/12 Q1026=
200804242000 METAR LPPR 242000Z 36004KT CAVOK 15/13 Q1026=
200804241930 METAR LPPR 241930Z 34005KT CAVOK 16/13 Q1026=
200804241900 METAR LPPR 241900Z 33008KT CAVOK 18/13 Q1026=
200804241830 METAR LPPR 241830Z 33008KT CAVOK 19/13 Q1026=
200804241800 METAR LPPR 241800Z 33010KT CAVOK 20/13 Q1026=
200804241730 METAR LPPR 241730Z 35010KT CAVOK 20/13 Q1026=
200804241700 METAR LPPR 241700Z 35010KT CAVOK 20/13 Q1026=
200804241630 METAR LPPR 241630Z 33010KT 290V360 CAVOK 20/14 Q1026=
200804241600 METAR LPPR 241600Z 32011KT 290V350 CAVOK 20/14 Q1026=
200804241530 METAR LPPR 241530Z 33010KT 290V350 CAVOK 21/15 Q1026=
200804241500 METAR LPPR 241500Z 33010KT CAVOK 21/15 Q1026=
200804241430 METAR LPPR 241430Z 32010KT CAVOK 21/15 Q1027=
200804241400 METAR LPPR 241400Z 32009KT 290V350 CAVOK 20/15 Q1027=
200804241330 METAR LPPR 241330Z 30010KT CAVOK 20/15 Q1027=
200804241300 METAR LPPR 241300Z 32009KT 270V350 CAVOK 20/15 Q1027=
200804241230 METAR LPPR 241230Z 32010KT CAVOK 20/14 Q1027=
200804241200 METAR LPPR 241200Z 31009KT 270V330 CAVOK 20/14 Q1027=
200804241130 METAR LPPR 241130Z 30008KT 250V350 CAVOK 19/14 Q1028=
200804241100 METAR LPPR 241100Z 28006KT 260V340 9999 FEW017 BKN250 19/15
                        Q1028=
200804241030 METAR LPPR 241030Z 29005KT 210V330 8000 FEW017 BKN250 18/15
                        Q1028=
200804241000 METAR LPPR 241000Z 30005KT 250V020 9999 FEW020 BKN250 18/15
                        Q1028=
200804240930 METAR LPPR 240930Z 00000KT CAVOK 18/14 Q1028=
200804240900 METAR LPPR 240900Z 11004KT 060V150 CAVOK 16/14 Q1028=
200804240830 METAR LPPR 240830Z 11004KT 090V180 8000 FEW030 BKN250 15/15
                        Q1028=
200804240800 METAR LPPR 240800Z 00000KT 7000 SCT035 BKN200 14/14 Q1028=
200804240730 METAR LPPR 240730Z 03003KT 4000 BR BKN030 13/13 Q1028=
200804240700 METAR LPPR 240700Z VRB03KT 4000 BR SCT030 13/13 Q1027=
200804240630 METAR LPPR 240630Z 35004KT 340V040 4000 BR SCT025 BKN030
                        12/12 Q1027=
200804240600 METAR LPPR 240600Z 00000KT 4000 BR BKN025 BKN030 12/12 Q1027=
200804240530 METAR LPPR 240530Z 00000KT 4000 BR BKN025 12/12 Q1027=
200804240500 METAR LPPR 240500Z 00000KT 2500 BR SCT007 SCT025 11/11 Q1026=
200804240430 METAR LPPR 240430Z VRB03KT 0900 R17/P1500 R35/P1500 BCFG
                        BKN005 11/11 Q1026=
200804240400 METAR LPPR 240400Z 10005KT 060V120 0900 R17/P1500 R35/P1500
                        BCFG BKN005 12/12 Q1026=
200804240330 METAR LPPR 240330Z 00000KT 0900 R17/P1500 R35/1300VP1500
                        BCFG BKN005 12/12 Q1026=
200804240300 METAR LPPR 240300Z VRB02KT 2000 R17/0800V1000N R35/P1500
                        BR VCFG BKN007 12/12 Q1026=
200804240230 METAR LPPR 240230Z VRB03KT 4000 BR SCT009 12/12 Q1026=
200804240200 METAR LPPR 240200Z 00000KT 4000 BR SCT008 11/11 Q1026=
200804240130 METAR LPPR 240130Z 00000KT 4000 BR FEW009 12/12 Q1026=
200804240100 METAR LPPR 240100Z 00000KT 5000 BR FEW009 13/13 Q1026=
200804240030 METAR LPPR 240030Z 11004KT 4000 R17/0300V0450N R35/P1500
                        BR FEW009 13/13 Q1026=
200804240000 METAR LPPR 240000Z 00000KT 5000 R17/0650VP1500 R35/P1500
                        BR FEW009 13/13 Q1027=
200804232330 METAR LPPR 232330Z 00000KT 7000 SKC 12/12 Q1026=
200804232300 METAR LPPR 232300Z 00000KT 7000 SKC 12/12 Q1026=
200804232230 METAR LPPR 232230Z 00000KT 9999 FEW015 13/13 Q1026=
200804232200 METAR LPPR 232200Z 00000KT 9999 FEW015 13/13 Q1026=
200804232130 METAR LPPR 232130Z 00000KT 9999 FEW015 13/13 Q1026=
200804232100 METAR LPPR 232100Z 00000KT 9999 FEW015 14/14 Q1026=
200804232030 METAR LPPR 232030Z 00000KT 9999 FEW015 15/14 Q1025=
200804232000 METAR LPPR 232000Z 00000KT 9999 FEW015 15/14 Q1025=
200804231930 METAR LPPR 231930Z 00000KT 9999 FEW015 16/14 Q1024=
200804231900 METAR LPPR 231900Z 00000KT 9999 FEW015 16/14 Q1024=
200804231830 METAR LPPR 231830Z VRB03KT 9999 SCT015 16/15 Q1024=
200804231800 METAR LPPR 231800Z 26005KT 220V320 9999 SCT015 17/15 Q1024=
200804231730 METAR LPPR 231730Z 28004KT 240V340 9999 SCT015 17/14 Q1024=
200804231700 METAR LPPR 231700Z 28005KT 250V330 9999 SCT015 18/15 Q1024=
200804231630 METAR LPPR 231630Z 29006KT 250V340 9999 BKN015 17/15 Q1024=
200804231600 METAR LPPR 231600Z 28006KT 230V330 9999 BKN015 18/15 Q1023=
200804231530 METAR LPPR 231530Z 26005G15KT 220V020 9999 SCT015 19/15 Q1023=
200804231500 METAR LPPR 231500Z 27007KT 220V330 9999 SCT015 19/16 Q1024=
200804231430 METAR LPPR 231430Z 26007KT 220V300 9999 SCT015 19/15 Q1024=
200804231400 METAR LPPR 231400Z 27007KT 230V290 9999 SCT015 SCT080 19/16
                        Q1023=
200804231330 METAR LPPR 231330Z 25008KT 9999 SCT015 19/15 Q1023=
200804231300 METAR LPPR 231300Z 23007KT 180V270 9999 SCT013 19/15 Q1023=
200804231230 METAR LPPR 231230Z 21007KT 170V250 9999 FEW009 SCT017 18/16
                        Q1023=
200804231200 METAR LPPR 231200Z 23005KT 180V280 9999 FEW006 BKN012 17/17
                        Q1023=
200804231130 METAR LPPR 231130Z 23004KT 190V280 8000 SCT003 BKN008 17/17
                        Q1023=
200804231100 METAR LPPR 231100Z 23005KT 1500 VCFG BR SCT000 BKN002 BKN007
                        16/16 Q1023=
200804231030 METAR LPPR 231030Z 22006KT 180V250 0800 R17/P1500 R35/P1500
                        FG BKN000 BKN001 16/16 Q1022=
200804231000 METAR LPPR 231000Z 23004KT 170V260 6000 SCT003 BKN005 16/16
                        Q1022=
200804230930 METAR LPPR 230930Z VRB03KT 9999 SCT003 BKN008 16/16 Q1022=
200804230900 METAR LPPR 230900Z VRB03KT 7000 SCT002 BKN006 16/16 Q1022=
200804230830 METAR LPPR 230830Z VRB03KT 2500 VCFG BR BKN002 BKN005 15/15
                        Q1021=
200804230800 METAR LPPR 230800Z VRB03KT 2500 BR VCFG BKN000 BKN003 15/15
                        Q1021=
200804230730 METAR LPPR 230730Z VRB02KT 1500 BR VCFG BKN000 BKN003 15/15
                        Q1021=
200804230700 METAR LPPR 230700Z 00000KT 1200 R17/P1500 R35/1400VP1500
                        BR VCFG BKN000 BKN002 15/15 Q1021=
200804230630 METAR LPPR 230630Z VRB02KT 0800 R17/1100VP1500 R35/1000VP1500
                        FG VV000 15/15 Q1020=
200804230600 METAR LPPR 230600Z VRB02KT 0900 R17/P1500 R35/P1500 FG VV001
                        15/15 Q1020=
200804230530 METAR LPPR 230530Z VRB03KT 0800 R17/0800VP1500 R35/0750VP1500
                        FG VV000 15/15 Q1020=
200804230500 METAR LPPR 230500Z 00000KT 0800 R17/P1500 R35/1000N FG VV000
                        15/15 Q1020=
200804230430 METAR LPPR 230430Z VRB03KT 0300 R17/1300VP1500 R35/0750N
                        FG VV000 15/15 Q1020=
200804230400 METAR LPPR 230400Z 23004KT 200V260 0400 R17/P1500 R35/0800V1000D
                        -DZ FG VV000 15/15 Q1020=
200804230330 METAR LPPR 230330Z 22005KT 180V250 0400 R17/P1500 R35/1300VP1500
                        -DZ FG VV000 15/15 Q1020=
200804230300 METAR LPPR 230300Z 21006KT 190V250 0400 R17/P1500 R35/P1500
                        -DZ FG BKN000 BKN001 15/15 Q1020=
200804230230 METAR LPPR 230230Z 21006KT 1200 R17/P1500 R35/P1500 -RADZ
                        BR BKN000 BKN001 15/15 Q1020=
200804230200 METAR LPPR 230200Z 19011KT 3000 -RADZ BR SCT003 BKN005 15/15
                        Q1020=
200804230130 METAR LPPR 230130Z 18011KT 3000 -RADZ BR SCT003 BKN006 15/15
                        Q1020=
200804230100 METAR LPPR 230100Z 18010KT 3000 -RADZ BR SCT003 BKN006 15/15
                        Q1020=
200804230030 METAR LPPR 230030Z 18013KT 2000 -RADZ BR FEW001 SCT003 BKN006
                        15/15 Q1020=
200804230000 METAR LPPR 230000Z 18014KT 3000 -RADZ BR FEW001 SCT004 BKN006
                        15/15 Q1020=
200804222330 METAR LPPR 222330Z 19014KT 3000 -RADZ BR FEW001 SCT004 BKN006
                        15/15 Q1020=
200804222300 METAR LPPR 222300Z 19014KT 4000 -RA BR FEW001 SCT004 BKN006
                        15/15 Q1020 RERA=
200804222230 METAR LPPR 222230Z 18014KT 3000 RA BR FEW001 SCT003 BKN006
                        15/15 Q1020=
200804222200 METAR LPPR 222200Z 19013KT 3000 RA BR FEW001 SCT003 BKN006
                        15/15 Q1021=
200804222130 METAR LPPR 222130Z 19014KT 3000 RA BR SCT001 BKN005 15/15
                        Q1021=
200804222100 METAR LPPR 222100Z 19012KT 4000 RADZ BR FEW001 SCT004 BKN007
                        15/15 Q1021=
200804222030 METAR LPPR 222030Z 19011KT 4000 -RADZ BR FEW001 SCT004 BKN007
                        15/15 Q1020=
200804222000 METAR LPPR 222000Z 20013KT 2500 RADZ BR SCT001 SCT004 BKN007
                        15/15 Q1020=
200804221930 METAR LPPR 221930Z 19012KT 3000 -RA BR BKN002 BKN006 BKN014
                        15/15 Q1020=
200804221900 METAR LPPR 221900Z 20012KT 180V240 5000 -RA BR SCT002 BKN006
                        BKN012 15/15 Q1020=
200804221830 METAR LPPR 221830Z 20011KT 5000 BR SCT002 BKN006 BKN012 15/15
                        Q1020=
200804221800 METAR LPPR 221800Z 21011KT 5000 BR SCT002 BKN006 BKN012 15/15
                        Q1020=
200804221730 METAR LPPR 221730Z 20012KT 5000 -RA BR SCT002 BKN006 BKN014
                        15/15 Q1019=
200804221700 METAR LPPR 221700Z 21012KT 6000 SCT003 BKN007 BKN016 15/15
                        Q1019=
200804221630 METAR LPPR 221630Z 21011KT 6000 SCT003 BKN007 BKN017 15/15
                        Q1019=
200804221600 METAR LPPR 221600Z 21011KT 180V240 5000 -RA BR SCT002 BKN007
                        BKN016 15/15 Q1019=
200804221530 METAR LPPR 221530Z 20013KT 5000 -RA BR SCT003 BKN007 BKN016
                        15/15 Q1019=
200804221500 METAR LPPR 221500Z 21012KT 5000 RA BR SCT004 BKN006 BKN016
                        15/15 Q1019=
200804221430 METAR LPPR 221430Z 20013KT 4000 RA BR SCT004 BKN006 BKN016
                        15/15 Q1019=
200804221400 METAR LPPR 221400Z 19013KT 5000 -RA BR SCT004 BKN006 BKN014
                        15/15 Q1019=
200804221330 METAR LPPR 221330Z 19015G25KT 4000 -RA BR BKN005 BKN014 14/14
                        Q1019=
200804221300 METAR LPPR 221300Z 20014KT 4000 -RADZ BR BKN005 BKN015 14/14
                        Q1019=
200804221230 METAR LPPR 221230Z 19016KT 5000 -RADZ BR SCT008 SCT013 BKN020
                        14/14 Q1019=
200804221200 METAR LPPR 221200Z 19014KT 6000 -RADZ SCT012 BKN020 15/14
                        Q1019=
200804221130 METAR LPPR 221130Z 19014KT 8000 FEW010 SCT015 BKN025 15/14
                        Q1019=
200804221100 METAR LPPR 221100Z 18015KT 6000 -DZ FEW010 SCT015 BKN025
                        15/13 Q1019=
200804221030 METAR LPPR 221030Z 18015KT 7000 -RA FEW012 BKN025 15/13 Q1019=
200804221000 METAR LPPR 221000Z 18015KT 9999 FEW013 BKN030 15/13 Q1019=
200804220930 METAR LPPR 220930Z 18014KT 9999 FEW013 BKN030 15/13 Q1019=
200804220900 METAR LPPR 220900Z 18015KT 9999 FEW013 BKN030 14/13 Q1019=
200804220830 METAR LPPR 220830Z 18013KT 8000 FEW010 SCT015 BKN030 14/13
                        Q1019=
200804220800 METAR LPPR 220800Z 18013KT 8000 FEW010 SCT015 BKN030 14/13
                        Q1018=
200804220730 METAR LPPR 220730Z 18011KT 8000 SCT015 BKN030 13/12 Q1018=
200804220700 METAR LPPR 220700Z 18009KT 8000 SCT015 BKN025 13/12 Q1018=
200804220630 METAR LPPR 220630Z 18010KT 8000 SCT010 SCT015 BKN025 13/12
                        Q1018=
200804220600 METAR LPPR 220600Z 17009KT 9999 FEW010 SCT015 BKN025 13/12
                        Q1018=
200804220530 METAR LPPR 220530Z 18010KT 160V220 9999 SCT015 BKN025 14/12
                        Q1018=
200804220500 METAR LPPR 220500Z 22008KT 9999 SCT015 BKN025 14/12 Q1017=
200804220430 METAR LPPR 220430Z 21007KT 180V240 9999 SCT015 BKN025 14/11
                        Q1018=
200804220400 METAR LPPR 220400Z 21007KT 9999 SCT015 BKN030 14/11 Q1018=
200804220330 METAR LPPR 220330Z 21007KT 9999 SCT015 SCT030 14/11 Q1018=
200804220300 METAR LPPR 220300Z 22008KT 9999 SCT017 SCT070 14/11 Q1018=
200804220230 METAR LPPR 220230Z 22008KT 9999 SCT017 SCT070 14/11 Q1018=
200804220200 METAR LPPR 220200Z 22007KT 190V260 9999 SCT017 14/11 Q1018=
200804220130 METAR LPPR 220130Z 22005KT 9999 SCT017 14/11 Q1018=
200804220100 METAR LPPR 220100Z 23006KT 190V250 9999 SCT017 14/11 Q1019=
200804220030 METAR LPPR 220030Z 23005KT 9999 SCT017 14/10 Q1019=
200804220000 METAR LPPR 220000Z 23006KT 200V260 9999 SCT017 14/11 Q1019=
200804212330 METAR LPPR 212330Z 23004KT 9999 SCT017 14/10 Q1018=
200804212300 METAR LPPR 212300Z VRB03KT 9999 SCT017 13/10 Q1018=
200804212230 METAR LPPR 212230Z 24004KT 200V270 9999 SCT017 13/10 Q1019=
200804212200 METAR LPPR 212200Z VRB03KT 9999 FEW017 SCT035 BKN070 14/10
                        Q1019=
200804212130 METAR LPPR 212130Z VRB03KT 9999 FEW017 SCT035 BKN070 14/10
                        Q1019=
200804212100 METAR LPPR 212100Z 25004KT 190V300 9999 FEW017 SCT035 BKN070
                        14/10 Q1018=
200804212030 METAR LPPR 212030Z 25004G19KT 160V310 9999 FEW017 SCT035
                        BKN070 14/10 Q1018=
200804212000 METAR LPPR 212000Z 28006KT 240V310 9999 FEW017 SCT035 BKN070
                        14/10 Q1018=
200804211930 METAR LPPR 211930Z 26005KT 230V300 9999 FEW017 SCT035 BKN070
                        14/10 Q1018=
200804211900 METAR LPPR 211900Z 27006KT 230V310 9999 SCT017 BKN070 14/10
                        Q1017=
200804211830 METAR LPPR 211830Z 26007KT 210V310 9999 SCT017 BKN070 14/10
                        Q1017=
200804211800 METAR LPPR 211800Z 27005KT 230V320 9999 SCT017 BKN070 15/10
                        Q1017=
200804211730 METAR LPPR 211730Z 29007KT 250V330 9999 SCT017 SCT070 15/10
                        Q1017=
200804211700 METAR LPPR 211700Z 29007KT 250V330 9999 SCT017 15/11 Q1017=
200804211630 METAR LPPR 211630Z 29006KT 260V320 9999 SCT017 16/11 Q1017=
200804211600 METAR LPPR 211600Z 28008KT 240V320 9999 SCT017 16/10 Q1017=
200804211530 METAR LPPR 211530Z 29010KT 260V320 9999 SCT017 SCT070 16/11
                        Q1016=
200804211500 METAR LPPR 211500Z 28011KT 250V310 9999 SCT017 BKN070 15/11
                        Q1017=
200804211430 METAR LPPR 211430Z 28010KT 240V330 9999 SCT017 17/11 Q1016=
200804211400 METAR LPPR 211400Z 29011KT 260V330 9999 SCT017 16/11 Q1016=
200804211330 METAR LPPR 211330Z 26010KT 9999 SCT017 16/11 Q1016=
200804211300 METAR LPPR 211300Z 30010KT 260V340 9999 SCT017 16/11 Q1016=
200804211230 METAR LPPR 211230Z 30010KT 260V340 9999 SCT017 16/11 Q1016=
200804211200 METAR LPPR 211200Z 30011KT 270V350 9999 SCT017 16/11 Q1016=
200804211130 METAR LPPR 211130Z 32012KT 9999 SCT015 FEW025TCU 16/11 Q1016=
200804211100 METAR LPPR 211100Z 31012KT 9999 SCT017 FEW025TCU 15/11 Q1015=
200804211030 METAR LPPR 211030Z 32011KT 290V350 9999 SCT017 FEW025TCU
                        15/11 Q1015=
200804211000 METAR LPPR 211000Z 31007KT 240V010 9999 SCT015 FEW017TCU
                        SCT050 14/13 Q1015=
200804210930 METAR LPPR 210930Z 30004KT 260V340 9999 SCT015 FEW017TCU
                        BKN050 13/10 Q1015=
200804210900 METAR LPPR 210900Z 31012G25KT 270V360 8000 -SHRA BKN013 FEW017TCU
                        BKN040 14/11 Q1014=
200804210830 METAR LPPR 210830Z 32005KT 270V340 9999 SCT015 FEW020TCU
                        BKN050 13/11 Q1014=
200804210800 METAR LPPR 210800Z 32005KT 290V360 9999 SCT015 FEW017TCU
                        BKN040 13/11 Q1013=
200804210730 METAR LPPR 210730Z 34006KT 300V010 9999 -SHRA SCT015 FEW017TCU
                        BKN040 11/10 Q1013=
200804210700 METAR LPPR 210700Z 32010G20KT 280V350 9999 SCT015 BKN035
                        13/11 Q1013=
200804210630 METAR LPPR 210630Z 32006KT 290V350 9999 SCT015 SCT030 12/11
                        Q1012=
200804210600 METAR LPPR 210600Z 32008KT 280V360 9999 SCT015 SCT035 12/10
                        Q1012=
200804210530 METAR LPPR 210530Z 32009KT 9999 SCT015 SCT035 13/10 Q1012=
200804210500 METAR LPPR 210500Z 32008KT 290V350 9999 SCT015 SCT035 13/10
                        Q1011=
200804210430 METAR LPPR 210430Z 32009KT 9999 SCT015 SCT030 13/11 Q1011=
200804210400 METAR LPPR 210400Z 32009KT 280V340 9999 SCT015 SCT030 13/11
                        Q1011=
200804210330 METAR LPPR 210330Z 31008KT 260V330 9999 SCT013 SCT030 BKN060
                        13/11 Q1011=
200804210300 METAR LPPR 210300Z 32008KT 9999 SCT013 BKN060 12/11 Q1011=
200804210230 METAR LPPR 210230Z 32009KT 270V350 9000 -SHRA SCT013 SCT030
                        12/11 Q1010=
200804210200 METAR LPPR 210200Z 33010KT 9999 -SHRA SCT013 SCT030 12/10
                        Q1010=
200804210130 METAR LPPR 210130Z 32009KT 9999 BKN013 13/11 Q1010=
200804210100 METAR LPPR 210100Z 32009KT 290V350 9999 SCT013 13/11 Q1010=
200804210030 METAR LPPR 210030Z 32011KT 9999 SCT013 13/11 Q1010=
200804210000 METAR LPPR 210000Z 32010KT 9999 SCT013 FEW020TCU 13/11 Q1010=
200804202330 METAR LPPR 202330Z 32008KT 9999 -SHRA SCT013 FEW020TCU SCT030
                        13/11 Q1010=
200804202300 METAR LPPR 202300Z 33013KT 9999 SCT013 SCT030 13/10 Q1009=
200804202230 METAR LPPR 202230Z 31010KT 280V350 9999 SCT013 FEW017CB SCT030
                        13/11 Q1009=
200804202200 METAR LPPR 202200Z 32010KT 9999 SCT013 FEW017CB SCT030 13/11
                        Q1009=
200804202130 METAR LPPR 202130Z 32010KT 9000 -SHRA SCT013 FEW017CB SCT030
                        13/11 Q1008=
200804202100 METAR LPPR 202100Z 32012KT 290V360 9999 SCT013 FEW017CB SCT030
                        13/11 Q1008=
200804202030 METAR LPPR 202030Z 32010KT 9999 SCT013 FEW017 SCT030 13/12
                        Q1007=
200804202000 METAR LPPR 202000Z 32010KT 9999 SCT013 FEW017CB SCT060 13/11
                        Q1007=
200804201930 METAR LPPR 201930Z 32012KT 290V350 9999 SCT013 FEW017CB SCT060
                        13/12 Q1006=
200804201900 METAR LPPR 201900Z 35008KT 6000 -SHRA FEW006 BKN013 FEW017CB
                        12/11 Q1006=
200804201830 METAR LPPR 201830Z 33014G25KT 6000 -SHRA SCT006 BKN013 FEW017CB
                        13/11 Q1006=
200804201800 METAR LPPR 201800Z 32014KT 9999 BKN013 FEW017CB 14/12 Q1005=
200804201730 METAR LPPR 201730Z 31009KT 280V340 9999 SCT013 FEW017CB 14/13
                        Q1004=
200804201700 METAR LPPR 201700Z 33008KT 290V350 9999 BKN013 FEW017CB 13/12
                        Q1004=
200804201630 METAR LPPR 201630Z 31009KT 270V340 5000 -SHRA BR BKN013 FEW017CB
                        SCT040 14/12 Q1003=
200804201600 METAR LPPR 201600Z 31010KT 9999 SCT015 FEW017CB SCT040 14/12
                        Q1003=
200804201530 METAR LPPR 201530Z 29011KT 260V330 9999 SCT015 FEW017CB 15/12
                        Q1003=
200804201500 METAR LPPR 201500Z 30012KT 260V330 9999 SCT015 FEW020CB 14/12
                        Q1003=
200804201430 METAR LPPR 201430Z 33009KT 9999 BKN013 FEW017CB 12/11 Q1003=
200804201400 METAR LPPR 201400Z 32011KT 9999 FEW006 BKN013 FEW020CB 13/11
                        Q1002=
200804201330 METAR LPPR 201330Z 29011KT 260V330 9999 SCT015 FEW020CB SCT040
                        15/10 Q1002=
200804201300 METAR LPPR 201300Z 29013KT 260V320 9999 SCT015 FEW020CB BKN060
                        15/10 Q1002=
200804201230 METAR LPPR 201230Z 29010KT 260V340 9999 FEW015 FEW020CB BKN070
                        15/11 Q1001=
200804201200 METAR LPPR 201200Z 31010KT 9999 SCT015 FEW020CB BKN250 13/11
                        Q1001=
200804201130 METAR LPPR 201130Z 30012G27KT 230V350 9999 SCT015 FEW025CB
                        BKN250 13/11 Q1001=
200804201100 METAR LPPR 201100Z 29010KT 260V320 9999 SCT015 FEW025CB BKN050
                        15/12 Q1000=
200804201030 METAR LPPR 201030Z 28008KT 240V340 9999 SCT015 SCT025CB 14/11
                        Q1000=
200804201000 METAR LPPR 201000Z 26007KT 220V290 9999 SCT015 SCT025CB BKN070
                        14/12 Q1000=
200804200930 METAR LPPR 200930Z 28005KT 260V330 9999 SCT015 SCT025CB BKN070
                        12/11 Q1000=
200804200900 METAR LPPR 200900Z 26006KT 230V300 9999 SCT015 SCT025CB BKN250
                        14/12 Q0999=
200804200830 METAR LPPR 200830Z 28007G17KT 250V310 9999 SCT015 SCT025CB
                        BKN250 13/11 Q0999=
200804200800 METAR LPPR 200800Z 28004KT 240V320 9999 SCT015 SCT025CB SCT070
                        12/10 Q0999=
200804200730 METAR LPPR 200730Z 28006KT 220V360 9999 -SHRA SCT015 SCT025CB
                        BKN040 12/11 Q0998=
200804200700 METAR LPPR 200700Z 24004KT 200V280 9999 SCT015 SCT025CB BKN040
                        11/11 Q0998=
200804200630 METAR LPPR 200630Z 21004KT 180V250 9999 SCT015 BKN025CB BKN040
                        11/10 Q0997=
200804200600 METAR LPPR 200600Z VRB03KT 9999 -SHRA SCT015 FEW025CB BKN035
                        10/10 Q0997 RERA=
200804200530 METAR LPPR 200530Z 32009KT 280V350 3000 SHRA BKN015 FEW025CB
                        BKN035 10/10 Q0997=
200804200500 METAR LPPR 200500Z 25004G14KT 190V330 3000 SHRA SCT015 FEW025CB
                        BKN030 11/10 Q0997 WS ALL RWY=
200804200430 METAR LPPR 200430Z 27005KT 230V290 9999 -SHRA SCT017 BKN035
                        12/10 Q0996=
200804200400 METAR LPPR 200400Z 29008KT 250V320 9999 SCT017 SCT040 12/10
                        Q0996=
200804200330 METAR LPPR 200330Z 30009KT 260V330 9999 SCT015 SCT040 12/10
                        Q0996=
200804200300 METAR LPPR 200300Z 29009KT 260V320 9999 SCT015 SCT035 12/11
                        Q0995=
200804200230 METAR LPPR 200230Z 27006KT 240V310 9999 FEW008 SCT015 BKN035
                        12/11 Q0995=
200804200200 METAR LPPR 200200Z 22008KT 180V260 8000 -RA FEW008 SCT015
                        BKN040 12/11 Q0995=
200804200130 METAR LPPR 200130Z 22010KT 190V260 7000 -SHRA FEW008 SCT015
                        BKN035 11/11 Q0995=
200804200100 METAR LPPR 200100Z 17010KT 7000 -SHRA SCT007 BKN015 12/11
                        Q0995 RERA=
200804200030 METAR LPPR 200030Z 19014KT 9999 SCT015 SCT040 13/10 Q0995=
200804200000 METAR LPPR 200000Z 22011KT 190V250 9999 SCT015 SCT040 13/10
                        Q0995=
200804192330 METAR LPPR 192330Z 21010KT 9999 SCT015 SCT030 12/10 Q0995=
200804192300 METAR LPPR 192300Z 22010KT 9999 SCT015 12/10 Q0996=
200804192230 METAR LPPR 192230Z 22009KT 190V250 9999 SCT015 SCT030 13/10
                        Q0996=
200804192200 METAR LPPR 192200Z 22009KT 200V260 9999 SCT015 SCT035 12/10
                        Q0996=
200804192130 METAR LPPR 192130Z 23010KT 200V270 9999 SCT015 SCT040 12/10
                        Q0996=
200804192100 METAR LPPR 192100Z 21009KT 180V250 9999 SCT015 FEW020CB 13/10
                        Q0995=
200804192030 METAR LPPR 192030Z 22009KT 180V250 9999 SCT017 FEW020CB 13/09
                        Q0995=
200804192000 METAR LPPR 192000Z 22008KT 190V250 9999 SCT017 FEW020CB 13/09
                        Q0995=
200804191930 METAR LPPR 191930Z 22012G23KT 9999 SCT017 FEW020CB 13/09
                        Q0995=
200804191900 METAR LPPR 191900Z 23008KT 190V250 9999 SCT017 SCT020CB 13/10
                        Q0994=
200804191830 METAR LPPR 191830Z 23009KT 190V260 9999 SCT017 SCT020CB 13/09
                        Q0994=
200804191800 METAR LPPR 191800Z 23011KT 200V260 9999 SCT017 SCT020CB 13/11
                        Q0994=
200804191730 METAR LPPR 191730Z 22009KT 190V250 9999 SCT017 FEW020CB 14/10
                        Q0994=
200804191700 METAR LPPR 191700Z 22012KT 190V250 9999 SCT017 FEW020CB 14/10
                        Q0994=
200804191630 METAR LPPR 191630Z 23012KT 210V270 9999 SCT017 FEW020CB 15/10
                        Q0994=
200804191600 METAR LPPR 191600Z 22011KT 9999 SCT017 FEW020CB 13/10 Q0994=
200804191530 METAR LPPR 191530Z 23012KT 200V260 9999 BKN017 FEW020CB SCT035
                        15/10 Q0994=
200804191500 METAR LPPR 191500Z 23013KT 200V270 9999 BKN017 FEW020CB SCT040
                        14/10 Q0994=
200804191430 METAR LPPR 191430Z 23013KT 200V260 9999 SCT017 FEW020CB SCT040
                        15/11 Q0994=
200804191400 METAR LPPR 191400Z 23013KT 9999 SCT015 FEW020CB SCT040 14/10
                        Q0994=
200804191330 METAR LPPR 191330Z 22011KT 190V270 9999 SCT015 FEW020CB SCT040
                        14/10 Q0994=
200804191300 METAR LPPR 191300Z 25011KT 210V280 9999 SCT015 FEW020CB SCT040
                        14/10 Q0994=
200804191230 METAR LPPR 191230Z 23009KT 200V270 9999 SCT012 FEW020CB SCT035
                        13/11 Q0993=
200804191200 METAR LPPR 191200Z 24007KT 200V270 9999 SCT012 FEW020CB SCT035
                        11/11 Q0993=
200804191130 METAR LPPR 191130Z 25012KT 220V300 6000 -SHRA FEW007 BKN013
                        FEW020CB 11/11 Q0993=
200804191100 METAR LPPR 191100Z 25013KT 220V280 3000 SHRA BR SCT005 BKN013
                        FEW020CB 11/10 Q0992=
200804191030 METAR LPPR 191030Z 21007KT 190V250 9999 -SHRA SCT013 FEW020CB
                        BKN035 11/11 Q0992=
200804191000 METAR LPPR 191000Z 20011KT 170V230 6000 -SHRA FEW006 SCT015
                        FEW020CB BKN035 11/11 Q0992=
200804190930 METAR LPPR 190930Z 20012KT 9999 SCT013 FEW020CB BKN035 12/11
                        Q0991=
200804190900 METAR LPPR 190900Z 20014KT 8000 -SHRA FEW008 SCT013 FEW020TCU
                        BKN040 12/11 Q0991=
200804190830 METAR LPPR 190830Z 21011KT 7000 -RA SCT008 SCT013 BKN040
                        12/11 Q0991=
200804190800 METAR LPPR 190800Z 23010KT 190V280 7000 -RA FEW008 SCT011
                        BKN070 12/12 Q0991 RERA=
200804190730 METAR LPPR 190730Z 22008KT 190V260 8000 -RA FEW008 SCT011
                        BKN070 11/11 Q0991=
200804190700 METAR LPPR 190700Z 17010KT 7000 -RA SCT007 BKN030 11/11 Q0991=
200804190630 METAR LPPR 190630Z 18013KT 7000 -RA SCT005 BKN030 11/11 Q0991=
200804190600 METAR LPPR 190600Z 19011KT 6000 -RA FEW006 SCT008 BKN030
                        11/11 Q0991=
200804190530 METAR LPPR 190530Z 17015KT 7000 -RA FEW005 SCT007 BKN030
                        11/11 Q0991=
200804190500 METAR LPPR 190500Z 16015KT 7000 SCT008 BKN030 11/11 Q0991=
200804190430 METAR LPPR 190430Z 17015KT 7000 -RA SCT008 BKN030 11/11 Q0992=
200804190400 METAR LPPR 190400Z 17018KT 7000 -RA SCT008 BKN030 11/11 Q0992=
200804190330 METAR LPPR 190330Z 17017KT 7000 -RA BKN006 BKN012 11/11 Q0993=
200804190300 METAR LPPR 190300Z 16015KT 8000 -RA BKN006 BKN013 11/11 Q0993=
200804190230 METAR LPPR 190230Z 16014KT 9999 -RA FEW006 SCT013 BKN017
                        11/11 Q0994=
200804190200 METAR LPPR 190200Z 16013KT 9999 SCT006 SCT013 BKN017 11/11
                        Q0995=
200804190130 METAR LPPR 190130Z 17015KT 9999 SCT006 SCT013 BKN250 11/11
                        Q0995=
200804190100 METAR LPPR 190100Z 18016KT 9999 SCT006 SCT013 BKN017 12/11
                        Q0996=
200804190030 METAR LPPR 190030Z 19017KT 9999 SCT006 SCT013 BKN017 12/11
                        Q0996=
200804190000 METAR LPPR 190000Z 19018KT 9999 SCT013 BKN030 12/10 Q0997=
200804182330 METAR LPPR 182330Z 20014KT 9999 SCT013 BKN030 12/10 Q0997=
200804182300 METAR LPPR 182300Z 20016KT 9999 SCT013 BKN030 12/10 Q0997=
200804182230 METAR LPPR 182230Z 20011KT 170V230 8000 -RA SCT013 BKN025
                        11/10 Q0997=
200804182200 METAR LPPR 182200Z 20014KT 180V250 7000 -RA SCT013 BKN020
                        11/10 Q0998 RERA=
200804182130 METAR LPPR 182130Z 20013KT 9999 SCT015 BKN030 13/10 Q0998=
200804182100 METAR LPPR 182100Z 21010KT 180V240 9999 SCT015 BKN035 12/10
                        Q0998=
200804182030 METAR LPPR 182030Z 23013G23KT 200V260 7000 -SHRA SCT015 FEW020CB
                        BKN035 12/09 Q0998=
200804182000 METAR LPPR 182000Z 22009KT 180V240 9999 SCT015 FEW020CB BKN040
                        12/10 Q0998=
200804181930 METAR LPPR 181930Z 21009G19KT 170V240 8000 -SHRA SCT017 FEW020CB
                        BKN250 13/10 Q0998=
200804181900 METAR LPPR 181900Z 23009KT 200V270 9999 FEW017 FEW020TCU
                        BKN250 13/09 Q0998=
200804181830 METAR LPPR 181830Z 23010KT 200V260 9999 FEW017 SCT020 FEW025CB
                        BKN250 13/10 Q0998=
200804181800 METAR LPPR 181800Z 23011KT 200V270 9999 SCT017 FEW030CB BKN250
                        14/10 Q0998=
200804181730 METAR LPPR 181730Z 23011KT 210V270 9999 SCT017 FEW030CB 14/09
                        Q0999=
200804181700 METAR LPPR 181700Z 23011KT 9999 FEW017 FEW030CB 15/10 Q0999=
200804181630 METAR LPPR 181630Z 25013KT 210V280 9999 SCT017 FEW030CB 15/09
                        Q0999=
200804181600 METAR LPPR 181600Z 25013G23KT 200V280 9999 SCT017 FEW030CB
                        15/10 Q0998=
200804181530 METAR LPPR 181530Z 25009KT 200V290 9999 SCT017 FEW030CB 15/10
                        Q0998=
200804181500 METAR LPPR 181500Z 26011G21KT 220V320 8000 -SHRA FEW008 BKN013
                        FEW025CB 14/10 Q0998=
200804181430 METAR LPPR 181430Z 27008KT 220V300 9999 SCT013 FEW025CB 15/11
                        Q0998=
200804181400 METAR LPPR 181400Z 26009KT 220V290 9999 SCT013 FEW025CB 14/11
                        Q0998=
200804181330 METAR LPPR 181330Z 26010KT 230V300 9999 FEW009 SCT013 FEW025CB
                        15/10 Q0998=
200804181300 METAR LPPR 181300Z 27010KT 240V310 9999 SCT013 FEW025CB 14/11
                        Q0998=
200804181230 METAR LPPR 181230Z 31015G26KT 9999 -SHRA FEW009 SCT015 FEW025CB
                        13/10 Q0998=
200804181200 METAR LPPR 181200Z 29012KT 250V320 9999 FEW009 SCT015 FEW025CB
                        14/11 Q0997=
200804181130 METAR LPPR 181130Z 27010G20KT 240V310 9999 FEW009 SCT015
                        FEW020CB 14/11 Q0997=
200804181100 METAR LPPR 181100Z 25005KT 190V310 9999 FEW009 SCT015 FEW020CB
                        12/10 Q0997=
200804181030 METAR LPPR 181030Z 33007KT 290V360 7000 -SHRA SCT008 BKN015
                        SCT020CB 12/10 Q0997=
200804181000 METAR LPPR 181000Z 30010KT 270V330 7000 -SHRA FEW008 SCT015
                        SCT025CB 12/10 Q0996=
200804180930 METAR LPPR 180930Z 29012KT 240V320 8000 FEW008 SCT015 FEW025CB
                        BKN070 13/10 Q0996=
200804180900 METAR LPPR 180900Z 28011KT 250V310 8000 -SHRA SCT008 BKN015
                        FEW020CB 12/09 Q0995=
200804180830 METAR LPPR 180830Z 28012KT 240V320 9999 -SHRA FEW008 SCT015
                        FEW020CB BKN030 12/09 Q0995=
200804180800 METAR LPPR 180800Z 29014KT 240V320 9999 FEW008 SCT013 FEW018CB
                        BKN025 12/09 Q0994=
200804180730 METAR LPPR 180730Z 31010KT 270V350 8000 -RA FEW008 SCT013
                        FEW018CB BKN025 11/10 Q0994=
200804180700 METAR LPPR 180700Z 31018KT 270V340 8000 -RA FEW007 SCT013
                        BKN020 11/08 Q0994=
200804180630 METAR LPPR 180630Z 30013G24KT 270V330 7000 -RA FEW007 SCT013
                        BKN020 11/09 Q0993=
200804180600 METAR LPPR 180600Z 29016G30KT 250V330 6000 RA SCT007 SCT013
                        BKN020 11/10 Q0992 WS ALL RWY=
200804180530 METAR LPPR 180530Z 30015G25KT 270V330 7000 -RA FEW007 SCT013
                        BKN020 11/10 Q0992=
200804180500 METAR LPPR 180500Z 28014KT 250V320 8000 -SHRA FEW007 SCT013
                        BKN020 12/09 Q0991=
200804180430 METAR LPPR 180430Z 27012G25KT 240V300 8000 -SHRA SCT008 SCT015
                        BKN023 11/10 Q0991=
200804180400 METAR LPPR 180400Z 25011KT 210V290 8000 -SHRA SCT006 SCT013
                        BKN040 11/10 Q0990=
200804180330 METAR LPPR 180330Z 25011G21KT 220V280 9999 SCT012 BKN020
                        11/10 Q0990=
200804180300 METAR LPPR 180300Z 27009KT 230V320 6000 -RA SCT012 BKN020
                        12/10 Q0991=
200804180230 METAR LPPR 180230Z 27011KT 240V300 9999 SCT015 BKN030 11/10
                        Q0991=
200804180200 METAR LPPR 180200Z 26013KT 220V320 9999 SCT012 BKN030 11/10
                        Q0990=
200804180130 METAR LPPR 180130Z 26014G24KT 230V300 5000 -RA SCT008 SCT015
                        BKN025 12/10 Q0990 WS ALL RWY=
200804180100 METAR LPPR 180100Z 27011G21KT 230V310 7000 -RADZ SCT007 BKN013
                        12/11 Q0990 WS ALL RWY=
200804180030 METAR LPPR 180030Z 25016G27KT 210V290 8000 SCT009 BKN020
                        BKN030 13/10 Q0990 WS ALL RWY=
200804180000 METAR LPPR 180000Z 24017G30KT 210V270 9999 SCT008 SCT015
                        BKN030 13/10 Q0990 WS ALL RWY=
200804172330 METAR LPPR 172330Z 24015G25KT 200V290 9999 SCT008 BKN013
                        BKN025 13/10 Q0990 WS ALL RWY=
200804172300 METAR LPPR 172300Z 24016G26KT 210V270 8000 SCT008 BKN015
                        BKN025 14/11 Q0990 WS ALL RWY=
200804172230 METAR LPPR 172230Z 22025G43KT 190V250 7000 SCT008 BKN015
                        BKN025 15/12 Q0990 WS ALL RWY=
200804172200 METAR LPPR 172200Z 20027G40KT 180V240 7000 SCT007 SCT013
                        BKN025 15/14 Q0990 WS ALL RWY=
200804172130 METAR LPPR 172130Z 20030G40KT 6000 BKN005 BKN012 15/14 Q0990
                        WS ALL RWY=
200804172100 METAR LPPR 172100Z 19023KT 5000 BR SCT005 BKN012 14/14 Q0990=
200804172030 METAR LPPR 172030Z 19026G38KT 4000 -RA BR SCT004 BKN007 BKN012
                        13/13 Q0991 RERA=
200804172000 METAR LPPR 172000Z 17024G34KT 2000 RA BR SCT005 BKN008 BKN012
                        12/12 Q0991=
200804171930 METAR LPPR 171930Z 17022KT 2500 RA BR SCT005 BKN008 BKN012
                        12/12 Q0992=
200804171900 METAR LPPR 171900Z 17015KT 3000 RA BR SCT005 BKN008 BKN012
                        12/12 Q0994=
200804171830 METAR LPPR 171830Z 16016KT 5000 RA BR SCT005 BKN009 BKN014
                        12/12 Q0995=
200804171800 METAR LPPR 171800Z 15011KT 4000 RA BR SCT005 BKN008 BKN012
                        12/12 Q0997=
200804171730 METAR LPPR 171730Z 16012KT 6000 -RA SCT005 BKN009 BKN013
                        12/12 Q0998=
200804171700 METAR LPPR 171700Z 18014KT 6000 -RA SCT005 SCT009 BKN013
                        12/12 Q0999=
200804171630 METAR LPPR 171630Z 21010KT 6000 -RA SCT006 BKN009 BKN013
                        12/12 Q1000=
200804171600 METAR LPPR 171600Z 24009KT 6000 -RA SCT006 BKN012 BKN040
                        12/12 Q1001=
200804171530 METAR LPPR 171530Z 22012G23KT 6000 -RA SCT005 BKN009 BKN014
                        12/11 Q1001=
200804171500 METAR LPPR 171500Z 21011KT 8000 -RA SCT015 BKN040 13/11 Q1002=
200804171430 METAR LPPR 171430Z 22012KT 180V260 9999 -SHRA SCT015 FEW025CB
                        BKN080 14/12 Q1003=
200804171400 METAR LPPR 171400Z 23013KT 200V260 9999 BKN015 FEW025CB BKN070
                        14/12 Q1003=
200804171330 METAR LPPR 171330Z 22014KT 7000 -SHRA FEW004 BKN015 FEW025CB
                        14/12 Q1004=
200804171300 METAR LPPR 171300Z 24008KT 200V270 9999 SCT015 FEW025CB BKN070
                        15/12 Q1004=
200804171230 METAR LPPR 171230Z 23012KT 210V270 9999 SCT015 FEW025CB BKN070
                        15/12 Q1005=
200804171200 METAR LPPR 171200Z 24009KT 200V270 9999 SCT015 FEW025CB BKN090
                        15/12 Q1005=
200804171130 METAR LPPR 171130Z 25008KT 210V300 9999 SCT015 FEW025CB BKN090
                        15/12 Q1005=
200804171100 METAR LPPR 171100Z 26009KT 220V290 9999 SCT015 BKN090 15/12
                        Q1006=
200804171030 METAR LPPR 171030Z 26007G17KT 220V310 9999 SCT015 BKN250
                        14/12 Q1006=
200804171000 METAR LPPR 171000Z 26006KT 210V290 9999 SCT015 SCT030 13/11
                        Q1006=
200804170930 METAR LPPR 170930Z 23007KT 190V280 9999 -SHRA SCT015 SCT025
                        13/12 Q1006=
200804170900 METAR LPPR 170900Z 24009G19KT 200V290 9999 -SHRA BKN015 FEW020CB
                        13/10 Q1006=
200804170830 METAR LPPR 170830Z 26006KT 220V300 9999 BKN015 FEW020CB 13/12
                        Q1006 RERA=
200804170800 METAR LPPR 170800Z 26009G19KT 220V290 8000 SHRA SCT013 FEW017CB
                        SCT070 12/10 Q1006=
200804170730 METAR LPPR 170730Z 26008KT 230V320 9999 SCT015 FEW020CB BKN070
                        13/11 Q1006=
200804170700 METAR LPPR 170700Z 29004KT 260V330 9999 FEW015 FEW020CB BKN250
                        12/11 Q1006=
200804170630 METAR LPPR 170630Z 27007KT 220V310 8000 -SHRA SCT015 FEW020CB
                        BKN070 13/10 Q1006 WS ALL RWY=
200804170600 METAR LPPR 170600Z 26008G19KT 220V300 9999 FEW015 SCT040
                        BKN070 13/10 Q1006 WS ALL RWY=
200804170530 METAR LPPR 170530Z 27009KT 230V300 9999 FEW015 BKN070 13/09
                        Q1006 WS ALL RWY=
200804170500 METAR LPPR 170500Z 27008KT 230V310 9999 SCT015 BKN070 13/10
                        Q1006=
200804170430 METAR LPPR 170430Z 28011KT 250V320 9999 SCT015 13/10 Q1006
                        WS ALL RWY=
200804170400 METAR LPPR 170400Z 28010KT 230V320 3000 SHRA SCT013 SCT070
                        13/11 Q1006 WS ALL RWY=
200804170330 METAR LPPR 170330Z 29010KT 260V330 9999 SCT013 SCT070 13/11
                        Q1006 WS ALL RWY=
200804170300 METAR LPPR 170300Z 26006KT 210V300 9999 -SHRA SCT013 SCT070
                        12/10 Q1007=
200804170230 METAR LPPR 170230Z 30007KT 250V340 9999 SCT013 SCT070 12/08
                        Q1007=
200804170200 METAR LPPR 170200Z 29011G23KT 250V330 9999 SCT013 SCT025
                        12/09 Q1007 WS ALL RWY=
200804170130 METAR LPPR 170130Z 30007KT 270V330 9999 FEW013 SCT025 13/09
                        Q1007=
200804170100 METAR LPPR 170100Z 30013G23KT 270V330 9999 FEW013 SCT025
                        13/09 Q1007 WS ALL RWY=
200804170030 METAR LPPR 170030Z 29008KT 260V330 5000 -SHRA SCT013 FEW017TCU
                        SCT025 13/10 Q1007=
200804170000 METAR LPPR 170000Z 30011KT 270V330 9999 SCT012 SCT070 13/10
                        Q1008 WS ALL RWY=
200804162330 METAR LPPR 162330Z 30010KT 270V330 9999 BKN012 13/11 Q1007
                        WS ALL RWY=
200804162300 METAR LPPR 162300Z 28009KT 230V320 9999 SCT012 SCT030 13/12
                        Q1007 WS ALL RWY=
200804162230 METAR LPPR 162230Z 31008KT 280V350 9999 SCT011 SCT030 13/12
                        Q1007 WS ALL RWY=
200804162200 METAR LPPR 162200Z 28011G23KT 240V310 5000 -SHRA SCT013 SCT040
                        14/13 Q1007 WS ALL RWY=
200804162130 METAR LPPR 162130Z 27010KT 230V310 9999 SCT013 SCT040 14/13
                        Q1006 WS ALL RWY=
200804162100 METAR LPPR 162100Z 29012G22KT 250V320 9999 FEW008 SCT040
                        BKN070 14/14 Q1006 WS ALL RWY=
200804162030 METAR LPPR 162030Z 28010KT 250V310 9999 FEW008 SCT070 14/14
                        Q1006 WS ALL RWY=
200804162000 METAR LPPR 162000Z 27010G21KT 200V320 9999 SCT008 BKN070
                        15/15 Q1005=
200804161930 METAR LPPR 161930Z 21021G32KT 190V270 5000 RA BR FEW002 SCT004
                        BKN070 15/15 Q1005 WS ALL RWY=
200804161900 METAR LPPR 161900Z 21018KT 180V240 3000 RA BR SCT004 BKN070
                        15/15 Q1005 WS ALL RWY=
200804161830 METAR LPPR 161830Z 19019G30KT 3000 RA BR SCT004 BKN070 15/15
                        Q1005=
200804161800 METAR LPPR 161800Z 19018KT 4000 -RA BR SCT005 SCT012 BKN070
                        15/15 Q1006=
200804161730 METAR LPPR 161730Z 18017KT 7000 -RA SCT006 SCT012 BKN070
                        15/14 Q1007=
200804161700 METAR LPPR 161700Z 19015KT 7000 -RA SCT006 SCT012 BKN070
                        15/14 Q1007=
200804161630 METAR LPPR 161630Z 19016KT 9999 -SHRA FEW009 SCT015 BKN070
                        15/13 Q1008=
200804161600 METAR LPPR 161600Z 19017KT 9999 FEW009 SCT015 BKN070 15/12
                        Q1008=
200804161530 METAR LPPR 161530Z 21014KT 9999 SCT012 BKN070 16/13 Q1009=
200804161500 METAR LPPR 161500Z 20015KT 9999 SCT012 BKN070 16/13 Q1009=
200804161430 METAR LPPR 161430Z 21015KT 9999 SCT011 SCT030 BKN070 16/13
                        Q1010=
200804161400 METAR LPPR 161400Z 20014KT 9999 SCT008 SCT090 BKN250 17/13
                        Q1010=
200804161330 METAR LPPR 161330Z 20015KT 170V230 9999 FEW008 SCT090 BKN250
                        17/13 Q1010=
200804161300 METAR LPPR 161300Z 20014KT 9999 FEW008 SCT090 BKN250 18/12
                        Q1010=
200804161230 METAR LPPR 161230Z 20014KT 9999 FEW007 SCT080 BKN250 17/14
                        Q1011=
200804161200 METAR LPPR 161200Z 20013KT 170V230 9999 FEW012 SCT080 BKN250
                        18/13 Q1011=
200804161130 METAR LPPR 161130Z 24010KT 200V270 CAVOK 18/12 Q1012=
200804161100 METAR LPPR 161100Z 21009KT 180V240 CAVOK 18/12 Q1012=
200804161030 METAR LPPR 161030Z 22010KT 180V250 CAVOK 18/11 Q1012=
200804161000 METAR LPPR 161000Z 21009KT CAVOK 18/10 Q1012=
200804160930 METAR LPPR 160930Z 17006KT 140V220 CAVOK 18/11 Q1012=
200804160900 METAR LPPR 160900Z 14005KT 100V180 CAVOK 17/11 Q1012=
200804160830 METAR LPPR 160830Z 14005KT 110V170 CAVOK 15/10 Q1012=
200804160800 METAR LPPR 160800Z 14005KT 110V190 CAVOK 14/10 Q1013=
200804160730 METAR LPPR 160730Z 14005KT CAVOK 13/09 Q1013=
200804160700 METAR LPPR 160700Z 14004KT CAVOK 12/09 Q1013=
200804160630 METAR LPPR 160630Z 12008KT CAVOK 11/09 Q1012=
200804160600 METAR LPPR 160600Z 12008KT 8000 FEW070 11/09 Q1012=
200804160530 METAR LPPR 160530Z 11008KT CAVOK 11/09 Q1012=
200804160500 METAR LPPR 160500Z 13006KT CAVOK 12/09 Q1013=
200804160430 METAR LPPR 160430Z 12007KT CAVOK 12/09 Q1013=
200804160400 METAR LPPR 160400Z VRB02KT CAVOK 12/09 Q1013=
200804160330 METAR LPPR 160330Z 13005KT CAVOK 12/10 Q1013=
200804160300 METAR LPPR 160300Z 00000KT CAVOK 11/09 Q1013=
200804160230 METAR LPPR 160230Z 00000KT CAVOK 12/09 Q1013=
200804160200 METAR LPPR 160200Z 11006KT CAVOK 12/09 Q1014=
200804160130 METAR LPPR 160130Z VRB03KT CAVOK 12/09 Q1014=
200804160100 METAR LPPR 160100Z 00000KT CAVOK 12/09 Q1014=
200804160030 METAR LPPR 160030Z 00000KT CAVOK 12/09 Q1015=
200804160000 METAR LPPR 160000Z 00000KT CAVOK 13/09 Q1015=
200804152330 METAR LPPR 152330Z 08004KT CAVOK 14/09 Q1015=
200804152300 METAR LPPR 152300Z 00000KT CAVOK 12/09 Q1015=
200804152230 METAR LPPR 152230Z 00000KT CAVOK 13/09 Q1015=
200804152200 METAR LPPR 152200Z 00000KT CAVOK 13/09 Q1015=
200804152130 METAR LPPR 152130Z 00000KT CAVOK 14/09 Q1015=
200804152100 METAR LPPR 152100Z 01003KT CAVOK 15/09 Q1015=
200804152030 METAR LPPR 152030Z 00000KT CAVOK 15/09 Q1015=
200804152000 METAR LPPR 152000Z 00000KT CAVOK 16/09 Q1015=
200804151930 METAR LPPR 151930Z 01003KT CAVOK 17/09 Q1015=
200804151900 METAR LPPR 151900Z 35004KT CAVOK 18/10 Q1015=
200804151830 METAR LPPR 151830Z 35004KT CAVOK 19/11 Q1015=
200804151800 METAR LPPR 151800Z 33005KT CAVOK 19/09 Q1015=
200804151730 METAR LPPR 151730Z 34005KT CAVOK 20/08 Q1015=
200804151700 METAR LPPR 151700Z 34005KT 9999 FEW020 BKN200 20/08 Q1015=
200804151630 METAR LPPR 151630Z 33006KT 9999 FEW020 BKN200 20/08 Q1015=
200804151600 METAR LPPR 151600Z 29004G16KT 250V340 9999 FEW020 BKN200
                        22/07 Q1015=
200804151530 METAR LPPR 151530Z VRB03KT 9999 FEW020 BKN200 21/08 Q1016=
200804151500 METAR LPPR 151500Z 29005KT 260V330 9999 FEW020 SCT100 BKN200
                        22/07 Q1016=
200804151430 METAR LPPR 151430Z VRB03KT 9999 FEW020 SCT100 BKN200 21/08
                        Q1016=
200804151400 METAR LPPR 151400Z 26005KT 9999 FEW020 SCT100 BKN200 21/08
                        Q1016=
200804151330 METAR LPPR 151330Z VRB06KT 9999 FEW020 SCT100 BKN200 21/08
                        Q1017=
200804151300 METAR LPPR 151300Z 15007KT 100V190 CAVOK 21/06 Q1017=
200804151230 METAR LPPR 151230Z 16007KT 100V210 CAVOK 21/07 Q1017=
200804151200 METAR LPPR 151200Z 15005KT 090V200 CAVOK 21/06 Q1017=
200804151130 METAR LPPR 151130Z 10006KT 060V140 CAVOK 20/07 Q1018=
200804151100 METAR LPPR 151100Z 12009KT CAVOK 19/06 Q1018=
200804151030 METAR LPPR 151030Z 11009KT 080V140 CAVOK 18/06 Q1018=
200804151000 METAR LPPR 151000Z 11009KT CAVOK 18/06 Q1018=
200804150930 METAR LPPR 150930Z 11010KT CAVOK 16/06 Q1018=
200804150900 METAR LPPR 150900Z 11009KT 080V140 CAVOK 15/06 Q1018=
200804150830 METAR LPPR 150830Z 11009KT CAVOK 14/06 Q1018=
200804150800 METAR LPPR 150800Z 11009KT CAVOK 14/05 Q1018=
200804150730 METAR LPPR 150730Z 11009KT CAVOK 14/05 Q1018=
200804150700 METAR LPPR 150700Z 11009KT CAVOK 13/04 Q1018=
200804150630 METAR LPPR 150630Z 11008KT CAVOK 12/04 Q1018=
200804150600 METAR LPPR 150600Z 11008KT CAVOK 12/04 Q1018=
200804150530 METAR LPPR 150530Z 11007KT CAVOK 12/05 Q1018=
200804150500 METAR LPPR 150500Z 11005KT CAVOK 11/05 Q1018=
200804150430 METAR LPPR 150430Z 11003KT CAVOK 07/07 Q1018=
200804150400 METAR LPPR 150400Z 00000KT CAVOK 08/07 Q1018=
200804150330 METAR LPPR 150330Z VRB02KT CAVOK 08/06 Q1018=
200804150300 METAR LPPR 150300Z VRB03KT CAVOK 11/07 Q1018=
200804150230 METAR LPPR 150230Z 09004KT CAVOK 11/07 Q1018=
200804150200 METAR LPPR 150200Z 10003KT CAVOK 11/08 Q1019=
200804150130 METAR LPPR 150130Z 11005KT CAVOK 10/09 Q1019=
200804150100 METAR LPPR 150100Z VRB02KT CAVOK 10/08 Q1020=
200804150030 METAR LPPR 150030Z 10004KT CAVOK 10/09 Q1020=
200804150000 METAR LPPR 150000Z 10005KT CAVOK 10/09 Q1020=
200804142330 METAR LPPR 142330Z 15003KT CAVOK 11/09 Q1020=
200804142300 METAR LPPR 142300Z 00000KT CAVOK 10/08 Q1020=
200804142230 METAR LPPR 142230Z 09003KT CAVOK 10/09 Q1020=
200804142200 METAR LPPR 142200Z 09003KT CAVOK 11/09 Q1021=
200804142130 METAR LPPR 142130Z 00000KT CAVOK 11/10 Q1021=
200804142100 METAR LPPR 142100Z 00000KT CAVOK 11/09 Q1021=
200804142030 METAR LPPR 142030Z 00000KT CAVOK 12/09 Q1021=
200804142000 METAR LPPR 142000Z 35002KT CAVOK 12/09 Q1021=
200804141930 METAR LPPR 141930Z 33005KT CAVOK 13/08 Q1020=
200804141900 METAR LPPR 141900Z 33007KT CAVOK 14/08 Q1020=
200804141830 METAR LPPR 141830Z 33009KT CAVOK 15/07 Q1021=
200804141800 METAR LPPR 141800Z 33008KT CAVOK 15/08 Q1021=
200804141730 METAR LPPR 141730Z 33010KT CAVOK 15/09 Q1021=
200804141700 METAR LPPR 141700Z 32012KT CAVOK 15/09 Q1021=
200804141630 METAR LPPR 141630Z 32013KT CAVOK 16/09 Q1021=
200804141600 METAR LPPR 141600Z 32010KT CAVOK 16/09 Q1021=
200804141530 METAR LPPR 141530Z 32010KT CAVOK 17/09 Q1021=
200804141500 METAR LPPR 141500Z 31011KT CAVOK 16/09 Q1022=
200804141430 METAR LPPR 141430Z 31011KT CAVOK 16/08 Q1022=
200804141400 METAR LPPR 141400Z 31011KT 280V340 CAVOK 16/09 Q1022=
200804141330 METAR LPPR 141330Z 29009KT 260V330 CAVOK 16/08 Q1023=
200804141300 METAR LPPR 141300Z 31010KT 290V010 9999 FEW020 16/10 Q1023=
200804141230 METAR LPPR 141230Z VRB03KT 9999 FEW020 16/09 Q1023=
200804141200 METAR LPPR 141200Z VRB03KT 9999 FEW020 17/09 Q1024=
200804141130 METAR LPPR 141130Z VRB03KT 9999 SCT020 16/07 Q1024=
200804141100 METAR LPPR 141100Z 12004KT 080V180 9999 SCT020 16/07 Q1024=
200804141030 METAR LPPR 141030Z VRB03KT 9999 FEW020 15/08 Q1024=
200804141000 METAR LPPR 141000Z 08004KT 030V170 9999 FEW018 14/08 Q1024=
200804140930 METAR LPPR 140930Z 09005KT 050V130 CAVOK 13/09 Q1024=
200804140900 METAR LPPR 140900Z 11004KT 090V150 CAVOK 12/09 Q1024=
200804140830 METAR LPPR 140830Z VRB03KT CAVOK 10/10 Q1024=
200804140800 METAR LPPR 140800Z VRB03KT CAVOK 09/09 Q1024=
200804140730 METAR LPPR 140730Z VRB02KT CAVOK 08/08 Q1024=
200804140700 METAR LPPR 140700Z 10004KT CAVOK 07/07 Q1023=
200804140630 METAR LPPR 140630Z 08002KT CAVOK 06/06 Q1023=
200804140600 METAR LPPR 140600Z 00000KT CAVOK 07/07 Q1023=
200804140530 METAR LPPR 140530Z 09003KT CAVOK 07/07 Q1023=
200804140500 METAR LPPR 140500Z VRB02KT CAVOK 07/07 Q1023=
200804140430 METAR LPPR 140430Z 11003KT CAVOK 07/07 Q1023=
200804140400 METAR LPPR 140400Z 00000KT CAVOK 07/07 Q1023=
200804140330 METAR LPPR 140330Z 00000KT CAVOK 06/06 Q1024=
200804140300 METAR LPPR 140300Z 00000KT 9999 FEW020 SCT250 07/07 Q1024=
200804140230 METAR LPPR 140230Z 00000KT 9999 FEW020 SCT250 07/07 Q1023=
200804140200 METAR LPPR 140200Z 00000KT 9999 FEW020 07/07 Q1024=
200804140130 METAR LPPR 140130Z 00000KT 9999 FEW020 07/07 Q1024=
200804140100 METAR LPPR 140100Z 00000KT 9999 FEW020 08/08 Q1024=
200804140030 METAR LPPR 140030Z 00000KT 9999 FEW020 08/08 Q1024=
200804140000 METAR LPPR 140000Z 00000KT 9999 FEW020 08/08 Q1024=
200804132330 METAR LPPR 132330Z 00000KT 9999 FEW020 09/09 Q1025=
200804132300 METAR LPPR 132300Z 00000KT 9999 FEW020 09/09 Q1025=
200804132230 METAR LPPR 132230Z 00000KT 9999 FEW015 09/09 Q1025=
200804132200 METAR LPPR 132200Z 00000KT 9999 SCT015 10/09 Q1025=
200804132130 METAR LPPR 132130Z 02002KT 9999 SCT015 11/09 Q1025=
200804132100 METAR LPPR 132100Z 31002KT 9999 SCT015 11/09 Q1025=
200804132030 METAR LPPR 132030Z VRB03KT 9999 FEW015 SCT070 11/09 Q1024=
200804132000 METAR LPPR 132000Z 32003KT 9999 FEW015 SCT070 12/09 Q1024=
200804131930 METAR LPPR 131930Z 32004KT 9999 FEW015 BKN070 13/09 Q1024=
200804131900 METAR LPPR 131900Z 33007KT 290V060 9999 FEW015 SCT040 BKN070
                        13/09 Q1023=
200804131830 METAR LPPR 131830Z 32007KT 9999 FEW015 SCT040 BKN070 14/10
                        Q1023=
200804131800 METAR LPPR 131800Z 31007KT 9999 FEW015 SCT040 BKN070 14/10
                        Q1023=
200804131730 METAR LPPR 131730Z 31009KT 9999 FEW015 SCT040 BKN070 15/10
                        Q1022=
200804131700 METAR LPPR 131700Z 31007KT 280V350 9999 FEW015 SCT040 BKN070
                        15/11 Q1022=
200804131630 METAR LPPR 131630Z 32008KT 280V350 9999 SCT015 BKN040 14/11
                        Q1022=
200804131600 METAR LPPR 131600Z 32009KT 280V350 9999 SCT015 BKN040 15/11
                        Q1022=
200804131530 METAR LPPR 131530Z 31010KT 290V350 9999 SCT015 FEW020CB BKN070
                        15/12 Q1022=
200804131500 METAR LPPR 131500Z 29010KT 260V330 9999 SCT015 FEW020CB BKN070
                        15/12 Q1021=
200804131430 METAR LPPR 131430Z 28008KT 250V320 9999 SCT015 BKN070 15/12
                        Q1021=
200804131400 METAR LPPR 131400Z 29010KT 260V320 9999 SCT015 BKN070 15/13
                        Q1021=
200804131330 METAR LPPR 131330Z 32004KT 280V350 9999 SCT015 SCT035 13/12
                        Q1021=
200804131300 METAR LPPR 131300Z 26009KT 230V300 9999 BKN015 16/13 Q1021=
200804131230 METAR LPPR 131230Z 26010KT 210V300 9999 SCT015 SCT035 16/12
                        Q1021=
200804131200 METAR LPPR 131200Z 29009KT 250V040 9999 SCT015 BKN030 15/12
                        Q1022=
200804131130 METAR LPPR 131130Z 25008KT 210V310 9999 SCT015 BKN035 15/13
                        Q1022=
200804131100 METAR LPPR 131100Z 27009KT 230V320 9999 BKN015 SCT040 15/12
                        Q1021=
200804131030 METAR LPPR 131030Z 26009KT 180V300 9999 -SHRA BKN015 15/12
                        Q1021=
200804131000 METAR LPPR 131000Z 26008KT 220V290 9999 BKN015 15/11 Q1021=
200804130930 METAR LPPR 130930Z 25008KT 200V280 9999 BKN015 15/12 Q1021=
200804130900 METAR LPPR 130900Z 26007KT 220V310 9999 SCT015 FEW020CB SCT040
                        14/11 Q1020=
200804130830 METAR LPPR 130830Z 21008KT 180V250 9999 BKN015 FEW020CB 14/12
                        Q1020=
200804130800 METAR LPPR 130800Z 23007KT 190V260 9999 BKN015 FEW020CB 14/12
                        Q1020=
200804130730 METAR LPPR 130730Z 22006KT 180V250 9999 SCT015 FEW020CB SCT030
                        13/12 Q1020=
200804130700 METAR LPPR 130700Z 22005KT 180V260 9999 SCT015 FEW020CB SCT030
                        13/11 Q1020=
200804130630 METAR LPPR 130630Z 22005KT 180V270 9999 SCT015 BKN030 12/11
                        Q1019=
200804130600 METAR LPPR 130600Z 23006KT 9999 SCT015 BKN035 13/11 Q1019=
200804130530 METAR LPPR 130530Z 22009KT 190V260 9999 SCT015 BKN035 13/11
                        Q1019=
200804130500 METAR LPPR 130500Z 21007KT 180V240 9999 SCT015 SCT035 13/12
                        Q1019=
200804130430 METAR LPPR 130430Z 23007KT 9999 SCT015 BKN040 12/12 Q1019=
200804130400 METAR LPPR 130400Z 17006KT 9999 SCT015 BKN035 11/11 Q1019=
200804130330 METAR LPPR 130330Z 17007KT 9999 FEW008 SCT015 BKN040 11/11
                        Q1019=
200804130300 METAR LPPR 130300Z 17009KT 9999 FEW008 SCT013 BKN030 11/11
                        Q1020=
200804130230 METAR LPPR 130230Z 18006KT 8000 -SHRA SCT011 BKN017 11/11
                        Q1020 RERA=
200804130200 METAR LPPR 130200Z 17008KT 8000 SHRA SCT011 BKN017 11/11
                        Q1020=
200804130130 METAR LPPR 130130Z 18006KT 8000 SHRA SCT013 BKN030 11/11
                        Q1020=
200804130100 METAR LPPR 130100Z 16008KT 9999 SCT015 BKN030 11/11 Q1020=
200804130030 METAR LPPR 130030Z 15007KT 9999 SCT015 BKN040 11/11 Q1021=
200804130000 METAR LPPR 130000Z 14007KT 9999 SCT015 BKN040 11/11 Q1021=
200804122330 METAR LPPR 122330Z 12008KT 9999 SCT015 BKN040 11/10 Q1021=
200804122300 METAR LPPR 122300Z 16008KT 9999 SCT015 BKN040 11/10 Q1021=
200804122230 METAR LPPR 122230Z 17004KT 130V200 9999 SCT015 BKN030 11/11
                        Q1022=
200804122200 METAR LPPR 122200Z 18006KT 150V220 7000 -SHRA SCT009 SCT015
                        BKN025 11/11 Q1022=
200804122130 METAR LPPR 122130Z VRB03KT 7000 -SHRA SCT009 SCT013 BKN025
                        12/11 Q1022=
200804122100 METAR LPPR 122100Z 20005KT 9999 SCT017 FEW020CB BKN030 12/10
                        Q1022=
200804122030 METAR LPPR 122030Z 18007KT 9999 SCT017 FEW020CB BKN035 12/09
                        Q1022=
200804122000 METAR LPPR 122000Z 20006KT 9999 SCT017 FEW020CB BKN035 12/10
                        Q1021=
200804121930 METAR LPPR 121930Z 22006KT 200V260 9999 -SHRA SCT017 FEW020CB
                        BKN035 13/10 Q1021=
200804121900 METAR LPPR 121900Z 23007KT 9999 SCT017 FEW020CB BKN035 13/09
                        Q1021=
200804121830 METAR LPPR 121830Z 24007KT 200V270 9999 SCT017 FEW020CB SCT040
                        13/09 Q1021=
200804121800 METAR LPPR 121800Z 24008KT 200V290 9999 BKN017 FEW020CB 14/10
                        Q1021=
200804121730 METAR LPPR 121730Z 24007KT 210V280 9999 SCT017 FEW020CB SCT080
                        14/10 Q1020=
200804121700 METAR LPPR 121700Z 24008KT 200V280 9999 SCT017 FEW020CB SCT035
                        15/10 Q1020=
200804121630 METAR LPPR 121630Z 25009KT 210V280 9999 SCT017 FEW020CB SCT035
                        15/09 Q1020=
200804121600 METAR LPPR 121600Z 25010G20KT 220V280 9999 BKN017 FEW020CB
                        15/09 Q1021=
200804121530 METAR LPPR 121530Z 21011KT 180V250 9999 BKN015 FEW020CB 15/10
                        Q1021=
200804121500 METAR LPPR 121500Z 22009KT 190V260 9999 SCT015 FEW020CB SCT250
                        15/11 Q1021=
200804121430 METAR LPPR 121430Z 22009KT 180V260 9999 SCT015 FEW020CB SCT250
                        15/10 Q1021=
200804121400 METAR LPPR 121400Z 22009KT 190V260 9999 FEW015 FEW020CB SCT040
                        14/10 Q1021=
200804121330 METAR LPPR 121330Z 23007KT 140V260 9999 FEW015 FEW020CB SCT040
                        13/10 Q1021=
200804121300 METAR LPPR 121300Z 23009KT 180V270 9999 FEW015 FEW020CB SCT035
                        13/09 Q1021=
200804121230 METAR LPPR 121230Z 25007KT 210V300 9999 FEW015 SCT035 BKN070
                        14/09 Q1021=
200804121200 METAR LPPR 121200Z 25006KT 220V330 9999 FEW015 SCT040 BKN070
                        14/08 Q1021=
200804121130 METAR LPPR 121130Z 31009KT 270V340 9999 FEW015 FEW020CB BKN070
                        12/10 Q1021=
200804121100 METAR LPPR 121100Z 21009KT 180V240 9999 FEW015 FEW020CB BKN070
                        13/11 Q1021=
200804121030 METAR LPPR 121030Z 20009KT 180V240 9999 FEW017 FEW020CB SCT070
                        15/11 Q1021=
200804121000 METAR LPPR 121000Z 21008KT 180V260 9999 SCT017 FEW020CB 14/10
                        Q1021=
200804120930 METAR LPPR 120930Z 16007KT 130V200 9999 FEW017 BKN070 14/10
                        Q1021=
200804120900 METAR LPPR 120900Z 15005KT 9999 FEW017 BKN070 13/10 Q1021=
200804120830 METAR LPPR 120830Z 12005KT 9999 FEW017 BKN070 12/11 Q1021=
200804120800 METAR LPPR 120800Z 13005KT 9999 FEW017 BKN070 10/10 Q1021=
200804120730 METAR LPPR 120730Z 12004KT 9999 FEW017 BKN070 09/09 Q1020=
200804120700 METAR LPPR 120700Z VRB02KT 9999 SCT017 SCT025 09/09 Q1020=
200804120630 METAR LPPR 120630Z 11006KT 9999 BKN017 09/09 Q1020=
200804120600 METAR LPPR 120600Z VRB03KT 9999 SCT017 09/08 Q1020=
200804120530 METAR LPPR 120530Z 13004KT 9999 SCT017 BKN025 09/09 Q1020
                        RERA=
200804120500 METAR LPPR 120500Z 12007KT 9999 FEW017 BKN025 09/08 Q1019=
200804120430 METAR LPPR 120430Z 12006KT 9999 FEW017 BKN040 09/08 Q1019=
200804120400 METAR LPPR 120400Z 00000KT 9999 FEW017 SCT040 08/07 Q1020=
200804120330 METAR LPPR 120330Z 11005KT 9999 FEW017 SCT040 09/08 Q1020=
200804120300 METAR LPPR 120300Z VRB03KT 9999 FEW017 SCT040 BKN070 09/08
                        Q1020=
200804120230 METAR LPPR 120230Z 12004KT 100V160 9999 FEW017 SCT040 09/08
                        Q1020=
200804120200 METAR LPPR 120200Z 00000KT 9999 FEW017 SCT040 08/08 Q1020=
200804120130 METAR LPPR 120130Z 00000KT 9999 FEW017 SCT040 08/08 Q1020=
200804120100 METAR LPPR 120100Z 00000KT 9999 FEW017 SCT070 08/07 Q1020=
200804120030 METAR LPPR 120030Z 00000KT 9999 FEW017 08/07 Q1020=
200804120000 METAR LPPR 120000Z 00000KT 9999 FEW017 08/07 Q1020=
200804112330 METAR LPPR 112330Z 00000KT 9999 FEW017 09/07 Q1020=
200804112300 METAR LPPR 112300Z 00000KT 9999 SCT017 10/08 Q1020=
200804112230 METAR LPPR 112230Z 00000KT 9999 SCT017 10/07 Q1020=
200804112200 METAR LPPR 112200Z VRB02KT 9999 SCT017 10/08 Q1020=
200804112130 METAR LPPR 112130Z VRB03KT 9999 SCT017 10/08 Q1020=
200804112100 METAR LPPR 112100Z 34003KT 9999 SCT017 10/08 Q1019=
200804112030 METAR LPPR 112030Z 35004KT 9999 FEW017 10/07 Q1019=
200804112000 METAR LPPR 112000Z 34006KT 9999 FEW017 11/07 Q1018=
200804111930 METAR LPPR 111930Z 33009KT 9999 FEW017 12/08 Q1018=
200804111900 METAR LPPR 111900Z 33011KT 9999 FEW017 FEW020TCU 12/08 Q1018=
200804111830 METAR LPPR 111830Z 33012KT 9999 FEW017 FEW020TCU 13/08 Q1017=
200804111800 METAR LPPR 111800Z 33013KT 9999 FEW017 FEW020CB 13/08 Q1017=
200804111730 METAR LPPR 111730Z 33015KT 9999 FEW015 FEW020CB 14/08 Q1017=
200804111700 METAR LPPR 111700Z 32017KT 9999 FEW015 FEW020CB 14/08 Q1016=
200804111630 METAR LPPR 111630Z 33017KT 290V350 9999 SCT015 FEW020CB 14/08
                        Q1016=
200804111600 METAR LPPR 111600Z 33016KT 9999 SCT015 FEW020CB 15/08 Q1016=
200804111530 METAR LPPR 111530Z 32015G25KT 9999 FEW015 15/08 Q1016=
200804111500 METAR LPPR 111500Z 32017KT 290V350 9999 FEW015 15/08 Q1016=
200804111430 METAR LPPR 111430Z 32016KT 9999 SCT015 FEW020CB 15/08 Q1015=
200804111400 METAR LPPR 111400Z 32016KT 290V350 9999 SCT015 FEW020CB 14/08
                        Q1015=
200804111330 METAR LPPR 111330Z 33016KT 9999 SCT015 FEW020CB SCT040 14/08
                        Q1015=
200804111300 METAR LPPR 111300Z 33016KT 9999 SCT015 FEW020CB SCT030 15/08
                        Q1015=
200804111230 METAR LPPR 111230Z 33016KT 290V350 CAVOK 15/07 Q1014=
200804111200 METAR LPPR 111200Z 32013G24KT 290V350 9999 SCT015 FEW020CB
                        14/08 Q1014=
200804111130 METAR LPPR 111130Z 33012KT 300V360 9999 SCT015 SCT030 13/07
                        Q1014=
200804111100 METAR LPPR 111100Z 32011KT 9999 SCT015 SCT030 14/08 Q1014=
200804111030 METAR LPPR 111030Z 35009KT 9999 SCT015 SCT035 13/07 Q1014=
200804111000 METAR LPPR 111000Z 34009KT 310V010 9999 SCT015 SCT040 13/07
                        Q1013=
200804110930 METAR LPPR 110930Z 35010KT 320V020 9999 FEW015 SCT040 12/07
                        Q1013=
200804110900 METAR LPPR 110900Z 35013KT 9999 FEW015 SCT040 12/06 Q1013=
200804110830 METAR LPPR 110830Z 35007KT 9999 FEW015 SCT040 11/07 Q1012=
200804110800 METAR LPPR 110800Z 35006KT 9999 FEW015 10/06 Q1012=
200804110730 METAR LPPR 110730Z 36005KT 9999 FEW015 09/06 Q1012=
200804110700 METAR LPPR 110700Z 01004KT 9999 FEW015 06/05 Q1011=
200804110630 METAR LPPR 110630Z 35002KT 9999 FEW015 05/04 Q1011=
200804110600 METAR LPPR 110600Z 35003KT CAVOK 05/04 Q1010=
200804110530 METAR LPPR 110530Z 32004KT CAVOK 05/04 Q1010=
200804110500 METAR LPPR 110500Z 36004KT CAVOK 06/04 Q1010=
200804110430 METAR LPPR 110430Z 35006KT CAVOK 05/03 Q1009=
200804110400 METAR LPPR 110400Z 35008KT CAVOK 07/04 Q1009=
200804110330 METAR LPPR 110330Z 35007KT 9999 FEW015 SCT100 06/04 Q1009=
200804110300 METAR LPPR 110300Z 34008KT 9999 FEW015 SCT100 07/04 Q1008=
200804110230 METAR LPPR 110230Z 35009KT CAVOK 07/03 Q1008=
200804110200 METAR LPPR 110200Z 35009KT 9999 FEW015 08/03 Q1007=
200804110130 METAR LPPR 110130Z 36011KT 9999 FEW015 SCT090 08/04 Q1007=
200804110100 METAR LPPR 110100Z 35011KT 9999 FEW015 BKN090 09/04 Q1007=
200804110030 METAR LPPR 110030Z 35011KT 9999 FEW015 BKN090 09/04 Q1007=
200804110000 METAR LPPR 110000Z 34010KT 9999 FEW015 SCT040 BKN090 09/04
                        Q1006=
200804102330 METAR LPPR 102330Z 34014KT 9999 FEW015 BKN090 10/04 Q1006=
200804102300 METAR LPPR 102300Z 34016KT 9999 FEW040 BKN090 10/05 Q1005=
200804102230 METAR LPPR 102230Z 34015KT 9999 SCT040 BKN090 10/05 Q1005=
200804102200 METAR LPPR 102200Z 34014KT 9999 SCT040 BKN080 10/05 Q1004=
200804102130 METAR LPPR 102130Z 34016KT 9999 FEW013 SCT030 BKN070 10/05
                        Q1004=
200804102100 METAR LPPR 102100Z 35015KT 9999 FEW013 SCT030 BKN070 11/06
                        Q1003=
200804102030 METAR LPPR 102030Z 35016KT 9999 FEW013 SCT030 BKN070 11/06
                        Q1003=
200804102000 METAR LPPR 102000Z 34019G30KT 9999 -SHRA FEW013 SCT030 BKN060
                        11/06 Q1002 WS ALL RWY=
200804101930 METAR LPPR 101930Z 35019KT 9999 FEW013 SCT030 BKN060 11/06
                        Q1001 WS ALL RWY=
200804101900 METAR LPPR 101900Z 35018G29KT 9999 FEW012 BKN030 11/06 Q1000
                        WS ALL RWY=
200804101830 METAR LPPR 101830Z 35019KT 9999 FEW012 BKN030 11/06 Q0999=
200804101800 METAR LPPR 101800Z 34021KT 9999 FEW012 BKN030 12/07 Q0999=
200804101730 METAR LPPR 101730Z 34017G27KT 9999 SCT012 BKN030 12/08 Q0998=
200804101700 METAR LPPR 101700Z 35017KT 9999 SCT012 FEW020TCU BKN030 13/08
                        Q0997=
200804101630 METAR LPPR 101630Z 35018KT 9999 SCT012 FEW020TCU BKN030 13/08
                        Q0997=
200804101600 METAR LPPR 101600Z 34018KT 9999 SCT012 FEW020TCU BKN030 14/08
                        Q0996=
200804101530 METAR LPPR 101530Z 36016KT 9999 SCT012 BKN030 14/09 Q0996=
200804101500 METAR LPPR 101500Z 33017KT 9999 SCT012 BKN030 15/10 Q0995=
200804101430 METAR LPPR 101430Z 33014KT 9999 SCT012 FEW020TCU BKN030 14/10
                        Q0995=
200804101400 METAR LPPR 101400Z 33014KT 9999 SCT012 FEW020TCU BKN030 15/11
                        Q0995=
200804101330 METAR LPPR 101330Z 33014KT 9999 SCT012 BKN030 15/11 Q0994=
200804101300 METAR LPPR 101300Z 33012KT 9999 FEW007 SCT012 BKN030 15/13
                        Q0994=
200804101230 METAR LPPR 101230Z 34013KT 310V010 9999 FEW007 SCT012 BKN030
                        15/12 Q0994=
200804101200 METAR LPPR 101200Z 32012KT 9999 FEW007 SCT012 BKN030 15/13
                        Q0993=
200804101130 METAR LPPR 101130Z 32010KT 9999 FEW006 SCT012 BKN025 14/13
                        Q0993=
200804101100 METAR LPPR 101100Z 34010KT 9999 SCT006 SCT012 BKN017 13/13
                        Q0993=
200804101030 METAR LPPR 101030Z 32010KT 280V350 8000 BKN005 SCT012 FEW020CB
                        13/13 Q0993=
200804101000 METAR LPPR 101000Z 30007KT 270V330 8000 SCT007 SCT015 FEW020CB
                        14/13 Q0992=
200804100930 METAR LPPR 100930Z 31005KT 280V350 9999 FEW007 SCT015 FEW020CB
                        14/14 Q0992=
200804100900 METAR LPPR 100900Z VRB02KT 9999 FEW007 SCT015 FEW020CB 13/13
                        Q0991=
200804100830 METAR LPPR 100830Z VRB03KT 9999 FEW015 FEW017CB SCT035 13/13
                        Q0991=
200804100800 METAR LPPR 100800Z 00000KT 9999 FEW015 FEW017CB SCT035 12/12
                        Q0991=
200804100730 METAR LPPR 100730Z VRB02KT 9999 FEW015 FEW017CB SCT030 12/12
                        Q0991=
200804100700 METAR LPPR 100700Z VRB03KT 9999 SCT015 FEW020CB SCT030 12/12
                        Q0990=
200804100630 METAR LPPR 100630Z VRB02KT 9999 SCT015 SCT025 BKN080 12/12
                        Q0990=
200804100600 METAR LPPR 100600Z 09003KT 9999 SCT013 SCT025 BKN080 12/12
                        Q0990=
200804100530 METAR LPPR 100530Z VRB03KT 4000 -SHRA BR SCT006 BKN013 FEW020CB
                        12/12 Q0990=
200804100500 METAR LPPR 100500Z 00000KT 4000 -SHRA BR SCT006 BKN013 FEW020CB
                        12/12 Q0990=
200804100430 METAR LPPR 100430Z 01005KT 9999 -RA SCT008 BKN025 BKN080
                        12/12 Q0990=
200804100400 METAR LPPR 100400Z 16010KT 9999 -RA SCT008 BKN025 BKN080
                        13/13 Q0990=
200804100330 METAR LPPR 100330Z 20007KT 9999 -RA SCT010 BKN030 OVC060
                        13/13 Q0991=
200804100300 METAR LPPR 100300Z 17019KT 8000 -RA SCT012 SCT030 OVC060
                        13/13 Q0991=
200804100230 METAR LPPR 100230Z 17010KT 8000 -RA FEW008 SCT030 OVC060
                        13/13 Q0991=
200804100200 METAR LPPR 100200Z 15006KT 9999 -RA FEW015 SCT030 BKN060
                        13/13 Q0991=
200804100130 METAR LPPR 100130Z 15006KT 8000 -RA SCT008 SCT015 BKN030
                        13/13 Q0991=
200804100100 METAR LPPR 100100Z 14005KT 110V170 9999 -SHRA FEW008 SCT015
                        BKN035 13/13 Q0991=
200804100030 METAR LPPR 100030Z 11004KT 050V180 8000 -SHRA SCT008 SCT013
                        BKN030 13/13 Q0991=
200804100000 METAR LPPR 100000Z 18007KT 7000 -SHRA SCT008 SCT015 BKN030
                        14/13 Q0992=
200804092330 METAR LPPR 092330Z 17010KT 8000 -SHRA SCT015 BKN035 14/13
                        Q0993=
200804092300 METAR LPPR 092300Z 17008KT 9999 FEW015 SCT030 BKN060 14/13
                        Q0993=
200804092230 METAR LPPR 092230Z 16007KT 9999 FEW015 SCT030 BKN060 14/13
                        Q0993=
200804092200 METAR LPPR 092200Z 17008KT 9999 SCT015 BKN030 14/13 Q0993=
200804092130 METAR LPPR 092130Z 20008KT 9999 SCT013 SCT030 15/14 Q0994=
200804092100 METAR LPPR 092100Z 20012KT 9999 SCT015 SCT030 15/14 Q0994=
200804092030 METAR LPPR 092030Z 19011 9999 SCT015 SCT030 15/15 Q0994=
200804092000 METAR LPPR 092000Z 17008KT 9999 SCT015 SCT030 BKN070 15/15
                        Q0993=
200804091930 METAR LPPR 091930Z 18006KT 160V240 9999 SCT015 SCT030 BKN060
                        15/14 Q0994=
200804091900 METAR LPPR 091900Z 18010KT 8000 -SHRA SCT015 FEW020CB BKN035
                        15/14 Q0994=
200804091830 METAR LPPR 091830Z 18009KT 9999 SCT015 FEW020CB SCT035 BKN070
                        15/14 Q0994=
200804091800 METAR LPPR 091800Z 16008KT 9999 -SHRA FEW008 SCT015 FEW020CB
                        BKN040 15/14 Q0994=
200804091730 METAR LPPR 091730Z 15006KT 8000 -SHRA SCT015 FEW020CB BKN040
                        14/14 Q0994=
200804091700 METAR LPPR 091700Z 10005KT 070V130 9999 FEW015 FEW020CB BKN040
                        13/13 Q0994=
200804091630 METAR LPPR 091630Z VRB03KT 8000 -SHRA FEW008 SCT015 FEW020CB
                        BKN035 13/13 Q0995=
200804091600 METAR LPPR 091600Z 31006KT 260V360 8000 -SHRA SCT015 FEW020CB
                        BKN035 13/13 Q0995=
200804091530 METAR LPPR 091530Z VRB06KT 4000 SHRA SCT008 SCT015 FEW020CB
                        BKN030 14/14 Q0994=
200804091500 METAR LPPR 091500Z 08005KT 030V120 8000 -SHRA FEW015 FEW020CB
                        BKN035 13/13 Q0994=
200804091430 METAR LPPR 091430Z 33007KT 280V350 8000 FEW009 SCT015 FEW020CB
                        BKN035 14/13 Q0995=
200804091400 METAR LPPR 091400Z 28006KT 250V320 4000 -SHRA SCT013 FEW020CB
                        BKN030 15/13 Q0995=
200804091330 METAR LPPR 091330Z 25006KT 210V280 9999 FEW009 SCT013 FEW020CB
                        16/13 Q0995=
200804091300 METAR LPPR 091300Z 23007KT 190V260 9999 SCT015 FEW020CB BKN040
                        16/13 Q0995=
200804091230 METAR LPPR 091230Z 23010KT 9999 SCT013 FEW020CB BKN040 16/13
                        Q0995=
200804091200 METAR LPPR 091200Z 23011KT 9999 SCT013 FEW020CB BKN070 16/12
                        Q0995=
200804091130 METAR LPPR 091130Z 22009KT 190V260 9999 FEW009 SCT015 FEW020CB
                        16/13 Q0996=
200804091100 METAR LPPR 091100Z 23009KT 210V270 9999 SCT009 SCT015 FEW020CB
                        15/13 Q0996=
200804091030 METAR LPPR 091030Z 23012KT 200V260 9999 SCT009 SCT013 FEW017TCU
                        15/13 Q0995=
200804091000 METAR LPPR 091000Z 22011KT 190V250 9999 SCT009 SCT014 FEW017TCU
                        15/13 Q0995=
200804090930 METAR LPPR 090930Z 23011KT 200V260 9999 FEW008 SCT013 BKN070
                        15/14 Q0995=
200804090900 METAR LPPR 090900Z 22011KT 190V250 9999 SCT008 SCT012 BKN090
                        15/14 Q0995=
200804090830 METAR LPPR 090830Z 22011KT 190V250 9999 SCT008 BKN015 15/14
                        Q0994=
200804090800 METAR LPPR 090800Z 20015KT 9999 SCT009 SCT015 BKN070 15/14
                        Q0994=
200804090730 METAR LPPR 090730Z 20018KT 9999 BKN008 BKN070 15/14 Q0994=
200804090700 METAR LPPR 090700Z 20018KT 9999 BKN008 BKN012 15/15 Q0993=
200804090630 METAR LPPR 090630Z 20022G35KT 8000 SCT006 BKN008 16/15 Q0993=
200804090600 METAR LPPR 090600Z 19023G36KT 8000 SCT006 SCT009 BKN013 16/15
                        Q0993=
200804090530 METAR LPPR 090530Z 19025G35KT 8000 SCT007 BKN013 16/15 Q0993=
200804090500 METAR LPPR 090500Z 19022KT 8000 SCT007 BKN014 16/15 Q0992=
200804090430 METAR LPPR 090430Z 19023G34KT 9999 SCT007 BKN009 16/15 Q0993=
200804090400 METAR LPPR 090400Z 19023KT 9999 BKN008 SCT011 16/15 Q0993=
200804090330 METAR LPPR 090330Z 19023KT 9999 BKN008 SCT011 16/15 Q0993=
200804090300 METAR LPPR 090300Z 19024G34KT 9999 BKN004 16/15 Q0993=
200804090230 METAR LPPR 090230Z 19025G39KT 9999 SCT005 BKN009 16/15 Q0993
                        WS ALL RWY=
200804090200 METAR LPPR 090200Z 20022G32KT 8000 SCT005 BKN011 16/16 Q0993
                        WS ALL RWY=
200804090130 METAR LPPR 090130Z 19021KT 6000 SHRA SCT005 BKN013 15/15
                        Q0993 WS ALL RWY=
200804090100 METAR LPPR 090100Z 19021KT 9000 SCT004 SCT007 15/15 Q0994
                        WS ALL RWY=
200804090030 METAR LPPR 090030Z 19020G31KT 6000 -RA BKN007 BKN011 15/15
                        Q0994 WS ALL RWY=
200804090000 METAR LPPR 090000Z 19019KT 9999 BKN007 BKN011 16/15 Q0994
                        WS ALL RWY=
200804082330 METAR LPPR 082330Z 19019G29KT 9999 SCT006 SCT008 BKN011 16/15
                        Q0994 WS ALL RWY=
200804082300 METAR LPPR 082300Z 19020KT 9999 SCT005 SCT008 BKN011 16/15
                        Q0994 WS ALL RWY=
200804082230 METAR LPPR 082230Z 20020G30KT 9000 SCT006 BKN008 16/16 Q0993=
200804082200 METAR LPPR 082200Z 20021KT 9999 SCT007 BKN009 16/16 Q0993=
200804082130 METAR LPPR 082130Z 20023G35KT 9999 SCT007 SCT009 BKN012 16/16
                        Q0993=
200804082100 METAR LPPR 082100Z 18020KT 8000 -RA SCT005 SCT008 BKN013
                        16/16 Q0992=
200804082030 METAR LPPR 082030Z 17015KT 9999 SCT007 SCT008 BKN013 15/15
                        Q0992=
200804082000 METAR LPPR 082000Z 16011KT 5000 -RA BR SCT006 BKN009 BKN013
                        14/14 Q0992=
200804081930 METAR LPPR 081930Z 11006KT 080V150 4000 -RA BR SCT006 BKN009
                        13/13 Q0992=
200804081900 METAR LPPR 081900Z 11008KT 5000 RADZ BR BKN009 BKN015 13/13
                        Q0992=
200804081830 METAR LPPR 081830Z 07006KT 040V110 8000 -RA SCT009 BKN020
                        13/13 Q0992=
200804081800 METAR LPPR 081800Z 09005KT 040V140 5000 -RA BR BKN009 BKN025
                        14/13 Q0994=
200804081730 METAR LPPR 081730Z 11007KT 6000 -RA SCT009 BKN030 14/13 Q0994=
200804081700 METAR LPPR 081700Z VRB03KT 8000 -RA FEW009 SCT015 BKN030
                        15/14 Q0995=
200804081630 METAR LPPR 081630Z VRB03KT 7000 -RA FEW009 SCT013 BKN030
                        15/14 Q0995=
200804081600 METAR LPPR 081600Z VRB02KT 6000 RA FEW009 BKN040 BKN070 15/14
                        Q0995=
200804081530 METAR LPPR 081530Z 25005KT 7000 -RA FEW009 BKN040 BKN070
                        16/13 Q0996=
200804081500 METAR LPPR 081500Z VRB03KT 8000 -RA FEW015TCU SCT030 BKN100
                        17/12 Q0996=
200804081430 METAR LPPR 081430Z 22005KT 9999 FEW015 FEW025CB BKN200 17/13
                        Q0997=
200804081400 METAR LPPR 081400Z 20008KT 9999 FEW015 FEW025CB SCT100 BKN250
                        17/12 Q0997=
200804081330 METAR LPPR 081330Z 20009KT 9999 FEW015 FEW025CB BKN200 18/12
                        Q0998=
200804081300 METAR LPPR 081300Z 21011KT 9999 FEW015 FEW025CB BKN200 18/12
                        Q0998=
200804081230 METAR LPPR 081230Z 20014KT 9999 SCT013 FEW025CB BKN080 18/15
                        Q0998=
200804081200 METAR LPPR 081200Z 19017KT 9999 SCT013 FEW020CB BKN060 17/15
                        Q0999=
200804081130 METAR LPPR 081130Z 19018KT 9999 SCT012 FEW018CB BKN250 17/15
                        Q0999=
200804081100 METAR LPPR 081100Z 20018KT 170V230 8000 FEW009 SCT014 FEW020CB
                        16/16 Q0999=
200804081030 METAR LPPR 081030Z 20015KT 6000 -SHRA SCT008 BKN013 FEW020CB
                        15/15 Q0999=
200804081000 METAR LPPR 081000Z 20018KT 9999 SCT015 FEW020CB BKN025 16/14
                        Q0999=
200804080930 METAR LPPR 080930Z 20016KT 9999 FEW009 SCT015 FEW020CB 16/15
                        Q0998=
200804080900 METAR LPPR 080900Z 21015KT 190V260 9000 -SHRA SCT013 FEW020CB
                        BKN060 14/14 Q0998=
200804080830 METAR LPPR 080830Z 21012KT 8000 SCT009 BKN013 FEW020CB 15/14
                        Q0998=
200804080800 METAR LPPR 080800Z 21012G24KT 190V260 8000 -SHRA SCT008 BKN017
                        FEW025CB 14/14 Q0998=
200804080730 METAR LPPR 080730Z 23009KT 180V280 7000 BKN006 BKN017 FEW025CB
                        14/14 Q0998=
200804080700 METAR LPPR 080700Z 23006KT 200V280 6000 -SHRA BKN005 BKN017
                        FEW025CB 14/14 Q0997=
200804080630 METAR LPPR 080630Z 22011KT 180V250 8000 BKN005 BKN017 FEW025CB
                        14/14 Q0997=
200804080600 METAR LPPR 080600Z 23008KT 180V270 6000 -SHRA BKN004 BKN006
                        FEW020CB 14/14 Q0997=
200804080530 METAR LPPR 080530Z 24006KT 210V270 8000 SCT007 SCT017 BKN040
                        14/14 Q0997=
200804080500 METAR LPPR 080500Z 25008KT 220V280 9999 SCT009 BKN017 FEW030CB
                        14/14 Q0996=
200804080430 METAR LPPR 080430Z 23010KT 200V270 4000 -SHRA BKN006 BKN015
                        FEW020CB 14/14 Q0996 WS ALL RWY=
200804080400 METAR LPPR 080400Z 24009KT 210V280 7000 BKN006 BKN009 14/14
                        Q0995 WS ALL RWY=
200804080330 METAR LPPR 080330Z 22011KT 190V250 5000 -RA BKN004 BKN007
                        14/14 Q0995 RERA WS ALL RWY=
200804080300 METAR LPPR 080300Z 21013KT 5000 RA BKN004 BKN007 14/14 Q0994
                        WS ALL RWY=
200804080230 METAR LPPR 080230Z 22013KT 8000 BKN004 BKN007 14/14 Q0994
                        WS ALL RWY=
200804080200 METAR LPPR 080200Z 21017G28KT 8000 BKN004 BKN007 14/14 Q0994
                        WS ALL RWY=
200804080130 METAR LPPR 080130Z 22017G28KT 190V250 8000 SCT005 SCT012
                        BKN020 14/14 Q0994 RERA WS ALL RWY=
200804080100 METAR LPPR 080100Z 22018G30KT 8000 SCT005 SCT012 BKN020 15/13
                        Q0994 WS ALL RWY=
200804080030 METAR LPPR 080030Z 21019G33KT 190V250 6000 SCT005 SCT012
                        BKN020 14/14 Q0994 WS ALL RWY=
200804080000 METAR LPPR 080000Z 21021G33KT 6000 -RA SCT005 SCT012 BKN020
                        14/14 Q0993 RERA WS ALL RWY=
200804072330 METAR LPPR 072330Z 20026KT 5000 SCT005 SCT012 BKN020 14/14
                        Q0993 RERA WS ALL RWY=
200804072300 METAR LPPR 072300Z 20021G33KT 5000 RA SCT005 SCT012 BKN020
                        14/14 Q0993 WS ALL RWY=
200804072230 METAR LPPR 072230Z 20023KT 5000 -SHRA SCT005 SCT012 BKN020
                        14/14 Q0993 WS ALL RWY=
200804072200 METAR LPPR 072200Z 20014G25KT 6000 BKN005 BKN012 13/13 Q0993
                        RERA WS ALL RWY=
200804072130 METAR LPPR 072130Z 20019G33KT 5000 SHRA BKN005 BKN011 FEW025CB
                        14/14 Q0994 WS ALL RWY=
200804072100 METAR LPPR 072100Z 19017G32KT 8000 BKN005 BKN013 FEW025CB
                        14/14 Q0994 WS ALL RWY=
200804072030 METAR LPPR 072030Z 19014KT 6000 -SHRA BKN005 BKN013 FEW025CB
                        14/14 Q0994 WS ALL RWY=
200804072000 METAR LPPR 072000Z 20015KT 6000 -SHRA SCT004 BKN013 FEW025CB
                        14/13 Q0994=
200804071930 METAR LPPR 071930Z 19019KT 8000 -SHRA FEW007 BKN017 FEW025CB
                        15/14 Q0993 WS ALL RWY=
200804071900 METAR LPPR 071900Z 19015KT 9999 FEW010 BKN018 15/13 Q0993=
200804071830 METAR LPPR 071830Z 19016KT 9999 SCT015 BKN040 15/12 Q0994=
200804071800 METAR LPPR 071800Z 21013KT 9999 FEW015 BKN040 15/13 Q0994=
200804071730 METAR LPPR 071730Z 22012KT 190V250 9999 FEW015 SCT020TCU
                        SCT060 15/13 Q0993=
200804071700 METAR LPPR 071700Z 19017KT 9999 SCT013 FEW020TCU BKN060 16/14
                        Q0993=
200804071630 METAR LPPR 071630Z 18020KT 9999 SCT015 BKN060 17/14 Q0994=
200804071600 METAR LPPR 071600Z 18017KT 9999 FEW008 SCT015 BKN060 16/15
                        Q0994=
200804071530 METAR LPPR 071530Z 18016KT 8000 SCT009 BKN015 15/15 Q0994=
200804071500 METAR LPPR 071500Z 18020KT 6000 -RA FEW008 SCT015 OVC060
                        15/15 Q0995=
200804071430 METAR LPPR 071430Z 19014KT 7000 -RA SCT009 SCT015 OVC055
                        15/15 Q0995=
200804071400 METAR LPPR 071400Z 14008KT 100V180 7000 -RA SCT009 SCT015
                        OVC060 15/15 Q0995=
200804071330 METAR LPPR 071330Z 12010KT 6000 -RA SCT009 SCT030 OVC060
                        14/14 Q0996=
200804071300 METAR LPPR 071300Z 12008KT 6000 -RA FEW009 BKN030 OVC060
                        15/14 Q0996=
200804071230 METAR LPPR 071230Z 15011KT 6000 -RA SCT015 OVC060 15/15 Q0997=
200804071200 METAR LPPR 071200Z 17013KT 6000 -RA FEW013 BKN017 15/15 Q0998=
200804071130 METAR LPPR 071130Z 15007KT 7000 -RA FEW013 BKN020 15/13 Q0998=
200804071100 METAR LPPR 071100Z 14006KT 8000 -RA FEW015 BKN030 17/12 Q0998=
200804071030 METAR LPPR 071030Z 13007KT 110V170 9999 FEW015 BKN030 17/12
                        Q0998=
200804071000 METAR LPPR 071000Z 14009KT 110V170 9999 FEW015 BKN030 17/13
                        Q0999=
200804070930 METAR LPPR 070930Z 14009KT 9999 FEW015 BKN030 16/13 Q0999=
200804070900 METAR LPPR 070900Z 16012KT 9999 FEW015 BKN030 16/13 Q0999=
200804070830 METAR LPPR 070830Z 16009KT 9999 FEW013 BKN030 16/13 Q0999=
200804070800 METAR LPPR 070800Z 16011KT 9999 FEW013 BKN030 15/13 Q1000=
200804070730 METAR LPPR 070730Z 17013KT 9999 SCT012 BKN025 15/13 Q1000=
200804070700 METAR LPPR 070700Z 17012KT 9999 FEW013 BKN025 15/14 Q1000=
200804070630 METAR LPPR 070630Z 18011KT 9999 SCT015 BKN025 15/14 Q1000=
200804070600 METAR LPPR 070600Z 17011KT 9999 FEW007 SCT015 BKN020 15/14
                        Q1000=
200804070530 METAR LPPR 070530Z 17010KT 8000 SCT005 BKN008 15/14 Q1000=
200804070500 METAR LPPR 070500Z 18011KT 8000 SCT005 BKN008 15/15 Q1001=
200804070430 METAR LPPR 070430Z 18010KT 7000 SCT004 BKN008 15/15 Q1001=
200804070400 METAR LPPR 070400Z 18011KT 6000 SCT004 BKN007 14/14 Q1001=
200804070330 METAR LPPR 070330Z 18009KT 5000 BR FEW004 SCT008 14/14 Q1001=
200804070300 METAR LPPR 070300Z 19011KT 4000 BR SCT002 BKN005 14/14 Q1002=
200804070230 METAR LPPR 070230Z 18011KT 4000 BR SCT002 BKN005 14/14 Q1002=
200804070200 METAR LPPR 070200Z 17008KT CAVOK 13/12 Q1002=
200804070130 METAR LPPR 070130Z 17005KT CAVOK 13/12 Q1003=
200804070100 METAR LPPR 070100Z 12004KT CAVOK 13/12 Q1003=
200804070030 METAR LPPR 070030Z 16003KT CAVOK 14/13 Q1003=
200804070000 METAR LPPR 070000Z 17008KT CAVOK 13/13 Q1004=
200804062330 METAR LPPR 062330Z 17006KT CAVOK 13/13 Q1004=
200804062300 METAR LPPR 062300Z 17006KT CAVOK 13/13 Q1004=
200804062230 METAR LPPR 062230Z 18004KT CAVOK 13/13 Q1004=
200804062200 METAR LPPR 062200Z 00000KT CAVOK 14/13 Q1004=
200804062130 METAR LPPR 062130Z VRB03KT CAVOK 14/13 Q1004=
200804062100 METAR LPPR 062100Z 22004KT CAVOK 14/12 Q1004=
200804062030 METAR LPPR 062030Z 00000KT CAVOK 14/11 Q1004=
200804062000 METAR LPPR 062000Z 00000KT CAVOK 15/11 Q1004=
200804061930 METAR LPPR 061930Z VRB02KT CAVOK 15/11 Q1004=
200804061900 METAR LPPR 061900Z VRB03KT CAVOK 16/12 Q1004=
200804061830 METAR LPPR 061830Z 34009KT CAVOK 17/13 Q1004=
200804061800 METAR LPPR 061800Z 33009KT CAVOK 17/15 Q1004=
200804061730 METAR LPPR 061730Z 31010KT CAVOK 18/14 Q1005=
200804061700 METAR LPPR 061700Z 31012KT CAVOK 19/14 Q1005=
200804061630 METAR LPPR 061630Z 30010KT CAVOK 20/13 Q1005=
200804061600 METAR LPPR 061600Z 28009KT 260V320 CAVOK 22/09 Q1005=
200804061530 METAR LPPR 061530Z 32008KT CAVOK 23/06 Q1005=
200804061500 METAR LPPR 061500Z 28007KT CAVOK 23/08 Q1005=
200804061430 METAR LPPR 061430Z 30007KT 250V330 CAVOK 24/07 Q1006=
200804061400 METAR LPPR 061400Z 28005KT 260V330 CAVOK 24/09 Q1006=
200804061330 METAR LPPR 061330Z 28007KT 260V320 CAVOK 24/09 Q1006=
200804061300 METAR LPPR 061300Z 29005KT 250V330 CAVOK 24/09 Q1006=
200804061230 METAR LPPR 061230Z VRB03KT CAVOK 24/08 Q1006=
200804061200 METAR LPPR 061200Z VRB02KT CAVOK 23/08 Q1006=
200804061130 METAR LPPR 061130Z VRB02KT CAVOK 23/10 Q1007=
200804061100 METAR LPPR 061100Z 00000KT CAVOK 22/09 Q1007=
200804061030 METAR LPPR 061030Z VRB03KT CAVOK 21/10 Q1007=
200804061000 METAR LPPR 061000Z 04004KT 360V080 CAVOK 20/09 Q1007=
200804060930 METAR LPPR 060930Z VRB03KT CAVOK 19/09 Q1007=
200804060900 METAR LPPR 060900Z VRB03KT CAVOK 18/11 Q1007=
200804060830 METAR LPPR 060830Z 00000KT CAVOK 17/10 Q1007=
200804060800 METAR LPPR 060800Z 00000KT CAVOK 15/10 Q1007=
200804060730 METAR LPPR 060730Z 08003KT CAVOK 13/10 Q1007=
200804060700 METAR LPPR 060700Z VRB02KT CAVOK 11/09 Q1007=
200804060630 METAR LPPR 060630Z 00000KT CAVOK 11/08 Q1007=
200804060600 METAR LPPR 060600Z 00000KT CAVOK 12/09 Q1007=
200804060530 METAR LPPR 060530Z 00000KT CAVOK 13/09 Q1007=
200804060500 METAR LPPR 060500Z VRB03KT CAVOK 14/09 Q1007=
200804060430 METAR LPPR 060430Z 22005KT 170V260 CAVOK 14/09 Q1007=
200804060400 METAR LPPR 060400Z 07004KT 020V100 CAVOK 14/09 Q1007=
200804060330 METAR LPPR 060330Z 11005KT 080V140 CAVOK 15/09 Q1007=
200804060300 METAR LPPR 060300Z VRB02KT CAVOK 15/09 Q1007=
200804060230 METAR LPPR 060230Z 10003KT CAVOK 15/08 Q1007=
200804060200 METAR LPPR 060200Z VRB02KT CAVOK 14/09 Q1007=
200804060130 METAR LPPR 060130Z VRB03KT CAVOK 15/09 Q1008=
200804060100 METAR LPPR 060100Z VRB03KT CAVOK 16/09 Q1008=
200804060030 METAR LPPR 060030Z 09003KT CAVOK 16/09 Q1008=
200804060000 METAR LPPR 060000Z VRB03KT CAVOK 16/09 Q1009=
200804052330 METAR LPPR 052330Z 09004KT 060V120 CAVOK 16/10 Q1009=
200804052300 METAR LPPR 052300Z 11006KT CAVOK 16/10 Q1009=
200804052230 METAR LPPR 052230Z 12006KT CAVOK 16/10 Q1010=
200804052200 METAR LPPR 052200Z 11006KT CAVOK 16/11 Q1010=
200804052130 METAR LPPR 052130Z 10005KT CAVOK 16/11 Q1010=
200804052100 METAR LPPR 052100Z 10004KT CAVOK 17/11 Q1011=
200804052030 METAR LPPR 052030Z 10004KT CAVOK 17/11 Q1011=
200804052000 METAR LPPR 052000Z 11003KT CAVOK 17/12 Q1010=
200804051930 METAR LPPR 051930Z VRB03KT CAVOK 17/12 Q1011=
200804051900 METAR LPPR 051900Z 18004KT CAVOK 18/12 Q1011=
200804051830 METAR LPPR 051830Z 19005KT CAVOK 18/12 Q1011=
200804051800 METAR LPPR 051800Z 22005KT 190V260 CAVOK 18/13 Q1011=
200804051730 METAR LPPR 051730Z 24006KT 210V280 CAVOK 20/12 Q1011=
200804051700 METAR LPPR 051700Z 25009G20KT 150V300 CAVOK 21/10 Q1011=
200804051630 METAR LPPR 051630Z 25010KT 200V330 CAVOK 22/06 Q1011=
200804051600 METAR LPPR 051600Z 29007KT 250V340 CAVOK 24/08 Q1011=
200804051530 METAR LPPR 051530Z 26006KT 210V310 CAVOK 26/03 Q1011=
200804051500 METAR LPPR 051500Z 26007KT CAVOK 26/03 Q1011=
200804051430 METAR LPPR 051430Z 26006KT 230V290 CAVOK 26/04 Q1011=
200804051400 METAR LPPR 051400Z 26007KT CAVOK 27/03 Q1011=
200804051330 METAR LPPR 051330Z VRB03KT CAVOK 28/03 Q1011=
200804051300 METAR LPPR 051300Z 13004KT 090V180 CAVOK 27/M01 Q1011=
200804051230 METAR LPPR 051230Z 14007KT 100V160 CAVOK 26/M00 Q1012=
200804051200 METAR LPPR 051200Z 13009KT CAVOK 26/M00 Q1012=
200804051130 METAR LPPR 051130Z 13008KT 090V160 CAVOK 25/00 Q1012=
200804051100 METAR LPPR 051100Z 11009KT 060V140 CAVOK 24/00 Q1012=
200804051030 METAR LPPR 051030Z 10008KT 060V140 CAVOK 23/02 Q1013=
200804051000 METAR LPPR 051000Z 10011KT 070V130 CAVOK 21/00 Q1013=
200804050930 METAR LPPR 050930Z 10012KT 060V130 CAVOK 21/00 Q1013=
200804050900 METAR LPPR 050900Z 10012KT CAVOK 20/00 Q1013=
200804050830 METAR LPPR 050830Z 10011KT 070V130 CAVOK 19/02 Q1013=
200804050800 METAR LPPR 050800Z 10011KT 070V130 CAVOK 18/02 Q1013=
200804050730 METAR LPPR 050730Z 10010KT CAVOK 17/02 Q1013=
200804050700 METAR LPPR 050700Z 10012KT CAVOK 17/03 Q1013=
200804050630 METAR LPPR 050630Z 10010KT 070V130 CAVOK 17/03 Q1013=
200804050600 METAR LPPR 050600Z 10010KT CAVOK 17/03 Q1013=
200804050530 METAR LPPR 050530Z 10009KT CAVOK 17/03 Q1013=
200804050500 METAR LPPR 050500Z 10007KT 060V120 CAVOK 17/02 Q1013=
200804050430 METAR LPPR 050430Z 11008KT CAVOK 17/02 Q1013=
200804050400 METAR LPPR 050400Z 11009KT CAVOK 17/02 Q1013=
200804050330 METAR LPPR 050330Z 10008KT CAVOK 17/03 Q1013=
200804050300 METAR LPPR 050300Z 12007KT CAVOK 17/03 Q1014=
200804050230 METAR LPPR 050230Z 12007KT CAVOK 17/03 Q1014=
200804050200 METAR LPPR 050200Z 10005KT CAVOK 16/04 Q1014=
200804050130 METAR LPPR 050130Z 11007KT CAVOK 16/05 Q1014=
200804050100 METAR LPPR 050100Z 10005KT CAVOK 15/05 Q1014=
200804050030 METAR LPPR 050030Z 10003KT CAVOK 14/06 Q1014=
200804050000 METAR LPPR 050000Z 09003KT CAVOK 14/05 Q1014=
200804042330 METAR LPPR 042330Z 00000KT CAVOK 14/06 Q1014=
200804042300 METAR LPPR 042300Z 00000KT CAVOK 14/07 Q1015=
200804042230 METAR LPPR 042230Z 00000KT CAVOK 14/07 Q1015=
200804042200 METAR LPPR 042200Z 00000KT CAVOK 15/07 Q1015=
200804042130 METAR LPPR 042130Z 00000KT CAVOK 16/08 Q1015=
200804042100 METAR LPPR 042100Z 00000KT CAVOK 17/07 Q1015=
200804042030 METAR LPPR 042030Z 05002KT CAVOK 17/06 Q1015=
200804042000 METAR LPPR 042000Z 00000KT CAVOK 19/05 Q1015=
200804041930 METAR LPPR 041930Z 00000KT CAVOK 20/04 Q1015=
200804041900 METAR LPPR 041900Z 34003KT CAVOK 21/02 Q1015=
200804041830 METAR LPPR 041830Z 35007KT CAVOK 22/05 Q1015=
200804041800 METAR LPPR 041800Z 33005KT CAVOK 24/06 Q1015=
200804041730 METAR LPPR 041730Z 31006KT CAVOK 25/07 Q1015=
200804041700 METAR LPPR 041700Z 31004KT CAVOK 25/06 Q1015=
200804041630 METAR LPPR 041630Z VRB03KT CAVOK 28/M01 Q1015=
200804041600 METAR LPPR 041600Z VRB03KT CAVOK 28/02 Q1015=
200804041530 METAR LPPR 041530Z 08004KT 350V130 CAVOK 28/M00 Q1016=
200804041500 METAR LPPR 041500Z 08004KT 350V130 CAVOK 28/M00 Q1016=
200804041430 METAR LPPR 041430Z 11005KT 040V150 CAVOK 28/M01 Q1016=
200804041400 METAR LPPR 041400Z 10005KT 040V140 CAVOK 28/M01 Q1017=
200804041330 METAR LPPR 041330Z 09007KT 030V140 CAVOK 27/M01 Q1017=
200804041300 METAR LPPR 041300Z 11008KT 070V140 CAVOK 27/01 Q1017=
200804041230 METAR LPPR 041230Z 10007KT 050V140 CAVOK 26/01 Q1018=
200804041200 METAR LPPR 041200Z 11011KT CAVOK 25/01 Q1018=
200804041130 METAR LPPR 041130Z 10010KT 050V130 CAVOK 24/02 Q1018=
200804041100 METAR LPPR 041100Z 10013KT CAVOK 23/00 Q1018=
200804041030 METAR LPPR 041030Z 10012G23KT 060V130 CAVOK 22/01 Q1018=
200804041000 METAR LPPR 041000Z 10013KT 060V130 CAVOK 21/00 Q1018=
200804040930 METAR LPPR 040930Z 10013KT 070V130 CAVOK 21/M01 Q1018=
200804040900 METAR LPPR 040900Z 10013KT CAVOK 20/M01 Q1018=
200804040830 METAR LPPR 040830Z 10015KT CAVOK 19/M02 Q1018=
200804040800 METAR LPPR 040800Z 10013KT 070V130 CAVOK 18/M02 Q1018=
200804040730 METAR LPPR 040730Z 10011KT CAVOK 18/M03 Q1018=
200804040700 METAR LPPR 040700Z 10010KT CAVOK 17/M02 Q1018=
200804040630 METAR LPPR 040630Z 10009KT CAVOK 16/M02 Q1018=
200804040600 METAR LPPR 040600Z 10009KT CAVOK 16/M02 Q1018=
200804040530 METAR LPPR 040530Z 10008KT CAVOK 16/M03 Q1018=
200804040500 METAR LPPR 040500Z 10008KT CAVOK 17/M03 Q1018=
200804040430 METAR LPPR 040430Z 12007KT 090V150 CAVOK 17/M04 Q1018=
200804040400 METAR LPPR 040400Z 09007KT 060V120 CAVOK 17/M03 Q1017=
200804040330 METAR LPPR 040330Z 10007KT CAVOK 17/M00 Q1018=
200804040300 METAR LPPR 040300Z 11010KT CAVOK 18/M01 Q1018=
200804040230 METAR LPPR 040230Z 10009KT 070V140 CAVOK 19/M02 Q1018=
200804040200 METAR LPPR 040200Z 08008KT 050V110 CAVOK 19/M01 Q1018=
200804040130 METAR LPPR 040130Z 10007KT 070V130 CAVOK 20/M00 Q1018=
200804040100 METAR LPPR 040100Z 09007KT 060V120 CAVOK 20/00 Q1018=
200804040030 METAR LPPR 040030Z 09004KT CAVOK 18/01 Q1019=
200804040000 METAR LPPR 040000Z 03004KT CAVOK 15/06 Q1019=
200804032330 METAR LPPR 032330Z 10004KT CAVOK 19/02 Q1018=
200804032300 METAR LPPR 032300Z 00000KT CAVOK 15/07 Q1018=
200804032230 METAR LPPR 032230Z VRB03KT CAVOK 15/08 Q1019=
200804032200 METAR LPPR 032200Z 34003KT CAVOK 15/10 Q1019=
200804032130 METAR LPPR 032130Z 00000KT CAVOK 18/10 Q1019=
200804032100 METAR LPPR 032100Z 09003KT CAVOK 22/03 Q1019=
200804032030 METAR LPPR 032030Z 08004KT CAVOK 20/04 Q1018=
200804032000 METAR LPPR 032000Z 05002KT CAVOK 20/10 Q1018=
200804031930 METAR LPPR 031930Z 02003KT CAVOK 21/10 Q1018=
200804031900 METAR LPPR 031900Z 35004KT CAVOK 22/11 Q1018=
200804031830 METAR LPPR 031830Z 33005KT CAVOK 24/10 Q1018=
200804031800 METAR LPPR 031800Z 32005KT CAVOK 26/09 Q1018=
200804031730 METAR LPPR 031730Z 29004KT 270V330 CAVOK 27/09 Q1018=
200804031700 METAR LPPR 031700Z 11004KT 020V170 CAVOK 28/01 Q1018=
200804031630 METAR LPPR 031630Z 10006KT 050V150 CAVOK 28/00 Q1018=
200804031600 METAR LPPR 031600Z 11007KT 050V150 CAVOK 28/01 Q1018=
200804031530 METAR LPPR 031530Z 10007KT 060V150 CAVOK 28/03 Q1019=
200804031500 METAR LPPR 031500Z 09006KT 030V150 CAVOK 28/03 Q1019=
200804031430 METAR LPPR 031430Z 11007KT 030V160 CAVOK 28/02 Q1019=
200804031400 METAR LPPR 031400Z 10009KT 010V130 CAVOK 27/03 Q1020=
200804031330 METAR LPPR 031330Z 10009KT 060V140 CAVOK 27/03 Q1020=
200804031300 METAR LPPR 031300Z 11010KT 060V140 CAVOK 26/02 Q1020=
200804031230 METAR LPPR 031230Z 09010KT CAVOK 25/03 Q1021=
200804031200 METAR LPPR 031200Z 09010KT 050V120 CAVOK 25/02 Q1021=
200804031130 METAR LPPR 031130Z 11012KT CAVOK 24/02 Q1021=
200804031100 METAR LPPR 031100Z 10013KT 070V130 CAVOK 23/03 Q1022=
200804031030 METAR LPPR 031030Z 10013KT 060V120 CAVOK 22/02 Q1022=
200804031000 METAR LPPR 031000Z 11014KT 070V140 CAVOK 20/03 Q1022=
200804030930 METAR LPPR 030930Z 11013KT 070V140 CAVOK 20/03 Q1022=
200804030900 METAR LPPR 030900Z 10013KT 070V130 CAVOK 19/04 Q1022=
200804030830 METAR LPPR 030830Z 10013KT 070V130 CAVOK 19/04 Q1022=
200804030800 METAR LPPR 030800Z 11011KT 070V140 CAVOK 18/05 Q1022=
200804030730 METAR LPPR 030730Z 11011KT CAVOK 18/04 Q1022=
200804030700 METAR LPPR 030700Z 11010KT 080V140 CAVOK 17/04 Q1022=
200804030630 METAR LPPR 030630Z 11008KT CAVOK 17/04 Q1021=
200804030600 METAR LPPR 030600Z 11007KT CAVOK 17/05 Q1021=
200804030530 METAR LPPR 030530Z 10008KT 070V130 CAVOK 17/05 Q1021=
200804030500 METAR LPPR 030500Z 10007KT 050V130 CAVOK 17/06 Q1021=
200804030430 METAR LPPR 030430Z 10007KT CAVOK 17/07 Q1021=
200804030400 METAR LPPR 030400Z 10006KT CAVOK 16/08 Q1021=
200804030330 METAR LPPR 030330Z 10006KT 060V120 CAVOK 17/08 Q1022=
200804030300 METAR LPPR 030300Z 08006KT 050V110 CAVOK 18/08 Q1022=
200804030230 METAR LPPR 030230Z 07005KT 040V100 CAVOK 18/09 Q1022=
200804030200 METAR LPPR 030200Z 10005KT CAVOK 18/09 Q1022=
200804030130 METAR LPPR 030130Z 10005KT 060V130 CAVOK 19/09 Q1022=
200804030100 METAR LPPR 030100Z 09004KT 060V120 CAVOK 18/09 Q1022=
200804030030 METAR LPPR 030030Z 08004KT CAVOK 17/10 Q1022=
200804030000 METAR LPPR 030000Z 08003KT CAVOK 18/10 Q1023=
200804022330 METAR LPPR 022330Z 06005KT 020V090 CAVOK 18/11 Q1023=
200804022300 METAR LPPR 022300Z 06004KT 030V090 CAVOK 16/11 Q1023=
200804022230 METAR LPPR 022230Z 00000KT CAVOK 14/10 Q1023=
200804022200 METAR LPPR 022200Z 00000KT CAVOK 14/10 Q1023=
200804022130 METAR LPPR 022130Z 02004KT CAVOK 14/09 Q1023=
200804022100 METAR LPPR 022100Z 00000KT CAVOK 15/09 Q1023=
200804022030 METAR LPPR 022030Z 00000KT CAVOK 15/09 Q1023=
200804022000 METAR LPPR 022000Z 34004KT CAVOK 15/09 Q1023=
200804021930 METAR LPPR 021930Z 34005KT CAVOK 16/09 Q1023=
200804021900 METAR LPPR 021900Z 34009KT CAVOK 18/09 Q1023=
200804021830 METAR LPPR 021830Z 35010KT CAVOK 20/09 Q1023=
200804021800 METAR LPPR 021800Z 35010KT CAVOK 21/09 Q1023=
200804021730 METAR LPPR 021730Z 34012KT CAVOK 22/08 Q1023=
200804021700 METAR LPPR 021700Z 34011KT CAVOK 22/11 Q1023=
200804021630 METAR LPPR 021630Z 32008KT CAVOK 23/11 Q1023=
200804021600 METAR LPPR 021600Z 32009KT CAVOK 23/11 Q1023=
200804021530 METAR LPPR 021530Z 32009KT 280V340 CAVOK 23/12 Q1024=
200804021500 METAR LPPR 021500Z 30008KT CAVOK 23/11 Q1024=
200804021430 METAR LPPR 021430Z 31008KT 270V350 CAVOK 23/13 Q1024=
200804021400 METAR LPPR 021400Z VRB03KT CAVOK 24/12 Q1025=
200804021330 METAR LPPR 021330Z VRB03KT CAVOK 24/11 Q1025=
200804021300 METAR LPPR 021300Z 09005KT 050V150 CAVOK 23/10 Q1026=
200804021230 METAR LPPR 021230Z 11006KT 070V140 CAVOK 23/10 Q1026=
200804021200 METAR LPPR 021200Z 09006KT 030V170 CAVOK 22/10 Q1026=
200804021130 METAR LPPR 021130Z 11007KT 070V150 CAVOK 22/11 Q1026=
200804021100 METAR LPPR 021100Z 08006KT 030V110 CAVOK 21/11 Q1027=
200804021030 METAR LPPR 021030Z 11007KT 060V130 CAVOK 20/11 Q1027=
200804021000 METAR LPPR 021000Z 10007KT 050V150 CAVOK 19/11 Q1027=
200804020930 METAR LPPR 020930Z 11007KT 070V140 CAVOK 18/10 Q1027=
200804020900 METAR LPPR 020900Z 11006KT 060V140 CAVOK 17/10 Q1027=
200804020830 METAR LPPR 020830Z 10007KT 060V130 CAVOK 16/10 Q1027=
200804020800 METAR LPPR 020800Z 10005KT 060V140 CAVOK 16/09 Q1027=
200804020730 METAR LPPR 020730Z 11005KT 080V140 CAVOK 15/09 Q1027=
200804020700 METAR LPPR 020700Z 10004KT 060V130 CAVOK 14/08 Q1027=
200804020630 METAR LPPR 020630Z 09004KT CAVOK 13/08 Q1027=
200804020600 METAR LPPR 020600Z 08004KT 050V120 CAVOK 13/08 Q1027=
200804020530 METAR LPPR 020530Z 10007KT CAVOK 14/08 Q1027=
200804020500 METAR LPPR 020500Z 09005KT CAVOK 13/08 Q1027=
200804020430 METAR LPPR 020430Z 09004KT CAVOK 13/08 Q1027=
200804020400 METAR LPPR 020400Z 09004KT CAVOK 13/09 Q1027=
200804020330 METAR LPPR 020330Z 10003KT CAVOK 13/09 Q1027=
200804020300 METAR LPPR 020300Z 09003KT CAVOK 14/09 Q1027=
200804020230 METAR LPPR 020230Z 09004KT CAVOK 15/09 Q1027=
200804020200 METAR LPPR 020200Z 09004KT 060V120 CAVOK 15/09 Q1027=
200804020130 METAR LPPR 020130Z 10005KT CAVOK 14/11 Q1027=
200804020100 METAR LPPR 020100Z 10005KT CAVOK 14/11 Q1027=
200804020030 METAR LPPR 020030Z 10004KT CAVOK 13/12 Q1027=
200804020000 METAR LPPR 020000Z 04002KT CAVOK 11/11 Q1027=
200804012330 METAR LPPR 012330Z 02002KT CAVOK 12/10 Q1027=
200804012300 METAR LPPR 012300Z 12003KT CAVOK 12/12 Q1027=
200804012230 METAR LPPR 012230Z 00000KT CAVOK 11/11 Q1027=
200804012200 METAR LPPR 012200Z 00000KT CAVOK 12/11 Q1027=
200804012130 METAR LPPR 012130Z 35003KT CAVOK 12/11 Q1027=
200804012100 METAR LPPR 012100Z 35004KT CAVOK 13/12 Q1027=
200804012030 METAR LPPR 012030Z 35003KT CAVOK 13/12 Q1027=
200804012000 METAR LPPR 012000Z 34003KT CAVOK 13/11 Q1027=
200804011930 METAR LPPR 011930Z VRB03KT CAVOK 14/12 Q1027=
200804011900 METAR LPPR 011900Z 34006KT CAVOK 15/12 Q1027=
200804011830 METAR LPPR 011830Z 33009KT CAVOK 16/12 Q1027=
200804011800 METAR LPPR 011800Z 33011KT CAVOK 17/13 Q1027=
200804011730 METAR LPPR 011730Z 33010KT CAVOK 18/12 Q1027=
200804011700 METAR LPPR 011700Z 33012KT CAVOK 19/12 Q1027=
200804011630 METAR LPPR 011630Z 33010KT CAVOK 19/12 Q1027=
200804011600 METAR LPPR 011600Z 33010KT CAVOK 19/12 Q1027=
200804011530 METAR LPPR 011530Z 32011KT CAVOK 19/12 Q1028=
200804011500 METAR LPPR 011500Z 32011KT CAVOK 19/13 Q1028=
200804011430 METAR LPPR 011430Z 32012KT CAVOK 18/12 Q1028=
200804011400 METAR LPPR 011400Z 32014KT CAVOK 18/12 Q1028=
200804011330 METAR LPPR 011330Z 32013KT CAVOK 18/13 Q1029=
200804011300 METAR LPPR 011300Z 32012KT CAVOK 18/13 Q1029=
200804011230 METAR LPPR 011230Z 31011KT 9999 FEW017 18/13 Q1029=
200804011200 METAR LPPR 011200Z 35009KT 330V040 9999 FEW017 19/10 Q1030=
200804011130 METAR LPPR 011130Z 36010KT 320V040 9999 FEW017 18/10 Q1030=
200804011100 METAR LPPR 011100Z 02009KT 330V050 9999 FEW017 18/10 Q1030=
200804011030 METAR LPPR 011030Z 35007KT 290V040 9999 FEW017 17/11 Q1030=
200804011000 METAR LPPR 011000Z 36007KT 320V040 9999 FEW017 16/11 Q1030=
200804010930 METAR LPPR 010930Z 36005KT 9999 FEW015 15/10 Q1030=
200804010900 METAR LPPR 010900Z 03006KT 360V060 9999 FEW035 14/10 Q1031=
200804010830 METAR LPPR 010830Z 03005KT 360V060 9999 FEW035 13/10 Q1030=
200804010800 METAR LPPR 010800Z 04005KT 360V060 9999 FEW040 11/10 Q1030=
200804010730 METAR LPPR 010730Z VRB03KT 9999 SCT040 08/08 Q1030=
200804010700 METAR LPPR 010700Z 03004KT 9999 FEW040 07/07 Q1030=
200804010630 METAR LPPR 010630Z 00000KT 9999 FEW030 07/07 Q1030=
200804010600 METAR LPPR 010600Z 07004KT 040V110 9999 FEW030 08/08 Q1030=
200804010530 METAR LPPR 010530Z 13004KT 9999 FEW030 07/07 Q1030=
200804010500 METAR LPPR 010500Z 00000KT 9999 FEW030 07/07 Q1030=
200804010430 METAR LPPR 010430Z VRB02KT 9999 FEW030 08/08 Q1030=
200804010400 METAR LPPR 010400Z 06002KT CAVOK 08/08 Q1030=
200804010330 METAR LPPR 010330Z VRB03KT CAVOK 09/09 Q1030=
200804010300 METAR LPPR 010300Z 08002KT CAVOK 08/08 Q1030=
200804010230 METAR LPPR 010230Z 00000KT CAVOK 08/08 Q1030=
200804010200 METAR LPPR 010200Z VRB02KT CAVOK 09/09 Q1030=
200804010130 METAR LPPR 010130Z 00000KT CAVOK 08/08 Q1030=
200804010100 METAR LPPR 010100Z 00000KT CAVOK 09/09 Q1030=
200804010030 METAR LPPR 010030Z 00000KT CAVOK 09/09 Q1030=
200804010000 METAR LPPR 010000Z 00000KT CAVOK 09/09 Q1031=
