##########################################################
# Query made at 11/07/2014 15:57:42 UTC
# Time interval: from 08/01/2010 00:00  to 08/31/2010 23:59  UTC
##########################################################

##########################################################
# LPPR, Porto / Pedras Rubras (Portugal)
# WMO index: 08545
# Latitude 41-14N. Longitude 008-41W. Altitude 69 m.
##########################################################

###################################
#  METAR/SPECI from LPPR
###################################
201008312330 METAR LPPR 312330Z VRB03KT 7000 SCT002 BKN004 20/20 Q1008=
201008312300 METAR LPPR 312300Z 23003KT 8000 SCT004 BKN007 20/19 Q1008=
201008312230 METAR LPPR 312230Z 00000KT 8000 SCT090 21/19 Q1008=
201008312200 METAR LPPR 312200Z 23003KT 8000 SCT130 21/20 Q1008=
201008312130 METAR LPPR 312130Z 21004KT CAVOK 22/19 Q1008=
201008312100 METAR LPPR 312100Z VRB03KT CAVOK 22/17 Q1008=
201008312030 METAR LPPR 312030Z 00000KT CAVOK 23/16 Q1008=
201008312000 METAR LPPR 312000Z 21002KT CAVOK 23/16 Q1008=
201008311930 METAR LPPR 311930Z 00000KT CAVOK 24/15 Q1008=
201008311900 METAR LPPR 311900Z 25001KT CAVOK 25/15 Q1008=
201008311830 METAR LPPR 311830Z VRB02KT 9999 FEW030TCU SCT130 27/14 Q1008=
201008311800 METAR LPPR 311800Z 24006KT 9999 FEW030TCU SCT130 28/12 Q1008=
201008311730 METAR LPPR 311730Z 22005KT 190V260 9999 FEW030CB SCT120 BKN250
                        31/09 Q1008=
201008311700 METAR LPPR 311700Z 22006KT 180V270 9999 FEW030CB SCT120 BKN250
                        31/08 Q1007=
201008311630 METAR LPPR 311630Z 21007KT 180V260 9999 FEW030CB SCT070 BKN250
                        32/09 Q1007=
201008311600 METAR LPPR 311600Z 17007KT 9999 FEW030CB BKN070 31/11 Q1008=
201008311530 METAR LPPR 311530Z 17005KT 130V200 9999 -SHRA FEW030CB BKN080
                        30/12 Q1008=
201008311500 METAR LPPR 311500Z 18008KT 9999 TS SCT030CB BKN080 28/18
                        Q1008=
201008311430 METAR LPPR 311430Z 19005KT 9999 -SHRA SCT030CB SCT070 BKN140
                        30/11 Q1008=
201008311400 METAR LPPR 311400Z 23005KT 180V260 9999 SCT020 FEW025CB BKN250
                        30/12 Q1008=
201008311330 METAR LPPR 311330Z 25008KT 9999 FEW020 FEW025CB BKN250 32/14
                        Q1007=
201008311300 METAR LPPR 311300Z VRB01KT 9999 FEW020 FEW025CB BKN250 37/07
                        Q1007=
201008311230 METAR LPPR 311230Z 10005KT 030V160 9999 FEW025TCU BKN100
                        36/07 Q1007=
201008311200 METAR LPPR 311200Z 09007KT 050V140 9999 FEW020 SCT030TCU
                        BKN100 36/08 Q1007=
201008311130 METAR LPPR 311130Z 08007KT 030V140 9999 FEW020 SCT100 BKN250
                        35/08 Q1008=
201008311100 METAR LPPR 311100Z 08005KT 020V120 9999 FEW020 SCT100 BKN250
                        33/08 Q1008=
201008311030 METAR LPPR 311030Z 09005KT 040V150 9999 FEW020 SCT100 BKN250
                        32/08 Q1008=
201008311000 METAR LPPR 311000Z 10007KT 070V130 9999 FEW020 SCT100 BKN250
                        30/07 Q1008=
201008310930 METAR LPPR 310930Z 10007KT 060V140 9999 FEW020 SCT100 BKN250
                        29/07 Q1008=
201008310900 METAR LPPR 310900Z 09007KT 050V130 8000 FEW100 BKN250 29/07
                        Q1008=
201008310830 METAR LPPR 310830Z 09004KT 030V130 5000 FU FEW100 BKN250
                        27/07 Q1008=
201008310800 METAR LPPR 310800Z 04003KT 5000 FU FEW100 BKN250 25/09 Q1008=
201008310730 METAR LPPR 310730Z 00000KT CAVOK 25/08 Q1008=
201008310700 METAR LPPR 310700Z 07002KT CAVOK 25/08 Q1008=
201008310630 METAR LPPR 310630Z 00000KT CAVOK 25/10 Q1008=
201008310600 METAR LPPR 310600Z 00000KT CAVOK 24/08 Q1008=
201008310530 METAR LPPR 310530Z VRB03KT CAVOK 27/06 Q1008=
201008310500 METAR LPPR 310500Z 10008KT CAVOK 29/05 Q1007=
201008310430 METAR LPPR 310430Z 10009KT CAVOK 29/06 Q1007=
201008310400 METAR LPPR 310400Z 11008KT CAVOK 29/07 Q1007=
201008310330 METAR LPPR 310330Z 10006KT CAVOK 28/08 Q1007=
201008310300 METAR LPPR 310300Z 11007KT CAVOK 29/10 Q1008=
201008310230 METAR LPPR 310230Z 10009KT CAVOK 29/09 Q1008=
201008310200 METAR LPPR 310200Z 10007KT 4000 FU BKN250 28/11 Q1008=
201008310130 METAR LPPR 310130Z 10007KT 5000 FU BKN250 28/12 Q1008=
201008310100 METAR LPPR 310100Z 09005KT 5000 FU BKN250 26/13 Q1009=
201008310030 METAR LPPR 310030Z 08003KT CAVOK 26/12 Q1009=
201008310000 METAR LPPR 310000Z 09003KT CAVOK 26/12 Q1009=
201008302330 METAR LPPR 302330Z 09003KT CAVOK 24/11 Q1010=
201008302300 METAR LPPR 302300Z 00000KT CAVOK 22/11 Q1010=
201008302230 METAR LPPR 302230Z 00000KT CAVOK 21/13 Q1010=
201008302200 METAR LPPR 302200Z 02001KT CAVOK 22/13 Q1010=
201008302130 METAR LPPR 302130Z 00000KT CAVOK 24/11 Q1010=
201008302100 METAR LPPR 302100Z 00000KT CAVOK 25/09 Q1010=
201008302030 METAR LPPR 302030Z 00000KT CAVOK 25/09 Q1010=
201008302000 METAR LPPR 302000Z 00000KT CAVOK 25/09 Q1010=
201008301930 METAR LPPR 301930Z 34006KT CAVOK 26/09 Q1010=
201008301900 METAR LPPR 301900Z 34006KT CAVOK 28/10 Q1011=
201008301830 METAR LPPR 301830Z 33006KT CAVOK 30/11 Q1011=
201008301800 METAR LPPR 301800Z 33007KT CAVOK 31/11 Q1011=
201008301730 METAR LPPR 301730Z 32006KT CAVOK 31/11 Q1011=
201008301700 METAR LPPR 301700Z 31007KT 280V350 CAVOK 32/11 Q1011=
201008301630 METAR LPPR 301630Z 32009KT 290V350 CAVOK 33/11 Q1011=
201008301600 METAR LPPR 301600Z 31009KT CAVOK 33/11 Q1012=
201008301530 METAR LPPR 301530Z 32009KT CAVOK 33/10 Q1012=
201008301500 METAR LPPR 301500Z 32011KT CAVOK 32/09 Q1012=
201008301430 METAR LPPR 301430Z 31010KT CAVOK 34/11 Q1013=
201008301400 METAR LPPR 301400Z VRB06KT CAVOK 35/14 Q1013=
201008301330 METAR LPPR 301330Z 29006KT 9000 FEW250 34/15 Q1013=
201008301300 METAR LPPR 301300Z 26007KT 8000 FEW250 34/14 Q1013=
201008301230 METAR LPPR 301230Z 26006KT 220V290 8000 FEW250 34/14 Q1014=
201008301200 METAR LPPR 301200Z VRB01KT 8000 FEW250 36/11 Q1014=
201008301130 METAR LPPR 301130Z VRB03KT 8000 FEW250 35/10 Q1014=
201008301100 METAR LPPR 301100Z VRB03KT 8000 FEW250 34/10 Q1014=
201008301030 METAR LPPR 301030Z 08005KT 050V130 8000 FEW250 32/10 Q1015=
201008301000 METAR LPPR 301000Z 09006KT 040V120 8000 FEW250 31/11 Q1015=
201008300930 METAR LPPR 300930Z 08005KT 040V130 8000 FEW250 30/11 Q1015=
201008300900 METAR LPPR 300900Z VRB03KT 8000 FEW250 29/11 Q1015=
201008300830 METAR LPPR 300830Z VRB02KT 8000 FEW250 27/12 Q1015=
201008300800 METAR LPPR 300800Z VRB01KT 8000 FEW250 24/15 Q1015=
201008300730 METAR LPPR 300730Z 00000KT 8000 FEW250 20/16 Q1015=
201008300700 METAR LPPR 300700Z 00000KT 8000 FEW250 19/14 Q1015=
201008300630 METAR LPPR 300630Z 00000KT 8000 FEW250 20/14 Q1014=
201008300600 METAR LPPR 300600Z 00000KT 8000 FEW250 18/14 Q1014=
201008300530 METAR LPPR 300530Z 00000KT CAVOK 19/14 Q1014=
201008300500 METAR LPPR 300500Z 00000KT CAVOK 21/13 Q1014=
201008300430 METAR LPPR 300430Z 09003KT CAVOK 22/14 Q1014=
201008300400 METAR LPPR 300400Z 09006KT CAVOK 22/14 Q1014=
201008300330 METAR LPPR 300330Z 11003KT CAVOK 19/13 Q1015=
201008300300 METAR LPPR 300300Z 00000KT CAVOK 19/14 Q1015=
201008300230 METAR LPPR 300230Z 00000KT CAVOK 19/13 Q1015=
201008300200 METAR LPPR 300200Z 00000KT CAVOK 18/14 Q1015=
201008300130 METAR LPPR 300130Z 00000KT CAVOK 18/14 Q1015=
201008300100 METAR LPPR 300100Z 00000KT CAVOK 18/15 Q1015=
201008300030 METAR LPPR 300030Z 00000KT CAVOK 18/16 Q1016=
201008300000 METAR LPPR 300000Z 00000KT CAVOK 18/15 Q1016=
201008292330 METAR LPPR 292330Z 00000KT CAVOK 18/16 Q1016=
201008292300 METAR LPPR 292300Z 00000KT CAVOK 19/16 Q1016=
201008292230 METAR LPPR 292230Z 00000KT CAVOK 19/16 Q1016=
201008292200 METAR LPPR 292200Z 00000KT CAVOK 20/15 Q1016=
201008292130 METAR LPPR 292130Z VRB02KT CAVOK 21/14 Q1016=
201008292100 METAR LPPR 292100Z 00000KT CAVOK 21/13 Q1016=
201008292030 METAR LPPR 292030Z 00000KT CAVOK 21/14 Q1016=
201008292000 METAR LPPR 292000Z 34004KT CAVOK 22/14 Q1015=
201008291930 METAR LPPR 291930Z 32005KT CAVOK 23/14 Q1015=
201008291900 METAR LPPR 291900Z 32005KT CAVOK 26/13 Q1015=
201008291830 METAR LPPR 291830Z 33005KT CAVOK 27/14 Q1015=
201008291800 METAR LPPR 291800Z 33007KT 280V350 CAVOK 27/14 Q1015=
201008291730 METAR LPPR 291730Z 32007KT 7000 SKC 28/14 Q1015=
201008291700 METAR LPPR 291700Z 32009KT CAVOK 29/13 Q1015=
201008291630 METAR LPPR 291630Z 32010KT 280V350 CAVOK 30/12 Q1016=
201008291600 METAR LPPR 291600Z 33010KT 280V350 CAVOK 30/12 Q1016=
201008291530 METAR LPPR 291530Z 32011KT CAVOK 30/12 Q1016=
201008291500 METAR LPPR 291500Z 32011KT CAVOK 30/12 Q1016=
201008291430 METAR LPPR 291430Z 30010KT CAVOK 30/12 Q1016=
201008291400 METAR LPPR 291400Z 31010KT CAVOK 29/13 Q1016=
201008291330 METAR LPPR 291330Z 29008KT 260V330 CAVOK 30/13 Q1016=
201008291300 METAR LPPR 291300Z 28006KT 260V340 CAVOK 30/16 Q1016=
201008291230 METAR LPPR 291230Z 28007KT CAVOK 30/17 Q1017=
201008291200 METAR LPPR 291200Z 29005KT 250V310 CAVOK 29/17 Q1017=
201008291130 METAR LPPR 291130Z 27006KT CAVOK 29/17 Q1017=
201008291100 METAR LPPR 291100Z VRB03KT 5000 FU SKC 31/10 Q1017=
201008291030 METAR LPPR 291030Z VRB03KT CAVOK 30/11 Q1017=
201008291000 METAR LPPR 291000Z VRB01KT CAVOK 30/12 Q1017=
201008290930 METAR LPPR 290930Z VRB01KT CAVOK 28/13 Q1017=
201008290900 METAR LPPR 290900Z VRB03KT CAVOK 27/13 Q1016=
201008290830 METAR LPPR 290830Z 00000KT CAVOK 26/15 Q1016=
201008290800 METAR LPPR 290800Z VRB02KT CAVOK 24/16 Q1016=
201008290730 METAR LPPR 290730Z 00000KT CAVOK 21/18 Q1016=
201008290700 METAR LPPR 290700Z 00000KT CAVOK 17/16 Q1016=
201008290630 METAR LPPR 290630Z 00000KT CAVOK 17/15 Q1016=
201008290600 METAR LPPR 290600Z 00000KT CAVOK 18/16 Q1015=
201008290530 METAR LPPR 290530Z 08004KT CAVOK 18/17 Q1015=
201008290500 METAR LPPR 290500Z 00000KT CAVOK 18/16 Q1015=
201008290430 METAR LPPR 290430Z 15002KT CAVOK 18/16 Q1015=
201008290400 METAR LPPR 290400Z 00000KT CAVOK 18/16 Q1015=
201008290330 METAR LPPR 290330Z VRB02KT CAVOK 19/16 Q1015=
201008290300 METAR LPPR 290300Z VRB01KT CAVOK 20/16 Q1015=
201008290230 METAR LPPR 290230Z 00000KT CAVOK 21/16 Q1015=
201008290200 METAR LPPR 290200Z 10005KT CAVOK 21/17 Q1015=
201008290130 METAR LPPR 290130Z 00000KT CAVOK 19/16 Q1015=
201008290100 METAR LPPR 290100Z 00000KT CAVOK 19/17 Q1015=
201008290030 METAR LPPR 290030Z 00000KT CAVOK 18/16 Q1015=
201008290000 METAR LPPR 290000Z 02001KT CAVOK 19/17 Q1016=
201008282330 METAR LPPR 282330Z 36001KT CAVOK 19/17 Q1016=
201008282300 METAR LPPR 282300Z 00000KT CAVOK 19/17 Q1016=
201008282230 METAR LPPR 282230Z 00000KT CAVOK 20/17 Q1016=
201008282200 METAR LPPR 282200Z 00000KT CAVOK 19/17 Q1016=
201008282130 METAR LPPR 282130Z 00000KT CAVOK 19/17 Q1016=
201008282100 METAR LPPR 282100Z 00000KT CAVOK 20/17 Q1016=
201008282030 METAR LPPR 282030Z 00000KT CAVOK 21/17 Q1016=
201008282000 METAR LPPR 282000Z 00000KT CAVOK 22/17 Q1016=
201008281930 METAR LPPR 281930Z 35003KT CAVOK 23/16 Q1016=
201008281900 METAR LPPR 281900Z 33007KT CAVOK 24/16 Q1016=
201008281830 METAR LPPR 281830Z 33008KT CAVOK 25/16 Q1016=
201008281800 METAR LPPR 281800Z 33012KT CAVOK 26/16 Q1016=
201008281730 METAR LPPR 281730Z 34011KT CAVOK 27/15 Q1016=
201008281700 METAR LPPR 281700Z 33011KT CAVOK 27/14 Q1016=
201008281630 METAR LPPR 281630Z 33012KT CAVOK 27/13 Q1016=
201008281600 METAR LPPR 281600Z 32012KT CAVOK 27/14 Q1016=
201008281530 METAR LPPR 281530Z 32012KT CAVOK 27/14 Q1017=
201008281500 METAR LPPR 281500Z 32012KT CAVOK 27/13 Q1017=
201008281430 METAR LPPR 281430Z 32010KT CAVOK 27/14 Q1017=
201008281400 METAR LPPR 281400Z 31010G20KT 270V340 CAVOK 27/15 Q1017=
201008281330 METAR LPPR 281330Z 32010KT 290V350 CAVOK 27/15 Q1018=
201008281300 METAR LPPR 281300Z 30009KT 270V340 CAVOK 27/15 Q1018=
201008281230 METAR LPPR 281230Z 31008G20KT 260V350 CAVOK 26/16 Q1018=
201008281200 METAR LPPR 281200Z 32008KT CAVOK 26/16 Q1018=
201008281130 METAR LPPR 281130Z 28006KT 250V330 CAVOK 26/17 Q1018=
201008281100 METAR LPPR 281100Z 28007KT 230V340 CAVOK 26/17 Q1018=
201008281030 METAR LPPR 281030Z VRB02KT CAVOK 26/15 Q1018=
201008281000 METAR LPPR 281000Z 03004KT 350V070 CAVOK 25/15 Q1018=
201008280930 METAR LPPR 280930Z VRB03KT CAVOK 25/16 Q1018=
201008280900 METAR LPPR 280900Z VRB02KT CAVOK 23/17 Q1018=
201008280830 METAR LPPR 280830Z VRB03KT CAVOK 21/17 Q1018=
201008280800 METAR LPPR 280800Z 00000KT CAVOK 20/16 Q1018=
201008280730 METAR LPPR 280730Z 00000KT CAVOK 17/17 Q1018=
201008280700 METAR LPPR 280700Z 00000KT CAVOK 15/14 Q1018=
201008280630 METAR LPPR 280630Z 34002KT CAVOK 14/13 Q1018=
201008280600 METAR LPPR 280600Z 00000KT CAVOK 15/14 Q1018=
201008280530 METAR LPPR 280530Z VRB03KT CAVOK 15/15 Q1018=
201008280500 METAR LPPR 280500Z 00000KT CAVOK 14/14 Q1018=
201008280430 METAR LPPR 280430Z 00000KT CAVOK 14/14 Q1017=
201008280400 METAR LPPR 280400Z 00000KT CAVOK 15/14 Q1018=
201008280330 METAR LPPR 280330Z 00000KT CAVOK 14/14 Q1018=
201008280300 METAR LPPR 280300Z 00000KT CAVOK 15/14 Q1018=
201008280230 METAR LPPR 280230Z VRB02KT CAVOK 15/14 Q1018=
201008280200 METAR LPPR 280200Z 00000KT CAVOK 15/14 Q1018=
201008280130 METAR LPPR 280130Z 00000KT CAVOK 15/14 Q1018=
201008280100 METAR LPPR 280100Z 00000KT CAVOK 15/15 Q1018=
201008280030 METAR LPPR 280030Z 00000KT CAVOK 15/15 Q1019=
201008280000 METAR LPPR 280000Z 00000KT CAVOK 16/15 Q1019=
201008272330 METAR LPPR 272330Z 00000KT CAVOK 16/16 Q1019=
201008272300 METAR LPPR 272300Z 02001KT CAVOK 17/16 Q1019=
201008272230 METAR LPPR 272230Z 36004KT 350V050 CAVOK 17/16 Q1019=
201008272200 METAR LPPR 272200Z 36005KT CAVOK 18/16 Q1019=
201008272130 METAR LPPR 272130Z 35006KT CAVOK 18/16 Q1019=
201008272100 METAR LPPR 272100Z 34006KT CAVOK 18/16 Q1019=
201008272030 METAR LPPR 272030Z 33009KT 290V350 CAVOK 18/16 Q1019=
201008272000 METAR LPPR 272000Z 35006KT CAVOK 19/15 Q1019=
201008271930 METAR LPPR 271930Z 34010KT CAVOK 19/15 Q1018=
201008271900 METAR LPPR 271900Z 33010KT CAVOK 20/15 Q1018=
201008271830 METAR LPPR 271830Z 32008KT CAVOK 21/15 Q1019=
201008271800 METAR LPPR 271800Z 32010KT CAVOK 22/15 Q1019=
201008271730 METAR LPPR 271730Z 32012KT CAVOK 22/15 Q1019=
201008271700 METAR LPPR 271700Z 32015KT CAVOK 23/15 Q1019=
201008271630 METAR LPPR 271630Z 32013KT CAVOK 23/15 Q1019=
201008271600 METAR LPPR 271600Z 32014KT CAVOK 23/15 Q1019=
201008271530 METAR LPPR 271530Z 32013KT 290V030 CAVOK 24/15 Q1019=
201008271500 METAR LPPR 271500Z 32012KT 290V360 CAVOK 24/16 Q1019=
201008271430 METAR LPPR 271430Z 30010KT 270V330 CAVOK 24/16 Q1019=
201008271400 METAR LPPR 271400Z 32010KT 290V360 9999 FEW017 24/16 Q1020=
201008271330 METAR LPPR 271330Z 31009KT 9999 FEW017 24/16 Q1020=
201008271300 METAR LPPR 271300Z 32010KT 9999 FEW017 24/16 Q1020=
201008271230 METAR LPPR 271230Z 30008KT 260V340 9999 FEW017 24/17 Q1020=
201008271200 METAR LPPR 271200Z 29008KT 260V320 9999 FEW017 23/17 Q1020=
201008271130 METAR LPPR 271130Z 29008KT 260V350 9999 FEW017 23/17 Q1020=
201008271100 METAR LPPR 271100Z 29005KT 250V010 9999 SCT017 24/18 Q1019=
201008271030 METAR LPPR 271030Z 30005KT 240V360 9999 SCT015 23/18 Q1019=
201008271000 METAR LPPR 271000Z 32005KT 280V360 9999 BKN015 23/18 Q1019=
201008270930 METAR LPPR 270930Z 35004KT 310V020 9999 BKN015 22/18 Q1019=
201008270900 METAR LPPR 270900Z 33005KT 9999 BKN012 21/19 Q1019=
201008270830 METAR LPPR 270830Z 32005KT 7000 FEW007 SCT012 20/20 Q1019=
201008270800 METAR LPPR 270800Z 34004KT 5000 BR BKN005 SCT012 20/20 Q1019=
201008270730 METAR LPPR 270730Z 33004KT 4000 BR SCT002 SCT004 19/19 Q1018=
201008270700 METAR LPPR 270700Z VRB03KT 1500 R17/P1500 R35/0750VP1500
                        -DZRA BR VCFG SCT001 SCT004 20/20
                        Q1018=
201008270630 METAR LPPR 270630Z 00000KT 0700 R17/P1500 R35/P1500 BCFG
                        BKN000 19/19 Q1018=
201008270600 METAR LPPR 270600Z 00000KT 5000 BR BKN003 19/19 Q1018=
201008270530 METAR LPPR 270530Z 00000KT 8000 SCT004 SCT009 19/19 Q1017=
201008270500 METAR LPPR 270500Z 02001KT 7000 SCT002 BKN004 19/19 Q1017=
201008270430 METAR LPPR 270430Z 00000KT 7000 SCT002 BKN004 20/20 Q1017=
201008270400 METAR COR LPPR 270400Z 31001KT 7000 SCT001 BKN004 20/20 Q1017=
201008270330 METAR LPPR 270330Z VRB02KT 4000 BR SCT001 BKN003 20/20 Q1017=
201008270300 METAR LPPR 270300Z VRB02KT 5000 BR SCT002 BKN004 20/20 Q1017=
201008270230 METAR LPPR 270230Z 00000KT 5000 BR SCT002 BKN004 20/20 Q1017=
201008270200 METAR LPPR 270200Z 22003KT 0700 R17/P1500 R35/1300VP1500
                        FG BKN000 BKN001 20/20 Q1017=
201008270130 METAR LPPR 270130Z 22003KT 0700 R17/1300VP1500 R35/1200VP1500
                        FG BKN000 BKN001 20/20 Q1017=
201008270100 METAR LPPR 270100Z 22004KT 190V260 0900 R17/P1500 R35/P1500
                        BCFG BKN000 BKN001 20/20 Q1017=
201008270030 METAR LPPR 270030Z 20005KT 7000 BKN001 BKN003 20/20 Q1017=
201008270000 METAR LPPR 270000Z 19006KT 7000 SCT001 BKN003 20/20 Q1017=
201008262330 METAR LPPR 262330Z 19006KT 170V230 7000 SCT001 BKN003 20/20
                        Q1017=
201008262300 METAR LPPR 262300Z 20006KT 180V240 7000 SCT001 BKN003 20/20
                        Q1017=
201008262230 METAR LPPR 262230Z 19008KT 170V230 5000 BR BKN001 BKN002
                        20/20 Q1017=
201008262200 METAR LPPR 262200Z 19008KT 7000 SCT001 BKN003 20/20 Q1017=
201008262130 METAR LPPR 262130Z 20008KT 7000 SCT001 BKN003 20/20 Q1017=
201008262100 METAR LPPR 262100Z 19009KT 150V210 3000 -DZ BR SCT001 BKN002
                        20/20 Q1017=
201008262030 METAR LPPR 262030Z 19009KT 3000 -DZRA BR BKN002 BKN004 20/20
                        Q1016=
201008262000 METAR LPPR 262000Z 18013KT 4000 DZRA BR BKN004 BKN007 21/20
                        Q1016=
201008261930 METAR LPPR 261930Z 19011KT 8000 BKN008 BKN011 22/19 Q1016=
201008261900 METAR LPPR 261900Z 18010KT 9999 BKN011 SCT080 22/19 Q1016=
201008261830 METAR LPPR 261830Z 19010KT 9999 BKN013 SCT080 22/19 Q1016=
201008261800 METAR LPPR 261800Z 20009KT 9999 SCT015 SCT100 23/19 Q1016=
201008261730 METAR LPPR 261730Z 19010KT 9999 FEW015 BKN250 23/19 Q1016=
201008261700 METAR LPPR 261700Z 19009KT 170V230 9999 FEW015 SCT100 24/19
                        Q1016=
201008261630 METAR LPPR 261630Z 21009KT 170V260 9999 FEW015 SCT100 24/19
                        Q1016=
201008261600 METAR LPPR 261600Z 20010KT 170V230 9999 FEW015 SCT100 24/19
                        Q1016=
201008261530 METAR LPPR 261530Z 21010KT 9999 FEW015 SCT100 24/19 Q1016=
201008261500 METAR LPPR 261500Z 21009KT 180V250 9999 FEW015 SCT100 24/19
                        Q1016=
201008261430 METAR LPPR 261430Z 22009KT 9999 FEW012 BKN100 23/19 Q1016=
201008261400 METAR LPPR 261400Z 21010KT 170V250 9999 FEW012 SCT100 24/19
                        Q1016=
201008261330 METAR LPPR 261330Z 20010KT 170V230 9999 FEW012 SCT100 23/19
                        Q1016=
201008261300 METAR LPPR 261300Z 19010KT 9999 FEW009 BKN013 24/18 Q1016=
201008261230 METAR LPPR 261230Z 19010KT 9999 FEW009 SCT013 23/19 Q1016=
201008261200 METAR LPPR 261200Z 18010KT 9999 SCT009 BKN013 22/18 Q1016=
201008261130 METAR LPPR 261130Z 19009KT 170V230 9999 SCT007 SCT012 BKN015
                        22/19 Q1016=
201008261100 METAR LPPR 261100Z 18007KT 140V210 9999 SCT007 BKN013 21/19
                        Q1016=
201008261030 METAR LPPR 261030Z 20007KT 9999 BKN008 BKN013 21/19 Q1016=
201008261000 METAR LPPR 261000Z 17005KT 140V210 9999 SCT005 BKN008 BKN010
                        20/20 Q1016=
201008260930 METAR LPPR 260930Z 17006KT 5000 BR BKN004 BKN007 20/20 Q1016=
201008260900 METAR LPPR 260900Z 17008KT 3500 BR SCT002 BKN005 19/19 Q1016=
201008260830 METAR LPPR 260830Z 18007KT 2500 BR SCT002 BKN004 19/19 Q1016=
201008260800 METAR LPPR 260800Z 17007KT 1500 BR SCT001 BKN003 19/19 Q1016=
201008260730 METAR LPPR 260730Z VRB03KT 2000 BR SCT001 BKN003 19/19 Q1016=
201008260700 METAR LPPR 260700Z 18004KT 1500 BR SCT002 BKN004 19/19 Q1015=
201008260630 METAR LPPR 260630Z 00000KT 1200 R17/P1500 R35/P1500 BR SCT001
                        OVC002 19/19 Q1015=
201008260600 METAR LPPR 260600Z VRB01KT 2000 BR SCT001 OVC003 19/19 Q1015=
201008260530 METAR LPPR 260530Z 15001KT 3000 BR SCT001 BKN003 18/18 Q1015=
201008260500 METAR LPPR 260500Z 00000KT 2500 BR SCT001 BKN003 18/18 Q1015=
201008260430 METAR LPPR 260430Z 00000KT 1500 BR SCT001 BKN003 18/18 Q1015=
201008260400 METAR LPPR 260400Z 00000KT 0400 R17/0900U R35/0750V1100N
                        FG VV001 18/18 Q1015=
201008260330 METAR LPPR 260330Z 29001KT 0400 R17/1000U R35/0900V1500D
                        FG VV001 18/18 Q1015=
201008260300 METAR LPPR 260300Z 28004KT 0300 R17/0800N R35/0600N FG VV001
                        18/18 Q1015=
201008260230 METAR LPPR 260230Z 00000KT 0200 R17/0350N R35/0350N FG VV001
                        19/19 Q1015=
201008260200 METAR LPPR 260200Z VRB03KT 0200 R17/0400N R35/0300V0400N
                        FG VV001 19/19 Q1015=
201008260130 METAR LPPR 260130Z 35002KT 0200 R17/0400N R35/0350N FG VV001
                        19/18 Q1015=
201008260100 METAR LPPR 260100Z VRB01KT 0400 R17/0750D R35/0450V0600N
                        FG SCT001 BKN002 18/18 Q1015=
201008260030 METAR LPPR 260030Z 00000KT 9999 FEW003 18/18 Q1015=
201008260000 METAR LPPR 260000Z 00000KT CAVOK 19/18 Q1015=
201008252330 METAR LPPR 252330Z 00000KT CAVOK 19/18 Q1015=
201008252300 METAR LPPR 252300Z VRB02KT CAVOK 19/19 Q1015=
201008252230 METAR LPPR 252230Z 04003KT CAVOK 19/18 Q1016=
201008252200 METAR LPPR 252200Z VRB03KT CAVOK 19/18 Q1016=
201008252130 METAR LPPR 252130Z 33005KT CAVOK 19/18 Q1017=
201008252100 METAR LPPR 252100Z 33003KT CAVOK 19/18 Q1017=
201008252030 METAR LPPR 252030Z 32005KT 280V340 CAVOK 20/19 Q1016=
201008252000 METAR LPPR 252000Z 31004KT CAVOK 21/19 Q1016=
201008251930 METAR LPPR 251930Z 32004KT 260V330 CAVOK 22/19 Q1016=
201008251900 METAR LPPR 251900Z 32005KT 270V350 CAVOK 23/19 Q1016=
201008251830 METAR LPPR 251830Z 33007KT CAVOK 23/19 Q1016=
201008251800 METAR LPPR 251800Z 31009KT CAVOK 23/19 Q1016=
201008251730 METAR LPPR 251730Z 30007G17KT 260V340 CAVOK 24/19 Q1016=
201008251700 METAR LPPR 251700Z 30008G18KT 270V340 CAVOK 25/19 Q1016=
201008251630 METAR LPPR 251630Z 30010KT 270V350 CAVOK 25/19 Q1016=
201008251600 METAR LPPR 251600Z 32010KT 280V350 CAVOK 25/20 Q1016=
201008251530 METAR LPPR 251530Z 32012KT 270V340 CAVOK 25/19 Q1017=
201008251500 METAR LPPR 251500Z 32011KT CAVOK 25/19 Q1017=
201008251430 METAR LPPR 251430Z 31009KT 270V360 CAVOK 26/19 Q1017=
201008251400 METAR LPPR 251400Z 32009KT 280V350 CAVOK 25/19 Q1017=
201008251330 METAR LPPR 251330Z 29009KT 270V010 CAVOK 25/18 Q1017=
201008251300 METAR LPPR 251300Z 30008KT 260V350 CAVOK 25/18 Q1017=
201008251230 METAR LPPR 251230Z 28008KT 260V320 CAVOK 25/19 Q1018=
201008251200 METAR LPPR 251200Z 30008KT 250V350 9999 FEW020 26/19 Q1018=
201008251130 METAR LPPR 251130Z 29008KT 260V320 9999 FEW020 26/19 Q1018=
201008251100 METAR LPPR 251100Z 28006KT 250V330 9999 FEW020 26/19 Q1018=
201008251030 METAR LPPR 251030Z 33004KT 250V010 9999 FEW020 26/19 Q1019=
201008251000 METAR LPPR 251000Z 01004KT 330V080 9999 FEW020 25/19 Q1019=
201008250930 METAR LPPR 250930Z VRB03KT 9999 FEW017 25/18 Q1019=
201008250900 METAR LPPR 250900Z VRB03KT 9999 FEW017 24/16 Q1018=
201008250830 METAR LPPR 250830Z VRB02KT 9999 FEW017 23/13 Q1019=
201008250800 METAR LPPR 250800Z 00000KT 9999 FEW017 21/13 Q1019=
201008250730 METAR LPPR 250730Z 00000KT 9999 FEW017 19/13 Q1018=
201008250700 METAR LPPR 250700Z 00000KT 9999 FEW017 18/13 Q1018=
201008250630 METAR LPPR 250630Z 10005KT 9999 FEW015 17/12 Q1018=
201008250600 METAR LPPR 250600Z VRB03KT 9999 FEW015 17/12 Q1018=
201008250530 METAR LPPR 250530Z 00000KT 9999 FEW013 17/11 Q1018=
201008250500 METAR LPPR 250500Z VRB02KT 9999 SCT015 18/11 Q1018=
201008250430 METAR LPPR 250430Z 00000KT 9999 SCT012 BKN015 18/11 Q1018=
201008250400 METAR LPPR 250400Z 10004KT 9999 BKN015 18/11 Q1018=
201008250330 METAR LPPR 250330Z 10005KT 9999 SCT015 18/12 Q1018=
201008250300 METAR LPPR 250300Z 00000KT 9999 FEW013 SCT017 16/12 Q1019=
201008250230 METAR LPPR 250230Z 00000KT 9999 FEW017 16/12 Q1019=
201008250200 METAR LPPR 250200Z 00000KT CAVOK 17/12 Q1019=
201008250130 METAR LPPR 250130Z 10004KT CAVOK 18/11 Q1019=
201008250100 METAR LPPR 250100Z 10004KT CAVOK 17/11 Q1019=
201008250030 METAR LPPR 250030Z 10003KT CAVOK 17/12 Q1019=
201008250000 METAR LPPR 250000Z 09003KT CAVOK 17/12 Q1020=
201008242330 METAR LPPR 242330Z 11004KT CAVOK 18/12 Q1020=
201008242300 METAR LPPR 242300Z 10004KT CAVOK 18/13 Q1020=
201008242230 METAR LPPR 242230Z 10002KT CAVOK 18/13 Q1020=
201008242200 METAR LPPR 242200Z 09001KT CAVOK 17/14 Q1020=
201008242130 METAR LPPR 242130Z 00000KT CAVOK 17/13 Q1020=
201008242100 METAR LPPR 242100Z 00000KT CAVOK 18/14 Q1020=
201008242030 METAR LPPR 242030Z 00000KT CAVOK 18/15 Q1019=
201008242000 METAR LPPR 242000Z 32002KT CAVOK 18/15 Q1019=
201008241930 METAR LPPR 241930Z VRB03G14KT CAVOK 19/14 Q1019=
201008241900 METAR LPPR 241900Z 30004KT 260V340 CAVOK 20/14 Q1018=
201008241830 METAR LPPR 241830Z 32005KT CAVOK 21/11 Q1018=
201008241800 METAR LPPR 241800Z 30005KT 270V350 CAVOK 22/12 Q1018=
201008241730 METAR LPPR 241730Z 30005KT 250V340 CAVOK 22/13 Q1018=
201008241700 METAR LPPR 241700Z 29005KT 250V330 CAVOK 22/13 Q1018=
201008241630 METAR LPPR 241630Z 28007KT 250V320 CAVOK 21/14 Q1019=
201008241600 METAR LPPR 241600Z 28007KT 240V310 CAVOK 22/15 Q1019=
201008241530 METAR LPPR 241530Z 28006KT 220V300 CAVOK 22/16 Q1019=
201008241500 METAR LPPR 241500Z 25006KT 210V300 CAVOK 23/16 Q1019=
201008241430 METAR LPPR 241430Z 25006KT 220V300 CAVOK 23/15 Q1019=
201008241400 METAR LPPR 241400Z 24006KT 210V270 CAVOK 22/16 Q1019=
201008241330 METAR LPPR 241330Z 23006KT 200V260 9999 FEW015 23/16 Q1019=
201008241300 METAR LPPR 241300Z 22005KT 180V280 9999 FEW015 22/16 Q1019=
201008241230 METAR LPPR 241230Z 22004KT 180V260 9999 FEW015 22/17 Q1019=
201008241200 METAR LPPR 241200Z 23004KT 200V300 9999 SCT015 22/17 Q1020=
201008241130 METAR LPPR 241130Z 25005KT 210V280 9999 SCT012 21/17 Q1020=
201008241100 METAR LPPR 241100Z VRB02KT 9999 SCT012 21/17 Q1020=
201008241030 METAR LPPR 241030Z 25004KT 160V280 9999 FEW009 SCT012 20/17
                        Q1020=
201008241000 METAR LPPR 241000Z VRB02KT 8000 SCT009 SCT012 20/17 Q1019=
201008240930 METAR LPPR 240930Z VRB03KT 8000 SCT008 BKN012 20/17 Q1019=
201008240900 METAR LPPR 240900Z 00000KT 8000 SCT007 BKN012 19/18 Q1019=
201008240830 METAR LPPR 240830Z 00000KT 8000 SCT005 BKN010 18/18 Q1019=
201008240800 METAR LPPR 240800Z 00000KT 4500 VCFG BR SCT002 BKN005 17/17
                        Q1019=
201008240730 METAR LPPR 240730Z 00000KT 4500 VCFG BR SCT002 SCT004 BKN025
                        16/16 Q1019=
201008240700 METAR LPPR 240700Z 00000KT 5000 BR SCT002 SCT020 16/16 Q1018=
201008240630 METAR LPPR 240630Z 00000KT 5000 BR SCT002 BKN020 16/16 Q1018=
201008240600 METAR LPPR 240600Z VRB02KT 5000 BR SCT002 SCT020 16/16 Q1018=
201008240530 METAR LPPR 240530Z VRB02KT 7000 SCT004 SCT020 16/16 Q1018=
201008240500 METAR LPPR 240500Z 00000KT 7000 SCT002 BKN017 16/16 Q1018=
201008240430 METAR LPPR 240430Z 23003KT 7000 SCT002 BKN017 16/16 Q1017=
201008240400 METAR LPPR 240400Z 20002KT 8000 SCT004 BKN017 16/16 Q1017=
201008240330 METAR LPPR 240330Z 18001KT 9999 BKN020 16/16 Q1017=
201008240300 METAR LPPR 240300Z 00000KT 9999 BKN020 16/16 Q1017=
201008240230 METAR LPPR 240230Z 22001KT 9999 FEW007 BKN017 16/16 Q1017=
201008240200 METAR LPPR 240200Z 00000KT 9999 BKN017 17/16 Q1017=
201008240130 METAR LPPR 240130Z 00000KT 9999 BKN015 17/17 Q1017=
201008240100 METAR LPPR 240100Z 00000KT 9999 BKN015 17/17 Q1017=
201008240030 METAR LPPR 240030Z 32002KT 9999 SCT007 BKN013 17/17 Q1017=
201008240000 METAR LPPR 240000Z VRB02KT 9999 SCT007 BKN013 17/17 Q1017=
201008232330 METAR LPPR 232330Z 32004KT 9000 SCT007 BKN013 17/17 Q1017=
201008232300 METAR LPPR 232300Z 29003KT 9000 SCT004 BKN009 17/17 Q1017=
201008232230 METAR LPPR 232230Z 31004KT 8000 SCT004 BKN007 17/17 Q1017=
201008232200 METAR LPPR 232200Z 33003KT 8000 SCT004 BKN007 17/17 Q1017=
201008232130 METAR LPPR 232130Z 31004KT 280V350 7000 SCT002 BKN004 17/17
                        Q1016=
201008232100 METAR LPPR 232100Z 32006KT 5000 BR SCT001 BKN003 17/17 Q1016=
201008232030 METAR LPPR 232030Z 32005KT 2000 BR VCFG SCT001 BKN002 18/18
                        Q1016=
201008232000 METAR LPPR 232000Z 31005KT 1500 R17/P1500 R35/1100VP1500
                        -DZ BR VCFG SCT000 BKN002 18/18 Q1015=
201008231930 METAR LPPR 231930Z VRB03KT 0600 R17/P1500 R35/P1500 -DZ FG
                        BKN000 BKN001 18/18 Q1015=
201008231900 METAR LPPR 231900Z 21007KT 180V240 0200 R17/1300VP1500 R35/0750N
                        -DZ FG VV000 19/19 Q1015=
201008231830 METAR LPPR 231830Z 20007KT 0400 R17/P1500 R35/1100D -DZ FG
                        BKN000 BKN001 19/19 Q1015=
201008231800 METAR LPPR 231800Z 19008KT 0400 R17/P1500 R35/1300U FG BKN000
                        BKN001 19/19 Q1015=
201008231730 METAR LPPR 231730Z 19010KT 0700 R17/P1500 R35/1400U FG BKN000
                        BKN001 19/19 Q1015=
201008231700 METAR LPPR 231700Z 19012KT 0900 R17/P1500 R35/P1500 -DZ FG
                        BKN000 BKN001 20/20 Q1014=
201008231630 METAR LPPR 231630Z 19013KT 0900 R17/P1500 R35/P1500 BCFG
                        BKN000 BKN001 19/19 Q1014=
201008231600 METAR LPPR 231600Z 19013KT 1100 R17/P1500 R35/1000D -DZ BR
                        VCFG SCT000 BKN001 19/19 Q1014=
201008231530 METAR LPPR 231530Z 18014KT 1100 R17/P1500 R35/1000D BR VCFG
                        SCT000 BKN001 19/19 Q1014=
201008231500 METAR LPPR 231500Z 19018KT 1500 BR VCFG BKN001 BKN003 20/20
                        Q1014 WS ALL RWY=
201008231430 METAR LPPR 231430Z 18021KT 2000 R17/1300U R35/P1500 BR VCFG
                        BKN001 BKN003 20/20 Q1014 RERA WS
                        ALL RWY=
201008231400 METAR LPPR 231400Z 18019KT 1100 R17/1100V1500N R35/0800N
                        RADZ BR BKN001 BKN003 20/20 Q1014
                        WS ALL RWY=
201008231330 METAR LPPR 231330Z 18021KT 5000 -DZ BR SCT002 BKN004 20/20
                        Q1014 WS ALL RWY=
201008231300 METAR LPPR 231300Z 18020KT 4000 -RA BR FEW002 BKN005 20/20
                        Q1015=
201008231230 METAR LPPR 231230Z 18020KT 1500 -RA BR SCT002 BKN004 20/20
                        Q1015=
201008231200 METAR LPPR 231200Z 18018KT 1500 -RA BR SCT002 BKN004 20/20
                        Q1015=
201008231130 METAR LPPR 231130Z 18018KT 1500 -RA BR FEW003 SCT005 BKN010
                        20/20 Q1015=
201008231100 METAR LPPR 231100Z 19016KT 2000 -DZ BR SCT005 SCT010 BKN015
                        20/19 Q1015=
201008231030 METAR LPPR 231030Z 18018KT 3000 -DZ BR SCT007 SCT010 BKN015
                        21/19 Q1015=
201008231000 METAR LPPR 231000Z 18017KT 9999 SCT010 BKN015 22/19 Q1015=
201008230930 METAR LPPR 230930Z 17017KT 9999 SCT010 BKN015 22/19 Q1015=
201008230900 METAR LPPR 230900Z 18014KT 8000 SCT010 SCT015 BKN020 21/19
                        Q1015=
201008230830 METAR LPPR 230830Z 18015KT 9999 SCT010 BKN020 21/18 Q1015=
201008230800 METAR LPPR 230800Z 17012KT 9999 SCT010 BKN250 20/18 Q1015=
201008230730 METAR LPPR 230730Z 18011KT 8000 SCT010 SCT025 BKN030 20/18
                        Q1015=
201008230700 METAR LPPR 230700Z 18011KT 8000 SCT010 SCT025 BKN030 20/18
                        Q1015=
201008230630 METAR LPPR 230630Z 18011KT 9999 SCT013 BKN020 20/18 Q1015=
201008230600 METAR LPPR 230600Z 18011KT 9999 SCT014 SCT020 BKN030 20/18
                        Q1015=
201008230530 METAR LPPR 230530Z 18009KT 9999 SCT013 BKN020 20/18 Q1015=
201008230500 METAR LPPR 230500Z 18010KT 9999 SCT010 BKN015 20/18 Q1015=
201008230430 METAR LPPR 230430Z 14005KT 9999 SCT010 BKN015 20/19 Q1015=
201008230400 METAR LPPR 230400Z 13005KT 9999 BKN015 BKN020 20/19 Q1015=
201008230330 METAR LPPR 230330Z 13006KT 9999 SCT015 BKN040 20/19 Q1016=
201008230300 METAR LPPR 230300Z 13005KT 9999 SCT015 BKN030 20/19 Q1016=
201008230230 METAR LPPR 230230Z 14004KT 110V170 9999 SCT015 BKN030 20/19
                        Q1016=
201008230200 METAR LPPR 230200Z VRB03KT 9999 SCT017 BKN020 20/19 Q1016=
201008230130 METAR LPPR 230130Z 11006KT 9999 SCT025 BKN030 20/19 Q1017=
201008230100 METAR LPPR 230100Z 14005KT 9999 SCT022 BKN027 19/19 Q1017=
201008230030 METAR LPPR 230030Z 16006KT 9999 FEW003 BKN020 19/19 Q1018=
201008230000 METAR LPPR 230000Z 18005KT 140V200 5000 BR SCT003 SCT015
                        BKN020 19/19 Q1018=
201008222330 METAR LPPR 222330Z 20005KT 5000 -DZ BR SCT001 SCT007 BKN015
                        19/19 Q1018=
201008222300 METAR LPPR 222300Z 20004KT 4000 -DZ BR SCT002 BKN006 BKN017
                        19/19 Q1018=
201008222230 METAR LPPR 222230Z VRB03KT 8000 SCT005 SCT008 BKN017 19/19
                        Q1019=
201008222200 METAR LPPR 222200Z 00000KT 6000 SCT005 SCT008 BKN017 20/19
                        Q1019=
201008222130 METAR LPPR 222130Z VRB03KT 8000 SCT005 SCT008 BKN017 20/19
                        Q1019=
201008222100 METAR LPPR 222100Z VRB02KT 9999 SCT013 SCT017 20/18 Q1019=
201008222030 METAR LPPR 222030Z 22003KT 9999 SCT013 BKN017 20/18 Q1019=
201008222000 METAR LPPR 222000Z VRB01KT 9999 BKN013 20/18 Q1018=
201008221930 METAR LPPR 221930Z VRB02KT 9999 BKN013 20/18 Q1019=
201008221900 METAR LPPR 221900Z VRB02KT 9999 FEW008 BKN015 20/18 Q1018=
201008221830 METAR LPPR 221830Z VRB03KT 9999 FEW008 BKN017 20/18 Q1019=
201008221800 METAR LPPR 221800Z VRB03KT 9999 FEW008 BKN017 21/18 Q1019=
201008221730 METAR LPPR 221730Z VRB03KT 9999 FEW013 BKN017 21/18 Q1019=
201008221700 METAR LPPR 221700Z VRB03KT 9999 SCT013 BKN017 21/18 Q1019=
201008221630 METAR LPPR 221630Z 24004KT 200V280 9999 SCT013 BKN017 22/18
                        Q1019=
201008221600 METAR LPPR 221600Z 24004KT 190V290 9999 SCT013 BKN017 22/18
                        Q1019=
201008221530 METAR LPPR 221530Z 23005KT 9999 FEW013 BKN017 21/18 Q1019=
201008221500 METAR LPPR 221500Z 30006KT 240V350 9999 FEW008 BKN017 22/17
                        Q1019=
201008221430 METAR LPPR 221430Z 27006KT 220V310 9999 SCT013 SCT017 22/17
                        Q1019=
201008221400 METAR LPPR 221400Z 27006KT 230V300 9999 SCT013 BKN017 23/18
                        Q1020=
201008221330 METAR LPPR 221330Z VRB03G13KT 9999 FEW008 BKN015 22/18 Q1020=
201008221300 METAR LPPR 221300Z 29005KT 240V330 9999 SCT008 BKN013 21/18
                        Q1021=
201008221230 METAR LPPR 221230Z 28005KT 9999 SCT008 BKN013 21/18 Q1021=
201008221200 METAR LPPR 221200Z 25004KT 210V290 9999 SCT008 BKN013 21/19
                        Q1021=
201008221130 METAR LPPR 221130Z VRB02KT 9999 SCT007 BKN013 21/20 Q1021=
201008221100 METAR LPPR 221100Z 00000KT 6000 SCT003 BKN005 20/20 Q1021=
201008221030 METAR LPPR 221030Z VRB01KT 1500 BR VCFG BKN003 19/19 Q1021=
201008221000 METAR LPPR 221000Z VRB02KT 2000 BR VCFG BKN003 19/19 Q1021=
201008220930 METAR LPPR 220930Z VRB01KT 6000 BKN003 18/18 Q1021=
201008220900 METAR LPPR 220900Z 32005KT 290V350 2000 BR VCFG SCT001 BKN003
                        17/17 Q1021=
201008220830 METAR LPPR 220830Z VRB03KT 1500 BR VCFG BKN001 BKN002 17/17
                        Q1021=
201008220800 METAR LPPR 220800Z VRB03KT 1500 BR VCFG BKN001 BKN002 17/17
                        Q1020=
201008220730 METAR LPPR 220730Z VRB02KT 1500 BR VCFG BKN000 BKN002 17/17
                        Q1020=
201008220700 METAR LPPR 220700Z VRB02KT 0600 R17/P1500 R35/1200VP1500
                        FG VV000 16/16 Q1020=
201008220630 METAR LPPR 220630Z 31004KT 0600 R17/P1500 R35/1000N FG VV000
                        16/16 Q1020=
201008220600 METAR LPPR 220600Z 31004KT 230V350 0800 R17/P1500 R35/P1500
                        FG VV000 16/16 Q1020=
201008220530 METAR LPPR 220530Z 30004KT 270V340 0600 R17/P1500 R35/P1500
                        FG VV000 16/16 Q1020=
201008220500 METAR LPPR 220500Z 28003KT 0300 R17/P1500 R35/1500N FG VV000
                        17/17 Q1020=
201008220430 METAR LPPR 220430Z VRB01KT 0300 R17/P1500 R35/P1500 FG VV000
                        17/17 Q1020=
201008220400 METAR LPPR 220400Z VRB03KT 0300 R17/P1500 R35/1100VP1500
                        FG VV000 16/16 Q1020=
201008220330 METAR LPPR 220330Z VRB03KT 0300 R17/1100VP1500 R35/1000D
                        FG VV000 17/17 Q1020=
201008220300 METAR LPPR 220300Z 28004KT 0600 R17/P1500 R35/P1500 FG VV000
                        17/17 Q1020=
201008220230 METAR LPPR 220230Z 31004KT 270V330 0400 R17/P1500 R35/P1500
                        FG VV000 17/17 Q1020=
201008220200 METAR LPPR 220200Z VRB03KT 0400 R17/P1500 R35/P1500 FG VV000
                        17/17 Q1020=
201008220130 METAR LPPR 220130Z 33007KT 300V360 0400 R17/P1500 R35/1300D
                        FG VV000 17/17 Q1021=
201008220100 METAR LPPR 220100Z 33008KT 0300 R17/P1500 R35/1400VP1500
                        FG VV000 17/17 Q1021=
201008220030 METAR LPPR 220030Z 32007KT 0200 R17/P1500 R35/P1500 FG VV000
                        17/17 Q1021=
201008220000 METAR LPPR 220000Z 33007KT 0200 R17/P1500 R35/P1500 FG VV000
                        17/17 Q1022=
201008212330 METAR LPPR 212330Z 32005KT 290V350 0100 R17/1200D R35/0750N
                        FG VV000 17/17 Q1022=
201008212300 METAR LPPR 212300Z 32007KT 0300 R17/P1500 R35/1000U FG VV000
                        17/17 Q1021=
201008212230 METAR LPPR 212230Z VRB03KT 0300 R17/P1500 R35/1400VP1500
                        FG VV000 17/17 Q1021=
201008212200 METAR LPPR 212200Z VRB03KT 0900 R17/P1500 R35/P1500 FG BKN000
                        BKN001 17/17 Q1021=
201008212130 METAR LPPR 212130Z VRB01KT 2000 BR VCFG SCT001 BKN002 18/17
                        Q1021=
201008212100 METAR LPPR 212100Z VRB02KT 1500 BR VCFG SCT000 BKN002 18/17
                        Q1021=
201008212030 METAR LPPR 212030Z VRB02KT 6000 SCT001 BKN004 18/18 Q1021=
201008212000 METAR LPPR 212000Z 33008KT 7000 SCT002 BKN004 19/18 Q1020=
201008211930 METAR LPPR 211930Z 32008KT 5000 BR SCT001 BKN004 18/18 Q1020=
201008211900 METAR LPPR 211900Z 32009KT 3000 BR VCFG BKN001 BKN003 19/18
                        Q1021=
201008211830 METAR LPPR 211830Z 32009KT 4000 BR VCFG SCT001 BKN003 19/18
                        Q1020=
201008211800 METAR LPPR 211800Z 33011KT 7000 SCT003 SCT004 20/18 Q1020=
201008211730 METAR LPPR 211730Z 32009KT 290V020 7000 SCT003 21/18 Q1020=
201008211700 METAR LPPR 211700Z 31009KT 3000W SCT003 21/18 Q1020=
201008211630 METAR LPPR 211630Z 32012KT 280V350 3000W FEW003 22/18 Q1020=
201008211600 METAR LPPR 211600Z 31012KT 4000W FEW004 23/18 Q1020=
201008211530 METAR LPPR 211530Z 32012KT 4000W FEW004 24/18 Q1020=
201008211500 METAR LPPR 211500Z 32012KT 9999 FEW004 24/18 Q1020=
201008211430 METAR LPPR 211430Z 31012KT CAVOK 24/18 Q1021=
201008211400 METAR LPPR 211400Z 30010KT 270V340 CAVOK 25/18 Q1021=
201008211330 METAR LPPR 211330Z 31010KT CAVOK 26/18 Q1021=
201008211300 METAR LPPR 211300Z 31009KT CAVOK 28/18 Q1021=
201008211230 METAR LPPR 211230Z 33007KT 290V010 CAVOK 28/19 Q1021=
201008211200 METAR LPPR 211200Z 31008KT 290V350 CAVOK 25/18 Q1021=
201008211130 METAR LPPR 211130Z 30008KT CAVOK 24/18 Q1021=
201008211100 METAR LPPR 211100Z 28007KT CAVOK 24/18 Q1021=
201008211030 METAR LPPR 211030Z VRB03KT CAVOK 26/19 Q1021=
201008211000 METAR LPPR 211000Z 28004KT 260V330 CAVOK 25/19 Q1021=
201008210930 METAR LPPR 210930Z VRB01KT CAVOK 25/19 Q1021=
201008210900 METAR LPPR 210900Z VRB01KT CAVOK 24/19 Q1022=
201008210830 METAR LPPR 210830Z VRB02KT CAVOK 22/19 Q1022=
201008210800 METAR LPPR 210800Z 36001KT CAVOK 20/19 Q1022=
201008210730 METAR LPPR 210730Z 00000KT CAVOK 19/19 Q1022=
201008210700 METAR LPPR 210700Z 00000KT CAVOK 16/16 Q1021=
201008210630 METAR LPPR 210630Z 00000KT CAVOK 15/15 Q1021=
201008210600 METAR LPPR 210600Z 00000KT CAVOK 15/15 Q1021=
201008210530 METAR LPPR 210530Z 00000KT CAVOK 15/15 Q1021=
201008210500 METAR LPPR 210500Z 00000KT CAVOK 15/14 Q1021=
201008210430 METAR LPPR 210430Z 00000KT CAVOK 15/15 Q1020=
201008210400 METAR LPPR 210400Z 00000KT CAVOK 15/15 Q1020=
201008210330 METAR LPPR 210330Z 00000KT CAVOK 15/15 Q1020=
201008210300 METAR LPPR 210300Z 00000KT CAVOK 15/15 Q1021=
201008210230 METAR LPPR 210230Z 00000KT CAVOK 15/15 Q1021=
201008210200 METAR LPPR 210200Z 00000KT CAVOK 15/15 Q1021=
201008210130 METAR LPPR 210130Z 00000KT CAVOK 15/15 Q1021=
201008210100 METAR LPPR 210100Z 00000KT CAVOK 16/15 Q1022=
201008210030 METAR LPPR 210030Z 00000KT CAVOK 16/15 Q1022=
201008210000 METAR LPPR 210000Z 00000KT CAVOK 16/15 Q1022=
201008202330 METAR LPPR 202330Z 00000KT CAVOK 16/16 Q1022=
201008202300 METAR LPPR 202300Z 00000KT 8000 FEW004 16/16 Q1022=
201008202230 METAR LPPR 202230Z 00000KT 7000 FEW003 16/16 Q1022=
201008202200 METAR LPPR 202200Z 34001KT 5000 SCT002 16/16 Q1022=
201008202130 METAR LPPR 202130Z 32003KT 2000 BR VCFG SCT001 16/16 Q1022=
201008202100 METAR LPPR 202100Z VRB02KT CAVOK 16/15 Q1021=
201008202030 METAR LPPR 202030Z 30002KT CAVOK 17/16 Q1021=
201008202000 METAR LPPR 202000Z 31005KT 280V340 CAVOK 18/17 Q1021=
201008201930 METAR LPPR 201930Z 33006KT 280V350 CAVOK 19/17 Q1020=
201008201900 METAR LPPR 201900Z 32005KT 2000W BR VCFG FEW006 19/17 Q1020=
201008201830 METAR LPPR 201830Z 32007KT 9999 FEW008 20/17 Q1020=
201008201800 METAR LPPR 201800Z 32008KT 9999 FEW008 21/17 Q1020=
201008201730 METAR LPPR 201730Z 31008KT 9999 FEW008 22/17 Q1020=
201008201700 METAR LPPR 201700Z 32008KT 290V350 9999 FEW006 23/18 Q1020=
201008201630 METAR LPPR 201630Z 31009KT 280V340 9999 FEW006 22/18 Q1020=
201008201600 METAR LPPR 201600Z 31010KT 9999 FEW006 22/18 Q1021=
201008201530 METAR LPPR 201530Z 31010KT 9999 FEW006 22/18 Q1021=
201008201500 METAR LPPR 201500Z 31009KT 9999 FEW006 23/18 Q1021=
201008201430 METAR LPPR 201430Z 31008KT 270V350 9999 FEW006 23/18 Q1021=
201008201400 METAR LPPR 201400Z 31010G22KT 270V350 9999 FEW006 22/17 Q1021=
201008201330 METAR LPPR 201330Z 31008KT 260V340 9999 FEW006 22/18 Q1021=
201008201300 METAR LPPR 201300Z 30008KT 270V350 9999 FEW006 22/17 Q1021=
201008201230 METAR LPPR 201230Z 30007KT 260V330 CAVOK 22/17 Q1021=
201008201200 METAR LPPR 201200Z 28008KT 250V320 CAVOK 21/17 Q1021=
201008201130 METAR LPPR 201130Z 27006KT 240V340 6000 SKC 21/17 Q1021=
201008201100 METAR LPPR 201100Z 28006KT 240V330 5000 BR SKC 20/17 Q1021=
201008201030 METAR LPPR 201030Z 28007G18KT 260V350 5000 BR SKC 20/17 Q1021=
201008201000 METAR LPPR 201000Z 28006KT 6000 SKC 21/18 Q1020=
201008200930 METAR LPPR 200930Z 00000KT 7000 SKC 22/18 Q1020=
201008200900 METAR LPPR 200900Z 00000KT 5000 BR SKC 21/18 Q1019=
201008200830 METAR LPPR 200830Z VRB01KT 5000 BR FEW005 20/19 Q1019=
201008200800 METAR LPPR 200800Z VRB02KT 4000 BR FEW002 SCT005 18/18 Q1019=
201008200730 METAR LPPR 200730Z VRB02KT 3000 BR SCT002 BKN004 17/17 Q1019=
201008200700 METAR LPPR 200700Z VRB02KT 3000 BR SCT001 BKN003 17/17 Q1019=
201008200630 METAR LPPR 200630Z 00000KT 3000 BR SCT001 BKN003 17/17 Q1019=
201008200600 METAR LPPR 200600Z VRB02KT 4000 BR SCT001 BKN003 17/17 Q1019=
201008200530 METAR LPPR 200530Z 00000KT 4000 BR SCT001 BKN003 16/16 Q1018=
201008200500 METAR LPPR 200500Z 00000KT 1200 R17/P1500 R35/P1500 BR VCFG
                        BKN001 BKN002 16/16 Q1018=
201008200430 METAR LPPR 200430Z 00000KT 0800 R17/P1500 R35/P1500 FG BKN001
                        BKN002 16/16 Q1018=
201008200400 METAR LPPR 200400Z 32001KT 0600 R17/1100N R35/0800N FG VV001
                        16/16 Q1018=
201008200330 METAR LPPR 200330Z 00000KT 0600 R17/1200U R35/1000V1400D
                        FG VV001 16/10 Q1018=
201008200300 METAR LPPR 200300Z 00000KT 0500 R17/0900N R35/0750V1000N
                        FG VV001 16/16 Q1018=
201008200230 METAR LPPR 200230Z 00000KT 0500 R17/0600N R35/0600N FG VV001
                        16/16 Q1018=
201008200200 METAR LPPR 200200Z 27004KT 0700 R17/0800VP1500 R35/0750V1300U
                        FG VV001 16/16 Q1018=
201008200130 METAR LPPR 200130Z 27004KT 1100 R17/1100VP1500 R35/0900V1500U
                        BR VCFG SCT000 BKN001 16/16 Q1018=
201008200100 METAR LPPR 200100Z 27002KT 1200 R17/P1500 R35/P1500 BR VCFG
                        SCT000 BKN001 17/17 Q1018=
201008200030 METAR LPPR 200030Z 00000KT 1500 R17/P1500 R35/1300VP1500
                        BR VCFG SCT001 BKN002 17/17 Q1018=
201008200000 METAR LPPR 200000Z 31003KT 1300 R17/P1500 R35/1100N BR VCFG
                        SCT000 BKN001 17/17 Q1018=
201008192330 METAR LPPR 192330Z 33006KT 1200 R17/P1500 R35/P1500 BR VCFG
                        SCT000 BKN001 17/17 Q1018=
201008192300 METAR LPPR 192300Z 32005KT 1300 R17/P1500 R35/1500N BR SCT000
                        BKN001 17/17 Q1017=
201008192230 METAR LPPR 192230Z 32006KT 1500 BR SCT000 BKN002 17/17 Q1017=
201008192200 METAR LPPR 192200Z 33008KT 290V350 1500 BR SCT001 BKN003
                        17/17 Q1017=
201008192130 METAR LPPR 192130Z 33009KT 1500 BR SCT001 BKN003 17/17 Q1017=
201008192100 METAR LPPR 192100Z 32008KT 4000 BR SCT001 BKN003 17/17 Q1017=
201008192030 METAR LPPR 192030Z 32007KT 8000 SCT003 BKN007 17/16 Q1016=
201008192000 METAR LPPR 192000Z 32007KT 9999 FEW008 SCT250 17/16 Q1016=
201008191930 METAR LPPR 191930Z 33010KT CAVOK 18/16 Q1015=
201008191900 METAR LPPR 191900Z 33011KT 280V360 CAVOK 19/16 Q1015=
201008191830 METAR LPPR 191830Z 32014KT CAVOK 19/16 Q1015=
201008191800 METAR LPPR 191800Z 32013KT CAVOK 20/16 Q1015=
201008191730 METAR LPPR 191730Z 32012KT CAVOK 21/16 Q1014=
201008191700 METAR LPPR 191700Z 32014KT CAVOK 21/16 Q1014=
201008191630 METAR LPPR 191630Z 33015KT CAVOK 21/16 Q1014=
201008191600 METAR LPPR 191600Z 32012KT CAVOK 21/16 Q1014=
201008191530 METAR LPPR 191530Z 33012KT 290V350 CAVOK 22/16 Q1014=
201008191500 METAR LPPR 191500Z 30011KT 280V340 CAVOK 22/16 Q1014=
201008191430 METAR LPPR 191430Z 30009KT CAVOK 23/16 Q1014=
201008191400 METAR LPPR 191400Z 31008KT 270V360 CAVOK 22/17 Q1015=
201008191330 METAR LPPR 191330Z 32009KT 290V030 CAVOK 22/16 Q1015=
201008191300 METAR LPPR 191300Z 31010G21KT 280V340 CAVOK 21/16 Q1015=
201008191230 METAR LPPR 191230Z 31010KT CAVOK 21/16 Q1015=
201008191200 METAR LPPR 191200Z 29007KT 260V320 CAVOK 20/17 Q1015=
201008191130 METAR LPPR 191130Z 28007KT 250V320 8000 FEW004 20/16 Q1015=
201008191100 METAR LPPR 191100Z 28007KT 250V320 6000 FEW250 20/17 Q1015=
201008191030 METAR LPPR 191030Z 27006KT 230V310 6000 FEW250 20/17 Q1015=
201008191000 METAR LPPR 191000Z 27005KT 6000 FEW250 21/18 Q1015=
201008190930 METAR LPPR 190930Z 25004KT 6000 FEW004 20/17 Q1014=
201008190900 METAR LPPR 190900Z 00000KT 7000 FEW004 20/18 Q1015=
201008190830 METAR LPPR 190830Z VRB03KT 5000 BR SCT003 18/18 Q1014=
201008190800 METAR LPPR 190800Z VRB02KT 1500 BR SCT001 BKN003 17/17 Q1014=
201008190730 METAR LPPR 190730Z 13001KT 0800 R17/P1500 R35/P1500 FG BKN001
                        BKN002 16/16 Q1014=
201008190700 METAR LPPR 190700Z VRB01KT 0600 R17/1100V1500D R35/0600N
                        FG VV001 16/16 Q1014=
201008190630 METAR LPPR 190630Z VRB02KT 0500 R17/0800N R35/0600N FG VV001
                        15/15 Q1014=
201008190600 METAR LPPR 190600Z 00000KT 0400 R17/0500N R35/0600N FG VV001
                        15/15 Q1014=
201008190530 METAR LPPR 190530Z 00000KT 0500 R17/1000VP1500 R35/0350V0450N
                        FG SCT000 BKN002 15/15 Q1014=
201008190500 METAR LPPR 190500Z VRB02KT 2000 BR VCFG SCT001 BKN003 14/14
                        Q1014=
201008190430 METAR LPPR 190430Z 00000KT CAVOK 14/14 Q1014=
201008190400 METAR LPPR 190400Z 00000KT CAVOK 15/14 Q1014=
201008190330 METAR LPPR 190330Z 00000KT CAVOK 15/14 Q1014=
201008190300 METAR LPPR 190300Z 10001KT CAVOK 15/15 Q1014=
201008190230 METAR LPPR 190230Z 00000KT CAVOK 15/15 Q1014=
201008190200 METAR LPPR 190200Z 28002KT CAVOK 15/15 Q1014=
201008190130 METAR LPPR 190130Z 00000KT CAVOK 16/15 Q1014=
201008190100 METAR LPPR 190100Z 00000KT CAVOK 16/15 Q1015=
201008190030 METAR LPPR 190030Z 00000KT CAVOK 16/16 Q1015=
201008190000 METAR LPPR 190000Z VRB02KT CAVOK 16/16 Q1015=
201008182330 METAR LPPR 182330Z 02001KT CAVOK 17/16 Q1015=
201008182300 METAR LPPR 182300Z 33002KT CAVOK 16/15 Q1015=
201008182230 METAR LPPR 182230Z VRB02KT CAVOK 17/16 Q1015=
201008182200 METAR LPPR 182200Z VRB01G11KT 9999 FEW008 17/16 Q1015=
201008182130 METAR LPPR 182130Z 00000KT 9999 FEW008 17/16 Q1015=
201008182100 METAR LPPR 182100Z VRB02KT 9999 FEW008 17/16 Q1015=
201008182030 METAR LPPR 182030Z 00000KT 9999 FEW008 17/16 Q1015=
201008182000 METAR LPPR 182000Z 34005KT 9999 FEW008 17/16 Q1015=
201008181930 METAR LPPR 181930Z 32010KT 9999 SCT008 18/17 Q1014=
201008181900 METAR LPPR 181900Z 32008KT 5000 BR SCT004 SCT250 18/18 Q1014=
201008181830 METAR LPPR 181830Z 32007KT 2000 BR VCFG SCT001 BKN002 19/18
                        Q1014=
201008181800 METAR LPPR 181800Z 31008KT 1500 R17/P1500 R35/1200VP1500
                        BR VCFG SCT001 BKN003 19/18 Q1014=
201008181730 METAR LPPR 181730Z 31009KT 3000 BR BKN003 SCT005 20/18 Q1015=
201008181700 METAR LPPR 181700Z 32009KT 290V350 9999 SCT005 BKN007 21/19
                        Q1015=
201008181630 METAR LPPR 181630Z 32008KT 270V340 9999 SCT005 BKN007 22/19
                        Q1015=
201008181600 METAR LPPR 181600Z 30008KT 5000 BR SCT002 BKN004 20/19 Q1015=
201008181530 METAR LPPR 181530Z 32009KT 3000 BR SCT001 BKN002 21/19 Q1015=
201008181500 METAR LPPR 181500Z 30006KT 260V330 3000 BR SCT002 BKN003
                        21/19 Q1015=
201008181430 METAR LPPR 181430Z 28008KT 260V330 5000 BR BKN003 SCT005
                        22/19 Q1016=
201008181400 METAR LPPR 181400Z 30007KT 260V340 8000 SCT003 BKN006 21/19
                        Q1016=
201008181330 METAR LPPR 181330Z 27007KT 230V300 2000 BR VCFG SCT001 BKN003
                        20/18 Q1016=
201008181300 METAR LPPR 181300Z 27010KT 3000 BR VCFG SCT003 BKN005 22/18
                        Q1016=
201008181230 METAR LPPR 181230Z 30007KT 260V350 9999 FEW015 SCT030 BKN080
                        24/19 Q1016=
201008181200 METAR LPPR 181200Z 31005KT 280V350 9999 SCT008 BKN020 23/19
                        Q1016=
201008181130 METAR LPPR 181130Z 31006KT 270V020 9999 SCT006 BKN011 22/19
                        Q1017=
201008181100 METAR LPPR 181100Z VRB03KT 7000 SCT005 BKN009 21/18 Q1017=
201008181030 METAR LPPR 181030Z 28004KT 230V320 8000 BKN008 BKN011 22/18
                        Q1017=
201008181000 METAR LPPR 181000Z 25007G17KT 8000 BKN011 BKN015 21/17 Q1017=
201008180930 METAR LPPR 180930Z VRB03KT 8000 FEW008 BKN015 23/18 Q1017=
201008180900 METAR LPPR 180900Z 00000KT 8000 SCT015 SCT025 22/18 Q1017=
201008180830 METAR LPPR 180830Z VRB01KT 8000 BKN015 SCT025 20/18 Q1017=
201008180800 METAR LPPR 180800Z 00000KT 8000 SCT030 SCT250 19/18 Q1017=
201008180730 METAR LPPR 180730Z 00000KT CAVOK 18/18 Q1017=
201008180700 METAR LPPR 180700Z 00000KT 9999 FEW008 SCT250 16/16 Q1017=
201008180630 METAR LPPR 180630Z 00000KT 8000 FEW008 SCT250 16/16 Q1017=
201008180600 METAR LPPR 180600Z 31002KT 9999 FEW008 SCT250 16/16 Q1017=
201008180530 METAR LPPR 180530Z 00000KT 7000 SCT005 BKN007 17/16 Q1017=
201008180500 METAR LPPR 180500Z 00000KT 3000 BR BKN003 BKN005 17/17 Q1016=
201008180430 METAR LPPR 180430Z 23001KT 0900 R17/P1500 R35/P1500 FG VV001
                        17/17 Q1017=
201008180400 METAR LPPR 180400Z 19003KT 0600 R17/1400VP1500 R35/1200VP1500
                        FG VV001 17/17 Q1017=
201008180330 METAR LPPR 180330Z VRB01KT 0800 R17/1300VP1500 R35/1200VP1500
                        FG VV001 17/17 Q1017=
201008180300 METAR LPPR 180300Z 17004KT 1500 BR OVC001 17/17 Q1017=
201008180230 METAR LPPR 180230Z 00000KT 1500 BR OVC001 17/17 Q1017=
201008180200 METAR LPPR 180200Z 00000KT 1500 BR OVC001 17/17 Q1017=
201008180130 METAR LPPR 180130Z 00000KT 0900 R17/P1500 R35/P1500 FG VV001
                        17/17 Q1017=
201008180100 METAR LPPR 180100Z 00000KT 0800 R17/1300VP1500 R35/0800V1100N
                        FG VV001 17/17 Q1017=
201008180030 METAR LPPR 180030Z 34003KT 0600 R17/P1500 R35/P1500 FG VV001
                        17/17 Q1018=
201008180000 METAR LPPR 180000Z 34006KT 0800 R17/P1500 R35/1200VP1500
                        FG VV001 17/17 Q1018=
201008172330 METAR LPPR 172330Z 33006KT 2000 BR BKN001 BKN002 17/17 Q1018=
201008172300 METAR LPPR 172300Z 34008KT 2000 BR BKN001 BKN002 17/17 Q1018=
201008172230 METAR LPPR 172230Z 34003KT 2000 BR SCT001 BKN002 17/17 Q1018=
201008172200 METAR LPPR 172200Z 33005KT 310V020 3000 BR SCT001 BKN002
                        18/17 Q1018=
201008172130 METAR LPPR 172130Z 33009KT 7000 SCT002 BKN003 18/17 Q1018=
201008172100 METAR LPPR 172100Z 34011KT 8000 SCT003 BKN005 18/17 Q1018=
201008172030 METAR LPPR 172030Z 33011KT 8000 SCT004 BKN007 18/17 Q1017=
201008172000 METAR LPPR 172000Z 32010KT 9999 SCT007 SCT100 18/16 Q1017=
201008171930 METAR LPPR 171930Z 32011KT CAVOK 18/15 Q1017=
201008171900 METAR LPPR 171900Z 31011G24KT 280V350 CAVOK 18/15 Q1017=
201008171830 METAR LPPR 171830Z 31010KT CAVOK 19/15 Q1017=
201008171800 METAR LPPR 171800Z 31011KT CAVOK 20/16 Q1017=
201008171730 METAR LPPR 171730Z 31012KT CAVOK 20/15 Q1018=
201008171700 METAR LPPR 171700Z 32007KT 280V340 CAVOK 21/15 Q1017=
201008171630 METAR LPPR 171630Z 31009KT 280V350 CAVOK 22/16 Q1018=
201008171600 METAR LPPR 171600Z 31008KT 270V340 CAVOK 22/16 Q1018=
201008171530 METAR LPPR 171530Z 31010KT CAVOK 24/16 Q1018=
201008171500 METAR LPPR 171500Z 30004KT 270V340 CAVOK 24/15 Q1018=
201008171430 METAR LPPR 171430Z 29005KT 240V320 CAVOK 23/15 Q1018=
201008171400 METAR LPPR 171400Z VRB02KT CAVOK 23/15 Q1018=
201008171330 METAR LPPR 171330Z 21005KT 160V260 CAVOK 23/15 Q1019=
201008171300 METAR LPPR 171300Z VRB03KT CAVOK 23/16 Q1019=
201008171230 METAR LPPR 171230Z 21004KT 150V240 CAVOK 23/16 Q1018=
201008171200 METAR LPPR 171200Z VRB01KT CAVOK 23/16 Q1019=
201008171130 METAR LPPR 171130Z 22004KT 180V260 CAVOK 22/16 Q1019=
201008171100 METAR LPPR 171100Z 22004KT CAVOK 22/17 Q1019=
201008171030 METAR LPPR 171030Z VRB02KT CAVOK 22/16 Q1019=
201008171000 METAR LPPR 171000Z 18006KT 160V220 9000 SCT100 22/16 Q1019=
201008170930 METAR LPPR 170930Z 18008KT 150V210 8000 FEW100 SCT250 21/16
                        Q1019=
201008170900 METAR LPPR 170900Z 19008KT 8000 FEW100 SCT250 20/16 Q1019=
201008170830 METAR LPPR 170830Z 00000KT 8000 FEW100 SCT250 19/16 Q1019=
201008170800 METAR LPPR 170800Z 00000KT 7000 FEW100 SCT250 19/16 Q1019=
201008170730 METAR LPPR 170730Z 00000KT 8000 FEW250 18/15 Q1018=
201008170700 METAR LPPR 170700Z VRB01KT CAVOK 17/16 Q1018=
201008170630 METAR LPPR 170630Z 00000KT CAVOK 16/15 Q1018=
201008170600 METAR LPPR 170600Z 00000KT CAVOK 16/15 Q1018=
201008170530 METAR LPPR 170530Z 18002KT CAVOK 17/15 Q1018=
201008170500 METAR LPPR 170500Z 17006KT CAVOK 17/15 Q1018=
201008170430 METAR LPPR 170430Z 16006KT CAVOK 17/15 Q1017=
201008170400 METAR LPPR 170400Z 00000KT CAVOK 16/15 Q1017=
201008170330 METAR LPPR 170330Z 00000KT CAVOK 16/14 Q1017=
201008170300 METAR LPPR 170300Z 00000KT CAVOK 17/14 Q1017=
201008170230 METAR LPPR 170230Z 00000KT CAVOK 18/15 Q1017=
201008170200 METAR LPPR 170200Z 00000KT CAVOK 17/15 Q1017=
201008170130 METAR LPPR 170130Z 00000KT CAVOK 18/15 Q1017=
201008170100 METAR LPPR 170100Z 00000KT CAVOK 19/14 Q1017=
201008170030 METAR LPPR 170030Z 00000KT CAVOK 19/15 Q1017=
201008170000 METAR LPPR 170000Z 00000KT CAVOK 18/15 Q1017=
201008162330 METAR LPPR 162330Z 00000KT CAVOK 18/15 Q1017=
201008162300 METAR LPPR 162300Z 00000KT CAVOK 18/15 Q1017=
201008162230 METAR LPPR 162230Z 00000KT CAVOK 19/14 Q1017=
201008162200 METAR LPPR 162200Z 00000KT CAVOK 20/14 Q1017=
201008162130 METAR LPPR 162130Z 00000KT CAVOK 21/14 Q1017=
201008162100 METAR LPPR 162100Z 00000KT CAVOK 22/14 Q1017=
201008162030 METAR LPPR 162030Z 34002KT 5000 FU BKN250 22/14 Q1016=
201008162000 METAR LPPR 162000Z 34007KT CAVOK 23/13 Q1016=
201008161930 METAR LPPR 161930Z 33010KT CAVOK 24/13 Q1016=
201008161900 METAR LPPR 161900Z 33009KT CAVOK 24/13 Q1016=
201008161830 METAR LPPR 161830Z 33009KT CAVOK 24/13 Q1016=
201008161800 METAR LPPR 161800Z 33008KT CAVOK 25/13 Q1016=
201008161730 METAR LPPR 161730Z 33010KT CAVOK 26/13 Q1016=
201008161700 METAR LPPR 161700Z 30006KT 260V340 CAVOK 25/14 Q1016=
201008161630 METAR LPPR 161630Z 31007KT 280V350 CAVOK 25/13 Q1016=
201008161600 METAR LPPR 161600Z 32008KT CAVOK 26/13 Q1016=
201008161530 METAR LPPR 161530Z 32009KT CAVOK 26/13 Q1016=
201008161500 METAR LPPR 161500Z 32008KT 290V350 CAVOK 28/12 Q1016=
201008161430 METAR LPPR 161430Z 32010KT CAVOK 28/11 Q1016=
201008161400 METAR LPPR 161400Z 33015KT CAVOK 28/10 Q1016=
201008161330 METAR LPPR 161330Z 33011KT CAVOK 28/11 Q1016=
201008161300 METAR LPPR 161300Z 31010KT CAVOK 28/13 Q1016=
201008161230 METAR LPPR 161230Z 32009KT CAVOK 29/12 Q1016=
201008161200 METAR LPPR 161200Z VRB02KT CAVOK 30/12 Q1016=
201008161130 METAR LPPR 161130Z 00000KT CAVOK 29/10 Q1016=
201008161100 METAR LPPR 161100Z 02004KT CAVOK 29/10 Q1017=
201008161030 METAR LPPR 161030Z VRB03KT CAVOK 28/10 Q1017=
201008161000 METAR LPPR 161000Z VRB03KT CAVOK 27/10 Q1017=
201008160930 METAR LPPR 160930Z VRB03KT CAVOK 26/10 Q1016=
201008160900 METAR LPPR 160900Z 00000KT CAVOK 24/12 Q1016=
201008160830 METAR LPPR 160830Z 00000KT CAVOK 23/12 Q1016=
201008160800 METAR LPPR 160800Z 36003KT CAVOK 21/13 Q1016=
201008160730 METAR LPPR 160730Z 35002KT CAVOK 20/14 Q1016=
201008160700 METAR LPPR 160700Z VRB01KT CAVOK 18/13 Q1015=
201008160630 METAR LPPR 160630Z 10001KT CAVOK 17/13 Q1015=
201008160600 METAR LPPR 160600Z 00000KT CAVOK 16/14 Q1015=
201008160530 METAR LPPR 160530Z 00000KT 9999 FEW017 16/14 Q1015=
201008160500 METAR LPPR 160500Z 00000KT 9999 FEW017 16/14 Q1015=
201008160430 METAR LPPR 160430Z 00000KT 9999 SCT017 17/14 Q1015=
201008160400 METAR LPPR 160400Z 00000KT 9999 FEW013 BKN017 18/14 Q1014=
201008160330 METAR LPPR 160330Z 13005KT 9999 BKN017 18/14 Q1014=
201008160300 METAR LPPR 160300Z 14003KT 9999 BKN017 17/14 Q1015=
201008160230 METAR LPPR 160230Z 18003KT 9999 SCT020 SCT100 17/14 Q1015=
201008160200 METAR LPPR 160200Z 00000KT CAVOK 17/14 Q1015=
201008160130 METAR LPPR 160130Z VRB02KT CAVOK 17/14 Q1015=
201008160100 METAR LPPR 160100Z 00000KT CAVOK 17/14 Q1015=
201008160030 METAR LPPR 160030Z 17006KT CAVOK 17/14 Q1015=
201008160000 METAR LPPR 160000Z 00000KT CAVOK 18/13 Q1015=
201008152330 METAR LPPR 152330Z 00000KT CAVOK 17/13 Q1015=
201008152300 METAR LPPR 152300Z 00000KT CAVOK 18/13 Q1015=
201008152230 METAR LPPR 152230Z 00000KT CAVOK 18/13 Q1015=
201008152200 METAR LPPR 152200Z 00000KT CAVOK 18/13 Q1015=
201008152130 METAR LPPR 152130Z 00000KT CAVOK 18/13 Q1015=
201008152100 METAR LPPR 152100Z 35002KT CAVOK 19/14 Q1015=
201008152030 METAR LPPR 152030Z 33003KT CAVOK 19/13 Q1014=
201008152000 METAR LPPR 152000Z 35004KT CAVOK 20/13 Q1014=
201008151930 METAR LPPR 151930Z 34006KT CAVOK 22/13 Q1014=
201008151900 METAR LPPR 151900Z 34011KT CAVOK 23/12 Q1014=
201008151830 METAR LPPR 151830Z 34010KT CAVOK 24/13 Q1014=
201008151800 METAR LPPR 151800Z 33008KT CAVOK 25/13 Q1014=
201008151730 METAR LPPR 151730Z 32010KT CAVOK 26/12 Q1014=
201008151700 METAR LPPR 151700Z 33012KT CAVOK 27/12 Q1014=
201008151630 METAR LPPR 151630Z 33013KT CAVOK 27/12 Q1014=
201008151600 METAR LPPR 151600Z 34013KT CAVOK 28/12 Q1015=
201008151530 METAR LPPR 151530Z 33012KT CAVOK 28/12 Q1015=
201008151500 METAR LPPR 151500Z 32009KT 290V350 CAVOK 28/11 Q1015=
201008151430 METAR LPPR 151430Z 33011KT CAVOK 27/12 Q1015=
201008151400 METAR LPPR 151400Z 32012KT 280V340 CAVOK 27/11 Q1015=
201008151330 METAR LPPR 151330Z 32011KT CAVOK 27/11 Q1015=
201008151300 METAR LPPR 151300Z 32008KT CAVOK 27/13 Q1015=
201008151230 METAR LPPR 151230Z 32008KT 290V350 CAVOK 27/13 Q1015=
201008151200 METAR LPPR 151200Z 31008KT CAVOK 25/12 Q1015=
201008151130 METAR LPPR 151130Z 28004KT 250V310 CAVOK 27/12 Q1015=
201008151100 METAR LPPR 151100Z 00000KT CAVOK 28/12 Q1016=
201008151030 METAR LPPR 151030Z 00000KT CAVOK 27/11 Q1015=
201008151000 METAR LPPR 151000Z 00000KT CAVOK 26/12 Q1015=
201008150930 METAR LPPR 150930Z VRB02KT CAVOK 24/12 Q1015=
201008150900 METAR LPPR 150900Z 00000KT CAVOK 23/12 Q1015=
201008150830 METAR LPPR 150830Z 00000KT CAVOK 22/13 Q1015=
201008150800 METAR LPPR 150800Z 00000KT CAVOK 20/12 Q1015=
201008150730 METAR LPPR 150730Z 00000KT CAVOK 17/12 Q1014=
201008150700 METAR LPPR 150700Z 00000KT CAVOK 15/12 Q1014=
201008150630 METAR LPPR 150630Z 00000KT CAVOK 14/11 Q1014=
201008150600 METAR LPPR 150600Z 00000KT CAVOK 13/11 Q1014=
201008150530 METAR LPPR 150530Z 00000KT CAVOK 14/11 Q1013=
201008150500 METAR LPPR 150500Z 00000KT CAVOK 13/11 Q1013=
201008150430 METAR LPPR 150430Z 00000KT CAVOK 14/11 Q1013=
201008150400 METAR LPPR 150400Z 00000KT CAVOK 14/11 Q1013=
201008150330 METAR LPPR 150330Z 00000KT CAVOK 15/11 Q1013=
201008150300 METAR LPPR 150300Z 00000KT CAVOK 16/12 Q1013=
201008150230 METAR LPPR 150230Z 00000KT CAVOK 16/12 Q1013=
201008150200 METAR LPPR 150200Z 00000KT CAVOK 16/12 Q1013=
201008150130 METAR LPPR 150130Z 00000KT CAVOK 16/12 Q1013=
201008150100 METAR LPPR 150100Z 00000KT CAVOK 16/12 Q1013=
201008150030 METAR LPPR 150030Z 00000KT CAVOK 16/12 Q1013=
201008150000 METAR LPPR 150000Z 00000KT CAVOK 17/12 Q1013=
201008142330 METAR LPPR 142330Z 00000KT CAVOK 17/12 Q1014=
201008142300 METAR LPPR 142300Z 00000KT CAVOK 17/13 Q1013=
201008142230 METAR LPPR 142230Z 00000KT CAVOK 18/13 Q1014=
201008142200 METAR LPPR 142200Z 00000KT CAVOK 18/13 Q1014=
201008142130 METAR LPPR 142130Z 00000KT CAVOK 18/13 Q1013=
201008142100 METAR LPPR 142100Z 00000KT CAVOK 19/13 Q1013=
201008142030 METAR LPPR 142030Z 35001KT CAVOK 19/13 Q1013=
201008142000 METAR LPPR 142000Z 34005KT CAVOK 20/13 Q1012=
201008141930 METAR LPPR 141930Z 33006KT CAVOK 22/13 Q1012=
201008141900 METAR LPPR 141900Z 34007KT CAVOK 23/12 Q1012=
201008141830 METAR LPPR 141830Z 33007KT CAVOK 24/13 Q1012=
201008141800 METAR LPPR 141800Z 33011KT CAVOK 24/12 Q1013=
201008141730 METAR LPPR 141730Z 32008KT 300V010 CAVOK 25/12 Q1013=
201008141700 METAR LPPR 141700Z 32011KT CAVOK 25/12 Q1013=
201008141630 METAR LPPR 141630Z 33015KT CAVOK 26/12 Q1014=
201008141600 METAR LPPR 141600Z 33011KT CAVOK 26/12 Q1014=
201008141530 METAR LPPR 141530Z 32013KT CAVOK 26/12 Q1014=
201008141500 METAR LPPR 141500Z 32012KT CAVOK 26/11 Q1014=
201008141430 METAR LPPR 141430Z 33016KT CAVOK 26/11 Q1015=
201008141400 METAR LPPR 141400Z 32013KT CAVOK 26/11 Q1015=
201008141330 METAR LPPR 141330Z 31012KT CAVOK 26/11 Q1015=
201008141300 METAR LPPR 141300Z 31013KT 270V340 CAVOK 25/11 Q1015=
201008141230 METAR LPPR 141230Z 31012KT CAVOK 25/11 Q1015=
201008141200 METAR LPPR 141200Z 34008G19KT 290V020 CAVOK 27/11 Q1016=
201008141130 METAR LPPR 141130Z 01004KT 310V050 CAVOK 27/09 Q1016=
201008141100 METAR LPPR 141100Z VRB03KT CAVOK 26/09 Q1016=
201008141030 METAR LPPR 141030Z VRB03KT CAVOK 26/09 Q1016=
201008141000 METAR LPPR 141000Z 04006KT 010V100 CAVOK 25/09 Q1016=
201008140930 METAR LPPR 140930Z 07007KT 030V120 CAVOK 24/08 Q1016=
201008140900 METAR LPPR 140900Z 07004KT 020V120 CAVOK 23/09 Q1016=
201008140830 METAR LPPR 140830Z 08004KT 020V120 CAVOK 23/09 Q1016=
201008140800 METAR LPPR 140800Z VRB02KT CAVOK 22/09 Q1016=
201008140730 METAR LPPR 140730Z 00000KT CAVOK 21/09 Q1016=
201008140700 METAR LPPR 140700Z 00000KT CAVOK 20/09 Q1016=
201008140630 METAR LPPR 140630Z 00000KT CAVOK 19/10 Q1016=
201008140600 METAR LPPR 140600Z 00000KT CAVOK 19/09 Q1016=
201008140530 METAR LPPR 140530Z 00000KT CAVOK 19/09 Q1016=
201008140500 METAR LPPR 140500Z 00000KT CAVOK 20/10 Q1016=
201008140430 METAR LPPR 140430Z 00000KT CAVOK 21/09 Q1015=
201008140400 METAR LPPR 140400Z VRB02KT CAVOK 21/09 Q1015=
201008140330 METAR LPPR 140330Z VRB02KT CAVOK 21/10 Q1015=
201008140300 METAR LPPR 140300Z 00000KT CAVOK 20/10 Q1015=
201008140230 METAR LPPR 140230Z 00000KT CAVOK 18/12 Q1015=
201008140200 METAR LPPR 140200Z 00000KT CAVOK 18/12 Q1015=
201008140130 METAR LPPR 140130Z 00000KT CAVOK 19/12 Q1014=
201008140100 METAR LPPR 140100Z 00000KT CAVOK 19/13 Q1015=
201008140030 METAR LPPR 140030Z 00000KT CAVOK 19/13 Q1015=
201008140000 METAR LPPR 140000Z 00000KT CAVOK 19/13 Q1015=
201008132330 METAR LPPR 132330Z 00000KT CAVOK 19/13 Q1015=
201008132300 METAR LPPR 132300Z 36002KT CAVOK 20/13 Q1015=
201008132230 METAR LPPR 132230Z 35005KT CAVOK 19/13 Q1015=
201008132200 METAR LPPR 132200Z 00000KT CAVOK 20/13 Q1014=
201008132130 METAR LPPR 132130Z 00000KT CAVOK 20/13 Q1015=
201008132100 METAR LPPR 132100Z 34002KT CAVOK 20/13 Q1014=
201008132030 METAR LPPR 132030Z 00000KT CAVOK 20/13 Q1013=
201008132000 METAR LPPR 132000Z 34006KT CAVOK 21/13 Q1013=
201008131930 METAR LPPR 131930Z 34006KT CAVOK 22/13 Q1013=
201008131900 METAR LPPR 131900Z 35006KT CAVOK 23/13 Q1013=
201008131830 METAR LPPR 131830Z 34009KT CAVOK 24/13 Q1013=
201008131800 METAR LPPR 131800Z 34013KT CAVOK 24/13 Q1013=
201008131730 METAR LPPR 131730Z 34012KT CAVOK 25/13 Q1014=
201008131700 METAR LPPR 131700Z 33015KT CAVOK 25/13 Q1014=
201008131630 METAR LPPR 131630Z 32010KT 290V350 CAVOK 25/13 Q1014=
201008131600 METAR LPPR 131600Z 32010KT CAVOK 25/13 Q1014=
201008131530 METAR LPPR 131530Z 31010KT CAVOK 26/14 Q1015=
201008131500 METAR LPPR 131500Z 32010KT CAVOK 26/13 Q1015=
201008131430 METAR LPPR 131430Z 32010KT CAVOK 27/13 Q1015=
201008131400 METAR LPPR 131400Z 32011KT CAVOK 27/14 Q1015=
201008131330 METAR LPPR 131330Z 32013KT CAVOK 26/13 Q1016=
201008131300 METAR LPPR 131300Z 31014KT CAVOK 26/13 Q1016=
201008131230 METAR LPPR 131230Z 31012KT CAVOK 25/14 Q1016=
201008131200 METAR LPPR 131200Z 31010KT 270V340 CAVOK 25/14 Q1016=
201008131130 METAR LPPR 131130Z 31010KT CAVOK 27/14 Q1016=
201008131100 METAR LPPR 131100Z 01007KT 330V050 CAVOK 27/12 Q1017=
201008131030 METAR LPPR 131030Z 02007KT 330V060 CAVOK 26/13 Q1017=
201008131000 METAR LPPR 131000Z 04008KT 010V090 CAVOK 25/12 Q1017=
201008130930 METAR LPPR 130930Z 00000KT CAVOK 24/12 Q1017=
201008130900 METAR LPPR 130900Z 00000KT CAVOK 24/13 Q1017=
201008130830 METAR LPPR 130830Z 00000KT CAVOK 23/13 Q1017=
201008130800 METAR LPPR 130800Z 00000KT CAVOK 22/13 Q1017=
201008130730 METAR LPPR 130730Z 00000KT CAVOK 20/14 Q1017=
201008130700 METAR LPPR 130700Z 00000KT CAVOK 18/14 Q1017=
201008130630 METAR LPPR 130630Z 00000KT CAVOK 17/13 Q1016=
201008130600 METAR LPPR 130600Z 00000KT CAVOK 17/13 Q1016=
201008130530 METAR LPPR 130530Z 02005KT CAVOK 18/13 Q1016=
201008130500 METAR LPPR 130500Z 00000KT CAVOK 17/13 Q1016=
201008130430 METAR LPPR 130430Z 00000KT CAVOK 17/13 Q1016=
201008130400 METAR LPPR 130400Z 01005KT CAVOK 18/13 Q1016=
201008130330 METAR LPPR 130330Z 35006KT CAVOK 16/13 Q1016=
201008130300 METAR LPPR 130300Z 36006KT CAVOK 17/13 Q1015=
201008130230 METAR LPPR 130230Z 35006KT CAVOK 16/13 Q1016=
201008130200 METAR LPPR 130200Z 35006KT CAVOK 16/13 Q1015=
201008130130 METAR LPPR 130130Z 34006KT CAVOK 16/13 Q1015=
201008130100 METAR LPPR 130100Z 33006KT CAVOK 17/14 Q1016=
201008130030 METAR LPPR 130030Z 34006KT CAVOK 17/13 Q1015=
201008130000 METAR LPPR 130000Z 35007KT CAVOK 18/14 Q1016=
201008122330 METAR LPPR 122330Z 34007KT CAVOK 18/14 Q1016=
201008122300 METAR LPPR 122300Z 33003KT CAVOK 18/14 Q1016=
201008122230 METAR LPPR 122230Z 00000KT CAVOK 18/15 Q1016=
201008122200 METAR LPPR 122200Z 00000KT CAVOK 19/15 Q1016=
201008122130 METAR LPPR 122130Z 00000KT CAVOK 19/15 Q1016=
201008122100 METAR LPPR 122100Z 33008KT CAVOK 20/15 Q1016=
201008122030 METAR LPPR 122030Z 35006KT CAVOK 20/15 Q1016=
201008122000 METAR LPPR 122000Z 34011KT CAVOK 21/15 Q1016=
201008121930 METAR LPPR 121930Z 33010KT CAVOK 22/15 Q1016=
201008121900 METAR LPPR 121900Z 33013KT CAVOK 23/16 Q1016=
201008121830 METAR LPPR 121830Z 32009KT 290V350 CAVOK 23/16 Q1016=
201008121800 METAR LPPR 121800Z 31009KT CAVOK 22/16 Q1016=
201008121730 METAR LPPR 121730Z 32011KT CAVOK 22/16 Q1016=
201008121700 METAR LPPR 121700Z 31011KT CAVOK 23/16 Q1016=
201008121630 METAR LPPR 121630Z 32011KT 290V350 CAVOK 24/16 Q1017=
201008121600 METAR LPPR 121600Z 33016KT CAVOK 25/16 Q1017=
201008121530 METAR LPPR 121530Z 32014KT CAVOK 24/17 Q1017=
201008121500 METAR LPPR 121500Z 32013KT CAVOK 24/17 Q1017=
201008121430 METAR LPPR 121430Z 32016KT CAVOK 25/17 Q1017=
201008121400 METAR LPPR 121400Z 31013KT CAVOK 24/18 Q1018=
201008121330 METAR LPPR 121330Z 32013KT 9999 FEW015 25/18 Q1018=
201008121300 METAR LPPR 121300Z 32013KT 290V350 9999 FEW015 25/18 Q1018=
201008121230 METAR LPPR 121230Z 31010KT 280V340 9999 FEW015 24/18 Q1018=
201008121200 METAR LPPR 121200Z 31010KT 290V350 9999 FEW015 24/18 Q1018=
201008121130 METAR LPPR 121130Z 31009KT 270V340 9999 FEW015 23/19 Q1018=
201008121100 METAR LPPR 121100Z 29006KT 260V350 9999 FEW015 23/18 Q1019=
201008121030 METAR LPPR 121030Z 28007KT 250V350 9000 FEW007 23/18 Q1019=
201008121000 METAR LPPR 121000Z 00000KT 9000 FEW007 22/18 Q1019=
201008120930 METAR LPPR 120930Z 00000KT 7000 FEW007 23/19 Q1019=
201008120900 METAR LPPR 120900Z 00000KT 7000 FEW007 22/19 Q1019=
201008120830 METAR LPPR 120830Z 00000KT 7000 FEW007 21/19 Q1019=
201008120800 METAR LPPR 120800Z 00000KT 4000 BR FEW002 20/20 Q1019=
201008120730 METAR LPPR 120730Z 00000KT 3000 BR FEW001 19/19 Q1019=
201008120700 METAR LPPR 120700Z 00000KT 3000 BR SKC 18/18 Q1018=
201008120630 METAR LPPR 120630Z 00000KT 2000 R17/1100VP1500 R35/P1500
                        MIFG SKC 17/17 Q1018=
201008120600 METAR LPPR 120600Z 00000KT 0700 R17/0650N R35/P1500 BCFG
                        SCT001 17/17 Q1018=
201008120530 METAR LPPR 120530Z 00000KT 0600 R17/0700N R35/0650U FG BKN001
                        17/17 Q1018=
201008120500 METAR LPPR 120500Z 00000KT 0400 R17/0500U R35/0350V0550U
                        FG VV000 17/17 Q1018=
201008120430 METAR LPPR 120430Z 00000KT 0400 R17/0650N R35/0600V1000N
                        FG BKN000 18/18 Q1018=
201008120400 METAR LPPR 120400Z 00000KT 0800 R17/1100V1500N R35/0900VP1500
                        FG SCT000 BKN001 18/18 Q1018=
201008120330 METAR LPPR 120330Z 00000KT 1200 R17/P1500 R35/P1500 BR VCFG
                        SCT000 BKN001 18/18 Q1018=
201008120300 METAR LPPR 120300Z 00000KT 2000 BR VCFG SCT000 BKN001 18/18
                        Q1018=
201008120230 METAR LPPR 120230Z 00000KT 2000 BR VCFG SCT000 BKN001 18/18
                        Q1018=
201008120200 METAR LPPR 120200Z 00000KT 2000 BR VCFG SCT000 BKN001 18/18
                        Q1019=
201008120130 METAR LPPR 120130Z 00000KT 3000 BR SCT000 BKN002 18/18 Q1019=
201008120100 METAR LPPR 120100Z 00000KT 7000 SCT001 BKN004 18/18 Q1019=
201008120030 METAR LPPR 120030Z 00000KT 7000 SCT001 BKN003 18/18 Q1019=
201008120000 METAR LPPR 120000Z VRB02KT 5000 BR SCT001 BKN002 18/18 Q1019=
201008112330 METAR LPPR 112330Z 00000KT 5000 BR SCT001 BKN002 18/18 Q1019=
201008112300 METAR LPPR 112300Z 32005KT 3000 BR VCFG SCT000 BKN002 18/18
                        Q1019=
201008112230 METAR LPPR 112230Z 33004KT 2000 BR VCFG SCT000 BKN002 18/18
                        Q1020=
201008112200 METAR LPPR 112200Z 35004KT 3000 BR VCFG SCT000 BKN002 18/18
                        Q1020=
201008112130 METAR LPPR 112130Z 34006KT 3000 BR VCFG SCT000 BKN002 18/18
                        Q1020=
201008112100 METAR LPPR 112100Z 34008KT 2000 BR VCFG SCT000 BKN001 18/18
                        Q1020=
201008112030 METAR LPPR 112030Z 33012KT 2000 BR VCFG SCT000 BKN002 18/18
                        Q1019=
201008112000 METAR LPPR 112000Z VRB03KT 3000 BR VCFG SCT001 BKN002 17/16
                        Q1019=
201008111930 METAR LPPR 111930Z 31006KT 280V340 2500 BR VCFG BKN002 17/16
                        Q1019=
201008111900 METAR LPPR 111900Z 31006G17KT 280V350 5000 BR BKN002 18/16
                        Q1019=
201008111830 METAR LPPR 111830Z 31008KT 9999 SCT004 19/17 Q1019=
201008111800 METAR LPPR 111800Z 32009KT 9999 SCT003 19/17 Q1019=
201008111730 METAR LPPR 111730Z 31010KT 9999 SCT003 20/16 Q1019=
201008111700 METAR LPPR 111700Z 31009KT 9999 FEW008 21/17 Q1019=
201008111630 METAR LPPR 111630Z 31010KT 9999 FEW008 21/17 Q1019=
201008111600 METAR LPPR 111600Z 30009KT 9999 FEW008 22/17 Q1019=
201008111530 METAR LPPR 111530Z 31011KT 9999 FEW008 21/16 Q1019=
201008111500 METAR LPPR 111500Z 31011KT 9999 FEW008 21/16 Q1019=
201008111430 METAR LPPR 111430Z 30009KT 270V010 9999 FEW008 21/16 Q1019=
201008111400 METAR LPPR 111400Z 30008KT 270V030 9999 FEW008 23/16 Q1019=
201008111330 METAR LPPR 111330Z 31007KT 270V330 CAVOK 23/16 Q1019=
201008111300 METAR LPPR 111300Z 30008G18KT 270V330 CAVOK 24/16 Q1019=
201008111230 METAR LPPR 111230Z 30009KT CAVOK 24/15 Q1020=
201008111200 METAR LPPR 111200Z 29006KT 260V330 CAVOK 25/13 Q1020=
201008111130 METAR LPPR 111130Z 29006KT 260V320 CAVOK 26/14 Q1020=
201008111100 METAR LPPR 111100Z 28005KT 250V340 8000 SKC 26/13 Q1020=
201008111030 METAR LPPR 111030Z 27004KT 240V300 8000 SKC 26/14 Q1020=
201008111000 METAR LPPR 111000Z 28004KT 250V310 8000 SKC 24/14 Q1020=
201008110930 METAR LPPR 110930Z 00000KT 8000 SKC 25/14 Q1020=
201008110900 METAR LPPR 110900Z 00000KT 8000 SKC 25/12 Q1019=
201008110830 METAR LPPR 110830Z 00000KT 8000 FEW250 24/11 Q1019=
201008110800 METAR LPPR 110800Z 00000KT 8000 FEW250 20/13 Q1019=
201008110730 METAR LPPR 110730Z 00000KT 8000 FEW250 18/14 Q1019=
201008110700 METAR LPPR 110700Z 00000KT 8000 FEW250 16/14 Q1019=
201008110630 METAR LPPR 110630Z 00000KT 8000 FEW250 15/12 Q1019=
201008110600 METAR LPPR 110600Z 00000KT CAVOK 14/13 Q1019=
201008110530 METAR LPPR 110530Z 00000KT CAVOK 15/13 Q1019=
201008110500 METAR LPPR 110500Z 00000KT CAVOK 15/13 Q1019=
201008110430 METAR LPPR 110430Z 00000KT CAVOK 14/13 Q1019=
201008110400 METAR LPPR 110400Z 00000KT CAVOK 14/13 Q1019=
201008110330 METAR LPPR 110330Z 00000KT CAVOK 14/13 Q1019=
201008110300 METAR LPPR 110300Z 00000KT CAVOK 15/13 Q1019=
201008110230 METAR LPPR 110230Z 00000KT CAVOK 15/13 Q1019=
201008110200 METAR LPPR 110200Z 00000KT CAVOK 16/14 Q1019=
201008110130 METAR LPPR 110130Z 00000KT CAVOK 16/14 Q1018=
201008110100 METAR LPPR 110100Z 00000KT CAVOK 16/14 Q1018=
201008110030 METAR LPPR 110030Z 00000KT CAVOK 16/14 Q1018=
201008110000 METAR LPPR 110000Z 00000KT CAVOK 16/14 Q1019=
201008102330 METAR LPPR 102330Z 00000KT CAVOK 17/14 Q1019=
201008102300 METAR LPPR 102300Z 00000KT CAVOK 17/14 Q1019=
201008102230 METAR LPPR 102230Z 00000KT CAVOK 17/14 Q1018=
201008102200 METAR LPPR 102200Z 00000KT CAVOK 18/14 Q1018=
201008102130 METAR LPPR 102130Z VRB01KT CAVOK 19/14 Q1018=
201008102100 METAR LPPR 102100Z 00000KT CAVOK 19/13 Q1018=
201008102030 METAR LPPR 102030Z 33002KT CAVOK 19/13 Q1018=
201008102000 METAR LPPR 102000Z 00000KT CAVOK 21/13 Q1017=
201008101930 METAR LPPR 101930Z 32005KT CAVOK 22/13 Q1017=
201008101900 METAR LPPR 101900Z 32008KT 290V350 CAVOK 25/12 Q1017=
201008101830 METAR LPPR 101830Z 33010KT CAVOK 26/10 Q1017=
201008101800 METAR LPPR 101800Z 32009KT CAVOK 27/12 Q1017=
201008101730 METAR LPPR 101730Z 32007KT 280V340 CAVOK 28/12 Q1017=
201008101700 METAR LPPR 101700Z 31007KT CAVOK 27/14 Q1017=
201008101630 METAR LPPR 101630Z 31007KT CAVOK 27/14 Q1017=
201008101600 METAR LPPR 101600Z 31006KT CAVOK 27/14 Q1017=
201008101530 METAR LPPR 101530Z 31007KT 280V340 CAVOK 27/14 Q1017=
201008101500 METAR LPPR 101500Z 31007KT 290V350 CAVOK 28/14 Q1017=
201008101430 METAR LPPR 101430Z 31007KT 280V340 CAVOK 27/14 Q1017=
201008101400 METAR LPPR 101400Z 29007KT 250V330 CAVOK 27/15 Q1018=
201008101330 METAR LPPR 101330Z 30006KT 260V340 CAVOK 28/16 Q1018=
201008101300 METAR LPPR 101300Z 31006KT 270V340 CAVOK 28/16 Q1018=
201008101230 METAR LPPR 101230Z 00000KT CAVOK 28/16 Q1018=
201008101200 METAR LPPR 101200Z 00000KT 8000 SKC 28/16 Q1018=
201008101130 METAR LPPR 101130Z 00000KT 8000 SKC 28/15 Q1018=
201008101100 METAR LPPR 101100Z 00000KT 8000 SKC 28/17 Q1018=
201008101030 METAR LPPR 101030Z 25003G13KT CAVOK 28/17 Q1017=
201008101000 METAR LPPR 101000Z 00000KT CAVOK 28/18 Q1017=
201008100930 METAR LPPR 100930Z 00000KT CAVOK 28/18 Q1017=
201008100900 METAR LPPR 100900Z 00000KT CAVOK 28/17 Q1017=
201008100830 METAR LPPR 100830Z 00000KT CAVOK 27/18 Q1017=
201008100800 METAR LPPR 100800Z 00000KT CAVOK 25/18 Q1017=
201008100730 METAR LPPR 100730Z 00000KT CAVOK 24/17 Q1016=
201008100700 METAR LPPR 100700Z 00000KT 7000 FEW090 23/16 Q1016=
201008100630 METAR LPPR 100630Z 00000KT 7000 FEW090 21/15 Q1016=
201008100600 METAR LPPR 100600Z 00000KT 7000 FEW090 20/15 Q1016=
201008100530 METAR LPPR 100530Z 00000KT 7000 SCT090 21/15 Q1015=
201008100500 METAR LPPR 100500Z 00000KT CAVOK 21/15 Q1015=
201008100430 METAR LPPR 100430Z 00000KT CAVOK 21/15 Q1015=
201008100400 METAR LPPR 100400Z 00000KT CAVOK 21/17 Q1015=
201008100330 METAR LPPR 100330Z 00000KT CAVOK 24/14 Q1015=
201008100300 METAR LPPR 100300Z 00000KT CAVOK 24/14 Q1015=
201008100230 METAR LPPR 100230Z 00000KT CAVOK 22/16 Q1015=
201008100200 METAR LPPR 100200Z 00000KT CAVOK 22/17 Q1015=
201008100130 METAR LPPR 100130Z 00000KT CAVOK 22/17 Q1015=
201008100100 METAR LPPR 100100Z 00000KT CAVOK 22/18 Q1015=
201008100030 METAR LPPR 100030Z 00000KT CAVOK 21/18 Q1015=
201008100000 METAR LPPR 100000Z 00000KT CAVOK 22/18 Q1016=
201008092330 METAR LPPR 092330Z 00000KT CAVOK 22/18 Q1016=
201008092300 METAR LPPR 092300Z 00000KT CAVOK 23/18 Q1016=
201008092230 METAR LPPR 092230Z 00000KT CAVOK 23/17 Q1016=
201008092200 METAR LPPR 092200Z 00000KT CAVOK 23/17 Q1016=
201008092130 METAR LPPR 092130Z 00000KT CAVOK 23/17 Q1016=
201008092100 METAR LPPR 092100Z 00000KT CAVOK 24/17 Q1016=
201008092030 METAR LPPR 092030Z 00000KT CAVOK 24/17 Q1015=
201008092000 METAR LPPR 092000Z 00000KT CAVOK 25/17 Q1015=
201008091930 METAR LPPR 091930Z 00000KT CAVOK 27/17 Q1015=
201008091900 METAR LPPR 091900Z 00000KT CAVOK 27/17 Q1015=
201008091830 METAR LPPR 091830Z 00000KT CAVOK 28/17 Q1015=
201008091800 METAR LPPR 091800Z 00000KT CAVOK 29/17 Q1015=
201008091730 METAR LPPR 091730Z 00000KT CAVOK 30/16 Q1015=
201008091700 METAR LPPR 091700Z 32006KT 290V350 CAVOK 30/15 Q1015=
201008091630 METAR LPPR 091630Z 32007KT CAVOK 30/14 Q1015=
201008091600 METAR LPPR 091600Z 32008KT 290V350 CAVOK 31/12 Q1015=
201008091530 METAR LPPR 091530Z 33009KT CAVOK 31/11 Q1015=
201008091500 METAR LPPR 091500Z 30008KT 270V360 CAVOK 31/12 Q1016=
201008091430 METAR LPPR 091430Z 31006KT CAVOK 33/13 Q1016=
201008091400 METAR LPPR 091400Z 00000KT CAVOK 32/15 Q1016=
201008091330 METAR LPPR 091330Z 00000KT 8000 FEW250 32/14 Q1016=
201008091300 METAR LPPR 091300Z 27005KT 8000 FEW250 31/17 Q1016=
201008091230 METAR LPPR 091230Z 00000KT 8000 FEW250 31/16 Q1016=
201008091200 METAR LPPR 091200Z 30006KT 270V330 8000 FEW080 30/15 Q1016=
201008091130 METAR LPPR 091130Z 29006KT 250V330 7000 SCT080 31/18 Q1016=
201008091100 METAR LPPR 091100Z VRB02KT 7000 SCT080 30/18 Q1016=
201008091030 METAR LPPR 091030Z 00000KT 7000 SCT080 29/16 Q1016=
201008091000 METAR LPPR 091000Z VRB02KT 7000 SCT080 28/16 Q1016=
201008090930 METAR LPPR 090930Z 00000KT 6000 SCT080 27/16 Q1016=
201008090900 METAR LPPR 090900Z VRB01KT 6000 BKN080 25/17 Q1016=
201008090830 METAR LPPR 090830Z 00000KT 6000 FEW080 24/17 Q1017=
201008090800 METAR LPPR 090800Z 00000KT 7000 FEW070 23/17 Q1017=
201008090730 METAR LPPR 090730Z 00000KT 8000 FEW070 22/17 Q1016=
201008090700 METAR LPPR 090700Z 00000KT 8000 SCT070 22/18 Q1016=
201008090630 METAR LPPR 090630Z 00000KT 8000 SCT045 21/17 Q1016=
201008090600 METAR LPPR 090600Z 00000KT CAVOK 21/17 Q1016=
201008090530 METAR LPPR 090530Z 00000KT CAVOK 22/16 Q1015=
201008090500 METAR LPPR 090500Z 00000KT CAVOK 23/16 Q1015=
201008090430 METAR LPPR 090430Z VRB01KT 9999 FEW040 BKN100 23/16 Q1015=
201008090400 METAR LPPR 090400Z VRB03KT 9999 FEW040 SCT100 23/16 Q1015=
201008090330 METAR LPPR 090330Z 00000KT 9999 FEW040 SCT100 22/16 Q1015=
201008090300 METAR LPPR 090300Z 00000KT 9999 FEW040 SCT100 22/17 Q1016=
201008090230 METAR LPPR 090230Z 11007KT 9999 FEW040 BKN090 22/17 Q1016=
201008090200 METAR LPPR 090200Z VRB02KT 9999 SCT030 BKN080 21/18 Q1016=
201008090130 METAR LPPR 090130Z 00000KT 8000 -RA SCT035 BKN090 20/17 Q1016=
201008090100 METAR LPPR 090100Z 16006KT 9999 SCT035 BKN200 20/17 Q1017=
201008090030 METAR LPPR 090030Z 00000KT 9999 SCT040 BKN200 19/17 Q1017=
201008090000 METAR LPPR 090000Z 00000KT 9999 SCT040 BKN200 19/17 Q1017=
201008082330 METAR LPPR 082330Z 00000KT 9999 SCT040 BKN200 19/17 Q1017=
201008082300 METAR LPPR 082300Z 00000KT 9999 SCT040 BKN200 20/16 Q1017=
201008082230 METAR LPPR 082230Z 00000KT 9999 SCT035 BKN200 19/16 Q1017=
201008082200 METAR LPPR 082200Z 00000KT 9999 SCT025 BKN250 19/16 Q1017=
201008082130 METAR LPPR 082130Z VRB03KT 9999 SCT025 BKN250 21/17 Q1016=
201008082100 METAR LPPR 082100Z VRB03KT 9999 SCT025 BKN250 26/15 Q1015=
201008082030 METAR LPPR 082030Z 07004KT 020V100 8000 SCT025 BKN250 25/15
                        Q1014=
201008082000 METAR LPPR 082000Z 00000KT 8000 SCT025 BKN250 23/16 Q1015=
201008081930 METAR LPPR 081930Z 00000KT 8000 FEW025 BKN250 22/17 Q1015=
201008081900 METAR LPPR 081900Z 22003KT 9999 FEW025 BKN250 23/17 Q1015=
201008081830 METAR LPPR 081830Z 00000KT 9999 FEW020 BKN250 25/16 Q1015=
201008081800 METAR LPPR 081800Z 00000KT 9999 SCT020 FEW025CB BKN250 24/16
                        Q1015=
201008081730 METAR LPPR 081730Z 00000KT 9999 SCT020 FEW025CB BKN250 24/16
                        Q1015=
201008081700 METAR LPPR 081700Z 21004KT 170V250 9999 SCT025 BKN250 25/16
                        Q1015=
201008081630 METAR LPPR 081630Z 00000KT 9999 FEW040 BKN250 25/17 Q1015=
201008081600 METAR LPPR 081600Z 21004KT 170V250 9999 FEW040 BKN250 27/17
                        Q1015=
201008081530 METAR LPPR 081530Z 22005KT 170V260 CAVOK 28/17 Q1014=
201008081500 METAR LPPR 081500Z 20005KT 160V240 CAVOK 28/17 Q1015=
201008081430 METAR LPPR 081430Z 19009KT CAVOK 27/17 Q1015=
201008081400 METAR LPPR 081400Z 18008KT 150V220 CAVOK 26/17 Q1015=
201008081330 METAR LPPR 081330Z 18012KT CAVOK 25/17 Q1015=
201008081300 METAR LPPR 081300Z 20009KT 170V230 CAVOK 26/17 Q1015=
201008081230 METAR LPPR 081230Z 20008KT CAVOK 26/17 Q1015=
201008081200 METAR LPPR 081200Z 20008KT 170V230 CAVOK 25/17 Q1015=
201008081130 METAR LPPR 081130Z 00000KT CAVOK 26/17 Q1015=
201008081100 METAR LPPR 081100Z 21005KT 170V250 CAVOK 25/17 Q1015=
201008081030 METAR LPPR 081030Z 21005KT 180V240 CAVOK 25/17 Q1015=
201008081000 METAR LPPR 081000Z 21006KT 180V260 CAVOK 25/17 Q1015=
201008080930 METAR LPPR 080930Z 21006KT 180V240 CAVOK 25/16 Q1015=
201008080900 METAR LPPR 080900Z 21006KT 180V240 CAVOK 24/16 Q1015=
201008080830 METAR LPPR 080830Z 19006KT CAVOK 24/16 Q1015=
201008080800 METAR LPPR 080800Z 18007KT 140V220 CAVOK 23/16 Q1015=
201008080730 METAR LPPR 080730Z 00000KT 8000 SCT250 21/17 Q1015=
201008080700 METAR LPPR 080700Z 00000KT 8000 SCT250 19/17 Q1014=
201008080630 METAR LPPR 080630Z 00000KT 8000 SCT250 19/16 Q1014=
201008080600 METAR LPPR 080600Z 00000KT 8000 SCT250 18/16 Q1014=
201008080530 METAR LPPR 080530Z 00000KT 8000 SCT250 19/16 Q1014=
201008080500 METAR LPPR 080500Z 00000KT CAVOK 19/16 Q1014=
201008080430 METAR LPPR 080430Z 00000KT CAVOK 18/16 Q1014=
201008080400 METAR LPPR 080400Z 00000KT CAVOK 18/16 Q1013=
201008080330 METAR LPPR 080330Z 00000KT CAVOK 18/16 Q1013=
201008080300 METAR LPPR 080300Z 00000KT CAVOK 19/16 Q1013=
201008080230 METAR LPPR 080230Z 00000KT CAVOK 19/16 Q1013=
201008080200 METAR LPPR 080200Z 00000KT CAVOK 20/16 Q1014=
201008080130 METAR LPPR 080130Z 00000KT CAVOK 20/16 Q1014=
201008080100 METAR LPPR 080100Z 00000KT CAVOK 19/16 Q1014=
201008080030 METAR LPPR 080030Z 00000KT CAVOK 20/16 Q1014=
201008080000 METAR LPPR 080000Z 00000KT CAVOK 21/16 Q1014=
201008072330 METAR LPPR 072330Z 00000KT CAVOK 21/16 Q1014=
201008072300 METAR LPPR 072300Z 00000KT CAVOK 21/16 Q1014=
201008072230 METAR LPPR 072230Z 00000KT CAVOK 20/16 Q1014=
201008072200 METAR LPPR 072200Z 00000KT CAVOK 20/16 Q1013=
201008072130 METAR LPPR 072130Z 00000KT CAVOK 20/16 Q1013=
201008072100 METAR LPPR 072100Z 00000KT CAVOK 20/15 Q1013=
201008072030 METAR LPPR 072030Z 00000KT CAVOK 21/16 Q1013=
201008072000 METAR LPPR 072000Z 00000KT CAVOK 23/16 Q1013=
201008071930 METAR LPPR 071930Z 00000KT CAVOK 26/16 Q1013=
201008071900 METAR LPPR 071900Z 32005KT 280V350 CAVOK 28/15 Q1013=
201008071830 METAR LPPR 071830Z 33006KT CAVOK 29/15 Q1013=
201008071800 METAR LPPR 071800Z 32006KT CAVOK 30/15 Q1013=
201008071730 METAR LPPR 071730Z 33007KT CAVOK 31/15 Q1013=
201008071700 METAR LPPR 071700Z 32008KT CAVOK 32/14 Q1014=
201008071630 METAR LPPR 071630Z 33007KT 280V360 CAVOK 33/15 Q1014=
201008071600 METAR LPPR 071600Z 34007KT 300V360 CAVOK 33/15 Q1014=
201008071530 METAR LPPR 071530Z 32009KT CAVOK 33/14 Q1014=
201008071500 METAR LPPR 071500Z 32008KT CAVOK 33/13 Q1014=
201008071430 METAR LPPR 071430Z 32009KT CAVOK 33/12 Q1014=
201008071400 METAR LPPR 071400Z 32010KT CAVOK 33/13 Q1014=
201008071330 METAR LPPR 071330Z 33009KT 290V350 CAVOK 32/13 Q1014=
201008071300 METAR LPPR 071300Z 32010KT 280V360 CAVOK 32/13 Q1014=
201008071230 METAR LPPR 071230Z 32009KT CAVOK 32/11 Q1014=
201008071200 METAR LPPR 071200Z 31007KT 270V360 CAVOK 32/15 Q1014=
201008071130 METAR LPPR 071130Z 32001KT CAVOK 32/16 Q1014=
201008071100 METAR LPPR 071100Z 00000KT CAVOK 33/15 Q1014=
201008071030 METAR LPPR 071030Z 00000KT CAVOK 32/11 Q1014=
201008071000 METAR LPPR 071000Z 00000KT 9000 FEW250 31/10 Q1014=
201008070930 METAR LPPR 070930Z 00000KT 9000 FEW250 30/10 Q1014=
201008070900 METAR LPPR 070900Z 00000KT 8000 FEW250 29/11 Q1014=
201008070830 METAR LPPR 070830Z 00000KT 4000 FU FEW250 28/10 Q1014=
201008070800 METAR LPPR 070800Z 00000KT 5000 FU FEW250 26/10 Q1014=
201008070730 METAR LPPR 070730Z 00000KT CAVOK 23/11 Q1014=
201008070700 METAR LPPR 070700Z 00000KT CAVOK 20/11 Q1014=
201008070630 METAR LPPR 070630Z 00000KT CAVOK 18/11 Q1013=
201008070600 METAR LPPR 070600Z 00000KT CAVOK 20/10 Q1013=
201008070530 METAR LPPR 070530Z 00000KT CAVOK 20/09 Q1013=
201008070500 METAR LPPR 070500Z 00000KT CAVOK 19/10 Q1013=
201008070430 METAR LPPR 070430Z 00000KT CAVOK 21/10 Q1013=
201008070400 METAR LPPR 070400Z 00000KT CAVOK 20/11 Q1013=
201008070330 METAR LPPR 070330Z 00000KT CAVOK 21/10 Q1013=
201008070300 METAR LPPR 070300Z 00000KT CAVOK 21/11 Q1012=
201008070230 METAR LPPR 070230Z 00000KT CAVOK 21/12 Q1012=
201008070200 METAR LPPR 070200Z 00000KT CAVOK 21/15 Q1012=
201008070130 METAR LPPR 070130Z 00000KT CAVOK 21/15 Q1012=
201008070100 METAR LPPR 070100Z 00000KT CAVOK 21/15 Q1012=
201008070030 METAR LPPR 070030Z 00000KT CAVOK 23/15 Q1012=
201008070000 METAR LPPR 070000Z 00000KT CAVOK 22/15 Q1012=
201008062330 METAR LPPR 062330Z 00000KT CAVOK 22/15 Q1012=
201008062300 METAR LPPR 062300Z 00000KT CAVOK 21/16 Q1012=
201008062230 METAR LPPR 062230Z 00000KT CAVOK 21/16 Q1012=
201008062200 METAR LPPR 062200Z 00000KT CAVOK 21/16 Q1013=
201008062130 METAR LPPR 062130Z 00000KT CAVOK 22/16 Q1013=
201008062100 METAR LPPR 062100Z 00000KT CAVOK 24/15 Q1012=
201008062030 METAR LPPR 062030Z 00000KT CAVOK 24/14 Q1012=
201008062000 METAR LPPR 062000Z 00000KT CAVOK 25/15 Q1012=
201008061930 METAR LPPR 061930Z 00000KT CAVOK 26/14 Q1012=
201008061900 METAR LPPR 061900Z 32003KT CAVOK 28/14 Q1012=
201008061830 METAR LPPR 061830Z 33005KT CAVOK 28/14 Q1012=
201008061800 METAR LPPR 061800Z 34009KT CAVOK 29/13 Q1012=
201008061730 METAR LPPR 061730Z 33010KT CAVOK 29/14 Q1012=
201008061700 METAR LPPR 061700Z 33013KT CAVOK 30/13 Q1012=
201008061630 METAR LPPR 061630Z 32009KT 290V350 CAVOK 31/14 Q1012=
201008061600 METAR LPPR 061600Z 32009KT CAVOK 30/14 Q1012=
201008061530 METAR LPPR 061530Z 32010KT CAVOK 30/14 Q1013=
201008061500 METAR LPPR 061500Z 32010KT CAVOK 30/12 Q1013=
201008061430 METAR LPPR 061430Z 31011KT CAVOK 30/11 Q1013=
201008061400 METAR LPPR 061400Z 31012KT CAVOK 31/11 Q1013=
201008061330 METAR LPPR 061330Z 31011KT CAVOK 31/13 Q1013=
201008061300 METAR LPPR 061300Z 31009G21KT 270V020 CAVOK 32/14 Q1013=
201008061230 METAR LPPR 061230Z 01007KT 330V070 CAVOK 33/09 Q1013=
201008061200 METAR LPPR 061200Z 02006KT 350V060 CAVOK 32/09 Q1013=
201008061130 METAR LPPR 061130Z 04007KT 010V070 CAVOK 32/07 Q1014=
201008061100 METAR LPPR 061100Z 08008KT 020V120 CAVOK 31/07 Q1014=
201008061030 METAR LPPR 061030Z 08007KT 030V130 CAVOK 30/06 Q1014=
201008061000 METAR LPPR 061000Z 08005KT 010V130 CAVOK 30/05 Q1014=
201008060930 METAR LPPR 060930Z 08007KT 040V140 CAVOK 28/05 Q1014=
201008060900 METAR LPPR 060900Z 07006KT 360V130 CAVOK 28/06 Q1014=
201008060830 METAR LPPR 060830Z 08005KT 030V120 CAVOK 27/07 Q1014=
201008060800 METAR LPPR 060800Z 09006KT 050V130 CAVOK 26/07 Q1014=
201008060730 METAR LPPR 060730Z 00000KT CAVOK 25/08 Q1014=
201008060700 METAR LPPR 060700Z VRB03KT CAVOK 24/08 Q1013=
201008060630 METAR LPPR 060630Z 06005KT 020V110 CAVOK 23/09 Q1013=
201008060600 METAR LPPR 060600Z 04005KT CAVOK 22/10 Q1013=
201008060530 METAR LPPR 060530Z 04004KT 010V070 CAVOK 19/11 Q1013=
201008060500 METAR LPPR 060500Z VRB01KT CAVOK 17/13 Q1013=
201008060430 METAR LPPR 060430Z 00000KT CAVOK 17/13 Q1012=
201008060400 METAR LPPR 060400Z 00000KT CAVOK 16/13 Q1012=
201008060330 METAR LPPR 060330Z 00000KT CAVOK 17/13 Q1012=
201008060300 METAR LPPR 060300Z 00000KT CAVOK 17/13 Q1012=
201008060230 METAR LPPR 060230Z 00000KT CAVOK 17/13 Q1012=
201008060200 METAR LPPR 060200Z 00000KT CAVOK 17/13 Q1012=
201008060130 METAR LPPR 060130Z 00000KT CAVOK 17/13 Q1012=
201008060100 METAR LPPR 060100Z 00000KT CAVOK 17/13 Q1012=
201008060030 METAR LPPR 060030Z 00000KT CAVOK 18/13 Q1012=
201008060000 METAR LPPR 060000Z 00000KT CAVOK 18/13 Q1012=
201008052330 METAR LPPR 052330Z 00000KT CAVOK 18/14 Q1012=
201008052300 METAR LPPR 052300Z 00000KT CAVOK 18/14 Q1013=
201008052230 METAR LPPR 052230Z 00000KT CAVOK 19/14 Q1013=
201008052200 METAR LPPR 052200Z 00000KT CAVOK 19/14 Q1013=
201008052130 METAR LPPR 052130Z 34003KT CAVOK 19/14 Q1013=
201008052100 METAR LPPR 052100Z 00000KT CAVOK 19/14 Q1013=
201008052030 METAR LPPR 052030Z 33002KT CAVOK 20/14 Q1012=
201008052000 METAR LPPR 052000Z 34005KT CAVOK 20/14 Q1012=
201008051930 METAR LPPR 051930Z 33009KT CAVOK 22/14 Q1012=
201008051900 METAR LPPR 051900Z 33011KT CAVOK 24/14 Q1012=
201008051830 METAR LPPR 051830Z 33010KT CAVOK 24/14 Q1012=
201008051800 METAR LPPR 051800Z 34012KT CAVOK 25/14 Q1012=
201008051730 METAR LPPR 051730Z 34013KT CAVOK 25/14 Q1013=
201008051700 METAR LPPR 051700Z 33014KT CAVOK 26/14 Q1013=
201008051630 METAR LPPR 051630Z 32011KT CAVOK 27/14 Q1013=
201008051600 METAR LPPR 051600Z 32011KT CAVOK 27/14 Q1013=
201008051530 METAR LPPR 051530Z 33012KT CAVOK 27/15 Q1013=
201008051500 METAR LPPR 051500Z 32012KT CAVOK 27/15 Q1014=
201008051430 METAR LPPR 051430Z 32011KT 290V350 CAVOK 27/14 Q1014=
201008051400 METAR LPPR 051400Z 33013KT CAVOK 27/15 Q1014=
201008051330 METAR LPPR 051330Z 32012KT CAVOK 28/15 Q1014=
201008051300 METAR LPPR 051300Z 32012KT CAVOK 28/15 Q1014=
201008051230 METAR LPPR 051230Z 31010KT 280V340 CAVOK 28/15 Q1015=
201008051200 METAR LPPR 051200Z 32009KT 280V340 CAVOK 27/15 Q1015=
201008051130 METAR LPPR 051130Z 31009G19KT CAVOK 27/16 Q1015=
201008051100 METAR LPPR 051100Z 32008KT CAVOK 27/16 Q1015=
201008051030 METAR LPPR 051030Z 33007KT 280V030 CAVOK 27/15 Q1015=
201008051000 METAR LPPR 051000Z 36007KT 330V030 CAVOK 26/14 Q1015=
201008050930 METAR LPPR 050930Z 01006KT 340V040 CAVOK 25/14 Q1015=
201008050900 METAR LPPR 050900Z 35006KT CAVOK 24/14 Q1015=
201008050830 METAR LPPR 050830Z 34007KT CAVOK 22/15 Q1015=
201008050800 METAR LPPR 050800Z 34006KT CAVOK 21/15 Q1015=
201008050730 METAR LPPR 050730Z 00000KT CAVOK 19/15 Q1015=
201008050700 METAR LPPR 050700Z 00000KT CAVOK 17/15 Q1015=
201008050630 METAR LPPR 050630Z 00000KT CAVOK 15/14 Q1015=
201008050600 METAR LPPR 050600Z 00000KT CAVOK 15/14 Q1015=
201008050530 METAR LPPR 050530Z 00000KT CAVOK 15/14 Q1014=
201008050500 METAR LPPR 050500Z 00000KT CAVOK 15/14 Q1014=
201008050430 METAR LPPR 050430Z 35006KT CAVOK 16/14 Q1014=
201008050400 METAR LPPR 050400Z 00000KT CAVOK 16/14 Q1014=
201008050330 METAR LPPR 050330Z 00000KT CAVOK 17/14 Q1015=
201008050300 METAR LPPR 050300Z 33010KT CAVOK 18/14 Q1015=
201008050230 METAR LPPR 050230Z 00000KT CAVOK 18/14 Q1014=
201008050200 METAR LPPR 050200Z 00000KT CAVOK 18/14 Q1015=
201008050130 METAR LPPR 050130Z 00000KT CAVOK 18/14 Q1015=
201008050100 METAR LPPR 050100Z 00000KT CAVOK 18/14 Q1015=
201008050030 METAR LPPR 050030Z 00000KT CAVOK 17/14 Q1015=
201008050000 METAR LPPR 050000Z 00000KT CAVOK 17/14 Q1015=
201008042330 METAR LPPR 042330Z 00000KT CAVOK 17/14 Q1015=
201008042300 METAR LPPR 042300Z 00000KT CAVOK 17/14 Q1015=
201008042230 METAR LPPR 042230Z 00000KT CAVOK 17/14 Q1015=
201008042200 METAR LPPR 042200Z 00000KT CAVOK 18/14 Q1015=
201008042130 METAR LPPR 042130Z 35003KT CAVOK 18/15 Q1015=
201008042100 METAR LPPR 042100Z 33010KT CAVOK 18/15 Q1014=
201008042030 METAR LPPR 042030Z 34009KT 310V010 CAVOK 19/15 Q1014=
201008042000 METAR LPPR 042000Z 33010KT 9999 FEW020 BKN250 19/15 Q1014=
201008041930 METAR LPPR 041930Z 34012KT CAVOK 20/15 Q1014=
201008041900 METAR LPPR 041900Z 34017KT CAVOK 20/15 Q1014=
201008041830 METAR LPPR 041830Z 33015KT CAVOK 21/15 Q1014=
201008041800 METAR LPPR 041800Z 34015KT CAVOK 22/16 Q1014=
201008041730 METAR LPPR 041730Z 33015KT CAVOK 24/16 Q1014=
201008041700 METAR LPPR 041700Z 34019KT CAVOK 24/16 Q1014=
201008041630 METAR LPPR 041630Z 33017KT CAVOK 25/16 Q1015=
201008041600 METAR LPPR 041600Z 33018KT CAVOK 24/16 Q1015=
201008041530 METAR LPPR 041530Z 33016KT CAVOK 24/16 Q1015=
201008041500 METAR LPPR 041500Z 34015KT 300V360 CAVOK 26/16 Q1015=
201008041430 METAR LPPR 041430Z 31011KT CAVOK 26/16 Q1015=
201008041400 METAR LPPR 041400Z 32011KT CAVOK 28/16 Q1015=
201008041330 METAR LPPR 041330Z 30008KT 280V340 CAVOK 27/17 Q1015=
201008041300 METAR LPPR 041300Z 31008KT 280V340 CAVOK 28/16 Q1015=
201008041230 METAR LPPR 041230Z 32010KT CAVOK 27/16 Q1016=
201008041200 METAR LPPR 041200Z 32009KT CAVOK 27/16 Q1016=
201008041130 METAR LPPR 041130Z 32008KT 290V350 CAVOK 27/16 Q1016=
201008041100 METAR LPPR 041100Z 31009KT 280V350 CAVOK 26/16 Q1016=
201008041030 METAR LPPR 041030Z 30006KT 260V340 CAVOK 27/17 Q1016=
201008041000 METAR LPPR 041000Z 29003KT 9000 FEW250 27/17 Q1016=
201008040930 METAR LPPR 040930Z 00000KT 9000 FEW250 26/17 Q1016=
201008040900 METAR LPPR 040900Z 00000KT 9000 FEW250 26/16 Q1016=
201008040830 METAR LPPR 040830Z 00000KT 9000 FEW250 26/15 Q1016=
201008040800 METAR LPPR 040800Z 00000KT 9000 FEW070 23/15 Q1016=
201008040730 METAR LPPR 040730Z 00000KT 9000 FEW070 21/16 Q1016=
201008040700 METAR LPPR 040700Z 00000KT 8000 FEW090 19/15 Q1015=
201008040630 METAR LPPR 040630Z 00000KT 8000 SKC 17/15 Q1015=
201008040600 METAR LPPR 040600Z 00000KT 8000 SKC 17/14 Q1015=
201008040530 METAR LPPR 040530Z 00000KT CAVOK 16/14 Q1014=
201008040500 METAR LPPR 040500Z 00000KT CAVOK 16/14 Q1014=
201008040430 METAR LPPR 040430Z 00000KT CAVOK 17/14 Q1014=
201008040400 METAR LPPR 040400Z 00000KT CAVOK 18/15 Q1014=
201008040330 METAR LPPR 040330Z 00000KT CAVOK 17/14 Q1014=
201008040300 METAR LPPR 040300Z 00000KT CAVOK 18/15 Q1014=
201008040230 METAR LPPR 040230Z 00000KT CAVOK 18/14 Q1014=
201008040200 METAR LPPR 040200Z 00000KT CAVOK 18/15 Q1014=
201008040130 METAR LPPR 040130Z 00000KT CAVOK 17/15 Q1014=
201008040100 METAR LPPR 040100Z 35009KT CAVOK 18/15 Q1015=
201008040030 METAR LPPR 040030Z 33003KT CAVOK 19/15 Q1015=
201008040000 METAR LPPR 040000Z 33003KT CAVOK 19/15 Q1015=
201008032330 METAR LPPR 032330Z 00000KT CAVOK 20/15 Q1015=
201008032300 METAR LPPR 032300Z VRB03KT CAVOK 21/16 Q1015=
201008032230 METAR LPPR 032230Z 33006KT CAVOK 20/16 Q1015=
201008032200 METAR LPPR 032200Z 33006KT CAVOK 21/16 Q1015=
201008032130 METAR LPPR 032130Z 35005KT CAVOK 20/16 Q1015=
201008032100 METAR LPPR 032100Z 34007KT CAVOK 20/16 Q1015=
201008032030 METAR LPPR 032030Z 34006KT CAVOK 21/16 Q1015=
201008032000 METAR LPPR 032000Z 32007KT CAVOK 23/16 Q1015=
201008031930 METAR LPPR 031930Z 33006KT CAVOK 24/16 Q1014=
201008031900 METAR LPPR 031900Z 32007KT 280V340 CAVOK 25/16 Q1014=
201008031830 METAR LPPR 031830Z 32004KT 280V360 CAVOK 25/16 Q1015=
201008031800 METAR LPPR 031800Z 34013KT CAVOK 26/15 Q1015=
201008031730 METAR LPPR 031730Z 35013KT CAVOK 27/16 Q1015=
201008031700 METAR LPPR 031700Z 34014KT CAVOK 28/15 Q1015=
201008031630 METAR LPPR 031630Z 33012KT CAVOK 29/15 Q1016=
201008031600 METAR LPPR 031600Z 33015KT CAVOK 29/14 Q1016=
201008031530 METAR LPPR 031530Z 34014KT CAVOK 29/15 Q1016=
201008031500 METAR LPPR 031500Z 33014KT CAVOK 29/15 Q1016=
201008031430 METAR LPPR 031430Z 32014KT 300V010 CAVOK 29/14 Q1016=
201008031400 METAR LPPR 031400Z 33015KT CAVOK 28/14 Q1017=
201008031330 METAR LPPR 031330Z 31013KT CAVOK 28/14 Q1017=
201008031300 METAR LPPR 031300Z 32013KT CAVOK 29/15 Q1017=
201008031230 METAR LPPR 031230Z 31011KT CAVOK 28/15 Q1017=
201008031200 METAR LPPR 031200Z 01008KT 340V050 CAVOK 31/12 Q1017=
201008031130 METAR LPPR 031130Z 02007KT 340V060 CAVOK 30/12 Q1017=
201008031100 METAR LPPR 031100Z 02006KT 330V070 CAVOK 30/13 Q1017=
201008031030 METAR LPPR 031030Z VRB02KT CAVOK 29/13 Q1018=
201008031000 METAR LPPR 031000Z 02006KT 340V070 CAVOK 28/14 Q1018=
201008030930 METAR LPPR 030930Z 00000KT CAVOK 27/14 Q1018=
201008030900 METAR LPPR 030900Z 00000KT CAVOK 27/14 Q1018=
201008030830 METAR LPPR 030830Z VRB02KT CAVOK 25/14 Q1018=
201008030800 METAR LPPR 030800Z 00000KT CAVOK 24/15 Q1018=
201008030730 METAR LPPR 030730Z 00000KT CAVOK 23/14 Q1018=
201008030700 METAR LPPR 030700Z 00000KT CAVOK 21/14 Q1018=
201008030630 METAR LPPR 030630Z 00000KT CAVOK 19/14 Q1017=
201008030600 METAR LPPR 030600Z 00000KT CAVOK 17/14 Q1017=
201008030530 METAR LPPR 030530Z 00000KT CAVOK 19/14 Q1017=
201008030430 METAR LPPR 030430Z 00000KT CAVOK 16/14 Q1016=
201008030400 METAR LPPR 030400Z 00000KT CAVOK 16/14 Q1016=
201008030330 METAR LPPR 030330Z 00000KT CAVOK 17/14 Q1016=
201008030300 METAR LPPR 030300Z 00000KT CAVOK 16/14 Q1016=
201008030230 METAR LPPR 030230Z 00000KT CAVOK 16/14 Q1016=
201008030200 METAR LPPR 030200Z 00000KT CAVOK 17/14 Q1016=
201008030130 METAR LPPR 030130Z 00000KT CAVOK 17/14 Q1016=
201008030100 METAR LPPR 030100Z 00000KT CAVOK 17/14 Q1016=
201008030030 METAR LPPR 030030Z 00000KT CAVOK 18/14 Q1016=
201008030000 METAR LPPR 030000Z 00000KT CAVOK 18/15 Q1016=
201008022330 METAR LPPR 022330Z 00000KT CAVOK 18/15 Q1016=
201008022300 METAR LPPR 022300Z 00000KT CAVOK 18/15 Q1016=
201008022230 METAR LPPR 022230Z 00000KT CAVOK 18/15 Q1016=
201008022200 METAR LPPR 022200Z 00000KT CAVOK 18/15 Q1016=
201008022130 METAR LPPR 022130Z 00000KT CAVOK 18/15 Q1016=
201008022100 METAR LPPR 022100Z 00000KT CAVOK 19/15 Q1016=
201008022030 METAR LPPR 022030Z 35006KT CAVOK 20/15 Q1015=
201008022000 METAR LPPR 022000Z 33006KT CAVOK 21/15 Q1015=
201008021930 METAR LPPR 021930Z 33007KT CAVOK 22/15 Q1015=
201008021900 METAR LPPR 021900Z 33011KT CAVOK 23/16 Q1015=
201008021830 METAR LPPR 021830Z 33011KT CAVOK 24/15 Q1015=
201008021800 METAR LPPR 021800Z 33010KT CAVOK 25/15 Q1015=
201008021730 METAR LPPR 021730Z 33012KT CAVOK 25/15 Q1015=
201008021700 METAR LPPR 021700Z 32014KT CAVOK 25/15 Q1015=
201008021630 METAR LPPR 021630Z 33015KT CAVOK 25/15 Q1015=
201008021600 METAR LPPR 021600Z 32014KT CAVOK 25/15 Q1016=
201008021530 METAR LPPR 021530Z 32013G23KT 290V350 CAVOK 25/15 Q1016=
201008021500 METAR LPPR 021500Z 31011KT CAVOK 25/16 Q1016=
201008021430 METAR LPPR 021430Z 31011KT CAVOK 25/16 Q1016=
201008021400 METAR LPPR 021400Z 32012G22KT 280V350 CAVOK 25/15 Q1016=
201008021330 METAR LPPR 021330Z 32014KT CAVOK 26/15 Q1016=
201008021300 METAR LPPR 021300Z 33014KT CAVOK 26/15 Q1016=
201008021230 METAR LPPR 021230Z 32012KT CAVOK 26/15 Q1017=
201008021200 METAR LPPR 021200Z 32011KT 280V350 CAVOK 25/15 Q1017=
201008021130 METAR LPPR 021130Z 32010KT CAVOK 25/15 Q1017=
201008021100 METAR LPPR 021100Z 33011KT 290V360 CAVOK 24/15 Q1017=
201008021030 METAR LPPR 021030Z 31010KT 250V340 CAVOK 24/15 Q1017=
201008021000 METAR LPPR 021000Z 32008KT CAVOK 23/15 Q1017=
201008020930 METAR LPPR 020930Z 33003KT CAVOK 23/15 Q1017=
201008020900 METAR LPPR 020900Z 00000KT CAVOK 22/15 Q1017=
201008020830 METAR LPPR 020830Z VRB03KT CAVOK 21/15 Q1017=
201008020800 METAR LPPR 020800Z 34002KT CAVOK 19/15 Q1017=
201008020730 METAR LPPR 020730Z 00000KT CAVOK 18/15 Q1017=
201008020700 METAR LPPR 020700Z 34003KT CAVOK 17/15 Q1017=
201008020630 METAR LPPR 020630Z 00000KT CAVOK 15/14 Q1016=
201008020600 METAR LPPR 020600Z 00000KT CAVOK 15/14 Q1016=
201008020530 METAR LPPR 020530Z 00000KT CAVOK 14/13 Q1016=
201008020500 METAR LPPR 020500Z 00000KT CAVOK 15/14 Q1016=
201008020430 METAR LPPR 020430Z 00000KT CAVOK 15/13 Q1016=
201008020400 METAR LPPR 020400Z 00000KT CAVOK 15/14 Q1015=
201008020330 METAR LPPR 020330Z 00000KT CAVOK 16/14 Q1015=
201008020300 METAR LPPR 020300Z 34006KT CAVOK 16/14 Q1015=
201008020230 METAR LPPR 020230Z 32008KT CAVOK 16/15 Q1015=
201008020200 METAR LPPR 020200Z 00000KT CAVOK 16/14 Q1015=
201008020130 METAR LPPR 020130Z 00000KT CAVOK 16/14 Q1015=
201008020100 METAR LPPR 020100Z 00000KT CAVOK 16/14 Q1015=
201008020030 METAR LPPR 020030Z 00000KT CAVOK 16/15 Q1015=
201008020000 METAR LPPR 020000Z 00000KT CAVOK 16/15 Q1015=
201008012330 METAR LPPR 012330Z 00000KT CAVOK 16/15 Q1015=
201008012300 METAR LPPR 012300Z 00000KT CAVOK 17/15 Q1015=
201008012230 METAR LPPR 012230Z 00000KT CAVOK 17/15 Q1015=
201008012200 METAR LPPR 012200Z VRB02G15KT CAVOK 18/15 Q1015=
201008012130 METAR LPPR 012130Z 35005KT CAVOK 18/15 Q1015=
201008012100 METAR LPPR 012100Z 35009KT CAVOK 18/15 Q1015=
201008012030 METAR LPPR 012030Z 33010KT CAVOK 19/15 Q1015=
201008012000 METAR LPPR 012000Z 34012KT CAVOK 19/15 Q1014=
201008011930 METAR LPPR 011930Z 33011KT CAVOK 20/16 Q1014=
201008011900 METAR LPPR 011900Z 33013KT CAVOK 21/16 Q1014=
201008011830 METAR LPPR 011830Z 33014KT CAVOK 22/16 Q1014=
201008011800 METAR LPPR 011800Z 34017KT CAVOK 22/16 Q1014=
201008011730 METAR LPPR 011730Z 33017KT CAVOK 23/16 Q1014=
201008011700 METAR LPPR 011700Z 33013KT CAVOK 24/16 Q1014=
201008011630 METAR LPPR 011630Z 32012KT CAVOK 24/17 Q1014=
201008011600 METAR LPPR 011600Z 32011G21KT 280V360 CAVOK 25/17 Q1015=
201008011530 METAR LPPR 011530Z 33014KT CAVOK 25/16 Q1015=
201008011500 METAR LPPR 011500Z 32010KT 280V340 CAVOK 25/17 Q1015=
201008011430 METAR LPPR 011430Z 30009KT 270V350 CAVOK 25/17 Q1015=
201008011400 METAR LPPR 011400Z 30009KT 270V330 CAVOK 25/17 Q1015=
201008011330 METAR LPPR 011330Z 30008KT 260V330 9999 FEW017 SCT250 25/18
                        Q1015=
201008011300 METAR LPPR 011300Z 32009KT 280V340 9999 FEW017 BKN250 24/18
                        Q1016=
201008011230 METAR LPPR 011230Z 00000KT 9999 FEW015 BKN250 24/18 Q1016=
201008011200 METAR LPPR 011200Z 24001KT 9999 FEW009 SCT015 BKN250 23/17
                        Q1016=
201008011130 METAR LPPR 011130Z 27002KT 9999 FEW009 SCT015 BKN250 22/18
                        Q1016=
201008011100 METAR LPPR 011100Z 26005G18KT 190V300 7000 SCT005 SCT008
                        BKN013 21/18 Q1016=
201008011030 METAR LPPR 011030Z 00000KT 7000 SCT005 BKN008 20/18 Q1016=
201008011000 METAR LPPR 011000Z 00000KT 5000 BR SCT003 BKN006 19/18 Q1016=
201008010930 METAR LPPR 010930Z 00000KT 3000 BR BKN002 BKN004 19/18 Q1015=
201008010900 METAR LPPR 010900Z 00000KT 2500 BR BKN001 BKN003 19/18 Q1015=
201008010830 METAR LPPR 010830Z 00000KT 3000 BR SCT002 BKN003 19/19 Q1015=
201008010800 METAR LPPR 010800Z 00000KT 1100 R17/P1500 R35/P1500 BR VCFG
                        BKN001 BKN002 18/18 Q1015=
201008010730 METAR LPPR 010730Z 00000KT 1200 R17/P1500 R35/P1500 BR VCFG
                        BKN001 BKN002 18/18 Q1015=
201008010700 METAR LPPR 010700Z 00000KT 1500 BR VCFG SCT001 BKN002 18/18
                        Q1015=
201008010630 METAR LPPR 010630Z 00000KT 1500 BR VCFG SCT001 BKN002 18/18
                        Q1014=
201008010600 METAR LPPR 010600Z 00000KT 1500 BR SCT001 BKN002 18/18 Q1014=
201008010530 METAR LPPR 010530Z 00000KT 2000 BR SCT001 BKN003 18/18 Q1014=
201008010500 METAR LPPR 010500Z 00000KT 3000 BR SCT001 BKN003 18/18 Q1014=
201008010430 METAR LPPR 010430Z 00000KT 3000 BR SCT001 BKN003 18/18 Q1013=
201008010400 METAR LPPR 010400Z 00000KT 3000 BR SCT001 BKN002 19/18 Q1013=
201008010330 METAR LPPR 010330Z 00000KT 3000 BR SCT001 BKN002 18/18 Q1013=
201008010300 METAR LPPR 010300Z 00000KT 3000 BR SCT001 BKN002 19/18 Q1013=
201008010230 METAR LPPR 010230Z 00000KT 3000 BR SCT001 BKN002 18/18 Q1013=
201008010200 METAR LPPR 010200Z 00000KT 3000 BR SCT001 BKN002 19/18 Q1013=
201008010130 METAR LPPR 010130Z 00000KT 5000 BR SCT001 BKN003 19/18 Q1013=
201008010100 METAR LPPR 010100Z 00000KT 7000 SCT003 BKN006 19/18 Q1013=
201008010030 METAR LPPR 010030Z 00000KT 9999 SCT004 SCT007 19/18 Q1013=
201008010000 METAR LPPR 010000Z 15008KT CAVOK 19/18 Q1013=

</pre>

</body>
</html>
