##########################################################
# Query made at 11/07/2014 17:18:56 UTC
# Time interval: from 08/01/2012 00:00  to 08/31/2012 23:59  UTC
##########################################################

##########################################################
# LPPR, Porto / Pedras Rubras (Portugal)
# WMO index: 08545
# Latitude 41-14N. Longitude 008-41W. Altitude 69 m.
##########################################################

###################################
#  METAR/SPECI from LPPR
###################################
201208312330 METAR LPPR 312330Z 09005KT CAVOK 20/11 Q1021=
201208312300 METAR LPPR 312300Z 05003KT CAVOK 18/12 Q1021=
201208312230 METAR LPPR 312230Z 08003KT 030V140 CAVOK 19/13 Q1021=
201208312200 METAR LPPR 312200Z 35003KT CAVOK 17/13 Q1022=
201208312130 METAR LPPR 312130Z 01003KT 330V070 CAVOK 17/14 Q1022=
201208312100 METAR LPPR 312100Z VRB01KT CAVOK 18/14 Q1021=
201208312030 METAR LPPR 312030Z 01002KT CAVOK 18/14 Q1021=
201208312000 METAR LPPR 312000Z 35004KT CAVOK 19/14 Q1021=
201208311930 METAR LPPR 311930Z 35006KT CAVOK 21/14 Q1021=
201208311900 METAR LPPR 311900Z 32006KT CAVOK 22/15 Q1021=
201208311830 METAR LPPR 311830Z 34006KT CAVOK 23/15 Q1021=
201208311800 METAR LPPR 311800Z 34006KT CAVOK 24/15 Q1021=
201208311730 METAR LPPR 311730Z 33008KT CAVOK 24/14 Q1022=
201208311700 METAR LPPR 311700Z 33009KT CAVOK 24/14 Q1022=
201208311630 METAR LPPR 311630Z 34009KT CAVOK 24/14 Q1022=
201208311600 METAR LPPR 311600Z 34011KT CAVOK 25/13 Q1022=
201208311530 METAR LPPR 311530Z 34012KT 290V360 CAVOK 24/12 Q1023=
201208311500 METAR LPPR 311500Z 34014KT 310V010 CAVOK 24/12 Q1023=
201208311430 METAR LPPR 311430Z 33011KT 300V360 CAVOK 24/13 Q1023=
201208311400 METAR LPPR 311400Z 32012KT CAVOK 23/13 Q1023=
201208311330 METAR LPPR 311330Z 01007KT 330V040 CAVOK 27/11 Q1024=
201208311300 METAR LPPR 311300Z 05007KT 010V090 CAVOK 26/08 Q1024=
201208311230 METAR LPPR 311230Z 04008KT 350V080 CAVOK 26/09 Q1024=
201208311200 METAR LPPR 311200Z 04009KT 010V070 CAVOK 25/07 Q1025=
201208311130 METAR LPPR 311130Z 07007KT 350V110 CAVOK 24/08 Q1025=
201208311100 METAR LPPR 311100Z 06007KT 360V100 CAVOK 24/09 Q1025=
201208311030 METAR LPPR 311030Z 04009KT 020V080 CAVOK 23/08 Q1026=
201208311000 METAR LPPR 311000Z 03009KT CAVOK 22/09 Q1026=
201208310930 METAR LPPR 310930Z 04009KT 360V070 CAVOK 22/09 Q1026=
201208310900 METAR LPPR 310900Z 02005KT 340V060 CAVOK 20/10 Q1025=
201208310830 METAR LPPR 310830Z 02005KT 300V080 CAVOK 19/10 Q1025=
201208310800 METAR LPPR 310800Z 02006KT 360V060 CAVOK 18/09 Q1025=
201208310730 METAR LPPR 310730Z 02006KT 340V040 CAVOK 18/10 Q1025=
201208310700 METAR LPPR 310700Z 04005KT CAVOK 17/09 Q1025=
201208310630 METAR LPPR 310630Z 03004KT CAVOK 15/08 Q1025=
201208310600 METAR LPPR 310600Z 03004KT 360V100 CAVOK 16/08 Q1025=
201208310530 METAR LPPR 310530Z 03004KT CAVOK 17/08 Q1025=
201208310500 METAR LPPR 310500Z 02005KT CAVOK 18/08 Q1024=
201208310430 METAR LPPR 310430Z 02006KT CAVOK 18/08 Q1024=
201208310400 METAR LPPR 310400Z 02008KT CAVOK 17/08 Q1024=
201208310330 METAR LPPR 310330Z 01006KT CAVOK 17/08 Q1024=
201208310300 METAR LPPR 310300Z 06005KT 010V130 CAVOK 19/08 Q1024=
201208310230 METAR LPPR 310230Z 04006KT CAVOK 18/09 Q1024=
201208310200 METAR LPPR 310200Z 04006KT CAVOK 18/09 Q1024=
201208310130 METAR LPPR 310130Z 02006KT CAVOK 17/10 Q1024=
201208310100 METAR LPPR 310100Z 36006KT CAVOK 17/10 Q1024=
201208310030 METAR LPPR 310030Z 01006KT CAVOK 17/10 Q1024=
201208310000 METAR LPPR 310000Z 36006KT CAVOK 17/10 Q1024=
201208302330 METAR LPPR 302330Z 02008KT CAVOK 18/10 Q1024=
201208302300 METAR LPPR 302300Z 01009KT CAVOK 15/11 Q1024=
201208302230 METAR LPPR 302230Z 01006KT CAVOK 17/10 Q1024=
201208302200 METAR LPPR 302200Z 01006KT CAVOK 17/10 Q1024=
201208302130 METAR LPPR 302130Z 36007KT CAVOK 18/10 Q1024=
201208302100 METAR LPPR 302100Z 01007KT CAVOK 17/11 Q1023=
201208302030 METAR LPPR 302030Z 34006KT CAVOK 19/12 Q1023=
201208302000 METAR LPPR 302000Z 36008KT CAVOK 18/13 Q1023=
201208301930 METAR LPPR 301930Z 34008KT CAVOK 19/14 Q1023=
201208301900 METAR LPPR 301900Z 34009KT CAVOK 20/15 Q1022=
201208301830 METAR LPPR 301830Z 34010KT CAVOK 20/15 Q1022=
201208301800 METAR LPPR 301800Z 34014KT CAVOK 21/15 Q1023=
201208301730 METAR LPPR 301730Z 34014KT CAVOK 21/15 Q1023=
201208301700 METAR LPPR 301700Z 33013KT CAVOK 22/14 Q1023=
201208301630 METAR LPPR 301630Z 34012KT 310V020 CAVOK 22/14 Q1023=
201208301600 METAR LPPR 301600Z 33013KT CAVOK 22/14 Q1023=
201208301530 METAR LPPR 301530Z 32012KT CAVOK 22/15 Q1023=
201208301500 METAR LPPR 301500Z 33013KT CAVOK 22/14 Q1023=
201208301430 METAR LPPR 301430Z 33015KT 9999 FEW025 22/14 Q1024=
201208301400 METAR LPPR 301400Z 32015KT 9999 FEW023 22/14 Q1024=
201208301330 METAR LPPR 301330Z 32014KT 9999 FEW023 22/15 Q1024=
201208301300 METAR LPPR 301300Z 33013KT 9999 FEW022 22/15 Q1024=
201208301230 METAR LPPR 301230Z 32011KT 280V350 9999 FEW022 23/15 Q1024=
201208301200 METAR LPPR 301200Z 33011KT 290V360 9999 FEW023 21/14 Q1024=
201208301130 METAR LPPR 301130Z 32010KT 290V350 9999 FEW025 21/15 Q1024=
201208301100 METAR LPPR 301100Z 32011KT 290V350 9999 FEW022 21/16 Q1024=
201208301030 METAR LPPR 301030Z 35011KT 9999 FEW020 22/15 Q1024=
201208301000 METAR LPPR 301000Z 36010KT 330V040 9999 FEW018 21/15 Q1024=
201208300930 METAR LPPR 300930Z 35007KT 320V020 9999 FEW015 20/16 Q1024=
201208300900 METAR LPPR 300900Z 01007KT 9999 FEW014 20/16 Q1024=
201208300830 METAR LPPR 300830Z 36006KT 330V050 9999 FEW014 19/16 Q1024=
201208300800 METAR LPPR 300800Z 35004KT 9999 FEW013 18/15 Q1024=
201208300730 METAR LPPR 300730Z VRB02KT 9999 FEW013 17/15 Q1024=
201208300700 METAR LPPR 300700Z VRB02KT 9999 FEW017 15/14 Q1024=
201208300630 METAR LPPR 300630Z VRB02KT 9999 FEW017 SCT030 14/13 Q1024=
201208300600 METAR LPPR 300600Z VRB03KT 9999 FEW017 SCT030 14/12 Q1024=
201208300530 METAR LPPR 300530Z VRB01KT 9999 FEW031 14/13 Q1023=
201208300500 METAR LPPR 300500Z VRB02KT 9999 BKN031 15/14 Q1023=
201208300430 METAR LPPR 300430Z 01004KT 320V050 9999 SCT031 14/13 Q1023=
201208300400 METAR LPPR 300400Z 02002KT 9999 SCT031 14/13 Q1023=
201208300330 METAR LPPR 300330Z 00000KT CAVOK 14/13 Q1023=
201208300300 METAR LPPR 300300Z 35004KT CAVOK 14/13 Q1023=
201208300230 METAR LPPR 300230Z 36004KT CAVOK 14/13 Q1023=
201208300200 METAR LPPR 300200Z 36003KT CAVOK 14/13 Q1023=
201208300130 METAR LPPR 300130Z 02002KT CAVOK 14/13 Q1023=
201208300100 METAR LPPR 300100Z 35003KT CAVOK 15/13 Q1023=
201208300030 METAR LPPR 300030Z 34005KT CAVOK 16/14 Q1023=
201208300000 METAR LPPR 300000Z 35006KT CAVOK 15/14 Q1023=
201208292330 METAR LPPR 292330Z 35006KT CAVOK 15/13 Q1023=
201208292300 METAR LPPR 292300Z 34006KT CAVOK 16/14 Q1023=
201208292230 METAR LPPR 292230Z 35006KT CAVOK 16/14 Q1023=
201208292200 METAR LPPR 292200Z 35006KT CAVOK 16/14 Q1023=
201208292130 METAR LPPR 292130Z 34007KT CAVOK 17/14 Q1023=
201208292100 METAR LPPR 292100Z 34005KT CAVOK 17/14 Q1023=
201208292030 METAR LPPR 292030Z 36005KT CAVOK 17/14 Q1023=
201208292000 METAR LPPR 292000Z 34007KT CAVOK 18/14 Q1022=
201208291930 METAR LPPR 291930Z 33007KT CAVOK 18/14 Q1022=
201208291900 METAR LPPR 291900Z 33008KT 9999 FEW025 19/15 Q1022=
201208291830 METAR LPPR 291830Z 33009KT 9999 FEW018 19/15 Q1022=
201208291800 METAR LPPR 291800Z 33009KT 290V350 9999 FEW018 20/16 Q1022=
201208291730 METAR LPPR 291730Z 32009KT 290V350 9999 FEW019 20/16 Q1022=
201208291700 METAR LPPR 291700Z 32008KT 270V350 9999 FEW020 20/17 Q1022=
201208291630 METAR LPPR 291630Z 32009KT 280V350 9999 FEW020 20/16 Q1022=
201208291600 METAR LPPR 291600Z 33008KT 300V360 9999 FEW020 20/16 Q1022=
201208291530 METAR LPPR 291530Z 32009KT 290V350 9999 FEW020 20/16 Q1022=
201208291500 METAR LPPR 291500Z 32008KT 270V340 9999 FEW018 21/15 Q1022=
201208291430 METAR LPPR 291430Z 32009KT 290V360 9999 FEW020 21/14 Q1022=
201208291400 METAR LPPR 291400Z 31007KT 270V360 9999 FEW024 21/13 Q1022=
201208291330 METAR LPPR 291330Z 31009KT 280V340 9999 FEW023 21/15 Q1022=
201208291300 METAR LPPR 291300Z 32008KT 270V350 9999 FEW023 20/13 Q1022=
201208291230 METAR LPPR 291230Z 31008KT 270V340 9999 FEW022 21/14 Q1022=
201208291200 METAR LPPR 291200Z 29006KT 240V320 9999 FEW022 21/15 Q1022=
201208291130 METAR LPPR 291130Z 29005KT 260V320 9999 SCT020 21/16 Q1022=
201208291100 METAR LPPR 291100Z 28004KT 220V320 9999 FEW020 21/16 Q1022=
201208291030 METAR LPPR 291030Z VRB03KT 9999 FEW018 21/15 Q1022=
201208291000 METAR LPPR 291000Z VRB03KT 9999 FEW013 20/14 Q1022=
201208290930 METAR LPPR 290930Z 36004KT 320V040 9999 FEW010 19/15 Q1022=
201208290900 METAR LPPR 290900Z 04003KT 320V110 9999 FEW016 19/15 Q1022=
201208290830 METAR LPPR 290830Z VRB02KT 9999 FEW015 19/14 Q1021=
201208290800 METAR LPPR 290800Z 11003KT 060V140 9999 FEW030 18/14 Q1021=
201208290730 METAR LPPR 290730Z 00000KT 9999 FEW012 16/15 Q1021=
201208290700 METAR LPPR 290700Z VRB02KT 9999 FEW012 14/13 Q1021=
201208290630 METAR LPPR 290630Z VRB01KT 9999 FEW015 13/12 Q1021=
201208290600 METAR LPPR 290600Z VRB02KT CAVOK 14/13 Q1020=
201208290530 METAR LPPR 290530Z VRB02KT CAVOK 14/13 Q1020=
201208290500 METAR LPPR 290500Z VRB01KT CAVOK 14/13 Q1020=
201208290430 METAR LPPR 290430Z VRB01KT 9999 FEW020 15/13 Q1020=
201208290400 METAR LPPR 290400Z 00000KT 9999 FEW020 15/14 Q1020=
201208290330 METAR LPPR 290330Z VRB02KT 9999 FEW020 15/13 Q1020=
201208290300 METAR LPPR 290300Z VRB01KT 9999 FEW018 15/13 Q1020=
201208290230 METAR LPPR 290230Z 10002KT 9999 FEW020 15/14 Q1020=
201208290200 METAR LPPR 290200Z 13002KT CAVOK 14/14 Q1020=
201208290130 METAR LPPR 290130Z 07001KT 9999 FEW020 14/14 Q1020=
201208290100 METAR LPPR 290100Z 08001KT 9999 SCT020 14/13 Q1021=
201208290030 METAR LPPR 290030Z 01001KT CAVOK 14/13 Q1021=
201208290000 METAR LPPR 290000Z 36002KT CAVOK 14/14 Q1020=
201208282330 METAR LPPR 282330Z 00000KT CAVOK 14/13 Q1020=
201208282300 METAR LPPR 282300Z 00000KT CAVOK 15/14 Q1020=
201208282230 METAR LPPR 282230Z 00000KT CAVOK 16/15 Q1020=
201208282200 METAR LPPR 282200Z 00000KT CAVOK 16/15 Q1020=
201208282130 METAR LPPR 282130Z 00000KT CAVOK 15/14 Q1021=
201208282100 METAR LPPR 282100Z 02002KT CAVOK 16/14 Q1021=
201208282030 METAR LPPR 282030Z 33004KT CAVOK 17/15 Q1021=
201208282000 METAR LPPR 282000Z 33005KT CAVOK 18/15 Q1020=
201208281930 METAR LPPR 281930Z 34005KT CAVOK 18/15 Q1020=
201208281900 METAR LPPR 281900Z 33006KT 9999 FEW019 19/16 Q1020=
201208281830 METAR LPPR 281830Z 34008KT 310V010 9999 FEW019 20/16 Q1019=
201208281800 METAR LPPR 281800Z 34007KT 9999 FEW018 20/16 Q1019=
201208281730 METAR LPPR 281730Z 33007KT 300V360 CAVOK 20/16 Q1019=
201208281700 METAR LPPR 281700Z 32007KT 290V350 CAVOK 20/16 Q1019=
201208281630 METAR LPPR 281630Z 30005KT 270V340 CAVOK 20/16 Q1020=
201208281600 METAR LPPR 281600Z 29005KT 260V330 CAVOK 20/16 Q1020=
201208281530 METAR LPPR 281530Z 31006KT 270V350 9999 FEW017 21/16 Q1020=
201208281500 METAR LPPR 281500Z 29006KT 250V340 9999 FEW017 21/15 Q1020=
201208281430 METAR LPPR 281430Z 30006KT 260V350 9999 FEW007 SCT017 22/15
                        Q1020=
201208281400 METAR LPPR 281400Z 29006KT 260V330 9999 FEW017 22/14 Q1020=
201208281330 METAR LPPR 281330Z 33007KT 9999 FEW015 22/15 Q1020=
201208281300 METAR LPPR 281300Z 32007KT 290V360 9999 FEW015 22/15 Q1020=
201208281230 METAR LPPR 281230Z 29006KT 250V320 9999 FEW015 22/17 Q1020=
201208281200 METAR LPPR 281200Z 30006KT 260V340 9999 FEW015 22/16 Q1020=
201208281130 METAR LPPR 281130Z 33007KT 280V360 9999 SCT013 22/16 Q1020=
201208281100 METAR LPPR 281100Z 31005KT 270V010 9999 SCT013 21/17 Q1020=
201208281030 METAR LPPR 281030Z 29004KT 250V340 9999 SCT013 21/17 Q1020=
201208281000 METAR LPPR 281000Z 32004KT 230V020 9999 FEW014 SCT016 21/18
                        Q1020=
201208280930 METAR LPPR 280930Z 33003KT 270V050 9999 SCT011 SCT013 20/17
                        Q1020=
201208280900 METAR LPPR 280900Z 34003KT 220V020 9999 SCT008 BKN010 20/17
                        Q1020=
201208280830 METAR LPPR 280830Z 32003KT 290V360 9999 BKN006 BKN010 19/17
                        Q1020=
201208280800 METAR LPPR 280800Z 30003KT 240V010 9999 BKN006 BKN007 18/17
                        Q1020=
201208280730 METAR LPPR 280730Z 31003KT 280V350 9999 SCT003 BKN004 18/17
                        Q1019=
201208280700 METAR LPPR 280700Z 31003KT 270V360 2000 BR SCT002 BKN004
                        18/17 Q1019=
201208280630 METAR LPPR 280630Z VRB02KT 0700 R17/0750N FG FEW002 BKN004
                        18/17 Q1019=
201208280600 METAR LPPR 280600Z 30003KT 240V020 2000 BR VCFG SCT002 BKN004
                        18/18 Q1019=
201208280530 METAR LPPR 280530Z 21005KT 180V250 4000 BR BKN002 18/18 Q1018=
201208280500 METAR LPPR 280500Z 20008KT 8000 BKN002 19/18 Q1018=
201208280430 METAR LPPR 280430Z 20008KT 9999 BKN005 19/18 Q1018=
201208280400 METAR LPPR 280400Z 20008KT 9999 BKN008 19/18 Q1018=
201208280330 METAR LPPR 280330Z 19007KT 9999 FEW003 BKN007 19/18 Q1017=
201208280300 METAR LPPR 280300Z 17005KT 9999 SCT005 BKN008 19/18 Q1017=
201208280230 METAR LPPR 280230Z 18007KT 6000 -DZ SCT004 BKN006 19/18 Q1018=
201208280200 METAR LPPR 280200Z 17009KT 6000 -RA SCT003 BKN006 19/18 Q1018=
201208280130 METAR LPPR 280130Z 16008KT 8000 -DZ SCT003 BKN008 19/18 Q1018=
201208280100 METAR LPPR 280100Z 17007KT 6000 -DZ SCT008 BKN012 20/18 Q1018=
201208280030 METAR LPPR 280030Z 17008KT 9999 FEW012 SCT015 BKN020 20/17
                        Q1018=
201208280000 METAR LPPR 280000Z 17010KT 9999 SCT014 BKN025 20/17 Q1018=
201208272330 METAR LPPR 272330Z 17008KT 9999 SCT015 BKN020 20/17 Q1018=
201208272300 METAR LPPR 272300Z 17008KT 9999 SCT015 BKN020 20/17 Q1018=
201208272230 METAR LPPR 272230Z 17009KT 9999 SCT015 BKN024 20/17 Q1019=
201208272200 METAR LPPR 272200Z 17008KT 9999 SCT015 BKN025 20/17 Q1018=
201208272130 METAR LPPR 272130Z 17007KT 9999 SCT015 BKN030 20/17 Q1019=
201208272100 METAR LPPR 272100Z 17009KT 9999 SCT015 BKN030 20/17 Q1019=
201208272030 METAR LPPR 272030Z 17008KT 9999 FEW015 BKN025 20/17 Q1019=
201208272000 METAR LPPR 272000Z 18008KT 9999 FEW015 BKN025 20/16 Q1019=
201208271930 METAR LPPR 271930Z 18008KT 9999 SCT015 BKN025 20/16 Q1018=
201208271900 METAR LPPR 271900Z 17009KT 9999 FEW020 SCT030 20/16 Q1018=
201208271830 METAR LPPR 271830Z 18008KT 9999 SCT020 BKN030 20/16 Q1018=
201208271800 METAR LPPR 271800Z 19006KT 160V220 9999 FEW018 BKN025 20/16
                        Q1018=
201208271730 METAR LPPR 271730Z 22006KT 180V260 9999 SCT020 BKN030 20/16
                        Q1019=
201208271700 METAR LPPR 271700Z 22006KT 180V260 9999 FEW020 BKN030 20/16
                        Q1019=
201208271630 METAR LPPR 271630Z 24007KT 9999 FEW020 BKN030 20/15 Q1019=
201208271600 METAR LPPR 271600Z 23007KT 190V280 9999 FEW015 BKN030 21/15
                        Q1018=
201208271530 METAR LPPR 271530Z 24008KT 210V270 9999 BKN030 21/15 Q1018=
201208271500 METAR LPPR 271500Z 22008KT 190V260 9999 BKN035 21/15 Q1018=
201208271430 METAR LPPR 271430Z 23008KT 170V270 9999 BKN035 21/14 Q1018=
201208271400 METAR LPPR 271400Z 23009KT 200V290 9999 FEW025 22/15 Q1018=
201208271330 METAR LPPR 271330Z 23008KT 190V260 9999 FEW035 21/14 Q1018=
201208271300 METAR LPPR 271300Z 23006KT 170V270 9999 FEW030 22/14 Q1018=
201208271230 METAR LPPR 271230Z 24006KT 210V270 9999 FEW035 22/14 Q1018=
201208271200 METAR LPPR 271200Z 17006KT 130V200 9999 FEW025 21/14 Q1018=
201208271130 METAR LPPR 271130Z 20006KT 9999 SCT022 21/15 Q1018=
201208271100 METAR LPPR 271100Z VRB04KT 9999 FEW018 SCT022 21/14 Q1019=
201208271030 METAR LPPR 271030Z 20004KT 140V240 9999 FEW015 SCT020 20/15
                        Q1019=
201208271000 METAR LPPR 271000Z VRB03KT 9999 FEW013 SCT017 21/16 Q1019=
201208270930 METAR LPPR 270930Z VRB02KT 9999 FEW013 SCT025 20/16 Q1019=
201208270900 METAR LPPR 270900Z 14003KT 090V200 9999 FEW013 SCT024 19/16
                        Q1019=
201208270830 METAR LPPR 270830Z 13003KT 090V160 9999 FEW016 18/16 Q1019=
201208270800 METAR LPPR 270800Z 13005KT 9999 FEW018 17/16 Q1018=
201208270730 METAR LPPR 270730Z 12005KT 9999 FEW018 16/15 Q1018=
201208270700 METAR LPPR 270700Z 13004KT 9000 FEW015 15/15 Q1018=
201208270630 METAR LPPR 270630Z VRB02KT 9000 FEW015 14/14 Q1018=
201208270600 METAR LPPR 270600Z 10003KT 040V140 9000 FEW015 14/14 Q1018=
201208270530 METAR LPPR 270530Z 00000KT 9999 FEW006 SCT015 14/14 Q1017=
201208270500 METAR LPPR 270500Z VRB01KT 9999 FEW004 SCT015 15/14 Q1017=
201208270430 METAR LPPR 270430Z 12003KT 9999 FEW009 SCT011 14/14 Q1017=
201208270400 METAR LPPR 270400Z VRB01KT 9999 FEW006 SCT012 14/14 Q1017=
201208270330 METAR LPPR 270330Z 19002KT 9999 FEW007 SCT012 15/15 Q1018=
201208270300 METAR LPPR 270300Z 18002KT 9999 FEW009 SCT012 14/14 Q1018=
201208270230 METAR LPPR 270230Z 00000KT 9999 FEW009 SCT010 15/15 Q1018=
201208270200 METAR LPPR 270200Z 00000KT 9999 BKN009 15/14 Q1018=
201208270130 METAR LPPR 270130Z VRB02KT 9999 SCT008 14/14 Q1018=
201208270100 METAR LPPR 270100Z 18003KT 9999 FEW009 14/13 Q1018=
201208270030 METAR LPPR 270030Z 15001KT 9999 FEW008 15/14 Q1018=
201208270000 METAR LPPR 270000Z VRB01KT CAVOK 14/13 Q1018=
201208262330 METAR LPPR 262330Z 36002KT CAVOK 15/14 Q1018=
201208262300 METAR LPPR 262300Z 35004KT CAVOK 15/14 Q1019=
201208262230 METAR LPPR 262230Z 30003KT 270V330 CAVOK 16/15 Q1019=
201208262200 METAR LPPR 262200Z VRB02KT CAVOK 15/14 Q1019=
201208262130 METAR LPPR 262130Z 32003KT 300V010 CAVOK 15/14 Q1019=
201208262100 METAR LPPR 262100Z 32003KT CAVOK 16/14 Q1019=
201208262030 METAR LPPR 262030Z 32004KT 280V350 CAVOK 17/15 Q1019=
201208262000 METAR LPPR 262000Z 30004KT 270V350 CAVOK 17/15 Q1019=
201208261930 METAR LPPR 261930Z 32006KT CAVOK 17/14 Q1019=
201208261900 METAR LPPR 261900Z VRB02KT CAVOK 18/14 Q1019=
201208261830 METAR LPPR 261830Z 33006KT CAVOK 20/13 Q1019=
201208261800 METAR LPPR 261800Z 34008KT CAVOK 20/13 Q1019=
201208261730 METAR LPPR 261730Z 33007KT CAVOK 21/13 Q1019=
201208261700 METAR LPPR 261700Z 35010KT 310V010 CAVOK 21/14 Q1019=
201208261630 METAR LPPR 261630Z 33008KT CAVOK 21/14 Q1019=
201208261600 METAR LPPR 261600Z 33010KT CAVOK 21/15 Q1019=
201208261530 METAR LPPR 261530Z 32010KT CAVOK 21/15 Q1019=
201208261500 METAR LPPR 261500Z 34012KT CAVOK 21/14 Q1019=
201208261430 METAR LPPR 261430Z 32010KT 290V350 CAVOK 21/15 Q1020=
201208261400 METAR LPPR 261400Z 33011KT CAVOK 21/15 Q1020=
201208261330 METAR LPPR 261330Z 31007KT 260V340 CAVOK 21/15 Q1020=
201208261300 METAR LPPR 261300Z 31008KT 260V350 CAVOK 21/15 Q1020=
201208261230 METAR LPPR 261230Z 29007KT 260V340 CAVOK 21/15 Q1020=
201208261200 METAR LPPR 261200Z 29006KT 260V330 CAVOK 21/15 Q1020=
201208261130 METAR LPPR 261130Z 29006KT CAVOK 22/15 Q1021=
201208261100 METAR LPPR 261100Z VRB03KT CAVOK 23/16 Q1020=
201208261030 METAR LPPR 261030Z 30004KT 260V340 CAVOK 22/16 Q1021=
201208261000 METAR LPPR 261000Z VRB01KT CAVOK 22/14 Q1021=
201208260930 METAR LPPR 260930Z VRB03KT CAVOK 21/15 Q1021=
201208260900 METAR LPPR 260900Z VRB03KT CAVOK 20/15 Q1021=
201208260830 METAR LPPR 260830Z 04003KT 340V090 CAVOK 19/15 Q1021=
201208260800 METAR LPPR 260800Z 12004KT 100V180 CAVOK 18/15 Q1021=
201208260730 METAR LPPR 260730Z VRB02KT CAVOK 16/15 Q1020=
201208260700 METAR LPPR 260700Z 04004KT CAVOK 14/14 Q1020=
201208260630 METAR LPPR 260630Z VRB02KT CAVOK 12/12 Q1020=
201208260600 METAR LPPR 260600Z VRB02KT CAVOK 12/11 Q1020=
201208260530 METAR LPPR 260530Z VRB01KT CAVOK 12/11 Q1020=
201208260500 METAR LPPR 260500Z 05001KT CAVOK 12/11 Q1020=
201208260430 METAR LPPR 260430Z 36002KT CAVOK 12/11 Q1020=
201208260400 METAR LPPR 260400Z 35003KT CAVOK 12/12 Q1020=
201208260330 METAR LPPR 260330Z 36002KT CAVOK 12/11 Q1020=
201208260300 METAR LPPR 260300Z 36003KT CAVOK 12/12 Q1020=
201208260230 METAR LPPR 260230Z 00000KT CAVOK 12/12 Q1020=
201208260200 METAR LPPR 260200Z 00000KT CAVOK 13/13 Q1020=
201208260130 METAR LPPR 260130Z 36002KT CAVOK 13/13 Q1021=
201208260100 METAR LPPR 260100Z 00000KT CAVOK 14/13 Q1021=
201208260030 METAR LPPR 260030Z 00000KT CAVOK 14/13 Q1021=
201208260000 METAR LPPR 260000Z 00000KT CAVOK 14/13 Q1021=
201208252330 METAR LPPR 252330Z 36003KT CAVOK 15/14 Q1021=
201208252300 METAR LPPR 252300Z 35003KT CAVOK 15/14 Q1021=
201208252230 METAR LPPR 252230Z 35004KT CAVOK 16/14 Q1021=
201208252200 METAR LPPR 252200Z 34005KT CAVOK 16/15 Q1021=
201208252130 METAR LPPR 252130Z 34006KT CAVOK 17/15 Q1021=
201208252100 METAR LPPR 252100Z 34009KT CAVOK 17/14 Q1021=
201208252030 METAR LPPR 252030Z 34009KT CAVOK 17/15 Q1021=
201208252000 METAR LPPR 252000Z 34009KT CAVOK 18/15 Q1021=
201208251930 METAR LPPR 251930Z 34008KT CAVOK 18/14 Q1020=
201208251900 METAR LPPR 251900Z 33009KT CAVOK 19/14 Q1020=
201208251830 METAR LPPR 251830Z 33009KT CAVOK 20/14 Q1020=
201208251800 METAR LPPR 251800Z 33010KT CAVOK 20/14 Q1020=
201208251730 METAR LPPR 251730Z 33011KT 9999 FEW022 20/14 Q1020=
201208251700 METAR LPPR 251700Z 33012KT 9999 FEW022 21/14 Q1020=
201208251630 METAR LPPR 251630Z 32011KT 300V360 9999 FEW022 21/15 Q1020=
201208251600 METAR LPPR 251600Z 32012KT 290V350 9999 FEW022 21/15 Q1020=
201208251530 METAR LPPR 251530Z 32012KT 9999 FEW022 21/15 Q1020=
201208251500 METAR LPPR 251500Z 32012KT 290V350 9999 FEW022 21/15 Q1020=
201208251430 METAR LPPR 251430Z 33012KT 300V360 9999 FEW022 22/14 Q1021=
201208251400 METAR LPPR 251400Z 32011KT 9999 FEW022 21/15 Q1021=
201208251330 METAR LPPR 251330Z 32012KT 290V350 9999 FEW020 22/14 Q1021=
201208251300 METAR LPPR 251300Z 33011KT 290V360 9999 FEW020 21/14 Q1021=
201208251230 METAR LPPR 251230Z 32009KT 9999 FEW020 22/15 Q1021=
201208251200 METAR LPPR 251200Z 33009KT 300V360 9999 FEW020 21/14 Q1021=
201208251130 METAR LPPR 251130Z 32008KT 280V350 9999 FEW020 20/15 Q1021=
201208251100 METAR LPPR 251100Z 32008KT 280V360 9999 FEW017 SCT025 20/16
                        Q1021=
201208251030 METAR LPPR 251030Z 32007KT 290V360 9999 FEW017 SCT030 20/15
                        Q1021=
201208251000 METAR LPPR 251000Z 35008KT 320V020 9999 FEW017 SCT025 20/15
                        Q1020=
201208250930 METAR LPPR 250930Z 01008KT 9999 FEW015 20/15 Q1020=
201208250900 METAR LPPR 250900Z 01005KT 340V050 9999 FEW007 20/16 Q1020=
201208250830 METAR COR LPPR 250830Z 01005KT 330V050 9999 FEW008 19/17
                        Q1019=
201208250800 METAR LPPR 250800Z 35006KT 9999 FEW008 SCT035 18/18 Q1019=
201208250730 METAR LPPR 250730Z 02003KT 350V050 9999 FEW013 SCT030 18/17
                        Q1019=
201208250700 METAR LPPR 250700Z 03001KT 9999 FEW012TCU SCT030 17/16 Q1018=
201208250630 METAR LPPR 250630Z VRB02KT 9999 2000NW MIFG FEW011TCU 16/15
                        Q1018=
201208250600 METAR LPPR 250600Z VRB01KT 9999 2500N PRFG SCT011 BKN048
                        16/15 Q1018=
201208250530 METAR LPPR 250530Z 00000KT 9999 FEW006 BKN047 16/16 Q1018=
201208250500 METAR LPPR 250500Z 00000KT 9999 FEW006 BKN047 16/16 Q1017=
201208250430 METAR LPPR 250430Z 00000KT 9999 FEW006 BKN046 16/16 Q1017=
201208250400 METAR LPPR 250400Z 00000KT 9999 FEW006 BKN047 16/16 Q1017=
201208250330 METAR LPPR 250330Z 00000KT 9999 2000NW PRFG FEW006 BKN048
                        16/15 Q1017=
201208250300 METAR LPPR 250300Z 00000KT 9999 2000NW PRFG FEW006 16/15
                        Q1017=
201208250230 METAR LPPR 250230Z 00000KT 9000 2000NW PRFG FEW040 17/17
                        Q1017=
201208250200 METAR LPPR 250200Z 06002KT 9000 2000NW PRFG SCT040 17/17
                        Q1017=
201208250130 METAR LPPR 250130Z 36002KT 9999 2000NW PRFG FEW005 17/17
                        Q1017=
201208250100 METAR LPPR 250100Z 35004KT 9000 FEW005 BKN036 18/17 Q1017=
201208250030 METAR LPPR 250030Z VRB02KT 9999 FEW008 BKN033 18/18 Q1017=
201208250000 METAR LPPR 250000Z VRB01KT 9999 FEW006 BKN010 BKN031 18/18
                        Q1016=
201208242330 METAR LPPR 242330Z 00000KT 9999 FEW006 BKN027 18/17 Q1016=
201208242300 METAR LPPR 242300Z 00000KT 9999 FEW005 BKN025 18/17 Q1016=
201208242230 METAR LPPR 242230Z 36002KT 9999 FEW005 BKN022 BKN042 18/17
                        Q1016=
201208242200 METAR LPPR 242200Z 36003KT 340V070 9999 FEW005 BKN043 18/18
                        Q1016=
201208242130 METAR LPPR 242130Z 35004KT 9999 FEW004 BKN020 18/17 Q1016=
201208242100 METAR LPPR 242100Z 33006KT 5000 -DZ BR BKN002 BKN004 18/18
                        Q1016=
201208242030 METAR LPPR 242030Z 33007KT 3000 -DZ BR BKN002 BKN004 18/18
                        Q1015=
201208242000 METAR LPPR 242000Z 33007KT 5000 -DZ BR BKN002 BKN004 19/18
                        Q1015=
201208241930 METAR LPPR 241930Z VRB06KT 2500 -DZRA BR BKN002 BKN005 19/19
                        Q1014=
201208241900 METAR LPPR 241900Z 20010KT 2000 -DZRA BR BKN001 BKN002 20/19
                        Q1014=
201208241830 METAR LPPR 241830Z 20011KT 1400 R17/1300VP2000D -DZRA BR
                        BKN001 BKN003 20/19 Q1014=
201208241800 METAR LPPR 241800Z 20012KT 1300 R17/1200V1800D -DZRA BR BKN001
                        BKN003 20/19 Q1014=
201208241730 METAR LPPR 241730Z 19011KT 2500 R17/1400U -DZ BR BKN001 BKN003
                        19/19 Q1014=
201208241700 METAR LPPR 241700Z 19013KT 1800 R17/1400D -RADZ BR BKN002
                        BKN003 19/19 Q1014=
201208241630 METAR LPPR 241630Z 19013KT 1600 R17/1100V1600D -RADZ BR FEW001
                        BKN002 BKN010 19/19 Q1014=
201208241600 METAR LPPR 241600Z 19013KT 1400 R17/1300U -RADZ BR BKN002
                        BKN004 19/18 Q1014=
201208241530 METAR LPPR 241530Z 19013KT 1800 R17/1300V1900D -RADZ BR BKN002
                        BKN005 19/18 Q1014=
201208241500 METAR LPPR 241500Z 19014KT 2500 -RADZ BR BKN003 OVC009 19/18
                        Q1015=
201208241430 METAR LPPR 241430Z 20013KT 170V230 2000 R17/1400VP2000D RADZ
                        BR BKN004 OVC013 19/18 Q1015=
201208241400 METAR LPPR 241400Z 19012KT 3000 -RADZ BR BKN008 BKN015 20/18
                        Q1015=
201208241330 METAR LPPR 241330Z 19014KT 9999 FEW015 OVC024 21/17 Q1015=
201208241300 METAR LPPR 241300Z 19013KT 9999 FEW016 OVC022 21/17 Q1015=
201208241230 METAR LPPR 241230Z 19013KT 9999 FEW016 OVC025 21/17 Q1015=
201208241200 METAR LPPR 241200Z 19014KT 9999 FEW018 BKN035 21/17 Q1015=
201208241130 METAR LPPR 241130Z 19012KT 9999 FEW018 BKN040 21/17 Q1015=
201208241100 METAR LPPR 241100Z 19013KT 9999 FEW018 SCT030 BKN060 21/17
                        Q1015=
201208241030 METAR LPPR 241030Z 19013KT 9999 FEW018 BKN032 21/17 Q1015=
201208241000 METAR LPPR 241000Z 18013KT 9999 SCT016 BKN046 20/17 Q1015=
201208240930 METAR LPPR 240930Z 18012KT 9999 FEW017 BKN045 20/17 Q1015=
201208240900 METAR LPPR 240900Z 15008KT 9999 SCT018 BKN025 19/16 Q1015=
201208240830 METAR LPPR 240830Z 13007KT 9999 SCT017 BKN036 17/16 Q1015=
201208240800 METAR LPPR 240800Z 12006KT 100V160 9999 SCT014 BKN034 17/15
                        Q1015=
201208240730 METAR LPPR 240730Z 13007KT 4900 -RA BR SCT016 BKN020 17/15
                        Q1015=
201208240700 METAR LPPR 240700Z 11006KT 9000 FEW009 SCT017 BKN022 16/15
                        Q1015=
201208240630 METAR LPPR 240630Z 12007KT 4900 -RA BR FEW007 BKN017 BKN022
                        16/15 Q1014=
201208240600 METAR LPPR 240600Z 12006KT 5000 -RA BR SCT017 BKN025 BKN029
                        16/15 Q1014=
201208240530 METAR LPPR 240530Z 14008KT 9999 FEW025 BKN034 16/15 Q1014=
201208240500 METAR LPPR 240500Z 13007KT 9999 SCT035 SCT045 16/15 Q1014=
201208240430 METAR LPPR 240430Z 12007KT 060V130 9999 FEW020 SCT030 BKN042
                        16/14 Q1014=
201208240400 METAR LPPR 240400Z 12006KT 9999 FEW024 SCT027 16/14 Q1014=
201208240330 METAR LPPR 240330Z 12006KT 9999 SCT023 SCT029 15/14 Q1014=
201208240300 METAR LPPR 240300Z 12006KT 9999 SCT027 15/14 Q1014=
201208240230 METAR LPPR 240230Z VRB02KT CAVOK 15/14 Q1015=
201208240200 METAR LPPR 240200Z VRB02KT CAVOK 14/13 Q1015=
201208240130 METAR LPPR 240130Z 12003KT CAVOK 15/14 Q1015=
201208240100 METAR LPPR 240100Z VRB02KT 9999 FEW020 14/14 Q1015=
201208240030 METAR LPPR 240030Z 12001KT 9999 SCT019 15/14 Q1015=
201208240000 METAR LPPR 240000Z 00000KT 9999 SCT018 15/14 Q1016=
201208232330 METAR LPPR 232330Z VRB01KT 9999 FEW020 15/14 Q1016=
201208232300 METAR LPPR 232300Z 00000KT 9999 FEW020 15/13 Q1016=
201208232230 METAR LPPR 232230Z VRB02KT 9999 SCT019 16/15 Q1016=
201208232200 METAR LPPR 232200Z 33003KT 300V360 9999 SCT022 17/15 Q1016=
201208232130 METAR LPPR 232130Z 33004KT 9999 SCT020 BKN023 17/15 Q1016=
201208232100 METAR LPPR 232100Z 33003KT 9999 SCT018 SCT022 17/15 Q1016=
201208232030 METAR LPPR 232030Z 32004KT 9999 SCT021 SCT027 17/15 Q1016=
201208232000 METAR LPPR 232000Z 34005KT 9999 SCT019 SCT024 18/15 Q1016=
201208231930 METAR LPPR 231930Z 33006KT 280V350 9999 BKN016 BKN033 19/16
                        Q1016=
201208231900 METAR LPPR 231900Z 32007KT 9999 SCT012 BKN032 19/16 Q1016=
201208231830 METAR LPPR 231830Z 33008KT 9999 SCT013 SCT015 BKN033 19/16
                        Q1016=
201208231800 METAR LPPR 231800Z 33010KT 300V360 9999 SCT013 SCT015 BKN033
                        20/17 Q1016=
201208231730 METAR LPPR 231730Z 33008KT 290V010 9999 SCT013 SCT024 BKN032
                        20/16 Q1016=
201208231700 METAR LPPR 231700Z 32008KT 280V340 9999 BKN013 BKN024 BKN027
                        20/17 Q1016=
201208231630 METAR LPPR 231630Z 33007KT 280V350 9999 SCT011 BKN013 BKN020
                        20/17 Q1016=
201208231600 METAR LPPR 231600Z 32008KT 290V350 9999 BKN012 BKN020 BKN038
                        20/17 Q1016=
201208231530 METAR COR LPPR 231530Z 32011KT 280V350 9999 SCT012 BKN018
                        BKN036 21/18 Q1016=
201208231500 METAR LPPR 231500Z 32006KT 270V350 9999 BKN010 BKN030 20/18
                        Q1016=
201208231430 METAR LPPR 231430Z 31008KT 270V340 9999 FEW008 BKN011 BKN030
                        20/17 Q1016=
201208231400 METAR LPPR 231400Z 30007KT 260V340 9999 SCT010 SCT025 BKN033
                        20/18 Q1016=
201208231330 METAR LPPR 231330Z 31007KT 270V010 9999 FEW010 SCT014 BKN035
                        21/17 Q1016=
201208231300 METAR LPPR 231300Z 32008KT 280V340 9999 FEW008 BKN010 BKN025
                        20/18 Q1016=
201208231230 METAR LPPR 231230Z 30008KT 270V350 9999 BKN011 BKN020 21/18
                        Q1016=
201208231200 METAR LPPR 231200Z 31007KT 240V350 9999 BKN013 21/18 Q1016=
201208231130 METAR LPPR 231130Z 32007KT 270V350 9999 FEW010 BKN012 21/18
                        Q1016=
201208231100 METAR LPPR 231100Z 31006KT 270V350 9999 FEW009 BKN011 BKN030
                        21/18 Q1016=
201208231030 METAR LPPR 231030Z 30006KT 260V350 9999 FEW008 BKN011 BKN025
                        20/18 Q1016=
201208231000 METAR LPPR 231000Z 30007KT 260V350 9999 BKN006 BKN022 20/18
                        Q1016=
201208230930 METAR LPPR 230930Z 30004KT 260V350 9000 FEW006 BKN009 BKN022
                        20/18 Q1016=
201208230900 METAR LPPR 230900Z 34005KT 290V010 9999 FEW008 OVC020 20/18
                        Q1015=
201208230830 METAR LPPR 230830Z 33006KT 9000 FEW007 OVC015 20/18 Q1015=
201208230800 METAR LPPR 230800Z 32005KT 280V340 4500 BR SCT004 OVC009
                        20/18 Q1015=
201208230730 METAR LPPR 230730Z VRB02KT 7000 SCT008 BKN010 20/18 Q1015=
201208230700 METAR LPPR 230700Z 19004KT 9000 SCT008 BKN010 20/18 Q1014=
201208230630 METAR LPPR 230630Z 22004KT 190V250 7000 OVC007 19/18 Q1014=
201208230600 METAR LPPR 230600Z 23004KT 180V280 7000 OVC007 20/18 Q1014=
201208230530 METAR LPPR 230530Z 21004KT 180V260 9999 OVC007 19/18 Q1014=
201208230500 METAR LPPR 230500Z 22004KT 170V260 9999 OVC006 20/18 Q1014=
201208230430 METAR LPPR 230430Z 20005KT 170V230 9999 OVC007 20/18 Q1014=
201208230400 METAR LPPR 230400Z 21004KT 180V250 9999 SCT007 BKN009 20/18
                        Q1014=
201208230330 METAR LPPR 230330Z 21005KT 180V240 9999 OVC008 20/18 Q1014=
201208230300 METAR LPPR 230300Z 20005KT 9999 OVC008 20/18 Q1015=
201208230230 METAR LPPR 230230Z 20006KT 9999 BKN007 OVC009 20/18 Q1014=
201208230200 METAR LPPR 230200Z 19006KT 9999 SCT006 OVC008 20/18 Q1014=
201208230130 METAR LPPR 230130Z 18007KT 9999 BKN006 BKN008 19/18 Q1015=
201208230100 METAR LPPR 230100Z 20004KT 9999 SCT005 OVC007 19/18 Q1015=
201208230030 METAR LPPR 230030Z 21003KT 9999 OVC006 19/18 Q1016=
201208230000 METAR LPPR 230000Z VRB02KT 9999 OVC006 19/18 Q1016=
201208222330 METAR LPPR 222330Z 23003KT 170V310 9999 OVC006 20/18 Q1016=
201208222300 METAR LPPR 222300Z 23004KT 190V260 9999 OVC006 20/18 Q1016=
201208222230 METAR LPPR 222230Z 24003KT 210V290 9999 OVC006 20/18 Q1016=
201208222200 METAR LPPR 222200Z 22003KT 190V260 9999 OVC006 20/19 Q1017=
201208222130 METAR LPPR 222130Z 24004KT 190V270 9000 OVC006 20/19 Q1017=
201208222100 METAR LPPR 222100Z 22004KT 9000 OVC006 19/18 Q1017=
201208222030 METAR LPPR 222030Z 21004KT 7000 BKN006 19/18 Q1016=
201208222000 METAR LPPR 222000Z 21003KT 7000 SCT006 18/17 Q1016=
201208221930 METAR LPPR 221930Z 26002KT 7000 SCT007 19/18 Q1016=
201208221900 METAR LPPR 221900Z 28003KT 240V310 9000 SCT008 20/18 Q1016=
201208221830 METAR LPPR 221830Z 30003KT 250V340 8000 BKN008 20/18 Q1016=
201208221800 METAR LPPR 221800Z 30003KT 250V350 8000 SCT009 20/18 Q1016=
201208221730 METAR LPPR 221730Z 31004KT 270V350 8000 BKN009 20/18 Q1016=
201208221700 METAR LPPR 221700Z 30005KT 270V340 9000 OVC009 20/18 Q1016=
201208221630 METAR LPPR 221630Z 32005KT 9000 OVC009 20/18 Q1016=
201208221600 METAR LPPR 221600Z 33005KT 270V010 8000 OVC008 20/18 Q1016=
201208221530 METAR LPPR 221530Z 31007KT 270V350 9000 SCT007 BKN010 21/18
                        Q1017=
201208221500 METAR LPPR 221500Z 29006KT 270V340 9000 FEW007 BKN009 BKN011
                        21/18 Q1017=
201208221430 METAR LPPR 221430Z 30007KT 260V350 9999 SCT010 BKN012 22/18
                        Q1017=
201208221400 METAR LPPR 221400Z 30007KT 250V340 9999 SCT011 BKN013 BKN015
                        22/18 Q1017=
201208221330 METAR LPPR 221330Z 32007KT 280V350 9999 SCT010 BKN013 BKN015
                        22/18 Q1017=
201208221300 METAR LPPR 221300Z 27005KT 210V320 9000 SCT011 BKN015 22/18
                        Q1017=
201208221230 METAR LPPR 221230Z 29005KT 220V340 9999 SCT012 SCT015 BKN018
                        22/18 Q1018=
201208221200 METAR LPPR 221200Z 28005KT 220V320 9000 SCT011 BKN016 22/18
                        Q1018=
201208221130 METAR LPPR 221130Z 26004KT 210V310 9999 BKN014 BKN016 22/18
                        Q1018=
201208221100 METAR LPPR 221100Z 29005KT 190V350 9000 FEW011 SCT014 BKN016
                        21/18 Q1018=
201208221030 METAR LPPR 221030Z 30004KT 240V330 9999 FEW011 SCT013 BKN016
                        21/17 Q1018=
201208221000 METAR LPPR 221000Z 26003KT 200V320 9999 BKN013 21/17 Q1018=
201208220930 METAR LPPR 220930Z VRB02KT 9999 FEW009 SCT011 BKN013 20/17
                        Q1018=
201208220900 METAR LPPR 220900Z VRB02KT 9999 SCT008 BKN010 20/17 Q1018=
201208220830 METAR LPPR 220830Z 11003KT 050V190 9000 SCT008 BKN010 19/17
                        Q1018=
201208220800 METAR LPPR 220800Z 07003KT 360V160 7000 SCT006 BKN009 19/16
                        Q1018=
201208220730 METAR LPPR 220730Z 09003KT 060V140 7000 SCT006 BKN009 18/16
                        Q1017=
201208220700 METAR LPPR 220700Z 10005KT 7000 BKN008 18/16 Q1017=
201208220630 METAR LPPR 220630Z 12006KT 7000 SCT008 BKN010 18/16 Q1017=
201208220600 METAR LPPR 220600Z 12005KT 7000 SCT009 BKN011 18/16 Q1017=
201208220530 METAR LPPR 220530Z 12005KT 9000 BKN009 18/16 Q1016=
201208220500 METAR LPPR 220500Z 11005KT 9000 SCT008 BKN010 19/16 Q1017=
201208220430 METAR LPPR 220430Z VRB02KT 9000 BKN008 19/17 Q1017=
201208220400 METAR LPPR 220400Z 19003KT 130V220 9999 BKN008 19/17 Q1017=
201208220330 METAR LPPR 220330Z VRB01KT 9000 BKN008 19/17 Q1017=
201208220300 METAR LPPR 220300Z VRB01KT 9000 BKN007 19/17 Q1017=
201208220230 METAR LPPR 220230Z VRB02KT 9000 BKN007 19/17 Q1017=
201208220200 METAR LPPR 220200Z VRB01KT 8000 SCT006 BKN008 19/17 Q1017=
201208220130 METAR LPPR 220130Z VRB01KT 8000 SCT006 BKN008 19/17 Q1017=
201208220100 METAR LPPR 220100Z VRB01KT 9000 BKN006 19/17 Q1018=
201208220030 METAR LPPR 220030Z VRB02KT 9999 SCT005 BKN007 19/17 Q1018=
201208220000 METAR LPPR 220000Z 14003KT 060V220 9999 BKN006 19/17 Q1018=
201208212330 METAR LPPR 212330Z VRB02KT 9000 BKN007 19/17 Q1018=
201208212300 METAR LPPR 212300Z VRB02KT 9999 BKN007 19/17 Q1018=
201208212230 METAR LPPR 212230Z VRB01KT 9999 BKN007 19/18 Q1018=
201208212200 METAR LPPR 212200Z VRB02KT 9999 BKN008 19/18 Q1019=
201208212130 METAR LPPR 212130Z VRB02KT 9999 BKN008 19/17 Q1019=
201208212100 METAR LPPR 212100Z VRB02KT 9999 SCT008 BKN010 19/17 Q1019=
201208212030 METAR LPPR 212030Z VRB02KT 9999 BKN008 19/17 Q1018=
201208212000 METAR LPPR 212000Z 34004KT 300V010 9999 BKN008 19/17 Q1018=
201208211930 METAR LPPR 211930Z 31005KT 280V350 9999 SCT009 19/17 Q1018=
201208211900 METAR LPPR 211900Z 31006KT 280V340 9999 FEW011 20/18 Q1018=
201208211830 METAR LPPR 211830Z 32006KT 280V350 9999 FEW013 21/18 Q1018=
201208211800 METAR LPPR 211800Z 31007KT 270V350 9999 FEW015 21/17 Q1018=
201208211730 METAR LPPR 211730Z 32006KT 270V010 9999 FEW015 21/17 Q1018=
201208211700 METAR LPPR 211700Z 31006KT 270V360 9999 FEW014 22/17 Q1018=
201208211630 METAR LPPR 211630Z 29006KT 240V310 9999 FEW014 21/17 Q1018=
201208211600 METAR LPPR 211600Z 30006KT 260V340 9999 FEW015 22/17 Q1019=
201208211530 METAR LPPR 211530Z 28006KT 220V340 9999 FEW015 22/17 Q1019=
201208211500 METAR LPPR 211500Z 30006KT 260V340 9999 SCT015 22/17 Q1019=
201208211430 METAR LPPR 211430Z 30007KT 240V360 9999 FEW012 SCT015 22/18
                        Q1019=
201208211400 METAR LPPR 211400Z 29007KT 220V310 9999 FEW018 22/17 Q1020=
201208211330 METAR LPPR 211330Z 29007KT 240V320 9999 FEW020 22/17 Q1020=
201208211300 METAR LPPR 211300Z 28006KT 230V330 9999 FEW020 23/17 Q1020=
201208211230 METAR LPPR 211230Z 29006KT 250V320 9999 FEW018 23/18 Q1020=
201208211200 METAR LPPR 211200Z 35005KT 260V020 9999 FEW018 23/17 Q1020=
201208211130 METAR LPPR 211130Z VRB04KT 9999 FEW012 SCT018 23/18 Q1020=
201208211100 METAR LPPR 211100Z VRB03KT 9999 BKN016 21/17 Q1020=
201208211030 METAR LPPR 211030Z 05004KT 320V120 9999 BKN015 22/17 Q1020=
201208211000 METAR LPPR 211000Z 06006KT 020V090 9999 SCT012 BKN017 20/17
                        Q1020=
201208210930 METAR LPPR 210930Z 03005KT 350V110 9999 SCT007 BKN013 20/17
                        Q1020=
201208210900 METAR LPPR 210900Z 32005KT 280V360 9999 SCT006 OVC011 18/17
                        Q1020=
201208210830 METAR LPPR 210830Z 33004KT 9000 OVC005 18/17 Q1021=
201208210800 METAR LPPR 210800Z 30004KT 250V010 7000 OVC002 18/17 Q1021=
201208210730 METAR LPPR 210730Z 32005KT 280V350 1500 BR VCFG OVC002 18/17
                        Q1020=
201208210700 METAR LPPR 210700Z 29004KT 260V340 1600 BR VCFG SCT002 OVC004
                        18/18 Q1020=
201208210630 METAR LPPR 210630Z 20003KT 150V250 2800 BR VCFG BKN002 OVC004
                        18/18 Q1019=
201208210600 METAR LPPR 210600Z 08003KT 010V160 4000 BR VCFG SCT002 BKN003
                        18/18 Q1019=
201208210530 METAR LPPR 210530Z VRB02KT 4900 BR SCT002 BKN005 18/18 Q1019=
201208210500 METAR LPPR 210500Z VRB02KT 4900 BR VCFG SCT002 BKN005 18/18
                        Q1019=
201208210430 METAR LPPR 210430Z 34002KT 6000 VCFG SCT003 BKN004 18/18
                        Q1019=
201208210400 METAR LPPR 210400Z VRB02KT 4900 BR VCFG SCT002 BKN004 18/18
                        Q1019=
201208210330 METAR LPPR 210330Z VRB02KT 7000 VCFG SCT002 BKN004 18/18
                        Q1019=
201208210300 METAR LPPR 210300Z 00000KT 8000 VCFG SCT002 BKN004 19/18
                        Q1019=
201208210230 METAR LPPR 210230Z 05003KT 010V090 8000 VCFG SCT003 BKN005
                        19/18 Q1019=
201208210200 METAR LPPR 210200Z 02003KT 320V080 8000 VCFG SCT003 BKN004
                        19/18 Q1019=
201208210130 METAR LPPR 210130Z 34004KT 9000 VCFG SCT003 BKN004 19/18
                        Q1020=
201208210100 METAR LPPR 210100Z 34004KT 300V010 6000 VCFG SCT002 BKN004
                        19/18 Q1020=
201208210030 METAR LPPR 210030Z 33003KT 290V360 4900 BR VCFG SCT002 BKN003
                        19/18 Q1020=
201208210000 METAR LPPR 210000Z 34003KT 6000 VCFG SCT002 BKN003 19/18
                        Q1020=
201208202330 METAR LPPR 202330Z 35003KT 320V030 4000 BR VCFG SCT002 BKN003
                        19/18 Q1020=
201208202300 METAR LPPR 202300Z 32003KT 270V350 4000 BR VCFG SCT002 BKN003
                        19/18 Q1020=
201208202230 METAR LPPR 202230Z 33003KT 6000 VCFG BKN003 19/18 Q1020=
201208202200 METAR LPPR 202200Z 33004KT 8000 VCFG FEW003 BKN004 19/19
                        Q1020=
201208202130 METAR LPPR 202130Z 35004KT 8000 VCFG SCT002 BKN004 19/19
                        Q1020=
201208202100 METAR LPPR 202100Z 32004KT 290V350 0900 0650S R17/0800V1300U
                        FG FEW002 BKN004 19/18 Q1020=
201208202030 METAR LPPR 202030Z 30003KT 270V330 4000 BR VCFG FEW001 19/18
                        Q1020=
201208202000 METAR LPPR 202000Z 33004KT 290V350 1700 1200N R17/1200VP2000D
                        BR VCFG SCT001 19/18 Q1019=
201208201930 METAR LPPR 201930Z 31005KT 6000 VCFG FEW002 19/18 Q1019=
201208201900 METAR LPPR 201900Z 31006KT 280V340 9999 VCFG FEW020 20/19
                        Q1019=
201208201830 METAR LPPR 201830Z 30006KT 270V330 9999 FEW020 21/19 Q1019=
201208201800 METAR LPPR 201800Z 31006KT 270V340 9999 FEW020 22/19 Q1019=
201208201730 METAR LPPR 201730Z 30006KT 260V340 9999 FEW020 23/19 Q1019=
201208201700 METAR LPPR 201700Z 30004KT 270V340 9999 FEW020 24/20 Q1019=
201208201630 METAR LPPR 201630Z 33007KT 290V350 9999 FEW020 24/20 Q1019=
201208201600 METAR LPPR 201600Z 33008KT 290V350 9999 FEW020 23/20 Q1019=
201208201530 METAR LPPR 201530Z 32008KT 270V360 9999 FEW020 23/20 Q1019=
201208201500 METAR LPPR 201500Z 32008KT 290V350 9999 FEW020 24/20 Q1019=
201208201430 METAR LPPR 201430Z 31008KT 270V340 9999 FEW020 23/20 Q1020=
201208201400 METAR LPPR 201400Z 32011KT 280V350 9999 FEW020 23/20 Q1020=
201208201330 METAR LPPR 201330Z 30007KT 270V340 9999 FEW020 25/20 Q1020=
201208201300 METAR LPPR 201300Z 33010KT 9999 FEW020 24/20 Q1020=
201208201230 METAR LPPR 201230Z 32009KT 280V340 9999 FEW020 24/20 Q1020=
201208201200 METAR LPPR 201200Z 32008KT 270V350 9999 FEW015 24/20 Q1020=
201208201130 METAR LPPR 201130Z 29007KT 250V310 9999 FEW015 25/20 Q1020=
201208201100 METAR LPPR 201100Z 33004KT 260V360 9000 FEW012 25/21 Q1020=
201208201030 METAR LPPR 201030Z 30005KT 240V350 8000 SCT006 24/21 Q1020=
201208201000 METAR LPPR 201000Z 33004KT 300V010 8000 SCT005 23/21 Q1020=
201208200930 METAR LPPR 200930Z 36003KT 310V060 7000 SCT003 21/20 Q1021=
201208200900 METAR LPPR 200900Z 06004KT 020V090 6000 SCT002 BKN004 20/20
                        Q1021=
201208200830 METAR LPPR 200830Z 01004KT 320V060 4000 BR SCT002 BKN004
                        19/19 Q1021=
201208200800 METAR LPPR 200800Z VRB02KT 2000 R17/1100V1900U BR SCT002
                        BKN004 19/19 Q1020=
201208200730 METAR LPPR 200730Z VRB01KT 0800 R17/0800 FG BKN002 19/19
                        Q1020=
201208200700 METAR LPPR 200700Z VRB02KT 0300 R17/0325 FG VV001 19/19 Q1020=
201208200630 METAR LPPR 200630Z 04003KT 020V120 0300 R17/0275 FG VV001
                        19/19 Q1020=
201208200600 METAR LPPR 200600Z 36003KT 0300 R17/0225N FG VV001 18/18
                        Q1020=
201208200530 METAR LPPR 200530Z 33002KT 2000 R17/0300 BR PRFG BKN002 18/18
                        Q1020=
201208200500 METAR LPPR 200500Z VRB01KT 8000 FEW002 SCT005 18/18 Q1020=
201208200430 METAR LPPR 200430Z 00000KT 7000 FEW003 SCT005 17/17 Q1019=
201208200400 METAR LPPR 200400Z VRB01KT 8000 SCT002 18/18 Q1019=
201208200330 METAR LPPR 200330Z VRB01KT 8000 SCT004 19/19 Q1019=
201208200300 METAR LPPR 200300Z VRB02KT 8000 SCT004 19/18 Q1019=
201208200230 METAR LPPR 200230Z VRB02KT 7000 SCT003 19/18 Q1019=
201208200200 METAR LPPR 200200Z 06002KT 7000 SCT003 19/18 Q1019=
201208200130 METAR LPPR 200130Z VRB01KT 7000 SCT005 19/18 Q1020=
201208200100 METAR LPPR 200100Z VRB01KT 6000 SCT006 19/18 Q1020=
201208200030 METAR LPPR 200030Z VRB01KT 4000 BR SCT005 20/19 Q1020=
201208200000 METAR LPPR 200000Z 00000KT 6000 FEW004 SCT007 20/19 Q1020=
201208192330 METAR LPPR 192330Z 35002KT 6000 SCT004 20/19 Q1020=
201208192300 METAR LPPR 192300Z VRB02KT 8000 SCT006 20/20 Q1020=
201208192230 METAR LPPR 192230Z 33004KT CAVOK 20/19 Q1020=
201208192200 METAR LPPR 192200Z 01004KT 9999 FEW009 21/19 Q1020=
201208192130 METAR LPPR 192130Z 02004KT 9999 FEW009 21/20 Q1020=
201208192100 METAR LPPR 192100Z 35003KT 320V040 CAVOK 21/20 Q1020=
201208192030 METAR LPPR 192030Z 01005KT 9999 FEW008 22/20 Q1019=
201208192000 METAR LPPR 192000Z 34005KT 9999 FEW009 22/20 Q1019=
201208191930 METAR LPPR 191930Z 34005KT 9999 FEW009 22/20 Q1019=
201208191900 METAR LPPR 191900Z 34006KT 310V010 9999 FEW009 22/20 Q1019=
201208191830 METAR LPPR 191830Z 32005KT 270V360 9999 FEW025 23/20 Q1019=
201208191800 METAR LPPR 191800Z 32005KT 280V010 9999 FEW025 23/20 Q1018=
201208191730 METAR LPPR 191730Z 30005KT 260V340 9999 FEW025 23/20 Q1019=
201208191700 METAR LPPR 191700Z 29006KT 250V320 9999 FEW025 23/20 Q1019=
201208191630 METAR LPPR 191630Z 28005KT 250V330 9999 FEW025 24/19 Q1019=
201208191600 METAR LPPR 191600Z 29005KT 260V330 9999 FEW025 24/19 Q1018=
201208191530 METAR LPPR 191530Z 29005KT 250V330 9999 FEW025 24/19 Q1018=
201208191500 METAR LPPR 191500Z 29007KT 260V320 9999 FEW025 25/19 Q1018=
201208191430 METAR LPPR 191430Z 27005KT 170V320 9999 FEW025 26/20 Q1019=
201208191400 METAR LPPR 191400Z 29005KT 250V340 9999 FEW025 25/20 Q1019=
201208191330 METAR LPPR 191330Z 29006KT 230V330 9999 FEW025 25/20 Q1019=
201208191300 METAR LPPR 191300Z 25006KT 220V330 9999 FEW025 SCT045 25/19
                        Q1019=
201208191230 METAR LPPR 191230Z 26006KT 220V310 9999 FEW025 SCT045 25/20
                        Q1019=
201208191200 METAR LPPR 191200Z 25007KT 210V280 9999 FEW025 SCT045 25/19
                        Q1018=
201208191130 METAR LPPR 191130Z 25006KT 220V310 9999 FEW025 SCT045 26/19
                        Q1018=
201208191100 METAR LPPR 191100Z 21006KT 140V270 9999 FEW020 SCT040 26/19
                        Q1019=
201208191030 METAR LPPR 191030Z 22004KT 140V260 9999 FEW029 BKN045 25/19
                        Q1019=
201208191000 METAR LPPR 191000Z 19004KT 150V250 9999 SCT039 BKN045 24/19
                        Q1019=
201208190930 METAR LPPR 190930Z 16005KT 130V200 9999 SCT037 BKN044 24/19
                        Q1018=
201208190900 METAR LPPR 190900Z 14008KT 9999 BKN038 23/19 Q1018=
201208190830 METAR LPPR 190830Z 15008KT 9999 BKN041 22/19 Q1017=
201208190800 METAR LPPR 190800Z VRB06KT 9999 BKN042 22/18 Q1017=
201208190730 METAR LPPR 190730Z 18006KT 9999 FEW033 BKN040 21/18 Q1017=
201208190700 METAR LPPR 190700Z 17004KT 9999 BKN035 21/18 Q1017=
201208190630 METAR LPPR 190630Z 23003KT 200V270 9999 BKN038 20/18 Q1017=
201208190600 METAR LPPR 190600Z 20003KT 9999 FEW032 BKN038 20/18 Q1016=
201208190530 METAR LPPR 190530Z 14005KT 9999 FEW028 BKN036 20/18 Q1016=
201208190500 METAR LPPR 190500Z 15005KT 9999 BKN040 20/18 Q1016=
201208190430 METAR LPPR 190430Z 14006KT 9999 BKN039 20/18 Q1016=
201208190400 METAR LPPR 190400Z 12004KT 9999 BKN038 20/18 Q1016=
201208190330 METAR LPPR 190330Z 13003KT 100V170 9999 BKN037 20/18 Q1015=
201208190300 METAR LPPR 190300Z 14004KT 100V160 9999 FEW010 BKN038 20/18
                        Q1015=
201208190230 METAR LPPR 190230Z 11007KT 9999 FEW008 BKN036 20/18 Q1015=
201208190200 METAR LPPR 190200Z VRB01KT 9999 SCT036 19/18 Q1015=
201208190130 METAR LPPR 190130Z VRB02KT 9999 SCT033 20/18 Q1015=
201208190100 METAR LPPR 190100Z 09003KT 9999 SCT037 19/18 Q1015=
201208190030 METAR LPPR 190030Z VRB01KT 9999 FEW008 20/18 Q1015=
201208190000 METAR LPPR 190000Z 09003KT 060V120 CAVOK 20/18 Q1015=
201208182330 METAR LPPR 182330Z 14003KT 100V160 CAVOK 20/18 Q1016=
201208182300 METAR LPPR 182300Z 10005KT 070V130 CAVOK 21/18 Q1015=
201208182230 METAR LPPR 182230Z 10006KT CAVOK 20/19 Q1015=
201208182200 METAR LPPR 182200Z 10003KT 060V120 9999 FEW010 20/19 Q1016=
201208182130 METAR LPPR 182130Z VRB02KT 9999 FEW010 20/18 Q1016=
201208182100 METAR LPPR 182100Z 17003KT 120V200 9999 FEW008 20/19 Q1016=
201208182030 METAR LPPR 182030Z 15003KT 100V190 9999 FEW008 19/18 Q1016=
201208182000 METAR LPPR 182000Z 21002KT 9999 FEW009 20/18 Q1016=
201208181930 METAR LPPR 181930Z VRB02KT 9999 FEW011 20/18 Q1015=
201208181900 METAR LPPR 181900Z VRB02KT 9999 FEW012 21/19 Q1015=
201208181830 METAR LPPR 181830Z 30003KT 230V350 9999 FEW013 22/19 Q1014=
201208181800 METAR LPPR 181800Z 27004KT 200V330 9999 FEW014 22/19 Q1014=
201208181730 METAR LPPR 181730Z 25006KT CAVOK 22/19 Q1014=
201208181700 METAR LPPR 181700Z 23006KT 200V270 CAVOK 22/19 Q1014=
201208181630 METAR LPPR 181630Z 23006KT 9999 FEW015 22/19 Q1014=
201208181600 METAR LPPR 181600Z 25006KT 180V300 CAVOK 23/18 Q1014=
201208181530 METAR LPPR 181530Z 24007KT 210V270 CAVOK 23/18 Q1014=
201208181500 METAR LPPR 181500Z 26005KT 210V310 CAVOK 24/18 Q1014=
201208181430 METAR LPPR 181430Z 25006KT 190V290 CAVOK 24/18 Q1015=
201208181400 METAR LPPR 181400Z 24007KT 190V300 CAVOK 24/17 Q1015=
201208181330 METAR LPPR 181330Z 22006KT 160V280 9999 FEW016 24/18 Q1014=
201208181300 METAR LPPR 181300Z 23006KT 170V280 9999 FEW016 23/18 Q1015=
201208181230 METAR LPPR 181230Z 24008KT 200V260 CAVOK 23/17 Q1015=
201208181200 METAR LPPR 181200Z 24008KT 200V260 CAVOK 23/18 Q1015=
201208181130 METAR LPPR 181130Z 20007KT 160V220 CAVOK 23/17 Q1015=
201208181100 METAR LPPR 181100Z 20007KT 160V240 9999 FEW017 23/17 Q1015=
201208181030 METAR LPPR 181030Z 14006KT 110V180 9999 FEW017 23/18 Q1015=
201208181000 METAR LPPR 181000Z 15004KT 120V210 9999 FEW009 22/17 Q1015=
201208180930 METAR LPPR 180930Z 18003KT 130V220 9999 FEW008 20/17 Q1015=
201208180900 METAR LPPR 180900Z 12003KT 070V200 8000 FEW005 20/17 Q1015=
201208180830 METAR LPPR 180830Z 12005KT 040V160 5000 BR VCFG SCT003 18/17
                        Q1015=
201208180800 METAR LPPR 180800Z 11008KT 050V120 5000 2000E BR VCFG SCT004
                        17/16 Q1015=
201208180730 METAR LPPR 180730Z 13004KT 070V170 9000 NSC 18/16 Q1015=
201208180700 METAR LPPR 180700Z VRB01KT 8000 NSC 17/16 Q1015=
201208180630 METAR LPPR 180630Z VRB02KT 7000 NSC 16/15 Q1015=
201208180600 METAR LPPR 180600Z 11004KT 080V150 7000 FEW010 16/16 Q1014=
201208180530 METAR LPPR 180530Z 12007KT 9999 FEW004 SCT013 17/16 Q1014=
201208180500 METAR LPPR 180500Z 10006KT 9999 SCT005 BKN013 17/16 Q1014=
201208180430 METAR LPPR 180430Z 08003KT 350V130 9999 SCT004 BKN013 17/16
                        Q1015=
201208180400 METAR LPPR 180400Z VRB02KT 9999 SCT004 SCT006 BKN013 17/16
                        Q1015=
201208180330 METAR LPPR 180330Z 00000KT 9999 SCT006 BKN015 17/16 Q1015=
201208180300 METAR LPPR 180300Z VRB01KT 9999 FEW006 SCT013 17/16 Q1015=
201208180230 METAR LPPR 180230Z 12003KT CAVOK 17/16 Q1015=
201208180200 METAR LPPR 180200Z 12004KT CAVOK 17/16 Q1015=
201208180130 METAR LPPR 180130Z 12006KT CAVOK 17/16 Q1015=
201208180100 METAR LPPR 180100Z 12006KT CAVOK 17/17 Q1015=
201208180030 METAR LPPR 180030Z 11004KT 9999 SCT016 18/17 Q1015=
201208180000 METAR LPPR 180000Z 12004KT 9999 FEW008 SCT015 18/17 Q1015=
201208172330 METAR LPPR 172330Z 17004KT 9999 FEW007 SCT012 18/18 Q1015=
201208172300 METAR LPPR 172300Z 17004KT 9999 FEW007 SCT011 18/17 Q1015=
201208172230 METAR LPPR 172230Z 21002KT 9999 FEW008 SCT012 BKN016 18/17
                        Q1016=
201208172200 METAR LPPR 172200Z 17003KT 9999 FEW009 18/17 Q1015=
201208172130 METAR LPPR 172130Z 20003KT 9999 FEW018 18/18 Q1015=
201208172100 METAR LPPR 172100Z VRB02KT 9999 FEW007 18/18 Q1015=
201208172030 METAR LPPR 172030Z 19001KT 9999 FEW007 19/18 Q1015=
201208172000 METAR LPPR 172000Z VRB01KT 9999 FEW008 19/18 Q1014=
201208171930 METAR LPPR 171930Z VRB02KT CAVOK 20/18 Q1014=
201208171900 METAR LPPR 171900Z VRB02KT CAVOK 21/18 Q1014=
201208171830 METAR LPPR 171830Z 27003KT 210V320 9999 FEW007 21/18 Q1014=
201208171800 METAR LPPR 171800Z 26004KT 200V320 9999 FEW007 21/18 Q1014=
201208171730 METAR LPPR 171730Z 24006KT 210V280 CAVOK 22/18 Q1014=
201208171700 METAR LPPR 171700Z 25004KT 200V330 CAVOK 22/18 Q1014=
201208171630 METAR LPPR 171630Z 22007KT 190V260 CAVOK 22/17 Q1014=
201208171600 METAR LPPR 171600Z 24006KT 190V270 CAVOK 23/17 Q1014=
201208171530 METAR LPPR 171530Z 23005KT 170V280 CAVOK 23/17 Q1014=
201208171500 METAR LPPR 171500Z 26005KT 190V320 CAVOK 22/17 Q1014=
201208171430 METAR LPPR 171430Z 27006KT 210V300 CAVOK 23/16 Q1014=
201208171400 METAR LPPR 171400Z 24006KT 210V270 CAVOK 24/14 Q1014=
201208171330 METAR LPPR 171330Z 22007KT 190V270 CAVOK 23/14 Q1014=
201208171300 METAR LPPR 171300Z 25006KT 210V300 CAVOK 23/16 Q1014=
201208171230 METAR LPPR 171230Z 24007KT 9999 FEW016 23/16 Q1014=
201208171200 METAR LPPR 171200Z 23007KT 180V270 9999 FEW014 22/18 Q1015=
201208171130 METAR LPPR 171130Z 23006KT 190V270 9999 FEW013 22/18 Q1015=
201208171100 METAR LPPR 171100Z 21006KT 170V270 9999 FEW012 23/18 Q1015=
201208171030 METAR LPPR 171030Z 22005KT 170V270 9999 FEW013 21/18 Q1015=
201208171000 METAR LPPR 171000Z 25005KT 210V300 9999 SCT012 21/18 Q1015=
201208170930 METAR LPPR 170930Z 20003KT 120V280 9999 SCT011 22/18 Q1015=
201208170900 METAR LPPR 170900Z 22005KT 180V270 9999 BKN012 20/17 Q1015=
201208170830 METAR LPPR 170830Z 17003KT 120V230 9999 SCT009 20/17 Q1015=
201208170800 METAR LPPR 170800Z 14004KT 100V170 CAVOK 19/16 Q1014=
201208170730 METAR LPPR 170730Z 13003KT CAVOK 17/15 Q1014=
201208170700 METAR LPPR 170700Z 13004KT CAVOK 16/15 Q1014=
201208170630 METAR LPPR 170630Z 12006KT CAVOK 15/14 Q1014=
201208170600 METAR LPPR 170600Z 12006KT CAVOK 15/14 Q1013=
201208170530 METAR LPPR 170530Z 12005KT CAVOK 15/15 Q1013=
201208170500 METAR LPPR 170500Z VRB02KT CAVOK 15/14 Q1014=
201208170430 METAR LPPR 170430Z VRB01KT CAVOK 15/14 Q1014=
201208170400 METAR LPPR 170400Z VRB01KT CAVOK 15/14 Q1014=
201208170330 METAR LPPR 170330Z 12005KT CAVOK 15/14 Q1014=
201208170300 METAR LPPR 170300Z VRB01KT CAVOK 15/15 Q1014=
201208170230 METAR LPPR 170230Z VRB01KT CAVOK 15/15 Q1014=
201208170200 METAR LPPR 170200Z VRB01KT CAVOK 15/14 Q1014=
201208170130 METAR LPPR 170130Z VRB01KT CAVOK 15/15 Q1015=
201208170100 METAR LPPR 170100Z VRB02KT CAVOK 16/15 Q1015=
201208170030 METAR LPPR 170030Z 11003KT CAVOK 16/15 Q1015=
201208170000 METAR LPPR 170000Z 12003KT CAVOK 16/15 Q1015=
201208162330 METAR LPPR 162330Z 00000KT CAVOK 16/15 Q1015=
201208162300 METAR LPPR 162300Z 04001KT CAVOK 16/15 Q1016=
201208162230 METAR LPPR 162230Z 00000KT CAVOK 16/15 Q1016=
201208162200 METAR LPPR 162200Z 00000KT CAVOK 17/16 Q1016=
201208162130 METAR LPPR 162130Z 00000KT CAVOK 17/16 Q1016=
201208162100 METAR LPPR 162100Z 00000KT CAVOK 17/16 Q1016=
201208162030 METAR LPPR 162030Z VRB01KT CAVOK 18/16 Q1015=
201208162000 METAR LPPR 162000Z 23002KT CAVOK 18/16 Q1015=
201208161930 METAR LPPR 161930Z 23003KT 200V260 CAVOK 19/16 Q1015=
201208161900 METAR LPPR 161900Z 27003KT 240V300 CAVOK 20/16 Q1015=
201208161830 METAR LPPR 161830Z 23003KT 160V290 CAVOK 21/16 Q1015=
201208161800 METAR LPPR 161800Z 26004KT 200V300 CAVOK 21/15 Q1015=
201208161730 METAR LPPR 161730Z 24004KT 150V300 CAVOK 21/15 Q1015=
201208161700 METAR LPPR 161700Z 24005KT 210V290 CAVOK 22/16 Q1016=
201208161630 METAR LPPR 161630Z 26006KT 220V300 CAVOK 22/16 Q1016=
201208161600 METAR LPPR 161600Z 24007KT 200V260 CAVOK 22/14 Q1016=
201208161530 METAR LPPR 161530Z 22006KT 170V300 CAVOK 22/15 Q1016=
201208161500 METAR LPPR 161500Z 23008KT 190V280 CAVOK 22/13 Q1017=
201208161430 METAR LPPR 161430Z 23007KT 210V270 CAVOK 23/14 Q1017=
201208161400 METAR LPPR 161400Z 23007KT 190V280 CAVOK 22/13 Q1017=
201208161330 METAR LPPR 161330Z 23008KT 190V260 CAVOK 22/13 Q1017=
201208161300 METAR LPPR 161300Z 24009KT 210V270 CAVOK 22/14 Q1017=
201208161230 METAR LPPR 161230Z 22008KT 180V270 CAVOK 22/14 Q1017=
201208161200 METAR LPPR 161200Z 21008KT 180V240 CAVOK 22/13 Q1017=
201208161130 METAR LPPR 161130Z 20009KT 170V240 CAVOK 21/14 Q1017=
201208161100 METAR LPPR 161100Z 19009KT 160V220 9999 FEW021 22/14 Q1017=
201208161030 METAR LPPR 161030Z 21009KT 9999 FEW021 21/15 Q1017=
201208161000 METAR LPPR 161000Z 19009KT 9999 FEW021 21/15 Q1017=
201208160930 METAR LPPR 160930Z 18009KT 9999 FEW021 21/15 Q1017=
201208160900 METAR LPPR 160900Z 17006KT 130V210 CAVOK 20/14 Q1017=
201208160830 METAR LPPR 160830Z 14007KT CAVOK 19/14 Q1017=
201208160800 METAR LPPR 160800Z 13008KT 090V150 CAVOK 18/14 Q1017=
201208160730 METAR LPPR 160730Z 12007KT 080V140 CAVOK 17/13 Q1017=
201208160700 METAR LPPR 160700Z 12008KT CAVOK 16/13 Q1017=
201208160630 METAR LPPR 160630Z 12007KT CAVOK 15/13 Q1016=
201208160600 METAR LPPR 160600Z 11008KT 090V150 CAVOK 15/13 Q1016=
201208160530 METAR LPPR 160530Z 12007KT CAVOK 15/13 Q1016=
201208160500 METAR LPPR 160500Z 12007KT CAVOK 15/13 Q1016=
201208160430 METAR LPPR 160430Z 12007KT 9999 FEW020 15/13 Q1016=
201208160400 METAR LPPR 160400Z 12006KT 9999 FEW020 14/13 Q1016=
201208160330 METAR LPPR 160330Z 12007KT CAVOK 15/13 Q1016=
201208160300 METAR LPPR 160300Z 12007KT CAVOK 16/13 Q1016=
201208160230 METAR LPPR 160230Z 11007KT CAVOK 15/14 Q1016=
201208160200 METAR LPPR 160200Z 12006KT CAVOK 15/13 Q1017=
201208160130 METAR LPPR 160130Z 12004KT CAVOK 16/14 Q1017=
201208160100 METAR LPPR 160100Z 12005KT CAVOK 16/14 Q1017=
201208160030 METAR LPPR 160030Z 12005KT CAVOK 16/14 Q1017=
201208160000 METAR LPPR 160000Z 12004KT CAVOK 16/14 Q1017=
201208152330 METAR LPPR 152330Z 13003KT 110V180 CAVOK 17/14 Q1017=
201208152300 METAR LPPR 152300Z 13003KT 090V160 CAVOK 16/14 Q1017=
201208152230 METAR LPPR 152230Z 18003KT CAVOK 17/14 Q1017=
201208152200 METAR LPPR 152200Z 16004KT CAVOK 17/15 Q1017=
201208152130 METAR LPPR 152130Z 17005KT CAVOK 17/14 Q1017=
201208152100 METAR LPPR 152100Z 16005KT CAVOK 17/14 Q1017=
201208152030 METAR LPPR 152030Z 19003KT CAVOK 18/15 Q1017=
201208152000 METAR LPPR 152000Z 19004KT CAVOK 18/15 Q1017=
201208151930 METAR LPPR 151930Z 21004KT CAVOK 19/15 Q1017=
201208151900 METAR LPPR 151900Z 21005KT 190V260 9999 FEW020 20/14 Q1017=
201208151830 METAR LPPR 151830Z 22005KT 190V260 9999 FEW020 20/14 Q1017=
201208151800 METAR LPPR 151800Z 22006KT 190V250 9999 FEW020 20/14 Q1016=
201208151730 METAR LPPR 151730Z 22008KT 160V260 9999 FEW025 21/14 Q1016=
201208151700 METAR LPPR 151700Z 23007KT 190V300 9999 FEW025 21/14 Q1016=
201208151630 METAR LPPR 151630Z 22008KT 190V260 9999 FEW025 21/13 Q1016=
201208151600 METAR LPPR 151600Z 20010KT 170V250 9999 FEW030 22/13 Q1016=
201208151530 METAR LPPR 151530Z 19012KT 170V230 9999 FEW030 22/13 Q1017=
201208151500 METAR LPPR 151500Z 20010KT 170V230 9999 FEW030 22/14 Q1016=
201208151430 METAR LPPR 151430Z 20012KT 9999 SCT030 22/13 Q1016=
201208151400 METAR LPPR 151400Z 20012KT 9999 FEW030 22/13 Q1016=
201208151330 METAR LPPR 151330Z 20012KT 9999 FEW030 22/13 Q1016=
201208151300 METAR LPPR 151300Z 21011KT 180V240 9999 FEW030 22/14 Q1016=
201208151230 METAR LPPR 151230Z 20011KT 180V240 9999 FEW020 22/13 Q1016=
201208151200 METAR LPPR 151200Z 20011KT 170V230 9999 FEW025 21/12 Q1016=
201208151130 METAR LPPR 151130Z 20010KT 170V250 9999 FEW040 21/13 Q1016=
201208151100 METAR LPPR 151100Z 21008KT 170V250 9999 FEW025 21/12 Q1016=
201208151030 METAR LPPR 151030Z 22008KT 170V260 9999 FEW035 21/13 Q1015=
201208151000 METAR LPPR 151000Z 22008KT 190V270 9999 FEW030 21/13 Q1015=
201208150930 METAR LPPR 150930Z 22007KT 180V260 9999 FEW035 20/14 Q1015=
201208150900 METAR LPPR 150900Z 20007KT 170V230 9999 FEW030 20/14 Q1014=
201208150830 METAR LPPR 150830Z 21006KT 180V240 9999 FEW030 20/15 Q1014=
201208150800 METAR LPPR 150800Z 19007KT 9999 FEW035 19/15 Q1013=
201208150730 METAR LPPR 150730Z 18005KT 9999 SCT025 SCT040 17/15 Q1013=
201208150700 METAR LPPR 150700Z 18006KT 9999 FEW025 FEW030CB BKN040 17/15
                        Q1012=
201208150630 METAR LPPR 150630Z 17005KT 9999 FEW022 FEW030CB BKN040 16/14
                        Q1012=
201208150600 METAR LPPR 150600Z 17004KT 9999 FEW020 SCT037 15/13 Q1012=
201208150530 METAR LPPR 150530Z 20003KT 9999 FEW035 15/13 Q1011=
201208150500 METAR LPPR 150500Z 22003KT 190V260 9999 FEW017 SCT033 16/14
                        Q1011=
201208150430 METAR LPPR 150430Z VRB02KT 9999 FEW017 BKN040 17/13 Q1011=
201208150400 METAR LPPR 150400Z 28003KT 220V330 9999 FEW017 SCT030 BKN040
                        18/14 Q1011=
201208150330 METAR LPPR 150330Z 21005KT 180V270 9999 FEW013 SCT025 BKN033
                        18/16 Q1010=
201208150300 METAR LPPR 150300Z 20008KT 9000 -SHRA SCT014 BKN025 18/17
                        Q1010=
201208150230 METAR LPPR 150230Z 20007KT 9999 FEW009 SCT017 BKN030 18/16
                        Q1010=
201208150200 METAR LPPR 150200Z 20009KT 9999 BKN013 BKN025 17/16 Q1010=
201208150130 METAR LPPR 150130Z 19009KT 9999 FEW009 SCT015 BKN020 18/16
                        Q1009=
201208150100 METAR LPPR 150100Z 19008KT 9999 FEW009 SCT015 BKN020 17/16
                        Q1009=
201208150030 METAR LPPR 150030Z 19009KT 9999 -SHRA FEW015 SCT035 BKN045
                        17/16 Q1009=
201208150000 METAR LPPR 150000Z 21006KT 180V240 8000 -SHRA FEW007 SCT015
                        BKN035 17/16 Q1009=
201208142330 METAR LPPR 142330Z 21006KT 170V260 8000 -RA FEW002 SCT009
                        BKN025 17/16 Q1008 RERA=
201208142300 METAR LPPR 142300Z 19019KT 3000 +RA SCT003 BKN005 20/19 Q1007=
201208142230 METAR LPPR 142230Z 18020G30KT 7000 -RA BKN005 BKN013 20/19
                        Q1007=
201208142200 METAR LPPR 142200Z 19020KT 9999 BKN005 BKN015 20/19 Q1008=
201208142130 METAR LPPR 142130Z 18020KT 9999 SCT004 BKN005 20/19 Q1008=
201208142100 METAR LPPR 142100Z 18020KT 9999 SCT004 BKN006 20/19 Q1008=
201208142030 METAR LPPR 142030Z 18021KT 9999 SCT004 BKN006 20/19 Q1008=
201208142000 METAR LPPR 142000Z 19019KT 9999 SCT004 BKN006 20/19 Q1008=
201208141930 METAR LPPR 141930Z 19019G30KT 4000 -RA BR BKN005 BKN013 20/19
                        Q1007=
201208141900 METAR LPPR 141900Z 19018KT 7000 -SHRA BKN007 BKN023 20/19
                        Q1007=
201208141830 METAR LPPR 141830Z 18017KT 9000 -SHRA SCT012 BKN033 20/18
                        Q1007 RERA=
201208141800 METAR LPPR 141800Z 18015KT 4000 SHRA BR FEW012 BKN040 20/18
                        Q1008=
201208141730 METAR LPPR 141730Z 18015KT 9999 FEW013 BKN043 20/18 Q1008=
201208141700 METAR LPPR 141700Z 17012KT 9000 -SHRA FEW005 SCT025 BKN033
                        20/19 Q1008=
201208141630 METAR LPPR 141630Z 18012KT 4000 -RA BR BKN004 OVC030 19/19
                        Q1008 RERA=
201208141600 METAR LPPR 141600Z 18016KT 2500 R17/1300VP2000 RA BR SCT005
                        BKN007 BKN027 19/19 Q1009=
201208141530 METAR LPPR 141530Z 19011KT 4000 RA SCT006 BKN008 BKN035 19/18
                        Q1009=
201208141500 METAR LPPR 141500Z 18013KT 8000 -RA SCT005 BKN030 19/18 Q1009=
201208141430 METAR LPPR 141430Z 19010KT 4000 -RA BR SCT004 BKN006 19/18
                        Q1010=
201208141400 METAR LPPR 141400Z 19012KT 170V230 8000 -RA FEW004 SCT008
                        BKN030 19/18 Q1010=
201208141330 METAR LPPR 141330Z 20010KT 7000 -RA FEW004 SCT008 BKN030
                        20/18 Q1010=
201208141300 METAR LPPR 141300Z 19011KT 8000 -RA FEW015 BKN030 20/18 Q1011=
201208141230 METAR LPPR 141230Z 18013KT 9999 FEW015 SCT030 21/18 Q1010=
201208141200 METAR LPPR 141200Z 18012KT 9999 FEW015 BKN030 20/18 Q1011=
201208141130 METAR LPPR 141130Z 19011KT 9999 FEW020 BKN030 20/18 Q1011=
201208141100 METAR LPPR 141100Z 18014KT 9999 FEW015 BKN025 20/18 Q1011=
201208141030 METAR LPPR 141030Z 18016KT 9000 -RA FEW009 BKN025 20/18 Q1011=
201208141000 METAR LPPR 141000Z 18018KT 7000 -RA FEW004 SCT007 BKN030
                        20/19 Q1011=
201208140930 METAR LPPR 140930Z 19015KT 6000 -RA FEW004 BKN007 20/19 Q1011=
201208140900 METAR LPPR 140900Z 18014KT 6000 -RA FEW003 BKN009 19/19 Q1012=
201208140830 METAR LPPR 140830Z 20009KT 1500 R17/1400VP2000 RA BR BKN002
                        OVC009 19/19 Q1012=
201208140800 METAR LPPR 140800Z 20011KT 2000 -RA BR SCT002 BKN009 19/19
                        Q1011=
201208140730 METAR LPPR 140730Z 22008KT 190V250 2000 RA BR SCT002 BKN007
                        19/18 Q1011=
201208140700 METAR LPPR 140700Z 20010KT 2000 RA BR OVC002 19/18 Q1011=
201208140630 METAR LPPR 140630Z 20007KT 180V240 2000 -RADZ BR OVC002 19/18
                        Q1011=
201208140600 METAR LPPR 140600Z 20010KT 3000 -DZ BR OVC002 19/19 Q1011=
201208140530 METAR LPPR 140530Z 20010KT 170V230 4000 -RADZ BR OVC003 19/18
                        Q1011=
201208140500 METAR LPPR 140500Z 19012KT 4500 -RADZ OVC003 19/19 Q1011=
201208140430 METAR LPPR 140430Z 19014KT 7000 -DZ OVC004 19/19 Q1011=
201208140400 METAR LPPR 140400Z 19013KT 4000 -DZ BR OVC004 19/19 Q1011=
201208140330 METAR LPPR 140330Z 18015KT 6000 -DZ OVC004 19/18 Q1011=
201208140300 METAR LPPR 140300Z 18015KT 6000 -DZ OVC004 19/19 Q1011=
201208140230 METAR LPPR 140230Z 18013KT 7000 -DZ BKN005 OVC012 19/18 Q1012=
201208140200 METAR LPPR 140200Z 18015KT 9000 -DZ BKN005 OVC010 19/18 Q1012=
201208140130 METAR LPPR 140130Z 18013KT 9000 -DZ BKN004 OVC010 19/19 Q1012=
201208140100 METAR LPPR 140100Z 18013KT 6000 -DZ BKN005 OVC011 19/19 Q1012=
201208140030 METAR LPPR 140030Z 18013KT 4500 -DZ BR BKN005 OVC012 19/18
                        Q1013=
201208140000 METAR LPPR 140000Z 18013KT 4500 -DZ BR BKN007 BKN014 20/19
                        Q1013=
201208132330 METAR LPPR 132330Z 18013KT 9999 SCT007 BKN017 BKN030 20/19
                        Q1013=
201208132300 METAR LPPR 132300Z 18012KT 9999 SCT007 BKN020 BKN030 20/18
                        Q1013=
201208132230 METAR LPPR 132230Z 18012KT 9999 SCT007 BKN028 20/18 Q1014=
201208132200 METAR LPPR 132200Z 19011KT 9999 BKN008 BKN030 20/18 Q1014=
201208132130 METAR LPPR 132130Z 18011KT 9999 SCT009 SCT030 BKN039 20/18
                        Q1014=
201208132100 METAR LPPR 132100Z 19008KT 9999 FEW014 SCT040 20/18 Q1014=
201208132030 METAR LPPR 132030Z 19008KT 9999 FEW008 20/18 Q1014=
201208132000 METAR LPPR 132000Z 19008KT 9999 FEW007 20/18 Q1014=
201208131930 METAR LPPR 131930Z 19010KT 9999 FEW007 20/18 Q1014=
201208131900 METAR LPPR 131900Z 20008KT 9999 FEW009 20/18 Q1014=
201208131830 METAR LPPR 131830Z 20009KT 9999 FEW020 21/17 Q1014=
201208131800 METAR LPPR 131800Z 23008KT 190V260 9999 FEW020 21/17 Q1014=
201208131730 METAR LPPR 131730Z 23007KT 190V260 9999 FEW025 21/18 Q1014=
201208131700 METAR LPPR 131700Z 23010KT 190V250 9999 FEW025 22/18 Q1014=
201208131630 METAR LPPR 131630Z 24009KT 200V270 9999 FEW025 22/17 Q1014=
201208131600 METAR LPPR 131600Z 23008KT 180V260 9999 FEW025 23/17 Q1014=
201208131530 METAR LPPR 131530Z 22008KT 180V260 9999 FEW025 22/17 Q1015=
201208131500 METAR LPPR 131500Z 23009KT 190V270 9999 FEW030 22/17 Q1015=
201208131430 METAR LPPR 131430Z 23010KT 9999 FEW030 23/16 Q1015=
201208131400 METAR LPPR 131400Z 24009KT 210V270 9999 FEW023 23/16 Q1015=
201208131330 METAR LPPR 131330Z 21008KT 180V270 9999 FEW023 23/16 Q1015=
201208131300 METAR LPPR 131300Z 22009KT 180V260 9999 FEW023 23/16 Q1016=
201208131230 METAR LPPR 131230Z 22008KT 170V270 9999 FEW023 23/16 Q1016=
201208131200 METAR LPPR 131200Z 21008KT 170V240 9999 FEW020 SCT040 23/16
                        Q1016=
201208131130 METAR LPPR 131130Z 21008KT 180V240 9999 FEW020 SCT040 22/16
                        Q1016=
201208131100 METAR LPPR 131100Z 23007KT 170V270 9999 FEW017 BKN042 22/16
                        Q1016=
201208131030 METAR LPPR 131030Z 20006KT 170V260 9999 FEW017 BKN042 22/16
                        Q1016=
201208131000 METAR LPPR 131000Z 18007KT 140V210 9999 BKN042 21/16 Q1016=
201208130930 METAR LPPR 130930Z 20006KT 160V230 9999 BKN043 21/16 Q1017=
201208130900 METAR LPPR 130900Z 22005KT 190V250 9999 BKN043 19/16 Q1017=
201208130830 METAR LPPR 130830Z 17005KT 9999 BKN040 20/16 Q1016=
201208130800 METAR LPPR 130800Z 13006KT 9999 BKN040 19/16 Q1016=
201208130730 METAR LPPR 130730Z 13007KT 9999 SCT040 19/16 Q1016=
201208130700 METAR LPPR 130700Z 13006KT 090V160 9999 SCT039 18/15 Q1016=
201208130630 METAR LPPR 130630Z 14005KT 9999 FEW015 BKN037 17/15 Q1016=
201208130600 METAR LPPR 130600Z 13005KT 090V180 9999 FEW015 BKN038 17/15
                        Q1016=
201208130530 METAR LPPR 130530Z 12006KT 9999 FEW015 BKN039 16/14 Q1016=
201208130500 METAR LPPR 130500Z VRB04KT 9999 FEW015 SCT039 16/15 Q1016=
201208130430 METAR LPPR 130430Z VRB02KT 9999 SCT014 SCT040 17/15 Q1016=
201208130400 METAR LPPR 130400Z 13003KT 060V160 9999 FEW012 SCT023 17/15
                        Q1016=
201208130330 METAR LPPR 130330Z 14003KT 120V180 9999 SCT013 BKN022 17/15
                        Q1016=
201208130300 METAR LPPR 130300Z 12004KT 9999 SCT013 SCT039 17/15 Q1016=
201208130230 METAR LPPR 130230Z 12004KT 9999 SCT016 BKN040 17/15 Q1016=
201208130200 METAR LPPR 130200Z 12004KT 9999 SCT013 BKN041 17/16 Q1016=
201208130130 METAR LPPR 130130Z 11002KT 9999 FEW010 SCT014 BKN042 17/16
                        Q1017=
201208130100 METAR LPPR 130100Z 12005KT 9999 FEW010 SCT013 BKN040 17/16
                        Q1016=
201208130030 METAR LPPR 130030Z 02001KT 9999 FEW010 BKN014 BKN040 15/14
                        Q1017=
201208130000 METAR LPPR 130000Z 00000KT 9999 FEW010 15/14 Q1017=
201208122330 METAR LPPR 122330Z 09001KT 9999 FEW010 16/15 Q1017=
201208122300 METAR LPPR 122300Z VRB01KT 9999 FEW015 16/15 Q1017=
201208122230 METAR LPPR 122230Z 00000KT 9999 SCT015 16/15 Q1017=
201208122200 METAR LPPR 122200Z 00000KT 9999 FEW012 16/15 Q1017=
201208122130 METAR LPPR 122130Z VRB02KT 9999 FEW012 16/15 Q1018=
201208122100 METAR LPPR 122100Z 35001KT 9999 FEW012 18/16 Q1017=
201208122030 METAR LPPR 122030Z 32002KT 9999 FEW013 17/15 Q1017=
201208122000 METAR LPPR 122000Z 34003KT 9999 FEW013 19/16 Q1017=
201208121930 METAR LPPR 121930Z 30003KT 260V360 9999 FEW013 20/16 Q1017=
201208121900 METAR LPPR 121900Z 29004KT 260V010 9999 FEW014 20/17 Q1017=
201208121830 METAR LPPR 121830Z 29004KT 250V340 9999 FEW014 20/17 Q1017=
201208121800 METAR LPPR 121800Z 29005KT 250V320 9999 FEW014 20/17 Q1017=
201208121730 METAR LPPR 121730Z 29004KT 250V340 9999 FEW014 20/17 Q1018=
201208121700 METAR LPPR 121700Z 29006KT 250V340 9999 FEW014 21/17 Q1018=
201208121630 METAR LPPR 121630Z 30006KT 260V340 9999 FEW015 20/17 Q1018=
201208121600 METAR LPPR 121600Z 29005KT 230V340 9999 FEW015 21/17 Q1018=
201208121530 METAR LPPR 121530Z 29006KT 260V320 9999 FEW014 21/17 Q1018=
201208121500 METAR LPPR 121500Z 29006KT 260V320 9999 FEW014 21/17 Q1018=
201208121430 METAR LPPR 121430Z 28008KT 250V320 9999 FEW014 21/17 Q1019=
201208121400 METAR LPPR 121400Z 29008KT 230V320 9999 FEW015 22/16 Q1019=
201208121330 METAR LPPR 121330Z 30007KT 270V340 9999 FEW015 22/17 Q1019=
201208121300 METAR LPPR 121300Z 29007KT 250V330 9999 FEW015 21/16 Q1019=
201208121230 METAR LPPR 121230Z 29006KT 250V330 9999 FEW014 22/16 Q1019=
201208121200 METAR LPPR 121200Z 29007KT 260V320 9999 FEW012 21/17 Q1019=
201208121130 METAR LPPR 121130Z 29006KT 230V330 9999 FEW016 21/16 Q1019=
201208121100 METAR LPPR 121100Z 29005KT 230V320 9999 FEW016 22/17 Q1019=
201208121030 METAR LPPR 121030Z 29005KT 210V320 9999 SCT018 21/17 Q1019=
201208121000 METAR LPPR 121000Z VRB04KT 9999 FEW013 BKN018 21/17 Q1019=
201208120930 METAR LPPR 120930Z 34004KT 260V030 9999 FEW007 SCT013 20/17
                        Q1019=
201208120900 METAR LPPR 120900Z VRB03KT 9999 FEW003 SCT007 20/17 Q1019=
201208120830 METAR LPPR 120830Z VRB02KT 9999 SCT002 BKN005 19/18 Q1019=
201208120800 METAR LPPR 120800Z VRB04KT 9999 SCT002 BKN004 18/17 Q1019=
201208120730 METAR LPPR 120730Z 05004KT 4000 BR VCFG SCT002 BKN004 17/17
                        Q1019=
201208120700 METAR LPPR 120700Z VRB01KT 4000 BR VCFG SCT003 BKN005 17/16
                        Q1018=
201208120630 METAR LPPR 120630Z 10004KT 070V130 8000 FEW004 SCT035 16/16
                        Q1018=
201208120600 METAR LPPR 120600Z VRB01KT 6000 FEW002 16/16 Q1018=
201208120530 METAR LPPR 120530Z VRB01KT 8000 FEW002 16/15 Q1018=
201208120500 METAR LPPR 120500Z 02002KT 2000 BR VCFG FEW001 SCT003 15/15
                        Q1018=
201208120430 METAR LPPR 120430Z 36001KT 0600 0500N R17/0600 FG FEW001
                        SCT003 16/15 Q1018=
201208120400 METAR LPPR 120400Z VRB02KT 0350 0300N R17/0650 FG VV002 16/16
                        Q1018=
201208120330 METAR LPPR 120330Z 00000KT 0400 0300N R17/0500D FG VV002
                        16/16 Q1019=
201208120300 METAR LPPR 120300Z 34002KT 0550 0500N R17/0550 FG FEW001
                        SCT002 17/17 Q1019=
201208120230 METAR LPPR 120230Z VRB02KT 1000 0650N R17/0750 PRFG BR SCT001
                        BKN002 17/17 Q1019=
201208120200 METAR LPPR 120200Z 01003KT 0700 R17/0650 FG SCT001 BKN002
                        17/17 Q1019=
201208120130 METAR LPPR 120130Z 35003KT 5000 BR SCT002 BKN003 17/16 Q1019=
201208120100 METAR LPPR 120100Z 36002KT 9000 SCT003 BKN004 17/16 Q1019=
201208120030 METAR LPPR 120030Z 00000KT 9000 SCT005 BKN018 17/16 Q1020=
201208120000 METAR LPPR 120000Z 36002KT 8000 SCT006 17/16 Q1020=
201208112330 METAR LPPR 112330Z 35002KT 9999 FEW008 17/17 Q1020=
201208112300 METAR LPPR 112300Z 35002KT 9999 SCT010 17/17 Q1020=
201208112230 METAR LPPR 112230Z 34003KT 9999 SCT010 18/17 Q1020=
201208112200 METAR LPPR 112200Z 35004KT 9999 FEW012 18/17 Q1020=
201208112130 METAR LPPR 112130Z 32004KT 9999 FEW015 18/18 Q1020=
201208112100 METAR LPPR 112100Z VRB02KT 9999 FEW015 19/18 Q1020=
201208112030 METAR LPPR 112030Z 30003KT 260V340 9999 FEW009 19/18 Q1020=
201208112000 METAR LPPR 112000Z 33004KT 9999 FEW009 19/18 Q1020=
201208111930 METAR LPPR 111930Z 34004KT 9999 FEW009 20/18 Q1020=
201208111900 METAR LPPR 111900Z VRB02KT 9999 FEW007 20/18 Q1020=
201208111830 METAR LPPR 111830Z 30005KT 270V340 9999 FEW007 20/19 Q1020=
201208111800 METAR LPPR 111800Z 29005KT 260V330 9999 FEW008 21/19 Q1020=
201208111730 METAR LPPR 111730Z 30005KT 270V340 9999 FEW009 21/19 Q1020=
201208111700 METAR LPPR 111700Z 29005KT 260V320 9999 FEW008 21/19 Q1020=
201208111630 METAR LPPR 111630Z 29005KT 250V320 9999 FEW009 21/18 Q1020=
201208111600 METAR LPPR 111600Z 29006KT 240V330 9999 FEW009 SCT011 22/19
                        Q1020=
201208111530 METAR LPPR 111530Z 27006KT 230V310 9999 FEW008 22/18 Q1020=
201208111500 METAR LPPR 111500Z 29006KT 240V330 9999 FEW008 21/18 Q1021=
201208111430 METAR LPPR 111430Z 27006KT 230V330 9999 FEW012 FEW015TCU
                        21/18 Q1021=
201208111400 METAR LPPR 111400Z 26006KT 220V320 9999 FEW015 22/18 Q1021=
201208111330 METAR LPPR 111330Z 25008KT 220V300 9999 FEW015 23/18 Q1021=
201208111300 METAR LPPR 111300Z 26006KT 210V300 9999 FEW015 23/18 Q1021=
201208111230 METAR LPPR 111230Z 24006KT 200V300 9999 FEW013 23/18 Q1021=
201208111200 METAR LPPR 111200Z 27005KT 230V300 9999 FEW011 22/18 Q1021=
201208111130 METAR LPPR 111130Z 25006KT 210V310 9999 FEW010 22/18 Q1021=
201208111100 METAR LPPR 111100Z VRB05KT 9999 FEW018 22/18 Q1021=
201208111030 METAR LPPR 111030Z 27005KT 200V300 9999 FEW018 22/18 Q1021=
201208111000 METAR LPPR 111000Z 24005KT 200V290 9999 SCT018 22/17 Q1021=
201208110930 METAR LPPR 110930Z VRB03KT 9999 FEW017 22/17 Q1021=
201208110900 METAR LPPR 110900Z VRB02KT 9999 FEW015 SCT030 21/16 Q1022=
201208110830 METAR LPPR 110830Z VRB01KT 9999 FEW010 BKN014 BKN028 20/16
                        Q1022=
201208110800 METAR LPPR 110800Z VRB02KT 9999 SCT010 BKN030 20/14 Q1021=
201208110730 METAR LPPR 110730Z 15004KT 9999 FEW011 SCT029 20/14 Q1021=
201208110700 METAR LPPR 110700Z 10003KT 070V150 9999 FEW011 BKN030 18/14
                        Q1021=
201208110630 METAR LPPR 110630Z 14004KT 100V180 9999 SCT011 BKN030 17/14
                        Q1021=
201208110600 METAR LPPR 110600Z 00000KT 9999 SCT012 BKN030 17/15 Q1021=
201208110530 METAR LPPR 110530Z VRB02KT 9999 FEW009 SCT015 BKN029 17/14
                        Q1020=
201208110500 METAR LPPR 110500Z 04002KT 9999 FEW012 BKN020 17/14 Q1020=
201208110430 METAR LPPR 110430Z VRB02KT 9999 BKN020 17/14 Q1021=
201208110400 METAR LPPR 110400Z 11005KT 9999 BKN020 17/14 Q1020=
201208110330 METAR LPPR 110330Z 11007KT 9999 BKN019 16/14 Q1020=
201208110300 METAR LPPR 110300Z 11006KT 8000 BKN020 17/15 Q1020=
201208110230 METAR LPPR 110230Z 12005KT 8000 SCT020 15/15 Q1021=
201208110200 METAR LPPR 110200Z VRB02KT 7000 SCT020 16/15 Q1021=
201208110130 METAR LPPR 110130Z 00000KT 7000 SCT020 15/15 Q1021=
201208110100 METAR LPPR 110100Z 14001KT 4500 BR FEW005 SCT020 15/15 Q1021=
201208110030 METAR LPPR 110030Z VRB02KT 7000 FEW005 15/15 Q1021=
201208110000 METAR LPPR 110000Z 02001KT 5000 2100W BR FEW005 15/15 Q1021=
201208102330 METAR LPPR 102330Z 32001KT 5000 BR FEW005 16/15 Q1022=
201208102300 METAR LPPR 102300Z VRB01KT 5000 BR FEW004 15/14 Q1022=
201208102230 METAR LPPR 102230Z VRB01KT 5000 BR FEW004 16/15 Q1022=
201208102200 METAR LPPR 102200Z 03002KT 6000 SCT003 15/15 Q1021=
201208102130 METAR LPPR 102130Z VRB02KT 4000 BR NSC 17/16 Q1021=
201208102100 METAR LPPR 102100Z 36002KT 3000 BR NSC 16/16 Q1022=
201208102030 METAR LPPR 102030Z 32002KT 6000 NSC 17/16 Q1021=
201208102000 METAR LPPR 102000Z 00000KT 4500 BR NSC 18/17 Q1021=
201208101930 METAR LPPR 101930Z 33004KT 7000 NSC 19/17 Q1021=
201208101900 METAR LPPR 101900Z 31003KT 270V340 8000 NSC 19/17 Q1020=
201208101830 METAR LPPR 101830Z 30004KT 270V340 CAVOK 20/17 Q1020=
201208101800 METAR LPPR 101800Z 29005KT 250V330 CAVOK 21/17 Q1020=
201208101730 METAR LPPR 101730Z 33004KT 280V360 CAVOK 21/14 Q1020=
201208101700 METAR LPPR 101700Z 29005KT 260V330 CAVOK 21/17 Q1020=
201208101630 METAR LPPR 101630Z 30005KT 270V350 CAVOK 21/16 Q1020=
201208101600 METAR LPPR 101600Z 30004KT 240V350 CAVOK 22/16 Q1021=
201208101530 METAR LPPR 101530Z 31004KT 260V020 CAVOK 21/15 Q1020=
201208101500 METAR LPPR 101500Z 29004KT 230V350 9999 FEW006 21/16 Q1021=
201208101430 METAR LPPR 101430Z 34004KT 270V060 9999 FEW006 21/16 Q1020=
201208101400 METAR LPPR 101400Z 30005KT 270V330 9999 FEW005 20/17 Q1021=
201208101330 METAR LPPR 101330Z VRB05KT 9999 FEW005 21/17 Q1021=
201208101300 METAR LPPR 101300Z VRB03KT 9999 FEW005 21/16 Q1020=
201208101230 METAR LPPR 101230Z 25005KT 200V320 9999 FEW015 19/16 Q1020=
201208101200 METAR LPPR 101200Z 28004KT 240V340 9999 FEW015 20/16 Q1020=
201208101130 METAR LPPR 101130Z 22004KT 120V280 9999 FEW015 21/17 Q1020=
201208101100 METAR LPPR 101100Z 23008KT 190V270 9999 FEW006 20/17 Q1020=
201208101030 METAR LPPR 101030Z 23003KT 140V290 9999 FEW004 22/16 Q1019=
201208101000 METAR LPPR 101000Z 20004KT 160V260 9999 FEW003 20/16 Q1020=
201208100930 METAR LPPR 100930Z 23003KT 160V280 6000 VCFG FEW002 18/16
                        Q1020=
201208100900 METAR LPPR 100900Z 22004KT 190V280 1700 1100N R17/0900V1500
                        PRFG SCT002 15/15 Q1020=
201208100830 METAR LPPR 100830Z 25004KT 210V290 0800 R17/0750 FG FEW001
                        SCT003 16/15 Q1020=
201208100800 METAR LPPR 100800Z 22003KT 170V290 6000 FEW020 17/16 Q1019=
201208100730 METAR LPPR 100730Z VRB01KT 4000 BR SCT004 15/15 Q1019=
201208100700 METAR LPPR 100700Z VRB02KT 0400 R17/0275 FG SCT002 14/14
                        Q1018=
201208100630 METAR LPPR 100630Z VRB01KT 0200 R17/0300 FG SCT002 14/14
                        Q1019=
201208100600 METAR LPPR 100600Z 23003KT 190V280 0300 R17/0375 FG SCT002
                        14/14 Q1018=
201208100530 METAR LPPR 100530Z VRB01KT 5000 BR NSC 14/13 Q1018=
201208100500 METAR LPPR 100500Z VRB01KT CAVOK 14/13 Q1017=
201208100430 METAR LPPR 100430Z 13003KT 9000 NSC 14/14 Q1017=
201208100400 METAR LPPR 100400Z 00000KT 8000 FEW009 14/14 Q1017=
201208100330 METAR LPPR 100330Z 00000KT 8000 FEW004 14/14 Q1017=
201208100300 METAR LPPR 100300Z VRB02KT 8000 FEW009 15/15 Q1017=
201208100230 METAR LPPR 100230Z VRB01KT 8000 FEW009 15/14 Q1017=
201208100200 METAR LPPR 100200Z 02002KT 8000 FEW009 14/13 Q1017=
201208100130 METAR LPPR 100130Z 36001KT 8000 FEW007 14/14 Q1018=
201208100100 METAR LPPR 100100Z 36002KT 8000 FEW007 14/14 Q1018=
201208100030 METAR LPPR 100030Z 35002KT 8000 FEW007 14/14 Q1018=
201208100000 METAR LPPR 100000Z 21001KT 8000 FEW007 15/14 Q1018=
201208092330 METAR LPPR 092330Z 00000KT 7000 NSC 15/15 Q1018=
201208092300 METAR LPPR 092300Z 00000KT 8000 NSC 15/15 Q1018=
201208092230 METAR LPPR 092230Z 00000KT 8000 NSC 16/15 Q1018=
201208092200 METAR LPPR 092200Z VRB02KT 7000 NSC 16/15 Q1018=
201208092130 METAR LPPR 092130Z VRB02KT 9000 NSC 17/16 Q1018=
201208092100 METAR LPPR 092100Z 30001KT 9000 NSC 16/15 Q1018=
201208092030 METAR LPPR 092030Z 34002KT CAVOK 17/15 Q1018=
201208092000 METAR LPPR 092000Z VRB02KT 9000 NSC 18/16 Q1017=
201208091930 METAR LPPR 091930Z VRB02KT CAVOK 20/16 Q1017=
201208091900 METAR LPPR 091900Z 27003KT 240V340 CAVOK 22/17 Q1017=
201208091830 METAR LPPR 091830Z 27003KT CAVOK 23/17 Q1017=
201208091800 METAR LPPR 091800Z 28003KT 250V310 CAVOK 23/17 Q1017=
201208091730 METAR LPPR 091730Z 28004KT 240V320 CAVOK 23/17 Q1017=
201208091700 METAR LPPR 091700Z 28003KT CAVOK 22/17 Q1017=
201208091630 METAR LPPR 091630Z 30005KT 250V340 9999 FEW007 22/15 Q1017=
201208091600 METAR LPPR 091600Z 29005KT 250V320 9999 FEW007 22/16 Q1018=
201208091530 METAR LPPR 091530Z 29005KT 250V330 9999 FEW007 21/16 Q1018=
201208091500 METAR LPPR 091500Z 29006KT 270V330 9999 FEW007 22/16 Q1018=
201208091430 METAR LPPR 091430Z 29006KT 260V320 CAVOK 24/16 Q1018=
201208091400 METAR LPPR 091400Z 29005KT 240V320 CAVOK 23/16 Q1018=
201208091330 METAR LPPR 091330Z 25006KT 220V310 CAVOK 24/15 Q1018=
201208091300 METAR LPPR 091300Z 27004KT 180V350 CAVOK 22/14 Q1018=
201208091230 METAR LPPR 091230Z 26005KT 220V300 CAVOK 23/16 Q1018=
201208091200 METAR LPPR 091200Z 24005KT 190V290 CAVOK 23/13 Q1018=
201208091130 METAR LPPR 091130Z 26005KT 220V300 CAVOK 23/16 Q1018=
201208091100 METAR LPPR 091100Z 25005KT 220V290 CAVOK 24/18 Q1018=
201208091030 METAR LPPR 091030Z 24004KT 200V260 8000 FEW004 23/18 Q1018=
201208091000 METAR LPPR 091000Z 24004KT 220V300 8000 FEW004 23/18 Q1018=
201208090930 METAR LPPR 090930Z 29004KT 260V320 8000 FEW004 21/18 Q1018=
201208090900 METAR LPPR 090900Z VRB02KT 8000 FEW003 20/18 Q1019=
201208090830 METAR LPPR 090830Z VRB02KT 6000 FEW002 17/17 Q1018=
201208090800 METAR LPPR 090800Z VRB01KT 2500 BR SCT002 15/15 Q1019=
201208090730 METAR LPPR 090730Z 35003KT 300V030 2000 BR SCT002 14/14 Q1018=
201208090700 METAR LPPR 090700Z VRB02KT 0600 R17/0750 FG VV001 14/14 Q1018=
201208090630 METAR LPPR 090630Z VRB02KT 0300 R17/0350 FG VV002 14/14 Q1018=
201208090600 METAR LPPR 090600Z VRB01KT 0200 R17/0275N FG VV001 14/14
                        Q1018=
201208090530 METAR LPPR 090530Z 29003KT 230V340 0350 R17/0400V0550 FG
                        VV002 14/14 Q1018=
201208090500 METAR LPPR 090500Z VRB02KT 0600 R17/0600V1200U FG VV001 14/13
                        Q1017=
201208090430 METAR LPPR 090430Z 34002KT 2400 0300N R17/0375 BCFG SCT001
                        14/14 Q1017=
201208090400 METAR LPPR 090400Z 25001KT 4000 BR SCT001 14/14 Q1017=
201208090330 METAR LPPR 090330Z 11001KT 2000 R17/0450V0750 BCFG BKN003
                        15/15 Q1017=
201208090300 METAR LPPR 090300Z VRB01KT 0600 R17/0650 FG VV001 15/15 Q1017=
201208090230 METAR LPPR 090230Z 01003KT 340V040 0350 R17/0400N FG VV001
                        15/15 Q1017=
201208090200 METAR LPPR 090200Z 33003KT 0350 R17/0400N FG VV001 16/15
                        Q1017=
201208090130 METAR LPPR 090130Z 31002KT 0300 R17/0400N FG VV001 16/15
                        Q1017=
201208090100 METAR LPPR 090100Z 31003KT 3500 R17/1200VP2000 BR FEW001
                        SCT003 16/15 Q1017=
201208090030 METAR LPPR 090030Z VRB02KT 4500 BR FEW001 SCT002 16/16 Q1017=
201208090000 METAR LPPR 090000Z 01003KT 4500 BR SCT001 SCT003 16/15 Q1017=
201208082330 METAR LPPR 082330Z 03004KT 6000 BKN002 17/16 Q1017=
201208082300 METAR LPPR 082300Z 36007KT 330V030 4500 BR BKN002 17/16 Q1018=
201208082230 METAR LPPR 082230Z 02007KT 2500 BR SCT001 BKN002 17/17 Q1018=
201208082200 METAR LPPR 082200Z 35005KT 3500 BR SCT001 SCT002 17/16 Q1018=
201208082130 METAR LPPR 082130Z 33004KT 6000 FEW002 17/16 Q1018=
201208082100 METAR LPPR 082100Z 34004KT 6000 FEW002 17/16 Q1018=
201208082030 METAR LPPR 082030Z 34004KT 6000 SCT003 17/16 Q1018=
201208082000 METAR LPPR 082000Z 31007KT 4000 BR FEW004 18/17 Q1018=
201208081930 METAR LPPR 081930Z 33005KT 6000 NSC 19/17 Q1017=
201208081900 METAR LPPR 081900Z 32004KT 290V360 7000 NSC 19/17 Q1017=
201208081830 METAR LPPR 081830Z 29005KT CAVOK 20/17 Q1017=
201208081800 METAR LPPR 081800Z 30004KT 270V340 CAVOK 21/17 Q1017=
201208081730 METAR LPPR 081730Z 32004KT 280V360 CAVOK 21/17 Q1017=
201208081700 METAR LPPR 081700Z 31005KT 280V340 CAVOK 21/17 Q1017=
201208081630 METAR LPPR 081630Z 33008KT 280V020 9999 FEW009 21/17 Q1017=
201208081600 METAR LPPR 081600Z 32006KT 270V360 9999 FEW008 20/16 Q1017=
201208081530 METAR LPPR 081530Z 31007KT 270V350 9999 FEW007 20/16 Q1017=
201208081500 METAR LPPR 081500Z 29006KT 250V340 9999 FEW007 20/16 Q1017=
201208081430 METAR LPPR 081430Z 32006KT 250V360 9999 BKN005 19/16 Q1018=
201208081400 METAR LPPR 081400Z 29007KT 240V340 9000 SCT003 BKN006 18/16
                        Q1018=
201208081330 METAR LPPR 081330Z 27006KT 220V340 9000 BKN005 18/16 Q1018=
201208081300 METAR LPPR 081300Z VRB05KT 9999 SCT004 19/16 Q1018=
201208081230 METAR LPPR 081230Z 25006KT 210V300 9999 SCT004 19/17 Q1018=
201208081200 METAR LPPR 081200Z 23006KT 180V280 9999 SCT005 20/17 Q1018=
201208081130 METAR LPPR 081130Z 22007KT 180V280 9999 FEW006 20/17 Q1018=
201208081100 METAR LPPR 081100Z 20006KT 170V240 9999 FEW009 20/17 Q1018=
201208081030 METAR LPPR 081030Z 21006KT 160V260 9999 FEW009 20/17 Q1018=
201208081000 METAR LPPR 081000Z 21004KT 160V270 CAVOK 21/17 Q1017=
201208080930 METAR LPPR 080930Z 19004KT 150V270 CAVOK 20/16 Q1017=
201208080900 METAR LPPR 080900Z 20005KT 170V260 CAVOK 19/16 Q1017=
201208080830 METAR LPPR 080830Z 20005KT CAVOK 18/16 Q1017=
201208080800 METAR LPPR 080800Z 18007KT 9000 NSC 16/15 Q1017=
201208080730 METAR LPPR 080730Z 21004KT 170V250 6000 FEW003 15/15 Q1017=
201208080700 METAR LPPR 080700Z 17003KT 4000 BR FEW002 15/14 Q1017=
201208080630 METAR LPPR 080630Z 20003KT 2500 BR FEW002 14/13 Q1016=
201208080600 METAR LPPR 080600Z 18005KT 6000 FEW007 13/13 Q1016=
201208080530 METAR LPPR 080530Z 17004KT CAVOK 12/12 Q1016=
201208080500 METAR LPPR 080500Z 15004KT 110V210 CAVOK 13/13 Q1016=
201208080430 METAR LPPR 080430Z 23004KT CAVOK 14/13 Q1015=
201208080400 METAR LPPR 080400Z VRB02KT CAVOK 14/14 Q1015=
201208080330 METAR LPPR 080330Z 12001KT CAVOK 12/12 Q1015=
201208080300 METAR LPPR 080300Z VRB01KT CAVOK 13/12 Q1015=
201208080230 METAR LPPR 080230Z 19003KT CAVOK 13/12 Q1016=
201208080200 METAR LPPR 080200Z VRB02KT CAVOK 14/14 Q1016=
201208080130 METAR LPPR 080130Z VRB02KT CAVOK 13/12 Q1016=
201208080100 METAR LPPR 080100Z 00000KT CAVOK 14/13 Q1016=
201208080030 METAR LPPR 080030Z 00000KT CAVOK 14/13 Q1016=
201208080000 METAR LPPR 080000Z 00000KT CAVOK 14/13 Q1016=
201208072330 METAR LPPR 072330Z 00000KT CAVOK 14/14 Q1016=
201208072300 METAR LPPR 072300Z VRB01KT CAVOK 14/13 Q1016=
201208072230 METAR LPPR 072230Z 27002KT CAVOK 15/14 Q1017=
201208072200 METAR LPPR 072200Z 35001KT CAVOK 15/14 Q1017=
201208072130 METAR LPPR 072130Z 00000KT CAVOK 16/14 Q1017=
201208072100 METAR LPPR 072100Z 35002KT CAVOK 16/15 Q1017=
201208072030 METAR LPPR 072030Z 33004KT CAVOK 17/15 Q1017=
201208072000 METAR LPPR 072000Z 34004KT CAVOK 18/15 Q1017=
201208071930 METAR LPPR 071930Z 33004KT CAVOK 20/15 Q1017=
201208071900 METAR LPPR 071900Z 32004KT 290V350 CAVOK 20/16 Q1017=
201208071830 METAR LPPR 071830Z 31005KT CAVOK 21/15 Q1017=
201208071800 METAR LPPR 071800Z 31006KT CAVOK 22/15 Q1017=
201208071730 METAR LPPR 071730Z 32006KT 290V350 CAVOK 22/15 Q1017=
201208071700 METAR LPPR 071700Z 33006KT 290V350 CAVOK 23/15 Q1017=
201208071630 METAR LPPR 071630Z 31007KT CAVOK 23/15 Q1017=
201208071600 METAR LPPR 071600Z 33008KT 290V350 CAVOK 23/15 Q1017=
201208071530 METAR LPPR 071530Z 32008KT CAVOK 23/16 Q1017=
201208071500 METAR LPPR 071500Z 33010KT CAVOK 23/16 Q1017=
201208071430 METAR LPPR 071430Z 32008KT 280V360 CAVOK 23/15 Q1018=
201208071400 METAR LPPR 071400Z 31008KT CAVOK 23/15 Q1018=
201208071330 METAR LPPR 071330Z 32008KT 290V350 CAVOK 23/15 Q1018=
201208071300 METAR LPPR 071300Z 31008KT CAVOK 23/15 Q1018=
201208071230 METAR LPPR 071230Z 31008KT 270V350 CAVOK 23/15 Q1018=
201208071200 METAR LPPR 071200Z 30006KT 270V340 CAVOK 23/14 Q1018=
201208071130 METAR LPPR 071130Z 31008KT 270V330 CAVOK 22/14 Q1018=
201208071100 METAR LPPR 071100Z 31007KT 270V350 CAVOK 21/14 Q1019=
201208071030 METAR LPPR 071030Z 30005KT CAVOK 20/14 Q1019=
201208071000 METAR LPPR 071000Z 28005KT 250V310 CAVOK 20/14 Q1019=
201208070930 METAR LPPR 070930Z 32004KT 250V050 CAVOK 22/15 Q1019=
201208070900 METAR LPPR 070900Z 35003KT 290V030 CAVOK 20/14 Q1019=
201208070830 METAR LPPR 070830Z 03003KT 330V080 CAVOK 19/14 Q1019=
201208070800 METAR LPPR 070800Z 04003KT 360V080 CAVOK 18/13 Q1019=
201208070730 METAR LPPR 070730Z VRB02KT CAVOK 16/13 Q1019=
201208070700 METAR LPPR 070700Z VRB01KT CAVOK 14/13 Q1019=
201208070630 METAR LPPR 070630Z 05001KT CAVOK 12/11 Q1019=
201208070600 METAR LPPR 070600Z VRB01KT CAVOK 11/10 Q1019=
201208070530 METAR LPPR 070530Z 00000KT CAVOK 11/10 Q1019=
201208070500 METAR LPPR 070500Z 00000KT CAVOK 11/10 Q1019=
201208070430 METAR LPPR 070430Z VRB01KT CAVOK 11/10 Q1019=
201208070400 METAR LPPR 070400Z VRB01KT CAVOK 11/10 Q1019=
201208070330 METAR LPPR 070330Z 00000KT CAVOK 11/11 Q1019=
201208070300 METAR LPPR 070300Z 01002KT CAVOK 11/10 Q1019=
201208070230 METAR LPPR 070230Z 02002KT CAVOK 12/11 Q1019=
201208070200 METAR LPPR 070200Z 03002KT CAVOK 12/11 Q1019=
201208070130 METAR LPPR 070130Z VRB01KT CAVOK 12/11 Q1020=
201208070100 METAR LPPR 070100Z 01002KT CAVOK 13/12 Q1020=
201208070030 METAR LPPR 070030Z 36002KT CAVOK 13/12 Q1020=
201208070000 METAR LPPR 070000Z 34003KT CAVOK 14/12 Q1020=
201208062330 METAR LPPR 062330Z 35003KT CAVOK 15/12 Q1020=
201208062300 METAR LPPR 062300Z 36004KT CAVOK 15/12 Q1020=
201208062230 METAR LPPR 062230Z 35006KT CAVOK 16/13 Q1020=
201208062200 METAR LPPR 062200Z 34008KT CAVOK 16/13 Q1020=
201208062130 METAR LPPR 062130Z 34008KT CAVOK 16/13 Q1020=
201208062100 METAR LPPR 062100Z 34007KT CAVOK 17/12 Q1020=
201208062030 METAR LPPR 062030Z 34008KT CAVOK 17/13 Q1020=
201208062000 METAR LPPR 062000Z 34008KT CAVOK 17/13 Q1020=
201208061930 METAR LPPR 061930Z 34009KT CAVOK 18/12 Q1020=
201208061900 METAR LPPR 061900Z 34010KT CAVOK 19/13 Q1020=
201208061830 METAR LPPR 061830Z 33012KT CAVOK 19/12 Q1020=
201208061800 METAR LPPR 061800Z 33010KT CAVOK 19/13 Q1020=
201208061730 METAR LPPR 061730Z 33011KT CAVOK 19/14 Q1020=
201208061700 METAR LPPR 061700Z 34013KT 300V360 CAVOK 19/14 Q1020=
201208061630 METAR LPPR 061630Z 33015KT CAVOK 20/14 Q1021=
201208061600 METAR LPPR 061600Z 32010KT 290V360 CAVOK 20/13 Q1021=
201208061530 METAR LPPR 061530Z 32012KT 290V350 9999 FEW020 21/13 Q1021=
201208061500 METAR LPPR 061500Z 33011KT 280V360 9999 FEW020 20/14 Q1021=
201208061430 METAR LPPR 061430Z 32011KT 290V350 9999 FEW020 20/14 Q1021=
201208061400 METAR LPPR 061400Z 32009KT 280V350 9999 FEW020 20/14 Q1021=
201208061330 METAR LPPR 061330Z 32010KT 270V360 9999 FEW020 20/13 Q1021=
201208061300 METAR LPPR 061300Z 31008KT 260V350 9999 FEW020 20/14 Q1021=
201208061230 METAR LPPR 061230Z 30008KT 260V360 9999 FEW020 20/14 Q1021=
201208061200 METAR LPPR 061200Z 30009KT 270V340 9999 FEW020 20/13 Q1021=
201208061130 METAR LPPR 061130Z 30006KT 250V340 9999 FEW020 20/13 Q1021=
201208061100 METAR LPPR 061100Z 28006KT 240V310 9999 FEW020 21/14 Q1021=
201208061030 METAR LPPR 061030Z 29005KT 260V330 9999 FEW025 20/14 Q1021=
201208061000 METAR LPPR 061000Z VRB04KT 9999 FEW020 20/14 Q1021=
201208060930 METAR LPPR 060930Z 36004KT 280V050 9999 FEW015 19/13 Q1021=
201208060900 METAR LPPR 060900Z VRB03KT CAVOK 19/13 Q1021=
201208060830 METAR LPPR 060830Z VRB03KT CAVOK 18/14 Q1021=
201208060800 METAR LPPR 060800Z 12004KT 050V200 CAVOK 18/14 Q1021=
201208060730 METAR LPPR 060730Z 10003KT 060V120 9999 FEW020 16/13 Q1020=
201208060700 METAR LPPR 060700Z 10003KT 9999 FEW020 14/14 Q1020=
201208060630 METAR LPPR 060630Z 11005KT 9999 FEW020 12/11 Q1020=
201208060600 METAR LPPR 060600Z 11003KT 060V160 CAVOK 11/11 Q1020=
201208060530 METAR LPPR 060530Z 00000KT CAVOK 10/10 Q1019=
201208060500 METAR LPPR 060500Z VRB01KT 9999 FEW006 11/10 Q1019=
201208060430 METAR LPPR 060430Z 00000KT 9999 FEW007 12/12 Q1019=
201208060400 METAR LPPR 060400Z VRB01KT 9999 FEW006 11/11 Q1019=
201208060330 METAR LPPR 060330Z 00000KT 9999 FEW006 12/11 Q1019=
201208060300 METAR LPPR 060300Z 00000KT 9999 FEW003 11/11 Q1019=
201208060230 METAR LPPR 060230Z 00000KT CAVOK 13/12 Q1019=
201208060200 METAR LPPR 060200Z 00000KT CAVOK 12/11 Q1019=
201208060130 METAR LPPR 060130Z 34002KT CAVOK 13/12 Q1019=
201208060100 METAR LPPR 060100Z 00000KT CAVOK 13/13 Q1019=
201208060030 METAR LPPR 060030Z 00000KT CAVOK 13/12 Q1019=
201208060000 METAR LPPR 060000Z 00000KT CAVOK 14/13 Q1019=
201208052330 METAR LPPR 052330Z 31004KT 280V340 CAVOK 15/14 Q1018=
201208052300 METAR LPPR 052300Z 31006KT CAVOK 16/14 Q1018=
201208052230 METAR LPPR 052230Z VRB01KT CAVOK 14/13 Q1018=
201208052200 METAR LPPR 052200Z 31003KT 9999 FEW020 15/13 Q1018=
201208052130 METAR LPPR 052130Z 32003KT 290V350 9999 FEW025 16/14 Q1018=
201208052100 METAR LPPR 052100Z 33004KT 9999 FEW024 16/14 Q1017=
201208052030 METAR LPPR 052030Z 32006KT 280V340 9999 FEW024 16/14 Q1017=
201208052000 METAR LPPR 052000Z 33005KT 290V360 9999 FEW024 17/14 Q1017=
201208051930 METAR LPPR 051930Z 33006KT 290V360 9999 FEW020 17/14 Q1016=
201208051900 METAR LPPR 051900Z 32009KT 9999 FEW020 18/14 Q1016=
201208051830 METAR LPPR 051830Z 32008KT 290V350 9999 FEW021 19/14 Q1016=
201208051800 METAR LPPR 051800Z 32009KT 280V350 9999 FEW020 19/14 Q1016=
201208051730 METAR LPPR 051730Z 33010KT 300V360 9999 FEW020 19/14 Q1016=
201208051700 METAR LPPR 051700Z 33010KT 270V350 9999 FEW019 19/14 Q1016=
201208051630 METAR LPPR 051630Z 31009KT 270V340 9999 FEW019 20/15 Q1016=
201208051600 METAR LPPR 051600Z 32012KT 290V350 9999 SCT020 20/14 Q1016=
201208051530 METAR LPPR 051530Z 32012KT 9999 SCT016 20/15 Q1016=
201208051500 METAR LPPR 051500Z 32010KT 280V350 9999 SCT015 19/15 Q1016=
201208051430 METAR LPPR 051430Z 28008KT 240V320 9999 SCT014 20/15 Q1016=
201208051400 METAR LPPR 051400Z 30008KT 260V340 9999 SCT016 20/15 Q1016=
201208051330 METAR LPPR 051330Z 29008KT 240V340 9999 FEW017 20/15 Q1016=
201208051300 METAR LPPR 051300Z 29008KT 250V320 9999 FEW020 20/15 Q1016=
201208051230 METAR LPPR 051230Z 30007KT 240V350 9999 FEW030 19/14 Q1016=
201208051200 METAR LPPR 051200Z 28005KT 240V320 9999 FEW030 18/14 Q1016=
201208051130 METAR LPPR 051130Z 29006KT 250V310 9999 FEW030 19/14 Q1015=
201208051100 METAR LPPR 051100Z 29005KT 250V320 9999 FEW030 19/14 Q1015=
201208051030 METAR LPPR 051030Z 29004KT 250V330 9999 SCT030 19/14 Q1015=
201208051000 METAR LPPR 051000Z 28004KT 9999 SCT024 19/14 Q1015=
201208050930 METAR LPPR 050930Z 34007KT 300V020 9999 SCT023 19/13 Q1015=
201208050900 METAR LPPR 050900Z 35007KT 310V020 9999 FEW020 19/13 Q1015=
201208050830 METAR LPPR 050830Z 35006KT 320V030 9999 FEW020 18/14 Q1015=
201208050800 METAR LPPR 050800Z 35005KT CAVOK 17/14 Q1015=
201208050730 METAR LPPR 050730Z 02003KT 350V050 CAVOK 16/14 Q1015=
201208050700 METAR LPPR 050700Z 34003KT 9999 FEW015 15/13 Q1014=
201208050630 METAR LPPR 050630Z 35003KT 9999 FEW015 14/13 Q1014=
201208050600 METAR LPPR 050600Z VRB02KT CAVOK 14/13 Q1014=
201208050530 METAR LPPR 050530Z 35003KT CAVOK 14/13 Q1014=
201208050500 METAR LPPR 050500Z 35002KT CAVOK 14/13 Q1014=
201208050430 METAR LPPR 050430Z 34004KT CAVOK 14/13 Q1014=
201208050400 METAR LPPR 050400Z VRB02KT CAVOK 14/13 Q1014=
201208050330 METAR LPPR 050330Z 32004KT CAVOK 15/13 Q1014=
201208050300 METAR LPPR 050300Z 33004KT CAVOK 15/13 Q1014=
201208050230 METAR LPPR 050230Z 33003KT CAVOK 15/13 Q1014=
201208050200 METAR LPPR 050200Z 32004KT CAVOK 15/13 Q1014=
201208050130 METAR LPPR 050130Z 32004KT CAVOK 15/13 Q1014=
201208050100 METAR LPPR 050100Z 33004KT CAVOK 16/14 Q1014=
201208050030 METAR LPPR 050030Z 34004KT CAVOK 16/14 Q1014=
201208050000 METAR LPPR 050000Z 32005KT CAVOK 16/14 Q1015=
201208042330 METAR LPPR 042330Z 33004KT 9999 FEW024 SCT031 16/14 Q1015=
201208042300 METAR LPPR 042300Z 35005KT 9999 BKN027 17/14 Q1015=
201208042230 METAR LPPR 042230Z 34006KT 9999 BKN030 17/14 Q1015=
201208042200 METAR LPPR 042200Z 33004KT 290V350 9999 FEW006 BKN029 17/15
                        Q1015=
201208042130 METAR LPPR 042130Z 35008KT 9999 SCT005 SCT019 BKN030 17/15
                        Q1015=
201208042100 METAR LPPR 042100Z 33005KT 300V010 9999 SCT003 SCT005 BKN019
                        18/17 Q1015=
201208042030 METAR LPPR 042030Z 28003KT 240V330 9999 FEW005 SCT012 BKN020
                        18/17 Q1015=
201208042000 METAR LPPR 042000Z VRB01KT 9999 FEW008 FEW015TCU SCT020 18/17
                        Q1015=
201208041930 METAR LPPR 041930Z 30004KT 260V350 7000 -DZ SCT015 FEW018TCU
                        SCT027 18/17 Q1015=
201208041900 METAR LPPR 041900Z 33005KT 9999 VCSH FEW015 FEW018TCU SCT025
                        19/16 Q1015=
201208041830 METAR LPPR 041830Z 31004KT 230V350 9999 FEW015 20/16 Q1015=
201208041800 METAR LPPR 041800Z 30005KT 260V320 9999 FEW015 20/16 Q1015=
201208041730 METAR LPPR 041730Z 29005KT 220V320 9999 FEW014 21/16 Q1015=
201208041700 METAR LPPR 041700Z 30004KT 260V350 9999 FEW014 21/16 Q1016=
201208041630 METAR LPPR 041630Z 28005KT 220V320 9999 FEW015 21/16 Q1016=
201208041600 METAR LPPR 041600Z 29005KT 250V340 9999 FEW017 20/16 Q1016=
201208041530 METAR LPPR 041530Z 29006KT 250V320 9999 FEW017 20/16 Q1017=
201208041500 METAR LPPR 041500Z 29007KT 260V320 9999 FEW020 21/16 Q1017=
201208041430 METAR LPPR 041430Z 30007KT 220V010 9999 FEW020 21/16 Q1017=
201208041400 METAR LPPR 041400Z 29006KT 230V340 9999 FEW020 21/16 Q1017=
201208041330 METAR LPPR 041330Z 29007KT 250V340 9999 FEW020 21/16 Q1017=
201208041300 METAR LPPR 041300Z 28008KT 250V310 9999 FEW020 20/15 Q1017=
201208041230 METAR LPPR 041230Z 29006KT 9999 FEW020 22/15 Q1017=
201208041200 METAR LPPR 041200Z 28007KT 250V310 9999 FEW020 21/14 Q1017=
201208041130 METAR LPPR 041130Z 29006KT 230V340 9999 FEW020 21/15 Q1017=
201208041100 METAR LPPR 041100Z VRB05KT 9999 FEW020 21/14 Q1018=
201208041030 METAR LPPR 041030Z 33007KT 290V360 CAVOK 21/15 Q1018=
201208041000 METAR LPPR 041000Z 29003KT CAVOK 19/15 Q1018=
201208040930 METAR LPPR 040930Z 31004KT 270V340 CAVOK 19/15 Q1018=
201208040900 METAR LPPR 040900Z 35004KT 260V030 CAVOK 19/15 Q1018=
201208040830 METAR LPPR 040830Z 01004KT 320V060 CAVOK 18/14 Q1018=
201208040800 METAR LPPR 040800Z VRB02KT CAVOK 18/15 Q1018=
201208040730 METAR LPPR 040730Z VRB02KT CAVOK 16/15 Q1017=
201208040700 METAR LPPR 040700Z 00000KT CAVOK 14/14 Q1017=
201208040630 METAR LPPR 040630Z 00000KT 9999 FEW005 13/12 Q1018=
201208040600 METAR LPPR 040600Z VRB02KT 9999 FEW004 12/12 Q1018=
201208040530 METAR LPPR 040530Z 00000KT 9999 0400N R35/P2000 PRFG FEW003
                        12/11 Q1018=
201208040500 METAR LPPR 040500Z 00000KT 9999 FEW015 12/12 Q1018=
201208040430 METAR LPPR 040430Z 00000KT 9999 FEW003 12/12 Q1018=
201208040400 METAR LPPR 040400Z 00000KT 9999 FEW003 13/12 Q1018=
201208040330 METAR LPPR 040330Z 00000KT 9999 FEW003 13/13 Q1018=
201208040300 METAR LPPR 040300Z 03001KT 9999 FEW003 13/12 Q1018=
201208040230 METAR LPPR 040230Z 00000KT 9999 FEW003 14/13 Q1018=
201208040200 METAR LPPR 040200Z 00000KT CAVOK 13/13 Q1018=
201208040130 METAR LPPR 040130Z 00000KT CAVOK 14/13 Q1019=
201208040100 METAR LPPR 040100Z 36002KT CAVOK 15/13 Q1019=
201208040030 METAR LPPR 040030Z 36002KT CAVOK 15/14 Q1019=
201208040000 METAR LPPR 040000Z 01004KT CAVOK 15/14 Q1019=
201208032330 METAR LPPR 032330Z 34006KT CAVOK 16/15 Q1020=
201208032300 METAR LPPR 032300Z 34005KT CAVOK 16/15 Q1020=
201208032230 METAR LPPR 032230Z 33007KT CAVOK 17/15 Q1020=
201208032200 METAR LPPR 032200Z 33006KT CAVOK 17/15 Q1020=
201208032130 METAR LPPR 032130Z 33007KT CAVOK 17/15 Q1020=
201208032100 METAR LPPR 032100Z 32007KT CAVOK 17/15 Q1020=
201208032030 METAR LPPR 032030Z 32008KT CAVOK 17/15 Q1020=
201208032000 METAR LPPR 032000Z 33008KT 9999 FEW015 17/15 Q1019=
201208031930 METAR LPPR 031930Z 33010KT 9999 FEW015 17/15 Q1019=
201208031900 METAR LPPR 031900Z 33012KT 9999 FEW013 18/16 Q1019=
201208031830 METAR LPPR 031830Z 33013KT 9999 FEW013 19/16 Q1019=
201208031800 METAR LPPR 031800Z 33014KT 9999 FEW014 19/15 Q1019=
201208031730 METAR LPPR 031730Z 33014KT CAVOK 19/15 Q1019=
201208031700 METAR LPPR 031700Z 33014KT 9999 FEW011 20/16 Q1019=
201208031630 METAR LPPR 031630Z 33015KT CAVOK 20/15 Q1019=
201208031600 METAR LPPR 031600Z 33015KT CAVOK 20/15 Q1019=
201208031530 METAR LPPR 031530Z 32015KT 290V350 CAVOK 21/14 Q1019=
201208031500 METAR LPPR 031500Z 33012KT CAVOK 20/15 Q1019=
201208031430 METAR LPPR 031430Z 33015KT CAVOK 21/15 Q1019=
201208031400 METAR LPPR 031400Z 32013KT CAVOK 21/15 Q1019=
201208031330 METAR LPPR 031330Z 33015KT CAVOK 21/15 Q1019=
201208031300 METAR LPPR 031300Z 33014KT 290V360 CAVOK 20/14 Q1019=
201208031230 METAR LPPR 031230Z 33011KT 290V350 CAVOK 21/15 Q1019=
201208031200 METAR LPPR 031200Z 31011KT 270V350 CAVOK 21/14 Q1019=
201208031130 METAR LPPR 031130Z 31009KT 270V350 CAVOK 22/14 Q1019=
201208031100 METAR LPPR 031100Z 32006KT 260V350 CAVOK 21/15 Q1019=
201208031030 METAR LPPR 031030Z 31007KT 270V350 CAVOK 20/14 Q1019=
201208031000 METAR LPPR 031000Z 29005KT 230V320 CAVOK 20/14 Q1019=
201208030930 METAR LPPR 030930Z 29004KT 270V330 CAVOK 20/15 Q1019=
201208030900 METAR LPPR 030900Z 31004KT 260V010 CAVOK 20/15 Q1019=
201208030830 METAR LPPR 030830Z 02004KT 340V080 CAVOK 19/14 Q1019=
201208030800 METAR LPPR 030800Z VRB02KT CAVOK 19/15 Q1019=
201208030730 METAR LPPR 030730Z VRB02KT CAVOK 18/14 Q1019=
201208030700 METAR LPPR 030700Z 00000KT CAVOK 15/14 Q1019=
201208030630 METAR LPPR 030630Z VRB02KT CAVOK 12/12 Q1018=
201208030600 METAR LPPR 030600Z 07003KT 350V140 CAVOK 12/12 Q1018=
201208030530 METAR LPPR 030530Z 00000KT CAVOK 12/11 Q1018=
201208030500 METAR LPPR 030500Z 13002KT CAVOK 12/12 Q1018=
201208030430 METAR LPPR 030430Z VRB01KT CAVOK 12/12 Q1018=
201208030400 METAR LPPR 030400Z 00000KT CAVOK 12/11 Q1018=
201208030330 METAR LPPR 030330Z VRB02KT CAVOK 13/12 Q1018=
201208030300 METAR LPPR 030300Z 00000KT CAVOK 13/12 Q1018=
201208030230 METAR LPPR 030230Z 00000KT CAVOK 13/12 Q1018=
201208030200 METAR LPPR 030200Z 05001KT CAVOK 13/12 Q1018=
201208030130 METAR LPPR 030130Z 00000KT CAVOK 13/13 Q1018=
201208030100 METAR LPPR 030100Z 35004KT CAVOK 14/12 Q1019=
201208030030 METAR LPPR 030030Z 01002KT CAVOK 14/13 Q1019=
201208030000 METAR LPPR 030000Z 36004KT CAVOK 15/13 Q1019=
201208022330 METAR LPPR 022330Z 35005KT CAVOK 15/13 Q1019=
201208022300 METAR LPPR 022300Z 36004KT CAVOK 15/13 Q1019=
201208022230 METAR LPPR 022230Z 34005KT CAVOK 16/14 Q1019=
201208022200 METAR LPPR 022200Z 34007KT CAVOK 16/14 Q1019=
201208022130 METAR LPPR 022130Z 34011KT CAVOK 17/14 Q1019=
201208022100 METAR LPPR 022100Z 34012KT CAVOK 17/14 Q1019=
201208022030 METAR LPPR 022030Z 34010KT CAVOK 17/14 Q1019=
201208022000 METAR LPPR 022000Z 35012KT CAVOK 18/14 Q1019=
201208021930 METAR LPPR 021930Z 35011KT CAVOK 18/14 Q1019=
201208021900 METAR LPPR 021900Z 34015KT CAVOK 19/14 Q1019=
201208021830 METAR LPPR 021830Z 34012KT CAVOK 19/14 Q1019=
201208021800 METAR LPPR 021800Z 33011KT 300V360 CAVOK 20/15 Q1019=
201208021730 METAR LPPR 021730Z 33012KT CAVOK 20/14 Q1019=
201208021700 METAR LPPR 021700Z 33014KT 290V350 CAVOK 19/15 Q1019=
201208021630 METAR LPPR 021630Z 33014KT 290V350 CAVOK 20/14 Q1019=
201208021600 METAR LPPR 021600Z 33014KT CAVOK 20/14 Q1019=
201208021530 METAR LPPR 021530Z 32014KT CAVOK 20/14 Q1019=
201208021500 METAR LPPR 021500Z 33013KT CAVOK 20/14 Q1019=
201208021430 METAR LPPR 021430Z 33013KT 300V360 CAVOK 21/14 Q1019=
201208021400 METAR LPPR 021400Z 31011KT 280V340 CAVOK 20/14 Q1019=
201208021330 METAR LPPR 021330Z 33012KT 290V350 9999 FEW015 21/14 Q1019=
201208021300 METAR LPPR 021300Z 33013KT 290V360 9999 FEW015 21/14 Q1019=
201208021230 METAR LPPR 021230Z 32011KT 290V350 9999 FEW015 21/15 Q1019=
201208021200 METAR LPPR 021200Z 32010KT 280V350 9999 FEW015 20/15 Q1019=
201208021130 METAR LPPR 021130Z 32011KT 290V350 9999 FEW015 20/16 Q1020=
201208021100 METAR LPPR 021100Z 30007KT 270V330 9999 FEW015 20/16 Q1020=
201208021030 METAR LPPR 021030Z 31007KT 260V340 9999 FEW018 20/16 Q1020=
201208021000 METAR LPPR 021000Z 31006KT 270V350 9999 SCT013 20/16 Q1020=
201208020930 METAR LPPR 020930Z 33005KT 300V010 9999 SCT015 19/16 Q1019=
201208020900 METAR LPPR 020900Z 01007KT 340V040 9999 SCT012 19/16 Q1019=
201208020830 METAR LPPR 020830Z 35007KT 320V050 9999 FEW011 18/16 Q1019=
201208020800 METAR LPPR 020800Z 35005KT 320V050 9999 FEW012 16/16 Q1019=
201208020730 METAR LPPR 020730Z VRB02KT 9999 FEW009 16/16 Q1019=
201208020700 METAR LPPR 020700Z 12003KT 9999 FEW007 15/15 Q1019=
201208020630 METAR LPPR 020630Z VRB02KT 9999 FEW007 13/13 Q1018=
201208020600 METAR LPPR 020600Z VRB02KT 9999 3000N R17/0400V0750 MIFG
                        FEW006 13/13 Q1018=
201208020530 METAR LPPR 020530Z 36001KT 7000 0800W R17/0375V0700U MIFG
                        NSC 13/13 Q1018=
201208020500 METAR LPPR 020500Z 01003KT 360V060 6000 0800W R17/0500 PRFG
                        NSC 14/13 Q1018=
201208020430 METAR LPPR 020430Z VRB02KT 5000 0800N R17/0400V0800U PRFG
                        BR NSC 14/14 Q1018=
201208020400 METAR LPPR 020400Z 01003KT 3500 0800N R17/0550N PRFG BR NSC
                        15/15 Q1018=
201208020330 METAR COR LPPR 020330Z 03002KT 3000 0500N R17/0650 PRFG BR
                        FEW000 15/15 Q1018=
201208020300 METAR LPPR 020300Z 01003KT 2000 0600N R17/0750 PRFG BR BKN000
                        15/15 Q1018=
201208020230 METAR LPPR 020230Z 01003KT 2500 0800N R17/1200D PRFG BR BKN000
                        15/15 Q1018=
201208020200 METAR LPPR 020200Z 35006KT 0500 R17/0800V1300U FG VV/// 16/16
                        Q1018=
201208020130 METAR LPPR 020130Z 01004KT 0200 R17/0800V1300U FG VV/// 16/16
                        Q1018=
201208020100 METAR LPPR 020100Z 35005KT 0200 R17/0900N FG VV/// 16/16
                        Q1018=
201208020030 METAR LPPR 020030Z 01005KT 0300 R17/1000V1900U FG VV/// 16/16
                        Q1018=
201208020000 METAR LPPR 020000Z 01003KT 0400 R17/0750 FG VV/// 17/16 Q1018=
201208012330 METAR LPPR 012330Z 02004KT 360V060 0150 R17/0750 FG VV///
                        17/16 Q1018=
201208012300 METAR LPPR 012300Z 36004KT 0400 R17/1100VP2000D FG VV///
                        17/17 Q1018=
201208012230 METAR LPPR 012230Z 35005KT 2200 BR SCT000 BKN001 17/17 Q1018=
201208012200 METAR LPPR 012200Z 35005KT 5000 1800S BR SCT002 BKN007 17/17
                        Q1018=
201208012130 METAR LPPR 012130Z 33006KT 6000 SCT002 BKN006 17/17 Q1018=
201208012100 METAR LPPR 012100Z 30003KT 9999 FEW005 18/17 Q1018=
201208012030 METAR LPPR 012030Z 36001KT 9999 SCT009 18/17 Q1017=
201208012000 METAR LPPR 012000Z 04003KT 360V100 9999 FEW008 SCT012 18/17
                        Q1017=
201208011930 METAR LPPR 011930Z 33004KT 300V360 9999 SCT005 BKN012 18/17
                        Q1017=
201208011900 METAR LPPR 011900Z 29003KT 250V350 9999 BKN004 BKN012 19/18
                        Q1017=
201208011830 METAR LPPR 011830Z 26003KT 220V310 9999 SCT004 BKN008 BKN014
                        19/18 Q1017=
201208011800 METAR LPPR 011800Z 23005KT 140V270 9999 BKN005 19/18 Q1017=
201208011730 METAR LPPR 011730Z 20005KT 170V230 9999 FEW003 OVC005 19/18
                        Q1017=
201208011700 METAR LPPR 011700Z 20004KT 170V230 7000 -DZ BKN003 OVC009
                        19/18 Q1018=
201208011630 METAR LPPR 011630Z 21004KT 160V260 1500 -DZ BR SCT004 BKN008
                        19/17 Q1018=
201208011600 METAR LPPR 011600Z 21006KT 180V250 3000 -DZRA BR SCT009 OVC014
                        19/17 Q1018=
201208011530 METAR LPPR 011530Z 22008KT 190V250 9999 OVC016 20/16 Q1018=
201208011500 METAR LPPR 011500Z 21008KT 190V250 9999 SCT018 BKN022 21/16
                        Q1018=
201208011430 METAR LPPR 011430Z 23008KT 200V270 9999 BKN022 21/16 Q1018=
201208011400 METAR LPPR 011400Z 22007KT 170V280 9999 BKN024 21/16 Q1018=
201208011330 METAR LPPR 011330Z 20009KT 9999 BKN024 21/15 Q1018=
201208011300 METAR LPPR 011300Z 21009KT 180V240 9999 BKN028 21/16 Q1018=
201208011230 METAR LPPR 011230Z 21008KT 180V250 9999 BKN030 BKN040 21/16
                        Q1018=
201208011200 METAR LPPR 011200Z 21009KT 170V250 9999 SCT030 BKN040 22/15
                        Q1018=
201208011130 METAR LPPR 011130Z 21008KT 170V260 9999 FEW009 SCT037 21/15
                        Q1018=
201208011100 METAR LPPR 011100Z 20008KT 170V240 9999 FEW020 BKN040 21/15
                        Q1018=
201208011030 METAR LPPR 011030Z 19010KT 9999 FEW020 21/15 Q1018=
201208011000 METAR LPPR 011000Z 19009KT 9999 FEW020 21/15 Q1018=
201208010930 METAR LPPR 010930Z 20007KT 170V230 9999 FEW020 21/15 Q1018=
201208010900 METAR LPPR 010900Z 19007KT 160V230 9999 FEW018 SCT048 20/15
                        Q1019=
201208010830 METAR LPPR 010830Z 17005KT 130V230 9999 FEW018 20/15 Q1018=
201208010800 METAR LPPR 010800Z 14007KT 110V170 9999 FEW018 20/15 Q1018=
201208010730 METAR LPPR 010730Z 13007KT 100V170 9999 FEW018 19/14 Q1018=
201208010700 METAR LPPR 010700Z 12005KT 9999 FEW020 SCT030 18/15 Q1018=
201208010630 METAR LPPR 010630Z 17003KT 120V210 9999 FEW020 BKN030 16/14
                        Q1018=
201208010600 METAR LPPR 010600Z 12008KT 9999 FEW018 BKN025 17/14 Q1018=
201208010530 METAR LPPR 010530Z 14005KT 9999 FEW018 BKN025 16/14 Q1018=
201208010500 METAR LPPR 010500Z 13007KT 9999 BKN025 16/14 Q1017=
201208010430 METAR LPPR 010430Z 12005KT 080V140 9000 BKN025 16/15 Q1017=
201208010400 METAR LPPR 010400Z 12003KT 070V180 9999 BKN025 16/14 Q1017=
201208010330 METAR LPPR 010330Z 11006KT 9000 BKN025 16/15 Q1017=
201208010300 METAR LPPR 010300Z 12005KT 8000 BKN025 16/15 Q1017=
201208010230 METAR LPPR 010230Z 11006KT 7000 BKN025 16/15 Q1018=
201208010200 METAR LPPR 010200Z 14003KT 100V200 6000 FEW004 BKN025 15/15
                        Q1018=
201208010130 METAR LPPR 010130Z VRB01KT 6000 FEW002 BKN025 15/15 Q1018=
201208010100 METAR LPPR 010100Z VRB01KT 6000 SCT004 BKN025 15/14 Q1018=
201208010030 METAR LPPR 010030Z 00000KT 6000 BKN004 14/14 Q1018=
201208010000 METAR LPPR 010000Z 04002KT 6000 SCT005 BKN025 14/14 Q1018=

</pre>

</body>
</html>
