##########################################################
# Query made at 11/07/2014 15:16:11 UTC
# Time interval: from 08/01/2009 00:00  to 08/31/2009 23:59  UTC
##########################################################

##########################################################
# LPPR, Porto / Pedras Rubras (Portugal)
# WMO index: 08545
# Latitude 41-14N. Longitude 008-41W. Altitude 69 m.
##########################################################

###################################
#  METAR/SPECI from LPPR
###################################
200908312330 METAR LPPR 312330Z 33002KT 9999 FEW009 SCT100 16/16 Q1016=
200908312300 METAR LPPR 312300Z 32004KT 290V350 9999 FEW009 16/16 Q1016=
200908312230 METAR LPPR 312230Z 33004KT 9999 FEW009 17/16 Q1016=
200908312200 METAR LPPR 312200Z 32005KT 9999 FEW009 17/16 Q1016=
200908312130 METAR LPPR 312130Z VRB03KT 9999 FEW008 17/16 Q1016=
200908312100 METAR LPPR 312100Z 34003KT 9999 FEW008 17/16 Q1015=
200908312030 METAR LPPR 312030Z 34006KT 9999 FEW008 17/16 Q1015=
200908312000 METAR LPPR 312000Z 34008KT 9999 FEW008 18/16 Q1015=
200908311900 METAR LPPR 311900Z 33011KT 9999 FEW008 19/17 Q1014=
200908311830 METAR LPPR 311830Z 33013KT 9999 FEW008 20/17 Q1014=
200908311800 METAR LPPR 311800Z 33012KT 290V350 9999 FEW008 20/17 Q1014=
200908311730 METAR LPPR 311730Z 33014KT 9999 FEW008 21/17 Q1014=
200908311700 METAR LPPR 311700Z 32013KT 9999 FEW008 21/17 Q1014=
200908311630 METAR LPPR 311630Z 31012G23KT 270V340 9999 FEW008 21/17 Q1014=
200908311600 METAR LPPR 311600Z 31013KT 9999 FEW008 21/17 Q1014=
200908311530 METAR LPPR 311530Z 31012KT 290V360 9999 FEW008 21/18 Q1014=
200908311500 METAR LPPR 311500Z 30010KT 9999 FEW008 23/18 Q1013=
200908311430 METAR LPPR 311430Z 31009KT CAVOK 23/18 Q1013=
200908311400 METAR LPPR 311400Z 30006KT 270V350 CAVOK 23/18 Q1014=
200908311330 METAR LPPR 311330Z 28007KT 9999 FEW008 22/18 Q1014=
200908311300 METAR LPPR 311300Z 30008KT 270V350 9999 FEW008 23/18 Q1014=
200908311230 METAR LPPR 311230Z 30008KT 270V340 8000 FEW008 22/18 Q1014=
200908311200 METAR LPPR 311200Z 31008KT 260V340 2500W BR VCFG SCT003 BKN006
                        20/17 Q1014=
200908311130 METAR LPPR 311130Z 27006KT 230V310 1500W BR VCFG BKN002 19/18
                        Q1014=
200908311100 METAR LPPR 311100Z 26006KT 190V310 2000NW BR VCFG SCT004
                        SCT008 21/18 Q1014=
200908311000 METAR LPPR 311000Z 20007KT 170V230 CAVOK 22/18 Q1014=
200908310930 METAR LPPR 310930Z 20007KT CAVOK 22/18 Q1014=
200908310900 METAR LPPR 310900Z 20007KT CAVOK 22/18 Q1013=
200908310830 METAR LPPR 310830Z 17007KT 8000 SKC 21/18 Q1013=
200908310800 METAR LPPR 310800Z 19005KT 7000 FEW006 19/18 Q1013=
200908310730 METAR LPPR 310730Z 19005KT 7000 FEW006 19/17 Q1013=
200908310700 METAR LPPR 310700Z VRB03KT CAVOK 18/17 Q1012=
200908310630 METAR LPPR 310630Z 18004KT CAVOK 18/16 Q1012=
200908310600 METAR LPPR 310600Z VRB03KT CAVOK 18/16 Q1012=
200908310530 METAR LPPR 310530Z 00000KT CAVOK 18/16 Q1012=
200908310500 METAR LPPR 310500Z 00000KT CAVOK 18/16 Q1011=
200908310430 METAR LPPR 310430Z 18004KT CAVOK 18/16 Q1011=
200908310400 METAR LPPR 310400Z 00000KT CAVOK 18/16 Q1012=
200908310330 METAR LPPR 310330Z 19003KT CAVOK 18/16 Q1012=
200908310300 METAR LPPR 310300Z 17004KT CAVOK 18/16 Q1012=
200908310230 METAR LPPR 310230Z 18003KT CAVOK 17/16 Q1012=
200908310200 METAR LPPR 310200Z 17004KT CAVOK 17/16 Q1012=
200908310100 METAR LPPR 310100Z 00000KT CAVOK 18/16 Q1012=
200908310030 METAR LPPR 310030Z 00000KT CAVOK 19/15 Q1013=
200908310000 METAR LPPR 310000Z 00000KT CAVOK 18/16 Q1013=
200908302330 METAR LPPR 302330Z 00000KT CAVOK 18/16 Q1013=
200908302300 METAR LPPR 302300Z 00000KT CAVOK 19/15 Q1013=
200908302230 METAR LPPR 302230Z 00000KT CAVOK 20/15 Q1013=
200908302200 METAR LPPR 302200Z 00000KT CAVOK 22/15 Q1013=
200908302130 METAR LPPR 302130Z 00000KT CAVOK 22/15 Q1013=
200908302100 METAR LPPR 302100Z 00000KT CAVOK 23/16 Q1013=
200908302030 METAR LPPR 302030Z 00000KT CAVOK 23/15 Q1012=
200908302000 METAR LPPR 302000Z 00000KT CAVOK 25/15 Q1012=
200908301930 METAR LPPR 301930Z 00000KT CAVOK 26/15 Q1012=
200908301900 METAR LPPR 301900Z 34004KT CAVOK 28/15 Q1012=
200908301830 METAR LPPR 301830Z 34004KT CAVOK 29/16 Q1012=
200908301800 METAR LPPR 301800Z 33005KT CAVOK 30/16 Q1012=
200908301730 METAR LPPR 301730Z 33005KT CAVOK 31/16 Q1013=
200908301700 METAR LPPR 301700Z 32005KT 290V350 CAVOK 31/16 Q1013=
200908301630 METAR LPPR 301630Z 30004KT 260V330 CAVOK 31/16 Q1013=
200908301600 METAR LPPR 301600Z 30007KT CAVOK 32/15 Q1013=
200908301530 METAR LPPR 301530Z 32007KT 270V330 8000 SKC 33/15 Q1013=
200908301500 METAR LPPR 301500Z 30007KT 270V340 8000 SKC 33/15 Q1013=
200908301430 METAR LPPR 301430Z 28006KT 250V320 8000 SKC 32/15 Q1014=
200908301400 METAR LPPR 301400Z 31007KT 260V330 8000 SKC 33/15 Q1014=
200908301330 METAR LPPR 301330Z 27006KT 230V300 7000 SKC 33/17 Q1014=
200908301300 METAR LPPR 301300Z VRB04KT 7000 SKC 36/14 Q1014=
200908301230 METAR LPPR 301230Z VRB03KT 7000 SKC 36/10 Q1014=
200908301200 METAR LPPR 301200Z 09005KT 040V130 7000 SKC 35/10 Q1015=
200908301130 METAR LPPR 301130Z 07006KT 010V130 7000 SKC 34/10 Q1015=
200908301030 METAR LPPR 301030Z 10006KT 040V130 7000 SKC 32/11 Q1015=
200908301000 METAR LPPR 301000Z 09006KT 040V130 7000 SKC 31/11 Q1015=
200908300930 METAR LPPR 300930Z 09006KT 040V130 7000 SKC 30/11 Q1015=
200908300900 METAR LPPR 300900Z VRB03KT 7000 SKC 29/12 Q1015=
200908300830 METAR LPPR 300830Z VRB02KT 7000 SKC 28/12 Q1015=
200908300800 METAR LPPR 300800Z 00000KT CAVOK 25/14 Q1015=
200908300730 METAR LPPR 300730Z 00000KT CAVOK 21/16 Q1015=
200908300700 METAR LPPR 300700Z 00000KT CAVOK 20/16 Q1015=
200908300630 METAR LPPR 300630Z 00000KT CAVOK 19/16 Q1015=
200908300600 METAR LPPR 300600Z 03004KT CAVOK 18/16 Q1014=
200908300530 METAR LPPR 300530Z 00000KT CAVOK 18/16 Q1014=
200908300500 METAR LPPR 300500Z 00000KT CAVOK 19/16 Q1014=
200908300430 METAR LPPR 300430Z 05003KT CAVOK 19/17 Q1014=
200908300400 METAR LPPR 300400Z VRB02KT CAVOK 18/17 Q1014=
200908300330 METAR LPPR 300330Z 00000KT CAVOK 18/17 Q1014=
200908300300 METAR LPPR 300300Z 36002KT CAVOK 19/17 Q1014=
200908300230 METAR LPPR 300230Z 00000KT CAVOK 20/17 Q1014=
200908300200 METAR LPPR 300200Z 00000KT CAVOK 21/18 Q1015=
200908300130 METAR LPPR 300130Z VRB02KT CAVOK 20/18 Q1015=
200908300100 METAR LPPR 300100Z 00000KT CAVOK 19/17 Q1015=
200908300030 METAR LPPR 300030Z 00000KT CAVOK 20/18 Q1015=
200908300000 METAR LPPR 300000Z 00000KT CAVOK 20/18 Q1015=
200908292330 METAR LPPR 292330Z 00000KT CAVOK 23/18 Q1015=
200908292300 METAR LPPR 292300Z 00000KT CAVOK 22/18 Q1015=
200908292230 METAR LPPR 292230Z 10002KT CAVOK 21/18 Q1015=
200908292200 METAR LPPR 292200Z 00000KT CAVOK 22/18 Q1015=
200908292130 METAR LPPR 292130Z 00000KT CAVOK 22/18 Q1015=
200908292030 METAR LPPR 292030Z 36002KT CAVOK 24/17 Q1015=
200908292000 METAR LPPR 292000Z 35003KT CAVOK 24/17 Q1015=
200908291930 METAR LPPR 291930Z 33005KT CAVOK 25/17 Q1015=
200908291900 METAR LPPR 291900Z 33007KT CAVOK 27/17 Q1014=
200908291830 METAR LPPR 291830Z 33008KT CAVOK 28/17 Q1014=
200908291800 METAR LPPR 291800Z 33008KT CAVOK 29/16 Q1014=
200908291730 METAR LPPR 291730Z 32008KT CAVOK 29/16 Q1015=
200908291700 METAR LPPR 291700Z 33009KT CAVOK 30/15 Q1015=
200908291630 METAR LPPR 291630Z 33011KT CAVOK 30/16 Q1015=
200908291600 METAR LPPR 291600Z 33010KT 310V010 CAVOK 30/16 Q1015=
200908291530 METAR LPPR 291530Z 32008KT CAVOK 29/16 Q1015=
200908291500 METAR LPPR 291500Z 30010KT CAVOK 30/16 Q1016=
200908291430 METAR LPPR 291430Z 32010KT CAVOK 30/16 Q1016=
200908291400 METAR LPPR 291400Z 32009KT 290V350 CAVOK 30/16 Q1016=
200908291330 METAR LPPR 291330Z 32010KT CAVOK 31/16 Q1016=
200908291300 METAR LPPR 291300Z 28008KT CAVOK 29/17 Q1016=
200908291230 METAR LPPR 291230Z 27008KT 240V300 CAVOK 29/17 Q1016=
200908291200 METAR LPPR 291200Z 11005KT 010V170 CAVOK 33/15 Q1017=
200908291130 METAR LPPR 291130Z 07005KT 010V130 CAVOK 32/14 Q1017=
200908291100 METAR LPPR 291100Z 08004KT 350V150 CAVOK 31/15 Q1017=
200908291030 METAR LPPR 291030Z 09005KT 030V130 CAVOK 30/15 Q1017=
200908290930 METAR LPPR 290930Z 09007KT 050V130 CAVOK 27/14 Q1017=
200908290900 METAR LPPR 290900Z 09008KT 040V120 CAVOK 27/14 Q1017=
200908290830 METAR LPPR 290830Z 07006KT 030V110 CAVOK 26/14 Q1017=
200908290800 METAR LPPR 290800Z 07004KT 030V100 CAVOK 24/14 Q1017 WS ALL
                        RWY=
200908290730 METAR LPPR 290730Z VRB02KT CAVOK 23/15 Q1017 WS ALL RWY=
200908290700 METAR LPPR 290700Z VRB02KT CAVOK 21/15 Q1017=
200908290630 METAR LPPR 290630Z 05004KT CAVOK 21/14 Q1016=
200908290600 METAR LPPR 290600Z 05005KT CAVOK 20/15 Q1016=
200908290530 METAR LPPR 290530Z VRB02KT CAVOK 18/15 Q1016=
200908290500 METAR LPPR 290500Z VRB02KT CAVOK 16/15 Q1016=
200908290430 METAR LPPR 290430Z 35003KT CAVOK 15/14 Q1016=
200908290400 METAR LPPR 290400Z 36002KT CAVOK 15/14 Q1016=
200908290330 METAR LPPR 290330Z 01003KT CAVOK 16/15 Q1016=
200908290300 METAR LPPR 290300Z 00000KT CAVOK 16/15 Q1016=
200908290230 METAR LPPR 290230Z 00000KT 9000 SKC 17/15 Q1016=
200908290200 METAR LPPR 290200Z 00000KT CAVOK 17/15 Q1016=
200908290130 METAR LPPR 290130Z 00000KT CAVOK 18/15 Q1016=
200908290100 METAR LPPR 290100Z VRB03KT CAVOK 18/15 Q1016=
200908290030 METAR LPPR 290030Z 00000KT CAVOK 18/15 Q1016=
200908290000 METAR LPPR 290000Z 36002KT CAVOK 18/15 Q1016=
200908282330 METAR LPPR 282330Z 35003KT CAVOK 18/15 Q1016=
200908282230 METAR LPPR 282230Z 00000KT CAVOK 18/15 Q1016=
200908282130 METAR LPPR 282130Z 35004KT CAVOK 19/16 Q1016=
200908282100 METAR LPPR 282100Z 33004KT CAVOK 19/16 Q1016=
200908282030 METAR LPPR 282030Z 34003KT CAVOK 20/16 Q1016=
200908282000 METAR LPPR 282000Z 35004KT CAVOK 20/16 Q1016=
200908281930 METAR LPPR 281930Z 34006KT CAVOK 22/16 Q1016=
200908281900 METAR LPPR 281900Z 33008KT CAVOK 23/16 Q1016=
200908281830 METAR LPPR 281830Z 33009KT CAVOK 25/16 Q1016=
200908281800 METAR LPPR 281800Z 34010KT CAVOK 25/16 Q1016=
200908281730 METAR LPPR 281730Z 33011KT CAVOK 26/17 Q1016=
200908281700 METAR LPPR 281700Z 33013KT CAVOK 26/16 Q1016=
200908281600 METAR LPPR 281600Z 33011KT 290V350 CAVOK 27/16 Q1017=
200908281530 METAR LPPR 281530Z 34014KT CAVOK 27/16 Q1017=
200908281500 METAR LPPR 281500Z 32012KT CAVOK 27/16 Q1017=
200908281430 METAR LPPR 281430Z 33012KT 290V350 CAVOK 27/16 Q1017=
200908281400 METAR LPPR 281400Z 32011KT 290V350 CAVOK 27/17 Q1017=
200908281330 METAR LPPR 281330Z 31010KT CAVOK 27/17 Q1018=
200908281300 METAR LPPR 281300Z 32009KT 290V350 CAVOK 27/17 Q1018=
200908281230 METAR LPPR 281230Z 32009KT 290V350 CAVOK 26/17 Q1018=
200908281200 METAR LPPR 281200Z 31007KT 260V350 CAVOK 25/17 Q1018=
200908281130 METAR LPPR 281130Z 29008KT CAVOK 24/17 Q1019=
200908281100 METAR LPPR 281100Z 28008KT 260V320 CAVOK 24/17 Q1019=
200908281030 METAR LPPR 281030Z VRB06KT CAVOK 24/17 Q1019=
200908281000 METAR LPPR 281000Z 34007KT CAVOK 23/16 Q1019=
200908280930 METAR LPPR 280930Z 36006KT 330V040 CAVOK 22/16 Q1019=
200908280900 METAR LPPR 280900Z 34007KT CAVOK 20/16 Q1019=
200908280830 METAR LPPR 280830Z 32007KT 280V340 CAVOK 19/16 Q1019=
200908280800 METAR LPPR 280800Z 34004KT 300V010 CAVOK 18/17 Q1019=
200908280730 METAR LPPR 280730Z 00000KT CAVOK 16/16 Q1019=
200908280700 METAR LPPR 280700Z 00000KT CAVOK 14/14 Q1019=
200908280630 METAR LPPR 280630Z 00000KT CAVOK 13/13 Q1019=
200908280600 METAR LPPR 280600Z 00000KT CAVOK 13/13 Q1018=
200908280530 METAR LPPR 280530Z 00000KT CAVOK 13/13 Q1018=
200908280500 METAR LPPR 280500Z 36002KT CAVOK 13/13 Q1018=
200908280430 METAR LPPR 280430Z 00000KT CAVOK 13/13 Q1018=
200908280400 METAR LPPR 280400Z 00000KT CAVOK 14/14 Q1018=
200908280330 METAR LPPR 280330Z 00000KT CAVOK 14/14 Q1018=
200908280300 METAR LPPR 280300Z 00000KT CAVOK 15/14 Q1018=
200908280230 METAR LPPR 280230Z 00000KT CAVOK 15/15 Q1019=
200908280200 METAR LPPR 280200Z 00000KT CAVOK 15/15 Q1019=
200908280130 METAR LPPR 280130Z 00000KT CAVOK 15/15 Q1019=
200908280100 METAR LPPR 280100Z 00000KT CAVOK 15/15 Q1019=
200908280030 METAR LPPR 280030Z 00000KT CAVOK 16/15 Q1019=
200908280000 METAR LPPR 280000Z 00000KT CAVOK 16/15 Q1020=
200908272330 METAR LPPR 272330Z 00000KT CAVOK 16/15 Q1020=
200908272300 METAR LPPR 272300Z 36003KT CAVOK 16/15 Q1020=
200908272230 METAR LPPR 272230Z 33003KT CAVOK 16/16 Q1019=
200908272200 METAR LPPR 272200Z 35006KT CAVOK 17/16 Q1019=
200908272130 METAR LPPR 272130Z 34010KT CAVOK 17/16 Q1019=
200908272100 METAR LPPR 272100Z 34009KT CAVOK 17/16 Q1019=
200908272030 METAR LPPR 272030Z 34009KT CAVOK 18/15 Q1019=
200908272000 METAR LPPR 272000Z 34011KT CAVOK 18/16 Q1019=
200908271930 METAR LPPR 271930Z 33011KT CAVOK 19/16 Q1019=
200908271900 METAR LPPR 271900Z 33012KT CAVOK 20/16 Q1019=
200908271830 METAR LPPR 271830Z 33012KT CAVOK 21/16 Q1019=
200908271800 METAR LPPR 271800Z 32011KT 270V350 CAVOK 22/17 Q1019=
200908271700 METAR LPPR 271700Z 33012KT CAVOK 23/17 Q1019=
200908271630 METAR LPPR 271630Z 33012KT 300V360 CAVOK 23/18 Q1019=
200908271600 METAR LPPR 271600Z 32013KT CAVOK 24/18 Q1019=
200908271530 METAR LPPR 271530Z 32013KT CAVOK 24/18 Q1019=
200908271500 METAR LPPR 271500Z 32014KT 9999 FEW017 24/18 Q1019=
200908271430 METAR LPPR 271430Z 33013KT 9999 FEW017 24/19 Q1019=
200908271400 METAR LPPR 271400Z 32013KT 9999 FEW017 24/19 Q1019=
200908271330 METAR LPPR 271330Z 31014KT 9999 FEW008 24/20 Q1019=
200908271300 METAR LPPR 271300Z 31013KT 9999 FEW008 24/20 Q1019=
200908271230 METAR LPPR 271230Z 30011KT 9999 FEW017 24/20 Q1019=
200908271200 METAR LPPR 271200Z 32010KT 280V360 9999 FEW017 25/19 Q1019=
200908271130 METAR LPPR 271130Z 30010KT 9999 FEW017 24/19 Q1019=
200908271100 METAR LPPR 271100Z 31010KT 9999 FEW017 24/19 Q1019=
200908271030 METAR LPPR 271030Z 33006KT 290V030 9999 FEW017 25/19 Q1019=
200908271000 METAR LPPR 271000Z 29006KT 240V350 9999 FEW017 24/18 Q1019=
200908270930 METAR LPPR 270930Z 28004KT 220V340 9999 FEW030 23/18 Q1019=
200908270900 METAR LPPR 270900Z 32004KT 280V360 9999 FEW030 23/18 Q1019=
200908270830 METAR LPPR 270830Z 00000KT 8000 SCT030 23/18 Q1019=
200908270800 METAR LPPR 270800Z 00000KT 7000 BKN030 20/18 Q1019=
200908270730 METAR LPPR 270730Z 00000KT 7000 BKN030 19/17 Q1019=
200908270700 METAR LPPR 270700Z VRB03KT 7000 BKN030 18/17 Q1018=
200908270630 METAR LPPR 270630Z 00000KT 6000 BKN030 17/17 Q1018=
200908270600 METAR LPPR 270600Z 00000KT 6000 BKN030 17/17 Q1018=
200908270530 METAR LPPR 270530Z 00000KT 6000 BKN030 17/17 Q1018=
200908270500 METAR LPPR 270500Z 00000KT 6000 BKN030 18/17 Q1018=
200908270430 METAR LPPR 270430Z VRB02KT 6000 BKN030 18/18 Q1018=
200908270400 METAR LPPR 270400Z 08003KT 6000 BKN030 17/17 Q1018=
200908270330 METAR LPPR 270330Z 08003KT 6000 FEW025 SCT100 17/17 Q1018=
200908270300 METAR LPPR 270300Z VRB02KT 6000 FEW025 SCT100 16/16 Q1018=
200908270230 METAR LPPR 270230Z 00000KT 7000 SCT100 16/15 Q1018=
200908270200 METAR LPPR 270200Z 00000KT 8000 FEW100 16/16 Q1018=
200908270130 METAR LPPR 270130Z 00000KT 8000 FEW100 16/16 Q1018=
200908270100 METAR LPPR 270100Z 00000KT 8000 FEW100 16/16 Q1018=
200908270030 METAR LPPR 270030Z 00000KT 8000 FEW100 16/16 Q1018=
200908270000 METAR LPPR 270000Z 00000KT 8000 FEW100 16/16 Q1018=
200908262330 METAR LPPR 262330Z 00000KT 8000 FEW100 17/17 Q1018=
200908262300 METAR LPPR 262300Z 00000KT 8000 FEW100 18/17 Q1018=
200908262230 METAR LPPR 262230Z 00000KT 8000 FEW100 18/17 Q1018=
200908262200 METAR LPPR 262200Z 00000KT 8000 FEW100 18/17 Q1018=
200908262130 METAR LPPR 262130Z 00000KT 8000 FEW100 18/18 Q1018=
200908262100 METAR LPPR 262100Z 00000KT 8000 FEW100 19/18 Q1018=
200908262030 METAR LPPR 262030Z 00000KT 8000 FEW100 19/18 Q1018=
200908261930 METAR LPPR 261930Z 00000KT 8000 FEW100 20/18 Q1017=
200908261900 METAR LPPR 261900Z VRB03KT CAVOK 21/18 Q1017=
200908261830 METAR LPPR 261830Z 28005KT 250V010 CAVOK 21/19 Q1017=
200908261800 METAR LPPR 261800Z 29005KT 220V310 CAVOK 22/19 Q1017=
200908261730 METAR LPPR 261730Z VRB06KT 9999 FEW017 22/19 Q1017=
200908261700 METAR LPPR 261700Z 27005KT 9999 FEW017 23/19 Q1017=
200908261630 METAR LPPR 261630Z 24007KT 200V270 9999 FEW017 23/19 Q1017=
200908261600 METAR LPPR 261600Z 25007KT 220V280 9999 FEW017 23/19 Q1017=
200908261530 METAR LPPR 261530Z 26007KT 230V290 9999 FEW017 24/19 Q1017=
200908261500 METAR LPPR 261500Z 26008KT 210V290 9999 FEW017 24/19 Q1017=
200908261430 METAR LPPR 261430Z 24007KT 200V270 9999 FEW017 SCT040 24/18
                        Q1018=
200908261400 METAR LPPR 261400Z 25007KT 9999 FEW017 SCT040 24/18 Q1018=
200908261330 METAR LPPR 261330Z 22005KT 170V260 9999 FEW017 BKN040 24/17
                        Q1018=
200908261300 METAR LPPR 261300Z 22004KT 170V260 9999 FEW017 BKN030 23/16
                        Q1018=
200908261230 METAR LPPR 261230Z 22005KT 200V260 9999 FEW020 BKN040 22/16
                        Q1018=
200908261200 METAR LPPR 261200Z 22006KT 190V300 9999 FEW020 BKN040 23/16
                        Q1018=
200908261130 METAR LPPR 261130Z 24006KT 200V270 9999 FEW020 BKN030 23/18
                        Q1018=
200908261100 METAR LPPR 261100Z 14004KT 080V180 9999 FEW020 BKN040 23/16
                        Q1017=
200908261030 METAR LPPR 261030Z 14006KT 100V170 9999 FEW020 BKN040 22/14
                        Q1017=
200908261000 METAR LPPR 261000Z 13005KT 9999 FEW020 BKN040 21/14 Q1017=
200908260930 METAR LPPR 260930Z 12007KT 9999 SCT020 BKN035 20/14 Q1017=
200908260900 METAR LPPR 260900Z VRB03KT 9999 SCT015 BKN020 19/14 Q1017=
200908260830 METAR LPPR 260830Z 12006KT 9999 FEW025 BKN035 18/14 Q1017=
200908260800 METAR LPPR 260800Z 12007KT 9999 SCT030 BKN040 17/14 Q1017=
200908260730 METAR LPPR 260730Z 11006KT 9999 SCT025 BKN035 16/14 Q1017=
200908260700 METAR LPPR 260700Z 10007KT 9999 SCT020 BKN025 15/14 Q1017=
200908260630 METAR LPPR 260630Z 10008KT 9999 FEW025 SCT035 15/14 Q1016=
200908260600 METAR LPPR 260600Z 10008KT CAVOK 15/14 Q1016=
200908260530 METAR LPPR 260530Z 10008KT CAVOK 15/14 Q1016=
200908260500 METAR LPPR 260500Z 10007KT CAVOK 15/14 Q1016=
200908260430 METAR LPPR 260430Z VRB03KT CAVOK 15/14 Q1016=
200908260400 METAR LPPR 260400Z 10004KT 060V120 CAVOK 15/14 Q1016=
200908260330 METAR LPPR 260330Z 00000KT CAVOK 14/14 Q1016=
200908260300 METAR LPPR 260300Z 00000KT CAVOK 15/14 Q1016=
200908260230 METAR LPPR 260230Z 10005KT CAVOK 16/14 Q1016=
200908260200 METAR LPPR 260200Z 11005KT CAVOK 16/15 Q1016=
200908260130 METAR LPPR 260130Z 11004KT CAVOK 15/15 Q1016=
200908260100 METAR LPPR 260100Z 10003KT CAVOK 15/14 Q1016=
200908260030 METAR LPPR 260030Z 13002KT CAVOK 15/15 Q1016=
200908260000 METAR LPPR 260000Z 00000KT CAVOK 15/14 Q1017=
200908252330 METAR LPPR 252330Z 00000KT CAVOK 15/14 Q1017=
200908252300 METAR LPPR 252300Z 12002KT CAVOK 15/15 Q1017=
200908252230 METAR LPPR 252230Z 00000KT CAVOK 16/15 Q1017=
200908252200 METAR LPPR 252200Z 00000KT CAVOK 16/15 Q1017=
200908252130 METAR LPPR 252130Z 00000KT CAVOK 16/15 Q1017=
200908252100 METAR LPPR 252100Z 00000KT CAVOK 16/15 Q1017=
200908252030 METAR LPPR 252030Z 04003KT CAVOK 17/15 Q1017=
200908252000 METAR LPPR 252000Z 33005KT CAVOK 17/15 Q1016=
200908251930 METAR LPPR 251930Z 31005KT 250V350 CAVOK 18/15 Q1016=
200908251900 METAR LPPR 251900Z 32006KT 270V030 CAVOK 18/15 Q1016=
200908251830 METAR LPPR 251830Z 31008KT CAVOK 20/15 Q1016=
200908251800 METAR LPPR 251800Z 32010KT CAVOK 20/15 Q1016=
200908251730 METAR LPPR 251730Z 32010KT CAVOK 20/14 Q1016=
200908251700 METAR LPPR 251700Z 32011KT CAVOK 21/14 Q1016=
200908251630 METAR LPPR 251630Z 31011KT 260V340 CAVOK 21/15 Q1016=
200908251600 METAR LPPR 251600Z 32011KT 290V350 CAVOK 21/14 Q1016=
200908251530 METAR LPPR 251530Z 31012KT 270V340 CAVOK 22/14 Q1016=
200908251500 METAR LPPR 251500Z 31012KT CAVOK 22/14 Q1016=
200908251430 METAR LPPR 251430Z 31014KT CAVOK 22/14 Q1016=
200908251400 METAR LPPR 251400Z 31014KT 280V340 CAVOK 22/14 Q1016=
200908251330 METAR LPPR 251330Z 31014KT 9999 FEW017 22/14 Q1016=
200908251300 METAR LPPR 251300Z 31011KT 9999 FEW017 SCT250 21/14 Q1016=
200908251230 METAR LPPR 251230Z 30011KT 9999 FEW017 SCT250 22/13 Q1016=
200908251200 METAR LPPR 251200Z 30012KT 270V330 9999 FEW017 SCT250 21/13
                        Q1016=
200908251130 METAR LPPR 251130Z 29010KT 9999 FEW015 SCT250 21/13 Q1016=
200908251100 METAR LPPR 251100Z 27009KT 9999 FEW015 SCT250 21/13 Q1016=
200908251000 METAR LPPR 251000Z 35008KT 320V020 CAVOK 21/12 Q1016=
200908250930 METAR LPPR 250930Z 35008KT 320V020 CAVOK 20/12 Q1016=
200908250900 METAR LPPR 250900Z 35006KT CAVOK 19/13 Q1016=
200908250830 METAR LPPR 250830Z 36006KT 330V030 CAVOK 17/13 Q1016=
200908250800 METAR LPPR 250800Z 35005KT CAVOK 16/14 Q1016=
200908250730 METAR LPPR 250730Z 35003KT CAVOK 15/15 Q1016=
200908250700 METAR LPPR 250700Z VRB02KT CAVOK 14/14 Q1015=
200908250630 METAR LPPR 250630Z 36003KT CAVOK 12/12 Q1015=
200908250600 METAR LPPR 250600Z VRB03KT CAVOK 12/12 Q1015=
200908250530 METAR LPPR 250530Z 00000KT CAVOK 12/12 Q1014=
200908250500 METAR LPPR 250500Z 00000KT 8000 SKC 12/12 Q1014=
200908250430 METAR LPPR 250430Z 00000KT 3000 R17/1000V1500D R35/P1500
                        BR BCFG SCT001 13/12 Q1014=
200908250400 METAR LPPR 250400Z 00000KT 1100 R17/0800V1200U R35/1100U
                        BCFG SCT002 14/13 Q1014=
200908250330 METAR LPPR 250330Z 34003KT 0900 R17/1100VP1500 R35/1400VP1500
                        BCFG SCT002 SCT005 14/13 Q1014=
200908250300 METAR LPPR 250300Z 00000KT 5000 BR FEW250 14/13 Q1014=
200908250230 METAR LPPR 250230Z 00000KT CAVOK 14/14 Q1014=
200908250200 METAR LPPR 250200Z 31002KT CAVOK 15/14 Q1014=
200908250130 METAR LPPR 250130Z 00000KT CAVOK 15/14 Q1014=
200908250100 METAR LPPR 250100Z 00000KT CAVOK 15/15 Q1014=
200908250030 METAR LPPR 250030Z 00000KT CAVOK 15/15 Q1014=
200908250000 METAR LPPR 250000Z 33002KT 9999 SCT035 SCT100 15/14 Q1014=
200908242330 METAR LPPR 242330Z 34002KT 9999 SCT035 15/15 Q1015=
200908242300 METAR LPPR 242300Z 00000KT 9999 SCT035 16/15 Q1015=
200908242230 METAR LPPR 242230Z 00000KT 9999 FEW025 SCT045 16/15 Q1015=
200908242200 METAR LPPR 242200Z 00000KT 9999 SCT030 16/15 Q1014=
200908242130 METAR LPPR 242130Z 32003KT 9999 SCT030 16/15 Q1015=
200908242100 METAR LPPR 242100Z 30004KT 260V320 9999 FEW025 SCT035 16/15
                        Q1015=
200908242030 METAR LPPR 242030Z 31005KT 9999 SCT025 BKN200 17/15 Q1014=
200908242000 METAR LPPR 242000Z 31006KT 270V350 9999 SCT040 BKN200 17/15
                        Q1014=
200908241930 METAR LPPR 241930Z 31005KT 9999 SCT040 BKN100 17/15 Q1014=
200908241900 METAR LPPR 241900Z 32006KT 290V360 9999 SCT040 BKN100 17/15
                        Q1014=
200908241830 METAR LPPR 241830Z 31008KT 280V350 9999 SCT015 BKN035 18/14
                        Q1014=
200908241800 METAR LPPR 241800Z 34005KT 310V020 9999 SCT015 BKN030 19/14
                        Q1013=
200908241730 METAR LPPR 241730Z 33008KT 9999 SCT015 BKN020 19/14 Q1014=
200908241700 METAR LPPR 241700Z 34011KT 9999 SCT015 BKN019 18/14 Q1014=
200908241630 METAR LPPR 241630Z 32013KT 9999 FEW009 BKN015 19/15 Q1014=
200908241600 METAR LPPR 241600Z 32008KT 290V350 6000 SCT003 BKN005 18/17
                        Q1014=
200908241530 METAR LPPR 241530Z 31009KT 6000 SCT002 BKN005 18/16 Q1014=
200908241500 METAR LPPR 241500Z 23006KT 170V260 9999 SCT007 BKN013 21/18
                        Q1014=
200908241430 METAR LPPR 241430Z 23006KT 180V270 9999 BKN005 BKN013 21/18
                        Q1014=
200908241400 METAR LPPR 241400Z 23007G18KT 200V290 9999 FEW009 SCT013
                        BKN020 21/18 Q1014=
200908241330 METAR LPPR 241330Z 22008KT 200V260 9999 FEW015 BKN030 22/18
                        Q1014=
200908241300 METAR LPPR 241300Z 21006KT 180V250 9999 FEW015 BKN040 21/18
                        Q1014=
200908241230 METAR LPPR 241230Z 22008KT 190V250 9999 FEW015 BKN040 20/17
                        Q1014=
200908241200 METAR LPPR 241200Z 22007KT 170V270 8000 FEW013 BKN040 21/18
                        Q1014=
200908241130 METAR LPPR 241130Z 20007KT 120V230 8000 FEW013 BKN040 22/17
                        Q1014=
200908241100 METAR LPPR 241100Z 23007KT 200V260 8000 FEW013 BKN040 21/18
                        Q1014=
200908241030 METAR LPPR 241030Z 20005KT 140V250 5000 BR FEW013 SCT030
                        BKN250 21/18 Q1014=
200908241000 METAR LPPR 241000Z 21004KT 170V290 5000 BR FEW012 SCT020
                        BKN250 20/18 Q1014=
200908240930 METAR LPPR 240930Z 24004KT 200V280 4000 BR BKN006 BKN013
                        20/18 Q1014=
200908240900 METAR LPPR 240900Z 22004KT 180V290 4000 BR BKN006 BKN013
                        20/18 Q1014=
200908240830 METAR LPPR 240830Z VRB02KT 4000 BR BKN005 BKN009 19/18 Q1014=
200908240800 METAR LPPR 240800Z VRB03KT 3000 BR VCFG FEW002 BKN005 18/18
                        Q1014=
200908240730 METAR LPPR 240730Z 20003KT 2000 BR VCFG SCT002 BKN004 18/18
                        Q1013=
200908240700 METAR LPPR 240700Z VRB03KT 1500 BR VCFG SCT001 BKN003 18/18
                        Q1013=
200908240630 METAR LPPR 240630Z 00000KT 1200 R17/P1500 R35/P1500 BR VCFG
                        SCT001 BKN003 18/18 Q1014=
200908240600 METAR LPPR 240600Z 00000KT 1200 R17/P1500 R35/P1500 BR VCFG
                        SCT001 BKN003 17/17 Q1014=
200908240530 METAR LPPR 240530Z 00000KT 0500 R17/0900VP1500 R35/P1500
                        FG SCT000 BKN001 17/17 Q1013=
200908240500 METAR LPPR 240500Z 00000KT 0400 R17/0800VP1500 R35/P1500
                        FG SCT000 BKN001 17/17 Q1013=
200908240430 METAR LPPR 240430Z 00000KT 0500 R17/0900VP1500 R35/P1500
                        FG SCT000 BKN001 17/17 Q1013=
200908240400 METAR LPPR 240400Z 00000KT 1200 R17/P1500 R35/P1500 BR VCFG
                        SCT000 BKN001 17/17 Q1014=
200908240330 METAR LPPR 240330Z 00000KT 0900 R17/1300VP1500 R35/P1500
                        FG BKN000 BKN001 17/17 Q1013=
200908240300 METAR LPPR 240300Z 00000KT 0200 R17/P1500 R35/P1500 FG VV000
                        17/17 Q1014=
200908240230 METAR LPPR 240230Z 00000KT 0300 R17/1000N R35/1000U FG VV000
                        17/17 Q1014=
200908240200 METAR LPPR 240200Z VRB02KT 0300 R17/0900N R35/0700D FG VV000
                        17/17 Q1014=
200908240130 METAR LPPR 240130Z 00000KT 0300 R17/0900V1400U R35/0900V1500D
                        FG VV000 17/17 Q1014=
200908240100 METAR LPPR 240100Z 00000KT 0100 R17/0900D R35/0750D FG VV000
                        17/16 Q1014=
200908240030 METAR LPPR 240030Z VRB03KT 0500 R17/P1500 R35/P1500 FG BKN000
                        BKN001 17/17 Q1015=
200908240000 METAR LPPR 240000Z 00000KT 0800 R17/P1500 R35/P1500 BCFG
                        BKN000 BKN001 17/16 Q1015=
200908232330 METAR LPPR 232330Z 00000KT 4000 BR FEW001 BKN004 16/16 Q1015=
200908232300 METAR LPPR 232300Z 00000KT 7000 FEW002 SCT005 BKN250 17/16
                        Q1015=
200908232230 METAR LPPR 232230Z 31004KT 7000 SCT002 SCT005 17/16 Q1015=
200908232200 METAR LPPR 232200Z 32006KT 5000 BR BKN001 BKN003 17/17 Q1015=
200908232130 METAR LPPR 232130Z 31004KT 270V330 7000 SCT002 BKN005 17/17
                        Q1015=
200908232100 METAR LPPR 232100Z 31005KT 7000 SCT002 BKN005 18/17 Q1015=
200908232030 METAR LPPR 232030Z 32006KT 7000 FEW001 BKN004 18/17 Q1015=
200908232000 METAR LPPR 232000Z 32008KT 290V350 8000 SCT002 BKN005 18/17
                        Q1015=
200908231930 METAR LPPR 231930Z 31009KT 7000 SCT002 BKN004 18/17 Q1015=
200908231900 METAR LPPR 231900Z 32009KT 9999 SCT005 19/17 Q1015=
200908231830 METAR LPPR 231830Z 32012KT 9999 BKN005 19/17 Q1015=
200908231800 METAR LPPR 231800Z 32012KT 9999 FEW007 20/17 Q1014=
200908231730 METAR LPPR 231730Z 31010G20KT 280V340 9999 FEW009 21/17 Q1014=
200908231700 METAR LPPR 231700Z 31012KT 9999 FEW009 21/17 Q1014=
200908231630 METAR LPPR 231630Z 32012KT 9999 FEW009 21/17 Q1014=
200908231600 METAR LPPR 231600Z 30010KT 250V330 9999 FEW009 21/17 Q1014=
200908231530 METAR LPPR 231530Z 30010KT 260V340 9999 FEW009 22/17 Q1014=
200908231500 METAR LPPR 231500Z 31011KT 280V340 9999 FEW009 22/17 Q1014=
200908231430 METAR LPPR 231430Z 31011KT 260V350 9999 BKN009 22/17 Q1015=
200908231400 METAR LPPR 231400Z 31012KT 280V350 9999 BKN007 21/17 Q1015=
200908231330 METAR LPPR 231330Z 31011KT 280V350 9999 BKN007 21/17 Q1015=
200908231300 METAR LPPR 231300Z 31014KT 290V350 9999 SCT012 22/18 Q1015=
200908231230 METAR LPPR 231230Z 30010KT 270V340 9999 SCT008 21/17 Q1016=
200908231200 METAR LPPR 231200Z 24006G16KT 200V280 9999 FEW008 21/16 Q1016=
200908231130 METAR LPPR 231130Z 23007KT 170V260 8000 SCT005 SCT009 20/17
                        Q1016=
200908231100 METAR LPPR 231100Z 22007KT 180V260 8000 SCT006 SCT008 20/16
                        Q1016=
200908231030 METAR LPPR 231030Z 20009KT 8000 SCT006 BKN009 19/16 Q1016=
200908231000 METAR LPPR 231000Z 19006KT 150V210 7000 SCT006 BKN010 19/16
                        Q1015=
200908230930 METAR LPPR 230930Z 17008KT 5000 BR BKN002 BKN005 17/16 Q1015=
200908230900 METAR LPPR 230900Z 18010KT 1200 R17/P1500 R35/P1500 BR VCFG
                        BKN001 BKN003 16/16 Q1015=
200908230830 METAR LPPR 230830Z 18011KT 0400 R17/P1500 R35/0750V1000N
                        FG BKN000 BKN001 16/15 Q1015=
200908230800 METAR LPPR 230800Z 19010KT 1200 R17/P1500 R35/P1500 BR VCFG
                        SCT000 BKN001 16/15 Q1015=
200908230730 METAR LPPR 230730Z 17009KT 1500 BR VCFG SCT000 BKN002 16/15
                        Q1014=
200908230700 METAR LPPR 230700Z 17009KT 3000 BR SCT001 BKN003 16/15 Q1014=
200908230630 METAR LPPR 230630Z 19006KT 5000 BR SCT002 SCT004 16/15 Q1014=
200908230600 METAR LPPR 230600Z 18006KT 5000 BR SCT002 SCT004 16/15 Q1014=
200908230530 METAR LPPR 230530Z 19004KT CAVOK 16/15 Q1014=
200908230500 METAR LPPR 230500Z 20003KT CAVOK 16/15 Q1013=
200908230430 METAR LPPR 230430Z 19006KT CAVOK 16/15 Q1013=
200908230400 METAR LPPR 230400Z 17005KT 8000 SKC 16/15 Q1013=
200908230330 METAR LPPR 230330Z 18005KT 7000 SKC 16/15 Q1014=
200908230230 METAR LPPR 230230Z 16008KT 5000 BR FEW005 17/15 Q1014=
200908230200 METAR LPPR 230200Z 19005KT 5000 BR FEW005 17/15 Q1014=
200908230130 METAR LPPR 230130Z 18005KT 5000 BR FEW005 18/15 Q1014=
200908230100 METAR LPPR 230100Z 18004KT 5000 BR FEW005 18/15 Q1014=
200908230030 METAR LPPR 230030Z 18006KT 7000 SKC 18/16 Q1014=
200908230000 METAR LPPR 230000Z 19004KT 7000 SKC 18/16 Q1014=
200908222330 METAR LPPR 222330Z 17006KT 5000 BR FEW005 18/15 Q1014=
200908222300 METAR LPPR 222300Z 16003KT 4500NW BR FEW005 17/15 Q1014=
200908222200 METAR LPPR 222200Z 00000KT CAVOK 17/15 Q1015=
200908222130 METAR LPPR 222130Z 24002KT CAVOK 17/15 Q1015=
200908222100 METAR LPPR 222100Z 00000KT CAVOK 18/15 Q1015=
200908222000 METAR LPPR 222000Z 32005KT CAVOK 19/16 Q1015=
200908221930 METAR LPPR 221930Z 33005KT CAVOK 20/16 Q1015=
200908221900 METAR LPPR 221900Z 33009KT CAVOK 21/16 Q1015=
200908221830 METAR LPPR 221830Z 34009KT CAVOK 23/16 Q1015=
200908221800 METAR LPPR 221800Z 33009KT CAVOK 24/16 Q1016=
200908221730 METAR LPPR 221730Z 32012KT CAVOK 24/16 Q1016=
200908221700 METAR LPPR 221700Z 33013KT CAVOK 25/16 Q1016=
200908221630 METAR LPPR 221630Z 33011KT CAVOK 25/16 Q1016=
200908221600 METAR LPPR 221600Z 32012KT 280V350 CAVOK 26/16 Q1016=
200908221530 METAR LPPR 221530Z 33015KT CAVOK 26/16 Q1017=
200908221500 METAR LPPR 221500Z 33010KT 300V010 CAVOK 26/17 Q1017=
200908221430 METAR LPPR 221430Z 31008KT 280V350 CAVOK 26/17 Q1017=
200908221400 METAR LPPR 221400Z 31009KT 290V350 CAVOK 26/17 Q1018=
200908221330 METAR LPPR 221330Z 32009KT 290V350 CAVOK 27/17 Q1018=
200908221300 METAR LPPR 221300Z 30009KT 270V340 CAVOK 26/17 Q1018=
200908221230 METAR LPPR 221230Z 32009KT 290V350 CAVOK 27/17 Q1019=
200908221200 METAR LPPR 221200Z 31008KT 270V360 CAVOK 26/17 Q1019=
200908221130 METAR LPPR 221130Z 31008KT CAVOK 25/17 Q1019=
200908221100 METAR LPPR 221100Z 30007KT 270V330 CAVOK 25/16 Q1019=
200908221030 METAR LPPR 221030Z 32007KT 280V340 CAVOK 24/16 Q1020=
200908221000 METAR LPPR 221000Z 33006KT 270V020 CAVOK 24/15 Q1020=
200908220930 METAR LPPR 220930Z 01006KT 340V040 CAVOK 23/13 Q1020=
200908220900 METAR LPPR 220900Z 34006KT 310V030 CAVOK 22/14 Q1020=
200908220830 METAR LPPR 220830Z 35004KT 320V020 CAVOK 21/14 Q1020=
200908220800 METAR LPPR 220800Z 34004KT CAVOK 19/13 Q1020=
200908220730 METAR LPPR 220730Z 35003KT CAVOK 18/14 Q1020=
200908220700 METAR LPPR 220700Z 00000KT CAVOK 15/13 Q1020=
200908220630 METAR LPPR 220630Z VRB02KT CAVOK 14/12 Q1020=
200908220600 METAR LPPR 220600Z 00000KT CAVOK 14/12 Q1020=
200908220530 METAR LPPR 220530Z 00000KT CAVOK 14/12 Q1020=
200908220500 METAR LPPR 220500Z 34003KT CAVOK 14/12 Q1020=
200908220430 METAR LPPR 220430Z 00000KT CAVOK 14/12 Q1020=
200908220400 METAR LPPR 220400Z 35002KT CAVOK 15/12 Q1020=
200908220330 METAR LPPR 220330Z 00000KT CAVOK 15/12 Q1020=
200908220300 METAR LPPR 220300Z 00000KT CAVOK 15/12 Q1020=
200908220230 METAR LPPR 220230Z 02003KT CAVOK 15/12 Q1021=
200908220200 METAR LPPR 220200Z 34003KT CAVOK 15/12 Q1021=
200908220130 METAR LPPR 220130Z 00000KT CAVOK 16/12 Q1021=
200908220100 METAR LPPR 220100Z 33003KT CAVOK 15/12 Q1021=
200908220030 METAR LPPR 220030Z 00000KT CAVOK 16/12 Q1021=
200908220000 METAR LPPR 220000Z 00000KT CAVOK 16/12 Q1022=
200908212330 METAR LPPR 212330Z VRB03KT CAVOK 16/12 Q1021=
200908212300 METAR LPPR 212300Z 34007KT CAVOK 17/12 Q1022=
200908212230 METAR LPPR 212230Z 34006KT CAVOK 17/12 Q1022=
200908212200 METAR LPPR 212200Z 33010KT CAVOK 18/12 Q1022=
200908212130 METAR LPPR 212130Z 33005KT CAVOK 17/12 Q1022=
200908212100 METAR LPPR 212100Z 33009KT CAVOK 18/13 Q1022=
200908212030 METAR LPPR 212030Z 33012KT CAVOK 18/12 Q1022=
200908212000 METAR LPPR 212000Z 33015KT CAVOK 18/12 Q1021=
200908211930 METAR LPPR 211930Z 33015KT CAVOK 19/12 Q1021=
200908211900 METAR LPPR 211900Z 33015KT CAVOK 20/12 Q1021=
200908211830 METAR LPPR 211830Z 33017KT CAVOK 20/12 Q1021=
200908211800 METAR LPPR 211800Z 33016KT CAVOK 21/12 Q1021=
200908211730 METAR LPPR 211730Z 33017KT CAVOK 21/12 Q1021=
200908211700 METAR LPPR 211700Z 34018KT CAVOK 22/12 Q1022=
200908211630 METAR LPPR 211630Z 33016KT CAVOK 22/14 Q1022=
200908211600 METAR LPPR 211600Z 33018KT CAVOK 22/14 Q1022=
200908211530 METAR LPPR 211530Z 33016KT CAVOK 23/14 Q1022=
200908211500 METAR LPPR 211500Z 33015KT CAVOK 23/14 Q1022=
200908211430 METAR LPPR 211430Z 32013KT 290V350 CAVOK 23/14 Q1022=
200908211400 METAR LPPR 211400Z 32011KT CAVOK 24/15 Q1022=
200908211330 METAR LPPR 211330Z 31013KT CAVOK 23/15 Q1023=
200908211300 METAR LPPR 211300Z 32010KT CAVOK 23/15 Q1023=
200908211230 METAR LPPR 211230Z 29010KT 270V330 CAVOK 23/15 Q1023=
200908211200 METAR LPPR 211200Z 31009KT 280V340 CAVOK 23/15 Q1023=
200908211130 METAR LPPR 211130Z 32010KT CAVOK 23/15 Q1023=
200908211100 METAR LPPR 211100Z 30009KT CAVOK 22/15 Q1023=
200908211030 METAR LPPR 211030Z 29008KT 250V320 CAVOK 22/15 Q1023=
200908211000 METAR LPPR 211000Z 34005KT 290V050 CAVOK 22/14 Q1023=
200908210930 METAR LPPR 210930Z 01004KT 320V050 CAVOK 21/14 Q1023=
200908210900 METAR LPPR 210900Z 35004KT 280V030 CAVOK 20/15 Q1023=
200908210830 METAR LPPR 210830Z 33006KT 300V010 CAVOK 19/14 Q1023=
200908210800 METAR LPPR 210800Z 34006KT CAVOK 18/15 Q1023=
200908210730 METAR LPPR 210730Z 33007KT CAVOK 16/15 Q1023=
200908210700 METAR LPPR 210700Z 00000KT CAVOK 14/14 Q1023=
200908210630 METAR LPPR 210630Z 36003KT CAVOK 13/13 Q1022=
200908210600 METAR LPPR 210600Z 34004KT CAVOK 13/12 Q1022=
200908210530 METAR LPPR 210530Z 35003KT CAVOK 13/13 Q1022=
200908210500 METAR LPPR 210500Z 00000KT CAVOK 13/13 Q1022=
200908210430 METAR LPPR 210430Z VRB02KT CAVOK 13/13 Q1023=
200908210400 METAR LPPR 210400Z 34003KT CAVOK 13/13 Q1022=
200908210330 METAR LPPR 210330Z VRB02KT CAVOK 14/13 Q1022=
200908210300 METAR LPPR 210300Z 00000KT CAVOK 14/13 Q1022=
200908210230 METAR LPPR 210230Z 00000KT CAVOK 14/14 Q1023=
200908210200 METAR LPPR 210200Z 00000KT CAVOK 14/14 Q1023=
200908210130 METAR LPPR 210130Z 33002KT CAVOK 15/14 Q1023=
200908210100 METAR LPPR 210100Z 00000KT CAVOK 15/14 Q1023=
200908210030 METAR LPPR 210030Z VRB02KT CAVOK 15/14 Q1023=
200908210000 METAR LPPR 210000Z 34003KT CAVOK 15/14 Q1023=
200908202330 METAR LPPR 202330Z 35003KT CAVOK 15/14 Q1023=
200908202300 METAR LPPR 202300Z 34004KT CAVOK 15/14 Q1023=
200908202230 METAR LPPR 202230Z 35005KT CAVOK 16/14 Q1023=
200908202200 METAR LPPR 202200Z 34006KT CAVOK 16/14 Q1023=
200908202130 METAR LPPR 202130Z 34005KT 320V020 CAVOK 16/14 Q1023=
200908202100 METAR LPPR 202100Z 35006KT CAVOK 16/14 Q1023=
200908202000 METAR LPPR 202000Z 33011KT CAVOK 18/15 Q1023=
200908201930 METAR LPPR 201930Z 34011KT CAVOK 19/15 Q1023=
200908201900 METAR LPPR 201900Z 33012KT 9999 FEW018 20/15 Q1023=
200908201830 METAR LPPR 201830Z 33013KT 9999 FEW018 21/16 Q1022=
200908201800 METAR LPPR 201800Z 32009KT 290V350 9999 FEW018 21/16 Q1022=
200908201700 METAR LPPR 201700Z 32011KT 9999 FEW015 22/17 Q1022=
200908201630 METAR LPPR 201630Z 32013KT 9999 FEW015 22/17 Q1023=
200908201600 METAR LPPR 201600Z 32009KT 280V350 9999 FEW015 24/18 Q1022=
200908201530 METAR LPPR 201530Z 31011KT 270V340 9999 FEW015 24/17 Q1023=
200908201500 METAR LPPR 201500Z 32012KT 9999 FEW015 SCT060 24/17 Q1023=
200908201430 METAR LPPR 201430Z 33011KT 9999 FEW015 SCT040 24/18 Q1023=
200908201400 METAR LPPR 201400Z 32009KT 290V350 9999 FEW015 SCT035 24/19
                        Q1023=
200908201330 METAR LPPR 201330Z 32012KT 290V350 9999 SCT006 SCT010 23/18
                        Q1023=
200908201300 METAR LPPR 201300Z 32010KT 270V350 9999 FEW006 SCT025 23/19
                        Q1023=
200908201230 METAR LPPR 201230Z 31010KT 280V350 8000 SCT004 BKN006 22/19
                        Q1023=
200908201200 METAR LPPR 201200Z 28008KT 240V320 9999 FEW015 BKN035 24/20
                        Q1023=
200908201130 METAR LPPR 201130Z 27007KT 240V300 9999 FEW015 BKN025 24/20
                        Q1022=
200908201100 METAR LPPR 201100Z 27007KT 240V300 9999 FEW015 SCT020 24/19
                        Q1022=
200908201030 METAR LPPR 201030Z 26006KT 210V330 9999 FEW015 SCT020 24/19
                        Q1022=
200908201000 METAR LPPR 201000Z 23004KT 160V310 9999 SCT015 24/20 Q1022=
200908200930 METAR LPPR 200930Z VRB02KT 9999 SCT015 24/19 Q1022=
200908200900 METAR LPPR 200900Z VRB03KT 9999 FEW015 SCT025 22/20 Q1022=
200908200830 METAR LPPR 200830Z VRB03KT 9999 FEW015 BKN020 22/19 Q1021=
200908200800 METAR LPPR 200800Z 00000KT 9999 FEW015 BKN020 22/19 Q1021=
200908200730 METAR LPPR 200730Z 12004KT 100V160 9999 FEW015 SCT020 21/19
                        Q1021=
200908200700 METAR LPPR 200700Z VRB03KT 9999 SCT016 BKN040 20/18 Q1021=
200908200630 METAR LPPR 200630Z 12005KT 9999 SCT020 BKN035 20/18 Q1020=
200908200600 METAR LPPR 200600Z 00000KT 9999 SCT020 BKN035 20/18 Q1020=
200908200530 METAR LPPR 200530Z 12006KT 9999 FEW007 BKN025 20/18 Q1020=
200908200500 METAR LPPR 200500Z 12005KT 9999 FEW007 BKN035 20/19 Q1020=
200908200430 METAR LPPR 200430Z 12005KT 9999 FEW007 BKN030 20/19 Q1020=
200908200400 METAR LPPR 200400Z 10006KT 9999 FEW007 BKN030 20/19 Q1020=
200908200330 METAR LPPR 200330Z VRB03KT 9999 SCT007 BKN015 20/19 Q1020=
200908200300 METAR LPPR 200300Z 10003KT 8000 SCT005 BKN008 19/19 Q1020=
200908200230 METAR LPPR 200230Z 00000KT 7000 SCT003 BKN006 19/19 Q1020=
200908200200 METAR LPPR 200200Z 00000KT 7000 SCT002 BKN005 19/19 Q1020=
200908200130 METAR LPPR 200130Z 00000KT 7000 SCT002 BKN005 19/19 Q1020=
200908200100 METAR LPPR 200100Z 00000KT 7000 SCT002 BKN005 19/18 Q1020=
200908200030 METAR LPPR 200030Z 00000KT 7000 SCT003 BKN005 18/18 Q1020=
200908200000 METAR LPPR 200000Z VRB02KT 7000 SCT004 SCT006 18/18 Q1020=
200908192330 METAR LPPR 192330Z 11003KT 7000 SCT006 18/18 Q1020=
200908192300 METAR LPPR 192300Z 00000KT 7000 SCT006 18/18 Q1020=
200908192230 METAR LPPR 192230Z 00000KT 8000 SCT004 SCT007 18/18 Q1020=
200908192200 METAR LPPR 192200Z 00000KT 7000 SCT003 BKN005 19/18 Q1020=
200908192130 METAR LPPR 192130Z VRB02KT 7000 SCT002 BKN004 19/18 Q1020=
200908192100 METAR LPPR 192100Z 00000KT 7000 SCT002 BKN004 19/18 Q1020=
200908192030 METAR LPPR 192030Z 00000KT 6000 SCT002 BKN004 19/18 Q1019=
200908192000 METAR LPPR 192000Z 32004KT 290V350 3000 BR SCT001 BKN003
                        19/18 Q1019=
200908191930 METAR LPPR 191930Z 27004KT 250V310 6000 SCT002 BKN004 19/18
                        Q1019=
200908191900 METAR LPPR 191900Z VRB03KT 9999 SCT008 20/18 Q1019=
200908191830 METAR LPPR 191830Z 29005KT 260V350 9999 SCT008 21/18 Q1019=
200908191800 METAR LPPR 191800Z 28005KT 240V330 9999 FEW008 21/18 Q1019=
200908191730 METAR LPPR 191730Z 28006KT 250V350 9999 FEW008 22/18 Q1019=
200908191700 METAR LPPR 191700Z 28006KT CAVOK 21/18 Q1019=
200908191630 METAR LPPR 191630Z 29007G17KT 240V330 9999 FEW008 22/18 Q1019=
200908191600 METAR LPPR 191600Z 28007KT 240V320 CAVOK 22/18 Q1019=
200908191530 METAR LPPR 191530Z 29007KT 250V340 CAVOK 23/18 Q1019=
200908191500 METAR LPPR 191500Z 29008KT 260V330 9999 FEW009 23/18 Q1020=
200908191430 METAR LPPR 191430Z 32008KT 270V350 9999 FEW009 23/18 Q1020=
200908191400 METAR LPPR 191400Z 31007KT 260V350 9999 SCT006 SCT009 21/18
                        Q1020=
200908191330 METAR LPPR 191330Z 33010KT 9999 SCT006 BKN009 21/18 Q1020=
200908191300 METAR LPPR 191300Z 32009KT 280V350 8000 SCT006 BKN008 21/18
                        Q1020=
200908191230 METAR LPPR 191230Z 31006KT 260V360 8000 SCT007 SCT013 21/18
                        Q1020=
200908191200 METAR LPPR 191200Z 28006KT 200V350 5000 BR SCT005 BKN007
                        21/17 Q1020=
200908191130 METAR LPPR 191130Z 28006KT 250V320 4000 BR SCT004 BKN007
                        20/17 Q1020=
200908191100 METAR LPPR 191100Z 30006KT 250V330 4000 BR SCT004 BKN007
                        20/17 Q1020=
200908191030 METAR LPPR 191030Z 29006KT 250V330 3000 BR SCT003 BKN006
                        19/17 Q1020=
200908191000 METAR LPPR 191000Z VRB02KT 2500 BR SCT002 BKN005 19/17 Q1020=
200908190930 METAR LPPR 190930Z VRB03KT 2000 BR SCT002 BKN004 18/17 Q1019=
200908190900 METAR LPPR 190900Z VRB03KT 2000 BR SCT001 BKN003 17/17 Q1019=
200908190830 METAR LPPR 190830Z VRB03KT 2000 BR SCT001 BKN003 17/16 Q1019=
200908190800 METAR LPPR 190800Z 30005KT 250V330 2000 BR SCT001 BKN003
                        17/16 Q1019=
200908190730 METAR LPPR 190730Z VRB03KT 2500 BR SCT002 BKN005 17/17 Q1019=
200908190700 METAR LPPR 190700Z VRB03KT 2500 BR SCT002 BKN005 17/16 Q1019=
200908190630 METAR LPPR 190630Z VRB03KT 2000 BR SCT002 BKN005 17/16 Q1018=
200908190600 METAR LPPR 190600Z 28004KT 2000 BR BKN003 BKN005 17/16 Q1018=
200908190530 METAR LPPR 190530Z VRB03KT 2000 BR BKN002 BKN005 17/17 Q1018=
200908190500 METAR LPPR 190500Z 00000KT 2000 BR BKN001 BKN003 17/16 Q1018=
200908190430 METAR LPPR 190430Z 00000KT 2000 BR BKN001 BKN003 17/16 Q1018=
200908190400 METAR LPPR 190400Z 00000KT 2000 BR BKN001 BKN004 17/16 Q1018=
200908190330 METAR LPPR 190330Z VRB03KT 2500 BR SCT001 SCT002 BKN004 17/16
                        Q1018=
200908190300 METAR LPPR 190300Z VRB03KT 2500 BR BKN002 BKN003 17/17 Q1018=
200908190230 METAR LPPR 190230Z 00000KT 2500 BR BKN002 BKN003 17/17 Q1018=
200908190200 METAR LPPR 190200Z 00000KT 2000 BR VCFG SCT001 BKN002 17/17
                        Q1018=
200908190130 METAR LPPR 190130Z 00000KT 2000 BR VCFG SCT001 BKN002 17/17
                        Q1019=
200908190100 METAR LPPR 190100Z 34003KT 1500 BR VCFG SCT001 BKN002 17/17
                        Q1019=
200908190030 METAR LPPR 190030Z 32003KT 3000NW BR VCFG SCT001 BKN002 17/17
                        Q1019=
200908190000 METAR LPPR 190000Z 32005KT 280V340 3000NW BR VCFG SCT001
                        BKN002 18/17 Q1019=
200908182330 METAR LPPR 182330Z 32006KT 290V360 3000NW BR VCFG SCT001
                        BKN002 18/17 Q1019=
200908182300 METAR LPPR 182300Z 32005KT 280V340 3000NW BR SCT002 SCT004
                        BKN006 18/17 Q1019=
200908182230 METAR LPPR 182230Z 32006KT 5000 BR SCT001 BKN003 18/17 Q1019=
200908182200 METAR LPPR 182200Z 32007KT 5000 BR SCT002 BKN003 18/17 Q1019=
200908182130 METAR LPPR 182130Z 33007KT 5000 BR SCT001 BKN003 18/18 Q1019=
200908182100 METAR LPPR 182100Z 33007KT 280V350 5000 BR SCT001 BKN003
                        18/18 Q1019=
200908182030 METAR LPPR 182030Z 33006KT 300V010 5000 BR SCT001 BKN003
                        18/18 Q1018=
200908182000 METAR LPPR 182000Z 32006KT 7000 FEW002 BKN004 18/17 Q1018=
200908181930 METAR LPPR 181930Z 32007KT 290V350 7000 FEW003 BKN005 18/17
                        Q1018=
200908181900 METAR LPPR 181900Z 31007KT 280V350 7000 SCT005 19/17 Q1018=
200908181830 METAR LPPR 181830Z 32007KT 290V350 7000 SCT007 20/18 Q1017=
200908181800 METAR LPPR 181800Z 31009KT 5000 BR SCT005 21/18 Q1017=
200908181730 METAR LPPR 181730Z 32010KT 7000 FEW008 21/18 Q1017=
200908181700 METAR LPPR 181700Z 33011KT 7000 FEW008 22/17 Q1017=
200908181630 METAR LPPR 181630Z 33014KT 290V350 7000 FEW008 22/18 Q1017=
200908181600 METAR LPPR 181600Z 31012KT CAVOK 22/18 Q1017=
200908181530 METAR LPPR 181530Z 32011KT 280V340 CAVOK 23/18 Q1017=
200908181500 METAR LPPR 181500Z 32012KT CAVOK 23/18 Q1018=
200908181430 METAR LPPR 181430Z 32012KT 280V340 CAVOK 23/18 Q1018=
200908181400 METAR LPPR 181400Z 31010KT 270V330 CAVOK 23/18 Q1018=
200908181330 METAR LPPR 181330Z 31010KT 260V350 CAVOK 23/18 Q1018=
200908181300 METAR LPPR 181300Z 30011KT 270V330 CAVOK 23/18 Q1018=
200908181230 METAR LPPR 181230Z 32009KT 280V350 CAVOK 23/18 Q1018=
200908181200 METAR LPPR 181200Z 31010KT 7000 FEW008 21/17 Q1018=
200908181130 METAR LPPR 181130Z 29007KT 260V320 7000 FEW008 21/17 Q1018=
200908181100 METAR LPPR 181100Z 26007KT 7000 FEW008 21/17 Q1018=
200908181030 METAR LPPR 181030Z 26005KT 230V290 8000 SKC 22/18 Q1018=
200908181000 METAR LPPR 181000Z VRB03KT 7000 SKC 21/18 Q1018=
200908180930 METAR LPPR 180930Z 22005KT 160V260 5000 BR VCFG FEW008 20/18
                        Q1018=
200908180900 METAR LPPR 180900Z VRB03KT 2000N BR VCFG FEW008 19/17 Q1017=
200908180830 METAR LPPR 180830Z VRB03KT 6000 FEW008 19/17 Q1017=
200908180800 METAR LPPR 180800Z VRB03KT 8000 SKC 18/17 Q1017=
200908180730 METAR LPPR 180730Z 00000KT 8000 SKC 18/18 Q1017=
200908180700 METAR LPPR 180700Z 00000KT 8000 SKC 16/16 Q1017=
200908180630 METAR LPPR 180630Z 00000KT 4000 BR FEW080 14/14 Q1016=
200908180600 METAR LPPR 180600Z 00000KT 4000 BR FEW080 14/14 Q1016=
200908180530 METAR LPPR 180530Z VRB02KT 8000 FEW080 13/13 Q1016=
200908180500 METAR LPPR 180500Z 00000KT 8000 SKC 14/14 Q1016=
200908180430 METAR LPPR 180430Z 00000KT 8000 SKC 14/14 Q1016=
200908180400 METAR LPPR 180400Z 00000KT 8000 SKC 14/14 Q1016=
200908180330 METAR LPPR 180330Z 00000KT 8000 SKC 14/14 Q1016=
200908180300 METAR LPPR 180300Z 00000KT 8000 SKC 14/14 Q1016=
200908180230 METAR LPPR 180230Z 35003KT 8000 SKC 14/14 Q1016=
200908180200 METAR LPPR 180200Z 00000KT 9000 SKC 15/14 Q1017=
200908180130 METAR LPPR 180130Z 00000KT 9000 SKC 15/15 Q1017=
200908180100 METAR LPPR 180100Z 00000KT 9000 FEW009 15/15 Q1017=
200908180030 METAR LPPR 180030Z 00000KT CAVOK 16/15 Q1017=
200908180000 METAR LPPR 180000Z 00000KT CAVOK 16/15 Q1017=
200908172330 METAR LPPR 172330Z 35003KT CAVOK 16/15 Q1017=
200908172300 METAR LPPR 172300Z 31005KT CAVOK 16/16 Q1017=
200908172230 METAR LPPR 172230Z VRB02KT CAVOK 16/16 Q1017=
200908172200 METAR LPPR 172200Z 35006KT CAVOK 16/16 Q1018=
200908172130 METAR LPPR 172130Z 33006KT CAVOK 17/16 Q1017=
200908172100 METAR LPPR 172100Z 33007KT CAVOK 17/16 Q1017=
200908172030 METAR LPPR 172030Z 34008KT CAVOK 17/16 Q1017=
200908172000 METAR LPPR 172000Z 33008KT CAVOK 18/16 Q1017=
200908171930 METAR LPPR 171930Z 32007KT CAVOK 18/16 Q1017=
200908171900 METAR LPPR 171900Z 31007KT 280V360 CAVOK 20/17 Q1017=
200908171830 METAR LPPR 171830Z 32007KT CAVOK 21/17 Q1017=
200908171800 METAR LPPR 171800Z 32008KT CAVOK 22/17 Q1017=
200908171730 METAR LPPR 171730Z 31009KT 290V350 CAVOK 22/17 Q1017=
200908171700 METAR LPPR 171700Z 31011G22KT 270V340 CAVOK 23/18 Q1017=
200908171630 METAR LPPR 171630Z 32011KT 290V350 CAVOK 23/18 Q1017=
200908171600 METAR LPPR 171600Z 32012KT CAVOK 23/18 Q1017=
200908171530 METAR LPPR 171530Z 32013KT CAVOK 23/17 Q1017=
200908171500 METAR LPPR 171500Z 31010KT 280V340 8000 SKC 22/18 Q1018=
200908171430 METAR LPPR 171430Z 31010KT 280V340 6000 SCT004 22/18 Q1018=
200908171400 METAR LPPR 171400Z 31008KT 280V340 5000 BR SCT004 SCT006
                        21/18 Q1018=
200908171330 METAR LPPR 171330Z 30008KT 250V040 4000 BR SCT004 BKN006
                        21/18 Q1018=
200908171300 METAR LPPR 171300Z 30006KT 250V330 5000 BR SCT005 21/18 Q1018=
200908171230 METAR LPPR 171230Z 30006KT 240V330 4000 BR BKN006 21/18 Q1018=
200908171200 METAR LPPR 171200Z 28006KT 260V350 3000 BR BKN003 BKN005
                        21/18 Q1019=
200908171130 METAR LPPR 171130Z 29006KT 250V320 3000 BR SCT004 BKN006
                        20/18 Q1019=
200908171100 METAR LPPR 171100Z 00000KT 3000 BR SCT005 BKN007 21/18 Q1019=
200908171030 METAR LPPR 171030Z 00000KT 2000 BR SCT002 BKN004 19/18 Q1019=
200908171000 METAR LPPR 171000Z 00000KT 2000 BR SCT001 BKN003 19/18 Q1019=
200908170930 METAR LPPR 170930Z VRB02KT 1500 BR BKN001 BKN002 18/18 Q1019=
200908170900 METAR LPPR 170900Z VRB02KT 1500 BR BKN001 BKN002 18/18 Q1019=
200908170830 METAR LPPR 170830Z VRB02KT 1500 BR BKN001 BKN002 18/18 Q1018=
200908170800 METAR LPPR 170800Z 00000KT 1500 BR BKN001 BKN003 17/17 Q1018=
200908170730 METAR LPPR 170730Z 36004KT 330V040 1500 BR BKN001 BKN003
                        17/17 Q1018=
200908170700 METAR LPPR 170700Z 02004KT 330V050 2000 BR BKN003 BKN005
                        17/17 Q1018=
200908170630 METAR LPPR 170630Z 35004KT 320V030 2000 BR BKN003 BKN005
                        17/17 Q1018=
200908170600 METAR LPPR 170600Z VRB03KT 2000 BR BKN003 BKN005 18/18 Q1018=
200908170530 METAR LPPR 170530Z VRB03KT 1500 BR BKN002 BKN004 18/18 Q1018=
200908170500 METAR LPPR 170500Z 34003KT 0800 R17/P1500 R35/1400U FG VV001
                        18/18 Q1018=
200908170430 METAR LPPR 170430Z 32002KT 0800 R17/P1500 R35/P1500 FG VV001
                        18/18 Q1018=
200908170400 METAR LPPR 170400Z 00000KT 0600 R17/P1500 R35/1500N FG VV001
                        18/18 Q1018=
200908170330 METAR LPPR 170330Z VRB02KT 0600 R17/P1500 R35/0900VP1500
                        FG BKN000 BKN002 18/18 Q1018=
200908170300 METAR LPPR 170300Z 19003KT 0500 R17/1500N R35/0750V1000N
                        FG BKN000 BKN001 18/18 Q1018=
200908170230 METAR LPPR 170230Z 20003KT 1500 BR VCFG SCT000 BKN001 18/18
                        Q1018=
200908170200 METAR LPPR 170200Z 00000KT 1500 BR VCFG SCT000 BKN002 17/17
                        Q1018=
200908170130 METAR LPPR 170130Z 00000KT 0800 R17/P1500 R35/0900VP1500
                        FG SCT000 BKN001 17/17 Q1018=
200908170100 METAR LPPR 170100Z VRB03KT 1500 BR VCFG SCT000 BKN001 17/17
                        Q1019=
200908170030 METAR LPPR 170030Z VRB03KT 0300 R17/1000D R35/0750V1100N
                        FG SCT000 BKN001 18/18 Q1019=
200908170000 METAR LPPR 170000Z 00000KT 0400 R17/1400U R35/0600V1500N
                        FG SCT000 BKN001 18/18 Q1019=
200908162330 METAR LPPR 162330Z 30004KT 270V330 0500 R17/P1500 R35/1100VP1500
                        FG SCT000 BKN001 18/18 Q1019=
200908162300 METAR LPPR 162300Z 30003KT 0700 R17/P1500 R35/1400N FG SCT000
                        BKN001 18/18 Q1019=
200908162230 METAR LPPR 162230Z 31004KT 0900 R17/P1500 R35/0900VP1500
                        FG BKN001 BKN002 18/18 Q1019=
200908162200 METAR LPPR 162200Z 32005KT 1500 BR VCFG BKN001 BKN002 18/18
                        Q1019=
200908162130 METAR LPPR 162130Z 32007KT 280V020 1500 BR VCFG BKN001 BKN002
                        18/18 Q1019=
200908162100 METAR LPPR 162100Z 32006KT 2000 BR VCFG BKN001 BKN003 18/18
                        Q1019=
200908162030 METAR LPPR 162030Z 32007KT 2000 BR VCFG BKN001 BKN003 18/18
                        Q1019=
200908162000 METAR LPPR 162000Z 31005KT 2500 BR VCFG BKN002 BKN004 19/18
                        Q1018=
200908161930 METAR LPPR 161930Z 31006KT 2500 BR VCFG SCT003 19/18 Q1018=
200908161900 METAR LPPR 161900Z 30006KT 270V330 4000 BR VCFG FEW005 19/18
                        Q1018=
200908161830 METAR LPPR 161830Z 31007KT 6000 FEW004 20/18 Q1017=
200908161800 METAR LPPR 161800Z 32009KT 280V360 7000 FEW004 21/18 Q1017=
200908161730 METAR LPPR 161730Z 30009KT 270V330 7000 FEW004 21/19 Q1017=
200908161700 METAR LPPR 161700Z 30009KT 8000 FEW004 22/19 Q1017=
200908161630 METAR LPPR 161630Z 31009KT 280V350 8000 FEW004 22/18 Q1018=
200908161600 METAR LPPR 161600Z 30010G21KT 8000 FEW250 22/18 Q1018=
200908161530 METAR LPPR 161530Z 30009KT 270V330 8000 FEW250 23/19 Q1018=
200908161500 METAR LPPR 161500Z 29008KT 260V330 8000 FEW250 22/18 Q1018=
200908161430 METAR LPPR 161430Z 31009KT 6000 FEW005 22/18 Q1018=
200908161400 METAR LPPR 161400Z 30005KT 260V350 5000 BR SCT004 21/18 Q1018=
200908161330 METAR LPPR 161330Z 29006KT 250V340 2000 BR VCFG BKN002 BKN004
                        20/18 Q1019=
200908161300 METAR LPPR 161300Z 28007KT 230V320 1500 BR VCFG BKN002 BKN004
                        20/18 Q1019=
200908161230 METAR LPPR 161230Z 25007KT 200V290 6000 FEW002 SCT005 21/18
                        Q1019=
200908161200 METAR LPPR 161200Z 21005KT 160V250 6000 FEW005 22/18 Q1018=
200908161130 METAR LPPR 161130Z 22005KT 170V280 5000 BR FEW004 21/18 Q1018=
200908161100 METAR LPPR 161100Z 25004KT 230V310 5000 BR SCT004 21/18 Q1018=
200908161030 METAR LPPR 161030Z 25005KT 210V300 3000 BR VCFG SCT003 20/18
                        Q1018=
200908161000 METAR LPPR 161000Z 26005KT 220V300 3000 BR VCFG SCT003 20/18
                        Q1018=
200908160930 METAR LPPR 160930Z VRB04KT 4000 BR VCFG SCT004 20/18 Q1018=
200908160900 METAR LPPR 160900Z 26004KT 210V310 3000 BR VCFG SCT003 BKN005
                        20/19 Q1018=
200908160830 METAR LPPR 160830Z VRB03KT 2500 BR VCFG SCT002 BKN004 19/19
                        Q1018=
200908160800 METAR LPPR 160800Z VRB03KT 2000 BR VCFG BKN001 BKN003 18/18
                        Q1018=
200908160730 METAR LPPR 160730Z VRB02KT 1100 R17/P1500 R35/P1500 BR VCFG
                        BKN000 BKN001 17/17 Q1018=
200908160700 METAR LPPR 160700Z 00000KT 0400 R17/1000N R35/0750V1000N
                        FG VV000 17/17 Q1018=
200908160630 METAR LPPR 160630Z 00000KT 0500 R17/0800V1000U R35/0900V1400U
                        FG VV000 17/17 Q1017=
200908160600 METAR LPPR 160600Z 00000KT 0600 R17/0900N R35/0800V1100N
                        FG VV001 17/17 Q1017=
200908160530 METAR LPPR 160530Z 26003KT 0200 R17/0900V1200N R35/0800V1300U
                        FG VV000 17/17 Q1017=
200908160500 METAR LPPR 160500Z 00000KT 0100 R17/0600N R35/0600N FG VV000
                        17/17 Q1017=
200908160430 METAR LPPR 160430Z 31003KT 0100 R17/0450N R35/0450V0550N
                        FG VV000 17/17 Q1017=
200908160400 METAR LPPR 160400Z VRB03KT 0100 R17/0500V0900U R35/0400V0700N
                        FG VV000 17/17 Q1017=
200908160330 METAR COR LPPR 160330Z 28002KT 0100 R17/0500N R35/0700V0500N
                        FG VV000 17/17 Q1017=
200908160300 METAR LPPR 160300Z 00000KT 0500 R17/0600N R35/0900V1500N
                        FG BKN000 BKN001 17/17 Q1017=
200908160230 METAR LPPR 160230Z 00000KT 0800 R17/0900V1000U R35/1400N
                        FG SCT000 BKN001 17/17 Q1017=
200908160200 METAR LPPR 160200Z 00000KT 0800 R17/0800VP1500 R35/P1500
                        BCFG SCT000 BKN001 17/17 Q1017=
200908160130 METAR LPPR 160130Z 00000KT 2000 BR BKN001 BKN002 18/17 Q1017=
200908160100 METAR LPPR 160100Z 00000KT 3000 BR SCT001 BKN003 18/18 Q1017=
200908160030 METAR LPPR 160030Z 00000KT 3000 BR SCT001 BKN003 18/17 Q1017=
200908160000 METAR LPPR 160000Z 00000KT 2500 BR VCFG BKN001 BKN003 18/17
                        Q1017=
200908152330 METAR LPPR 152330Z 33004KT 3000 BR SCT001 BKN003 18/18 Q1017=
200908152300 METAR LPPR 152300Z 32006KT 4000 BR FEW001 BKN004 18/17 Q1017=
200908152230 METAR LPPR 152230Z 32004KT 7000 FEW003 BKN005 18/17 Q1017=
200908152200 METAR LPPR 152200Z VRB03KT 7000 BKN005 18/17 Q1018=
200908152130 METAR LPPR 152130Z VRB03KT 6000 SCT003 BKN004 18/18 Q1018=
200908152100 METAR LPPR 152100Z VRB03KT 6000 SCT003 18/18 Q1018=
200908152030 METAR LPPR 152030Z 27004KT 7000 FEW003 19/18 Q1017=
200908152000 METAR LPPR 152000Z VRB03KT 6000 FEW003 SCT004 19/18 Q1017=
200908151930 METAR LPPR 151930Z 32007KT 280V340 6000 SCT004 BKN006 19/18
                        Q1016=
200908151900 METAR LPPR 151900Z 32006KT 280V340 7000 FEW004 SCT006 20/18
                        Q1016=
200908151830 METAR LPPR 151830Z 31007KT 270V340 7000 FEW007 21/18 Q1016=
200908151800 METAR LPPR 151800Z 31007KT 7000 FEW007 21/18 Q1016=
200908151730 METAR LPPR 151730Z 30009KT 7000 FEW020 22/18 Q1015=
200908151700 METAR LPPR 151700Z 30007KT 7000 FEW020 23/19 Q1016=
200908151630 METAR LPPR 151630Z VRB03KT 7000 FEW017 23/19 Q1016=
200908151600 METAR LPPR 151600Z 30008KT 260V340 6000 FEW007 22/19 Q1016=
200908151530 METAR LPPR 151530Z 31010KT 6000 FEW006 22/19 Q1015=
200908151500 METAR LPPR 151500Z 32009KT 3000 BR VCFG SCT002 BKN003 20/18
                        Q1016=
200908151430 METAR LPPR 151430Z 31009KT 270V340 2000 BR VCFG SCT001 BKN002
                        20/18 Q1016=
200908151400 METAR LPPR 151400Z 31009KT 280V340 2000 BR VCFG SCT001 BKN002
                        20/18 Q1016=
200908151330 METAR LPPR 151330Z 30008KT 2000 BR VCFG SCT001 BKN003 20/18
                        Q1016=
200908151300 METAR LPPR 151300Z 31009KT 2000 BR VCFG SCT001 BKN003 20/18
                        Q1016=
200908151230 METAR LPPR 151230Z 30008KT 260V330 2500 BR VCFG SCT001 BKN003
                        21/18 Q1016=
200908151200 METAR LPPR 151200Z 28007KT 250V310 5000 BR FEW004 22/19 Q1016=
200908151130 METAR LPPR 151130Z 28005KT 230V330 5000 BR FEW003 22/19 Q1016=
200908151100 METAR LPPR 151100Z 28005KT 230V320 3000 BR FEW003 22/19 Q1016=
200908151030 METAR LPPR 151030Z 28006KT 240V310 3000 BR SCT004 22/19 Q1016=
200908151000 METAR LPPR 151000Z VRB03KT 3000 BR FEW002 22/19 Q1015=
200908150930 METAR LPPR 150930Z VRB03KT 2000 BR VCFG SCT002 21/19 Q1015=
200908150900 METAR LPPR 150900Z 24004KT 200V290 1500 BR VCFG BKN001 21/19
                        Q1015=
200908150830 METAR LPPR 150830Z 23004KT 190V280 2000 BR VCFG FEW002 20/20
                        Q1015=
200908150800 METAR LPPR 150800Z 00000KT 1100 R17/0750VP1500 R35/1200VP1500
                        BR VCFG SCT001 19/19 Q1014=
200908150730 METAR LPPR 150730Z 00000KT 0300 R17/0600N R35/0500N FG BKN000
                        BKN001 18/18 Q1014=
200908150700 METAR LPPR 150700Z 00000KT 0300 R17/0400V0500N R35/0500V0700N
                        FG BKN000 BKN001 18/17 Q1014=
200908150630 METAR LPPR 150630Z 00000KT 0400 R17/0650V1200N R35/0650V1100N
                        FG BKN000 BKN001 17/17 Q1014=
200908150600 METAR LPPR 150600Z 00000KT 1200 R17/P1500 R35/P1500 BR VCFG
                        FEW001 17/17 Q1014=
200908150530 METAR LPPR 150530Z 00000KT 3000 BR FEW040 17/17 Q1014=
200908150500 METAR LPPR 150500Z 00000KT 5000 BR SKC 17/17 Q1014=
200908150430 METAR LPPR 150430Z 00000KT 7000 SKC 18/17 Q1014=
200908150400 METAR LPPR 150400Z 00000KT 7000 SKC 18/17 Q1014=
200908150330 METAR LPPR 150330Z 00000KT CAVOK 18/17 Q1014=
200908150300 METAR LPPR 150300Z 00000KT CAVOK 18/17 Q1014=
200908150230 METAR LPPR 150230Z 00000KT CAVOK 18/18 Q1014=
200908150200 METAR LPPR 150200Z 00000KT CAVOK 18/17 Q1014=
200908150130 METAR LPPR 150130Z 00000KT CAVOK 18/17 Q1014=
200908150100 METAR LPPR 150100Z 00000KT CAVOK 18/17 Q1014=
200908150030 METAR LPPR 150030Z 00000KT CAVOK 19/18 Q1014=
200908150000 METAR LPPR 150000Z 00000KT CAVOK 19/18 Q1014=
200908142330 METAR LPPR 142330Z 00000KT CAVOK 20/18 Q1014=
200908142300 METAR LPPR 142300Z 00000KT CAVOK 20/18 Q1014=
200908142230 METAR LPPR 142230Z 00000KT CAVOK 21/16 Q1013=
200908142200 METAR LPPR 142200Z 00000KT CAVOK 21/16 Q1013=
200908142130 METAR LPPR 142130Z 00000KT CAVOK 22/16 Q1013=
200908142100 METAR LPPR 142100Z 00000KT CAVOK 23/15 Q1013=
200908142030 METAR LPPR 142030Z 00000KT CAVOK 23/16 Q1013=
200908142000 METAR LPPR 142000Z 00000KT CAVOK 25/15 Q1013=
200908141930 METAR COR LPPR 141930Z VRB02KT 9999 FEW025CB 25/15 Q1013
                        CB TO E=
200908141900 METAR LPPR 141900Z 34005KT CAVOK 27/18 Q1013=
200908141830 METAR LPPR 141830Z 32005KT 9999 FEW020 28/17 Q1013=
200908141800 METAR LPPR 141800Z 32006KT 290V350 9999 FEW020 28/17 Q1013=
200908141730 METAR LPPR 141730Z 32006KT 280V350 9999 FEW020 28/17 Q1013=
200908141700 METAR LPPR 141700Z 32008KT 9999 FEW017 FEW020TCU 28/16 Q1013=
200908141630 METAR LPPR 141630Z 32008KT 9999 FEW017 FEW020TCU 27/18 Q1013=
200908141600 METAR LPPR 141600Z 32007KT 270V340 9999 FEW017 FEW020TCU
                        28/17 Q1013=
200908141530 METAR LPPR 141530Z 31007KT 280V340 9999 FEW017 FEW020TCU
                        28/17 Q1013=
200908141500 METAR LPPR 141500Z 29007KT 260V320 9999 FEW017 FEW020TCU
                        28/17 Q1013=
200908141430 METAR LPPR 141430Z 31007KT 9999 FEW017 29/16 Q1013=
200908141400 METAR LPPR 141400Z 31007KT 270V340 9999 FEW017 29/16 Q1014=
200908141330 METAR LPPR 141330Z 27007KT CAVOK 28/18 Q1014=
200908141300 METAR LPPR 141300Z 28006KT CAVOK 27/18 Q1014=
200908141230 METAR LPPR 141230Z 29006KT CAVOK 28/18 Q1014=
200908141200 METAR LPPR 141200Z 28004KT 200V320 8000 SKC 28/19 Q1014=
200908141130 METAR LPPR 141130Z 29006KT 250V320 8000 SKC 27/19 Q1015=
200908141100 METAR LPPR 141100Z 28005KT 8000 SKC 27/20 Q1015=
200908141030 METAR LPPR 141030Z 28004KT 250V320 8000 SKC 26/20 Q1015=
200908141000 METAR LPPR 141000Z 27005KT 8000 SKC 26/20 Q1014=
200908140900 METAR LPPR 140900Z 00000KT 8000 SKC 27/20 Q1014=
200908140830 METAR LPPR 140830Z 00000KT 8000 SKC 25/19 Q1014=
200908140800 METAR LPPR 140800Z 00000KT 8000 SKC 24/19 Q1014=
200908140730 METAR LPPR 140730Z 00000KT 8000 SKC 21/20 Q1014=
200908140700 METAR LPPR 140700Z VRB02KT 6000 SKC 20/19 Q1014=
200908140630 METAR LPPR 140630Z 10003KT 6000 SKC 18/18 Q1014=
200908140600 METAR LPPR 140600Z 00000KT 6000 SKC 17/16 Q1014=
200908140530 METAR LPPR 140530Z 00000KT 8000 SKC 18/17 Q1014=
200908140500 METAR LPPR 140500Z 00000KT 8000 SKC 17/16 Q1014=
200908140400 METAR LPPR 140400Z 00000KT 8000 SKC 18/17 Q1014=
200908140330 METAR LPPR 140330Z 00000KT CAVOK 18/17 Q1014=
200908140300 METAR LPPR 140300Z 00000KT CAVOK 19/18 Q1014=
200908140230 METAR LPPR 140230Z 00000KT CAVOK 18/17 Q1014=
200908140200 METAR LPPR 140200Z 00000KT CAVOK 18/17 Q1014=
200908140130 METAR LPPR 140130Z 00000KT CAVOK 19/17 Q1014=
200908140100 METAR LPPR 140100Z 00000KT CAVOK 19/18 Q1014=
200908140030 METAR LPPR 140030Z 00000KT CAVOK 19/18 Q1014=
200908140000 METAR LPPR 140000Z 00000KT CAVOK 19/17 Q1015=
200908132330 METAR LPPR 132330Z 00000KT CAVOK 19/18 Q1015=
200908132300 METAR LPPR 132300Z 00000KT CAVOK 19/18 Q1015=
200908132230 METAR LPPR 132230Z 35003KT CAVOK 19/18 Q1015=
200908132200 METAR LPPR 132200Z 00000KT CAVOK 19/18 Q1015=
200908132130 METAR LPPR 132130Z 00000KT CAVOK 20/18 Q1015=
200908132100 METAR LPPR 132100Z 00000KT CAVOK 20/18 Q1015=
200908132030 METAR LPPR 132030Z 00000KT CAVOK 21/18 Q1015=
200908132000 METAR LPPR 132000Z 00000KT CAVOK 22/18 Q1014=
200908131930 METAR LPPR 131930Z 00000KT 9999 FEW020 23/18 Q1014=
200908131900 METAR LPPR 131900Z VRB02KT 9999 FEW020 24/19 Q1014=
200908131830 METAR LPPR 131830Z VRB03KT 9999 FEW020 24/18 Q1014=
200908131800 METAR LPPR 131800Z 28004KT 9999 FEW020TCU 24/18 Q1014=
200908131730 METAR LPPR 131730Z VRB03KT 9999 FEW020TCU 26/19 Q1014=
200908131700 METAR LPPR 131700Z 25004KT 220V290 9999 FEW020CB 26/19 Q1014=
200908131630 METAR LPPR 131630Z 27005KT 230V320 9999 FEW020CB 26/19 Q1014=
200908131600 METAR LPPR 131600Z 29006KT 9999 FEW020CB 27/17 Q1014=
200908131530 METAR LPPR 131530Z 25004KT 220V290 9999 FEW020CB 27/17 Q1014=
200908131500 METAR LPPR 131500Z 29004KT 230V320 9999 FEW020TCU 26/17 Q1014=
200908131430 METAR LPPR 131430Z 28006KT 9999 FEW020TCU 26/19 Q1014=
200908131400 METAR LPPR 131400Z 29006KT 260V330 9999 FEW020 27/19 Q1014=
200908131330 METAR LPPR 131330Z 27004KT 240V320 9999 FEW020 28/19 Q1015=
200908131300 METAR LPPR 131300Z 25005KT 190V290 9999 FEW020 29/19 Q1015=
200908131230 METAR LPPR 131230Z 21004KT 160V280 CAVOK 28/18 Q1015=
200908131200 METAR LPPR 131200Z 20005KT 170V260 CAVOK 27/17 Q1015=
200908131130 METAR LPPR 131130Z 26004KT 230V300 CAVOK 28/19 Q1015=
200908131100 METAR LPPR 131100Z VRB03KT CAVOK 28/19 Q1015=
200908131030 METAR LPPR 131030Z VRB03KT CAVOK 27/18 Q1015=
200908131000 METAR LPPR 131000Z VRB03KT CAVOK 25/18 Q1015=
200908130930 METAR LPPR 130930Z 25004KT 170V310 CAVOK 24/18 Q1015=
200908130900 METAR LPPR 130900Z VRB03KT CAVOK 24/18 Q1015=
200908130830 METAR LPPR 130830Z VRB03KT CAVOK 24/18 Q1015=
200908130800 METAR LPPR 130800Z 19004KT 140V210 CAVOK 23/18 Q1015=
200908130730 METAR LPPR 130730Z 00000KT CAVOK 21/18 Q1015=
200908130700 METAR LPPR 130700Z 00000KT CAVOK 19/17 Q1015=
200908130630 METAR LPPR 130630Z 00000KT CAVOK 18/17 Q1015=
200908130600 METAR LPPR 130600Z 00000KT CAVOK 18/16 Q1015=
200908130530 METAR LPPR 130530Z 00000KT CAVOK 19/17 Q1014=
200908130500 METAR LPPR 130500Z 00000KT CAVOK 19/17 Q1014=
200908130430 METAR LPPR 130430Z 00000KT CAVOK 19/17 Q1014=
200908130400 METAR LPPR 130400Z 00000KT CAVOK 19/17 Q1015=
200908130330 METAR LPPR 130330Z 16003KT CAVOK 19/17 Q1015=
200908130300 METAR LPPR 130300Z 17004KT CAVOK 19/17 Q1015=
200908130230 METAR LPPR 130230Z 17005KT CAVOK 19/17 Q1015=
200908130200 METAR LPPR 130200Z 17004KT CAVOK 19/17 Q1015=
200908130130 METAR LPPR 130130Z 18004KT CAVOK 19/17 Q1015=
200908130100 METAR LPPR 130100Z 17005KT CAVOK 19/17 Q1015=
200908130030 METAR LPPR 130030Z 18006KT CAVOK 19/17 Q1015=
200908130000 METAR LPPR 130000Z 21003KT CAVOK 19/17 Q1016=
200908122330 METAR LPPR 122330Z 00000KT CAVOK 19/16 Q1016=
200908122300 METAR LPPR 122300Z 00000KT CAVOK 19/16 Q1016=
200908122230 METAR LPPR 122230Z 00000KT CAVOK 19/16 Q1016=
200908122200 METAR LPPR 122200Z VRB02KT CAVOK 20/16 Q1016=
200908122130 METAR LPPR 122130Z 00000KT CAVOK 21/17 Q1016=
200908122100 METAR LPPR 122100Z 00000KT CAVOK 22/16 Q1016=
200908122030 METAR LPPR 122030Z 00000KT CAVOK 21/17 Q1015=
200908122000 METAR LPPR 122000Z 33002KT CAVOK 21/17 Q1015=
200908121930 METAR LPPR 121930Z 35003KT CAVOK 22/17 Q1015=
200908121900 METAR LPPR 121900Z VRB03KT CAVOK 23/17 Q1015=
200908121830 METAR LPPR 121830Z 29003KT CAVOK 25/17 Q1015=
200908121800 METAR LPPR 121800Z 28004KT 9999 FEW020 27/17 Q1015=
200908121730 METAR LPPR 121730Z 29005KT 9999 FEW020 28/17 Q1015=
200908121700 METAR LPPR 121700Z 29005KT 9999 FEW020 30/17 Q1015=
200908121630 METAR LPPR 121630Z 31007KT 280V340 CAVOK 30/16 Q1015=
200908121600 METAR LPPR 121600Z 31008KT 290V350 9999 FEW020 29/16 Q1016=
200908121530 METAR LPPR 121530Z 31009KT 9999 FEW020 29/16 Q1016=
200908121500 METAR LPPR 121500Z 30008KT 250V330 CAVOK 29/16 Q1016=
200908121430 METAR LPPR 121430Z 30007KT 270V330 9999 FEW020 30/17 Q1016=
200908121400 METAR LPPR 121400Z 32008KT 280V340 9999 FEW020 32/16 Q1016=
200908121330 METAR LPPR 121330Z 30007KT 270V340 CAVOK 31/16 Q1016=
200908121300 METAR LPPR 121300Z 31007KT 250V350 CAVOK 30/16 Q1017=
200908121230 METAR LPPR 121230Z 28005KT 250V330 CAVOK 28/18 Q1017=
200908121200 METAR LPPR 121200Z 29004KT 220V340 CAVOK 28/18 Q1017=
200908121130 METAR LPPR 121130Z 26004KT 210V290 CAVOK 27/18 Q1017=
200908121100 METAR LPPR 121100Z 25004KT 220V320 CAVOK 27/17 Q1017=
200908121030 METAR LPPR 121030Z 26005KT 200V290 CAVOK 27/17 Q1017=
200908121000 METAR LPPR 121000Z VRB03KT CAVOK 27/18 Q1017=
200908120930 METAR LPPR 120930Z VRB03KT CAVOK 27/18 Q1017=
200908120900 METAR LPPR 120900Z VRB03KT CAVOK 27/19 Q1017=
200908120830 METAR LPPR 120830Z VRB03KT CAVOK 27/18 Q1017=
200908120800 METAR LPPR 120800Z 00000KT CAVOK 26/18 Q1017=
200908120730 METAR LPPR 120730Z 00000KT CAVOK 23/18 Q1016=
200908120700 METAR LPPR 120700Z 00000KT CAVOK 20/18 Q1016=
200908120630 METAR LPPR 120630Z 00000KT CAVOK 19/17 Q1016=
200908120600 METAR LPPR 120600Z 00000KT CAVOK 18/16 Q1016=
200908120530 METAR LPPR 120530Z 00000KT CAVOK 18/17 Q1016=
200908120500 METAR LPPR 120500Z 00000KT CAVOK 18/17 Q1016=
200908120430 METAR LPPR 120430Z 00000KT CAVOK 18/17 Q1016=
200908120400 METAR LPPR 120400Z 00000KT CAVOK 19/17 Q1016=
200908120330 METAR LPPR 120330Z 00000KT CAVOK 20/17 Q1016=
200908120300 METAR LPPR 120300Z 00000KT CAVOK 20/17 Q1016=
200908120230 METAR LPPR 120230Z 08003KT CAVOK 22/17 Q1016=
200908120200 METAR LPPR 120200Z 11003KT CAVOK 22/17 Q1016=
200908120130 METAR LPPR 120130Z VRB03KT CAVOK 22/17 Q1016=
200908120100 METAR LPPR 120100Z 00000KT CAVOK 21/17 Q1016=
200908120000 METAR LPPR 120000Z 00000KT CAVOK 21/17 Q1016=
200908112300 METAR LPPR 112300Z 00000KT CAVOK 21/17 Q1016=
200908112230 METAR LPPR 112230Z 00000KT CAVOK 21/17 Q1016=
200908112200 METAR LPPR 112200Z 00000KT CAVOK 21/17 Q1016=
200908112130 METAR LPPR 112130Z 00000KT CAVOK 21/17 Q1016=
200908112100 METAR LPPR 112100Z 00000KT CAVOK 21/16 Q1016=
200908112030 METAR LPPR 112030Z 00000KT CAVOK 21/16 Q1016=
200908112000 METAR LPPR 112000Z 31002KT CAVOK 23/16 Q1016=
200908111930 METAR LPPR 111930Z 32006KT CAVOK 26/15 Q1016=
200908111900 METAR LPPR 111900Z 34008KT CAVOK 28/13 Q1016=
200908111830 METAR LPPR 111830Z 34008KT CAVOK 28/14 Q1016=
200908111800 METAR LPPR 111800Z 34008KT CAVOK 29/14 Q1016=
200908111730 METAR LPPR 111730Z 33009KT 300V360 CAVOK 30/14 Q1016=
200908111700 METAR LPPR 111700Z 32009KT CAVOK 31/13 Q1016=
200908111630 METAR LPPR 111630Z 32009KT CAVOK 31/13 Q1016=
200908111600 METAR LPPR 111600Z 33011KT CAVOK 31/14 Q1016=
200908111530 METAR LPPR 111530Z 32012KT 290V350 CAVOK 30/14 Q1016=
200908111500 METAR LPPR 111500Z 32010KT CAVOK 31/15 Q1017=
200908111430 METAR LPPR 111430Z 32009KT 280V350 CAVOK 31/15 Q1017=
200908111400 METAR LPPR 111400Z 33010KT CAVOK 30/15 Q1017=
200908111330 METAR LPPR 111330Z 32009KT 290V350 CAVOK 29/16 Q1017=
200908111300 METAR LPPR 111300Z 28008KT CAVOK 29/16 Q1017=
200908111230 METAR LPPR 111230Z 28008KT CAVOK 28/16 Q1018=
200908111200 METAR LPPR 111200Z 26009KT CAVOK 29/16 Q1017=
200908111130 METAR LPPR 111130Z VRB03KT CAVOK 33/15 Q1017=
200908111100 METAR LPPR 111100Z VRB03KT CAVOK 32/15 Q1017=
200908111030 METAR LPPR 111030Z VRB03KT CAVOK 31/15 Q1017=
200908111000 METAR LPPR 111000Z VRB03KT CAVOK 30/15 Q1017=
200908110930 METAR LPPR 110930Z 08005KT 030V150 CAVOK 29/14 Q1017=
200908110900 METAR LPPR 110900Z VRB04KT CAVOK 28/15 Q1017=
200908110830 METAR LPPR 110830Z 08007KT 040V110 CAVOK 27/14 Q1017=
200908110800 METAR LPPR 110800Z 09008KT 050V120 CAVOK 26/13 Q1017=
200908110730 METAR LPPR 110730Z 09006KT 040V130 CAVOK 25/14 Q1017=
200908110700 METAR LPPR 110700Z 10008KT 050V140 CAVOK 24/13 Q1017=
200908110630 METAR LPPR 110630Z 08005KT 040V120 CAVOK 22/13 Q1016=
200908110600 METAR LPPR 110600Z 05005KT CAVOK 20/13 Q1016=
200908110530 METAR LPPR 110530Z 00000KT CAVOK 19/13 Q1016=
200908110500 METAR LPPR 110500Z 05004KT CAVOK 20/13 Q1016=
200908110430 METAR LPPR 110430Z 04003KT CAVOK 17/14 Q1016=
200908110400 METAR LPPR 110400Z 00000KT CAVOK 18/14 Q1016=
200908110330 METAR LPPR 110330Z 35002KT CAVOK 18/14 Q1016=
200908110300 METAR LPPR 110300Z 00000KT CAVOK 18/14 Q1016=
200908110230 METAR LPPR 110230Z 00000KT CAVOK 18/15 Q1016=
200908110200 METAR LPPR 110200Z 00000KT CAVOK 18/15 Q1016=
200908110130 METAR LPPR 110130Z 00000KT CAVOK 18/15 Q1016=
200908110100 METAR LPPR 110100Z 36002KT CAVOK 18/15 Q1016=
200908110030 METAR LPPR 110030Z 00000KT CAVOK 19/15 Q1016=
200908110000 METAR LPPR 110000Z 00000KT CAVOK 20/15 Q1016=
200908102330 METAR LPPR 102330Z 00000KT CAVOK 20/15 Q1016=
200908102300 METAR LPPR 102300Z 00000KT CAVOK 20/16 Q1016=
200908102230 METAR LPPR 102230Z 00000KT CAVOK 20/16 Q1016=
200908102200 METAR LPPR 102200Z 35003KT CAVOK 20/17 Q1016=
200908102130 METAR LPPR 102130Z 00000KT CAVOK 21/17 Q1016=
200908102100 METAR LPPR 102100Z 00000KT CAVOK 21/17 Q1016=
200908102030 METAR LPPR 102030Z 33002KT CAVOK 22/17 Q1015=
200908102000 METAR LPPR 102000Z 35003KT CAVOK 23/16 Q1015=
200908101930 METAR LPPR 101930Z 32004KT 290V350 CAVOK 25/17 Q1015=
200908101900 METAR LPPR 101900Z 31005KT 220V350 CAVOK 26/16 Q1015=
200908101830 METAR LPPR 101830Z 33007KT CAVOK 27/16 Q1015=
200908101800 METAR LPPR 101800Z 33009KT CAVOK 28/17 Q1015=
200908101730 METAR LPPR 101730Z 33008KT 9999 FEW020 29/17 Q1015=
200908101700 METAR LPPR 101700Z 32009KT 9999 FEW020 29/16 Q1016=
200908101630 METAR LPPR 101630Z 32009KT 9999 FEW020 29/16 Q1016=
200908101600 METAR LPPR 101600Z 32010KT 9999 FEW020 29/16 Q1016=
200908101530 METAR LPPR 101530Z 33010KT 9999 FEW020 29/16 Q1016=
200908101500 METAR LPPR 101500Z 33009KT 9999 FEW020 30/16 Q1016=
200908101430 METAR LPPR 101430Z 33010KT CAVOK 30/16 Q1016=
200908101400 METAR LPPR 101400Z 32011KT CAVOK 29/16 Q1016=
200908101330 METAR LPPR 101330Z 31011KT CAVOK 29/16 Q1016=
200908101300 METAR LPPR 101300Z 31012KT CAVOK 29/16 Q1016=
200908101230 METAR LPPR 101230Z 29007KT 260V330 CAVOK 30/17 Q1016=
200908101200 METAR LPPR 101200Z 33005KT 260V070 CAVOK 31/17 Q1016=
200908101130 METAR LPPR 101130Z VRB04KT CAVOK 30/16 Q1016=
200908101100 METAR LPPR 101100Z 04004KT 330V120 CAVOK 30/16 Q1016=
200908101030 METAR LPPR 101030Z 02005KT 350V060 CAVOK 29/15 Q1016=
200908101000 METAR LPPR 101000Z 07005KT 010V120 CAVOK 28/15 Q1016=
200908100930 METAR LPPR 100930Z 07006KT 020V110 CAVOK 27/15 Q1016=
200908100900 METAR LPPR 100900Z 07007KT 020V120 CAVOK 26/14 Q1016=
200908100830 METAR LPPR 100830Z 06006KT 360V100 CAVOK 25/14 Q1016=
200908100800 METAR LPPR 100800Z 04004KT 010V100 CAVOK 23/15 Q1016=
200908100730 METAR LPPR 100730Z 03005KT 010V070 CAVOK 22/14 Q1016=
200908100700 METAR LPPR 100700Z 04006KT CAVOK 21/14 Q1016=
200908100630 METAR LPPR 100630Z 04006KT CAVOK 19/14 Q1015=
200908100600 METAR LPPR 100600Z 05004KT CAVOK 15/13 Q1015=
200908100530 METAR LPPR 100530Z 36003KT CAVOK 15/13 Q1015=
200908100500 METAR LPPR 100500Z 01003KT CAVOK 15/14 Q1015=
200908100430 METAR LPPR 100430Z 35003KT CAVOK 15/13 Q1015=
200908100400 METAR LPPR 100400Z 02003KT CAVOK 16/14 Q1015=
200908100330 METAR LPPR 100330Z 35003KT CAVOK 15/13 Q1015=
200908100300 METAR LPPR 100300Z VRB02KT CAVOK 16/14 Q1015=
200908100230 METAR LPPR 100230Z 00000KT CAVOK 16/14 Q1015=
200908100200 METAR LPPR 100200Z 36002KT CAVOK 15/13 Q1015=
200908100130 METAR LPPR 100130Z 35002KT CAVOK 16/14 Q1015=
200908100100 METAR LPPR 100100Z 00000KT CAVOK 17/14 Q1015=
200908100030 METAR LPPR 100030Z 00000KT CAVOK 16/14 Q1015=
200908100000 METAR LPPR 100000Z 34005KT CAVOK 16/14 Q1015=
200908092330 METAR LPPR 092330Z 35003KT CAVOK 16/14 Q1015=
200908092230 METAR LPPR 092230Z 36004KT CAVOK 16/14 Q1015=
200908092200 METAR LPPR 092200Z 34004KT CAVOK 17/14 Q1015=
200908092130 METAR LPPR 092130Z 34004KT CAVOK 17/14 Q1014=
200908092100 METAR LPPR 092100Z 35003KT CAVOK 18/15 Q1014=
200908092030 METAR LPPR 092030Z 35003KT CAVOK 18/14 Q1014=
200908092000 METAR LPPR 092000Z 33005KT CAVOK 19/15 Q1014=
200908091930 METAR LPPR 091930Z 32006KT CAVOK 21/15 Q1013=
200908091900 METAR LPPR 091900Z 34008KT CAVOK 22/15 Q1013=
200908091830 METAR LPPR 091830Z 32011KT CAVOK 22/14 Q1013=
200908091800 METAR LPPR 091800Z 32012KT 270V350 CAVOK 23/15 Q1013=
200908091730 METAR LPPR 091730Z 33012KT 9999 FEW017 25/15 Q1013=
200908091700 METAR LPPR 091700Z 32009KT 290V350 9999 FEW017 25/15 Q1013=
200908091630 METAR LPPR 091630Z 32014KT 9999 FEW017 26/15 Q1013=
200908091600 METAR LPPR 091600Z 33012KT 9999 FEW017 26/15 Q1014=
200908091530 METAR LPPR 091530Z 34015KT 9999 FEW017 26/15 Q1014=
200908091500 METAR LPPR 091500Z 34018KT 9999 FEW017 26/15 Q1014=
200908091430 METAR LPPR 091430Z 33014KT 9999 FEW017 26/16 Q1014=
200908091400 METAR LPPR 091400Z 33013KT 9999 FEW017 26/16 Q1014=
200908091330 METAR LPPR 091330Z 32011KT 9999 FEW017 26/16 Q1015=
200908091300 METAR LPPR 091300Z 31011KT 9999 FEW015 SCT250 26/16 Q1015=
200908091230 METAR LPPR 091230Z 33012KT CAVOK 26/16 Q1015=
200908091200 METAR LPPR 091200Z 31011KT CAVOK 24/16 Q1015=
200908091130 METAR LPPR 091130Z 31010KT CAVOK 25/16 Q1015=
200908091100 METAR LPPR 091100Z 30009KT CAVOK 24/16 Q1015=
200908091030 METAR LPPR 091030Z 33009KT CAVOK 25/16 Q1015=
200908091000 METAR LPPR 091000Z 35008KT 320V030 CAVOK 24/16 Q1015=
200908090930 METAR LPPR 090930Z 34008KT 310V010 CAVOK 23/15 Q1015=
200908090900 METAR LPPR 090900Z 34007KT CAVOK 21/15 Q1015=
200908090830 METAR LPPR 090830Z 34008KT CAVOK 21/15 Q1015=
200908090800 METAR LPPR 090800Z 35007KT CAVOK 19/15 Q1016=
200908090730 METAR LPPR 090730Z 34006KT CAVOK 17/14 Q1016=
200908090700 METAR LPPR 090700Z 33005KT CAVOK 16/14 Q1015=
200908090630 METAR LPPR 090630Z 34005KT CAVOK 14/13 Q1015=
200908090600 METAR LPPR 090600Z 34005KT CAVOK 14/13 Q1015=
200908090530 METAR LPPR 090530Z 34004KT CAVOK 14/12 Q1015=
200908090500 METAR LPPR 090500Z 35003KT CAVOK 14/12 Q1014=
200908090430 METAR LPPR 090430Z 34005KT CAVOK 14/13 Q1014=
200908090400 METAR LPPR 090400Z 34004KT CAVOK 14/13 Q1014=
200908090330 METAR LPPR 090330Z 35006KT CAVOK 14/13 Q1014=
200908090230 METAR LPPR 090230Z 33006KT CAVOK 16/13 Q1014=
200908090200 METAR LPPR 090200Z 34004KT CAVOK 15/13 Q1014=
200908090130 METAR LPPR 090130Z 33005KT CAVOK 15/13 Q1014=
200908090100 METAR LPPR 090100Z 35006KT CAVOK 15/13 Q1014=
200908090030 METAR LPPR 090030Z 34006KT CAVOK 16/13 Q1015=
200908090000 METAR LPPR 090000Z 34007KT CAVOK 16/14 Q1015=
200908082330 METAR LPPR 082330Z 35007KT CAVOK 17/14 Q1015=
200908082300 METAR LPPR 082300Z 33006KT CAVOK 17/15 Q1015=
200908082230 METAR LPPR 082230Z 34006KT CAVOK 16/14 Q1015=
200908082200 METAR LPPR 082200Z 33009KT CAVOK 18/15 Q1015=
200908082130 METAR LPPR 082130Z 33006KT CAVOK 17/15 Q1015=
200908082100 METAR LPPR 082100Z 33005KT CAVOK 18/15 Q1014=
200908082030 METAR LPPR 082030Z 33007KT CAVOK 19/15 Q1014=
200908082000 METAR LPPR 082000Z 34008KT CAVOK 20/15 Q1014=
200908081930 METAR LPPR 081930Z 33010KT CAVOK 21/15 Q1014=
200908081900 METAR LPPR 081900Z 33010KT CAVOK 22/16 Q1014=
200908081830 METAR LPPR 081830Z 33010KT CAVOK 23/16 Q1014=
200908081800 METAR LPPR 081800Z 31009KT CAVOK 23/16 Q1014=
200908081730 METAR LPPR 081730Z 31009KT 260V340 9999 FEW020 24/16 Q1014=
200908081700 METAR LPPR 081700Z 33010KT 9999 FEW020TCU 24/16 Q1014=
200908081630 METAR LPPR 081630Z 32009KT 290V350 9999 FEW020TCU 25/17 Q1015=
200908081600 METAR LPPR 081600Z 31009KT 9999 FEW020TCU 25/17 Q1015=
200908081530 METAR LPPR 081530Z 32010KT 9999 FEW020TCU 25/17 Q1015=
200908081500 METAR LPPR 081500Z 32010KT 290V350 9999 FEW020 SCT250 25/17
                        Q1015=
200908081430 METAR LPPR 081430Z 32010KT 9999 FEW020 SCT250 25/16 Q1015=
200908081400 METAR LPPR 081400Z 32011KT 9999 FEW020 SCT250 24/17 Q1016=
200908081330 METAR LPPR 081330Z 32011KT CAVOK 24/16 Q1016=
200908081300 METAR LPPR 081300Z 31011KT CAVOK 23/16 Q1016=
200908081230 METAR LPPR 081230Z 32008KT CAVOK 22/16 Q1016=
200908081200 METAR LPPR 081200Z 28010KT 250V350 CAVOK 21/16 Q1016=
200908081130 METAR LPPR 081130Z VRB03KT CAVOK 25/17 Q1016=
200908081100 METAR LPPR 081100Z 31005KT 250V030 CAVOK 23/17 Q1017=
200908081030 METAR LPPR 081030Z 31005KT 270V330 CAVOK 21/17 Q1017=
200908081000 METAR LPPR 081000Z 28005KT 240V340 8000 FEW012 BKN250 19/17
                        Q1017=
200908080930 METAR LPPR 080930Z 28006KT 260V320 7000 FEW012 BKN250 18/16
                        Q1017=
200908080900 METAR LPPR 080900Z VRB02KT 7000 FEW012 BKN250 20/17 Q1017=
200908080830 METAR LPPR 080830Z 00000KT 5000 BR FEW012 BKN250 18/17 Q1017=
200908080800 METAR LPPR 080800Z 00000KT 4000 BR FEW012 BKN250 17/17 Q1017=
200908080730 METAR LPPR 080730Z VRB03KT 2000 BR VCFG FEW000 BKN002 16/16
                        Q1017=
200908080700 METAR LPPR 080700Z VRB02KT 2000 BR VCFG FEW000 BKN002 15/15
                        Q1017=
200908080630 METAR LPPR 080630Z 00000KT 1000 R17/1100VP1500 R35/1200VP1500
                        BR VCFG SCT000 BKN002 15/15 Q1017=
200908080600 METAR LPPR 080600Z 00000KT 0800 R17/0800N R35/0900V1400U
                        FG SCT000 BKN001 15/15 Q1017=
200908080530 METAR LPPR 080530Z 00000KT 0600 R17/P1500 R35/0600N FG FEW000
                        SCT002 15/14 Q1017=
200908080500 METAR LPPR 080500Z 27004KT 5000 BR FEW008 14/14 Q1017=
200908080430 METAR LPPR 080430Z 00000KT 5000 BR FEW008 15/15 Q1016=
200908080400 METAR LPPR 080400Z 11002KT 5000 BR FEW008 15/14 Q1016=
200908080330 METAR LPPR 080330Z 17005KT 4000 BR FEW008 14/14 Q1017=
200908080300 METAR LPPR 080300Z 00000KT 4000 BR SCT008 13/13 Q1017=
200908080230 METAR LPPR 080230Z 00000KT 5000 BR FEW008 14/13 Q1017=
200908080200 METAR LPPR 080200Z 00000KT 5000 BR FEW008 14/13 Q1017=
200908080130 METAR LPPR 080130Z 33002KT CAVOK 14/13 Q1017=
200908080100 METAR LPPR 080100Z 00000KT CAVOK 14/13 Q1018=
200908080030 METAR LPPR 080030Z 00000KT CAVOK 15/14 Q1018=
200908080000 METAR LPPR 080000Z 00000KT CAVOK 15/14 Q1018=
200908072330 METAR LPPR 072330Z 00000KT CAVOK 15/14 Q1018=
200908072300 METAR LPPR 072300Z 00000KT CAVOK 16/14 Q1018=
200908072230 METAR LPPR 072230Z 00000KT CAVOK 16/15 Q1018=
200908072200 METAR LPPR 072200Z VRB03KT CAVOK 16/15 Q1018=
200908072130 METAR LPPR 072130Z 33005KT CAVOK 17/15 Q1018=
200908072100 METAR LPPR 072100Z 32005KT CAVOK 17/15 Q1018=
200908072030 METAR LPPR 072030Z 34005KT 290V010 CAVOK 17/15 Q1018=
200908072000 METAR LPPR 072000Z 32006KT CAVOK 18/15 Q1018=
200908071930 METAR LPPR 071930Z 30005KT 250V330 CAVOK 19/15 Q1018=
200908071900 METAR LPPR 071900Z 30005KT 270V330 CAVOK 21/16 Q1018=
200908071830 METAR LPPR 071830Z 31006KT CAVOK 21/16 Q1018=
200908071800 METAR LPPR 071800Z 31008KT CAVOK 22/16 Q1018=
200908071730 METAR LPPR 071730Z 31008KT CAVOK 23/16 Q1018=
200908071700 METAR LPPR 071700Z 31007KT CAVOK 24/16 Q1018=
200908071630 METAR LPPR 071630Z 32008KT 290V360 CAVOK 24/16 Q1018=
200908071600 METAR LPPR 071600Z 32009KT 280V350 CAVOK 24/16 Q1019=
200908071530 METAR LPPR 071530Z 32010KT 280V340 CAVOK 23/16 Q1019=
200908071500 METAR LPPR 071500Z 31011KT CAVOK 23/16 Q1019=
200908071430 METAR LPPR 071430Z 31010KT CAVOK 23/16 Q1019=
200908071400 METAR LPPR 071400Z 31008KT 280V350 CAVOK 23/16 Q1019=
200908071330 METAR LPPR 071330Z 30009KT 270V360 9999 FEW013 SCT250 23/15
                        Q1020=
200908071300 METAR LPPR 071300Z 30008KT 9999 FEW013 SCT250 22/15 Q1020=
200908071230 METAR LPPR 071230Z 30007KT 240V340 9999 FEW013 22/15 Q1020=
200908071200 METAR LPPR 071200Z VRB08KT 9999 FEW013 SCT250 22/15 Q1020=
200908071130 METAR LPPR 071130Z 30005KT 250V350 9999 FEW013 21/15 Q1020=
200908071100 METAR LPPR 071100Z 28007KT 260V320 9999 FEW013 20/15 Q1020=
200908071030 METAR LPPR 071030Z 28007KT 240V300 9999 FEW011 19/15 Q1020=
200908071000 METAR LPPR 071000Z 28006KT 250V310 9999 FEW011 19/15 Q1020=
200908070930 METAR LPPR 070930Z VRB02KT 9999 FEW011 20/16 Q1020=
200908070900 METAR LPPR 070900Z VRB03KT 9999 FEW009 19/15 Q1020=
200908070830 METAR LPPR 070830Z VRB03KT CAVOK 18/15 Q1020=
200908070800 METAR LPPR 070800Z 00000KT CAVOK 18/16 Q1021=
200908070730 METAR LPPR 070730Z 00000KT CAVOK 16/16 Q1020=
200908070700 METAR LPPR 070700Z 00000KT CAVOK 15/15 Q1020=
200908070630 METAR LPPR 070630Z 00000KT CAVOK 13/12 Q1020=
200908070600 METAR LPPR 070600Z 00000KT 8000 R17/0800V1300U R35/P1500
                        BCFG FEW250 13/13 Q1020=
200908070530 METAR LPPR 070530Z 00000KT CAVOK 13/13 Q1020=
200908070500 METAR LPPR 070500Z 00000KT CAVOK 13/13 Q1020=
200908070430 METAR LPPR 070430Z 03002KT CAVOK 13/13 Q1020=
200908070400 METAR LPPR 070400Z 01002KT CAVOK 13/13 Q1020=
200908070330 METAR LPPR 070330Z 36002KT CAVOK 13/13 Q1020=
200908070300 METAR LPPR 070300Z 00000KT CAVOK 13/13 Q1020=
200908070200 METAR LPPR 070200Z 00000KT CAVOK 14/13 Q1020=
200908070130 METAR LPPR 070130Z 00000KT CAVOK 14/13 Q1020=
200908070100 METAR LPPR 070100Z 00000KT CAVOK 14/14 Q1020=
200908070030 METAR LPPR 070030Z 00000KT CAVOK 14/14 Q1021=
200908070000 METAR LPPR 070000Z 00000KT CAVOK 15/14 Q1021=
200908062330 METAR LPPR 062330Z 00000KT CAVOK 15/14 Q1021=
200908062300 METAR LPPR 062300Z 00000KT CAVOK 15/14 Q1021=
200908062230 METAR LPPR 062230Z 00000KT CAVOK 16/15 Q1021=
200908062200 METAR LPPR 062200Z 34007KT CAVOK 16/15 Q1021=
200908062130 METAR LPPR 062130Z 34007KT CAVOK 17/15 Q1021=
200908062100 METAR LPPR 062100Z 34008KT CAVOK 17/15 Q1020=
200908062030 METAR LPPR 062030Z 33007KT CAVOK 17/15 Q1020=
200908062000 METAR LPPR 062000Z 33009KT CAVOK 18/15 Q1020=
200908061930 METAR LPPR 061930Z 34012KT CAVOK 19/15 Q1020=
200908061900 METAR LPPR 061900Z 31010KT 280V340 9999 FEW015 19/16 Q1020=
200908061830 METAR LPPR 061830Z 31010KT 9999 FEW015 20/16 Q1020=
200908061800 METAR LPPR 061800Z 31008KT 290V350 9999 FEW015 21/16 Q1020=
200908061730 METAR LPPR 061730Z 32011KT 290V350 9999 FEW015 21/16 Q1020=
200908061700 METAR LPPR 061700Z 33012KT 300V360 9999 FEW015 22/16 Q1020=
200908061630 METAR LPPR 061630Z 31013KT 9999 FEW015 22/16 Q1020=
200908061600 METAR LPPR 061600Z 32012KT 290V350 9999 FEW015 22/16 Q1020=
200908061530 METAR LPPR 061530Z 32011KT 290V350 9999 FEW015 SCT030 22/16
                        Q1020=
200908061500 METAR LPPR 061500Z 31012KT 9999 FEW015 SCT030 22/16 Q1020=
200908061430 METAR LPPR 061430Z 30010KT 9999 FEW015 BKN030 22/17 Q1020=
200908061400 METAR LPPR 061400Z 31009KT 9999 FEW013 BKN030 22/17 Q1020=
200908061330 METAR LPPR 061330Z 32009KT 290V360 9999 FEW013 BKN017 21/17
                        Q1020=
200908061300 METAR LPPR 061300Z 32011KT 9999 FEW013 BKN017 21/16 Q1020=
200908061230 METAR LPPR 061230Z 31008KT 270V030 9999 FEW013 BKN020 21/17
                        Q1020=
200908061200 METAR LPPR 061200Z 33005KT 280V040 9999 FEW012 BKN020 21/17
                        Q1020=
200908061130 METAR LPPR 061130Z 35004KT 310V050 9999 FEW012 BKN020 21/17
                        Q1020=
200908061100 METAR LPPR 061100Z 33005KT 280V010 9999 FEW015 BKN020 20/17
                        Q1020=
200908061030 METAR LPPR 061030Z 33009KT 9999 FEW015 BKN020 20/16 Q1020=
200908061000 METAR LPPR 061000Z 33013KT 9999 FEW015 BKN020 19/16 Q1020=
200908060930 METAR LPPR 060930Z 33010KT 9999 FEW015 BKN020 20/16 Q1020=
200908060900 METAR LPPR 060900Z 33007KT 290V350 9999 FEW015 BKN020 18/16
                        Q1019=
200908060830 METAR LPPR 060830Z VRB03KT 8000 FEW008 BKN020 17/16 Q1019=
200908060800 METAR LPPR 060800Z 27004KT 200V320 3000 BR SCT006 BKN012
                        17/16 Q1019=
200908060730 METAR LPPR 060730Z VRB03KT 5000 BR BKN013 BKN090 17/16 Q1018=
200908060700 METAR LPPR 060700Z 11003KT 5000 BR FEW008 SCT015 BKN090 17/16
                        Q1018=
200908060630 METAR LPPR 060630Z 00000KT 5000 BR FEW008 SCT015 BKN090 17/16
                        Q1018=
200908060600 METAR LPPR 060600Z VRB02KT 5000 BR SCT017 BKN090 17/16 Q1018=
200908060530 METAR LPPR 060530Z VRB03KT 8000 BKN100 BKN250 16/16 Q1017=
200908060500 METAR LPPR 060500Z 12003KT CAVOK 16/16 Q1017=
200908060430 METAR LPPR 060430Z VRB03KT CAVOK 16/15 Q1017=
200908060400 METAR LPPR 060400Z VRB02KT CAVOK 16/15 Q1017=
200908060330 METAR LPPR 060330Z 00000KT CAVOK 15/15 Q1017=
200908060300 METAR LPPR 060300Z 04002KT CAVOK 16/15 Q1017=
200908060230 METAR LPPR 060230Z 00000KT CAVOK 16/15 Q1017=
200908060200 METAR LPPR 060200Z 00000KT CAVOK 16/15 Q1017=
200908060130 METAR LPPR 060130Z 34003KT CAVOK 16/15 Q1017=
200908060100 METAR LPPR 060100Z 32004KT CAVOK 17/15 Q1018=
200908060030 METAR LPPR 060030Z 32004KT CAVOK 17/15 Q1017=
200908060000 METAR LPPR 060000Z 33006KT CAVOK 17/16 Q1017=
200908052330 METAR LPPR 052330Z 32008KT CAVOK 17/16 Q1017=
200908052300 METAR LPPR 052300Z 32007KT CAVOK 18/16 Q1017=
200908052230 METAR LPPR 052230Z 32007KT CAVOK 18/16 Q1017=
200908052200 METAR LPPR 052200Z 34008KT CAVOK 18/16 Q1017=
200908052130 METAR LPPR 052130Z 33010KT CAVOK 18/17 Q1017=
200908052100 METAR LPPR 052100Z 33008KT CAVOK 18/17 Q1017=
200908052030 METAR LPPR 052030Z 32009KT CAVOK 18/17 Q1017=
200908052000 METAR LPPR 052000Z 32008KT CAVOK 19/17 Q1017=
200908051930 METAR LPPR 051930Z 31009KT 9999 FEW017 19/17 Q1017=
200908051900 METAR LPPR 051900Z 31010KT 9999 FEW017 20/17 Q1016=
200908051830 METAR LPPR 051830Z 31009KT 290V350 9999 FEW017 21/17 Q1016=
200908051800 METAR LPPR 051800Z 32012KT 9999 FEW017 21/17 Q1016=
200908051730 METAR LPPR 051730Z 32013KT 9999 FEW017 22/18 Q1016=
200908051700 METAR LPPR 051700Z 32015KT 9999 FEW015 22/18 Q1016=
200908051630 METAR LPPR 051630Z 31014KT 9999 FEW015 FEW020TCU 23/18 Q1016=
200908051600 METAR LPPR 051600Z 31013KT 9999 FEW015 FEW020TCU 24/19 Q1016=
200908051530 METAR LPPR 051530Z 32012KT 9999 FEW015 24/19 Q1016=
200908051500 METAR LPPR 051500Z 31013KT 9999 FEW015 24/19 Q1016=
200908051430 METAR LPPR 051430Z 31013KT 9999 FEW015 24/19 Q1016=
200908051400 METAR LPPR 051400Z 31013KT 270V340 9999 FEW015 24/19 Q1016=
200908051330 METAR LPPR 051330Z 31012KT 270V330 9999 FEW013 23/20 Q1016=
200908051300 METAR LPPR 051300Z 30010KT 260V340 9999 FEW008 23/20 Q1016=
200908051230 METAR LPPR 051230Z 30009KT 270V330 9999 FEW008 SCT015 24/20
                        Q1016=
200908051200 METAR LPPR 051200Z 29007KT 260V330 8000 SCT008 SCT015 23/20
                        Q1016=
200908051130 METAR LPPR 051130Z 31006KT 270V360 5000 BR SCT008 BKN013
                        22/20 Q1017=
200908051100 METAR LPPR 051100Z 30006KT 270V340 4000 BR SCT002 BKN004
                        21/20 Q1017=
200908051030 METAR LPPR 051030Z 28006KT 240V320 5000 BR BKN008 BKN013
                        21/20 Q1017=
200908051000 METAR LPPR 051000Z 29004KT 250V320 4000 BR SCT005 BKN008
                        20/20 Q1017=
200908050930 METAR LPPR 050930Z VRB03KT 3000 BR SCT002 BKN005 20/20 Q1016=
200908050900 METAR LPPR 050900Z 31005KT 2500 BR SCT001 BKN003 20/20 Q1016=
200908050830 METAR LPPR 050830Z 29005KT 200V330 3000 BR SCT002 BKN004
                        20/20 Q1016=
200908050800 METAR LPPR 050800Z 32004KT 4000 BR SCT003 BKN006 20/20 Q1016=
200908050730 METAR LPPR 050730Z 36003KT 3500 BR BKN003 BKN005 19/19 Q1016=
200908050700 METAR LPPR 050700Z VRB02KT 3000 BR BKN002 BKN004 19/19 Q1016=
200908050630 METAR COR LPPR 050630Z VRB02KT 2500 BR VCFG BKN001 BKN003
                        19/19 Q1016=
200908050600 METAR LPPR 050600Z 00000KT 1800 BR VCFG BKN001 BKN002 19/19
                        Q1016=
200908050530 METAR LPPR 050530Z 35002KT 2000 BR VCFG BKN001 BKN003 19/19
                        Q1015=
200908050500 METAR LPPR 050500Z 35003KT 2500 BR VCFG BKN001 BKN003 19/19
                        Q1015=
200908050430 METAR LPPR 050430Z 35003KT 3000 BR VCFG SCT001 BKN003 19/19
                        Q1015=
200908050400 METAR LPPR 050400Z 04003KT 2000 BR VCFG SCT000 BKN002 19/19
                        Q1015=
200908050330 METAR LPPR 050330Z 00000KT 2000 BR VCFG SCT000 BKN002 19/19
                        Q1016=
200908050300 METAR LPPR 050300Z 01004KT 2000 BR VCFG SCT000 BKN002 19/19
                        Q1016=
200908050230 METAR LPPR 050230Z 36006KT 2000 BR VCFG SCT000 BKN002 19/19
                        Q1016=
200908050200 METAR LPPR 050200Z 34006KT 1500 BR VCFG SCT000 BKN002 19/19
                        Q1016=
200908050130 METAR LPPR 050130Z 33005KT 0800 R17/1100N R35/0800N FG SCT000
                        BKN002 19/19 Q1016=
200908050100 METAR LPPR 050100Z 33006KT 0900 R17/P1500 R35/1000V1500U
                        FG SCT000 BKN002 19/19 Q1016=
200908050030 METAR LPPR 050030Z 34006KT 2000 BR SCT000 BKN002 19/19 Q1017=
200908050000 METAR LPPR 050000Z 33006KT 2000 BR SCT000 BKN002 19/19 Q1017=
200908042330 METAR LPPR 042330Z 33007KT 2000 -DZ BR SCT000 BKN002 20/20
                        Q1017=
200908042300 METAR LPPR 042300Z 33005KT 300V360 2000 -DZ BR SCT000 BKN002
                        20/20 Q1017=
200908042230 METAR LPPR 042230Z 33005KT 0800 R17/1100VP1500 R35/1100U
                        FG BKN000 BKN002 19/19 Q1017=
200908042200 METAR LPPR 042200Z 33005KT 0800 R17/1000V1500D R35/0800N
                        FG BKN000 BKN002 19/19 Q1018=
200908042130 METAR LPPR 042130Z 32006KT 0700 R17/0700VP1500 R35/0750VP1500
                        FG BKN000 BKN002 19/19 Q1017=
200908042100 METAR LPPR 042100Z 28004KT 2000 BR VCFG SCT002 BKN004 20/19
                        Q1017=
200908042030 METAR LPPR 042030Z 36002KT 4000 BR SCT004 20/19 Q1017=
200908042000 METAR LPPR 042000Z 34004KT 3000 BR VCFG SCT002 BKN004 20/20
                        Q1017=
200908041930 METAR LPPR 041930Z 33006KT 2000 BR VCFG SCT001 BKN003 20/20
                        Q1017=
200908041900 METAR LPPR 041900Z 33007KT 290V350 0800 R17/P1500 R35/P1500
                        FG SCT000 BKN001 20/20 Q1016=
200908041830 METAR LPPR 041830Z 33008KT 0700 R17/P1500 R35/1400VP1500
                        FG BKN000 BKN001 20/20 Q1017=
200908041800 METAR LPPR 041800Z 31009KT 0600 R17/P1500 R35/0900D FG BKN000
                        BKN001 20/20 Q1016=
200908041730 METAR LPPR 041730Z 32007KT 280V340 2000 BR SCT001 BKN002
                        21/20 Q1016=
200908041700 METAR LPPR 041700Z 31009KT 3000 BR BKN002 BKN004 21/20 Q1017=
200908041630 METAR LPPR 041630Z 31009KT 8000 SCT005 BKN250 23/20 Q1017=
200908041600 METAR LPPR 041600Z 30009KT 270V330 9999 BKN009 BKN250 23/20
                        Q1017=
200908041530 METAR LPPR 041530Z 32010KT 290V360 9999 SCT008 BKN250 23/20
                        Q1017=
200908041500 METAR LPPR 041500Z 31010KT 280V340 9999 SCT008 BKN250 23/20
                        Q1017=
200908041430 METAR LPPR 041430Z 31009KT 270V330 9999 FEW013 BKN250 23/19
                        Q1017=
200908041400 METAR LPPR 041400Z 31008KT 260V330 CAVOK 22/19 Q1017=
200908041330 METAR LPPR 041330Z 29007KT 260V330 CAVOK 22/19 Q1017=
200908041300 METAR LPPR 041300Z 30007KT 270V330 9999 FEW013 BKN250 23/19
                        Q1017=
200908041230 METAR LPPR 041230Z 28008KT 260V320 9999 FEW013 BKN250 23/19
                        Q1017=
200908041200 METAR LPPR 041200Z 27008KT 9999 FEW013 BKN250 23/19 Q1017=
200908041130 METAR LPPR 041130Z 29008KT 240V310 9999 FEW013 BKN250 25/19
                        Q1017=
200908041100 METAR LPPR 041100Z 00000KT 9999 FEW013 BKN250 25/18 Q1018=
200908041030 METAR LPPR 041030Z VRB02KT 9999 FEW013 BKN250 24/18 Q1017=
200908041000 METAR LPPR 041000Z VRB03KT 9999 FEW013 BKN250 23/18 Q1017=
200908040930 METAR LPPR 040930Z 00000KT 9999 FEW009 BKN250 22/18 Q1018=
200908040900 METAR LPPR 040900Z VRB03KT 9999 SCT011 BKN250 21/18 Q1018=
200908040830 METAR LPPR 040830Z 03005KT 350V090 9999 BKN008 SCT011 20/18
                        Q1018=
200908040800 METAR LPPR 040800Z 35006KT 300V030 9999 BKN007 BKN011 20/18
                        Q1018=
200908040730 METAR LPPR 040730Z 36004KT 330V060 9999 BKN007 BKN011 19/18
                        Q1017=
200908040700 METAR LPPR 040700Z 00000KT 8000 BKN007 BKN011 19/18 Q1017=
200908040630 METAR LPPR 040630Z 00000KT 8000 BKN006 BKN011 19/18 Q1017=
200908040600 METAR LPPR 040600Z 00000KT 8000 BKN006 BKN011 18/18 Q1017=
200908040530 METAR LPPR 040530Z 00000KT 9999 BKN008 BKN011 18/18 Q1017=
200908040500 METAR LPPR 040500Z 00000KT 9999 BKN008 BKN011 18/18 Q1017=
200908040430 METAR LPPR 040430Z 00000KT 9999 BKN008 BKN011 18/18 Q1017=
200908040400 METAR LPPR 040400Z 00000KT 9999 BKN007 BKN011 18/18 Q1016=
200908040330 METAR LPPR 040330Z 00000KT 9999 SCT007 BKN011 18/18 Q1017=
200908040300 METAR LPPR 040300Z 00000KT 8000 SCT006 BKN011 18/18 Q1017=
200908040230 METAR LPPR 040230Z 00000KT 8000 SCT006 BKN011 18/18 Q1017=
200908040200 METAR LPPR 040200Z 00000KT 8000 SCT006 BKN009 18/18 Q1017=
200908040130 METAR LPPR 040130Z 00000KT 8000 SCT006 BKN009 18/18 Q1017=
200908040100 METAR LPPR 040100Z 00000KT 8000 SCT005 BKN009 17/17 Q1017=
200908040030 METAR LPPR 040030Z 00000KT 8000 SCT005 BKN007 17/17 Q1018=
200908040000 METAR LPPR 040000Z 00000KT 8000 SCT005 17/17 Q1018=
200908032330 METAR LPPR 032330Z 00000KT 9999 FEW008 18/17 Q1018=
200908032300 METAR LPPR 032300Z 00000KT CAVOK 18/17 Q1018=
200908032230 METAR LPPR 032230Z 00000KT CAVOK 18/17 Q1018=
200908032200 METAR LPPR 032200Z 00000KT CAVOK 18/17 Q1018=
200908032130 METAR LPPR 032130Z 34002KT CAVOK 18/17 Q1018=
200908032100 METAR LPPR 032100Z 32004KT CAVOK 19/17 Q1018=
200908032030 METAR LPPR 032030Z 32004KT CAVOK 19/17 Q1018=
200908032000 METAR LPPR 032000Z 32005KT CAVOK 19/17 Q1017=
200908031930 METAR LPPR 031930Z 32006KT CAVOK 20/17 Q1018=
200908031900 METAR LPPR 031900Z 33008KT CAVOK 21/17 Q1017=
200908031830 METAR LPPR 031830Z 32009KT CAVOK 21/17 Q1017=
200908031800 METAR LPPR 031800Z 31009KT 260V350 CAVOK 21/17 Q1017=
200908031730 METAR LPPR 031730Z 32010KT CAVOK 22/17 Q1018=
200908031700 METAR LPPR 031700Z 32011KT 280V340 CAVOK 22/17 Q1018=
200908031630 METAR LPPR 031630Z 30008KT 260V330 CAVOK 22/17 Q1018=
200908031600 METAR LPPR 031600Z 32009KT CAVOK 22/17 Q1018=
200908031530 METAR LPPR 031530Z 29008KT 260V350 CAVOK 22/17 Q1018=
200908031500 METAR LPPR 031500Z 29010KT 260V330 CAVOK 22/16 Q1018=
200908031430 METAR LPPR 031430Z 30010KT 270V330 CAVOK 22/16 Q1018=
200908031400 METAR LPPR 031400Z 32010KT 270V340 CAVOK 23/16 Q1018=
200908031330 METAR LPPR 031330Z 31009KT 270V330 CAVOK 22/16 Q1018=
200908031300 METAR LPPR 031300Z 29010KT 250V330 CAVOK 22/15 Q1018=
200908031230 METAR LPPR 031230Z 30009KT 260V330 CAVOK 22/15 Q1019=
200908031200 METAR LPPR 031200Z 30010KT CAVOK 21/15 Q1018=
200908031130 METAR LPPR 031130Z 29007KT 260V320 CAVOK 22/15 Q1019=
200908031100 METAR LPPR 031100Z 29007KT 250V320 CAVOK 22/15 Q1019=
200908031030 METAR LPPR 031030Z 31006KT 260V360 CAVOK 22/15 Q1019=
200908031000 METAR LPPR 031000Z 35006KT 320V040 CAVOK 21/14 Q1019=
200908030930 METAR LPPR 030930Z 34006KT 300V040 9999 FEW017 21/15 Q1019=
200908030900 METAR LPPR 030900Z 35005KT 320V020 CAVOK 20/15 Q1019=
200908030830 METAR LPPR 030830Z VRB03KT CAVOK 19/14 Q1019=
200908030800 METAR LPPR 030800Z VRB03KT CAVOK 19/14 Q1019=
200908030730 METAR LPPR 030730Z 00000KT CAVOK 18/14 Q1019=
200908030700 METAR LPPR 030700Z 00000KT CAVOK 15/14 Q1018=
200908030630 METAR LPPR 030630Z 00000KT CAVOK 14/13 Q1018=
200908030600 METAR LPPR 030600Z 00000KT CAVOK 13/12 Q1018=
200908030530 METAR LPPR 030530Z 00000KT CAVOK 13/12 Q1018=
200908030500 METAR LPPR 030500Z 00000KT CAVOK 13/12 Q1018=
200908030430 METAR LPPR 030430Z 00000KT CAVOK 13/12 Q1018=
200908030400 METAR LPPR 030400Z 00000KT CAVOK 13/12 Q1018=
200908030330 METAR LPPR 030330Z 00000KT CAVOK 13/12 Q1018=
200908030300 METAR LPPR 030300Z 00000KT CAVOK 13/12 Q1018=
200908030230 METAR LPPR 030230Z 00000KT CAVOK 13/12 Q1018=
200908030200 METAR LPPR 030200Z 00000KT CAVOK 14/12 Q1018=
200908030130 METAR LPPR 030130Z 00000KT CAVOK 14/12 Q1018=
200908030100 METAR LPPR 030100Z 00000KT CAVOK 14/13 Q1019=
200908030030 METAR LPPR 030030Z 00000KT CAVOK 14/13 Q1019=
200908030000 METAR LPPR 030000Z 35002KT CAVOK 15/13 Q1019=
200908022330 METAR LPPR 022330Z 34004KT CAVOK 15/13 Q1019=
200908022300 METAR LPPR 022300Z 33004KT CAVOK 15/13 Q1019=
200908022230 METAR LPPR 022230Z 35003KT CAVOK 15/13 Q1019=
200908022200 METAR LPPR 022200Z 34005KT CAVOK 16/14 Q1019=
200908022130 METAR LPPR 022130Z 35005KT CAVOK 16/14 Q1020=
200908022100 METAR LPPR 022100Z 34007KT CAVOK 17/14 Q1019=
200908022030 METAR LPPR 022030Z 34008KT CAVOK 17/13 Q1019=
200908022000 METAR LPPR 022000Z 33008KT CAVOK 18/14 Q1019=
200908021930 METAR LPPR 021930Z 32011KT CAVOK 18/14 Q1019=
200908021900 METAR LPPR 021900Z 32012KT 290V350 CAVOK 19/14 Q1019=
200908021830 METAR LPPR 021830Z 32013KT 9999 FEW040 BKN200 19/14 Q1019=
200908021800 METAR LPPR 021800Z 32012KT 9999 FEW040 BKN200 19/15 Q1019=
200908021730 METAR LPPR 021730Z 31011KT 280V340 9999 FEW020 BKN200 20/15
                        Q1019=
200908021700 METAR LPPR 021700Z 33013KT 9999 FEW020 BKN200 20/14 Q1019=
200908021630 METAR LPPR 021630Z 32011KT 9999 FEW020 BKN200 21/13 Q1019=
200908021600 METAR LPPR 021600Z 32012KT 300V360 9999 FEW020 BKN200 20/14
                        Q1019=
200908021530 METAR LPPR 021530Z 32013KT 9999 FEW020 BKN200 20/14 Q1019=
200908021500 METAR LPPR 021500Z 32014KT 9999 FEW020 BKN200 21/14 Q1019=
200908021430 METAR LPPR 021430Z 33014KT 9999 FEW020 BKN200 21/14 Q1019=
200908021400 METAR LPPR 021400Z 32013KT 9999 FEW020 BKN200 21/13 Q1019=
200908021330 METAR LPPR 021330Z 32012KT 9999 FEW020 BKN200 21/12 Q1020=
200908021300 METAR LPPR 021300Z 32010KT 9999 FEW020 BKN200 22/13 Q1019=
200908021230 METAR LPPR 021230Z 31012KT 9999 FEW017 BKN200 21/12 Q1020=
200908021200 METAR LPPR 021200Z 30010G21KT 270V330 9999 FEW017 BKN200
                        21/13 Q1020=
200908021130 METAR LPPR 021130Z 29009KT 270V330 9999 FEW017 BKN200 21/13
                        Q1020=
200908021100 METAR LPPR 021100Z 31008KT 270V350 9999 FEW017 BKN200 20/13
                        Q1020=
200908021030 METAR LPPR 021030Z 31010KT 9999 FEW017 BKN200 20/13 Q1020=
200908021000 METAR LPPR 021000Z 32006KT 280V020 9999 FEW017 BKN200 19/14
                        Q1020=
200908020930 METAR LPPR 020930Z 34005KT 300V020 9999 FEW015 BKN200 19/14
                        Q1019=
200908020900 METAR LPPR 020900Z 02004KT 330V070 9999 FEW015 BKN200 19/14
                        Q1019=
200908020830 METAR LPPR 020830Z VRB03KT CAVOK 18/14 Q1019=
200908020800 METAR LPPR 020800Z VRB03KT CAVOK 17/14 Q1019=
200908020730 METAR LPPR 020730Z 00000KT CAVOK 16/15 Q1019=
200908020700 METAR LPPR 020700Z 00000KT CAVOK 14/14 Q1019=
200908020630 METAR LPPR 020630Z 00000KT CAVOK 13/12 Q1019=
200908020600 METAR LPPR 020600Z 00000KT CAVOK 13/12 Q1019=
200908020530 METAR LPPR 020530Z 10003KT CAVOK 14/13 Q1018=
200908020500 METAR LPPR 020500Z 10004KT 030V120 CAVOK 14/13 Q1018=
200908020430 METAR LPPR 020430Z VRB02KT CAVOK 13/12 Q1018=
200908020400 METAR LPPR 020400Z VRB02KT CAVOK 14/13 Q1018=
200908020330 METAR LPPR 020330Z 34003KT CAVOK 13/12 Q1019=
200908020300 METAR LPPR 020300Z 00000KT CAVOK 14/13 Q1019=
200908020230 METAR LPPR 020230Z VRB03KT CAVOK 14/13 Q1019=
200908020200 METAR LPPR 020200Z 35002KT 9999 FEW035 14/13 Q1019=
200908020130 METAR LPPR 020130Z 00000KT 9999 FEW035 15/14 Q1019=
200908020100 METAR LPPR 020100Z 34002KT 9999 FEW040 15/13 Q1020=
200908020030 METAR LPPR 020030Z 32005KT CAVOK 15/14 Q1020=
200908020000 METAR LPPR 020000Z 33006KT CAVOK 15/14 Q1020=
200908012330 METAR LPPR 012330Z 35008KT CAVOK 16/14 Q1020=
200908012300 METAR LPPR 012300Z 33009KT CAVOK 16/14 Q1020=
200908012230 METAR LPPR 012230Z 33009KT CAVOK 17/14 Q1020=
200908012200 METAR LPPR 012200Z 32010KT CAVOK 17/14 Q1020=
200908012130 METAR LPPR 012130Z 32010KT CAVOK 17/14 Q1019=
200908012100 METAR LPPR 012100Z 32008KT CAVOK 17/14 Q1019=
200908012030 METAR LPPR 012030Z 33007KT 9999 FEW030 17/14 Q1019=
200908012000 METAR LPPR 012000Z 33009KT 290V350 9999 FEW020 18/14 Q1018=
200908011930 METAR LPPR 011930Z 32009KT 9999 FEW015 18/14 Q1018=
200908011900 METAR LPPR 011900Z 32009KT 9999 FEW015 19/15 Q1018=
200908011830 METAR LPPR 011830Z 32010KT 9999 FEW015 20/15 Q1018=
200908011800 METAR LPPR 011800Z 32012KT 9999 FEW015 20/15 Q1018=
200908011730 METAR LPPR 011730Z 32015KT 9999 FEW015 20/16 Q1018=
200908011700 METAR LPPR 011700Z 32013KT 9999 SCT015 21/16 Q1018=
200908011630 METAR LPPR 011630Z 31015KT 9999 FEW008 SCT015 FEW020TCU 21/17
                        Q1018=
200908011600 METAR LPPR 011600Z 32014KT 9999 SCT008 SCT015 FEW020TCU 20/17
                        Q1018=
200908011530 METAR LPPR 011530Z 32016KT 290V350 9999 FEW005 BKN013 FEW020TCU
                        20/17 Q1018=
200908011500 METAR LPPR 011500Z 31015KT 280V340 9999 SCT005 BKN013 20/17
                        Q1018=
200908011430 METAR LPPR 011430Z 31013G23KT 280V340 8000 SCT005 BKN013
                        20/18 Q1017=
200908011400 METAR LPPR 011400Z 30014KT 270V330 9999 FEW006 SCT013 FEW020TCU
                        BKN035 21/18 Q1017=
200908011330 METAR LPPR 011330Z 29010KT 250V350 9999 SCT004 SCT013 FEW020TCU
                        21/19 Q1017=
200908011300 METAR LPPR 011300Z 24009KT 190V300 9999 SCT012 FEW020TCU
                        22/18 Q1017=
200908011230 METAR LPPR 011230Z 24008KT 200V280 9999 SCT012 BKN030 22/18
                        Q1017=
200908011200 METAR LPPR 011200Z 23009KT 170V260 9999 SCT012 BKN030 21/18
                        Q1017=
200908011130 METAR LPPR 011130Z 23010KT 210V290 9999 FEW012 BKN040 22/18
                        Q1017=
200908011100 METAR LPPR 011100Z 24008KT 200V280 9999 FEW012 SCT040 BKN070
                        22/18 Q1017=
200908011030 METAR LPPR 011030Z 24009KT 200V270 9999 SCT012 BKN035 21/18
                        Q1017=
200908011000 METAR LPPR 011000Z 23008KT 9999 FEW012 SCT035 21/19 Q1016=
200908010930 METAR LPPR 010930Z 24008KT 200V270 9999 SCT012 BKN035 20/19
                        Q1016=
200908010900 METAR LPPR 010900Z 23008KT 9999 SCT012 BKN030 20/19 Q1016=
200908010830 METAR LPPR 010830Z 21008KT 180V240 2000 -RA BR SCT002 BKN003
                        20/19 Q1016=
200908010800 METAR LPPR 010800Z 22006KT 180V290 3000 BR SCT002 BKN004
                        20/20 Q1016=
200908010730 METAR LPPR 010730Z 21007KT 180V240 3000 BR SCT002 BKN004
                        19/19 Q1016=
200908010700 METAR LPPR 010700Z 21004KT 180V250 5000 BR SCT002 BKN035
                        19/19 Q1016=
200908010630 METAR LPPR 010630Z 22004KT 180V260 2000 BR SCT004 BKN035
                        19/19 Q1016=
200908010600 METAR LPPR 010600Z 22006KT 190V250 2000 BR SCT002 BKN035
                        19/19 Q1016=
200908010530 METAR LPPR 010530Z 21008KT 2000 -RA BR SCT002 BKN004 19/19
                        Q1016=
200908010500 METAR LPPR 010500Z 19011KT 2000 -RA BR SCT002 BKN004 19/19
                        Q1017=
200908010430 METAR LPPR 010430Z 19009KT 2000 -RA BR SCT003 BKN004 19/19
                        Q1016 RERA=
200908010400 METAR LPPR 010400Z 19013KT 2000 RA BR SCT003 BKN004 19/19
                        Q1017=
200908010330 METAR LPPR 010330Z 19012KT 3000 DZ BR BKN004 BKN006 19/19
                        Q1017=
200908010300 METAR LPPR 010300Z 18011KT 9000 SCT005 BKN008 20/18 Q1017=
200908010230 METAR LPPR 010230Z 17010KT 9999 SCT006 BKN008 20/18 Q1017=
200908010200 METAR LPPR 010200Z 17010KT 9999 SCT007 BKN009 20/18 Q1018=
200908010130 METAR LPPR 010130Z 18008KT 9999 SCT007 BKN009 20/18 Q1018=
200908010100 METAR LPPR 010100Z 17007KT 9999 BKN007 SCT009 20/18 Q1018=
200908010030 METAR LPPR 010030Z 16007KT 9999 BKN007 SCT011 20/18 Q1018=
200908010000 METAR LPPR 010000Z 17007KT 9999 BKN009 SCT070 20/18 Q1019=
