##########################################################
# Query made at 11/07/2014 15:28:52 UTC
# Time interval: from 12/01/2009 00:00  to 12/31/2009 23:59  UTC
##########################################################

##########################################################
# LPPR, Porto / Pedras Rubras (Portugal)
# WMO index: 08545
# Latitude 41-14N. Longitude 008-41W. Altitude 69 m.
##########################################################

###################################
#  METAR/SPECI from LPPR
###################################
200912312330 METAR LPPR 312330Z 26013G23KT 220V300 5000 SHRA BR BKN015
                        SCT020CB 10/07 Q1005 WS ALL RWY=
200912312300 METAR LPPR 312300Z 20006KT 160V260 9999 BKN015 SCT020CB 09/07
                        Q1005=
200912312230 METAR LPPR 312230Z 20006KT 140V250 7000 -SHRA FEW006 BKN015
                        SCT020CB 08/06 Q1005=
200912312200 METAR LPPR 312200Z 32005KT 250V360 5000 -SHRA BR SCT004 SCT015
                        SCT020CB 08/06 Q1005=
200912312130 METAR LPPR 312130Z 23008KT 9999 SCT015 SCT020CB 10/05 Q1005=
200912312100 METAR LPPR 312100Z 26008G18KT 230V290 9999 SCT015 SCT018CB
                        09/05 Q1005 WS ALL RWY=
200912312030 METAR LPPR 312030Z 27019G37KT 230V310 9999 -SHRA SCT015 SCT018CB
                        SCT030 10/06 Q1004 WS ALL RWY=
200912312000 METAR LPPR 312000Z 27010G20KT 230V310 9999 SCT015 SCT020CB
                        11/06 Q1004 WS ALL RWY=
200912311930 METAR LPPR 311930Z 27008KT 230V310 9999 SCT015 SCT020CB 10/05
                        Q1004 WS ALL RWY=
200912311900 METAR LPPR 311900Z 27007KT 230V310 9999 SCT015 SCT020CB 09/06
                        Q1003 RERA WS ALL RWY=
200912311830 METAR LPPR 311830Z 27012G22KT 240V300 5000 SHRA SCT005 BKN013
                        SCT017CB 11/05 Q1002 WS ALL RWY=
200912311800 METAR LPPR 311800Z 27011G24KT 230V310 9999 BKN015 SCT020CB
                        10/05 Q1002 WS ALL RWY=
200912311730 METAR LPPR 311730Z 29008KT 250V330 9999 BKN015 SCT020CB 10/05
                        Q1002 WS ALL RWY=
200912311700 METAR LPPR 311700Z 27013G23KT 240V310 9999 BKN015 SCT020CB
                        10/04 Q1002 RERA WS ALL RWY=
200912311630 METAR LPPR 311630Z 27013KT 250V310 9999 SCT015 SCT020CB 10/04
                        Q1001 WS ALL RWY=
200912311600 METAR LPPR 311600Z 26012G24KT 230V310 9999 SCT015 SCT020CB
                        10/05 Q1001 WS ALL RWY=
200912311530 METAR LPPR 311530Z 28012G23KT 230V320 9999 SCT015 SCT020CB
                        SCT040 10/05 Q1000 WS ALL RWY=
200912311500 METAR LPPR 311500Z 28011KT 240V310 9999 SCT015 SCT020CB SCT040
                        10/04 Q1000 WS ALL RWY=
200912311430 METAR LPPR 311430Z 26008G20KT 210V310 9999 -SHRA BKN015 SCT020CB
                        08/05 Q1000 RERA WS ALL RWY=
200912311400 METAR LPPR 311400Z 27011G26KT 220V310 9999 BKN015 FEW020CB
                        SCT040 11/06 Q0999 RERA=
200912311330 METAR LPPR 311330Z 26009G19KT 230V300 9999 SCT015 FEW020CB
                        SCT040 11/06 Q0999=
200912311300 METAR LPPR 311300Z 25009G19KT 210V290 9999 SCT015 FEW020CB
                        BKN040 11/05 Q1000=
200912311230 METAR LPPR 311230Z 27018G30KT 230V300 9999 -SHRA SCT015 FEW020CB
                        BKN040 10/05 Q1000=
200912311200 METAR LPPR 311200Z 28013G23KT 240V310 9999 SCT015 FEW020CB
                        11/05 Q1000=
200912311130 METAR LPPR 311130Z 28012KT 240V300 9999 SCT015 SCT035 11/06
                        Q1000=
200912311100 METAR LPPR 311100Z 30013KT 270V340 9999 SCT015 SCT040 11/07
                        Q0999=
200912311030 METAR LPPR 311030Z 30017G29KT 270V330 9999 -SHRA SCT015 FEW020CB
                        SCT040 10/07 Q0999 RESHRA=
200912311000 METAR LPPR 311000Z 29013G33KT 250V320 4000 SHRA BKN013 FEW018CB
                        11/08 Q0998=
200912310930 METAR LPPR 310930Z 26009G20KT 220V290 8000 -SHRA SCT015 FEW020CB
                        SCT030 10/09 Q0997 RESHRA=
200912310900 METAR LPPR 310900Z 27007KT 200V300 9999 SCT015 FEW020CB BKN030
                        11/09 Q0997=
200912310830 METAR LPPR 310830Z 27010KT 9999 SCT015 FEW020CB SCT040 10/09
                        Q0997=
200912310800 METAR LPPR 310800Z 29004KT 250V340 5000 SHRA BKN013 FEW018CB
                        11/08 Q0996 WS ALL RWY=
200912310730 METAR LPPR 310730Z 29004KT 250V330 9999 SCT015 FEW020CB SCT030
                        11/09 Q0996=
200912310700 METAR LPPR 310700Z VRB03KT 9999 SCT015 FEW020CB BKN030 11/10
                        Q0995=
200912310630 METAR LPPR 310630Z VRB03KT 9999 SCT015 FEW020CB SCT030 10/10
                        Q0995=
200912310600 METAR LPPR 310600Z VRB02KT 8000 -SHRA SCT015 FEW020CB BKN030
                        10/10 Q0995=
200912310530 METAR LPPR 310530Z 00000KT 9999 SCT015 FEW020CB SCT040 10/09
                        Q0994=
200912310500 METAR LPPR 310500Z 30003KT 9999 SCT015 FEW020CB SCT040 10/09
                        Q0994=
200912310430 METAR LPPR 310430Z VRB01KT 8000 SCT013 FEW018CB BKN030 10/10
                        Q0994=
200912310400 METAR LPPR 310400Z 32004KT 7000 -SHRA SCT013 FEW018CB BKN030
                        11/10 Q0994=
200912310330 METAR LPPR 310330Z 34004KT 290V040 6000 -SHRA FEW007 SCT013
                        FEW018CB BKN030 11/10 Q0994=
200912310300 METAR LPPR 310300Z 14005KT 8000 SCT013 FEW018CB BKN030 11/10
                        Q0993=
200912310230 METAR LPPR 310230Z 13003KT 8000 SCT013 FEW018CB BKN030 11/10
                        Q0993=
200912310200 METAR LPPR 310200Z 12004KT 8000 SCT013 FEW018CB BKN030 11/10
                        Q0993=
200912310130 METAR LPPR 310130Z 00000KT 7000 -SHRA SCT013 FEW018CB BKN030
                        11/10 Q0994=
200912310100 METAR LPPR 310100Z VRB03KT 8000 -SHRA SCT013 FEW018CB BKN030
                        11/10 Q0994=
200912310030 METAR LPPR 310030Z VRB03KT 7000 -SHRA SCT013 FEW018CB BKN030
                        11/10 Q0994=
200912310000 METAR LPPR 310000Z 26004KT 200V310 7000 -SHRA SCT013 FEW018CB
                        BKN030 11/11 Q0995=
200912302330 METAR LPPR 302330Z 29004KT 260V320 6000 -SHRA FEW007 SCT013
                        FEW018CB BKN030 12/11 Q0995=
200912302300 METAR LPPR 302300Z 23011KT 200V270 7000 -SHRA SCT013 FEW018CB
                        BKN030 13/11 Q0995=
200912302230 METAR LPPR 302230Z 18011KT 7000 -SHRA SCT013 FEW018CB BKN030
                        12/11 Q0995=
200912302200 METAR LPPR 302200Z 20006KT 140V250 7000 -TSRA FEW008 SCT013
                        SCT018CB 11/10 Q0995=
200912302130 METAR LPPR 302130Z VRB05KT 7000 -TSRA SCT013 SCT018CB BKN025
                        11/10 Q0995=
200912302100 METAR LPPR 302100Z 16014KT 140V210 6000 -TSRA SCT013 SCT018CB
                        BKN025 12/10 Q0996=
200912302030 METAR LPPR 302030Z 14006KT 100V180 7000 -TSRA SCT013 SCT018CB
                        BKN025 12/11 Q0996=
200912302000 METAR LPPR 302000Z 15009KT 9999 FEW015 FEW020CB BKN250 12/11
                        Q0996=
200912301930 METAR LPPR 301930Z 16010KT 7000 -SHRA SCT015 FEW020CB SCT030
                        12/10 Q0997=
200912301900 METAR LPPR 301900Z 17005KT 9999 SCT015 FEW020CB SCT030 12/11
                        Q0997=
200912301830 METAR LPPR 301830Z 20011KT 7000 -SHRA FEW008 SCT015 SCT020CB
                        BKN030 12/11 Q0997 WS ALL RWY=
200912301800 METAR LPPR 301800Z VRB02KT 9999 -SHRA SCT015 FEW020CB BKN250
                        13/11 Q0997=
200912301730 METAR LPPR 301730Z 20005KT 170V230 9999 SCT015 FEW020CB BKN250
                        13/10 Q0997=
200912301700 METAR LPPR 301700Z 21008KT 9999 SCT015 FEW020CB BKN250 14/09
                        Q0997=
200912301630 METAR LPPR 301630Z 21010KT 9999 SCT015 FEW020CB BKN030 14/10
                        Q0997=
200912301600 METAR LPPR 301600Z 22009KT 9999 SCT015 FEW020CB BKN030 14/10
                        Q0997=
200912301530 METAR LPPR 301530Z 21011KT 9999 SCT015 FEW020CB BKN030 14/10
                        Q0998=
200912301500 METAR LPPR 301500Z 23010KT 200V270 9999 SCT015 SCT020CB BKN030
                        14/10 Q0998=
200912301430 METAR LPPR 301430Z 22010KT 9999 SCT015 SCT020CB 15/10 Q0998=
200912301400 METAR LPPR 301400Z 23010KT 200V260 9999 SCT015 FEW018CB BKN030
                        15/11 Q0998=
200912301330 METAR LPPR 301330Z 21010KT 180V240 9999 SCT015 SCT018CB SCT030
                        BKN250 14/11 Q0998 WS ALL RWY=
200912301300 METAR LPPR 301300Z 20012G23KT 9999 FEW015 SCT018CB BKN030
                        13/10 Q0998 WS ALL RWY=
200912301230 METAR LPPR 301230Z 22010KT 9999 FEW015 FEW017TCU SCT020CB
                        BKN200 15/11 Q0998=
200912301200 METAR LPPR 301200Z 21011KT 9999 FEW015 SCT020CB SCT030 15/11
                        Q0999=
200912301130 METAR LPPR 301130Z 22009KT 9000 -SHRA SCT015 SCT020CB SCT090
                        14/11 Q0999=
200912301100 METAR LPPR 301100Z 22007KT 190V260 9999 BKN015 FEW020CB 15/11
                        Q0999=
200912301030 METAR LPPR 301030Z 23008KT 200V270 9999 FEW015 FEW020CB SCT250
                        14/10 Q0999=
200912301000 METAR LPPR 301000Z 22008KT 200V260 9999 FEW015 FEW020CB SCT250
                        14/11 Q0999=
200912300930 METAR LPPR 300930Z 21008KT 190V250 9999 FEW015 FEW020CB SCT250
                        13/11 Q0998=
200912300900 METAR LPPR 300900Z 21010KT 9999 FEW015 FEW020CB BKN040 13/11
                        Q0998=
200912300830 METAR LPPR 300830Z 23014KT 180V260 7000 -TSRA SCT012 FEW020CB
                        BKN030 12/11 Q0998=
200912300800 METAR LPPR 300800Z 23005KT 200V310 7000 -SHRA SCT013 FEW020CB
                        BKN030 13/10 Q0997=
200912300730 METAR LPPR 300730Z 23011KT 200V260 9999 FEW015 FEW020CB BKN030
                        13/10 Q0998=
200912300700 METAR LPPR 300700Z 21015KT 190V250 8000 -TSRA FEW015 FEW020CB
                        BKN030 13/11 Q0997 WS ALL RWY=
200912300630 METAR LPPR 300630Z 21016KT 180V240 8000 -TSRA SCT015 FEW020CB
                        BKN025 12/10 Q0997 WS ALL RWY=
200912300600 METAR LPPR 300600Z 22015KT 190V250 8000 -TSRA SCT015 FEW020CB
                        BKN025 12/11 Q0997 WS ALL RWY=
200912300530 METAR LPPR 300530Z 19021KT 8000 TS SCT015 FEW020CB BKN025
                        14/11 Q0997 WS ALL RWY=
200912300500 METAR LPPR 300500Z 21017G30KT 180V240 8000 TS SCT015 SCT020CB
                        BKN025 12/10 Q0998 WS ALL RWY=
200912300430 METAR LPPR 300430Z 20017KT 9999 SCT015 FEW020CB BKN030 14/11
                        Q0998=
200912300400 METAR LPPR 300400Z 20018KT 9999 SCT015 FEW020CB BKN030 14/10
                        Q0999 WS ALL RWY=
200912300330 METAR LPPR 300330Z 20018KT 9999 SCT013 FEW020CB BKN030 14/10
                        Q0999=
200912300300 METAR LPPR 300300Z 17011KT 9999 SCT013 FEW020CB BKN060 11/10
                        Q0999=
200912300230 METAR LPPR 300230Z 20012KT 8000 TS SCT015 FEW020CB BKN060
                        11/10 Q0999=
200912300200 METAR LPPR 300200Z 22015G35KT 190V250 5000 TSRA SCT004 BKN013
                        SCT017CB 12/11 Q0999 WS ALL RWY=
200912300130 METAR LPPR 300130Z 23015KT 210V270 5000 TSRA FEW006 SCT013
                        SCT020CB BKN035 14/11 Q0998 WS ALL
                        RWY=
200912300100 METAR LPPR 300100Z 19018KT 9999 FEW015 FEW025CB BKN035 15/12
                        Q0999=
200912300030 METAR LPPR 300030Z 19020KT 9999 FEW015 FEW020CB BKN035 15/12
                        Q0999 WS ALL RWY=
200912300000 METAR LPPR 300000Z 19017G27KT 9999 SCT015 FEW020CB BKN035
                        15/12 Q0999=
200912292330 METAR LPPR 292330Z 19018G28KT 9999 FEW015 FEW025CB BKN035
                        15/12 Q0999=
200912292300 METAR LPPR 292300Z 19018KT 9999 FEW015 FEW025CB BKN035 15/12
                        Q0999=
200912292230 METAR LPPR 292230Z 19018KT 9999 SCT015 15/13 Q1000=
200912292200 METAR LPPR 292200Z 19017KT 8000 FEW013 SCT020 15/13 Q1000=
200912292130 METAR LPPR 292130Z 20016KT 9999 FEW013 BKN020 15/13 Q1000=
200912292100 METAR LPPR 292100Z 17010KT 140V200 9999 SCT013 13/13 Q1000=
200912292030 METAR LPPR 292030Z 14006KT 110V170 9999 SCT007 SCT013 BKN020
                        12/12 Q1000=
200912292000 METAR LPPR 292000Z 15007KT 8000 SCT013 BKN020 12/11 Q1000=
200912291930 METAR LPPR 291930Z 16007KT 6000 SCT005 SCT013 BKN018 12/12
                        Q1000=
200912291900 METAR LPPR 291900Z 26009G25KT 210V310 4000 RA BR SCT004 BKN018
                        FEW020CB 13/12 Q1001 WS ALL RWY=
200912291830 METAR LPPR 291830Z 19019KT 4000 -RA BR SCT004 BKN018 15/15
                        Q1000 WS ALL RWY=
200912291800 METAR LPPR 291800Z 18017KT 4000 -RA BR SCT004 BKN020 15/15
                        Q1000=
200912291730 METAR LPPR 291730Z 18016KT 3000 -RA BR SCT002 BKN005 15/15
                        Q1001=
200912291700 METAR LPPR 291700Z 18013KT 3000 BR SCT002 BKN005 16/15 Q1001=
200912291630 METAR LPPR 291630Z 19010KT 6000 SCT005 BKN013 16/14 Q1001=
200912291600 METAR LPPR 291600Z 19011KT 160V220 8000 FEW015 SCT020 BKN080
                        16/13 Q1002=
200912291530 METAR LPPR 291530Z 19011KT 8000 FEW009 BKN015 FEW020CB 16/14
                        Q1002 WS ALL RWY=
200912291500 METAR LPPR 291500Z 19013KT 8000 SCT009 BKN015 FEW020CB 16/14
                        Q1002 WS ALL RWY=
200912291430 METAR LPPR 291430Z 19014KT 6000 -SHRA SCT007 BKN015 FEW020CB
                        15/13 Q1002 RESHRA WS ALL RWY=
200912291400 METAR LPPR 291400Z 18015KT 6000 SCT005 BKN015 FEW020CB 16/15
                        Q1002 WS ALL RWY=
200912291330 METAR LPPR 291330Z 19016KT 4000 BR VCSH SCT003 BKN015 FEW020CB
                        16/16 Q1003 WS ALL RWY=
200912291300 METAR LPPR 291300Z 19013KT 3000 BR SCT002 BKN015 FEW020CB
                        16/16 Q1003=
200912291230 METAR LPPR 291230Z 19015KT 4000 BR SCT002 BKN005 BKN013 16/16
                        Q1004=
200912291200 METAR LPPR 291200Z 18013KT 4000 BR SCT002 BKN005 BKN013 16/16
                        Q1004=
200912291130 METAR LPPR 291130Z 18014KT 4000 BR SCT003 BKN005 BKN013 16/16
                        Q1004=
200912291100 METAR LPPR 291100Z 19013KT 4000 BR SCT003 BKN005 BKN013 16/15
                        Q1005=
200912291030 METAR LPPR 291030Z 18014KT 4000 BR SCT002 BKN006 BKN013 16/15
                        Q1005=
200912291000 METAR LPPR 291000Z 19014KT 4000 BR SCT002 BKN006 BKN013 16/16
                        Q1005=
200912290930 METAR LPPR 290930Z 18012KT 4000 BR SCT002 BKN006 BKN013 16/16
                        Q1004=
200912290900 METAR LPPR 290900Z 19010KT 4000 BR SCT002 BKN006 BKN013 16/15
                        Q1004=
200912290830 METAR LPPR 290830Z 19011KT 4000 BR SCT002 BKN006 BKN013 16/15
                        Q1004=
200912290800 METAR LPPR 290800Z 19009KT 5000 BR SCT003 BKN006 BKN017 16/15
                        Q1003=
200912290730 METAR LPPR 290730Z 19008KT 7000 SCT008 BKN025 BKN080 16/15
                        Q1003=
200912290700 METAR LPPR 290700Z 18012KT 8000 SCT008 BKN030 BKN080 16/15
                        Q1003=
200912290630 METAR LPPR 290630Z 18009KT 6000 SCT008 BKN040 16/15 Q1003=
200912290600 METAR LPPR 290600Z 18010KT 6000 SCT008 BKN040 16/15 Q1003=
200912290530 METAR LPPR 290530Z 19010KT 6000 SCT008 BKN040 16/15 Q1003=
200912290500 METAR LPPR 290500Z 19011KT 6000 SCT008 BKN030 BKN080 16/15
                        Q1003=
200912290430 METAR LPPR 290430Z 19015KT 4000 BR BKN004 BKN008 16/16 Q1003=
200912290400 METAR LPPR 290400Z 20018KT 4000 BR BKN004 BKN008 16/16 Q1003
                        WS ALL RWY=
200912290330 METAR LPPR 290330Z 19019KT 5000 BR SCT004 BKN007 BKN013 16/16
                        Q1003 WS ALL RWY=
200912290300 METAR LPPR 290300Z 19022KT 4000 -RADZ BR SCT003 BKN007 BKN013
                        16/16 Q1003 WS ALL RWY=
200912290230 METAR LPPR 290230Z 19020KT 2000 RA BR BKN003 BKN006 16/16
                        Q1003 WS ALL RWY=
200912290200 METAR LPPR 290200Z 20018G33KT 170V230 4000 -RADZ BR SCT003
                        BKN007 BKN013 16/16 Q1003 WS ALL
                        RWY=
200912290130 METAR LPPR 290130Z 19018KT 6000 SCT004 BKN008 BKN013 17/16
                        Q1003 WS ALL RWY=
200912290100 METAR LPPR 290100Z 19018KT 6000 SCT004 BKN008 BKN013 17/16
                        Q1003 WS ALL RWY=
200912290030 METAR LPPR 290030Z 20018KT 4000 -RADZ BR SCT003 BKN007 BKN013
                        16/16 Q1003 WS ALL RWY=
200912290000 METAR LPPR 290000Z 20020KT 6000 SCT004 BKN008 BKN013 16/16
                        Q1003 WS ALL RWY=
200912282330 METAR LPPR 282330Z 20019G31KT 4000 RA BR SCT002 BKN007 BKN013
                        16/16 Q1003 WS ALL RWY=
200912282300 METAR LPPR 282300Z 19022KT 7000 SCT004 SCT008 BKN013 16/16
                        Q1003 WS ALL RWY=
200912282230 METAR LPPR 282230Z 19021KT 4000 -RADZ BR SCT002 SCT006 BKN013
                        16/15 Q1003 WS ALL RWY=
200912282200 METAR LPPR 282200Z 19023KT 7000 SCT003 SCT006 BKN013 16/16
                        Q1003 WS ALL RWY=
200912282130 METAR LPPR 282130Z 18023G33KT 7000 SCT005 SCT008 BKN015 16/16
                        Q1003 WS ALL RWY=
200912282100 METAR LPPR 282100Z 18023KT 8000 SCT005 SCT013 BKN020 16/16
                        Q1003 WS ALL RWY=
200912282030 METAR LPPR 282030Z 18022KT 8000 SCT006 SCT012 BKN020 16/15
                        Q1003 WS ALL RWY=
200912282000 METAR LPPR 282000Z 18021KT 8000 SCT006 SCT012 BKN020 16/15
                        Q1003 WS ALL RWY=
200912281930 METAR LPPR 281930Z 18021KT 8000 FEW006 SCT015 BKN025 16/15
                        Q1003 WS ALL RWY=
200912281900 METAR LPPR 281900Z 18019KT 7000 SCT005 SCT013 BKN030 16/15
                        Q1003 WS ALL RWY=
200912281830 METAR LPPR 281830Z 18018KT 8000 SCT006 SCT015 BKN025 16/15
                        Q1002 WS ALL RWY=
200912281800 METAR LPPR 281800Z 18016KT 8000 SCT006 SCT015 BKN030 15/15
                        Q1002=
200912281730 METAR LPPR 281730Z 18016KT 7000 SCT004 SCT015 BKN030 15/15
                        Q1002=
200912281700 METAR LPPR 281700Z 18014KT 8000 FEW004 SCT020 BKN040 15/14
                        Q1002=
200912281630 METAR LPPR 281630Z 20016KT 4000 -RA BR FEW003 SCT007 BKN015
                        16/16 Q1001 WS ALL RWY=
200912281600 METAR LPPR 281600Z 19015KT 2000 -RA BR BKN002 BKN005 17/16
                        Q1001 WS ALL RWY=
200912281530 METAR LPPR 281530Z 19013KT 3000 -RA BR SCT003 BKN007 16/16
                        Q1001=
200912281500 METAR LPPR 281500Z 18013KT 5000 BR SCT002 BKN008 16/15 Q1002=
200912281430 METAR LPPR 281430Z 19016KT 6000 -RA FEW007 SCT015 BKN025
                        16/15 Q1002 WS ALL RWY=
200912281400 METAR LPPR 281400Z 19019KT 5000 BR FEW006 SCT015 BKN070 17/15
                        Q1002 WS ALL RWY=
200912281330 METAR LPPR 281330Z 19023KT 4000 BR SCT003 SCT006 BKN015 17/16
                        Q1002 WS ALL RWY=
200912281300 METAR LPPR 281300Z 19024G35KT 2000 -RA BR BKN001 BKN003 17/17
                        Q1002 WS ALL RWY=
200912281230 METAR LPPR 281230Z 19025G35KT 2000 -RA BR BKN001 BKN003 17/16
                        Q1002 WS ALL RWY=
200912281200 METAR LPPR 281200Z 19021KT 2000 RA SCT001 BKN004 17/16 Q1002
                        WS ALL RWY=
200912281130 METAR LPPR 281130Z 19020G33KT 2500 -RA BR SCT001 BKN004 16/16
                        Q1003 WS ALL RWY=
200912281100 METAR LPPR 281100Z 19020G30KT 2000 -RA BR SCT001 BKN004 17/16
                        Q1004 WS ALL RWY=
200912281030 METAR LPPR 281030Z 19021KT 2500 -RA BR SCT001 BKN004 16/16
                        Q1004 WS ALL RWY=
200912281000 METAR LPPR 281000Z 18020KT 3000 BR SCT001 BKN004 16/16 Q1004
                        WS ALL RWY=
200912280930 METAR LPPR 280930Z 18018KT 2000 R17/P1500 R35/1400N BR BKN001
                        BKN003 16/16 Q1004 WS ALL RWY=
200912280900 METAR LPPR 280900Z 19019KT 2500 BR BKN001 BKN003 16/16 Q1004
                        WS ALL RWY=
200912280830 METAR LPPR 280830Z 18016KT 3000 BR BKN001 BKN003 16/16 Q1004
                        WS ALL RWY=
200912280800 METAR LPPR 280800Z 19016KT 4000 BR BKN002 BKN004 16/16 Q1003
                        WS ALL RWY=
200912280730 METAR LPPR 280730Z 18019KT 5000 BR BKN001 BKN003 16/16 Q1003=
200912280700 METAR LPPR 280700Z 18018KT 5000 BR BKN002 BKN004 16/16 Q1003
                        WS ALL RWY=
200912280630 METAR LPPR 280630Z 18019KT 6000 BKN002 BKN004 16/16 Q1003
                        WS ALL RWY=
200912280600 METAR LPPR 280600Z 18020G31KT 6000 BKN003 BKN006 16/16 Q1003
                        WS ALL RWY=
200912280530 METAR LPPR 280530Z 18019KT 6000 BKN002 BKN004 16/16 Q1003
                        WS ALL RWY=
200912280500 METAR LPPR 280500Z 19020KT 6000 BKN003 BKN006 16/16 Q1003
                        WS ALL RWY=
200912280430 METAR LPPR 280430Z 18019KT 5000 -RA BR BKN003 BKN006 16/15
                        Q1004 WS ALL RWY=
200912280400 METAR LPPR 280400Z 19023KT 5000 BR BKN003 BKN006 15/15 Q1004
                        WS ALL RWY=
200912280330 METAR LPPR 280330Z 18022G32KT 2000 -RADZ BR BKN002 BKN005
                        15/14 Q1003 WS ALL RWY=
200912280300 METAR LPPR 280300Z 18026KT 5000 BR BKN004 BKN006 15/14 Q1003
                        WS ALL RWY=
200912280230 METAR LPPR 280230Z 19025G40KT 2000 -RA BR SCT005 BKN008 15/14
                        Q1003 WS ALL RWY=
200912280200 METAR LPPR 280200Z 18029G40KT 2000 RA BR SCT006 BKN010 15/14
                        Q1003 WS ALL RWY=
200912280130 METAR LPPR 280130Z 18027G38KT 3000 -RA BR BKN005 BKN007 15/14
                        Q1004 WS ALL RWY=
200912280100 METAR LPPR 280100Z 18030G40KT 3000 -RADZ BR SCT007 BKN012
                        15/14 Q1004 WS ALL RWY=
200912280030 METAR LPPR 280030Z 18034KT 5000 -DZ BR SCT007 BKN012 15/13
                        Q1004 WS ALL RWY=
200912280000 METAR LPPR 280000Z 17031KT 9999 BKN012 SCT017 14/13 Q1004
                        WS ALL RWY=
200912272330 METAR LPPR 272330Z 17028G41KT 8000 BKN012 SCT017 14/12 Q1005
                        WS ALL RWY=
200912272300 METAR LPPR 272300Z 16028G39KT 7000 -RA BR SCT012 BKN017 13/12
                        Q1005 WS ALL RWY=
200912272230 METAR LPPR 272230Z 16027G39KT 5000 -RA BR SCT017 BKN025 13/12
                        Q1006 WS ALL RWY=
200912272200 METAR LPPR 272200Z 16026G37KT 5000 -RA BR SCT017 BKN030 13/12
                        Q1006 WS ALL RWY=
200912272130 METAR LPPR 272130Z 16025G36KT 7000 -RA SCT017 BKN030 13/11
                        Q1007=
200912272100 METAR LPPR 272100Z 16024G41KT 7000 -RA SCT016 BKN020 13/11
                        Q1007 RERA WS ALL RWY=
200912272030 METAR LPPR 272030Z 16018KT 7000 -RA SCT017 BKN025 13/11 Q1008=
200912272000 METAR LPPR 272000Z 14015KT 110V170 8000 RA SCT017 BKN025
                        12/10 Q1008=
200912271930 METAR LPPR 271930Z 14015KT 8000 -RA SCT017 BKN025 12/09 Q1008=
200912271900 METAR LPPR 271900Z 13010KT 9999 -RA BKN020 BKN030 12/08 Q1010=
200912271830 METAR LPPR 271830Z 13010KT 9999 -RA BKN020 BKN030 12/08 Q1011=
200912271800 METAR LPPR 271800Z 13010KT 9999 -RA BKN020 BKN030 11/07 Q1011=
200912271730 METAR LPPR 271730Z 13009KT 9999 BKN020 BKN035 11/07 Q1011=
200912271700 METAR LPPR 271700Z 14009KT 9999 BKN020 BKN035 11/07 Q1012=
200912271630 METAR LPPR 271630Z 14010KT 9999 BKN020 BKN030 11/07 Q1012=
200912271600 METAR LPPR 271600Z 13011KT 100V160 9999 BKN020 BKN030 11/06
                        Q1012=
200912271530 METAR LPPR 271530Z 15012KT 9999 BKN020 BKN030 11/05 Q1014=
200912271500 METAR LPPR 271500Z 13010KT 9999 SCT025 BKN035 11/05 Q1013=
200912271430 METAR LPPR 271430Z 14009KT 120V180 9999 SCT025 BKN035 11/05
                        Q1015=
200912271400 METAR LPPR 271400Z 14009KT 9999 SCT032 BKN037 11/05 Q1015=
200912271330 METAR LPPR 271330Z 14009KT 9999 SCT033 BKN037 10/05 Q1015=
200912271300 METAR LPPR 271300Z 14011KT 9999 BKN035 BKN040 10/05 Q1016=
200912271230 METAR LPPR 271230Z 13010KT 9999 BKN035 BKN040 10/05 Q1017=
200912271200 METAR LPPR 271200Z 14009KT 9999 BKN035 BKN040 09/04 Q1017=
200912271130 METAR LPPR 271130Z 12009KT 9999 BKN035 BKN040 08/04 Q1017=
200912271100 METAR LPPR 271100Z 12009KT 9999 BKN035 BKN040 08/04 Q1018=
200912271030 METAR LPPR 271030Z 11007KT 9999 BKN035 BKN040 08/04 Q1018=
200912271000 METAR LPPR 271000Z 11009KT 9999 BKN035 BKN040 07/03 Q1018=
200912270930 METAR LPPR 270930Z 11008KT 9999 BKN035 BKN040 07/03 Q1018=
200912270900 METAR LPPR 270900Z 10009KT 9999 BKN035 BKN040 06/03 Q1018=
200912270830 METAR LPPR 270830Z 11009KT 9999 BKN035 BKN250 06/03 Q1017=
200912270800 METAR LPPR 270800Z 11009KT 9999 BKN035 BKN250 06/03 Q1018=
200912270730 METAR LPPR 270730Z 11009KT 9999 SCT035 BKN250 06/03 Q1017=
200912270700 METAR LPPR 270700Z 11010KT 9999 SCT035 BKN250 06/03 Q1018=
200912270630 METAR LPPR 270630Z 11010KT 9999 FEW035 BKN250 06/03 Q1018=
200912270600 METAR LPPR 270600Z 10009KT 9999 FEW040 BKN250 06/03 Q1018=
200912270530 METAR LPPR 270530Z 11010KT 9999 FEW035 BKN250 06/03 Q1019=
200912270500 METAR LPPR 270500Z 11010KT 9999 FEW035 BKN250 06/03 Q1018=
200912270430 METAR LPPR 270430Z 10010KT 9999 FEW030 BKN250 06/03 Q1019=
200912270400 METAR LPPR 270400Z 10009KT 8000 FEW030 BKN250 06/03 Q1019=
200912270330 METAR LPPR 270330Z 10009KT 8000 FEW030 BKN250 06/04 Q1019=
200912270300 METAR LPPR 270300Z 10009KT 8000 BKN250 06/04 Q1019=
200912270230 METAR LPPR 270230Z 10009KT 8000 BKN250 06/04 Q1019=
200912270200 METAR LPPR 270200Z 10009KT 9000 BKN250 06/04 Q1019=
200912270130 METAR LPPR 270130Z 11007KT 9000 SCT250 06/04 Q1019=
200912270100 METAR LPPR 270100Z 11008KT CAVOK 06/04 Q1019=
200912270030 METAR LPPR 270030Z 11004KT CAVOK 06/04 Q1019=
200912270000 METAR LPPR 270000Z 10004KT CAVOK 06/04 Q1019=
200912262330 METAR LPPR 262330Z 00000KT CAVOK 05/03 Q1019=
200912262300 METAR LPPR 262300Z 00000KT CAVOK 05/03 Q1018=
200912262230 METAR LPPR 262230Z 00000KT CAVOK 05/03 Q1018=
200912262200 METAR LPPR 262200Z 00000KT CAVOK 06/03 Q1018=
200912262130 METAR LPPR 262130Z 00000KT CAVOK 06/03 Q1018=
200912262100 METAR LPPR 262100Z 00000KT CAVOK 06/03 Q1018=
200912262030 METAR LPPR 262030Z 00000KT CAVOK 07/04 Q1017=
200912262000 METAR LPPR 262000Z 00000KT CAVOK 08/04 Q1016=
200912261930 METAR LPPR 261930Z 00000KT CAVOK 07/04 Q1016=
200912261900 METAR LPPR 261900Z 34003KT CAVOK 07/04 Q1016=
200912261830 METAR LPPR 261830Z 35005KT 9999 FEW017 08/04 Q1015=
200912261800 METAR LPPR 261800Z 34005KT 9999 SKC 09/04 Q1015=
200912261730 METAR LPPR 261730Z 34006KT 9999 FEW017 10/05 Q1015=
200912261700 METAR LPPR 261700Z 33009KT 9999 FEW017 11/05 Q1014=
200912261630 METAR LPPR 261630Z 34006KT 9999 FEW017 12/06 Q1013=
200912261600 METAR LPPR 261600Z 33011KT 9999 FEW017 12/07 Q1012=
200912261530 METAR LPPR 261530Z 33012KT 9999 FEW017 12/06 Q1012=
200912261500 METAR LPPR 261500Z 32012KT 9999 FEW017 12/06 Q1011=
200912261430 METAR LPPR 261430Z 33014KT 9999 FEW017 12/04 Q1011=
200912261400 METAR LPPR 261400Z 32010KT 9999 FEW017 12/03 Q1010=
200912261330 METAR LPPR 261330Z 33010KT 9999 FEW017 12/04 Q1010=
200912261300 METAR LPPR 261300Z 33007KT 300V010 9999 FEW017 12/04 Q1009=
200912261230 METAR LPPR 261230Z 34005KT 310V010 CAVOK 11/04 Q1009=
200912261200 METAR LPPR 261200Z 33004KT 290V350 CAVOK 11/03 Q1009=
200912261130 METAR LPPR 261130Z VRB03KT CAVOK 10/04 Q1009=
200912261100 METAR LPPR 261100Z 00000KT CAVOK 10/05 Q1008=
200912261030 METAR LPPR 261030Z 00000KT CAVOK 09/05 Q1008=
200912261000 METAR LPPR 261000Z 00000KT CAVOK 08/05 Q1007=
200912260930 METAR LPPR 260930Z 00000KT CAVOK 06/04 Q1007=
200912260900 METAR LPPR 260900Z 00000KT CAVOK 05/03 Q1006=
200912260830 METAR LPPR 260830Z 06002KT CAVOK 05/03 Q1006=
200912260800 METAR LPPR 260800Z 05001KT CAVOK 05/03 Q1006=
200912260730 METAR LPPR 260730Z VRB01KT 9999 SCT030 BKN090 05/03 Q1005=
200912260700 METAR LPPR 260700Z 08002KT 9999 SCT030 BKN080 06/03 Q1004=
200912260630 METAR LPPR 260630Z VRB03KT 9999 SCT030 BKN070 07/03 Q1004=
200912260600 METAR LPPR 260600Z VRB01KT 9999 SCT030 BKN070 07/03 Q1003=
200912260530 METAR LPPR 260530Z VRB02KT 9999 SCT030 BKN070 07/03 Q1003=
200912260500 METAR LPPR 260500Z 01004KT 9999 SCT030 BKN070 07/03 Q1003=
200912260430 METAR LPPR 260430Z 03006KT 9999 SCT025 BKN070 07/03 Q1003=
200912260400 METAR LPPR 260400Z 02004KT 9999 SCT020 SCT070 06/03 Q1003=
200912260330 METAR LPPR 260330Z 04004KT 9999 FEW030 SCT070 07/02 Q1003=
200912260300 METAR LPPR 260300Z VRB03KT 9999 FEW030 SCT070 07/02 Q1002=
200912260230 METAR LPPR 260230Z VRB01KT 9999 FEW030 SCT070 07/02 Q1002=
200912260200 METAR LPPR 260200Z VRB03KT 9999 SCT030 SCT070 07/02 Q1002=
200912260130 METAR LPPR 260130Z VRB03KT 9999 SCT030 BKN070 08/03 Q1002=
200912260100 METAR LPPR 260100Z 05003KT 9999 SCT030 BKN070 08/03 Q1002=
200912260030 METAR LPPR 260030Z VRB03KT 9999 SCT030 BKN070 08/03 Q1002=
200912260000 METAR LPPR 260000Z VRB03KT 9999 SCT030 BKN070 08/03 Q1002=
200912252330 METAR LPPR 252330Z VRB03KT 9999 SCT030 BKN070 08/03 Q1002=
200912252300 METAR LPPR 252300Z 06004KT 010V120 9999 SCT030 BKN070 09/02
                        Q1002=
200912252230 METAR LPPR 252230Z 05004KT 020V080 CAVOK 08/02 Q1002=
200912252200 METAR LPPR 252200Z 06004KT 020V090 CAVOK 09/02 Q1002=
200912252130 METAR LPPR 252130Z 06005KT 030V090 CAVOK 08/02 Q1002=
200912252100 METAR LPPR 252100Z 06004KT 020V100 CAVOK 09/02 Q1002=
200912252030 METAR LPPR 252030Z 06006KT 020V100 CAVOK 09/02 Q1002=
200912252000 METAR LPPR 252000Z 06004KT 020V090 CAVOK 09/02 Q1002=
200912251930 METAR LPPR 251930Z 07004KT 030V110 CAVOK 09/02 Q1002=
200912251900 METAR LPPR 251900Z 07006KT 030V100 CAVOK 09/02 Q1002=
200912251830 METAR LPPR 251830Z 07006KT 030V100 CAVOK 09/02 Q1002=
200912251800 METAR LPPR 251800Z 07004KT 030V130 CAVOK 09/03 Q1002=
200912251730 METAR LPPR 251730Z VRB03KT CAVOK 09/04 Q1002=
200912251700 METAR LPPR 251700Z VRB03KT CAVOK 09/04 Q1002=
200912251630 METAR LPPR 251630Z 05005KT 350V090 CAVOK 10/04 Q1003=
200912251600 METAR LPPR 251600Z 04006KT CAVOK 10/04 Q1003=
200912251530 METAR LPPR 251530Z 03005KT 360V060 CAVOK 10/05 Q1004=
200912251500 METAR LPPR 251500Z 05005KT 020V080 CAVOK 10/05 Q1004=
200912251430 METAR LPPR 251430Z VRB03KT CAVOK 10/04 Q1005=
200912251400 METAR LPPR 251400Z 05004KT 360V110 CAVOK 10/04 Q1005=
200912251330 METAR LPPR 251330Z 08004KT 030V140 CAVOK 10/04 Q1006=
200912251300 METAR LPPR 251300Z 07005KT 020V100 CAVOK 10/04 Q1006=
200912251230 METAR LPPR 251230Z 08005KT 030V110 CAVOK 10/04 Q1006=
200912251200 METAR LPPR 251200Z VRB03KT CAVOK 09/04 Q1007=
200912251130 METAR LPPR 251130Z 11005KT 080V140 CAVOK 08/04 Q1007=
200912251100 METAR LPPR 251100Z 09005KT 050V120 CAVOK 08/05 Q1008=
200912251030 METAR LPPR 251030Z VRB03KT CAVOK 07/04 Q1008=
200912251000 METAR LPPR 251000Z 09004KT 040V130 CAVOK 06/04 Q1008=
200912250930 METAR LPPR 250930Z 08005KT 050V130 CAVOK 06/04 Q1008=
200912250900 METAR LPPR 250900Z 09005KT 060V120 CAVOK 05/03 Q1008=
200912250830 METAR LPPR 250830Z 10005KT 8000 FEW090 BKN200 04/03 Q1008=
200912250800 METAR LPPR 250800Z 08005KT 050V120 8000 SCT090 SCT200 04/03
                        Q1008=
200912250730 METAR LPPR 250730Z 10004KT 030V130 8000 FEW090 SCT200 04/03
                        Q1008=
200912250700 METAR LPPR 250700Z 10006KT 070V130 7000 FEW015 05/03 Q1008=
200912250630 METAR LPPR 250630Z 09005KT 070V130 7000 FEW017 05/04 Q1008=
200912250600 METAR LPPR 250600Z 09004KT 6000 FEW017 05/04 Q1008=
200912250530 METAR LPPR 250530Z VRB03KT 6000 FEW017 05/04 Q1008=
200912250500 METAR LPPR 250500Z 10004KT 070V130 6000 FEW017 05/04 Q1008=
200912250430 METAR LPPR 250430Z 11006KT 6000 FEW017 05/04 Q1008=
200912250400 METAR LPPR 250400Z 11007KT 6000 FEW017 06/05 Q1007=
200912250330 METAR LPPR 250330Z 09003KT 7000 FEW017 06/05 Q1006=
200912250300 METAR LPPR 250300Z 09004KT 7000 FEW017 06/05 Q1007=
200912250230 METAR LPPR 250230Z 11006KT 5000 BR FEW015 06/05 Q1006=
200912250200 METAR LPPR 250200Z 10005KT 6000 FEW017 06/05 Q1006=
200912250130 METAR LPPR 250130Z VRB03KT 6000 FEW017 06/05 Q1006=
200912250100 METAR LPPR 250100Z VRB03KT 6000 FEW017 06/06 Q1006=
200912250030 METAR LPPR 250030Z 10004KT 7000 FEW015 SCT030 07/06 Q1005=
200912250000 METAR LPPR 250000Z 00000KT 7000 -SHRA FEW015 BKN030 06/05
                        Q1005=
200912242330 METAR LPPR 242330Z VRB02KT 9999 FEW015 06/05 Q1005=
200912242300 METAR LPPR 242300Z 00000KT 9999 FEW015 SCT040 06/05 Q1005=
200912242230 METAR LPPR 242230Z VRB02KT 9999 FEW015 BKN040 07/06 Q1004=
200912242200 METAR LPPR 242200Z 02004KT 350V050 8000 -SHRA SCT015 BKN040
                        08/07 Q1003=
200912242130 METAR LPPR 242130Z 05003KT 9999 FEW015 BKN035 07/06 Q1003=
200912242100 METAR LPPR 242100Z VRB02KT 9999 SCT017 08/06 Q1002=
200912242030 METAR LPPR 242030Z VRB03KT 8000 -SHRA FEW015 BKN025 08/06
                        Q1002=
200912242000 METAR LPPR 242000Z 36004KT 9999 SCT018 09/06 Q1001=
200912241930 METAR LPPR 241930Z 34010KT 9999 SCT013 SCT020 10/07 Q1000=
200912241900 METAR LPPR 241900Z 33010KT 9999 SCT013 SCT020 10/08 Q0999=
200912241830 METAR LPPR 241830Z 33014KT 9999 SCT013 FEW017CB BKN020 10/07
                        Q0998=
200912241800 METAR LPPR 241800Z 33016KT 9999 SCT013 FEW015CB BKN020 10/08
                        Q0997=
200912241730 METAR LPPR 241730Z 31012KT 9999 FEW009 SCT012 SCT015CB BKN025
                        10/08 Q0996=
200912241700 METAR COR LPPR 241700Z 32013KT 7000 -SHRA FEW009 SCT012 SCT015CB
                        BKN025 11/08 Q0996=
200912241630 METAR LPPR 241630Z 32012KT 9999 FEW013 FEW015TCU FEW017CB
                        BKN025 11/09 Q0995=
200912241600 METAR LPPR 241600Z 30010KT 280V340 9999 VCSH FEW009 SCT017CB
                        BKN025 11/09 Q0994 RESHRA=
200912241530 METAR LPPR 241530Z 31009KT 280V340 7000 SHRA FEW009 SCT017CB
                        BKN025 10/09 Q0994=
200912241500 METAR LPPR 241500Z 32008KT 7000 -SHRA FEW009 SCT013 SCT017CB
                        BKN025 12/09 Q0993=
200912241430 METAR LPPR 241430Z 30008KT 250V330 9999 FEW009 SCT013 FEW017CB
                        BKN025 12/09 Q0992=
200912241400 METAR LPPR 241400Z 31009KT 270V340 9000 -SHRA FEW009 SCT013
                        FEW017CB BKN030 12/09 Q0992=
200912241330 METAR LPPR 241330Z 29007KT 260V320 8000 SCT015 BKN030 13/10
                        Q0991=
200912241300 METAR LPPR 241300Z 31011KT 8000 -SHRA SCT015 BKN025 13/09
                        Q0991=
200912241230 METAR LPPR 241230Z 31011KT 270V350 8000 SCT015 BKN025 13/08
                        Q0990=
200912241200 METAR LPPR 241200Z 30010KT 250V320 8000 SCT015 BKN025 13/09
                        Q0989=
200912241130 METAR LPPR 241130Z 31010KT 260V340 8000 -SHRA SCT015 BKN025
                        12/10 Q0989=
200912241100 METAR LPPR 241100Z 30009KT 270V330 8000 FEW008 SCT012 BKN020
                        12/10 Q0989 WS ALL RWY=
200912241030 METAR LPPR 241030Z 28013KT 260V320 7000 SCT008 SCT012 BKN020
                        12/10 Q0987 WS ALL RWY=
200912241000 METAR LPPR 241000Z 29012KT 260V330 7000 -SHRA SCT008 SCT012
                        BKN020 13/10 Q0986 WS ALL RWY=
200912240930 METAR LPPR 240930Z 30013G23KT 260V320 8000 FEW008 SCT012
                        BKN020 13/09 Q0984 WS ALL RWY=
200912240900 METAR LPPR 240900Z 28012KT 250V310 8000 SCT008 SCT012 BKN020
                        13/11 Q0982 WS ALL RWY=
200912240830 METAR LPPR 240830Z 25011KT 210V280 8000 SCT008 SCT012 BKN020
                        14/13 Q0980 WS ALL RWY=
200912240800 METAR LPPR 240800Z 19020G31KT 6000 SCT008 SCT012 BKN017 14/14
                        Q0979 WS ALL RWY=
200912240730 METAR LPPR 240730Z 20024KT 3000 -SHRA BR FEW008 SCT013 BKN030
                        15/13 Q0979 WS ALL RWY=
200912240700 METAR LPPR 240700Z 20023KT 6000 SCT015 BKN030 15/13 Q0979
                        RERA WS ALL RWY=
200912240630 METAR LPPR 240630Z 20022G32KT 3000 SHRA BR SCT008 BKN012
                        FEW020CB 15/14 Q0978 WS ALL RWY=
200912240600 METAR LPPR 240600Z 18027KT 3000 -SHRA BR SCT012 FEW020CB
                        BKN025 16/14 Q0978 WS ALL RWY=
200912240530 METAR LPPR 240530Z 18026KT 5000 BR SCT015 FEW020CB BKN030
                        16/14 Q0978 WS ALL RWY=
200912240500 METAR LPPR 240500Z 18029G40KT 5000 BR SCT015 FEW020CB BKN030
                        16/14 Q0978 WS ALL RWY=
200912240430 METAR LPPR 240430Z 19024KT 5000 -SHRA BR SCT015 FEW020CB
                        BKN030 16/14 Q0979 WS ALL RWY=
200912240400 METAR LPPR 240400Z 18029G39KT 7000 SCT015 FEW020CB BKN030
                        16/14 Q0979 WS ALL RWY=
200912240330 METAR LPPR 240330Z 17032G42KT 7000 SCT015 FEW020CB BKN030
                        16/14 Q0979 WS ALL RWY=
200912240300 METAR LPPR 240300Z 17029G40KT 7000 SCT015 FEW020CB BKN030
                        16/14 Q0980 WS ALL RWY=
200912240230 METAR LPPR 240230Z 18029KT 5000 BR SCT008 SCT015 FEW020CB
                        BKN030 16/15 Q0981 WS ALL RWY=
200912240200 METAR LPPR 240200Z 18027G41KT 5000 VCSH BR SCT008 SCT017
                        FEW020CB BKN030 16/15 Q0981 WS ALL
                        RWY=
200912240130 METAR LPPR 240130Z 18024KT 8000 FEW008 SCT015 FEW020CB 16/14
                        Q0982 WS ALL RWY=
200912240100 METAR LPPR 240100Z 18027KT 5000 VCSH BR SCT006 SCT015 FEW020CB
                        16/15 Q0982 WS ALL RWY=
200912240030 METAR LPPR 240030Z 18018KT 5000 VCSH BR SCT006 SCT015 FEW020CB
                        BKN030 15/14 Q0982=
200912240000 METAR LPPR 240000Z 18014KT 8000 FEW015 FEW020CB BKN032 15/13
                        Q0983=
200912232330 METAR LPPR 232330Z 18016KT 9999 FEW015 FEW020CB SCT035 14/13
                        Q0983=
200912232300 METAR LPPR 232300Z 13010KT 9999 SCT013 FEW020CB SCT035 13/11
                        Q0983 RETS=
200912232230 METAR LPPR 232230Z 06004KT 350V110 9999 -TSRA SCT013 SCT020CB
                        BKN035 11/10 Q0983 WS ALL RWY=
200912232200 METAR LPPR 232200Z 31019G39KT 250V020 3000 +TSGS SCT002 SCT012
                        BKN017CB 10/10 Q0983 WS ALL RWY=
200912232130 METAR LPPR 232130Z 10011KT 060V130 8000 -RA SCT005 BKN020
                        BKN090 10/09 Q0982=
200912232100 METAR LPPR 232100Z 10009KT 070V130 8000 FEW020 SCT035 BKN090
                        10/09 Q0984=
200912232030 METAR LPPR 232030Z 10008KT 070V130 8000 FEW020 SCT035 BKN090
                        10/09 Q0984=
200912232000 METAR LPPR 232000Z 10008KT 060V130 8000 -RA BR FEW020 SCT030
                        BKN090 10/09 Q0985 RERA=
200912231930 METAR LPPR 231930Z 10011KT 070V130 7000 RA BR SCT020 SCT030
                        BKN080 09/08 Q0986=
200912231900 METAR LPPR 231900Z 10005KT 060V130 7000 RA BR SCT020 SCT030
                        BKN090 09/08 Q0988=
200912231830 METAR LPPR 231830Z 12007KT 7000 -RA BR FEW020 SCT030 BKN090
                        10/08 Q0989=
200912231800 METAR LPPR 231800Z 12006KT 7000 -RA BR FEW015 BKN120 11/07
                        Q0989=
200912231730 METAR LPPR 231730Z 12008KT 9999 FEW015 BKN120 11/07 Q0989=
200912231700 METAR LPPR 231700Z 12008KT 9999 FEW015 BKN120 11/07 Q0990=
200912231630 METAR LPPR 231630Z 12006KT 9999 FEW015 BKN080 BKN250 11/08
                        Q0991=
200912231600 METAR LPPR 231600Z 12006KT 9999 FEW015 SCT080 BKN120 11/08
                        Q0991=
200912231530 METAR LPPR 231530Z VRB03KT 9999 FEW015 BKN090 BKN250 11/07
                        Q0992=
200912231500 METAR LPPR 231500Z VRB03KT 9999 FEW015 BKN090 BKN250 11/06
                        Q0992=
200912231430 METAR LPPR 231430Z 15004KT 110V190 9999 FEW015 SCT090 BKN250
                        12/06 Q0992=
200912231400 METAR LPPR 231400Z VRB03KT 9999 FEW015 SCT090 BKN250 12/06
                        Q0993=
200912231330 METAR LPPR 231330Z VRB02KT 9999 FEW015 BKN250 12/06 Q0993=
200912231300 METAR LPPR 231300Z 00000KT 9999 FEW015 BKN250 12/06 Q0994=
200912231230 METAR LPPR 231230Z VRB01KT 9999 FEW015 BKN250 12/06 Q0993=
200912231200 METAR LPPR 231200Z 00000KT 9999 FEW015 SCT250 11/07 Q0994=
200912231130 METAR LPPR 231130Z VRB02KT 9999 FEW015 SCT250 10/07 Q0994=
200912231100 METAR LPPR 231100Z VRB03KT 9999 FEW015 BKN045 10/06 Q0994=
200912231030 METAR LPPR 231030Z VRB01KT 9999 FEW015 BKN045 10/06 Q0994=
200912231000 METAR LPPR 231000Z 05004KT 020V100 9999 FEW015 SCT070 09/06
                        Q0992=
200912230930 METAR LPPR 230930Z VRB03KT 9999 FEW015 SCT080 08/06 Q0992=
200912230900 METAR LPPR 230900Z 05005KT 020V090 9999 FEW015 SCT090 BKN250
                        07/05 Q0990=
200912230830 METAR LPPR 230830Z 02007KT 9999 FEW015 SCT040 07/05 Q0989=
200912230800 METAR LPPR 230800Z 03009KT 360V060 9999 FEW015 SCT040 07/05
                        Q0988=
200912230730 METAR LPPR 230730Z 04012KT 9999 -RA FEW020 BKN040 BKN070
                        07/06 Q0988 WS ALL RWY=
200912230700 METAR LPPR 230700Z 03011KT 350V050 8000 -RA FEW020 BKN035
                        07/06 Q0987 RERA WS ALL RWY=
200912230630 METAR LPPR 230630Z 03013KT 360V060 8000 RA FEW020 BKN035
                        07/06 Q0987 WS ALL RWY=
200912230600 METAR LPPR 230600Z 04016KT 360V060 7000 RA FEW020 BKN040
                        07/06 Q0986 WS ALL RWY=
200912230530 METAR LPPR 230530Z 04014KT 020V080 7000 RA FEW020 BKN040
                        07/06 Q0986=
200912230500 METAR LPPR 230500Z 03013KT 360V060 7000 RA SCT020 BKN035
                        07/06 Q0987=
200912230430 METAR LPPR 230430Z 03013KT 350V050 6000 RA SCT017 BKN030
                        07/06 Q0988=
200912230400 METAR LPPR 230400Z 04014KT 6000 RA SCT017 BKN030 07/06 Q0990=
200912230330 METAR LPPR 230330Z 04010KT 6000 RA SCT017 BKN030 08/07 Q0991=
200912230300 METAR LPPR 230300Z 04008KT 7000 RA SCT017 BKN030 08/07 Q0992=
200912230230 METAR LPPR 230230Z 05005KT 350V100 7000 RA SCT017 BKN030
                        08/07 Q0993=
200912230200 METAR LPPR 230200Z 07006KT 040V130 6000 RA SCT017 BKN030
                        08/07 Q0994=
200912230130 METAR LPPR 230130Z 09006KT 060V120 6000 RA SCT019 BKN030
                        09/08 Q0995=
200912230100 METAR LPPR 230100Z 09004KT 060V120 6000 RA SCT019 BKN030
                        09/08 Q0997=
200912230030 METAR LPPR 230030Z 10005KT 070V130 6000 -RA SCT019 BKN030
                        09/08 Q0997=
200912230000 METAR LPPR 230000Z 13006KT 7000 -RA SCT019 BKN030 09/08 Q0998=
200912222330 METAR LPPR 222330Z 13006KT 7000 -RA SCT020 BKN030 09/08 Q0999=
200912222300 METAR LPPR 222300Z 13008KT 8000 -RA FEW020 BKN030 09/07 Q0999=
200912222230 METAR LPPR 222230Z 11007KT 9999 SCT030 BKN070 10/06 Q0999=
200912222200 METAR LPPR 222200Z 11005KT 9999 SCT025 SCT070 09/06 Q1000=
200912222130 METAR LPPR 222130Z 00000KT 9999 SCT007 BKN030 09/06 Q1000=
200912222100 METAR LPPR 222100Z VRB01KT 9999 SCT017 SCT030 10/05 Q1000=
200912222030 METAR LPPR 222030Z VRB03KT 9999 SCT017 SCT030 11/05 Q1000=
200912222000 METAR LPPR 222000Z 28005KT 220V320 9999 SCT017 SCT030 11/05
                        Q1000=
200912221930 METAR LPPR 221930Z 27006KT 230V320 9999 SCT017 SCT030 11/06
                        Q1000=
200912221900 METAR LPPR 221900Z 28006KT 250V340 9999 BKN017 SCT030 11/06
                        Q1000=
200912221830 METAR LPPR 221830Z 28009KT 240V010 9999 SCT017 SCT030 12/07
                        Q1000=
200912221800 METAR LPPR 221800Z 30007KT 270V330 9999 SCT017 FEW020TCU
                        11/08 Q0999=
200912221730 METAR LPPR 221730Z 27009KT 220V290 9999 BKN017 FEW020TCU
                        12/05 Q0999=
200912221700 METAR LPPR 221700Z 28008KT 250V320 9999 BKN017 FEW020TCU
                        12/07 Q0998=
200912221630 METAR LPPR 221630Z 27007KT 230V310 9999 SCT017 FEW020TCU
                        13/08 Q0998=
200912221600 METAR LPPR 221600Z 29004KT 240V350 9999 BKN017 FEW020TCU
                        12/08 Q0997=
200912221530 METAR LPPR 221530Z 31007KT 270V330 9999 BKN017 12/07 Q0997=
200912221500 METAR LPPR 221500Z 31008KT 270V340 9999 SCT017 SCT025 12/08
                        Q0996=
200912221430 METAR LPPR 221430Z 32010KT 9999 SCT017 BKN025 12/09 Q0995=
200912221400 METAR LPPR 221400Z 34009KT 9999 FEW015 BKN040 12/09 Q0994=
200912221330 METAR LPPR 221330Z 34013KT 9999 FEW013 BKN040 11/09 Q0994=
200912221300 METAR LPPR 221300Z 33015KT 8000 SCT013 BKN030 11/09 Q0994=
200912221230 METAR LPPR 221230Z 33017KT 6000 -SHRA SCT006 SCT012 BKN020
                        11/09 Q0993=
200912221200 METAR LPPR 221200Z 31007KT 4000 SHRA BR BKN005 SCT013 12/11
                        Q0992=
200912221130 METAR LPPR 221130Z VRB03KT 4000 -SHRA BR BKN006 SCT013 13/12
                        Q0992 RERA=
200912221100 METAR LPPR 221100Z 19009KT 4000 -SHRA BR SCT008 SCT015 BKN025
                        13/12 Q0992=
200912221030 METAR LPPR 221030Z 22004KT 170V270 6000 -SHRA SCT015 FEW018CB
                        BKN035 13/12 Q0992=
200912221000 METAR LPPR 221000Z VRB04KT 6000 -SHRA SCT015 SCT017CB BKN070
                        13/12 Q0992=
200912220930 METAR LPPR 220930Z 16008KT 4000 -SHRA BR SCT015 SCT017CB
                        BKN070 13/12 Q0991=
200912220900 METAR LPPR 220900Z 16009KT 8000 SCT015 SCT020CB SCT070 12/11
                        Q0991=
200912220830 METAR LPPR 220830Z 16006KT 8000 SCT015 SCT017CB BKN035 12/11
                        Q0991=
200912220800 METAR LPPR 220800Z 16007KT 130V190 9999 FEW008 SCT015 FEW017CB
                        BKN035 12/11 Q0991=
200912220730 METAR LPPR 220730Z 16010KT 8000 -SHRA SCT006 SCT015 FEW017CB
                        12/12 Q0991 RERA=
200912220700 METAR LPPR 220700Z 24005KT 190V300 4000 SHRA BR SCT003 SCT015
                        SCT017CB 13/12 Q0991=
200912220630 METAR LPPR 220630Z 19004KT 160V230 8000 -SHRA FEW008 SCT015
                        FEW017CB BKN060 13/12 Q0991=
200912220600 METAR LPPR 220600Z VRB03KT 8000 -SHRA FEW008 SCT015 FEW017CB
                        BKN070 14/13 Q0991=
200912220530 METAR LPPR 220530Z 22007KT 9999 FEW008 SCT015 FEW017CB BKN070
                        14/13 Q0991=
200912220500 METAR LPPR 220500Z 23007KT 200V260 8000 -SHRA SCT015 FEW017CB
                        SCT030 14/12 Q0992=
200912220430 METAR LPPR 220430Z 23005KT 200V270 8000 -TSRA FEW015 FEW017CB
                        SCT030 14/12 Q0992=
200912220400 METAR LPPR 220400Z 21008KT 170V240 9999 FEW015 FEW017CB SCT040
                        14/12 Q0992=
200912220330 METAR LPPR 220330Z 22007KT 9999 TS FEW015 FEW017CB SCT040
                        14/12 Q0993=
200912220300 METAR LPPR 220300Z 23008KT 200V260 9000 -SHRA FEW013 FEW017CB
                        SCT040 14/12 Q0993=
200912220230 METAR LPPR 220230Z 24007KT 200V270 9999 FEW013 FEW017CB SCT030
                        14/12 Q0993=
200912220200 METAR LPPR 220200Z 23008KT 210V270 9999 FEW017CB SCT030 BKN070
                        13/12 Q0993=
200912220130 METAR LPPR 220130Z 23009KT 190V270 9999 -SHRA FEW009 FEW017CB
                        SCT030 13/12 Q0992=
200912220100 METAR LPPR 220100Z 25010KT 210V310 9999 -TSRA FEW009 SCT017CB
                        SCT030 14/12 Q0993 WS ALL RWY=
200912220030 METAR LPPR 220030Z 21010KT 180V240 9999 TS FEW009 SCT013
                        SCT017CB 14/13 Q0993 WS ALL RWY=
200912220000 METAR LPPR 220000Z 25007KT 210V310 7000 -TSRA FEW009 SCT013
                        SCT014CB 13/13 Q0993 WS ALL RWY=
200912212330 METAR LPPR 212330Z 24010KT 200V290 5000 SHRA SCT009 SCT013
                        SCT014CB 13/12 Q0993=
200912212300 METAR LPPR 212300Z 24007KT 200V270 7000 -TSRA SCT009 SCT013
                        SCT014CB 13/12 Q0993 RERA=
200912212230 METAR LPPR 212230Z 24009KT 190V270 4000 SHRA SCT008 SCT015
                        SCT017CB 13/12 Q0993=
200912212200 METAR LPPR 212200Z 24005KT 190V320 8000 -SHRA FEW009 SCT015
                        SCT020CB 14/13 Q0992=
200912212130 METAR LPPR 212130Z 20012KT 180V260 9999 TS SCT015 SCT020CB
                        SCT030 15/12 Q0993 WS ALL RWY=
200912212100 METAR LPPR 212100Z 21015KT 9999 SCT015 FEW020CB SCT030 14/12
                        Q0992 WS ALL RWY=
200912212030 METAR LPPR 212030Z 20017KT 9999 -TSRA SCT015 FEW020CB SCT030
                        16/13 Q0992 WS ALL RWY=
200912212000 METAR LPPR 212000Z 20015G26KT 180V240 9999 SCT015 FEW020CB
                        SCT030 15/13 Q0992 WS ALL RWY=
200912211930 METAR LPPR 211930Z 21020G30KT 180V240 9999 SCT013 FEW020CB
                        SCT030 15/12 Q0992 RETS WS ALL RWY=
200912211900 METAR LPPR 211900Z 21017G32KT 180V240 3000 TSRA SCT007 BKN013
                        SCT017CB 15/13 Q0992 WS ALL RWY=
200912211830 METAR LPPR 211830Z 21015G25KT 9999 SCT013 FEW020CB BKN025
                        16/13 Q0991 WS ALL RWY=
200912211800 METAR LPPR 211800Z 21014G24KT 8000 SCT013 FEW020CB BKN025
                        15/13 Q0992 WS ALL RWY=
200912211730 METAR LPPR 211730Z 22014G24KT 200V260 8000 SCT013 FEW025CB
                        BKN030 15/13 Q0991 WS ALL RWY=
200912211700 METAR LPPR 211700Z 21016KT 180V240 8000 FEW008 SCT015 FEW025CB
                        13/12 Q0991 WS ALL RWY=
200912211630 METAR LPPR 211630Z 22020G30KT 7000 -SHRA FEW008 BKN015 SCT020CB
                        13/12 Q0991 WS ALL RWY=
200912211600 METAR LPPR 211600Z 20020KT 7000 TS VCSH FEW008 BKN015 SCT020CB
                        16/13 Q0990 WS ALL RWY=
200912211530 METAR LPPR 211530Z 20021G35KT 8000 FEW009 SCT015 FEW025CB
                        17/13 Q0990 WS ALL RWY=
200912211500 METAR LPPR 211500Z 20017G28KT 8000 FEW008 SCT015 FEW020CB
                        BKN030 16/14 Q0990 RESHRA WS ALL
                        RWY=
200912211430 METAR LPPR 211430Z 22017G29KT 5000 SHRA BR SCT009 BKN015
                        SCT020CB 15/13 Q0989 WS ALL RWY=
200912211400 METAR LPPR 211400Z 21015KT 180V240 9999 FEW009 BKN017 FEW025CB
                        16/13 Q0989 RESHRA WS ALL RWY=
200912211330 METAR LPPR 211330Z 21020G42KT 180V240 7000 SHRA SCT009 BKN015
                        FEW020CB 15/14 Q0989 WS ALL RWY=
200912211300 METAR LPPR 211300Z 20017G27KT 9999 FEW009 BKN015 FEW020CB
                        15/13 Q0990 WS ALL RWY=
200912211230 METAR LPPR 211230Z 21017KT 180V240 9999 FEW009 SCT015 FEW020CB
                        14/13 Q0990 RESHRA WS ALL RWY=
200912211200 METAR LPPR 211200Z 19018G28KT 6000 -SHRA FEW007 BKN015 FEW025CB
                        14/13 Q0990 WS ALL RWY=
200912211130 METAR LPPR 211130Z 18019KT 7000 -SHRA SCT007 BKN015 FEW025CB
                        14/13 Q0990 WS ALL RWY=
200912211100 METAR LPPR 211100Z 18021KT 7000 SCT007 BKN015 FEW025CB 14/13
                        Q0990 RESHRA WS ALL RWY=
200912211030 METAR LPPR 211030Z 18021KT 5000 SHRA SCT007 BKN013 FEW020CB
                        13/12 Q0990 WS ALL RWY=
200912211000 METAR LPPR 211000Z 18022KT 4000 SHRA SCT009 BKN013 FEW020CB
                        14/12 Q0990 WS ALL RWY=
200912210930 METAR LPPR 210930Z 18023G34KT 8000 SCT009 BKN014 FEW020CB
                        14/12 Q0990 WS ALL RWY=
200912210900 METAR LPPR 210900Z 17021G32KT 8000 -SHRA SCT007 BKN013 FEW020CB
                        13/12 Q0989 WS ALL RWY=
200912210830 METAR LPPR 210830Z 17021KT 9999 -SHRA SCT013 FEW020CB BKN025
                        13/11 Q0989 WS ALL RWY=
200912210800 METAR LPPR 210800Z 17024G34KT 9999 FEW013 FEW020CB BKN025
                        13/11 Q0989 WS ALL RWY=
200912210730 METAR LPPR 210730Z 17026KT 9999 FEW015 FEW020CB BKN025 13/10
                        Q0989 WS ALL RWY=
200912210700 METAR LPPR 210700Z 17026KT 9999 BKN017 BKN025 13/10 Q0989
                        WS ALL RWY=
200912210630 METAR LPPR 210630Z 17020G30KT 8000 -RA BKN017 BKN025 13/11
                        Q0989 RERA=
200912210600 METAR LPPR 210600Z 18022G33KT 6000 RA BKN017 BKN030 13/11
                        Q0990=
200912210530 METAR LPPR 210530Z 18022KT 140V200 9999 -RA BKN020 BKN070
                        14/11 Q0990=
200912210500 METAR LPPR 210500Z 17023KT 9999 BKN020 BKN040 14/11 Q0990=
200912210430 METAR LPPR 210430Z 13012KT 9999 BKN019 SCT040 12/09 Q0990=
200912210400 METAR LPPR 210400Z 13011KT 9999 BKN019 SCT040 12/09 Q0991=
200912210330 METAR LPPR 210330Z 13012KT 9999 BKN019 SCT040 11/09 Q0992=
200912210300 METAR LPPR 210300Z 13012KT 9999 BKN019 SCT040 10/08 Q0992=
200912210230 METAR LPPR 210230Z 13011KT 9999 BKN019 SCT040 09/06 Q0992=
200912210200 METAR LPPR 210200Z 13013KT 9999 BKN019 SCT040 09/06 Q0992=
200912210130 METAR LPPR 210130Z 12013KT 8000 -RA BKN019 SCT040 08/06 Q0993=
200912210100 METAR LPPR 210100Z 12012KT 8000 -RA BKN020 SCT070 07/05 Q0994=
200912210030 METAR LPPR 210030Z 12011KT 090V150 8000 -RA BKN020 SCT090
                        07/02 Q0994=
200912210000 METAR LPPR 210000Z 11012KT 9999 BKN025 SCT090 08/01 Q0996=
200912202330 METAR LPPR 202330Z 11011KT 070V140 9999 -RA SCT025 BKN090
                        07/01 Q0997=
200912202300 METAR LPPR 202300Z 10011KT 070V150 9999 -RA SCT025 BKN090
                        07/M01 Q0997=
200912202230 METAR LPPR 202230Z 10012KT 070V130 9999 SCT025 BKN090 07/M02
                        Q0998=
200912202200 METAR LPPR 202200Z 11010KT 080V140 9999 -RA SCT025 BKN090
                        06/M04 Q1000=
200912202130 METAR LPPR 202130Z 10012KT 070V140 9999 SCT025 BKN090 07/M06
                        Q1000=
200912202100 METAR LPPR 202100Z 11012KT 080V140 9999 -RA SCT025 BKN090
                        08/M08 Q1001=
200912202030 METAR LPPR 202030Z 11011KT 9999 FEW025 BKN090 BKN250 07/M09
                        Q1002=
200912202000 METAR LPPR 202000Z 11010KT 070V140 9999 FEW025 BKN090 BKN250
                        07/M09 Q1003=
200912201930 METAR LPPR 201930Z 11009KT 9999 FEW025 BKN090 BKN250 07/M09
                        Q1004=
200912201900 METAR LPPR 201900Z 10008KT 9999 FEW025 BKN090 BKN250 06/M08
                        Q1004=
200912201830 METAR LPPR 201830Z 10008KT 070V130 9999 FEW025 BKN090 BKN250
                        06/M06 Q1005=
200912201800 METAR LPPR 201800Z 10009KT 070V130 9999 SCT025 BKN090 BKN250
                        06/M06 Q1006=
200912201730 METAR LPPR 201730Z 10007KT CAVOK 06/M05 Q1007=
200912201700 METAR LPPR 201700Z 10006KT CAVOK 06/M04 Q1008=
200912201630 METAR LPPR 201630Z 09005KT 050V130 CAVOK 07/M04 Q1008=
200912201600 METAR LPPR 201600Z 09004KT 050V120 CAVOK 08/M04 Q1009=
200912201530 METAR LPPR 201530Z 10005KT 060V120 CAVOK 08/M05 Q1009=
200912201500 METAR LPPR 201500Z 10007KT 060V130 CAVOK 08/M06 Q1010=
200912201430 METAR LPPR 201430Z 11007KT 050V140 CAVOK 09/M06 Q1011=
200912201400 METAR LPPR 201400Z 10007KT CAVOK 09/M07 Q1011=
200912201330 METAR LPPR 201330Z 12007KT 060V150 CAVOK 09/M07 Q1012=
200912201300 METAR LPPR 201300Z 11007KT 080V170 CAVOK 08/M07 Q1013=
200912201230 METAR LPPR 201230Z 10008KT CAVOK 08/M07 Q1013=
200912201200 METAR LPPR 201200Z 11007KT 080V140 CAVOK 06/M07 Q1014=
200912201130 METAR LPPR 201130Z 11008KT CAVOK 07/M06 Q1014=
200912201100 METAR LPPR 201100Z 10008KT 070V130 CAVOK 06/M06 Q1014=
200912201030 METAR LPPR 201030Z 11009KT 080V140 CAVOK 05/M07 Q1015=
200912201000 METAR LPPR 201000Z 11008KT CAVOK 05/M07 Q1015=
200912200930 METAR LPPR 200930Z 10008KT CAVOK 04/M07 Q1016=
200912200900 METAR LPPR 200900Z 10007KT 070V130 CAVOK 03/M07 Q1015=
200912200830 METAR LPPR 200830Z 10008KT CAVOK 02/M07 Q1015=
200912200800 METAR LPPR 200800Z 10007KT 060V120 CAVOK 02/M07 Q1015=
200912200730 METAR LPPR 200730Z 10007KT 070V130 CAVOK 02/M07 Q1015=
200912200700 METAR LPPR 200700Z 09006KT CAVOK 02/M06 Q1015=
200912200630 METAR LPPR 200630Z 10006KT CAVOK 02/M06 Q1015=
200912200600 METAR LPPR 200600Z 09007KT 060V120 CAVOK 03/M07 Q1015=
200912200530 METAR LPPR 200530Z 09006KT 060V130 CAVOK 03/M06 Q1015=
200912200500 METAR LPPR 200500Z 11005KT 070V140 CAVOK 03/M06 Q1015=
200912200430 METAR LPPR 200430Z 09005KT 050V130 CAVOK 03/M06 Q1015=
200912200400 METAR LPPR 200400Z 10005KT CAVOK 03/M05 Q1015=
200912200330 METAR LPPR 200330Z 09005KT 050V120 CAVOK 03/M05 Q1016=
200912200300 METAR LPPR 200300Z 09005KT 050V130 CAVOK 03/M05 Q1016=
200912200230 METAR LPPR 200230Z 10006KT 070V130 CAVOK 04/M05 Q1016=
200912200200 METAR LPPR 200200Z 10007KT 060V130 CAVOK 04/M05 Q1016=
200912200130 METAR LPPR 200130Z 10007KT CAVOK 04/M04 Q1016=
200912200100 METAR LPPR 200100Z 09006KT CAVOK 04/M04 Q1016=
200912200030 METAR LPPR 200030Z 11005KT CAVOK 04/M04 Q1016=
200912200000 METAR LPPR 200000Z 11005KT CAVOK 04/M03 Q1016=
200912192330 METAR LPPR 192330Z 11005KT 080V140 CAVOK 04/M03 Q1016=
200912192300 METAR LPPR 192300Z 11006KT CAVOK 04/M03 Q1016=
200912192230 METAR LPPR 192230Z 11005KT 080V140 CAVOK 05/M02 Q1016=
200912192200 METAR LPPR 192200Z 11006KT CAVOK 05/M02 Q1016=
200912192130 METAR LPPR 192130Z 11005KT CAVOK 05/M02 Q1016=
200912192100 METAR LPPR 192100Z 11006KT CAVOK 05/M01 Q1016=
200912192030 METAR LPPR 192030Z 11006KT 9999 FEW025 06/M01 Q1016=
200912192000 METAR LPPR 192000Z 11005KT 9999 FEW025 06/M01 Q1015=
200912191930 METAR LPPR 191930Z 12005KT 9999 FEW025 06/M01 Q1015=
200912191900 METAR LPPR 191900Z 12005KT 9999 FEW020 06/M01 Q1014=
200912191830 METAR LPPR 191830Z 12006KT 9999 FEW017 07/M01 Q1014=
200912191800 METAR LPPR 191800Z 12005KT 9999 FEW017 07/M01 Q1014=
200912191730 METAR LPPR 191730Z 11004KT 9999 FEW017 07/M01 Q1014=
200912191700 METAR LPPR 191700Z VRB02KT 9999 FEW017 09/M01 Q1013=
200912191630 METAR LPPR 191630Z 03003KT 9999 FEW017 10/M02 Q1013=
200912191600 METAR LPPR 191600Z 04004KT 9999 FEW015 11/M03 Q1013=
200912191530 METAR LPPR 191530Z VRB02KT 9999 FEW015 12/M03 Q1012=
200912191500 METAR LPPR 191500Z VRB03KT 9999 FEW015 12/M03 Q1012=
200912191430 METAR LPPR 191430Z 15006KT 110V170 9999 FEW015 11/M03 Q1012=
200912191400 METAR LPPR 191400Z 03004KT 350V060 9999 FEW015 10/M02 Q1011=
200912191330 METAR LPPR 191330Z 05005KT 360V110 CAVOK 10/M02 Q1011=
200912191300 METAR LPPR 191300Z 04008KT 010V070 CAVOK 09/M03 Q1012=
200912191230 METAR LPPR 191230Z 03007KT 330V100 CAVOK 09/M01 Q1012=
200912191200 METAR LPPR 191200Z 02004KT 340V060 CAVOK 09/M01 Q1012=
200912191130 METAR LPPR 191130Z 01005KT 340V040 CAVOK 08/M01 Q1012=
200912191100 METAR LPPR 191100Z 05004KT 010V100 CAVOK 08/M02 Q1012=
200912191030 METAR LPPR 191030Z 05005KT 010V110 CAVOK 07/M02 Q1012=
200912191000 METAR LPPR 191000Z 04007KT 010V090 CAVOK 05/M02 Q1012=
200912190930 METAR LPPR 190930Z 04007KT CAVOK 05/M02 Q1012=
200912190900 METAR LPPR 190900Z VRB03KT CAVOK 04/M02 Q1011=
200912190830 METAR LPPR 190830Z 05004KT 020V080 CAVOK 03/M02 Q1011=
200912190800 METAR LPPR 190800Z 05003KT CAVOK 03/M02 Q1010=
200912190730 METAR LPPR 190730Z 05004KT CAVOK 03/M02 Q1010=
200912190700 METAR LPPR 190700Z 04004KT 360V090 CAVOK 03/M02 Q1010=
200912190630 METAR LPPR 190630Z 04004KT 010V070 CAVOK 03/M02 Q1010=
200912190600 METAR LPPR 190600Z 02003KT CAVOK 01/M02 Q1009=
200912190530 METAR LPPR 190530Z 02003KT CAVOK 03/M02 Q1009=
200912190500 METAR LPPR 190500Z 04004KT 010V070 CAVOK 03/M02 Q1009=
200912190430 METAR LPPR 190430Z 02003KT CAVOK 03/M01 Q1009=
200912190400 METAR LPPR 190400Z 03004KT CAVOK 03/M01 Q1009=
200912190330 METAR LPPR 190330Z 04004KT 010V080 CAVOK 04/M01 Q1009=
200912190300 METAR LPPR 190300Z 04004KT 010V080 CAVOK 04/M01 Q1008=
200912190230 METAR LPPR 190230Z 05004KT 020V080 CAVOK 04/M01 Q1008=
200912190200 METAR LPPR 190200Z 05004KT 020V080 CAVOK 04/M01 Q1008=
200912190130 METAR LPPR 190130Z VRB03KT CAVOK 04/M01 Q1008=
200912190100 METAR LPPR 190100Z 05004KT 010V080 CAVOK 05/M01 Q1007=
200912190030 METAR LPPR 190030Z 05004KT 010V080 CAVOK 05/M01 Q1007=
200912190000 METAR LPPR 190000Z VRB03KT CAVOK 05/M01 Q1007=
200912182330 METAR LPPR 182330Z 04005KT CAVOK 06/M01 Q1007=
200912182300 METAR LPPR 182300Z 05005KT 020V090 CAVOK 06/M00 Q1007=
200912182230 METAR LPPR 182230Z 05006KT 020V100 CAVOK 07/M00 Q1007=
200912182200 METAR LPPR 182200Z 05007KT 020V080 CAVOK 07/00 Q1006=
200912182130 METAR LPPR 182130Z 04006KT 010V070 CAVOK 07/01 Q1006=
200912182100 METAR LPPR 182100Z 04006KT CAVOK 07/01 Q1005=
200912182030 METAR LPPR 182030Z 05005KT 360V090 CAVOK 07/01 Q1005=
200912182000 METAR LPPR 182000Z 04007KT 010V090 CAVOK 08/01 Q1005=
200912181930 METAR LPPR 181930Z 04009KT CAVOK 08/01 Q1004=
200912181900 METAR LPPR 181900Z 04006KT 010V090 CAVOK 08/02 Q1004=
200912181830 METAR LPPR 181830Z 04007KT 010V090 CAVOK 09/01 Q1004=
200912181800 METAR LPPR 181800Z 04007KT 020V090 CAVOK 09/02 Q1004=
200912181730 METAR LPPR 181730Z 04005KT 010V090 CAVOK 09/02 Q1003=
200912181700 METAR LPPR 181700Z 04005KT 010V080 CAVOK 10/03 Q1003=
200912181630 METAR LPPR 181630Z 04005KT 360V070 CAVOK 10/03 Q1003=
200912181600 METAR LPPR 181600Z 05007KT 010V080 CAVOK 11/03 Q1002=
200912181530 METAR LPPR 181530Z 03005KT 350V060 CAVOK 12/03 Q1002=
200912181500 METAR LPPR 181500Z 09006KT 020V140 CAVOK 12/01 Q1002=
200912181430 METAR LPPR 181430Z 07006KT 010V100 CAVOK 12/02 Q1002=
200912181400 METAR LPPR 181400Z 08007KT 050V150 CAVOK 12/02 Q1002=
200912181330 METAR LPPR 181330Z 10012KT CAVOK 11/01 Q1002=
200912181300 METAR LPPR 181300Z 08008KT 050V130 CAVOK 11/01 Q1003=
200912181230 METAR LPPR 181230Z 06005KT 010V090 CAVOK 11/03 Q1003=
200912181200 METAR LPPR 181200Z 07006KT 030V110 CAVOK 10/02 Q1003=
200912181130 METAR LPPR 181130Z 06009KT 020V110 CAVOK 09/02 Q1004=
200912181100 METAR LPPR 181100Z 06007KT 020V110 CAVOK 08/02 Q1004=
200912181030 METAR LPPR 181030Z 08007KT 040V130 CAVOK 08/03 Q1005=
200912181000 METAR LPPR 181000Z 09005KT 040V120 CAVOK 08/03 Q1005=
200912180930 METAR LPPR 180930Z 08005KT 040V120 9999 FEW030 SCT080 BKN250
                        07/03 Q1005=
200912180900 METAR LPPR 180900Z 08004KT 030V130 9999 FEW030 BKN080 06/03
                        Q1006=
200912180830 METAR LPPR 180830Z 10008KT 060V130 9999 FEW040 BKN080 06/02
                        Q1006=
200912180800 METAR LPPR 180800Z 09003KT 9999 FEW040 BKN080 05/02 Q1006=
200912180730 METAR LPPR 180730Z 05005KT 020V080 9999 FEW040 SCT080 BKN250
                        05/03 Q1006=
200912180700 METAR LPPR 180700Z VRB03KT CAVOK 05/03 Q1007=
200912180630 METAR LPPR 180630Z 05006KT 030V090 CAVOK 05/04 Q1007=
200912180600 METAR LPPR 180600Z VRB03KT CAVOK 06/04 Q1007=
200912180530 METAR LPPR 180530Z 05004KT 030V100 CAVOK 06/05 Q1008=
200912180500 METAR LPPR 180500Z 07005KT CAVOK 06/05 Q1008=
200912180430 METAR LPPR 180430Z VRB03KT CAVOK 06/05 Q1009=
200912180400 METAR LPPR 180400Z VRB03KT CAVOK 06/05 Q1010=
200912180330 METAR LPPR 180330Z VRB02KT CAVOK 06/05 Q1010=
200912180300 METAR LPPR 180300Z VRB02KT CAVOK 06/05 Q1011=
200912180230 METAR LPPR 180230Z 06003KT CAVOK 07/05 Q1011=
200912180200 METAR LPPR 180200Z VRB02KT CAVOK 07/06 Q1012=
200912180130 METAR LPPR 180130Z VRB03KT CAVOK 07/05 Q1012=
200912180100 METAR LPPR 180100Z VRB03KT CAVOK 07/06 Q1012=
200912180030 METAR LPPR 180030Z 10005KT 9999 FEW017 SCT250 07/06 Q1013=
200912180000 METAR LPPR 180000Z 10005KT 9999 FEW017 SCT250 07/06 Q1013=
200912172330 METAR LPPR 172330Z 10004KT 9999 FEW020 08/06 Q1013=
200912172300 METAR LPPR 172300Z 09004KT 9999 FEW020 08/06 Q1013=
200912172230 METAR LPPR 172230Z 10006KT 9999 FEW020 08/07 Q1013=
200912172200 METAR LPPR 172200Z 10006KT 9999 FEW020 08/06 Q1013=
200912172130 METAR LPPR 172130Z 10006KT 9999 FEW020 08/07 Q1013=
200912172100 METAR LPPR 172100Z 11006KT 9999 FEW020 09/07 Q1013=
200912172030 METAR LPPR 172030Z 11006KT 9999 FEW020 09/07 Q1013=
200912172000 METAR LPPR 172000Z 13005KT 9999 SCT020 09/07 Q1013=
200912171930 METAR LPPR 171930Z 12004KT 9999 SCT020 08/07 Q1013=
200912171900 METAR LPPR 171900Z 00000KT 9999 FEW020 09/06 Q1013=
200912171830 METAR LPPR 171830Z VRB01KT 9999 FEW017 09/06 Q1013=
200912171800 METAR LPPR 171800Z 33003KT 9999 FEW017 09/06 Q1013=
200912171730 METAR LPPR 171730Z 31004KT 260V010 9999 SCT017 11/07 Q1014=
200912171700 METAR LPPR 171700Z 32004KT 270V340 9999 SCT017 12/08 Q1014=
200912171630 METAR LPPR 171630Z 30005KT 9999 SCT017 12/08 Q1014=
200912171600 METAR LPPR 171600Z 28005KT 230V350 9999 SCT017 13/08 Q1014=
200912171530 METAR LPPR 171530Z 29007KT 260V330 9999 SCT017 12/08 Q1013=
200912171500 METAR LPPR 171500Z 30006KT 260V330 9999 SCT017 13/08 Q1013=
200912171430 METAR LPPR 171430Z 28008KT 240V330 9999 SCT017 14/09 Q1013=
200912171400 METAR LPPR 171400Z 29007KT 240V330 9999 SCT017 13/09 Q1013=
200912171330 METAR LPPR 171330Z 30008KT 260V330 9999 SCT017 13/09 Q1013=
200912171300 METAR LPPR 171300Z 30007KT 250V340 9999 BKN017 14/09 Q1013=
200912171230 METAR LPPR 171230Z 31008KT 270V340 9999 SCT017 13/09 Q1013=
200912171200 METAR LPPR 171200Z 32011KT 280V340 9999 SCT017 14/10 Q1013=
200912171130 METAR LPPR 171130Z 32011KT 9999 SCT017 14/10 Q1013=
200912171100 METAR LPPR 171100Z 32010KT 9999 SCT015 SCT030 14/11 Q1013=
200912171030 METAR LPPR 171030Z 31010KT 9999 SCT013 BKN025 14/11 Q1013=
200912171000 METAR LPPR 171000Z 30009KT 270V330 9999 SCT013 SCT025 14/12
                        Q1012=
200912170930 METAR LPPR 170930Z 31008KT 270V340 9999 SCT015 SCT025 14/12
                        Q1012=
200912170900 METAR LPPR 170900Z 29007KT 260V320 9999 SCT015 BKN025 14/12
                        Q1012=
200912170830 METAR LPPR 170830Z 29010KT 260V330 9999 SCT015 FEW020TCU
                        14/11 Q1011=
200912170800 METAR LPPR 170800Z 28010KT 250V310 9999 BKN015 BKN025 14/11
                        Q1011=
200912170730 METAR LPPR 170730Z 29008KT 250V330 9999 SCT015 BKN040 14/11
                        Q1010=
200912170700 METAR LPPR 170700Z 29007KT 260V320 9999 SCT015 FEW025CB BKN030
                        14/12 Q1010 WS ALL RWY=
200912170630 METAR LPPR 170630Z 28011KT 250V310 8000 -SHRA SCT008 BKN015
                        FEW020CB 14/13 Q1009 RERA WS ALL
                        RWY=
200912170600 METAR LPPR 170600Z 25014KT 8000 SCT009 SCT015 BKN025 15/13
                        Q1008 WS ALL RWY=
200912170530 METAR LPPR 170530Z 24014KT 210V270 8000 FEW009 SCT015 BKN025
                        14/13 Q1009=
200912170500 METAR LPPR 170500Z 24015G26KT 8000 FEW009 SCT015 BKN025 14/12
                        Q1009 WS ALL RWY=
200912170430 METAR LPPR 170430Z 23012KT 200V260 9999 SCT015 BKN025 15/11
                        Q1009=
200912170400 METAR LPPR 170400Z 24011KT 210V280 9999 SCT012 SCT025 15/11
                        Q1009=
200912170330 METAR LPPR 170330Z 24014G24KT 210V270 9999 SCT012 BKN025
                        15/11 Q1010 WS ALL RWY=
200912170300 METAR LPPR 170300Z 24012KT 200V260 9999 SCT015 SCT025 15/11
                        Q1010 WS ALL RWY=
200912170230 METAR LPPR 170230Z 23011G21KT 200V270 9999 SCT015 BKN025
                        15/11 Q1009 WS ALL RWY=
200912170200 METAR LPPR 170200Z 23011KT 200V260 9999 FEW015 BKN025 15/12
                        Q1009 WS ALL RWY=
200912170130 METAR LPPR 170130Z 24012KT 210V280 9999 SCT015 SCT030 BKN060
                        15/11 Q1009 WS ALL RWY=
200912170100 METAR LPPR 170100Z 23013G23KT 200V260 9999 SCT015 BKN030
                        16/11 Q1009 WS ALL RWY=
200912170030 METAR LPPR 170030Z 23012G23KT 200V260 9999 SCT015 SCT025
                        15/12 Q1008 WS ALL RWY=
200912170000 METAR LPPR 170000Z 23013KT 200V260 9999 SCT015 SCT020 16/12
                        Q1008=
200912162330 METAR LPPR 162330Z 22011KT 200V260 9999 SCT015 SCT020 16/13
                        Q1008=
200912162300 METAR LPPR 162300Z 23012KT 200V260 9999 SCT015 SCT025 16/12
                        Q1008=
200912162230 METAR LPPR 162230Z 23011KT 200V270 9999 SCT015 SCT025 16/13
                        Q1007=
200912162200 METAR LPPR 162200Z 23012KT 9999 SCT013 SCT025 16/12 Q1007=
200912162130 METAR LPPR 162130Z 24011KT 200V260 9999 SCT013 SCT025 15/13
                        Q1007=
200912162100 METAR LPPR 162100Z 24011KT 9999 SCT013 BKN030 16/13 Q1006=
200912162030 METAR LPPR 162030Z 23011KT 200V260 9999 SCT013 BKN030 15/14
                        Q1006=
200912162000 METAR LPPR 162000Z 23010KT 200V260 9999 SCT013 BKN030 16/13
                        Q1006=
200912161930 METAR LPPR 161930Z 23012KT 200V260 9999 SCT013 BKN030 16/13
                        Q1005 WS ALL RWY=
200912161900 METAR LPPR 161900Z 24013KT 210V280 9999 SCT013 BKN025 15/13
                        Q1005 RERA=
200912161830 METAR LPPR 161830Z 22013KT 200V260 5000 RA SCT007 SCT013
                        BKN020 16/14 Q1004=
200912161800 METAR LPPR 161800Z 21010KT 180V260 8000 FEW007 SCT013 BKN030
                        14/14 Q1004=
200912161730 METAR LPPR 161730Z 18014KT 7000 -RA SCT007 SCT011 BKN015
                        13/12 Q1004 WS ALL RWY=
200912161700 METAR LPPR 161700Z 17018KT 7000 SCT007 SCT011 BKN017 13/12
                        Q1003 WS ALL RWY=
200912161630 METAR LPPR 161630Z 17017KT 7000 -SHRA SCT008 SCT012 BKN017
                        12/12 Q1003 WS ALL RWY=
200912161600 METAR LPPR 161600Z 16011KT 5000 -SHRA SCT008 BKN013 11/11
                        Q1003 RERA WS ALL RWY=
200912161530 METAR LPPR 161530Z 13009KT 3000 SHRA FEW008 BKN013 11/10
                        Q1003=
200912161500 METAR LPPR 161500Z 16017KT 9999 -SHRA SCT015 BKN025 12/11
                        Q1003 RERA=
200912161430 METAR LPPR 161430Z 13008KT 9999 SCT013 BKN025 11/10 Q1003=
200912161400 METAR LPPR 161400Z 12010KT 9999 SCT013 BKN020 09/08 Q1003
                        RERA=
200912161330 METAR LPPR 161330Z 11010KT 080V140 4000 SHRA FEW006 BKN013
                        BKN018 10/08 Q1003=
200912161300 METAR LPPR 161300Z 10009KT 070V140 9999 -SHRA SCT013 BKN025
                        09/07 Q1003=
200912161230 METAR LPPR 161230Z 11010KT 080V140 9999 FEW013 BKN020 08/07
                        Q1003=
200912161200 METAR LPPR 161200Z 11010KT 9999 FEW013 BKN020 07/06 Q1003=
200912161130 METAR LPPR 161130Z 11014KT 080V140 8000 -SHRA SCT013 BKN020
                        07/06 Q1004=
200912161100 METAR LPPR 161100Z 12015KT 7000 -SHRA SCT013 BKN020 07/06
                        Q1004=
200912161030 METAR LPPR 161030Z 11013KT 9999 -SHRA FEW013 BKN020 07/05
                        Q1004=
200912161000 METAR LPPR 161000Z 11012KT 9999 FEW013 BKN020 07/05 Q1004=
200912160930 METAR LPPR 160930Z 11013KT 9999 FEW013 BKN030 06/05 Q1004=
200912160900 METAR LPPR 160900Z 11014KT 3000 -RADZ BR FEW008 BKN020 06/04
                        Q1004 WS ALL RWY=
200912160830 METAR LPPR 160830Z 11010KT 080V140 4000 -RADZ BR FEW008 BKN025
                        06/04 Q1004 WS ALL RWY=
200912160800 METAR LPPR 160800Z 10012KT 070V130 5000 -RADZ BR FEW008 BKN025
                        06/04 Q1004 WS ALL RWY=
200912160730 METAR LPPR 160730Z 10014KT 070V130 5000 -RADZ BR FEW008 BKN025
                        05/04 Q1004 WS ALL RWY=
200912160700 METAR LPPR 160700Z 10010KT 060V130 5000 -RADZ BR SCT008 BKN025
                        05/03 Q1004 WS ALL RWY=
200912160630 METAR LPPR 160630Z 10013KT 070V130 5000 -RADZ BR SCT008 BKN030
                        05/03 Q1003 WS ALL RWY=
200912160600 METAR LPPR 160600Z 09010KT 050V130 5000 -RADZ BR SCT008 BKN030
                        05/03 Q1004 WS ALL RWY=
200912160530 METAR LPPR 160530Z 09009KT 050V120 4000 -RADZ BR SCT008 BKN030
                        05/03 Q1005=
200912160500 METAR LPPR 160500Z 09009KT 050V140 4000 RADZ BR FEW008 BKN030
                        05/03 Q1006=
200912160430 METAR LPPR 160430Z 10008KT 060V120 4000 RADZ BR SCT009 BKN030
                        05/02 Q1006=
200912160400 METAR LPPR 160400Z 11008KT 080V140 5000 RA SCT009 BKN030
                        BKN060 06/01 Q1006=
200912160330 METAR LPPR 160330Z 11009KT 7000 -RA FEW009 BKN030 BKN060
                        07/01 Q1006=
200912160300 METAR LPPR 160300Z 11008KT 080V140 9999 -RA BKN040 BKN070
                        09/M03 Q1006=
200912160230 METAR LPPR 160230Z 11010KT 080V150 9999 BKN040 BKN070 09/M04
                        Q1006=
200912160200 METAR LPPR 160200Z 10010KT 070V130 9999 BKN040 BKN070 09/M04
                        Q1006=
200912160130 METAR LPPR 160130Z 10009KT 9999 SCT040 BKN090 09/M04 Q1007=
200912160100 METAR LPPR 160100Z 10009KT 9999 FEW040 SCT090 BKN250 09/M04
                        Q1008=
200912160030 METAR LPPR 160030Z 10010KT 9999 FEW040 SCT080 BKN250 09/M04
                        Q1008=
200912160000 METAR LPPR 160000Z 10008KT 070V130 9999 FEW040 SCT080 BKN250
                        09/M04 Q1008=
200912152330 METAR LPPR 152330Z 11010KT 080V140 9999 FEW040 SCT080 BKN250
                        08/M04 Q1009=
200912152300 METAR LPPR 152300Z 11009KT 9999 FEW040 SCT080 BKN250 08/M03
                        Q1009=
200912152230 METAR LPPR 152230Z 07006KT 040V110 9999 FEW040 SCT080 BKN250
                        07/M03 Q1009=
200912152200 METAR LPPR 152200Z 10004KT 070V130 CAVOK 07/M02 Q1010=
200912152130 METAR LPPR 152130Z VRB03KT CAVOK 08/M02 Q1010=
200912152100 METAR LPPR 152100Z 11007KT CAVOK 08/M03 Q1010=
200912152030 METAR LPPR 152030Z 10006KT 080V140 CAVOK 07/M03 Q1011=
200912152000 METAR LPPR 152000Z 10005KT CAVOK 07/M03 Q1011=
200912151930 METAR LPPR 151930Z 10005KT CAVOK 07/M03 Q1011=
200912151900 METAR LPPR 151900Z 11005KT CAVOK 07/M03 Q1012=
200912151830 METAR LPPR 151830Z 10005KT CAVOK 07/M02 Q1012=
200912151800 METAR LPPR 151800Z 12005KT CAVOK 08/M02 Q1012=
200912151730 METAR LPPR 151730Z VRB02KT CAVOK 07/M01 Q1012=
200912151700 METAR LPPR 151700Z 10003KT CAVOK 09/M02 Q1012=
200912151630 METAR LPPR 151630Z 09003KT CAVOK 10/M02 Q1012=
200912151600 METAR LPPR 151600Z 11005KT 080V140 CAVOK 11/M02 Q1012=
200912151530 METAR LPPR 151530Z 10005KT 050V130 CAVOK 11/M02 Q1012=
200912151500 METAR LPPR 151500Z 09004KT 030V140 CAVOK 11/M03 Q1013=
200912151430 METAR LPPR 151430Z VRB02KT CAVOK 11/M03 Q1013=
200912151400 METAR LPPR 151400Z VRB02KT CAVOK 12/M04 Q1014=
200912151330 METAR LPPR 151330Z 13005KT 100V180 CAVOK 11/M03 Q1014=
200912151300 METAR LPPR 151300Z 13006KT 090V150 CAVOK 10/M03 Q1014=
200912151230 METAR LPPR 151230Z 12006KT CAVOK 10/M03 Q1014=
200912151200 METAR LPPR 151200Z 12007KT 100V160 CAVOK 09/M02 Q1015=
200912151130 METAR LPPR 151130Z 13009KT CAVOK 09/00 Q1015=
200912151100 METAR LPPR 151100Z 13010KT CAVOK 08/M01 Q1015=
200912151030 METAR LPPR 151030Z 10008KT CAVOK 06/M02 Q1015=
200912151000 METAR LPPR 151000Z 10006KT 070V130 CAVOK 06/M02 Q1015=
200912150930 METAR LPPR 150930Z 08004KT 040V110 CAVOK 04/M02 Q1015=
200912150900 METAR LPPR 150900Z VRB03KT CAVOK 03/M03 Q1015=
200912150830 METAR LPPR 150830Z 00000KT CAVOK 00/M02 Q1014=
200912150800 METAR LPPR 150800Z VRB03KT CAVOK M00/M03 Q1014=
200912150730 METAR LPPR 150730Z VRB03KT CAVOK 01/M03 Q1014=
200912150700 METAR LPPR 150700Z 04003KT CAVOK 01/M03 Q1014=
200912150630 METAR LPPR 150630Z 12001KT CAVOK 01/M03 Q1014=
200912150600 METAR LPPR 150600Z VRB01KT CAVOK 00/M03 Q1014=
200912150530 METAR LPPR 150530Z 00000KT CAVOK 01/M03 Q1014=
200912150500 METAR LPPR 150500Z 00000KT CAVOK 02/M03 Q1014=
200912150430 METAR LPPR 150430Z VRB03KT CAVOK 03/M03 Q1014=
200912150400 METAR LPPR 150400Z VRB03KT CAVOK 03/M03 Q1015=
200912150330 METAR LPPR 150330Z VRB02KT CAVOK 03/M03 Q1015=
200912150300 METAR LPPR 150300Z 04005KT CAVOK 04/M03 Q1014=
200912150230 METAR LPPR 150230Z 04008KT 010V070 CAVOK 04/M02 Q1014=
200912150200 METAR LPPR 150200Z 05004KT 010V090 CAVOK 04/M02 Q1014=
200912150130 METAR LPPR 150130Z 05004KT 020V080 CAVOK 04/M02 Q1015=
200912150100 METAR LPPR 150100Z 05004KT 020V080 CAVOK 04/M01 Q1015=
200912150030 METAR LPPR 150030Z 07004KT 020V120 CAVOK 04/M01 Q1015=
200912150000 METAR LPPR 150000Z 03005KT CAVOK 03/M01 Q1016=
200912142330 METAR LPPR 142330Z 01003KT CAVOK 03/M01 Q1016=
200912142300 METAR LPPR 142300Z 01004KT CAVOK 03/M01 Q1016=
200912142230 METAR LPPR 142230Z 03005KT CAVOK 04/M01 Q1016=
200912142200 METAR LPPR 142200Z 02004KT CAVOK 05/M01 Q1015=
200912142130 METAR LPPR 142130Z 03005KT CAVOK 05/M01 Q1014=
200912142100 METAR LPPR 142100Z 02006KT CAVOK 06/M01 Q1014=
200912142030 METAR LPPR 142030Z 03008KT CAVOK 06/M01 Q1013=
200912142000 METAR LPPR 142000Z 03006KT CAVOK 06/M01 Q1013=
200912141930 METAR LPPR 141930Z 02006KT CAVOK 06/M01 Q1013=
200912141900 METAR LPPR 141900Z 01005KT 9999 FEW017 06/M00 Q1013=
200912141830 METAR LPPR 141830Z 01004KT 9999 FEW017 06/M00 Q1013=
200912141800 METAR LPPR 141800Z VRB02KT 9999 FEW017 06/00 Q1012=
200912141730 METAR LPPR 141730Z 33003KT 9999 FEW017 07/00 Q1012=
200912141700 METAR LPPR 141700Z VRB03KT 9999 FEW017 08/M00 Q1012=
200912141630 METAR LPPR 141630Z 34005KT 9999 FEW017 10/00 Q1012=
200912141600 METAR LPPR 141600Z 35006KT 9999 FEW017 10/M00 Q1012=
200912141530 METAR LPPR 141530Z 03006KT 360V060 9999 FEW017 11/M01 Q1011=
200912141500 METAR LPPR 141500Z 02007KT 330V050 9999 FEW017 10/M01 Q1011=
200912141430 METAR LPPR 141430Z 02009KT 360V070 9999 FEW017 10/M00 Q1011=
200912141400 METAR LPPR 141400Z 02007KT 350V050 9999 FEW017 10/00 Q1011=
200912141330 METAR LPPR 141330Z 02009KT 350V050 9999 FEW017 10/00 Q1011=
200912141300 METAR LPPR 141300Z 02006KT 350V060 9999 FEW017 09/01 Q1012=
200912141230 METAR LPPR 141230Z 03006KT 350V060 9999 FEW017 09/01 Q1012=
200912141200 METAR LPPR 141200Z 01007KT 350V060 9999 FEW017 08/01 Q1012=
200912141130 METAR LPPR 141130Z 03006KT 360V070 CAVOK 08/01 Q1012=
200912141100 METAR LPPR 141100Z 04006KT CAVOK 07/00 Q1012=
200912141030 METAR LPPR 141030Z 03006KT 350V060 9999 FEW017 07/01 Q1012=
200912141000 METAR LPPR 141000Z 02005KT 350V050 9999 FEW017 06/01 Q1012=
200912140930 METAR LPPR 140930Z 05004KT 020V110 9999 FEW017 05/00 Q1012=
200912140900 METAR LPPR 140900Z 02003KT 9999 FEW017 02/00 Q1011=
200912140830 METAR LPPR 140830Z 36003KT CAVOK 01/M01 Q1011=
200912140800 METAR LPPR 140800Z 00000KT CAVOK 01/M01 Q1011=
200912140730 METAR LPPR 140730Z 02002KT CAVOK 01/M01 Q1011=
200912140700 METAR LPPR 140700Z VRB02KT CAVOK 01/M01 Q1010=
200912140630 METAR LPPR 140630Z 00000KT CAVOK 02/M02 Q1010=
200912140600 METAR LPPR 140600Z VRB02KT CAVOK 03/M01 Q1009=
200912140530 METAR LPPR 140530Z 00000KT CAVOK 03/M01 Q1009=
200912140500 METAR LPPR 140500Z 04005KT CAVOK 04/M00 Q1009=
200912140430 METAR LPPR 140430Z VRB02KT CAVOK 01/M01 Q1009=
200912140400 METAR LPPR 140400Z 34004KT CAVOK 02/M01 Q1009=
200912140330 METAR LPPR 140330Z 03004KT CAVOK 03/M00 Q1009=
200912140300 METAR LPPR 140300Z VRB03KT CAVOK 04/M00 Q1009=
200912140230 METAR LPPR 140230Z 07006KT CAVOK 05/00 Q1009=
200912140200 METAR LPPR 140200Z 03008KT CAVOK 04/00 Q1009=
200912140130 METAR LPPR 140130Z 02005KT CAVOK 05/00 Q1009=
200912140100 METAR LPPR 140100Z 02004KT CAVOK 05/01 Q1009=
200912140030 METAR LPPR 140030Z 02005KT CAVOK 05/01 Q1009=
200912140000 METAR LPPR 140000Z 04004KT 360V070 CAVOK 05/01 Q1010=
200912132330 METAR LPPR 132330Z 03004KT CAVOK 06/01 Q1010=
200912132300 METAR LPPR 132300Z VRB02KT CAVOK 06/01 Q1010=
200912132230 METAR LPPR 132230Z VRB03KT CAVOK 06/01 Q1010=
200912132200 METAR LPPR 132200Z VRB02KT CAVOK 07/02 Q1010=
200912132130 METAR LPPR 132130Z VRB03KT CAVOK 05/02 Q1010=
200912132100 METAR LPPR 132100Z VRB03KT CAVOK 05/02 Q1010=
200912132030 METAR LPPR 132030Z VRB01KT CAVOK 05/01 Q1009=
200912132000 METAR LPPR 132000Z VRB03KT CAVOK 06/01 Q1010=
200912131930 METAR LPPR 131930Z 35003KT CAVOK 06/01 Q1009=
200912131900 METAR LPPR 131900Z 36002KT CAVOK 07/01 Q1009=
200912131830 METAR LPPR 131830Z 03003KT CAVOK 07/02 Q1009=
200912131800 METAR LPPR 131800Z 02004KT CAVOK 08/02 Q1009=
200912131730 METAR LPPR 131730Z 00000KT CAVOK 09/02 Q1009=
200912131700 METAR LPPR 131700Z 04002KT CAVOK 11/02 Q1009=
200912131630 METAR LPPR 131630Z 04004KT 010V070 CAVOK 12/01 Q1009=
200912131600 METAR LPPR 131600Z 04006KT 010V080 CAVOK 13/00 Q1009=
200912131530 METAR LPPR 131530Z 05008KT 020V080 CAVOK 13/M00 Q1009=
200912131500 METAR LPPR 131500Z 07009KT 020V110 CAVOK 13/M00 Q1009=
200912131430 METAR LPPR 131430Z 08009KT 030V120 CAVOK 13/M00 Q1009=
200912131400 METAR LPPR 131400Z 06009KT 020V110 CAVOK 13/M01 Q1009=
200912131330 METAR LPPR 131330Z 06007KT 020V120 CAVOK 13/01 Q1009=
200912131300 METAR LPPR 131300Z 10010KT 060V130 CAVOK 13/00 Q1010=
200912131230 METAR LPPR 131230Z 08009G20KT 050V120 CAVOK 12/00 Q1010=
200912131200 METAR LPPR 131200Z 09009KT 040V120 CAVOK 12/01 Q1010=
200912131130 METAR LPPR 131130Z 08009KT 040V130 CAVOK 12/00 Q1011=
200912131100 METAR LPPR 131100Z 07006KT 020V140 CAVOK 12/01 Q1011=
200912131030 METAR LPPR 131030Z 05006KT 010V110 CAVOK 11/01 Q1011=
200912131000 METAR LPPR 131000Z 05004KT 010V110 CAVOK 11/01 Q1011=
200912130930 METAR LPPR 130930Z VRB03KT CAVOK 11/01 Q1010=
200912130900 METAR LPPR 130900Z 05004KT 020V080 CAVOK 09/01 Q1010=
200912130830 METAR LPPR 130830Z VRB02KT CAVOK 07/01 Q1010=
200912130800 METAR LPPR 130800Z VRB02KT CAVOK 08/01 Q1010=
200912130730 METAR LPPR 130730Z 07004KT 040V100 CAVOK 09/01 Q1009=
200912130700 METAR LPPR 130700Z 09006KT 060V130 CAVOK 09/01 Q1009=
200912130630 METAR LPPR 130630Z 08005KT 030V130 CAVOK 09/M00 Q1009=
200912130600 METAR LPPR 130600Z 08008KT 030V120 CAVOK 10/00 Q1009=
200912130530 METAR LPPR 130530Z 07006KT 020V110 CAVOK 09/M00 Q1009=
200912130500 METAR LPPR 130500Z 07004KT 040V100 CAVOK 10/M00 Q1009=
200912130430 METAR LPPR 130430Z 07004KT 020V100 CAVOK 10/M01 Q1009=
200912130400 METAR LPPR 130400Z 09005KT 040V130 CAVOK 10/M01 Q1009=
200912130330 METAR LPPR 130330Z 07006KT 040V100 CAVOK 10/00 Q1009=
200912130300 METAR LPPR 130300Z 10007KT 070V130 CAVOK 10/01 Q1009=
200912130230 METAR LPPR 130230Z 09007KT 050V120 CAVOK 11/01 Q1009=
200912130200 METAR LPPR 130200Z 11009KT 080V140 CAVOK 11/01 Q1009=
200912130130 METAR LPPR 130130Z 10006KT CAVOK 10/03 Q1009=
200912130100 METAR LPPR 130100Z 09004KT CAVOK 10/04 Q1010=
200912130030 METAR LPPR 130030Z VRB03KT CAVOK 09/04 Q1010=
200912130000 METAR LPPR 130000Z 09004KT 060V120 CAVOK 09/05 Q1010=
200912122330 METAR LPPR 122330Z VRB02KT CAVOK 08/06 Q1011=
200912122300 METAR LPPR 122300Z VRB02KT 8000 SCT250 08/07 Q1011=
200912122230 METAR LPPR 122230Z 00000KT 8000 SCT250 08/06 Q1011=
200912122200 METAR LPPR 122200Z 10003KT 8000 SCT250 08/06 Q1011=
200912122130 METAR LPPR 122130Z 07002KT 8000 BKN250 09/07 Q1011=
200912122100 METAR LPPR 122100Z 10002KT 8000 BKN250 11/08 Q1011=
200912122030 METAR LPPR 122030Z VRB03KT 8000 BKN250 10/07 Q1011=
200912122000 METAR LPPR 122000Z 00000KT 8000 FEW080 BKN250 11/08 Q1011=
200912121930 METAR LPPR 121930Z 00000KT 7000 FEW080 BKN250 12/10 Q1011=
200912121900 METAR LPPR 121900Z 11003KT 7000 FEW080 BKN250 12/10 Q1011=
200912121830 METAR LPPR 121830Z 11003KT 7000 FEW080 BKN250 13/11 Q1011=
200912121800 METAR LPPR 121800Z 18002KT 8000 FEW080 BKN250 13/11 Q1011=
200912121730 METAR LPPR 121730Z 00000KT 8000 FEW080 BKN250 14/11 Q1011=
200912121700 METAR LPPR 121700Z 00000KT 8000 FEW080 BKN250 14/11 Q1011=
200912121630 METAR LPPR 121630Z 30001KT CAVOK 15/11 Q1011=
200912121600 METAR LPPR 121600Z 30002KT CAVOK 15/11 Q1011=
200912121530 METAR LPPR 121530Z 32003KT CAVOK 16/11 Q1011=
200912121500 METAR LPPR 121500Z 29004KT 250V320 CAVOK 17/11 Q1012=
200912121430 METAR LPPR 121430Z 00000KT CAVOK 19/09 Q1012=
200912121400 METAR LPPR 121400Z VRB03KT CAVOK 19/08 Q1012=
200912121330 METAR LPPR 121330Z VRB02KT CAVOK 19/08 Q1013=
200912121300 METAR LPPR 121300Z VRB02KT CAVOK 18/08 Q1013=
200912121230 METAR LPPR 121230Z 10006KT 020V140 CAVOK 17/08 Q1013=
200912121200 METAR LPPR 121200Z 09006KT 040V130 CAVOK 17/08 Q1014=
200912121130 METAR LPPR 121130Z 10010KT CAVOK 16/07 Q1014=
200912121100 METAR LPPR 121100Z 10010KT CAVOK 15/07 Q1014=
200912121030 METAR LPPR 121030Z 09006KT 040V150 CAVOK 14/08 Q1015=
200912121000 METAR LPPR 121000Z 10004KT 030V170 CAVOK 13/07 Q1015=
200912120930 METAR LPPR 120930Z 10008KT 050V130 CAVOK 12/07 Q1014=
200912120900 METAR LPPR 120900Z 11008KT CAVOK 11/07 Q1014=
200912120830 METAR LPPR 120830Z 10009KT CAVOK 11/06 Q1014=
200912120800 METAR LPPR 120800Z 10006KT 060V130 CAVOK 11/06 Q1014=
200912120730 METAR LPPR 120730Z 10007KT 070V140 CAVOK 11/07 Q1014=
200912120700 METAR LPPR 120700Z 11009KT CAVOK 11/06 Q1014=
200912120630 METAR LPPR 120630Z 11010KT CAVOK 11/06 Q1014=
200912120600 METAR LPPR 120600Z 10010KT CAVOK 11/06 Q1015=
200912120530 METAR LPPR 120530Z 10010KT CAVOK 12/07 Q1015=
200912120500 METAR LPPR 120500Z 11011KT CAVOK 12/07 Q1015=
200912120430 METAR LPPR 120430Z 11006KT 060V160 CAVOK 12/06 Q1015=
200912120400 METAR LPPR 120400Z 09006KT 050V130 CAVOK 11/07 Q1015=
200912120330 METAR LPPR 120330Z 10008KT CAVOK 12/07 Q1015=
200912120300 METAR LPPR 120300Z 10010KT CAVOK 12/07 Q1015=
200912120230 METAR LPPR 120230Z 10010KT CAVOK 12/07 Q1016=
200912120200 METAR LPPR 120200Z 11009KT CAVOK 12/07 Q1016=
200912120130 METAR LPPR 120130Z 11009KT CAVOK 12/07 Q1016=
200912120100 METAR LPPR 120100Z 11008KT CAVOK 12/07 Q1016=
200912120030 METAR LPPR 120030Z 11010KT CAVOK 12/07 Q1016=
200912120000 METAR LPPR 120000Z 11011KT CAVOK 12/07 Q1016=
200912112330 METAR LPPR 112330Z 11010KT CAVOK 13/07 Q1016=
200912112300 METAR LPPR 112300Z 11010KT CAVOK 13/07 Q1016=
200912112230 METAR LPPR 112230Z 11009KT CAVOK 13/07 Q1016=
200912112200 METAR LPPR 112200Z 10010KT CAVOK 13/07 Q1015=
200912112130 METAR LPPR 112130Z 10010KT CAVOK 13/07 Q1015=
200912112100 METAR LPPR 112100Z 10010KT CAVOK 14/07 Q1015=
200912112030 METAR LPPR 112030Z 10010KT CAVOK 13/07 Q1015=
200912112000 METAR LPPR 112000Z 11009KT CAVOK 13/07 Q1015=
200912111930 METAR LPPR 111930Z 11008KT CAVOK 13/07 Q1015=
200912111900 METAR LPPR 111900Z 11009KT CAVOK 14/07 Q1015=
200912111830 METAR LPPR 111830Z 11009KT CAVOK 14/08 Q1016=
200912111800 METAR LPPR 111800Z 11010KT CAVOK 14/08 Q1016=
200912111730 METAR LPPR 111730Z 11009KT CAVOK 15/08 Q1016=
200912111700 METAR LPPR 111700Z 11008KT CAVOK 15/09 Q1015=
200912111630 METAR LPPR 111630Z 10009KT CAVOK 16/08 Q1015=
200912111600 METAR LPPR 111600Z 10010KT CAVOK 17/08 Q1015=
200912111530 METAR LPPR 111530Z 10008KT CAVOK 18/09 Q1015=
200912111500 METAR LPPR 111500Z 10008KT 060V120 CAVOK 18/09 Q1015=
200912111430 METAR LPPR 111430Z 10010KT 070V130 CAVOK 18/09 Q1016=
200912111400 METAR LPPR 111400Z 10007KT 060V130 CAVOK 18/09 Q1016=
200912111330 METAR LPPR 111330Z 09008KT 040V130 CAVOK 17/08 Q1016=
200912111300 METAR LPPR 111300Z 09006KT 060V120 CAVOK 17/08 Q1017=
200912111230 METAR LPPR 111230Z 10008KT 060V130 CAVOK 16/08 Q1017=
200912111200 METAR LPPR 111200Z 10011KT 080V140 CAVOK 15/07 Q1018=
200912111130 METAR LPPR 111130Z 10009KT 070V130 CAVOK 15/07 Q1018=
200912111100 METAR LPPR 111100Z 10009KT CAVOK 14/07 Q1018=
200912111030 METAR LPPR 111030Z 10012KT CAVOK 13/07 Q1019=
200912111000 METAR LPPR 111000Z 11009KT CAVOK 12/07 Q1019=
200912110930 METAR LPPR 110930Z 10010KT CAVOK 12/06 Q1019=
200912110900 METAR LPPR 110900Z 10008KT CAVOK 11/06 Q1019=
200912110830 METAR LPPR 110830Z 10008KT CAVOK 10/06 Q1019=
200912110800 METAR LPPR 110800Z 10009KT 070V130 CAVOK 10/06 Q1019=
200912110730 METAR LPPR 110730Z 10008KT 060V130 CAVOK 10/07 Q1019=
200912110700 METAR LPPR 110700Z 11009KT CAVOK 10/07 Q1019=
200912110630 METAR LPPR 110630Z 11009KT CAVOK 10/07 Q1019=
200912110600 METAR LPPR 110600Z 10010KT CAVOK 10/07 Q1019=
200912110530 METAR LPPR 110530Z 10008KT CAVOK 10/07 Q1020=
200912110500 METAR LPPR 110500Z 11008KT CAVOK 10/07 Q1020=
200912110430 METAR LPPR 110430Z 11007KT CAVOK 10/07 Q1020=
200912110400 METAR LPPR 110400Z 11007KT CAVOK 10/07 Q1020=
200912110330 METAR LPPR 110330Z 11006KT CAVOK 10/08 Q1020=
200912110300 METAR LPPR 110300Z 10007KT CAVOK 10/08 Q1020=
200912110230 METAR LPPR 110230Z 11006KT CAVOK 10/08 Q1020=
200912110200 METAR LPPR 110200Z 12003KT CAVOK 09/08 Q1021=
200912110130 METAR LPPR 110130Z 13003KT CAVOK 10/07 Q1021=
200912110100 METAR LPPR 110100Z 11005KT CAVOK 11/08 Q1021=
200912110030 METAR LPPR 110030Z 12006KT CAVOK 11/09 Q1021=
200912110000 METAR LPPR 110000Z 12006KT CAVOK 11/08 Q1021=
200912102330 METAR LPPR 102330Z 11006KT CAVOK 12/09 Q1021=
200912102300 METAR LPPR 102300Z 11006KT CAVOK 12/09 Q1021=
200912102230 METAR LPPR 102230Z 11007KT CAVOK 12/09 Q1021=
200912102200 METAR LPPR 102200Z 11007KT CAVOK 12/09 Q1022=
200912102130 METAR LPPR 102130Z 11007KT CAVOK 13/09 Q1022=
200912102100 METAR LPPR 102100Z 11007KT CAVOK 13/09 Q1022=
200912102030 METAR LPPR 102030Z 11006KT CAVOK 13/09 Q1022=
200912102000 METAR LPPR 102000Z 11006KT CAVOK 13/09 Q1022=
200912101930 METAR LPPR 101930Z 11005KT CAVOK 13/09 Q1022=
200912101900 METAR LPPR 101900Z 11004KT CAVOK 13/10 Q1022=
200912101830 METAR LPPR 101830Z 10005KT CAVOK 13/10 Q1022=
200912101800 METAR LPPR 101800Z 10003KT CAVOK 14/10 Q1022=
200912101730 METAR LPPR 101730Z 11002KT CAVOK 15/11 Q1022=
200912101700 METAR LPPR 101700Z 11003KT CAVOK 16/11 Q1022=
200912101630 METAR LPPR 101630Z 11003KT CAVOK 17/11 Q1022=
200912101600 METAR LPPR 101600Z 10004KT 050V130 CAVOK 17/11 Q1022=
200912101530 METAR LPPR 101530Z 10006KT 080V140 9999 FEW017 BKN250 17/11
                        Q1022=
200912101500 METAR LPPR 101500Z 10007KT 9999 FEW017 BKN250 17/11 Q1022=
200912101430 METAR LPPR 101430Z 12007KT 090V150 CAVOK 17/10 Q1023=
200912101400 METAR LPPR 101400Z 11008KT 080V140 CAVOK 17/10 Q1023=
200912101330 METAR LPPR 101330Z 11010KT 9999 FEW015 BKN250 17/10 Q1023=
200912101300 METAR LPPR 101300Z 12011KT CAVOK 17/10 Q1024=
200912101230 METAR LPPR 101230Z 11012KT 080V140 CAVOK 17/10 Q1024=
200912101200 METAR LPPR 101200Z 11010KT 080V140 CAVOK 17/11 Q1024=
200912101130 METAR LPPR 101130Z 10010KT CAVOK 16/11 Q1025=
200912101100 METAR LPPR 101100Z 11007KT CAVOK 16/12 Q1025=
200912101030 METAR LPPR 101030Z 11009KT CAVOK 15/11 Q1025=
200912101000 METAR LPPR 101000Z 12004KT 080V150 CAVOK 14/12 Q1025=
200912100930 METAR LPPR 100930Z VRB01KT CAVOK 13/11 Q1025=
200912100900 METAR LPPR 100900Z VRB05KT CAVOK 13/11 Q1025=
200912100830 METAR LPPR 100830Z VRB03KT 9999 FEW090 BKN250 12/11 Q1025=
200912100800 METAR LPPR 100800Z VRB03KT 8000 FEW090 BKN250 12/11 Q1025=
200912100730 METAR LPPR 100730Z 10005KT 070V130 7000 FEW090 BKN250 12/11
                        Q1025=
200912100700 METAR LPPR 100700Z 11005KT 6000 SCT250 12/11 Q1025=
200912100630 METAR LPPR 100630Z 11005KT 5000 BR SCT250 12/12 Q1025=
200912100600 METAR LPPR 100600Z 10005KT 070V140 4000 BR FEW100 SCT250
                        12/12 Q1025=
200912100530 METAR LPPR 100530Z VRB01KT 4000 BR FEW100 SCT250 12/11 Q1025=
200912100500 METAR LPPR 100500Z VRB03KT 3000 BR SCT250 12/11 Q1026=
200912100430 METAR LPPR 100430Z 11004KT 3500 BR SKC 12/12 Q1026=
200912100400 METAR LPPR 100400Z 10004KT 3500 BR FEW045 12/12 Q1026=
200912100330 METAR LPPR 100330Z 34001KT 3500 BR FEW045 12/12 Q1026=
200912100300 METAR LPPR 100300Z 10001KT 3500 BR FEW045 12/12 Q1026=
200912100230 METAR LPPR 100230Z 00000KT 4000 BR SCT045 12/12 Q1026=
200912100200 METAR LPPR 100200Z VRB02KT 4000 BR SCT045 13/13 Q1026=
200912100130 METAR LPPR 100130Z 09004KT 5000 BR SCT045 14/13 Q1026=
200912100100 METAR LPPR 100100Z 11005KT 5000 BR SCT045 14/13 Q1026=
200912100030 METAR LPPR 100030Z 11005KT 5000 BR SCT045 14/14 Q1027=
200912100000 METAR LPPR 100000Z 11004KT 5000 BR SCT045 14/14 Q1027=
200912092330 METAR LPPR 092330Z 11003KT 5000 BR BKN040 14/13 Q1027=
200912092300 METAR LPPR 092300Z 15004KT 5000 BR FEW008 SCT014 BKN040 15/14
                        Q1027=
200912092230 METAR LPPR 092230Z 12005KT 5000 BR FEW008 SCT014 BKN040 15/15
                        Q1027=
200912092200 METAR LPPR 092200Z 13004KT 5000 BR FEW006 BKN040 15/14 Q1027=
200912092130 METAR LPPR 092130Z 12005KT 5000 BR FEW005 BKN040 15/14 Q1027=
200912092100 METAR LPPR 092100Z 12005KT 7000 FEW015 BKN040 15/14 Q1027=
200912092030 METAR LPPR 092030Z 00000KT 8000 FEW015 BKN040 14/14 Q1027=
200912092000 METAR LPPR 092000Z 00000KT 8000 FEW015 BKN040 15/14 Q1027=
200912091930 METAR LPPR 091930Z VRB03KT 8000 FEW015 SCT020 15/14 Q1026=
200912091900 METAR LPPR 091900Z 16006KT 8000 FEW015 SCT020 15/14 Q1026=
200912091830 METAR LPPR 091830Z 18006KT 9999 FEW015 16/14 Q1026=
200912091800 METAR LPPR 091800Z 19008KT 9999 FEW015 SCT020 17/14 Q1026=
200912091730 METAR LPPR 091730Z 19007KT 160V230 9999 SCT015 BKN020 17/15
                        Q1026=
200912091700 METAR LPPR 091700Z 19008KT 9999 SCT013 BKN017 17/15 Q1026=
200912091630 METAR LPPR 091630Z 16006KT 8000 SCT013 BKN017 17/15 Q1025=
200912091600 METAR LPPR 091600Z 22005KT 170V270 8000 SCT013 BKN017 17/15
                        Q1025=
200912091530 METAR LPPR 091530Z 18009KT 8000 SCT013 BKN020 18/14 Q1025=
200912091500 METAR LPPR 091500Z 19009KT 9999 SCT015 BKN030 18/14 Q1025=
200912091430 METAR LPPR 091430Z 19010KT 9999 SCT015 BKN040 19/14 Q1025=
200912091400 METAR LPPR 091400Z 18011KT 9999 SCT015 BKN035 18/14 Q1025=
200912091330 METAR LPPR 091330Z 18010KT 9999 FEW015 BKN035 18/14 Q1025=
200912091300 METAR LPPR 091300Z 14004KT 110V170 9999 FEW015 BKN025 17/14
                        Q1025=
200912091230 METAR LPPR 091230Z 13006KT 9999 FEW015 BKN025 16/13 Q1025=
200912091200 METAR LPPR 091200Z 17008KT 8000 -SHRA FEW013 SCT015 BKN025
                        17/13 Q1025=
200912091130 METAR LPPR 091130Z 14008KT 9999 FEW015 BKN030 17/12 Q1025=
200912091100 METAR LPPR 091100Z 13008KT 9999 FEW015 BKN040 17/12 Q1025=
200912091030 METAR LPPR 091030Z 12007KT 9999 FEW015 BKN040 17/12 Q1025=
200912091000 METAR LPPR 091000Z 12008KT 9999 FEW015 SCT040 15/12 Q1025=
200912090930 METAR LPPR 090930Z 11006KT 080V140 9999 FEW015 SCT040 15/12
                        Q1025=
200912090900 METAR LPPR 090900Z 12007KT 9999 SCT015 SCT070 14/11 Q1025=
200912090830 METAR LPPR 090830Z 10005KT 9999 SCT015 BKN070 14/11 Q1024=
200912090800 METAR LPPR 090800Z 11006KT 9999 SCT013 BKN020 14/12 Q1024=
200912090730 METAR LPPR 090730Z 11007KT 9999 BKN015 14/11 Q1024=
200912090700 METAR LPPR 090700Z 12007KT 9999 SCT013 BKN070 14/11 Q1024=
200912090630 METAR LPPR 090630Z 12006KT 9999 SCT013 BKN025 14/12 Q1024=
200912090600 METAR LPPR 090600Z 12007KT 9999 SCT013 BKN030 15/12 Q1024=
200912090530 METAR LPPR 090530Z 12006KT 9999 SCT013 BKN030 15/12 Q1024=
200912090500 METAR LPPR 090500Z 13007KT 9999 SCT013 BKN030 15/12 Q1024=
200912090430 METAR LPPR 090430Z 14004KT 9999 SCT013 BKN025 15/12 Q1024=
200912090400 METAR LPPR 090400Z 14004KT 9999 SCT015 BKN035 15/12 Q1024=
200912090330 METAR LPPR 090330Z 13005KT 9999 SCT015 BKN035 15/12 Q1024=
200912090300 METAR LPPR 090300Z 13007KT 9999 SCT015 BKN035 15/12 Q1024=
200912090230 METAR LPPR 090230Z 14006KT 9999 BKN030 15/12 Q1024=
200912090200 METAR LPPR 090200Z 14006KT 9999 BKN030 15/12 Q1023=
200912090130 METAR LPPR 090130Z 13006KT 9999 BKN030 15/12 Q1023=
200912090100 METAR LPPR 090100Z 13006KT 9999 BKN030 15/12 Q1024=
200912090030 METAR LPPR 090030Z 13006KT 9999 SCT017 BKN060 15/12 Q1024=
200912090000 METAR LPPR 090000Z 14007KT 9999 SCT017 BKN060 15/12 Q1024=
200912082330 METAR LPPR 082330Z 14007KT 9999 SCT015 BKN040 15/11 Q1024=
200912082300 METAR LPPR 082300Z 14009KT 9999 SCT015 BKN040 15/11 Q1024=
200912082230 METAR LPPR 082230Z 16010KT 9999 SCT015 BKN040 15/11 Q1024=
200912082200 METAR LPPR 082200Z 17012KT 9999 SCT015 BKN040 15/11 Q1023=
200912082130 METAR LPPR 082130Z 17012KT 9999 BKN015 15/11 Q1023=
200912082100 METAR LPPR 082100Z 17011KT 9999 BKN025 SCT070 15/11 Q1023=
200912082030 METAR LPPR 082030Z 16009KT 9999 FEW017 BKN025 15/10 Q1023=
200912082000 METAR LPPR 082000Z 14006KT 9999 FEW025 SCT030 BKN070 15/11
                        Q1023=
200912081930 METAR LPPR 081930Z 14006KT 9999 SCT030 SCT045 BKN070 15/11
                        Q1023=
200912081900 METAR LPPR 081900Z 15007KT 9999 SCT033 SCT040 BKN070 15/10
                        Q1023=
200912081830 METAR LPPR 081830Z 15007KT 9999 BKN035 BKN070 15/11 Q1023=
200912081800 METAR LPPR 081800Z 14006KT 9999 BKN040 BKN070 15/10 Q1023=
200912081730 METAR LPPR 081730Z 16008KT 9999 BKN040 BKN070 16/11 Q1023=
200912081700 METAR LPPR 081700Z 16008KT 9999 BKN037 BKN070 16/11 Q1023=
200912081630 METAR LPPR 081630Z 16008KT 9999 BKN037 BKN070 16/10 Q1023=
200912081600 METAR LPPR 081600Z 17009KT 9999 BKN045 BKN070 16/10 Q1023=
200912081530 METAR LPPR 081530Z 17010KT 9999 BKN045 BKN070 16/10 Q1022=
200912081500 METAR LPPR 081500Z 17010KT 9999 BKN045 BKN070 16/10 Q1022=
200912081430 METAR LPPR 081430Z 18013KT 9999 SCT045 BKN070 BKN200 16/10
                        Q1022=
200912081400 METAR LPPR 081400Z 17010KT 9999 SCT040 BKN070 17/10 Q1022=
200912081330 METAR LPPR 081330Z 17011KT 9999 SCT040 BKN070 16/10 Q1022=
200912081300 METAR LPPR 081300Z 17010KT 9999 BKN040 BKN090 16/09 Q1023=
200912081230 METAR LPPR 081230Z 16011KT 9999 SCT040 BKN090 16/09 Q1023=
200912081200 METAR LPPR 081200Z 16011KT 9999 FEW035 SCT070 BKN120 16/09
                        Q1023=
200912081130 METAR LPPR 081130Z 16010KT 9999 FEW015 SCT040 BKN120 15/09
                        Q1023=
200912081100 METAR LPPR 081100Z 16010KT 9999 FEW015 SCT035 BKN060 15/09
                        Q1024=
200912081030 METAR LPPR 081030Z 16009KT 9999 FEW015 SCT035 BKN060 14/09
                        Q1024=
200912081000 METAR LPPR 081000Z 14002KT 9999 BKN035 BKN060 14/09 Q1023=
200912080930 METAR LPPR 080930Z 14005KT 9999 BKN040 13/09 Q1023=
200912080900 METAR LPPR 080900Z 13004KT 9999 BKN040 13/09 Q1023=
200912080830 METAR LPPR 080830Z 13005KT 9999 SCT025 BKN035 13/09 Q1023=
200912080800 METAR LPPR 080800Z 13006KT 9999 SCT030 BKN040 13/09 Q1022=
200912080730 METAR LPPR 080730Z 14005KT 9999 BKN030 13/09 Q1022=
200912080700 METAR LPPR 080700Z 14005KT 9999 BKN040 12/09 Q1022=
200912080630 METAR LPPR 080630Z 13006KT 9999 BKN040 12/09 Q1022=
200912080600 METAR LPPR 080600Z 13006KT 9999 BKN040 12/09 Q1021=
200912080530 METAR LPPR 080530Z 13006KT 9999 BKN040 12/09 Q1021=
200912080500 METAR LPPR 080500Z 13005KT 9999 BKN040 12/09 Q1021=
200912080430 METAR LPPR 080430Z 14005KT 9999 SCT040 13/09 Q1021=
200912080400 METAR LPPR 080400Z 14005KT 9999 SCT040 13/09 Q1021=
200912080330 METAR LPPR 080330Z 13005KT 9999 SCT040 12/09 Q1021=
200912080300 METAR LPPR 080300Z 14005KT 9999 SCT040 12/09 Q1021=
200912080230 METAR LPPR 080230Z 14005KT 9999 SCT040 12/09 Q1021=
200912080200 METAR LPPR 080200Z 14006KT 9999 SCT040 12/09 Q1021=
200912080130 METAR LPPR 080130Z 13007KT 9999 SCT040 12/09 Q1021=
200912080100 METAR LPPR 080100Z 13006KT 9999 SCT045 12/09 Q1021=
200912080030 METAR LPPR 080030Z 12005KT 9999 SCT045 12/09 Q1021=
200912080000 METAR LPPR 080000Z 13005KT 9999 SCT045 12/09 Q1021=
200912072330 METAR LPPR 072330Z 12007KT 9999 SCT045 12/10 Q1021=
200912072300 METAR LPPR 072300Z 13006KT 9999 SCT045 12/10 Q1021=
200912072230 METAR LPPR 072230Z 14005KT 9999 FEW025 SCT040 12/10 Q1021=
200912072200 METAR LPPR 072200Z 13004KT 9999 FEW025 SCT045 12/10 Q1021=
200912072130 METAR LPPR 072130Z 11005KT 9999 FEW015 BKN045 13/10 Q1021=
200912072100 METAR LPPR 072100Z VRB01KT 9999 FEW015 BKN040 13/10 Q1021=
200912072030 METAR LPPR 072030Z 18004KT 9999 FEW015 BKN040 14/10 Q1021=
200912072000 METAR LPPR 072000Z 17005KT 9999 FEW015 BKN035 14/10 Q1021=
200912071930 METAR LPPR 071930Z VRB03KT 9999 FEW015 BKN035 13/09 Q1021=
200912071900 METAR LPPR 071900Z 00000KT 9999 FEW015 SCT035 14/09 Q1020=
200912071830 METAR LPPR 071830Z 20005KT 9999 FEW015 SCT035 14/09 Q1020=
200912071800 METAR LPPR 071800Z 20005KT 9999 FEW017 BKN030 14/10 Q1020=
200912071730 METAR LPPR 071730Z 21005KT 9999 BKN030 14/09 Q1020=
200912071700 METAR LPPR 071700Z 21005KT 180V240 9999 BKN035 14/10 Q1020=
200912071630 METAR LPPR 071630Z 22004KT 180V250 9999 BKN040 14/09 Q1020=
200912071600 METAR LPPR 071600Z 22004KT 9999 BKN035 BKN250 15/09 Q1019=
200912071530 METAR LPPR 071530Z 22005KT 9999 BKN030 BKN250 15/08 Q1019=
200912071500 METAR LPPR 071500Z 24006KT 9999 BKN030 BKN250 15/08 Q1019=
200912071430 METAR LPPR 071430Z 25004KT 170V300 9999 BKN030 BKN250 15/09
                        Q1019=
200912071400 METAR LPPR 071400Z 25006KT 200V290 9999 BKN030 15/09 Q1019=
200912071330 METAR LPPR 071330Z 26004KT 220V330 9999 FEW017 BKN030 15/09
                        Q1019=
200912071300 METAR LPPR 071300Z 26005KT 200V300 9999 FEW017 BKN030 15/09
                        Q1019=
200912071230 METAR LPPR 071230Z 23006KT 190V260 9999 FEW017 BKN030 15/10
                        Q1019=
200912071200 METAR LPPR 071200Z VRB04KT 9999 FEW018 BKN030 15/09 Q1019=
200912071130 METAR LPPR 071130Z VRB03KT 9999 FEW018 BKN035 15/09 Q1019=
200912071100 METAR LPPR 071100Z 22005KT 180V250 9999 BKN030 15/09 Q1019=
200912071030 METAR LPPR 071030Z VRB03KT 9999 BKN030 15/09 Q1019=
200912071000 METAR LPPR 071000Z VRB02KT 9999 BKN030 14/10 Q1019=
200912070930 METAR LPPR 070930Z 00000KT 9999 FEW025 BKN035 14/09 Q1018=
200912070900 METAR LPPR 070900Z VRB02KT 9999 FEW025 BKN035 13/09 Q1018=
200912070830 METAR LPPR 070830Z VRB02KT 9999 SCT025 BKN035 13/10 Q1018=
200912070800 METAR LPPR 070800Z 00000KT 9999 FEW025 BKN035 13/10 Q1018=
200912070730 METAR LPPR 070730Z 00000KT 9999 FEW025 BKN035 13/10 Q1018=
200912070700 METAR LPPR 070700Z VRB03KT 9999 BKN030 13/10 Q1017=
200912070630 METAR LPPR 070630Z 00000KT 9999 BKN030 13/11 Q1017=
200912070600 METAR LPPR 070600Z 00000KT 9999 BKN030 13/11 Q1017=
200912070530 METAR LPPR 070530Z 00000KT 9999 BKN030 13/11 Q1016=
200912070500 METAR LPPR 070500Z 33002KT 9999 BKN025 13/11 Q1016=
200912070430 METAR LPPR 070430Z 33003KT 9999 BKN030 13/11 Q1016=
200912070400 METAR LPPR 070400Z 00000KT 9999 FEW012 BKN030 13/12 Q1016=
200912070330 METAR LPPR 070330Z VRB02KT 9999 FEW009 BKN020 13/13 Q1016=
200912070300 METAR LPPR 070300Z VRB02KT 8000 -DZ BKN009 BKN017 13/13 Q1016=
200912070230 METAR LPPR 070230Z 33007KT 5000 -RADZ BR BKN006 BKN008 13/13
                        Q1016=
200912070200 METAR LPPR 070200Z 33003KT 9999 FEW017 BKN025 14/13 Q1016=
200912070130 METAR LPPR 070130Z 00000KT 9999 BKN025 13/13 Q1015=
200912070100 METAR LPPR 070100Z 00000KT 9999 BKN025 13/13 Q1015=
200912070030 METAR LPPR 070030Z 34003KT 9999 FEW013 BKN025 13/12 Q1015=
200912070000 METAR LPPR 070000Z 31007KT 9999 SCT013 BKN020 14/13 Q1015=
200912062330 METAR LPPR 062330Z 31008KT 9999 FEW009 SCT013 14/14 Q1015=
200912062300 METAR LPPR 062300Z 30006KT 260V330 7000 SCT003 SCT005 15/15
                        Q1014=
200912062230 METAR LPPR 062230Z 27006KT 2000 BR VCFG BKN001 SCT017 15/15
                        Q1014=
200912062200 METAR LPPR 062200Z 15002KT 9999 FEW009 BKN016 15/15 Q1013=
200912062130 METAR LPPR 062130Z 00000KT 9999 SCT007 BKN020 15/15 Q1013=
200912062100 METAR LPPR 062100Z 00000KT 9999 SCT006 SCT013 BKN017 14/14
                        Q1013=
200912062030 METAR LPPR 062030Z 00000KT 8000 -RA SCT008 SCT013 BKN018
                        14/14 Q1013=
200912062000 METAR LPPR 062000Z 36002KT 5000 RA BR SCT008 SCT013 BKN018
                        14/14 Q1013=
200912061930 METAR LPPR 061930Z 32004KT 5000 RA BR SCT005 BKN018 14/14
                        Q1013=
200912061900 METAR LPPR 061900Z 29006KT 230V330 5000 RA BR SCT002 BKN006
                        BKN013 15/15 Q1013=
200912061830 METAR LPPR 061830Z 19022KT 3000 RA BR SCT002 BKN004 16/16
                        Q1013 WS ALL RWY=
200912061800 METAR LPPR 061800Z 19015KT 4000 -RA BR SCT002 BKN005 17/16
                        Q1012 WS ALL RWY=
200912061730 METAR LPPR 061730Z 20017KT 5000 -RA BR SCT002 BKN004 17/17
                        Q1013 WS ALL RWY=
200912061700 METAR LPPR 061700Z 17011KT 140V200 2000 +RA BR SCT005 BKN008
                        BKN015 16/16 Q1013=
200912061630 METAR LPPR 061630Z 18012KT 3000 -RA BR SCT002 BKN004 16/15
                        Q1013=
200912061600 METAR LPPR 061600Z 18013KT 4000 BR SCT003 BKN006 16/15 Q1013=
200912061530 METAR LPPR 061530Z 18016KT 5000 BR SCT004 BKN007 BKN012 16/15
                        Q1013=
200912061500 METAR LPPR 061500Z 18017KT 4000 BR SCT004 BKN007 BKN012 16/15
                        Q1013=
200912061430 METAR LPPR 061430Z 17015KT 8000 SCT006 BKN014 16/15 Q1013=
200912061400 METAR LPPR 061400Z 18019KT 5000 BR SCT004 BKN006 16/15 Q1013
                        WS ALL RWY=
200912061330 METAR LPPR 061330Z 18021KT 5000 -RA BR SCT004 BKN006 16/15
                        Q1013 WS ALL RWY=
200912061300 METAR LPPR 061300Z 18019KT 7000 SCT003 BKN006 16/16 Q1014
                        WS ALL RWY=
200912061230 METAR LPPR 061230Z 18019KT 4000 -RA BR SCT003 BKN006 16/15
                        Q1014 WS ALL RWY=
200912061200 METAR LPPR 061200Z 18017KT 4000 -RA BR SCT005 BKN007 16/15
                        Q1014 WS ALL RWY=
200912061130 METAR LPPR 061130Z 17018KT 4000 -RA BR FEW005 BKN007 16/15
                        Q1014 WS ALL RWY=
200912061100 METAR LPPR 061100Z 17016KT 4000 -RA BR SCT005 BKN007 16/15
                        Q1014 WS ALL RWY=
200912061030 METAR LPPR 061030Z 18017KT 3000 -RA BR SCT004 BKN005 16/15
                        Q1014 WS ALL RWY=
200912061000 METAR LPPR 061000Z 19013KT 3000 -RA BR SCT003 BKN005 16/16
                        Q1014 WS ALL RWY=
200912060930 METAR LPPR 060930Z 20013KT 2500 RA BR BKN003 BKN005 17/16
                        Q1014 WS ALL RWY=
200912060900 METAR LPPR 060900Z 21017G29KT 2500 RA BR BKN003 BKN005 17/16
                        Q1013 WS ALL RWY=
200912060830 METAR LPPR 060830Z 23007KT 190V290 5000 -RA BR BKN004 OVC090
                        16/16 Q1013 WS ALL RWY=
200912060800 METAR LPPR 060800Z 18016KT 6000 -RA SCT003 BKN006 OVC090
                        15/15 Q1013 RERA WS ALL RWY=
200912060730 METAR LPPR 060730Z 19016G26KT 4000 RA BR BKN003 BKN013 OVC090
                        15/15 Q1012 WS ALL RWY=
200912060700 METAR LPPR 060700Z 17023KT 6000 -RA BR SCT004 BKN013 OVC090
                        14/14 Q1012 RERA WS ALL RWY=
200912060630 METAR LPPR 060630Z 18018KT 4000 RA BR SCT007 BKN015 OVC090
                        14/14 Q1012 WS ALL RWY=
200912060600 METAR LPPR 060600Z 19019KT 4000 RA BR SCT007 BKN015 OVC090
                        14/14 Q1012 WS ALL RWY=
200912060530 METAR LPPR 060530Z 18024G35KT 4000 RA BR SCT007 BKN015 OVC090
                        14/14 Q1012 WS ALL RWY=
200912060500 METAR LPPR 060500Z 18026KT 3000 RA BR SCT006 BKN008 BKN015
                        14/14 Q1012 WS ALL RWY=
200912060430 METAR LPPR 060430Z 17025G35KT 4000 -RA BR SCT005 BKN007 BKN015
                        14/14 Q1012 WS ALL RWY=
200912060400 METAR LPPR 060400Z 18026KT 4000 -RA BR SCT005 BKN007 BKN015
                        14/14 Q1012 WS ALL RWY=
200912060330 METAR LPPR 060330Z 18024G37KT 4000 -RA BR SCT005 BKN007 BKN012
                        15/14 Q1012 WS ALL RWY=
200912060300 METAR LPPR 060300Z 18025KT 4000 -RA BR SCT005 BKN007 BKN012
                        15/14 Q1012 WS ALL RWY=
200912060230 METAR LPPR 060230Z 18024KT 3000 -RA BR SCT005 BKN007 BKN012
                        15/14 Q1012 WS ALL RWY=
200912060200 METAR LPPR 060200Z 18025KT 3000 -RA BR SCT005 BKN007 BKN012
                        15/14 Q1013 WS ALL RWY=
200912060130 METAR LPPR 060130Z 18023KT 3000 -RA BR SCT005 BKN007 BKN012
                        15/14 Q1013 WS ALL RWY=
200912060100 METAR LPPR 060100Z 18022G32KT 4000 BR SCT005 SCT007 BKN010
                        15/14 Q1013 WS ALL RWY=
200912060030 METAR LPPR 060030Z 18023G33KT 4000 -RA BR SCT003 SCT005 BKN007
                        15/15 Q1013 WS ALL RWY=
200912060000 METAR LPPR 060000Z 18022KT 3000 -RA BR SCT004 BKN006 BKN008
                        15/15 Q1013 WS ALL RWY=
200912052330 METAR LPPR 052330Z 18021KT 3000 RA BR SCT003 BKN004 15/15
                        Q1013 WS ALL RWY=
200912052300 METAR LPPR 052300Z 18023KT 3000 -RA BR SCT004 BKN006 BKN012
                        15/14 Q1013 RERA WS ALL RWY=
200912052230 METAR LPPR 052230Z 18024KT 7000 -RA BKN008 BKN013 15/15 Q1013
                        WS ALL RWY=
200912052200 METAR LPPR 052200Z 18018G28KT 4000 RA BR SCT004 BKN008 BKN013
                        15/15 Q1014 WS ALL RWY=
200912052130 METAR LPPR 052130Z 18020KT 4000 -RA BR BKN004 BKN006 15/14
                        Q1014=
200912052100 METAR LPPR 052100Z 17020KT 4000 R17/1300N R35/1400U -RA BR
                        BKN004 BKN006 15/14 Q1014 WS ALL
                        RWY=
200912052030 METAR LPPR 052030Z 19022G32KT 4000 -RA BR BKN004 BKN005 15/15
                        Q1014 WS ALL RWY=
200912052000 METAR LPPR 052000Z 18024KT 4000 -RA BR BKN003 BKN005 15/15
                        Q1014 WS ALL RWY=
200912051930 METAR LPPR 051930Z 18025KT 5000 -RA BR SCT004 BKN007 15/15
                        Q1014 RERA WS ALL RWY=
200912051900 METAR LPPR 051900Z 18021KT 4000 RA BR SCT004 BKN007 15/15
                        Q1014 WS ALL RWY=
200912051830 METAR LPPR 051830Z 18023G34KT 4000 RA BR SCT004 BKN007 15/15
                        Q1014 WS ALL RWY=
200912051800 METAR LPPR 051800Z 17021G31KT 6000 -RA SCT005 BKN012 15/15
                        Q1014 WS ALL RWY=
200912051730 METAR LPPR 051730Z 18021G34KT 4000 -RA BR SCT003 BKN006 16/15
                        Q1014 WS ALL RWY=
200912051700 METAR LPPR 051700Z 18024KT 5000 BR SCT003 BKN005 15/15 Q1014
                        WS ALL RWY=
200912051630 METAR LPPR 051630Z 19022G32KT 2000 RADZ BR SCT002 BKN004
                        15/15 Q1014 WS ALL RWY=
200912051600 METAR LPPR 051600Z 18023G33KT 2000 RADZ BR SCT002 SCT004
                        BKN006 15/15 Q1015 WS ALL RWY=
200912051530 METAR LPPR 051530Z 18020KT 4000 -RADZ BR SCT003 BKN006 15/15
                        Q1015 WS ALL RWY=
200912051500 METAR LPPR 051500Z 18019KT 4000 BR SCT003 BKN006 15/15 Q1015
                        WS ALL RWY=
200912051430 METAR LPPR 051430Z 18020G30KT 4000 BR SCT003 BKN006 15/15
                        Q1015 WS ALL RWY=
200912051400 METAR LPPR 051400Z 18021KT 4000 -RADZ BR SCT002 SCT004 BKN008
                        15/15 Q1016 WS ALL RWY=
200912051330 METAR LPPR 051330Z 18020KT 3000 -RADZ BR SCT004 BKN007 15/15
                        Q1016 WS ALL RWY=
200912051300 METAR LPPR 051300Z 18020KT 6000 SCT006 BKN009 16/15 Q1016
                        WS ALL RWY=
200912051230 METAR LPPR 051230Z 18021KT 5000 -RADZ BR SCT005 BKN009 16/15
                        Q1017 WS ALL RWY=
200912051200 METAR LPPR 051200Z 18019KT 3000 -RADZ BR SCT004 BKN007 15/15
                        Q1017 WS ALL RWY=
200912051130 METAR LPPR 051130Z 18020KT 4000 -RADZ BR SCT004 BKN007 15/15
                        Q1018 WS ALL RWY=
200912051100 METAR LPPR 051100Z 18018KT 3000 -RADZ BR SCT004 BKN007 15/14
                        Q1018=
200912051030 METAR LPPR 051030Z 18020KT 4000 -RADZ BR SCT004 BKN007 15/14
                        Q1018=
200912051000 METAR LPPR 051000Z 18018KT 3000 -RADZ BR SCT003 BKN006 15/14
                        Q1018=
200912050930 METAR LPPR 050930Z 18020KT 3000 -RADZ BR SCT002 BKN005 14/14
                        Q1018=
200912050900 METAR LPPR 050900Z 18017KT 3000 -RADZ BR SCT002 BKN005 14/14
                        Q1018=
200912050830 METAR LPPR 050830Z 18016KT 2500 -DZ BR SCT002 BKN005 14/13
                        Q1018=
200912050800 METAR LPPR 050800Z 18016KT 2500 -DZ BR SCT003 BKN006 14/13
                        Q1018=
200912050730 METAR LPPR 050730Z 17016KT 4000 BR SCT003 BKN005 13/13 Q1018=
200912050700 METAR LPPR 050700Z 17017KT 6000 FEW003 SCT005 BKN009 13/13
                        Q1018=
200912050630 METAR LPPR 050630Z 18016KT 3000 -RADZ BR SCT003 BKN006 BKN012
                        13/13 Q1018=
200912050600 METAR LPPR 050600Z 18016KT 3000 -RADZ BR BKN007 BKN012 13/12
                        Q1018=
200912050530 METAR LPPR 050530Z 18015KT 3000 -RADZ BR SCT007 BKN012 13/12
                        Q1018=
200912050500 METAR LPPR 050500Z 17014KT 4000 -RADZ BR SCT008 BKN012 13/12
                        Q1018=
200912050430 METAR LPPR 050430Z 17014KT 5000 -RADZ BR SCT008 BKN013 12/11
                        Q1019=
200912050400 METAR LPPR 050400Z 17015KT 8000 SCT008 BKN013 12/11 Q1019=
200912050330 METAR LPPR 050330Z 17016KT 8000 SCT012 BKN020 13/12 Q1019=
200912050300 METAR LPPR 050300Z 16014KT 8000 FEW008 BKN017 13/12 Q1019=
200912050230 METAR LPPR 050230Z 17015KT 5000 -RADZ BR SCT007 BKN011 13/12
                        Q1020=
200912050200 METAR LPPR 050200Z 18014KT 5000 -RADZ BR SCT007 BKN011 13/12
                        Q1020=
200912050130 METAR LPPR 050130Z 18014KT 7000 -RADZ SCT008 BKN013 13/12
                        Q1020=
200912050100 METAR LPPR 050100Z 18015KT 9999 SCT017 BKN020 14/11 Q1020=
200912050030 METAR LPPR 050030Z 17013KT 9999 SCT017 BKN020 14/11 Q1020=
200912050000 METAR LPPR 050000Z 18014KT 9999 SCT017 BKN020 14/11 Q1021=
200912042330 METAR LPPR 042330Z 17013KT 9999 BKN025 SCT035 14/11 Q1021=
200912042300 METAR LPPR 042300Z 17012KT 9999 BKN025 SCT040 14/11 Q1021=
200912042230 METAR LPPR 042230Z 18011KT 9999 BKN025 BKN035 14/11 Q1021=
200912042200 METAR LPPR 042200Z 17012KT 9999 BKN025 BKN035 14/10 Q1021=
200912042130 METAR LPPR 042130Z 17012KT 9999 SCT025 BKN040 14/11 Q1022=
200912042100 METAR LPPR 042100Z 17011KT 9999 SCT030 BKN040 13/11 Q1022=
200912042030 METAR LPPR 042030Z 17011KT 9999 BKN030 13/11 Q1022=
200912042000 METAR LPPR 042000Z 17010KT 9999 BKN040 13/11 Q1022=
200912041930 METAR LPPR 041930Z 17010KT 9999 BKN040 13/11 Q1022=
200912041900 METAR LPPR 041900Z 17009KT 9999 BKN040 13/11 Q1022=
200912041830 METAR LPPR 041830Z 17008KT 9999 BKN040 13/11 Q1022=
200912041800 METAR LPPR 041800Z 16009KT 9999 FEW015 BKN040 13/11 Q1022=
200912041730 METAR LPPR 041730Z 17008KT 9999 FEW015 BKN040 13/11 Q1022=
200912041700 METAR LPPR 041700Z 18009KT 9999 FEW015 BKN040 14/11 Q1022=
200912041630 METAR LPPR 041630Z 17009KT 9999 FEW015 BKN040 14/11 Q1022=
200912041600 METAR LPPR 041600Z 18007KT 9999 FEW015 BKN030 14/11 Q1022=
200912041530 METAR LPPR 041530Z 18008KT 9999 FEW015 BKN040 14/11 Q1022=
200912041500 METAR LPPR 041500Z 18007KT 160V220 9999 FEW015 BKN040 14/11
                        Q1022=
200912041430 METAR LPPR 041430Z 17008KT 9999 FEW015 BKN030 14/11 Q1023=
200912041400 METAR LPPR 041400Z 17007KT 9999 FEW015 BKN030 14/11 Q1023=
200912041330 METAR LPPR 041330Z 16006KT 9999 FEW015 BKN035 14/11 Q1023=
200912041300 METAR LPPR 041300Z 17005KT 9999 FEW015 BKN035 13/11 Q1024=
200912041230 METAR LPPR 041230Z 18006KT 9999 FEW015 BKN040 13/11 Q1024=
200912041200 METAR LPPR 041200Z 17006KT 9999 FEW015 BKN040 13/11 Q1024=
200912041130 METAR LPPR 041130Z 15007KT 9999 FEW015 BKN035 12/11 Q1025=
200912041100 METAR LPPR 041100Z 15005KT 9999 FEW015 BKN035 12/10 Q1025=
200912041030 METAR LPPR 041030Z 17006KT 150V210 9999 FEW015 BKN035 12/10
                        Q1025=
200912041000 METAR LPPR 041000Z VRB03KT 9999 FEW015 BKN035 12/10 Q1025=
200912040930 METAR LPPR 040930Z VRB03KT 8000 FEW015 BKN035 11/09 Q1025=
200912040900 METAR LPPR 040900Z 13004KT 080V170 8000 SCT013 BKN035 11/10
                        Q1025=
200912040830 METAR LPPR 040830Z 13005KT 7000 FEW008 SCT015 BKN025 10/09
                        Q1025=
200912040800 METAR LPPR 040800Z 19002KT 5000 BR SCT008 SCT015 BKN025 11/09
                        Q1025=
200912040730 METAR LPPR 040730Z VRB02KT 9999 FEW015 BKN025 11/09 Q1025=
200912040700 METAR LPPR 040700Z 11005KT 9999 FEW015 BKN030 11/08 Q1024=
200912040630 METAR LPPR 040630Z 00000KT 9999 FEW015 BKN025 11/09 Q1024=
200912040600 METAR LPPR 040600Z VRB02KT 9999 FEW015 BKN025 11/09 Q1024=
200912040530 METAR LPPR 040530Z 09004KT 9999 FEW015 BKN027 BKN030 11/09
                        Q1024=
200912040500 METAR LPPR 040500Z 12003KT 9999 FEW015 BKN030 11/09 Q1024=
200912040430 METAR LPPR 040430Z 00000KT 9999 FEW015 BKN030 11/09 Q1025=
200912040400 METAR LPPR 040400Z 00000KT 9999 FEW015 BKN030 11/09 Q1025=
200912040330 METAR LPPR 040330Z 00000KT 9999 FEW015 BKN030 11/09 Q1025=
200912040300 METAR LPPR 040300Z 10003KT 9999 FEW015 BKN030 11/08 Q1025=
200912040230 METAR LPPR 040230Z 11004KT 9999 FEW015 BKN030 11/08 Q1025=
200912040200 METAR LPPR 040200Z 00000KT 9999 FEW015 BKN030 11/09 Q1025=
200912040130 METAR LPPR 040130Z 00000KT 9999 FEW015 BKN030 11/09 Q1025=
200912040100 METAR LPPR 040100Z 00000KT 9999 FEW015 BKN030 11/08 Q1025=
200912040030 METAR LPPR 040030Z 00000KT 9999 FEW015 BKN030 11/09 Q1025=
200912040000 METAR LPPR 040000Z 10002KT 9999 FEW015 BKN030 11/08 Q1025=
200912032330 METAR LPPR 032330Z 10004KT 9999 FEW015 BKN030 11/08 Q1025=
200912032300 METAR LPPR 032300Z VRB01KT 9999 FEW015 BKN035 11/08 Q1025=
200912032230 METAR LPPR 032230Z 03003KT 9999 FEW015 BKN035 11/08 Q1025=
200912032200 METAR LPPR 032200Z 05004KT 9999 FEW015 BKN035 10/09 Q1025=
200912032130 METAR LPPR 032130Z 00000KT 9999 FEW015 BKN030 09/08 Q1025=
200912032100 METAR LPPR 032100Z 00000KT 9999 FEW015 08/07 Q1025=
200912032030 METAR LPPR 032030Z 00000KT 9999 FEW017 09/08 Q1024=
200912032000 METAR LPPR 032000Z VRB02KT 9999 FEW017 09/08 Q1024=
200912031930 METAR LPPR 031930Z 34004KT 9999 FEW017 10/08 Q1024=
200912031900 METAR LPPR 031900Z VRB02KT 9999 FEW017 10/08 Q1024=
200912031830 METAR LPPR 031830Z 35003KT 9999 FEW017 10/09 Q1024=
200912031800 METAR LPPR 031800Z 34004KT 9999 FEW017 11/09 Q1023=
200912031730 METAR LPPR 031730Z 35005KT 9999 FEW017 12/10 Q1023=
200912031700 METAR LPPR 031700Z 34008KT 9999 FEW015 SCT030 13/10 Q1023=
200912031630 METAR LPPR 031630Z 34010KT 9999 FEW013 SCT035 14/10 Q1023=
200912031600 METAR LPPR 031600Z 35009KT 9999 FEW013 FEW020TCU SCT250 14/11
                        Q1023=
200912031530 METAR LPPR 031530Z 34008KT 9999 SCT015 SCT070 14/11 Q1022=
200912031500 METAR LPPR 031500Z 34010KT 320V020 9999 FEW015 SCT060 14/11
                        Q1022=
200912031430 METAR LPPR 031430Z 35010KT 9999 SCT015 BKN050 14/11 Q1022=
200912031400 METAR LPPR 031400Z 34014KT 9999 SCT015 SCT030 14/11 Q1022=
200912031330 METAR LPPR 031330Z 33008KT 8000 -SHRA SCT013 SCT025 14/11
                        Q1022=
200912031300 METAR LPPR 031300Z 33009KT 9999 SCT015 BKN035 14/11 Q1022=
200912031230 METAR LPPR 031230Z 34006KT 320V030 9999 SCT015 BKN035 14/11
                        Q1022=
200912031200 METAR LPPR 031200Z 01005KT 300V050 9999 SCT015 BKN030 15/11
                        Q1022=
200912031130 METAR LPPR 031130Z VRB01KT 9999 FEW015 SCT025 14/12 Q1022=
200912031100 METAR LPPR 031100Z VRB03KT 9999 FEW013 SCT030 14/12 Q1022=
200912031030 METAR LPPR 031030Z VRB02KT 9999 FEW015 SCT250 14/12 Q1021=
200912031000 METAR LPPR 031000Z VRB02KT 9999 FEW015 SCT035 12/11 Q1021=
200912030930 METAR LPPR 030930Z 00000KT 8000 SCT015 FEW020TCU 12/11 Q1020=
200912030900 METAR LPPR 030900Z 00000KT 9999 SCT015 SCT030 11/10 Q1020=
200912030830 METAR LPPR 030830Z 11002KT 9999 SCT015 SCT030 10/09 Q1019=
200912030800 METAR LPPR 030800Z VRB03KT 9999 SCT015 BKN025 10/09 Q1019=
200912030730 METAR LPPR 030730Z VRB02KT 9999 SCT015 BKN030 10/09 Q1019=
200912030700 METAR LPPR 030700Z 00000KT 9999 -SHRA SCT015 BKN025 10/09
                        Q1018=
200912030630 METAR LPPR 030630Z 00000KT 9999 SCT015 BKN030 10/09 Q1018=
200912030600 METAR LPPR 030600Z 00000KT 9999 SCT015 BKN030 10/09 Q1018=
200912030530 METAR LPPR 030530Z 35004KT 9999 SCT015 SCT030 10/09 Q1017=
200912030500 METAR LPPR 030500Z VRB03KT 9999 -SHRA SCT015 BKN030 10/09
                        Q1017=
200912030430 METAR LPPR 030430Z 35006KT 8000 -SHRA SCT015 BKN030 11/09
                        Q1017=
200912030400 METAR LPPR 030400Z 31004KT 280V340 9999 SCT015 BKN030 11/09
                        Q1016=
200912030330 METAR LPPR 030330Z VRB03KT 9999 SCT015 10/09 Q1016=
200912030300 METAR LPPR 030300Z 00000KT 9999 SCT015 BKN030 10/09 Q1016=
200912030230 METAR LPPR 030230Z 00000KT 9999 SCT015 10/09 Q1016=
200912030200 METAR LPPR 030200Z 12002KT 8000 FEW015 BKN070 10/09 Q1015=
200912030130 METAR LPPR 030130Z 34003KT 9999 FEW015 BKN070 11/09 Q1015=
200912030100 METAR LPPR 030100Z 32014KT 210V350 8000 FEW015 SCT035 BKN070
                        12/11 Q1015 RERA=
200912030030 METAR LPPR 030030Z VRB03KT 8000 FEW015 SCT035 BKN070 11/11
                        Q1015=
200912030000 METAR LPPR 030000Z 33014KT 8000 -SHRA SCT015 SCT035 BKN070
                        11/10 Q1015=
200912022330 METAR LPPR 022330Z 30010G21KT 260V330 9999 FEW015 BKN035
                        14/10 Q1015=
200912022300 METAR LPPR 022300Z 30008KT 9999 FEW015 BKN030 13/10 Q1015=
200912022230 METAR LPPR 022230Z 30010KT 270V330 9999 -SHRA FEW015 BKN030
                        13/10 Q1015=
200912022200 METAR LPPR 022200Z 29008G18KT 260V340 9999 FEW015 SCT025
                        BKN060 14/10 Q1015=
200912022130 METAR LPPR 022130Z 30007KT 260V330 9999 FEW015 SCT025 BKN060
                        14/11 Q1015=
200912022100 METAR LPPR 022100Z 31010KT 280V340 9999 FEW015 BKN060 14/10
                        Q1015=
200912022030 METAR LPPR 022030Z 30011KT 260V330 9999 FEW015 BKN070 14/11
                        Q1015=
200912022000 METAR LPPR 022000Z 29010KT 260V320 9999 FEW015 SCT030 BKN070
                        14/10 Q1015=
200912021930 METAR LPPR 021930Z 28010KT 9999 SCT015 BKN035 14/10 Q1015=
200912021900 METAR LPPR 021900Z 28011KT 250V320 9999 FEW015 BKN045 14/10
                        Q1014=
200912021830 METAR LPPR 021830Z 29009KT 250V320 9999 SCT015 BKN030 14/12
                        Q1014=
200912021800 METAR LPPR 021800Z 29006KT 250V330 9999 FEW008 SCT015 BKN030
                        14/12 Q1014=
200912021730 METAR LPPR 021730Z 26006KT 230V290 7000 -SHRA FEW008 SCT013
                        BKN035 14/12 Q1014=
200912021700 METAR LPPR 021700Z 27008KT 230V310 7000 -SHRA FEW008 SCT013
                        BKN035 15/13 Q1014=
200912021630 METAR LPPR 021630Z 27009KT 240V300 6000 -SHRA SCT008 SCT013
                        BKN025 15/13 Q1014=
200912021600 METAR LPPR 021600Z 27009KT 240V320 7000 FEW008 SCT015 BKN025
                        14/13 Q1014=
200912021530 METAR LPPR 021530Z 27009KT 250V310 4000 -SHRA BR SCT008 SCT015
                        BKN025 14/13 Q1015=
200912021500 METAR LPPR 021500Z 26009G20KT 200V310 4000 -SHRA SCT008 SCT015
                        BKN025 15/12 Q1014=
200912021430 METAR LPPR 021430Z 25007KT 190V290 7000 SCT017 BKN030 15/13
                        Q1015=
200912021400 METAR LPPR 021400Z 19005KT 8000 SCT017 BKN030 15/14 Q1015=
200912021330 METAR LPPR 021330Z 21007KT 180V240 7000 SCT015 BKN030 13/12
                        Q1016 RERA=
200912021300 METAR LPPR 021300Z 22008KT 2000 SHRA SCT013 BKN025 15/12
                        Q1016=
200912021230 METAR LPPR 021230Z 22010KT 9999 FEW017 BKN035 16/11 Q1016=
200912021200 METAR LPPR 021200Z 23009KT 200V320 9999 FEW017 BKN035 15/11
                        Q1017=
200912021130 METAR LPPR 021130Z 23009KT 190V260 9999 FEW008 SCT015 BKN035
                        16/12 Q1017=
200912021100 METAR LPPR 021100Z 22008KT 9999 SCT015 BKN035 16/12 Q1017=
200912021030 METAR LPPR 021030Z 22007KT 9999 SCT017 BKN045 16/12 Q1017=
200912021000 METAR LPPR 021000Z 23005KT 150V320 9999 FEW017 BKN045 16/13
                        Q1017=
200912020930 METAR LPPR 020930Z 24005KT 210V280 9999 FEW017 BKN045 15/12
                        Q1017=
200912020900 METAR LPPR 020900Z VRB03KT 9999 FEW017 SCT040 15/12 Q1017=
200912020830 METAR LPPR 020830Z VRB03KT 9999 FEW017 SCT040 14/11 Q1017=
200912020800 METAR LPPR 020800Z VRB03KT 9999 FEW017 14/12 Q1017=
200912020730 METAR LPPR 020730Z VRB03KT 9999 FEW017 13/12 Q1017=
200912020700 METAR LPPR 020700Z 22004KT 180V260 9999 FEW017 SCT025 14/12
                        Q1017=
200912020630 METAR LPPR 020630Z 21003KT 9999 SCT017 BKN025 13/11 Q1017=
200912020600 METAR LPPR 020600Z VRB02KT 9999 FEW017 BKN250 13/11 Q1017=
200912020530 METAR LPPR 020530Z VRB03KT 9999 FEW017 BKN250 14/11 Q1017=
200912020500 METAR LPPR 020500Z 28005KT 240V330 9999 FEW017 BKN250 14/12
                        Q1017=
200912020430 METAR LPPR 020430Z 30006KT 260V330 9999 SCT016 SCT030 15/14
                        Q1017=
200912020400 METAR LPPR 020400Z 30007KT 260V340 9999 SCT015 SCT030 15/15
                        Q1017=
200912020330 METAR LPPR 020330Z 28004KT 250V330 9999 SCT015 BKN030 15/15
                        Q1017=
200912020300 METAR LPPR 020300Z 00000KT 9999 SCT015 BKN020 15/15 Q1017=
200912020230 METAR LPPR 020230Z 00000KT 9999 SCT016 BKN020 15/15 Q1017=
200912020200 METAR LPPR 020200Z VRB02KT 8000 SCT008 BKN011 BKN020 15/15
                        Q1017=
200912020130 METAR LPPR 020130Z 30007KT 250V330 2000 -RADZ BR BKN001 BKN002
                        15/15 Q1017=
200912020100 METAR LPPR 020100Z VRB03KT 2000 VCFG BR SCT001 BKN003 BKN005
                        16/16 Q1018=
200912020030 METAR LPPR 020030Z 24004KT 7000 FEW001 SCT004 BKN015 16/16
                        Q1018=
200912020000 METAR LPPR 020000Z VRB03KT 7000 FEW002 BKN004 BKN007 16/16
                        Q1018=
200912012330 METAR LPPR 012330Z VRB03KT 8000 SCT001 SCT003 BKN007 16/16
                        Q1018=
200912012300 METAR LPPR 012300Z 28007KT 230V310 8000 SCT001 SCT003 BKN006
                        16/16 Q1018=
200912012230 METAR LPPR 012230Z 27008KT 240V300 3000 BR SCT001 BKN003
                        16/16 Q1018=
200912012200 METAR LPPR 012200Z 23005KT 200V270 2000 -RADZ BR BKN001 BKN002
                        16/16 Q1018=
200912012130 METAR LPPR 012130Z 21010KT 2000 -RADZ BR BKN001 BKN002 15/15
                        Q1018=
200912012100 METAR LPPR 012100Z 20012KT 2000 -RADZ BR BKN001 BKN002 15/15
                        Q1018=
200912012030 METAR LPPR 012030Z 21011KT 2000 -DZ BR BKN001 BKN002 15/15
                        Q1019=
200912012000 METAR LPPR 012000Z 20010KT 150V250 2000 -RADZ BR SCT001 BKN002
                        15/15 Q1019=
200912011930 METAR LPPR 011930Z 21009KT 180V240 2000 -RADZ BR SCT001 BKN003
                        15/15 Q1019=
200912011900 METAR LPPR 011900Z 20009KT 2000 -RADZ BR SCT001 BKN006 14/14
                        Q1019=
200912011830 METAR LPPR 011830Z 22005KT 170V270 2000 -RADZ BR SCT001 BKN006
                        14/14 Q1019=
200912011800 METAR LPPR 011800Z 20007KT 180V240 2000 -RADZ BR SCT004 BKN006
                        14/14 Q1019=
200912011730 METAR LPPR 011730Z 20006KT 2000 -RADZ BR SCT002 BKN003 14/14
                        Q1019=
200912011700 METAR LPPR 011700Z VRB02KT 2000 -RADZ BR SCT002 BKN003 14/14
                        Q1019=
200912011630 METAR LPPR 011630Z 27006KT 230V020 3000 -RADZ BR SCT001 BKN003
                        15/14 Q1019=
200912011600 METAR LPPR 011600Z 28007KT 250V350 3000 -RADZ BR SCT004 BKN005
                        15/14 Q1019=
200912011530 METAR LPPR 011530Z 26006KT 200V300 8000 SCT008 SCT015 BKN030
                        16/15 Q1019=
200912011500 METAR LPPR 011500Z 25006KT 200V280 5000 -RADZ BR SCT008 BKN009
                        16/15 Q1019=
200912011430 METAR LPPR 011430Z 25006KT 220V280 7000 SCT008 BKN030 16/15
                        Q1019=
200912011400 METAR LPPR 011400Z 25005KT 200V300 7000 SCT008 BKN013 BKN025
                        16/15 Q1019=
200912011330 METAR LPPR 011330Z 25005KT 210V320 5000 BR SCT008 BKN013
                        BKN025 16/15 Q1020=
200912011300 METAR LPPR 011300Z VRB05KT 8000 SCT008 BKN014 BKN030 15/15
                        Q1020=
200912011230 METAR LPPR 011230Z 19008KT 170V250 5000 BR SCT008 BKN014
                        BKN025 14/14 Q1020=
200912011200 METAR LPPR 011200Z 19010KT 5000 BR SCT006 SCT009 BKN013 14/14
                        Q1021=
200912011130 METAR LPPR 011130Z 19010KT 5000 -RADZ BR SCT003 BKN006 BKN013
                        13/13 Q1021=
200912011100 METAR LPPR 011100Z 18012KT 5000 -RADZ BR SCT004 SCT008 BKN013
                        13/13 Q1021=
200912011030 METAR LPPR 011030Z 17009KT 5000 BR SCT004 SCT008 BKN013 12/12
                        Q1021=
200912011000 METAR LPPR 011000Z 18011KT 5000 -RADZ BR SCT005 BKN013 12/12
                        Q1021=
200912010930 METAR LPPR 010930Z 19005KT 150V250 2000 -RADZ BR SCT002 BKN006
                        BKN013 11/11 Q1021=
200912010900 METAR LPPR 010900Z 15008KT 2000 -DZ BR SCT002 BKN004 11/11
                        Q1021=
200912010830 METAR LPPR 010830Z 15008KT 3000 -DZ BR SCT002 BKN004 11/11
                        Q1021=
200912010800 METAR LPPR 010800Z 14007KT 2000 -DZ BR SCT002 BKN004 11/10
                        Q1021=
200912010730 METAR LPPR 010730Z 15008KT 3000 -DZ BR SCT002 BKN005 11/10
                        Q1021=
200912010700 METAR LPPR 010700Z 15008KT 3000 -DZ BR SCT002 BKN005 11/10
                        Q1021=
200912010630 METAR LPPR 010630Z 16008KT 4000 -DZ BR SCT003 BKN007 11/10
                        Q1021=
200912010600 METAR LPPR 010600Z 15008KT 4000 -DZ BR SCT005 BKN012 11/10
                        Q1021=
200912010530 METAR LPPR 010530Z 16005KT 130V200 7000 SCT008 BKN015 10/10
                        Q1021=
200912010500 METAR LPPR 010500Z 16009KT 8000 -DZ SCT007 BKN015 10/09 Q1021=
200912010430 METAR LPPR 010430Z 13005KT 090V160 9999 SCT020 BKN035 10/08
                        Q1021=
200912010400 METAR LPPR 010400Z 12007KT 9999 SCT020 BKN035 10/09 Q1021=
200912010330 METAR LPPR 010330Z 12006KT 8000 -RA SCT020 BKN035 10/08 Q1021=
200912010300 METAR LPPR 010300Z 13008KT 8000 FEW015 SCT030 BKN040 10/08
                        Q1021=
200912010230 METAR LPPR 010230Z 12007KT 8000 SCT013 BKN033 10/08 Q1021=
200912010200 METAR LPPR 010200Z 12008KT 7000 FEW015 SCT035 BKN060 10/08
                        Q1021=
200912010130 METAR LPPR 010130Z 13007KT 8000 FEW015 SCT035 BKN090 10/08
                        Q1021=
200912010100 METAR LPPR 010100Z 13006KT 8000 FEW015 SCT040 BKN090 09/08
                        Q1021=
200912010030 METAR LPPR 010030Z 11006KT 7000 FEW015 SCT040 BKN090 09/08
                        Q1021=
200912010000 METAR LPPR 010000Z 11007KT 6000 FEW015 SCT030 BKN070 09/08
                        Q1022=
