##########################################################
# Query made at 11/07/2014 15:35:11 UTC
# Time interval: from 02/01/2010 00:00  to 03/03/2010 23:59  UTC
##########################################################

##########################################################
# LPPR, Porto / Pedras Rubras (Portugal)
# WMO index: 08545
# Latitude 41-14N. Longitude 008-41W. Altitude 69 m.
##########################################################

###################################
#  METAR/SPECI from LPPR
###################################
201003032330 METAR LPPR 032330Z 34002KT CAVOK 10/08 Q1011=
201003032300 METAR LPPR 032300Z 36002KT CAVOK 10/08 Q1010=
201003032230 METAR LPPR 032230Z 00000KT CAVOK 10/08 Q1010=
201003032200 METAR LPPR 032200Z VRB01KT CAVOK 11/08 Q1010=
201003032130 METAR LPPR 032130Z 36002KT CAVOK 11/08 Q1009=
201003032100 METAR LPPR 032100Z 34003KT CAVOK 11/08 Q1009=
201003032030 METAR LPPR 032030Z 35005KT CAVOK 11/08 Q1009=
201003032000 METAR LPPR 032000Z 35006KT CAVOK 12/08 Q1008=
201003031930 METAR LPPR 031930Z 35006KT CAVOK 12/08 Q1008=
201003031900 METAR LPPR 031900Z 35008KT CAVOK 12/08 Q1008=
201003031830 METAR LPPR 031830Z 34007KT 9999 FEW017 BKN250 14/09 Q1007=
201003031800 METAR LPPR 031800Z 34009KT 9999 FEW017 BKN250 15/09 Q1007=
201003031730 METAR LPPR 031730Z 33009KT 9999 FEW017 BKN250 17/09 Q1006=
201003031700 METAR LPPR 031700Z 32010KT 9999 FEW017 SCT070 17/09 Q1006=
201003031630 METAR LPPR 031630Z 30010KT 9999 FEW017 BKN070 17/09 Q1006=
201003031600 METAR LPPR 031600Z 32009KT 9999 SCT017 SCT070 18/10 Q1005=
201003031530 METAR LPPR 031530Z 31009KT 9999 SCT017 SCT070 17/10 Q1005=
201003031500 METAR LPPR 031500Z 28006KT 260V320 9999 SCT015 SCT070 17/10
                        Q1005=
201003031430 METAR LPPR 031430Z 30007KT 9999 SCT017 SCT060 16/10 Q1005=
201003031400 METAR LPPR 031400Z 32007KT 9999 SCT017 SCT060 18/10 Q1005=
201003031330 METAR LPPR 031330Z 33006KT 270V010 9999 BKN017 FEW020TCU
                        SCT030 17/10 Q1005=
201003031300 METAR LPPR 031300Z VRB02KT 9999 SCT017 FEW020TCU BKN250 17/09
                        Q1005=
201003031230 METAR LPPR 031230Z VRB03KT 9999 SCT017 BKN250 17/10 Q1005=
201003031200 METAR LPPR 031200Z 11004KT 030V170 9999 FEW017 BKN250 18/10
                        Q1005=
201003031130 METAR LPPR 031130Z 13005KT 090V190 9999 FEW017 BKN250 17/09
                        Q1005=
201003031100 METAR LPPR 031100Z 11006KT 080V150 9999 FEW017 BKN250 16/10
                        Q1005=
201003031030 METAR LPPR 031030Z 11007KT 090V150 9999 FEW040 BKN250 15/09
                        Q1005=
201003031000 METAR LPPR 031000Z 10008KT 050V130 9999 FEW040 BKN250 15/10
                        Q1005=
201003030930 METAR LPPR 030930Z 10007KT 070V130 9999 FEW040 SCT080 BKN250
                        13/10 Q1004=
201003030900 METAR LPPR 030900Z 10005KT 070V130 9999 FEW040 SCT080 BKN250
                        12/10 Q1004=
201003030830 METAR LPPR 030830Z 10006KT 070V130 9999 FEW040 SCT070 BKN250
                        12/09 Q1004=
201003030800 METAR LPPR 030800Z 10006KT 9999 SCT040 BKN070 11/09 Q1004=
201003030730 METAR LPPR 030730Z 10006KT 9999 SCT040 BKN070 11/09 Q1003=
201003030700 METAR LPPR 030700Z 10006KT 9999 FEW017 SCT040 BKN070 11/09
                        Q1003=
201003030630 METAR LPPR 030630Z 11006KT 9999 FEW017 SCT040 BKN080 11/09
                        Q1003=
201003030600 METAR LPPR 030600Z 11005KT 9999 FEW017 SCT040 BKN070 12/09
                        Q1003=
201003030530 METAR LPPR 030530Z 10006KT 9999 FEW020 SCT040 BKN080 12/10
                        Q1003=
201003030500 METAR LPPR 030500Z 09005KT 9999 FEW020 SCT040 BKN080 12/10
                        Q1003=
201003030430 METAR LPPR 030430Z 10005KT 9999 BKN030 BKN070 12/10 Q1003=
201003030400 METAR LPPR 030400Z 10005KT 9999 BKN030 BKN070 12/10 Q1002=
201003030330 METAR LPPR 030330Z 09004KT 9999 BKN030 BKN070 12/10 Q1002=
201003030300 METAR LPPR 030300Z 11005KT 9999 BKN030 BKN070 12/10 Q1003=
201003030230 METAR LPPR 030230Z 10005KT 060V130 9999 BKN030 BKN070 12/10
                        Q1003=
201003030200 METAR LPPR 030200Z 10007KT 9999 BKN030 BKN080 12/10 Q1003=
201003030130 METAR LPPR 030130Z 11006KT 080V140 9999 -RA BKN030 BKN080
                        12/10 Q1003=
201003030100 METAR LPPR 030100Z 11007KT 080V140 8000 -RA BKN040 BKN090
                        12/10 Q1003=
201003030030 METAR LPPR 030030Z 11009KT 080V140 8000 -RA BKN040 BKN090
                        12/09 Q1002=
201003030000 METAR LPPR 030000Z 11008KT 080V140 9999 BKN040 BKN090 13/09
                        Q1002=
201003022330 METAR LPPR 022330Z 11007KT 9999 BKN040 BKN090 13/09 Q1002=
201003022300 METAR LPPR 022300Z 10007KT 070V130 9999 BKN040 BKN090 12/09
                        Q1002=
201003022230 METAR LPPR 022230Z 10008KT 070V130 9999 BKN040 BKN090 12/09
                        Q1002=
201003022200 METAR LPPR 022200Z 11007KT 9999 BKN003 BKN080 12/10 Q1003=
201003022130 METAR LPPR 022130Z 10009KT 080V140 8000 -RA BKN025 BKN070
                        12/10 Q1003=
201003022100 METAR LPPR 022100Z 10008KT 070V130 8000 -RA BKN020 SCT070
                        12/10 Q1003=
201003022030 METAR LPPR 022030Z 10009KT 8000 -RA BKN020 SCT070 12/10 Q1003=
201003022000 METAR LPPR 022000Z 09008KT 050V130 5000 -RA BR BKN020 SCT070
                        12/10 Q1003=
201003021930 METAR LPPR 021930Z 11011KT 5000 -RA BR BKN020 SCT070 13/10
                        Q1003=
201003021900 METAR LPPR 021900Z 12014KT 6000 -RA BKN030 SCT070 BKN250
                        13/09 Q1003 WS ALL RWY=
201003021830 METAR LPPR 021830Z 12012KT 7000 -RA BKN030 SCT070 BKN250
                        15/08 Q1003=
201003021800 METAR LPPR 021800Z 12005KT 090V150 8000 SCT030 SCT100 BKN250
                        16/07 Q1003=
201003021730 METAR LPPR 021730Z 12009KT 080V150 8000 SCT030 SCT100 BKN250
                        17/07 Q1002=
201003021700 METAR LPPR 021700Z 09007KT 040V120 9999 FEW030 SCT100 BKN250
                        17/07 Q1002=
201003021630 METAR LPPR 021630Z 10006KT 050V130 9999 FEW030 SCT100 BKN250
                        17/06 Q1002=
201003021600 METAR LPPR 021600Z 10009KT 060V130 9999 FEW030 SCT100 BKN250
                        17/06 Q1003=
201003021530 METAR LPPR 021530Z 09007KT 060V120 CAVOK 17/07 Q1003=
201003021500 METAR LPPR 021500Z 10008KT 070V130 CAVOK 17/06 Q1003=
201003021430 METAR LPPR 021430Z 10008KT 040V130 CAVOK 18/06 Q1004 WS ALL
                        RWY=
201003021400 METAR LPPR 021400Z 10009KT 060V140 CAVOK 18/06 Q1004 WS ALL
                        RWY=
201003021330 METAR LPPR 021330Z 10012KT 070V130 CAVOK 18/05 Q1004=
201003021300 METAR LPPR 021300Z 11012KT 080V140 CAVOK 17/04 Q1005=
201003021230 METAR LPPR 021230Z 10011KT 060V140 CAVOK 17/05 Q1005 WS ALL
                        RWY=
201003021200 METAR LPPR 021200Z 10012KT 070V130 CAVOK 17/05 Q1006=
201003021130 METAR LPPR 021130Z 10012KT 050V130 CAVOK 16/04 Q1006=
201003021100 METAR LPPR 021100Z 10013KT 060V120 9999 FEW030 BKN250 15/04
                        Q1007=
201003021030 METAR LPPR 021030Z 10014G24KT 9999 FEW030 BKN250 15/04 Q1007=
201003021000 METAR LPPR 021000Z 10015G25KT 070V130 9999 FEW030 BKN250
                        14/04 Q1007=
201003020930 METAR LPPR 020930Z 10014KT 060V130 9999 FEW030 BKN250 13/04
                        Q1008=
201003020900 METAR LPPR 020900Z 11010KT 9999 FEW030 BKN200 13/04 Q1008=
201003020830 METAR LPPR 020830Z 11008KT 090V150 9999 FEW030 BKN250 13/05
                        Q1008=
201003020800 METAR LPPR 020800Z 10009KT 060V130 CAVOK 13/04 Q1008=
201003020730 METAR LPPR 020730Z 10011KT 070V130 CAVOK 13/04 Q1007=
201003020700 METAR LPPR 020700Z 10012KT 070V130 CAVOK 13/04 Q1008=
201003020630 METAR LPPR 020630Z 10012KT 050V130 CAVOK 13/04 Q1008=
201003020600 METAR LPPR 020600Z 09010KT 050V130 CAVOK 13/05 Q1009=
201003020530 METAR LPPR 020530Z 10013KT 060V130 CAVOK 13/05 Q1009=
201003020500 METAR LPPR 020500Z 10011KT 060V130 CAVOK 13/05 Q1010=
201003020430 METAR LPPR 020430Z 09008KT 050V130 CAVOK 12/06 Q1010=
201003020400 METAR LPPR 020400Z 09005KT 050V130 CAVOK 11/06 Q1011=
201003020330 METAR LPPR 020330Z 10005KT 060V120 CAVOK 10/06 Q1011=
201003020300 METAR LPPR 020300Z 10008KT 060V120 CAVOK 11/06 Q1012=
201003020230 METAR LPPR 020230Z 10007KT CAVOK 10/07 Q1012=
201003020200 METAR LPPR 020200Z 10006KT CAVOK 10/06 Q1013=
201003020130 METAR LPPR 020130Z 10006KT CAVOK 10/07 Q1014=
201003020100 METAR LPPR 020100Z 11005KT CAVOK 10/07 Q1014=
201003020030 METAR LPPR 020030Z 10006KT CAVOK 10/07 Q1014=
201003020000 METAR LPPR 020000Z 10006KT CAVOK 10/07 Q1015=
201003012330 METAR LPPR 012330Z 10006KT CAVOK 10/08 Q1015=
201003012300 METAR LPPR 012300Z 09006KT CAVOK 11/08 Q1016=
201003012230 METAR LPPR 012230Z 10006KT CAVOK 10/08 Q1016=
201003012200 METAR LPPR 012200Z 10007KT CAVOK 11/08 Q1016=
201003012130 METAR LPPR 012130Z 10006KT CAVOK 11/08 Q1016=
201003012100 METAR LPPR 012100Z 10004KT CAVOK 11/09 Q1017=
201003012030 METAR LPPR 012030Z 10005KT 9999 FEW017 11/09 Q1016=
201003012000 METAR LPPR 012000Z 11004KT 9999 FEW017 11/09 Q1016=
201003011930 METAR LPPR 011930Z 14004KT 9999 FEW017 12/09 Q1016=
201003011900 METAR LPPR 011900Z 15004KT 120V180 9999 FEW017 12/09 Q1016=
201003011830 METAR LPPR 011830Z 17007KT 9999 FEW017 13/10 Q1016=
201003011800 METAR LPPR 011800Z 19008KT 9999 SCT017 14/10 Q1016=
201003011730 METAR LPPR 011730Z 19010KT 9999 SCT017 14/10 Q1016=
201003011700 METAR LPPR 011700Z 19010KT 150V230 9999 SCT017 FEW020TCU
                        15/09 Q1016=
201003011630 METAR LPPR 011630Z 19011KT 9999 SCT017 FEW020TCU 15/10 Q1016=
201003011600 METAR LPPR 011600Z 20010KT 170V230 9999 FEW017 FEW020TCU
                        15/09 Q1016=
201003011530 METAR LPPR 011530Z 20009KT 180V240 9999 FEW017 FEW020TCU
                        15/10 Q1016=
201003011500 METAR LPPR 011500Z 19012KT 160V230 9999 SCT017 FEW020TCU
                        15/10 Q1016=
201003011430 METAR LPPR 011430Z 22012KT 200V260 9999 SCT017 FEW020TCU
                        15/10 Q1016=
201003011400 METAR LPPR 011400Z 21013KT 9999 SCT017 FEW020TCU 15/09 Q1016=
201003011330 METAR LPPR 011330Z 24010KT 9999 FEW017 FEW020TCU SCT250 15/10
                        Q1016=
201003011300 METAR LPPR 011300Z 22010KT 200V260 9999 SCT017 FEW020TCU
                        FEW025CB 15/10 Q1016=
201003011230 METAR LPPR 011230Z 21011KT 9999 SCT017 FEW025CB 13/10 Q1016=
201003011200 METAR LPPR 011200Z 23007KT 190V260 9999 SCT017 FEW025CB 14/10
                        Q1016=
201003011130 METAR LPPR 011130Z 24010KT 8000 -SHRA BKN017 FEW025CB 14/09
                        Q1016 WS ALL RWY=
201003011100 METAR LPPR 011100Z 23009KT 190V260 9999 SCT017 FEW025CB 15/10
                        Q1015=
201003011030 METAR LPPR 011030Z 23010KT 200V270 9999 SCT017 FEW025CB 14/09
                        Q1015=
201003011000 METAR LPPR 011000Z 22007KT 180V260 9999 BKN017 FEW025CB 13/10
                        Q1015=
201003010930 METAR LPPR 010930Z 22006KT 190V260 9999 BKN017 FEW025CB 11/08
                        Q1014=
201003010900 METAR LPPR 010900Z 22010KT 200V260 7000 -SHRA BKN017 FEW025CB
                        11/07 Q1014 WS ALL RWY=
201003010830 METAR LPPR 010830Z 24009G19KT 200V280 5000 SHRA BR BKN017
                        FEW025CB 13/08 Q1013 WS ALL RWY=
201003010800 METAR LPPR 010800Z 22008KT 200V260 9999 BKN017 FEW025CB 12/08
                        Q1012 WS ALL RWY=
201003010730 METAR LPPR 010730Z 22010KT 180V240 9999 SCT017 FEW025CB 12/08
                        Q1012 WS ALL RWY=
201003010700 METAR LPPR 010700Z 22009KT 200V260 9999 SCT017 FEW025CB 12/08
                        Q1012 WS ALL RWY=
201003010630 METAR LPPR 010630Z 22010KT 9999 SCT017 FEW025CB 12/07 Q1011
                        WS ALL RWY=
201003010600 METAR LPPR 010600Z 21010KT 9999 SCT017 FEW025CB 12/09 Q1011=
201003010530 METAR LPPR 010530Z 23009KT 190V260 9999 SCT017 FEW025CB 12/08
                        Q1011=
201003010500 METAR LPPR 010500Z 18006KT 9999 BKN017 FEW025CB 10/08 Q1011=
201003010430 METAR LPPR 010430Z 22010KT 190V250 9999 SCT017 BKN030 11/08
                        Q1011=
201003010400 METAR LPPR 010400Z 20013KT 180V240 9999 SCT017 BKN030 11/08
                        Q1010=
201003010330 METAR LPPR 010330Z 22010KT 190V250 9999 SCT017 BKN030 10/08
                        Q1010=
201003010300 METAR LPPR 010300Z 21015G26KT 9999 -SHRA SCT017 BKN030 11/07
                        Q1010=
201003010230 METAR LPPR 010230Z 22010KT 9999 SCT017 BKN030 12/07 Q1010=
201003010200 METAR LPPR 010200Z 22008KT 9999 SCT017 SCT030 11/07 Q1009=
201003010130 METAR LPPR 010130Z 24008KT 200V260 9999 SCT017 FEW020CB 11/07
                        Q1009=
201003010100 METAR LPPR 010100Z 23007KT 210V270 9999 SCT017 FEW020CB 11/06
                        Q1009=
201003010030 METAR LPPR 010030Z 22009KT 9999 SCT017 FEW020CB 11/07 Q1009=
201003010000 METAR LPPR 010000Z 22006KT 200V260 9999 FEW017 SCT030 11/07
                        Q1008=
201002282330 METAR LPPR 282330Z 24007KT 210V290 9999 FEW017 SCT030 11/07
                        Q1007=
201002282300 METAR LPPR 282300Z 25006KT 210V310 9999 SCT015 BKN030 11/08
                        Q1007=
201002282230 METAR LPPR 282230Z 26006KT 220V300 8000 SCT015 BKN030 11/08
                        Q1006=
201002282200 METAR LPPR 282200Z 20009KT 170V230 7000 SCT015 BKN030 10/10
                        Q1006=
201002282130 METAR LPPR 282130Z 18007KT 6000 -RA FEW006 SCT015 BKN030
                        10/09 Q1005=
201002282100 METAR LPPR 282100Z 16007KT 140V200 6000 -RA SCT004 SCT015
                        BKN030 10/09 Q1005=
201002282030 METAR LPPR 282030Z 15008KT 6000 -RA FEW009 SCT015 BKN030
                        10/09 Q1005=
201002282000 METAR LPPR 282000Z 16010KT 6000 -RA SCT015 BKN030 10/09 Q1004=
201002281930 METAR LPPR 281930Z 16011KT 5000 -RA BR SCT015 BKN030 10/09
                        Q1004=
201002281900 METAR LPPR 281900Z 16010KT 5000 -RA BR SCT009 BKN020 10/09
                        Q1004=
201002281830 METAR LPPR 281830Z 14009KT 5000 -RA BR SCT016 BKN040 10/09
                        Q1003=
201002281800 METAR LPPR 281800Z 13011KT 5000 -RA BR SCT016 BKN040 10/09
                        Q1003=
201002281730 METAR LPPR 281730Z 13007KT 6000 -RA SCT012 BKN030 10/09 Q1003=
201002281700 METAR LPPR 281700Z 12009KT 6000 -RA SCT020 BKN040 10/09 Q1003=
201002281630 METAR LPPR 281630Z 12008KT 7000 -RA SCT020 BKN035 09/09 Q1003=
201002281600 METAR LPPR 281600Z 11009KT 6000 -RA FEW006 FEW020CB BKN035
                        09/09 Q1004=
201002281530 METAR LPPR 281530Z 15007KT 120V180 6000 -RA FEW015 FEW020CB
                        BKN035 09/09 Q1004 RERA=
201002281500 METAR LPPR 281500Z 12008KT 6000 RA SCT015 FEW020 BKN035 09/08
                        Q1004=
201002281430 METAR LPPR 281430Z 12008KT 6000 -RA SCT015 FEW020CB BKN035
                        09/08 Q1004 RERA=
201002281400 METAR LPPR 281400Z 19010KT 3000 RA SCT013 SCT020CB BKN035
                        09/08 Q1005 RERA=
201002281330 METAR LPPR 281330Z 13005KT 100V160 4000 RA BR SCT017 SCT020CB
                        BKN035 11/09 Q1004=
201002281300 METAR LPPR 281300Z 14008KT 6000 -RA SCT017 SCT020CB BKN035
                        11/09 Q1005=
201002281230 METAR LPPR 281230Z 14006KT 6000 -RA SCT015 FEW020CB BKN035
                        11/09 Q1006=
201002281200 METAR LPPR 281200Z 15009KT 110V180 7000 -RA SCT013 FEW020CB
                        BKN030 10/09 Q1006=
201002281130 METAR LPPR 281130Z 20004KT 160V300 4000 RA BR SCT012 SCT020CB
                        BKN025 10/09 Q1006=
201002281100 METAR LPPR 281100Z VRB03KT 5000 -SHRA SCT015 SCT020CB BKN025
                        10/08 Q1006=
201002281030 METAR LPPR 281030Z 18014KT 5000 -SHRA SCT015 SCT020CB BKN035
                        10/08 Q1006=
201002281000 METAR LPPR 281000Z 14010KT 8000 -SHRA SCT015 FEW020CB BKN030
                        11/08 Q1006=
201002280930 METAR LPPR 280930Z 13006KT 100V170 9999 SCT015 FEW020CB BKN030
                        11/09 Q1005=
201002280900 METAR LPPR 280900Z VRB02KT 9999 SCT015 FEW020CB BKN030 10/09
                        Q1006=
201002280830 METAR LPPR 280830Z 11007KT 8000 -SHRA SCT015 FEW020CB BKN040
                        09/08 Q1006=
201002280800 METAR LPPR 280800Z 12008KT 9999 FEW015 FEW020CB SCT030 BKN250
                        09/07 Q1006=
201002280730 METAR LPPR 280730Z 12007KT 9999 FEW015 FEW020CB BKN200 09/07
                        Q1005=
201002280700 METAR LPPR 280700Z 13007KT 9999 FEW015 BKN200 09/07 Q1005=
201002280630 METAR LPPR 280630Z 16007KT 9999 FEW015 SCT040 09/07 Q1005=
201002280600 METAR LPPR 280600Z 17005KT 9999 FEW015 SCT040 BKN060 09/07
                        Q1005=
201002280530 METAR LPPR 280530Z 16004KT 130V200 9999 FEW015 SCT040 BKN060
                        10/08 Q1006=
201002280500 METAR LPPR 280500Z 18005KT 9999 SCT015 SCT250 11/07 Q1005=
201002280430 METAR LPPR 280430Z 23005KT 200V260 9999 SCT015 SCT250 12/07
                        Q1005=
201002280400 METAR LPPR 280400Z 23005KT 200V260 9999 SCT015 SCT250 12/06
                        Q1005=
201002280330 METAR LPPR 280330Z 24006KT 200V270 9999 FEW015 FEW017TCU
                        12/07 Q1005=
201002280300 METAR LPPR 280300Z 23007KT 200V260 9999 SCT015 FEW020CB 12/07
                        Q1005=
201002280230 METAR LPPR 280230Z 24009KT 200V280 9999 BKN015 12/07 Q1005=
201002280200 METAR LPPR 280200Z 23007KT 200V270 9999 BKN015 12/08 Q1004=
201002280130 METAR LPPR 280130Z 23009KT 200V260 9999 BKN015 12/08 Q1004=
201002280100 METAR LPPR 280100Z 23010KT 200V260 9999 BKN015 11/07 Q1004=
201002280030 METAR LPPR 280030Z VRB02KT 8000 -SHRA SCT015 FEW020CB SCT040
                        10/07 Q1003=
201002280000 METAR LPPR 280000Z 29006KT 220V330 9999 SCT015 FEW020CB SCT040
                        10/07 Q1003=
201002272330 METAR LPPR 272330Z 25004KT 210V310 9999 SCT015 FEW020CB SCT040
                        10/07 Q1003=
201002272300 METAR LPPR 272300Z 27011KT 230V310 9999 SCT015 FEW020CB BKN030
                        10/07 Q1002 WS ALL RWY=
201002272230 METAR LPPR 272230Z 27008KT 240V310 9999 SCT015 FEW020CB BKN030
                        11/08 Q1001 WS ALL RWY=
201002272200 METAR LPPR 272200Z 25007KT 220V300 8000 -SHRA FEW009 SCT015
                        FEW020CB BKN030 10/08 Q1001 WS ALL
                        RWY=
201002272130 METAR LPPR 272130Z 29014G25KT 260V320 9999 FEW003 SCT015
                        BKN025 11/08 Q1000 WS ALL RWY=
201002272100 METAR LPPR 272100Z 28012G22KT 250V330 7000 -SHRA FEW009 SCT012
                        BKN025 11/08 Q0998 WS ALL RWY=
201002272030 METAR LPPR 272030Z 28017KT 250V310 8000 -SHRA FEW009 SCT015
                        BKN025 11/08 Q0997 WS ALL RWY=
201002272000 METAR LPPR 272000Z 28015G28KT 8000 SCT015 BKN020 11/08 Q0996
                        WS ALL RWY=
201002271930 METAR LPPR 271930Z 29015KT 260V330 7000 -RA FEW009 BKN020
                        BKN030 10/09 Q0995 WS ALL RWY=
201002271900 METAR LPPR 271900Z 28018G31KT 260V320 5000 -RA BR SCT009
                        BKN020 11/08 Q0993 WS ALL RWY=
201002271830 METAR LPPR 271830Z 28018G30KT 250V320 3000 -RA BR SCT009
                        BKN020 11/09 Q0991 WS ALL RWY=
201002271800 METAR LPPR 271800Z 27018G35KT 240V310 2000 -RA BR FEW007
                        SCT009 BKN020 11/09 Q0989 WS ALL
                        RWY=
201002271730 METAR LPPR 271730Z 26019G30KT 220V300 3000 -RA BR FEW007
                        SCT009 BKN020 12/10 Q0986 WS ALL
                        RWY=
201002271700 METAR LPPR 271700Z 24019G34KT 200V270 3000 -RA BR FEW007
                        SCT009 BKN020 13/12 Q0983 WS ALL
                        RWY=
201002271630 METAR LPPR 271630Z 19034G52KT 5000 BR FEW007 SCT009 BKN020
                        14/13 Q0979 WS ALL RWY=
201002271600 METAR LPPR 271600Z 18042G57KT 5000 BR SCT009 BKN020 15/13
                        Q0977 WS ALL RWY=
201002271530 METAR LPPR 271530Z 19042G59KT 6000 SCT009 BKN020 17/14 Q0977
                        WS ALL RWY=
201002271500 METAR LPPR 271500Z 18038G61KT 3000 -RA BR SCT009 BKN020 17/15
                        Q0976 WS ALL RWY=
201002271430 METAR LPPR 271430Z 18034G50KT 6000 -RA SCT009 BKN020 17/15
                        Q0976 WS ALL RWY=
201002271400 METAR LPPR 271400Z 18036G50KT 6000 -RA SCT009 BKN020 BKN060
                        18/15 Q0976 WS ALL RWY=
201002271330 METAR LPPR 271330Z 17032G51KT 7000 FEW009 SCT020 BKN025 18/14
                        Q0977 WS ALL RWY=
201002271300 METAR LPPR 271300Z 17029G44KT 7000 -RA SCT009 BKN020 BKN060
                        17/15 Q0978 WS ALL RWY=
201002271230 METAR LPPR 271230Z 16026G40KT 6000 -RA FEW009 BKN025 BKN060
                        17/14 Q0979 WS ALL RWY=
201002271200 METAR LPPR 271200Z 16027G41KT 7000 -RA FEW009 BKN025 BKN060
                        17/15 Q0982 WS ALL RWY=
201002271130 METAR LPPR 271130Z 16027G38KT 2000 RA BR FEW009 SCT030 BKN060
                        17/15 Q0983 WS ALL RWY=
201002271100 METAR LPPR 271100Z 17031G45KT 8000 -RA FEW009 SCT030 BKN060
                        17/15 Q0984 WS ALL RWY=
201002271030 METAR LPPR 271030Z 17029G41KT 8000 -RA FEW009 SCT030 BKN060
                        17/14 Q0985 WS ALL RWY=
201002271000 METAR LPPR 271000Z 17029G42KT 8000 -RA FEW008 SCT020 BKN060
                        17/15 Q0985 WS ALL RWY=
201002270930 METAR LPPR 270930Z 17032G43KT 8000 -RA FEW008 SCT015 BKN030
                        16/14 Q0986 WS ALL RWY=
201002270900 METAR LPPR 270900Z 17031G45KT 9999 -RA FEW008 SCT016 BKN030
                        16/14 Q0987 WS ALL RWY=
201002270830 METAR LPPR 270830Z 17027G38KT 9000 -RA FEW008 SCT014 BKN025
                        16/15 Q0987 RERA WS ALL RWY=
201002270800 METAR LPPR 270800Z 17025G35KT 5000 RA BR SCT008 SCT013 BKN020
                        15/14 Q0988 WS ALL RWY=
201002270730 METAR LPPR 270730Z 17023G33KT 6000 -RA SCT007 SCT013 BKN020
                        15/14 Q0988 RERA WS ALL RWY=
201002270700 METAR LPPR 270700Z 13009KT 100V160 5000 RA BR SCT007 BKN014
                        13/13 Q0990=
201002270630 METAR LPPR 270630Z 12008KT 7000 RA SCT014 BKN020 13/12 Q0991=
201002270600 METAR LPPR 270600Z 12010KT 100V160 8000 RA SCT016 BKN025
                        13/12 Q0992=
201002270530 METAR LPPR 270530Z 12009KT 9000 -RA SCT020 BKN060 13/12 Q0993=
201002270500 METAR LPPR 270500Z 12011KT 9000 -RA SCT020 BKN060 12/11 Q0993=
201002270430 METAR LPPR 270430Z 11009KT 080V140 8000 RA SCT020 BKN060
                        11/11 Q0995=
201002270400 METAR LPPR 270400Z 10006KT 070V140 8000 -RA SCT020 BKN060
                        11/10 Q0996 RERA=
201002270330 METAR LPPR 270330Z 09004KT 040V120 7000 RA BR SCT020 BKN060
                        11/10 Q0997=
201002270300 METAR LPPR 270300Z 08005KT 040V140 7000 -RA BR SCT025 BKN060
                        11/10 Q0998=
201002270230 METAR LPPR 270230Z 10006KT 060V130 7000 -RA BR SCT025 BKN060
                        11/10 Q0999=
201002270200 METAR LPPR 270200Z 10006KT 8000 -RA SCT035 BKN060 11/10 Q1000=
201002270130 METAR LPPR 270130Z 00000KT 8000 SCT035 BKN060 11/10 Q1002=
201002270100 METAR LPPR 270100Z 00000KT 8000 -RA SCT035 BKN060 11/10 Q1003=
201002270030 METAR LPPR 270030Z 00000KT 8000 -RA SCT030 BKN060 12/10 Q1004=
201002270000 METAR LPPR 270000Z 13004KT 8000 -RA SCT030 BKN060 12/10 Q1004=
201002262330 METAR LPPR 262330Z 13006KT 8000 -RA SCT035 BKN060 12/09 Q1005=
201002262300 METAR LPPR 262300Z 00000KT 9999 SCT035 BKN060 12/09 Q1005=
201002262230 METAR LPPR 262230Z 00000KT 9999 SCT035 BKN070 12/09 Q1006=
201002262200 METAR LPPR 262200Z 00000KT 9999 SCT035 BKN070 12/09 Q1006=
201002262130 METAR LPPR 262130Z 00000KT 9999 FEW015 SCT050 BKN070 13/09
                        Q1006=
201002262100 METAR LPPR 262100Z 00000KT 9999 FEW015 SCT050 BKN070 13/09
                        Q1007=
201002262030 METAR LPPR 262030Z 00000KT 9999 FEW015 SCT050 BKN070 13/09
                        Q1007=
201002262000 METAR LPPR 262000Z 00000KT 9999 SCT015 BKN070 12/09 Q1007=
201002261930 METAR LPPR 261930Z 16006KT 9999 FEW017 BKN100 13/09 Q1008=
201002261900 METAR LPPR 261900Z 16006KT 9999 FEW015 BKN100 13/10 Q1008=
201002261830 METAR LPPR 261830Z 19005KT 9999 FEW015 BKN100 13/09 Q1008=
201002261800 METAR LPPR 261800Z 19009KT 9999 FEW015 BKN100 BKN200 14/09
                        Q1008=
201002261730 METAR LPPR 261730Z 19010KT 9999 FEW015 FEW020TCU BKN100 BKN200
                        14/09 Q1009=
201002261700 METAR LPPR 261700Z 20012G22KT 9999 FEW015 FEW020TCU SCT080
                        BKN120 14/08 Q1009=
201002261630 METAR LPPR 261630Z 19010KT 9999 FEW015 SCT080 BKN120 15/08
                        Q1009=
201002261600 METAR LPPR 261600Z 19011KT 9999 FEW015 SCT080 BKN120 15/08
                        Q1009=
201002261530 METAR LPPR 261530Z 20009KT 170V230 9999 FEW015 SCT080 BKN200
                        15/07 Q1010=
201002261500 METAR LPPR 261500Z 18012KT 9999 FEW015 SCT080 BKN200 15/08
                        Q1010=
201002261430 METAR LPPR 261430Z 18013KT 9999 FEW015 SCT080 BKN200 15/08
                        Q1010=
201002261400 METAR LPPR 261400Z 18015KT 9999 FEW015 SCT080 BKN200 15/09
                        Q1011=
201002261330 METAR LPPR 261330Z 18014KT 9999 FEW015 SCT080 BKN200 15/09
                        Q1011=
201002261300 METAR LPPR 261300Z 19013KT 9999 SCT017 BKN250 15/08 Q1011=
201002261230 METAR LPPR 261230Z 19013KT 160V230 9999 SCT017 BKN250 15/08
                        Q1011=
201002261200 METAR LPPR 261200Z 19013KT 9999 SCT015 BKN250 15/09 Q1012=
201002261130 METAR LPPR 261130Z 19011KT 9999 FEW015 FEW020TCU BKN250 15/09
                        Q1012=
201002261100 METAR LPPR 261100Z 18012KT 9999 FEW015 FEW025TCU BKN250 14/10
                        Q1012=
201002261030 METAR LPPR 261030Z 16004KT 9999 FEW015 FEW020TCU BKN250 12/10
                        Q1012=
201002261000 METAR LPPR 261000Z 12002KT 9999 FEW015 FEW020TCU BKN030 12/09
                        Q1012=
201002260930 METAR LPPR 260930Z 12006KT 9999 FEW015 FEW020TCU BKN030 10/08
                        Q1012=
201002260900 METAR LPPR 260900Z 12005KT 9999 FEW015 SCT030 10/08 Q1012=
201002260830 METAR LPPR 260830Z 12007KT 9999 FEW015 BKN250 10/08 Q1012=
201002260800 METAR LPPR 260800Z 12006KT 9999 FEW015 09/08 Q1011=
201002260730 METAR LPPR 260730Z 12005KT 9999 FEW015 SCT025 09/07 Q1011=
201002260700 METAR LPPR 260700Z 00000KT 9999 FEW015 SCT035 08/07 Q1010=
201002260630 METAR LPPR 260630Z 11005KT 9999 FEW015 SCT035 09/07 Q1011=
201002260600 METAR LPPR 260600Z 11006KT 9999 FEW015 SCT035 09/07 Q1011=
201002260530 METAR LPPR 260530Z 00000KT 9999 FEW015 SCT030 09/07 Q1011=
201002260500 METAR LPPR 260500Z 00000KT 9999 FEW015 SCT030 09/07 Q1011=
201002260430 METAR LPPR 260430Z 00000KT 9999 FEW015 08/06 Q1011=
201002260400 METAR LPPR 260400Z 00000KT 9999 FEW015 10/07 Q1010=
201002260330 METAR LPPR 260330Z 00000KT 9999 SCT015 10/07 Q1010=
201002260300 METAR LPPR 260300Z 00000KT 9999 SCT015 SCT030 10/07 Q1011=
201002260230 METAR LPPR 260230Z 00000KT 9999 FEW015 SCT030 11/07 Q1011=
201002260200 METAR LPPR 260200Z 00000KT 9999 FEW015 SCT030 11/07 Q1010=
201002260130 METAR LPPR 260130Z 00000KT 9999 FEW015 SCT030 11/08 Q1010=
201002260100 METAR LPPR 260100Z VRB02KT 9999 SCT015 SCT030 BKN070 11/08
                        Q1010=
201002260030 METAR LPPR 260030Z 28006KT 250V330 9999 FEW015 SCT030 BKN070
                        12/08 Q1010=
201002260000 METAR LPPR 260000Z VRB03KT 9999 SCT015 SCT030 BKN070 12/08
                        Q1009=
201002252330 METAR LPPR 252330Z 25005KT 190V290 9999 SCT015 12/08 Q1009
                        WS ALL RWY=
201002252300 METAR LPPR 252300Z 26006KT 220V290 9999 SCT015 SCT025 BKN070
                        12/08 Q1009 WS ALL RWY=
201002252230 METAR LPPR 252230Z 25006KT 180V300 9999 SCT015 SCT025 BKN070
                        12/09 Q1009 WS ALL RWY=
201002252200 METAR LPPR 252200Z 24008KT 9999 SCT015 SCT025 BKN070 12/09
                        Q1008 WS ALL RWY=
201002252130 METAR LPPR 252130Z 26004KT 210V330 9999 FEW015 SCT020 BKN070
                        12/09 Q1008 WS ALL RWY=
201002252100 METAR LPPR 252100Z 23008KT 190V270 9999 FEW015 BKN070 11/08
                        Q1007 WS ALL RWY=
201002252030 METAR LPPR 252030Z 24011G21KT 200V280 9999 FEW015 BKN060
                        13/09 Q1007=
201002252000 METAR LPPR 252000Z 26007KT 220V280 9999 SCT015 SCT060 13/09
                        Q1007=
201002251930 METAR LPPR 251930Z 24007KT 210V270 9999 SCT015 SCT060 13/10
                        Q1006=
201002251900 METAR LPPR 251900Z 25007KT 210V310 9999 SCT015 FEW020CB SCT060
                        13/09 Q1006=
201002251830 METAR LPPR 251830Z 25008KT 220V310 9999 SCT015 FEW020TCU
                        13/10 Q1005=
201002251800 METAR LPPR 251800Z 25010KT 200V280 9999 SCT015 FEW020TCU
                        14/09 Q1005 WS ALL RWY=
201002251730 METAR LPPR 251730Z 25010KT 220V280 9999 SCT015 FEW020TCU
                        14/10 Q1005 WS ALL RWY=
201002251700 METAR LPPR 251700Z 25012G22KT 200V280 9999 SCT015 FEW020TCU
                        15/10 Q1004 WS ALL RWY=
201002251630 METAR LPPR 251630Z 24015G25KT 9999 SCT015 FEW020TCU 15/10
                        Q1004 WS ALL RWY=
201002251600 METAR LPPR 251600Z 24016KT 200V260 9999 SCT015 FEW020TCU
                        15/10 Q1003 WS ALL RWY=
201002251530 METAR LPPR 251530Z 24015G25KT 210V290 9999 SCT015 FEW020TCU
                        16/10 Q1003 WS ALL RWY=
201002251500 METAR LPPR 251500Z 24017KT 210V270 9999 SCT015 FEW020 16/10
                        Q1003=
201002251430 METAR COR LPPR 251430Z 24016G26KT 200V270 9999 SCT015 FEW020TCU
                        16/10 Q1003 WS ALL RWY=
201002251400 METAR LPPR 251400Z 23015G28KT 8000 SCT015 FEW020TCU 16/10
                        Q1002 WS ALL RWY=
201002251330 METAR LPPR 251330Z 22020G32KT 200V260 8000 SCT015 SCT020TCU
                        16/11 Q1002 WS ALL RWY=
201002251300 METAR LPPR 251300Z 22017G27KT 8000 SCT013 SCT017TCU 16/11
                        Q1002 WS ALL RWY=
201002251230 METAR LPPR 251230Z 21021KT 7000 SCT013 FEW017TCU 16/12 Q1002
                        WS ALL RWY=
201002251200 METAR LPPR 251200Z 21016KT 8000 SCT013 FEW017TCU 16/13 Q1002=
201002251130 METAR LPPR 251130Z 22016G26KT 200V260 8000 FEW013 FEW017TCU
                        BKN080 16/12 Q1001=
201002251100 METAR LPPR 251100Z 22014KT 190V250 8000 SCT013 FEW017TCU
                        BKN200 15/13 Q1001=
201002251030 METAR LPPR 251030Z 22015KT 190V250 8000 SCT013 FEW017TCU
                        SCT022 BKN200 14/13 Q1001=
201002251000 METAR LPPR 251000Z 21017KT 7000 -SHRA BR FEW008 SCT013 FEW017TCU
                        BKN020 15/13 Q1001=
201002250930 METAR LPPR 250930Z 21017KT 7000 SCT008 SCT013 FEW015TCU BKN020
                        15/13 Q1001=
201002250900 METAR LPPR 250900Z 21017KT 7000 SCT008 SCT013 BKN020 15/13
                        Q1001=
201002250830 METAR LPPR 250830Z 21015KT 8000 SCT008 SCT015 BKN025 15/13
                        Q1000 WS ALL RWY=
201002250800 METAR LPPR 250800Z 22013KT 190V260 8000 SCT007 SCT013 BKN025
                        15/13 Q1000 WS ALL RWY=
201002250730 METAR LPPR 250730Z 22014KT 8000 SCT007 SCT013 BKN020 15/14
                        Q0999 WS ALL RWY=
201002250700 METAR LPPR 250700Z 22017G27KT 8000 SCT007 SCT013 BKN020 15/14
                        Q0999 WS ALL RWY=
201002250630 METAR LPPR 250630Z 21020G30KT 7000 SCT006 BKN013 15/13 Q0999
                        WS ALL RWY=
201002250600 METAR LPPR 250600Z 20022G32KT 5000 BR BKN005 BKN013 15/14
                        Q0999 WS ALL RWY=
201002250530 METAR LPPR 250530Z 21018G30KT 3000 RA BR BKN003 BKN006 15/15
                        Q0999 WS ALL RWY=
201002250500 METAR LPPR 250500Z 20023G33KT 4000 RA BR BKN004 BKN008 15/14
                        Q1000 WS ALL RWY=
201002250430 METAR LPPR 250430Z 19020G30KT 7000 -RA SCT005 BKN012 15/14
                        Q1000 WS ALL RWY=
201002250400 METAR LPPR 250400Z 19020KT 6000 -RA BKN007 BKN015 15/14 Q1000
                        WS ALL RWY=
201002250330 METAR LPPR 250330Z 19026G36KT 8000 SCT007 BKN015 15/14 Q1001
                        WS ALL RWY=
201002250300 METAR LPPR 250300Z 19027KT 8000 SCT008 BKN020 15/14 Q1001
                        WS ALL RWY=
201002250230 METAR LPPR 250230Z 18029G41KT 7000 -RA BKN007 BKN013 14/14
                        Q1001 WS ALL RWY=
201002250200 METAR LPPR 250200Z 18030G40KT 6000 -RA BKN007 BKN012 14/14
                        Q1002 WS ALL RWY=
201002250130 METAR LPPR 250130Z 20023G33KT 5000 RA BR BKN006 BKN012 15/14
                        Q1004 WS ALL RWY=
201002250100 METAR LPPR 250100Z 18031G42KT 5000 -RA BR SCT006 BKN012 15/14
                        Q1004 WS ALL RWY=
201002250030 METAR LPPR 250030Z 18030G45KT 8000 SCT006 BKN012 15/14 Q1004
                        WS ALL RWY=
201002250000 METAR LPPR 250000Z 18028G39KT 8000 SCT006 BKN012 15/14 Q1004
                        WS ALL RWY=
201002242330 METAR LPPR 242330Z 18027G37KT 7000 SCT005 BKN010 15/14 Q1005
                        WS ALL RWY=
201002242300 METAR LPPR 242300Z 18026G36KT 7000 -RA SCT004 BKN007 15/14
                        Q1006 WS ALL RWY=
201002242230 METAR LPPR 242230Z 19025KT 5000 -RA BR BKN004 BKN007 15/14
                        Q1006 WS ALL RWY=
201002242200 METAR LPPR 242200Z 19024KT 5000 -RA BR SCT004 BKN007 15/14
                        Q1007 WS ALL RWY=
201002242130 METAR LPPR 242130Z 19024G35KT 5000 -RA BR BKN004 BKN008 15/14
                        Q1007 WS ALL RWY=
201002242100 METAR LPPR 242100Z 20021KT 4000 RA BR BKN004 BKN007 15/14
                        Q1007 WS ALL RWY=
201002242030 METAR LPPR 242030Z 19025G35KT 4000 -RA BR BKN003 BKN006 15/14
                        Q1007 WS ALL RWY=
201002242000 METAR LPPR 242000Z 20021G32KT 170V230 3000 RA BR BKN003 BKN006
                        15/14 Q1008=
201002241930 METAR LPPR 241930Z 19023KT 3000 -RA BR BKN004 BKN007 14/14
                        Q1008 WS ALL RWY=
201002241900 METAR LPPR 241900Z 19020KT 3000 -RA BR BKN003 BKN006 15/14
                        Q1008 WS ALL RWY=
201002241830 METAR LPPR 241830Z 19022KT 4000 BR BKN004 BKN007 15/14 Q1008
                        WS ALL RWY=
201002241800 METAR LPPR 241800Z 20017KT 3000 -RA BR SCT004 BKN007 15/14
                        Q1008 RERA WS ALL RWY=
201002241730 METAR LPPR 241730Z 20022G32KT 4000 BR BKN005 BKN011 15/14
                        Q1009 WS ALL RWY=
201002241700 METAR LPPR 241700Z 20022KT 4000 -RA BR SCT005 SCT008 BKN013
                        15/14 Q1009 WS ALL RWY=
201002241630 METAR LPPR 241630Z 20023KT 4000 BR SCT005 SCT008 BKN013 15/14
                        Q1009 WS ALL RWY=
201002241600 METAR LPPR 241600Z 20023KT 4000 -RA BR SCT004 BKN007 15/14
                        Q1009 WS ALL RWY=
201002241530 METAR LPPR 241530Z 19022G32KT 4000 BR SCT004 BKN008 15/14
                        Q1009 WS ALL RWY=
201002241500 METAR LPPR 241500Z 19023G34KT 4000 -RADZ BR SCT004 BKN008
                        15/14 Q1009 WS ALL RWY=
201002241430 METAR LPPR 241430Z 20023G34KT 4000 BR SCT004 BKN006 15/14
                        Q1009 WS ALL RWY=
201002241400 METAR LPPR 241400Z 20026G37KT 4000 BR SCT005 FEW025CB BKN030
                        14/14 Q1009 WS ALL RWY=
201002241330 METAR LPPR 241330Z 19026G38KT 4000 BR SCT004 BKN006 14/14
                        Q1009 WS ALL RWY=
201002241300 METAR LPPR 241300Z 19024G35KT 4000 -RADZ BR SCT004 BKN006
                        14/13 Q1009 WS ALL RWY=
201002241230 METAR LPPR 241230Z 19025G37KT 5000 BR SCT004 BKN007 14/14
                        Q1010 WS ALL RWY=
201002241200 METAR LPPR 241200Z 19022G32KT 4000 BR SCT004 BKN007 14/13
                        Q1010 WS ALL RWY=
201002241130 METAR LPPR 241130Z 18021KT 3000 -RADZ BR SCT003 BKN006 13/12
                        Q1010 WS ALL RWY=
201002241100 METAR LPPR 241100Z 19018G28KT 3000 -RADZ BR SCT003 BKN008
                        13/12 Q1010 WS ALL RWY=
201002241030 METAR LPPR 241030Z 18018KT 5000 -RADZ BR SCT007 SCT015 BKN030
                        13/12 Q1010=
201002241000 METAR LPPR 241000Z 18013KT 4000 -RADZ BR FEW007 SCT015 BKN030
                        13/12 Q1010=
201002240930 METAR LPPR 240930Z 19015KT 6000 FEW007 SCT015 BKN030 13/11
                        Q1011=
201002240900 METAR LPPR 240900Z 20010KT 170V240 6000 FEW007 SCT015 BKN025
                        13/11 Q1011=
201002240830 METAR LPPR 240830Z 20015KT 170V230 6000 -SHRA FEW007 SCT012
                        BKN020 12/10 Q1010 WS ALL RWY=
201002240800 METAR LPPR 240800Z 21007KT 170V240 8000 SCT017 BKN030 13/09
                        Q1010=
201002240730 METAR LPPR 240730Z 22010KT 9999 FEW017 SCT030 BKN090 13/09
                        Q1010=
201002240700 METAR LPPR 240700Z 22010KT 8000 BKN017 FEW020CB SCT030 13/10
                        Q1010=
201002240630 METAR LPPR 240630Z 22012KT 190V260 6000 SHRA FEW008 BKN017
                        FEW020CB 12/10 Q1010 WS ALL RWY=
201002240600 METAR LPPR 240600Z 22010KT 9999 SCT020 SCT030 BKN070 13/08
                        Q1010=
201002240530 METAR LPPR 240530Z 23009KT 200V260 9999 SCT020 SCT030 13/08
                        Q1010=
201002240500 METAR LPPR 240500Z 23010KT 200V260 9999 SCT020 SCT030 13/08
                        Q1009=
201002240430 METAR LPPR 240430Z 23009KT 190V270 9999 BKN020 SCT030 13/09
                        Q1009=
201002240400 METAR LPPR 240400Z 24011KT 200V260 9999 BKN020 FEW025CB 13/08
                        Q1008 WS ALL RWY=
201002240330 METAR LPPR 240330Z 23011KT 9999 BKN020 FEW025CB 13/07 Q1009
                        WS ALL RWY=
201002240300 METAR LPPR 240300Z 23014KT 9999 BKN020 FEW025CB 13/07 Q1008
                        WS ALL RWY=
201002240230 METAR LPPR 240230Z 24010KT 210V270 9999 SCT015 SCT020 FEW025CB
                        13/08 Q1008 WS ALL RWY=
201002240200 METAR LPPR 240200Z 24009KT 200V290 9999 BKN020 FEW025CB 13/08
                        Q1008 WS ALL RWY=
201002240130 METAR LPPR 240130Z 25009KT 210V280 9999 SCT015 SCT020 FEW025CB
                        13/07 Q1008 WS ALL RWY=
201002240100 METAR LPPR 240100Z 25007G18KT 210V290 8000 SCT015 SCT020
                        FEW025CB 12/09 Q1008 WS ALL RWY=
201002240030 METAR LPPR 240030Z 26008KT 210V300 3000 -SHRA SCT015 SCT020
                        FEW025CB 13/08 Q1008 WS ALL RWY=
201002240000 METAR LPPR 240000Z 27013KT 230V300 9999 BKN015 FEW020CB 13/08
                        Q1007 WS ALL RWY=
201002232330 METAR LPPR 232330Z 25008KT 210V320 8000 BKN015 FEW020CB 13/10
                        Q1006 WS ALL RWY=
201002232300 METAR LPPR 232300Z 27010KT 230V300 8000 SCT015 FEW020CB SCT030
                        13/09 Q1006 WS ALL RWY=
201002232230 METAR LPPR 232230Z 26012KT 220V300 9999 FEW015 FEW020CB SCT030
                        13/09 Q1005 WS ALL RWY=
201002232200 METAR LPPR 232200Z 26012G24KT 220V300 8000 SCT013 SCT020CB
                        BKN030 13/10 Q1004 WS ALL RWY=
201002232130 METAR LPPR 232130Z 23011KT 190V280 8000 TS SCT013 SCT020CB
                        BKN030 14/12 Q1003 WS ALL RWY=
201002232100 METAR LPPR 232100Z 23014KT 200V260 8000 SCT013 SCT020CB BKN040
                        14/11 Q1003 WS ALL RWY=
201002232030 METAR LPPR 232030Z 23018G30KT 200V260 8000 TS SCT013 BKN017CB
                        BKN030 14/12 Q1002 WS ALL RWY=
201002232000 METAR LPPR 232000Z 22013G23KT 180V260 8000 TS SCT013 BKN017CB
                        BKN030 12/11 Q1002 RERA WS ALL RWY=
201002231930 METAR LPPR 231930Z 20018KT 2500 TSRA FEW009 SCT015 BKN017CB
                        BKN030 14/12 Q1002 WS ALL RWY=
201002231900 METAR LPPR 231900Z 19021G31KT 9999 -SHRA FEW015 BKN035 14/11
                        Q1001 WS ALL RWY=
201002231830 METAR LPPR 231830Z 19019KT 8000 FEW015 FEW020CB BKN035 14/12
                        Q1001 WS ALL RWY=
201002231800 METAR LPPR 231800Z 20019KT 8000 SCT015 FEW020CB SCT035 14/12
                        Q1001=
201002231730 METAR COR LPPR 231730Z 20018KT 160V220 7000 -SHRA FEW009
                        SCT015 SCT017CB BKN030 14/12 Q1001
                        WS ALL RWY=
201002231700 METAR LPPR 231700Z 20014KT 7000 VCSH SCT015 FEW020CB BKN030
                        14/12 Q1001=
201002231630 METAR LPPR 231630Z 19015KT 8000 SCT015 FEW020CB BKN035 14/12
                        Q1002=
201002231600 METAR LPPR 231600Z 19018KT 9999 SCT015 FEW020CB SCT030 14/12
                        Q1002=
201002231530 METAR LPPR 231530Z 19018KT 9999 SCT015 FEW020CB BKN250 14/11
                        Q1002=
201002231500 METAR LPPR 231500Z 19017KT 9999 FEW015 SCT020CB BKN040 15/11
                        Q1002=
201002231430 METAR LPPR 231430Z 21015G25KT 9999 FEW015 FEW020CB SCT040
                        BKN250 15/11 Q1002 WS ALL RWY=
201002231400 METAR LPPR 231400Z 21013KT 9999 FEW015 FEW020TCU BKN060 15/11
                        Q1002=
201002231330 METAR LPPR 231330Z 20012KT 9999 FEW015 FEW020TCU BKN060 15/12
                        Q1002=
201002231300 METAR LPPR 231300Z 21012KT 180V240 9999 FEW015 SCT030 BKN055
                        14/12 Q1002=
201002231230 METAR LPPR 231230Z 20009KT 140V240 9999 SCT013 FEW020CB BKN040
                        14/12 Q1002=
201002231200 METAR LPPR 231200Z 22009KT 190V250 9999 SCT015 FEW020CB BKN030
                        13/11 Q1002=
201002231130 METAR LPPR 231130Z 22008KT 190V260 9999 SCT015 FEW020CB BKN040
                        11/10 Q1002=
201002231100 METAR LPPR 231100Z 23007KT 190V280 5000 TSRA FEW005 SCT013
                        SCT017CB BKN025 12/10 Q1002=
201002231030 METAR LPPR 231030Z 22009KT 200V260 5000 -SHRA FEW009 SCT013
                        SCT017CB BKN025 12/10 Q1002 WS ALL
                        RWY=
201002231000 METAR LPPR 231000Z 23010KT 190V260 7000 -SHRA FEW009 SCT013
                        SCT017CB BKN025 11/09 Q1001 WS ALL
                        RWY=
201002230930 METAR LPPR 230930Z 21014G26KT 6000 -TSRA SCT015 SCT020CB
                        BKN030 14/10 Q1001 WS ALL RWY=
201002230900 METAR LPPR 230900Z 21015KT 180V240 7000 VCSH SCT015 SCT020CB
                        BKN025 14/13 Q1000=
201002230830 METAR LPPR 230830Z 21014KT 8000 SCT015 FEW020CB SCT025 14/12
                        Q1000=
201002230800 METAR LPPR 230800Z 21010KT 180V240 8000 SCT013 FEW020CB BKN025
                        13/12 Q1000=
201002230730 METAR LPPR 230730Z VRB03KT 6000 -SHRA SCT015 SCT020CB BKN025
                        11/10 Q1000=
201002230700 METAR LPPR 230700Z 22008G18KT 170V280 8000 -TSRA SCT015 SCT020CB
                        BKN025 11/08 Q1000=
201002230630 METAR LPPR 230630Z 22010G22KT 150V270 5000 TSGS SCT015 SCT020CB
                        BKN025 14/12 Q0999 WS ALL RWY=
201002230600 METAR LPPR 230600Z 22013KT 9999 SCT015 FEW020CB BKN025 14/12
                        Q0999=
201002230530 METAR LPPR 230530Z 22012KT 9999 SCT015 FEW020CB BKN025 14/11
                        Q0999=
201002230500 METAR LPPR 230500Z 22014KT 190V260 9999 SCT015 BKN025 14/11
                        Q0999=
201002230430 METAR LPPR 230430Z 22015KT 190V250 9999 SCT015 BKN025 14/12
                        Q0999=
201002230400 METAR LPPR 230400Z 21015KT 9999 SCT015 SCT025 14/12 Q0998=
201002230330 METAR LPPR 230330Z 22013KT 190V250 9999 SCT015 BKN025 14/12
                        Q0999=
201002230300 METAR LPPR 230300Z 21014G26KT 180V240 9999 SCT013 BKN023
                        14/12 Q0998=
201002230230 METAR LPPR 230230Z 21016KT 7000 SCT013 BKN023 14/12 Q0999=
201002230200 METAR LPPR 230200Z 20016KT 7000 SCT013 BKN020 14/13 Q0999=
201002230130 METAR LPPR 230130Z 20016KT 8000 SCT015 BKN023 14/12 Q0999=
201002230100 METAR LPPR 230100Z 19014KT 9999 SCT015 BKN025 14/12 Q0999=
201002230030 METAR LPPR 230030Z 20014KT 9999 SCT015 BKN025 14/12 Q0999=
201002230000 METAR LPPR 230000Z 21013G24KT 9999 SCT015 BKN027 14/12 Q0999=
201002222330 METAR LPPR 222330Z 20010KT 8000 SCT015 SCT025 14/12 Q0999=
201002222300 METAR LPPR 222300Z 21012KT 180V240 9999 SCT015 SCT025 14/12
                        Q0999=
201002222230 METAR LPPR 222230Z 21014KT 9999 SCT015 SCT020 14/12 Q0999=
201002222200 METAR LPPR 222200Z 21012KT 9999 SCT012 SCT025 14/12 Q0999=
201002222130 METAR LPPR 222130Z 21013KT 160V230 9999 SCT015 BKN025 15/12
                        Q0999=
201002222100 METAR LPPR 222100Z 20011KT 9999 SCT015 BKN025 15/13 Q0998=
201002222030 METAR LPPR 222030Z 21014KT 180V250 9999 SCT015 FEW020CB BKN025
                        15/12 Q0998=
201002222000 METAR LPPR 222000Z 21011KT 8000 SCT015 FEW020CB BKN025 14/12
                        Q0998=
201002221930 METAR LPPR 221930Z 22011KT 150V250 7000 SCT015 FEW020CB BKN025
                        14/12 Q0998 WS ALL RWY=
201002221900 METAR LPPR 221900Z 21012KT 6000 SCT015 FEW020CB BKN025 15/12
                        Q0997 WS ALL RWY=
201002221830 METAR LPPR 221830Z 20013KT 6000 SCT015 FEW020CB BKN025 14/12
                        Q0997 WS ALL RWY=
201002221800 METAR LPPR 221800Z 20016KT 6000 SCT015 FEW020CB BKN025 15/13
                        Q0997 WS ALL RWY=
201002221730 METAR LPPR 221730Z 20014KT 8000 FEW015 FEW020CB BKN025 15/11
                        Q0997 WS ALL RWY=
201002221700 METAR LPPR 221700Z 19015KT 8000 FEW017 FEW020CB BKN250 15/12
                        Q0997 WS ALL RWY=
201002221630 METAR LPPR 221630Z 20016KT 170V230 8000 FEW017 FEW020CB BKN250
                        15/12 Q0996 WS ALL RWY=
201002221600 METAR LPPR 221600Z 19015KT 8000 FEW015 FEW020CB BKN070 14/10
                        Q0996 WS ALL RWY=
201002221530 METAR LPPR 221530Z 19018KT 8000 SCT015 SCT020CB BKN200 12/10
                        Q0996 RESHRA WS ALL RWY=
201002221500 METAR LPPR 221500Z 20019KT 2000 SHRA BR SCT008 BKN015 FEW020CB
                        15/13 Q0996 WS ALL RWY=
201002221430 METAR LPPR 221430Z 19020KT 6000 BKN015 BKN025 15/13 Q0996
                        WS ALL RWY=
201002221400 METAR LPPR 221400Z 19022KT 6000 BKN015 BKN025 16/13 Q0996
                        WS ALL RWY=
201002221330 METAR LPPR 221330Z 20018KT 7000 -SHRA BKN015 FEW017TCU 15/13
                        Q0996=
201002221300 METAR LPPR 221300Z 20018KT 8000 FEW017 SCT025 BKN080 15/13
                        Q0996 WS ALL RWY=
201002221230 METAR LPPR 221230Z 19020KT 8000 FEW017 SCT025 BKN080 15/13
                        Q0996 WS ALL RWY=
201002221200 METAR LPPR 221200Z 19018KT 8000 BKN025 BKN080 15/12 Q0996
                        WS ALL RWY=
201002221130 METAR LPPR 221130Z 19018KT 7000 BKN025 BKN080 14/11 Q0995
                        WS ALL RWY=
201002221100 METAR LPPR 221100Z 19018KT 6000 BKN025 BKN080 13/11 Q0995
                        WS ALL RWY=
201002221030 METAR LPPR 221030Z 19016KT 6000 FEW008 SCT015 BKN030 13/11
                        Q0995 WS ALL RWY=
201002221000 METAR LPPR 221000Z 20014KT 6000 SCT008 BKN015 FEW020CB 12/11
                        Q0995 WS ALL RWY=
201002220930 METAR LPPR 220930Z 21018KT 4000 -SHRA BR SCT008 BKN015 FEW020CB
                        11/10 Q0994 WS ALL RWY=
201002220900 METAR LPPR 220900Z 19019KT 8000 TS SCT008 BKN015 FEW020CB
                        14/12 Q0993 WS ALL RWY=
201002220830 METAR LPPR 220830Z 20014KT 8000 SCT008 BKN017 14/12 Q0993
                        WS ALL RWY=
201002220800 METAR LPPR 220800Z 20016KT 9999 SCT008 BKN017 14/12 Q0993=
201002220730 METAR LPPR 220730Z 20016KT 9999 BKN017 14/12 Q0993=
201002220700 METAR LPPR 220700Z 20013KT 9999 BKN017 BKN040 14/12 Q0993=
201002220630 METAR LPPR 220630Z 21015KT 9999 SCT015 SCT040 14/12 Q0993=
201002220600 METAR LPPR 220600Z 22016KT 9999 BKN015 14/12 Q0992=
201002220530 METAR LPPR 220530Z 21015KT 9999 BKN015 14/12 Q0992 WS ALL
                        RWY=
201002220500 METAR LPPR 220500Z 21018G28KT 9999 -SHRA BKN015 BKN020 14/12
                        Q0992 WS ALL RWY=
201002220430 METAR LPPR 220430Z 22017G28KT 190V250 8000 RA BR FEW009 SCT030
                        BKN070 14/12 Q0992 WS ALL RWY=
201002220400 METAR LPPR 220400Z 20019KT 7000 RA BR FEW009 SCT030 BKN070
                        13/12 Q0991 WS ALL RWY=
201002220330 METAR LPPR 220330Z 17022G35KT 140V210 8000 RA FEW009 SCT030
                        BKN070 12/12 Q0991 WS ALL RWY=
201002220300 METAR LPPR 220300Z 16018KT 8000 RA FEW009 SCT015 BKN070 12/11
                        Q0992=
201002220230 METAR LPPR 220230Z 16018KT 8000 RA SCT009 SCT030 BKN070 13/12
                        Q0993=
201002220200 METAR LPPR 220200Z 17021KT 7000 -RADZ BR SCT008 SCT015 BKN030
                        14/12 Q0993=
201002220130 METAR LPPR 220130Z 17016KT 9000 SCT007 SCT012 BKN040 14/13
                        Q0994=
201002220100 METAR LPPR 220100Z 18015KT 8000 SCT004 SCT012 BKN035 14/13
                        Q0995=
201002220030 METAR LPPR 220030Z 18015KT 8000 SCT004 SCT012 BKN030 14/13
                        Q0995=
201002220000 METAR LPPR 220000Z 18017KT 8000 SCT006 SCT012 BKN030 13/13
                        Q0995=
201002212330 METAR LPPR 212330Z 18017KT 7000 SCT004 SCT008 BKN020 13/13
                        Q0995=
201002212300 METAR LPPR 212300Z 18018KT 7000 -RADZ BR SCT003 SCT006 BKN020
                        13/13 Q0996=
201002212230 METAR LPPR 212230Z 19016KT 7000 -RADZ BR SCT003 SCT005 BKN020
                        13/13 Q0996=
201002212200 METAR LPPR 212200Z 18015KT 8000 SCT005 SCT012 BKN020 13/12
                        Q0996=
201002212130 METAR LPPR 212130Z 18015KT 8000 SCT007 SCT012 BKN030 13/12
                        Q0996=
201002212100 METAR LPPR 212100Z 18017KT 8000 SCT008 SCT012 BKN030 13/12
                        Q0996=
201002212030 METAR LPPR 212030Z 17016KT 9999 FEW010 SCT020 BKN035 13/11
                        Q0996=
201002212000 METAR LPPR 212000Z 18017KT 8000 FEW012 BKN015 14/12 Q0996=
201002211930 METAR LPPR 211930Z 18015KT 8000 FEW013 BKN017 13/11 Q0996=
201002211900 METAR LPPR 211900Z 18016KT 8000 FEW013 SCT020 BKN250 14/11
                        Q0995 WS ALL RWY=
201002211830 METAR LPPR 211830Z 19014KT 6000 FEW013 SCT020 BKN080 14/13
                        Q0995=
201002211800 METAR LPPR 211800Z 19015KT 6000 FEW013 SCT020 BKN080 14/13
                        Q0995=
201002211730 METAR LPPR 211730Z 19016KT 6000 FEW013 SCT020 BKN080 15/13
                        Q0995=
201002211700 METAR LPPR 211700Z 19018KT 8000 FEW013 SCT030 BKN100 15/13
                        Q0995 WS ALL RWY=
201002211630 METAR LPPR 211630Z 19017KT 8000 FEW013 BKN100 15/13 Q0995
                        WS ALL RWY=
201002211600 METAR LPPR 211600Z 19018KT 8000 FEW015 BKN250 16/13 Q0995
                        WS ALL RWY=
201002211530 METAR LPPR 211530Z 19017KT 8000 SCT015 BKN250 16/13 Q0994
                        WS ALL RWY=
201002211500 METAR LPPR 211500Z 19017KT 8000 BKN015 FEW020TCU SCT030 16/13
                        Q0994 WS ALL RWY=
201002211430 METAR LPPR 211430Z 19017KT 8000 BKN015 FEW020CB SCT030 16/13
                        Q0995 WS ALL RWY=
201002211400 METAR LPPR 211400Z 19018KT 8000 SCT015 FEW020CB SCT030 16/13
                        Q0994=
201002211330 METAR LPPR 211330Z 19017KT 8000 SCT015 FEW020CB BKN030 16/13
                        Q0994=
201002211300 METAR LPPR 211300Z 19017KT 8000 SCT015 FEW020CB BKN030 16/13
                        Q0994=
201002211230 METAR LPPR 211230Z 19017KT 8000 FEW009 SCT015 FEW020CB BKN030
                        16/13 Q0994=
201002211200 METAR LPPR 211200Z 19015KT 8000 FEW009 SCT015 FEW020CB BKN030
                        16/13 Q0995=
201002211130 METAR LPPR 211130Z 20015KT 9999 FEW008 SCT015 BKN030 15/13
                        Q0995=
201002211100 METAR LPPR 211100Z 20015KT 9999 FEW008 SCT015 15/13 Q0994=
201002211030 METAR LPPR 211030Z 20013KT 8000 FEW013 FEW020 SCT040 15/13
                        Q0994=
201002211000 METAR LPPR 211000Z 20012KT 7000 -SHRA SCT012 FEW020CB BKN040
                        14/12 Q0994=
201002210930 METAR LPPR 210930Z 20012KT 7000 FEW012 FEW025CB BKN040 14/13
                        Q0993=
201002210900 METAR LPPR 210900Z 21011KT 5000 BR FEW012 FEW025CB SCT040
                        14/13 Q0993=
201002210830 METAR LPPR 210830Z 19015KT 5000 -RA BR SCT008 FEW025CB BKN030
                        13/12 Q0993=
201002210800 METAR LPPR 210800Z 17017KT 8000 -RA SCT008 FEW025CB BKN030
                        13/11 Q0992 WS ALL RWY=
201002210730 METAR LPPR 210730Z 18019G30KT 9000 -RA SCT008 FEW025CB BKN030
                        13/11 Q0992 WS ALL RWY=
201002210700 METAR LPPR 210700Z 16016KT 8000 -TSRA FEW008 FEW025CB SCT030
                        BKN070 13/11 Q0991=
201002210630 METAR LPPR 210630Z 16017KT 8000 -RA SCT030 BKN070 12/11 Q0992=
201002210600 METAR LPPR 210600Z 16018KT 9999 SCT030 BKN070 12/10 Q0992=
201002210530 METAR LPPR 210530Z 16019KT 9999 SCT030 BKN070 12/09 Q0992=
201002210500 METAR LPPR 210500Z 16020KT 9999 FEW017 SCT030 BKN070 12/09
                        Q0992=
201002210430 METAR LPPR 210430Z 16019KT 9999 FEW017 SCT030 BKN070 12/09
                        Q0993=
201002210400 METAR LPPR 210400Z 15016G26KT 110V180 9999 SCT017 BKN030
                        12/09 Q0993 RERA=
201002210330 METAR LPPR 210330Z 14010KT 4000 RA SCT017 BKN025 10/09 Q0993=
201002210300 METAR LPPR 210300Z 15009KT 110V170 5000 RA BR SCT009 BKN020
                        10/09 Q0994=
201002210230 METAR LPPR 210230Z 14011KT 110V170 7000 -RA SCT009 BKN020
                        11/08 Q0994=
201002210200 METAR LPPR 210200Z 14013KT 9000 -RA FEW009 SCT035 BKN070
                        11/07 Q0994=
201002210130 METAR LPPR 210130Z 13013G23KT 100V160 9999 FEW009 SCT035
                        BKN070 11/06 Q0994=
201002210100 METAR LPPR 210100Z 12014KT 9999 -RA SCT035 BKN070 11/06 Q0995=
201002210030 METAR LPPR 210030Z 12014KT 9999 SCT035 BKN070 10/06 Q0997=
201002210000 METAR LPPR 210000Z 12011KT 9000 -RA BKN035 BKN070 10/06 Q0998=
201002202330 METAR LPPR 202330Z 12012KT 9000 -RA BKN030 BKN070 10/07 Q0999=
201002202300 METAR LPPR 202300Z 13013KT 8000 -RA SCT030 BKN070 10/07 Q1000=
201002202230 METAR LPPR 202230Z 14012KT 8000 -RA SCT030 BKN070 11/07 Q1001=
201002202200 METAR LPPR 202200Z 15015KT 8000 -RA SCT030 BKN070 11/06 Q1002=
201002202130 METAR LPPR 202130Z 13010KT 100V160 9999 SCT040 BKN070 12/03
                        Q1002=
201002202100 METAR LPPR 202100Z 12010KT 9999 SCT040 BKN070 12/03 Q1002=
201002202030 METAR LPPR 202030Z 12009KT 9999 SCT040 BKN070 12/03 Q1003=
201002202000 METAR LPPR 202000Z 12008KT 9999 SCT040 BKN070 BKN250 11/03
                        Q1004=
201002201930 METAR LPPR 201930Z 13008KT 9999 SCT040 BKN070 BKN250 12/04
                        Q1004=
201002201900 METAR LPPR 201900Z 14007KT 9999 SCT035 BKN070 BKN250 12/04
                        Q1005=
201002201830 METAR LPPR 201830Z 15008KT 9999 FEW017 SCT035 BKN070 12/04
                        Q1005=
201002201800 METAR LPPR 201800Z 15009KT 9999 FEW017 SCT035 BKN250 12/04
                        Q1005=
201002201730 METAR LPPR 201730Z 17009KT 9999 FEW017 SCT035 BKN250 12/06
                        Q1006=
201002201700 METAR LPPR 201700Z 19010KT 9999 SCT017 FEW020TCU BKN250 13/06
                        Q1006=
201002201630 METAR LPPR 201630Z 20010KT 9999 SCT017 FEW020TCU SCT250 13/06
                        Q1007=
201002201600 METAR LPPR 201600Z 19013KT 9999 SCT017 FEW020TCU SCT250 14/06
                        Q1007=
201002201530 METAR LPPR 201530Z 19013KT 9999 SCT017 FEW020TCU SCT250 14/06
                        Q1007=
201002201500 METAR LPPR 201500Z 18014KT 150V210 9999 SCT017 FEW020TCU
                        SCT250 14/06 Q1008=
201002201430 METAR LPPR 201430Z 18016KT 9999 SCT017 FEW020TCU 14/05 Q1009=
201002201400 METAR LPPR 201400Z 18013KT 9999 SCT017 FEW020TCU SCT250 13/06
                        Q1009=
201002201330 METAR LPPR 201330Z 19015KT 9999 SCT017 FEW020TCU 13/05 Q1010=
201002201300 METAR LPPR 201300Z 18014KT 9999 SCT017 FEW020TCU 13/06 Q1010=
201002201230 METAR LPPR 201230Z 18014KT 9999 SCT015 FEW017TCU 12/06 Q1010=
201002201200 METAR LPPR 201200Z 18013KT 9999 SCT015 FEW017TCU 12/07 Q1011=
201002201130 METAR LPPR 201130Z 17014KT 9999 SCT015 FEW017TCU 12/07 Q1011=
201002201100 METAR LPPR 201100Z 17011KT 9999 SCT015 FEW017TCU 11/07 Q1011=
201002201030 METAR LPPR 201030Z 16010KT 9999 SCT015 FEW017TCU 10/07 Q1011=
201002201000 METAR LPPR 201000Z 15009KT 9999 SCT015 FEW020TCU 09/06 Q1012=
201002200930 METAR LPPR 200930Z 13007KT 9999 SCT015 FEW020TCU 08/06 Q1012=
201002200900 METAR LPPR 200900Z 12007KT 9999 SCT015 FEW020TCU 07/05 Q1012=
201002200830 METAR LPPR 200830Z 12007KT 9999 SCT015 FEW020TCU 07/05 Q1012=
201002200800 METAR LPPR 200800Z 13007KT 9999 SCT015 FEW020TCU SCT040 06/05
                        Q1012=
201002200730 METAR LPPR 200730Z 15009KT 9999 VCSH SCT015 SCT035 06/05
                        Q1011=
201002200700 METAR LPPR 200700Z 14008KT 9999 FEW015 FEW020TCU SCT040 06/05
                        Q1011=
201002200630 METAR LPPR 200630Z 13006KT 9999 FEW015 SCT040 06/05 Q1011=
201002200600 METAR LPPR 200600Z 11005KT 9999 FEW015 SCT040 06/05 Q1011=
201002200530 METAR LPPR 200530Z 15009KT 9999 FEW015 SCT035 BKN060 06/05
                        Q1011=
201002200500 METAR LPPR 200500Z 13007KT 9999 FEW015 SCT030 BKN060 06/05
                        Q1011=
201002200430 METAR LPPR 200430Z 12008KT 9999 FEW015 SCT035 06/05 Q1011=
201002200400 METAR LPPR 200400Z VRB03KT 9999 SCT015 SCT030 BKN070 07/05
                        Q1011=
201002200330 METAR LPPR 200330Z 00000KT 9999 SCT015 SCT030 BKN070 07/05
                        Q1011=
201002200300 METAR LPPR 200300Z 16006KT 120V200 8000 -SHRA SCT015 BKN025
                        07/06 Q1012=
201002200230 METAR LPPR 200230Z 12007KT 9999 FEW017 SCT030 BKN060 07/05
                        Q1012=
201002200200 METAR LPPR 200200Z 13007KT 9999 FEW017 SCT030 07/05 Q1012=
201002200130 METAR LPPR 200130Z 04005KT 360V090 9999 FEW017 BKN030 07/05
                        Q1012=
201002200100 METAR LPPR 200100Z 12005KT 9999 SCT017 BKN030 07/06 Q1012=
201002200030 METAR LPPR 200030Z 10005KT 070V130 9999 SCT017 BKN030 07/06
                        Q1012=
201002200000 METAR LPPR 200000Z 13004KT 8000 -SHRA SCT017 BKN030 07/05
                        Q1012=
201002192330 METAR LPPR 192330Z 14005KT 9999 SCT017 SCT035 07/05 Q1012=
201002192300 METAR LPPR 192300Z 19005KT 150V260 9999 SCT017 SCT035 08/06
                        Q1012=
201002192230 METAR LPPR 192230Z 12003KT 9999 -SHRA SCT017 BKN035 07/05
                        Q1012=
201002192200 METAR LPPR 192200Z 16004KT 130V200 9999 SCT017 SCT035 08/05
                        Q1012=
201002192130 METAR LPPR 192130Z 04005KT 350V100 9999 SCT017 SCT035 08/05
                        Q1011=
201002192100 METAR LPPR 192100Z VRB03KT 9999 FEW017 SCT035 09/05 Q1011=
201002192030 METAR LPPR 192030Z 00000KT 9999 SCT017 FEW020CB SCT035 08/04
                        Q1011=
201002192000 METAR LPPR 192000Z VRB03KT 9999 FEW017 FEW025CB 08/05 Q1011=
201002191930 METAR LPPR 191930Z VRB03KT 9999 SCT017 FEW025CB SCT030 07/05
                        Q1011=
201002191900 METAR LPPR 191900Z VRB02KT 9999 FEW017 FEW025CB 08/04 Q1010=
201002191830 METAR LPPR 191830Z 00000KT 9999 FEW017 FEW025CB 08/05 Q1010=
201002191800 METAR LPPR 191800Z 00000KT 9999 FEW017 FEW025CB 08/05 Q1010=
201002191730 METAR LPPR 191730Z 31014G26KT 260V340 6000 -SHRA FEW006 BKN015
                        FEW025CB 08/05 Q1010 RERA=
201002191700 METAR LPPR 191700Z 28006KT 240V300 9999 SCT017 FEW025CB 10/05
                        Q1010=
201002191630 METAR LPPR 191630Z 28006KT 200V340 9999 FEW017 FEW025CB 11/04
                        Q1009=
201002191600 METAR LPPR 191600Z 28006KT 250V320 9999 FEW017 FEW025CB 12/04
                        Q1009=
201002191530 METAR LPPR 191530Z 30007KT 250V330 9999 FEW017 FEW025CB 12/04
                        Q1009=
201002191500 METAR LPPR 191500Z 29008KT 260V350 9999 FEW017 FEW025CB 11/04
                        Q1009=
201002191430 METAR LPPR 191430Z 28011KT 250V310 9999 SCT017 FEW025CB 10/04
                        Q1009=
201002191400 METAR LPPR 191400Z 29010KT 9999 FEW017 FEW025CB SCT090 12/05
                        Q1008=
201002191330 METAR LPPR 191330Z 32009KT 280V340 9999 FEW017 FEW025CB 12/04
                        Q1008=
201002191300 METAR LPPR 191300Z 31009KT 9999 FEW017 FEW025CB 12/04 Q1008=
201002191230 METAR LPPR 191230Z 32007KT 280V350 9999 FEW017 FEW025CB 11/04
                        Q1008=
201002191200 METAR LPPR 191200Z 35004KT 320V020 9999 FEW017 FEW025CB 10/06
                        Q1008=
201002191130 METAR LPPR 191130Z 33010KT 9999 BKN017 FEW025CB 12/05 Q1008=
201002191100 METAR LPPR 191100Z 33006KT 280V360 9999 FEW017 FEW025CB 11/04
                        Q1008=
201002191030 METAR LPPR 191030Z 33004KT 300V010 9999 FEW017 FEW025CB 10/05
                        Q1007=
201002191000 METAR LPPR 191000Z 31004KT 280V340 9999 FEW017 FEW025CB 09/04
                        Q1007=
201002190930 METAR LPPR 190930Z VRB03KT 9999 FEW017 FEW025CB 09/04 Q1007=
201002190900 METAR LPPR 190900Z VRB02KT 9999 FEW017 FEW025CB 07/05 Q1006=
201002190830 METAR LPPR 190830Z VRB02KT 9999 FEW017 FEW025CB 04/03 Q1005=
201002190800 METAR LPPR 190800Z VRB03KT 9999 FEW017 FEW020CB 03/02 Q1005=
201002190730 METAR LPPR 190730Z 34001KT 9999 FEW017 FEW020CB 04/03 Q1004=
201002190700 METAR LPPR 190700Z VRB02KT 9999 FEW017 03/02 Q1003=
201002190630 METAR LPPR 190630Z 34001KT CAVOK 03/02 Q1003=
201002190600 METAR LPPR 190600Z 00000KT 9999 FEW020 BKN080 03/02 Q1002=
201002190530 METAR LPPR 190530Z 00000KT 9999 FEW020 BKN080 03/02 Q1002=
201002190500 METAR LPPR 190500Z 36003KT 9999 FEW020 SCT080 04/02 Q1002=
201002190430 METAR LPPR 190430Z 35002KT 9999 FEW020 04/03 Q1001=
201002190400 METAR LPPR 190400Z 34003KT 9999 FEW020 04/03 Q1001=
201002190330 METAR LPPR 190330Z 36001KT 9999 FEW020 04/03 Q1001=
201002190300 METAR LPPR 190300Z 36002KT 9999 FEW020 04/03 Q1000=
201002190230 METAR LPPR 190230Z 33002KT 9999 FEW020 04/03 Q1000=
201002190200 METAR LPPR 190200Z 33001KT 9999 FEW020 04/03 Q1000=
201002190130 METAR LPPR 190130Z 01002KT 9999 FEW020 05/03 Q1000=
201002190100 METAR LPPR 190100Z 34001KT 9999 FEW020 05/03 Q1000=
201002190030 METAR LPPR 190030Z 36004KT 9999 FEW020 05/03 Q1000=
201002190000 METAR LPPR 190000Z 36005KT 9999 FEW020 06/04 Q0999=
201002182330 METAR LPPR 182330Z 35005KT 9999 FEW017 SCT070 06/04 Q0999=
201002182300 METAR LPPR 182300Z 34005KT 9999 FEW017 SCT070 06/04 Q0999=
201002182230 METAR LPPR 182230Z 34007KT 9999 FEW017 SCT070 06/04 Q0999=
201002182200 METAR LPPR 182200Z 36005KT 9999 FEW017 SCT070 06/04 Q0999=
201002182130 METAR LPPR 182130Z 36005KT 9999 FEW017 SCT070 BKN250 07/04
                        Q0999=
201002182100 METAR LPPR 182100Z 35006KT 9999 FEW017 BKN250 07/04 Q0998=
201002182030 METAR LPPR 182030Z 35005KT 9999 FEW017 SCT250 08/05 Q0998=
201002182000 METAR LPPR 182000Z 34008KT 9999 FEW017 SCT250 08/05 Q0998=
201002181930 METAR LPPR 181930Z 34008KT 9999 FEW017 BKN250 09/05 Q0998=
201002181900 METAR LPPR 181900Z 34008KT 9999 FEW017 SCT090 BKN250 09/06
                        Q0998=
201002181830 METAR LPPR 181830Z 34009KT 9999 FEW017 SCT090 BKN250 10/06
                        Q0998=
201002181800 METAR LPPR 181800Z 34009KT 9999 SCT017 SCT090 BKN250 10/06
                        Q0998=
201002181730 METAR LPPR 181730Z 34009KT 9999 SCT017 SCT250 11/06 Q0998=
201002181700 METAR LPPR 181700Z 33010KT 9999 FEW017 SCT250 12/06 Q0998=
201002181630 METAR LPPR 181630Z 32011KT 9999 FEW015 SCT250 12/06 Q0998=
201002181600 METAR LPPR 181600Z 32011KT 9999 SCT015 BKN250 13/07 Q0998=
201002181530 METAR LPPR 181530Z 32008KT 9999 SCT015 BKN250 12/07 Q0998=
201002181500 METAR LPPR 181500Z 31008KT 9999 SCT015 BKN250 13/07 Q0998=
201002181430 METAR LPPR 181430Z 34007KT 310V050 9999 SCT015 BKN250 13/07
                        Q0998=
201002181400 METAR LPPR 181400Z VRB03KT 9999 SCT015 BKN250 13/05 Q0999=
201002181330 METAR LPPR 181330Z VRB03KT 9999 SCT015 BKN250 13/05 Q0999=
201002181300 METAR LPPR 181300Z 03004KT 350V090 9999 SCT015 BKN200 13/05
                        Q1000=
201002181230 METAR LPPR 181230Z 04005KT 330V100 9999 SCT015 BKN200 12/06
                        Q0999=
201002181200 METAR LPPR 181200Z 01004KT 340V050 9999 FEW017 FEW020TCU
                        BKN250 12/07 Q0999=
201002181130 METAR LPPR 181130Z 03004KT 350V090 9999 FEW015 FEW020TCU
                        BKN200 11/08 Q0999=
201002181100 METAR LPPR 181100Z 02004KT 350V050 9999 FEW015 FEW020TCU
                        BKN200 11/08 Q0999=
201002181030 METAR LPPR 181030Z 11004KT 080V140 9999 FEW017 FEW025TCU
                        BKN250 11/08 Q1000=
201002181000 METAR LPPR 181000Z VRB03KT 9999 FEW017 SCT040 BKN250 10/07
                        Q1000=
201002180930 METAR LPPR 180930Z 10005KT 9999 FEW017 SCT040 09/07 Q1001=
201002180900 METAR LPPR 180900Z VRB03KT 9999 FEW017 SCT040 09/07 Q1001=
201002180830 METAR LPPR 180830Z VRB02KT 9999 FEW017 SCT035 07/06 Q1001=
201002180800 METAR LPPR 180800Z 10005KT 9999 FEW017 SCT060 BKN250 07/06
                        Q1000=
201002180730 METAR LPPR 180730Z 09004KT 9999 FEW017 SCT035 07/06 Q1000=
201002180700 METAR LPPR 180700Z 09005KT 9999 FEW017 SCT035 07/06 Q1000=
201002180630 METAR LPPR 180630Z 10005KT 9999 FEW017 SCT035 07/06 Q1000=
201002180600 METAR LPPR 180600Z VRB03KT 9999 FEW017 SCT035 07/06 Q1000=
201002180530 METAR LPPR 180530Z 10004KT 9999 FEW017 SCT040 07/06 Q1000=
201002180500 METAR LPPR 180500Z 10004KT 9000 FEW017 SCT030 07/06 Q1000=
201002180430 METAR LPPR 180430Z 12006KT 9999 FEW017 SCT030 08/07 Q1000=
201002180400 METAR LPPR 180400Z 11006KT 9999 FEW017 SCT030 08/07 Q1001=
201002180330 METAR LPPR 180330Z 11005KT 9999 FEW030 07/07 Q1001=
201002180300 METAR LPPR 180300Z 11005KT 9999 FEW030 08/07 Q1001=
201002180230 METAR LPPR 180230Z 11003KT 9999 FEW017 08/07 Q1001=
201002180200 METAR LPPR 180200Z 06002KT 9999 FEW017 SCT030 08/07 Q1001=
201002180130 METAR LPPR 180130Z 14004KT 110V180 9999 SCT017 SCT040 08/07
                        Q1001=
201002180100 METAR LPPR 180100Z 12008KT 9999 SCT017 SCT060 09/07 Q1001=
201002180030 METAR LPPR 180030Z 10006KT 9999 -SHRA SCT017 SCT030 09/08
                        Q1001=
201002180000 METAR LPPR 180000Z 12003KT 9999 FEW017 BKN030 09/07 Q1002=
201002172330 METAR LPPR 172330Z VRB01KT 9999 -SHRA FEW017 SCT025 BKN060
                        09/08 Q1002=
201002172300 METAR LPPR 172300Z VRB03KT 7000 -SHRA SCT017 BKN040 09/08
                        Q1001=
201002172230 METAR LPPR 172230Z VRB03KT 9999 FEW017 SCT030 09/07 Q1001=
201002172200 METAR LPPR 172200Z VRB03KT 9999 FEW017 SCT030 09/07 Q1001
                        RESHRA=
201002172130 METAR LPPR 172130Z VRB03KT 4000 SHRA SCT017 FEW018TCU SCT030
                        10/07 Q1001=
201002172100 METAR LPPR 172100Z VRB03KT 9999 SCT017 SCT030 10/07 Q1001=
201002172030 METAR LPPR 172030Z VRB01KT 9999 SCT017 SCT030 09/07 Q1000=
201002172000 METAR LPPR 172000Z VRB03KT 9999 SCT017 SCT025 10/07 Q1000=
201002171930 METAR LPPR 171930Z VRB02KT 9999 SCT017 SCT040 10/07 Q1000=
201002171900 METAR LPPR 171900Z VRB02KT 9999 BKN017 FEW025CB 10/07 Q0999=
201002171830 METAR LPPR 171830Z 26004G16KT 220V320 9999 BKN017 FEW025CB
                        11/07 Q0999=
201002171800 METAR LPPR 171800Z VRB03KT 9999 BKN017 FEW020CB 11/07 Q0999=
201002171730 METAR LPPR 171730Z VRB03KT 9999 BKN017 FEW025CB 10/07 Q0999=
201002171700 METAR LPPR 171700Z 28009KT 260V320 9999 -SHRA BKN017 FEW025CB
                        11/07 Q0998=
201002171630 METAR LPPR 171630Z 27007KT 230V310 9999 BKN017 FEW020CB 13/06
                        Q0998=
201002171600 METAR LPPR 171600Z 30007KT 250V340 9999 BKN017 13/05 Q0997=
201002171530 METAR LPPR 171530Z 30008KT 260V330 9999 SCT017 13/06 Q0997=
201002171500 METAR LPPR 171500Z 30010KT 270V330 9999 SCT017 13/05 Q0997=
201002171430 METAR LPPR 171430Z 32011KT 9999 SCT017 13/05 Q0996=
201002171400 METAR LPPR 171400Z 31012KT 9999 BKN017 12/06 Q0996=
201002171330 METAR LPPR 171330Z 31013KT 9999 BKN017 12/07 Q0996=
201002171300 METAR LPPR 171300Z 32013KT 280V340 9999 SCT017 12/07 Q0995=
201002171230 METAR LPPR 171230Z 34014KT 9999 SCT017 BKN040 12/06 Q0995=
201002171200 METAR LPPR 171200Z 33014KT 9999 SCT017 BKN040 11/07 Q0995=
201002171130 METAR LPPR 171130Z 33018KT 9999 SCT015 BKN020 11/08 Q0994
                        WS ALL RWY=
201002171100 METAR LPPR 171100Z 33016KT 9999 SCT015 BKN020 11/09 Q0993=
201002171030 METAR LPPR 171030Z 33016KT 8000 FEW009 SCT012 BKN020 10/09
                        Q0993=
201002171000 METAR LPPR 171000Z 33012KT 7000 FEW009 SCT012 BKN020 10/09
                        Q0992=
201002170930 METAR LPPR 170930Z 33007KT 5000 BR SCT008 SCT012 BKN019 09/09
                        Q0991=
201002170900 METAR LPPR 170900Z 33008KT 4000 -RA BR SCT004 SCT008 BKN018
                        09/09 Q0991=
201002170830 METAR LPPR 170830Z 33007KT 3000 -RA BR SCT004 SCT008 BKN018
                        10/09 Q0990=
201002170800 METAR LPPR 170800Z 33008KT 2000 -RA BR FEW003 BKN005 BKN014
                        10/09 Q0990=
201002170730 METAR LPPR 170730Z 11003KT 2000 -RA BR FEW004 SCT006 BKN018
                        10/09 Q0989=
201002170700 METAR LPPR 170700Z VRB02KT 3000 -RA BR SCT005 BKN016 10/09
                        Q0989 RERA=
201002170630 METAR LPPR 170630Z 15004KT 3000 RA BR SCT007 SCT016 BKN030
                        10/09 Q0989=
201002170600 METAR LPPR 170600Z 13004KT 3000 RA BR SCT007 SCT016 BKN030
                        09/09 Q0988=
201002170530 METAR LPPR 170530Z 13003KT 5000 -RADZ BR SCT007 BKN014 09/09
                        Q0988=
201002170500 METAR LPPR 170500Z 14002KT 5000 -DZ BR SCT007 BKN020 10/08
                        Q0988=
201002170430 METAR LPPR 170430Z 14004KT 7000 SCT030 BKN070 10/08 Q0988=
201002170400 METAR LPPR 170400Z 13004KT 7000 SCT030 BKN070 10/08 Q0988=
201002170330 METAR LPPR 170330Z 14005KT 7000 FEW030 SCT040 BKN070 10/08
                        Q0988=
201002170300 METAR LPPR 170300Z 13005KT 7000 SCT030 SCT040 BKN070 10/08
                        Q0988=
201002170230 METAR LPPR 170230Z 13004KT 8000 FEW030 SCT040 BKN070 10/07
                        Q0988=
201002170200 METAR LPPR 170200Z 13005KT 8000 FEW030 SCT040 BKN070 10/07
                        Q0988=
201002170130 METAR LPPR 170130Z 13004KT 8000 FEW030 SCT040 BKN070 10/07
                        Q0988=
201002170100 METAR LPPR 170100Z 00000KT 8000 FEW030 SCT040 BKN070 10/07
                        Q0988=
201002170030 METAR LPPR 170030Z VRB03KT 8000 FEW030 SCT040 BKN070 11/07
                        Q0988=
201002170000 METAR LPPR 170000Z 11003KT 8000 FEW027 SCT040 BKN070 11/06
                        Q0988=
201002162330 METAR LPPR 162330Z 00000KT 8000 FEW027 SCT040 BKN070 11/07
                        Q0988=
201002162300 METAR LPPR 162300Z VRB02KT 8000 SCT030 SCT040 BKN070 11/06
                        Q0988=
201002162230 METAR LPPR 162230Z 12003KT 8000 SCT030 SCT040 BKN070 11/06
                        Q0988=
201002162200 METAR LPPR 162200Z 13003KT 8000 SCT030 SCT040 BKN070 11/06
                        Q0988=
201002162130 METAR LPPR 162130Z 12004KT 8000 SCT030 SCT040 BKN070 11/07
                        Q0988=
201002162100 METAR LPPR 162100Z 13004KT 8000 SCT035 SCT040 BKN070 11/06
                        Q0988=
201002162030 METAR LPPR 162030Z 12003KT 8000 SCT035 SCT040 BKN070 11/07
                        Q0987=
201002162000 METAR LPPR 162000Z 13001KT 8000 FEW035 SCT040 BKN070 11/08
                        Q0987=
201002161930 METAR LPPR 161930Z VRB01KT 9999 FEW035 BKN040 BKN070 11/08
                        Q0987=
201002161900 METAR LPPR 161900Z 36002KT 9999 SCT035 BKN040 BKN070 11/08
                        Q0987=
201002161830 METAR LPPR 161830Z 00000KT 9999 SCT035 BKN040 BKN070 12/07
                        Q0987=
201002161800 METAR LPPR 161800Z VRB03KT 9999 FEW035 BKN040 BKN070 12/08
                        Q0987=
201002161730 METAR LPPR 161730Z 32004KT 260V010 9999 SCT035 SCT040 BKN070
                        12/08 Q0987=
201002161700 METAR LPPR 161700Z 30004KT 260V320 9999 SCT035 SCT040 BKN070
                        13/07 Q0987=
201002161630 METAR LPPR 161630Z VRB03KT 9999 SCT035 SCT040 BKN070 13/07
                        Q0986=
201002161600 METAR LPPR 161600Z 29004KT 9999 SCT033 SCT040 BKN070 13/07
                        Q0987=
201002161530 METAR LPPR 161530Z 28004KT 260V320 9999 SCT033 BKN060 13/07
                        Q0987=
201002161500 METAR LPPR 161500Z 15004KT 110V190 9999 SCT033 BKN060 14/05
                        Q0987=
201002161430 METAR LPPR 161430Z 13005KT 100V170 9999 SCT035 BKN060 14/05
                        Q0987=
201002161400 METAR LPPR 161400Z 13005KT 090V170 9999 FEW035 BKN060 14/06
                        Q0987=
201002161330 METAR LPPR 161330Z 10004KT 040V180 9999 FEW035 BKN070 14/05
                        Q0987=
201002161300 METAR LPPR 161300Z 12007KT 070V160 9999 FEW035 BKN070 14/05
                        Q0987=
201002161230 METAR LPPR 161230Z 11006KT 060V160 9999 FEW035 BKN065 14/05
                        Q0988=
201002161200 METAR LPPR 161200Z 10009KT 050V130 9999 FEW035 BKN070 13/05
                        Q0988=
201002161130 METAR LPPR 161130Z 09008KT 050V130 9999 FEW035 BKN070 12/04
                        Q0988=
201002161100 METAR LPPR 161100Z 08009KT 050V130 9999 FEW035 BKN070 13/04
                        Q0988=
201002161030 METAR LPPR 161030Z 09009KT 040V120 9999 SCT035 BKN070 11/04
                        Q0988=
201002161000 METAR LPPR 161000Z 09008KT 050V130 9999 SCT035 BKN070 10/04
                        Q0988=
201002160930 METAR LPPR 160930Z 09007KT 040V130 9999 SCT035 BKN070 10/04
                        Q0988=
201002160900 METAR LPPR 160900Z 09009KT 050V120 9999 BKN035 SCT080 09/04
                        Q0988=
201002160830 METAR LPPR 160830Z 10008KT 9999 BKN030 SCT080 09/03 Q0988=
201002160800 METAR LPPR 160800Z 09008KT 050V130 9999 BKN030 SCT080 09/03
                        Q0988=
201002160730 METAR LPPR 160730Z 09007KT 040V120 9999 BKN030 SCT080 09/03
                        Q0988=
201002160700 METAR LPPR 160700Z 09008KT 060V120 9999 BKN030 SCT080 09/04
                        Q0988=
201002160630 METAR LPPR 160630Z 08008KT 050V120 9999 SCT040 BKN080 09/03
                        Q0988=
201002160600 METAR LPPR 160600Z 08007KT 050V120 9999 SCT040 BKN070 09/03
                        Q0988=
201002160530 METAR LPPR 160530Z 10009KT 060V130 9999 BKN040 BKN070 09/03
                        Q0988=
201002160500 METAR LPPR 160500Z 09009KT 9999 BKN040 BKN060 09/03 Q0988=
201002160430 METAR LPPR 160430Z 09008KT 040V120 9999 BKN040 BKN060 09/03
                        Q0988=
201002160400 METAR LPPR 160400Z 08009KT 060V120 9999 BKN040 BKN060 09/03
                        Q0988=
201002160330 METAR LPPR 160330Z 08008KT 050V120 9999 OVC040 09/03 Q0989=
201002160300 METAR LPPR 160300Z 07007KT 040V110 9999 OVC040 09/03 Q0989=
201002160230 METAR LPPR 160230Z 09008KT 040V130 9999 BKN040 SCT060 09/03
                        Q0989=
201002160200 METAR LPPR 160200Z 08010KT 040V120 9999 FEW030 BKN040 09/03
                        Q0989=
201002160130 METAR LPPR 160130Z 09007KT 060V120 9999 SCT030 BKN040 09/03
                        Q0990=
201002160100 METAR LPPR 160100Z 09007KT 050V130 9999 SCT030 SCT060 BKN250
                        09/03 Q0990=
201002160030 METAR LPPR 160030Z 09007KT 050V120 9999 SCT030 BKN060 09/03
                        Q0990=
201002160000 METAR LPPR 160000Z 09007KT 050V130 9999 SCT040 SCT060 BKN250
                        09/02 Q0990=
201002152330 METAR LPPR 152330Z 09007KT 030V130 9999 FEW040 SCT060 BKN250
                        09/03 Q0990=
201002152300 METAR LPPR 152300Z 09007KT 040V120 9999 FEW040 SCT060 BKN250
                        09/03 Q0990=
201002152230 METAR LPPR 152230Z 08007KT 050V130 9999 FEW040 BKN080 BKN250
                        09/03 Q0991=
201002152200 METAR LPPR 152200Z 08007KT 050V120 9999 FEW040 BKN080 BKN250
                        09/03 Q0991=
201002152130 METAR LPPR 152130Z 08007KT 040V120 9999 FEW040 BKN100 BKN250
                        09/03 Q0991=
201002152100 METAR LPPR 152100Z 08005KT 040V130 CAVOK 09/03 Q0991=
201002152030 METAR LPPR 152030Z 09008KT 050V140 9999 FEW040 SCT100 BKN250
                        09/03 Q0991=
201002152000 METAR LPPR 152000Z 09007KT 040V130 9999 FEW040 SCT100 BKN250
                        09/03 Q0991=
201002151930 METAR LPPR 151930Z 09006KT 050V130 9999 FEW040 SCT100 BKN250
                        09/03 Q0991=
201002151900 METAR LPPR 151900Z 09006KT 040V140 9999 FEW040 BKN250 09/03
                        Q0991=
201002151830 METAR LPPR 151830Z 09007KT 040V120 9999 FEW040 BKN250 09/03
                        Q0991=
201002151800 METAR LPPR 151800Z 09008KT 060V130 9999 FEW040 SCT090 BKN250
                        09/02 Q0991=
201002151730 METAR LPPR 151730Z 09009KT 020V130 9999 SCT040 BKN090 10/02
                        Q0991=
201002151700 METAR LPPR 151700Z 09009G19KT 060V120 9999 SCT040 BKN090
                        10/02 Q0991=
201002151630 METAR LPPR 151630Z 10011KT 060V120 9999 SCT040 BKN090 10/02
                        Q0991=
201002151600 METAR LPPR 151600Z 09007KT 050V120 9999 BKN040 SCT090 10/03
                        Q0991 WS ALL RWY=
201002151530 METAR LPPR 151530Z 09011KT 050V130 9999 BKN040 SCT090 10/02
                        Q0991 WS ALL RWY=
201002151500 METAR LPPR 151500Z 09008KT 040V140 9999 BKN040 SCT090 10/02
                        Q0992 WS ALL RWY=
201002151430 METAR LPPR 151430Z 09011KT 060V130 9999 BKN040 SCT090 10/01
                        Q0992=
201002151400 METAR LPPR 151400Z 10012KT 9999 BKN040 SCT090 10/01 Q0992=
201002151330 METAR LPPR 151330Z 10011KT 070V130 9999 BKN040 SCT090 10/02
                        Q0992=
201002151300 METAR LPPR 151300Z 08010KT 040V120 9999 -RA SCT040 BKN090
                        09/01 Q0993=
201002151230 METAR LPPR 151230Z 08010KT 050V120 9999 FEW017 SCT090 BKN250
                        08/00 Q0993=
201002151200 METAR LPPR 151200Z 09013KT 050V120 9999 FEW017 SCT090 BKN250
                        08/M01 Q0993=
201002151130 METAR LPPR 151130Z 09011G21KT 060V130 9999 FEW040 SCT090
                        BKN250 07/M01 Q0994 WS ALL RWY=
201002151100 METAR LPPR 151100Z 09011KT 050V120 9999 FEW040 SCT090 BKN250
                        08/M01 Q0993 WS ALL RWY=
201002151030 METAR LPPR 151030Z 10010KT 060V120 9999 FEW040 SCT090 BKN200
                        08/M02 Q0994=
201002151000 METAR LPPR 151000Z 09010KT 060V120 9999 FEW040 SCT090 BKN200
                        07/M03 Q0994=
201002150930 METAR LPPR 150930Z 09011G22KT 060V120 9999 FEW040 SCT090
                        BKN200 07/M03 Q0994=
201002150900 METAR LPPR 150900Z 10011KT 070V130 9999 FEW040 SCT090 BKN200
                        07/M03 Q0994=
201002150830 METAR LPPR 150830Z 09009KT 060V120 9999 FEW040 SCT090 BKN200
                        06/M02 Q0994=
201002150800 METAR LPPR 150800Z 09009KT 060V120 9999 FEW040 SCT080 BKN200
                        06/M02 Q0994=
201002150730 METAR LPPR 150730Z 09009KT 050V130 9999 SCT040 BKN090 06/M01
                        Q0994=
201002150700 METAR LPPR 150700Z 08008KT 050V130 9999 SCT040 BKN090 06/M01
                        Q0994=
201002150630 METAR LPPR 150630Z 07010KT 050V110 9999 -RA SCT035 BKN080
                        05/M01 Q0994=
201002150600 METAR LPPR 150600Z 07010KT 040V110 9999 -RA SCT035 BKN080
                        06/M01 Q0995=
201002150530 METAR LPPR 150530Z 07010KT 030V110 9999 -RA SCT035 BKN080
                        06/M01 Q0995=
201002150500 METAR LPPR 150500Z 08011KT 040V120 9999 -RA SCT035 BKN090
                        06/M02 Q0996=
201002150430 METAR LPPR 150430Z 08009G20KT 050V110 9999 BKN030 SCT100
                        06/M02 Q0996=
201002150400 METAR LPPR 150400Z 10013KT 060V130 9999 SCT030 SCT100 06/M01
                        Q0996=
201002150330 METAR LPPR 150330Z 09010G21KT 050V120 9999 SCT030 SCT100
                        07/M03 Q0997=
201002150300 METAR LPPR 150300Z 09009KT 030V120 9999 SCT035 BKN100 07/M03
                        Q0998=
201002150230 METAR LPPR 150230Z 08007KT 050V120 9999 SCT035 BKN100 07/M03
                        Q0998=
201002150200 METAR LPPR 150200Z 08009KT 030V140 9999 SCT035 BKN100 07/M03
                        Q0998=
201002150130 METAR LPPR 150130Z 08008KT 050V120 9999 SCT035 BKN100 07/M03
                        Q0999=
201002150100 METAR LPPR 150100Z 08007KT 050V120 9999 SCT035 BKN100 07/M03
                        Q0999=
201002150030 METAR LPPR 150030Z 09008KT 060V120 CAVOK 07/M03 Q1000=
201002150000 METAR LPPR 150000Z 09010KT 060V120 CAVOK 07/M04 Q1000=
201002142330 METAR LPPR 142330Z 10011KT 070V130 CAVOK 07/M03 Q1000=
201002142300 METAR LPPR 142300Z 09009KT 060V140 CAVOK 07/M03 Q1000=
201002142230 METAR LPPR 142230Z 09008KT 040V140 CAVOK 07/M03 Q1001=
201002142200 METAR LPPR 142200Z 09009KT 050V130 CAVOK 07/M03 Q1001=
201002142130 METAR LPPR 142130Z 09010KT 040V140 CAVOK 07/M03 Q1002=
201002142100 METAR LPPR 142100Z 09008KT 040V120 CAVOK 07/M03 Q1002=
201002142030 METAR LPPR 142030Z 09008KT 050V120 CAVOK 07/M03 Q1002=
201002142000 METAR LPPR 142000Z 09008KT 060V120 CAVOK 07/M03 Q1003=
201002141930 METAR LPPR 141930Z 08007KT 040V120 CAVOK 08/M02 Q1003=
201002141900 METAR LPPR 141900Z 08008KT 040V110 CAVOK 08/M02 Q1003=
201002141830 METAR LPPR 141830Z 08006KT 040V110 CAVOK 08/M02 Q1003=
201002141800 METAR LPPR 141800Z 08005KT 040V130 CAVOK 08/M02 Q1003=
201002141730 METAR LPPR 141730Z 08006KT 040V130 CAVOK 08/M03 Q1004=
201002141700 METAR LPPR 141700Z 10007KT 060V130 CAVOK 09/M03 Q1004=
201002141630 METAR LPPR 141630Z 10006KT 070V130 CAVOK 09/M03 Q1004=
201002141600 METAR LPPR 141600Z 10008KT 070V140 CAVOK 09/M03 Q1005=
201002141530 METAR LPPR 141530Z 09011KT 050V130 CAVOK 09/M03 Q1005=
201002141500 METAR LPPR 141500Z 09009KT 050V120 CAVOK 09/M03 Q1006=
201002141430 METAR LPPR 141430Z 09010KT 050V130 CAVOK 09/M04 Q1006=
201002141400 METAR LPPR 141400Z 09011KT 050V130 CAVOK 09/M04 Q1007=
201002141330 METAR LPPR 141330Z 09011KT 050V120 CAVOK 09/M04 Q1008=
201002141300 METAR LPPR 141300Z 11014KT 070V140 CAVOK 08/M04 Q1009=
201002141230 METAR LPPR 141230Z 11014KT 070V140 CAVOK 08/M04 Q1009=
201002141200 METAR LPPR 141200Z 10013KT 060V130 CAVOK 08/M04 Q1009=
201002141130 METAR LPPR 141130Z 10014KT 070V130 CAVOK 07/M04 Q1010=
201002141100 METAR LPPR 141100Z 11014KT 070V130 CAVOK 06/M05 Q1010=
201002141030 METAR LPPR 141030Z 11013KT 080V140 CAVOK 06/M05 Q1010=
201002141000 METAR LPPR 141000Z 11015G25KT 080V140 CAVOK 06/M05 Q1010=
201002140930 METAR LPPR 140930Z 11012KT 070V130 CAVOK 05/M05 Q1010=
201002140900 METAR LPPR 140900Z 10010KT 070V130 CAVOK 05/M05 Q1010=
201002140830 METAR LPPR 140830Z 09007KT 060V120 CAVOK 04/M05 Q1010=
201002140800 METAR LPPR 140800Z 09005KT 040V130 CAVOK 03/M05 Q1011=
201002140730 METAR LPPR 140730Z 08005KT 050V130 CAVOK 03/M05 Q1010=
201002140700 METAR LPPR 140700Z 07005KT 030V110 CAVOK 03/M05 Q1010=
201002140630 METAR LPPR 140630Z 08004KT 050V110 CAVOK 03/M05 Q1010=
201002140600 METAR LPPR 140600Z 05005KT 010V080 CAVOK 02/M04 Q1010=
201002140530 METAR LPPR 140530Z VRB03KT CAVOK 02/M04 Q1011=
201002140500 METAR LPPR 140500Z 02005KT CAVOK 01/M04 Q1011=
201002140430 METAR LPPR 140430Z 04005KT 010V090 CAVOK 02/M04 Q1011=
201002140400 METAR LPPR 140400Z 07004KT 030V100 CAVOK 02/M04 Q1012=
201002140330 METAR LPPR 140330Z 05004KT 010V090 CAVOK 02/M04 Q1012=
201002140300 METAR LPPR 140300Z 08002KT CAVOK 02/M04 Q1013=
201002140230 METAR LPPR 140230Z 05004KT CAVOK 03/M03 Q1013=
201002140200 METAR LPPR 140200Z VRB03KT CAVOK 03/M03 Q1013=
201002140130 METAR LPPR 140130Z VRB03KT CAVOK 03/M03 Q1013=
201002140100 METAR LPPR 140100Z 09003KT CAVOK 04/M03 Q1013=
201002140030 METAR LPPR 140030Z 07003KT CAVOK 03/M03 Q1013=
201002140000 METAR LPPR 140000Z 10004KT CAVOK 04/M03 Q1013=
201002132330 METAR LPPR 132330Z 09003KT CAVOK 04/M03 Q1013=
201002132300 METAR LPPR 132300Z 10004KT CAVOK 04/M03 Q1012=
201002132230 METAR LPPR 132230Z VRB02KT CAVOK 04/M02 Q1012=
201002132200 METAR LPPR 132200Z 08003KT CAVOK 04/M03 Q1012=
201002132130 METAR LPPR 132130Z 06002KT CAVOK 05/M03 Q1011=
201002132100 METAR LPPR 132100Z 08003KT CAVOK 06/M03 Q1011=
201002132030 METAR LPPR 132030Z 11003KT CAVOK 06/M02 Q1012=
201002132000 METAR LPPR 132000Z 12003KT CAVOK 06/M02 Q1012=
201002131930 METAR LPPR 131930Z 11003KT CAVOK 07/M02 Q1012=
201002131900 METAR LPPR 131900Z 08003KT CAVOK 07/M03 Q1012=
201002131830 METAR LPPR 131830Z 09004KT 050V110 CAVOK 08/M03 Q1011=
201002131800 METAR LPPR 131800Z 09005KT 060V130 CAVOK 09/M03 Q1011=
201002131730 METAR LPPR 131730Z 10005KT 070V130 CAVOK 10/M03 Q1010=
201002131700 METAR LPPR 131700Z 06006KT 010V100 9999 FEW040 10/M03 Q1010=
201002131630 METAR LPPR 131630Z 06006KT 010V140 9999 FEW035 11/M03 Q1010=
201002131600 METAR LPPR 131600Z 02004KT 350V100 9999 FEW030 11/M04 Q1011=
201002131530 METAR LPPR 131530Z 02006KT 340V050 9999 FEW030 11/M04 Q1011=
201002131500 METAR LPPR 131500Z VRB05G15KT 9999 FEW030 11/M03 Q1011=
201002131430 METAR LPPR 131430Z VRB04KT 9999 FEW030 11/M04 Q1011=
201002131400 METAR LPPR 131400Z 03004KT 330V100 9999 FEW030 10/M03 Q1011=
201002131330 METAR LPPR 131330Z 02006KT 320V080 9999 FEW030 10/M04 Q1011=
201002131300 METAR LPPR 131300Z VRB04KT 9999 FEW030 10/M03 Q1012=
201002131230 METAR LPPR 131230Z 03007KT 340V100 CAVOK 09/M03 Q1012=
201002131200 METAR LPPR 131200Z 03009KT 360V070 CAVOK 08/M03 Q1012=
201002131130 METAR LPPR 131130Z 04007KT 010V090 CAVOK 08/M04 Q1012=
201002131100 METAR LPPR 131100Z 03006KT 360V070 CAVOK 07/M04 Q1012=
201002131030 METAR LPPR 131030Z 04008KT 010V080 CAVOK 06/M04 Q1012=
201002131000 METAR LPPR 131000Z 03006KT 360V060 CAVOK 05/M04 Q1012=
201002130930 METAR LPPR 130930Z 02004KT CAVOK 04/M03 Q1012=
201002130900 METAR LPPR 130900Z 01005KT CAVOK 03/M03 Q1012=
201002130830 METAR LPPR 130830Z 04004KT CAVOK 02/M04 Q1012=
201002130800 METAR LPPR 130800Z 03003KT CAVOK 00/M04 Q1012=
201002130730 METAR LPPR 130730Z 02004KT CAVOK 00/M04 Q1012=
201002130700 METAR LPPR 130700Z VRB02KT CAVOK 01/M04 Q1011=
201002130630 METAR LPPR 130630Z VRB03KT CAVOK 00/M04 Q1011=
201002130600 METAR LPPR 130600Z VRB01KT CAVOK 02/M04 Q1011=
201002130530 METAR LPPR 130530Z VRB03KT CAVOK 03/M04 Q1011=
201002130500 METAR LPPR 130500Z 08006KT CAVOK 03/M04 Q1011=
201002130430 METAR LPPR 130430Z 08004KT 040V110 CAVOK 03/M04 Q1011=
201002130400 METAR LPPR 130400Z VRB03KT CAVOK 03/M03 Q1011=
201002130330 METAR LPPR 130330Z 05005KT 010V080 CAVOK 03/M03 Q1011=
201002130300 METAR LPPR 130300Z 02005KT CAVOK 02/M02 Q1012=
201002130230 METAR LPPR 130230Z VRB03KT CAVOK 03/M02 Q1011=
201002130200 METAR LPPR 130200Z VRB03KT CAVOK 03/M02 Q1011=
201002130130 METAR LPPR 130130Z VRB03KT CAVOK 03/M02 Q1011=
201002130100 METAR LPPR 130100Z 04004KT CAVOK 01/M02 Q1012=
201002130030 METAR LPPR 130030Z 02003KT CAVOK 01/M02 Q1011=
201002130000 METAR LPPR 130000Z 03003KT CAVOK 02/M02 Q1011=
201002122330 METAR LPPR 122330Z 03002KT CAVOK 03/M02 Q1011=
201002122300 METAR LPPR 122300Z VRB03KT CAVOK 05/M02 Q1011=
201002122230 METAR LPPR 122230Z VRB03KT CAVOK 05/M02 Q1011=
201002122200 METAR LPPR 122200Z 05003KT CAVOK 04/M02 Q1011=
201002122130 METAR LPPR 122130Z VRB03KT CAVOK 05/M01 Q1011=
201002122100 METAR LPPR 122100Z 10003KT CAVOK 06/M01 Q1011=
201002122030 METAR LPPR 122030Z VRB03KT CAVOK 06/M01 Q1011=
201002122000 METAR LPPR 122000Z 04004KT CAVOK 05/M00 Q1011=
201002121930 METAR LPPR 121930Z 10004KT CAVOK 06/M01 Q1011=
201002121900 METAR LPPR 121900Z VRB02KT CAVOK 06/00 Q1011=
201002121830 METAR LPPR 121830Z 05001KT CAVOK 07/M00 Q1011=
201002121800 METAR LPPR 121800Z VRB02KT CAVOK 09/M02 Q1011=
201002121730 METAR LPPR 121730Z 05005KT 010V090 CAVOK 10/M02 Q1010=
201002121700 METAR LPPR 121700Z 05005KT 010V090 CAVOK 10/M02 Q1010=
201002121630 METAR LPPR 121630Z 06005KT 350V140 CAVOK 11/M02 Q1010=
201002121600 METAR LPPR 121600Z 07008KT 030V130 CAVOK 11/M03 Q1011=
201002121530 METAR LPPR 121530Z 09007KT 030V130 CAVOK 10/M02 Q1011=
201002121500 METAR LPPR 121500Z 10008KT 070V140 CAVOK 10/M02 Q1011=
201002121430 METAR LPPR 121430Z 09009KT 050V120 CAVOK 10/M02 Q1011=
201002121400 METAR LPPR 121400Z 09010G21KT 050V120 CAVOK 09/M03 Q1011=
201002121330 METAR LPPR 121330Z 10012KT 070V130 CAVOK 09/M03 Q1011=
201002121300 METAR LPPR 121300Z 08011KT 050V120 CAVOK 09/M04 Q1012=
201002121230 METAR LPPR 121230Z 09010KT 050V130 CAVOK 08/M04 Q1012=
201002121200 METAR LPPR 121200Z 08009KT 050V110 CAVOK 08/M04 Q1012=
201002121130 METAR LPPR 121130Z 09007KT 040V130 CAVOK 07/M04 Q1013=
201002121100 METAR LPPR 121100Z 09007KT 050V130 CAVOK 06/M04 Q1013=
201002121030 METAR LPPR 121030Z 09009KT 050V110 CAVOK 06/M05 Q1013=
201002121000 METAR LPPR 121000Z 10010KT 060V140 CAVOK 06/M05 Q1013=
201002120930 METAR LPPR 120930Z 10011KT 070V130 CAVOK 05/M05 Q1013=
201002120900 METAR LPPR 120900Z 10008KT CAVOK 05/M05 Q1013=
201002120830 METAR LPPR 120830Z 10010KT 060V120 CAVOK 04/M05 Q1014=
201002120800 METAR LPPR 120800Z 09007KT 060V130 CAVOK 04/M05 Q1013=
201002120730 METAR LPPR 120730Z 09006KT 050V120 CAVOK 04/M05 Q1014=
201002120700 METAR LPPR 120700Z 09007KT 050V110 CAVOK 04/M05 Q1013=
201002120630 METAR LPPR 120630Z 09007KT 050V110 CAVOK 04/M05 Q1013=
201002120600 METAR LPPR 120600Z 08007KT 050V110 CAVOK 04/M05 Q1013=
201002120530 METAR LPPR 120530Z 08007KT 040V120 CAVOK 05/M05 Q1013=
201002120500 METAR LPPR 120500Z 10008KT CAVOK 05/M06 Q1013=
201002120430 METAR LPPR 120430Z 10008KT CAVOK 05/M06 Q1013=
201002120400 METAR LPPR 120400Z 10009KT 070V130 CAVOK 05/M06 Q1013=
201002120330 METAR LPPR 120330Z 11010KT 080V140 CAVOK 06/M06 Q1013=
201002120300 METAR LPPR 120300Z 11007KT 080V140 CAVOK 06/M05 Q1013=
201002120230 METAR LPPR 120230Z 10008KT CAVOK 06/M04 Q1013=
201002120200 METAR LPPR 120200Z 11010KT CAVOK 06/M04 Q1013=
201002120130 METAR LPPR 120130Z 11009KT CAVOK 06/M02 Q1013=
201002120100 METAR LPPR 120100Z 10007KT CAVOK 06/M01 Q1013=
201002120030 METAR LPPR 120030Z 10008KT CAVOK 06/M02 Q1014=
201002120000 METAR LPPR 120000Z 09005KT 060V120 CAVOK 06/M02 Q1014=
201002112330 METAR LPPR 112330Z 09005KT CAVOK 06/M01 Q1014=
201002112300 METAR LPPR 112300Z VRB03KT CAVOK 06/M01 Q1014=
201002112230 METAR LPPR 112230Z VRB02KT CAVOK 06/M00 Q1014=
201002112200 METAR LPPR 112200Z VRB03KT CAVOK 06/01 Q1013=
201002112130 METAR LPPR 112130Z 05005KT 020V080 CAVOK 07/01 Q1013=
201002112100 METAR LPPR 112100Z 05005KT 020V090 CAVOK 07/01 Q1013=
201002112030 METAR LPPR 112030Z 02006KT CAVOK 07/00 Q1013=
201002112000 METAR LPPR 112000Z 02005KT CAVOK 07/01 Q1013=
201002111930 METAR LPPR 111930Z 02005KT CAVOK 08/02 Q1013=
201002111900 METAR LPPR 111900Z 02005KT CAVOK 07/03 Q1014=
201002111830 METAR LPPR 111830Z 00000KT CAVOK 09/03 Q1013=
201002111800 METAR LPPR 111800Z VRB02KT CAVOK 10/02 Q1013=
201002111730 METAR LPPR 111730Z 30005KT 270V330 CAVOK 10/02 Q1013=
201002111700 METAR LPPR 111700Z 30006KT 270V330 9999 FEW020 11/02 Q1013=
201002111630 METAR LPPR 111630Z 31006KT 270V330 9999 FEW020 12/03 Q1013=
201002111600 METAR LPPR 111600Z VRB03KT 9999 FEW020 14/00 Q1013=
201002111530 METAR LPPR 111530Z VRB04KT 9999 FEW020 13/01 Q1012=
201002111500 METAR LPPR 111500Z 03004KT 350V120 CAVOK 12/01 Q1012=
201002111430 METAR LPPR 111430Z VRB03KT CAVOK 12/02 Q1013=
201002111400 METAR LPPR 111400Z 01007KT 330V070 CAVOK 12/02 Q1013=
201002111330 METAR LPPR 111330Z 03006KT 350V100 CAVOK 12/02 Q1013=
201002111300 METAR LPPR 111300Z 05005KT 010V130 CAVOK 11/01 Q1014=
201002111230 METAR LPPR 111230Z 05008KT 360V090 CAVOK 11/01 Q1014=
201002111200 METAR LPPR 111200Z 02009KT 350V050 CAVOK 10/01 Q1014=
201002111130 METAR LPPR 111130Z 02006KT 350V060 CAVOK 10/02 Q1014=
201002111100 METAR LPPR 111100Z VRB03KT CAVOK 10/03 Q1014=
201002111030 METAR LPPR 111030Z 10007KT 070V130 CAVOK 09/02 Q1014=
201002111000 METAR LPPR 111000Z 08005KT 020V120 CAVOK 08/03 Q1014=
201002110930 METAR LPPR 110930Z VRB03KT CAVOK 08/03 Q1014=
201002110900 METAR LPPR 110900Z VRB03KT CAVOK 06/03 Q1014=
201002110830 METAR LPPR 110830Z 10003KT CAVOK 05/02 Q1013=
201002110800 METAR LPPR 110800Z 12005KT CAVOK 04/02 Q1013=
201002110730 METAR LPPR 110730Z 10004KT CAVOK 04/02 Q1013=
201002110700 METAR LPPR 110700Z VRB03KT CAVOK 04/02 Q1012=
201002110630 METAR LPPR 110630Z 06003KT CAVOK 04/02 Q1012=
201002110600 METAR LPPR 110600Z 05005KT CAVOK 05/02 Q1012=
201002110530 METAR LPPR 110530Z 04003KT 9999 SCT040 04/02 Q1011=
201002110500 METAR LPPR 110500Z 05003KT 9999 SCT040 04/03 Q1011=
201002110430 METAR LPPR 110430Z 02004KT 350V050 9999 SCT040 04/02 Q1011=
201002110400 METAR LPPR 110400Z VRB02KT CAVOK 05/03 Q1011=
201002110330 METAR LPPR 110330Z 05004KT CAVOK 05/03 Q1011=
201002110300 METAR LPPR 110300Z 05004KT CAVOK 04/03 Q1011=
201002110230 METAR LPPR 110230Z 00000KT CAVOK 04/02 Q1010=
201002110200 METAR LPPR 110200Z VRB02KT CAVOK 05/03 Q1010=
201002110130 METAR LPPR 110130Z 07002KT CAVOK 05/04 Q1010=
201002110100 METAR LPPR 110100Z 08003KT 9999 FEW040 06/04 Q1010=
201002110030 METAR LPPR 110030Z 00000KT 9999 FEW040 06/04 Q1010=
201002110000 METAR LPPR 110000Z 05004KT 9999 FEW040 06/04 Q1009=
201002102330 METAR LPPR 102330Z VRB02KT 9999 SCT040 06/04 Q1010=
201002102300 METAR LPPR 102300Z 04003KT 9999 SCT040 07/05 Q1009=
201002102230 METAR LPPR 102230Z 03003KT 9999 SCT040 07/05 Q1009=
201002102200 METAR LPPR 102200Z 02003KT 9999 SCT040 07/05 Q1008=
201002102130 METAR LPPR 102130Z VRB03KT 9999 SCT040 SCT070 08/06 Q1008=
201002102100 METAR LPPR 102100Z 04005KT 010V070 9999 SCT040 BKN070 08/06
                        Q1008=
201002102030 METAR LPPR 102030Z 04006KT 360V070 9999 SCT040 BKN080 08/06
                        Q1008=
201002102000 METAR LPPR 102000Z 05006KT 010V100 9999 SCT040 BKN080 08/06
                        Q1007=
201002101930 METAR LPPR 101930Z 09008KT 050V130 9999 SCT040 BKN080 08/06
                        Q1007=
201002101900 METAR LPPR 101900Z 09008KT 060V120 9999 SCT017 BKN040 08/06
                        Q1007=
201002101830 METAR LPPR 101830Z 08006KT 050V130 9999 FEW007 BKN030 09/07
                        Q1007=
201002101800 METAR LPPR 101800Z 07004KT 020V110 8000 FEW007 BKN030 09/08
                        Q1007=
201002101730 METAR LPPR 101730Z 08007KT 050V110 5000 BR SCT007 BKN020
                        09/08 Q1006=
201002101700 METAR LPPR 101700Z 07006KT 030V110 2000 -RADZ BR SCT006 BKN017
                        09/09 Q1006=
201002101630 METAR LPPR 101630Z 06004KT 010V100 2000 -DZ BR SCT006 BKN009
                        09/09 Q1006=
201002101600 METAR LPPR 101600Z 04004KT 020V090 3000 -RADZ BR BKN007 BKN020
                        10/09 Q1006=
201002101530 METAR LPPR 101530Z 06006KT 360V100 2000 -DZ BR BKN004 BKN009
                        10/09 Q1006=
201002101500 METAR LPPR 101500Z 06005KT 030V100 2000 -DZ BR SCT006 BKN020
                        10/09 Q1006=
201002101430 METAR LPPR 101430Z 06007KT 020V100 3000 -DZ BR SCT006 BKN020
                        10/08 Q1006=
201002101400 METAR LPPR 101400Z 06006KT 020V110 3000 -RADZ BR SCT007 BKN020
                        10/08 Q1006=
201002101330 METAR LPPR 101330Z 07005KT 020V110 3000 -RA BR SCT008 BKN020
                        10/08 Q1007=
201002101300 METAR LPPR 101300Z 09006KT 050V130 5000 -RA FEW009 OVC020
                        10/08 Q1007=
201002101230 METAR LPPR 101230Z 09007KT 040V120 8000 -RA BKN030 BKN070
                        10/08 Q1007=
201002101200 METAR LPPR 101200Z 10007KT 060V130 9000 -RA BKN035 BKN060
                        10/08 Q1007=
201002101130 METAR LPPR 101130Z 10008KT 080V140 8000 SCT035 BKN060 09/08
                        Q1007=
201002101100 METAR LPPR 101100Z 11007KT 6000 -RA FEW009 SCT025 BKN060
                        09/08 Q1008=
201002101030 METAR LPPR 101030Z 11007KT 070V130 5000 -RA BR SCT009 BKN025
                        09/08 Q1008=
201002101000 METAR LPPR 101000Z 11007KT 5000 -RA BR SCT009 BKN025 09/07
                        Q1008=
201002100930 METAR LPPR 100930Z 11009KT 4000 -RA BR SCT009 SCT011 BKN025
                        08/07 Q1007=
201002100900 METAR LPPR 100900Z 10008KT 5000 -RA BR BKN025 BKN080 08/07
                        Q1007=
201002100830 METAR LPPR 100830Z 12009KT 6000 -RA BKN025 BKN080 08/07 Q1007=
201002100800 METAR LPPR 100800Z 12009KT 6000 -RA SCT025 BKN080 08/07 Q1007=
201002100730 METAR LPPR 100730Z 12009KT 6000 -RA SCT013 SCT024 BKN080
                        09/07 Q1008=
201002100700 METAR LPPR 100700Z 12008KT 6000 -RA SCT013 SCT025 BKN080
                        09/07 Q1008=
201002100630 METAR LPPR 100630Z 11006KT 6000 -RA SCT015 SCT030 BKN080
                        09/07 Q1008=
201002100600 METAR LPPR 100600Z 11004KT 6000 -RA SCT015 SCT030 BKN080
                        09/08 Q1008=
201002100530 METAR LPPR 100530Z 10006KT 7000 FEW015 SCT035 BKN080 09/08
                        Q1008=
201002100500 METAR LPPR 100500Z 11006KT 8000 SCT080 BKN200 09/08 Q1008=
201002100430 METAR LPPR 100430Z 10006KT 8000 SCT080 BKN200 09/08 Q1008=
201002100400 METAR LPPR 100400Z 11006KT 7000 FEW080 BKN200 09/08 Q1008=
201002100330 METAR LPPR 100330Z 11006KT 7000 FEW080 BKN200 09/08 Q1008=
201002100300 METAR LPPR 100300Z 11006KT 8000 SCT090 BKN200 09/08 Q1009=
201002100230 METAR LPPR 100230Z 11005KT 8000 SCT090 BKN200 09/08 Q1009=
201002100200 METAR LPPR 100200Z 12006KT 8000 BKN090 09/08 Q1009=
201002100130 METAR LPPR 100130Z 11005KT 8000 BKN090 09/08 Q1009=
201002100100 METAR LPPR 100100Z VRB02KT 8000 BKN090 09/08 Q1010=
201002100030 METAR LPPR 100030Z VRB01KT 8000 BKN090 09/08 Q1010=
201002100000 METAR LPPR 100000Z VRB02KT CAVOK 10/08 Q1009=
201002092330 METAR LPPR 092330Z 10004KT CAVOK 09/08 Q1009=
201002092300 METAR LPPR 092300Z 00000KT CAVOK 09/08 Q1009=
201002092230 METAR LPPR 092230Z 35001KT CAVOK 09/08 Q1009=
201002092200 METAR LPPR 092200Z VRB02KT CAVOK 09/08 Q1010=
201002092130 METAR LPPR 092130Z 34002KT CAVOK 10/08 Q1009=
201002092100 METAR LPPR 092100Z VRB03KT CAVOK 10/08 Q1009=
201002092030 METAR LPPR 092030Z 35004KT 300V020 CAVOK 10/08 Q1009=
201002092000 METAR LPPR 092000Z 01004KT 320V030 CAVOK 11/08 Q1009=
201002091930 METAR LPPR 091930Z 32005KT CAVOK 11/08 Q1009=
201002091900 METAR LPPR 091900Z VRB03KT CAVOK 11/08 Q1009=
201002091830 METAR LPPR 091830Z 33006KT 9999 FEW017 BKN250 12/08 Q1008=
201002091800 METAR LPPR 091800Z 33006KT 9999 FEW017 BKN250 12/08 Q1008=
201002091730 METAR LPPR 091730Z 32009KT 9999 FEW017 BKN250 12/08 Q1008=
201002091700 METAR LPPR 091700Z 33011KT 9999 FEW017 SCT250 13/09 Q1008=
201002091630 METAR LPPR 091630Z 32011KT 9999 FEW017 14/09 Q1008=
201002091600 METAR LPPR 091600Z 33010KT 9999 FEW017 14/10 Q1008=
201002091530 METAR LPPR 091530Z 31012KT 290V350 9999 FEW017 14/10 Q1008=
201002091500 METAR LPPR 091500Z 31012KT 270V340 9999 FEW017 15/10 Q1008=
201002091430 METAR LPPR 091430Z 28010KT 240V320 9999 FEW017 15/10 Q1007=
201002091400 METAR LPPR 091400Z 31007KT 9999 SCT017 15/11 Q1008=
201002091330 METAR LPPR 091330Z 31009KT 9999 SCT017 15/11 Q1008=
201002091300 METAR LPPR 091300Z 28006KT 9999 SCT017 15/12 Q1008=
201002091230 METAR LPPR 091230Z VRB02KT 9999 BKN017 15/11 Q1008=
201002091200 METAR LPPR 091200Z 34007KT 320V020 9999 BKN015 14/11 Q1008=
201002091130 METAR LPPR 091130Z 34004KT 270V020 9999 FEW008 SCT015 14/12
                        Q1008=
201002091100 METAR LPPR 091100Z VRB03KT 9999 FEW008 SCT015 13/12 Q1008=
201002091030 METAR LPPR 091030Z VRB01KT 7000 FEW008 SCT015 12/12 Q1007=
201002091000 METAR LPPR 091000Z 09004KT 060V130 5000 BR FEW008 SCT015
                        11/11 Q1007=
201002090930 METAR LPPR 090930Z 11004KT 050V140 4000 BR FEW008 BKN015
                        10/10 Q1007=
201002090900 METAR LPPR 090900Z 11003KT 3000 BR FEW007 SCT012 BKN035 10/10
                        Q1007 RERA=
201002090830 METAR LPPR 090830Z VRB02KT 3000 -DZ BR SCT007 SCT012 SCT017
                        09/09 Q1007=
201002090800 METAR LPPR 090800Z VRB02KT 4000 BR SCT012 BKN020 09/09 Q1007=
201002090730 METAR LPPR 090730Z 15004KT 4000 BR SCT015 BKN025 09/09 Q1006=
201002090700 METAR LPPR 090700Z 14003KT 6000 SCT015 BKN035 09/09 Q1006=
201002090630 METAR LPPR 090630Z 00000KT 6000 SCT015 BKN035 08/08 Q1006=
201002090600 METAR LPPR 090600Z 00000KT 6000 FEW015 BKN035 08/07 Q1006=
201002090530 METAR LPPR 090530Z 00000KT 6000 FEW015 08/07 Q1005=
201002090500 METAR LPPR 090500Z 00000KT 6000 FEW015 07/07 Q1005=
201002090430 METAR LPPR 090430Z 00000KT 8000 FEW015 08/07 Q1005=
201002090400 METAR LPPR 090400Z 00000KT 8000 SCT015 SCT020 08/08 Q1005=
201002090330 METAR LPPR 090330Z VRB01KT 8000 SCT012 SCT020 09/08 Q1005=
201002090300 METAR LPPR 090300Z VRB01KT 8000 SCT012 SCT020 09/08 Q1005=
201002090230 METAR LPPR 090230Z VRB02KT 8000 SCT012 SCT020 09/09 Q1005=
201002090200 METAR LPPR 090200Z 00000KT 8000 SCT012 SCT020 09/08 Q1005=
201002090130 METAR LPPR 090130Z VRB01KT 8000 FEW012 SCT020 08/08 Q1005=
201002090100 METAR LPPR 090100Z 00000KT 8000 FEW012 SCT020 09/08 Q1005=
201002090030 METAR LPPR 090030Z 00000KT 8000 FEW012 SCT020 09/08 Q1005=
201002090000 METAR LPPR 090000Z 00000KT 9999 SCT012 SCT020 10/09 Q1005=
201002082330 METAR LPPR 082330Z 00000KT 9999 SCT012 SCT020 10/08 Q1005=
201002082300 METAR LPPR 082300Z 00000KT 9999 SCT012 SCT020 10/09 Q1005=
201002082230 METAR LPPR 082230Z 00000KT 9999 FEW012 SCT020 11/09 Q1005=
201002082200 METAR LPPR 082200Z VRB02KT 9999 SCT012 SCT017 11/09 Q1005=
201002082130 METAR LPPR 082130Z VRB02KT 9999 SCT012 SCT020 11/09 Q1004=
201002082100 METAR LPPR 082100Z 26002KT 9999 SCT012 SCT020 11/09 Q1004=
201002082030 METAR LPPR 082030Z VRB02KT 9999 SCT012 SCT020 11/10 Q1004=
201002082000 METAR LPPR 082000Z VRB03KT 9999 FEW008 SCT015 BKN020 11/10
                        Q1004=
201002081930 METAR LPPR 081930Z VRB03KT 9999 FEW008 SCT015 BKN025 11/10
                        Q1004=
201002081900 METAR LPPR 081900Z VRB03KT 9999 FEW006 SCT015 BKN025 12/10
                        Q1004=
201002081830 METAR LPPR 081830Z 26004KT 210V300 9999 FEW006 SCT015 BKN025
                        12/10 Q1003=
201002081800 METAR LPPR 081800Z 28005KT 260V320 9999 SCT015 SCT025 BKN250
                        12/10 Q1003=
201002081730 METAR LPPR 081730Z 28008KT 260V320 9999 SCT015 SCT025 BKN250
                        12/10 Q1003=
201002081700 METAR LPPR 081700Z VRB03KT 9999 SCT015 FEW017TCU BKN250 13/10
                        Q1003=
201002081630 METAR LPPR 081630Z VRB03KT 9999 SCT015 FEW017TCU SCT250 14/10
                        Q1003=
201002081600 METAR LPPR 081600Z 24004KT 170V270 9999 SCT015 FEW017TCU
                        SCT250 14/11 Q1003=
201002081530 METAR LPPR 081530Z 24005KT 140V280 9999 SCT015 FEW017TCU
                        SCT250 14/11 Q1003=
201002081500 METAR LPPR 081500Z 24005KT 210V270 9999 BKN015 FEW017TCU
                        15/11 Q1003=
201002081430 METAR LPPR 081430Z 23005KT 200V320 9999 SCT015 FEW017TCU
                        SCT080 15/10 Q1003=
201002081400 METAR LPPR 081400Z 26006KT 140V300 9999 SCT015 FEW017TCU
                        SCT080 15/10 Q1004=
201002081330 METAR LPPR 081330Z 24006KT 200V310 9999 SCT015 FEW017TCU
                        15/11 Q1004=
201002081300 METAR LPPR 081300Z 24006KT 210V270 9999 SCT015 SCT080 15/11
                        Q1004=
201002081230 METAR LPPR 081230Z 26006KT 230V300 9999 BKN015 15/11 Q1005=
201002081200 METAR LPPR 081200Z 27005G19KT 230V310 8000 BKN017 FEW020TCU
                        14/11 Q1005=
201002081130 METAR LPPR 081130Z 24004KT 200V290 8000 BKN017 FEW020TCU
                        15/11 Q1005=
201002081100 METAR LPPR 081100Z VRB03KT 6000 BKN017 FEW020TCU 14/11 Q1005=
201002081030 METAR COR LPPR 081030Z VRB03KT 5000 BR FEW006 BKN017 FEW020TCU
                        13/12 Q1005=
201002081000 METAR LPPR 081000Z VRB02KT 3000 BR FEW006 SCT017 FEW020TCU
                        13/13 Q1006=
201002080930 METAR LPPR 080930Z 00000KT 3000 BR FEW006 SCT017 FEW020TCU
                        13/13 Q1006=
201002080900 METAR LPPR 080900Z 00000KT 3000 BR FEW009 FEW017TCU 11/11
                        Q1006=
201002080830 METAR LPPR 080830Z 00000KT 2500 BR FEW015 SCT027 10/10 Q1006=
201002080800 METAR LPPR 080800Z 00000KT 2000 R17/0900VP1500 R35/1400VP1500
                        MIFG SCT013 SCT100 10/10 Q1005=
201002080730 METAR LPPR 080730Z 00000KT 2000 R17/1000VP1500 R35/P1500
                        MIFG FEW008 SCT015 BKN250 10/10 Q1005=
201002080700 METAR LPPR 080700Z 00000KT 3000 BR FEW007 SCT015 BKN250 11/11
                        Q1005=
201002080630 METAR LPPR 080630Z VRB01KT 6000 FEW007 SCT015 BKN030 12/11
                        Q1005=
201002080600 METAR LPPR 080600Z VRB02KT 5000 BR FEW008 SCT013 BKN030 12/12
                        Q1005=
201002080530 METAR COR LPPR 080530Z 27002KT 5000 BR SCT008 SCT015 13/12
                        Q1005=
201002080500 METAR LPPR 080500Z VRB02KT 7000 SCT008 BKN015 13/12 Q1006=
201002080430 METAR LPPR 080430Z VRB03KT 8000 SCT006 SCT013 BKN250 13/12
                        Q1006=
201002080400 METAR LPPR 080400Z 31004KT 8000 SCT005 BKN250 13/12 Q1006=
201002080330 METAR LPPR 080330Z 31005KT 9999 FEW006 SCT012 BKN250 13/12
                        Q1006=
201002080300 METAR LPPR 080300Z 31007KT 9999 SCT009 BKN012 13/13 Q1006=
201002080230 METAR LPPR 080230Z 29006KT 260V330 9000 OVC008 13/13 Q1006=
201002080200 METAR LPPR 080200Z 27005KT 240V310 7000 SCT004 BKN008 14/13
                        Q1006=
201002080130 METAR LPPR 080130Z 19008KT 160V260 6000 BKN004 BKN007 14/13
                        Q1006=
201002080100 METAR LPPR 080100Z 18011KT 7000 SCT003 BKN006 13/13 Q1006=
201002080030 METAR LPPR 080030Z 18013KT 9000 SCT004 BKN009 13/13 Q1006=
201002080000 METAR LPPR 080000Z 18013KT 9000 BKN004 BKN009 13/13 Q1007=
201002072330 METAR LPPR 072330Z 18012KT 9000 BKN004 BKN011 13/13 Q1006=
201002072300 METAR LPPR 072300Z 17013KT 8000 SCT004 BKN008 13/13 Q1007=
201002072230 METAR LPPR 072230Z 17012KT 7000 -DZ SCT007 BKN009 13/12 Q1007=
201002072200 METAR LPPR 072200Z 17012KT 5000 -RADZ BR BKN007 BKN011 13/12
                        Q1007=
201002072130 METAR LPPR 072130Z 16012KT 3000 RADZ BR SCT005 BKN009 BKN012
                        13/12 Q1007=
201002072100 METAR LPPR 072100Z 15011KT 110V170 3000 RA BR SCT004 BKN006
                        12/12 Q1007=
201002072030 METAR LPPR 072030Z 13008KT 3000 RADZ BR SCT006 BKN008 12/12
                        Q1007=
201002072000 METAR LPPR 072000Z 14008KT 4000 DZ BR BKN007 BKN011 12/12
                        Q1008=
201002071930 METAR LPPR 071930Z 14008KT 5000 DZ BR BKN009 BKN013 13/11
                        Q1008=
201002071900 METAR LPPR 071900Z 14011KT 7000 -RADZ BKN009 BKN017 13/11
                        Q1009=
201002071830 METAR LPPR 071830Z 15011KT 7000 -DZ BKN009 BKN017 13/11 Q1009=
201002071800 METAR LPPR 071800Z 15010KT 8000 FEW009 BKN020 BKN070 13/11
                        Q1009=
201002071730 METAR LPPR 071730Z 16013KT 9000 -RA BKN025 BKN070 14/10 Q1009=
201002071700 METAR LPPR 071700Z 16016KT 9999 SCT030 BKN070 14/10 Q1009=
201002071630 METAR LPPR 071630Z 15015KT 9999 SCT025 BKN080 14/10 Q1009=
201002071600 METAR LPPR 071600Z 17016KT 9999 SCT025 OVC090 15/10 Q1011=
201002071530 METAR LPPR 071530Z 17012KT 9999 BKN025 BKN080 15/10 Q1010=
201002071500 METAR LPPR 071500Z 17013KT 9999 SCT025 BKN080 15/10 Q1011=
201002071430 METAR LPPR 071430Z 16011KT 9999 BKN025 BKN080 15/10 Q1011=
201002071400 METAR LPPR 071400Z 18011KT 9999 BKN020 BKN070 15/10 Q1012=
201002071330 METAR LPPR 071330Z 18012KT 9999 BKN020 BKN070 15/10 Q1012=
201002071300 METAR LPPR 071300Z 16008KT 9999 FEW040 BKN080 BKN200 15/09
                        Q1012=
201002071230 METAR LPPR 071230Z 16010KT CAVOK 15/09 Q1013=
201002071200 METAR LPPR 071200Z 11009KT 080V140 CAVOK 14/09 Q1012=
201002071130 METAR LPPR 071130Z 12008KT 8000 BKN090 BKN200 13/09 Q1013=
201002071100 METAR LPPR 071100Z 13008KT 8000 BKN090 BKN200 12/09 Q1014=
201002071030 METAR LPPR 071030Z 11004KT 080V140 7000 BKN090 BKN200 12/09
                        Q1015=
201002071000 METAR LPPR 071000Z 15005KT 8000 BKN090 BKN200 12/09 Q1015=
201002070930 METAR LPPR 070930Z 11007KT 8000 BKN090 BKN200 11/09 Q1015=
201002070900 METAR LPPR 070900Z 12005KT 090V150 8000 BKN090 BKN200 11/09
                        Q1016=
201002070830 METAR LPPR 070830Z 12007KT 7000 BKN090 OVC200 11/09 Q1016=
201002070800 METAR LPPR 070800Z 12005KT 7000 BKN090 BKN200 11/09 Q1016=
201002070730 METAR LPPR 070730Z 12006KT 7000 SCT090 BKN200 11/09 Q1016=
201002070700 METAR LPPR 070700Z 10007KT 6000 FEW100 BKN200 11/09 Q1015=
201002070630 METAR LPPR 070630Z 11005KT 6000 FEW100 BKN200 10/09 Q1016=
201002070600 METAR LPPR 070600Z VRB03KT 6000 FEW100 BKN200 11/09 Q1016=
201002070530 METAR LPPR 070530Z 10009KT 6000 FEW100 BKN200 11/09 Q1015=
201002070500 METAR LPPR 070500Z 11006KT 6000 FEW100 BKN200 11/09 Q1017=
201002070430 METAR LPPR 070430Z 11007KT 6000 BKN200 11/09 Q1017=
201002070400 METAR LPPR 070400Z 10006KT 6000 BKN200 11/09 Q1018=
201002070330 METAR LPPR 070330Z 10006KT 6000 BKN200 11/09 Q1018=
201002070300 METAR LPPR 070300Z 11006KT 6000 BKN200 11/10 Q1018=
201002070230 METAR LPPR 070230Z 00000KT 6000 BKN200 11/09 Q1019=
201002070200 METAR LPPR 070200Z 10005KT 6000 BKN200 11/10 Q1019=
201002070130 METAR LPPR 070130Z 10005KT 6000 BKN200 11/10 Q1019=
201002070100 METAR LPPR 070100Z 11005KT 080V140 7000 FEW090 BKN200 11/10
                        Q1019=
201002070030 METAR LPPR 070030Z 10005KT 070V130 7000 FEW090 BKN200 11/10
                        Q1020=
201002070000 METAR LPPR 070000Z 00000KT 8000 FEW090 BKN200 10/09 Q1020=
201002062330 METAR LPPR 062330Z 11004KT 8000 FEW090 BKN200 11/10 Q1020=
201002062300 METAR LPPR 062300Z 10005KT 070V130 7000 SCT090 BKN200 11/10
                        Q1020=
201002062230 METAR LPPR 062230Z 10004KT 7000 SCT090 BKN200 11/10 Q1021=
201002062200 METAR LPPR 062200Z 00000KT 7000 SCT090 BKN200 11/10 Q1021=
201002062130 METAR LPPR 062130Z VRB03KT 6000 SCT090 BKN200 11/11 Q1021=
201002062100 METAR LPPR 062100Z 12003KT 6000 SCT090 BKN200 11/11 Q1022=
201002062030 METAR LPPR 062030Z 11003KT 5000 BR SCT080 BKN200 11/11 Q1022=
201002062000 METAR LPPR 062000Z 11002KT 4000N BR SCT080 BKN200 11/10 Q1022=
201002061930 METAR LPPR 061930Z 00000KT 4000N BR VCFG FEW017 SCT080 BKN200
                        11/10 Q1022=
201002061900 METAR LPPR 061900Z 00000KT 4000N BR VCFG FEW017 SCT080 BKN200
                        11/10 Q1022=
201002061830 METAR LPPR 061830Z 00000KT 3500N BR VCFG FEW017 SCT080 BKN200
                        12/11 Q1022=
201002061800 METAR LPPR 061800Z VRB02KT 5000 BR FEW017 SCT080 BKN200 14/11
                        Q1022=
201002061730 METAR LPPR 061730Z VRB03KT 9999 FEW017 SCT080 BKN200 14/11
                        Q1022=
201002061700 METAR LPPR 061700Z 19004KT 9999 FEW017 SCT040 BKN200 15/11
                        Q1022=
201002061630 METAR LPPR 061630Z 21004KT 180V250 9999 SCT017 SCT080 BKN200
                        15/11 Q1022=
201002061600 METAR LPPR 061600Z 19006KT 160V220 9999 SCT017 SCT080 BKN200
                        15/12 Q1022=
201002061530 METAR LPPR 061530Z 21006KT 9999 SCT017 SCT040 BKN200 15/12
                        Q1023=
201002061500 METAR LPPR 061500Z 21006KT 9999 SCT017 SCT040 BKN200 15/10
                        Q1023=
201002061430 METAR LPPR 061430Z 19006KT 9999 FEW009 SCT017 BKN200 15/11
                        Q1023=
201002061400 METAR LPPR 061400Z 20007KT 170V230 9999 FEW009 BKN017 15/12
                        Q1024=
201002061330 METAR LPPR 061330Z 20007KT 170V240 8000 BKN015 SCT070 15/12
                        Q1025=
201002061300 METAR LPPR 061300Z 20007KT 8000 BKN015 BKN070 15/12 Q1025=
201002061230 METAR LPPR 061230Z 22007KT 170V270 8000 SCT015 SCT080 15/12
                        Q1025=
201002061200 METAR LPPR 061200Z 19007KT 160V230 8000 FEW009 SCT015 16/12
                        Q1025=
201002061130 METAR LPPR 061130Z 17006KT 140V200 8000 FEW009 SCT015 15/12
                        Q1025=
201002061100 METAR LPPR 061100Z 18006KT 150V230 7000 FEW008 SCT015 15/12
                        Q1025=
201002061030 METAR LPPR 061030Z 17007KT 7000 FEW007 SCT013 14/13 Q1025=
201002061000 METAR LPPR 061000Z 16007KT 5000 BR FEW006 13/13 Q1025=
201002060930 METAR LPPR 060930Z 17007KT 4000 BR FEW005 13/12 Q1024=
201002060900 METAR LPPR 060900Z 16006KT 3000 BR SCT005 SCT015 12/11 Q1024=
201002060830 METAR LPPR 060830Z 15004KT 130V190 4000 BR SCT008 SCT015
                        11/10 Q1024=
201002060800 METAR LPPR 060800Z 16006KT 4000 BR SCT008 SCT015 11/11 Q1024=
201002060730 METAR LPPR 060730Z 14003KT 4000 BR SCT008 BKN014 11/10 Q1024=
201002060700 METAR LPPR 060700Z VRB02KT 4000 BR SCT005 SCT012 12/11 Q1024=
201002060630 METAR LPPR 060630Z 18005KT 4000 BR BKN005 BKN012 12/12 Q1024=
201002060600 METAR LPPR 060600Z 00000KT 6000 FEW012 SCT020 BKN040 12/12
                        Q1023=
201002060530 METAR LPPR 060530Z 20004KT 5000 BR SCT016 BKN040 12/12 Q1023=
201002060500 METAR LPPR 060500Z 16004KT 5000 BR SCT016 BKN040 12/12 Q1023=
201002060430 METAR LPPR 060430Z 16004KT 4000 BR SCT012 BKN030 11/11 Q1023=
201002060400 METAR LPPR 060400Z 17003KT 4000 BR SCT012 BKN030 11/11 Q1024=
201002060330 METAR LPPR 060330Z 20004KT 4000 BR SCT008 BKN030 12/11 Q1024=
201002060300 METAR LPPR 060300Z 18004KT 4000 -RADZ BR SCT008 BKN030 12/11
                        Q1024=
201002060230 METAR LPPR 060230Z 22006KT 190V260 4000 -RADZ BR SCT008 BKN030
                        12/11 Q1024=
201002060200 METAR LPPR 060200Z 21007KT 170V260 5000 -RADZ BR SCT008 BKN035
                        13/12 Q1024=
201002060130 METAR LPPR 060130Z 20004KT 9999 FEW017 BKN035 13/12 Q1024=
201002060100 METAR LPPR 060100Z 21003KT 9999 FEW017 BKN035 12/11 Q1024=
201002060030 METAR LPPR 060030Z VRB03KT 9999 FEW017 BKN035 12/10 Q1024=
201002060000 METAR LPPR 060000Z 21004KT 9999 FEW017 BKN035 12/10 Q1024=
201002052330 METAR LPPR 052330Z VRB03KT 9999 SCT017 12/10 Q1024=
201002052300 METAR LPPR 052300Z VRB03KT 9999 SCT017 12/10 Q1024=
201002052230 METAR LPPR 052230Z VRB03KT 9999 SCT017 12/10 Q1023=
201002052200 METAR LPPR 052200Z 25004KT 220V290 9999 SCT017 13/09 Q1023=
201002052130 METAR LPPR 052130Z 24004KT 9999 SCT017 SCT030 13/11 Q1023=
201002052100 METAR LPPR 052100Z 23005KT 170V260 9999 SCT017 13/10 Q1023=
201002052030 METAR LPPR 052030Z 23004KT 200V270 9999 FEW017 13/10 Q1023=
201002052000 METAR LPPR 052000Z VRB05G16KT 9999 FEW017 13/09 Q1023=
201002051930 METAR LPPR 051930Z 25006KT 200V310 9999 FEW017 SCT035 13/09
                        Q1022=
201002051900 METAR LPPR 051900Z 23007KT 190V270 9999 SCT017 13/10 Q1022=
201002051830 METAR LPPR 051830Z 25007KT 200V270 9999 SCT017 13/09 Q1022=
201002051800 METAR LPPR 051800Z 24006KT 210V280 9999 SCT017 13/10 Q1022=
201002051730 METAR LPPR 051730Z 25006KT 210V300 9999 FEW015 14/09 Q1021=
201002051700 METAR LPPR 051700Z 24008KT 210V270 9999 FEW015 14/10 Q1021=
201002051630 METAR LPPR 051630Z 23007KT 200V260 9999 FEW015 14/11 Q1021=
201002051600 METAR LPPR 051600Z 24005KT 210V300 9999 SCT015 SCT035 13/11
                        Q1021=
201002051530 METAR LPPR 051530Z 25011KT 6000 -SHRA SCT015 BKN025 15/10
                        Q1020=
201002051500 METAR LPPR 051500Z 24012KT 210V270 9999 SCT015 15/10 Q1020=
201002051430 METAR LPPR 051430Z 23012KT 200V260 9999 FEW015 15/10 Q1020=
201002051400 METAR LPPR 051400Z 23011KT 200V270 9999 FEW015 15/10 Q1020=
201002051330 METAR LPPR 051330Z 23012KT 200V260 9999 FEW015 15/10 Q1020=
201002051300 METAR LPPR 051300Z 23010KT 200V260 9999 SCT015 15/11 Q1020=
201002051230 METAR LPPR 051230Z 23012KT 190V260 9999 FEW018 14/10 Q1020=
201002051200 METAR LPPR 051200Z 23009KT 190V260 9999 FEW015 BKN045 14/10
                        Q1020=
201002051130 METAR LPPR 051130Z 23012KT 210V270 9999 -SHRA FEW015 BKN040
                        14/09 Q1020=
201002051100 METAR LPPR 051100Z 24010KT 190V260 9999 FEW015 BKN040 14/09
                        Q1019=
201002051030 METAR LPPR 051030Z 23010KT 160V260 9999 FEW015 BKN035 13/10
                        Q1019=
201002051000 METAR LPPR 051000Z 23006KT 130V280 9999 FEW015 BKN035 12/10
                        Q1018=
201002050930 METAR LPPR 050930Z 23004KT 180V280 9999 FEW015 SCT035 11/09
                        Q1018 RERA=
201002050900 METAR LPPR 050900Z 27015KT 230V300 4000 SHRA SCT015 BKN030
                        12/09 Q1018 WS ALL RWY=
201002050830 METAR LPPR 050830Z 23011KT 190V260 9999 VCSH SCT015 FEW020TCU
                        BKN025 13/08 Q1017=
201002050800 METAR LPPR 050800Z 22009KT 180V250 9999 FEW015 SCT030 12/08
                        Q1016=
201002050730 METAR LPPR 050730Z 25007KT 190V320 9999 SCT018 12/08 Q1016=
201002050700 METAR LPPR 050700Z 24008KT 220V320 9999 FEW015 BKN030 13/08
                        Q1016=
201002050630 METAR LPPR 050630Z 25009KT 220V280 9999 FEW015 BKN030 12/08
                        Q1016=
201002050600 METAR LPPR 050600Z 23010G20KT 200V270 9999 SCT017 SCT035
                        12/09 Q1015=
201002050530 METAR LPPR 050530Z 23009KT 200V260 9999 SCT015 12/09 Q1015=
201002050500 METAR LPPR 050500Z 24007KT 210V280 9999 SCT015 12/08 Q1015=
201002050430 METAR LPPR 050430Z 22010KT 9999 SCT015 BKN080 12/08 Q1015=
201002050400 METAR LPPR 050400Z 24011G22KT 9999 SCT015 SCT030 BKN070 13/08
                        Q1014=
201002050330 METAR LPPR 050330Z 24010KT 210V270 9999 SCT015 BKN080 12/08
                        Q1014=
201002050300 METAR LPPR 050300Z 25011KT 210V290 9999 SCT015 SCT030 12/07
                        Q1014=
201002050230 METAR LPPR 050230Z 24004KT 210V270 9999 FEW015 SCT030 BKN080
                        11/08 Q1014=
201002050200 METAR LPPR 050200Z 25009KT 210V280 4000 SHRA SCT015 SCT020
                        12/08 Q1014 WS ALL RWY=
201002050130 METAR LPPR 050130Z 24009KT 200V270 9999 FEW015 SCT080 12/07
                        Q1013=
201002050100 METAR LPPR 050100Z 24011KT 9999 FEW015 12/07 Q1013=
201002050030 METAR LPPR 050030Z 24011KT 200V270 9999 FEW015 SCT060 12/06
                        Q1013=
201002050000 METAR LPPR 050000Z 23011KT 200V260 9999 SCT015 SCT025 12/07
                        Q1013=
201002042330 METAR LPPR 042330Z 24011KT 200V260 9999 SCT015 SCT025 13/08
                        Q1013=
201002042300 METAR LPPR 042300Z 24008KT 200V260 9999 SCT015 SCT025 12/08
                        Q1013=
201002042230 METAR LPPR 042230Z 25008KT 220V280 9999 SCT015 SCT060 12/07
                        Q1012=
201002042200 METAR LPPR 042200Z 24007KT 160V270 9999 SCT015 12/09 Q1012=
201002042130 METAR LPPR 042130Z 25008KT 210V310 9999 FEW017 SCT025 BKN070
                        13/09 Q1012=
201002042100 METAR LPPR 042100Z 26008KT 220V320 9999 FEW017 SCT025 BKN060
                        13/09 Q1012=
201002042030 METAR LPPR 042030Z 26008KT 230V310 9999 FEW015 BKN025 12/09
                        Q1011=
201002042000 METAR LPPR 042000Z 27011KT 230V300 9999 FEW015 BKN025 13/09
                        Q1011=
201002041930 METAR LPPR 041930Z 25009KT 210V290 9999 FEW017 SCT025 BKN050
                        13/09 Q1010=
201002041900 METAR LPPR 041900Z 24008KT 210V270 9999 SCT015 BKN045 12/10
                        Q1010=
201002041830 METAR LPPR 041830Z 26008KT 210V300 8000 SCT015 BKN040 12/10
                        Q1009=
201002041800 METAR LPPR 041800Z 28013G26KT 250V320 8000 SCT015 BKN030
                        12/10 Q1009=
201002041730 METAR LPPR 041730Z 28017G29KT 4000 -SHRA BR FEW009 BKN013
                        12/11 Q1008 RERA WS ALL RWY=
201002041700 METAR LPPR 041700Z 23012KT 180V260 8000 FEW009 SCT012 BKN030
                        14/13 Q1008=
201002041630 METAR LPPR 041630Z 23013G25KT 190V280 7000 FEW009 SCT012
                        BKN030 14/13 Q1007 WS ALL RWY=
201002041600 METAR LPPR 041600Z 20018KT 4000 -RA BR SCT005 BKN009 BKN015
                        14/13 Q1007=
201002041530 METAR LPPR 041530Z 19018KT 8000 SCT005 BKN009 BKN016 14/13
                        Q1007=
201002041500 METAR LPPR 041500Z 19019KT 8000 SCT005 BKN009 BKN015 14/14
                        Q1007=
201002041430 METAR LPPR 041430Z 19019KT 8000 SCT005 BKN009 BKN015 14/13
                        Q1007=
201002041400 METAR LPPR 041400Z 18020KT 8000 SCT005 SCT009 BKN018 15/14
                        Q1007=
201002041330 METAR LPPR 041330Z 19019KT 8000 SCT005 BKN008 BKN016 14/13
                        Q1007=
201002041300 METAR LPPR 041300Z 19021KT 8000 SCT005 BKN008 BKN016 14/13
                        Q1008 WS ALL RWY=
201002041230 METAR LPPR 041230Z 18021KT 8000 SCT004 BKN007 14/13 Q1008=
201002041200 METAR LPPR 041200Z 18021KT 8000 SCT004 BKN007 14/13 Q1008=
201002041130 METAR LPPR 041130Z 18019KT 5000 -RA BR SCT005 BKN008 14/13
                        Q1009=
201002041100 METAR LPPR 041100Z 17019KT 5000 BR SCT005 BKN007 13/13 Q1008=
201002041030 METAR LPPR 041030Z 17019KT 6000 SCT004 BKN007 13/12 Q1008=
201002041000 METAR LPPR 041000Z 18018KT 5000 BR SCT004 BKN007 13/12 Q1008=
201002040930 METAR LPPR 040930Z 17016KT 5000 BR SCT004 BKN007 13/12 Q1008=
201002040900 METAR LPPR 040900Z 18016KT 6000 SCT005 BKN008 13/12 Q1008=
201002040830 METAR LPPR 040830Z 17013KT 7000 SCT005 BKN008 12/12 Q1008=
201002040800 METAR LPPR 040800Z 17015KT 7000 SCT005 BKN008 12/12 Q1008=
201002040730 METAR LPPR 040730Z 15008KT 6000 -RA SCT006 BKN008 11/11 Q1009=
201002040700 METAR LPPR 040700Z 12008KT 5000 BR SCT005 BKN008 11/10 Q1008=
201002040630 METAR LPPR 040630Z 13006KT 4000 -DZ BR SCT005 BKN008 11/09
                        Q1008=
201002040600 METAR LPPR 040600Z 12006KT 8000 SCT008 BKN013 11/08 Q1008=
201002040530 METAR LPPR 040530Z 12007KT 9999 SCT008 BKN013 11/08 Q1009=
201002040500 METAR LPPR 040500Z 12006KT 9999 BKN012 SCT015 11/07 Q1009=
201002040430 METAR LPPR 040430Z 12006KT 9999 BKN012 SCT014 11/07 Q1008=
201002040400 METAR LPPR 040400Z 13005KT 9999 BKN013 SCT015 12/06 Q1009=
201002040330 METAR LPPR 040330Z 12007KT 9999 BKN013 SCT017 12/05 Q1009=
201002040300 METAR LPPR 040300Z 14003KT 9999 BKN013 SCT017 12/06 Q1009=
201002040230 METAR LPPR 040230Z 14004KT 9999 BKN015 SCT020 12/06 Q1010=
201002040200 METAR LPPR 040200Z 12006KT 9999 BKN017 SCT025 12/05 Q1010=
201002040130 METAR LPPR 040130Z VRB03KT 9999 BKN020 SCT030 12/05 Q1010=
201002040100 METAR LPPR 040100Z 13005KT 8000 BKN025 SCT035 12/05 Q1010=
201002040030 METAR LPPR 040030Z 13005KT 8000 BKN025 SCT035 12/05 Q1011=
201002040000 METAR LPPR 040000Z 13005KT 8000 BKN030 SCT080 12/05 Q1011=
201002032330 METAR LPPR 032330Z 13004KT 8000 BKN030 BKN080 12/05 Q1011=
201002032300 METAR LPPR 032300Z 12006KT 8000 BKN030 BKN080 13/04 Q1011=
201002032230 METAR LPPR 032230Z 11006KT 8000 BKN030 BKN080 13/04 Q1011=
201002032200 METAR LPPR 032200Z 12006KT 8000 BKN030 BKN080 13/04 Q1011=
201002032130 METAR LPPR 032130Z 11005KT 9999 BKN030 BKN080 13/04 Q1011=
201002032100 METAR LPPR 032100Z 12005KT 9999 BKN030 BKN080 13/04 Q1012=
201002032030 METAR LPPR 032030Z 11006KT 8000 SCT035 BKN080 13/04 Q1012=
201002032000 METAR LPPR 032000Z 11004KT 8000 SCT030 BKN080 13/04 Q1012=
201002031930 METAR LPPR 031930Z 11004KT 8000 SCT035 BKN080 14/04 Q1012=
201002031900 METAR LPPR 031900Z 11004KT 8000 SCT035 BKN080 14/04 Q1012=
201002031830 METAR LPPR 031830Z 12003KT 8000 SCT035 BKN070 14/04 Q1012=
201002031800 METAR LPPR 031800Z 12005KT 8000 SCT035 BKN060 14/04 Q1012=
201002031730 METAR LPPR 031730Z VRB02KT 9999 FEW035 BKN055 15/05 Q1012=
201002031700 METAR LPPR 031700Z 09004KT 060V120 9999 SCT035 BKN055 15/04
                        Q1012=
201002031630 METAR LPPR 031630Z 11003KT 9999 SCT035 BKN060 15/04 Q1013=
201002031600 METAR LPPR 031600Z VRB03KT 9999 SCT035 BKN060 16/04 Q1013=
201002031530 METAR LPPR 031530Z 07004KT 020V100 9999 SCT035 BKN060 16/04
                        Q1013=
201002031500 METAR LPPR 031500Z 08004KT 040V120 9999 SCT035 BKN060 16/04
                        Q1013=
201002031430 METAR LPPR 031430Z 09004KT 040V130 9999 FEW035 BKN060 16/04
                        Q1014=
201002031400 METAR LPPR 031400Z 10005KT 050V140 CAVOK 16/04 Q1014=
201002031330 METAR LPPR 031330Z 11007KT CAVOK 15/04 Q1015=
201002031300 METAR LPPR 031300Z 10008KT 070V130 CAVOK 15/03 Q1015=
201002031230 METAR LPPR 031230Z 10009KT 080V140 CAVOK 15/03 Q1016=
201002031200 METAR LPPR 031200Z 11008KT 080V150 CAVOK 13/02 Q1016=
201002031130 METAR LPPR 031130Z 12009KT CAVOK 13/02 Q1016=
201002031100 METAR LPPR 031100Z 10007KT 070V140 CAVOK 12/01 Q1017=
201002031030 METAR LPPR 031030Z 11009KT CAVOK 10/01 Q1017=
201002031000 METAR LPPR 031000Z 10008KT CAVOK 09/01 Q1018=
201002030930 METAR LPPR 030930Z 10008KT CAVOK 08/01 Q1017=
201002030900 METAR LPPR 030900Z 09005KT 050V120 CAVOK 07/00 Q1017=
201002030830 METAR LPPR 030830Z 08004KT 040V120 CAVOK 07/01 Q1017=
201002030800 METAR LPPR 030800Z 10009KT 080V140 CAVOK 07/01 Q1017=
201002030730 METAR LPPR 030730Z 11009KT CAVOK 07/01 Q1017=
201002030700 METAR LPPR 030700Z 10009KT CAVOK 07/01 Q1017=
201002030630 METAR LPPR 030630Z 10010KT CAVOK 07/01 Q1017=
201002030600 METAR LPPR 030600Z 10009KT CAVOK 07/01 Q1018=
201002030530 METAR LPPR 030530Z 11010KT CAVOK 07/02 Q1018=
201002030500 METAR LPPR 030500Z 11009KT CAVOK 07/02 Q1018=
201002030430 METAR LPPR 030430Z 11010KT CAVOK 07/02 Q1018=
201002030400 METAR LPPR 030400Z 11009KT CAVOK 07/02 Q1018=
201002030330 METAR LPPR 030330Z 11010KT CAVOK 08/02 Q1018=
201002030300 METAR LPPR 030300Z 11009KT CAVOK 08/02 Q1019=
201002030230 METAR LPPR 030230Z 11008KT CAVOK 08/02 Q1019=
201002030200 METAR LPPR 030200Z 11009KT CAVOK 08/02 Q1019=
201002030130 METAR LPPR 030130Z 10009KT CAVOK 08/02 Q1019=
201002030100 METAR LPPR 030100Z 10009KT CAVOK 08/02 Q1019=
201002030030 METAR LPPR 030030Z 10008KT CAVOK 08/03 Q1019=
201002030000 METAR LPPR 030000Z 11008KT 9000 SKC 09/03 Q1020=
201002022330 METAR LPPR 022330Z 11008KT 8000 SKC 09/03 Q1020=
201002022300 METAR LPPR 022300Z 10007KT 8000 SKC 09/03 Q1020=
201002022230 METAR LPPR 022230Z 11005KT 7000 SKC 09/03 Q1020=
201002022200 METAR LPPR 022200Z 10006KT 7000 SKC 09/04 Q1020=
201002022130 METAR LPPR 022130Z 10005KT 8000 SKC 08/04 Q1020=
201002022100 METAR LPPR 022100Z 08001KT 8000 SKC 07/03 Q1020=
201002022030 METAR LPPR 022030Z 00000KT CAVOK 07/03 Q1020=
201002022000 METAR LPPR 022000Z VRB01KT CAVOK 07/03 Q1020=
201002021930 METAR LPPR 021930Z 03002KT CAVOK 07/03 Q1020=
201002021900 METAR LPPR 021900Z 03001KT CAVOK 08/04 Q1020=
201002021830 METAR LPPR 021830Z 00000KT CAVOK 10/04 Q1020=
201002021800 METAR LPPR 021800Z 00000KT CAVOK 12/03 Q1019=
201002021730 METAR LPPR 021730Z 32003KT CAVOK 13/03 Q1019=
201002021700 METAR LPPR 021700Z 32003KT CAVOK 15/02 Q1019=
201002021630 METAR LPPR 021630Z VRB03KT CAVOK 16/02 Q1019=
201002021600 METAR LPPR 021600Z VRB03KT CAVOK 16/02 Q1019=
201002021530 METAR LPPR 021530Z VRB03KT CAVOK 16/03 Q1020=
201002021500 METAR LPPR 021500Z 28004KT 230V340 CAVOK 16/03 Q1020=
201002021430 METAR LPPR 021430Z 00000KT CAVOK 17/01 Q1020=
201002021400 METAR LPPR 021400Z VRB02KT CAVOK 16/01 Q1021=
201002021330 METAR LPPR 021330Z VRB03KT CAVOK 16/02 Q1021=
201002021300 METAR LPPR 021300Z 10005KT 080V140 CAVOK 15/03 Q1022=
201002021230 METAR LPPR 021230Z 12006KT CAVOK 14/03 Q1022=
201002021200 METAR LPPR 021200Z 11007KT CAVOK 13/02 Q1022=
201002021130 METAR LPPR 021130Z 12011KT CAVOK 12/02 Q1022=
201002021100 METAR LPPR 021100Z 11010KT CAVOK 11/02 Q1022=
201002021030 METAR LPPR 021030Z 10009KT CAVOK 10/01 Q1022=
201002021000 METAR LPPR 021000Z 11007KT CAVOK 09/01 Q1022=
201002020930 METAR LPPR 020930Z 10007KT 060V130 CAVOK 08/00 Q1023=
201002020900 METAR LPPR 020900Z 10007KT CAVOK 07/00 Q1022=
201002020830 METAR LPPR 020830Z 11008KT CAVOK 07/M00 Q1022=
201002020800 METAR LPPR 020800Z 11007KT CAVOK 06/M00 Q1022=
201002020730 METAR LPPR 020730Z 10008KT CAVOK 07/M00 Q1022=
201002020700 METAR LPPR 020700Z 11009KT CAVOK 07/M00 Q1022=
201002020630 METAR LPPR 020630Z 10010KT CAVOK 07/M00 Q1022=
201002020600 METAR LPPR 020600Z 11009KT CAVOK 07/M00 Q1022=
201002020530 METAR LPPR 020530Z 10009KT CAVOK 07/M00 Q1022=
201002020500 METAR LPPR 020500Z 11008KT CAVOK 07/00 Q1022=
201002020430 METAR LPPR 020430Z 11009KT CAVOK 08/M00 Q1022=
201002020400 METAR LPPR 020400Z 10009KT CAVOK 08/00 Q1022=
201002020330 METAR LPPR 020330Z 11007KT CAVOK 07/00 Q1022=
201002020300 METAR LPPR 020300Z 11007KT CAVOK 08/00 Q1023=
201002020230 METAR LPPR 020230Z 10006KT CAVOK 08/00 Q1023=
201002020200 METAR LPPR 020200Z 10007KT CAVOK 08/01 Q1023=
201002020130 METAR LPPR 020130Z 10008KT CAVOK 08/01 Q1022=
201002020100 METAR LPPR 020100Z 10008KT CAVOK 08/01 Q1023=
201002020030 METAR LPPR 020030Z 10008KT CAVOK 08/01 Q1023=
201002020000 METAR LPPR 020000Z 10007KT CAVOK 08/01 Q1023=
201002012330 METAR LPPR 012330Z 10005KT CAVOK 08/02 Q1023=
201002012300 METAR LPPR 012300Z 10005KT CAVOK 08/02 Q1023=
201002012230 METAR LPPR 012230Z 00000KT CAVOK 04/02 Q1023=
201002012200 METAR LPPR 012200Z VRB03KT CAVOK 06/03 Q1023=
201002012130 METAR LPPR 012130Z 05002KT CAVOK 07/03 Q1023=
201002012100 METAR LPPR 012100Z 04002KT CAVOK 07/03 Q1023=
201002012030 METAR LPPR 012030Z 05003KT CAVOK 07/04 Q1022=
201002012000 METAR LPPR 012000Z VRB02KT CAVOK 07/04 Q1022=
201002011930 METAR LPPR 011930Z 02002KT CAVOK 08/04 Q1022=
201002011900 METAR LPPR 011900Z VRB02KT CAVOK 09/04 Q1022=
201002011830 METAR LPPR 011830Z 36003KT CAVOK 09/04 Q1022=
201002011800 METAR LPPR 011800Z 36004KT CAVOK 10/05 Q1021=
201002011730 METAR LPPR 011730Z VRB02KT CAVOK 14/01 Q1021=
201002011700 METAR LPPR 011700Z VRB03KT CAVOK 14/00 Q1021=
201002011630 METAR LPPR 011630Z 09004KT 020V140 CAVOK 15/01 Q1021=
201002011600 METAR LPPR 011600Z VRB03KT CAVOK 15/M00 Q1021=
201002011530 METAR LPPR 011530Z 07005KT 030V100 CAVOK 15/00 Q1021=
201002011500 METAR LPPR 011500Z 10006KT 060V120 CAVOK 15/01 Q1020=
201002011430 METAR LPPR 011430Z 07005KT 020V120 CAVOK 14/01 Q1020=
201002011400 METAR LPPR 011400Z 07005KT 020V130 CAVOK 14/02 Q1020=
201002011330 METAR LPPR 011330Z 13006KT 100V160 CAVOK 14/02 Q1021=
201002011300 METAR LPPR 011300Z 10006KT 070V130 CAVOK 13/02 Q1021=
201002011230 METAR LPPR 011230Z 08005KT 330V140 CAVOK 12/03 Q1021=
201002011200 METAR LPPR 011200Z 03006KT 360V060 CAVOK 10/03 Q1021=
201002011130 METAR LPPR 011130Z 04006KT 010V080 CAVOK 10/03 Q1022=
201002011100 METAR LPPR 011100Z 03005KT 360V080 CAVOK 09/03 Q1021=
201002011030 METAR LPPR 011030Z 05004KT 010V100 CAVOK 09/03 Q1021=
201002011000 METAR LPPR 011000Z VRB02KT CAVOK 08/04 Q1021=
201002010930 METAR LPPR 010930Z 05005KT 010V090 CAVOK 06/03 Q1021=
201002010900 METAR LPPR 010900Z 06004KT 020V090 CAVOK 05/02 Q1020=
201002010830 METAR LPPR 010830Z VRB02KT CAVOK 04/02 Q1020=
201002010800 METAR LPPR 010800Z 06004KT CAVOK 04/02 Q1020=
201002010730 METAR LPPR 010730Z 08004KT CAVOK 04/02 Q1020=
201002010700 METAR LPPR 010700Z 03003KT CAVOK 04/03 Q1019=
201002010630 METAR LPPR 010630Z 03005KT CAVOK 04/03 Q1019=
201002010600 METAR LPPR 010600Z 02005KT CAVOK 04/03 Q1018=
201002010530 METAR LPPR 010530Z 02005KT CAVOK 04/04 Q1018=
201002010500 METAR LPPR 010500Z 02005KT CAVOK 04/04 Q1018=
201002010430 METAR LPPR 010430Z 35006KT CAVOK 04/04 Q1018=
201002010400 METAR LPPR 010400Z 02004KT CAVOK 04/04 Q1017=
201002010330 METAR LPPR 010330Z 04002KT CAVOK 04/03 Q1017=
201002010300 METAR LPPR 010300Z VRB02KT CAVOK 03/03 Q1017=
201002010230 METAR LPPR 010230Z 04002KT CAVOK 03/02 Q1017=
201002010200 METAR LPPR 010200Z 36003KT CAVOK 03/03 Q1017=
201002010130 METAR LPPR 010130Z 35002KT CAVOK 04/04 Q1016=
201002010100 METAR LPPR 010100Z 00000KT CAVOK 05/04 Q1016=
201002010030 METAR LPPR 010030Z VRB02KT CAVOK 05/05 Q1016=
201002010000 METAR LPPR 010000Z VRB01KT CAVOK 05/04 Q1016=
