##########################################################
# Query made at 11/07/2014 16:59:25 UTC
# Time interval: from 02/01/2012 00:00  to 03/02/2012 23:59  UTC
##########################################################

##########################################################
# LPPR, Porto / Pedras Rubras (Portugal)
# WMO index: 08545
# Latitude 41-14N. Longitude 008-41W. Altitude 69 m.
##########################################################

###################################
#  METAR/SPECI from LPPR
###################################
201203022330 METAR LPPR 022330Z 21005KT 180V250 9999 FEW009 SCT015 12/10
                        Q1028=
201203022300 METAR LPPR 022300Z 19007KT 9999 FEW008 SCT012 12/11 Q1028=
201203022230 METAR LPPR 022230Z 18005KT 9999 FEW009 SCT016 BKN035 11/10
                        Q1028=
201203022200 METAR LPPR 022200Z 17006KT 9000 FEW010 SCT020 BKN040 11/10
                        Q1027=
201203022130 METAR LPPR 022130Z 17007KT 9999 SCT015 11/10 Q1027=
201203022100 METAR LPPR 022100Z 17006KT 9999 FEW015 11/10 Q1027=
201203022030 METAR LPPR 022030Z 19005KT 9999 FEW015 10/10 Q1027=
201203022000 METAR LPPR 022000Z 21003KT 9999 FEW016 11/10 Q1027=
201203021930 METAR LPPR 021930Z 22003KT 190V260 9999 FEW012 12/10 Q1027=
201203021900 METAR LPPR 021900Z 22003KT 190V250 9999 FEW010 FEW016TCU
                        BKN047 12/10 Q1026=
201203021830 METAR LPPR 021830Z 19003KT 9999 FEW010 FEW016TCU SCT045 13/10
                        Q1026=
201203021800 METAR LPPR 021800Z 20004KT 9999 VCSH FEW008 FEW016TCU BKN045
                        13/11 Q1026=
201203021730 METAR LPPR 021730Z 21006KT 180V260 8000 -SHRA FEW008 BKN018
                        FEW019TCU BKN045 13/10 Q1026=
201203021700 METAR LPPR 021700Z 22006KT 190V260 9999 FEW008 FEW018TCU
                        BKN022 BKN042 14/11 Q1026=
201203021630 METAR LPPR 021630Z 23008KT 200V260 9999 FEW009 SCT014TCU
                        BKN028 14/11 Q1026=
201203021600 METAR LPPR 021600Z 23007KT 180V270 9999 FEW012 SCT014 BKN019
                        15/11 Q1026=
201203021530 METAR LPPR 021530Z 22007KT 160V280 9999 BKN014 BKN020 15/11
                        Q1025=
201203021500 METAR LPPR 021500Z 19008KT 160V220 9999 SCT016 BKN020 BKN040
                        14/10 Q1026=
201203021430 METAR LPPR 021430Z 22006KT 180V270 9999 SCT017 BKN020 BKN030
                        15/10 Q1026=
201203021400 METAR LPPR 021400Z 21007KT 170V260 9999 SCT017 SCT025 15/10
                        Q1026=
201203021330 METAR LPPR 021330Z 22006KT 180V270 9999 FEW019 SCT024 15/10
                        Q1026=
201203021300 METAR LPPR 021300Z 24006KT 180V270 9999 FEW017 SCT023 15/10
                        Q1026=
201203021230 METAR LPPR 021230Z 19006KT 120V230 9999 FEW013 BKN028 14/10
                        Q1026=
201203021200 METAR LPPR 021200Z 23006KT 200V270 9000 FEW010 BKN028 15/11
                        Q1026=
201203021130 METAR LPPR 021130Z 20004KT 150V260 9000 SCT015 BKN018 BKN022
                        14/10 Q1026=
201203021100 METAR LPPR 021100Z 16004KT 130V190 9000 FEW009 BKN015 14/09
                        Q1026=
201203021030 METAR LPPR 021030Z 16004KT 110V210 6000 FEW009 SCT013 BKN015
                        13/10 Q1026=
201203021000 METAR LPPR 021000Z 14006KT 5000 BR FEW013 13/09 Q1026=
201203020930 METAR LPPR 020930Z 13006KT 4100 BR SCT008 11/09 Q1026=
201203020900 METAR LPPR 020900Z 12006KT 4000 BR FEW009 10/08 Q1025=
201203020830 METAR LPPR 020830Z 12006KT 4000 BR FEW009 SCT020 09/08 Q1025=
201203020800 METAR LPPR 020800Z 11007KT 3500 BR FEW009 SCT019 09/08 Q1025=
201203020730 METAR LPPR 020730Z 12006KT 3500 BR FEW008 BKN018 09/08 Q1025=
201203020700 METAR LPPR 020700Z 12008KT 4000 BR FEW009 BKN018 09/08 Q1024=
201203020630 METAR LPPR 020630Z 00000KT 4000 BR FEW008 BKN012 08/08 Q1024=
201203020600 METAR LPPR 020600Z VRB01KT 4000 BR BKN011 08/07 Q1024=
201203020530 METAR LPPR 020530Z 11006KT 3500 BR SCT010 08/07 Q1024=
201203020500 METAR LPPR 020500Z 12005KT 4000 BR FEW007 BKN011 08/07 Q1024=
201203020430 METAR LPPR 020430Z VRB02KT 3500 BR FEW007 SCT011 07/07 Q1023=
201203020400 METAR LPPR 020400Z VRB02KT 4000 BR FEW007 SCT011 09/08 Q1023=
201203020330 METAR LPPR 020330Z 16002KT 4000 BR SCT011 08/08 Q1023=
201203020300 METAR LPPR 020300Z 00000KT 4000 BR FEW008 BKN011 09/09 Q1023=
201203020230 METAR LPPR 020230Z 10001KT 4000 BR BKN012 09/08 Q1023=
201203020200 METAR LPPR 020200Z VRB02KT 6000 OVC011 10/09 Q1023=
201203020130 METAR LPPR 020130Z VRB02KT 4000 BR BKN010 09/09 Q1024=
201203020100 METAR LPPR 020100Z 00000KT 4000 BR BKN010 09/08 Q1024=
201203020030 METAR LPPR 020030Z 00000KT 4000 BR BKN011 09/08 Q1023=
201203020000 METAR LPPR 020000Z 00000KT 4000 BR FEW009 BKN012 09/08 Q1024=
201203012330 METAR LPPR 012330Z VRB01KT 4000 BR FEW008 BKN011 08/08 Q1024=
201203012300 METAR LPPR 012300Z 21001KT 3000 BR FEW008 SCT012 09/08 Q1024=
201203012230 METAR LPPR 012230Z VRB01KT 4600 BR SCT008 BKN011 08/08 Q1024=
201203012200 METAR LPPR 012200Z VRB01KT 4000 BR FEW007 BKN009 08/08 Q1024=
201203012130 METAR LPPR 012130Z 00000KT 4000 BR FEW007 SCT009 09/08 Q1024=
201203012100 METAR LPPR 012100Z 17002KT 4000 BR FEW007 08/08 Q1023=
201203012030 METAR LPPR 012030Z VRB01KT 5000 BR FEW009 09/08 Q1023=
201203012000 METAR LPPR 012000Z 00000KT 7000 FEW013 10/08 Q1023=
201203011930 METAR LPPR 011930Z 00000KT 8000 FEW012 11/09 Q1023=
201203011900 METAR LPPR 011900Z 32004KT 280V340 8000 NSC 11/08 Q1022=
201203011830 METAR LPPR 011830Z 27003KT 240V320 6000 NSC 12/08 Q1022=
201203011800 METAR LPPR 011800Z 32006KT 9000 NSC 13/08 Q1022=
201203011730 METAR LPPR 011730Z 33010KT 290V360 9000 NSC 13/08 Q1022=
201203011700 METAR LPPR 011700Z 31007KT 280V340 8000 FEW014 13/10 Q1021=
201203011630 METAR LPPR 011630Z 30004KT 210V350 7000 FEW023 13/10 Q1022=
201203011600 METAR LPPR 011600Z 30006KT 260V340 7000 FEW013 13/10 Q1021=
201203011530 METAR LPPR 011530Z 29006KT 270V330 6000 NSC 14/09 Q1021=
201203011500 METAR LPPR 011500Z 29006KT 260V320 7000 FEW025 13/09 Q1021=
201203011430 METAR LPPR 011430Z 29006KT 260V330 7000 FEW025 14/09 Q1021=
201203011400 METAR LPPR 011400Z 30006KT 260V340 6000 FEW025 14/08 Q1020=
201203011330 METAR LPPR 011330Z 27006KT 230V310 6000 FEW022 14/08 Q1021=
201203011300 METAR LPPR 011300Z 28005KT 250V310 4600 BR FEW020 14/09 Q1021=
201203011230 METAR LPPR 011230Z 28004KT 250V310 5000 BR NSC 14/07 Q1021=
201203011200 METAR LPPR 011200Z 28005KT 210V320 4500 BR NSC 14/08 Q1021=
201203011130 METAR LPPR 011130Z 30004KT 4000 BR NSC 14/09 Q1021=
201203011100 METAR LPPR 011100Z VRB03KT 5000 BR NSC 14/06 Q1021=
201203011030 METAR LPPR 011030Z VRB02KT 6000 NSC 13/07 Q1021=
201203011000 METAR LPPR 011000Z VRB03KT 5000 BR NSC 11/07 Q1021=
201203010930 METAR LPPR 010930Z VRB01KT 5000 BR NSC 12/07 Q1021=
201203010900 METAR LPPR 010900Z 09004KT 060V170 4800 BR FEW040 10/06 Q1021=
201203010830 METAR LPPR 010830Z 12003KT 090V150 3800 BR FEW022 08/06 Q1021=
201203010800 METAR LPPR 010800Z VRB01KT 2300 VCFG BR NSC 04/04 Q1021=
201203010730 METAR LPPR 010730Z VRB01KT 2000 VCFG BR FEW006 05/05 Q1020=
201203010700 METAR LPPR 010700Z VRB02KT 4100 BR FEW008 06/05 Q1020=
201203010630 METAR LPPR 010630Z VRB01KT 4200 BR NSC 07/06 Q1020=
201203010600 METAR LPPR 010600Z 00000KT 4100 BR NSC 06/05 Q1020=
201203010530 METAR LPPR 010530Z VRB03KT 4000 BR NSC 07/06 Q1020=
201203010500 METAR LPPR 010500Z VRB03KT 4100 BR NSC 07/06 Q1020=
201203010430 METAR LPPR 010430Z 13003KT 4300 BR NSC 07/06 Q1020=
201203010400 METAR LPPR 010400Z 15003KT 100V210 4100 BR NSC 07/06 Q1020=
201203010330 METAR LPPR 010330Z 14002KT 4300 BR NSC 07/06 Q1020=
201203010300 METAR LPPR 010300Z 00000KT 4300 BR FEW007 05/05 Q1020=
201203010230 METAR LPPR 010230Z VRB01KT 4000 BR FEW006 05/05 Q1020=
201203010200 METAR LPPR 010200Z 14002KT 4100 0300N R17/0375 VCFG BR FEW006
                        04/04 Q1020=
201203010130 METAR LPPR 010130Z 00000KT 4000 R17/1000VP2000 VCFG BR SCT003
                        05/05 Q1020=
201203010100 METAR LPPR 010100Z 15001KT 3600 0350N R17/0325 PRFG SCT002
                        05/05 Q1021=
201203010030 METAR LPPR 010030Z 00000KT 0250 R17/0275N BCFG BKN002 07/07
                        Q1021=
201203010000 METAR LPPR 010000Z 00000KT 0300 0200S R17/0325V0500 BCFG
                        FEW001 SCT003 BKN009 06/06 Q1021=
201202292330 METAR LPPR 292330Z 05002KT 4200 BR FEW002 06/06 Q1021=
201202292300 METAR LPPR 292300Z VRB02KT 4500 BR FEW009 06/06 Q1021=
201202292230 METAR LPPR 292230Z 00000KT 5000 BR FEW007 06/05 Q1022=
201202292200 METAR LPPR 292200Z VRB01KT 5000 BR FEW008 07/06 Q1022=
201202292130 METAR LPPR 292130Z VRB01KT 4500 2000N VCFG BR FEW009 06/06
                        Q1022=
201202292100 METAR LPPR 292100Z 03002KT 4000 BR FEW008 07/07 Q1022=
201202292030 METAR LPPR 292030Z VRB01KT 6000 FEW008 09/08 Q1022=
201202292000 METAR LPPR 292000Z VRB01KT 5000 BR NSC 09/08 Q1022=
201202291930 METAR LPPR 291930Z 36002KT 6000 NSC 10/08 Q1022=
201202291900 METAR LPPR 291900Z 00000KT 7000 NSC 09/08 Q1022=
201202291830 METAR LPPR 291830Z 28003KT 7000 NSC 10/09 Q1021=
201202291800 METAR LPPR 291800Z 26003KT 8000 NSC 12/09 Q1022=
201202291730 METAR LPPR 291730Z VRB02KT CAVOK 14/08 Q1021=
201202291700 METAR LPPR 291700Z 26003KT 210V320 7000 NSC 14/09 Q1021=
201202291630 METAR LPPR 291630Z VRB03KT 7000 NSC 14/10 Q1022=
201202291600 METAR LPPR 291600Z 26003KT 220V010 8000 FEW008 13/10 Q1022=
201202291530 METAR LPPR 291530Z 27006KT 230V320 8000 FEW009 13/10 Q1022=
201202291500 METAR LPPR 291500Z 24005KT 200V290 8000 FEW008 14/10 Q1022=
201202291430 METAR LPPR 291430Z 27005KT 210V300 8000 FEW009 14/11 Q1022=
201202291400 METAR LPPR 291400Z 25006KT 210V290 7000 NSC 14/11 Q1022=
201202291330 METAR LPPR 291330Z 26004KT 220V340 7000 NSC 14/10 Q1022=
201202291300 METAR LPPR 291300Z 25004KT 200V310 6000 FEW017 13/10 Q1023=
201202291230 METAR LPPR 291230Z 27006KT 230V310 7000 FEW018 14/09 Q1023=
201202291200 METAR LPPR 291200Z 26007KT 230V300 6000 FEW018 14/09 Q1023=
201202291130 METAR LPPR 291130Z VRB03KT 7000 NSC 16/07 Q1023=
201202291100 METAR LPPR 291100Z 13005KT 090V170 7000 NSC 15/08 Q1023=
201202291030 METAR LPPR 291030Z 12005KT 080V160 6000 NSC 14/08 Q1023=
201202291000 METAR LPPR 291000Z 11006KT 070V160 4000 BR NSC 12/08 Q1023=
201202290930 METAR LPPR 290930Z 12004KT 050V150 3500 BR NSC 11/08 Q1023=
201202290900 METAR LPPR 290900Z VRB01KT 3400 BR NSC 09/07 Q1023=
201202290830 METAR LPPR 290830Z VRB02KT 2700 BR NSC 08/07 Q1023=
201202290800 METAR LPPR 290800Z 16003KT 120V280 2800 BR NSC 07/06 Q1023=
201202290730 METAR LPPR 290730Z 09007KT 050V110 2900 BR NSC 05/05 Q1023=
201202290700 METAR LPPR 290700Z 08003KT 350V140 4000 1900N BR NSC 05/04
                        Q1022=
201202290630 METAR LPPR 290630Z VRB01KT 3600 BR NSC 06/05 Q1022=
201202290600 METAR LPPR 290600Z 00000KT 3500 BR NSC 06/05 Q1022=
201202290530 METAR LPPR 290530Z 14003KT 100V200 5000 BR NSC 07/06 Q1022=
201202290500 METAR COR LPPR 290500Z VRB01KT 4000 BR NSC 07/07 Q1022=
201202290430 METAR LPPR 290430Z VRB01KT 5000 BR FEW004 07/06 Q1022=
201202290400 METAR LPPR 290400Z VRB02KT 4100 BR FEW003 07/07 Q1022=
201202290330 METAR LPPR 290330Z VRB01KT 4000 BR FEW005 06/06 Q1022=
201202290300 METAR LPPR 290300Z 00000KT 4800 BR NSC 07/07 Q1022=
201202290230 METAR LPPR 290230Z VRB01KT 5000 BR NSC 06/06 Q1022=
201202290200 METAR LPPR 290200Z 00000KT 2500 0550N R35/P2000 PRFG BR NSC
                        06/06 Q1022=
201202290130 METAR LPPR 290130Z 00000KT 4000 BR NSC 06/06 Q1022=
201202290100 METAR LPPR 290100Z 00000KT 7000 2400N NSC 07/07 Q1022=
201202290030 METAR LPPR 290030Z 00000KT 6000 NSC 06/06 Q1022=
201202290000 METAR LPPR 290000Z VRB02KT 5000 BR NSC 07/07 Q1022=
201202282330 METAR LPPR 282330Z 00000KT 6000 NSC 07/07 Q1022=
201202282300 METAR LPPR 282300Z VRB01KT 6000 FEW008 07/07 Q1022=
201202282230 METAR LPPR 282230Z 00000KT 6000 FEW008 08/08 Q1022=
201202282200 METAR LPPR 282200Z 00000KT 5000 NSC 08/08 Q1022=
201202282130 METAR LPPR 282130Z VRB01KT 6000 NSC 08/07 Q1022=
201202282100 METAR LPPR 282100Z 00000KT 7000 NSC 08/08 Q1022=
201202282030 METAR LPPR 282030Z VRB03KT 8000 NSC 09/08 Q1022=
201202282000 METAR LPPR 282000Z 00000KT 7000 NSC 09/08 Q1021=
201202281930 METAR LPPR 281930Z 00000KT 8000 NSC 10/09 Q1021=
201202281900 METAR LPPR 281900Z 00000KT 8000 NSC 10/08 Q1021=
201202281830 METAR LPPR 281830Z 34002KT CAVOK 12/09 Q1020=
201202281800 METAR LPPR 281800Z 27003KT 240V300 CAVOK 12/09 Q1020=
201202281730 METAR LPPR 281730Z 28003KT 230V320 CAVOK 13/09 Q1020=
201202281700 METAR LPPR 281700Z 30003KT 270V340 CAVOK 13/09 Q1020=
201202281630 METAR LPPR 281630Z 30004KT 250V340 CAVOK 14/09 Q1020=
201202281600 METAR LPPR 281600Z 30005KT 270V330 CAVOK 14/09 Q1020=
201202281530 METAR LPPR 281530Z 29004KT 240V320 CAVOK 14/09 Q1020=
201202281500 METAR LPPR 281500Z 26005KT 210V360 CAVOK 14/09 Q1020=
201202281430 METAR LPPR 281430Z VRB04KT CAVOK 15/09 Q1020=
201202281400 METAR LPPR 281400Z 27005KT 230V320 9999 FEW018 15/09 Q1020=
201202281330 METAR LPPR 281330Z 26006KT 220V290 9999 FEW018 14/10 Q1020=
201202281300 METAR LPPR 281300Z 23006KT 180V290 9999 FEW018 14/09 Q1021=
201202281230 METAR LPPR 281230Z 24007KT 200V290 9999 FEW015 14/09 Q1021=
201202281200 METAR LPPR 281200Z 20006KT 150V240 9999 SCT015 14/09 Q1021=
201202281130 METAR LPPR 281130Z 20008KT 170V240 9999 SCT014 14/10 Q1021=
201202281100 METAR LPPR 281100Z 21007KT 150V260 9000 FEW012 BKN014 13/09
                        Q1021=
201202281030 METAR LPPR 281030Z 20007KT 9999 SCT010 13/10 Q1021=
201202281000 METAR LPPR 281000Z 16005KT 130V200 4500 BR SCT009 12/09 Q1021=
201202280930 METAR LPPR 280930Z 12004KT 100V160 3500 BR FEW009 10/09 Q1021=
201202280900 METAR LPPR 280900Z 12003KT 060V150 3000 BR SCT006 BKN008
                        10/09 Q1021=
201202280830 METAR LPPR 280830Z 15005KT 3000 BR SCT005 BKN008 09/09 Q1021=
201202280800 METAR LPPR 280800Z 18007KT 2500 BR SCT003 BKN005 09/08 Q1021=
201202280730 METAR LPPR 280730Z 14005KT 2000 BR SCT002 BKN006 08/08 Q1020=
201202280700 METAR LPPR 280700Z 11005KT 090V150 3000 BR SCT002 BKN005
                        08/08 Q1020=
201202280630 METAR LPPR 280630Z 11003KT 050V220 4200 BR SCT002 BKN005
                        09/09 Q1020=
201202280600 METAR LPPR 280600Z 12004KT 4200 BR SCT002 BKN004 10/09 Q1020=
201202280530 METAR LPPR 280530Z 11004KT 060V150 4700 BR SCT002 BKN004
                        10/09 Q1020=
201202280500 METAR LPPR 280500Z 19003KT 150V210 3800 BR SCT002 BKN004
                        10/09 Q1020=
201202280430 METAR LPPR 280430Z 18005KT 3800 BR SCT002 BKN003 10/09 Q1020=
201202280400 METAR LPPR 280400Z 15004KT 3500 BR SCT002 BKN003 10/09 Q1020=
201202280330 METAR LPPR 280330Z 16004KT 2200 BR BKN002 BKN003 10/10 Q1020=
201202280300 METAR LPPR 280300Z 12004KT 2500 BR BKN002 BKN004 10/10 Q1020=
201202280230 METAR LPPR 280230Z 12003KT 100V160 3500 BR BKN003 BKN004
                        11/10 Q1020=
201202280200 METAR LPPR 280200Z 10004KT 4000 BR SCT003 BKN005 11/10 Q1021=
201202280130 METAR LPPR 280130Z 12005KT 4500 BR SCT003 BKN005 11/10 Q1021=
201202280100 METAR LPPR 280100Z 13005KT 100V170 6000 SCT002 BKN004 11/10
                        Q1021=
201202280030 METAR LPPR 280030Z 15005KT 130V190 4500 BR BKN002 BKN003
                        11/11 Q1021=
201202280000 METAR LPPR 280000Z 17006KT 3500 BR BKN002 BKN003 11/11 Q1021=
201202272330 METAR LPPR 272330Z 21003KT 180V250 3000 BR BKN002 BKN004
                        11/11 Q1021=
201202272300 METAR LPPR 272300Z 24003KT 210V270 3000 BR SCT002 BKN003
                        11/11 Q1021=
201202272230 METAR LPPR 272230Z VRB02KT 4000 BR SCT002 BKN004 11/11 Q1021=
201202272200 METAR LPPR 272200Z VRB02KT 4000 BR SCT002 BKN004 12/11 Q1021=
201202272130 METAR LPPR 272130Z 16002KT 3000 0900N R17/0900V1700D PRFG
                        BKN002 11/11 Q1021=
201202272100 METAR LPPR 272100Z 19003KT 2500 BR BKN002 BKN004 11/11 Q1021=
201202272030 METAR LPPR 272030Z 22002KT 2000 BR SCT002 BKN012 11/11 Q1021=
201202272000 METAR LPPR 272000Z 00000KT 4000 0600N R35/P2000 BCFG FEW006
                        09/09 Q1020=
201202271930 METAR LPPR 271930Z 22002KT 4000 BR FEW006 11/11 Q1020=
201202271900 METAR LPPR 271900Z 00000KT 4000 BR FEW003 11/10 Q1020=
201202271830 METAR LPPR 271830Z VRB01KT 3000 BR NSC 12/11 Q1020=
201202271800 METAR LPPR 271800Z 32004KT 290V350 4000 BR NSC 12/11 Q1020=
201202271730 METAR LPPR 271730Z 29004KT 250V320 6000 NSC 13/11 Q1020=
201202271700 METAR LPPR 271700Z 28005KT 260V320 7000 NSC 14/11 Q1020=
201202271630 METAR LPPR 271630Z 26007KT 230V300 8000 NSC 15/11 Q1020=
201202271600 METAR LPPR 271600Z 27005KT 230V290 8000 NSC 17/11 Q1020=
201202271530 METAR LPPR 271530Z 31006KT 270V350 9000 NSC 17/11 Q1020=
201202271500 METAR LPPR 271500Z 30005KT 270V340 8000 NSC 16/11 Q1020=
201202271430 METAR LPPR 271430Z 33008KT 300V360 8000 NSC 17/10 Q1020=
201202271400 METAR LPPR 271400Z 33007KT 290V360 9000 NSC 17/09 Q1021=
201202271330 METAR LPPR 271330Z 35013KT 6000 NSC 16/10 Q1021=
201202271300 METAR LPPR 271300Z 34010KT 5000 BR NSC 15/10 Q1021=
201202271230 METAR LPPR 271230Z 32008KT 290V350 6000 NSC 14/11 Q1022=
201202271200 METAR LPPR 271200Z VRB04KT 9000 NSC 18/10 Q1022=
201202271130 METAR LPPR 271130Z 31005KT 270V020 7000 NSC 16/10 Q1022=
201202271100 METAR LPPR 271100Z 06004KT 020V110 9000 NSC 16/06 Q1022=
201202271030 METAR LPPR 271030Z VRB01KT 8000 NSC 15/09 Q1022=
201202271000 METAR LPPR 271000Z VRB02KT 6000 NSC 11/11 Q1023=
201202270930 METAR LPPR 270930Z VRB01KT 4000 BR NSC 10/09 Q1023=
201202270900 METAR LPPR 270900Z 10003KT 050V150 1900 BR FEW005 08/08 Q1023=
201202270830 METAR LPPR 270830Z VRB01KT 1500 BR FEW002 SCT007 07/06 Q1023=
201202270800 METAR LPPR 270800Z VRB02KT 0800 R17/0800V1500U BCFG FEW003
                        SCT007 05/05 Q1023=
201202270730 METAR LPPR 270730Z 12003KT 070V160 0200 R17/0700V1900D BCFG
                        FEW001 SCT003 05/05 Q1023=
201202270700 METAR LPPR 270700Z VRB02KT 0200 R17/0650 FG FEW001 SCT004
                        06/05 Q1023=
201202270630 METAR LPPR 270630Z 12003KT 010V180 0200 R17/0400N FG FEW001
                        BKN003 06/06 Q1023=
201202270600 METAR LPPR 270600Z 11003KT 080V150 0200 R17/0450N FG FEW001
                        BKN002 06/06 Q1023=
201202270530 METAR LPPR 270530Z 11003KT 050V170 0200 R17/0450N FG FEW001
                        BKN002 07/06 Q1023=
201202270500 METAR LPPR 270500Z 10003KT 360V150 0200 R17/0500 FG FEW001
                        BKN003 07/07 Q1023=
201202270430 METAR LPPR 270430Z 14004KT 2000 0450S R35/0550 BCFG FEW001
                        BKN003 07/06 Q1023=
201202270400 METAR LPPR 270400Z VRB02KT 5000 BR FEW009 07/07 Q1023=
201202270330 METAR LPPR 270330Z 15004KT 130V190 5000 BR FEW009 07/07 Q1023=
201202270300 METAR LPPR 270300Z 13003KT 5000 BR FEW006 05/05 Q1023=
201202270230 METAR LPPR 270230Z 12003KT 100V190 6000 2000N VCFG FEW008
                        06/06 Q1024=
201202270200 METAR LPPR 270200Z VRB02KT 4500 BR NSC 06/06 Q1024=
201202270130 METAR LPPR 270130Z VRB01KT 5000 BR NSC 07/07 Q1024=
201202270100 METAR LPPR 270100Z 00000KT 6000 NSC 08/08 Q1024=
201202270030 METAR LPPR 270030Z 00000KT 5000 BR FEW009 06/06 Q1024=
201202270000 METAR LPPR 270000Z 00000KT 5000 BR FEW015 08/07 Q1024=
201202262330 METAR LPPR 262330Z VRB02KT 4500 BR NSC 08/07 Q1024=
201202262300 METAR LPPR 262300Z 00000KT 4000 BR NSC 08/07 Q1024=
201202262230 METAR COR LPPR 262230Z 00000KT 5000 BR NSC 09/08 Q1024=
201202262200 METAR LPPR 262200Z VRB01KT 6000 FEW021 09/08 Q1024=
201202262130 METAR LPPR 262130Z 33004KT 8000 FEW021 10/09 Q1025=
201202262100 METAR LPPR 262100Z 32005KT CAVOK 11/09 Q1025=
201202262030 METAR LPPR 262030Z 33005KT CAVOK 11/09 Q1024=
201202262000 METAR LPPR 262000Z 33007KT 300V360 9999 FEW014 11/09 Q1024=
201202261930 METAR LPPR 261930Z 34007KT 9999 FEW014 11/09 Q1024=
201202261900 METAR LPPR 261900Z 33008KT 9999 FEW014 12/09 Q1024=
201202261830 METAR LPPR 261830Z 33009KT 9999 FEW014 12/09 Q1024=
201202261800 METAR LPPR 261800Z 33009KT 9999 FEW014 12/09 Q1024=
201202261730 METAR LPPR 261730Z 33010KT 300V360 9999 FEW015 13/09 Q1024=
201202261700 METAR LPPR 261700Z 32009KT 300V360 9999 FEW016 13/09 Q1024=
201202261630 METAR LPPR 261630Z 33009KT 280V350 9999 FEW017 13/09 Q1024=
201202261600 METAR LPPR 261600Z 32009KT 270V360 9999 FEW017 14/09 Q1024=
201202261530 METAR LPPR 261530Z 32009KT 290V350 9999 FEW020 14/09 Q1025=
201202261500 METAR LPPR 261500Z 32011KT 280V340 CAVOK 14/09 Q1024=
201202261430 METAR LPPR 261430Z 32010KT 290V350 CAVOK 14/08 Q1024=
201202261400 METAR LPPR 261400Z 32009KT 270V360 CAVOK 14/08 Q1025=
201202261330 METAR LPPR 261330Z 30008KT 270V360 9999 FEW025 14/08 Q1025=
201202261300 METAR LPPR 261300Z 31008KT 280V340 9999 FEW023 13/08 Q1025=
201202261230 METAR LPPR 261230Z 32008KT 290V360 9999 SCT023 13/08 Q1026=
201202261200 METAR LPPR 261200Z 33009KT 9999 BKN022 13/08 Q1026=
201202261130 METAR LPPR 261130Z 32008KT 9999 BKN022 13/08 Q1026=
201202261100 METAR LPPR 261100Z 34008KT 9999 BKN020 13/08 Q1026=
201202261030 METAR LPPR 261030Z 35008KT 300V010 9999 SCT020 13/08 Q1026=
201202261000 METAR LPPR 261000Z 01006KT 340V060 9999 SCT020 12/08 Q1026=
201202260930 METAR LPPR 260930Z 05004KT 9999 BKN020 12/08 Q1026=
201202260900 METAR LPPR 260900Z 07004KT 9999 BKN020 11/08 Q1026=
201202260830 METAR LPPR 260830Z 07004KT 320V130 9000 BKN020 10/08 Q1026=
201202260800 METAR LPPR 260800Z 00000KT 8000 BKN020 10/07 Q1025=
201202260730 METAR LPPR 260730Z VRB01KT 8000 BKN020 10/07 Q1025=
201202260700 METAR LPPR 260700Z VRB01KT 9999 BKN020 09/07 Q1025=
201202260630 METAR LPPR 260630Z 00000KT 9999 BKN020 10/07 Q1025=
201202260600 METAR LPPR 260600Z 08002KT 9999 BKN020 10/08 Q1025=
201202260530 METAR LPPR 260530Z VRB01KT 9999 BKN020 10/08 Q1025=
201202260500 METAR LPPR 260500Z 00000KT 9999 BKN020 09/08 Q1025=
201202260430 METAR LPPR 260430Z 00000KT 9999 BKN020 09/08 Q1025=
201202260400 METAR LPPR 260400Z 00000KT 9999 BKN019 09/08 Q1025=
201202260330 METAR LPPR 260330Z 00000KT 9999 BKN019 09/08 Q1025=
201202260300 METAR LPPR 260300Z VRB01KT 8000 BKN018 08/08 Q1025=
201202260230 METAR LPPR 260230Z 36002KT 4000 BR BKN015 08/08 Q1025=
201202260200 METAR LPPR 260200Z 02002KT 3000 BR BKN015 08/07 Q1025=
201202260130 METAR LPPR 260130Z 36002KT 6000 0700N R35/P2000 PRFG SCT015
                        08/07 Q1025=
201202260100 METAR LPPR 260100Z 02001KT 4000 BR SCT015 08/07 Q1025=
201202260030 METAR LPPR 260030Z 00000KT 6000 BKN015 09/08 Q1025=
201202260000 METAR LPPR 260000Z 02001KT 6000 BKN016 09/08 Q1025=
201202252330 METAR LPPR 252330Z 03002KT 6000 BKN016 09/09 Q1025=
201202252300 METAR LPPR 252300Z VRB02KT 6000 BKN016 10/09 Q1026=
201202252230 METAR LPPR 252230Z 35003KT 320V050 5000 BR BKN016 10/09 Q1026=
201202252200 METAR LPPR 252200Z 02001KT 8000 3900N BKN017 10/10 Q1026=
201202252130 METAR LPPR 252130Z VRB01KT 9000 4000N BKN016 10/09 Q1026=
201202252100 METAR LPPR 252100Z 00000KT 8000 2000N BKN012 10/10 Q1026=
201202252030 METAR LPPR 252030Z 00000KT 8000 3900N FEW014 10/10 Q1025=
201202252000 METAR LPPR 252000Z VRB01KT 4000 BR FEW007 BKN010 10/09 Q1025=
201202251930 METAR LPPR 251930Z 23001KT 3800 BR BKN009 11/10 Q1025=
201202251900 METAR LPPR 251900Z 28001KT 7000 3300N FEW008 11/09 Q1025=
201202251830 METAR LPPR 251830Z VRB02KT 4500 BR FEW006 12/10 Q1024=
201202251800 METAR LPPR 251800Z 24003KT 200V290 8000 NSC 13/10 Q1024=
201202251730 METAR LPPR 251730Z 26003KT 230V290 CAVOK 14/10 Q1024=
201202251700 METAR LPPR 251700Z 25005KT 210V300 CAVOK 14/10 Q1024=
201202251630 METAR LPPR 251630Z 25005KT 220V300 CAVOK 15/10 Q1024=
201202251600 METAR LPPR 251600Z 26005KT 220V320 CAVOK 15/07 Q1024=
201202251530 METAR LPPR 251530Z 22005KT 180V260 CAVOK 15/08 Q1024=
201202251500 METAR LPPR 251500Z 20006KT 180V260 CAVOK 14/08 Q1024=
201202251430 METAR LPPR 251430Z 26005KT 220V300 CAVOK 15/07 Q1025=
201202251400 METAR LPPR 251400Z 26004KT 200V310 CAVOK 14/08 Q1025=
201202251330 METAR LPPR 251330Z 27006KT CAVOK 15/08 Q1025=
201202251300 METAR LPPR 251300Z 25006KT 170V300 CAVOK 15/06 Q1026=
201202251230 METAR LPPR 251230Z 23005KT 200V260 CAVOK 15/07 Q1026=
201202251200 METAR LPPR 251200Z 19005KT 160V240 CAVOK 16/06 Q1026=
201202251130 METAR LPPR 251130Z 20006KT 160V230 CAVOK 15/03 Q1026=
201202251100 METAR LPPR 251100Z 20005KT 160V230 CAVOK 15/02 Q1026=
201202251030 METAR LPPR 251030Z 17005KT 130V210 CAVOK 14/04 Q1026=
201202251000 METAR LPPR 251000Z 17005KT CAVOK 13/04 Q1026=
201202250930 METAR LPPR 250930Z 16005KT 120V190 CAVOK 13/03 Q1026=
201202250900 METAR LPPR 250900Z 14005KT 9000 NSC 11/01 Q1026=
201202250830 METAR LPPR 250830Z 15004KT 100V200 CAVOK 10/01 Q1025=
201202250800 METAR LPPR 250800Z VRB02KT CAVOK 09/02 Q1026=
201202250730 METAR LPPR 250730Z CAVOK=
201202250700 METAR LPPR 250700Z 09001KT CAVOK 09/02 Q1025=
201202250630 METAR LPPR 250630Z VRB02KT CAVOK 10/01 Q1025=
201202250600 METAR LPPR 250600Z 15004KT CAVOK 09/01 Q1025=
201202250530 METAR LPPR 250530Z 16003KT CAVOK 10/02 Q1025=
201202250500 METAR LPPR 250500Z 17005KT CAVOK 10/02 Q1025=
201202250430 METAR LPPR 250430Z 18006KT CAVOK 10/02 Q1025=
201202250400 METAR LPPR 250400Z 17005KT 8000 NSC 09/03 Q1025=
201202250330 METAR LPPR 250330Z 19005KT CAVOK 11/01 Q1025=
201202250300 METAR LPPR 250300Z VRB01KT CAVOK 10/02 Q1025=
201202250230 METAR LPPR 250230Z 00000KT CAVOK 10/02 Q1025=
201202250200 METAR LPPR 250200Z 00000KT CAVOK 10/03 Q1025=
201202250130 METAR LPPR 250130Z 15002KT CAVOK 10/02 Q1025=
201202250100 METAR LPPR 250100Z 18003KT CAVOK 10/01 Q1026=
201202250030 METAR LPPR 250030Z 00000KT CAVOK 10/01 Q1026=
201202250000 METAR LPPR 250000Z VRB02KT CAVOK 11/01 Q1026=
201202242330 METAR LPPR 242330Z 14005KT CAVOK 11/01 Q1026=
201202242300 METAR LPPR 242300Z 14003KT 100V170 CAVOK 12/01 Q1026=
201202242230 METAR LPPR 242230Z 03003KT 350V070 CAVOK 12/01 Q1026=
201202242200 METAR LPPR 242200Z 10003KT 030V130 CAVOK 12/03 Q1026=
201202242130 METAR LPPR 242130Z 04003KT 360V060 CAVOK 12/03 Q1026=
201202242100 METAR LPPR 242100Z VRB02KT CAVOK 12/03 Q1026=
201202242030 METAR LPPR 242030Z 01004KT CAVOK 12/03 Q1026=
201202242000 METAR LPPR 242000Z 01003KT 330V070 CAVOK 12/03 Q1026=
201202241930 METAR LPPR 241930Z 35002KT CAVOK 13/02 Q1026=
201202241900 METAR LPPR 241900Z 00000KT CAVOK 13/01 Q1026=
201202241830 METAR LPPR 241830Z 31003KT 9000 NSC 14/01 Q1026=
201202241800 METAR LPPR 241800Z 30003KT 270V360 CAVOK 15/M01 Q1025=
201202241730 METAR LPPR 241730Z 32004KT 290V350 CAVOK 15/M02 Q1025=
201202241700 METAR LPPR 241700Z 31005KT CAVOK 16/M01 Q1025=
201202241630 METAR LPPR 241630Z 29003KT 260V340 CAVOK 17/M03 Q1025=
201202241600 METAR LPPR 241600Z 30004KT 270V330 CAVOK 17/M03 Q1025=
201202241530 METAR LPPR 241530Z 29004KT 260V320 CAVOK 17/M01 Q1025=
201202241500 METAR LPPR 241500Z 29005KT CAVOK 17/M02 Q1026=
201202241430 METAR LPPR 241430Z 29005KT 260V320 CAVOK 17/M02 Q1026=
201202241400 METAR LPPR 241400Z 28004KT 210V320 CAVOK 18/00 Q1026=
201202241330 METAR LPPR 241330Z 29005KT CAVOK 17/00 Q1026=
201202241300 METAR LPPR 241300Z 28006KT 240V320 CAVOK 16/M01 Q1027=
201202241230 METAR LPPR 241230Z 28005KT 250V310 CAVOK 16/02 Q1027=
201202241200 METAR LPPR 241200Z 27005KT 230V310 CAVOK 17/04 Q1027=
201202241130 METAR LPPR 241130Z 13006KT CAVOK 19/M07 Q1027=
201202241100 METAR LPPR 241100Z 11009KT 070V130 CAVOK 18/M05 Q1027=
201202241030 METAR LPPR 241030Z 12011KT CAVOK 16/M06 Q1027=
201202241000 METAR LPPR 241000Z 11012KT CAVOK 15/M05 Q1027=
201202240930 METAR LPPR 240930Z 10010KT 070V130 CAVOK 15/M06 Q1027=
201202240900 METAR LPPR 240900Z 11010KT CAVOK 13/M06 Q1027=
201202240830 METAR LPPR 240830Z 11012KT CAVOK 12/M06 Q1027=
201202240800 METAR LPPR 240800Z 11011KT CAVOK 12/M07 Q1027=
201202240730 METAR LPPR 240730Z 11009KT CAVOK 10/M07 Q1027=
201202240700 METAR LPPR 240700Z 11011KT CAVOK 10/M06 Q1026=
201202240630 METAR LPPR 240630Z 11010KT CAVOK 09/M06 Q1026=
201202240600 METAR LPPR 240600Z 11009KT CAVOK 09/M05 Q1026=
201202240530 METAR LPPR 240530Z 11010KT CAVOK 09/M04 Q1026=
201202240500 METAR LPPR 240500Z 08007KT CAVOK 08/M03 Q1026=
201202240430 METAR LPPR 240430Z 10006KT CAVOK 09/M03 Q1026=
201202240400 METAR LPPR 240400Z 09007KT CAVOK 07/M02 Q1026=
201202240330 METAR LPPR 240330Z 05003KT 010V080 CAVOK 07/M02 Q1027=
201202240300 METAR LPPR 240300Z VRB04KT CAVOK 09/M02 Q1027=
201202240230 METAR LPPR 240230Z 07006KT CAVOK 07/00 Q1027=
201202240200 METAR LPPR 240200Z VRB02KT CAVOK 08/00 Q1027=
201202240130 METAR LPPR 240130Z 05003KT 010V100 CAVOK 07/M00 Q1027=
201202240100 METAR LPPR 240100Z VRB01KT CAVOK 09/M00 Q1027=
201202240030 METAR LPPR 240030Z VRB02KT CAVOK 06/01 Q1028=
201202240000 METAR LPPR 240000Z VRB02KT CAVOK 07/01 Q1028=
201202232330 METAR LPPR 232330Z VRB01KT CAVOK 09/01 Q1028=
201202232300 METAR LPPR 232300Z VRB02KT CAVOK 09/01 Q1028=
201202232230 METAR LPPR 232230Z VRB01KT CAVOK 06/02 Q1028=
201202232200 METAR LPPR 232200Z VRB02KT CAVOK 07/02 Q1028=
201202232130 METAR LPPR 232130Z VRB02KT 9000 NSC 07/03 Q1028=
201202232100 METAR LPPR 232100Z VRB01KT 8000 NSC 07/02 Q1027=
201202232030 METAR LPPR 232030Z 23004KT 190V270 8000 NSC 08/02 Q1027=
201202232000 METAR LPPR 232000Z VRB02KT CAVOK 07/02 Q1027=
201202231930 METAR LPPR 231930Z VRB02KT CAVOK 09/02 Q1027=
201202231900 METAR LPPR 231900Z VRB02KT CAVOK 11/02 Q1027=
201202231830 METAR LPPR 231830Z VRB02KT CAVOK 13/02 Q1027=
201202231800 METAR LPPR 231800Z 34004KT CAVOK 14/04 Q1027=
201202231730 METAR LPPR 231730Z 32006KT CAVOK 15/03 Q1027=
201202231700 METAR LPPR 231700Z 31006KT 280V340 CAVOK 15/M00 Q1027=
201202231630 METAR LPPR 231630Z 31007KT 280V340 CAVOK 15/M01 Q1027=
201202231600 METAR LPPR 231600Z 32007KT 290V350 CAVOK 15/04 Q1027=
201202231530 METAR LPPR 231530Z 29005KT 260V320 CAVOK 16/05 Q1027=
201202231500 METAR LPPR 231500Z 29004KT 260V330 CAVOK 16/05 Q1027=
201202231430 METAR LPPR 231430Z 28004KT 230V300 CAVOK 18/05 Q1027=
201202231400 METAR LPPR 231400Z 29005KT 260V320 CAVOK 18/04 Q1028=
201202231330 METAR LPPR 231330Z 28005KT 240V310 CAVOK 18/04 Q1028=
201202231300 METAR LPPR 231300Z VRB04KT CAVOK 20/M07 Q1028=
201202231230 METAR LPPR 231230Z 10005KT 050V170 CAVOK 20/M07 Q1029=
201202231200 METAR LPPR 231200Z 14007KT 100V160 CAVOK 19/M07 Q1029=
201202231130 METAR LPPR 231130Z 10007KT 080V140 CAVOK 18/M05 Q1029=
201202231100 METAR LPPR 231100Z 12007KT 080V140 CAVOK 17/M05 Q1029=
201202231030 METAR LPPR 231030Z 11008KT CAVOK 16/M05 Q1029=
201202231000 METAR LPPR 231000Z 10010KT CAVOK 14/M05 Q1029=
201202230930 METAR LPPR 230930Z 10008KT CAVOK 13/M05 Q1029=
201202230900 METAR LPPR 230900Z 11011KT CAVOK 13/M05 Q1029=
201202230830 METAR LPPR 230830Z 11010KT CAVOK 12/M05 Q1029=
201202230800 METAR LPPR 230800Z 11013KT CAVOK 11/M05 Q1028=
201202230730 METAR LPPR 230730Z 11012KT CAVOK 10/M04 Q1028=
201202230700 METAR LPPR 230700Z 11012KT CAVOK 11/M05 Q1028=
201202230630 METAR LPPR 230630Z 11012KT 080V200 CAVOK 10/M02 Q1028=
201202230600 METAR LPPR 230600Z 12010KT CAVOK 07/M01 Q1028=
201202230530 METAR LPPR 230530Z 12010KT 9000 NSC 07/00 Q1028=
201202230500 METAR LPPR 230500Z VRB05KT 9000 NSC 07/00 Q1028=
201202230430 METAR LPPR 230430Z 01004KT 330V090 8000 NSC 07/02 Q1027=
201202230400 METAR LPPR 230400Z 05002KT 8000 NSC 07/03 Q1027=
201202230330 METAR LPPR 230330Z 05004KT 7000 NSC 06/03 Q1027=
201202230300 METAR LPPR 230300Z 02005KT 360V060 7000 NSC 06/03 Q1027=
201202230230 METAR LPPR 230230Z 06003KT 340V150 7000 NSC 07/04 Q1027=
201202230200 METAR LPPR 230200Z VRB02KT 7000 NSC 08/04 Q1027=
201202230130 METAR LPPR 230130Z 10006KT 010V120 8000 NSC 08/05 Q1027=
201202230100 METAR LPPR 230100Z VRB02KT 7000 NSC 09/05 Q1028=
201202230030 METAR LPPR 230030Z 12005KT 090V240 6000 NSC 06/04 Q1028=
201202230000 METAR LPPR 230000Z 00000KT 5000 BR NSC 04/04 Q1028=
201202222330 METAR LPPR 222330Z VRB02KT 5000 BR NSC 05/05 Q1028=
201202222300 METAR LPPR 222300Z 05003KT 6000 NSC 06/05 Q1028=
201202222230 METAR LPPR 222230Z VRB02KT 8000 NSC 06/05 Q1028=
201202222200 METAR LPPR 222200Z 16002KT CAVOK 06/05 Q1028=
201202222130 METAR LPPR 222130Z 17003KT CAVOK 07/06 Q1028=
201202222100 METAR LPPR 222100Z 00000KT CAVOK 07/06 Q1028=
201202222030 METAR LPPR 222030Z VRB01KT CAVOK 09/07 Q1028=
201202222000 METAR LPPR 222000Z 01003KT 330V070 CAVOK 08/07 Q1028=
201202221930 METAR LPPR 221930Z 34005KT CAVOK 09/06 Q1028=
201202221900 METAR LPPR 221900Z 33003KT 310V010 CAVOK 10/06 Q1028=
201202221830 METAR LPPR 221830Z 34005KT CAVOK 11/06 Q1027=
201202221800 METAR LPPR 221800Z 34006KT CAVOK 12/06 Q1027=
201202221730 METAR LPPR 221730Z 33005KT CAVOK 13/06 Q1027=
201202221700 METAR LPPR 221700Z 32006KT CAVOK 13/07 Q1027=
201202221630 METAR LPPR 221630Z 31007KT CAVOK 13/08 Q1027=
201202221600 METAR LPPR 221600Z 33008KT CAVOK 14/05 Q1027=
201202221530 METAR LPPR 221530Z 32007KT 290V350 CAVOK 14/06 Q1027=
201202221500 METAR LPPR 221500Z 31005KT 270V350 CAVOK 14/05 Q1028=
201202221430 METAR LPPR 221430Z 30005KT 270V340 CAVOK 14/07 Q1028=
201202221400 METAR LPPR 221400Z 31007KT 270V350 CAVOK 13/05 Q1028=
201202221330 METAR LPPR 221330Z 29006KT 8000 NSC 14/06 Q1029=
201202221300 METAR LPPR 221300Z 29006KT 8000 NSC 14/05 Q1029=
201202221230 METAR LPPR 221230Z 28004KT 230V310 8000 NSC 14/06 Q1029=
201202221200 METAR LPPR 221200Z VRB03KT 8000 NSC 14/06 Q1029=
201202221130 METAR LPPR 221130Z VRB02KT 7000 NSC 13/06 Q1029=
201202221100 METAR LPPR 221100Z VRB02KT 6000 NSC 12/06 Q1030=
201202221030 METAR COR LPPR 221030Z 08003KT 360V120 6000 NSC 11/05 Q1030=
201202221000 METAR LPPR 221000Z VRB03KT 6000 NSC 11/05 Q1029=
201202220930 METAR LPPR 220930Z 12003KT 070V180 6000 NSC 08/05 Q1029=
201202220900 METAR LPPR 220900Z VRB01KT 4500 BR NSC 08/05 Q1029=
201202220830 METAR LPPR 220830Z VRB01KT 4000 BR NSC 05/04 Q1029=
201202220800 METAR LPPR 220800Z VRB02KT 4000 BR NSC 05/04 Q1028=
201202220730 METAR LPPR 220730Z VRB01KT 3000 BR NSC 04/03 Q1028=
201202220700 METAR LPPR 220700Z VRB02KT 4000 BR FEW007 04/04 Q1028=
201202220630 METAR LPPR 220630Z 00000KT 4000 BR SCT006 04/04 Q1028=
201202220600 METAR LPPR 220600Z 14002KT 4000 BR FEW008 03/03 Q1028=
201202220530 METAR LPPR 220530Z 02003KT 350V050 4000 BR NSC 04/04 Q1028=
201202220500 METAR LPPR 220500Z VRB01KT 4000 BR FEW018 05/04 Q1028=
201202220430 METAR LPPR 220430Z 04002KT 2000 BR FEW009 02/02 Q1028=
201202220400 METAR LPPR 220400Z 00000KT 2000 BR FEW009 SCT017 04/04 Q1027=
201202220330 METAR LPPR 220330Z VRB01KT 2000 BR NSC 03/03 Q1028=
201202220300 METAR LPPR 220300Z 36002KT 2000 BR NSC 03/02 Q1028=
201202220230 METAR LPPR 220230Z 04003KT 340V090 4000 BR NSC 06/06 Q1028=
201202220200 METAR LPPR 220200Z VRB01KT 3000 BR FEW007 06/06 Q1028=
201202220130 METAR LPPR 220130Z VRB02KT 4000 BR FEW025 06/06 Q1028=
201202220100 METAR LPPR 220100Z 09004KT 4000 BR FEW009 06/06 Q1028=
201202220030 METAR LPPR 220030Z VRB02KT 4000 BR NSC 05/04 Q1028=
201202220000 METAR LPPR 220000Z 09003KT 4000 BR FEW006 06/05 Q1028=
201202212330 METAR LPPR 212330Z VRB01KT 4000 BR FEW006 07/06 Q1028=
201202212300 METAR LPPR 212300Z VRB01KT 3000 BR FEW007 06/05 Q1028=
201202212230 METAR LPPR 212230Z VRB01KT 7000 0700N R35/P2000 PRFG FEW007
                        06/05 Q1028=
201202212200 METAR LPPR 212200Z VRB01KT 8000 0900N R35/P2000 PRFG FEW008
                        07/07 Q1028=
201202212130 METAR LPPR 212130Z 00000KT 5000 BR NSC 07/06 Q1028=
201202212100 METAR LPPR 212100Z VRB02KT 5000 BR NSC 08/07 Q1028=
201202212030 METAR LPPR 212030Z 35003KT 6000 NSC 09/08 Q1028=
201202212000 METAR LPPR 212000Z 34002KT 8000 NSC 09/07 Q1028=
201202211930 METAR LPPR 211930Z 35004KT 9000 FEW015 10/08 Q1028=
201202211900 METAR LPPR 211900Z 34005KT 9999 FEW012 10/08 Q1028=
201202211830 METAR LPPR 211830Z 33006KT 9999 FEW012 11/08 Q1028=
201202211800 METAR LPPR 211800Z 33007KT 9999 FEW025 11/08 Q1027=
201202211730 METAR LPPR 211730Z 32007KT 290V350 9999 FEW015 11/08 Q1027=
201202211700 METAR LPPR 211700Z 33009KT 9999 FEW015 12/08 Q1027=
201202211630 METAR LPPR 211630Z 33009KT 300V360 CAVOK 12/08 Q1027=
201202211600 METAR LPPR 211600Z 32009KT CAVOK 12/08 Q1027=
201202211530 METAR LPPR 211530Z 32009KT CAVOK 12/08 Q1027=
201202211500 METAR LPPR 211500Z 32007KT 280V340 CAVOK 12/06 Q1027=
201202211430 METAR LPPR 211430Z 30006KT 260V340 CAVOK 12/06 Q1027=
201202211400 METAR LPPR 211400Z 29006KT CAVOK 13/03 Q1027=
201202211330 METAR LPPR 211330Z 31006KT 270V010 CAVOK 14/02 Q1027=
201202211300 METAR LPPR 211300Z 30004KT 260V350 CAVOK 14/M01 Q1028=
201202211230 METAR LPPR 211230Z VRB04KT CAVOK 14/M03 Q1028=
201202211200 METAR LPPR 211200Z VRB03KT CAVOK 14/M03 Q1029=
201202211130 METAR LPPR 211130Z 09004KT 030V170 CAVOK 13/M03 Q1029=
201202211100 METAR LPPR 211100Z 09005KT 050V140 CAVOK 13/M02 Q1029=
201202211030 METAR LPPR 211030Z 08005KT 040V120 CAVOK 12/M02 Q1029=
201202211000 METAR LPPR 211000Z 09005KT 050V170 CAVOK 11/M02 Q1029=
201202210930 METAR LPPR 210930Z 07004KT 020V120 CAVOK 09/M02 Q1029=
201202210900 METAR LPPR 210900Z 09004KT 040V150 CAVOK 08/M01 Q1028=
201202210830 METAR LPPR 210830Z VRB03KT CAVOK 06/M02 Q1028=
201202210800 METAR LPPR 210800Z 06003KT 340V120 CAVOK 05/M03 Q1028=
201202210730 METAR LPPR 210730Z VRB02KT CAVOK 05/M03 Q1028=
201202210700 METAR LPPR 210700Z VRB02KT CAVOK 04/M03 Q1027=
201202210630 METAR LPPR 210630Z 09004KT 040V130 CAVOK 05/M03 Q1027=
201202210600 METAR LPPR 210600Z VRB01KT CAVOK 05/M03 Q1027=
201202210530 METAR LPPR 210530Z VRB01KT CAVOK 05/M02 Q1027=
201202210500 METAR LPPR 210500Z VRB02KT CAVOK 05/M02 Q1027=
201202210430 METAR LPPR 210430Z 08003KT 040V130 CAVOK 03/M02 Q1026=
201202210400 METAR LPPR 210400Z VRB01KT CAVOK 05/M02 Q1026=
201202210330 METAR LPPR 210330Z VRB02KT CAVOK 04/M01 Q1027=
201202210300 METAR LPPR 210300Z VRB01KT CAVOK 05/M01 Q1027=
201202210230 METAR LPPR 210230Z VRB01KT CAVOK 05/M00 Q1027=
201202210200 METAR LPPR 210200Z 00000KT CAVOK 03/M01 Q1027=
201202210130 METAR LPPR 210130Z VRB01KT CAVOK 06/00 Q1027=
201202210100 METAR LPPR 210100Z 00000KT CAVOK 04/00 Q1028=
201202210030 METAR LPPR 210030Z VRB01KT CAVOK 04/00 Q1028=
201202210000 METAR LPPR 210000Z 02002KT CAVOK 03/01 Q1027=
201202202330 METAR LPPR 202330Z VRB02KT CAVOK 05/01 Q1028=
201202202300 METAR LPPR 202300Z VRB01KT CAVOK 06/02 Q1027=
201202202230 METAR LPPR 202230Z 12003KT 040V180 CAVOK 05/03 Q1028=
201202202200 METAR LPPR 202200Z 00000KT CAVOK 05/02 Q1028=
201202202130 METAR LPPR 202130Z VRB01KT CAVOK 06/03 Q1028=
201202202100 METAR LPPR 202100Z 10003KT 060V140 CAVOK 06/03 Q1028=
201202202030 METAR LPPR 202030Z 03003KT CAVOK 07/04 Q1028=
201202202000 METAR LPPR 202000Z 35003KT 320V050 CAVOK 09/05 Q1028=
201202201930 METAR LPPR 201930Z 02005KT CAVOK 09/05 Q1027=
201202201900 METAR LPPR 201900Z 36005KT CAVOK 09/05 Q1027=
201202201830 METAR LPPR 201830Z 35007KT CAVOK 10/05 Q1027=
201202201800 METAR LPPR 201800Z 34006KT CAVOK 11/04 Q1027=
201202201730 METAR LPPR 201730Z 32005KT CAVOK 12/02 Q1026=
201202201700 METAR LPPR 201700Z 33006KT CAVOK 13/03 Q1026=
201202201630 METAR LPPR 201630Z 32008KT CAVOK 13/05 Q1026=
201202201600 METAR LPPR 201600Z 34005KT 270V050 CAVOK 16/00 Q1026=
201202201530 METAR LPPR 201530Z 09006KT 060V150 CAVOK 16/M02 Q1026=
201202201500 METAR LPPR 201500Z 09005KT 360V150 CAVOK 16/M03 Q1026=
201202201430 METAR LPPR 201430Z 12007KT 080V140 CAVOK 16/M03 Q1027=
201202201400 METAR LPPR 201400Z 12008KT CAVOK 16/M03 Q1027=
201202201330 METAR LPPR 201330Z 09009KT 060V160 CAVOK 15/M03 Q1027=
201202201300 METAR LPPR 201300Z 09011KT CAVOK 15/M03 Q1027=
201202201230 METAR LPPR 201230Z 09010KT 060V130 CAVOK 14/M04 Q1028=
201202201200 METAR LPPR 201200Z 09011KT CAVOK 13/M04 Q1028=
201202201130 METAR LPPR 201130Z 11012KT CAVOK 13/M04 Q1028=
201202201100 METAR LPPR 201100Z 10013KT CAVOK 12/M05 Q1028=
201202201030 METAR LPPR 201030Z 11014KT CAVOK 11/M04 Q1028=
201202201000 METAR LPPR 201000Z 10016KT CAVOK 10/M04 Q1028=
201202200930 METAR LPPR 200930Z 09015KT CAVOK 09/M03 Q1028=
201202200900 METAR LPPR 200900Z 10015KT CAVOK 09/M02 Q1028=
201202200830 METAR LPPR 200830Z 10015KT CAVOK 08/M02 Q1028=
201202200800 METAR LPPR 200800Z 10013KT CAVOK 08/M02 Q1027=
201202200730 METAR LPPR 200730Z 10012KT CAVOK 08/M01 Q1027=
201202200700 METAR LPPR 200700Z 10012KT CAVOK 08/M01 Q1027=
201202200630 METAR LPPR 200630Z 10009KT 010V130 CAVOK 08/M00 Q1026=
201202200600 METAR LPPR 200600Z 11010KT CAVOK 08/00 Q1026=
201202200530 METAR LPPR 200530Z 11010KT CAVOK 09/01 Q1026=
201202200500 METAR LPPR 200500Z 11011KT CAVOK 09/02 Q1026=
201202200430 METAR LPPR 200430Z 11011KT CAVOK 08/03 Q1026=
201202200400 METAR LPPR 200400Z 10008KT CAVOK 08/03 Q1026=
201202200330 METAR LPPR 200330Z 10007KT CAVOK 08/04 Q1026=
201202200300 METAR LPPR 200300Z 08005KT 050V110 CAVOK 08/04 Q1026=
201202200230 METAR LPPR 200230Z 10005KT CAVOK 05/05 Q1026=
201202200200 METAR LPPR 200200Z VRB02KT 8000 NSC 04/03 Q1026=
201202200130 METAR LPPR 200130Z VRB01KT 9000 NSC 04/03 Q1026=
201202200100 METAR LPPR 200100Z 07003KT CAVOK 05/04 Q1026=
201202200030 METAR LPPR 200030Z 11003KT 9999 FEW003 06/06 Q1026=
201202200000 METAR LPPR 200000Z VRB03KT 7000 NSC 05/05 Q1026=
201202192330 METAR LPPR 192330Z VRB01KT 9000 0900N R35/P2000 PRFG NSC
                        04/04 Q1026=
201202192300 METAR LPPR 192300Z VRB02KT 8000 1200N R35/P2000 NSC 06/06
                        Q1026=
201202192230 METAR LPPR 192230Z 02003KT 310V060 9000 FEW010 07/06 Q1026=
201202192200 METAR LPPR 192200Z 00000KT 9000 NSC 07/07 Q1026=
201202192130 METAR LPPR 192130Z 00000KT 9000 NSC 09/08 Q1026=
201202192100 METAR LPPR 192100Z VRB02KT CAVOK 07/06 Q1025=
201202192030 METAR LPPR 192030Z 36004KT 320V130 9000 NSC 09/08 Q1025=
201202192000 METAR LPPR 192000Z 34003KT CAVOK 10/09 Q1025=
201202191930 METAR LPPR 191930Z 35004KT CAVOK 10/08 Q1025=
201202191900 METAR LPPR 191900Z 33005KT CAVOK 10/09 Q1025=
201202191830 METAR LPPR 191830Z 34004KT 9999 FEW040 11/09 Q1024=
201202191800 METAR LPPR 191800Z 33007KT 9999 FEW035 12/09 Q1024=
201202191730 METAR LPPR 191730Z 33006KT 290V360 9999 FEW035 13/09 Q1024=
201202191700 METAR LPPR 191700Z 30005KT 260V350 9999 FEW035 14/09 Q1024=
201202191630 METAR LPPR 191630Z 32006KT 9999 FEW035 14/09 Q1024=
201202191600 METAR LPPR 191600Z 32007KT 280V350 9999 FEW045 14/08 Q1024=
201202191530 METAR LPPR 191530Z 32010KT 9999 FEW045 14/07 Q1024=
201202191500 METAR LPPR 191500Z 31008KT 280V340 9999 NSC 14/06 Q1024=
201202191430 METAR LPPR 191430Z 32009KT 280V360 9999 FEW045 14/06 Q1025=
201202191400 METAR LPPR 191400Z 33009KT CAVOK 14/06 Q1025=
201202191330 METAR LPPR 191330Z 31008KT 280V340 CAVOK 13/05 Q1025=
201202191300 METAR LPPR 191300Z 32007KT 280V350 CAVOK 13/06 Q1025=
201202191230 METAR LPPR 191230Z 02006KT 320V070 CAVOK 14/02 Q1026=
201202191200 METAR LPPR 191200Z 01007KT 340V040 CAVOK 13/04 Q1026=
201202191130 METAR LPPR 191130Z 04004KT 320V110 CAVOK 13/03 Q1026=
201202191100 METAR LPPR 191100Z 06004KT 010V100 CAVOK 12/03 Q1026=
201202191030 METAR LPPR 191030Z 04004KT 330V100 9000 NSC 10/04 Q1026=
201202191000 METAR LPPR 191000Z 03003KT 300V100 9000 NSC 09/03 Q1026=
201202190930 METAR LPPR 190930Z VRB01KT 8000 NSC 07/04 Q1026=
201202190900 METAR LPPR 190900Z VRB01KT 7000 NSC 06/04 Q1025=
201202190830 METAR LPPR 190830Z VRB02KT 6000 NSC 03/03 Q1025=
201202190800 METAR LPPR 190800Z VRB01KT 8000 NSC 01/01 Q1025=
201202190730 METAR LPPR 190730Z VRB03KT 7000 NSC 02/01 Q1025=
201202190700 METAR LPPR 190700Z 00000KT 9000 NSC 02/02 Q1024=
201202190630 METAR LPPR 190630Z VRB02KT 9000 NSC 01/01 Q1024=
201202190600 METAR LPPR 190600Z VRB01KT 8000 NSC 01/01 Q1024=
201202190530 METAR LPPR 190530Z VRB01KT 8000 NSC 02/02 Q1024=
201202190500 METAR LPPR 190500Z VRB02KT 8000 NSC 02/02 Q1024=
201202190430 METAR LPPR 190430Z 05001KT 8000 NSC 02/02 Q1024=
201202190400 METAR LPPR 190400Z 00000KT 8000 NSC 02/02 Q1024=
201202190330 METAR LPPR 190330Z VRB01KT 8000 NSC 03/03 Q1024=
201202190300 METAR LPPR 190300Z 04002KT 6000 NSC 02/02 Q1024=
201202190230 METAR LPPR 190230Z 36003KT 6000 NSC 03/02 Q1023=
201202190200 METAR LPPR 190200Z 35003KT 6000 NSC 03/03 Q1023=
201202190130 METAR LPPR 190130Z 05002KT 6000 NSC 03/03 Q1023=
201202190100 METAR LPPR 190100Z 36003KT 330V030 7000 NSC 03/03 Q1024=
201202190030 METAR LPPR 190030Z 05002KT 8000 NSC 04/04 Q1024=
201202190000 METAR LPPR 190000Z 02003KT 7000 NSC 04/03 Q1024=
201202182330 METAR LPPR 182330Z VRB02KT 8000 NSC 05/04 Q1023=
201202182300 METAR LPPR 182300Z 00000KT 8000 NSC 04/03 Q1024=
201202182230 METAR LPPR 182230Z 11002KT 8000 NSC 06/05 Q1024=
201202182200 METAR LPPR 182200Z VRB01KT 6000 NSC 06/05 Q1024=
201202182130 METAR LPPR 182130Z 35002KT 6000 NSC 06/05 Q1023=
201202182100 METAR LPPR 182100Z 35002KT 6000 NSC 07/06 Q1023=
201202182030 METAR LPPR 182030Z 35003KT 7000 NSC 08/06 Q1023=
201202182000 METAR LPPR 182000Z 35004KT 9000 NSC 08/06 Q1023=
201202181930 METAR LPPR 181930Z 35004KT 9000 NSC 09/07 Q1023=
201202181900 METAR LPPR 181900Z 34005KT 9000 NSC 10/07 Q1023=
201202181830 METAR LPPR 181830Z 32005KT 9999 FEW025 10/07 Q1023=
201202181800 METAR LPPR 181800Z 33005KT 290V350 9999 FEW025 11/07 Q1023=
201202181730 METAR LPPR 181730Z 32005KT 290V360 9999 FEW025 12/06 Q1022=
201202181700 METAR LPPR 181700Z 31005KT 270V360 9999 FEW025 12/05 Q1022=
201202181630 METAR LPPR 181630Z 33005KT 280V360 9999 FEW025 12/05 Q1022=
201202181600 METAR LPPR 181600Z 31006KT 270V340 9999 FEW025 12/06 Q1022=
201202181530 METAR LPPR 181530Z 29005KT 260V320 9999 FEW025 13/06 Q1023=
201202181500 METAR LPPR 181500Z 29005KT 230V320 9999 FEW025 13/06 Q1023=
201202181430 METAR LPPR 181430Z 29006KT 250V330 9999 FEW025 13/06 Q1023=
201202181400 METAR LPPR 181400Z 29006KT 220V320 CAVOK 14/07 Q1023=
201202181300 METAR LPPR 181300Z 24007KT 210V290 CAVOK 13/06 Q1023=
201202181230 METAR LPPR 181230Z 27005KT 210V330 CAVOK 14/04 Q1023=
201202181200 METAR LPPR 181200Z VRB03KT CAVOK 14/02 Q1024=
201202181130 METAR LPPR 181130Z 15005KT 120V180 CAVOK 14/02 Q1024=
201202181100 METAR LPPR 181100Z 11006KT 080V140 CAVOK 12/02 Q1024=
201202181030 METAR LPPR 181030Z 12008KT CAVOK 11/03 Q1024=
201202181000 METAR LPPR 181000Z 12010KT CAVOK 10/02 Q1024=
201202180930 METAR LPPR 180930Z 11011KT CAVOK 08/02 Q1024=
201202180900 METAR LPPR 180900Z 11010KT CAVOK 07/02 Q1024=
201202180830 METAR LPPR 180830Z 12009KT CAVOK 06/01 Q1023=
201202180800 METAR LPPR 180800Z 11009KT CAVOK 05/01 Q1023=
201202180730 METAR LPPR 180730Z VRB02KT CAVOK 05/01 Q1023=
201202180700 METAR LPPR 180700Z VRB03KT CAVOK 05/01 Q1023=
201202180630 METAR LPPR 180630Z VRB04KT CAVOK 05/01 Q1022=
201202180600 METAR LPPR 180600Z VRB04KT CAVOK 06/01 Q1022=
201202180530 METAR LPPR 180530Z 10006KT CAVOK 06/01 Q1022=
201202180500 METAR LPPR 180500Z 10005KT 050V120 CAVOK 06/01 Q1022=
201202180430 METAR LPPR 180430Z VRB01KT CAVOK 06/01 Q1022=
201202180400 METAR LPPR 180400Z VRB01KT CAVOK 06/02 Q1022=
201202180330 METAR LPPR 180330Z VRB01KT CAVOK 05/02 Q1022=
201202180300 METAR LPPR 180300Z 07002KT CAVOK 04/01 Q1022=
201202180230 METAR LPPR 180230Z 07004KT CAVOK 05/02 Q1022=
201202180200 METAR LPPR 180200Z 06003KT CAVOK 04/02 Q1023=
201202180130 METAR LPPR 180130Z 04003KT CAVOK 06/03 Q1022=
201202180100 METAR LPPR 180100Z 08003KT CAVOK 06/03 Q1022=
201202180030 METAR LPPR 180030Z 10005KT CAVOK 06/03 Q1022=
201202180000 METAR LPPR 180000Z VRB03KT CAVOK 05/03 Q1022=
201202172330 METAR LPPR 172330Z 02002KT CAVOK 04/03 Q1023=
201202172300 METAR LPPR 172300Z VRB02KT CAVOK 05/03 Q1023=
201202172230 METAR LPPR 172230Z VRB02KT CAVOK 05/04 Q1023=
201202172200 METAR LPPR 172200Z VRB02KT CAVOK 05/04 Q1023=
201202172130 METAR LPPR 172130Z VRB02KT CAVOK 07/05 Q1023=
201202172100 METAR LPPR 172100Z 03004KT CAVOK 07/05 Q1023=
201202172030 METAR LPPR 172030Z 01005KT 330V050 CAVOK 08/05 Q1023=
201202172000 METAR LPPR 172000Z 36005KT 340V040 CAVOK 08/05 Q1023=
201202171930 METAR LPPR 171930Z 34005KT CAVOK 09/06 Q1023=
201202171900 METAR LPPR 171900Z 35008KT CAVOK 09/06 Q1022=
201202171830 METAR LPPR 171830Z 34007KT CAVOK 10/06 Q1022=
201202171800 METAR LPPR 171800Z 34007KT CAVOK 11/05 Q1022=
201202171730 METAR LPPR 171730Z 34007KT CAVOK 12/06 Q1022=
201202171700 METAR LPPR 171700Z 31006KT 270V340 CAVOK 13/06 Q1022=
201202171630 METAR LPPR 171630Z VRB03KT CAVOK 14/05 Q1022=
201202171600 METAR LPPR 171600Z 09003KT 040V140 9999 FEW020 15/00 Q1022=
201202171530 METAR LPPR 171530Z 08007KT 040V120 9999 FEW020 15/00 Q1022=
201202171500 METAR LPPR 171500Z 10008KT 060V120 9999 FEW020 15/M00 Q1022=
201202171430 METAR LPPR 171430Z 08008KT 050V110 9999 FEW020 15/01 Q1022=
201202171400 METAR LPPR 171400Z 08010KT 030V110 9999 FEW020 14/01 Q1023=
201202171330 METAR LPPR 171330Z 11009G20KT 060V150 9999 FEW020 14/01 Q1023=
201202171300 METAR LPPR 171300Z 07009KT 030V110 9999 FEW020 14/01 Q1023=
201202171230 METAR LPPR 171230Z 09010KT 050V120 9999 FEW020 14/01 Q1024=
201202171200 METAR LPPR 171200Z 10011G21KT 080V150 9999 FEW020 14/00 Q1024=
201202171130 METAR LPPR 171130Z 09011KT 050V120 9999 FEW020 13/01 Q1024=
201202171100 METAR LPPR 171100Z 09013KT 9999 FEW020 13/00 Q1024=
201202171030 METAR LPPR 171030Z 08013KT 9999 FEW020 12/01 Q1025=
201202171000 METAR LPPR 171000Z 07010KT 9999 FEW020 11/02 Q1025=
201202170930 METAR LPPR 170930Z 05008KT 020V080 9999 FEW020 10/01 Q1025=
201202170900 METAR LPPR 170900Z 02008KT 330V060 9999 FEW020 08/01 Q1025=
201202170830 METAR LPPR 170830Z 02007KT 300V050 9999 FEW020 06/01 Q1025=
201202170800 METAR LPPR 170800Z 01007KT 9999 FEW020 06/00 Q1024=
201202170730 METAR LPPR 170730Z 04006KT CAVOK 06/00 Q1024=
201202170700 METAR LPPR 170700Z 06006KT 290V090 CAVOK 05/00 Q1024=
201202170630 METAR LPPR 170630Z 06004KT CAVOK 05/M00 Q1024=
201202170600 METAR LPPR 170600Z 05005KT CAVOK 06/M00 Q1024=
201202170530 METAR LPPR 170530Z 06007KT CAVOK 07/M00 Q1024=
201202170500 METAR LPPR 170500Z 07009KT CAVOK 08/M00 Q1024=
201202170430 METAR LPPR 170430Z 07006KT 040V100 CAVOK 07/M00 Q1024=
201202170400 METAR LPPR 170400Z 07005KT CAVOK 07/M00 Q1024=
201202170330 METAR LPPR 170330Z 07004KT 010V110 CAVOK 07/M00 Q1024=
201202170300 METAR LPPR 170300Z 07004KT 040V110 CAVOK 08/M00 Q1024=
201202170230 METAR LPPR 170230Z 08005KT 050V120 CAVOK 08/M00 Q1024=
201202170200 METAR LPPR 170200Z 08006KT CAVOK 08/00 Q1024=
201202170130 METAR LPPR 170130Z 10006KT CAVOK 09/01 Q1024=
201202170100 METAR LPPR 170100Z 11008KT CAVOK 09/01 Q1024=
201202170030 METAR LPPR 170030Z 12008KT CAVOK 10/01 Q1024=
201202170000 METAR LPPR 170000Z 11010KT CAVOK 10/02 Q1024=
201202162330 METAR LPPR 162330Z 12008KT 9000 NSC 08/03 Q1024=
201202162300 METAR LPPR 162300Z 08006KT CAVOK 07/03 Q1024=
201202162230 METAR LPPR 162230Z 08005KT 060V170 CAVOK 07/04 Q1024=
201202162200 METAR LPPR 162200Z 09004KT CAVOK 08/04 Q1024=
201202162130 METAR LPPR 162130Z 13004KT 100V160 CAVOK 07/03 Q1024=
201202162100 METAR LPPR 162100Z VRB02KT CAVOK 09/03 Q1023=
201202162030 METAR LPPR 162030Z 10004G14KT 010V120 CAVOK 08/04 Q1023=
201202162000 METAR LPPR 162000Z 02004KT 340V070 CAVOK 09/04 Q1023=
201202161930 METAR LPPR 161930Z 02004KT 340V070 CAVOK 10/04 Q1023=
201202161900 METAR LPPR 161900Z 35005KT 320V020 CAVOK 11/04 Q1023=
201202161830 METAR LPPR 161830Z 36004KT CAVOK 11/05 Q1023=
201202161800 METAR LPPR 161800Z 35007KT CAVOK 12/05 Q1023=
201202161730 METAR LPPR 161730Z 34007KT CAVOK 13/05 Q1023=
201202161700 METAR LPPR 161700Z 34008KT CAVOK 14/04 Q1023=
201202161630 METAR LPPR 161630Z 34010KT CAVOK 14/03 Q1024=
201202161600 METAR LPPR 161600Z 31006KT 280V350 CAVOK 15/05 Q1024=
201202161530 METAR LPPR 161530Z 31007KT 280V340 CAVOK 14/06 Q1024=
201202161500 METAR LPPR 161500Z 30006KT 260V340 CAVOK 15/05 Q1024=
201202161430 METAR LPPR 161430Z 31008KT 280V340 CAVOK 14/05 Q1024=
201202161400 METAR LPPR 161400Z 27005KT 200V310 CAVOK 15/05 Q1025=
201202161330 METAR LPPR 161330Z 28006KT 240V310 CAVOK 14/06 Q1025=
201202161300 METAR LPPR 161300Z 03005KT 300V100 CAVOK 15/02 Q1026=
201202161230 METAR LPPR 161230Z 05006KT 010V110 CAVOK 14/02 Q1026=
201202161200 METAR LPPR 161200Z 02006KT 340V070 CAVOK 13/02 Q1026=
201202161130 METAR LPPR 161130Z 03005KT 330V100 CAVOK 12/02 Q1027=
201202161100 METAR LPPR 161100Z 05006KT 330V110 CAVOK 11/02 Q1027=
201202161030 METAR LPPR 161030Z 05005KT 010V080 CAVOK 11/02 Q1027=
201202161000 METAR LPPR 161000Z 07006KT 360V110 CAVOK 10/02 Q1027=
201202160930 METAR LPPR 160930Z 10005KT 070V130 CAVOK 10/02 Q1028=
201202160900 METAR LPPR 160900Z 10006KT CAVOK 08/02 Q1028=
201202160830 METAR LPPR 160830Z 10005KT CAVOK 03/01 Q1027=
201202160800 METAR LPPR 160800Z 04003KT 360V150 CAVOK 03/M00 Q1027=
201202160730 METAR LPPR 160730Z 04004KT 030V150 CAVOK 02/00 Q1027=
201202160700 METAR LPPR 160700Z VRB03KT CAVOK 02/M00 Q1027=
201202160630 METAR LPPR 160630Z VRB02KT CAVOK 04/01 Q1027=
201202160600 METAR LPPR 160600Z 02003KT CAVOK 02/M00 Q1027=
201202160530 METAR LPPR 160530Z VRB02KT CAVOK 02/M00 Q1027=
201202160500 METAR LPPR 160500Z VRB02KT CAVOK 03/01 Q1027=
201202160430 METAR LPPR 160430Z 01003KT CAVOK 03/01 Q1027=
201202160400 METAR LPPR 160400Z VRB01KT CAVOK 03/00 Q1026=
201202160330 METAR LPPR 160330Z VRB03KT CAVOK 04/00 Q1026=
201202160300 METAR LPPR 160300Z 05004KT 020V080 CAVOK 07/01 Q1027=
201202160230 METAR LPPR 160230Z 07004KT CAVOK 08/01 Q1027=
201202160200 METAR LPPR 160200Z 07006KT CAVOK 08/01 Q1027=
201202160130 METAR LPPR 160130Z 06007KT CAVOK 08/01 Q1028=
201202160100 METAR LPPR 160100Z 05006KT CAVOK 08/02 Q1028=
201202160030 METAR LPPR 160030Z 04007KT CAVOK 09/02 Q1028=
201202160000 METAR LPPR 160000Z 03008KT CAVOK 09/01 Q1028=
201202152330 METAR LPPR 152330Z 04006KT CAVOK 09/01 Q1028=
201202152300 METAR LPPR 152300Z 02006KT CAVOK 10/01 Q1028=
201202152230 METAR LPPR 152230Z 03006KT CAVOK 10/01 Q1028=
201202152200 METAR LPPR 152200Z 02008KT CAVOK 10/01 Q1028=
201202152130 METAR LPPR 152130Z 01007KT CAVOK 09/01 Q1028=
201202152100 METAR LPPR 152100Z 03007KT CAVOK 10/02 Q1027=
201202152030 METAR LPPR 152030Z 03007KT CAVOK 10/02 Q1028=
201202152000 METAR LPPR 152000Z 03008KT CAVOK 12/02 Q1028=
201202151930 METAR LPPR 151930Z 01009KT 350V050 CAVOK 12/02 Q1028=
201202151900 METAR LPPR 151900Z 01008KT CAVOK 11/03 Q1028=
201202151830 METAR LPPR 151830Z 36007KT CAVOK 12/03 Q1028=
201202151800 METAR LPPR 151800Z 34005KT 300V050 CAVOK 13/03 Q1027=
201202151730 METAR LPPR 151730Z 33003KT 290V360 CAVOK 14/05 Q1027=
201202151700 METAR LPPR 151700Z 32007KT CAVOK 14/06 Q1027=
201202151630 METAR LPPR 151630Z 32008KT CAVOK 15/05 Q1027=
201202151600 METAR LPPR 151600Z 32008KT CAVOK 15/04 Q1028=
201202151530 METAR LPPR 151530Z 32008KT CAVOK 15/04 Q1028=
201202151500 METAR LPPR 151500Z 20005KT 140V290 CAVOK 15/02 Q1028=
201202151430 METAR LPPR 151430Z VRB04KT CAVOK 15/02 Q1028=
201202151400 METAR LPPR 151400Z 27005KT 210V350 CAVOK 15/02 Q1029=
201202151330 METAR LPPR 151330Z 28005KT 220V310 CAVOK 14/03 Q1029=
201202151300 METAR LPPR 151300Z 28005KT 240V320 CAVOK 13/04 Q1030=
201202151230 METAR LPPR 151230Z 01006KT 320V060 CAVOK 14/01 Q1030=
201202151200 METAR LPPR 151200Z VRB04KT CAVOK 13/01 Q1031=
201202151130 METAR LPPR 151130Z 03005KT 330V080 CAVOK 11/01 Q1031=
201202151100 METAR LPPR 151100Z 03006KT 340V070 CAVOK 11/02 Q1031=
201202151030 METAR LPPR 151030Z 05007KT 320V070 CAVOK 09/02 Q1031=
201202151000 METAR LPPR 151000Z 36006KT CAVOK 08/01 Q1031=
201202150930 METAR LPPR 150930Z 25003KT 210V310 CAVOK 08/01 Q1031=
201202150900 METAR LPPR 150900Z VRB02KT CAVOK 07/02 Q1031=
201202150830 METAR LPPR 150830Z 06003KT 030V130 CAVOK 06/01 Q1031=
201202150800 METAR LPPR 150800Z VRB02KT CAVOK 03/M00 Q1030=
201202150730 METAR LPPR 150730Z VRB01KT CAVOK 04/00 Q1030=
201202150700 METAR LPPR 150700Z 36004KT 300V090 CAVOK 06/M00 Q1030=
201202150630 METAR LPPR 150630Z 07003KT 350V110 CAVOK 05/M00 Q1029=
201202150600 METAR LPPR 150600Z 06003KT 020V130 CAVOK 06/00 Q1029=
201202150530 METAR LPPR 150530Z 03006KT CAVOK 06/01 Q1029=
201202150500 METAR LPPR 150500Z 03007KT 360V060 CAVOK 07/01 Q1029=
201202150430 METAR LPPR 150430Z 03008KT CAVOK 06/01 Q1029=
201202150400 METAR LPPR 150400Z 03006KT CAVOK 05/01 Q1028=
201202150330 METAR LPPR 150330Z 03005KT CAVOK 07/01 Q1028=
201202150300 METAR LPPR 150300Z 03006KT CAVOK 06/01 Q1028=
201202150230 METAR LPPR 150230Z 01008KT CAVOK 06/01 Q1028=
201202150200 METAR LPPR 150200Z 01009KT CAVOK 06/01 Q1028=
201202150130 METAR LPPR 150130Z 03007KT CAVOK 07/01 Q1028=
201202150100 METAR LPPR 150100Z 01006KT CAVOK 07/00 Q1028=
201202150030 METAR LPPR 150030Z 03008KT CAVOK 08/01 Q1028=
201202150000 METAR LPPR 150000Z 04008KT CAVOK 09/00 Q1027=
201202142330 METAR LPPR 142330Z 04010KT CAVOK 09/01 Q1027=
201202142300 METAR LPPR 142300Z 04010KT CAVOK 09/01 Q1027=
201202142230 METAR LPPR 142230Z 04011KT CAVOK 09/01 Q1027=
201202142200 METAR LPPR 142200Z 04011KT CAVOK 09/02 Q1026=
201202142130 METAR LPPR 142130Z 03012KT CAVOK 09/02 Q1026=
201202142100 METAR LPPR 142100Z 02011KT CAVOK 09/02 Q1026=
201202142030 METAR LPPR 142030Z 01011KT CAVOK 09/02 Q1026=
201202142000 METAR LPPR 142000Z 01007KT CAVOK 09/02 Q1026=
201202141930 METAR LPPR 141930Z 02005KT 330V070 9999 FEW045 10/02 Q1026=
201202141900 METAR LPPR 141900Z 36009KT 9999 FEW045 10/02 Q1025=
201202141830 METAR LPPR 141830Z 36013KT 9999 FEW045 11/02 Q1025=
201202141800 METAR LPPR 141800Z 36018KT 9999 FEW029 12/02 Q1024=
201202141730 METAR LPPR 141730Z 01014KT 9999 FEW029 12/03 Q1024=
201202141700 METAR LPPR 141700Z 36015KT 9999 FEW029 SCT050 13/03 Q1024=
201202141630 METAR LPPR 141630Z 36016KT 330V030 9999 FEW029 SCT044 13/04
                        Q1024=
201202141600 METAR LPPR 141600Z 34014KT 9999 FEW025 13/06 Q1024=
201202141530 METAR LPPR 141530Z 34014KT 9999 FEW020 13/07 Q1025=
201202141500 METAR LPPR 141500Z 34020KT 9999 FEW025 13/07 Q1024=
201202141430 METAR LPPR 141430Z 36019KT 9999 FEW035 14/05 Q1025=
201202141400 METAR LPPR 141400Z 36015KT 9999 FEW035 14/05 Q1025=
201202141330 METAR LPPR 141330Z 01017KT 330V030 9999 FEW035 14/04 Q1025=
201202141300 METAR LPPR 141300Z 01015KT 340V040 9999 FEW030 14/04 Q1026=
201202141230 METAR LPPR 141230Z 02011KT 330V050 9999 FEW030 13/04 Q1026=
201202141200 METAR LPPR 141200Z 36012KT 330V040 9999 FEW025 12/05 Q1027=
201202141130 METAR LPPR 141130Z 01011KT 340V060 9999 FEW020 11/04 Q1027=
201202141100 METAR LPPR 141100Z 36009KT 320V030 CAVOK 10/05 Q1027=
201202141030 METAR LPPR 141030Z 36004KT 330V040 CAVOK 08/04 Q1028=
201202141000 METAR LPPR 141000Z 33007KT 9999 FEW030 08/04 Q1028=
201202140930 METAR LPPR 140930Z 33004KT 260V360 9999 FEW035 07/04 Q1027=
201202140900 METAR LPPR 140900Z 35003KT 310V030 9999 FEW030 07/04 Q1028=
201202140830 METAR LPPR 140830Z 32004KT 290V350 9999 FEW025 07/04 Q1028=
201202140800 METAR LPPR 140800Z 33006KT 9999 FEW015 SCT040 06/04 Q1028=
201202140730 METAR LPPR 140730Z 34004KT 9999 SCT040 06/03 Q1028=
201202140700 METAR LPPR 140700Z 35007KT 9999 SCT040 05/03 Q1028=
201202140630 METAR LPPR 140630Z 34006KT 9999 SCT040 06/03 Q1028=
201202140600 METAR LPPR 140600Z 02004KT 9999 SCT040 05/02 Q1028=
201202140530 METAR LPPR 140530Z 35003KT 9999 SCT040 05/02 Q1028=
201202140500 METAR LPPR 140500Z 36005KT 9999 SCT040 05/02 Q1028=
201202140430 METAR LPPR 140430Z 36006KT 9999 SCT040 05/02 Q1028=
201202140400 METAR LPPR 140400Z 36007KT 9999 FEW040 04/02 Q1029=
201202140330 METAR LPPR 140330Z 35007KT CAVOK 03/01 Q1029=
201202140300 METAR LPPR 140300Z 35006KT CAVOK 05/02 Q1029=
201202140230 METAR LPPR 140230Z 03006KT CAVOK 05/02 Q1029=
201202140200 METAR LPPR 140200Z 34007KT CAVOK 06/03 Q1029=
201202140130 METAR LPPR 140130Z 01004KT CAVOK 05/03 Q1030=
201202140100 METAR LPPR 140100Z 36005KT CAVOK 06/03 Q1030=
201202140030 METAR LPPR 140030Z 34004KT 9999 FEW040 06/03 Q1030=
201202140000 METAR LPPR 140000Z 36003KT 9999 FEW040 06/03 Q1030=
201202132330 METAR LPPR 132330Z 03007KT CAVOK 07/03 Q1031=
201202132300 METAR LPPR 132300Z 36005KT CAVOK 06/03 Q1031=
201202132230 METAR LPPR 132230Z 01008KT CAVOK 07/03 Q1031=
201202132200 METAR LPPR 132200Z 34008KT CAVOK 09/03 Q1031=
201202132130 METAR LPPR 132130Z 33010KT CAVOK 10/02 Q1031=
201202132100 METAR LPPR 132100Z 36012KT CAVOK 10/02 Q1031=
201202132030 METAR LPPR 132030Z 01013KT CAVOK 10/01 Q1031=
201202132000 METAR LPPR 132000Z 01008KT 9999 FEW030 09/01 Q1031=
201202131930 METAR LPPR 131930Z 01007KT 9999 FEW030 10/01 Q1031=
201202131900 METAR LPPR 131900Z 35008KT 9999 FEW030 10/02 Q1031=
201202131830 METAR LPPR 131830Z 34012KT 9999 FEW030 10/04 Q1030=
201202131800 METAR LPPR 131800Z 33013KT 9999 SCT030 11/03 Q1030=
201202131730 METAR LPPR 131730Z 33012KT 9999 FEW030 11/04 Q1030=
201202131700 METAR LPPR 131700Z 33012KT 300V360 9999 FEW020 11/03 Q1029=
201202131630 METAR LPPR 131630Z 33007KT 280V360 9999 FEW020 12/03 Q1029=
201202131600 METAR LPPR 131600Z 33009KT 280V350 9999 FEW030 12/03 Q1030=
201202131530 METAR LPPR 131530Z 32008KT 290V350 9999 FEW030 11/01 Q1030=
201202131500 METAR LPPR 131500Z 31006KT 260V360 9999 FEW030 12/M04 Q1030=
201202131430 METAR LPPR 131430Z 30006KT 270V340 9999 FEW040 11/M05 Q1031=
201202131400 METAR LPPR 131400Z 31006KT 270V340 9999 FEW035 11/M04 Q1031=
201202131330 METAR LPPR 131330Z 33008KT 290V350 9999 FEW035 10/M05 Q1031=
201202131300 METAR LPPR 131300Z 35009KT 9999 FEW025 11/M09 Q1032=
201202131230 METAR LPPR 131230Z 04004KT 330V110 CAVOK 12/M08 Q1032=
201202131200 METAR LPPR 131200Z 10005KT 030V140 CAVOK 11/M09 Q1032=
201202131130 METAR LPPR 131130Z 08009KT 020V100 CAVOK 10/M09 Q1032=
201202131100 METAR LPPR 131100Z 05010KT CAVOK 08/M09 Q1033=
201202131030 METAR LPPR 131030Z 05009KT CAVOK 08/M09 Q1033=
201202131000 METAR LPPR 131000Z 01004KT 330V060 CAVOK 06/M07 Q1033=
201202130930 METAR LPPR 130930Z VRB02KT CAVOK 04/M07 Q1032=
201202130900 METAR LPPR 130900Z 02003KT 320V110 CAVOK 04/M08 Q1032=
201202130830 METAR LPPR 130830Z 09004KT CAVOK 01/M06 Q1032=
201202130800 METAR LPPR 130800Z 10003KT 010V150 CAVOK M01/M07 Q1032=
201202130730 METAR LPPR 130730Z VRB02KT CAVOK M02/M07 Q1032=
201202130700 METAR LPPR 130700Z VRB04KT CAVOK 00/M08 Q1031=
201202130630 METAR LPPR 130630Z 02004KT 350V050 CAVOK 01/M08 Q1031=
201202130600 METAR LPPR 130600Z 07006KT CAVOK 02/M08 Q1031=
201202130530 METAR LPPR 130530Z 06006KT CAVOK 01/M08 Q1031=
201202130500 METAR LPPR 130500Z 09007KT 050V110 CAVOK M00/M06 Q1030=
201202130430 METAR LPPR 130430Z 09007KT CAVOK 00/M07 Q1030=
201202130400 METAR LPPR 130400Z 10009KT CAVOK 02/M08 Q1030=
201202130330 METAR LPPR 130330Z 09005KT 060V120 CAVOK M00/M06 Q1030=
201202130300 METAR LPPR 130300Z 11005KT CAVOK 01/M06 Q1030=
201202130230 METAR LPPR 130230Z 10005KT CAVOK 01/M06 Q1030=
201202130200 METAR LPPR 130200Z 09005KT CAVOK 00/M05 Q1030=
201202130130 METAR LPPR 130130Z 11007KT CAVOK 01/M05 Q1030=
201202130100 METAR LPPR 130100Z 11009KT CAVOK 02/M04 Q1030=
201202130030 METAR LPPR 130030Z 12006KT CAVOK 01/M03 Q1030=
201202130000 METAR LPPR 130000Z 12006KT CAVOK 02/M05 Q1029=
201202122330 METAR LPPR 122330Z 07003KT 040V150 CAVOK 02/M03 Q1029=
201202122300 METAR LPPR 122300Z VRB02KT CAVOK 03/M03 Q1029=
201202122230 METAR LPPR 122230Z 09004KT 060V140 CAVOK 03/M02 Q1029=
201202122200 METAR LPPR 122200Z VRB02KT CAVOK 04/M02 Q1028=
201202122130 METAR LPPR 122130Z VRB01KT CAVOK 04/M02 Q1028=
201202122100 METAR LPPR 122100Z 12003KT CAVOK 04/M01 Q1028=
201202122030 METAR LPPR 122030Z 06003KT 010V090 CAVOK 03/M02 Q1028=
201202122000 METAR LPPR 122000Z VRB02KT CAVOK 05/M02 Q1028=
201202121930 METAR LPPR 121930Z 01002KT CAVOK 05/M02 Q1028=
201202121900 METAR LPPR 121900Z VRB02KT CAVOK 05/M03 Q1027=
201202121830 METAR LPPR 121830Z 34003KT CAVOK 07/M02 Q1027=
201202121800 METAR LPPR 121800Z 35006KT CAVOK 07/M03 Q1027=
201202121730 METAR LPPR 121730Z 34005KT 310V020 CAVOK 09/M03 Q1027=
201202121700 METAR LPPR 121700Z VRB02KT CAVOK 11/M08 Q1027=
201202121630 METAR LPPR 121630Z 10004KT 050V140 CAVOK 11/M08 Q1027=
201202121600 METAR LPPR 121600Z 06006KT 030V130 CAVOK 11/M09 Q1027=
201202121530 METAR LPPR 121530Z 09008KT 060V130 CAVOK 11/M09 Q1027=
201202121500 METAR LPPR 121500Z 08008KT 050V110 CAVOK 11/M08 Q1027=
201202121430 METAR LPPR 121430Z 08011KT 050V110 CAVOK 11/M09 Q1027=
201202121400 METAR LPPR 121400Z 09011KT 050V120 CAVOK 10/M09 Q1027=
201202121330 METAR LPPR 121330Z 09011KT 060V120 CAVOK 10/M08 Q1027=
201202121300 METAR LPPR 121300Z 09011KT 050V140 CAVOK 09/M08 Q1028=
201202121230 METAR LPPR 121230Z 11012KT 070V140 CAVOK 09/M08 Q1028=
201202121200 METAR LPPR 121200Z 10013KT 070V130 CAVOK 08/M08 Q1028=
201202121130 METAR LPPR 121130Z 11013KT CAVOK 08/M07 Q1028=
201202121100 METAR LPPR 121100Z 11012KT 080V140 CAVOK 07/M07 Q1028=
201202121030 METAR LPPR 121030Z 10012KT 070V130 CAVOK 06/M07 Q1028=
201202121000 METAR LPPR 121000Z 10011KT 060V130 CAVOK 05/M07 Q1028=
201202120930 METAR LPPR 120930Z 10012KT 070V130 CAVOK 05/M07 Q1028=
201202120900 METAR LPPR 120900Z 09010KT 050V140 CAVOK 04/M07 Q1027=
201202120830 METAR LPPR 120830Z 08009KT 030V100 CAVOK 03/M07 Q1027=
201202120800 METAR LPPR 120800Z 08010KT CAVOK 02/M07 Q1027=
201202120730 METAR LPPR 120730Z 08007KT 040V100 CAVOK 02/M07 Q1027=
201202120700 METAR LPPR 120700Z 03004KT 350V100 CAVOK 02/M07 Q1027=
201202120630 METAR LPPR 120630Z 06008KT CAVOK 02/M07 Q1026=
201202120600 METAR LPPR 120600Z 07004KT 030V100 CAVOK 02/M07 Q1026=
201202120530 METAR LPPR 120530Z 07005KT 040V110 CAVOK 02/M07 Q1026=
201202120500 METAR LPPR 120500Z 07010KT CAVOK 03/M07 Q1026=
201202120430 METAR LPPR 120430Z 10009KT CAVOK 03/M08 Q1026=
201202120400 METAR LPPR 120400Z 10011KT CAVOK 04/M08 Q1026=
201202120330 METAR LPPR 120330Z 11009KT CAVOK 04/M08 Q1026=
201202120300 METAR LPPR 120300Z 11009KT CAVOK 04/M08 Q1026=
201202120230 METAR LPPR 120230Z 10011KT CAVOK 05/M09 Q1025=
201202120200 METAR LPPR 120200Z 10010KT CAVOK 05/M09 Q1025=
201202120130 METAR LPPR 120130Z 11010KT CAVOK 05/M08 Q1025=
201202120100 METAR LPPR 120100Z 10007KT CAVOK 05/M08 Q1025=
201202120030 METAR LPPR 120030Z 10006KT CAVOK 05/M08 Q1025=
201202120000 METAR LPPR 120000Z 07005KT 040V100 CAVOK 01/M05 Q1025=
201202112330 METAR LPPR 112330Z 12003KT CAVOK 02/M04 Q1024=
201202112300 METAR LPPR 112300Z VRB02KT CAVOK 02/M03 Q1024=
201202112230 METAR LPPR 112230Z VRB02KT 9000 NSC 01/M03 Q1024=
201202112200 METAR LPPR 112200Z VRB01KT 8000 NSC 02/M02 Q1024=
201202112130 METAR LPPR 112130Z VRB01KT 8000 NSC 02/M01 Q1024=
201202112100 METAR LPPR 112100Z 02002KT 7000 NSC 03/01 Q1024=
201202112030 METAR LPPR 112030Z 01002KT 7000 NSC 03/02 Q1023=
201202112000 METAR LPPR 112000Z VRB01KT 8000 NSC 04/02 Q1023=
201202111930 METAR LPPR 111930Z VRB02KT CAVOK 06/02 Q1023=
201202111900 METAR LPPR 111900Z 01003KT 330V050 CAVOK 07/03 Q1023=
201202111830 METAR LPPR 111830Z 36004KT 340V040 8000 NSC 08/03 Q1023=
201202111800 METAR LPPR 111800Z 34004KT 310V030 CAVOK 09/03 Q1023=
201202111730 METAR LPPR 111730Z 33004KT 270V360 CAVOK 10/03 Q1022=
201202111700 METAR LPPR 111700Z 06006KT CAVOK 12/M07 Q1022=
201202111630 METAR LPPR 111630Z 05007KT 020V080 CAVOK 13/M06 Q1022=
201202111600 METAR LPPR 111600Z 05005KT 010V100 CAVOK 13/M05 Q1022=
201202111530 METAR LPPR 111530Z 09006KT 060V130 CAVOK 13/M03 Q1022=
201202111500 METAR LPPR 111500Z 08007KT 040V110 CAVOK 13/M03 Q1022=
201202111430 METAR LPPR 111430Z 11007KT 080V140 CAVOK 12/M04 Q1022=
201202111400 METAR LPPR 111400Z 09008KT 030V130 CAVOK 12/M04 Q1022=
201202111330 METAR LPPR 111330Z 11009KT CAVOK 12/M03 Q1023=
201202111300 METAR LPPR 111300Z 08009KT 040V170 CAVOK 11/M03 Q1023=
201202111230 METAR LPPR 111230Z 10009KT 050V140 CAVOK 11/M03 Q1024=
201202111200 METAR LPPR 111200Z 08010KT 050V120 CAVOK 10/M02 Q1024=
201202111130 METAR LPPR 111130Z 10009KT 060V120 CAVOK 09/M03 Q1024=
201202111100 METAR LPPR 111100Z 10009KT CAVOK 09/M01 Q1024=
201202111030 METAR LPPR 111030Z 10007KT 050V130 CAVOK 08/M02 Q1024=
201202111000 METAR LPPR 111000Z 10008KT CAVOK 08/M01 Q1024=
201202110930 METAR LPPR 110930Z 10009KT CAVOK 06/M01 Q1024=
201202110900 METAR LPPR 110900Z 10007KT CAVOK 06/M01 Q1023=
201202110830 METAR LPPR 110830Z 09006KT CAVOK 05/M01 Q1023=
201202110800 METAR LPPR 110800Z 09005KT CAVOK 05/M02 Q1023=
201202110730 METAR LPPR 110730Z 07005KT CAVOK 04/M02 Q1023=
201202110700 METAR LPPR 110700Z 09007G18KT 060V200 CAVOK 05/M02 Q1022=
201202110630 METAR LPPR 110630Z 08008KT CAVOK 05/M02 Q1022=
201202110600 METAR LPPR 110600Z 09008KT CAVOK 05/M02 Q1022=
201202110530 METAR LPPR 110530Z 09007KT CAVOK 05/M01 Q1022=
201202110500 METAR LPPR 110500Z 09007KT CAVOK 05/M02 Q1022=
201202110430 METAR LPPR 110430Z 09005KT CAVOK 06/M02 Q1022=
201202110400 METAR LPPR 110400Z 10008KT CAVOK 06/M02 Q1022=
201202110330 METAR LPPR 110330Z 10008KT CAVOK 06/M01 Q1022=
201202110300 METAR LPPR 110300Z 09007KT CAVOK 06/M01 Q1022=
201202110230 METAR LPPR 110230Z 11007KT CAVOK 06/M01 Q1022=
201202110200 METAR LPPR 110200Z 09007KT 9000 NSC 06/M01 Q1022=
201202110130 METAR LPPR 110130Z 11008KT CAVOK 07/M01 Q1022=
201202110100 METAR LPPR 110100Z 11008KT CAVOK 06/M00 Q1022=
201202110030 METAR LPPR 110030Z 10006KT 9000 NSC 07/M00 Q1022=
201202110000 METAR LPPR 110000Z 11006KT 7000 NSC 06/01 Q1022=
201202102330 METAR LPPR 102330Z 12008KT 7000 NSC 07/01 Q1022=
201202102300 METAR LPPR 102300Z 11007KT 8000 NSC 07/02 Q1023=
201202102230 METAR LPPR 102230Z 13006KT 8000 NSC 05/02 Q1022=
201202102200 METAR LPPR 102200Z VRB04KT 6000 NSC 05/04 Q1023=
201202102130 METAR LPPR 102130Z 12004KT 6000 NSC 06/04 Q1023=
201202102100 METAR LPPR 102100Z 12007KT 6000 NSC 06/04 Q1022=
201202102030 METAR LPPR 102030Z 13004KT 070V170 7000 NSC 05/04 Q1022=
201202102000 METAR LPPR 102000Z VRB01KT 7000 NSC 05/04 Q1022=
201202101930 METAR LPPR 101930Z 05002KT 8000 NSC 06/04 Q1022=
201202101900 METAR LPPR 101900Z 05002KT 9000 NSC 07/05 Q1023=
201202101830 METAR LPPR 101830Z 35003KT 8000 NSC 07/04 Q1023=
201202101800 METAR LPPR 101800Z 32004KT CAVOK 09/05 Q1023=
201202101730 METAR LPPR 101730Z 33005KT CAVOK 09/05 Q1023=
201202101700 METAR LPPR 101700Z 32006KT 280V350 CAVOK 10/05 Q1023=
201202101630 METAR LPPR 101630Z 32006KT 280V350 CAVOK 10/05 Q1023=
201202101600 METAR LPPR 101600Z 31007KT 280V340 CAVOK 10/04 Q1023=
201202101530 METAR LPPR 101530Z 32009KT 290V350 CAVOK 10/05 Q1024=
201202101500 METAR LPPR 101500Z 31006KT 270V340 CAVOK 11/05 Q1024=
201202101430 METAR LPPR 101430Z 30006KT 260V350 CAVOK 11/05 Q1024=
201202101400 METAR LPPR 101400Z 32005KT 230V010 CAVOK 11/04 Q1025=
201202101330 METAR LPPR 101330Z 29005KT 250V330 CAVOK 11/03 Q1025=
201202101300 METAR LPPR 101300Z 27004KT 230V310 CAVOK 11/02 Q1026=
201202101230 METAR LPPR 101230Z 28004KT 220V310 CAVOK 11/02 Q1026=
201202101200 METAR LPPR 101200Z 28003KT 180V340 CAVOK 11/03 Q1027=
201202101130 METAR LPPR 101130Z VRB03KT CAVOK 11/01 Q1027=
201202101100 METAR LPPR 101100Z 09004KT 060V140 CAVOK 10/01 Q1027=
201202101030 METAR LPPR 101030Z 10006KT CAVOK 09/02 Q1027=
201202101000 METAR LPPR 101000Z 10007KT CAVOK 08/01 Q1027=
201202100930 METAR LPPR 100930Z 12007KT 080V140 CAVOK 06/01 Q1027=
201202100900 METAR LPPR 100900Z 11003KT 050V170 CAVOK 04/01 Q1027=
201202100830 METAR LPPR 100830Z VRB02KT 8000 02/00 Q1027=
201202100800 METAR LPPR 100800Z VRB01KT 8000 NSC 00/M01 Q1027=
201202100730 METAR LPPR 100730Z VRB02KT 7000 NSC 02/M00 Q1027=
201202100700 METAR LPPR 100700Z VRB04KT 8000 NSC 01/M01 Q1027=
201202100630 METAR LPPR 100630Z VRB03KT 9000 NSC 01/M01 Q1027=
201202100600 METAR LPPR 100600Z VRB02KT CAVOK 01/M00 Q1027=
201202100530 METAR LPPR 100530Z VRB02KT 8000 NSC 02/00 Q1027=
201202100500 METAR LPPR 100500Z VRB02KT 9000 NSC 02/M00 Q1027=
201202100430 METAR LPPR 100430Z 04003KT 8000 NSC 01/01 Q1028=
201202100400 METAR LPPR 100400Z VRB02KT 6000 NSC 00/M01 Q1028=
201202100330 METAR LPPR 100330Z VRB01KT 7000 NSC 01/M01 Q1028=
201202100300 METAR LPPR 100300Z 09003KT 6000 NSC 01/M00 Q1028=
201202100230 METAR LPPR 100230Z VRB01KT 7000 NSC 02/01 Q1028=
201202100200 METAR LPPR 100200Z VRB02KT 7000 NSC 03/01 Q1028=
201202100130 METAR LPPR 100130Z 05002KT 7000 NSC 03/02 Q1028=
201202100100 METAR LPPR 100100Z VRB02KT 7000 NSC 02/01 Q1029=
201202100030 METAR LPPR 100030Z VRB01KT 7000 NSC 02/01 Q1029=
201202100000 METAR LPPR 100000Z VRB02KT 7000 NSC 03/02 Q1029=
201202092330 METAR LPPR 092330Z VRB02KT 7000 NSC 03/01 Q1029=
201202092300 METAR LPPR 092300Z VRB01KT 9000 NSC 05/02 Q1029=
201202092230 METAR LPPR 092230Z VRB02KT CAVOK 05/02 Q1029=
201202092200 METAR LPPR 092200Z VRB02KT CAVOK 05/02 Q1029=
201202092130 METAR LPPR 092130Z VRB02KT CAVOK 05/03 Q1029=
201202092100 METAR LPPR 092100Z VRB02KT CAVOK 05/02 Q1029=
201202092030 METAR LPPR 092030Z VRB02KT CAVOK 05/02 Q1029=
201202092000 METAR LPPR 092000Z 05003KT 310V120 CAVOK 05/02 Q1029=
201202091930 METAR LPPR 091930Z 04005KT 350V090 CAVOK 05/02 Q1029=
201202091900 METAR LPPR 091900Z 00000KT CAVOK 06/03 Q1029=
201202091830 METAR LPPR 091830Z 35002KT CAVOK 07/03 Q1029=
201202091800 METAR LPPR 091800Z 33004KT CAVOK 08/03 Q1029=
201202091730 METAR LPPR 091730Z 33006KT CAVOK 09/03 Q1029=
201202091700 METAR LPPR 091700Z 33007KT CAVOK 10/02 Q1029=
201202091630 METAR LPPR 091630Z 33007KT 290V360 CAVOK 10/02 Q1029=
201202091600 METAR LPPR 091600Z 32007KT 280V350 CAVOK 10/02 Q1029=
201202091530 METAR LPPR 091530Z 32008KT 290V350 CAVOK 10/02 Q1029=
201202091500 METAR LPPR 091500Z 33008KT 310V010 CAVOK 10/01 Q1029=
201202091430 METAR LPPR 091430Z 31005KT 260V360 CAVOK 10/01 Q1030=
201202091400 METAR LPPR 091400Z 29006KT 260V340 CAVOK 10/01 Q1030=
201202091330 METAR LPPR 091330Z 04003KT 340V100 CAVOK 11/M01 Q1030=
201202091300 METAR LPPR 091300Z 03004KT 310V080 CAVOK 11/M00 Q1031=
201202091230 METAR LPPR 091230Z VRB04KT CAVOK 09/M00 Q1031=
201202091200 METAR LPPR 091200Z VRB02KT CAVOK 09/M01 Q1031=
201202091130 METAR LPPR 091130Z VRB03KT CAVOK 08/M01 Q1031=
201202091100 METAR LPPR 091100Z 02003KT 330V070 CAVOK 08/M01 Q1031=
201202091030 METAR LPPR 091030Z 07003KT 010V110 CAVOK 07/M01 Q1031=
201202091000 METAR COR LPPR 091000Z VRB04G16KT CAVOK 06/M00 Q1031=
201202090930 METAR LPPR 090930Z 11004KT 070V150 CAVOK 06/M00 Q1031=
201202090900 METAR LPPR 090900Z 09003KT 040V130 CAVOK 04/M01 Q1031=
201202090830 METAR LPPR 090830Z 02003KT 360V060 CAVOK 02/M02 Q1031=
201202090800 METAR LPPR 090800Z 09005KT CAVOK 02/M02 Q1031=
201202090730 METAR LPPR 090730Z 04005KT CAVOK 02/M02 Q1031=
201202090700 METAR LPPR 090700Z 05004G14KT 010V170 CAVOK 02/M02 Q1030=
201202090630 METAR LPPR 090630Z 11005G15KT CAVOK 00/M02 Q1030=
201202090600 METAR LPPR 090600Z 09004KT CAVOK 01/M02 Q1030=
201202090530 METAR LPPR 090530Z 06006KT CAVOK 01/M02 Q1030=
201202090500 METAR LPPR 090500Z 03003KT 010V070 CAVOK 01/M02 Q1030=
201202090430 METAR LPPR 090430Z 03004KT CAVOK 01/M02 Q1030=
201202090400 METAR LPPR 090400Z 08003KT 050V110 CAVOK 02/M02 Q1030=
201202090330 METAR LPPR 090330Z 08005KT CAVOK 02/M02 Q1030=
201202090300 METAR LPPR 090300Z 04002KT CAVOK 02/M02 Q1030=
201202090230 METAR LPPR 090230Z 02005KT CAVOK 01/M02 Q1030=
201202090200 METAR LPPR 090200Z 02006KT CAVOK 03/M02 Q1030=
201202090130 METAR LPPR 090130Z 03005KT CAVOK 01/M02 Q1030=
201202090100 METAR LPPR 090100Z 35004KT CAVOK 02/M02 Q1030=
201202090030 METAR LPPR 090030Z VRB02KT CAVOK 02/M02 Q1030=
201202090000 METAR LPPR 090000Z 00000KT CAVOK 03/M02 Q1030=
201202082330 METAR LPPR 082330Z 01003KT CAVOK 05/M02 Q1029=
201202082300 METAR LPPR 082300Z 02006KT CAVOK 06/M02 Q1029=
201202082230 METAR LPPR 082230Z 01008KT CAVOK 04/M02 Q1029=
201202082200 METAR LPPR 082200Z 36007KT CAVOK 05/M02 Q1029=
201202082130 METAR LPPR 082130Z 35007KT CAVOK 05/M02 Q1029=
201202082100 METAR LPPR 082100Z 36007KT CAVOK 05/M02 Q1029=
201202082030 METAR LPPR 082030Z 01006KT CAVOK 06/M02 Q1029=
201202082000 METAR LPPR 082000Z 35008KT CAVOK 06/M02 Q1028=
201202081930 METAR LPPR 081930Z 02008G18KT 320V060 CAVOK 08/M02 Q1028=
201202081900 METAR LPPR 081900Z 36006KT CAVOK 07/M01 Q1028=
201202081830 METAR LPPR 081830Z 36009KT CAVOK 08/M01 Q1028=
201202081800 METAR LPPR 081800Z 36006KT CAVOK 09/M01 Q1028=
201202081730 METAR LPPR 081730Z 02011KT CAVOK 10/M01 Q1027=
201202081700 METAR LPPR 081700Z 35005KT 300V060 CAVOK 11/M03 Q1027=
201202081630 METAR LPPR 081630Z 02016G27KT 350V070 CAVOK 11/M03 Q1027=
201202081600 METAR LPPR 081600Z 02016KT 350V050 CAVOK 12/M03 Q1027=
201202081530 METAR LPPR 081530Z 01016KT CAVOK 12/M03 Q1028=
201202081500 METAR LPPR 081500Z 02014KT CAVOK 12/M04 Q1027=
201202081430 METAR LPPR 081430Z 02017G27KT CAVOK 12/M03 Q1028=
201202081400 METAR LPPR 081400Z 02015KT 360V060 CAVOK 11/M04 Q1028=
201202081330 METAR LPPR 081330Z 01017KT 340V050 CAVOK 11/M04 Q1027=
201202081300 METAR LPPR 081300Z 01017KT CAVOK 11/M05 Q1028=
201202081230 METAR LPPR 081230Z 02012G23KT 340V040 CAVOK 11/M04 Q1028=
201202081200 METAR LPPR 081200Z 03007KT 340V070 CAVOK 10/M03 Q1029=
201202081130 METAR LPPR 081130Z 05011KT CAVOK 09/M02 Q1030=
201202081100 METAR LPPR 081100Z 03011KT CAVOK 08/M03 Q1029=
201202081030 METAR LPPR 081030Z 03011KT CAVOK 07/M02 Q1029=
201202081000 METAR LPPR 081000Z 02011KT CAVOK 07/M01 Q1030=
201202080930 METAR LPPR 080930Z 01006KT CAVOK 06/00 Q1030=
201202080900 METAR LPPR 080900Z 03005KT CAVOK 05/M00 Q1030=
201202080830 METAR LPPR 080830Z 01006KT CAVOK 03/M00 Q1029=
201202080800 METAR LPPR 080800Z 33003KT 300V010 CAVOK 03/M00 Q1029=
201202080730 METAR LPPR 080730Z 02004KT CAVOK 03/M01 Q1029=
201202080700 METAR LPPR 080700Z 34005KT 320V040 CAVOK 03/M00 Q1029=
201202080630 METAR LPPR 080630Z VRB02KT CAVOK 03/M01 Q1029=
201202080600 METAR LPPR 080600Z 03005KT CAVOK 05/M00 Q1029=
201202080530 METAR LPPR 080530Z 03005KT CAVOK 06/M00 Q1029=
201202080500 METAR LPPR 080500Z 04007KT CAVOK 05/00 Q1029=
201202080430 METAR LPPR 080430Z 05006KT CAVOK 06/00 Q1028=
201202080400 METAR LPPR 080400Z 06008KT CAVOK 06/01 Q1028=
201202080330 METAR LPPR 080330Z 03006KT CAVOK 06/01 Q1029=
201202080300 METAR LPPR 080300Z 01008KT CAVOK 06/01 Q1029=
201202080230 METAR LPPR 080230Z 03008KT CAVOK 06/01 Q1029=
201202080200 METAR LPPR 080200Z 01009KT CAVOK 06/01 Q1029=
201202080130 METAR LPPR 080130Z 01008KT CAVOK 06/01 Q1029=
201202080100 METAR LPPR 080100Z 01011KT CAVOK 07/01 Q1029=
201202080030 METAR LPPR 080030Z 01012KT CAVOK 07/01 Q1029=
201202080000 METAR LPPR 080000Z 35009KT CAVOK 08/02 Q1029=
201202072330 METAR LPPR 072330Z 34010KT CAVOK 09/02 Q1028=
201202072300 METAR LPPR 072300Z 01007KT CAVOK 09/02 Q1028=
201202072230 METAR LPPR 072230Z 36010KT CAVOK 09/03 Q1028=
201202072200 METAR LPPR 072200Z 36012KT 330V030 CAVOK 10/04 Q1028=
201202072130 METAR LPPR 072130Z 34009KT CAVOK 10/05 Q1028=
201202072100 METAR LPPR 072100Z 35007KT CAVOK 10/05 Q1028=
201202072030 METAR LPPR 072030Z 34009KT 9999 FEW020 11/05 Q1028=
201202072000 METAR LPPR 072000Z 35007KT 9999 FEW020 11/05 Q1028=
201202071930 METAR LPPR 071930Z 34008KT 9999 FEW020 11/05 Q1028=
201202071900 METAR LPPR 071900Z 35007KT 290V020 9999 FEW022 12/06 Q1028=
201202071830 METAR LPPR 071830Z 33008KT 9999 FEW022 12/05 Q1028=
201202071800 METAR LPPR 071800Z 33008KT 9999 FEW022 12/05 Q1027=
201202071730 METAR LPPR 071730Z 36009KT 9999 FEW025 13/05 Q1028=
201202071700 METAR LPPR 071700Z 36008KT 330V030 9999 FEW030 SCT049 14/05
                        Q1028=
201202071630 METAR LPPR 071630Z 36010KT 320V020 9999 FEW030 14/05 Q1028=
201202071600 METAR LPPR 071600Z 36012KT 330V060 9999 SCT047 14/05 Q1028=
201202071530 METAR LPPR 071530Z 01012KT 340V040 9999 BKN045 14/05 Q1028=
201202071500 METAR LPPR 071500Z 02013KT 9999 BKN042 BKN050 14/05 Q1028=
201202071430 METAR LPPR 071430Z 01014KT 9999 FEW027 SCT043 BKN050 14/05
                        Q1029=
201202071400 METAR LPPR 071400Z 36014KT 9999 FEW027 SCT039 BKN050 14/06
                        Q1029=
201202071330 METAR LPPR 071330Z 36013KT 9999 FEW027 SCT039 BKN047 14/06
                        Q1030=
201202071300 METAR LPPR 071300Z 01014KT 9999 SCT035 BKN046 15/07 Q1030=
201202071230 METAR LPPR 071230Z 36015KT 9999 SCT032 BKN048 15/06 Q1030=
201202071200 METAR LPPR 071200Z 36015KT 9999 FEW025 SCT050 14/07 Q1031=
201202071130 METAR LPPR 071130Z 36011KT 9999 FEW015 SCT050 13/07 Q1031=
201202071100 METAR LPPR 071100Z 34011KT 9999 FEW015 SCT050 12/08 Q1031=
201202071030 METAR LPPR 071030Z 35011KT 9999 FEW015 SCT050 11/07 Q1032=
201202071000 METAR LPPR 071000Z 35011KT 9999 FEW015 SCT045 10/07 Q1032=
201202070930 METAR LPPR 070930Z 34008KT 9999 FEW012 10/07 Q1032=
201202070900 METAR LPPR 070900Z 35006KT 9999 FEW012 09/07 Q1031=
201202070830 METAR LPPR 070830Z 01009KT 9999 FEW012 09/06 Q1031=
201202070800 METAR LPPR 070800Z 02005KT 9999 FEW012 08/06 Q1031=
201202070730 METAR LPPR 070730Z 36007KT CAVOK 09/06 Q1031=
201202070700 METAR LPPR 070700Z 33006KT CAVOK 08/06 Q1031=
201202070630 METAR LPPR 070630Z 34007KT CAVOK 08/06 Q1031=
201202070600 METAR LPPR 070600Z 34007KT CAVOK 09/06 Q1031=
201202070530 METAR LPPR 070530Z 34008KT CAVOK 09/06 Q1031=
201202070500 METAR LPPR 070500Z 34009KT 9999 SCT040 09/06 Q1031=
201202070430 METAR LPPR 070430Z 34011KT 9999 SCT040 09/06 Q1032=
201202070400 METAR LPPR 070400Z 33008KT CAVOK 09/06 Q1032=
201202070330 METAR LPPR 070330Z VRB02KT CAVOK 09/06 Q1032=
201202070300 METAR LPPR 070300Z 35005KT CAVOK 08/06 Q1032=
201202070230 METAR LPPR 070230Z 34006KT CAVOK 10/06 Q1033=
201202070200 METAR LPPR 070200Z 30003KT 260V330 9999 SCT033 10/06 Q1033=
201202070130 METAR LPPR 070130Z VRB02KT 9999 BKN035 09/06 Q1033=
201202070100 METAR LPPR 070100Z 03003KT 360V060 9999 BKN035 09/06 Q1033=
201202070030 METAR LPPR 070030Z 01005KT 9999 SCT035 10/06 Q1034=
201202070000 METAR LPPR 070000Z 36006KT 9999 SCT035 10/06 Q1034=
201202062330 METAR LPPR 062330Z 36010KT CAVOK 09/06 Q1034=
201202062300 METAR LPPR 062300Z 36009KT CAVOK 09/06 Q1034=
201202062230 METAR LPPR 062230Z 34005KT CAVOK 09/07 Q1034=
201202062200 METAR LPPR 062200Z 01009KT CAVOK 10/07 Q1034=
201202062130 METAR LPPR 062130Z 36010KT CAVOK 10/07 Q1034=
201202062100 METAR LPPR 062100Z 34008KT CAVOK 09/07 Q1034=
201202062030 METAR LPPR 062030Z 33009KT CAVOK 11/08 Q1034=
201202062000 METAR LPPR 062000Z 33010KT CAVOK 10/08 Q1034=
201202061930 METAR LPPR 061930Z 34010KT 9999 FEW020 11/08 Q1034=
201202061900 METAR LPPR 061900Z 34011KT 9999 FEW020 11/09 Q1034=
201202061830 METAR LPPR 061830Z 34011KT 9999 FEW020 12/09 Q1034=
201202061800 METAR LPPR 061800Z 34012KT 300V360 9999 FEW020 12/09 Q1034=
201202061730 METAR LPPR 061730Z 34014KT 9999 FEW020 SCT045 12/10 Q1034=
201202061700 METAR LPPR 061700Z 34015KT 9999 FEW020 SCT045 13/09 Q1034=
201202061630 METAR LPPR 061630Z 34015KT 9999 FEW020 BKN045 13/09 Q1034=
201202061600 METAR LPPR 061600Z 34012KT 9999 FEW020 BKN045 13/09 Q1034=
201202061530 METAR LPPR 061530Z 33013KT 9999 FEW020 BKN045 14/09 Q1035=
201202061500 METAR LPPR 061500Z 33010KT 290V350 9999 SCT020 BKN040 14/09
                        Q1034=
201202061430 METAR LPPR 061430Z 33011KT 9999 FEW018 SCT035 14/09 Q1035=
201202061400 METAR LPPR 061400Z 32012KT 290V350 9999 FEW025 SCT035 14/09
                        Q1035=
201202061330 METAR LPPR 061330Z 33012KT 290V350 9999 FEW020 SCT035 14/09
                        Q1035=
201202061300 METAR LPPR 061300Z 35013KT 320V020 9999 FEW017 SCT035 14/09
                        Q1035=
201202061230 METAR LPPR 061230Z 35015KT 9999 FEW028 15/07 Q1036=
201202061200 METAR LPPR 061200Z 36010KT 330V030 9999 FEW028 14/08 Q1036=
201202061130 METAR LPPR 061130Z 35013G27KT 330V030 9999 FEW023 14/09 Q1036=
201202061100 METAR LPPR 061100Z 35014KT 9999 FEW020 14/08 Q1036=
201202061030 METAR LPPR 061030Z 34010KT 9999 FEW020 13/09 Q1036=
201202061000 METAR LPPR 061000Z 34007KT 310V010 9999 FEW018 13/09 Q1036=
201202060930 METAR LPPR 060930Z 34009KT 9999 FEW016 12/09 Q1036=
201202060900 METAR LPPR 060900Z 34009KT 9999 FEW018 12/08 Q1036=
201202060830 METAR LPPR 060830Z 35007KT 9999 FEW018 10/08 Q1035=
201202060800 METAR LPPR 060800Z 36007KT 9999 BKN039 10/08 Q1035=
201202060730 METAR LPPR 060730Z 34008KT 9999 BKN036 10/08 Q1035=
201202060700 METAR LPPR 060700Z 34007KT 9999 FEW036 10/09 Q1035=
201202060630 METAR LPPR 060630Z VRB02KT 9999 SCT028 10/08 Q1035=
201202060600 METAR LPPR 060600Z VRB03KT 9999 FEW022 SCT025 BKN029 09/08
                        Q1035=
201202060530 METAR LPPR 060530Z VRB02KT 9999 FEW020 SCT025 09/08 Q1035=
201202060500 METAR LPPR 060500Z VRB01KT 9999 FEW025 SCT041 09/08 Q1035=
201202060430 METAR LPPR 060430Z 35003KT 320V020 9999 SCT027 09/08 Q1035=
201202060400 METAR LPPR 060400Z 33003KT 9999 SCT009 09/08 Q1035=
201202060330 METAR LPPR 060330Z 04004KT 360V070 9999 SCT009 SCT036 10/09
                        Q1035=
201202060300 METAR LPPR 060300Z 35006KT 9999 SCT009 SCT038 11/09 Q1035=
201202060230 METAR LPPR 060230Z 35008KT 9999 BKN009 BKN035 11/10 Q1035=
201202060200 METAR LPPR 060200Z 02005KT 9999 BKN009 10/09 Q1035=
201202060130 METAR LPPR 060130Z 36008KT 9999 SCT009 11/09 Q1035=
201202060100 METAR LPPR 060100Z 35011KT CAVOK 11/09 Q1035=
201202060030 METAR LPPR 060030Z 34012KT CAVOK 11/09 Q1035=
201202060000 METAR LPPR 060000Z 34012KT 9999 SCT029 11/09 Q1035=
201202052330 METAR LPPR 052330Z 34012KT 9999 FEW022 SCT031 BKN036 11/09
                        Q1035=
201202052300 METAR LPPR 052300Z 34011KT 9999 FEW019 SCT029 11/08 Q1035=
201202052230 METAR LPPR 052230Z 34008KT 9999 FEW020 SCT035 11/08 Q1035=
201202052200 METAR LPPR 052200Z 33007KT 9999 BKN030 11/09 Q1035=
201202052130 METAR LPPR 052130Z 34004KT 310V010 9999 FEW015 BKN030 11/08
                        Q1035=
201202052100 METAR LPPR 052100Z 31003KT 270V350 9999 SCT015 BKN030 11/08
                        Q1035=
201202052030 METAR LPPR 052030Z 01005KT 350V070 9999 SCT015 BKN035 11/08
                        Q1035=
201202052000 METAR LPPR 052000Z 01006KT 9999 FEW015 SCT035 10/08 Q1035=
201202051930 METAR LPPR 051930Z 35011KT 320V020 9999 FEW013 11/09 Q1035=
201202051900 METAR LPPR 051900Z 34012G22KT 9999 FEW015 11/09 Q1035=
201202051830 METAR LPPR 051830Z 34012KT 9999 SCT014 BKN035 12/09 Q1035=
201202051800 METAR LPPR 051800Z 34013KT 9999 FEW015 BKN025 12/09 Q1035=
201202051730 METAR LPPR 051730Z 36008KT 9999 FEW020 SCT035 11/09 Q1035=
201202051700 METAR LPPR 051700Z 34009KT 9999 SCT015 BKN035 11/10 Q1035=
201202051630 METAR LPPR 051630Z 34012KT 9999 FEW008 SCT015 BKN035 11/10
                        Q1035=
201202051600 METAR LPPR 051600Z 34013KT 9000 -SHRA FEW008 SCT012 BKN025
                        11/10 Q1035=
201202051530 METAR LPPR 051530Z 34015KT 9999 FEW017 BKN045 13/09 Q1035=
201202051500 METAR LPPR 051500Z 34012KT 9999 FEW017 BKN030 12/09 Q1036=
201202051430 METAR LPPR 051430Z 34010KT 9999 FEW017 SCT035 12/09 Q1036=
201202051400 METAR LPPR 051400Z 29004KT 260V330 9999 FEW016 SCT035 12/07
                        Q1036=
201202051330 METAR LPPR 051330Z 30004KT 9999 FEW018 SCT030 10/06 Q1037=
201202051300 METAR LPPR 051300Z 30004KT 270V350 9999 FEW019 SCT045 10/05
                        Q1037=
201202051230 METAR LPPR 051230Z 30005KT 270V340 9999 FEW020 SCT030 10/05
                        Q1037=
201202051200 METAR LPPR 051200Z 29005KT 160V320 9999 FEW020 SCT030 10/04
                        Q1038=
201202051130 METAR LPPR 051130Z VRB02KT CAVOK 09/02 Q1038=
201202051100 METAR LPPR 051100Z 15003KT 100V180 9999 FEW025 SCT035 08/01
                        Q1038=
201202051030 METAR LPPR 051030Z 11004KT 080V140 9999 FEW020 BKN035 06/M00
                        Q1038=
201202051000 METAR LPPR 051000Z 12003KT 070V160 9999 FEW015 BKN028 04/M01
                        Q1038=
201202050930 METAR LPPR 050930Z 11003KT 020V140 9999 BKN029 03/M01 Q1038=
201202050900 METAR LPPR 050900Z VRB01KT 9999 SCT033 02/M02 Q1038=
201202050830 METAR LPPR 050830Z VRB01KT 9999 FEW038 00/M03 Q1038=
201202050800 METAR LPPR 050800Z VRB02KT 8000 FEW022 M00/M03 Q1038=
201202050730 METAR LPPR 050730Z 11006KT 9000 NSC M01/M03 Q1038=
201202050700 METAR LPPR 050700Z 11003KT 050V150 9000 NSC M00/M03 Q1038=
201202050630 METAR LPPR 050630Z VRB02KT 9000 NSC 00/M03 Q1038=
201202050600 METAR LPPR 050600Z VRB02KT CAVOK M00/M03 Q1038=
201202050530 METAR LPPR 050530Z VRB02KT CAVOK M00/M03 Q1038=
201202050500 METAR LPPR 050500Z 07003KT 040V110 CAVOK M01/M03 Q1038=
201202050430 METAR LPPR 050430Z VRB03KT CAVOK M01/M02 Q1037=
201202050400 METAR LPPR 050400Z VRB01KT CAVOK M01/M03 Q1037=
201202050330 METAR LPPR 050330Z 03002KT CAVOK M01/M03 Q1037=
201202050300 METAR LPPR 050300Z 36003KT CAVOK M01/M03 Q1037=
201202050230 METAR LPPR 050230Z 01004KT CAVOK 00/M03 Q1037=
201202050200 METAR LPPR 050200Z 34005KT CAVOK 01/M03 Q1037=
201202050130 METAR LPPR 050130Z 33003KT 300V010 CAVOK 02/M03 Q1037=
201202050100 METAR LPPR 050100Z VRB02KT CAVOK 03/M03 Q1037=
201202050030 METAR LPPR 050030Z 05005KT CAVOK 01/M03 Q1038=
201202050000 METAR LPPR 050000Z 02004KT 350V050 CAVOK 03/M03 Q1038=
201202042330 METAR LPPR 042330Z 05004KT CAVOK 03/M03 Q1038=
201202042300 METAR LPPR 042300Z 06003KT 360V160 CAVOK 03/M03 Q1038=
201202042230 METAR LPPR 042230Z 02006KT CAVOK 05/M03 Q1038=
201202042200 METAR LPPR 042200Z 01004KT 340V040 CAVOK 04/M03 Q1038=
201202042130 METAR LPPR 042130Z 34007KT CAVOK 03/M03 Q1038=
201202042100 METAR LPPR 042100Z 36008KT CAVOK 04/M03 Q1038=
201202042030 METAR LPPR 042030Z 36007KT CAVOK 03/M03 Q1038=
201202042000 METAR LPPR 042000Z 35008KT CAVOK 05/M04 Q1038=
201202041930 METAR LPPR 041930Z 36006KT CAVOK 05/M04 Q1038=
201202041900 METAR LPPR 041900Z 03003KT 360V080 CAVOK 05/M04 Q1037=
201202041830 METAR LPPR 041830Z 36003KT 300V070 CAVOK 07/M05 Q1037=
201202041800 METAR LPPR 041800Z 32005KT CAVOK 08/M05 Q1037=
201202041730 METAR LPPR 041730Z 36010KT CAVOK 08/M05 Q1037=
201202041700 METAR LPPR 041700Z 33009KT CAVOK 09/M05 Q1037=
201202041630 METAR LPPR 041630Z 33009KT 300V360 CAVOK 10/M06 Q1037=
201202041600 METAR LPPR 041600Z 32010KT 290V350 CAVOK 10/M03 Q1037=
201202041530 METAR LPPR 041530Z 34011KT 300V360 CAVOK 10/M05 Q1037=
201202041500 METAR LPPR 041500Z 33010KT 290V360 CAVOK 10/M03 Q1037=
201202041430 METAR LPPR 041430Z 33010KT 280V360 CAVOK 10/M03 Q1038=
201202041400 METAR LPPR 041400Z 33012KT CAVOK 09/M03 Q1038=
201202041330 METAR LPPR 041330Z 32012KT 290V350 CAVOK 09/M02 Q1038=
201202041300 METAR LPPR 041300Z 31008KT 280V360 CAVOK 08/M02 Q1039=
201202041230 METAR LPPR 041230Z 33007KT 290V010 CAVOK 08/M06 Q1039=
201202041200 METAR LPPR 041200Z 36004KT 300V090 CAVOK 08/M09 Q1039=
201202041130 METAR LPPR 041130Z 03005KT 340V070 CAVOK 07/M08 Q1040=
201202041100 METAR LPPR 041100Z 07003KT 020V120 CAVOK 07/M08 Q1040=
201202041030 METAR LPPR 041030Z 05005KT 320V110 CAVOK 05/M07 Q1040=
201202041000 METAR LPPR 041000Z 04003KT 360V110 CAVOK 04/M06 Q1039=
201202040930 METAR LPPR 040930Z VRB02KT CAVOK 02/M05 Q1039=
201202040900 METAR LPPR 040900Z 35003KT CAVOK 01/M05 Q1039=
201202040830 METAR LPPR 040830Z 36003KT CAVOK M01/M05 Q1039=
201202040800 METAR LPPR 040800Z 34003KT CAVOK M02/M05 Q1038=
201202040730 METAR LPPR 040730Z 12003KT 080V150 CAVOK M01/M07 Q1038=
201202040700 METAR LPPR 040700Z 12003KT 050V160 CAVOK 01/M08 Q1037=
201202040630 METAR LPPR 040630Z 11005KT 020V140 CAVOK 02/M08 Q1037=
201202040600 METAR LPPR 040600Z 11008KT CAVOK 03/M08 Q1036=
201202040530 METAR LPPR 040530Z 10007KT CAVOK 02/M07 Q1036=
201202040500 METAR LPPR 040500Z 06006KT CAVOK 01/M07 Q1036=
201202040430 METAR LPPR 040430Z 04005KT 360V080 CAVOK 01/M07 Q1036=
201202040400 METAR LPPR 040400Z 09006KT 060V140 CAVOK 02/M07 Q1036=
201202040330 METAR LPPR 040330Z 08006KT 030V120 CAVOK 02/M06 Q1035=
201202040300 METAR LPPR 040300Z 11009KT CAVOK 03/M07 Q1035=
201202040230 METAR LPPR 040230Z 11004KT 080V190 CAVOK 02/M06 Q1035=
201202040200 METAR LPPR 040200Z 10003KT 070V130 CAVOK 01/M05 Q1035=
201202040130 METAR LPPR 040130Z 08003KT 060V120 CAVOK 02/M05 Q1035=
201202040100 METAR LPPR 040100Z VRB02KT CAVOK 03/M05 Q1035=
201202040030 METAR LPPR 040030Z 06008KT CAVOK 03/M05 Q1035=
201202040000 METAR LPPR 040000Z 06007KT CAVOK 04/M05 Q1034=
201202032330 METAR LPPR 032330Z 05008KT CAVOK 04/M05 Q1034=
201202032300 METAR LPPR 032300Z 05009KT CAVOK 05/M05 Q1034=
201202032230 METAR LPPR 032230Z 04007KT CAVOK 04/M05 Q1033=
201202032200 METAR LPPR 032200Z 04009KT CAVOK 05/M05 Q1033=
201202032130 METAR LPPR 032130Z 03008KT CAVOK 05/M05 Q1033=
201202032100 METAR LPPR 032100Z 02009KT CAVOK 05/M05 Q1032=
201202032030 METAR LPPR 032030Z 02007KT 350V060 CAVOK 06/M05 Q1032=
201202032000 METAR LPPR 032000Z 01005KT CAVOK 05/M05 Q1032=
201202031930 METAR LPPR 031930Z 01005KT CAVOK 05/M04 Q1032=
201202031900 METAR LPPR 031900Z 01007KT CAVOK 05/M04 Q1032=
201202031830 METAR LPPR 031830Z 35007KT CAVOK 06/M04 Q1031=
201202031800 METAR LPPR 031800Z 34006KT CAVOK 07/M04 Q1031=
201202031730 METAR LPPR 031730Z 33007KT CAVOK 09/M04 Q1031=
201202031700 METAR LPPR 031700Z 34006KT CAVOK 09/M04 Q1031=
201202031630 METAR LPPR 031630Z 34005KT 310V020 CAVOK 10/M06 Q1031=
201202031600 METAR LPPR 031600Z 35004KT 300V070 CAVOK 10/M05 Q1031=
201202031530 METAR LPPR 031530Z 01007KT 350V070 CAVOK 10/M07 Q1031=
201202031500 METAR LPPR 031500Z 02006KT 340V080 CAVOK 10/M05 Q1031=
201202031430 METAR LPPR 031430Z 02006KT 350V050 CAVOK 10/M05 Q1031=
201202031400 METAR LPPR 031400Z 04007KT 360V100 CAVOK 09/M06 Q1031=
201202031330 METAR LPPR 031330Z 03008KT 340V060 CAVOK 09/M05 Q1031=
201202031300 METAR LPPR 031300Z 02008KT 330V080 CAVOK 08/M05 Q1031=
201202031230 METAR LPPR 031230Z 02008KT 350V050 CAVOK 08/M04 Q1031=
201202031200 METAR LPPR 031200Z 05010KT CAVOK 07/M04 Q1032=
201202031130 METAR LPPR 031130Z 03008KT 360V070 CAVOK 07/M04 Q1032=
201202031100 METAR LPPR 031100Z 01007KT 340V040 CAVOK 06/M05 Q1032=
201202031030 METAR LPPR 031030Z 02005KT 330V060 CAVOK 05/M05 Q1032=
201202031000 METAR LPPR 031000Z 01003KT 290V090 9999 FEW015 04/M05 Q1031=
201202030930 METAR LPPR 030930Z VRB01KT CAVOK 04/M05 Q1031=
201202030900 METAR LPPR 030900Z 36004KT CAVOK 01/M06 Q1031=
201202030830 METAR LPPR 030830Z 05005KT CAVOK M00/M05 Q1031=
201202030800 METAR LPPR 030800Z 04005KT CAVOK M01/M06 Q1030=
201202030730 METAR LPPR 030730Z 05005KT CAVOK M00/M06 Q1030=
201202030700 METAR LPPR 030700Z 03005KT 340V070 CAVOK M00/M06 Q1029=
201202030630 METAR LPPR 030630Z 04006KT 300V050 CAVOK 01/M06 Q1029=
201202030600 METAR LPPR 030600Z 04006KT CAVOK 01/M06 Q1028=
201202030530 METAR LPPR 030530Z 02004KT CAVOK 01/M06 Q1028=
201202030500 METAR LPPR 030500Z 03005KT CAVOK 00/M07 Q1028=
201202030430 METAR LPPR 030430Z 03007KT CAVOK 01/M07 Q1028=
201202030400 METAR LPPR 030400Z 03006KT CAVOK M02/M06 Q1028=
201202030330 METAR LPPR 030330Z 35005KT CAVOK 01/M07 Q1027=
201202030300 METAR LPPR 030300Z 32006KT CAVOK 01/M06 Q1027=
201202030230 METAR LPPR 030230Z 36006KT CAVOK 01/M06 Q1027=
201202030200 METAR LPPR 030200Z 34006KT CAVOK 01/M06 Q1027=
201202030130 METAR LPPR 030130Z 03008KT CAVOK 02/M07 Q1026=
201202030100 METAR LPPR 030100Z 03006KT CAVOK 03/M07 Q1026=
201202030030 METAR LPPR 030030Z 03005KT CAVOK 03/M06 Q1026=
201202030000 METAR LPPR 030000Z 03007KT CAVOK 04/M07 Q1026=
201202022330 METAR LPPR 022330Z 03007KT CAVOK 04/M06 Q1026=
201202022300 METAR LPPR 022300Z 05006KT CAVOK 04/M06 Q1025=
201202022230 METAR LPPR 022230Z 03007KT CAVOK 04/M06 Q1025=
201202022200 METAR LPPR 022200Z 04005KT CAVOK 04/M06 Q1025=
201202022130 METAR LPPR 022130Z 04007KT 010V070 CAVOK 05/M06 Q1024=
201202022100 METAR LPPR 022100Z 02010KT CAVOK 05/M06 Q1024=
201202022030 METAR LPPR 022030Z 02011KT CAVOK 05/M06 Q1023=
201202022000 METAR LPPR 022000Z 02013KT CAVOK 06/M06 Q1023=
201202021930 METAR LPPR 021930Z 01014KT CAVOK 06/M05 Q1023=
201202021900 METAR LPPR 021900Z 01012KT CAVOK 06/M05 Q1022=
201202021830 METAR LPPR 021830Z 01010KT CAVOK 07/M04 Q1022=
201202021800 METAR LPPR 021800Z 02010KT CAVOK 07/M05 Q1021=
201202021730 METAR LPPR 021730Z 01009KT CAVOK 08/M05 Q1021=
201202021700 METAR LPPR 021700Z 02012KT 340V040 CAVOK 09/M04 Q1021=
201202021630 METAR LPPR 021630Z 36016KT CAVOK 10/M05 Q1020=
201202021600 METAR LPPR 021600Z 01014KT CAVOK 10/M06 Q1020=
201202021530 METAR LPPR 021530Z 02011KT 360V060 CAVOK 11/M06 Q1020=
201202021500 METAR LPPR 021500Z 01012KT 340V050 CAVOK 11/M06 Q1020=
201202021430 METAR LPPR 021430Z 02009KT CAVOK 10/M05 Q1020=
201202021400 METAR LPPR 021400Z 36009KT 330V030 CAVOK 10/M03 Q1020=
201202021330 METAR LPPR 021330Z 02011KT CAVOK 10/M02 Q1020=
201202021300 METAR LPPR 021300Z 36011KT CAVOK 09/M03 Q1020=
201202021230 METAR LPPR 021230Z 36009KT CAVOK 09/M02 Q1020=
201202021200 METAR LPPR 021200Z 03007KT 360V060 CAVOK 09/M02 Q1021=
201202021130 METAR LPPR 021130Z 01010KT 330V030 CAVOK 08/M02 Q1021=
201202021100 METAR LPPR 021100Z 04010KT CAVOK 08/M01 Q1021=
201202021030 METAR LPPR 021030Z 02010KT CAVOK 07/M01 Q1020=
201202021000 METAR LPPR 021000Z 03009KT CAVOK 06/M01 Q1020=
201202020930 METAR LPPR 020930Z 01008KT CAVOK 05/M00 Q1020=
201202020900 METAR LPPR 020900Z 02006KT CAVOK 04/M01 Q1020=
201202020830 METAR LPPR 020830Z 01006KT 330V040 CAVOK 03/M01 Q1019=
201202020800 METAR LPPR 020800Z 35006KT CAVOK 03/M01 Q1019=
201202020730 METAR LPPR 020730Z 01006KT CAVOK 03/M01 Q1019=
201202020700 METAR LPPR 020700Z 01008KT CAVOK 03/M01 Q1018=
201202020630 METAR LPPR 020630Z 01008KT 9999 FEW040 03/M01 Q1018=
201202020600 METAR LPPR 020600Z 01009KT 9999 FEW040 03/M01 Q1017=
201202020530 METAR LPPR 020530Z 02007KT CAVOK 05/M00 Q1017=
201202020500 METAR LPPR 020500Z 02010KT CAVOK 05/M00 Q1017=
201202020430 METAR LPPR 020430Z 01009KT CAVOK 04/M00 Q1016=
201202020400 METAR LPPR 020400Z 02009KT CAVOK 04/01 Q1016=
201202020330 METAR LPPR 020330Z 01008KT CAVOK 04/01 Q1016=
201202020300 METAR LPPR 020300Z 35006KT CAVOK 06/01 Q1016=
201202020230 METAR LPPR 020230Z 36008KT CAVOK 06/02 Q1016=
201202020200 METAR LPPR 020200Z 01009KT CAVOK 06/02 Q1016=
201202020130 METAR LPPR 020130Z 36008KT CAVOK 06/03 Q1016=
201202020100 METAR LPPR 020100Z 36004KT CAVOK 06/03 Q1016=
201202020030 METAR LPPR 020030Z 02006KT CAVOK 07/04 Q1016=
201202020000 METAR LPPR 020000Z 36008KT CAVOK 07/04 Q1016=
201202012330 METAR LPPR 012330Z 36007KT CAVOK 07/04 Q1015=
201202012300 METAR LPPR 012300Z 36006KT CAVOK 08/05 Q1016=
201202012230 METAR LPPR 012230Z 36004KT CAVOK 07/05 Q1016=
201202012200 METAR LPPR 012200Z 35007KT CAVOK 08/05 Q1015=
201202012130 METAR LPPR 012130Z 35008KT CAVOK 07/05 Q1015=
201202012100 METAR LPPR 012100Z 36004KT 9999 FEW016 07/05 Q1015=
201202012030 METAR LPPR 012030Z 35004KT 9999 FEW016 07/05 Q1015=
201202012000 METAR LPPR 012000Z 35006KT 9999 FEW016 08/05 Q1015=
201202011930 METAR LPPR 011930Z 36006KT 9999 FEW016 08/06 Q1015=
201202011900 METAR LPPR 011900Z 33007KT 9999 FEW020 10/06 Q1015=
201202011830 METAR LPPR 011830Z 33007KT 9999 FEW020TCU 10/06 Q1015=
201202011800 METAR LPPR 011800Z 34007KT 9999 FEW020TCU 10/05 Q1015=
201202011730 METAR LPPR 011730Z 33009KT 290V360 9999 FEW020TCU 11/06 Q1015=
201202011700 METAR LPPR 011700Z 34009KT 9999 FEW020 FEW023CB 12/06 Q1015=
201202011630 METAR LPPR 011630Z 33011KT 290V350 9999 FEW022 FEW025CB 12/07
                        Q1015=
201202011600 METAR LPPR 011600Z 32010KT 290V360 9999 SCT025TCU 12/07 Q1015=
201202011530 METAR LPPR 011530Z 32009KT 9999 SCT025TCU SCT041 12/07 Q1016=
201202011500 METAR LPPR 011500Z 33011KT 9999 FEW021 SCT029TCU BKN041 12/07
                        Q1016=
201202011430 METAR LPPR 011430Z 35009KT 320V020 9999 FEW014 SCT022 12/09
                        Q1016=
201202011400 METAR LPPR 011400Z 01010KT 9999 FEW006 SCT025 BKN044 12/10
                        Q1016=
201202011330 METAR LPPR 011330Z 24003KT 200V300 7000 FEW007 SCT009 BKN024
                        11/10 Q1017=
201202011300 METAR LPPR 011300Z 19008KT 5000 BR SCT004 BKN015 FEW020TCU
                        BKN035 11/10 Q1017=
201202011230 METAR LPPR 011230Z 18008KT 4500 -RA BR FEW005 BKN020 FEW025TCU
                        BKN042 11/10 Q1017=
201202011200 METAR LPPR 011200Z 19008KT 4800 BR FEW007 SCT010 BKN013 SCT017TCU
                        11/10 Q1018=
201202011130 METAR LPPR 011130Z 19008KT 3700 -RA BR SCT007 SCT009 BKN012
                        SCT015TCU 11/10 Q1018=
201202011100 METAR LPPR 011100Z 17008KT 6000 SCT007 SCT020TCU BKN043 12/10
                        Q1018=
201202011030 METAR LPPR 011030Z 17007KT 5000 BR SCT006 SCT017TCU BKN038
                        11/09 Q1019=
201202011000 METAR LPPR 011000Z 16007KT 3800 BR FEW012 SCT015TCU BKN050
                        10/09 Q1019=
201202010930 METAR LPPR 010930Z 14006KT 090V150 3600 BR FEW011 BKN013
                        BKN033 09/08 Q1019=
201202010900 METAR LPPR 010900Z 13006KT 3600 BR SCT013 BKN018 BKN026 09/08
                        Q1019=
201202010830 METAR LPPR 010830Z 13007KT 050V150 3500 -RA BR FEW011 SCT013
                        OVC025 09/08 Q1019=
201202010800 METAR LPPR 010800Z 13006KT 100V160 3000 BR FEW009 SCT015
                        BKN040 08/08 Q1019=
201202010730 METAR LPPR 010730Z 12006KT 4500 -RA BR SCT008 SCT012 BKN040
                        08/08 Q1019 RERA=
201202010700 METAR LPPR 010700Z 12006KT 3500 RA BR SCT009 BKN015 08/08
                        Q1019=
201202010630 METAR LPPR 010630Z 13006KT 4600 BR FEW009 SCT020 BKN040 08/07
                        Q1019=
201202010600 METAR LPPR 010600Z 12006KT 5000 BR SCT008 BKN033 08/08 Q1019=
201202010530 METAR LPPR 010530Z 12006KT 5000 BR SCT009 BKN030 08/08 Q1020=
201202010500 METAR LPPR 010500Z 12005KT 4500 BR SCT013 BKN017 08/08 Q1020=
201202010430 METAR LPPR 010430Z VRB02KT 4000 BR FEW015 BKN020 08/07 Q1020=
201202010400 METAR LPPR 010400Z 13006KT 4000 BR SCT015 BKN024 08/07 Q1020=
201202010330 METAR LPPR 010330Z 14004KT 3500 -RA BR FEW009 SCT015 BKN024
                        09/08 Q1020=
201202010300 METAR LPPR 010300Z 09003KT 050V110 4500 FEW008 BKN014 BKN018
                        09/08 Q1021=
201202010230 METAR LPPR 010230Z VRB01KT 4500 -RA BR FEW012 BKN016 BKN027
                        09/07 Q1021=
201202010200 METAR LPPR 010200Z 04002KT 6000 -RA FEW015 SCT018 BKN024
                        09/07 Q1021=
201202010130 METAR COR LPPR 010130Z 01003KT 340V080 7000 SCT020 BKN030
                        09/07 Q1021=
201202010100 METAR LPPR 010100Z VRB02KT 8000 SCT020 BKN030 10/07 Q1021=
201202010030 METAR LPPR 010030Z 14003KT 090V200 8000 FEW020 BKN030 09/07
                        Q1022=
201202010000 METAR LPPR 010000Z VRB02KT 9999 FEW025 SCT035 BKN050 09/07
                        Q1022=

</pre>

</body>
</html>
