##########################################################
# Query made at 11/07/2014 16:19:26 UTC
# Time interval: from 02/01/2011 00:00  to 03/03/2011 23:59  UTC
##########################################################

##########################################################
# LPPR, Porto / Pedras Rubras (Portugal)
# WMO index: 08545
# Latitude 41-14N. Longitude 008-41W. Altitude 69 m.
##########################################################

###################################
#  METAR/SPECI from LPPR
###################################
201103032330 METAR LPPR 032330Z 09008KT CAVOK 10/00 Q1017=
201103032300 METAR LPPR 032300Z 06008KT 040V100 CAVOK 10/M00 Q1017=
201103032230 METAR LPPR 032230Z 06009KT CAVOK 10/M00 Q1017=
201103032200 METAR LPPR 032200Z 03006KT CAVOK 10/M00 Q1017=
201103032130 METAR LPPR 032130Z 01004KT 330V040 CAVOK 09/00 Q1017=
201103032100 METAR LPPR 032100Z 35005KT CAVOK 09/00 Q1017=
201103032030 METAR LPPR 032030Z 02004KT CAVOK 10/01 Q1017=
201103032000 METAR LPPR 032000Z 02004KT 340V070 CAVOK 09/04 Q1017=
201103031930 METAR LPPR 031930Z 33003KT 280V030 CAVOK 10/04 Q1017=
201103031900 METAR LPPR 031900Z 36003KT CAVOK 10/05 Q1017=
201103031830 METAR LPPR 031830Z 34004KT CAVOK 11/05 Q1017=
201103031800 METAR LPPR 031800Z 32005KT 290V350 CAVOK 12/04 Q1017=
201103031730 METAR LPPR 031730Z 33006KT 290V360 9999 FEW040 13/03 Q1017=
201103031700 METAR LPPR 031700Z 33009KT 9999 FEW040 13/04 Q1018=
201103031630 METAR LPPR 031630Z 33009KT 9999 FEW040 13/04 Q1018=
201103031600 METAR LPPR 031600Z 33009KT 290V350 9999 FEW035 13/02 Q1018=
201103031530 METAR LPPR 031530Z 32010KT 290V350 9999 FEW030 13/03 Q1018=
201103031500 METAR LPPR 031500Z 32010KT 290V350 9999 FEW017 SCT250 12/02
                        Q1018=
201103031430 METAR LPPR 031430Z 33011KT 300V360 9999 FEW017 SCT250 13/04
                        Q1019=
201103031400 METAR LPPR 031400Z 02008KT 330V070 9999 FEW017 SCT250 14/01
                        Q1019=
201103031330 METAR LPPR 031330Z VRB05KT CAVOK 13/01 Q1020=
201103031300 METAR LPPR 031300Z VRB05KT 9999 FEW015 SCT050 BKN250 12/01
                        Q1020=
201103031230 METAR LPPR 031230Z VRB05KT 9999 FEW015 BKN250 12/03 Q1021=
201103031200 METAR LPPR 031200Z 07005KT 340V130 CAVOK 13/02 Q1021=
201103031130 METAR LPPR 031130Z VRB04KT CAVOK 13/01 Q1022=
201103031100 METAR LPPR 031100Z 06004KT 340V120 CAVOK 12/02 Q1022=
201103031030 METAR LPPR 031030Z 10006KT 060V140 CAVOK 10/01 Q1022=
201103031000 METAR LPPR 031000Z 05005KT 350V160 CAVOK 10/01 Q1022=
201103030930 METAR LPPR 030930Z 04004KT 350V090 CAVOK 08/02 Q1022=
201103030900 METAR LPPR 030900Z 04003KT 360V080 CAVOK 08/01 Q1022=
201103030830 METAR LPPR 030830Z 05003KT 350V090 CAVOK 05/01 Q1022=
201103030800 METAR LPPR 030800Z 01004KT 320V040 CAVOK 05/01 Q1022=
201103030730 METAR LPPR 030730Z 09003KT 060V160 CAVOK 03/00 Q1022=
201103030700 METAR LPPR 030700Z 10004KT 070V130 CAVOK 03/00 Q1022=
201103030630 METAR LPPR 030630Z 01005KT CAVOK 04/00 Q1022=
201103030600 METAR LPPR 030600Z 02006KT CAVOK 05/01 Q1022=
201103030530 METAR LPPR 030530Z 03006KT CAVOK 05/01 Q1022=
201103030500 METAR LPPR 030500Z 03005KT CAVOK 05/01 Q1022=
201103030430 METAR LPPR 030430Z 02006KT CAVOK 06/01 Q1022=
201103030400 METAR LPPR 030400Z 03005KT CAVOK 06/01 Q1022=
201103030330 METAR LPPR 030330Z 06006KT CAVOK 06/01 Q1022=
201103030300 METAR LPPR 030300Z 04007KT CAVOK 06/01 Q1022=
201103030230 METAR LPPR 030230Z 02006KT CAVOK 06/02 Q1022=
201103030200 METAR LPPR 030200Z 06004KT CAVOK 06/01 Q1023=
201103030130 METAR LPPR 030130Z 04005KT CAVOK 07/02 Q1023=
201103030100 METAR LPPR 030100Z 03005KT CAVOK 07/01 Q1023=
201103030030 METAR LPPR 030030Z 03007KT CAVOK 08/02 Q1023=
201103030000 METAR LPPR 030000Z 02009KT CAVOK 08/02 Q1023=
201103022330 METAR LPPR 022330Z 01006KT CAVOK 07/02 Q1023=
201103022300 METAR LPPR 022300Z 01005KT CAVOK 08/02 Q1023=
201103022230 METAR LPPR 022230Z 02004KT CAVOK 08/02 Q1023=
201103022200 METAR LPPR 022200Z 02008KT CAVOK 09/02 Q1023=
201103022130 METAR LPPR 022130Z 02006KT CAVOK 08/02 Q1023=
201103022100 METAR LPPR 022100Z 36005KT CAVOK 07/02 Q1023=
201103022030 METAR LPPR 022030Z 01006KT CAVOK 08/02 Q1023=
201103022000 METAR LPPR 022000Z 01006KT 340V050 CAVOK 08/02 Q1023=
201103021930 METAR LPPR 021930Z 35005KT CAVOK 09/02 Q1023=
201103021900 METAR LPPR 021900Z 34006KT CAVOK 10/03 Q1023=
201103021830 METAR LPPR 021830Z 34007KT CAVOK 11/03 Q1022=
201103021800 METAR LPPR 021800Z 35009KT CAVOK 12/03 Q1022=
201103021730 METAR LPPR 021730Z 35009KT CAVOK 13/03 Q1022=
201103021700 METAR LPPR 021700Z 34007KT CAVOK 14/02 Q1023=
201103021630 METAR LPPR 021630Z 30006KT 260V350 CAVOK 14/03 Q1023=
201103021600 METAR LPPR 021600Z 31007KT 270V350 CAVOK 14/03 Q1023=
201103021530 METAR LPPR 021530Z 31009KT 270V340 9999 FEW040 13/04 Q1023=
201103021500 METAR LPPR 021500Z 32010KT 280V350 9999 FEW048 13/04 Q1023=
201103021430 METAR LPPR 021430Z 31010KT 9999 FEW049 13/04 Q1023=
201103021400 METAR LPPR 021400Z 32009KT 290V350 9999 FEW045 12/03 Q1024=
201103021330 METAR LPPR 021330Z 32008KT 270V350 CAVOK 12/02 Q1024=
201103021300 METAR LPPR 021300Z 32008KT 290V350 CAVOK 12/02 Q1025=
201103021230 METAR LPPR 021230Z 31007KT 270V350 CAVOK 12/02 Q1025=
201103021200 METAR LPPR 021200Z 01006KT 310V040 CAVOK 12/M00 Q1026=
201103021130 METAR LPPR 021130Z 01005KT 320V060 CAVOK 11/M01 Q1026=
201103021100 METAR LPPR 021100Z 02004KT 330V100 CAVOK 11/M00 Q1026=
201103021030 METAR LPPR 021030Z 03005KT 350V090 CAVOK 10/00 Q1026=
201103021000 METAR LPPR 021000Z 02006KT 310V060 CAVOK 09/00 Q1027=
201103020930 METAR LPPR 020930Z 04006KT CAVOK 08/01 Q1027=
201103020900 METAR LPPR 020900Z 02005KT 340V040 CAVOK 07/00 Q1026=
201103020830 METAR LPPR 020830Z 04003KT 350V080 CAVOK 06/01 Q////=
201103020800 METAR LPPR 020800Z VRB02KT CAVOK 04/M00 Q1026=
201103020730 METAR LPPR 020730Z 02003KT CAVOK 02/M00 Q1026=
201103020700 METAR LPPR 020700Z 02005KT 340V070 CAVOK 03/M00 Q1026=
201103020630 METAR LPPR 020630Z 01003KT 300V060 CAVOK 02/M00 Q1026=
201103020600 METAR LPPR 020600Z 06004KT CAVOK 03/M00 Q1025=
201103020530 METAR LPPR 020530Z 04003KT CAVOK 04/M00 Q1025=
201103020500 METAR LPPR 020500Z 04003KT 010V080 CAVOK 03/M00 Q1025=
201103020430 METAR LPPR 020430Z 03005KT CAVOK 05/M00 Q1025=
201103020400 METAR LPPR 020400Z 05007KT CAVOK 06/M00 Q1025=
201103020330 METAR LPPR 020330Z 05007KT CAVOK 05/00 Q1025=
201103020300 METAR LPPR 020300Z 03006KT CAVOK 05/00 Q1025=
201103020230 METAR LPPR 020230Z 03005KT CAVOK 05/00 Q1026=
201103020200 METAR LPPR 020200Z 36004KT CAVOK 02/00 Q1026=
201103020130 METAR LPPR 020130Z 36004KT CAVOK 03/01 Q1026=
201103020100 METAR LPPR 020100Z 36003KT CAVOK 03/01 Q1026=
201103020030 METAR LPPR 020030Z 34003KT 290V010 CAVOK 05/01 Q1026=
201103020000 METAR LPPR 020000Z 02003KT CAVOK 05/01 Q1026=
201103012330 METAR LPPR 012330Z 36003KT 320V050 CAVOK 06/00 Q1026=
201103012300 METAR LPPR 012300Z VRB02KT CAVOK 07/00 Q1026=
201103012230 METAR LPPR 012230Z 03004KT CAVOK 07/M00 Q1026=
201103012200 METAR LPPR 012200Z 03007KT CAVOK 08/M00 Q1026=
201103012130 METAR LPPR 012130Z 01004KT CAVOK 07/00 Q1026=
201103012100 METAR LPPR 012100Z 01004KT CAVOK 07/01 Q1026=
201103012030 METAR LPPR 012030Z 34008KT CAVOK 09/00 Q1026=
201103012000 METAR LPPR 012000Z 35007KT CAVOK 09/00 Q1026=
201103011930 METAR LPPR 011930Z 35009KT CAVOK 10/M00 Q1026=
201103011900 METAR LPPR 011900Z 36007KT CAVOK 10/M00 Q1025=
201103011830 METAR LPPR 011830Z 36009KT CAVOK 11/M01 Q1025=
201103011800 METAR LPPR 011800Z 36011KT 9999 FEW020 12/00 Q1025=
201103011730 METAR LPPR 011730Z 35013KT 310V020 9999 FEW020 13/01 Q1025=
201103011700 METAR LPPR 011700Z 36012KT 9999 FEW020 14/01 Q1025=
201103011630 METAR LPPR 011630Z 34011KT 9999 FEW020 14/01 Q1025=
201103011600 METAR LPPR 011600Z 35010KT 9999 FEW020 SCT040 14/01 Q1025=
201103011530 METAR LPPR 011530Z 35009KT 320V030 9999 FEW020 SCT040 15/00
                        Q1025=
201103011500 METAR COR LPPR 011500Z 34006KT 250V060 9999 FEW020 SCT040
                        15/01 Q1025=
201103011430 METAR LPPR 011430Z VRB05KT 9999 SCT020 14/00 Q1025=
201103011400 METAR LPPR 011400Z 01006KT 320V060 9999 SCT020 14/M00 Q1026=
201103011330 METAR LPPR 011330Z 04007KT 350V080 9999 SCT020 14/00 Q1026=
201103011300 METAR LPPR 011300Z 01009KT 9999 SCT020 13/M01 Q1026=
201103011230 METAR LPPR 011230Z 03010KT 320V060 9999 FEW020 13/M01 Q1027=
201103011200 METAR LPPR 011200Z 01009KT 340V050 9999 FEW020 13/M01 Q1027=
201103011130 METAR LPPR 011130Z 03006KT 340V080 CAVOK 13/01 Q1028=
201103011100 METAR LPPR 011100Z 02008KT CAVOK 11/01 Q1028=
201103011030 METAR LPPR 011030Z 03008G18KT 350V060 CAVOK 10/01 Q1028=
201103011000 METAR LPPR 011000Z 04007KT 360V080 CAVOK 10/01 Q1028=
201103010930 METAR LPPR 010930Z 02005KT 350V100 CAVOK 08/02 Q1028=
201103010900 METAR LPPR 010900Z 03003KT 300V110 CAVOK 08/01 Q1028=
201103010830 METAR LPPR 010830Z 04005KT CAVOK 06/01 Q1028=
201103010800 METAR LPPR 010800Z 02004KT CAVOK 04/00 Q1028=
201103010730 METAR LPPR 010730Z VRB02KT CAVOK 03/M00 Q1028=
201103010700 METAR LPPR 010700Z 08004KT 020V110 CAVOK 03/M00 Q1027=
201103010630 METAR LPPR 010630Z 03004KT 340V090 CAVOK 04/00 Q1027=
201103010600 METAR LPPR 010600Z 03003KT CAVOK 04/00 Q1027=
201103010530 METAR LPPR 010530Z 03003KT CAVOK 04/00 Q1027=
201103010500 METAR LPPR 010500Z 02003KT CAVOK 05/00 Q1027=
201103010430 METAR LPPR 010430Z VRB02KT CAVOK 03/00 Q1027=
201103010400 METAR LPPR 010400Z 35004KT CAVOK 05/00 Q1027=
201103010330 METAR LPPR 010330Z 33005KT 300V360 CAVOK 05/01 Q1027=
201103010300 METAR LPPR 010300Z 02003KT 300V060 CAVOK 05/01 Q1027=
201103010230 METAR LPPR 010230Z 02005KT CAVOK 04/01 Q1027=
201103010200 METAR LPPR 010200Z 36007KT CAVOK 06/01 Q1027=
201103010130 METAR LPPR 010130Z 36005KT CAVOK 06/01 Q1027=
201103010100 METAR LPPR 010100Z 36006KT CAVOK 05/01 Q1027=
201103010030 METAR LPPR 010030Z 02005KT CAVOK 07/01 Q1027=
201103010000 METAR LPPR 010000Z 02005KT CAVOK 07/00 Q1027=
201102282330 METAR LPPR 282330Z 01008KT CAVOK 07/01 Q1027=
201102282300 METAR LPPR 282300Z 36009KT CAVOK 06/00 Q1027=
201102282230 METAR LPPR 282230Z 36007KT CAVOK 07/00 Q1027=
201102282200 METAR LPPR 282200Z VRB02KT CAVOK 08/M00 Q1027=
201102282130 METAR LPPR 282130Z 01009KT CAVOK 09/M01 Q1027=
201102282100 METAR LPPR 282100Z 02012KT CAVOK 10/M02 Q1027=
201102282030 METAR LPPR 282030Z 01011KT CAVOK 10/M01 Q1027=
201102282000 METAR LPPR 282000Z 01010KT CAVOK 09/00 Q1026=
201102281930 METAR LPPR 281930Z 36011KT CAVOK 09/01 Q1026=
201102281900 METAR LPPR 281900Z 36011KT CAVOK 10/01 Q1026=
201102281830 METAR LPPR 281830Z 35007KT CAVOK 11/01 Q1026=
201102281800 METAR LPPR 281800Z 01012KT CAVOK 12/01 Q1026=
201102281730 METAR COR LPPR 281730Z 36012KT 9999 CAVOK 13/02 Q1026=
201102281700 METAR LPPR 281700Z 36012KT CAVOK 14/01 Q1026=
201102281630 METAR LPPR 281630Z 36015KT 330V030 9999 FEW040 BKN250 15/01
                        Q1026=
201102281600 METAR LPPR 281600Z 36015KT 330V030 9999 FEW040 BKN250 15/01
                        Q1026=
201102281500 METAR LPPR 281500Z 36012KT 9999 FEW040 15/03 Q1026=
201102281430 METAR LPPR 281430Z 36013KT 330V040 9999 SCT040 15/02 Q1026=
201102281400 METAR LPPR 281400Z 02011KT 350V060 9999 SCT040 15/02 Q1027=
201102281330 METAR LPPR 281330Z 36011KT 330V040 9999 SCT045 14/03 Q1027=
201102281300 METAR LPPR 281300Z 36014KT 9999 SCT025 15/04 Q1028=
201102281230 METAR LPPR 281230Z 02011KT 340V050 9999 FEW020 SCT040 14/04
                        Q1028=
201102281200 METAR LPPR 281200Z 35008KT 9999 FEW020 SCT040 13/05 Q1028=
201102281130 METAR LPPR 281130Z 36006KT 320V050 9999 FEW015 BKN040 13/05
                        Q1029=
201102281100 METAR LPPR 281100Z 01010KT 330V050 9999 FEW015 SCT030 13/05
                        Q1029=
201102281030 METAR LPPR 281030Z 36010KT 330V040 9999 FEW015 12/05 Q1029=
201102281000 METAR LPPR 281000Z 34012KT 9999 FEW015 12/06 Q1028=
201102280930 METAR LPPR 280930Z 35009KT 9999 FEW015 11/06 Q1028=
201102280900 METAR LPPR 280900Z 34007KT 9999 FEW015 BKN040 09/06 Q1029=
201102280830 METAR LPPR 280830Z 33009KT 9999 FEW015 SCT040 08/05 Q1029=
201102280800 METAR LPPR 280800Z VRB02KT 9999 FEW015 06/03 Q1029=
201102280730 METAR LPPR 280730Z 34004KT 9999 FEW015 04/02 Q1029=
201102280700 METAR LPPR 280700Z 34005KT CAVOK 05/02 Q1029=
201102280630 METAR LPPR 280630Z 36002KT CAVOK 05/03 Q1029=
201102280600 METAR LPPR 280600Z 35003KT CAVOK 05/02 Q1029=
201102280530 METAR LPPR 280530Z 34003KT CAVOK 06/01 Q1029=
201102280500 METAR LPPR 280500Z 01005KT CAVOK 07/03 Q1029=
201102280430 METAR LPPR 280430Z 01006KT CAVOK 07/02 Q1029=
201102280400 METAR LPPR 280400Z 35007KT CAVOK 07/02 Q1029=
201102280330 METAR LPPR 280330Z 36008KT CAVOK 08/02 Q1029=
201102280300 METAR LPPR 280300Z 35008KT CAVOK 07/02 Q1029=
201102280230 METAR LPPR 280230Z 36009KT CAVOK 08/02 Q1029=
201102280200 METAR LPPR 280200Z VRB03KT CAVOK 08/01 Q1029=
201102280130 METAR LPPR 280130Z VRB03KT CAVOK 07/01 Q1029=
201102280100 METAR LPPR 280100Z 00000KT CAVOK 07/01 Q1029=
201102280030 METAR LPPR 280030Z 32003KT CAVOK 06/00 Q1029=
201102280000 METAR LPPR 280000Z 36005KT CAVOK 09/01 Q1029=
201102272330 METAR LPPR 272330Z 32006KT 280V340 CAVOK 08/00 Q1029=
201102272300 METAR LPPR 272300Z 31003KT CAVOK 07/00 Q1028=
201102272230 METAR LPPR 272230Z 00000KT CAVOK 09/00 Q1028=
201102272200 METAR LPPR 272200Z VRB03KT CAVOK 10/M00 Q1029=
201102272130 METAR LPPR 272130Z 35006KT CAVOK 10/00 Q1029=
201102272100 METAR LPPR 272100Z 34010KT CAVOK 10/01 Q1029=
201102272030 METAR LPPR 272030Z 36008KT CAVOK 11/00 Q1029=
201102272000 METAR LPPR 272000Z 36010KT CAVOK 12/00 Q1028=
201102271930 METAR LPPR 271930Z 35009KT CAVOK 12/00 Q1028=
201102271900 METAR LPPR 271900Z 35006KT CAVOK 12/02 Q1028=
201102271830 METAR LPPR 271830Z 35009KT CAVOK 13/02 Q1028=
201102271800 METAR LPPR 271800Z 34009KT CAVOK 15/02 Q1027=
201102271730 METAR LPPR 271730Z 34013KT CAVOK 16/01 Q1027=
201102271700 METAR LPPR 271700Z 34014KT CAVOK 16/02 Q1027=
201102271630 METAR LPPR 271630Z 34014KT CAVOK 17/01 Q1027=
201102271600 METAR LPPR 271600Z 35012KT 320V030 CAVOK 17/01 Q1027=
201102271530 METAR LPPR 271530Z 34014KT CAVOK 17/01 Q1027=
201102271500 METAR LPPR 271500Z 36012KT CAVOK 17/00 Q1027=
201102271430 METAR LPPR 271430Z 36013KT CAVOK 17/01 Q1028=
201102271400 METAR LPPR 271400Z 36014KT CAVOK 17/M01 Q1028=
201102271330 METAR LPPR 271330Z 36017KT 330V040 9999 FEW015 17/M02 Q1028
                        WS ALL RWY=
201102271300 METAR LPPR 271300Z 35015KT 330V030 CAVOK 17/00 Q1029=
201102271230 METAR LPPR 271230Z 36012KT 320V030 CAVOK 16/02 Q1029=
201102271200 METAR LPPR 271200Z 36011KT 330V030 CAVOK 16/03 Q1029=
201102271130 METAR LPPR 271130Z 35013KT 330V030 CAVOK 15/04 Q1030=
201102271100 METAR LPPR 271100Z 36012KT CAVOK 15/05 Q1029=
201102271030 METAR LPPR 271030Z 01009KT 330V060 CAVOK 14/06 Q1029=
201102271000 METAR LPPR 271000Z 36010KT CAVOK 13/06 Q1029=
201102270930 METAR LPPR 270930Z 01009KT 330V040 CAVOK 13/06 Q1029=
201102270900 METAR LPPR 270900Z 03005KT CAVOK 12/06 Q1029=
201102270830 METAR LPPR 270830Z 36006KT CAVOK 11/06 Q1028=
201102270800 METAR LPPR 270800Z 35006KT CAVOK 09/06 Q1028=
201102270730 METAR LPPR 270730Z 05004KT 020V080 CAVOK 09/05 Q1028=
201102270700 METAR LPPR 270700Z VRB03KT CAVOK 09/05 Q1027=
201102270630 METAR LPPR 270630Z 02005KT 9000 FEW200 10/06 Q1027=
201102270600 METAR LPPR 270600Z VRB02KT 9999 SCT100 BKN250 10/06 Q1027=
201102270530 METAR LPPR 270530Z 01004KT 8000 SCT090 BKN250 10/07 Q1027=
201102270500 METAR LPPR 270500Z 34004KT 8000 SCT080 BKN250 10/07 Q1027=
201102270430 METAR LPPR 270430Z 35006KT 8000 FEW090 BKN250 10/07 Q1027=
201102270400 METAR LPPR 270400Z 01008KT 8000 BKN250 10/08 Q1027=
201102270330 METAR LPPR 270330Z 01005KT 8000 FEW250 09/08 Q1026=
201102270300 METAR LPPR 270300Z 01006KT 8000 SKC 10/09 Q1026=
201102270230 METAR LPPR 270230Z 35004KT 330V030 8000 FEW250 08/08 Q1027=
201102270200 METAR LPPR 270200Z 35003KT 7000 FEW250 09/08 Q1026=
201102270130 METAR LPPR 270130Z 01004KT 6000 SKC 09/08 Q1026=
201102270100 METAR LPPR 270100Z 35004KT 7000 FEW250 09/08 Q1027=
201102270030 METAR LPPR 270030Z 34003KT 5000 BR SKC 09/08 Q1027=
201102270000 METAR LPPR 270000Z 34003KT 2000 R17/0550N R35/P1500 BR BCFG
                        FEW002 09/09 Q1027=
201102262330 METAR LPPR 262330Z 00000KT 6000 R17/0800VP1500 R35/P1500
                        FEW003 10/09 Q1027=
201102262300 METAR LPPR 262300Z 04001KT 2500 R17/0750V1000N R35/P1500
                        BR BCFG FEW005 10/09 Q1027=
201102262230 METAR LPPR 262230Z 35002KT 3000 BR FEW250 10/10 Q1027=
201102262200 METAR LPPR 262200Z 04002KT 5000 BR SCT250 11/11 Q1027=
201102262130 METAR LPPR 262130Z 36002KT 8000 FEW008 SCT250 12/11 Q1027=
201102262100 METAR LPPR 262100Z 36003KT 9999 FEW007 SCT250 12/12 Q1027=
201102262030 METAR LPPR 262030Z 34010KT 9999 SCT007 BKN250 13/12 Q1027=
201102262000 METAR LPPR 262000Z 33008KT 9999 FEW006 BKN250 13/12 Q1027=
201102261930 METAR LPPR 261930Z 34006KT 9999 FEW007 BKN250 12/12 Q1026=
201102261900 METAR LPPR 261900Z 34006KT 9999 FEW007 BKN250 13/11 Q1026=
201102261830 METAR LPPR 261830Z 34007KT 9999 FEW009 BKN250 13/11 Q1026=
201102261800 METAR LPPR 261800Z 33011KT 9999 FEW009 BKN250 14/12 Q1026=
201102261730 METAR LPPR 261730Z 32008KT 280V340 9999 FEW007 BKN250 15/12
                        Q1026=
201102261700 METAR LPPR 261700Z 31009KT 8000 SCT006 BKN250 14/12 Q1026=
201102261630 METAR LPPR 261630Z 32011KT 8000 SCT006 BKN009 15/13 Q1026=
201102261600 METAR LPPR 261600Z 31013KT 9999 SCT008 SCT250 15/13 Q1026=
201102261530 METAR LPPR 261530Z 31010KT 9999 FEW007 SCT009 BKN250 16/13
                        Q1026=
201102261500 METAR LPPR 261500Z 31010KT 9999 FEW006 SCT009 BKN250 16/13
                        Q1027=
201102261430 METAR LPPR 261430Z 31010KT 9999 FEW006 SCT009 BKN250 16/13
                        Q1027=
201102261400 METAR LPPR 261400Z 32012KT 9999 FEW006 SCT020 BKN250 15/13
                        Q1028=
201102261330 METAR LPPR 261330Z 32010KT 9999 FEW012 BKN020 BKN250 16/13
                        Q1028=
201102261300 METAR LPPR 261300Z 30008KT 270V330 9999 BKN017 BKN250 17/13
                        Q1028=
201102261230 METAR LPPR 261230Z 31004KT 240V360 9999 FEW012 BKN250 17/13
                        Q1028=
201102261200 METAR LPPR 261200Z 33006KT 9999 FEW012 SCT040 BKN250 16/12
                        Q1029=
201102261130 METAR LPPR 261130Z 03006KT 350V060 9999 FEW012 BKN040 BKN250
                        15/11 Q1029=
201102261100 METAR LPPR 261100Z 36007KT 330V040 9999 SCT013 BKN250 14/11
                        Q1029=
201102261030 METAR LPPR 261030Z 36006KT 330V030 9999 SCT012 BKN250 14/12
                        Q1029=
201102261000 METAR LPPR 261000Z VRB03KT 9000 FEW008 BKN250 13/12 Q1029=
201102260930 METAR LPPR 260930Z VRB03KT 7000 FEW005 BKN250 12/12 Q1029=
201102260900 METAR LPPR 260900Z VRB02KT 5000 BR SCT003 BKN250 11/10 Q1029=
201102260830 METAR LPPR 260830Z 00000KT 1200 R17/P1500 R35/P1500 BCFG
                        FEW000 BKN003 09/09 Q1029=
201102260800 METAR LPPR 260800Z 00000KT 0800 R17/1000VP1500 R35/P1500
                        FG FEW001 BKN003 08/08 Q1028=
201102260730 METAR LPPR 260730Z VRB01KT 0400 R17/0600N R35/P1500 FG FEW001
                        BKN003 08/08 Q1028=
201102260700 METAR LPPR 260700Z 00000KT 0400 R17/0600N R35/P1500 FG SCT001
                        BKN003 09/09 Q1028=
201102260630 METAR LPPR 260630Z VRB02KT 0400 R17/0600N R35/0650N FG SCT001
                        BKN003 10/09 Q1028=
201102260600 METAR LPPR 260600Z VRB02KT 0400 R17/0750N R35/0450V0700D
                        FG SCT001 BKN003 10/09 Q1028=
201102260530 METAR LPPR 260530Z VRB02KT 0600 R17/1000VP1500 R35/P1500
                        FG SCT001 BKN003 10/10 Q1028=
201102260500 METAR LPPR 260500Z 01002KT 0900 R17/P1500 R35/P1500 FG SCT001
                        BKN003 10/10 Q1028=
201102260430 METAR LPPR 260430Z VRB01KT 0800 R17/1400VP1500 R35/P1500
                        FG SCT001 BKN003 10/10 Q1027=
201102260400 METAR LPPR 260400Z VRB02KT 0500 R17/0900V1300U R35/0600N
                        FG BKN001 10/10 Q1028=
201102260330 METAR LPPR 260330Z VRB01KT 0600 R17/0600N R35/0800N FG BKN001
                        09/09 Q1028=
201102260300 METAR LPPR 260300Z VRB03KT 0900 R17/0550N R35/0800VP1500
                        FG BKN002 08/08 Q1028=
201102260230 METAR LPPR 260230Z 01001KT 4000 BR FEW003 SCT012 08/07 Q1028=
201102260200 METAR LPPR 260200Z 00000KT 5000 BR FEW003 SCT012 08/07 Q1028=
201102260130 METAR LPPR 260130Z 00000KT 6000 FEW003 SCT012 09/08 Q1028=
201102260100 METAR LPPR 260100Z 04003KT 9000 FEW009 SCT015 10/09 Q1028=
201102260030 METAR LPPR 260030Z 35003KT 9000 FEW009 SCT015 10/09 Q1029=
201102260000 METAR LPPR 260000Z 34007KT 9000 FEW009 11/10 Q1028=
201102252330 METAR LPPR 252330Z 35005KT 9000 FEW009 11/10 Q1029=
201102252300 METAR LPPR 252300Z 33008KT 9999 FEW009 12/11 Q1029=
201102252230 METAR LPPR 252230Z 33008KT 9999 FEW008 12/11 Q1029=
201102252200 METAR LPPR 252200Z 33008KT 9999 FEW008 12/11 Q1029=
201102252130 METAR LPPR 252130Z 33008KT 9999 SCT008 12/11 Q1029=
201102252100 METAR LPPR 252100Z 33008KT 9999 BKN008 12/11 Q1029=
201102252030 METAR LPPR 252030Z 33009KT 300V360 9999 BKN007 12/11 Q1028=
201102252000 METAR LPPR 252000Z 33009KT 290V350 9999 BKN008 SCT250 13/12
                        Q1028=
201102251930 METAR LPPR 251930Z 33009KT 9999 BKN007 BKN250 13/12 Q1028=
201102251900 METAR LPPR 251900Z 33007KT 8000 SCT008 BKN250 13/11 Q1028=
201102251830 METAR LPPR 251830Z 34008KT 9000 FEW008 BKN250 13/11 Q1027=
201102251800 METAR LPPR 251800Z 33008KT 290V350 8000 FEW008 BKN250 14/12
                        Q1027=
201102251730 METAR LPPR 251730Z 31008KT 8000 FEW008 BKN250 15/12 Q1027=
201102251700 METAR LPPR 251700Z 33008KT 8000 FEW008 BKN250 16/13 Q1027=
201102251630 METAR LPPR 251630Z 32009KT 7000 FEW009 BKN250 15/12 Q1027=
201102251600 METAR LPPR 251600Z 32011KT 9000 FEW017 BKN250 15/13 Q1027=
201102251530 METAR LPPR 251530Z 32009KT 8000 FEW017 BKN250 16/13 Q1027=
201102251500 METAR LPPR 251500Z 31010KT 8000 BKN250 17/11 Q1027=
201102251430 METAR LPPR 251430Z 29004KT 260V320 8000 BKN250 18/11 Q1027=
201102251400 METAR LPPR 251400Z 28007G17KT 250V010 7000 SCT250 18/12 Q1027=
201102251330 METAR LPPR 251330Z VRB02KT CAVOK 20/11 Q1028=
201102251300 METAR LPPR 251300Z VRB01KT CAVOK 19/11 Q1028=
201102251230 METAR LPPR 251230Z VRB02KT 8000 BKN250 16/12 Q1028=
201102251200 METAR LPPR 251200Z 32008KT 290V010 8000 BKN250 15/11 Q1029=
201102251130 METAR LPPR 251130Z 28007KT 6000 BKN250 16/12 Q1029=
201102251100 METAR LPPR 251100Z VRB02KT 8000 BKN250 16/11 Q1029=
201102251030 METAR LPPR 251030Z VRB03KT 8000 BKN250 15/10 Q1028=
201102251000 METAR LPPR 251000Z 10004KT 050V130 6000 BKN250 14/11 Q1028=
201102250930 METAR LPPR 250930Z 09003KT 6000 BKN250 12/12 Q1029=
201102250900 METAR LPPR 250900Z 00000KT 5000 BR BKN250 11/11 Q1029=
201102250830 METAR LPPR 250830Z 07001KT 5000 BR BKN250 09/09 Q1029=
201102250800 METAR LPPR 250800Z 05002KT 4000 BR FEW005 BKN250 07/07 Q1029=
201102250730 METAR LPPR 250730Z 35003KT 2500 R17/0600V0800N R35/P1500
                        BCFG BR FEW000 SCT005 BKN250 06/05
                        Q1029=
201102250700 METAR LPPR 250700Z 00000KT 3000 BR FEW005 SCT250 06/06 Q1028=
201102250630 METAR LPPR 250630Z 00000KT 3000 BR FEW005 06/06 Q1028=
201102250600 METAR LPPR 250600Z 00000KT 5000 BR FEW009 06/06 Q1028=
201102250530 METAR LPPR 250530Z 00000KT 5000 BR FEW009 08/07 Q1028=
201102250500 METAR LPPR 250500Z 12001KT 4000 BR FEW008 07/06 Q1027=
201102250430 METAR LPPR 250430Z 00000KT 4000 BR FEW009 07/07 Q1027=
201102250400 METAR LPPR 250400Z VRB01KT 5000 BR FEW009 08/07 Q1028=
201102250330 METAR LPPR 250330Z 11002KT 5000 BR FEW009 08/08 Q1027=
201102250300 METAR LPPR 250300Z 00000KT 5000 BR FEW009 08/07 Q1027=
201102250230 METAR LPPR 250230Z 09001KT 7000 FEW009 08/07 Q1027=
201102250200 METAR LPPR 250200Z 00000KT 7000 FEW006 07/07 Q1028=
201102250130 METAR LPPR 250130Z 00000KT 7000 FEW005 08/07 Q1028=
201102250100 METAR LPPR 250100Z 00000KT 7000 FEW005 08/07 Q1028=
201102250030 METAR LPPR 250030Z 00000KT 7000 FEW006 08/07 Q1028=
201102250000 METAR LPPR 250000Z 00000KT 5000 BR FEW005 08/08 Q1028=
201102242330 METAR LPPR 242330Z 00000KT 5000 BR FEW005 09/08 Q1028=
201102242300 METAR LPPR 242300Z 00000KT 5000 BR FEW005 09/08 Q1028=
201102242230 METAR LPPR 242230Z 00000KT 6000 FEW250 10/09 Q1028=
201102242200 METAR LPPR 242200Z 11003KT 5000 BR FEW006 10/09 Q1028=
201102242130 METAR LPPR 242130Z 00000KT 5000 BR FEW006 10/09 Q1027=
201102242100 METAR LPPR 242100Z 00000KT 5000 BR FEW006 10/09 Q1027=
201102242030 METAR LPPR 242030Z 00000KT 6000 FEW250 11/10 Q1027=
201102242000 METAR LPPR 242000Z 03001KT 8000 FEW250 11/10 Q1027=
201102241930 METAR LPPR 241930Z VRB01KT 8000 FEW250 11/10 Q1027=
201102241900 METAR LPPR 241900Z 36002KT 8000 FEW250 12/11 Q1027=
201102241830 METAR LPPR 241830Z VRB03KT 8000 FEW250 14/11 Q1027=
201102241800 METAR LPPR 241800Z 31004KT 280V340 CAVOK 15/11 Q1027=
201102241730 METAR LPPR 241730Z 32005KT CAVOK 15/10 Q1027=
201102241700 METAR LPPR 241700Z 32007KT CAVOK 16/11 Q1027=
201102241630 METAR LPPR 241630Z 31007KT 270V350 CAVOK 16/10 Q1027=
201102241600 METAR LPPR 241600Z 32008KT CAVOK 16/11 Q1027=
201102241530 METAR LPPR 241530Z 29006KT CAVOK 16/11 Q1027=
201102241500 METAR LPPR 241500Z 27006KT 8000 FEW250 17/10 Q1027=
201102241430 METAR LPPR 241430Z 30005KT 260V330 8000 FEW250 16/11 Q1027=
201102241400 METAR LPPR 241400Z 28005KT 8000 FEW250 16/11 Q1027=
201102241330 METAR LPPR 241330Z 28005KT 250V320 7000 FEW250 16/11 Q1027=
201102241300 METAR LPPR 241300Z 28005KT 240V330 6000 FEW250 16/12 Q1027=
201102241230 METAR LPPR 241230Z 28005KT 6000 FEW250 16/12 Q1027=
201102241200 METAR LPPR 241200Z VRB03KT 7000 FEW250 17/11 Q1028=
201102241130 METAR LPPR 241130Z VRB02KT CAVOK 17/10 Q1028=
201102241100 METAR LPPR 241100Z VRB03KT CAVOK 15/10 Q1027=
201102241030 METAR LPPR 241030Z VRB03KT CAVOK 14/09 Q1027=
201102241000 METAR LPPR 241000Z VRB03KT CAVOK 12/09 Q1027=
201102240930 METAR LPPR 240930Z VRB03KT 8000 SKC 11/10 Q1027=
201102240900 METAR LPPR 240900Z VRB03KT 5000 BR SKC 09/09 Q1027=
201102240830 METAR LPPR 240830Z 10005KT 5000 BR SKC 08/08 Q1027=
201102240800 METAR LPPR 240800Z 10005KT 4000 BR FEW009 07/07 Q1027=
201102240730 METAR LPPR 240730Z VRB03KT 4000 BR FEW009 06/06 Q1026=
201102240700 METAR LPPR 240700Z VRB01KT 4000 BR FEW009 06/06 Q1026=
201102240630 METAR LPPR 240630Z 00000KT 3000 R17/0900VP1500 R35/P1500
                        BCFG BR FEW000 SCT009 05/05 Q1026=
201102240600 METAR LPPR 240600Z 00000KT 2500 R17/0700VP1500 R35/P1500
                        BCFG BR FEW000 SCT008 06/05 Q1026=
201102240530 METAR LPPR 240530Z 08001KT 2500 R17/1100VP1500 R35/P1500
                        BCFG BR FEW003 SCT008 05/05 Q1026=
201102240500 METAR LPPR 240500Z 04001KT 2000 R17/0800V1300U R35/P1500
                        BCFG BR FEW000 SCT005 05/04 Q1026=
201102240430 METAR LPPR 240430Z 02001KT 2000 R17/0300V0450N R35/P1500
                        BCFG BR FEW000 SCT008 06/05 Q1026=
201102240400 METAR LPPR 240400Z 00000KT 3000 R17/0650VP1500 R35/P1500
                        BCFG BR SCT007 07/06 Q1026=
201102240330 METAR LPPR 240330Z 00000KT 4000 BR FEW007 07/06 Q1026=
201102240300 METAR LPPR 240300Z 11002KT 5000 BR FEW006 08/07 Q1026=
201102240230 METAR LPPR 240230Z 08002KT 5000 BR SKC 08/07 Q1026=
201102240200 METAR LPPR 240200Z 09001KT 4000 BR SKC 06/06 Q1026=
201102240130 METAR LPPR 240130Z 00000KT 5000 BR FEW250 07/06 Q1026=
201102240100 METAR LPPR 240100Z 00000KT 6000 FEW250 07/06 Q1026=
201102240030 METAR LPPR 240030Z 00000KT 5000 BR FEW250 07/07 Q1026=
201102240000 METAR LPPR 240000Z 00000KT 6000 FEW250 07/07 Q1026=
201102232330 METAR LPPR 232330Z 04001KT CAVOK 08/07 Q1026=
201102232300 METAR LPPR 232300Z 00000KT CAVOK 08/07 Q1026=
201102232230 METAR LPPR 232230Z 00000KT CAVOK 09/08 Q1027=
201102232200 METAR LPPR 232200Z 01003KT CAVOK 10/09 Q1027=
201102232130 METAR LPPR 232130Z 36004KT CAVOK 10/09 Q1027=
201102232100 METAR LPPR 232100Z 35004KT CAVOK 10/08 Q1027=
201102232030 METAR LPPR 232030Z 35005KT CAVOK 10/08 Q1027=
201102232000 METAR LPPR 232000Z 35006KT CAVOK 10/08 Q1027=
201102231930 METAR LPPR 231930Z 34005KT CAVOK 11/08 Q1027=
201102231900 METAR LPPR 231900Z 34006KT CAVOK 12/08 Q1026=
201102231830 METAR LPPR 231830Z 33005KT CAVOK 13/09 Q1026=
201102231800 METAR LPPR 231800Z 33006KT 290V350 CAVOK 14/09 Q1026=
201102231730 METAR LPPR 231730Z 32008KT CAVOK 15/09 Q1026=
201102231700 METAR LPPR 231700Z 32010KT CAVOK 15/09 Q1026=
201102231630 METAR LPPR 231630Z 32008KT CAVOK 15/10 Q1026=
201102231600 METAR LPPR 231600Z 32009KT CAVOK 15/09 Q1026=
201102231530 METAR LPPR 231530Z 32009KT CAVOK 15/09 Q1025=
201102231500 METAR LPPR 231500Z 31011KT 280V340 CAVOK 15/09 Q1026=
201102231430 METAR LPPR 231430Z 32011KT CAVOK 16/10 Q1026=
201102231400 METAR LPPR 231400Z 32012KT 9999 FEW025 BKN250 15/10 Q1026=
201102231330 METAR LPPR 231330Z 30009KT 280V340 9999 FEW025 BKN250 16/10
                        Q1026=
201102231300 METAR LPPR 231300Z 31007KT 260V350 9999 SCT020 BKN250 15/10
                        Q1027=
201102231230 METAR LPPR 231230Z 31007KT 270V360 9999 SCT020 BKN250 15/10
                        Q1027=
201102231200 METAR LPPR 231200Z 36007KT 330V030 9999 SCT020 BKN250 15/10
                        Q1027=
201102231130 METAR LPPR 231130Z 35007KT 320V030 9999 FEW020 BKN250 15/10
                        Q1027=
201102231100 METAR LPPR 231100Z 35008KT CAVOK 14/10 Q1027=
201102231030 METAR LPPR 231030Z 01005KT 330V050 CAVOK 14/11 Q1027=
201102231000 METAR LPPR 231000Z 01004KT 330V060 CAVOK 12/11 Q1027=
201102230930 METAR LPPR 230930Z 35002KT CAVOK 11/11 Q1027=
201102230900 METAR LPPR 230900Z VRB01KT 7000 BKN250 10/10 Q1027=
201102230830 METAR LPPR 230830Z 00000KT 6000 BKN250 09/09 Q1026=
201102230800 METAR LPPR 230800Z VRB02KT 6000 SCT250 08/08 Q1025=
201102230730 METAR LPPR 230730Z 09003KT 3000 BR SCT250 07/06 Q1025=
201102230700 METAR LPPR 230700Z 09002KT 8000 SKC 07/06 Q1024=
201102230630 METAR LPPR 230630Z 10001KT 7000 SKC 07/06 Q1024=
201102230600 METAR LPPR 230600Z 00000KT 8000 SKC 07/06 Q1024=
201102230530 METAR LPPR 230530Z 05002KT 7000 SKC 07/07 Q1024=
201102230500 METAR LPPR 230500Z 36001KT 8000 SKC 08/07 Q1025=
201102230430 METAR LPPR 230430Z 04002KT CAVOK 08/07 Q1024=
201102230400 METAR LPPR 230400Z 00000KT CAVOK 08/07 Q1025=
201102230330 METAR LPPR 230330Z 05003KT CAVOK 09/09 Q1025=
201102230300 METAR LPPR 230300Z 08003KT CAVOK 09/08 Q1025=
201102230230 METAR LPPR 230230Z 00000KT CAVOK 08/08 Q1025=
201102230200 METAR LPPR 230200Z 00000KT CAVOK 08/08 Q1025=
201102230130 METAR LPPR 230130Z 00000KT CAVOK 09/08 Q1025=
201102230100 METAR LPPR 230100Z 03002KT CAVOK 09/08 Q1026=
201102230030 METAR LPPR 230030Z 04003KT CAVOK 10/09 Q1026=
201102230000 METAR LPPR 230000Z 34002KT CAVOK 10/09 Q1026=
201102222330 METAR LPPR 222330Z 35003KT CAVOK 10/09 Q1026=
201102222300 METAR LPPR 222300Z 36001KT CAVOK 10/09 Q1026=
201102222230 METAR LPPR 222230Z 35002KT CAVOK 10/09 Q1026=
201102222200 METAR LPPR 222200Z VRB03KT CAVOK 11/10 Q1026=
201102222130 METAR LPPR 222130Z 35005KT CAVOK 11/10 Q1026=
201102222100 METAR LPPR 222100Z 01004KT CAVOK 12/11 Q1026=
201102222030 METAR LPPR 222030Z 33006KT CAVOK 11/10 Q1026=
201102222000 METAR LPPR 222000Z 33008KT CAVOK 12/11 Q1026=
201102221930 METAR LPPR 221930Z 34007KT CAVOK 12/10 Q1026=
201102221900 METAR LPPR 221900Z 33009KT CAVOK 13/10 Q1025=
201102221830 METAR LPPR 221830Z 34008KT CAVOK 13/10 Q1025=
201102221800 METAR LPPR 221800Z 33011KT 9999 FEW015 14/10 Q1025=
201102221730 METAR LPPR 221730Z 33011KT 9999 FEW015 15/10 Q1025=
201102221700 METAR LPPR 221700Z 34012KT 9999 FEW015 15/11 Q1025=
201102221630 METAR LPPR 221630Z 32011KT 9999 SCT015 16/12 Q1025=
201102221600 METAR LPPR 221600Z 32013KT 9999 SCT015 16/12 Q1025=
201102221530 METAR LPPR 221530Z 32013KT 9999 SCT017 16/11 Q1025=
201102221500 METAR LPPR 221500Z 31012KT 9999 SCT017 17/12 Q1025=
201102221430 METAR LPPR 221430Z 32012KT 9999 SCT017 17/12 Q1025=
201102221400 METAR LPPR 221400Z 32012KT 9999 SCT015 16/11 Q1025=
201102221330 METAR LPPR 221330Z 31010KT 9999 SCT015 16/12 Q1026=
201102221300 METAR LPPR 221300Z 31011KT 270V340 9999 SCT015 16/11 Q1026=
201102221230 METAR LPPR 221230Z 31010KT 280V340 9999 SCT015 16/13 Q1026=
201102221200 METAR LPPR 221200Z 31010KT 270V330 9999 FEW013 BKN040 15/13
                        Q1027=
201102221130 METAR LPPR 221130Z 31008KT 9999 SCT013 BKN040 15/12 Q1027=
201102221100 METAR LPPR 221100Z 31011KT 9999 FEW013 BKN045 15/12 Q1027=
201102221030 METAR LPPR 221030Z 32011KT 280V340 9999 FEW012 BKN045 15/13
                        Q1027=
201102221000 METAR LPPR 221000Z 30010KT 270V330 9999 FEW008 SCT013 BKN020
                        14/13 Q1027=
201102220930 METAR LPPR 220930Z 30009KT 260V350 9999 FEW008 SCT013 BKN018
                        14/13 Q1027=
201102220900 METAR LPPR 220900Z 28006KT 250V320 9999 FEW006 SCT010 BKN020
                        14/12 Q1027=
201102220830 METAR LPPR 220830Z 30007KT 280V350 9999 FEW013 BKN030 14/12
                        Q1027=
201102220800 METAR LPPR 220800Z 31006KT 260V340 9999 FEW013 BKN030 13/12
                        Q1027=
201102220730 METAR LPPR 220730Z VRB03KT 8000 FEW015 BKN040 13/12 Q1026=
201102220700 METAR LPPR 220700Z 30004KT 260V340 9999 FEW017 BKN040 13/12
                        Q1026=
201102220630 METAR LPPR 220630Z 31006KT 9999 SCT015 BKN025 13/12 Q1026=
201102220600 METAR LPPR 220600Z 32005KT 9999 FEW017 BKN020 13/12 Q1026=
201102220530 METAR LPPR 220530Z 32005KT 9999 FEW017 SCT020 BKN025 13/11
                        Q1026=
201102220500 METAR LPPR 220500Z 32008KT 9999 SCT017 BKN025 13/11 Q1026=
201102220430 METAR LPPR 220430Z 32008KT 9999 FEW009 SCT017 BKN025 13/12
                        Q1026=
201102220400 METAR LPPR 220400Z 32008KT 9000 SCT008 SCT015 BKN025 14/12
                        Q1026=
201102220330 METAR LPPR 220330Z 32008KT 8000 SCT008 SCT015 BKN025 14/13
                        Q1027=
201102220300 METAR LPPR 220300Z 32009KT 290V350 8000 SCT008 BKN015 14/13
                        Q1027=
201102220230 METAR LPPR 220230Z 31009KT 6000 SCT008 BKN015 14/13 Q1027=
201102220200 METAR LPPR 220200Z 30009KT 270V330 8000 SCT006 SCT009 BKN015
                        14/13 Q1027=
201102220130 METAR LPPR 220130Z 30009KT 270V330 8000 SCT008 BKN015 14/13
                        Q1027=
201102220100 METAR LPPR 220100Z 30008KT 270V330 8000 FEW006 SCT009 BKN030
                        14/13 Q1027=
201102220030 METAR LPPR 220030Z 30007KT 260V330 8000 FEW009 BKN025 14/13
                        Q1027=
201102220000 METAR LPPR 220000Z 31008KT 8000 FEW009 BKN020 14/13 Q1027=
201102212330 METAR LPPR 212330Z 30006KT 260V330 6000 FEW009 BKN020 14/13
                        Q1027=
201102212300 METAR LPPR 212300Z 29006KT 250V330 5000 BR SCT006 BKN009
                        14/13 Q1027=
201102212230 METAR LPPR 212230Z 30006KT 260V330 5000 BR SCT008 BKN009
                        14/13 Q1027=
201102212200 METAR LPPR 212200Z 30007KT 270V340 6000 SCT006 BKN012 14/13
                        Q1027=
201102212130 METAR LPPR 212130Z 29007KT 250V330 6000 SCT006 BKN012 14/13
                        Q1027=
201102212100 METAR LPPR 212100Z 29007KT 260V320 6000 SCT006 BKN012 14/13
                        Q1027=
201102212030 METAR LPPR 212030Z 29006KT 250V330 6000 SCT006 BKN012 14/13
                        Q1027=
201102212000 METAR LPPR 212000Z 29007KT 240V320 6000 FEW005 BKN012 14/13
                        Q1027=
201102211930 METAR LPPR 211930Z 28007KT 250V330 6000 FEW008 SCT015 BKN030
                        14/13 Q1027=
201102211900 METAR LPPR 211900Z 28008KT 240V300 6000 FEW009 SCT017 BKN025
                        14/13 Q1027=
201102211830 METAR LPPR 211830Z 27006KT 240V330 6000 FEW009 SCT017 BKN025
                        14/13 Q1026=
201102211800 METAR LPPR 211800Z 26006KT 220V300 6000 FEW009 SCT017 BKN025
                        14/13 Q1026=
201102211730 METAR LPPR 211730Z 25006KT 210V290 6000 FEW009 SCT017 BKN026
                        14/13 Q1026=
201102211700 METAR LPPR 211700Z 26007KT 220V340 6000 FEW009 SCT017 BKN028
                        15/13 Q1026=
201102211630 METAR LPPR 211630Z 27007KT 230V320 6000 SCT009 BKN015 BKN030
                        15/13 Q1026=
201102211600 METAR LPPR 211600Z 26005KT 230V340 5000 BR SCT009 BKN015
                        BKN030 15/13 Q1026=
201102211530 METAR LPPR 211530Z 26006KT 220V300 5000 BR SCT009 BKN015
                        BKN030 15/13 Q1026=
201102211500 METAR LPPR 211500Z 26006KT 220V300 6000 SCT009 BKN015 BKN030
                        14/13 Q1026=
201102211430 METAR LPPR 211430Z 25006KT 220V320 5000 BR SCT009 BKN015
                        BKN020 14/13 Q1026=
201102211400 METAR LPPR 211400Z 25007KT 140V300 5000 BR SCT009 BKN015
                        BKN020 14/13 Q1026=
201102211330 METAR LPPR 211330Z 24007KT 200V270 5000 BR SCT009 BKN017
                        BKN025 15/13 Q1026=
201102211300 METAR LPPR 211300Z 24009KT 210V270 7000 SCT012 FEW015TCU
                        BKN027 15/13 Q1026=
201102211230 METAR LPPR 211230Z 24009KT 210V270 7000 SCT012 FEW015TCU
                        BKN025 15/13 Q1027=
201102211200 METAR LPPR 211200Z 24008KT 200V280 8000 FEW007 BKN012 FEW014TCU
                        15/13 Q1027=
201102211130 METAR LPPR 211130Z 24008KT 210V280 7000 FEW007 BKN012 FEW016TCU
                        15/13 Q1027=
201102211100 METAR LPPR 211100Z 24006KT 200V280 7000 FEW007 SCT017 FEW020TCU
                        SCT100 15/13 Q1027=
201102211030 METAR LPPR 211030Z 23007KT 190V260 8000 FEW008 SCT015 FEW017TCU
                        15/13 Q1027=
201102211000 METAR LPPR 211000Z 23006KT 180V260 8000 FEW008 SCT012 FEW015TCU
                        14/13 Q1026=
201102210930 METAR LPPR 210930Z 22006KT 160V260 6000 FEW007 SCT012 FEW015TCU
                        BKN025 14/13 Q1026=
201102210900 METAR LPPR 210900Z 23004KT 8000 SCT012 FEW015TCU BKN025 14/13
                        Q1026=
201102210830 METAR LPPR 210830Z 23004KT 210V270 5000 VCSH BR BKN015 BKN025
                        13/12 Q1026=
201102210800 METAR LPPR 210800Z 22004KT 180V250 8000 SCT015 13/11 Q1026=
201102210730 METAR LPPR 210730Z VRB03KT 9999 BKN013 13/11 Q1026=
201102210700 METAR LPPR 210700Z VRB04KT 9999 SCT015 13/11 Q1026=
201102210630 METAR LPPR 210630Z VRB03KT 9999 SCT015 13/11 Q1026=
201102210600 METAR LPPR 210600Z 25004KT 220V280 9999 SCT015 13/11 Q1025=
201102210530 METAR LPPR 210530Z VRB03KT 9999 SCT015 13/11 Q1025=
201102210500 METAR LPPR 210500Z 26004KT 210V300 9999 SCT015 13/12 Q1025=
201102210430 METAR LPPR 210430Z VRB02KT 9999 SCT013 12/11 Q1025=
201102210400 METAR LPPR 210400Z 25002KT 9999 BKN015 12/11 Q1025=
201102210330 METAR LPPR 210330Z VRB02KT 9999 SCT015 12/11 Q1025=
201102210300 METAR LPPR 210300Z VRB02KT 8000 SCT013 12/11 Q1025=
201102210230 METAR LPPR 210230Z VRB01KT 9999 SCT013 12/11 Q1025=
201102210200 METAR LPPR 210200Z VRB03KT 9999 SCT015 12/11 Q1025=
201102210130 METAR LPPR 210130Z 27004KT 240V300 9999 SCT015 12/11 Q1025=
201102210100 METAR LPPR 210100Z 26004KT 220V290 9999 SCT015 13/11 Q1025=
201102210030 METAR LPPR 210030Z 25004KT 210V280 8000 SCT017 12/11 Q1024=
201102210000 METAR LPPR 210000Z VRB03KT 8000 SCT018 12/11 Q1024=
201102202330 METAR LPPR 202330Z 27004KT 240V300 8000 FEW015 SCT020 BKN040
                        13/11 Q1024=
201102202300 METAR LPPR 202300Z VRB03KT 7000 FEW015 SCT020 BKN040 13/11
                        Q1024=
201102202230 METAR LPPR 202230Z 30004G14KT 250V330 8000 SCT015 BKN025
                        13/11 Q1024=
201102202200 METAR LPPR 202200Z 30005KT 8000 SCT015 BKN025 13/11 Q1024=
201102202130 METAR LPPR 202130Z 30005KT 260V330 8000 SCT015 BKN025 13/11
                        Q1023=
201102202100 METAR LPPR 202100Z 30006KT 250V330 9000 SCT015 BKN020 13/10
                        Q1023=
201102202030 METAR LPPR 202030Z 29008KT 250V320 8000 SCT012 BKN025 13/11
                        Q1023=
201102202000 METAR LPPR 202000Z 23004KT 120V290 6000 SCT012 BKN025 13/12
                        Q1022=
201102201930 METAR LPPR 201930Z VRB03KT 7000 SCT012 BKN025 13/12 Q1022=
201102201900 METAR LPPR 201900Z VRB03KT 7000 SCT012 BKN020 14/12 Q1022=
201102201830 METAR LPPR 201830Z 28006KT 240V300 8000 SCT012 BKN025 14/12
                        Q1022=
201102201800 METAR LPPR 201800Z 28006KT 250V330 8000 SCT012 FEW020CB BKN060
                        14/12 Q1021=
201102201730 METAR LPPR 201730Z 28006KT 210V340 8000 SCT012 FEW020CB BKN060
                        14/12 Q1021=
201102201700 METAR LPPR 201700Z 26006KT 220V310 8000 SCT012 FEW025CB BKN070
                        14/10 Q1021=
201102201630 METAR LPPR 201630Z 26008KT 220V300 8000 -SHRA BKN012 FEW025CB
                        15/13 Q1020=
201102201600 METAR LPPR 201600Z 25010KT 210V280 8000 BKN012 FEW020CB 15/13
                        Q1020=
201102201530 METAR LPPR 201530Z 24011KT 210V270 8000 BKN012 FEW020CB 15/13
                        Q1019=
201102201500 METAR LPPR 201500Z 24012KT 200V270 9000 BKN012 FEW020CB 16/13
                        Q1019=
201102201430 METAR LPPR 201430Z 24010KT 190V280 9000 BKN012 FEW020CB 16/13
                        Q1020=
201102201400 METAR LPPR 201400Z 24011KT 210V270 9000 BKN012 FEW020CB 16/13
                        Q1019=
201102201330 METAR LPPR 201330Z 24013KT 210V270 8000 BKN012 FEW020CB 16/14
                        Q1019=
201102201300 METAR LPPR 201300Z 24010KT 190V340 9999 SCT012 FEW025CB BKN070
                        15/14 Q1019=
201102201230 METAR LPPR 201230Z 22010KT 160V250 8000 VCSH SCT006 FEW025CB
                        BKN070 13/13 Q1019 RETS=
201102201200 METAR LPPR 201200Z 18014KT 3000 TSRA BR BKN005 SCT025CB BKN070
                        13/12 Q1019=
201102201130 METAR LPPR 201130Z 18013KT 8000 -SHRA SCT007 SCT011 BKN030
                        13/12 Q1019=
201102201100 METAR LPPR 201100Z 18015KT 8000 VCSH SCT015 BKN030 14/12
                        Q1019=
201102201030 METAR LPPR 201030Z 18014KT 9999 FEW007 BKN015 14/13 Q1019=
201102201000 METAR LPPR 201000Z 18014KT 9999 FEW007 BKN015 14/13 Q1019=
201102200930 METAR LPPR 200930Z 17010KT 9999 FEW007 BKN015 14/13 Q1019=
201102200900 METAR LPPR 200900Z 16009KT 9999 FEW005 BKN015 13/12 Q1019=
201102200830 METAR LPPR 200830Z 15006KT 9999 FEW003 BKN012 12/11 Q1019=
201102200800 METAR LPPR 200800Z 15006KT 3500N BR SCT003 BKN010 12/11 Q1019=
201102200730 METAR LPPR 200730Z 16007KT 3000N BR SCT002 SCT005 BKN008
                        12/11 Q1018=
201102200700 METAR LPPR 200700Z 16008KT 3500 BR SCT002 SCT004 BKN008 12/11
                        Q1018=
201102200630 METAR LPPR 200630Z 16008KT 5000 BR FEW002 BKN005 11/11 Q1018=
201102200600 METAR LPPR 200600Z 16007KT 5000 BR SCT003 SCT006 BKN017 12/11
                        Q1018=
201102200530 METAR LPPR 200530Z 16007KT 5000 BR SCT002 BKN012 BKN017 12/11
                        Q1018=
201102200500 METAR LPPR 200500Z 17007KT 4000 BR FEW003 BKN005 BKN020 12/11
                        Q1017=
201102200430 METAR LPPR 200430Z 18006KT 6000 -RA BR FEW003 SCT005 BKN008
                        11/11 Q1017=
201102200400 METAR LPPR 200400Z 18006KT 7000 -RA BR FEW003 SCT005 BKN070
                        12/11 Q1017=
201102200330 METAR LPPR 200330Z 14005KT 110V180 6000 -RA BR SCT007 SCT009
                        BKN070 12/11 Q1017=
201102200300 METAR LPPR 200300Z 13004KT 7000 FEW007 SCT009 BKN080 11/11
                        Q1017=
201102200230 METAR LPPR 200230Z 12005KT 5000 BR SCT012 BKN020 BKN080 11/11
                        Q1017=
201102200200 METAR LPPR 200200Z 14002KT 6000 SCT012 SCT022 BKN080 11/10
                        Q1017=
201102200130 METAR LPPR 200130Z 14003KT 6000 SCT012 SCT022 BKN080 12/11
                        Q1017=
201102200100 METAR LPPR 200100Z 20003KT 6000 FEW009 SCT012 BKN080 11/11
                        Q1017=
201102200030 METAR LPPR 200030Z VRB02KT 5000 BR FEW009 SCT012 BKN080 12/11
                        Q1017=
201102200000 METAR LPPR 200000Z 00000KT 4000N BR FEW009 BKN080 12/11 Q1017=
201102192330 METAR LPPR 192330Z 12003KT 6000 FEW012 BKN080 12/12 Q1016=
201102192300 METAR LPPR 192300Z 15002KT 7000 FEW009 SCT012 BKN080 12/11
                        Q1017=
201102192230 METAR LPPR 192230Z 00000KT 5000 BR FEW009 BKN080 12/11 Q1016=
201102192200 METAR LPPR 192200Z 00000KT 8000 FEW009 BKN080 12/12 Q1016=
201102192130 METAR LPPR 192130Z VRB02KT 7000 BKN080 12/12 Q1016=
201102192100 METAR LPPR 192100Z 00000KT 8000 BKN080 13/12 Q1016=
201102192030 METAR LPPR 192030Z VRB01KT 7000 BKN080 13/12 Q1016=
201102192000 METAR LPPR 192000Z VRB01KT 7000 BKN080 13/12 Q1015=
201102191930 METAR LPPR 191930Z 33002KT CAVOK 13/12 Q1015=
201102191900 METAR LPPR 191900Z 32003KT CAVOK 13/12 Q1015=
201102191830 METAR LPPR 191830Z 32004KT 9999 FEW010 BKN070 14/12 Q1015=
201102191800 METAR LPPR 191800Z VRB03KT 9999 FEW009 BKN080 14/12 Q1015=
201102191730 METAR LPPR 191730Z 31004KT 9999 FEW009 SCT015 BKN080 14/12
                        Q1014=
201102191700 METAR LPPR 191700Z 27005KT 250V310 9999 SCT009 SCT015 15/12
                        Q1014=
201102191630 METAR LPPR 191630Z 28006KT 9999 FEW007 SCT011 15/11 Q1014=
201102191600 METAR LPPR 191600Z 27004KT 230V310 9999 FEW005 SCT011 16/12
                        Q1014=
201102191530 METAR LPPR 191530Z 26004KT 200V310 9999 FEW009 SCT013 16/12
                        Q1014=
201102191500 METAR LPPR 191500Z 25005KT 210V290 9999 FEW009 SCT015 16/12
                        Q1014=
201102191430 METAR LPPR 191430Z 26006G17KT 220V310 9999 FEW009 SCT013
                        16/12 Q1014=
201102191400 METAR LPPR 191400Z 23007KT 190V260 9999 SCT015 16/13 Q1014=
201102191330 METAR LPPR 191330Z 25006KT 200V270 9999 SCT015 16/13 Q1014=
201102191300 METAR LPPR 191300Z 25008KT 220V280 9999 SCT015 16/12 Q1015=
201102191230 METAR LPPR 191230Z VRB02KT 9999 BKN015 16/12 Q1015=
201102191200 METAR LPPR 191200Z 20007KT 9999 BKN015 16/12 Q1015=
201102191130 METAR LPPR 191130Z 16004KT 130V200 9999 BKN015 16/12 Q1015=
201102191100 METAR LPPR 191100Z 16005KT 9999 FEW009 BKN015 16/13 Q1015=
201102191030 METAR LPPR 191030Z 15005KT 100V180 9999 FEW008 BKN015 15/13
                        Q1015=
201102191000 METAR LPPR 191000Z 12004KT 090V160 9999 FEW008 SCT015 14/14
                        Q1015=
201102190930 METAR LPPR 190930Z 12004KT 9999 SCT012 13/13 Q1015=
201102190900 METAR LPPR 190900Z 12004KT 7000 FEW009 SCT012 12/12 Q1015=
201102190830 METAR LPPR 190830Z 12005KT 5000 BR FEW009 SCT012 11/11 Q1015=
201102190800 METAR LPPR 190800Z 11006KT 4000 BR SCT009 SCT012 BKN250 11/11
                        Q1015=
201102190730 METAR LPPR 190730Z 12004KT 2000 BR SCT009 SCT012 BKN250 11/11
                        Q1014=
201102190700 METAR LPPR 190700Z VRB02KT 1500 R17/0750V1300U R35/P1500
                        BR BCFG SCT001 BKN012 10/10 Q1014=
201102190630 METAR LPPR 190630Z 00000KT 1500 R17/0600N R35/P1500 BR BCFG
                        SCT001 BKN003 10/10 Q1014=
201102190600 METAR LPPR 190600Z 13001KT 1200 R17/0600N R35/0800VP1500
                        BR BCFG FEW001 BKN003 11/11 Q1014=
201102190530 METAR LPPR 190530Z 12002KT 0900 R17/0800VP1500 R35/1000VP1500
                        BCFG BR FEW005 SCT012 BKN030 11/11
                        Q1014=
201102190500 METAR LPPR 190500Z 19003KT 4000 BR FEW007 SCT012 BKN030 12/11
                        Q1014=
201102190430 METAR LPPR 190430Z 00000KT 3000 BR FEW007 SCT012 BKN030 12/12
                        Q1014=
201102190400 METAR LPPR 190400Z 19003KT 2000 BR FEW006 SCT012 BKN030 12/11
                        Q1014=
201102190330 METAR LPPR 190330Z 18001KT 5000 BR FEW006 SCT012 BKN030 12/12
                        Q1014=
201102190300 METAR LPPR 190300Z 00000KT 5000 BR FEW007 SCT011 BKN030 12/12
                        Q1013=
201102190230 METAR LPPR 190230Z 00000KT 5000 -RADZ BR SCT003 BKN005 12/12
                        Q1013=
201102190200 METAR LPPR 190200Z 18002KT 5000 -RADZ BR SCT003 BKN005 12/12
                        Q1013=
201102190130 METAR LPPR 190130Z VRB02KT 5000 -RADZ BR SCT003 BKN005 13/12
                        Q1013=
201102190100 METAR LPPR 190100Z VRB01KT 5000 -RADZ BR SCT003 BKN005 13/13
                        Q1013=
201102190030 METAR LPPR 190030Z VRB01KT 5000 -RADZ BR SCT003 BKN005 13/13
                        Q1013=
201102190000 METAR LPPR 190000Z 26004KT 220V330 5000 RADZ BR SCT003 BKN005
                        13/13 Q1013=
201102182330 METAR LPPR 182330Z 20012KT 170V250 5000 RADZ BR BKN003 BKN005
                        13/13 Q1013=
201102182300 METAR LPPR 182300Z 18021G31KT 3000 RADZ BR BKN002 BKN004
                        13/13 Q1012 WS ALL RWY=
201102182230 METAR LPPR 182230Z 18021KT 4000 RADZ BR SCT002 BKN005 13/13
                        Q1013 WS ALL RWY=
201102182200 METAR LPPR 182200Z 18020KT 5000 RADZ BR SCT003 BKN006 13/13
                        Q1012=
201102182130 METAR LPPR 182130Z 18019KT 4000 -RA BR SCT004 SCT007 BKN013
                        13/13 Q1013=
201102182100 METAR LPPR 182100Z 17018KT 4000 -RADZ BR SCT003 BKN006 BKN013
                        13/13 Q1013=
201102182030 METAR LPPR 182030Z 17018G28KT 4000 -RADZ BR SCT004 BKN008
                        BKN013 13/12 Q1013=
201102182000 METAR LPPR 182000Z 18022KT 2500 R17/P1500 R35/1300N -RADZ
                        BR BKN003 BKN007 13/12 Q1013=
201102181930 METAR LPPR 181930Z 18022KT 2500 -RADZ BR SCT003 BKN005 13/12
                        Q1013 WS ALL RWY=
201102181900 METAR LPPR 181900Z 17019KT 2500 -RADZ BR SCT003 BKN006 13/12
                        Q1013=
201102181830 METAR LPPR 181830Z 18019KT 3000 -RADZ BR SCT003 BKN007 BKN013
                        13/12 Q1013=
201102181800 METAR LPPR 181800Z 17017KT 3000 -RA BR SCT005 BKN008 13/12
                        Q1013=
201102181730 METAR LPPR 181730Z 17020KT 4000 -RADZ BR SCT007 BKN015 13/12
                        Q1013=
201102181700 METAR LPPR 181700Z 17017KT 4000 -RADZ BR FEW008 BKN012 BKN020
                        13/12 Q1013=
201102181630 METAR LPPR 181630Z 16015KT 5000 -RA BR FEW008 BKN013 BKN018
                        13/12 Q1014=
201102181600 METAR LPPR 181600Z 17015KT 5000 -RA BR BKN012 BKN025 13/12
                        Q1014=
201102181530 METAR LPPR 181530Z 16014KT 8000 -RA BKN015 BKN025 13/12 Q1014=
201102181500 METAR LPPR 181500Z 16014KT 8000 -RA SCT013 BKN025 13/12 Q1014=
201102181430 METAR LPPR 181430Z 16014KT 9999 SCT012 BKN025 13/12 Q1014=
201102181400 METAR LPPR 181400Z 17014KT 8000 -RADZ SCT007 BKN015 13/11
                        Q1015=
201102181330 METAR LPPR 181330Z 17017KT 8000 FEW007 SCT012 BKN018 13/12
                        Q1015=
201102181300 METAR LPPR 181300Z 17011KT 6000 -DZ SCT007 BKN015 13/11 Q1015=
201102181230 METAR LPPR 181230Z 16013KT 2000 -DZ BR SCT006 SCT010 BKN015
                        13/11 Q1015=
201102181200 METAR LPPR 181200Z 16014KT 9999 SCT017 BKN030 14/11 Q1015=
201102181130 METAR LPPR 181130Z 16013KT 9999 FEW018 SCT030 OVC070 14/10
                        Q1016=
201102181100 METAR LPPR 181100Z 16013KT 9999 FEW018 SCT030 OVC070 13/10
                        Q1016=
201102181030 METAR LPPR 181030Z 14009KT 9999 FEW018 SCT035 BKN080 13/10
                        Q1015=
201102181000 METAR LPPR 181000Z 14009KT 9999 FEW035 BKN090 13/09 Q1015=
201102180930 METAR LPPR 180930Z 14010KT 9999 FEW018 SCT040 BKN090 12/09
                        Q1015=
201102180900 METAR LPPR 180900Z 14009KT 9999 FEW018 BKN040 12/09 Q1015=
201102180830 METAR LPPR 180830Z 14007KT 9999 FEW018 BKN040 11/08 Q1016=
201102180800 METAR LPPR 180800Z 13008KT 9999 SCT017 BKN040 11/08 Q1015=
201102180730 METAR LPPR 180730Z 13008KT 9999 BKN017 BKN030 11/08 Q1015=
201102180700 METAR LPPR 180700Z 13008KT 9999 SCT025 SCT030 BKN060 10/08
                        Q1015=
201102180630 METAR LPPR 180630Z 13008KT 9999 BKN025 BKN060 10/08 Q1015=
201102180600 METAR LPPR 180600Z 13007KT 9999 FEW030 SCT040 BKN250 10/08
                        Q1015=
201102180530 METAR LPPR 180530Z 13006KT 9999 SCT040 BKN070 10/08 Q1015=
201102180500 METAR LPPR 180500Z 13006KT 9999 BKN040 BKN060 10/08 Q1015=
201102180430 METAR LPPR 180430Z 12008KT 9999 SCT040 BKN070 10/08 Q1015=
201102180400 METAR LPPR 180400Z 12006KT 9999 SCT030 BKN070 10/08 Q1015=
201102180330 METAR LPPR 180330Z 14005KT 9999 SCT025 BKN080 10/08 Q1016=
201102180300 METAR LPPR 180300Z 13005KT 9999 SCT030 BKN080 09/08 Q1016=
201102180230 METAR LPPR 180230Z 12006KT 8000 FEW017 SCT040 09/08 Q1015=
201102180200 METAR LPPR 180200Z 12005KT 8000 FEW017 BKN040 10/08 Q1016=
201102180130 METAR LPPR 180130Z 11007KT 8000 FEW017 BKN040 10/08 Q1016=
201102180100 METAR LPPR 180100Z 11007KT 8000 FEW017 BKN040 10/09 Q1016=
201102180030 METAR LPPR 180030Z 12005KT 8000 FEW017 SCT040 10/09 Q1015=
201102180000 METAR LPPR 180000Z 11006KT 9999 FEW017 SCT035 10/09 Q1015=
201102172330 METAR LPPR 172330Z 12006KT 9999 FEW017 SCT030 BKN045 10/09
                        Q1015=
201102172300 METAR LPPR 172300Z 12004KT 9999 FEW017 SCT030 BKN045 10/09
                        Q1015=
201102172230 METAR LPPR 172230Z 11006KT 9999 FEW017 SCT030 BKN045 10/09
                        Q1015=
201102172200 METAR LPPR 172200Z 11005KT 9999 FEW017 SCT030 BKN040 11/09
                        Q1015=
201102172130 METAR LPPR 172130Z 11004KT 9999 FEW017 SCT035 BKN045 11/09
                        Q1014=
201102172100 METAR LPPR 172100Z VRB03KT 9999 FEW017 BKN035 11/09 Q1014=
201102172030 METAR LPPR 172030Z VRB02KT 9999 FEW017 BKN035 11/09 Q1014=
201102172000 METAR LPPR 172000Z VRB02KT 9999 SCT017 BKN035 11/09 Q1014=
201102171930 METAR LPPR 171930Z 35003KT 9999 SCT017 BKN035 11/09 Q1014=
201102171900 METAR LPPR 171900Z VRB03KT 9999 SCT017 BKN030 11/09 Q1013=
201102171830 METAR LPPR 171830Z 31007KT 9999 SCT017 BKN023 11/09 Q1013=
201102171800 METAR LPPR 171800Z 32005KT 290V360 8000 -SHRA SCT017 BKN025
                        11/09 Q1012=
201102171730 METAR LPPR 171730Z 33010KT 9999 SCT017 BKN035 11/09 Q1012=
201102171700 METAR LPPR 171700Z 31008KT 280V350 9999 SCT017 BKN025 12/10
                        Q1012 WS ALL RWY=
201102171630 METAR LPPR 171630Z 32010KT 8000 FEW009 SCT017 BKN030 11/10
                        Q1011 WS ALL RWY=
201102171600 METAR LPPR 171600Z 33011KT 5000 -SHRA FEW009 SCT015 BKN030
                        11/09 Q1011 WS ALL RWY=
201102171530 METAR LPPR 171530Z 31013KT 5000 -SHRA SCT015 FEW025CB BKN035
                        11/09 Q1011 WS ALL RWY=
201102171500 METAR LPPR 171500Z 31017G27KT 4000 -SHRA SCT015 FEW020CB
                        BKN030 12/09 Q1010 WS ALL RWY=
201102171430 METAR LPPR 171430Z 31017G27KT 8000 -SHRA SCT015 FEW020CB
                        BKN030 12/09 Q1010 WS ALL RWY=
201102171400 METAR LPPR 171400Z 34012KT 4000 -SHRA BR FEW006 SCT013 FEW018CB
                        BKN025 11/09 Q1010=
201102171330 METAR LPPR 171330Z 33012KT 4000 -SHRA FEW004 SCT015 FEW020CB
                        BKN030 11/10 Q1009=
201102171300 METAR LPPR 171300Z 31017G27KT 270V330 9999 FEW017 FEW023CB
                        BKN030 13/08 Q1009 WS ALL RWY=
201102171230 METAR LPPR 171230Z 31017KT 9999 FEW017 FEW025CB BKN035 14/08
                        Q1008 WS ALL RWY=
201102171200 METAR LPPR 171200Z 31018G29KT 9999 FEW017 FEW023CB SCT030
                        13/08 Q1008 WS ALL RWY=
201102171130 METAR LPPR 171130Z 30016KT 9999 FEW004 SCT017 FEW020CB BKN030
                        14/09 Q1008 WS ALL RWY=
201102171100 METAR LPPR 171100Z 31019G35KT 7000 -SHRA FEW017 FEW020CB
                        BKN025 13/08 Q1007 WS ALL RWY=
201102171030 METAR LPPR 171030Z 31016G29KT 9999 FEW017 FEW025TCU SCT030
                        13/07 Q1007 WS ALL RWY=
201102171000 METAR LPPR 171000Z 32019G30KT 280V340 9999 FEW017 BKN035
                        11/08 Q1006 WS ALL RWY=
201102170930 METAR LPPR 170930Z 31020G31KT 270V330 8000 -SHRA FEW005 SCT017
                        FEW025CB BKN035 12/06 Q1006 WS ALL
                        RWY=
201102170900 METAR LPPR 170900Z 30016G27KT 270V330 9999 FEW017 FEW025CB
                        SCT035 12/05 Q1005 WS ALL RWY=
201102170830 METAR COR LPPR 170830Z 31017G27KT 9999 SCT017 SCT035 12/06
                        Q1005 WS ALL RWY=
201102170800 METAR LPPR 170800Z 30018G28KT 270V330 9999 FEW018 SCT030
                        12/06 Q1004 WS ALL RWY=
201102170730 METAR LPPR 170730Z 31018G28KT 9999 FEW018 SCT035 11/06 Q1004
                        WS ALL RWY=
201102170700 METAR LPPR 170700Z 31020G33KT 280V340 9999 FEW018 BKN030
                        11/06 Q1003 WS ALL RWY=
201102170630 METAR LPPR 170630Z 31020G34KT 280V340 9999 SCT018 BKN030
                        12/06 Q1002 WS ALL RWY=
201102170600 METAR LPPR 170600Z 31019G29KT 9999 -SHRA SCT018 BKN030 11/07
                        Q1002 WS ALL RWY=
201102170530 METAR LPPR 170530Z 31018G31KT 250V330 8000 -SHRA SCT015 BKN025
                        11/08 Q1001 WS ALL RWY=
201102170500 METAR LPPR 170500Z 32017G28KT 270V350 8000 -SHRA SCT015 BKN020
                        10/08 Q1001 WS ALL RWY=
201102170430 METAR LPPR 170430Z 33010KT 9999 SCT015 BKN025 09/07 Q1000=
201102170400 METAR LPPR 170400Z 36012KT 330V030 9999 FEW015 SCT020 BKN030
                        10/07 Q1000=
201102170330 METAR LPPR 170330Z 31019KT 9999 -SHRA SCT015 BKN025 10/08
                        Q0999 WS ALL RWY=
201102170300 METAR LPPR 170300Z 31020KT 9999 SCT015 BKN025 11/07 Q0999
                        WS ALL RWY=
201102170230 METAR LPPR 170230Z 32022KT 290V360 9999 FEW015 FEW020CB BKN025
                        10/07 Q0998 WS ALL RWY=
201102170200 METAR LPPR 170200Z 31021G31KT 9999 -SHRA SCT015 FEW020CB
                        BKN025 10/08 Q0998 WS ALL RWY=
201102170130 METAR LPPR 170130Z 31025G43KT 270V340 5000 SHRA SCT015 FEW020CB
                        BKN025 11/08 Q0997 WS ALL RWY=
201102170100 METAR LPPR 170100Z 32017KT 8000 -SHRA SCT015 FEW020CB BKN025
                        10/07 Q0997 WS ALL RWY=
201102170030 METAR LPPR 170030Z 31020G34KT 9999 -SHRA SCT015 FEW020CB
                        BKN025 09/07 Q0996 WS ALL RWY=
201102170000 METAR LPPR 170000Z 33012KT 9999 SCT015 FEW020CB BKN025 10/07
                        Q0995 WS ALL RWY=
201102162330 METAR LPPR 162330Z 31014KT 9999 SCT018 FEW020CB BKN025 10/08
                        Q0995 WS ALL RWY=
201102162300 METAR LPPR 162300Z 31016G26KT 9999 SCT017 FEW020CB SCT030
                        10/07 Q0994 WS ALL RWY=
201102162230 METAR LPPR 162230Z 31016KT 270V330 9999 -SHRA FEW015 FEW020CB
                        BKN030 09/07 Q0993 WS ALL RWY=
201102162200 METAR LPPR 162200Z 30023G36KT 260V330 8000 -SHRA SCT017 FEW020CB
                        BKN025 11/06 Q0992 WS ALL RWY=
201102162130 METAR LPPR 162130Z 31020G37KT 9999 FEW017 FEW020CB BKN025
                        11/06 Q0992 WS ALL RWY=
201102162100 METAR LPPR 162100Z 30020G37KT 260V340 9000 -SHRA SCT015 FEW020CB
                        BKN030 11/09 Q0991 RERA WS ALL RWY=
201102162030 METAR LPPR 162030Z 29016G28KT 260V330 6000 SHRA SCT015 FEW020CB
                        BKN025 10/08 Q0990 WS ALL RWY=
201102162000 METAR LPPR 162000Z 29016G29KT 250V320 8000 -SHRA SCT017 FEW020CB
                        BKN025 11/08 Q0990 RERA WS ALL RWY=
201102161930 METAR LPPR 161930Z 26015G27KT 220V290 8000 SHRA SCT015 FEW020CB
                        BKN025 11/09 Q0990 WS ALL RWY=
201102161900 METAR LPPR 161900Z 26010G21KT 220V310 9000 -TSRA SCT015 SCT020CB
                        BKN025 09/07 Q0990 WS ALL RWY=
201102161830 METAR LPPR 161830Z 24011G22KT 210V280 8000 -SHRA FEW008 SCT015
                        FEW020CB BKN035 08/07 Q0991 RERA
                        WS ALL RWY=
201102161800 METAR LPPR 161800Z 25016G28KT 200V290 6000 SHRA SCT013 SCT020CB
                        BKN030 12/04 Q0991 WS ALL RWY=
201102161730 METAR LPPR 161730Z 26010KT 210V310 9999 SCT017 BKN035 11/04
                        Q0992 WS ALL RWY=
201102161700 METAR LPPR 161700Z 28013G27KT 240V310 9999 FEW017 SCT025TCU
                        BKN035 11/03 Q0992 WS ALL RWY=
201102161630 METAR LPPR 161630Z 28014KT 250V320 9999 FEW017 SCT025TCU
                        BKN035 11/04 Q0992 WS ALL RWY=
201102161600 METAR LPPR 161600Z 28016G32KT 260V330 9999 FEW017 FEW020CB
                        SCT025 10/05 Q0992 WS ALL RWY=
201102161530 METAR LPPR 161530Z 28020G42KT 240V300 3000 SHRAGS FEW013
                        SCT020CB BKN025 11/04 Q0991 WS ALL
                        RWY=
201102161500 METAR LPPR 161500Z 28020G34KT 250V320 9999 FEW013 FEW020CB
                        BKN025 11/07 Q0990 RERA WS ALL RWY=
201102161430 METAR LPPR 161430Z 24020G37KT 210V270 3000 SHRA FEW013 SCT020CB
                        BKN025 13/08 Q0989 WS ALL RWY=
201102161400 METAR LPPR 161400Z 24022G37KT 210V270 9999 FEW017 SCT025TCU
                        BKN035 15/07 Q0990 WS ALL RWY=
201102161330 METAR LPPR 161330Z 23021G32KT 200V260 9999 FEW017 SCT025TCU
                        BKN035 14/09 Q0990 WS ALL RWY=
201102161300 METAR LPPR 161300Z 22017G28KT 200V260 9999 FEW017 SCT025TCU
                        BKN030 14/10 Q0990 WS ALL RWY=
201102161230 METAR LPPR 161230Z 22020G31KT 190V250 9999 FEW017 SCT025TCU
                        BKN030 14/09 Q0991 WS ALL RWY=
201102161200 METAR LPPR 161200Z 22013G23KT 200V260 8000 -SHRA FEW017 SCT025TCU
                        BKN030 14/09 Q0992 WS ALL RWY=
201102161130 METAR LPPR 161130Z 23015G25KT 200V260 9999 FEW017 SCT025TCU
                        BKN035 14/09 Q0993 WS ALL RWY=
201102161100 METAR LPPR 161100Z 23013KT 200V260 9999 FEW017 SCT025TCU
                        BKN035 14/09 Q0993 WS ALL RWY=
201102161030 METAR LPPR 161030Z 24016G29KT 210V280 9999 FEW017 SCT025TCU
                        BKN035 13/08 Q0993 WS ALL RWY=
201102161000 METAR LPPR 161000Z 22018G30KT 170V250 8000 SCT017 FEW025CB
                        BKN030 13/08 Q0993 WS ALL RWY=
201102160930 METAR LPPR 160930Z 20017G28KT 8000 -SHRA SCT017 FEW025CB
                        BKN035 12/09 Q0993=
201102160900 METAR LPPR 160900Z 22011G22KT 180V260 4000 -SHRA SCT017 FEW025CB
                        BKN030 11/09 Q0993=
201102160830 METAR LPPR 160830Z 21015KT 8000 -SHRA SCT017 FEW025CB BKN040
                        12/08 Q0994=
201102160800 METAR LPPR 160800Z 22014KT 9999 SCT015 FEW020CB BKN030 12/08
                        Q0994=
201102160730 METAR LPPR 160730Z 22011G26KT 6000 -SHRA SCT015 FEW020CB
                        BKN025 12/08 Q0994 WS ALL RWY=
201102160700 METAR LPPR 160700Z 23013KT 200V260 9999 SCT015 FEW018CB BKN025
                        12/08 Q0994 RERA=
201102160630 METAR LPPR 160630Z 23009KT 200V260 9999 SCT015 FEW018CB BKN023
                        12/09 Q0994=
201102160600 METAR LPPR 160600Z 22013KT 9999 SCT015 FEW018CB BKN023 11/09
                        Q0994=
201102160530 METAR LPPR 160530Z 21010KT 9999 SCT015 FEW017CB BKN020 11/09
                        Q0994=
201102160500 METAR LPPR 160500Z 22010KT 190V250 9000 SCT012 FEW017CB BKN060
                        10/09 Q0994 RERA=
201102160430 METAR LPPR 160430Z 23007G18KT 160V300 3000 RA BR SCT005 BKN012
                        FEW017CB 09/09 Q0995=
201102160400 METAR LPPR 160400Z 18017KT 5000 -TSRA BR SCT005 SCT015 FEW017CB
                        BKN020 08/07 Q0996=
201102160330 METAR LPPR 160330Z 20018G30KT 5000 TSRA BR FEW006 SCT009
                        FEW015CB BKN017 08/07 Q0997 WS ALL
                        RWY=
201102160300 METAR LPPR 160300Z 17024G34KT 5000 TSRA SCT012 FEW018CB BKN020
                        10/08 Q0996 WS ALL RWY=
201102160230 METAR LPPR 160230Z 16021KT 8000 -RA SCT013 BKN022 10/08 Q0996=
201102160200 METAR LPPR 160200Z 17020KT 9999 FEW018 SCT025 BKN033 11/08
                        Q0998=
201102160130 METAR LPPR 160130Z 17016KT 9999 SCT025 FEW027CB BKN040 11/08
                        Q0999=
201102160100 METAR LPPR 160100Z 19017G27KT 9999 -SHRA SCT025 FEW027CB
                        BKN035 11/08 Q1000=
201102160030 METAR LPPR 160030Z 19013KT 9999 -SHRA SCT025 FEW030CB BKN035
                        11/08 Q1000 RERA=
201102160000 METAR LPPR 160000Z 20017KT 9999 SCT020 FEW025CB SCT035 12/07
                        Q1001=
201102152330 METAR LPPR 152330Z 21015KT 9999 SCT025 12/06 Q1002=
201102152300 METAR LPPR 152300Z 21012KT 9999 SCT025 12/07 Q1002=
201102152230 METAR LPPR 152230Z 21010KT 9999 SCT025 SCT060 12/06 Q1003=
201102152200 METAR LPPR 152200Z 22008KT 9999 SCT025 11/06 Q1003=
201102152130 METAR LPPR 152130Z 22008KT 180V250 9999 SCT025 11/06 Q1003=
201102152100 METAR LPPR 152100Z 22004KT 160V250 9999 SCT025 11/06 Q1003=
201102152030 METAR LPPR 152030Z 21004KT 9999 SCT025 10/06 Q1003=
201102152000 METAR LPPR 152000Z VRB05KT 9999 -SHRA BKN025 11/06 Q1004=
201102151930 METAR LPPR 151930Z 26005KT 180V300 9999 SCT025 SCT060 11/07
                        Q1004=
201102151900 METAR LPPR 151900Z 30005G17KT 240V340 9999 SCT025 11/08 Q1004=
201102151830 METAR LPPR 151830Z 26007KT 220V300 9999 SCT025 FEW030CB 12/07
                        Q1004=
201102151800 METAR LPPR 151800Z 29009KT 260V330 9999 SCT025 FEW030CB 12/06
                        Q1004=
201102151730 METAR LPPR 151730Z 28010KT 240V320 9999 SCT025 FEW030CB 12/05
                        Q1004=
201102151700 METAR LPPR 151700Z 28011KT 9999 SCT020 FEW025CB 13/06 Q1003=
201102151630 METAR LPPR 151630Z 29009KT 240V320 9999 SCT020 FEW025CB 13/07
                        Q1003=
201102151600 METAR LPPR 151600Z 28009KT 240V310 9999 SCT017 FEW020TCU
                        FEW025CB 13/07 Q1003 WS ALL RWY=
201102151530 METAR LPPR 151530Z 28010KT 230V320 9999 BKN020 SCT025CB 13/07
                        Q1003=
201102151500 METAR LPPR 151500Z 27008KT 220V300 9999 SCT020 SCT025CB 13/08
                        Q1003=
201102151430 METAR LPPR 151430Z 27008KT 240V310 9999 FEW017 FEW025CB SCT100
                        12/08 Q1003=
201102151400 METAR LPPR 151400Z 30008KT 270V330 9999 FEW017 FEW025CB SCT040
                        13/09 Q1003=
201102151330 METAR LPPR 151330Z 32008KT 9999 FEW020 FEW025CB BKN035 10/08
                        Q1003 RESHRA=
201102151300 METAR LPPR 151300Z 30010G20KT 200V340 5000 SHRA FEW020 FEW025CB
                        BKN030 12/07 Q1002 RESHGS=
201102151230 METAR LPPR 151230Z 25012G23KT 210V280 9999 -SHRA FEW020 FEW025CB
                        BKN030 11/08 Q1003 RESHGS=
201102151200 METAR LPPR 151200Z 22006KT 190V250 9999 FEW017 FEW025CB BKN030
                        12/09 Q1003=
201102151130 METAR LPPR 151130Z 19005KT 140V240 9999 SCT020 FEW025CB BKN030
                        12/10 Q1003=
201102151100 METAR LPPR 151100Z 00000KT 9000 -SHRA FEW020 FEW025CB BKN035
                        11/09 Q1003=
201102151030 METAR LPPR 151030Z VRB02KT 8000 -SHRA FEW017 FEW025CB BKN040
                        10/09 Q1003=
201102151000 METAR LPPR 151000Z 33005KT 290V010 8000 -SHRA FEW017 FEW025CB
                        BKN040 10/08 Q1003=
201102150930 METAR LPPR 150930Z 33017KT 310V010 8000 -SHRA FEW015 FEW025CB
                        BKN035 10/08 Q1003 WS ALL RWY=
201102150900 METAR LPPR 150900Z 13004KT 090V180 4000 -SHRA FEW017 FEW025CB
                        BKN040 10/09 Q1003=
201102150830 METAR LPPR 150830Z 14005KT 9000 FEW017 FEW025CB BKN040 10/09
                        Q1003=
201102150800 METAR LPPR 150800Z 13005KT 9999 FEW017 FEW025CB BKN040 10/08
                        Q1003=
201102150730 METAR LPPR 150730Z VRB01KT 9999 FEW017 FEW025CB BKN040 09/08
                        Q1002=
201102150700 METAR LPPR 150700Z VRB03KT 9999 -SHRA FEW017 FEW025CB BKN035
                        10/09 Q1002=
201102150630 METAR LPPR 150630Z VRB02KT 8000 -SHRA FEW013 FEW025CB BKN035
                        10/09 Q1003=
201102150600 METAR LPPR 150600Z 32004KT 6000 -SHRA FEW013 FEW020CB BKN030
                        10/09 Q1003=
201102150530 METAR LPPR 150530Z 31006KT 290V350 8000 -SHRA SCT015 FEW020CB
                        BKN030 10/08 Q1003 RETS=
201102150500 METAR LPPR 150500Z 28004KT 230V330 7000 TSRA SCT015 SCT020CB
                        BKN030 11/08 Q1003=
201102150430 METAR LPPR 150430Z 20004KT 9999 -SHRA SCT015 BKN025 BKN080
                        12/10 Q1003=
201102150400 METAR LPPR 150400Z 20004KT 180V240 9999 FEW017 SCT025 BKN080
                        11/10 Q1003=
201102150330 METAR LPPR 150330Z VRB02KT 9999 FEW017 SCT030 BKN080 10/08
                        Q1004=
201102150300 METAR LPPR 150300Z VRB01KT 9999 FEW017 SCT025 BKN080 10/08
                        Q1004=
201102150230 METAR LPPR 150230Z 31005KT 280V360 9999 FEW017 SCT025 BKN060
                        10/08 Q1005 RERA=
201102150200 METAR LPPR 150200Z 24005KT 200V260 9999 SCT030 BKN060 13/09
                        Q1004=
201102150130 METAR LPPR 150130Z 24005KT 220V290 9999 FEW017 SCT030 BKN070
                        13/09 Q1005=
201102150100 METAR LPPR 150100Z 25005KT 200V290 9999 FEW017 SCT030 BKN070
                        13/09 Q1005=
201102150030 METAR LPPR 150030Z 27005KT 230V310 9999 FEW017 FEW020CB SCT025
                        BKN070 13/09 Q1005=
201102150000 METAR LPPR 150000Z 28005KT 230V320 9999 FEW017 FEW020CB SCT025
                        BKN080 13/10 Q1005=
201102142330 METAR LPPR 142330Z 30008KT 270V330 9999 FEW017 SCT025 BKN070
                        13/10 Q1005=
201102142300 METAR LPPR 142300Z 27008KT 210V320 9999 -SHRA FEW017 BKN020
                        BKN070 14/10 Q1005=
201102142230 METAR LPPR 142230Z 24007KT 190V280 9000 FEW017 BKN020 BKN070
                        14/12 Q1005=
201102142200 METAR LPPR 142200Z 26006KT 220V290 9000 SCT020 SCT030 BKN070
                        14/12 Q1005=
201102142130 METAR LPPR 142130Z 27007KT 230V290 9000 SCT017 BKN070 14/13
                        Q1004=
201102142100 METAR LPPR 142100Z 26007KT 210V290 8000 FEW009 SCT017 BKN040
                        13/13 Q1004=
201102142030 METAR LPPR 142030Z 24007KT 180V270 8000 SCT009 SCT017 BKN040
                        13/13 Q1004 WS ALL RWY=
201102142000 METAR LPPR 142000Z 25010KT 210V290 5000 R17/P1500 R35/1100VP1500
                        -RA BR BKN004 13/13 Q1004 WS ALL
                        RWY=
201102141930 METAR LPPR 141930Z 19024KT 1500 R17/1200VP1500 R35/1100N
                        RA BR OVC003 11/11 Q1003 WS ALL RWY=
201102141900 METAR LPPR 141900Z 17028KT 1500 R17/1200VP1500 R35/0800N
                        DZ BR BKN002 BKN004 10/10 Q1003 WS
                        ALL RWY=
201102141830 METAR LPPR 141830Z 17027G38KT 1800 R17/1500D R35/0900N RADZ
                        BR SCT003 BKN005 10/09 Q1004 WS ALL
                        RWY=
201102141800 METAR LPPR 141800Z 17026KT 1500 R17/P1500 R35/1000D -RA BR
                        BKN004 BKN006 10/09 Q1004 WS ALL
                        RWY=
201102141730 METAR LPPR 141730Z 17022G32KT 3000 -RA BR SCT004 BKN007 10/09
                        Q1005 WS ALL RWY=
201102141700 METAR LPPR 141700Z 17021KT 2000 R17/P1500 R35/1300N RA BR
                        BKN005 BKN007 10/09 Q1006 WS ALL
                        RWY=
201102141630 METAR LPPR 141630Z 16019G30KT 3000 RA BR SCT004 BKN007 10/09
                        Q1007 WS ALL RWY=
201102141600 METAR LPPR 141600Z 18020KT 7000 -RA SCT009 SCT015 OVC025
                        10/09 Q1008 WS ALL RWY=
201102141530 METAR LPPR 141530Z 20018G28KT 6000 -RA SCT009 SCT017 OVC030
                        10/09 Q1009 WS ALL RWY=
201102141500 METAR LPPR 141500Z 19016KT 5000 -RA SCT010 BKN015 BKN020
                        10/09 Q1010=
201102141430 METAR LPPR 141430Z 20017KT 170V230 6000 -RA FEW007 SCT012
                        BKN025 10/09 Q1011=
201102141400 METAR LPPR 141400Z 17014KT 4000 RA SCT007 SCT013 BKN018 10/09
                        Q1011=
201102141330 METAR LPPR 141330Z 17012KT 6000 -RA SCT008 SCT013 BKN025
                        09/08 Q1012=
201102141300 METAR LPPR 141300Z 18013KT 5000 -RA FEW008 SCT013 BKN018
                        09/08 Q1013=
201102141230 METAR LPPR 141230Z 18011KT 4000 -RA SCT012 SCT020 BKN025
                        09/08 Q1014=
201102141200 METAR LPPR 141200Z 17013KT 7000 -RA SCT020 BKN035 10/06 Q1014=
201102141130 METAR LPPR 141130Z 16013KT 9999 FEW020 SCT040 BKN060 10/06
                        Q1014=
201102141100 METAR LPPR 141100Z 16013KT 9999 FEW020 SCT040 BKN065 10/06
                        Q1014=
201102141030 METAR LPPR 141030Z 16010KT 9999 FEW020 SCT045 BKN070 09/06
                        Q1014=
201102141000 METAR LPPR 141000Z 16008KT 9999 FEW020 SCT040 BKN065 08/06
                        Q1015=
201102140930 METAR LPPR 140930Z 17010KT 9999 SCT020 BKN045 08/06 Q1015=
201102140900 METAR LPPR 140900Z 13007KT 9999 SCT020 BKN045 07/05 Q1015=
201102140830 METAR LPPR 140830Z 11008KT 9999 SCT020 BKN040 06/05 Q1015=
201102140800 METAR LPPR 140800Z 11008KT 9999 SCT025 SCT200 06/04 Q1014=
201102140730 METAR LPPR 140730Z 11009KT 9999 SCT025 SCT200 06/04 Q1014=
201102140700 METAR LPPR 140700Z 12009KT 9999 FEW025 SCT035 06/04 Q1014=
201102140630 METAR LPPR 140630Z 11009KT 9999 FEW025 06/04 Q1014=
201102140600 METAR LPPR 140600Z 11007KT 9999 FEW025 06/04 Q1015=
201102140530 METAR LPPR 140530Z 12007KT 100V160 9999 SCT020 SCT030 07/05
                        Q1015=
201102140500 METAR LPPR 140500Z 12007KT 9999 FEW020 SCT030 06/05 Q1015=
201102140430 METAR LPPR 140430Z VRB02KT 9999 SCT020 06/04 Q1015=
201102140400 METAR LPPR 140400Z 04002KT 9999 SCT020 07/05 Q1015=
201102140330 METAR LPPR 140330Z 34008KT 9999 SCT020 SCT030 08/05 Q1015=
201102140300 METAR LPPR 140300Z 33006KT 290V350 8000 -SHRA SCT020 FEW025CB
                        BKN030 08/04 Q1015=
201102140230 METAR LPPR 140230Z 32018G28KT 250V350 8000 -SHRA BKN020 FEW025CB
                        09/05 Q1015 WS ALL RWY=
201102140200 METAR LPPR 140200Z VRB02KT 9999 BKN020 FEW025CB 08/06 Q1014=
201102140130 METAR LPPR 140130Z VRB02KT 9999 SCT017 FEW025CB BKN030 07/05
                        Q1014=
201102140100 METAR LPPR 140100Z 33011KT 300V360 8000 -SHRA SCT020 FEW025CB
                        BKN030 09/05 Q1014 RESHRA=
201102140030 METAR LPPR 140030Z VRB03KT 9999 SCT020 SCT040 09/05 Q1014=
201102140000 METAR LPPR 140000Z 31007KT 280V340 9999 -SHRA SCT020 BKN042
                        09/05 Q1014=
201102132330 METAR LPPR 132330Z 32011KT 280V340 9999 -SHRA SCT015 FEW020CB
                        09/04 Q1014=
201102132300 METAR LPPR 132300Z 30010KT 270V330 9999 SCT015 FEW020CB 11/05
                        Q1014=
201102132230 METAR LPPR 132230Z 30008G18KT 260V340 9999 SCT015 FEW020CB
                        10/04 Q1013 RERA=
201102132200 METAR LPPR 132200Z 28011KT 260V330 9999 SCT015 FEW020CB 11/06
                        Q1013=
201102132130 METAR LPPR 132130Z 30009KT 260V330 9999 SCT015 FEW020CB 11/05
                        Q1013=
201102132100 METAR LPPR 132100Z 30010KT 270V340 9999 SCT015 FEW020CB 11/05
                        Q1013=
201102132030 METAR LPPR 132030Z 30007KT 240V330 9999 SCT015 FEW020CB 11/04
                        Q1013=
201102132000 METAR LPPR 132000Z 31010KT 280V350 9999 SCT015 FEW020CB 11/03
                        Q1013=
201102131930 METAR LPPR 131930Z 31007KT 9999 SCT015 FEW020CB 11/04 Q1013=
201102131900 METAR LPPR 131900Z 31009KT 9999 SCT015 FEW020CB 11/04 Q1012=
201102131830 METAR LPPR 131830Z 31012KT 250V330 9999 SCT015 FEW020CB 11/05
                        Q1012=
201102131800 METAR LPPR 131800Z 30011KT 280V340 9999 SCT015 FEW020CB 11/04
                        Q1012=
201102131730 METAR LPPR 131730Z 31014KT 280V340 9999 -SHRA SCT015 FEW020CB
                        12/07 Q1011=
201102131700 METAR LPPR 131700Z 33007KT 290V350 9999 SCT015 FEW020CB 11/07
                        Q1011 RERA=
201102131630 METAR LPPR 131630Z 32008KT 9999 SCT015 FEW020CB 12/07 Q1011=
201102131600 METAR LPPR 131600Z 34010KT 9999 FEW015 FEW020CB SCT035 11/08
                        Q1011=
201102131530 METAR LPPR 131530Z 32011KT 290V010 9999 SCT015 FEW020CB BKN035
                        12/08 Q1010=
201102131500 METAR LPPR 131500Z 31014KT 9999 FEW015 FEW020CB SCT030 13/07
                        Q1010=
201102131430 METAR LPPR 131430Z 33015KT 9999 SCT015 FEW020CB 12/08 Q1010=
201102131400 METAR LPPR 131400Z 32017G29KT 270V350 9999 SCT015 FEW017TCU
                        BKN030 12/09 Q1010=
201102131330 METAR LPPR 131330Z 32015KT 290V350 8000 -SHRA SCT015 FEW017TCU
                        BKN030 12/09 Q1009=
201102131300 METAR LPPR 131300Z 30010KT 270V020 9999 -SHRA SCT020 SCT030
                        BKN050 12/10 Q1009=
201102131230 METAR LPPR 131230Z 28006KT 240V020 9999 SCT007 SCT015 FEW017TCU
                        BKN022 11/10 Q1009 RERA=
201102131200 METAR LPPR 131200Z 28004KT 250V320 7000 -RA SCT008 SCT015
                        BKN025 12/10 Q1009=
201102131130 METAR LPPR 131130Z 31007KT 9999 SCT013 SCT016 BKN040 12/11
                        Q1009=
201102131100 METAR LPPR 131100Z 28007G18KT 250V360 9999 FEW005 SCT012
                        BKN040 11/11 Q1009 RERA=
201102131030 METAR LPPR 131030Z 23008KT 160V310 1900N RA BR SCT005 BKN009
                        BKN015 11/11 Q1008=
201102131000 METAR LPPR 131000Z 20015KT 170V230 4000S -RA BR SCT005 BKN012
                        BKN020 11/10 Q1008 RERA=
201102130930 METAR LPPR 130930Z 18021G32KT 150V220 1700N RA BR SCT007
                        BKN010 BKN015 11/10 Q1008=
201102130900 METAR LPPR 130900Z 16025KT 3500 RA BR SCT009 BKN012 BKN020
                        11/10 Q1007=
201102130830 METAR LPPR 130830Z 17024KT 4000 -RA BR SCT009 BKN012 BKN024
                        11/10 Q1008=
201102130800 METAR LPPR 130800Z 17021KT 6000 -RA SCT009 BKN017 11/09 Q1008=
201102130730 METAR LPPR 130730Z 17019G29KT 8000 SCT009 BKN017 11/09 Q1009=
201102130700 METAR LPPR 130700Z 17020KT 9999 -RA BKN030 BKN060 12/09 Q1009=
201102130630 METAR LPPR 130630Z 17018KT 9999 FEW017 BKN030 BKN070 12/09
                        Q1010=
201102130600 METAR LPPR 130600Z 16018KT 9999 SCT020 BKN030 BKN090 11/09
                        Q1011=
201102130530 METAR LPPR 130530Z 17017KT 9999 BKN030 BKN100 11/09 Q1011=
201102130500 METAR LPPR 130500Z 17017KT 9999 FEW015 SCT030 BKN100 11/09
                        Q1012=
201102130430 METAR LPPR 130430Z 17016KT 9999 BKN030 BKN100 11/09 Q1012=
201102130400 METAR LPPR 130400Z 18016KT 9999 FEW015 SCT030 BKN250 11/09
                        Q1013=
201102130330 METAR LPPR 130330Z 17012KT 9999 FEW009 SCT030 BKN250 11/09
                        Q1013=
201102130300 METAR LPPR 130300Z 17011KT 9999 FEW009 SCT030 BKN100 11/08
                        Q1014=
201102130230 METAR LPPR 130230Z 17011KT 9999 FEW015 SCT030 BKN100 11/08
                        Q1015=
201102130200 METAR LPPR 130200Z 16010KT 9999 FEW015 SCT030 BKN100 11/08
                        Q1016=
201102130130 METAR LPPR 130130Z 14006KT 9999 FEW015 BKN030 BKN100 10/07
                        Q1017=
201102130100 METAR LPPR 130100Z 14007KT 9999 SCT030 BKN100 10/07 Q1017=
201102130030 METAR LPPR 130030Z 14006KT 9999 FEW020 SCT030 BKN100 09/07
                        Q1017=
201102130000 METAR LPPR 130000Z 14005KT 9999 FEW020 BKN030 09/06 Q1017=
201102122330 METAR LPPR 122330Z 14006KT 8000 FEW007 SCT020 BKN030 10/07
                        Q1017=
201102122300 METAR LPPR 122300Z 14003KT 8000 SCT017 SCT025 10/07 Q1018=
201102122230 METAR LPPR 122230Z 12006KT 8000 SCT020 SCT030 10/07 Q1018=
201102122200 METAR LPPR 122200Z 13007KT 8000 BKN020 10/07 Q1019=
201102122130 METAR LPPR 122130Z 13006KT 8000 FEW020 SCT025 10/07 Q1019=
201102122100 METAR LPPR 122100Z 15004KT 9999 BKN020 10/07 Q1019=
201102122030 METAR LPPR 122030Z 16004KT 9999 SCT020 10/07 Q1019=
201102122000 METAR LPPR 122000Z 17006KT 150V220 9999 FEW012 SCT250 10/07
                        Q1019=
201102121930 METAR LPPR 121930Z 18002KT 9999 FEW015 SCT250 10/06 Q1020=
201102121900 METAR LPPR 121900Z VRB02KT 9999 FEW012 SCT250 10/07 Q1020=
201102121830 METAR LPPR 121830Z VRB02KT 9999 FEW015 SCT250 10/06 Q1020=
201102121800 METAR LPPR 121800Z VRB03KT 9999 FEW015 SCT250 12/06 Q1020=
201102121730 METAR LPPR 121730Z 24004G14KT 180V260 9999 FEW015 SCT250
                        13/06 Q1020=
201102121700 METAR LPPR 121700Z 25005KT 220V290 9999 FEW015 SCT250 14/07
                        Q1020=
201102121630 METAR LPPR 121630Z 25005KT 210V270 9999 FEW015 SCT250 14/07
                        Q1020=
201102121600 METAR LPPR 121600Z VRB03KT 9999 FEW015 SCT250 15/06 Q1020=
201102121530 METAR LPPR 121530Z VRB03KT 9999 FEW015 SCT250 14/06 Q1020=
201102121500 METAR LPPR 121500Z 28005KT 230V310 9999 FEW015 SCT250 14/06
                        Q1021=
201102121430 METAR LPPR 121430Z 28005KT 250V310 9999 FEW015 SCT250 14/06
                        Q1021=
201102121400 METAR LPPR 121400Z 27006KT 240V300 9999 FEW015 SCT250 14/07
                        Q1022=
201102121330 METAR LPPR 121330Z 25005KT 200V280 9999 FEW015 SCT250 15/08
                        Q1022=
201102121300 METAR LPPR 121300Z VRB02KT 9999 FEW015 SCT250 14/06 Q1022=
201102121230 METAR LPPR 121230Z 27005KT 230V300 9999 FEW015 SCT250 14/10
                        Q1023=
201102121200 METAR LPPR 121200Z VRB01KT 9999 SCT015 14/09 Q1023=
201102121130 METAR LPPR 121130Z VRB01KT 9999 FEW012 SCT250 13/10 Q1023=
201102121100 METAR LPPR 121100Z 12004KT 7000 FEW002 SCT012 11/10 Q1023=
201102121030 METAR LPPR 121030Z 10004KT 3000 BR SCT002 11/10 Q1023=
201102121000 METAR LPPR 121000Z 10004KT 4000 BR FEW002 10/09 Q1023=
201102120930 METAR LPPR 120930Z VRB01KT 3000 BR FEW002 09/09 Q1023=
201102120900 METAR LPPR 120900Z 10005KT 3000 BR FEW002 07/07 Q1023=
201102120830 METAR LPPR 120830Z 00000KT 0500 R17/P1500 R35/0550V0800N
                        BCFG SCT002 05/05 Q1022=
201102120800 METAR LPPR 120800Z VRB01KT 0400 R17/0600VP1500 R35/0550N
                        BCFG SCT001 05/04 Q1022=
201102120730 METAR LPPR 120730Z 02001KT 2000N R17/0750D R35/P1500 BCFG
                        FEW001 SCT003 05/04 Q1022=
201102120700 METAR LPPR 120700Z 35002KT 4000 R17/0900VP1500 R35/P1500
                        MIFG BR SCT003 SCT200 05/05 Q1022=
201102120630 METAR LPPR 120630Z 08001KT 7000 FEW003 SCT200 05/05 Q1021=
201102120600 METAR LPPR 120600Z 00000KT 5000 R17/0900VP1500 R35/P1500
                        MIFG BR FEW003 SCT200 05/05 Q1021=
201102120530 METAR LPPR 120530Z 00000KT 5000 R17/1400VP1500 R35/P1500
                        MIFG BR FEW003 05/05 Q1021=
201102120500 METAR LPPR 120500Z 02001KT 5000 R17/0750V1000D R35/P1500
                        MIFG BR FEW003 05/05 Q1021=
201102120430 METAR LPPR 120430Z 00000KT 5000 R17/1100VP1500 R35/P1500
                        MIFG BR FEW003 06/05 Q1021=
201102120400 METAR LPPR 120400Z 00000KT 5000 R17/0800VP1500 R35/P1500
                        MIFG BR FEW003 07/06 Q1021=
201102120330 METAR LPPR 120330Z 30001KT 5000 R17/0700V1400U R35/P1500
                        MIFG BR FEW003 07/06 Q1021=
201102120300 METAR LPPR 120300Z 00000KT 5000 MIFG BR FEW003 07/06 Q1021=
201102120230 METAR LPPR 120230Z VRB02KT 5000 BR SKC 08/07 Q1021=
201102120200 METAR LPPR 120200Z 00000KT 5000 BR SCT090 08/08 Q1021=
201102120130 METAR LPPR 120130Z 34001KT 5000 R17/1300VP1500 R35/P1500
                        MIFG BR FEW050 BKN090 09/08 Q1021=
201102120100 METAR LPPR 120100Z VRB02KT 5000 BR FEW050 BKN090 10/10 Q1022=
201102120030 METAR LPPR 120030Z 00000KT 7000 FEW050 SCT080 BKN090 10/10
                        Q1022=
201102120000 METAR LPPR 120000Z 34001KT 5000 BR FEW050 SCT060 BKN090 10/10
                        Q1022=
201102112330 METAR LPPR 112330Z 00000KT 8000 FEW050 BKN070 BKN080 11/10
                        Q1022=
201102112300 METAR LPPR 112300Z 35002KT 6000 FEW050 BKN070 BKN080 11/10
                        Q1022=
201102112230 METAR LPPR 112230Z 33001KT 2200N MIFG BR FEW050 BKN070 BKN080
                        11/10 Q1021=
201102112200 METAR LPPR 112200Z VRB01KT 8000 FEW050 BKN070 BKN080 11/10
                        Q1021=
201102112130 METAR LPPR 112130Z VRB01KT 8000 SCT050 BKN070 BKN080 11/10
                        Q1020=
201102112100 METAR LPPR 112100Z 00000KT 7000 FEW015 SCT050 BKN070 11/10
                        Q1020=
201102112030 METAR LPPR 112030Z 00000KT 7000 FEW005 SCT050 BKN070 11/10
                        Q1020=
201102112000 METAR LPPR 112000Z VRB01KT 2200N -RA VCFG SCT009 SCT019 BKN050
                        11/10 Q1020=
201102111930 METAR LPPR 111930Z VRB01KT 4000 -RA BR SCT008 SCT014 BKN050
                        11/10 Q1019=
201102111900 METAR LPPR 111900Z 00000KT 5000 -RA BR SCT005 SCT030 BKN050
                        12/11 Q1019=
201102111830 METAR LPPR 111830Z 32002KT 7000 -RA BR FEW008 SCT023 BKN037
                        12/11 Q1019=
201102111800 METAR LPPR 111800Z VRB02KT 7000 -RA BR SCT006 BKN023 BKN044
                        12/11 Q1018=
201102111730 METAR LPPR 111730Z 21006KT 170V260 7000 -RA BR SCT005 BKN008
                        BKN039 12/11 Q1018=
201102111700 METAR LPPR 111700Z 23006KT 190V260 7000 -RA SCT008 BKN015
                        BKN040 12/11 Q1018=
201102111630 METAR LPPR 111630Z 22008KT 200V260 6000 -RA BR SCT008 BKN010
                        BKN038 12/11 Q1018=
201102111600 METAR LPPR 111600Z 19018KT 170V240 8000 -RA SCT009 SCT015
                        BKN040 13/12 Q1017=
201102111530 METAR LPPR 111530Z 18020KT 9999 -RA SCT012 BKN030 14/11 Q1017=
201102111500 METAR LPPR 111500Z 19018KT 9999 FEW020 BKN040 14/10 Q1017=
201102111430 METAR LPPR 111430Z 19016KT 9000 -RA FEW020 BKN030 14/11 Q1016=
201102111400 METAR LPPR 111400Z 20015G26KT 9999 FEW020 BKN030 15/11 Q1017=
201102111330 METAR LPPR 111330Z 18020KT 9999 BKN030 16/08 Q1017 WS ALL
                        RWY=
201102111300 METAR LPPR 111300Z 18019KT 9999 FEW030 BKN250 16/08 Q1017
                        WS ALL RWY=
201102111230 METAR LPPR 111230Z 18020KT CAVOK 16/08 Q1017 WS ALL RWY=
201102111200 METAR LPPR 111200Z 17022G32KT CAVOK 17/08 Q1017 WS ALL RWY=
201102111130 METAR LPPR 111130Z 17023KT CAVOK 17/07 Q1018 WS ALL RWY=
201102111100 METAR LPPR 111100Z 17020KT CAVOK 16/07 Q1018 WS ALL RWY=
201102111030 METAR LPPR 111030Z 17020KT CAVOK 16/07 Q1017 WS ALL RWY=
201102111000 METAR LPPR 111000Z 17015KT 140V200 CAVOK 15/07 Q1017=
201102110930 METAR LPPR 110930Z 14007KT CAVOK 13/06 Q1018=
201102110900 METAR LPPR 110900Z 12008KT CAVOK 12/05 Q1017=
201102110830 METAR LPPR 110830Z 12008KT CAVOK 11/06 Q1017=
201102110800 METAR LPPR 110800Z 12007KT CAVOK 10/06 Q1017=
201102110730 METAR LPPR 110730Z 13006KT CAVOK 10/06 Q1017=
201102110700 METAR LPPR 110700Z 13007KT CAVOK 10/06 Q1017=
201102110630 METAR LPPR 110630Z 13007KT CAVOK 11/07 Q1017=
201102110600 METAR LPPR 110600Z 13007KT CAVOK 11/07 Q1017=
201102110530 METAR LPPR 110530Z 15008KT CAVOK 12/07 Q1017=
201102110500 METAR LPPR 110500Z 14008KT CAVOK 12/07 Q1017=
201102110430 METAR LPPR 110430Z 14007KT CAVOK 11/07 Q1017=
201102110400 METAR LPPR 110400Z 14008KT CAVOK 11/07 Q1017=
201102110330 METAR LPPR 110330Z 14008KT CAVOK 11/07 Q1018=
201102110300 METAR LPPR 110300Z 13009KT CAVOK 11/07 Q1018=
201102110230 METAR LPPR 110230Z 13008KT CAVOK 11/07 Q1018=
201102110200 METAR LPPR 110200Z 13008KT CAVOK 11/07 Q1018=
201102110130 METAR LPPR 110130Z 13008KT CAVOK 12/08 Q1019=
201102110100 METAR LPPR 110100Z 13008KT CAVOK 12/09 Q1019=
201102110030 METAR LPPR 110030Z 13008KT CAVOK 12/10 Q1019=
201102110000 METAR LPPR 110000Z 13008KT CAVOK 12/09 Q1019=
201102102330 METAR LPPR 102330Z 14007KT 9999 FEW025 12/09 Q1019=
201102102300 METAR LPPR 102300Z 14007KT CAVOK 13/10 Q1020=
201102102230 METAR LPPR 102230Z 16009KT CAVOK 13/11 Q1020=
201102102200 METAR LPPR 102200Z 16008KT CAVOK 13/10 Q1020=
201102102130 METAR LPPR 102130Z 16008KT CAVOK 13/10 Q1020=
201102102100 METAR LPPR 102100Z 16008KT CAVOK 12/09 Q1020=
201102102030 METAR LPPR 102030Z 16009KT CAVOK 13/09 Q1020=
201102102000 METAR LPPR 102000Z 17008KT CAVOK 14/10 Q1020=
201102101930 METAR LPPR 101930Z 16008KT CAVOK 14/09 Q1020=
201102101900 METAR LPPR 101900Z 18009KT CAVOK 14/09 Q1020=
201102101830 METAR LPPR 101830Z 19010KT CAVOK 14/10 Q1020=
201102101800 METAR LPPR 101800Z 19011KT CAVOK 15/09 Q1020=
201102101730 METAR LPPR 101730Z 20011KT 170V230 CAVOK 15/09 Q1020=
201102101700 METAR LPPR 101700Z 20014KT CAVOK 16/09 Q1020=
201102101630 METAR LPPR 101630Z 20014KT CAVOK 16/08 Q1019=
201102101600 METAR LPPR 101600Z 20015KT 9999 FEW020 16/09 Q1019=
201102101530 METAR LPPR 101530Z 20014KT 9999 FEW020 16/09 Q1019=
201102101500 METAR LPPR 101500Z 20014KT 9999 FEW020 16/09 Q1019=
201102101430 METAR LPPR 101430Z 21013KT 9999 FEW020 17/09 Q1020=
201102101400 METAR LPPR 101400Z 20015KT 9999 FEW020 17/08 Q1020=
201102101330 METAR LPPR 101330Z 19016KT 9999 FEW020 17/08 Q1020=
201102101300 METAR LPPR 101300Z 19016KT 9999 FEW030 17/08 Q1021=
201102101230 METAR LPPR 101230Z 20012KT 9999 FEW030 17/08 Q1021=
201102101200 METAR LPPR 101200Z 20013KT 9999 FEW017 17/08 Q1021=
201102101130 METAR LPPR 101130Z 19013KT 9999 FEW017 17/08 Q1021=
201102101100 METAR LPPR 101100Z 16008KT 130V190 9999 FEW040 17/08 Q1021=
201102101030 METAR LPPR 101030Z 15007KT 9999 FEW040 16/08 Q1022=
201102101000 METAR LPPR 101000Z 13007KT 9999 SCT040 15/08 Q1022=
201102100930 METAR LPPR 100930Z 13006KT 9999 BKN040 14/09 Q1022=
201102100900 METAR LPPR 100900Z 12006KT 9999 BKN040 SCT070 14/09 Q1022=
201102100830 METAR LPPR 100830Z 12007KT 9999 BKN040 SCT070 13/08 Q1022=
201102100800 METAR LPPR 100800Z 12008KT 9999 BKN040 13/08 Q1022=
201102100730 METAR LPPR 100730Z 12006KT 9999 BKN040 13/08 Q1022=
201102100700 METAR LPPR 100700Z 12006KT 9999 BKN040 13/08 Q1021=
201102100630 METAR LPPR 100630Z 12007KT 9999 BKN040 13/09 Q1021=
201102100600 METAR LPPR 100600Z 12008KT 9999 FEW030 BKN040 14/08 Q1021=
201102100530 METAR LPPR 100530Z 13007KT 9999 FEW030 BKN040 14/08 Q1021=
201102100500 METAR LPPR 100500Z 13006KT 9999 FEW030 BKN040 14/08 Q1021=
201102100430 METAR LPPR 100430Z 13007KT 9999 FEW030 BKN040 14/08 Q1021=
201102100400 METAR LPPR 100400Z 13006KT 9999 FEW030 BKN040 13/08 Q1021=
201102100330 METAR LPPR 100330Z 13006KT 9999 FEW030 BKN040 14/08 Q1021=
201102100300 METAR LPPR 100300Z 13006KT 9999 SCT030 BKN040 14/08 Q1021=
201102100230 METAR LPPR 100230Z 13005KT 9999 BKN040 14/08 Q1021=
201102100200 METAR LPPR 100200Z 13005KT 9999 BKN040 14/09 Q1021=
201102100130 METAR LPPR 100130Z 15004KT 9999 SCT030 BKN040 13/10 Q1021=
201102100100 METAR LPPR 100100Z 17006KT 9999 SCT030 BKN040 14/10 Q1021=
201102100030 METAR LPPR 100030Z 18005KT 9999 SCT030 BKN040 13/10 Q1021=
201102100000 METAR LPPR 100000Z 17005KT 9999 SCT030 BKN070 14/09 Q1021=
201102092330 METAR LPPR 092330Z 18004KT 140V220 9999 SCT030 BKN070 14/09
                        Q1021=
201102092300 METAR LPPR 092300Z 14005KT 9999 SCT030 BKN070 15/09 Q1021=
201102092230 METAR LPPR 092230Z 14005KT 9999 SCT030 SCT080 15/09 Q1021=
201102092200 METAR LPPR 092200Z 14005KT 9999 SCT045 SCT080 15/09 Q1021=
201102092130 METAR LPPR 092130Z 13005KT 9999 SCT045 BKN080 15/09 Q1020=
201102092100 METAR LPPR 092100Z 13006KT 9999 BKN045 15/09 Q1020=
201102092030 METAR LPPR 092030Z 13006KT 9999 BKN040 15/09 Q1020=
201102092000 METAR LPPR 092000Z 13005KT 9999 BKN045 15/10 Q1020=
201102091930 METAR LPPR 091930Z 13005KT 9999 SCT040 BKN090 15/10 Q1020=
201102091900 METAR LPPR 091900Z 13005KT 9999 SCT040 BKN080 15/09 Q1019=
201102091830 METAR LPPR 091830Z 14007KT 9999 SCT040 BKN080 15/09 Q1019=
201102091800 METAR LPPR 091800Z 16010KT 9999 SCT040 BKN050 16/10 Q1019=
201102091730 METAR LPPR 091730Z 16011KT 9999 BKN040 BKN090 16/10 Q1019=
201102091700 METAR LPPR 091700Z 16013KT 9999 BKN040 BKN090 16/11 Q1019=
201102091630 METAR LPPR 091630Z 17013KT 9999 BKN040 BKN080 17/10 Q1018=
201102091600 METAR LPPR 091600Z 17014KT 9999 BKN035 BKN090 17/10 Q1018=
201102091530 METAR LPPR 091530Z 17014KT 9999 FEW025 SCT035 BKN090 17/10
                        Q1018=
201102091500 METAR LPPR 091500Z 17014KT 9999 FEW025 SCT035 BKN090 17/11
                        Q1018=
201102091430 METAR LPPR 091430Z 17015KT 9999 FEW025 SCT035 BKN070 17/11
                        Q1018=
201102091400 METAR LPPR 091400Z 17015KT 9999 SCT025 SCT035 BKN070 17/10
                        Q1018=
201102091330 METAR LPPR 091330Z 16015KT 9999 SCT020 BKN030 16/11 Q1018=
201102091300 METAR LPPR 091300Z 17017KT 9999 SCT020 BKN030 16/11 Q1018=
201102091230 METAR LPPR 091230Z 17016KT 9999 BKN025 BKN035 16/11 Q1018=
201102091200 METAR LPPR 091200Z 17018G28KT 9999 BKN020 BKN030 16/10 Q1018=
201102091130 METAR LPPR 091130Z 17020G33KT 9999 SCT023 BKN040 16/11 Q1018=
201102091100 METAR LPPR 091100Z 17018KT 9999 SCT023 BKN040 16/11 Q1018=
201102091030 METAR LPPR 091030Z 16017G27KT 9999 SCT025 BKN040 16/11 Q1018=
201102091000 METAR LPPR 091000Z 15011KT 120V180 9999 SCT025 BKN035 15/11
                        Q1018=
201102090930 METAR LPPR 090930Z 14008KT 110V170 9999 SCT025 BKN033 14/11
                        Q1018=
201102090900 METAR LPPR 090900Z 14008KT 9999 BKN023 BKN030 14/11 Q1017=
201102090830 METAR LPPR 090830Z 14010KT 9999 BKN017 BKN022 14/11 Q1017=
201102090800 METAR LPPR 090800Z 15014KT 9999 OVC017 14/11 Q1017=
201102090730 METAR LPPR 090730Z 16014KT 9999 OVC017 14/11 Q1017=
201102090700 METAR LPPR 090700Z 15014KT 9999 OVC020 14/10 Q1016=
201102090630 METAR LPPR 090630Z 14010KT 9999 OVC020 13/10 Q1016=
201102090600 METAR LPPR 090600Z 14011KT 9999 OVC020 13/10 Q1016=
201102090530 METAR LPPR 090530Z 14011KT 9999 -RA SCT017 BKN020 13/10 Q1016=
201102090500 METAR LPPR 090500Z 14011KT 9999 OVC020 13/10 Q1016=
201102090430 METAR LPPR 090430Z 14009KT 9999 -RA BKN020 BKN080 13/10 Q1016=
201102090400 METAR LPPR 090400Z 15017KT 9999 -DZ FEW009 SCT030 BKN080
                        13/10 Q1016=
201102090330 METAR LPPR 090330Z 15013KT 110V180 9999 SCT030 BKN070 13/10
                        Q1016=
201102090300 METAR LPPR 090300Z 15014KT 9999 -RA SCT030 BKN070 13/10 Q1017=
201102090230 METAR LPPR 090230Z 15016KT 9999 -RA SCT030 BKN070 13/10 Q1017=
201102090200 METAR LPPR 090200Z 15012KT 9999 SCT025 BKN070 13/10 Q1017=
201102090130 METAR LPPR 090130Z 14012KT 9999 -RA BKN025 BKN070 12/10 Q1017=
201102090100 METAR LPPR 090100Z 14011KT 9999 -RA SCT025 BKN080 12/10 Q1017=
201102090030 METAR LPPR 090030Z 14010KT 9999 SCT025 BKN080 12/10 Q1017=
201102090000 METAR LPPR 090000Z 15012KT 9999 FEW025 SCT040 BKN070 12/11
                        Q1018=
201102082330 METAR LPPR 082330Z 16012KT 9999 -RA SCT030 BKN045 12/11 Q1018=
201102082300 METAR LPPR 082300Z 17010KT 9000 -RA SCT025 BKN035 12/10 Q1018=
201102082230 METAR LPPR 082230Z 18016KT 9999 -RA FEW030 BKN045 12/10 Q1018=
201102082200 METAR LPPR 082200Z 18015G25KT 9999 -RA FEW020 BKN030 13/10
                        Q1018=
201102082130 METAR LPPR 082130Z 21012KT 160V250 9999 -RA FEW025 BKN030
                        13/10 Q1018=
201102082100 METAR LPPR 082100Z 17017KT 9999 SCT035 BKN040 14/08 Q1017=
201102082030 METAR LPPR 082030Z 16016KT 9999 -RA BKN040 BKN070 15/08 Q1016=
201102082000 METAR LPPR 082000Z 16015KT 9999 FEW040 BKN080 15/08 Q1016=
201102081930 METAR LPPR 081930Z 16020KT 9999 FEW040 BKN080 15/08 Q1016=
201102081900 METAR LPPR 081900Z 16015KT 9999 FEW040 BKN080 15/08 Q1016=
201102081830 METAR LPPR 081830Z 16013KT 9999 -RA FEW040 BKN080 15/09 Q1016=
201102081800 METAR LPPR 081800Z 16015G26KT 9999 -RA FEW040 BKN080 14/09
                        Q1016=
201102081730 METAR LPPR 081730Z 16016KT 9999 FEW040 BKN080 15/08 Q1017=
201102081700 METAR LPPR 081700Z 17016KT 9999 FEW030 BKN070 15/08 Q1017=
201102081630 METAR LPPR 081630Z 17014KT 9999 FEW030 BKN070 16/09 Q1017=
201102081600 METAR LPPR 081600Z 16014KT 9999 FEW030 BKN070 16/09 Q1017=
201102081530 METAR LPPR 081530Z 16014KT 9999 FEW030 SCT040 BKN070 16/10
                        Q1017=
201102081500 METAR LPPR 081500Z 17016KT 9999 SCT030 BKN035 15/09 Q1017=
201102081430 METAR LPPR 081430Z 17014KT 9999 BKN025 BKN035 15/09 Q1018=
201102081400 METAR LPPR 081400Z 17013KT 9999 BKN025 BKN035 15/08 Q1018=
201102081330 METAR LPPR 081330Z 17015KT 9999 BKN035 15/08 Q1018=
201102081300 METAR LPPR 081300Z 17012KT 9999 SCT025 BKN035 16/08 Q1019=
201102081230 METAR LPPR 081230Z 16007KT 9999 SCT025 BKN040 15/08 Q1019=
201102081200 METAR LPPR 081200Z 14009KT 9999 SCT025 BKN040 14/08 Q1020=
201102081130 METAR LPPR 081130Z 13008KT 9999 BKN030 BKN040 13/07 Q1020=
201102081100 METAR LPPR 081100Z 12008KT 9999 BKN040 BKN070 13/07 Q1020=
201102081030 METAR LPPR 081030Z 13009KT 9999 FEW030 BKN070 12/07 Q1020=
201102081000 METAR LPPR 081000Z 12010KT CAVOK 11/07 Q1020=
201102080930 METAR LPPR 080930Z 12010KT CAVOK 11/07 Q1020=
201102080900 METAR LPPR 080900Z 12009KT CAVOK 10/07 Q1020=
201102080830 METAR LPPR 080830Z 12009KT CAVOK 09/06 Q1020=
201102080800 METAR LPPR 080800Z 12009KT CAVOK 09/06 Q1020=
201102080730 METAR LPPR 080730Z 12010KT 8000 SCT200 BKN250 09/06 Q1020=
201102080700 METAR LPPR 080700Z 11011KT 8000 SCT250 08/06 Q1020=
201102080630 METAR LPPR 080630Z 10009KT 8000 SCT250 08/06 Q1020=
201102080600 METAR LPPR 080600Z 11008KT 8000 SCT250 08/06 Q1020=
201102080530 METAR LPPR 080530Z 11008KT 8000 SCT250 09/07 Q1020=
201102080500 METAR LPPR 080500Z 11008KT 8000 SCT200 09/07 Q1021=
201102080430 METAR LPPR 080430Z 11009KT 8000 SCT200 09/07 Q1021=
201102080400 METAR LPPR 080400Z 11008KT 8000 SCT200 09/07 Q1021=
201102080330 METAR LPPR 080330Z 11009KT 7000 SCT200 09/08 Q1021=
201102080300 METAR LPPR 080300Z 11008KT 6000 SCT200 09/08 Q1021=
201102080230 METAR LPPR 080230Z 11008KT 6000 BKN250 09/08 Q1022=
201102080200 METAR LPPR 080200Z 11007KT 5000 BR FEW017 SCT250 09/08 Q1022=
201102080130 METAR LPPR 080130Z 11008KT 5000 BR FEW015 SCT020 10/09 Q1022=
201102080100 METAR LPPR 080100Z 10007KT 5000 BR FEW013 BKN017 10/09 Q1022=
201102080030 METAR LPPR 080030Z 10006KT 4000 BR SCT200 10/09 Q1023=
201102080000 METAR LPPR 080000Z 10005KT 5000 BR SCT200 10/09 Q1023=
201102072330 METAR LPPR 072330Z 10006KT 5000 BR BKN200 10/09 Q1023=
201102072300 METAR LPPR 072300Z 11007KT 5000 BR BKN200 11/10 Q1023=
201102072230 METAR LPPR 072230Z 10007KT 5000 BR BKN200 11/10 Q1023=
201102072200 METAR LPPR 072200Z 11006KT 5000 BR BKN200 11/10 Q1023=
201102072130 METAR LPPR 072130Z 11006KT 5000 BR BKN250 11/10 Q1023=
201102072100 METAR LPPR 072100Z 11005KT 5000 BR BKN250 11/10 Q1023=
201102072030 METAR LPPR 072030Z 11005KT 5000 BR BKN250 11/10 Q1023=
201102072000 METAR LPPR 072000Z 11005KT 5000 BR BKN200 11/10 Q1023=
201102071930 METAR LPPR 071930Z 13003KT 5000 BR BKN200 11/10 Q1023=
201102071900 METAR LPPR 071900Z 16003KT 5000 BR BKN200 11/10 Q1023=
201102071830 METAR LPPR 071830Z 18004KT 6000 BKN200 12/10 Q1023=
201102071800 METAR LPPR 071800Z 21003KT 6000 BKN200 13/10 Q1023=
201102071730 METAR LPPR 071730Z VRB03G14KT 7000 BKN200 13/11 Q1023=
201102071700 METAR LPPR 071700Z 21004KT 180V250 7000 BKN200 14/10 Q1023=
201102071630 METAR LPPR 071630Z 22004KT 190V260 8000 BKN200 14/10 Q1023=
201102071600 METAR LPPR 071600Z 23006KT 200V260 CAVOK 15/09 Q1023=
201102071530 METAR LPPR 071530Z 22006KT 190V270 CAVOK 16/09 Q1023=
201102071500 METAR LPPR 071500Z 20009KT 130V230 CAVOK 16/07 Q1023=
201102071430 METAR LPPR 071430Z 20008KT CAVOK 16/09 Q1024=
201102071400 METAR LPPR 071400Z 20008KT CAVOK 17/09 Q1024=
201102071330 METAR LPPR 071330Z 19006KT 140V240 CAVOK 17/08 Q1024=
201102071300 METAR LPPR 071300Z 17006KT 120V210 CAVOK 17/08 Q1025=
201102071230 METAR LPPR 071230Z 12004KT 040V170 CAVOK 16/09 Q1025=
201102071200 METAR LPPR 071200Z 14005KT 100V170 CAVOK 15/09 Q1026=
201102071130 METAR LPPR 071130Z 12006KT CAVOK 14/07 Q1026=
201102071100 METAR LPPR 071100Z 11007KT 9000 FEW015 SCT200 13/06 Q1026=
201102071030 METAR LPPR 071030Z 11008KT 9000 FEW015 SCT200 11/06 Q1026=
201102071000 METAR LPPR 071000Z 11008KT 9000 FEW015 SCT200 10/05 Q1026=
201102070930 METAR LPPR 070930Z 10008KT 9000 FEW015 09/05 Q1026=
201102070900 METAR LPPR 070900Z 11009KT 8000 SCT015 SCT200 08/04 Q1026=
201102070830 METAR LPPR 070830Z 10009KT 7000 FEW014 SCT016 07/04 Q1026=
201102070800 METAR LPPR 070800Z VRB01KT 7000 FEW010 SCT015 06/04 Q1025=
201102070730 METAR LPPR 070730Z 00000KT 7000 FEW012 06/03 Q1025=
201102070700 METAR LPPR 070700Z 10008KT 8000 SKC 07/04 Q1025=
201102070630 METAR LPPR 070630Z 10010KT 8000 SKC 07/05 Q1025=
201102070600 METAR LPPR 070600Z 10008KT 8000 SKC 07/05 Q1025=
201102070530 METAR LPPR 070530Z 00000KT 7000 SKC 06/04 Q1025=
201102070500 METAR LPPR 070500Z VRB01KT 7000 SKC 06/04 Q1025=
201102070430 METAR LPPR 070430Z 00000KT 8000 SKC 07/04 Q1025=
201102070400 METAR LPPR 070400Z 10005KT 030V120 8000 SKC 08/05 Q1025=
201102070330 METAR LPPR 070330Z 10006KT 8000 SKC 08/05 Q1025=
201102070300 METAR LPPR 070300Z 10008KT 8000 SKC 08/05 Q1026=
201102070230 METAR LPPR 070230Z VRB03KT 8000 SKC 08/05 Q1026=
201102070200 METAR LPPR 070200Z 00000KT 8000 SKC 07/05 Q1026=
201102070130 METAR LPPR 070130Z VRB03KT 8000 SKC 07/05 Q1026=
201102070100 METAR LPPR 070100Z VRB03KT 8000 SKC 08/05 Q1026=
201102070030 METAR LPPR 070030Z VRB03KT 8000 SKC 08/05 Q1027=
201102070000 METAR LPPR 070000Z 10004KT 040V130 8000 SKC 09/06 Q1027=
201102062330 METAR LPPR 062330Z 10006KT 8000 SKC 09/06 Q1027=
201102062300 METAR LPPR 062300Z 10006KT 8000 SKC 09/06 Q1027=
201102062230 METAR LPPR 062230Z 10008KT 9000 SKC 10/07 Q1027=
201102062200 METAR LPPR 062200Z 10006KT 6000 SKC 08/07 Q1027=
201102062130 METAR LPPR 062130Z 00000KT 5000 BR SKC 06/04 Q1027=
201102062100 METAR LPPR 062100Z 00000KT 7000 SKC 07/05 Q1027=
201102062030 METAR LPPR 062030Z 34002KT 6000 SKC 07/05 Q1027=
201102062000 METAR LPPR 062000Z 00000KT 7000 SKC 08/05 Q1027=
201102061930 METAR LPPR 061930Z 00000KT 8000 SKC 09/05 Q1027=
201102061900 METAR LPPR 061900Z 10001KT CAVOK 09/05 Q1027=
201102061830 METAR LPPR 061830Z 00000KT 8000 FEW200 11/07 Q1027=
201102061800 METAR LPPR 061800Z 00000KT 8000 FEW200 13/07 Q1027=
201102061730 METAR LPPR 061730Z 25002KT CAVOK 14/07 Q1027=
201102061700 METAR LPPR 061700Z VRB02KT CAVOK 15/07 Q1027=
201102061630 METAR LPPR 061630Z VRB02KT CAVOK 16/08 Q1027=
201102061600 METAR LPPR 061600Z 26004KT CAVOK 16/07 Q1027=
201102061530 METAR LPPR 061530Z 26005KT 7000 SKC 15/08 Q1027=
201102061500 METAR LPPR 061500Z VRB03KT 7000 SKC 16/10 Q1027=
201102061430 METAR LPPR 061430Z 25007KT 230V290 7000 SKC 16/10 Q1027=
201102061400 METAR LPPR 061400Z 24004KT 200V280 CAVOK 18/09 Q1027=
201102061330 METAR LPPR 061330Z 22004KT 180V260 CAVOK 17/08 Q1027=
201102061300 METAR LPPR 061300Z 22004KT 170V260 CAVOK 17/07 Q1028=
201102061230 METAR LPPR 061230Z VRB03KT CAVOK 16/06 Q1028=
201102061200 METAR LPPR 061200Z VRB03KT CAVOK 16/06 Q1029=
201102061130 METAR LPPR 061130Z VRB03KT CAVOK 15/06 Q1029=
201102061100 METAR LPPR 061100Z 14005KT 100V200 CAVOK 13/06 Q1029=
201102061030 METAR LPPR 061030Z 11007KT CAVOK 12/05 Q1029=
201102061000 METAR LPPR 061000Z 11008KT CAVOK 11/05 Q1029=
201102060930 METAR LPPR 060930Z 11008KT CAVOK 10/04 Q1029=
201102060900 METAR LPPR 060900Z 11010KT CAVOK 09/04 Q1029=
201102060830 METAR LPPR 060830Z 11010KT 8000 SKC 08/04 Q1029=
201102060800 METAR LPPR 060800Z 10010KT 7000 SKC 08/04 Q1029=
201102060730 METAR LPPR 060730Z 10010KT 7000 SKC 08/04 Q1029=
201102060700 METAR LPPR 060700Z 11010KT 8000 SKC 08/04 Q1029=
201102060630 METAR LPPR 060630Z 10008KT 7000 SKC 07/06 Q1029=
201102060600 METAR LPPR 060600Z VRB02KT 5000 BR SKC 05/04 Q1029=
201102060530 METAR LPPR 060530Z VRB01KT 5000 BR SKC 05/04 Q1029=
201102060500 METAR LPPR 060500Z VRB01KT 5000 BR FEW007 05/04 Q1029=
201102060430 METAR LPPR 060430Z 00000KT 4000 BR FEW007 05/04 Q1029=
201102060400 METAR LPPR 060400Z VRB01KT 2000N BR FEW006 05/04 Q1029=
201102060330 METAR LPPR 060330Z VRB01KT 1500N R17/0250V0400N R35/P1500
                        BR BCFG FEW006 04/03 Q1030=
201102060300 METAR LPPR 060300Z 00000KT 1500N R17/0800VP1500 R35/P1500
                        BR BCFG FEW006 05/05 Q1030=
201102060230 METAR LPPR 060230Z 00000KT 2000N BR FEW006 06/05 Q1030=
201102060200 METAR LPPR 060200Z 00000KT 1500N R17/0900VP1500 R35/P1500
                        BR BCFG FEW006 06/05 Q1030=
201102060130 METAR LPPR 060130Z 00000KT 3000 BR FEW006 06/05 Q1030=
201102060100 METAR LPPR 060100Z 00000KT 2000N BR FEW006 05/05 Q1030=
201102060030 METAR LPPR 060030Z 00000KT 1500N BR FEW006 06/05 Q1031=
201102060000 METAR LPPR 060000Z 12001KT 2000N BR FEW060 06/06 Q1031=
201102052330 METAR LPPR 052330Z 00000KT 2000 BR FEW006 06/05 Q1031=
201102052300 METAR LPPR 052300Z 00000KT 2000 BR SKC 06/05 Q1031=
201102052230 METAR LPPR 052230Z 00000KT 5000 BR SKC 06/05 Q1031=
201102052200 METAR LPPR 052200Z 00000KT 1500 R17/0350VP1500 R35/P1500
                        BR BCFG FEW008 06/05 Q1031=
201102052130 METAR LPPR 052130Z 00000KT 1500 R17/0600VP1500 R35/P1500
                        BR BCFG SCT008 07/06 Q1031=
201102052100 METAR LPPR 052100Z 00000KT 1500 R17/0350V0550N R35/P1500
                        BR BCFG SCT008 07/06 Q1031=
201102052030 METAR LPPR 052030Z 03001KT 3000 BR SCT200 08/06 Q1032=
201102052000 METAR LPPR 052000Z 36001KT 3000 BR SCT200 08/07 Q1032=
201102051930 METAR LPPR 051930Z 35002KT 3000 BR SCT200 08/07 Q1032=
201102051900 METAR LPPR 051900Z 36002KT 5000 BR SCT200 09/07 Q1032=
201102051830 METAR LPPR 051830Z 36001KT 4000N BR SCT200 10/08 Q1032=
201102051800 METAR LPPR 051800Z 33002KT 5000 BR BKN200 11/08 Q1032=
201102051730 METAR LPPR 051730Z 31003KT 5000 BR SCT200 12/09 Q1032=
201102051700 METAR LPPR 051700Z VRB03KT 6000 FEW200 13/08 Q1032=
201102051630 METAR LPPR 051630Z VRB03KT 5000 BR FEW200 14/09 Q1032=
201102051600 METAR LPPR 051600Z VRB03KT 5000 BR FEW200 14/09 Q1032=
201102051530 METAR LPPR 051530Z 28004KT 250V320 5000 BR FEW200 15/09 Q1032=
201102051500 METAR LPPR 051500Z 28004KT 250V310 5000 BR FEW200 14/08 Q1032=
201102051430 METAR LPPR 051430Z 28004KT 240V310 5000 BR FEW200 14/08 Q1032=
201102051400 METAR LPPR 051400Z 27004KT 210V320 5000 BR FEW200 15/08 Q1032=
201102051330 METAR LPPR 051330Z 25004KT 220V280 5000 BR FEW015 14/08 Q1032=
201102051300 METAR LPPR 051300Z VRB06KT 5000 BR FEW015 15/08 Q1033=
201102051230 METAR LPPR 051230Z VRB02KT 7000 FEW200 16/06 Q1033=
201102051200 METAR LPPR 051200Z VRB02KT 7000 FEW200 15/06 Q1033=
201102051130 METAR LPPR 051130Z VRB03KT 7000 SKC 14/06 Q1034=
201102051100 METAR LPPR 051100Z VRB03KT 4000 BR SKC 12/06 Q1034=
201102051030 METAR LPPR 051030Z VRB01KT 4000N BR SKC 11/07 Q1034=
201102051000 METAR LPPR 051000Z 00000KT 3500N BR FEW009 10/09 Q1034=
201102050930 METAR LPPR 050930Z VRB02KT 2500N VCFG BR FEW005 08/07 Q1034=
201102050900 METAR LPPR 050900Z 10003KT 1300N R17/P1500 R35/P1500 VCFG
                        BR FEW005 06/05 Q1034=
201102050830 METAR LPPR 050830Z 00000KT 1100N R17/0550V1400N R35/P1500
                        VCFG BR FEW009 04/03 Q1034=
201102050800 METAR LPPR 050800Z 00000KT 2000 BR VCFG FEW002 03/03 Q1033=
201102050730 METAR LPPR 050730Z 00000KT 3000 BR SCT003 04/04 Q1033=
201102050700 METAR LPPR 050700Z 00000KT 2000 BR SCT002 05/04 Q1033=
201102050630 METAR LPPR 050630Z VRB02KT 2500 BR SCT002 05/05 Q1033=
201102050600 METAR LPPR 050600Z 10006KT 3000 BR SCT002 05/05 Q1033=
201102050530 METAR LPPR 050530Z 11003KT 2000 BR SCT003 04/04 Q1033=
201102050500 METAR LPPR 050500Z 00000KT 2000 BR FEW002 03/02 Q1033=
201102050430 METAR LPPR 050430Z VRB01KT 3000 BR FEW004 04/03 Q1033=
201102050400 METAR LPPR 050400Z 00000KT 3000 BR FEW002 04/04 Q1033=
201102050330 METAR LPPR 050330Z VRB01KT 3000 BR FEW002 04/04 Q1033=
201102050300 METAR LPPR 050300Z VRB02KT 3000 BR SCT006 05/04 Q1033=
201102050230 METAR LPPR 050230Z VRB02KT 3000 BR FEW004 05/04 Q1033=
201102050200 METAR LPPR 050200Z VRB02KT 3000 BR FEW006 05/05 Q1033=
201102050130 METAR LPPR 050130Z VRB01KT 2500 BR SKC 05/04 Q1033=
201102050100 METAR LPPR 050100Z VRB02KT 3000 BR SKC 06/05 Q1034=
201102050030 METAR LPPR 050030Z VRB02KT 4000 BR SKC 06/06 Q1034=
201102050000 METAR LPPR 050000Z 00000KT 4000 BR SKC 06/06 Q1034=
201102042330 METAR LPPR 042330Z VRB02KT 5000 BR FEW250 07/06 Q1034=
201102042300 METAR LPPR 042300Z VRB03KT 5000 BR FEW250 07/07 Q1034=
201102042230 METAR LPPR 042230Z VRB02KT 4000 BR FEW250 07/06 Q1034=
201102042200 METAR LPPR 042200Z 00000KT 3000 BR FEW250 06/05 Q1034=
201102042130 METAR LPPR 042130Z 00000KT 5000 BR FEW250 06/05 Q1034=
201102042100 METAR LPPR 042100Z 00000KT 5000 BR FEW250 06/05 Q1034=
201102042030 METAR LPPR 042030Z 00000KT 5000 BR FEW250 08/06 Q1034=
201102042000 METAR LPPR 042000Z 00000KT 7000 FEW250 08/07 Q1035=
201102041930 METAR LPPR 041930Z 00000KT 7000 FEW250 08/06 Q1035=
201102041900 METAR LPPR 041900Z 00000KT 9000 FEW250 09/07 Q1035=
201102041830 METAR LPPR 041830Z 35001KT CAVOK 10/07 Q1035=
201102041800 METAR LPPR 041800Z 34004KT CAVOK 11/07 Q1034=
201102041730 METAR LPPR 041730Z 33009KT CAVOK 13/08 Q1034=
201102041700 METAR LPPR 041700Z 32008KT CAVOK 14/09 Q1034=
201102041630 METAR LPPR 041630Z 32009KT CAVOK 14/08 Q1034=
201102041600 METAR LPPR 041600Z 31007KT 270V330 CAVOK 15/09 Q1034=
201102041530 METAR LPPR 041530Z 31006KT CAVOK 15/09 Q1034=
201102041500 METAR LPPR 041500Z 32007KT CAVOK 15/09 Q1034=
201102041430 METAR LPPR 041430Z 31007KT 280V340 CAVOK 15/09 Q1034=
201102041400 METAR LPPR 041400Z 31007KT CAVOK 14/08 Q1035=
201102041330 METAR LPPR 041330Z 29006KT 260V340 6000 SKC 15/08 Q1035=
201102041300 METAR LPPR 041300Z 32004KT 270V350 6000 SKC 14/08 Q1035=
201102041230 METAR LPPR 041230Z 28004KT 250V040 5000 BR SKC 14/08 Q1035=
201102041200 METAR LPPR 041200Z VRB02KT 9000 SKC 15/07 Q1036=
201102041130 METAR LPPR 041130Z VRB02KT 9000 SKC 14/06 Q1036=
201102041100 METAR LPPR 041100Z 11003KT 8000 SKC 12/06 Q1036=
201102041030 METAR LPPR 041030Z VRB02KT 5000 BR SKC 11/07 Q1036=
201102041000 METAR LPPR 041000Z VRB02KT 5000 BR SKC 09/08 Q1036=
201102040930 METAR LPPR 040930Z 11004KT 5000 BR SKC 08/07 Q1036=
201102040900 METAR LPPR 040900Z VRB01KT 4000 BR FEW250 05/05 Q1035=
201102040830 METAR LPPR 040830Z 00000KT 3000N BR FEW250 03/03 Q1035=
201102040800 METAR LPPR 040800Z 00000KT 3000 BR FEW100 03/02 Q1035=
201102040730 METAR LPPR 040730Z 11003KT 4000 BR SKC 04/03 Q1035=
201102040700 METAR LPPR 040700Z VRB01KT 4000 BR SKC 04/03 Q1034=
201102040630 METAR LPPR 040630Z VRB01KT 3000 BR FEW009 04/03 Q1034=
201102040600 METAR LPPR 040600Z 04001KT 3000 BR FEW006 03/03 Q1034=
201102040530 METAR LPPR 040530Z 00000KT 3000 BR FEW006 04/03 Q1034=
201102040500 METAR LPPR 040500Z VRB02KT 4000 BR FEW006 06/05 Q1034=
201102040430 METAR LPPR 040430Z VRB03KT 4000 BR FEW006 06/05 Q1033=
201102040400 METAR LPPR 040400Z VRB01KT 4000 BR FEW006 05/04 Q1033=
201102040330 METAR LPPR 040330Z 00000KT 4000 BR FEW006 05/05 Q1033=
201102040300 METAR LPPR 040300Z VRB01KT 4000 BR FEW006 05/05 Q1034=
201102040230 METAR LPPR 040230Z VRB02KT 3000 BR FEW006 04/04 Q1034=
201102040200 METAR LPPR 040200Z 36001KT 3000 R17/0800D R35/P1500 BR BCFG
                        SCT006 05/04 Q1033=
201102040130 METAR LPPR 040130Z 36003KT 3000 R17/0650VP1500 R35/P1500
                        BR BCFG SCT006 05/05 Q1034=
201102040100 METAR LPPR 040100Z VRB02KT 4000 BR FEW006 06/05 Q1034=
201102040030 METAR LPPR 040030Z 00000KT 3000 BR FEW006 06/05 Q1034=
201102040000 METAR LPPR 040000Z 00000KT 3000 BR FEW006 SCT250 06/06 Q1034=
201102032330 METAR LPPR 032330Z 10003KT 3000 BR FEW006 SCT250 07/07 Q1034=
201102032300 METAR LPPR 032300Z VRB01KT 3000 BR FEW006 SCT250 07/06 Q1034=
201102032230 METAR LPPR 032230Z 00000KT 3000 BR FEW006 SCT250 08/07 Q1034=
201102032200 METAR LPPR 032200Z 00000KT 4000 BR FEW006 SCT250 08/07 Q1034=
201102032130 METAR LPPR 032130Z 01003KT 4000 BR FEW007 SCT250 08/08 Q1034=
201102032100 METAR COR LPPR 032100Z 35003KT 4000 BR FEW009 08/07 Q1034=
201102032030 METAR LPPR 032030Z VRB01KT 3000 BR FEW009 08/07 Q1034=
201102032000 METAR LPPR 032000Z 35003KT 8000 FEW250 08/07 Q1033=
201102031930 METAR LPPR 031930Z 00000KT 8000 FEW250 09/07 Q1033=
201102031900 METAR LPPR 031900Z 00000KT 8000 FEW250 10/08 Q1033=
201102031830 METAR LPPR 031830Z 00000KT CAVOK 11/09 Q1032=
201102031800 METAR LPPR 031800Z VRB02KT CAVOK 13/09 Q1032=
201102031730 METAR LPPR 031730Z 34006KT CAVOK 14/10 Q1032=
201102031700 METAR LPPR 031700Z 34006KT CAVOK 14/10 Q1032=
201102031630 METAR LPPR 031630Z 32007KT 290V020 CAVOK 15/09 Q1032=
201102031600 METAR LPPR 031600Z 32007KT CAVOK 15/08 Q1032=
201102031530 METAR LPPR 031530Z 32007KT CAVOK 15/08 Q1032=
201102031500 METAR LPPR 031500Z 28007KT 250V310 8000 FEW250 15/06 Q1032=
201102031430 METAR LPPR 031430Z 29005KT 260V320 8000 FEW250 15/06 Q1032=
201102031400 METAR LPPR 031400Z 29004KT 250V340 8000 FEW250 16/07 Q1032=
201102031330 METAR LPPR 031330Z VRB02KT 8000 FEW250 16/05 Q1032=
201102031300 METAR LPPR 031300Z VRB03KT 8000 FEW250 15/05 Q1033=
201102031230 METAR LPPR 031230Z 31005KT 250V050 8000 FEW250 15/06 Q1033=
201102031200 METAR LPPR 031200Z VRB02KT CAVOK 15/03 Q1033=
201102031130 METAR LPPR 031130Z VRB02KT CAVOK 14/03 Q1034=
201102031100 METAR LPPR 031100Z VRB03KT 9000 FEW250 12/03 Q1034=
201102031030 METAR LPPR 031030Z 13004KT 080V170 9000 FEW250 11/04 Q1034=
201102031000 METAR LPPR 031000Z 13003KT 8000 FEW250 10/04 Q1033=
201102030930 METAR LPPR 030930Z VRB01KT 8000 FEW250 06/03 Q1033=
201102030900 METAR LPPR 030900Z VRB02KT 8000 FEW250 05/02 Q1033=
201102030830 METAR LPPR 030830Z VRB01KT 7000 FEW080 04/01 Q1032=
201102030800 METAR LPPR 030800Z VRB01KT 7000 FEW080 03/01 Q1032=
201102030730 METAR LPPR 030730Z 33001KT 7000 FEW080 04/01 Q1032=
201102030700 METAR LPPR 030700Z VRB01KT 7000 SCT100 04/01 Q1032=
201102030630 METAR LPPR 030630Z VRB02KT 7000 SCT100 05/02 Q1032=
201102030600 METAR LPPR 030600Z VRB02KT 8000 SCT100 06/02 Q1031=
201102030530 METAR LPPR 030530Z VRB02KT 8000 SCT100 06/02 Q1031=
201102030500 METAR LPPR 030500Z VRB02KT 7000 SCT200 06/02 Q1031=
201102030430 METAR LPPR 030430Z VRB02KT 6000 SCT100 BKN200 05/02 Q1031=
201102030400 METAR LPPR 030400Z 00000KT 7000 SCT100 BKN200 06/02 Q1032=
201102030330 METAR LPPR 030330Z 10006KT 7000 SCT100 BKN200 07/02 Q1032=
201102030300 METAR LPPR 030300Z VRB02KT 7000 SCT100 BKN200 05/02 Q1032=
201102030230 METAR LPPR 030230Z VRB02KT 7000 BKN250 05/02 Q1032=
201102030200 METAR LPPR 030200Z VRB01KT 7000 BKN250 05/02 Q1032=
201102030130 METAR LPPR 030130Z 00000KT 7000 BKN250 06/02 Q1032=
201102030100 METAR LPPR 030100Z 09004KT 030V130 7000 SCT250 06/02 Q1032=
201102030030 METAR LPPR 030030Z 09003KT 7000 SCT250 07/02 Q1032=
201102030000 METAR LPPR 030000Z 09004KT 7000 BKN250 06/02 Q1032=
201102022330 METAR LPPR 022330Z 07004KT 020V090 8000 BKN250 07/03 Q1032=
201102022300 METAR LPPR 022300Z 09004KT 8000 BKN250 07/03 Q1032=
201102022230 METAR LPPR 022230Z 10005KT 8000 SCT250 07/04 Q1032=
201102022200 METAR LPPR 022200Z 10001KT 7000 SCT250 05/03 Q1032=
201102022130 METAR LPPR 022130Z 06002KT 8000 SCT250 05/03 Q1032=
201102022100 METAR LPPR 022100Z 00000KT CAVOK 05/03 Q1031=
201102022030 METAR LPPR 022030Z 09003KT CAVOK 06/03 Q1031=
201102022000 METAR LPPR 022000Z 10001KT CAVOK 06/03 Q1031=
201102021930 METAR LPPR 021930Z VRB01KT CAVOK 06/03 Q1031=
201102021900 METAR LPPR 021900Z 00000KT CAVOK 07/03 Q1031=
201102021830 METAR LPPR 021830Z 34002KT CAVOK 09/03 Q1031=
201102021800 METAR LPPR 021800Z 33004KT 300V360 CAVOK 10/03 Q1031=
201102021730 METAR LPPR 021730Z 33007KT CAVOK 11/04 Q1031=
201102021700 METAR LPPR 021700Z 32006KT 290V350 CAVOK 12/04 Q1030=
201102021630 METAR LPPR 021630Z 34006KT 310V010 CAVOK 13/04 Q1030=
201102021600 METAR LPPR 021600Z 33006KT 270V360 CAVOK 13/04 Q1030=
201102021530 METAR LPPR 021530Z 32008KT 290V350 CAVOK 13/03 Q1030=
201102021500 METAR LPPR 021500Z 31006KT CAVOK 13/04 Q1030=
201102021430 METAR LPPR 021430Z 31007KT 270V330 CAVOK 13/03 Q1030=
201102021400 METAR LPPR 021400Z 30007KT CAVOK 13/03 Q1031=
201102021330 METAR LPPR 021330Z VRB01KT CAVOK 14/01 Q1031=
201102021300 METAR LPPR 021300Z 11004KT 060V190 CAVOK 13/01 Q1031=
201102021230 METAR LPPR 021230Z 12004KT 080V170 CAVOK 13/01 Q1032=
201102021200 METAR LPPR 021200Z 12006KT 070V170 CAVOK 12/00 Q1032=
201102021130 METAR LPPR 021130Z 09004KT 040V160 CAVOK 12/00 Q1032=
201102021100 METAR LPPR 021100Z 09005KT 060V150 CAVOK 11/00 Q1032=
201102021030 METAR LPPR 021030Z 09004KT 050V130 CAVOK 10/01 Q1032=
201102021000 METAR LPPR 021000Z VRB02KT CAVOK 09/01 Q1032=
201102020930 METAR LPPR 020930Z VRB03KT CAVOK 07/00 Q1032=
201102020900 METAR LPPR 020900Z VRB02KT CAVOK 06/M00 Q1031=
201102020830 METAR LPPR 020830Z VRB02KT CAVOK 05/M00 Q1032=
201102020800 METAR LPPR 020800Z 10006KT CAVOK 04/M01 Q1031=
201102020730 METAR LPPR 020730Z 10005KT CAVOK 04/M01 Q1031=
201102020700 METAR LPPR 020700Z 11007KT CAVOK 05/M01 Q1031=
201102020630 METAR LPPR 020630Z 10006KT CAVOK 04/M00 Q1030=
201102020600 METAR LPPR 020600Z 09004KT CAVOK 03/00 Q1030=
201102020530 METAR LPPR 020530Z 05004KT 300V100 CAVOK 03/M01 Q1030=
201102020500 METAR LPPR 020500Z 09003KT CAVOK 03/M00 Q1030=
201102020430 METAR LPPR 020430Z VRB01KT 8000 FEW250 02/M01 Q1030=
201102020400 METAR LPPR 020400Z VRB03KT 8000 FEW250 04/01 Q1030=
201102020330 METAR LPPR 020330Z VRB01KT 8000 FEW250 02/M01 Q1030=
201102020300 METAR LPPR 020300Z 34003KT 8000 FEW250 02/M01 Q1030=
201102020230 METAR LPPR 020230Z VRB03KT 8000 SKC 03/M01 Q1030=
201102020200 METAR LPPR 020200Z VRB02KT 8000 SKC 04/01 Q1030=
201102020130 METAR LPPR 020130Z VRB03KT 8000 SKC 04/01 Q1030=
201102020100 METAR LPPR 020100Z 00000KT 8000 SKC 04/00 Q1030=
201102020030 METAR LPPR 020030Z 09004KT 8000 SKC 06/01 Q1030=
201102020000 METAR LPPR 020000Z 09003KT 8000 SKC 04/01 Q1031=
201102012330 METAR LPPR 012330Z VRB01KT 8000 SKC 04/01 Q1031=
201102012300 METAR LPPR 012300Z 00000KT 8000 SKC 04/01 Q1031=
201102012230 METAR LPPR 012230Z 08003KT 8000 SKC 03/00 Q1031=
201102012200 METAR LPPR 012200Z 00000KT 8000 SKC 04/00 Q1031=
201102012130 METAR LPPR 012130Z 11002KT 8000 SKC 05/02 Q1031=
201102012100 METAR LPPR 012100Z 06001KT 8000 SKC 04/01 Q1031=
201102012030 METAR LPPR 012030Z 00000KT CAVOK 06/02 Q1031=
201102012000 METAR LPPR 012000Z 00000KT CAVOK 06/02 Q1030=
201102011930 METAR LPPR 011930Z 02002KT CAVOK 06/02 Q1030=
201102011900 METAR LPPR 011900Z 35003KT CAVOK 07/02 Q1030=
201102011830 METAR LPPR 011830Z 33002KT CAVOK 08/02 Q1030=
201102011800 METAR LPPR 011800Z 35003KT CAVOK 09/02 Q1030=
201102011730 METAR LPPR 011730Z 33005KT 290V350 CAVOK 11/02 Q1029=
201102011700 METAR LPPR 011700Z 36005KT CAVOK 12/01 Q1029=
201102011630 METAR LPPR 011630Z 36006KT CAVOK 12/00 Q1029=
201102011600 METAR LPPR 011600Z 34008KT CAVOK 13/00 Q1029=
201102011530 METAR LPPR 011530Z 35006KT 320V020 CAVOK 13/00 Q1029=
201102011500 METAR LPPR 011500Z 36008KT CAVOK 13/M01 Q1029=
201102011430 METAR LPPR 011430Z 04006KT 010V070 CAVOK 12/M01 Q1029=
201102011400 METAR LPPR 011400Z 03004KT 340V070 CAVOK 12/M01 Q1029=
201102011330 METAR LPPR 011330Z 03005KT 360V070 CAVOK 12/M01 Q1030=
201102011300 METAR LPPR 011300Z 03006KT 010V070 CAVOK 11/M00 Q1030=
201102011230 METAR LPPR 011230Z 03005KT 360V070 CAVOK 11/M00 Q1030=
201102011200 METAR LPPR 011200Z 35005KT 320V020 CAVOK 11/00 Q1031=
201102011130 METAR LPPR 011130Z 02005KT 350V060 CAVOK 10/00 Q1031=
201102011100 METAR LPPR 011100Z 05004KT 020V100 CAVOK 09/00 Q1030=
201102011030 METAR LPPR 011030Z VRB03KT CAVOK 08/01 Q1030=
201102011000 METAR LPPR 011000Z 00000KT CAVOK 08/01 Q1030=
201102010930 METAR LPPR 010930Z 00000KT CAVOK 06/01 Q1030=
201102010900 METAR LPPR 010900Z VRB01KT CAVOK 04/00 Q1030=
201102010830 METAR LPPR 010830Z 00000KT CAVOK 01/M01 Q1029=
201102010800 METAR LPPR 010800Z 00000KT CAVOK 02/M02 Q1029=
201102010730 METAR LPPR 010730Z VRB02KT CAVOK 03/M01 Q1028=
201102010700 METAR LPPR 010700Z VRB03KT CAVOK 03/M01 Q1028=
201102010630 METAR LPPR 010630Z VRB03KT CAVOK 01/M01 Q1027=
201102010600 METAR LPPR 010600Z VRB02KT CAVOK 02/M01 Q1027=
201102010530 METAR LPPR 010530Z VRB03KT CAVOK 02/M01 Q1027=
201102010500 METAR LPPR 010500Z 05003KT CAVOK 03/M00 Q1026=
201102010430 METAR LPPR 010430Z VRB02KT CAVOK 02/M01 Q1026=
201102010400 METAR LPPR 010400Z 05003KT CAVOK 03/00 Q1026=
201102010330 METAR LPPR 010330Z 01003KT CAVOK 02/M00 Q1026=
201102010300 METAR LPPR 010300Z 05002KT CAVOK 02/M00 Q1026=
201102010230 METAR LPPR 010230Z 05002KT CAVOK 02/M00 Q1026=
201102010200 METAR LPPR 010200Z VRB02KT CAVOK 02/M01 Q1026=
201102010130 METAR LPPR 010130Z 00000KT CAVOK 02/M00 Q1025=
201102010100 METAR LPPR 010100Z 00000KT CAVOK 02/M00 Q1025=
201102010030 METAR COR LPPR 010030Z 36001KT CAVOK 03/00 Q1025=
201102010000 METAR LPPR 010000Z 34001KT CAVOK 03/00 Q1025=

</pre>

</body>
</html>
