##########################################################
# Query made at 11/07/2014 16:16:11 UTC
# Time interval: from 01/01/2011 00:00  to 01/31/2011 23:59  UTC
##########################################################

##########################################################
# LPPR, Porto / Pedras Rubras (Portugal)
# WMO index: 08545
# Latitude 41-14N. Longitude 008-41W. Altitude 69 m.
##########################################################

###################################
#  METAR/SPECI from LPPR
###################################
201101312330 METAR LPPR 312330Z 00000KT CAVOK 03/00 Q1025=
201101312300 METAR LPPR 312300Z 36002KT CAVOK 04/00 Q1025=
201101312230 METAR LPPR 312230Z 35005KT CAVOK 04/01 Q1025=
201101312200 METAR LPPR 312200Z 01005KT CAVOK 06/00 Q1024=
201101312130 METAR LPPR 312130Z 33005KT CAVOK 05/00 Q1024=
201101312100 METAR LPPR 312100Z 01005KT 350V050 CAVOK 07/01 Q1024=
201101312030 METAR LPPR 312030Z 01005KT CAVOK 07/01 Q1024=
201101312000 METAR LPPR 312000Z 36006KT 9999 FEW040 07/01 Q1023=
201101311930 METAR LPPR 311930Z 36005KT 9999 FEW040 07/01 Q1023=
201101311900 METAR LPPR 311900Z 33003KT 9999 FEW040 07/01 Q1023=
201101311830 METAR LPPR 311830Z 34003KT 9999 FEW040 08/01 Q1023=
201101311800 METAR LPPR 311800Z 35005KT 9999 FEW040 08/01 Q1022=
201101311730 METAR LPPR 311730Z 33005KT 9999 FEW040 10/01 Q1022=
201101311700 METAR LPPR 311700Z 34008KT 9999 FEW040 12/01 Q1022=
201101311630 METAR LPPR 311630Z 35009KT 9999 SCT040 12/00 Q1022=
201101311600 METAR LPPR 311600Z 34006KT 9999 SCT040 12/02 Q1022=
201101311530 METAR LPPR 311530Z 34007KT 310V030 9999 SCT040 13/01 Q1021=
201101311500 METAR LPPR 311500Z 34008KT 9999 SCT030 11/02 Q1021=
201101311430 METAR LPPR 311430Z 33008KT 9999 SCT035 12/01 Q1021=
201101311400 METAR LPPR 311400Z 35008KT 310V050 9999 SCT035 11/00 Q1022=
201101311330 METAR LPPR 311330Z 36007KT 320V030 9999 SCT030 11/00 Q1022=
201101311300 METAR LPPR 311300Z 36007KT 320V040 9999 FEW030 11/02 Q1022=
201101311230 METAR LPPR 311230Z 36007KT 330V050 9999 FEW025 11/02 Q1022=
201101311200 METAR LPPR 311200Z 36007KT 310V050 9999 FEW025 11/01 Q1023=
201101311130 METAR LPPR 311130Z 04006KT 020V080 9999 FEW020 10/01 Q1023=
201101311100 METAR LPPR 311100Z 03005KT 350V060 9999 FEW020 09/01 Q1023=
201101311030 METAR LPPR 311030Z 03004KT 010V080 CAVOK 08/01 Q1023=
201101311000 METAR LPPR 311000Z 06004KT 030V100 CAVOK 07/00 Q1022=
201101310930 METAR LPPR 310930Z 06004KT 030V100 CAVOK 07/01 Q1022=
201101310900 METAR LPPR 310900Z VRB03KT CAVOK 06/00 Q1022=
201101310830 METAR LPPR 310830Z 07002KT CAVOK 05/00 Q1021=
201101310800 METAR LPPR 310800Z 07004KT 040V100 CAVOK 04/M00 Q1021=
201101310730 METAR LPPR 310730Z VRB03KT CAVOK 04/M00 Q1020=
201101310700 METAR LPPR 310700Z 02003KT CAVOK 04/M00 Q1020=
201101310630 METAR LPPR 310630Z 01008KT CAVOK 05/00 Q1020=
201101310600 METAR LPPR 310600Z 01008KT CAVOK 05/00 Q1020=
201101310530 METAR LPPR 310530Z 02006KT CAVOK 05/00 Q1019=
201101310500 METAR LPPR 310500Z 03005KT 360V060 CAVOK 05/00 Q1020=
201101310430 METAR LPPR 310430Z 36007KT CAVOK 05/00 Q1019=
201101310400 METAR LPPR 310400Z 34004KT 320V020 CAVOK 05/M00 Q1020=
201101310330 METAR LPPR 310330Z 35005KT CAVOK 05/00 Q1019=
201101310300 METAR LPPR 310300Z 01004KT 320V060 CAVOK 05/01 Q1019=
201101310230 METAR LPPR 310230Z 03004KT CAVOK 06/01 Q1019=
201101310200 METAR LPPR 310200Z 35005KT 330V030 CAVOK 06/01 Q1019=
201101310130 METAR LPPR 310130Z 36008KT CAVOK 06/01 Q1019=
201101310100 METAR LPPR 310100Z 35007KT CAVOK 05/01 Q1019=
201101310030 METAR LPPR 310030Z 36008KT CAVOK 07/01 Q1019=
201101310000 METAR LPPR 310000Z 36010KT 9999 FEW040 SCT060 08/01 Q1019=
201101302330 METAR COR LPPR 302330Z 36009KT 9999 FEW040 SCT060 07/01 Q1019=
201101302300 METAR LPPR 302300Z 36009KT CAVOK 08/01 Q1019=
201101302230 METAR LPPR 302230Z 01012KT CAVOK 08/01 Q1019=
201101302200 METAR LPPR 302200Z 36009KT CAVOK 07/01 Q1019=
201101302130 METAR LPPR 302130Z 36005KT CAVOK 07/01 Q1018=
201101302100 METAR LPPR 302100Z 36009KT CAVOK 08/01 Q1018=
201101302030 METAR LPPR 302030Z 36007KT 340V040 CAVOK 08/01 Q1018=
201101302000 METAR LPPR 302000Z 01005KT 330V050 CAVOK 09/01 Q1018=
201101301930 METAR LPPR 301930Z 36005KT 320V040 CAVOK 09/01 Q1018=
201101301900 METAR LPPR 301900Z 35010KT CAVOK 09/01 Q1017=
201101301830 METAR LPPR 301830Z 36007KT 330V030 9999 FEW020 10/02 Q1017=
201101301800 METAR LPPR 301800Z 35007KT 9999 FEW020 10/03 Q1016=
201101301730 METAR LPPR 301730Z 34009KT 9999 FEW020 11/03 Q1016=
201101301700 METAR LPPR 301700Z 35011KT 9999 FEW020 12/02 Q1016=
201101301630 METAR LPPR 301630Z 36009KT 330V030 9999 FEW020 13/03 Q1015=
201101301600 METAR LPPR 301600Z 36009KT 9999 FEW020 14/03 Q1015=
201101301530 METAR LPPR 301530Z 02011KT 350V050 9999 SCT020 14/02 Q1015=
201101301500 METAR LPPR 301500Z 36011KT 320V040 9999 SCT020 14/03 Q1015=
201101301430 METAR LPPR 301430Z 01008KT 9999 SCT020 13/04 Q1015=
201101301400 METAR LPPR 301400Z 34007KT 320V040 9999 SCT020 13/04 Q1015=
201101301330 METAR LPPR 301330Z 02008KT 340V050 9999 SCT020 13/04 Q1015=
201101301300 METAR LPPR 301300Z 33005KT 270V020 9999 FEW020 SCT200 12/05
                        Q1015=
201101301230 METAR LPPR 301230Z 32006KT 280V010 9999 FEW020 SCT200 11/04
                        Q1016=
201101301200 METAR LPPR 301200Z 34006KT 300V050 9999 FEW015 SCT200 11/04
                        Q1016=
201101301130 METAR LPPR 301130Z 36007KT 9999 FEW015 SCT200 10/04 Q1016=
201101301100 METAR LPPR 301100Z 36005KT 330V050 9999 FEW015 SCT200 09/04
                        Q1016=
201101301030 METAR LPPR 301030Z VRB02KT 9999 FEW015 SCT200 08/04 Q1016=
201101301000 METAR LPPR 301000Z 00000KT 8000 FEW015 SCT070 06/03 Q1015=
201101300930 METAR LPPR 300930Z 00000KT 7000 FEW015 BKN070 04/02 Q1015=
201101300900 METAR LPPR 300900Z VRB02KT 7000 FEW015 SCT070 03/02 Q1015=
201101300830 METAR LPPR 300830Z 00000KT 7000 FEW015 SCT070 03/01 Q1015=
201101300800 METAR LPPR 300800Z VRB02KT 7000 FEW045 SCT070 02/00 Q1015=
201101300730 METAR LPPR 300730Z VRB01KT 8000 FEW045 SCT070 02/00 Q1014=
201101300700 METAR LPPR 300700Z 00000KT 7000 SCT070 BKN200 02/00 Q1014=
201101300630 METAR LPPR 300630Z VRB02KT 7000 FEW070 BKN200 02/00 Q1014=
201101300600 METAR LPPR 300600Z 14001KT CAVOK 02/M00 Q1014=
201101300530 METAR LPPR 300530Z 00000KT CAVOK 02/M00 Q1014=
201101300500 METAR LPPR 300500Z VRB03KT CAVOK 04/01 Q1014=
201101300430 METAR LPPR 300430Z 07006KT CAVOK 04/01 Q1013=
201101300400 METAR LPPR 300400Z 09004KT 050V120 CAVOK 04/01 Q1013=
201101300330 METAR LPPR 300330Z VRB02KT CAVOK 03/00 Q1014=
201101300300 METAR LPPR 300300Z 09004KT CAVOK 03/01 Q1013=
201101300230 METAR LPPR 300230Z 05003KT CAVOK 03/00 Q1014=
201101300200 METAR LPPR 300200Z 04003KT CAVOK 01/M01 Q1014=
201101300130 METAR LPPR 300130Z VRB03KT CAVOK 02/00 Q1014=
201101300100 METAR LPPR 300100Z VRB03KT CAVOK 03/00 Q1014=
201101300030 METAR LPPR 300030Z 12004KT CAVOK 03/01 Q1013=
201101300000 METAR LPPR 300000Z 06002KT CAVOK 02/M00 Q1014=
201101292330 METAR LPPR 292330Z 08002KT CAVOK 02/M01 Q1013=
201101292300 METAR LPPR 292300Z 00000KT CAVOK 02/M01 Q1013=
201101292230 METAR LPPR 292230Z 00000KT CAVOK 03/M00 Q1013=
201101292200 METAR LPPR 292200Z 00000KT CAVOK 03/M00 Q1013=
201101292130 METAR LPPR 292130Z 00000KT CAVOK 03/M00 Q1013=
201101292100 METAR LPPR 292100Z 00000KT CAVOK 04/M00 Q1013=
201101292030 METAR LPPR 292030Z VRB02KT CAVOK 05/M00 Q1013=
201101292000 METAR LPPR 292000Z VRB03KT CAVOK 06/M01 Q1013=
201101291930 METAR LPPR 291930Z 03004KT CAVOK 06/00 Q1013=
201101291900 METAR LPPR 291900Z 34005KT 290V360 9999 FEW020 05/00 Q1013=
201101291830 METAR LPPR 291830Z 34005KT 9999 FEW020 FEW025TCU 06/01 Q1012=
201101291800 METAR LPPR 291800Z 33008KT 9999 FEW020 FEW025TCU 08/02 Q1012=
201101291730 METAR LPPR 291730Z 33009KT 9999 FEW020 FEW025TCU 09/02 Q1012=
201101291700 METAR LPPR 291700Z 32012KT 9999 FEW020 FEW025TCU 10/02 Q1012=
201101291630 METAR LPPR 291630Z 32012KT 9999 FEW020 FEW025TCU 10/02 Q1011=
201101291600 METAR LPPR 291600Z 32011KT 9999 FEW020 FEW025TCU 11/02 Q1011=
201101291530 METAR LPPR 291530Z 32013KT 9999 FEW020 FEW025TCU 11/02 Q1011=
201101291500 METAR LPPR 291500Z 32013KT 9999 FEW020 FEW025TCU 11/02 Q1011=
201101291430 METAR LPPR 291430Z 32012KT 9999 FEW020 FEW025TCU 11/02 Q1011=
201101291400 METAR LPPR 291400Z 32011KT 9999 FEW020 SCT045 11/04 Q1011=
201101291330 METAR LPPR 291330Z 31009KT 9999 FEW020 BKN070 11/04 Q1011=
201101291300 METAR LPPR 291300Z 32010KT 270V350 9999 FEW020 BKN050 12/04
                        Q1012=
201101291230 METAR LPPR 291230Z 33009KT 270V010 9999 SCT020 11/04 Q1012=
201101291200 METAR LPPR 291200Z 33008KT 310V010 9999 SCT018 11/04 Q1012=
201101291130 METAR LPPR 291130Z 34006KT 9999 FEW020 10/05 Q1012=
201101291100 METAR LPPR 291100Z 35007KT 320V020 9999 FEW018 10/05 Q1012=
201101291030 METAR LPPR 291030Z 01005KT 340V050 9999 FEW018 09/05 Q1012=
201101291000 METAR LPPR 291000Z 02005KT 350V050 9999 FEW018 08/06 Q1012=
201101290930 METAR LPPR 290930Z 00000KT 9999 FEW018 FEW025CB 07/06 Q1012=
201101290900 METAR LPPR 290900Z 00000KT 9999 FEW018 FEW025CB 04/04 Q1012=
201101290830 METAR LPPR 290830Z 00000KT 9999 FEW018 FEW025CB 03/03 Q1011=
201101290800 METAR LPPR 290800Z 00000KT 9000 FEW015 SCT040 03/02 Q1011=
201101290730 METAR LPPR 290730Z 00000KT 7000 FEW020 SCT040 03/02 Q1010=
201101290700 METAR LPPR 290700Z 02002KT 8000 SKC 02/01 Q1010=
201101290630 METAR LPPR 290630Z 00000KT 4000N BR FEW040 02/01 Q1010=
201101290600 METAR LPPR 290600Z 00000KT 5000 BR FEW040 03/02 Q1010=
201101290530 METAR LPPR 290530Z VRB02KT 6000 FEW040 03/02 Q1009=
201101290500 METAR LPPR 290500Z 00000KT 3000N BR FEW040 03/02 Q1010=
201101290430 METAR LPPR 290430Z 36002KT 5000 BR FEW040 03/02 Q1009=
201101290400 METAR LPPR 290400Z 00000KT 3000N BR FEW040 04/02 Q1009=
201101290330 METAR LPPR 290330Z 00000KT 3000N BR SKC 04/03 Q1009=
201101290300 METAR LPPR 290300Z 00000KT 5000 BR SKC 05/03 Q1009=
201101290230 METAR LPPR 290230Z 00000KT 3000 BR FEW040 05/04 Q1009=
201101290200 METAR LPPR 290200Z 35001KT 5000 BR FEW017 BKN045 06/04 Q1009=
201101290130 METAR LPPR 290130Z 35003KT 5000 BR FEW017 SCT040 BKN080 07/04
                        Q1009=
201101290100 METAR LPPR 290100Z VRB03KT 6000 FEW017 BKN080 07/05 Q1009=
201101290030 METAR LPPR 290030Z 00000KT 8000 FEW020 BKN080 08/05 Q1009=
201101290000 METAR LPPR 290000Z 13004KT 8000 FEW020 BKN080 08/06 Q1009=
201101282330 METAR LPPR 282330Z 13004KT 8000 FEW020 BKN080 08/06 Q1009=
201101282300 METAR LPPR 282300Z 14004KT 7000 FEW020 BKN080 08/06 Q1009=
201101282230 METAR LPPR 282230Z 12005KT 100V160 6000 FEW020 BKN080 08/05
                        Q1009=
201101282200 METAR LPPR 282200Z 12005KT 7000 FEW020 BKN080 08/05 Q1008=
201101282130 METAR LPPR 282130Z VRB01KT 8000 FEW020 FEW025CB SCT080 07/05
                        Q1008=
201101282100 METAR LPPR 282100Z VRB01KT 8000 FEW020 FEW025CB SCT080 07/04
                        Q1008=
201101282030 METAR LPPR 282030Z VRB03KT 8000 FEW020 FEW025CB 07/05 Q1008=
201101282000 METAR LPPR 282000Z VRB01KT 9999 FEW020 FEW025CB 07/05 Q1007=
201101281930 METAR LPPR 281930Z VRB01KT 9999 FEW020 FEW025CB 07/05 Q1007=
201101281900 METAR LPPR 281900Z 00000KT 9999 FEW020 FEW025CB 07/04 Q1007=
201101281830 METAR LPPR 281830Z 00000KT 9999 FEW020 FEW025CB 08/04 Q1007=
201101281800 METAR LPPR 281800Z 00000KT 9999 FEW020 SCT090 10/05 Q1007=
201101281730 METAR LPPR 281730Z 26002KT 9999 FEW020 SCT090 10/04 Q1006=
201101281700 METAR LPPR 281700Z VRB03KT 9999 FEW020 SCT090 11/04 Q1006=
201101281630 METAR LPPR 281630Z 28005KT 240V300 9999 FEW020 SCT090 11/04
                        Q1006=
201101281600 METAR LPPR 281600Z 30005KT 260V350 9999 FEW020 SCT090 12/04
                        Q1006=
201101281530 METAR LPPR 281530Z 28005KT 250V330 9999 FEW020 SCT090 12/04
                        Q1005=
201101281500 METAR LPPR 281500Z 27005KT 230V310 9999 FEW020 SCT090 11/04
                        Q1005=
201101281430 METAR LPPR 281430Z 28006KT 240V300 9999 FEW020 SCT090 11/04
                        Q1005=
201101281400 METAR LPPR 281400Z 28006KT 250V020 9999 FEW020 SCT090 11/04
                        Q1005=
201101281330 METAR LPPR 281330Z 27007KT 240V310 9999 FEW020 SCT090 11/04
                        Q1005=
201101281300 METAR LPPR 281300Z VRB03KT 9999 FEW020 BKN090 12/04 Q1006=
201101281230 METAR LPPR 281230Z VRB01KT 9999 FEW020 SCT090 12/04 Q1006=
201101281200 METAR LPPR 281200Z VRB01KT 9999 FEW020 SCT090 11/04 Q1006=
201101281130 METAR LPPR 281130Z VRB02KT CAVOK 11/04 Q1006=
201101281100 METAR LPPR 281100Z VRB03KT CAVOK 10/04 Q1005=
201101281030 METAR LPPR 281030Z VRB03KT CAVOK 10/04 Q1005=
201101281000 METAR LPPR 281000Z 12003KT CAVOK 08/04 Q1005=
201101280930 METAR LPPR 280930Z 08001KT CAVOK 06/04 Q1004=
201101280900 METAR LPPR 280900Z VRB02KT CAVOK 06/04 Q1004=
201101280830 METAR LPPR 280830Z 04002KT CAVOK 04/03 Q1004=
201101280800 METAR LPPR 280800Z 06001KT CAVOK 04/02 Q1004=
201101280730 METAR LPPR 280730Z 05001KT 9999 FEW040 SCT080 05/02 Q1003=
201101280700 METAR LPPR 280700Z 07002KT 9999 SCT040 SCT070 07/03 Q1003=
201101280630 METAR LPPR 280630Z VRB02KT 9999 SCT040 SCT070 07/03 Q1002=
201101280600 METAR LPPR 280600Z 00000KT 9999 BKN040 07/03 Q1002=
201101280530 METAR LPPR 280530Z VRB02KT 9999 BKN040 07/03 Q1002=
201101280500 METAR LPPR 280500Z VRB03KT 9999 BKN040 07/03 Q1001=
201101280430 METAR LPPR 280430Z VRB03KT 9999 BKN040 07/03 Q1001=
201101280400 METAR LPPR 280400Z 10003KT 9999 BKN040 07/03 Q1001=
201101280330 METAR LPPR 280330Z VRB02KT 9999 BKN035 08/03 Q1001=
201101280300 METAR LPPR 280300Z VRB03KT 9999 BKN035 08/03 Q1001=
201101280230 METAR LPPR 280230Z 09004KT 050V120 9999 SCT035 BKN055 08/03
                        Q1001=
201101280200 METAR LPPR 280200Z 11005KT 080V140 9999 SCT030 BKN050 08/03
                        Q1001=
201101280130 METAR LPPR 280130Z VRB03KT 9999 BKN035 08/03 Q1001=
201101280100 METAR LPPR 280100Z 10005KT 070V140 9999 BKN035 08/03 Q1001=
201101280030 METAR LPPR 280030Z 10005KT 9999 BKN035 08/03 Q1001=
201101280000 METAR LPPR 280000Z 08004KT 050V120 9999 SCT030 BKN060 08/03
                        Q1001=
201101272330 METAR LPPR 272330Z 09006KT 060V130 9999 SCT030 BKN060 08/03
                        Q1001=
201101272300 METAR LPPR 272300Z 10005KT 050V130 9999 SCT030 BKN070 08/03
                        Q1001=
201101272230 METAR LPPR 272230Z 08004KT 040V120 9999 SCT030 BKN070 08/03
                        Q1000=
201101272200 METAR LPPR 272200Z 08004KT 050V110 9999 SCT030 BKN070 08/03
                        Q1000=
201101272130 METAR LPPR 272130Z 08006KT 040V120 9999 SCT030 BKN070 08/03
                        Q1000=
201101272100 METAR LPPR 272100Z 08005KT 040V130 9999 SCT025 BKN040 08/04
                        Q1000=
201101272030 METAR LPPR 272030Z 09004KT 9000 -RA SCT025 BKN040 08/04 Q1000=
201101272000 METAR LPPR 272000Z 10007KT 060V130 7000 -RA SCT025 BKN070
                        08/04 Q1000=
201101271930 METAR LPPR 271930Z 11006KT 080V140 9999 FEW015 SCT025 BKN070
                        09/03 Q0999=
201101271900 METAR LPPR 271900Z 10008KT 9999 FEW015 SCT030 BKN070 09/02
                        Q0999=
201101271830 METAR LPPR 271830Z 11008KT 080V140 9999 FEW015 SCT030 BKN070
                        09/02 Q0999=
201101271800 METAR LPPR 271800Z 11008KT 070V160 9999 FEW015 SCT030 BKN070
                        09/02 Q0999=
201101271730 METAR LPPR 271730Z 11008KT 070V130 9999 FEW015 SCT030 BKN070
                        10/02 Q0998=
201101271700 METAR LPPR 271700Z 10007KT 080V140 9999 FEW015 SCT030 BKN070
                        10/03 Q0998=
201101271630 METAR LPPR 271630Z 11006KT 080V140 9999 FEW015 SCT030 BKN070
                        10/02 Q0998=
201101271600 METAR LPPR 271600Z 11007KT 080V140 9999 FEW015 SCT030 BKN070
                        10/03 Q0998=
201101271530 METAR LPPR 271530Z 11006KT 080V140 9999 FEW015 SCT030 BKN070
                        10/03 Q0998=
201101271500 METAR LPPR 271500Z 12007KT 9999 FEW015 SCT030 BKN070 10/03
                        Q0998=
201101271430 METAR LPPR 271430Z 11007KT 080V150 9999 FEW015 SCT030 BKN070
                        10/03 Q0998=
201101271400 METAR LPPR 271400Z 11007KT 080V140 9999 FEW015 SCT030 BKN070
                        10/02 Q0998=
201101271330 METAR LPPR 271330Z 12006KT 080V160 9999 FEW015 SCT030 BKN070
                        10/03 Q0998=
201101271300 METAR LPPR 271300Z 12006KT 9999 FEW015 SCT030 BKN070 10/03
                        Q0999=
201101271230 METAR LPPR 271230Z 11007KT 9999 FEW015 SCT030 BKN070 09/02
                        Q0999=
201101271200 METAR LPPR 271200Z 12006KT 080V140 8000 FEW015 SCT030 BKN070
                        09/03 Q0999=
201101271130 METAR LPPR 271130Z 12005KT 8000 FEW015 SCT030 BKN070 08/03
                        Q0999=
201101271100 METAR LPPR 271100Z 10005KT 070V140 6000 -RA FEW015 BKN030
                        07/04 Q0999=
201101271030 METAR LPPR 271030Z 10006KT 5000 BR SCT020 BKN030 07/03 Q0999=
201101271000 METAR LPPR 271000Z VRB02KT 5000 BR SCT020 BKN030 07/03 Q0999=
201101270930 METAR LPPR 270930Z VRB03KT 5000 -RADZ BR SCT025 BKN030 06/03
                        Q0999=
201101270900 METAR LPPR 270900Z 10004KT 070V130 4000 BR SCT025 BKN030
                        06/02 Q0999=
201101270830 METAR LPPR 270830Z 11006KT 7000 SCT030 BKN040 06/01 Q0998=
201101270800 METAR LPPR 270800Z 11006KT 090V150 7000 SCT030 BKN040 06/01
                        Q0998=
201101270730 METAR LPPR 270730Z 11008KT 9999 SCT025 BKN040 06/01 Q0998=
201101270700 METAR LPPR 270700Z 11007KT 9999 SCT030 BKN050 05/01 Q0998=
201101270630 METAR LPPR 270630Z 11007KT 9000 SCT035 BKN080 05/01 Q0998=
201101270600 METAR LPPR 270600Z 11007KT 9000 SCT035 BKN100 05/01 Q0998=
201101270530 METAR LPPR 270530Z 11004KT 8000 BKN100 05/01 Q0998=
201101270500 METAR LPPR 270500Z 10005KT 8000 FEW040 BKN100 05/02 Q0999=
201101270430 METAR LPPR 270430Z 12007KT 8000 FEW040 SCT100 05/02 Q0999=
201101270400 METAR LPPR 270400Z VRB02KT 8000 FEW040 SCT090 04/01 Q0999=
201101270330 METAR LPPR 270330Z 00000KT 8000 FEW040 SCT090 05/02 Q0999=
201101270300 METAR LPPR 270300Z 00000KT 8000 FEW040 BKN090 05/02 Q1000=
201101270230 METAR LPPR 270230Z 10005KT 8000 FEW040 BKN080 06/02 Q1000=
201101270200 METAR LPPR 270200Z 07003KT 7000 FEW040 SCT050 BKN090 05/03
                        Q1000=
201101270130 METAR LPPR 270130Z 00000KT 7000 FEW040 BKN060 05/02 Q1000=
201101270100 METAR LPPR 270100Z 10002KT 8000 FEW040 BKN070 06/03 Q1001=
201101270030 METAR LPPR 270030Z 10003KT 8000 FEW040 BKN070 06/03 Q1001=
201101270000 METAR LPPR 270000Z VRB01KT 8000 FEW040 BKN070 05/03 Q1001=
201101262330 METAR LPPR 262330Z 09001KT 8000 FEW040 BKN090 05/03 Q1002=
201101262300 METAR LPPR 262300Z 00000KT 8000 BKN090 04/02 Q1002=
201101262230 METAR LPPR 262230Z 36001KT 7000 SCT090 03/01 Q1002=
201101262200 METAR LPPR 262200Z 00000KT 7000 SCT090 04/01 Q1002=
201101262130 METAR LPPR 262130Z 10002KT 8000 SCT100 05/02 Q1002=
201101262100 METAR LPPR 262100Z 00000KT 8000 SCT100 05/02 Q1002=
201101262030 METAR LPPR 262030Z 00000KT 8000 SCT100 06/02 Q1003=
201101262000 METAR LPPR 262000Z 00000KT 8000 SCT100 07/03 Q1003=
201101261930 METAR LPPR 261930Z 00000KT CAVOK 07/03 Q1003=
201101261900 METAR LPPR 261900Z 00000KT CAVOK 06/02 Q1003=
201101261830 METAR LPPR 261830Z 00000KT CAVOK 07/01 Q1003=
201101261800 METAR LPPR 261800Z VRB03KT CAVOK 08/01 Q1003=
201101261730 METAR LPPR 261730Z 33004KT CAVOK 10/02 Q1004=
201101261700 METAR LPPR 261700Z 32005KT CAVOK 11/02 Q1004=
201101261630 METAR LPPR 261630Z 31007G18KT 280V340 CAVOK 11/01 Q1004=
201101261600 METAR LPPR 261600Z 31005KT 270V340 CAVOK 12/01 Q1004=
201101261530 METAR LPPR 261530Z 30007KT CAVOK 12/01 Q1005=
201101261500 METAR LPPR 261500Z 30008KT 260V330 CAVOK 12/01 Q1005=
201101261430 METAR LPPR 261430Z 31009KT CAVOK 12/01 Q1005=
201101261400 METAR LPPR 261400Z 32009KT 280V340 CAVOK 12/01 Q1005=
201101261330 METAR LPPR 261330Z VRB03KT CAVOK 12/M02 Q1006=
201101261300 METAR LPPR 261300Z 02004KT 340V050 CAVOK 11/M00 Q1006=
201101261230 METAR LPPR 261230Z 03004KT 340V100 CAVOK 11/M00 Q1007=
201101261200 METAR LPPR 261200Z 04004KT 360V080 CAVOK 10/M01 Q1008=
201101261130 METAR LPPR 261130Z 03006KT 360V100 CAVOK 10/M01 Q1008=
201101261100 METAR LPPR 261100Z 05005KT 010V090 CAVOK 09/M01 Q1009=
201101261030 METAR LPPR 261030Z VRB03KT CAVOK 09/M02 Q1009=
201101261000 METAR LPPR 261000Z VRB03KT CAVOK 08/M01 Q1009=
201101260930 METAR LPPR 260930Z VRB02KT CAVOK 07/M02 Q1009=
201101260900 METAR LPPR 260900Z VRB01KT CAVOK 04/M02 Q1009=
201101260830 METAR LPPR 260830Z VRB03KT CAVOK 03/M03 Q1009=
201101260800 METAR LPPR 260800Z 07004KT 030V130 CAVOK 03/M03 Q1009=
201101260730 METAR LPPR 260730Z 04004KT CAVOK 04/M03 Q1010=
201101260700 METAR LPPR 260700Z 04005KT CAVOK 04/M03 Q1010=
201101260630 METAR LPPR 260630Z 05004KT 020V090 CAVOK 05/M02 Q1010=
201101260600 METAR LPPR 260600Z 08006KT 030V120 CAVOK 05/M02 Q1010=
201101260530 METAR LPPR 260530Z 07004KT 020V100 CAVOK 05/M03 Q1010=
201101260500 METAR LPPR 260500Z 08005KT CAVOK 05/M03 Q1011=
201101260430 METAR LPPR 260430Z 05005KT CAVOK 05/M03 Q1011=
201101260400 METAR LPPR 260400Z 07005KT 030V090 CAVOK 04/M02 Q1011=
201101260330 METAR LPPR 260330Z 06003KT CAVOK 04/M03 Q1012=
201101260300 METAR LPPR 260300Z VRB03KT CAVOK 04/M03 Q1012=
201101260230 METAR LPPR 260230Z 08004KT CAVOK 05/M03 Q1013=
201101260200 METAR LPPR 260200Z 09001KT CAVOK 04/M03 Q1013=
201101260130 METAR LPPR 260130Z 06004KT CAVOK 05/M02 Q1013=
201101260100 METAR LPPR 260100Z 06004KT CAVOK 05/M02 Q1013=
201101260030 METAR LPPR 260030Z 07003KT CAVOK 06/M02 Q1014=
201101260000 METAR LPPR 260000Z 06004KT CAVOK 06/M02 Q1014=
201101252330 METAR LPPR 252330Z 02004KT CAVOK 04/M02 Q1014=
201101252300 METAR LPPR 252300Z VRB02KT CAVOK 07/M02 Q1015=
201101252230 METAR LPPR 252230Z 08003KT CAVOK 07/M03 Q1015=
201101252200 METAR LPPR 252200Z 07005KT 040V100 CAVOK 07/M02 Q1015=
201101252130 METAR LPPR 252130Z VRB03KT CAVOK 07/M02 Q1015=
201101252100 METAR LPPR 252100Z 11005KT CAVOK 07/M02 Q1015=
201101252030 METAR LPPR 252030Z 13004KT CAVOK 07/M03 Q1015=
201101252000 METAR LPPR 252000Z 11003KT CAVOK 08/M02 Q1015=
201101251930 METAR LPPR 251930Z 10004KT CAVOK 08/M02 Q1015=
201101251900 METAR LPPR 251900Z 11003KT CAVOK 08/M02 Q1015=
201101251830 METAR LPPR 251830Z VRB02KT CAVOK 08/M02 Q1015=
201101251800 METAR LPPR 251800Z 09003KT CAVOK 10/M03 Q1014=
201101251730 METAR LPPR 251730Z VRB03KT CAVOK 12/M03 Q1015=
201101251700 METAR LPPR 251700Z 09005KT 060V120 CAVOK 13/M03 Q1014=
201101251630 METAR LPPR 251630Z 08005KT 050V120 CAVOK 14/M03 Q1015=
201101251600 METAR LPPR 251600Z 08006KT 030V140 CAVOK 14/M04 Q1015=
201101251530 METAR LPPR 251530Z 10007KT 050V150 CAVOK 14/M04 Q1015=
201101251500 METAR LPPR 251500Z 08007KT 030V120 CAVOK 14/M03 Q1015=
201101251430 METAR LPPR 251430Z 10008KT 070V130 CAVOK 13/M03 Q1015=
201101251400 METAR LPPR 251400Z 10007KT 060V130 CAVOK 13/M03 Q1016=
201101251330 METAR LPPR 251330Z 10007KT 050V140 CAVOK 13/M03 Q1016=
201101251300 METAR LPPR 251300Z 09008KT 050V150 CAVOK 12/M03 Q1017=
201101251230 METAR LPPR 251230Z 09008KT 040V130 CAVOK 11/M02 Q1017=
201101251200 METAR LPPR 251200Z 09010KT 040V130 CAVOK 10/M03 Q1017=
201101251130 METAR LPPR 251130Z 10013KT CAVOK 09/M03 Q1018 WS ALL RWY=
201101251100 METAR LPPR 251100Z 09011KT 060V120 CAVOK 09/M03 Q1018 WS
                        ALL RWY=
201101251030 METAR LPPR 251030Z 10011KT 060V130 CAVOK 08/M03 Q1018 WS
                        ALL RWY=
201101251000 METAR LPPR 251000Z 08009G19KT 040V140 CAVOK 08/M03 Q1018
                        WS ALL RWY=
201101250930 METAR LPPR 250930Z 08008KT 050V120 CAVOK 07/M04 Q1018 WS
                        ALL RWY=
201101250900 METAR LPPR 250900Z 09010G21KT 060V130 CAVOK 06/M04 Q1017=
201101250830 METAR LPPR 250830Z 10009KT 070V140 CAVOK 05/M04 Q1018=
201101250800 METAR LPPR 250800Z 10009KT 070V140 CAVOK 05/M04 Q1017=
201101250730 METAR LPPR 250730Z 10010KT 060V130 CAVOK 05/M04 Q1017=
201101250700 METAR LPPR 250700Z 10011KT CAVOK 05/M04 Q1017=
201101250630 METAR LPPR 250630Z 11009KT 080V150 CAVOK 05/M04 Q1017=
201101250600 METAR LPPR 250600Z 09007KT 050V130 CAVOK 05/M04 Q1017=
201101250530 METAR LPPR 250530Z 07004KT 010V120 CAVOK 05/M05 Q1017=
201101250500 METAR LPPR 250500Z 08006KT 040V130 CAVOK 05/M04 Q1017=
201101250430 METAR LPPR 250430Z 09004KT 040V130 CAVOK 06/M05 Q1017=
201101250400 METAR LPPR 250400Z 08006KT 030V140 CAVOK 06/M05 Q1017=
201101250330 METAR LPPR 250330Z 08007KT 040V130 CAVOK 06/M05 Q1017=
201101250300 METAR LPPR 250300Z 09010KT 040V120 CAVOK 07/M05 Q1017=
201101250230 METAR LPPR 250230Z 09008KT 050V120 CAVOK 07/M05 Q1017=
201101250200 METAR LPPR 250200Z 09011KT 050V130 CAVOK 07/M05 Q1017=
201101250130 METAR LPPR 250130Z 10011KT 060V120 CAVOK 07/M05 Q1017=
201101250100 METAR LPPR 250100Z 09010KT 050V130 CAVOK 07/M05 Q1017=
201101250030 METAR LPPR 250030Z 11008KT 070V140 CAVOK 08/M05 Q1017=
201101250000 METAR LPPR 250000Z 10009KT 070V130 CAVOK 08/M05 Q1017=
201101242330 METAR LPPR 242330Z 08007KT 040V130 CAVOK 08/M05 Q1017=
201101242300 METAR LPPR 242300Z 10009KT 070V130 CAVOK 08/M05 Q1017=
201101242230 METAR LPPR 242230Z 09007KT CAVOK 08/M05 Q1017=
201101242200 METAR LPPR 242200Z 09006KT 060V120 CAVOK 08/M05 Q1017=
201101242130 METAR LPPR 242130Z 09005KT 050V130 CAVOK 07/M05 Q1017=
201101242100 METAR LPPR 242100Z 07005KT 040V100 CAVOK 08/M05 Q1017=
201101242030 METAR LPPR 242030Z 08005KT CAVOK 08/M06 Q1017=
201101242000 METAR LPPR 242000Z 09004KT 050V110 CAVOK 09/M05 Q1017=
201101241930 METAR LPPR 241930Z 09004KT CAVOK 08/M05 Q1017=
201101241900 METAR LPPR 241900Z 10004KT CAVOK 08/M04 Q1017=
201101241830 METAR LPPR 241830Z 06003KT CAVOK 08/M03 Q1017=
201101241800 METAR LPPR 241800Z 14001KT CAVOK 09/M03 Q1017=
201101241730 METAR LPPR 241730Z 13004KT CAVOK 11/M04 Q1016=
201101241700 METAR LPPR 241700Z 13005KT CAVOK 12/M04 Q1016=
201101241630 METAR LPPR 241630Z 12007KT CAVOK 12/M05 Q1016=
201101241600 METAR LPPR 241600Z 13007KT CAVOK 13/M05 Q1016=
201101241530 METAR LPPR 241530Z 10006KT 050V150 CAVOK 14/M07 Q1016=
201101241500 METAR LPPR 241500Z 10007KT 060V140 CAVOK 13/M06 Q1016=
201101241430 METAR LPPR 241430Z 09008KT 040V140 CAVOK 13/M07 Q1016=
201101241400 METAR LPPR 241400Z 10007KT 060V140 CAVOK 13/M06 Q1016=
201101241330 METAR LPPR 241330Z 09010KT 050V140 CAVOK 12/M07 Q1017=
201101241300 METAR LPPR 241300Z 08009KT 040V130 CAVOK 12/M07 Q1017=
201101241230 METAR LPPR 241230Z 09009KT 040V150 CAVOK 11/M08 Q1017=
201101241200 METAR LPPR 241200Z 09006KT 360V160 CAVOK 11/M07 Q1018=
201101241130 METAR LPPR 241130Z 10004KT 040V140 CAVOK 10/M05 Q1018=
201101241100 METAR LPPR 241100Z 09005KT 040V130 CAVOK 09/M05 Q1018=
201101241030 METAR LPPR 241030Z VRB03KT CAVOK 08/M05 Q1018=
201101241000 METAR LPPR 241000Z VRB02KT CAVOK 07/M05 Q1018=
201101240930 METAR LPPR 240930Z 34003KT CAVOK 05/M05 Q1018=
201101240900 METAR LPPR 240900Z VRB02KT CAVOK 04/M07 Q1018=
201101240830 METAR LPPR 240830Z VRB02KT CAVOK 03/M07 Q1018=
201101240800 METAR LPPR 240800Z 00000KT CAVOK 02/M07 Q1018=
201101240730 METAR LPPR 240730Z VRB02KT CAVOK 02/M07 Q1018=
201101240700 METAR LPPR 240700Z 05002KT CAVOK 03/M07 Q1018=
201101240630 METAR LPPR 240630Z 05004KT CAVOK 02/M07 Q1018=
201101240600 METAR LPPR 240600Z VRB02KT CAVOK 01/M07 Q1018=
201101240530 METAR LPPR 240530Z 00000KT CAVOK 01/M07 Q1018=
201101240500 METAR LPPR 240500Z VRB03KT CAVOK 03/M08 Q1018=
201101240430 METAR LPPR 240430Z 03005KT CAVOK 02/M08 Q1018=
201101240400 METAR LPPR 240400Z 00000KT CAVOK 02/M07 Q1018=
201101240330 METAR LPPR 240330Z 06004KT 340V150 CAVOK 06/M10 Q1018=
201101240300 METAR LPPR 240300Z VRB03KT CAVOK 04/M09 Q1018=
201101240230 METAR LPPR 240230Z 05003KT CAVOK 01/M05 Q1018=
201101240200 METAR LPPR 240200Z 00000KT CAVOK 01/M05 Q1018=
201101240130 METAR LPPR 240130Z 00000KT CAVOK 02/M05 Q1018=
201101240100 METAR LPPR 240100Z 00000KT CAVOK 02/M05 Q1018=
201101240030 METAR LPPR 240030Z 03002KT CAVOK 02/M05 Q1018=
201101240000 METAR LPPR 240000Z VRB02KT CAVOK 03/M05 Q1018=
201101232330 METAR LPPR 232330Z VRB01KT CAVOK 03/M05 Q1018=
201101232300 METAR LPPR 232300Z 00000KT CAVOK 04/M05 Q1018=
201101232230 METAR LPPR 232230Z VRB03KT CAVOK 07/M06 Q1018=
201101232200 METAR LPPR 232200Z 07007KT 010V110 CAVOK 07/M06 Q1018=
201101232130 METAR LPPR 232130Z 07006KT 030V130 CAVOK 07/M06 Q1018=
201101232100 METAR LPPR 232100Z 09006KT 060V130 CAVOK 08/M06 Q1018=
201101232030 METAR LPPR 232030Z 08006KT 040V140 CAVOK 08/M05 Q1018=
201101232000 METAR LPPR 232000Z 08006KT 030V110 CAVOK 08/M05 Q1018=
201101231930 METAR LPPR 231930Z 07005KT 030V100 CAVOK 09/M04 Q1018=
201101231900 METAR LPPR 231900Z 06007KT 030V100 CAVOK 09/M04 Q1018=
201101231830 METAR LPPR 231830Z 08007KT 030V120 CAVOK 10/M04 Q1017=
201101231800 METAR LPPR 231800Z 07007G17KT 030V120 9999 FEW020 10/M03
                        Q1017=
201101231730 METAR LPPR 231730Z 08006KT 010V120 9999 FEW020 11/M02 Q1017=
201101231700 METAR LPPR 231700Z 08010KT 040V110 9999 FEW020 12/M03 Q1017=
201101231630 METAR LPPR 231630Z 06007KT 020V110 9999 FEW020 12/M02 Q1017=
201101231600 METAR LPPR 231600Z 07009KT 020V120 9999 FEW020 12/M01 Q1017=
201101231530 METAR LPPR 231530Z 07009KT 030V100 9999 FEW020 12/M02 Q1017=
201101231500 METAR LPPR 231500Z 08011G21KT 040V120 9999 FEW020 12/M02
                        Q1017=
201101231430 METAR LPPR 231430Z 06011KT 020V110 9999 FEW020 12/M02 Q1017=
201101231400 METAR LPPR 231400Z 08009KT 040V110 9999 FEW020 12/M01 Q1018
                        WS ALL RWY=
201101231330 METAR LPPR 231330Z 07009KT 020V100 CAVOK 11/M01 Q1018=
201101231300 METAR LPPR 231300Z 04008KT 010V100 CAVOK 11/M01 Q1019=
201101231230 METAR LPPR 231230Z VRB07KT CAVOK 10/M01 Q1019=
201101231200 METAR LPPR 231200Z 08007KT 040V110 CAVOK 10/M02 Q1019=
201101231130 METAR LPPR 231130Z 06007KT 020V100 CAVOK 10/M02 Q1020=
201101231100 METAR LPPR 231100Z 02005KT 340V070 CAVOK 09/M02 Q1020=
201101231030 METAR LPPR 231030Z 03006KT CAVOK 08/M02 Q1019=
201101231000 METAR LPPR 231000Z 03005KT 360V060 CAVOK 06/M02 Q1019=
201101230930 METAR LPPR 230930Z 36004KT CAVOK 04/M02 Q1019=
201101230900 METAR LPPR 230900Z VRB03KT CAVOK 01/M03 Q1019=
201101230830 METAR LPPR 230830Z 36002KT CAVOK 01/M04 Q1019=
201101230800 METAR LPPR 230800Z 36003KT CAVOK M01/M04 Q1019=
201101230730 METAR LPPR 230730Z 01003KT CAVOK M00/M04 Q1019=
201101230700 METAR LPPR 230700Z 00000KT CAVOK M01/M04 Q1019=
201101230630 METAR LPPR 230630Z 35002KT CAVOK M00/M04 Q1019=
201101230600 METAR LPPR 230600Z 03002KT CAVOK 00/M04 Q1019=
201101230530 METAR LPPR 230530Z 35002KT CAVOK M01/M04 Q1019=
201101230500 METAR LPPR 230500Z 02002KT CAVOK 00/M04 Q1019=
201101230430 METAR LPPR 230430Z 04004KT 360V060 CAVOK 01/M04 Q1019=
201101230400 METAR LPPR 230400Z 00000KT CAVOK 00/M04 Q1019=
201101230330 METAR LPPR 230330Z 00000KT CAVOK 00/M04 Q1019=
201101230300 METAR LPPR 230300Z 36003KT CAVOK 01/M05 Q1020=
201101230230 METAR LPPR 230230Z VRB02KT CAVOK 02/M05 Q1019=
201101230200 METAR LPPR 230200Z 06004KT 030V100 CAVOK 05/M06 Q1020=
201101230130 METAR LPPR 230130Z 04005KT 010V080 CAVOK 04/M06 Q1020=
201101230100 METAR LPPR 230100Z 01004KT CAVOK 03/M05 Q1020=
201101230030 METAR LPPR 230030Z VRB03KT CAVOK 02/M05 Q1020=
201101230000 METAR LPPR 230000Z VRB02KT CAVOK 03/M06 Q1020=
201101222330 METAR LPPR 222330Z VRB02KT CAVOK 04/M05 Q1020=
201101222300 METAR LPPR 222300Z 33004KT CAVOK 03/M05 Q1020=
201101222230 METAR LPPR 222230Z 35003KT CAVOK 03/M05 Q1019=
201101222200 METAR LPPR 222200Z 36004KT CAVOK 03/M05 Q1019=
201101222130 METAR LPPR 222130Z VRB03KT CAVOK 06/M06 Q1019=
201101222100 METAR LPPR 222100Z 03005KT CAVOK 05/M07 Q1019=
201101222030 METAR LPPR 222030Z 04004KT CAVOK 06/M08 Q1019=
201101222000 METAR LPPR 222000Z VRB03KT CAVOK 07/M08 Q1019=
201101221930 METAR LPPR 221930Z 08004KT 010V120 CAVOK 08/M10 Q1019=
201101221900 METAR LPPR 221900Z 07007KT 030V140 CAVOK 09/M10 Q1019=
201101221830 METAR LPPR 221830Z 06004KT 020V090 CAVOK 08/M08 Q1019=
201101221800 METAR LPPR 221800Z 04004KT 010V080 CAVOK 08/M07 Q1019=
201101221730 METAR LPPR 221730Z VRB03KT CAVOK 10/M08 Q1019=
201101221700 METAR LPPR 221700Z 08009KT 040V110 CAVOK 11/M09 Q1019=
201101221630 METAR LPPR 221630Z 09008KT 060V120 CAVOK 12/M10 Q1018=
201101221600 METAR LPPR 221600Z 08010KT 020V120 CAVOK 12/M10 Q1018=
201101221530 METAR LPPR 221530Z 08011KT 030V120 CAVOK 12/M10 Q1018=
201101221500 METAR LPPR 221500Z 07012KT 030V120 CAVOK 12/M10 Q1018=
201101221430 METAR LPPR 221430Z 07011KT 020V100 CAVOK 12/M10 Q1019=
201101221400 METAR LPPR 221400Z 07010KT 020V120 CAVOK 11/M09 Q1019=
201101221330 METAR LPPR 221330Z 07010KT 020V120 CAVOK 11/M08 Q1020=
201101221300 METAR LPPR 221300Z 09010G21KT 040V130 CAVOK 11/M08 Q1020=
201101221230 METAR LPPR 221230Z 08005KT 360V120 CAVOK 10/M07 Q1021=
201101221200 METAR LPPR 221200Z 09008KT 040V130 CAVOK 10/M07 Q1021=
201101221130 METAR LPPR 221130Z 07011G21KT 040V110 CAVOK 09/M09 Q1022=
201101221100 METAR LPPR 221100Z 07010KT 020V130 CAVOK 09/M08 Q1022=
201101221030 METAR LPPR 221030Z 07006KT 350V150 CAVOK 08/M08 Q1022=
201101221000 METAR LPPR 221000Z 07008KT 020V110 CAVOK 07/M08 Q1022=
201101220930 METAR LPPR 220930Z 06006KT 360V130 CAVOK 07/M09 Q1021=
201101220900 METAR LPPR 220900Z 06007KT 360V110 CAVOK 06/M09 Q1021=
201101220830 METAR LPPR 220830Z 06006KT 010V100 CAVOK 05/M09 Q1021=
201101220800 METAR LPPR 220800Z 05006KT 020V110 CAVOK 05/M08 Q1021=
201101220730 METAR LPPR 220730Z 06008KT 020V090 CAVOK 05/M08 Q1021=
201101220700 METAR LPPR 220700Z 04008KT 010V090 CAVOK 05/M08 Q1021=
201101220630 METAR LPPR 220630Z 07006KT 030V100 CAVOK 05/M08 Q1021=
201101220600 METAR LPPR 220600Z 06005KT 360V110 CAVOK 05/M08 Q1022=
201101220530 METAR LPPR 220530Z 03004KT 350V090 CAVOK 05/M08 Q1022=
201101220500 METAR LPPR 220500Z 07007G17KT 360V130 CAVOK 06/M10 Q1022=
201101220430 METAR LPPR 220430Z 07007KT 010V140 CAVOK 06/M10 Q1021=
201101220400 METAR LPPR 220400Z 08013G23KT 030V120 CAVOK 07/M11 Q1021=
201101220330 METAR LPPR 220330Z 09011G24KT 050V130 CAVOK 07/M14 Q1022=
201101220300 METAR LPPR 220300Z 08014KT 030V120 CAVOK 07/M15 Q1022=
201101220230 METAR LPPR 220230Z 08013G23KT 020V120 CAVOK 07/M15 Q1022=
201101220200 METAR LPPR 220200Z 07008G18KT 020V110 CAVOK 07/M14 Q1021=
201101220130 METAR LPPR 220130Z 07007KT 020V120 CAVOK 08/M13 Q1022=
201101220100 METAR LPPR 220100Z 06008KT 010V090 CAVOK 08/M11 Q1022=
201101220030 METAR LPPR 220030Z 07009KT 020V110 CAVOK 08/M10 Q1022=
201101220000 METAR LPPR 220000Z 08007G20KT 040V130 CAVOK 08/M10 Q1022=
201101212330 METAR LPPR 212330Z 08008KT 040V130 CAVOK 08/M09 Q1022=
201101212300 METAR LPPR 212300Z 09011G22KT 040V130 CAVOK 09/M09 Q1022=
201101212230 METAR LPPR 212230Z 09011G21KT 050V130 CAVOK 09/M09 Q1022=
201101212200 METAR LPPR 212200Z 08012G23KT 050V110 CAVOK 09/M09 Q1022=
201101212130 METAR LPPR 212130Z 09014KT 050V130 CAVOK 09/M08 Q1022=
201101212100 METAR LPPR 212100Z 08010KT 030V130 CAVOK 09/M08 Q1022=
201101212030 METAR LPPR 212030Z 08012KT 040V120 CAVOK 10/M08 Q1022=
201101212000 METAR LPPR 212000Z 07010G20KT 040V130 CAVOK 10/M07 Q1022=
201101211930 METAR LPPR 211930Z 04005KT 360V130 CAVOK 09/M06 Q1022=
201101211900 METAR LPPR 211900Z 04007KT 350V110 CAVOK 10/M06 Q1022=
201101211830 METAR LPPR 211830Z 04006KT 340V100 CAVOK 10/M07 Q1022=
201101211800 METAR LPPR 211800Z 06008KT 010V110 CAVOK 11/M08 Q1022=
201101211730 METAR LPPR 211730Z 04004KT 350V100 CAVOK 12/M07 Q1022=
201101211700 METAR LPPR 211700Z VRB03KT CAVOK 13/M07 Q1022=
201101211630 METAR LPPR 211630Z 07007KT 010V100 CAVOK 14/M07 Q1022=
201101211600 METAR LPPR 211600Z 07006KT 020V110 CAVOK 14/M06 Q1022=
201101211530 METAR LPPR 211530Z 07010KT 040V110 CAVOK 15/M10 Q1022=
201101211500 METAR LPPR 211500Z 10009KT 060V140 CAVOK 15/M10 Q1022=
201101211430 METAR LPPR 211430Z 13004KT 080V180 CAVOK 14/M07 Q1022=
201101211400 METAR LPPR 211400Z 13006KT 090V160 CAVOK 13/M04 Q1022=
201101211330 METAR LPPR 211330Z 11007KT 080V160 CAVOK 13/M05 Q1023=
201101211300 METAR LPPR 211300Z 11007KT 040V160 CAVOK 13/M08 Q1023=
201101211230 METAR LPPR 211230Z 08009G20KT 050V120 CAVOK 13/M07 Q1023=
201101211200 METAR LPPR 211200Z 08012KT 040V110 CAVOK 12/M09 Q1023=
201101211130 METAR LPPR 211130Z 10015G26KT 070V130 CAVOK 11/M08 Q1023=
201101211100 METAR LPPR 211100Z 10013KT 040V130 CAVOK 10/M08 Q1024=
201101211030 METAR LPPR 211030Z 09014G25KT 040V110 CAVOK 10/M09 Q1024=
201101211000 METAR LPPR 211000Z 08013G25KT 050V120 CAVOK 10/M09 Q1023=
201101210930 METAR LPPR 210930Z 09013KT 060V120 CAVOK 09/M09 Q1023=
201101210900 METAR LPPR 210900Z 09015G26KT CAVOK 09/M09 Q1023=
201101210830 METAR LPPR 210830Z 09011KT 030V130 CAVOK 08/M09 Q1022=
201101210800 METAR LPPR 210800Z 09010KT 060V120 CAVOK 07/M07 Q1022=
201101210730 METAR LPPR 210730Z 09008KT 050V120 CAVOK 08/M07 Q1022=
201101210700 METAR LPPR 210700Z 09007KT 050V130 CAVOK 08/M08 Q1022=
201101210630 METAR LPPR 210630Z 09008KT 050V130 CAVOK 08/M09 Q1022=
201101210600 METAR LPPR 210600Z 07007KT 030V110 CAVOK 09/M09 Q1022=
201101210530 METAR LPPR 210530Z 09008KT 050V130 CAVOK 09/M10 Q1022=
201101210500 METAR LPPR 210500Z 08004KT 040V120 CAVOK 08/M08 Q1022=
201101210430 METAR LPPR 210430Z 01005KT 330V080 CAVOK 08/M05 Q1022=
201101210400 METAR LPPR 210400Z 09008KT 060V130 CAVOK 10/M08 Q1022=
201101210330 METAR LPPR 210330Z 08005KT 040V110 CAVOK 10/M05 Q1022=
201101210300 METAR LPPR 210300Z 04004KT 360V080 CAVOK 10/M05 Q1022=
201101210230 METAR LPPR 210230Z VRB01KT CAVOK 10/M05 Q1022=
201101210200 METAR LPPR 210200Z 01004KT 310V110 CAVOK 10/M04 Q1021=
201101210130 METAR LPPR 210130Z VRB03KT CAVOK 10/M04 Q1021=
201101210100 METAR LPPR 210100Z VRB03KT CAVOK 10/M04 Q1021=
201101210030 METAR LPPR 210030Z 05006KT 020V120 CAVOK 11/M02 Q1021=
201101210000 METAR LPPR 210000Z 07008KT 020V100 CAVOK 11/M01 Q1021=
201101202330 METAR LPPR 202330Z 09005KT 050V120 CAVOK 11/M00 Q1021=
201101202300 METAR LPPR 202300Z 08005KT 050V130 CAVOK 11/// Q1021=
201101202230 METAR LPPR 202230Z 09005KT 050V120 CAVOK 12/01 Q1021=
201101202200 METAR LPPR 202200Z 09004KT 030V120 CAVOK 12/01 Q1021=
201101202130 METAR LPPR 202130Z 08005KT 050V140 CAVOK 12/01 Q1021=
201101202100 METAR LPPR 202100Z 06003KT CAVOK 09/06 Q1021=
201101202030 METAR LPPR 202030Z VRB02KT CAVOK 09/06 Q1021=
201101202000 METAR LPPR 202000Z 00000KT CAVOK 10/06 Q1021=
201101201930 METAR LPPR 201930Z 10004KT CAVOK 12/06 Q1021=
201101201900 METAR LPPR 201900Z 11005KT CAVOK 13/06 Q1021=
201101201830 METAR LPPR 201830Z 11005KT CAVOK 13/05 Q1020=
201101201800 METAR LPPR 201800Z 12008KT CAVOK 14/05 Q1020=
201101201730 METAR LPPR 201730Z 12007KT CAVOK 15/05 Q1020=
201101201700 METAR LPPR 201700Z 12007KT CAVOK 16/07 Q1020=
201101201630 METAR LPPR 201630Z 10004KT 060V140 CAVOK 17/08 Q1020=
201101201600 METAR LPPR 201600Z 10004KT 070V130 CAVOK 17/08 Q1020=
201101201530 METAR LPPR 201530Z 09006KT 050V130 CAVOK 17/08 Q1020=
201101201500 METAR LPPR 201500Z 10007KT 050V130 CAVOK 18/08 Q1020=
201101201430 METAR LPPR 201430Z 10007KT 060V140 CAVOK 17/07 Q1020=
201101201400 METAR LPPR 201400Z 10008KT CAVOK 17/07 Q1020=
201101201330 METAR LPPR 201330Z 09009KT 050V130 CAVOK 17/07 Q1021=
201101201300 METAR LPPR 201300Z 08007KT 050V120 CAVOK 17/07 Q1021=
201101201230 METAR LPPR 201230Z 10006KT 060V140 CAVOK 17/08 Q1021=
201101201200 METAR LPPR 201200Z 10006KT 050V140 CAVOK 16/08 Q1021=
201101201130 METAR LPPR 201130Z 10008KT 070V140 CAVOK 16/07 Q1022=
201101201100 METAR LPPR 201100Z 10010KT 060V130 CAVOK 15/07 Q1022=
201101201030 METAR LPPR 201030Z 11007KT 080V150 CAVOK 14/07 Q1022=
201101201000 METAR LPPR 201000Z 10005KT CAVOK 13/08 Q1022=
201101200930 METAR LPPR 200930Z 10006KT CAVOK 12/07 Q1022=
201101200900 METAR LPPR 200900Z 09006KT CAVOK 12/07 Q1022=
201101200830 METAR LPPR 200830Z 09006KT CAVOK 11/07 Q1021=
201101200800 METAR LPPR 200800Z 09006KT 060V120 CAVOK 11/07 Q1021=
201101200730 METAR LPPR 200730Z 09005KT 060V120 CAVOK 11/07 Q1021=
201101200700 METAR LPPR 200700Z 09004KT 060V120 CAVOK 11/07 Q1021=
201101200630 METAR LPPR 200630Z 09004KT CAVOK 11/07 Q1021=
201101200600 METAR LPPR 200600Z 09005KT 060V120 CAVOK 11/07 Q1021=
201101200530 METAR LPPR 200530Z 09005KT 060V120 CAVOK 11/07 Q1021=
201101200500 METAR LPPR 200500Z 09006KT CAVOK 11/07 Q1021=
201101200430 METAR LPPR 200430Z 10006KT CAVOK 11/07 Q1021=
201101200400 METAR LPPR 200400Z 10006KT CAVOK 11/07 Q1021=
201101200330 METAR LPPR 200330Z 10005KT CAVOK 11/07 Q1021=
201101200300 METAR LPPR 200300Z 09005KT 060V130 CAVOK 11/07 Q1021=
201101200230 METAR LPPR 200230Z 10005KT CAVOK 12/07 Q1021=
201101200200 METAR LPPR 200200Z 10004 CAVOK 12/07 Q1021=
201101200130 METAR LPPR 200130Z 10005KT 9999 FEW040 SCT090 12/07 Q1021=
201101200100 METAR LPPR 200100Z 10005KT 9999 FEW040 BKN090 12/07 Q1021=
201101200030 METAR LPPR 200030Z 11005KT CAVOK 12/07 Q1021=
201101200000 METAR LPPR 200000Z 11006KT CAVOK 12/07 Q1021=
201101192330 METAR LPPR 192330Z 10006KT 070V130 CAVOK 12/07 Q1021=
201101192300 METAR LPPR 192300Z 10006KT CAVOK 12/07 Q1021=
201101192230 METAR LPPR 192230Z 11008KT CAVOK 12/07 Q1021=
201101192200 METAR LPPR 192200Z 10008KT CAVOK 12/07 Q1021=
201101192130 METAR LPPR 192130Z 10007KT CAVOK 12/08 Q1021=
201101192100 METAR LPPR 192100Z 10007KT CAVOK 12/08 Q1021=
201101192030 METAR LPPR 192030Z 11007KT CAVOK 12/08 Q1020=
201101192000 METAR LPPR 192000Z 11008KT CAVOK 13/08 Q1020=
201101191930 METAR LPPR 191930Z 11007KT CAVOK 13/08 Q1020=
201101191900 METAR LPPR 191900Z 10005KT CAVOK 13/09 Q1020=
201101191830 METAR LPPR 191830Z 11004KT CAVOK 14/09 Q1020=
201101191800 METAR LPPR 191800Z 10004KT CAVOK 14/09 Q1020=
201101191730 METAR LPPR 191730Z 09003KT CAVOK 15/09 Q1020=
201101191700 METAR LPPR 191700Z VRB03KT CAVOK 16/10 Q1020=
201101191630 METAR LPPR 191630Z 10004KT CAVOK 17/09 Q1020=
201101191600 METAR LPPR 191600Z VRB02KT CAVOK 17/11 Q1020=
201101191530 METAR LPPR 191530Z VRB02KT 9999 FEW020 BKN250 17/11 Q1020=
201101191500 METAR LPPR 191500Z VRB03KT 9999 FEW020 BKN250 17/11 Q1020=
201101191430 METAR LPPR 191430Z 29004KT 250V320 9999 FEW020 BKN250 17/11
                        Q1020=
201101191400 METAR LPPR 191400Z VRB02KT 9999 FEW020 BKN250 18/10 Q1020=
201101191330 METAR LPPR 191330Z 14005KT 110V170 CAVOK 17/10 Q1020=
201101191300 METAR LPPR 191300Z 13005KT CAVOK 16/10 Q1021=
201101191230 METAR LPPR 191230Z 11005KT 080V140 CAVOK 16/10 Q1021=
201101191200 METAR LPPR 191200Z 11006KT 9999 FEW015 SCT070 BKN250 15/10
                        Q1022=
201101191130 METAR LPPR 191130Z 10006KT 070V130 9999 FEW015 SCT070 BKN250
                        15/10 Q1022=
201101191100 METAR LPPR 191100Z 11007KT 9999 FEW015 SCT070 BKN250 14/09
                        Q1022=
201101191030 METAR LPPR 191030Z 10007KT 9999 FEW015 SCT070 BKN250 13/09
                        Q1022=
201101191000 METAR LPPR 191000Z 10005KT 080V140 9999 FEW015 SCT070 BKN250
                        12/09 Q1022=
201101190930 METAR LPPR 190930Z 11006KT 9999 FEW015 SCT070 BKN250 11/08
                        Q1021=
201101190900 METAR LPPR 190900Z 11006KT CAVOK 11/09 Q1021=
201101190830 METAR LPPR 190830Z 11006KT CAVOK 11/08 Q1021=
201101190800 METAR LPPR 190800Z 11006KT CAVOK 11/08 Q1021=
201101190730 METAR LPPR 190730Z 11005KT 080V140 CAVOK 11/09 Q1021=
201101190700 METAR LPPR 190700Z 11006KT CAVOK 11/09 Q1021=
201101190630 METAR LPPR 190630Z 11005KT CAVOK 11/09 Q1021=
201101190600 METAR LPPR 190600Z 10006KT CAVOK 11/09 Q1021=
201101190530 METAR LPPR 190530Z 10005KT CAVOK 11/09 Q1021=
201101190500 METAR LPPR 190500Z 10004KT 060V130 CAVOK 11/09 Q1021=
201101190430 METAR LPPR 190430Z 10005KT CAVOK 11/09 Q1021=
201101190400 METAR LPPR 190400Z 10006KT CAVOK 11/09 Q1021=
201101190330 METAR LPPR 190330Z 11005KT CAVOK 11/09 Q1021=
201101190300 METAR LPPR 190300Z 11005KT CAVOK 12/09 Q1022=
201101190230 METAR LPPR 190230Z 10006KT CAVOK 12/09 Q1022=
201101190200 METAR LPPR 190200Z 10005KT CAVOK 12/10 Q1022=
201101190130 METAR LPPR 190130Z 10004KT CAVOK 11/10 Q1022=
201101190100 METAR LPPR 190100Z 10004KT 9000 BKN250 12/10 Q1022=
201101190030 METAR LPPR 190030Z 10004KT 9000 BKN250 12/10 Q1022=
201101190000 METAR LPPR 190000Z 10005KT 9000 BKN250 12/10 Q1022=
201101182330 METAR LPPR 182330Z 10003KT 9000 FEW080 BKN250 12/10 Q1022=
201101182300 METAR LPPR 182300Z 11003KT 9000 FEW080 BKN250 12/10 Q1023=
201101182230 METAR LPPR 182230Z 00000KT 9000 SCT080 BKN250 12/10 Q1023=
201101182200 METAR LPPR 182200Z 12006KT 9000 FEW030 SCT080 BKN250 13/11
                        Q1022=
201101182130 METAR LPPR 182130Z 11005KT 8000 FEW040 SCT080 BKN250 13/11
                        Q1023=
201101182100 METAR LPPR 182100Z VRB03KT 8000 FEW030 SCT070 BKN250 13/12
                        Q1022=
201101182030 METAR LPPR 182030Z 11003KT 8000 SCT030 SCT070 BKN250 13/12
                        Q1022=
201101182000 METAR LPPR 182000Z VRB03KT 8000 BKN030 BKN070 13/12 Q1023=
201101181930 METAR LPPR 181930Z 09002KT 9000 BKN035 BKN200 13/12 Q1023=
201101181900 METAR LPPR 181900Z 09003KT 9999 SCT030 BKN080 13/12 Q1023=
201101181830 METAR LPPR 181830Z 11002KT 9999 OVC030 13/12 Q1023=
201101181800 METAR LPPR 181800Z 08001KT 7000 SCT017 BKN030 13/12 Q1023=
201101181730 METAR LPPR 181730Z 10002KT 5000 -RA BR SCT008 BKN020 14/12
                        Q1023=
201101181700 METAR LPPR 181700Z 00000KT 5000 -RA BR SCT008 BKN025 14/12
                        Q1023=
201101181630 METAR LPPR 181630Z 10002KT 7000 -RA OVC040 14/12 Q1023=
201101181600 METAR LPPR 181600Z VRB01KT 8000 FEW017 OVC040 14/12 Q1023=
201101181530 METAR LPPR 181530Z 10002KT 7000 -RA SCT020 BKN040 14/12 Q1023=
201101181500 METAR LPPR 181500Z 11002KT 7000 -RA SCT025 BKN040 14/12 Q1023=
201101181430 METAR LPPR 181430Z 11001KT 9000 -RADZ SCT025 BKN040 14/12
                        Q1023=
201101181400 METAR LPPR 181400Z VRB03KT 9000 -RADZ SCT020 BKN040 14/12
                        Q1024=
201101181330 METAR LPPR 181330Z 10004KT 060V130 9000 -RADZ SCT025 BKN060
                        14/12 Q1024=
201101181300 METAR LPPR 181300Z VRB03KT 9000 -RADZ SCT025 BKN060 14/12
                        Q1024=
201101181230 METAR LPPR 181230Z 10003KT 9000 -RADZ SCT030 BKN060 14/12
                        Q1025=
201101181200 METAR LPPR 181200Z VRB03KT 9000 -RADZ SCT030 BKN070 14/12
                        Q1025=
201101181130 METAR LPPR 181130Z 10004KT 070V130 9000 -RADZ SCT025 BKN070
                        13/12 Q1025=
201101181100 METAR LPPR 181100Z 10004KT 060V130 9000 -RADZ SCT025 BKN070
                        13/12 Q1025=
201101181030 METAR LPPR 181030Z 10004KT 8000 -RADZ FEW020 BKN025 13/12
                        Q1025=
201101181000 METAR LPPR 181000Z VRB03KT 8000 -RADZ FEW018 BKN025 12/12
                        Q1025=
201101180930 METAR LPPR 180930Z VRB02KT 7000 -RADZ FEW018 BKN025 12/12
                        Q1025=
201101180900 METAR LPPR 180900Z VRB02KT 6000 -RADZ FEW015 BKN020 12/12
                        Q1025=
201101180830 METAR LPPR 180830Z VRB02KT 5000 -RADZ BR FEW015 BKN020 12/12
                        Q1025=
201101180800 METAR LPPR 180800Z 00000KT 4000 -RADZ BR FEW015 BKN025 12/12
                        Q1025=
201101180730 METAR LPPR 180730Z VRB01KT 5000 -RADZ BR FEW015 BKN030 12/12
                        Q1025=
201101180700 METAR LPPR 180700Z 35003KT 5000 -RADZ BR FEW013 BKN020 12/12
                        Q1025=
201101180630 METAR LPPR 180630Z 02003KT 5000 -RADZ BR FEW013 BKN025 12/12
                        Q1025=
201101180600 METAR LPPR 180600Z VRB03KT 7000 -RADZ FEW013 BKN025 12/12
                        Q1025=
201101180530 METAR LPPR 180530Z VRB02KT 8000 -RADZ FEW013 SCT025 BKN060
                        12/12 Q1025=
201101180500 METAR LPPR 180500Z 10003KT 8000 -RADZ FEW013 SCT025 BKN060
                        12/12 Q1025=
201101180430 METAR LPPR 180430Z 10004KT 9000 FEW015 SCT040 BKN060 12/12
                        Q1025=
201101180400 METAR LPPR 180400Z 11004KT 9000 FEW015 SCT030 BKN070 12/12
                        Q1026=
201101180330 METAR LPPR 180330Z 11004KT 7000 FEW015 SCT040 BKN070 12/12
                        Q1026=
201101180300 METAR LPPR 180300Z 10003KT 7000 FEW015 SCT030 BKN070 12/12
                        Q1026=
201101180230 METAR LPPR 180230Z 10003KT 5000 -RADZ BR FEW015 SCT030 BKN070
                        12/12 Q1026=
201101180200 METAR LPPR 180200Z 09001KT 5000 -RADZ BR FEW015 SCT030 BKN070
                        12/12 Q1026=
201101180130 METAR LPPR 180130Z 00000KT 9999 FEW015 SCT030 BKN070 12/11
                        Q1027=
201101180100 METAR LPPR 180100Z 08001KT 9999 FEW015 SCT030 BKN070 12/12
                        Q1027=
201101180030 METAR LPPR 180030Z 10002KT 9999 FEW015 SCT040 BKN070 13/12
                        Q1027=
201101180000 METAR LPPR 180000Z 13003KT 9000 -RADZ FEW015 SCT040 BKN070
                        13/12 Q1027=
201101172330 METAR LPPR 172330Z 14003KT 9999 FEW015 SCT025 BKN070 13/12
                        Q1027=
201101172300 METAR LPPR 172300Z 16004KT 9999 FEW015 SCT025 BKN070 13/11
                        Q1027=
201101172230 METAR LPPR 172230Z 18008KT 9999 FEW015 SCT025 BKN070 13/12
                        Q1027=
201101172200 METAR LPPR 172200Z 18010KT 9999 FEW007 SCT015 BKN070 13/12
                        Q1027=
201101172130 METAR LPPR 172130Z 18010KT 9999 SCT005 SCT015 BKN090 13/12
                        Q1027=
201101172100 METAR LPPR 172100Z 17010KT 9999 SCT004 BKN012 BKN023 13/13
                        Q1027=
201101172030 METAR LPPR 172030Z 18012KT 7000 SCT003 BKN005 BKN013 14/13
                        Q1027=
201101172000 METAR LPPR 172000Z 18010KT 5000 -RA BR SCT003 BKN005 BKN013
                        14/14 Q1027=
201101171930 METAR LPPR 171930Z 20008KT 6000 -RA SCT003 BKN005 BKN015
                        14/14 Q1027=
201101171900 METAR LPPR 171900Z 19009KT 7000 -RA SCT002 BKN005 BKN015
                        14/14 Q1027=
201101171830 METAR LPPR 171830Z 20008KT 8000 -RA SCT003 BKN005 BKN013
                        14/14 Q1027=
201101171800 METAR LPPR 171800Z 19012KT 6000 -RA BKN005 BKN013 15/14 Q1027=
201101171730 METAR LPPR 171730Z 20011KT 4000 -RA BR BKN004 BKN007 15/14
                        Q1026=
201101171700 METAR LPPR 171700Z 20007KT 6000 -RA BKN006 BKN013 15/14 Q1026=
201101171630 METAR LPPR 171630Z 19008KT 7000 -RA SCT008 BKN012 BKN025
                        15/14 Q1026=
201101171600 METAR LPPR 171600Z 18010KT 8000 -RA SCT009 BKN013 BKN030
                        15/13 Q1026=
201101171530 METAR LPPR 171530Z 18011KT 9000 SCT009 SCT012 BKN040 15/13
                        Q1026=
201101171500 METAR LPPR 171500Z 18011KT 8000 -SHRA SCT007 SCT012 BKN020
                        15/13 Q1026=
201101171430 METAR LPPR 171430Z 18012KT 9999 BKN009 BKN015 15/13 Q1026=
201101171400 METAR LPPR 171400Z 18012KT 9999 BKN009 BKN015 15/13 Q1027=
201101171330 METAR LPPR 171330Z 18015KT 9999 SCT009 SCT015 BKN070 16/13
                        Q1027=
201101171300 METAR LPPR 171300Z 18014KT 9999 SCT009 BKN015 16/13 Q1027=
201101171230 METAR LPPR 171230Z 18015KT 9999 SCT009 BKN015 BKN070 15/13
                        Q1027=
201101171200 METAR LPPR 171200Z 17014KT 9999 SCT009 SCT015 BKN070 16/14
                        Q1028=
201101171130 METAR LPPR 171130Z 18015KT 8000 BKN008 BKN015 15/14 Q1028=
201101171100 METAR LPPR 171100Z 17012KT 8000 SCT008 BKN015 16/14 Q1027=
201101171030 METAR LPPR 171030Z 18014KT 8000 BKN008 BKN015 15/14 Q1027=
201101171000 METAR LPPR 171000Z 17011KT 8000 BKN008 SCT015 14/13 Q1027=
201101170930 METAR LPPR 170930Z 17010KT 8000 SCT008 SCT015 BKN050 14/13
                        Q1027=
201101170900 METAR LPPR 170900Z 17010KT 9000 FEW008 SCT015 BKN040 14/13
                        Q1027=
201101170830 METAR LPPR 170830Z 16010KT 8000 -RA FEW007 SCT013 BKN025
                        13/13 Q1026=
201101170800 METAR LPPR 170800Z 17011KT 8000 FEW007 SCT012 BKN020 13/13
                        Q1026=
201101170730 METAR LPPR 170730Z 17010KT 7000 -RA FEW007 SCT012 BKN020
                        13/13 Q1026=
201101170700 METAR LPPR 170700Z 17010KT 8000 -RA FEW007 SCT012 BKN020
                        13/13 Q1026=
201101170630 METAR LPPR 170630Z 17010KT 8000 FEW008 SCT012 BKN020 13/13
                        Q1026=
201101170600 METAR LPPR 170600Z 17013KT 8000 FEW007 SCT015 BKN020 13/13
                        Q1026=
201101170530 METAR LPPR 170530Z 17012KT 8000 -RA FEW007 SCT012 BKN020
                        13/12 Q1026=
201101170500 METAR LPPR 170500Z 17014KT 8000 SCT007 SCT015 BKN020 13/12
                        Q1026=
201101170430 METAR LPPR 170430Z 18011KT 8000 SCT007 SCT017 BKN020 13/12
                        Q1026=
201101170400 METAR LPPR 170400Z 17013KT 8000 -RA SCT009 BKN018 13/12 Q1026=
201101170330 METAR LPPR 170330Z 17013KT 8000 FEW009 SCT015 BKN020 13/12
                        Q1026=
201101170300 METAR LPPR 170300Z 17015KT 8000 -RA SCT012 BKN020 13/12 Q1025=
201101170230 METAR LPPR 170230Z 17015KT 8000 SCT012 BKN016 13/12 Q1025=
201101170200 METAR LPPR 170200Z 17015KT 5000 -RA BR SCT012 BKN020 13/12
                        Q1025=
201101170130 METAR LPPR 170130Z 17014KT 8000 -RA SCT015 BKN025 14/11 Q1025=
201101170100 METAR LPPR 170100Z 17015KT 9999 SCT020 BKN025 14/11 Q1025=
201101170030 METAR LPPR 170030Z 17018KT 9999 SCT020 BKN025 14/11 Q1025=
201101170000 METAR LPPR 170000Z 17017KT 9999 SCT020 BKN025 14/11 Q1025=
201101162330 METAR LPPR 162330Z 18018KT 9999 SCT020 BKN025 14/11 Q1025=
201101162300 METAR LPPR 162300Z 17018KT 9999 SCT020 BKN025 14/11 Q1025=
201101162230 METAR LPPR 162230Z 16020KT 9999 SCT019 BKN030 13/11 Q1025=
201101162200 METAR LPPR 162200Z 17016KT 9999 -RA SCT018 BKN025 13/11 Q1025=
201101162130 METAR LPPR 162130Z 16017KT 9999 -RA BKN020 BKN030 13/11 Q1025=
201101162100 METAR LPPR 162100Z 16015KT 9999 -RA SCT020 BKN040 13/11 Q1025=
201101162030 METAR LPPR 162030Z 16016KT 9999 -RA SCT020 BKN035 13/11 Q1025=
201101162000 METAR LPPR 162000Z 16016KT 9999 -RA BKN020 BKN035 13/11 Q1025=
201101161930 METAR LPPR 161930Z 16014KT 9999 -RA BKN020 BKN040 14/11 Q1025=
201101161900 METAR LPPR 161900Z 17016KT 9999 -RA BKN020 BKN050 14/10 Q1025=
201101161830 METAR LPPR 161830Z 17013KT 9999 -RA BKN025 BKN060 14/10 Q1025=
201101161800 METAR LPPR 161800Z 17013KT 9999 BKN025 BKN060 14/10 Q1025=
201101161730 METAR LPPR 161730Z 17013KT 140V200 9999 SCT025 BKN030 15/10
                        Q1024=
201101161700 METAR LPPR 161700Z 17012KT 9999 -RA SCT020 BKN030 15/10 Q1024=
201101161630 METAR LPPR 161630Z 16012KT 9999 SCT020 BKN030 15/10 Q1024=
201101161600 METAR LPPR 161600Z 16013KT 9999 SCT025 BKN040 15/10 Q1024=
201101161530 METAR LPPR 161530Z 16013KT 9999 SCT030 BKN045 15/10 Q1024=
201101161500 METAR LPPR 161500Z 16014KT 9999 SCT030 BKN050 15/10 Q1024=
201101161430 METAR LPPR 161430Z 17017KT 9999 SCT025 BKN040 15/10 Q1024=
201101161400 METAR LPPR 161400Z 17015KT 9999 SCT020 BKN040 15/10 Q1025=
201101161330 METAR LPPR 161330Z 17015KT 9999 FEW017 SCT023 BKN035 15/10
                        Q1025=
201101161300 METAR LPPR 161300Z 17014KT 9999 SCT023 BKN035 BKN070 16/10
                        Q1025=
201101161230 METAR LPPR 161230Z 16011KT 9999 SCT030 BKN070 15/10 Q1025=
201101161200 METAR LPPR 161200Z 14007KT 9999 FEW025 SCT060 BKN080 14/09
                        Q1025=
201101161130 METAR LPPR 161130Z 14009KT CAVOK 14/08 Q1026=
201101161100 METAR LPPR 161100Z 14010KT 9999 FEW025 SCT060 BKN090 14/08
                        Q1026=
201101161030 METAR LPPR 161030Z 13009KT 100V160 9999 SCT025 SCT060 BKN100
                        13/08 Q1026=
201101161000 METAR LPPR 161000Z 12008KT 9999 SCT020 BKN250 12/08 Q1026=
201101160930 METAR LPPR 160930Z 12007KT 9999 SCT017 BKN025 11/08 Q1026=
201101160900 METAR LPPR 160900Z 12009KT 9999 SCT018 BKN027 11/08 Q1025=
201101160830 METAR LPPR 160830Z 12008KT 9999 SCT020 BKN250 11/08 Q1025=
201101160800 METAR LPPR 160800Z 12008KT 9999 FEW025 BKN250 11/08 Q1025=
201101160730 METAR LPPR 160730Z 12007KT 9999 FEW030 SCT250 11/08 Q1025=
201101160700 METAR LPPR 160700Z 12008KT 9999 FEW030 11/08 Q1025=
201101160630 METAR LPPR 160630Z 13006KT 9999 FEW040 10/08 Q1025=
201101160600 METAR LPPR 160600Z 12008KT 9999 FEW040 10/08 Q1025=
201101160530 METAR LPPR 160530Z 12006KT 9999 SCT040 10/08 Q1025=
201101160500 METAR LPPR 160500Z 13006KT 100V160 9999 SCT040 11/08 Q1025=
201101160430 METAR LPPR 160430Z 12006KT 9999 BKN040 11/08 Q1025=
201101160400 METAR LPPR 160400Z 11008KT 9999 BKN040 11/08 Q1025=
201101160330 METAR LPPR 160330Z 11004KT 9999 BKN040 10/08 Q1025=
201101160300 METAR LPPR 160300Z VRB01KT 9999 SCT040 09/07 Q1025=
201101160230 METAR LPPR 160230Z 11006KT 9999 FEW040 10/08 Q1025=
201101160200 METAR LPPR 160200Z 11006KT 9999 FEW040 11/08 Q1025=
201101160130 METAR LPPR 160130Z 11006KT 9999 SCT040 11/08 Q1025=
201101160100 METAR LPPR 160100Z 11006KT 9999 BKN040 11/08 Q1025=
201101160030 METAR LPPR 160030Z 12006KT 090V150 9999 BKN040 12/08 Q1025=
201101160000 METAR LPPR 160000Z 11006KT 9999 BKN045 12/08 Q1025=
201101152330 METAR LPPR 152330Z 10006KT 9999 BKN045 12/08 Q1025=
201101152300 METAR LPPR 152300Z 11006KT 9999 BKN045 12/08 Q1025=
201101152230 METAR LPPR 152230Z 11006KT 9999 BKN045 12/09 Q1025=
201101152200 METAR LPPR 152200Z 11006KT 9999 BKN045 13/09 Q1025=
201101152130 METAR LPPR 152130Z 11007KT 9999 BKN045 13/09 Q1025=
201101152100 METAR LPPR 152100Z 12006KT 9999 BKN045 13/09 Q1025=
201101152030 METAR LPPR 152030Z 12005KT 9999 SCT040 BKN045 13/09 Q1025=
201101152000 METAR LPPR 152000Z 13003KT 9999 SCT035 BKN040 13/10 Q1025=
201101151930 METAR LPPR 151930Z 12005KT 9999 SCT035 BKN045 13/10 Q1025=
201101151900 METAR LPPR 151900Z 12004KT 9999 FEW030 BKN040 14/10 Q1025=
201101151830 METAR LPPR 151830Z 12004KT 9999 FEW030 BKN040 14/10 Q1025=
201101151800 METAR LPPR 151800Z 12005KT 9999 FEW030 BKN040 14/10 Q1025=
201101151730 METAR LPPR 151730Z 15003KT 9999 FEW030 BKN040 14/10 Q1025=
201101151700 METAR LPPR 151700Z 16004KT 9999 FEW030 BKN040 14/10 Q1025=
201101151630 METAR LPPR 151630Z 14004KT 100V170 9999 FEW030 BKN040 15/10
                        Q1025=
201101151600 METAR LPPR 151600Z 15006KT 9999 BKN040 15/09 Q1025=
201101151530 METAR LPPR 151530Z 16007KT 9999 BKN040 15/10 Q1025=
201101151500 METAR LPPR 151500Z 13005KT 9999 BKN040 15/09 Q1025=
201101151430 METAR LPPR 151430Z 11004KT 080V150 9999 BKN040 14/10 Q1025=
201101151400 METAR LPPR 151400Z 10004KT 070V130 9999 BKN040 14/10 Q1025=
201101151330 METAR LPPR 151330Z 10005KT 9999 OVC040 13/09 Q1025=
201101151300 METAR LPPR 151300Z 10005KT 9999 OVC035 13/09 Q1026=
201101151230 METAR LPPR 151230Z 10006KT 9999 OVC035 13/09 Q1026=
201101151200 METAR LPPR 151200Z 10006KT 9999 OVC035 13/09 Q1027=
201101151130 METAR LPPR 151130Z 10006KT 9999 OVC035 12/08 Q1027=
201101151100 METAR LPPR 151100Z 10008KT 9999 OVC035 12/08 Q1027=
201101151030 METAR LPPR 151030Z 10008KT 9999 OVC035 12/08 Q1027=
201101151000 METAR LPPR 151000Z 10007KT 9999 BKN035 11/08 Q1027=
201101150930 METAR LPPR 150930Z 10008KT 9999 BKN035 11/07 Q1026=
201101150900 METAR LPPR 150900Z 11008KT 9999 BKN035 10/07 Q1026=
201101150830 METAR LPPR 150830Z 11008KT 9999 SCT035 09/07 Q1026=
201101150800 METAR LPPR 150800Z 11008KT CAVOK 09/06 Q1026=
201101150730 METAR LPPR 150730Z 11007KT CAVOK 09/06 Q1026=
201101150700 METAR LPPR 150700Z 11008KT CAVOK 09/06 Q1026=
201101150630 METAR LPPR 150630Z 11007KT CAVOK 09/06 Q1026=
201101150600 METAR LPPR 150600Z 11007KT CAVOK 09/06 Q1025=
201101150530 METAR LPPR 150530Z 11008KT CAVOK 09/06 Q1025=
201101150500 METAR LPPR 150500Z 11009KT CAVOK 09/07 Q1025=
201101150430 METAR LPPR 150430Z 11009KT CAVOK 09/07 Q1025=
201101150400 METAR LPPR 150400Z 11009KT CAVOK 09/07 Q1026=
201101150330 METAR LPPR 150330Z 10008KT CAVOK 10/07 Q1026=
201101150300 METAR LPPR 150300Z 10008KT CAVOK 10/07 Q1026=
201101150230 METAR LPPR 150230Z 10008KT CAVOK 10/07 Q1026=
201101150200 METAR LPPR 150200Z 11008KT CAVOK 10/07 Q1026=
201101150130 METAR LPPR 150130Z 11007KT CAVOK 10/08 Q1026=
201101150100 METAR LPPR 150100Z 09006KT 8000 SKC 10/08 Q1026=
201101150030 METAR LPPR 150030Z 10006KT 7000 SKC 10/08 Q1026=
201101150000 METAR LPPR 150000Z 11004KT 070V130 7000 SKC 10/08 Q1026=
201101142330 METAR LPPR 142330Z 11006KT 8000 SKC 10/09 Q1027=
201101142300 METAR LPPR 142300Z 10006KT 8000 SKC 10/09 Q1027=
201101142230 METAR LPPR 142230Z 10005KT 8000 SKC 10/09 Q1027=
201101142200 METAR LPPR 142200Z VRB02KT 7000 SKC 10/09 Q1027=
201101142130 METAR LPPR 142130Z 10004KT 020V120 5000 BR SKC 11/10 Q1027=
201101142100 METAR LPPR 142100Z 00000KT 7000 SKC 09/08 Q1027=
201101142030 METAR LPPR 142030Z 10001KT CAVOK 10/09 Q1026=
201101142000 METAR LPPR 142000Z 00000KT CAVOK 10/09 Q1026=
201101141930 METAR LPPR 141930Z 00000KT CAVOK 10/09 Q1026=
201101141900 METAR LPPR 141900Z 08001KT CAVOK 11/10 Q1025=
201101141830 METAR LPPR 141830Z 00000KT CAVOK 11/09 Q1025=
201101141800 METAR LPPR 141800Z 00000KT CAVOK 12/10 Q1025=
201101141730 METAR LPPR 141730Z 00000KT 9999 SCT035 14/11 Q1025=
201101141700 METAR LPPR 141700Z VRB01KT 9999 SCT040 15/11 Q1025=
201101141630 METAR LPPR 141630Z VRB02KT 9999 FEW020 BKN040 15/12 Q1025=
201101141600 METAR LPPR 141600Z VRB03KT 9999 FEW020 BKN035 15/11 Q1024=
201101141530 METAR LPPR 141530Z 23005KT 200V260 9999 FEW020 BKN035 15/10
                        Q1024=
201101141500 METAR LPPR 141500Z 22006KT 200V260 9999 FEW020 BKN030 16/10
                        Q1024=
201101141430 METAR LPPR 141430Z 20005KT 170V240 9999 SCT020 17/10 Q1024=
201101141400 METAR LPPR 141400Z 20006KT 170V230 9999 SCT020 17/10 Q1024=
201101141330 METAR LPPR 141330Z 21004KT 180V240 9999 FEW015 SCT045 16/10
                        Q1025=
201101141300 METAR LPPR 141300Z VRB03KT 9999 FEW015 BKN045 16/10 Q1025=
201101141230 METAR LPPR 141230Z VRB03KT 9999 FEW015 BKN045 16/10 Q1025=
201101141200 METAR LPPR 141200Z 13006KT 090V160 9999 SCT040 15/10 Q1025=
201101141130 METAR LPPR 141130Z 12007KT 9999 SCT040 14/10 Q1025=
201101141100 METAR LPPR 141100Z 12006KT 9999 FEW025 BKN040 13/09 Q1025=
201101141030 METAR LPPR 141030Z 12006KT 9999 FEW025 BKN040 12/09 Q1025=
201101141000 METAR LPPR 141000Z 11006KT 9999 FEW025 BKN040 11/09 Q1024=
201101140930 METAR LPPR 140930Z 11005KT 9999 FEW025 BKN045 11/09 Q1024=
201101140900 METAR LPPR 140900Z 11006KT 9999 FEW025 BKN045 11/08 Q1024=
201101140830 METAR LPPR 140830Z 12007KT 9999 FEW025 BKN040 10/08 Q1023=
201101140800 METAR LPPR 140800Z 11007KT 9999 FEW025 SCT033 BKN040 10/08
                        Q1023=
201101140730 METAR LPPR 140730Z 12005KT 8000 FEW025 SCT033 BKN040 10/08
                        Q1023=
201101140700 METAR LPPR 140700Z 12006KT 8000 FEW025 BKN040 10/08 Q1023=
201101140630 METAR LPPR 140630Z 11006KT 8000 FEW025 BKN042 10/08 Q1022=
201101140600 METAR LPPR 140600Z 15004KT 110V210 9999 BKN045 10/08 Q1022=
201101140530 METAR LPPR 140530Z 12005KT 9999 BKN045 10/08 Q1022=
201101140500 METAR LPPR 140500Z 11004KT 9999 SCT045 10/08 Q1022=
201101140430 METAR LPPR 140430Z 12005KT CAVOK 10/08 Q1022=
201101140400 METAR LPPR 140400Z 11007KT 9999 FEW030 10/08 Q1022=
201101140330 METAR LPPR 140330Z 11007KT 9999 SCT030 10/08 Q1022=
201101140300 METAR LPPR 140300Z 11007KT 9999 FEW025 BKN030 11/08 Q1022=
201101140230 METAR LPPR 140230Z 10007KT 9999 FEW025 BKN030 10/08 Q1022=
201101140200 METAR LPPR 140200Z 10005KT 9999 FEW025 BKN030 11/09 Q1021=
201101140130 METAR LPPR 140130Z 11007KT 9999 BKN035 11/09 Q1022=
201101140100 METAR LPPR 140100Z 11007KT 9999 SCT030 BKN040 11/09 Q1022=
201101140030 METAR LPPR 140030Z 11006KT 8000 SCT030 BKN040 11/09 Q1022=
201101140000 METAR LPPR 140000Z 11007KT 8000 SCT030 BKN040 12/09 Q1022=
201101132330 METAR LPPR 132330Z 11007KT 8000 SCT030 BKN040 12/09 Q1022=
201101132300 METAR LPPR 132300Z 11007KT 8000 SCT030 BKN035 12/09 Q1022=
201101132230 METAR LPPR 132230Z 11007KT 7000 BKN030 11/09 Q1022=
201101132200 METAR LPPR 132200Z 11007KT 9999 FEW030 11/09 Q1022=
201101132130 METAR LPPR 132130Z 11004KT 9999 SCT030 10/09 Q1022=
201101132100 METAR LPPR 132100Z 11005KT 9999 SCT030 10/09 Q1022=
201101132030 METAR LPPR 132030Z 11002KT 9999 SCT030 10/08 Q1022=
201101132000 METAR LPPR 132000Z 00000KT CAVOK 10/08 Q1022=
201101131930 METAR LPPR 131930Z 00000KT CAVOK 10/08 Q1022=
201101131900 METAR LPPR 131900Z 00000KT CAVOK 10/08 Q1022=
201101131830 METAR LPPR 131830Z 00000KT 9999 FEW035 11/09 Q1022=
201101131800 METAR LPPR 131800Z 00000KT 9999 FEW035 13/09 Q1022=
201101131730 METAR LPPR 131730Z VRB02KT 9999 FEW035 14/09 Q1022=
201101131700 METAR LPPR 131700Z VRB03KT 9999 FEW025 16/09 Q1023=
201101131630 METAR LPPR 131630Z 19005KT 170V230 9999 FEW020 16/08 Q1023=
201101131600 METAR LPPR 131600Z 20005KT 160V220 9999 FEW020 17/08 Q1023=
201101131530 METAR LPPR 131530Z VRB03KT 9999 FEW020 SCT035 17/08 Q1023=
201101131500 METAR LPPR 131500Z 25004KT 150V270 9999 FEW018 BKN035 17/09
                        Q1023=
201101131430 METAR LPPR 131430Z VRB03KT 9999 FEW018 BKN035 17/08 Q1023=
201101131400 METAR LPPR 131400Z 21004KT 180V250 9999 FEW018 BKN035 17/08
                        Q1024=
201101131330 METAR LPPR 131330Z 19004KT 140V220 9999 FEW018 SCT035 18/09
                        Q1024=
201101131300 METAR LPPR 131300Z 19004KT 9999 FEW018 SCT035 16/09 Q1025=
201101131230 METAR LPPR 131230Z 17006KT 9999 FEW018 SCT040 17/09 Q1025=
201101131200 METAR LPPR 131200Z 14005KT 110V180 CAVOK 16/10 Q1026=
201101131130 METAR LPPR 131130Z 13006KT 100V170 CAVOK 15/09 Q1026=
201101131100 METAR LPPR 131100Z 13008KT CAVOK 14/09 Q1026=
201101131030 METAR LPPR 131030Z 12008KT CAVOK 14/09 Q1026=
201101131000 METAR LPPR 131000Z 12007KT CAVOK 13/09 Q1026=
201101130930 METAR LPPR 130930Z 12007KT CAVOK 13/09 Q1026=
201101130900 METAR LPPR 130900Z 11006KT 9999 FEW040 12/09 Q1026=
201101130830 METAR LPPR 130830Z 11005KT 080V140 9999 SCT040 12/09 Q1026=
201101130800 METAR LPPR 130800Z VRB03KT 9999 BKN035 11/09 Q1026=
201101130730 METAR LPPR 130730Z VRB01KT 9999 BKN035 12/10 Q1026=
201101130700 METAR LPPR 130700Z 09001KT 9999 BKN035 12/10 Q1026=
201101130630 METAR LPPR 130630Z 09001KT 9999 BKN035 12/11 Q1026=
201101130600 METAR LPPR 130600Z 09001KT 8000 BKN035 12/11 Q1026=
201101130530 METAR LPPR 130530Z VRB01KT 9999 BKN035 13/11 Q1026=
201101130500 METAR LPPR 130500Z 00000KT 9999 BKN030 13/11 Q1027=
201101130430 METAR LPPR 130430Z 00000KT 9999 BKN030 13/11 Q1027=
201101130400 METAR LPPR 130400Z VRB02KT 9999 BKN030 13/11 Q1027=
201101130330 METAR LPPR 130330Z 00000KT 8000 FEW015 BKN030 13/12 Q1027=
201101130300 METAR LPPR 130300Z 13003KT 8000 FEW015 BKN030 13/12 Q1027=
201101130230 METAR LPPR 130230Z 00000KT 7000 FEW012 BKN025 14/12 Q1027=
201101130200 METAR LPPR 130200Z 12002KT 5000 BR FEW012 BKN025 14/12 Q1028=
201101130130 METAR LPPR 130130Z 00000KT 5000 BR FEW012 BKN025 13/12 Q1028=
201101130100 METAR LPPR 130100Z 00000KT 5000 BR FEW012 BKN025 13/12 Q1028=
201101130030 METAR LPPR 130030Z 00000KT 5000 BR FEW012 BKN025 13/13 Q1028=
201101130000 METAR LPPR 130000Z 08002KT 5000 BR FEW012 BKN025 14/13 Q1028=
201101122330 METAR LPPR 122330Z VRB02KT 5000 BR FEW012 BKN025 14/13 Q1029=
201101122300 METAR LPPR 122300Z 12003KT 5000 BR FEW012 BKN025 13/13 Q1029=
201101122230 METAR LPPR 122230Z 00000KT 9999 BR FEW012 BKN025 13/12 Q1029=
201101122200 METAR LPPR 122200Z 01001KT 5000 BR FEW012 BKN025 14/13 Q1029=
201101122130 METAR LPPR 122130Z 00000KT 8000 FEW012 BKN025 14/12 Q1029=
201101122100 METAR LPPR 122100Z 00000KT 9999 FEW012 BKN030 14/12 Q1029=
201101122030 METAR LPPR 122030Z 00000KT 9999 FEW012 BKN030 14/12 Q1029=
201101122000 METAR LPPR 122000Z 00000KT 9999 FEW012 BKN030 14/12 Q1029=
201101121930 METAR LPPR 121930Z 00000KT 9999 FEW012 BKN030 14/12 Q1029=
201101121900 METAR LPPR 121900Z 00000KT 9999 FEW012 BKN030 14/12 Q1029=
201101121830 METAR LPPR 121830Z VRB02KT 9999 FEW012 BKN030 14/12 Q1029=
201101121800 METAR LPPR 121800Z 09002KT 9999 FEW012 BKN030 14/12 Q1029=
201101121730 METAR LPPR 121730Z VRB02KT 9999 FEW012 BKN030 15/12 Q1029=
201101121700 METAR LPPR 121700Z 15004KT 9999 FEW012 SCT025 BKN070 15/12
                        Q1029=
201101121630 METAR LPPR 121630Z VRB03KT 9999 FEW012 BKN020 15/13 Q1029=
201101121600 METAR LPPR 121600Z 27004KT 220V310 9999 FEW012 SCT020 BKN025
                        15/13 Q1029=
201101121530 METAR LPPR 121530Z VRB03KT 9999 SCT013 BKN020 BKN025 15/13
                        Q1029=
201101121500 METAR LPPR 121500Z VRB03KT 9999 SCT020 BKN025 BKN030 16/13
                        Q1029=
201101121430 METAR LPPR 121430Z 23004KT 9999 SCT020 BKN025 BKN030 16/11
                        Q1029=
201101121400 METAR LPPR 121400Z 19004KT 9999 SCT020 BKN040 16/11 Q1029=
201101121330 METAR LPPR 121330Z 18007KT 150V220 9999 FEW020 BKN035 16/11
                        Q1029=
201101121300 METAR LPPR 121300Z VRB03KT 9999 FEW020 BKN035 16/12 Q1030=
201101121230 METAR LPPR 121230Z 12003KT 8000 SCT025 BKN030 15/13 Q1030=
201101121200 METAR LPPR 121200Z VRB03KT 9999 FEW025 BKN030 15/13 Q1030=
201101121130 METAR LPPR 121130Z 11003KT 9999 FEW025 BKN030 15/12 Q1030=
201101121100 METAR LPPR 121100Z VRB02KT 9999 FEW025 BKN030 15/13 Q1031=
201101121030 METAR LPPR 121030Z VRB02KT 9999 FEW025 BKN030 15/13 Q1030=
201101121000 METAR LPPR 121000Z 08001KT 9999 FEW025 BKN030 14/13 Q1030=
201101120930 METAR LPPR 120930Z 00000KT 9999 FEW017 BKN030 14/13 Q1030=
201101120900 METAR LPPR 120900Z VRB01KT 9999 FEW015 BKN030 14/12 Q1030=
201101120830 METAR LPPR 120830Z 11006KT 9999 FEW015 BKN030 14/12 Q1030=
201101120800 METAR LPPR 120800Z 11005KT 9999 FEW015 BKN030 14/12 Q1030=
201101120730 METAR LPPR 120730Z 13006KT 9999 FEW015 BKN025 14/13 Q1029=
201101120700 METAR LPPR 120700Z 13002KT 9999 FEW015 BKN025 13/13 Q1030=
201101120630 METAR LPPR 120630Z 12003KT 9999 FEW015 BKN025 14/13 Q1030=
201101120600 METAR LPPR 120600Z 12003KT 9999 FEW015 BKN025 14/13 Q1030=
201101120530 METAR LPPR 120530Z 14004KT 8000 FEW015 BKN025 14/13 Q1030=
201101120500 METAR LPPR 120500Z 12004KT 9000 FEW015 BKN025 14/13 Q1030=
201101120430 METAR LPPR 120430Z 12004KT 9999 FEW015 BKN025 14/13 Q1030=
201101120400 METAR LPPR 120400Z 13003KT 9999 SCT015 BKN025 14/13 Q1030=
201101120330 METAR LPPR 120330Z 16003KT 9000 SCT015 BKN025 13/13 Q1030=
201101120300 METAR LPPR 120300Z 17002KT 9000 SCT015 BKN025 13/13 Q1030=
201101120230 METAR LPPR 120230Z 18002KT 9000 FEW015 BKN025 13/13 Q1030=
201101120200 METAR LPPR 120200Z 15001KT 8000 FEW015 BKN025 13/13 Q1029=
201101120130 METAR LPPR 120130Z 15002KT 8000 FEW015 SCT030 13/13 Q1030=
201101120100 METAR LPPR 120100Z 14002KT 7000 FEW015 BKN030 13/13 Q1030=
201101120030 METAR LPPR 120030Z 13003KT 7000 FEW015 BKN025 14/13 Q1030=
201101120000 METAR LPPR 120000Z 13004KT 7000 FEW015 BKN030 14/13 Q1030=
201101112330 METAR LPPR 112330Z 12003KT 8000 FEW015 BKN030 13/13 Q1030=
201101112300 METAR LPPR 112300Z 13003KT 6000 FEW015 BKN030 13/13 Q1030=
201101112230 METAR LPPR 112230Z 00000KT 6000 BKN030 13/13 Q1030=
201101112200 METAR LPPR 112200Z 14001KT 6000 BKN030 13/13 Q1030=
201101112130 METAR LPPR 112130Z 00000KT 5000 BR FEW009 BKN030 13/13 Q1030=
201101112100 METAR LPPR 112100Z 00000KT 6000 FEW009 BKN030 13/12 Q1030=
201101112030 METAR LPPR 112030Z VRB01KT 5000 BR FEW009 BKN040 13/12 Q1029=
201101112000 METAR LPPR 112000Z 00000KT 5000 BR FEW009 BKN040 13/12 Q1029=
201101111930 METAR LPPR 111930Z 00000KT 9999 FEW030 BKN040 13/11 Q1029=
201101111900 METAR LPPR 111900Z VRB01KT 9999 SCT030 BKN040 14/13 Q1029=
201101111830 METAR LPPR 111830Z 00000KT 9999 SCT030 BKN040 14/13 Q1029=
201101111800 METAR LPPR 111800Z VRB01KT 9999 FEW020 BKN030 15/13 Q1028=
201101111730 METAR LPPR 111730Z VRB02KT 9999 FEW020 BKN030 15/13 Q1028=
201101111700 METAR LPPR 111700Z VRB01KT 9999 FEW020 BKN030 15/13 Q1028=
201101111630 METAR LPPR 111630Z VRB03KT 9999 FEW020 BKN030 15/13 Q1028=
201101111600 METAR LPPR 111600Z VRB03KT 9999 FEW020 BKN030 15/13 Q1027=
201101111530 METAR LPPR 111530Z 24004KT 150V280 9999 FEW020 BKN030 15/13
                        Q1027=
201101111500 METAR LPPR 111500Z 25004KT 210V310 9999 FEW020 BKN030 16/13
                        Q1027=
201101111430 METAR LPPR 111430Z 24005KT 200V260 9999 FEW020 BKN030 16/13
                        Q1027=
201101111400 METAR LPPR 111400Z 26005KT 220V290 9999 FEW020 BKN030 16/13
                        Q1027=
201101111330 METAR LPPR 111330Z 28006KT 250V320 9999 FEW025 BKN030 16/13
                        Q1027=
201101111300 METAR LPPR 111300Z 27006KT 230V300 9999 FEW025 BKN030 16/14
                        Q1027=
201101111230 METAR LPPR 111230Z 26004KT 210V310 9999 FEW025 SCT030 16/13
                        Q1027=
201101111200 METAR LPPR 111200Z 26004KT 180V340 9999 FEW025 BKN030 15/14
                        Q1027=
201101111130 METAR LPPR 111130Z VRB03KT 9999 FEW025 BKN030 15/14 Q1027=
201101111100 METAR LPPR 111100Z VRB03KT 9999 FEW025 BKN030 15/14 Q1027=
201101111030 METAR LPPR 111030Z 27004KT 170V320 9999 FEW025 BKN030 15/14
                        Q1027=
201101111000 METAR LPPR 111000Z VRB03KT 9999 FEW025 BKN030 15/13 Q1027=
201101110930 METAR LPPR 110930Z VRB03KT 9999 FEW025 BKN030 15/13 Q1026=
201101110900 METAR LPPR 110900Z VRB03KT 9999 FEW025 BKN030 14/13 Q1026=
201101110830 METAR LPPR 110830Z VRB02KT 9999 SCT015 BKN030 14/14 Q1026=
201101110800 METAR LPPR 110800Z VRB02KT 9999 SCT013 BKN030 14/14 Q1025=
201101110730 METAR LPPR 110730Z VRB03KT 9999 SCT013 BKN030 14/14 Q1025=
201101110700 METAR LPPR 110700Z VRB03KT 9999 FEW008 BKN025 14/14 Q1024=
201101110630 METAR LPPR 110630Z VRB03KT 9999 FEW008 BKN030 14/14 Q1024=
201101110600 METAR LPPR 110600Z VRB03KT 9999 FEW008 BKN030 14/14 Q1024=
201101110530 METAR LPPR 110530Z 27005KT 240V300 9999 FEW008 BKN030 14/14
                        Q1024=
201101110500 METAR LPPR 110500Z 27005KT 240V300 9999 FEW008 BKN030 14/14
                        Q1024=
201101110430 METAR LPPR 110430Z 28004KT 240V310 9999 FEW008 SCT015 BKN040
                        14/13 Q1024=
201101110400 METAR LPPR 110400Z 26006KT 230V290 9999 FEW009 SCT016 BKN035
                        14/13 Q1023=
201101110330 METAR LPPR 110330Z 24004KT 9999 FEW013 BKN040 14/14 Q1023=
201101110300 METAR LPPR 110300Z VRB03KT 9999 FEW013 BKN040 14/13 Q1023=
201101110230 METAR LPPR 110230Z 27007KT 240V320 9999 FEW013 BKN040 14/13
                        Q1023=
201101110200 METAR LPPR 110200Z 26005KT 210V290 9999 SCT013 BKN040 15/14
                        Q1023=
201101110130 METAR LPPR 110130Z 25005KT 210V280 9999 SCT013 BKN045 14/14
                        Q1023=
201101110100 METAR LPPR 110100Z 23005KT 190V270 9999 SCT013 BKN040 14/14
                        Q1022=
201101110030 METAR LPPR 110030Z 23004KT 200V270 9999 FEW013 BKN040 14/14
                        Q1023=
201101110000 METAR LPPR 110000Z 23005KT 9999 SCT020 BKN040 14/14 Q1022=
201101102330 METAR LPPR 102330Z 22004KT 9999 SCT030 BKN040 14/13 Q1022=
201101102300 METAR LPPR 102300Z 19004KT 9999 OVC030 13/13 Q1022=
201101102230 METAR LPPR 102230Z 19004KT 150V230 9999 OVC030 13/13 Q1022=
201101102200 METAR LPPR 102200Z 19002KT 9999 BKN030 13/13 Q1022=
201101102130 METAR LPPR 102130Z VRB03KT 9999 BKN030 13/13 Q1022=
201101102100 METAR LPPR 102100Z 17003KT 9999 FEW012 BKN025 13/13 Q1022=
201101102030 METAR LPPR 102030Z 00000KT 9999 FEW009 SCT012 BKN020 14/13
                        Q1022=
201101102000 METAR LPPR 102000Z VRB01KT 8000 -DZ SCT004 BKN017 14/13 Q1022=
201101101930 METAR LPPR 101930Z 30005KT 270V330 6000 -DZ SCT003 BKN006
                        14/13 Q1021=
201101101900 METAR LPPR 101900Z VRB01KT 2500 -DZ BR BKN003 BKN004 14/14
                        Q1021=
201101101830 METAR LPPR 101830Z 19002KT 7000 SCT004 BKN013 14/13 Q1021=
201101101800 METAR LPPR 101800Z 00000KT 7000 SCT004 BKN015 14/14 Q1020=
201101101730 METAR LPPR 101730Z VRB01KT 7000 -DZ SCT004 SCT006 BKN013
                        14/14 Q1020=
201101101700 METAR LPPR 101700Z VRB03KT 8000 BKN004 BKN015 14/14 Q1020=
201101101630 METAR LPPR 101630Z 30008KT 270V330 9000 SCT003 BKN012 14/14
                        Q1020=
201101101600 METAR LPPR 101600Z 29007KT 210V320 3000 -RADZ BR SCT002 BKN004
                        15/14 Q1020=
201101101530 METAR LPPR 101530Z 28007KT 240V330 1100 R17/P1500 R35/P1500
                        -RADZ BR=
201101101500 METAR LPPR 101500Z 29010KT 210V320 2000 -DZ BR SCT001 BKN002
                        15/15 Q1019=
201101101430 METAR LPPR 101430Z 22010KT 190V250 1500 -RA BR SCT001 BKN004
                        15/15 Q1018=
201101101400 METAR LPPR 101400Z 20011KT 1200 R17/P1500 R35/1300N -RA BR
                        SCT001 BKN004 14/14 Q1019=
201101101330 METAR LPPR 101330Z 18018KT 2000 -RA BR SCT001 BKN004 13/13
                        Q1019 WS ALL RWY=
201101101300 METAR LPPR 101300Z 18017KT 1200 R17/1400VP1500 R35/1200N
                        RA BR SCT001 BKN003 12/12 Q1019=
201101101230 METAR LPPR 101230Z 18018KT 2000 -RADZ BR SCT003 BKN004 12/11
                        Q1020=
201101101200 METAR LPPR 101200Z 18017KT 2000 -RADZ BR SCT003 BKN004 12/11
                        Q1020=
201101101130 METAR LPPR 101130Z 18020KT 4000 -RADZ BR SCT005 BKN007 12/11
                        Q1020=
201101101100 METAR LPPR 101100Z 18020KT 2000 -RADZ BR SCT005 BKN007 11/11
                        Q1020=
201101101030 METAR LPPR 101030Z 17020KT 5000 -RA BR SCT005 BKN007 11/11
                        Q1020=
201101101000 METAR LPPR 101000Z 16012KT 6000 -RA FEW005 SCT007 BKN020
                        11/10 Q1020=
201101100930 METAR LPPR 100930Z 14008KT 4000 -RA BR FEW006 SCT009 BKN020
                        10/09 Q1021=
201101100900 METAR LPPR 100900Z 14010KT 5000 -RA BR SCT008 BKN015 10/09
                        Q1020=
201101100830 METAR LPPR 100830Z 13009KT 3000 -RA BR SCT008 BKN018 10/09
                        Q1020=
201101100800 METAR LPPR 100800Z 13010KT 9999 -RADZ SCT020 BKN025 10/08
                        Q1020=
201101100730 METAR LPPR 100730Z 13009KT 9999 -RADZ SCT020 BKN025 10/07
                        Q1020=
201101100700 METAR LPPR 100700Z 12009KT 9999 BKN025 09/07 Q1020=
201101100630 METAR LPPR 100630Z 13010KT 9999 -RADZ SCT020 BKN025 10/07
                        Q1020=
201101100600 METAR LPPR 100600Z 13010KT 9999 BKN030 10/06 Q1020=
201101100530 METAR LPPR 100530Z 13009KT 9999 BKN035 09/07 Q1021=
201101100500 METAR LPPR 100500Z 12010KT 9999 SCT035 BKN050 09/06 Q1021=
201101100430 METAR LPPR 100430Z 11010KT 9999 SCT040 BKN050 09/06 Q1021=
201101100400 METAR LPPR 100400Z 11010KT 9999 SCT040 BKN050 08/06 Q1021=
201101100330 METAR LPPR 100330Z 11009KT 9999 -RADZ SCT025 BKN050 09/06
                        Q1021=
201101100300 METAR LPPR 100300Z 11010KT CAVOK 08/06 Q1021=
201101100230 METAR LPPR 100230Z 12010KT CAVOK 08/06 Q1021=
201101100200 METAR LPPR 100200Z 11010KT CAVOK 08/05 Q1021=
201101100130 METAR LPPR 100130Z 11008KT CAVOK 08/05 Q1021=
201101100100 METAR LPPR 100100Z 11008KT CAVOK 08/06 Q1022=
201101100030 METAR LPPR 100030Z 11008KT CAVOK 08/06 Q1022=
201101100000 METAR LPPR 100000Z 11008KT CAVOK 08/06 Q1022=
201101092330 METAR LPPR 092330Z 11008KT CAVOK 08/06 Q1022=
201101092300 METAR LPPR 092300Z 11008KT CAVOK 08/06 Q1022=
201101092230 METAR LPPR 092230Z 11006KT CAVOK 08/06 Q1022=
201101092200 METAR LPPR 092200Z 11006KT CAVOK 08/06 Q1022=
201101092130 METAR LPPR 092130Z 11002KT CAVOK 07/05 Q1022=
201101092100 METAR LPPR 092100Z 00000KT CAVOK 07/05 Q1022=
201101092030 METAR LPPR 092030Z 00000KT CAVOK 08/05 Q1022=
201101092000 METAR LPPR 092000Z VRB01KT CAVOK 08/05 Q1022=
201101091930 METAR LPPR 091930Z 00000KT CAVOK 08/05 Q1021=
201101091900 METAR LPPR 091900Z VRB01KT CAVOK 09/05 Q1021=
201101091830 METAR LPPR 091830Z 00000KT CAVOK 09/05 Q1021=
201101091800 METAR LPPR 091800Z VRB02KT 9999 FEW017 11/04 Q1021=
201101091730 METAR LPPR 091730Z VRB03KT 9999 FEW017 SCT250 12/04 Q1020=
201101091700 METAR LPPR 091700Z 30006KT 9999 FEW017 SCT050 13/04 Q1020=
201101091630 METAR LPPR 091630Z 30004KT 270V020 9999 FEW017 SCT050 BKN250
                        13/04 Q1020=
201101091600 METAR LPPR 091600Z 29006KT 260V330 9999 FEW017 SCT250 13/05
                        Q1020=
201101091530 METAR LPPR 091530Z 31008KT 9999 FEW017 13/04 Q1019=
201101091500 METAR LPPR 091500Z 31008KT 280V340 9999 FEW017 13/05 Q1019=
201101091430 METAR LPPR 091430Z 32009KT 9999 FEW017 13/06 Q1019=
201101091400 METAR LPPR 091400Z 32009KT 290V350 9999 FEW017 13/07 Q1019=
201101091330 METAR LPPR 091330Z 32009KT 290V350 9999 FEW017 13/07 Q1019=
201101091300 METAR LPPR 091300Z 33010KT 290V360 9999 FEW017 13/06 Q1019=
201101091230 METAR LPPR 091230Z 32009KT 290V350 9999 FEW017 13/07 Q1019=
201101091200 METAR LPPR 091200Z 32010KT 290V350 9999 FEW017 13/07 Q1019=
201101091130 METAR LPPR 091130Z 32008KT 9999 FEW017 12/07 Q1019=
201101091100 METAR LPPR 091100Z 33006KT 9999 FEW020 12/09 Q1019=
201101091030 METAR LPPR 091030Z 33007KT 290V010 9999 FEW020 12/09 Q1019=
201101091000 METAR LPPR 091000Z 33007KT 9999 FEW020 SCT250 11/09 Q1019=
201101090930 METAR LPPR 090930Z 33006KT 9999 FEW020 SCT100 BKN250 10/09
                        Q1018=
201101090900 METAR LPPR 090900Z 34004KT 9999 FEW020 SCT040 BKN100 09/08
                        Q1018=
201101090830 METAR LPPR 090830Z 34004KT 9999 FEW020 BKN040 08/08 Q1018=
201101090800 METAR LPPR 090800Z 35003KT 9999 FEW020 BKN040 09/08 Q1017=
201101090730 METAR LPPR 090730Z 35002KT 9999 FEW020 BKN040 09/09 Q1017=
201101090700 METAR LPPR 090700Z 33004KT 270V360 9999 FEW020 BKN040 10/09
                        Q1017=
201101090630 METAR LPPR 090630Z 34004KT 300V360 9999 FEW015 BKN040 10/09
                        Q1016=
201101090600 METAR LPPR 090600Z 33003KT 9000 FEW009 SCT012 BKN025 10/09
                        Q1016=
201101090530 METAR LPPR 090530Z 33003KT 8000 FEW008 SCT012 BKN030 10/09
                        Q1016=
201101090500 METAR LPPR 090500Z 35001KT 8000 FEW007 SCT012 BKN025 10/09
                        Q1015=
201101090430 METAR LPPR 090430Z VRB01KT 9000 FEW008 SCT012 BKN025 10/09
                        Q1015=
201101090400 METAR LPPR 090400Z 05004KT 340V080 8000 -RA SCT008 BKN012
                        BKN025 10/09 Q1015=
201101090330 METAR LPPR 090330Z 00000KT 8000 -RA FEW012 SCT016 BKN025
                        10/09 Q1015=
201101090300 METAR LPPR 090300Z VRB02KT 9999 FEW012 SCT020 BKN030 10/09
                        Q1015=
201101090230 METAR LPPR 090230Z 13004KT 9999 FEW015 SCT025 BKN030 10/09
                        Q1014=
201101090200 METAR LPPR 090200Z VRB02KT 9999 FEW015 SCT030 BKN040 09/08
                        Q1014=
201101090130 METAR LPPR 090130Z 15004KT 9999 FEW015 SCT030 10/09 Q1014=
201101090100 METAR LPPR 090100Z 14006KT 9999 FEW006 SCT012 BKN040 10/10
                        Q1014=
201101090030 METAR LPPR 090030Z 16007KT 8000 FEW005 SCT012 BKN030 11/10
                        Q1014=
201101090000 METAR LPPR 090000Z 13005KT 8000 FEW012 BKN025 BKN040 11/10
                        Q1014=
201101082330 METAR LPPR 082330Z 16008KT 6000 -RA FEW012 BKN025 BKN040
                        11/11 Q1014=
201101082300 METAR LPPR 082300Z VRB03KT 5000 RA FEW012 BKN025 BKN050 11/11
                        Q1014=
201101082230 METAR LPPR 082230Z 36004KT 330V040 5000 -SHRA FEW012 BKN017
                        BKN040 11/11 Q1014=
201101082200 METAR LPPR 082200Z 34002KT 8000 -SHRA FEW013 BKN030 12/11
                        Q1013=
201101082130 METAR LPPR 082130Z 17007KT 130V190 8000 -SHRA BKN015 BKN040
                        12/11 Q1013 RERA=
201101082100 METAR LPPR 082100Z 12007KT 8000 SCT017 12/11 Q1013=
201101082030 METAR LPPR 082030Z 00000KT 9999 SCT017 SCT050 11/10 Q1013=
201101082000 METAR LPPR 082000Z VRB02KT 9999 FEW017 SCT050 12/11 Q1012=
201101081930 METAR LPPR 081930Z VRB03KT 9999 SCT017 BKN040 12/11 Q1012=
201101081900 METAR LPPR 081900Z VRB02KT 9999 SCT017 12/10 Q1012=
201101081830 METAR LPPR 081830Z 19002KT 9999 SCT017 FEW025TCU 12/10 Q1011=
201101081800 METAR LPPR 081800Z VRB01KT 9999 SCT017 FEW025TCU 12/10 Q1011=
201101081730 METAR LPPR 081730Z VRB03KT 8000 SCT017 SCT050 13/11 Q1011
                        RERA=
201101081700 METAR LPPR 081700Z VRB02KT 4000 SHRA BKN017 13/12 Q1011=
201101081630 METAR LPPR 081630Z 17004KT 9999 SCT017 BKN045 14/12 Q1010=
201101081600 METAR LPPR 081600Z 16005KT 9999 SCT017 SCT040 13/12 Q1010=
201101081530 METAR LPPR 081530Z 17007KT 9999 SCT017 BKN040 12/11 Q1010=
201101081500 METAR LPPR 081500Z 18009KT 9999 FEW008 SCT017 BKN040 12/11
                        Q1010=
201101081430 METAR LPPR 081430Z 19008KT 160V230 6000 -SHRA FEW006 SCT013
                        BKN040 12/11 Q1010 RERA=
201101081400 METAR LPPR 081400Z 20009KT 170V260 4000 SHRA BR SCT005 SCT013
                        BKN035 12/11 Q1009 RERA=
201101081330 METAR LPPR 081330Z 26007KT 220V310 3000 -SHRA BR SCT005 BKN013
                        BKN025 12/10 Q1009=
201101081300 METAR LPPR 081300Z 21015G25KT 6000 -SHRA SCT009 SCT015 BKN030
                        14/11 Q1009 WS ALL RWY=
201101081230 METAR LPPR 081230Z 21012G22KT 9999 SCT013 FEW020CB BKN060
                        14/10 Q1009=
201101081200 METAR LPPR 081200Z 21019G29KT 9000 FEW008 SCT015 FEW020CB
                        BKN060 14/11 Q1009 WS ALL RWY=
201101081130 METAR LPPR 081130Z 18018KT 7000 -SHRA SCT008 BKN015 BKN020
                        15/13 Q1009 WS ALL RWY=
201101081100 METAR LPPR 081100Z 19023G33KT 8000 SCT009 SCT013 BKN020 15/13
                        Q1009 WS ALL RWY=
201101081030 METAR LPPR 081030Z 19021G31KT 9000 SCT008 SCT012 BKN018 13/13
                        Q1009 RERA WS ALL RWY=
201101081000 METAR LPPR 081000Z 16024G34KT 6000 -RA SCT009 SCT013 BKN020
                        13/12 Q1008 WS ALL RWY=
201101080930 METAR LPPR 080930Z 17022KT 8000 -RA BKN009 BKN017 13/12 Q1008
                        WS ALL RWY=
201101080900 METAR LPPR 080900Z 17021G31KT 8000 SCT006 BKN009 BKN015 13/12
                        Q1008 WS ALL RWY=
201101080830 METAR LPPR 080830Z 17022KT 8000 SCT006 BKN009 BKN015 14/12
                        Q1008=
201101080800 METAR LPPR 080800Z 18022G32KT 9000 BKN007 BKN012 13/13 Q1007
                        WS ALL RWY=
201101080730 METAR LPPR 080730Z 19020G30KT 9999 SCT008 BKN013 13/13 Q1008
                        WS ALL RWY=
201101080700 METAR LPPR 080700Z 18020KT 8000 BKN006 BKN011 13/13 Q1008
                        WS ALL RWY=
201101080630 METAR LPPR 080630Z 19015KT 7000 -DZ SCT004 BKN009 13/13 Q1008
                        WS ALL RWY=
201101080600 METAR LPPR 080600Z 19015KT 4000 -RADZ BR BKN005 BKN009 13/12
                        Q1007 RERA WS ALL RWY=
201101080530 METAR LPPR 080530Z 18016KT 3000 +RADZ BR BKN006 BKN009 13/13
                        Q1007 WS ALL RWY=
201101080500 METAR LPPR 080500Z 19021KT 5000 -RA BR BKN007 BKN012 13/13
                        Q1008 RERA WS ALL RWY=
201101080430 METAR LPPR 080430Z 18019G29KT 4000 RADZ BR BKN006 BKN011
                        14/13 Q1008 WS ALL RWY=
201101080400 METAR LPPR 080400Z 17025G38KT 7000 -RADZ SCT009 BKN012 14/13
                        Q1008 WS ALL RWY=
201101080330 METAR LPPR 080330Z 17022G32KT 8000 -RA FEW008 BKN013 BKN070
                        14/13 Q1008 WS ALL RWY=
201101080300 METAR LPPR 080300Z 17023G33KT 9999 FEW009 BKN013 14/13 Q1009
                        WS ALL RWY=
201101080230 METAR LPPR 080230Z 18013G23KT 9000 SCT008 BKN012 13/13 Q1009
                        RERA WS ALL RWY=
201101080200 METAR LPPR 080200Z 17012KT 7000 RA BKN007 BKN012 13/13 Q1009=
201101080130 METAR LPPR 080130Z 18012KT 4000 RA BR BKN005 BKN009 14/13
                        Q1010=
201101080100 METAR LPPR 080100Z 17015KT 6000 RA SCT007 SCT009 BKN012 14/13
                        Q1011=
201101080030 METAR LPPR 080030Z 18015KT 7000 -RA SCT007 SCT012 BKN020
                        14/13 Q1011 WS ALL RWY=
201101080000 METAR LPPR 080000Z 18016KT 6000 -RA SCT007 SCT013 BKN020
                        14/13 Q1012 WS ALL RWY=
201101072330 METAR LPPR 072330Z 17013KT 9999 FEW007 SCT015 BKN035 14/13
                        Q1012=
201101072300 METAR LPPR 072300Z 18014KT 9999 FEW015 SCT025 BKN040 14/13
                        Q1012=
201101072230 METAR LPPR 072230Z 19014KT 9999 SCT015 BKN045 14/12 Q1012=
201101072200 METAR LPPR 072200Z 19014KT 9999 SCT012 BKN045 15/13 Q1012=
201101072130 METAR LPPR 072130Z 20011KT 9999 FEW015 BKN050 15/13 Q1012=
201101072100 METAR LPPR 072100Z 19011KT 9999 FEW015 BKN045 14/13 Q1011=
201101072030 METAR LPPR 072030Z 19012KT 9999 FEW015 BKN040 15/13 Q1011=
201101072000 METAR LPPR 072000Z 19013KT 160V220 9999 FEW015 BKN040 15/13
                        Q1011=
201101071930 METAR LPPR 071930Z 18013KT 9999 FEW015 BKN045 15/13 Q1011=
201101071900 METAR LPPR 071900Z 18013KT 9999 FEW013 BKN045 15/13 Q1011=
201101071830 METAR LPPR 071830Z 18012KT 9999 FEW018 BKN050 14/13 Q1011=
201101071800 METAR LPPR 071800Z 19012KT 9999 FEW018 BKN050 15/12 Q1011=
201101071730 METAR LPPR 071730Z 19013KT 160V230 9999 FEW017 BKN050 15/12
                        Q1011=
201101071700 METAR LPPR 071700Z 20012KT 8000 FEW018 BKN050 15/13 Q1010=
201101071630 METAR LPPR 071630Z 21014KT 190V250 7000 SCT017 BKN050 15/13
                        Q1010=
201101071600 METAR LPPR 071600Z 22013KT 6000 SCT017 FEW025CB BKN050 15/13
                        Q1010=
201101071530 METAR LPPR 071530Z 21016KT 6000 FEW012 BKN015 FEW025CB 15/14
                        Q1010 WS ALL RWY=
201101071500 METAR LPPR 071500Z 22009KT 200V260 4000 -SHRA FEW012 BKN017
                        FEW025CB BKN030 14/13 Q1009 RERA=
201101071430 METAR LPPR 071430Z 21016KT 4000 SHRA FEW012 BKN017 FEW025CB
                        BKN040 14/13 Q1009=
201101071400 METAR LPPR 071400Z 20021KT 5000 -SHRA SCT017 FEW025CB BKN030
                        15/13 Q1009=
201101071330 METAR LPPR 071330Z 20019KT 8000 SCT017 FEW025CB BKN040 15/13
                        Q1009=
201101071300 METAR LPPR 071300Z 20022KT 4000 SHRA BKN017 FEW025CB BKN030
                        16/13 Q1009=
201101071230 METAR LPPR 071230Z 19022KT 8000 BKN017 FEW025CB BKN050 16/13
                        Q1009=
201101071200 METAR LPPR 071200Z 19021KT 8000 BKN017 FEW025CB BKN050 16/13
                        Q1009=
201101071130 METAR LPPR 071130Z 19023G35KT 8000 BKN017 FEW025CB BKN060
                        16/13 Q1009=
201101071100 METAR LPPR 071100Z 19022KT 8000 SCT017 FEW025CB BKN030 16/13
                        Q1009=
201101071030 METAR LPPR 071030Z 19022KT 8000 SCT017 FEW025CB BKN030 15/13
                        Q1009=
201101071000 METAR LPPR 071000Z 19021KT 7000 -SHRA SCT017 FEW025CB BKN030
                        15/13 Q1008=
201101070930 METAR LPPR 070930Z 20018G28KT 7000 -SHRA SCT017 FEW025CB
                        BKN040 15/13 Q1008=
201101070900 METAR LPPR 070900Z 20017KT 180V250 8000 -SHRA FEW013 SCT017
                        BKN030 15/13 Q1008=
201101070830 METAR LPPR 070830Z 18021KT 7000 -SHRA FEW013 SCT015 BKN024
                        15/13 Q1007=
201101070800 METAR LPPR 070800Z 18021KT 8000 SCT013 BKN023 15/13 Q1007=
201101070730 METAR LPPR 070730Z 18018KT 9999 FEW013 SCT020 BKN070 15/13
                        Q1007=
201101070700 METAR LPPR 070700Z 18018KT 9999 SCT015 SCT020 BKN070 15/13
                        Q1007=
201101070630 METAR LPPR 070630Z 18017KT 9999 FEW015 SCT020 BKN080 15/12
                        Q1007=
201101070600 METAR LPPR 070600Z 19018KT 9999 SCT015 BKN040 BKN090 15/13
                        Q1007=
201101070530 METAR LPPR 070530Z 18017KT 9999 SCT015 SCT020 BKN080 15/13
                        Q1007=
201101070500 METAR LPPR 070500Z 19017KT 9999 SCT015 SCT023 BKN070 15/13
                        Q1007=
201101070430 METAR LPPR 070430Z 19017KT 9999 FEW012 SCT025 BKN070 15/14
                        Q1007=
201101070400 METAR LPPR 070400Z 19017KT 9999 FEW013 SCT025 BKN070 15/14
                        Q1007=
201101070330 METAR LPPR 070330Z 19015KT 9999 FEW009 SCT015 BKN020 15/14
                        Q1007=
201101070300 METAR LPPR 070300Z 19013KT 9999 FEW006 SCT013 BKN025 15/14
                        Q1007=
201101070230 METAR LPPR 070230Z 19015KT 9999 FEW005 SCT012 BKN070 15/14
                        Q1007=
201101070200 METAR LPPR 070200Z 18017KT 8000 SCT004 SCT007 BKN070 15/15
                        Q1006=
201101070130 METAR LPPR 070130Z 19016G30KT 8000 -SHRA SCT004 SCT012 BKN060
                        15/14 Q1006 WS ALL RWY=
201101070100 METAR LPPR 070100Z 18015KT 8000 -SHRA FEW006 SCT012 BKN040
                        15/14 Q1007=
201101070030 METAR LPPR 070030Z 18014KT 9999 SCT017 SCT023 BKN060 15/14
                        Q1007=
201101070000 METAR LPPR 070000Z 18014KT 9999 BKN015 BKN070 15/14 Q1007=
201101062330 METAR LPPR 062330Z 19013KT 9999 BKN012 BKN070 15/14 Q1007=
201101062300 METAR LPPR 062300Z 19014KT 9999 FEW009 BKN013 15/14 Q1006=
201101062230 METAR LPPR 062230Z 20014KT 9999 SCT009 BKN013 15/14 Q1006=
201101062200 METAR LPPR 062200Z 20014KT 9999 SCT005 BKN013 15/14 Q1006=
201101062130 METAR LPPR 062130Z 20013KT 150V220 7000 SCT004 BKN009 15/15
                        Q1006=
201101062100 METAR LPPR 062100Z 20016KT 9000 SCT003 BKN007 15/15 Q1005=
201101062030 METAR LPPR 062030Z 18019KT 8000 -RA SCT003 BKN007 15/14 Q1005
                        WS ALL RWY=
201101062000 METAR LPPR 062000Z 17017KT 9000 -RA BKN007 BKN011 15/14 Q1005=
201101061930 METAR LPPR 061930Z 18013KT 8000 -RA SCT007 BKN013 15/14 Q1005=
201101061900 METAR LPPR 061900Z 18015KT 6000 -RA SCT013 BKN020 15/14 Q1005=
201101061830 METAR LPPR 061830Z 18014KT 8000 SCT015 BKN025 15/14 Q1005=
201101061800 METAR LPPR 061800Z 19013KT 9999 SCT007 SCT012 BKN040 15/14
                        Q1005 WS ALL RWY=
201101061730 METAR LPPR 061730Z 19017KT 6000 SCT004 BKN012 16/15 Q1005
                        WS ALL RWY=
201101061700 METAR LPPR 061700Z 19015KT 7000 SCT004 BKN007 15/15 Q1005
                        WS ALL RWY=
201101061630 METAR LPPR 061630Z 19019G29KT 6000 -RA SCT005 BKN012 16/15
                        Q1005 WS ALL RWY=
201101061600 METAR LPPR 061600Z 18021G34KT 6000 -RA SCT005 BKN009 16/15
                        Q1005 WS ALL RWY=
201101061530 METAR LPPR 061530Z 18024KT 3000 -RADZ BR SCT002 SCT004 BKN060
                        16/15 Q1005 WS ALL RWY=
201101061500 METAR LPPR 061500Z 19025G35KT 1500 RADZ BR BKN002 BKN004
                        16/16 Q1005 RERA WS ALL RWY=
201101061430 METAR LPPR 061430Z 19024KT 2000 RADZ BR BKN002 BKN004 16/16
                        Q1005 WS ALL RWY=
201101061400 METAR LPPR 061400Z 19024G35KT 3000 -RADZ BR SCT003 BKN006
                        16/16 Q1005 RERA WS ALL RWY=
201101061330 METAR LPPR 061330Z 18025KT 4000 RADZ BR BKN003 BKN005 16/16
                        Q1005 WS ALL RWY=
201101061300 METAR LPPR 061300Z 19024KT 5000 RA BR SCT003 BKN007 16/16
                        Q1006 WS ALL RWY=
201101061230 METAR LPPR 061230Z 19025KT 6000 -RA SCT004 BKN007 16/16 Q1006
                        WS ALL RWY=
201101061200 METAR LPPR 061200Z 19026G37KT 3000 RA BR SCT003 BKN006 16/16
                        Q1006 WS ALL RWY=
201101061130 METAR LPPR 061130Z 19025G37KT 6000 -RA SCT004 BKN007 16/15
                        Q1007 WS ALL RWY=
201101061100 METAR LPPR 061100Z 18027KT 7000 -RA SCT004 BKN007 16/15 Q1006
                        WS ALL RWY=
201101061030 METAR LPPR 061030Z 18024KT 6000 -RA SCT003 BKN006 16/15 Q1007
                        WS ALL RWY=
201101061000 METAR LPPR 061000Z 19024KT 5000 -RA BR BKN003 BKN005 16/15
                        Q1007 WS ALL RWY=
201101060930 METAR LPPR 060930Z 19020KT 6000 -RA BKN003 BKN005 16/15 Q1006
                        WS ALL RWY=
201101060900 METAR LPPR 060900Z 19022KT 7000 -RA SCT003 BKN006 16/15 Q1006
                        WS ALL RWY=
201101060830 METAR LPPR 060830Z 19021KT 4000 -RA BR SCT002 BKN004 16/15
                        Q1006 WS ALL RWY=
201101060800 METAR LPPR 060800Z 19020KT 6000 -RA BKN003 BKN005 16/15 Q1006=
201101060730 METAR LPPR 060730Z 19021KT 8000 BKN003 BKN005 16/15 Q1006=
201101060700 METAR LPPR 060700Z 19021KT 6000 -RA BKN003 BKN005 16/15 Q1006=
201101060630 METAR LPPR 060630Z 19021G32KT 160V230 6000 -RA BKN003 BKN005
                        15/15 Q1006=
201101060600 METAR LPPR 060600Z 19021KT 9999 BKN003 BKN005 15/15 Q1006=
201101060530 METAR LPPR 060530Z 19021KT 8000 -RADZ BKN003 BKN005 15/15
                        Q1006=
201101060500 METAR LPPR 060500Z 19019KT 8000 BKN003 BKN005 16/15 Q1006=
201101060430 METAR LPPR 060430Z 18018KT 9000 -RADZ BKN003 BKN005 16/15
                        Q1007=
201101060400 METAR LPPR 060400Z 18019KT 9000 BKN003 BKN005 16/15 Q1007=
201101060330 METAR LPPR 060330Z 19018KT 8000 BKN004 BKN008 16/15 Q1007=
201101060300 METAR LPPR 060300Z 18021KT 8000 -RADZ BKN004 BKN008 16/15
                        Q1007=
201101060230 METAR LPPR 060230Z 19018KT 8000 SCT004 BKN009 BKN020 16/15
                        Q1007=
201101060200 METAR LPPR 060200Z 18019KT 8000 SCT004 BKN008 BKN016 16/15
                        Q1007=
201101060130 METAR LPPR 060130Z 18020KT 8000 SCT004 BKN008 BKN016 16/15
                        Q1007=
201101060100 METAR LPPR 060100Z 19020KT 7000 -DZRA SCT004 BKN008 BKN016
                        16/15 Q1007=
201101060030 METAR LPPR 060030Z 19021KT 8000 SCT004 BKN008 15/15 Q1008=
201101060000 METAR LPPR 060000Z 19020KT 7000 -DZRA SCT003 BKN006 15/15
                        Q1008=
201101052330 METAR LPPR 052330Z 18021KT 7000 -RADZ SCT003 BKN006 16/15
                        Q1008=
201101052300 METAR LPPR 052300Z 18020KT 9999 SCT003 BKN005 16/15 Q1008=
201101052230 METAR LPPR 052230Z 18016KT 7000 SCT002 BKN004 15/15 Q1008=
201101052200 METAR LPPR 052200Z 19017KT 7000 SCT003 BKN005 15/15 Q1008=
201101052130 METAR LPPR 052130Z 19017KT 5000 BR SCT002 BKN004 15/15 Q1008=
201101052100 METAR LPPR 052100Z 19016KT 5000 BR SCT002 BKN006 15/15 Q1008=
201101052030 METAR LPPR 052030Z 19016KT 4000 BR SCT001 BKN006 15/15 Q1008=
201101052000 METAR LPPR 052000Z 19017KT 4000 BR SCT004 BKN006 15/15 Q1008=
201101051930 METAR LPPR 051930Z 19017KT 4000 -RADZ BR SCT004 BKN012 15/15
                        Q1008=
201101051900 METAR LPPR 051900Z 19014KT 5000 BR SCT004 BKN012 15/15 Q1008=
201101051830 METAR LPPR 051830Z 19014KT 5000 BR SCT004 BKN012 16/15 Q1008=
201101051800 METAR LPPR 051800Z 20012KT 180V240 5000 -RADZ BR SCT002 SCT005
                        BKN030 16/15 Q1008=
201101051730 METAR LPPR 051730Z 20013KT 5000 BR SCT002 SCT012 BKN030 16/15
                        Q1008=
201101051700 METAR LPPR 051700Z 21013KT 5000 -RADZ BR SCT003 BKN012 BKN020
                        16/15 Q1008=
201101051630 METAR LPPR 051630Z 20014KT 5000 VCSH BR SCT005 BKN012 BKN027
                        16/15 Q1008=
201101051600 METAR LPPR 051600Z 20014KT 9999 SCT006 BKN008 16/16 Q1007=
201101051530 METAR LPPR 051530Z 20014KT 9999 SCT006 BKN008 15/15 Q1007=
201101051500 METAR LPPR 051500Z 18019KT 9999 SCT006 BKN008 15/14 Q1007=
201101051430 METAR LPPR 051430Z 18021KT 9999 SCT006 SCT015 FEW017TCU BKN045
                        15/14 Q1007=
201101051400 METAR LPPR 051400Z 18022KT 9999 FEW006 SCT015 FEW017TCU BKN045
                        15/14 Q1007=
201101051330 METAR LPPR 051330Z 18023KT 8000 -RA SCT004 BKN012 BKN017
                        14/14 Q1007=
201101051300 METAR LPPR 051300Z 18023G33KT 5000 -RA BR SCT004 BKN005 BKN012
                        14/14 Q1007 RERA WS ALL RWY=
201101051230 METAR LPPR 051230Z 17021KT 3500 RADZ VCFG BKN007 BKN012 BKN020
                        15/14 Q1007=
201101051200 METAR LPPR 051200Z 17020KT 5000 RADZ BR SCT005 BKN007 BKN012
                        14/14 Q1008=
201101051130 METAR LPPR 051130Z 18019KT 5000 -RADZ BR SCT002 BKN005 BKN010
                        14/14 Q1009=
201101051100 METAR LPPR 051100Z 18021KT 8000 -RA SCT004 BKN005 BKN010
                        14/14 Q1009=
201101051030 METAR LPPR 051030Z 18019KT 8000 -RA SCT003 BKN006 BKN012
                        14/14 Q1009=
201101051000 METAR LPPR 051000Z 18019KT 6000 -RA BR SCT004 BKN007 BKN012
                        14/14 Q1009 WS ALL RWY=
201101050930 METAR LPPR 050930Z 18021KT 6000 -RA BR SCT004 BKN007 BKN015
                        14/14 Q1009=
201101050900 METAR LPPR 050900Z 17021KT 7000 -RA BR SCT006 BKN007 BKN015
                        14/14 Q1009=
201101050830 METAR LPPR 050830Z 18020KT 5000 -RA BR SCT004 BKN007 BKN015
                        14/14 Q1009=
201101050800 METAR LPPR 050800Z 18020KT 9999 -RA SCT006 BKN009 14/14 Q1009=
201101050730 METAR LPPR 050730Z 18018KT 9999 -RA SCT005 BKN009 14/14 Q1010=
201101050700 METAR LPPR 050700Z 18020KT 8000 -RA SCT006 BKN009 14/14 Q1010=
201101050630 METAR LPPR 050630Z 18018KT 9999 SCT005 BKN007 15/14 Q1010=
201101050600 METAR LPPR 050600Z 18018KT 9999 -RA SCT005 BKN007 15/14 Q1010=
201101050530 METAR LPPR 050530Z 18019KT 9999 SCT004 BKN007 15/14 Q1010=
201101050500 METAR LPPR 050500Z 18017KT 8000 -RA SCT003 BKN005 15/14 Q1010=
201101050430 METAR LPPR 050430Z 18017KT 9999 SCT003 BKN005 15/14 Q1010=
201101050400 METAR LPPR 050400Z 19017KT 9999 SCT003 BKN005 15/14 Q1011=
201101050330 METAR LPPR 050330Z 18015KT 9999 SCT003 BKN005 15/14 Q1011=
201101050300 METAR LPPR 050300Z 19015KT 9999 SCT003 BKN005 15/14 Q1011=
201101050230 METAR LPPR 050230Z 18013KT 9999 SCT004 BKN007 15/14 Q1012=
201101050200 METAR LPPR 050200Z 18013KT 9999 SCT004 BKN007 14/14 Q1012=
201101050130 METAR LPPR 050130Z 18015KT 8000 SCT004 BKN007 14/14 Q1012=
201101050100 METAR LPPR 050100Z 18015KT 8000 SCT003 BKN005 14/14 Q1013=
201101050030 METAR LPPR 050030Z 18013KT 8000 SCT004 BKN006 14/14 Q1013=
201101050000 METAR LPPR 050000Z 18012KT 8000 SCT003 BKN006 14/14 Q1013=
201101042330 METAR LPPR 042330Z 18013KT 8000 SCT004 BKN006 14/14 Q1014=
201101042300 METAR LPPR 042300Z 18014KT 8000 SCT003 BKN005 14/14 Q1014=
201101042230 METAR LPPR 042230Z 18014KT 6000 -RA SCT003 BKN005 14/14 Q1014=
201101042200 METAR LPPR 042200Z 19014KT 8000 SCT003 BKN005 14/14 Q1014=
201101042130 METAR LPPR 042130Z 19014KT 8000 SCT004 BKN008 14/14 Q1014=
201101042100 METAR LPPR 042100Z 20008KT 180V240 8000 SCT003 BKN006 14/14
                        Q1014=
201101042030 METAR LPPR 042030Z 19010KT 160V220 8000 SCT003 BKN008 14/14
                        Q1013=
201101042000 METAR LPPR 042000Z 19009KT 8000 SCT003 BKN012 14/14 Q1013=
201101041930 METAR LPPR 041930Z 20011KT 5000 -RA BR SCT002 BKN005 14/14
                        Q1014=
201101041900 METAR LPPR 041900Z 20012KT 8000 -RA SCT003 BKN007 15/14 Q1014=
201101041830 METAR LPPR 041830Z 19017KT 8000 -RA SCT003 BKN005 15/14 Q1013
                        WS ALL RWY=
201101041800 METAR LPPR 041800Z 18016KT 8000 SCT003 BKN005 15/14 Q1014=
201101041730 METAR LPPR 041730Z 18015KT 8000 SCT003 BKN005 15/14 Q1014=
201101041700 METAR LPPR 041700Z 18014KT 8000 SCT003 BKN005 14/14 Q1014=
201101041630 METAR LPPR 041630Z 18016KT 8000 SCT004 BKN007 14/14 Q1014=
201101041600 METAR LPPR 041600Z 18014KT 8000 SCT004 BKN007 14/14 Q1014=
201101041530 METAR LPPR 041530Z 19014KT 4000 -RA BR SCT004 BKN007 14/14
                        Q1014=
201101041500 METAR LPPR 041500Z 18013KT 4000 -RADZ BR SCT005 BKN007 14/14
                        Q1014=
201101041430 METAR LPPR 041430Z 18017KT 4000 -RADZ BR SCT004 BKN008 14/13
                        Q1015=
201101041400 METAR LPPR 041400Z 18017KT 9999 SCT006 BKN008 15/14 Q1015=
201101041330 METAR LPPR 041330Z 18016KT 9999 SCT005 BKN008 14/14 Q1015=
201101041300 METAR LPPR 041300Z 18018KT 9999 SCT005 BKN006 14/13 Q1016=
201101041230 METAR LPPR 041230Z 18016KT 9999 SCT005 BKN007 14/13 Q1016=
201101041200 METAR LPPR 041200Z 18015KT 9999 SCT005 BKN007 14/13 Q1016=
201101041130 METAR LPPR 041130Z 18014KT 9999 SCT006 BKN008 14/13 Q1017=
201101041100 METAR LPPR 041100Z 18015KT 9999 SCT008 BKN030 14/13 Q1017=
201101041000 METAR LPPR 041000Z 17016KT 7000 -RADZ SCT006 SCT030 BKN060
                        13/13 Q1017=
201101040930 METAR LPPR 040930Z 18015KT 5000 -RADZ BR SCT006 SCT030 BKN060
                        13/13 Q1017=
201101040900 METAR LPPR 040900Z 18014KT 5000 -RADZ BR SCT006 SCT040 BKN060
                        13/13 Q1016=
201101040830 METAR LPPR 040830Z 18013KT 7000 -SHRA SCT006 SCT040 BKN060
                        13/13 Q1016=
201101040800 METAR LPPR 040800Z 18013KT 7000 -SHRA BR SCT006 SCT015 BKN050
                        13/12 Q1017=
201101040730 METAR LPPR 040730Z 18013KT 9999 SCT004 BKN009 BKN020 13/12
                        Q1017=
201101040700 METAR LPPR 040700Z 18016KT 5000 -RADZ BR SCT005 SCT007 BKN020
                        13/12 Q1017=
201101040630 METAR LPPR 040630Z 17013KT 8000 SCT005 SCT007 BKN013 13/12
                        Q1017=
201101040600 METAR LPPR 040600Z 18012KT 8000 BKN005 BKN007 13/12 Q1017=
201101040530 METAR LPPR 040530Z 18011KT 8000 BKN005 BKN007 13/12 Q1017=
201101040500 METAR LPPR 040500Z 17013KT 8000 BKN005 BKN009 13/12 Q1017=
201101040430 METAR LPPR 040430Z 18012KT 9999 SCT007 BKN009 13/12 Q1017=
201101040400 METAR LPPR 040400Z 17010KT 9999 SCT006 BKN009 13/12 Q1018=
201101040330 METAR LPPR 040330Z 16009KT 8000 SCT006 SCT009 BKN015 13/12
                        Q1018=
201101040300 METAR LPPR 040300Z 17009KT 9999 SCT006 SCT009 BKN015 13/12
                        Q1018=
201101040230 METAR LPPR 040230Z 17009KT 9999 SCT007 SCT010 BKN020 13/12
                        Q1018=
201101040200 METAR LPPR 040200Z 17008KT 9999 FEW007 BKN035 BKN060 13/12
                        Q1018=
201101040130 METAR LPPR 040130Z 16009KT 9999 FEW010 BKN045 BKN060 13/12
                        Q1018=
201101040100 METAR LPPR 040100Z 15007KT 8000 SCT007 SCT010 BKN020 13/11
                        Q1019=
201101040030 METAR LPPR 040030Z 14008KT 8000 FEW007 SCT010 BKN020 13/11
                        Q1019=
201101040000 METAR LPPR 040000Z 13006KT 8000 FEW007 SCT010 BKN025 12/11
                        Q1019=
201101032330 METAR LPPR 032330Z 13007KT 8000 SCT008 SCT010 BKN020 12/11
                        Q1019=
201101032300 METAR LPPR 032300Z 12006KT 9999 SCT009 BKN011 BKN020 12/10
                        Q1019=
201101032230 METAR LPPR 032230Z 12007KT 7000 SCT007 SCT011 BKN020 12/10
                        Q1019=
201101032200 METAR LPPR 032200Z 12005KT 8000 SCT009 SCT012 BKN020 12/10
                        Q1019=
201101032130 METAR LPPR 032130Z 13005KT 9999 SCT012 SCT027 BKN050 12/10
                        Q1020=
201101032100 METAR LPPR 032100Z 12007KT 8000 FEW012 SCT020 BKN040 12/10
                        Q1020=
201101032030 METAR LPPR 032030Z 12007KT 8000 FEW009 SCT010 BKN025 12/10
                        Q1020=
201101032000 METAR LPPR 032000Z 11007KT 8000 FEW009 SCT012 BKN040 12/10
                        Q1020=
201101031930 METAR LPPR 031930Z 12006KT 8000 SCT008 SCT012 BKN017 12/10
                        Q1020=
201101031900 METAR LPPR 031900Z 12007KT 8000 SCT008 SCT015 BKN030 11/10
                        Q1020=
201101031830 METAR LPPR 031830Z 12005KT 5000 -RADZ BR SCT007 SCT015 BKN020
                        11/10 Q1020=
201101031800 METAR LPPR 031800Z 14005KT 8000 -RADZ BR SCT008 SCT015 BKN020
                        11/10 Q1020=
201101031730 METAR LPPR 031730Z 13005KT 7000 -RADZ BR SCT008 SCT015 BKN025
                        11/10 Q1020=
201101031700 METAR LPPR 031700Z 13006KT 7000 -RADZ BR SCT008 BKN017 12/10
                        Q1019=
201101031630 METAR LPPR 031630Z 12004KT 8000 FEW009 BKN018 12/10 Q1019=
201101031600 METAR LPPR 031600Z 13005KT 7000 FEW009 BKN018 12/10 Q1019=
201101031530 METAR LPPR 031530Z 14005KT 7000 -RADZ FEW008 BKN020 12/10
                        Q1019=
201101031500 METAR LPPR 031500Z 14005KT 8000 FEW009 BKN020 12/10 Q1019=
201101031430 METAR LPPR 031430Z 13005KT 100V160 8000 FEW008 BKN020 11/10
                        Q1019=
201101031400 METAR LPPR 031400Z 14005KT 8000 FEW008 BKN020 11/10 Q1020=
201101031330 METAR LPPR 031330Z 16006KT 130V200 8000 FEW005 SCT025 BKN070
                        11/09 Q1020=
201101031300 METAR LPPR 031300Z 14004KT 8000 -RADZ FEW005 SCT025 BKN070
                        11/09 Q1020=
201101031230 METAR LPPR 031230Z 12004KT 100V160 8000 FEW004 SCT030 BKN070
                        10/09 Q1020=
201101031200 METAR LPPR 031200Z 11006KT 7000 -RADZ SCT004 SCT030 BKN070
                        10/09 Q1021=
201101031130 METAR LPPR 031130Z 11004KT 080V140 8000 FEW004 SCT040 BKN070
                        10/08 Q1021=
201101031100 METAR LPPR 031100Z 11006KT 090V150 8000 FEW002 SCT030 BKN070
                        09/08 Q1021=
201101031030 METAR LPPR 031030Z 12007KT 8000 SCT002 BKN070 09/08 Q1021=
201101031000 METAR LPPR 031000Z VRB03KT 8000 SCT002 BKN070 08/08 Q1021=
201101030930 METAR LPPR 030930Z VRB01KT 6000 SCT002 BKN070 08/07 Q1021=
201101030900 METAR LPPR 030900Z VRB01KT 5000 BR SCT002 SCT004 BKN070 07/07
                        Q1020=
201101030830 METAR LPPR 030830Z 06002KT 5000 BR SCT002 BKN005 07/07 Q1020=
201101030800 METAR LPPR 030800Z 00000KT 5000 BR SCT002 BKN006 07/07 Q1020=
201101030730 METAR LPPR 030730Z 14002KT 5000 BR SCT001 BKN005 08/07 Q1020=
201101030700 METAR LPPR 030700Z VRB01KT 4000 BR SCT002 BKN004 08/07 Q1020=
201101030630 METAR LPPR 030630Z VRB02KT 4000 BR SCT001 BKN004 08/08 Q1020=
201101030600 METAR LPPR 030600Z 00000KT 9999 BR SCT001 BKN003 08/08 Q1020=
201101030530 METAR LPPR 030530Z VRB02KT 4000 BR SCT001 BKN003 08/08 Q1020=
201101030500 METAR LPPR 030500Z 18003KT 4000 BR SCT001 BKN003 08/08 Q1020=
201101030430 METAR LPPR 030430Z VRB02KT 4000 BR SCT001 BKN003 08/08 Q1020=
201101030400 METAR LPPR 030400Z 13005KT 4000 BR SCT001 BKN002 08/08 Q1020=
201101030330 METAR LPPR 030330Z 15005KT 0800 R17/1200VP1500 R35/0800N
                        FG SCT001 BKN002 08/08 Q1020=
201101030300 METAR LPPR 030300Z 14004KT 1500 BR VCFG SCT001 BKN002 09/08
                        Q1020=
201101030230 METAR LPPR 030230Z 14005KT 1200 R17/P1500 R35/1300VP1500
                        BR VCFG SCT001 BKN002 09/08 Q1020=
201101030200 METAR LPPR 030200Z 15005KT 0600 R17/1000N R35/0750V1200N
                        FG VV001 09/09 Q1020=
201101030130 METAR LPPR 030130Z 13004KT 100V160 0600 R17/0800N R35/0650N
                        FG VV001 09/09 Q1020=
201101030100 METAR LPPR 030100Z VRB03KT 0700 R17/1200VP1500 R35/0800V1000U
                        FG VV001 09/09 Q1021=
201101030030 METAR LPPR 030030Z VRB03KT 0600 R17/1300U R35/0600N FG VV001
                        09/09 Q1021=
201101030000 METAR LPPR 030000Z VRB01KT 0600 R17/1200D R35/0800V1000U
                        FG VV001 09/09 Q1021=
201101022330 METAR LPPR 022330Z VRB03KT 0700 R17/0900VP1500 R35/0800VP1500
                        FG VV001 10/09 Q1021=
201101022300 METAR LPPR 022300Z VRB03KT 2500 BR SCT001 BKN003 10/10 Q1021=
201101022230 METAR LPPR 022230Z VRB02KT 3000 BR SCT001 BKN003 10/10 Q1021=
201101022200 METAR LPPR 022200Z VRB02KT 3500 BR SCT001 BKN003 10/10 Q1021=
201101022130 METAR LPPR 022130Z VRB01KT 4000 BR SCT002 BKN004 10/10 Q1021=
201101022100 METAR LPPR 022100Z VRB01KT 3500 BR SCT002 BKN004 10/10 Q1021=
201101022030 METAR LPPR 022030Z VRB02KT 3500 BR BKN002 BKN004 11/10 Q1021=
201101022000 METAR LPPR 022000Z 00000KT 2500 BR SCT001 BKN003 10/10 Q1021=
201101021930 METAR LPPR 021930Z 00000KT 2000 BR SCT000 BKN002 10/10 Q1021=
201101021900 METAR LPPR 021900Z 00000KT 1500 BR VCFG SCT000 BKN003 10/10
                        Q1021=
201101021830 METAR LPPR 021830Z VRB02KT 2500 BR VCFG SCT001 BKN003 11/10
                        Q1021=
201101021800 METAR LPPR 021800Z VRB02KT 3000 BR SCT002 BKN003 11/10 Q1021=
201101021730 METAR LPPR 021730Z VRB01KT 2000 BR SCT002 BKN004 11/10 Q1021=
201101021700 METAR LPPR 021700Z VRB03KT 2000 BR SCT002 BKN004 11/10 Q1020=
201101021630 METAR LPPR 021630Z 34003KT 3000 BR SCT002 BKN004 12/10 Q1020=
201101021600 METAR LPPR 021600Z 34004KT 3500 BR SCT002 BKN007 12/11 Q1020=
201101021530 METAR LPPR 021530Z VRB02KT 5000 FEW003 SCT006 13/11 Q1020=
201101021500 METAR LPPR 021500Z VRB03KT 5000 BR FEW004 SCT007 13/11 Q1020=
201101021430 METAR LPPR 021430Z 00000KT 6000 SCT005 SCT007 13/13 Q1020=
201101021400 METAR LPPR 021400Z VRB02KT 6000 SCT003 BKN007 12/12 Q1020=
201101021330 METAR LPPR 021330Z VRB01KT 5000 BR FEW002 SCT005 BKN007 12/12
                        Q1021=
201101021300 METAR LPPR 021300Z VRB03KT 3500 BR SCT002 BKN004 11/11 Q1021=
201101021230 METAR LPPR 021230Z VRB03KT 3000 BR BKN002 BKN004 11/11 Q1021=
201101021200 METAR LPPR 021200Z VRB02KT 2500 BR VCFG SCT001 BKN003 11/11
                        Q1022=
201101021130 METAR LPPR 021130Z VRB03KT 2000 BR VCFG SCT001 BKN002 10/10
                        Q1022=
201101021100 METAR LPPR 021100Z 10002KT 1500 BR VCFG BKN001 BKN002 10/10
                        Q1022=
201101021030 METAR LPPR 021030Z 09004KT 060V120 0900 R17/1000VP1500 R35/0900VP1500
                        FG VV002 09/09 Q1022=
201101021000 METAR LPPR 021000Z VRB03KT 0700 R17/0800VP1500 R35/0800V1200U
                        FG VV001 09/09 Q1022=
201101020930 METAR LPPR 020930Z VRB03KT 0500 R17/0900V1100U R35/0800N
                        FG VV001 09/09 Q1022=
201101020900 METAR LPPR 020900Z VRB03KT 0300 R17/0800N R35/0650N FG VV001
                        09/08 Q1021=
201101020830 METAR LPPR 020830Z 09004KT 0300 R17/0750N R35/0550N FG VV001
                        08/08 Q1021=
201101020800 METAR LPPR 020800Z 11004KT 080V140 0500 R17/1000U R35/0750V1000N
                        FG SCT001 BKN003 09/09 Q1021=
201101020730 METAR LPPR 020730Z 10004KT 0500 R17/0800N R35/0600N FG SCT001
                        BKN003 09/09 Q1021=
201101020700 METAR LPPR 020700Z VRB03KT 0500 R17/0800N R35/0800N FG SCT001
                        BKN003 09/09 Q1020=
201101020630 METAR LPPR 020630Z VRB03KT 0400 R17/0700N R35/0550N FG SCT001
                        BKN003 09/09 Q1020=
201101020600 METAR LPPR 020600Z VRB02KT 0300 R17/0500N R35/0450N FG SCT001
                        BKN003 09/09 Q1020=
201101020530 METAR LPPR 020530Z VRB03KT 0300 R17/0600N R35/0450V0550N
                        FG SCT001 BKN003 09/09 Q1020=
201101020500 METAR LPPR 020500Z 10005KT 0300 R17/0550V0750N R35/0350V0450N
                        FG SCT001 BKN003 09/09 Q1020=
201101020430 METAR LPPR 020430Z 10004KT 0300 R17/0450N R35/0350N FG SCT001
                        BKN003 10/10 Q1020=
201101020400 METAR LPPR 020400Z VRB03KT 0300 R17/0450N R35/0350N FG SCT001
                        BKN003 10/09 Q1020=
201101020330 METAR LPPR 020330Z 11004KT 0300 R17/0400N R35/0350N FG SCT001
                        BKN003 09/09 Q1021=
201101020300 METAR LPPR 020300Z 10005KT 0300 R17/0400N R35/0400N FG SCT001
                        BKN003 09/09 Q1021=
201101020230 METAR LPPR 020230Z 11006KT 0400 R17/0600V0750N R35/0500D
                        FG SCT002 BKN004 09/09 Q1020=
201101020200 METAR LPPR 020200Z VRB02KT 0500 R17/0400V0800D R35/0800V1300N
                        FG SCT002 BKN004 09/08 Q1020=
201101020130 METAR LPPR 020130Z 00000KT 0600 R17/0375N R35/P1500 FG SCT002
                        BKN005 08/08 Q1021=
201101020100 METAR LPPR 020100Z 00000KT 0700 R17/0350N R35/P1500 FG SCT002
                        SCT005 09/08 Q1021=
201101020030 METAR LPPR 020030Z 00000KT 1500 BR VCFG FEW003 SCT005 10/09
                        Q1021=
201101020000 METAR LPPR 020000Z 00000KT 2000 BR VCFG FEW003 SCT005 10/09
                        Q1021=
201101012330 METAR LPPR 012330Z 07001KT 5000 BR FEW004 BKN007 11/10 Q1021=
201101012300 METAR LPPR 012300Z 02001KT 5000 BR FEW004 BKN007 11/10 Q1021=
201101012230 METAR LPPR 012230Z 00000KT 5000 BR SCT008 BKN060 12/11 Q1020=
201101012200 METAR LPPR 012200Z 10002KT 6000 FEW009 BKN060 12/11 Q1020=
201101012130 METAR LPPR 012130Z VRB02KT 8000 BKN060 12/11 Q1021=
201101012100 METAR LPPR 012100Z 10003KT 8000 BKN060 12/11 Q1021=
201101012030 METAR LPPR 012030Z 00000KT 8000 BKN060 12/11 Q1021=
201101012000 METAR LPPR 012000Z 00000KT 9000 BKN060 12/11 Q1021=
201101011930 METAR LPPR 011930Z 00000KT 9000 BKN060 12/11 Q1021=
201101011900 METAR LPPR 011900Z 29001KT 9000 BKN060 12/11 Q1021=
201101011830 METAR LPPR 011830Z VRB01KT 7000 BKN060 12/11 Q1021=
201101011800 METAR LPPR 011800Z 00000KT 7000 BKN060 12/10 Q1020=
201101011730 METAR LPPR 011730Z VRB01KT 6000 FEW013 BKN060 13/10 Q1020=
201101011700 METAR LPPR 011700Z VRB03KT 6000 FEW013 SCT060 14/11 Q1020=
201101011630 METAR LPPR 011630Z 33003KT 8000 FEW013 SCT060 15/12 Q1020=
201101011600 METAR LPPR 011600Z VRB02KT 9999 FEW017 BKN060 16/12 Q1020=
201101011530 METAR LPPR 011530Z 00000KT 9999 SCT017 BKN060 15/12 Q1020=
201101011500 METAR LPPR 011500Z VRB01KT 9999 SCT017 BKN060 16/12 Q1020=
201101011430 METAR LPPR 011430Z VRB02KT 9999 FEW017 BKN060 15/12 Q1020=
201101011400 METAR LPPR 011400Z 28005KT 9999 FEW017 BKN060 15/11 Q1020=
201101011330 METAR LPPR 011330Z VRB03KT 9999 FEW020 BKN060 16/12 Q1020=
201101011300 METAR LPPR 011300Z 00000KT 9999 FEW020 BKN060 15/11 Q1020=
201101011230 METAR LPPR 011230Z VRB01KT CAVOK 15/11 Q1021=
201101011200 METAR LPPR 011200Z VRB03KT CAVOK 14/11 Q1021=
201101011130 METAR LPPR 011130Z 12004KT 090V160 CAVOK 14/10 Q1021=
201101011100 METAR LPPR 011100Z VRB03KT CAVOK 14/11 Q1021=
201101011030 METAR LPPR 011030Z VRB02KT CAVOK 13/10 Q1021=
201101011000 METAR LPPR 011000Z 00000KT CAVOK 13/10 Q1021=
201101010930 METAR LPPR 010930Z 00000KT CAVOK 13/10 Q1021=
201101010900 METAR LPPR 010900Z 00000KT CAVOK 12/10 Q1021=
201101010830 METAR LPPR 010830Z 10003KT 9999 FEW040 BKN060 13/10 Q1020=
201101010800 METAR LPPR 010800Z 10004KT 9999 SCT040 BKN060 12/10 Q1020=
201101010730 METAR LPPR 010730Z 10005KT 9999 SCT040 BKN060 12/10 Q1020=
201101010700 METAR LPPR 010700Z 11005KT 9999 SCT040 BKN060 12/10 Q1019=
201101010630 METAR LPPR 010630Z 10004KT 9999 SCT040 BKN060 12/10 Q1019=
201101010600 METAR LPPR 010600Z 11004KT 9999 SCT040 BKN060 12/10 Q1019=
201101010530 METAR LPPR 010530Z 00000KT 9999 SCT040 BKN060 11/10 Q1019=
201101010500 METAR LPPR 010500Z 00000KT 9999 SCT040 BKN060 11/10 Q1019=
201101010430 METAR LPPR 010430Z 07002KT 9999 SCT040 BKN060 11/10 Q1019=
201101010400 METAR LPPR 010400Z 00000KT 9999 FEW040 BKN060 11/10 Q1019=
201101010330 METAR LPPR 010330Z 05002KT CAVOK 11/10 Q1019=
201101010300 METAR LPPR 010300Z 00000KT CAVOK 11/10 Q1019=
201101010230 METAR LPPR 010230Z 00000KT CAVOK 11/10 Q1019=
201101010200 METAR LPPR 010200Z 00000KT CAVOK 11/09 Q1018=
201101010130 METAR LPPR 010130Z 00000KT CAVOK 11/10 Q1018=
201101010100 METAR LPPR 010100Z 05001KT CAVOK 12/10 Q1018=
201101010030 METAR LPPR 010030Z 36001KT CAVOK 12/10 Q1018=
201101010000 METAR LPPR 010000Z 00000KT 9999 SCT040 BKN060 12/10 Q1018=

</pre>

</body>
</html>
