##########################################################
# Query made at 11/07/2014 14:54:07 UTC
# Time interval: from 01/01/2009 00:00  to 01/31/2009 23:59  UTC
##########################################################

##########################################################
# LPPR, Porto / Pedras Rubras (Portugal)
# WMO index: 08545
# Latitude 41-14N. Longitude 008-41W. Altitude 69 m.
##########################################################

###################################
#  METAR/SPECI from LPPR
###################################
200901312330 METAR LPPR 312330Z 14012KT 8000 RA SCT020 SCT035 BKN070 09/08
                        Q0993 WS ALL RWY=
200901312300 METAR LPPR 312300Z 13013KT 9999 -RA SCT020 SCT040 BKN070
                        09/08 Q0993 WS ALL RWY=
200901312230 METAR LPPR 312230Z 15020KT 9999 -RA SCT020 SCT040 BKN070
                        10/08 Q0995 WS ALL RWY=
200901312200 METAR LPPR 312200Z 15018KT 8000 RA SCT020 SCT040 BKN070 10/08
                        Q0996 WS ALL RWY=
200901312130 METAR LPPR 312130Z 15020KT 9999 RA SCT025 BKN070 10/08 Q0996
                        WS ALL RWY=
200901312100 METAR LPPR 312100Z 15019KT 9999 -RA SCT025 BKN070 10/08 Q0997
                        WS ALL RWY=
200901312030 METAR LPPR 312030Z 15020G30KT 110V170 9999 -RA SCT030 BKN070
                        11/07 Q0998=
200901312000 METAR LPPR 312000Z 15020KT 9999 -RA SCT030 BKN070 11/07 Q0999=
200901311930 METAR LPPR 311930Z 15018KT 9999 -RA SCT030 BKN070 10/07 Q1000=
200901311900 METAR LPPR 311900Z 16019KT 9999 -RA SCT035 BKN070 11/06 Q1001=
200901311830 METAR LPPR 311830Z 16018KT 9999 -RA SCT035 BKN070 11/06 Q1002=
200901311800 METAR LPPR 311800Z 16016KT 9999 SCT035 BKN070 12/05 Q1002=
200901311730 METAR LPPR 311730Z 17019KT 9999 FEW017 SCT035 BKN070 12/06
                        Q1003=
200901311700 METAR LPPR 311700Z 17016KT 9999 FEW017 SCT035 BKN070 12/06
                        Q1004=
200901311630 METAR LPPR 311630Z 18019KT 9999 FEW017 SCT040 BKN080 12/07
                        Q1005=
200901311600 METAR LPPR 311600Z 19021KT 9999 SCT017 SCT080 BKN250 12/07
                        Q1005 WS ALL RWY=
200901311530 METAR LPPR 311530Z 18020KT 9999 SCT017 SCT090 BKN250 12/06
                        Q1005=
200901311500 METAR LPPR 311500Z 18019KT 9999 SCT017 SCT100 BKN250 13/06
                        Q1006=
200901311430 METAR LPPR 311430Z 18018KT 9999 SCT017 BKN250 13/06 Q1006=
200901311400 METAR LPPR 311400Z 19015KT 9999 FEW017 BKN250 13/07 Q1007=
200901311330 METAR LPPR 311330Z 19015KT 9999 FEW017 BKN250 13/06 Q1008=
200901311300 METAR LPPR 311300Z 18012KT 9999 FEW017 BKN250 13/06 Q1008=
200901311230 METAR LPPR 311230Z 21010KT 180V240 9999 FEW017 BKN250 12/05
                        Q1009=
200901311200 METAR LPPR 311200Z 22007KT 180V260 9999 FEW017 BKN250 13/06
                        Q1010=
200901311130 METAR LPPR 311130Z 22005KT 160V250 9999 FEW017 BKN250 12/05
                        Q1010=
200901311100 METAR LPPR 311100Z 23005KT 180V290 9999 FEW017 BKN250 12/06
                        Q1010=
200901311030 METAR LPPR 311030Z VRB03KT 9999 FEW017 BKN250 12/07 Q1010=
200901311000 METAR LPPR 311000Z 12004KT 9999 FEW017 BKN250 09/08 Q1010=
200901310930 METAR LPPR 310930Z VRB03KT 9999 SCT017 BKN250 09/07 Q1010=
200901310900 METAR LPPR 310900Z 00000KT 9999 SCT018 SCT250 08/07 Q1010=
200901310830 METAR LPPR 310830Z 00000KT 9999 SCT018 08/07 Q1010=
200901310800 METAR LPPR 310800Z 00000KT 9999 SCT020 08/06 Q1010=
200901310730 METAR LPPR 310730Z 35005KT 9999 SCT015 SCT070 09/07 Q1010=
200901310700 METAR LPPR 310700Z 32007KT 9999 FEW015 BKN030 09/06 Q1009=
200901310630 METAR LPPR 310630Z 33006KT 9999 FEW015 SCT040 08/06 Q1009=
200901310600 METAR LPPR 310600Z 33011KT 9999 FEW015 SCT035 09/07 Q1009=
200901310530 METAR LPPR 310530Z 32013KT 280V340 8000 -SHRA SCT015 BKN030
                        08/07 Q1008=
200901310500 METAR LPPR 310500Z 32013KT 290V350 9999 SCT015 BKN030 10/07
                        Q1008=
200901310430 METAR LPPR 310430Z 35006KT 9000 -SHRA SCT013 BKN025 BKN070
                        09/08 Q1008=
200901310400 METAR LPPR 310400Z 32005KT 9999 SCT015 BKN025 BKN070 09/08
                        Q1007=
200901310330 METAR LPPR 310330Z VRB02KT 5000 RA BR SCT015 BKN025 BKN070
                        09/08 Q1008=
200901310300 METAR LPPR 310300Z 33004KT 9000 -RA SCT025 BKN035 BKN080
                        09/08 Q1007=
200901310230 METAR LPPR 310230Z VRB03KT 9999 -RA SCT025 BKN035 BKN080
                        08/08 Q1007=
200901310200 METAR LPPR 310200Z 00000KT 8000 -RA SCT025 BKN035 BKN080
                        08/08 Q1007=
200901310130 METAR LPPR 310130Z 00000KT 9999 SCT025 BKN035 BKN080 08/08
                        Q1006=
200901310100 METAR LPPR 310100Z 33003KT 9999 -RA FEW015 BKN030 BKN080
                        08/08 Q1006=
200901310030 METAR LPPR 310030Z 34003KT 9999 FEW015 BKN035 BKN080 09/08
                        Q1006=
200901310000 METAR LPPR 310000Z 35006KT 9999 FEW015 BKN030 BKN080 09/08
                        Q1006=
200901302330 METAR LPPR 302330Z 02007KT 9999 -RA FEW015 SCT035 BKN070
                        09/08 Q1006=
200901302300 METAR LPPR 302300Z 34008KT 9999 -RA BR SCT015 BKN035 BKN070
                        09/08 Q1006=
200901302230 METAR LPPR 302230Z 34012KT 8000 -RA BR FEW008 SCT015 BKN025
                        09/08 Q1006=
200901302200 METAR LPPR 302200Z 33013KT 7000 -RA BR SCT007 SCT012 BKN025
                        09/09 Q1005=
200901302130 METAR LPPR 302130Z 33012KT 5000 -RA BR SCT007 SCT011 BKN023
                        09/09 Q1005=
200901302100 METAR LPPR 302100Z 32010KT 5000 -RA BR SCT008 BKN025 BKN070
                        09/09 Q1004 RERA=
200901302030 METAR LPPR 302030Z 32015KT 5000 RA BR SCT005 SCT012 BKN030
                        10/09 Q1004=
200901302000 METAR LPPR 302000Z 32013KT 300V020 3000 SHRA BR SCT005 SCT012
                        BKN030 10/10 Q1004=
200901301930 METAR LPPR 301930Z 33015KT 3000 SHRA BR SCT004 SCT012 BKN030
                        10/10 Q1004=
200901301900 METAR LPPR 301900Z 31006KT 260V350 3000 SHRA BR SCT001 SCT013
                        BKN030 11/11 Q1003=
200901301830 METAR LPPR 301830Z 28004KT 250V320 3000 SHRA BR SCT001 SCT013
                        BKN030 11/10 Q1003=
200901301800 METAR LPPR 301800Z 23005KT 180V310 3000 SHRA BR SCT001 SCT013
                        BKN030 11/11 Q1003=
200901301730 METAR LPPR 301730Z 21005KT 170V250 3000 SHRA BR SCT001 SCT013
                        BKN030 11/11 Q1003=
200901301700 METAR LPPR 301700Z 21005KT 190V250 3000 SHRA BR SCT001 SCT013
                        11/11 Q1003=
200901301630 METAR LPPR 301630Z 24005KT 200V270 3000 SHRA BR SCT001 SCT013
                        BKN030 11/11 Q1003=
200901301600 METAR LPPR 301600Z 23005KT 200V260 3000 SHRA BR SCT002 SCT013
                        BKN030 11/11 Q1003=
200901301530 METAR LPPR 301530Z 25006KT 220V300 3000 SHRA BR SCT001 SCT013
                        BKN030 11/11 Q1003=
200901301500 METAR LPPR 301500Z 21011KT 3000 SHRA SCT004 SCT013 BKN030
                        11/11 Q1002=
200901301430 METAR LPPR 301430Z 16012KT 130V190 3000 -SHRA BR FEW013 BKN030
                        13/11 Q1002=
200901301400 METAR LPPR 301400Z 17015KT 9999 FEW013 BKN030 14/11 Q1002=
200901301330 METAR LPPR 301330Z 16016KT 8000 FEW013 BKN035 13/11 Q1003=
200901301300 METAR LPPR 301300Z 17017KT 6000 FEW013 BKN035 14/11 Q1003=
200901301230 METAR LPPR 301230Z 17020KT 8000 -SHRA FEW013 BKN035 14/11
                        Q1004=
200901301200 METAR LPPR 301200Z 17019KT 9999 FEW013 BKN035 15/09 Q1004=
200901301130 METAR LPPR 301130Z 16018KT 9999 FEW013 BKN035 15/09 Q1005=
200901301100 METAR LPPR 301100Z 16015G25KT 9999 FEW015 SCT040 BKN070 15/09
                        Q1005=
200901301030 METAR LPPR 301030Z 15014KT 9999 FEW015 SCT040 BKN070 14/09
                        Q1005=
200901301000 METAR LPPR 301000Z 15012KT 9999 FEW015 SCT040 BKN070 14/09
                        Q1005=
200901300930 METAR LPPR 300930Z 15013KT 9999 FEW015 SCT040 BKN070 14/09
                        Q1005=
200901300900 METAR LPPR 300900Z 15016KT 9999 SCT040 BKN060 14/09 Q1006=
200901300830 METAR LPPR 300830Z 15014KT 9999 SCT040 BKN060 13/09 Q1006=
200901300800 METAR LPPR 300800Z 15018KT 9999 FEW025 SCT040 BKN060 13/09
                        Q1006 WS ALL RWY=
200901300730 METAR LPPR 300730Z 15023KT 9999 FEW020 SCT040 BKN060 13/09
                        Q1006=
200901300700 METAR LPPR 300700Z 15017KT 9999 SCT025 BKN060 13/09 Q1007=
200901300630 METAR LPPR 300630Z 16019KT 9999 SCT025 BKN040 13/09 Q1007=
200901300600 METAR LPPR 300600Z 16019KT 9999 SCT020 BKN040 13/09 Q1007=
200901300530 METAR LPPR 300530Z 17017KT 9999 SCT020 BKN030 13/09 Q1008=
200901300500 METAR LPPR 300500Z 17019G29KT 9999 SCT020 BKN030 13/09 Q1008=
200901300430 METAR LPPR 300430Z 17022G32KT 9999 SCT030 BKN040 13/09 Q1009=
200901300400 METAR LPPR 300400Z 17020G30KT 9999 OVC040 14/09 Q1009=
200901300330 METAR LPPR 300330Z 17022G35KT 9999 OVC040 14/09 Q1009=
200901300300 METAR LPPR 300300Z 17022G32KT 9999 BKN040 SCT080 14/09 Q1009=
200901300230 METAR LPPR 300230Z 17022G32KT 9999 BKN040 SCT080 14/10 Q1009=
200901300200 METAR COR LPPR 300200Z 17019G29KT 9999 BKN040 SCT080 14/09
                        Q1009=
200901300130 METAR LPPR 300130Z 17019KT 9999 BKN040 14/10 Q1009=
200901300100 METAR LPPR 300100Z 17019KT 9999 FEW015 BKN040 14/10 Q1010=
200901300030 METAR LPPR 300030Z 17014KT 9999 FEW015 BKN030 14/11 Q1010=
200901300000 METAR LPPR 300000Z 17016KT 9999 FEW015 SCT030 14/12 Q1010=
200901292330 METAR LPPR 292330Z 17017KT 9999 FEW015 BKN030 14/12 Q1011=
200901292300 METAR LPPR 292300Z 17015KT 9999 FEW015 SCT030 14/12 Q1011=
200901292230 METAR LPPR 292230Z 17015KT 9999 FEW008 SCT015 BKN030 14/12
                        Q1011=
200901292200 METAR LPPR 292200Z 17015KT 8000 -DZ SCT008 SCT015 BKN030
                        14/13 Q1012=
200901292130 METAR LPPR 292130Z 17017KT 7000 -DZ SCT008 SCT013 BKN020
                        13/13 Q1012=
200901292100 METAR LPPR 292100Z 17017G29KT 7000 -RADZ SCT009 BKN014 13/13
                        Q1012=
200901292030 METAR LPPR 292030Z 18018KT 6000 -DZ BKN009 BKN014 14/13 Q1012=
200901292000 METAR LPPR 292000Z 17018KT 9999 FEW015 BKN040 14/12 Q1012=
200901291930 METAR LPPR 291930Z 18016KT 9999 SCT015 BKN030 14/12 Q1013=
200901291900 METAR LPPR 291900Z 18019KT 9999 SCT015 BKN020 14/12 Q1013=
200901291830 METAR LPPR 291830Z 18021KT 9999 SCT015 BKN020 14/12 Q1013
                        WS ALL RWY=
200901291800 METAR LPPR 291800Z 18020KT 9999 SCT015 BKN025 14/12 Q1013=
200901291730 METAR LPPR 291730Z 17017KT 9999 SCT015 BKN025 14/13 Q1013=
200901291700 METAR LPPR 291700Z 18017KT 9999 SCT015 SCT025 BKN050 14/13
                        Q1014=
200901291630 METAR LPPR 291630Z 18016KT 9999 FEW009 SCT015 BKN030 BKN050
                        14/13 Q1013=
200901291600 METAR LPPR 291600Z 18018KT 9999 SCT008 SCT015 BKN025 14/13
                        Q1013=
200901291530 METAR LPPR 291530Z 18018KT 5000 BR SCT003 BKN006 BKN012 14/14
                        Q1014=
200901291500 METAR LPPR 291500Z 19017KT 4000 BR SCT002 BKN008 BKN012 14/14
                        Q1014 WS ALL RWY=
200901291430 METAR LPPR 291430Z 19018KT 3000 R17/1200N R35/P1500 BR SCT001
                        BKN005 14/14 Q1014=
200901291400 METAR LPPR 291400Z 19016KT 3000 BR SCT001 BKN004 14/14 Q1014=
200901291330 METAR LPPR 291330Z 19016KT 2000 BR SCT001 BKN004 14/14 Q1014=
200901291300 METAR LPPR 291300Z 19017KT 3000 BR SCT001 BKN004 14/14 Q1015=
200901291230 METAR LPPR 291230Z 19015KT 5000 BR SCT002 BKN004 14/14 Q1015=
200901291200 METAR LPPR 291200Z 19015KT 2500 -DZ BR SCT001 BKN003 14/14
                        Q1016=
200901291130 METAR LPPR 291130Z 19015KT 2000 BR BKN001 BKN004 14/14 Q1016=
200901291100 METAR LPPR 291100Z 19015KT 2000 -RA BR BKN001 BKN003 14/14
                        Q1016=
200901291030 METAR LPPR 291030Z 20016KT 1500 -DZ BR BKN001 BKN003 14/14
                        Q1016=
200901291000 METAR LPPR 291000Z 19014KT 1500 BR VCFG BKN001 BKN003 13/13
                        Q1016=
200901290930 METAR LPPR 290930Z 19014KT 1500 BR VCFG BKN001 SCT003 13/13
                        Q1016=
200901290900 METAR LPPR 290900Z 19014KT 1500 -DZ VCFG BKN001 BKN003 13/13
                        Q1015=
200901290830 METAR COR LPPR 290830Z 19014KT 1200 R17/1400N R35/P1500 -DZ
                        VCFG BKN001 BKN003 13/13 Q1015=
200901290800 METAR LPPR 290800Z 19014KT 1800 BR BKN001 BKN003 13/13 Q1015=
200901290730 METAR LPPR 290730Z 19012KT 1800 BR BKN001 BKN003 13/13 Q1015=
200901290700 METAR LPPR 290700Z 20012KT 1800 BR BKN001 BKN003 13/13 Q1015=
200901290630 METAR LPPR 290630Z 20010KT 1500 BR BKN001 BKN003 13/13 Q1015=
200901290600 METAR LPPR 290600Z 20010KT 1500 -DZ BR BKN001 BKN003 13/13
                        Q1015=
200901290530 METAR LPPR 290530Z 20010KT 1500 -DZ BR BKN001 BKN003 13/13
                        Q1015=
200901290500 METAR LPPR 290500Z 20009KT 1500 BR BKN001 BKN003 13/13 Q1015=
200901290430 METAR LPPR 290430Z 20008KT 1500 BR BKN000 BKN003 13/13 Q1015=
200901290400 METAR LPPR 290400Z 20008KT 1500 BR BKN000 BKN003 13/13 Q1015=
200901290330 METAR LPPR 290330Z 20009KT 1500 BR BKN000 BKN003 14/14 Q1016=
200901290300 METAR LPPR 290300Z 20009KT 1500 BR BKN000 BKN002 13/13 Q1015=
200901290230 METAR LPPR 290230Z 21010KT 1500 BR BKN000 BKN002 13/13 Q1015=
200901290200 METAR LPPR 290200Z 21008KT 190V250 1500 -RADZ BR BKN000 BKN002
                        13/13 Q1015=
200901290130 METAR LPPR 290130Z 21009KT 180V240 1500 -RADZ BR BKN000 BKN002
                        14/14 Q1015=
200901290100 METAR LPPR 290100Z 22008KT 180V250 1500 -RADZ BR BKN000 BKN002
                        13/13 Q1016=
200901290030 METAR LPPR 290030Z 22010KT 190V250 1500 -RADZ BR BKN000 BKN002
                        13/13 Q1016=
200901290000 METAR LPPR 290000Z 22008KT 180V250 2000 -RADZ BR BKN000 BKN002
                        13/13 Q1016=
200901282330 METAR LPPR 282330Z 22008KT 170V250 2000 -RADZ BR BKN000 BKN002
                        13/13 Q1016=
200901282300 METAR LPPR 282300Z 22008KT 180V250 1500 -RADZ BR BKN000 BKN002
                        13/13 Q1016=
200901282230 METAR LPPR 282230Z 22007KT 190V260 1200 R17/P1500 R35/P1500
                        BR BKN000 BKN002 13/13 Q1016=
200901282200 METAR LPPR 282200Z 22009KT 180V250 1200 R17/P1500 R35/P1500
                        BR BKN000 BKN002 13/13 Q1016=
200901282130 METAR LPPR 282130Z 22008KT 170V250 1200 R17/P1500 R35/P1500
                        -DZ BR BKN000 BKN002 13/13 Q1016=
200901282100 METAR LPPR 282100Z 22011KT 200V260 1500 -DZ BR BKN000 BKN002
                        13/13 Q1016=
200901282030 METAR LPPR 282030Z 22011KT 190V250 1200 R17/P1500 R35/P1500
                        -DZ BR BKN000 BKN002 13/13 Q1016=
200901282000 METAR LPPR 282000Z 22010KT 1200 R17/P1500 R35/P1500 BR VCFG
                        BKN000 BKN002 13/13 Q1016=
200901281930 METAR LPPR 281930Z 21010KT 1200 R17/P1500 R35/1400VP1500
                        BR VCFG BKN000 BKN002 13/13 Q1016=
200901281900 METAR LPPR 281900Z 21013KT 180V240 0600 R17/1100V1400N R35/0900N
                        BCFG BKN000 BKN002 14/14 Q1016=
200901281830 METAR LPPR 281830Z 21010KT 0800 R17/P1500 R35/P1500 BCFG
                        BKN000 BKN002 13/13 Q1016=
200901281800 METAR LPPR 281800Z 21009KT 180V250 0800 R17/P1500 R35/P1500
                        -DZ BCFG BKN000 BKN002 13/13 Q1016=
200901281730 METAR LPPR 281730Z 21011KT 180V250 0800 R17/P1500 R35/P1500
                        -RADZ BCFG SCT000 BKN002 13/13 Q1016=
200901281700 METAR LPPR 281700Z 21010KT 0800 R17/P1500 R35/P1500 -DZ BCFG
                        BKN000 BKN002 13/13 Q1016=
200901281630 METAR LPPR 281630Z 20011KT 0600 R17/1200VP1500 R35/1100VP1500
                        -RADZ BCFG BKN000 BKN002 13/13 Q1016=
200901281600 METAR LPPR 281600Z 19012KT 3000 RA BR BKN001 BKN004 13/13
                        Q1016=
200901281530 METAR LPPR 281530Z 18009KT 3000 RA BR SCT001 BKN004 13/13
                        Q1017=
200901281500 METAR LPPR 281500Z 19009KT 2500 RA BR SCT001 BKN004 13/13
                        Q1017=
200901281430 METAR LPPR 281430Z 18011KT 2000 RA BR SCT001 BKN005 BKN012
                        13/13 Q1017=
200901281400 METAR LPPR 281400Z 19010KT 150V230 3000 -RA BR SCT002 SCT007
                        BKN012 13/13 Q1017=
200901281330 METAR LPPR 281330Z 18008KT 5000 -RA BR SCT002 SCT005 BKN012
                        13/13 Q1018=
200901281300 METAR LPPR 281300Z 19007KT 3000 -DZ BR SCT001 BKN004 13/13
                        Q1018=
200901281230 METAR LPPR 281230Z 20008KT 3000 -DZ BR SCT001 BKN004 13/13
                        Q1019=
200901281200 METAR LPPR 281200Z 21008KT 1500 BR VCFG SCT000 BKN003 14/14
                        Q1019=
200901281130 METAR LPPR 281130Z 20007KT 0800 R17/P1500 R35/0900V1400U
                        BCFG BKN000 BKN002 13/13 Q1019=
200901281100 METAR LPPR 281100Z 20008KT 1200 R17/P1500 R35/1300VP1500
                        -DZ VCFG BKN000 BKN002 13/13 Q1019=
200901281030 METAR LPPR 281030Z 19005KT 160V250 1200 R17/P1500 R35/P1500
                        DZ VCFG BKN000 BKN002 13/13 Q1019=
200901281000 METAR LPPR 281000Z 21004KT 180V240 1500 -DZ BR SCT000 BKN002
                        13/13 Q1020=
200901280930 METAR LPPR 280930Z 22007KT 190V250 1500 -DZ BR SCT000 BKN002
                        13/13 Q1019=
200901280900 METAR LPPR 280900Z 20006KT 1500 -DZ BR SCT001 BKN003 13/13
                        Q1019=
200901280830 METAR LPPR 280830Z 20005KT 1500 BR SCT001 BKN002 13/13 Q1019=
200901280800 METAR LPPR 280800Z 22004KT 180V250 2000 BR SCT000 BKN002
                        13/13 Q1019=
200901280730 METAR LPPR 280730Z 23004KT 200V290 1500 -DZ BR SCT000 BKN001
                        13/13 Q1019=
200901280700 METAR LPPR 280700Z 22005KT 190V250 2000 -DZ BR SCT000 BKN001
                        13/13 Q1019=
200901280630 METAR LPPR 280630Z 23006KT 4000 BR SCT001 BKN003 13/13 Q1019=
200901280600 METAR LPPR 280600Z 22008KT 200V260 3000 BR SCT000 BKN002
                        13/13 Q1019=
200901280530 METAR LPPR 280530Z 23006KT 200V260 1200 R17/P1500 R35/P1500
                        BR SCT000 BKN001 13/13 Q1019=
200901280500 METAR LPPR 280500Z 22006KT 200V260 1200 R17/P1500 R35/P1500
                        -DZ BR BKN000 BKN002 13/13 Q1019=
200901280430 METAR LPPR 280430Z 23008KT 1200 R17/1000VP1500 R35/0900V1300N
                        BR BKN000 SCT001 13/13 Q1019 RERA=
200901280400 METAR LPPR 280400Z 22007KT 180V250 2000 RA BR BKN000 SCT001
                        13/13 Q1019=
200901280330 METAR LPPR 280330Z 22006KT 190V250 1200 R17/P1500 R35/P1500
                        -RA BR BKN000 SCT001 13/13 Q1019=
200901280300 METAR LPPR 280300Z 22006KT 180V250 1200 R17/1200VP1500 R35/0800V1200U
                        -DZ BR BKN000 SCT001 13/13 Q1020=
200901280230 METAR LPPR 280230Z 22005KT 190V260 1200 R17/1100VP1500 R35/1000VP1500
                        -DZ BR BKN000 SCT001 13/13 Q1020=
200901280200 METAR LPPR 280200Z 22006KT 180V260 1500 R17/1400VP1500 R35/P1500
                        -DZ BR BKN000 BKN001 13/13 Q1019
                        RERA=
200901280130 METAR LPPR 280130Z 22007KT 170V250 2000 RA BR BKN000 BKN001
                        13/13 Q1020=
200901280100 METAR LPPR 280100Z 22007KT 180V260 1500 RA BR BKN000 BKN001
                        13/13 Q1020=
200901280030 METAR LPPR 280030Z 22007KT 190V260 1500 R17/P1500 R35/1100VP1500
                        -DZ BR BKN000 BKN001 13/13 Q1020=
200901280000 METAR LPPR 280000Z 22007KT 190V250 1500 BR VCFG BKN000 BKN001
                        13/13 Q1020=
200901272330 METAR LPPR 272330Z 21009KT 190V250 2000 -DZ BR SCT000 BKN001
                        13/13 Q1020=
200901272300 METAR LPPR 272300Z 21009KT 2000 DZ BR BKN001 SCT002 13/13
                        Q1020=
200901272230 METAR LPPR 272230Z 21009KT 2000 -RA BR BKN001 BKN003 13/13
                        Q1021=
200901272200 METAR LPPR 272200Z 21008KT 180V240 2000 -RADZ BR BKN001 BKN003
                        13/13 Q1021=
200901272130 METAR LPPR 272130Z 21006KT 180V250 3000 -RA BR SCT001 BKN003
                        13/13 Q1021=
200901272100 METAR LPPR 272100Z 21006KT 180V260 3000 BR SCT001 BKN003
                        13/13 Q1021=
200901272030 METAR LPPR 272030Z 22005KT 190V250 2000 -RADZ BR BKN001 BKN003
                        13/13 Q1021=
200901272000 METAR LPPR 272000Z 21006KT 190V250 3000 -DZ SCT001 BKN003
                        13/13 Q1021=
200901271930 METAR LPPR 271930Z 21004KT 180V250 1200 R17/P1500 R35/P1500
                        -DZ SCT001 BKN003 BKN005 13/13 Q1021=
200901271900 METAR LPPR 271900Z 21005KT 170V270 0800 R17/P1500 R35/P1500
                        -DZ FG SCT001 BKN003 BKN005 13/13
                        Q1021=
200901271830 METAR LPPR 271830Z 19008KT 0800 R17/P1500 R35/0900VP1500
                        FG SCT001 BKN003 BKN005 12/12 Q1021=
200901271800 METAR LPPR 271800Z 20010KT 1500 -RADZ BR SCT001 BKN003 BKN005
                        12/12 Q1021=
200901271730 METAR LPPR 271730Z 19013KT 1500 -RADZ BR SCT001 BKN003 BKN005
                        12/12 Q1021=
200901271700 METAR LPPR 271700Z 19013KT 3000 -RADZ BR BKN004 BKN013 11/11
                        Q1021=
200901271630 METAR LPPR 271630Z 18016KT 3000 -RADZ BR BKN003 BKN013 11/11
                        Q1021=
200901271600 METAR LPPR 271600Z 18012KT 3000 -RAZD BR BKN003 BKN013 11/11
                        Q1021=
200901271530 METAR LPPR 271530Z 18011KT 3000 -RADZ BR BKN003 BKN013 11/11
                        Q1021=
200901271500 METAR LPPR 271500Z 18013KT 3000 -RADZ BR BKN003 BKN013 11/11
                        Q1021=
200901271430 METAR LPPR 271430Z 18012KT 3000 -RADZ BR BKN003 BKN013 11/11
                        Q1021=
200901271400 METAR LPPR 271400Z 18010KT 5000 -RA BR SCT004 BKN017 11/11
                        Q1021=
200901271330 METAR LPPR 271330Z 17010KT 5000 -RA BR SCT004 BKN017 11/11
                        Q1021=
200901271300 METAR LPPR 271300Z 17009KT 5000 -RA BR SCT004 BKN017 11/11
                        Q1022=
200901271230 METAR LPPR 271230Z 19007KT 150V220 5000 -RA BR SCT004 BKN017
                        11/11 Q1022=
200901271200 METAR LPPR 271200Z 22008KT 3000 -RA BR SCT003 BKN025 11/11
                        Q1023=
200901271130 METAR LPPR 271130Z 21009KT 5000 -RA BR SCT005 BKN030 12/11
                        Q1023=
200901271100 METAR LPPR 271100Z 21008KT 180V240 9999 FEW020 BKN030 12/11
                        Q1023=
200901271030 METAR LPPR 271030Z 22007KT 180V250 9999 FEW030 BKN050 12/10
                        Q1023=
200901271000 METAR LPPR 271000Z 22006KT 9999 FEW030 BKN050 13/09 Q1023=
200901270930 METAR LPPR 270930Z 23005KT 9999 FEW030 BKN050 12/09 Q1022=
200901270900 METAR LPPR 270900Z 23004KT 170V310 9999 FEW030 BKN050 12/09
                        Q1022=
200901270830 METAR LPPR 270830Z VRB02KT 9999 FEW030 BKN050 11/09 Q1022=
200901270800 METAR LPPR 270800Z 00000KT 9999 FEW030 BKN050 11/09 Q1022=
200901270730 METAR LPPR 270730Z VRB03KT 9999 FEW015 BKN040 11/10 Q1022=
200901270700 METAR LPPR 270700Z VRB03KT 9999 SCT015 BKN040 11/11 Q1022=
200901270630 METAR LPPR 270630Z VRB03KT 9999 FEW015 BKN045 11/11 Q1022=
200901270600 METAR LPPR 270600Z 17002KT 9999 FEW015 SCT035 BKN050 11/10
                        Q1022=
200901270530 METAR LPPR 270530Z 00000KT 9999 FEW015 BKN035 11/10 Q1022=
200901270500 METAR LPPR 270500Z 00000KT 9999 FEW015 BKN035 11/10 Q1022=
200901270430 METAR LPPR 270430Z 00000KT 9999 FEW015 SCT035 11/10 Q1022=
200901270400 METAR LPPR 270400Z 00000KT 9999 FEW015 SCT035 11/09 Q1022=
200901270330 METAR LPPR 270330Z 32004KT 290V350 9999 FEW012 BKN035 11/09
                        Q1022=
200901270300 METAR LPPR 270300Z 31010KT 280V340 8000 SCT012 BKN035 11/10
                        Q1022=
200901270230 METAR LPPR 270230Z 28004G16KT 240V340 8000 -SHRA FEW008 SCT012
                        BKN035 10/10 Q1022=
200901270200 METAR LPPR 270200Z 00000KT 8000 FEW008 SCT012 BKN035 10/10
                        Q1022=
200901270130 METAR LPPR 270130Z 00000KT 7000 SCT012 BKN035 11/10 Q1022=
200901270100 METAR LPPR 270100Z VRB03KT 7000 -SHRA SCT012 BKN035 11/10
                        Q1022=
200901270030 METAR LPPR 270030Z 00000KT 8000 SCT015 BKN035 11/10 Q1022=
200901270000 METAR LPPR 270000Z 00000KT 8000 SCT012 BKN035 10/10 Q1022=
200901262330 METAR LPPR 262330Z 00000KT 8000 SCT012 BKN025 10/10 Q1022=
200901262300 METAR LPPR 262300Z 00000KT 8000 -SHRA SCT012 SCT025 10/10
                        Q1022=
200901262230 METAR LPPR 262230Z 01003KT 8000 -SHRA SCT015 SCT025 10/10
                        Q1022=
200901262200 METAR LPPR 262200Z 34009KT 9999 SCT015 SCT025 11/10 Q1022=
200901262130 METAR LPPR 262130Z VRB03KT 9999 FEW013 SCT035 11/10 Q1021=
200901262100 METAR LPPR 262100Z 32005KT 9999 FEW013 SCT035 11/09 Q1021=
200901262030 METAR LPPR 262030Z 32007KT 9999 FEW013 SCT030 11/09 Q1021=
200901262000 METAR LPPR 262000Z 33006KT 9999 FEW013 SCT030 11/09 Q1021=
200901261930 METAR LPPR 261930Z 00000KT 9999 FEW017 BKN025 10/09 Q1020=
200901261900 METAR LPPR 261900Z 34004KT 310V010 9999 FEW013 SCT030 11/08
                        Q1020=
200901261830 METAR LPPR 261830Z 33005KT 9999 FEW013 BKN030 11/09 Q1020=
200901261800 METAR LPPR 261800Z 32008KT 9999 FEW013 FEW017TCU BKN030 11/09
                        Q1020=
200901261730 METAR LPPR 261730Z 33006KT 280V350 9999 FEW015 FEW017TCU
                        SCT040 12/08 Q1019=
200901261700 METAR LPPR 261700Z 33007KT 290V350 9999 FEW015 12/09 Q1019=
200901261630 METAR LPPR 261630Z 33006KT 270V010 9999 SCT015 12/09 Q1019=
200901261600 METAR LPPR 261600Z 33010KT 9999 FEW015 FEW017CB 13/09 Q1018=
200901261530 METAR LPPR 261530Z 33008KT 9999 SCT015 FEW017CB SCT030 12/09
                        Q1018=
200901261500 METAR LPPR 261500Z 34012KT 9999 SCT015 FEW017CB SCT030 12/09
                        Q1018=
200901261430 METAR LPPR 261430Z 31008KT 280V340 9999 SCT015 FEW017CB 12/09
                        Q1018=
200901261400 METAR LPPR 261400Z 33008KT 9999 SCT015 FEW017CB SCT040 12/09
                        Q1017=
200901261330 METAR COR LPPR 261330Z 33009KT 6000 -SHRA BKN015 FEW017CB
                        13/08 Q1018=
200901261300 METAR LPPR 261300Z 33014KT 290V350 9999 FEW013 FEW017CB 13/07
                        Q1017=
200901261230 METAR LPPR 261230Z 33014KT 9999 FEW013 13/06 Q1018=
200901261200 METAR LPPR 261200Z 34012KT 9999 FEW013 13/07 Q1018=
200901261130 METAR LPPR 261130Z VRB03KT 9999 FEW012 SCT030 12/09 Q1018=
200901261100 METAR LPPR 261100Z 00000KT 9999 FEW012 FEW017CB SCT030 12/09
                        Q1018=
200901261030 METAR LPPR 261030Z VRB03KT 9999 FEW012 FEW017CB SCT025 10/08
                        Q1017=
200901261000 METAR LPPR 261000Z VRB03KT 9999 FEW012 FEW017CB SCT025 09/08
                        Q1017=
200901260930 METAR LPPR 260930Z 00000KT 7000 -SHRA FEW013 SCT017CB 09/08
                        Q1017=
200901260900 METAR LPPR 260900Z 00000KT 8000 -SHRA SCT015 SCT020CB 08/07
                        Q1016=
200901260830 METAR LPPR 260830Z VRB03KT 8000 -SHRA SCT015 FEW020CB SCT030
                        07/07 Q1015=
200901260800 METAR LPPR 260800Z 06002KT 9999 SCT015 FEW020CB BKN030 07/06
                        Q1015=
200901260730 METAR LPPR 260730Z 35008KT 9999 SCT015 FEW020CB SCT030 08/07
                        Q1014=
200901260700 METAR LPPR 260700Z VRB03KT 9999 SCT015 FEW020TCU 07/06 Q1014=
200901260630 METAR LPPR 260630Z 00000KT 8000 -SHRA SCT013 FEW020TCU BKN030
                        07/07 Q1013=
200901260600 METAR LPPR 260600Z 12005KT 8000 -SHRA SCT013 FEW020TCU SCT030
                        07/07 Q1013=
200901260530 METAR LPPR 260530Z 00000KT 9999 SCT013 FEW020TCU SCT030 07/06
                        Q1012=
200901260500 METAR LPPR 260500Z 08002KT 9999 SCT013 FEW020TCU SCT025 07/06
                        Q1012=
200901260430 METAR LPPR 260430Z 07003KT 9999 -SHRA SCT013 BKN025 07/06
                        Q1012=
200901260400 METAR LPPR 260400Z VRB03KT 9999 FEW015 08/06 Q1011=
200901260330 METAR LPPR 260330Z 36006KT 9999 SCT015 08/07 Q1011=
200901260300 METAR LPPR 260300Z 35006KT 9999 SCT015 FEW020CB BKN025 08/07
                        Q1010 RERA=
200901260230 METAR LPPR 260230Z 32013KT 280V350 6000 SHRA BKN012 SCT020CB
                        BKN030 09/07 Q1010 WS ALL RWY=
200901260200 METAR LPPR 260200Z 27009KT 230V320 9999 SCT015 SCT020CB BKN030
                        09/07 Q1009 WS ALL RWY=
200901260130 METAR LPPR 260130Z 33005KT 290V350 8000 BKN012 SCT020CB 07/07
                        Q1009 WS ALL RWY=
200901260100 METAR LPPR 260100Z 33014G27KT 6000 -SHRA BKN012 SCT020CB
                        BKN030 07/06 Q1010 RERA WS ALL RWY=
200901260030 METAR LPPR 260030Z 29013G26KT 260V330 8000 BKN015 FEW020CB
                        SCT035 10/07 Q1008 WS ALL RWY=
200901260000 METAR LPPR 260000Z 29012KT 250V320 8000 -SHRA BKN015 FEW020CB
                        SCT035 10/06 Q1009 WS ALL RWY=
200901252330 METAR LPPR 252330Z 30013G23KT 260V330 9999 BKN015 FEW020CB
                        10/06 Q1009 WS ALL RWY=
200901252300 METAR LPPR 252300Z 31012KT 9999 BKN015 FEW020CB 10/06 Q1009
                        WS ALL RWY=
200901252230 METAR LPPR 252230Z 31011G22KT 9999 BKN015 FEW020CB 09/06
                        Q1009 WS ALL RWY=
200901252200 METAR LPPR 252200Z VRB04KT 7000 -SHRA BKN015 FEW020CB BKN035
                        07/05 Q1009=
200901252130 METAR LPPR 252130Z VRB02KT 9999 BKN015 FEW020CB SCT035 07/05
                        Q1008=
200901252100 METAR LPPR 252100Z 01013KT 340V040 9999 BKN015 FEW020CB SCT035
                        09/05 Q1008 WS ALL RWY=
200901252030 METAR LPPR 252030Z 31012KT 280V340 9999 BKN015 FEW020CB SCT035
                        09/05 Q1008 WS ALL RWY=
200901252000 METAR LPPR 252000Z 30015G25KT 270V330 9999 SCT015 FEW020CB
                        09/04 Q1007 WS ALL RWY=
200901251930 METAR LPPR 251930Z 31012KT 260V330 9999 SCT015 FEW020CB SCT035
                        10/04 Q1007=
200901251900 METAR LPPR 251900Z 32011KT 9999 SCT015 FEW020CB 09/04 Q1007=
200901251830 METAR LPPR 251830Z 31012KT 9999 SCT015 FEW017CB SCT030 09/04
                        Q1007=
200901251800 METAR LPPR 251800Z 32013KT 9999 BKN015 FEW017CB 09/05 Q1006=
200901251730 METAR LPPR 251730Z 31011KT 270V340 9999 BKN015 FEW017CB 09/06
                        Q1006=
200901251700 METAR LPPR 251700Z 30013KT 260V330 9999 SCT015 SCT017CB 08/05
                        Q1005=
200901251630 METAR LPPR 251630Z 33011KT 9999 SCT015 SCT017CB SCT030 08/05
                        Q1005=
200901251600 METAR LPPR 251600Z 31023G39KT 270V330 5000 -SHRA BR SCT013
                        SCT017CB BKN030 07/05 Q1005 RERA
                        WS ALL RWY=
200901251530 METAR LPPR 251530Z 31011KT 280V340 9999 SCT013 FEW017CB SCT030
                        10/05 Q1005 WS ALL RWY=
200901251500 METAR LPPR 251500Z 31017KT 9999 SCT013 FEW017CB SCT030 09/06
                        Q1004 WS ALL RWY=
200901251430 METAR LPPR 251430Z 31014G27KT 270V330 9999 SCT013 SCT017CB
                        SCT030 11/05 Q1004 WS ALL RWY=
200901251400 METAR LPPR 251400Z 31011KT 260V340 9999 SCT013 SCT017CB SCT030
                        BKN250 10/07 Q1004 WS ALL RWY=
200901251330 METAR LPPR 251330Z 32016G26KT 9999 FEW013 SCT017CB BKN030
                        11/07 Q1004 WS ALL RWY=
200901251300 METAR LPPR 251300Z 31018G31KT 270V330 9999 FEW013 SCT017CB
                        BKN030 10/05 Q1004 WS ALL RWY=
200901251230 METAR LPPR 251230Z 31020G31KT 270V340 7000 VCSH SCT013 SCT017CB
                        SCT030 11/06 Q1004 WS ALL RWY=
200901251200 METAR LPPR 251200Z 30017G32KT 260V330 8000 -SHRA SCT013 SCT017CB
                        SCT030 BKN250 11/06 Q1004 WS ALL
                        RWY=
200901251130 METAR LPPR 251130Z 30018G30KT 240V330 8000 VCSH SCT013 SCT017CB
                        SCT030 11/06 Q1004 WS ALL RWY=
200901251100 METAR LPPR 251100Z 29014G26KT 250V320 8000 VCSH SCT013 SCT017CB
                        SCT030 11/06 Q1004 WS ALL RWY=
200901251030 METAR LPPR 251030Z 30016G28KT 270V330 8000 VCSH SCT013 SCT017CB
                        SCT030 BKN250 ///// Q1004 WS ALL
                        RWY=
200901251000 METAR LPPR 251000Z 30018G28KT 270V350 8000 FEW013 SCT017CB
                        SCT030 BKN200 ///// Q1003 WS ALL
                        RWY=
200901250930 METAR LPPR 250930Z 29017G30KT 260V320 7000 -SHRA FEW009 SCT017CB
                        BKN200 ///// Q1003 WS ALL RWY=
200901250900 METAR LPPR 250900Z 31014G24KT 280V340 8000 -SHRA SCT013 FEW017CB
                        BKN025 ///// Q1003 RERA WS ALL RWY=
200901250830 METAR LPPR 250830Z 28016G26KT 250V330 9999 SCT015 FEW017TCU
                        FEW020CB ///// Q1002 WS ALL RWY=
200901250800 METAR LPPR 250800Z 28017G28KT 250V310 9999 SCT013 FEW017CB
                        BKN040 ///// Q1002 WS ALL RWY=
200901250730 METAR LPPR 250730Z 28012G23KT 250V320 9999 SCT013 FEW020CB
                        BKN030 ///// Q1001=
200901250700 METAR LPPR 250700Z 28012G22KT 260V320 9999 SCT013 FEW017CB
                        SCT030 ///// Q1001=
200901250630 METAR LPPR 250630Z 30009KT 260V340 9999 SCT013 FEW017CB SCT030
                        ///// Q1001=
200901250600 METAR LPPR 250600Z 32014G24KT 8000 -SHRA SCT013 FEW017CB
                        SCT025 ///// Q1001=
200901250530 METAR LPPR 250530Z 29012G22KT 250V320 8000 -SHRA FEW004 SCT013
                        FEW017CB BKN025 ///// Q1001=
200901250500 METAR LPPR 250500Z 28013KT 240V310 7000 TSRA SCT008 SCT012
                        SCT017CB ///// Q1001=
200901250430 METAR LPPR 250430Z 23022G36KT 190V260 7000 TSRA BR SCT008
                        SCT012 FEW017CB BKN030 13/12 Q1000
                        WS ALL RWY=
200901250400 METAR LPPR 250400Z 21022KT 7000 -RA BR SCT008 BKN025 BKN070
                        13/12 Q1000=
200901250330 METAR LPPR 250330Z 20022KT 8000 -RA BR SCT008 BKN025 BKN070
                        12/12 Q1001=
200901250300 METAR LPPR 250300Z 20019KT 7000 -SHRA BR SCT005 SCT010 FEW020TCU
                        BKN035 12/11 Q1002=
200901250230 METAR LPPR 250230Z 20021KT 8000 FEW008 SCT015 FEW020TCU BKN035
                        12/12 Q1003=
200901250200 METAR LPPR 250200Z 20019KT 7000 -SHRA BR FEW007 SCT015 BKN020
                        12/12 Q1004=
200901250130 METAR LPPR 250130Z 19017KT 9999 FEW015 SCT020 BKN070 12/11
                        Q1005=
200901250100 METAR LPPR 250100Z 20015KT 9999 FEW015 SCT020 BKN070 12/10
                        Q1006=
200901250030 METAR LPPR 250030Z 20017KT 5000 BR FEW008 SCT015 BKN070 12/11
                        Q1007=
200901250000 METAR LPPR 250000Z 19018KT 5000 BR FEW007 SCT015 BKN070 12/11
                        Q1007=
200901242330 METAR LPPR 242330Z 18017KT 5000 BR SCT009 SCT015 BKN070 11/11
                        Q1008=
200901242300 METAR LPPR 242300Z 18021KT 7000 SCT005 BKN015 BKN070 11/11
                        Q1009=
200901242230 METAR LPPR 242230Z 18018KT 7000 VCSH BR SCT007 SCT015 BKN070
                        11/11 Q1009=
200901242200 METAR LPPR 242200Z 18018KT 6000 FEW009 SCT015 BKN070 11/11
                        Q1010=
200901242130 METAR LPPR 242130Z 18017KT 7000 FEW015 SCT040 11/10 Q1010=
200901242100 METAR LPPR 242100Z 18014KT 7000 FEW015 SCT040 12/10 Q1011=
200901242030 METAR LPPR 242030Z 19014KT 9999 FEW015 FEW020TCU SCT050 12/10
                        Q1012=
200901242000 METAR LPPR 242000Z 19013KT 9999 SCT015 FEW020TCU BKN050 12/10
                        Q1012=
200901241930 METAR LPPR 241930Z 19011KT 9999 FEW015 11/10 Q1012=
200901241900 METAR LPPR 241900Z 19010KT 9999 FEW015 11/10 Q1013=
200901241830 METAR LPPR 241830Z 19010KT 9999 FEW015 11/10 Q1013=
200901241800 METAR LPPR 241800Z 19009KT 9999 FEW015 11/10 Q1013=
200901241730 METAR LPPR 241730Z 20008KT 9999 FEW015 12/10 Q1013=
200901241700 METAR LPPR 241700Z 20007KT 170V230 9999 FEW015 12/09 Q1014=
200901241630 METAR LPPR 241630Z 19006KT 9999 FEW015 13/09 Q1014=
200901241600 METAR LPPR 241600Z 25004KT 200V300 8000 VCSH BR FEW008 SCT015
                        FEW020CB 12/09 Q1014 RERA=
200901241530 METAR LPPR 241530Z 24007KT 200V260 8000 VCSH BR FEW008 SCT015
                        FEW017TCU BKN030 14/09 Q1015=
200901241500 METAR LPPR 241500Z 24008KT 200V270 9999 FEW017 14/09 Q1015=
200901241430 METAR LPPR 241430Z 24008KT 9999 FEW017 14/09 Q1015=
200901241400 METAR LPPR 241400Z 25009KT 220V280 9999 FEW017 14/08 Q1015=
200901241330 METAR LPPR 241330Z 25008KT 220V300 9999 FEW017 14/08 Q1016=
200901241300 METAR LPPR 241300Z 25008KT 220V300 9999 FEW017 14/09 Q1016=
200901241230 METAR LPPR 241230Z 25006KT 210V310 9999 FEW017 SCT040 14/10
                        Q1016=
200901241200 METAR LPPR 241200Z 29005KT 240V330 9999 SCT017 SCT040 13/08
                        Q1016=
200901241130 METAR LPPR 241130Z 34004KT 300V030 8000 SCT017 BKN040 13/09
                        Q1017=
200901241100 METAR LPPR 241100Z 33003KT 8000 BKN017 SCT035 11/09 Q1017=
200901241030 METAR LPPR 241030Z 31007KT 270V050 8000 -SHRA BKN017 FEW025TCU
                        13/09 Q1016=
200901241000 METAR LPPR 241000Z 31007KT 270V340 9999 SCT017 FEW025TCU
                        12/08 Q1016=
200901240930 METAR LPPR 240930Z 31008KT 270V330 9999 SCT017 FEW025TCU
                        12/09 Q1015=
200901240900 METAR LPPR 240900Z 32009KT 8000 SCT017 FEW025TCU 11/09 Q1015=
200901240830 METAR LPPR 240830Z 31007KT 240V360 8000 SCT017 11/09 Q1015=
200901240800 METAR LPPR 240800Z 31009KT 270V330 8000 SCT017 11/09 Q1014=
200901240730 METAR LPPR 240730Z 32010KT 8000 SCT017 BKN025 10/09 Q1014
                        RERA=
200901240700 METAR LPPR 240700Z 30011KT 270V330 8000 SCT017 BKN025 12/09
                        Q1013=
200901240630 METAR LPPR 240630Z 30010KT 260V330 8000 BKN017 SCT025 12/09
                        Q1012 WS ALL RWY=
200901240600 METAR LPPR 240600Z 30010KT 270V330 8000 -SHRA BKN017 SCT025
                        12/09 Q1012 WS ALL RWY=
200901240530 METAR LPPR 240530Z 29010KT 260V330 9999 SCT017 BKN035 12/09
                        Q1012 WS ALL RWY=
200901240500 METAR LPPR 240500Z 31015G26KT 280V340 9999 SCT017 BKN035
                        13/07 Q1012 WS ALL RWY=
200901240430 METAR LPPR 240430Z 31013KT 9999 SCT017 BKN025 12/08 Q1012
                        WS ALL RWY=
200901240400 METAR LPPR 240400Z 30012KT 260V330 9999 BKN017 12/09 Q1012
                        WS ALL RWY=
200901240330 METAR LPPR 240330Z 30013G23KT 270V330 9999 BKN017 12/09 Q1011
                        WS ALL RWY=
200901240300 METAR LPPR 240300Z 30014G24KT 270V330 9999 BKN017 12/08 Q1011
                        WS ALL RWY=
200901240230 METAR LPPR 240230Z 30015G27KT 270V330 8000 BKN015 11/08 Q1011
                        WS ALL RWY=
200901240200 METAR LPPR 240200Z 30017G29KT 260V330 8000 BKN017 13/09 Q1010
                        WS ALL RWY=
200901240130 METAR LPPR 240130Z 30013KT 260V330 8000 FEW009 BKN020 13/10
                        Q1010 WS ALL RWY=
200901240100 METAR LPPR 240100Z 29019KT 260V320 6000 -RA FEW009 BKN020
                        13/09 Q1009 WS ALL RWY=
200901240030 METAR LPPR 240030Z 28014G27KT 240V300 8000 FEW009 BKN020
                        14/10 Q1009 WS ALL RWY=
200901240000 METAR LPPR 240000Z 28017G30KT 240V320 8000 SCT009 BKN017
                        14/09 Q1008 WS ALL RWY=
200901232330 METAR LPPR 232330Z 28015KT 7000 SCT007 BKN017 14/10 Q1008
                        WS ALL RWY=
200901232300 METAR LPPR 232300Z 26013KT 220V310 5000 -RA BR SCT006 BKN017
                        14/10 Q1007 WS ALL RWY=
200901232230 METAR LPPR 232230Z 27015G26KT 200V300 7000 SCT007 BKN017
                        14/11 Q1007 WS ALL RWY=
200901232200 METAR LPPR 232200Z 27018G33KT 240V320 6000 SCT007 BKN017
                        15/11 Q1006 WS ALL RWY=
200901232130 METAR LPPR 232130Z 24017G28KT 210V270 6000 SCT007 BKN017
                        15/13 Q1006 WS ALL RWY=
200901232100 METAR LPPR 232100Z 22018G28KT 190V250 5000 BR SCT006 BKN017
                        14/14 Q1006 WS ALL RWY=
200901232030 METAR LPPR 232030Z 22018G29KT 190V250 5000 BR BKN005 BKN020
                        14/14 Q1006 RERA WS ALL RWY=
200901232000 METAR LPPR 232000Z 21021G38KT 3000 RA SCT002 BKN005 14/14
                        Q1006 WS ALL RWY=
200901231930 METAR LPPR 231930Z 20023G33KT 3000 RA SCT002 BKN005 14/14
                        Q1006 WS ALL RWY=
200901231900 METAR LPPR 231900Z 20020KT 4000 BR SCT002 BKN005 14/14 Q1007=
200901231830 METAR LPPR 231830Z 20020KT 4000 BR SCT002 BKN004 14/14 Q1008=
200901231800 METAR LPPR 231800Z 20017KT 3000 BR SCT001 BKN004 14/14 Q1008=
200901231730 METAR LPPR 231730Z 21015KT 180V250 2500 BR SCT001 BKN004
                        14/14 Q1009=
200901231700 METAR LPPR 231700Z 21013KT 2500 BR VCFG BKN001 BKN003 14/14
                        Q1009=
200901231630 METAR LPPR 231630Z 22012KT 190V250 1800 -RADZ BR SCT000 BKN002
                        14/14 Q1010=
200901231600 METAR LPPR 231600Z 22014KT 180V250 1500 -DZ VCFG BKN000 BKN002
                        14/14 Q1010 WS ALL RWY=
200901231530 METAR LPPR 231530Z 23014G24KT 200V260 1200 R17/P1500 R35/P1500
                        BR VCFG BKN000 BKN002 14/14 Q1010=
200901231500 METAR LPPR 231500Z 23015KT 200V260 1500 -DZ VCFG SCT000 BKN002
                        14/14 Q1010=
200901231430 METAR LPPR 231430Z 23014KT 200V260 0700 R17/P1500 R35/P1500
                        -DZ VCFG BKN000 BKN002 14/14 Q1009=
200901231400 METAR LPPR 231400Z 23013G24KT 200V260 0700 R17/P1500 R35/1400VP1500
                        -DZ BCFG BKN000 BKN002 14/14 Q1009=
200901231330 METAR LPPR 231330Z 23012KT 200V260 0800 R17/P1500 R35/P1500
                        BCFG BKN000 BKN002 14/14 Q1010=
200901231300 METAR LPPR 231300Z 23014G24KT 200V260 0800 R17/P1500 R35/P1500
                        BCFG SCT000 BKN002 14/14 Q1010=
200901231230 METAR LPPR 231230Z 23013KT 200V260 1200 R17/P1500 R35/P1500
                        -DZ VCFG BKN001 BKN002 14/14 Q1011=
200901231200 METAR LPPR 231200Z 23013G24KT 200V260 1200 R17/P1500 R35/P1500
                        -DZ=
200901231130 METAR LPPR 231130Z 23013G23KT 200V260 1200 R17/P1500 R35/P1500
                        BR VCFG BKN001 BKN002 14/14 Q1012=
200901231100 METAR LPPR 231100Z 23011G22KT 200V270 1500 BR VCFG BKN001
                        BKN003 14/14 Q1012=
200901231030 METAR LPPR 231030Z 23012KT 190V280 1500 BR BKN001 BKN003
                        14/14 Q1012=
200901231000 METAR LPPR 231000Z 23012KT 190V260 1500 -DZ BR SCT001 BKN002
                        14/14 Q1012=
200901230930 METAR LPPR 230930Z 23011KT 190V260 2000 -DZ BR BKN001 BKN003
                        14/14 Q1012=
200901230900 METAR LPPR 230900Z 22013KT 4000 BR SCT003 BKN005 14/14 Q1012=
200901230830 METAR LPPR 230830Z 22008KT 180V250 4000 BR SCT004 BKN008
                        14/14 Q1012=
200901230800 METAR LPPR 230800Z 22010KT 190V260 4000 BR SCT003 BKN007
                        14/14 Q1012=
200901230730 METAR LPPR 230730Z 24008KT 200V270 3000 BR SCT003 BKN008
                        14/14 Q1012=
200901230700 METAR LPPR 230700Z 25009KT 210V280 3000 BR SCT003 BKN007
                        14/14 Q1012=
200901230630 METAR LPPR 230630Z 24008KT 210V270 3000 BR SCT003 BKN005
                        14/14 Q1012=
200901230600 METAR LPPR 230600Z 25009KT 220V290 2000 BR SCT003 BKN005
                        14/14 Q1012=
200901230530 METAR LPPR 230530Z 25009KT 200V300 2000 BR SCT001 BKN002
                        14/14 Q1011=
200901230500 METAR LPPR 230500Z 26008KT 210V330 2000 -DZ BR SCT000 BKN003
                        14/14 Q1011=
200901230430 METAR LPPR 230430Z 25009KT 220V280 1500 R17/P1500 R35/0650VP1500
                        BR=
200901230400 METAR LPPR 230400Z 25008KT 210V290 1500 BR VCFG SCT001 BKN002
                        14/14 Q1011=
200901230330 METAR LPPR 230330Z 25008KT 210V290 0500 R17/P1500 R35/P1500
                        -DZ FG OVC000 14/14 Q1012=
200901230300 METAR LPPR 230300Z 26007KT 220V290 0800 R17/P1500 R35/P1500
                        FG BKN000 BKN001 14/14 Q1011=
200901230230 METAR LPPR 230230Z 25008KT 220V280 1500 BR VCFG SCT000 BKN001
                        14/14 Q1012=
200901230200 METAR LPPR 230200Z 24009KT 210V270 1500 BR VCFG SCT000 BKN002
                        14/14 Q1012=
200901230130 METAR LPPR 230130Z 23009KT 190V270 0500 R17/P1500 R35/1100V1500U
                        FG BKN000 BKN001 14/14 Q1012=
200901230100 METAR LPPR 230100Z 24009KT 210V270 0500 R17/P1500 R35/1200VP1500
                        -DZ FG SCT000 BKN001 14/14 Q1012=
200901230030 METAR LPPR 230030Z 24008KT 200V280 0400 R17/P1500 R35/0800U
                        FG BKN000 BKN001 14/14 Q1012=
200901230000 METAR LPPR 230000Z 24009KT 200V270 0400 R17/P1500 R35/0900U
                        FG BKN000 BKN001 14/14 Q1012=
200901222330 METAR LPPR 222330Z 23010KT 200V270 0400 R17/P1500 R35/1100N
                        FG BKN000 BKN001 14/14 Q1012=
200901222300 METAR LPPR 222300Z 22012KT 180V250 0300 R17/P1500 R35/P1500
                        -RADZ FG BKN000 BKN001 14/14 Q1012=
200901222230 METAR LPPR 222230Z 23011KT 190V260 0300 R17/P1500 R35/P1500
                        FG BKN000 BKN001 14/14 Q1012=
200901222200 METAR LPPR 222200Z 22010KT 180V250 0200 R17/P1500 R35/1400N
                        -RADZ FG BKN000 BKN001 14/14 Q1012=
200901222130 METAR LPPR 222130Z 24010KT 200V270 0200 R17/P1500 R35/1300VP1500
                        -RADZ FG BKN000 BKN001 14/14 Q1012=
200901222100 METAR LPPR 222100Z 23010KT 200V260 0200 R17/P1500 R35/1000VP1500
                        -RADZ FG BKN000 BKN001 14/14 Q1012=
200901222030 METAR LPPR 222030Z 24008KT 200V270 0200 R17/1200VP1500 R35/0650V1000D
                        -RADZ FG BKN000 BKN001 14/14 Q1012=
200901222000 METAR LPPR 222000Z 23009KT 200V270 0300 R17/1200N R35/0700N
                        RADZ FG BKN000 BKN001 14/14 Q1012=
200901221930 METAR LPPR 221930Z 23010KT 200V270 0300 R17/1200D R35/0750N
                        FG BKN000 BKN001 14/14 Q1012=
200901221900 METAR LPPR 221900Z 23009KT 0400 R17/1500N R35/0800N -RADZ
                        BR BKN000 BKN001 14/14 Q1012=
200901221830 METAR LPPR 221830Z 23009KT 200V260 0500 R17/P1500 R35/1000D
                        -RADZ FG BKN000 BKN001 14/14 Q1012=
200901221800 METAR LPPR 221800Z 23009KT 200V260 0700 R17/P1500 R35/P1500
                        -RADZ FG BKN000 BKN001 14/14 Q1012=
200901221730 METAR LPPR 221730Z 22008KT 190V270 0500 R17/P1500 R35/P1500
                        -RADZ FG BKN000 BKN001 14/14 Q1012=
200901221700 METAR LPPR 221700Z 22008KT 190V250 0700 R17/P1500 R35/P1500
                        -RADZ FG BKN000 BKN001 14/14 Q1012=
200901221630 METAR LPPR 221630Z 22008KT 190V250 0600 R17/P1500 R35/P1500
                        FG BKN000 BKN001 14/14 Q1012=
200901221600 METAR LPPR 221600Z 21008KT 190V250 1800 BR BKN001 BKN002
                        14/14 Q1011=
200901221530 METAR LPPR 221530Z 21006KT 190V250 3000 -RA BR BKN001 BKN003
                        14/14 Q1012=
200901221500 METAR LPPR 221500Z 24005KT 200V280 3000 -RA BR BKN002 BKN004
                        14/14 Q1013=
200901221430 METAR LPPR 221430Z 24007KT 0300 R17/P1500 R35/0500N -RADZ
                        FG BKN000 BKN001 14/14 Q1012=
200901221400 METAR LPPR 221400Z 24007KT 200V290 0300 R17/1500U R35/0750V1500U
                        -DZ FG BKN000 BKN001 14/14 Q1013=
200901221300 METAR LPPR 221300Z 24008KT 210V270 0150 R17/1200D R35/0600N
                        FG BKN000 BKN001 14/14 Q1013=
200901221230 METAR LPPR 221230Z 24009KT 210V280 0200 R17/1100VP1500 R35/0650N
                        -DZ FG BKN000 BKN001 14/14 Q1013=
200901221200 METAR LPPR 221200Z 24008KT 200V270 0200 R17/1100V1500D R35/0650N
                        -DZ FG BKN000 BKN001 14/14 Q1013=
200901221130 METAR LPPR 221130Z 24008KT 200V260 0200 R17/P1500 R35/0800D
                        -DZ FG BKN000 BKN001 14/14 Q1013=
200901221100 METAR LPPR 221100Z 24009KT 210V270 0200 R17/P1500 R35/0700N
                        -DZ FG BKN000 BKN001 14/14 Q1014=
200901221030 METAR LPPR 221030Z 24007KT 210V270 0300 R17/P1500 R35/0750V1000N
                        -DZ FG BKN000 BKN001 14/14 Q1013=
200901221000 METAR LPPR 221000Z 24009KT 210V270 0300 R17/P1500 R35/0800N
                        -DZ BCFG BKN000 BKN001 14/14 Q1013=
200901220930 METAR LPPR 220930Z 24008KT 210V280 0300 R17/1200V1500U R35/0650N
                        FG BKN000 BKN001 14/14 Q1012=
200901220900 METAR LPPR 220900Z 25010KT 200V280 0700 R17/P1500 R35/0900VP1500
                        FG SCT000 BKN002 14/14 Q1012=
200901220830 METAR LPPR 220830Z 23009KT 210V270 0700 R17/P1500 R35/0900VP1500
                        -DZ FG SCT000 BKN002 14/14 Q1012=
200901220800 METAR LPPR 220800Z 23010KT 200V260 0800 R17/P1500 R35/0900V1500N
                        FG SCT000 BKN002 14/14 Q1012=
200901220730 METAR LPPR 220730Z 22010KT 190V260 1500 -RADZ BR SCT001 BKN003
                        13/13 Q1011=
200901220700 METAR LPPR 220700Z 22011KT 190V250 2000 -DZ BR SCT001 BKN003
                        13/13 Q1011=
200901220630 METAR LPPR 220630Z 22011KT 190V250 2000 -DZ BR SCT001 BKN003
                        13/13 Q1011=
200901220600 METAR LPPR 220600Z 21016KT 3000 -RA SCT001 BKN004 13/13 Q1012=
200901220530 METAR LPPR 220530Z 20015KT 1500 -RADZ BR SCT001 BKN003 13/13
                        Q1012=
200901220500 METAR LPPR 220500Z 20017KT 2000 -RADZ SCT001 BKN003 12/12
                        Q1012=
200901220430 METAR LPPR 220430Z 19017KT 2000 -RA BR SCT002 BKN004 12/12
                        Q1012 RERA=
200901220400 METAR LPPR 220400Z 19017KT 2000 RA BR SCT001 SCT002 BKN005
                        12/12 Q1013=
200901220330 METAR LPPR 220330Z 19019KT 3000 -RADZ BR SCT001 SCT003 BKN006
                        12/12 Q1013=
200901220300 METAR LPPR 220300Z 19019KT 3000 RADZ BR SCT001 SCT003 BKN006
                        12/12 Q1014=
200901220230 METAR LPPR 220230Z 19017KT 3000 -RADZ BR SCT001 SCT003 BKN006
                        12/12 Q1014=
200901220200 METAR LPPR 220200Z 19019KT 4000 -RA BR SCT001 SCT003 BKN006
                        12/12 Q1014 RERA=
200901220130 METAR LPPR 220130Z 19020KT 3000 RA BR SCT001 SCT003 BKN006
                        11/11 Q1014=
200901220100 METAR LPPR 220100Z 19020KT 3000 RA BR SCT001 SCT004 BKN006
                        11/11 Q1015=
200901220030 METAR LPPR 220030Z 19018KT 5000 -RA BR FEW001 SCT004 BKN008
                        11/11 Q1015=
200901220000 METAR LPPR 220000Z 18018KT 5000 -RA BR FEW001 SCT004 BKN008
                        11/11 Q1016=
200901212330 METAR LPPR 212330Z 19016KT 5000 -RA BR SCT002 SCT005 BKN013
                        11/11 Q1016=
200901212300 METAR LPPR 212300Z 19014KT 6000 -RA SCT002 SCT006 BKN013
                        11/10 Q1017=
200901212230 METAR LPPR 212230Z 18015KT 7000 -RA SCT006 BKN015 11/10 Q1017=
200901212200 METAR LPPR 212200Z 19016KT 7000 -RA SCT002 SCT006 BKN013
                        11/10 Q1018=
200901212130 METAR LPPR 212130Z 18013KT 8000 -RA FEW007 SCT012 BKN020
                        10/10 Q1018=
200901212100 METAR LPPR 212100Z 18014KT 8000 -SHRA FEW007 SCT015 BKN025
                        10/10 Q1018=
200901212030 METAR LPPR 212030Z 18014KT 8000 -SHRA FEW008 SCT015 BKN025
                        10/10 Q1018=
200901212000 METAR LPPR 212000Z 17010KT 8000 FEW008 SCT015 BKN030 10/09
                        Q1018=
200901211930 METAR LPPR 211930Z 18013KT 8000 FEW008 SCT015 BKN035 10/09
                        Q1018=
200901211900 METAR LPPR 211900Z 18011KT 8000 SCT015 BKN035 10/09 Q1019=
200901211830 METAR LPPR 211830Z 18011KT 9999 SCT015 BKN040 10/09 Q1019=
200901211800 METAR LPPR 211800Z 18009KT 9999 SCT015 BKN040 10/08 Q1019=
200901211730 METAR LPPR 211730Z 18012KT 9999 SCT015 BKN040 11/09 Q1019=
200901211700 METAR LPPR 211700Z 19011KT 9999 FEW015 BKN040 11/09 Q1019=
200901211630 METAR LPPR 211630Z 17011KT 6000 FEW008 BKN035 11/10 Q1018=
200901211600 METAR LPPR 211600Z 18014KT 7000 FEW008 SCT035 BKN250 11/09
                        Q1018=
200901211530 METAR LPPR 211530Z 19013KT 9999 FEW008 SCT035 BKN250 11/09
                        Q1018=
200901211500 METAR LPPR 211500Z 18012KT 9999 FEW015 BKN035 10/08 Q1018=
200901211430 METAR LPPR 211430Z 19010KT 8000 FEW015 BKN035 11/09 Q1019=
200901211400 METAR LPPR 211400Z 19013KT 9999 SCT015 BKN035 10/09 Q1019=
200901211330 METAR LPPR 211330Z 18011KT 9999 SCT015 BKN040 10/08 Q1020=
200901211300 METAR LPPR 211300Z 18011KT 9999 SCT015 BKN030 10/08 Q1020=
200901211230 METAR LPPR 211230Z 18008KT 8000 SCT015 BKN035 10/08 Q1020=
200901211200 METAR LPPR 211200Z 17009KT 8000 -SHRA SCT015 BKN025 08/07
                        Q1021=
200901211130 METAR LPPR 211130Z 17008KT 9999 FEW015 BKN035 08/07 Q1021=
200901211100 METAR LPPR 211100Z 17009KT 8000 -SHRA SCT015 BKN035 08/07
                        Q1021=
200901211030 METAR LPPR 211030Z 17007KT 120V190 9999 SCT013 SCT040 08/06
                        Q1021=
200901211000 METAR LPPR 211000Z 15005KT 9999 SCT018 SCT045 06/05 Q1020=
200901210930 METAR LPPR 210930Z 13007KT 9999 SCT015 SCT045 05/04 Q1020=
200901210900 METAR LPPR 210900Z 12006KT 9999 FEW005 SCT015 BKN040 05/04
                        Q1020=
200901210830 METAR LPPR 210830Z 13008KT 9999 SCT015 SCT040 04/04 Q1019=
200901210800 METAR LPPR 210800Z 13006KT 9999 SCT015 BKN040 04/04 Q1020=
200901210730 METAR LPPR 210730Z 13006KT 8000 SCT015 SCT030 04/03 Q1019=
200901210700 METAR LPPR 210700Z 13007KT 8000 SCT015 SCT030 04/03 Q1018=
200901210630 METAR LPPR 210630Z 14007KT 8000 SCT015 BKN030 04/03 Q1018=
200901210600 METAR LPPR 210600Z 14005KT 110V170 8000 SCT015 SCT020 04/03
                        Q1018=
200901210530 METAR LPPR 210530Z 12007KT 8000 SCT015 BKN020 04/03 Q1018=
200901210500 METAR LPPR 210500Z 12007KT 8000 -SHRA SCT015 BKN030 04/04
                        Q1018=
200901210430 METAR LPPR 210430Z 13006KT 8000 -SHRA SCT015 BKN045 04/03
                        Q1018=
200901210400 METAR LPPR 210400Z 12007KT 9999 SCT015 BKN045 04/03 Q1018=
200901210330 METAR LPPR 210330Z 13006KT 9999 FEW015 SCT040 BKN200 04/03
                        Q1018=
200901210300 METAR LPPR 210300Z 12008KT 9999 FEW015 SCT040 BKN200 04/03
                        Q1018=
200901210230 METAR LPPR 210230Z 12008KT 9999 SCT015 SCT035 BKN050 04/03
                        Q1018=
200901210200 METAR LPPR 210200Z 12005KT 9999 SCT015 BKN045 04/03 Q1018=
200901210130 METAR LPPR 210130Z 11005KT 9999 FEW015 SCT040 04/03 Q1017=
200901210100 METAR LPPR 210100Z 08004KT 050V130 9999 FEW015 SCT030 04/03
                        Q1017=
200901210030 METAR LPPR 210030Z VRB02KT 8000 FEW015 FEW020CB SCT035 04/03
                        Q1017=
200901210000 METAR LPPR 210000Z 12006KT 8000 FEW015 FEW020CB SCT030 BKN050
                        04/04 Q1017=
200901202330 METAR LPPR 202330Z 13006KT 9999 SCT015 FEW020CB SCT025 04/04
                        Q1017=
200901202300 METAR LPPR 202300Z VRB02KT 9999 SCT015 FEW020CB SCT025 05/04
                        Q1017=
200901202230 METAR LPPR 202230Z 04005G18KT 8000 -SHRA SCT015 BKN025 04/04
                        Q1017=
200901202200 METAR LPPR 202200Z VRB02KT 9999 SCT017 SCT025 05/04 Q1016=
200901202130 METAR LPPR 202130Z VRB02KT 8000 -SHRA SCT017 BKN025 05/04
                        Q1016=
200901202100 METAR LPPR 202100Z 11005KT 080V140 9999 -SHRA BKN017 FEW025CB
                        05/04 Q1016=
200901202030 METAR LPPR 202030Z 14004KT 9999 SCT017 FEW025CB 05/04 Q1016=
200901202000 METAR LPPR 202000Z 01005KT 340V070 8000 -SHRA BKN017 FEW025CB
                        05/04 Q1016=
200901201930 METAR LPPR 201930Z 12006KT 9999 -SHRA FEW017 FEW025CB BKN035
                        05/04 Q1015=
200901201900 METAR LPPR 201900Z 11003KT 9999 SCT017 FEW025CB SCT040 05/03
                        Q1014=
200901201830 METAR LPPR 201830Z 05005KT 020V090 9999 SCT017 FEW025CB 06/03
                        Q1013=
200901201800 METAR LPPR 201800Z VRB03KT 9999 -SHRA FEW013 BKN017 FEW025CB
                        07/03 Q1013=
200901201730 METAR LPPR 201730Z 02005KT 9999 VCSH BKN017 FEW025CB 07/03
                        Q1012=
200901201700 METAR LPPR 201700Z 33009KT 290V350 9999 SCT017 FEW025CB SCT040
                        08/04 Q1012=
200901201630 METAR LPPR 201630Z 33009KT 9999 SCT017 FEW025CB SCT040 08/02
                        Q1012=
200901201600 METAR LPPR 201600Z 33011KT 9999 SCT017 FEW025CB SCT250 08/04
                        Q1011=
200901201530 METAR LPPR 201530Z 32013KT 9999 SCT017 FEW020CB SCT250 09/04
                        Q1011=
200901201500 METAR LPPR 201500Z 31008KT 280V350 9999 SCT017 FEW020CB SCT250
                        08/04 Q1010=
200901201430 METAR LPPR 201430Z 31008KT 9999 SCT017 FEW020 BKN035 07/04
                        Q1010=
200901201400 METAR LPPR 201400Z 31009G25KT 270V350 9999 -SHRA FEW013 BKN017
                        FEW020CB 07/04 Q1010=
200901201330 METAR LPPR 201330Z 36003KT 9999 -SHRA SCT015 FEW020CB BKN035
                        07/04 Q1010=
200901201300 METAR LPPR 201300Z 36007KT 9999 -SHRA SCT015 FEW020CB BKN030
                        06/04 Q1010=
200901201230 METAR LPPR 201230Z 35012KT 8000 -SHRA SCT015 FEW020CB BKN030
                        06/04 Q1010=
200901201200 METAR LPPR 201200Z 35012KT 330V030 9999 SCT015 FEW020CB BKN030
                        06/04 Q1010 RETS=
200901201130 METAR LPPR 201130Z 32013KT 6000 TSRAGS FEW008 SCT013 SCT018CB
                        BKN030 08/04 Q1010=
200901201100 METAR LPPR 201100Z 01004KT 340V040 9999 -SHRA SCT015 FEW020CB
                        BKN030 08/03 Q1010=
200901201030 METAR LPPR 201030Z 35014KT 9999 SCT015 FEW020CB BKN030 07/03
                        Q1010 RERA=
200901201000 METAR LPPR 201000Z 31013KT 270V330 9999 SCT015 FEW020CB BKN030
                        09/05 Q1009=
200901200930 METAR LPPR 200930Z 31015KT 9999 SCT015 FEW020CB BKN030 08/03
                        Q1009=
200901200900 METAR LPPR 200900Z 30010KT 270V340 9999 FEW015 FEW020CB BKN030
                        08/03 Q1009=
200901200830 METAR LPPR 200830Z 33012KT 8000 -SHRA SCT013 FEW017CB BKN030
                        07/04 Q1009=
200901200800 METAR LPPR 200800Z 34015KT 9999 SCT015 FEW020CB BKN027 07/03
                        Q1009=
200901200730 METAR LPPR 200730Z 33019G29KT 8000 -SHRA SCT015 FEW020CB
                        BKN025 07/05 Q1008=
200901200700 METAR LPPR 200700Z 31007KT 270V360 6000 -SHRA SCT015 FEW020CB
                        BKN025 06/04 Q1008=
200901200630 METAR LPPR 200630Z 02005KT 300V060 9999 FEW015 FEW020CB SCT030
                        06/04 Q1008=
200901200600 METAR LPPR 200600Z 01010KT 8000 -SHRA SCT015 FEW020CB BKN030
                        06/05 Q1008=
200901200530 METAR LPPR 200530Z 03004KT 340V090 9999 FEW013 FEW017CB SCT025
                        06/05 Q1007=
200901200500 METAR LPPR 200500Z VRB03KT 9999 -SHRA FEW013 FEW017CB SCT025
                        07/05 Q1007=
200901200430 METAR LPPR 200430Z 29006KT 260V340 9999 FEW013 FEW017CB SCT025
                        07/04 Q1008 WS ALL RWY=
200901200400 METAR LPPR 200400Z 31009KT 280V350 8000 -SHRA FEW013 FEW017CB
                        SCT060 06/04 Q1008 RERA WS ALL RWY=
200901200330 METAR LPPR 200330Z 31009KT 280V340 9999 FEW013 SCT060 08/04
                        Q1008 WS ALL RWY=
200901200300 METAR LPPR 200300Z 30014G24KT 270V330 9999 FEW015 SCT030
                        BKN060 08/04 Q1008 WS ALL RWY=
200901200230 METAR LPPR 200230Z 30015G25KT 270V330 9999 FEW015 SCT030
                        09/05 Q1008 WS ALL RWY=
200901200200 METAR LPPR 200200Z 29013G23KT 270V330 9999 FEW015 SCT030
                        10/03 Q1008 WS ALL RWY=
200901200130 METAR LPPR 200130Z 30012KT 270V340 9999 FEW015 SCT060 10/04
                        Q1008 WS ALL RWY=
200901200100 METAR LPPR 200100Z 29013G24KT 250V320 9999 FEW013 SCT030
                        BKN060 10/04 Q1008=
200901200030 METAR LPPR 200030Z 30013G29KT 260V350 8000 -SHRA SCT013 BKN030
                        10/04 Q1008 WS ALL RWY=
200901200000 METAR LPPR 200000Z 28011KT 260V320 8000 -SHRA FEW013 BKN030
                        10/06 Q1009=
200901192330 METAR LPPR 192330Z 30008KT 250V330 9999 FEW013 SCT025 10/05
                        Q1009=
200901192300 METAR LPPR 192300Z 29008KT 260V330 9999 FEW013 SCT025 10/05
                        Q1009=
200901192230 METAR LPPR 192230Z 27008KT 230V300 9999 FEW013 SCT025 10/06
                        Q1009=
200901192200 METAR LPPR 192200Z 30004KT 260V350 9999 FEW013 SCT025 10/06
                        Q1009=
200901192130 METAR LPPR 192130Z 29006KT 250V330 9999 FEW013 SCT080 10/05
                        Q1009=
200901192100 METAR LPPR 192100Z 30007KT 260V340 9999 FEW013 SCT100 10/05
                        Q1009=
200901192030 METAR LPPR 192030Z 29006KT 250V350 9999 FEW013 SCT035 09/06
                        Q1009=
200901192000 METAR LPPR 192000Z 32011G21KT 8000 -SHRA SCT013 FEW020CB
                        BKN035 09/06 Q1009=
200901191930 METAR LPPR 191930Z 30009KT 260V340 9999 SCT013 FEW020CB BKN035
                        09/07 Q1010=
200901191900 METAR LPPR 191900Z 33018KT 7000 -SHRA SCT013 FEW020CB BKN030
                        08/07 Q1010=
200901191830 METAR LPPR 191830Z 33023G38KT 7000 -SHRA SCT009 SCT013 FEW020CB
                        BKN025 10/07 Q1009 WS ALL RWY=
200901191800 METAR LPPR 191800Z 31005KT 270V020 9999 FEW009 SCT013 BKN023
                        11/09 Q1009=
200901191730 METAR LPPR 191730Z 32007KT 9999 SCT013 BKN025 11/09 Q1009=
200901191700 METAR LPPR 191700Z 31008KT 9999 SCT013 BKN020 12/09 Q1009=
200901191630 METAR LPPR 191630Z 29009KT 250V330 9999 SCT013 SCT020 FEW025CB
                        12/10 Q1009=
200901191600 METAR LPPR 191600Z 28008KT 250V320 9999 SCT013 SCT020 FEW025CB
                        12/10 Q1009=
200901191530 METAR LPPR 191530Z 29007G18KT 230V330 9999 SCT013 SCT020
                        11/11 Q1009=
200901191500 METAR LPPR 191500Z 30014G30KT 250V330 8000 -SHRA FEW007 SCT013
                        FEW018CB BKN060 11/10 Q1009 RERA=
200901191430 METAR LPPR 191430Z 25006KT 190V330 8000 -SHRA FEW008 SCT013
                        BKN020 12/11 Q1009=
200901191400 METAR LPPR 191400Z 27005KT 210V300 8000 -SHRA SCT013 BKN020
                        12/10 Q1010=
200901191330 METAR LPPR 191330Z 31015G25KT 270V340 4000 SHRA BR SCT008
                        SCT013 BKN020 11/10 Q1010=
200901191300 METAR LPPR 191300Z 25008KT 220V290 7000 -SHRA FEW013 BKN030
                        14/12 Q1010=
200901191230 METAR LPPR 191230Z 24009KT 200V270 9999 FEW013 SCT020 14/13
                        Q1011=
200901191200 METAR LPPR 191200Z 24007KT 190V270 9999 FEW013 BKN035 13/12
                        Q1011=
200901191130 METAR LPPR 191130Z 24007KT 180V280 9999 FEW009 BKN035 BKN090
                        12/10 Q1011=
200901191100 METAR LPPR 191100Z 26011G21KT 220V320 8000 -RA FEW008 SCT013
                        BKN035 13/12 Q1012=
200901191030 METAR LPPR 191030Z 24008KT 210V280 3000 BR BKN005 BKN008
                        14/13 Q1012=
200901191000 METAR LPPR 191000Z 24006KT 210V270 4000 BR BKN005 BKN008
                        14/14 Q1012=
200901190930 METAR LPPR 190930Z 25007KT 210V290 4000 BR BKN005 SCT012
                        14/14 Q1012=
200901190900 METAR LPPR 190900Z 25009KT 210V280 4000 BR BKN005 BKN012
                        14/14 Q1012=
200901190830 METAR LPPR 190830Z 24007KT 200V280 3000 BR SCT002 BKN005
                        BKN013 13/13 Q1012=
200901190800 METAR LPPR 190800Z 25008KT 220V280 3000 BR SCT001 BKN003
                        BKN012 13/13 Q1012=
200901190730 METAR LPPR 190730Z 24006KT 200V270 3000 BR SCT001 BKN003
                        BKN013 13/13 Q1012=
200901190700 METAR LPPR 190700Z 25010KT 220V290 4000 -RA BR SCT005 BKN008
                        BKN013 13/13 Q1012=
200901190630 METAR LPPR 190630Z 23015KT 190V270 2000 -RADZ BR BKN001 BKN003
                        14/14 Q1011=
200901190600 METAR LPPR 190600Z 22011KT 190V250 2000 -RADZ BR BKN001 BKN003
                        13/13 Q1012=
200901190530 METAR LPPR 190530Z 22011KT 2000 -RADZ BR BKN001 BKN002 13/13
                        Q1012=
200901190500 METAR LPPR 190500Z 22010KT 180V250 2000 -RADZ BR BKN001 BKN002
                        13/13 Q1013=
200901190430 METAR LPPR 190430Z 22012G24KT 190V250 3000 -RADZ BR FEW003
                        SCT006 BKN015 13/13 Q1013=
200901190400 METAR LPPR 190400Z 21012KT 2000 -RADZ BR FEW003 SCT006 BKN015
                        13/13 Q1014=
200901190330 METAR LPPR 190330Z 21012G22KT 3000 BR FEW003 SCT006 BKN015
                        13/13 Q1014=
200901190300 METAR LPPR 190300Z 22012KT 3000 -RADZ BR FEW003 SCT006 BKN015
                        13/13 Q1015=
200901190230 METAR LPPR 190230Z 22013KT 3000 -RADZ BR FEW003 SCT006 BKN015
                        13/13 Q1015=
200901190200 METAR LPPR 190200Z 21015KT 4000 -DZ BR FEW004 SCT009 BKN015
                        14/14 Q1015=
200901190130 METAR LPPR 190130Z 21014KT 7000 SCT009 BKN015 14/14 Q1016=
200901190100 METAR LPPR 190100Z 20016KT 7000 FEW005 SCT009 BKN015 14/14
                        Q1016=
200901190030 METAR LPPR 190030Z 20016KT 5000 BR FEW005 SCT009 BKN015 14/14
                        Q1017=
200901190000 METAR LPPR 190000Z 21013KT 190V250 5000 BR FEW003 SCT009
                        BKN016 14/14 Q1017=
200901182330 METAR LPPR 182330Z 21014KT 3000 -DZ BR SCT001 BKN003 14/14
                        Q1018=
200901182300 METAR LPPR 182300Z 21014KT 180V240 3000 -RADZ BR SCT001 BKN003
                        14/14 Q1018=
200901182230 METAR LPPR 182230Z 21014KT 1500 -RADZ BR SCT001 BKN003 13/13
                        Q1018=
200901182200 METAR LPPR 182200Z 20016KT 0600 R17/P1500 R35/P1500 -RADZ
                        BCFG SCT000 BKN001 BKN002 14/14 Q1018=
200901182130 METAR LPPR 182130Z 21013KT 0600 R17/P1500 R35/P1500 -DZ BCFG
                        SCT000 BKN001 BKN002 13/13 Q1019=
200901182100 METAR LPPR 182100Z 20016KT 0800 R17/P1500 R35/P1500 -DZ BCFG
                        SCT000 BKN001 BKN002 14/14 Q1019=
200901182030 METAR LPPR 182030Z 21015KT 180V240 0800 R17/P1500 R35/P1500
                        BCFG FEW000 BKN001 BKN003 14/14 Q1019=
200901182000 METAR LPPR 182000Z 21014KT 160V240 0800 R17/P1500 R35/1300VP1500
                        BCFG FEW000 BKN001 BKN003 14/14 Q1019=
200901181930 METAR LPPR 181930Z 21015KT 0600 R17/P1500 R35/1400VP1500
                        -RADZ BCFG FEW000 BKN001 BKN003 13/13
                        Q1019 RERA=
200901181900 METAR LPPR 181900Z 20014KT 0600 R17/P1500 R35/P1500 RADZ
                        BCFG FEW000 BKN001 BKN003 13/13 Q1019=
200901181830 METAR LPPR 181830Z 20014KT 0900 R17/P1500 R35/P1500 RADZ
                        BCFG FEW000 SCT001 BKN003 13/13 Q1019=
200901181800 METAR LPPR 181800Z 20014KT 0300 R17/1400VP1500 R35/0800N
                        -DZ BCFG SCT000 BKN001 13/13 Q1019=
200901181730 METAR LPPR 181730Z 20014KT 0500 R17/P1500 R35/1000VP1500
                        -DZ BCFG SCT000 BKN001 13/13 Q1019=
200901181700 METAR LPPR 181700Z 20012KT 0300 R17/P1500 R35/1100U DZ BCFG
                        SCT000 BKN001 14/14 Q1019=
200901181630 METAR LPPR 181630Z 20010KT 0200 R17/1100U R35/0800N DZ FG
                        SCT000 BKN001 13/13 Q1020=
200901181600 METAR LPPR 181600Z 20008KT 0200 R17/0900VP1500 R35/0750N
                        DZ BCFG SCT000 BKN001 14/14 Q1020=
200901181530 METAR LPPR 181530Z 22008KT 190V260 0200 R17/1100VP1500 R35/0800N
                        DZ BCFG SCT000 BKN001 14/14 Q1020=
200901181500 METAR LPPR 181500Z 22007KT 190V250 0300 R17/1500D R35/1000U
                        DZ FG SCT000 BKN001 14/14 Q1021=
200901181430 METAR LPPR 181430Z 21006G16KT 180V250 0300 R17/P1500 R35/P1500
                        DZ FG SCT000 BKN001 14/14 Q1021=
200901181400 METAR LPPR 181400Z 21005KT 0400 R17/0800V1000U R35/0800U
                        FG SCT000 BKN001 14/14 Q1021=
200901181330 METAR LPPR 181330Z 19007KT 0300 R17/0800N R35/0500N FG SCT000
                        BKN001 13/13 Q1022=
200901181300 METAR LPPR 181300Z 20009KT 0500 R17/P1500 R35/0650V0900N
                        -DZ FG SCT000 BKN001 13/13 Q1022=
200901181230 METAR LPPR 181230Z 20010KT 1500 -DZ BR SCT001 BKN003 13/13
                        Q1022=
200901181200 METAR LPPR 181200Z 21009KT 180V260 1500 -DZ BR SCT001 BKN003
                        13/13 Q1023=
200901181130 METAR LPPR 181130Z 20010KT 1500 -DZ BR SCT001 BKN003 13/13
                        Q1023=
200901181100 METAR LPPR 181100Z 20011KT 1500 -RADZ BR SCT001 BKN003 13/13
                        Q1023=
200901181030 METAR LPPR 181030Z 20011KT 1500 -RADZ BR SCT001 BKN003 12/12
                        Q1023=
200901181000 METAR LPPR 181000Z 19014KT 2000 -DZ BR SCT001 BKN003 13/13
                        Q1023=
200901180930 METAR LPPR 180930Z 19015KT 1500 -RADZ BR SCT001 BKN003 12/12
                        Q1022=
200901180900 METAR LPPR 180900Z 18015KT 1500 -RADZ BR SCT001 BKN003 12/12
                        Q1022=
200901180830 METAR LPPR 180830Z 19014KT 1500 -RADZ BR SCT001 SCT002 BKN003
                        12/12 Q1022=
200901180800 METAR LPPR 180800Z 18015KT 2000 -RADZ BR SCT001 BKN003 12/12
                        Q1022=
200901180730 METAR LPPR 180730Z 18015KT 2000 -DZ BR SCT001 BKN003 12/12
                        Q1022=
200901180700 METAR LPPR 180700Z 18016KT 2000 -DZ BR SCT001 BKN003 12/12
                        Q1022=
200901180630 METAR LPPR 180630Z 19014KT 2000 -DZ BR SCT001 BKN003 12/12
                        Q1022=
200901180600 METAR LPPR 180600Z 19012KT 2000 -DZ BR SCT001 BKN003 12/12
                        Q1022=
200901180530 METAR LPPR 180530Z 18015KT 2000 -DZ BR SCT001 BKN003 12/12
                        Q1022=
200901180500 METAR LPPR 180500Z 18015KT 2000 -DZ BR SCT001 BKN002 12/12
                        Q1022=
200901180430 METAR LPPR 180430Z 18014KT 1500 DZ BR SCT000 BKN001 12/12
                        Q1023=
200901180400 METAR LPPR 180400Z 18013KT 1500 -DZ BR BKN001 BKN002 12/12
                        Q1023 RERA=
200901180330 METAR LPPR 180330Z 18011KT 1800 DZ BR SCT001 BKN003 12/12
                        Q1023=
200901180300 METAR LPPR 180300Z 19011KT 2000 -DZ BR BKN002 BKN004 12/12
                        Q1023=
200901180230 METAR LPPR 180230Z 18011KT 3000 -DZ BR SCT002 BKN004 12/11
                        Q1023=
200901180200 METAR LPPR 180200Z 18010KT 5000 BR BKN003 BKN006 12/12 Q1023=
200901180130 METAR LPPR 180130Z 18012KT 6000 -DZ SCT003 BKN006 12/11 Q1023=
200901180100 METAR LPPR 180100Z 18011KT 6000 -DZ SCT003 BKN006 12/11 Q1023=
200901180030 METAR LPPR 180030Z 19009KT 7000 SCT003 BKN006 12/11 Q1023=
200901180000 METAR LPPR 180000Z 17010KT 9000 SCT004 BKN007 12/11 Q1023=
200901172330 METAR LPPR 172330Z 17009KT 9999 SCT007 SCT013 12/11 Q1024=
200901172300 METAR LPPR 172300Z 17008KT 9999 FEW009 SCT040 12/11 Q1024=
200901172230 METAR LPPR 172230Z 18007KT 9999 SCT009 BKN040 12/11 Q1024=
200901172200 METAR LPPR 172200Z 17008KT 9999 SCT007 SCT009 12/11 Q1024=
200901172130 METAR LPPR 172130Z 18008KT 8000 SCT007 SCT009 11/11 Q1024=
200901172100 METAR LPPR 172100Z 18009KT 9000 SCT007 BKN009 12/11 Q1024=
200901172030 METAR LPPR 172030Z 18007KT 7000 SCT007 BKN015 12/11 Q1025=
200901172000 METAR LPPR 172000Z 17006KT 7000 SCT007 BKN015 12/11 Q1024=
200901171930 METAR LPPR 171930Z 20007KT 7000 FEW007 BKN016 12/11 Q1024=
200901171900 METAR LPPR 171900Z 17008KT 7000 FEW012 BKN017 12/10 Q1024=
200901171830 METAR LPPR 171830Z 16008KT 7000 FEW012 BKN017 12/11 Q1023=
200901171800 METAR LPPR 171800Z 14008KT 7000 FEW012 BKN017 12/10 Q1023=
200901171730 METAR LPPR 171730Z 20005KT 160V250 4000 BR SCT012 BKN016
                        12/10 Q1024=
200901171700 METAR LPPR 171700Z 22004KT 180V290 8000 SCT016 BKN025 13/08
                        Q1024=
200901171630 METAR LPPR 171630Z 21008KT 9999 SCT030 BKN250 13/07 Q1024=
200901171600 METAR LPPR 171600Z 19009KT 9999 SCT030 BKN250 13/08 Q1024=
200901171530 METAR LPPR 171530Z 20010KT 9999 SCT030 BKN250 13/07 Q1024=
200901171500 METAR LPPR 171500Z 21010KT 180V240 9999 FEW030 BKN250 14/07
                        Q1024=
200901171430 METAR LPPR 171430Z 19008KT 9999 FEW030 BKN100 14/08 Q1024=
200901171400 METAR LPPR 171400Z 20006KT 160V230 9999 FEW030 BKN100 14/08
                        Q1024=
200901171330 METAR LPPR 171330Z 17007KT 9999 FEW030 BKN100 14/07 Q1024=
200901171300 METAR LPPR 171300Z 15007KT 9999 FEW030 BKN100 14/08 Q1025=
200901171230 METAR LPPR 171230Z 16007KT 9999 FEW030 BKN250 14/07 Q1025=
200901171200 METAR LPPR 171200Z 14008KT 100V170 9999 FEW040 BKN250 12/08
                        Q1025=
200901171130 METAR LPPR 171130Z 12008KT 9999 FEW040 BKN250 11/07 Q1025=
200901171100 METAR LPPR 171100Z 12008KT 9999 SCT040 SCT250 10/06 Q1026=
200901171030 METAR LPPR 171030Z 12007KT 9999 BKN030 09/06 Q1026=
200901171000 METAR LPPR 171000Z 12008KT 9999 SCT025 BKN250 09/06 Q1026=
200901170930 METAR LPPR 170930Z 12009KT 9999 FEW025 BKN250 08/06 Q1025=
200901170900 METAR LPPR 170900Z 11007KT 9999 SCT025 BKN080 08/05 Q1025=
200901170830 METAR LPPR 170830Z 12005KT 9999 FEW025 BKN080 07/05 Q1025=
200901170800 METAR LPPR 170800Z 11005KT 9999 BKN025 07/06 Q1024=
200901170730 METAR LPPR 170730Z 11008KT 9999 BKN030 08/06 Q1024=
200901170700 METAR LPPR 170700Z 11007KT 9999 BKN030 07/06 Q1023=
200901170630 METAR LPPR 170630Z 11008KT 9999 BKN030 07/06 Q1023=
200901170600 METAR LPPR 170600Z 11009KT 9999 BKN030 07/06 Q1023=
200901170530 METAR LPPR 170530Z 11009KT 9999 BKN030 07/06 Q1023=
200901170500 METAR LPPR 170500Z 12009KT 9000 BKN030 07/06 Q1023=
200901170430 METAR LPPR 170430Z 11008KT 8000 SCT030 07/06 Q1023=
200901170400 METAR LPPR 170400Z 11006KT 8000 SCT040 BKN070 07/06 Q1023=
200901170330 METAR LPPR 170330Z 00000KT 8000 SCT045 BKN070 06/06 Q1023=
200901170300 METAR LPPR 170300Z 00000KT 8000 SCT045 BKN070 05/05 Q1023=
200901170230 METAR LPPR 170230Z 00000KT 8000 FEW250 05/05 Q1023=
200901170200 METAR LPPR 170200Z VRB02KT 8000 FEW250 06/06 Q1022=
200901170130 METAR LPPR 170130Z 13008KT 8000 FEW250 07/06 Q1022=
200901170100 METAR LPPR 170100Z 12009KT 9999 FEW250 08/06 Q1022=
200901170030 METAR LPPR 170030Z 11005KT 8000 FEW070 SCT250 07/07 Q1023=
200901170000 METAR LPPR 170000Z 11008KT 8000 FEW250 07/07 Q1023=
200901162330 METAR LPPR 162330Z 11007KT 9999 FEW030 08/07 Q1023=
200901162300 METAR LPPR 162300Z 00000KT 9999 FEW035 06/06 Q1024=
200901162230 METAR LPPR 162230Z VRB02KT 9999 FEW035 SCT070 07/06 Q1023=
200901162200 METAR LPPR 162200Z 00000KT 9999 FEW030 SCT070 06/06 Q1023=
200901162130 METAR LPPR 162130Z 11004KT CAVOK 07/07 Q1023=
200901162100 METAR LPPR 162100Z 00000KT 9999 FEW030 SCT080 06/06 Q1023=
200901162030 METAR LPPR 162030Z 00000KT 9999 FEW030 SCT080 06/06 Q1023=
200901162000 METAR LPPR 162000Z 00000KT 9999 FEW030 SCT080 07/06 Q1022=
200901161930 METAR LPPR 161930Z 00000KT CAVOK 07/07 Q1022=
200901161900 METAR LPPR 161900Z 00000KT CAVOK 07/06 Q1022=
200901161830 METAR LPPR 161830Z VRB02KT CAVOK 07/07 Q1021=
200901161800 METAR LPPR 161800Z 00000KT CAVOK 09/07 Q1021=
200901161730 METAR LPPR 161730Z 00000KT CAVOK 10/08 Q1021=
200901161700 METAR LPPR 161700Z 00000KT 9999 FEW030 SCT250 11/08 Q1021=
200901161630 METAR LPPR 161630Z 30006KT 9999 FEW015 SCT030 12/08 Q1021=
200901161600 METAR LPPR 161600Z 28008KT 8000 FEW015 SCT030 12/09 Q1021=
200901161530 METAR LPPR 161530Z 28007KT 8000 FEW015 13/08 Q1020=
200901161500 METAR LPPR 161500Z 00000KT 9999 FEW015 14/06 Q1020=
200901161430 METAR LPPR 161430Z 00000KT 8000 FEW015 14/08 Q1020=
200901161400 METAR LPPR 161400Z 00000KT 7000 FEW012 14/08 Q1021=
200901161330 METAR LPPR 161330Z VRB03KT 7000 FEW012 13/09 Q1021=
200901161300 METAR LPPR 161300Z VRB02KT 9999 FEW012 13/07 Q1021=
200901161230 METAR LPPR 161230Z 00000KT 9999 FEW012 13/07 Q1022=
200901161200 METAR LPPR 161200Z 00000KT CAVOK 12/09 Q1022=
200901161130 METAR LPPR 161130Z VRB03KT CAVOK 11/09 Q1022=
200901161100 METAR LPPR 161100Z 10004KT 040V130 8000 FEW250 10/08 Q1022=
200901161030 METAR LPPR 161030Z 11004KT 070V150 8000 FEW250 09/08 Q1022=
200901161000 METAR LPPR 161000Z 00000KT 7000 FEW250 07/07 Q1022=
200901160930 METAR LPPR 160930Z 10005KT 040V120 5000 BR FEW250 06/06 Q1022=
200901160900 METAR LPPR 160900Z VRB03KT 7000 FEW045 05/05 Q1021=
200901160830 METAR LPPR 160830Z 00000KT 5000 BR SCT050 04/04 Q1021=
200901160800 METAR LPPR 160800Z 11003KT 3000 BR SCT050 04/04 Q1021=
200901160730 METAR LPPR 160730Z VRB03KT 3000 BR FEW001 SCT060 03/03 Q1021=
200901160700 METAR LPPR 160700Z 00000KT 4000 BR FEW001 04/03 Q1020=
200901160630 METAR LPPR 160630Z 00000KT 1500 BR VCFG SCT000 04/04 Q1020=
200901160600 METAR LPPR 160600Z 09005KT 0900 R17/1200N R35/1100N MIFG
                        SCT000 05/05 Q1019=
200901160530 METAR LPPR 160530Z 00000KT 0600 R17/0800VP1500 R35/0750V1400N
                        FG SCT000 SCT002 04/04 Q1019=
200901160500 METAR LPPR 160500Z 00000KT 0400 R17/0750N R35/0550D FG SCT000
                        BKN002 03/03 Q1019=
200901160430 METAR LPPR 160430Z 00000KT 0800 R17/0750N R35/0600N FG SCT000
                        04/04 Q1019=
200901160400 METAR LPPR 160400Z 00000KT 2000 BR SKC 05/05 Q1018=
200901160330 METAR LPPR 160330Z 00000KT 4000 BR SKC 05/05 Q1018=
200901160300 METAR LPPR 160300Z 00000KT 4000 BR SKC 05/05 Q1018=
200901160230 METAR LPPR 160230Z 00000KT 4000 BR SKC 05/05 Q1018=
200901160200 METAR LPPR 160200Z 00000KT 6000 SKC 06/06 Q1018=
200901160130 METAR LPPR 160130Z 00000KT 6000 SKC 06/06 Q1018=
200901160100 METAR LPPR 160100Z 00000KT 6000 FEW040 06/06 Q1018=
200901160030 METAR LPPR 160030Z 00000KT 3000 R17/0700V1100N R35/P1500
                        MIFG BR SCT040 SCT080 07/06 Q1018=
200901160000 METAR LPPR 160000Z 00000KT 6000 FEW080 SCT250 07/07 Q1018=
200901152330 METAR LPPR 152330Z 00000KT 8000 SCT080 BKN250 08/08 Q1018=
200901152300 METAR LPPR 152300Z VRB02KT 8000 SCT080 BKN250 08/08 Q1018=
200901152230 METAR LPPR 152230Z 00000KT 8000 SCT080 BKN250 08/08 Q1018=
200901152200 METAR LPPR 152200Z 00000KT 6000 SCT040 BKN080 08/08 Q1017=
200901152130 METAR LPPR 152130Z 00000KT 6000 BKN040 SCT080 09/09 Q1017=
200901152100 METAR LPPR 152100Z 01003KT 6000 BKN040 SCT080 09/09 Q1017=
200901152030 METAR LPPR 152030Z VRB03KT 8000 SCT040 BKN080 08/08 Q1017=
200901152000 METAR LPPR 152000Z 00000KT 8000 SCT040 BKN250 08/08 Q1016=
200901151930 METAR LPPR 151930Z 00000KT 8000 SCT070 BKN250 08/08 Q1016=
200901151900 METAR LPPR 151900Z 00000KT 9999 FEW015 SCT070 BKN250 09/09
                        Q1016=
200901151830 METAR LPPR 151830Z 00000KT 9999 FEW015 BKN070 09/09 Q1015=
200901151800 METAR LPPR 151800Z 02002KT 9999 FEW015 BKN070 10/09 Q1015=
200901151730 METAR LPPR 151730Z VRB03KT 9999 FEW015 SCT045 BKN060 10/09
                        Q1015=
200901151700 METAR LPPR 151700Z 35004KT 9999 FEW015 SCT045 BKN060 11/09
                        Q1014=
200901151630 METAR LPPR 151630Z 36006KT 9999 FEW015 BKN045 11/09 Q1014=
200901151600 METAR LPPR 151600Z 35005KT 9999 FEW015 BKN030 11/10 Q1013=
200901151530 METAR LPPR 151530Z 00000KT 9999 FEW015 BKN030 11/10 Q1013=
200901151500 METAR LPPR 151500Z 20004KT 8000 FEW015 BKN020 10/10 Q1012=
200901151430 METAR LPPR 151430Z 22007KT 5000 -RA BR SCT003 BKN006 BKN012
                        10/10 Q1012 RERA=
200901151400 METAR LPPR 151400Z 21005KT 170V270 2500 RA BR SCT003 BKN006
                        BKN012 10/10 Q1012=
200901151330 METAR LPPR 151330Z 17009KT 4000 RA BR SCT006 SCT009 BKN012
                        10/10 Q1012=
200901151300 METAR LPPR 151300Z 17010KT 7000 -RA FEW008 BKN012 10/10 Q1012=
200901151230 METAR LPPR 151230Z 18014KT 4000 -RA BR SCT008 BKN015 11/10
                        Q1012=
200901151200 METAR LPPR 151200Z 17013KT 9999 -RA SCT013 BKN030 11/10 Q1012=
200901151130 METAR LPPR 151130Z 17013KT 9999 -RA FEW012 BKN030 10/09 Q1012=
200901151100 METAR LPPR 151100Z 17015KT 9999 -RA FEW012 SCT020 BKN035
                        10/09 Q1012=
200901151030 METAR LPPR 151030Z 17014KT 9999 -RA FEW012 BKN025 10/09 Q1012=
200901151000 METAR LPPR 151000Z 17014KT 8000 -RA FEW006 BKN025 10/09 Q1011=
200901150930 METAR LPPR 150930Z 18016KT 7000 -RA SCT005 BKN020 10/09 Q1011=
200901150900 METAR LPPR 150900Z 18018KT 7000 -RA SCT005 SCT009 BKN015
                        10/09 Q1011=
200901150830 METAR LPPR 150830Z 17016KT 9000 -RA SCT009 SCT015 BKN020
                        10/09 Q1010=
200901150800 METAR LPPR 150800Z 17016KT 9000 -RA SCT015 BKN020 10/09 Q1010=
200901150730 METAR LPPR 150730Z 17017KT 8000 -RA SCT013 BKN020 10/09 Q1010=
200901150700 METAR LPPR 150700Z 17017KT 9000 -RA SCT013 SCT020 BKN060
                        10/09 Q1010=
200901150630 METAR LPPR 150630Z 17019G29KT 9999 SCT012 SCT020 BKN060 10/09
                        Q1010=
200901150600 METAR LPPR 150600Z 17018KT 9000 -RA FEW009 SCT013 BKN060
                        10/09 Q1009=
200901150530 METAR LPPR 150530Z 17018G29KT 8000 -RA SCT007 SCT013 BKN020
                        10/10 Q1009=
200901150500 METAR LPPR 150500Z 17019KT 9000 -RA SCT006 BKN011 BKN020
                        10/10 Q1009=
200901150430 METAR LPPR 150430Z 17021G31KT 8000 -RA BR SCT008 SCT015 BKN020
                        10/09 Q1010=
200901150400 METAR LPPR 150400Z 17022KT 7000 -RA BR FEW008 BKN020 BKN030
                        11/09 Q1010=
200901150330 METAR LPPR 150330Z 17020KT 9999 SCT017 SCT020 BKN030 11/09
                        Q1010=
200901150300 METAR LPPR 150300Z 16019KT 9999 SCT020 BKN030 BKN070 11/08
                        Q1010=
200901150230 METAR LPPR 150230Z 16018KT 9999 SCT020 BKN030 BKN070 11/08
                        Q1010=
200901150200 METAR LPPR 150200Z 15015KT 9999 SCT020 SCT030 BKN070 10/09
                        Q1011=
200901150130 METAR LPPR 150130Z 16017KT 9000 -RA SCT020 BKN030 BKN070
                        10/09 Q1011=
200901150100 METAR LPPR 150100Z 16021G32KT 8000 -RA BR SCT020 BKN030 BKN070
                        11/08 Q1012=
200901150030 METAR LPPR 150030Z 16021G32KT 9999 SCT025 SCT040 BKN070 12/07
                        Q1012=
200901150000 METAR LPPR 150000Z 17019KT 9999 SCT025 BKN040 BKN070 12/07
                        Q1013=
200901142330 METAR LPPR 142330Z 17019G29KT 9999 SCT040 BKN070 12/07 Q1014=
200901142300 METAR LPPR 142300Z 16018KT 9999 SCT040 BKN070 11/07 Q1014=
200901142230 METAR LPPR 142230Z 16015KT 9999 SCT040 BKN070 11/06 Q1014=
200901142200 METAR LPPR 142200Z 16016KT 9999 FEW035 SCT045 11/06 Q1014=
200901142130 METAR LPPR 142130Z 16016KT 9999 FEW035 SCT045 11/06 Q1015=
200901142100 METAR LPPR 142100Z 16015KT 9999 SCT030 SCT040 11/06 Q1015=
200901142030 METAR LPPR 142030Z 16016KT 9999 SCT030 BKN040 11/06 Q1015=
200901142000 METAR LPPR 142000Z 17015KT 9999 BKN030 BKN040 11/06 Q1016=
200901141930 METAR LPPR 141930Z 17014KT 9999 BKN030 BKN040 11/07 Q1016=
200901141900 METAR LPPR 141900Z 16011KT 9999 BKN030 BKN040 11/07 Q1016=
200901141830 METAR LPPR 141830Z 15014KT 9999 SCT025 BKN045 11/07 Q1016=
200901141800 METAR LPPR 141800Z 16014KT 9999 SCT025 BKN040 12/07 Q1017=
200901141730 METAR LPPR 141730Z 17012KT 9999 FEW020 BKN030 BKN040 12/07
                        Q1017=
200901141700 METAR LPPR 141700Z 17013KT 9999 FEW017 BKN040 12/07 Q1017=
200901141630 METAR LPPR 141630Z 17013KT 9999 FEW017 BKN040 12/08 Q1017=
200901141600 METAR LPPR 141600Z 18013KT 9999 SCT017 SCT030 BKN250 12/08
                        Q1018=
200901141530 METAR LPPR 141530Z 18016KT 9999 SCT017 SCT025 BKN250 13/08
                        Q1018=
200901141500 METAR LPPR 141500Z 18014KT 9999 SCT017 SCT025 BKN250 13/08
                        Q1018=
200901141430 METAR LPPR 141430Z 18014KT 9999 FEW017 SCT020 BKN250 13/08
                        Q1018=
200901141400 METAR LPPR 141400Z 16010KT 9999 FEW017 SCT020 BKN250 13/08
                        Q1019=
200901141330 METAR LPPR 141330Z 16010KT 9999 FEW017 SCT025 BKN250 13/08
                        Q1019=
200901141300 METAR LPPR 141300Z 15009KT 9999 FEW015 SCT025 BKN250 12/08
                        Q1020=
200901141230 METAR LPPR 141230Z 14008KT 110V170 9999 FEW015 SCT070 BKN250
                        11/07 Q1020=
200901141200 METAR LPPR 141200Z 13008KT 7000 FEW015 SCT070 BKN250 10/07
                        Q1021=
200901141130 METAR LPPR 141130Z 12009KT 5000 FEW015 BKN070 BKN250 09/07
                        Q1022=
200901141100 METAR LPPR 141100Z 12007KT 5000 BR FEW015 BKN070 BKN250 09/07
                        Q1022=
200901141030 METAR LPPR 141030Z 12008KT 4000 BR VCFG SCT002 SCT070 BKN250
                        07/07 Q1022=
200901141000 METAR LPPR 141000Z 12009KT 4000 BR VCFG SCT002 SCT070 BKN250
                        06/06 Q1022=
200901140930 METAR LPPR 140930Z 12009KT 3000 BR SCT002 SCT070 BKN250 06/06
                        Q1023=
200901140900 METAR LPPR 140900Z 12008KT 1500 BR VCFG FEW001 SCT002 BKN003
                        06/M03 Q1023=
200901140830 METAR LPPR 140830Z 11008KT 1500 VCFG BR SCT001 BKN003 05/05
                        Q1022=
200901140800 METAR LPPR 140800Z 12009KT 2000 VCFG BR SCT001 BKN003 05/05
                        Q1022=
200901140730 METAR LPPR 140730Z 12007KT 3000 BR SCT001 BKN003 06/06 Q1022=
200901140700 METAR LPPR 140700Z 11008KT 0800 R17/2000V1000N R35/2000V1200N
                        FG SCT001 BKN003 06/06 Q1022=
200901140630 METAR LPPR 140630Z 11007KT 0800 R17/P1500 R35/2000V1100N
                        FG SCT001 BKN003 06/06 Q1022=
200901140600 METAR LPPR 140600Z 11007KT 0800 R17/P1500 R35/0900VP1500
                        FG SCT000 BKN002 06/06 Q1022=
200901140530 METAR LPPR 140530Z 11007KT 1500 VCFG BR SCT001 BKN003 05/05
                        Q1023=
200901140500 METAR LPPR 140500Z 11007KT 0700 R17/P1500 R35/2000V1200N
                        FG SCT000 BKN002 05/05 Q1023=
200901140430 METAR LPPR 140430Z 11007KT 0800 R17/2000V1200N R35/1100V1300N
                        FG SCT001 BKN003 05/05 Q1023=
200901140400 METAR LPPR 140400Z 11008KT 0400 R17/0750V1300U R35/1100VP1500
                        FG SCT001 BKN003 05/05 Q1023=
200901140330 METAR LPPR 140330Z 10008KT 0200 R17/P1500 R35/0800N FG SCT001
                        SCT003 04/04 Q1023=
200901140300 METAR LPPR 140300Z 11009KT 0200 R17/P1500 R35/0600N FG SCT001
                        SCT003 05/05 Q1023=
200901140230 METAR LPPR 140230Z 00000KT 0200 R17/P1500 R35/0650V1000N
                        FG SCT001 SCT003 05/05 Q1023=
200901140200 METAR LPPR 140200Z 00000KT 0200 R17/0700V1100N R35/0600N
                        FG SCT001 SCT003 05/05 Q1023=
200901140130 METAR LPPR 140130Z 00000KT 0800 R17/0375U R35/0900VP1500
                        BCFG BKN001 05/05 Q1023=
200901140100 METAR LPPR 140100Z 00000KT 0200 R17/0700V1100N R35/1000VP1500
                        FG BKN001 06/05 Q1023=
200901140030 METAR LPPR 140030Z 11006KT 3000 R17/0450V0700N R35/P1500
                        BR FEW009 06/06 Q1024=
200901140000 METAR LPPR 140000Z 11002KT 3000 BR FEW009 06/05 Q1024=
200901132330 METAR LPPR 132330Z VRB02KT 4000 BR FEW060 05/05 Q1023=
200901132300 METAR LPPR 132300Z 00000KT 5000 BR FEW060 06/05 Q1023=
200901132230 METAR LPPR 132230Z 11003KT 5000 BR FEW060 07/07 Q1023=
200901132200 METAR LPPR 132200Z 11004KT 3000 R17/1000VP1500 R35/P1500
                        BR FEW003 SCT060 07/07 Q1023=
200901132130 METAR LPPR 132130Z 34003KT 1500 R17/0800V1000D R35/P1500
                        BR FEW003 SCT060 07/07 Q1024=
200901132100 METAR LPPR 132100Z 03002KT 6000 FEW060 07/07 Q1023=
200901132030 METAR LPPR 132030Z 34002KT 8000 FEW015 08/07 Q1023=
200901132000 METAR LPPR 132000Z 00000KT 8000 FEW015 08/08 Q1023=
200901131930 METAR LPPR 131930Z 06002KT 9999 FEW015 09/09 Q1023=
200901131900 METAR LPPR 131900Z 36002KT 9999 FEW015 09/09 Q1023=
200901131830 METAR LPPR 131830Z 32005KT 9999 FEW015 09/09 Q1023=
200901131800 METAR LPPR 131800Z 33003KT 9999 FEW017 10/09 Q1023=
200901131730 METAR LPPR 131730Z 32005KT 9999 FEW017 11/09 Q1022=
200901131700 METAR LPPR 131700Z 31005KT 270V340 9999 FEW017 12/10 Q1022=
200901131630 METAR LPPR 131630Z 30007KT 270V340 9999 FEW017 12/10 Q1021=
200901131600 METAR LPPR 131600Z 30007KT 270V330 9999 FEW017 12/10 Q1021=
200901131530 METAR LPPR 131530Z 31007KT 9999 FEW017 13/10 Q1021=
200901131500 METAR LPPR 131500Z 31007KT 270V330 9999 FEW015 13/09 Q1021=
200901131430 METAR LPPR 131430Z 31008KT 9999 SCT013 13/10 Q1021=
200901131400 METAR LPPR 131400Z 30008KT 9999 FEW013 SCT025 13/10 Q1021=
200901131330 METAR LPPR 131330Z 34007KT 9999 SCT013 13/10 Q1021=
200901131300 METAR LPPR 131300Z 34007KT 300V020 9999 SCT013 SCT250 13/10
                        Q1021=
200901131230 METAR LPPR 131230Z 02004KT 340V070 9999 FEW013 SCT250 12/10
                        Q1021=
200901131200 METAR LPPR 131200Z VRB03KT 9999 FEW015 SCT045 12/09 Q1022=
200901131130 METAR LPPR 131130Z 00000KT 9999 FEW015 SCT045 12/09 Q1022=
200901131100 METAR LPPR 131100Z VRB02KT 9999 FEW013 SCT040 10/09 Q1022=
200901131030 METAR LPPR 131030Z VRB02KT 9999 SCT013 SCT023 BKN040 10/08
                        Q1021=
200901131000 METAR LPPR 131000Z VRB03KT 9999 SCT015 BKN040 10/08 Q1021=
200901130930 METAR LPPR 130930Z VRB03KT 9999 SCT013 BKN040 09/08 Q1020=
200901130900 METAR LPPR 130900Z VRB03KT 9999 SCT008 SCT013 BKN030 09/08
                        Q1020=
200901130830 METAR LPPR 130830Z VRB03KT 9999 BKN008 BKN015 08/07 Q1020=
200901130800 METAR LPPR 130800Z 10005KT 070V140 9999 BKN008 BKN013 09/08
                        Q1019=
200901130730 METAR LPPR 130730Z VRB03KT 9999 SCT005 BKN030 BKN070 09/08
                        Q1019=
200901130700 METAR LPPR 130700Z 05005KT 020V080 9999 SCT005 BKN030 BKN070
                        09/08 Q1019=
200901130630 METAR LPPR 130630Z 08004KT 060V120 8000 -RA SCT005 BKN030
                        BKN070 09/09 Q1018=
200901130600 METAR LPPR 130600Z 13005KT 100V160 9999 -RA SCT009 BKN030
                        BKN070 09/09 Q1018=
200901130530 METAR LPPR 130530Z 14007KT 5000 -RA BR BKN008 BKN012 09/09
                        Q1017=
200901130500 METAR LPPR 130500Z 14008KT 6000 -RA BKN008 BKN012 09/09 Q1018=
200901130430 METAR LPPR 130430Z 14011KT 8000 SCT008 BKN013 09/08 Q1018=
200901130400 METAR LPPR 130400Z 15008KT 8000 -RA BKN011 SCT015 09/08 Q1018=
200901130330 METAR LPPR 130330Z 14010KT 8000 -RA BKN011 SCT015 09/08 Q1018
                        RERA=
200901130300 METAR LPPR 130300Z 14012KT 4000 RA BR BKN013 SCT020 09/08
                        Q1019=
200901130230 METAR LPPR 130230Z 14011KT 8000 -RA BKN013 BKN020 09/08 Q1019=
200901130200 METAR LPPR 130200Z 14011KT 9999 BKN015 BKN020 09/08 Q1020=
200901130130 METAR LPPR 130130Z 14013KT 110V170 7000 -RA SCT015 BKN020
                        09/08 Q1020 RERA=
200901130100 METAR LPPR 130100Z 18013KT 3000 RA BR BKN013 BKN020 09/09
                        Q1022=
200901130030 METAR LPPR 130030Z 17014KT 5000 RA BR BKN015 BKN025 10/09
                        Q1022=
200901130000 METAR LPPR 130000Z 18016KT 5000 RA BR SCT015 BKN030 10/08
                        Q1022=
200901122330 METAR LPPR 122330Z 16012KT 9999 -RA SCT015 BKN040 10/08 Q1022=
200901122300 METAR LPPR 122300Z 16014KT 9999 SCT015 BKN040 11/08 Q1022=
200901122230 METAR LPPR 122230Z 17017KT 9999 -RA SCT017 BKN040 11/08 Q1022=
200901122200 METAR LPPR 122200Z 17015KT 9999 BKN017 BKN025 11/08 Q1023=
200901122130 METAR LPPR 122130Z 18015KT 9999 BKN017 BKN025 11/08 Q1024=
200901122100 METAR LPPR 122100Z 18014KT 9999 BKN020 SCT060 11/07 Q1024=
200901122030 METAR LPPR 122030Z 18012KT 9999 BKN020 SCT070 11/06 Q1024=
200901122000 METAR LPPR 122000Z 18011KT 9999 BKN020 SCT100 11/05 Q1024=
200901121930 METAR LPPR 121930Z 18011KT 9999 BKN025 SCT100 11/05 Q1025=
200901121900 METAR LPPR 121900Z 17012KT 9999 BKN025 SCT100 11/05 Q1025=
200901121830 METAR LPPR 121830Z 17010KT 9999 BKN025 SCT100 11/06 Q1025=
200901121800 METAR LPPR 121800Z 17010KT 9999 BKN025 SCT100 11/06 Q1025=
200901121730 METAR LPPR 121730Z 17009KT 9999 FEW025 SCT040 BKN100 11/06
                        Q1025=
200901121700 METAR LPPR 121700Z 17010KT 9999 FEW025 SCT040 BKN100 11/06
                        Q1025=
200901121630 METAR LPPR 121630Z 17010KT 9999 FEW025 SCT040 BKN100 11/06
                        Q1026=
200901121600 METAR LPPR 121600Z 18011KT 9999 FEW025 SCT040 BKN090 11/06
                        Q1026=
200901121530 METAR LPPR 121530Z 19011KT 9999 FEW040 BKN090 12/06 Q1026=
200901121500 METAR LPPR 121500Z 18013KT 9999 FEW040 BKN090 12/05 Q1026=
200901121430 METAR LPPR 121430Z 18014KT 9999 FEW040 BKN090 12/05 Q1027=
200901121400 METAR LPPR 121400Z 18014KT 9999 FEW040 BKN090 12/05 Q1027=
200901121330 METAR LPPR 121330Z 18016KT CAVOK 13/04 Q1027=
200901121300 METAR LPPR 121300Z 19015KT CAVOK 13/04 Q1028=
200901121230 METAR LPPR 121230Z 16007KT 130V200 CAVOK 12/03 Q1028=
200901121200 METAR LPPR 121200Z 14007KT 110V170 CAVOK 11/03 Q1028=
200901121130 METAR LPPR 121130Z 12008KT CAVOK 09/02 Q1029=
200901121100 METAR LPPR 121100Z 12010KT CAVOK 09/02 Q1029=
200901121030 METAR LPPR 121030Z 12010KT CAVOK 08/01 Q1029=
200901121000 METAR LPPR 121000Z 11009KT CAVOK 06/01 Q1029=
200901120930 METAR LPPR 120930Z 11010KT CAVOK 06/00 Q1029=
200901120900 METAR LPPR 120900Z 11009KT CAVOK 05/M00 Q1028=
200901120830 METAR LPPR 120830Z 12010KT CAVOK 04/M00 Q1028=
200901120800 METAR LPPR 120800Z 11010KT CAVOK 04/M00 Q1028=
200901120730 METAR LPPR 120730Z 11010KT CAVOK 04/M00 Q1028=
200901120700 METAR LPPR 120700Z 11010KT CAVOK 04/M00 Q1028=
200901120630 METAR LPPR 120630Z 11010KT CAVOK 04/M00 Q1028=
200901120600 METAR LPPR 120600Z 11010KT CAVOK 04/M00 Q1028=
200901120530 METAR LPPR 120530Z 11010KT CAVOK 04/M00 Q1028=
200901120500 METAR LPPR 120500Z 11009KT CAVOK 04/M00 Q1029=
200901120430 METAR LPPR 120430Z 11010KT CAVOK 05/M00 Q1029=
200901120400 METAR LPPR 120400Z 11010KT CAVOK 05/M00 Q1029=
200901120330 METAR LPPR 120330Z 11009KT CAVOK 05/M00 Q1029=
200901120300 METAR LPPR 120300Z 11008KT CAVOK 05/M00 Q1029=
200901120230 METAR LPPR 120230Z 11008KT CAVOK 05/M00 Q1029=
200901120200 METAR LPPR 120200Z 11007KT CAVOK 05/M00 Q1029=
200901120130 METAR LPPR 120130Z 11008KT CAVOK 05/M00 Q1029=
200901120100 METAR LPPR 120100Z 11009KT CAVOK 06/M00 Q1029=
200901120030 METAR LPPR 120030Z 11009KT CAVOK 06/M01 Q1029=
200901120000 METAR LPPR 120000Z 11008KT CAVOK 06/M01 Q1029=
200901112330 METAR LPPR 112330Z 11009KT CAVOK 07/M01 Q1030=
200901112300 METAR LPPR 112300Z 12007KT CAVOK 07/M01 Q1029=
200901112230 METAR LPPR 112230Z 11008KT CAVOK 07/M01 Q1029=
200901112200 METAR LPPR 112200Z 12008KT CAVOK 07/M01 Q1029=
200901112130 METAR LPPR 112130Z 12008KT CAVOK 07/M01 Q1029=
200901112100 METAR LPPR 112100Z 11007KT CAVOK 07/M01 Q1029=
200901112030 METAR LPPR 112030Z 11008KT CAVOK 07/M00 Q1029=
200901112000 METAR LPPR 112000Z 11008KT CAVOK 07/01 Q1029=
200901111930 METAR LPPR 111930Z 10004KT CAVOK 07/01 Q1029=
200901111900 METAR LPPR 111900Z 10003KT CAVOK 07/02 Q1029=
200901111830 METAR LPPR 111830Z VRB03KT CAVOK 06/03 Q1029=
200901111800 METAR LPPR 111800Z 00000KT CAVOK 07/03 Q1029=
200901111730 METAR LPPR 111730Z 00000KT CAVOK 09/04 Q1029=
200901111700 METAR LPPR 111700Z VRB02KT CAVOK 11/03 Q1029=
200901111630 METAR LPPR 111630Z 00000KT CAVOK 13/01 Q1029=
200901111600 METAR LPPR 111600Z VRB03KT CAVOK 13/01 Q1029=
200901111530 METAR LPPR 111530Z VRB03KT CAVOK 13/01 Q1029=
200901111500 METAR LPPR 111500Z VRB03KT CAVOK 13/00 Q1029=
200901111430 METAR LPPR 111430Z 13005KT 100V160 CAVOK 13/M00 Q1029=
200901111400 METAR LPPR 111400Z 12005KT 090V160 CAVOK 12/01 Q1029=
200901111330 METAR LPPR 111330Z 11005KT 050V160 CAVOK 12/01 Q1030=
200901111300 METAR LPPR 111300Z 13005KT 100V160 CAVOK 11/01 Q1030=
200901111230 METAR LPPR 111230Z 13006KT 090V160 CAVOK 11/00 Q1030=
200901111200 METAR LPPR 111200Z 12007KT 080V160 CAVOK 10/M00 Q1031=
200901111130 METAR LPPR 111130Z 10008KT 060V130 CAVOK 09/01 Q1031=
200901111100 METAR LPPR 111100Z 10007KT 060V130 CAVOK 08/01 Q1031=
200901111030 METAR LPPR 111030Z 11008KT 070V130 CAVOK 07/00 Q1031=
200901111000 METAR LPPR 111000Z 10004KT 040V160 CAVOK 07/00 Q1031=
200901110930 METAR LPPR 110930Z 10006KT CAVOK 06/M00 Q1030=
200901110900 METAR LPPR 110900Z 11006KT 070V130 CAVOK 05/M00 Q1030=
200901110830 METAR LPPR 110830Z 10006KT 070V130 CAVOK 03/M01 Q1029=
200901110800 METAR LPPR 110800Z VRB02KT CAVOK 03/M01 Q1029=
200901110730 METAR LPPR 110730Z 10004KT 070V140 CAVOK 03/M01 Q1029=
200901110700 METAR LPPR 110700Z 09004KT 050V120 CAVOK 03/M01 Q1029=
200901110630 METAR LPPR 110630Z 07005KT CAVOK 01/M01 Q1029=
200901110600 METAR LPPR 110600Z 00000KT CAVOK M00/M02 Q1028=
200901110530 METAR LPPR 110530Z 12004KT CAVOK 01/00 Q1028=
200901110500 METAR LPPR 110500Z 00000KT CAVOK M01/M02 Q1028=
200901110430 METAR LPPR 110430Z 00000KT CAVOK M01/M02 Q1028=
200901110400 METAR LPPR 110400Z 00000KT CAVOK M00/M02 Q1029=
200901110330 METAR LPPR 110330Z 00000KT CAVOK 01/M01 Q1028=
200901110300 METAR LPPR 110300Z 10006KT CAVOK 02/M00 Q1028=
200901110230 METAR LPPR 110230Z VRB02KT CAVOK 01/M01 Q1028=
200901110200 METAR LPPR 110200Z 00000KT CAVOK 01/M01 Q1028=
200901110130 METAR LPPR 110130Z 15003KT CAVOK 03/M01 Q1028=
200901110100 METAR LPPR 110100Z 15004KT 110V170 CAVOK 03/00 Q1027=
200901110030 METAR LPPR 110030Z 11005KT 070V140 CAVOK 05/01 Q1028=
200901110000 METAR LPPR 110000Z VRB03KT CAVOK 04/01 Q1027=
200901102330 METAR LPPR 102330Z 10004KT 8000 SKC 04/01 Q1028=
200901102300 METAR LPPR 102300Z 00000KT 7000 SKC 03/01 Q1027=
200901102230 METAR LPPR 102230Z 11004KT 060V150 6000 SKC 05/01 Q1027=
200901102200 METAR LPPR 102200Z 10005KT 4000 BR FEW250 05/02 Q1027=
200901102130 METAR LPPR 102130Z 11006KT 4000 BR FEW250 05/02 Q1026=
200901102100 METAR LPPR 102100Z 12003KT 4000 BR FEW250 03/02 Q1026=
200901102030 METAR LPPR 102030Z 00000KT 4000 BR FEW250 02/01 Q1026=
200901102000 METAR LPPR 102000Z 00000KT 4000 BR FEW250 02/01 Q1026=
200901101930 METAR LPPR 101930Z 35002KT 4000 BR FEW250 02/01 Q1025=
200901101900 METAR LPPR 101900Z 00000KT 4000 BR FEW250 03/02 Q1025=
200901101830 METAR LPPR 101830Z 00000KT 5000 BR FEW017 04/02 Q1025=
200901101800 METAR LPPR 101800Z 07003KT 5000 BR FEW017 06/02 Q1024=
200901101730 METAR LPPR 101730Z 00000KT 9999 FEW017 SCT250 07/02 Q1024=
200901101700 METAR LPPR 101700Z VRB02KT 9999 FEW017 SCT250 08/02 Q1024=
200901101630 METAR LPPR 101630Z 33003KT CAVOK 08/02 Q1023=
200901101600 METAR LPPR 101600Z 31005KT CAVOK 09/02 Q1023=
200901101530 METAR LPPR 101530Z 00000KT CAVOK 10/03 Q1023=
200901101500 METAR LPPR 101500Z 00000KT CAVOK 10/03 Q1023=
200901101430 METAR LPPR 101430Z 00000KT CAVOK 11/01 Q1022=
200901101400 METAR LPPR 101400Z VRB02KT CAVOK 10/02 Q1022=
200901101330 METAR LPPR 101330Z VRB03KT CAVOK 09/02 Q1023=
200901101300 METAR LPPR 101300Z 00000KT CAVOK 08/01 Q1023=
200901101230 METAR LPPR 101230Z 00000KT CAVOK 08/00 Q1023=
200901101200 METAR LPPR 101200Z 10007KT 070V130 CAVOK 06/00 Q1023=
200901101130 METAR LPPR 101130Z 11006KT CAVOK 06/01 Q1023=
200901101100 METAR LPPR 101100Z VRB03KT CAVOK 05/M00 Q1023=
200901101030 METAR LPPR 101030Z 11005KT CAVOK 03/M00 Q1023=
200901101000 METAR LPPR 101000Z 12005KT CAVOK 02/M01 Q1023=
200901100930 METAR LPPR 100930Z VRB03KT CAVOK 02/M01 Q1023=
200901100900 METAR LPPR 100900Z VRB02KT CAVOK 00/M02 Q1023=
200901100830 METAR LPPR 100830Z 00000KT CAVOK M00/M02 Q1022=
200901100800 METAR LPPR 100800Z 00000KT CAVOK M00/M02 Q1022=
200901100730 METAR LPPR 100730Z 10004KT CAVOK M00/M02 Q1022=
200901100700 METAR LPPR 100700Z 00000KT CAVOK M00/M02 Q1022=
200901100630 METAR LPPR 100630Z 00000KT CAVOK 00/M02 Q1022=
200901100600 METAR LPPR 100600Z 07004KT 020V090 CAVOK M00/M02 Q1022=
200901100530 METAR LPPR 100530Z 06003KT 8000 SKC M00/M02 Q1021=
200901100500 METAR LPPR 100500Z VRB03KT 8000 SKC 00/M01 Q1021=
200901100430 METAR LPPR 100430Z 00000KT 8000 SKC M00/M02 Q1021=
200901100400 METAR LPPR 100400Z 07004KT 8000 SKC 00/M01 Q1021=
200901100330 METAR LPPR 100330Z 07004KT 8000 SKC 00/M01 Q1021=
200901100300 METAR LPPR 100300Z 04002KT 8000 SKC 00/M01 Q1022=
200901100230 METAR LPPR 100230Z 06003KT 8000 SKC 01/M01 Q1022=
200901100200 METAR LPPR 100200Z 09004KT 8000 SKC 01/M01 Q1021=
200901100130 METAR LPPR 100130Z 09004KT 8000 SKC 01/M00 Q1021=
200901100100 METAR LPPR 100100Z 06004KT 8000 SKC 01/M00 Q1022=
200901100030 METAR LPPR 100030Z 06006KT 8000 SKC 01/M00 Q1021=
200901100000 METAR LPPR 100000Z 06004KT 8000 FEW017 01/M00 Q1022=
200901092330 METAR LPPR 092330Z 00000KT 7000 FEW017 01/M01 Q1022=
200901092300 METAR LPPR 092300Z 10003KT 7000 FEW017 02/00 Q1021=
200901092230 METAR LPPR 092230Z 11005KT 7000 FEW017 02/01 Q1022=
200901092200 METAR LPPR 092200Z VRB03KT 7000 FEW017 02/01 Q1021=
200901092130 METAR LPPR 092130Z 11003KT 9999 FEW017 02/01 Q1021=
200901092100 METAR LPPR 092100Z 10004KT 070V130 9999 FEW017 02/01 Q1021=
200901092030 METAR LPPR 092030Z 11004KT 090V150 8000 FEW017 02/01 Q1021=
200901092000 METAR LPPR 092000Z VRB03KT 5000 BR SCT017 02/01 Q1021=
200901091930 METAR LPPR 091930Z VRB03KT 5000 BR SCT017 03/01 Q1021=
200901091900 METAR LPPR 091900Z VRB03KT 5000 BR FEW017 03/01 Q1020=
200901091830 METAR LPPR 091830Z 06004KT 030V110 5000 BR SCT017 03/01 Q1020=
200901091800 METAR LPPR 091800Z 12008KT 7000 SCT017 BKN030 03/02 Q1020=
200901091730 METAR LPPR 091730Z 11007KT 7000 SCT017 BKN030 04/02 Q1020=
200901091700 METAR LPPR 091700Z 12007KT 080V150 7000 BKN017 BKN025 04/02
                        Q1019=
200901091630 METAR LPPR 091630Z 13009KT 100V160 7000 BKN017 SCT025 04/02
                        Q1019=
200901091600 METAR LPPR 091600Z 12009KT 7000 SCT025 BKN080 04/03 Q1019=
200901091530 METAR LPPR 091530Z 13009KT 7000 -RA SCT025 BKN035 03/02 Q1020=
200901091500 METAR LPPR 091500Z 12010KT 6000 -RA BKN025 BKN070 03/02 Q1020=
200901091430 METAR LPPR 091430Z 12005KT 4000 -RA BR SCT008 BKN030 BKN070
                        03/02 Q1019=
200901091400 METAR LPPR 091400Z 12009KT 4000 -SNRA BR SCT008 BKN030 BKN070
                        03/02 Q1019=
200901091330 METAR LPPR 091330Z 12005KT 4000 -FZRA BR SCT008 BKN030 BKN070
                        03/02 Q1020=
200901091300 METAR LPPR 091300Z 00000KT 4000 -FZRA BR SCT008 SCT012 BKN030
                        04/01 Q1020=
200901091230 METAR LPPR 091230Z 05005KT 5000 -FZDZ BR FEW008 BKN017 BKN030
                        03/02 Q1020=
200901091200 METAR LPPR 091200Z 07004KT 010V110 7000 -FZDZ BR SCT012 BKN017
                        BKN030 04/01 Q1020=
200901091130 METAR LPPR 091130Z 09005KT 050V140 7000 -FZDZ BR BKN017 BKN030
                        03/00 Q1020=
200901091100 METAR LPPR 091100Z 00000KT 7000 BKN017 BKN030 04/M01 Q1020=
200901091030 METAR LPPR 091030Z 08005KT 030V130 5000 BR VCSH BKN017 BKN030
                        03/M01 Q1020=
200901091000 METAR LPPR 091000Z 13006KT 5000 BR VCSH BKN017 BKN030 03/M02
                        Q1020=
200901090930 METAR LPPR 090930Z 12010KT 6000 SCT020 BKN070 03/M02 Q1019=
200901090830 METAR LPPR 090830Z 12010KT 8000 FEW040 BKN070 02/M03 Q1019=
200901090800 METAR LPPR 090800Z 12010KT 8000 FEW040 BKN070 01/M03 Q1019=
200901090730 METAR LPPR 090730Z 12010KT CAVOK 01/M03 Q1018=
200901090700 METAR LPPR 090700Z 12009KT CAVOK 01/M03 Q1018=
200901090630 METAR LPPR 090630Z 11009KT CAVOK 01/M03 Q1018=
200901090600 METAR LPPR 090600Z 11009KT CAVOK 01/M03 Q1018=
200901090530 METAR LPPR 090530Z 11009KT CAVOK 01/M03 Q1018=
200901090500 METAR LPPR 090500Z 11008KT CAVOK 01/M03 Q1018=
200901090430 METAR LPPR 090430Z 11008KT 8000 SCT060 01/M03 Q1018=
200901090400 METAR LPPR 090400Z 11007KT 8000 SCT060 02/M03 Q1018=
200901090330 METAR LPPR 090330Z 10007KT 8000 FEW025 02/M03 Q1018=
200901090300 METAR LPPR 090300Z 10008KT 8000 FEW020 02/M03 Q1018=
200901090230 METAR LPPR 090230Z 11008KT 8000 FEW020 02/M03 Q1018=
200901090200 METAR LPPR 090200Z 11008KT 8000 SKC 02/M03 Q1018=
200901090130 METAR LPPR 090130Z 11008KT 6000 SKC 02/M02 Q1018=
200901090100 METAR LPPR 090100Z 11006KT 6000 SKC 02/M02 Q1018=
200901090030 METAR LPPR 090030Z 11005KT 6000 SKC 02/M02 Q1018=
200901090000 METAR LPPR 090000Z 10007KT 6000 SKC 02/M01 Q1018=
200901082330 METAR LPPR 082330Z 13005KT 100V160 6000 SKC 02/M01 Q1018=
200901082300 METAR LPPR 082300Z 11007KT 6000 SKC 02/M01 Q1018=
200901082230 METAR LPPR 082230Z 00000KT 6000 SKC 01/M01 Q1018=
200901082200 METAR LPPR 082200Z 00000KT 6000 SKC 01/M02 Q1018=
200901082130 METAR LPPR 082130Z VRB02KT 7000 SKC 01/M02 Q1018=
200901082100 METAR LPPR 082100Z 00000KT 7000 SKC 01/M02 Q1018=
200901082030 METAR LPPR 082030Z 00000KT CAVOK 02/M01 Q1018=
200901082000 METAR LPPR 082000Z 10003KT CAVOK 03/M01 Q1018=
200901081930 METAR LPPR 081930Z 05003KT CAVOK 03/M01 Q1018=
200901081900 METAR LPPR 081900Z 03003KT CAVOK 04/M01 Q1018=
200901081830 METAR LPPR 081830Z VRB03KT CAVOK 04/M01 Q1018=
200901081800 METAR LPPR 081800Z 01005KT CAVOK 04/M01 Q1018=
200901081730 METAR LPPR 081730Z 01006KT CAVOK 05/M01 Q1018=
200901081700 METAR LPPR 081700Z 34006KT CAVOK 07/M01 Q1017=
200901081630 METAR LPPR 081630Z 34004KT CAVOK 08/M02 Q1017=
200901081600 METAR LPPR 081600Z 36004KT CAVOK 09/M03 Q1017=
200901081530 METAR LPPR 081530Z 02006KT 350V050 CAVOK 09/M03 Q1017=
200901081500 METAR LPPR 081500Z 03005KT 350V080 CAVOK 09/M03 Q1017=
200901081430 METAR LPPR 081430Z 03006KT 350V070 CAVOK 08/M02 Q1018=
200901081400 METAR LPPR 081400Z 02005KT 350V070 CAVOK 08/M02 Q1018=
200901081330 METAR LPPR 081330Z 01005KT 330V060 CAVOK 08/M02 Q1018=
200901081300 METAR LPPR 081300Z 01004KT 330V090 CAVOK 07/M02 Q1019=
200901081230 METAR LPPR 081230Z 05004KT 360V120 CAVOK 07/M03 Q1019=
200901081200 METAR LPPR 081200Z 04006KT 020V080 CAVOK 06/M02 Q1020=
200901081130 METAR LPPR 081130Z 04006KT 010V100 CAVOK 06/M03 Q1021=
200901081100 METAR LPPR 081100Z 04005KT 360V080 CAVOK 05/M03 Q1021=
200901081030 METAR LPPR 081030Z 04007KT CAVOK 04/M03 Q1021=
200901081000 METAR LPPR 081000Z 04006KT 010V070 CAVOK 04/M03 Q1021=
200901080930 METAR LPPR 080930Z 05004KT 020V090 CAVOK 03/M03 Q1021=
200901080900 METAR LPPR 080900Z 06006KT 030V090 CAVOK 02/M04 Q1021=
200901080830 METAR LPPR 080830Z 05006KT 020V080 CAVOK 01/M04 Q1020=
200901080800 METAR LPPR 080800Z VRB03KT CAVOK 01/M04 Q1020=
200901080730 METAR LPPR 080730Z 04004KT CAVOK 01/M04 Q1020=
200901080700 METAR LPPR 080700Z 06004KT CAVOK 01/M04 Q1020=
200901080630 METAR LPPR 080630Z VRB03KT CAVOK 00/M04 Q1020=
200901080600 METAR LPPR 080600Z 02005KT 350V070 CAVOK 01/M04 Q1020=
200901080530 METAR LPPR 080530Z 36005KT CAVOK M01/M03 Q1020=
200901080500 METAR LPPR 080500Z 36004KT CAVOK 00/M03 Q1020=
200901080430 METAR LPPR 080430Z VRB03KT CAVOK 01/M03 Q1020=
200901080400 METAR LPPR 080400Z 06004KT 030V090 CAVOK 01/M03 Q1020=
200901080330 METAR LPPR 080330Z 06005KT CAVOK 01/M03 Q1020=
200901080300 METAR LPPR 080300Z 03005KT CAVOK 00/M03 Q1021=
200901080230 METAR LPPR 080230Z 00000KT CAVOK M00/M03 Q1020=
200901080200 METAR LPPR 080200Z 00000KT CAVOK 01/M02 Q1020=
200901080130 METAR LPPR 080130Z 04003KT CAVOK 02/M03 Q1020=
200901080100 METAR LPPR 080100Z 09003KT CAVOK 02/M03 Q1020=
200901080030 METAR LPPR 080030Z 12004KT CAVOK 02/M03 Q1021=
200901080000 METAR LPPR 080000Z VRB02KT CAVOK 03/M03 Q1020=
200901072330 METAR LPPR 072330Z 06003KT CAVOK 02/M02 Q1020=
200901072300 METAR LPPR 072300Z 06003KT CAVOK 01/M02 Q1020=
200901072230 METAR LPPR 072230Z 00000KT CAVOK 01/M02 Q1020=
200901072200 METAR LPPR 072200Z 00000KT CAVOK 02/M01 Q1020=
200901072130 METAR LPPR 072130Z 00000KT CAVOK 02/M01 Q1019=
200901072100 METAR LPPR 072100Z 08002KT 9000 FEW040 03/M01 Q1019=
200901072030 METAR LPPR 072030Z 10004KT 070V130 8000 FEW040 04/M01 Q1019=
200901072000 METAR LPPR 072000Z 00000KT 6000 FEW040 02/M00 Q1019=
200901071930 METAR LPPR 071930Z 00000KT 6000 FEW040 03/00 Q1018=
200901071900 METAR LPPR 071900Z 00000KT 8000 FEW040 04/00 Q1018=
200901071830 METAR LPPR 071830Z 00000KT 9999 FEW040 04/01 Q1018=
200901071800 METAR LPPR 071800Z 00000KT 9999 FEW040 05/01 Q1017=
200901071730 METAR LPPR 071730Z 00000KT 9999 FEW040 07/01 Q1017=
200901071700 METAR LPPR 071700Z 00000KT 9999 FEW040 08/01 Q1017=
200901071630 METAR LPPR 071630Z 01004KT 9999 FEW040 09/M00 Q1017=
200901071600 METAR LPPR 071600Z 01007KT 350V050 9999 FEW040 10/M01 Q1017=
200901071530 METAR LPPR 071530Z VRB03KT 9999 SCT020 09/M01 Q1017=
200901071500 METAR LPPR 071500Z 03008KT 350V090 9999 FEW017 10/M02 Q1017=
200901071430 METAR LPPR 071430Z 03006KT 340V060 9999 SCT020 10/M02 Q1017=
200901071400 METAR LPPR 071400Z 06005KT 360V110 9999 FEW017 10/M02 Q1017=
200901071330 METAR LPPR 071330Z 05005KT 010V100 9999 FEW017 10/M02 Q1017=
200901071300 METAR LPPR 071300Z 07004KT 020V110 9999 FEW017 09/M01 Q1017=
200901071230 METAR LPPR 071230Z 04005KT 360V080 9999 FEW017 09/M01 Q1018=
200901071200 METAR LPPR 071200Z 04005KT 020V100 9999 FEW017 08/M01 Q1018=
200901071130 METAR LPPR 071130Z 08005KT 020V120 9999 FEW017 08/M01 Q1018=
200901071100 METAR LPPR 071100Z VRB03KT 9999 FEW017 08/M01 Q1018=
200901071030 METAR LPPR 071030Z 05004KT 010V090 9999 FEW017 07/M01 Q1018=
200901071000 METAR LPPR 071000Z 00000KT 9999 FEW017 06/M00 Q1018=
200901070930 METAR LPPR 070930Z 00000KT 9999 FEW017 SCT070 04/M00 Q1018=
200901070900 METAR LPPR 070900Z 00000KT CAVOK 03/M01 Q1018=
200901070830 METAR LPPR 070830Z 00000KT CAVOK 02/M02 Q1017=
200901070800 METAR LPPR 070800Z VRB03KT CAVOK 02/M02 Q1017=
200901070730 METAR LPPR 070730Z VRB03KT CAVOK 03/M02 Q1017=
200901070700 METAR LPPR 070700Z 02004KT 350V050 CAVOK 02/M01 Q1017=
200901070630 METAR LPPR 070630Z 03003KT CAVOK 02/M00 Q1017=
200901070600 METAR LPPR 070600Z 35004KT CAVOK 01/M01 Q1017=
200901070530 METAR LPPR 070530Z 35004KT CAVOK 01/M01 Q1017=
200901070500 METAR LPPR 070500Z 01004KT CAVOK 02/M01 Q1017=
200901070430 METAR LPPR 070430Z 02006KT CAVOK 02/M01 Q1016=
200901070400 METAR LPPR 070400Z 02005KT CAVOK 03/M01 Q1017=
200901070330 METAR LPPR 070330Z 02006KT CAVOK 03/M00 Q1017=
200901070300 METAR LPPR 070300Z 04005KT CAVOK 03/M00 Q1017=
200901070230 METAR LPPR 070230Z 04005KT CAVOK 03/M00 Q1016=
200901070200 METAR LPPR 070200Z 02005KT CAVOK 03/M00 Q1016=
200901070130 METAR LPPR 070130Z 02006KT CAVOK 03/00 Q1016=
200901070100 METAR LPPR 070100Z 02004KT CAVOK 04/00 Q1016=
200901070030 METAR LPPR 070030Z 02006KT CAVOK 04/00 Q1016=
200901070000 METAR LPPR 070000Z 01005KT CAVOK 04/00 Q1016=
200901062330 METAR LPPR 062330Z 01006KT CAVOK 04/01 Q1016=
200901062300 METAR LPPR 062300Z 01006KT CAVOK 05/01 Q1016=
200901062230 METAR LPPR 062230Z 02006KT CAVOK 05/01 Q1016=
200901062200 METAR LPPR 062200Z 02006KT CAVOK 06/03 Q1016=
200901062130 METAR LPPR 062130Z 01006KT 340V040 9999 FEW030 BKN050 07/04
                        Q1016=
200901062100 METAR LPPR 062100Z 35007KT 9999 FEW030 BKN060 07/04 Q1016=
200901062030 METAR LPPR 062030Z 35002KT 9999 FEW025 SCT060 06/04 Q1016=
200901062000 METAR LPPR 062000Z 36004KT CAVOK 07/04 Q1016=
200901061930 METAR LPPR 061930Z 36004KT CAVOK 08/05 Q1016=
200901061900 METAR LPPR 061900Z 36007KT CAVOK 09/06 Q1016=
200901061830 METAR LPPR 061830Z 35006KT CAVOK 09/06 Q1016=
200901061800 METAR LPPR 061800Z 34007KT CAVOK 09/06 Q1016=
200901061730 METAR LPPR 061730Z 35008KT CAVOK 10/06 Q1016=
200901061700 METAR LPPR 061700Z 35005KT 9999 FEW017 BKN070 10/06 Q1015=
200901061630 METAR LPPR 061630Z 35006KT 9999 FEW017 BKN070 11/05 Q1016=
200901061600 METAR LPPR 061600Z 35010KT 9999 FEW017 SCT070 11/06 Q1015=
200901061530 METAR LPPR 061530Z 33008KT 9999 FEW017 SCT070 11/07 Q1015=
200901061500 METAR LPPR 061500Z 34009KT 9999 FEW017 SCT070 11/07 Q1015=
200901061430 METAR LPPR 061430Z 01009KT 340V050 9999 FEW017 SCT080 12/04
                        Q1015=
200901061400 METAR LPPR 061400Z 35011KT 9999 FEW017 12/05 Q1016=
200901061330 METAR LPPR 061330Z 34009KT 310V020 9999 FEW017 12/05 Q1016=
200901061300 METAR LPPR 061300Z 34007KT 320V020 CAVOK 11/05 Q1016=
200901061230 METAR LPPR 061230Z 01005KT 330V040 CAVOK 10/04 Q1017=
200901061200 METAR LPPR 061200Z 36006KT 340V040 CAVOK 09/04 Q1018=
200901061130 METAR LPPR 061130Z 03004KT 340V060 CAVOK 09/03 Q1018=
200901061100 METAR LPPR 061100Z VRB03KT CAVOK 08/04 Q1018=
200901061030 METAR LPPR 061030Z 00000KT CAVOK 07/03 Q1018=
200901061000 METAR LPPR 061000Z 00000KT CAVOK 06/03 Q1018=
200901060930 METAR LPPR 060930Z 00000KT CAVOK 05/03 Q1018=
200901060900 METAR LPPR 060900Z 00000KT CAVOK 03/02 Q1018=
200901060830 METAR LPPR 060830Z 08003KT CAVOK 02/01 Q1017=
200901060800 METAR LPPR 060800Z 00000KT CAVOK 02/01 Q1017=
200901060730 METAR LPPR 060730Z 00000KT CAVOK 03/01 Q1017=
200901060700 METAR LPPR 060700Z 00000KT CAVOK 03/02 Q1017=
200901060630 METAR LPPR 060630Z 00000KT CAVOK 05/02 Q1017=
200901060600 METAR LPPR 060600Z 06005KT 030V090 CAVOK 05/02 Q1016=
200901060530 METAR LPPR 060530Z 05004KT 020V080 CAVOK 05/02 Q1016=
200901060500 METAR LPPR 060500Z VRB03KT CAVOK 05/02 Q1016=
200901060430 METAR LPPR 060430Z 03004KT CAVOK 05/02 Q1016=
200901060400 METAR LPPR 060400Z 05006KT CAVOK 06/03 Q1016=
200901060330 METAR LPPR 060330Z 03006KT 360V070 CAVOK 05/03 Q1017=
200901060300 METAR LPPR 060300Z 03005KT CAVOK 05/03 Q1017=
200901060230 METAR LPPR 060230Z 02005KT CAVOK 06/03 Q1016=
200901060200 METAR LPPR 060200Z 03005KT 9999 FEW050 SCT060 06/03 Q1016=
200901060130 METAR LPPR 060130Z 02004KT 9999 FEW050 SCT060 06/03 Q1016=
200901060100 METAR LPPR 060100Z 02004KT 9999 SCT050 BKN060 06/03 Q1017=
200901060030 METAR LPPR 060030Z 36004KT 9999 SCT050 SCT060 07/03 Q1017=
200901060000 METAR LPPR 060000Z 02004KT 9999 BKN050 SCT060 07/04 Q1017=
200901052330 METAR LPPR 052330Z VRB03KT 9999 BKN050 06/04 Q1017=
200901052300 METAR LPPR 052300Z 03003KT 9999 BKN040 SCT060 06/04 Q1017=
200901052230 METAR LPPR 052230Z 03004KT 9999 BKN040 06/04 Q1017=
200901052200 METAR LPPR 052200Z 01004KT 8000 FEW025 SCT070 05/04 Q1017=
200901052130 METAR LPPR 052130Z 34004KT 9999 FEW025 SCT250 05/03 Q1017=
200901052100 METAR LPPR 052100Z 33005KT 280V360 9999 FEW025 SCT250 06/04
                        Q1017=
200901052030 METAR LPPR 052030Z 35005KT 9999 FEW025 SCT060 07/05 Q1017=
200901052000 METAR LPPR 052000Z 36003KT 9999 FEW030 BKN050 08/05 Q1017=
200901051930 METAR LPPR 051930Z 36004KT 9999 FEW030 BKN050 08/05 Q1017=
200901051900 METAR LPPR 051900Z 35004KT 9999 FEW030 BKN050 08/05 Q1017=
200901051830 METAR LPPR 051830Z 34004KT 9999 FEW030 BKN050 08/05 Q1017=
200901051800 METAR LPPR 051800Z 34004KT 9999 FEW030 BKN045 09/05 Q1017=
200901051730 METAR LPPR 051730Z 33003KT 9999 FEW017 BKN040 10/05 Q1017=
200901051700 METAR LPPR 051700Z 36004KT 9999 FEW017 BKN045 10/05 Q1017=
200901051630 METAR LPPR 051630Z 01005KT 9999 FEW017 BKN045 10/05 Q1017=
200901051600 METAR LPPR 051600Z 01005KT 9999 FEW017 BKN040 11/05 Q1017=
200901051530 METAR LPPR 051530Z 02008KT 350V050 9999 FEW017 SCT030 11/05
                        Q1017=
200901051500 METAR LPPR 051500Z 02007KT 350V050 9999 FEW015 SCT025 11/05
                        Q1017=
200901051430 METAR LPPR 051430Z 36008KT 9999 FEW017 BKN025 11/06 Q1017=
200901051400 METAR LPPR 051400Z 36007KT 9999 FEW017 SCT040 11/07 Q1017=
200901051330 METAR LPPR 051330Z 34008KT 310V010 9999 SCT017 11/07 Q1017=
200901051300 METAR LPPR 051300Z 01006KT 340V040 9999 SCT017 11/07 Q1018=
200901051230 METAR LPPR 051230Z 34006KT 310V020 9999 FEW015 SCT250 11/07
                        Q1018=
200901051200 METAR LPPR 051200Z 34006KT 300V010 9999 FEW015 SCT250 10/07
                        Q1018=
200901051130 METAR LPPR 051130Z 34007KT 9999 FEW015 BKN250 10/06 Q1019=
200901051100 METAR LPPR 051100Z 35005KT 9999 FEW015 SCT040 09/07 Q1019=
200901051030 METAR LPPR 051030Z 34008KT 9999 FEW015 BKN040 09/06 Q1019=
200901051000 METAR LPPR 051000Z 33004KT 9999 FEW015 BKN040 08/07 Q1019=
200901050930 METAR LPPR 050930Z 34004KT 8000 FEW015 SCT025 BKN040 08/07
                        Q1019=
200901050900 METAR LPPR 050900Z 34003KT 8000 FEW015 SCT025 BKN040 07/07
                        Q1019=
200901050830 METAR LPPR 050830Z 34003KT 6000 FEW013 BKN040 07/07 Q1019=
200901050800 METAR LPPR 050800Z 00000KT 4000 BR FEW009 BKN040 07/07 Q1019=
200901050730 METAR LPPR 050730Z VRB02KT 3000 BR FEW005 BKN040 07/07 Q1019=
200901050700 METAR LPPR 050700Z 00000KT 4000 BR FEW007 BKN040 07/07 Q1018=
200901050630 METAR LPPR 050630Z 00000KT 4000 BR FEW006 SCT013 BKN025 08/08
                        Q1018=
200901050600 METAR LPPR 050600Z 33004KT 3000 BR FEW006 SCT009 BKN040 08/08
                        Q1018=
200901050530 METAR LPPR 050530Z 00000KT 2000 BR VCFG FEW006 SCT009 BKN040
                        07/07 Q1018=
200901050500 METAR LPPR 050500Z 00000KT 2000 BR VCFG FEW015 BKN040 07/07
                        Q1018=
200901050430 METAR LPPR 050430Z 00000KT 2500 BR VCFG FEW015 BKN040 07/07
                        Q1019=
200901050400 METAR LPPR 050400Z 00000KT 2500 BR VCFG FEW015 BKN040 08/08
                        Q1019=
200901050330 METAR LPPR 050330Z 00000KT 2500 VCFG BR FEW015 BKN040 08/08
                        Q1019=
200901050300 METAR LPPR 050300Z 00000KT 3000 BR VCFG FEW015 BKN040 08/08
                        Q1019=
200901050230 METAR LPPR 050230Z 00000KT 3000 BR VCFG FEW015 BKN040 08/08
                        Q1019=
200901050200 METAR LPPR 050200Z 00000KT 3000 BR FEW015 BKN040 08/08 Q1019=
200901050130 METAR LPPR 050130Z 00000KT 4000 BR FEW015 BKN040 08/08 Q1019=
200901050100 METAR LPPR 050100Z VRB02KT 4000 BR FEW015 BKN040 08/08 Q1019=
200901050030 METAR LPPR 050030Z VRB02KT 4000 BR FEW015 BKN040 08/08 Q1020=
200901050000 METAR LPPR 050000Z 00000KT 4500 BR FEW015 BKN040 08/08 Q1020=
200901042330 METAR LPPR 042330Z 00000KT 3000 BR FEW015 BKN030 09/09 Q1020=
200901042300 METAR LPPR 042300Z 15002KT 3000 BR FEW015 BKN030 09/09 Q1020=
200901042230 METAR LPPR 042230Z 00000KT 3000 BR FEW015 SCT020 08/08 Q1020=
200901042200 METAR LPPR 042200Z 10002KT 3000 BR FEW015 SCT020 07/07 Q1020=
200901042130 METAR LPPR 042130Z 00000KT 4000 BR FEW015 BKN020 08/08 Q1020=
200901042100 METAR LPPR 042100Z 00000KT 4000 BR FEW015 BKN020 09/09 Q1020=
200901042030 METAR LPPR 042030Z 00000KT 4500 BR FEW015 BKN020 08/08 Q1020=
200901042000 METAR LPPR 042000Z 10003KT 5000 BR FEW015 SCT030 08/08 Q1020=
200901041930 METAR LPPR 041930Z 10002KT 5000 BR FEW015 SCT035 08/08 Q1020=
200901041900 METAR LPPR 041900Z 00000KT 5000 BR SCT012 08/08 Q1020=
200901041830 METAR LPPR 041830Z 00000KT 5000 BR SCT012 08/08 Q1020=
200901041800 METAR LPPR 041800Z VRB02KT 5000 BR FEW007 SCT010 09/08 Q1019=
200901041730 METAR LPPR 041730Z VRB03KT 5000 BR SCT007 BKN010 10/09 Q1019=
200901041700 METAR LPPR 041700Z 33004KT 270V010 5000 BR FEW004 SCT007
                        BKN010 10/09 Q1019=
200901041630 METAR LPPR 041630Z VRB03KT 4000 BR SCT003 SCT007 BKN015 11/10
                        Q1019=
200901041600 METAR LPPR 041600Z 30004KT 260V330 3000 BR VCFG SCT004 BKN007
                        BKN015 11/10 Q1019=
200901041530 METAR LPPR 041530Z VRB03KT 3000 BR VCFG SCT003 SCT006 BKN015
                        11/10 Q1019=
200901041500 METAR LPPR 041500Z VRB03KT 3000 BR VCFG SCT003 BKN006 11/10
                        Q1019=
200901041430 METAR LPPR 041430Z 26004KT 220V290 3500 BR VCFG SCT003 BKN005
                        11/10 Q1019=
200901041400 METAR LPPR 041400Z 25005KT 210V270 3000 BR SCT003 BKN006
                        12/11 Q1019=
200901041330 METAR LPPR 041330Z VRB02KT 5000 BR BKN008 12/11 Q1019=
200901041300 METAR LPPR 041300Z 00000KT 5000 BR SCT005 BKN008 12/12 Q1019=
200901041230 METAR LPPR 041230Z 26003KT 4000 BR SCT005 BKN007 11/11 Q1020=
200901041200 METAR LPPR 041200Z 00000KT 4000 BR SCT003 BKN006 11/11 Q1020=
200901041130 METAR LPPR 041130Z VRB02KT 2000 BR VCFG SCT002 BKN003 10/10
                        Q1020=
200901041100 METAR LPPR 041100Z 12004KT 1500 BR VCFG BKN001 BKN002 10/10
                        Q1020=
200901041030 METAR LPPR 041030Z VRB03KT 1500 BR VCFG SCT000 BKN001 10/10
                        Q1020=
200901041000 METAR LPPR 041000Z VRB03KT 1500 BR VCFG BKN001 BKN002 10/10
                        Q1019=
200901040930 METAR LPPR 040930Z 04003KT 1200 R17/1000V1500U R35/P1500
                        BCFG SCT000 BKN001 10/10 Q1019=
200901040900 METAR LPPR 040900Z 00000KT 0300 R17/0900V1200N R35/0650V1000N
                        FG VV001 09/09 Q1019=
200901040830 METAR LPPR 040830Z 00000KT 0200 R17/P1500 R35/0700D BCFG
                        VV000 09/09 Q1019=
200901040800 METAR LPPR 040800Z VRB02KT 1500 BR BKN001 09/09 Q1019=
200901040730 METAR LPPR 040730Z 33004KT 300V360 0300 R17/1000VP1500 R35/0800VP1500
                        BCFG VV001 09/09 Q1018=
200901040700 METAR LPPR 040700Z VRB02KT 2000 BR SCT003 BKN020 09/09 Q1018=
200901040630 METAR LPPR 040630Z 00000KT 0200 R17/0650N R35/0650V1000N
                        FG VV000 09/09 Q1018=
200901040600 METAR LPPR 040600Z 00000KT 0200 R17/0600N R35/0600V0750U
                        FG VV000 09/09 Q1018=
200901040530 METAR LPPR 040530Z 00000KT 0200 R17/0750D R35/0550N FG VV000
                        09/09 Q1018=
200901040500 METAR LPPR 040500Z 00000KT 0200 R17/0600N R35/0550N FG VV000
                        09/09 Q1018=
200901040430 METAR LPPR 040430Z 00000KT 0100 R17/0700D R35/0600N FG SCT000
                        BKN001 09/09 Q1018=
200901040400 METAR LPPR 040400Z 00000KT 0100 R17/0400N R35/0350V0500N
                        FG SCT000 BKN001 09/09 Q1018=
200901040330 METAR LPPR 040330Z 00000KT 0100 R17/0450N R35/0450V0700D
                        FG SCT000 BKN001 09/09 Q1018=
200901040300 METAR LPPR 040300Z 00000KT 0100 R17/0550N R35/0400N FG SCT000
                        BKN001 10/10 Q1017=
200901040230 METAR LPPR 040230Z 00000KT 0200 R17/0800N R35/P1500 FG SCT001
                        BKN003 10/10 Q1017=
200901040200 METAR LPPR 040200Z VRB02KT 0800 R17/1100VP1500 R35/P1500
                        FG SCT001 BKN003 10/10 Q1017=
200901040130 METAR LPPR 040130Z 00000KT 0300 R17/0700U R35/P1500 FG SCT001
                        BKN003 10/10 Q1017=
200901040100 METAR LPPR 040100Z 12004KT 0100 R17/0600N R35/0550V0800U
                        FG SCT000 BKN001 10/10 Q1017=
200901040030 METAR LPPR 040030Z 00000KT 0100 R17/0600N R35/0500N FG SCT000
                        BKN001 09/09 Q1017=
200901040000 METAR LPPR 040000Z VRB03KT 0100 R17/0450V0700D R35/0650U
                        FG SCT000 BKN001 09/09 Q1017=
200901032330 METAR LPPR 032330Z 00000KT 0100 R17/0700N R35/0600N FG SCT000
                        BKN001 09/09 Q1017=
200901032300 METAR LPPR 032300Z 00000KT 0100 R17/0600N R35/0600N FG SCT000
                        BKN001 09/09 Q1017=
200901032230 METAR LPPR 032230Z 00000KT 0800 R17/0900VP1500 R35/0800N
                        BCFG SCT001 BKN003 09/09 Q1017=
200901032200 METAR LPPR 032200Z 00000KT 1500 R17/1100VP1500 R35/1100VP1500
                        BCFG SCT001 BKN003 10/10 Q1017=
200901032130 METAR LPPR 032130Z 00000KT 6000 SCT003 SCT012 10/10 Q1017=
200901032100 METAR LPPR 032100Z VRB03KT 8000 SCT006 SCT012 11/11 Q1017=
200901032030 METAR LPPR 032030Z 33006KT 8000 SCT006 SCT012 12/11 Q1017=
200901032000 METAR LPPR 032000Z 34006KT 8000 SCT006 SCT012 12/12 Q1017=
200901031930 METAR LPPR 031930Z 35004KT 8000 SCT006 SCT012 12/12 Q1017=
200901031900 METAR LPPR 031900Z 33006KT 7000 FEW003 SCT008 BKN040 12/12
                        Q1016=
200901031830 METAR LPPR 031830Z 34004KT 6000 FEW002 SCT005 12/11 Q1016=
200901031800 METAR LPPR 031800Z 33005KT 7000 FEW002 SCT005 BKN040 12/12
                        Q1016=
200901031730 METAR LPPR 031730Z 32005KT 290V010 9999 FEW009 SCT040 13/12
                        Q1016=
200901031700 METAR LPPR 031700Z 31007KT 270V340 9999 FEW009 SCT040 14/12
                        Q1015=
200901031630 METAR LPPR 031630Z 31006KT 9999 FEW009 SCT040 14/12 Q1015=
200901031600 METAR LPPR 031600Z 31005KT 9999 FEW009 14/12 Q1015=
200901031530 METAR LPPR 031530Z 32005KT 290V350 9999 FEW009 14/12 Q1015=
200901031500 METAR LPPR 031500Z 31006KT 270V340 9999 FEW008 SCT015 14/12
                        Q1015=
200901031430 METAR LPPR 031430Z 29005KT 240V330 9999 FEW008 SCT015 14/12
                        Q1015=
200901031400 METAR LPPR 031400Z 28005KT 240V350 9999 SCT015 14/12 Q1015=
200901031330 METAR LPPR 031330Z VRB02KT 9999 SCT012 SCT035 15/12 Q1015=
200901031300 METAR LPPR 031300Z 24005KT 200V300 9999 SCT015 SCT035 15/13
                        Q1015=
200901031230 METAR LPPR 031230Z 28004KT 210V310 9999 SCT015 SCT035 14/12
                        Q1015=
200901031200 METAR LPPR 031200Z VRB02KT 9999 BKN012 14/12 Q1016=
200901031130 METAR LPPR 031130Z 00000KT 9999 SCT006 SCT012 14/12 Q1016=
200901031100 METAR LPPR 031100Z 00000KT 9999 SCT015 SCT045 13/12 Q1016=
200901031030 METAR LPPR 031030Z VRB02KT 9999 SCT015 SCT045 12/12 Q1016=
200901031000 METAR LPPR 031000Z VRB03KT 8000 -SHRA FEW007 SCT018 BKN045
                        12/11 Q1015=
200901030930 METAR LPPR 030930Z VRB03KT 3000 -SHRA BR SCT006 BKN015 11/11
                        Q1015=
200901030900 METAR LPPR 030900Z 14004KT 4000 -SHRA BR FEW006 SCT015 SCT020TCU
                        11/11 Q1015=
200901030830 METAR LPPR 030830Z 13005KT 9999 FEW006 BKN015 FEW017TCU 11/11
                        Q1015=
200901030800 METAR LPPR 030800Z 17003KT 9999 FEW006 SCT015 BKN035 11/10
                        Q1015=
200901030730 METAR LPPR 030730Z 00000KT 9999 SCT015 SCT030 11/11 Q1014=
200901030700 METAR LPPR 030700Z 02005KT 330V040 9999 BKN015 BKN090 11/11
                        Q1014=
200901030630 METAR LPPR 030630Z 30007KT 270V340 7000 -RA SCT008 BKN013
                        11/11 Q1014 RERA=
200901030600 METAR LPPR 030600Z 27008KT 230V310 5000 RA BR SCT007 BKN013
                        12/11 Q1014=
200901030530 METAR LPPR 030530Z VRB03KT 5000 -RA BR SCT004 BKN009 13/13
                        Q1013=
200901030500 METAR LPPR 030500Z 20002KT 9999 SCT005 BKN013 13/13 Q1013=
200901030430 METAR LPPR 030430Z 00000KT 9000 SCT004 SCT013 13/13 Q1014=
200901030400 METAR LPPR 030400Z 00000KT 9999 SCT007 SCT013 13/13 Q1014=
200901030330 METAR LPPR 030330Z 00000KT 9999 SCT007 BKN013 13/13 Q1014=
200901030300 METAR LPPR 030300Z 17002KT 8000 SCT006 BKN013 13/13 Q1014=
200901030230 METAR LPPR 030230Z 14002KT 7000 -RA BKN005 BKN017 13/13 Q1014=
200901030200 METAR LPPR 030200Z VRB03KT 7000 -RA SCT003 SCT005 BKN023
                        13/13 Q1014=
200901030130 METAR LPPR 030130Z 27004KT 7000 -DZ SCT003 BKN005 13/13 Q1014=
200901030100 METAR LPPR 030100Z 24006KT 180V280 4000 RADZ BR BKN003 BKN005
                        14/14 Q1014=
200901030030 METAR LPPR 030030Z 17008KT 8000 SCT003 BKN005 14/14 Q1014=
200901030000 METAR LPPR 030000Z 19009KT 8000 SCT002 BKN007 14/14 Q1015=
200901022330 METAR LPPR 022330Z 19011KT 7000 SCT002 BKN004 14/14 Q1015=
200901022300 METAR LPPR 022300Z 19012KT 5000 BR SCT001 BKN004 14/14 Q1015=
200901022230 METAR LPPR 022230Z 19011KT 5000 BR SCT001 BKN004 14/14 Q1015=
200901022200 METAR LPPR 022200Z 18010KT 7000 SCT004 BKN006 14/14 Q1015=
200901022130 METAR LPPR 022130Z 17008KT 9999 SCT009 SCT013 14/13 Q1015=
200901022100 METAR LPPR 022100Z 17009KT 9999 FEW009 SCT020 14/13 Q1015=
200901022030 METAR LPPR 022030Z 17009KT 9999 BKN020 SCT080 14/13 Q1015=
200901022000 METAR LPPR 022000Z 18011KT 8000 BKN015 SCT080 13/13 Q1015=
200901021930 METAR LPPR 021930Z 16006KT 8000 BKN015 SCT080 14/13 Q1015=
200901021900 METAR LPPR 021900Z 15008KT 8000 BKN015 SCT080 14/13 Q1015=
200901021830 METAR LPPR 021830Z 13014KT 8000 FEW008 BKN017 14/13 Q1014=
200901021800 METAR LPPR 021800Z 14012KT 5000 RA BR SCT005 BKN020 14/14
                        Q1015=
200901021730 METAR LPPR 021730Z 17012KT 3000 RA BR SCT005 BKN017 14/14
                        Q1016=
200901021700 METAR LPPR 021700Z 18008KT 5000 -RA BR BKN005 BKN020 14/13
                        Q1016=
200901021630 METAR LPPR 021630Z 18010KT 8000 -RA SCT006 BKN020 14/13 Q1016=
200901021600 METAR LPPR 021600Z 18010KT 9999 SCT008 BKN020 15/13 Q1016=
200901021530 METAR LPPR 021530Z 19011KT 9999 SCT008 BKN020 15/13 Q1016=
200901021500 METAR LPPR 021500Z 18009KT 9999 SCT013 BKN025 15/13 Q1016=
200901021430 METAR LPPR 021430Z 14004KT 9999 BKN015 BKN080 15/14 Q1016=
200901021400 METAR LPPR 021400Z 13004KT 9999 BKN015 BKN080 15/14 Q1016=
200901021330 METAR LPPR 021330Z 14005KT 9999 BKN015 BKN080 14/14 Q1017=
200901021300 METAR LPPR 021300Z 13005KT 9999 BKN015 BKN080 14/13 Q1017=
200901021230 METAR LPPR 021230Z 12006KT 8000 -RA BKN013 BKN080 14/13 Q1017=
200901021200 METAR LPPR 021200Z 12007KT 8000 -RA SCT008 BKN013 BKN080
                        13/13 Q1018=
200901021130 METAR LPPR 021130Z 12007KT 8000 -RA SCT008 BKN013 BKN080
                        13/13 Q1018=
200901021100 METAR LPPR 021100Z 13006KT 8000 -RA SCT008 BKN013 BKN080
                        13/12 Q1019=
200901021030 METAR LPPR 021030Z 13005KT 9999 -RA SCT012 SCT025 BKN080
                        13/12 Q1019=
200901021000 METAR LPPR 021000Z 12006KT 9999 -RA SCT012 SCT030 BKN080
                        13/12 Q1018=
200901020930 METAR LPPR 020930Z 12008KT 9999 -RA SCT016 SCT030 BKN080
                        13/12 Q1018=
200901020900 METAR LPPR 020900Z 12006KT 9999 FEW014 BKN016 13/12 Q1018=
200901020830 METAR LPPR 020830Z 12008KT 9999 FEW014 BKN017 12/12 Q1018=
200901020800 METAR LPPR 020800Z 12006KT 8000 -RA SCT014 BKN016 12/12 Q1018=
200901020730 METAR LPPR 020730Z 12007KT 9999 -RA BKN016 13/12 Q1018=
200901020700 METAR LPPR 020700Z 11005KT 9999 FEW013 BKN016 13/12 Q1018=
200901020630 METAR LPPR 020630Z 11006KT 9999 FEW013 BKN016 13/12 Q1018=
200901020600 METAR LPPR 020600Z 11005KT 9999 FEW013 BKN016 13/12 Q1018=
200901020530 METAR LPPR 020530Z 11005KT 9999 FEW013 BKN018 13/12 Q1018=
200901020500 METAR LPPR 020500Z 11004KT 9999 FEW015 BKN020 13/12 Q1018=
200901020430 METAR LPPR 020430Z 11006KT 9999 FEW015 BKN025 13/12 Q1018=
200901020400 METAR LPPR 020400Z 11005KT 9999 FEW015 SCT020 13/12 Q1018=
200901020330 METAR LPPR 020330Z 11006KT 9999 FEW015 SCT030 13/12 Q1018=
200901020300 METAR LPPR 020300Z 10005KT 9999 FEW015 SCT030 13/12 Q1018=
200901020230 METAR LPPR 020230Z 11006KT 9999 FEW015 SCT030 13/12 Q1018=
200901020200 METAR LPPR 020200Z 11005KT 9999 FEW015 SCT030 13/12 Q1018=
200901020130 METAR LPPR 020130Z 10006KT 9999 FEW015 SCT030 13/12 Q1018=
200901020100 METAR LPPR 020100Z 11006KT 9999 FEW015 SCT030 13/12 Q1018=
200901020030 METAR LPPR 020030Z 11006KT 9999 FEW015 SCT030 13/12 Q1019=
200901020000 METAR LPPR 020000Z 11005KT 9999 FEW015 SCT030 13/12 Q1019=
200901012330 METAR LPPR 012330Z 11005KT 9999 SCT020 13/12 Q1019=
200901012300 METAR LPPR 012300Z 11005KT 9999 SCT020 13/12 Q1019=
200901012230 METAR LPPR 012230Z 11006KT 9999 SCT025 13/12 Q1019=
200901012200 METAR LPPR 012200Z 11006KT 9999 FEW018 SCT030 13/12 Q1019=
200901012130 METAR LPPR 012130Z 11006KT 9999 FEW018 SCT030 13/12 Q1019=
200901012100 METAR LPPR 012100Z 10004KT 9999 FEW018 SCT030 13/13 Q1019=
200901012030 METAR LPPR 012030Z VRB03KT 9999 FEW015 SCT035 13/13 Q1019=
200901012000 METAR LPPR 012000Z 00000KT 8000 BKN020 SCT070 13/13 Q1019=
200901011930 METAR LPPR 011930Z 00000KT 8000 SCT015 BKN025 14/13 Q1019=
200901011900 METAR LPPR 011900Z 00000KT 8000 SCT015 BKN025 14/13 Q1019=
200901011830 METAR LPPR 011830Z 00000KT 8000 SCT007 BKN015 14/13 Q1019
                        RERA=
200901011800 METAR LPPR 011800Z VRB02KT 5000 RA BR SCT005 BKN013 14/13
                        Q1019=
200901011730 METAR LPPR 011730Z 16006KT 5000 RA BR FEW005 SCT017 BKN025
                        14/14 Q1018=
200901011700 METAR LPPR 011700Z 15005KT 120V180 9999 SCT020 SCT030 15/13
                        Q1018=
200901011630 METAR LPPR 011630Z 18008KT 8000 SCT005 SCT017 BKN025 14/14
                        Q1018=
200901011600 METAR LPPR 011600Z 17009KT 140V200 6000 -RA SCT017 BKN025
                        15/14 Q1018=
200901011530 METAR LPPR 011530Z 13007KT 100V160 8000 -SHRA SCT017 BKN020
                        16/14 Q1018=
200901011500 METAR LPPR 011500Z 14005KT 9999 SCT017 BKN020 16/14 Q1018=
200901011430 METAR LPPR 011430Z 13005KT 9999 -SHRA SCT017 BKN025 16/14
                        Q1018=
200901011400 METAR LPPR 011400Z 15007KT 120V180 9999 SCT017 BKN025 16/13
                        Q1018=
200901011330 METAR LPPR 011330Z 14007KT 9999 SCT017 BKN025 16/14 Q1019=
200901011300 METAR LPPR 011300Z 15006KT 9999 SCT017 SCT025 BKN080 15/13
                        Q1019=
200901011230 METAR LPPR 011230Z 14008KT 9999 SCT017 BKN025 15/13 Q1019=
200901011200 METAR LPPR 011200Z 14008KT 8000 -SHRA SCT015 BKN025 14/13
                        Q1019=
200901011130 METAR LPPR 011130Z 14008KT 9999 SCT013 FEW017TCU BKN025 14/13
                        Q1020=
200901011100 METAR LPPR 011100Z 14007KT 9999 SCT013 BKN025 13/12 Q1020=
200901011030 METAR LPPR 011030Z 12009KT 9999 FEW015 SCT025 BKN070 13/12
                        Q1019=
200901011000 METAR LPPR 011000Z 12008KT 9999 FEW015 BKN025 13/11 Q1019=
200901010930 METAR LPPR 010930Z 12007KT 9999 FEW015 BKN025 13/11 Q1019=
200901010900 METAR LPPR 010900Z 12007KT 9999 FEW015 BKN020 BKN070 12/11
                        Q1019=
200901010830 METAR LPPR 010830Z 13006KT 9000 -RA FEW015 SCT025 BKN070
                        13/11 Q1019=
200901010800 METAR LPPR 010800Z 12006KT 9999 FEW015 SCT024 BKN070 13/11
                        Q1019=
200901010730 METAR LPPR 010730Z 12007KT 9999 SCT025 SCT070 13/11 Q1019=
200901010700 METAR LPPR 010700Z 13006KT 9999 FEW015 SCT025 13/11 Q1018=
200901010630 METAR LPPR 010630Z 14007KT 9999 SCT025 SCT070 13/11 Q1018=
200901010600 METAR LPPR 010600Z 13008KT 9999 FEW015 BKN025 13/11 Q1018=
200901010530 METAR LPPR 010530Z 13007KT 9999 FEW015 BKN025 13/11 Q1018=
200901010500 METAR LPPR 010500Z 13007KT 9999 FEW015 SCT025 13/11 Q1018=
200901010430 METAR LPPR 010430Z 14007KT 9999 FEW015 SCT030 13/11 Q1018=
200901010400 METAR LPPR 010400Z 13008KT 9999 FEW015 SCT025 14/12 Q1018=
200901010330 METAR LPPR 010330Z 13006KT 9999 SCT015 SCT025 14/12 Q1018=
200901010300 METAR LPPR 010300Z 13006KT 9999 SCT015 SCT025 14/12 Q1018=
200901010230 METAR LPPR 010230Z 13006KT 9999 SCT015 SCT025 14/12 Q1018=
200901010200 METAR LPPR 010200Z 14006KT 9999 FEW017 BKN025 14/12 Q1018=
200901010130 METAR LPPR 010130Z 13006KT 9999 FEW015 BKN025 14/12 Q1018=
200901010100 METAR LPPR 010100Z 12007KT 9999 SCT015 BKN025 14/12 Q1018=
200901010030 METAR LPPR 010030Z 12005KT 9999 SCT015 BKN025 13/12 Q1018=
200901010000 METAR LPPR 010000Z 12005KT 9999 SCT015 BKN025 13/12 Q1018=
