##########################################################
# Query made at 11/07/2014 15:32:01 UTC
# Time interval: from 01/01/2010 00:00  to 01/31/2010 23:59  UTC
##########################################################

##########################################################
# LPPR, Porto / Pedras Rubras (Portugal)
# WMO index: 08545
# Latitude 41-14N. Longitude 008-41W. Altitude 69 m.
##########################################################

###################################
#  METAR/SPECI from LPPR
###################################
201001312330 METAR LPPR 312330Z 00000KT CAVOK 05/05 Q1016=
201001312300 METAR LPPR 312300Z 00000KT CAVOK 05/05 Q1015=
201001312230 METAR LPPR 312230Z 00000KT CAVOK 06/05 Q1015=
201001312200 METAR LPPR 312200Z 07001KT CAVOK 06/05 Q1015=
201001312130 METAR LPPR 312130Z 00000KT CAVOK 07/06 Q1015=
201001312100 METAR LPPR 312100Z 34002KT CAVOK 08/06 Q1015=
201001312030 METAR LPPR 312030Z 01002KT CAVOK 08/06 Q1015=
201001312000 METAR LPPR 312000Z VRB03KT 9999 FEW015 08/06 Q1014=
201001311930 METAR LPPR 311930Z 34001KT 9999 FEW015 09/06 Q1014=
201001311900 METAR LPPR 311900Z VRB03KT 9999 FEW015 SCT050 10/07 Q1014=
201001311830 METAR LPPR 311830Z 34007KT 9999 FEW015 FEW020TCU SCT050 11/08
                        Q1014=
201001311800 METAR LPPR 311800Z 34007KT 9999 FEW015 FEW020TCU SCT050 10/08
                        Q1014=
201001311730 METAR LPPR 311730Z 34010KT 9999 FEW015 FEW020TCU SCT025 12/08
                        Q1013=
201001311700 METAR LPPR 311700Z 33010KT 9999 FEW015 SCT045 12/08 Q1013=
201001311630 METAR LPPR 311630Z 33009KT 9999 SCT015 FEW020TCU 12/09 Q1013=
201001311600 METAR LPPR 311600Z 31007KT 270V350 9999 SCT015 FEW020TCU
                        12/08 Q1013=
201001311530 METAR LPPR 311530Z 29007KT 260V330 9999 SCT015 FEW020TCU
                        13/09 Q1012=
201001311500 METAR LPPR 311500Z 28006KT 250V310 9999 SCT015 FEW020TCU
                        13/09 Q1012=
201001311430 METAR LPPR 311430Z 29006KT 250V330 9999 SCT015 FEW020TCU
                        13/10 Q1012=
201001311400 METAR LPPR 311400Z VRB02KT 9999 SCT015 FEW020TCU SCT035 13/10
                        Q1012=
201001311330 METAR LPPR 311330Z 19004KT 140V210 9999 SCT015 FEW020TCU
                        SCT035 13/11 Q1013=
201001311300 METAR LPPR 311300Z VRB03KT 9999 SCT015 FEW020TCU SCT035 12/10
                        Q1013=
201001311230 METAR LPPR 311230Z VRB02KT 5000 -SHRA BR SCT015 BKN025 11/10
                        Q1013=
201001311200 METAR LPPR 311200Z VRB03KT 5000 -SHRA BR SCT015 BKN025 12/09
                        Q1013=
201001311130 METAR LPPR 311130Z VRB03KT 8000 SCT015 BKN035 12/09 Q1013=
201001311100 METAR LPPR 311100Z 17004KT 8000 SCT015 BKN035 11/09 Q1013=
201001311030 METAR LPPR 311030Z 14003KT 6000 SCT015 BKN030 10/09 Q1013=
201001311000 METAR LPPR 311000Z 12004KT 8000 SCT015 BKN025 10/09 Q1012=
201001310930 METAR LPPR 310930Z 11005KT 8000 SCT015 FEW020TCU SCT035 10/08
                        Q1012=
201001310900 METAR LPPR 310900Z 11005KT 8000 SCT015 FEW017TCU SCT035 09/08
                        Q1012=
201001310830 METAR LPPR 310830Z VRB03KT 8000 SCT015 BKN035 07/07 Q1012=
201001310800 METAR LPPR 310800Z 11005KT 8000 SCT015 BKN035 08/07 Q1012=
201001310730 METAR LPPR 310730Z VRB05KT 7000 SCT015 BKN036 08/08 Q1011=
201001310700 METAR LPPR 310700Z 08003KT 4000 -SHRA BR SCT015 BKN030 08/08
                        Q1011=
201001310630 METAR LPPR 310630Z VRB03KT 4000 -SHRA BR SCT015 BKN030 08/07
                        Q1011=
201001310600 METAR LPPR 310600Z 11006KT 5000 BR SCT015 SCT030 08/08 Q1011=
201001310530 METAR LPPR 310530Z 11005KT 5000 BR SCT015 SCT030 08/07 Q1011=
201001310500 METAR LPPR 310500Z 11005KT 6000 SCT015 SCT030 08/08 Q1011=
201001310430 METAR LPPR 310430Z 12005KT 8000 FEW015 SCT030 09/08 Q1011=
201001310400 METAR LPPR 310400Z 11004KT 050V120 8000 FEW015 BKN030 09/08
                        Q1011=
201001310330 METAR LPPR 310330Z 11004KT 8000 FEW015 BKN040 09/08 Q1011=
201001310300 METAR LPPR 310300Z VRB02KT 8000 FEW015 SCT035 08/08 Q1012=
201001310230 METAR LPPR 310230Z VRB03KT 8000 SCT012 SCT020 09/08 Q1012=
201001310200 METAR LPPR 310200Z VRB03KT 9999 -SHRA SCT015 BKN025 09/08
                        Q1012=
201001310130 METAR LPPR 310130Z 13003KT 9999 SCT015 SCT025 09/08 Q1012=
201001310100 METAR LPPR 310100Z VRB03KT 9999 FEW015 BKN035 10/08 Q1012=
201001310030 METAR LPPR 310030Z 02005KT 350V050 9999 SCT015 BKN030 10/09
                        Q1012=
201001310000 METAR LPPR 310000Z VRB03KT 9999 -SHRA SCT015 BKN030 11/09
                        Q1012=
201001302330 METAR LPPR 302330Z VRB03KT 9999 SCT015 BKN035 11/08 Q1012=
201001302300 METAR LPPR 302300Z VRB03KT 9999 SCT015 BKN035 11/08 Q1012=
201001302230 METAR LPPR 302230Z VRB03KT 9999 SCT015 BKN040 11/08 Q1012=
201001302200 METAR LPPR 302200Z 32004KT 270V340 9999 BKN015 SCT040 11/08
                        Q1013=
201001302130 METAR LPPR 302130Z 32003KT 9999 SCT017 SCT040 11/08 Q1012=
201001302100 METAR LPPR 302100Z VRB01KT 9999 SCT015 SCT040 10/08 Q1013=
201001302030 METAR LPPR 302030Z 34003KT 9999 SCT015 SCT035 10/08 Q1013=
201001302000 METAR LPPR 302000Z VRB02KT 9999 SCT015 SCT040 10/08 Q1013=
201001301930 METAR LPPR 301930Z VRB01KT 9999 SCT015 SCT035 10/08 Q1013=
201001301900 METAR LPPR 301900Z 33003KT 9999 SCT015 SCT035 10/08 Q1013=
201001301830 METAR LPPR 301830Z 32002KT 9999 SCT015 FEW020TCU SCT035 11/08
                        Q1013=
201001301800 METAR LPPR 301800Z 32005KT 260V340 9999 SCT015 FEW020TCU
                        SCT035 11/08 Q1013=
201001301730 METAR LPPR 301730Z 30004KT 260V330 9999 SCT015 FEW020TCU
                        SCT035 12/08 Q1013=
201001301700 METAR LPPR 301700Z 29006KT 9999 SCT015 FEW020TCU 12/08 Q1012=
201001301630 METAR LPPR 301630Z 31005KT 270V330 9999 SCT015 FEW020TCU
                        SCT035 12/09 Q1013=
201001301600 METAR LPPR 301600Z VRB03KT 9999 SCT017 FEW020TCU SCT035 12/09
                        Q1013=
201001301530 METAR LPPR 301530Z 33008KT 9999 -SHRA SCT017 FEW020TCU SCT035
                        12/09 Q1013=
201001301500 METAR LPPR 301500Z 30005KT 240V350 9999 FEW017 FEW020TCU
                        SCT035 13/09 Q1013=
201001301430 METAR LPPR 301430Z VRB01KT 9999 FEW017 BKN035 12/09 Q1013=
201001301400 METAR LPPR 301400Z VRB03KT 9999 FEW017 BKN035 11/09 Q1013=
201001301330 METAR LPPR 301330Z 26005KT 9999 FEW017 BKN035 12/09 Q1013=
201001301300 METAR LPPR 301300Z 25004G15KT 210V320 9999 SCT017 BKN040
                        12/08 Q1014=
201001301230 METAR LPPR 301230Z 00000KT 9999 FEW017 BKN045 13/08 Q1014=
201001301200 METAR LPPR 301200Z VRB02KT 9999 FEW017 BKN045 13/08 Q1014=
201001301130 METAR LPPR 301130Z VRB02KT 7000 FEW017 BKN045 11/08 Q1014=
201001301100 METAR LPPR 301100Z 15002KT 7000 FEW017 SCT030 BKN045 11/08
                        Q1015=
201001301030 METAR LPPR 301030Z 11003KT 6000 SCT017 BKN045 10/08 Q1014=
201001301000 METAR LPPR 301000Z 11004KT 6000 SCT017 BKN045 09/07 Q1014=
201001300930 METAR LPPR 300930Z 13004KT 8000 FEW017 BKN045 08/07 Q1014=
201001300900 METAR LPPR 300900Z VRB01KT 8000 FEW017 BKN045 08/07 Q1014=
201001300830 METAR LPPR 300830Z 00000KT 8000 FEW017 BKN050 08/06 Q1014=
201001300800 METAR LPPR 300800Z 09004KT 6000 SCT020 BKN050 08/06 Q1014=
201001300730 METAR LPPR 300730Z 11003KT 6000 SCT020 BKN040 07/06 Q1013=
201001300700 METAR LPPR 300700Z 11003KT 6000 SCT030 BKN050 07/06 Q1013=
201001300630 METAR LPPR 300630Z 10004KT 7000 SCT030 BKN050 07/06 Q1013=
201001300600 METAR LPPR 300600Z 09003KT 6000 SCT030 BKN045 07/06 Q1013=
201001300530 METAR LPPR 300530Z 00000KT 6000 SCT027 BKN045 07/06 Q1013=
201001300500 METAR LPPR 300500Z VRB02KT 5000 BR BKN030 SCT060 07/06 Q1013=
201001300430 METAR LPPR 300430Z 12001KT 6000 BKN040 BKN060 06/06 Q1013=
201001300400 METAR LPPR 300400Z 00000KT 7000 BKN040 SCT060 06/06 Q1013=
201001300330 METAR LPPR 300330Z VRB01KT 6000 SCT030 BKN040 07/06 Q1014=
201001300300 METAR LPPR 300300Z 00000KT 7000 SCT040 BKN060 06/05 Q1014=
201001300230 METAR LPPR 300230Z VRB01KT 9000 SCT040 SCT060 05/05 Q1014=
201001300200 METAR LPPR 300200Z 00000KT 9999 SCT040 06/05 Q1014=
201001300130 METAR LPPR 300130Z 00000KT 9999 SCT040 SCT060 06/05 Q1014=
201001300100 METAR LPPR 300100Z 00000KT 9999 SCT040 SCT060 07/05 Q1014=
201001300030 METAR LPPR 300030Z 07001KT 9999 SCT040 07/05 Q1014=
201001300000 METAR LPPR 300000Z VRB01KT 9999 SCT040 08/06 Q1014=
201001292330 METAR LPPR 292330Z 33004KT 9999 BKN040 SCT060 08/06 Q1014=
201001292300 METAR LPPR 292300Z 34005KT 9999 BKN040 SCT060 08/07 Q1014=
201001292230 METAR LPPR 292230Z 35004KT 9999 BKN040 SCT060 08/06 Q1014=
201001292200 METAR LPPR 292200Z 34005KT 9999 BKN040 09/07 Q1014=
201001292130 METAR LPPR 292130Z 34005KT 9999 FEW017 SCT040 08/07 Q1014=
201001292100 METAR LPPR 292100Z 33007KT 9999 FEW017 SCT040 08/06 Q1014=
201001292030 METAR LPPR 292030Z 34008KT 9999 FEW017 SCT040 09/07 Q1013=
201001292000 METAR LPPR 292000Z 34009KT 9999 SCT018 09/07 Q1013=
201001291930 METAR LPPR 291930Z 35008KT 9999 FEW015 09/07 Q1013=
201001291900 METAR LPPR 291900Z VRB03KT 9999 SCT018 09/06 Q1013=
201001291830 METAR LPPR 291830Z 33008KT 9999 SCT018 10/07 Q1013=
201001291800 METAR LPPR 291800Z 33007KT 290V350 9999 SCT017 11/07 Q1012=
201001291730 METAR LPPR 291730Z 33010KT 9999 SCT017 11/08 Q1013=
201001291700 METAR LPPR 291700Z 33012KT 9999 SCT015 BKN030 12/09 Q1013=
201001291630 METAR LPPR 291630Z 33012KT 9999 SCT015 BKN030 11/10 Q1012=
201001291600 METAR LPPR 291600Z 33010KT 9999 SCT015 BKN035 12/10 Q1012=
201001291530 METAR LPPR 291530Z 35009KT 8000 SCT008 SCT015 BKN035 12/11
                        Q1013=
201001291500 METAR LPPR 291500Z 33013KT 8000 SCT015 BKN035 12/10 Q1013=
201001291430 METAR LPPR 291430Z 34007KT 9999 SCT015 BKN035 12/10 Q1013=
201001291400 METAR LPPR 291400Z 33014KT 9999 -RADZ SCT015 BKN035 12/10
                        Q1013=
201001291330 METAR LPPR 291330Z 33011KT 9999 FEW015 SCT035 13/08 Q1013=
201001291300 METAR LPPR 291300Z 32012G22KT 290V350 9999 SCT015 BKN035
                        12/10 Q1014=
201001291230 METAR LPPR 291230Z VRB03KT 8000 SCT015 BKN035 12/10 Q1014=
201001291200 METAR LPPR 291200Z 00000KT 7000 SCT015 BKN035 11/09 Q1015=
201001291130 METAR LPPR 291130Z VRB02KT 5000 BR SCT013 BKN035 11/09 Q1015=
201001291100 METAR LPPR 291100Z VRB03KT 5000 BR SCT013 BKN035 09/08 Q1015=
201001291030 METAR LPPR 291030Z 10004KT 070V130 5000 BR SCT013 BKN035
                        08/08 Q1015=
201001291000 METAR LPPR 291000Z VRB03KT 5000 BR FEW015 BKN040 08/07 Q1015=
201001290930 METAR LPPR 290930Z 11004KT 5000 BR FEW015 BKN040 07/07 Q1016=
201001290900 METAR LPPR 290900Z VRB02KT 5000 -RA BR FEW003 SCT013 BKN040
                        08/07 Q1016=
201001290830 METAR LPPR 290830Z 05001KT 2500 -DZ BR SCT003 BKN005 BKN013
                        07/06 Q1016=
201001290800 METAR LPPR 290800Z 00000KT 9999 SCT017 BKN025 07/06 Q1016=
201001290730 METAR LPPR 290730Z 08004KT 9999 SCT025 BKN030 07/05 Q1016=
201001290700 METAR LPPR 290700Z VRB03KT 9999 SCT025 BKN035 07/06 Q1016=
201001290630 METAR LPPR 290630Z 07001KT 9999 BKN045 06/05 Q1016=
201001290600 METAR LPPR 290600Z 00000KT 9999 BKN045 05/04 Q1016=
201001290530 METAR LPPR 290530Z VRB03KT 9999 BKN045 05/04 Q1016=
201001290500 METAR LPPR 290500Z VRB03KT 9999 SCT040 SCT080 06/04 Q1016=
201001290430 METAR LPPR 290430Z VRB03KT 9999 BKN040 SCT080 07/06 Q1017=
201001290400 METAR LPPR 290400Z 03004KT 340V100 9999 SCT040 06/05 Q1017=
201001290330 METAR LPPR 290330Z 36003KT 9999 BKN040 06/04 Q1018=
201001290300 METAR LPPR 290300Z 34002KT 9999 BKN040 05/04 Q1018=
201001290230 METAR LPPR 290230Z 01004KT CAVOK 05/03 Q1018=
201001290200 METAR LPPR 290200Z 36002KT CAVOK 05/03 Q1018=
201001290130 METAR LPPR 290130Z 36003KT CAVOK 06/04 Q1018=
201001290100 METAR LPPR 290100Z VRB02KT CAVOK 05/03 Q1018=
201001290030 METAR LPPR 290030Z 01003KT CAVOK 06/03 Q1019=
201001290000 METAR LPPR 290000Z VRB02KT CAVOK 05/03 Q1019=
201001282330 METAR LPPR 282330Z 02003KT CAVOK 06/03 Q1019=
201001282300 METAR LPPR 282300Z 34004KT CAVOK 06/02 Q1020=
201001282230 METAR LPPR 282230Z VRB02KT CAVOK 06/02 Q1019=
201001282200 METAR LPPR 282200Z VRB01KT CAVOK 06/02 Q1020=
201001282130 METAR LPPR 282130Z 35003KT CAVOK 06/02 Q1020=
201001282100 METAR LPPR 282100Z VRB02KT CAVOK 06/03 Q1020=
201001282030 METAR LPPR 282030Z 34001KT CAVOK 06/03 Q1020=
201001282000 METAR LPPR 282000Z 36002KT CAVOK 06/03 Q1020=
201001281930 METAR LPPR 281930Z VRB01KT CAVOK 07/03 Q1020=
201001281900 METAR LPPR 281900Z VRB02KT CAVOK 07/03 Q1020=
201001281830 METAR LPPR 281830Z 00000KT CAVOK 08/03 Q1020=
201001281800 METAR LPPR 281800Z 00000KT CAVOK 10/03 Q1020=
201001281730 METAR LPPR 281730Z 00000KT CAVOK 12/02 Q1020=
201001281700 METAR LPPR 281700Z 33004KT 280V360 CAVOK 12/02 Q1020=
201001281630 METAR LPPR 281630Z 35005KT CAVOK 13/01 Q1020=
201001281600 METAR LPPR 281600Z 31003KT CAVOK 13/00 Q1020=
201001281530 METAR LPPR 281530Z VRB03KT CAVOK 13/01 Q1020=
201001281500 METAR LPPR 281500Z 32005KT 240V350 CAVOK 12/02 Q1020=
201001281430 METAR LPPR 281430Z 30005KT 260V360 CAVOK 12/02 Q1021=
201001281400 METAR LPPR 281400Z 30006KT 260V340 CAVOK 12/00 Q1021=
201001281330 METAR LPPR 281330Z 31007KT 260V340 CAVOK 12/M01 Q1022=
201001281300 METAR LPPR 281300Z 28005KT CAVOK 12/M02 Q1023=
201001281230 METAR LPPR 281230Z 29005G17KT 220V350 CAVOK 12/00 Q1023=
201001281200 METAR LPPR 281200Z 00000KT CAVOK 13/M02 Q1024=
201001281130 METAR LPPR 281130Z VRB02KT CAVOK 12/M01 Q1024=
201001281100 METAR LPPR 281100Z VRB03KT CAVOK 11/M02 Q1024=
201001281030 METAR LPPR 281030Z VRB03KT CAVOK 09/M02 Q1024=
201001281000 METAR LPPR 281000Z VRB02KT CAVOK 07/M01 Q1024=
201001280930 METAR LPPR 280930Z VRB03KT CAVOK 07/M01 Q1024=
201001280900 METAR LPPR 280900Z VRB03KT CAVOK 05/M02 Q1024=
201001280830 METAR LPPR 280830Z 08004KT 050V110 CAVOK 04/M02 Q1024=
201001280800 METAR LPPR 280800Z 09004KT CAVOK 03/M02 Q1024=
201001280730 METAR LPPR 280730Z 06003KT CAVOK 01/M02 Q1024=
201001280700 METAR LPPR 280700Z 11001KT CAVOK 01/M02 Q1024=
201001280630 METAR LPPR 280630Z 04002KT CAVOK 01/M02 Q1024=
201001280600 METAR LPPR 280600Z 00000KT CAVOK 02/M03 Q1024=
201001280530 METAR LPPR 280530Z 04004KT CAVOK 03/M02 Q1024=
201001280500 METAR LPPR 280500Z VRB02KT CAVOK 03/M03 Q1024=
201001280430 METAR LPPR 280430Z VRB02KT CAVOK 03/M03 Q1024=
201001280400 METAR LPPR 280400Z 06004KT 010V160 CAVOK 04/M03 Q1024=
201001280330 METAR LPPR 280330Z 00000KT CAVOK 05/M03 Q1024=
201001280300 METAR LPPR 280300Z 02004KT CAVOK 05/M03 Q1024=
201001280230 METAR LPPR 280230Z 04006KT CAVOK 05/M04 Q1024=
201001280200 METAR LPPR 280200Z 02007KT CAVOK 05/M04 Q1024=
201001280130 METAR LPPR 280130Z 05007KT 300V110 CAVOK 07/M04 Q1024=
201001280100 METAR LPPR 280100Z 01007KT CAVOK 06/M04 Q1024=
201001280030 METAR LPPR 280030Z 04009KT CAVOK 07/M05 Q1024=
201001280000 METAR LPPR 280000Z 04008KT 020V080 CAVOK 07/M05 Q1024=
201001272330 METAR LPPR 272330Z 01006KT 340V050 CAVOK 07/M05 Q1024=
201001272300 METAR LPPR 272300Z 05008KT CAVOK 07/M04 Q1024=
201001272230 METAR LPPR 272230Z 36007KT CAVOK 06/M04 Q1024=
201001272200 METAR LPPR 272200Z VRB02KT CAVOK 07/M05 Q1024=
201001272130 METAR LPPR 272130Z 06004KT 360V110 CAVOK 08/M04 Q1024=
201001272100 METAR LPPR 272100Z 06005KT 020V100 CAVOK 08/M04 Q1023=
201001272030 METAR LPPR 272030Z 09008KT 060V130 CAVOK 08/M03 Q1023=
201001272000 METAR LPPR 272000Z 08009KT 030V110 CAVOK 09/M03 Q1023=
201001271930 METAR LPPR 271930Z VRB03KT CAVOK 09/M01 Q1022=
201001271900 METAR LPPR 271900Z VRB03KT CAVOK 09/M02 Q1021=
201001271830 METAR LPPR 271830Z 04005KT CAVOK 10/M01 Q1021=
201001271800 METAR LPPR 271800Z 04007KT CAVOK 10/M01 Q1021=
201001271730 METAR LPPR 271730Z 01011KT 9999 FEW017 11/M01 Q1020=
201001271700 METAR LPPR 271700Z 01010KT CAVOK 11/M02 Q1019=
201001271630 METAR LPPR 271630Z 35011KT CAVOK 12/M00 Q1019=
201001271600 METAR LPPR 271600Z 35013KT 9999 FEW015 12/M01 Q1019=
201001271530 METAR LPPR 271530Z 01011KT 340V040 9999 FEW015 12/M02 Q1020=
201001271500 METAR LPPR 271500Z 35014KT CAVOK 12/M01 Q1020=
201001271430 METAR LPPR 271430Z 35014KT 310V020 CAVOK 12/M01 Q1020=
201001271400 METAR LPPR 271400Z 34014KT 320V020 CAVOK 12/M00 Q1021=
201001271330 METAR LPPR 271330Z 01009KT 330V050 CAVOK 12/M01 Q1021=
201001271300 METAR LPPR 271300Z 01009KT 330V040 CAVOK 12/00 Q1022=
201001271230 METAR LPPR 271230Z 03010KT 350V060 CAVOK 11/M01 Q1022=
201001271200 METAR LPPR 271200Z 02010KT 350V060 CAVOK 11/01 Q1023=
201001271130 METAR LPPR 271130Z 02008KT 350V060 CAVOK 10/01 Q1023=
201001271100 METAR LPPR 271100Z 01007KT 340V040 CAVOK 09/01 Q1023=
201001271030 METAR LPPR 271030Z 02006KT 350V060 CAVOK 08/00 Q1023=
201001271000 METAR LPPR 271000Z 04009KT 020V080 CAVOK 08/M00 Q1023=
201001270930 METAR LPPR 270930Z 04010KT CAVOK 07/M00 Q1023=
201001270900 METAR LPPR 270900Z 05008KT 010V090 CAVOK 07/M01 Q1022=
201001270830 METAR LPPR 270830Z 04007KT 360V060 CAVOK 05/M01 Q1022=
201001270800 METAR LPPR 270800Z 01006KT CAVOK 03/M01 Q1022=
201001270730 METAR LPPR 270730Z 02004KT CAVOK 03/M00 Q1022=
201001270700 METAR LPPR 270700Z 35003KT CAVOK 03/M01 Q1022=
201001270630 METAR LPPR 270630Z 02006KT CAVOK 04/M00 Q1022=
201001270600 METAR LPPR 270600Z 35005KT CAVOK 03/M01 Q1022=
201001270530 METAR LPPR 270530Z 01006KT CAVOK 04/M01 Q1022=
201001270500 METAR LPPR 270500Z 02004KT 350V050 CAVOK 04/M01 Q1022=
201001270430 METAR LPPR 270430Z VRB03KT CAVOK 05/M01 Q1023=
201001270400 METAR LPPR 270400Z 05004KT 360V100 CAVOK 06/M00 Q1023=
201001270330 METAR LPPR 270330Z VRB03KT CAVOK 07/M00 Q1023=
201001270300 METAR LPPR 270300Z 09004KT 020V140 CAVOK 07/M01 Q1023=
201001270230 METAR LPPR 270230Z 09004KT 040V150 CAVOK 07/M00 Q1023=
201001270200 METAR LPPR 270200Z VRB02KT CAVOK 05/00 Q1023=
201001270130 METAR LPPR 270130Z VRB03KT CAVOK 07/00 Q1023=
201001270100 METAR LPPR 270100Z 09003KT CAVOK 06/00 Q1024=
201001270030 METAR LPPR 270030Z 08006KT 020V110 CAVOK 07/00 Q1024=
201001270000 METAR LPPR 270000Z 03005KT CAVOK 07/01 Q1024=
201001262330 METAR LPPR 262330Z VRB03KT CAVOK 05/02 Q1024=
201001262300 METAR LPPR 262300Z 02005KT CAVOK 06/02 Q1024=
201001262230 METAR LPPR 262230Z VRB01KT CAVOK 06/02 Q1024=
201001262200 METAR LPPR 262200Z 27001KT CAVOK 06/02 Q1024=
201001262130 METAR LPPR 262130Z 00000KT CAVOK 07/02 Q1024=
201001262100 METAR LPPR 262100Z VRB03KT CAVOK 08/02 Q1024=
201001262030 METAR LPPR 262030Z VRB02KT CAVOK 07/03 Q1024=
201001262000 METAR LPPR 262000Z 33004KT CAVOK 08/03 Q1024=
201001261930 METAR LPPR 261930Z 33003KT CAVOK 08/04 Q1023=
201001261900 METAR LPPR 261900Z 04004KT CAVOK 10/04 Q1023=
201001261830 METAR LPPR 261830Z VRB03KT CAVOK 11/04 Q1023=
201001261800 METAR LPPR 261800Z 03005KT CAVOK 12/04 Q1023=
201001261730 METAR LPPR 261730Z 02003KT CAVOK 13/04 Q1023=
201001261700 METAR LPPR 261700Z 35007KT CAVOK 14/04 Q1022=
201001261630 METAR LPPR 261630Z 02007KT 350V060 CAVOK 15/M02 Q1022=
201001261600 METAR LPPR 261600Z 06009KT 020V090 CAVOK 16/M02 Q1022=
201001261530 METAR LPPR 261530Z 05007KT 020V110 CAVOK 16/M01 Q1022=
201001261500 METAR LPPR 261500Z 05011KT 010V090 CAVOK 15/00 Q1022=
201001261430 METAR LPPR 261430Z 05012KT 020V080 CAVOK 15/00 Q1022=
201001261400 METAR LPPR 261400Z 05011KT 010V080 CAVOK 14/01 Q1022=
201001261330 METAR LPPR 261330Z 03011KT 360V060 CAVOK 14/01 Q1022=
201001261300 METAR LPPR 261300Z 04010KT CAVOK 13/01 Q1022=
201001261230 METAR LPPR 261230Z 04008KT 010V090 CAVOK 13/01 Q1023=
201001261200 METAR LPPR 261200Z 07008KT 020V110 CAVOK 12/01 Q1023=
201001261130 METAR LPPR 261130Z 03009KT 360V060 CAVOK 12/01 Q1023=
201001261100 METAR LPPR 261100Z 06006KT 350V120 CAVOK 11/00 Q1023=
201001261030 METAR LPPR 261030Z 05007KT 020V090 CAVOK 10/00 Q1023=
201001261000 METAR LPPR 261000Z 33007KT CAVOK 09/01 Q1023=
201001260930 METAR LPPR 260930Z 36007KT CAVOK 08/02 Q1023=
201001260900 METAR LPPR 260900Z 01006KT CAVOK 06/01 Q1023=
201001260830 METAR LPPR 260830Z 33004KT 280V350 CAVOK 04/01 Q1022=
201001260800 METAR LPPR 260800Z 33005KT 310V010 CAVOK 03/01 Q1022=
201001260730 METAR LPPR 260730Z 35006KT CAVOK 03/00 Q1022=
201001260700 METAR LPPR 260700Z 34003KT CAVOK 04/01 Q1021=
201001260630 METAR LPPR 260630Z 36004KT CAVOK 04/01 Q1021=
201001260600 METAR LPPR 260600Z 02003KT CAVOK 04/01 Q1021=
201001260530 METAR LPPR 260530Z 36004KT CAVOK 04/01 Q1021=
201001260500 METAR LPPR 260500Z 01005KT CAVOK 05/01 Q1021=
201001260430 METAR LPPR 260430Z 01006KT CAVOK 06/01 Q1021=
201001260400 METAR LPPR 260400Z 02005KT 9999 FEW030 05/02 Q1021=
201001260330 METAR LPPR 260330Z 02005KT 9999 FEW030 SCT100 06/02 Q1021=
201001260300 METAR LPPR 260300Z 03007KT 9999 SCT030 SCT100 07/03 Q1021=
201001260230 METAR LPPR 260230Z 03008KT 9999 SCT030 07/03 Q1021=
201001260200 METAR LPPR 260200Z 02005KT 9999 SCT030 07/03 Q1021=
201001260130 METAR LPPR 260130Z 03007KT 9999 FEW030 07/03 Q1022=
201001260100 METAR LPPR 260100Z 03007KT 9999 FEW025 07/03 Q1022=
201001260030 METAR LPPR 260030Z 02006KT 9999 FEW025 07/04 Q1022=
201001260000 METAR LPPR 260000Z 35007KT CAVOK 06/03 Q1022=
201001252330 METAR LPPR 252330Z VRB03KT CAVOK 08/03 Q1022=
201001252300 METAR LPPR 252300Z 02007KT CAVOK 09/03 Q1022=
201001252230 METAR LPPR 252230Z 34009KT CAVOK 07/03 Q1022=
201001252200 METAR LPPR 252200Z 00000KT CAVOK 07/03 Q1022=
201001252130 METAR LPPR 252130Z VRB01KT CAVOK 07/03 Q1023=
201001252100 METAR LPPR 252100Z 35004KT CAVOK 08/03 Q1022=
201001252030 METAR LPPR 252030Z 35005KT CAVOK 08/03 Q1023=
201001252000 METAR LPPR 252000Z 34010KT CAVOK 09/03 Q1023=
201001251930 METAR LPPR 251930Z 35008KT CAVOK 09/03 Q1023=
201001251900 METAR LPPR 251900Z 35007KT CAVOK 09/03 Q1023=
201001251830 METAR LPPR 251830Z 34007KT CAVOK 09/03 Q1023=
201001251800 METAR LPPR 251800Z 35010KT CAVOK 10/03 Q1023=
201001251730 METAR LPPR 251730Z 35010KT 9999 FEW015 11/03 Q1023=
201001251700 METAR LPPR 251700Z 36008KT 9999 FEW015 12/03 Q1023=
201001251630 METAR LPPR 251630Z 01006KT 340V050 9999 FEW015 13/03 Q1023=
201001251600 METAR LPPR 251600Z 35008KT 9999 FEW015 13/03 Q1023=
201001251530 METAR LPPR 251530Z 34009KT 9999 FEW015 13/03 Q1023=
201001251500 METAR LPPR 251500Z 34009KT 9999 FEW015 13/03 Q1023=
201001251430 METAR LPPR 251430Z 03007KT 340V070 CAVOK 12/02 Q1024=
201001251400 METAR LPPR 251400Z 03008KT CAVOK 12/03 Q1024=
201001251330 METAR LPPR 251330Z 02008KT 340V050 CAVOK 12/04 Q1025=
201001251300 METAR LPPR 251300Z 02006KT 330V060 CAVOK 11/04 Q1025=
201001251230 METAR LPPR 251230Z 36005KT 330V030 CAVOK 10/05 Q1026=
201001251200 METAR LPPR 251200Z VRB03KT CAVOK 09/05 Q1027=
201001251130 METAR LPPR 251130Z 35004KT CAVOK 08/04 Q1027=
201001251100 METAR LPPR 251100Z VRB03KT CAVOK 08/04 Q1027=
201001251030 METAR LPPR 251030Z 02004KT CAVOK 07/04 Q1027=
201001251000 METAR LPPR 251000Z 02005KT CAVOK 07/04 Q1027=
201001250930 METAR LPPR 250930Z 01004KT CAVOK 06/04 Q1027=
201001250900 METAR LPPR 250900Z 02005KT CAVOK 06/03 Q1027=
201001250830 METAR LPPR 250830Z 03003KT CAVOK 05/03 Q1026=
201001250800 METAR LPPR 250800Z 02003KT CAVOK 05/03 Q1026=
201001250730 METAR LPPR 250730Z 02005KT CAVOK 06/03 Q1026=
201001250700 METAR LPPR 250700Z 01005KT CAVOK 06/03 Q1026=
201001250630 METAR LPPR 250630Z 36005KT CAVOK 06/03 Q1025=
201001250600 METAR LPPR 250600Z 04005KT CAVOK 07/04 Q1025=
201001250530 METAR LPPR 250530Z 03004KT CAVOK 06/03 Q1025=
201001250500 METAR LPPR 250500Z 03005KT CAVOK 06/04 Q1025=
201001250430 METAR LPPR 250430Z 03004KT CAVOK 06/04 Q1025=
201001250400 METAR LPPR 250400Z 02004KT CAVOK 06/04 Q1025=
201001250330 METAR LPPR 250330Z 01005KT CAVOK 07/04 Q1025=
201001250300 METAR LPPR 250300Z 01005KT CAVOK 06/04 Q1025=
201001250230 METAR LPPR 250230Z 02005KT CAVOK 06/04 Q1025=
201001250200 METAR LPPR 250200Z 02004KT CAVOK 05/04 Q1025=
201001250130 METAR LPPR 250130Z 35005KT CAVOK 05/03 Q1025=
201001250100 METAR LPPR 250100Z 01001KT CAVOK 06/04 Q1025=
201001250030 METAR LPPR 250030Z 03003KT CAVOK 06/04 Q1025=
201001250000 METAR LPPR 250000Z 34004KT CAVOK 06/04 Q1026=
201001242330 METAR LPPR 242330Z 01004KT CAVOK 06/04 Q1026=
201001242300 METAR LPPR 242300Z 36005KT CAVOK 07/04 Q1026=
201001242230 METAR LPPR 242230Z 35003KT CAVOK 07/04 Q1025=
201001242200 METAR LPPR 242200Z VRB03KT CAVOK 08/05 Q1025=
201001242130 METAR LPPR 242130Z 02004KT 350V060 CAVOK 09/05 Q1025=
201001242100 METAR LPPR 242100Z 35007KT CAVOK 08/05 Q1025=
201001242030 METAR LPPR 242030Z 32006KT CAVOK 09/05 Q1025=
201001242000 METAR LPPR 242000Z 36005KT CAVOK 09/05 Q1025=
201001241930 METAR LPPR 241930Z 01005KT CAVOK 11/05 Q1025=
201001241900 METAR LPPR 241900Z 35005KT CAVOK 09/06 Q1025=
201001241830 METAR LPPR 241830Z 34005KT CAVOK 10/06 Q1025=
201001241800 METAR LPPR 241800Z 01006KT CAVOK 12/06 Q1024=
201001241730 METAR LPPR 241730Z 01006KT CAVOK 13/06 Q1024=
201001241700 METAR LPPR 241700Z 01008KT CAVOK 14/06 Q1024=
201001241630 METAR LPPR 241630Z 35008KT 330V030 9999 FEW017 15/07 Q1024=
201001241600 METAR LPPR 241600Z 35010KT 9999 FEW017 15/08 Q1023=
201001241530 METAR LPPR 241530Z 01009KT 9999 FEW017 16/08 Q1024=
201001241500 METAR LPPR 241500Z 34010KT 9999 FEW040 16/08 Q1024=
201001241430 METAR LPPR 241430Z 36013KT 9999 FEW030 16/08 Q1023=
201001241400 METAR LPPR 241400Z 01010KT 330V040 9999 FEW017 15/08 Q1023=
201001241330 METAR LPPR 241330Z 35010KT 9999 FEW017 15/09 Q1024=
201001241300 METAR LPPR 241300Z 01010KT 340V040 9999 FEW017 15/09 Q1024=
201001241230 METAR LPPR 241230Z 35010KT 9999 FEW017 15/08 Q1024=
201001241200 METAR LPPR 241200Z 34010KT 9999 FEW017 14/09 Q1024=
201001241130 METAR LPPR 241130Z 36009KT 330V030 9999 FEW017 14/09 Q1024=
201001241100 METAR LPPR 241100Z 36005KT 300V050 9999 FEW017 13/09 Q1024=
201001241030 METAR LPPR 241030Z 35010KT 9999 FEW017 12/08 Q1024=
201001241000 METAR LPPR 241000Z 01006KT 9999 FEW017 11/08 Q1024=
201001240930 METAR LPPR 240930Z 36008KT 9999 FEW017 11/09 Q1024=
201001240900 METAR LPPR 240900Z 35005KT 9999 FEW017 09/08 Q1023=
201001240830 METAR LPPR 240830Z VRB02KT 9999 FEW017 08/07 Q1023=
201001240800 METAR LPPR 240800Z VRB02KT 9999 FEW040 08/07 Q1022=
201001240730 METAR LPPR 240730Z 35004KT 9999 FEW040 07/06 Q1022=
201001240700 METAR LPPR 240700Z 01005KT 9999 FEW040 09/08 Q1022=
201001240630 METAR LPPR 240630Z 01006KT CAVOK 09/08 Q1021=
201001240600 METAR LPPR 240600Z 01005KT CAVOK 10/08 Q1021=
201001240530 METAR LPPR 240530Z 36004KT CAVOK 09/08 Q1021=
201001240500 METAR LPPR 240500Z 34005KT CAVOK 09/08 Q1020=
201001240430 METAR LPPR 240430Z 01006KT 340V050 CAVOK 11/09 Q1020=
201001240400 METAR LPPR 240400Z 01007KT 9999 FEW045 SCT070 11/10 Q1020=
201001240330 METAR LPPR 240330Z 34007KT 9999 SCT045 BKN070 11/10 Q1020=
201001240300 METAR LPPR 240300Z 35004KT 9999 SCT045 BKN070 11/10 Q1020=
201001240230 METAR LPPR 240230Z 35004KT 9999 SCT045 SCT070 11/10 Q1020=
201001240200 METAR LPPR 240200Z 34005KT 9999 SCT045 SCT070 11/10 Q1019=
201001240130 METAR LPPR 240130Z 01005KT 9999 SCT045 SCT080 11/10 Q1019=
201001240100 METAR LPPR 240100Z 34007KT 9999 SCT045 SCT070 11/11 Q1019=
201001240030 METAR LPPR 240030Z 35003KT 7000 SCT020 SCT030 BKN070 11/11
                        Q1019=
201001240000 METAR LPPR 240000Z 34004KT 7000 SCT050 BKN070 11/10 Q1019=
201001232330 METAR LPPR 232330Z 35003KT 8000 -RA BR BKN050 BKN070 11/11
                        Q1019=
201001232300 METAR LPPR 232300Z 35003KT 8000 BKN050 BKN080 12/11 Q1019=
201001232230 METAR LPPR 232230Z 35002KT 8000 SCT050 SCT080 BKN200 11/11
                        Q1019=
201001232200 METAR LPPR 232200Z 00000KT 8000 SCT050 SCT080 BKN200 12/11
                        Q1018=
201001232130 METAR LPPR 232130Z VRB02KT 8000 BKN045 BKN070 12/11 Q1018=
201001232100 METAR LPPR 232100Z VRB02KT 8000 FEW012 BKN050 BKN070 12/11
                        Q1018=
201001232030 METAR LPPR 232030Z 34002KT 8000 -RA BR FEW007 BKN050 BKN070
                        12/11 Q1018=
201001232000 METAR LPPR 232000Z 34004KT 310V010 8000 -RA SCT008 BKN025
                        12/11 Q1018=
201001231930 METAR LPPR 231930Z 02005KT 9999 -RA SCT040 BKN070 12/11 Q1017=
201001231900 METAR LPPR 231900Z 36005KT 330V030 7000 -RA FEW012 SCT040
                        BKN070 12/11 Q1017=
201001231830 METAR LPPR 231830Z 01005KT 7000 -RA FEW011 SCT040 BKN070
                        13/11 Q1017=
201001231800 METAR LPPR 231800Z 01006KT 340V040 9999 -RADZ SCT011 SCT030
                        BKN070 13/11 Q1017=
201001231730 METAR LPPR 231730Z 34009KT 9999 FEW015 SCT030 BKN070 13/11
                        Q1016=
201001231700 METAR LPPR 231700Z 33009KT 9999 FEW015 SCT030 BKN070 14/11
                        Q1016=
201001231630 METAR LPPR 231630Z 33008KT 9999 FEW015 SCT030 BKN070 14/11
                        Q1015=
201001231600 METAR LPPR 231600Z 33007KT 9999 FEW015 SCT030 BKN070 15/12
                        Q1015=
201001231530 METAR LPPR 231530Z 32007KT 9999 FEW015 SCT030 BKN080 16/12
                        Q1014=
201001231500 METAR LPPR 231500Z 32006KT 290V360 9999 FEW015 SCT030 BKN080
                        16/13 Q1014=
201001231430 METAR LPPR 231430Z 33008KT 9999 FEW015 SCT030 BKN080 17/12
                        Q1014=
201001231400 METAR LPPR 231400Z 03004KT 330V100 9999 FEW015 SCT030 BKN080
                        17/11 Q1014=
201001231330 METAR LPPR 231330Z 02004KT 340V050 9999 FEW030 SCT070 17/11
                        Q1014=
201001231300 METAR LPPR 231300Z 04006KT 360V060 9999 FEW030 SCT070 16/11
                        Q1014=
201001231230 METAR LPPR 231230Z 02004KT 340V050 9999 FEW030 BKN070 15/11
                        Q1015=
201001231200 METAR LPPR 231200Z VRB03KT 9999 FEW030 BKN070 15/11 Q1015=
201001231130 METAR LPPR 231130Z 02005KT 9999 SCT030 BKN070 14/11 Q1016=
201001231100 METAR LPPR 231100Z VRB02KT 9999 SCT030 BKN060 14/11 Q1016=
201001231030 METAR LPPR 231030Z 02003KT 9999 SCT030 BKN060 13/11 Q1015=
201001231000 METAR LPPR 231000Z 03004KT 9999 SCT030 BKN060 13/11 Q1015=
201001230930 METAR LPPR 230930Z VRB03KT 9999 BKN030 BKN070 12/10 Q1015=
201001230900 METAR LPPR 230900Z 03005KT 9999 BKN030 BKN070 12/10 Q1014=
201001230830 METAR LPPR 230830Z 03004KT 9999 BKN030 BKN070 12/10 Q1014=
201001230800 METAR LPPR 230800Z 04004KT 9999 SCT030 BKN070 11/10 Q1014=
201001230730 METAR LPPR 230730Z 03005KT 9999 FEW030 BKN070 12/10 Q1014=
201001230700 METAR LPPR 230700Z 04003KT 9999 FEW030 BKN070 11/10 Q1013=
201001230630 METAR LPPR 230630Z 05003KT 9999 FEW030 BKN070 12/10 Q1013=
201001230600 METAR LPPR 230600Z 05005KT 020V080 9999 FEW030 BKN070 12/10
                        Q1013=
201001230530 METAR LPPR 230530Z 04003KT 9999 FEW030 BKN080 11/10 Q1013=
201001230500 METAR LPPR 230500Z 02004KT 9999 FEW030 BKN080 11/10 Q1013=
201001230430 METAR LPPR 230430Z 35003KT 9999 FEW030 BKN080 11/09 Q1013=
201001230400 METAR LPPR 230400Z 04005KT 9999 SCT030 BKN080 13/10 Q1013=
201001230330 METAR LPPR 230330Z VRB03KT 9999 SCT030 BKN080 12/10 Q1014=
201001230300 METAR LPPR 230300Z 05004KT 9999 SCT030 BKN080 12/10 Q1014=
201001230230 METAR LPPR 230230Z 05004KT 9999 FEW030 SCT090 BKN250 12/10
                        Q1014=
201001230200 METAR LPPR 230200Z 05005KT 9999 SCT030 BKN250 12/10 Q1014=
201001230130 METAR LPPR 230130Z 00000KT CAVOK 11/10 Q1014=
201001230100 METAR LPPR 230100Z 00000KT 9999 FEW030 BKN250 13/10 Q1015=
201001230030 METAR LPPR 230030Z VRB03KT 9999 FEW030 BKN250 13/11 Q1015=
201001230000 METAR LPPR 230000Z 09003KT 9999 FEW030 BKN250 13/11 Q1015=
201001222330 METAR LPPR 222330Z 09005KT 060V120 9999 FEW030 BKN250 13/11
                        Q1015=
201001222300 METAR LPPR 222300Z 10004KT 9999 SCT030 BKN250 13/12 Q1016=
201001222230 METAR LPPR 222230Z 09004KT 050V120 9999 FEW017 SCT030 BKN250
                        14/12 Q1016=
201001222200 METAR LPPR 222200Z 09004KT 9999 FEW017 SCT030 BKN250 13/12
                        Q1016=
201001222130 METAR LPPR 222130Z 09004KT 9999 FEW017 SCT030 BKN250 14/12
                        Q1016=
201001222100 METAR LPPR 222100Z 09004KT 9999 FEW017 SCT030 BKN250 14/11
                        Q1016=
201001222030 METAR LPPR 222030Z 10004KT 9999 FEW017 SCT030 BKN250 14/11
                        Q1016=
201001222000 METAR LPPR 222000Z 09003KT 9999 FEW018 SCT035 BKN250 14/11
                        Q1016=
201001221930 METAR LPPR 221930Z 11003KT 9999 FEW018 SCT035 BKN080 14/11
                        Q1016=
201001221900 METAR LPPR 221900Z 13004KT 9999 FEW018 SCT035 BKN080 14/11
                        Q1016=
201001221830 METAR LPPR 221830Z 14004KT 9999 FEW018 SCT035 BKN080 14/11
                        Q1016=
201001221800 METAR LPPR 221800Z 13004KT 9999 FEW018 SCT035 BKN080 15/11
                        Q1016=
201001221730 METAR LPPR 221730Z 14005KT 9999 FEW017 SCT025 BKN070 15/11
                        Q1017=
201001221700 METAR LPPR 221700Z 16007KT 9999 FEW017 SCT030 BKN070 15/11
                        Q1017=
201001221630 METAR LPPR 221630Z 17009KT 9999 FEW015 SCT030 BKN060 15/12
                        Q1017=
201001221600 METAR LPPR 221600Z 18009KT 9999 FEW015 SCT030 BKN050 16/12
                        Q1017=
201001221530 METAR LPPR 221530Z 17010KT 9999 FEW015 SCT030 BKN050 16/12
                        Q1017=
201001221500 METAR LPPR 221500Z 18012KT 9999 FEW015 SCT030 BKN060 16/12
                        Q1017=
201001221430 METAR LPPR 221430Z 18012KT 9999 FEW015 SCT030 BKN080 16/12
                        Q1017=
201001221400 METAR LPPR 221400Z 17014KT 9999 FEW015 SCT020 BKN070 16/12
                        Q1017=
201001221330 METAR LPPR 221330Z 17014KT 9999 FEW015 SCT020 BKN070 15/12
                        Q1018=
201001221300 METAR LPPR 221300Z 17014KT 9999 SCT015 BKN040 15/12 Q1018=
201001221230 METAR LPPR 221230Z 18012KT 9999 SCT015 BKN030 15/12 Q1019=
201001221200 METAR LPPR 221200Z 17010KT 9999 SCT015 BKN020 15/13 Q1019=
201001221130 METAR LPPR 221130Z 16010KT 8000 -RA SCT015 BKN035 14/12 Q1019=
201001221100 METAR LPPR 221100Z 16009KT 8000 -RA SCT013 BKN030 15/12 Q1019=
201001221030 METAR LPPR 221030Z 14009KT 9999 SCT013 BKN040 14/12 Q1019=
201001221000 METAR LPPR 221000Z 15009KT 9999 SCT013 BKN040 14/13 Q1019=
201001220930 METAR LPPR 220930Z 16010KT 8000 -RA FEW009 SCT013 BKN040
                        14/12 Q1019=
201001220900 METAR LPPR 220900Z 16010KT 9999 FEW009 SCT014 BKN030 14/12
                        Q1019=
201001220830 METAR LPPR 220830Z 16011KT 9999 FEW009 BKN013 14/12 Q1019=
201001220800 METAR LPPR 220800Z 16011KT 9999 FEW009 BKN014 14/12 Q1019=
201001220730 METAR LPPR 220730Z 16010KT 9999 FEW009 BKN014 14/12 Q1019=
201001220700 METAR LPPR 220700Z 16010KT 9999 FEW012 BKN018 14/12 Q1019=
201001220630 METAR LPPR 220630Z 17011KT 9999 FEW009 BKN013 14/12 Q1019=
201001220600 METAR LPPR 220600Z 15008KT 9999 FEW009 BKN013 14/12 Q1019=
201001220530 METAR LPPR 220530Z 15007KT 9999 FEW009 BKN013 14/12 Q1019=
201001220500 METAR LPPR 220500Z 16010KT 9999 FEW009 BKN014 14/12 Q1019=
201001220430 METAR LPPR 220430Z 16010KT 9999 FEW009 BKN015 14/12 Q1020=
201001220400 METAR LPPR 220400Z 17011KT 9999 FEW008 BKN030 14/12 Q1020=
201001220330 METAR LPPR 220330Z 16010KT 9999 FEW008 BKN015 14/12 Q1020=
201001220300 METAR LPPR 220300Z 17011KT 9999 SCT008 BKN015 14/12 Q1020=
201001220230 METAR LPPR 220230Z 16012KT 9999 SCT008 BKN030 14/12 Q1020=
201001220200 METAR LPPR 220200Z 16012KT 9999 SCT030 BKN070 13/12 Q1020=
201001220130 METAR LPPR 220130Z 16011KT 9999 SCT030 BKN070 13/12 Q1020=
201001220100 METAR LPPR 220100Z 16010KT 9999 FEW008 BKN020 13/12 Q1021=
201001220030 METAR LPPR 220030Z 16011KT 9999 FEW008 BKN030 13/12 Q1021=
201001220000 METAR LPPR 220000Z 16012KT 9999 SCT007 BKN009 13/12 Q1021=
201001212330 METAR LPPR 212330Z 16010KT 7000 SCT006 BKN009 13/12 Q1021=
201001212300 METAR LPPR 212300Z 16012KT 8000 SCT007 BKN009 13/12 Q1021=
201001212230 METAR LPPR 212230Z 16011KT 8000 SCT006 BKN008 13/12 Q1021=
201001212200 METAR LPPR 212200Z 16011KT 8000 SCT007 BKN009 13/12 Q1022=
201001212130 METAR LPPR 212130Z 16012KT 7000 SCT007 BKN009 13/12 Q1021=
201001212100 METAR LPPR 212100Z 15010KT 7000 SCT006 BKN009 13/12 Q1021=
201001212030 METAR LPPR 212030Z 16010KT 6000 -DZRA BR SCT007 BKN012 13/12
                        Q1022=
201001212000 METAR LPPR 212000Z 16012KT 6000 -DZ SCT006 BKN012 13/12 Q1022=
201001211930 METAR LPPR 211930Z 15011KT 8000 SCT006 BKN020 12/12 Q1021=
201001211900 METAR LPPR 211900Z 16012KT 5000 -DZ BR SCT003 BKN017 12/12
                        Q1021=
201001211830 METAR LPPR 211830Z 17010KT 3000 DZ BR BKN002 BKN004 12/12
                        Q1022=
201001211800 METAR LPPR 211800Z 17010KT 3000 DZRA BR BKN004 BKN008 12/12
                        Q1021=
201001211730 METAR LPPR 211730Z 18016KT 3000 -RA BR SCT006 BKN017 13/11
                        Q1021=
201001211700 METAR COR LPPR 211700Z 16011KT 5000 BR FEW015 BKN025 BKN080
                        14/11 Q1021=
201001211630 METAR LPPR 211630Z 17010KT 9999 BKN030 BKN090 14/10 Q1021=
201001211600 METAR LPPR 211600Z 17011KT 9999 BKN040 BKN090 14/10 Q1021=
201001211530 METAR LPPR 211530Z 17010KT 9999 BKN040 BKN090 15/11 Q1021=
201001211500 METAR LPPR 211500Z 17011KT 9999 BKN040 BKN090 14/11 Q1021=
201001211430 METAR LPPR 211430Z 18013KT 9999 FEW015 BKN050 BKN090 15/11
                        Q1021=
201001211400 METAR LPPR 211400Z 17013KT 9999 FEW015 BKN050 BKN090 14/10
                        Q1021=
201001211330 METAR LPPR 211330Z 17011KT 9999 FEW015 BKN050 BKN090 15/10
                        Q1021=
201001211300 METAR LPPR 211300Z 17010KT 9999 SCT025 BKN035 BKN090 15/10
                        Q1022=
201001211230 METAR LPPR 211230Z 17014KT 9999 FEW015 SCT020 BKN030 14/10
                        Q1022=
201001211200 METAR LPPR 211200Z 15008KT 130V200 9999 FEW015 SCT020 BKN030
                        14/09 Q1023=
201001211130 METAR LPPR 211130Z 14008KT 9999 SCT025 BKN100 14/09 Q1023=
201001211100 METAR LPPR 211100Z 14008KT 9999 SCT035 BKN100 13/09 Q1023=
201001211030 METAR LPPR 211030Z 13009KT 9999 SCT035 BKN100 13/08 Q1023=
201001211000 METAR LPPR 211000Z 12007KT 9999 SCT035 BKN100 12/08 Q1023=
201001210930 METAR LPPR 210930Z 12009KT 9999 SCT035 BKN100 11/07 Q1022=
201001210900 METAR LPPR 210900Z 11009KT 9999 SCT035 BKN100 11/07 Q1022=
201001210830 METAR LPPR 210830Z 11009KT 9999 FEW040 BKN100 10/07 Q1022=
201001210800 METAR LPPR 210800Z 12010KT 9999 FEW040 BKN100 10/07 Q1022=
201001210730 METAR LPPR 210730Z 11009KT 9999 FEW030 SCT090 10/07 Q1022=
201001210700 METAR LPPR 210700Z 11009KT 9999 SCT035 SCT090 10/07 Q1022=
201001210630 METAR LPPR 210630Z 11007KT 9999 SCT030 SCT090 10/07 Q1022=
201001210600 METAR LPPR 210600Z 11006KT 9999 SCT035 SCT090 10/07 Q1022=
201001210530 METAR LPPR 210530Z 12004KT 090V150 9999 SCT035 SCT090 10/07
                        Q1022=
201001210500 METAR LPPR 210500Z 12006KT CAVOK 10/07 Q1022=
201001210430 METAR LPPR 210430Z 11007KT CAVOK 10/07 Q1022=
201001210400 METAR LPPR 210400Z 12007KT CAVOK 10/08 Q1022=
201001210330 METAR LPPR 210330Z 11006KT CAVOK 10/08 Q1022=
201001210300 METAR LPPR 210300Z 12005KT 9999 FEW030 BKN250 10/09 Q1023=
201001210230 METAR LPPR 210230Z 12006KT 9999 FEW030 BKN250 10/09 Q1023=
201001210200 METAR LPPR 210200Z 11005KT 9999 FEW030 BKN250 10/09 Q1023=
201001210130 METAR LPPR 210130Z 13003KT 9999 FEW030 SCT250 10/09 Q1023=
201001210100 METAR LPPR 210100Z 13005KT 9999 FEW030 10/09 Q1023=
201001210030 METAR LPPR 210030Z 13006KT 9999 FEW035 11/09 Q1023=
201001210000 METAR LPPR 210000Z 12006KT 9999 FEW035 11/09 Q1024=
201001202330 METAR LPPR 202330Z 14005KT 9999 FEW017 SCT035 11/10 Q1024=
201001202300 METAR LPPR 202300Z 14005KT 9999 SCT035 12/10 Q1024=
201001202230 METAR LPPR 202230Z 16007KT 9999 FEW017 SCT035 12/10 Q1024=
201001202200 METAR LPPR 202200Z 16007KT 9999 FEW017 BKN035 12/10 Q1024=
201001202130 METAR LPPR 202130Z 17007KT 9999 FEW017 BKN035 13/11 Q1024=
201001202100 METAR LPPR 202100Z 17004KT 9999 FEW017 BKN035 13/10 Q1024=
201001202030 METAR LPPR 202030Z 21004KT 160V240 9999 FEW017 BKN035 13/10
                        Q1024=
201001202000 METAR LPPR 202000Z 21005KT 9999 FEW017 BKN040 13/11 Q1024=
201001201930 METAR LPPR 201930Z 21005KT 9999 FEW017 BKN040 13/11 Q1024=
201001201900 METAR LPPR 201900Z VRB03KT 9999 FEW015 BKN040 13/10 Q1024=
201001201830 METAR LPPR 201830Z 19005KT 9999 FEW015 SCT040 13/10 Q1024=
201001201800 METAR LPPR 201800Z 20004KT 9999 FEW017 SCT040 13/10 Q1023=
201001201730 METAR LPPR 201730Z 21004KT 170V230 9999 SCT017 13/10 Q1023=
201001201700 METAR LPPR 201700Z 21008KT 160V240 9999 SCT017 14/10 Q1023=
201001201630 METAR LPPR 201630Z 22006KT 190V260 9999 SCT017 15/10 Q1023=
201001201600 METAR LPPR 201600Z 23008KT 200V260 9999 FEW017 SCT040 15/10
                        Q1023=
201001201530 METAR LPPR 201530Z 22010KT 9999 FEW017 SCT040 15/11 Q1023=
201001201500 METAR LPPR 201500Z 21010KT 190V260 9999 FEW017 SCT040 15/11
                        Q1023=
201001201430 METAR LPPR 201430Z 21011KT 9999 FEW017 SCT040 15/10 Q1023=
201001201400 METAR LPPR 201400Z 21010KT 9999 SCT017 15/10 Q1023=
201001201330 METAR LPPR 201330Z 22008KT 180V250 9999 SCT017 16/10 Q1023=
201001201300 METAR LPPR 201300Z 23008KT 190V270 9999 SCT015 SCT030 15/10
                        Q1023=
201001201230 METAR LPPR 201230Z 22007KT 180V250 9999 SCT015 SCT030 15/10
                        Q1023=
201001201200 METAR LPPR 201200Z 22005KT 180V250 9999 SCT015 SCT040 14/11
                        Q1024=
201001201130 METAR LPPR 201130Z VRB03KT 9999 SCT017 SCT040 14/10 Q1024=
201001201100 METAR LPPR 201100Z 21004KT 170V240 9999 SCT017 SCT030 14/10
                        Q1024=
201001201030 METAR LPPR 201030Z 13004KT 9999 FEW015 SCT040 13/10 Q1023=
201001201000 METAR LPPR 201000Z 13004KT 9999 SCT015 SCT040 12/11 Q1023=
201001200930 METAR LPPR 200930Z 13004KT 9999 SCT015 SCT040 11/10 Q1023=
201001200900 METAR LPPR 200900Z 00000KT 9999 SCT015 SCT035 10/10 Q1022=
201001200830 METAR LPPR 200830Z 00000KT 9999 SCT015 SCT030 09/09 Q1022=
201001200800 METAR LPPR 200800Z 00000KT 9999 FEW015 SCT030 09/08 Q1022=
201001200730 METAR LPPR 200730Z 00000KT 9999 FEW015 SCT030 09/09 Q1022=
201001200700 METAR LPPR 200700Z 00000KT 9999 FEW015 SCT030 10/09 Q1022=
201001200630 METAR LPPR 200630Z 00000KT 9999 FEW015 SCT030 10/09 Q1021=
201001200600 METAR LPPR 200600Z 00000KT 9999 FEW015 SCT030 BKN250 10/09
                        Q1021=
201001200530 METAR LPPR 200530Z 00000KT 9999 FEW015 BKN030 11/10 Q1021=
201001200500 METAR LPPR 200500Z 30004KT 8000 FEW015 BKN030 11/10 Q1021=
201001200430 METAR LPPR 200430Z 32005KT 8000 -RA SCT015 BKN030 12/10 Q1021=
201001200400 METAR LPPR 200400Z 31003KT 9999 FEW015 BKN040 11/10 Q1021=
201001200330 METAR LPPR 200330Z 32004KT 9999 FEW015 SCT030 BKN250 11/10
                        Q1020=
201001200300 METAR LPPR 200300Z 31007KT 270V330 9999 FEW013 SCT020 12/10
                        Q1020=
201001200230 METAR LPPR 200230Z 29004KT 260V330 9999 FEW007 SCT013 BKN020
                        12/11 Q1020=
201001200200 METAR LPPR 200200Z 30006KT 9999 SCT015 BKN020 12/12 Q1020=
201001200130 METAR LPPR 200130Z VRB02KT 9999 FEW005 SCT015 BKN035 12/12
                        Q1019=
201001200100 METAR LPPR 200100Z 22004KT 8000 SCT005 SCT015 BKN035 13/12
                        Q1019=
201001200030 METAR LPPR 200030Z 21007KT 150V250 4000 -RADZ BR SCT003 BKN007
                        BKN013 12/12 Q1019=
201001200000 METAR LPPR 200000Z 21009KT 180V240 5000 -RA BR SCT002 SCT005
                        BKN015 13/13 Q1019=
201001192330 METAR LPPR 192330Z 19013KT 7000 -RA SCT005 SCT013 BKN030
                        13/13 Q1019=
201001192300 METAR LPPR 192300Z 18014KT 8000 -SHRA SCT007 SCT015 BKN025
                        14/13 Q1019=
201001192230 METAR LPPR 192230Z 18013KT 9999 FEW013 SCT018 BKN030 14/13
                        Q1019=
201001192200 METAR LPPR 192200Z 18013KT 9999 FEW015 SCT020 BKN040 14/12
                        Q1019=
201001192130 METAR LPPR 192130Z 17013KT 9999 FEW014 SCT025 BKN040 14/12
                        Q1019=
201001192100 METAR LPPR 192100Z 18012KT 9999 FEW017 SCT025 BKN040 14/12
                        Q1019=
201001192030 METAR LPPR 192030Z 18012KT 9999 FEW017 BKN040 14/12 Q1019=
201001192000 METAR LPPR 192000Z 18013KT 9999 FEW017 BKN040 14/12 Q1020=
201001191930 METAR LPPR 191930Z 19011KT 9999 FEW017 BKN040 14/12 Q1020=
201001191900 METAR LPPR 191900Z 18012KT 9999 SCT017 BKN040 14/11 Q1019=
201001191830 METAR LPPR 191830Z 18011KT 9999 SCT017 BKN040 14/11 Q1019=
201001191800 METAR LPPR 191800Z 18009KT 9999 SCT017 BKN040 14/11 Q1019=
201001191730 METAR LPPR 191730Z 18011KT 9999 FEW017 BKN040 14/11 Q1019=
201001191700 METAR LPPR 191700Z 18011KT 9999 FEW017 BKN040 14/11 Q1019=
201001191630 METAR LPPR 191630Z 19010KT 9999 FEW017 BKN040 14/11 Q1019=
201001191600 METAR LPPR 191600Z 21008KT 9999 FEW017 SCT040 15/11 Q1019=
201001191530 METAR LPPR 191530Z 21008KT 9999 FEW017 16/11 Q1019=
201001191500 METAR LPPR 191500Z 23008KT 180V260 9999 FEW017 16/11 Q1019=
201001191430 METAR LPPR 191430Z 23006KT 200V270 9999 FEW017 FEW020TCU
                        16/12 Q1019=
201001191400 METAR LPPR 191400Z 23008KT 190V260 9999 SCT017 16/13 Q1019=
201001191330 METAR LPPR 191330Z 22008KT 190V260 9999 SCT013 FEW017TCU
                        BKN040 15/13 Q1019=
201001191300 METAR LPPR 191300Z 23007KT 200V260 9999 FEW015 FEW017TCU
                        BKN040 15/13 Q1019=
201001191230 METAR LPPR 191230Z 24008KT 9999 FEW015 FEW017TCU BKN040 15/13
                        Q1019=
201001191200 METAR LPPR 191200Z 25007KT 9999 SCT015 FEW017TCU BKN040 15/13
                        Q1020=
201001191130 METAR LPPR 191130Z 24006KT 200V270 9999 SCT015 BKN040 15/13
                        Q1020=
201001191100 METAR LPPR 191100Z 23006KT 200V260 9999 VCSH BKN015 FEW017TCU
                        15/13 Q1019=
201001191030 METAR LPPR 191030Z 24006KT 200V270 9999 FEW012 BKN015 14/13
                        Q1019=
201001191000 METAR LPPR 191000Z 24007KT 9999 FEW012 BKN015 14/13 Q1018=
201001190930 METAR LPPR 190930Z 23005KT 200V280 9999 FEW008 BKN013 14/13
                        Q1018=
201001190900 METAR LPPR 190900Z 22006KT 9999 FEW008 BKN013 14/13 Q1017=
201001190830 METAR LPPR 190830Z 22005KT 9999 SCT007 BKN012 14/13 Q1017=
201001190800 METAR LPPR 190800Z 21007KT 9999 FEW008 BKN015 14/13 Q1017=
201001190730 METAR LPPR 190730Z 21007KT 9999 SCT007 BKN015 14/13 Q1017=
201001190700 METAR LPPR 190700Z 22005KT 190V270 9999 SCT007 BKN015 14/13
                        Q1016=
201001190630 METAR LPPR 190630Z 22007KT 190V250 8000 SCT006 BKN012 14/13
                        Q1016=
201001190600 METAR LPPR 190600Z 22009KT 6000 SCT002 BKN005 14/14 Q1016=
201001190530 METAR LPPR 190530Z 21008KT 8000 SCT004 BKN007 14/14 Q1016=
201001190500 METAR LPPR 190500Z 21009KT 8000 SCT003 BKN006 14/14 Q1016=
201001190430 METAR LPPR 190430Z 21008KT 8000 SCT002 BKN004 14/14 Q1016=
201001190400 METAR LPPR 190400Z 20014KT 170V230 3000 -RADZ BR SCT000 BKN003
                        14/14 Q1016=
201001190330 METAR LPPR 190330Z 19013KT 2500 -DZ BR SCT000 BKN003 14/14
                        Q1016=
201001190300 METAR LPPR 190300Z 19013KT 2500 -DZ BR SCT000 BKN004 14/14
                        Q1016=
201001190230 METAR LPPR 190230Z 19015KT 3500 -DZ BR SCT001 BKN003 14/14
                        Q1016=
201001190200 METAR LPPR 190200Z 20014KT 160V220 4000 -RADZ BR SCT001 BKN003
                        14/14 Q1016=
201001190130 METAR LPPR 190130Z 19015KT 3500 -RADZ BR SCT001 BKN003 14/14
                        Q1016=
201001190100 METAR LPPR 190100Z 18016KT 3000 RADZ BR BKN001 BKN004 14/14
                        Q1016=
201001190030 METAR LPPR 190030Z 18014KT 3000 DZ BR SCT002 BKN004 14/14
                        Q1016=
201001190000 METAR LPPR 190000Z 18015KT 3000 DZ BR SCT003 BKN006 14/14
                        Q1016=
201001182330 METAR LPPR 182330Z 17014KT 4000 -DZ BR SCT003 SCT005 BKN012
                        15/14 Q1016=
201001182300 METAR LPPR 182300Z 17012KT 8000 SCT005 SCT013 BKN030 15/14
                        Q1016=
201001182230 METAR LPPR 182230Z 17010KT 8000 SCT003 SCT013 BKN040 15/14
                        Q1016=
201001182200 METAR LPPR 182200Z 17014KT 3000 RADZ BR SCT002 SCT005 BKN012
                        14/14 Q1016=
201001182130 METAR LPPR 182130Z 15009KT 4000 -DZ BR SCT004 SCT012 BKN020
                        15/14 Q1016=
201001182100 METAR LPPR 182100Z 16009KT 8000 FEW007 SCT012 BKN020 14/14
                        Q1017=
201001182030 METAR LPPR 182030Z 17012KT 9999 SCT012 BKN030 14/14 Q1017=
201001182000 METAR LPPR 182000Z 18014KT 8000 SCT005 BKN015 14/14 Q1017=
201001181930 METAR LPPR 181930Z 18015KT 3000 -RADZ BR SCT002 SCT004 BKN012
                        14/14 Q1017=
201001181900 METAR LPPR 181900Z 19013KT 7000 -DZ FEW003 SCT005 BKN012
                        14/14 Q1017=
201001181830 METAR LPPR 181830Z 18016KT 8000 FEW002 SCT004 BKN006 14/14
                        Q1017=
201001181800 METAR LPPR 181800Z 18015KT 6000 SCT003 BKN007 15/14 Q1016=
201001181730 METAR LPPR 181730Z 18013KT 3000 -DZ BR SCT003 BKN007 15/14
                        Q1016=
201001181700 METAR LPPR 181700Z 19012KT 4000 BR SCT003 BKN007 15/14 Q1016=
201001181630 METAR LPPR 181630Z 18014KT 5000 BR SCT004 SCT008 BKN017 15/15
                        Q1016=
201001181600 METAR LPPR 181600Z 17015KT 5000 BR SCT004 SCT008 BKN017 15/15
                        Q1016=
201001181530 METAR LPPR 181530Z 17013KT 5000 BR SCT004 SCT008 BKN017 15/15
                        Q1015=
201001181500 METAR LPPR 181500Z 17011KT 3000 -RADZ BR SCT004 SCT007 BKN017
                        15/15 Q1015=
201001181430 METAR LPPR 181430Z 14006KT 110V180 5000 BR SCT006 SCT008
                        BKN017 15/14 Q1015=
201001181400 METAR LPPR 181400Z 14009KT 3000 -RADZ BR SCT004 SCT008 BKN017
                        14/14 Q1015=
201001181330 METAR LPPR 181330Z 14008KT 6000 SCT007 SCT012 BKN020 14/14
                        Q1015=
201001181300 METAR LPPR 181300Z 12009KT 4000 -RADZ BR SCT007 SCT012 BKN020
                        14/14 Q1015=
201001181230 METAR LPPR 181230Z 12008KT 5000 BR FEW006 SCT012 BKN020 14/13
                        Q1016=
201001181200 METAR LPPR 181200Z 14006KT 100V170 4000 -RADZ BR SCT006 SCT012
                        BKN020 14/13 Q1016=
201001181130 METAR LPPR 181130Z 12008KT 3000 -RADZ BR SCT012 BKN025 14/13
                        Q1016=
201001181100 METAR LPPR 181100Z 11007KT 6000 SCT015 BKN030 13/13 Q1016=
201001181030 METAR LPPR 181030Z 12007KT 5000 -RADZ BR SCT015 BKN030 13/12
                        Q1016=
201001181000 METAR LPPR 181000Z 11006KT 070V130 5000 BR SCT015 BKN025
                        13/12 Q1016=
201001180930 METAR LPPR 180930Z 14005KT 3000 -RADZ BR SCT015 BKN025 13/12
                        Q1016=
201001180900 METAR LPPR 180900Z 12005KT 4000 -RADZ BR SCT020 BKN060 13/11
                        Q1015=
201001180830 METAR LPPR 180830Z 10006KT 9999 SCT020 BKN060 13/11 Q1015=
201001180800 METAR LPPR 180800Z 10007KT 9999 SCT025 BKN060 14/11 Q1015=
201001180730 METAR LPPR 180730Z 10008KT 8000 SCT030 BKN060 13/11 Q1015=
201001180700 METAR LPPR 180700Z 10007KT 8000 SCT030 BKN060 13/11 Q1015=
201001180630 METAR LPPR 180630Z 11006KT 8000 SCT030 BKN060 13/11 Q1015=
201001180600 METAR LPPR 180600Z 13010KT 8000 SCT030 BKN060 14/11 Q1015=
201001180530 METAR LPPR 180530Z 10006KT 9999 SCT030 BKN060 13/11 Q1016=
201001180500 METAR LPPR 180500Z 10006KT 9999 SCT030 BKN060 13/11 Q1016=
201001180430 METAR LPPR 180430Z 10007KT 9999 SCT030 BKN060 13/11 Q1016=
201001180400 METAR LPPR 180400Z 10008KT 9999 SCT030 BKN060 13/11 Q1016=
201001180330 METAR LPPR 180330Z 10007KT 9999 SCT030 BKN060 13/11 Q1017=
201001180300 METAR LPPR 180300Z 10006KT 070V130 9999 SCT030 BKN060 14/11
                        Q1017=
201001180230 METAR LPPR 180230Z 11006KT 9999 SCT030 BKN060 13/11 Q1017=
201001180200 METAR LPPR 180200Z 11005KT 9999 SCT030 BKN060 14/11 Q1017=
201001180130 METAR LPPR 180130Z 11006KT 9999 SCT030 BKN060 14/11 Q1018=
201001180100 METAR LPPR 180100Z 12007KT 9999 SCT030 BKN060 14/11 Q1018=
201001180030 METAR LPPR 180030Z 11006KT 9999 SCT030 BKN060 14/11 Q1018=
201001180000 METAR LPPR 180000Z 11007KT 070V140 9999 FEW015 SCT030 BKN060
                        14/11 Q1019=
201001172330 METAR LPPR 172330Z 11007KT 9999 FEW015 SCT030 BKN060 13/11
                        Q1019=
201001172300 METAR LPPR 172300Z 10007KT 070V130 9999 FEW015 SCT030 BKN060
                        13/11 Q1019=
201001172230 METAR LPPR 172230Z 10007KT 9999 FEW018 SCT030 BKN060 13/11
                        Q1019=
201001172200 METAR LPPR 172200Z 10007KT 080V140 9999 FEW015 SCT070 13/11
                        Q1019=
201001172130 METAR LPPR 172130Z 10010KT 9999 FEW015 SCT070 13/11 Q1019=
201001172100 METAR LPPR 172100Z 10009KT 9999 FEW015 SCT070 14/12 Q1020=
201001172030 METAR LPPR 172030Z 11009KT 9999 SCT015 SCT030 BKN060 14/12
                        Q1020=
201001172000 METAR LPPR 172000Z 10006KT 9999 SCT015 SCT030 BKN060 14/13
                        Q1020=
201001171930 METAR LPPR 171930Z 10006KT 9999 SCT012 SCT030 BKN060 14/13
                        Q1020=
201001171900 METAR LPPR 171900Z 10005KT 9999 SCT006 SCT012 BKN020 15/13
                        Q1020=
201001171830 METAR LPPR 171830Z 10003KT 8000 SCT005 BKN008 15/14 Q1020=
201001171800 METAR LPPR 171800Z VRB01KT 7000 SCT004 SCT007 BKN012 15/14
                        Q1020=
201001171730 METAR LPPR 171730Z 13002KT 7000 SCT004 SCT007 BKN012 15/14
                        Q1020=
201001171700 METAR LPPR 171700Z 16006KT 6000 SCT004 BKN008 BKN012 15/15
                        Q1020=
201001171630 METAR LPPR 171630Z 15005KT 8000 BKN005 BKN008 15/14 Q1020=
201001171600 METAR LPPR 171600Z 14006KT 8000 BKN005 BKN008 15/14 Q1020=
201001171530 METAR LPPR 171530Z 15004KT 120V190 8000 SCT004 BKN008 BKN012
                        15/14 Q1020=
201001171500 METAR LPPR 171500Z VRB03KT 9999 SCT005 BKN012 15/14 Q1021=
201001171430 METAR LPPR 171430Z VRB02KT 9999 SCT007 BKN012 15/13 Q1021=
201001171400 METAR LPPR 171400Z VRB03KT 9999 SCT005 BKN009 BKN012 15/13
                        Q1021=
201001171330 METAR LPPR 171330Z VRB03KT 9999 SCT005 BKN009 BKN012 14/12
                        Q1021=
201001171300 METAR LPPR 171300Z 08004KT 020V120 9999 SCT005 BKN009 BKN012
                        14/12 Q1022=
201001171230 METAR LPPR 171230Z 09005KT 050V120 9999 SCT005 BKN008 BKN012
                        13/12 Q1022=
201001171200 METAR LPPR 171200Z 10006KT 070V130 9999 SCT005 BKN012 BKN080
                        13/12 Q1023=
201001171130 METAR LPPR 171130Z 08004KT 050V130 9999 FEW009 BKN025 BKN090
                        13/12 Q1023=
201001171100 METAR LPPR 171100Z VRB03KT 9999 BKN025 BKN090 12/12 Q1023=
201001171030 METAR LPPR 171030Z VRB03KT 9999 BKN025 BKN090 12/11 Q1023=
201001171000 METAR LPPR 171000Z 04006KT 010V070 9999 BKN025 BKN090 12/11
                        Q1022=
201001170930 METAR LPPR 170930Z VRB03KT 9999 SCT030 BKN090 12/11 Q1022=
201001170900 METAR LPPR 170900Z 04004KT 010V070 9999 FEW030 BKN090 11/11
                        Q1022=
201001170830 METAR LPPR 170830Z 03003KT 7000 FEW040 BKN090 11/11 Q1022=
201001170800 METAR LPPR 170800Z 03004KT 360V070 5000 -RA BR FEW040 BKN070
                        11/11 Q1022=
201001170730 METAR LPPR 170730Z 05004KT 010V080 7000 -RA FEW040 BKN070
                        11/11 Q1022=
201001170700 METAR LPPR 170700Z 04006KT 5000 -RA BR FEW040 BKN070 11/11
                        Q1021=
201001170630 METAR LPPR 170630Z 01004KT 5000 -RA BR FEW040 BKN070 11/11
                        Q1022=
201001170600 METAR LPPR 170600Z VRB02KT 5000 -RA BR FEW040 BKN070 11/11
                        Q1022=
201001170530 METAR LPPR 170530Z 04003KT 5000 -RA BR FEW040 BKN070 11/11
                        Q1021=
201001170500 METAR LPPR 170500Z 01002KT 5000 -RA BR FEW040 BKN070 11/11
                        Q1022=
201001170430 METAR LPPR 170430Z 35002KT 5000 -RA BR FEW040 BKN070 12/11
                        Q1022=
201001170400 METAR LPPR 170400Z VRB03KT 5000 -RA BR FEW040 BKN070 12/11
                        Q1022=
201001170330 METAR LPPR 170330Z 10004KT 5000 -RA BR FEW040 BKN070 12/11
                        Q1022=
201001170300 METAR LPPR 170300Z 11006KT 5000 -RA BR FEW040 BKN070 12/11
                        Q1022=
201001170230 METAR LPPR 170230Z 11004KT 7000 -RA BR FEW040 BKN070 12/11
                        Q1022=
201001170200 METAR LPPR 170200Z 10003KT 7000 -RA BR FEW040 BKN070 12/11
                        Q1022=
201001170130 METAR LPPR 170130Z 11003KT 7000 SCT040 BKN070 12/11 Q1022=
201001170100 METAR LPPR 170100Z 13005KT 7000 SCT025 BKN070 12/11 Q1022=
201001170030 METAR LPPR 170030Z 12004KT 4000 -RA BR SCT007 SCT025 BKN070
                        12/12 Q1023=
201001170000 METAR LPPR 170000Z 11005KT 4000 -RA BR SCT007 SCT025 BKN070
                        12/12 Q1022=
201001162330 METAR LPPR 162330Z 12004KT 100V160 5000 -RA BR SCT030 BKN070
                        13/12 Q1022=
201001162300 METAR LPPR 162300Z 14006KT 6000 -RA BR SCT025 BKN070 13/12
                        Q1022=
201001162230 METAR LPPR 162230Z 17007KT 140V210 7000 -RA SCT025 BKN090
                        12/12 Q1022=
201001162200 METAR LPPR 162200Z 17008KT 5000 -RA BR SCT008 BKN017 BKN090
                        12/12 Q1022=
201001162130 METAR LPPR 162130Z 16009KT 5000 -RA BR SCT008 BKN017 BKN080
                        13/12 Q1022=
201001162100 METAR LPPR 162100Z 16006KT 6000 -RA FEW008 BKN020 BKN090
                        13/12 Q1022=
201001162030 METAR LPPR 162030Z 14007KT 6000 -RA FEW007 BKN020 BKN090
                        13/12 Q1021=
201001162000 METAR LPPR 162000Z 14004KT 110V170 7000 FEW007 BKN020 BKN070
                        13/12 Q1022=
201001161930 METAR LPPR 161930Z 15006KT 5000 -RA BR FEW007 BKN025 BKN070
                        13/12 Q1021=
201001161900 METAR LPPR 161900Z 13005KT 5000 -RA BR SCT007 SCT015 BKN025
                        13/12 Q1021=
201001161830 METAR LPPR 161830Z 13003KT 5000 -RA BR SCT007 SCT015 BKN020
                        13/12 Q1021=
201001161800 METAR LPPR 161800Z 14005KT 5000 -RA BR SCT007 SCT050 BKN100
                        13/12 Q1020=
201001161730 METAR LPPR 161730Z 15007KT 7000 -RA BR SCT007 SCT050 BKN100
                        13/12 Q1020=
201001161700 METAR LPPR 161700Z 17007KT 7000 -RA BR SCT007 BKN050 BKN100
                        13/12 Q1020=
201001161630 METAR LPPR 161630Z 17008KT 5000 -RA BR SCT007 BKN050 BKN100
                        13/12 Q1020=
201001161600 METAR LPPR 161600Z 17007KT 5000 -RA BR SCT008 SCT015 BKN025
                        13/13 Q1020=
201001161530 METAR LPPR 161530Z 19006KT 4000 -RA BR SCT004 SCT013 BKN017
                        14/13 Q1020=
201001161500 METAR LPPR 161500Z 19007KT 170V240 4000 -RA BR SCT004 SCT013
                        BKN017 15/14 Q1019=
201001161430 METAR LPPR 161430Z 21005KT 190V250 4000 -RA BR SCT004 SCT015
                        BKN020 15/14 Q1019=
201001161400 METAR LPPR 161400Z 21005KT 4000 -RA BR SCT005 SCT015 BKN020
                        14/14 Q1019=
201001161330 METAR LPPR 161330Z 22004KT 190V250 2000 -RA BR SCT005 SCT008
                        BKN030 15/15 Q1019=
201001161300 METAR LPPR 161300Z 21004KT 180V240 2000 -RA BR SCT005 SCT008
                        BKN030 15/15 Q1019=
201001161230 METAR LPPR 161230Z 22005KT 180V260 2000 -RA BR SCT003 SCT007
                        BKN017 15/15 Q1020=
201001161200 METAR LPPR 161200Z 22008KT 2000 -RA BR SCT003 BKN007 15/15
                        Q1020=
201001161130 METAR LPPR 161130Z 22008KT 190V310 5000 -RA BR SCT003 BKN017
                        15/15 Q1020 RERADZ=
201001161100 METAR LPPR 161100Z 23009KT 160V270 2000 RADZ BR SCT001 BKN002
                        15/15 Q1019 WS ALL RWY=
201001161030 METAR LPPR 161030Z 21009KT 180V240 2000 RADZ BR SCT001 BKN002
                        15/15 Q1018 WS ALL RWY=
201001161000 METAR LPPR 161000Z 21013KT 160V230 1500 RADZ BR SCT001 BKN002
                        15/15 Q1018 WS ALL RWY=
201001160930 METAR LPPR 160930Z 19012KT 1200 RADZ
                        BR SCT001 BKN002 15/15 Q1017 WS ALL
                        RWY=
201001160900 METAR LPPR 160900Z 19017KT 1200 -RADZ
                        BR SCT001 BKN002 14/14 Q1017 WS ALL
                        RWY=
201001160830 METAR LPPR 160830Z 19017KT 1500 -RADZ BR SCT001 BKN002 14/14
                        Q1017 WS ALL RWY=
201001160800 METAR LPPR 160800Z 18019KT 2500 R35/1300U RADZ
                        BR SCT001 BKN003 14/14 Q1017 WS ALL
                        RWY=
201001160730 METAR LPPR 160730Z 19019KT 2500 R35/1100N RADZ
                        BR SCT001 BKN003 14/14 Q1017 WS ALL
                        RWY=
201001160700 METAR LPPR 160700Z 18023KT 2000 R17///// R35///// RADZ BR
                        SCT001 BKN003 14/14 Q1017 WS ALL
                        RWY=
201001160630 METAR LPPR 160630Z 18024KT 3000 -RADZ BR SCT002 BKN005 14/14
                        Q1016 WS ALL RWY=
201001160600 METAR LPPR 160600Z 18022KT 3000 -RA BR SCT002 BKN005 14/14
                        Q1016 WS ALL RWY=
201001160530 METAR LPPR 160530Z 18022KT 4000 -RA BR SCT003 BKN007 14/14
                        Q1016=
201001160500 METAR LPPR 160500Z 18022KT 5000 -RA BR SCT004 BKN008 14/14
                        Q1016=
201001160430 METAR LPPR 160430Z 18023KT 9999 SCT008 BKN015 15/13 Q1016=
201001160400 METAR LPPR 160400Z 17023G33KT 9999 SCT008 BKN015 15/13 Q1016=
201001160330 METAR LPPR 160330Z 18023KT 9999 SCT008 BKN015 14/13 Q1017=
201001160300 METAR LPPR 160300Z 17022KT 9999 SCT008 SCT015 BKN025 15/13
                        Q1017=
201001160230 METAR LPPR 160230Z 17023KT 9999 SCT012 BKN030 14/13 Q1017=
201001160200 METAR LPPR 160200Z 18021KT 9999 SCT013 BKN030 14/13 Q1017=
201001160130 METAR LPPR 160130Z 18022KT 9999 SCT013 BKN025 14/13 Q1018=
201001160100 METAR LPPR 160100Z 18022KT 9999 FEW008 SCT013 BKN025 14/13
                        Q1018=
201001160030 METAR LPPR 160030Z 18023KT 8000 SCT008 BKN020 14/12 Q1018=
201001160000 METAR LPPR 160000Z 17020KT 8000 SCT008 BKN020 13/12 Q1018=
201001152330 METAR LPPR 152330Z 17022KT 8000 SCT008 BKN020 13/12 Q1019
                        WS ALL RWY=
201001152300 METAR LPPR 152300Z 17020KT 9999 SCT012 BKN020 14/12 Q1019=
201001152230 METAR LPPR 152230Z 18023G33KT 9999 SCT013 BKN020 13/12 Q1019
                        WS ALL RWY=
201001152200 METAR LPPR 152200Z 17022KT 7000 -RADZ SCT006 BKN015 BKN080
                        13/12 Q1019 WS ALL RWY=
201001152130 METAR LPPR 152130Z 17021G31KT 140V200 9999 SCT013 SCT030
                        BKN080 13/11 Q1018=
201001152100 METAR LPPR 152100Z 17019G30KT 9999 SCT013 SCT030 BKN080 13/12
                        Q1018=
201001152030 METAR LPPR 152030Z 18021KT 9999 SCT013 SCT030 BKN090 14/11
                        Q1019=
201001152000 METAR LPPR 152000Z 17023KT 9999 SCT013 SCT030 BKN080 13/12
                        Q1018=
201001151930 METAR LPPR 151930Z 17020KT 9999 SCT013 SCT030 BKN080 13/11
                        Q1018=
201001151900 METAR LPPR 151900Z 16020KT 8000 SCT008 SCT030 BKN080 13/12
                        Q1018=
201001151830 METAR LPPR 151830Z 15014KT 7000 SCT009 BKN030 BKN070 12/12
                        Q1019=
201001151800 METAR LPPR 151800Z 14011KT 7000 SCT009 BKN030 BKN070 12/11
                        Q1019=
201001151730 METAR LPPR 151730Z 15015KT 3000 -RADZ BR SCT007 BKN030 BKN070
                        12/11 Q1019=
201001151700 METAR LPPR 151700Z 16016KT 4000 -RADZ BR SCT008 BKN030 BKN070
                        12/11 Q1019=
201001151630 METAR LPPR 151630Z 16017KT 3000 -RADZ BR SCT008 BKN030 BKN070
                        12/11 Q1019=
201001151600 METAR LPPR 151600Z 17018KT 6000 -RADZ FEW017 SCT030 BKN070
                        13/11 Q1019=
201001151530 METAR LPPR 151530Z 16017KT 8000 FEW020 SCT030 BKN070 13/11
                        Q1019=
201001151500 METAR LPPR 151500Z 16016KT 6000 -RADZ SCT020 BKN070 13/11
                        Q1019 RERA=
201001151430 METAR LPPR 151430Z 16016KT 5000 RADZ BR SCT025 BKN070 13/11
                        Q1019=
201001151400 METAR LPPR 151400Z 16015KT 7000 -RADZ SCT025 BKN070 13/11
                        Q1019=
201001151330 METAR LPPR 151330Z 16014KT 7000 -RADZ SCT030 BKN070 13/11
                        Q1020=
201001151300 METAR LPPR 151300Z 15011KT 7000 -RADZ SCT030 BKN070 13/11
                        Q1020=
201001151230 METAR LPPR 151230Z 14009KT 110V170 7000 -RADZ SCT030 BKN070
                        13/11 Q1020=
201001151200 METAR LPPR 151200Z 14010KT 7000 -RADZ SCT030 BKN070 12/10
                        Q1021=
201001151130 METAR LPPR 151130Z 14010KT 7000 -RADZ FEW015 SCT030 BKN070
                        12/10 Q1021=
201001151100 METAR LPPR 151100Z 14010KT 7000 -RADZ FEW015 SCT030 BKN070
                        12/09 Q1021=
201001151030 METAR LPPR 151030Z 14010KT 110V170 8000 -RADZ FEW015 SCT030
                        BKN070 11/09 Q1021=
201001151000 METAR LPPR 151000Z 13010KT 6000 -RADZ FEW015 SCT030 BKN070
                        11/08 Q1021=
201001150930 METAR LPPR 150930Z 12010KT 6000 -RADZ FEW015 SCT030 BKN070
                        11/08 Q1021=
201001150900 METAR LPPR 150900Z 13010KT 9999 FEW018 SCT035 BKN070 11/07
                        Q1021=
201001150830 METAR LPPR 150830Z 13009KT 9999 FEW018 SCT035 BKN070 10/07
                        Q1020=
201001150800 METAR LPPR 150800Z 12010KT 9999 FEW018 SCT030 BKN070 10/07
                        Q1021=
201001150730 METAR LPPR 150730Z 12009KT 9999 FEW035 BKN080 10/07 Q1021=
201001150700 METAR LPPR 150700Z 12009KT 9999 SCT035 BKN080 09/07 Q1021=
201001150630 METAR LPPR 150630Z 11010KT 9999 FEW040 BKN080 09/07 Q1021=
201001150600 METAR LPPR 150600Z 11009KT 9999 SCT035 BKN080 09/07 Q1021=
201001150530 METAR LPPR 150530Z 12008KT 9999 FEW017 BKN045 09/07 Q1021=
201001150500 METAR LPPR 150500Z 12007KT 9999 FEW017 SCT035 09/08 Q1021=
201001150430 METAR LPPR 150430Z 11008KT 9999 FEW019 BKN025 09/08 Q1021=
201001150400 METAR LPPR 150400Z 11008KT 8000 FEW019 BKN025 09/08 Q1021=
201001150330 METAR LPPR 150330Z 11007KT 8000 FEW019 BKN025 09/08 Q1021=
201001150300 METAR LPPR 150300Z 11008KT 8000 FEW019 BKN025 09/08 Q1021=
201001150230 METAR LPPR 150230Z 11007KT 8000 FEW019 SCT025 09/08 Q1021=
201001150200 METAR LPPR 150200Z 12008KT 8000 FEW019 SCT025 09/08 Q1021=
201001150130 METAR LPPR 150130Z 11007KT 7000 FEW019 SCT025 09/08 Q1021=
201001150100 METAR LPPR 150100Z 11007KT 7000 FEW019 SCT025 10/08 Q1021=
201001150030 METAR LPPR 150030Z 11007KT 8000 FEW019 SCT025 10/08 Q1021=
201001150000 METAR LPPR 150000Z 11008KT 8000 FEW019 SCT025 09/08 Q1021=
201001142330 METAR LPPR 142330Z 11008KT 8000 FEW019 09/08 Q1021=
201001142300 METAR LPPR 142300Z 11008KT 8000 FEW019 10/08 Q1020=
201001142230 METAR LPPR 142230Z 11008KT 8000 FEW019 10/08 Q1020=
201001142200 METAR LPPR 142200Z 11006KT 8000 FEW019 10/08 Q1021=
201001142130 METAR LPPR 142130Z 10006KT 8000 FEW019 10/08 Q1020=
201001142100 METAR LPPR 142100Z 12001KT 9999 FEW019 09/07 Q1021=
201001142030 METAR LPPR 142030Z VRB02KT 9999 FEW018 10/08 Q1020=
201001142000 METAR LPPR 142000Z 00000KT 9999 FEW018 10/08 Q1020=
201001141930 METAR LPPR 141930Z 00000KT 9999 FEW018 11/08 Q1020=
201001141900 METAR LPPR 141900Z VRB02KT 9999 FEW018 11/08 Q1020=
201001141830 METAR LPPR 141830Z VRB03KT 9999 FEW018 12/08 Q1019=
201001141800 METAR LPPR 141800Z 30004KT 260V330 9999 FEW018 12/09 Q1019=
201001141730 METAR LPPR 141730Z 31003KT 9999 SCT018 12/09 Q1018=
201001141700 METAR LPPR 141700Z 31006KT 9999 FEW017 13/09 Q1017=
201001141630 METAR LPPR 141630Z 32008KT 9999 SCT017 14/09 Q1017=
201001141600 METAR LPPR 141600Z 31008KT 270V330 9999 SCT017 14/10 Q1017=
201001141530 METAR LPPR 141530Z 31009KT 9999 SCT017 13/10 Q1016=
201001141500 METAR LPPR 141500Z 30008KT 240V360 9999 BKN015 14/10 Q1016=
201001141430 METAR LPPR 141430Z 29010KT 260V320 9999 SCT015 14/10 Q1015=
201001141400 METAR LPPR 141400Z 29009KT 260V320 9999 SCT015 14/09 Q1015=
201001141330 METAR LPPR 141330Z 29010KT 260V330 9999 SCT015 14/10 Q1015=
201001141300 METAR LPPR 141300Z 27009KT 240V330 9999 SCT015 14/11 Q1015=
201001141230 METAR LPPR 141230Z 28011KT 260V330 9999 FEW015 SCT040 13/10
                        Q1015=
201001141200 METAR LPPR 141200Z 29008G18KT 240V330 9999 FEW015 BKN045
                        13/10 Q1015=
201001141130 METAR LPPR 141130Z 31008KT 9999 FEW015 FEW020CB BKN045 12/10
                        Q1014=
201001141100 METAR LPPR 141100Z 28012KT 260V320 7000 -SHRA SCT015 FEW020CB
                        BKN040 12/09 Q1014=
201001141030 METAR LPPR 141030Z 30011KT 270V330 9999 SCT015 FEW020CB BKN030
                        13/09 Q1014=
201001141000 METAR LPPR 141000Z 32010KT 9999 -SHRA SCT015 FEW020CB BKN030
                        12/09 Q1013=
201001140930 METAR LPPR 140930Z 31007G18KT 260V330 8000 VCSH SCT015 FEW020CB
                        BKN030 12/09 Q1012=
201001140900 METAR LPPR 140900Z 30006KT 260V330 8000 SCT015 FEW020CB BKN025
                        11/09 Q1011=
201001140830 METAR LPPR 140830Z 28011KT 8000 FEW009 SCT015 FEW020CB BKN060
                        11/09 Q1011 RESHRA=
201001140800 METAR LPPR 140800Z 28009KT 250V320 8000 SCT015 FEW020CB BKN030
                        11/09 Q1011=
201001140730 METAR LPPR 140730Z 31012KT 270V330 8000 -SHRA SCT015 FEW020CB
                        BKN035 12/09 Q1010=
201001140700 METAR LPPR 140700Z 31013KT 9999 SCT015 FEW020CB BKN035 11/09
                        Q1010=
201001140630 METAR LPPR 140630Z 31015KT 9999 SCT015 FEW020CB BKN035 12/09
                        Q1009=
201001140600 METAR LPPR 140600Z 31014G25KT 8000 -SHRA SCT015 FEW020CB
                        BKN040 12/09 Q1009 WS ALL RWY=
201001140530 METAR LPPR 140530Z 31014G26KT 8000 SCT015 FEW020CB BKN035
                        12/09 Q1008 WS ALL RWY=
201001140500 METAR LPPR 140500Z 31017G28KT 280V340 6000 SHRA FEW007 SCT015
                        FEW020CB BKN035 12/09 Q1007 WS ALL
                        RWY=
201001140430 METAR LPPR 140430Z 31018G29KT 280V340 8000 -SHRA BR FEW005
                        SCT015 FEW017TCU BKN035 11/09 Q1007
                        WS ALL RWY=
201001140400 METAR LPPR 140400Z 31020G33KT 270V330 5000 -RA BR FEW015
                        BKN020 BKN035 12/09 Q1006 WS ALL
                        RWY=
201001140330 METAR LPPR 140330Z 31022G36KT 8000 -SHRA BR SCT015 FEW017TCU
                        BKN020 12/09 Q1005 WS ALL RWY=
201001140300 METAR LPPR 140300Z 30021G36KT 280V340 8000 SCT015 FEW017TCU
                        BKN020 12/09 Q1004 WS ALL RWY=
201001140230 METAR LPPR 140230Z 31021G33KT 6000 SCT012 FEW017TCU BKN020
                        12/10 Q1002 WS ALL RWY=
201001140200 METAR LPPR 140200Z 31026G39KT 4500 SCT012 FEW015TCU BKN020
                        13/10 Q1001 WS ALL RWY=
201001140130 METAR LPPR 140130Z 29024G40KT 260V330 3500 BR SCT012 FEW015TCU
                        BKN020 13/11 Q0999 WS ALL RWY=
201001140100 METAR LPPR 140100Z 27023G43KT 4500 BR FEW007 SCT012 BKN020
                        14/12 Q0997 WS ALL RWY=
201001140030 METAR LPPR 140030Z 25015G26KT 210V300 4500 BR FEW007 SCT012
                        BKN020 14/12 Q0996 WS ALL RWY=
201001140000 METAR LPPR 140000Z 22017G27KT 190V250 4500 BR FEW007 SCT012
                        BKN020 14/12 Q0996 WS ALL RWY=
201001132330 METAR LPPR 132330Z 22015KT 4000 BR SCT007 SCT012 BKN020 14/13
                        Q0997 WS ALL RWY=
201001132300 METAR LPPR 132300Z 22017G27KT 190V260 4000 -RADZ BR SCT007
                        SCT012 BKN020 14/13 Q0997 WS ALL
                        RWY=
201001132230 METAR LPPR 132230Z 22018KT 190V250 4000 -RADZ BR SCT007 SCT012
                        BKN020 15/13 Q0997 WS ALL RWY=
201001132200 METAR LPPR 132200Z 21017G30KT 190V250 4000 -RADZ BR SCT007
                        SCT012 BKN020 15/13 Q0997 WS ALL
                        RWY=
201001132130 METAR LPPR 132130Z 22017KT 5000 -RA BR SCT007 SCT012 BKN020
                        15/13 Q0997 WS ALL RWY=
201001132100 METAR LPPR 132100Z 23016G31KT 200V270 4000 -RA BR SCT005
                        BKN007 BKN012 15/13 Q0997 WS ALL
                        RWY=
201001132030 METAR LPPR 132030Z 23019G34KT 180V260 5000 -SHRA BR SCT007
                        SCT013 BKN020 15/13 Q0997 WS ALL
                        RWY=
201001132000 METAR LPPR 132000Z 22017KT 190V250 5000 BR SCT008 SCT013
                        BKN020 15/14 Q0997 WS ALL RWY=
201001131930 METAR LPPR 131930Z 22020G30KT 4000 BR SCT008 BKN017 16/14
                        Q0998 WS ALL RWY=
201001131900 METAR LPPR 131900Z 21022KT 4000 BR SCT008 BKN014 16/15 Q0998
                        WS ALL RWY=
201001131830 METAR LPPR 131830Z 20022G33KT 3000 -RA BR SCT005 SCT008 BKN011
                        16/15 Q0997 RERA WS ALL RWY=
201001131800 METAR LPPR 131800Z 21019KT 2000 RA BR SCT005 BKN008 15/15
                        Q0998 WS ALL RWY=
201001131730 METAR LPPR 131730Z 20024G41KT 1500 R35/1500N RA
                        BR SCT003 BKN008 15/15 Q0998 WS ALL
                        RWY=
201001131700 METAR LPPR 131700Z 14011KT 2000 RA BR SCT003 BKN008 12/11
                        Q0998 WS ALL RWY=
201001131630 METAR LPPR 131630Z 13010KT 2000 RA BR SCT003 BKN008 12/11
                        Q0999=
201001131600 METAR LPPR 131600Z 19017KT 2000 RA BR SCT003 BKN008 12/11
                        Q1001=
201001131530 METAR LPPR 131530Z 19018KT 2000 RA BR BKN005 BKN008 13/12
                        Q1003 WS ALL RWY=
201001131500 METAR LPPR 131500Z 19014KT 3000 RA BR SCT006 SCT011 BKN017
                        13/12 Q1004=
201001131430 METAR LPPR 131430Z 18010KT 3000 RA BR SCT006 SCT011 BKN017
                        12/11 Q1004=
201001131400 METAR LPPR 131400Z 18011KT 5000 RA BR SCT006 SCT011 BKN017
                        12/11 Q1005 WS ALL RWY=
201001131330 METAR LPPR 131330Z 20014KT 9999 -RA FEW006 SCT013 BKN030
                        13/12 Q1006 WS ALL RWY=
201001131300 METAR LPPR 131300Z 19016KT 3000 -RA BR SCT004 BKN008 14/14
                        Q1006 WS ALL RWY=
201001131230 METAR LPPR 131230Z 19015KT 2000 -RA BR SCT002 BKN007 14/14
                        Q1007 WS ALL RWY=
201001131200 METAR LPPR 131200Z 19016KT 2000 -RA BR SCT002 BKN007 14/14
                        Q1008 WS ALL RWY=
201001131130 METAR LPPR 131130Z 19018KT 3000 -RA BR BKN004 BKN008 14/14
                        Q1009 WS ALL RWY=
201001131100 METAR LPPR 131100Z 20017KT 3000 BR BKN004 BKN008 14/14 Q1009
                        WS ALL RWY=
201001131030 METAR LPPR 131030Z 19017KT 3000 -RA BR BKN004 BKN008 13/13
                        Q1009 RERA WS ALL RWY=
201001131000 METAR LPPR 131000Z 17014KT 2000 RA BR BKN004 BKN008 13/12
                        Q1009 WS ALL RWY=
201001130930 METAR LPPR 130930Z 17013KT 2000 RA BR SCT004 BKN008 12/12
                        Q1010=
201001130900 METAR LPPR 130900Z 17016KT 2000 RA BR SCT004 BKN008 12/12
                        Q1010=
201001130830 METAR LPPR 130830Z 18016KT 5000 -RA BR SCT004 BKN008 12/12
                        Q1010=
201001130800 METAR LPPR 130800Z 18014KT 5000 -RA BR SCT004 BKN008 12/12
                        Q1011=
201001130730 METAR LPPR 130730Z 17014KT 8000 SCT005 SCT013 BKN025 12/11
                        Q1010=
201001130700 METAR LPPR 130700Z 16011KT 8000 SCT005 SCT013 BKN025 12/11
                        Q1011=
201001130630 METAR LPPR 130630Z 18012KT 5000 -SHRA BR SCT003 SCT011 BKN017
                        12/11 Q1011=
201001130600 METAR LPPR 130600Z 17012KT 5000 -SHRA BR SCT003 SCT011 BKN015
                        12/11 Q1011=
201001130530 METAR LPPR 130530Z 18011KT 7000 SCT003 SCT011 BKN015 12/11
                        Q1012=
201001130500 METAR LPPR 130500Z 18011KT 7000 SCT003 BKN011 12/11 Q1012=
201001130430 METAR LPPR 130430Z 18013KT 7000 SCT003 SCT012 BKN020 12/12
                        Q1012=
201001130400 METAR LPPR 130400Z 19012KT 9999 FEW013 BKN030 12/11 Q1012=
201001130330 METAR LPPR 130330Z 22013KT 190V250 9999 SCT012 BKN025 13/11
                        Q1013=
201001130300 METAR LPPR 130300Z 20010KT 9999 SCT015 BKN030 13/11 Q1013=
201001130230 METAR LPPR 130230Z 21009KT 9999 SCT015 BKN035 13/10 Q1013=
201001130200 METAR LPPR 130200Z 21009KT 9999 SCT015 BKN035 13/10 Q1013=
201001130130 METAR LPPR 130130Z 22008KT 190V250 9999 SCT015 BKN035 13/09
                        Q1013=
201001130100 METAR LPPR 130100Z 22009KT 8000 -RA SCT012 BKN030 13/10 Q1013=
201001130030 METAR LPPR 130030Z 21009KT 8000 -SHRA SCT013 BKN025 13/09
                        Q1013=
201001130000 METAR LPPR 130000Z 22009KT 9999 FEW015 BKN040 13/08 Q1013=
201001122330 METAR LPPR 122330Z 22008KT 9999 SCT015 BKN030 13/09 Q1013=
201001122300 METAR LPPR 122300Z 22007KT 180V250 9999 SCT015 BKN035 13/08
                        Q1013=
201001122230 METAR LPPR 122230Z 23005KT 200V260 9999 SCT015 BKN030 13/08
                        Q1013=
201001122200 METAR LPPR 122200Z 24005KT 210V270 9999 FEW015 BKN030 13/08
                        Q1013=
201001122130 METAR LPPR 122130Z 26004KT 210V300 9999 FEW015 BKN030 13/08
                        Q1013=
201001122100 METAR LPPR 122100Z VRB03KT 9999 FEW015 BKN030 13/07 Q1013=
201001122030 METAR LPPR 122030Z 28007KT 240V320 9999 SCT015 BKN030 13/07
                        Q1013=
201001122000 METAR LPPR 122000Z 28007KT 250V320 9999 SCT015 BKN030 13/08
                        Q1013=
201001121930 METAR LPPR 121930Z 26006KT 230V290 9999 SCT015 SCT025 13/09
                        Q1012=
201001121900 METAR LPPR 121900Z 27005KT 230V310 9999 SCT013 BKN025 13/09
                        Q1012=
201001121830 METAR LPPR 121830Z 29008G18KT 250V330 9999 SCT013 SCT025
                        13/09 Q1012=
201001121800 METAR LPPR 121800Z 28009KT 9999 SCT015 SCT025 13/08 Q1011=
201001121730 METAR LPPR 121730Z 29009KT 250V330 9999 SCT015 FEW020TCU
                        BKN030 14/08 Q1011=
201001121700 METAR LPPR 121700Z 28009KT 240V310 9999 FEW015 FEW020TCU
                        BKN030 14/09 Q1010=
201001121630 METAR LPPR 121630Z 28011KT 250V310 9999 SCT015 FEW020TCU
                        FEW025CB 14/09 Q1010=
201001121600 METAR LPPR 121600Z 29010KT 250V330 9999 SCT015 FEW020TCU
                        FEW025CB 14/09 Q1009=
201001121530 METAR LPPR 121530Z 28012KT 230V300 9999 SCT015 FEW020TCU
                        FEW025CB 14/08 Q1009=
201001121500 METAR LPPR 121500Z 27011KT 230V300 9999 SCT015 SCT020TCU
                        FEW025CB 14/09 Q1009=
201001121430 METAR LPPR 121430Z 27010KT 250V320 9999 SCT013 FEW020TCU
                        FEW025CB 15/10 Q1008=
201001121400 METAR LPPR 121400Z 27010G20KT 240V300 9999 SCT013 FEW020TCU
                        BKN030 14/10 Q1008=
201001121330 METAR LPPR 121330Z 28012KT 240V310 8000 SCT013 FEW020TCU
                        BKN025 14/11 Q1008=
201001121300 METAR LPPR 121300Z 23009KT 6000 VCSH SCT015 SCT020TCU BKN030
                        14/12 Q1008=
201001121230 METAR LPPR 121230Z 22011KT 190V250 8000 SCT015 BKN025 13/12
                        Q1008=
201001121200 METAR LPPR 121200Z 22010KT 190V250 7000 SCT013 SCT020 BKN060
                        13/12 Q1008=
201001121130 METAR LPPR 121130Z 20009KT 170V230 4000 -RA BR SCT006 SCT009
                        BKN012 13/12 Q1008 RERA=
201001121100 METAR LPPR 121100Z 20010KT 2000 RA BR SCT003 SCT006 BKN013
                        13/12 Q1008=
201001121030 METAR LPPR 121030Z 20005KT 8000 -RA SCT012 BKN040 13/12 Q1008=
201001121000 METAR LPPR 121000Z 18006KT 7000 -RA FEW007 SCT014 BKN080
                        13/12 Q1006 RERA=
201001120930 METAR LPPR 120930Z 25005KT 200V280 5000 RA BR SCT007 BKN020
                        13/12 Q1007=
201001120900 METAR LPPR 120900Z 26006KT 230V310 4000 RA BR SCT006 BKN020
                        13/12 Q1007=
201001120830 METAR LPPR 120830Z 25007KT 210V290 4000 RA SCT006 BKN020
                        13/12 Q1006=
201001120800 METAR LPPR 120800Z 26006G17KT 220V330 4000 RA BR SCT003 SCT008
                        BKN030 13/13 Q1005 RERA WS ALL RWY=
201001120730 METAR LPPR 120730Z 18025KT 160V220 1500 RA BR SCT003 BKN005
                        13/13 Q1004 WS ALL RWY=
201001120700 METAR LPPR 120700Z 18030G42KT 1500 RA BR SCT003 BKN006 13/13
                        Q1005 WS ALL RWY=
201001120630 METAR LPPR 120630Z 18029G41KT 1500 RA BR SCT004 BKN007 13/13
                        Q1005 WS ALL RWY=
201001120600 METAR LPPR 120600Z 18028G38KT 2000 RA BR SCT004 BKN008 13/13
                        Q1006 WS ALL RWY=
201001120530 METAR LPPR 120530Z 18026KT 3000 RA BR SCT004 BKN008 13/13
                        Q1007 WS ALL RWY=
201001120500 METAR LPPR 120500Z 17023G34KT 3000 -RA BR SCT007 BKN012 13/12
                        Q1008 WS ALL RWY=
201001120430 METAR LPPR 120430Z 18025KT 3000 -RA BR SCT006 BKN008 13/12
                        Q1009 WS ALL RWY=
201001120400 METAR LPPR 120400Z 17025G35KT 3000 -RA BR SCT005 BKN020 13/12
                        Q1009 WS ALL RWY=
201001120330 METAR LPPR 120330Z 18031G41KT 4000 -RA BR SCT008 BKN020 13/12
                        Q1010 WS ALL RWY=
201001120300 METAR LPPR 120300Z 17026KT 3000 -RA BR SCT006 BKN020 13/12
                        Q1011 WS ALL RWY=
201001120230 METAR LPPR 120230Z 17023KT 4000 -RA BR SCT008 BKN020 13/12
                        Q1011=
201001120200 METAR LPPR 120200Z 17022KT 4000 -RA SCT008 BKN020 13/12 Q1012=
201001120130 METAR LPPR 120130Z 17021KT 5000 -RA BR SCT009 BKN020 13/11
                        Q1013=
201001120100 METAR LPPR 120100Z 17019KT 8000 -RA SCT009 BKN020 13/11 Q1013=
201001120030 METAR LPPR 120030Z 16017KT 9999 SCT009 BKN020 12/11 Q1014=
201001120000 METAR LPPR 120000Z 16017KT 9999 SCT009 BKN020 12/11 Q1015=
201001112330 METAR LPPR 112330Z 16015KT 9999 SCT009 BKN020 12/11 Q1015=
201001112300 METAR LPPR 112300Z 16013KT 9999 -RA SCT009 BKN020 12/10 Q1015=
201001112230 METAR LPPR 112230Z 16012KT 9999 SCT012 BKN020 12/10 Q1016=
201001112200 METAR LPPR 112200Z 15012KT 120V180 9999 SCT009 BKN016 11/09
                        Q1016=
201001112130 METAR LPPR 112130Z 14008KT 9999 FEW009 BKN025 11/08 Q1017=
201001112100 METAR LPPR 112100Z 13009KT 9999 SCT009 BKN025 11/08 Q1017=
201001112030 METAR LPPR 112030Z 13009KT 9999 FEW009 BKN030 11/07 Q1017=
201001112000 METAR LPPR 112000Z 13008KT 9999 SCT017 BKN035 11/07 Q1017=
201001111930 METAR LPPR 111930Z 14009KT 9999 SCT015 BKN030 11/07 Q1017=
201001111900 METAR LPPR 111900Z 14008KT 9999 SCT015 BKN020 11/06 Q1017=
201001111840 METAR LPPR 111840Z 14008KT 9999 SCT020 BKN025 11/06 Q1017=
201001111830 METAR LPPR 111830Z 14008KT 9999 SCT020 BKN025 11/06 Q1017=
201001111800 METAR LPPR 111800Z 14010KT 9999 SCT020 BKN025 11/06 Q1017=
201001111730 METAR LPPR 111730Z 16007KT 9999 BKN020 SCT025 11/06 Q1017=
201001111700 METAR LPPR 111700Z 16009KT 9999 BKN020 SCT025 11/05 Q1017=
201001111630 METAR LPPR 111630Z 17007KT 9999 SCT020 BKN025 11/06 Q1017=
201001111600 METAR LPPR 111600Z 16005KT 9999 FEW017 BKN025 11/06 Q1017=
201001111530 METAR LPPR 111530Z 18007KT 9999 FEW017 BKN025 11/06 Q1017=
201001111500 METAR LPPR 111500Z 19007KT 160V220 9999 FEW017 SCT030 BKN250
                        11/06 Q1017=
201001111430 METAR LPPR 111430Z 18008KT 9999 FEW017 SCT032 BKN250 11/06
                        Q1017=
201001111400 METAR LPPR 111400Z 20006KT 150V230 9999 FEW017 BKN250 12/05
                        Q1017=
201001111330 METAR LPPR 111330Z 16006KT 130V200 9999 FEW017 BKN250 12/04
                        Q1017=
201001111300 METAR LPPR 111300Z 15007KT 120V180 9999 FEW017
                        BKN200 11/04 Q1017=
201001111230 METAR LPPR 111230Z 13005KT 100V180 9999 FEW017 BKN250 10/03
                        Q1017=
201001111200 METAR LPPR 111200Z 12007KT CAVOK 10/03 Q1017=
201001111130 METAR LPPR 111130Z 13007KT 100V170 CAVOK 09/03 Q1017=
201001111100 METAR LPPR 111100Z 10007KT 9999 SCT030 SCT070 BKN200 08/02
                        Q1017=
201001111030 METAR LPPR 111030Z 12007KT 9999 SCT030 BKN070 07/02 Q1017=
201001111000 METAR LPPR 111000Z 12010KT 9999 FEW017 BKN030 06/02 Q1017=
201001110930 METAR LPPR 110930Z 11008KT 9999 FEW017 BKN030 06/02 Q1016=
201001110900 METAR LPPR 110900Z 11008KT 9999 FEW017 BKN030 06/01 Q1016=
201001110830 METAR LPPR 110830Z 11007KT 9999 SCT020 BKN035 05/01 Q1016=
201001110800 METAR LPPR 110800Z 11007KT 9999 SCT025 BKN035 06/01 Q1015=
201001110730 METAR LPPR 110730Z 10008KT 9999 SCT025 BKN035 05/01 Q1015=
201001110700 METAR LPPR 110700Z 09006KT 050V120 9999 BKN030 05/01 Q1014=
201001110630 METAR LPPR 110630Z 09005KT 060V140 9999 BKN030 05/01 Q1013=
201001110600 METAR LPPR 110600Z 10008KT 9999 BKN030 05/01 Q1013=
201001110530 METAR LPPR 110530Z 10008KT 9999 BKN030 05/01 Q1012=
201001110500 METAR LPPR 110500Z 07004KT 040V110 9999 BKN030 06/01 Q1012=
201001110430 METAR LPPR 110430Z 07005KT 020V130 9999 BKN025 BKN250 06/01
                        Q1012=
201001110400 METAR LPPR 110400Z 08005KT 050V120 9999 SCT020 SCT070 BKN250
                        06/01 Q1011=
201001110330 METAR LPPR 110330Z 07006KT 020V120 9999 BKN020 BKN070 06/01
                        Q1011=
201001110300 METAR LPPR 110300Z 08006KT 030V120 9999 BKN025 SCT070 06/01
                        Q1011=
201001110230 METAR LPPR 110230Z 07005KT 030V120 9999 BKN025 SCT040 05/01
                        Q1011=
201001110200 METAR LPPR 110200Z 11007KT 9999 SCT025 SCT040 05/01 Q1010=
201001110130 METAR LPPR 110130Z 10011KT 9999 BKN025 SCT070 05/01 Q1009=
201001110100 METAR LPPR 110100Z 10008KT 9999 BKN025 SCT070 05/01 Q1010=
201001110030 METAR LPPR 110030Z 10010KT 9999 SCT025 SCT070 05/02 Q1010=
201001110000 METAR LPPR 110000Z 10009KT 8000 -RA BKN025 BKN070 05/02 Q1010=
201001102330 METAR LPPR 102330Z 08006KT 040V120 9999 BKN030 BKN070 06/01
                        Q1009=
201001102300 METAR COR LPPR 102300Z 09006KT 040V130 9999 SCT040 BKN070
                        06/01 Q1008=
201001102230 METAR LPPR 102230Z 10009KT 070V130 9999 SCT040 SCT070 BKN250
                        05/02 Q1008=
201001102200 METAR LPPR 102200Z 10009KT 070V130 9999 -RA BKN040 BKN070
                        05/02 Q1008=
201001102130 METAR LPPR 102130Z 09009KT 050V120 9999 BKN040 BKN070 05/02
                        Q1008=
201001102100 METAR LPPR 102100Z 09008KT 9999 -RA SCT030 BKN045 05/02 Q1008=
201001102030 METAR LPPR 102030Z 09008KT 060V120 9999 SCT030 BKN040 05/02
                        Q1008=
201001102000 METAR LPPR 102000Z 09007KT 050V120 8000 SCT028 BKN030 05/02
                        Q1007=
201001101930 METAR LPPR 101930Z 09007KT 060V130 8000 -RA BKN030 05/02
                        Q1007=
201001101900 METAR LPPR 101900Z 10007KT 8000 BKN030 05/02 Q1007=
201001101830 METAR LPPR 101830Z 10007KT 070V140 8000 -RA BKN030 05/02
                        Q1007=
201001101800 METAR LPPR 101800Z 10008KT 070V130 9999 -RA BKN030 05/02
                        Q1006=
201001101730 METAR LPPR 101730Z 10008KT 060V130 9999 -RA BKN030 05/02
                        Q1006=
201001101700 METAR LPPR 101700Z 10009KT 070V130 9999 BKN035 06/02 Q1006=
201001101630 METAR LPPR 101630Z 10011KT 070V130 9999 FEW015 BKN030 05/02
                        Q1006=
201001101600 METAR LPPR 101600Z 11012KT 9999 -RA FEW015 BKN030 05/02 Q1006=
201001101530 METAR LPPR 101530Z 11011KT 9999 -RA FEW015 BKN030 06/02 Q1006=
201001101500 METAR LPPR 101500Z 10011KT 070V130 9999 FEW020 BKN030 05/01
                        Q1006=
201001101430 METAR LPPR 101430Z 10013KT 080V140 9999 FEW020 BKN030 05/01
                        Q1007=
201001101400 METAR LPPR 101400Z 11010KT 080V140 9999 -RA FEW025 BKN035
                        05/02 Q1007=
201001101330 METAR LPPR 101330Z 10009KT 070V140 9999 FEW025 BKN035 05/02
                        Q1007=
201001101300 METAR LPPR 101300Z 10013KT 070V130 9999 FEW025 BKN035 05/02
                        Q1008=
201001101230 METAR LPPR 101230Z 10011KT 050V130 9999 BKN030 BKN070 04/02
                        Q1008=
201001101200 METAR LPPR 101200Z 08007KT 050V110 9999 SCT030 BKN080 04/02
                        Q1009=
201001101130 METAR LPPR 101130Z 07010KT 040V130 6000 -RA SCT030 BKN080
                        04/01 Q1010=
201001101100 METAR LPPR 101100Z 09008KT 060V140 8000 -RA SCT030 BKN080
                        04/00 Q1011=
201001101030 METAR LPPR 101030Z 08008KT 030V110 9999 SCT030 BKN080 04/M00
                        Q1011=
201001101000 METAR LPPR 101000Z 10012KT 060V140 6000 -RASN SCT020 BKN080
                        04/M01 Q1011=
201001100930 METAR LPPR 100930Z 12007KT 080V140 9999 SCT020 BKN070 05/M03
                        Q1012=
201001100900 METAR LPPR 100900Z 10004KT 080V150 9999 SCT020 BKN070 05/M03
                        Q1012=
201001100830 METAR LPPR 100830Z 10008KT 9999 SCT025 BKN080 05/M03 Q1012=
201001100800 METAR LPPR 100800Z 10007KT 080V140 9999 SCT025 BKN080 BKN250
                        05/M03 Q1012=
201001100730 METAR LPPR 100730Z 10008KT 9999 SCT025 BKN080 BKN250 05/M03
                        Q1012=
201001100700 METAR LPPR 100700Z 10009KT 060V130 9999 SCT025 BKN080 BKN250
                        05/M03 Q1012=
201001100630 METAR LPPR 100630Z 10009KT 9999 FEW035 BKN080 BKN250 05/M04
                        Q1013=
201001100600 METAR LPPR 100600Z 10008KT 070V130 CAVOK 05/M03 Q1013=
201001100530 METAR LPPR 100530Z 11007KT 080V140 CAVOK 04/M03 Q1013=
201001100500 METAR LPPR 100500Z 10007KT 070V130 CAVOK 04/M03 Q1013=
201001100430 METAR LPPR 100430Z 10008KT 070V130 CAVOK 04/M02 Q1014=
201001100400 METAR LPPR 100400Z 10007KT 060V140 CAVOK 04/M02 Q1015=
201001100330 METAR LPPR 100330Z 10008KT CAVOK 04/M02 Q1015=
201001100300 METAR LPPR 100300Z 11006KT CAVOK 04/M02 Q1015=
201001100230 METAR LPPR 100230Z 10005KT CAVOK 04/M01 Q1016=
201001100200 METAR LPPR 100200Z 10005KT 070V130 CAVOK 04/M01 Q1016=
201001100130 METAR LPPR 100130Z 10006KT 070V130 8000 FEW100 BKN250 04/M01
                        Q1016=
201001100100 METAR LPPR 100100Z 10006KT 8000 FEW100 BKN250 04/M00 Q1017=
201001100030 METAR LPPR 100030Z 10007KT 8000 FEW100 BKN250 04/M00 Q1017=
201001100000 METAR LPPR 100000Z 10007KT 8000 FEW100 BKN250 04/M00 Q1018=
201001092330 METAR LPPR 092330Z 10006KT 8000 FEW100 BKN250 04/00 Q1018=
201001092300 METAR LPPR 092300Z 10006KT 8000 FEW100 BKN250 04/01 Q1018=
201001092230 METAR LPPR 092230Z 11006KT 8000 FEW100 BKN250 04/01 Q1019=
201001092200 METAR LPPR 092200Z 12005KT 8000 FEW100 BKN250 04/01 Q1019=
201001092130 METAR LPPR 092130Z 11004KT CAVOK 04/01 Q1019=
201001092100 METAR LPPR 092100Z 10003KT CAVOK 04/01 Q1019=
201001092030 METAR LPPR 092030Z VRB02KT CAVOK 04/00 Q1019=
201001092000 METAR LPPR 092000Z 07004KT CAVOK 05/01 Q1019=
201001091930 METAR LPPR 091930Z VRB01KT CAVOK 04/00 Q1019=
201001091900 METAR LPPR 091900Z 06005KT CAVOK 04/01 Q1019=
201001091830 METAR LPPR 091830Z 00000KT CAVOK 04/00 Q1019=
201001091800 METAR LPPR 091800Z VRB02KT CAVOK 05/00 Q1019=
201001091730 METAR LPPR 091730Z VRB03KT CAVOK 06/M00 Q1019=
201001091700 METAR LPPR 091700Z VRB03KT CAVOK 07/00 Q1019=
201001091630 METAR LPPR 091630Z 31004KT 270V010 9999 FEW017 09/00 Q1019=
201001091600 METAR LPPR 091600Z 29004KT 250V330 9999 FEW017 09/M00 Q1019=
201001091530 METAR LPPR 091530Z 30004KT 260V340 9999 FEW017 09/M00 Q1019=
201001091500 METAR LPPR 091500Z 29004KT 240V350 9999 FEW017 09/00 Q1019=
201001091430 METAR LPPR 091430Z VRB03KT 9999 FEW017 09/M01 Q1019=
201001091400 METAR LPPR 091400Z 32004KT 280V010 9999 FEW017 09/M00 Q1020=
201001091330 METAR LPPR 091330Z 34005KT 310V070 9999 FEW017 09/M01 Q1020=
201001091300 METAR LPPR 091300Z 32005KT 270V010 9999 FEW050 08/M01 Q1020=
201001091230 METAR LPPR 091230Z VRB03KT 9999 FEW017 08/00 Q1021=
201001091200 METAR LPPR 091200Z VRB02KT 9999 FEW017 08/M00 Q1021=
201001091130 METAR LPPR 091130Z VRB02KT 8000 FEW017 07/M00 Q1021=
201001091100 METAR LPPR 091100Z VRB03KT 8000 FEW017 05/M00 Q1021=
201001091030 METAR LPPR 091030Z 10004KT 8000 FEW017 04/M01 Q1021=
201001091000 METAR LPPR 091000Z VRB03KT 8000 FEW017 03/M01 Q1021=
201001090930 METAR LPPR 090930Z VRB03KT 8000 FEW017 02/M01 Q1021=
201001090900 METAR LPPR 090900Z 10004KT 080V150 8000 FEW017 01/M02 Q1020=
201001090830 METAR LPPR 090830Z VRB03KT 8000 FEW020 M00/M02 Q1020=
201001090800 METAR LPPR 090800Z 10005KT 8000 FEW080 M00/M02 Q1020=
201001090730 METAR LPPR 090730Z 11003KT 7000 SKC M01/M03 Q1020=
201001090700 METAR LPPR 090700Z 12003KT CAVOK M00/M02 Q1020=
201001090630 METAR LPPR 090630Z VRB02KT CAVOK M00/M02 Q1020=
201001090600 METAR LPPR 090600Z VRB01KT CAVOK M00/M02 Q1020=
201001090530 METAR LPPR 090530Z 10002KT CAVOK M01/M03 Q1020=
201001090500 METAR LPPR 090500Z 18002KT CAVOK M01/M03 Q1020=
201001090430 METAR LPPR 090430Z 06003KT CAVOK M01/M03 Q1020=
201001090400 METAR LPPR 090400Z 00000KT CAVOK M01/M02 Q1020=
201001090330 METAR LPPR 090330Z 00000KT CAVOK M01/M02 Q1020=
201001090300 METAR LPPR 090300Z 00000KT CAVOK M01/M02 Q1020=
201001090230 METAR LPPR 090230Z 00000KT CAVOK M01/M03 Q1021=
201001090200 METAR LPPR 090200Z 08001KT CAVOK M00/M02 Q1021=
201001090130 METAR LPPR 090130Z VRB01KT CAVOK 01/M02 Q1021=
201001090100 METAR LPPR 090100Z VRB03KT CAVOK 01/M02 Q1021=
201001090030 METAR LPPR 090030Z VRB03KT CAVOK 01/M02 Q1021=
201001090000 METAR LPPR 090000Z VRB01KT CAVOK 01/M02 Q1021=
201001082330 METAR LPPR 082330Z VRB03KT CAVOK 01/M01 Q1020=
201001082300 METAR LPPR 082300Z 03001KT CAVOK 01/M02 Q1020=
201001082230 METAR LPPR 082230Z 01002KT CAVOK 02/M01 Q1020=
201001082200 METAR LPPR 082200Z VRB02KT CAVOK 02/M01 Q1020=
201001082130 METAR LPPR 082130Z 04003KT CAVOK 01/M01 Q1020=
201001082100 METAR LPPR 082100Z 01003KT CAVOK 01/M01 Q1020=
201001082030 METAR LPPR 082030Z 00000KT 9999 FEW020 02/M00 Q1019=
201001082000 METAR LPPR 082000Z 00000KT 8000 FEW020 02/00 Q1019=
201001081930 METAR LPPR 081930Z 34002KT 9999 FEW020 02/00 Q1019=
201001081900 METAR LPPR 081900Z 34003KT 9999 FEW020 03/00 Q1019=
201001081830 METAR LPPR 081830Z 34002KT 9999 FEW020 04/00 Q1018=
201001081800 METAR LPPR 081800Z VRB02KT 9999 FEW020 05/M00 Q1018=
201001081730 METAR LPPR 081730Z 35002KT 9999 FEW020 06/M00 Q1018=
201001081700 METAR LPPR 081700Z 35004KT 9999 FEW020 07/M00 Q1018=
201001081630 METAR LPPR 081630Z 35007KT 9999 FEW020 08/M01 Q1018=
201001081600 METAR LPPR 081600Z 35008KT 9999 FEW020 09/M01 Q1017=
201001081530 METAR LPPR 081530Z 01007KT 330V050 9999 FEW020 09/M01 Q1017=
201001081500 METAR LPPR 081500Z 33007KT 290V010 9999 FEW020 09/M01 Q1017=
201001081430 METAR LPPR 081430Z 01006KT 340V060 9999 FEW020 09/M01 Q1017=
201001081400 METAR LPPR 081400Z 01007KT 9999 FEW017 09/M01 Q1017=
201001081330 METAR LPPR 081330Z 34008KT 310V030 9999 FEW020 09/M01 Q1017=
201001081300 METAR LPPR 081300Z 35008KT 9999 FEW017 08/M01 Q1017=
201001081230 METAR LPPR 081230Z 35006KT 300V050 9999 FEW017 08/M01 Q1018=
201001081200 METAR LPPR 081200Z 35004KT 310V070 9999 FEW017 07/M01 Q1018=
201001081130 METAR LPPR 081130Z 34006KT 310V010 9999 FEW017 06/M00 Q1018=
201001081100 METAR LPPR 081100Z 34007KT 9999 FEW017 06/M00 Q1018=
201001081030 METAR LPPR 081030Z 01005KT 330V040 9999 FEW017 05/M01 Q1018=
201001081000 METAR LPPR 081000Z 01005KT 340V040 9999 FEW017 04/M01 Q1018=
201001080930 METAR LPPR 080930Z 03003KT 9999 FEW017 03/M01 Q1017=
201001080900 METAR LPPR 080900Z 06004KT 9999 FEW017 02/M01 Q1017=
201001080830 METAR LPPR 080830Z 04004KT 360V070 9999 FEW017 00/M02 Q1017=
201001080800 METAR LPPR 080800Z 33005KT 9999 FEW017 M00/M03 Q1017=
201001080730 METAR LPPR 080730Z 05003KT CAVOK 01/M03 Q1016=
201001080700 METAR LPPR 080700Z 01003KT CAVOK 01/M03 Q1016=
201001080630 METAR LPPR 080630Z 03004KT 360V060 CAVOK 02/M02 Q1016=
201001080600 METAR LPPR 080600Z 02005KT CAVOK 02/M03 Q1016=
201001080530 METAR LPPR 080530Z 36005KT CAVOK 01/M03 Q1015=
201001080500 METAR LPPR 080500Z 35004KT CAVOK 01/M03 Q1015=
201001080430 METAR LPPR 080430Z 35005KT 330V030 CAVOK 02/M03 Q1015=
201001080400 METAR LPPR 080400Z 35008KT CAVOK 02/M03 Q1015=
201001080330 METAR LPPR 080330Z 34009KT CAVOK 02/M03 Q1015=
201001080300 METAR LPPR 080300Z 01005KT 340V060 CAVOK 03/M04 Q1015=
201001080230 METAR LPPR 080230Z 36010KT CAVOK 04/M04 Q1014=
201001080200 METAR LPPR 080200Z 34015KT CAVOK 04/M04 Q1014=
201001080130 METAR LPPR 080130Z 36011KT 340V040 CAVOK 05/M05 Q1014=
201001080100 METAR LPPR 080100Z 36012KT CAVOK 05/M06 Q1013=
201001080030 METAR LPPR 080030Z 36010KT CAVOK 05/M05 Q1013=
201001080000 METAR LPPR 080000Z 01013KT CAVOK 05/M04 Q1013=
201001072330 METAR LPPR 072330Z 01013KT CAVOK 05/M04 Q1012=
201001072300 METAR LPPR 072300Z 36012KT CAVOK 05/M03 Q1012=
201001072230 METAR LPPR 072230Z 36014KT CAVOK 05/M02 Q1012=
201001072200 METAR LPPR 072200Z 36013KT CAVOK 05/M02 Q1012=
201001072130 METAR LPPR 072130Z 35010KT CAVOK 05/M01 Q1011=
201001072100 METAR LPPR 072100Z 35010KT CAVOK 05/M01 Q1011=
201001072030 METAR LPPR 072030Z 35006KT CAVOK 05/M01 Q1011=
201001072000 METAR LPPR 072000Z 35011KT CAVOK 06/M00 Q1010=
201001071930 METAR LPPR 071930Z 35010KT CAVOK 06/M00 Q1010=
201001071900 METAR LPPR 071900Z 34013KT 9999 FEW017 06/M00 Q1009=
201001071830 METAR LPPR 071830Z 34017KT 9999 FEW017 06/M00 Q1008=
201001071800 METAR LPPR 071800Z 35012KT 9999 FEW017 07/M00 Q1008=
201001071730 METAR LPPR 071730Z 35013KT 9999 FEW017 08/M01 Q1008=
201001071700 METAR LPPR 071700Z 36009KT 330V030 9999 FEW017 08/M00 Q1008=
201001071630 METAR LPPR 071630Z 35017KT 9999 FEW017 09/M01 Q1007 WS ALL
                        RWY=
201001071600 METAR LPPR 071600Z 36016KT 9999 FEW017 09/M01 Q1007 WS ALL
                        RWY=
201001071530 METAR LPPR 071530Z 36017G27KT 9999 FEW017 09/M00 Q1006 WS
                        ALL RWY=
201001071500 METAR LPPR 071500Z 36016G26KT 9999 FEW017 10/00 Q1006=
201001071430 METAR LPPR 071430Z 36015KT 9999 FEW017 10/M00 Q1006=
201001071400 METAR LPPR 071400Z 36016G26KT 340V050 9999 FEW017 10/M00
                        Q1006 WS ALL RWY=
201001071330 METAR LPPR 071330Z 35013KT 9999 FEW017 FEW030CB 10/M00 Q1006=
201001071300 METAR LPPR 071300Z 36012KT 330V040 9999 FEW017 FEW025CB 10/M00
                        Q1006=
201001071230 METAR LPPR 071230Z 36014KT 9999 FEW017 09/M00 Q1006=
201001071200 METAR LPPR 071200Z 36010KT 330V030 9999 FEW017 09/M00 Q1007=
201001071130 METAR LPPR 071130Z 01009KT 330V040 9999 FEW017 08/M01 Q1007=
201001071100 METAR LPPR 071100Z 36008KT 330V040 9999 FEW017 08/M00 Q1007=
201001071030 METAR LPPR 071030Z 01007KT 9999 FEW017 07/M00 Q1006=
201001071000 METAR LPPR 071000Z 36007KT 330V050 9999 FEW017 06/M00 Q1006=
201001070930 METAR LPPR 070930Z 36005KT 330V030 9999 FEW017 05/M00 Q1006=
201001070900 METAR LPPR 070900Z 35006KT 9999 FEW015 04/M00 Q1005=
201001070830 METAR LPPR 070830Z 36006KT 9999 FEW015 03/M00 Q1005=
201001070800 METAR LPPR 070800Z 36007KT 9999 FEW015 03/M00 Q1004=
201001070730 METAR LPPR 070730Z 36008KT CAVOK 03/00 Q1004=
201001070700 METAR LPPR 070700Z 01004KT CAVOK 03/01 Q1004=
201001070630 METAR LPPR 070630Z 34005KT CAVOK 03/01 Q1004=
201001070600 METAR LPPR 070600Z 02005KT CAVOK 05/02 Q1003=
201001070530 METAR LPPR 070530Z 03006KT CAVOK 05/02 Q1003=
201001070500 METAR LPPR 070500Z 01004KT CAVOK 04/02 Q1003=
201001070430 METAR LPPR 070430Z 02005KT CAVOK 05/03 Q1003=
201001070400 METAR LPPR 070400Z 36004KT CAVOK 06/03 Q1003=
201001070330 METAR LPPR 070330Z 34011KT 9999 SCT040 BKN080 07/04 Q1003=
201001070300 METAR LPPR 070300Z 04006KT 360V080 9999 FEW025 BKN070 07/03
                        Q1003=
201001070230 METAR LPPR 070230Z 02008KT 9999 FEW020 BKN070 07/04 Q1003=
201001070200 METAR LPPR 070200Z 02008KT 9999 FEW020 BKN070 07/04 Q1003=
201001070130 METAR LPPR 070130Z 02007KT 360V060 9999 SCT040 BKN070 07/04
                        Q1003=
201001070100 METAR LPPR 070100Z 36007KT 9999 FEW025 BKN070 07/04 Q1003=
201001070030 METAR LPPR 070030Z 01006KT 9999 FEW045 BKN090 07/04 Q1003=
201001070000 METAR LPPR 070000Z 34004KT 9999 FEW045 BKN090 06/04 Q1004=
201001062330 METAR LPPR 062330Z VRB01KT 9000 FEW050 SCT090 07/04 Q1004=
201001062300 METAR LPPR 062300Z VRB03KT 9000 FEW050 BKN090 07/04 Q1004=
201001062230 METAR LPPR 062230Z 02005KT 9000 FEW050 BKN090 07/03 Q1004=
201001062200 METAR LPPR 062200Z 01004KT 9000 BKN090 07/03 Q1004=
201001062130 METAR LPPR 062130Z 03004KT 9000 SCT090 07/03 Q1004=
201001062100 METAR LPPR 062100Z 04003KT 9000 SCT090 07/03 Q1004=
201001062030 METAR LPPR 062030Z 02005KT 9000 SCT090 07/03 Q1004=
201001062000 METAR LPPR 062000Z 01005KT 9000 SCT090 07/03 Q1004=
201001061930 METAR LPPR 061930Z 02004KT 8000 SCT100 07/03 Q1005=
201001061900 METAR LPPR 061900Z VRB03KT 8000 FEW035 BKN090 06/04 Q1005=
201001061830 METAR LPPR 061830Z 35002KT 8000 FEW035 BKN090 07/04 Q1005=
201001061800 METAR LPPR 061800Z 34002KT 9999 FEW035 BKN090 07/04 Q1005=
201001061730 METAR LPPR 061730Z 35002KT 9999 FEW035 BKN090 08/03 Q1005=
201001061700 METAR LPPR 061700Z 01003KT 9999 FEW030 BKN100 09/03 Q1005=
201001061630 METAR LPPR 061630Z 36003KT CAVOK 10/02 Q1005=
201001061600 METAR LPPR 061600Z 02004KT 9999 FEW015 BKN100 10/01 Q1005=
201001061530 METAR LPPR 061530Z 36004KT 9999 FEW015 BKN090 10/02 Q1005=
201001061500 METAR LPPR 061500Z VRB03KT 9999 FEW015 BKN090 10/02 Q1005=
201001061430 METAR LPPR 061430Z VRB03KT CAVOK 11/02 Q1005=
201001061400 METAR LPPR 061400Z VRB03KT CAVOK 11/00 Q1006=
201001061330 METAR LPPR 061330Z 09004KT 040V140 CAVOK 11/00 Q1006=
201001061300 METAR LPPR 061300Z VRB03KT CAVOK 10/00 Q1007=
201001061230 METAR LPPR 061230Z 08004KT 040V140 CAVOK 10/01 Q1007=
201001061200 METAR LPPR 061200Z 11005KT 070V140 CAVOK 09/01 Q1008=
201001061130 METAR LPPR 061130Z 09006KT 060V120 CAVOK 08/02 Q1008=
201001061100 METAR LPPR 061100Z 10005KT 070V130 CAVOK 07/02 Q1008=
201001061030 METAR LPPR 061030Z 11008KT CAVOK 06/01 Q1008=
201001061000 METAR LPPR 061000Z 11006KT CAVOK 05/01 Q1008=
201001060930 METAR LPPR 060930Z 10007KT CAVOK 04/01 Q1008=
201001060900 METAR LPPR 060900Z 11007KT CAVOK 03/00 Q1008=
201001060830 METAR LPPR 060830Z 10004KT 060V140 CAVOK 02/00 Q1008=
201001060800 METAR LPPR 060800Z 10004KT CAVOK 02/00 Q1008=
201001060730 METAR LPPR 060730Z 09003KT CAVOK 02/00 Q1008=
201001060700 METAR LPPR 060700Z 06003KT CAVOK 02/M00 Q1008=
201001060630 METAR LPPR 060630Z 00000KT CAVOK 02/M00 Q1008=
201001060600 METAR LPPR 060600Z 00000KT CAVOK 02/M01 Q1008=
201001060530 METAR LPPR 060530Z VRB02KT 9999 FEW030 BKN090 03/M01 Q1008=
201001060500 METAR LPPR 060500Z 00000KT 9999 FEW030 BKN080 03/M01 Q1008=
201001060430 METAR LPPR 060430Z 06002KT 9999 FEW030 BKN070 04/M01 Q1008=
201001060400 METAR LPPR 060400Z 00000KT CAVOK 03/01 Q1008=
201001060330 METAR LPPR 060330Z 00000KT 9999 FEW020 BKN070 02/01 Q1008=
201001060300 METAR LPPR 060300Z 00000KT CAVOK 02/00 Q1008=
201001060230 METAR LPPR 060230Z 00000KT CAVOK 02/00 Q1008=
201001060200 METAR LPPR 060200Z 00000KT CAVOK 02/M00 Q1008=
201001060130 METAR LPPR 060130Z 00000KT CAVOK 02/M00 Q1008=
201001060100 METAR LPPR 060100Z 00000KT CAVOK 03/M00 Q1009=
201001060030 METAR LPPR 060030Z VRB02KT CAVOK 05/M00 Q1009=
201001060000 METAR LPPR 060000Z 03004KT CAVOK 05/00 Q1009=
201001052330 METAR LPPR 052330Z VRB01KT CAVOK 04/01 Q1008=
201001052300 METAR LPPR 052300Z VRB02KT CAVOK 04/00 Q1009=
201001052230 METAR LPPR 052230Z 02006KT CAVOK 05/01 Q1009=
201001052200 METAR LPPR 052200Z 00000KT CAVOK 04/01 Q1009=
201001052130 METAR LPPR 052130Z 35003KT CAVOK 04/01 Q1009=
201001052100 METAR LPPR 052100Z 35004KT CAVOK 05/01 Q1009=
201001052030 METAR LPPR 052030Z 35006KT 330V030 CAVOK 05/02 Q1008=
201001052000 METAR LPPR 052000Z VRB03KT CAVOK 05/03 Q1008=
201001051930 METAR LPPR 051930Z 34003KT 9999 FEW030 05/03 Q1008=
201001051900 METAR LPPR 051900Z 00000KT 9999 FEW030 06/03 Q1008=
201001051830 METAR LPPR 051830Z 32003KT 9999 FEW030 06/03 Q1007=
201001051800 METAR LPPR 051800Z 35005KT 9999 FEW030 07/03 Q1007=
201001051730 METAR LPPR 051730Z 36007KT 9999 FEW030 08/04 Q1007=
201001051700 METAR LPPR 051700Z 34010KT 9999 FEW015 09/04 Q1007=
201001051630 METAR LPPR 051630Z 35012KT 9999 FEW015 10/05 Q1007=
201001051600 METAR LPPR 051600Z 34014KT 9999 FEW015 BKN250 10/05 Q1007=
201001051530 METAR LPPR 051530Z 33014KT 9999 FEW015 BKN200 11/06 Q1006=
201001051500 METAR LPPR 051500Z 34013KT 9999 FEW015 SCT025 BKN200 11/06
                        Q1006=
201001051430 METAR LPPR 051430Z 33012KT 9999 FEW015 SCT025 BKN200 12/07
                        Q1006=
201001051400 METAR LPPR 051400Z 33014KT 9999 FEW015 BKN200 12/07 Q1005=
201001051330 METAR LPPR 051330Z 32012KT 9999 FEW015 SCT025 BKN200 11/07
                        Q1005=
201001051300 METAR LPPR 051300Z 33010KT 9999 FEW015 SCT025 BKN200 12/08
                        Q1005=
201001051230 METAR LPPR 051230Z 33009KT 9999 FEW015 BKN200 11/08 Q1005=
201001051200 METAR LPPR 051200Z 33010KT 290V350 9999 FEW015 BKN200 11/07
                        Q1005=
201001051130 METAR LPPR 051130Z 34006KT 9999 FEW015 BKN200 11/08 Q1006=
201001051100 METAR LPPR 051100Z 34007KT 9999 FEW015 SCT070 BKN200 11/08
                        Q1006=
201001051030 METAR LPPR 051030Z 35005KT 9999 FEW015 SCT070 BKN200 10/08
                        Q1005=
201001051000 METAR LPPR 051000Z 36004KT 9999 FEW015 SCT070 BKN200 09/08
                        Q1005=
201001050930 METAR LPPR 050930Z 36002KT 9999 FEW015 SCT070 BKN250 08/08
                        Q1005=
201001050900 METAR LPPR 050900Z VRB01KT 9999 FEW015 SCT070 BKN250 07/06
                        Q1004=
201001050830 METAR LPPR 050830Z 02002KT 8000 FEW015 SCT060 06/06 Q1004=
201001050800 METAR LPPR 050800Z 00000KT CAVOK 06/05 Q1004=
201001050730 METAR LPPR 050730Z 34002KT CAVOK 06/05 Q1003=
201001050700 METAR LPPR 050700Z 15001KT CAVOK 07/06 Q1003=
201001050630 METAR LPPR 050630Z 00000KT CAVOK 07/06 Q1002=
201001050600 METAR LPPR 050600Z 00000KT CAVOK 06/05 Q1003=
201001050530 METAR LPPR 050530Z VRB01KT CAVOK 07/07 Q1002=
201001050500 METAR LPPR 050500Z 05003KT CAVOK 07/06 Q1003=
201001050430 METAR LPPR 050430Z 00000KT CAVOK 07/06 Q1003=
201001050400 METAR LPPR 050400Z 00000KT 9999 FEW040 SCT070 08/07 Q1003=
201001050330 METAR LPPR 050330Z VRB01KT 9999 FEW040 SCT070 08/07 Q1003=
201001050300 METAR LPPR 050300Z VRB02KT 9999 FEW040 SCT070 09/08 Q1003=
201001050230 METAR LPPR 050230Z VRB03KT 9999 FEW040 BKN070 08/07 Q1002=
201001050200 METAR LPPR 050200Z 00000KT 9999 FEW040 SCT070 08/06 Q1002=
201001050130 METAR LPPR 050130Z 14002KT 9999 FEW040 SCT070 09/07 Q1002=
201001050100 METAR LPPR 050100Z 02005KT 9999 FEW040 SCT070 10/07 Q1002=
201001050030 METAR LPPR 050030Z 03004KT 9999 FEW040 SCT070 11/08 Q1002=
201001050000 METAR LPPR 050000Z 33005KT 9999 FEW040 BKN070 11/08 Q1001=
201001042330 METAR LPPR 042330Z VRB03KT 9999 FEW040 BKN070 12/08 Q1001=
201001042300 METAR LPPR 042300Z 36004KT 9999 FEW040 SCT070 11/08 Q1001=
201001042230 METAR LPPR 042230Z 02004KT 350V050 9999 FEW040 SCT070 12/08
                        Q1001=
201001042200 METAR LPPR 042200Z 04007KT CAVOK 12/08 Q1001=
201001042130 METAR LPPR 042130Z 02004KT 9999 FEW040 SCT080 11/08 Q1001=
201001042100 METAR LPPR 042100Z VRB03KT 9999 FEW040 SCT080 11/08 Q1000=
201001042030 METAR LPPR 042030Z VRB03KT 9999 FEW040 SCT080 12/09 Q1000=
201001042000 METAR LPPR 042000Z VRB03KT 9999 FEW040 SCT080 12/09 Q1000=
201001041930 METAR LPPR 041930Z 06004KT 020V120 9999 FEW040 SCT080 12/09
                        Q1000=
201001041900 METAR LPPR 041900Z VRB03KT 9999 SCT040 SCT080 13/09 Q1000=
201001041830 METAR LPPR 041830Z 06004KT 030V100 9999 SCT040 BKN080 13/10
                        Q1000=
201001041800 METAR LPPR 041800Z 05005KT 010V090 9999 SCT040 BKN080 13/10
                        Q1000=
201001041730 METAR LPPR 041730Z 04006KT 360V070 9999 SCT035 BKN070 13/10
                        Q1000=
201001041700 METAR LPPR 041700Z VRB03KT 8000 -RA BKN030 BKN070 13/10 Q1000=
201001041630 METAR LPPR 041630Z VRB03KT 8000 -RA BKN030 BKN070 13/10 Q1000=
201001041600 METAR LPPR 041600Z 08004KT 040V130 8000 -RA BKN030 BKN070
                        13/10 Q1000=
201001041530 METAR LPPR 041530Z 08005KT 040V140 8000 -RA BKN030 BKN070
                        13/11 Q1000=
201001041500 METAR LPPR 041500Z 07005KT 020V110 8000 -RA BKN030 BKN070
                        13/11 Q1000=
201001041430 METAR LPPR 041430Z 09005KT 040V130 9999 -RA BKN030 BKN070
                        13/11 Q1000=
201001041400 METAR LPPR 041400Z 10006KT 070V130 8000 -RA BKN030 BKN070
                        13/11 Q1000=
201001041330 METAR LPPR 041330Z 09005KT 8000 -RA BKN030 BKN070 13/11 Q1000=
201001041300 METAR LPPR 041300Z 10007KT 080V140 8000 -RA BKN030 BKN070
                        13/11 Q1001=
201001041230 METAR LPPR 041230Z 11006KT 080V150 9999 -RA BKN035 BKN070
                        13/11 Q1001=
201001041200 METAR LPPR 041200Z 10008KT 070V130 9999 -RA BKN035 BKN070
                        13/11 Q1002=
201001041130 METAR LPPR 041130Z 10009KT 9999 -RA BKN035 BKN070 14/11 Q1002=
201001041100 METAR LPPR 041100Z 11008KT 080V140 9999 -RA BKN035 BKN070
                        14/11 Q1002=
201001041030 METAR LPPR 041030Z 09005KT 060V130 9999 BKN035 BKN070 14/11
                        Q1002=
201001041000 METAR LPPR 041000Z 10007KT 060V130 9999 BKN035 BKN070 13/10
                        Q1002=
201001040930 METAR LPPR 040930Z 09006KT 060V130 9999 BKN035 BKN070 13/10
                        Q1002=
201001040900 METAR LPPR 040900Z 09008KT 050V130 9999 SCT017 BKN040 13/10
                        Q1002=
201001040830 METAR LPPR 040830Z 11008KT 080V140 7000 -RA SCT017 BKN035
                        13/10 Q1002=
201001040800 METAR LPPR 040800Z 09006KT 060V140 9999 FEW015 BKN030 13/10
                        Q1002=
201001040730 METAR LPPR 040730Z 10006KT 060V150 9999 FEW015 BKN035 12/10
                        Q1003=
201001040700 METAR LPPR 040700Z 09005KT 050V130 9999 FEW017 BKN040 12/09
                        Q1003=
201001040630 METAR LPPR 040630Z 10007KT 070V130 9999 FEW018 BKN040 12/09
                        Q1004=
201001040600 METAR LPPR 040600Z 10007KT 060V130 9999 FEW018 BKN040 12/09
                        Q1004=
201001040530 METAR LPPR 040530Z 10007KT 070V130 9999 SCT035 12/09 Q1005=
201001040500 METAR LPPR 040500Z 10005KT 9999 BKN035 11/09 Q1005=
201001040430 METAR LPPR 040430Z 10004KT 060V120 9999 SCT030 SCT250 11/08
                        Q1006=
201001040400 METAR LPPR 040400Z 09005KT 050V120 9999 SCT030 SCT250 11/08
                        Q1007=
201001040330 METAR LPPR 040330Z 09005KT 050V120 9999 SCT035 SCT250 11/09
                        Q1007=
201001040300 METAR LPPR 040300Z 09006KT 9999 SCT035 SCT250 11/09 Q1008=
201001040230 METAR LPPR 040230Z 09004KT 060V120 9999 SCT035 SCT250 11/10
                        Q1008=
201001040200 METAR LPPR 040200Z 09005KT CAVOK 11/10 Q1008=
201001040130 METAR LPPR 040130Z 09005KT CAVOK 12/10 Q1009=
201001040100 METAR LPPR 040100Z 10007KT 8000 FEW100 BKN250 12/10 Q1009=
201001040030 METAR LPPR 040030Z 10005KT 8000 SCT100 BKN250 11/10 Q1010=
201001040000 METAR LPPR 040000Z 10004KT 8000 SCT100 BKN250 12/10 Q1010=
201001032330 METAR LPPR 032330Z 11006KT 8000 SCT100 BKN250 12/11 Q1010=
201001032300 METAR LPPR 032300Z 11005KT 8000 SCT100 BKN250 12/10 Q1010=
201001032230 METAR LPPR 032230Z 11005KT 080V140 8000 SCT100 BKN250 12/11
                        Q1011=
201001032200 METAR LPPR 032200Z 12006KT 7000 SCT100 BKN250 12/11 Q1011=
201001032130 METAR LPPR 032130Z 09004KT 060V130 7000 SCT100 BKN250 12/11
                        Q1011=
201001032100 METAR LPPR 032100Z VRB03KT 7000 SCT100 BKN250 12/11 Q1011=
201001032030 METAR LPPR 032030Z VRB03KT 6000 SCT100 BKN250 12/11 Q1012=
201001032000 METAR LPPR 032000Z 09004KT 6000 SCT100 BKN250 12/12 Q1012=
201001031930 METAR LPPR 031930Z 10003KT 6000 FEW017 SCT100 BKN250 12/12
                        Q1013=
201001031900 METAR LPPR 031900Z 09004KT 8000 FEW017 SCT100 BKN250 12/12
                        Q1012=
201001031830 METAR LPPR 031830Z 10003KT 8000 FEW017 SCT100 BKN250 12/12
                        Q1012=
201001031800 METAR LPPR 031800Z 00000KT 8000 FEW017 SCT100 BKN250 13/12
                        Q1013=
201001031730 METAR LPPR 031730Z 00000KT 7000 SCT017 BKN250 13/12 Q1013=
201001031700 METAR LPPR 031700Z VRB01KT 8000 SCT015 BKN250 14/12 Q1013=
201001031630 METAR LPPR 031630Z VRB02KT 8000 SCT015 BKN250 14/13 Q1013=
201001031600 METAR LPPR 031600Z 23004KT 170V270 9999 SCT015 BKN250 14/13
                        Q1013=
201001031530 METAR LPPR 031530Z 21004KT 9999 SCT015 BKN250 15/13 Q1012=
201001031500 METAR LPPR 031500Z 20006KT 160V220 9999 SCT015 BKN250 15/12
                        Q1012=
201001031430 METAR LPPR 031430Z 21006KT 160V230 9999 SCT015 BKN250 15/13
                        Q1012=
201001031400 METAR LPPR 031400Z VRB03KT 9999 SCT015 BKN250 15/12 Q1012=
201001031330 METAR LPPR 031330Z VRB02KT 9999 SCT015 BKN250 15/13 Q1012=
201001031300 METAR LPPR 031300Z VRB03KT 9999 BKN015 16/12 Q1012=
201001031230 METAR LPPR 031230Z VRB02KT 9999 BKN013 SCT250 15/13 Q1013=
201001031200 METAR LPPR 031200Z 18002KT 9999 BKN013 SCT250 16/13 Q1013=
201001031130 METAR LPPR 031130Z VRB03KT 8000 BKN013 SCT250 16/12 Q1013=
201001031100 METAR LPPR 031100Z 00000KT 8000 SCT013 BKN250 15/13 Q1013=
201001031030 METAR LPPR 031030Z VRB01KT 8000 SCT013 SCT040 BKN250 14/13
                        Q1013=
201001031000 METAR LPPR 031000Z 00000KT 7000 SCT013 BKN040 14/13 Q1013=
201001030930 METAR LPPR 030930Z VRB02KT 6000 SCT013 BKN040 14/13 Q1012=
201001030900 METAR LPPR 030900Z VRB03KT 5000 BR SCT008 SCT014 BKN040 14/13
                        Q1012=
201001030830 METAR LPPR 030830Z VRB02KT 4000 BR SCT006 SCT012 BKN040 14/14
                        Q1011=
201001030800 METAR LPPR 030800Z 28006KT 210V360 4000 -RA BR SCT004 BKN009
                        BKN016 14/14 Q1010=
201001030730 METAR LPPR 030730Z 20015KT 4000 -RA BR SCT004 BKN006 14/14
                        Q1010 WS ALL RWY=
201001030700 METAR LPPR 030700Z 19018KT 160V220 3000 -RA BR SCT004 BKN008
                        14/13 Q1009 WS ALL RWY=
201001030630 METAR LPPR 030630Z 19014G24KT 170V230 3000 -RA SCT004 BKN008
                        14/13 Q1009 WS ALL RWY=
201001030600 METAR LPPR 030600Z 18019KT 3000 -RA BR BKN006 BKN012 14/13
                        Q1009 WS ALL RWY=
201001030530 METAR LPPR 030530Z 17021KT 3000 -RA SCT006 BKN013 14/13 Q1009
                        RERA WS ALL RWY=
201001030500 METAR LPPR 030500Z 18016KT 2000 RA BR BKN006 BKN012 13/13
                        Q1009 WS ALL RWY=
201001030430 METAR LPPR 030430Z 17019G29KT 2000 RA BR SCT007 BKN012 13/13
                        Q1010 WS ALL RWY=
201001030400 METAR LPPR 030400Z 17023G33KT 3000 RA BR SCT007 BKN012 13/12
                        Q1010 WS ALL RWY=
201001030330 METAR LPPR 030330Z 16024KT 5000 -RA BR SCT007 SCT012 BKN017
                        13/12 Q1010 RERA WS ALL RWY=
201001030300 METAR LPPR 030300Z 16021KT 5000 RA BR SCT007 BKN012 13/12
                        Q1010 WS ALL RWY=
201001030230 METAR LPPR 030230Z 17023KT 5000 RA BR SCT007 SCT012 BKN015
                        13/12 Q1011 WS ALL RWY=
201001030200 METAR LPPR 030200Z 17023KT 9999 -RA SCT017 BKN020 14/12 Q1011
                        WS ALL RWY=
201001030130 METAR LPPR 030130Z 17020KT 9999 SCT017 BKN020 14/12 Q1011
                        WS ALL RWY=
201001030100 METAR LPPR 030100Z 16019KT 9999 -RA SCT017 BKN030 14/12 Q1011
                        WS ALL RWY=
201001030030 METAR LPPR 030030Z 17021G31KT 9999 -RA SCT017 BKN030 14/12
                        Q1011 WS ALL RWY=
201001030000 METAR LPPR 030000Z 16021G31KT 9999 -RA SCT017 BKN025 14/12
                        Q1012=
201001022330 METAR LPPR 022330Z 17022KT 7000 -RA SCT017 BKN025 14/11 Q1012=
201001022300 METAR LPPR 022300Z 16021G31KT 9999 SCT035 BKN050 15/10 Q1012=
201001022230 METAR LPPR 022230Z 17021KT 9999 SCT035 BKN050 15/10 Q1012=
201001022200 METAR LPPR 022200Z 16020G30KT 9999 SCT035 BKN050 15/10 Q1013=
201001022130 METAR LPPR 022130Z 17021KT 9999 BKN035 BKN060 15/10 Q1013=
201001022100 METAR LPPR 022100Z 16021KT 9999 BKN035 BKN060 15/10 Q1013=
201001022030 METAR LPPR 022030Z 17020KT 9999 BKN035 BKN060 15/10 Q1013=
201001022000 METAR LPPR 022000Z 16019G29KT 9999 SCT040 BKN060 15/10 Q1013=
201001021930 METAR LPPR 021930Z 16019KT 9999 SCT040 BKN060 15/11 Q1013=
201001021900 METAR LPPR 021900Z 17020KT 9999 BKN040 BKN070 15/10 Q1014=
201001021830 METAR LPPR 021830Z 16019KT 9999 SCT030 BKN060 14/10 Q1014=
201001021800 METAR LPPR 021800Z 16020KT 9999 SCT030 BKN060 14/11 Q1014=
201001021730 METAR LPPR 021730Z 16018KT 9999 SCT030 BKN060 14/10 Q1014=
201001021700 METAR LPPR 021700Z 15017KT 9999 FEW015 SCT030 BKN060 14/10
                        Q1014=
201001021630 METAR LPPR 021630Z 16018KT 9999 FEW015 SCT030 BKN060 14/10
                        Q1014=
201001021600 METAR LPPR 021600Z 16020G31KT 9999 FEW009 SCT030 BKN060 15/10
                        Q1014 WS ALL RWY=
201001021530 METAR LPPR 021530Z 16019G33KT 9999 FEW017 SCT030 BKN060 15/10
                        Q1014=
201001021500 METAR LPPR 021500Z 17022KT 9999 FEW017 SCT027 BKN070 14/10
                        Q1014=
201001021430 METAR LPPR 021430Z 17018G28KT 9999 SCT033 BKN070 15/10 Q1014=
201001021400 METAR LPPR 021400Z 16016KT 9999 SCT035 BKN070 15/10 Q1015=
201001021330 METAR LPPR 021330Z 17014KT 9999 SCT025 BKN060 14/10 Q1015=
201001021300 METAR LPPR 021300Z 17015KT 9999 SCT030 BKN060 14/10 Q1016=
201001021230 METAR LPPR 021230Z 16017KT 9999 SCT030 BKN070 14/10 Q1016=
201001021200 METAR LPPR 021200Z 16014KT 9999 SCT030 BKN070 15/10 Q1016=
201001021130 METAR LPPR 021130Z 15011KT 9999 FEW035 BKN070 14/10 Q1017=
201001021100 METAR LPPR 021100Z 13008KT 9999 SCT040 BKN080 13/10 Q1017=
201001021030 METAR LPPR 021030Z 14007KT 110V170 9999 SCT035 BKN070 12/09
                        Q1017=
201001021000 METAR LPPR 021000Z 14009KT 9999 SCT035 BKN080 12/09 Q1017=
201001020930 METAR LPPR 020930Z 14007KT 9999 SCT040 BKN080 11/09 Q1017=
201001020900 METAR LPPR 020900Z 13008KT 9999 SCT045 BKN080 11/09 Q1016=
201001020830 METAR LPPR 020830Z 13008KT 9999 SCT045 BKN080 11/09 Q1016=
201001020800 METAR LPPR 020800Z 13008KT 9999 SCT045 SCT070 BKN200 10/09
                        Q1016=
201001020730 METAR LPPR 020730Z 12008KT 9999 SCT045 SCT070 BKN200 11/09
                        Q1016=
201001020700 METAR LPPR 020700Z 13008KT 9999 FEW015 SCT045 BKN070 11/09
                        Q1016=
201001020630 METAR LPPR 020630Z 14007KT 9999 FEW015 SCT045 BKN070 11/09
                        Q1016=
201001020600 METAR LPPR 020600Z 14006KT 9999 FEW015 SCT045 BKN080 10/09
                        Q1016=
201001020530 METAR LPPR 020530Z 13007KT 9999 FEW015 SCT030 BKN070 10/09
                        Q1016=
201001020500 METAR LPPR 020500Z 13006KT 9999 FEW015 SCT080 10/09 Q1016=
201001020430 METAR LPPR 020430Z 14006KT 9999 FEW015 SCT030 10/09 Q1016=
201001020400 METAR LPPR 020400Z 14006KT 9999 SCT015 BKN030 10/09 Q1016=
201001020330 METAR LPPR 020330Z 13006KT 8000 SCT015 BKN025 10/09 Q1016=
201001020300 METAR LPPR 020300Z 11007KT 8000 SCT015 BKN025 10/09 Q1016=
201001020230 METAR LPPR 020230Z 12005KT 8000 SCT015 BKN025 10/09 Q1017=
201001020200 METAR LPPR 020200Z 11004KT 080V140 8000 -RA SCT015 BKN030
                        10/09 Q1017=
201001020130 METAR LPPR 020130Z 14005KT 7000 -RA SCT015 BKN025 10/09 Q1017=
201001020100 METAR LPPR 020100Z 11006KT 9999 SCT015 BKN030 10/08 Q1017=
201001020030 METAR LPPR 020030Z 13006KT 9999 FEW015 BKN030 BKN070 10/08
                        Q1017=
201001020000 METAR LPPR 020000Z 12007KT 9999 FEW015 BKN030 BKN070 10/09
                        Q1017=
201001012330 METAR LPPR 012330Z 13007KT 9999 FEW015 BKN030 BKN070 10/08
                        Q1017=
201001012300 METAR LPPR 012300Z 12007KT 9999 SCT015 BKN030 10/08 Q1017=
201001012230 METAR LPPR 012230Z 11006KT 9999 SCT015 BKN025 10/08 Q1016=
201001012200 METAR LPPR 012200Z 00000KT 9999 SCT015 BKN030 10/09 Q1016=
201001012130 METAR LPPR 012130Z 00000KT 9999 SCT015 BKN030 09/08 Q1016=
201001012100 METAR LPPR 012100Z VRB02KT 9999 SCT015 SCT030 10/08 Q1016=
201001012030 METAR LPPR 012030Z VRB02KT 9999 SCT015 SCT040 09/08 Q1016=
201001012000 METAR LPPR 012000Z 17005KT 9999 SCT015 SCT040 10/08 Q1016=
201001011930 METAR LPPR 011930Z 16005KT 9999 SCT015 SCT040 10/08 Q1016=
201001011900 METAR LPPR 011900Z 19004KT 160V230 9999 FEW015 SCT035 10/08
                        Q1016=
201001011830 METAR LPPR 011830Z 18003KT 9999 FEW015 SCT035 09/08 Q1015=
201001011800 METAR LPPR 011800Z 17004KT 9999 SCT015 SCT035 10/08 Q1015=
201001011730 METAR LPPR 011730Z 18004KT 9999 SCT015 SCT035 11/08 Q1015=
201001011700 METAR LPPR 011700Z 19002KT 9999 SCT015 SCT035 12/09 Q1014=
201001011630 METAR LPPR 011630Z VRB02KT 9999 SCT015 SCT200 14/08 Q1014=
201001011600 METAR LPPR 011600Z VRB01KT 9999 SCT015 SCT035 14/09 Q1014=
201001011530 METAR LPPR 011530Z VRB01KT 9999 SCT015 FEW020CB SCT035 13/08
                        Q1013=
201001011500 METAR LPPR 011500Z VRB03KT 9999 -SHRA FEW015 FEW020CB SCT035
                        13/09 Q1013=
201001011430 METAR LPPR 011430Z 33005KT 300V360 8000 -SHRA FEW015 FEW020CB
                        SCT035 12/09 Q1013=
201001011400 METAR LPPR 011400Z 33005KT 280V020 9999 FEW015 FEW020CB SCT035
                        13/08 Q1013=
201001011330 METAR LPPR 011330Z 33007KT 9999 FEW015 FEW020TCU BKN035 11/10
                        Q1013=
201001011300 METAR LPPR 011300Z 33009KT 5000 -SHRA BR BKN015 FEW020TCU
                        SCT030 12/08 Q1012=
201001011230 METAR LPPR 011230Z 33009KT 9999 FEW015 FEW020TCU SCT035 13/09
                        Q1012=
201001011200 METAR LPPR 011200Z 32008KT 290V350 9999 FEW015 FEW020TCU
                        SCT035 13/09 Q1012=
201001011130 METAR LPPR 011130Z 32008KT 9999 SCT015 FEW020CB SCT035 12/09
                        Q1012=
201001011100 METAR LPPR 011100Z 32012KT 290V350 9999 SCT015 FEW020CB SCT035
                        13/09 Q1011=
201001011030 METAR LPPR 011030Z 31011KT 280V340 9999 SCT015 FEW020CB BKN035
                        12/09 Q1010=
201001011000 METAR LPPR 011000Z 30010KT 260V330 9999 -SHRA BKN012 FEW020CB
                        12/09 Q1009 RERA=
201001010930 METAR LPPR 010930Z 28011KT 9999 SCT012 FEW020CB BKN035 12/09
                        Q1008 WS ALL RWY=
201001010900 METAR LPPR 010900Z 30010KT 250V330 9999 SCT012 FEW020CB BKN030
                        12/08 Q1007 WS ALL RWY=
201001010830 METAR LPPR 010830Z 28014G26KT 250V320 9999 BKN013 FEW018TCU
                        FEW020CB SCT025 12/08 Q1007 WS ALL
                        RWY=
201001010800 METAR LPPR 010800Z 29015G25KT 260V330 9999 BKN013 SCT018CB
                        SCT030 12/08 Q1006 WS ALL RWY=
201001010730 METAR LPPR 010730Z 29015G25KT 260V320 9999 BKN013 SCT018CB
                        SCT030 12/09 Q1005 WS ALL RWY=
201001010700 METAR LPPR 010700Z 26014G24KT 220V310 8000 -TSRA FEW007 FEW013
                        FEW017TCU SCT018CB BKN030 12/10 Q1004
                        WS ALL RWY=
201001010630 METAR LPPR 010630Z 26014G31KT 220V300 9999 -SHRA FEW009 SCT013
                        SCT018CB 11/10 Q1004 WS ALL RWY=
201001010600 METAR LPPR 010600Z 24014G24KT 220V280 9999 -SHRA FEW009 SCT013
                        SCT018CB BKN025 11/09 Q1004 WS ALL
                        RWY=
201001010530 METAR LPPR 010530Z 25013G34KT 200V300 8000 -SHRA FEW008 SCT013
                        SCT018CB BKN025 12/09 Q1004 RERA
                        WS ALL RWY=
201001010500 METAR LPPR 010500Z 25016G31KT 200V290 7000 SHRA FEW008 SCT013
                        SCT020CB BKN030 10/08 Q1004 WS ALL
                        RWY=
201001010430 METAR LPPR 010430Z 24015G28KT 210V290 9999 SCT015 SCT020CB
                        BKN030 12/08 Q1004 WS ALL RWY=
201001010400 METAR LPPR 010400Z 27016G28KT 230V300 9000 -SHRA SCT015 SCT020CB
                        SCT030 11/09 Q1004 WS ALL RWY=
201001010330 METAR LPPR 010330Z 24016G29KT 9999 SCT015 FEW020CB SCT030
                        12/07 Q1004 WS ALL RWY=
201001010300 METAR LPPR 010300Z 24016G26KT 210V280 9999 SCT015CB FEW020CB
                        SCT030 13/06 Q1004 WS ALL RWY=
201001010230 METAR LPPR 010230Z 24015G25KT 210V270 9999 SCT015 FEW020CB
                        SCT030 13/06 Q1004 WS ALL RWY=
201001010200 METAR LPPR 010200Z 25015G25KT 210V290 9999 BKN015 FEW020CB
                        12/06 Q1004 WS ALL RWY=
201001010130 METAR LPPR 010130Z 24013KT 190V270 9999 BKN015 SCT020CB 11/07
                        Q1004 RERA WS ALL RWY=
201001010100 METAR LPPR 010100Z 27017G27KT 240V300 5000 SHRA BR FEW007
                        BKN015 SCT020CB 11/07 Q1005 WS ALL
                        RWY=
201001010030 METAR LPPR 010030Z 23010KT 200V260 9999 SCT015 FEW020 SCT035
                        10/07 Q1005=
201001010000 METAR LPPR 010000Z 27009G19KT 230V310 9999 BKN015 FEW020CB
                        SCT035 10/06 Q1005 RERA WS ALL RWY=
