##########################################################
# Query made at 11/07/2014 16:36:27 UTC
# Time interval: from 07/01/2011 00:00  to 07/31/2011 23:59  UTC
##########################################################

##########################################################
# LPPR, Porto / Pedras Rubras (Portugal)
# WMO index: 08545
# Latitude 41-14N. Longitude 008-41W. Altitude 69 m.
##########################################################

###################################
#  METAR/SPECI from LPPR
###################################
201107312330 METAR LPPR 312330Z 29003KT 240V330 2500 BR BKN002 BKN003
                        16/15 Q1012=
201107312300 METAR LPPR 312300Z 32005KT 280V350 2500 BR BKN002 BKN004
                        16/15 Q1012=
201107312230 METAR LPPR 312230Z 32006KT 290V360 4000 BR BKN002 BKN003
                        16/15 Q1012=
201107312200 METAR LPPR 312200Z 32006KT 8000 SCT002 BKN004 16/15 Q1013=
201107312130 METAR LPPR 312130Z 32006KT 8000 SCT004 BKN007 16/15 Q1013=
201107312100 METAR LPPR 312100Z 33008KT 9999 SCT005 BKN007 16/15 Q1013=
201107312030 METAR LPPR 312030Z 33010KT 300V360 9999 FEW008 16/15 Q1012=
201107312000 METAR LPPR 312000Z 33010KT 290V350 CAVOK 16/14 Q1012=
201107311930 METAR LPPR 311930Z 32008KT 280V350 CAVOK 17/14 Q1012=
201107311900 METAR LPPR 311900Z 33011KT CAVOK 17/15 Q1012=
201107311830 METAR LPPR 311830Z 32010KT CAVOK 18/15 Q1012=
201107311800 METAR LPPR 311800Z 32009KT 290V350 CAVOK 19/15 Q1012=
201107311730 METAR LPPR 311730Z 32011KT CAVOK 19/15 Q1012=
201107311700 METAR LPPR 311700Z 32009KT 270V340 CAVOK 20/15 Q1012=
201107311630 METAR LPPR 311630Z 32010KT 280V340 9999 FEW008 20/15 Q1013=
201107311600 METAR LPPR 311600Z 33013KT 9999 FEW007 20/15 Q1013=
201107311530 METAR LPPR 311530Z 33011KT 290V350 9999 FEW006 20/16 Q1013=
201107311500 METAR LPPR 311500Z 32011KT 280V350 9999 FEW005 20/16 Q1013=
201107311430 METAR LPPR 311430Z 31009KT 280V340 9999 FEW007 20/16 Q1014=
201107311400 METAR LPPR 311400Z 31009KT 240V340 9999 FEW009 20/15 Q1014=
201107311330 METAR LPPR 311330Z 32008KT 280V350 9999 FEW009 20/15 Q1014=
201107311300 METAR LPPR 311300Z 31006KT 250V020 9000 FEW008 19/15 Q1015=
201107311230 METAR LPPR 311230Z 29006KT 240V320 8000 SCT007 18/15 Q1015=
201107311200 METAR LPPR 311200Z 26006KT 210V320 6000 SCT003 BKN005 17/15
                        Q1015=
201107311130 METAR LPPR 311130Z 24005KT 210V310 4500 BR SCT004 BKN006
                        17/15 Q1015=
201107311100 METAR LPPR 311100Z 29005KT 230V340 4000 BR SCT004 BKN007
                        17/15 Q1015=
201107311030 METAR LPPR 311030Z 29004KT 220V340 4000 BR SCT005 BKN007
                        18/16 Q1015=
201107311000 METAR LPPR 311000Z 29004KT 210V320 4000 BR SCT005 BKN007
                        18/16 Q1015=
201107310930 METAR LPPR 310930Z 28004KT 240V320 4000 BR SCT003 BKN005
                        OVC007 17/16 Q1015=
201107310900 METAR LPPR 310900Z 33003KT 280V040 3000 BR SCT003 BKN005
                        OVC007 17/16 Q1015=
201107310830 METAR LPPR 310830Z 35003KT 320V030 3000 BR SCT002 OVC004
                        17/16 Q1015=
201107310800 METAR LPPR 310800Z 34003KT 290V060 3000 BR SCT003 OVC005
                        17/16 Q1015=
201107310730 METAR LPPR 310730Z 02003KT 330V070 3000 BR SCT003 OVC005
                        17/16 Q1015=
201107310700 METAR LPPR 310700Z VRB01KT 4000 BR SCT004 BKN005 16/15 Q1015=
201107310630 METAR LPPR 310630Z VRB01KT 4000 BR SCT004 BKN005 16/15 Q1015=
201107310600 METAR LPPR 310600Z 21003KT 170V240 5000 BR BKN005 16/15 Q1015=
201107310530 METAR LPPR 310530Z 22004KT 190V250 5000 BR BKN005 16/15 Q1015=
201107310500 METAR LPPR 310500Z 17005KT 140V210 8000 BKN006 16/15 Q1015=
201107310430 METAR LPPR 310430Z 18006KT 8000 BKN006 16/15 Q1015=
201107310400 METAR LPPR 310400Z 18007KT 9000 BKN006 16/15 Q1015=
201107310330 METAR LPPR 310330Z 16009KT 9000 BKN006 16/15 Q1015=
201107310300 METAR LPPR 310300Z 17008KT 9000 BKN006 16/15 Q1015=
201107310230 METAR LPPR 310230Z 18008KT 9000 BKN006 16/15 Q1015=
201107310200 METAR LPPR 310200Z 18008KT 9000 FEW005 BKN007 15/14 Q1015=
201107310130 METAR LPPR 310130Z 17009KT 8000 BKN006 15/14 Q1015=
201107310100 METAR LPPR 310100Z 20006KT 8000 BKN006 15/15 Q1016=
201107310030 METAR LPPR 310030Z 18006KT 9000 SCT006 15/14 Q1016=
201107310000 METAR LPPR 310000Z 16008KT 8000 SCT005 16/15 Q1016=
201107302330 METAR LPPR 302330Z 17007KT 9000 NSC 15/14 Q1016=
201107302300 METAR LPPR 302300Z 20002KT 8000 NSC 15/14 Q1016=
201107302230 METAR LPPR 302230Z 21002KT 9000 NSC 16/14 Q1016=
201107302200 METAR LPPR 302200Z 00000KT 9000 NSC 16/14 Q1016=
201107302130 METAR LPPR 302130Z VRB02KT 9999 FEW008 16/15 Q1016=
201107302100 METAR LPPR 302100Z 24003KT CAVOK 17/15 Q1016=
201107302030 METAR LPPR 302030Z 33003KT 270V010 9000 NSC 17/15 Q1016=
201107302000 METAR LPPR 302000Z 31004KT 280V350 8000 NSC 17/15 Q1016=
201107301930 METAR LPPR 301930Z 30004KT 270V330 CAVOK 18/15 Q1016=
201107301900 METAR LPPR 301900Z 31007KT 280V350 CAVOK 18/15 Q1016=
201107301830 METAR LPPR 301830Z 32007KT 280V350 CAVOK 18/15 Q1016=
201107301800 METAR LPPR 301800Z 32008KT CAVOK 19/15 Q1016=
201107301730 METAR LPPR 301730Z 32007KT 290V350 CAVOK 20/16 Q1016=
201107301700 METAR LPPR 301700Z 32006KT 260V360 CAVOK 20/16 Q1017=
201107301630 METAR LPPR 301630Z 30007KT 260V340 CAVOK 20/16 Q1017=
201107301600 METAR LPPR 301600Z 31007KT 270V360 9999 FEW009 20/16 Q1017=
201107301530 METAR LPPR 301530Z 29006KT 230V340 9999 FEW009 SCT012 19/16
                        Q1017=
201107301500 METAR LPPR 301500Z 29006KT 230V340 9999 FEW009 20/15 Q1018=
201107301430 METAR LPPR 301430Z 29007KT 250V320 9999 FEW009 19/15 Q1018=
201107301400 METAR LPPR 301400Z 28005KT 210V340 9999 SCT009 BKN012 18/15
                        Q1018=
201107301330 METAR LPPR 301330Z 28007KT 240V320 8000 SCT009 BKN012 18/15
                        Q1018=
201107301300 METAR LPPR 301300Z 29006KT 230V350 7000 SCT008 BKN012/ 19/15
                        Q1018=
201107301230 METAR LPPR 301230Z 32009KT 280V350 5000 BKN009 BKN012 19/15
                        Q1018=
201107301200 METAR LPPR 301200Z 27006KT 240V320 6000 SCT009 BKN011 19/15
                        Q1018=
201107301130 METAR LPPR 301130Z 29007KT 250V320 6000 SCT009 BKN012 19/15
                        Q1018=
201107301100 METAR LPPR 301100Z 29006KT 240V320 7000 SCT009 BKN011 18/15
                        Q1018=
201107301030 METAR LPPR 301030Z 29005KT 250V320 7000 BKN009 BKN013 18/15
                        Q1018=
201107301000 METAR LPPR 301000Z 26006KT 220V300 6000 SCT009 BKN012 17/15
                        Q1018=
201107300930 METAR LPPR 300930Z 01004KT 320V070 4500 BR FEW005 OVC010
                        18/15 Q1018=
201107300900 METAR LPPR 300900Z 35005KT 300V040 5000 SCT008 OVC010 17/15
                        Q1018=
201107300830 METAR LPPR 300830Z 29004KT 6000 FEW006 SCT008 OVC010 17/15
                        Q1018=
201107300800 METAR LPPR 300800Z 31003KT 270V360 6000 OVC009 17/15 Q1018=
201107300730 METAR LPPR 300730Z VRB02KT 6000 BKN009 BKN011 17/15 Q1018=
201107300700 METAR LPPR 300700Z 25003KT 210V280 7000 SCT008 BKN009 17/15
                        Q1018=
201107300630 METAR LPPR 300630Z 21003KT 130V290 7000 OVC008 17/15 Q1017=
201107300600 METAR LPPR 300600Z 19004KT 7000 OVC008 16/15 Q1017=
201107300530 METAR LPPR 300530Z 20003KT 170V230 7000 FEW005 OVC007 16/15
                        Q1017=
201107300500 METAR LPPR 300500Z 20005KT 8000 OVC006 16/15 Q1017=
201107300430 METAR LPPR 300430Z 20005KT 170V230 8000 BKN005 BKN007 16/15
                        Q1017=
201107300400 METAR LPPR 300400Z 18006KT 150V220 7000 BKN004 BKN005 16/15
                        Q1017=
201107300330 METAR LPPR 300330Z 18006KT 160V220 7000 SCT004 BKN005 16/15
                        Q1017=
201107300300 METAR LPPR 300300Z 19005KT 150V250 7000 OVC005 16/15 Q1017=
201107300230 METAR LPPR 300230Z 19006KT 7000 OVC005 16/15 Q1017=
201107300200 METAR LPPR 300200Z 19006KT 7000 OVC004 16/15 Q1017=
201107300130 METAR LPPR 300130Z 18007KT 4000 BR SCT002 OVC005 16/15 Q1017=
201107300100 METAR LPPR 300100Z 18006KT 6000 SCT002 BKN004 16/15 Q1017=
201107300030 METAR LPPR 300030Z 18008KT 4000 BR BKN002 BKN004 16/15 Q1017=
201107300000 METAR LPPR 300000Z 17006KT 150V210 2000 BR BKN001 BKN003
                        16/15 Q1017=
201107292330 METAR LPPR 292330Z 21005KT 2500 BR BKN003 BKN005 16/15 Q1017=
201107292300 METAR LPPR 292300Z 18006KT 150V220 6000 OVC004 16/15 Q1017=
201107292230 METAR LPPR 292230Z 19006KT 7000 SCT004 BKN006 16/15 Q1017=
201107292200 METAR LPPR 292200Z 18007KT 8000 SCT004 BKN006 16/15 Q1017=
201107292130 METAR LPPR 292130Z 19006KT 7000 SCT003 BKN005 17/16 Q1017=
201107292100 METAR LPPR 292100Z 18006KT 8000 SCT003 BKN005 17/15 Q1016=
201107292030 METAR LPPR 292030Z 20005KT 6000 FEW003 SCT005 17/15 Q1016=
201107292000 METAR LPPR 292000Z 19005KT 8000 FEW008 17/15 Q1016=
201107291930 METAR LPPR 291930Z 21005KT 9000 FEW008 18/15 Q1016=
201107291900 METAR LPPR 291900Z 21004KT 170V260 9000 FEW008 18/16 Q1016=
201107291830 METAR LPPR 291830Z 23005KT 190V260 9000 FEW008 18/16 Q1015=
201107291800 METAR LPPR 291800Z 22007KT 190V270 9999 FEW008 18/16 Q1015=
201107291730 METAR LPPR 291730Z 22007KT 200V270 CAVOK 19/15 Q1015=
201107291700 METAR LPPR 291700Z 20008KT CAVOK 21/16 Q1015=
201107291630 METAR LPPR 291630Z 21007KT 170V250 CAVOK 21/15 Q1015=
201107291600 METAR LPPR 291600Z 20007KT 160V260 CAVOK 21/15 Q1016=
201107291530 METAR LPPR 291530Z 19007KT 160V230 CAVOK 21/16 Q1016=
201107291500 METAR LPPR 291500Z 21007KT 180V250 CAVOK 21/15 Q1016=
201107291430 METAR LPPR 291430Z 21007KT 150V260 CAVOK 21/15 Q1016=
201107291400 METAR LPPR 291400Z 22008KT 170V260 CAVOK 20/15 Q1016=
201107291330 METAR LPPR 291330Z 23008KT 180V270 CAVOK 21/15 Q1016=
201107291300 METAR LPPR 291300Z 22008KT 190V260 CAVOK 22/15 Q1016=
201107291230 METAR LPPR 291230Z 20010KT 170V230 CAVOK 21/15 Q1016=
201107291200 METAR LPPR 291200Z 19010KT 160V230 CAVOK 22/15 Q1016=
201107291130 METAR LPPR 291130Z 19011KT 170V230 CAVOK 22/15 Q1016=
201107291100 METAR LPPR 291100Z 19011KT 170V230 CAVOK 21/16 Q1016=
201107291030 METAR LPPR 291030Z 20009KT CAVOK 21/16 Q1016=
201107291000 METAR LPPR 291000Z 19010KT CAVOK 21/16 Q1016=
201107290930 METAR LPPR 290930Z 20008KT 160V230 8000 NSC 21/16 Q1016=
201107290900 METAR LPPR 290900Z 20009KT CAVOK 22/15 Q1015=
201107290830 METAR LPPR 290830Z 18008KT CAVOK 21/15 Q1016=
201107290800 METAR LPPR 290800Z 17010KT CAVOK 21/15 Q1015=
201107290730 METAR LPPR 290730Z 17011KT CAVOK 20/15 Q1015=
201107290700 METAR LPPR 290700Z 18009KT 9000 NSC 18/16 Q1015=
201107290630 METAR LPPR 290630Z 19006KT 8000 NSC 17/15 Q1015=
201107290600 METAR LPPR 290600Z 18006KT 7000 NSC 16/15 Q1015=
201107290530 METAR LPPR 290530Z 17008KT 7000 NSC 15/14 Q1015=
201107290500 METAR LPPR 290500Z 18005KT 9000 NSC 16/15 Q1015=
201107290430 METAR LPPR 290430Z 17008KT 9000 NSC 16/15 Q1014=
201107290400 METAR LPPR 290400Z 17007KT 9000 NSC 15/14 Q1014=
201107290330 METAR LPPR 290330Z 19005KT CAVOK 16/14 Q1014=
201107290300 METAR LPPR 290300Z 20005KT CAVOK 17/15 Q1014=
201107290230 METAR LPPR 290230Z 18006KT CAVOK 16/14 Q1014=
201107290200 METAR LPPR 290200Z 19005KT CAVOK 17/15 Q1015=
201107290130 METAR LPPR 290130Z 17007KT CAVOK 16/14 Q1015=
201107290100 METAR LPPR 290100Z 17008KT CAVOK 16/14 Q1015=
201107290030 METAR LPPR 290030Z 18010KT CAVOK 16/14 Q1015=
201107290000 METAR LPPR 290000Z 19005KT CAVOK 16/14 Q1015=
201107282330 METAR LPPR 282330Z 20005KT CAVOK 16/14 Q1015=
201107282300 METAR LPPR 282300Z 23004KT CAVOK 16/14 Q1015=
201107282230 METAR LPPR 282230Z 22003KT CAVOK 17/14 Q1015=
201107282200 METAR LPPR 282200Z 23003KT 180V260 CAVOK 18/14 Q1014=
201107282130 METAR LPPR 282130Z 00000KT CAVOK 18/15 Q1014=
201107282100 METAR LPPR 282100Z 00000KT CAVOK 19/14 Q1014=
201107282030 METAR LPPR 282030Z VRB01KT CAVOK 20/15 Q1014=
201107282000 METAR LPPR 282000Z VRB01KT CAVOK 22/15 Q1014=
201107281930 METAR LPPR 281930Z 30003KT 270V330 CAVOK 24/15 Q1014=
201107281900 METAR LPPR 281900Z 31003KT 290V360 CAVOK 27/15 Q1013=
201107281830 METAR LPPR 281830Z 35008KT CAVOK 29/12 Q1013=
201107281800 METAR LPPR 281800Z 34007KT CAVOK 28/13 Q1013=
201107281730 METAR LPPR 281730Z 32007KT CAVOK 29/13 Q1013=
201107281700 METAR LPPR 281700Z 33008KT CAVOK 30/12 Q1014=
201107281630 METAR LPPR 281630Z 33009KT 300V360 CAVOK 30/11 Q1014=
201107281600 METAR LPPR 281600Z 32008KT CAVOK 30/12 Q1014=
201107281530 METAR LPPR 281530Z 32008KT CAVOK 31/12 Q1014=
201107281500 METAR LPPR 281500Z 32008KT 290V350 CAVOK 30/12 Q1014=
201107281430 METAR LPPR 281430Z 33008KT CAVOK 31/13 Q1015=
201107281400 METAR LPPR 281400Z 32009KT 290V350 CAVOK 31/12 Q1015=
201107281330 METAR LPPR 281330Z 32009KT 280V350 CAVOK 31/14 Q1015=
201107281300 METAR LPPR 281300Z 31010KT CAVOK 31/15 Q1014=
201107281230 METAR LPPR 281230Z 28005KT 230V330 CAVOK 31/13 Q1015=
201107281200 METAR LPPR 281200Z 36006KT 290V060 CAVOK 33/09 Q1015=
201107281130 METAR LPPR 281130Z 05007KT 360V100 CAVOK 32/09 Q1015=
201107281100 METAR LPPR 281100Z 05007KT 010V070 CAVOK 32/10 Q1015=
201107281030 METAR LPPR 281030Z 09007KT 010V130 CAVOK 31/10 Q1015=
201107281000 METAR LPPR 281000Z 08008KT 050V110 CAVOK 30/09 Q1015=
201107280930 METAR LPPR 280930Z 08008KT 050V110 CAVOK 29/10 Q1015=
201107280900 METAR LPPR 280900Z 08010KT 040V140 CAVOK 28/10 Q1015=
201107280830 METAR LPPR 280830Z 08011KT 050V110 CAVOK 27/10 Q1015=
201107280800 METAR LPPR 280800Z 07009KT 040V110 CAVOK 26/11 Q1015=
201107280730 METAR LPPR 280730Z 08009KT 050V110 CAVOK 25/09 Q1015=
201107280700 METAR LPPR 280700Z 08006KT 030V120 CAVOK 24/09 Q1015=
201107280630 METAR LPPR 280630Z 07007KT CAVOK 22/10 Q1014=
201107280600 METAR LPPR 280600Z VRB06KT CAVOK 20/11 Q1014=
201107280530 METAR LPPR 280530Z 05005KT 350V110 CAVOK 21/10 Q1014=
201107280500 METAR LPPR 280500Z 04005KT 020V080 CAVOK 20/11 Q1014=
201107280430 METAR LPPR 280430Z 04003KT CAVOK 14/12 Q1014=
201107280400 METAR LPPR 280400Z 01005KT CAVOK 14/12 Q1014=
201107280330 METAR LPPR 280330Z 02004KT CAVOK 15/12 Q1014=
201107280300 METAR LPPR 280300Z 03003KT CAVOK 15/13 Q1014=
201107280230 METAR LPPR 280230Z 01003KT CAVOK 15/12 Q1014=
201107280200 METAR LPPR 280200Z VRB02KT CAVOK 17/13 Q1014=
201107280130 METAR LPPR 280130Z 02003KT CAVOK 16/13 Q1014=
201107280100 METAR LPPR 280100Z 02003KT CAVOK 16/13 Q1014=
201107280030 METAR LPPR 280030Z VRB02KT CAVOK 17/12 Q1014=
201107280000 METAR LPPR 280000Z 00000KT CAVOK 18/13 Q1014=
201107272330 METAR LPPR 272330Z VRB02KT CAVOK 19/13 Q1014=
201107272300 METAR LPPR 272300Z VRB01KT CAVOK 20/13 Q1014=
201107272230 METAR LPPR 272230Z 35004KT CAVOK 21/13 Q1014=
201107272200 METAR LPPR 272200Z 34004KT CAVOK 20/14 Q1014=
201107272130 METAR LPPR 272130Z 34004KT CAVOK 21/14 Q1014=
201107272100 METAR LPPR 272100Z 34005KT CAVOK 21/14 Q1013=
201107272030 METAR LPPR 272030Z 34005KT CAVOK 22/14 Q1013=
201107272000 METAR LPPR 272000Z 34006KT CAVOK 23/14 Q1013=
201107271930 METAR LPPR 271930Z 34007KT CAVOK 23/14 Q1013=
201107271900 METAR LPPR 271900Z 34010KT CAVOK 24/14 Q1013=
201107271830 METAR LPPR 271830Z 35008KT CAVOK 24/14 Q1013=
201107271800 METAR LPPR 271800Z 35009KT CAVOK 25/14 Q1013=
201107271730 METAR LPPR 271730Z 34010KT CAVOK 26/14 Q1013=
201107271700 METAR LPPR 271700Z 33011KT CAVOK 27/14 Q1013=
201107271630 METAR LPPR 271630Z 34009KT CAVOK 28/14 Q1013=
201107271600 METAR LPPR 271600Z 33010KT CAVOK 27/14 Q1013=
201107271530 METAR LPPR 271530Z 32010KT CAVOK 27/15 Q1014=
201107271500 METAR LPPR 271500Z 34013KT CAVOK 28/12 Q1014=
201107271430 METAR LPPR 271430Z 33011KT 290V350 CAVOK 28/13 Q1014=
201107271400 METAR LPPR 271400Z 33011KT CAVOK 28/13 Q1014=
201107271330 METAR LPPR 271330Z 32011KT CAVOK 28/13 Q1014=
201107271300 METAR LPPR 271300Z 32010KT CAVOK 27/13 Q1014=
201107271230 METAR LPPR 271230Z 32008KT 270V340 CAVOK 28/14 Q1014=
201107271200 METAR LPPR 271200Z 31007KT 270V360 CAVOK 27/13 Q1014=
201107271130 METAR LPPR 271130Z 02008KT 330V060 CAVOK 30/10 Q1015=
201107271100 METAR LPPR 271100Z 01007KT 330V050 CAVOK 28/12 Q1015=
201107271030 METAR LPPR 271030Z 03007KT 350V060 CAVOK 28/10 Q1015=
201107271000 METAR LPPR 271000Z 03007KT 360V060 CAVOK 28/10 Q1015=
201107270930 METAR LPPR 270930Z 05006KT 320V110 CAVOK 27/11 Q1015=
201107270900 METAR LPPR 270900Z 04007KT CAVOK 26/11 Q1015=
201107270830 METAR LPPR 270830Z 02006KT 360V060 CAVOK 24/10 Q1015=
201107270800 METAR LPPR 270800Z 02005KT 340V080 CAVOK 23/10 Q1015=
201107270730 METAR LPPR 270730Z 02003KT 290V070 CAVOK 22/09 Q1014=
201107270700 METAR LPPR 270700Z VRB02KT CAVOK 19/12 Q1014=
201107270630 METAR LPPR 270630Z VRB01KT CAVOK 17/11 Q1014=
201107270600 METAR LPPR 270600Z 36004KT CAVOK 15/10 Q1014=
201107270530 METAR LPPR 270530Z 35006KT CAVOK 14/10 Q1014=
201107270500 METAR LPPR 270500Z 01004KT CAVOK 14/11 Q1013=
201107270430 METAR LPPR 270430Z 35005KT CAVOK 14/11 Q1013=
201107270400 METAR LPPR 270400Z 34003KT CAVOK 14/11 Q1013=
201107270330 METAR LPPR 270330Z 34003KT 320V020 CAVOK 15/10 Q1013=
201107270300 METAR LPPR 270300Z VRB01KT CAVOK 15/11 Q1013=
201107270230 METAR LPPR 270230Z 35005KT CAVOK 16/11 Q1013=
201107270200 METAR LPPR 270200Z 36004KT CAVOK 16/11 Q1013=
201107270130 METAR LPPR 270130Z 34006KT CAVOK 18/11 Q1013=
201107270100 METAR LPPR 270100Z 35006KT 320V020 CAVOK 19/12 Q1013=
201107270030 METAR LPPR 270030Z 34010KT CAVOK 20/12 Q1013=
201107270000 METAR LPPR 270000Z 36006KT CAVOK 20/13 Q1013=
201107262330 METAR LPPR 262330Z 35005KT CAVOK 21/14 Q1013=
201107262300 METAR LPPR 262300Z 36006KT CAVOK 21/14 Q1013=
201107262230 METAR LPPR 262230Z 34007KT CAVOK 21/14 Q1013=
201107262200 METAR LPPR 262200Z 32010KT CAVOK 21/14 Q1013=
201107262130 METAR LPPR 262130Z 33007KT CAVOK 21/14 Q1013=
201107262100 METAR LPPR 262100Z 36005KT CAVOK 21/14 Q1013=
201107262030 METAR LPPR 262030Z 34010KT CAVOK 21/14 Q1013=
201107262000 METAR LPPR 262000Z 35008KT CAVOK 21/14 Q1013=
201107261930 METAR LPPR 261930Z 34009KT CAVOK 21/14 Q1013=
201107261900 METAR LPPR 261900Z 34009KT CAVOK 22/14 Q1012=
201107261830 METAR LPPR 261830Z 33011KT CAVOK 23/14 Q1012=
201107261800 METAR LPPR 261800Z 34010KT CAVOK 24/14 Q1013=
201107261730 METAR LPPR 261730Z 34012KT CAVOK 24/14 Q1013=
201107261700 METAR LPPR 261700Z 33012KT CAVOK 24/15 Q1013=
201107261630 METAR LPPR 261630Z 33012KT CAVOK 24/15 Q1013=
201107261600 METAR LPPR 261600Z 35014KT CAVOK 24/15 Q1013=
201107261530 METAR LPPR 261530Z 34014KT 310V010 CAVOK 24/15 Q1013=
201107261500 METAR LPPR 261500Z 34011KT CAVOK 24/15 Q1013=
201107261430 METAR LPPR 261430Z 35018KT CAVOK 24/15 Q1014=
201107261400 METAR LPPR 261400Z 34013KT CAVOK 25/16 Q1014=
201107261330 METAR LPPR 261330Z 33009KT 300V360 CAVOK 23/16 Q1014=
201107261300 METAR LPPR 261300Z 33010KT 290V350 CAVOK 23/16 Q1014=
201107261230 METAR LPPR 261230Z 32011KT 290V350 CAVOK 24/16 Q1015=
201107261200 METAR LPPR 261200Z 32009KT CAVOK 24/16 Q1015=
201107261130 METAR LPPR 261130Z 32008KT 290V350 CAVOK 24/16 Q1015=
201107261100 METAR LPPR 261100Z 32010KT CAVOK 25/17 Q1015=
201107261030 METAR LPPR 261030Z 32010KT CAVOK 24/17 Q1015=
201107261000 METAR LPPR 261000Z 31009KT 270V340 CAVOK 23/17 Q1015=
201107260930 METAR LPPR 260930Z 32006KT 280V020 CAVOK 23/18 Q1015=
201107260900 METAR LPPR 260900Z 33006KT 270V020 CAVOK 23/18 Q1015=
201107260830 METAR LPPR 260830Z 34006KT 290V020 CAVOK 21/17 Q1015=
201107260800 METAR LPPR 260800Z 34006KT CAVOK 20/17 Q1015=
201107260730 METAR LPPR 260730Z 34006KT CAVOK 19/17 Q1015=
201107260700 METAR LPPR 260700Z 34005KT CAVOK 18/17 Q1015=
201107260630 METAR LPPR 260630Z 35004KT CAVOK 17/16 Q1015=
201107260600 METAR LPPR 260600Z 35006KT 8000 NSC 16/16 Q1015=
201107260530 METAR LPPR 260530Z 34006KT 9000 NSC 16/15 Q1015=
201107260500 METAR LPPR 260500Z 34007KT CAVOK 16/15 Q1015=
201107260430 METAR LPPR 260430Z 34006KT CAVOK 16/15 Q1014=
201107260400 METAR LPPR 260400Z 35004KT CAVOK 16/15 Q1014=
201107260330 METAR LPPR 260330Z 36007KT 9999 FEW002 16/15 Q1015=
201107260300 METAR LPPR 260300Z 34009KT 9999 FEW003 16/15 Q1015=
201107260230 METAR LPPR 260230Z 35007KT 9999 SCT002 16/15 Q1015=
201107260200 METAR LPPR 260200Z 36008KT 9999 FEW002 SCT004 16/15 Q1015=
201107260130 METAR LPPR 260130Z 35005KT 9999 FEW002 17/15 Q1015=
201107260100 METAR LPPR 260100Z 34008KT CAVOK 17/16 Q1015=
201107260030 METAR LPPR 260030Z 36004KT 330V040 CAVOK 17/15 Q1015=
201107260000 METAR LPPR 260000Z 36006KT CAVOK 18/16 Q1016=
201107252330 METAR LPPR 252330Z 35008KT CAVOK 18/16 Q1016=
201107252300 METAR LPPR 252300Z 34006KT CAVOK 17/16 Q1016=
201107252230 METAR LPPR 252230Z 35007KT CAVOK 18/16 Q1016=
201107252200 METAR LPPR 252200Z 35008KT CAVOK 18/16 Q1016=
201107252130 METAR LPPR 252130Z 33008KT CAVOK 18/16 Q1016=
201107252100 METAR LPPR 252100Z 33009KT CAVOK 18/16 Q1016=
201107252030 METAR LPPR 252030Z 35011KT CAVOK 19/16 Q1015=
201107252000 METAR LPPR 252000Z 35011KT CAVOK 20/16 Q1015=
201107251930 METAR LPPR 251930Z 34011KT CAVOK 21/16 Q1015=
201107251900 METAR LPPR 251900Z 33014KT CAVOK 21/16 Q1015=
201107251830 METAR LPPR 251830Z 34014KT CAVOK 22/16 Q1015=
201107251800 METAR LPPR 251800Z 34015KT CAVOK 22/16 Q1016=
201107251730 METAR LPPR 251730Z 33018KT CAVOK 22/16 Q1016=
201107251700 METAR LPPR 251700Z 34016G26KT CAVOK 23/16 Q1016=
201107251630 METAR LPPR 251630Z 33013G23KT 300V360 CAVOK 24/17 Q1016=
201107251600 METAR LPPR 251600Z 34015KT CAVOK 23/17 Q1016=
201107251530 METAR LPPR 251530Z 33014G24KT 290V360 CAVOK 24/17 Q1016=
201107251500 METAR LPPR 251500Z 34015KT 9999 FEW008 24/17 Q1016=
201107251430 METAR LPPR 251430Z 35018KT 9999 FEW008 23/17 Q1017=
201107251400 METAR LPPR 251400Z 33012KT 300V010 9999 FEW008 24/17 Q1017=
201107251330 METAR LPPR 251330Z 31010KT 9999 FEW008 23/17 Q1017=
201107251300 METAR LPPR 251300Z 33012KT CAVOK 23/17 Q1017=
201107251230 METAR LPPR 251230Z 32011KT CAVOK 24/17 Q1018=
201107251200 METAR LPPR 251200Z 32009KT CAVOK 25/17 Q1017=
201107251130 METAR LPPR 251130Z 32011KT CAVOK 25/16 Q1017=
201107251030 METAR LPPR 251030Z 32009KT 280V350 CAVOK 24/16 Q1018=
201107251000 METAR LPPR 251000Z 31008KT 280V340 CAVOK 24/16 Q1018=
201107250930 METAR LPPR 250930Z 31005KT 270V340 CAVOK 23/16 Q1018=
201107250900 METAR LPPR 250900Z 32005KT CAVOK 23/16 Q1018=
201107250830 METAR LPPR 250830Z 35007KT 310V020 CAVOK 22/16 Q1018=
201107250800 METAR LPPR 250800Z 35008KT 330V030 CAVOK 22/15 Q1018=
201107250730 METAR LPPR 250730Z 35006KT CAVOK 21/15 Q1018=
201107250700 METAR LPPR 250700Z 34005KT CAVOK 19/15 Q1018=
201107250630 METAR LPPR 250630Z 35008KT CAVOK 19/15 Q1017=
201107250600 METAR LPPR 250600Z 35007KT CAVOK 18/15 Q1017=
201107250530 METAR LPPR 250530Z 03004KT 340V090 CAVOK 17/15 Q1017=
201107250500 METAR LPPR 250500Z 35005KT CAVOK 17/15 Q1017=
201107250430 METAR LPPR 250430Z 35005KT CAVOK 17/15 Q1017=
201107250400 METAR LPPR 250400Z 36006KT CAVOK 18/15 Q1017=
201107250330 METAR LPPR 250330Z 35009KT CAVOK 18/15 Q1017=
201107250300 METAR LPPR 250300Z 35007KT CAVOK 18/15 Q1017=
201107250230 METAR LPPR 250230Z 35007KT CAVOK 17/15 Q1017=
201107250200 METAR LPPR 250200Z 34008KT CAVOK 17/15 Q1017=
201107250130 METAR LPPR 250130Z 00000KT CAVOK 17/15 Q1018=
201107250100 METAR LPPR 250100Z VRB02KT CAVOK 17/15 Q1018=
201107250030 METAR LPPR 250030Z VRB01KT CAVOK 17/15 Q1018=
201107250000 METAR LPPR 250000Z 35003KT 270V080 CAVOK 17/15 Q1018=
201107242330 METAR LPPR 242330Z 35010KT CAVOK 18/15 Q1018=
201107242300 METAR LPPR 242300Z 34012KT CAVOK 18/15 Q1018=
201107242230 METAR LPPR 242230Z 34011KT CAVOK 18/15 Q1018=
201107242200 METAR LPPR 242200Z 35013KT CAVOK 18/15 Q1018=
201107242130 METAR LPPR 242130Z 34010KT CAVOK 18/15 Q1018=
201107242100 METAR LPPR 242100Z 34009KT CAVOK 19/15 Q1018=
201107242030 METAR LPPR 242030Z 34009KT CAVOK 18/15 Q1017=
201107242000 METAR LPPR 242000Z 34013KT CAVOK 19/15 Q1017=
201107241930 METAR LPPR 241930Z 34010KT CAVOK 21/16 Q1017=
201107241900 METAR LPPR 241900Z 34011KT CAVOK 21/16 Q1017=
201107241830 METAR LPPR 241830Z 34015KT CAVOK 21/16 Q1017=
201107241800 METAR LPPR 241800Z 33013KT CAVOK 22/16 Q1017=
201107241730 METAR LPPR 241730Z 34014KT 310V010 CAVOK 22/16 Q1017=
201107241700 METAR LPPR 241700Z 34018KT CAVOK 22/16 Q1017=
201107241630 METAR LPPR 241630Z 33014KT 9999 FEW025 23/16 Q1017=
201107241600 METAR LPPR 241600Z 33013KT 300V010 9999 FEW025 23/16 Q1017=
201107241530 METAR LPPR 241530Z 34017G27KT 9999 FEW025 23/16 Q1018=
201107241500 METAR LPPR 241500Z 34012KT 300V010 9999 FEW025 23/16 Q1018=
201107241430 METAR LPPR 241430Z 34015KT 9999 FEW025 23/16 Q1018=
201107241400 METAR LPPR 241400Z 34015KT 9999 FEW025 24/16 Q1018=
201107241330 METAR LPPR 241330Z 32012KT 9999 FEW025 24/16 Q1018=
201107241300 METAR LPPR 241300Z 32011KT 9999 FEW025 24/16 Q1018=
201107241230 METAR LPPR 241230Z 34011KT 310V010 9999 FEW025 24/15 Q1018=
201107241200 METAR LPPR 241200Z 32008KT 290V350 9999 FEW025 24/15 Q1018=
201107241130 METAR LPPR 241130Z 33011KT 9999 FEW025 24/15 Q1018=
201107241100 METAR LPPR 241100Z 31008KT 280V340 9999 FEW025 24/15 Q1019=
201107241030 METAR LPPR 241030Z 31008KT 280V340 CAVOK 23/14 Q1019=
201107241000 METAR LPPR 241000Z 32007KT 280V010 CAVOK 24/14 Q1019=
201107240930 METAR LPPR 240930Z 35011KT CAVOK 25/13 Q1019=
201107240900 METAR LPPR 240900Z 35009KT CAVOK 23/12 Q1019=
201107240830 METAR LPPR 240830Z 36007KT CAVOK 23/12 Q1019=
201107240800 METAR LPPR 240800Z 01006KT 340V040 CAVOK 22/11 Q1018=
201107240730 METAR LPPR 240730Z 36007KT 330V050 CAVOK 21/11 Q1018=
201107240700 METAR LPPR 240700Z 36005KT CAVOK 19/11 Q1018=
201107240630 METAR LPPR 240630Z 35006KT CAVOK 17/11 Q1018=
201107240600 METAR LPPR 240600Z 35007KT CAVOK 17/10 Q1018=
201107240530 METAR LPPR 240530Z 35008KT CAVOK 16/10 Q1017=
201107240500 METAR LPPR 240500Z 34007KT CAVOK 17/10 Q1017=
201107240430 METAR LPPR 240430Z 34006KT 290V010 CAVOK 17/10 Q1017=
201107240400 METAR LPPR 240400Z 35004KT CAVOK 15/11 Q1017=
201107240330 METAR LPPR 240330Z 35006KT CAVOK 15/10 Q1017=
201107240300 METAR LPPR 240300Z 34006KT CAVOK 16/10 Q1017=
201107240230 METAR LPPR 240230Z 36004KT 330V030 CAVOK 16/11 Q1017=
201107240200 METAR LPPR 240200Z 34006KT CAVOK 17/10 Q1017=
201107240130 METAR LPPR 240130Z 34005KT CAVOK 17/11 Q1017=
201107240100 METAR LPPR 240100Z 33008KT CAVOK 17/11 Q1017=
201107240030 METAR LPPR 240030Z 35007KT CAVOK 16/11 Q1016=
201107240000 METAR LPPR 240000Z 36006KT CAVOK 17/11 Q1016=
201107232330 METAR LPPR 232330Z 33008KT CAVOK 19/10 Q1016=
201107232300 METAR LPPR 232300Z 33008KT CAVOK 18/11 Q1016=
201107232230 METAR LPPR 232230Z VRB02KT CAVOK 18/11 Q1016=
201107232200 METAR LPPR 232200Z 34006KT CAVOK 18/12 Q1016=
201107232130 METAR LPPR 232130Z 34007KT CAVOK 18/13 Q1016=
201107232100 METAR LPPR 232100Z 34007KT CAVOK 18/13 Q1016=
201107232030 METAR LPPR 232030Z 34006KT CAVOK 18/13 Q1015=
201107232000 METAR LPPR 232000Z 34009KT CAVOK 19/13 Q1015=
201107231930 METAR LPPR 231930Z 34009KT CAVOK 21/13 Q1015=
201107231900 METAR LPPR 231900Z 35013KT CAVOK 22/13 Q1015=
201107231830 METAR LPPR 231830Z 33011KT CAVOK 23/13 Q1015=
201107231800 METAR LPPR 231800Z 34009KT CAVOK 25/13 Q1015=
201107231730 METAR LPPR 231730Z 34010KT CAVOK 25/12 Q1015=
201107231700 METAR LPPR 231700Z 34009KT CAVOK 25/13 Q1015=
201107231630 METAR LPPR 231630Z 32008KT CAVOK 25/13 Q1015=
201107231600 METAR LPPR 231600Z 32007KT 300V360 CAVOK 25/14 Q1015=
201107231530 METAR LPPR 231530Z 32009KT 280V350 CAVOK 25/14 Q1015=
201107231500 METAR LPPR 231500Z 33011KT 300V360 CAVOK 26/13 Q1015=
201107231430 METAR LPPR 231430Z 31008KT 280V010 CAVOK 25/13 Q1015=
201107231400 METAR LPPR 231400Z 32011KT CAVOK 25/13 Q1015=
201107231330 METAR LPPR 231330Z 32011KT 290V350 CAVOK 25/12 Q1015=
201107231300 METAR LPPR 231300Z 31009KT CAVOK 26/13 Q1015=
201107231230 METAR LPPR 231230Z 31009KT 280V340 CAVOK 25/13 Q1015=
201107231200 METAR LPPR 231200Z 32008KT CAVOK 25/13 Q1015=
201107231130 METAR LPPR 231130Z 33010KT CAVOK 24/14 Q1016=
201107231100 METAR LPPR 231100Z 31008KT 270V340 CAVOK 23/13 Q1015=
201107231030 METAR LPPR 231030Z 31008KT 280V340 CAVOK 23/13 Q1015=
201107231000 METAR LPPR 231000Z 02007KT 290V070 CAVOK 24/14 Q1015=
201107230930 METAR LPPR 230930Z 03006KT 360V070 CAVOK 23/11 Q1015=
201107230900 METAR LPPR 230900Z 04008KT 010V070 CAVOK 23/11 Q1015=
201107230830 METAR LPPR 230830Z 02007KT 350V050 CAVOK 22/11 Q1015=
201107230800 METAR LPPR 230800Z 01006KT CAVOK 20/12 Q1015=
201107230730 METAR LPPR 230730Z 35005KT CAVOK 18/13 Q1015=
201107230700 METAR LPPR 230700Z 36005KT CAVOK 16/12 Q1014=
201107230630 METAR LPPR 230630Z 35003KT CAVOK 14/11 Q1014=
201107230600 METAR LPPR 230600Z VRB04KT CAVOK 11/10 Q1014=
201107230530 METAR LPPR 230530Z 36005KT CAVOK 12/10 Q1014=
201107230500 METAR LPPR 230500Z 36005KT CAVOK 11/10 Q1014=
201107230430 METAR LPPR 230430Z 01002KT CAVOK 12/10 Q1013=
201107230400 METAR LPPR 230400Z 36002KT CAVOK 12/10 Q1013=
201107230330 METAR LPPR 230330Z VRB02KT CAVOK 13/11 Q1013=
201107230300 METAR LPPR 230300Z 34005KT CAVOK 14/11 Q1013=
201107230230 METAR LPPR 230230Z 35005KT CAVOK 14/11 Q1013=
201107230200 METAR LPPR 230200Z 35004KT CAVOK 14/11 Q1013=
201107230130 METAR LPPR 230130Z 34003KT CAVOK 14/11 Q1013=
201107230100 METAR LPPR 230100Z 34005KT CAVOK 15/11 Q1013=
201107230030 METAR LPPR 230030Z 34004KT CAVOK 16/12 Q1013=
201107230000 METAR LPPR 230000Z 35003KT CAVOK 15/11 Q1013=
201107222330 METAR LPPR 222330Z 33003KT CAVOK 17/12 Q1013=
201107222300 METAR LPPR 222300Z 01004KT CAVOK 17/12 Q1013=
201107222230 METAR LPPR 222230Z 33005KT CAVOK 17/13 Q1013=
201107222200 METAR LPPR 222200Z VRB02KT CAVOK 16/13 Q1013=
201107222130 METAR LPPR 222130Z 34006KT CAVOK 17/13 Q1013=
201107222100 METAR LPPR 222100Z 34006KT CAVOK 18/13 Q1013=
201107222030 METAR LPPR 222030Z 34008KT CAVOK 18/13 Q1012=
201107222000 METAR LPPR 222000Z 33010KT CAVOK 19/13 Q1012=
201107221930 METAR LPPR 221930Z 34010KT CAVOK 19/13 Q1012=
201107221900 METAR LPPR 221900Z 34012KT CAVOK 20/13 Q1012=
201107221830 METAR LPPR 221830Z 35015KT CAVOK 21/13 Q1012=
201107221800 METAR LPPR 221800Z 34012KT CAVOK 21/13 Q1012=
201107221730 METAR LPPR 221730Z 34013KT CAVOK 21/12 Q1012=
201107221700 METAR LPPR 221700Z 34016KT CAVOK 22/12 Q1012=
201107221630 METAR LPPR 221630Z 34016KT 9999 FEW016 22/12 Q1012=
201107221600 METAR LPPR 221600Z 34015KT CAVOK 23/12 Q1012=
201107221530 METAR LPPR 221530Z 33011KT 280V010 9999 FEW030 23/12 Q1012=
201107221500 METAR LPPR 221500Z 32011KT 9999 FEW030 22/13 Q1012=
201107221430 METAR LPPR 221430Z 32012KT 290V360 CAVOK 22/13 Q1012=
201107221400 METAR LPPR 221400Z 32011KT 290V350 CAVOK 24/13 Q1013=
201107221330 METAR LPPR 221330Z 33013KT CAVOK 23/13 Q1013=
201107221300 METAR LPPR 221300Z 33014KT CAVOK 22/13 Q1013=
201107221230 METAR LPPR 221230Z 32012KT CAVOK 22/13 Q1013=
201107221200 METAR LPPR 221200Z 32012KT CAVOK 22/13 Q1013=
201107221130 METAR LPPR 221130Z 32010KT CAVOK 22/12 Q1013=
201107221100 METAR LPPR 221100Z 31009KT 280V340 CAVOK 22/13 Q1013=
201107221030 METAR LPPR 221030Z 32008KT 280V350 CAVOK 22/13 Q1013=
201107221000 METAR LPPR 221000Z 35011KT 330V030 CAVOK 23/11 Q1013=
201107220930 METAR LPPR 220930Z 36010KT 330V030 CAVOK 22/10 Q1013=
201107220900 METAR LPPR 220900Z 36011KT CAVOK 21/11 Q1013=
201107220830 METAR LPPR 220830Z 02009KT 350V050 CAVOK 20/10 Q1013=
201107220800 METAR LPPR 220800Z 01008KT CAVOK 19/10 Q1013=
201107220730 METAR LPPR 220730Z 36009KT CAVOK 17/10 Q1013=
201107220700 METAR LPPR 220700Z 35008KT CAVOK 16/10 Q1013=
201107220630 METAR LPPR 220630Z 35007KT CAVOK 15/10 Q1013=
201107220600 METAR LPPR 220600Z 36007KT CAVOK 13/10 Q1013=
201107220530 METAR LPPR 220530Z 35008KT CAVOK 14/09 Q1013=
201107220500 METAR LPPR 220500Z 34008KT CAVOK 14/09 Q1013=
201107220430 METAR LPPR 220430Z 35007KT CAVOK 15/10 Q1012=
201107220400 METAR LPPR 220400Z 34005KT CAVOK 15/10 Q1012=
201107220330 METAR LPPR 220330Z 34007KT CAVOK 15/10 Q1012=
201107220300 METAR LPPR 220300Z 34006KT CAVOK 15/10 Q1012=
201107220230 METAR LPPR 220230Z 35006KT CAVOK 15/10 Q1012=
201107220200 METAR LPPR 220200Z 34006KT CAVOK 15/10 Q1012=
201107220130 METAR LPPR 220130Z 35008KT CAVOK 15/10 Q1012=
201107220100 METAR LPPR 220100Z 33006KT CAVOK 15/11 Q1012=
201107220030 METAR LPPR 220030Z 34006KT CAVOK 16/11 Q1012=
201107220000 METAR LPPR 220000Z 33006KT 300V360 CAVOK 16/11 Q1012=
201107212330 METAR LPPR 212330Z 34007KT CAVOK 16/11 Q1013=
201107212300 METAR LPPR 212300Z 35003KT 310V040 CAVOK 17/12 Q1013=
201107212230 METAR LPPR 212230Z VRB04KT CAVOK 17/12 Q1013=
201107212200 METAR LPPR 212200Z 35006KT CAVOK 16/12 Q1013=
201107212130 METAR LPPR 212130Z 35011KT CAVOK 17/13 Q1013=
201107212100 METAR LPPR 212100Z 35012KT CAVOK 17/13 Q1013=
201107212030 METAR LPPR 212030Z 35013KT CAVOK 17/13 Q1012=
201107212000 METAR LPPR 212000Z 35015KT CAVOK 17/13 Q1013=
201107211930 METAR LPPR 211930Z 34017KT CAVOK 18/13 Q1013=
201107211900 METAR LPPR 211900Z 34018KT CAVOK 18/13 Q1013=
201107211830 METAR LPPR 211830Z 35018KT CAVOK 19/13 Q1012=
201107211800 METAR LPPR 211800Z 34019KT CAVOK 19/13 Q1013=
201107211730 METAR LPPR 211730Z 34018G28KT CAVOK 20/13 Q1013=
201107211700 METAR LPPR 211700Z 34020KT CAVOK 21/13 Q1013=
201107211630 METAR LPPR 211630Z 34020KT CAVOK 21/13 Q1013=
201107211600 METAR LPPR 211600Z 34018KT CAVOK 21/13 Q1013=
201107211530 METAR LPPR 211530Z 34020KT CAVOK 21/13 Q1013=
201107211500 METAR LPPR 211500Z 34017KT CAVOK 21/13 Q1014=
201107211430 METAR LPPR 211430Z 33014KT 290V360 CAVOK 21/13 Q1014=
201107211400 METAR LPPR 211400Z 32012KT 290V360 CAVOK 21/14 Q1014=
201107211330 METAR LPPR 211330Z 33016KT 290V350 CAVOK 22/14 Q1014=
201107211300 METAR LPPR 211300Z 32014KT CAVOK 21/14 Q1014=
201107211230 METAR LPPR 211230Z 32015KT 290V350 CAVOK 21/14 Q1015=
201107211200 METAR LPPR 211200Z 33015KT CAVOK 21/14 Q1015=
201107211130 METAR LPPR 211130Z 32012KT CAVOK 21/14 Q1015=
201107211100 METAR LPPR 211100Z 33012KT 280V350 CAVOK 21/14 Q1015=
201107211030 METAR LPPR 211030Z 32010KT 300V360 9999 FEW015 20/14 Q1015=
201107211000 METAR LPPR 211000Z 32008KT 280V350 9999 FEW015 20/14 Q1016=
201107210930 METAR LPPR 210930Z 02012KT 340V050 9999 FEW017 21/13 Q1016=
201107210900 METAR LPPR 210900Z 36012KT 330V030 9999 FEW017 20/13 Q1016=
201107210830 METAR LPPR 210830Z 34010KT CAVOK 19/15 Q1016=
201107210800 METAR LPPR 210800Z 35010KT CAVOK 18/15 Q1016=
201107210730 METAR LPPR 210730Z 36009KT CAVOK 17/15 Q1016=
201107210700 METAR LPPR 210700Z 35007KT CAVOK 16/15 Q1016=
201107210630 METAR LPPR 210630Z 36006KT 330V030 CAVOK 15/14 Q1016=
201107210600 METAR LPPR 210600Z 36006KT 330V060 CAVOK 14/14 Q1016=
201107210530 METAR LPPR 210530Z VRB03KT CAVOK 14/13 Q1015=
201107210500 METAR LPPR 210500Z 36005KT CAVOK 14/14 Q1015=
201107210430 METAR LPPR 210430Z 35005KT 9999 FEW007 14/14 Q1015=
201107210400 METAR LPPR 210400Z 35006KT 9999 FEW004 15/14 Q1015=
201107210330 METAR LPPR 210330Z 35007KT 9999 FEW005 15/14 Q1015=
201107210300 METAR LPPR 210300Z 34009KT 9999 FEW005 15/15 Q1015=
201107210230 METAR LPPR 210230Z 34010KT 9999 FEW003 SCT005 15/15 Q1016=
201107210130 METAR LPPR 210130Z 34009KT 9999 BKN003 16/15 Q1016=
201107210100 METAR LPPR 210100Z 35011KT 9999 BKN003 16/16 Q1016=
201107210030 METAR LPPR 210030Z 34010KT 9999 BKN004 16/16 Q1016=
201107210000 METAR LPPR 210000Z 35007KT 9999 SCT004 16/16 Q1017=
201107202330 METAR LPPR 202330Z 34010KT 9999 FEW004 16/16 Q1017=
201107202300 METAR LPPR 202300Z 34009KT 9999 FEW005 17/16 Q1017=
201107202230 METAR LPPR 202230Z 33009KT 9999 FEW008 17/16 Q1017=
201107202200 METAR LPPR 202200Z 34010KT 9999 FEW008 17/16 Q1017=
201107202130 METAR LPPR 202130Z 34011KT 9999 FEW008 17/16 Q1017=
201107202100 METAR LPPR 202100Z 33010KT 9999 FEW007 17/16 Q1017=
201107202030 METAR LPPR 202030Z 34009KT 9999 FEW007 17/16 Q1017=
201107202000 METAR LPPR 202000Z 33010KT 9999 SCT004 SCT006 17/16 Q1017=
201107201930 METAR LPPR 201930Z 33012KT 9999 SCT005 17/16 Q1017=
201107201900 METAR LPPR 201900Z 33012KT 9999 FEW008 18/16 Q1017=
201107201830 METAR LPPR 201830Z 33013KT 300V360 9999 FEW009 19/16 Q1017=
201107201800 METAR LPPR 201800Z 33015KT 9999 FEW009 19/16 Q1017=
201107201730 METAR LPPR 201730Z 33015KT 9999 FEW010 20/16 Q1017=
201107201700 METAR LPPR 201700Z 33016KT 9999 FEW025 21/16 Q1017=
201107201630 METAR LPPR 201630Z 33015G25KT 300V360 9999 FEW025 21/15 Q1017=
201107201600 METAR LPPR 201600Z 32013KT 9999 FEW025 21/15 Q1017=
201107201500 METAR LPPR 201500Z 33015KT 300V020 CAVOK 21/15 Q1018=
201107201430 METAR LPPR 201430Z 33017KT 300V360 CAVOK 21/15 Q1018=
201107201400 METAR LPPR 201400Z 32014KT 290V360 CAVOK 22/15 Q1018=
201107201330 METAR LPPR 201330Z 32014KT CAVOK 21/15 Q1018=
201107201300 METAR LPPR 201300Z 32012KT 290V350 CAVOK 20/15 Q1018=
201107201230 METAR LPPR 201230Z 33013KT CAVOK 21/15 Q1019=
201107201200 METAR LPPR 201200Z 33014KT CAVOK 21/14 Q1019=
201107201130 METAR LPPR 201130Z 32013KT 290V350 CAVOK 20/14 Q1019=
201107201100 METAR LPPR 201100Z 33012KT 290V350 9999 FEW015 21/14 Q1019=
201107201030 METAR LPPR 201030Z 33011KT 9999 FEW015 21/13 Q1019=
201107201000 METAR LPPR 201000Z 32009KT 290V350 9999 FEW015 20/13 Q1019=
201107200930 METAR LPPR 200930Z 35010KT 320V040 9999 FEW015 20/12 Q1019=
201107200900 METAR LPPR 200900Z 01008KT 9999 FEW015 19/11 Q1019=
201107200830 METAR LPPR 200830Z 02007KT 9999 FEW015 18/11 Q1020=
201107200800 METAR LPPR 200800Z 01009KT 9999 FEW015 17/11 Q1020=
201107200730 METAR LPPR 200730Z 36009KT 9999 FEW015 16/10 Q1020=
201107200700 METAR LPPR 200700Z 02006KT CAVOK 15/10 Q1020=
201107200630 METAR LPPR 200630Z 36008KT CAVOK 14/10 Q1020=
201107200600 METAR LPPR 200600Z 01008KT CAVOK 12/10 Q1020=
201107200530 METAR LPPR 200530Z 36006KT CAVOK 12/10 Q1019=
201107200500 METAR LPPR 200500Z 01005KT CAVOK 12/10 Q1019=
201107200430 METAR LPPR 200430Z 36007KT CAVOK 13/10 Q1020=
201107200400 METAR LPPR 200400Z 35008KT CAVOK 13/11 Q1020=
201107200330 METAR LPPR 200330Z 34009KT CAVOK 14/11 Q1020=
201107200300 METAR LPPR 200300Z 35007KT CAVOK 13/11 Q1020=
201107200230 METAR LPPR 200230Z 35008KT CAVOK 14/11 Q1020=
201107200200 METAR LPPR 200200Z 35006KT CAVOK 13/11 Q1020=
201107200130 METAR LPPR 200130Z 35006KT CAVOK 14/11 Q1020=
201107200100 METAR LPPR 200100Z 34007KT CAVOK 14/11 Q1020=
201107200030 METAR LPPR 200030Z 35005KT CAVOK 14/11 Q1021=
201107200000 METAR LPPR 200000Z 35004KT CAVOK 14/11 Q1021=
201107192330 METAR LPPR 192330Z 35008KT CAVOK 14/11 Q1021=
201107192300 METAR LPPR 192300Z 35008KT CAVOK 15/11 Q1021=
201107192230 METAR LPPR 192230Z 35009KT CAVOK 15/11 Q1021=
201107192200 METAR LPPR 192200Z 35009KT CAVOK 15/11 Q1021=
201107192130 METAR LPPR 192130Z 34010KT CAVOK 15/11 Q1021=
201107192100 METAR LPPR 192100Z 34011KT CAVOK 15/11 Q1021=
201107192030 METAR LPPR 192030Z 34013KT CAVOK 16/12 Q1020=
201107192000 METAR LPPR 192000Z 34012KT 310V010 CAVOK 16/12 Q1020=
201107191930 METAR LPPR 191930Z 34017KT CAVOK 17/11 Q1020=
201107191900 METAR LPPR 191900Z 34015G27KT CAVOK 17/11 Q1020=
201107191830 METAR LPPR 191830Z 34015KT CAVOK 18/11 Q1020=
201107191800 METAR LPPR 191800Z 33017KT 300V360 CAVOK 18/11 Q1019=
201107191730 METAR LPPR 191730Z 34018KT CAVOK 19/11 Q1019=
201107191700 METAR LPPR 191700Z 34015G25KT 300V360 CAVOK 19/11 Q1019=
201107191630 METAR LPPR 191630Z 33016KT CAVOK 19/12 Q1019=
201107191600 METAR LPPR 191600Z 34017KT 310V010 CAVOK 19/11 Q1019=
201107191530 METAR LPPR 191530Z 33014G24KT 290V360 CAVOK 20/12 Q1019=
201107191500 METAR LPPR 191500Z 34016G26KT 9999 FEW025 20/12 Q1019=
201107191430 METAR LPPR 191430Z 33013G23KT 300V010 9999 FEW025 20/12 Q1019=
201107191400 METAR COR LPPR 191400Z 33013KT 300V360 9999 FEW040 21/13
                        Q1019=
201107191330 METAR LPPR 191330Z 34016KT 300V360 9999 FEW040 21/12 Q1019=
201107191300 METAR LPPR 191300Z 32014KT 9999 FEW040 20/13 Q1019=
201107191230 METAR LPPR 191230Z 32012KT 9999 FEW040 20/13 Q1019=
201107191200 METAR LPPR 191200Z 32012KT 290V350 9999 FEW037 20/13 Q1019=
201107191130 METAR LPPR 191130Z 33016KT 9999 SCT039 19/13 Q1018=
201107191100 METAR LPPR 191100Z 32011KT 9999 FEW025 SCT031 19/13 Q1019=
201107191030 METAR LPPR 191030Z 35014KT 9999 FEW024 SCT038 20/12 Q1019=
201107191000 METAR LPPR 191000Z 32012KT 9999 FEW027 SCT034 19/13 Q1018=
201107190930 METAR LPPR 190930Z 32009KT 280V350 9999 FEW025 SCT029 18/13
                        Q1018=
201107190900 METAR LPPR 190900Z 33012KT 290V360 9999 SCT020 18/14 Q1018=
201107190830 METAR LPPR 190830Z 34011KT 9999 SCT020 17/14 Q1018=
201107190800 METAR LPPR 190800Z 36009KT 9999 FEW018 17/14 Q1018=
201107190730 METAR LPPR 190730Z 35009KT 9999 FEW020 16/13 Q1017=
201107190700 METAR LPPR 190700Z 35009KT 9999 FEW020 15/13 Q1017=
201107190630 METAR LPPR 190630Z 35007KT 9999 FEW020 14/13 Q1016=
201107190600 METAR LPPR 190600Z 02007KT 350V070 9999 FEW020 14/13 Q1016=
201107190530 METAR LPPR 190530Z 35007KT 330V040 9999 FEW020 14/13 Q1016=
201107190500 METAR LPPR 190500Z 35006KT 9999 FEW015 14/13 Q1015=
201107190430 METAR LPPR 190430Z 34008KT 310V010 CAVOK 15/14 Q1015=
201107190400 METAR LPPR 190400Z 33008KT 9999 FEW007 15/14 Q1015=
201107190330 METAR LPPR 190330Z 33008KT 9999 FEW006 BKN040 15/14 Q1014=
201107190300 METAR LPPR 190300Z 34008KT 9999 BKN035 16/14 Q1015=
201107190230 METAR LPPR 190230Z 34009KT 9999 FEW015 SCT030 15/14 Q1014=
201107190200 METAR LPPR 190200Z 34008KT 9999 SCT007 SCT018 BKN033 16/15
                        Q1014=
201107190130 METAR LPPR 190130Z 34011KT 9999 SCT004 BKN012 16/16 Q1014=
201107190100 METAR LPPR 190100Z 33009KT 9999 SCT003 BKN005 16/16 Q1014=
201107190030 METAR LPPR 190030Z 33010KT 9999 SCT003 BKN015 16/16 Q1015=
201107190000 METAR LPPR 190000Z 33010KT 300V360 4000 -RADZ SCT002 BKN005
                        17/16 Q1015=
201107182330 METAR LPPR 182330Z 32008KT 8000 -RADZ SCT002 BKN003 17/16
                        Q1015=
201107182300 METAR LPPR 182300Z 32008KT 4200 -RADZ BR SCT002 BKN004 17/16
                        Q1015=
201107182230 METAR LPPR 182230Z 26003KT 210V340 4400 -RADZ BR SCT002 BKN006
                        17/17 Q1015=
201107182200 METAR LPPR 182200Z 26003KT 220V320 5000 -RADZ SCT002 BKN005
                        17/17 Q1015=
201107182130 METAR LPPR 182130Z 22005KT 190V270 3000 -RADZ BR SCT002 BKN003
                        17/16 Q1015=
201107182100 METAR LPPR 182100Z 23003KT 170V260 4000 -RADZ BR SCT002 BKN003
                        17/16 Q1015=
201107182030 METAR LPPR 182030Z 23003KT 3400 -RADZ BR SCT002 BKN003 17/16
                        Q1015=
201107182000 METAR LPPR 182000Z 22003KT 180V270 2000 -RADZ BR SCT002 BKN003
                        17/16 Q1015=
201107181930 METAR LPPR 181930Z 24003KT 210V280 1500 BR VCFG SCT003 BKN005
                        17/16 Q1015=
201107181900 METAR LPPR 181900Z 23004KT 200V270 8000 SCT002 BKN008 17/16
                        Q1015=
201107181830 METAR LPPR 181830Z 23004KT 190V270 1800 BR VCFG SCT003 BKN005
                        17/16 Q1015=
201107181800 METAR LPPR 181800Z 22005KT 180V260 4000 BR SCT004 BKN009
                        17/16 Q1015=
201107181730 METAR LPPR 181730Z 22006KT 180V260 9999 SCT005 BKN006 17/15
                        Q1015=
201107181700 METAR LPPR 181700Z 22006KT 190V260 4000 BR SCT006 BKN007
                        17/15 Q1015=
201107181630 METAR LPPR 181630Z 22006KT 180V270 9999 SCT007 BKN008 17/15
                        Q1016=
201107181600 METAR LPPR 181600Z 24007KT 190V270 9999 SCT008 BKN011 17/14
                        Q1016=
201107181530 METAR LPPR 181530Z 23006KT 190V270 9999 BKN011 17/14 Q1016=
201107181500 METAR LPPR 181500Z 24007KT 190V270 9999 BKN012 18/14 Q1016=
201107181430 METAR LPPR 181430Z 22007KT 190V260 9999 VCSH BKN014 18/14
                        Q1016=
201107181400 METAR LPPR 181400Z 25006KT 180V280 9999 VCSH BKN014 BKN020
                        18/13 Q1016=
201107181330 METAR LPPR 181330Z 24006KT 200V270 9999 FEW017 SCT020 BKN030
                        19/13 Q1016=
201107181300 METAR LPPR 181300Z 23006KT 160V320 9999 FEW022 OVC030 19/13
                        Q1017=
201107181230 METAR LPPR 181230Z 25006KT 180V320 9999 FEW026 OVC034 20/13
                        Q1017=
201107181200 METAR LPPR 181200Z 26005KT 220V300 9999 FEW026 BKN034 19/13
                        Q1017=
201107181130 METAR LPPR 181130Z 24006KT 220V290 9999 SCT028 BKN035 18/12
                        Q1017=
201107181100 METAR LPPR 181100Z VRB05KT 9999 FEW030 BKN035 19/12 Q1017=
201107181030 METAR LPPR 181030Z 30006KT 250V340 9999 FEW026 BKN050 19/12
                        Q1017=
201107181000 METAR LPPR 181000Z VRB04KT 9999 SCT026 SCT050 18/12 Q1017=
201107180930 METAR LPPR 180930Z 02005KT 330V070 9999 SCT026 BKN045 18/12
                        Q1017=
201107180900 METAR LPPR 180900Z 33003KT 290V030 9999 FEW020 BKN027 17/11
                        Q1017=
201107180830 METAR LPPR 180830Z 33004KT 290V020 9999 FEW020 BKN030 17/11
                        Q1017=
201107180800 METAR LPPR 180800Z VRB02KT 9999 BKN033 16/11 Q1017=
201107180730 METAR LPPR 180730Z VRB02KT 9999 BKN035 16/11 Q1017=
201107180700 METAR LPPR 180700Z VRB02KT 9999 BKN037 BKN070 15/11 Q1017=
201107180630 METAR LPPR 180630Z VRB02KT 9999 BKN036 BKN040 13/11 Q1017=
201107180600 METAR LPPR 180600Z 02004KT 340V090 9999 BKN040 12/10 Q1017=
201107180530 METAR LPPR 180530Z VRB01KT 9999 BKN041 11/09 Q1017=
201107180500 METAR LPPR 180500Z 00000KT 9999 SCT041 12/10 Q1017=
201107180430 METAR LPPR 180430Z VRB02KT 9999 FEW041 11/09 Q1017=
201107180400 METAR LPPR 180400Z 35003KT CAVOK 11/10 Q1017=
201107180330 METAR LPPR 180330Z 33003KT CAVOK 12/10 Q1017=
201107180300 METAR LPPR 180300Z 35003KT CAVOK 12/10 Q1017=
201107180230 METAR LPPR 180230Z 35004KT CAVOK 12/09 Q1017=
201107180200 METAR LPPR 180200Z 33005KT CAVOK 13/10 Q1017=
201107180130 METAR LPPR 180130Z 34004KT CAVOK 12/10 Q1018=
201107180100 METAR LPPR 180100Z 34005KT CAVOK 13/10 Q1018=
201107180030 METAR LPPR 180030Z 35006KT CAVOK 14/10 Q1018=
201107180000 METAR LPPR 180000Z 36005KT CAVOK 13/10 Q1018=
201107172330 METAR LPPR 172330Z 03003KT 330V130 CAVOK 13/10 Q1018=
201107172300 METAR LPPR 172300Z 35007KT CAVOK 14/10 Q1018=
201107172230 METAR LPPR 172230Z 35010KT CAVOK 14/10 Q1018=
201107172200 METAR LPPR 172200Z 34012KT CAVOK 15/10 Q1018=
201107172130 METAR LPPR 172130Z 35009KT CAVOK 15/11 Q1018=
201107172100 METAR LPPR 172100Z 35008KT CAVOK 15/11 Q1018=
201107172030 METAR LPPR 172030Z 35011KT CAVOK 16/11 Q1018=
201107172000 METAR LPPR 172000Z 34014KT CAVOK 16/10 Q1017=
201107171930 METAR LPPR 171930Z 34015KT CAVOK 17/11 Q1017=
201107171900 METAR LPPR 171900Z 34016KT CAVOK 17/10 Q1017=
201107171830 METAR LPPR 171830Z 34017G27KT CAVOK 18/10 Q1017=
201107171800 METAR LPPR 171800Z 34020KT CAVOK 18/10 Q1017=
201107171730 METAR LPPR 171730Z 33022KT CAVOK 18/11 Q1017=
201107171700 METAR LPPR 171700Z 33020KT 300V360 CAVOK 19/11 Q1017=
201107171630 METAR LPPR 171630Z 33017KT CAVOK 19/11 Q1017=
201107171600 METAR LPPR 171600Z 32018KT 9999 FEW025 19/11 Q1017=
201107171530 METAR LPPR 171530Z 33015KT 9999 FEW025 20/09 Q1018=
201107171500 METAR LPPR 171500Z 33018G29KT 9999 FEW025 20/10 Q1017=
201107171430 METAR LPPR 171430Z 33017KT 9999 FEW025 20/10 Q1018=
201107171400 METAR LPPR 171400Z 33015G25KT 300V360 9999 FEW025 19/13 Q1018=
201107171330 METAR LPPR 171330Z 33014KT 9999 FEW025 20/12 Q1018=
201107171300 METAR LPPR 171300Z 32017KT 9999 FEW025 19/13 Q1018=
201107171230 METAR LPPR 171230Z 33014KT 9999 FEW025 19/12 Q1018=
201107171200 METAR LPPR 171200Z 32015KT 290V350 9999 FEW025 SCT040 18/12
                        Q1018=
201107171130 METAR LPPR 171130Z 32014KT 290V350 9999 FEW025 SCT040 19/12
                        Q1018=
201107171100 METAR LPPR 171100Z 32012KT 280V350 9999 FEW025 SCT045 19/12
                        Q1018=
201107171030 METAR LPPR 171030Z 33012KT 9999 FEW025 SCT040 19/13 Q1018=
201107171000 METAR LPPR 171000Z 32012KT 9999 FEW025 SCT040 18/11 Q1018=
201107170930 METAR LPPR 170930Z 36013KT 320V030 9999 SCT025 SCT040 19/11
                        Q1018=
201107170900 METAR LPPR 170900Z 34013KT 310V010 9999 FEW025 SCT030 19/12
                        Q1018=
201107170830 METAR LPPR 170830Z 34012KT 9999 FEW027 SCT030 17/12 Q1018=
201107170800 METAR LPPR 170800Z 34011KT 9999 FEW018 SCT046 17/13 Q1018=
201107170730 METAR LPPR 170730Z 34010KT 9999 FEW018 BKN046 16/13 Q1017=
201107170700 METAR LPPR 170700Z 34009KT 9999 FEW018 SCT045 16/13 Q1017=
201107170630 METAR LPPR 170630Z 35007KT 9999 BKN044 16/13 Q1017=
201107170600 METAR LPPR 170600Z 01008KT 9999 BKN042 15/14 Q1017=
201107170530 METAR LPPR 170530Z 34006KT 9999 BKN040 15/14 Q1017=
201107170500 METAR LPPR 170500Z 34006KT 9999 BKN040 15/14 Q1017=
201107170430 METAR LPPR 170430Z 33006KT 300V010 9999 BKN040 15/14 Q1016=
201107170400 METAR LPPR 170400Z 34008KT 9999 BKN040 16/14 Q1016=
201107170330 METAR LPPR 170330Z 34008KT 9999 FEW008 BKN040 15/14 Q1016=
201107170300 METAR LPPR 170300Z 33007KT 9999 FEW008 15/14 Q1017=
201107170230 METAR LPPR 170230Z 33007KT 9999 BKN034 16/14 Q1017=
201107170200 METAR LPPR 170200Z 34010KT 9999 BKN032 15/14 Q1017=
201107170130 METAR LPPR 170130Z 33010KT 9999 FEW017 SCT030 16/15 Q1017=
201107170100 METAR LPPR 170100Z 34010KT 310V010 9999 FEW009 SCT020 BKN030
                        16/15 Q1017=
201107170030 METAR LPPR 170030Z 34010KT 9999 SCT004 BKN015 16/15 Q1017=
201107170000 METAR LPPR 170000Z 33012KT 300V360 4000 -DZ BR BKN002 BKN005
                        16/16 Q1017=
201107162330 METAR LPPR 162330Z 32007KT 290V350 3000 -DZ BR SCT001 OVC002
                        17/16 Q1017=
201107162300 METAR LPPR 162300Z 32007KT 280V350 3000 DZ BR OVC002 17/17
                        Q1017=
201107162230 METAR LPPR 162230Z 33007KT 300V360 9999 BKN003 17/17 Q1017=
201107162200 METAR LPPR 162200Z 33009KT 3000 -DZ BR BKN002 BKN003 17/17
                        Q1017=
201107162130 METAR LPPR 162130Z 29004KT 250V330 3000 -DZ BR BKN002 BKN003
                        17/17 Q1017=
201107162100 METAR LPPR 162100Z VRB02KT 3000 DZ BR BKN002 BKN003 18/17
                        Q1017=
201107162030 METAR LPPR 162030Z VRB02KT 2000 DZ BR OVC002 17/17 Q1017=
201107162000 METAR LPPR 162000Z 32004KT 280V350 0300 R17/P2000 -DZ PRFG
                        OVC002 18/17 Q1017=
201107161930 METAR LPPR 161930Z 32005KT 290V360 2800 BR SCT003 OVC004
                        17/17 Q1018=
201107161900 METAR COR LPPR 161900Z 33008KT 290V350 3000 -DZ BR OVC005
                        18/17 Q1018=
201107161830 METAR LPPR 161830Z 33009KT 290V350 9999 SCT006 BKN009 19/16
                        Q1018=
201107161800 METAR LPPR 161800Z 32010KT 280V350 9999 SCT005 BKN008 18/17
                        Q1018=
201107161730 METAR LPPR 161730Z 32010KT 290V350 9999 SCT004 BKN008 19/17
                        Q1018=
201107161700 METAR LPPR 161700Z 33009KT 8000 2000W BR BKN005 BKN012 19/17
                        Q1018=
201107161630 METAR LPPR 161630Z 33011KT 290V360 9999 SCT006 BKN013 19/17
                        Q1018=
201107161600 METAR LPPR 161600Z 33011KT 290V350 9999 SCT009 BKN015 20/17
                        Q1018=
201107161530 METAR LPPR 161530Z 33011KT 290V350 9999 FEW009 21/17 Q1018=
201107161500 METAR LPPR 161500Z 33014KT 9999 SCT007 SCT011 21/17 Q1019=
201107161430 METAR LPPR 161430Z 32011KT 290V350 9999 FEW007 SCT009 BKN040
                        20/17 Q1019=
201107161400 METAR LPPR 161400Z 33013KT 290V350 9999 SCT007 BKN040 21/18
                        Q1019=
201107161330 METAR LPPR 161330Z 33012KT 290V350 9999 SCT007 BKN040 21/18
                        Q1019=
201107161300 METAR LPPR 161300Z 32011KT 9999 FEW007 BKN040 21/17 Q1019=
201107161230 METAR LPPR 161230Z 33010KT 290V350 9999 FEW007 SCT040 21/17
                        Q1019=
201107161200 METAR LPPR 161200Z 31010KT 9999 FEW007 SCT035 21/17 Q1019=
201107161130 METAR LPPR 161130Z 32010KT 260V350 9999 FEW009 BKN035 20/17
                        Q1019=
201107161100 METAR LPPR 161100Z 31007KT 260V340 9999 FEW009 BKN035 20/17
                        Q1019=
201107161030 METAR LPPR 161030Z 31009KT 280V340 9999 FEW009 BKN030 20/17
                        Q1019=
201107161000 METAR LPPR 161000Z 32009KT 280V350 9999 FEW009 BKN035 20/17
                        Q1019=
201107160930 METAR LPPR 160930Z 32006KT 270V360 9999 FEW008 SCT015 BKN035
                        19/16 Q1020=
201107160900 METAR LPPR 160900Z 32006KT 280V350 9999 FEW008 BKN016 19/16
                        Q1020=
201107160830 METAR LPPR 160830Z 31006KT 280V360 9999 SCT008 BKN015 19/16
                        Q1020=
201107160800 METAR LPPR 160800Z 33006KT 280V360 9999 SCT006 BKN014 18/17
                        Q1020=
201107160730 METAR LPPR 160730Z 34004KT 310V020 9999 SCT004 BKN015 17/17
                        Q1020=
201107160700 METAR LPPR 160700Z 34005KT 9999 BKN003 17/16 Q1020=
201107160630 METAR LPPR 160630Z 34008KT 9000 BKN002 17/16 Q1019=
201107160600 METAR LPPR 160600Z 33006KT 8000 BKN002 17/16 Q1019=
201107160530 METAR LPPR 160530Z 34005KT 8000 BKN002 17/16 Q1019=
201107160500 METAR LPPR 160500Z 32005KT 8000 BKN002 17/16 Q1019=
201107160430 METAR LPPR 160430Z 33006KT 300V360 9000 BKN002 17/16 Q1019=
201107160400 METAR LPPR 160400Z 32008KT 9000 SCT002 BKN005 17/16 Q1019=
201107160330 METAR LPPR 160330Z 32007KT 9999 SCT003 BKN005 17/16 Q1019=
201107160300 METAR LPPR 160300Z 31006KT 9999 SCT003 BKN005 17/16 Q1019=
201107160230 METAR LPPR 160230Z 32006KT 9999 SCT003 BKN005 17/16 Q1019=
201107160200 METAR LPPR 160200Z 33006KT 9999 BKN004 17/16 Q1020=
201107160130 METAR LPPR 160130Z 34008KT 9999 BKN004 17/16 Q1020=
201107160100 METAR LPPR 160100Z 34005KT 9999 BKN003 17/16 Q1020=
201107160030 METAR LPPR 160030Z 33008KT 290V010 9000 BKN003 17/16 Q1020=
201107160000 METAR LPPR 160000Z 34007KT 9999 BKN004 17/16 Q1020=
201107152330 METAR LPPR 152330Z 34008KT 9999 BKN004 17/16 Q1021=
201107152300 METAR LPPR 152300Z 32007KT 9999 SCT004 BKN006 16/15 Q1021=
201107152230 METAR LPPR 152230Z 34005KT 9999 FEW005 SCT007 16/15 Q1021=
201107152200 METAR LPPR 152200Z 35007KT 320V040 9999 FEW008 17/15 Q1021=
201107152130 METAR LPPR 152130Z 36008KT 9999 FEW009 17/15 Q1021=
201107152100 METAR LPPR 152100Z 34011KT 310V010 CAVOK 17/15 Q1020=
201107152030 METAR LPPR 152030Z 34011KT CAVOK 17/15 Q1020=
201107152000 METAR LPPR 152000Z 34013KT CAVOK 18/14 Q1020=
201107151930 METAR LPPR 151930Z 34013KT 300V360 CAVOK 18/13 Q1020=
201107151900 METAR LPPR 151900Z 33012KT 280V360 CAVOK 18/12 Q1020=
201107151830 METAR LPPR 151830Z 33011KT CAVOK 18/14 Q1020=
201107151800 METAR LPPR 151800Z 33012KT CAVOK 18/14 Q1020=
201107151730 METAR LPPR 151730Z 32011KT CAVOK 19/15 Q1020=
201107151700 METAR LPPR 151700Z 32011KT CAVOK 20/15 Q1020=
201107151630 METAR LPPR 151630Z 32011KT CAVOK 20/15 Q1020=
201107151600 METAR LPPR 151600Z 32013KT 280V350 CAVOK 20/15 Q1020=
201107151530 METAR LPPR 151530Z 32013KT CAVOK 20/15 Q1020=
201107151500 METAR LPPR 151500Z 33013KT CAVOK 21/16 Q1020=
201107151430 METAR LPPR 151430Z 32013KT CAVOK 20/16 Q1020=
201107151400 METAR LPPR 151400Z 31010KT 280V340 CAVOK 21/16 Q1021=
201107151330 METAR LPPR 151330Z 32011KT CAVOK 21/16 Q1021=
201107151300 METAR LPPR 151300Z 32010KT 290V350 CAVOK 21/16 Q1021=
201107151230 METAR LPPR 151230Z 32010KT 280V340 CAVOK 21/16 Q1021=
201107151200 METAR LPPR 151200Z 32009KT 280V340 CAVOK 21/16 Q1021=
201107151130 METAR LPPR 151130Z 31007KT 270V350 CAVOK 21/16 Q1021=
201107151100 METAR LPPR 151100Z 29006KT 240V340 CAVOK 20/15 Q1021=
201107151030 METAR LPPR 151030Z 28005KT 220V330 9000 NSC 19/16 Q1021=
201107151000 METAR LPPR 151000Z 30004KT 210V010 7000 NSC 20/16 Q1021=
201107150930 METAR LPPR 150930Z VRB03KT 4000 BR FEW003 18/16 Q1021=
201107150900 METAR LPPR 150900Z 29003KT 230V340 2500 R17/1200VP2000 BR
                        SCT002 BKN003 16/16 Q1021=
201107150830 METAR LPPR 150830Z VRB03KT 2500 BR BKN002 BKN004 16/16 Q1021=
201107150800 METAR LPPR 150800Z VRB02KT 2000 BR BKN002 BKN004 16/15 Q1021=
201107150730 METAR LPPR 150730Z VRB02KT 1100 R17/0900V1400 BR VCFG SCT002
                        OVC003 15/15 Q1021=
201107150700 METAR LPPR 150700Z 19003KT 150V250 0300 R17/0375V0500N FG
                        VV002 15/15 Q1021=
201107150630 METAR LPPR 150630Z VRB02KT 0200 R17/0400 FG VV001 15/15 Q1021=
201107150600 METAR LPPR 150600Z VRB02KT 0200 R17/0350 FG VV001 15/15 Q1021=
201107150530 METAR LPPR 150530Z VRB02KT 0150 R17/0250N FG VV001 15/14
                        Q1020=
201107150500 METAR LPPR 150500Z 21003KT 180V240 0200 R17/0370N FG VV001
                        14/14 Q1020=
201107150430 METAR LPPR 150430Z 18003KT 0400 R17/0400 BCFG BKN002 13/13
                        Q1020=
201107150400 METAR LPPR 150400Z 21003KT 7000 1400S R35/0700VP2000D PRFG
                        SCT002 13/12 Q1020=
201107150330 METAR LPPR 150330Z 17002KT CAVOK 13/13 Q1020=
201107150300 METAR LPPR 150300Z 00000KT CAVOK 13/13 Q1020=
201107150230 METAR LPPR 150230Z 00000KT CAVOK 13/13 Q1020=
201107150200 METAR LPPR 150200Z 00000KT CAVOK 14/13 Q1020=
201107150130 METAR LPPR 150130Z VRB01KT CAVOK 14/13 Q1020=
201107150100 METAR LPPR 150100Z 33002KT CAVOK 15/14 Q1020=
201107150030 METAR LPPR 150030Z 34003KT CAVOK 15/14 Q1020=
201107150000 METAR LPPR 150000Z 34004KT 300V010 CAVOK 15/15 Q1020=
201107142330 METAR LPPR 142330Z 33004KT CAVOK 16/15 Q1021=
201107142300 METAR LPPR 142300Z 34004KT 310V010 CAVOK 15/14 Q1021=
201107142230 METAR LPPR 142230Z 33006KT CAVOK 16/15 Q1021=
201107142200 METAR LPPR 142200Z 34006KT CAVOK 16/15 Q1021=
201107142130 METAR LPPR 142130Z 34009KT CAVOK 16/15 Q1021=
201107142100 METAR LPPR 142100Z 34010KT 9999 FEW006 17/15 Q1021=
201107142030 METAR LPPR 142030Z 34011KT 9999 FEW007 17/15 Q1020=
201107142000 METAR LPPR 142000Z 34013KT 9999 FEW008 17/15 Q1020=
201107141930 METAR LPPR 141930Z 34012KT 9999 FEW008 18/15 Q1020=
201107141900 METAR LPPR 141900Z 34014KT 9999 FEW008 18/15 Q1020=
201107141830 METAR COR LPPR 141830Z 33012G22KT 300V360 9999 FEW027 19/15
                        Q1020=
201107141800 METAR LPPR 141800Z 32010KT 280V350 9999 FEW027 20/15 Q1020=
201107141730 METAR LPPR 141730Z 32009KT 290V350 9999 FEW027 20/15 Q1020=
201107141700 METAR LPPR 141700Z 32012KT 290V350 9999 FEW027 19/16 Q1020=
201107141630 METAR LPPR 141630Z 33014KT 9999 FEW027 20/15 Q1021=
201107141600 METAR LPPR 141600Z 33016KT 9999 FEW027 20/15 Q1021=
201107141530 METAR LPPR 141530Z 32015KT 290V350 9999 FEW027 20/15 Q1021=
201107141500 METAR LPPR 141500Z 32017KT 9999 FEW020 20/15 Q1021=
201107141430 METAR LPPR 141430Z 33018KT 9999 FEW020 20/15 Q1021=
201107141400 METAR LPPR 141400Z 33014KT 9999 FEW020 20/15 Q1021=
201107141330 METAR LPPR 141330Z 33014KT 290V350 9999 FEW020 20/15 Q1021=
201107141300 METAR LPPR 141300Z 32015KT 9999 FEW020 21/16 Q1021=
201107141230 METAR LPPR 141230Z 32012KT 290V350 9999 FEW020 21/16 Q1021=
201107141200 METAR LPPR 141200Z 32010KT 290V350 9999 FEW020 21/16 Q1021=
201107141130 METAR LPPR 141130Z 32011KT 290V350 9999 FEW020 20/15 Q1021=
201107141100 METAR LPPR 141100Z 31008KT 280V340 9999 FEW020 20/16 Q1021=
201107141030 METAR LPPR 141030Z 33009KT 9999 FEW020 21/14 Q1021=
201107141000 METAR LPPR 141000Z 31008KT 280V340 9999 FEW020 20/13 Q1021=
201107140930 METAR LPPR 140930Z 32008KT 280V340 9999 FEW020 20/13 Q1021=
201107140900 METAR LPPR 140900Z 36005KT 320V040 9999 FEW020 21/14 Q1021=
201107140830 METAR LPPR 140830Z 36005KT 320V060 9999 FEW020 20/14 Q1021=
201107140800 METAR LPPR 140800Z 35004KT 280V060 9999 FEW020 18/14 Q1021=
201107140730 METAR LPPR 140730Z 36003KT 320V040 9999 FEW008 17/14 Q1021=
201107140700 METAR LPPR 140700Z VRB02KT CAVOK 16/14 Q1021=
201107140630 METAR LPPR 140630Z VRB01KT CAVOK 14/13 Q1021=
201107140600 METAR LPPR 140600Z 35003KT 320V050 CAVOK 13/12 Q1021=
201107140530 METAR LPPR 140530Z VRB02KT CAVOK 12/11 Q1021=
201107140500 METAR LPPR 140500Z VRB01KT CAVOK 13/12 Q1021=
201107140430 METAR LPPR 140430Z 35002KT CAVOK 12/11 Q1021=
201107140400 METAR LPPR 140400Z VRB02KT CAVOK 13/12 Q1021=
201107140330 METAR LPPR 140330Z 36003KT 330V060 CAVOK 14/12 Q1021=
201107140300 METAR LPPR 140300Z 35006KT CAVOK 14/12 Q1021=
201107140230 METAR LPPR 140230Z 34005KT CAVOK 15/12 Q1021=
201107140200 METAR LPPR 140200Z 34006KT CAVOK 15/12 Q1021=
201107140130 METAR LPPR 140130Z 36004KT CAVOK 14/12 Q1021=
201107140100 METAR LPPR 140100Z VRB02KT CAVOK 14/12 Q1021=
201107140030 METAR LPPR 140030Z 01005KT CAVOK 15/12 Q1021=
201107140000 METAR LPPR 140000Z 34008KT 310V010 CAVOK 16/13 Q1022=
201107132330 METAR LPPR 132330Z 33008KT CAVOK 16/12 Q1021=
201107132300 METAR LPPR 132300Z 34006KT CAVOK 16/12 Q1022=
201107132230 METAR LPPR 132230Z 34004KT CAVOK 16/12 Q1022=
201107132200 METAR LPPR 132200Z 35010KT CAVOK 16/12 Q1022=
201107132130 METAR LPPR 132130Z 34012KT CAVOK 17/11 Q1022=
201107132100 METAR LPPR 132100Z 33015KT CAVOK 17/11 Q1021=
201107132030 METAR LPPR 132030Z 34015KT CAVOK 17/12 Q1021=
201107132000 METAR LPPR 132000Z 34015KT CAVOK 17/12 Q1021=
201107131930 METAR LPPR 131930Z 34016KT CAVOK 18/12 Q1021=
201107131900 METAR LPPR 131900Z 34015KT CAVOK 18/12 Q1021=
201107131830 METAR LPPR 131830Z 34012KT CAVOK 18/13 Q1021=
201107131800 METAR LPPR 131800Z 33013KT 300V360 CAVOK 19/12 Q1021=
201107131730 METAR LPPR 131730Z 34013KT CAVOK 19/13 Q1021=
201107131700 METAR LPPR 131700Z 34014KT CAVOK 20/13 Q1021=
201107131630 METAR LPPR 131630Z 34016KT CAVOK 20/13 Q1021=
201107131600 METAR LPPR 131600Z 34015KT 9999 FEW030 21/13 Q1021=
201107131530 METAR LPPR 131530Z 33013KT 300V360 9999 FEW030 21/13 Q1021=
201107131500 METAR LPPR 131500Z 33012KT 9999 FEW027 21/13 Q1021=
201107131430 METAR LPPR 131430Z 33013KT CAVOK 21/14 Q1021=
201107131400 METAR LPPR 131400Z 33013KT 9999 FEW027 21/14 Q1022=
201107131330 METAR LPPR 131330Z 32013KT 280V350 9999 FEW027 22/14 Q1022=
201107131300 METAR LPPR 131300Z 31013KT 270V340 9999 FEW027 21/14 Q1022=
201107131230 METAR LPPR 131230Z 32013KT 9999 FEW027 21/14 Q1022=
201107131200 METAR LPPR 131200Z 32012KT 9999 FEW027 21/14 Q1022=
201107131130 METAR LPPR 131130Z 33013KT 9999 FEW027 20/14 Q1022=
201107131100 METAR LPPR 131100Z 32011KT 280V340 9999 FEW025 20/14 Q1022=
201107131030 METAR LPPR 131030Z 35009KT 290V070 9999 FEW025 21/11 Q1022=
201107131000 METAR LPPR 131000Z 35010KT 9999 FEW025 20/11 Q1022=
201107130930 METAR LPPR 130930Z 01012KT 340V040 9999 FEW025 20/11 Q1022=
201107130900 METAR LPPR 130900Z 01014KT CAVOK 20/11 Q1022=
201107130830 METAR LPPR 130830Z 35015KT CAVOK 18/11 Q1022=
201107130800 METAR LPPR 130800Z 36011KT CAVOK 17/11 Q1022=
201107130730 METAR LPPR 130730Z 01009KT CAVOK 16/11 Q1022=
201107130700 METAR LPPR 130700Z 36008KT CAVOK 15/11 Q1022=
201107130630 METAR LPPR 130630Z 03003KT 360V080 CAVOK 14/10 Q1022=
201107130600 METAR LPPR 130600Z 01007KT 340V050 CAVOK 12/10 Q1022=
201107130530 METAR LPPR 130530Z 01005KT CAVOK 12/09 Q1022=
201107130500 METAR LPPR 130500Z 36005KT CAVOK 12/09 Q1022=
201107130430 METAR LPPR 130430Z 35007KT CAVOK 13/09 Q1021=
201107130400 METAR LPPR 130400Z 35006KT CAVOK 12/09 Q1021=
201107130330 METAR LPPR 130330Z 35008KT CAVOK 13/09 Q1021=
201107130300 METAR LPPR 130300Z 36009KT CAVOK 13/10 Q1021=
201107130230 METAR LPPR 130230Z 01007KT CAVOK 14/10 Q1021=
201107130200 METAR LPPR 130200Z 35005KT CAVOK 13/10 Q1021=
201107130130 METAR LPPR 130130Z 34006KT CAVOK 14/10 Q1021=
201107130100 METAR LPPR 130100Z 36005KT CAVOK 14/10 Q1020=
201107130030 METAR LPPR 130030Z 34006KT CAVOK 14/11 Q1020=
201107130000 METAR LPPR 130000Z 34006KT CAVOK 14/11 Q1020=
201107122330 METAR LPPR 122330Z 35007KT CAVOK 15/11 Q1020=
201107122300 METAR LPPR 122300Z 34007KT CAVOK 15/12 Q1020=
201107122230 METAR LPPR 122230Z 36006KT 320V020 CAVOK 15/12 Q1020=
201107122200 METAR LPPR 122200Z 34008KT CAVOK 16/12 Q1020=
201107122130 METAR LPPR 122130Z 34013KT 9999 FEW020 16/13 Q1020=
201107122100 METAR LPPR 122100Z 34013KT 9999 FEW020 16/13 Q1019=
201107122030 METAR LPPR 122030Z 34013KT 9999 FEW020 16/13 Q1019=
201107122000 METAR LPPR 122000Z 34014KT 9999 FEW020 17/13 Q1019=
201107121930 METAR LPPR 121930Z 34017G27KT 9999 FEW020 17/13 Q1018=
201107121900 METAR LPPR 121900Z 34016KT 9999 FEW020 18/12 Q1018=
201107121830 METAR LPPR 121830Z 34018KT 9999 FEW020 18/12 Q1018=
201107121800 METAR LPPR 121800Z 33017KT 9999 FEW020 18/12 Q1018=
201107121730 METAR LPPR 121730Z 34020G30KT 9999 FEW025 19/12 Q1017=
201107121700 METAR LPPR 121700Z 33016KT 9999 FEW030 20/13 Q1017=
201107121630 METAR LPPR 121630Z 34019G29KT 310V010 9999 FEW030 20/12 Q1017=
201107121600 METAR LPPR 121600Z 33016G29KT 290V010 9999 FEW030 21/13 Q1017=
201107121530 METAR LPPR 121530Z 33019G29KT 300V360 9999 FEW030 21/13 Q1017=
201107121500 METAR LPPR 121500Z 34019KT 9999 FEW030 22/13 Q1016=
201107121430 METAR LPPR 121430Z 34018G28KT 300V360 9999 FEW030 22/14 Q1016=
201107121400 METAR LPPR 121400Z 34020KT 9999 FEW028 21/14 Q1016=
201107121330 METAR LPPR 121330Z 33016KT 9999 FEW028 21/14 Q1016=
201107121300 METAR LPPR 121300Z 34015G26KT 9999 FEW028 22/14 Q1016=
201107121230 METAR LPPR 121230Z 32017KT 290V350 9999 SCT025 21/14 Q1016=
201107121200 METAR LPPR 121200Z 32014KT 9999 FEW018 SCT030 21/15 Q1016=
201107121130 METAR LPPR 121130Z 33011KT 300V360 9999 FEW017 SCT025 21/15
                        Q1015=
201107121100 METAR LPPR 121100Z 31009KT 280V350 9999 SCT017 SCT025 21/16
                        Q1015=
201107121030 METAR LPPR 121030Z 32007KT 280V360 9999 SCT016 21/16 Q1015=
201107121000 METAR LPPR 121000Z 34008KT 280V020 9999 FEW014 SCT017 BKN040
                        21/17 Q1015=
201107120930 METAR LPPR 120930Z 01006KT 330V050 9999 FEW008 19/16 Q1015=
201107120900 METAR LPPR 120900Z 32005KT 290V350 8000 SCT008 BKN014 18/16
                        Q1015=
201107120830 METAR LPPR 120830Z 31005KT 270V360 9999 SCT008 BKN011 BKN014
                        18/16 Q1015=
201107120800 METAR LPPR 120800Z 29004KT 250V330 8000 FEW007 SCT010 BKN015
                        18/16 Q1014=
201107120730 METAR LPPR 120730Z VRB02KT 9999 FEW012 SCT040 18/16 Q1014=
201107120700 METAR LPPR 120700Z VRB01KT 9999 FEW025 SCT035 17/16 Q1014=
201107120630 METAR LPPR 120630Z 00000KT 9000 FEW016 SCT035 17/16 Q1014=
201107120600 METAR LPPR 120600Z 34002KT 7000 FEW007 BKN016 17/16 Q1013=
201107120530 METAR LPPR 120530Z 00000KT 9999 SCT011 BKN014 17/16 Q1013=
201107120500 METAR LPPR 120500Z 22002KT 9999 SCT011 BKN014 16/16 Q1013=
201107120430 METAR LPPR 120430Z VRB01KT 9999 BKN011 BKN013 16/16 Q1013=
201107120400 METAR LPPR 120400Z 30001KT 9000 FEW007 BKN011 BKN013 16/16
                        Q1013=
201107120330 METAR LPPR 120330Z VRB01KT 9000 FEW005 BKN012 16/16 Q1013=
201107120300 METAR LPPR 120300Z VRB01KT 9000 SCT006 SCT008 BKN010 16/16
                        Q1013=
201107120230 METAR LPPR 120230Z VRB02KT 8000 FEW003 BKN006 16/16 Q1013=
201107120200 METAR LPPR 120200Z VRB02KT 8000 3300N BR SCT004 BKN007 16/15
                        Q1013=
201107120130 METAR LPPR 120130Z 21003KT 7000 2600N BR SCT002 BKN005 16/16
                        Q1013=
201107120100 METAR LPPR 120100Z 25003KT 7000 3500N BR FEW002 SCT004 16/15
                        Q1014=
201107120030 METAR LPPR 120030Z 20003KT 8000 3900N BR NSC 16/15 Q1014=
201107120000 METAR LPPR 120000Z VRB01KT 9000 FEW009 16/16 Q1014=
201107112330 METAR LPPR 112330Z VRB01KT 8000 SCT010 16/15 Q1014=
201107112300 METAR LPPR 112300Z 00000KT 8000 FEW007 BKN009 16/16 Q1014=
201107112230 METAR LPPR 112230Z 00000KT 8000 SCT007 BKN010 16/16 Q1014=
201107112200 METAR LPPR 112200Z 26001KT 9999 BKN008 17/16 Q1014=
201107112130 METAR LPPR 112130Z 35001KT 9000 SCT009 17/16 Q1014=
201107112100 METAR LPPR 112100Z VRB02KT 9999 SCT007 BKN009 18/16 Q1014=
201107112030 METAR LPPR 112030Z 29003KT 250V330 9999 SCT007 BKN008 18/16
                        Q1014=
201107112000 METAR LPPR 112000Z 28003KT 250V310 9999 SCT009 18/16 Q1014=
201107111930 METAR LPPR 111930Z 32003KT 280V360 9999 FEW009 18/16 Q1013=
201107111900 METAR LPPR 111900Z 29005KT 250V340 9999 FEW009 19/16 Q1013=
201107111830 METAR LPPR 111830Z 29004KT 220V010 9999 SCT009 19/16 Q1013=
201107111800 METAR LPPR 111800Z 29006KT 250V320 9999 SCT009 19/16 Q1014=
201107111730 METAR LPPR 111730Z 31008KT 280V350 9999 FEW012 19/16 Q1013=
201107111700 METAR LPPR 111700Z 30007KT 260V340 9999 FEW012 20/16 Q1013=
201107111630 METAR LPPR 111630Z 31007KT 270V340 9999 FEW012 20/16 Q1013=
201107111600 METAR LPPR 111600Z 31007KT 260V340 9999 FEW012 19/16 Q1014=
201107111530 METAR LPPR 111530Z 30005KT 250V340 CAVOK 19/16 Q1014=
201107111500 METAR LPPR 111500Z 27006KT 230V320 9999 FEW013 20/16 Q1014=
201107111430 METAR LPPR 111430Z 27006KT 230V320 9999 FEW014 20/16 Q1014=
201107111400 METAR LPPR 111400Z 29006KT 230V320 9999 FEW014 20/16 Q1015=
201107111330 METAR LPPR 111330Z 29005KT 200V340 9999 FEW014 21/16 Q1014=
201107111300 METAR LPPR 111300Z 26006KT 230V300 9999 FEW014 21/16 Q1014=
201107111230 METAR LPPR 111230Z VRB06KT 9999 FEW012 21/16 Q1015=
201107111200 METAR LPPR 111200Z 28005KT 220V030 9999 FEW013 21/16 Q1015=
201107111130 METAR LPPR 111130Z 28005KT 230V030 9999 FEW016 21/15 Q1015=
201107111100 METAR LPPR 111100Z 27005KT 210V320 9999 SCT013 21/16 Q1015=
201107111030 METAR LPPR 111030Z VRB04KT 9999 FEW011 21/16 Q1015=
201107111000 METAR LPPR 111000Z 24005KT 180V300 9999 SCT011 20/16 Q1015=
201107110930 METAR LPPR 110930Z 24004KT 180V290 9999 FEW008 SCT012 19/16
                        Q1014=
201107110900 METAR LPPR 110900Z 23003KT 190V280 9999 SCT007 BKN008 18/16
                        Q1014=
201107110830 METAR LPPR 110830Z 22004KT 180V270 9999 SCT007 BKN008 17/16
                        Q1014=
201107110800 METAR LPPR 110800Z 22005KT 190V270 9999 SCT007 BKN009 17/16
                        Q1014=
201107110730 METAR LPPR 110730Z 21005KT 180V260 8000 SCT008 BKN009 18/16
                        Q1014=
201107110700 METAR LPPR 110700Z 19004KT 160V230 7000 SCT007 BKN009 17/16
                        Q1014=
201107110630 METAR LPPR 110630Z 16007KT 110V200 6000 BKN007 17/16 Q1014=
201107110600 METAR LPPR 110600Z 12006KT 100V170 7000 BKN007 17/15 Q1014=
201107110530 METAR LPPR 110530Z 12004KT 090V250 9999 BKN007 17/15 Q1014=
201107110500 METAR LPPR 110500Z VRB01KT 9999 SCT006 BKN008 17/16 Q1014=
201107110430 METAR LPPR 110430Z 26001KT 9999 BKN007 17/16 Q1014=
201107110400 METAR LPPR 110400Z 21001KT 9999 BKN006 17/16 Q1014=
201107110330 METAR LPPR 110330Z 00000KT 9999 BKN006 17/16 Q1014=
201107110300 METAR LPPR 110300Z VRB01KT 9999 OVC005 17/16 Q1014=
201107110230 METAR LPPR 110230Z 34003KT 270V020 9999 BKN005 16/16 Q1015=
201107110200 METAR LPPR 110200Z VRB02KT 9999 BKN005 16/16 Q1015=
201107110130 METAR LPPR 110130Z VRB01KT 9999 OVC006 16/16 Q1015=
201107110100 METAR LPPR 110100Z 32003KT 260V020 9999 BKN006 15/15 Q1015=
201107110030 METAR LPPR 110030Z VRB01KT 9999 FEW006 SCT008 15/15 Q1015=
201107110000 METAR LPPR 110000Z 33003KT 9999 FEW006 15/15 Q1015=
201107102330 METAR LPPR 102330Z 33003KT 300V360 9999 FEW007 16/15 Q1016=
201107102300 METAR LPPR 102300Z VRB02KT CAVOK 16/15 Q1016=
201107102230 METAR LPPR 102230Z 32004KT 270V350 CAVOK 16/15 Q1016=
201107102200 METAR LPPR 102200Z 30004KT 270V350 CAVOK 16/15 Q1016=
201107102130 METAR LPPR 102130Z 31004KT 270V340 CAVOK 16/15 Q1016=
201107102100 METAR LPPR 102100Z 31005KT 270V340 CAVOK 16/15 Q1016=
201107102030 METAR LPPR 102030Z 32008KT CAVOK 17/15 Q1016=
201107102000 METAR LPPR 102000Z 32007KT CAVOK 17/15 Q1016=
201107101930 METAR LPPR 101930Z 32008KT CAVOK 18/15 Q1016=
201107101900 METAR LPPR 101900Z 33008KT CAVOK 18/15 Q1016=
201107101830 METAR LPPR 101830Z 32009KT CAVOK 19/15 Q1016=
201107101800 METAR LPPR 101800Z 33012KT CAVOK 19/15 Q1016=
201107101730 METAR LPPR 101730Z 33011KT CAVOK 19/14 Q1016=
201107101700 METAR LPPR 101700Z 32009KT 290V350 CAVOK 19/15 Q1017=
201107101630 METAR LPPR 101630Z 32009KT 280V350 CAVOK 20/14 Q1017=
201107101600 METAR LPPR 101600Z 32011KT 280V350 CAVOK 20/14 Q1017=
201107101530 METAR LPPR 101530Z 33011KT 290V350 CAVOK 20/14 Q1017=
201107101500 METAR LPPR 101500Z 33013KT 290V350 CAVOK 21/15 Q1017=
201107101430 METAR LPPR 101430Z 32012KT CAVOK 21/15 Q1017=
201107101400 METAR LPPR 101400Z 31010KT 270V350 9999 FEW015 21/14 Q1017=
201107101330 METAR LPPR 101330Z 31010KT 280V340 9999 FEW015 21/15 Q1018=
201107101300 METAR LPPR 101300Z 32011KT 280V340 9999 FEW013 21/15 Q1018=
201107101230 METAR LPPR 101230Z 31008KT 230V340 9999 FEW013 21/15 Q1018=
201107101200 METAR LPPR 101200Z 30006KT 230V340 9999 FEW013 21/15 Q1018=
201107101130 METAR LPPR 101130Z 29007KT 9999 FEW013 20/16 Q1018=
201107101100 METAR LPPR 101100Z 30006KT 270V350 9999 FEW013 20/16 Q1018=
201107101030 METAR LPPR 101030Z 30006KT 250V340 9999 FEW009 SCT013 20/17
                        Q1018=
201107101000 METAR LPPR 101000Z 29004KT 260V330 9999 FEW009 SCT013 20/17
                        Q1018=
201107100930 METAR LPPR 100930Z 26005KT 210V300 9999 FEW005 SCT012 19/16
                        Q1018=
201107100900 METAR LPPR 100900Z 33003KT 260V030 9999 FEW003 SCT009 19/16
                        Q1018=
201107100830 METAR LPPR 100830Z 08003KT 7000 FEW002 BKN005 18/17 Q1018=
201107100800 METAR LPPR 100800Z 12003KT 080V170 4000 BR BKN002 17/16 Q1018=
201107100730 METAR LPPR 100730Z 10003KT 060V210 1500 BR VCFG BKN002 BKN004
                        16/16 Q1018=
201107100700 METAR LPPR 100700Z 11003KT 050V140 1200 R17/P2000 BCFG SCT001
                        BKN004 15/15 Q1018=
201107100630 METAR LPPR 100630Z VRB02KT 7000 FEW003 15/15 Q1018=
201107100600 METAR LPPR 100600Z VRB02KT 900 R17/0400N BCFG FEW001 BKN003
                        14/14 Q1018=
201107100530 METAR LPPR 100530Z VRB02KT 200 R17/0350V0500 FG SCT001 BKN002
                        15/14 Q1018=
201107100500 METAR LPPR 100500Z 03003KT 350V060 400 R35/0600D FG SCT001
                        BKN002 15/15 Q1018=
201107100430 METAR LPPR 100430Z 04002KT 5000 BR BKN002 14/14 Q1018=
201107100400 METAR LPPR 100400Z 11001KT 5000 BR SCT003 14/14 Q1018=
201107100330 METAR LPPR 100330Z 00000KT 5000 BR FEW004 14/14 Q1018=
201107100300 METAR LPPR 100300Z 00000KT 6000 SCT005 14/13 Q1018=
201107100230 METAR LPPR 100230Z 00000KT 6000 FEW005 15/14 Q1018=
201107100200 METAR LPPR 100200Z 36002KT 8000 FEW040 15/14 Q1018=
201107100130 METAR LPPR 100130Z 33003KT 300V010 9999 FEW040 16/15 Q1018=
201107100100 METAR LPPR 100100Z 34004KT 9999 FEW020 16/15 Q1019=
201107100030 METAR LPPR 100030Z 34003KT 320V020 9999 FEW024 16/15 Q1019=
201107100000 METAR LPPR 100000Z 34006KT 9999 SCT020 16/15 Q1019=
201107092330 METAR LPPR 092330Z 32004KT 290V360 9999 SCT025 17/15 Q1019=
201107092300 METAR LPPR 092300Z 31004KT 9999 FEW005 SCT025 17/16 Q1019=
201107092230 METAR LPPR 092230Z 32003KT 280V340 9000 FEW003 SCT005 BKN025
                        17/17 Q1019=
201107092200 METAR LPPR 092200Z 32004KT 9000 SCT004 BKN020 18/17 Q1019=
201107092130 METAR LPPR 092130Z 34003KT 300V360 9999 SCT005 SCT015 BKN030
                        18/17 Q1019=
201107092100 METAR LPPR 092100Z 30004KT 260V360 9999 FEW005 SCT007 BKN020
                        18/17 Q1019=
201107092030 METAR LPPR 092030Z 32003KT 9999 FEW006 BKN020 19/17 Q1019=
201107092000 METAR LPPR 092000Z 32004KT 300V010 9999 FEW008 BKN019 19/17
                        Q1018=
201107091930 METAR LPPR 091930Z 30003KT 260V340 9999 FEW008 SCT019 BKN020
                        19/17 Q1018=
201107091900 METAR LPPR 091900Z 30004KT 260V350 9999 FEW009 BKN019 19/16
                        Q1018=
201107091830 METAR LPPR 091830Z 29004KT 240V350 9999 FEW010 SCT020 20/16
                        Q1018=
201107091800 METAR LPPR 091800Z 28005KT 240V320 9999 SCT011 SCT016 20/17
                        Q1018=
201107091730 METAR LPPR 091730Z 28006KT 230V320 9999 FEW009 SCT014 21/17
                        Q1018=
201107091700 METAR LPPR 091700Z 24007KT 220V290 9999 FEW009 BKN013 20/18
                        Q1018=
201107091630 METAR LPPR 091630Z 24006KT 210V280 9999 FEW011 SCT015 21/17
                        Q1018=
201107091600 METAR LPPR 091600Z 24005KT 200V350 9999 FEW012 SCT020 21/17
                        Q1018=
201107091530 METAR LPPR 091530Z 26005KT 210V310 9999 FEW012 SCT020 21/17
                        Q1018=
201107091500 METAR LPPR 091500Z 26006KT 200V310 9999 SCT011 BKN020 21/17
                        Q1018=
201107091430 METAR LPPR 091430Z 24006KT 210V300 9999 SCT010 BKN016 21/18
                        Q1018=
201107091400 METAR LPPR 091400Z 25006KT 190V310 9999 FEW011 BKN015 22/18
                        Q1018=
201107091330 METAR LPPR 091330Z 26006KT 210V300 9999 SCT011 BKN020 22/18
                        Q1018=
201107091300 METAR LPPR 091300Z 23006KT 190V270 9999 SCT008 BKN014 21/18
                        Q1018=
201107091230 METAR LPPR 091230Z 23006KT 180V300 9999 SCT006 BKN008 21/19
                        Q1018=
201107091200 METAR LPPR 091200Z 24006KT 200V270 9999 SCT004 BKN008 20/18
                        Q1018=
201107091130 METAR LPPR 091130Z 21006KT 150V260 7000 BKN002 BKN005 19/19
                        Q1018=
201107091100 METAR LPPR 091100Z 20007KT 180V240 4000 BR BKN001 BKN004
                        19/18 Q1018=
201107091030 METAR LPPR 091030Z 19009KT 160V220 2500 -DZ BR BKN001 OVC004
                        18/18 Q1018=
201107091000 METAR LPPR 091000Z 19008KT 3000 -DZ BR BKN001 BKN004 18/18
                        Q1018=
201107090930 METAR LPPR 090930Z 19008KT 3000 -DZ BR BKN002 BKN005 18/18
                        Q1018=
201107090900 METAR LPPR 090900Z 19007KT 2000 -DZ BR BKN001 BKN004 18/18
                        Q1018=
201107090830 METAR LPPR 090830Z 19008KT 2000 -RADZ BR BKN001 BKN004 18/17
                        Q1018=
201107090800 METAR LPPR 090800Z 20007KT 3000 BR BKN004 BKN013 18/17 Q1018=
201107090730 METAR LPPR 090730Z 20007KT 6000 BKN004 BKN011 18/18 Q1018=
201107090700 METAR LPPR 090700Z 20006KT 6000 BKN004 BKN012 18/17 Q1017=
201107090630 METAR LPPR 090630Z 20006KT 5000 BKN004 BKN008 18/17 Q1017=
201107090600 METAR LPPR 090600Z 20007KT 6000 BKN002 BKN004 18/17 Q1017=
201107090530 METAR LPPR 090530Z 20006KT 3000 BR BKN002 BKN003 18/17 Q1017=
201107090500 METAR LPPR 090500Z 21006KT 180V250 2000 BR BKN001 BKN002
                        18/17 Q1017=
201107090430 METAR LPPR 090430Z 20005KT 170V240 2000 BR BKN001 BKN003
                        18/17 Q1017=
201107090400 METAR LPPR 090400Z 21007KT 180V260 2000 -DZ BR SCT001 BKN003
                        18/17 Q1017=
201107090330 METAR LPPR 090330Z 20006KT 1500 BR VCFG BKN001 BKN003 18/17
                        Q1017=
201107090300 METAR LPPR 090300Z 20006KT 1500 BR VCFG BKN001 BKN003 18/17
                        Q1017=
201107090230 METAR LPPR 090230Z 21005KT 190V260 3000 -DZ BR BKN002 BKN004
                        18/17 Q1017=
201107090200 METAR LPPR 090200Z 21005KT 190V250 5000 BKN003 BKN007 18/17
                        Q1017=
201107090130 METAR LPPR 090130Z 21004KT 180V240 4500 BR BKN002 BKN004
                        18/17 Q1017=
201107090030 METAR LPPR 090030Z 21004KT 170V250 7000 BKN003 BKN007 18/17
                        Q1018=
201107090000 METAR LPPR 090000Z 22004KT 160V250 7000 BKN003 BKN007 18/17
                        Q1018=
201107082330 METAR LPPR 082330Z 21004KT 170V250 4000 BR BKN002 BKN003
                        18/17 Q1018=
201107082300 METAR LPPR 082300Z 21003KT 170V250 7000 BKN003 BKN004 18/17
                        Q1018=
201107082230 METAR LPPR 082230Z 21003KT 7000 SCT003 OVC007 18/17 Q1018=
201107082200 METAR LPPR 082200Z VRB01KT 6000 -RADZ SCT002 BKN006 BKN008
                        18/17 Q1018 RERA=
201107082130 METAR LPPR 082130Z 24003KT 200V290 5000 -RADZ BKN002 BKN009
                        18/17 Q1018=
201107082100 METAR LPPR 082100Z 24004KT 200V280 7000 BKN002 BKN009 BKN013
                        18/17 Q1018=
201107082030 METAR LPPR 082030Z 23004KT 200V270 4600 BR BKN002 BKN003
                        18/17 Q1017=
201107082000 METAR LPPR 082000Z 24004KT 200V290 2100N BR BKN002 BKN003
                        18/17 Q1017=
201107081930 METAR LPPR 081930Z 24006KT 200V280 4100 -RADZ VCFG BKN002
                        BKN003 18/17 Q1017=
201107081900 METAR LPPR 081900Z 23005KT 170V270 6000 BKN003 BKN004 18/17
                        Q1017=
201107081830 METAR LPPR 081830Z 22004KT 170V260 6000 BKN003 BKN004 18/17
                        Q1017=
201107081800 METAR LPPR 081800Z 23008KT 6000 FEW001 BKN003 BKN005 18/18
                        Q1017=
201107081730 METAR LPPR 081730Z 22006KT 170V260 4000 BR FEW001 BKN002
                        18/17 Q1017=
201107081700 METAR LPPR 081700Z 22006KT 190V270 4200N R17/P2000 -RADZ
                        SCT001 BKN002 18/18 Q1017=
201107081630 METAR COR LPPR 081630Z 23007KT 180V270 1900N -RADZ VCFG SCT001
                        BKN002 18/17 Q1017 RERA=
201107081600 METAR LPPR 081600Z 22006KT 190V260 1800S RADZ VCFG SCT001
                        BKN002 18/18 Q1017=
201107081530 METAR LPPR 081530Z 21007KT 180V260 2500N -RADZ VCFG SCT001
                        BKN002 18/18 Q1017=
201107081500 METAR LPPR 081500Z 21007KT 180V240 1500 RA VCFG OVC002 18/18
                        Q1017=
201107081430 METAR LPPR 081430Z 20008KT 1200 R17/1500VP2000 -RA VCFG 17/17
                        Q1017=
201107081400 METAR LPPR 081400Z 20009KT 1200 R17/P2000 -RA VCFG 17/17
                        Q1017=
201107081330 METAR LPPR 081330Z 19012KT 1500 -RA BR OVC003 17/16 Q1017=
201107081300 METAR LPPR 081300Z 19013KT 1600 -RA BR OVC003 17/16 Q1017=
201107081230 METAR LPPR 081230Z 19015KT 1500 -RA BR OVC004 17/16 Q1017=
201107081200 METAR LPPR 081200Z 19015KT 2000 -RADZ BR OVC004 16/16 Q1017=
201107081130 METAR LPPR 081130Z 19012KT 1500 R17/1400D -DZ BR SCT005 BKN007
                        16/15 Q1017=
201107081100 METAR LPPR 081100Z 19014KT 1500 R17/1300V2000N -DZ BR SCT004
                        BKN010 16/15 Q1017=
201107081030 METAR LPPR 081030Z 18014KT 5000 -DZ BR SCT005 BKN010 16/15
                        Q1017=
201107081000 METAR LPPR 081000Z 19014KT 2000 -DZ BR SCT005 BKN010 16/14
                        Q1017=
201107080930 METAR LPPR 080930Z 18012KT 3000 -DZ BR SCT006 BKN011 16/14
                        Q1017=
201107080900 METAR LPPR 080900Z 19011KT 5000 -DZ BR FEW010 SCT012 BKN015
                        16/14 Q1017=
201107080830 METAR LPPR 080830Z 18011KT 8000 SCT013 BKN017 17/13 Q1017=
201107080800 METAR LPPR 080800Z 17010KT 9999 SCT016 BKN020 17/13 Q1017=
201107080730 METAR LPPR 080730Z 17008KT 9999 SCT017 BKN020 17/13 Q1017=
201107080700 METAR LPPR 080700Z 15007KT 9999 BKN020 BKN030 16/12 Q1017=
201107080630 METAR LPPR 080630Z 14007KT 100V160 9999 SCT018 OVC030 16/12
                        Q1017=
201107080600 METAR LPPR 080600Z 13006KT 9999 SCT017 BKN027 15/12 Q1017=
201107080530 METAR LPPR 080530Z 13006KT 9999 BKN030 15/12 Q1017=
201107080500 METAR LPPR 080500Z 13006KT 9999 BKN035 15/12 Q1017=
201107080430 METAR LPPR 080430Z 12004KT 9999 BKN045 14/12 Q1017=
201107080400 METAR LPPR 080400Z 13005KT 9999 BKN045 14/12 Q1017=
201107080330 METAR LPPR 080330Z 15003KT 9999 FEW030 13/12 Q1017=
201107080300 METAR LPPR 080300Z 19003KT 9999 FEW020 12/11 Q1017=
201107080230 METAR LPPR 080230Z 19002KT 9999 FEW013 BKN024 13/11 Q1017=
201107080200 METAR LPPR 080200Z 16003KT 9999 FEW014 BKN023 14/12 Q1017=
201107080130 METAR LPPR 080130Z 19002KT 9999 FEW015 BKN027 14/12 Q1017=
201107080100 METAR LPPR 080100Z 17002KT 9999 FEW015 BKN025 13/12 Q1017=
201107080030 METAR LPPR 080030Z 16001KT 9999 FEW025 13/11 Q1018=
201107080000 METAR LPPR 080000Z VRB01KT CAVOK 14/12 Q1018=
201107072330 METAR LPPR 072330Z 05001KT CAVOK 13/11 Q1018=
201107072300 METAR LPPR 072300Z 30002KT CAVOK 13/11 Q1018=
201107072230 METAR LPPR 072230Z 00000KT CAVOK 14/12 Q1018=
201107072200 METAR LPPR 072200Z VRB01KT CAVOK 14/11 Q1018=
201107072130 METAR LPPR 072130Z VRB02KT 9999 FEW025 15/12 Q1018=
201107072100 METAR LPPR 072100Z VRB02KT 9999 FEW025 15/12 Q1018=
201107072030 METAR LPPR 072030Z 31003KT 270V340 9999 FEW025 16/12 Q1017=
201107072000 METAR LPPR 072000Z 31004KT 280V340 9999 FEW023 17/12 Q1017=
201107071930 METAR LPPR 071930Z 30004KT 240V350 9999 FEW023 17/12 Q1017=
201107071900 METAR LPPR 071900Z 30005KT 250V340 9999 FEW023 18/12 Q1017=
201107071830 METAR LPPR 071830Z 31005KT 270V350 9999 FEW023 18/11 Q1017=
201107071800 METAR LPPR 071800Z 30005KT 260V340 9999 FEW020 19/11 Q1017=
201107071730 METAR LPPR 071730Z 32007KT 280V360 9999 FEW020 19/10 Q1017=
201107071700 METAR LPPR 071700Z 30007KT 270V360 9999 FEW012 19/10 Q1017=
201107071630 METAR LPPR 071630Z 30008KT 250V340 9999 FEW027 19/11 Q1018=
201107071600 METAR LPPR 071600Z 29006KT 230V340 9999 FEW027 19/10 Q1018=
201107071530 METAR LPPR 071530Z 29007KT 230V340 9999 FEW025 19/10 Q1018=
201107071500 METAR LPPR 071500Z 28007KT 220V330 9999 SCT025 BKN050 19/11
                        Q1018=
201107071430 METAR LPPR 071430Z 31008KT 260V340 9999 FEW025 SCT041 BKN050
                        19/10 Q1018=
201107071400 METAR LPPR 071400Z 31011KT 270V350 9999 FEW025 BKN041 19/12
                        Q1018=
201107071330 METAR LPPR 071330Z 32008KT 270V010 9999 SCT025 BKN050 19/12
                        Q1018=
201107071300 METAR LPPR 071300Z 30008KT 190V350 9999 R35/P2000 SCT025 SCT050
                        20/11 Q1018=
201107071230 METAR LPPR 071230Z 30009KT 270V340 9999 FEW025 SCT037 19/11
                        Q1018=
201107071200 METAR LPPR 071200Z 29007KT 260V340 9999 FEW026 20/10 Q1018=
201107071130 METAR LPPR 071130Z 29007KT 240V330 9999 FEW025 SCT032 19/11
                        Q1018=
201107071100 METAR LPPR 071100Z 33010KT 280V360 9999 FEW028 SCT050 19/12
                        Q1018=
201107071030 METAR LPPR 071030Z 31007KT 270V350 9999 SCT024 BKN050 18/12
                        Q1017=
201107071000 METAR LPPR 071000Z 26005KT 210V310 9999 SCT026 SCT050 19/12
                        Q1017=
201107070930 METAR LPPR 070930Z 28005KT 220V310 9999 SCT027 SCT040 BKN049
                        18/12 Q1017=
201107070900 METAR LPPR 070900Z 30003KT 250V320 9999 SCT027 SCT040 BKN049
                        17/12 Q1017=
201107070830 METAR LPPR 070830Z 29004KT 250V340 9999 FEW026 SCT044 17/12
                        Q1017=
201107070800 METAR LPPR 070800Z 33004KT 290V350 9999 FEW025 17/12 Q1017=
201107070730 METAR LPPR 070730Z 35003KT 260V040 9999 FEW025 17/12 Q1017=
201107070700 METAR LPPR 070700Z 11003KT 9999 FEW025 16/13 Q1016=
201107070630 METAR LPPR 070630Z 00000KT 9999 FEW025 14/12 Q1016=
201107070600 METAR LPPR 070600Z 01003KT 320V100 9999 FEW025 SCT035 14/12
                        Q1016=
201107070530 METAR LPPR 070530Z VRB01KT 9999 FEW025 SCT030 13/11 Q1016=
201107070500 METAR LPPR 070500Z 00000KT 9999 FEW025 SCT045 13/12 Q1016=
201107070430 METAR LPPR 070430Z 00000KT CAVOK 12/11 Q1016=
201107070400 METAR LPPR 070400Z 00000KT CAVOK 12/10 Q1016=
201107070330 METAR LPPR 070330Z VRB01KT 9999 FEW046 14/12 Q1016=
201107070300 METAR LPPR 070300Z 36002KT 9999 FEW025 SCT035 13/12 Q1017=
201107070230 METAR LPPR 070230Z 02001KT 9999 FEW025 SCT035 13/12 Q1017=
201107070200 METAR LPPR 070200Z 09001KT CAVOK 12/10 Q1017=
201107070130 METAR LPPR 070130Z VRB01KT CAVOK 13/11 Q1017=
201107070100 METAR LPPR 070100Z 00000KT CAVOK 13/12 Q1017=
201107070030 METAR LPPR 070030Z 35002KT 9999 FEW025 13/11 Q1017=
201107070000 METAR LPPR 070000Z 35002KT 9999 FEW025 14/12 Q1017=
201107062330 METAR LPPR 062330Z 35004KT 9999 FEW025 14/12 Q1018=
201107062300 METAR LPPR 062300Z 34006KT 9999 FEW025 14/12 Q1018=
201107062230 METAR LPPR 062230Z 34007KT 9999 FEW025 15/13 Q1018=
201107062200 METAR LPPR 062200Z 33008KT 9999 FEW025 16/12 Q1018=
201107062130 METAR LPPR 062130Z 33008KT 9999 FEW025 16/12 Q1018=
201107062100 METAR LPPR 062100Z 33007KT 9999 FEW025 16/13 Q1018=
201107062030 METAR LPPR 062030Z 33007KT 9999 FEW025 16/13 Q1017=
201107062000 METAR LPPR 062000Z 33008KT 290V350 9999 FEW025 16/13 Q1017=
201107061930 METAR LPPR 061930Z 33010KT 9999 FEW025 17/13 Q1017=
201107061900 METAR LPPR 061900Z 33011KT 290V360 9999 FEW025 17/12 Q1017=
201107061830 METAR LPPR 061830Z 33010KT 290V350 9999 FEW025 18/12 Q1017=
201107061800 METAR LPPR 061800Z 33012KT 9999 FEW025 18/12 Q1017=
201107061730 METAR LPPR 061730Z 32012KT 290V350 9999 FEW025 18/12 Q1017=
201107061700 METAR LPPR 061700Z 32013KT 9999 FEW025 19/13 Q1017=
201107061630 METAR LPPR 061630Z 32013KT 290V350 9999 FEW025 19/12 Q1018=
201107061600 METAR LPPR 061600Z 32014KT 280V340 9999 FEW025 20/14 Q1018=
201107061530 METAR LPPR 061530Z 32013KT 9999 FEW025 19/12 Q1018=
201107061500 METAR LPPR 061500Z 32014KT 270V350 9999 FEW025 20/12 Q1018=
201107061430 METAR LPPR 061430Z 33012KT 290V350 9999 FEW025 20/11 Q1018=
201107061400 METAR LPPR 061400Z 32012KT 290V350 9999 FEW025 20/12 Q1018=
201107061330 METAR LPPR 061330Z 32012KT 9999 FEW025 20/10 Q1018=
201107061300 METAR LPPR 061300Z 33015KT 9999 FEW025 20/10 Q1018=
201107061230 METAR LPPR 061230Z 32011KT 280V350 9999 FEW024 20/12 Q1018=
201107061200 METAR LPPR 061200Z 31013KT 9999 FEW024 19/12 Q1019=
201107061130 METAR LPPR 061130Z 32013KT 9999 FEW023 19/13 Q1019=
201107061100 METAR LPPR 061100Z 32013KT 9999 FEW024 19/11 Q1019=
201107061030 METAR LPPR 061030Z 32012KT 290V350 9999 FEW023 19/12 Q1019=
201107061000 METAR LPPR 061000Z 34012KT 9999 FEW023 20/11 Q1019=
201107060930 METAR LPPR 060930Z 32011KT 290V350 9999 FEW020 19/13 Q1019=
201107060900 METAR LPPR 060900Z 33009KT 300V010 9999 FEW019 19/12 Q1019=
201107060830 METAR LPPR 060830Z 01009KT 9999 FEW020 19/13 Q1019=
201107060800 METAR LPPR 060800Z 35008KT 320V020 9999 FEW017 SCT049 18/13
                        Q1019=
201107060730 METAR LPPR 060730Z 35006KT 9999 FEW020 SCT050 18/14 Q1019=
201107060700 METAR LPPR 060700Z 01005KT 340V040 9999 FEW020 BKN050 17/14
                        Q1018=
201107060630 METAR LPPR 060630Z 33003KT 290V360 CAVOK 16/14 Q1018=
201107060600 METAR LPPR 060600Z 35005KT 9999 SCT025 15/14 Q1018=
201107060530 METAR LPPR 060530Z 34005KT 9999 FEW019 SCT025 16/14 Q1018=
201107060500 METAR LPPR 060500Z 34007KT 9999 FEW004 SCT018 BKN057 16/15
                        Q1018=
201107060430 METAR LPPR 060430Z 33005KT 9999 SCT004 BKN008 16/16 Q1018=
201107060400 METAR LPPR 060400Z 00000KT 9999 SCT005 BKN007 16/15 Q1018=
201107060330 METAR LPPR 060330Z VRB02KT 9999 SCT007 16/15 Q1018=
201107060300 METAR LPPR 060300Z 35002KT 9999 FEW007 SCT008 15/15 Q1018=
201107060230 METAR LPPR 060230Z 33002KT 9999 BKN008 16/15 Q1018=
201107060200 METAR LPPR 060200Z 01001KT 9999 SCT008 15/14 Q1018=
201107060130 METAR LPPR 060130Z VRB01KT 9999 FEW036 15/14 Q1019=
201107060100 METAR LPPR 060100Z 00000KT 9999 FEW049 15/14 Q1019=
201107060030 METAR LPPR 060030Z 00000KT 9999 FEW008 15/14 Q1019=
201107060000 METAR LPPR 060000Z VRB01KT 9999 4200/ FEW008 14/13 Q1019=
201107052330 METAR LPPR 052330Z 00000KT CAVOK 14/13 Q1019=
201107052300 METAR LPPR 052300Z 27001KT CAVOK 15/13 Q1019=
201107052230 METAR LPPR 052230Z 00000KT CAVOK 16/14 Q1019=
201107052200 METAR LPPR 052200Z VRB02KT CAVOK 16/14 Q1020=
201107052130 METAR LPPR 052130Z 00000KT CAVOK 16/14 Q1019=
201107052100 METAR LPPR 052100Z 32003KT 9999 FEW040 17/14 Q1019=
201107052030 METAR LPPR 052030Z 32005KT 9999 FEW040 18/14 Q1019=
201107052000 METAR LPPR 052000Z 32006KT 300V360 9999 FEW040 18/15 Q1019=
201107051930 METAR LPPR 051930Z 32006KT 280V350 9999 FEW011 19/15 Q1019=
201107051900 METAR LPPR 051900Z 33008KT 290V360 9999 FEW011 19/16 Q1019=
201107051830 METAR LPPR 051830Z 32008KT 290V350 9999 FEW012 19/16 Q1019=
201107051800 METAR LPPR 051800Z 31006KT 270V340 9999 FEW012 20/15 Q1019=
201107051730 METAR LPPR 051730Z 30006KT 270V330 9999 FEW012 20/16 Q1019=
201107051700 METAR LPPR 051700Z 30006KT 240V330 9999 FEW011 20/16 Q1019=
201107051630 METAR LPPR 051630Z 28006KT 230V330 9999 FEW011 BKN045 21/17
                        Q1019=
201107051600 METAR LPPR 051600Z 29005KT 250V310 9999 FEW011 BKN045 21/17
                        Q1019=
201107051530 METAR LPPR 051530Z 27005KT 210V320 9999 FEW012 BKN045 20/16
                        Q1019=
201107051500 METAR LPPR 051500Z 29006KT 220V320 9999 FEW011 BKN049 20/17
                        Q1019=
201107051430 METAR LPPR 051430Z 29005KT 230V340 9999 FEW012 21/16 Q1019=
201107051400 METAR LPPR 051400Z 29006KT 240V340 9999 FEW013 SCT038 21/17
                        Q1019=
201107051330 METAR LPPR 051330Z 29007KT 230V320 9999 FEW012 21/17 Q1020=
201107051300 METAR LPPR 051300Z 30006KT 270V350 9999 FEW015 SCT030 BKN060
                        21/16 Q1020=
201107051230 METAR LPPR 051230Z VRB06KT 9999 FEW008 SCT025 BKN030 21/16
                        Q1020=
201107051200 METAR LPPR 051200Z 23004KT 180V270 9999 SCT003 BKN025 19/18
                        Q1020=
201107051130 METAR LPPR 051130Z 24006KT 210V270 2800 BR VCFG SCT002 BKN005
                        18/17 Q1020=
201107051100 METAR LPPR 051100Z 26004KT 210V300 1600 1300S R17/1800U -DZ
                        VCFG BKN002 BKN011 OVC019 18/17 Q1020=
201107051030 METAR LPPR 051030Z 24006KT 210V300 4000 BR FEW004 BKN009
                        OVC016 19/16 Q1020=
201107051000 METAR LPPR 051000Z 25005KT 200V300 9999 SCT011 BKN022 20/17
                        Q1020=
201107050930 METAR LPPR 050930Z 23005KT 190V270 9999 SCT011 BKN037 21/17
                        Q1020=
201107050900 METAR LPPR 050900Z 25004KT 140V270 9999 FEW009 SCT013 BKN030
                        20/16 Q1020=
201107050830 METAR LPPR 050830Z 14003KT 090V220 9999 FEW008 SCT013 BKN027
                        20/15 Q1020=
201107050800 METAR LPPR 050800Z 14005KT 090V160 9999 FEW005 SCT012 BKN020
                        18/15 Q1020=
201107050730 METAR LPPR 050730Z 14004KT 110V170 9999 FEW010 SCT013 BKN016
                        18/15 Q1020=
201107050700 METAR LPPR 050700Z 14006KT 9999 FEW011 SCT013 BKN017 18/15
                        Q1020=
201107050630 METAR LPPR 050630Z 13004KT 6000 -DZ BKN012 BKN018 17/15 Q1020=
201107050600 METAR LPPR 050600Z 12004KT 080V150 9999 SCT013 BKN023 17/15
                        Q1019=
201107050530 METAR LPPR 050530Z 10003KT 9999 SCT013 BKN016 17/14 Q1019=
201107050500 METAR LPPR 050500Z VRB02KT 9999 FEW013 SCT015 BKN020 17/15
                        Q1019=
201107050430 METAR LPPR 050430Z 14003KT 080V170 9999 FEW012 BKN017 17/14
                        Q1019=
201107050400 METAR LPPR 050400Z 11004KT 9999 FEW012 BKN018 17/15 Q1019=
201107050330 METAR LPPR 050330Z 12003KT 9999 SCT013 BKN018 17/15 Q1019=
201107050300 METAR LPPR 050300Z 12004KT 9999 FEW017 BKN020 17/15 Q1019=
201107050230 METAR LPPR 050230Z 12003KT 9999 FEW017 BKN020 16/15 Q1019=
201107050200 METAR LPPR 050200Z 12004KT 9999 FEW018 BKN022 15/15 Q1019=
201107050130 METAR LPPR 050130Z VRB02KT 9999 SCT025 BKN030 15/14 Q1020=
201107050100 METAR LPPR 050100Z VRB01KT 9999 BKN028 14/14 Q1020=
201107050030 METAR LPPR 050030Z VRB01KT 9999 FEW030 14/13 Q1020=
201107050000 METAR LPPR 050000Z VRB01KT CAVOK 14/13 Q1020=
201107042330 METAR LPPR 042330Z 00000KT CAVOK 14/14 Q1020=
201107042300 METAR LPPR 042300Z 00000KT CAVOK 14/13 Q1020=
201107042230 METAR LPPR 042230Z 00000KT CAVOK 15/14 Q1020=
201107042200 METAR LPPR 042200Z VRB01KT CAVOK 15/14 Q1020=
201107042130 METAR LPPR 042130Z VRB01KT CAVOK 16/14 Q1020=
201107042100 METAR LPPR 042100Z 34002KT CAVOK 16/14 Q1020=
201107042030 METAR LPPR 042030Z 33004KT 300V360 9999 FEW015 16/14 Q1020=
201107042000 METAR LPPR 042000Z 32005KT 280V340 9999 FEW012 17/14 Q1019=
201107041930 METAR LPPR 041930Z 32007KT 290V350 9999 FEW012 17/15 Q1019=
201107041900 METAR LPPR 041900Z 32008KT 280V350 9999 FEW013 18/14 Q1019=
201107041830 METAR LPPR 041830Z 31006KT 260V340 9999 FEW013 18/14 Q1019=
201107041800 METAR LPPR 041800Z 31007KT 270V350 9999 FEW015 18/14 Q1019=
201107041730 METAR LPPR 041730Z 31007KT 280V340 9999 FEW015 18/14 Q1018=
201107041700 METAR LPPR 041700Z 32008KT 280V010 CAVOK 19/14 Q1018=
201107041630 METAR LPPR 041630Z 30007KT 250V350 9999 FEW015 19/14 Q1018=
201107041600 METAR LPPR 041600Z 29008KT 250V320 9999 FEW014 18/14 Q1019=
201107041530 METAR LPPR 041530Z 30008KT 270V340 CAVOK 19/14 Q1018=
201107041500 METAR LPPR 041500Z 29007KT 250V330 CAVOK 19/14 Q1019=
201107041430 METAR LPPR 041430Z 32009KT 280V350 CAVOK 19/13 Q1019=
201107041400 METAR LPPR 041400Z 30007KT 260V350 9999 FEW015 19/14 Q1019=
201107041330 METAR LPPR 041330Z 29006KT 250V310 9999 FEW016 19/14 Q1019=
201107041300 METAR LPPR 041300Z 32008KT 260V350 9999 FEW015 SCT017 19/14
                        Q1019=
201107041230 METAR LPPR 041230Z 29006KT 240V340 9999 FEW013 BKN017 19/14
                        Q1019=
201107041200 METAR LPPR 041200Z 30007KT 230V350 9999 FEW013 BKN017 19/14
                        Q1019=
201107041130 METAR LPPR 041130Z 30006KT 260V350 9999 FEW013 BKN017 18/14
                        Q1019=
201107041100 METAR LPPR 041100Z 32006KT 270V010 9999 SCT012 BKN018 18/15
                        Q1019=
201107041030 METAR LPPR 041030Z 29006KT 9999 FEW009 SCT012 BKN018 18/14
                        Q1019=
201107041000 METAR LPPR 041000Z 29005KT 250V340 9999 SCT009 OVC017 18/14
                        Q1019=
201107040930 METAR LPPR 040930Z 30006KT 270V330 9999 SCT009 OVC017 17/14
                        Q1018=
201107040900 METAR LPPR 040900Z 30006KT 250V340 9999 SCT009 OVC018 17/14
                        Q1018=
201107040830 METAR LPPR 040830Z 30005KT 260V340 9999 FEW009 OVC019 17/14
                        Q1018=
201107040800 METAR LPPR 040800Z 31004KT 270V340 9999 FEW009 OVC020 17/14
                        Q1018=
201107040730 METAR LPPR 040730Z 33005KT 280V360 9999 FEW009 OVC020 17/15
                        Q1018=
201107040700 METAR LPPR 040700Z 33005KT 290V350 9999 FEW009 SCT016 OVC021
                        17/15 Q1017=
201107040630 METAR LPPR 040630Z 34005KT 9000 FEW008 BKN017 OVC020 16/15
                        Q1018=
201107040600 METAR LPPR 040600Z 35005KT 330V030 8000 FEW008 SCT012 OVC018
                        16/15 Q1017=
201107040530 METAR LPPR 040530Z 34006KT 7000 BKN006 OVC010 16/15 Q1017=
201107040500 METAR LPPR 040500Z 33005KT 8000 FEW006 OVC009 16/15 Q1017=
201107040430 METAR LPPR 040430Z 28003KT 240V310 9000 OVC010 16/15 Q1016=
201107040400 METAR LPPR 040400Z VRB02KT 9999 OVC008 16/15 Q1016=
201107040330 METAR LPPR 040330Z VRB02KT 9999 BKN007 OVC009 16/15 Q1016=
201107040300 METAR LPPR 040300Z 10003KT 060V130 9999 BKN006 OVC008 16/15
                        Q1016=
201107040230 METAR LPPR 040230Z 01004KT 9000 OVC006 16/15 Q1016=
201107040200 METAR LPPR 040200Z 33004KT 9999 OVC006 16/15 Q1016=
201107040130 METAR LPPR 040130Z 32004KT 280V350 9999 OVC005 16/15 Q1016=
201107040100 METAR LPPR 040100Z 32007KT 9999 OVC006 16/15 Q1016=
201107040030 METAR LPPR 040030Z 31004KT 260V350 9999 OVC006 16/15 Q1016=
201107040000 METAR LPPR 040000Z 32004KT 260V360 9999 OVC007 17/15 Q1016=
201107032330 METAR LPPR 032330Z 33005KT 290V360 9999 OVC006 17/15 Q1016=
201107032300 METAR LPPR 032300Z 32006KT 290V350 9999 OVC006 17/15 Q1016=
201107032230 METAR LPPR 032230Z 31005KT 270V360 9999 OVC006 17/15 Q1016=
201107032200 METAR LPPR 032200Z 32007KT 270V340 9999 OVC006 17/15 Q1016=
201107032130 METAR LPPR 032130Z 32007KT 290V350 9999 OVC006 17/16 Q1016=
201107032100 METAR LPPR 032100Z 32007KT 290V350 9999 OVC007 17/15 Q1016=
201107032030 METAR LPPR 032030Z 32007KT 9000 BKN007 BKN040 17/15 Q1015=
201107032000 METAR LPPR 032000Z 32008KT 280V350 9999 BKN008 BKN040 17/15
                        Q1015=
201107031930 METAR LPPR 031930Z 32007KT 280V360 9999 BKN008 BKN010 17/16
                        Q1015=
201107031900 METAR LPPR 031900Z 31007KT 260V350 9999 BKN007 BKN010 OVC049
                        17/16 Q1015=
201107031830 METAR LPPR 031830Z 32009KT 270V350 9999 SCT008 BKN010 OVC045
                        17/16 Q1015=
201107031800 METAR LPPR 031800Z 33010KT 280V360 9999 SCT007 BKN009 18/16
                        Q1014=
201107031730 METAR LPPR 031730Z 33010KT 280V350 9999 BKN007 17/16 Q1014=
201107031700 METAR LPPR 031700Z 33011KT 290V350 9999 SCT007 BKN009 18/16
                        Q1014=
201107031630 METAR LPPR 031630Z 32011KT 9999 SCT006 BKN008 18/16 Q1014=
201107031600 METAR LPPR 031600Z 32009KT 9999 SCT006 BKN030 18/16 Q1014=
201107031530 METAR LPPR 031530Z 31009KT 270V350 9999 SCT007 BKN030 18/16
                        Q1014=
201107031500 METAR LPPR 031500Z 30007KT 270V350 9999 FEW007 BKN030 18/16
                        Q1014=
201107031430 METAR LPPR 031430Z 29006KT 250V330 9999 FEW007 SCT011 BKN030
                        18/16 Q1014=
201107031400 METAR LPPR 031400Z 30007KT 260V340 9999 FEW006 SCT008 BKN030
                        18/16 Q1014=
201107031330 METAR LPPR 031330Z 29006KT 260V320 9999 FEW006 BKN030 18/16
                        Q1014=
201107031300 METAR LPPR 031300Z 30006KT 240V340 9999 FEW007 BKN030 19/16
                        Q1014=
201107031230 METAR LPPR 031230Z 29005KT 9999 FEW007 SCT011 BKN030 18/16
                        Q1014=
201107031200 METAR LPPR 031200Z 30006KT 260V330 9999 SCT008 OVC035 19/16
                        Q1014=
201107031130 METAR LPPR 031130Z 32008KT 280V350 9999 SCT009 OVC038 19/16
                        Q1013=
201107031100 METAR LPPR 031100Z 32008KT 290V350 9999 SCT009 OVC035 18/16
                        Q1013=
201107031030 METAR LPPR 031030Z 33008KT 300V360 9999 FEW009 OVC035 18/15
                        Q1013=
201107031000 METAR LPPR 031000Z 32009KT 9999 SCT009 OVC035 17/15 Q1013=
201107030930 METAR LPPR 030930Z 32007KT 280V350 9999 SCT008 OVC035 18/15
                        Q1013=
201107030900 METAR LPPR 030900Z 32008KT 290V350 9999 SCT008 OVC035 17/15
                        Q1013=
201107030830 METAR LPPR 030830Z 35009KT 9999 SCT007 OVC035 17/15 Q1013=
201107030800 METAR LPPR 030800Z 32008KT 290V350 9999 FEW007 OVC027 17/15
                        Q1013=
201107030730 METAR LPPR 030730Z 32006KT 300V360 7000 FEW007 OVC025 17/15
                        Q1012=
201107030700 METAR LPPR 030700Z 32005KT 9999 FEW007 OVC025 17/14 Q1012=
201107030630 METAR LPPR 030630Z 34006KT 9999 OVC025 17/14 Q1012=
201107030600 METAR LPPR 030600Z 34004KT 9999 OVC030 17/13 Q1012=
201107030530 METAR LPPR 030530Z 02004KT 9999 OVC030 17/13 Q1011=
201107030500 METAR LPPR 030500Z 35005KT 9999 OVC030 16/12 Q1011=
201107030430 METAR LPPR 030430Z 34005KT 9999 OVC030 16/12 Q1011=
201107030400 METAR LPPR 030400Z 36005KT 9999 OVC030 16/13 Q1011=
201107030330 METAR LPPR 030330Z 36005KT 9999 OVC030 16/13 Q1011=
201107030300 METAR LPPR 030300Z 36004KT 9999 OVC030 16/13 Q1011=
201107030230 METAR LPPR 030230Z 34003KT 9999 OVC030 17/13 Q1011=
201107030200 METAR LPPR 030200Z 32002KT 9999 FEW009 OVC030 17/13 Q1011=
201107030130 METAR LPPR 030130Z VRB02KT 9999 FEW009 OVC025 17/13 Q1011=
201107030100 METAR LPPR 030100Z 36002KT 9999 OVC030 17/13 Q1011=
201107030030 METAR LPPR 030030Z 36003KT 9999 FEW009 BKN017 17/13 Q1012=
201107030000 METAR LPPR 030000Z 36004KT 9999 SCT009 BKN0013 17/14 Q1012=
201107022330 METAR LPPR 022330Z VRB02KT 9999 BKN009 BKN013 17/14 Q1012=
201107022300 METAR LPPR 022300Z 32005KT 9999 -DZ BKN009 BKN012 17/14 Q1012=
201107022230 METAR LPPR 022230Z 29003KT 250V340 9999 BKN009 BKN012 17/15
                        Q1012=
201107022200 METAR LPPR 022200Z 20003KT 160V230 9999 SCT010 BKN028 FEW010
                        BKN028 17/15 Q1012=
201107022130 METAR LPPR 022130Z 22003KT 180V280 9999 SCT012 BKN028 17/15
                        Q1012=
201107022100 METAR LPPR 022100Z 23004KT 200V270 9999 SCT012 BKN027 17/15
                        Q1012=
201107022030 METAR LPPR 022030Z 23004KT 160V270 9999 FEW012 SCT014 BKN026
                        17/15 Q1012=
201107022000 METAR LPPR 022000Z 21003KT 170V260 9999 FEW020 BKN025 17/15
                        Q1012=
201107021930 METAR LPPR 021930Z 24003KT 190V280 9999 FEW013 SCT017 BKN027
                        17/15 Q1012=
201107021900 METAR LPPR 021900Z 22005KT 180V290 9999 FEW013 SCT015 BKN024
                        18/15 Q1012=
201107021830 METAR LPPR 021830Z 24005KT 170V280 9999 SCT015 SCT018 BKN022
                        18/15 Q1012=
201107021800 METAR LPPR 021800Z 25006KT 210V290 9999 FEW015 SCT017 19/14
                        Q1012=
201107021730 METAR LPPR 021730Z 24006KT 200V290 9999 BKN018 19/14 Q1012=
201107021700 METAR LPPR 021700Z 24006KT 180V290 9999 SCT021 19/14 Q1012=
201107021630 METAR LPPR 021630Z 23007KT 200V280 9999 SCT021 19/14 Q1013=
201107021600 METAR LPPR 021600Z 23006KT 170V310 9999 BKN022 20/14 Q1013=
201107021530 METAR LPPR 021530Z 24006KT 180V350 9999 FEW023 20/13 Q1013=
201107021500 METAR LPPR 021500Z 23006KT 190V290 9999 FEW023 19/13 Q1013=
201107021430 METAR LPPR 021430Z 25005KT 180V310 9999 FEW022 20/13 Q1013=
201107021400 METAR LPPR 021400Z 20008KT 160V260 9999 FEW017 SCT020 19/13
                        Q1013=
201107021330 METAR LPPR 021330Z 25006KT 160V310 9999 FEW015 BKN019 19/13
                        Q1013=
201107021300 METAR LPPR 021300Z 21007KT 170V300 9999 FEW015 BKN018 19/13
                        Q1014=
201107021230 METAR LPPR 021230Z 23007KT 190V260 9999 BKN019 19/13 Q1014=
201107021200 METAR LPPR 021200Z 23008KT 180V260 9999 BKN017 18/13 Q1014=
201107021130 METAR LPPR 021130Z 20007KT 170V230 9999 BKN015 18/13 Q1014=
201107021100 METAR LPPR 021100Z 21008KT 180V240 9999 BKN014 17/13 Q1014=
201107021030 METAR LPPR 021030Z 20008KT 9999 BKN013 17/14 Q1014=
201107021000 METAR LPPR 021000Z 21008KT 180V250 9999 BKN012 17/14 Q1014=
201107020930 METAR LPPR 020930Z 21007KT 9999 BKN011 17/14 Q1014=
201107020900 METAR LPPR 020900Z 20007KT 9999 BKN010 17/14 Q1014=
201107020830 METAR LPPR 020830Z 21006KT 180V240 9999 BKN010 17/14 Q1014=
201107020800 METAR LPPR 020800Z 21007KT 9999 BKN010 17/14 Q1014=
201107020730 METAR LPPR 020730Z 17007KT 9999 BKN010 17/14 Q1013=
201107020700 METAR LPPR 020700Z 20006KT 170V230 9999 BKN009 16/14 Q1014=
201107020630 METAR LPPR 020630Z 20006KT 9999 OVC009 16/14 Q1014=
201107020600 METAR LPPR 020600Z 20005KT 170V240 9999 OVC008 16/15 Q1013=
201107020530 METAR LPPR 020530Z VRB02KT 9000 OVC007 16/15 Q1014=
201107020500 METAR LPPR 020500Z 18006KT 9000 OVC006 16/15 Q1014=
201107020430 METAR LPPR 020430Z 20003KT 170V230 8000 OVC003 16/15 Q1014=
201107020400 METAR LPPR 020400Z 19004KT 160V230 6000 OVC002 16/16 Q1014=
201107020330 METAR LPPR 020330Z 19005KT 160V220 8000 OVC003 16/16 Q1014=
201107020300 METAR LPPR 020300Z 21004KT 180V270 6000 FEW002 OVC004 16/16
                        Q1014=
201107020230 METAR LPPR 020230Z VRB02KT 7000 SCT002 BKN004 16/16 Q1014=
201107020200 METAR LPPR 020200Z 21002KT 6000 FEW002 SCT004 BKN009 16/16
                        Q1014=
201107020130 METAR LPPR 020130Z 19003KT 160V220 4000 BR SCT003 16/16 Q1014=
201107020100 METAR LPPR 020100Z 2000 BR FEW002 16/16 Q1015=
201107020030 METAR LPPR 020030Z VRB02KT 0500 MIFG BKN002 17/16 Q1015=
201107020000 METAR LPPR 020000Z 21003KT 0600 MIFG SCT002 SCT005 17/16
                        Q1015=
201107012330 METAR LPPR 012330Z 00000KT 4000 BR FEW004 16/15 Q1015=
201107012300 METAR LPPR 012300Z 24003KT 210V270 9999 FEW008 17/16 Q1015=
201107012230 METAR LPPR 012230Z 23003KT 210V280 CAVOK 16/15 Q1015=
201107012200 METAR LPPR 012200Z VRB01KT CAVOK 17/16 Q1015=
201107012130 METAR LPPR 012130Z VRB01KT CAVOK 18/16 Q1015=
201107012100 METAR LPPR 012100Z VRB02KT CAVOK 18/16 Q1015=
201107012030 METAR LPPR 012030Z VRB02KT CAVOK 18/15 Q1015=
201107012000 METAR LPPR 012000Z 26003KT 210V300 CAVOK 19/17 Q1015=
201107011930 METAR LPPR 011930Z 24004KT 210V270 CAVOK 21/16 Q1015=
201107011900 METAR LPPR 011900Z 26003KT 210V320 CAVOK 22/17 Q1015=
201107011830 METAR LPPR 011830Z 24004KT 200V280 CAVOK 23/16 Q1015=
201107011800 METAR LPPR 011800Z 26005KT 230V290 CAVOK 24/14 Q1015=
201107011730 METAR LPPR 011730Z 25004KT 200V310 CAVOK 24/13 Q1015=
201107011700 METAR LPPR 011700Z 25004KT 210V300 CAVOK 24/13 Q1015=
201107011630 METAR LPPR 011630Z 24005KT 200V270 CAVOK 24/13 Q1016=
201107011600 METAR LPPR 011600Z 23007KT 200V260 CAVOK 25/12 Q1016=
201107011530 METAR LPPR 011530Z 23006KT 200V270 CAVOK 25/12 Q1016=
201107011500 METAR LPPR 011500Z 27005KT 220V320 CAVOK 25/12 Q1016=
201107011430 METAR LPPR 011430Z 28005KT 230V310 CAVOK 25/12 Q1016=
201107011400 METAR LPPR 011400Z 29005KT 230V330 CAVOK 25/12 Q1016=
201107011330 METAR LPPR 011330Z 26005KT 220V320 CAVOK 26/13 Q1016=
201107011300 METAR LPPR 011300Z 27005KT 220V320 CAVOK 24/12 Q1016=
201107011230 METAR LPPR 011230Z 24004KT 210V290 CAVOK 25/12 Q1016=
201107011200 METAR LPPR 011200Z 27005KT 210V310 CAVOK 26/13 Q1016=
201107011130 METAR LPPR 011130Z 25006KT CAVOK 25/13 Q1016=
201107011100 METAR LPPR 011100Z 24006KT 210V280 CAVOK 25/14 Q1016=
201107011030 METAR LPPR 011030Z 26005KT 210V290 CAVOK 25/15 Q1016=
201107011000 METAR LPPR 011000Z VRB06KT CAVOK 24/14 Q1017=
201107010930 METAR LPPR 010930Z 09006KT 050V140 CAVOK 28/10 Q1016=
201107010900 METAR LPPR 010900Z 08007KT 050V130 CAVOK 27/09 Q1016=
201107010830 METAR LPPR 010830Z 11009KT CAVOK 26/09 Q1017=
201107010800 METAR LPPR 010800Z 11010KT 090V160 CAVOK 26/10 Q1017=
201107010730 METAR LPPR 010730Z 12010KT CAVOK 24/10 Q1016=
201107010700 METAR LPPR 010700Z 10009KT CAVOK 23/11 Q1016=
201107010630 METAR LPPR 010630Z 11006KT CAVOK 22/11 Q1016=
201107010600 METAR LPPR 010600Z 11005KT 080V140 CAVOK 20/12 Q1016=
201107010530 METAR LPPR 010530Z 05003KT 330V100 CAVOK 16/13 Q1016=
201107010500 METAR LPPR 010500Z 36003KT CAVOK 16/13 Q1016=
201107010430 METAR LPPR 010430Z 36003KT CAVOK 15/13 Q1016=
201107010400 METAR LPPR 010400Z VRB01KT CAVOK 16/13 Q1016=
201107010330 METAR LPPR 010330Z VRB01KT CAVOK 16/13 Q1016=
201107010300 METAR LPPR 010300Z VRB01KT CAVOK 17/14 Q1016=
201107010230 METAR LPPR 010230Z 15003KT CAVOK 17/13 Q1016=
201107010200 METAR LPPR 010200Z 14002KT CAVOK 18/13 Q1016=
201107010130 METAR LPPR 010130Z VRB02KT CAVOK 18/14 Q1016=
201107010100 METAR LPPR 010100Z VRB02KT CAVOK 17/14 Q1016=
201107010030 METAR LPPR 010030Z 05002KT CAVOK 18/13 Q1016=
201107010000 METAR LPPR 010000Z VRB01KT CAVOK 19/13 Q1017=

</pre>

</body>
</html>
