##########################################################
# Query made at 11/07/2014 17:15:47 UTC
# Time interval: from 07/01/2012 00:00  to 07/31/2012 23:59  UTC
##########################################################

##########################################################
# LPPR, Porto / Pedras Rubras (Portugal)
# WMO index: 08545
# Latitude 41-14N. Longitude 008-41W. Altitude 69 m.
##########################################################

###################################
#  METAR/SPECI from LPPR
###################################
201207312330 METAR LPPR 312330Z 00000KT 6000 SCT005 14/14 Q1018=
201207312300 METAR LPPR 312300Z VRB01KT 5000 BR FEW005 SCT008 14/13 Q1019=
201207312230 METAR LPPR 312230Z 00000KT 9000 BKN008 14/13 Q1018=
201207312200 METAR LPPR 312200Z 00000KT 9999 BKN009 15/14 Q1018=
201207312130 METAR LPPR 312130Z VRB01KT 9999 SCT009 SCT013 15/14 Q1018=
201207312100 METAR LPPR 312100Z 00000KT 9999 SCT009 SCT013 16/15 Q1018=
201207312030 METAR LPPR 312030Z 33002KT 9999 SCT009 BKN012 17/15 Q1018=
201207312000 METAR LPPR 312000Z 33005KT 310V010 9999 SCT009 BKN012 17/15
                        Q1018=
201207311930 METAR LPPR 311930Z 33005KT 270V010 9999 SCT009 BKN013 18/15
                        Q1018=
201207311900 METAR LPPR 311900Z 30004KT 240V340 9999 SCT009 BKN011 18/15
                        Q1018=
201207311830 METAR LPPR 311830Z 30004KT 240V360 9999 SCT009 BKN011 18/15
                        Q1018=
201207311800 METAR LPPR 311800Z 32005KT 280V360 9999 SCT010 BKN014 18/15
                        Q1018=
201207311730 METAR LPPR 311730Z 29006KT 240V320 9999 SCT010 BKN014 19/16
                        Q1018=
201207311700 METAR LPPR 311700Z 29006KT 250V320 9999 SCT011 BKN013 19/15
                        Q1018=
201207311630 METAR LPPR 311630Z 26007KT 210V330 9999 BKN012 BKN015 19/15
                        Q1018=
201207311600 METAR LPPR 311600Z 25008KT 210V300 9999 SCT012 BKN016 19/15
                        Q1018=
201207311530 METAR LPPR 311530Z 23006KT 190V280 9999 SCT012 BKN016 19/15
                        Q1018=
201207311500 METAR LPPR 311500Z 23007KT 180V280 9999 SCT013 BKN017 19/15
                        Q1019=
201207311430 METAR LPPR 311430Z 24008KT 200V270 9999 SCT013 BKN017 19/15
                        Q1019=
201207311400 METAR LPPR 311400Z 23008KT 190V260 9999 SCT013 BKN016 20/15
                        Q1019=
201207311330 METAR LPPR 311330Z 23009KT 180V270 9999 BKN015 19/15 Q1019=
201207311300 METAR LPPR 311300Z 22008KT 190V270 9999 SCT014 BKN018 19/15
                        Q1019=
201207311230 METAR LPPR 311230Z 21010KT 180V240 9999 FEW009 BKN015 19/15
                        Q1019=
201207311200 METAR LPPR 311200Z 20011KT 180V260 9999 FEW009 BKN015 19/15
                        Q1019=
201207311130 METAR LPPR 311130Z 20010KT 170V230 9999 SCT009 BKN013 18/16
                        Q1019=
201207311100 METAR LPPR 311100Z 20010KT 180V270 9999 OVC009 18/16 Q1018=
201207311030 METAR LPPR 311030Z 19011KT 9000 OVC009 18/16 Q1018=
201207311000 METAR LPPR 311000Z 19011KT 9999 OVC009 18/16 Q1018=
201207310930 METAR LPPR 310930Z 18012KT 7000 OVC009 18/16 Q1018=
201207310900 METAR LPPR 310900Z 18012KT 9999 OVC009 18/16 Q1017=
201207310830 METAR LPPR 310830Z 17012KT 9999 OVC009 18/16 Q1017=
201207310800 METAR LPPR 310800Z 17011KT 9999 SCT008 BKN009 18/16 Q1017=
201207310730 METAR LPPR 310730Z 17010KT 9999 SCT007 BKN008 18/16 Q1017=
201207310700 METAR LPPR 310700Z 17011KT 9999 SCT007 BKN008 17/16 Q1017=
201207310630 METAR LPPR 310630Z 17010KT 9000 SCT006 BKN007 17/16 Q1017=
201207310600 METAR LPPR 310600Z 17010KT 9000 SCT006 BKN007 17/16 Q1017=
201207310530 METAR LPPR 310530Z 18010KT 8000 SCT006 BKN007 17/16 Q1017=
201207310500 METAR LPPR 310500Z 18009KT 9999 BKN006 17/16 Q1017=
201207310430 METAR LPPR 310430Z 17013KT 9999 BKN006 17/16 Q1017=
201207310400 METAR LPPR 310400Z 17011KT 9999 BKN006 17/16 Q1017=
201207310330 METAR LPPR 310330Z 18009KT 9999 BKN006 17/15 Q1017=
201207310300 METAR LPPR 310300Z 18010KT 9999 BKN006 17/15 Q1017=
201207310230 METAR LPPR 310230Z 18011KT 9999 BKN006 17/15 Q1017=
201207310200 METAR LPPR 310200Z 17011KT 9999 BKN006 17/15 Q1017=
201207310130 METAR LPPR 310130Z 18011KT 9999 BKN005 17/15 Q1017=
201207310100 METAR LPPR 310100Z 17009KT 9999 BKN005 17/16 Q1017=
201207310030 METAR LPPR 310030Z 18011KT 9999 BKN005 17/15 Q1018=
201207310000 METAR LPPR 310000Z 18012KT 9999 BKN006 17/15 Q1018=
201207302330 METAR LPPR 302330Z 18012KT 9999 SCT005 BKN006 17/15 Q1018=
201207302300 METAR LPPR 302300Z 17013KT 9999 BKN006 17/15 Q1018=
201207302230 METAR LPPR 302230Z 18010KT 9999 BKN006 17/15 Q1018=
201207302200 METAR LPPR 302200Z 18008KT 9999 BKN006 16/15 Q1018=
201207302130 METAR LPPR 302130Z 19008KT CAVOK 16/15 Q1018=
201207302100 METAR LPPR 302100Z 19007KT CAVOK 16/15 Q1018=
201207302030 METAR LPPR 302030Z 21005KT CAVOK 16/15 Q1017=
201207302000 METAR LPPR 302000Z 25003KT 220V300 CAVOK 16/15 Q1017=
201207301930 METAR LPPR 301930Z 27005KT CAVOK 18/15 Q1017=
201207301900 METAR LPPR 301900Z 28004KT 250V310 CAVOK 19/15 Q1017=
201207301830 METAR LPPR 301830Z 29005KT CAVOK 19/15 Q1017=
201207301800 METAR LPPR 301800Z 29005KT CAVOK 21/16 Q1017=
201207301730 METAR LPPR 301730Z 31006KT 270V350 CAVOK 22/16 Q1017=
201207301700 METAR LPPR 301700Z 31007KT 270V350 CAVOK 22/16 Q1017=
201207301630 METAR LPPR 301630Z 31007KT CAVOK 22/16 Q1017=
201207301600 METAR LPPR 301600Z 30007KT CAVOK 22/16 Q1017=
201207301530 METAR LPPR 301530Z 31006KT 280V340 CAVOK 23/16 Q1017=
201207301500 METAR LPPR 301500Z 31008KT 270V340 CAVOK 22/16 Q1018=
201207301430 METAR LPPR 301430Z 31007KT 260V350 CAVOK 22/16 Q1018=
201207301400 METAR LPPR 301400Z 32008KT 290V360 CAVOK 22/16 Q1018=
201207301330 METAR LPPR 301330Z 31007KT 270V340 CAVOK 21/16 Q1018=
201207301300 METAR LPPR 301300Z 31008KT 280V340 CAVOK 22/15 Q1018=
201207301230 METAR LPPR 301230Z 31007KT 280V010 CAVOK 22/15 Q1018=
201207301200 METAR LPPR 301200Z 30005KT 260V350 CAVOK 21/15 Q1019=
201207301130 METAR LPPR 301130Z 30006KT 260V350 CAVOK 21/14 Q1019=
201207301100 METAR LPPR 301100Z 29005KT 260V320 CAVOK 21/14 Q1019=
201207301030 METAR LPPR 301030Z 29005KT 270V340 CAVOK 20/15 Q1019=
201207301000 METAR LPPR 301000Z 25005KT 220V310 CAVOK 20/15 Q1019=
201207300930 METAR LPPR 300930Z 24005KT 210V290 CAVOK 20/15 Q1019=
201207300900 METAR LPPR 300900Z 25004KT 180V300 CAVOK 20/15 Q1019=
201207300830 METAR LPPR 300830Z 29003KT 260V360 CAVOK 18/15 Q1019=
201207300800 METAR LPPR 300800Z VRB01KT CAVOK 18/15 Q1019=
201207300730 METAR LPPR 300730Z 19003KT 160V230 CAVOK 17/14 Q1019=
201207300700 METAR LPPR 300700Z VRB01KT CAVOK 15/14 Q1019=
201207300630 METAR LPPR 300630Z 17002KT 9000 NSC 13/12 Q1019=
201207300600 METAR LPPR 300600Z VRB01KT 9000 NSC 12/11 Q1019=
201207300530 METAR LPPR 300530Z 15004KT CAVOK 12/12 Q1018=
201207300500 METAR LPPR 300500Z VRB01KT 9999 FEW006 12/11 Q1018=
201207300430 METAR LPPR 300430Z 15001KT 9000 FEW007 12/11 Q1018=
201207300400 METAR LPPR 300400Z 00000KT CAVOK 12/12 Q1018=
201207300330 METAR LPPR 300330Z 01002KT CAVOK 12/11 Q1018=
201207300300 METAR LPPR 300300Z VRB01KT CAVOK 12/11 Q1018=
201207300230 METAR LPPR 300230Z VRB01KT CAVOK 12/12 Q1018=
201207300200 METAR LPPR 300200Z 02002KT CAVOK 12/12 Q1018=
201207300130 METAR LPPR 300130Z 00000KT CAVOK 13/12 Q1018=
201207300100 METAR LPPR 300100Z 00000KT CAVOK 13/12 Q1018=
201207300030 METAR LPPR 300030Z 00000KT CAVOK 14/13 Q1018=
201207300000 METAR LPPR 300000Z 34002KT CAVOK 14/13 Q1019=
201207292330 METAR LPPR 292330Z VRB02KT CAVOK 15/13 Q1019=
201207292300 METAR LPPR 292300Z 33004KT CAVOK 15/13 Q1019=
201207292230 METAR LPPR 292230Z 34006KT CAVOK 16/13 Q1019=
201207292200 METAR LPPR 292200Z 34007KT CAVOK 16/13 Q1019=
201207292130 METAR LPPR 292130Z 34009KT CAVOK 16/13 Q1019=
201207292100 METAR LPPR 292100Z 34009KT CAVOK 16/13 Q1018=
201207292030 METAR LPPR 292030Z 34011KT CAVOK 16/13 Q1018=
201207292000 METAR LPPR 292000Z 34010KT CAVOK 17/13 Q1018=
201207291930 METAR LPPR 291930Z 34011KT CAVOK 18/13 Q1018=
201207291900 METAR LPPR 291900Z 34014KT CAVOK 18/13 Q1018=
201207291830 METAR LPPR 291830Z 34013KT CAVOK 19/13 Q1018=
201207291800 METAR LPPR 291800Z 34013KT CAVOK 20/13 Q1018=
201207291730 METAR LPPR 291730Z 34011KT 300V010 CAVOK 20/13 Q1018=
201207291700 METAR LPPR 291700Z 32009KT 280V360 CAVOK 20/13 Q1018=
201207291630 METAR LPPR 291630Z 32010KT 290V350 CAVOK 21/13 Q1018=
201207291600 METAR LPPR 291600Z 32012KT CAVOK 21/14 Q1018=
201207291530 METAR LPPR 291530Z 32012KT CAVOK 21/14 Q1018=
201207291500 METAR LPPR 291500Z 33012KT 290V360 CAVOK 21/14 Q1018=
201207291430 METAR LPPR 291430Z 32011KT 270V350 CAVOK 21/14 Q1018=
201207291400 METAR LPPR 291400Z 32010KT 290V350 CAVOK 20/15 Q1018=
201207291330 METAR LPPR 291330Z 31008KT 280V340 CAVOK 20/14 Q1018=
201207291300 METAR LPPR 291300Z 30007KT 250V340 CAVOK 19/14 Q1019=
201207291230 METAR LPPR 291230Z 29006KT 260V340 CAVOK 19/15 Q1018=
201207291200 METAR LPPR 291200Z 28005KT 220V320 9000 FEW012 19/15 Q1018=
201207291130 METAR LPPR 291130Z 28005KT 200V320 9000 SCT008 18/15 Q1018=
201207291100 METAR LPPR 291100Z 28004KT 190V360 8000 SCT008 BKN010 18/15
                        Q1018=
201207291030 METAR LPPR 291030Z 29005KT 250V320 8000 SCT008 BKN011 18/15
                        Q1018=
201207291000 METAR LPPR 291000Z 26005KT 210V310 8000 SCT008 BKN010 18/15
                        Q1018=
201207290930 METAR LPPR 290930Z 25005KT 210V290 7000 SCT005 BKN009 18/15
                        Q1018=
201207290900 METAR LPPR 290900Z VRB02KT 7000 SCT003 BKN006 18/15 Q1018=
201207290830 METAR LPPR 290830Z 18003KT 120V250 4800 BR SCT002 BKN004
                        17/15 Q1017=
201207290800 METAR LPPR 290800Z 10004KT 030V150 4800 BR SCT002 BKN003
                        15/15 Q1017=
201207290730 METAR LPPR 290730Z 08003KT 020V160 4000 BR SCT003 BKN004
                        15/14 Q1017=
201207290700 METAR LPPR 290700Z VRB02KT 4000 BR FEW002 BKN004 15/14 Q1017=
201207290630 METAR LPPR 290630Z 15003KT 100V180 4000 BR SCT002 BKN004
                        15/14 Q1016=
201207290600 METAR LPPR 290600Z 12004KT 4000 BR BKN002 14/14 Q1016=
201207290530 METAR LPPR 290530Z 10004KT 060V130 5000 BR SCT003 BKN012
                        14/13 Q1016=
201207290500 METAR LPPR 290500Z 11004KT 9000 FEW011 11/11 Q1016=
201207290430 METAR LPPR 290430Z 10003KT 050V140 9000 FEW012 13/12 Q1015=
201207290400 METAR LPPR 290400Z 13004KT 9000 FEW011 13/13 Q1016=
201207290330 METAR LPPR 290330Z 11003KT 060V140 9000 NSC 13/12 Q1016=
201207290300 METAR LPPR 290300Z 14004KT CAVOK 14/13 Q1016=
201207290230 METAR LPPR 290230Z 13004KT 9999 FEW011 14/13 Q1016=
201207290200 METAR LPPR 290200Z 16003KT 9999 FEW010 13/12 Q1016=
201207290130 METAR LPPR 290130Z 00000KT CAVOK 13/12 Q1016=
201207290100 METAR LPPR 290100Z 19004KT CAVOK 14/13 Q1016=
201207290030 METAR LPPR 290030Z 15003KT CAVOK 14/13 Q1016=
201207290000 METAR LPPR 290000Z VRB01KT CAVOK 14/13 Q1016=
201207282330 METAR LPPR 282330Z VRB02KT CAVOK 15/13 Q1016=
201207282300 METAR LPPR 282300Z 32004KT CAVOK 16/14 Q1016=
201207282230 METAR LPPR 282230Z 34008KT CAVOK 16/14 Q1016=
201207282200 METAR LPPR 282200Z 34008KT CAVOK 16/14 Q1016=
201207282130 METAR LPPR 282130Z 33008KT 280V360 CAVOK 17/14 Q1016=
201207282100 METAR LPPR 282100Z 33008KT CAVOK 17/14 Q1016=
201207282030 METAR LPPR 282030Z 34008KT CAVOK 17/14 Q1016=
201207282000 METAR LPPR 282000Z 34010KT CAVOK 18/13 Q1016=
201207281930 METAR LPPR 281930Z 34012KT 300V360 CAVOK 19/13 Q1015=
201207281900 METAR LPPR 281900Z 33011KT CAVOK 20/14 Q1015=
201207281830 METAR LPPR 281830Z 33011KT 9999 FEW019 21/14 Q1015=
201207281800 METAR LPPR 281800Z 34011KT 310V010 9999 FEW019 21/14 Q1015=
201207281730 METAR LPPR 281730Z 33011KT 300V010 9999 FEW019 22/15 Q1015=
201207281700 METAR LPPR 281700Z 32009KT 300V360 9999 FEW020 22/16 Q1015=
201207281630 METAR LPPR 281630Z 32009KT 9999 FEW020TCU 23/16 Q1015=
201207281600 METAR LPPR 281600Z 33011KT 290V350 9999 FEW022TCU 22/16 Q1015=
201207281530 METAR LPPR 281530Z 32011KT 9999 FEW022TCU 23/16 Q1015=
201207281500 METAR LPPR 281500Z 33011KT 9999 FEW022TCU 23/16 Q1015=
201207281430 METAR LPPR 281430Z 33011KT 290V350 9999 FEW022TCU 23/16 Q1015=
201207281400 METAR LPPR 281400Z 33011KT 300V360 9999 FEW022TCU 23/16 Q1015=
201207281330 METAR LPPR 281330Z 31010KT 280V340 9999 FEW022TCU 23/16 Q1015=
201207281300 METAR LPPR 281300Z 32010KT 290V350 9999 FEW022TCU 22/17 Q1015=
201207281230 METAR LPPR 281230Z 31007KT 210V350 9999 FEW020 22/16 Q1016=
201207281200 METAR LPPR 281200Z 29007KT 260V320 9999 FEW019 22/16 Q1016=
201207281130 METAR LPPR 281130Z 28006KT 230V320 9999 FEW018 21/16 Q1016=
201207281100 METAR LPPR 281100Z 30005KT 260V340 9999 FEW018 21/17 Q1015=
201207281030 METAR LPPR 281030Z 30006KT 250V340 9999 FEW017 21/17 Q1015=
201207281000 METAR LPPR 281000Z 30006KT 270V340 9000 SCT017 20/17 Q1015=
201207280930 METAR LPPR 280930Z 29004KT 250V320 7000 FEW010 BKN016 20/17
                        Q1015=
201207280900 METAR LPPR 280900Z 28004KT 260V320 7000 FEW010 BKN015 20/17
                        Q1016=
201207280830 METAR LPPR 280830Z 30004KT 270V330 7000 FEW009 BKN015 20/17
                        Q1016=
201207280800 METAR LPPR 280800Z 35004KT 330V040 5000 BR FEW004 BKN016
                        19/17 Q1016=
201207280730 METAR LPPR 280730Z 34004KT 5000 BR FEW004 BKN016 18/17 Q1015=
201207280700 METAR LPPR 280700Z 33004KT 300V360 4500 BR FEW003 SCT012
                        BKN017 18/17 Q1015=
201207280630 METAR LPPR 280630Z 34004KT 4500 BR SCT004 BKN013 18/17 Q1015=
201207280600 METAR LPPR 280600Z 34003KT 310V010 3500 BR FEW005 SCT008
                        BKN013 17/17 Q1015=
201207280530 METAR LPPR 280530Z 34003KT 3500 BR FEW003 BKN007 OVC014 17/17
                        Q1015=
201207280500 METAR LPPR 280500Z 32004KT 6000 BKN003 BKN012 17/17 Q1015=
201207280430 METAR LPPR 280430Z 32004KT 6000 BKN002 BKN008 18/17 Q1015=
201207280400 METAR LPPR 280400Z 33005KT 4900 BR BKN003 BKN008 18/17 Q1014=
201207280330 METAR LPPR 280330Z 32004KT 4800 BR BKN003 BKN013 18/17 Q1014=
201207280300 METAR LPPR 280300Z 33003KT 290V350 7000 SCT004 BKN009 BKN015
                        18/17 Q1015=
201207280230 METAR LPPR 280230Z 35004KT 8000 SCT006 SCT009 BKN012 18/17
                        Q1015=
201207280200 METAR LPPR 280200Z 36004KT 7000 SCT006 SCT009 BKN011 18/17
                        Q1015=
201207280130 METAR LPPR 280130Z 34003KT 9000 SCT008 OVC010 18/17 Q1015=
201207280100 METAR LPPR 280100Z 33003KT 7000 OVC009 18/17 Q1015=
201207280030 METAR LPPR 280030Z 33003KT 8000 SCT007 BKN009 18/17 Q1015=
201207280000 METAR LPPR 280000Z 33002KT 8000 SCT007 BKN009 18/17 Q1015=
201207272330 METAR LPPR 272330Z 30001KT 9000 SCT007 BKN009 18/17 Q1015=
201207272300 METAR LPPR 272300Z VRB01KT 9000 SCT006 BKN009 18/17 Q1015=
201207272230 METAR LPPR 272230Z 29001KT 9000 SCT005 OVC009 18/17 Q1015=
201207272200 METAR LPPR 272200Z 31001KT 9000 BKN008 OVC010 18/17 Q1015=
201207272130 METAR LPPR 272130Z VRB02KT 8000 SCT007 BKN009 18/17 Q1015=
201207272100 METAR LPPR 272100Z VRB02KT 7000 SCT007 OVC009 18/17 Q1015=
201207272030 METAR LPPR 272030Z 00000KT 8000 OVC007 18/17 Q1015=
201207272000 METAR LPPR 272000Z VRB01KT 7000 BKN007 OVC009 18/17 Q1015=
201207271930 METAR LPPR 271930Z VRB02KT 7000 SCT007 BKN009 18/17 Q1015=
201207271900 METAR LPPR 271900Z VRB02KT 8000 SCT007 BKN009 18/16 Q1015=
201207271830 METAR LPPR 271830Z 29003KT 240V320 7000 OVC008 19/17 Q1015=
201207271800 METAR LPPR 271800Z 35006KT 8000 OVC008 18/17 Q1015=
201207271730 METAR LPPR 271730Z 31005KT 280V360 8000 BKN007 BKN009 18/16
                        Q1015=
201207271700 METAR LPPR 271700Z 32004KT 270V010 9000 BKN008 OVC010 19/17
                        Q1015=
201207271630 METAR LPPR 271630Z 31005KT 270V340 9999 FEW009 OVC012 19/17
                        Q1015=
201207271600 METAR LPPR 271600Z 29005KT 240V330 9999 BKN009 BKN015 19/16
                        Q1015=
201207271530 METAR LPPR 271530Z 30006KT 270V330 9999 BKN011 OVC017 19/16
                        Q1015=
201207271500 METAR LPPR 271500Z 26006KT 220V320 9999 BKN012 BKN015 20/16
                        Q1015=
201207271430 METAR LPPR 271430Z 24005KT 190V320 9000 BKN012 20/17 Q1015=
201207271400 METAR LPPR 271400Z 26005KT 210V310 9000 BKN010 BKN015 20/17
                        Q1015=
201207271330 METAR LPPR 271330Z 25006KT 200V290 8000 BKN009 BKN014 20/17
                        Q1015=
201207271300 METAR LPPR 271300Z 29005KT 230V330 7000 BKN008 20/17 Q1016=
201207271230 METAR LPPR 271230Z 29005KT 240V330 7000 SCT007 BKN009 19/17
                        Q1016=
201207271200 METAR LPPR 271200Z 28005KT 210V320 6000 BKN008 19/17 Q1016=
201207271130 METAR LPPR 271130Z 26004KT 180V320 6000 SCT007 BKN009 20/17
                        Q1015=
201207271100 METAR LPPR 271100Z 30004KT 260V340 5000 BR BKN006 19/17 Q1016=
201207271030 METAR LPPR 271030Z 29004KT 240V320 5000 BR BKN006 19/17 Q1015=
201207271000 METAR LPPR 271000Z 26003KT 230V310 5000 BR BKN005 19/17 Q1016=
201207270930 METAR LPPR 270930Z 26004KT 220V300 4000 BR FEW004 BKN006
                        18/17 Q1016=
201207270900 METAR LPPR 270900Z 28003KT 240V310 4000 BR BKN005 18/17 Q1016=
201207270830 METAR LPPR 270830Z 28003KT 240V320 4000 BR BKN006 18/17 Q1015=
201207270800 METAR LPPR 270800Z VRB02KT 4000 BR BKN006 18/17 Q1015=
201207270730 METAR LPPR 270730Z VRB02KT 4000 BR BKN005 18/17 Q1015=
201207270700 METAR LPPR 270700Z 03003KT 3200 BR SCT004 BKN005 18/17 Q1015=
201207270630 METAR LPPR 270630Z VRB02KT 3200 BR OVC004 17/16 Q1015=
201207270600 METAR LPPR 270600Z VRB01KT 4000 BR SCT004 BKN005 17/17 Q1014=
201207270530 METAR LPPR 270530Z 00000KT 3300 BR SCT004 BKN005 17/17 Q1014=
201207270500 METAR LPPR 270500Z VRB02KT 5000 BR FEW003 OVC004 17/16 Q1014=
201207270430 METAR LPPR 270430Z 35004KT 320V020 5000 BR SCT004 BKN005
                        17/16 Q1014=
201207270400 METAR LPPR 270400Z 32003KT 280V360 4500 BR FEW004 OVC005
                        17/16 Q1014=
201207270330 METAR LPPR 270330Z 34004KT 5000 BR OVC005 17/16 Q1014=
201207270300 METAR LPPR 270300Z 27003KT 220V330 5000 BR FEW005 OVC006
                        18/16 Q1014=
201207270230 METAR LPPR 270230Z VRB02KT 6000 SCT005 OVC007 18/16 Q1014=
201207270200 METAR LPPR 270200Z 21004KT 6000 SCT005 OVC007 18/16 Q1014=
201207270130 METAR LPPR 270130Z 10003KT 070V170 7000 BKN005 BKN007 18/16
                        Q1014=
201207270100 METAR LPPR 270100Z 00000KT 7000 BKN005 BKN007 18/16 Q1014=
201207270030 METAR LPPR 270030Z VRB02KT 7000 OVC005 18/16 Q1014=
201207270000 METAR LPPR 270000Z VRB02KT 7000 OVC006 18/16 Q1014=
201207262330 METAR LPPR 262330Z VRB02KT 7000 BKN006 18/17 Q1014=
201207262300 METAR LPPR 262300Z VRB02KT 8000 OVC005 18/17 Q1015=
201207262230 METAR LPPR 262230Z VRB02KT 8000 OVC006 18/16 Q1015=
201207262200 METAR LPPR 262200Z VRB02KT 9000 OVC006 18/16 Q1014=
201207262130 METAR LPPR 262130Z 27003KT 220V360 9000 OVC005 18/16 Q1014=
201207262100 METAR LPPR 262100Z 32003KT 270V020 8000 OVC004 18/17 Q1014=
201207262030 METAR LPPR 262030Z 30004KT 240V350 7000 OVC003 17/17 Q1014=
201207262000 METAR LPPR 262000Z 29004KT 260V330 4500 BR OVC003 17/16 Q1013=
201207261930 METAR LPPR 261930Z 27003KT 230V330 4500 BR OVC003 17/16 Q1013=
201207261900 METAR LPPR 261900Z 29004KT 240V330 4500 BR OVC004 18/16 Q1013=
201207261830 METAR LPPR 261830Z 29004KT 260V330 5000 BR BKN005 FEW035CB
                        18/16 Q1013=
201207261800 METAR LPPR 261800Z VRB02KT 5000 BR BKN005 FEW030CB 18/16
                        Q1013=
201207261730 METAR LPPR 261730Z 28004KT 240V330 6000 BKN004 FEW035CB 18/16
                        Q1013=
201207261700 METAR LPPR 261700Z 27006KT 240V320 7000 FEW006 FEW035CB 19/17
                        Q1012=
201207261630 METAR LPPR 261630Z 28005KT 230V320 8000 FEW007 19/17 Q1013=
201207261600 METAR LPPR 261600Z 28006KT 9999 FEW009 21/17 Q1012=
201207261530 METAR LPPR 261530Z 31006KT 260V350 9999 FEW009 20/17 Q1013=
201207261500 METAR LPPR 261500Z 31006KT 270V360 9999 FEW009 20/17 Q1013=
201207261430 METAR LPPR 261430Z 31006KT 250V350 9999 FEW010 21/17 Q1013=
201207261400 METAR LPPR 261400Z 29004KT 220V340 CAVOK 21/17 Q1014=
201207261330 METAR LPPR 261330Z 30005KT 260V350 CAVOK 21/17 Q1014=
201207261300 METAR LPPR 261300Z 28004KT 200V350 9999 FEW008 FEW040CB 20/17
                        Q1014=
201207261230 METAR LPPR 261230Z 29004KT 230V320 9999 BKN008 20/17 Q1014=
201207261200 METAR COR LPPR 261200Z 28005KT 250V310 9999 BKN006 19/17
                        Q1014=
201207261130 METAR LPPR 261130Z 30005KT 270V340 9000 BKN006 18/17 Q1014=
201207261100 METAR LPPR 261100Z 29003KT 230V350 8000 BKN005 BKN007 18/17
                        Q1014=
201207261030 METAR LPPR 261030Z 31003KT 260V020 7000 SCT003 BKN005 18/17
                        Q1014=
201207261000 METAR LPPR 261000Z 32005KT 290V360 6000 SCT002 BKN004 18/17
                        Q1014=
201207260930 METAR LPPR 260930Z 30005KT 270V340 3500 BR BKN002 BKN004
                        17/17 Q1014=
201207260900 METAR LPPR 260900Z 30005KT 240V340 1200 R17/0800VP2000D BR
                        VCFG SCT001 BKN003 17/17 Q1014=
201207260830 METAR LPPR 260830Z 30004KT 250V340 0750 0600N R17/0750 FG BKN002 BKN004 17/17 Q1013=
201207260800 METAR LPPR 260800Z 27004KT 230V320 1700 R17/1000V1800U BR
                        VCFG BKN002 FEW035CB 17/17 Q1013=
201207260730 METAR LPPR 260730Z 32004KT 210V020 1200 R17/0900V1500D BR
                        VCFG BKN002 SCT035CB 17/17 Q1012=
201207260700 METAR LPPR 260700Z 32003KT 270V030 2500 0900N R17/0750 BCFG
                        SCT002 SCT027CB 17/17 Q1013=
201207260630 METAR LPPR 260630Z VRB03KT 2400 BR SCT002 SCT025CB BKN040
                        17/17 Q1013=
201207260600 METAR LPPR 260600Z 15006KT 120V180 1000 R17/1200VP2000U BCFG
                        BKN002 BKN004 17/16 Q1014=
201207260530 METAR LPPR 260530Z 33006KT 300V010 2100 BR VCFG BKN002 BKN004
                        16/16 Q1012=
201207260500 METAR LPPR 260500Z 36006KT 340V050 3700 BR VCFG BKN002 BKN004
                        16/16 Q1012=
201207260430 METAR LPPR 260430Z VRB02KT 1500 R17/1100V1600U BR VCFG SCT002
                        BKN004 16/16 Q1013=
201207260400 METAR LPPR 260400Z VRB02KT 0700 R17/1200D FG VV002 16/16
                        Q1012=
201207260330 METAR LPPR 260330Z VRB02KT 0600 R17/0800 FG VV002 16/16 Q1012=
201207260300 METAR LPPR 260300Z VRB02KT 0650 0550S R17/0750 FG VV002 16/16
                        Q1013=
201207260230 METAR LPPR 260230Z VRB02KT 0650 R17/0700N FG VV002 16/16
                        Q1013=
201207260200 METAR LPPR 260200Z 00000KT 0600 R17/0650N FG VV002 16/16
                        Q1013=
201207260130 METAR LPPR 260130Z 35002KT 0600 R17/1000V1600 FG VV002 16/16
                        Q1013=
201207260100 METAR LPPR 260100Z VRB01KT 0600 R17/0650V0900U FG VV002 17/16
                        Q1013=
201207260030 METAR LPPR 260030Z 00000KT 0600 R17/0650 FG VV002 16/16 Q1013=
201207260000 METAR LPPR 260000Z 35004KT 0500 R17/0450N FG VV002 16/16
                        Q1013=
201207252330 METAR LPPR 252330Z VRB01KT 0500 R17/0500N FG VV002 16/16
                        Q1013=
201207252300 METAR LPPR 252300Z VRB02KT 0600 R17/0550 BCFG BKN002 16/16
                        Q1013=
201207252230 METAR COR LPPR 252230Z VRB02KT 0600 R17/0700 FG VV002 17/16
                        Q1013=
201207252200 METAR LPPR 252200Z VRB02KT 1200 550N R35/0800VP2000D BCFG
                        FEW001 BKN003 17/16 Q1013=
201207252130 METAR COR LPPR 252130Z VRB01KT 4900 BR VCFG FEW002 BKN004
                        17/16 Q1013=
201207252100 METAR LPPR 252100Z VRB02KT 7000 NSC 17/16 Q1013=
201207252030 METAR LPPR 252030Z 31004KT 270V010 6000 FEW007 17/16 Q1013=
201207252000 METAR LPPR 252000Z 30004KT 260V330 4500 BR VCFG FEW007 18/16
                        Q1012=
201207251930 METAR LPPR 251930Z 32003KT 7000 FEW007 FEW020CB 18/16 Q1012=
201207251900 METAR LPPR 251900Z 32004KT 290V360 7000 FEW007 FEW020CB 18/16
                        Q1012=
201207251830 METAR LPPR 251830Z 31005KT 280V340 4700 BR VCFG SCT007 FEW020CB
                        18/16 Q1012=
201207251800 METAR LPPR 251800Z 30005KT 270V340 6000 SCT007 FEW020CB 19/17
                        Q1012=
201207251730 METAR LPPR 251730Z 30005KT 260V340 7000 SCT007 FEW020CB 19/16
                        Q1012=
201207251700 METAR LPPR 251700Z 33007KT 7000 SCT007 FEW020CB 19/16 Q1012=
201207251630 METAR LPPR 251630Z 29005KT 260V320 9999 SCT007 FEW020CB 19/16
                        Q1012=
201207251600 METAR LPPR 251600Z 30005KT 240V350 9999 SCT006 FEW020CB 19/16
                        Q1012=
201207251530 METAR LPPR 251530Z 30005KT 260V330 9999 SCT006 FEW020CB 19/16
                        Q1012=
201207251500 METAR LPPR 251500Z 29005KT 190V350 9999 FEW006 FEW020CB 20/17
                        Q1012=
201207251430 METAR LPPR 251430Z 31007KT 260V350 9999 FEW007 FEW018TCU
                        20/17 Q1012=
201207251400 METAR LPPR 251400Z VRB04KT 9999 SCT005 20/17 Q1013=
201207251330 METAR LPPR 251330Z 26004KT 200V330 9999 SCT006 19/17 Q1013=
201207251300 METAR LPPR 251300Z 24006KT 180V290 9999 SCT005 19/17 Q1013=
201207251230 METAR LPPR 251230Z 26006KT 220V300 9999 SCT007 19/16 Q1013=
201207251200 METAR LPPR 251200Z 26005KT 210V320 9000 SCT006 19/17 Q1013=
201207251130 METAR LPPR 251130Z 25005KT 180V310 9000 SCT006 19/16 Q1013=
201207251100 METAR LPPR 251100Z 25005KT 180V310 8000 SCT005 BKN007 18/16
                        Q1013=
201207251030 METAR LPPR 251030Z 25004KT 190V310 7000 BKN005 17/16 Q1013=
201207251000 METAR LPPR 251000Z VRB03KT 6000 OVC004 16/16 Q1013=
201207250930 METAR LPPR 250930Z VRB02KT 5000 2500N R17/1000V1500U BR VCFG
                        OVC002 16/16 Q1013=
201207250900 METAR LPPR 250900Z 26003KT 220V320 0900 R17/0650 FG BKN002
                        OVC004 16/16 Q1013=
201207250830 METAR LPPR 250830Z VRB02KT 0500 R17/0650 FG VV002 16/16 Q1013=
201207250800 METAR LPPR 250800Z VRB02KT 0400 R17/0400N FG VV002 16/16
                        Q1013=
201207250730 METAR LPPR 250730Z VRB02KT 0300 R17/0400V0500 FG VV002 16/16
                        Q1013=
201207250700 METAR LPPR 250700Z 22003KT 170V270 0250 R17/0325 FG VV002
                        16/16 Q1013=
201207250630 METAR LPPR 250630Z VRB02KT 0250 0200N R17/0250N FG VV002
                        16/15 Q1013=
201207250600 METAR LPPR 250600Z VRB02KT 0200 R17/0250N FG VV001 16/15
                        Q1013=
201207250530 METAR LPPR 250530Z VRB01KT 0350 0300N R17/0375N FG VV001
                        16/15 Q1012=
201207250500 METAR LPPR 250500Z 00000KT 0500 0400N R17/0650 FG VV001 15/15
                        Q1012=
201207250430 METAR LPPR 250430Z 31002KT 0350 R17/0400N FG VV001 15/15
                        Q1012=
201207250400 METAR LPPR 250400Z 36003KT 320V030 0350 R17/0400N FG VV002
                        16/15 Q1012=
201207250330 METAR LPPR 250330Z 34003KT 0500 0400S R17/0500 FG VV002 15/15
                        Q1012=
201207250300 METAR LPPR 250300Z VRB01KT 0400 0350N R17/0450N FG VV002
                        16/15 Q1012=
201207250230 METAR LPPR 250230Z VRB02KT 0450 R17/0650 FG VV002 16/15 Q1012=
201207250200 METAR LPPR 250200Z VRB01KT 0450 0400N R17/0450N FG VV002
                        16/15 Q1012=
201207250130 METAR LPPR 250130Z 00000KT 0600 0400N R35/0650N FG VV002
                        16/15 Q1012=
201207250100 METAR LPPR 250100Z VRB01KT 0450 R35/0550N FG VV002 16/15
                        Q1013=
201207250030 METAR LPPR 250030Z 33003KT 0450 0350S R35/0400N FG VV002
                        16/15 Q1013=
201207250000 METAR LPPR 250000Z 32005KT 0550 0500N R35/0600 FG SCT002
                        BKN003 16/15 Q1013=
201207242330 METAR LPPR 242330Z 32004KT 4000 BR SCT003 BKN009 16/15 Q1013=
201207242300 METAR LPPR 242300Z VRB02KT 5000 BR FEW003 SCT008 16/15 Q1013=
201207242230 METAR LPPR 242230Z 31003KT 290V350 6000 FEW009 16/16 Q1013=
201207242200 METAR LPPR 242200Z VRB01KT 7000 NSC 17/16 Q1013=
201207242130 METAR LPPR 242130Z 34003KT 7000 NSC 17/16 Q1013=
201207242100 METAR LPPR 242100Z 31003KT 280V340 9000 NSC 17/16 Q1012=
201207242030 METAR LPPR 242030Z VRB02KT 7000 NSC 18/16 Q1012=
201207242000 METAR LPPR 242000Z 29001KT 8000 NSC 19/16 Q1012=
201207241930 METAR LPPR 241930Z 30003KT 9000 NSC 19/16 Q1012=
201207241900 METAR LPPR 241900Z 25005KT CAVOK 20/16 Q1012=
201207241830 METAR LPPR 241830Z 26005KT 230V290 CAVOK 22/17 Q1012=
201207241800 METAR LPPR 241800Z 17005KT 120V220 9999 FEW020 24/17 Q1012=
201207241730 METAR LPPR 241730Z 22004KT 190V270 9999 FEW020 23/16 Q1012=
201207241700 METAR LPPR 241700Z 25006KT 220V280 CAVOK 23/16 Q1012=
201207241630 METAR LPPR 241630Z 22005KT 160V290 CAVOK 22/16 Q1012=
201207241600 METAR LPPR 241600Z 23005KT 150V290 CAVOK 22/16 Q1012=
201207241530 METAR LPPR 241530Z 22006KT 170V280 CAVOK 21/17 Q1012=
201207241500 METAR LPPR 241500Z 23007KT 180V280 9999 FEW012 21/17 Q1012=
201207241430 METAR COR LPPR 241430Z 24006KT 190V310 9999 FEW011 21/17
                        Q1012=
201207241400 METAR LPPR 241400Z 23007KT 170V270 9999 FEW012 21/17 Q1012=
201207241330 METAR LPPR 241330Z 24008KT 200V270 9999 SCT011 20/16 Q1013=
201207241300 METAR LPPR 241300Z 24008KT 210V290 9999 SCT011 21/16 Q1013=
201207241230 METAR LPPR 241230Z 24008KT 190V270 9999 SCT011 20/16 Q1013=
201207241200 METAR LPPR 241200Z 23007KT 180V290 9999 SCT011 20/16 Q1013=
201207241130 METAR LPPR 241130Z 23009KT 9999 BKN010 20/16 Q1013=
201207241100 METAR LPPR 241100Z 21008KT 180V270 9000 FEW008 BKN009 BKN010
                        19/16 Q1013=
201207241030 METAR LPPR 241030Z 21008KT 190V260 9000 FEW008 BKN009 BKN010
                        19/16 Q1013=
201207241000 METAR LPPR 241000Z 22007KT 190V250 7000 FEW008 BKN009 BKN010
                        18/16 Q1012=
201207240930 METAR LPPR 240930Z 22005KT 180V260 7000 SCT008 BKN009 BKN010
                        18/16 Q1012=
201207240900 METAR LPPR 240900Z 21005KT 180V250 7000 BKN008 BKN010 18/16
                        Q1012=
201207240830 METAR LPPR 240830Z 19004KT 140V220 7000 SCT007 BKN008 18/16
                        Q1012=
201207240800 METAR LPPR 240800Z 19004KT 130V230 8000 SCT007 BKN008 18/16
                        Q1012=
201207240730 METAR LPPR 240730Z 22004KT 190V260 7000 SCT007 BKN008 17/15
                        Q1012=
201207240700 METAR LPPR 240700Z 21003KT 180V250 7000 BKN008 17/16 Q1012=
201207240630 METAR LPPR 240630Z 18005KT 160V220 5000 BR OVC007 17/16 Q1011=
201207240600 METAR LPPR 240600Z 18005KT 7000 BKN007 17/16 Q1011=
201207240530 METAR LPPR 240530Z 18006KT 150V210 7000 OVC007 17/15 Q1011=
201207240500 METAR LPPR 240500Z 17008KT 9000 OVC007 17/15 Q1011=
201207240430 METAR LPPR 240430Z 17007KT 140V200 9999 BKN006 17/16 Q1011=
201207240400 METAR LPPR 240400Z 18008KT 9000 BKN006 17/16 Q1011=
201207240330 METAR LPPR 240330Z 18010KT 9000 BKN005 17/16 Q1011=
201207240300 METAR LPPR 240300Z 18008KT 9000 OVC004 16/16 Q1011=
201207240230 METAR LPPR 240230Z 18008KT 9000 OVC003 16/16 Q1011=
201207240200 METAR LPPR 240200Z 19010KT 8000 OVC002 16/16 Q1012=
201207240130 METAR LPPR 240130Z 18011KT 3000 BR VCFG OVC002 16/16 Q1012=
201207240100 METAR LPPR 240100Z 17010KT 3800 BR VCFG SCT001 OVC004 16/16
                        Q1012=
201207240030 METAR LPPR 240030Z 18008KT 1900 BR VCFG FEW001 BKN002 16/16
                        Q1012=
201207240000 METAR LPPR 240000Z 18010KT 1200 R17/1100V1900U BR VCFG BKN002
                        OVC004 16/16 Q1012=
201207232330 METAR LPPR 232330Z 18009KT 0900 R17/1200VP2000U BCFG BR SCT001
                        OVC004 16/16 Q1012=
201207232300 METAR LPPR 232300Z 18008KT 0900 R17/0900V1500U BCFG BR VV002
                        16/16 Q1012=
201207232230 METAR LPPR 232230Z 21006KT 2200 0900W R17/1400D BCFG BR VV002
                        16/16 Q1012=
201207232200 METAR LPPR 232200Z 20005KT 1200 R17/0900V1400U BCFG BR SCT001
                        OVC004 17/16 Q1012=
201207232130 METAR LPPR 232130Z 20005KT 2000 0800W R17/1400VP2000D BCFG
                        BR BKN000 17/16 Q1012=
201207232100 METAR LPPR 232100Z 20004KT 170V230 3000 1100W R17/0900V1600N
                        BCFG BR BKN001 17/16 Q1012=
201207232030 METAR LPPR 232030Z 22003KT 170V270 2000 0900NW R17/P2000
                        BCFG BR BKN001 17/16 Q1012=
201207232000 METAR LPPR 232000Z 24003KT 210V280 5000 2000W BR VCFG SCT002
                        17/16 Q1012=
201207231930 METAR LPPR 231930Z 26004KT 220V290 8000 3000W FEW005 18/16
                        Q1012=
201207231900 METAR LPPR 231900Z 29004KT 270V340 9999 FEW007 18/16 Q1012=
201207231830 METAR LPPR 231830Z 29004KT 240V320 9999 FEW007 19/16 Q1012=
201207231800 METAR LPPR 231800Z 31005KT 270V340 9999 FEW008 19/16 Q1012=
201207231730 METAR LPPR 231730Z 29006KT 270V330 9999 FEW008 20/16 Q1012=
201207231700 METAR LPPR 231700Z 28005KT CAVOK 21/16 Q1012=
201207231630 METAR LPPR 231630Z 28005KT CAVOK 21/16 Q1013=
201207231600 METAR LPPR 231600Z 29006KT 260V320 CAVOK 21/16 Q1013=
201207231530 METAR LPPR 231530Z 28006KT CAVOK 21/16 Q1013=
201207231500 METAR LPPR 231500Z 31007KT 270V350 CAVOK 22/16 Q1013=
201207231430 METAR LPPR 231430Z 29006KT 260V330 CAVOK 21/16 Q1014=
201207231400 METAR LPPR 231400Z 29006KT 250V320 9999 FEW007 20/16 Q1014=
201207231330 METAR LPPR 231330Z 32008KT 290V350 9999 FEW012 20/16 Q1014=
201207231300 METAR LPPR 231300Z 29006KT 260V350 9999 FEW012 20/16 Q1014=
201207231230 METAR LPPR 231230Z 28006KT 250V330 9999 FEW012 19/15 Q1015=
201207231200 METAR LPPR 231200Z 29005KT 240V320 9999 FEW008 19/16 Q1015=
201207231130 METAR LPPR 231130Z 28006KT 230V320 9999 FEW006 19/16 Q1015=
201207231100 METAR LPPR 231100Z 29005KT 230V330 8000 FEW002 18/16 Q1015=
201207231030 METAR LPPR 231030Z 28005KT 240V330 4800 BR VCFG FEW003 18/16
                        Q1015=
201207231000 METAR LPPR 231000Z 29004KT 260V320 4000 BR VCFG SCT003 18/17
                        Q1015=
201207230930 METAR LPPR 230930Z 28005KT 240V310 3000 BR VCFG FEW002 18/17
                        Q1015=
201207230900 METAR LPPR 230900Z 36004KT 300V050 4900 BR VCFG SCT002 18/17
                        Q1016=
201207230830 METAR LPPR 230830Z 31003KT 270V020 1900 1000N BR VCFG SCT002
                        BKN004 16/16 Q1016=
201207230800 METAR LPPR 230800Z 33003KT 270V360 0600 0300N R17/0900V1400
                        FG VV002 16/16 Q1016=
201207230730 METAR LPPR 230730Z VRB02KT 0400 0300N R17/0375V0500 FG VV002
                        16/16 Q1016=
201207230700 METAR LPPR 230700Z VRB02KT 0400 R17/0450N FG BKN002 16/15
                        Q1016=
201207230630 METAR LPPR 230630Z VRB01KT 0400 R17/0375N FG BKN002 16/15
                        Q1016=
201207230600 METAR LPPR 230600Z 19003KT 160V220 0400 R17/0400N FG BKN002
                        16/15 Q1016=
201207230530 METAR LPPR 230530Z 20004KT 180V250 0600 R17/0650 FG BKN002
                        15/15 Q1016=
201207230500 METAR LPPR 230500Z 17005KT 0900 R17/1000VP2000U FG BKN002
                        16/15 Q1016=
201207230430 METAR LPPR 230430Z 17005KT 0900 R17/0800V1900D FG BKN002
                        16/15 Q1016=
201207230400 METAR LPPR 230400Z 16006KT 0700 R17/0900V1500D FG BKN002
                        16/15 Q1016=
201207230330 METAR LPPR 230330Z 17007KT 0800 R17/0900D FG BKN002 15/15
                        Q1016=
201207230300 METAR LPPR 230300Z 18007KT 0800 R17/0700V1500D FG BKN002
                        15/15 Q1016=
201207230230 METAR LPPR 230230Z 20007KT 1200 R17/1000V1500D BR VCFG BKN002
                        16/15 Q1017=
201207230200 METAR LPPR 230200Z 19007KT 2000 BR BKN002 16/15 Q1017=
201207230130 METAR LPPR 230130Z 17006KT 3000 BR SCT002 BKN004 16/15 Q1017=
201207230100 METAR LPPR 230100Z 21003KT 8000 FEW002 15/15 Q1017=
201207230030 METAR LPPR 230030Z 18004KT 8000 FEW003 15/14 Q1017=
201207230000 METAR LPPR 230000Z 18002KT 9000 FEW004 15/14 Q1018=
201207222330 METAR LPPR 222330Z 19002KT 9000 FEW004 15/14 Q1018=
201207222300 METAR LPPR 222300Z 27003KT CAVOK 15/15 Q1018=
201207222230 METAR LPPR 222230Z 24004KT CAVOK 15/15 Q1018=
201207222200 METAR LPPR 222200Z 25002KT CAVOK 16/15 Q1018=
201207222130 METAR LPPR 222130Z VRB01KT CAVOK 15/14 Q1018=
201207222100 METAR LPPR 222100Z VRB01KT CAVOK 16/15 Q1018=
201207222030 METAR LPPR 222030Z 30004KT 270V340 CAVOK 16/15 Q1018=
201207222000 METAR LPPR 222000Z 31005KT 280V350 CAVOK 17/15 Q1018=
201207221930 METAR LPPR 221930Z 30004KT 270V330 CAVOK 17/15 Q1018=
201207221900 METAR LPPR 221900Z 29004KT 270V330 CAVOK 19/16 Q1018=
201207221830 METAR LPPR 221830Z 31005KT CAVOK 20/16 Q1018=
201207221800 METAR LPPR 221800Z 31007KT 280V340 CAVOK 21/16 Q1018=
201207221730 METAR LPPR 221730Z 31007KT CAVOK 21/16 Q1018=
201207221700 METAR LPPR 221700Z 31008KT 270V340 CAVOK 22/16 Q1018=
201207221630 METAR LPPR 221630Z 31007KT CAVOK 22/15 Q1018=
201207221600 METAR LPPR 221600Z 30007KT 270V330 CAVOK 22/16 Q1019=
201207221530 METAR LPPR 221530Z 31006KT 270V350 CAVOK 23/16 Q1019=
201207221500 METAR LPPR 221500Z 31008KT 280V350 CAVOK 24/16 Q1019=
201207221430 METAR LPPR 221430Z 32008KT 280V350 CAVOK 24/17 Q1019=
201207221400 METAR LPPR 221400Z 30007KT CAVOK 22/16 Q1019=
201207221330 METAR LPPR 221330Z 31008KT 270V350 CAVOK 23/15 Q1020=
201207221300 METAR LPPR 221300Z 31007KT 280V350 CAVOK 22/15 Q1020=
201207221230 METAR LPPR 221230Z 29006KT 260V330 CAVOK 23/16 Q1020=
201207221200 METAR LPPR 221200Z 32008KT 280V350 CAVOK 23/15 Q1020=
201207221130 METAR LPPR 221130Z 30007KT 270V330 CAVOK 23/16 Q1020=
201207221100 METAR LPPR 221100Z 32008KT 280V350 CAVOK 23/16 Q1020=
201207221030 METAR LPPR 221030Z 32007KT 290V350 CAVOK 22/17 Q1020=
201207221000 METAR LPPR 221000Z 29005KT CAVOK 21/17 Q1020=
201207220930 METAR LPPR 220930Z 28005KT 240V320 CAVOK 22/17 Q1020=
201207220900 METAR LPPR 220900Z 28003KT 220V310 CAVOK 22/17 Q1021=
201207220830 METAR LPPR 220830Z 24003KT 180V280 CAVOK 22/17 Q1021=
201207220800 METAR LPPR 220800Z 09003KT 050V150 CAVOK 21/17 Q1021=
201207220730 METAR LPPR 220730Z VRB01KT CAVOK 19/16 Q1021=
201207220700 METAR LPPR 220700Z VRB02KT CAVOK 17/15 Q1020=
201207220630 METAR LPPR 220630Z VRB02KT CAVOK 15/14 Q1020=
201207220600 METAR LPPR 220600Z 17002KT 8000 FEW006 14/13 Q1020=
201207220530 METAR LPPR 220530Z 20003KT 8000 FEW005 13/12 Q1020=
201207220500 METAR LPPR 220500Z 17002KT CAVOK 13/12 Q1020=
201207220430 METAR LPPR 220430Z 00000KT CAVOK 13/12 Q1020=
201207220400 METAR LPPR 220400Z 18003KT CAVOK 14/13 Q1020=
201207220330 METAR LPPR 220330Z 20002KT CAVOK 13/12 Q1020=
201207220300 METAR LPPR 220300Z 00000KT CAVOK 14/13 Q1020=
201207220230 METAR LPPR 220230Z VRB01KT CAVOK 14/13 Q1020=
201207220200 METAR LPPR 220200Z 00000KT CAVOK 15/13 Q1020=
201207220130 METAR LPPR 220130Z 07001KT CAVOK 15/14 Q1020=
201207220100 METAR LPPR 220100Z 01003KT CAVOK 15/14 Q1020=
201207220030 METAR LPPR 220030Z VRB02KT CAVOK 16/14 Q1020=
201207220000 METAR LPPR 220000Z VRB02KT CAVOK 16/14 Q1020=
201207212330 METAR LPPR 212330Z VRB02KT CAVOK 16/14 Q1020=
201207212300 METAR LPPR 212300Z 30003KT CAVOK 16/14 Q1020=
201207212230 METAR LPPR 212230Z 31004KT CAVOK 17/14 Q1020=
201207212200 METAR LPPR 212200Z 29003KT CAVOK 17/14 Q1020=
201207212130 METAR LPPR 212130Z 30003KT 270V330 CAVOK 18/14 Q1020=
201207212100 METAR LPPR 212100Z 32005KT CAVOK 19/14 Q1020=
201207212030 METAR COR LPPR 212030Z 34005KT CAVOK 19/14 Q1020=
201207212000 METAR LPPR 212000Z 33008KT CAVOK 20/14 Q1019=
201207211930 METAR LPPR 211930Z 33008KT CAVOK 21/14 Q1019=
201207211900 METAR LPPR 211900Z 34010KT CAVOK 22/15 Q1019=
201207211830 METAR LPPR 211830Z 33009KT CAVOK 21/15 Q1019=
201207211800 METAR LPPR 211800Z 32008KT CAVOK 20/15 Q1019=
201207211730 METAR LPPR 211730Z 32009KT 280V350 CAVOK 20/15 Q1019=
201207211700 METAR LPPR 211700Z 32009KT 290V350 CAVOK 20/15 Q1019=
201207211630 METAR LPPR 211630Z 32009KT 280V350 CAVOK 21/15 Q1020=
201207211600 METAR LPPR 211600Z 32009KT 290V350 CAVOK 23/15 Q1020=
201207211530 METAR LPPR 211530Z 33010KT 300V360 CAVOK 23/15 Q1020=
201207211500 METAR LPPR 211500Z 32009KT CAVOK 22/15 Q1020=
201207211430 METAR LPPR 211430Z 32007KT 280V350 CAVOK 22/15 Q1020=
201207211400 METAR LPPR 211400Z 32010KT 290V350 CAVOK 23/15 Q1020=
201207211330 METAR LPPR 211330Z 31007KT 270V340 CAVOK 22/15 Q1020=
201207211300 METAR LPPR 211300Z 31008KT 280V350 CAVOK 23/15 Q1020=
201207211230 METAR LPPR 211230Z 30006KT 260V350 CAVOK 23/15 Q1020=
201207211200 METAR LPPR 211200Z 32007KT 280V350 CAVOK 23/15 Q1020=
201207211130 METAR LPPR 211130Z 31007KT 270V340 CAVOK 23/15 Q1020=
201207211100 METAR LPPR 211100Z 28005KT 230V320 CAVOK 23/15 Q1020=
201207211030 METAR LPPR 211030Z 28005KT 230V320 CAVOK 22/16 Q1020=
201207211000 METAR LPPR 211000Z 29004KT CAVOK 21/16 Q1020=
201207210930 METAR LPPR 210930Z 28004KT 210V320 CAVOK 21/15 Q1020=
201207210900 METAR LPPR 210900Z 30004KT CAVOK 21/15 Q1020=
201207210830 METAR LPPR 210830Z 35003KT 300V080 CAVOK 21/16 Q1019=
201207210800 METAR LPPR 210800Z VRB02KT CAVOK 20/15 Q1019=
201207210730 METAR LPPR 210730Z VRB02KT CAVOK 18/15 Q1019=
201207210700 METAR LPPR 210700Z 00000KT CAVOK 17/15 Q1019=
201207210630 METAR LPPR 210630Z VRB01KT CAVOK 15/14 Q1019=
201207210600 METAR LPPR 210600Z VRB01KT CAVOK 13/12 Q1019=
201207210530 METAR LPPR 210530Z VRB02KT CAVOK 13/12 Q1018=
201207210500 METAR LPPR 210500Z 36003KT CAVOK 13/12 Q1018=
201207210430 METAR LPPR 210430Z 00000KT CAVOK 13/12 Q1018=
201207210400 METAR LPPR 210400Z 00000KT CAVOK 13/13 Q1018=
201207210330 METAR LPPR 210330Z 00000KT CAVOK 13/13 Q1018=
201207210300 METAR LPPR 210300Z VRB01KT CAVOK 13/12 Q1018=
201207210230 METAR LPPR 210230Z 00000KT CAVOK 14/13 Q1018=
201207210200 METAR LPPR 210200Z VRB01KT CAVOK 14/13 Q1018=
201207210130 METAR LPPR 210130Z 35002KT CAVOK 14/13 Q1018=
201207210100 METAR LPPR 210100Z VRB01KT CAVOK 14/13 Q1018=
201207210030 METAR LPPR 210030Z 35002KT CAVOK 15/13 Q1019=
201207210000 METAR LPPR 210000Z 34004KT CAVOK 15/14 Q1019=
201207202330 METAR LPPR 202330Z VRB03KT CAVOK 16/13 Q1019=
201207202300 METAR LPPR 202300Z 35004KT CAVOK 16/13 Q1019=
201207202230 METAR LPPR 202230Z 34006KT CAVOK 16/13 Q1019=
201207202200 METAR LPPR 202200Z 35006KT CAVOK 16/13 Q1019=
201207202130 METAR LPPR 202130Z 34009KT 310V010 CAVOK 17/13 Q1019=
201207202100 METAR LPPR 202100Z 34010KT CAVOK 17/13 Q1018=
201207202030 METAR LPPR 202030Z 34009KT CAVOK 18/13 Q1018=
201207202000 METAR LPPR 202000Z 32008KT 290V360 CAVOK 18/13 Q1018=
201207201930 METAR LPPR 201930Z 32008KT CAVOK 18/14 Q1018=
201207201900 METAR LPPR 201900Z 32009KT CAVOK 19/14 Q1018=
201207201830 METAR LPPR 201830Z 32009KT CAVOK 19/14 Q1018=
201207201800 METAR LPPR 201800Z 33011KT CAVOK 19/15 Q1018=
201207201730 METAR LPPR 201730Z 33014KT CAVOK 19/15 Q1017=
201207201700 METAR LPPR 201700Z 33012KT 290V350 CAVOK 19/15 Q1017=
201207201630 METAR LPPR 201630Z 32013KT 290V350 CAVOK 19/14 Q1018=
201207201600 METAR LPPR 201600Z 32013KT 280V350 CAVOK 20/14 Q1018=
201207201530 METAR LPPR 201530Z 32011KT 280V350 CAVOK 20/15 Q1018=
201207201500 METAR LPPR 201500Z 32011KT 280V340 CAVOK 20/15 Q1018=
201207201430 METAR LPPR 201430Z 31009KT 270V350 CAVOK 21/15 Q1018=
201207201400 METAR LPPR 201400Z 33011KT CAVOK 20/14 Q1018=
201207201330 METAR LPPR 201330Z 32011KT 290V360 CAVOK 19/14 Q1018=
201207201300 METAR LPPR 201300Z 32009KT 280V360 CAVOK 19/14 Q1018=
201207201230 METAR LPPR 201230Z 32011KT 290V350 CAVOK 20/15 Q1018=
201207201200 METAR LPPR 201200Z 31007KT 260V340 CAVOK 19/14 Q1018=
201207201130 METAR LPPR 201130Z 28006KT 230V310 CAVOK 19/15 Q1018=
201207201100 METAR LPPR 201100Z 29006KT 250V330 9000 NSC 18/15 Q1018=
201207201030 METAR LPPR 201030Z 29006KT 240V330 8000 FEW009 18/15 Q1018=
201207201000 METAR LPPR 201000Z 24005KT 210V290 8000 FEW009 19/15 Q1018=
201207200930 METAR LPPR 200930Z VRB03KT 7000 SCT008 BKN013 18/15 Q1018=
201207200900 METAR LPPR 200900Z 28004KT 250V320 6000 SCT006 BKN009 17/15
                        Q1018=
201207200830 METAR LPPR 200830Z VRB02KT 4800 BR BKN006 17/15 Q1018=
201207200800 METAR LPPR 200800Z 26003KT 230V310 4500 BR BKN005 OVC007
                        16/14 Q1018=
201207200730 METAR LPPR 200730Z VRB03KT 6000 SCT004 BKN007 16/14 Q1018=
201207200700 METAR LPPR 200700Z VRB02KT 9000 SCT004 BKN007 15/14 Q1017=
201207200630 METAR LPPR 200630Z 12004KT 060V170 9000 SCT004 BKN006 15/14
                        Q1017=
201207200600 METAR LPPR 200600Z 14005KT 110V170 4500 BR VCFG SCT003 BKN005
                        15/14 Q1016=
201207200530 METAR LPPR 200530Z 15005KT 4500 BR VCFG SCT002 BKN003 14/13
                        Q1016=
201207200500 METAR LPPR 200500Z 12003KT 090V150 9999 SCT002 BKN004 14/13
                        Q1016=
201207200430 METAR LPPR 200430Z VRB02KT 9999 SCT002 BKN005 14/13 Q1016=
201207200400 METAR LPPR 200400Z 19002KT 9999 SCT003 BKN006 13/12 Q1016=
201207200330 METAR LPPR 200330Z VRB02KT 9999 SCT006 SCT009 13/13 Q1016=
201207200300 METAR LPPR 200300Z VRB02KT 9999 SCT006 14/13 Q1016=
201207200230 METAR LPPR 200230Z 27002KT 9999 FEW009 13/12 Q1016=
201207200200 METAR LPPR 200200Z 24003KT 9999 FEW009 14/13 Q1016=
201207200130 METAR LPPR 200130Z 00000KT CAVOK 14/13 Q1016=
201207200100 METAR LPPR 200100Z 34002KT CAVOK 14/13 Q1016=
201207200030 METAR LPPR 200030Z 31003KT CAVOK 14/13 Q1016=
201207200000 METAR LPPR 200000Z VRB01KT CAVOK 14/13 Q1016=
201207192330 METAR LPPR 192330Z 23003KT CAVOK 15/13 Q1016=
201207192300 METAR LPPR 192300Z VRB01KT CAVOK 15/13 Q1016=
201207192230 METAR LPPR 192230Z 31004KT 280V340 CAVOK 15/14 Q1016=
201207192200 METAR LPPR 192200Z 31004KT 280V340 CAVOK 15/14 Q1016=
201207192130 METAR LPPR 192130Z 31005KT 280V340 CAVOK 15/14 Q1016=
201207192100 METAR LPPR 192100Z 31005KT 270V330 CAVOK 15/14 Q1016=
201207192030 METAR LPPR 192030Z 32007KT CAVOK 15/14 Q1016=
201207192000 METAR LPPR 192000Z 32007KT 280V350 CAVOK 16/14 Q1016=
201207191930 METAR LPPR 191930Z 33009KT 290V360 CAVOK 16/14 Q1016=
201207191900 METAR LPPR 191900Z 33012KT CAVOK 17/14 Q1016=
201207191830 METAR LPPR 191830Z 32012KT 290V350 CAVOK 17/14 Q1016=
201207191800 METAR LPPR 191800Z 32014KT CAVOK 18/14 Q1016=
201207191730 METAR LPPR 191730Z 33011KT 300V360 CAVOK 18/15 Q1016=
201207191700 METAR LPPR 191700Z 32010KT 290V350 CAVOK 19/15 Q1016=
201207191630 METAR LPPR 191630Z 32013KT CAVOK 19/15 Q1017=
201207191600 METAR LPPR 191600Z 33015KT CAVOK 19/15 Q1017=
201207191530 METAR LPPR 191530Z 32015KT CAVOK 20/15 Q1017=
201207191500 METAR LPPR 191500Z 32013KT CAVOK 20/15 Q1017=
201207191430 METAR LPPR 191430Z 33015KT 290V350 CAVOK 20/15 Q1017=
201207191400 METAR LPPR 191400Z 32014KT CAVOK 20/15 Q1017=
201207191330 METAR LPPR 191330Z 32014KT 290V350 CAVOK 21/15 Q1017=
201207191300 METAR LPPR 191300Z 32013KT CAVOK 21/16 Q1017=
201207191230 METAR LPPR 191230Z 32009KT 280V350 CAVOK 21/15 Q1018=
201207191200 METAR LPPR 191200Z 32009KT CAVOK 21/15 Q1018=
201207191130 METAR LPPR 191130Z 31008KT 280V360 CAVOK 21/15 Q1018=
201207191100 METAR LPPR 191100Z 31007KT 270V360 CAVOK 21/15 Q1018=
201207191030 METAR LPPR 191030Z 31006KT 280V340 CAVOK 21/15 Q1018=
201207191000 METAR LPPR 191000Z 29005KT CAVOK 21/14 Q1018=
201207190930 METAR LPPR 190930Z 29004KT CAVOK 21/15 Q1018=
201207190900 METAR LPPR 190900Z 36003KT 250V050 CAVOK 21/13 Q1018=
201207190830 METAR LPPR 190830Z 36004KT 290V040 CAVOK 20/13 Q1018=
201207190800 METAR LPPR 190800Z 36005KT 340V060 CAVOK 18/13 Q1018=
201207190730 METAR LPPR 190730Z 35005KT CAVOK 17/13 Q1019=
201207190700 METAR LPPR 190700Z VRB01KT CAVOK 16/14 Q1018=
201207190630 METAR LPPR 190630Z 36001KT CAVOK 14/13 Q1018=
201207190600 METAR LPPR 190600Z VRB01KT CAVOK 12/11 Q1018=
201207190530 METAR LPPR 190530Z VRB02KT CAVOK 12/11 Q1018=
201207190500 METAR LPPR 190500Z 06002KT CAVOK 12/11 Q1018=
201207190430 METAR LPPR 190430Z 36002KT CAVOK 12/11 Q1018=
201207190400 METAR LPPR 190400Z 36003KT CAVOK 13/12 Q1018=
201207190330 METAR LPPR 190330Z 34005KT CAVOK 14/13 Q1018=
201207190300 METAR LPPR 190300Z 35004KT CAVOK 13/12 Q1018=
201207190230 METAR LPPR 190230Z 35006KT CAVOK 13/13 Q1018=
201207190200 METAR LPPR 190200Z 00000KT CAVOK 13/13 Q1018=
201207190130 METAR LPPR 190130Z 32002KT CAVOK 13/12 Q1019=
201207190100 METAR LPPR 190100Z 00000KT CAVOK 14/13 Q1019=
201207190030 METAR LPPR 190030Z 34003KT CAVOK 15/14 Q1019=
201207190000 METAR LPPR 190000Z 34006KT CAVOK 16/14 Q1019=
201207182330 METAR LPPR 182330Z 33005KT CAVOK 16/14 Q1019=
201207182300 METAR LPPR 182300Z 34004KT CAVOK 15/14 Q1019=
201207182230 METAR LPPR 182230Z 35007KT CAVOK 16/14 Q1019=
201207182200 METAR LPPR 182200Z 35007KT CAVOK 16/14 Q1019=
201207182130 METAR LPPR 182130Z 35008KT CAVOK 17/14 Q1019=
201207182100 METAR LPPR 182100Z 34009KT CAVOK 17/14 Q1019=
201207182030 METAR LPPR 182030Z 34008KT CAVOK 17/14 Q1019=
201207182000 METAR LPPR 182000Z 34008KT CAVOK 18/14 Q1019=
201207181930 METAR LPPR 181930Z 33009KT CAVOK 19/14 Q1019=
201207181900 METAR LPPR 181900Z 33007KT 300V020 CAVOK 19/15 Q1019=
201207181830 METAR LPPR 181830Z 32006KT 280V340 CAVOK 19/15 Q1019=
201207181800 METAR LPPR 181800Z 31007KT 280V340 CAVOK 20/15 Q1019=
201207181730 METAR LPPR 181730Z 32008KT CAVOK 20/16 Q1019=
201207181700 METAR LPPR 181700Z 32009KT CAVOK 21/16 Q1019=
201207181630 METAR LPPR 181630Z 32009KT 290V350 CAVOK 21/16 Q1019=
201207181600 METAR LPPR 181600Z 32008KT 280V350 CAVOK 21/16 Q1020=
201207181530 METAR LPPR 181530Z 32009KT 270V340 CAVOK 22/16 Q1020=
201207181500 METAR LPPR 181500Z 32010KT 280V350 CAVOK 22/16 Q1020=
201207181430 METAR LPPR 181430Z 32010KT CAVOK 22/16 Q1020=
201207181400 METAR LPPR 181400Z 31007KT 280V350 CAVOK 23/16 Q1020=
201207181330 METAR LPPR 181330Z 31008KT 280V340 CAVOK 23/16 Q1020=
201207181300 METAR LPPR 181300Z 32008KT 280V360 CAVOK 24/16 Q1021=
201207181230 METAR LPPR 181230Z 31007KT 280V340 CAVOK 23/17 Q1021=
201207181200 METAR LPPR 181200Z 30007KT CAVOK 23/16 Q1021=
201207181130 METAR LPPR 181130Z 30006KT 270V340 CAVOK 23/16 Q1021=
201207181100 METAR LPPR 181100Z 29006KT CAVOK 23/17 Q1021=
201207181030 METAR LPPR 181030Z 31005KT 270V340 CAVOK 24/17 Q1021=
201207181000 METAR LPPR 181000Z 32005KT CAVOK 23/17 Q1021=
201207180930 METAR LPPR 180930Z 30004KT 270V340 CAVOK 22/17 Q1021=
201207180900 METAR LPPR 180900Z 32004KT 290V360 CAVOK 21/17 Q1021=
201207180830 METAR LPPR 180830Z 29004KT 250V320 CAVOK 21/17 Q1021=
201207180800 METAR LPPR 180800Z VRB02KT CAVOK 21/16 Q1021=
201207180730 METAR LPPR 180730Z 33004KT 300V010 CAVOK 19/16 Q1021=
201207180700 METAR LPPR 180700Z 36003KT 9000 NSC 17/15 Q1021=
201207180630 METAR LPPR 180630Z VRB02KT 8000 NSC 17/15 Q1020=
201207180600 METAR LPPR 180600Z VRB01KT CAVOK 15/14 Q1020=
201207180530 METAR LPPR 180530Z 00000KT CAVOK 15/14 Q1020=
201207180500 METAR LPPR 180500Z VRB01KT CAVOK 15/14 Q1020=
201207180430 METAR LPPR 180430Z VRB01KT CAVOK 15/14 Q1020=
201207180400 METAR LPPR 180400Z 03003KT CAVOK 15/14 Q1020=
201207180330 METAR LPPR 180330Z 34003KT 320V050 CAVOK 16/14 Q1020=
201207180300 METAR LPPR 180300Z VRB02KT CAVOK 16/14 Q1020=
201207180230 METAR LPPR 180230Z 02004KT 360V060 CAVOK 16/15 Q1020=
201207180200 METAR LPPR 180200Z 01003KT CAVOK 16/15 Q1021=
201207180130 METAR LPPR 180130Z 35004KT CAVOK 16/15 Q1021=
201207180100 METAR LPPR 180100Z 34003KT CAVOK 17/15 Q1021=
201207180030 METAR LPPR 180030Z 34006KT CAVOK 17/15 Q1022=
201207180000 METAR LPPR 180000Z 34007KT CAVOK 18/15 Q1022=
201207172330 METAR LPPR 172330Z 35006KT CAVOK 18/15 Q1022=
201207172300 METAR LPPR 172300Z 35005KT CAVOK 19/14 Q1022=
201207172230 METAR LPPR 172230Z 31003KT 280V340 CAVOK 19/14 Q1022=
201207172200 METAR LPPR 172200Z 35005KT CAVOK 20/14 Q1022=
201207172130 METAR LPPR 172130Z 33004KT CAVOK 21/13 Q1022=
201207172100 METAR LPPR 172100Z 32003KT 290V360 CAVOK 22/13 Q1021=
201207172030 METAR LPPR 172030Z 34007KT CAVOK 24/11 Q1021=
201207172000 METAR LPPR 172000Z 35009KT CAVOK 26/10 Q1021=
201207171930 METAR LPPR 171930Z 34010KT CAVOK 28/09 Q1021=
201207171900 METAR LPPR 171900Z 34010KT CAVOK 30/07 Q1021=
201207171830 METAR LPPR 171830Z 34011KT CAVOK 31/08 Q1021=
201207171800 METAR LPPR 171800Z 34011KT CAVOK 32/09 Q1021=
201207171730 METAR LPPR 171730Z 34010KT CAVOK 32/10 Q1021=
201207171700 METAR LPPR 171700Z 34011KT CAVOK 32/09 Q1021=
201207171630 METAR LPPR 171630Z 34012KT 310V010 CAVOK 33/10 Q1022=
201207171600 METAR LPPR 171600Z 36013KT CAVOK 33/11 Q1022=
201207171530 METAR LPPR 171530Z 34011KT CAVOK 33/11 Q1022=
201207171500 METAR LPPR 171500Z 35012KT CAVOK 33/12 Q1022=
201207171430 METAR LPPR 171430Z 33012KT CAVOK 33/13 Q1022=
201207171400 METAR LPPR 171400Z 34011KT CAVOK 32/14 Q1022=
201207171330 METAR LPPR 171330Z 32010KT 280V340 CAVOK 31/16 Q1023=
201207171300 METAR LPPR 171300Z VRB04KT CAVOK 35/14 Q1023=
201207171230 METAR LPPR 171230Z VRB07KT CAVOK 37/07 Q1023=
201207171200 METAR LPPR 171200Z 08007KT 040V150 CAVOK 36/09 Q1023=
201207171130 METAR LPPR 171130Z 11009KT 9999 CAVOK 35/09 Q1023=
201207171100 METAR LPPR 171100Z 08010KT 040V100 CAVOK 34/09 Q1023=
201207171030 METAR LPPR 171030Z 07009KT 040V100 CAVOK 34/09 Q1023=
201207171000 METAR LPPR 171000Z 08011KT 050V110 CAVOK 33/08 Q1023=
201207170930 METAR LPPR 170930Z 09011KT CAVOK 32/09 Q1023=
201207170900 METAR LPPR 170900Z VRB08KT CAVOK 31/08 Q1023=
201207170830 METAR LPPR 170830Z 09009KT CAVOK 30/10 Q1024=
201207170800 METAR LPPR 170800Z 09007KT CAVOK 28/11 Q1024=
201207170730 METAR LPPR 170730Z 10006KT CAVOK 27/12 Q1023=
201207170700 METAR LPPR 170700Z 09004KT CAVOK 26/11 Q1023=
201207170630 METAR LPPR 170630Z 09004KT 040V120 CAVOK 24/12 Q1023=
201207170600 METAR LPPR 170600Z 13008KT 100V160 CAVOK 23/12 Q1023=
201207170530 METAR LPPR 170530Z 12009KT CAVOK 20/14 Q1023=
201207170500 METAR LPPR 170500Z 11006KT CAVOK 19/14 Q1023=
201207170430 METAR LPPR 170430Z VRB03KT CAVOK 21/14 Q1023=
201207170400 METAR LPPR 170400Z 03003KT 360V080 CAVOK 23/14 Q1022=
201207170330 METAR LPPR 170330Z 06004KT CAVOK 24/14 Q1022=
201207170300 METAR LPPR 170300Z 08004KT CAVOK 25/13 Q1022=
201207170230 METAR LPPR 170230Z 08006KT CAVOK 26/13 Q1022=
201207170200 METAR LPPR 170200Z 07008KT CAVOK 26/14 Q1022=
201207170130 METAR LPPR 170130Z 07007KT CAVOK 25/15 Q1023=
201207170100 METAR LPPR 170100Z 04006KT CAVOK 24/15 Q1023=
201207170030 METAR LPPR 170030Z 01003KT CAVOK 21/16 Q1023=
201207170000 METAR LPPR 170000Z 36003KT CAVOK 20/16 Q1023=
201207162330 METAR LPPR 162330Z 03002KT CAVOK 20/16 Q1023=
201207162300 METAR LPPR 162300Z VRB01KT CAVOK 20/16 Q1023=
201207162230 METAR LPPR 162230Z VRB02KT CAVOK 21/16 Q1023=
201207162200 METAR LPPR 162200Z 36003KT CAVOK 21/16 Q1023=
201207162130 METAR LPPR 162130Z 35004KT CAVOK 22/16 Q1023=
201207162100 METAR LPPR 162100Z 35005KT CAVOK 23/15 Q1022=
201207162030 METAR LPPR 162030Z 34005KT CAVOK 24/15 Q1022=
201207162000 METAR LPPR 162000Z 33006KT CAVOK 25/15 Q1022=
201207161930 METAR LPPR 161930Z 34008KT CAVOK 26/14 Q1022=
201207161900 METAR LPPR 161900Z 34008KT CAVOK 27/14 Q1022=
201207161830 METAR LPPR 161830Z 34012KT CAVOK 27/13 Q1022=
201207161800 METAR LPPR 161800Z 33008KT 300V360 CAVOK 28/11 Q1022=
201207161730 METAR LPPR 161730Z 34012KT CAVOK 29/09 Q1022=
201207161700 METAR LPPR 161700Z 34014KT CAVOK 29/09 Q1022=
201207161630 METAR LPPR 161630Z 34013KT CAVOK 29/10 Q1022=
201207161600 METAR LPPR 161600Z 34012KT CAVOK 29/10 Q1022=
201207161530 METAR LPPR 161530Z 34011KT CAVOK 30/12 Q1022=
201207161500 METAR LPPR 161500Z 33010KT CAVOK 29/14 Q1022=
201207161430 METAR LPPR 161430Z 32010KT CAVOK 29/14 Q1022=
201207161400 METAR LPPR 161400Z 32011KT 290V350 CAVOK 30/15 Q1022=
201207161330 METAR LPPR 161330Z 31008KT 280V350 CAVOK 30/14 Q1023=
201207161300 METAR LPPR 161300Z 34009KT 290V040 CAVOK 31/15 Q1023=
201207161230 METAR LPPR 161230Z 03007KT 350V100 CAVOK 32/12 Q1023=
201207161200 METAR LPPR 161200Z 03007KT 350V100 CAVOK 31/09 Q1023=
201207161130 METAR LPPR 161130Z 09010KT 060V130 CAVOK 31/10 Q1023=
201207161100 METAR LPPR 161100Z 08009KT 050V110 CAVOK 30/10 Q1023=
201207161030 METAR LPPR 161030Z 09008KT 050V140 CAVOK 30/10 Q1023=
201207161000 METAR LPPR 161000Z 10009KT CAVOK 28/11 Q1023=
201207160930 METAR LPPR 160930Z 08008G18KT 040V120 CAVOK 27/10 Q1023=
201207160900 METAR LPPR 160900Z 07005KT 010V130 CAVOK 26/11 Q1023=
201207160830 METAR LPPR 160830Z 06007KT 030V110 CAVOK 24/11 Q1023=
201207160800 METAR LPPR 160800Z 04007G18KT 310V080 CAVOK 23/12 Q1023=
201207160730 METAR LPPR 160730Z 04005KT CAVOK 21/12 Q1023=
201207160700 METAR LPPR 160700Z 06006KT CAVOK 19/12 Q1023=
201207160630 METAR LPPR 160630Z 06006KT 020V090 CAVOK 17/13 Q1023=
201207160600 METAR LPPR 160600Z 04004KT 010V080 CAVOK 15/11 Q1022=
201207160530 METAR LPPR 160530Z 04005KT 020V080 CAVOK 15/11 Q1022=
201207160500 METAR LPPR 160500Z 07005KT CAVOK 15/10 Q1022=
201207160430 METAR LPPR 160430Z 04004KT CAVOK 13/12 Q1022=
201207160400 METAR LPPR 160400Z 03003KT 360V080 CAVOK 13/11 Q1022=
201207160330 METAR LPPR 160330Z 01003KT 340V040 CAVOK 14/12 Q1021=
201207160300 METAR LPPR 160300Z 04002KT CAVOK 14/12 Q1021=
201207160230 METAR LPPR 160230Z VRB01KT CAVOK 14/11 Q1021=
201207160200 METAR LPPR 160200Z VRB02KT CAVOK 16/13 Q1021=
201207160130 METAR LPPR 160130Z 35004KT CAVOK 17/13 Q1022=
201207160100 METAR LPPR 160100Z 36006KT CAVOK 16/13 Q1022=
201207160030 METAR LPPR 160030Z 34005KT CAVOK 16/13 Q1022=
201207160000 METAR LPPR 160000Z 35004KT CAVOK 16/13 Q1022=
201207152330 METAR LPPR 152330Z 01003KT CAVOK 15/13 Q1022=
201207152300 METAR LPPR 152300Z 01002KT CAVOK 15/13 Q1022=
201207152230 METAR LPPR 152230Z 35003KT CAVOK 16/13 Q1022=
201207152200 METAR LPPR 152200Z 34005KT CAVOK 16/14 Q1022=
201207152130 METAR LPPR 152130Z 02003KT CAVOK 17/14 Q1022=
201207152100 METAR LPPR 152100Z 33006KT CAVOK 18/14 Q1021=
201207152030 METAR LPPR 152030Z 33007KT CAVOK 18/14 Q1021=
201207152000 METAR LPPR 152000Z 33010KT CAVOK 19/14 Q1021=
201207151930 METAR LPPR 151930Z 34011KT CAVOK 19/14 Q1021=
201207151900 METAR LPPR 151900Z 33010KT CAVOK 20/14 Q1021=
201207151830 METAR LPPR 151830Z 34013KT CAVOK 20/14 Q1021=
201207151800 METAR LPPR 151800Z 33011KT CAVOK 21/14 Q1021=
201207151730 METAR LPPR 151730Z 33012KT CAVOK 21/14 Q1022=
201207151700 METAR LPPR 151700Z 34011KT 300V360 CAVOK 21/14 Q1022=
201207151630 METAR LPPR 151630Z 33011KT 290V360 CAVOK 22/14 Q1022=
201207151600 METAR LPPR 151600Z 32012KT CAVOK 21/15 Q1022=
201207151530 METAR LPPR 151530Z 33012KT CAVOK 21/15 Q1022=
201207151500 METAR LPPR 151500Z 33011KT 300V360 CAVOK 22/15 Q1022=
201207151430 METAR LPPR 151430Z 33010KT 290V360 CAVOK 22/14 Q1022=
201207151400 METAR LPPR 151400Z 33012KT CAVOK 21/14 Q1022=
201207151330 METAR LPPR 151330Z 33011KT CAVOK 21/14 Q1022=
201207151300 METAR LPPR 151300Z 32011KT CAVOK 21/14 Q1022=
201207151230 METAR LPPR 151230Z 31009KT 260V340 CAVOK 21/13 Q1023=
201207151200 METAR LPPR 151200Z 32012KT CAVOK 20/13 Q1023=
201207151130 METAR LPPR 151130Z 32010KT 280V360 CAVOK 21/13 Q1023=
201207151100 METAR LPPR 151100Z 32010KT 280V350 CAVOK 20/13 Q1023=
201207151030 METAR LPPR 151030Z 32011KT CAVOK 20/13 Q1023=
201207151000 METAR LPPR 151000Z 33008KT 280V030 CAVOK 19/13 Q1023=
201207150930 METAR LPPR 150930Z 35010KT CAVOK 20/11 Q1023=
201207150900 METAR LPPR 150900Z 36009KT CAVOK 18/12 Q1023=
201207150830 METAR LPPR 150830Z 01008KT CAVOK 17/12 Q1023=
201207150800 METAR LPPR 150800Z 01009KT CAVOK 17/12 Q1023=
201207150730 METAR LPPR 150730Z 01009KT CAVOK 16/12 Q1023=
201207150700 METAR LPPR 150700Z 36008KT CAVOK 15/12 Q1022=
201207150630 METAR LPPR 150630Z 02006KT 340V060 CAVOK 14/12 Q1022=
201207150600 METAR LPPR 150600Z 36005KT CAVOK 12/11 Q1022=
201207150530 METAR LPPR 150530Z 01003KT CAVOK 11/10 Q1022=
201207150500 METAR LPPR 150500Z 36004KT CAVOK 11/11 Q1022=
201207150430 METAR LPPR 150430Z 36004KT CAVOK 11/10 Q1021=
201207150400 METAR LPPR 150400Z 05001KT CAVOK 12/11 Q1021=
201207150330 METAR LPPR 150330Z 36002KT CAVOK 12/11 Q1021=
201207150300 METAR LPPR 150300Z 35004KT CAVOK 13/11 Q1021=
201207150230 METAR LPPR 150230Z 35005KT CAVOK 12/11 Q1021=
201207150200 METAR LPPR 150200Z 34005KT CAVOK 13/11 Q1021=
201207150130 METAR LPPR 150130Z 35004KT CAVOK 13/11 Q1021=
201207150100 METAR LPPR 150100Z 34005KT CAVOK 14/12 Q1021=
201207150030 METAR LPPR 150030Z 36005KT CAVOK 13/12 Q1022=
201207150000 METAR LPPR 150000Z 34007KT CAVOK 14/13 Q1022=
201207142330 METAR LPPR 142330Z 35005KT CAVOK 14/12 Q1022=
201207142300 METAR LPPR 142300Z 33008KT CAVOK 15/13 Q1022=
201207142230 METAR LPPR 142230Z 34008KT CAVOK 15/13 Q1022=
201207142200 METAR LPPR 142200Z 34009KT CAVOK 16/14 Q1022=
201207142130 METAR LPPR 142130Z 34010KT CAVOK 16/14 Q1022=
201207142100 METAR LPPR 142100Z 34010KT CAVOK 16/13 Q1021=
201207142030 METAR LPPR 142030Z 34008KT CAVOK 17/13 Q1021=
201207142000 METAR LPPR 142000Z 34010KT 310V020 9999 FEW020 17/13 Q1021=
201207141930 METAR LPPR 141930Z 34012KT CAVOK 18/13 Q1021=
201207141900 METAR LPPR 141900Z 33010KT 300V360 9999 FEW020 18/13 Q1021=
201207141830 METAR LPPR 141830Z 33011KT 300V360 9999 FEW020 18/13 Q1021=
201207141800 METAR LPPR 141800Z 33014KT 9999 FEW020 19/13 Q1021=
201207141730 METAR LPPR 141730Z 32013KT 290V350 9999 FEW020 19/14 Q1021=
201207141700 METAR LPPR 141700Z 33011KT 300V360 9999 FEW020 19/14 Q1021=
201207141630 METAR LPPR 141630Z 32012KT 290V350 9999 FEW020 19/14 Q1021=
201207141600 METAR LPPR 141600Z 32012KT 290V350 9999 FEW020 19/14 Q1021=
201207141530 METAR LPPR 141530Z 31012KT 290V350 9999 FEW020 20/15 Q1021=
201207141500 METAR LPPR 141500Z 32012KT 290V350 9999 FEW020 19/14 Q1021=
201207141430 METAR LPPR 141430Z 32012KT 280V350 9999 FEW020 20/14 Q1021=
201207141400 METAR LPPR 141400Z 32009KT 270V350 9999 FEW020 20/13 Q1021=
201207141330 METAR LPPR 141330Z 32010KT 280V350 9999 FEW020 20/14 Q1021=
201207141300 METAR LPPR 141300Z 32011KT 280V350 9999 FEW020 20/14 Q1021=
201207141230 METAR LPPR 141230Z 33012KT 280V360 9999 FEW020 19/14 Q1021=
201207141200 METAR LPPR 141200Z 32011KT 270V340 9999 FEW020 19/14 Q1021=
201207141130 METAR LPPR 141130Z 30006KT 270V360 9999 FEW020 19/13 Q1021=
201207141100 METAR LPPR 141100Z 30006KT 270V340 9999 SCT020 19/14 Q1021=
201207141030 METAR LPPR 141030Z VRB05KT 9999 SCT021 19/13 Q1021=
201207141000 METAR LPPR 141000Z 32005KT 270V020 9999 SCT019 BKN025 19/14
                        Q1021=
201207140930 METAR LPPR 140930Z 36007KT 310V030 9999 FEW013 SCT018 19/14
                        Q1021=
201207140900 METAR LPPR 140900Z 01008KT 9999 FEW013 SCT015 18/14 Q1020=
201207140830 METAR LPPR 140830Z 34005KT 300V020 9999 FEW015 17/14 Q1020=
201207140800 METAR LPPR 140800Z 02003KT 350V060 9999 FEW020 SCT030 16/14
                        Q1020=
201207140730 METAR LPPR 140730Z 02003KT 340V090 9999 FEW020 BKN040 15/14
                        Q1020=
201207140700 METAR LPPR 140700Z VRB01KT 9999 FEW020 BKN040 14/14 Q1020=
201207140630 METAR LPPR 140630Z 00000KT 9999 SCT047 13/13 Q1019=
201207140600 METAR LPPR 140600Z 03003KT 330V090 9999 1400N R35/P2000 MIFG
                        FEW015 SCT025 12/12 Q1019=
201207140530 METAR LPPR 140530Z 00000KT 9999 1400N R35/P2000 MIFG FEW022
                        SCT043 12/12 Q1019=
201207140500 METAR LPPR 140500Z 00000KT 9999 1700N MIFG FEW019 SCT041
                        13/12 Q1019=
201207140430 METAR LPPR 140430Z 00000KT 8000 0800N R35/P2000 MIFG FEW017
                        BKN044 12/11 Q1019=
201207140400 METAR LPPR 140400Z 00000KT 8000 0500N R35/P2000 MIFG FEW008
                        SCT022 BKN046 12/11 Q1019=
201207140330 METAR LPPR 140330Z 00000KT 9000 0800N R35/P2000 MIFG FEW015
                        SCT017 11/11 Q1018=
201207140300 METAR LPPR 140300Z 00000KT 9000 0800N R35/P2000 MIFG SCT024
                        13/12 Q1018=
201207140230 METAR LPPR 140230Z 34002KT 9999 FEW020 SCT030 14/13 Q1019=
201207140200 METAR LPPR 140200Z 34004KT 9999 FEW030 14/14 Q1019=
201207140130 METAR LPPR 140130Z 35006KT 9999 FEW009 SCT035 15/14 Q1019=
201207140100 METAR LPPR 140100Z 34007KT 9999 FEW009 SCT035 15/14 Q1019=
201207140030 METAR LPPR 140030Z 33008KT 9999 FEW007 16/15 Q1019=
201207140000 METAR LPPR 140000Z 34006KT 9999 FEW007 15/15 Q1019=
201207132330 METAR LPPR 132330Z 34006KT 9999 SCT003 16/15 Q1019=
201207132300 METAR LPPR 132300Z 34005KT 9999 SCT003 SCT005 15/15 Q1019=
201207132230 METAR LPPR 132230Z 34005KT 9999 FEW003 SCT006 16/15 Q1019=
201207132200 METAR LPPR 132200Z 33005KT 9999 SCT004 16/16 Q1019=
201207132130 METAR LPPR 132130Z 34006KT 9999 BKN003 BKN009 17/16 Q1018=
201207132100 METAR LPPR 132100Z 33007KT 9999 SCT002 BKN003 BKN016 17/16
                        Q1018=
201207132030 METAR LPPR 132030Z 33005KT 9999 BKN003 BKN010 17/17 Q1018=
201207132000 METAR LPPR 132000Z 33005KT 9999 SCT005 BKN009 BKN011 18/17
                        Q1018=
201207131930 METAR LPPR 131930Z 33007KT 9999 SCT006 BKN012 18/17 Q1018=
201207131900 METAR LPPR 131900Z 32006KT 290V360 9999 SCT005 BKN011 BKN025
                        18/17 Q1017=
201207131830 METAR LPPR 131830Z 33004KT 290V360 9999 FEW002 SCT004 BKN012
                        18/17 Q1017=
201207131800 METAR LPPR 131800Z 29003KT 240V340 9000 SCT002 BKN009 BKN012
                        18/17 Q1017=
201207131730 METAR LPPR 131730Z 27003KT 230V320 8000 2600N BR SCT002 BKN004
                        BKN012 17/17 Q1017 RERA=
201207131700 METAR LPPR 131700Z 21004KT 170V270 1600 R17/1200V1700D DZRA
                        VCFG BKN002 BKN003 18/17 Q1017=
201207131630 METAR LPPR 131630Z 19008KT 2400 DZRA BR BKN002 BKN003 17/17
                        Q1017=
201207131600 METAR LPPR 131600Z 19008KT 2300 DZ BR SCT002 BKN004 17/17
                        Q1018=
201207131530 METAR LPPR 131530Z 19009KT 170V230 3500 BR VCFG SCT003 BKN004
                        17/16 Q1018=
201207131500 METAR LPPR 131500Z 19009KT 7000 BKN005 BKN007 18/16 Q1018=
201207131430 METAR LPPR 131430Z 19011KT 9999 OVC007 18/16 Q1018=
201207131400 METAR LPPR 131400Z 20009KT 9999 SCT007 OVC009 18/16 Q1018=
201207131330 METAR LPPR 131330Z 19009KT 7000 -DZ OVC008 18/16 Q1019=
201207131300 METAR LPPR 131300Z 19010KT 6000 OVC009 18/16 Q1019=
201207131230 METAR LPPR 131230Z 21009KT 9999 OVC010 18/15 Q1019=
201207131200 METAR LPPR 131200Z 20008KT 170V230 9999 OVC013 19/15 Q1019=
201207131130 METAR LPPR 131130Z 19010KT 9999 SCT013 OVC015 19/15 Q1019=
201207131100 METAR LPPR 131100Z 19009KT 9999 SCT014 OVC016 19/15 Q1019=
201207131030 METAR LPPR 131030Z 19007KT 160V240 9999 OVC020 19/15 Q1019=
201207131000 METAR LPPR 131000Z 23007KT 180V270 9999 BKN020 19/15 Q1019=
201207130930 METAR LPPR 130930Z 22005KT 180V270 9999 SCT020 BKN030 20/15
                        Q1019=
201207130900 METAR LPPR 130900Z 15006KT 110V200 9999 SCT020 19/14 Q1019=
201207130830 METAR LPPR 130830Z 13007KT 9999 BKN020 18/14 Q1020=
201207130800 METAR LPPR 130800Z 12006KT 070V160 9999 OVC020 18/14 Q1020=
201207130730 METAR LPPR 130730Z 12007KT 9999 BKN020 16/13 Q1020=
201207130700 METAR LPPR 130700Z 12007KT 9999 BKN020 16/13 Q1020=
201207130630 METAR LPPR 130630Z VRB03KT 9999 BKN018 15/13 Q1020=
201207130600 METAR LPPR 130600Z VRB03KT 9999 SCT017 14/12 Q1020=
201207130530 METAR LPPR 130530Z 13003KT 9999 BKN017 14/12 Q1020=
201207130500 METAR LPPR 130500Z VRB02KT 9999 SCT015 14/12 Q1020=
201207130430 METAR LPPR 130430Z VRB01KT 9999 BKN013 13/12 Q1020=
201207130400 METAR LPPR 130400Z 14002KT 9999 FEW015 12/11 Q1020=
201207130330 METAR LPPR 130330Z 00000KT CAVOK 12/11 Q1020=
201207130300 METAR LPPR 130300Z 00000KT CAVOK 12/11 Q1020=
201207130230 METAR LPPR 130230Z 00000KT CAVOK 13/11 Q1020=
201207130200 METAR LPPR 130200Z 00000KT CAVOK 13/11 Q1021=
201207130130 METAR LPPR 130130Z 00000KT CAVOK 14/12 Q1021=
201207130100 METAR LPPR 130100Z 35003KT CAVOK 14/12 Q1021=
201207130030 METAR LPPR 130030Z 01002KT CAVOK 14/12 Q1022=
201207130000 METAR LPPR 130000Z 35004KT CAVOK 14/12 Q1022=
201207122330 METAR LPPR 122330Z 35003KT CAVOK 14/12 Q1022=
201207122300 METAR LPPR 122300Z 34004KT CAVOK 15/12 Q1022=
201207122230 METAR LPPR 122230Z 34005KT CAVOK 15/12 Q1022=
201207122200 METAR LPPR 122200Z 36006KT CAVOK 15/12 Q1022=
201207122130 METAR LPPR 122130Z 35008KT CAVOK 15/12 Q1022=
201207122100 METAR LPPR 122100Z 33008KT 310V010 CAVOK 16/12 Q1022=
201207122030 METAR LPPR 122030Z 33009KT CAVOK 16/12 Q1022=
201207122000 METAR LPPR 122000Z 33010KT CAVOK 16/12 Q1022=
201207121930 METAR LPPR 121930Z 32011KT CAVOK 17/12 Q1022=
201207121900 METAR LPPR 121900Z 33011KT CAVOK 17/12 Q1022=
201207121800 METAR LPPR 121800Z 33015KT CAVOK 18/12 Q1022=
201207121730 METAR LPPR 121730Z 33016KT 300V360 CAVOK 18/12 Q1022=
201207121700 METAR LPPR 121700Z 33015KT 300V360 CAVOK 18/12 Q1022=
201207121630 METAR LPPR 121630Z 33018KT CAVOK 18/11 Q1022=
201207121600 METAR LPPR 121600Z 32016KT CAVOK 19/11 Q1022=
201207121530 METAR LPPR 121530Z 32015KT 290V350 CAVOK 18/11 Q1022=
201207121500 METAR LPPR 121500Z 32014KT 290V350 CAVOK 19/11 Q1022=
201207121430 METAR LPPR 121430Z 33015KT 290V350 CAVOK 19/11 Q1022=
201207121400 METAR LPPR 121400Z 33012KT 290V360 CAVOK 19/12 Q1022=
201207121330 METAR LPPR 121330Z 32012KT 290V350 CAVOK 19/12 Q1022=
201207121300 METAR LPPR 121300Z 33013KT CAVOK 19/13 Q1022=
201207121230 METAR LPPR 121230Z 32012KT 290V350 CAVOK 19/12 Q1023=
201207121200 METAR LPPR 121200Z 32011KT 290V350 CAVOK 19/12 Q1023=
201207121130 METAR LPPR 121130Z 32009KT 290V350 CAVOK 19/12 Q1023=
201207121100 METAR LPPR 121100Z 32008KT 280V350 CAVOK 19/13 Q1023=
201207121030 METAR LPPR 121030Z 32008KT 280V350 CAVOK 18/12 Q1023=
201207121000 METAR LPPR 121000Z 32007KT 280V360 CAVOK 18/12 Q1023=
201207120930 METAR LPPR 120930Z 33005KT 270V010 CAVOK 17/12 Q1023=
201207120900 METAR LPPR 120900Z 28004KT 200V340 CAVOK 17/12 Q1023=
201207120830 METAR LPPR 120830Z 25003KT 210V340 9999 FEW012 16/13 Q1023=
201207120800 METAR LPPR 120800Z 24004KT 200V310 CAVOK 16/13 Q1023=
201207120730 METAR LPPR 120730Z 26003KT 230V290 CAVOK 15/13 Q1023=
201207120700 METAR LPPR 120700Z VRB01KT CAVOK 14/13 Q1023=
201207120630 METAR LPPR 120630Z 12003KT 080V170 CAVOK 12/12 Q1022=
201207120600 METAR LPPR 120600Z 12004KT CAVOK 12/11 Q1022=
201207120530 METAR LPPR 120530Z VRB02KT CAVOK 10/10 Q1022=
201207120500 METAR LPPR 120500Z 00000KT CAVOK 10/10 Q1022=
201207120430 METAR LPPR 120430Z VRB01KT CAVOK 09/09 Q1022=
201207120400 METAR LPPR 120400Z 36002KT CAVOK 11/10 Q1022=
201207120330 METAR LPPR 120330Z 35003KT CAVOK 10/10 Q1022=
201207120300 METAR LPPR 120300Z 00000KT CAVOK 11/10 Q1022=
201207120230 METAR LPPR 120230Z VRB02KT CAVOK 11/11 Q1022=
201207120200 METAR LPPR 120200Z 11001KT CAVOK 11/11 Q1022=
201207120130 METAR LPPR 120130Z 04001KT CAVOK 11/10 Q1022=
201207120100 METAR LPPR 120100Z VRB02KT CAVOK 11/11 Q1022=
201207120030 METAR LPPR 120030Z 00000KT CAVOK 11/10 Q1023=
201207120000 METAR LPPR 120000Z 00000KT CAVOK 12/11 Q1023=
201207112330 METAR LPPR 112330Z 35002KT CAVOK 13/11 Q1023=
201207112300 METAR LPPR 112300Z 34001KT CAVOK 13/11 Q1023=
201207112230 METAR LPPR 112230Z 00000KT CAVOK 14/12 Q1023=
201207112200 METAR LPPR 112200Z 34006KT CAVOK 15/12 Q1023=
201207112130 METAR LPPR 112130Z 34007KT CAVOK 15/12 Q1023=
201207112100 METAR LPPR 112100Z 35007KT CAVOK 15/12 Q1022=
201207112030 METAR LPPR 112030Z 34009KT CAVOK 16/12 Q1022=
201207112000 METAR LPPR 112000Z 34012KT CAVOK 16/12 Q1022=
201207111930 METAR LPPR 111930Z 33010KT 290V350 CAVOK 17/11 Q1022=
201207111900 METAR LPPR 111900Z 33010KT CAVOK 17/11 Q1022=
201207111830 METAR LPPR 111830Z 33012KT CAVOK 18/11 Q1022=
201207111800 METAR LPPR 111800Z 33014KT CAVOK 18/11 Q1022=
201207111730 METAR LPPR 111730Z 33012KT 300V010 CAVOK 19/11 Q1022=
201207111700 METAR LPPR 111700Z 32013KT 9999 FEW025 18/12 Q1022=
201207111630 METAR LPPR 111630Z 32012KT 9999 FEW025 19/12 Q1022=
201207111600 METAR LPPR 111600Z 33015KT 9999 FEW025 19/12 Q1022=
201207111530 METAR LPPR 111530Z 32014KT 9999 FEW025 19/12 Q1022=
201207111500 METAR LPPR 111500Z 33017KT 9999 FEW022 19/12 Q1022=
201207111430 METAR LPPR 111430Z 33016KT 9999 FEW020 19/12 Q1022=
201207111400 METAR LPPR 111400Z 33016G27KT 9999 FEW020 19/11 Q1022=
201207111330 METAR LPPR 111330Z 33015KT 9999 FEW020 19/12 Q1022=
201207111300 METAR LPPR 111300Z 33013KT 9999 FEW020 19/12 Q1022=
201207111230 METAR LPPR 111230Z 32014KT 9999 FEW020 19/12 Q1022=
201207111200 METAR LPPR 111200Z 33015KT 290V350 9999 FEW020 19/11 Q1023=
201207111130 METAR LPPR 111130Z 32010KT 280V350 9999 FEW020 19/12 Q1022=
201207111100 METAR LPPR 111100Z 33010KT 9999 FEW020 19/12 Q1022=
201207111030 METAR LPPR 111030Z 32011KT 290V350 9999 FEW026 19/12 Q1022=
201207111000 METAR LPPR 111000Z 32007KT 270V360 9999 FEW025 18/12 Q1022=
201207110930 METAR LPPR 110930Z 32006KT 290V360 9999 FEW020 18/12 Q1022=
201207110900 METAR LPPR 110900Z 32006KT 280V010 9999 FEW020 17/12 Q1022=
201207110830 METAR LPPR 110830Z 33006KT 280V010 9999 FEW020 17/12 Q1021=
201207110800 METAR LPPR 110800Z 35006KT 300V040 9999 FEW020 16/12 Q1021=
201207110730 METAR LPPR 110730Z 33004KT CAVOK 15/12 Q1021=
201207110700 METAR LPPR 110700Z VRB01KT CAVOK 14/13 Q1021=
201207110630 METAR LPPR 110630Z VRB02KT CAVOK 13/12 Q1021=
201207110600 METAR LPPR 110600Z 01005KT 330V050 9000 NSC 11/11 Q1020=
201207110530 METAR LPPR 110530Z VRB01KT 9000 NSC 10/09 Q1020=
201207110500 METAR LPPR 110500Z 04002KT 9000 NSC 11/10 Q1020=
201207110430 METAR LPPR 110430Z 02002KT 9999 FEW007 11/10 Q1020=
201207110400 METAR LPPR 110400Z 34001KT 9999 FEW008 11/11 Q1020=
201207110330 METAR LPPR 110330Z VRB01KT 9999 FEW009 11/10 Q1020=
201207110300 METAR LPPR 110300Z VRB01KT CAVOK 12/11 Q1020=
201207110230 METAR LPPR 110230Z 03001KT CAVOK 12/11 Q1020=
201207110200 METAR LPPR 110200Z 32002KT CAVOK 13/12 Q1020=
201207110130 METAR LPPR 110130Z 33002KT CAVOK 13/12 Q1020=
201207110100 METAR LPPR 110100Z VRB02KT CAVOK 13/12 Q1020=
201207110030 METAR LPPR 110030Z 34001KT CAVOK 13/12 Q1020=
201207110000 METAR LPPR 110000Z 35002KT CAVOK 14/13 Q1020=
201207102330 METAR LPPR 102330Z 35004KT CAVOK 14/13 Q1020=
201207102300 METAR LPPR 102300Z 34007KT CAVOK 15/13 Q1020=
201207102230 METAR LPPR 102230Z 34008KT CAVOK 15/13 Q1020=
201207102200 METAR LPPR 102200Z 33006KT CAVOK 15/12 Q1020=
201207102130 METAR LPPR 102130Z 33008KT 290V360 CAVOK 16/12 Q1020=
201207102100 METAR LPPR 102100Z 33009KT 9999 FEW020 16/12 Q1019=
201207102030 METAR LPPR 102030Z 33012KT 9999 FEW020 16/12 Q1019=
201207102000 METAR LPPR 102000Z 33011KT 9999 FEW020 16/12 Q1019=
201207101930 METAR LPPR 101930Z 33012KT 9999 FEW020 16/12 Q1019=
201207101900 METAR LPPR 101900Z 33013KT 290V360 CAVOK 17/12 Q1019=
201207101830 METAR LPPR 101830Z 32013KT CAVOK 17/13 Q1019=
201207101800 METAR LPPR 101800Z 33013KT 9999 FEW015 18/13 Q1019=
201207101730 METAR LPPR 101730Z 33015KT 9999 FEW015 18/13 Q1019=
201207101700 METAR LPPR 101700Z 33013KT 9999 FEW015 18/13 Q1019=
201207101630 METAR LPPR 101630Z 33012KT 280V010 9999 FEW015 19/13 Q1019=
201207101600 METAR LPPR 101600Z 32011KT 270V350 9999 FEW015 19/13 Q1019=
201207101530 METAR LPPR 101530Z 33015KT 290V350 9999 FEW019 19/13 Q1019=
201207101500 METAR LPPR 101500Z 33014KT 9999 FEW019 19/13 Q1019=
201207101430 METAR LPPR 101430Z 32014KT 280V350 9999 FEW019 19/13 Q1019=
201207101400 METAR LPPR 101400Z 32014KT 9999 FEW019 19/13 Q1019=
201207101330 METAR LPPR 101330Z 33014KT 290V360 9999 FEW019 19/13 Q1019=
201207101300 METAR LPPR 101300Z 33013KT 9999 FEW018 19/14 Q1019=
201207101230 METAR LPPR 101230Z 32012KT 9999 FEW017 19/13 Q1018=
201207101200 METAR LPPR 101200Z 33012KT 290V350 9999 FEW016 19/14 Q1018=
201207101130 METAR LPPR 101130Z 32010KT 290V350 9999 FEW016 19/13 Q1019=
201207101100 METAR LPPR 101100Z 33011KT 290V360 9999 FEW016 19/14 Q1019=
201207101030 METAR LPPR 101030Z 32010KT 270V350 9999 FEW017 19/14 Q1019=
201207101000 METAR LPPR 101000Z 32009KT 270V350 9999 FEW016 19/14 Q1018=
201207100930 METAR LPPR 100930Z 31007KT 270V340 9999 FEW016 19/14 Q1018=
201207100900 METAR LPPR 100900Z 33007KT 300V360 9999 FEW017 19/14 Q1018=
201207100830 METAR LPPR 100830Z 31005KT 270V360 9999 FEW015 18/14 Q1018=
201207100800 METAR LPPR 100800Z 30003KT 220V010 9999 SCT012 18/15 Q1018=
201207100730 METAR LPPR 100730Z 35004KT 9999 FEW012 17/15 Q1018=
201207100700 METAR LPPR 100700Z 36003KT 9999 FEW011 16/14 Q1018=
201207100630 METAR LPPR 100630Z 35004KT 8000 FEW015 15/14 Q1017=
201207100600 METAR LPPR 100600Z 36006KT 330V040 9999 FEW015 15/14 Q1017=
201207100530 METAR LPPR 100530Z 35006KT 9999 FEW015 15/14 Q1017=
201207100500 METAR LPPR 100500Z 34007KT 9999 FEW015 16/14 Q1017=
201207100430 METAR LPPR 100430Z 34006KT 9999 FEW015 16/14 Q1017=
201207100400 METAR LPPR 100400Z 33005KT 9999 FEW015 BKN049 16/14 Q1017=
201207100330 METAR LPPR 100330Z 33005KT 9999 FEW015 BKN049 16/14 Q1017=
201207100300 METAR LPPR 100300Z VRB02KT 9999 FEW015 BKN049 16/15 Q1017=
201207100230 METAR LPPR 100230Z 29002KT 9999 FEW015 BKN049 16/15 Q1017=
201207100200 METAR LPPR 100200Z 30001KT 9999 FEW012 BKN049 16/15 Q1017=
201207100130 METAR LPPR 100130Z 35001KT 9999 FEW012 BKN048 16/14 Q1017=
201207100100 METAR LPPR 100100Z 30001KT 9999 FEW012 BKN048 16/14 Q1017=
201207100030 METAR LPPR 100030Z 32001KT 9999 FEW012 BKN047 16/14 Q1017=
201207100000 METAR LPPR 100000Z 32005KT 9999 FEW012 BKN046 16/15 Q1017=
201207092330 METAR LPPR 092330Z 32006KT 9999 FEW012 BKN046 16/14 Q1017=
201207092300 METAR LPPR 092300Z 32006KT 9999 FEW012 BKN046 16/14 Q1017=
201207092230 METAR LPPR 092230Z 31005KT 260V360 9999 FEW012 BKN046 16/14
                        Q1017=
201207092200 METAR LPPR 092200Z 32005KT 280V360 9999 FEW013 BKN045 16/14
                        Q1017=
201207092130 METAR LPPR 092130Z 31004KT 250V010 9999 FEW016 BKN045 16/14
                        Q1017=
201207092100 METAR LPPR 092100Z 31005KT 260V340 9999 FEW012 SCT045 16/14
                        Q1017=
201207092030 METAR LPPR 092030Z 31005KT 270V340 9999 FEW012 16/15 Q1017=
201207092000 METAR LPPR 092000Z 32007KT 290V350 9999 FEW013 17/14 Q1017=
201207091930 METAR LPPR 091930Z 33007KT 290V350 9999 FEW012 17/15 Q1017=
201207091900 METAR LPPR 091900Z 33008KT 290V350 9999 FEW011 17/15 Q1017=
201207091830 METAR LPPR 091830Z 32009KT 290V350 9999 FEW012 18/15 Q1017=
201207091800 METAR LPPR 091800Z 32011KT 290V350 9999 FEW015 19/15 Q1017=
201207091730 METAR LPPR 091730Z 32009KT 270V020 9999 FEW017 19/14 Q1017=
201207091700 METAR LPPR 091700Z 32010KT 280V340 9999 FEW017 19/14 Q1017=
201207091630 METAR LPPR 091630Z 32009KT 280V360 9999 FEW025 19/14 Q1017=
201207091600 METAR LPPR 091600Z 32011KT 290V350 9999 FEW025 20/14 Q1017=
201207091530 METAR LPPR 091530Z 32012KT 280V360 9999 FEW025 19/14 Q1018=
201207091500 METAR LPPR 091500Z 31010KT 280V360 9999 FEW025 20/14 Q1018=
201207091430 METAR LPPR 091430Z 31010KT 280V350 9999 FEW025 20/14 Q1018=
201207091400 METAR LPPR 091400Z 32012KT 290V350 9999 FEW020 20/13 Q1018=
201207091330 METAR LPPR 091330Z 32011KT 280V350 9999 FEW020 20/14 Q1018=
201207091300 METAR LPPR 091300Z 33011KT 280V350 9999 FEW020 20/15 Q1018=
201207091230 METAR LPPR 091230Z 31008KT 280V340 9999 FEW018 SCT045 20/14
                        Q1018=
201207091200 METAR LPPR 091200Z 32010KT 280V350 9999 FEW018 20/15 Q1018=
201207091130 METAR LPPR 091130Z 31008KT 260V360 9999 FEW018 SCT045 20/15
                        Q1018=
201207091100 METAR LPPR 091100Z 31008KT 280V340 9999 FEW018 SCT045 19/15
                        Q1018=
201207091030 METAR LPPR 091030Z 30008KT 270V330 9999 FEW017 SCT045 19/15
                        Q1017=
201207091000 METAR LPPR 091000Z 30005KT 250V340 9999 FEW018 SCT045 20/15
                        Q1017=
201207090930 METAR LPPR 090930Z 28005KT 230V320 9999 FEW018 SCT045 18/15
                        Q1017=
201207090900 METAR LPPR 090900Z 29003KT 250V320 9999 FEW012 BKN045 18/15
                        Q1017=
201207090830 METAR LPPR 090830Z VRB02KT 9999 FEW013 BKN045 18/15 Q1017=
201207090800 METAR LPPR 090800Z 36003KT 320V070 9999 FEW012 SCT025 BKN045
                        18/15 Q1017=
201207090730 METAR LPPR 090730Z VRB01KT 9999 FEW015 BKN045 17/15 Q1016=
201207090700 METAR LPPR 090700Z 00000KT 9000 FEW010 BKN045 16/15 Q1016=
201207090630 METAR LPPR 090630Z VRB02KT 8000 FEW020 BKN043 15/15 Q1016=
201207090600 METAR LPPR 090600Z VRB02KT 8000 FEW006 BKN042 15/15 Q1016=
201207090530 METAR LPPR 090530Z 00000KT 6000 2500NW R17/0700 PRFG FEW004
                        BKN040 15/14 Q1016=
201207090500 METAR LPPR 090500Z 07003KT 5000 BR SCT001 BKN038 15/14 Q1016=
201207090430 METAR LPPR 090430Z 01003KT 8000 BKN003 BKN035 15/15 Q1016=
201207090400 METAR LPPR 090400Z 34004KT 8000 BKN004 BKN033 16/15 Q1016=
201207090330 METAR LPPR 090330Z 35004KT 9000 BKN004 SCT032 15/15 Q1016=
201207090300 METAR LPPR 090300Z 33003KT 300V360 9000 BKN004 16/15 Q1016=
201207090230 METAR LPPR 090230Z 35004KT 9000 BKN004 16/15 Q1016=
201207090200 METAR LPPR 090200Z 34008KT 9999 FEW004 BKN005 16/15 Q1016=
201207090130 METAR LPPR 090130Z 34008KT 9999 FEW004 BKN006 16/15 Q1016=
201207090100 METAR LPPR 090100Z 34008KT 9999 FEW005 BKN007 16/15 Q1016=
201207090030 METAR LPPR 090030Z 34009KT 9999 FEW006 BKN008 16/15 Q1016=
201207090000 METAR LPPR 090000Z 34011KT 9999 SCT009 16/14 Q1017=
201207082330 METAR LPPR 082330Z 34010KT 9999 FEW008 16/14 Q1017=
201207082300 METAR LPPR 082300Z 33011KT 9999 FEW008 16/14 Q1017=
201207082230 METAR LPPR 082230Z 33011KT 300V360 9999 FEW008 16/14 Q1017=
201207082200 METAR LPPR 082200Z 34011KT 9999 FEW009 17/14 Q1017=
201207082130 METAR LPPR 082130Z 33012KT 9999 FEW009 17/15 Q1017=
201207082100 METAR LPPR 082100Z 33012KT 9999 FEW008 17/15 Q1016=
201207082030 METAR LPPR 082030Z 33010KT CAVOK 17/14 Q1016=
201207082000 METAR LPPR 082000Z 33010KT CAVOK 17/14 Q1016=
201207081930 METAR LPPR 081930Z 33010KT CAVOK 18/15 Q1016=
201207081900 METAR LPPR 081900Z 33011KT 9999 FEW014 18/15 Q1016=
201207081830 METAR LPPR 081830Z 33013KT 9999 FEW012 18/15 Q1016=
201207081800 METAR LPPR 081800Z 33015KT 290V350 9999 FEW015 19/15 Q1016=
201207081730 METAR LPPR 081730Z 33014KT 300V360 CAVOK 19/15 Q1016=
201207081700 METAR LPPR 081700Z 33015KT 9999 FEW020 20/16 Q1016=
201207081630 METAR LPPR 081630Z 33014KT 9999 FEW020 20/15 Q1016=
201207081600 METAR LPPR 081600Z 32014KT 290V350 9999 FEW020 20/15 Q1016=
201207081530 METAR LPPR 081530Z 32013KT 290V350 9999 FEW020 21/15 Q1016=
201207081500 METAR LPPR 081500Z 33013KT 290V350 CAVOK 21/15 Q1016=
201207081430 METAR LPPR 081430Z 32013KT CAVOK 21/15 Q1016=
201207081400 METAR LPPR 081400Z 33013KT 290V350 CAVOK 21/16 Q1017=
201207081330 METAR LPPR 081330Z 32012KT 290V350 CAVOK 21/15 Q1017=
201207081300 METAR LPPR 081300Z 32010KT 290V350 CAVOK 21/16 Q1017=
201207081230 METAR LPPR 081230Z 32010KT 290V350 9999 FEW025 20/15 Q1017=
201207081200 METAR LPPR 081200Z 33011KT 290V360 9999 FEW025 20/15 Q1017=
201207081130 METAR LPPR 081130Z 31010KT 280V340 9999 FEW025 20/15 Q1017=
201207081100 METAR LPPR 081100Z 31009KT 280V340 9999 FEW020 20/14 Q1017=
201207081030 METAR LPPR 081030Z 32007KT 280V360 9999 FEW020 20/14 Q1017=
201207081000 METAR LPPR 081000Z 31006KT 260V360 9999 FEW018 20/15 Q1017=
201207080930 METAR LPPR 080930Z 33007KT 270V020 9999 FEW018 19/15 Q1017=
201207080900 METAR LPPR 080900Z 35008KT 320V020 CAVOK 19/14 Q1017=
201207080830 METAR LPPR 080830Z 36008KT CAVOK 18/13 Q1017=
201207080800 METAR LPPR 080800Z 01006KT 340V040 CAVOK 17/14 Q1017=
201207080730 METAR LPPR 080730Z 01004KT 330V040 CAVOK 16/14 Q1017=
201207080700 METAR LPPR 080700Z VRB02KT 9999 FEW035 15/14 Q1017=
201207080630 METAR LPPR 080630Z VRB02KT 9999 FEW030 14/13 Q1017=
201207080600 METAR LPPR 080600Z 05004KT 320V110 9999 FEW030 13/13 Q1017=
201207080530 METAR LPPR 080530Z VRB02KT 9000 FEW005 13/12 Q1017=
201207080500 METAR LPPR 080500Z 01001KT 6000 FEW005 12/11 Q1017=
201207080430 METAR LPPR 080430Z 36002KT 7000 NSC 12/12 Q1017=
201207080400 METAR LPPR 080400Z 04001KT CAVOK 13/12 Q1017=
201207080330 METAR LPPR 080330Z 36002KT 9999 FEW007 13/13 Q1017=
201207080300 METAR LPPR 080300Z VRB02KT CAVOK 12/12 Q1017=
201207080230 METAR LPPR 080230Z 01003KT 9999 FEW007 13/12 Q1017=
201207080200 METAR LPPR 080200Z VRB02KT 9999 FEW007 13/12 Q1017=
201207080130 METAR LPPR 080130Z 00000KT 9999 FEW006 13/13 Q1017=
201207080100 METAR LPPR 080100Z 01002KT CAVOK 13/12 Q1017=
201207080030 METAR LPPR 080030Z 00000KT CAVOK 13/13 Q1017=
201207080000 METAR LPPR 080000Z 00000KT CAVOK 14/13 Q1017=
201207072330 METAR LPPR 072330Z 02001KT CAVOK 14/13 Q1017=
201207072300 METAR LPPR 072300Z 00000KT CAVOK 14/13 Q1017=
201207072230 METAR LPPR 072230Z 00000KT CAVOK 15/14 Q1017=
201207072200 METAR LPPR 072200Z 04001KT CAVOK 15/14 Q1017=
201207072130 METAR LPPR 072130Z 35002KT CAVOK 15/14 Q1017=
201207072100 METAR LPPR 072100Z 32004KT 9999 FEW013 16/15 Q1017=
201207072030 METAR LPPR 072030Z 32003KT 280V340 9999 FEW013 17/15 Q1016=
201207072000 METAR LPPR 072000Z 32004KT 290V360 9999 FEW013 SCT050 17/15
                        Q1016=
201207071930 METAR LPPR 071930Z 29003KT 260V330 9999 FEW017 SCT050 18/14
                        Q1016=
201207071900 METAR LPPR 071900Z 29003KT 220V340 9999 FEW021 SCT050 18/14
                        Q1016=
201207071830 METAR LPPR 071830Z 28005KT 240V330 9999 SCT021 SCT050 19/14
                        Q1016=
201207071800 METAR LPPR 071800Z 28005KT 230V330 9999 SCT021 19/14 Q1016=
201207071730 METAR LPPR 071730Z 29005KT 230V350 9999 SCT017 19/14 Q1016=
201207071700 METAR LPPR 071700Z 30007KT 250V340 9999 SCT017 20/14 Q1016=
201207071630 METAR LPPR 071630Z 29007KT 260V330 9999 BKN016 19/15 Q1016=
201207071600 METAR LPPR 071600Z 28007KT 220V320 9999 BKN017 20/16 Q1016=
201207071530 METAR LPPR 071530Z 29006KT 230V340 9999 BKN014 20/15 Q1016=
201207071500 METAR LPPR 071500Z 27007KT 220V320 9999 SCT015 19/15 Q1016=
201207071430 METAR LPPR 071430Z 24006KT 200V290 9999 SCT017 20/15 Q1016=
201207071400 METAR LPPR 071400Z 24007KT 200V280 9999 SCT015 SCT045 20/15
                        Q1016=
201207071330 METAR LPPR 071330Z 26003KT 140V310 9999 SCT014 BKN045 20/16
                        Q1015=
201207071300 METAR LPPR 071300Z 29004KT 230V340 9000 -SHRA SCT015 BKN040
                        18/15 Q1015=
201207071230 METAR LPPR 071230Z 29006KT 260V330 9999 FEW018 SCT045 20/15
                        Q1015=
201207071200 METAR LPPR 071200Z 28006KT 230V330 9999 SCT018 20/15 Q1015=
201207071130 METAR LPPR 071130Z 30006KT 260V340 9999 FEW014 SCT017 19/14
                        Q1015=
201207071100 METAR LPPR 071100Z VRB05KT 9999 SCT015 20/16 Q1015=
201207071030 METAR LPPR 071030Z 24005KT 200V290 9999 FEW013 SCT018 BKN036
                        18/15 Q1015=
201207071000 METAR LPPR 071000Z 24006KT 190V320 9999 FEW009 SCT014 BKN045
                        19/16 Q1015=
201207070930 METAR LPPR 070930Z 23006KT 200V290 9999 SCT009 SCT016 BKN040
                        18/16 Q1014=
201207070900 METAR LPPR 070900Z 22005KT 190V260 9999 FEW009 SCT015 BKN040
                        18/16 Q1014=
201207070830 METAR LPPR 070830Z 23004KT 180V270 9999 SCT018 BKN024 17/16
                        Q1014=
201207070800 METAR LPPR 070800Z 22003KT 190V250 9999 SCT016 BKN045 17/16
                        Q1014=
201207070730 METAR LPPR 070730Z 19003KT 150V220 9999 FEW022 BKN035 16/15
                        Q1014=
201207070700 METAR LPPR 070700Z VRB01KT 5000 -RADZ BR FEW008 SCT020 OVC027
                        16/15 Q1013=
201207070630 METAR LPPR 070630Z 26003KT 220V300 4000 -RADZ FEW004 SCT011
                        OVC017 16/15 Q1014=
201207070600 METAR LPPR 070600Z 19008KT 170V260 3000 -RADZ BR OVC004 17/16
                        Q1013=
201207070530 METAR LPPR 070530Z 18011KT 7000 OVC004 17/16 Q1013=
201207070500 METAR LPPR 070500Z 18011KT 7000 OVC005 17/16 Q1013=
201207070430 METAR LPPR 070430Z 19010KT 8000 BKN004 OVC013 17/16 Q1013=
201207070400 METAR LPPR 070400Z 18010KT 9000 SCT004 BKN006 OVC016 17/16
                        Q1013=
201207070330 METAR LPPR 070330Z 18010KT 8000 SCT004 OVC006 17/16 Q1013=
201207070300 METAR LPPR 070300Z 19009KT 9000 OVC005 16/16 Q1014=
201207070230 METAR LPPR 070230Z 19008KT 9000 OVC005 16/15 Q1014=
201207070200 METAR LPPR 070200Z 18009KT 9000 SCT004 OVC008 16/15 Q1014=
201207070130 METAR LPPR 070130Z 17009KT 8000 -DZ SCT004 BKN008 16/15 Q1014=
201207070100 METAR LPPR 070100Z 18009KT 5000 -DZ SCT005 OVC007 16/16 Q1015=
201207070030 METAR LPPR 070030Z 18009KT 5000 -DZ SCT009 SCT012 OVC015
                        17/15 Q1015=
201207070000 METAR LPPR 070000Z 18009KT 9999 SCT011 BKN014 OVC020 18/15
                        Q1015=
201207062330 METAR LPPR 062330Z 19006KT 160V220 9999 SCT014 BKN020 OVC035
                        18/15 Q1015=
201207062300 METAR LPPR 062300Z 20006KT 9999 OVC016 18/15 Q1015=
201207062230 METAR LPPR 062230Z 20005KT 170V230 9999 FEW017 SCT020 OVC045
                        17/15 Q1015=
201207062200 METAR LPPR 062200Z 19003KT 9999 FEW011 OVC023 17/15 Q1016=
201207062130 METAR LPPR 062130Z 22004KT 180V260 9999 FEW015 BKN030 OVC035
                        17/15 Q1016=
201207062100 METAR LPPR 062100Z 22003KT 170V260 9999 FEW016 OVC034 18/14
                        Q1016=
201207062030 METAR LPPR 062030Z 24003KT 200V290 9999 FEW018 SCT035 OVC045
                        18/14 Q1015=
201207062000 METAR LPPR 062000Z 25003KT 210V290 9999 FEW018 BKN040 18/14
                        Q1016=
201207061930 METAR LPPR 061930Z VRB02KT 9999 FEW018 BKN045 18/14 Q1016=
201207061900 METAR LPPR 061900Z 28004KT 230V350 9999 FEW018 BKN045 18/14
                        Q1016=
201207061830 METAR LPPR 061830Z 30005KT 260V340 9999 FEW018 SCT045 18/14
                        Q1016=
201207061800 METAR LPPR 061800Z 30006KT 230V340 9999 FEW018 19/14 Q1016=
201207061730 METAR LPPR 061730Z 30005KT 250V340 9999 FEW018 19/13 Q1016=
201207061700 METAR LPPR 061700Z 30007KT 230V350 9999 FEW018 19/14 Q1016=
201207061630 METAR LPPR 061630Z 28007KT 250V320 9999 FEW017 19/14 Q1016=
201207061600 METAR LPPR 061600Z 27006KT 220V310 9999 FEW017 19/14 Q1017=
201207061530 METAR LPPR 061530Z 27008KT 210V300 9999 FEW017 20/14 Q1017=
201207061500 METAR LPPR 061500Z 28006KT 9999 SCT017 20/14 Q1017=
201207061430 METAR LPPR 061430Z 29007KT 260V340 9999 SCT017 20/14 Q1017=
201207061400 METAR LPPR 061400Z 29006KT 220V350 9999 SCT017 20/15 Q1017=
201207061330 METAR LPPR 061330Z 29007KT 260V320 9999 SCT017 19/13 Q1017=
201207061300 METAR LPPR 061300Z 28007KT 250V310 9999 SCT016 19/14 Q1017=
201207061230 METAR LPPR 061230Z 28007KT 230V350 9999 FEW017 SCT020 19/14
                        Q1018=
201207061200 METAR LPPR 061200Z 29006KT 250V330 9999 FEW018 SCT024 19/14
                        Q1018=
201207061130 METAR LPPR 061130Z 28006KT 170V330 9999 FEW025 SCT035 19/14
                        Q1018=
201207061100 METAR LPPR 061100Z 31007KT 280V010 9999 FEW025 SCT037 19/13
                        Q1017=
201207061030 METAR LPPR 061030Z 30005KT 250V010 9999 SCT022 SCT025 BKN041
                        19/13 Q1017=
201207061000 METAR LPPR 061000Z 33005KT 270V030 9999 FEW018 BKN041 18/13
                        Q1017=
201207060930 METAR LPPR 060930Z 31005KT 260V350 9999 SCT016 BKN038 18/14
                        Q1018=
201207060900 METAR LPPR 060900Z 31005KT 270V360 9999 BKN016 BKN032 17/14
                        Q1018=
201207060830 METAR LPPR 060830Z 34006KT 310V030 9999 SCT012 SCT014 BKN040
                        17/13 Q1018=
201207060800 METAR LPPR 060800Z 35003KT 280V030 9999 SCT012 SCT014 BKN040
                        17/14 Q1018=
201207060730 METAR LPPR 060730Z 02003KT 350V060 9999 SCT013 BKN040 16/14
                        Q1017=
201207060700 METAR LPPR 060700Z 36003KT 330V030 9999 FEW018 BKN040 16/13
                        Q1017=
201207060630 METAR LPPR 060630Z VRB02KT 9999 FEW018 BKN042 15/13 Q1017=
201207060600 METAR LPPR 060600Z VRB02KT 9999 FEW018 BKN042 15/13 Q1017=
201207060530 METAR LPPR 060530Z 36002KT 9999 FEW018 BKN040 14/13 Q1017=
201207060500 METAR LPPR 060500Z 00000KT 9999 FEW012 BKN040 15/13 Q1017=
201207060430 METAR LPPR 060430Z VRB01KT 9999 FEW018 BKN040 15/13 Q1017=
201207060400 METAR LPPR 060400Z 27002KT 9999 FEW017 BKN039 15/13 Q1017=
201207060330 METAR LPPR 060330Z 00000KT 9999 FEW013 BKN039 14/13 Q1017=
201207060300 METAR LPPR 060300Z VRB02KT 9999 FEW018 BKN040 15/13 Q1017=
201207060230 METAR LPPR 060230Z 34003KT 9999 BKN040 15/13 Q1017=
201207060200 METAR LPPR 060200Z 33004KT 9999 BKN037 15/13 Q1017=
201207060130 METAR LPPR 060130Z 01005KT 9999 FEW024 BKN038 15/13 Q1018=
201207060100 METAR LPPR 060100Z 34006KT 9999 FEW018 BKN043 15/13 Q1018=
201207060030 METAR LPPR 060030Z 36005KT 9999 FEW022 BKN043 16/14 Q1018=
201207060000 METAR LPPR 060000Z 35007KT 9999 FEW015 BKN043 16/14 Q1018=
201207052330 METAR LPPR 052330Z 36006KT 9999 FEW012 BKN043 16/14 Q1018=
201207052300 METAR LPPR 052300Z 34007KT 9999 FEW011 BKN041 16/14 Q1018=
201207052230 METAR LPPR 052230Z 34006KT 9999 FEW015 BKN041 16/14 Q1018=
201207052200 METAR LPPR 052200Z 35007KT 9999 FEW012 BKN041 16/13 Q1018=
201207052130 METAR LPPR 052130Z 33007KT 9999 FEW010 BKN042 16/13 Q1018=
201207052100 METAR LPPR 052100Z 33007KT 9999 FEW010 BKN043 16/13 Q1018=
201207052030 METAR LPPR 052030Z 33007KT 300V010 9999 FEW012 SCT045 16/14
                        Q1018=
201207052000 METAR LPPR 052000Z 33009KT 9999 FEW014 SCT045 17/14 Q1018=
201207051930 METAR LPPR 051930Z 33008KT 290V360 9999 FEW015 SCT047 17/14
                        Q1017=
201207051900 METAR LPPR 051900Z 34010KT 9999 FEW018 17/13 Q1017=
201207051830 METAR LPPR 051830Z 33009KT 280V360 9999 FEW018 18/13 Q1017=
201207051800 METAR LPPR 051800Z 33012KT 9999 SCT019 18/14 Q1017=
201207051730 METAR LPPR 051730Z 32010KT 9999 FEW019 18/13 Q1017=
201207051700 METAR LPPR 051700Z 33011KT 290V350 9999 FEW022 19/13 Q1017=
201207051630 METAR LPPR 051630Z 33013KT 290V350 9999 FEW022 19/13 Q1018=
201207051600 METAR LPPR 051600Z 31011KT 270V340 9999 FEW021 19/13 Q1018=
201207051530 METAR LPPR 051530Z 33014KT 9999 FEW020 19/13 Q1018=
201207051500 METAR LPPR 051500Z 34012KT 300V360 9999 FEW020 19/12 Q1018=
201207051430 METAR LPPR 051430Z 33012KT 290V360 9999 FEW018 19/13 Q1018=
201207051400 METAR LPPR 051400Z 32013KT 290V360 9999 FEW015 19/13 Q1018=
201207051330 METAR LPPR 051330Z 32012KT 280V350 9999 FEW016 19/14 Q1018=
201207051300 METAR LPPR 051300Z 31009KT 270V360 9999 FEW015 BKN045 19/14
                        Q1018=
201207051230 METAR LPPR 051230Z 33008KT 260V360 9999 FEW019 BKN030 18/14
                        Q1018=
201207051200 METAR LPPR 051200Z 30011KT 270V340 9999 SCT020 BKN030 18/14
                        Q1018=
201207051130 METAR LPPR 051130Z 32009KT 280V360 9999 FEW017 SCT045 20/13
                        Q1017=
201207051100 METAR LPPR 051100Z 30006KT 250V340 9999 FEW017 BKN045 18/14
                        Q1018=
201207051030 METAR LPPR 051030Z 32008KT 280V360 9999 FEW019 SCT030 18/13
                        Q1017=
201207051000 METAR LPPR 051000Z 32009KT 250V350 9999 FEW015 18/13 Q1017=
201207050930 METAR LPPR 050930Z 30007KT 260V350 9999 FEW015 SCT025 18/13
                        Q1017=
201207050900 METAR LPPR 050900Z 35008KT 300V020 9999 FEW015 19/13 Q1017=
201207050830 METAR LPPR 050830Z 01004KT 330V050 9999 FEW017 SCT035 17/13
                        Q1017=
201207050800 METAR LPPR 050800Z 33007KT 290V360 9999 FEW017 BKN030 17/13
                        Q1017=
201207050730 METAR LPPR 050730Z 33004KT 300V360 9999 FEW015 BKN045 16/13
                        Q1017=
201207050700 METAR LPPR 050700Z 36004KT 330V030 9999 FEW017 BKN040 16/13
                        Q1016=
201207050630 METAR LPPR 050630Z 34004KT 9000 -RA SCT019 BKN028 16/13 Q1016=
201207050600 METAR LPPR 050600Z 33003KT 310V030 9999 FEW020 BKN040 15/12
                        Q1016=
201207050530 METAR LPPR 050530Z 35004KT 300V060 9999 FEW020 BKN040 15/12
                        Q1016=
201207050500 METAR LPPR 050500Z 01004KT 9999 FEW020 BKN040 15/12 Q1016=
201207050430 METAR LPPR 050430Z 35004KT 9999 BKN040 15/12 Q1016=
201207050400 METAR LPPR 050400Z 35003KT 310V020 9999 BKN040 15/12 Q1016=
201207050330 METAR LPPR 050330Z 01004KT 330V050 9999 BKN040 15/12 Q1016=
201207050300 METAR LPPR 050300Z 35002KT 9999 BKN040 14/12 Q1016=
201207050230 METAR LPPR 050230Z 34005KT 9999 SCT040 14/12 Q1016=
201207050200 METAR LPPR 050200Z 33006KT 9999 SCT040 15/12 Q1016=
201207050130 METAR LPPR 050130Z 34006KT 9999 BKN030 16/12 Q1016=
201207050100 METAR LPPR 050100Z 34005KT 9999 BKN030 16/12 Q1016=
201207050030 METAR LPPR 050030Z 35006KT 9999 BKN030 16/12 Q1016=
201207050000 METAR LPPR 050000Z 34007KT 9999 BKN040 15/12 Q1016=
201207042330 METAR LPPR 042330Z 33007KT 9999 FEW040 15/12 Q1016=
201207042300 METAR LPPR 042300Z 34006KT 9999 FEW020 15/12 Q1016=
201207042230 METAR LPPR 042230Z 33006KT 9999 FEW020 15/13 Q1016=
201207042200 METAR LPPR 042200Z 33006KT 9999 FEW018 15/13 Q1016=
201207042130 METAR LPPR 042130Z 33007KT 9999 FEW030 16/13 Q1016=
201207042100 METAR LPPR 042100Z 33007KT 9999 FEW030 16/13 Q1016=
201207042030 METAR LPPR 042030Z 33008KT 9999 FEW022 16/13 Q1016=
201207042000 METAR LPPR 042000Z 33010KT 300V360 9999 FEW020 17/13 Q1016=
201207041930 METAR LPPR 041930Z 33010KT 9999 FEW020 17/13 Q1016=
201207041900 METAR LPPR 041900Z 33012KT 9999 FEW020 18/13 Q1016=
201207041830 METAR LPPR 041830Z 32011KT 290V360 9999 FEW030 18/13 Q1016=
201207041800 METAR LPPR 041800Z 33012KT 290V360 9999 FEW016 19/14 Q1015=
201207041730 METAR LPPR 041730Z 32012KT 280V350 9999 FEW025 19/14 Q1016=
201207041700 METAR LPPR 041700Z 32013KT 280V350 9999 SCT020 19/14 Q1016=
201207041630 METAR LPPR 041630Z 32010KT 280V340 9999 SCT020 20/14 Q1016=
201207041600 METAR LPPR 041600Z 33011KT 290V010 9999 FEW012 SCT025 BKN040
                        19/15 Q1016=
201207041530 METAR LPPR 041530Z 32010KT 280V350 9999 FEW012 SCT015 BKN025
                        19/16 Q1016=
201207041500 METAR LPPR 041500Z 32010KT 290V350 9999 FEW013 SCT025 20/16
                        Q1016=
201207041430 METAR LPPR 041430Z 31011KT 280V350 9999 SCT015 20/16 Q1016=
201207041400 METAR LPPR 041400Z 28007KT 230V330 9999 FEW007 BKN011 FEW012TCU
                        20/17 Q1016=
201207041330 METAR LPPR 041330Z 29006KT 230V350 9999 SCT008 FEW012TCU
                        20/16 Q1016=
201207041300 METAR LPPR 041300Z 28005KT 220V310 9999 SCT009 FEW012TCU 19/16
                        Q1016=
201207041230 METAR LPPR 041230Z 29006KT 260V320 9999 BKN009 20/17 Q1016=
201207041200 METAR LPPR 041200Z 29005KT 220V320 9999 FEW008 20/16 Q1016=
201207041130 METAR LPPR 041130Z 28006KT 240V320 9999 SCT008 20/17 Q1017=
201207041100 METAR LPPR 041100Z VRB04KT 9999 SCT010 FEW012TCU 20/17 Q1017=
201207041030 METAR LPPR 041030Z 25005KT 210V290 9999 FEW007 BKN009 19/17
                        Q1017=
201207041000 METAR LPPR 041000Z 23004KT 200V280 9999 FEW005 SCT007 FEW012TCU
                        BKN045 19/17 Q1017=
201207040930 METAR LPPR 040930Z 23005KT 200V260 9999 BKN005 BKN043 19/17
                        Q1017=
201207040900 METAR LPPR 040900Z 20004KT 160V270 9999 VCSH FEW006 SCT009
                        FEW011TCU BKN033 18/17 Q1016=
201207040830 METAR LPPR 040830Z 19004KT 160V220 9000 3000SE -DZ SCT003
                        SCT018 BKN030 18/17 Q1016=
201207040800 METAR LPPR 040800Z 20004KT 7000 3000S -DZ SCT001 SCT015 BKN026
                        17/17 Q1016=
201207040730 METAR LPPR 040730Z 26003KT 210V310 1800 1400N R17/1400VP2000U
                        -DZ BR BKN002 BKN018 17/16 Q1016=
201207040700 METAR LPPR 040700Z 25003KT 210V290 3800 BR VCFG SCT003 BKN009
                        BKN026 17/16 Q1016=
201207040630 METAR LPPR 040630Z VRB02KT 4100 -DZRA BR FEW002 SCT004 BKN006
                        17/16 Q1016=
201207040600 METAR LPPR 040600Z VRB02KT 9000 SCT004 BKN009 BKN015 17/16
                        Q1016=
201207040530 METAR LPPR 040530Z 26003KT 220V310 2700 BR VCFG SCT004 SCT011
                        BKN025 17/16 Q1016=
201207040500 METAR LPPR 040500Z VRB01KT 9999 SCT013 BKN030 17/16 Q1016=
201207040430 METAR LPPR 040430Z VRB02KT 9999 FEW003 SCT015 BKN035 17/16
                        Q1016=
201207040400 METAR LPPR 040400Z 00000KT 9999 FEW003 SCT013 BKN030 17/16
                        Q1016=
201207040330 METAR LPPR 040330Z 26003KT 210V290 8000 FEW004 SCT012 BKN020
                        18/16 Q1016=
201207040300 METAR LPPR 040300Z 27002KT 9999 FEW012 BKN025 18/16 Q1016=
201207040230 METAR LPPR 040230Z VRB02KT 9999 SCT025 BKN030 18/16 Q1017=
201207040200 METAR LPPR 040200Z 00000KT 9999 FEW015 BKN030 17/16 Q1017=
201207040130 METAR LPPR 040130Z VRB01KT 9999 FEW015 BKN024 17/16 Q1017=
201207040100 METAR LPPR 040100Z 33003KT 300V360 9999 FEW004 BKN023 17/16
                        Q1017=
201207040030 METAR LPPR 040030Z VRB02KT 9999 SCT002 BKN004 BKN022 17/17
                        Q1018=
201207040000 METAR LPPR 040000Z 29003KT 9999 FEW005 SCT011 BKN025 18/17
                        Q1018=
201207032330 METAR LPPR 032330Z 34004KT 9999 FEW007 SCT015 BKN020 18/17
                        Q1018=
201207032300 METAR LPPR 032300Z VRB02KT 9999 FEW012 BKN022 18/17 Q1018=
201207032230 METAR LPPR 032230Z 30003KT 270V360 9999 FEW008 SCT015 BKN020
                        18/17 Q1018=
201207032200 METAR LPPR 032200Z 30003KT 270V350 9999 FEW008 SCT014 BKN020
                        18/17 Q1018=
201207032130 METAR LPPR 032130Z VRB01KT 9999 FEW009 SCT011 BKN020 18/17
                        Q1018=
201207032100 METAR LPPR 032100Z 34004KT 9999 SCT006 BKN014 BKN020 18/17
                        Q1018=
201207032030 METAR LPPR 032030Z 34005KT 300V360 9000 SCT006 BKN012 BKN020
                        18/17 Q1018=
201207032000 METAR LPPR 032000Z 33007KT 280V360 9999 SCT008 BKN011 OVC014
                        18/17 Q1018=
201207031930 METAR LPPR 031930Z 32007KT 280V350 9999 SCT008 BKN014 18/16
                        Q1018=
201207031900 METAR LPPR 031900Z 32005KT 290V010 9999 FEW006 SCT008 OVC014
                        18/17 Q1018=
201207031830 METAR LPPR 031830Z 32008KT 290V350 9999 SCT008 BKN016 OVC020
                        19/17 Q1018=
201207031800 METAR LPPR 031800Z 32009KT 290V350 9999 SCT012 BKN020 19/16
                        Q1018=
201207031730 METAR LPPR 031730Z 32007KT 280V360 9999 FEW013 BKN020 19/16
                        Q1018=
201207031700 METAR LPPR 031700Z 32009KT 290V350 9999 SCT016 20/16 Q1018=
201207031630 METAR LPPR 031630Z 31010KT 290V350 9999 FEW010 SCT015 20/16
                        Q1018=
201207031600 METAR LPPR 031600Z 32008KT 270V360 9999 SCT008 20/17 Q1018=
201207031530 METAR LPPR 031530Z 32008KT 280V360 9999 BKN008 20/17 Q1018=
201207031500 METAR LPPR 031500Z 30007KT 270V330 9999 BKN009 20/17 Q1018=
201207031430 METAR LPPR 031430Z 28006KT 230V310 9999 SCT015 20/16 Q1018=
201207031400 METAR LPPR 031400Z 30007KT 270V340 9999 SCT015 20/16 Q1018=
201207031330 METAR LPPR 031330Z 29008KT 250V320 9999 FEW012 20/16 Q1018=
201207031300 METAR LPPR 031300Z 29007KT 9999 FEW018 21/16 Q1018=
201207031230 METAR LPPR 031230Z 28007KT 250V310 9999 FEW018 20/15 Q1019=
201207031200 METAR LPPR 031200Z 29006KT 260V320 9999 FEW018 21/16 Q1019=
201207031130 METAR LPPR 031130Z 29006KT 260V320 9999 FEW018 21/15 Q1019=
201207031100 METAR LPPR 031100Z 28006KT 250V320 9999 FEW018 20/15 Q1019=
201207031030 METAR LPPR 031030Z 29005KT 230V320 9999 FEW018 20/15 Q1019=
201207031000 METAR LPPR 031000Z 29005KT 260V320 9999 FEW018 20/16 Q1019=
201207030930 METAR LPPR 030930Z VRB04KT 9999 FEW017 21/16 Q1019=
201207030900 METAR LPPR 030900Z VRB03KT CAVOK 20/15 Q1019=
201207030830 METAR LPPR 030830Z VRB02KT 9999 FEW010 19/15 Q1019=
201207030800 METAR LPPR 030800Z VRB01KT 9999 FEW009 18/15 Q1019=
201207030730 METAR LPPR 030730Z VRB02KT CAVOK 17/16 Q1019=
201207030700 METAR LPPR 030700Z 11004KT CAVOK 16/15 Q1019=
201207030630 METAR LPPR 030630Z 10004KT 020V140 CAVOK 16/15 Q1018=
201207030600 METAR LPPR 030600Z VRB02KT 9999 FEW005 14/13 Q1018=
201207030530 METAR LPPR 030530Z VRB02KT 8000 FEW007 13/13 Q1018=
201207030500 METAR LPPR 030500Z VRB01KT 9999 2000NW VCFG FEW007 13/13
                        Q1018=
201207030430 METAR LPPR 030430Z 00000KT 9999 2000NW FEW006 13/13 Q1018=
201207030400 METAR LPPR 030400Z 00000KT 9999 0900NW R35/P2000 BCFG FEW006
                        14/14 Q1018=
201207030330 METAR LPPR 030330Z 03002KT 9000 FEW006 14/14 Q1018=
201207030300 METAR LPPR 030300Z 34001KT 9000 FEW004 14/14 Q1018=
201207030230 METAR LPPR 030230Z 33004KT 9999 FEW005 15/14 Q1019=
201207030200 METAR LPPR 030200Z 36002KT 9999 FEW005 15/14 Q1018=
201207030130 METAR LPPR 030130Z 34003KT 320V020 9999 SCT005 15/15 Q1018=
201207030100 METAR LPPR 030100Z VRB02KT 9999 BKN006 15/15 Q1019=
201207030030 METAR LPPR 030030Z 33005KT 9999 SCT006 16/15 Q1019=
201207030000 METAR LPPR 030000Z 33005KT 9999 FEW005 16/15 Q1019=
201207022330 METAR LPPR 022330Z 33005KT 9999 FEW005 16/15 Q1019=
201207022300 METAR LPPR 022300Z 33006KT 9999 FEW005 16/15 Q1019=
201207022230 METAR LPPR 022230Z 32007KT 9999 FEW005 16/15 Q1019=
201207022200 METAR LPPR 022200Z 33008KT 9999 FEW005 16/15 Q1020=
201207022130 METAR LPPR 022130Z 33009KT 9999 FEW007 17/15 Q1020=
201207022100 METAR LPPR 022100Z 33008KT CAVOK 17/15 Q1019=
201207022030 METAR LPPR 022030Z 33009KT CAVOK 17/15 Q1019=
201207022000 METAR LPPR 022000Z 33010KT CAVOK 17/15 Q1019=
201207021930 METAR LPPR 021930Z 33011KT CAVOK 18/15 Q1018=
201207021900 METAR LPPR 021900Z 33011KT CAVOK 18/15 Q1018=
201207021830 METAR LPPR 021830Z 33012KT CAVOK 18/15 Q1018=
201207021800 METAR LPPR 021800Z 33012KT 300V360 CAVOK 19/15 Q1018=
201207021730 METAR LPPR 021730Z 33015KT 300V360 CAVOK 19/14 Q1018=
201207021700 METAR LPPR 021700Z 33013KT 310V010 CAVOK 19/14 Q1019=
201207021630 METAR LPPR 021630Z 33014KT 290V360 CAVOK 19/14 Q1019=
201207021600 METAR LPPR 021600Z 33015KT CAVOK 20/14 Q1019=
201207021530 METAR LPPR 021530Z 33013KT CAVOK 20/13 Q1019=
201207021500 METAR LPPR 021500Z 33012KT CAVOK 20/12 Q1019=
201207021430 METAR LPPR 021430Z 32011KT 280V350 CAVOK 20/13 Q1019=
201207021400 METAR LPPR 021400Z 31011KT 280V340 CAVOK 20/13 Q1019=
201207021330 METAR LPPR 021330Z 31008KT 270V340 CAVOK 21/12 Q1019=
201207021300 METAR LPPR 021300Z 32008KT 280V350 CAVOK 21/13 Q1019=
201207021230 METAR LPPR 021230Z 32009KT 280V360 CAVOK 21/12 Q1020=
201207021200 METAR LPPR 021200Z 32010KT 270V350 CAVOK 20/12 Q1020=
201207021130 METAR LPPR 021130Z 32010KT CAVOK 20/12 Q1020=
201207021100 METAR LPPR 021100Z 30007KT CAVOK 20/12 Q1020=
201207021030 METAR LPPR 021030Z 31006KT 270V350 CAVOK 20/12 Q1020=
201207021000 METAR LPPR 021000Z 29005KT 260V330 CAVOK 19/12 Q1020=
201207020930 METAR LPPR 020930Z VRB04KT CAVOK 19/13 Q1020=
201207020900 METAR LPPR 020900Z 01004KT 280V090 CAVOK 19/13 Q1020=
201207020830 METAR LPPR 020830Z 29003KT 220V020 CAVOK 18/13 Q1020=
201207020800 METAR LPPR 020800Z 36005KT 320V050 CAVOK 17/12 Q1020=
201207020730 METAR LPPR 020730Z VRB02KT CAVOK 16/13 Q1020=
201207020700 METAR LPPR 020700Z VRB01KT CAVOK 15/13 Q1020=
201207020630 METAR LPPR 020630Z VRB02KT CAVOK 13/11 Q1019=
201207020600 METAR LPPR 020600Z VRB03KT CAVOK 13/11 Q1019=
201207020530 METAR LPPR 020530Z 34003KT 300V110 CAVOK 12/11 Q1019=
201207020500 METAR LPPR 020500Z VRB01KT CAVOK 12/10 Q1019=
201207020430 METAR LPPR 020430Z VRB01KT CAVOK 12/11 Q1019=
201207020400 METAR LPPR 020400Z VRB02KT CAVOK 12/10 Q1019=
201207020330 METAR LPPR 020330Z VRB02KT CAVOK 11/10 Q1020=
201207020300 METAR LPPR 020300Z 00000KT CAVOK 11/10 Q1020=
201207020230 METAR LPPR 020230Z VRB01KT CAVOK 12/11 Q1020=
201207020200 METAR LPPR 020200Z 03002KT CAVOK 12/11 Q1020=
201207020130 METAR LPPR 020130Z 33002KT CAVOK 12/10 Q1020=
201207020100 METAR LPPR 020100Z 00000KT CAVOK 12/10 Q1020=
201207020030 METAR LPPR 020030Z 01003KT CAVOK 14/11 Q1020=
201207020000 METAR LPPR 020000Z 02003KT CAVOK 13/11 Q1021=
201207012330 METAR LPPR 012330Z 35006KT CAVOK 14/11 Q1021=
201207012300 METAR LPPR 012300Z 33004KT CAVOK 14/11 Q1021=
201207012230 METAR LPPR 012230Z 34005KT CAVOK 15/11 Q1021=
201207012200 METAR LPPR 012200Z 01005KT CAVOK 14/11 Q1021=
201207012130 METAR LPPR 012130Z 34008KT CAVOK 15/11 Q1021=
201207012100 METAR LPPR 012100Z 33007KT CAVOK 15/11 Q1021=
201207012030 METAR LPPR 012030Z 34010KT CAVOK 16/11 Q1021=
201207012000 METAR LPPR 012000Z 34011KT CAVOK 16/11 Q1021=
201207011930 METAR LPPR 011930Z 34012KT CAVOK 17/11 Q1021=
201207011900 METAR LPPR 011900Z 33012KT CAVOK 17/11 Q1021=
201207011830 METAR LPPR 011830Z 32011KT CAVOK 18/11 Q1021=
201207011800 METAR LPPR 011800Z 33012KT CAVOK 18/12 Q1021=
201207011730 METAR LPPR 011730Z 33015KT CAVOK 18/11 Q1021=
201207011700 METAR LPPR 011700Z 32016G27KT 290V350 CAVOK 18/11 Q1022=
201207011630 METAR LPPR 011630Z 33016KT 300V360 CAVOK 18/11 Q1022=
201207011600 METAR LPPR 011600Z 33016KT 300V360 CAVOK 18/12 Q1022=
201207011530 METAR LPPR 011530Z 33016G26KT 300V360 CAVOK 18/11 Q1022=
201207011500 METAR LPPR 011500Z 33016KT 300V360 CAVOK 18/11 Q1022=
201207011430 METAR LPPR 011430Z 32012KT 280V340 CAVOK 19/08 Q1023=
201207011400 METAR LPPR 011400Z 33012KT 300V360 CAVOK 19/09 Q1023=
201207011330 METAR LPPR 011330Z 32013KT 290V350 CAVOK 20/08 Q1023=
201207011300 METAR LPPR 011300Z 33013KT 290V350 CAVOK 19/09 Q1023=
201207011230 METAR LPPR 011230Z 33013KT 290V350 CAVOK 19/10 Q1023=
201207011200 METAR LPPR 011200Z 33014KT CAVOK 19/10 Q1023=
201207011130 METAR LPPR 011130Z 32011KT 280V350 9999 FEW016 18/10 Q1024=
201207011100 METAR LPPR 011100Z 32010KT 260V350 CAVOK 18/11 Q1024=
201207011030 METAR LPPR 011030Z 30008KT 270V340 CAVOK 18/10 Q1023=
201207011000 METAR LPPR 011000Z 01006KT 320V060 CAVOK 19/09 Q1023=
201207010930 METAR LPPR 010930Z 35009KT 320V030 CAVOK 18/08 Q1023=
201207010900 METAR LPPR 010900Z 02006KT 340V050 CAVOK 17/09 Q1023=
201207010830 METAR LPPR 010830Z 02006KT 340V070 CAVOK 17/10 Q1023=
201207010800 METAR LPPR 010800Z 01008KT CAVOK 16/10 Q1023=
201207010730 METAR LPPR 010730Z 01007KT CAVOK 15/10 Q1023=
201207010700 METAR LPPR 010700Z 36005KT CAVOK 14/11 Q1023=
201207010630 METAR LPPR 010630Z 36004KT CAVOK 13/11 Q1023=
201207010600 METAR LPPR 010600Z 36005KT CAVOK 12/10 Q1023=
201207010530 METAR LPPR 010530Z 35005KT CAVOK 11/10 Q1023=
201207010500 METAR LPPR 010500Z 36005KT CAVOK 11/09 Q1023=
201207010430 METAR LPPR 010430Z 36004KT CAVOK 11/10 Q1022=
201207010400 METAR LPPR 010400Z 35003KT CAVOK 10/09 Q1022=
201207010330 METAR LPPR 010330Z 34004KT CAVOK 12/10 Q1022=
201207010300 METAR LPPR 010300Z 01002KT CAVOK 12/10 Q1022=
201207010230 METAR LPPR 010230Z 01003KT CAVOK 11/10 Q1022=
201207010200 METAR LPPR 010200Z 34004KT CAVOK 12/10 Q1022=
201207010130 METAR LPPR 010130Z VRB02KT CAVOK 12/10 Q1022=
201207010100 METAR LPPR 010100Z 35004KT 300V010 CAVOK 13/10 Q1022=
201207010030 METAR LPPR 010030Z 36003KT 330V030 CAVOK 13/11 Q1023=
201207010000 METAR LPPR 010000Z VRB02KT CAVOK 14/11 Q1023=

</pre>

</body>
</html>
