##########################################################
# Query made at 11/07/2014 14:35:02 UTC
# Time interval: from 07/01/2008 00:00  to 07/31/2008 23:59  UTC
##########################################################

##########################################################
# LPPR, Porto / Pedras Rubras (Portugal)
# WMO index: 08545
# Latitude 41-14N. Longitude 008-41W. Altitude 69 m.
##########################################################

###################################
#  METAR/SPECI from LPPR
###################################
200807312330 METAR LPPR 312330Z 00000KT 9999 FEW012 16/16 Q1022=
200807312300 METAR LPPR 312300Z 00000KT 9999 FEW012 16/16 Q1022=
200807312230 METAR LPPR 312230Z 00000KT 9999 FEW012 17/16 Q1022=
200807312200 METAR LPPR 312200Z 00000KT 9999 SCT012 17/16 Q1022=
200807312130 METAR LPPR 312130Z 00000KT 9999 SCT012 18/17 Q1022=
200807312100 METAR LPPR 312100Z 00000KT 9999 FEW015 SCT080 18/17 Q1022=
200807312030 METAR LPPR 312030Z VRB02KT 9999 FEW015 SCT080 18/17 Q1021=
200807312000 METAR LPPR 312000Z 33004KT 290V360 9999 FEW015 SCT080 19/17
                        Q1020=
200807311930 METAR LPPR 311930Z 33005KT 9999 SCT015 BKN250 20/17 Q1021=
200807311900 METAR LPPR 311900Z 32008KT 9999 SCT015 BKN250 20/18 Q1020=
200807311830 METAR LPPR 311830Z 32008KT 290V080 9999 FEW008 SCT015 BKN250
                        20/18 Q1020=
200807311800 METAR LPPR 311800Z 32008KT 9999 FEW008 SCT015 BKN250 21/18
                        Q1020=
200807311730 METAR LPPR 311730Z 32009KT 290V350 9999 FEW008 SCT015 BKN250
                        21/18 Q1020=
200807311700 METAR LPPR 311700Z 32010KT 290V350 9999 SCT015 BKN025 BKN080
                        20/18 Q1020=
200807311630 METAR LPPR 311630Z 32010KT 9999 SCT015 BKN025 21/19 Q1019=
200807311600 METAR LPPR 311600Z 34004KT 300V360 9999 FEW008 SCT015 BKN020
                        20/19 Q1019=
200807311530 METAR LPPR 311530Z 32007KT 3000 -DZ BR SCT002 BKN005 19/19
                        Q1019=
200807311500 METAR LPPR 311500Z 32009KT 2000 -RADZ BR BKN002 BKN005 19/19
                        Q1019 RERA=
200807311430 METAR LPPR 311430Z 28008KT 250V330 4000 RA BR BKN002 BKN005
                        20/19 Q1019=
200807311400 METAR LPPR 311400Z 20014KT 3500 -DZ BR BKN004 BKN009 21/21
                        Q1018=
200807311330 METAR LPPR 311330Z 20015KT 4000 -DZ BR BKN005 BKN009 22/21
                        Q1018=
200807311300 METAR LPPR 311300Z 19018KT 8000 SCT005 BKN015 22/20 Q1018=
200807311230 METAR LPPR 311230Z 19017KT 8000 SCT007 BKN015 22/20 Q1018=
200807311200 METAR LPPR 311200Z 19017KT 8000 SCT007 BKN012 22/20 Q1018=
200807311130 METAR LPPR 311130Z 19016KT 8000 SCT005 BKN008 22/20 Q1018=
200807311100 METAR LPPR 311100Z 19015KT 6000 SCT003 BKN007 21/20 Q1018=
200807311030 METAR LPPR 311030Z 18015KT 8000 SCT004 BKN007 21/20 Q1018=
200807311000 METAR LPPR 311000Z 18014KT 6000 SCT002 BKN005 20/20 Q1018=
200807310930 METAR LPPR 310930Z 18015KT 4000 -DZ BR SCT004 BKN007 21/20
                        Q1018=
200807310900 METAR LPPR 310900Z 18014KT 6000 SCT005 BKN009 20/20 Q1018=
200807310830 METAR LPPR 310830Z 18013KT 4000 -DZ BR BKN005 BKN008 20/20
                        Q1018=
200807310800 METAR LPPR 310800Z 18012KT 4000 -DZ BR BKN005 BKN008 20/20
                        Q1018=
200807310730 METAR LPPR 310730Z 18013KT 7000 SCT005 BKN008 BKN013 20/19
                        Q1018=
200807310700 METAR LPPR 310700Z 18012KT 7000 SCT006 BKN008 BKN013 20/19
                        Q1018=
200807310630 METAR LPPR 310630Z 18012KT 6000 BKN005 BKN008 19/19 Q1017=
200807310600 METAR LPPR 310600Z 18011KT 5000 -DZ BR BKN005 BKN008 20/19
                        Q1017=
200807310530 METAR LPPR 310530Z 17010KT 7000 -DZ BKN007 BKN013 20/19 Q1017=
200807310500 METAR LPPR 310500Z 17011KT 9999 BKN007 BKN013 20/18 Q1017=
200807310430 METAR LPPR 310430Z 17010KT 9999 BKN007 BKN015 20/19 Q1017=
200807310400 METAR LPPR 310400Z 18010KT 9999 BKN007 BKN015 20/19 Q1017=
200807310330 METAR LPPR 310330Z 18008KT 9999 BKN007 BKN013 20/19 Q1017=
200807310300 METAR LPPR 310300Z 17009KT 9999 SCT007 BKN017 20/19 Q1017=
200807310230 METAR LPPR 310230Z 17009KT 9999 SCT007 BKN017 20/19 Q1017=
200807310200 METAR LPPR 310200Z 17010KT 9999 BKN007 BKN017 20/19 Q1017=
200807310130 METAR LPPR 310130Z 17008KT 9999 SCT007 BKN020 20/19 Q1018=
200807310100 METAR LPPR 310100Z 19009KT 9999 BKN006 BKN030 20/19 Q1018=
200807310030 METAR LPPR 310030Z 19007KT 9999 SCT004 BKN007 20/19 Q1018=
200807310000 METAR LPPR 310000Z 17007KT 9999 BKN006 20/19 Q1018=
200807302330 METAR LPPR 302330Z 18005KT 9999 FEW006 SCT250 20/19 Q1018=
200807302300 METAR LPPR 302300Z 19007KT 9999 FEW006 SCT250 20/19 Q1018=
200807302230 METAR LPPR 302230Z 19007KT 9999 FEW006 SCT250 20/19 Q1019=
200807302200 METAR LPPR 302200Z 22004KT 9999 FEW005 SCT250 20/19 Q1019=
200807302130 METAR LPPR 302130Z 22004KT 9999 FEW005 SCT250 20/19 Q1019=
200807302100 METAR LPPR 302100Z 21004KT 180V240 9999 FEW012 SCT250 20/19
                        Q1019=
200807302030 METAR LPPR 302030Z 22004KT 150V250 9999 FEW012 SCT250 20/19
                        Q1018=
200807302000 METAR LPPR 302000Z 22004KT 190V250 9999 FEW012 SCT250 20/19
                        Q1019=
200807301930 METAR LPPR 301930Z 23006KT 9999 FEW012 SCT250 21/19 Q1019=
200807301900 METAR LPPR 301900Z 22006KT 200V260 9999 FEW009 22/19 Q1019=
200807301830 METAR LPPR 301830Z 23007KT 200V260 9999 FEW012 22/19 Q1018=
200807301800 METAR LPPR 301800Z 23007KT 200V260 9999 FEW012 23/19 Q1018=
200807301730 METAR LPPR 301730Z 24008KT 210V270 9999 FEW020 23/19 Q1018=
200807301700 METAR LPPR 301700Z 23009KT 9999 FEW020 23/18 Q1018=
200807301630 METAR LPPR 301630Z 23007KT 190V270 9999 FEW020 24/18 Q1018=
200807301600 METAR LPPR 301600Z 24008KT 210V280 9999 FEW020 SCT250 24/18
                        Q1018=
200807301530 METAR LPPR 301530Z 22007KT 180V250 9999 FEW020 SCT250 24/18
                        Q1018=
200807301500 METAR LPPR 301500Z 22008KT 190V250 9999 FEW020 SCT250 24/18
                        Q1018=
200807301430 METAR LPPR 301430Z 23006KT 180V260 9999 FEW020 SCT250 24/17
                        Q1018=
200807301400 METAR LPPR 301400Z 24007KT 190V290 9999 SCT020 SCT080 25/17
                        Q1019=
200807301330 METAR LPPR 301330Z 23007KT 190V280 9999 FEW020 SCT030 24/17
                        Q1018=
200807301300 METAR LPPR 301300Z 26008KT 230V290 9999 SCT020 SCT030 24/18
                        Q1018=
200807301230 METAR LPPR 301230Z VRB04KT 9999 FEW020 SCT030 25/17 Q1018=
200807301200 METAR LPPR 301200Z 15005KT 110V180 9999 FEW020 BKN030 24/17
                        Q1018=
200807301130 METAR LPPR 301130Z VRB03KT 9999 SCT020 BKN030 23/17 Q1018=
200807301100 METAR LPPR 301100Z VRB03KT 9999 SCT020 BKN030 23/17 Q1018=
200807301030 METAR LPPR 301030Z VRB03KT 9999 OVC020 21/17 Q1018=
200807301000 METAR LPPR 301000Z 13004KT 100V180 9999 OVC020 21/16 Q1018=
200807300930 METAR LPPR 300930Z 11005KT 090V150 9999 OVC020 20/16 Q1018=
200807300900 METAR LPPR 300900Z 11006KT 9999 OVC020 19/16 Q1018=
200807300830 METAR LPPR 300830Z 11005KT 080V150 9999 OVC020 19/15 Q1018=
200807300800 METAR LPPR 300800Z 11005KT 080V140 9999 SCT017 BKN023 18/15
                        Q1018=
200807300730 METAR LPPR 300730Z 11005KT 9999 SCT015 BKN020 18/15 Q1018=
200807300700 METAR LPPR 300700Z 11006KT 9999 SCT015 BKN020 17/15 Q1017=
200807300630 METAR LPPR 300630Z 12006KT 9999 SCT013 BKN020 17/15 Q1017=
200807300600 METAR LPPR 300600Z 11006KT 9999 SCT012 BKN017 17/15 Q1017=
200807300530 METAR LPPR 300530Z 10005KT 9999 BKN012 17/15 Q1017=
200807300500 METAR LPPR 300500Z 08005KT 050V110 9999 BKN011 17/15 Q1017=
200807300430 METAR LPPR 300430Z 11004KT 9999 SCT010 BKN013 17/15 Q1017=
200807300400 METAR LPPR 300400Z 00000KT 9999 BKN013 17/15 Q1017=
200807300330 METAR LPPR 300330Z 12004KT 9999 BKN015 17/15 Q1016=
200807300300 METAR LPPR 300300Z 11005KT 9999 BKN013 SCT080 17/15 Q1017=
200807300230 METAR LPPR 300230Z 11005KT 9999 SCT013 SCT080 16/15 Q1017=
200807300200 METAR LPPR 300200Z VRB03KT CAVOK 16/15 Q1017=
200807300130 METAR LPPR 300130Z VRB03KT CAVOK 16/15 Q1017=
200807300100 METAR LPPR 300100Z 00000KT CAVOK 16/15 Q1017=
200807300030 METAR LPPR 300030Z 00000KT CAVOK 16/15 Q1017=
200807300000 METAR LPPR 300000Z 10002KT CAVOK 16/15 Q1017=
200807292330 METAR LPPR 292330Z 00000KT CAVOK 16/15 Q1018=
200807292300 METAR LPPR 292300Z 00000KT CAVOK 16/15 Q1018=
200807292230 METAR LPPR 292230Z 00000KT CAVOK 16/15 Q1018=
200807292200 METAR LPPR 292200Z 00000KT CAVOK 17/15 Q1018=
200807292130 METAR LPPR 292130Z 00000KT CAVOK 17/15 Q1018=
200807292100 METAR LPPR 292100Z 00000KT CAVOK 17/15 Q1018=
200807292030 METAR LPPR 292030Z 35002KT CAVOK 18/15 Q1017=
200807292000 METAR LPPR 292000Z 32005G18KT 270V360 CAVOK 18/15 Q1017=
200807291930 METAR LPPR 291930Z 33006KT CAVOK 19/15 Q1017=
200807291900 METAR LPPR 291900Z 32008KT CAVOK 19/15 Q1017=
200807291830 METAR LPPR 291830Z 32009KT 290V350 CAVOK 21/15 Q1017=
200807291800 METAR LPPR 291800Z 31010KT CAVOK 21/15 Q1017=
200807291730 METAR LPPR 291730Z 31010KT CAVOK 21/15 Q1017=
200807291700 METAR LPPR 291700Z 32011KT CAVOK 21/15 Q1017=
200807291630 METAR LPPR 291630Z 32011KT 290V350 9999 FEW009 22/16 Q1017=
200807291600 METAR LPPR 291600Z 31010KT 270V010 CAVOK 22/16 Q1017=
200807291530 METAR LPPR 291530Z 31010KT 270V350 9999 FEW020 22/15 Q1017=
200807291500 METAR LPPR 291500Z 31010KT 270V340 9999 FEW017 22/16 Q1017=
200807291430 METAR LPPR 291430Z 32010KT 290V350 9999 FEW017 22/16 Q1017=
200807291400 METAR LPPR 291400Z 29010KT 9999 FEW015 22/15 Q1017=
200807291330 METAR LPPR 291330Z 29009KT 270V330 9999 FEW015 22/15 Q1017=
200807291300 METAR LPPR 291300Z 29009KT 260V340 9999 FEW015 22/15 Q1017=
200807291230 METAR LPPR 291230Z 32008KT 270V340 9999 FEW015 22/14 Q1017=
200807291200 METAR LPPR 291200Z 30009KT 260V340 9999 FEW015 21/15 Q1018=
200807291130 METAR LPPR 291130Z 31007KT 250V340 9999 FEW013 22/15 Q1018=
200807291100 METAR LPPR 291100Z 29007G17KT 250V350 9999 FEW013 21/15 Q1018=
200807291030 METAR LPPR 291030Z 33005KT 260V020 9999 FEW013 21/13 Q1018=
200807291000 METAR LPPR 291000Z VRB03KT 9999 FEW012 21/15 Q1018=
200807290930 METAR LPPR 290930Z 04004KT 360V080 9999 FEW012 20/14 Q1018=
200807290900 METAR LPPR 290900Z VRB03KT 9999 FEW012 19/15 Q1018=
200807290830 METAR LPPR 290830Z VRB03KT 9999 FEW009 18/15 Q1018=
200807290800 METAR LPPR 290800Z VRB03KT 9999 FEW011 18/15 Q1018=
200807290730 METAR LPPR 290730Z 00000KT 9999 FEW011 17/16 Q1018=
200807290700 METAR LPPR 290700Z 00000KT 9999 FEW011 16/15 Q1018=
200807290630 METAR LPPR 290630Z VRB03KT 9999 FEW011 15/15 Q1018=
200807290600 METAR LPPR 290600Z VRB02KT CAVOK 13/13 Q1018=
200807290530 METAR LPPR 290530Z 00000KT CAVOK 13/13 Q1018=
200807290500 METAR LPPR 290500Z 00000KT CAVOK 13/13 Q1017=
200807290430 METAR LPPR 290430Z 00000KT CAVOK 13/13 Q1017=
200807290400 METAR LPPR 290400Z 00000KT CAVOK 13/13 Q1017=
200807290330 METAR LPPR 290330Z 00000KT CAVOK 14/13 Q1017=
200807290300 METAR LPPR 290300Z 00000KT CAVOK 14/14 Q1018=
200807290230 METAR LPPR 290230Z 00000KT CAVOK 15/14 Q1018=
200807290200 METAR LPPR 290200Z 00000KT CAVOK 15/15 Q1018=
200807290130 METAR LPPR 290130Z 00000KT CAVOK 15/14 Q1018=
200807290100 METAR LPPR 290100Z 00000KT 9999 FEW015 BKN250 16/15 Q1018=
200807290030 METAR LPPR 290030Z VRB03KT 9999 FEW015 BKN250 16/15 Q1018=
200807290000 METAR LPPR 290000Z VRB03KT 9999 FEW015 BKN250 16/15 Q1019=
200807282330 METAR LPPR 282330Z 35003KT 9999 FEW015 BKN250 16/15 Q1019=
200807282300 METAR LPPR 282300Z 33005KT 9999 FEW015 BKN250 17/15 Q1019=
200807282230 METAR LPPR 282230Z 35003KT 9999 FEW015 BKN250 17/15 Q1019=
200807282200 METAR LPPR 282200Z 32004KT 9999 FEW009 BKN250 17/16 Q1019=
200807282130 METAR LPPR 282130Z 33003KT 9999 FEW009 BKN250 17/16 Q1019=
200807282100 METAR LPPR 282100Z 33004KT 9999 FEW009 BKN250 18/16 Q1019=
200807282030 METAR LPPR 282030Z 32004KT 290V360 9999 FEW009 BKN250 18/16
                        Q1019=
200807282000 METAR LPPR 282000Z 32006KT 9999 FEW009 BKN250 19/16 Q1019=
200807281930 METAR LPPR 281930Z 32007KT 9999 FEW008 BKN250 19/16 Q1019=
200807281900 METAR LPPR 281900Z 33008KT 300V010 9999 FEW008 BKN250 20/16
                        Q1019=
200807281830 METAR LPPR 281830Z 32009KT 280V350 9999 FEW013 BKN250 20/16
                        Q1019=
200807281800 METAR LPPR 281800Z 33009KT 9999 FEW013 BKN250 20/16 Q1019=
200807281730 METAR LPPR 281730Z 31009KT 270V340 9999 FEW015 BKN250 21/16
                        Q1019=
200807281700 METAR LPPR 281700Z 32010KT 280V350 9999 FEW015 BKN250 22/15
                        Q1019=
200807281630 METAR LPPR 281630Z 32010KT 290V350 9999 FEW015 BKN250 21/16
                        Q1019=
200807281600 METAR LPPR 281600Z 32009KT 260V350 9999 SCT015 BKN250 21/16
                        Q1019=
200807281530 METAR LPPR 281530Z 30010KT 260V340 9999 SCT017 SCT250 22/15
                        Q1019=
200807281500 METAR LPPR 281500Z 29009KT 230V360 9999 SCT017 SCT250 22/16
                        Q1019=
200807281430 METAR LPPR 281430Z 28009KT 250V320 9999 SCT017 22/16 Q1019=
200807281400 METAR LPPR 281400Z 29009KT 260V330 9999 BKN017 22/16 Q1019=
200807281330 METAR LPPR 281330Z 28008KT 220V340 9999 BKN015 22/16 Q1019=
200807281300 METAR LPPR 281300Z 27008KT 220V310 9999 BKN015 22/16 Q1019=
200807281230 METAR LPPR 281230Z 29007KT 250V350 9999 BKN015 22/16 Q1020=
200807281200 METAR LPPR 281200Z 28006KT 230V340 9999 BKN015 22/16 Q1020=
200807281130 METAR LPPR 281130Z 29007G18KT 250V020 9999 BKN015 22/16 Q1020=
200807281100 METAR LPPR 281100Z 29007KT 230V340 9999 BKN017 22/17 Q1020=
200807281030 METAR LPPR 281030Z 27007KT 230V330 9999 BKN017 21/17 Q1019=
200807281000 METAR LPPR 281000Z 26006KT 190V300 9999 BKN017 21/17 Q1019=
200807280930 METAR LPPR 280930Z 25004G16KT 210V310 9999 BKN017 21/17 Q1019=
200807280900 METAR LPPR 280900Z VRB03KT 9999 BKN017 20/16 Q1019=
200807280830 METAR LPPR 280830Z VRB03KT 9999 FEW009 BKN017 20/16 Q1019=
200807280800 METAR LPPR 280800Z VRB02KT 9999 FEW009 SCT015 21/17 Q1018=
200807280730 METAR LPPR 280730Z 00000KT 9999 FEW008 SCT015 20/17 Q1018=
200807280700 METAR LPPR 280700Z 13003KT 9999 SCT015 18/18 Q1018=
200807280630 METAR LPPR 280630Z 00000KT 9999 FEW007 SCT017 17/17 Q1018=
200807280600 METAR LPPR 280600Z 00000KT 9999 FEW005 SCT015 17/17 Q1018=
200807280530 METAR LPPR 280530Z 00000KT 9999 SCT006 BKN020 17/17 Q1018=
200807280500 METAR LPPR 280500Z 00000KT 9999 FEW006 SCT009 BKN020 17/17
                        Q1018=
200807280430 METAR LPPR 280430Z 00000KT 9999 FEW005 SCT009 BKN015 17/17
                        Q1018=
200807280400 METAR LPPR 280400Z 00000KT 9999 SCT005 BKN015 17/17 Q1018=
200807280330 METAR LPPR 280330Z 00000KT 9999 FEW008 SCT015 17/17 Q1018=
200807280300 METAR LPPR 280300Z 33005KT 9999 SCT015 SCT020 18/17 Q1018=
200807280230 METAR LPPR 280230Z 32005KT 9999 SCT015 BKN020 18/17 Q1018=
200807280200 METAR LPPR 280200Z 33006KT 9999 FEW009 SCT015 BKN020 18/17
                        Q1018=
200807280130 METAR LPPR 280130Z 32006KT 9999 SCT015 BKN020 18/17 Q1018=
200807280100 METAR LPPR 280100Z 32007KT 9999 FEW008 SCT012 BKN016 19/18
                        Q1018=
200807280030 METAR LPPR 280030Z 33004KT 9999 SCT010 BKN016 19/17 Q1018=
200807280000 METAR LPPR 280000Z 32006KT 9999 FEW007 SCT010 BKN015 19/18
                        Q1018=
200807272330 METAR LPPR 272330Z 32006KT 280V340 7000 -DZ BR SCT007 SCT009
                        BKN012 19/18 Q1018=
200807272300 METAR LPPR 272300Z 33006KT 3000 -DZ BR SCT003 BKN005 19/18
                        Q1018=
200807272230 METAR LPPR 272230Z VRB03KT 5000 -RADZ BR SCT003 SCT005 BKN007
                        19/19 Q1018=
200807272200 METAR LPPR 272200Z 33005KT 9999 SCT003 SCT008 BKN013 19/19
                        Q1018=
200807272130 METAR LPPR 272130Z 33007KT 7000 SCT002 SCT006 BKN015 19/19
                        Q1018=
200807272100 METAR LPPR 272100Z 32008KT 2000 -RADZ BR BKN001 BKN003 19/19
                        Q1018=
200807272030 METAR LPPR 272030Z 21007KT 2000 RADZ BR SCT001 SCT002 BKN006
                        20/20 Q1017=
200807272000 METAR LPPR 272000Z 20007KT 170V230 2500 RADZ BR SCT002 SCT006
                        BKN010 20/20 Q1017=
200807271930 METAR LPPR 271930Z 20006KT 170V230 3000 RADZ BR SCT002 SCT009
                        BKN012 20/20 Q1017=
200807271900 METAR LPPR 271900Z 21009KT 3000 -DZ BR FEW002 BKN012 BKN025
                        20/19 Q1017=
200807271830 METAR LPPR 271830Z 21009KT 3000 -DZ BR SCT002 SCT012 BKN025
                        21/20 Q1017=
200807271800 METAR LPPR 271800Z 20007KT 170V230 5000 -DZ BR SCT006 SCT012
                        BKN025 22/20 Q1017=
200807271730 METAR LPPR 271730Z 19008KT 7000 FEW008 SCT015 BKN025 21/20
                        Q1017=
200807271700 METAR LPPR 271700Z 22009KT 200V270 3000NW -DZ BR SCT004 BKN010
                        BKN025 21/20 Q1017=
200807271630 METAR LPPR 271630Z 21008KT 180V240 3000W BR VCSH SCT007 BKN010
                        BKN025 22/20 Q1017=
200807271600 METAR LPPR 271600Z 20010KT 7000 BKN015 BKN025 23/20 Q1017=
200807271530 METAR LPPR 271530Z 20010KT 9999 SCT015 SCT070 23/19 Q1018=
200807271500 METAR LPPR 271500Z 20010KT 180V250 9999 BKN015 24/19 Q1018=
200807271430 METAR LPPR 271430Z 20010KT 9999 SCT015 SCT070 24/19 Q1018=
200807271400 METAR LPPR 271400Z 21010KT 9999 SCT015 SCT070 24/19 Q1018=
200807271330 METAR LPPR 271330Z 20011KT 180V240 9999 SCT015 BKN025 23/19
                        Q1018=
200807271300 METAR LPPR 271300Z 21011KT 9999 SCT015 BKN030 BKN070 23/17
                        Q1018=
200807271230 METAR LPPR 271230Z 20008KT 9999 SCT012 BKN025 BKN070 22/16
                        Q1018=
200807271200 METAR LPPR 271200Z 20008KT 170V230 9999 SCT012 BKN025 BKN070
                        22/15 Q1018=
200807271130 METAR LPPR 271130Z 19008KT 160V220 9999 SCT015 BKN030 BKN070
                        22/16 Q1018=
200807271100 METAR LPPR 271100Z 21006KT 160V230 9999 SCT015 BKN030 BKN070
                        22/16 Q1018=
200807271030 METAR LPPR 271030Z 19006KT 160V230 9999 SCT015 BKN030 BKN070
                        21/16 Q1018=
200807271000 METAR LPPR 271000Z 20006KT 9999 SCT015 BKN030 BKN070 20/16
                        Q1018=
200807270930 METAR LPPR 270930Z 19007KT 140V220 9999 SCT015 BKN030 BKN070
                        21/16 Q1018=
200807270900 METAR LPPR 270900Z 18006KT 130V220 9999 FEW014 BKN018 BKN070
                        21/16 Q1018=
200807270830 METAR LPPR 270830Z 16005KT 100V210 9999 BKN020 BKN070 20/16
                        Q1018=
200807270800 METAR LPPR 270800Z 14004KT 9999 BKN020 SCT070 19/16 Q1018=
200807270730 METAR LPPR 270730Z 12006KT 9999 FEW015 BKN020 18/16 Q1018=
200807270700 METAR LPPR 270700Z 11004KT 080V140 9999 FEW015 BKN030 17/16
                        Q1018=
200807270630 METAR LPPR 270630Z VRB02KT 9999 FEW015 BKN030 17/16 Q1018=
200807270600 METAR LPPR 270600Z VRB02KT 9999 FEW015 BKN030 16/15 Q1017=
200807270530 METAR LPPR 270530Z 00000KT 9999 BKN030 16/15 Q1017=
200807270500 METAR LPPR 270500Z 11004KT 9999 BKN040 17/15 Q1017=
200807270430 METAR LPPR 270430Z 11005KT 9999 BKN030 17/15 Q1017=
200807270400 METAR LPPR 270400Z 10003KT 9999 BKN030 16/15 Q1017=
200807270330 METAR LPPR 270330Z 00000KT 9999 FEW040 15/14 Q1018=
200807270300 METAR LPPR 270300Z 00000KT 9999 FEW009 15/15 Q1018=
200807270230 METAR LPPR 270230Z 00000KT 9999 FEW009 15/15 Q1018=
200807270200 METAR LPPR 270200Z 00000KT 9999 FEW009 15/15 Q1018=
200807270130 METAR LPPR 270130Z 00000KT 9999 FEW009 16/15 Q1018=
200807270100 METAR LPPR 270100Z 00000KT CAVOK 16/15 Q1018=
200807270030 METAR LPPR 270030Z 00000KT CAVOK 16/15 Q1018=
200807270000 METAR LPPR 270000Z 00000KT CAVOK 16/16 Q1018=
200807262330 METAR LPPR 262330Z 00000KT CAVOK 16/15 Q1018=
200807262300 METAR LPPR 262300Z 00000KT CAVOK 17/15 Q1018=
200807262230 METAR LPPR 262230Z 00000KT CAVOK 17/16 Q1018=
200807262200 METAR LPPR 262200Z 00000KT 9999 FEW040 17/16 Q1018=
200807262130 METAR LPPR 262130Z 00000KT 9999 FEW040 18/16 Q1018=
200807262100 METAR LPPR 262100Z 33004KT 9999 FEW040 18/15 Q1018=
200807262030 METAR LPPR 262030Z 32004KT 9999 FEW040 19/15 Q1018=
200807262000 METAR LPPR 262000Z 31005KT 9999 FEW012 19/16 Q1017=
200807261930 METAR LPPR 261930Z 30006KT 9999 FEW012 20/16 Q1017=
200807261900 METAR LPPR 261900Z 33006KT 9999 FEW012 21/16 Q1017=
200807261830 METAR LPPR 261830Z 33009KT 9999 FEW012 21/16 Q1017=
200807261800 METAR LPPR 261800Z 31008KT 280V340 9999 FEW012 22/16 Q1017=
200807261730 METAR LPPR 261730Z 32008KT 9999 FEW012 22/16 Q1017=
200807261700 METAR LPPR 261700Z 31007KT 270V350 9999 FEW012 23/17 Q1017=
200807261630 METAR LPPR 261630Z 31008KT 260V340 9999 FEW012 23/16 Q1017=
200807261600 METAR LPPR 261600Z 29008KT 250V320 9999 FEW012 23/16 Q1017=
200807261530 METAR LPPR 261530Z 29007KT 250V350 9999 FEW012 23/17 Q1017=
200807261500 METAR LPPR 261500Z 31008KT 260V330 9999 FEW012 24/17 Q1017=
200807261430 METAR LPPR 261430Z 32006KT 260V360 9999 FEW012 24/17 Q1017=
200807261400 METAR LPPR 261400Z 28006KT 240V340 9999 FEW012 24/17 Q1017=
200807261330 METAR LPPR 261330Z 29007KT 260V010 9999 FEW012 23/18 Q1017=
200807261300 METAR LPPR 261300Z 29007G17KT 260V330 9999 SCT012 23/18 Q1017=
200807261230 METAR LPPR 261230Z 30007KT 250V340 9999 SCT011 SCT035 22/19
                        Q1018=
200807261200 METAR LPPR 261200Z 29007KT 260V330 9999 SCT010 SCT030 22/19
                        Q1018=
200807261130 METAR LPPR 261130Z 29007G19KT 240V350 9999 SCT010 SCT030
                        22/19 Q1017=
200807261100 METAR LPPR 261100Z 28006KT 240V330 9999 SCT010 BKN030 21/18
                        Q1017=
200807261030 METAR LPPR 261030Z VRB03KT 9999 FEW008 SCT015 BKN030 22/18
                        Q1017=
200807261000 METAR LPPR 261000Z VRB03KT 5000 BR SCT005 SCT015 BKN030 21/18
                        Q1017=
200807260930 METAR LPPR 260930Z 29004KT 240V330 3000NE BR SCT003 SCT015
                        BKN030 20/19 Q1017=
200807260900 METAR LPPR 260900Z VRB03KT 4000 BR SCT003 SCT015 BKN030 20/19
                        Q1017=
200807260830 METAR LPPR 260830Z 00000KT 3000 BR SCT003 SCT015 BKN030 20/19
                        Q1017=
200807260800 METAR LPPR 260800Z VRB03KT 2000 BR SCT002 SCT015 BKN030 19/19
                        Q1017=
200807260730 METAR LPPR 260730Z VRB02KT 3000 SCT002 SCT015 BKN035 19/19
                        Q1016=
200807260700 METAR LPPR 260700Z 00000KT 2000NW BR VCFG SCT005 SCT015 BKN035
                        19/19 Q1016=
200807260630 METAR LPPR 260630Z VRB03KT 0800 R17/P1500 R35/1400VP1500
                        BCFG SCT001 SCT003 19/19 Q1016=
200807260600 METAR LPPR 260600Z VRB02KT 1000 R17/P1500 R35/1000VP1500
                        BCFG SCT002 SCT005 19/19 Q1016=
200807260530 METAR LPPR 260530Z 00000KT 0800 R17/1300VP1500 R35/0700N
                        BCFG SCT002 BKN005 18/18 Q1016=
200807260500 METAR LPPR 260500Z 00000KT 3500W BR VCFG FEW008 SCT040 18/18
                        Q1015=
200807260430 METAR LPPR 260430Z 00000KT 5000 BR FEW008 SCT040 19/19 Q1015=
200807260400 METAR LPPR 260400Z 00000KT 5000 BR SCT007 BKN030 19/19 Q1015=
200807260330 METAR LPPR 260330Z 00000KT 5000 BR FEW004 SCT007 BKN030 19/19
                        Q1015=
200807260300 METAR LPPR 260300Z 00000KT 4000 BR SCT002 BKN005 19/19 Q1015=
200807260230 METAR LPPR 260230Z 00000KT 3000 BR SCT001 BKN004 19/19 Q1015=
200807260200 METAR LPPR 260200Z 00000KT 2000 BR BKN001 BKN003 19/19 Q1015=
200807260130 METAR LPPR 260130Z 00000KT 4000 BR SCT003 BKN006 19/19 Q1016=
200807260100 METAR LPPR 260100Z VRB02KT 4000 BR SCT003 BKN006 19/19 Q1016=
200807260030 METAR LPPR 260030Z VRB02KT 4000 BR SCT003 BKN006 20/20 Q1016=
200807260000 METAR LPPR 260000Z VRB02KT 4000 BR SCT002 BKN005 20/20 Q1016=
200807252330 METAR LPPR 252330Z VRB02KT 4000 BR SCT002 BKN004 20/20 Q1016=
200807252300 METAR LPPR 252300Z VRB03KT 5000 BR SCT003 BKN005 BKN035 20/20
                        Q1016=
200807252230 METAR LPPR 252230Z VRB03KT 4000 BR SCT002 BKN005 BKN035 20/20
                        Q1016=
200807252200 METAR LPPR 252200Z 24004KT 210V280 3500 BR SCT001 BKN005
                        BKN035 20/20 Q1016=
200807252130 METAR LPPR 252130Z 25004KT 210V280 3000 BR BKN001 BKN003
                        20/20 Q1016=
200807252100 METAR LPPR 252100Z 25004KT 210V300 3000 BR BKN001 BKN003
                        20/20 Q1016=
200807252030 METAR LPPR 252030Z 22005KT 120V260 3000 BR BKN001 BKN003
                        20/20 Q1015=
200807252000 METAR LPPR 252000Z 23006KT 190V250 3000 BR BKN001 BKN004
                        20/20 Q1015=
200807251930 METAR LPPR 251930Z 23007KT 190V280 3000 BR BKN001 BKN004
                        20/20 Q1015=
200807251900 METAR LPPR 251900Z 22007KT 190V250 3000 BR BKN001 BKN004
                        21/20 Q1015=
200807251830 METAR LPPR 251830Z 23008KT 190V260 3000 BR BKN001 BKN004
                        21/20 Q1015=
200807251800 METAR LPPR 251800Z 22009KT 3000 BR BKN001 BKN004 21/20 Q1015=
200807251730 METAR LPPR 251730Z 22010KT 190V250 3000 -DZ BR BKN001 BKN003
                        21/21 Q1015=
200807251700 METAR LPPR 251700Z 22010KT 190V250 5000 BR SCT001 BKN003
                        21/20 Q1015=
200807251630 METAR LPPR 251630Z 21009KT 170V250 5000 BR SCT001 BKN003
                        21/20 Q1015=
200807251600 METAR LPPR 251600Z 21008KT 180V260 3000 -RADZ BR BKN001 BKN003
                        21/21 Q1016=
200807251530 METAR LPPR 251530Z 22010KT 180V250 3000 -RADZ BR BKN001 BKN003
                        21/21 Q1016=
200807251500 METAR LPPR 251500Z 22010KT 190V250 3000 BR BKN001 BKN003
                        21/21 Q1016=
200807251430 METAR LPPR 251430Z 21008KT 180V240 3000 BR SCT001 BKN003
                        21/21 Q1016=
200807251400 METAR LPPR 251400Z 19009KT 3000 BR BKN001 BKN003 20/20 Q1016=
200807251330 METAR LPPR 251330Z 22008KT 180V250 2000 -RADZ BR BKN001 BKN003
                        20/20 Q1016=
200807251300 METAR LPPR 251300Z 21012KT 4000 BR SCT001 BKN005 20/20 Q1016=
200807251230 METAR LPPR 251230Z 19012KT 170V230 1500 -RADZ BR BKN002 BKN005
                        20/20 Q1016=
200807251200 METAR LPPR 251200Z 19013KT 8000 SCT003 BKN005 20/20 Q1016=
200807251130 METAR LPPR 251130Z 19012KT 4000 BR SCT002 BKN004 20/20 Q1016=
200807251100 METAR LPPR 251100Z 19014KT 2000 -DZ BR SCT002 BKN004 20/20
                        Q1016=
200807251030 METAR LPPR 251030Z 18011KT 5000 BR SCT005 BKN008 20/19 Q1016=
200807251000 METAR LPPR 251000Z 19011KT 160V220 5000 -DZ BR SCT006 BKN030
                        19/19 Q1016=
200807250930 METAR LPPR 250930Z 20011KT 3000 -DZ BR SCT004 BKN005 20/19
                        Q1016=
200807250900 METAR LPPR 250900Z 21007KT 180V250 9999 FEW012 SCT030 BKN070
                        20/19 Q1016=
200807250830 METAR LPPR 250830Z 21005KT 180V250 9999 FEW012 BKN030 19/19
                        Q1015=
200807250800 METAR LPPR 250800Z 23007KT 200V290 1500 -DZ BR BKN001 BKN003
                        19/19 Q1015=
200807250730 METAR LPPR 250730Z 22007KT 180V260 4000 BR SCT003 BKN005
                        BKN013 19/19 Q1015=
200807250700 METAR LPPR 250700Z 22008KT 190V260 8000 SCT002 BKN006 BKN013
                        20/19 Q1015=
200807250630 METAR LPPR 250630Z 20008KT 180V250 8000 BKN005 BKN013 19/19
                        Q1015=
200807250600 METAR LPPR 250600Z 20009KT 8000 SCT002 BKN005 19/19 Q1015=
200807250530 METAR LPPR 250530Z 19013KT 4000 -DZ BR BKN002 BKN004 19/19
                        Q1015=
200807250500 METAR LPPR 250500Z 19013KT 2000 -DZ BR BKN001 BKN003 19/19
                        Q1015=
200807250430 METAR LPPR 250430Z 20011KT 2000 -DZ BR BKN001 BKN003 19/19
                        Q1014=
200807250400 METAR LPPR 250400Z 18013KT 3000 -DZ BR BKN002 BKN004 19/18
                        Q1014=
200807250330 METAR LPPR 250330Z 19010KT 3000 -DZ BR SCT002 BKN005 19/19
                        Q1014=
200807250300 METAR LPPR 250300Z 18010KT 3000 DZ BR BKN003 BKN005 19/19
                        Q1015=
200807250230 METAR LPPR 250230Z 19011KT 5000 -DZ BR BKN005 BKN008 19/18
                        Q1015=
200807250200 METAR LPPR 250200Z 20013KT 8000 -DZ BKN005 BKN008 20/19 Q1015=
200807250130 METAR LPPR 250130Z 20012KT 9999 BKN005 BKN015 20/19 Q1015=
200807250100 METAR LPPR 250100Z 19012KT 9999 BKN005 BKN015 20/19 Q1015=
200807250030 METAR LPPR 250030Z 20010KT 9999 BKN005 BKN015 20/18 Q1015=
200807250000 METAR LPPR 250000Z 19010KT 9999 SCT004 BKN008 20/18 Q1016=
200807242330 METAR LPPR 242330Z 19010KT 9999 SCT006 SCT012 BKN017 20/18
                        Q1015=
200807242300 METAR LPPR 242300Z 20010KT 9999 SCT008 SCT012 BKN017 20/18
                        Q1016=
200807242230 METAR LPPR 242230Z 19011KT 9999 SCT008 BKN017 20/18 Q1016=
200807242200 METAR LPPR 242200Z 19010KT 9999 SCT008 BKN013 20/18 Q1016=
200807242130 METAR LPPR 242130Z 19008KT 9999 SCT008 BKN013 20/17 Q1016=
200807242100 METAR LPPR 242100Z 19009KT 9999 FEW006 BKN013 BKN017 20/17
                        Q1016=
200807242030 METAR LPPR 242030Z 19010KT 9999 FEW006 BKN013 BKN017 20/17
                        Q1016=
200807242000 METAR LPPR 242000Z 18009KT 9999 FEW006 BKN015 BKN020 19/17
                        Q1016=
200807241930 METAR LPPR 241930Z 18008KT 160V230 8000 SCT006 BKN017 19/18
                        Q1016=
200807241900 METAR LPPR 241900Z 19009KT 3000 -DZ BR BKN004 BKN011 19/18
                        Q1016=
200807241830 METAR LPPR 241830Z 21011KT 5000 -DZ BR SCT004 BKN017 21/16
                        Q1016=
200807241800 METAR LPPR 241800Z 21012KT 170V230 9999 FEW015 BKN030 21/15
                        Q1016=
200807241730 METAR LPPR 241730Z 21009KT 9999 FEW012 BKN040 21/15 Q1016=
200807241700 METAR LPPR 241700Z 23011KT 9999 FEW012 BKN040 21/15 Q1016=
200807241630 METAR LPPR 241630Z 23010KT 200V280 9999 FEW012 SCT080 BKN250
                        22/16 Q1016=
200807241600 METAR LPPR 241600Z 22009KT 190V260 9999 FEW012 SCT080 BKN250
                        22/16 Q1016=
200807241530 METAR LPPR 241530Z 22011KT 190V260 9999 FEW017 SCT250 22/15
                        Q1016=
200807241500 METAR LPPR 241500Z 23010KT 9999 FEW017 BKN250 22/15 Q1016=
200807241430 METAR LPPR 241430Z 23009KT 180V280 9999 FEW017 SCT100 23/15
                        Q1016=
200807241400 METAR LPPR 241400Z 23010KT 9999 FEW017 SCT100 23/14 Q1016=
200807241330 METAR LPPR 241330Z 25008KT 9999 FEW017 BKN100 22/15 Q1016=
200807241300 METAR LPPR 241300Z 23009KT 190V270 9999 SCT017 SCT100 22/15
                        Q1016=
200807241230 METAR LPPR 241230Z 22007KT 180V270 9999 SCT017 SCT100 21/14
                        Q1016=
200807241200 METAR LPPR 241200Z 22008KT 170V260 9999 SCT017 SCT090 23/14
                        Q1016=
200807241130 METAR LPPR 241130Z 25009KT 210V290 9999 FEW017 SCT030 BKN090
                        21/15 Q1017=
200807241100 METAR LPPR 241100Z 24007KT 180V280 9999 SCT017 BKN090 22/15
                        Q1017=
200807241030 METAR LPPR 241030Z 22006KT 180V250 9999 SCT017 BKN080 22/15
                        Q1017=
200807241000 METAR LPPR 241000Z 22005KT 170V290 9999 SCT017 BKN080 21/15
                        Q1017=
200807240930 METAR LPPR 240930Z 25004KT 210V290 9999 SCT017 SCT080 20/16
                        Q1017=
200807240900 METAR LPPR 240900Z VRB03KT 9999 SCT017 BKN080 20/16 Q1017=
200807240830 METAR LPPR 240830Z VRB02KT 9999 FEW015 SCT035 BKN080 20/16
                        Q1017=
200807240800 METAR LPPR 240800Z VRB02KT 9999 FEW015 SCT035 BKN080 19/15
                        Q1017=
200807240730 METAR LPPR 240730Z VRB02KT 9999 FEW015 BKN035 19/15 Q1017=
200807240700 METAR LPPR 240700Z 00000KT 9999 FEW015 BKN035 18/17 Q1016=
200807240630 METAR LPPR 240630Z VRB03KT 9999 FEW015 BKN035 18/17 Q1016=
200807240600 METAR LPPR 240600Z 00000KT 9999 FEW015 BKN035 18/17 Q1016=
200807240530 METAR LPPR 240530Z 00000KT 9999 FEW015 BKN035 18/17 Q1016=
200807240500 METAR LPPR 240500Z 00000KT 9999 FEW015 BKN040 BKN080 18/17
                        Q1016=
200807240430 METAR LPPR 240430Z 00000KT 9999 FEW015 BKN040 18/17 Q1016=
200807240400 METAR LPPR 240400Z 00000KT 9999 FEW015 BKN040 18/17 Q1016=
200807240330 METAR LPPR 240330Z 00000KT 9999 SCT015 18/17 Q1016=
200807240300 METAR LPPR 240300Z 00000KT 9999 FEW007 SCT015 18/17 Q1016=
200807240230 METAR LPPR 240230Z 00000KT 9999 SCT015 BKN040 18/17 Q1017=
200807240200 METAR LPPR 240200Z 00000KT 9999 SCT015 BKN040 18/17 Q1017=
200807240130 METAR LPPR 240130Z 00000KT 9999 FEW015 SCT040 18/17 Q1017=
200807240100 METAR LPPR 240100Z 23002KT 9999 FEW015 SCT040 BKN070 18/17
                        Q1017=
200807240030 METAR LPPR 240030Z 00000KT 9999 FEW015 BKN040 17/17 Q1017=
200807240000 METAR LPPR 240000Z 22002KT 9999 FEW015 17/17 Q1018=
200807232330 METAR LPPR 232330Z 00000KT 9999 FEW012 17/16 Q1017=
200807232300 METAR LPPR 232300Z 00000KT 9999 SCT012 18/16 Q1017=
200807232230 METAR LPPR 232230Z 22002KT 9999 SCT012 18/16 Q1018=
200807232200 METAR LPPR 232200Z VRB03KT 9999 SCT012 18/16 Q1018=
200807232130 METAR LPPR 232130Z VRB03KT 9999 SCT025 19/16 Q1018=
200807232100 METAR LPPR 232100Z VRB03KT 9999 SCT015 19/16 Q1018=
200807232030 METAR LPPR 232030Z VRB02KT 9999 SCT015 19/16 Q1017=
200807232000 METAR LPPR 232000Z 23003KT 9999 FEW015 SCT040 19/16 Q1017=
200807231930 METAR LPPR 231930Z 24004KT 180V290 9999 FEW015 20/16 Q1017=
200807231900 METAR LPPR 231900Z 25005KT 210V280 9999 FEW015 21/16 Q1017=
200807231830 METAR LPPR 231830Z 25006G16KT 210V320 9999 SCT015 21/16 Q1017=
200807231800 METAR LPPR 231800Z 24007KT 180V280 9999 SCT015 22/17 Q1017=
200807231730 METAR LPPR 231730Z 25007KT 200V290 9999 SCT015 SCT030 22/16
                        Q1017=
200807231700 METAR LPPR 231700Z 26007KT 210V280 9999 SCT017 SCT030 22/16
                        Q1017=
200807231600 METAR LPPR 231600Z 24007KT 180V280 9999 SCT017 BKN030 22/17
                        Q1017=
200807231500 METAR LPPR 231500Z 24009KT 210V270 9999 FEW017 BKN030 22/15
                        Q1017=
200807231400 METAR LPPR 231400Z 24008KT 210V270 9999 FEW017 BKN030 23/15
                        Q1017=
200807231300 METAR LPPR 231300Z 24008KT 210V290 9999 FEW017 BKN030 22/15
                        Q1018=
200807231200 METAR LPPR 231200Z 23010KT 200V260 9999 FEW017 BKN030 21/15
                        Q1018=
200807231100 METAR LPPR 231100Z 24007KT 210V270 9999 FEW015 BKN025 20/16
                        Q1018=
200807231000 METAR LPPR 231000Z 23006KT 200V260 9999 SCT015 BKN020 19/16
                        Q1017=
200807230900 METAR LPPR 230900Z VRB03KT 9999 SCT015 BKN020 19/16 Q1017=
200807230800 METAR LPPR 230800Z VRB03KT 9999 FEW015 FEW017CB BKN020 19/17
                        Q1017=
200807230700 METAR LPPR 230700Z 25002KT 8000 SCT013 FEW017CB BKN020 18/17
                        Q1017=
200807230600 METAR LPPR 230600Z VRB02KT 6000 -TSRA SCT013 FEW017CB BKN020
                        19/17 Q1016=
200807230500 METAR LPPR 230500Z 21004KT 160V250 9999 TS SCT008 SCT015
                        FEW017CB 19/17 Q1016=
200807230400 METAR LPPR 230400Z VRB03KT 9999 SCT008 BKN015 19/18 Q1016=
200807230300 METAR LPPR 230300Z VRB03KT 8000 BKN009 BKN013 19/17 Q1016=
200807230200 METAR LPPR 230200Z 19004KT 140V230 8000 BKN008 BKN012 19/17
                        Q1016=
200807230130 METAR LPPR 230130Z 18005KT 8000 BKN007 BKN013 19/17 Q1017=
200807230100 METAR LPPR 230100Z 21006KT 7000 SCT006 BKN009 19/17 Q1017=
200807230030 METAR LPPR 230030Z 21007KT 170V230 6000 BKN005 BKN009 19/17
                        Q1017=
200807230000 METAR LPPR 230000Z 21004KT 180V250 5000 BR BKN004 BKN007
                        19/18 Q1017=
200807222330 METAR LPPR 222330Z 21007KT 4000 BR BKN003 BKN007 19/18 Q1017=
200807222300 METAR LPPR 222300Z 18007KT 160V220 3000 BR BKN002 BKN006
                        19/18 Q1018=
200807222230 METAR LPPR 222230Z 18006KT 140V220 3000 BR BKN002 BKN005
                        19/18 Q1017=
200807222200 METAR LPPR 222200Z 19006KT 170V230 3000 BR SCT002 BKN005
                        19/18 Q1018=
200807222130 METAR LPPR 222130Z 19005KT 150V220 4000 BR SCT003 BKN006
                        19/18 Q1017=
200807222100 METAR LPPR 222100Z 18004KT 150V210 4000 BR SCT004 BKN006
                        19/18 Q1017=
200807222030 METAR LPPR 222030Z 24005KT 210V310 4000 BR SCT004 BKN007
                        19/18 Q1017=
200807222000 METAR LPPR 222000Z VRB02KT 3500 BR FEW003 SCT006 20/18 Q1017=
200807221930 METAR LPPR 221930Z VRB02KT 4000 BR SCT004 BKN006 20/18 Q1017=
200807221900 METAR LPPR 221900Z VRB03KT 5000 BR SCT004 BKN006 20/18 Q1017=
200807221830 METAR LPPR 221830Z 26004KT 210V290 6000 SCT004 BKN007 20/18
                        Q1017=
200807221800 METAR LPPR 221800Z 25005KT 210V280 7000 FEW003 BKN005 21/18
                        Q1017=
200807221730 METAR LPPR 221730Z 25006KT 200V290 7000 SCT004 BKN006 21/19
                        Q1017=
200807221700 METAR LPPR 221700Z 25006G17KT 190V310 7000 SCT004 BKN006
                        21/19 Q1017=
200807221630 METAR LPPR 221630Z 26007KT 210V290 6000 FEW003 SCT005 22/19
                        Q1017=
200807221600 METAR LPPR 221600Z 27005KT 240V310 8000 FEW004 23/19 Q1017=
200807221530 METAR LPPR 221530Z 26007KT 220V290 8000 FEW004 23/19 Q1017=
200807221500 METAR LPPR 221500Z 26007KT 9999 FEW004 26/19 Q1017=
200807221430 METAR LPPR 221430Z 24005KT 190V280 CAVOK 27/18 Q1017=
200807221400 METAR LPPR 221400Z 25004KT 190V330 CAVOK 26/16 Q1017=
200807221330 METAR LPPR 221330Z 22005KT 180V260 CAVOK 25/17 Q1017=
200807221300 METAR LPPR 221300Z 23006KT 190V280 CAVOK 25/17 Q1018=
200807221230 METAR LPPR 221230Z 21006KT 180V250 CAVOK 25/18 Q1018=
200807221200 METAR LPPR 221200Z 26007KT 190V300 CAVOK 25/18 Q1018=
200807221130 METAR LPPR 221130Z 22005KT 190V250 CAVOK 25/18 Q1018=
200807221100 METAR LPPR 221100Z 26005KT 170V310 CAVOK 25/19 Q1018=
200807221030 METAR LPPR 221030Z 22008KT 190V250 CAVOK 24/18 Q1018=
200807221000 METAR LPPR 221000Z 12009KT 070V150 CAVOK 30/06 Q1018=
200807220930 METAR LPPR 220930Z VRB02KT CAVOK 27/16 Q1018=
200807220900 METAR LPPR 220900Z VRB03KT CAVOK 23/19 Q1018=
200807220830 METAR LPPR 220830Z 22004KT 190V260 8000 FEW006 22/19 Q1018=
200807220800 METAR LPPR 220800Z 22005KT 180V240 8000 SKC 21/19 Q1018=
200807220730 METAR LPPR 220730Z VRB03KT CAVOK 25/09 Q1017=
200807220700 METAR LPPR 220700Z VRB02KT CAVOK 21/18 Q1017=
200807220630 METAR LPPR 220630Z 00000KT CAVOK 18/18 Q1017=
200807220600 METAR LPPR 220600Z 04003KT 7000 SKC 18/17 Q1017=
200807220530 METAR LPPR 220530Z 03002KT 7000 SKC 18/17 Q1017=
200807220500 METAR LPPR 220500Z 00000KT 8000 SKC 18/18 Q1017=
200807220430 METAR LPPR 220430Z 19003KT 8000 SKC 19/18 Q1017=
200807220400 METAR LPPR 220400Z 17004KT 8000 SKC 19/18 Q1017=
200807220330 METAR LPPR 220330Z 17005KT CAVOK 19/18 Q1017=
200807220300 METAR LPPR 220300Z 18003KT CAVOK 19/18 Q1017=
200807220230 METAR LPPR 220230Z 20003KT CAVOK 19/18 Q1017=
200807220200 METAR LPPR 220200Z 21002KT CAVOK 19/18 Q1017=
200807220130 METAR LPPR 220130Z VRB03KT CAVOK 20/18 Q1018=
200807220100 METAR LPPR 220100Z 18004KT CAVOK 20/18 Q1018=
200807220030 METAR LPPR 220030Z 17004KT CAVOK 20/18 Q1018=
200807220000 METAR LPPR 220000Z 17007KT 9000 SKC 20/18 Q1018=
200807212330 METAR LPPR 212330Z 20003KT 8000 FEW009 20/18 Q1018=
200807212300 METAR LPPR 212300Z 18005KT CAVOK 21/18 Q1018=
200807212230 METAR LPPR 212230Z 17004KT CAVOK 20/18 Q1018=
200807212200 METAR LPPR 212200Z 21003KT CAVOK 20/18 Q1018=
200807212130 METAR LPPR 212130Z 00000KT CAVOK 20/18 Q1018=
200807212100 METAR LPPR 212100Z 00000KT CAVOK 20/18 Q1018=
200807212030 METAR LPPR 212030Z VRB03KT CAVOK 21/18 Q1017=
200807212000 METAR LPPR 212000Z 23002KT CAVOK 22/18 Q1017=
200807211930 METAR LPPR 211930Z VRB02KT CAVOK 24/18 Q1017=
200807211900 METAR LPPR 211900Z VRB03KT CAVOK 25/18 Q1017=
200807211830 METAR LPPR 211830Z 30004KT 260V330 CAVOK 26/18 Q1017=
200807211800 METAR LPPR 211800Z 30006KT CAVOK 27/19 Q1017=
200807211730 METAR LPPR 211730Z 32007KT 280V350 CAVOK 27/19 Q1017=
200807211700 METAR LPPR 211700Z 32006KT 280V350 CAVOK 27/19 Q1017=
200807211630 METAR LPPR 211630Z 32007KT 280V340 CAVOK 26/19 Q1017=
200807211600 METAR LPPR 211600Z 32009KT CAVOK 26/18 Q1017=
200807211530 METAR LPPR 211530Z 31008KT CAVOK 27/18 Q1018=
200807211500 METAR LPPR 211500Z 31007KT 280V350 CAVOK 26/18 Q1018=
200807211430 METAR LPPR 211430Z 31008KT 260V350 CAVOK 25/18 Q1018=
200807211400 METAR LPPR 211400Z 31009KT CAVOK 25/18 Q1018=
200807211330 METAR LPPR 211330Z 28006KT 240V340 CAVOK 24/19 Q1018=
200807211300 METAR LPPR 211300Z 29006KT 260V340 8000 FEW004 23/18 Q1018=
200807211230 METAR LPPR 211230Z 29007KT 260V340 8000 FEW004 22/18 Q1018=
200807211200 METAR LPPR 211200Z 29007KT 260V330 8000 FEW004 22/18 Q1018=
200807211130 METAR LPPR 211130Z 29006KT 250V320 8000 FEW007 22/18 Q1018=
200807211100 METAR LPPR 211100Z 26006KT 220V320 CAVOK 22/18 Q1018=
200807211030 METAR LPPR 211030Z 26005KT 230V290 CAVOK 22/18 Q1018=
200807211000 METAR LPPR 211000Z VRB03KT 8000 FEW005 22/19 Q1018=
200807210930 METAR LPPR 210930Z VRB02KT 5000 BR FEW005 20/18 Q1018=
200807210900 METAR LPPR 210900Z VRB03KT 1200 R17/P1500 R35/P1500 BR VCFG
                        BKN001 18/18 Q1018=
200807210830 METAR LPPR 210830Z 00000KT 0800 R17/P1500 R35/P1500 FG VV001
                        18/18 Q1018=
200807210800 METAR LPPR 210800Z VRB02KT 0400 R17/0800N R35/1200D FG VV001
                        17/17 Q1018=
200807210730 METAR LPPR 210730Z VRB02KT 0300 R17/0800V1100U R35/0550V0700D
                        FG VV001 17/17 Q1018=
200807210700 METAR LPPR 210700Z VRB03KT 0400 R17/1300VP1500 R35/0900V1300N
                        FG FEW250 17/17 Q1018=
200807210630 METAR LPPR 210630Z 00000KT 0700 R17/P1500 R35/1400VP1500
                        FG SCT000 16/16 Q1017=
200807210600 METAR LPPR 210600Z 00000KT 0700 R17/P1500 R35/0900VP1500
                        FG SCT000 16/16 Q1017=
200807210530 METAR LPPR 210530Z 00000KT 2000 BR FEW001 16/16 Q1017=
200807210500 METAR LPPR 210500Z 00000KT 3000 BR FEW250 16/16 Q1017=
200807210430 METAR LPPR 210430Z 00000KT 4000 BR FEW250 17/16 Q1017=
200807210400 METAR LPPR 210400Z 00000KT 4000 BR FEW250 18/17 Q1017=
200807210330 METAR LPPR 210330Z 00000KT 4000 BR SCT250 18/17 Q1017=
200807210300 METAR LPPR 210300Z 00000KT 4000 BR SCT250 18/17 Q1017=
200807210230 METAR LPPR 210230Z 00000KT 4000 BR BKN250 18/17 Q1017=
200807210200 METAR LPPR 210200Z 00000KT 4000 BR BKN250 18/17 Q1017=
200807210130 METAR LPPR 210130Z 00000KT 4000 BR BKN250 18/17 Q1017=
200807210100 METAR LPPR 210100Z 00000KT 4000 BR BKN250 18/17 Q1017=
200807210030 METAR LPPR 210030Z 00000KT 4000 BR BKN250 18/17 Q1018=
200807210000 METAR LPPR 210000Z 00000KT 4000 BR BKN250 18/18 Q1018=
200807202330 METAR LPPR 202330Z 00000KT 4000 BR BKN250 18/18 Q1018=
200807202300 METAR LPPR 202300Z 00000KT 5000 BR BKN250 18/18 Q1018=
200807202230 METAR LPPR 202230Z VRB02KT 5000 BR BKN250 18/18 Q1018=
200807202200 METAR LPPR 202200Z VRB02KT 5000 BR BKN250 19/18 Q1018=
200807202130 METAR LPPR 202130Z 29002KT 7000 BKN250 19/18 Q1018=
200807202100 METAR LPPR 202100Z VRB02KT 7000 BKN250 20/18 Q1017=
200807202030 METAR LPPR 202030Z VRB03KT 7000 BKN250 21/18 Q1017=
200807202000 METAR LPPR 202000Z 00000KT 7000 BKN250 21/18 Q1017=
200807201930 METAR LPPR 201930Z VRB03KT 7000 BKN250 21/18 Q1017=
200807201900 METAR LPPR 201900Z 26004KT 230V330 8000 BKN250 22/18 Q1017=
200807201830 METAR LPPR 201830Z 27004KT 240V310 8000 BKN250 23/18 Q1017=
200807201800 METAR LPPR 201800Z VRB03KT 8000 BKN250 23/18 Q1017=
200807201730 METAR LPPR 201730Z 19006KT 160V230 8000 BKN250 23/18 Q1017=
200807201700 METAR LPPR 201700Z 21005KT 170V260 8000 BKN250 23/18 Q1017=
200807201630 METAR LPPR 201630Z 20007KT 170V230 8000 BKN250 23/19 Q1017=
200807201600 METAR LPPR 201600Z 20008KT 170V240 7000 FEW006 BKN250 23/18
                        Q1017=
200807201530 METAR LPPR 201530Z 21009KT 180V240 7000 SCT006 BKN013 23/19
                        Q1017=
200807201500 METAR LPPR 201500Z 19009KT 7000 SCT005 BKN011 23/19 Q1017=
200807201430 METAR LPPR 201430Z 20008KT 160V230 7000 BKN004 BKN007 22/19
                        Q1017=
200807201400 METAR LPPR 201400Z 19008KT 160V230 7000 BKN004 SCT006 22/19
                        Q1017=
200807201330 METAR LPPR 201330Z 20011KT 7000 SCT004 BKN005 21/19 Q1017=
200807201300 METAR LPPR 201300Z 21012KT 7000 SCT005 BKN007 21/19 Q1018=
200807201230 METAR LPPR 201230Z 20011KT 7000 SCT005 BKN007 22/19 Q1018=
200807201200 METAR LPPR 201200Z 20013KT 7000 SCT004 BKN007 21/18 Q1018=
200807201130 METAR LPPR 201130Z 20012KT 7000 SCT004 BKN007 21/18 Q1017=
200807201100 METAR LPPR 201100Z 21012KT 7000 SCT004 BKN007 21/18 Q1017=
200807201030 METAR LPPR 201030Z 21010KT 6000 SCT004 BKN006 20/18 Q1017=
200807201000 METAR LPPR 201000Z 21010KT 5000 BR SCT003 BKN004 20/18 Q1017=
200807200930 METAR LPPR 200930Z 19011KT 4000 BR BKN002 BKN004 20/18 Q1016=
200807200900 METAR LPPR 200900Z 19013KT 4000 BR SCT001 BKN004 20/18 Q1016=
200807200830 METAR LPPR 200830Z 19011KT 4000 BR SCT001 SCT003 20/18 Q1016=
200807200800 METAR LPPR 200800Z 20011KT 5000 BR FEW001 SCT004 20/18 Q1015=
200807200730 METAR LPPR 200730Z 19011KT 6000 FEW002 20/18 Q1015=
200807200700 METAR LPPR 200700Z 19010KT 8000 FEW005 20/18 Q1015=
200807200630 METAR LPPR 200630Z 17011KT 8000 FEW005 SCT070 19/18 Q1014=
200807200600 METAR LPPR 200600Z 17009KT 7000 FEW001 SCT060 19/18 Q1014=
200807200530 METAR LPPR 200530Z 18007KT 7000 FEW001 19/18 Q1014=
200807200500 METAR LPPR 200500Z 17010KT 6000 FEW001 19/18 Q1014=
200807200430 METAR LPPR 200430Z 17008KT 7000 SKC 18/18 Q1013=
200807200400 METAR LPPR 200400Z 18009KT 7000 SKC 19/17 Q1013=
200807200330 METAR LPPR 200330Z 18007KT 7000 SKC 19/17 Q1013=
200807200300 METAR LPPR 200300Z 20003KT 5000 BR SKC 19/17 Q1013=
200807200230 METAR LPPR 200230Z 00000KT 5000 BR SKC 20/17 Q1013=
200807200200 METAR LPPR 200200Z 21003KT 5000 BR SKC 20/18 Q1013=
200807200130 METAR LPPR 200130Z 19003KT 5000 BR SKC 20/18 Q1013=
200807200100 METAR LPPR 200100Z 00000KT 5000 BR SKC 19/18 Q1013=
200807200030 METAR LPPR 200030Z 00000KT 5000 BR SKC 19/18 Q1013=
200807200000 METAR LPPR 200000Z 00000KT 6000 SKC 19/18 Q1013=
200807192330 METAR LPPR 192330Z 00000KT 6000 SKC 20/18 Q1013=
200807192300 METAR LPPR 192300Z 00000KT 6000 SKC 20/18 Q1013=
200807192230 METAR LPPR 192230Z 34002KT 6000 SKC 20/18 Q1013=
200807192200 METAR LPPR 192200Z 00000KT 6000 FEW020 20/18 Q1013=
200807192130 METAR LPPR 192130Z 00000KT 7000 FEW020 19/17 Q1013=
200807192100 METAR LPPR 192100Z 36003KT 7000 FEW020 20/17 Q1013=
200807192030 METAR LPPR 192030Z 00000KT 7000 FEW020 20/18 Q1013=
200807192000 METAR LPPR 192000Z VRB02KT 7000 FEW020 22/18 Q1013=
200807191930 METAR LPPR 191930Z VRB03KT 7000 FEW020 24/18 Q1012=
200807191900 METAR LPPR 191900Z VRB02KT 7000 FEW020 25/19 Q1012=
200807191830 METAR LPPR 191830Z VRB02KT 7000 FEW017 26/19 Q1012=
200807191800 METAR LPPR 191800Z VRB03KT 7000 FEW017 25/18 Q1012=
200807191730 METAR LPPR 191730Z 29005KT 260V340 7000 FEW017 24/19 Q1012=
200807191700 METAR LPPR 191700Z 28004KT 250V320 7000 FEW015 25/18 Q1012=
200807191630 METAR LPPR 191630Z 28005G15KT 7000 FEW015 25/18 Q1013=
200807191600 METAR LPPR 191600Z 29004KT 260V320 7000 FEW015 26/18 Q1013=
200807191530 METAR LPPR 191530Z 29005KT 260V320 6000 FEW015 27/18 Q1013=
200807191500 METAR LPPR 191500Z 26006KT 230V300 6000 SKC 28/18 Q1013=
200807191430 METAR LPPR 191430Z 23007KT 200V260 6000 SKC 28/17 Q1013=
200807191400 METAR LPPR 191400Z 23006KT 190V260 6000 SKC 28/18 Q1013=
200807191330 METAR LPPR 191330Z 22006KT 190V260 7000 SKC 27/18 Q1013=
200807191300 METAR LPPR 191300Z 22006KT 190V250 7000 SKC 28/18 Q1013=
200807191230 METAR LPPR 191230Z 23005KT 190V280 7000 SKC 28/18 Q1013=
200807191200 METAR LPPR 191200Z 22005KT 180V270 8000 SKC 27/18 Q1013=
200807191130 METAR LPPR 191130Z 22005KT 180V260 8000 SKC 26/18 Q1013=
200807191100 METAR LPPR 191100Z 21008KT 180V260 8000 SKC 26/18 Q1013=
200807191030 METAR LPPR 191030Z 20010KT CAVOK 25/17 Q1012=
200807191000 METAR LPPR 191000Z 24006KT 190V260 CAVOK 27/19 Q1012=
200807190930 METAR LPPR 190930Z VRB03KT CAVOK 30/21 Q1011=
200807190900 METAR LPPR 190900Z VRB03KT CAVOK 29/19 Q1011=
200807190830 METAR LPPR 190830Z VRB02KT CAVOK 26/19 Q1011=
200807190800 METAR LPPR 190800Z 00000KT 5000 BR SKC 25/19 Q1011=
200807190730 METAR LPPR 190730Z VRB03KT 5000 BR SKC 23/18 Q1011=
200807190700 METAR LPPR 190700Z 00000KT 4000 BR SKC 20/18 Q1011=
200807190630 METAR LPPR 190630Z VRB02KT CAVOK 20/17 Q1011=
200807190600 METAR LPPR 190600Z VRB03KT CAVOK 20/17 Q1011=
200807190530 METAR LPPR 190530Z 00000KT CAVOK 19/17 Q1012=
200807190500 METAR LPPR 190500Z 00000KT CAVOK 18/17 Q1011=
200807190430 METAR LPPR 190430Z 03002KT CAVOK 18/17 Q1011=
200807190400 METAR LPPR 190400Z 00000KT CAVOK 17/16 Q1012=
200807190330 METAR LPPR 190330Z 00000KT CAVOK 17/16 Q1012=
200807190300 METAR LPPR 190300Z 00000KT CAVOK 18/16 Q1012=
200807190230 METAR LPPR 190230Z 00000KT CAVOK 18/16 Q1012=
200807190200 METAR LPPR 190200Z 00000KT 8000 SKC 18/16 Q1012=
200807190130 METAR LPPR 190130Z 00000KT 8000 SKC 18/16 Q1012=
200807190100 METAR LPPR 190100Z 00000KT 9000 SKC 18/16 Q1012=
200807190030 METAR LPPR 190030Z 00000KT CAVOK 18/16 Q1012=
200807190000 METAR LPPR 190000Z 00000KT CAVOK 18/16 Q1012=
200807182330 METAR LPPR 182330Z 00000KT CAVOK 19/16 Q1013=
200807182300 METAR LPPR 182300Z 00000KT CAVOK 20/16 Q1012=
200807182230 METAR LPPR 182230Z 00000KT CAVOK 21/16 Q1013=
200807182200 METAR LPPR 182200Z 34002KT CAVOK 21/16 Q1013=
200807182130 METAR LPPR 182130Z 36003KT CAVOK 22/16 Q1012=
200807182100 METAR LPPR 182100Z 34003KT CAVOK 21/16 Q1012=
200807182030 METAR LPPR 182030Z 31005KT CAVOK 22/16 Q1012=
200807182000 METAR LPPR 182000Z VRB03KT CAVOK 25/16 Q1012=
200807181930 METAR LPPR 181930Z 33005KT CAVOK 26/16 Q1012=
200807181900 METAR LPPR 181900Z 33006KT CAVOK 27/17 Q1012=
200807181830 METAR LPPR 181830Z 33007KT CAVOK 28/17 Q1012=
200807181800 METAR LPPR 181800Z 32005KT 290V350 CAVOK 29/17 Q1012=
200807181730 METAR LPPR 181730Z 32006KT 280V350 CAVOK 29/17 Q1012=
200807181700 METAR LPPR 181700Z 32006KT 280V340 CAVOK 30/17 Q1012=
200807181630 METAR LPPR 181630Z 32009KT CAVOK 29/17 Q1012=
200807181600 METAR LPPR 181600Z 33009KT 280V350 CAVOK 29/17 Q1013=
200807181530 METAR LPPR 181530Z 32008KT 280V340 CAVOK 29/17 Q1013=
200807181500 METAR LPPR 181500Z 32008KT 290V350 CAVOK 29/17 Q1013=
200807181430 METAR LPPR 181430Z 31007KT 270V340 CAVOK 28/17 Q1013=
200807181400 METAR LPPR 181400Z 30007KT CAVOK 27/17 Q1013=
200807181330 METAR LPPR 181330Z 32006KT 260V030 CAVOK 26/17 Q1014=
200807181300 METAR LPPR 181300Z VRB06KT CAVOK 25/17 Q1014=
200807181230 METAR LPPR 181230Z 28005G15KT 250V010 CAVOK 25/17 Q1014=
200807181200 METAR LPPR 181200Z 28006KT 170V320 CAVOK 25/18 Q1014=
200807181130 METAR LPPR 181130Z 28006KT 250V330 8000 SKC 24/18 Q1014=
200807181100 METAR LPPR 181100Z 28006KT 8000 SKC 24/18 Q1014=
200807181030 METAR LPPR 181030Z 28005KT 250V310 8000 SKC 24/18 Q1014=
200807181000 METAR LPPR 181000Z 28005KT 240V320 8000 SKC 23/18 Q1014=
200807180930 METAR LPPR 180930Z 29006KT 260V320 8000 SKC 24/18 Q1014=
200807180900 METAR LPPR 180900Z VRB03KT 8000 SKC 24/19 Q1014=
200807180830 METAR LPPR 180830Z 00000KT 8000 SKC 24/18 Q1014=
200807180800 METAR LPPR 180800Z 00000KT CAVOK 22/18 Q1014=
200807180730 METAR LPPR 180730Z 00000KT CAVOK 21/17 Q1014=
200807180700 METAR LPPR 180700Z VRB02KT CAVOK 19/17 Q1014=
200807180630 METAR LPPR 180630Z 35002KT CAVOK 19/17 Q1014=
200807180600 METAR LPPR 180600Z 00000KT CAVOK 17/16 Q1013=
200807180530 METAR LPPR 180530Z 00000KT CAVOK 17/16 Q1013=
200807180500 METAR LPPR 180500Z 17003KT CAVOK 17/16 Q1013=
200807180430 METAR LPPR 180430Z 17003KT CAVOK 17/16 Q1013=
200807180400 METAR LPPR 180400Z 19002KT CAVOK 17/16 Q1013=
200807180330 METAR LPPR 180330Z 00000KT CAVOK 17/15 Q1014=
200807180300 METAR LPPR 180300Z 21003KT CAVOK 18/16 Q1014=
200807180230 METAR LPPR 180230Z 00000KT CAVOK 17/16 Q1014=
200807180200 METAR LPPR 180200Z 00000KT CAVOK 17/15 Q1014=
200807180130 METAR LPPR 180130Z 00000KT CAVOK 17/15 Q1014=
200807180100 METAR LPPR 180100Z 00000KT CAVOK 17/15 Q1014=
200807180030 METAR LPPR 180030Z 00000KT CAVOK 18/15 Q1014=
200807180000 METAR LPPR 180000Z 21002KT CAVOK 19/16 Q1014=
200807172330 METAR LPPR 172330Z VRB03KT CAVOK 19/16 Q1014=
200807172300 METAR LPPR 172300Z 00000KT CAVOK 19/16 Q1014=
200807172230 METAR LPPR 172230Z 00000KT CAVOK 19/16 Q1014=
200807172200 METAR LPPR 172200Z 00000KT CAVOK 19/16 Q1014=
200807172130 METAR LPPR 172130Z 00000KT CAVOK 19/16 Q1014=
200807172100 METAR LPPR 172100Z 00000KT CAVOK 20/16 Q1014=
200807172030 METAR LPPR 172030Z VRB02KT CAVOK 20/16 Q1014=
200807172000 METAR LPPR 172000Z 33005KT CAVOK 22/16 Q1014=
200807171930 METAR LPPR 171930Z 33005KT CAVOK 23/17 Q1014=
200807171900 METAR LPPR 171900Z 34008KT CAVOK 24/16 Q1014=
200807171830 METAR LPPR 171830Z 32006KT 300V360 CAVOK 25/17 Q1014=
200807171800 METAR LPPR 171800Z 30006G17KT 270V340 CAVOK 25/17 Q1014=
200807171730 METAR LPPR 171730Z 30006KT 270V330 CAVOK 26/17 Q1014=
200807171700 METAR LPPR 171700Z 32007KT 270V350 CAVOK 27/17 Q1014=
200807171630 METAR LPPR 171630Z 30007KT 260V330 CAVOK 27/17 Q1015=
200807171600 METAR LPPR 171600Z 30008KT 280V340 CAVOK 27/17 Q1015=
200807171530 METAR LPPR 171530Z 31008KT 280V340 CAVOK 27/17 Q1015=
200807171500 METAR LPPR 171500Z 32008KT 280V010 CAVOK 27/17 Q1015=
200807171430 METAR LPPR 171430Z 31008KT CAVOK 28/17 Q1015=
200807171400 METAR LPPR 171400Z 33009KT 290V350 CAVOK 27/17 Q1015=
200807171330 METAR LPPR 171330Z 31008KT 280V340 CAVOK 26/17 Q1016=
200807171300 METAR LPPR 171300Z 30009KT 270V330 CAVOK 26/17 Q1016=
200807171230 METAR LPPR 171230Z 32009G21KT 270V010 CAVOK 26/17 Q1016=
200807171200 METAR LPPR 171200Z 32010KT CAVOK 25/16 Q1016=
200807171130 METAR LPPR 171130Z 31009KT 270V340 CAVOK 25/16 Q1016=
200807171100 METAR LPPR 171100Z 30006KT 260V350 CAVOK 25/17 Q1016=
200807171030 METAR LPPR 171030Z 30007KT 270V340 CAVOK 25/17 Q1017=
200807171000 METAR LPPR 171000Z 32006KT 290V350 CAVOK 24/17 Q1017=
200807170930 METAR LPPR 170930Z 30005KT 260V330 CAVOK 23/17 Q1017=
200807170900 METAR LPPR 170900Z 28006KT 250V310 CAVOK 22/17 Q1017=
200807170830 METAR LPPR 170830Z 00000KT CAVOK 23/17 Q1017=
200807170800 METAR LPPR 170800Z VRB03KT CAVOK 21/17 Q1017=
200807170730 METAR LPPR 170730Z VRB02KT CAVOK 20/17 Q1016=
200807170700 METAR LPPR 170700Z 00000KT CAVOK 18/18 Q1016=
200807170630 METAR LPPR 170630Z 00000KT 8000 FEW250 16/16 Q1016=
200807170600 METAR LPPR 170600Z 00000KT 8000 FEW250 15/15 Q1016=
200807170530 METAR LPPR 170530Z 00000KT 8000 SKC 16/15 Q1016=
200807170500 METAR LPPR 170500Z 00000KT 8000 SKC 16/16 Q1016=
200807170430 METAR LPPR 170430Z 00000KT CAVOK 17/16 Q1016=
200807170400 METAR LPPR 170400Z 00000KT CAVOK 17/16 Q1016=
200807170330 METAR LPPR 170330Z VRB02KT CAVOK 18/17 Q1016=
200807170300 METAR LPPR 170300Z 00000KT CAVOK 17/17 Q1016=
200807170230 METAR LPPR 170230Z VRB02KT CAVOK 17/16 Q1016=
200807170200 METAR LPPR 170200Z 34003KT CAVOK 17/17 Q1016=
200807170130 METAR LPPR 170130Z 35004KT CAVOK 17/17 Q1016=
200807170100 METAR LPPR 170100Z 00000KT CAVOK 18/17 Q1016=
200807170030 METAR LPPR 170030Z 00000KT CAVOK 18/17 Q1017=
200807170000 METAR LPPR 170000Z 00000KT CAVOK 18/17 Q1017=
200807162330 METAR LPPR 162330Z VRB02KT CAVOK 18/17 Q1017=
200807162300 METAR LPPR 162300Z 00000KT CAVOK 19/17 Q1017=
200807162230 METAR LPPR 162230Z 00000KT CAVOK 20/17 Q1017=
200807162200 METAR LPPR 162200Z 00000KT CAVOK 20/17 Q1017=
200807162130 METAR LPPR 162130Z VRB02KT CAVOK 19/17 Q1017=
200807162100 METAR LPPR 162100Z 00000KT CAVOK 20/17 Q1017=
200807162030 METAR LPPR 162030Z 00000KT CAVOK 20/17 Q1017=
200807162000 METAR LPPR 162000Z VRB03KT CAVOK 21/17 Q1017=
200807161930 METAR LPPR 161930Z VRB03KT CAVOK 22/17 Q1017=
200807161900 METAR LPPR 161900Z 27005KT CAVOK 24/18 Q1017=
200807161830 METAR LPPR 161830Z 28005KT 260V320 CAVOK 25/17 Q1017=
200807161800 METAR LPPR 161800Z 26004KT CAVOK 26/17 Q1017=
200807161730 METAR LPPR 161730Z 32005KT 280V010 CAVOK 28/16 Q1017=
200807161700 METAR LPPR 161700Z 33009KT CAVOK 29/14 Q1018=
200807161630 METAR LPPR 161630Z 33010KT CAVOK 29/14 Q1018=
200807161600 METAR LPPR 161600Z 32008KT CAVOK 28/16 Q1018=
200807161530 METAR LPPR 161530Z 31009KT 290V350 CAVOK 29/13 Q1018=
200807161500 METAR LPPR 161500Z 32009KT 280V350 CAVOK 29/13 Q1019=
200807161430 METAR LPPR 161430Z 32007KT 270V360 CAVOK 29/13 Q1019=
200807161400 METAR LPPR 161400Z 29006KT 250V330 CAVOK 28/14 Q1019=
200807161330 METAR LPPR 161330Z 29006KT 250V330 CAVOK 27/15 Q1020=
200807161300 METAR LPPR 161300Z 29007KT 260V330 CAVOK 26/16 Q1020=
200807161230 METAR LPPR 161230Z 26005KT 210V330 CAVOK 25/17 Q1020=
200807161200 METAR LPPR 161200Z 27006KT 190V320 CAVOK 24/18 Q1020=
200807161130 METAR LPPR 161130Z 25007KT 210V270 CAVOK 24/18 Q1020=
200807161100 METAR LPPR 161100Z 26005KT 230V290 CAVOK 25/17 Q1019=
200807161030 METAR LPPR 161030Z 26005KT 230V310 CAVOK 25/17 Q1020=
200807161000 METAR LPPR 161000Z 27008KT CAVOK 25/18 Q1020=
200807160930 METAR LPPR 160930Z VRB03KT CAVOK 29/18 Q1020=
200807160900 METAR LPPR 160900Z 10005KT 050V160 CAVOK 29/12 Q1020=
200807160830 METAR LPPR 160830Z VRB03KT CAVOK 28/12 Q1020=
200807160800 METAR LPPR 160800Z VRB02KT CAVOK 27/12 Q1020=
200807160730 METAR LPPR 160730Z VRB02KT CAVOK 25/14 Q1020=
200807160700 METAR LPPR 160700Z 00000KT CAVOK 21/17 Q1020=
200807160630 METAR LPPR 160630Z VRB02KT CAVOK 20/17 Q1020=
200807160600 METAR LPPR 160600Z 13002KT CAVOK 18/16 Q1020=
200807160530 METAR LPPR 160530Z 00000KT CAVOK 18/16 Q1020=
200807160500 METAR LPPR 160500Z 00000KT CAVOK 19/16 Q1020=
200807160430 METAR LPPR 160430Z 18004KT CAVOK 19/16 Q1020=
200807160400 METAR LPPR 160400Z 00000KT CAVOK 19/16 Q1019=
200807160330 METAR LPPR 160330Z 00000KT CAVOK 19/16 Q1019=
200807160300 METAR LPPR 160300Z 00000KT CAVOK 20/16 Q1019=
200807160230 METAR LPPR 160230Z 00000KT CAVOK 21/15 Q1019=
200807160200 METAR LPPR 160200Z 13003KT CAVOK 21/15 Q1019=
200807160130 METAR LPPR 160130Z 00000KT CAVOK 20/16 Q1020=
200807160100 METAR LPPR 160100Z 00000KT CAVOK 21/16 Q1020=
200807160030 METAR LPPR 160030Z 00000KT CAVOK 22/16 Q1020=
200807160000 METAR LPPR 160000Z 00000KT CAVOK 21/15 Q1020=
200807152330 METAR LPPR 152330Z 00000KT CAVOK 21/16 Q1020=
200807152300 METAR LPPR 152300Z 00000KT CAVOK 21/16 Q1020=
200807152230 METAR LPPR 152230Z 00000KT CAVOK 22/15 Q1021=
200807152200 METAR LPPR 152200Z 35002KT CAVOK 22/15 Q1021=
200807152130 METAR LPPR 152130Z 02003KT CAVOK 23/15 Q1021=
200807152100 METAR LPPR 152100Z 36002KT CAVOK 23/15 Q1021=
200807152030 METAR LPPR 152030Z 35005KT CAVOK 23/15 Q1021=
200807152000 METAR LPPR 152000Z 34005KT CAVOK 25/14 Q1021=
200807151930 METAR LPPR 151930Z 35007KT CAVOK 27/13 Q1021=
200807151900 METAR LPPR 151900Z 33007KT CAVOK 28/13 Q1021=
200807151830 METAR LPPR 151830Z 33009KT CAVOK 29/11 Q1021=
200807151800 METAR LPPR 151800Z 34010KT CAVOK 30/10 Q1020=
200807151730 METAR LPPR 151730Z 33009KT CAVOK 30/11 Q1020=
200807151700 METAR LPPR 151700Z 33009KT CAVOK 31/11 Q1020=
200807151630 METAR LPPR 151630Z 33011KT CAVOK 30/11 Q1021=
200807151600 METAR LPPR 151600Z 33011KT CAVOK 30/10 Q1021=
200807151530 METAR LPPR 151530Z 32011KT 290V350 9999 FEW017 30/10 Q1021=
200807151500 METAR LPPR 151500Z 32010KT 9999 FEW017 31/11 Q1021=
200807151430 METAR LPPR 151430Z 31008KT 260V340 CAVOK 31/11 Q1022=
200807151400 METAR LPPR 151400Z 30008KT 260V330 CAVOK 30/11 Q1022=
200807151330 METAR LPPR 151330Z 29007KT 250V320 CAVOK 29/13 Q1022=
200807151300 METAR LPPR 151300Z 29007KT 260V320 CAVOK 28/13 Q1022=
200807151230 METAR LPPR 151230Z 27007KT 240V300 CAVOK 29/13 Q1022=
200807151200 METAR LPPR 151200Z 25007KT CAVOK 30/13 Q1022=
200807151130 METAR LPPR 151130Z VRB02KT CAVOK 32/08 Q1022=
200807151100 METAR LPPR 151100Z 07005KT 010V130 CAVOK 32/07 Q1023=
200807151030 METAR LPPR 151030Z 08004KT 020V140 CAVOK 31/09 Q1023=
200807151000 METAR LPPR 151000Z 07004KT 010V140 CAVOK 30/08 Q1023=
200807150930 METAR LPPR 150930Z 12006KT 090V160 CAVOK 29/08 Q1022=
200807150900 METAR LPPR 150900Z 09004KT 050V130 CAVOK 29/10 Q1022=
200807150830 METAR LPPR 150830Z 11004KT 060V160 CAVOK 28/10 Q1022=
200807150800 METAR LPPR 150800Z 10005KT 050V150 CAVOK 26/11 Q1022=
200807150730 METAR LPPR 150730Z 09004KT 040V140 CAVOK 26/13 Q1022=
200807150700 METAR LPPR 150700Z VRB03KT CAVOK 24/14 Q1022=
200807150630 METAR LPPR 150630Z 10006KT 060V130 CAVOK 23/14 Q1021=
200807150600 METAR LPPR 150600Z 10007KT CAVOK 23/14 Q1021=
200807150530 METAR LPPR 150530Z 10005KT 070V130 CAVOK 22/14 Q1021=
200807150500 METAR LPPR 150500Z VRB03KT CAVOK 20/15 Q1021=
200807150430 METAR LPPR 150430Z VRB03KT CAVOK 21/15 Q1021=
200807150400 METAR LPPR 150400Z 04004KT CAVOK 21/15 Q1021=
200807150330 METAR LPPR 150330Z 05004KT CAVOK 21/15 Q1021=
200807150300 METAR LPPR 150300Z 07003KT CAVOK 22/16 Q1021=
200807150230 METAR LPPR 150230Z 09003KT CAVOK 21/16 Q1020=
200807150200 METAR LPPR 150200Z 08003KT CAVOK 21/16 Q1020=
200807150130 METAR LPPR 150130Z 00000KT CAVOK 21/16 Q1021=
200807150100 METAR LPPR 150100Z 00000KT CAVOK 21/16 Q1021=
200807150030 METAR LPPR 150030Z 00000KT CAVOK 22/16 Q1021=
200807150000 METAR LPPR 150000Z 03003KT CAVOK 23/16 Q1021=
200807142330 METAR LPPR 142330Z 05003KT CAVOK 23/16 Q1021=
200807142300 METAR LPPR 142300Z 05003KT CAVOK 22/16 Q1021=
200807142230 METAR LPPR 142230Z 01004KT CAVOK 23/15 Q1021=
200807142200 METAR LPPR 142200Z 02002KT CAVOK 22/14 Q1021=
200807142130 METAR LPPR 142130Z 00000KT CAVOK 23/15 Q1021=
200807142100 METAR LPPR 142100Z 34003KT CAVOK 23/14 Q1020=
200807142030 METAR LPPR 142030Z 35004KT CAVOK 25/14 Q1020=
200807142000 METAR LPPR 142000Z 34004KT 310V010 CAVOK 26/14 Q1020=
200807141930 METAR LPPR 141930Z 35007KT CAVOK 27/14 Q1020=
200807141900 METAR LPPR 141900Z 35008KT CAVOK 28/13 Q1019=
200807141830 METAR LPPR 141830Z 34010KT CAVOK 28/13 Q1019=
200807141800 METAR LPPR 141800Z 33007KT 290V350 CAVOK 29/13 Q1019=
200807141730 METAR LPPR 141730Z 33008KT CAVOK 29/13 Q1019=
200807141700 METAR LPPR 141700Z 33008KT CAVOK 29/14 Q1019=
200807141630 METAR LPPR 141630Z 32008KT CAVOK 29/14 Q1020=
200807141600 METAR LPPR 141600Z 33008KT 290V350 9999 FEW025 29/14 Q1020=
200807141530 METAR LPPR 141530Z 33009KT 290V360 9999 FEW020 28/15 Q1020=
200807141500 METAR LPPR 141500Z 33010KT CAVOK 28/14 Q1020=
200807141430 METAR LPPR 141430Z 32010KT 280V340 CAVOK 27/14 Q1020=
200807141400 METAR LPPR 141400Z 30011KT 270V330 CAVOK 26/15 Q1020=
200807141330 METAR LPPR 141330Z 32010KT 260V030 CAVOK 27/14 Q1020=
200807141300 METAR LPPR 141300Z 30007KT 270V330 CAVOK 27/16 Q1020=
200807141230 METAR LPPR 141230Z 32008KT CAVOK 27/16 Q1020=
200807141200 METAR LPPR 141200Z 30007KT 260V350 CAVOK 26/16 Q1020=
200807141130 METAR LPPR 141130Z 30007G17KT 260V350 CAVOK 26/16 Q1020=
200807141100 METAR LPPR 141100Z 28006KT 250V310 CAVOK 26/17 Q1020=
200807141030 METAR LPPR 141030Z VRB03KT CAVOK 27/14 Q1020=
200807141000 METAR LPPR 141000Z 06004KT 360V110 CAVOK 26/12 Q1019=
200807140930 METAR LPPR 140930Z VRB03KT CAVOK 24/15 Q1019=
200807140900 METAR LPPR 140900Z VRB03KT CAVOK 23/16 Q1019=
200807140830 METAR LPPR 140830Z VRB03KT CAVOK 21/14 Q1019=
200807140800 METAR LPPR 140800Z 04004KT CAVOK 20/15 Q1019=
200807140730 METAR LPPR 140730Z 03003KT CAVOK 18/15 Q1019=
200807140700 METAR LPPR 140700Z VRB02KT CAVOK 16/15 Q1019=
200807140630 METAR LPPR 140630Z VRB02KT CAVOK 15/14 Q1019=
200807140600 METAR LPPR 140600Z VRB02KT CAVOK 14/14 Q1019=
200807140530 METAR LPPR 140530Z 09002KT CAVOK 14/14 Q1018=
200807140500 METAR LPPR 140500Z 00000KT CAVOK 14/14 Q1018=
200807140430 METAR LPPR 140430Z 00000KT CAVOK 13/13 Q1018=
200807140400 METAR LPPR 140400Z 00000KT CAVOK 13/13 Q1018=
200807140330 METAR LPPR 140330Z 00000KT CAVOK 13/13 Q1018=
200807140300 METAR LPPR 140300Z 00000KT CAVOK 13/13 Q1018=
200807140230 METAR LPPR 140230Z 00000KT CAVOK 13/13 Q1018=
200807140200 METAR LPPR 140200Z 00000KT CAVOK 13/13 Q1018=
200807140130 METAR LPPR 140130Z 00000KT CAVOK 14/13 Q1018=
200807140100 METAR LPPR 140100Z 00000KT CAVOK 14/13 Q1018=
200807140030 METAR LPPR 140030Z 00000KT CAVOK 14/14 Q1019=
200807140000 METAR LPPR 140000Z 00000KT CAVOK 14/14 Q1019=
200807132330 METAR LPPR 132330Z 00000KT CAVOK 15/14 Q1019=
200807132300 METAR LPPR 132300Z 00000KT CAVOK 15/14 Q1019=
200807132230 METAR LPPR 132230Z 36004KT CAVOK 15/14 Q1019=
200807132200 METAR LPPR 132200Z 35006KT CAVOK 15/14 Q1019=
200807132130 METAR LPPR 132130Z 34009KT CAVOK 16/14 Q1019=
200807132100 METAR LPPR 132100Z 34009KT CAVOK 16/14 Q1018=
200807132030 METAR LPPR 132030Z 34012KT CAVOK 17/14 Q1018=
200807132000 METAR LPPR 132000Z 34012KT CAVOK 18/13 Q1018=
200807131930 METAR LPPR 131930Z 34013KT CAVOK 19/12 Q1018=
200807131900 METAR LPPR 131900Z 33012KT CAVOK 19/13 Q1018=
200807131830 METAR LPPR 131830Z 34014KT CAVOK 20/13 Q1018=
200807131800 METAR LPPR 131800Z 33012KT CAVOK 21/13 Q1018=
200807131730 METAR LPPR 131730Z 33014KT CAVOK 21/13 Q1018=
200807131700 METAR LPPR 131700Z 34013KT CAVOK 22/13 Q1018=
200807131630 METAR LPPR 131630Z 33012KT 290V360 CAVOK 22/13 Q1018=
200807131600 METAR LPPR 131600Z 34016KT CAVOK 22/12 Q1018=
200807131530 METAR LPPR 131530Z 33013KT 290V360 CAVOK 22/13 Q1018=
200807131500 METAR LPPR 131500Z 33014KT CAVOK 22/13 Q1018=
200807131430 METAR LPPR 131430Z 32015KT CAVOK 22/13 Q1018=
200807131400 METAR LPPR 131400Z 32014KT CAVOK 22/13 Q1018=
200807131330 METAR LPPR 131330Z 33015KT CAVOK 21/12 Q1018=
200807131300 METAR LPPR 131300Z 33015KT CAVOK 22/11 Q1018=
200807131230 METAR LPPR 131230Z 33014KT CAVOK 22/11 Q1018=
200807131200 METAR LPPR 131200Z 32012KT CAVOK 22/12 Q1018=
200807131130 METAR LPPR 131130Z 32013G23KT CAVOK 21/12 Q1018=
200807131100 METAR LPPR 131100Z 31012KT CAVOK 21/12 Q1019=
200807131030 METAR LPPR 131030Z 30009KT 270V330 CAVOK 20/12 Q1018=
200807131000 METAR LPPR 131000Z 34008KT 270V030 CAVOK 21/12 Q1018=
200807130930 METAR LPPR 130930Z 36006KT 310V040 CAVOK 20/12 Q1018=
200807130900 METAR LPPR 130900Z 01007KT 340V040 CAVOK 19/11 Q1018=
200807130830 METAR LPPR 130830Z 02006KT 350V050 CAVOK 18/11 Q1018=
200807130800 METAR LPPR 130800Z 02006KT 350V060 CAVOK 17/11 Q1018=
200807130730 METAR LPPR 130730Z 36006KT CAVOK 16/12 Q1018=
200807130700 METAR LPPR 130700Z 35004KT CAVOK 14/12 Q1018=
200807130630 METAR LPPR 130630Z 35002KT CAVOK 13/11 Q1018=
200807130600 METAR LPPR 130600Z 02004KT 350V050 CAVOK 12/11 Q1018=
200807130530 METAR LPPR 130530Z 34004KT CAVOK 11/10 Q1017=
200807130500 METAR LPPR 130500Z 35005KT CAVOK 11/10 Q1017=
200807130430 METAR LPPR 130430Z 35004KT CAVOK 11/10 Q1017=
200807130400 METAR LPPR 130400Z 01003KT CAVOK 12/11 Q1017=
200807130330 METAR LPPR 130330Z VRB03KT CAVOK 12/11 Q1017=
200807130300 METAR LPPR 130300Z 36005KT CAVOK 12/11 Q1017=
200807130230 METAR LPPR 130230Z 34005KT CAVOK 12/10 Q1017=
200807130200 METAR LPPR 130200Z 36004KT CAVOK 13/11 Q1017=
200807130130 METAR LPPR 130130Z 01005KT CAVOK 13/11 Q1018=
200807130100 METAR LPPR 130100Z 35004KT CAVOK 14/11 Q1018=
200807130030 METAR LPPR 130030Z 35005KT CAVOK 14/12 Q1018=
200807130000 METAR LPPR 130000Z 34006KT CAVOK 14/12 Q1017=
200807122330 METAR LPPR 122330Z 35006KT CAVOK 14/12 Q1018=
200807122300 METAR LPPR 122300Z 00000KT CAVOK 14/13 Q1017=
200807122230 METAR LPPR 122230Z 35006KT CAVOK 14/13 Q1017=
200807122200 METAR LPPR 122200Z 35006KT CAVOK 15/13 Q1017=
200807122130 METAR LPPR 122130Z 35006KT CAVOK 16/13 Q1017=
200807122100 METAR LPPR 122100Z 34008KT CAVOK 16/13 Q1017=
200807122030 METAR LPPR 122030Z 34011KT CAVOK 17/13 Q1017=
200807122000 METAR LPPR 122000Z 34014KT CAVOK 18/13 Q1017=
200807121930 METAR LPPR 121930Z 33013KT CAVOK 18/14 Q1017=
200807121900 METAR LPPR 121900Z 33017KT CAVOK 19/13 Q1017=
200807121830 METAR LPPR 121830Z 34019KT 9999 FEW017 20/13 Q1016=
200807121800 METAR LPPR 121800Z 34019KT 9999 FEW017 20/12 Q1016=
200807121730 METAR LPPR 121730Z 34017G27KT 9999 FEW017 21/13 Q1016=
200807121700 METAR LPPR 121700Z 33017KT 9999 FEW017 20/14 Q1016=
200807121630 METAR LPPR 121630Z 33018KT 9999 FEW017 20/14 Q1016=
200807121600 METAR LPPR 121600Z 32016KT 9999 FEW015 21/14 Q1016=
200807121530 METAR LPPR 121530Z 33017KT 9999 FEW015 21/14 Q1017=
200807121500 METAR LPPR 121500Z 33019KT 9999 FEW015 21/14 Q1017=
200807121430 METAR LPPR 121430Z 33018KT 9999 FEW015 20/14 Q1017=
200807121400 METAR LPPR 121400Z 33018KT 9999 FEW015 21/14 Q1017=
200807121330 METAR LPPR 121330Z 33018KT 9999 FEW015 21/14 Q1017=
200807121300 METAR LPPR 121300Z 32016KT 9999 FEW015 21/15 Q1017=
200807121230 METAR LPPR 121230Z 32014KT 9999 FEW015 21/15 Q1018=
200807121200 METAR LPPR 121200Z 31014KT 270V340 9999 FEW015 21/15 Q1018=
200807121130 METAR LPPR 121130Z 31011KT 280V340 9999 SCT015 20/15 Q1018=
200807121100 METAR LPPR 121100Z 32010KT 280V340 9999 FEW015 SCT035 20/16
                        Q1018=
200807121030 METAR LPPR 121030Z 32010KT 9999 FEW015 SCT035 19/15 Q1018=
200807121000 METAR LPPR 121000Z 31010KT 280V350 9999 FEW015 SCT035 19/15
                        Q1018=
200807120930 METAR LPPR 120930Z 31008KT 9999 SCT017 19/14 Q1018=
200807120900 METAR LPPR 120900Z 36008KT 320V040 9999 SCT015 19/14 Q1018=
200807120830 METAR LPPR 120830Z 35006KT 320V020 9999 FEW015 18/14 Q1018=
200807120800 METAR LPPR 120800Z 36005KT 9999 FEW015 17/14 Q1017=
200807120730 METAR LPPR 120730Z VRB03KT 9999 FEW015 16/15 Q1017=
200807120700 METAR LPPR 120700Z 00000KT 9999 FEW015 15/15 Q1017=
200807120630 METAR LPPR 120630Z 00000KT 9999 FEW015 14/14 Q1017=
200807120600 METAR LPPR 120600Z 00000KT 9999 FEW015 13/13 Q1017=
200807120530 METAR LPPR 120530Z 11003KT 9999 FEW015 13/13 Q1017=
200807120500 METAR LPPR 120500Z 00000KT CAVOK 12/12 Q1017=
200807120430 METAR LPPR 120430Z 00000KT CAVOK 13/13 Q1017=
200807120400 METAR LPPR 120400Z 00000KT CAVOK 13/13 Q1017=
200807120330 METAR LPPR 120330Z 00000KT 9999 FEW015 13/13 Q1017=
200807120300 METAR LPPR 120300Z 00000KT 9999 FEW015 13/13 Q1017=
200807120230 METAR LPPR 120230Z 00000KT 9999 FEW017 14/14 Q1017=
200807120200 METAR LPPR 120200Z 00000KT 9999 FEW017 14/14 Q1017=
200807120130 METAR LPPR 120130Z 04002KT 9999 SCT017 14/14 Q1018=
200807120100 METAR LPPR 120100Z 00000KT CAVOK 14/14 Q1018=
200807120030 METAR LPPR 120030Z 00000KT CAVOK 14/14 Q1018=
200807120000 METAR LPPR 120000Z 00000KT CAVOK 15/14 Q1018=
200807112330 METAR LPPR 112330Z 00000KT CAVOK 15/14 Q1018=
200807112300 METAR LPPR 112300Z 00000KT CAVOK 15/14 Q1018=
200807112230 METAR LPPR 112230Z 35002KT CAVOK 16/14 Q1018=
200807112200 METAR LPPR 112200Z 34003KT CAVOK 16/14 Q1018=
200807112130 METAR LPPR 112130Z 35004KT CAVOK 16/14 Q1018=
200807112100 METAR LPPR 112100Z 33007KT 9999 FEW017 17/15 Q1018=
200807112030 METAR LPPR 112030Z 33008KT 9999 FEW017 17/15 Q1018=
200807112000 METAR LPPR 112000Z 32009KT 9999 FEW017 18/15 Q1018=
200807111930 METAR LPPR 111930Z 33011KT 9999 FEW015 SCT100 19/15 Q1017=
200807111900 METAR LPPR 111900Z 33011KT 9999 FEW015 SCT100 19/15 Q1017=
200807111830 METAR LPPR 111830Z 33011KT 9999 FEW015 SCT090 19/15 Q1017=
200807111800 METAR LPPR 111800Z 32010KT 290V350 9999 SCT015 20/15 Q1017=
200807111730 METAR LPPR 111730Z 32012KT 9999 SCT015 SCT100 20/16 Q1017=
200807111700 METAR LPPR 111700Z 32011KT 280V340 9999 FEW015 SCT100 21/15
                        Q1017=
200807111630 METAR LPPR 111630Z 31008KT 260V350 9999 BKN012 21/17 Q1017=
200807111600 METAR LPPR 111600Z 28007KT 230V340 9999 BKN012 21/16 Q1017=
200807111530 METAR LPPR 111530Z 28008KT 240V320 9999 FEW008 SCT015 21/16
                        Q1017=
200807111500 METAR LPPR 111500Z 28007KT 230V330 9999 FEW008 BKN015 21/17
                        Q1018=
200807111430 METAR LPPR 111430Z 27007KT 210V320 9999 FEW012 BKN017 21/16
                        Q1018=
200807111400 METAR LPPR 111400Z 26007KT 200V310 9999 SCT012 SCT017 21/17
                        Q1018=
200807111330 METAR LPPR 111330Z VRB07KT 9999 SCT015 SCT035 21/17 Q1018=
200807111300 METAR LPPR 111300Z 25007KT 190V280 9999 FEW008 SCT015 20/17
                        Q1018=
200807111230 METAR LPPR 111230Z 22007KT 9999 FEW008 SCT015 19/17 Q1018=
200807111200 METAR LPPR 111200Z 22008KT 190V250 9999 FEW008 SCT015 BKN070
                        20/17 Q1018=
200807111130 METAR LPPR 111130Z 23006KT 200V270 9999 FEW008 SCT015 BKN060
                        20/18 Q1018=
200807111100 METAR LPPR 111100Z 21007KT 180V240 9999 FEW008 SCT015 BKN060
                        19/17 Q1018=
200807111030 METAR LPPR 111030Z 20005KT 160V250 9999 FEW008 BKN015 19/18
                        Q1018=
200807111000 METAR LPPR 111000Z 21005KT 170V250 9999 FEW008 SCT015 BKN020
                        18/17 Q1018=
200807110930 METAR LPPR 110930Z 24004KT 130V280 9999 -SHRA FEW006 SCT015
                        BKN020 18/17 Q1018=
200807110900 METAR LPPR 110900Z VRB03KT 9999 SCT013 BKN020 18/17 Q1018=
200807110830 METAR LPPR 110830Z 00000KT 8000 -SHRA SCT006 BKN012 19/17
                        Q1018=
200807110800 METAR LPPR 110800Z VRB03KT 9999 FEW012 BKN030 19/17 Q1017=
200807110730 METAR LPPR 110730Z 00000KT 9999 FEW013 SCT030 BKN060 19/17
                        Q1017=
200807110700 METAR LPPR 110700Z 00000KT 9999 FEW013 SCT040 BKN060 18/18
                        Q1017=
200807110630 METAR LPPR 110630Z 00000KT 9999 FEW015 SCT040 18/18 Q1017=
200807110600 METAR LPPR 110600Z 00000KT 9999 FEW017 SCT040 BKN060 18/18
                        Q1017=
200807110530 METAR LPPR 110530Z 00000KT 9999 FEW017 SCT030 BKN060 18/18
                        Q1017=
200807110500 METAR LPPR 110500Z 00000KT 9999 FEW017 BKN060 18/18 Q1017=
200807110430 METAR LPPR 110430Z 00000KT 9999 FEW017 BKN060 17/17 Q1017=
200807110400 METAR LPPR 110400Z 00000KT 9999 FEW017 BKN070 17/17 Q1017=
200807110330 METAR LPPR 110330Z 00000KT 9999 FEW017 SCT070 17/17 Q1017=
200807110300 METAR LPPR 110300Z 00000KT 9999 FEW017 SCT070 18/18 Q1017=
200807110230 METAR LPPR 110230Z 00000KT 9999 FEW017 SCT070 18/18 Q1017=
200807110200 METAR LPPR 110200Z 00000KT 9999 FEW017 SCT070 18/18 Q1017=
200807110130 METAR LPPR 110130Z 00000KT 9999 FEW017 SCT070 18/17 Q1017=
200807110100 METAR LPPR 110100Z 00000KT 9999 SCT017 18/17 Q1017=
200807110030 METAR LPPR 110030Z 33002KT 9999 SCT017 18/17 Q1018=
200807110000 METAR LPPR 110000Z 33002KT 9999 SCT017 18/17 Q1018=
200807102330 METAR LPPR 102330Z 32003KT 9999 BKN017 18/18 Q1018=
200807102300 METAR LPPR 102300Z 28006KT 9999 FEW007 SCT012 19/19 Q1018=
200807102230 METAR LPPR 102230Z 24006KT 200V270 8000 FEW002 BKN005 19/19
                        Q1018=
200807102200 METAR LPPR 102200Z 23007KT 180V270 3000 -RADZ BR FEW001 BKN005
                        20/20 Q1018=
200807102130 METAR LPPR 102130Z 20008KT 3000 -RADZ BR FEW003 SCT005 BKN030
                        20/20 Q1018=
200807102100 METAR LPPR 102100Z 20008KT 3000 -RADZ BR FEW003 SCT006 BKN030
                        20/20 Q1018=
200807102030 METAR LPPR 102030Z 20008KT 2000 -RADZ BR FEW003 SCT030 BKN070
                        20/20 Q1017=
200807102000 METAR LPPR 102000Z 20009KT 170V230 3000 BR FEW012 SCT030
                        BKN070 21/19 Q1018=
200807101930 METAR LPPR 101930Z 20009KT 170V230 9999 FEW017 SCT030 BKN070
                        21/19 Q1018=
200807101900 METAR LPPR 101900Z 21009KT 180V250 9999 FEW017 SCT030 BKN070
                        21/19 Q1018=
200807101830 METAR LPPR 101830Z 22009KT 190V250 9999 FEW017 SCT030 BKN070
                        21/19 Q1018=
200807101800 METAR LPPR 101800Z 22008KT 190V260 9999 SCT017 BKN070 22/19
                        Q1018=
200807101730 METAR LPPR 101730Z 22010KT 190V260 9999 SCT017 22/19 Q1018=
200807101700 METAR LPPR 101700Z 22011KT 180V250 9999 SCT017 23/18 Q1018=
200807101630 METAR LPPR 101630Z 23010KT 200V270 9999 SCT017 23/18 Q1018=
200807101600 METAR LPPR 101600Z 23011KT 190V250 9999 FEW017 23/18 Q1018=
200807101530 METAR LPPR 101530Z 22010KT 9999 FEW017 SCT080 24/18 Q1018=
200807101500 METAR LPPR 101500Z 22010KT 9999 FEW017 BKN030 23/18 Q1018=
200807101430 METAR LPPR 101430Z 22010KT 190V250 9999 FEW017 BKN030 22/18
                        Q1018=
200807101400 METAR LPPR 101400Z 23010KT 190V250 9999 FEW017 BKN030 22/18
                        Q1018=
200807101330 METAR LPPR 101330Z 23010KT 9999 FEW017 BKN030 23/17 Q1019=
200807101300 METAR LPPR 101300Z 24010KT 210V280 9999 FEW017 BKN030 23/17
                        Q1019=
200807101230 METAR LPPR 101230Z 21010KT 190V250 9999 FEW017 BKN030 24/17
                        Q1019=
200807101200 METAR LPPR 101200Z 22008KT 200V260 9999 FEW017 SCT040 24/17
                        Q1019=
200807101130 METAR LPPR 101130Z 23008KT 9999 FEW017 BKN035 23/17 Q1019=
200807101100 METAR LPPR 101100Z 23007KT 190V270 9999 SCT017 23/16 Q1019=
200807101030 METAR LPPR 101030Z 21007KT 160V250 9999 FEW017 BKN035 23/17
                        Q1019=
200807101000 METAR LPPR 101000Z 19007KT 150V230 9999 FEW017 BKN035 23/17
                        Q1019=
200807100930 METAR LPPR 100930Z 21006KT 170V240 9999 FEW017 BKN025 21/17
                        Q1019=
200807100900 METAR LPPR 100900Z 17005KT 140V200 9999 FEW017 BKN025 21/17
                        Q1019=
200807100830 METAR LPPR 100830Z 16004KT 110V180 9999 FEW017 BKN025 20/17
                        Q1019=
200807100800 METAR LPPR 100800Z 13005KT 8000 FEW017 BKN030 20/17 Q1019=
200807100730 METAR LPPR 100730Z VRB03KT 8000 SCT017 BKN030 20/17 Q1019=
200807100700 METAR LPPR 100700Z 14004KT 8000 SCT017 BKN030 19/17 Q1019=
200807100630 METAR LPPR 100630Z 14004KT 8000 SCT020 BKN030 19/17 Q1019=
200807100600 METAR LPPR 100600Z 14003KT 8000 SCT020 BKN025 19/17 Q1019=
200807100530 METAR LPPR 100530Z VRB02KT 9999 SCT015 BKN020 19/17 Q1019=
200807100500 METAR LPPR 100500Z 00000KT 9999 SCT013 BKN017 19/17 Q1019=
200807100430 METAR LPPR 100430Z 15003KT 9999 BKN017 18/17 Q1019=
200807100400 METAR LPPR 100400Z VRB02KT 9999 BKN020 18/18 Q1019=
200807100330 METAR LPPR 100330Z VRB02KT 9999 FEW017 BKN020 18/18 Q1019=
200807100300 METAR LPPR 100300Z 12002KT 9999 FEW008 SCT015 SCT020 18/18
                        Q1019=
200807100230 METAR LPPR 100230Z 00000KT 7000 SCT007 BKN012 17/17 Q1019=
200807100200 METAR LPPR 100200Z 00000KT 4500W BR VCFG SCT004 BKN011 17/17
                        Q1019=
200807100130 METAR LPPR 100130Z 00000KT 4500W R17/1200VP1500 R35/P1500
                        BR VCFG SCT005 SCT012 17/17 Q1019=
200807100100 METAR LPPR 100100Z 00000KT 7000 SCT008 SCT012 17/17 Q1020=
200807100030 METAR LPPR 100030Z 00000KT 9999 FEW008 SCT012 17/17 Q1020=
200807100000 METAR LPPR 100000Z 00000KT 9999 SCT008 SCT012 17/17 Q1020=
200807092330 METAR LPPR 092330Z 00000KT 9999 SCT008 SCT012 18/18 Q1020=
200807092300 METAR LPPR 092300Z 00000KT 9999 SCT008 SCT012 18/18 Q1020=
200807092230 METAR LPPR 092230Z 00000KT 9999 FEW008 17/17 Q1020=
200807092200 METAR LPPR 092200Z 00000KT 9999 FEW008 18/17 Q1020=
200807092130 METAR LPPR 092130Z 00000KT 9999 FEW008 18/17 Q1020=
200807092100 METAR LPPR 092100Z 00000KT CAVOK 18/18 Q1020=
200807092030 METAR LPPR 092030Z 32003KT 9999 FEW008 19/17 Q1020=
200807092000 METAR LPPR 092000Z 32006G16KT 280V350 9999 FEW008 19/18 Q1019=
200807091930 METAR LPPR 091930Z 32008KT 9999 SCT008 20/17 Q1019=
200807091900 METAR LPPR 091900Z 32009KT 290V350 9999 SCT008 20/18 Q1019=
200807091830 METAR LPPR 091830Z 32009KT 9999 SCT008 20/17 Q1019=
200807091800 METAR LPPR 091800Z 31010G22KT 280V340 9999 SCT008 21/17 Q1019=
200807091730 METAR LPPR 091730Z 29009KT 260V340 CAVOK 21/17 Q1019=
200807091700 METAR LPPR 091700Z 30009KT 250V330 CAVOK 21/17 Q1019=
200807091630 METAR LPPR 091630Z 29008KT 260V330 CAVOK 22/17 Q1019=
200807091600 METAR LPPR 091600Z 29009KT 260V330 CAVOK 22/17 Q1019=
200807091530 METAR LPPR 091530Z 31008KT 260V330 CAVOK 22/17 Q1019=
200807091500 METAR LPPR 091500Z 30009KT CAVOK 22/16 Q1019=
200807091430 METAR LPPR 091430Z 28009KT CAVOK 22/15 Q1019=
200807091400 METAR LPPR 091400Z 28009KT 260V330 CAVOK 22/16 Q1019=
200807091330 METAR LPPR 091330Z 30008KT 260V340 CAVOK 22/16 Q1019=
200807091300 METAR LPPR 091300Z 32009KT CAVOK 22/15 Q1020=
200807091230 METAR LPPR 091230Z 31011G21KT 270V350 CAVOK 21/15 Q1020=
200807091200 METAR LPPR 091200Z 31010KT 290V350 CAVOK 21/14 Q1020=
200807091130 METAR LPPR 091130Z 31010KT CAVOK 21/14 Q1020=
200807091100 METAR LPPR 091100Z 31008KT 270V350 CAVOK 22/14 Q1020=
200807091030 METAR LPPR 091030Z 29007G20KT 260V330 CAVOK 20/14 Q1020=
200807091000 METAR LPPR 091000Z 28005KT 250V320 CAVOK 20/14 Q1020=
200807090930 METAR LPPR 090930Z 29004KT 260V340 CAVOK 20/15 Q1020=
200807090900 METAR LPPR 090900Z VRB03KT CAVOK 20/15 Q1020=
200807090830 METAR LPPR 090830Z 00000KT CAVOK 20/15 Q1019=
200807090800 METAR LPPR 090800Z 00000KT CAVOK 18/15 Q1020=
200807090730 METAR LPPR 090730Z VRB02KT CAVOK 17/15 Q1019=
200807090700 METAR LPPR 090700Z 10004KT CAVOK 15/15 Q1019=
200807090630 METAR LPPR 090630Z VRB03KT CAVOK 14/14 Q1019=
200807090600 METAR LPPR 090600Z 00000KT CAVOK 12/12 Q1019=
200807090530 METAR LPPR 090530Z 00000KT CAVOK 12/12 Q1019=
200807090500 METAR LPPR 090500Z 00000KT CAVOK 12/12 Q1019=
200807090430 METAR LPPR 090430Z 15003KT CAVOK 12/12 Q1019=
200807090400 METAR LPPR 090400Z 00000KT CAVOK 12/12 Q1019=
200807090330 METAR LPPR 090330Z 00000KT CAVOK 13/13 Q1018=
200807090300 METAR LPPR 090300Z 00000KT CAVOK 13/13 Q1018=
200807090230 METAR LPPR 090230Z 00000KT CAVOK 13/12 Q1019=
200807090200 METAR LPPR 090200Z 00000KT CAVOK 13/12 Q1018=
200807090130 METAR LPPR 090130Z 00000KT CAVOK 14/13 Q1019=
200807090100 METAR LPPR 090100Z 00000KT CAVOK 14/13 Q1019=
200807090030 METAR LPPR 090030Z 00000KT CAVOK 14/13 Q1019=
200807090000 METAR LPPR 090000Z 35002KT CAVOK 15/13 Q1019=
200807082330 METAR LPPR 082330Z 35003KT CAVOK 15/13 Q1019=
200807082300 METAR LPPR 082300Z 35003KT CAVOK 15/14 Q1019=
200807082230 METAR LPPR 082230Z 35005KT 320V020 CAVOK 15/14 Q1019=
200807082200 METAR LPPR 082200Z 33004KT CAVOK 16/13 Q1019=
200807082130 METAR LPPR 082130Z 32005KT CAVOK 16/13 Q1019=
200807082100 METAR LPPR 082100Z 33006KT CAVOK 17/13 Q1019=
200807082030 METAR LPPR 082030Z 31006KT CAVOK 17/14 Q1019=
200807082000 METAR LPPR 082000Z 33007KT CAVOK 18/14 Q1018=
200807081930 METAR LPPR 081930Z 33008KT CAVOK 19/14 Q1018=
200807081900 METAR LPPR 081900Z 32007G18KT 280V350 CAVOK 20/15 Q1018=
200807081830 METAR LPPR 081830Z 32009KT CAVOK 20/15 Q1018=
200807081800 METAR LPPR 081800Z 32010KT 300V360 CAVOK 21/14 Q1018=
200807081730 METAR LPPR 081730Z 33011KT CAVOK 21/14 Q1019=
200807081700 METAR LPPR 081700Z 33012KT 280V350 CAVOK 21/14 Q1019=
200807081630 METAR LPPR 081630Z 33014KT CAVOK 21/14 Q1019=
200807081600 METAR LPPR 081600Z 33011KT 290V350 CAVOK 22/14 Q1019=
200807081530 METAR LPPR 081530Z 31012KT CAVOK 21/15 Q1019=
200807081500 METAR LPPR 081500Z 30011KT CAVOK 21/15 Q1019=
200807081430 METAR LPPR 081430Z 32012KT CAVOK 21/15 Q1019=
200807081400 METAR LPPR 081400Z 31012KT 280V340 CAVOK 21/15 Q1019=
200807081330 METAR LPPR 081330Z 32012KT 290V350 CAVOK 21/15 Q1019=
200807081300 METAR LPPR 081300Z 32013KT 9999 FEW020 21/15 Q1020=
200807081230 METAR LPPR 081230Z 32012KT 9999 FEW020 21/15 Q1020=
200807081200 METAR LPPR 081200Z 31010KT 270V330 9999 FEW020 22/15 Q1020=
200807081130 METAR LPPR 081130Z 30008KT 270V340 9999 FEW020 22/15 Q1020=
200807081100 METAR LPPR 081100Z 29009KT 260V340 9999 FEW020 21/14 Q1020=
200807081030 METAR LPPR 081030Z 29007G19KT 260V330 9999 FEW020 21/14 Q1020=
200807081000 METAR LPPR 081000Z 28007KT 250V330 9999 FEW020 21/14 Q1020=
200807080930 METAR LPPR 080930Z 32005KT 280V020 9999 FEW020 21/14 Q1020=
200807080900 METAR LPPR 080900Z VRB02KT 9999 FEW017 21/14 Q1020=
200807080830 METAR LPPR 080830Z VRB02KT 9999 FEW017 21/13 Q1020=
200807080800 METAR LPPR 080800Z 00000KT 9999 FEW017 19/13 Q1020=
200807080730 METAR LPPR 080730Z VRB03KT 9999 FEW017 18/13 Q1020=
200807080700 METAR LPPR 080700Z 00000KT 9999 FEW017 18/13 Q1020=
200807080630 METAR LPPR 080630Z 35002KT 9999 FEW017 16/14 Q1020=
200807080600 METAR LPPR 080600Z 00000KT 9999 FEW015 SCT030 16/13 Q1020=
200807080530 METAR LPPR 080530Z 00000KT 9999 FEW015 BKN030 16/13 Q1020=
200807080500 METAR LPPR 080500Z VRB02KT 9999 FEW015 BKN030 16/13 Q1019=
200807080430 METAR LPPR 080430Z VRB02KT 9999 FEW015 BKN030 16/13 Q1019=
200807080400 METAR LPPR 080400Z 00000KT 9999 FEW015 BKN025 16/13 Q1019=
200807080330 METAR LPPR 080330Z 00000KT 9999 FEW015 SCT030 16/13 Q1019=
200807080300 METAR LPPR 080300Z 00000KT 9999 FEW009 SCT017 16/12 Q1019=
200807080230 METAR LPPR 080230Z 00000KT 9999 SCT009 17/12 Q1019=
200807080200 METAR LPPR 080200Z VRB03KT 9999 FEW017 SCT030 BKN070 17/12
                        Q1019=
200807080130 METAR LPPR 080130Z 00000KT 9999 FEW017 SCT030 BKN070 17/12
                        Q1020=
200807080100 METAR LPPR 080100Z VRB03KT 9999 FEW017 SCT030 BKN070 17/12
                        Q1020=
200807080030 METAR LPPR 080030Z VRB03KT 9999 FEW017 SCT030 BKN070 17/13
                        Q1020=
200807080000 METAR LPPR 080000Z VRB02KT 9999 FEW017 SCT030 BKN070 16/13
                        Q1020=
200807072330 METAR LPPR 072330Z 00000KT 9999 FEW017 SCT035 BKN070 16/14
                        Q1020=
200807072300 METAR LPPR 072300Z 36002KT 9999 FEW017 SCT040 BKN070 16/13
                        Q1020=
200807072230 METAR LPPR 072230Z 01003KT 9999 FEW017 SCT040 BKN070 16/13
                        Q1021=
200807072200 METAR LPPR 072200Z 36002KT 9999 FEW017 BKN060 17/13 Q1021=
200807072130 METAR LPPR 072130Z 36003KT 9999 FEW017 BKN060 17/13 Q1021=
200807072100 METAR LPPR 072100Z 34006KT 320V030 9999 FEW017 BKN060 17/13
                        Q1020=
200807072030 METAR LPPR 072030Z 33006KT 9999 FEW017 BKN060 17/13 Q1020=
200807072000 METAR LPPR 072000Z 34006KT 9999 FEW017 BKN060 18/13 Q1020=
200807071930 METAR LPPR 071930Z 32009KT 9999 FEW017 BKN070 18/13 Q1020=
200807071900 METAR LPPR 071900Z 32009KT 300V360 9999 FEW017 SCT080 18/13
                        Q1020=
200807071830 METAR LPPR 071830Z 32010KT 290V350 9999 FEW017 19/12 Q1020=
200807071800 METAR LPPR 071800Z 32010KT 280V340 9999 FEW017 19/12 Q1020=
200807071730 METAR LPPR 071730Z 32010KT 280V340 9999 FEW017 20/11 Q1020=
200807071700 METAR LPPR 071700Z 31010KT 9999 FEW017 20/12 Q1020=
200807071630 METAR LPPR 071630Z 30012KT 9999 FEW017 20/13 Q1020=
200807071600 METAR LPPR 071600Z 32012KT 290V350 9999 FEW017 20/13 Q1020=
200807071530 METAR LPPR 071530Z 32011KT 290V350 9999 FEW017 20/13 Q1020=
200807071500 METAR LPPR 071500Z 31010KT 270V340 9999 FEW017 20/14 Q1020=
200807071430 METAR LPPR 071430Z 30011KT 260V340 9999 FEW017 20/13 Q1020=
200807071400 METAR LPPR 071400Z 29011KT 260V330 9999 FEW017 20/13 Q1020=
200807071330 METAR LPPR 071330Z 30011KT 270V330 9999 FEW017 20/13 Q1020=
200807071300 METAR LPPR 071300Z 30011KT 260V330 9999 FEW017 20/12 Q1020=
200807071230 METAR LPPR 071230Z 28011KT 250V320 9999 FEW017 20/12 Q1020=
200807071200 METAR LPPR 071200Z 28010KT 240V300 9999 FEW017 BKN040 20/12
                        Q1020=
200807071130 METAR LPPR 071130Z 28008KT 220V330 9999 FEW017 20/12 Q1020=
200807071100 METAR LPPR 071100Z 31005KT 270V020 9999 FEW017 20/11 Q1020=
200807071030 METAR LPPR 071030Z 28008KT 240V330 9999 SCT017 20/12 Q1020=
200807071000 METAR LPPR 071000Z VRB03KT 9999 FEW017 SCT025 19/12 Q1020=
200807070930 METAR LPPR 070930Z 30004KT 260V350 9999 FEW017 SCT025 18/12
                        Q1020=
200807070900 METAR LPPR 070900Z 33005KT 280V030 9999 FEW017 SCT025 18/12
                        Q1020=
200807070830 METAR LPPR 070830Z VRB03KT 9999 FEW017 18/12 Q1020=
200807070800 METAR LPPR 070800Z 00000KT 9999 FEW017 17/13 Q1020=
200807070730 METAR LPPR 070730Z VRB03KT 9999 FEW017 16/13 Q1020=
200807070700 METAR LPPR 070700Z 11004KT 9999 FEW030 14/13 Q1019=
200807070630 METAR LPPR 070630Z 00000KT 9999 FEW017 13/13 Q1019=
200807070600 METAR LPPR 070600Z 00000KT 9999 FEW017 12/12 Q1019=
200807070530 METAR LPPR 070530Z 00000KT 9999 FEW030 12/12 Q1019=
200807070500 METAR LPPR 070500Z 08002KT 9999 FEW030 12/12 Q1019=
200807070430 METAR LPPR 070430Z 00000KT CAVOK 12/11 Q1019=
200807070400 METAR LPPR 070400Z 00000KT CAVOK 12/11 Q1019=
200807070330 METAR LPPR 070330Z 11003KT CAVOK 12/12 Q1019=
200807070300 METAR LPPR 070300Z 00000KT CAVOK 12/12 Q1019=
200807070230 METAR LPPR 070230Z 00000KT 9999 FEW020 12/12 Q1019=
200807070200 METAR LPPR 070200Z 00000KT 9999 FEW020 12/12 Q1019=
200807070130 METAR LPPR 070130Z 00000KT 9999 FEW020 12/12 Q1019=
200807070100 METAR LPPR 070100Z 00000KT 9999 FEW020 13/12 Q1019=
200807070030 METAR LPPR 070030Z 00000KT CAVOK 13/12 Q1019=
200807070000 METAR LPPR 070000Z 00000KT CAVOK 13/13 Q1019=
200807062330 METAR LPPR 062330Z 33003KT CAVOK 14/12 Q1019=
200807062300 METAR LPPR 062300Z 35003KT CAVOK 14/12 Q1019=
200807062230 METAR LPPR 062230Z 34003KT CAVOK 14/12 Q1019=
200807062200 METAR LPPR 062200Z 34003KT CAVOK 14/12 Q1020=
200807062130 METAR LPPR 062130Z 32004KT 9999 FEW017 15/12 Q1019=
200807062100 METAR LPPR 062100Z 34004KT 9999 FEW017 15/11 Q1019=
200807062030 METAR LPPR 062030Z 33007KT 9999 FEW017 16/12 Q1019=
200807062000 METAR LPPR 062000Z 33010KT 9999 FEW017 17/12 Q1019=
200807061930 METAR LPPR 061930Z 33010KT 9999 FEW017 18/12 Q1019=
200807061900 METAR LPPR 061900Z 33012KT 290V350 9999 FEW017 18/11 Q1019=
200807061830 METAR LPPR 061830Z 33013KT 9999 FEW017 18/12 Q1019=
200807061800 METAR LPPR 061800Z 33015KT 9999 FEW017 19/12 Q1019=
200807061730 METAR LPPR 061730Z 33014KT 9999 FEW017 19/12 Q1019=
200807061700 METAR LPPR 061700Z 32014G24KT 290V350 9999 FEW017 19/13 Q1019=
200807061630 METAR LPPR 061630Z 31014KT 9999 FEW017 20/12 Q1019=
200807061600 METAR LPPR 061600Z 32013KT 280V350 9999 FEW017 20/12 Q1019=
200807061530 METAR LPPR 061530Z 31014KT 290V350 9999 FEW017 20/13 Q1019=
200807061500 METAR LPPR 061500Z 32015G25KT 9999 FEW017 20/13 Q1019=
200807061430 METAR LPPR 061430Z 30013KT 280V340 9999 FEW017 20/13 Q1019=
200807061400 METAR LPPR 061400Z 31013KT 280V350 9999 FEW017 20/12 Q1019=
200807061330 METAR LPPR 061330Z 31013KT 280V350 9999 FEW017 20/13 Q1019=
200807061300 METAR LPPR 061300Z 33013KT 9999 FEW017 20/12 Q1019=
200807061230 METAR LPPR 061230Z 31011KT 270V340 9999 FEW017 20/12 Q1019=
200807061200 METAR LPPR 061200Z 32013KT 9999 FEW017 19/12 Q1019=
200807061130 METAR LPPR 061130Z 32012G22KT 280V350 9999 SCT017 20/11 Q1019=
200807061100 METAR LPPR 061100Z 32011KT 9999 SCT017 19/11 Q1019=
200807061030 METAR LPPR 061030Z 32011KT 9999 SCT017 19/12 Q1019=
200807061000 METAR LPPR 061000Z 31012KT 9999 SCT017 19/12 Q1019=
200807060930 METAR LPPR 060930Z 31008KT 280V340 9999 SCT017 18/12 Q1019=
200807060900 METAR LPPR 060900Z 32008KT 280V020 9999 SCT017 18/13 Q1019=
200807060830 METAR LPPR 060830Z 35008KT 320V020 9999 FEW017 18/12 Q1019=
200807060800 METAR LPPR 060800Z 36005KT 330V030 9999 FEW017 17/12 Q1019=
200807060730 METAR LPPR 060730Z VRB03KT 9999 FEW017 16/12 Q1019=
200807060700 METAR LPPR 060700Z 35002KT 9999 FEW017 15/12 Q1019=
200807060630 METAR LPPR 060630Z 00000KT 9999 FEW017 13/12 Q1018=
200807060600 METAR LPPR 060600Z 00000KT CAVOK 11/10 Q1018=
200807060530 METAR LPPR 060530Z 00000KT CAVOK 11/10 Q1018=
200807060500 METAR LPPR 060500Z 00000KT CAVOK 11/10 Q1018=
200807060430 METAR LPPR 060430Z 00000KT CAVOK 12/10 Q1018=
200807060400 METAR LPPR 060400Z 35003KT CAVOK 12/11 Q1018=
200807060330 METAR LPPR 060330Z 35003KT CAVOK 12/10 Q1018=
200807060300 METAR LPPR 060300Z 34003KT CAVOK 12/11 Q1018=
200807060230 METAR LPPR 060230Z 35003KT CAVOK 13/11 Q1018=
200807060200 METAR LPPR 060200Z 35003KT CAVOK 13/11 Q1018=
200807060130 METAR LPPR 060130Z 34005KT CAVOK 14/12 Q1018=
200807060100 METAR LPPR 060100Z 34006KT CAVOK 14/12 Q1018=
200807060030 METAR LPPR 060030Z 34007KT CAVOK 15/13 Q1018=
200807060000 METAR LPPR 060000Z 33009KT CAVOK 15/13 Q1019=
200807052330 METAR LPPR 052330Z 34008KT CAVOK 15/13 Q1019=
200807052300 METAR LPPR 052300Z 34009KT CAVOK 15/13 Q1019=
200807052230 METAR LPPR 052230Z 34010KT CAVOK 15/13 Q1019=
200807052200 METAR LPPR 052200Z 34011KT CAVOK 16/13 Q1019=
200807052130 METAR LPPR 052130Z 33013KT CAVOK 16/13 Q1019=
200807052100 METAR LPPR 052100Z 33012KT CAVOK 16/13 Q1019=
200807052030 METAR LPPR 052030Z 33011KT CAVOK 16/13 Q1018=
200807052000 METAR LPPR 052000Z 33011KT CAVOK 17/13 Q1018=
200807051930 METAR LPPR 051930Z 33013KT CAVOK 17/13 Q1018=
200807051900 METAR LPPR 051900Z 33014KT CAVOK 18/12 Q1018=
200807051830 METAR LPPR 051830Z 33013KT CAVOK 18/12 Q1018=
200807051800 METAR LPPR 051800Z 33015KT CAVOK 19/12 Q1018=
200807051730 METAR LPPR 051730Z 32012KT 290V350 CAVOK 20/12 Q1018=
200807051700 METAR LPPR 051700Z 32012KT 9999 FEW017 20/12 Q1018=
200807051630 METAR LPPR 051630Z 33014KT 9999 FEW017 20/10 Q1018=
200807051600 METAR LPPR 051600Z 33014KT 9999 FEW017 21/12 Q1018=
200807051530 METAR LPPR 051530Z 33014KT 9999 FEW017 21/13 Q1018=
200807051500 METAR LPPR 051500Z 32013KT 290V350 9999 FEW017 21/13 Q1019=
200807051430 METAR LPPR 051430Z 32013KT 9999 FEW017 21/14 Q1019=
200807051400 METAR LPPR 051400Z 31013KT 9999 FEW017 21/13 Q1019=
200807051330 METAR LPPR 051330Z 32012KT 290V350 9999 FEW017 21/13 Q1019=
200807051300 METAR LPPR 051300Z 31012KT 270V330 9999 FEW015 21/13 Q1019=
200807051230 METAR LPPR 051230Z 31010KT 270V340 9999 FEW015 21/13 Q1019=
200807051200 METAR LPPR 051200Z 31009KT 270V330 9999 SCT015 21/14 Q1019=
200807051130 METAR LPPR 051130Z 32008KT 270V360 9999 SCT015 21/15 Q1019=
200807051100 METAR LPPR 051100Z 32007KT 290V010 9999 SCT015 20/16 Q1019=
200807051030 METAR LPPR 051030Z 34004KT 290V020 9999 FEW015 SCT040 20/16
                        Q1019=
200807051000 METAR LPPR 051000Z 33006KT 300V360 9999 FEW015 SCT040 BKN080
                        19/17 Q1019=
200807050930 METAR LPPR 050930Z 32006G17KT 270V350 9999 FEW012 SCT040
                        BKN080 18/18 Q1019=
200807050900 METAR LPPR 050900Z 33006KT 290V350 9000 FEW012 SCT040 BKN080
                        18/18 Q1019=
200807050830 METAR LPPR 050830Z 33004KT 270V020 5000 BR SCT007 SCT012
                        BKN040 18/18 Q1019=
200807050800 METAR LPPR 050800Z 31004KT 270V330 5000 BR SCT006 BKN040
                        17/17 Q1019=
200807050730 METAR LPPR 050730Z 00000KT 8000 SCT008 BKN040 17/17 Q1019=
200807050700 METAR LPPR 050700Z 00000KT 8000 FEW010 BKN035 17/17 Q1018=
200807050630 METAR LPPR 050630Z 00000KT 7000 FEW009 BKN035 16/16 Q1018=
200807050600 METAR LPPR 050600Z 00000KT 5000 BR FEW009 BKN035 16/16 Q1018=
200807050530 METAR LPPR 050530Z 00000KT 2000N R17/1000VP1500 R35/P1500
                        BCFG BR FEW006 BKN035 15/15 Q1018=
200807050500 METAR LPPR 050500Z 00000KT 2000N R17/0750VP1500 R35/P1500
                        BCFG BR FEW006 SCT030 15/15 Q1018=
200807050430 METAR LPPR 050430Z 00000KT 3000 R17/1300VP1500 R35/1000VP1500
                        BR FEW006 SCT030 15/15 Q1018=
200807050400 METAR LPPR 050400Z 00000KT 3000 R17/0800N R35/1200VP1500
                        BCFG FEW006 SCT030 14/14 Q1018=
200807050330 METAR LPPR 050330Z 00000KT 3000 BR FEW006 15/15 Q1018=
200807050300 METAR LPPR 050300Z 00000KT 3000 BR FEW006 15/15 Q1018=
200807050230 METAR LPPR 050230Z 00000KT 3000 BR FEW006 16/16 Q1018=
200807050200 METAR LPPR 050200Z 00000KT 3000 BR SCT006 16/16 Q1018=
200807050130 METAR LPPR 050130Z 05002KT 4000 BR BKN004 16/16 Q1018=
200807050100 METAR LPPR 050100Z 30003KT 4000 BR BKN004 17/17 Q1018=
200807050030 METAR LPPR 050030Z 00000KT 2000 BR BKN004 SCT008 17/17 Q1018=
200807050000 METAR LPPR 050000Z 00000KT 2000 BR BKN004 SCT008 17/17 Q1018=
200807042330 METAR LPPR 042330Z 00000KT 9999 SCT007 17/17 Q1018=
200807042300 METAR LPPR 042300Z 00000KT 8000 BKN007 SCT012 18/18 Q1018=
200807042230 METAR LPPR 042230Z 00000KT 8000 FEW008 BKN012 18/18 Q1018=
200807042200 METAR LPPR 042200Z 00000KT 8000 FEW008 BKN020 18/18 Q1018=
200807042130 METAR LPPR 042130Z VRB02KT 8000 FEW008 BKN020 18/18 Q1018=
200807042100 METAR LPPR 042100Z 00000KT 4000 -DZ BR SCT004 BKN012 18/18
                        Q1017=
200807042030 METAR LPPR 042030Z VRB02KT 2000 RADZ BR BKN001 BKN003 18/18
                        Q1017=
200807042000 METAR LPPR 042000Z 30004KT 270V340 2000 -DZ BR BKN001 BKN003
                        18/18 Q1017=
200807041930 METAR LPPR 041930Z 23008KT 170V300 2000 -DZ BR BKN001 BKN002
                        19/19 Q1017=
200807041900 METAR LPPR 041900Z 20010KT 3000 -DZ BR SCT002 BKN004 20/19
                        Q1017=
200807041830 METAR LPPR 041830Z 19012KT 6000 SCT003 BKN006 20/19 Q1017=
200807041800 METAR LPPR 041800Z 19012KT 8000 SCT003 SCT007 BKN012 20/19
                        Q1017=
200807041730 METAR LPPR 041730Z 20010KT 170V230 8000 SCT003 SCT006 BKN010
                        20/19 Q1017=
200807041700 METAR LPPR 041700Z 20011KT 8000 SCT003 SCT006 BKN009 20/19
                        Q1017=
200807041630 METAR LPPR 041630Z 20011KT 8000 SCT002 SCT006 BKN009 20/19
                        Q1017=
200807041600 METAR LPPR 041600Z 19013KT 170V230 8000 SCT003 BKN006 20/18
                        Q1017=
200807041530 METAR LPPR 041530Z 20012KT 9999 SCT004 BKN006 20/18 Q1017=
200807041500 METAR LPPR 041500Z 20013KT 9999 SCT005 SCT007 BKN012 20/18
                        Q1017=
200807041430 METAR LPPR 041430Z 20014KT 9999 SCT006 SCT008 BKN012 20/18
                        Q1017=
200807041400 METAR LPPR 041400Z 19015KT 9999 SCT006 SCT008 BKN012 20/17
                        Q1017=
200807041330 METAR LPPR 041330Z 19014KT 9999 SCT008 BKN012 20/17 Q1017=
200807041300 METAR LPPR 041300Z 19013KT 8000 -RADZ SCT009 BKN012 20/18
                        Q1017=
200807041230 METAR LPPR 041230Z 20015KT 6000 -DZ SCT009 BKN012 20/16 Q1017=
200807041200 METAR LPPR 041200Z 18016KT 9999 OVC012 21/15 Q1017=
200807041130 METAR LPPR 041130Z 18016KT 9999 OVC012 21/15 Q1017=
200807041100 METAR LPPR 041100Z 18016KT 9999 BKN013 BKN070 20/15 Q1017=
200807041030 METAR LPPR 041030Z 17014KT 9999 BKN013 BKN070 20/15 Q1017=
200807041000 METAR LPPR 041000Z 17012KT 9999 BKN013 BKN070 19/15 Q1017=
200807040930 METAR LPPR 040930Z 17012KT 9999 BKN013 BKN070 19/15 Q1018=
200807040900 METAR LPPR 040900Z 17009KT 9999 BKN013 BKN070 18/15 Q1018=
200807040830 METAR LPPR 040830Z 16010KT 140V200 9999 BKN012 BKN070 18/14
                        Q1018=
200807040800 METAR LPPR 040800Z 15007KT 120V180 9999 SCT015 BKN080 18/13
                        Q1017=
200807040730 METAR LPPR 040730Z 14008KT 9999 SCT017 BKN080 17/12 Q1017=
200807040700 METAR LPPR 040700Z 14007KT 9999 SCT020 BKN080 17/12 Q1017=
200807040630 METAR LPPR 040630Z 14007KT 9999 SCT020 BKN080 17/12 Q1017=
200807040600 METAR LPPR 040600Z 12007KT 9999 SCT025 BKN080 17/11 Q1017=
200807040530 METAR LPPR 040530Z 12006KT 9999 SCT030 BKN080 16/11 Q1017=
200807040500 METAR LPPR 040500Z 12006KT 9999 FEW025 SCT035 BKN080 16/11
                        Q1017=
200807040430 METAR LPPR 040430Z 13007KT 9999 SCT035 BKN060 16/12 Q1017=
200807040400 METAR LPPR 040400Z 13006KT 9999 SCT035 SCT060 16/12 Q1017=
200807040330 METAR LPPR 040330Z 13006KT 9999 SCT035 SCT060 16/12 Q1017=
200807040300 METAR LPPR 040300Z 13007KT 9999 SCT035 SCT060 16/12 Q1017=
200807040230 METAR LPPR 040230Z 12006KT 9999 BKN035 SCT060 16/13 Q1017=
200807040200 METAR LPPR 040200Z 12007KT 9999 SCT035 SCT060 16/13 Q1017=
200807040130 METAR LPPR 040130Z 12006KT 9999 SCT035 SCT060 16/13 Q1018=
200807040100 METAR LPPR 040100Z 12005KT 9999 SCT045 16/13 Q1018=
200807040030 METAR LPPR 040030Z 14005KT 9999 SCT045 16/13 Q1018=
200807040000 METAR LPPR 040000Z 13005KT 9999 SCT045 16/13 Q1018=
200807032330 METAR LPPR 032330Z 16004KT CAVOK 16/13 Q1018=
200807032300 METAR LPPR 032300Z 18002KT CAVOK 16/12 Q1019=
200807032230 METAR LPPR 032230Z 00000KT CAVOK 16/12 Q1019=
200807032200 METAR LPPR 032200Z VRB03KT CAVOK 16/12 Q1019=
200807032130 METAR LPPR 032130Z 00000KT CAVOK 16/13 Q1019=
200807032100 METAR LPPR 032100Z 00000KT CAVOK 17/13 Q1019=
200807032030 METAR LPPR 032030Z 00000KT CAVOK 17/13 Q1018=
200807032000 METAR LPPR 032000Z 28003KT CAVOK 18/13 Q1018=
200807031930 METAR LPPR 031930Z VRB03KT CAVOK 18/13 Q1018=
200807031900 METAR LPPR 031900Z 30005KT 260V340 CAVOK 18/13 Q1019=
200807031830 METAR LPPR 031830Z 28006KT 250V330 9999 FEW015 SCT090 18/13
                        Q1019=
200807031800 METAR LPPR 031800Z 28007KT 9999 FEW015 SCT090 19/12 Q1018=
200807031730 METAR LPPR 031730Z 31009KT 280V350 9999 FEW015 SCT090 19/12
                        Q1018=
200807031700 METAR LPPR 031700Z 30008KT 270V330 9999 FEW015 SCT090 20/12
                        Q1018=
200807031630 METAR LPPR 031630Z 30009KT 260V330 9999 FEW015 20/12 Q1018=
200807031600 METAR LPPR 031600Z 28008G21KT 240V020 9999 FEW015 SCT200
                        20/13 Q1018=
200807031530 METAR LPPR 031530Z 30009KT 270V330 9999 FEW015 20/12 Q1019=
200807031500 METAR LPPR 031500Z 30008KT 270V340 9999 FEW015 SCT200 20/12
                        Q1019=
200807031430 METAR LPPR 031430Z 28010KT 9999 FEW015 SCT200 20/12 Q1019=
200807031400 METAR LPPR 031400Z 28010KT 9999 FEW015 20/12 Q1019=
200807031330 METAR LPPR 031330Z 28010KT 250V320 9999 FEW015 20/12 Q1019=
200807031300 METAR LPPR 031300Z 30009KT 9999 FEW015 20/11 Q1019=
200807031230 METAR LPPR 031230Z 30010KT 260V330 9999 SCT015 20/12 Q1020=
200807031200 METAR LPPR 031200Z 29008G19KT 9999 SCT015 20/12 Q1019=
200807031130 METAR LPPR 031130Z 28008KT 250V310 9999 SCT015 20/13 Q1019=
200807031100 METAR LPPR 031100Z 28008KT 230V340 9999 SCT015 20/13 Q1020=
200807031030 METAR LPPR 031030Z 29007KT 240V320 9999 SCT015 20/13 Q1019=
200807031000 METAR LPPR 031000Z 29005KT 260V330 9999 SCT015 18/12 Q1019=
200807030930 METAR LPPR 030930Z 28006KT 250V330 9999 SCT015 19/13 Q1019=
200807030900 METAR LPPR 030900Z VRB03KT 9999 SCT015 18/13 Q1020=
200807030830 METAR LPPR 030830Z VRB03KT 9999 SCT013 SCT060 18/13 Q1019=
200807030800 METAR LPPR 030800Z 00000KT 9999 FEW013 SCT060 18/13 Q1019=
200807030730 METAR LPPR 030730Z 00000KT 9999 FEW013 SCT060 17/14 Q1019=
200807030700 METAR LPPR 030700Z 13003KT 9999 FEW013 SCT040 16/14 Q1019=
200807030630 METAR LPPR 030630Z 11002KT 9999 FEW013 SCT040 14/14 Q1019=
200807030600 METAR LPPR 030600Z 00000KT 9999 FEW013 SCT040 14/14 Q1019=
200807030530 METAR LPPR 030530Z 10004KT 9999 FEW013 SCT040 14/14 Q1019=
200807030500 METAR LPPR 030500Z VRB03KT 9999 FEW013 SCT080 13/13 Q1018=
200807030430 METAR LPPR 030430Z 00000KT CAVOK 12/12 Q1018=
200807030400 METAR LPPR 030400Z 00000KT CAVOK 12/12 Q1018=
200807030330 METAR LPPR 030330Z 00000KT 9999 FEW008 13/12 Q1018=
200807030300 METAR LPPR 030300Z 00000KT 9999 FEW008 13/12 Q1018=
200807030230 METAR LPPR 030230Z 00000KT 9999 FEW015 SCT070 13/13 Q1018=
200807030200 METAR LPPR 030200Z 00000KT 9999 FEW015 SCT070 13/13 Q1018=
200807030130 METAR LPPR 030130Z 00000KT 9999 FEW015 13/13 Q1018=
200807030100 METAR LPPR 030100Z 00000KT 9999 FEW015 14/13 Q1018=
200807030030 METAR LPPR 030030Z 00000KT 9999 FEW015 14/13 Q1018=
200807030000 METAR LPPR 030000Z 00000KT 9999 FEW015 14/13 Q1018=
200807022330 METAR LPPR 022330Z 00000KT 9999 FEW001 14/13 Q1018=
200807022300 METAR LPPR 022300Z 00000KT 9999 FEW015 15/13 Q1018=
200807022230 METAR LPPR 022230Z VRB02KT 9999 FEW015 16/14 Q1018=
200807022200 METAR LPPR 022200Z 34002KT 9999 FEW015 16/14 Q1018=
200807022130 METAR LPPR 022130Z 33002KT 9999 FEW015 16/13 Q1018=
200807022100 METAR LPPR 022100Z VRB03KT 9999 FEW015 16/14 Q1018=
200807022030 METAR LPPR 022030Z VRB03KT 9999 FEW015 17/13 Q1018=
200807022000 METAR LPPR 022000Z 30006KT 270V330 9999 FEW015 17/13 Q1017=
200807021930 METAR LPPR 021930Z 30007KT 270V330 9999 SCT015 18/13 Q1017=
200807021900 METAR LPPR 021900Z 30007KT 260V330 9999 SCT017 19/13 Q1017=
200807021830 METAR LPPR 021830Z 30008KT 260V340 9999 SCT017 19/13 Q1017=
200807021800 METAR LPPR 021800Z 29008KT 250V330 9999 SCT017 19/13 Q1017=
200807021730 METAR LPPR 021730Z 29008KT 250V330 9999 SCT017 20/13 Q1017=
200807021700 METAR LPPR 021700Z 28008KT 240V320 9999 FEW017 20/13 Q1017=
200807021630 METAR LPPR 021630Z 27007KT 240V360 9999 FEW017 20/12 Q1017=
200807021600 METAR LPPR 021600Z 27009KT 240V310 9999 SCT017 20/13 Q1017=
200807021530 METAR LPPR 021530Z VRB09G19KT 9999 FEW017 20/12 Q1017=
200807021500 METAR LPPR 021500Z 28010KT 9999 SCT017 20/12 Q1017=
200807021430 METAR LPPR 021430Z 30008KT 250V330 9999 FEW017 SCT250 20/13
                        Q1017=
200807021400 METAR LPPR 021400Z 31011KT 270V340 9999 FEW015 BKN250 20/13
                        Q1017=
200807021330 METAR LPPR 021330Z 30011KT 270V330 9999 FEW017 BKN250 20/13
                        Q1017=
200807021300 METAR LPPR 021300Z 33010KT 290V350 9999 FEW017 SCT250 20/11
                        Q1017=
200807021230 METAR LPPR 021230Z 31010G20KT 270V350 9999 SCT015 SCT200
                        20/12 Q1017=
200807021200 METAR LPPR 021200Z 30011KT 9999 SCT015 SCT080 BKN200 19/13
                        Q1017=
200807021130 METAR LPPR 021130Z 32010KT 280V340 9999 SCT015 SCT080 19/14
                        Q1017=
200807021100 METAR LPPR 021100Z 30010KT 260V340 9999 SCT015 BKN070 19/14
                        Q1017=
200807021030 METAR LPPR 021030Z 29009KT 260V330 9999 SCT015 BKN070 20/14
                        Q1017=
200807021000 METAR LPPR 021000Z 29008KT 250V330 9999 FEW013 BKN070 19/13
                        Q1016=
200807020930 METAR LPPR 020930Z 30008KT 260V330 9999 FEW015 BKN070 19/14
                        Q1016=
200807020900 METAR LPPR 020900Z 30010KT 280V340 9999 FEW013 SCT070 19/13
                        Q1016=
200807020830 METAR LPPR 020830Z 31006KT 250V360 9999 FEW013 SCT070 20/15
                        Q1016=
200807020800 METAR LPPR 020800Z 30005KT 260V350 9999 FEW013 BKN070 19/16
                        Q1016=
200807020730 METAR LPPR 020730Z 29005KT 250V320 9999 FEW009 SCT070 18/17
                        Q1016=
200807020700 METAR LPPR 020700Z VRB03KT 9999 FEW007 SCT070 BKN250 18/17
                        Q1016=
200807020630 METAR LPPR 020630Z 31004KT 270V360 9999 SCT008 SCT012 BKN070
                        17/17 Q1015=
200807020600 METAR LPPR 020600Z 00000KT 9999 SCT007 BKN070 16/16 Q1016=
200807020530 METAR LPPR 020530Z 00000KT 9999 FEW009 BKN070 16/16 Q1015=
200807020500 METAR LPPR 020500Z 00000KT 9999 FEW015 SCT060 16/16 Q1015=
200807020430 METAR LPPR 020430Z 00000KT 9999 FEW015 SCT060 16/16 Q1015=
200807020400 METAR LPPR 020400Z 32004KT 9999 FEW015 SCT045 17/17 Q1015=
200807020330 METAR LPPR 020330Z VRB03KT 9999 SCT015 BKN045 17/17 Q1015=
200807020300 METAR LPPR 020300Z 29004KT 250V320 9999 FEW005 SCT013 BKN045
                        18/18 Q1015=
200807020230 METAR LPPR 020230Z 31004KT 260V330 9999 SCT012 BKN042 18/18
                        Q1015=
200807020200 METAR LPPR 020200Z 30004KT 250V330 9999 FEW005 BKN040 18/18
                        Q1015=
200807020130 METAR LPPR 020130Z 28005KT 250V320 8000 SCT002 BKN003 18/18
                        Q1015=
200807020100 METAR LPPR 020100Z 25005KT 210V270 4500 BR VCFG SCT001 BKN002
                        19/19 Q1016=
200807020030 METAR LPPR 020030Z 23006KT 200V260 9999 SCT002 SCT003 BKN013
                        19/19 Q1016=
200807020000 METAR LPPR 020000Z 20005KT 180V240 9000 -RADZ BR SCT002 BKN003
                        BKN013 19/18 Q1016=
200807012330 METAR LPPR 012330Z 20006KT 9999 SCT004 SCT005 BKN013 19/18
                        Q1016=
200807012300 METAR LPPR 012300Z 21005KT 180V240 7000 -RA BR SCT004 BKN005
                        BKN013 19/18 Q1017=
200807012230 METAR LPPR 012230Z 20005KT 9999 BKN005 BKN013 19/18 Q1016=
200807012200 METAR LPPR 012200Z 22004KT 190V260 9999 BKN005 BKN013 19/18
                        Q1017=
200807012130 METAR LPPR 012130Z 21004KT 170V230 9999 BKN005 BKN013 19/18
                        Q1017=
200807012100 METAR LPPR 012100Z 20004KT 9999 SCT005 SCT008 BKN013 19/18
                        Q1017=
200807012030 METAR LPPR 012030Z VRB03KT 9999 SCT005 SCT007 BKN015 18/18
                        Q1017=
200807012000 METAR LPPR 012000Z VRB03KT 7000 -RA SCT003 SCT005 BKN011
                        18/18 Q1017=
200807011930 METAR LPPR 011930Z 25006KT 220V300 2000 -RADZ BR SCT001 BKN007
                        19/17 Q1017=
200807011900 METAR LPPR 011900Z 25004KT 210V280 9999 SCT008 BKN020 20/17
                        Q1017=
200807011830 METAR LPPR 011830Z 25005KT 210V290 9999 FEW008 SCT012 BKN018
                        20/16 Q1017=
200807011800 METAR LPPR 011800Z 25004KT 200V290 9999 FEW017 BKN250 21/17
                        Q1017=
200807011730 METAR LPPR 011730Z 26006KT 220V290 9999 FEW020 BKN250 21/16
                        Q1017=
200807011700 METAR LPPR 011700Z 27006KT 170V300 9999 FEW020 SCT250 22/17
                        Q1017=
200807011630 METAR LPPR 011630Z 28005KT 220V320 9999 FEW020 SCT090 22/16
                        Q1017=
200807011600 METAR LPPR 011600Z 29007KT 250V320 9999 FEW020 BKN090 22/16
                        Q1018=
200807011530 METAR LPPR 011530Z 30007KT 260V340 9999 FEW020 BKN090 22/16
                        Q1017=
200807011500 METAR LPPR 011500Z 28005KT 230V340 9999 FEW020 SCT030 BKN090
                        22/16 Q1017=
200807011430 METAR LPPR 011430Z 28007KT 9999 FEW020 SCT030 BKN090 22/16
                        Q1018=
200807011400 METAR LPPR 011400Z 29008KT 250V330 9999 FEW020 SCT030 BKN090
                        22/16 Q1018=
200807011330 METAR LPPR 011330Z 28008KT 250V040 9999 FEW020 SCT030 BKN090
                        20/16 Q1018=
200807011300 METAR LPPR 011300Z 30009KT 250V340 9999 FEW040 SCT090 BKN250
                        21/15 Q1018=
200807011230 METAR LPPR 011230Z 28008KT 9999 FEW015 SCT030 BKN250 20/15
                        Q1018=
200807011200 METAR LPPR 011200Z 29008KT 260V350 9999 FEW015 SCT030 BKN250
                        20/15 Q1018=
200807011130 METAR LPPR 011130Z 27007KT 240V330 9999 FEW015 SCT030 BKN250
                        21/15 Q1018=
200807011100 METAR LPPR 011100Z 30007KT 260V020 9999 FEW015 SCT030 BKN250
                        20/15 Q1018=
200807011030 METAR LPPR 011030Z 28007KT 250V320 9999 FEW015 SCT030 BKN250
                        20/15 Q1018=
200807011000 METAR LPPR 011000Z 28006KT 240V320 9999 FEW015 SCT030 20/15
                        Q1018=
200807010930 METAR LPPR 010930Z 28006KT 250V030 9999 FEW015 SCT030 20/16
                        Q1018=
200807010900 METAR LPPR 010900Z 01004KT 320V060 9999 FEW015 SCT030 19/14
                        Q1018=
200807010830 METAR LPPR 010830Z 04004KT 350V080 9999 SCT013 BKN016 19/15
                        Q1018=
200807010800 METAR LPPR 010800Z 01006KT 330V050 9999 SCT013 BKN016 18/14
                        Q1018=
200807010730 METAR LPPR 010730Z 35004KT 9999 SCT012 BKN016 17/15 Q1018=
200807010700 METAR LPPR 010700Z 33005KT 9999 SCT012 BKN016 17/15 Q1018=
200807010630 METAR LPPR 010630Z 32003KT 9999 SCT010 BKN013 17/15 Q1017=
200807010600 METAR LPPR 010600Z 33004KT 9999 SCT010 BKN013 17/15 Q1017=
200807010530 METAR LPPR 010530Z 32005KT 290V350 9999 BKN009 BKN013 17/15
                        Q1017=
200807010500 METAR LPPR 010500Z 32005KT 9999 BKN006 BKN008 17/15 Q1017=
200807010430 METAR LPPR 010430Z 32005KT 290V350 9999 BKN007 BKN009 17/16
                        Q1017=
200807010400 METAR LPPR 010400Z 31006KT 9000 BKN007 BKN009 17/16 Q1017=
200807010330 METAR LPPR 010330Z 32004KT 290V350 8000 BKN005 BKN008 17/17
                        Q1017=
200807010300 METAR LPPR 010300Z 32005KT 290V360 7000 BKN005 BKN008 17/17
                        Q1017=
200807010230 METAR LPPR 010230Z 32005KT 6000 BKN003 BKN006 16/16 Q1017=
200807010200 METAR LPPR 010200Z VRB03KT 6000 BKN003 BKN006 16/16 Q1017=
200807010130 METAR LPPR 010130Z 32005KT 290V360 6000 BKN003 BKN006 16/16
                        Q1017=
200807010100 METAR LPPR 010100Z 32005KT 3000 BR BKN001 BKN003 16/16 Q1018=
200807010030 METAR LPPR 010030Z 33006KT 300V360 2000 BR BKN001 BKN002
                        16/16 Q1018=
200807010000 METAR LPPR 010000Z 32005KT 2000 BR BKN001 BKN002 16/16 Q1018=
