##########################################################
# Query made at 11/07/2014 15:54:30 UTC
# Time interval: from 07/01/2010 00:00  to 07/31/2010 23:59  UTC
##########################################################

##########################################################
# LPPR, Porto / Pedras Rubras (Portugal)
# WMO index: 08545
# Latitude 41-14N. Longitude 008-41W. Altitude 69 m.
##########################################################

###################################
#  METAR/SPECI from LPPR
###################################
201007312330 METAR LPPR 312330Z 15006KT CAVOK 19/17 Q1014=
201007312300 METAR LPPR 312300Z 16007KT CAVOK 18/17 Q1014=
201007312230 METAR LPPR 312230Z 17006KT CAVOK 19/17 Q1014=
201007312200 METAR LPPR 312200Z 00000KT CAVOK 19/17 Q1014=
201007312130 METAR LPPR 312130Z 00000KT CAVOK 18/17 Q1014=
201007312100 METAR LPPR 312100Z 00000KT CAVOK 18/17 Q1013=
201007312030 METAR LPPR 312030Z 00000KT CAVOK 19/17 Q1013=
201007312000 METAR LPPR 312000Z 00000KT CAVOK 19/17 Q1013=
201007311930 METAR LPPR 311930Z 00000KT 8000 FEW008 19/17 Q1013=
201007311900 METAR LPPR 311900Z 00000KT 8000 SCT008 20/18 Q1013=
201007311830 METAR LPPR 311830Z 00000KT 4000 BR SCT002 SCT004 19/18 Q1013=
201007311800 METAR LPPR 311800Z 00000KT 4000 BR SCT004 22/18 Q1013=
201007311730 METAR LPPR 311730Z 00000KT CAVOK 23/19 Q1013=
201007311700 METAR LPPR 311700Z 27004KT 230V310 9999 FEW017 23/19 Q1013=
201007311630 METAR LPPR 311630Z 25005KT 210V290 9999 FEW017 24/19 Q1013=
201007311600 METAR LPPR 311600Z 00000KT 8000 FEW015 24/19 Q1013=
201007311530 METAR LPPR 311530Z 00000KT 7000 SCT008 24/19 Q1014=
201007311500 METAR LPPR 311500Z 00000KT 6000 SCT005 BKN008 22/19 Q1014=
201007311430 METAR LPPR 311430Z 26007KT 220V290 8000 SCT008 24/19 Q1014=
201007311400 METAR LPPR 311400Z 28007KT 250V330 8000 SCT008 22/19 Q1014=
201007311330 METAR LPPR 311330Z 00000KT 8000 SCT006 SCT008 23/19 Q1013=
201007311300 METAR LPPR 311300Z 24002G17KT 8000 SCT005 BKN007 22/19 Q1014=
201007311230 METAR LPPR 311230Z 21007KT 180V240 8000 SCT004 BKN007 22/19
                        Q1014=
201007311200 METAR LPPR 311200Z 20009KT 170V240 8000 SCT003 BKN006 21/19
                        Q1014=
201007311130 METAR LPPR 311130Z 20009KT 180V240 8000 SCT004 BKN006 22/19
                        Q1014=
201007311100 METAR LPPR 311100Z 21008KT 6000 SCT003 BKN005 21/19 Q1014=
201007311030 METAR LPPR 311030Z 00000KT 6000 SCT003 BKN006 21/19 Q1014=
201007311000 METAR LPPR 311000Z 00000KT 5000 BR SCT003 BKN005 21/18 Q1013=
201007310930 METAR LPPR 310930Z 00000KT 4500 BR SCT002 BKN005 20/18 Q1013=
201007310900 METAR LPPR 310900Z 00000KT 3500 BR SCT002 BKN004 20/18 Q1013=
201007310830 METAR LPPR 310830Z 00000KT 2500 BR VCFG SCT002 BKN003 19/19
                        Q1013=
201007310800 METAR LPPR 310800Z 00000KT 2000 BR VCFG SCT000 BKN003 19/18
                        Q1013=
201007310730 METAR LPPR 310730Z 00000KT 3000 BR FEW001 SCT003 19/18 Q1013=
201007310700 METAR LPPR 310700Z 00000KT 3000 BR FEW001 SCT002 19/18 Q1013=
201007310630 METAR LPPR 310630Z 00000KT 4000 BR FEW000 SCT002 19/18 Q1012=
201007310600 METAR LPPR 310600Z 00000KT 4000 BR SCT003 19/18 Q1012=
201007310530 METAR LPPR 310530Z 00000KT 3000 BR FEW001 SCT003 19/18 Q1012=
201007310500 METAR LPPR 310500Z 00000KT 3000 BR SCT002 19/18 Q1012=
201007310430 METAR LPPR 310430Z 00000KT 3000 BR SCT002 19/18 Q1012=
201007310400 METAR LPPR 310400Z 00000KT 8000 FEW005 19/18 Q1012=
201007310330 METAR LPPR 310330Z 18003KT 8000 FEW002 19/18 Q1012=
201007310300 METAR LPPR 310300Z 16005KT 8000 FEW001 SCT004 19/18 Q1012=
201007310230 METAR LPPR 310230Z 17007KT 8000 FEW001 SCT005 19/18 Q1012=
201007310200 METAR LPPR 310200Z 17008KT CAVOK 19/18 Q1012=
201007310130 METAR LPPR 310130Z 18007KT CAVOK 19/18 Q1012=
201007310100 METAR LPPR 310100Z 17007KT CAVOK 19/18 Q1012=
201007310030 METAR LPPR 310030Z 17007KT CAVOK 19/18 Q1012=
201007310000 METAR LPPR 310000Z 17008KT CAVOK 20/18 Q1012=
201007302330 METAR LPPR 302330Z 18004KT CAVOK 20/18 Q1012=
201007302300 METAR LPPR 302300Z 18007KT CAVOK 20/18 Q1012=
201007302230 METAR LPPR 302230Z 17007KT CAVOK 20/18 Q1012=
201007302200 METAR LPPR 302200Z 17006KT CAVOK 20/18 Q1012=
201007302130 METAR LPPR 302130Z 00000KT CAVOK 20/18 Q1013=
201007302100 METAR LPPR 302100Z 00000KT CAVOK 20/18 Q1012=
201007302030 METAR LPPR 302030Z 00000KT CAVOK 20/18 Q1012=
201007302000 METAR LPPR 302000Z 00000KT CAVOK 22/18 Q1012=
201007301930 METAR LPPR 301930Z VRB01KT CAVOK 23/18 Q1012=
201007301900 METAR LPPR 301900Z VRB03KT CAVOK 23/18 Q1012=
201007301830 METAR LPPR 301830Z 27004KT CAVOK 24/18 Q1012=
201007301800 METAR LPPR 301800Z 28004KT CAVOK 26/18 Q1012=
201007301730 METAR LPPR 301730Z 29005KT 260V320 CAVOK 28/18 Q1012=
201007301700 METAR LPPR 301700Z 31006KT 260V340 CAVOK 27/17 Q1012=
201007301630 METAR LPPR 301630Z 29006G16KT 260V340 CAVOK 27/18 Q1012=
201007301600 METAR LPPR 301600Z 29007KT 250V330 CAVOK 28/18 Q1012=
201007301530 METAR LPPR 301530Z 31008KT 280V340 CAVOK 27/17 Q1012=
201007301500 METAR LPPR 301500Z 30008KT 260V330 CAVOK 27/17 Q1012=
201007301430 METAR LPPR 301430Z 29007KT 240V330 CAVOK 26/18 Q1013=
201007301400 METAR LPPR 301400Z 28007KT 250V320 CAVOK 26/18 Q1013=
201007301330 METAR LPPR 301330Z 28004KT 240V340 CAVOK 25/18 Q1013=
201007301300 METAR LPPR 301300Z VRB01G14KT CAVOK 25/18 Q1013=
201007301230 METAR LPPR 301230Z VRB02KT CAVOK 25/18 Q1013=
201007301200 METAR LPPR 301200Z 28006KT 240V310 CAVOK 24/19 Q1013=
201007301130 METAR LPPR 301130Z 28004KT 240V300 CAVOK 24/19 Q1013=
201007301100 METAR LPPR 301100Z 27006KT 210V320 9000 SKC 24/19 Q1013=
201007301030 METAR LPPR 301030Z 27005KT 240V300 9000 SKC 23/19 Q1013=
201007301000 METAR LPPR 301000Z 00000KT 9000 SKC 23/19 Q1013=
201007300930 METAR LPPR 300930Z 28002KT 8000 SKC 23/19 Q1013=
201007300900 METAR LPPR 300900Z 00000KT 8000 SKC 22/18 Q1014=
201007300830 METAR LPPR 300830Z 00000KT 8000 SKC 22/19 Q1014=
201007300800 METAR LPPR 300800Z 00000KT 7000 SKC 21/18 Q1014=
201007300730 METAR LPPR 300730Z 33002KT 7000 SKC 20/18 Q1013=
201007300700 METAR LPPR 300700Z 00000KT 7000 FEW250 19/18 Q1013=
201007300630 METAR LPPR 300630Z 00000KT 7000 FEW250 18/17 Q1013=
201007300600 METAR LPPR 300600Z 00000KT 6000 FEW250 17/17 Q1013=
201007300530 METAR LPPR 300530Z 00000KT 6000 FEW250 17/16 Q1013=
201007300500 METAR LPPR 300500Z 00000KT CAVOK 17/17 Q1013=
201007300430 METAR LPPR 300430Z 00000KT CAVOK 17/17 Q1013=
201007300400 METAR LPPR 300400Z 00000KT CAVOK 18/17 Q1013=
201007300330 METAR LPPR 300330Z 00000KT CAVOK 18/17 Q1013=
201007300300 METAR LPPR 300300Z 00000KT CAVOK 19/17 Q1013=
201007300230 METAR LPPR 300230Z 18003KT CAVOK 19/18 Q1013=
201007300200 METAR LPPR 300200Z 18005KT CAVOK 19/17 Q1013=
201007300130 METAR LPPR 300130Z 17006KT CAVOK 19/18 Q1013=
201007300100 METAR LPPR 300100Z 18007KT CAVOK 20/18 Q1013=
201007300030 METAR LPPR 300030Z 17008KT CAVOK 19/18 Q1013=
201007300000 METAR LPPR 300000Z 17008KT CAVOK 20/18 Q1013=
201007292330 METAR LPPR 292330Z 17008KT CAVOK 20/18 Q1013=
201007292300 METAR LPPR 292300Z 16009KT CAVOK 20/17 Q1013=
201007292230 METAR LPPR 292230Z 16008KT CAVOK 20/17 Q1013=
201007292200 METAR LPPR 292200Z 17007KT CAVOK 20/17 Q1013=
201007292130 METAR LPPR 292130Z 16008KT CAVOK 20/18 Q1013=
201007292100 METAR LPPR 292100Z 16008KT CAVOK 21/17 Q1013=
201007292030 METAR LPPR 292030Z 18007KT CAVOK 21/17 Q1012=
201007292000 METAR LPPR 292000Z 20003KT CAVOK 22/17 Q1012=
201007291930 METAR LPPR 291930Z 22002KT CAVOK 23/18 Q1012=
201007291900 METAR LPPR 291900Z VRB02KT CAVOK 24/18 Q1012=
201007291830 METAR LPPR 291830Z 31004KT 260V330 CAVOK 25/17 Q1012=
201007291800 METAR LPPR 291800Z 29005G17KT 250V340 CAVOK 25/18 Q1012=
201007291730 METAR LPPR 291730Z 27002KT CAVOK 26/18 Q1013=
201007291700 METAR LPPR 291700Z 31006G17KT 270V340 CAVOK 28/18 Q1013=
201007291630 METAR LPPR 291630Z 31007KT CAVOK 29/18 Q1013=
201007291600 METAR LPPR 291600Z 31007KT CAVOK 29/18 Q1013=
201007291530 METAR LPPR 291530Z 29006KT 250V330 CAVOK 29/18 Q1014=
201007291500 METAR LPPR 291500Z 30006KT 260V340 CAVOK 30/19 Q1014=
201007291430 METAR LPPR 291430Z 32007KT 250V350 CAVOK 30/18 Q1014=
201007291400 METAR LPPR 291400Z 31007KT 280V340 CAVOK 29/18 Q1014=
201007291330 METAR LPPR 291330Z 30008KT 270V330 CAVOK 29/18 Q1015=
201007291300 METAR LPPR 291300Z 31008KT 270V340 CAVOK 29/17 Q1015=
201007291230 METAR LPPR 291230Z 30007KT 280V340 CAVOK 29/17 Q1015=
201007291200 METAR LPPR 291200Z 31007KT 270V340 CAVOK 28/18 Q1015=
201007291130 METAR LPPR 291130Z 00000KT 8000 FEW250 28/19 Q1015=
201007291100 METAR LPPR 291100Z 00000KT 7000 FEW250 26/19 Q1015=
201007291030 METAR LPPR 291030Z 27007G17KT 6000 FEW025 26/19 Q1015=
201007291000 METAR LPPR 291000Z VRB03KT 6000 FEW025 27/20 Q1015=
201007290930 METAR LPPR 290930Z 00000KT 6000 SKC 27/18 Q1015=
201007290900 METAR LPPR 290900Z 33004KT 290V350 4000 BR SKC 25/19 Q1015=
201007290830 METAR LPPR 290830Z 35004KT 320V020 3000 BR SKC 24/18 Q1015=
201007290800 METAR LPPR 290800Z VRB03KT 3000 BR SKC 23/19 Q1015=
201007290730 METAR LPPR 290730Z 00000KT 3000 BR SKC 21/19 Q1015=
201007290700 METAR LPPR 290700Z 00000KT 3000 BR SKC 20/19 Q1015=
201007290630 METAR LPPR 290630Z 00000KT 4000 BR FEW250 18/18 Q1015=
201007290600 METAR LPPR 290600Z 00000KT 4000 BR FEW100 18/17 Q1015=
201007290530 METAR LPPR 290530Z 00000KT 4000 BR FEW080 18/17 Q1015=
201007290500 METAR LPPR 290500Z 00000KT 4000 BR FEW080 18/17 Q1015=
201007290430 METAR LPPR 290430Z 00000KT 4000 BR FEW080 18/17 Q1015=
201007290400 METAR LPPR 290400Z 00000KT 4000 BR SKC 18/18 Q1015=
201007290330 METAR LPPR 290330Z 00000KT 4000N FU SKC 18/18 Q1015=
201007290300 METAR LPPR 290300Z 00000KT 4000N FU FEW009 18/18 Q1015=
201007290230 METAR LPPR 290230Z 00000KT 4000N FU FEW008 19/18 Q1015=
201007290200 METAR LPPR 290200Z 00000KT 4000N FU FEW006 18/18 Q1015=
201007290130 METAR LPPR 290130Z 00000KT 4000 FU SCT003 19/18 Q1016=
201007290100 METAR LPPR 290100Z 00000KT 4000N FU SCT003 19/19 Q1016=
201007290030 METAR LPPR 290030Z 00000KT 3000N FU FEW001 SCT003 19/19 Q1016=
201007290000 METAR COR LPPR 290000Z 00000KT 4000 FU FEW003 SCT010 20/19
                        Q1016=
201007282330 METAR LPPR 282330Z 00000KT 7000 SCT002 21/20 Q1016=
201007282300 METAR LPPR 282300Z 19003KT 9000 SKC 21/20 Q1016=
201007282230 METAR LPPR 282230Z 20004KT CAVOK 21/20 Q1016=
201007282200 METAR LPPR 282200Z 18004KT CAVOK 22/20 Q1016=
201007282130 METAR LPPR 282130Z 19002KT CAVOK 22/20 Q1016=
201007282100 METAR LPPR 282100Z 00000KT 6000 FEW100 23/18 Q1016=
201007282030 METAR LPPR 282030Z 00000KT 6000 FEW100 24/17 Q1016=
201007282000 METAR LPPR 282000Z 00000KT 6000 FEW100 24/18 Q1016=
201007281930 METAR LPPR 281930Z 00000G10KT 5000 HZ FEW100 26/18 Q1015=
201007281900 METAR LPPR 281900Z VRB01KT 7000 FEW100 27/17 Q1015=
201007281830 METAR LPPR 281830Z VRB02KT 7000 SKC 28/17 Q1015=
201007281800 METAR LPPR 281800Z 28005KT 8000 SKC 29/14 Q1015=
201007281730 METAR LPPR 281730Z 29005KT 260V320 CAVOK 29/17 Q1015=
201007281700 METAR LPPR 281700Z 00000KT CAVOK 31/17 Q1015=
201007281630 METAR LPPR 281630Z 25004KT CAVOK 32/17 Q1015=
201007281600 METAR LPPR 281600Z 27005KT 180V310 8000 SKC 33/12 Q1015=
201007281530 METAR LPPR 281530Z VRB03KT 8000 SKC 33/13 Q1015=
201007281500 METAR LPPR 281500Z 27004KT 230V320 7000 SKC 33/13 Q1015=
201007281430 METAR LPPR 281430Z 25004KT 200V290 7000 SKC 32/16 Q1016=
201007281400 METAR LPPR 281400Z VRB03KT 7000 SKC 32/16 Q1016=
201007281330 METAR LPPR 281330Z 26001G16KT 5000 FU SKC 32/13 Q1016=
201007281300 METAR LPPR 281300Z 00000KT 5000 FU SKC 31/15 Q1016=
201007281230 METAR LPPR 281230Z 00000KT 4000 FU SKC 30/16 Q1016=
201007281200 METAR LPPR 281200Z 23005KT 200V300 4000 FU SKC 29/16 Q1016=
201007281130 METAR LPPR 281130Z VRB03KT 7000 SKC 31/15 Q1016=
201007281100 METAR LPPR 281100Z 00000KT 4000 FU SKC 30/15 Q1016=
201007281030 METAR LPPR 281030Z 21004KT 180V250 4000 FU SKC 28/14 Q1016=
201007281000 METAR LPPR 281000Z 20007KT 4000 SKC 27/16 Q1016=
201007280930 METAR LPPR 280930Z 20008KT 4000 FU SKC 26/16 Q1016=
201007280900 METAR LPPR 280900Z VRB02KT 6000 SKC 27/17 Q1016=
201007280830 METAR LPPR 280830Z 00000KT 7000 SKC 27/17 Q1016=
201007280800 METAR LPPR 280800Z 00000KT 7000 SKC 25/16 Q1016=
201007280730 METAR LPPR 280730Z 00000KT 7000 SKC 23/17 Q1016=
201007280700 METAR LPPR 280700Z 00000KT 7000 SKC 21/17 Q1015=
201007280630 METAR LPPR 280630Z 00000KT 7000 SKC 21/16 Q1015=
201007280600 METAR LPPR 280600Z 00000KT 6000 SKC 22/15 Q1015=
201007280530 METAR LPPR 280530Z 00000KT 6000 SKC 22/16 Q1015=
201007280500 METAR LPPR 280500Z 00000KT 8000 SKC 21/16 Q1015=
201007280430 METAR LPPR 280430Z 00000KT CAVOK 21/17 Q1015=
201007280400 METAR LPPR 280400Z 00000KT CAVOK 20/17 Q1015=
201007280330 METAR LPPR 280330Z 00000KT CAVOK 20/17 Q1014=
201007280300 METAR LPPR 280300Z 00000KT CAVOK 21/16 Q1014=
201007280230 METAR LPPR 280230Z 00000KT CAVOK 22/16 Q1014=
201007280200 METAR LPPR 280200Z 00000KT CAVOK 24/15 Q1014=
201007280130 METAR LPPR 280130Z 00000KT CAVOK 24/14 Q1014=
201007280100 METAR LPPR 280100Z 00000KT CAVOK 23/16 Q1014=
201007280030 METAR LPPR 280030Z 00000KT CAVOK 24/15 Q1014=
201007280000 METAR LPPR 280000Z 00000KT CAVOK 24/15 Q1014=
201007272330 METAR LPPR 272330Z 00000KT CAVOK 24/16 Q1014=
201007272300 METAR LPPR 272300Z 00000KT CAVOK 24/15 Q1014=
201007272230 METAR LPPR 272230Z 00000KT CAVOK 23/17 Q1014=
201007272200 METAR LPPR 272200Z 00000KT CAVOK 23/16 Q1014=
201007272130 METAR LPPR 272130Z 00000KT CAVOK 23/16 Q1014=
201007272100 METAR LPPR 272100Z 00000KT CAVOK 23/16 Q1014=
201007272030 METAR LPPR 272030Z 00000KT CAVOK 23/16 Q1013=
201007272000 METAR LPPR 272000Z 00000KT CAVOK 25/15 Q1013=
201007271930 METAR LPPR 271930Z VRB03G14KT CAVOK 28/16 Q1013=
201007271900 METAR LPPR 271900Z 31003KT CAVOK 31/17 Q1013=
201007271830 METAR LPPR 271830Z 31003KT CAVOK 32/15 Q1013=
201007271800 METAR LPPR 271800Z 32008KT 280V360 CAVOK 34/13 Q1013=
201007271730 METAR LPPR 271730Z 33009KT CAVOK 34/11 Q1013=
201007271700 METAR LPPR 271700Z 33011KT CAVOK 35/11 Q1013=
201007271630 METAR LPPR 271630Z 32009KT CAVOK 35/11 Q1013=
201007271600 METAR LPPR 271600Z 32009KT CAVOK 35/12 Q1013=
201007271530 METAR LPPR 271530Z 32009KT CAVOK 35/13 Q1013=
201007271500 METAR LPPR 271500Z 32008KT 290V350 CAVOK 36/13 Q1013=
201007271430 METAR LPPR 271430Z 31009KT CAVOK 35/13 Q1013=
201007271400 METAR LPPR 271400Z 30008G18KT 270V030 CAVOK 35/14 Q1013=
201007271330 METAR LPPR 271330Z 30009KT 280V350 CAVOK 36/14 Q1013=
201007271300 METAR LPPR 271300Z VRB03KT CAVOK 38/11 Q1013=
201007271230 METAR LPPR 271230Z VRB02KT CAVOK 38/11 Q1013=
201007271200 METAR LPPR 271200Z VRB03KT CAVOK 37/11 Q1014=
201007271130 METAR LPPR 271130Z 07005KT 020V120 CAVOK 36/11 Q1013=
201007271100 METAR LPPR 271100Z 08005KT 030V130 CAVOK 35/12 Q1014=
201007271030 METAR LPPR 271030Z 10009KT 050V130 CAVOK 34/11 Q1014=
201007271000 METAR LPPR 271000Z 09008KT 050V120 CAVOK 33/11 Q1013=
201007270930 METAR LPPR 270930Z 10011KT 060V130 CAVOK 32/10 Q1013=
201007270900 METAR LPPR 270900Z 10010KT 060V130 CAVOK 31/11 Q1014=
201007270830 METAR LPPR 270830Z 10011G24KT 070V140 CAVOK 30/10 Q1014=
201007270800 METAR LPPR 270800Z 10009KT 060V140 CAVOK 29/10 Q1014=
201007270730 METAR LPPR 270730Z 09008KT 050V140 CAVOK 29/10 Q1013=
201007270700 METAR LPPR 270700Z 10010KT 060V130 CAVOK 28/09 Q1013=
201007270630 METAR LPPR 270630Z 09008KT 050V120 CAVOK 28/09 Q1013=
201007270600 METAR LPPR 270600Z 09006KT 050V130 CAVOK 27/09 Q1013=
201007270530 METAR LPPR 270530Z 08005KT 010V140 CAVOK 27/09 Q1013=
201007270500 METAR LPPR 270500Z 08007KT 040V110 CAVOK 28/08 Q1013=
201007270430 METAR LPPR 270430Z 08006KT 050V120 CAVOK 28/09 Q1013=
201007270400 METAR LPPR 270400Z 08006KT 050V130 CAVOK 28/09 Q1013=
201007270330 METAR LPPR 270330Z 10006KT 070V130 CAVOK 28/10 Q1013=
201007270300 METAR LPPR 270300Z 09006KT CAVOK 28/09 Q1013=
201007270230 METAR LPPR 270230Z 12006KT CAVOK 28/09 Q1013=
201007270200 METAR LPPR 270200Z 10004KT 060V130 CAVOK 29/09 Q1013=
201007270130 METAR LPPR 270130Z 10004KT CAVOK 28/10 Q1013=
201007270100 METAR LPPR 270100Z 10004KT CAVOK 28/12 Q1013=
201007270030 METAR LPPR 270030Z 10002KT CAVOK 28/12 Q1013=
201007270000 METAR LPPR 270000Z VRB02KT CAVOK 29/13 Q1013=
201007262330 METAR LPPR 262330Z VRB03KT CAVOK 29/14 Q1012=
201007262300 METAR LPPR 262300Z 04004KT CAVOK 28/15 Q1012=
201007262230 METAR LPPR 262230Z 03003KT CAVOK 28/16 Q1012=
201007262200 METAR LPPR 262200Z 03004KT CAVOK 28/16 Q1012=
201007262130 METAR LPPR 262130Z 00000KT CAVOK 26/19 Q1012=
201007262100 METAR LPPR 262100Z 00000KT 9000 FU FEW250 27/18 Q1012=
201007262030 METAR LPPR 262030Z 00000KT 8000 FU FEW250 28/18 Q1012=
201007262000 METAR LPPR 262000Z 00000KT 8000 FU FEW250 30/18 Q1012=
201007261930 METAR LPPR 261930Z VRB03KT CAVOK 32/17 Q1012=
201007261900 METAR LPPR 261900Z 33004KT CAVOK 33/17 Q1012=
201007261830 METAR LPPR 261830Z 33006KT CAVOK 33/16 Q1011=
201007261800 METAR LPPR 261800Z 33010KT CAVOK 34/16 Q1012=
201007261730 METAR LPPR 261730Z 35010KT CAVOK 34/16 Q1012=
201007261700 METAR LPPR 261700Z 34012KT CAVOK 34/14 Q1012=
201007261630 METAR LPPR 261630Z 33011KT CAVOK 34/14 Q1012=
201007261600 METAR LPPR 261600Z 34012KT 300V360 CAVOK 35/14 Q1012=
201007261530 METAR LPPR 261530Z 33013KT CAVOK 36/15 Q1013=
201007261500 METAR LPPR 261500Z 04005KT 330V090 CAVOK 37/12 Q1013=
201007261430 METAR LPPR 261430Z 03006KT 350V060 CAVOK 37/13 Q1013=
201007261400 METAR LPPR 261400Z 04008KT 010V090 CAVOK 36/12 Q1014=
201007261330 METAR LPPR 261330Z 04006KT 360V100 CAVOK 36/13 Q1014=
201007261300 METAR LPPR 261300Z 03007KT 360V100 CAVOK 35/13 Q1014=
201007261230 METAR LPPR 261230Z 04006KT 350V130 CAVOK 35/12 Q1014=
201007261200 METAR LPPR 261200Z 08006KT 020V140 CAVOK 34/12 Q1015=
201007261130 METAR LPPR 261130Z 07007KT 030V110 CAVOK 33/12 Q1015=
201007261100 METAR LPPR 261100Z 09008KT 050V130 CAVOK 32/11 Q1015=
201007261030 METAR LPPR 261030Z 07007KT 010V130 CAVOK 32/11 Q1015=
201007261000 METAR LPPR 261000Z 09008KT 010V140 CAVOK 31/11 Q1015=
201007260930 METAR LPPR 260930Z 07008KT 030V110 CAVOK 30/11 Q1015 WS ALL
                        RWY=
201007260900 METAR LPPR 260900Z 07010KT 030V110 CAVOK 29/10 Q1015 WS ALL
                        RWY=
201007260830 METAR LPPR 260830Z 10010KT 050V130 CAVOK 29/10 Q1015=
201007260800 METAR LPPR 260800Z 09012KT 060V130 CAVOK 28/09 Q1015=
201007260730 METAR LPPR 260730Z 09011KT 050V130 CAVOK 28/09 Q1014=
201007260700 METAR LPPR 260700Z 09009KT 050V130 CAVOK 27/08 Q1015=
201007260630 METAR LPPR 260630Z 10009KT 060V130 CAVOK 27/07 Q1014=
201007260600 METAR LPPR 260600Z 09006KT 060V130 CAVOK 26/07 Q1014=
201007260530 METAR LPPR 260530Z 10009KT 070V130 CAVOK 27/07 Q1014=
201007260500 METAR LPPR 260500Z 09006KT 070V130 CAVOK 27/07 Q1014=
201007260430 METAR LPPR 260430Z 09006KT 050V130 CAVOK 28/07 Q1014=
201007260400 METAR LPPR 260400Z 10008KT 070V130 CAVOK 28/07 Q1014=
201007260330 METAR LPPR 260330Z 11010KT CAVOK 28/08 Q1013=
201007260300 METAR LPPR 260300Z 10008KT CAVOK 28/12 Q1013=
201007260230 METAR LPPR 260230Z 08001KT CAVOK 26/14 Q1014=
201007260200 METAR LPPR 260200Z VRB03KT CAVOK 26/15 Q1014=
201007260130 METAR LPPR 260130Z VRB03KT CAVOK 27/15 Q1014=
201007260100 METAR LPPR 260100Z VRB02KT CAVOK 25/15 Q1014=
201007260030 METAR LPPR 260030Z 00000KT CAVOK 25/16 Q1014=
201007260000 METAR LPPR 260000Z 00000KT CAVOK 25/16 Q1014=
201007252330 METAR LPPR 252330Z 00000KT CAVOK 24/16 Q1014=
201007252300 METAR LPPR 252300Z 00000KT CAVOK 23/16 Q1014=
201007252230 METAR LPPR 252230Z 00000KT CAVOK 23/17 Q1014=
201007252200 METAR LPPR 252200Z 35001KT CAVOK 23/17 Q1014=
201007252130 METAR LPPR 252130Z 00000KT CAVOK 23/17 Q1014=
201007252100 METAR LPPR 252100Z 00000KT CAVOK 24/17 Q1014=
201007252030 METAR LPPR 252030Z 00000KT CAVOK 25/17 Q1014=
201007252000 METAR LPPR 252000Z VRB02KT CAVOK 26/17 Q1014=
201007251930 METAR LPPR 251930Z 33004KT CAVOK 27/17 Q1014=
201007251900 METAR LPPR 251900Z 33007KT CAVOK 29/17 Q1014=
201007251830 METAR LPPR 251830Z 33008KT CAVOK 31/16 Q1014=
201007251800 METAR LPPR 251800Z 33010KT CAVOK 31/15 Q1014=
201007251730 METAR LPPR 251730Z 33014KT CAVOK 31/15 Q1014=
201007251700 METAR LPPR 251700Z 34014KT CAVOK 31/14 Q1015=
201007251630 METAR LPPR 251630Z 33013KT CAVOK 32/12 Q1015=
201007251600 METAR LPPR 251600Z 33015KT CAVOK 33/11 Q1015=
201007251530 METAR LPPR 251530Z 34012KT CAVOK 33/12 Q1015=
201007251500 METAR LPPR 251500Z 33014KT CAVOK 33/11 Q1016=
201007251430 METAR LPPR 251430Z 33012KT CAVOK 33/12 Q1016=
201007251400 METAR LPPR 251400Z 32009KT 280V350 CAVOK 32/14 Q1016=
201007251330 METAR LPPR 251330Z 32009KT CAVOK 32/15 Q1016=
201007251300 METAR LPPR 251300Z 31009KT 270V350 CAVOK 31/14 Q1016=
201007251230 METAR LPPR 251230Z 32010KT CAVOK 32/14 Q1017=
201007251200 METAR LPPR 251200Z 32006KT CAVOK 33/14 Q1017=
201007251130 METAR LPPR 251130Z 05005KT 350V110 CAVOK 33/10 Q1017=
201007251100 METAR LPPR 251100Z 06005KT 360V120 CAVOK 33/10 Q1017=
201007251030 METAR LPPR 251030Z 07007KT 010V100 CAVOK 32/09 Q1017=
201007251000 METAR LPPR 251000Z 07006KT 030V110 CAVOK 31/08 Q1017=
201007250930 METAR LPPR 250930Z 06006KT 360V100 CAVOK 30/08 Q1017=
201007250900 METAR LPPR 250900Z 02005KT 350V050 CAVOK 28/11 Q1017=
201007250830 METAR LPPR 250830Z 02004KT CAVOK 27/13 Q1018=
201007250800 METAR LPPR 250800Z 00000KT CAVOK 24/13 Q1018=
201007250730 METAR LPPR 250730Z 00000KT CAVOK 22/13 Q1018=
201007250700 METAR LPPR 250700Z 00000KT CAVOK 19/12 Q1018=
201007250630 METAR LPPR 250630Z 00000KT CAVOK 18/11 Q1018=
201007250600 METAR LPPR 250600Z 00000KT CAVOK 16/10 Q1018=
201007250530 METAR LPPR 250530Z 00000KT CAVOK 16/10 Q1017=
201007250500 METAR LPPR 250500Z 00000KT CAVOK 16/10 Q1017=
201007250430 METAR LPPR 250430Z 00000KT CAVOK 16/10 Q1017=
201007250400 METAR LPPR 250400Z 00000KT CAVOK 16/10 Q1017=
201007250330 METAR LPPR 250330Z 00000KT CAVOK 17/10 Q1017=
201007250300 METAR LPPR 250300Z 00000KT CAVOK 17/10 Q1017=
201007250230 METAR LPPR 250230Z 00000KT CAVOK 17/11 Q1017=
201007250200 METAR LPPR 250200Z 00000KT CAVOK 17/12 Q1018=
201007250130 METAR LPPR 250130Z 00000KT CAVOK 18/12 Q1018=
201007250100 METAR LPPR 250100Z 00000KT CAVOK 18/14 Q1018=
201007250030 METAR LPPR 250030Z 00000KT CAVOK 18/14 Q1018=
201007250000 METAR LPPR 250000Z 00000KT CAVOK 19/15 Q1018=
201007242330 METAR LPPR 242330Z 00000KT CAVOK 19/16 Q1019=
201007242300 METAR LPPR 242300Z 00000KT CAVOK 20/16 Q1019=
201007242230 METAR LPPR 242230Z 00000KT CAVOK 20/16 Q1019=
201007242200 METAR LPPR 242200Z 00000KT CAVOK 20/16 Q1019=
201007242130 METAR LPPR 242130Z 00000KT CAVOK 21/16 Q1019=
201007242100 METAR LPPR 242100Z 00000KT CAVOK 21/15 Q1019=
201007242030 METAR LPPR 242030Z 35004KT CAVOK 22/15 Q1018=
201007242000 METAR LPPR 242000Z 35007KT CAVOK 23/15 Q1019=
201007241930 METAR LPPR 241930Z 35007KT CAVOK 25/15 Q1018=
201007241900 METAR LPPR 241900Z 34010KT CAVOK 26/16 Q1019=
201007241830 METAR LPPR 241830Z 33010KT CAVOK 27/15 Q1018=
201007241800 METAR LPPR 241800Z 34012KT CAVOK 28/14 Q1019=
201007241730 METAR LPPR 241730Z 33016KT CAVOK 28/13 Q1019=
201007241700 METAR LPPR 241700Z 33016KT CAVOK 29/13 Q1019=
201007241630 METAR LPPR 241630Z 33010KT CAVOK 30/13 Q1019=
201007241600 METAR LPPR 241600Z 34012G22KT 300V360 CAVOK 30/12 Q1019=
201007241530 METAR LPPR 241530Z 33011KT CAVOK 30/13 Q1019=
201007241500 METAR LPPR 241500Z 32013KT CAVOK 29/13 Q1020=
201007241430 METAR LPPR 241430Z 32011KT 290V350 CAVOK 29/14 Q1020=
201007241400 METAR LPPR 241400Z 33012KT CAVOK 29/14 Q1020=
201007241330 METAR LPPR 241330Z 31009KT 280V010 CAVOK 30/15 Q1020=
201007241300 METAR LPPR 241300Z 32011KT 270V360 CAVOK 29/14 Q1020=
201007241230 METAR LPPR 241230Z 32010KT CAVOK 29/14 Q1020=
201007241200 METAR LPPR 241200Z 31009KT CAVOK 28/15 Q1020=
201007241130 METAR LPPR 241130Z 32005KT 290V350 CAVOK 30/15 Q1020=
201007241100 METAR LPPR 241100Z 31004KT 270V350 CAVOK 29/15 Q1021=
201007241030 METAR LPPR 241030Z 07004KT 010V140 CAVOK 30/10 Q1021=
201007241000 METAR LPPR 241000Z 10007KT 060V130 CAVOK 29/10 Q1021=
201007240930 METAR LPPR 240930Z 07004KT 350V130 CAVOK 28/11 Q1021=
201007240900 METAR LPPR 240900Z 09006KT 040V150 CAVOK 27/12 Q1021=
201007240830 METAR LPPR 240830Z 05004KT 010V100 CAVOK 25/13 Q1021=
201007240800 METAR LPPR 240800Z 02005KT 350V050 CAVOK 23/14 Q1021=
201007240730 METAR LPPR 240730Z 36003KT CAVOK 20/15 Q1021=
201007240700 METAR LPPR 240700Z 02003KT CAVOK 18/15 Q1021=
201007240630 METAR LPPR 240630Z 00000KT CAVOK 16/14 Q1021=
201007240600 METAR LPPR 240600Z 00000KT CAVOK 15/13 Q1021=
201007240530 METAR LPPR 240530Z 00000KT CAVOK 15/13 Q1020=
201007240500 METAR LPPR 240500Z VRB02KT CAVOK 14/13 Q1020=
201007240430 METAR LPPR 240430Z 35004KT CAVOK 14/12 Q1020=
201007240400 METAR LPPR 240400Z 00000KT CAVOK 15/13 Q1020=
201007240330 METAR LPPR 240330Z 00000KT CAVOK 14/12 Q1020=
201007240300 METAR LPPR 240300Z 00000KT CAVOK 15/13 Q1020=
201007240230 METAR LPPR 240230Z 00000KT CAVOK 15/13 Q1020=
201007240200 METAR LPPR 240200Z 00000KT CAVOK 15/13 Q1021=
201007240130 METAR LPPR 240130Z 00000KT CAVOK 15/13 Q1021=
201007240100 METAR LPPR 240100Z 00000KT CAVOK 16/13 Q1021=
201007240030 METAR LPPR 240030Z 00000KT CAVOK 16/14 Q1021=
201007240000 METAR LPPR 240000Z 00000KT CAVOK 16/14 Q1021=
201007232330 METAR LPPR 232330Z 00000KT CAVOK 16/14 Q1021=
201007232300 METAR LPPR 232300Z 00000KT CAVOK 16/14 Q1021=
201007232230 METAR LPPR 232230Z 00000KT CAVOK 17/14 Q1021=
201007232200 METAR LPPR 232200Z 35003KT CAVOK 17/14 Q1021=
201007232130 METAR LPPR 232130Z 33003KT CAVOK 17/14 Q1020=
201007232100 METAR LPPR 232100Z 35003KT CAVOK 18/15 Q1020=
201007232030 METAR LPPR 232030Z 34004KT CAVOK 19/14 Q1020=
201007232000 METAR LPPR 232000Z 33007G18KT CAVOK 21/14 Q1020=
201007231930 METAR LPPR 231930Z 33009KT CAVOK 22/14 Q1020=
201007231900 METAR LPPR 231900Z 33013KT CAVOK 23/14 Q1020=
201007231830 METAR LPPR 231830Z 35012KT CAVOK 24/14 Q1020=
201007231800 METAR LPPR 231800Z 33010KT CAVOK 25/14 Q1020=
201007231730 METAR LPPR 231730Z 34015KT CAVOK 25/14 Q1020=
201007231700 METAR LPPR 231700Z 33007G17KT CAVOK 25/14 Q1020=
201007231630 METAR LPPR 231630Z 32014KT CAVOK 26/13 Q1020=
201007231600 METAR LPPR 231600Z 33016KT CAVOK 26/12 Q1020=
201007231530 METAR LPPR 231530Z 33013KT CAVOK 27/12 Q1020=
201007231500 METAR LPPR 231500Z 32013KT 290V350 CAVOK 27/12 Q1020=
201007231430 METAR LPPR 231430Z 32013KT CAVOK 27/12 Q1021=
201007231400 METAR LPPR 231400Z 32014KT CAVOK 27/12 Q1021=
201007231330 METAR LPPR 231330Z 32014KT CAVOK 27/13 Q1021=
201007231300 METAR LPPR 231300Z 32012KT 290V350 CAVOK 26/13 Q1021=
201007231230 METAR LPPR 231230Z 31012KT CAVOK 25/14 Q1021=
201007231200 METAR LPPR 231200Z 31010KT 280V360 CAVOK 25/14 Q1021=
201007231130 METAR LPPR 231130Z 30008KT 280V340 CAVOK 26/15 Q1021=
201007231100 METAR LPPR 231100Z 29009KT 250V330 CAVOK 25/15 Q1021=
201007231030 METAR LPPR 231030Z 36006KT 300V040 CAVOK 25/13 Q1021=
201007231000 METAR LPPR 231000Z 35008KT 330V030 CAVOK 24/13 Q1021=
201007230930 METAR LPPR 230930Z 01006KT 330V050 CAVOK 24/13 Q1021=
201007230900 METAR LPPR 230900Z 01002G12KT CAVOK 22/13 Q1020=
201007230830 METAR LPPR 230830Z 00000KT CAVOK 21/12 Q1021=
201007230800 METAR LPPR 230800Z 35005KT CAVOK 19/13 Q1021=
201007230730 METAR LPPR 230730Z 34006KT CAVOK 18/12 Q1020=
201007230700 METAR LPPR 230700Z 35004KT CAVOK 16/12 Q1020=
201007230630 METAR LPPR 230630Z 34004KT CAVOK 14/12 Q1020=
201007230600 METAR LPPR 230600Z 35004KT CAVOK 12/10 Q1020=
201007230530 METAR LPPR 230530Z 00000KT CAVOK 12/10 Q1019=
201007230500 METAR LPPR 230500Z 00000KT CAVOK 13/11 Q1019=
201007230430 METAR LPPR 230430Z 34005KT CAVOK 13/11 Q1019=
201007230400 METAR LPPR 230400Z 34005KT CAVOK 13/11 Q1019=
201007230330 METAR LPPR 230330Z 33006KT CAVOK 13/11 Q1019=
201007230300 METAR LPPR 230300Z 34005KT CAVOK 13/11 Q1019=
201007230230 METAR LPPR 230230Z 35006KT CAVOK 14/11 Q1019=
201007230200 METAR LPPR 230200Z 35007KT CAVOK 15/11 Q1019=
201007230130 METAR LPPR 230130Z 36006KT CAVOK 16/12 Q1019=
201007230100 METAR LPPR 230100Z 35007KT CAVOK 16/12 Q1019=
201007230030 METAR LPPR 230030Z 35007KT CAVOK 17/12 Q1018=
201007230000 METAR LPPR 230000Z 35008KT CAVOK 17/12 Q1018=
201007222330 METAR LPPR 222330Z 35009KT CAVOK 18/12 Q1018=
201007222300 METAR LPPR 222300Z 35008KT CAVOK 18/12 Q1018=
201007222230 METAR LPPR 222230Z 35008KT CAVOK 17/13 Q1018=
201007222200 METAR LPPR 222200Z 00000KT CAVOK 16/13 Q1018=
201007222130 METAR LPPR 222130Z 34008KT CAVOK 16/13 Q1017=
201007222100 METAR LPPR 222100Z 35008KT CAVOK 17/14 Q1017=
201007222030 METAR LPPR 222030Z 34010KT CAVOK 18/14 Q1017=
201007222000 METAR LPPR 222000Z 34011KT CAVOK 19/13 Q1017=
201007221930 METAR LPPR 221930Z 34011KT CAVOK 20/14 Q1016=
201007221900 METAR COR LPPR 221900Z 33011KT CAVOK 20/14 Q1016=
201007221830 METAR LPPR 221830Z 33017KT CAVOK 21/14 Q1016=
201007221800 METAR LPPR 221800Z 33018KT CAVOK 22/13 Q1016=
201007221730 METAR LPPR 221730Z 33019KT CAVOK 22/13 Q1016=
201007221700 METAR LPPR 221700Z 33022KT CAVOK 22/13 Q1016=
201007221630 METAR LPPR 221630Z 33022KT CAVOK 22/13 Q1016=
201007221600 METAR LPPR 221600Z 33022KT CAVOK 22/13 Q1016=
201007221530 METAR LPPR 221530Z 33022KT CAVOK 23/13 Q1016=
201007221500 METAR LPPR 221500Z 33022G32KT CAVOK 23/13 Q1016=
201007221430 METAR LPPR 221430Z 33017KT CAVOK 23/14 Q1016=
201007221400 METAR LPPR 221400Z 33016KT CAVOK 23/14 Q1016=
201007221330 METAR LPPR 221330Z 32015KT 290V350 CAVOK 23/14 Q1016=
201007221300 METAR LPPR 221300Z 32015KT CAVOK 22/14 Q1016=
201007221230 METAR LPPR 221230Z 32014KT CAVOK 23/14 Q1016=
201007221200 METAR LPPR 221200Z 32014KT CAVOK 23/14 Q1016=
201007221130 METAR LPPR 221130Z 32014KT 290V350 CAVOK 22/14 Q1016=
201007221100 METAR LPPR 221100Z 32013KT CAVOK 23/13 Q1016=
201007221030 METAR LPPR 221030Z 33009KT 290V020 CAVOK 23/13 Q1016=
201007221000 METAR LPPR 221000Z 35010KT 330V030 CAVOK 22/12 Q1016=
201007220930 METAR LPPR 220930Z 34009KT 320V020 CAVOK 21/12 Q1016=
201007220900 METAR LPPR 220900Z 35009KT CAVOK 20/12 Q1016=
201007220830 METAR LPPR 220830Z 35010KT CAVOK 19/12 Q1016=
201007220800 METAR LPPR 220800Z 35009KT 320V020 CAVOK 18/12 Q1016=
201007220730 METAR LPPR 220730Z 00000KT CAVOK 17/12 Q1015=
201007220700 METAR LPPR 220700Z 00000KT CAVOK 15/12 Q1015=
201007220630 METAR LPPR 220630Z 00000KT CAVOK 13/11 Q1015=
201007220600 METAR LPPR 220600Z 00000KT CAVOK 12/10 Q1015=
201007220530 METAR LPPR 220530Z 00000KT CAVOK 13/10 Q1015=
201007220500 METAR LPPR 220500Z 00000KT CAVOK 12/11 Q1014=
201007220430 METAR LPPR 220430Z 00000KT CAVOK 12/10 Q1014=
201007220400 METAR LPPR 220400Z 00000KT CAVOK 13/11 Q1014=
201007220330 METAR LPPR 220330Z 00000KT CAVOK 13/11 Q1014=
201007220300 METAR LPPR 220300Z 00000KT CAVOK 13/12 Q1014=
201007220230 METAR LPPR 220230Z 00000KT CAVOK 13/11 Q1014=
201007220200 METAR LPPR 220200Z 00000KT CAVOK 13/12 Q1014=
201007220130 METAR LPPR 220130Z 00000KT CAVOK 14/12 Q1014=
201007220100 METAR LPPR 220100Z 34005KT CAVOK 14/12 Q1014=
201007220030 METAR LPPR 220030Z 34006KT CAVOK 15/13 Q1014=
201007220000 METAR LPPR 220000Z 33006KT CAVOK 15/13 Q1014=
201007212330 METAR LPPR 212330Z 33005KT CAVOK 15/13 Q1014=
201007212300 METAR LPPR 212300Z 34005KT CAVOK 16/14 Q1014=
201007212230 METAR LPPR 212230Z 33005KT CAVOK 16/13 Q1014=
201007212200 METAR LPPR 212200Z 33007KT CAVOK 17/14 Q1014=
201007212130 METAR LPPR 212130Z 33009KT CAVOK 17/14 Q1014=
201007212100 METAR LPPR 212100Z 33010KT CAVOK 17/14 Q1014=
201007212030 METAR LPPR 212030Z 33012KT CAVOK 18/14 Q1013=
201007212000 METAR LPPR 212000Z 33015KT CAVOK 18/13 Q1013=
201007211930 METAR LPPR 211930Z 33016KT CAVOK 19/13 Q1014=
201007211900 METAR LPPR 211900Z 33019KT CAVOK 19/13 Q1013=
201007211830 METAR LPPR 211830Z 33017G27KT CAVOK 20/14 Q1013=
201007211800 METAR LPPR 211800Z 33017KT CAVOK 21/14 Q1013=
201007211730 METAR LPPR 211730Z 33016G26KT CAVOK 20/14 Q1013=
201007211700 METAR LPPR 211700Z 33017KT 290V350 CAVOK 20/14 Q1013=
201007211630 METAR LPPR 211630Z 32017KT 290V350 CAVOK 21/14 Q1013=
201007211600 METAR LPPR 211600Z 32016KT CAVOK 21/14 Q1013=
201007211530 METAR LPPR 211530Z 32016KT CAVOK 22/14 Q1013=
201007211500 METAR LPPR 211500Z 31017KT 9999 FEW017 BKN250 22/14 Q1013=
201007211430 METAR LPPR 211430Z 32015KT 9999 FEW017 SCT250 22/14 Q1014=
201007211400 METAR LPPR 211400Z 32016KT 9999 FEW017 SCT250 22/14 Q1013=
201007211330 METAR LPPR 211330Z 32015KT 9999 FEW017 SCT250 22/14 Q1013=
201007211300 METAR LPPR 211300Z 32014KT 9999 FEW017 SCT250 23/14 Q1014=
201007211230 METAR LPPR 211230Z 32015KT 9999 FEW017 22/15 Q1014=
201007211200 METAR LPPR 211200Z 32014KT 9999 FEW017 22/15 Q1014=
201007211130 METAR LPPR 211130Z 32014KT 9999 FEW017 21/15 Q1014=
201007211100 METAR LPPR 211100Z 31014KT 280V340 9999 FEW017 21/15 Q1014=
201007211030 METAR LPPR 211030Z 32012KT 9999 FEW015 21/15 Q1014=
201007211000 METAR LPPR 211000Z 33010KT 290V350 9999 FEW015 22/15 Q1014=
201007210930 METAR LPPR 210930Z 34011KT 9999 FEW015 21/15 Q1014=
201007210900 METAR LPPR 210900Z 33011KT 9999 FEW015 20/16 Q1014=
201007210830 METAR LPPR 210830Z 34012KT 9999 FEW013 19/16 Q1014=
201007210800 METAR LPPR 210800Z 33009KT 9999 FEW008 19/17 Q1014=
201007210730 METAR LPPR 210730Z 33006KT 8000 FEW006 18/18 Q1013=
201007210700 METAR LPPR 210700Z 00000KT 7000 FEW002 SCT060 17/17 Q1013=
201007210630 METAR LPPR 210630Z 00000KT 3000 BR SCT001 BKN003 17/17 Q1013=
201007210600 METAR LPPR 210600Z 00000KT 2000 BR VCFG SCT000 BKN002 17/17
                        Q1013=
201007210530 METAR LPPR 210530Z 00000KT 2000 BR VCFG SCT000 BKN002 17/17
                        Q1013=
201007210500 METAR LPPR 210500Z 33006KT 2000 BR VCFG SCT000 BKN002 17/17
                        Q1013=
201007210430 METAR LPPR 210430Z 34006KT 8000 SCT002 BKN005 17/17 Q1013=
201007210400 METAR LPPR 210400Z 34008KT 8000 SCT002 BKN004 17/17 Q1013=
201007210330 METAR LPPR 210330Z 33008KT 7000 SCT001 BKN003 17/17 Q1013=
201007210300 METAR LPPR 210300Z 34008KT 8000 SCT001 BKN003 BKN020 18/18
                        Q1013=
201007210000 METAR LPPR 210000Z 00000KT 2500 BR VCFG SCT000 BKN002 20/20
                        Q1014=
201007202330 METAR LPPR 202330Z 00000KT 2500 -DZ BR SCT000 BKN002 20/20
                        Q1014=
201007202300 METAR LPPR 202300Z 00000KT 2500 -DZ BR BKN001 BKN003 20/20
                        Q1014=
201007202230 METAR LPPR 202230Z 00000KT 2500 BR SCT000 BKN002 20/20 Q1015=
201007202200 METAR LPPR 202200Z 25002KT 3000 BR SCT001 BKN003 20/20 Q1015=
201007202130 METAR LPPR 202130Z VRB02KT 8000 SCT001 BKN003 20/20 Q1015=
201007202100 METAR LPPR 202100Z 00000KT 6000 SCT002 BKN007 20/20 Q1014=
201007202030 METAR LPPR 202030Z 00000KT 5000 BR SCT002 BKN005 20/20 Q1015=
201007202000 METAR LPPR 202000Z 00000KT 2500 -DZ BR SCT001 BKN003 20/19
                        Q1015=
201007201930 METAR LPPR 201930Z 27004KT 230V300 2000 -DZ VCFG SCT002 BKN006
                        20/19 Q1015=
201007201900 METAR LPPR 201900Z VRB03KT 9999 FEW007 SCT015 BKN040 21/19
                        Q1015=
201007201830 METAR LPPR 201830Z 27006KT 9999 FEW008 SCT015 BKN040 21/18
                        Q1015=
201007201800 METAR LPPR 201800Z 28005KT 220V330 9999 FEW009 SCT015 BKN040
                        21/18 Q1015=
201007201730 METAR LPPR 201730Z 28006KT 240V320 9999 FEW009 BKN015 21/18
                        Q1015=
201007201700 METAR LPPR 201700Z 28009KT 9999 FEW008 BKN015 22/19 Q1015=
201007201630 METAR LPPR 201630Z 27009KT 250V310 9999 FEW012 SCT250 22/18
                        Q1015=
201007201600 METAR LPPR 201600Z 30008KT 260V330 9999 FEW020 SCT250 23/18
                        Q1016=
201007201530 METAR LPPR 201530Z 29009KT 260V330 9999 FEW020 SCT070 23/18
                        Q1016=
201007201500 METAR LPPR 201500Z 29011KT 260V320 9999 FEW020 SCT070 22/18
                        Q1016=
201007201430 METAR LPPR 201430Z 32012KT 9999 FEW020 SCT070 23/17 Q1016=
201007201400 METAR LPPR 201400Z 31013KT 9999 FEW020 23/17 Q1017=
201007201330 METAR LPPR 201330Z 30010KT 270V330 9999 FEW020 22/16 Q1017=
201007201300 METAR LPPR 201300Z 32011KT 280V340 9999 FEW020 23/16 Q1017=
201007201230 METAR LPPR 201230Z 32013KT CAVOK 24/16 Q1017=
201007201200 METAR LPPR 201200Z 32012KT 270V350 CAVOK 23/16 Q1017=
201007201130 METAR LPPR 201130Z 31013KT 290V350 CAVOK 23/16 Q1017=
201007201100 METAR LPPR 201100Z 32011KT 270V350 CAVOK 22/16 Q1017=
201007201030 METAR LPPR 201030Z 31010KT CAVOK 22/16 Q1017=
201007201000 METAR LPPR 201000Z 31010KT 270V350 CAVOK 22/16 Q1017=
201007200930 METAR LPPR 200930Z 32009KT 290V350 CAVOK 22/16 Q1017=
201007200900 METAR LPPR 200900Z 34011KT 310V010 CAVOK 22/15 Q1017=
201007200830 METAR LPPR 200830Z 34010KT 290V010 CAVOK 20/15 Q1017=
201007200800 METAR LPPR 200800Z 00000KT CAVOK 19/16 Q1018=
201007200730 METAR LPPR 200730Z 00000KT 5000 BR FEW005 18/17 Q1018=
201007200700 METAR LPPR 200700Z 00000KT 4000 BR SCT003 16/16 Q1018=
201007200630 METAR LPPR 200630Z 00000KT 4000 BR SCT002 15/15 Q1017=
201007200600 METAR LPPR 200600Z 00000KT 5000 BR SCT005 15/14 Q1018=
201007200530 METAR LPPR 200530Z 36004KT 5000 BR SCT005 15/15 Q1017=
201007200500 METAR LPPR 200500Z 34007KT 7000 SCT004 BKN006 15/15 Q1017=
201007200430 METAR LPPR 200430Z 34008KT 7000 SCT004 BKN006 16/15 Q1017=
201007200400 METAR LPPR 200400Z 33008KT 6000 SCT004 BKN006 16/15 Q1018=
201007200330 METAR LPPR 200330Z 34006KT 6000 SCT003 BKN006 16/15 Q1018=
201007200300 METAR LPPR 200300Z 34008KT 7000 FEW004 SCT006 16/15 Q1017=
201007200230 METAR LPPR 200230Z 35006KT 9999 FEW007 16/15 Q1018=
201007200200 METAR LPPR 200200Z 33007KT 9000 SCT007 16/15 Q1018=
201007200130 METAR LPPR 200130Z 33005KT CAVOK 16/15 Q1018=
201007200100 METAR LPPR 200100Z 33005KT CAVOK 16/15 Q1018=
201007200030 METAR LPPR 200030Z 34007KT CAVOK 17/15 Q1018=
201007200000 METAR LPPR 200000Z 34007KT CAVOK 17/15 Q1018=
201007192330 METAR LPPR 192330Z 33011KT CAVOK 17/15 Q1018=
201007192300 METAR LPPR 192300Z 33008KT CAVOK 17/15 Q1018=
201007192230 METAR LPPR 192230Z 33010KT CAVOK 17/15 Q1018=
201007192200 METAR LPPR 192200Z 33009KT 300V360 CAVOK 17/16 Q1018=
201007192130 METAR LPPR 192130Z 33003KT 9000 FEW009 17/16 Q1018=
201007192100 METAR LPPR 192100Z 33010KT 7000 FEW009 18/16 Q1018=
201007192030 METAR LPPR 192030Z 33010KT 7000 FEW009 18/16 Q1018=
201007192000 METAR LPPR 192000Z 33013KT 7000 FEW009 19/16 Q1018=
201007191930 METAR LPPR 191930Z 33015KT 7000 FEW009 19/16 Q1018=
201007191900 METAR LPPR 191900Z 32015KT 9999 FEW009 19/16 Q1018=
201007191830 METAR LPPR 191830Z 32017KT CAVOK 20/16 Q1018=
201007191800 METAR LPPR 191800Z 32015KT CAVOK 21/17 Q1018=
201007191730 METAR LPPR 191730Z 32014KT CAVOK 21/17 Q1018=
201007191700 METAR LPPR 191700Z 31013KT CAVOK 21/17 Q1018=
201007191630 METAR LPPR 191630Z 31014KT 9999 FEW008 22/17 Q1018=
201007191600 METAR LPPR 191600Z 32013KT 9999 FEW008 22/17 Q1018=
201007191530 METAR LPPR 191530Z 32014KT 9999 FEW008 22/17 Q1018=
201007191500 METAR LPPR 191500Z 32016KT 290V350 9999 FEW008 22/17 Q1019=
201007191430 METAR LPPR 191430Z 31012KT 290V350 9999 FEW007 23/18 Q1019=
201007191400 METAR LPPR 191400Z 31013KT 280V340 9000 FEW006 22/18 Q1019=
201007191330 METAR LPPR 191330Z 31010KT 270V340 8000 FEW006 SCT008 21/18
                        Q1019=
201007191300 METAR LPPR 191300Z 31010KT 280V340 8000 FEW008 21/17 Q1019=
201007191230 METAR LPPR 191230Z 29007KT 240V330 9000 SCT007 21/17 Q1020=
201007191200 METAR LPPR 191200Z 28006KT 250V360 8000 SCT007 20/17 Q1020=
201007191130 METAR LPPR 191130Z 29006KT 240V330 9000 FEW009 21/17 Q1020=
201007191100 METAR LPPR 191100Z 25005KT 220V280 9000 FEW009 22/17 Q1020=
201007191030 METAR LPPR 191030Z 00000KT 9000 FEW009 21/17 Q1020=
201007191000 METAR LPPR 191000Z 00000KT 8000 SCT008 20/16 Q1020=
201007190930 METAR LPPR 190930Z 00000KT 6000 SCT006 BKN008 19/16 Q1020=
201007190900 METAR LPPR 190900Z 00000KT 5000 BR SCT005 BKN008 19/16 Q1020=
201007190830 METAR LPPR 190830Z 00000KT 4000 BR SCT005 BKN008 18/17 Q1020=
201007190800 METAR LPPR 190800Z 00000KT 4000 BR SCT005 BKN007 18/16 Q1020=
201007190730 METAR LPPR 190730Z 00000KT 4000 BR SCT004 BKN006 17/16 Q1020=
201007190700 METAR LPPR 190700Z 00000KT 4000 BR BKN003 BKN005 17/16 Q1019=
201007190630 METAR LPPR 190630Z 00000KT 4000 BR BKN003 BKN005 17/16 Q1019=
201007190600 METAR LPPR 190600Z 00000KT 5000 BR SCT003 BKN005 17/16 Q1019=
201007190530 METAR LPPR 190530Z 00000KT 7000 SCT003 BKN005 17/16 Q1019=
201007190500 METAR LPPR 190500Z 00000KT 7000 SCT003 BKN005 17/17 Q1019=
201007190430 METAR LPPR 190430Z 18004KT 7000 SCT002 BKN005 17/17 Q1019=
201007190400 METAR LPPR 190400Z 16004KT 7000 SCT002 BKN004 17/17 Q1019=
201007190330 METAR LPPR 190330Z 16006KT 110V180 7000 SCT002 BKN004 17/17
                        Q1019=
201007190300 METAR LPPR 190300Z 16004KT 130V190 5000 BR SCT002 BKN004
                        17/17 Q1019=
201007190230 METAR LPPR 190230Z VRB03KT 3500 BR VCFG SCT002 BKN004 17/17
                        Q1019=
201007190200 METAR LPPR 190200Z 18005KT 150V210 5000 BR SCT002 SCT003
                        BKN004 17/17 Q1019=
201007190130 METAR LPPR 190130Z 17007KT 3500 BR VCFG SCT002 BKN003 17/17
                        Q1019=
201007190100 METAR LPPR 190100Z 00000KT 3000 BR VCFG SCT001 BKN003 17/17
                        Q1019=
201007190030 METAR LPPR 190030Z 00000KT 0800NW R17/1300VP1500 R35/P1500
                        BCFG SCT001 BKN003 17/17 Q1019=
201007190000 METAR LPPR 190000Z 00000KT 0500NW R17/0900U R35/P1500 BCFG
                        SCT001 BKN003 17/17 Q1020=
201007182330 METAR LPPR 182330Z 00000KT 0500 R17/0600N R35/P1500 BCFG
                        FEW001 BKN003 17/17 Q1020=
201007182300 METAR LPPR 182300Z 00000KT 0500 R17/0900VP1500 R35/0600N
                        BCFG VV001 17/17 Q1020=
201007182230 METAR LPPR 182230Z 00000KT 2000 BR VCFG SCT001 SCT003 17/17
                        Q1020=
201007182200 METAR LPPR 182200Z VRB01KT 7000 FEW003 17/17 Q1020=
201007182130 METAR LPPR 182130Z 00000KT 7000 SKC 18/17 Q1019=
201007182100 METAR LPPR 182100Z 00000KT 7000 SKC 18/17 Q1019=
201007182030 METAR LPPR 182030Z 00000KT 7000 SKC 18/17 Q1019=
201007182000 METAR LPPR 182000Z 29004KT CAVOK 19/17 Q1019=
201007181930 METAR LPPR 181930Z 29004KT 260V320 CAVOK 20/17 Q1019=
201007181900 METAR LPPR 181900Z 28004KT 240V340 CAVOK 21/17 Q1018=
201007181830 METAR LPPR 181830Z 28005KT CAVOK 22/17 Q1018=
201007181800 METAR LPPR 181800Z 28005G15KT 200V320 CAVOK 23/17 Q1018=
201007181730 METAR LPPR 181730Z 26004KT 230V300 CAVOK 25/16 Q1018=
201007181700 METAR LPPR 181700Z VRB02KT CAVOK 25/16 Q1018=
201007181630 METAR LPPR 181630Z 28004KT 240V320 CAVOK 24/17 Q1019=
201007181600 METAR LPPR 181600Z 31006G17KT 260V350 CAVOK 24/17 Q1019=
201007181530 METAR LPPR 181530Z 28008KT 250V340 CAVOK 23/17 Q1019=
201007181500 METAR LPPR 181500Z 28007KT CAVOK 25/16 Q1019=
201007181430 METAR LPPR 181430Z 28005KT 240V330 CAVOK 26/17 Q1019=
201007181400 METAR LPPR 181400Z 30004KT 240V330 CAVOK 24/17 Q1019=
201007181330 METAR LPPR 181330Z 25007KT 180V300 CAVOK 24/17 Q1019=
201007181300 METAR LPPR 181300Z 25005G15KT 210V280 3000 FU SKC 25/18 Q1019=
201007181230 METAR LPPR 181230Z 26004KT 220V310 CAVOK 27/17 Q1019=
201007181200 METAR LPPR 181200Z VRB02KT CAVOK 26/16 Q1019=
201007181130 METAR LPPR 181130Z 25003KT CAVOK 25/17 Q1019=
201007181100 METAR LPPR 181100Z 00000KT CAVOK 24/17 Q1019=
201007181030 METAR LPPR 181030Z 00000KT CAVOK 24/17 Q1019=
201007181000 METAR LPPR 181000Z 00000KT CAVOK 23/17 Q1019=
201007180930 METAR LPPR 180930Z 00000KT 8000 SKC 22/17 Q1019=
201007180900 METAR LPPR 180900Z 00000KT 8000 SKC 21/17 Q1019=
201007180830 METAR LPPR 180830Z 00000KT 7000 SKC 21/17 Q1019=
201007180800 METAR LPPR 180800Z 00000KT 7000 SKC 21/17 Q1019=
201007180730 METAR LPPR 180730Z 00000KT 7000 SKC 19/17 Q1019=
201007180700 METAR LPPR 180700Z 00000KT 7000 SKC 18/17 Q1018=
201007180630 METAR LPPR 180630Z 00000KT 7000 SKC 16/16 Q1018=
201007180600 METAR LPPR 180600Z 00000KT 8000 SKC 15/14 Q1018=
201007180530 METAR LPPR 180530Z 00000KT CAVOK 15/14 Q1018=
201007180500 METAR LPPR 180500Z /////KT CAVOK 15/14 Q1018=
201007180430 METAR LPPR 180430Z 00000KT CAVOK 15/14 Q1018=
201007180400 METAR LPPR 180400Z 00000KT CAVOK 15/14 Q1018=
201007180330 METAR LPPR 180330Z 00000KT CAVOK 16/15 Q1018=
201007180300 METAR LPPR 180300Z 00000KT CAVOK 16/14 Q1019=
201007180230 METAR LPPR 180230Z 00000KT CAVOK 18/15 Q1019=
201007180200 METAR LPPR 180200Z 00000KT CAVOK 18/16 Q1019=
201007180130 METAR COR LPPR 180130Z 00000KT CAVOK 18/16 Q1019=
201007180100 METAR LPPR 180100Z 00000KT CAVOK 17/15 Q1019=
201007180030 METAR LPPR 180030Z 00000KT CAVOK 18/16 Q1019=
201007180000 METAR LPPR 180000Z 00000KT CAVOK 18/16 Q1019=
201007172330 METAR LPPR 172330Z 00000KT CAVOK 18/16 Q1019=
201007172300 METAR LPPR 172300Z 00000KT CAVOK 18/16 Q1019=
201007172230 METAR LPPR 172230Z 00000KT CAVOK 18/16 Q1019=
201007172200 METAR LPPR 172200Z 00000KT CAVOK 18/16 Q1019=
201007172130 METAR LPPR 172130Z 00000KT CAVOK 19/16 Q1019=
201007172100 METAR LPPR 172100Z 00000KT CAVOK 20/16 Q1018=
201007172030 METAR LPPR 172030Z 35002KT CAVOK 20/16 Q1018=
201007172000 METAR LPPR 172000Z 35006KT CAVOK 21/16 Q1018=
201007171930 METAR LPPR 171930Z 32007KT CAVOK 23/16 Q1018=
201007171900 METAR LPPR 171900Z 30006KT 250V330 CAVOK 25/16 Q1018=
201007171830 METAR LPPR 171830Z 34010KT CAVOK 25/16 Q1018=
201007171800 METAR LPPR 171800Z 34008KT CAVOK 25/16 Q1018=
201007171730 METAR LPPR 171730Z 33010KT 290V350 CAVOK 25/15 Q1018=
201007171700 METAR LPPR 171700Z 32008KT 290V350 CAVOK 25/16 Q1019=
201007171630 METAR LPPR 171630Z 32010KT CAVOK 25/16 Q1019=
201007171600 METAR LPPR 171600Z 31010KT CAVOK 25/16 Q1019=
201007171530 METAR LPPR 171530Z 32012KT CAVOK 26/15 Q1020=
201007171500 METAR LPPR 171500Z 31009KT 290V350 CAVOK 26/15 Q1020=
201007171430 METAR LPPR 171430Z 32010KT 290V350 CAVOK 26/15 Q1020=
201007171400 METAR LPPR 171400Z 32011KT CAVOK 25/15 Q1020=
201007171330 METAR LPPR 171330Z 32011KT CAVOK 25/14 Q1020=
201007171300 METAR LPPR 171300Z 31011KT 290V350 CAVOK 25/14 Q1021=
201007171230 METAR LPPR 171230Z 32011KT CAVOK 24/14 Q1021=
201007171200 METAR LPPR 171200Z 30009KT CAVOK 24/14 Q1021=
201007171130 METAR LPPR 171130Z 29008KT 240V360 CAVOK 24/15 Q1021=
201007171100 METAR LPPR 171100Z 29008KT 260V330 CAVOK 23/15 Q1021=
201007171030 METAR LPPR 171030Z 29006KT 260V340 CAVOK 23/15 Q1021=
201007171000 METAR LPPR 171000Z 30007KT 270V340 CAVOK 22/15 Q1021=
201007170930 METAR LPPR 170930Z 00000KT CAVOK 22/15 Q1021=
201007170900 METAR LPPR 170900Z 00000KT CAVOK 21/14 Q1021=
201007170830 METAR LPPR 170830Z 00000KT CAVOK 20/14 Q1022=
201007170800 METAR LPPR 170800Z 00000KT CAVOK 19/14 Q1022=
201007170730 METAR LPPR 170730Z 00000KT CAVOK 18/14 Q1022=
201007170700 METAR LPPR 170700Z 00000KT CAVOK 16/15 Q1021=
201007170630 METAR LPPR 170630Z 00000KT CAVOK 14/13 Q1021=
201007170600 METAR LPPR 170600Z 00000KT CAVOK 12/12 Q1021=
201007170530 METAR LPPR 170530Z 00000KT CAVOK 12/11 Q1021=
201007170500 METAR LPPR 170500Z 00000KT CAVOK 12/12 Q1021=
201007170430 METAR LPPR 170430Z 00000KT CAVOK 12/12 Q1021=
201007170400 METAR LPPR 170400Z 00000KT CAVOK 13/12 Q1021=
201007170330 METAR LPPR 170330Z 00000KT CAVOK 13/12 Q1021=
201007170300 METAR LPPR 170300Z 00000KT CAVOK 13/12 Q1021=
201007170230 METAR LPPR 170230Z 00000KT CAVOK 13/12 Q1021=
201007170200 METAR LPPR 170200Z 00000KT CAVOK 13/13 Q1021=
201007170130 METAR LPPR 170130Z 00000KT CAVOK 13/12 Q1021=
201007170100 METAR LPPR 170100Z 00000KT CAVOK 14/13 Q1021=
201007170030 METAR LPPR 170030Z 00000KT CAVOK 14/13 Q1021=
201007170000 METAR LPPR 170000Z 00000KT CAVOK 14/13 Q1021=
201007162330 METAR LPPR 162330Z 00000KT CAVOK 14/13 Q1021=
201007162300 METAR LPPR 162300Z 00000KT CAVOK 15/13 Q1021=
201007162230 METAR LPPR 162230Z 36002KT CAVOK 15/14 Q1021=
201007162200 METAR LPPR 162200Z 35005KT CAVOK 15/13 Q1021=
201007162130 METAR LPPR 162130Z 35005KT CAVOK 16/14 Q1021=
201007162100 METAR LPPR 162100Z 34006KT CAVOK 17/14 Q1021=
201007162030 METAR LPPR 162030Z 34010KT CAVOK 17/14 Q1021=
201007162000 METAR LPPR 162000Z 33013KT CAVOK 18/14 Q1021=
201007161930 METAR LPPR 161930Z 32009KT CAVOK 19/13 Q1021=
201007161900 METAR LPPR 161900Z 34014KT CAVOK 20/12 Q1021=
201007161830 METAR LPPR 161830Z 32011KT 290V350 CAVOK 20/14 Q1020=
201007161800 METAR LPPR 161800Z 32014KT CAVOK 21/13 Q1020=
201007161730 METAR LPPR 161730Z 32012KT CAVOK 21/13 Q1021=
201007161700 METAR LPPR 161700Z 32013KT 280V360 CAVOK 21/11 Q1021=
201007161630 METAR LPPR 161630Z 32015KT 9999 FEW020 21/10 Q1021=
201007161600 METAR LPPR 161600Z 32014KT 290V350 9999 FEW017 22/11 Q1021=
201007161530 METAR LPPR 161530Z 32015KT 9999 FEW015 22/11 Q1021=
201007161500 METAR LPPR 161500Z 31013KT 9999 FEW015 23/12 Q1021=
201007161430 METAR LPPR 161430Z 32013KT 9999 SCT015 24/13 Q1021=
201007161400 METAR LPPR 161400Z 32012KT 290V010 9999 SCT015 24/13 Q1021=
201007161330 METAR LPPR 161330Z 32010KT 280V340 9999 SCT015 24/16 Q1021=
201007161300 METAR LPPR 161300Z 31010KT 270V340 9999 SCT015 SCT030 23/17
                        Q1021=
201007161230 METAR LPPR 161230Z 31008KT 270V340 9999 FEW015 BKN030 23/17
                        Q1021=
201007161200 METAR LPPR 161200Z 33007KT 300V010 9999 FEW009 SCT015 BKN030
                        22/18 Q1021=
201007161130 METAR LPPR 161130Z 32007KT 280V350 9999 SCT006 SCT013 BKN030
                        21/18 Q1021=
201007161100 METAR LPPR 161100Z 00000KT 8000 SCT006 SCT008 BKN025 21/19
                        Q1021=
201007161030 METAR LPPR 161030Z 00000KT 8000 SCT005 SCT008 BKN025 21/19
                        Q1021=
201007161000 METAR LPPR 161000Z 00000KT 8000 SCT005 SCT008 BKN020 21/20
                        Q1020=
201007160930 METAR LPPR 160930Z 00000KT 4000 BR SCT003 BKN005 20/19 Q1020=
201007160900 METAR LPPR 160900Z 00000KT 5000 BR SCT004 BKN006 20/19 Q1020=
201007160830 METAR LPPR 160830Z 00000KT 5000 BR SCT003 BKN006 19/19 Q1020=
201007160800 METAR LPPR 160800Z 00000KT 7000 SCT004 BKN008 19/18 Q1020=
201007160730 METAR LPPR 160730Z 13003KT 5000 BR SCT004 BKN008 18/18 Q1020=
201007160700 METAR LPPR 160700Z 13004KT 100V160 3000 -DZ BR SCT003 BKN007
                        18/18 Q1019=
201007160630 METAR LPPR 160630Z 12006KT 7000 SCT004 BKN007 18/17 Q1019=
201007160600 METAR LPPR 160600Z 12005KT 5000 BR SCT004 BKN007 17/17 Q1019=
201007160530 METAR LPPR 160530Z VRB03KT 3000 -DZ BR SCT004 BKN007 17/17
                        Q1019=
201007160500 METAR LPPR 160500Z 12006KT 4000 BR SCT003 BKN007 17/17 Q1019=
201007160430 METAR LPPR 160430Z 12006KT 3000 -DZ BR SCT003 BKN007 18/17
                        Q1018=
201007160400 METAR LPPR 160400Z 00000KT 4000 BR SCT003 BKN007 18/17 Q1018=
201007160330 METAR LPPR 160330Z 12005KT 5000 BR SCT005 BKN007 18/17 Q1018=
201007160300 METAR LPPR 160300Z 00000KT 7000 SCT005 BKN008 18/18 Q1018=
201007160230 METAR LPPR 160230Z 00000KT 9999 SCT004 BKN008 18/18 Q1019=
201007160200 METAR LPPR 160200Z 00000KT 8000 SCT005 BKN008 BKN012 18/18
                        Q1019=
201007160130 METAR LPPR 160130Z 00000KT 3500 -DZ BR FEW003 SCT006 BKN012
                        18/17 Q1019=
201007160100 METAR LPPR 160100Z 00000KT 4000 BR SCT003 BKN007 BKN020 19/17
                        Q1019=
201007160030 METAR LPPR 160030Z 00000KT 9999 FEW008 SCT020 BKN030 19/17
                        Q1019=
201007160000 METAR LPPR 160000Z 00000KT 9999 SCT020 BKN030 19/16 Q1019=
201007152330 METAR LPPR 152330Z 00000KT 9999 FEW012 SCT025 BKN030 18/16
                        Q1019=
201007152300 METAR LPPR 152300Z 00000KT 9999 FEW013 SCT025 BKN030 18/16
                        Q1019=
201007152230 METAR LPPR 152230Z 00000KT 9999 BKN030 18/16 Q1019=
201007152200 METAR LPPR 152200Z 00000KT 9999 BKN030 17/15 Q1019=
201007152130 METAR LPPR 152130Z 00000KT 9999 SCT030 17/15 Q1019=
201007152100 METAR LPPR 152100Z 00000KT 9999 FEW030 18/15 Q1019=
201007152030 METAR LPPR 152030Z 00000KT 9999 FEW030 18/15 Q1019=
201007152000 METAR LPPR 152000Z VRB03KT 9999 FEW030 19/15 Q1019=
201007151930 METAR LPPR 151930Z 29004KT 260V350 9999 FEW040 20/15 Q1018=
201007151900 METAR LPPR 151900Z 31006KT 270V350 9999 FEW030 21/15 Q1018=
201007151830 METAR LPPR 151830Z 29007KT 250V330 9999 FEW030 21/15 Q1019=
201007151800 METAR LPPR 151800Z 30009KT 260V330 CAVOK 21/15 Q1018=
201007151730 METAR LPPR 151730Z 28008KT 250V320 CAVOK 22/15 Q1018=
201007151700 METAR LPPR 151700Z 29011KT 260V330 CAVOK 21/15 Q1018=
201007151630 METAR LPPR 151630Z 31011KT CAVOK 22/15 Q1018=
201007151600 METAR LPPR 151600Z 28008KT 250V320 CAVOK 22/15 Q1019=
201007151530 METAR LPPR 151530Z 30009KT 240V330 CAVOK 22/15 Q1019=
201007151500 METAR LPPR 151500Z 28009KT 240V330 CAVOK 22/14 Q1019=
201007151430 METAR LPPR 151430Z 30009KT 270V330 CAVOK 22/14 Q1019=
201007151400 METAR LPPR 151400Z 30012KT CAVOK 22/13 Q1019=
201007151330 METAR LPPR 151330Z 30011KT CAVOK 22/13 Q1019=
201007151300 METAR LPPR 151300Z 29010KT 260V320 9999 FEW020 22/12 Q1019=
201007151230 METAR LPPR 151230Z 30010KT 9999 FEW020 22/12 Q1019=
201007151200 METAR LPPR 151200Z 30009KT 270V330 9999 FEW020 22/11 Q1019=
201007151130 METAR LPPR 151130Z 29009KT 9999 FEW020 21/12 Q1019=
201007151100 METAR LPPR 151100Z 29008KT 260V330 9999 FEW020 21/14 Q1018=
201007151030 METAR LPPR 151030Z 29007KT 250V320 9999 SCT020 21/14 Q1018=
201007151000 METAR LPPR 151000Z 28006KT 240V330 9999 SCT020 21/14 Q1018=
201007150930 METAR LPPR 150930Z 32004KT 270V050 9999 FEW020 21/13 Q1018=
201007150900 METAR LPPR 150900Z VRB03KT 9999 FEW020 20/14 Q1019=
201007150830 METAR LPPR 150830Z 01004KT 330V070 9999 FEW020 19/14 Q1018=
201007150800 METAR LPPR 150800Z 00000KT CAVOK 18/14 Q1018=
201007150730 METAR LPPR 150730Z 00000KT CAVOK 17/15 Q1019=
201007150700 METAR LPPR 150700Z 00000KT CAVOK 16/15 Q1019=
201007150630 METAR LPPR 150630Z 00000KT CAVOK 14/14 Q1018=
201007150600 METAR LPPR 150600Z 00000KT CAVOK 13/12 Q1018=
201007150530 METAR LPPR 150530Z 00000KT CAVOK 12/12 Q1018=
201007150500 METAR LPPR 150500Z 00000KT CAVOK 12/12 Q1018=
201007150430 METAR LPPR 150430Z 00000KT CAVOK 12/12 Q1018=
201007150400 METAR LPPR 150400Z 00000KT CAVOK 13/12 Q1018=
201007150330 METAR LPPR 150330Z 00000KT CAVOK 13/13 Q1018=
201007150300 METAR LPPR 150300Z 00000KT CAVOK 13/13 Q1018=
201007150230 METAR LPPR 150230Z 00000KT CAVOK 14/13 Q1018=
201007150200 METAR LPPR 150200Z 00000KT CAVOK 14/14 Q1018=
201007150130 METAR LPPR 150130Z 00000KT CAVOK 14/14 Q1019=
201007150100 METAR LPPR 150100Z 00000KT CAVOK 14/14 Q1019=
201007150030 METAR LPPR 150030Z 00000KT CAVOK 15/14 Q1019=
201007150000 METAR LPPR 150000Z 00000KT CAVOK 15/14 Q1019=
201007142330 METAR LPPR 142330Z 00000KT CAVOK 15/14 Q1019=
201007142300 METAR LPPR 142300Z 00000KT CAVOK 15/14 Q1019=
201007142230 METAR LPPR 142230Z 00000KT CAVOK 16/14 Q1019=
201007142200 METAR LPPR 142200Z VRB03KT CAVOK 16/14 Q1019=
201007142130 METAR LPPR 142130Z 33004KT CAVOK 17/14 Q1019=
201007142100 METAR LPPR 142100Z 33005KT CAVOK 17/15 Q1019=
201007142030 METAR LPPR 142030Z 32005KT 9999 FEW017 18/15 Q1018=
201007142000 METAR LPPR 142000Z 32006KT 9999 FEW017 18/15 Q1018=
201007141930 METAR LPPR 141930Z 32006KT 290V350 9999 FEW017 20/15 Q1018=
201007141900 METAR LPPR 141900Z 32009KT 290V350 9999 FEW017 20/14 Q1018=
201007141830 METAR LPPR 141830Z 31009KT 9999 FEW017 21/13 Q1018=
201007141800 METAR LPPR 141800Z 32009KT 280V360 9999 FEW017 22/14 Q1018=
201007141730 METAR LPPR 141730Z 32009KT 290V350 9999 SCT017 22/14 Q1018=
201007141700 METAR LPPR 141700Z 29010KT 260V320 9999 FEW015 22/14 Q1018=
201007141630 METAR LPPR 141630Z 30008KT 260V340 9999 FEW015 22/14 Q1018=
201007141600 METAR LPPR 141600Z 31009KT 260V350 9999 FEW015 22/13 Q1018=
201007141530 METAR LPPR 141530Z 31010KT 280V340 9999 FEW015 22/12 Q1018=
201007141500 METAR LPPR 141500Z 31011KT 270V350 9999 FEW015 22/12 Q1017=
201007141430 METAR LPPR 141430Z 28011KT 9999 FEW013 23/12 Q1017=
201007141400 METAR LPPR 141400Z 29009KT 260V340 9999 FEW012 23/14 Q1017=
201007141330 METAR LPPR 141330Z 28006KT 220V340 9999 FEW012 SCT250 23/12
                        Q1017=
201007141300 METAR LPPR 141300Z 29010KT 260V340 9999 FEW012 SCT017 22/14
                        Q1017=
201007141230 METAR LPPR 141230Z 30010G20KT 230V340 9999 FEW012 SCT017
                        BKN250 22/15 Q1017=
201007141200 METAR LPPR 141200Z 30009KT 260V330 9999 SCT018 SCT250 22/14
                        Q1017=
201007141130 METAR LPPR 141130Z 27009KT 240V310 9999 FEW018 SCT050 BKN250
                        22/15 Q1017=
201007141100 METAR LPPR 141100Z 29009KT 260V330 9999 FEW012 SCT050 BKN250
                        22/13 Q1017=
201007141030 METAR LPPR 141030Z 29007KT 250V320 9999 FEW013 BKN045 22/14
                        Q1017=
201007141000 METAR LPPR 141000Z 30007KT 250V340 9999 FEW012 SCT030 BKN060
                        21/16 Q1016=
201007140930 METAR LPPR 140930Z 28007KT 250V320 9999 SCT012 BKN050 20/17
                        Q1016=
201007140900 METAR LPPR 140900Z 25005KT 210V330 9999 SCT012 BKN045 20/18
                        Q1016=
201007140830 METAR LPPR 140830Z VRB03KT 9999 FEW007 SCT013 BKN050 19/18
                        Q1016=
201007140800 METAR LPPR 140800Z VRB03KT 9999 FEW007 SCT013 BKN040 19/18
                        Q1015=
201007140730 METAR LPPR 140730Z 00000KT 9999 SCT013 BKN040 18/18 Q1015=
201007140700 METAR LPPR 140700Z 00000KT 9999 SCT017 BKN040 18/18 Q1014=
201007140630 METAR LPPR 140630Z 19002KT 9999 FEW015 BKN040 17/17 Q1014=
201007140600 METAR LPPR 140600Z VRB01KT 9999 BKN040 17/17 Q1014=
201007140530 METAR LPPR 140530Z 00000KT 9999 BKN040 17/16 Q1014=
201007140500 METAR LPPR 140500Z 00000KT 9999 FEW020 BKN040 17/17 Q1014=
201007140430 METAR LPPR 140430Z 00000KT 8000 SCT005 BKN020 17/17 Q1014=
201007140400 METAR LPPR 140400Z 33002KT 8000 SCT003 BKN020 17/17 Q1013=
201007140330 METAR LPPR 140330Z 31004KT 270V330 8000 FEW001 SCT005 BKN020
                        17/17 Q1014=
201007140300 METAR LPPR 140300Z VRB03KT 8000 SCT005 BKN020 17/17 Q1013
                        RERA=
201007140230 METAR LPPR 140230Z 30007KT 270V330 2000 DZ BR BKN001 BKN003
                        17/17 Q1014=
201007140200 METAR LPPR 140200Z 00000KT 3000 -DZ BR BKN003 BKN007 18/17
                        Q1013=
201007140130 METAR LPPR 140130Z 00000KT 9999 SCT009 BKN020 19/16 Q1013=
201007140100 METAR LPPR 140100Z 00000KT 9999 FEW015 BKN020 19/16 Q1014=
201007140030 METAR LPPR 140030Z 00000KT 9999 FEW017 BKN020 19/16 Q1014=
201007140000 METAR LPPR 140000Z 00000KT 9999 FEW017 BKN020 19/16 Q1014=
201007132330 METAR LPPR 132330Z 00000KT 9999 OVC020 19/16 Q1014=
201007132300 METAR LPPR 132300Z 00000KT 9999 OVC020 19/16 Q1014=
201007132230 METAR LPPR 132230Z 00000KT 9999 OVC020 19/16 Q1014=
201007132200 METAR LPPR 132200Z 00000KT 9999 BKN020 19/16 Q1014=
201007132130 METAR LPPR 132130Z 00000KT 9999 BKN020 18/16 Q1014=
201007132100 METAR LPPR 132100Z 00000KT 9999 FEW020 18/16 Q1014=
201007132030 METAR LPPR 132030Z 00000KT 9999 FEW020 19/15 Q1014=
201007132000 METAR LPPR 132000Z VRB01KT 9999 FEW020 19/15 Q1014=
201007131930 METAR LPPR 131930Z VRB03KT 9999 FEW020 21/15 Q1014=
201007131900 METAR LPPR 131900Z 28005KT 250V320 9999 FEW015 21/14 Q1014=
201007131830 METAR LPPR 131830Z 23006KT 200V280 9999 FEW015 21/16 Q1014=
201007131800 METAR LPPR 131800Z 24006KT 210V280 9999 SCT015 22/16 Q1014=
201007131730 METAR LPPR 131730Z 26007G19KT 190V340 9999 SCT015 22/16 Q1014=
201007131700 METAR LPPR 131700Z 26005KT 220V310 9999 SCT015 23/16 Q1014=
201007131630 METAR LPPR 131630Z 27006KT 230V340 9999 FEW014 23/15 Q1015=
201007131600 METAR LPPR 131600Z 27007KT 9999 FEW014 23/15 Q1015=
201007131530 METAR LPPR 131530Z 27008KT 240V310 9999 FEW014 23/16 Q1015=
201007131500 METAR LPPR 131500Z 30008KT 260V340 9999 FEW014 23/15 Q1016=
201007131430 METAR LPPR 131430Z 29008KT 250V330 9999 FEW014 23/15 Q1016=
201007131400 METAR LPPR 131400Z 30008KT 260V330 9999 FEW014 23/16 Q1016=
201007131330 METAR LPPR 131330Z 28007KT 240V330 9999 FEW014 SCT040 23/16
                        Q1016=
201007131300 METAR LPPR 131300Z 27009KT 9999 SCT014 22/16 Q1016=
201007131230 METAR LPPR 131230Z 30009KT 260V340 9999 SCT012 22/17 Q1016=
201007131200 METAR LPPR 131200Z 30007KT 250V330 9999 SCT012 22/18 Q1016=
201007131130 METAR LPPR 131130Z 28006KT 250V310 9999 FEW012 SCT040 22/18
                        Q1016=
201007131100 METAR LPPR 131100Z 29008KT 260V330 9999 FEW012 SCT040 22/18
                        Q1016=
201007131030 METAR LPPR 131030Z 00000KT 9999 FEW012 SCT040 21/18 Q1016=
201007131000 METAR LPPR 131000Z VRB02G12KT 9999 SCT012 SCT040 21/19 Q1016=
201007130930 METAR LPPR 130930Z 00000KT 9999 SCT012 SCT030 22/19 Q1016=
201007130900 METAR LPPR 130900Z 00000KT 9999 SCT007 BKN040 20/20 Q1016=
201007130830 METAR LPPR 130830Z 00000KT 8000 SCT003 BKN035 20/20 Q1016=
201007130800 METAR LPPR 130800Z 00000KT 1200 R17/P1500 R35/1100VP1500
                        BR VCFG SCT001 BKN002 19/19 Q1016=
201007130730 METAR LPPR 130730Z 00000KT 3000 BR SCT001 BKN002 BKN003 19/19
                        Q1016=
201007130700 METAR LPPR 130700Z 00000KT 2000 BR VCFG SCT001 BKN002 BKN003
                        19/19 Q1016=
201007130630 METAR LPPR 130630Z 00000KT 1500 BR VCFG BKN001 BKN002 19/19
                        Q1016=
201007130600 METAR LPPR 130600Z 00000KT 4000 BR SCT001 BKN002 19/19 Q1015=
201007130530 METAR LPPR 130530Z 00000KT 4000 BR SCT001 BKN002 19/19 Q1015=
201007130500 METAR LPPR 130500Z 00000KT 4000 BR SCT001 BKN002 19/19 Q1015=
201007130430 METAR LPPR 130430Z 00000KT 3000 -DZ BR BKN002 BKN004 19/19
                        Q1016=
201007130400 METAR LPPR 130400Z 00000KT 4000 BR BKN002 BKN005 19/19 Q1016=
201007130330 METAR LPPR 130330Z 00000KT 4000 BR FEW001 BKN005 BKN007 19/19
                        Q1016=
201007130300 METAR LPPR 130300Z 00000KT 4000 BR SCT001 BKN003 BKN008 19/19
                        Q1016=
201007130230 METAR LPPR 130230Z 00000KT 4000 BR SCT001 BKN003 BKN006 19/19
                        Q1016=
201007130200 METAR LPPR 130200Z 00000KT 3500 RADZ BR SCT003 BKN005 BKN008
                        19/19 Q1017=
201007130130 METAR LPPR 130130Z 00000KT 3500 RADZ BR SCT002 BKN005 BKN009
                        19/19 Q1017=
201007130100 METAR LPPR 130100Z 00000KT 4000 BR SCT003 BKN007 BKN010 19/19
                        Q1017=
201007130030 METAR LPPR 130030Z 00000KT 4000 BR FEW001 SCT003 BKN006 19/19
                        Q1017=
201007130000 METAR LPPR 130000Z 00000KT 5000 BR SCT003 SCT005 BKN010 19/19
                        Q1018=
201007122330 METAR LPPR 122330Z 00000KT 3500 BR VCFG SCT003 BKN006 BKN009
                        20/19 Q1018=
201007122300 METAR LPPR 122300Z 00000KT 9999 SCT006 BKN013 BKN017 20/18
                        Q1018=
201007122230 METAR LPPR 122230Z 00000KT 9999 FEW008 SCT010 BKN017 20/18
                        Q1018=
201007122200 METAR LPPR 122200Z 00000KT 9999 FEW008 BKN020 19/18 Q1018=
201007122130 METAR LPPR 122130Z 00000KT 9999 SCT007 BKN045 19/18 Q1018=
201007122100 METAR LPPR 122100Z 00000KT 9999 SCT006 BKN035 20/18 Q1018=
201007122030 METAR LPPR 122030Z 00000KT 9999 SCT008 BKN040 20/18 Q1018=
201007122000 METAR LPPR 122000Z VRB03KT 9999 SCT008 BKN035 20/18 Q1018=
201007121930 METAR LPPR 121930Z VRB03KT 9999 SCT010 SCT030 20/18 Q1018=
201007121900 METAR LPPR 121900Z 29005KT 240V350 9999 FEW012 SCT040 21/18
                        Q1018=
201007121830 METAR LPPR 121830Z 27006KT 240V320 9999 FEW015 22/18 Q1018=
201007121800 METAR LPPR 121800Z 28007KT 240V020 9999 FEW015 22/17 Q1018=
201007121730 METAR LPPR 121730Z 29007KT 260V320 9999 FEW015 22/17 Q1018=
201007121700 METAR LPPR 121700Z 30008KT 9999 FEW013 22/17 Q1019=
201007121630 METAR LPPR 121630Z 29008KT 260V320 9999 FEW015 22/18 Q1019=
201007121600 METAR LPPR 121600Z 29008KT 250V320 9999 FEW020 23/17 Q1019=
201007121530 METAR LPPR 121530Z 28009KT 9999 FEW015 23/17 Q1019=
201007121500 METAR LPPR 121500Z 28008KT 240V300 9999 FEW020 23/17 Q1019=
201007121430 METAR LPPR 121430Z 25009KT 9999 FEW020 SCT040 23/16 Q1019=
201007121400 METAR LPPR 121400Z 27007KT 230V310 9999 FEW020 SCT040 23/16
                        Q1019=
201007121330 METAR LPPR 121330Z 26008KT 240V310 9999 FEW020 SCT040 23/16
                        Q1019=
201007121300 METAR LPPR 121300Z 28008KT 240V320 9999 FEW020 23/15 Q1020=
201007121230 METAR LPPR 121230Z 27008KT 230V320 9999 FEW020 23/15 Q1020=
201007121200 METAR LPPR 121200Z 27007KT 200V320 9999 FEW020 23/15 Q1020=
201007121130 METAR LPPR 121130Z 00000KT 9999 FEW020 23/15 Q1020=
201007121100 METAR LPPR 121100Z 28006KT 200V330 9999 SCT020 23/14 Q1020=
201007121030 METAR LPPR 121030Z 27005KT 240V310 9999 SCT020 21/14 Q1020=
201007121000 METAR LPPR 121000Z 27005KT 170V310 9999 BKN020 21/16 Q1020=
201007120930 METAR LPPR 120930Z VRB02KT 9999 BKN017 SCT030 20/16 Q1020=
201007120900 METAR LPPR 120900Z 28005KT 260V320 9999 BKN017 SCT030 20/16
                        Q1020=
201007120830 METAR LPPR 120830Z 00000KT 9999 SCT017 21/16 Q1020=
201007120800 METAR LPPR 120800Z 00000KT 9999 FEW013 20/16 Q1019=
201007120730 METAR LPPR 120730Z 00000KT 8000 FEW013 19/18 Q1019=
201007120700 METAR LPPR 120700Z 00000KT 8000 FEW013 18/18 Q1019=
201007120630 METAR LPPR 120630Z 00000KT 6000 FEW012 17/17 Q1019=
201007120600 METAR LPPR 120600Z 00000KT 6000 FEW009 SCT020 16/16 Q1019=
201007120530 METAR LPPR 120530Z 00000KT 6000 BKN005 SCT020 16/16 Q1019=
201007120500 METAR LPPR 120500Z 00000KT 8000 FEW005 SCT020 17/16 Q1018=
201007120430 METAR LPPR 120430Z 00000KT 8000 SCT005 BKN020 17/17 Q1018=
201007120400 METAR LPPR 120400Z 00000KT 2000 BR BKN003 BKN005 17/17 Q1019=
201007120330 METAR LPPR 120330Z 00000KT 0800 R17/0800N R35/P1500 FG FEW002
                        BKN004 17/17 Q1019=
201007120300 METAR LPPR 120300Z 00000KT 0900 R17/P1500 R35/P1500 FG FEW002
                        BKN005 17/16 Q1019=
201007120230 METAR LPPR 120230Z 00000KT 4000 BR SCT004 BKN013 17/17 Q1019=
201007120200 METAR LPPR 120200Z 00000KT 3000 BR SCT004 BKN013 17/17 Q1019=
201007120130 METAR LPPR 120130Z 00000KT 5000 BR SCT003 BKN013 17/17 Q1019=
201007120100 METAR LPPR 120100Z 00000KT 8000 SCT004 BKN013 17/16 Q1019=
201007120030 METAR LPPR 120030Z 00000KT 8000 SCT005 BKN013 17/17 Q1019=
201007120000 METAR LPPR 120000Z 00000KT 8000 SCT007 SCT013 17/17 Q1019=
201007112330 METAR LPPR 112330Z 00000KT 8000 SCT005 BKN013 17/17 Q1020=
201007112300 METAR LPPR 112300Z 00000KT 8000 SCT005 BKN013 17/17 Q1020=
201007112230 METAR LPPR 112230Z 00000KT 8000 BKN006 BKN013 18/17 Q1020=
201007112200 METAR LPPR 112200Z 32002KT 8000 BKN008 BKN013 18/17 Q1020=
201007112130 METAR LPPR 112130Z 33005KT 8000 BKN008 BKN013 18/17 Q1020=
201007112100 METAR LPPR 112100Z 32005KT 8000 BKN008 BKN013 18/17 Q1019=
201007112030 METAR LPPR 112030Z 33007KT 8000 BKN005 BKN013 19/17 Q1019=
201007112000 METAR LPPR 112000Z 32007KT 8000 SCT004 BKN007 19/18 Q1019=
201007111930 METAR LPPR 111930Z 31007KT 280V340 8000 SCT004 BKN007 19/18
                        Q1018=
201007111900 METAR LPPR 111900Z 32008KT 8000 SCT003 BKN007 19/18 Q1018=
201007111830 METAR LPPR 111830Z 32006KT 280V350 9999 SCT004 BKN007 20/18
                        Q1018=
201007111800 METAR LPPR 111800Z 30006KT 240V340 9999 SCT004 BKN007 20/18
                        Q1018=
201007111730 METAR LPPR 111730Z 31007KT 260V340 9999 BKN007 21/18 Q1018=
201007111700 METAR LPPR 111700Z 31007KT 260V340 9999 BKN008 21/18 Q1018=
201007111630 METAR LPPR 111630Z 32009KT 290V350 9999 BKN008 21/18 Q1018=
201007111600 METAR LPPR 111600Z 31010KT 9999 BKN009 22/18 Q1018=
201007111530 METAR LPPR 111530Z 30010KT 270V330 9999 BKN009 22/18 Q1018=
201007111500 METAR LPPR 111500Z 29011KT 260V320 9999 BKN007 22/18 Q1018=
201007111430 METAR LPPR 111430Z 29008KT 270V330 9999 FEW007 SCT250 23/18
                        Q1018=
201007111400 METAR LPPR 111400Z 29007KT 240V010 9999 FEW005 SCT250 23/18
                        Q1018=
201007111330 METAR LPPR 111330Z 32010KT 260V340 9999 FEW005 24/18 Q1019=
201007111300 METAR LPPR 111300Z 31009KT 280V340 9999 FEW005 24/18 Q1019=
201007111230 METAR LPPR 111230Z 30009KT 280V340 CAVOK 24/18 Q1019=
201007111200 METAR LPPR 111200Z 30008KT 260V340 CAVOK 24/18 Q1019=
201007111130 METAR LPPR 111130Z 32007KT 290V350 CAVOK 24/18 Q1019=
201007111100 METAR LPPR 111100Z 28005KT 250V340 CAVOK 22/18 Q1019=
201007111030 METAR LPPR 111030Z 28008KT CAVOK 22/18 Q1019=
201007111000 METAR LPPR 111000Z 00000KT CAVOK 23/18 Q1019=
201007110930 METAR LPPR 110930Z 00000KT 9999 FEW008 22/17 Q1019=
201007110900 METAR LPPR 110900Z 00000KT 9999 SCT006 20/19 Q1019=
201007110830 METAR LPPR 110830Z 00000KT 9999 FEW004 SCT007 18/18 Q1019=
201007110800 METAR LPPR 110800Z 00000KT 4000 BR SCT002 BKN004 17/17 Q1019=
201007110730 METAR LPPR 110730Z 00000KT 2000 BR VCFG SCT001 BKN003 16/16
                        Q1019=
201007110700 METAR LPPR 110700Z 00000KT 0900 R17/1100N R35/0900VP1500
                        FG SCT000 BKN002 16/16 Q1019=
201007110630 METAR LPPR 110630Z VRB03KT 0600 R17/0900U R35/0600V0900N
                        FG VV002 15/15 Q1019=
201007110600 METAR LPPR 110600Z VRB02KT 0400 R17/0800N R35/0700V1000U
                        FG VV002 15/15 Q1019=
201007110530 METAR LPPR 110530Z 00000KT 0250 R17/0600N R35/0450V0550N
                        FG VV001 15/15 Q1019=
201007110500 METAR LPPR 110500Z 00000KT 0300 R17/0400V0500N R35/0350V0500N
                        FG VV001 15/15 Q1019=
201007110430 METAR LPPR 110430Z 00000KT 0500 R17/0650V1100N R35/0500V0700D
                        FG VV001 15/15 Q1019=
201007110400 METAR LPPR 110400Z 00000KT 1500 R17/0600N R35/P1500 BCFG
                        BR FEW001 SCT004 15/15 Q1019=
201007110330 METAR LPPR 110330Z 00000KT 3000 BR FEW002 SCT004 15/15 Q1019=
201007110300 METAR LPPR 110300Z 00000KT 3000 BR SCT002 16/16 Q1019=
201007110230 METAR LPPR 110230Z 00000KT 3000 BR FEW002 SCT004 16/16 Q1019=
201007110200 METAR LPPR 110200Z 34006KT 3000 BR SCT003 BKN005 17/16 Q1020=
201007110130 METAR LPPR 110130Z 32006KT 3000 BR FEW000 SCT003 17/17 Q1020=
201007110100 METAR LPPR 110100Z 33006KT 3000 BR SCT002 BKN003 17/17 Q1020=
201007110030 METAR LPPR 110030Z 33007KT 3000 BR SCT000 BKN003 18/17 Q1020=
201007110000 METAR LPPR 110000Z 00000KT 4000 BR SCT001 BKN004 17/17 Q1020=
201007102330 METAR LPPR 102330Z 33007KT 3000 BR SCT000 BKN002 17/17 Q1020=
201007102300 METAR LPPR 102300Z 32009KT 3000 BR SCT000 BKN002 17/17 Q1020=
201007102230 METAR LPPR 102230Z 30004KT 3000 BR FEW001 SCT003 17/17 Q1020=
201007102200 METAR LPPR 102200Z VRB03KT 8000 SCT005 17/17 Q1020=
201007102130 METAR LPPR 102130Z 33006KT 6000 SCT004 17/17 Q1020=
201007102100 METAR LPPR 102100Z 33010KT 7000 SCT003 BKN005 18/17 Q1020=
201007102030 METAR LPPR 102030Z 32009KT 7000 SCT003 BKN005 18/17 Q1020=
201007102000 METAR LPPR 102000Z 33007KT 7000 SCT003 BKN005 18/17 Q1020=
201007101930 METAR LPPR 101930Z 32009KT 4000 BR VCFG FEW004 SCT005 18/17
                        Q1020=
201007101900 METAR LPPR 101900Z 32009KT 280V350 8000 FEW004 SCT007 19/17
                        Q1020=
201007101830 METAR LPPR 101830Z 32011KT 8000 FEW004 SCT007 20/17 Q1020=
201007101800 METAR LPPR 101800Z 32013KT 280V340 9999 FEW006 SCT008 20/17
                        Q1020=
201007101730 METAR LPPR 101730Z 32013KT 9999 FEW004 SCT007 20/17 Q1020=
201007101700 METAR LPPR 101700Z 31012KT 9999 FEW009 20/16 Q1020=
201007101630 METAR LPPR 101630Z 31012KT 9999 FEW008 21/16 Q1020=
201007101600 METAR LPPR 101600Z 31011KT 9999 FEW008 21/17 Q1020=
201007101530 METAR LPPR 101530Z 30009KT 270V340 9999 FEW006 22/17 Q1020=
201007101500 METAR LPPR 101500Z 31010KT 270V330 9999 FEW006 22/17 Q1021=
201007101430 METAR LPPR 101430Z 31009KT 270V350 8000 VCFG FEW006 22/17
                        Q1021=
201007101400 METAR LPPR 101400Z 31011KT 270V340 8000 VCFG FEW006 21/17
                        Q1021=
201007101330 METAR LPPR 101330Z 30009KT 270V330 8000 VCFG FEW004 21/17
                        Q1021=
201007101300 METAR LPPR 101300Z 32009KT 280V340 8000 VCFG FEW003 21/17
                        Q1020=
201007101230 METAR LPPR 101230Z 30009KT 260V330 8000 VCFG FEW006 22/18
                        Q1020=
201007101200 METAR LPPR 101200Z 27008KT 250V320 8000 VCFG FEW006 23/18
                        Q1020=
201007101130 METAR LPPR 101130Z 31006KT 9999 FEW006 23/17 Q1021=
201007101100 METAR LPPR 101100Z 27010KT 240V300 9999 FEW006 22/17 Q1021=
201007101030 METAR LPPR 101030Z 28006KT 250V310 CAVOK 23/18 Q1021=
201007101000 METAR LPPR 101000Z VRB02KT CAVOK 23/18 Q1021=
201007100930 METAR LPPR 100930Z 00000KT CAVOK 21/18 Q1021=
201007100900 METAR LPPR 100900Z 00000KT CAVOK 20/17 Q1021=
201007100830 METAR LPPR 100830Z 00000KT 9999 FEW009 19/17 Q1021=
201007100800 METAR LPPR 100800Z 00000KT 8000 FEW008 20/17 Q1021=
201007100730 METAR LPPR 100730Z 00000KT 8000 FEW008 18/18 Q1020=
201007100700 METAR LPPR 100700Z 00000KT 5000 BR FEW008 17/17 Q1020=
201007100630 METAR LPPR 100630Z 00000KT 3000 BR FEW008 16/16 Q1020=
201007100600 METAR LPPR 100600Z 00000KT 3000 BR FEW008 14/14 Q1020=
201007100530 METAR LPPR 100530Z 00000KT 5000 BR FEW008 14/14 Q1020=
201007100500 METAR LPPR 100500Z 00000KT 7000 FEW008 14/14 Q1020=
201007100430 METAR LPPR 100430Z 00000KT CAVOK 14/14 Q1020=
201007100400 METAR LPPR 100400Z 00000KT CAVOK 15/14 Q1020=
201007100330 METAR LPPR 100330Z 00000KT CAVOK 15/14 Q1020=
201007100300 METAR LPPR 100300Z 00000KT CAVOK 15/15 Q1020=
201007100230 METAR LPPR 100230Z 00000KT CAVOK 15/15 Q1020=
201007100200 METAR LPPR 100200Z 00000KT CAVOK 16/15 Q1020=
201007100130 METAR LPPR 100130Z 00000KT CAVOK 15/15 Q1020=
201007100100 METAR LPPR 100100Z 00000KT CAVOK 16/15 Q1021=
201007100030 METAR LPPR 100030Z 00000KT CAVOK 16/15 Q1021=
201007100000 METAR LPPR 100000Z 35002KT CAVOK 16/15 Q1021=
201007092330 METAR LPPR 092330Z 00000KT CAVOK 16/15 Q1021=
201007092300 METAR LPPR 092300Z 00000KT CAVOK 16/15 Q1021=
201007092230 METAR LPPR 092230Z 34005KT 320V020 CAVOK 17/16 Q1021=
201007092200 METAR LPPR 092200Z 34003KT CAVOK 16/15 Q1021=
201007092130 METAR LPPR 092130Z 35006KT CAVOK 17/16 Q1021=
201007092100 METAR LPPR 092100Z 34007KT CAVOK 18/16 Q1021=
201007092030 METAR LPPR 092030Z 32007KT 290V350 CAVOK 18/16 Q1020=
201007092000 METAR LPPR 092000Z 33008KT 290V010 CAVOK 19/16 Q1020=
201007091930 METAR LPPR 091930Z 32007KT 290V350 CAVOK 20/16 Q1020=
201007091900 METAR LPPR 091900Z 32008KT 290V350 CAVOK 21/16 Q1021=
201007091830 METAR LPPR 091830Z 32007KT 280V340 CAVOK 22/16 Q1020=
201007091800 METAR LPPR 091800Z 31009KT 280V340 CAVOK 22/17 Q1021=
201007091730 METAR LPPR 091730Z 32010KT 9999 FEW006 22/17 Q1021=
201007091700 METAR LPPR 091700Z 32012KT 9999 FEW006 22/17 Q1021=
201007091630 METAR LPPR 091630Z 31010KT 270V350 9999 FEW009 22/17 Q1021=
201007091600 METAR LPPR 091600Z 30010KT 270V330 9999 FEW009 22/17 Q1021=
201007091530 METAR LPPR 091530Z 30012KT 270V350 9999 FEW015 22/18 Q1021=
201007091500 METAR LPPR 091500Z 32011KT 270V340 9999 FEW017 23/18 Q1021=
201007091430 METAR LPPR 091430Z 31009KT 9999 FEW015 23/18 Q1021=
201007091400 METAR LPPR 091400Z 31010KT 270V350 9999 FEW013 SCT018 23/18
                        Q1021=
201007091330 METAR LPPR 091330Z 32009KT 280V350 9999 SCT013 BKN018 23/18
                        Q1021=
201007091300 METAR LPPR 091300Z 32009KT 290V350 9999 SCT012 BKN017 23/19
                        Q1022=
201007091230 METAR LPPR 091230Z 31007KT 270V340 9999 FEW009 SCT012 BKN018
                        22/18 Q1022=
201007091200 METAR LPPR 091200Z 32008KT 270V350 8000 FEW009 SCT013 BKN018
                        22/18 Q1022=
201007091130 METAR LPPR 091130Z 30006KT 260V320 8000 SCT009 BKN013 21/18
                        Q1022=
201007091100 METAR LPPR 091100Z 33004KT 290V010 8000 BKN009 BKN012 21/18
                        Q1021=
201007091030 METAR LPPR 091030Z 31003KT 8000 SCT007 BKN010 20/18 Q1021=
201007091000 METAR LPPR 091000Z 00000KT 8000 SCT006 BKN009 20/18 Q1021=
201007090930 METAR LPPR 090930Z 00000KT 8000 SCT005 BKN008 20/18 Q1021=
201007090900 METAR LPPR 090900Z 00000KT 7000 BKN004 BKN006 19/18 Q1021=
201007090830 METAR LPPR 090830Z 00000KT 4000 BR VCFG BKN003 BKN005 19/18
                        Q1021=
201007090800 METAR LPPR 090800Z 00000KT 2000 BR VCFG SCT001 BKN003 18/18
                        Q1021=
201007090730 METAR LPPR 090730Z 00000KT 1500 BR VCFG SCT001 BKN003 18/18
                        Q1021=
201007090700 METAR LPPR 090700Z 00000KT 2500 BR BKN002 BKN004 18/18 Q1020=
201007090630 METAR LPPR 090630Z 00000KT 3000 BR BKN002 BKN004 18/18 Q1020=
201007090600 METAR LPPR 090600Z 00000KT 4000 BR BKN002 BKN004 18/18 Q1020=
201007090530 METAR LPPR 090530Z 00000KT 4000 BR BKN002 BKN004 18/18 Q1020=
201007090500 METAR LPPR 090500Z 00000KT 5000 BR BKN002 BKN004 18/18 Q1020=
201007090430 METAR LPPR 090430Z 00000KT 5000 BR SCT002 BKN003 BKN005 18/18
                        Q1019=
201007090400 METAR LPPR 090400Z 00000KT 5000 BR SCT002 BKN003 BKN005 18/18
                        Q1019=
201007090330 METAR LPPR 090330Z 00000KT 5000 BR FEW002 SCT004 BKN006 18/18
                        Q1019=
201007090300 METAR LPPR 090300Z 17004KT 5000 BR FEW001 BKN004 18/18 Q1019=
201007090230 METAR LPPR 090230Z 17006KT 5000 BR FEW002 SCT003 BKN005 18/18
                        Q1019=
201007090200 METAR LPPR 090200Z 17006KT 140V200 5000 BR FEW001 SCT003
                        BKN006 18/17 Q1019=
201007090130 METAR LPPR 090130Z 18007KT 3500 BR VCFG FEW001 SCT005 BKN007
                        18/18 Q1019=
201007090100 METAR LPPR 090100Z 16006KT 3500 BR VCFG FEW001 SCT003 BKN005
                        18/18 Q1019=
201007090030 METAR LPPR 090030Z 17003KT 5000 BR FEW001 SCT003 BKN004 18/17
                        Q1019=
201007090000 METAR LPPR 090000Z 17006KT 5000 BR FEW001 SCT003 BKN005 18/17
                        Q1018=
201007082330 METAR LPPR 082330Z 18008KT 8000 FEW002 SCT004 BKN005 18/17
                        Q1018=
201007082300 METAR LPPR 082300Z 16009KT 120V180 7000 FEW002 BKN004 18/17
                        Q1018=
201007082230 METAR LPPR 082230Z 17006KT 5000 BR FEW001 SCT002 BKN004 17/17
                        Q1018=
201007082200 METAR LPPR 082200Z 18007KT 3000 BR VCFG SCT001 BKN002 18/17
                        Q1018=
201007082130 METAR LPPR 082130Z 18004KT 2500 BR VCFG SCT001 BKN002 18/17
                        Q1017=
201007082100 METAR LPPR 082100Z 20004KT 170V230 3000 SCT001 BKN002 18/17
                        Q1017=
201007082030 METAR LPPR 082030Z VRB05KT 3000 BR VCFG SCT001 BKN002 18/17
                        Q1017=
201007082000 METAR LPPR 082000Z 22006KT 190V260 3000 BR VCFG BKN002 BKN004
                        18/17 Q1017=
201007081930 METAR LPPR 081930Z 21007KT 190V250 3000 BR VCFG BKN003 BKN005
                        18/17 Q1016=
201007081900 METAR LPPR 081900Z 22008KT 3500 BR BKN003 BKN005 18/17 Q1016=
201007081830 METAR LPPR 081830Z 20010KT 3500N BKN003 BKN005 18/17 Q1016=
201007081800 METAR LPPR 081800Z 20010KT 170V250 4000 BR SCT003 BKN005
                        19/17 Q1016=
201007081730 METAR LPPR 081730Z 20008KT 170V240 7000 SCT005 BKN008 20/17
                        Q1016=
201007081700 METAR LPPR 081700Z 21008KT 5000 BR SCT004 BKN015 21/18 Q1015=
201007081630 METAR LPPR 081630Z 21007KT 160V270 5000 BR SCT003 BKN015
                        22/18 Q1015=
201007081600 METAR LPPR 081600Z 21009G20KT 170V250 9999 FEW007 SCT015
                        23/18 Q1015=
201007081530 METAR LPPR 081530Z 20009KT 170V240 9999 FEW007 SCT015 24/18
                        Q1016=
201007081500 METAR LPPR 081500Z 21009KT 9999 FEW007 SCT011 23/18 Q1016=
201007081430 METAR LPPR 081430Z 20008KT 160V220 9999 FEW006 FEW025CB BKN250
                        23/18 Q1016=
201007081400 METAR LPPR 081400Z 20007KT 160V230 9999 FEW006 SCT250 24/18
                        Q1016=
201007081330 METAR LPPR 081330Z 00000KT 7000 SCT006 23/18 Q1016=
201007081300 METAR LPPR 081300Z 21006KT 180V260 7000 SCT006 BKN007 21/18
                        Q1016=
201007081230 METAR LPPR 081230Z 21007KT 180V240 5000 BR SCT004 BKN006
                        22/18 Q1015=
201007081200 METAR LPPR 081200Z 22006KT 180V260 5000 BR FEW003 SCT004
                        BKN006 21/18 Q1015=
201007081130 METAR LPPR 081130Z 23008KT 4000 BR FEW003 BKN004 20/18 Q1015=
201007081100 METAR LPPR 081100Z 21009KT 170V260 4000 BR FEW002 BKN004
                        21/18 Q1015=
201007081030 METAR LPPR 081030Z 22010KT 5000 BR FEW003 SCT006 BKN250 22/18
                        Q1014=
201007081000 METAR LPPR 081000Z 23007KT 180V260 5000 BR SCT250 22/19 Q1014=
201007080930 METAR LPPR 080930Z 23008KT 190V260 5000 BR SCT250 22/19 Q1014=
201007080900 METAR LPPR 080900Z VRB03KT 5000 BR SCT250 24/19 Q1013=
201007080830 METAR LPPR 080830Z 00000KT 5000 BR SCT250 23/19 Q1014=
201007080800 METAR LPPR 080800Z 00000KT 5000 BR BKN250 22/18 Q1014=
201007080730 METAR LPPR 080730Z 00000KT 5000 BR BKN250 22/19 Q1014=
201007080700 METAR LPPR 080700Z 00000KT 6000 BKN250 20/18 Q1014=
201007080630 METAR LPPR 080630Z 13005KT 100V160 6000 FEW005 BKN250 19/18
                        Q1013=
201007080600 METAR LPPR 080600Z 13005KT 100V170 6000 BKN005 18/18 Q1013=
201007080530 METAR LPPR 080530Z 15006KT 6000 SCT004 BKN006 18/17 Q1013=
201007080500 METAR LPPR 080500Z 18009KT 150V210 6000 SCT004 BKN006 18/17
                        Q1014=
201007080430 METAR LPPR 080430Z 18009KT 6000 SCT004 BKN005 18/17 Q1014=
201007080400 METAR LPPR 080400Z 21007KT 6000 SCT003 BKN005 FEW020CB 18/17
                        Q1013=
201007080330 METAR LPPR 080330Z 19008KT 7000 TS BKN005 FEW020CB 18/17
                        Q1013=
201007080300 METAR LPPR 080300Z 18009KT 9999 TS FEW007 FEW020CB SCT100
                        18/17 Q1013=
201007080230 METAR LPPR 080230Z 17011KT 9000 FEW017 SCT100 18/17 Q1013=
201007080200 METAR LPPR 080200Z 17010KT 9000 FEW017 SCT100 19/17 Q1013=
201007080130 METAR LPPR 080130Z 00000KT CAVOK 19/17 Q1013=
201007080100 METAR LPPR 080100Z 00000KT CAVOK 19/17 Q1013=
201007080030 METAR LPPR 080030Z 00000KT CAVOK 19/17 Q1013=
201007080000 METAR LPPR 080000Z 20004KT CAVOK 19/17 Q1013=
201007072330 METAR LPPR 072330Z 20003KT CAVOK 19/17 Q1013=
201007072300 METAR LPPR 072300Z 00000KT CAVOK 19/17 Q1013=
201007072230 METAR LPPR 072230Z 00000KT CAVOK 19/17 Q1013=
201007072200 METAR LPPR 072200Z 00000KT CAVOK 19/17 Q1014=
201007072130 METAR LPPR 072130Z 00000KT CAVOK 19/17 Q1013=
201007072100 METAR LPPR 072100Z 00000KT CAVOK 20/17 Q1013=
201007072030 METAR LPPR 072030Z 00000KT 9000 SCT080 20/17 Q1013=
201007072000 METAR LPPR 072000Z VRB03KT 9000 FEW080 21/17 Q1013=
201007071930 METAR LPPR 071930Z VRB03KT 9000 FEW080 22/18 Q1013=
201007071900 METAR LPPR 071900Z VRB03KT CAVOK 23/17 Q1013=
201007071830 METAR LPPR 071830Z 30006KT 260V340 CAVOK 26/18 Q1013=
201007071800 METAR LPPR 071800Z 30006KT 270V330 CAVOK 27/19 Q1012=
201007071730 METAR LPPR 071730Z 30005KT 270V330 CAVOK 29/20 Q1012=
201007071700 METAR LPPR 071700Z 33006KT 290V350 CAVOK 30/20 Q1012=
201007071630 METAR LPPR 071630Z 31004KT 260V350 CAVOK 31/19 Q1012=
201007071600 METAR LPPR 071600Z 32007KT CAVOK 30/19 Q1013=
201007071530 METAR LPPR 071530Z 32007KT 270V350 CAVOK 30/19 Q1013=
201007071500 METAR LPPR 071500Z 33007KT CAVOK 28/20 Q1013=
201007071430 METAR LPPR 071430Z 30004KT 260V340 CAVOK 29/20 Q1013=
201007071400 METAR LPPR 071400Z 25005KT 210V270 CAVOK 29/20 Q1014=
201007071330 METAR LPPR 071330Z 26005KT 210V320 9999 FEW100 BKN250 32/21
                        Q1014=
201007071300 METAR LPPR 071300Z 02004KT 350V080 CAVOK 29/20 Q1014=
201007071230 METAR LPPR 071230Z 00000KT CAVOK 27/19 Q1014=
201007071200 METAR LPPR 071200Z 00000KT CAVOK 25/18 Q1015=
201007071130 METAR LPPR 071130Z 24008KT 190V330 9999 FEW100 BKN250 24/18
                        Q1015=
201007071100 METAR LPPR 071100Z 00000KT 9000 FEW100 BKN250 28/20 Q1015=
201007071030 METAR LPPR 071030Z 00000KT 9000 FEW100 BKN250 28/20 Q1015=
201007071000 METAR LPPR 071000Z 00000KT 8000 BKN200 27/19 Q1015=
201007070930 METAR LPPR 070930Z VRB02KT 8000 BKN200 26/19 Q1015=
201007070900 METAR LPPR 070900Z 21004KT 8000 BKN200 26/18 Q1015=
201007070830 METAR LPPR 070830Z 00000KT 6000 BKN200 26/19 Q1015=
201007070800 METAR LPPR 070800Z 00000KT 6000 BKN200 24/19 Q1015=
201007070730 METAR LPPR 070730Z VRB03KT 6000 BKN200 22/18 Q1015=
201007070700 METAR LPPR 070700Z 19004KT 6000 BKN200 21/18 Q1015=
201007070630 METAR LPPR 070630Z 00000KT 6000 BKN200 20/18 Q1014=
201007070600 METAR LPPR 070600Z 17005KT 6000 BKN250 20/18 Q1014=
201007070530 METAR LPPR 070530Z 20005KT 6000 BKN250 20/18 Q1015=
201007070500 METAR LPPR 070500Z 00000KT CAVOK 20/18 Q1014=
201007070430 METAR LPPR 070430Z 00000KT CAVOK 20/18 Q1014=
201007070400 METAR LPPR 070400Z 00000KT CAVOK 21/18 Q1014=
201007070330 METAR LPPR 070330Z 00000KT CAVOK 20/17 Q1014=
201007070300 METAR LPPR 070300Z 00000KT CAVOK 20/17 Q1014=
201007070230 METAR LPPR 070230Z 00000KT CAVOK 21/17 Q1014=
201007070200 METAR LPPR 070200Z 17005KT CAVOK 20/17 Q1015=
201007070130 METAR LPPR 070130Z 17004KT CAVOK 20/17 Q1015=
201007070100 METAR LPPR 070100Z 00000KT CAVOK 20/17 Q1015=
201007070030 METAR LPPR 070030Z 00000KT CAVOK 20/17 Q1015=
201007070000 METAR LPPR 070000Z 00000KT CAVOK 21/17 Q1015=
201007062330 METAR LPPR 062330Z 00000KT CAVOK 21/17 Q1015=
201007062300 METAR LPPR 062300Z 00000KT CAVOK 21/17 Q1015=
201007062230 METAR LPPR 062230Z 00000KT CAVOK 22/17 Q1015=
201007062200 METAR LPPR 062200Z 00000KT CAVOK 22/17 Q1015=
201007062130 METAR LPPR 062130Z 00000KT CAVOK 22/17 Q1015=
201007062100 METAR LPPR 062100Z 00000KT CAVOK 22/17 Q1015=
201007062030 METAR LPPR 062030Z 00000KT CAVOK 24/18 Q1015=
201007062000 METAR LPPR 062000Z 00000KT CAVOK 26/18 Q1015=
201007061930 METAR LPPR 061930Z 00000KT CAVOK 27/18 Q1015=
201007061900 METAR LPPR 061900Z 00000KT CAVOK 28/18 Q1015=
201007061830 METAR LPPR 061830Z VRB02KT CAVOK 29/18 Q1015=
201007061800 METAR LPPR 061800Z 29004KT 250V330 CAVOK 30/19 Q1015=
201007061730 METAR LPPR 061730Z 32005KT CAVOK 32/18 Q1015=
201007061700 METAR LPPR 061700Z 29005KT 260V350 CAVOK 32/19 Q1015=
201007061630 METAR LPPR 061630Z 32007KT 290V350 CAVOK 33/18 Q1015=
201007061600 METAR LPPR 061600Z 32008KT CAVOK 33/18 Q1016=
201007061530 METAR LPPR 061530Z 32008KT CAVOK 33/17 Q1016=
201007061500 METAR LPPR 061500Z 32009KT 290V350 CAVOK 32/17 Q1016=
201007061430 METAR LPPR 061430Z 31009KT CAVOK 32/17 Q1016=
201007061400 METAR LPPR 061400Z 31009KT CAVOK 32/17 Q1017=
201007061330 METAR LPPR 061330Z 30008KT 270V330 CAVOK 32/17 Q1017=
201007061300 METAR LPPR 061300Z 30007KT 260V340 CAVOK 33/17 Q1017=
201007061230 METAR LPPR 061230Z 28007KT CAVOK 32/19 Q1017=
201007061200 METAR LPPR 061200Z 27007KT 210V300 CAVOK 34/20 Q1017=
201007061130 METAR LPPR 061130Z 00000KT CAVOK 36/15 Q1017=
201007061100 METAR LPPR 061100Z 00000KT CAVOK 35/15 Q1017=
201007061030 METAR LPPR 061030Z 07004KT 030V110 CAVOK 34/15 Q1017=
201007061000 METAR LPPR 061000Z 06005KT 010V120 CAVOK 33/14 Q1018=
201007060930 METAR LPPR 060930Z 08005KT 020V150 CAVOK 32/14 Q1018=
201007060900 METAR LPPR 060900Z 07005KT 010V130 CAVOK 32/15 Q1017=
201007060830 METAR LPPR 060830Z 08006KT 030V130 CAVOK 30/14 Q1017=
201007060800 METAR LPPR 060800Z 07005KT 010V110 CAVOK 30/14 Q1017=
201007060730 METAR LPPR 060730Z 00000KT CAVOK 26/19 Q1017=
201007060700 METAR LPPR 060700Z 00000KT CAVOK 23/19 Q1017=
201007060630 METAR LPPR 060630Z 00000KT CAVOK 21/18 Q1017=
201007060600 METAR LPPR 060600Z 00000KT CAVOK 20/17 Q1017=
201007060530 METAR LPPR 060530Z 00000KT CAVOK 19/16 Q1017=
201007060500 METAR LPPR 060500Z 36003KT CAVOK 19/16 Q1017=
201007060430 METAR LPPR 060430Z 35005KT CAVOK 19/16 Q1017=
201007060400 METAR LPPR 060400Z 35004KT CAVOK 19/17 Q1017=
201007060330 METAR LPPR 060330Z 35004KT CAVOK 20/17 Q1017=
201007060300 METAR LPPR 060300Z 35002KT CAVOK 20/17 Q1017=
201007060230 METAR LPPR 060230Z 35003KT CAVOK 20/17 Q1017=
201007060200 METAR LPPR 060200Z 35002KT CAVOK 21/18 Q1017=
201007060130 METAR LPPR 060130Z 00000KT CAVOK 22/18 Q1017=
201007060100 METAR LPPR 060100Z 35003KT CAVOK 23/18 Q1017=
201007060030 METAR LPPR 060030Z 35004KT CAVOK 22/18 Q1018=
201007060000 METAR LPPR 060000Z 00000KT CAVOK 22/18 Q1018=
201007052330 METAR LPPR 052330Z 00000KT CAVOK 22/18 Q1018=
201007052300 METAR LPPR 052300Z 00000KT CAVOK 22/17 Q1018=
201007052230 METAR LPPR 052230Z 00000KT CAVOK 22/17 Q1018=
201007052200 METAR LPPR 052200Z 00000KT CAVOK 22/17 Q1018=
201007052130 METAR LPPR 052130Z 00000KT CAVOK 23/18 Q1018=
201007052100 METAR LPPR 052100Z 00000KT CAVOK 23/17 Q1017=
201007052030 METAR LPPR 052030Z 00000KT CAVOK 24/17 Q1017=
201007052000 METAR LPPR 052000Z 00000KT CAVOK 27/18 Q1017=
201007051930 METAR LPPR 051930Z 32003KT CAVOK 29/19 Q1017=
201007051900 METAR LPPR 051900Z 32006KT CAVOK 29/19 Q1017=
201007051830 METAR LPPR 051830Z 33005KT CAVOK 30/19 Q1017=
201007051800 METAR LPPR 051800Z 33007KT CAVOK 32/19 Q1017=
201007051730 METAR LPPR 051730Z 31006KT CAVOK 31/19 Q1017=
201007051700 METAR LPPR 051700Z 32005KT 280V340 CAVOK 31/19 Q1017=
201007051630 METAR LPPR 051630Z 31006KT 270V340 CAVOK 32/19 Q1017=
201007051600 METAR LPPR 051600Z 32007KT CAVOK 32/19 Q1018=
201007051530 METAR LPPR 051530Z 32008KT CAVOK 33/19 Q1018=
201007051500 METAR LPPR 051500Z 32008KT 290V350 CAVOK 34/18 Q1018=
201007051430 METAR LPPR 051430Z 32008KT CAVOK 33/19 Q1018=
201007051400 METAR LPPR 051400Z 32008KT CAVOK 33/18 Q1018=
201007051330 METAR LPPR 051330Z 32010KT CAVOK 33/18 Q1018=
201007051300 METAR LPPR 051300Z 32010KT CAVOK 32/19 Q1019=
201007051230 METAR LPPR 051230Z 31008KT CAVOK 32/19 Q1019=
201007051200 METAR LPPR 051200Z 31009KT 260V350 CAVOK 32/20 Q1019=
201007051130 METAR LPPR 051130Z 32009KT 290V350 CAVOK 32/20 Q1019=
201007051100 METAR LPPR 051100Z 32007KT CAVOK 30/20 Q1019=
201007051030 METAR LPPR 051030Z 31006KT CAVOK 30/20 Q1019=
201007051000 METAR LPPR 051000Z 29005KT 260V330 CAVOK 32/21 Q1019=
201007050930 METAR LPPR 050930Z 02004KT 350V050 CAVOK 32/19 Q1019=
201007050900 METAR LPPR 050900Z 02005KT CAVOK 31/19 Q1019=
201007050830 METAR LPPR 050830Z 00000KT CAVOK 30/20 Q1019=
201007050800 METAR LPPR 050800Z 00000KT CAVOK 27/20 Q1019=
201007050730 METAR LPPR 050730Z 00000KT CAVOK 25/20 Q1019=
201007050700 METAR LPPR 050700Z 00000KT CAVOK 24/20 Q1019=
201007050630 METAR LPPR 050630Z 00000KT CAVOK 21/20 Q1018=
201007050600 METAR LPPR 050600Z 00000KT CAVOK 19/19 Q1018=
201007050530 METAR LPPR 050530Z 00000KT CAVOK 19/18 Q1018=
201007050500 METAR LPPR 050500Z 00000KT CAVOK 19/18 Q1018=
201007050430 METAR LPPR 050430Z 00000KT CAVOK 20/18 Q1018=
201007050400 METAR LPPR 050400Z 00000KT CAVOK 20/18 Q1018=
201007050330 METAR LPPR 050330Z 01002KT CAVOK 20/19 Q1018=
201007050300 METAR LPPR 050300Z 00000KT CAVOK 21/19 Q1018=
201007050230 METAR LPPR 050230Z 00000KT CAVOK 21/19 Q1018=
201007050200 METAR LPPR 050200Z 00000KT CAVOK 21/19 Q1018=
201007050130 METAR LPPR 050130Z 00000KT CAVOK 21/19 Q1018=
201007050100 METAR LPPR 050100Z 00000KT CAVOK 21/19 Q1018=
201007050030 METAR LPPR 050030Z 00000KT CAVOK 21/19 Q1018=
201007050000 METAR LPPR 050000Z 00000KT CAVOK 22/19 Q1018=
201007042330 METAR LPPR 042330Z 00000KT CAVOK 22/19 Q1018=
201007042300 METAR LPPR 042300Z 00000KT CAVOK 22/19 Q1018=
201007042230 METAR LPPR 042230Z 00000KT CAVOK 22/19 Q1018=
201007042200 METAR LPPR 042200Z 00000KT CAVOK 22/19 Q1018=
201007042130 METAR LPPR 042130Z 00000KT CAVOK 22/19 Q1018=
201007042100 METAR LPPR 042100Z 00000KT CAVOK 22/18 Q1017=
201007042030 METAR LPPR 042030Z 00000KT CAVOK 24/19 Q1017=
201007042000 METAR LPPR 042000Z 33004KT CAVOK 25/19 Q1017=
201007041930 METAR LPPR 041930Z 33005KT CAVOK 26/19 Q1017=
201007041900 METAR LPPR 041900Z 33007KT CAVOK 27/19 Q1017=
201007041830 METAR LPPR 041830Z 32006KT 290V360 CAVOK 28/19 Q1017=
201007041800 METAR LPPR 041800Z 32006KT 290V350 CAVOK 29/19 Q1017=
201007041730 METAR LPPR 041730Z 32008KT CAVOK 29/19 Q1017=
201007041700 METAR LPPR 041700Z 31006KT 9999 FEW025 28/19 Q1017=
201007041630 METAR LPPR 041630Z 31007KT 9999 FEW025 29/19 Q1017=
201007041600 METAR LPPR 041600Z 32009KT 280V350 9999 FEW025 29/19 Q1017=
201007041530 METAR LPPR 041530Z 31008KT 9999 FEW025 30/19 Q1018=
201007041500 METAR LPPR 041500Z 31006KT 270V340 9999 FEW025 29/19 Q1018=
201007041430 METAR LPPR 041430Z 31007KT 280V340 9999 FEW025 29/19 Q1018=
201007041400 METAR LPPR 041400Z 32009KT 9999 FEW025 30/19 Q1018=
201007041330 METAR LPPR 041330Z 32008KT 290V350 9999 FEW025 29/19 Q1019=
201007041300 METAR LPPR 041300Z 31009KT 270V340 CAVOK 30/19 Q1019=
201007041230 METAR LPPR 041230Z 32009KT 290V350 CAVOK 29/19 Q1019=
201007041200 METAR LPPR 041200Z 31008KT 270V330 CAVOK 30/20 Q1019=
201007041130 METAR LPPR 041130Z 32007KT 270V340 CAVOK 29/19 Q1019=
201007041100 METAR LPPR 041100Z 30006KT 260V340 CAVOK 30/20 Q1019=
201007041030 METAR LPPR 041030Z 32005KT 280V350 CAVOK 29/22 Q1019=
201007041000 METAR LPPR 041000Z 31006KT 270V340 CAVOK 28/21 Q1019=
201007040930 METAR LPPR 040930Z 31007KT 270V330 CAVOK 28/21 Q1019=
201007040900 METAR LPPR 040900Z 35001KT CAVOK 28/21 Q1019=
201007040830 METAR LPPR 040830Z 03001KT CAVOK 26/21 Q1019=
201007040800 METAR LPPR 040800Z VRB03KT 8000 FEW250 24/20 Q1019=
201007040730 METAR LPPR 040730Z VRB03KT 6000 FEW250 23/19 Q1019=
201007040700 METAR LPPR 040700Z 00000KT 5000 BR FEW250 21/19 Q1019=
201007040630 METAR LPPR 040630Z 00000KT 5000 BR FEW250 19/18 Q1019=
201007040600 METAR LPPR 040600Z 00000KT 5000 BR FEW250 18/17 Q1019=
201007040530 METAR LPPR 040530Z 00000KT 5000 BR FEW250 17/16 Q1019=
201007040500 METAR LPPR 040500Z 00000KT 6000 FEW250 18/17 Q1018=
201007040430 METAR LPPR 040430Z 00000KT 7000 SKC 18/17 Q1018=
201007040400 METAR LPPR 040400Z 00000KT 7000 SKC 18/17 Q1018=
201007040330 METAR LPPR 040330Z 00000KT 7000 SKC 18/17 Q1018=
201007040300 METAR LPPR 040300Z 00000KT 5000 BR SKC 18/17 Q1018=
201007040230 METAR LPPR 040230Z 00000KT 6000 FEW250 18/16 Q1018=
201007040200 METAR LPPR 040200Z 00000KT 6000 FEW250 19/17 Q1018=
201007040130 METAR LPPR 040130Z VRB01KT 6000 FEW250 19/17 Q1018=
201007040100 METAR LPPR 040100Z 00000KT 8000 FEW250 20/17 Q1018=
201007040030 METAR LPPR 040030Z 00000KT CAVOK 20/18 Q1018=
201007040000 METAR LPPR 040000Z 00000KT CAVOK 20/18 Q1018=
201007032330 METAR LPPR 032330Z 00000KT CAVOK 19/17 Q1018=
201007032300 METAR LPPR 032300Z 00000KT CAVOK 19/17 Q1018=
201007032230 METAR LPPR 032230Z 00000KT CAVOK 19/17 Q1018=
201007032200 METAR LPPR 032200Z 00000KT 9000 BKN250 19/16 Q1018=
201007032130 METAR LPPR 032130Z 00000KT 9000 BKN250 20/16 Q1017=
201007032100 METAR LPPR 032100Z 00000KT CAVOK 21/17 Q1017=
201007032030 METAR LPPR 032030Z 33003KT CAVOK 22/17 Q1017=
201007032000 METAR LPPR 032000Z 34005KT 9999 FEW020TCU BKN250 22/17 Q1016=
201007031930 METAR LPPR 031930Z 29005KT 260V330 9999 FEW020TCU BKN250
                        23/17 Q1016=
201007031900 METAR LPPR 031900Z 34007KT 9999 FEW025CB BKN250 24/17 Q1016=
201007031830 METAR LPPR 031830Z 32006KT 290V360 9999 FEW025CB BKN250 24/18
                        Q1016=
201007031800 METAR LPPR 031800Z 31007KT 280V340 9999 FEW025CB SCT250 25/17
                        Q1016=
201007031730 METAR LPPR 031730Z 31007KT 270V330 9999 FEW025CB SCT250 26/18
                        Q1016=
201007031700 METAR LPPR 031700Z 32011KT 9999 FEW025CB SCT250 27/18 Q1016=
201007031630 METAR LPPR 031630Z 34013KT 9999 FEW025CB 26/18 Q1016=
201007031600 METAR LPPR 031600Z 32011KT 290V350 9999 FEW025CB 26/18 Q1016=
201007031530 METAR LPPR 031530Z 32011KT 9999 FEW025CB 25/17 Q1016=
201007031500 METAR LPPR 031500Z 30011KT 9999 FEW025CB 25/17 Q1016=
201007031430 METAR LPPR 031430Z 32011KT 9999 FEW025CB 26/17 Q1016=
201007031400 METAR LPPR 031400Z 31013KT 9999 FEW025 26/17 Q1016=
201007031330 METAR LPPR 031330Z 32011KT CAVOK 26/18 Q1016=
201007031300 METAR LPPR 031300Z 31011KT CAVOK 25/18 Q1016=
201007031230 METAR LPPR 031230Z 31011KT CAVOK 25/18 Q1016=
201007031200 METAR LPPR 031200Z 30009KT 270V330 CAVOK 25/18 Q1016=
201007031130 METAR LPPR 031130Z 28008KT 250V320 CAVOK 25/18 Q1016=
201007031100 METAR LPPR 031100Z 00000KT CAVOK 25/19 Q1016=
201007031030 METAR LPPR 031030Z 31004KT 250V360 9999 FEW013 24/18 Q1016=
201007031000 METAR LPPR 031000Z 29007KT 260V320 9999 FEW013 22/18 Q1016=
201007030930 METAR LPPR 030930Z 29006G17KT 200V340 9999 FEW013 22/18 Q1016=
201007030900 METAR LPPR 030900Z 00000KT 8000 SCT012 23/18 Q1016=
201007030830 METAR LPPR 030830Z 00000KT 8000 SCT010 22/19 Q1016=
201007030800 METAR LPPR 030800Z 00000KT 8000 SCT006 SCT008 20/20 Q1016=
201007030730 METAR LPPR 030730Z 00000KT 6000 SCT004 SCT007 19/19 Q1016=
201007030700 METAR LPPR 030700Z 00000KT 5000 BR SCT003 BKN006 18/18 Q1016=
201007030630 METAR LPPR 030630Z 00000KT 5000 BR SCT005 BKN013 17/17 Q1015=
201007030600 METAR LPPR 030600Z 00000KT 4000 BR FEW005 SCT025 16/16 Q1015=
201007030530 METAR LPPR 030530Z 00000KT 3000 BR VCFG SCT002 SCT025 16/16
                        Q1015=
201007030500 METAR LPPR 030500Z 00000KT 3000 BR VCFG SCT002 BKN007 17/17
                        Q1015=
201007030430 METAR LPPR 030430Z 00000KT 2000 BR VCFG SCT001 BKN003 16/16
                        Q1015=
201007030400 METAR LPPR 030400Z 00000KT 2500 R17/1200D R35/P1500 BR SCT001
                        BKN002 16/16 Q1015=
201007030330 METAR LPPR 030330Z 00000KT 5000 BR SCT002 16/16 Q1015=
201007030300 METAR LPPR 030300Z 00000KT 5000 BR FEW007 15/15 Q1015=
201007030230 METAR LPPR 030230Z 00000KT 5000 BR FEW006 16/16 Q1015=
201007030200 METAR LPPR 030200Z 00000KT 5000 BR FEW006 16/16 Q1015=
201007030130 METAR LPPR 030130Z 00000KT 7000 FEW006 17/16 Q1015=
201007030100 METAR LPPR 030100Z 00000KT 7000 FEW005 17/17 Q1015=
201007030030 METAR LPPR 030030Z 00000KT 8000 FEW100 17/17 Q1015=
201007030000 METAR LPPR 030000Z 00000KT 8000 SCT100 17/17 Q1015=
201007022330 METAR LPPR 022330Z 00000KT 7000 SCT100 17/17 Q1015=
201007022300 METAR LPPR 022300Z 00000KT 5000 BR SCT004 BKN100 17/17 Q1016=
201007022230 METAR LPPR 022230Z 00000KT 3000NW BR FEW001 SCT003 BKN100
                        17/17 Q1016=
201007022200 METAR LPPR 022200Z 00000KT 2000NW BR VCFG SKC 18/17 Q1016=
201007022130 METAR LPPR 022130Z 32001KT 1800NW BR VCFG SCT000 BKN002 18/17
                        Q1016=
201007022100 METAR LPPR 022100Z 35004KT 2000NW BR VCFG SCT001 BKN003 18/17
                        Q1016=
201007022030 METAR LPPR 022030Z 35007KT 2000NW BR VCFG SCT001 BKN003 18/17
                        Q1015=
201007022000 METAR LPPR 022000Z 33008KT 2000W BR VCFG SCT001 BKN004 18/17
                        Q1015=
201007021930 METAR LPPR 021930Z 31010KT 290V350 1200 R17/P1500 R35/P1500
                        BR VCFG SCT001 BKN002 18/17 Q1015=
201007021900 METAR LPPR 021900Z 32008KT 280V340 2000NW BR VCFG SCT003
                        SCT015 20/18 Q1015=
201007021830 METAR LPPR 021830Z 30007KT 270V350 9999 SCT007 SCT015 22/18
                        Q1015=
201007021800 METAR LPPR 021800Z 34006KT 300V020 9999 SCT006 SCT100 21/18
                        Q1015=
201007021730 METAR LPPR 021730Z 31010KT 9999 SCT006 BKN013 20/18 Q1015=
201007021700 METAR LPPR 021700Z 00000KT 9999 SCT010 SCT020 BKN070 23/19
                        Q1015=
201007021630 METAR LPPR 021630Z 35007KT 310V030 9999 SCT006 SCT040 BKN100
                        22/19 Q1015=
201007021600 METAR LPPR 021600Z 32008KT 290V350 8000 SCT003 SCT006 BKN030
                        20/18 Q1015=
201007021530 METAR LPPR 021530Z 29006KT 250V330 8000 SCT004 BKN006 21/18
                        Q1016=
201007021500 METAR LPPR 021500Z 28007KT 250V330 9000 FEW005 SCT009 BKN030
                        21/18 Q1016=
201007021430 METAR LPPR 021430Z 28006KT 220V330 9999 SCT008 SCT035 BKN100
                        22/18 Q1015=
201007021400 METAR LPPR 021400Z 28008KT 260V330 9999 SCT008 SCT035 BKN100
                        22/17 Q1016=
201007021330 METAR LPPR 021330Z 27007KT 240V310 9999 FEW017 SCT035 BKN100
                        22/18 Q1015=
201007021300 METAR LPPR 021300Z 28007KT 260V320 9999 FEW017 SCT035 BKN100
                        22/18 Q1015=
201007021230 METAR LPPR 021230Z 28007KT 240V300 9999 SCT017 SCT036 BKN100
                        22/18 Q1016=
201007021200 METAR LPPR 021200Z 28006KT 9999 SCT017CB SCT033 BKN100 22/18
                        Q1016=
201007021130 METAR LPPR 021130Z 26006KT 230V310 9999 SCT017 SCT033 SCT200
                        23/18 Q1016=
201007021100 METAR LPPR 021100Z 28006KT 250V310 9999 SCT017 SCT033 BKN100
                        22/18 Q1016=
201007021030 METAR LPPR 021030Z VRB03KT 9999 SCT015 SCT030 22/17 Q1016=
201007021000 METAR LPPR 021000Z 00000KT 9999 SCT013 BKN030 22/18 Q1016=
201007020930 METAR LPPR 020930Z 00000KT 9999 SCT013 BKN030 21/17 Q1016=
201007020900 METAR LPPR 020900Z 00000KT 9999 SCT013 BKN017 20/17 Q1016=
201007020830 METAR LPPR 020830Z 00000KT 9999 SCT012 BKN015 20/16 Q1016=
201007020800 METAR LPPR 020800Z 00000KT 9999 FEW009 BKN013 19/16 Q1016=
201007020730 METAR LPPR 020730Z 00000KT 9999 FEW008 BKN013 18/16 Q1015=
201007020700 METAR LPPR 020700Z 00000KT 9999 SCT008 SCT012 BKN080 18/16
                        Q1015=
201007020630 METAR LPPR 020630Z 00000KT 9999 SCT008 BKN012 18/16 Q1015=
201007020600 METAR LPPR 020600Z 00000KT 9999 SCT008 BKN012 18/16 Q1015=
201007020530 METAR LPPR 020530Z 28003KT 9999 SCT008 BKN012 18/16 Q1015=
201007020500 METAR LPPR 020500Z 00000KT 9999 BKN008 BKN011 18/15 Q1015=
201007020430 METAR LPPR 020430Z 00000KT 9999 BKN008 BKN011 18/16 Q1015=
201007020400 METAR LPPR 020400Z 00000KT 9999 BKN008 BKN011 18/16 Q1015=
201007020330 METAR LPPR 020330Z 00000KT 9999 BKN008 BKN011 18/16 Q1015=
201007020300 METAR LPPR 020300Z 00000KT 9999 BKN008 BKN011 18/16 Q1015=
201007020230 METAR LPPR 020230Z 00000KT 9999 BKN008 BKN011 18/16 Q1015=
201007020200 METAR LPPR 020200Z 00000KT 9999 BKN008 BKN011 18/16 Q1015=
201007020130 METAR LPPR 020130Z 00000KT 9999 BKN008 BKN011 18/16 Q1015=
201007020100 METAR LPPR 020100Z 00000KT 9999 BKN008 BKN011 18/16 Q1016=
201007020030 METAR LPPR 020030Z VRB01KT 9999 BKN007 BKN011 18/16 Q1016=
201007020000 METAR LPPR 020000Z 33004KT 300V360 9999 BKN007 BKN011 18/16
                        Q1016=
201007012330 METAR LPPR 012330Z 32005KT 290V350 9999 BKN008 BKN011 18/16
                        Q1016=
201007012300 METAR LPPR 012300Z 33005KT 300V360 9999 BKN007 BKN010 18/16
                        Q1016=
201007012230 METAR LPPR 012230Z 31005KT 270V330 9999 BKN006 BKN009 18/16
                        Q1016=
201007012200 METAR LPPR 012200Z 32005KT 290V350 9999 BKN006 BKN009 18/16
                        Q1016=
201007012130 METAR LPPR 012130Z 32005KT 9999 BKN006 BKN009 18/16 Q1016=
201007012100 METAR LPPR 012100Z 32005KT 290V360 9999 BKN006 BKN011 18/16
                        Q1016=
201007012030 METAR LPPR 012030Z 00000KT 9999 BKN006 BKN011 18/17 Q1016=
201007012000 METAR LPPR 012000Z 31007KT 280V350 9999 BKN006 BKN011 18/16
                        Q1015=
201007011930 METAR LPPR 011930Z 31006KT 280V360 9999 BKN009 BKN011 19/16
                        Q1016=
201007011900 METAR LPPR 011900Z 33008KT 290V360 9999 BKN011 19/16 Q1016=
201007011830 METAR LPPR 011830Z 31008KT 270V340 9999 BKN011 19/16 Q1016=
201007011800 METAR LPPR 011800Z 32009KT 290V350 9999 BKN008 SCT011 20/16
                        Q1016=
201007011730 METAR LPPR 011730Z 31010KT 280V360 9999 BKN008 SCT011 20/16
                        Q1016=
201007011700 METAR LPPR 011700Z 30012KT 270V340 9999 BKN008 SCT012 20/17
                        Q1016=
201007011630 METAR LPPR 011630Z 32010KT 290V350 9999 BKN007 20/17 Q1016=
201007011600 METAR LPPR 011600Z 30012KT 9999 BKN007 20/17 Q1016=
201007011530 METAR LPPR 011530Z 31012KT 9999 BKN007 20/17 Q1016=
201007011500 METAR LPPR 011500Z 31010KT 260V340 9999 BKN007 SCT250 21/17
                        Q1016=
201007011430 METAR LPPR 011430Z 30010KT 260V330 9999 SCT009 SCT250 21/17
                        Q1016=
201007011400 METAR LPPR 011400Z 30009KT 260V350 9999 FEW009 SCT250 22/17
                        Q1016=
201007011330 METAR LPPR 011330Z 30010KT 260V330 9999 SCT009 22/17 Q1016=
201007011300 METAR LPPR 011300Z 30010KT 260V320 9999 SCT009 21/17 Q1016=
201007011230 METAR LPPR 011230Z 30011KT 260V340 9999 SCT009 21/17 Q1016=
201007011200 METAR LPPR 011200Z 30010KT 260V350 8000 SCT005 21/17 Q1017=
201007011130 METAR LPPR 011130Z 30009KT 260V340 8000 SCT005 21/17 Q1017=
201007011100 METAR LPPR 011100Z 34006KT 290V010 8000 SCT005 SCT009 20/17
                        Q1017=
201007011030 METAR LPPR 011030Z 32007KT 280V350 3000 BR SCT002 BKN005
                        18/17 Q1017=
201007011000 METAR LPPR 011000Z 30007KT 260V330 1500 BR VCFG BKN001 BKN003
                        18/17 Q1017=
201007010930 METAR LPPR 010930Z 29007KT 1500 BR VCFG BKN001 BKN002 18/17
                        Q1017=
201007010900 METAR LPPR 010900Z 00000KT 3000 BR VCFG SCT002 BKN004 19/17
                        Q1017=
201007010830 METAR LPPR 010830Z 00000KT 4000 BR SCT004 SCT007 20/17 Q1017=
201007010800 METAR LPPR 010800Z 00000KT 4000 BR FEW003 SCT007 19/18 Q1017=
201007010730 METAR LPPR 010730Z 00000KT 4000 BR SCT003 BKN005 18/17 Q1017=
201007010700 METAR LPPR 010700Z 00000KT 3000 BR SCT001 BKN003 17/17 Q1017=
201007010630 METAR LPPR 010630Z 00000KT 3000 BR SCT001 BKN003 17/17 Q1017=
201007010600 METAR LPPR 010600Z 00000KT 2000 BR SCT001 SCT003 17/17 Q1017=
201007010530 METAR LPPR 010530Z 00000KT 1500 BR SCT001 BKN002 17/17 Q1017=
201007010500 METAR LPPR 010500Z 00000KT 2000 BR SCT001 BKN003 17/17 Q1017=
201007010430 METAR LPPR 010430Z 00000KT 3000 BR SCT001 BKN003 17/17 Q1017=
201007010400 METAR LPPR 010400Z 00000KT 4000 BR SCT001 BKN003 17/17 Q1017=
201007010330 METAR LPPR 010330Z 00000KT 3000 BR BKN001 BKN003 17/17 Q1017=
201007010300 METAR LPPR 010300Z 34007KT 2000 BR SCT000 BKN002 17/17 Q1017=
201007010230 METAR LPPR 010230Z 00000KT 1500 BR SCT000 BKN002 17/17 Q1017=
201007010200 METAR LPPR 010200Z 00000KT 3500 BR SCT001 BKN003 17/17 Q1017=
201007010130 METAR LPPR 010130Z 00000KT 6000 SCT001 BKN003 17/17 Q1017=
201007010100 METAR LPPR 010100Z 34004KT 6000 SCT001 BKN003 17/17 Q1017=
201007010030 METAR LPPR 010030Z 33006KT 7000 SCT002 BKN004 17/17 Q1017=
201007010000 METAR LPPR 010000Z 32004KT 8000 SCT002 BKN004 17/17 Q1018=

</pre>

</body>
</html>
