##########################################################
# Query made at 11/07/2014 17:12:35 UTC
# Time interval: from 06/01/2012 00:00  to 07/01/2012 23:59  UTC
##########################################################

##########################################################
# LPPR, Porto / Pedras Rubras (Portugal)
# WMO index: 08545
# Latitude 41-14N. Longitude 008-41W. Altitude 69 m.
##########################################################

###################################
#  METAR/SPECI from LPPR
###################################
201207012330 METAR LPPR 012330Z 35006KT CAVOK 14/11 Q1021=
201207012300 METAR LPPR 012300Z 33004KT CAVOK 14/11 Q1021=
201207012230 METAR LPPR 012230Z 34005KT CAVOK 15/11 Q1021=
201207012200 METAR LPPR 012200Z 01005KT CAVOK 14/11 Q1021=
201207012130 METAR LPPR 012130Z 34008KT CAVOK 15/11 Q1021=
201207012100 METAR LPPR 012100Z 33007KT CAVOK 15/11 Q1021=
201207012030 METAR LPPR 012030Z 34010KT CAVOK 16/11 Q1021=
201207012000 METAR LPPR 012000Z 34011KT CAVOK 16/11 Q1021=
201207011930 METAR LPPR 011930Z 34012KT CAVOK 17/11 Q1021=
201207011900 METAR LPPR 011900Z 33012KT CAVOK 17/11 Q1021=
201207011830 METAR LPPR 011830Z 32011KT CAVOK 18/11 Q1021=
201207011800 METAR LPPR 011800Z 33012KT CAVOK 18/12 Q1021=
201207011730 METAR LPPR 011730Z 33015KT CAVOK 18/11 Q1021=
201207011700 METAR LPPR 011700Z 32016G27KT 290V350 CAVOK 18/11 Q1022=
201207011630 METAR LPPR 011630Z 33016KT 300V360 CAVOK 18/11 Q1022=
201207011600 METAR LPPR 011600Z 33016KT 300V360 CAVOK 18/12 Q1022=
201207011530 METAR LPPR 011530Z 33016G26KT 300V360 CAVOK 18/11 Q1022=
201207011500 METAR LPPR 011500Z 33016KT 300V360 CAVOK 18/11 Q1022=
201207011430 METAR LPPR 011430Z 32012KT 280V340 CAVOK 19/08 Q1023=
201207011400 METAR LPPR 011400Z 33012KT 300V360 CAVOK 19/09 Q1023=
201207011330 METAR LPPR 011330Z 32013KT 290V350 CAVOK 20/08 Q1023=
201207011300 METAR LPPR 011300Z 33013KT 290V350 CAVOK 19/09 Q1023=
201207011230 METAR LPPR 011230Z 33013KT 290V350 CAVOK 19/10 Q1023=
201207011200 METAR LPPR 011200Z 33014KT CAVOK 19/10 Q1023=
201207011130 METAR LPPR 011130Z 32011KT 280V350 9999 FEW016 18/10 Q1024=
201207011100 METAR LPPR 011100Z 32010KT 260V350 CAVOK 18/11 Q1024=
201207011030 METAR LPPR 011030Z 30008KT 270V340 CAVOK 18/10 Q1023=
201207011000 METAR LPPR 011000Z 01006KT 320V060 CAVOK 19/09 Q1023=
201207010930 METAR LPPR 010930Z 35009KT 320V030 CAVOK 18/08 Q1023=
201207010900 METAR LPPR 010900Z 02006KT 340V050 CAVOK 17/09 Q1023=
201207010830 METAR LPPR 010830Z 02006KT 340V070 CAVOK 17/10 Q1023=
201207010800 METAR LPPR 010800Z 01008KT CAVOK 16/10 Q1023=
201207010730 METAR LPPR 010730Z 01007KT CAVOK 15/10 Q1023=
201207010700 METAR LPPR 010700Z 36005KT CAVOK 14/11 Q1023=
201207010630 METAR LPPR 010630Z 36004KT CAVOK 13/11 Q1023=
201207010600 METAR LPPR 010600Z 36005KT CAVOK 12/10 Q1023=
201207010530 METAR LPPR 010530Z 35005KT CAVOK 11/10 Q1023=
201207010500 METAR LPPR 010500Z 36005KT CAVOK 11/09 Q1023=
201207010430 METAR LPPR 010430Z 36004KT CAVOK 11/10 Q1022=
201207010400 METAR LPPR 010400Z 35003KT CAVOK 10/09 Q1022=
201207010330 METAR LPPR 010330Z 34004KT CAVOK 12/10 Q1022=
201207010300 METAR LPPR 010300Z 01002KT CAVOK 12/10 Q1022=
201207010230 METAR LPPR 010230Z 01003KT CAVOK 11/10 Q1022=
201207010200 METAR LPPR 010200Z 34004KT CAVOK 12/10 Q1022=
201207010130 METAR LPPR 010130Z VRB02KT CAVOK 12/10 Q1022=
201207010100 METAR LPPR 010100Z 35004KT 300V010 CAVOK 13/10 Q1022=
201207010030 METAR LPPR 010030Z 36003KT 330V030 CAVOK 13/11 Q1023=
201207010000 METAR LPPR 010000Z VRB02KT CAVOK 14/11 Q1023=
201206302330 METAR LPPR 302330Z 36004KT CAVOK 14/11 Q1022=
201206302300 METAR LPPR 302300Z 34009KT CAVOK 15/11 Q1022=
201206302230 METAR LPPR 302230Z 34010KT CAVOK 15/12 Q1022=
201206302200 METAR LPPR 302200Z 34009KT CAVOK 16/12 Q1022=
201206302130 METAR LPPR 302130Z 35007KT CAVOK 15/12 Q1022=
201206302100 METAR LPPR 302100Z 34009KT 9999 FEW020 16/12 Q1022=
201206302030 METAR LPPR 302030Z 33011KT 9999 FEW020 16/12 Q1021=
201206302000 METAR LPPR 302000Z 33010KT 290V350 9999 FEW020 16/12 Q1021=
201206301930 METAR LPPR 301930Z 33011KT 290V350 9999 FEW020 17/12 Q1021=
201206301900 METAR LPPR 301900Z 32012KT 9999 FEW020 17/11 Q1021=
201206301830 METAR LPPR 301830Z 33011KT 9999 FEW020 18/12 Q1020=
201206301800 METAR LPPR 301800Z 32010KT 290V350 9999 FEW020 18/12 Q1020=
201206301730 METAR LPPR 301730Z 32011KT 290V350 9999 FEW020 18/13 Q1020=
201206301700 METAR LPPR 301700Z 32011KT 290V350 9999 FEW020 18/12 Q1020=
201206301630 METAR LPPR 301630Z 33013KT 290V360 9999 FEW020 19/12 Q1020=
201206301600 METAR LPPR 301600Z 31009KT 280V350 9999 FEW020 18/12 Q1020=
201206301530 METAR LPPR 301530Z 31011KT 270V360 9999 FEW020 19/12 Q1020=
201206301500 METAR LPPR 301500Z 32010KT 270V010 9999 SCT020 FEW025TCU
                        19/13 Q1020=
201206301430 METAR LPPR 301430Z 32010KT 270V350 9999 SCT017 FEW022TCU
                        19/13 Q1020=
201206301400 METAR LPPR 301400Z 33010KT 290V350 9999 SCT018 FEW022TCU
                        19/14 Q1020=
201206301330 METAR LPPR 301330Z 32011KT 270V350 9999 SCT021 19/13 Q1020=
201206301300 METAR LPPR 301300Z 30008KT 240V340 9999 SCT021 19/13 Q1020=
201206301230 METAR LPPR 301230Z 31008KT 270V360 9999 SCT023 19/13 Q1020=
201206301200 METAR LPPR 301200Z 30008KT 260V350 9999 SCT023 19/13 Q1020=
201206301130 METAR LPPR 301130Z 31008KT 260V020 9999 SCT023 19/13 Q1019=
201206301100 METAR LPPR 301100Z 31007KT 270V340 9999 SCT025 FEW030TCU
                        19/12 Q1019=
201206301030 METAR LPPR 301030Z 33009KT 300V360 9999 SCT027 FEW030TCU
                        19/13 Q1019=
201206301000 METAR LPPR 301000Z 33009KT 290V360 9999 SCT023 FEW025TCU
                        19/12 Q1019=
201206300930 METAR LPPR 300930Z 33007KT 270V010 9999 SCT023 FEW025TCU
                        18/13 Q1018=
201206300900 METAR LPPR 300900Z 33006KT 9999 SCT020 18/14 Q1018=
201206300830 METAR LPPR 300830Z 34007KT 9999 FEW016 SCT020 18/13 Q1018=
201206300800 METAR LPPR 300800Z 34008KT 300V010 9999 FEW012 SCT020 17/14
                        Q1018=
201206300730 METAR LPPR 300730Z 34007KT 9999 SCT010 17/15 Q1018=
201206300700 METAR LPPR 300700Z 34005KT 310V010 9999 FEW009 BKN017 17/15
                        Q1017=
201206300630 METAR LPPR 300630Z 32002KT 9000 SCT014 16/15 Q1017=
201206300600 METAR LPPR 300600Z 32003KT 9999 SCT016 16/15 Q1017=
201206300530 METAR LPPR 300530Z VRB01KT 9999 FEW009 SCT016 SCT035 15/14
                        Q1016=
201206300500 METAR LPPR 300500Z VRB01KT 9999 FEW009 SCT015 BKN039 16/15
                        Q1016=
201206300430 METAR LPPR 300430Z VRB01KT 9999 SCT016 16/15 Q1016=
201206300400 METAR LPPR 300400Z 28004KT 230V320 9999 -SHRA FEW004 SCT015
                        BKN030 16/15 Q1016=
201206300330 METAR LPPR 300330Z VRB02KT 9999 FEW005 SCT013 BKN020 16/15
                        Q1016=
201206300300 METAR LPPR 300300Z 22003KT 170V260 9999 FEW008 SCT012 BKN025
                        16/15 Q1016=
201206300230 METAR LPPR 300230Z VRB02KT 9999 -SHRA FEW004 SCT020 BKN030
                        16/15 Q1016=
201206300200 METAR LPPR 300200Z VRB03KT 9999 SCT005 BKN045 16/15 Q1016=
201206300130 METAR LPPR 300130Z 24005KT 200V310 9999 SCT005 BKN040 16/14
                        Q1016=
201206300100 METAR LPPR 300100Z 27005KT 230V310 7000 -RADZ SCT005 BKN016
                        BKN045 16/15 Q1016=
201206300030 METAR LPPR 300030Z 21006KT 190V250 9999 FEW005 BKN020 18/15
                        Q1016=
201206300000 METAR LPPR 300000Z 21005KT 9999 SCT019 17/15 Q1016=
201206292330 METAR LPPR 292330Z 21005KT 180V250 9999 SCT020 17/15 Q1017=
201206292300 METAR LPPR 292300Z 21004KT 180V250 9999 SCT020 17/15 Q1017=
201206292230 METAR LPPR 292230Z 20004KT 9999 SCT021 16/14 Q1017=
201206292200 METAR LPPR 292200Z 22003KT 190V260 9999 FEW018 16/14 Q1017=
201206292130 METAR LPPR 292130Z 23004KT 190V260 9999 FEW016 17/14 Q1017=
201206292100 METAR LPPR 292100Z 23004KT 200V270 9999 FEW016 17/14 Q1016=
201206292030 METAR LPPR 292030Z 23004KT 190V270 9999 FEW017 17/15 Q1016=
201206292000 METAR LPPR 292000Z 23004KT 190V270 9999 FEW017TCU 18/15 Q1016=
201206291930 METAR LPPR 291930Z 23006KT 190V260 9999 SCT019 FEW020TCU
                        19/15 Q1016=
201206291900 METAR LPPR 291900Z 23005KT 190V270 9999 FEW021TCU 19/14 Q1016=
201206291830 METAR LPPR 291830Z 23006KT 180V270 9999 FEW020TCU 19/14 Q1016=
201206291800 METAR LPPR 291800Z 23006KT 200V270 9999 FEW019TCU 19/15 Q1016=
201206291730 METAR LPPR 291730Z 23007KT 190V290 9999 FEW021 FEW022TCU
                        20/15 Q1016=
201206291700 METAR LPPR 291700Z 21008KT 190V250 9999 FEW023 FEW025TCU
                        20/14 Q1016=
201206291630 METAR LPPR 291630Z 22008KT 190V260 9999 SCT023 FEW025TCU
                        20/14 Q1016=
201206291600 METAR LPPR 291600Z 22009KT 190V260 9999 FEW025TCU 20/14 Q1016=
201206291530 METAR LPPR 291530Z 21009KT 180V240 9999 VCSH FEW025TCU 20/12
                        Q1016=
201206291500 METAR LPPR 291500Z 20011KT 9999 FEW020 FEW025CB 19/13 Q1016=
201206291430 METAR LPPR 291430Z 22009KT 180V270 9999 FEW022 19/14 Q1016=
201206291400 METAR LPPR 291400Z 23009KT 160V270 9999 FEW024 20/14 Q1016=
201206291330 METAR LPPR 291330Z 23009KT 130V270 9999 FEW024 20/14 Q1016=
201206291300 METAR LPPR 291300Z 24009KT 200V290 9999 FEW024 20/14 Q1016=
201206291230 METAR LPPR 291230Z 22010KT 180V260 9999 FEW024 20/13 Q1016=
201206291200 METAR LPPR 291200Z 23010KT 190V260 9999 FEW021 20/14 Q1016=
201206291130 METAR LPPR 291130Z 23009KT 190V280 9999 FEW022 SCT030 20/14
                        Q1016=
201206291100 METAR LPPR 291100Z 21009KT 180V260 9999 FEW023 20/14 Q1016=
201206291030 METAR LPPR 291030Z 23009KT 190V260 9999 FEW020 20/14 Q1016=
201206291000 METAR LPPR 291000Z 21008KT 190V260 9999 FEW015 20/13 Q1015=
201206290930 METAR LPPR 290930Z 22007KT 190V260 9999 SCT015 SCT025 19/14
                        Q1015=
201206290900 METAR LPPR 290900Z 22007KT 180V270 9999 SCT013 BKN025 20/16
                        Q1015=
201206290830 METAR LPPR 290830Z 20009KT 170V250 9999 SCT016 BKN049 18/15
                        Q1015=
201206290800 METAR LPPR 290800Z 19008KT 9999 FEW018 SCT030 18/14 Q1015=
201206290730 METAR LPPR 290730Z 18009KT 9999 SCT020 SCT030 18/15 Q1015=
201206290700 METAR LPPR 290700Z 18005KT 150V210 9999 FEW017 SCT025 17/15
                        Q1015=
201206290630 METAR LPPR 290630Z 19006KT 160V230 9999 FEW017 SCT025 17/15
                        Q1014=
201206290600 METAR LPPR 290600Z 17006KT 9999 FEW017 SCT023 17/15 Q1014=
201206290530 METAR LPPR 290530Z 20002KT 9999 FEW017 SCT023 16/14 Q1014=
201206290500 METAR LPPR 290500Z 21003KT 9999 FEW017 SCT023 16/14 Q1014=
201206290430 METAR LPPR 290430Z 21003KT 180V240 9999 FEW015 16/14 Q1014=
201206290400 METAR LPPR 290400Z 23003KT 190V270 9999 FEW018 SCT025 16/14
                        Q1014=
201206290330 METAR LPPR 290330Z 21003KT 190V250 9999 FEW020 SCT030 16/14
                        Q1014=
201206290300 METAR LPPR 290300Z 21002KT 9999 FEW020 SCT027 15/14 Q1014=
201206290230 METAR LPPR 290230Z 22002KT 9999 FEW020 15/14 Q1014=
201206290200 METAR LPPR 290200Z 21002KT 9999 SCT022 16/14 Q1014=
201206290130 METAR LPPR 290130Z 23001KT 9999 FEW020 16/15 Q1014=
201206290100 METAR LPPR 290100Z VRB01KT 9999 FEW020 16/14 Q1014=
201206290030 METAR LPPR 290030Z VRB02KT 9999 FEW020 SCT023 17/15 Q1014=
201206290000 METAR LPPR 290000Z VRB02KT 9999 FEW022 17/15 Q1014=
201206282330 METAR LPPR 282330Z VRB02KT 9999 FEW020 17/15 Q1015=
201206282300 METAR LPPR 282300Z VRB02KT 9999 FEW020 SCT045 17/14 Q1014=
201206282230 METAR LPPR 282230Z VRB02KT 9999 SCT045 18/14 Q1014=
201206282200 METAR LPPR 282200Z VRB02KT 9999 SCT045 18/14 Q1015=
201206282130 METAR LPPR 282130Z 28003KT 220V310 9999 FEW015 SCT045 18/14
                        Q1015=
201206282100 METAR LPPR 282100Z VRB02KT 9999 FEW015 SCT045 18/15 Q1014=
201206282030 METAR LPPR 282030Z 28003KT 240V330 9999 FEW015 BKN045 18/15
                        Q1014=
201206282000 METAR LPPR 282000Z 29003KT 250V340 9999 FEW015 BKN045 18/15
                        Q1014=
201206281930 METAR LPPR 281930Z 31004KT 260V330 9999 FEW013 SCT030 BKN045
                        19/14 Q1014=
201206281900 METAR LPPR 281900Z 34004KT 300V020 9999 FEW013 SCT030 BKN045
                        19/14 Q1014=
201206281830 METAR LPPR 281830Z 30005KT 260V330 9999 FEW013 SCT035 BKN049
                        19/15 Q1014=
201206281800 METAR LPPR 281800Z 30006KT 260V340 9999 FEW013 BKN048 19/15
                        Q1014=
201206281730 METAR LPPR 281730Z 28007KT 240V320 9999 FEW009 SCT013 19/15
                        Q1014=
201206281700 METAR LPPR 281700Z 28006KT 230V350 9999 SCT011 20/16 Q1014=
201206281630 METAR LPPR 281630Z 29006KT 240V350 9999 FEW015 20/16 Q1014=
201206281600 METAR LPPR 281600Z 29006KT 240V320 9999 FEW013 20/16 Q1014=
201206281530 METAR LPPR 281530Z 29006KT 230V330 9999 FEW011 21/16 Q1014=
201206281500 METAR LPPR 281500Z 25006KT 210V290 9999 FEW012 21/16 Q1015=
201206281430 METAR LPPR 281430Z 24007KT 200V280 9999 SCT012 21/17 Q1015=
201206281400 METAR LPPR 281400Z 26006KT 210V310 9999 SCT011 20/17 Q1015=
201206281330 METAR LPPR 281330Z 24008KT 210V280 9999 FEW013 SCT018 BKN042
                        21/17 Q1015=
201206281300 METAR LPPR 281300Z 23008KT 200V300 9999 FEW016 BKN040 21/16
                        Q1015=
201206281230 METAR LPPR 281230Z 22006KT 170V260 9999 FEW010 BKN035 20/16
                        Q1015=
201206281200 METAR LPPR 281200Z 25007KT 210V310 9999 FEW008 BKN025 BKN040
                        20/16 Q1015=
201206281130 METAR LPPR 281130Z 24008KT 210V280 9999 SCT009 BKN024 20/17
                        Q1015=
201206281100 METAR LPPR 281100Z 23008KT 200V280 9999 FEW016 SCT024 BKN030
                        20/15 Q1015=
201206281030 METAR LPPR 281030Z 23008KT 200V270 9999 FEW020 SCT025 BKN031
                        20/16 Q1015=
201206281000 METAR LPPR 281000Z 24007KT 200V280 9999 FEW022 BKN026 20/16
                        Q1015=
201206280930 METAR LPPR 280930Z 24006KT 210V280 9999 SCT022 BKN026 20/16
                        Q1014=
201206280900 METAR LPPR 280900Z 17005KT 130V210 9999 FEW018 BKN025 20/15
                        Q1014=
201206280830 METAR LPPR 280830Z 20005KT 160V230 9999 FEW017 BKN027 20/15
                        Q1014=
201206280800 METAR LPPR 280800Z 19005KT 150V220 9999 SCT016 BKN027 19/15
                        Q1014=
201206280730 METAR LPPR 280730Z 22004KT 180V260 9999 SCT015 BKN025 19/15
                        Q1014=
201206280700 METAR LPPR 280700Z 18004KT 9999 FEW017 BKN025 19/16 Q1014=
201206280630 METAR LPPR 280630Z 17005KT 140V200 9999 FEW017 BKN023 18/16
                        Q1014=
201206280600 METAR LPPR 280600Z 20003KT 9999 FEW014 BKN023/ 18/16 Q1014=
201206280530 METAR LPPR 280530Z 21003KT 170V240 9999 FEW016 BKN021 18/15
                        Q1014=
201206280500 METAR LPPR 280500Z 20003KT 170V240 9999 FEW012 BKN016 18/15
                        Q1014=
201206280430 METAR LPPR 280430Z 21004KT 9999 FEW012 BKN015 18/15 Q1014=
201206280400 METAR LPPR 280400Z 21004KT 9999 FEW014 BKN016 18/15 Q1014=
201206280330 METAR LPPR 280330Z 21004KT 190V250 9999 FEW012 BKN016 18/15
                        Q1014=
201206280300 METAR LPPR 280300Z 19005KT 9999 FEW012 BKN018 18/15 Q1014=
201206280230 METAR LPPR 280230Z 19004KT 160V240 9999 FEW012 BKN016 18/15
                        Q1014=
201206280200 METAR LPPR 280200Z 20004KT 9999 FEW013 BKN016 18/15 Q1014=
201206280130 METAR LPPR 280130Z 20004KT 180V240 9999 FEW013 BKN016 18/15
                        Q1014=
201206280100 METAR LPPR 280100Z 20004KT 9999 FEW009 BKN015 18/16 Q1014=
201206280030 METAR LPPR 280030Z 21004KT 180V250 9999 SCT009 BKN014 17/16
                        Q1015=
201206280000 METAR LPPR 280000Z 23004KT 200V270 9999 SCT008 BKN012 18/16
                        Q1015=
201206272330 METAR LPPR 272330Z 22004KT 180V260 9999 BKN009 18/16 Q1015=
201206272300 METAR LPPR 272300Z 20005KT 180V260 9999 SCT009 BKN012 18/16
                        Q1015=
201206272230 METAR LPPR 272230Z 23004KT 180V270 9999 SCT009 BKN012 18/16
                        Q1015=
201206272200 METAR LPPR 272200Z 20005KT 9999 BKN009 18/16 Q1015=
201206272130 METAR LPPR 272130Z 19007KT 160V240 9999 OVC009 18/16 Q1015=
201206272100 METAR LPPR 272100Z 19008KT 9999 OVC009 18/16 Q1015=
201206272030 METAR LPPR 272030Z 20008KT 9000 OVC008 18/16 Q1015=
201206272000 METAR LPPR 272000Z 19008KT 9000 OVC008 18/16 Q1015=
201206271930 METAR LPPR 271930Z 20006KT 170V230 9000 OVC007 18/16 Q1015=
201206271900 METAR LPPR 271900Z 22005KT 180V280 8000 OVC007 18/16 Q1014=
201206271830 METAR LPPR 271830Z 24006KT 200V270 7000 OVC007 19/17 Q1015=
201206271800 METAR LPPR 271800Z 23006KT 200V260 8000 OVC007 19/17 Q1014=
201206271730 METAR LPPR 271730Z 24007KT 210V280 8000 OVC006 19/17 Q1014=
201206271700 METAR LPPR 271700Z 24006KT 210V280 7000 OVC005 19/17 Q1014=
201206271630 METAR LPPR 271630Z 23006KT 200V260 6000 BKN005 20/18 Q1014=
201206271600 METAR LPPR 271600Z 22005KT 190V290 6000 SCT004 BKN006 20/18
                        Q1014=
201206271530 METAR LPPR 271530Z 24007KT 200V270 7000 SCT005 BKN007 20/18
                        Q1014=
201206271500 METAR LPPR 271500Z 23008KT 170V300 9000 FEW005 SCT007 21/18
                        Q1014=
201206271430 METAR LPPR 271430Z 21010KT 180V240 CAVOK 24/18 Q1014=
201206271400 METAR LPPR 271400Z 19008KT 160V240 CAVOK 25/17 Q1014=
201206271330 METAR LPPR 271330Z 19008KT 160V230 CAVOK 25/17 Q1014=
201206271300 METAR LPPR 271300Z 20010KT 160V230 CAVOK 24/17 Q1015=
201206271230 METAR LPPR 271230Z 20009KT 180V240 CAVOK 25/19 Q1015=
201206271200 METAR LPPR 271200Z 22007KT 170V260 CAVOK 24/18 Q1015=
201206271130 METAR LPPR 271130Z 22006KT 170V270 CAVOK 24/18 Q1015=
201206271100 METAR LPPR 271100Z 24004KT 180V280 CAVOK 23/19 Q1015=
201206271030 METAR LPPR 271030Z 23005KT 190V300 9000 NSC 21/18 Q1015=
201206271000 METAR LPPR 271000Z 22007KT 180V270 9000 FEW010 21/18 Q1015=
201206270930 METAR LPPR 270930Z 21009KT 180V260 CAVOK 23/18 Q1015=
201206270900 METAR LPPR 270900Z 20007KT 170V240 9000 NSC 23/18 Q1014=
201206270830 METAR LPPR 270830Z 22007KT 170V270 8000 NSC 20/17 Q1014=
201206270800 METAR LPPR 270800Z 25004KT 210V300 8000 NSC 21/17 Q1014=
201206270730 METAR LPPR 270730Z 24003KT 200V290 8000 NSC 21/18 Q1013=
201206270700 METAR LPPR 270700Z VRB02KT 7000 NSC 22/18 Q1013=
201206270630 METAR LPPR 270630Z 12004KT 030V190 CAVOK 22/17 Q1013=
201206270600 METAR LPPR 270600Z 13007KT 090V160 9000 NSC 21/17 Q1013=
201206270530 METAR LPPR 270530Z 14006KT 100V170 7000 NSC 19/17 Q1013=
201206270500 METAR LPPR 270500Z 14004KT 6000 FEW005 18/17 Q1013=
201206270430 METAR LPPR 270430Z 15004KT 090V220 8000 FEW005 18/17 Q1013=
201206270400 METAR LPPR 270400Z 17004KT 110V220 7000 FEW005 18/17 Q1014=
201206270330 METAR LPPR 270330Z 27005KT 190V350 8000 FEW005 18/16 Q1013=
201206270300 METAR LPPR 270300Z 28007KT 230V330 9000 NSC 18/16 Q1013=
201206270230 METAR LPPR 270230Z 12003KT 080V220 CAVOK 20/18 Q1013=
201206270200 METAR LPPR 270200Z VRB03KT CAVOK 20/17 Q1014=
201206270130 METAR LPPR 270130Z 11003KT 050V220 CAVOK 21/17 Q1014=
201206270100 METAR LPPR 270100Z VRB04KT CAVOK 20/17 Q1014=
201206270030 METAR LPPR 270030Z VRB02KT CAVOK 20/17 Q1014=
201206270000 METAR LPPR 270000Z 35004KT CAVOK 20/17 Q1014=
201206262330 METAR LPPR 262330Z 34004KT 290V030 CAVOK 20/17 Q1014=
201206262300 METAR LPPR 262300Z 21002KT CAVOK 24/21 Q1014=
201206262230 METAR LPPR 262230Z VRB02KT CAVOK 25/20 Q1014=
201206262200 METAR LPPR 262200Z VRB01KT CAVOK 25/20 Q1014=
201206262130 METAR LPPR 262130Z 03001KT CAVOK 25/20 Q1014=
201206262100 METAR LPPR 262100Z VRB02KT CAVOK 25/20 Q1014=
201206262030 METAR LPPR 262030Z 03002KT CAVOK 25/19 Q1014=
201206262000 METAR LPPR 262000Z 36002KT CAVOK 26/19 Q1015=
201206261930 METAR LPPR 261930Z 36003KT CAVOK 27/19 Q1015=
201206261900 METAR LPPR 261900Z 35004KT 310V040 CAVOK 28/20 Q1015=
201206261830 METAR LPPR 261830Z 32003KT CAVOK 29/20 Q1015=
201206261800 METAR LPPR 261800Z 34004KT CAVOK 29/20 Q1015=
201206261730 METAR LPPR 261730Z 33007KT CAVOK 29/19 Q1015=
201206261700 METAR LPPR 261700Z 34005KT CAVOK 30/18 Q1015=
201206261630 METAR LPPR 261630Z 35005KT 310V020 CAVOK 29/18 Q1015=
201206261600 METAR LPPR 261600Z 34005KT 310V010 CAVOK 28/18 Q1015=
201206261530 METAR LPPR 261530Z 30005KT 230V340 CAVOK 24/18 Q1016=
201206261500 METAR LPPR 261500Z 27006KT 180V320 CAVOK 25/17 Q1016=
201206261430 METAR LPPR 261430Z 21011KT 180V290 CAVOK 29/18 Q1016=
201206261400 METAR LPPR 261400Z 12005KT 070V160 CAVOK 36/17 Q1015=
201206261330 METAR LPPR 261330Z 08006KT 040V120 CAVOK 35/16 Q1016=
201206261300 METAR LPPR 261300Z VRB04KT CAVOK 34/16 Q1016=
201206261230 METAR LPPR 261230Z VRB03KT CAVOK 31/19 Q1016=
201206261200 METAR LPPR 261200Z 09005KT 050V130 CAVOK 33/16 Q1016=
201206261130 METAR LPPR 261130Z 11004KT 070V140 CAVOK 33/17 Q1016=
201206261100 METAR LPPR 261100Z 08005KT 040V110 CAVOK 32/19 Q1016=
201206261030 METAR LPPR 261030Z 09007KT CAVOK 32/17 Q1016=
201206261000 METAR LPPR 261000Z 07007G17KT 040V100 CAVOK 31/18 Q1016=
201206260930 METAR LPPR 260930Z 03003KT 350V140 CAVOK 29/18 Q1017=
201206260900 METAR LPPR 260900Z VRB02KT CAVOK 28/18 Q1017=
201206260830 METAR LPPR 260830Z 02004KT CAVOK 25/20 Q1017=
201206260800 METAR LPPR 260800Z VRB01KT CAVOK 23/19 Q1017=
201206260730 METAR LPPR 260730Z 36003KT CAVOK 21/19 Q1017=
201206260700 METAR LPPR 260700Z 35003KT 320V020 CAVOK 20/18 Q1017=
201206260630 METAR LPPR 260630Z VRB01KT 9000 NSC 19/17 Q1017=
201206260600 METAR LPPR 260600Z VRB02KT CAVOK 18/17 Q1017=
201206260530 METAR LPPR 260530Z 21001KT CAVOK 17/17 Q1016=
201206260500 METAR LPPR 260500Z VRB02KT CAVOK 17/17 Q1016=
201206260430 METAR LPPR 260430Z 00000KT CAVOK 17/16 Q1016=
201206260400 METAR LPPR 260400Z VRB01KT CAVOK 17/16 Q1016=
201206260330 METAR LPPR 260330Z VRB01KT CAVOK 18/17 Q1016=
201206260300 METAR LPPR 260300Z VRB01KT CAVOK 19/17 Q1016=
201206260230 METAR LPPR 260230Z 35003KT 270V020 CAVOK 19/18 Q1016=
201206260200 METAR LPPR 260200Z VRB02KT CAVOK 20/18 Q1016=
201206260130 METAR LPPR 260130Z VRB02KT CAVOK 20/18 Q1016=
201206260100 METAR LPPR 260100Z 22001KT CAVOK 21/18 Q1016=
201206260030 METAR LPPR 260030Z VRB02KT CAVOK 21/19 Q1016=
201206260000 METAR LPPR 260000Z 36003KT CAVOK 19/17 Q1016=
201206252330 METAR LPPR 252330Z 03002KT CAVOK 19/17 Q1016=
201206252300 METAR LPPR 252300Z 00000KT CAVOK 19/17 Q1017=
201206252230 METAR LPPR 252230Z 19003KT CAVOK 19/17 Q1017=
201206252200 METAR LPPR 252200Z 35004KT CAVOK 19/17 Q1017=
201206252130 METAR LPPR 252130Z 35004KT CAVOK 20/17 Q1017=
201206252100 METAR LPPR 252100Z 34003KT CAVOK 20/17 Q1016=
201206252030 METAR LPPR 252030Z 33005KT CAVOK 21/17 Q1016=
201206252000 METAR LPPR 252000Z 34005KT 310V010 CAVOK 21/17 Q1016=
201206251930 METAR LPPR 251930Z 30004KT 260V330 CAVOK 22/17 Q1017=
201206251900 METAR LPPR 251900Z 31006KT CAVOK 23/17 Q1017=
201206251830 METAR LPPR 251830Z 30004KT 280V360 CAVOK 23/17 Q1017=
201206251800 METAR LPPR 251800Z 29004KT 260V320 CAVOK 25/18 Q1017=
201206251730 METAR LPPR 251730Z 32005KT 270V360 CAVOK 25/18 Q1017=
201206251700 METAR LPPR 251700Z 29005KT 260V330 CAVOK 24/18 Q1017=
201206251630 METAR LPPR 251630Z 30006KT 260V340 CAVOK 24/18 Q1017=
201206251600 METAR LPPR 251600Z 32006KT 280V350 CAVOK 26/18 Q1018=
201206251530 METAR LPPR 251530Z 32010KT CAVOK 26/18 Q1018=
201206251500 METAR LPPR 251500Z 31007KT 270V350 CAVOK 26/18 Q1018=
201206251430 METAR LPPR 251430Z 32008KT 290V350 CAVOK 27/18 Q1018=
201206251400 METAR LPPR 251400Z 33009KT 290V350 CAVOK 27/18 Q1018=
201206251330 METAR LPPR 251330Z 32008KT 290V350 CAVOK 27/17 Q1018=
201206251300 METAR LPPR 251300Z 30006KT 270V330 CAVOK 27/17 Q1018=
201206251230 METAR LPPR 251230Z 32008KT CAVOK 29/17 Q1019=
201206251200 METAR LPPR 251200Z 33010KT CAVOK 28/17 Q1019=
201206251130 METAR LPPR 251130Z 31006KT 270V350 CAVOK 28/18 Q1019=
201206251100 METAR LPPR 251100Z 28005KT 240V310 CAVOK 27/19 Q1019=
201206251030 METAR LPPR 251030Z 29004KT 270V330 CAVOK 27/19 Q1019=
201206251000 METAR LPPR 251000Z 33006KT 300V010 CAVOK 27/19 Q1019=
201206250930 METAR LPPR 250930Z 35006KT 310V030 CAVOK 26/18 Q1019=
201206250900 METAR LPPR 250900Z 34004KT 310V050 CAVOK 25/17 Q1019=
201206250830 METAR LPPR 250830Z 36005KT 330V050 CAVOK 24/17 Q1019=
201206250800 METAR LPPR 250800Z 34005KT CAVOK 22/17 Q1019=
201206250730 METAR LPPR 250730Z 36002KT CAVOK 20/17 Q1019=
201206250700 METAR LPPR 250700Z 35003KT CAVOK 18/17 Q1019=
201206250630 METAR LPPR 250630Z 36002KT CAVOK 16/15 Q1019=
201206250600 METAR LPPR 250600Z 35003KT 310V050 CAVOK 14/14 Q1019=
201206250530 METAR LPPR 250530Z 03001KT 9000 NSC 14/14 Q1019=
201206250500 METAR LPPR 250500Z VRB02KT 9000 NSC 14/14 Q1019=
201206250430 METAR LPPR 250430Z 36002KT CAVOK 14/14 Q1019=
201206250400 METAR LPPR 250400Z VRB01KT CAVOK 15/14 Q1019=
201206250330 METAR LPPR 250330Z VRB01KT CAVOK 14/14 Q1019=
201206250300 METAR LPPR 250300Z 34003KT 9000 FEW003 15/14 Q1019=
201206250230 METAR LPPR 250230Z 35003KT CAVOK 15/14 Q1019=
201206250200 METAR LPPR 250200Z 01003KT CAVOK 15/15 Q1020=
201206250130 METAR LPPR 250130Z 34006KT CAVOK 16/15 Q1020=
201206250100 METAR LPPR 250100Z 35004KT CAVOK 16/15 Q1020=
201206250030 METAR LPPR 250030Z 35006KT CAVOK 17/15 Q1020=
201206250000 METAR LPPR 250000Z 33007KT CAVOK 17/16 Q1021=
201206242330 METAR LPPR 242330Z 36005KT CAVOK 17/15 Q1021=
201206242300 METAR LPPR 242300Z 35005KT CAVOK 17/16 Q1021=
201206242230 METAR LPPR 242230Z 34005KT CAVOK 17/15 Q1021=
201206242200 METAR LPPR 242200Z 33004KT CAVOK 17/15 Q1021=
201206242130 METAR LPPR 242130Z 35006KT CAVOK 17/15 Q1021=
201206242100 METAR LPPR 242100Z 34005KT CAVOK 18/16 Q1021=
201206242030 METAR LPPR 242030Z 34006KT CAVOK 18/16 Q1020=
201206242000 METAR LPPR 242000Z 34006KT CAVOK 19/16 Q1020=
201206241930 METAR LPPR 241930Z 34008KT CAVOK 20/16 Q1020=
201206241900 METAR LPPR 241900Z 34012KT CAVOK 20/16 Q1020=
201206241830 METAR LPPR 241830Z 34012KT 300V360 CAVOK 21/16 Q1020=
201206241800 METAR LPPR 241800Z 32009G19KT 280V360 CAVOK 21/16 Q1021=
201206241730 METAR LPPR 241730Z 33008KT 290V010 CAVOK 22/16 Q1021=
201206241700 METAR LPPR 241700Z 32009KT CAVOK 21/16 Q1021=
201206241630 METAR LPPR 241630Z 32009KT 280V350 CAVOK 20/16 Q1021=
201206241600 METAR LPPR 241600Z 31007KT 280V350 CAVOK 22/16 Q1021=
201206241530 METAR LPPR 241530Z 30008KT 270V330 CAVOK 22/16 Q1021=
201206241500 METAR LPPR 241500Z 33009KT 290V360 CAVOK 23/16 Q1022=
201206241430 METAR LPPR 241430Z 34011KT 300V010 CAVOK 23/16 Q1022=
201206241400 METAR LPPR 241400Z 34011KT 310V010 CAVOK 22/16 Q1022=
201206241330 METAR LPPR 241330Z 32011KT CAVOK 23/16 Q1022=
201206241300 METAR LPPR 241300Z 32012KT CAVOK 21/16 Q1022=
201206241230 METAR LPPR 241230Z 32009KT 290V350 CAVOK 21/15 Q1023=
201206241200 METAR LPPR 241200Z 31008KT 280V350 CAVOK 22/14 Q1023=
201206241130 METAR LPPR 241130Z 30007KT CAVOK 22/14 Q1023=
201206241100 METAR LPPR 241100Z 31007KT 280V340 CAVOK 22/15 Q1023=
201206241030 METAR LPPR 241030Z 31006KT 270V340 CAVOK 22/14 Q1023=
201206241000 METAR LPPR 241000Z 31005KT 250V360 CAVOK 21/15 Q1023=
201206240930 METAR LPPR 240930Z 29004KT CAVOK 21/15 Q1023=
201206240900 METAR LPPR 240900Z 29004KT CAVOK 21/15 Q1023=
201206240830 METAR LPPR 240830Z 01003KT 290V100 CAVOK 21/14 Q1023=
201206240800 METAR LPPR 240800Z VRB03KT CAVOK 19/14 Q1023=
201206240730 METAR LPPR 240730Z VRB02KT CAVOK 18/13 Q1023=
201206240700 METAR LPPR 240700Z VRB01KT CAVOK 16/13 Q1023=
201206240630 METAR LPPR 240630Z 00000KT CAVOK 14/13 Q1023=
201206240600 METAR LPPR 240600Z VRB01KT CAVOK 12/11 Q1023=
201206240530 METAR LPPR 240530Z 00000KT 9000 NSC 11/11 Q1022=
201206240500 METAR LPPR 240500Z VRB02KT CAVOK 12/11 Q1022=
201206240430 METAR LPPR 240430Z VRB01KT CAVOK 12/11 Q1022=
201206240400 METAR LPPR 240400Z 01002KT CAVOK 12/11 Q1022=
201206240330 METAR LPPR 240330Z VRB01KT CAVOK 12/11 Q1022=
201206240300 METAR LPPR 240300Z VRB02KT CAVOK 12/10 Q1022=
201206240230 METAR LPPR 240230Z 00000KT CAVOK 12/11 Q1022=
201206240200 METAR LPPR 240200Z VRB02KT CAVOK 12/11 Q1023=
201206240130 METAR LPPR 240130Z VRB02KT CAVOK 13/11 Q1023=
201206240100 METAR LPPR 240100Z 36002KT CAVOK 13/11 Q1023=
201206240030 METAR LPPR 240030Z VRB01KT CAVOK 13/12 Q1023=
201206240000 METAR LPPR 240000Z 31004KT CAVOK 14/12 Q1023=
201206232330 METAR LPPR 232330Z 03003KT CAVOK 14/11 Q1023=
201206232300 METAR LPPR 232300Z 36003KT CAVOK 14/11 Q1023=
201206232230 METAR LPPR 232230Z 35008KT CAVOK 15/12 Q1023=
201206232200 METAR LPPR 232200Z 34007KT CAVOK 15/12 Q1023=
201206232130 METAR LPPR 232130Z 34007KT 310V010 CAVOK 16/11 Q1023=
201206232100 METAR LPPR 232100Z 34007KT 310V010 CAVOK 16/10 Q1023=
201206232030 METAR LPPR 232030Z 33008KT CAVOK 16/10 Q1023=
201206232000 METAR LPPR 232000Z 33009KT CAVOK 17/10 Q1023=
201206231930 METAR LPPR 231930Z 34008KT CAVOK 18/11 Q1023=
201206231900 METAR LPPR 231900Z 33009KT CAVOK 18/11 Q1023=
201206231830 METAR LPPR 231830Z 34009KT 310V010 CAVOK 19/11 Q1023=
201206231800 METAR LPPR 231800Z 32009KT CAVOK 19/13 Q1023=
201206231730 METAR LPPR 231730Z 32011KT CAVOK 19/13 Q1023=
201206231700 METAR LPPR 231700Z 32010KT 290V350 CAVOK 20/13 Q1023=
201206231630 METAR LPPR 231630Z 32012KT CAVOK 19/13 Q1023=
201206231600 METAR LPPR 231600Z 32010KT CAVOK 19/13 Q1023=
201206231530 METAR LPPR 231530Z 33011KT 290V350 CAVOK 19/12 Q1023=
201206231500 METAR LPPR 231500Z 32013KT CAVOK 20/12 Q1023=
201206231430 METAR LPPR 231430Z 32013KT CAVOK 20/13 Q1023=
201206231400 METAR LPPR 231400Z 32011KT 280V350 CAVOK 19/13 Q1023=
201206231330 METAR LPPR 231330Z 33010KT CAVOK 20/14 Q1023=
201206231300 METAR LPPR 231300Z 31010KT 280V340 CAVOK 19/13 Q1023=
201206231230 METAR LPPR 231230Z 31007KT 270V350 CAVOK 20/12 Q1023=
201206231200 METAR LPPR 231200Z 32009KT 280V340 CAVOK 19/13 Q1024=
201206231130 METAR LPPR 231130Z 29006KT 260V330 CAVOK 20/13 Q1023=
201206231100 METAR LPPR 231100Z 32006KT 250V350 CAVOK 19/12 Q1023=
201206231030 METAR LPPR 231030Z 28005KT 260V320 CAVOK 19/12 Q1023=
201206231000 METAR LPPR 231000Z 29006KT 250V330 CAVOK 18/12 Q1023=
201206230930 METAR LPPR 230930Z 27003KT 210V330 CAVOK 19/14 Q1023=
201206230900 METAR LPPR 230900Z VRB04KT CAVOK 18/13 Q1023=
201206230830 METAR LPPR 230830Z 35003KT 310V080 CAVOK 18/13 Q1023=
201206230800 METAR LPPR 230800Z VRB02KT CAVOK 17/13 Q1023=
201206230730 METAR LPPR 230730Z VRB01KT 9000 NSC 16/14 Q1023=
201206230700 METAR LPPR 230700Z VRB01KT 9000 NSC 15/14 Q1023=
201206230630 METAR LPPR 230630Z VRB01KT 9000 NSC 13/13 Q1022=
201206230600 METAR LPPR 230600Z VRB02KT 9000 NSC 11/11 Q1022=
201206230530 METAR LPPR 230530Z 11003KT 080V140 8000 NSC 11/10 Q1022=
201206230500 METAR LPPR 230500Z 00000KT 9000 NSC 10/10 Q1022=
201206230430 METAR LPPR 230430Z VRB01KT CAVOK 11/10 Q1022=
201206230400 METAR LPPR 230400Z 00000KT CAVOK 11/10 Q1022=
201206230330 METAR LPPR 230330Z VRB02KT CAVOK 11/10 Q1022=
201206230300 METAR LPPR 230300Z 02001KT CAVOK 11/11 Q1022=
201206230230 METAR LPPR 230230Z VRB02KT CAVOK 11/11 Q1022=
201206230200 METAR LPPR 230200Z 00000KT 9999 FEW007 12/11 Q1022=
201206230130 METAR LPPR 230130Z 02001KT 9999 FEW008 12/11 Q1022=
201206230100 METAR LPPR 230100Z 00000KT 9999 FEW009 12/11 Q1022=
201206230030 METAR LPPR 230030Z 00000KT CAVOK 13/12 Q1022=
201206230000 METAR LPPR 230000Z 10001KT CAVOK 13/12 Q1022=
201206222330 METAR LPPR 222330Z 03002KT CAVOK 13/12 Q1022=
201206222300 METAR LPPR 222300Z 04002KT CAVOK 13/12 Q1022=
201206222230 METAR LPPR 222230Z 34004KT 300V360 9999 FEW010 14/12 Q1022=
201206222200 METAR LPPR 222200Z 34007KT 9999 FEW011 15/13 Q1023=
201206222130 METAR LPPR 222130Z 34009KT CAVOK 15/13 Q1022=
201206222100 METAR LPPR 222100Z 34010KT CAVOK 16/12 Q1022=
201206222030 METAR LPPR 222030Z 34011KT CAVOK 16/12 Q1022=
201206222000 METAR LPPR 222000Z 34011KT CAVOK 16/12 Q1022=
201206221930 METAR LPPR 221930Z 33011KT CAVOK 17/11 Q1022=
201206221900 METAR LPPR 221900Z 34011KT CAVOK 17/11 Q1022=
201206221830 METAR LPPR 221830Z 34014KT CAVOK 18/11 Q1022=
201206221800 METAR LPPR 221800Z 34012KT 300V360 CAVOK 18/12 Q1022=
201206221730 METAR LPPR 221730Z 33016KT CAVOK 18/12 Q1022=
201206221700 METAR LPPR 221700Z 33016G26KT CAVOK 18/12 Q1022=
201206221630 METAR LPPR 221630Z 33015KT CAVOK 18/12 Q1022=
201206221600 METAR LPPR 221600Z 33016KT CAVOK 18/12 Q1022=
201206221530 METAR LPPR 221530Z 32015KT 300V360 CAVOK 18/12 Q1022=
201206221500 METAR LPPR 221500Z 32015KT 290V350 CAVOK 18/12 Q1022=
201206221430 METAR LPPR 221430Z 33016KT CAVOK 18/12 Q1022=
201206221400 METAR LPPR 221400Z 33013KT CAVOK 19/12 Q1022=
201206221330 METAR LPPR 221330Z 32015KT CAVOK 19/11 Q1022=
201206221300 METAR LPPR 221300Z 32014KT 290V350 9999 FEW023 19/10 Q1022=
201206221230 METAR LPPR 221230Z 33015KT 9999 FEW020 19/11 Q1023=
201206221200 METAR LPPR 221200Z 33011KT 9999 FEW020 19/11 Q1023=
201206221130 METAR LPPR 221130Z 33014KT 9999 FEW020 19/11 Q1023=
201206221100 METAR LPPR 221100Z 32012KT 9999 FEW022 18/09 Q1023=
201206221030 METAR LPPR 221030Z 32009KT 280V010 9999 FEW021 19/10 Q1023=
201206221000 METAR LPPR 221000Z 36009KT 320V050 9999 FEW020 19/07 Q1023=
201206220930 METAR LPPR 220930Z 35009KT 320V030 9999 FEW020 18/09 Q1023=
201206220900 METAR LPPR 220900Z 36007KT 330V030 9999 FEW019 17/09 Q1023=
201206220830 METAR LPPR 220830Z 36009KT 9999 FEW018 16/09 Q1023=
201206220800 METAR LPPR 220800Z 02006KT 350V060 9999 FEW018 15/10 Q1023=
201206220730 METAR LPPR 220730Z 01005KT 340V040 9999 FEW018 15/10 Q1023=
201206220700 METAR LPPR 220700Z 01005KT 340V050 CAVOK 13/10 Q1023=
201206220630 METAR LPPR 220630Z 36004KT CAVOK 13/10 Q1023=
201206220600 METAR LPPR 220600Z 35005KT 330V050 CAVOK 11/09 Q1022=
201206220530 METAR LPPR 220530Z 35003KT 300V080 CAVOK 10/08 Q1022=
201206220500 METAR LPPR 220500Z 34001KT CAVOK 10/09 Q1022=
201206220430 METAR LPPR 220430Z 35003KT CAVOK 11/09 Q1022=
201206220400 METAR LPPR 220400Z 35003KT CAVOK 11/09 Q1022=
201206220330 METAR LPPR 220330Z 35003KT CAVOK 11/09 Q1022=
201206220300 METAR LPPR 220300Z 34004KT CAVOK 11/09 Q1022=
201206220230 METAR LPPR 220230Z VRB02KT CAVOK 10/09 Q1022=
201206220200 METAR LPPR 220200Z 35004KT CAVOK 11/09 Q1022=
201206220130 METAR LPPR 220130Z 35003KT CAVOK 12/09 Q1022=
201206220100 METAR LPPR 220100Z 34005KT CAVOK 12/09 Q1022=
201206220030 METAR LPPR 220030Z 34004KT CAVOK 12/10 Q1022=
201206220000 METAR LPPR 220000Z 36003KT CAVOK 12/10 Q1023=
201206212330 METAR LPPR 212330Z 35004KT CAVOK 13/10 Q1023=
201206212300 METAR LPPR 212300Z 35006KT CAVOK 13/10 Q1023=
201206212230 METAR LPPR 212230Z 34006KT CAVOK 14/11 Q1023=
201206212200 METAR LPPR 212200Z 35008KT CAVOK 14/11 Q1023=
201206212130 METAR LPPR 212130Z 34010KT CAVOK 15/11 Q1022=
201206212100 METAR LPPR 212100Z 34010KT CAVOK 15/11 Q1022=
201206212030 METAR LPPR 212030Z 34009KT CAVOK 16/11 Q1022=
201206212000 METAR LPPR 212000Z 34011KT CAVOK 16/10 Q1022=
201206211930 METAR LPPR 211930Z 34010KT CAVOK 17/10 Q1022=
201206211900 METAR LPPR 211900Z 33010KT 300V360 CAVOK 17/12 Q1021=
201206211830 METAR LPPR 211830Z 32012KT CAVOK 18/12 Q1021=
201206211800 METAR LPPR 211800Z 33011KT 300V360 9999 FEW018 18/11 Q1021=
201206211730 METAR LPPR 211730Z 33012KT 9999 FEW018 18/12 Q1021=
201206211700 METAR LPPR 211700Z 34013KT 9999 FEW018 18/12 Q1021=
201206211630 METAR LPPR 211630Z 33010KT 290V010 9999 FEW018 18/11 Q1021=
201206211600 METAR LPPR 211600Z 33010KT 9999 FEW018 18/11 Q1021=
201206211530 METAR LPPR 211530Z 33012KT 9999 FEW018 19/11 Q1021=
201206211500 METAR LPPR 211500Z 34012KT 9999 FEW018 19/11 Q1021=
201206211430 METAR LPPR 211430Z 33012KT 9999 FEW018 19/09 Q1021=
201206211400 METAR LPPR 211400Z 33011KT 290V360 9999 FEW018 19/11 Q1021=
201206211330 METAR LPPR 211330Z 32009KT 280V360 9999 FEW018 19/10 Q1021=
201206211300 METAR LPPR 211300Z 32009KT 280V350 9999 FEW018 19/12 Q1021=
201206211230 METAR LPPR 211230Z 33010KT 280V350 9999 FEW018 19/12 Q1021=
201206211200 METAR LPPR 211200Z 31009KT 9999 FEW018 18/13 Q1021=
201206211130 METAR LPPR 211130Z 34011KT 9999 FEW018 18/13 Q1020=
201206211100 METAR LPPR 211100Z 32009KT 280V350 9999 FEW016 SCT020 18/14
                        Q1020=
201206211030 METAR LPPR 211030Z 31008KT 270V340 9999 SCT015 SCT020 18/14
                        Q1020=
201206211000 METAR LPPR 211000Z 28006KT 230V310 9999 FEW015 SCT020 18/15
                        Q1019=
201206210930 METAR LPPR 210930Z 30005KT 270V330 9999 FEW015 SCT020 18/13
                        Q1019=
201206210900 METAR LPPR 210900Z 32005KT 270V350 9999 FEW015 SCT023 18/14
                        Q1019=
201206210830 METAR LPPR 210830Z 31005KT 270V360 9999 FEW015 SCT040 18/14
                        Q1019=
201206210800 METAR LPPR 210800Z 32007KT 280V350 9999 FEW014 SCT035 BKN048
                        17/14 Q1018=
201206210730 METAR LPPR 210730Z 30003KT 260V340 9999 FEW012TCU BKN040
                        17/14 Q1018=
201206210700 METAR LPPR 210700Z 33004KT 9999 FEW012 BKN042 16/15 Q1017=
201206210630 METAR LPPR 210630Z 33003KT 300V010 9999 FEW016 BKN042 16/15
                        Q1017=
201206210600 METAR LPPR 210600Z 32005KT 290V360 9999 FEW016 BKN035 16/14
                        Q1016=
201206210530 METAR LPPR 210530Z 29003KT 240V340 9999 FEW016 BKN033 16/14
                        Q1016=
201206210500 METAR LPPR 210500Z VRB02KT 9999 VCSH SCT016 BKN025 16/14
                        Q1016=
201206210430 METAR LPPR 210430Z VRB02KT 9999 FEW017 BKN025 BKN035 16/13
                        Q1015=
201206210400 METAR LPPR 210400Z 31003KT 250V010 9999 FEW018 BKN026 16/13
                        Q1015=
201206210330 METAR LPPR 210330Z 29007KT 230V350 9999 SCT009 BKN016 16/14
                        Q1015=
201206210300 METAR LPPR 210300Z 30007KT 250V340 7000 -DZ SCT008 BKN010
                        16/15 Q1014=
201206210230 METAR LPPR 210230Z 30006KT 270V350 4500 -DZ BR BKN005 BKN008
                        16/15 Q1014=
201206210200 METAR LPPR 210200Z 30006KT 250V010 5000 -DZ BR BKN007 BKN010
                        16/15 Q1013=
201206210130 METAR LPPR 210130Z 22007KT 180V260 6000 -DZ BKN005 BKN015
                        17/17 Q1012=
201206210100 METAR LPPR 210100Z 20012KT 3500 BR BKN001 BKN003 18/17 Q1012=
201206210030 METAR LPPR 210030Z 20013KT 170V230 9000 BKN003 BKN004 18/17
                        Q1011=
201206210000 METAR LPPR 210000Z 19018G29KT 5000 -DZ BR BKN003 BKN004 18/17
                        Q1011=
201206202330 METAR LPPR 202330Z 19020KT 7000 -DZ BKN002 BKN005 18/17 Q1011=
201206202300 METAR LPPR 202300Z 18021KT 4000 -DZ BR BKN003 BKN005 18/17
                        Q1011 REDZ=
201206202230 METAR LPPR 202230Z 19020KT 7000 -DZ BKN003 BKN005 18/17 Q1011
                        REDZ=
201206202200 METAR LPPR 202200Z 18021KT 4500 DZ BR BKN003 BKN005 18/17
                        Q1011=
201206202130 METAR LPPR 202130Z 18019KT 4000 -DZ BR OVC004 18/17 Q1011=
201206202100 METAR LPPR 202100Z 18017KT 6000 -DZ OVC007 17/16 Q1011=
201206202030 METAR LPPR 202030Z 17017KT 5000 -RADZ BKN007 OVC012 17/16
                        Q1011=
201206202000 METAR LPPR 202000Z 17019KT 7000 BKN009 OVC015 17/16 Q1011=
201206201930 METAR LPPR 201930Z 16015KT 7000 -DZ FEW012 SCT016TCU OVC019
                        17/16 Q1011=
201206201900 METAR LPPR 201900Z 14012KT 9000 FEW013 SCT016TCU OVC020 16/15
                        Q1011=
201206201830 METAR LPPR 201830Z 14010KT 8000 FEW011 SCT015TCU OVC020 16/15
                        Q1012=
201206201800 METAR LPPR 201800Z 15009KT 6000 -RA FEW012 SCT016TCU OVC025
                        16/14 Q1012=
201206201730 METAR LPPR 201730Z 16009KT 130V190 7000 -RADZ FEW013 BKN030
                        OVC040 16/14 Q1012=
201206201700 METAR LPPR 201700Z VRB02KT 8000 -RA FEW009 SCT015 OVC038
                        15/14 Q1012=
201206201630 METAR LPPR 201630Z 18003KT 150V240 6000 -RA FEW014 OVC035
                        15/13 Q1013=
201206201600 METAR LPPR 201600Z 21005KT 120V260 4000 -RA BR SCT027 OVC043
                        17/13 Q1013=
201206201530 METAR LPPR 201530Z 01004KT 320V050 9999 -RA FEW018 BKN045
                        17/14 Q1013=
201206201500 METAR LPPR 201500Z 03003KT 320V080 9999 FEW020 BKN045 17/14
                        Q1014=
201206201430 METAR LPPR 201430Z 28003KT 240V330 9999 -RA FEW018 16/14
                        Q1014=
201206201400 METAR LPPR 201400Z 33003KT 290V020 7000 -RA FEW015 BKN045
                        16/14 Q1014=
201206201330 METAR LPPR 201330Z 32003KT 270V360 9999 FEW015 BKN045 16/13
                        Q1014=
201206201300 METAR LPPR 201300Z 21006KT 180V260 7000 -RA FEW015 BKN045
                        17/13 Q1015=
201206201230 METAR LPPR 201230Z 24006KT 200V280 9999 FEW015 18/13 Q1015=
201206201200 METAR LPPR 201200Z 19005KT 160V240 9999 FEW020 SCT040 17/13
                        Q1014=
201206201130 METAR LPPR 201130Z 17007KT 9999 FEW015 17/13 Q1014=
201206201100 METAR LPPR 201100Z 20009KT 9999 FEW015 17/14 Q1015=
201206201030 METAR LPPR 201030Z 19009KT 9999 FEW016 17/14 Q1015=
201206201000 METAR LPPR 201000Z 21008KT 180V250 9999 FEW015 17/13 Q1015=
201206200930 METAR LPPR 200930Z 20008KT 160V240 9999 FEW017 17/13 Q1014=
201206200900 METAR LPPR 200900Z 23008KT 210V270 9999 SCT017 17/13 Q1015=
201206200830 METAR LPPR 200830Z 16005KT 110V220 9999 FEW015 SCT030 18/13
                        Q1014=
201206200800 METAR LPPR 200800Z 11004KT 040V200 9999 FEW012 BKN030 17/13
                        Q1014=
201206200730 METAR LPPR 200730Z 17007KT 130V210 9999 FEW013 SCT017 16/14
                        Q1014=
201206200700 METAR LPPR 200700Z 16007KT 9999 SCT014 16/14 Q1014=
201206200630 METAR LPPR 200630Z 12005KT 090V180 9999 FEW014 SCT022 15/14
                        Q1013=
201206200600 METAR LPPR 200600Z 18004KT 9999 FEW014 SCT023 BKN029 15/14
                        Q1014=
201206200530 METAR LPPR 200530Z 17005KT 9999 SCT013 SCT015 15/14 Q1014=
201206200500 METAR LPPR 200500Z 17004KT 9999 SCT013 SCT021 14/13 Q1014=
201206200430 METAR LPPR 200430Z 17006KT 9999 SCT013 SCT017 14/14 Q1014=
201206200400 METAR LPPR 200400Z 18005KT 9999 SCT011 SCT038 15/13 Q1014=
201206200330 METAR LPPR 200330Z 20003KT 9999 SCT012 BKN038 15/13 Q1014=
201206200300 METAR LPPR 200300Z VRB02KT 9999 SCT017 SCT035 15/13 Q1014=
201206200230 METAR LPPR 200230Z 19002KT 9999 FEW017 SCT037 15/13 Q1014=
201206200200 METAR LPPR 200200Z 17001KT 9999 SCT012 SCT038 15/13 Q1014=
201206200130 METAR LPPR 200130Z 23003KT 9999 FEW010 SCT016 BKN031 15/14
                        Q1015=
201206200100 METAR LPPR 200100Z VRB02KT 9999 FEW011 SCT013 BKN015 14/14
                        Q1015=
201206200030 METAR LPPR 200030Z 00000KT 9999 SCT012 SCT035 14/13 Q1015=
201206200000 METAR LPPR 200000Z 00000KT 9999 SCT012 SCT035 15/13 Q1015=
201206192330 METAR LPPR 192330Z VRB01KT 9999 SCT011 BKN032 15/14 Q1015=
201206192300 METAR LPPR 192300Z VRB02KT 9999 FEW011 SCT023 BKN033 15/14
                        Q1015=
201206192230 METAR LPPR 192230Z VRB02KT 9999 SCT011 BKN030 16/14 Q1016=
201206192200 METAR LPPR 192200Z 29003KT 260V330 9999 SCT012 BKN030 16/14
                        Q1016=
201206192130 METAR LPPR 192130Z 32004KT 280V360 9999 SCT011 BKN028 16/13
                        Q1015=
201206192100 METAR LPPR 192100Z 33005KT 9999 SCT012 BKN026 16/13 Q1015=
201206192030 METAR LPPR 192030Z 32005KT 280V350 9999 FEW013 SCT019 BKN024
                        16/14 Q1015=
201206192000 METAR LPPR 192000Z 32006KT 280V350 9999 SCT012 BKN022 16/13
                        Q1015=
201206191930 METAR LPPR 191930Z 32007KT 290V350 9999 SCT011 BKN016 16/14
                        Q1015=
201206191900 METAR LPPR 191900Z 32008KT 260V350 9999 SCT011 BKN013 17/14
                        Q1015=
201206191830 METAR LPPR 191830Z 32008KT 290V350 9999 SCT013 BKN017 17/14
                        Q1015=
201206191800 METAR LPPR 191800Z 32008KT 250V350 9999 SCT011 BKN013 17/14
                        Q1015=
201206191730 METAR LPPR 191730Z 31008KT 260V350 9999 BKN013 17/14 Q1015=
201206191700 METAR LPPR 191700Z 31008KT 260V360 9999 BKN012 18/14 Q1015=
201206191630 METAR LPPR 191630Z 31008KT 260V350 9999 BKN012 18/14 Q1015=
201206191600 METAR LPPR 191600Z 29009KT 260V330 9999 BKN012 18/14 Q1015=
201206191530 METAR LPPR 191530Z 30009KT 270V340 9999 SCT014 18/15 Q1015=
201206191500 METAR LPPR 191500Z 30008KT 260V360 9999 SCT014 18/14 Q1015=
201206191430 METAR LPPR 191430Z 31009KT 260V350 9999 FEW013 18/14 Q1015=
201206191400 METAR LPPR 191400Z 31009KT 260V340 9999 FEW014 18/14 Q1014=
201206191330 METAR LPPR 191330Z 31008KT 270V350 9999 FEW020 18/13 Q1014=
201206191300 METAR LPPR 191300Z 30007KT 270V010 9999 FEW020 19/13 Q1014=
201206191230 METAR LPPR 191230Z 29006KT 260V320 9999 FEW020 19/13 Q1014=
201206191200 METAR LPPR 191200Z 30007KT 260V340 9999 FEW020 19/13 Q1014=
201206191130 METAR LPPR 191130Z 28007KT 260V330 9999 FEW020 18/13 Q1015=
201206191100 METAR LPPR 191100Z 29005KT 260V330 9999 FEW018 18/13 Q1014=
201206191030 METAR LPPR 191030Z 30005KT 240V350 9999 FEW018 18/12 Q1014=
201206191000 METAR LPPR 191000Z 29006KT 260V350 9999 FEW018 17/12 Q1014=
201206190930 METAR LPPR 190930Z 29006KT 9999 SCT016 17/12 Q1014=
201206190900 METAR LPPR 190900Z 32003KT 260V020 9999 SCT016 18/13 Q1014=
201206190830 METAR LPPR 190830Z 01003KT 320V070 9999 FEW012 16/13 Q1014=
201206190800 METAR LPPR 190800Z 01004KT 310V040 9999 FEW011 16/13 Q1015=
201206190730 METAR LPPR 190730Z 36003KT 320V040 9000 FEW018 14/13 Q1014=
201206190700 METAR LPPR 190700Z VRB01KT 8000 NSC 13/13 Q1014=
201206190630 METAR LPPR 190630Z 00000KT 7000 NSC 12/12 Q1014=
201206190600 METAR LPPR 190600Z 14003KT 090V180 8000 NSC 11/11 Q1014=
201206190530 METAR LPPR 190530Z VRB01KT 7000 NSC 10/10 Q1014=
201206190500 METAR LPPR 190500Z VRB01KT 6000 NSC 11/11 Q1014=
201206190430 METAR LPPR 190430Z VRB02KT CAVOK 10/10 Q1014=
201206190400 METAR LPPR 190400Z VRB01KT CAVOK 11/10 Q1014=
201206190330 METAR LPPR 190330Z 02002KT CAVOK 11/11 Q1014=
201206190300 METAR LPPR 190300Z VRB01KT CAVOK 11/10 Q1014=
201206190230 METAR LPPR 190230Z VRB02KT 9999 FEW006 11/11 Q1014=
201206190200 METAR LPPR 190200Z VRB01KT 9999 FEW006 12/11 Q1014=
201206190130 METAR LPPR 190130Z VRB02KT 9999 FEW007 12/12 Q1014=
201206190100 METAR LPPR 190100Z 00000KT CAVOK 12/11 Q1014=
201206190030 METAR LPPR 190030Z 15002KT CAVOK 13/12 Q1015=
201206190000 METAR LPPR 190000Z 09002KT CAVOK 13/13 Q1015=
201206182330 METAR LPPR 182330Z 35002KT CAVOK 14/13 Q1015=
201206182300 METAR LPPR 182300Z 33005KT CAVOK 14/13 Q1015=
201206182230 METAR LPPR 182230Z 33006KT CAVOK 15/13 Q1015=
201206182200 METAR LPPR 182200Z 34007KT CAVOK 15/13 Q1015=
201206182130 METAR LPPR 182130Z 34010KT CAVOK 15/13 Q1015=
201206182100 METAR LPPR 182100Z 34010KT CAVOK 15/13 Q1016=
201206182030 METAR LPPR 182030Z 34009KT CAVOK 16/12 Q1015=
201206182000 METAR LPPR 182000Z 34009KT CAVOK 16/12 Q1015=
201206181930 METAR LPPR 181930Z 34010KT CAVOK 16/12 Q1016=
201206181900 METAR LPPR 181900Z 34011KT CAVOK 16/12 Q1016=
201206181830 METAR LPPR 181830Z 34012KT CAVOK 17/12 Q1016=
201206181800 METAR LPPR 181800Z 33011KT 300V360 CAVOK 17/12 Q1016=
201206181730 METAR LPPR 181730Z 33014KT CAVOK 18/12 Q1016=
201206181700 METAR LPPR 181700Z 33013KT CAVOK 18/12 Q1016=
201206181630 METAR LPPR 181630Z 33013KT CAVOK 17/12 Q1016=
201206181600 METAR LPPR 181600Z 32013G23KT 290V360 CAVOK 18/12 Q1016=
201206181530 METAR LPPR 181530Z 33012KT 9999 FEW025 17/12 Q1017=
201206181500 METAR LPPR 181500Z 32012KT 9999 FEW025 18/12 Q1017=
201206181430 METAR LPPR 181430Z 33014KT 9999 FEW025 19/13 Q1017=
201206181400 METAR LPPR 181400Z 33013KT 9999 FEW025 18/12 Q1017=
201206181330 METAR LPPR 181330Z 33011KT 9999 SCT022 18/12 Q1017=
201206181300 METAR LPPR 181300Z 33012KT 9999 SCT022 18/13 Q1018=
201206181230 METAR LPPR 181230Z 33011KT 9999 SCT022 18/13 Q1018=
201206181200 METAR LPPR 181200Z 34011KT 300V360 9999 SCT022 18/13 Q1018=
201206181130 METAR LPPR 181130Z 31010KT 270V350 9999 SCT022 19/14 Q1018=
201206181100 METAR LPPR 181100Z 31009KT 260V350 9999 SCT020 18/14 Q1018=
201206181030 METAR LPPR 181030Z 30007KT 270V350 9999 SCT020 SCT027 18/14
                        Q1018=
201206181000 METAR LPPR 181000Z 31006KT 250V340 9999 SCT017 SCT020 17/13
                        Q1019=
201206180930 METAR LPPR 180930Z 32005KT 280V350 9999 SCT017 SCT020 17/13
                        Q1019=
201206180900 METAR LPPR 180900Z 31004KT 230V020 9999 SCT016 SCT018 17/13
                        Q1019=
201206180830 METAR LPPR 180830Z 35005KT 310V050 9999 R35/P2000 SCT013 SCT024
                        17/13 Q1019=
201206180800 METAR LPPR 180800Z 36005KT 310V030 9999 FEW013 SCT024 15/13
                        Q1019=
201206180730 METAR LPPR 180730Z 02004KT 350V050 9999 FEW013 SCT024 15/13
                        Q1019=
201206180700 METAR LPPR 180700Z 35004KT 9999 FEW014 SCT024 13/13 Q1019=
201206180630 METAR LPPR 180630Z 01003KT 330V040 9999 SCT014 BKN018 12/12
                        Q1019=
201206180600 METAR LPPR 180600Z VRB02KT 9999 FEW012 BKN016 12/11 Q1018=
201206180530 METAR LPPR 180530Z 02003KT 320V050 9999 BKN017 11/10 Q1018=
201206180500 METAR LPPR 180500Z 36002KT 6000 FEW013 SCT018 10/10 Q1018=
201206180430 METAR LPPR 180430Z 01002KT 5000 BR FEW020 09/09 Q1018=
201206180400 METAR LPPR 180400Z VRB02KT 8000 NSC 10/10 Q1018=
201206180330 METAR LPPR 180330Z VRB01KT CAVOK 11/10 Q1018=
201206180300 METAR LPPR 180300Z 04001KT CAVOK 12/11 Q1018=
201206180230 METAR LPPR 180230Z 36002KT CAVOK 11/11 Q1019=
201206180200 METAR LPPR 180200Z 35003KT CAVOK 11/11 Q1019=
201206180130 METAR LPPR 180130Z VRB01KT 9000 NSC 11/11 Q1019=
201206180100 METAR LPPR 180100Z VRB01KT CAVOK 13/13 Q1019=
201206180030 METAR LPPR 180030Z 03001KT CAVOK 13/12 Q1019=
201206180000 METAR LPPR 180000Z 05001KT 9999 FEW009 14/13 Q1019=
201206172330 METAR LPPR 172330Z 35005KT 9999 SCT011 13/12 Q1019=
201206172300 METAR LPPR 172300Z 34008KT 9999 SCT011 14/13 Q1019=
201206172230 METAR LPPR 172230Z 34010KT 9999 FEW012 14/13 Q1019=
201206172200 METAR LPPR 172200Z 34011KT 300V360 CAVOK 15/13 Q1019=
201206172130 METAR LPPR 172130Z 34013KT 310V010 9999 SCT011 15/13 Q1019=
201206172100 METAR LPPR 172100Z 33014KT 9999 SCT013 16/14 Q1018=
201206172030 METAR LPPR 172030Z 33009KT 9999 SCT011 BKN013 16/14 Q1018=
201206172000 METAR LPPR 172000Z 32008G18KT 9999 FEW010 SCT013 17/14 Q1018=
201206171930 METAR LPPR 171930Z 32004KT 240V360 9999 FEW020 18/15 Q1017=
201206171900 METAR LPPR 171900Z 30004KT 270V340 9999 FEW020 SCT030 18/17
                        Q1017=
201206171830 METAR LPPR 171830Z 33005KT 290V360 9999 SCT004 BKN024 17/17
                        Q1017=
201206171800 METAR LPPR 171800Z 22013KT 190V300 9000 BKN004 BKN017 19/17
                        Q1016=
201206171730 METAR LPPR 171730Z 21012KT 9000 -RA BKN005 BKN013 20/19 Q1016=
201206171700 METAR LPPR 171700Z 20014KT 9000 BKN004 BKN012 20/19 Q1016=
201206171630 METAR LPPR 171630Z 19016KT 9000 BKN005 BKN011 19/18 Q1016=
201206171600 METAR LPPR 171600Z 19015KT 9999 SCT008 BKN013 20/18 Q1016=
201206171530 METAR LPPR 171530Z 19016KT 9999 SCT008 BKN020 21/18 Q1017=
201206171500 METAR LPPR 171500Z 19016KT 9999 SCT009 BKN020 20/18 Q1017=
201206171430 METAR LPPR 171430Z 19017KT 9999 SCT011 BKN020 20/18 Q1017=
201206171400 METAR LPPR 171400Z 19016KT 9999 FEW012 BKN025 21/17 Q1017=
201206171330 METAR LPPR 171330Z 20016KT 9999 FEW013 BKN030 21/18 Q1017=
201206171300 METAR LPPR 171300Z 20016KT 9999 FEW012 BKN020 20/17 Q1018=
201206171230 METAR LPPR 171230Z 20015KT 9000 FEW015 BKN030 20/17 Q1018=
201206171200 METAR LPPR 171200Z 19016KT 9999 FEW025 BKN030 20/16 Q1018=
201206171130 METAR LPPR 171130Z 19013KT 9999 FEW025 BKN037 20/15 Q1018=
201206171100 METAR LPPR 171100Z 20013KT 9999 FEW025 SCT040 21/15 Q1018=
201206171030 METAR LPPR 171030Z 20011KT 160V230 9999 FEW025 SCT035 21/15
                        Q1018=
201206171000 METAR LPPR 171000Z 19012KT 9999 SCT048 21/14 Q1018=
201206170930 METAR LPPR 170930Z 18010KT 9999 SCT035 20/14 Q1018=
201206170900 METAR LPPR 170900Z 18009KT CAVOK 20/13 Q1018=
201206170830 METAR LPPR 170830Z 15007KT 100V170 CAVOK 19/14 Q1019=
201206170800 METAR LPPR 170800Z 15007KT 120V180 CAVOK 18/14 Q1019=
201206170730 METAR LPPR 170730Z 14006KT 120V180 CAVOK 17/14 Q1019=
201206170700 METAR LPPR 170700Z 14004KT CAVOK 16/13 Q1019=
201206170630 METAR LPPR 170630Z 13006KT CAVOK 15/13 Q1019=
201206170600 METAR LPPR 170600Z 12005KT CAVOK 14/13 Q1019=
201206170530 METAR LPPR 170530Z 11006KT CAVOK 13/12 Q1019=
201206170500 METAR LPPR 170500Z VRB02KT CAVOK 12/12 Q1019=
201206170430 METAR LPPR 170430Z VRB02KT CAVOK 13/12 Q1019=
201206170400 METAR LPPR 170400Z VRB01KT CAVOK 12/12 Q1020=
201206170330 METAR LPPR 170330Z VRB02KT CAVOK 13/12 Q1020=
201206170300 METAR LPPR 170300Z VRB02KT CAVOK 12/12 Q1020=
201206170230 METAR LPPR 170230Z VRB01KT CAVOK 13/12 Q1020=
201206170200 METAR LPPR 170200Z 00000KT CAVOK 13/12 Q1020=
201206170130 METAR LPPR 170130Z 00000KT CAVOK 13/12 Q1021=
201206170100 METAR LPPR 170100Z 11002KT CAVOK 14/13 Q1021=
201206170030 METAR LPPR 170030Z 10002KT CAVOK 14/13 Q1021=
201206170000 METAR LPPR 170000Z 02002KT CAVOK 14/13 Q1022=
201206162330 METAR LPPR 162330Z 01003KT CAVOK 14/13 Q1022=
201206162300 METAR LPPR 162300Z 03002KT CAVOK 14/13 Q1022=
201206162230 METAR LPPR 162230Z 35003KT CAVOK 15/14 Q1022=
201206162200 METAR LPPR 162200Z 36003KT CAVOK 15/13 Q1022=
201206162130 METAR LPPR 162130Z 36002KT CAVOK 16/14 Q1022=
201206162100 METAR LPPR 162100Z 34005KT CAVOK 16/14 Q1022=
201206162030 METAR LPPR 162030Z 32005KT CAVOK 16/14 Q1022=
201206162000 METAR LPPR 162000Z 33005KT 300V360 CAVOK 17/14 Q1022=
201206161930 METAR LPPR 161930Z 32005KT CAVOK 18/14 Q1022=
201206161900 METAR LPPR 161900Z 32006KT 290V350 CAVOK 18/14 Q1022=
201206161830 METAR LPPR 161830Z 32005KT 260V360 9999 FEW020 19/14 Q1022=
201206161800 METAR LPPR 161800Z 29004KT 240V360 9999 FEW015 19/14 Q1023=
201206161730 METAR LPPR 161730Z 28005KT 260V320 9999 FEW015 19/14 Q1022=
201206161700 METAR LPPR 161700Z 31006KT 270V350 9999 FEW015 19/15 Q1022=
201206161630 METAR LPPR 161630Z 28005KT 230V340 9999 FEW015 20/14 Q1023=
201206161600 METAR LPPR 161600Z 29006KT 250V320 9999 FEW015 20/15 Q1023=
201206161530 METAR LPPR 161530Z 30006KT 250V350 9999 FEW018 20/15 Q1023=
201206161500 METAR LPPR 161500Z 29006KT 230V350 9999 FEW018 20/14 Q1023=
201206161430 METAR LPPR 161430Z 29005KT 240V330 9999 FEW017 20/15 Q1023=
201206161400 METAR LPPR 161400Z VRB05KT 9999 FEW019 20/15 Q1023=
201206161330 METAR LPPR 161330Z 28006KT 230V340 9999 SCT015 20/14 Q1023=
201206161300 METAR LPPR 161300Z 30006KT 250V010 9999 FEW015 21/16 Q1023=
201206161230 METAR LPPR 161230Z 28005KT 220V330 9999 FEW017 20/15 Q1023=
201206161200 METAR LPPR 161200Z 30005KT 200V340 9999 SCT015 20/16 Q1023=
201206161130 METAR LPPR 161130Z 29005KT 240V340 9999 FEW011 SCT025 19/16
                        Q1022=
201206161100 METAR LPPR 161100Z 27005KT 230V340 9999 FEW010 BKN030 18/15
                        Q1022=
201206161030 METAR LPPR 161030Z 30005KT 270V350 9999 SCT009 BKN025 18/16
                        Q1022=
201206161000 METAR LPPR 161000Z 29006KT 260V330 9999 FEW006 BKN025 19/16
                        Q1022=
201206160930 METAR LPPR 160930Z 28005KT 210V320 9999 SCT006 BKN015 BKN025
                        19/17 Q1022=
201206160900 METAR LPPR 160900Z 28004KT 210V330 9999 FEW004 BKN006 BKN020
                        18/17 Q1021=
201206160830 METAR LPPR 160830Z 27004KT 220V320 9999 FEW002 BKN004 BKN020
                        18/18 Q1021=
201206160800 METAR LPPR 160800Z 27005KT 230V320 6000 BKN002 BKN005 18/17
                        Q1021=
201206160730 METAR LPPR 160730Z 25005KT 220V310 2000 -RADZ BR BKN002 BKN005
                        18/17 Q1021=
201206160700 METAR LPPR 160700Z 24005KT 190V270 3000 BR VCFG BKN002 BKN004
                        18/17 Q1020=
201206160630 METAR LPPR 160630Z 24006KT 180V330 4000 -RADZ BR BKN002 BKN004
                        18/17 Q1020=
201206160600 METAR LPPR 160600Z 21009KT 180V240 2500 -RADZ BR BKN002 BKN003
                        18/18 Q1019=
201206160530 METAR LPPR 160530Z 19011KT 2400 -RADZ BR BKN003 BKN004 18/18
                        Q1019=
201206160500 METAR LPPR 160500Z 19011KT 3000 -RADZ BR BKN003 BKN004 18/18
                        Q1019=
201206160430 METAR LPPR 160430Z 19012KT 5000 -RADZ BR BKN003 BKN005 18/18
                        Q1019=
201206160400 METAR LPPR 160400Z 19012KT 9999 SCT003 BKN005 18/18 Q1019=
201206160330 METAR LPPR 160330Z 19012KT 7000 -RADZ BKN003 BKN005 18/18
                        Q1019=
201206160300 METAR LPPR 160300Z 20013KT 5000 -RADZ BR SCT003 BKN004 BKN020
                        18/18 Q1019=
201206160230 METAR LPPR 160230Z 19013KT 9999 BKN003 BKN004 18/18 Q1019=
201206160200 METAR LPPR 160200Z 19014KT 9999 SCT003 BKN004 BKN020 18/18
                        Q1019=
201206160130 METAR LPPR 160130Z 19014KT 4800 -RADZ BR SCT004 BKN005 BKN020
                        18/18 Q1019=
201206160100 METAR LPPR 160100Z 19013KT 9000 SCT005 BKN006 BKN049 18/18
                        Q1019=
201206160030 METAR LPPR 160030Z 19011KT 9999 BKN005 BKN011 18/18 Q1020=
201206160000 METAR LPPR 160000Z 19011KT 9999 SCT005 BKN009 BKN049 18/18
                        Q1020=
201206152330 METAR LPPR 152330Z 20011KT 180V240 8000 -RADZ BKN006 BKN012
                        19/18 Q1020=
201206152300 METAR LPPR 152300Z 18013KT 9999 BKN005 BKN006 19/18 Q1020=
201206152230 METAR LPPR 152230Z 19011KT 9999 BKN005 BKN006 19/18 Q1021=
201206152200 METAR LPPR 152200Z 19010KT 9999 BKN006 BKN007 19/18 Q1021=
201206152130 METAR LPPR 152130Z 18012KT 9999 SCT006 BKN007 19/18 Q1020=
201206152100 METAR LPPR 152100Z 18011KT 9999 SCT006 BKN007 19/18 Q1020=
201206152030 METAR LPPR 152030Z 19009KT 9999 BKN006 BKN010 19/18 Q1020=
201206152000 METAR LPPR 152000Z 19011KT 9999 BKN006 BKN014 19/18 Q1020=
201206151930 METAR LPPR 151930Z 19011KT 9999 SCT006 SCT008 BKN014 19/18
                        Q1020=
201206151900 METAR LPPR 151900Z 19010KT 9999 SCT007 SCT014 BKN018 19/18
                        Q1020=
201206151830 METAR LPPR 151830Z 20008KT 170V230 9999 FEW007 SCT014 BKN018
                        19/17 Q1020=
201206151800 METAR LPPR 151800Z 20009KT 9999 FEW007 SCT015 BKN020 19/18
                        Q1020=
201206151730 METAR LPPR 151730Z 20011KT 170V230 9999 FEW007 BKN018 BKN045
                        19/18 Q1020=
201206151700 METAR LPPR 151700Z 20011KT 9999 FEW007 SCT020 BKN045 20/18
                        Q1020=
201206151630 METAR LPPR 151630Z 20013KT 9999 FEW009 SCT017 BKN045 19/17
                        Q1020=
201206151600 METAR LPPR 151600Z 19012KT 9999 FEW007 SCT015 BKN020 20/17
                        Q1020=
201206151530 METAR LPPR 151530Z 19011KT 9999 FEW007 SCT015 BKN019 19/17
                        Q1020=
201206151500 METAR LPPR 151500Z 19014KT 9000 -SHRA FEW008 SCT017 BKN023
                        19/17 Q1020=
201206151430 METAR LPPR 151430Z 19014KT 9999 FEW013 SCT020 BKN025 20/17
                        Q1020=
201206151400 METAR LPPR 151400Z 19016KT 9999 FEW014 SCT018 BKN025 20/17
                        Q1020=
201206151330 METAR LPPR 151330Z 19017KT 9999 FEW014 SCT018 BKN025 21/17
                        Q1020=
201206151300 METAR LPPR 151300Z 19015KT 9999 SCT013 OVC022 19/16 Q1020=
201206151230 METAR LPPR 151230Z 19015KT 9999 BKN013 OVC027 19/16 Q1020=
201206151200 METAR LPPR 151200Z 19015KT 9999 FEW012 SCT020 BKN030 19/16
                        Q1020=
201206151130 METAR LPPR 151130Z 19016KT 9999 FEW009 SCT015 BKN025 19/16
                        Q1020=
201206151100 METAR LPPR 151100Z 19016KT 9999 FEW009 SCT015 BKN020 18/15
                        Q1020=
201206151030 METAR LPPR 151030Z 19016KT 9999 FEW009 BKN015 17/14 Q1020=
201206151000 METAR LPPR 151000Z 19014KT 9999 SCT013 BKN017 18/14 Q1020=
201206150930 METAR LPPR 150930Z 18016KT 9999 SCT013 BKN017 18/14 Q1020=
201206150900 METAR LPPR 150900Z 18014KT 7000 SCT015 BKN018 17/14 Q1020=
201206150830 METAR LPPR 150830Z 18013KT 9999 FEW015 BKN020 18/14 Q1020=
201206150800 METAR LPPR 150800Z 16011KT 9999 FEW015 BKN020 17/14 Q1020=
201206150730 METAR LPPR 150730Z 16009KT 9999 BKN024 17/14 Q1019=
201206150700 METAR LPPR 150700Z 16009KT 9999 FEW020 BKN030 16/14 Q1019=
201206150630 METAR LPPR 150630Z 15007KT 9999 FEW020 BKN032 15/14 Q1019=
201206150600 METAR LPPR 150600Z 13006KT 9999 FEW018 SCT030 14/13 Q1019=
201206150530 METAR LPPR 150530Z 13005KT 9999 FEW018 BKN040 14/13 Q1019=
201206150500 METAR LPPR 150500Z 14004KT 9999 FEW017 SCT020 14/13 Q1019=
201206150430 METAR LPPR 150430Z 13004KT 9999 FEW018 14/13 Q1019=
201206150400 METAR LPPR 150400Z 13005KT 9999 FEW017 13/12 Q1019=
201206150330 METAR LPPR 150330Z 13005KT 9999 FEW017 13/13 Q1019=
201206150300 METAR LPPR 150300Z 13003KT 9999 FEW019 SCT030 14/13 Q1019=
201206150230 METAR LPPR 150230Z 16005KT 9999 FEW030 14/13 Q1019=
201206150200 METAR LPPR 150200Z 16006KT 9999 FEW030 15/13 Q1019=
201206150130 METAR LPPR 150130Z 17005KT 9999 FEW020 SCT030 14/13 Q1019=
201206150100 METAR LPPR 150100Z 18005KT 9999 SCT020 BKN030 14/13 Q1019=
201206150030 METAR LPPR 150030Z 19004KT 9999 FEW025 BKN030 15/13 Q1020=
201206150000 METAR LPPR 150000Z 20004KT 9999 FEW020 BKN030 16/13 Q1020=
201206142330 METAR LPPR 142330Z 21004KT 9999 SCT020 BKN030 16/14 Q1020=
201206142300 METAR LPPR 142300Z 21003KT 180V290 9999 FEW020 SCT030 15/13
                        Q1020=
201206142230 METAR LPPR 142230Z 21004KT 180V240 9999 FEW020 SCT030 16/13
                        Q1020=
201206142200 METAR LPPR 142200Z 22003KT 170V270 9999 SCT020 BKN030 16/13
                        Q1020=
201206142130 METAR LPPR 142130Z 21004KT 9999 FEW023 SCT030 16/13 Q1019=
201206142100 METAR LPPR 142100Z 23004KT 180V260 9999 SCT023 BKN033 16/14
                        Q1019=
201206142030 METAR LPPR 142030Z 23006KT 200V260 9999 SCT019 BKN038 17/14
                        Q1019=
201206142000 METAR LPPR 142000Z 21005KT 180V250 9999 FEW017 BKN036 17/14
                        Q1018=
201206141930 METAR LPPR 141930Z 22005KT 190V260 9999 SCT020 17/14 Q1018=
201206141900 METAR LPPR 141900Z 23007KT 200V260 9999 FEW022 18/13 Q1018=
201206141830 METAR LPPR 141830Z 23007KT 190V270 9999 FEW022 BKN036 19/14
                        Q1018=
201206141800 METAR LPPR 141800Z 24006KT 200V280 9999 FEW016 BKN034 18/13
                        Q1018=
201206141730 METAR LPPR 141730Z 22006KT 180V260 9999 FEW016 BKN032 18/13
                        Q1017=
201206141700 METAR LPPR 141700Z 22006KT 180V250 9999 FEW016 BKN030 18/14
                        Q1017=
201206141630 METAR LPPR 141630Z 23005KT 190V280 9999 SCT025 BKN036 19/14
                        Q1017=
201206141600 METAR LPPR 141600Z 25006KT 200V310 9999 SCT015 BKN030 19/15
                        Q1017=
201206141530 METAR LPPR 141530Z 26006KT 210V290 9999 -RA BKN016 BKN041
                        18/15 Q1017=
201206141500 METAR LPPR 141500Z 27006KT 170V320 9999 SCT014 BKN045 19/14
                        Q1017=
201206141430 METAR LPPR 141430Z 24006KT 180V290 9999 SCT012 SCT045 19/16
                        Q1017=
201206141400 METAR LPPR 141400Z 23007KT 190V280 9999 FEW009 SCT025 BKN040
                        19/16 Q1017=
201206141330 METAR LPPR 141330Z 25006KT 220V300 9999 FEW010 BKN025 BKN035
                        19/16 Q1017=
201206141300 METAR LPPR 141300Z 24005KT 210V270 9999 FEW007 BKN018 OVC023
                        17/16 Q1017=
201206141230 METAR LPPR 141230Z 20012KT 180V250 9999 FEW010 SCT015 BKN020
                        18/16 Q1017=
201206141200 METAR LPPR 141200Z 19013KT 9999 FEW012 BKN016 BKN040 19/16
                        Q1017=
201206141130 METAR LPPR 141130Z 19011KT 9999 FEW013 SCT030 BKN045 19/16
                        Q1016=
201206141100 METAR LPPR 141100Z 20012KT 9999 FEW009 SCT035 BKN045 18/16
                        Q1016=
201206141030 METAR LPPR 141030Z 19012KT 9999 FEW007 SCT035 BKN045 18/16
                        Q1016=
201206141000 METAR LPPR 141000Z 18012KT 8000 SCT006 BKN014 OVC030 16/15
                        Q1016=
201206140930 METAR LPPR 140930Z 19010KT 7000 FEW002 BKN004 OVC008 16/15
                        Q1016=
201206140900 METAR LPPR 140900Z 18010KT 3000 -DZ BR OVC007 16/15 Q1015=
201206140830 METAR LPPR 140830Z 14006KT 9000 SCT005 BKN007 OVC040 16/15
                        Q1015=
201206140800 METAR LPPR 140800Z 15007KT 9000 SCT002 OVC005 15/14 Q1015=
201206140730 METAR LPPR 140730Z 14004KT 4000 -DZ BR BKN003 OVC006 14/14
                        Q1015=
201206140700 METAR LPPR 140700Z 14005KT 090V160 2900 R17/1300VP2000 RADZ
                        VCFG BKN003 BKN004 14/13 Q1015=
201206140630 METAR LPPR 140630Z 15007KT 3500 -RADZ BR BKN004 BKN012 14/13
                        Q1015=
201206140600 METAR LPPR 140600Z 15007KT 8000 -RADZ BR SCT009 BKN012 BKN018
                        14/13 Q1015=
201206140530 METAR LPPR 140530Z 14008KT 9999 SCT013 BKN015 BKN018 14/12
                        Q1014=
201206140500 METAR LPPR 140500Z 14008KT 9000 SCT014 BKN022 BKN026 14/12
                        Q1014=
201206140430 METAR LPPR 140430Z 14007KT 9999 SCT015 BKN034 BKN040 15/11
                        Q1015=
201206140400 METAR LPPR 140400Z 13006KT 9999 BKN017 BKN041 15/11 Q1015=
201206140330 METAR LPPR 140330Z 14005KT 9999 SCT015 BKN018 15/11 Q1015=
201206140300 METAR LPPR 140300Z 12006KT 9999 SCT017 BKN019 14/11 Q1015=
201206140230 METAR LPPR 140230Z 14006KT 9999 SCT017 BKN021 14/11 Q1015=
201206140200 METAR LPPR 140200Z 12007KT 9999 BKN021 14/10 Q1015=
201206140130 METAR LPPR 140130Z 15003KT 9999 SCT023 14/10 Q1016=
201206140100 METAR LPPR 140100Z 12006KT 9999 SCT022 12/10 Q1016=
201206140030 METAR LPPR 140030Z VRB01KT 9999 SCT026 SCT038 13/10 Q1016=
201206140000 METAR LPPR 140000Z 12003KT CAVOK 13/10 Q1016=
201206132330 METAR LPPR 132330Z 12004KT CAVOK 13/10 Q1017=
201206132300 METAR LPPR 132300Z 12006KT CAVOK 12/10 Q1017=
201206132230 METAR LPPR 132230Z VRB02KT CAVOK 13/10 Q1017=
201206132200 METAR LPPR 132200Z 17001KT CAVOK 13/10 Q1017=
201206132130 METAR LPPR 132130Z 00000KT CAVOK 13/10 Q1017=
201206132100 METAR LPPR 132100Z VRB02KT CAVOK 14/11 Q1017=
201206132030 METAR LPPR 132030Z VRB02KT CAVOK 15/10 Q1017=
201206132000 METAR LPPR 132000Z 32004KT 280V350 CAVOK 16/09 Q1017=
201206131930 METAR LPPR 131930Z 33004KT CAVOK 16/09 Q1017=
201206131900 METAR LPPR 131900Z 35006KT CAVOK 16/09 Q1017=
201206131830 METAR LPPR 131830Z 34006KT 290V360 CAVOK 16/09 Q1017=
201206131800 METAR LPPR 131800Z 32009KT CAVOK 17/09 Q1017=
201206131730 METAR LPPR 131730Z 32009KT CAVOK 16/09 Q1017=
201206131700 METAR LPPR 131700Z 32008KT 270V350 CAVOK 17/10 Q1017=
201206131630 METAR LPPR 131630Z 33008KT 290V360 CAVOK 18/08 Q1017=
201206131600 METAR LPPR 131600Z 31009KT 280V350 CAVOK 18/10 Q1017=
201206131530 METAR LPPR 131530Z 31010KT 270V340 CAVOK 19/10 Q1017=
201206131500 METAR LPPR 131500Z 32009KT 260V350 CAVOK 18/09 Q1018=
201206131430 METAR LPPR 131430Z 32009KT 290V360 CAVOK 19/08 Q1018=
201206131400 METAR LPPR 131400Z 32009KT 280V360 CAVOK 18/09 Q1018=
201206131330 METAR LPPR 131330Z 30007KT 240V360 CAVOK 18/09 Q1018=
201206131300 METAR LPPR 131300Z 30007KT 270V330 CAVOK 18/09 Q1018=
201206131230 METAR LPPR 131230Z 30007KT 260V340 CAVOK 18/09 Q1019=
201206131200 METAR LPPR 131200Z 29006KT 250V320 CAVOK 18/09 Q1019=
201206131130 METAR LPPR 131130Z 28007KT 250V320 CAVOK 17/10 Q1019=
201206131100 METAR LPPR 131100Z 30007KT 260V340 CAVOK 18/11 Q1019=
201206131030 METAR LPPR 131030Z 29006KT CAVOK 18/11 Q1019=
201206131000 METAR LPPR 131000Z 32005KT 250V020 CAVOK 18/09 Q1019=
201206130930 METAR LPPR 130930Z 01004KT 300V090 CAVOK 18/10 Q1019=
201206130900 METAR LPPR 130900Z 03004KT 330V080 CAVOK 17/09 Q1019=
201206130830 METAR LPPR 130830Z 35003KT 310V080 CAVOK 16/10 Q1019=
201206130800 METAR LPPR 130800Z 01004KT 340V040 CAVOK 15/10 Q1020=
201206130730 METAR LPPR 130730Z 36004KT 320V030 CAVOK 14/10 Q1020=
201206130700 METAR LPPR 130700Z 04003KT 350V080 CAVOK 13/11 Q1020=
201206130630 METAR LPPR 130630Z 04003KT 310V090 CAVOK 13/11 Q1020=
201206130530 METAR LPPR 130530Z VRB02KT CAVOK 09/09 Q1020=
201206130500 METAR LPPR 130500Z 04001KT CAVOK 09/08 Q1019=
201206130430 METAR LPPR 130430Z 02003KT 350V080 CAVOK 10/09 Q1019=
201206130400 METAR LPPR 130400Z 35003KT CAVOK 10/09 Q1019=
201206130330 METAR LPPR 130330Z 01002KT CAVOK R35/P2000 10/09 Q1019=
201206130300 METAR LPPR 130300Z 34004KT CAVOK 11/10 Q1020=
201206130230 METAR LPPR 130230Z 36002KT CAVOK 10/09 Q1020=
201206130200 METAR LPPR 130200Z 36003KT CAVOK 11/09 Q1020=
201206130130 METAR LPPR 130130Z 04002KT CAVOK 10/10 Q1020=
201206130100 METAR LPPR 130100Z 00000KT CAVOK 11/09 Q1020=
201206130030 METAR LPPR 130030Z 01002KT CAVOK 12/10 Q1021=
201206130000 METAR LPPR 130000Z 34003KT CAVOK 12/10 Q1021=
201206122330 METAR LPPR 122330Z 36003KT 9999 FEW017 12/10 Q1021=
201206122300 METAR LPPR 122300Z 34005KT 9999 FEW014 13/10 Q1021=
201206122230 METAR LPPR 122230Z 35007KT 9999 FEW014 13/10 Q1021=
201206122200 METAR LPPR 122200Z 34010KT 9999 FEW015 14/10 Q1021=
201206122130 METAR LPPR 122130Z 34011KT 9999 FEW020 15/11 Q1021=
201206122100 METAR LPPR 122100Z 34011KT 9999 FEW020 15/11 Q1021=
201206122030 METAR LPPR 122030Z 34009KT 9999 FEW020 15/11 Q1021=
201206122000 METAR LPPR 122000Z 34012KT 310V010 9999 FEW020 16/10 Q1021=
201206121930 METAR LPPR 121930Z 33015KT 300V360 9999 FEW020 16/10 Q1020=
201206121900 METAR LPPR 121900Z 33012KT 9999 FEW020 17/10 Q1020=
201206121830 METAR LPPR 121830Z 33013KT 9999 FEW021 17/12 Q1021=
201206121800 METAR LPPR 121800Z 33013KT 300V360 9999 FEW025 18/12 Q1020=
201206121730 METAR LPPR 121730Z 33013KT 9999 FEW025 18/13 Q1020=
201206121700 METAR LPPR 121700Z 33013KT 9999 FEW026 18/12 Q1020=
201206121630 METAR LPPR 121630Z 33013KT 9999 FEW021 18/13 Q1020=
201206121600 METAR LPPR 121600Z 32013KT 290V360 9999 SCT022 18/13 Q1021=
201206121530 METAR LPPR 121530Z 33015KT 9999 SCT020 18/13 Q1021=
201206121500 METAR LPPR 121500Z 33013KT 9999 SCT020 19/13 Q1021=
201206121430 METAR LPPR 121430Z 33014KT 290V360 9999 SCT017 SCT029 19/13
                        Q1021=
201206121400 METAR LPPR 121400Z 33012KT 280V360 9999 SCT019 SCT023 18/14
                        Q1021=
201206121330 METAR LPPR 121330Z 32012KT 280V360 9999 SCT019 SCT023 18/14
                        Q1021=
201206121300 METAR LPPR 121300Z 33011KT 290V350 9999 SCT019 SCT023 18/14
                        Q1021=
201206121230 METAR LPPR 121230Z 32010KT 270V360 9999 SCT017 SCT024 19/14
                        Q1021=
201206121200 METAR LPPR 121200Z 32009KT 270V350 9999 SCT017 SCT034 BKN050
                        18/14 Q1021=
201206121130 METAR LPPR 121130Z 33010KT 290V010 9999 SCT017 SCT023 BKN044
                        18/14 Q1021=
201206121100 METAR LPPR 121100Z 33011KT 280V360 9999 SCT017 SCT026 BKN050
                        17/14 Q1021=
201206121030 METAR LPPR 121030Z 32010KT 260V350 9999 SCT018 FEW022TCU
                        SCT030 18/14 Q1021=
201206121000 METAR LPPR 121000Z 32010KT 280V360 9999 SCT019 FEW020TCU
                        SCT027 17/13 Q1020=
201206120930 METAR LPPR 120930Z 32008KT 280V360 9999 FEW019 SCT043 17/13
                        Q1020=
201206120900 METAR LPPR 120900Z 33008KT 270V360 9999 R35/P2000 FEW019 SCT043
                        17/13 Q1020=
201206120830 METAR LPPR 120830Z 32009KT 280V360 9999 SCT017 SCT035 17/13
                        Q1020=
201206120800 METAR LPPR 120800Z 34009KT 300V010 9999 SCT017 SCT035 17/13
                        Q1020=
201206120730 METAR LPPR 120730Z 32008KT 9999 SCT017 SCT035 16/12 Q1020=
201206120700 METAR LPPR 120700Z 33008KT 300V360 9999 SCT017 SCT032 16/13
                        Q1019=
201206120630 METAR LPPR 120630Z 32008KT 9999 SCT017 BKN045 16/13 Q1019=
201206120600 METAR LPPR 120600Z 32006KT 290V350 9999 SCT016 BKN045 16/13
                        Q1019=
201206120530 METAR LPPR 120530Z 32006KT 270V360 9999 SCT017 BKN045 15/13
                        Q1019=
201206120500 METAR LPPR 120500Z 32007KT 280V360 9999 SCT016 BKN045 16/13
                        Q1018=
201206120430 METAR LPPR 120430Z 32009KT 280V350 9999 SCT016 SCT025 16/13
                        Q1018=
201206120400 METAR LPPR 120400Z 32007KT 280V360 9999 SCT017 SCT025 16/13
                        Q1018=
201206120330 METAR LPPR 120330Z 32008KT 290V350 9999 SCT017 BKN040 16/12
                        Q1018=
201206120300 METAR LPPR 120300Z 32007KT 290V350 9999 SCT017 BKN042 16/13
                        Q1018=
201206120230 METAR LPPR 120230Z 32006KT 270V350 9999 SCT018 BKN025 16/13
                        Q1018=
201206120200 METAR LPPR 120200Z 33006KT 290V350 9999 SCT018 BKN045 15/13
                        Q1018=
201206120130 METAR LPPR 120130Z 32007KT 290V350 9999 SCT018 SCT040 15/12
                        Q1018=
201206120100 METAR LPPR 120100Z 33004KT 9999 SCT018 BKN030 15/12 Q1018=
201206120030 METAR LPPR 120030Z 33006KT 9999 SCT017 BKN032 15/11 Q1018=
201206120000 METAR LPPR 120000Z 33008KT 290V360 9999 SCT020 BKN035 15/12
                        Q1018=
201206112330 METAR LPPR 112330Z 33008KT 9999 SCT019 15/12 Q1018=
201206112300 METAR LPPR 112300Z 31006KT 270V360 9999 -SHRA SCT016 BKN045
                        15/13 Q1018=
201206112230 METAR LPPR 112230Z 32006KT 270V360 9999 SCT020 16/12 Q1018=
201206112200 METAR LPPR 112200Z 33007KT 9999 SCT020 16/12 Q1018=
201206112130 METAR LPPR 112130Z 32008KT 290V360 9999 BKN020 16/12 Q1018=
201206112100 METAR LPPR 112100Z 32007KT 290V350 9999 BKN018 BKN025 16/12
                        Q1018=
201206112030 METAR LPPR 112030Z 31006KT 260V360 9999 -SHRA BKN019 BKN040
                        16/13 Q1017=
201206112000 METAR LPPR 112000Z 32007KT 290V350 9999 SCT020 BKN025 16/12
                        Q1017=
201206111930 METAR LPPR 111930Z 31007KT 260V360 9999 FEW019 BKN022 17/12
                        Q1017=
201206111900 METAR LPPR 111900Z 32008KT 290V350 9999 SCT019 BKN025 17/13
                        Q1017=
201206111830 METAR LPPR 111830Z 32009KT 270V360 9999 SCT020 BKN040 17/12
                        Q1017=
201206111800 METAR LPPR 111800Z 33011KT 290V350 9999 FEW018 SCT020 BKN040
                        17/13 Q1017=
201206111730 METAR LPPR 111730Z 31009KT 260V360 9999 SCT020 BKN025 18/13
                        Q1017=
201206111700 METAR LPPR 111700Z 31009KT 240V350 9999 BKN020 18/13 Q1017=
201206111630 METAR LPPR 111630Z 30010KT 270V350 9999 BKN020 18/13 Q1017=
201206111600 METAR LPPR 111600Z 30008KT 250V340 9999 SCT020 BKN030 18/13
                        Q1017=
201206111530 METAR LPPR 111530Z 30010KT 270V350 9999 SCT020 19/13 Q1017=
201206111500 METAR LPPR 111500Z 30011KT 260V340 9999 SCT020 FEW025CB 18/13
                        Q1017=
201206111430 METAR LPPR 111430Z 30011KT 260V340 9999 SCT020 FEW025CB 18/13
                        Q1017=
201206111400 METAR LPPR 111400Z 31012KT 270V340 9999 SCT019 FEW025CB 18/13
                        Q1017=
201206111330 METAR LPPR 111330Z 30010KT 270V340 9999 FEW019 FEW025CB 18/13
                        Q1017=
201206111300 METAR LPPR 111300Z 29009KT 240V340 9999 FEW015 FEW025CB SCT045
                        18/13 Q1017=
201206111230 METAR LPPR 111230Z 30009G19KT 260V330 9999 SCT020 FEW025CB
                        18/14 Q1017=
201206111200 METAR LPPR 111200Z 31008KT 260V350 9999 SCT020 FEW025CB 19/14
                        Q1017=
201206111130 METAR LPPR 111130Z 30010KT 270V340 9999 SCT020 FEW025CB 19/14
                        Q1017=
201206111100 METAR LPPR 111100Z 29010KT 270V330 9999 SCT018 FEW025CB 19/14
                        Q1016=
201206111030 METAR LPPR 111030Z 29008KT 240V350 9999 SCT019 FEW025CB 18/14
                        Q1016=
201206111000 METAR LPPR 111000Z 30009KT 260V340 9999 SCT020 FEW025CB 18/14
                        Q1016=
201206110930 METAR LPPR 110930Z 30009KT 260V330 9999 SCT015 18/14 Q1016=
201206110900 METAR LPPR 110900Z 31008KT 260V350 9999 FEW015 SCT035 18/13
                        Q1016=
201206110830 METAR LPPR 110830Z 29010KT 260V330 9999 SCT015 BKN035 18/14
                        Q1016=
201206110800 METAR LPPR 110800Z 30007KT 260V340 9999 SCT015 17/14 Q1016=
201206110730 METAR LPPR 110730Z 30008KT 250V350 9999 SCT015 18/14 Q1016=
201206110700 METAR LPPR 110700Z 27004KT 210V320 9999 SCT017 BKN035 17/14
                        Q1016=
201206110630 METAR LPPR 110630Z 28004KT 240V330 9999 FEW015 SCT023 BKN040
                        17/14 Q1016=
201206110600 METAR LPPR 110600Z 30003KT 250V020 9999 FEW013 SCT030 BKN040
                        17/14 Q1016=
201206110530 METAR LPPR 110530Z 30005KT 270V340 9999 FEW009 SCT020 BKN040
                        17/15 Q1016=
201206110500 METAR LPPR 110500Z 29003KT 250V340 9999 FEW009 SCT023 BKN042
                        16/14 Q1016=
201206110430 METAR LPPR 110430Z 27005KT 220V350 9999 -RA SCT009 BKN020
                        OVC038 16/15 Q1016=
201206110400 METAR LPPR 110400Z 28004KT 250V310 9999 FEW015 SCT025 BKN033
                        16/15 Q1016=
201206110330 METAR LPPR 110330Z 28004KT 220V350 9999 FEW009 SCT012 OVC023
                        17/15 Q1016=
201206110300 METAR LPPR 110300Z VRB01KT 9999 FEW004 SCT015 BKN025 16/15
                        Q1016=
201206110230 METAR LPPR 110230Z VRB02KT 9999 SCT005 SCT013 OVC025 16/15
                        Q1016=
201206110200 METAR LPPR 110200Z 27004KT 240V320 8000 -RA SCT003 SCT015
                        OVC022 16/16 Q1016=
201206110130 METAR LPPR 110130Z 23003KT 180V280 8000 -RA SCT002 BKN005
                        BKN020 16/16 Q1017=
201206110100 METAR LPPR 110100Z 22004KT 190V260 6000 -DZ BKN003 BKN007
                        16/16 Q1017=
201206110030 METAR LPPR 110030Z 21005KT 190V250 6000 -DZ SCT003 BKN005
                        OVC010 16/16 Q1017=
201206110000 METAR LPPR 110000Z 22004KT 180V250 6000 -DZ SCT004 SCT013
                        BKN020 16/15 Q1018=
201206102330 METAR LPPR 102330Z 24006KT 210V270 9999 FEW006 SCT012 BKN040
                        17/15 Q1018=
201206102300 METAR LPPR 102300Z 22004KT 180V250 9999 SCT012 BKN040 17/15
                        Q1018=
201206102230 METAR LPPR 102230Z 22005KT 190V260 9999 SCT012 BKN018 BKN043
                        17/15 Q1018=
201206102200 METAR LPPR 102200Z 23004KT 160V260 9999 SCT015 SCT023 BKN043
                        17/15 Q1019=
201206102130 METAR LPPR 102130Z 23004KT 190V270 9999 SCT015 SCT023 BKN045
                        17/15 Q1019=
201206102100 METAR LPPR 102100Z 22004KT 200V270 9999 SCT015 BKN020 17/15
                        Q1019=
201206102030 METAR LPPR 102030Z 23004KT 200V270 9999 FEW016 SCT023 BKN030
                        17/14 Q1019=
201206102000 METAR LPPR 102000Z 22003KT 190V270 9999 FEW016 SCT027 17/14
                        Q1019=
201206101930 METAR LPPR 101930Z 24005KT 210V270 9999 SCT017 SCT030 18/14
                        Q1019=
201206101900 METAR LPPR 101900Z 23005KT 200V290 9999 SCT017 SCT030 18/14
                        Q1019=
201206101830 METAR LPPR 101830Z 25005KT 200V290 9999 SCT017 BKN033 18/14
                        Q1019=
201206101800 METAR LPPR 101800Z 26004KT 190V300 9999 SCT017 BKN033 19/14
                        Q1019=
201206101730 METAR LPPR 101730Z 24005KT 210V290 9999 FEW018 BKN033 19/15
                        Q1019=
201206101700 METAR LPPR 101700Z 24006KT 210V300 9999 FEW018 BKN035 19/14
                        Q1019=
201206101630 METAR LPPR 101630Z 25005KT 200V310 9999 FEW018 BKN035 20/15
                        Q1019=
201206101600 METAR LPPR 101600Z 23005KT 180V260 9999 FEW018 SCT020 BKN035
                        19/14 Q1020=
201206101530 METAR LPPR 101530Z 24005KT 170V340 9999 FEW018 SCT020 BKN037
                        19/14 Q1020=
201206101500 METAR LPPR 101500Z 27004KT 230V320 9999 FEW018 SCT021 BKN037
                        19/14 Q1020=
201206101430 METAR LPPR 101430Z 28004KT 220V330 9999 SCT019 BKN030 20/15
                        Q1020=
201206101400 METAR LPPR 101400Z 26005KT 210V320 9999 FEW019 SCT025 BKN030
                        19/14 Q1020=
201206101330 METAR LPPR 101330Z 28006KT 210V330 9999 FEW019 BKN030 19/14
                        Q1020=
201206101300 METAR LPPR 101300Z 27003KT 190V360 9999 FEW018 BKN030 19/14
                        Q1020=
201206101230 METAR LPPR 101230Z 31006KT 270V350 9999 SCT020 BKN030 19/14
                        Q1020=
201206101200 METAR LPPR 101200Z 31006KT 260V360 9999 FEW020 BKN030 19/14
                        Q1020=
201206101130 METAR LPPR 101130Z 29006KT 230V350 9999 FEW017 BKN030 19/14
                        Q1020=
201206101100 METAR LPPR 101100Z 30006KT 270V350 9999 SCT012 BKN025 18/15
                        Q1020=
201206101030 METAR LPPR 101030Z 30006KT 250V340 9999 FEW009 BKN019 18/16
                        Q1020=
201206101000 METAR LPPR 101000Z 32006KT 280V360 9999 FEW004 SCT012 BKN018
                        18/16 Q1019=
201206100930 METAR LPPR 100930Z 31008KT 270V350 9000 BKN004 BKN012 17/16
                        Q1019=
201206100900 METAR LPPR 100900Z 32009KT 280V340 8000 BKN003 BKN009 17/16
                        Q1019=
201206100830 METAR LPPR 100830Z 29006KT 240V330 2000 -RA BR BKN003 BKN010
                        17/17 Q1019=
201206100800 METAR LPPR 100800Z 27006KT 210V330 8000 -RA FEW003 BKN005
                        BKN015 18/17 Q1019=
201206100730 METAR LPPR 100730Z 25006KT 200V280 9999 SCT004 BKN006 18/17
                        Q1019=
201206100700 METAR LPPR 100700Z 24006KT 200V270 9999 FEW002 BKN004 BKN015
                        18/17 Q1018=
201206100630 METAR LPPR 100630Z 24005KT 210V310 7000 SCT002 BKN005 BKN015
                        18/17 Q1019=
201206100600 METAR LPPR 100600Z 28005KT 220V320 9999 SCT002 BKN015 17/17
                        Q1018=
201206100530 METAR LPPR 100530Z 24007KT 200V280 2000 BR VCFG BKN002 OVC003
                        18/18 Q1018=
201206100500 METAR LPPR 100500Z 23009KT 190V280 5000 BR VCFG BKN002 OVC004
                        18/18 Q1018=
201206100430 METAR LPPR 100430Z 22006KT 180V260 3000 -DZRA BR BKN002 OVC004
                        18/18 Q1018=
201206100400 METAR LPPR 100400Z 21007KT 180V260 3000 -DZRA BR BKN002 OVC004
                        18/18 Q1018=
201206100330 METAR LPPR 100330Z 21007KT 180V260 4000 BR VCFG BKN003 OVC009
                        18/18 Q1018=
201206100300 METAR LPPR 100300Z 20007KT 160V230 8000 VCFG BKN003 OVC009
                        18/18 Q1019=
201206100230 METAR LPPR 100230Z 21007KT 190V250 8000 VCFG BKN002 OVC008
                        18/18 Q1019=
201206100200 METAR LPPR 100200Z 22006KT 190V260 7000 VCFG BKN002 OVC004
                        18/18 Q1019=
201206100130 METAR LPPR 100130Z 22005KT 190V260 7000 VCFG BKN002 OVC004
                        18/18 Q1019=
201206100100 METAR LPPR 100100Z 22006KT 170V260 1000 0900S R17/P2000 PRFG
                        BR BKN002 OVC003 18/18 Q1019=
201206100030 METAR LPPR 100030Z 21006KT 180V250 4000 BR VCFG BKN002 OVC003
                        18/18 Q1020=
201206100000 METAR LPPR 100000Z 22005KT 180V270 8000 VCFG BKN002 OVC003
                        18/17 Q1020=
201206092330 METAR LPPR 092330Z 21004KT 160V250 5000 BR VCFG BKN003 OVC004
                        18/17 Q1020=
201206092300 METAR LPPR 092300Z 23004KT 200V270 8000 VCFG BKN003 OVC004
                        18/17 Q1020=
201206092230 METAR LPPR 092230Z 24004KT 200V290 9000 VCFG BKN002 OVC005
                        18/17 Q1020=
201206092200 METAR LPPR 092200Z 25004KT 210V300 4200 BR VCFG BKN002 OVC005
                        18/17 Q1020=
201206092130 METAR LPPR 092130Z 24005KT 200V300 3600 -DZRA BR BKN004 BKN009
                        18/18 Q1020=
201206092100 METAR LPPR 092100Z 23007KT 200V260 7000 VCFG BKN003 BKN005
                        18/18 Q1020=
201206092030 METAR LPPR 092030Z 23005KT 150V260 5000 BR VCFG BKN002 BKN005
                        18/18 Q1020=
201206092000 METAR LPPR 092000Z 20006KT 160V250 2000 -RADZ BR BKN002 BKN003
                        18/17 Q1020=
201206091930 METAR LPPR 091930Z 19007KT 2000 -RADZ BR BKN002 BKN003 17/17
                        Q1020=
201206091900 METAR LPPR 091900Z 18011KT 2200 -RADZ BR BKN002 BKN003 17/17
                        Q1020=
201206091830 METAR LPPR 091830Z 18011KT 2000 -RADZ BR BKN003 BKN004 17/17
                        Q1020=
201206091800 METAR LPPR 091800Z 19012KT 2000 -RADZ BR BKN002 BKN004 17/17
                        Q1020=
201206091730 METAR LPPR 091730Z 18012KT 2000 -DZRA BR BKN003 BKN004 17/17
                        Q1020=
201206091700 METAR LPPR 091700Z 19013KT 2000 -DZRA BR BKN003 BKN004 17/16
                        Q1020=
201206091630 METAR LPPR 091630Z 19013KT 2500 -RADZ BR BKN003 BKN004 17/16
                        Q1020=
201206091600 METAR LPPR 091600Z 19012KT 2000 -DZ BR BKN003 BKN005 17/16
                        Q1020=
201206091530 METAR LPPR 091530Z 18013KT 2500 -DZ BR BKN003 BKN005 17/16
                        Q1020=
201206091500 METAR LPPR 091500Z 18013KT 2000 -DZ BR BKN004 BKN005 17/16
                        Q1021=
201206091430 METAR LPPR 091430Z 19012KT 2000 -DZ BR BKN004 OVC012 17/16
                        Q1021=
201206091400 METAR LPPR 091400Z 19012KT 2500 DZ BR BKN004 BKN009 16/16
                        Q1021=
201206091330 METAR LPPR 091330Z 19011KT 3000 DZ BR FEW005 SCT007 BKN009
                        17/16 Q1021=
201206091300 METAR LPPR 091300Z 20012KT 3000 DZ BR SCT008 BKN012 OVC018
                        17/15 Q1021=
201206091230 METAR LPPR 091230Z 19014KT 9999 SCT018 BKN023 18/14 Q1021=
201206091200 METAR LPPR 091200Z 18014KT 9999 SCT020 BKN027 18/14 Q1021=
201206091130 METAR LPPR 091130Z 18013KT 9999 FEW020 BKN035 18/14 Q1021=
201206091100 METAR LPPR 091100Z 18014KT 9999 FEW020 SCT030 BKN040 18/14
                        Q1021=
201206091030 METAR LPPR 091030Z 19012KT 9999 FEW020 SCT030 BKN044 18/14
                        Q1021=
201206091000 METAR LPPR 091000Z 19010KT 9999 FEW020 BKN044 18/13 Q1021=
201206090930 METAR LPPR 090930Z 19010KT 9999 FEW020 BKN047 17/13 Q1021=
201206090900 METAR LPPR 090900Z 19009KT 9999 SCT020 BKN048 17/13 Q1021=
201206090830 METAR LPPR 090830Z 15006KT 100V180 9999 SCT020 BKN048 17/13
                        Q1021=
201206090800 METAR LPPR 090800Z 14009KT 9999 SCT023 SCT035 17/12 Q1021=
201206090730 METAR LPPR 090730Z 13009KT 090V150 9999 SCT023 BKN030 15/12
                        Q1020=
201206090700 METAR LPPR 090700Z 12009KT 9999 FEW020 SCT030 14/11 Q1020=
201206090630 METAR LPPR 090630Z 12009KT 9999 FEW030 14/11 Q1020=
201206090600 METAR LPPR 090600Z 12009KT 100V170 9999 FEW025 13/11 Q1020=
201206090530 METAR LPPR 090530Z 12007KT 9999 FEW040 13/11 Q1020=
201206090500 METAR LPPR 090500Z 12007KT 9999 SCT030 13/11 Q1020=
201206090430 METAR LPPR 090430Z 12007KT 9999 FEW025 13/11 Q1020=
201206090400 METAR LPPR 090400Z 12007KT 9999 FEW020 12/11 Q1020=
201206090330 METAR LPPR 090330Z 12005KT 9999 FEW020 12/11 Q1020=
201206090300 METAR LPPR 090300Z 13006KT 9999 FEW020 13/11 Q1020=
201206090230 METAR LPPR 090230Z 12005KT 9999 FEW020 13/11 Q1020=
201206090200 METAR LPPR 090200Z 12005KT 9999 FEW020 12/11 Q1020=
201206090130 METAR LPPR 090130Z VRB01KT 9999 FEW020 12/11 Q1020=
201206090100 METAR LPPR 090100Z 13003KT 090V170 9999 FEW020 12/11 Q1020=
201206090030 METAR LPPR 090030Z 13003KT 9999 FEW020 11/10 Q1020=
201206090000 METAR LPPR 090000Z 12003KT CAVOK 12/11 Q1020=
201206082330 METAR LPPR 082330Z 09002KT CAVOK 13/11 Q1021=
201206082300 METAR LPPR 082300Z VRB01KT CAVOK 12/10 Q1021=
201206082230 METAR LPPR 082230Z 04001KT CAVOK 13/11 Q1021=
201206082200 METAR LPPR 082200Z 32003KT CAVOK 13/10 Q1021=
201206082130 METAR LPPR 082130Z 34004KT CAVOK 14/11 Q1021=
201206082100 METAR LPPR 082100Z 34005KT CAVOK 15/11 Q1020=
201206082030 METAR LPPR 082030Z 33005KT 290V350 CAVOK 16/11 Q1020=
201206082000 METAR LPPR 082000Z 33006KT 290V360 CAVOK 16/11 Q1020=
201206081930 METAR LPPR 081930Z 32007KT 290V350 CAVOK 16/11 Q1020=
201206081900 METAR LPPR 081900Z 33008KT 290V360 CAVOK 16/11 Q1020=
201206081830 METAR LPPR 081830Z 32008KT 290V360 9999 FEW024 17/11 Q1020=
201206081800 METAR LPPR 081800Z 33010KT 290V360 9999 FEW027 17/12 Q1020=
201206081730 METAR LPPR 081730Z 33010KT 290V360 9999 FEW028 18/11 Q1020=
201206081700 METAR LPPR 081700Z 31009KT 270V350 9999 FEW025 18/11 Q1020=
201206081630 METAR LPPR 081630Z 31009KT 270V350 9999 FEW025 18/11 Q1020=
201206081600 METAR LPPR 081600Z 31010KT 260V350 9999 FEW022 18/12 Q1020=
201206081530 METAR LPPR 081530Z 30008KT 270V340 9999 FEW022 18/12 Q1019=
201206081500 METAR LPPR 081500Z 31009KT 240V350 9999 FEW025 18/11 Q1019=
201206081430 METAR LPPR 081430Z 32010KT 270V350 9999 FEW025 18/12 Q1019=
201206081400 METAR LPPR 081400Z 32011KT 270V360 9999 FEW025 18/12 Q1019=
201206081330 METAR LPPR 081330Z 30009KT 260V360 9999 FEW025 19/12 Q1019=
201206081300 METAR LPPR 081300Z 32011KT 250V010 9999 FEW030 18/12 Q1019=
201206081230 METAR LPPR 081230Z 31007KT 270V030 9999 FEW030 18/11 Q1019=
201206081200 METAR LPPR 081200Z 31007KT 270V350 9999 FEW025 18/11 Q1019=
201206081130 METAR LPPR 081130Z 31008KT 260V350 9999 FEW023 18/13 Q1019=
201206081100 METAR LPPR 081100Z 32007KT 260V360 9999 SCT025 18/12 Q1019=
201206081030 METAR LPPR 081030Z 31007KT 270V360 9999 SCT027 18/12 Q1018=
201206081000 METAR LPPR 081000Z 30006KT 260V350 9999 SCT025 18/12 Q1018=
201206080930 METAR LPPR 080930Z 30004KT 260V360 9999 FEW017 SCT024 17/13
                        Q1018=
201206080900 METAR LPPR 080900Z 36007KT 330V030 9999 SCT018 BKN025 17/13
                        Q1018=
201206080830 METAR LPPR 080830Z 36005KT 340V040 9999 FEW023 16/13 Q1018=
201206080800 METAR LPPR 080800Z 03004KT 330V080 9999 SCT025 16/13 Q1017=
201206080730 METAR LPPR 080730Z 07003KT 350V160 9999 SCT023 15/13 Q1017=
201206080700 METAR LPPR 080700Z VRB02KT 9999 SCT020 SCT024 14/13 Q1017=
201206080630 METAR LPPR 080630Z VRB05KT 9999 SCT020 BKN030 14/13 Q1017=
201206080600 METAR LPPR 080600Z 11003KT 040V140 9999 SCT015 SCT030 13/12
                        Q1016=
201206080530 METAR LPPR 080530Z 00000KT 9999 FEW014 12/12 Q1016=
201206080500 METAR LPPR 080500Z VRB01KT 9999 FEW014 12/11 Q1016=
201206080430 METAR LPPR 080430Z 12001KT 9999 FEW015 11/11 Q1016=
201206080400 METAR LPPR 080400Z 00000KT 9999 SCT019 12/11 Q1016=
201206080330 METAR LPPR 080330Z 00000KT 9999 SCT020 12/11 Q1016=
201206080300 METAR LPPR 080300Z 05002KT 9999 FEW021 SCT024 12/11 Q1016=
201206080230 METAR LPPR 080230Z 35002KT 9999 SCT022 SCT050 13/12 Q1016=
201206080200 METAR LPPR 080200Z 01002KT 9999 FEW022 SCT026 13/12 Q1016=
201206080130 METAR LPPR 080130Z 34002KT 9999 SCT021 SCT028 14/13 Q1016=
201206080100 METAR LPPR 080100Z 36003KT 9999 SCT021 BKN028 14/13 Q1016=
201206080030 METAR LPPR 080030Z VRB01KT 9999 BKN021 BKN048 14/13 Q1015=
201206080000 METAR LPPR 080000Z VRB01KT 9999 SCT022 SCT026 14/13 Q1015=
201206072330 METAR LPPR 072330Z 03002KT 9999 SCT020 14/13 Q1015=
201206072300 METAR LPPR 072300Z 34003KT 320V020 9999 SCT019 15/13 Q1015=
201206072230 METAR LPPR 072230Z 34003KT 310V010 9999 FEW018 SCT023 15/13
                        Q1015=
201206072200 METAR LPPR 072200Z 34004KT 9999 SCT021 SCT026 16/13 Q1015=
201206072130 METAR LPPR 072130Z 34005KT 9999 SCT019 SCT023 BKN050 16/13
                        Q1014=
201206072100 METAR LPPR 072100Z 33004KT 9999 SCT021 16/13 Q1014=
201206072030 METAR LPPR 072030Z 32005KT 9999 SCT020 FEW023TCU 16/13 Q1014=
201206072000 METAR LPPR 072000Z 32005KT 9999 SCT020 FEW023TCU 16/13 Q1014=
201206071930 METAR LPPR 071930Z 32007KT 280V350 9999 FEW020 FEW023TCU
                        SCT043 17/13 Q1014=
201206071900 METAR LPPR 071900Z 31005KT 270V360 9999 SCT020 FEW023TCU
                        SCT033 17/13 Q1014=
201206071830 METAR LPPR 071830Z 31006KT 260V360 9999 SCT020 FEW023TCU
                        SCT050 18/13 Q1013=
201206071800 METAR LPPR 071800Z 31007KT 270V340 9999 SCT020 FEW023TCU
                        SCT050 18/13 Q1013=
201206071730 METAR LPPR 071730Z 30006KT 250V340 9999 FEW017 SCT020 FEW023TCU
                        18/14 Q1013=
201206071700 METAR LPPR 071700Z 31007KT 270V340 9999 FEW017 BKN020 FEW023TCU
                        18/14 Q1013=
201206071630 METAR LPPR 071630Z 29008KT 250V330 9999 SCT017 FEW023TCU
                        SCT031 19/15 Q1012=
201206071600 METAR LPPR 071600Z 29008KT 260V340 9999 SCT017 FEW023TCU
                        BKN048 19/15 Q1012=
201206071530 METAR LPPR 071530Z 28008KT 230V320 9999 SCT019 SCT022TCU
                        19/14 Q1012=
201206071500 METAR LPPR 071500Z 27008KT 220V320 9999 SCT016 FEW020TCU
                        19/14 Q1012=
201206071430 METAR LPPR 071430Z 26007KT 210V310 9999 SCT019 FEW024TCU
                        20/15 Q1012=
201206071400 METAR LPPR 071400Z 26008KT 200V310 9999 SCT018 FEW025TCU
                        20/15 Q1012=
201206071330 METAR LPPR 071330Z 25009KT 210V310 9999 SCT018 FEW025TCU
                        20/15 Q1011=
201206071300 METAR LPPR 071300Z 23009KT 170V270 9999 BKN018 FEW025TCU
                        19/15 Q1011=
201206071230 METAR LPPR 071230Z 24010KT 9999 SCT018 FEW020TCU 19/14 Q1011=
201206071200 METAR LPPR 071200Z 24008KT 170V280 9999 SCT017 FEW020TCU
                        19/14 Q1011=
201206071130 METAR LPPR 071130Z 27006KT 210V310 9999 SCT017 FEW020TCU
                        19/15 Q1011=
201206071100 METAR LPPR 071100Z 26007KT 210V310 9999 SCT018 FEW020TCU
                        19/14 Q1011=
201206071030 METAR LPPR 071030Z 29006KT 220V350 9999 SCT018 FEW020TCU
                        19/14 Q1010=
201206071000 METAR LPPR 071000Z 27006KT 210V330 9999 SCT017 FEW020TCU
                        19/14 Q1010=
201206070930 METAR LPPR 070930Z 27006KT 200V320 9999 SCT017 FEW020TCU
                        18/15 Q1010=
201206070900 METAR LPPR 070900Z 31006KT 250V350 9999 FEW017 SCT022 18/14
                        Q1009=
201206070830 METAR LPPR 070830Z 29006KT 240V330 9999 FEW015 SCT020 17/14
                        Q1009=
201206070800 METAR LPPR 070800Z 31006KT 260V350 9999 SCT015 18/14 Q1009=
201206070730 METAR LPPR 070730Z 30005KT 270V350 9999 FEW015 SCT030 18/14
                        Q1008=
201206070700 METAR LPPR 070700Z 32007KT 270V350 9999 FEW014 SCT028 17/14
                        Q1008=
201206070630 METAR LPPR 070630Z 32006KT 240V010 9999 SCT013 BKN030 17/14
                        Q1008=
201206070600 METAR LPPR 070600Z 29006KT 250V350 9999 FEW008 BKN015 BKN040
                        17/15 Q1007=
201206070530 METAR LPPR 070530Z 27004KT 220V320 9000 FEW004 BKN010 BKN030
                        17/16 Q1007=
201206070500 METAR LPPR 070500Z 24009KT 190V300 6000 -RA FEW007 BKN010
                        BKN030 17/16 Q1007=
201206070430 METAR LPPR 070430Z 23007KT 190V270 9999 SCT004 BKN035 17/17
                        Q1006=
201206070400 METAR LPPR 070400Z 22009KT 190V250 9000 BKN003 OVC012 17/17
                        Q1006=
201206070330 METAR LPPR 070330Z 20010KT 180V240 5000 -RA OVC004 17/16
                        Q1006=
201206070300 METAR LPPR 070300Z 21011KT 5000 -RA SCT004 BKN009 OVC013
                        17/16 Q1006=
201206070230 METAR LPPR 070230Z 22008KT 190V270 5000 -RA FEW004 BKN008
                        OVC023 16/16 Q1006=
201206070200 METAR LPPR 070200Z 21011KT 180V240 8000 -RA SCT005 BKN008
                        OVC016 17/16 Q1006=
201206070130 METAR LPPR 070130Z 20012KT 6000 RA SCT007 BKN014 18/17 Q1007=
201206070100 METAR LPPR 070100Z 20013KT 9999 -RA BKN012 BKN020 18/16 Q1007=
201206070030 METAR LPPR 070030Z 20012KT 9999 SCT011 BKN017 18/16 Q1007=
201206070000 METAR LPPR 070000Z 20011KT 9999 FEW011 SCT040 18/16 Q1007=
201206062330 METAR LPPR 062330Z 20012KT 9999 FEW010 SCT035 18/16 Q1007=
201206062300 METAR LPPR 062300Z 21010KT 170V240 9999 -RA SCT009 BKN013
                        18/17 Q1008=
201206062230 METAR LPPR 062230Z 20011KT 160V230 9000 RA SCT009 BKN016
                        18/16 Q1008=
201206062200 METAR LPPR 062200Z 20009KT 9999 SCT009 BKN015 18/17 Q1009=
201206062130 METAR LPPR 062130Z 20009KT 9999 BKN010 BKN017 18/17 Q1008=
201206062100 METAR LPPR 062100Z 19008KT 9999 -RA SCT008 BKN012 BKN016
                        18/17 Q1009=
201206062030 METAR LPPR 062030Z 20008KT 9999 SCT012 BKN019 18/16 Q1008=
201206062000 METAR LPPR 062000Z 20008KT 170V230 9999 SCT013 BKN019 18/16
                        Q1009=
201206061930 METAR LPPR 061930Z 20010KT 9999 SCT011 SCT017 18/16 Q1009=
201206061900 METAR LPPR 061900Z 19009KT 9999 SCT011 SCT014 18/16 Q1009=
201206061830 METAR LPPR 061830Z 18011KT 9999 FEW013 BKN020 19/17 Q1009=
201206061800 METAR LPPR 061800Z 19010KT 9999 SCT014 SCT020 19/16 Q1010=
201206061730 METAR LPPR 061730Z 19011KT 9999 FEW011 SCT017 19/16 Q1010=
201206061700 METAR LPPR 061700Z 23007KT 190V260 9999 SCT011 SCT017 19/16
                        Q1011=
201206061630 METAR LPPR 061630Z 21007KT 180V260 9999 SCT012 BKN017 20/17
                        Q1011=
201206061600 METAR LPPR 061600Z 21009KT 170V260 9999 BKN012 BKN015 20/16
                        Q1011=
201206061530 METAR LPPR 061530Z 21010KT 180V240 9999 FEW011 SCT013 BKN015
                        20/16 Q1011=
201206061500 METAR LPPR 061500Z 20010KT 170V230 9999 SCT013 20/16 Q1011=
201206061430 METAR LPPR 061430Z 19011KT 160V220 9999 SCT013 20/16 Q1012=
201206061400 METAR LPPR 061400Z 21009KT 170V250 9999 SCT014 20/16 Q1012=
201206061330 METAR LPPR 061330Z 22007KT 190V270 9999 FEW014 BKN027 20/16
                        Q1013=
201206061300 METAR LPPR 061300Z 20007KT 170V250 9999 SCT012 BKN030 21/16
                        Q1013=
201206061230 METAR LPPR 061230Z 23007KT 180V280 9999 SCT012 BKN030 19/17
                        Q1013=
201206061200 METAR LPPR 061200Z 24007KT 200V280 9999 FEW008 SCT011 BKN030
                        20/17 Q1013=
201206061130 METAR LPPR 061130Z 24005KT 210V270 9999 FEW008 SCT015 BKN030
                        19/17 Q1013=
201206061100 METAR LPPR 061100Z 26004KT 220V290 9000 SCT005 BKN012 BKN030
                        18/17 Q1013=
201206061030 METAR LPPR 061030Z 24003KT 200V310 9000 SCT004 BKN007 BKN025
                        18/17 Q1013=
201206061000 METAR LPPR 061000Z VRB02KT 3000 -DZ BR SCT003 BKN005 BKN020
                        18/17 Q1013=
201206060930 METAR LPPR 060930Z VRB01KT 2000 -RADZ BR SCT002 BKN003 BKN020
                        18/17 Q1013=
201206060900 METAR LPPR 060900Z 34002KT 2000 -DZ BR SCT003 BKN007 BKN020
                        17/17 Q1013=
201206060830 METAR LPPR 060830Z VRB02KT 2500 -RADZ BR SCT004 BKN006 BKN020
                        17/16 Q1013=
201206060800 METAR LPPR 060800Z 35002KT 2800 -RADZ BR SCT003 BKN006 BKN020
                        17/16 Q1013=
201206060730 METAR LPPR 060730Z VRB02KT 3000 -RADZ BR SCT002 BKN004 17/16
                        Q1013=
201206060700 METAR LPPR 060700Z 35003KT 4000 -DZ BR BKN003 OVC012 17/16
                        Q1014=
201206060630 METAR LPPR 060630Z 34002KT 5000 -DZ BR BKN003 BKN009 17/16
                        Q1013=
201206060600 METAR LPPR 060600Z VRB01KT 5000 -DZ BR SCT003 BKN009 BKN012
                        16/16 Q1014=
201206060530 METAR LPPR 060530Z 35003KT 2500 -DZ BR SCT002 SCT009 OVC012
                        16/16 Q1014=
201206060500 METAR LPPR 060500Z VRB02KT 4000 -DZ BR SCT002 BKN004 OVC012
                        16/16 Q1014=
201206060430 METAR LPPR 060430Z VRB02KT 4500 -RADZ BR SCT002 BKN004 17/16
                        Q1014=
201206060400 METAR LPPR 060400Z VRB02KT 5000 -DZ BR BKN002 OVC004 17/16
                        Q1014=
201206060330 METAR LPPR 060330Z 26004KT 210V320 5000 -RADZ BR BKN003 BKN009
                        17/16 Q1014=
201206060300 METAR LPPR 060300Z 23004KT 190V280 4000 -RADZ BR SCT003 BKN005
                        BKN017 17/16 Q1015=
201206060230 METAR LPPR 060230Z 23005KT 200V270 5000 -RADZ BR SCT003 BKN007
                        OVC020 17/17 Q1015=
201206060200 METAR LPPR 060200Z 25003KT 180V350 5000 -RADZ BR FEW003 SCT005
                        BKN016 17/16 Q1015=
201206060130 METAR LPPR 060130Z 23005KT 200V270 9000 SCT004 SCT012 BKN020
                        18/17 Q1015=
201206060100 METAR LPPR 060100Z 23004KT 180V270 7000 -DZ SCT005 BKN015
                        BKN025 18/17 Q1016=
201206060030 METAR LPPR 060030Z 23003KT 190V260 9999 SCT005 BKN014 BKN022
                        18/17 Q1016=
201206060000 METAR LPPR 060000Z 23004KT 200V260 9999 SCT005 BKN012 BKN040
                        18/17 Q1016=
201206052330 METAR LPPR 052330Z 22004KT 170V260 9999 FEW005 SCT009 BKN018
                        18/17 Q1017=
201206052300 METAR LPPR 052300Z 22004KT 180V260 9999 FEW005 SCT007 BKN015
                        18/17 Q1017=
201206052230 METAR LPPR 052230Z 22004KT 190V260 9999 FEW004 SCT009 BKN040
                        18/17 Q1017=
201206052200 METAR LPPR 052200Z 22004KT 180V270 9999 SCT004 SCT009 BKN040
                        18/17 Q1017=
201206052130 METAR LPPR 052130Z 22004KT 180V260 9999 FEW004 SCT006 BKN040
                        18/18 Q1017=
201206052100 METAR LPPR 052100Z 23005KT 190V260 9999 FEW004 SCT006 BKN040
                        18/18 Q1017=
201206052030 METAR LPPR 052030Z 23005KT 200V270 9000 BKN003 BKN040 18/17
                        Q1017=
201206052000 METAR LPPR 052000Z 25004KT 190V310 8000 BKN003 BKN020 18/18
                        Q1017=
201206051930 METAR LPPR 051930Z 22006KT 200V260 6000 BKN003 BKN019 19/18
                        Q1017=
201206051900 METAR LPPR 051900Z 23007KT 200V270 5000 BR BKN004 19/18 Q1017=
201206051830 METAR LPPR 051830Z 23007KT 200V260 5000 BR BKN002 BKN014
                        19/18 Q1017=
201206051800 METAR LPPR 051800Z 22006KT 180V260 2000 VCFG BKN002 BKN004
                        19/19 Q1017=
201206051730 METAR LPPR 051730Z 22007KT 190V260 1200 R17/1000V1800U VCFG
                        BKN002 19/19 Q1017=
201206051700 METAR LPPR 051700Z 21008KT 180V250 2000 -DZRA BR BKN002 19/19
                        Q1017=
201206051630 METAR LPPR 051630Z 22008KT 180V250 6000 BKN002 19/19 Q1017=
201206051600 METAR LPPR 051600Z 21008KT 2000 BR BKN002 19/18 Q1018=
201206051530 METAR LPPR 051530Z 20009KT 160V230 6000 SCT004 BKN009 19/18
                        Q1018=
201206051500 METAR LPPR 051500Z 21008KT 180V240 9999 SCT005 BKN009 19/18
                        Q1018=
201206051430 METAR LPPR 051430Z 21007KT 190V250 8000 SCT007 BKN009 19/17
                        Q1018=
201206051400 METAR LPPR 051400Z 20010KT 170V230 9999 SCT007 BKN009 19/17
                        Q1018=
201206051330 METAR LPPR 051330Z 20009KT 180V240 6000 SCT007 BKN009 19/17
                        Q1018=
201206051300 METAR LPPR 051300Z 20009KT 180V250 9999 FEW012 BKN020 20/17
                        Q1018=
201206051230 METAR LPPR 051230Z 21009KT 9999 FEW012 BKN020 19/17 Q1018=
201206051200 METAR LPPR 051200Z 20009KT 170V230 9999 FEW015 BKN023 21/17
                        Q1018=
201206051130 METAR LPPR 051130Z 19010KT 9999 FEW015 BKN020 21/17 Q1019=
201206051100 METAR LPPR 051100Z 20008KT 160V240 9999 SCT018 BKN022 19/15
                        Q1019=
201206051030 METAR LPPR 051030Z 20009KT 170V230 9999 FEW015 BKN022 20/15
                        Q1019=
201206051000 METAR LPPR 051000Z 22008KT 190V260 9999 FEW015 BKN025 20/15
                        Q1019=
201206050930 METAR LPPR 050930Z 21007KT 170V250 9999 FEW018 SCT030 21/16
                        Q1019=
201206050900 METAR LPPR 050900Z 17008KT 9999 FEW015 SCT035 20/16 Q1019=
201206050830 METAR LPPR 050830Z 20005KT 160V260 9999 FEW013 BKN025 19/16
                        Q1019=
201206050800 METAR LPPR 050800Z 23003KT 200V300 9999 FEW011 SCT035 19/16
                        Q1019=
201206050730 METAR LPPR 050730Z 23004KT 200V280 9999 FEW010 BKN029 18/16
                        Q1019=
201206050700 METAR LPPR 050700Z 26004KT 190V290 9999 FEW008 SCT011 18/16
                        Q1019=
201206050630 METAR LPPR 050630Z VRB02KT 9999 FEW020 18/17 Q1018=
201206050600 METAR LPPR 050600Z 00000KT 9999 FEW020 17/16 Q1018=
201206050530 METAR LPPR 050530Z VRB01KT 9999 FEW012 BKN020 16/15 Q1018=
201206050500 METAR LPPR 050500Z 32001KT 9999 FEW009 SCT022 16/15 Q1018=
201206050430 METAR LPPR 050430Z 34001KT 9999 FEW022 16/16 Q1018=
201206050400 METAR LPPR 050400Z 08001KT 9999 SCT020 17/16 Q1018=
201206050330 METAR LPPR 050330Z 00000KT 9999 FEW009 BKN020 17/16 Q1019=
201206050300 METAR LPPR 050300Z VRB02KT 9999 FEW009 SCT013 BKN020 18/16
                        Q1019=
201206050230 METAR LPPR 050230Z 29003KT 260V320 9999 FEW009 BKN020 18/16
                        Q1019=
201206050200 METAR LPPR 050200Z VRB02KT 9999 FEW007 SCT015 BKN022 18/16
                        Q1019=
201206050130 METAR LPPR 050130Z 00000KT 9999 FEW007 SCT018 BKN023 18/16
                        Q1019=
201206050100 METAR LPPR 050100Z VRB02KT 9999 FEW006 SCT018 BKN023 18/16
                        Q1019=
201206050030 METAR LPPR 050030Z VRB01KT 9999 FEW009 SCT018 BKN023 18/16
                        Q1020=
201206050000 METAR LPPR 050000Z VRB01KT 9999 FEW009 BKN018 BKN025 18/16
                        Q1020=
201206042330 METAR LPPR 042330Z 28003KT 250V310 9999 FEW008 BKN018 18/16
                        Q1020=
201206042300 METAR LPPR 042300Z 29003KT 250V320 9999 FEW008 SCT017 BKN020
                        18/16 Q1020=
201206042230 METAR LPPR 042230Z VRB02KT 9999 FEW009 SCT017 BKN023 18/16
                        Q1020=
201206042200 METAR LPPR 042200Z 27002KT 9999 FEW009 BKN023 17/16 Q1020=
201206042130 METAR LPPR 042130Z VRB02KT 9999 FEW008 SCT017 18/17 Q1020=
201206042100 METAR LPPR 042100Z 28003KT 250V320 9999 SCT008 SCT010 BKN017
                        18/17 Q1020=
201206042030 METAR LPPR 042030Z 31003KT 270V340 9999 SCT007 BKN015 19/17
                        Q1020=
201206042000 METAR LPPR 042000Z 30004KT 250V350 9999 BKN007 BKN012 18/17
                        Q1020=
201206041930 METAR LPPR 041930Z VRB04KT 9999 SCT009 19/17 Q1020=
201206041900 METAR LPPR 041900Z 28003KT 230V320 9999 FEW009 20/17 Q1020=
201206041830 METAR LPPR 041830Z 30005KT 240V340 9999 SCT009 SCT023 19/16
                        Q1020=
201206041800 METAR LPPR 041800Z 30005KT 270V340 9999 BKN008 BKN022 19/17
                        Q1020=
201206041730 METAR LPPR 041730Z 29006KT 260V320 9999 BKN008 19/17 Q1020=
201206041700 METAR LPPR 041700Z 28006KT 230V330 9999 SCT009 SCT012 20/17
                        Q1019=
201206041630 METAR LPPR 041630Z 27006KT 200V310 9999 SCT011 20/17 Q1020=
201206041600 METAR LPPR 041600Z 30007KT 260V360 9999 SCT013 20/17 Q1019=
201206041530 METAR LPPR 041530Z 28006KT 160V320 9999 FEW020 21/16 Q1019=
201206041500 METAR LPPR 041500Z 28006KT 240V330 9999 FEW020 21/15 Q1019=
201206041430 METAR LPPR 041430Z 28006KT 210V330 9999 FEW003 20/15 Q1019=
201206041400 METAR LPPR 041400Z 28007KT 200V310 9999 FEW020 21/15 Q1019=
201206041330 METAR LPPR 041330Z 28007KT 220V320 9999 FEW020 21/14 Q1019=
201206041300 METAR LPPR 041300Z 29006KT 240V320 9999 FEW025 21/14 Q1020=
201206041230 METAR LPPR 041230Z 26006KT 220V310 9999 FEW015 SCT040 21/15
                        Q1020=
201206041200 METAR LPPR 041200Z 23008KT 9999 FEW015 SCT040 22/13 Q1020=
201206041130 METAR LPPR 041130Z 24006KT 210V270 9999 FEW015 22/14 Q1020=
201206041100 METAR LPPR 041100Z 23007KT 210V280 9999 FEW015 21/13 Q1019=
201206041030 METAR LPPR 041030Z 26006KT 210V300 9999 FEW020 21/14 Q1019=
201206041000 METAR LPPR 041000Z 26006KT 220V300 9999 FEW020 21/15 Q1019=
201206040930 METAR LPPR 040930Z 28005KT 220V350 9999 FEW020 21/15 Q1019=
201206040900 METAR LPPR 040900Z VRB03KT CAVOK 21/13 Q1019=
201206040830 METAR LPPR 040830Z VRB02KT 9999 FEW040 21/14 Q1019=
201206040800 METAR LPPR 040800Z VRB02KT 9999 FEW040 20/14 Q1019=
201206040730 METAR LPPR 040730Z 10003KT 050V130 9999 SCT040 19/14 Q1019=
201206040700 METAR LPPR 040700Z VRB02KT 9999 SCT049 18/14 Q1019=
201206040630 METAR LPPR 040630Z VRB02KT 9999 FEW034 17/15 Q1019=
201206040600 METAR LPPR 040600Z 14003KT 090V180 9999 FEW037 16/14 Q1019=
201206040530 METAR LPPR 040530Z 13003KT 090V160 9999 FEW025 SCT039 16/14
                        Q1018=
201206040500 METAR LPPR 040500Z 13005KT 120V180 CAVOK 16/14 Q1018=
201206040430 METAR LPPR 040430Z 15004KT CAVOK 16/14 Q1018=
201206040400 METAR LPPR 040400Z 11003KT 060V150 CAVOK 16/14 Q1018=
201206040330 METAR LPPR 040330Z 11002KT CAVOK 16/14 Q1018=
201206040300 METAR LPPR 040300Z 10004KT CAVOK 16/15 Q1018=
201206040230 METAR LPPR 040230Z 08001KT CAVOK 16/15 Q1018=
201206040200 METAR LPPR 040200Z 00000KT CAVOK 16/15 Q1019=
201206040130 METAR LPPR 040130Z 00000KT 9000 NSC 16/15 Q1019=
201206040100 METAR LPPR 040100Z 00000KT CAVOK 16/15 Q1019=
201206040030 METAR LPPR 040030Z 00000KT 9000 NSC 15/15 Q1019=
201206040000 METAR LPPR 040000Z VRB01KT 8000 NSC 15/14 Q1019=
201206032330 METAR LPPR 032330Z 33002KT 9000 NSC 15/15 Q1020=
201206032300 METAR LPPR 032300Z VRB02KT 9000 NSC 15/15 Q1019=
201206032230 METAR LPPR 032230Z 36003KT 330V030 CAVOK 15/14 Q1019=
201206032200 METAR LPPR 032200Z 35004KT 9999 FEW012 16/15 Q1019=
201206032130 METAR LPPR 032130Z 35003KT 9999 FEW010 16/15 Q1019=
201206032100 METAR LPPR 032100Z 33005KT 9999 FEW010 16/15 Q1019=
201206032030 METAR LPPR 032030Z 33006KT 9999 FEW011 17/15 Q1019=
201206032000 METAR LPPR 032000Z 34007KT 9999 FEW012 17/15 Q1019=
201206031930 METAR LPPR 031930Z 34008KT CAVOK 17/15 Q1019=
201206031900 METAR LPPR 031900Z 32008KT 280V350 CAVOK 18/15 Q1019=
201206031830 METAR LPPR 031830Z 32008KT CAVOK 19/14 Q1019=
201206031800 METAR LPPR 031800Z 32007KT 270V350 CAVOK 19/15 Q1018=
201206031730 METAR LPPR 031730Z 32007KT 260V350 CAVOK 19/14 Q1018=
201206031700 METAR LPPR 031700Z 30006KT 260V330 CAVOK 19/14 Q1018=
201206031630 METAR LPPR 031630Z 29006KT 250V340 CAVOK 20/14 Q1019=
201206031600 METAR LPPR 031600Z 29006KT 250V350 9999 FEW022 20/14 Q1019=
201206031530 METAR LPPR 031530Z 31006KT 270V360 9999 FEW022 20/13 Q1019=
201206031500 METAR LPPR 031500Z 30006KT 240V360 9999 FEW022 20/13 Q1019=
201206031430 METAR LPPR 031430Z 29006KT 250V320 9999 FEW020 20/13 Q1019=
201206031400 METAR LPPR 031400Z 29007KT 260V320 9999 FEW020 20/14 Q1019=
201206031330 METAR LPPR 031330Z 28007KT 230V330 9999 FEW020 20/14 Q1019=
201206031300 METAR LPPR 031300Z 27006KT 230V320 9999 FEW020 20/14 Q1019=
201206031230 METAR LPPR 031230Z 28006KT 250V310 9999 FEW020 20/13 Q1019=
201206031200 METAR LPPR 031200Z 28005KT 240V320 9999 FEW018 20/13 Q1019=
201206031130 METAR LPPR 031130Z 29006KT 260V320 9999 FEW018 20/14 Q1019=
201206031100 METAR LPPR 031100Z 29005KT 240V340 9999 FEW018 20/15 Q1019=
201206031030 METAR LPPR 031030Z 25006KT 120V290 9999 FEW018 SCT022 19/15
                        Q1019=
201206031000 METAR LPPR 031000Z VRB03KT 9999 FEW015 SCT020 20/15 Q1019=
201206030930 METAR LPPR 030930Z 34004KT 310V020 9999 FEW012 SCT017 19/15
                        Q1019=
201206030900 METAR LPPR 030900Z 33005KT 290V020 9999 FEW009 SCT015 18/15
                        Q1019=
201206030830 METAR LPPR 030830Z 34005KT 300V010 9999 FEW008 SCT015 17/15
                        Q1019=
201206030800 METAR LPPR 030800Z 34005KT 300V050 9999 FEW007 SCT009 17/16
                        Q1019=
201206030730 METAR LPPR 030730Z 33005KT 300V360 9000 FEW007 17/15 Q1019=
201206030700 METAR LPPR 030700Z VRB02KT 9999 FEW015 15/15 Q1019=
201206030630 METAR LPPR 030630Z VRB01KT 6000 FEW015 15/15 Q1019=
201206030600 METAR LPPR 030600Z VRB01KT 2000 0300N R35/P2000 PRFG FEW002
                        13/13 Q1018=
201206030530 METAR LPPR 030530Z VRB01KT 2000 0500N R35/P2000 PRFG FEW002
                        13/13 Q1018=
201206030500 METAR LPPR 030500Z VRB01KT 2000 0500N R17/0450 PRFG FEW003
                        SCT020 12/12 Q1018=
201206030430 METAR LPPR 030430Z 31001KT 0800 R17/0900V1400D BCFG FEW009
                        SCT025 14/14 Q1018=
201206030400 METAR LPPR 030400Z 34001KT 0600 R17/0800VP2000D BCFG FEW009
                        14/13 Q1017=
201206030330 METAR LPPR 030330Z 35001KT 0600 R17/0600 FG FEW003 14/14
                        Q1017=
201206030300 METAR LPPR 030300Z 36002KT 1500 VCFG FEW009 15/14 Q1017=
201206030230 METAR LPPR 030230Z 01003KT 8000 FEW004 15/14 Q1017=
201206030200 METAR LPPR 030200Z 33004KT 290V360 9999 SCT004 16/15 Q1017=
201206030130 METAR LPPR 030130Z 34004KT 9999 SCT004 BKN040 16/15 Q1017=
201206030100 METAR LPPR 030100Z 32004KT 280V350 9999 SCT003 BKN012 BKN030
                        16/16 Q1017=
201206030030 METAR LPPR 030030Z VRB02KT 9999 SCT003 BKN012 BKN025 17/16
                        Q1017=
201206030000 METAR LPPR 030000Z VRB02KT 9999 FEW002 SCT012 BKN015 16/16
                        Q1017=
201206022330 METAR LPPR 022330Z 36004KT 7000 -DZ SCT002 BKN007 16/16 Q1017=
201206022300 METAR LPPR 022300Z 32003KT 280V340 5000 -DZ BR FEW002 BKN005
                        16/16 Q1017=
201206022230 METAR LPPR 022230Z 29003KT 240V320 4000 -DZ BR SCT004 BKN007
                        BKN017 16/16 Q1017=
201206022200 METAR LPPR 022200Z 31002KT 9999 FEW004 SCT019 BKN020 17/16
                        Q1017=
201206022130 METAR LPPR 022130Z 34002KT 9999 FEW009 SCT020 BKN045 17/16
                        Q1017=
201206022100 METAR LPPR 022100Z 33003KT 9999 SCT005 BKN020 17/16 Q1017=
201206022030 METAR LPPR 022030Z 33003KT 9999 SCT007 BKN020 17/16 Q1017=
201206022000 METAR LPPR 022000Z VRB02KT 9999 -RA SCT006 BKN045 17/16 Q1016=
201206021930 METAR LPPR 021930Z 34003KT 9999 SCT005 BKN035 17/16 Q1016=
201206021900 METAR LPPR 021900Z 33003KT 9999 SCT005 BKN030 17/16 Q1016=
201206021830 METAR LPPR 021830Z 32003KT 280V360 9000 -RA SCT004 BKN034
                        17/16 Q1016=
201206021800 METAR LPPR 021800Z 32004KT 290V350 7000 -RA BKN004 BKN035
                        17/16 Q1016=
201206021730 METAR LPPR 021730Z 32003KT 280V360 3000 -RA BR SCT004 BKN028
                        BKN036 17/16 Q1016=
201206021700 METAR LPPR 021700Z 29004KT 260V340 5000 -RADZ BR FEW005 SCT007
                        BKN030 17/15 Q1016=
201206021630 METAR LPPR 021630Z 29004KT 240V320 9999 FEW007 SCT012 BKN040
                        17/15 Q1016=
201206021600 METAR LPPR 021600Z 30003KT 260V360 9999 FEW007 SCT020 BKN030
                        18/16 Q1016=
201206021530 METAR LPPR 021530Z 29003KT 260V340 9999 -RA FEW008 SCT032
                        18/16 Q1016=
201206021500 METAR LPPR 021500Z 24004KT 200V300 9999 -RA FEW012 SCT032
                        18/16 Q1016=
201206021430 METAR LPPR 021430Z 24004KT 220V280 9000 -RA FEW012 SCT037
                        18/15 Q1016=
201206021400 METAR LPPR 021400Z 27003KT 220V340 9999 FEW016 BKN026 18/16
                        Q1016=
201206021330 METAR LPPR 021330Z 27004KT 210V330 8000 -RA FEW018 BKN035
                        18/16 Q1016=
201206021300 METAR LPPR 021300Z 25005KT 210V300 9999 -RA FEW017 BKN034
                        19/15 Q1016=
201206021230 METAR LPPR 021230Z 26004KT 220V310 9999 FEW018 SCT035 19/15
                        Q1016=
201206021200 METAR LPPR 021200Z VRB02KT 9999 FEW017 SCT035 20/15 Q1016=
201206021130 METAR LPPR 021130Z 24004KT 200V280 9999 FEW017 SCT045 19/14
                        Q1016=
201206021100 METAR LPPR 021100Z 22004KT 190V290 9999 FEW020 SCT030 19/15
                        Q1016=
201206021030 METAR LPPR 021030Z 24005KT 210V290 9999 FEW015 BKN020 BKN030
                        19/15 Q1016=
201206021000 METAR LPPR 021000Z 25004KT 160V330 9999 SCT014 SCT018 BKN030
                        19/14 Q1016=
201206020930 METAR LPPR 020930Z 28004KT 220V340 9999 SCT013 BKN020 BKN030
                        19/14 Q1015=
201206020900 METAR LPPR 020900Z 25004KT 220V290 9999 SCT012 BKN019 18/15
                        Q1015=
201206020830 METAR LPPR 020830Z 27004KT 200V330 9999 FEW009 SCT012 BKN016
                        18/15 Q1015=
201206020800 METAR LPPR 020800Z VRB03KT 9999 SCT009 BKN017 18/15 Q1015=
201206020730 METAR LPPR 020730Z 29003KT 220V340 9999 SCT009 BKN014 OVC020
                        17/15 Q1015=
201206020700 METAR LPPR 020700Z 26004KT 200V300 9999 FEW009 SCT012 OVC016
                        17/15 Q1015=
201206020630 METAR LPPR 020630Z 26003KT 210V300 8000 SCT012 BKN015 17/15
                        Q1014=
201206020600 METAR LPPR 020600Z 26004KT 230V300 8000 SCT015 SCT025TCU
                        17/15 Q1014=
201206020530 METAR LPPR 020530Z 13006KT 100V160 9000 SCT014 16/15 Q1013=
201206020500 METAR LPPR 020500Z 11003KT 090V150 9000 SCT011 BKN050 16/15
                        Q1013=
201206020430 METAR LPPR 020430Z VRB01KT 9999 BKN011 BKN014 16/15 Q1013=
201206020400 METAR LPPR 020400Z 30002KT 9999 BKN010 BKN015 16/15 Q1013=
201206020330 METAR LPPR 020330Z 36003KT 330V040 9999 FEW009 SCT012 17/15
                        Q1013=
201206020300 METAR LPPR 020300Z 35003KT 9999 SCT009 SCT015 17/15 Q1013=
201206020230 METAR LPPR 020230Z 31004KT 280V360 9999 SCT008 BKN010 17/15
                        Q1013=
201206020200 METAR LPPR 020200Z 31004KT 280V340 9999 SCT009 BKN010 17/15
                        Q1013=
201206020130 METAR LPPR 020130Z 29003KT 260V350 9999 BKN009 BKN010 17/15
                        Q1013=
201206020100 METAR LPPR 020100Z 29003KT 240V340 9999 SCT009 BKN010 BKN012
                        17/15 Q1013=
201206020030 METAR LPPR 020030Z 28004KT 250V330 9999 BKN008 BKN009 17/16
                        Q1013=
201206020000 METAR LPPR 020000Z 28004KT 230V320 9999 BKN007 BKN008 17/16
                        Q1013=
201206012330 METAR LPPR 012330Z 27003KT 220V320 9999 BKN004 BKN007 17/16
                        Q1013=
201206012300 METAR LPPR 012300Z 24004KT 200V290 8000 BKN004 BKN005 18/17
                        Q1013=
201206012230 METAR LPPR 012230Z 24005KT 200V280 6000 FEW002 BKN003 BKN004
                        18/17 Q1013=
201206012200 METAR LPPR 012200Z 27003KT 7000 FEW005 17/17 Q1013=
201206012130 METAR LPPR 012130Z 24003KT 210V290 8000 NSC 17/17 Q1013=
201206012100 METAR LPPR 012100Z 25003KT 220V280 8000 NSC 18/17 Q1012=
201206012030 METAR LPPR 012030Z 24004KT 8000 NSC 19/17 Q1012=
201206012000 METAR LPPR 012000Z VRB01KT 7000 NSC 18/17 Q1012=
201206011930 METAR LPPR 011930Z VRB02KT 7000 NSC 19/17 Q1012=
201206011900 METAR LPPR 011900Z VRB02KT 9000 4000NW BR NSC 20/17 Q1012=
201206011830 METAR LPPR 011830Z 28004KT 250V310 9000 NSC 20/17 Q1012=
201206011800 METAR LPPR 011800Z VRB03KT CAVOK 23/17 Q1012=
201206011730 METAR LPPR 011730Z VRB02KT CAVOK 22/17 Q1012=
201206011700 METAR LPPR 011700Z 07003KT 360V140 9000 SCT009 FEW030CB 22/18
                        Q1012=
201206011630 METAR LPPR 011630Z 29004KT 240V360 9000 SCT007 SCT008 SCT025CB
                        20/18 Q1012=
201206011600 METAR LPPR 011600Z 30005KT 240V360 8000 4000NW VCSH BR BKN006
                        SCT020CB 19/18 Q1013=
201206011530 METAR LPPR 011530Z 25005KT 190V310 8000 4000W VCSH FEW005
                        SCT007 SCT020TCU 19/18 Q1013=
201206011500 METAR LPPR 011500Z 23008KT 190V290 9000 FEW008 FEW020TCU
                        22/18 Q1013=
201206011430 METAR LPPR 011430Z 23009KT 190V270 8000 FEW008 FEW020TCU
                        21/18 Q1013=
201206011400 METAR LPPR 011400Z 23007KT 190V280 9000 FEW025TCU 22/18 Q1012=
201206011330 METAR LPPR 011330Z 22009KT 180V260 9999 FEW025 24/19 Q1012=
201206011300 METAR LPPR 011300Z 22006KT 170V270 CAVOK 25/19 Q1012=
201206011230 METAR LPPR 011230Z 20007KT 160V220 9000 NSC 24/19 Q1012=
201206011200 METAR LPPR 011200Z 24007KT 190V270 CAVOK 23/18 Q1012=
201206011130 METAR LPPR 011130Z 22006KT 150V270 9000 NSC 23/19 Q1012=
201206011100 METAR LPPR 011100Z 23006KT 170V270 9000 NSC 22/18 Q1013=
201206011030 METAR LPPR 011030Z 21007KT 170V250 9000 NSC 22/18 Q1013=
201206011000 METAR LPPR 011000Z 20007KT 180V240 9000 NSC 23/18 Q1013=
201206010930 METAR LPPR 010930Z 19007KT 160V220 8000 NSC 22/18 Q1013=
201206010900 METAR LPPR 010900Z 20008KT 9000 NSC 23/18 Q1013=
201206010830 METAR LPPR 010830Z 18005KT 140V230 8000 NSC 23/18 Q1013=
201206010800 METAR LPPR 010800Z 23005KT 190V270 8000 NSC 22/18 Q1012=
201206010730 METAR LPPR 010730Z 16004KT 8000 NSC 21/18 Q1012=
201206010700 METAR LPPR 010700Z VRB01KT 6000 NSC 19/18 Q1012=
201206010630 METAR LPPR 010630Z 26003KT 230V300 6000 NSC 18/17 Q1012=
201206010600 METAR LPPR 010600Z 08004KT 030V160 6000 NSC 18/17 Q1012=
201206010530 METAR LPPR 010530Z VRB02KT 6000 FEW035 18/17 Q1012=
201206010500 METAR LPPR 010500Z VRB02KT 6000 FEW040 17/16 Q1012=
201206010430 METAR LPPR 010430Z 19004KT 160V230 8000 FEW035CB 18/16 Q1012=
201206010400 METAR LPPR 010400Z 22006KT 8000 FEW035CB 19/17 Q1012=
201206010330 METAR LPPR 010330Z 34003KT 280V040 9000 TS FEW030CB SCT045
                        18/17 Q1011=
201206010300 METAR LPPR 010300Z 29008KT 240V010 9999 TS FEW012 SCT045CB
                        19/17 Q1012=
201206010230 METAR LPPR 010230Z 16006KT 130V200 9000 FEW008 18/17 Q1013=
201206010200 METAR LPPR 010200Z VRB02KT CAVOK 18/16 Q1013=
201206010130 METAR LPPR 010130Z 23005KT CAVOK 19/16 Q1013=
201206010100 METAR LPPR 010100Z VRB01KT CAVOK 19/15 Q1013=
201206010030 METAR LPPR 010030Z VRB01KT CAVOK 18/15 Q1013=
201206010000 METAR LPPR 010000Z 00000KT CAVOK 19/15 Q1013=

</pre>

</body>
</html>
