##########################################################
# Query made at 11/07/2014 16:33:09 UTC
# Time interval: from 06/01/2011 00:00  to 07/01/2011 23:59  UTC
##########################################################

##########################################################
# LPPR, Porto / Pedras Rubras (Portugal)
# WMO index: 08545
# Latitude 41-14N. Longitude 008-41W. Altitude 69 m.
##########################################################

###################################
#  METAR/SPECI from LPPR
###################################
201107012330 METAR LPPR 012330Z 00000KT 4000 BR FEW004 16/15 Q1015=
201107012300 METAR LPPR 012300Z 24003KT 210V270 9999 FEW008 17/16 Q1015=
201107012230 METAR LPPR 012230Z 23003KT 210V280 CAVOK 16/15 Q1015=
201107012200 METAR LPPR 012200Z VRB01KT CAVOK 17/16 Q1015=
201107012130 METAR LPPR 012130Z VRB01KT CAVOK 18/16 Q1015=
201107012100 METAR LPPR 012100Z VRB02KT CAVOK 18/16 Q1015=
201107012030 METAR LPPR 012030Z VRB02KT CAVOK 18/15 Q1015=
201107012000 METAR LPPR 012000Z 26003KT 210V300 CAVOK 19/17 Q1015=
201107011930 METAR LPPR 011930Z 24004KT 210V270 CAVOK 21/16 Q1015=
201107011900 METAR LPPR 011900Z 26003KT 210V320 CAVOK 22/17 Q1015=
201107011830 METAR LPPR 011830Z 24004KT 200V280 CAVOK 23/16 Q1015=
201107011800 METAR LPPR 011800Z 26005KT 230V290 CAVOK 24/14 Q1015=
201107011730 METAR LPPR 011730Z 25004KT 200V310 CAVOK 24/13 Q1015=
201107011700 METAR LPPR 011700Z 25004KT 210V300 CAVOK 24/13 Q1015=
201107011630 METAR LPPR 011630Z 24005KT 200V270 CAVOK 24/13 Q1016=
201107011600 METAR LPPR 011600Z 23007KT 200V260 CAVOK 25/12 Q1016=
201107011530 METAR LPPR 011530Z 23006KT 200V270 CAVOK 25/12 Q1016=
201107011500 METAR LPPR 011500Z 27005KT 220V320 CAVOK 25/12 Q1016=
201107011430 METAR LPPR 011430Z 28005KT 230V310 CAVOK 25/12 Q1016=
201107011400 METAR LPPR 011400Z 29005KT 230V330 CAVOK 25/12 Q1016=
201107011330 METAR LPPR 011330Z 26005KT 220V320 CAVOK 26/13 Q1016=
201107011300 METAR LPPR 011300Z 27005KT 220V320 CAVOK 24/12 Q1016=
201107011230 METAR LPPR 011230Z 24004KT 210V290 CAVOK 25/12 Q1016=
201107011200 METAR LPPR 011200Z 27005KT 210V310 CAVOK 26/13 Q1016=
201107011130 METAR LPPR 011130Z 25006KT CAVOK 25/13 Q1016=
201107011100 METAR LPPR 011100Z 24006KT 210V280 CAVOK 25/14 Q1016=
201107011030 METAR LPPR 011030Z 26005KT 210V290 CAVOK 25/15 Q1016=
201107011000 METAR LPPR 011000Z VRB06KT CAVOK 24/14 Q1017=
201107010930 METAR LPPR 010930Z 09006KT 050V140 CAVOK 28/10 Q1016=
201107010900 METAR LPPR 010900Z 08007KT 050V130 CAVOK 27/09 Q1016=
201107010830 METAR LPPR 010830Z 11009KT CAVOK 26/09 Q1017=
201107010800 METAR LPPR 010800Z 11010KT 090V160 CAVOK 26/10 Q1017=
201107010730 METAR LPPR 010730Z 12010KT CAVOK 24/10 Q1016=
201107010700 METAR LPPR 010700Z 10009KT CAVOK 23/11 Q1016=
201107010630 METAR LPPR 010630Z 11006KT CAVOK 22/11 Q1016=
201107010600 METAR LPPR 010600Z 11005KT 080V140 CAVOK 20/12 Q1016=
201107010530 METAR LPPR 010530Z 05003KT 330V100 CAVOK 16/13 Q1016=
201107010500 METAR LPPR 010500Z 36003KT CAVOK 16/13 Q1016=
201107010430 METAR LPPR 010430Z 36003KT CAVOK 15/13 Q1016=
201107010400 METAR LPPR 010400Z VRB01KT CAVOK 16/13 Q1016=
201107010330 METAR LPPR 010330Z VRB01KT CAVOK 16/13 Q1016=
201107010300 METAR LPPR 010300Z VRB01KT CAVOK 17/14 Q1016=
201107010230 METAR LPPR 010230Z 15003KT CAVOK 17/13 Q1016=
201107010200 METAR LPPR 010200Z 14002KT CAVOK 18/13 Q1016=
201107010130 METAR LPPR 010130Z VRB02KT CAVOK 18/14 Q1016=
201107010100 METAR LPPR 010100Z VRB02KT CAVOK 17/14 Q1016=
201107010030 METAR LPPR 010030Z 05002KT CAVOK 18/13 Q1016=
201107010000 METAR LPPR 010000Z VRB01KT CAVOK 19/13 Q1017=
201106302330 METAR LPPR 302330Z 17002KT CAVOK 18/13 Q1017=
201106302300 METAR LPPR 302300Z 17003KT CAVOK 19/13 Q1017=
201106302230 METAR LPPR 302230Z 03001KT CAVOK 19/13 Q1017=
201106302200 METAR LPPR 302200Z 01002KT CAVOK 20/13 Q1017=
201106302130 METAR LPPR 302130Z 34004KT CAVOK 21/13 Q1017=
201106302100 METAR LPPR 302100Z 35004KT CAVOK 22/13 Q1017=
201106302030 METAR LPPR 302030Z 35006KT CAVOK 23/12 Q1016=
201106302000 METAR LPPR 302000Z 34009KT CAVOK 24/12 Q1016=
201106301930 METAR LPPR 301930Z 35010KT CAVOK 25/11 Q1016=
201106301900 METAR LPPR 301900Z 34009KT CAVOK 25/12 Q1016=
201106301830 METAR LPPR 301830Z 34010KT CAVOK 26/12 Q1016=
201106301800 METAR LPPR 301800Z 34010KT CAVOK 26/12 Q1016=
201106301730 METAR LPPR 301730Z 33009KT CAVOK 26/12 Q1016=
201106301700 METAR LPPR 301700Z 32008KT CAVOK 27/13 Q1016=
201106301630 METAR LPPR 301630Z 33009KT 290V360 CAVOK 26/12 Q1016=
201106301600 METAR LPPR 301600Z 33009KT 300V360 CAVOK 26/12 Q1017=
201106301530 METAR LPPR 301530Z 34011KT 290V360 CAVOK 27/12 Q1017=
201106301500 METAR LPPR 301500Z 32010KT 300V360 CAVOK 27/12 Q1017=
201106301430 METAR LPPR 301430Z 34011KT CAVOK 27/11 Q1017=
201106301400 METAR LPPR 301400Z 33011KT 280V350 CAVOK 27/11 Q1017=
201106301330 METAR LPPR 301330Z 32010KT 290V360 CAVOK 26/12 Q1018=
201106301300 METAR LPPR 301300Z 32010KT 280V350 CAVOK 26/11 Q1018=
201106301230 METAR LPPR 301230Z 33010KT CAVOK 26/12 Q1018=
201106301200 METAR LPPR 301200Z 31008KT CAVOK 25/11 Q1018=
201106301130 METAR LPPR 301130Z 32008KT CAVOK 26/11 Q1018=
201106301100 METAR LPPR 301100Z 03007KT 320V080 CAVOK 25/11 Q1018=
201106301030 METAR LPPR 301030Z 09009KT 060V120 CAVOK 26/07 Q1019=
201106301000 METAR LPPR 301000Z 08009KT 040V130 CAVOK 25/07 Q1019=
201106300930 METAR LPPR 300930Z 10010KT 070V150 CAVOK 25/06 Q1019=
201106300900 METAR LPPR 300900Z 09010KT 060V130 CAVOK 23/06 Q1019=
201106300830 METAR LPPR 300830Z 09010KT 060V120 CAVOK 22/06 Q1018=
201106300800 METAR LPPR 300800Z 09009KT CAVOK 21/06 Q1018=
201106300730 METAR LPPR 300730Z 09013KT 060V120 CAVOK 21/06 Q1018=
201106300700 METAR LPPR 300700Z 08011KT CAVOK 20/07 Q1018=
201106300630 METAR LPPR 300630Z 08008KT 050V110 CAVOK 20/07 Q1017=
201106300600 METAR LPPR 300600Z 07008G18KT 030V100 CAVOK 20/07 Q1017=
201106300530 METAR LPPR 300530Z 07008KT CAVOK 20/07 Q1017=
201106300500 METAR LPPR 300500Z 07009KT 040V110 CAVOK 20/08 Q1017=
201106300430 METAR LPPR 300430Z 08010KT CAVOK 20/09 Q1017=
201106300400 METAR LPPR 300400Z 08008KT CAVOK 20/09 Q1017=
201106300330 METAR LPPR 300330Z 08008KT CAVOK 20/10 Q1016=
201106300300 METAR LPPR 300300Z 09008KT CAVOK 20/11 Q1017=
201106300230 METAR LPPR 300230Z 05005KT 020V080 CAVOK 15/13 Q1017=
201106300200 METAR LPPR 300200Z 03004KT CAVOK 15/12 Q1017=
201106300130 METAR LPPR 300130Z 02003KT 9000 NSC 15/13 Q1017=
201106300100 METAR LPPR 300100Z 00000KT CAVOK 16/12 Q1017=
201106300030 METAR LPPR 300030Z 00000KT CAVOK 16/13 Q1017=
201106300000 METAR LPPR 300000Z 35003KT 310V020 CAVOK 16/13 Q1017=
201106292330 METAR LPPR 292330Z 03001KT CAVOK 16/12 Q1017=
201106292300 METAR LPPR 292300Z 01003KT CAVOK 16/12 Q1017=
201106292230 METAR LPPR 292230Z 35002KT CAVOK 17/12 Q1017=
201106292200 METAR LPPR 292200Z 34003KT CAVOK 18/12 Q1017=
201106292130 METAR LPPR 292130Z 35005KT CAVOK 18/12 Q1017=
201106292100 METAR LPPR 292100Z 35005KT CAVOK 19/12 Q1017=
201106292030 METAR LPPR 292030Z 34007KT CAVOK 20/12 Q1017=
201106292000 METAR LPPR 292000Z 33008KT CAVOK 20/12 Q1017=
201106291930 METAR LPPR 291930Z 34009KT CAVOK 21/12 Q1017=
201106291900 METAR LPPR 291900Z 34012KT CAVOK 22/12 Q1017=
201106291830 METAR LPPR 291830Z 34011KT CAVOK 23/12 Q1017=
201106291800 METAR LPPR 291800Z 35013KT CAVOK 23/11 Q1017=
201106291730 METAR LPPR 291730Z 32008KT CAVOK 23/12 Q1017=
201106291700 METAR LPPR 291700Z 32009KT CAVOK 23/13 Q1017=
201106291630 METAR LPPR 291630Z 34015KT CAVOK 24/11 Q1017=
201106291600 METAR LPPR 291600Z 33011KT 300V360 CAVOK 24/12 Q1017=
201106291530 METAR LPPR 291530Z 32011KT CAVOK 24/12 Q1017=
201106291500 METAR LPPR 291500Z 33014KT CAVOK 23/12 Q1018=
201106291430 METAR LPPR 291430Z 33013KT CAVOK 25/12 Q1018=
201106291400 METAR LPPR 291400Z 33013KT 290V360 CAVOK 24/12 Q1018=
201106291330 METAR LPPR 291330Z 32012KT CAVOK 24/11 Q1018=
201106291300 METAR LPPR 291300Z 32010KT CAVOK 24/12 Q1018=
201106291230 METAR LPPR 291230Z 31011KT CAVOK 23/13 Q1019=
201106291200 METAR LPPR 291200Z 31009KT 280V340 CAVOK 23/12 Q1019=
201106291130 METAR LPPR 291130Z 32010KT CAVOK 22/12 Q1019=
201106291100 METAR LPPR 291100Z 32009KT 290V360 CAVOK 23/12 Q1019=
201106291030 METAR LPPR 291030Z 01008KT 320V050 CAVOK 23/11 Q1019=
201106291000 METAR LPPR 291000Z 36009KT 330V060 CAVOK 22/11 Q1019=
201106290930 METAR LPPR 290930Z 36009KT 330V040 CAVOK 22/11 Q1019=
201106290900 METAR LPPR 290900Z 01009KT 340V050 CAVOK 20/11 Q1019=
201106290830 METAR LPPR 290830Z 36009KT 330V030 CAVOK 19/10 Q1019=
201106290800 METAR LPPR 290800Z 01009KT CAVOK 18/10 Q1019=
201106290730 METAR LPPR 290730Z 01009KT CAVOK 17/10 Q1019=
201106290700 METAR LPPR 290700Z 01008KT CAVOK 16/09 Q1019=
201106290630 METAR LPPR 290630Z 34006KT CAVOK 14/09 Q1019=
201106290600 METAR LPPR 290600Z 36006KT 310V040 CAVOK 12/08 Q1019=
201106290530 METAR LPPR 290530Z 36007KT CAVOK 12/08 Q1019=
201106290500 METAR LPPR 290500Z 35007KT CAVOK 12/08 Q1019=
201106290430 METAR LPPR 290430Z 36008KT CAVOK 11/08 Q1019=
201106290400 METAR LPPR 290400Z 34007KT CAVOK 12/08 Q1018=
201106290330 METAR LPPR 290330Z 35007KT CAVOK 12/08 Q1019=
201106290300 METAR LPPR 290300Z 34007KT CAVOK 13/09 Q1019=
201106290230 METAR LPPR 290230Z 34007KT CAVOK 13/09 Q1019=
201106290200 METAR LPPR 290200Z 35008KT CAVOK 13/09 Q1019=
201106290130 METAR COR LPPR 290130Z 34007KT CAVOK 14/09 Q1019=
201106290100 METAR LPPR 290100Z 34007KT CAVOK 15/09 Q1019=
201106290030 METAR LPPR 290030Z 34007KT CAVOK 15/09 Q1019=
201106290000 METAR LPPR 290000Z 34008KT CAVOK 16/10 Q1019=
201106282330 METAR LPPR 282330Z 35009KT CAVOK 16/10 Q1019=
201106282300 METAR LPPR 282300Z 34011KT CAVOK 17/10 Q1019=
201106282230 METAR LPPR 282230Z 34009KT CAVOK 17/10 Q1019=
201106282200 METAR LPPR 282200Z 34007KT CAVOK 17/11 Q1020=
201106282130 METAR LPPR 282130Z 34007KT CAVOK 17/12 Q1019=
201106282100 METAR LPPR 282100Z 35007KT CAVOK 17/12 Q1019=
201106282030 METAR LPPR 282030Z 34009KT CAVOK 18/12 Q1019=
201106282000 METAR LPPR 282000Z 33009KT CAVOK 18/12 Q1019=
201106281930 METAR LPPR 281930Z 34011KT CAVOK 19/12 Q1019=
201106281900 METAR LPPR 281900Z 34012KT CAVOK 20/12 Q1019=
201106281830 METAR LPPR 281830Z 33012KT CAVOK 21/13 Q1018=
201106281800 METAR LPPR 281800Z 34017G28KT CAVOK 22/12 Q1018=
201106281730 METAR LPPR 281730Z 33013KT CAVOK 22/13 Q1018=
201106281700 METAR LPPR 281700Z 32012KT CAVOK 22/13 Q1018=
201106281630 METAR LPPR 281630Z 34015KT CAVOK 23/13 Q1018=
201106281600 METAR LPPR 281600Z 33013KT CAVOK 22/14 Q1018=
201106281530 METAR LPPR 281530Z 34017KT CAVOK 22/14 Q1018=
201106281500 METAR LPPR 281500Z 32011KT 290V360 CAVOK 22/14 Q1019=
201106281430 METAR LPPR 281430Z 33012KT 290V350 CAVOK 22/14 Q1019=
201106281400 METAR LPPR 281400Z 32012KT CAVOK 22/15 Q1019=
201106281330 METAR LPPR 281330Z 32011KT 290V350 9999 FEW017 22/15 Q1019=
201106281300 METAR LPPR 281300Z 31011KT 280V340 9999 FEW017 21/14 Q1019=
201106281230 METAR LPPR 281230Z 31010KT 280V340 9999 FEW017 22/15 Q1019=
201106281200 METAR LPPR 281200Z 32010KT 270V350 9999 FEW020 21/15 Q1019=
201106281130 METAR LPPR 281130Z 31008KT 270V340 9999 BKN022 21/15 Q1019=
201106281100 METAR LPPR 281100Z 32008KT 270V350 9999 BKN019 BKN022 20/15
                        Q1019=
201106281030 METAR LPPR 281030Z 34005KT 260V040 9999 BKN018 20/15 Q1019=
201106281000 METAR LPPR 281000Z 31007KT 280V340 9000 BKN015 BKN020 19/15
                        Q1019=
201106280930 METAR LPPR 280930Z 32007KT 270V340 8000 FEW009 OVC017 19/15
                        Q1019=
201106280900 METAR LPPR 280900Z 34005KT 310V030 8000 FEW009 OVC017 19/16
                        Q1019=
201106280830 METAR LPPR 280830Z VRB02KT 8000 OVC017 19/15 Q1019=
201106280800 METAR LPPR 280800Z 09004KT 050V130 7000 FEW009 SCT017 18/15
                        Q1019=
201106280730 METAR LPPR 280730Z 11004KT 350V140 8000 FEW017 18/15 Q1019=
201106280700 METAR LPPR 280700Z VRB01KT 8000 FEW025 16/15 Q1019=
201106280630 METAR LPPR 280630Z VRB02KT 8000 SCT025 16/15 Q1018=
201106280600 METAR LPPR 280600Z 26003KT 210V310 8000 SCT012 BKN025 16/15
                        Q1018=
201106280530 METAR LPPR 280530Z VRB02KT 8000 SCT013 BKN020 16/15 Q1018=
201106280500 METAR LPPR 280500Z VRB01KT 8000 FEW011 BKN015 16/15 Q1018=
201106280430 METAR LPPR 280430Z 30003KT 9000 FEW012 BKN025 16/15 Q1018=
201106280400 METAR LPPR 280400Z 27003KT 240V300 9000 FEW012 BKN020 16/15
                        Q1017=
201106280330 METAR LPPR 280330Z 13004KT 9999 BKN020 16/15 Q1017=
201106280300 METAR LPPR 280300Z 14005KT 9999 BKN020 15/14 Q1018=
201106280230 METAR LPPR 280230Z 12004KT 9999 FEW005 SCT007 14/14 Q1017=
201106280200 METAR LPPR 280200Z 10003KT 9999 BKN008 15/14 Q1018=
201106280130 METAR LPPR 280130Z 15002KT 9000 SCT008 15/14 Q1017=
201106280100 METAR LPPR 280100Z VRB02KT 9000 BKN008 15/14 Q1018=
201106280030 METAR LPPR 280030Z VRB01KT 9999 BKN009 16/14 Q1018=
201106280000 METAR LPPR 280000Z 30003KT 240V330 9999 SCT011 16/15 Q1018=
201106272330 METAR LPPR 272330Z 29004KT 250V340 9999 FEW009 BKN011 16/15
                        Q1018=
201106272300 METAR LPPR 272300Z 31004KT 270V350 9999 BKN010 16/15 Q1018=
201106272230 METAR LPPR 272230Z 30005KT 270V350 9999 FEW009 BKN012 16/15
                        Q1018=
201106272200 METAR LPPR 272200Z 32005KT 270V340 9999 BKN010 16/15 Q1018=
201106272130 METAR LPPR 272130Z 33007KT 290V350 9999 BKN009 17/15 Q1018=
201106272100 METAR LPPR 272100Z 33008KT 9999 BKN010 17/15 Q1018=
201106272030 METAR LPPR 272030Z 33008KT 9999 BKN009 17/15 Q1017=
201106272000 METAR LPPR 272000Z 33008KT 300V360 9999 SCT009 17/15 Q1017=
201106271930 METAR LPPR 271930Z 33011KT 9999 SCT011 17/15 Q1017=
201106271900 METAR LPPR 271900Z 32010KT 280V340 9999 FEW013 18/15 Q1017=
201106271830 METAR LPPR 271830Z 33012KT 9999 FEW014 19/15 Q1017=
201106271800 METAR LPPR 271800Z 33011KT 300V010 9999 FEW015 19/15 Q1017=
201106271730 METAR LPPR 271730Z 33010KT 290V360 9999 FEW015 19/15 Q1017=
201106271700 METAR LPPR 271700Z 32010KT 290V350 CAVOK 20/15 Q1017=
201106271630 METAR LPPR 271630Z 32011KT 290V350 CAVOK 20/15 Q1017=
201106271600 METAR LPPR 271600Z 32011KT 270V340 9999 FEW019 21/15 Q1017=
201106271530 METAR LPPR 271530Z 32010KT 290V360 9999 FEW019 21/16 Q1017=
201106271500 METAR LPPR 271500Z 32010KT 270V350 9999 FEW019 20/15 Q1017=
201106271430 METAR LPPR 271430Z 31010KT 270V350 9999 FEW019 21/15 Q1017=
201106271400 METAR LPPR 271400Z 32011KT 290V350 9999 FEW030 21/15 Q1017=
201106271330 METAR LPPR 271330Z 30007KT 270V350 CAVOK 21/16 Q1017=
201106271300 METAR LPPR 271300Z 29008KT 9999 FEW020 21/17 Q1017=
201106271230 METAR LPPR 271230Z 29006KT 240V340 9999 FEW013 SCT025 23/17
                        Q1017=
201106271200 METAR LPPR 271200Z 31004KT 260V010 9999 FEW013 BKN025 23/17
                        Q1017=
201106271130 METAR LPPR 271130Z 30005KT 270V340 9999 FEW013 OVC025 22/17
                        Q1017=
201106271100 METAR LPPR 271100Z 31004KT 250V350 9000 FEW012 OVC022 21/17
                        Q1017=
201106271030 METAR LPPR 271030Z 31004KT 230V360 9000 SCT012 OVC020 21/17
                        Q1017=
201106271000 METAR LPPR 271000Z 31004KT 270V360 9000 SCT015 BKN020 21/17
                        Q1017=
201106270930 METAR LPPR 270930Z 30004KT 230V340 9999 SCT012 BKN020 21/17
                        Q1017=
201106270900 METAR LPPR 270900Z VRB04KT 8000 SCT010 BKN020 20/17 Q1017=
201106270830 METAR LPPR 270830Z 32003KT 230V040 8000 SCT006 SCT010 20/17
                        Q1016=
201106270800 METAR LPPR 270800Z 36005KT 310V050 7000 SCT006 19/17 Q1016=
201106270730 METAR LPPR 270730Z 35004KT 300V020 5000 SCT004 SCT006 18/17
                        Q1016=
201106270700 METAR LPPR 270700Z 34004KT 5000 FEW002 SCT004 18/16 Q1015=
201106270630 METAR LPPR 270630Z VRB02KT 5000 FEW002 SCT004 18/16 Q1015=
201106270600 METAR LPPR 270600Z 33003KT 6000 FEW002 17/16 Q1015=
201106270530 METAR LPPR 270530Z 33003KT 7000 FEW070 17/16 Q1015=
201106270500 METAR LPPR 270500Z 36003KT 330V060 8000 NSC 17/16 Q1014=
201106270430 METAR LPPR 270430Z 01002KT CAVOK 17/16 Q1014=
201106270400 METAR LPPR 270400Z VRB02KT CAVOK 18/16 Q1014=
201106270330 METAR LPPR 270330Z 28006KT 240V310 CAVOK 19/16 Q1014=
201106270300 METAR LPPR 270300Z 12008KT CAVOK 23/14 Q1014=
201106270230 METAR LPPR 270230Z 12008KT CAVOK 24/14 Q1014=
201106270200 METAR LPPR 270200Z 12009KT CAVOK 24/13 Q1014=
201106270130 METAR LPPR 270130Z 11009KT CAVOK 23/13 Q1014=
201106270100 METAR LPPR 270100Z 10008KT 070V200 CAVOK 21/14 Q1014=
201106270030 METAR LPPR 270030Z 03003KT 340V080 CAVOK 19/16 Q1014=
201106270000 METAR LPPR 270000Z VRB02KT CAVOK 18/16 Q1015=
201106262330 METAR LPPR 262330Z 19007KT 9999 FEW025 19/16 Q1015=
201106262300 METAR LPPR 262300Z 20006KT 9999 FEW025 19/16 Q1015=
201106262230 METAR LPPR 262230Z 21003KT 9999 FEW030 19/15 Q1015=
201106262200 METAR LPPR 262200Z VRB02KT 9999 FEW035 19/16 Q1015=
201106262130 METAR LPPR 262130Z 17004KT 130V210 9999 FEW035 19/16 Q1015=
201106262100 METAR LPPR 262100Z 34006KT 280V020 9999 FEW035CB 19/16 Q1014=
201106262030 METAR LPPR 262030Z 29003KT 190V350 9999 FEW035CB 19/16 Q1015=
201106262000 METAR LPPR 262000Z 24008KT 220V300 9999 FEW035CB 26/13 Q1014=
201106261930 METAR LPPR 261930Z 35008KT 9999 FEW035CB 25/14 Q1013=
201106261900 METAR LPPR 261900Z VRB03KT 9999 FEW035CB 26/13 Q1014=
201106261830 METAR LPPR 261830Z 34004KT 280V020 9999 FEW025CB 25/15 Q1014=
201106261800 METAR LPPR 261800Z VRB02KT 9999 FEW025CB 25/15 Q1014=
201106261730 METAR LPPR 261730Z 33008KT 290V360 CAVOK 25/16 Q1013=
201106261700 METAR LPPR 261700Z 30005KT 270V330 CAVOK 25/15 Q1014=
201106261630 METAR LPPR 261630Z 29005KT 260V320 CAVOK 28/16 Q1014=
201106261600 METAR LPPR 261600Z 32005KT CAVOK 30/17 Q1013=
201106261530 METAR LPPR 261530Z 32007KT CAVOK 29/16 Q1014=
201106261500 METAR LPPR 261500Z 32006KT 280V350 CAVOK 29/17 Q1014=
201106261430 METAR LPPR 261430Z 29005KT CAVOK 28/17 Q1014=
201106261400 METAR LPPR 261400Z 31005KT CAVOK 29/18 Q1014=
201106261330 METAR LPPR 261330Z 29004KT 250V330 CAVOK 29/16 Q1015=
201106261300 METAR LPPR 261300Z 29005KT 270V330 CAVOK 29/18 Q1015=
201106261230 METAR LPPR 261230Z 29004KT 250V340 CAVOK 28/17 Q1016=
201106261200 METAR LPPR 261200Z 29004KT 250V330 CAVOK 26/17 Q1016=
201106261130 METAR LPPR 261130Z 28007KT 250V320 9000 NSC 26/16 Q1016=
201106261100 METAR LPPR 261100Z 30004KT 260V350 8000 NSC 27/18 Q1016=
201106261030 METAR LPPR 261030Z 29005KT 240V310 9000 NSC 26/18 Q1016=
201106261000 METAR LPPR 261000Z 29004KT 8000 NSC 26/19 Q1016=
201106260930 METAR LPPR 260930Z 31003KT 280V030 9000 NSC 26/18 Q1016=
201106260900 METAR LPPR 260900Z 25003KT 210V290 9000 NSC 25/18 Q1017=
201106260830 METAR LPPR 260830Z 25003KT 210V310 CAVOK 25/14 Q1017=
201106260800 METAR LPPR 260800Z 14003KT 100V170 8000 NSC 24/15 Q1017=
201106260730 METAR LPPR 260730Z VRB02KT 7000 NSC 22/15 Q1017=
201106260700 METAR LPPR 260700Z VRB01KT 6000 NSC 20/18 Q1017=
201106260630 METAR LPPR 260630Z VRB01KT 7000 NSC 19/17 Q1016=
201106260600 METAR LPPR 260600Z VRB01KT 6000 NSC 16/15 Q1016=
201106260530 METAR LPPR 260530Z VRB01KT 7000 FEW009 17/16 Q1016=
201106260500 METAR LPPR 260500Z 13003KT 7000 FEW009 17/16 Q1016=
201106260430 METAR LPPR 260430Z 04002KT 8000 FEW010 16/15 Q1016=
201106260400 METAR LPPR 260400Z VRB02KT 8000 FEW010 16/16 Q1016=
201106260330 METAR LPPR 260330Z 03002KT 9000 FEW010 16/16 Q1016=
201106260300 METAR LPPR 260300Z 01003KT CAVOK 16/15 Q1016=
201106260230 METAR LPPR 260230Z 36002KT CAVOK 17/16 Q1016=
201106260200 METAR LPPR 260200Z 00000KT CAVOK 17/16 Q1016=
201106260130 METAR LPPR 260130Z 00000KT CAVOK 18/17 Q1017=
201106260100 METAR LPPR 260100Z 24003KT 210V280 CAVOK 19/18 Q1017=
201106260030 METAR LPPR 260030Z 00000KT CAVOK 18/17 Q1017=
201106260000 METAR LPPR 260000Z 00000KT CAVOK 18/17 Q1017=
201106252330 METAR LPPR 252330Z 25003KT 220V290 CAVOK 18/16 Q1017=
201106252300 METAR LPPR 252300Z 00000KT CAVOK 19/17 Q1017=
201106252230 METAR LPPR 252230Z 27002KT CAVOK 20/18 Q1017=
201106252200 METAR LPPR 252200Z VRB01KT CAVOK 20/18 Q1017=
201106252130 METAR LPPR 252130Z 00000KT CAVOK 20/17 Q1017=
201106252100 METAR LPPR 252100Z 00000KT CAVOK 21/17 Q1017=
201106252030 METAR LPPR 252030Z 00000KT CAVOK 22/17 Q1017=
201106252000 METAR LPPR 252000Z VRB02KT CAVOK 24/18 Q1017=
201106251930 METAR LPPR 251930Z 22003KT 190V250 CAVOK 25/15 Q1017=
201106251900 METAR LPPR 251900Z 24003KT 180V280 CAVOK 26/14 Q1017=
201106251830 METAR LPPR 251830Z 24004KT 200V280 CAVOK 26/14 Q1017=
201106251800 METAR LPPR 251800Z 25007KT 220V280 CAVOK 27/13 Q1017=
201106251730 METAR LPPR 251730Z 26005KT 220V280 CAVOK 29/11 Q1017=
201106251700 METAR LPPR 251700Z VRB03KT CAVOK 31/10 Q1017=
201106251630 METAR LPPR 251630Z 26003KT 190V310 CAVOK 29/10 Q1017=
201106251600 METAR LPPR 251600Z VRB04KT CAVOK 29/11 Q1017=
201106251530 METAR LPPR 251530Z VRB03KT CAVOK 30/12 Q1017=
201106251500 METAR LPPR 251500Z 27003KT 200V330 CAVOK 29/11 Q1017=
201106251430 METAR LPPR 251430Z 28004KT 240V320 CAVOK 28/12 Q1018=
201106251400 METAR LPPR 251400Z 25006KT 220V290 CAVOK 28/12 Q1018=
201106251330 METAR LPPR 251330Z 27005KT 190V340 CAVOK 28/11 Q1018=
201106251300 METAR LPPR 251300Z 25005KT 200V010 CAVOK 27/13 Q1018=
201106251230 METAR LPPR 251230Z 24008KT 210V290 CAVOK 27/12 Q1018=
201106251200 METAR LPPR 251200Z 23006KT 210V280 CAVOK 27/15 Q1018=
201106251130 METAR LPPR 251130Z 27005KT 230V290 CAVOK 28/16 Q1018=
201106251100 METAR LPPR 251100Z 25005KT 220V290 CAVOK 28/16 Q1018=
201106251030 METAR LPPR 251030Z 13007KT 100V170 CAVOK 32/14 Q1018=
201106251000 METAR LPPR 251000Z 10006KT 060V130 CAVOK 33/08 Q1018=
201106250930 METAR LPPR 250930Z 11007KT 070V130 CAVOK 32/08 Q1018=
201106250900 METAR LPPR 250900Z 11009KT 090V150 CAVOK 31/08 Q1017=
201106250830 METAR LPPR 250830Z 11010KT CAVOK 30/08 Q1017=
201106250800 METAR LPPR 250800Z 11011KT CAVOK 29/07 Q1017=
201106250730 METAR LPPR 250730Z 11010KT CAVOK 28/07 Q1017=
201106250700 METAR LPPR 250700Z 11009KT CAVOK 27/07 Q1017=
201106250630 METAR LPPR 250630Z 10009KT CAVOK 26/07 Q1017=
201106250600 METAR LPPR 250600Z 10007KT 080V180 CAVOK 22/08 Q1017=
201106250530 METAR LPPR 250530Z 09006KT 050V120 CAVOK 17/12 Q1017=
201106250500 METAR LPPR 250500Z 09005KT 040V120 CAVOK 20/11 Q1017=
201106250430 METAR LPPR 250430Z 07004KT 030V100 CAVOK 18/13 Q1017=
201106250400 METAR LPPR 250400Z 05003KT CAVOK 18/13 Q1017=
201106250330 METAR LPPR 250330Z VRB01KT CAVOK 20/13 Q1017=
201106250300 METAR LPPR 250300Z 04004KT CAVOK 23/13 Q1017=
201106250230 METAR LPPR 250230Z 05005KT CAVOK 20/14 Q1017=
201106250200 METAR LPPR 250200Z 04003KT CAVOK 20/14 Q1017=
201106250130 METAR LPPR 250130Z 06005KT CAVOK 21/14 Q1017=
201106250100 METAR LPPR 250100Z 01002KT CAVOK 22/15 Q1018=
201106250030 METAR LPPR 250030Z 09004KT 060V120 CAVOK 21/14 Q1018=
201106250000 METAR LPPR 250000Z VRB01KT CAVOK 19/13 Q1018=
201106242330 METAR LPPR 242330Z 15002KT CAVOK 20/14 Q1018=
201106242300 METAR LPPR 242300Z VRB02KT CAVOK 19/14 Q1018=
201106242230 METAR LPPR 242230Z 35004KT CAVOK 19/14 Q1018=
201106242200 METAR LPPR 242200Z 36003KT 310V020 CAVOK 20/14 Q1018=
201106242130 METAR LPPR 242130Z 35004KT CAVOK 21/13 Q1018=
201106242100 METAR LPPR 242100Z 35006KT CAVOK 23/13 Q1018=
201106242030 METAR LPPR 242030Z 34006KT CAVOK 23/13 Q1018=
201106242000 METAR LPPR 242000Z 35008KT CAVOK 24/12 Q1018=
201106241930 METAR LPPR 241930Z 34010KT CAVOK 25/11 Q1018=
201106241900 METAR LPPR 241900Z 34010KT CAVOK 25/11 Q1018=
201106241830 METAR LPPR 241830Z 34012KT CAVOK 26/12 Q1018=
201106241800 METAR LPPR 241800Z 35016KT CAVOK 26/12 Q1018=
201106241730 METAR LPPR 241730Z 34011KT CAVOK 27/12 Q1018=
201106241700 METAR LPPR 241700Z 35013KT CAVOK 27/10 Q1018=
201106241630 METAR LPPR 241630Z 35015KT CAVOK 27/10 Q1018=
201106241600 METAR LPPR 241600Z 33012KT CAVOK 27/11 Q1018=
201106241530 METAR LPPR 241530Z 33011KT CAVOK 28/12 Q1019=
201106241500 METAR LPPR 241500Z 33011KT 300V360 CAVOK 27/12 Q1019=
201106241430 METAR LPPR 241430Z 32011KT CAVOK 27/12 Q1019=
201106241400 METAR LPPR 241400Z 34012KT CAVOK 27/12 Q1019=
201106241330 METAR LPPR 241330Z 33011KT CAVOK 26/12 Q1019=
201106241300 METAR LPPR 241300Z 32011KT 280V340 CAVOK 26/14 Q1019=
201106241230 METAR LPPR 241230Z 30008KT 270V330 CAVOK 26/14 Q1019=
201106241200 METAR LPPR 241200Z 32009KT 280V340 CAVOK 25/13 Q1020=
201106241130 METAR LPPR 241130Z 31007KT CAVOK 26/14 Q1020=
201106241100 METAR LPPR 241100Z 05005G18KT 330V120 CAVOK 26/13 Q1020=
201106241030 METAR LPPR 241030Z 03005G18KT 330V070 CAVOK 26/11 Q1020=
201106241000 METAR LPPR 241000Z 04007KT 350V070 CAVOK 25/11 Q1020=
201106240930 METAR LPPR 240930Z 04007KT 320V090 CAVOK 24/12 Q1020=
201106240900 METAR LPPR 240900Z 02007KT 350V080 CAVOK 24/11 Q1020=
201106240830 METAR LPPR 240830Z 02007KT 350V060 CAVOK 22/11 Q1020=
201106240800 METAR LPPR 240800Z 36005KT CAVOK 20/13 Q1021=
201106240730 METAR LPPR 240730Z 35005KT CAVOK 17/13 Q1021=
201106240700 METAR LPPR 240700Z 36005KT CAVOK 15/12 Q1021=
201106240630 METAR LPPR 240630Z 36002KT CAVOK 14/12 Q1020=
201106240600 METAR LPPR 240600Z 34003KT 300V040 CAVOK 13/11 Q1020=
201106240530 METAR LPPR 240530Z VRB02KT CAVOK 11/10 Q1020=
201106240500 METAR LPPR 240500Z VRB01KT CAVOK 11/10 Q1020=
201106240430 METAR LPPR 240430Z 00000KT CAVOK 12/11 Q1020=
201106240400 METAR LPPR 240400Z 02003KT 360V060 CAVOK 12/10 Q1020=
201106240330 METAR LPPR 240330Z 35002KT CAVOK 12/11 Q1020=
201106240300 METAR LPPR 240300Z 03001KT CAVOK 12/11 Q1020=
201106240230 METAR LPPR 240230Z 34004KT CAVOK 12/11 Q1020=
201106240200 METAR LPPR 240200Z 01003KT CAVOK 12/11 Q1020=
201106240130 METAR LPPR 240130Z 36004KT CAVOK 13/11 Q1020=
201106240100 METAR LPPR 240100Z 36004KT CAVOK 13/12 Q1020=
201106240030 METAR LPPR 240030Z VRB02KT CAVOK 13/11 Q1021=
201106240000 METAR LPPR 240000Z 00000KT CAVOK 14/12 Q1021=
201106232330 METAR LPPR 232330Z 35003KT CAVOK 15/13 Q1021=
201106232300 METAR LPPR 232300Z 34004KT CAVOK 15/13 Q1021=
201106232230 METAR LPPR 232230Z 34005KT CAVOK 15/13 Q1021=
201106232200 METAR LPPR 232200Z 34006KT CAVOK 16/13 Q1021=
201106232130 METAR LPPR 232130Z 35009KT CAVOK 16/13 Q1021=
201106232100 METAR LPPR 232100Z 34009KT CAVOK 17/13 Q1021=
201106232030 METAR LPPR 232030Z 34009KT CAVOK 17/12 Q1020=
201106232000 METAR LPPR 232000Z 34010KT CAVOK 18/12 Q1020=
201106231930 METAR LPPR 231930Z 34010KT CAVOK 18/12 Q1020=
201106231900 METAR LPPR 231900Z 33011KT CAVOK 19/12 Q1020=
201106231830 METAR LPPR 231830Z 34012KT CAVOK 19/12 Q1020=
201106231800 METAR LPPR 231800Z 34014KT CAVOK 19/12 Q1020=
201106231730 METAR LPPR 231730Z 34014KT CAVOK 20/12 Q1020=
201106231700 METAR LPPR 231700Z 34017KT CAVOK 20/11 Q1020=
201106231630 METAR LPPR 231630Z 34017KT CAVOK 20/11 Q1021=
201106231600 METAR LPPR 231600Z 33014G24KT 300V360 CAVOK 20/11 Q1021=
201106231530 METAR LPPR 231530Z 32014KT 290V350 CAVOK 21/13 Q1021=
201106231500 METAR LPPR 231500Z 32014KT 300V360 CAVOK 20/13 Q1021=
201106231430 METAR LPPR 231430Z 33015KT CAVOK 20/13 Q1021=
201106231400 METAR LPPR 231400Z 32016KT CAVOK 20/14 Q1022=
201106231330 METAR LPPR 231330Z 33015KT 280V350 CAVOK 20/13 Q1022=
201106231300 METAR LPPR 231300Z 33013KT CAVOK 21/13 Q1022=
201106231230 METAR LPPR 231230Z 33012KT 300V360 CAVOK 21/12 Q1022=
201106231200 METAR LPPR 231200Z 33013KT CAVOK 20/11 Q1022=
201106231130 METAR LPPR 231130Z 32010KT 280V360 CAVOK 20/11 Q1022=
201106231100 METAR LPPR 231100Z 31009KT 270V340 CAVOK 20/12 Q1022=
201106231030 METAR LPPR 231030Z 32009KT 280V340 CAVOK 19/11 Q1022=
201106231000 METAR LPPR 231000Z 31008KT 270V340 CAVOK 19/11 Q1022=
201106230930 METAR LPPR 230930Z 34008KT CAVOK 19/09 Q1022=
201106230900 METAR LPPR 230900Z 02007KT 330V060 CAVOK 18/09 Q1022=
201106230830 METAR LPPR 230830Z 35008KT 330V030 CAVOK 17/10 Q1023=
201106230800 METAR LPPR 230800Z 36009KT CAVOK 16/09 Q1023=
201106230730 METAR LPPR 230730Z 35006KT CAVOK 15/10 Q1023=
201106230700 METAR LPPR 230700Z 01005KT 330V050 CAVOK 14/11 Q1022=
201106230630 METAR LPPR 230630Z 03003KT 340V080 CAVOK 13/11 Q1022=
201106230600 METAR LPPR 230600Z VRB02KT CAVOK 12/11 Q1022=
201106230530 METAR LPPR 230530Z VRB02KT CAVOK 10/09 Q1022=
201106230500 METAR LPPR 230500Z 36003KT CAVOK 11/10 Q1022=
201106230430 METAR LPPR 230430Z 02001KT CAVOK 11/10 Q1021=
201106230400 METAR LPPR 230400Z 35002KT CAVOK 11/10 Q1021=
201106230330 METAR LPPR 230330Z 00000KT CAVOK 11/10 Q1021=
201106230300 METAR LPPR 230300Z 00000KT CAVOK 12/10 Q1021=
201106230230 METAR LPPR 230230Z 34003KT CAVOK 13/11 Q1021=
201106230200 METAR LPPR 230200Z 36004KT CAVOK 13/11 Q1021=
201106230130 METAR LPPR 230130Z 36005KT CAVOK 13/11 Q1021=
201106230100 METAR LPPR 230100Z 34010KT CAVOK 14/12 Q1022=
201106230030 METAR LPPR 230030Z 34010KT CAVOK 15/12 Q1022=
201106230000 METAR LPPR 230000Z 34009KT CAVOK 15/12 Q1022=
201106222330 METAR LPPR 222330Z 35009KT CAVOK 15/12 Q1022=
201106222300 METAR LPPR 222300Z 34011KT CAVOK 15/12 Q1023=
201106222230 METAR LPPR 222230Z 34011KT CAVOK 15/11 Q1023=
201106222200 METAR LPPR 222200Z 34013KT CAVOK 15/12 Q1023=
201106222130 METAR LPPR 222130Z 34013KT CAVOK 15/12 Q1023=
201106222100 METAR LPPR 222100Z 34013KT CAVOK 16/12 Q1022=
201106222030 METAR LPPR 222030Z 34012KT CAVOK 16/11 Q1022=
201106222000 METAR LPPR 222000Z 34011KT 300V360 CAVOK 16/11 Q1022=
201106221930 METAR LPPR 221930Z 33013KT CAVOK 17/11 Q1023=
201106221900 METAR LPPR 221900Z 34015KT CAVOK 17/12 Q1022=
201106221830 METAR LPPR 221830Z 33015KT 290V360 CAVOK 17/11 Q1022=
201106221800 METAR LPPR 221800Z 33014KT CAVOK 18/12 Q1022=
201106221730 METAR LPPR 221730Z 33015KT CAVOK 18/11 Q1022=
201106221700 METAR LPPR 221700Z 33016KT CAVOK 18/11 Q1022=
201106221630 METAR LPPR 221630Z 33018KT CAVOK 19/12 Q1022=
201106221600 METAR LPPR 221600Z 33016KT CAVOK 19/12 Q1022=
201106221530 METAR LPPR 221530Z 33014KT CAVOK 19/12 Q1022=
201106221500 METAR LPPR 221500Z 33016KT CAVOK 19/13 Q1022=
201106221430 METAR LPPR 221430Z 32013KT 280V340 CAVOK 19/13 Q1023=
201106221400 METAR LPPR 221400Z 32015KT 280V010 CAVOK 19/13 Q1023=
201106221330 METAR LPPR 221330Z 33013KT 290V010 CAVOK 19/12 Q1023=
201106221300 METAR LPPR 221300Z 33014KT 9999 FEW020 20/13 Q1022=
201106221230 METAR LPPR 221230Z 32013KT 280V350 9999 FEW020 19/11 Q1022=
201106221200 METAR LPPR 221200Z 31013KT 280V340 9999 FEW020 19/11 Q1022=
201106221130 METAR LPPR 221130Z 31010KT 270V340 9999 FEW017 20/09 Q1022=
201106221100 METAR LPPR 221100Z 32012KT 9999 FEW025 20/10 Q1022=
201106221030 METAR LPPR 221030Z 30008KT 260V330 9999 FEW025 20/11 Q1022=
201106221000 METAR LPPR 221000Z 32008KT 270V340 9999 FEW025 19/12 Q1022=
201106220930 METAR LPPR 220930Z 31008KT 9999 FEW025 19/13 Q1022=
201106220900 METAR LPPR 220900Z 31006KT 270V350 9999 FEW020 19/13 Q1022=
201106220830 METAR LPPR 220830Z 34007KT 280V020 9999 FEW020 19/12 Q1022=
201106220800 METAR LPPR 220800Z 35006KT 310V020 9999 FEW020 18/13 Q1022=
201106220730 METAR LPPR 220730Z 34006KT 310V010 9999 FEW020 17/14 Q1022=
201106220700 METAR LPPR 220700Z 35005KT 9999 FEW020 16/13 Q1022=
201106220630 METAR LPPR 220630Z 36003KT 9999 FEW020 14/13 Q1021=
201106220600 METAR LPPR 220600Z 35003KT 330V070 9999 FEW020 13/12 Q1021=
201106220530 METAR LPPR 220530Z VRB02KT 9999 FEW020 13/12 Q1021=
201106220500 METAR LPPR 220500Z 01002KT 9999 FEW025 13/12 Q1021=
201106220430 METAR LPPR 220430Z 35002KT 9999 FEW020 13/12 Q1021=
201106220400 METAR LPPR 220400Z VRB01KT CAVOK 13/12 Q1020=
201106220330 METAR LPPR 220330Z 36002KT CAVOK 14/13 Q1021=
201106220300 METAR LPPR 220300Z VRB02KT CAVOK 13/12 Q1020=
201106220230 METAR LPPR 220230Z 36003KT CAVOK 15/13 Q1021=
201106220200 METAR LPPR 220200Z 35003KT CAVOK 15/14 Q1021=
201106220130 METAR LPPR 220130Z 34005KT CAVOK 15/14 Q1021=
201106220100 METAR LPPR 220100Z 34006KT CAVOK 16/14 Q1021=
201106220030 METAR LPPR 220030Z 33007KT 9999 FEW008 16/15 Q1021=
201106220000 METAR LPPR 220000Z 34005KT 9999 FEW007 16/15 Q1021=
201106212330 METAR LPPR 212330Z 33007KT 9999 FEW005 16/15 Q1021=
201106212300 METAR LPPR 212300Z 33008KT 9999 SCT005 16/16 Q1021=
201106212230 METAR LPPR 212230Z 32004KT 9999 FEW006 16/15 Q1021=
201106212200 METAR LPPR 212200Z 33007KT 290V350 9999 FEW005 16/15 Q1021=
201106212130 METAR LPPR 212130Z 32008KT 290V350 9999 FEW015 17/15 Q1021=
201106212100 METAR LPPR 212100Z 33005KT 9999 FEW020 17/16 Q1020=
201106212030 METAR LPPR 212030Z 34007KT 9999 FEW015 17/16 Q1020=
201106212000 METAR LPPR 212000Z 32007KT 9999 FEW009 18/16 Q1020=
201106211930 METAR LPPR 211930Z 33008KT 9999 FEW009 19/16 Q1019=
201106211900 METAR LPPR 211900Z 33010KT 300V360 9999 SCT008 19/17 Q1019=
201106211830 METAR LPPR 211830Z 32010KT 290V360 9999 SCT007 BKN009 20/17
                        Q1019=
201106211800 METAR LPPR 211800Z 32010KT 280V350 9999 FEW010 SCT012 20/17
                        Q1019=
201106211730 METAR LPPR 211730Z 32010KT 290V350 9999 FEW013 20/17 Q1019=
201106211700 METAR LPPR 211700Z 32010KT 9999 FEW015 21/17 Q1019=
201106211630 METAR LPPR 211630Z 33010KT 280V360 9999 FEW012 21/17 Q1019=
201106211600 METAR LPPR 211600Z 31008KT 270V350 9999 FEW013 SCT015 21/17
                        Q1019=
201106211530 METAR LPPR 211530Z 31009KT 260V350 9999 FEW013 SCT015 21/17
                        Q1019=
201106211500 METAR LPPR 211500Z 31007KT 270V010 9999 FEW013 SCT015 22/17
                        Q1019=
201106211430 METAR LPPR 211430Z 30008KT 270V340 9999 FEW015 21/17 Q1020=
201106211400 METAR LPPR 211400Z 32009KT 270V350 9999 FEW017 22/17 Q1020=
201106211330 METAR LPPR 211330Z 33011KT 260V360 9999 FEW020 22/16 Q1020=
201106211300 METAR LPPR 211300Z 32011KT 280V350 9999 FEW018 22/16 Q1020=
201106211230 METAR LPPR 211230Z 33012KT 9999 FEW018 21/16 Q1020=
201106211200 METAR LPPR 211200Z 33010KT 9999 FEW017 21/16 Q1020=
201106211130 METAR LPPR 211130Z 32009KT 290V350 9999 FEW016 21/16 Q1020=
201106211100 METAR LPPR 211100Z 32010KT 280V020 9999 FEW015 21/16 Q1020=
201106211030 METAR LPPR 211030Z 31007KT 260V360 9999 FEW020 21/16 Q1020=
201106211000 METAR LPPR 211000Z 30006KT 260V340 CAVOK 21/15 Q1019=
201106210930 METAR LPPR 210930Z 29005KT 240V350 9999 FEW020 21/15 Q1019=
201106210900 METAR LPPR 210900Z VRB04KT 9999 FEW020 21/15 Q1019=
201106210830 METAR LPPR 210830Z 01004KT 340V070 CAVOK 19/15 Q1020=
201106210800 METAR LPPR 210800Z 02004KT 330V070 CAVOK 19/15 Q1019=
201106210730 METAR LPPR 210730Z 02004KT 320V080 CAVOK 17/16 Q1019=
201106210700 METAR LPPR 210700Z 04003KT 350V110 CAVOK 16/15 Q1019=
201106210630 METAR LPPR 210630Z VRB02KT CAVOK 14/14 Q1019=
201106210600 METAR LPPR 210600Z VRB02KT CAVOK 13/12 Q1019=
201106210530 METAR LPPR 210530Z 04001KT CAVOK 12/12 Q1019=
201106210500 METAR LPPR 210500Z VRB01KT CAVOK 12/12 Q1019=
201106210430 METAR LPPR 210430Z 02002KT CAVOK 12/12 Q1018=
201106210400 METAR LPPR 210400Z 00000KT CAVOK 13/13 Q1018=
201106210330 METAR LPPR 210330Z 00000KT CAVOK 13/13 Q1018=
201106210300 METAR LPPR 210300Z 34001KT CAVOK 13/13 Q1019=
201106210230 METAR LPPR 210230Z 04001KT CAVOK 15/14 Q1019=
201106210200 METAR LPPR 210200Z 00000KT 9000 FEW003 14/14 Q1019=
201106210130 METAR LPPR 210130Z 00000KT 8000 FEW001 13/13 Q1019=
201106210100 METAR LPPR 210100Z 34001KT 9000 FEW002 14/14 Q1019=
201106210030 METAR LPPR 210030Z 05002KT 9999 FEW004 15/14 Q1019=
201106210000 METAR LPPR 210000Z VRB01KT 9999 FEW004 15/15 Q1020=
201106202330 METAR LPPR 202330Z 32002KT 9999 SCT004 16/16 Q1020=
201106202300 METAR LPPR 202300Z VRB02KT 9000 SCT003 BKN004 16/16 Q1020=
201106202230 METAR LPPR 202230Z 30003KT 270V330 9999 SCT004 16/16 Q1020=
201106202200 METAR LPPR 202200Z 32004KT CAVOK 16/16 Q1020=
201106202130 METAR LPPR 202130Z 32006KT 280V340 CAVOK 17/16 Q1020=
201106202100 METAR LPPR 202100Z 32005KT CAVOK 17/16 Q1020=
201106202030 METAR LPPR 202030Z 33006KT CAVOK 17/16 Q1019=
201106202000 METAR LPPR 202000Z 34006KT 9999 FEW013 18/16 Q1019=
201106201930 METAR LPPR 201930Z 32006KT 290V350 9999 FEW013 18/16 Q1020=
201106201900 METAR LPPR 201900Z 32007KT 280V010 9999 FEW013 19/16 Q1019=
201106201830 METAR LPPR 201830Z 32009KT 9999 FEW013 19/16 Q1019=
201106201800 METAR LPPR 201800Z 33010KT 290V350 9999 FEW015 19/15 Q1019=
201106201730 METAR LPPR 201730Z 32010KT 280V350 9999 FEW018 20/16 Q1019=
201106201700 METAR LPPR 201700Z 33010KT 290V360 9999 FEW017 21/16 Q1019=
201106201630 METAR LPPR 201630Z 32011KT 280V350 9999 FEW015 20/16 Q1020=
201106201600 METAR LPPR 201600Z 32010KT 290V360 9999 FEW015 21/16 Q1019=
201106201530 METAR LPPR 201530Z 32010KT 280V350 9999 FEW018 20/16 Q1020=
201106201500 METAR LPPR 201500Z 33012KT 300V360 9999 FEW020 21/16 Q1020=
201106201430 METAR LPPR 201430Z 32011KT 280V350 9999 FEW020 21/15 Q1020=
201106201400 METAR LPPR 201400Z 32011KT 290V350 9999 FEW030 21/16 Q1020=
201106201330 METAR LPPR 201330Z 33012KT 290V350 9999 FEW030 20/15 Q1020=
201106201300 METAR LPPR 201300Z 32011KT 290V350 9999 FEW030 21/16 Q1020=
201106201230 METAR LPPR 201230Z 32011KT 280V360 9999 FEW030 21/16 Q1020=
201106201200 METAR LPPR 201200Z 31008KT 270V350 9999 FEW030 20/16 Q1020=
201106201130 METAR LPPR 201130Z 32010KT 9999 FEW030 20/16 Q1020=
201106201100 METAR LPPR 201100Z 31009KT 270V340 9999 FEW030 20/16 Q1020=
201106201030 METAR LPPR 201030Z 31009KT 280V340 9999 FEW016 20/16 Q1020=
201106201000 METAR LPPR 201000Z 30006KT 250V340 9999 FEW016 20/15 Q1020=
201106200930 METAR LPPR 200930Z 31008KT 270V340 9999 BKN015 19/15 Q1020=
201106200900 METAR LPPR 200900Z 35006KT 330V040 9999 FEW009 SCT014 18/15
                        Q1020=
201106200830 METAR LPPR 200830Z 36008KT 9999 SCT009 19/15 Q1020=
201106200800 METAR LPPR 200800Z 01009KT 9999 FEW009 18/15 Q1020=
201106200730 METAR LPPR 200730Z 35008KT 310V030 9999 SCT009 17/15 Q1020=
201106200700 METAR LPPR 200700Z 36003KT 310V070 9999 FEW009 16/15 Q1020=
201106200630 METAR LPPR 200630Z VRB01KT CAVOK 15/15 Q1019=
201106200600 METAR LPPR 200600Z VRB02KT 9000 FEW007 15/14 Q1019=
201106200530 METAR LPPR 200530Z 00000KT 7000 FEW007 14/13 Q1019=
201106200500 METAR LPPR 200500Z 00000KT CAVOK 13/13 Q1019=
201106200430 METAR LPPR 200430Z 33001KT CAVOK 15/14 Q1019=
201106200400 METAR LPPR 200400Z 36002KT 9999 FEW008 15/14 Q1019=
201106200330 METAR LPPR 200330Z 34005KT 9999 FEW004 SCT007 15/14 Q1019=
201106200300 METAR LPPR 200300Z 35006KT 9999 SCT004 BKN006 16/15 Q1019=
201106200230 METAR LPPR 200230Z 34008KT 9999 OVC005 16/15 Q1019=
201106200200 METAR LPPR 200200Z 34008KT 9999 OVC005 16/15 Q1019=
201106200130 METAR LPPR 200130Z 34009KT 9999 BKN005 16/15 Q1020=
201106200100 METAR LPPR 200100Z 34008KT 9999 SCT004 BKN006 16/15 Q1020=
201106200030 METAR LPPR 200030Z 34009KT 9999 SCT004 BKN006 16/16 Q1020=
201106200000 METAR LPPR 200000Z 33006KT 9999 BKN005 16/15 Q1020=
201106192330 METAR LPPR 192330Z 33008KT 9999 FEW006 SCT008 16/15 Q1020=
201106192300 METAR LPPR 192300Z 34007KT CAVOK 16/15 Q1020=
201106192230 METAR LPPR 192230Z 34007KT 310V010 CAVOK 16/15 Q1020=
201106192200 METAR LPPR 192200Z 34007KT CAVOK 17/15 Q1020=
201106192130 METAR COR LPPR 192130Z 33007KT CAVOK 17/15 Q1020=
201106192100 METAR LPPR 192100Z 33007KT CAVOK 17/15 Q1020=
201106192030 METAR LPPR 192030Z 32007KT CAVOK 17/15 Q1020=
201106192000 METAR LPPR 192000Z 32007KT CAVOK 17/15 Q1020=
201106191930 METAR LPPR 191930Z 33006KT CAVOK 18/15 Q1020=
201106191900 METAR LPPR 191900Z 32008KT CAVOK 19/15 Q1019=
201106191830 METAR LPPR 191830Z 32010KT CAVOK 19/15 Q1019=
201106191800 METAR LPPR 191800Z 32010KT 280V350 CAVOK 20/14 Q1019=
201106191730 METAR LPPR 191730Z 32011KT CAVOK 19/14 Q1020=
201106191700 METAR LPPR 191700Z 33012KT CAVOK 20/14 Q1020=
201106191630 METAR LPPR 191630Z 32012KT CAVOK 19/13 Q1020=
201106191600 METAR LPPR 191600Z 33013KT CAVOK 20/13 Q1020=
201106191530 METAR LPPR 191530Z 32013KT 290V350 CAVOK 20/12 Q1020=
201106191500 METAR LPPR 191500Z 31011KT CAVOK 20/11 Q1020=
201106191430 METAR LPPR 191430Z 32012KT CAVOK 21/11 Q1021=
201106191400 METAR LPPR 191400Z 32011KT CAVOK 21/12 Q1021=
201106191330 METAR LPPR 191330Z 31009KT 280V340 CAVOK 21/12 Q1021=
201106191300 METAR LPPR 191300Z 31009KT CAVOK 20/12 Q1021=
201106191230 METAR LPPR 191230Z 32011KT CAVOK 21/12 Q1021=
201106191200 METAR LPPR 191200Z 33010KT 290V350 CAVOK 20/11 Q1021=
201106191130 METAR LPPR 191130Z 31009KT 250V330 CAVOK 20/12 Q1021=
201106191100 METAR LPPR 191100Z 31007KT 260V350 CAVOK 21/12 Q1021=
201106191030 METAR LPPR 191030Z 30006KT 270V360 CAVOK 20/12 Q1021=
201106191000 METAR LPPR 191000Z 35008KT 310V020 CAVOK 20/11 Q1021=
201106190930 METAR LPPR 190930Z 36007KT 320V060 CAVOK 19/11 Q1021=
201106190900 METAR LPPR 190900Z 36008KT 320V040 CAVOK 18/11 Q1021=
201106190830 METAR LPPR 190830Z 35007KT CAVOK 17/11 Q1021=
201106190800 METAR LPPR 190800Z 03004KT 320V090 CAVOK 17/11 Q1021=
201106190730 METAR LPPR 190730Z 05003KT 340V140 CAVOK 16/10 Q1021=
201106190700 METAR LPPR 190700Z VRB02KT CAVOK 15/12 Q1021=
201106190630 METAR LPPR 190630Z VRB01KT CAVOK 13/12 Q1021=
201106190600 METAR LPPR 190600Z VRB02KT CAVOK 11/10 Q1021=
201106190530 METAR LPPR 190530Z 00000KT CAVOK 10/09 Q1021=
201106190500 METAR LPPR 190500Z 00000KT CAVOK 10/09 Q1021=
201106190430 METAR LPPR 190430Z 00000KT CAVOK 10/09 Q1020=
201106190400 METAR LPPR 190400Z 02003KT CAVOK 10/09 Q1020=
201106190330 METAR LPPR 190330Z VRB01KT CAVOK 10/08 Q1021=
201106190300 METAR LPPR 190300Z VRB02KT CAVOK 11/09 Q1021=
201106190230 METAR LPPR 190230Z 15002KT CAVOK 11/09 Q1021=
201106190200 METAR LPPR 190200Z VRB01KT CAVOK 11/09 Q1021=
201106190130 METAR LPPR 190130Z 00000KT CAVOK 11/10 Q1021=
201106190100 METAR LPPR 190100Z VRB02KT CAVOK 11/09 Q1021=
201106190030 METAR LPPR 190030Z 06001KT CAVOK 12/10 Q1021=
201106190000 METAR LPPR 190000Z 35003KT CAVOK 12/10 Q1021=
201106182330 METAR LPPR 182330Z 34002KT CAVOK 13/10 Q1021=
201106182300 METAR LPPR 182300Z 35003KT CAVOK 13/10 Q1021=
201106182230 METAR LPPR 182230Z 35004KT CAVOK 14/10 Q1021=
201106182200 METAR LPPR 182200Z 34007KT CAVOK 14/10 Q1022=
201106182130 METAR LPPR 182130Z 34006KT CAVOK 15/10 Q1022=
201106182100 METAR LPPR 182100Z 34008KT CAVOK 15/10 Q1022=
201106182030 METAR LPPR 182030Z 34008KT CAVOK 16/11 Q1022=
201106182000 METAR LPPR 182000Z 33009KT CAVOK 16/10 Q1022=
201106181930 METAR LPPR 181930Z 33012KT CAVOK 16/10 Q1022=
201106181900 METAR LPPR 181900Z 33013KT CAVOK 17/10 Q1022=
201106181830 METAR LPPR 181830Z 32013KT CAVOK 17/11 Q1021=
201106181800 METAR LPPR 181800Z 33014KT CAVOK 18/10 Q1021=
201106181730 METAR LPPR 181730Z 32013KT CAVOK 18/10 Q1021=
201106181700 METAR LPPR 181700Z 33014KT CAVOK 18/11 Q1021=
201106181630 METAR LPPR 181630Z 33013KT 300V360 CAVOK 18/11 Q1021=
201106181600 METAR LPPR 181600Z 32011KT 280V350 9999 FEW012 18/11 Q1022=
201106181530 METAR LPPR 181530Z 33012KT CAVOK 18/12 Q1022=
201106181500 METAR LPPR 181500Z 32011KT 280V350 9999 FEW025 18/12 Q1022=
201106181430 METAR LPPR 181430Z 32013KT 280V340 9999 FEW025 18/11 Q1022=
201106181400 METAR LPPR 181400Z 32012KT 9999 FEW025 19/11 Q1022=
201106181330 METAR LPPR 181330Z 32010KT 270V340 9999 FEW025 19/10 Q1022=
201106181300 METAR LPPR 181300Z 32011KT 290V350 9999 FEW025 19/10 Q1022=
201106181230 METAR LPPR 181230Z 32011KT 280V350 9999 FEW025 19/12 Q1022=
201106181200 METAR LPPR 181200Z 31009KT 270V340 9999 FEW019 SCT039 19/11
                        Q1022=
201106181130 METAR LPPR 181130Z 32009KT 280V350 9999 FEW017 SCT040 18/11
                        Q1022=
201106181100 METAR LPPR 181100Z 31007KT 9999 FEW025 SCT040 18/12 Q1022=
201106181030 METAR LPPR 181030Z 30006KT 260V350 9999 SCT023 BKN040 18/12
                        Q1022=
201106181000 METAR LPPR 181000Z 32006KT 270V350 9999 SCT023 BKN045 18/11
                        Q1022=
201106180930 METAR LPPR 180930Z 35007KT 9999 FEW020 SCT030 BKN048 16/11
                        Q1022=
201106180900 METAR LPPR 180900Z 35007KT 310V050 9999 FEW015 SCT045 17/10
                        Q1022=
201106180830 METAR LPPR 180830Z 36008KT 330V040 9999 FEW012 17/11 Q1022=
201106180800 METAR LPPR 180800Z 05003KT 350V130 9999 FEW012 16/11 Q1021=
201106180730 METAR LPPR 180730Z 10002KT 9999 FEW009 SCT012 15/12 Q1021=
201106180700 METAR LPPR 180700Z VRB02KT 9999 SCT023 BKN033 OVC050 13/11
                        Q1021=
201106180630 METAR LPPR 180630Z VRB01KT 9999 FEW023 SCT026 BKN045 12/11
                        Q1021=
201106180600 METAR LPPR 180600Z 13004KT 090V160 9999 FEW011 BKN027 BKN050
                        12/10 Q1020=
201106180530 METAR LPPR 180530Z 00000KT 9999 SCT011 SCT024 11/09 Q1020=
201106180500 METAR LPPR 180500Z VRB01KT 9999 SCT012 SCT026 11/09 Q1020=
201106180430 METAR LPPR 180430Z VRB01KT 9999 SCT009 SCT012 BKN048 11/09
                        Q1020=
201106180400 METAR LPPR 180400Z 00000KT 9999 FEW011 SCT027 BKN045 11/10
                        Q1020=
201106180330 METAR LPPR 180330Z 00000KT 9999 FEW010 SCT012 10/08 Q1020=
201106180300 METAR LPPR 180300Z 00000KT 9999 SCT009 SCT046 11/10 Q1020=
201106180230 METAR LPPR 180230Z 00000KT 9999 SCT011 BKN044 11/10 Q1020=
201106180200 METAR LPPR 180200Z 00000KT 9999 FEW008 SCT013 10/08 Q1020=
201106180130 METAR LPPR 180130Z 00000KT 9999 FEW007 SCT009 11/09 Q1020=
201106180100 METAR LPPR 180100Z 00000KT 9999 FEW010 SCT027 11/10 Q1020=
201106180030 METAR LPPR 180030Z 00000KT 9999 FEW026 SCT032 BKN037 11/10
                        Q1020=
201106180000 METAR LPPR 180000Z VRB02KT 9999 FEW032 BKN037 11/10 Q1020=
201106172330 METAR LPPR 172330Z 36001KT 9999 FEW013 SCT030 12/10 Q1020=
201106172300 METAR LPPR 172300Z VRB01KT 9999 FEW013 SCT030 12/11 Q1020=
201106172230 METAR LPPR 172230Z 35003KT 9999 FEW013 SCT028 12/10 Q1020=
201106172200 METAR LPPR 172200Z 34003KT 9999 FEW013 SCT025 13/11 Q1020=
201106172130 METAR LPPR 172130Z 33006KT 9999 FEW015 SCT026 14/11 Q1020=
201106172100 METAR LPPR 172100Z 33007KT 9999 SCT017 15/11 Q1019=
201106172030 METAR LPPR 172030Z 34008KT 9999 BKN020 15/12 Q1019=
201106172000 METAR LPPR 172000Z 33008KT 9999 FEW009 BKN017 16/13 Q1019=
201106171930 METAR LPPR 171930Z 33007KT 290V350 9999 FEW009 BKN013 16/14
                        Q1019=
201106171900 METAR LPPR 171900Z 33008KT 300V360 9999 FEW009 SCT014 16/14
                        Q1019=
201106171830 METAR LPPR 171830Z 33008KT 9999 FEW008 SCT015 17/14 Q1018=
201106171800 METAR LPPR 171800Z 33008KT 9999 FEW004 SCT012 BKN038 17/16
                        Q1018=
201106171730 METAR LPPR 171730Z 29006KT 210V350 7000 -DZ SCT003 BKN004
                        17/16 Q1018=
201106171700 METAR LPPR 171700Z 21007KT 190V250 2100 DZ BR BKN003 BKN006
                        17/17 Q1018=
201106171630 METAR LPPR 171630Z 19009KT 2500 DZ BR OVC003 17/17 Q1018=
201106171600 METAR LPPR 171600Z 19008KT 1900 1400N R17/1600D -DZ BR OVC003
                        17/16 Q1018=
201106171530 METAR LPPR 171530Z 20009KT 2200 -DZ BR BKN003 BKN008 17/16
                        Q1018=
201106171500 METAR LPPR 171500Z 20006KT 2000 -RADZ BR OVC004 17/16 Q1019=
201106171430 METAR LPPR 171430Z 21008KT 170V240 2600 -DZ BR SCT004 BKN007
                        17/16 Q1019=
201106171400 METAR LPPR 171400Z 22008KT 7000 SCT008 BKN011 17/16 Q1019=
201106171330 METAR LPPR 171330Z 19012KT 9999 SCT015 BKN025 18/14 Q1019=
201106171300 METAR LPPR 171300Z 20009KT 160V230 9999 FEW018 BKN030 19/14
                        Q1019=
201106171230 METAR LPPR 171230Z 19010KT 9999 SCT020 BKN035 18/14 Q1019=
201106171200 METAR LPPR 171200Z 20009KT 180V250 9999 FEW020 BKN030 19/14
                        Q1019=
201106171130 METAR LPPR 171130Z 20009KT 9999 SCT023 BKN030 18/13 Q1019=
201106171100 METAR LPPR 171100Z 20008KT 160V230 9999 SCT023 BKN029 19/13
                        Q1019=
201106171030 METAR LPPR 171030Z 21006KT 170V250 9999 FEW023 SCT027 19/13
                        Q1019=
201106171000 METAR LPPR 171000Z 20007KT 170V240 9999 FEW022 OVC072 18/13
                        Q1018=
201106170930 METAR LPPR 170930Z 21006KT 160V260 9999 FEW020 SCT030 19/13
                        Q1019=
201106170900 METAR LPPR 170900Z 21006KT 160V290 9999 SCT019 SCT031/ 18/13
                        Q1019=
201106170830 METAR LPPR 170830Z 22006KT 180V270 9999 SCT016 BKN067 17/13
                        Q1019=
201106170800 METAR LPPR 170800Z 22006KT 170V260 9999 FEW011 BKN017 17/13
                        Q1019=
201106170730 METAR LPPR 170730Z 23004KT 180V270 9999 FEW020 SCT024 17/13
                        Q1019=
201106170700 METAR LPPR 170700Z 23003KT 160V290 9999 FEW012 SCT019 16/14
                        Q1019=
201106170630 METAR LPPR 170630Z VRB02KT 9999 FEW014 15/14 Q1018=
201106170600 METAR LPPR 170600Z 00000KT 9999 SCT018 13/13 Q1018=
201106170530 METAR LPPR 170530Z 00000KT 8000 SCT016 13/12 Q1018=
201106170500 METAR LPPR 170500Z VRB01KT 9999 SCT016 13/12 Q1018=
201106170430 METAR LPPR 170430Z 00000KT 9999 FEW014 13/12 Q1018=
201106170400 METAR LPPR 170400Z VRB01KT 9999 FEW013 12/12 Q1018=
201106170330 METAR LPPR 170330Z VRB02KT 9999 FEW013 13/13 Q1018=
201106170300 METAR LPPR 170300Z 00000KT 9000 FEW013 14/14 Q1018=
201106170230 METAR LPPR 170230Z 00000KT 9999 FEW016 SCT020 14/13 Q1019=
201106170200 METAR LPPR 170200Z 31003KT 9999 FEW011 14/13 Q1019=
201106170130 METAR LPPR 170130Z 33003KT 9999 FEW009 SCT012 15/14 Q1019=
201106170100 METAR LPPR 170100Z 32003KT 9999 FEW008 BKN015 15/14 Q1019=
201106170030 METAR LPPR 170030Z 32004KT 290V350 9999 SCT008 16/15 Q1020=
201106170000 METAR LPPR 170000Z 31004KT 270V350 9999 FEW009 16/14 Q1020=
201106162330 METAR LPPR 162330Z 32004KT 290V360 9999 FEW009 16/14 Q1020=
201106162300 METAR LPPR 162300Z 33004KT CAVOK 16/14 Q1020=
201106162230 METAR LPPR 162230Z 33006KT CAVOK 16/14 Q1020=
201106162200 METAR LPPR 162200Z 33005KT CAVOK 16/14 Q1020=
201106162130 METAR LPPR 162130Z 33005KT CAVOK 16/14 Q1020=
201106162100 METAR LPPR 162100Z 33006KT CAVOK 16/14 Q1020=
201106162030 METAR LPPR 162030Z 32007KT CAVOK 16/14 Q1020=
201106162000 METAR LPPR 162000Z 33008KT 290V350 CAVOK 17/14 Q1020=
201106161930 METAR LPPR 161930Z 32008KT CAVOK 17/14 Q1020=
201106161900 METAR LPPR 161900Z 33008KT 300V360 CAVOK 18/14 Q1020=
201106161830 METAR LPPR 161830Z 33008KT 290V350 CAVOK 18/14 Q1020=
201106161800 METAR LPPR 161800Z 33009KT 280V350 CAVOK 19/14 Q1020=
201106161730 METAR LPPR 161730Z 33010KT 290V350 9999 FEW020 19/14 Q1020=
201106161700 METAR LPPR 161700Z 31009KT 280V340 9999 FEW020 19/14 Q1021=
201106161630 METAR LPPR 161630Z 32008KT 280V350 9999 FEW018 19/14 Q1021=
201106161600 METAR LPPR 161600Z 32011KT 290V350 9999 FEW018 19/14 Q1021=
201106161530 METAR LPPR 161530Z 32009KT 280V350 9999 FEW017 20/14 Q1021=
201106161500 METAR LPPR 161500Z 32010KT 270V350 9999 FEW017 20/14 Q1022=
201106161430 METAR LPPR 161430Z 32009KT 280V350 9999 FEW017 20/14 Q1022=
201106161400 METAR LPPR 161400Z 30009KT 250V340 9999 SCT016 19/14 Q1022=
201106161330 METAR LPPR 161330Z 30007KT 270V340 9999 FEW015 SCT017 20/15
                        Q1022=
201106161300 METAR LPPR 161300Z 28007KT 230V330 9999 FEW016 20/15 Q1022=
201106161230 METAR LPPR 161230Z 28007KT 230V320 9999 FEW018 20/14 Q1022=
201106161200 METAR LPPR 161200Z 31008KT 250V350 9999 FEW020 19/14 Q1022=
201106161130 METAR LPPR 161130Z 30007KT 230V340 9999 FEW020 SCT030 21/14
                        Q1022=
201106161100 METAR LPPR 161100Z 28006KT 230V340 9999 FEW020 20/14 Q1022=
201106161030 METAR LPPR 161030Z 30006KT 250V340 9999 FEW020 20/13 Q1022=
201106161000 METAR LPPR 161000Z 30006KT 260V340 9999 FEW020 SCT030 19/14
                        Q1022=
201106160930 METAR LPPR 160930Z 32006KT 260V340 9999 FEW020 SCT030 20/13
                        Q1022=
201106160900 METAR LPPR 160900Z 30004KT 270V340 9999 FEW020 SCT025 18/13
                        Q1023=
201106160830 METAR LPPR 160830Z VRB04KT 9999 FEW020 BKN030 19/13 Q1022=
201106160800 METAR LPPR 160800Z VRB03KT 9999 FEW017 BKN030 18/13 Q1022=
201106160730 METAR LPPR 160730Z VRB02KT 9999 BKN025 17/13 Q1022=
201106160700 METAR LPPR 160700Z VRB02KT 9999 BKN025 17/14 Q1022=
201106160630 METAR LPPR 160630Z VRB01KT 9999 BKN025 16/13 Q1022=
201106160600 METAR LPPR 160600Z 02003KT 340V080 9999 BKN025 15/13 Q1022=
201106160530 METAR LPPR 160530Z VRB02KT 9999 BKN025 15/13 Q1022=
201106160500 METAR LPPR 160500Z 02002KT 9999 BKN025 14/12 Q1022=
201106160430 METAR LPPR 160430Z 01001KT 9999 BKN025 13/12 Q1022=
201106160400 METAR LPPR 160400Z 05001KT 9999 SCT025 13/12 Q1022=
201106160330 METAR LPPR 160330Z VRB01KT 9999 FEW024 13/11 Q1022=
201106160300 METAR LPPR 160300Z 35002KT 9999 SCT025 15/12 Q1022=
201106160230 METAR LPPR 160230Z 33003KT 9999 BKN025 15/12 Q1022=
201106160200 METAR LPPR 160200Z 34004KT 9999 BKN025 16/12 Q1022=
201106160130 METAR LPPR 160130Z 33006KT 9999 BKN020 17/12 Q1023=
201106160100 METAR LPPR 160100Z 34006KT 9999 BKN019 17/13 Q1023=
201106160030 METAR LPPR 160030Z 32005KT 9999 BKN020 17/13 Q1023=
201106160000 METAR LPPR 160000Z 33007KT 290V350 9999 BKN018 17/13 Q1023=
201106152330 METAR LPPR 152330Z 34006KT 9999 BKN019 17/13 Q1023=
201106152300 METAR LPPR 152300Z 33006KT 300V360 9999 FEW013 BKN018 17/14
                        Q1023=
201106152230 METAR LPPR 152230Z 33005KT 9999 BKN017 17/15 Q1023=
201106152200 METAR LPPR 152200Z 32004KT 9999 BKN018 16/15 Q1023=
201106152130 METAR LPPR 152130Z 33004KT 9999 FEW012 SCT019 16/15 Q1023=
201106152100 METAR LPPR 152100Z 33005KT 9999 FEW014 SCT018 17/15 Q1023=
201106152030 METAR LPPR 152030Z 32007KT 300V360 9999 FEW007 BKN017 17/15
                        Q1023=
201106152000 METAR LPPR 152000Z 32006KT 290V350 9999 FEW010 SCT012 18/16
                        Q1023=
201106151930 METAR LPPR 151930Z 32007KT 290V350 9999 SCT017 18/16 Q1023=
201106151900 METAR LPPR 151900Z 31007KT 270V350 9999 FEW013 SCT025 19/16
                        Q1022=
201106151830 METAR LPPR 151830Z 32008KT 9999 SCT009 BKN015 19/15 Q1022=
201106151800 METAR LPPR 151800Z 29005KT 250V320 9999 SCT009 BKN012 20/17
                        Q1022=
201106151730 METAR LPPR 151730Z 29006KT 230V320 9999 SCT009 BKN010 20/17
                        Q1022=
201106151700 METAR LPPR 151700Z 27006KT 210V310 9999 SCT009 BKN010 20/17
                        Q1023=
201106151630 METAR LPPR 151630Z 28007KT 230V320 9999 SCT012 20/16 Q1022=
201106151600 METAR LPPR 151600Z 30006KT 260V360 9999 SCT012 20/16 Q1022=
201106151530 METAR LPPR 151530Z 27006KT 230V310 9999 SCT013 20/16 Q1023=
201106151500 METAR LPPR 151500Z 28006KT 210V320 9999 SCT025 21/16 Q1023=
201106151430 METAR LPPR 151430Z 27006KT 220V320 9999 SCT016 SCT030 21/16
                        Q1023=
201106151400 METAR LPPR 151400Z 29006KT 200V330 9999 FEW018 SCT035 21/16
                        Q1023=
201106151330 METAR LPPR 151330Z VRB06KT 9999 FEW017 SCT025 BKN035 22/16
                        Q1023=
201106151300 METAR LPPR 151300Z 25007KT 200V300 9999 FEW017 SCT020 OVC035
                        20/16 Q1023=
201106151230 METAR LPPR 151230Z 24007KT 210V300 9999 FEW015 BKN030 20/16
                        Q1023=
201106151200 METAR LPPR 151200Z 27007KT 220V350 9999 FEW015 BKN030 20/16
                        Q1023=
201106151130 METAR LPPR 151130Z 25006KT 210V310 9999 FEW014 BKN030 20/16
                        Q1023=
201106151100 METAR LPPR 151100Z 27006KT 230V300 9999 FEW015 BKN030 21/15
                        Q1023=
201106151030 METAR LPPR 151030Z 23003KT 130V300 9999 FEW017 BKN022 OVC031
                        20/15 Q1023=
201106151000 METAR LPPR 151000Z 15004KT 060V210 9999 FEW015 SCT020 BKN032
                        20/15 Q1023=
201106150930 METAR LPPR 150930Z 25003KT 200V290 9999 FEW013 BKN018 OVC033
                        19/15 Q1023=
201106150900 METAR LPPR 150900Z 13004KT 080V230 9999 FEW012 SCT014 OVC019
                        19/14 Q1023=
201106150830 METAR LPPR 150830Z 15005KT 120V180 9999 FEW012 SCT015 OVC025
                        18/15 Q1023=
201106150800 METAR LPPR 150800Z 10004KT 070V240 9999 FEW014 SCT017 OVC023
                        18/15 Q1023=
201106150730 METAR LPPR 150730Z 15003KT 080V180 9999 SCT014 OVC020 18/14
                        Q1023=
201106150700 METAR LPPR 150700Z 13005KT 9999 FEW017 OVC024 17/14 Q1023=
201106150630 METAR LPPR 150630Z 13005KT 9999 OVC023 17/14 Q1022=
201106150600 METAR LPPR 150600Z 11006KT 090V150 9999 OVC023 17/14 Q1022=
201106150530 METAR LPPR 150530Z 12005KT 9999 OVC023 16/14 Q1022=
201106150500 METAR LPPR 150500Z 12003KT 090V150 9999 OVC024 16/14 Q1022=
201106150430 METAR LPPR 150430Z 00000KT 9999 OVC024 16/15 Q1022=
201106150400 METAR LPPR 150400Z 00000KT R35/P2000 OVC025 15/14 Q1022=
201106150330 METAR LPPR 150330Z 00000KT 9999 BKN020 14/14 Q1022=
201106150300 METAR LPPR 150300Z 00000KT 9999 BKN020 14/14 Q1022=
201106150230 METAR LPPR 150230Z 00000KT 9999 BKN020 14/13 Q1022=
201106150200 METAR LPPR 150200Z 00000KT 9999 FEW020 14/13 Q1022=
201106150130 METAR LPPR 150130Z 00000KT 9999 FEW020 14/13 Q1022=
201106150100 METAR LPPR 150100Z 00000KT CAVOK 13/13 Q1022=
201106150030 METAR LPPR 150030Z 00000KT CAVOK 14/13 Q1022=
201106150000 METAR LPPR 150000Z 00000KT CAVOK 14/13 Q1023=
201106142330 METAR LPPR 142330Z 00000KT CAVOK 15/14 Q1023=
201106142300 METAR LPPR 142300Z 00000KT CAVOK 15/13 Q1023=
201106142230 METAR LPPR 142230Z 00000KT CAVOK 15/14 Q1023=
201106142200 METAR LPPR 142200Z VRB01KT CAVOK 15/14 Q1023=
201106142130 METAR LPPR 142130Z 33002KT CAVOK 16/14 Q1023=
201106142100 METAR LPPR 142100Z 32003KT 290V010 CAVOK 17/14 Q1023=
201106142030 METAR LPPR 142030Z 31003KT CAVOK 17/14 Q1023=
201106142000 METAR LPPR 142000Z 33005KT 290V350 CAVOK 18/14 Q1022=
201106141930 METAR LPPR 141930Z 33007KT 290V350 9999 FEW024 18/14 Q1023=
201106141900 METAR LPPR 141900Z 32006KT 280V360 9999 FEW026 19/14 Q1023=
201106141830 METAR LPPR 141830Z 31006KT 260V010 9999 FEW028 19/13 Q1022=
201106141800 METAR LPPR 141800Z 31008KT 280V340 9999 FEW025 19/13 Q1022=
201106141730 METAR LPPR 141730Z 32008KT 280V360 9999 FEW030 20/13 Q1022=
201106141700 METAR LPPR 141700Z 33010KT 290V360 9999 FEW035 20/12 Q1022=
201106141630 METAR LPPR 141630Z 33010KT 280V360 9999 FEW035 20/12 Q1022=
201106141600 METAR LPPR 141600Z 33011KT 280V360 9999 FEW030 20/12 Q1022=
201106141530 METAR LPPR 141530Z 29008KT 260V320 9999 FEW030 20/13 Q1022=
201106141500 METAR LPPR 141500Z 30008KT 270V330 9999 SCT030 20/13 Q1022=
201106141430 METAR LPPR 141430Z 30008KT 260V350 9999 FEW020 BKN030 20/13
                        Q1022=
201106141400 METAR LPPR 141400Z 30008KT 270V340 9999 BKN030 20/14 Q1022=
201106141330 METAR LPPR 141330Z 29007KT 270V330 9999 FEW020 BKN030 20/14
                        Q1022=
201106141300 METAR LPPR 141300Z 32008KT 270V350 9999 SCT020 BKN030 20/14
                        Q1022=
201106141230 METAR LPPR 141230Z 33009KT 270V360 9999 FEW020 BKN030 20/14
                        Q1022=
201106141200 METAR LPPR 141200Z 33009KT 300V360 9999 FEW020 BKN030 19/14
                        Q1022=
201106141130 METAR LPPR 141130Z 30007KT 270V340 9999 FEW020 BKN030 19/14
                        Q1022=
201106141100 METAR LPPR 141100Z 31006KT 260V350 9999 FEW020 BKN030 20/14
                        Q1022=
201106141030 METAR LPPR 141030Z 31007KT 270V350 9999 FEW018 BKN030 20/14
                        Q1022=
201106141000 METAR LPPR 141000Z 32006KT 280V350 9999 FEW015 BKN030 19/15
                        Q1022=
201106140930 METAR LPPR 140930Z 33007KT 9999 FEW012 BKN030 18/15 Q1022=
201106140900 METAR LPPR 140900Z 29006KT 9999 FEW015 BKN030 18/15 Q1022=
201106140830 METAR LPPR 140830Z 33005KT 320V020 9999 FEW015 BKN030 18/15
                        Q1022=
201106140800 METAR LPPR 140800Z 33004KT 290V360 9999 FEW015 BKN030 18/14
                        Q1022=
201106140730 METAR LPPR 140730Z 02003KT 330V070 9999 FEW015 BKN030 18/15
                        Q1021=
201106140700 METAR LPPR 140700Z 01003KT 330V070 9999 FEW015 BKN030 17/15
                        Q1021=
201106140630 METAR LPPR 140630Z 02003KT 350V050 9999 FEW012 OVC030 17/15
                        Q1021=
201106140600 METAR LPPR 140600Z 02005KT 340V060 9999 FEW012 OVC035 17/15
                        Q1021=
201106140530 METAR LPPR 140530Z 36004KT 9999 FEW015 OVC035 16/15 Q1021=
201106140500 METAR LPPR 140500Z 36006KT 9999 FEW012 OVC035 16/15 Q1021=
201106140430 METAR LPPR 140430Z 35006KT 9999 FEW012 SCT017 OVC035 17/15
                        Q1021=
201106140400 METAR LPPR 140400Z 34005KT 9999 FEW006 SCT012 OVC035 17/15
                        Q1021=
201106140330 METAR LPPR 140330Z 33004KT 290V360 9999 SCT006 SCT010 BKN035
                        17/16 Q1021=
201106140300 METAR LPPR 140300Z 32003KT 9999 FEW012 OVC035 17/16 Q1021=
201106140230 METAR LPPR 140230Z VRB02KT 9999 FEW013 OVC035 17/16 Q1021=
201106140200 METAR LPPR 140200Z 32003KT 270V360 9999 FEW010 OVC035 17/16
                        Q1021=
201106140130 METAR LPPR 140130Z 32002KT 9999 FEW012 OVC035 17/16 Q1021=
201106140100 METAR LPPR 140100Z 33003KT 9999 FEW010 OVC035 17/16 Q1022=
201106140030 METAR LPPR 140030Z 34002KT 9999 FEW010 OVC035 17/16 Q1022=
201106140000 METAR LPPR 140000Z VRB02KT 9999 FEW015 OVC035 17/16 Q1022=
201106132330 METAR LPPR 132330Z VRB02KT 9999 FEW015 BKN035 17/16 Q1022=
201106132300 METAR LPPR 132300Z VRB02KT 9999 FEW015 SCT040 18/15 Q1022=
201106132230 METAR LPPR 132230Z VRB02KT 9999 FEW015 BKN040 18/15 Q1022=
201106132200 METAR LPPR 132200Z 31003KT 270V350 9999 FEW012 BKN042 18/16
                        Q1022=
201106132130 METAR LPPR 132130Z 29003KT 220V330 9999 FEW012 BKN042 18/16
                        Q1022=
201106132100 METAR LPPR 132100Z 31003KT 280V340 9999 FEW012 BKN042 18/16
                        Q1022=
201106132030 METAR LPPR 132030Z 31003KT 280V340 9999 FEW012 BKN042 18/16
                        Q1021=
201106132000 METAR LPPR 132000Z 31004KT 9999 FEW008 SCT011 BKN042 18/17
                        Q1021=
201106131930 METAR LPPR 131930Z 30004KT 270V340 9999 FEW008 SCT011 BKN042
                        18/16 Q1022=
201106131900 METAR LPPR 131900Z 29005KT 260V330 9999 FEW008 SCT011 BKN042
                        18/17 Q1022=
201106131830 METAR LPPR 131830Z 29005KT 230V330 9999 FEW009 SCT014 BKN043
                        19/17 Q1021=
201106131800 METAR LPPR 131800Z 29005KT 9999 FEW010 SCT014 BKN043 19/17
                        Q1021=
201106131730 METAR LPPR 131730Z 30005KT 260V350 9999 FEW010 SCT014 BKN043
                        19/16 Q1021=
201106131700 METAR LPPR 131700Z 31006KT 280V350 9999 FEW009 SCT012 BKN045
                        19/16 Q1021=
201106131630 METAR LPPR 131630Z 28005KT 230V340 9999 FEW009 SCT012 BKN045
                        19/16 Q1022=
201106131600 METAR LPPR 131600Z 24007KT 200V290 9999 FEW011 BKN045 20/16
                        Q1021=
201106131530 METAR LPPR 131530Z 26006KT 180V340 9999 FEW013 BKN045 20/16
                        Q1021=
201106131500 METAR LPPR 131500Z 28005KT 190V350 9999 FEW012 BKN045 20/16
                        Q1021=
201106131430 METAR LPPR 131430Z 25008KT 200V290 9999 FEW012 BKN045 21/16
                        Q1021=
201106131400 METAR LPPR 131400Z 28006KT 230V330 9999 FEW012 BKN045 20/16
                        Q1021=
201106131330 METAR LPPR 131330Z 25008KT 210V280 9999 FEW010 SCT015 BKN050
                        20/16 Q1021=
201106131300 METAR LPPR 131300Z 24007KT 210V290 9999 SCT010 21/17 Q1021=
201106131230 METAR LPPR 131230Z 25006KT 210V320 9999 SCT009 SCT012 BKN040
                        21/17 Q1021=
201106131200 METAR LPPR 131200Z 24007KT 210V300 9999 FEW009 SCT012 BKN035
                        20/17 Q1021=
201106131130 METAR LPPR 131130Z 21006KT 160V260 9999 SCT008 SCT010 BKN030
                        19/17 Q1021=
201106131100 METAR LPPR 131100Z 20008KT 9999 BKN007 BKN014 19/17 Q1021=
201106131030 METAR LPPR 131030Z 21006KT 9999 BKN007 BKN009 18/16 Q1021=
201106131000 METAR LPPR 131000Z 19008KT 9999 BKN007 BKN015 18/16 Q1021=
201106130930 METAR LPPR 130930Z 19009KT 9999 BKN005 BKN008 17/16 Q1021=
201106130900 METAR LPPR 130900Z 19007KT 9999 BKN004 BKN006 17/16 Q1021=
201106130830 METAR LPPR 130830Z 19007KT 9999 BKN005 OVC010 17/16 Q1021=
201106130800 METAR LPPR 130800Z 17008KT 9999 SCT003 BKN005 17/16 Q1020=
201106130730 METAR LPPR 130730Z 15006KT 9999 SCT003 BKN013 BKN035 17/16
                        Q1020=
201106130700 METAR LPPR 130700Z 18004KT 150V220 1500 -RA BR SCT006 BKN009
                        16/15 Q1020=
201106130630 METAR LPPR 130630Z 13004KT 3600 -DZRA BR SCT008 BKN012 16/15
                        Q1020=
201106130600 METAR LPPR 130600Z 13005KT 7000 SCT007 BKN012 16/14 Q1020=
201106130530 METAR LPPR 130530Z 14005KT 110V170 9999 SCT009 BKN017 16/14
                        Q1020=
201106130500 METAR LPPR 130500Z 14004KT 3000 -DZRA BR FEW009 BKN012 16/15
                        Q1020=
201106130430 METAR LPPR 130430Z 13005KT 6000 FEW014 SCT025 16/14 Q1019=
201106130400 METAR LPPR 130400Z 13006KT 9999 FEW013 BKN025 16/14 Q1019=
201106130330 METAR LPPR 130330Z 12006KT 9999 SCT014 BKN030 16/14 Q1019=
201106130300 METAR LPPR 130300Z 12005KT 9999 FEW014 BKN030 16/14 Q1019=
201106130230 METAR LPPR 130230Z 12005KT 9999 SCT013 BKN030 16/14 Q1020=
201106130200 METAR LPPR 130200Z 12005KT 9999 SCT015 BKN035 17/14 Q1020=
201106130130 METAR LPPR 130130Z 11005KT 9999 FEW022 BKN040 17/14 Q1020=
201106130100 METAR LPPR 130100Z 14005KT 110V170 9999 SCT015 BKN030 17/15
                        Q1020=
201106130030 METAR LPPR 130030Z 17005KT 9999 BKN018 16/14 Q1020=
201106130000 METAR LPPR 130000Z 17005KT 9999 BKN018 16/14 Q1020=
201106122330 METAR LPPR 122330Z 16005KT 9999 BKN019 BKN023 16/14 Q1020=
201106122300 METAR LPPR 122300Z 17005KT 9999 FEW019 BKN023 15/14 Q1020=
201106122230 METAR LPPR 122230Z 17003KT 9999 SCT024 14/13 Q1020=
201106122200 METAR LPPR 122200Z 20002KT 9999 FEW020 15/14 Q1020=
201106122130 METAR LPPR 122130Z 22002KT 9999 FEW015 15/14 Q1020=
201106122100 METAR LPPR 122100Z VRB02KT 9999 FEW015 15/14 Q1020=
201106122030 METAR LPPR 122030Z VRB02KT 9999 FEW015 16/15 Q1019=
201106122000 METAR LPPR 122000Z 25003KT 190V300 9999 FEW013 17/14 Q1019=
201106121930 METAR LPPR 121930Z VRB04KT 9999 FEW013 18/15 Q1019=
201106121900 METAR LPPR 121900Z 28005KT 240V330 9999 FEW015 18/14 Q1019=
201106121830 METAR LPPR 121830Z 27005KT 210V320 9999 FEW015 18/15 Q1019=
201106121800 METAR LPPR 121800Z VRB05KT 9999 FEW025 18/14 Q1019=
201106121730 METAR LPPR 121730Z 25006KT 210V310 9999 FEW025 19/14 Q1019=
201106121700 METAR LPPR 121700Z 27005KT 220V310 9999 FEW025 19/13 Q1018=
201106121630 METAR LPPR 121630Z 23005KT 170V330 9999 FEW025 20/13 Q1019=
201106121600 METAR LPPR 121600Z 29005KT 220V330 9999 FEW025 19/13 Q1019=
201106121530 METAR LPPR 121530Z 27005KT 220V340 9999 FEW025 20/13 Q1019=
201106121500 METAR LPPR 121500Z 30006KT 250V350 9999 FEW025 19/13 Q1019=
201106121430 METAR LPPR 121430Z 30006KT 220V340 9999 FEW021 20/13 Q1019=
201106121400 METAR LPPR 121400Z 31007KT 270V340 9999 FEW019 19/13 Q1019=
201106121330 METAR LPPR 121330Z 31007KT 260V350 9999 FEW015 19/14 Q1020=
201106121300 METAR LPPR 121300Z 28007KT 230V310 9999 FEW014 18/14 Q1020=
201106121230 METAR LPPR 121230Z 28005KT 240V320 9999 FEW015 18/14 Q1020=
201106121200 METAR LPPR 121200Z 28007KT 230V320 9999 FEW015 18/13 Q1020=
201106121130 METAR LPPR 121130Z 30008KT 260V340 9999 FEW040 17/13 Q1020=
201106121100 METAR LPPR 121100Z 29009KT 260V330 9999 FEW040 17/13 Q1020=
201106121030 METAR LPPR 121030Z 26007KT 220V310 9999 FEW040 19/12 Q1019=
201106121000 METAR LPPR 121000Z 23005KT 140V280 9999 FEW040 20/13 Q1018=
201106120930 METAR LPPR 120930Z 13004KT 050V200 9999 FEW040 19/10 Q1018=
201106120900 METAR LPPR 120900Z 13005KT 090V180 9999 FEW040 19/11 Q1018=
201106120830 METAR LPPR 120830Z VRB02KT 9999 FEW040 18/12 Q1019=
201106120800 METAR LPPR 120800Z VRB02KT 9999 FEW040 18/13 Q1019=
201106120730 METAR LPPR 120730Z 13005KT 090V160 9999 FEW040 17/13 Q1019=
201106120700 METAR LPPR 120700Z 10003KT 060V140 CAVOK 15/13 Q1020=
201106120630 METAR LPPR 120630Z 11004KT 050V120 9999 FEW040 13/12 Q1019=
201106120600 METAR LPPR 120600Z 10004KT 9999 FEW040 12/12 Q1019=
201106120530 METAR LPPR 120530Z 02003KT 340V080 CAVOK 11/10 Q1020=
201106120500 METAR LPPR 120500Z 04002KT CAVOK 11/10 Q1020=
201106120430 METAR LPPR 120430Z 03002KT CAVOK 11/10 Q1019=
201106120400 METAR LPPR 120400Z 08002KT CAVOK 12/11 Q1019=
201106120330 METAR LPPR 120330Z VRB02KT CAVOK 11/10 Q1019=
201106120300 METAR LPPR 120300Z VRB01KT CAVOK 12/11 Q1019=
201106120230 METAR LPPR 120230Z VRB02KT CAVOK 11/10 Q1019=
201106120200 METAR LPPR 120200Z 31002KT CAVOK 12/10 Q1019=
201106120130 METAR LPPR 120130Z 00000KT CAVOK 12/11 Q1019=
201106120100 METAR LPPR 120100Z VRB02KT CAVOK 13/11 Q1019=
201106120030 METAR LPPR 120030Z 00000KT CAVOK 13/12 Q1019=
201106120000 METAR LPPR 120000Z 00000KT CAVOK 13/11 Q1020=
201106112330 METAR LPPR 112330Z 31001KT CAVOK 13/11 Q1020=
201106112300 METAR LPPR 112300Z VRB02KT CAVOK 14/12 Q1020=
201106112230 METAR LPPR 112230Z 32003KT 280V020 CAVOK 14/11 Q1021=
201106112200 METAR LPPR 112200Z 32004KT CAVOK 14/11 Q1021=
201106112130 METAR LPPR 112130Z 32005KT CAVOK 14/11 Q1021=
201106112100 METAR LPPR 112100Z 33006KT CAVOK 15/11 Q1021=
201106112030 METAR LPPR 112030Z 34008KT 310V010 CAVOK 15/12 Q1020=
201106112000 METAR LPPR 112000Z 33009KT CAVOK 15/12 Q1021=
201106111930 METAR LPPR 111930Z 32009KT CAVOK 16/12 Q1020=
201106111900 METAR LPPR 111900Z 33010KT 300V360 CAVOK 16/11 Q1020=
201106111830 METAR LPPR 111830Z 33012KT 290V360 CAVOK 16/12 Q1020=
201106111800 METAR LPPR 111800Z 31010KT 290V350 CAVOK 17/12 Q1020=
201106111730 METAR LPPR 111730Z 32010KT 290V350 CAVOK 18/12 Q1020=
201106111700 METAR LPPR 111700Z 34011KT CAVOK 18/11 Q1020=
201106111630 METAR LPPR 111630Z 31011KT CAVOK 18/11 Q1020=
201106111600 METAR LPPR 111600Z 31011KT CAVOK 18/10 Q1020=
201106111530 METAR LPPR 111530Z 32010KT 290V350 CAVOK 18/10 Q1020=
201106111500 METAR LPPR 111500Z 32011KT 290V350 CAVOK 18/10 Q1020=
201106111430 METAR LPPR 111430Z 32010KT 270V360 9999 FEW020 18/08 Q1020=
201106111400 METAR LPPR 111400Z 31010KT 280V340 9999 FEW020 19/08 Q1020=
201106111330 METAR LPPR 111330Z 32010KT 280V350 9999 FEW020 18/10 Q1021=
201106111300 METAR LPPR 111300Z 32009KT 260V360 9999 FEW020 18/09 Q1021=
201106111230 METAR LPPR 111230Z 31010KT 280V350 9999 FEW020 18/08 Q1021=
201106111200 METAR LPPR 111200Z 32011KT 290V350 9999 FEW020 18/10 Q1021=
201106111130 METAR LPPR 111130Z 31010KT 9999 FEW020 18/11 Q1021=
201106111100 METAR LPPR 111100Z 31008KT 270V350 9999 FEW020 17/11 Q1021=
201106111030 METAR LPPR 111030Z 29007KT 9999 FEW020 18/12 Q1021=
201106111000 METAR LPPR 111000Z 26005KT 200V320 CAVOK 18/12 Q1021=
201106110930 METAR LPPR 110930Z 29005KT 240V330 CAVOK 17/12 Q1021=
201106110900 METAR LPPR 110900Z 25004KT 210V300 CAVOK 17/12 Q1021=
201106110830 METAR LPPR 110830Z VRB03KT CAVOK 16/12 Q1021=
201106110800 METAR LPPR 110800Z VRB02KT CAVOK 16/11 Q1021=
201106110730 METAR LPPR 110730Z VRB01KT CAVOK 15/12 Q1021=
201106110700 METAR LPPR 110700Z VRB01KT CAVOK 13/11 Q1021=
201106110630 METAR LPPR 110630Z VRB01KT CAVOK 11/09 Q1021=
201106110600 METAR LPPR 110600Z 14003KT 070V230 CAVOK 11/10 Q1021=
201106110530 METAR LPPR 110530Z VRB02KT CAVOK 10/08 Q1020=
201106110500 METAR LPPR 110500Z 00000KT CAVOK 10/09 Q1020=
201106110430 METAR LPPR 110430Z 05002KT CAVOK 10/09 Q1020=
201106110400 METAR LPPR 110400Z VRB01KT CAVOK 11/10 Q1020=
201106110330 METAR LPPR 110330Z 12003KT CAVOK 10/09 Q1020=
201106110300 METAR LPPR 110300Z VRB01KT CAVOK 10/09 Q1020=
201106110230 METAR LPPR 110230Z VRB01KT CAVOK 10/09 Q1020=
201106110200 METAR LPPR 110200Z VRB02KT CAVOK 11/10 Q1020=
201106110130 METAR LPPR 110130Z 10002KT CAVOK 11/10 Q1020=
201106110100 METAR LPPR 110100Z 00000KT CAVOK 11/09 Q1020=
201106110030 METAR LPPR 110030Z VRB02KT CAVOK 12/11 Q1021=
201106110000 METAR LPPR 110000Z VRB02KT CAVOK 12/11 Q1021=
201106102330 METAR LPPR 102330Z 33004KT CAVOK 13/11 Q1021=
201106102300 METAR LPPR 102300Z 34005KT CAVOK 13/11 Q1021=
201106102230 METAR LPPR 102230Z 34007KT CAVOK 14/11 Q1021=
201106102200 METAR LPPR 102200Z 34008KT CAVOK 14/11 Q1021=
201106102130 METAR LPPR 102130Z 34009KT CAVOK 14/10 Q1021=
201106102100 METAR LPPR 102100Z 33008KT 290V350 CAVOK 14/10 Q1021=
201106102030 METAR LPPR 102030Z 33011KT CAVOK 14/11 Q1021=
201106102000 METAR LPPR 102000Z 33012KT CAVOK 15/11 Q1021=
201106101930 METAR LPPR 101930Z 32009KT CAVOK 15/11 Q1021=
201106101900 METAR LPPR 101900Z 32011KT CAVOK 16/11 Q1021=
201106101830 METAR LPPR 101830Z 32012KT CAVOK 16/12 Q1020=
201106101800 METAR LPPR 101800Z 32010KT 290V350 CAVOK 17/12 Q1020=
201106101730 METAR LPPR 101730Z 32012KT CAVOK 18/12 Q1020=
201106101700 METAR LPPR 101700Z 32013KT CAVOK 17/12 Q1020=
201106101630 METAR LPPR 101630Z 33012KT 300V360 CAVOK 17/12 Q1020=
201106101600 METAR LPPR 101600Z 32013KT CAVOK 18/11 Q1021=
201106101530 METAR LPPR 101530Z 33015KT 290V350 CAVOK 19/11 Q1021=
201106101500 METAR LPPR 101500Z 32012KT 290V350 CAVOK 19/11 Q1020=
201106101430 METAR LPPR 101430Z 33014KT 300V360 CAVOK 19/10 Q1021=
201106101400 METAR LPPR 101400Z 33016KT CAVOK 18/10 Q1021=
201106101330 METAR LPPR 101330Z 32012KT 270V350 9999 FEW020 18/10 Q1021=
201106101300 METAR LPPR 101300Z 31011KT 280V340 9999 FEW020 19/10 Q1021=
201106101230 METAR LPPR 101230Z 31010KT 270V340 9999 FEW020 19/10 Q1020=
201106101200 METAR LPPR 101200Z 31010KT 280V340 9999 FEW020 19/10 Q1021=
201106101130 METAR LPPR 101130Z 32009KT 280V350 9999 FEW020 18/11 Q1021=
201106101100 METAR LPPR 101100Z 29006KT 240V320 9999 FEW020 18/12 Q1021=
201106101030 METAR LPPR 101030Z 29006KT 250V310 9999 FEW020 17/11 Q1021=
201106101000 METAR LPPR 101000Z 29006KT 260V320 CAVOK 17/11 Q1020=
201106100930 METAR LPPR 100930Z 28005KT 220V340 CAVOK 17/11 Q1020=
201106100900 METAR LPPR 100900Z 35006KT 290V050 9999 FEW040 18/11 Q1020=
201106100830 METAR LPPR 100830Z VRB03KT 9999 FEW040 17/10 Q1020=
201106100800 METAR LPPR 100800Z VRB03KT 9999 FEW040 16/11 Q1020=
201106100730 METAR LPPR 100730Z VRB01KT 9999 FEW040 15/11 Q1020=
201106100700 METAR LPPR 100700Z 10003KT 060V130 9999 FEW045 13/12 Q1020=
201106100630 METAR LPPR 100630Z VRB02KT CAVOK 12/11 Q1020=
201106100600 METAR LPPR 100600Z VRB02KT CAVOK 10/09 Q1020=
201106100530 METAR LPPR 100530Z VRB02KT CAVOK 09/09 Q1020=
201106100500 METAR LPPR 100500Z VRB01KT CAVOK 09/09 Q1019=
201106100430 METAR LPPR 100430Z 00000KT CAVOK 10/09 Q1019=
201106100400 METAR LPPR 100400Z VRB01KT CAVOK 09/09 Q1019=
201106100330 METAR LPPR 100330Z VRB01KT CAVOK 10/10 Q1019=
201106100300 METAR LPPR 100300Z 00000KT CAVOK 10/10 Q1019=
201106100230 METAR LPPR 100230Z 09001KT CAVOK 11/10 Q1019=
201106100200 METAR LPPR 100200Z 02001KT CAVOK 10/10 Q1019=
201106100130 METAR LPPR 100130Z 00000KT CAVOK 10/10 Q1019=
201106100100 METAR LPPR 100100Z 09001KT CAVOK 11/11 Q1019=
201106100030 METAR LPPR 100030Z 00000KT CAVOK 11/10 Q1020=
201106100000 METAR LPPR 100000Z 00000KT CAVOK 12/10 Q1020=
201106092330 METAR LPPR 092330Z VRB02KT CAVOK 11/10 Q1020=
201106092300 METAR LPPR 092300Z 33001KT CAVOK 13/11 Q1020=
201106092230 METAR LPPR 092230Z 35002KT 9999 SCT048 13/10 Q1020=
201106092200 METAR LPPR 092200Z 36004KT 9999 SCT048 14/10 Q1020=
201106092130 METAR LPPR 092130Z 01004KT 9999 SCT040 14/11 Q1020=
201106092100 METAR LPPR 092100Z 34003KT 9999 FEW040 14/11 Q1019=
201106092030 METAR LPPR 092030Z 33006KT 9999 FEW040 15/11 Q1019=
201106092000 METAR LPPR 092000Z 34005KT 9999 FEW040 15/11 Q1019=
201106091930 METAR LPPR 091930Z 32004KT 290V350 9999 FEW040 15/11 Q1019=
201106091900 METAR LPPR 091900Z 31004KT 250V020 9999 FEW040 16/11 Q1019=
201106091830 METAR LPPR 091830Z 33005KT 250V360 9999 FEW040 16/11 Q1019=
201106091800 METAR LPPR 091800Z 30005KT 260V330 9999 FEW040 16/11 Q1019=
201106091730 METAR LPPR 091730Z 30005KT 240V330 9999 FEW040 16/11 Q1018=
201106091700 METAR LPPR 091700Z 29005KT 250V330 9999 FEW040 17/11 Q1019=
201106091630 METAR LPPR 091630Z 29004KT 230V320 9999 FEW030 16/10 Q1019=
201106091600 METAR LPPR 091600Z 29006KT 230V340 9999 FEW030 16/10 Q1019=
201106091530 METAR LPPR 091530Z 28005KT 220V340 9999 FEW030 17/10 Q1019=
201106091500 METAR LPPR 091500Z 29006KT 250V320 9999 FEW030 17/10 Q1019=
201106091430 METAR LPPR 091430Z 28005KT 220V320 9999 FEW030 16/10 Q1019=
201106091400 METAR LPPR 091400Z 28005KT 230V320 9999 FEW025 SCT045 16/10
                        Q1019=
201106091330 METAR LPPR 091330Z 28005KT 190V330 9999 -RA FEW020 SCT045
                        16/09 Q1019=
201106091300 METAR LPPR 091300Z 26006KT 210V310 9999 FEW025 SCT045 16/09
                        Q1019=
201106091230 METAR LPPR 091230Z 26004KT 210V330 9999 -RA FEW025 SCT045
                        16/11 Q1019=
201106091200 METAR LPPR 091200Z 26005KT 210V320 9999 FEW025 SCT045 16/09
                        Q1019=
201106091130 METAR LPPR 091130Z 24005KT 180V290 9999 FEW030 SCT045 17/09
                        Q1018=
201106091100 METAR LPPR 091100Z VRB04KT 9999 FEW020 SCT045 17/09 Q1018=
201106091030 METAR LPPR 091030Z 26005KT 210V290 9999 FEW025 SCT045 16/10
                        Q1018=
201106091000 METAR LPPR 091000Z VRB04KT 9999 FEW025 SCT040 17/09 Q1018=
201106090930 METAR LPPR 090930Z VRB03KT 9999 FEW020 16/09 Q1018=
201106090900 METAR LPPR 090900Z VRB02KT 9999 FEW025 SCT045 15/09 Q1018=
201106090830 METAR LPPR 090830Z VRB02KT 9999 FEW020 SCT045 14/11 Q1018=
201106090800 METAR LPPR 090800Z VRB02KT 9999 FEW025 SCT045 14/11 Q1018=
201106090730 METAR LPPR 090730Z VRB01KT 9000 -RA SCT030 BKN040 13/11 Q1018=
201106090700 METAR LPPR 090700Z 09002KT 9000 -RA SCT030 BKN045 BKN090
                        13/11 Q1018=
201106090630 METAR LPPR 090630Z 11003KT 070V140 8000 -RA FEW040 BKN080
                        12/11 Q1018=
201106090600 METAR LPPR 090600Z 10003KT 030V160 CAVOK 12/11 Q1018=
201106090530 METAR LPPR 090530Z 00000KT CAVOK 10/10 Q1018=
201106090500 METAR LPPR 090500Z 00000KT CAVOK 11/10 Q1017=
201106090430 METAR LPPR 090430Z 00000KT CAVOK 10/09 Q1017=
201106090400 METAR LPPR 090400Z 00000KT CAVOK 10/09 Q1017=
201106090330 METAR LPPR 090330Z 00000KT CAVOK 10/09 Q1017=
201106090300 METAR LPPR 090300Z 00000KT CAVOK 10/09 Q1017=
201106090230 METAR LPPR 090230Z 00000KT CAVOK 10/09 Q1018=
201106090200 METAR LPPR 090200Z 00000KT CAVOK 10/09 Q1018=
201106090130 METAR LPPR 090130Z 00000KT CAVOK 10/09 Q1018=
201106090100 METAR LPPR 090100Z 00000KT CAVOK 10/09 Q1018=
201106090030 METAR LPPR 090030Z 00000KT CAVOK 11/10 Q1018=
201106090000 METAR LPPR 090000Z 00000KT CAVOK 11/09 Q1018=
201106082330 METAR LPPR 082330Z 00000KT CAVOK 12/10 Q1018=
201106082300 METAR LPPR 082300Z 33003KT CAVOK 12/09 Q1018=
201106082230 METAR LPPR 082230Z 33003KT CAVOK 13/10 Q1019=
201106082200 METAR LPPR 082200Z 33003KT CAVOK 13/10 Q1019=
201106082130 METAR LPPR 082130Z 32005KT CAVOK 14/10 Q1019=
201106082100 METAR LPPR 082100Z 32004KT CAVOK 14/10 Q1019=
201106082030 METAR LPPR 082030Z 32004KT 280V350 CAVOK 14/10 Q1019=
201106082000 METAR LPPR 082000Z 32005KT 270V350 CAVOK 15/10 Q1018=
201106081930 METAR LPPR 081930Z 32006KT 270V350 CAVOK 15/10 Q1018=
201106081900 METAR LPPR 081900Z 33008KT 290V350 9999 FEW026 16/10 Q1018=
201106081830 METAR LPPR 081830Z 31006KT 270V350 9999 FEW025 16/10 Q1018=
201106081800 METAR LPPR 081800Z 31008KT 270V340 9999 FEW025 16/10 Q1018=
201106081730 METAR LPPR 081730Z 32009KT 270V360 CAVOK 17/10 Q1018=
201106081700 METAR LPPR 081700Z 32011KT 280V360 CAVOK 16/09 Q1018=
201106081630 METAR LPPR 081630Z 31011KT 270V350 CAVOK 17/09 Q1018=
201106081600 METAR LPPR 081600Z 31010KT 270V360 CAVOK 17/08 Q1018=
201106081530 METAR LPPR 081530Z 32010KT 270V360 9999 FEW018 17/06 Q1018=
201106081500 METAR LPPR 081500Z 32013KT 270V350 9999 FEW018 17/07 Q1018=
201106081430 METAR LPPR 081430Z 32012KT 290V360 9999 FEW018 17/07 Q1018=
201106081400 METAR LPPR 081400Z 31010KT 260V350 9999 FEW040 17/08 Q1018=
201106081330 METAR LPPR 081330Z 31011KT 270V340 9999 FEW040 17/08 Q1018=
201106081300 METAR LPPR 081300Z 30009KT 260V340 9999 FEW040 17/08 Q1018=
201106081230 METAR LPPR 081230Z 30009KT 270V330 9999 FEW040 17/10 Q1018=
201106081200 METAR LPPR 081200Z 32010KT 250V350 9999 FEW040 18/09 Q1018=
201106081130 METAR LPPR 081130Z 31010KT 280V350 9999 SCT040 17/08 Q1018=
201106081100 METAR LPPR 081100Z 31009KT 270V340 9999 SCT040 17/08 Q1018=
201106081030 METAR LPPR 081030Z 32011KT 290V350 9999 FEW005 SCT040 17/09
                        Q1018=
201106081000 METAR LPPR 081000Z 32010KT 290V350 9999 FEW015 SCT040 16/08
                        Q1018=
201106080930 METAR LPPR 080930Z 31008KT 270V350 9999 FEW015 17/08 Q1018=
201106080900 METAR LPPR 080900Z 32007KT 270V350 9999 FEW015 16/08 Q1018=
201106080830 METAR LPPR 080830Z 01009KT 320V030 CAVOK 16/06 Q1018=
201106080800 METAR LPPR 080800Z 35006KT 300V060 CAVOK 15/08 Q1018=
201106080730 METAR LPPR 080730Z 35007KT 340V050 CAVOK 14/08 Q1017=
201106080700 METAR LPPR 080700Z 01005KT 330V030 CAVOK 13/08 Q1017=
201106080630 METAR LPPR 080630Z 36003KT 320V020 CAVOK 12/09 Q1017=
201106080600 METAR LPPR 080600Z 34003KT 300V030 CAVOK 10/08 Q1017=
201106080530 METAR LPPR 080530Z 36003KT 330V050 CAVOK 09/08 Q1017=
201106080500 METAR LPPR 080500Z VRB01KT CAVOK 09/07 Q1017=
201106080430 METAR LPPR 080430Z 35003KT 330V030 CAVOK 10/08 Q1016=
201106080400 METAR LPPR 080400Z 35003KT CAVOK 10/08 Q1016=
201106080330 METAR LPPR 080330Z 36003KT CAVOK 10/08 Q1016=
201106080300 METAR LPPR 080300Z 35004KT CAVOK 11/09 Q1016=
201106080230 METAR LPPR 080230Z 35005KT CAVOK 11/09 Q1016=
201106080200 METAR LPPR 080200Z 33007KT CAVOK 12/10 Q1016=
201106080130 METAR LPPR 080130Z 33007KT CAVOK 13/10 Q1016=
201106080100 METAR LPPR 080100Z 34007KT CAVOK 13/10 Q1016=
201106080030 METAR LPPR 080030Z 33009KT CAVOK 13/11 Q1016=
201106080000 METAR LPPR 080000Z 33010KT CAVOK 14/11 Q1016=
201106072330 METAR LPPR 072330Z 34010KT CAVOK 13/10 Q1016=
201106072300 METAR LPPR 072300Z 34009KT 310V010 CAVOK 13/10 Q1016=
201106072230 METAR LPPR 072230Z 34009KT CAVOK 14/10 Q1016=
201106072200 METAR LPPR 072200Z 34010KT 310V010 CAVOK 14/09 Q1016=
201106072130 METAR LPPR 072130Z 33012KT CAVOK 14/09 Q1016=
201106072100 METAR LPPR 072100Z 34012KT CAVOK 14/10 Q1015=
201106072030 METAR LPPR 072030Z 33012KT CAVOK 14/09 Q1015=
201106072000 METAR LPPR 072000Z 33013KT CAVOK 15/10 Q1015=
201106071930 METAR LPPR 071930Z 33013KT 9999 FEW025 15/09 Q1014=
201106071900 METAR LPPR 071900Z 32013KT 9999 FEW020 15/10 Q1014=
201106071830 METAR LPPR 071830Z 33015KT 9999 FEW017 16/11 Q1014=
201106071800 METAR LPPR 071800Z 33013KT 290V360 9999 FEW025 16/11 Q1014=
201106071730 METAR LPPR 071730Z 33015KT 9999 FEW025 16/11 Q1014=
201106071700 METAR LPPR 071700Z 33018KT 9999 FEW025 16/12 Q1014=
201106071630 METAR LPPR 071630Z 33016KT 300V360 9999 FEW025 17/11 Q1014=
201106071600 METAR LPPR 071600Z 33019KT 9999 FEW025 17/11 Q1014=
201106071530 METAR LPPR 071530Z 33015KT 300V360 9999 FEW025 17/11 Q1014=
201106071500 METAR LPPR 071500Z 33015KT 9999 FEW025 17/10 Q1014=
201106071430 METAR LPPR 071430Z 34015KT 300V360 CAVOK 17/10 Q1013=
201106071400 METAR LPPR 071400Z 33017KT 290V350 CAVOK 16/11 Q1013=
201106071330 METAR LPPR 071330Z 33016KT 290V350 CAVOK 17/10 Q1013=
201106071300 METAR LPPR 071300Z 33016KT 9999 FEW040 18/09 Q1013=
201106071230 METAR LPPR 071230Z 33012KT 290V360 9999 FEW040 18/10 Q1013=
201106071200 METAR LPPR 071200Z 33015KT 290V360 9999 FEW030 17/11 Q1013=
201106071130 METAR LPPR 071130Z 33016KT 290V350 9999 FEW035 16/10 Q1013=
201106071100 METAR LPPR 071100Z 32016KT 290V350 9999 FEW030 17/10 Q1013=
201106071030 METAR LPPR 071030Z 32013KT 280V350 9999 FEW030 17/10 Q1013=
201106071000 METAR LPPR 071000Z 32011KT 270V360 9999 FEW025 17/10 Q1013=
201106070930 METAR LPPR 070930Z 32012KT 9999 FEW025 16/09 Q1013=
201106070900 METAR LPPR 070900Z 32011KT 290V350 9999 FEW025 16/09 Q1013=
201106070830 METAR LPPR 070830Z 32012KT 300V360 9999 FEW025 16/10 Q1013=
201106070800 METAR LPPR 070800Z 35013KT 320V020 9999 FEW025 16/07 Q1013=
201106070730 METAR LPPR 070730Z 35012KT 9999 FEW040 15/07 Q1012=
201106070700 METAR LPPR 070700Z 34010KT 9999 FEW040 14/07 Q1012=
201106070630 METAR LPPR 070630Z 34011KT 9999 FEW040 13/07 Q1012=
201106070600 METAR LPPR 070600Z 34010KT 9999 FEW040 13/07 Q1012=
201106070530 METAR LPPR 070530Z 34009KT 9999 FEW040 12/08 Q1011=
201106070500 METAR LPPR 070500Z 34009KT 9999 FEW040 13/09 Q1011=
201106070430 METAR LPPR 070430Z 34010KT 9999 SCT040 13/09 Q1011=
201106070400 METAR LPPR 070400Z 35010KT 9999 BKN040 13/10 Q1011=
201106070330 METAR LPPR 070330Z 34010KT 9999 SCT040 13/10 Q1011=
201106070300 METAR LPPR 070300Z 34011KT 9999 FEW040 13/11 Q1011=
201106070230 METAR LPPR 070230Z 34008KT 9999 FEW040 13/11 Q1010=
201106070200 METAR LPPR 070200Z 33011KT 9999 FEW040 14/10 Q1010=
201106070130 METAR LPPR 070130Z 34011KT 9999 FEW040 14/10 Q1010=
201106070100 METAR LPPR 070100Z 33011KT CAVOK 14/11 Q1010=
201106070030 METAR LPPR 070030Z 34012KT CAVOK 14/11 Q1010=
201106070000 METAR LPPR 070000Z 33013KT 9999 FEW040 14/11 Q1010=
201106062330 METAR LPPR 062330Z 34014KT 9999 FEW030 14/11 Q1010=
201106062300 METAR LPPR 062300Z 34014KT 9999 FEW030 14/11 Q1010=
201106062230 METAR LPPR 062230Z 33013KT 9999 FEW030 15/11 Q1010=
201106062200 METAR LPPR 062200Z 34014KT 9999 FEW015 SCT040 15/11 Q1010=
201106062130 METAR LPPR 062130Z 34014KT 9999 FEW015 SCT040 15/11 Q1010=
201106062100 METAR LPPR 062100Z 33013KT 9999 FEW015 SCT049 15/12 Q1010=
201106062030 METAR LPPR 062030Z 34015KT 9999 FEW013 15/12 Q1009=
201106062000 METAR LPPR 062000Z 34016KT 9999 FEW013 FEW025CB 15/12 Q1009=
201106061930 METAR LPPR 061930Z 33016KT 9999 FEW012 FEW025CB 16/12 Q1009=
201106061900 METAR LPPR 061900Z 33017KT 9999 FEW012 FEW025CB 16/12 Q1009=
201106061830 METAR LPPR 061830Z 33015G25KT 300V360 9999 FEW011 FEW025CB
                        17/12 Q1008=
201106061800 METAR LPPR 061800Z 33016G26KT 9999 FEW012 FEW025CB 17/13
                        Q1008=
201106061730 METAR LPPR 061730Z 33016G27KT 9999 FEW020 FEW025CB 17/13
                        Q1008=
201106061700 METAR LPPR 061700Z 33016KT 300V360 9999 FEW020 FEW025CB 18/13
                        Q1008=
201106061630 METAR LPPR 061630Z 32016KT 9999 FEW020 FEW025CB 18/13 Q1008=
201106061600 METAR LPPR 061600Z 32015KT 290V360 9999 FEW020 FEW025CB 19/13
                        Q1008=
201106061530 METAR LPPR 061530Z 32017KT 9999 FEW020 FEW025CB 18/14 Q1008=
201106061500 METAR LPPR 061500Z 32016KT 290V350 9999 FEW020 FEW025CB 19/14
                        Q1008=
201106061430 METAR LPPR 061430Z 32015KT 290V350 9999 FEW020 FEW025CB 20/15
                        Q1008=
201106061400 METAR LPPR 061400Z 32012KT 290V350 9999 FEW020 FEW025CB 20/14
                        Q1008=
201106061330 METAR LPPR 061330Z 32013KT 290V350 9999 FEW020 FEW025CB 19/14
                        Q1008=
201106061300 METAR LPPR 061300Z 32012KT 280V350 9999 FEW020 FEW025CB 20/15
                        Q1008=
201106061230 METAR LPPR 061230Z 32011KT 280V350 9999 FEW025 20/15 Q1008=
201106061200 METAR LPPR 061200Z 32009KT 270V360 9999 FEW025 SCT045 20/15
                        Q1008=
201106061130 METAR LPPR 061130Z 31008KT 280V350 9999 FEW020 BKN040 19/15
                        Q1008=
201106061100 METAR LPPR 061100Z 32008KT 290V350 9999 FEW020 BKN040 19/15
                        Q1008=
201106061030 METAR LPPR 061030Z 33009KT 9999 FEW018 BKN035 19/15 Q1008=
201106061000 METAR LPPR 061000Z 31008KT 270V350 9999 SCT015 BKN035 20/15
                        Q1008=
201106060930 METAR LPPR 060930Z 30004KT 250V350 9000 FEW009 SCT015 OVC030
                        18/15 Q1008=
201106060900 METAR LPPR 060900Z 31003KT 260V340 6000 FEW008 SCT015 OVC030
                        18/15 Q1008=
201106060830 METAR LPPR 060830Z 34003KT 4000 BR FEW005 SCT016 OVC025 17/16
                        Q1008=
201106060800 METAR LPPR 060800Z 33004KT 300V010 3300 BR FEW007 SCT013
                        OVC018 17/16 Q1008=
201106060730 METAR LPPR 060730Z 33005KT 6000 FEW008 SCT015 OVC020 17/15
                        Q1008=
201106060700 METAR LPPR 060700Z 33004KT 6000 FEW009 SCT015 OVC020 17/15
                        Q1008=
201106060630 METAR LPPR 060630Z 33003KT 4500 BR FEW007 BKN015 OVC022 16/15
                        Q1007=
201106060600 METAR LPPR 060600Z 33005KT 4500 BR SCT006 BKN010 OVC017 16/15
                        Q1007=
201106060530 METAR LPPR 060530Z 32005KT 6000 SCT007 BKN009 OVC018 16/15
                        Q1007=
201106060500 METAR LPPR 060500Z 34004KT 8000 SCT009 BKN011 OVC018 16/15
                        Q1007=
201106060430 METAR LPPR 060430Z 16003KT 120V190 9999 BKN009 BKN013 17/15
                        Q1007=
201106060400 METAR LPPR 060400Z 16005KT 9999 BKN012 BKN017 17/15 Q1007=
201106060330 METAR LPPR 060330Z 17006KT 9999 SCT009 BKN012 OVC015 17/15
                        Q1007=
201106060300 METAR LPPR 060300Z 17007KT 9999 OVC010 17/15 Q1007=
201106060230 METAR LPPR 060230Z 16007KT 9999 OVC010 17/15 Q1007=
201106060200 METAR LPPR 060200Z 16008KT 9999 SCT008 OVC011 17/15 Q1007=
201106060130 METAR LPPR 060130Z 17008KT 9999 SCT009 OVC011 17/15 Q1007=
201106060100 METAR LPPR 060100Z 17009KT 9999 SCT009 OVC011 17/15 Q1007=
201106060030 METAR LPPR 060030Z 15009KT 9999 SCT009 OVC012 17/15 Q1007=
201106060000 METAR LPPR 060000Z 15008KT 9999 BKN009 17/15 Q1007=
201106052330 METAR LPPR 052330Z 15009KT 9999 BKN009 17/15 Q1007=
201106052300 METAR LPPR 052300Z 15009KT 9999 BKN008 17/15 Q1007=
201106052230 METAR LPPR 052230Z 17006KT 9999 BKN008 16/15 Q1007=
201106052200 METAR LPPR 052200Z 20006KT 9000 BKN008 BKN009 17/15 Q1007=
201106052130 METAR LPPR 052130Z 20007KT 9000 BKN008 BKN009 17/15 Q1007=
201106052100 METAR LPPR 052100Z 21005KT 170V240 9000 BKN008 17/15 Q1007=
201106052030 METAR LPPR 052030Z 22006KT 180V260 8000 BKN008 SCT012 17/15
                        Q1007=
201106052000 METAR LPPR 052000Z 25005KT 200V300 7000 SCT008 17/15 Q1007=
201106051930 METAR LPPR 051930Z 29005KT 230V320 8000 FEW008 17/15 Q1007=
201106051900 METAR LPPR 051900Z 31007KT 270V340 8000 SCT009 FEW025CB 17/15
                        Q1006=
201106051830 METAR LPPR 051830Z 31009KT 270V350 8000 BKN009 FEW025CB 17/15
                        Q1006=
201106051800 METAR LPPR 051800Z 32008KT 270V350 7000 BKN008 FEW025CB 17/15
                        Q1006=
201106051730 METAR LPPR 051730Z 31009KT 270V350 9999 FEW009 FEW025CB 18/15
                        Q1007=
201106051700 METAR LPPR 051700Z 32009KT 290V350 9999 FEW008 FEW025CB 19/15
                        Q1007=
201106051630 METAR LPPR 051630Z 31011KT 280V350 9999 FEW020 FEW025CB 19/15
                        Q1007=
201106051600 METAR LPPR 051600Z 33011KT 290V350 9999 FEW020 FEW025CB 20/15
                        Q1007=
201106051530 METAR LPPR 051530Z 32009KT 280V350 9999 FEW020 FEW025CB 20/16
                        Q1007=
201106051500 METAR LPPR 051500Z 31007KT 260V350 9999 FEW020 FEW025CB 20/16
                        Q1007=
201106051430 METAR LPPR 051430Z 29008KT 270V330 9999 FEW020 FEW025CB 21/16
                        Q1007=
201106051400 METAR LPPR 051400Z 29007KT 9999 FEW020 FEW025CB 21/16 Q1007=
201106051330 METAR LPPR 051330Z 32008KT 280V350 9999 FEW020 FEW025CB 21/16
                        Q1008=
201106051300 METAR LPPR 051300Z 31007KT 270V350 9999 FEW020 FEW025CB 22/15
                        Q1008=
201106051230 METAR LPPR 051230Z 31008KT 270V340 9999 FEW020 FEW025CB/
                        22/15 Q1008=
201106051200 METAR LPPR 051200Z 30007KT 260V340 9999 FEW020 FEW025CB 22/15
                        Q1008=
201106051130 METAR LPPR 051130Z 30006KT 270V340 9999 FEW020 FEW025CB 22/14
                        Q1008=
201106051100 METAR LPPR 051100Z 27006KT 230V350 9999 FEW025 22/14 Q1008=
201106051030 METAR LPPR 051030Z 27005KT 190V300 9999 FEW025 22/15 Q1008=
201106051000 METAR LPPR 051000Z 29005KT 260V320 CAVOK 22/15 Q1009=
201106050930 METAR LPPR 050930Z 26006KT 220V310 CAVOK 21/15 Q1008=
201106050900 METAR LPPR 050900Z 26004KT 210V320 CAVOK 22/15 Q1008=
201106050830 METAR LPPR 050830Z 27003KT 200V360 CAVOK 22/16 Q1009=
201106050800 METAR LPPR 050800Z 29003KT 260V330 CAVOK 21/16 Q1009=
201106050730 METAR LPPR 050730Z 05003KT 350V080 CAVOK 20/15 Q1009=
201106050700 METAR LPPR 050700Z VRB02KT CAVOK 20/14 Q1008=
201106050630 METAR LPPR 050630Z VRB01KT CAVOK 19/14 Q1008=
201106050600 METAR LPPR 050600Z VRB01KT CAVOK 17/14 Q1008=
201106050530 METAR LPPR 050530Z 00000KT CAVOK 15/12 Q1008=
201106050500 METAR LPPR 050500Z VRB02KT CAVOK 16/13 Q1008=
201106050430 METAR LPPR 050430Z 36002KT CAVOK 15/13 Q1008=
201106050400 METAR LPPR 050400Z 00000KT CAVOK 15/13 Q1008=
201106050330 METAR LPPR 050330Z 00000KT CAVOK 15/13 Q1008=
201106050300 METAR LPPR 050300Z 03002KT CAVOK 16/14 Q1008=
201106050230 METAR LPPR 050230Z 00000KT CAVOK 16/14 Q1009=
201106050200 METAR LPPR 050200Z VRB01KT CAVOK 16/14 Q1009=
201106050130 METAR LPPR 050130Z 00000KT CAVOK 16/14 Q1009=
201106050100 METAR LPPR 050100Z 00000KT CAVOK 17/14 Q1009=
201106050030 METAR LPPR 050030Z 01002KT CAVOK 17/14 Q1009=
201106050000 METAR LPPR 050000Z VRB01KT CAVOK 17/15 Q1010=
201106042330 METAR LPPR 042330Z VRB02KT CAVOK 18/14 Q1010=
201106042300 METAR LPPR 042300Z 00000KT CAVOK 18/14 Q1010=
201106042230 METAR LPPR 042230Z 00000KT CAVOK 19/14 Q1010=
201106042200 METAR LPPR 042200Z VRB02KT CAVOK 18/15 Q1010=
201106042130 METAR LPPR 042130Z 00000KT CAVOK 18/15 Q1011=
201106042100 METAR LPPR 042100Z 28003KT 260V320 CAVOK 19/15 Q1010=
201106042030 METAR LPPR 042030Z 27002KT CAVOK 21/14 Q1010=
201106042000 METAR LPPR 042000Z 33003KT CAVOK 23/12 Q1010=
201106041930 METAR LPPR 041930Z 35007KT CAVOK 24/11 Q1010=
201106041900 METAR LPPR 041900Z 35009KT CAVOK 25/11 Q1011=
201106041830 METAR LPPR 041830Z 34011KT CAVOK 26/09 Q1010=
201106041800 METAR LPPR 041800Z 34008KT 9999 FEW030CB 26/09 Q1011=
201106041730 METAR LPPR 041730Z 35010G20KT 9999 FEW030CB 26/09 Q1011=
201106041700 METAR LPPR 041700Z 35009KT 320V020 9999 FEW030CB 24/11 Q1011=
201106041630 METAR LPPR 041630Z 34011KT 9999 FEW030CB 24/10 Q1011=
201106041600 METAR LPPR 041600Z 33010KT 9999 FEW030CB 25/11 Q1011=
201106041530 METAR LPPR 041530Z 32009KT 290V360 9999 FEW020 FEW030CB 28/12
                        Q1011=
201106041500 METAR LPPR 041500Z 34014KT 9999 FEW020 FEW030CB 27/10 Q1012=
201106041430 METAR LPPR 041430Z 32011KT 290V350 9999 FEW020 FEW025CB 25/12
                        Q1012=
201106041400 METAR LPPR 041400Z 33010KT 290V360 9999 FEW020 FEW030CB 25/12
                        Q1012=
201106041330 METAR LPPR 041330Z 32010KT 290V350 9999 FEW020 FEW030CB 25/13
                        Q1012=
201106041300 METAR LPPR 041300Z 31008KT 270V330 9999 FEW020 FEW025TCU
                        25/13 Q1013=
201106041230 METAR LPPR 041230Z 29006KT 250V330 9999 FEW020 FEW025TCU
                        24/12 Q1013=
201106041200 METAR LPPR 041200Z 29007KT 9999 FEW020 26/12 Q1013=
201106041130 METAR LPPR 041130Z 28006KT 230V310 9999 FEW020 25/11 Q1013=
201106041100 METAR LPPR 041100Z VRB05KT 9999 FEW020 28/10 Q1013=
201106041030 METAR LPPR 041030Z 11006KT 070V170 9999 FEW020 27/10 Q1013=
201106041000 METAR LPPR 041000Z 10007KT 060V120 CAVOK 27/11 Q1013=
201106040930 METAR LPPR 040930Z 11007KT 050V140 CAVOK 26/11 Q1013=
201106040900 METAR LPPR 040900Z 10011KT CAVOK 25/10 Q1013=
201106040830 METAR LPPR 040830Z 10013KT CAVOK 25/10 Q1013=
201106040800 METAR LPPR 040800Z 11010G20KT CAVOK 24/10 Q1013=
201106040730 METAR LPPR 040730Z 10007KT 080V160 CAVOK 22/11 Q1013=
201106040700 METAR LPPR 040700Z 10009KT CAVOK 22/10 Q1013=
201106040630 METAR LPPR 040630Z 10008KT CAVOK 21/10 Q1013=
201106040600 METAR LPPR 040600Z 11009KT 090V170 CAVOK 20/10 Q1013=
201106040530 METAR LPPR 040530Z 10008KT CAVOK 18/11 Q1013=
201106040500 METAR LPPR 040500Z 10007KT CAVOK 18/12 Q1013=
201106040430 METAR LPPR 040430Z 10009KT CAVOK 18/12 Q1013=
201106040400 METAR LPPR 040400Z 10005KT CAVOK 17/12 Q1013=
201106040330 METAR LPPR 040330Z 08004KT CAVOK 17/12 Q1013=
201106040300 METAR LPPR 040300Z 08005KT 050V120 CAVOK 17/12 Q1013=
201106040230 METAR LPPR 040230Z 07003KT 010V120 CAVOK 17/12 Q1013=
201106040200 METAR LPPR 040200Z VRB02KT CAVOK 19/11 Q1013=
201106040130 METAR LPPR 040130Z 07003KT 010V120 CAVOK 18/12 Q1014=
201106040100 METAR LPPR 040100Z VRB02KT CAVOK 17/12 Q1014=
201106040030 METAR LPPR 040030Z 06003KT CAVOK 18/12 Q1014=
201106040000 METAR LPPR 040000Z VRB02KT CAVOK 17/13 Q1014=
201106032330 METAR LPPR 032330Z VRB01KT CAVOK 16/13 Q1014=
201106032300 METAR LPPR 032300Z 12004G18KT 090V170 CAVOK 16/13 Q1014=
201106032230 METAR LPPR 032230Z 00000KT CAVOK 16/14 Q1015=
201106032200 METAR LPPR 032200Z 00000KT CAVOK 16/15 Q1015=
201106032130 METAR LPPR 032130Z 24002KT CAVOK 17/15 Q1015=
201106032100 METAR LPPR 032100Z 31002KT CAVOK 18/14 Q1015=
201106032030 METAR LPPR 032030Z 34005KT CAVOK 20/13 Q1015=
201106032000 METAR LPPR 032000Z 35006KT 9999 FEW025 20/12 Q1014=
201106031930 METAR LPPR 031930Z 35007KT 9999 FEW025 21/12 Q1014=
201106031900 METAR COR LPPR 031900Z 33008KT 9999 FEW025 21/12 Q1014=
201106031830 METAR LPPR 031830Z 34008KT CAVOK 21/11 Q1014=
201106031800 METAR LPPR 031800Z 33009KT 300V360 9999 FEW025 22/11 Q1015=
201106031730 METAR LPPR 031730Z 33010KT 290V360 9999 FEW025 22/11 Q1015=
201106031700 METAR LPPR 031700Z 32009KT 290V350 9999 FEW025 23/11 Q1015=
201106031630 METAR LPPR 031630Z 32010KT 290V350 CAVOK 24/10 Q1015=
201106031600 METAR LPPR 031600Z 32012KT CAVOK 24/10 Q1015=
201106031530 METAR LPPR 031530Z 33014KT CAVOK 23/10 Q1015=
201106031500 METAR LPPR 031500Z 34012KT CAVOK 23/11 Q1015=
201106031430 METAR LPPR 031430Z 32013KT 290V350 CAVOK 24/10 Q1016=
201106031400 METAR LPPR 031400Z 32010KT 280V350 CAVOK 24/11 Q1016=
201106031330 METAR LPPR 031330Z 33010KT 300V010 CAVOK 24/11 Q1016=
201106031300 METAR LPPR 031300Z 01010KT 340V060 CAVOK 27/08 Q1016=
201106031230 METAR LPPR 031230Z 03012KT CAVOK 26/08 Q1016=
201106031200 METAR LPPR 031200Z 02011KT CAVOK 25/08 Q1017=
201106031130 METAR LPPR 031130Z 02008KT 320V080 CAVOK 25/08 Q1017=
201106031100 METAR LPPR 031100Z 04009KT 010V080 CAVOK 25/08 Q1017=
201106031030 METAR LPPR 031030Z 07008KT 030V110 CAVOK 24/09 Q1017=
201106031000 METAR LPPR 031000Z 08010KT 050V110 CAVOK 23/09 Q1017=
201106030930 METAR LPPR 030930Z 09011KT 050V110 CAVOK 23/08 Q1017=
201106030900 METAR LPPR 030900Z 09012G22KT 050V150 CAVOK 22/09 Q1017=
201106030830 METAR LPPR 030830Z 09012KT 060V120 CAVOK 21/08 Q1018=
201106030800 METAR LPPR 030800Z 09012KT 040V120 CAVOK 20/08 Q1017=
201106030730 METAR LPPR 030730Z 08011KT 040V110 CAVOK 20/08 Q1018=
201106030700 METAR LPPR 030700Z 09011KT 060V120 CAVOK 19/07 Q1018=
201106030630 METAR LPPR 030630Z 08011KT CAVOK 18/07 Q1018=
201106030600 METAR LPPR 030600Z 09010KT 050V130 CAVOK 18/07 Q1018=
201106030530 METAR LPPR 030530Z 08011KT CAVOK 18/07 Q1017=
201106030500 METAR LPPR 030500Z 08008KT CAVOK 18/07 Q1017=
201106030430 METAR LPPR 030430Z 10009KT CAVOK 18/07 Q1017=
201106030400 METAR LPPR 030400Z 09008KT CAVOK 18/07 Q1017=
201106030330 METAR LPPR 030330Z 10010KT CAVOK 19/07 Q1017=
201106030300 METAR LPPR 030300Z 10009KT CAVOK 19/07 Q1017=
201106030230 METAR LPPR 030230Z 10011KT CAVOK 19/08 Q1018=
201106030200 METAR LPPR 030200Z 10008KT CAVOK 20/08 Q1018=
201106030130 METAR LPPR 030130Z 09008KT 060V120 CAVOK 20/08 Q1018=
201106030100 METAR LPPR 030100Z 08007KT 050V110 CAVOK 21/08 Q1018=
201106030030 METAR LPPR 030030Z 10007KT CAVOK 21/07 Q1018=
201106030000 METAR LPPR 030000Z 10006KT CAVOK 21/08 Q1018=
201106022330 METAR LPPR 022330Z 09006KT CAVOK 17/10 Q1018=
201106022300 METAR LPPR 022300Z 10004KT CAVOK 16/11 Q1018=
201106022230 METAR LPPR 022230Z VRB01KT CAVOK 17/10 Q1018=
201106022200 METAR LPPR 022200Z 00000KT CAVOK 17/10 Q1018=
201106022130 METAR LPPR 022130Z VRB02KT CAVOK 18/10 Q1017=
201106022100 METAR LPPR 022100Z VRB02KT CAVOK 19/10 Q1017=
201106022030 METAR LPPR 022030Z VRB02KT CAVOK 20/10 Q1017=
201106022000 METAR LPPR 022000Z 33005KT CAVOK 22/09 Q1017=
201106021930 METAR LPPR 021930Z 34006KT CAVOK 22/09 Q1017=
201106021900 METAR LPPR 021900Z 34005KT CAVOK 23/09 Q1017=
201106021830 METAR LPPR 021830Z 32006KT CAVOK 22/13 Q1017=
201106021800 METAR LPPR 021800Z 32007KT 290V350 CAVOK 22/12 Q1017=
201106021730 METAR LPPR 021730Z 33007KT 300V360 CAVOK 23/11 Q1017=
201106021700 METAR LPPR 021700Z 32008KT 270V340 CAVOK 24/09 Q1018=
201106021630 METAR LPPR 021630Z 33010KT CAVOK 23/11 Q1018=
201106021600 METAR LPPR 021600Z 32011KT 290V350 CAVOK 24/09 Q1018=
201106021530 METAR LPPR 021530Z 31009KT 280V340 CAVOK 23/08 Q1018=
201106021500 METAR LPPR 021500Z 31010KT 260V340 CAVOK 22/08 Q1019=
201106021430 METAR LPPR 021430Z 29008KT 260V330 CAVOK 23/09 Q1019=
201106021400 METAR LPPR 021400Z 29007KT 260V330 CAVOK 23/08 Q1019=
201106021330 METAR LPPR 021330Z 27009KT CAVOK 26/07 Q1019=
201106021300 METAR LPPR 021300Z 12009KT 090V150 CAVOK 26/06 Q1020=
201106021230 METAR LPPR 021230Z 10008KT 050V150 CAVOK 24/06 Q1020=
201106021200 METAR LPPR 021200Z 07008KT 020V140 CAVOK 24/05 Q1020=
201106021130 METAR LPPR 021130Z 09010KT 050V120 CAVOK 24/06 Q1021=
201106021100 METAR LPPR 021100Z 09013KT 060V120 CAVOK 23/05 Q1021=
201106021030 METAR LPPR 021030Z 11013KT CAVOK 22/05 Q1021=
201106021000 METAR LPPR 021000Z 08011KT 050V110 CAVOK 22/04 Q1022=
201106020930 METAR LPPR 020930Z 08012KT 040V110 CAVOK 21/04 Q1022=
201106020900 METAR LPPR 020900Z 07013KT CAVOK 20/04 Q1022=
201106020830 METAR LPPR 020830Z 08012KT 050V120 CAVOK 19/03 Q1022=
201106020800 METAR LPPR 020800Z 07010KT 030V100 CAVOK 18/03 Q1022=
201106020730 METAR LPPR 020730Z 07009KT 040V120 CAVOK 18/03 Q1022=
201106020700 METAR LPPR 020700Z 08008KT 050V110 CAVOK 16/01 Q1023=
201106020630 METAR LPPR 020630Z 06009KT 020V110 CAVOK 16/00 Q1022=
201106020600 METAR LPPR 020600Z 06009KT CAVOK 15/00 Q1022=
201106020530 METAR LPPR 020530Z 07012KT CAVOK 15/00 Q1022=
201106020500 METAR LPPR 020500Z 07009KT 030V100 CAVOK 15/01 Q1022=
201106020430 METAR LPPR 020430Z 07008KT 030V090 CAVOK 16/00 Q1022=
201106020400 METAR LPPR 020400Z 08009KT CAVOK 16/01 Q1022=
201106020330 METAR LPPR 020330Z 09012KT CAVOK 17/01 Q1022=
201106020300 METAR LPPR 020300Z 09012KT CAVOK 17/01 Q1022=
201106020230 METAR LPPR 020230Z 09010KT CAVOK 18/03 Q1022=
201106020200 METAR LPPR 020200Z 10009KT CAVOK 18/04 Q1022=
201106020130 METAR LPPR 020130Z 08009KT CAVOK 19/05 Q1022=
201106020100 METAR LPPR 020100Z 10007KT CAVOK 20/05 Q1022=
201106020030 METAR LPPR 020030Z 10007KT CAVOK 18/05 Q1022=
201106020000 METAR LPPR 020000Z 05004KT CAVOK 16/06 Q1022=
201106012330 METAR LPPR 012330Z 04004KT CAVOK 17/07 Q1022=
201106012300 METAR LPPR 012300Z 01003KT CAVOK 17/07 Q1022=
201106012230 METAR LPPR 012230Z 36002KT CAVOK 18/07 Q1022=
201106012200 METAR LPPR 012200Z 01003KT 360V060 CAVOK 17/09 Q1022=
201106012130 METAR LPPR 012130Z 36003KT CAVOK 18/08 Q1022=
201106012100 METAR LPPR 012100Z 02003KT 350V080 CAVOK 19/08 Q1022=
201106012030 METAR LPPR 012030Z 01003KT 290V100 CAVOK 21/06 Q1021=
201106012000 METAR LPPR 012000Z 09004KT 350V140 CAVOK 24/02 Q1021=
201106011930 METAR LPPR 011930Z 09005G17KT 020V140 CAVOK 26/02 Q1021=
201106011900 METAR LPPR 011900Z 08007KT 050V140 CAVOK 27/02 Q1021=
201106011830 METAR LPPR 011830Z 08009KT 060V120 CAVOK 27/01 Q1021=
201106011800 METAR LPPR 011800Z 09010KT 060V120 CAVOK 27/03 Q1021=
201106011730 METAR LPPR 011730Z 10008KT 050V130 CAVOK 27/04 Q1021=
201106011700 METAR LPPR 011700Z 08009KT 030V120 CAVOK 27/03 Q1021=
201106011630 METAR LPPR 011630Z 07012KT 040V110 CAVOK 27/03 Q1021=
201106011600 METAR LPPR 011600Z 09011KT 050V130 CAVOK 27/02 Q1021=
201106011530 METAR LPPR 011530Z 06013KT 030V090 CAVOK 27/01 Q1021=
201106011500 METAR LPPR 011500Z 08011KT 040V120 CAVOK 27/02 Q1021=
201106011430 METAR LPPR 011430Z 08011KT CAVOK 26/02 Q1022=
201106011400 METAR LPPR 011400Z 06012KT 020V090 CAVOK 26/04 Q1022=
201106011330 METAR LPPR 011330Z 06008KT 020V110 CAVOK 25/05 Q1022=
201106011300 METAR LPPR 011300Z 06012G22KT 010V100 CAVOK 24/07 Q1022=
201106011230 METAR LPPR 011230Z 08011KT 040V110 CAVOK 24/06 Q1023=
201106011200 METAR LPPR 011200Z 07013KT 040V100 CAVOK 23/05 Q1023=
201106011130 METAR LPPR 011130Z 08012KT 050V120 CAVOK 23/07 Q1023=
201106011100 METAR LPPR 011100Z 08012KT 050V110 CAVOK 22/05 Q1023=
201106011030 METAR LPPR 011030Z 08011KT 050V110 CAVOK 21/06 Q1023=
201106011000 METAR LPPR 011000Z 06014KT CAVOK 21/06 Q1023=
201106010930 METAR LPPR 010930Z 08012KT 040V110 CAVOK 20/05 Q1023=
201106010900 METAR LPPR 010900Z 10012KT 070V130 CAVOK 19/05 Q1024=
201106010830 METAR LPPR 010830Z 11012KT 070V130 CAVOK 19/06 Q1024=
201106010800 METAR LPPR 010800Z 10014KT 040V130 CAVOK 18/05 Q1023=
201106010730 METAR LPPR 010730Z 10014KT 050V120 CAVOK 18/06 Q1023=
201106010700 METAR LPPR 010700Z 10015KT 060V130 CAVOK 17/06 Q1023=
201106010630 METAR LPPR 010630Z 09014KT 060V120 CAVOK 17/06 Q1023=
201106010600 METAR LPPR 010600Z 09013KT 060V130 CAVOK 16/06 Q1023=
201106010530 METAR LPPR 010530Z 08008KT 050V120 CAVOK 16/06 Q1022=
201106010500 METAR LPPR 010500Z 09010KT 050V120 CAVOK 17/06 Q1022=
201106010430 METAR LPPR 010430Z 09011KT CAVOK 17/06 Q1022=
201106010400 METAR LPPR 010400Z 09013KT CAVOK 17/06 Q1022=
201106010330 METAR LPPR 010330Z 09009KT 050V120 CAVOK 18/07 Q1022=
201106010300 METAR LPPR 010300Z 09008KT 060V120 CAVOK 18/08 Q1022=
201106010230 METAR LPPR 010230Z 09011KT CAVOK 19/08 Q1022=
201106010200 METAR LPPR 010200Z 10008KT 060V120 CAVOK 17/09 Q1022=
201106010130 METAR LPPR 010130Z 09006KT 050V130 CAVOK 18/10 Q1022=
201106010100 METAR LPPR 010100Z 07006KT CAVOK 18/10 Q1022=
201106010030 METAR LPPR 010030Z 05009KT CAVOK 19/10 Q1022=
201106010000 METAR LPPR 010000Z 05007KT CAVOK 18/09 Q1022=

</pre>

</body>
</html>
