##########################################################
# Query made at 11/07/2014 14:31:51 UTC
# Time interval: from 06/01/2008 00:00  to 07/01/2008 23:59  UTC
##########################################################

##########################################################
# LPPR, Porto / Pedras Rubras (Portugal)
# WMO index: 08545
# Latitude 41-14N. Longitude 008-41W. Altitude 69 m.
##########################################################

###################################
#  METAR/SPECI from LPPR
###################################
200807012330 METAR LPPR 012330Z 20006KT 9999 SCT004 SCT005 BKN013 19/18
                        Q1016=
200807012300 METAR LPPR 012300Z 21005KT 180V240 7000 -RA BR SCT004 BKN005
                        BKN013 19/18 Q1017=
200807012230 METAR LPPR 012230Z 20005KT 9999 BKN005 BKN013 19/18 Q1016=
200807012200 METAR LPPR 012200Z 22004KT 190V260 9999 BKN005 BKN013 19/18
                        Q1017=
200807012130 METAR LPPR 012130Z 21004KT 170V230 9999 BKN005 BKN013 19/18
                        Q1017=
200807012100 METAR LPPR 012100Z 20004KT 9999 SCT005 SCT008 BKN013 19/18
                        Q1017=
200807012030 METAR LPPR 012030Z VRB03KT 9999 SCT005 SCT007 BKN015 18/18
                        Q1017=
200807012000 METAR LPPR 012000Z VRB03KT 7000 -RA SCT003 SCT005 BKN011
                        18/18 Q1017=
200807011930 METAR LPPR 011930Z 25006KT 220V300 2000 -RADZ BR SCT001 BKN007
                        19/17 Q1017=
200807011900 METAR LPPR 011900Z 25004KT 210V280 9999 SCT008 BKN020 20/17
                        Q1017=
200807011830 METAR LPPR 011830Z 25005KT 210V290 9999 FEW008 SCT012 BKN018
                        20/16 Q1017=
200807011800 METAR LPPR 011800Z 25004KT 200V290 9999 FEW017 BKN250 21/17
                        Q1017=
200807011730 METAR LPPR 011730Z 26006KT 220V290 9999 FEW020 BKN250 21/16
                        Q1017=
200807011700 METAR LPPR 011700Z 27006KT 170V300 9999 FEW020 SCT250 22/17
                        Q1017=
200807011630 METAR LPPR 011630Z 28005KT 220V320 9999 FEW020 SCT090 22/16
                        Q1017=
200807011600 METAR LPPR 011600Z 29007KT 250V320 9999 FEW020 BKN090 22/16
                        Q1018=
200807011530 METAR LPPR 011530Z 30007KT 260V340 9999 FEW020 BKN090 22/16
                        Q1017=
200807011500 METAR LPPR 011500Z 28005KT 230V340 9999 FEW020 SCT030 BKN090
                        22/16 Q1017=
200807011430 METAR LPPR 011430Z 28007KT 9999 FEW020 SCT030 BKN090 22/16
                        Q1018=
200807011400 METAR LPPR 011400Z 29008KT 250V330 9999 FEW020 SCT030 BKN090
                        22/16 Q1018=
200807011330 METAR LPPR 011330Z 28008KT 250V040 9999 FEW020 SCT030 BKN090
                        20/16 Q1018=
200807011300 METAR LPPR 011300Z 30009KT 250V340 9999 FEW040 SCT090 BKN250
                        21/15 Q1018=
200807011230 METAR LPPR 011230Z 28008KT 9999 FEW015 SCT030 BKN250 20/15
                        Q1018=
200807011200 METAR LPPR 011200Z 29008KT 260V350 9999 FEW015 SCT030 BKN250
                        20/15 Q1018=
200807011130 METAR LPPR 011130Z 27007KT 240V330 9999 FEW015 SCT030 BKN250
                        21/15 Q1018=
200807011100 METAR LPPR 011100Z 30007KT 260V020 9999 FEW015 SCT030 BKN250
                        20/15 Q1018=
200807011030 METAR LPPR 011030Z 28007KT 250V320 9999 FEW015 SCT030 BKN250
                        20/15 Q1018=
200807011000 METAR LPPR 011000Z 28006KT 240V320 9999 FEW015 SCT030 20/15
                        Q1018=
200807010930 METAR LPPR 010930Z 28006KT 250V030 9999 FEW015 SCT030 20/16
                        Q1018=
200807010900 METAR LPPR 010900Z 01004KT 320V060 9999 FEW015 SCT030 19/14
                        Q1018=
200807010830 METAR LPPR 010830Z 04004KT 350V080 9999 SCT013 BKN016 19/15
                        Q1018=
200807010800 METAR LPPR 010800Z 01006KT 330V050 9999 SCT013 BKN016 18/14
                        Q1018=
200807010730 METAR LPPR 010730Z 35004KT 9999 SCT012 BKN016 17/15 Q1018=
200807010700 METAR LPPR 010700Z 33005KT 9999 SCT012 BKN016 17/15 Q1018=
200807010630 METAR LPPR 010630Z 32003KT 9999 SCT010 BKN013 17/15 Q1017=
200807010600 METAR LPPR 010600Z 33004KT 9999 SCT010 BKN013 17/15 Q1017=
200807010530 METAR LPPR 010530Z 32005KT 290V350 9999 BKN009 BKN013 17/15
                        Q1017=
200807010500 METAR LPPR 010500Z 32005KT 9999 BKN006 BKN008 17/15 Q1017=
200807010430 METAR LPPR 010430Z 32005KT 290V350 9999 BKN007 BKN009 17/16
                        Q1017=
200807010400 METAR LPPR 010400Z 31006KT 9000 BKN007 BKN009 17/16 Q1017=
200807010330 METAR LPPR 010330Z 32004KT 290V350 8000 BKN005 BKN008 17/17
                        Q1017=
200807010300 METAR LPPR 010300Z 32005KT 290V360 7000 BKN005 BKN008 17/17
                        Q1017=
200807010230 METAR LPPR 010230Z 32005KT 6000 BKN003 BKN006 16/16 Q1017=
200807010200 METAR LPPR 010200Z VRB03KT 6000 BKN003 BKN006 16/16 Q1017=
200807010130 METAR LPPR 010130Z 32005KT 290V360 6000 BKN003 BKN006 16/16
                        Q1017=
200807010100 METAR LPPR 010100Z 32005KT 3000 BR BKN001 BKN003 16/16 Q1018=
200807010030 METAR LPPR 010030Z 33006KT 300V360 2000 BR BKN001 BKN002
                        16/16 Q1018=
200807010000 METAR LPPR 010000Z 32005KT 2000 BR BKN001 BKN002 16/16 Q1018=
200806302330 METAR LPPR 302330Z 32008KT 1500 BR BKN000 BKN001 16/16 Q1018=
200806302300 METAR LPPR 302300Z 33007KT 1500 BR BKN000 BKN001 16/16 Q1019=
200806302230 METAR LPPR 302230Z 31006KT 270V340 1500 BR SCT000 BKN001
                        17/17 Q1019=
200806302200 METAR LPPR 302200Z 30005KT 270V330 1500 BR BKN001 SCT002
                        17/17 Q1018=
200806302130 METAR LPPR 302130Z 33005KT 1500 BR BKN001 SCT002 17/17 Q1018=
200806302100 METAR LPPR 302100Z 33007KT 290V360 1500 BR BKN001 BKN002
                        17/17 Q1018=
200806302030 METAR LPPR 302030Z 33009KT 300V010 1500 BR BKN001 BKN002
                        17/17 Q1018=
200806302000 METAR LPPR 302000Z 32006KT 1500 BR BKN001 BKN002 17/17 Q1018=
200806301930 METAR LPPR 301930Z 31006KT 260V330 2000 BR SCT002 BKN004
                        18/17 Q1017=
200806301900 METAR LPPR 301900Z 31005KT 270V350 3000 BR FEW003 BKN005
                        18/17 Q1017=
200806301830 METAR LPPR 301830Z 30007KT 260V330 8000 SCT006 19/17 Q1017=
200806301800 METAR LPPR 301800Z 28007G17KT 260V330 9999 SCT006 20/17 Q1017=
200806301730 METAR LPPR 301730Z 28008KT 260V340 9999 FEW006 20/16 Q1017=
200806301700 METAR LPPR 301700Z 28007KT 240V320 9999 FEW005 21/17 Q1017=
200806301630 METAR LPPR 301630Z 30007KT 250V350 CAVOK 21/17 Q1017=
200806301600 METAR LPPR 301600Z 28007KT 250V340 CAVOK 21/16 Q1017=
200806301530 METAR LPPR 301530Z 29008KT CAVOK 21/16 Q1017=
200806301500 METAR LPPR 301500Z 29009KT 260V320 CAVOK 21/16 Q1017=
200806301430 METAR LPPR 301430Z 28006KT 260V330 CAVOK 22/17 Q1017=
200806301400 METAR LPPR 301400Z 28006KT 250V320 CAVOK 21/17 Q1017=
200806301330 METAR LPPR 301330Z 28006KT 230V340 9999 FEW005 22/17 Q1017=
200806301300 METAR LPPR 301300Z 25005G15KT 190V340 9999 FEW005 22/17 Q1018=
200806301230 METAR LPPR 301230Z 23004KT 160V300 9999 FEW005 21/18 Q1018=
200806301200 METAR LPPR 301200Z 21004KT 170V320 8000 FEW007 20/17 Q1018=
200806301130 METAR LPPR 301130Z VRB03KT 3000 BR FEW004 BKN006 19/17 Q1018=
200806301100 METAR LPPR 301100Z 26005KT 200V320 0900 R17/P1500 R35/P1500
                        PRFG FEW001 BKN002 18/17 Q1019=
200806301030 METAR LPPR 301030Z 25005KT 220V280 0900 R17/P1500 R35/P1500
                        PRFG FEW00/ CHECK TEXT NEW ENDING
                        ADDED LPPRYFYX=
200806301000 METAR LPPR 301000Z 26005KT 230V290 0900 R17/P1500 R35/P1500
                        FG FEW002 BKN004 18/17 Q1018=
200806300930 METAR LPPR 300930Z 27007G17KT 190V290 0800 R17/P1500 R35/P1500
                        FG FEW002 BKN003 18/16 Q1018=
200806300900 METAR LPPR 300900Z VRB03KT 4000 BR FEW005 19/17 Q1018=
200806300830 METAR LPPR 300830Z VRB03KT 4000 BR FEW005 18/17 Q1018=
200806300800 METAR LPPR 300800Z 22004KT 180V260 4000 BR FEW005 17/17 Q1018=
200806300730 METAR LPPR 300730Z VRB03KT 1500 R17/1400VP1500 R35/P1500
                        BR VCFG SCT001 BKN002 17/17 Q1018=
200806300700 METAR LPPR 300700Z 20004KT 170V240 0500 R17/P1500 R35/1400VP1500
                        FG BKN001 17/16 Q1018=
200806300630 METAR LPPR 300630Z VRB03KT 7000 SKC 17/16 Q1018=
200806300600 METAR LPPR 300600Z 00000KT CAVOK 16/16 Q1017=
200806300530 METAR LPPR 300530Z VRB03KT CAVOK 16/16 Q1017=
200806300500 METAR LPPR 300500Z 18005KT CAVOK 17/16 Q1017=
200806300430 METAR LPPR 300430Z 13004KT CAVOK 17/16 Q1017=
200806300400 METAR LPPR 300400Z 13004KT CAVOK 17/16 Q1017=
200806300330 METAR LPPR 300330Z 14005KT CAVOK 17/16 Q1017=
200806300300 METAR LPPR 300300Z 15005KT CAVOK 17/16 Q1017=
200806300230 METAR LPPR 300230Z 15005KT CAVOK 17/16 Q1017=
200806300200 METAR LPPR 300200Z 17006KT CAVOK 16/16 Q1017=
200806300130 METAR LPPR 300130Z 17008KT CAVOK 17/16 Q1017=
200806300100 METAR LPPR 300100Z 17009KT CAVOK 17/16 Q1017=
200806300030 METAR LPPR 300030Z 17008KT CAVOK 17/16 Q1017=
200806300000 METAR LPPR 300000Z 17008KT CAVOK 17/16 Q1017=
200806292330 METAR LPPR 292330Z 17008KT CAVOK 17/16 Q1018=
200806292300 METAR LPPR 292300Z 20007KT CAVOK 17/16 Q1018=
200806292230 METAR LPPR 292230Z VRB03KT CAVOK 17/15 Q1017=
200806292200 METAR LPPR 292200Z 00000KT CAVOK 18/16 Q1017=
200806292130 METAR LPPR 292130Z 00000KT CAVOK 17/15 Q1017=
200806292100 METAR LPPR 292100Z VRB03KT CAVOK 18/15 Q1017=
200806292030 METAR LPPR 292030Z 23003KT CAVOK 19/16 Q1017=
200806292000 METAR LPPR 292000Z VRB02KT CAVOK 20/16 Q1017=
200806291930 METAR LPPR 291930Z 31005KT CAVOK 21/16 Q1017=
200806291900 METAR LPPR 291900Z 28006KT 230V300 CAVOK 22/16 Q1016=
200806291830 METAR LPPR 291830Z 28004KT 260V320 CAVOK 24/17 Q1016=
200806291800 METAR LPPR 291800Z 28004KT 240V320 CAVOK 24/17 Q1016=
200806291730 METAR LPPR 291730Z 30006KT CAVOK 25/17 Q1016=
200806291700 METAR LPPR 291700Z 31008G20KT 290V350 CAVOK 25/17 Q1016=
200806291630 METAR LPPR 291630Z 29007KT 260V330 CAVOK 25/17 Q1016=
200806291600 METAR LPPR 291600Z 30007G17KT 260V330 CAVOK 26/17 Q1017=
200806291530 METAR LPPR 291530Z 27007KT 240V330 CAVOK 25/17 Q1017=
200806291500 METAR LPPR 291500Z 27008KT CAVOK 26/17 Q1017=
200806291430 METAR LPPR 291430Z 33007KT 290V350 CAVOK 27/17 Q1017=
200806291400 METAR LPPR 291400Z 32007KT 280V350 CAVOK 26/17 Q1017=
200806291330 METAR LPPR 291330Z 30008KT 250V360 CAVOK 25/17 Q1018=
200806291300 METAR LPPR 291300Z 32006KT 290V350 CAVOK 24/17 Q1018=
200806291230 METAR LPPR 291230Z 32009KT 280V350 CAVOK 22/16 Q1018=
200806291200 METAR LPPR 291200Z 31008KT 270V330 CAVOK 21/17 Q1018=
200806291130 METAR LPPR 291130Z 28007KT CAVOK 22/17 Q1018=
200806291100 METAR LPPR 291100Z 26004KT 220V310 CAVOK 22/18 Q1018=
200806291030 METAR LPPR 291030Z 29004KT 260V320 CAVOK 21/18 Q1018=
200806291000 METAR LPPR 291000Z 33004KT 300V360 8000 BKN250 21/18 Q1017=
200806290930 METAR LPPR 290930Z 32004KT 290V350 8000 BKN250 20/18 Q1017=
200806290900 METAR LPPR 290900Z 30004KT 240V340 8000 BKN250 18/17 Q1017=
200806290830 METAR LPPR 290830Z 27004KT 230V320 8000 BKN250 20/17 Q1017=
200806290800 METAR LPPR 290800Z 23004KT 190V260 8000 FEW100 BKN250 20/17
                        Q1017=
200806290730 METAR LPPR 290730Z 20004KT 160V230 8000 FEW080 BKN250 19/17
                        Q1017=
200806290700 METAR LPPR 290700Z 19007KT 7000 FEW080 BKN250 18/18 Q1017=
200806290630 METAR LPPR 290630Z 17004KT 130V190 6000 FEW080 SCT250 17/17
                        Q1017=
200806290600 METAR LPPR 290600Z 18007KT 3000 BR SCT001 SCT080 17/17 Q1017=
200806290530 METAR LPPR 290530Z 18005KT 3000 BR SCT001 SCT004 17/17 Q1017=
200806290500 METAR LPPR 290500Z 20007KT 5000 BR FEW001 SCT004 17/17 Q1017=
200806290430 METAR LPPR 290430Z 20006KT 8000 FEW100 17/16 Q1017=
200806290400 METAR LPPR 290400Z 22004KT 190V260 CAVOK 17/16 Q1017=
200806290330 METAR LPPR 290330Z 18005KT CAVOK 17/16 Q1017=
200806290300 METAR LPPR 290300Z 15004KT CAVOK 17/16 Q1016=
200806290230 METAR LPPR 290230Z 14004KT CAVOK 17/16 Q1017=
200806290200 METAR LPPR 290200Z 17004KT 8000 SKC 16/16 Q1017=
200806290130 METAR LPPR 290130Z VRB03KT 8000 SKC 17/16 Q1017=
200806290100 METAR LPPR 290100Z 19006KT CAVOK 18/16 Q1017=
200806290030 METAR LPPR 290030Z 17008KT CAVOK 17/16 Q1017=
200806290000 METAR LPPR 290000Z 00000KT CAVOK 17/16 Q1017=
200806282330 METAR LPPR 282330Z 00000KT CAVOK 17/16 Q1017=
200806282300 METAR LPPR 282300Z 00000KT CAVOK 17/16 Q1017=
200806282230 METAR LPPR 282230Z 00000KT CAVOK 17/16 Q1017=
200806282200 METAR LPPR 282200Z 00000KT CAVOK 17/16 Q1017=
200806282130 METAR LPPR 282130Z 00000KT CAVOK 18/15 Q1017=
200806282100 METAR LPPR 282100Z 26002KT CAVOK 19/16 Q1017=
200806282030 METAR LPPR 282030Z 30003KT CAVOK 20/16 Q1017=
200806282000 METAR LPPR 282000Z 31004KT CAVOK 21/16 Q1017=
200806281930 METAR LPPR 281930Z 33006KT CAVOK 24/16 Q1017=
200806281900 METAR LPPR 281900Z 34006KT CAVOK 25/16 Q1017=
200806281830 METAR LPPR 281830Z 33007KT CAVOK 25/16 Q1017=
200806281800 METAR LPPR 281800Z 32007KT 260V010 CAVOK 25/16 Q1017=
200806281730 METAR LPPR 281730Z 31007KT CAVOK 27/16 Q1016=
200806281700 METAR LPPR 281700Z 31008KT CAVOK 28/14 Q1016=
200806281630 METAR LPPR 281630Z 32009KT CAVOK 29/14 Q1017=
200806281600 METAR LPPR 281600Z 32010KT 290V350 CAVOK 30/12 Q1017=
200806281530 METAR LPPR 281530Z 33010KT CAVOK 30/13 Q1017=
200806281500 METAR LPPR 281500Z 33012KT CAVOK 30/12 Q1017=
200806281430 METAR LPPR 281430Z 33011KT CAVOK 30/13 Q1017=
200806281400 METAR LPPR 281400Z 32012KT 290V350 CAVOK 29/13 Q1017=
200806281330 METAR LPPR 281330Z 33010KT CAVOK 29/13 Q1017=
200806281300 METAR LPPR 281300Z 32009KT 280V340 CAVOK 29/16 Q1017=
200806281230 METAR LPPR 281230Z 31008KT 290V350 CAVOK 30/16 Q1018=
200806281200 METAR LPPR 281200Z 32007KT 280V340 CAVOK 29/17 Q1018=
200806281130 METAR LPPR 281130Z 31006KT CAVOK 30/18 Q1018=
200806281100 METAR LPPR 281100Z 31006KT CAVOK 30/18 Q1018=
200806281030 METAR LPPR 281030Z 31004KT 270V360 CAVOK 29/18 Q1018=
200806281000 METAR LPPR 281000Z 07005KT 030V120 CAVOK 30/08 Q1018=
200806280930 METAR LPPR 280930Z 07005KT 020V110 CAVOK 29/10 Q1018=
200806280900 METAR LPPR 280900Z 08006KT 040V140 CAVOK 28/11 Q1018=
200806280830 METAR LPPR 280830Z 07004KT 330V130 CAVOK 27/13 Q1018=
200806280800 METAR LPPR 280800Z VRB03KT CAVOK 25/17 Q1018=
200806280730 METAR LPPR 280730Z 00000KT 8000 SKC 23/18 Q1018=
200806280700 METAR LPPR 280700Z 32003KT 8000 SKC 19/18 Q1018=
200806280630 METAR LPPR 280630Z 00000KT 6000 SKC 18/18 Q1018=
200806280600 METAR LPPR 280600Z 00000KT 7000 SKC 17/17 Q1018=
200806280530 METAR LPPR 280530Z 00000KT CAVOK 16/16 Q1018=
200806280500 METAR LPPR 280500Z 00000KT CAVOK 17/16 Q1018=
200806280430 METAR LPPR 280430Z 00000KT CAVOK 17/16 Q1018=
200806280400 METAR LPPR 280400Z 00000KT CAVOK 18/17 Q1018=
200806280330 METAR LPPR 280330Z 20002KT CAVOK 18/17 Q1018=
200806280300 METAR LPPR 280300Z 18002KT CAVOK 18/17 Q1018=
200806280230 METAR LPPR 280230Z 00000KT CAVOK 18/17 Q1018=
200806280200 METAR LPPR 280200Z 00000KT CAVOK 18/17 Q1018=
200806280130 METAR LPPR 280130Z 00000KT CAVOK 18/17 Q1018=
200806280100 METAR LPPR 280100Z VRB03KT CAVOK 18/17 Q1018=
200806280030 METAR LPPR 280030Z 01003KT CAVOK 18/17 Q1018=
200806280000 METAR LPPR 280000Z 35004KT CAVOK 18/17 Q1018=
200806272330 METAR LPPR 272330Z 01002KT CAVOK 19/17 Q1018=
200806272300 METAR LPPR 272300Z 35002KT CAVOK 19/17 Q1019=
200806272230 METAR LPPR 272230Z 00000KT CAVOK 19/16 Q1019=
200806272200 METAR LPPR 272200Z VRB03KT CAVOK 20/17 Q1019=
200806272130 METAR LPPR 272130Z VRB03KT CAVOK 20/17 Q1019=
200806272100 METAR LPPR 272100Z 36003KT CAVOK 20/17 Q1019=
200806272030 METAR LPPR 272030Z 35005KT CAVOK 21/17 Q1019=
200806272000 METAR LPPR 272000Z 32006KT CAVOK 22/17 Q1018=
200806271930 METAR LPPR 271930Z 28006KT CAVOK 23/17 Q1018=
200806271900 METAR LPPR 271900Z 34006KT CAVOK 26/17 Q1018=
200806271830 METAR LPPR 271830Z 32007KT CAVOK 26/17 Q1018=
200806271800 METAR LPPR 271800Z 30005KT 270V330 CAVOK 28/18 Q1018=
200806271730 METAR LPPR 271730Z 35009KT CAVOK 28/17 Q1018=
200806271700 METAR LPPR 271700Z 33006KT CAVOK 27/17 Q1019=
200806271630 METAR LPPR 271630Z 32008KT CAVOK 26/17 Q1019=
200806271600 METAR LPPR 271600Z 33011KT CAVOK 26/17 Q1019=
200806271530 METAR LPPR 271530Z 32009KT 270V010 CAVOK 31/16 Q1019=
200806271500 METAR LPPR 271500Z 34010KT 310V010 CAVOK 30/16 Q1019=
200806271430 METAR LPPR 271430Z 34011KT CAVOK 30/16 Q1019=
200806271400 METAR LPPR 271400Z 34012KT CAVOK 30/16 Q1020=
200806271330 METAR LPPR 271330Z 32010KT CAVOK 29/18 Q1020=
200806271300 METAR LPPR 271300Z 33011KT CAVOK 28/17 Q1020=
200806271230 METAR LPPR 271230Z 32009KT 280V350 CAVOK 28/18 Q1020=
200806271200 METAR LPPR 271200Z 32010KT CAVOK 28/18 Q1020=
200806271130 METAR LPPR 271130Z 32009KT CAVOK 27/18 Q1020=
200806271100 METAR LPPR 271100Z 33009KT CAVOK 27/18 Q1020=
200806271030 METAR LPPR 271030Z 28009KT 260V360 CAVOK 26/18 Q1020=
200806271000 METAR LPPR 271000Z 04006KT 360V080 CAVOK 28/18 Q1020=
200806270930 METAR LPPR 270930Z 04006KT 350V080 CAVOK 27/17 Q1020=
200806270900 METAR LPPR 270900Z 02005KT 330V050 CAVOK 26/17 Q1020=
200806270830 METAR LPPR 270830Z 04007KT 350V070 CAVOK 25/17 Q1020=
200806270800 METAR LPPR 270800Z 01004KT 330V040 CAVOK 23/18 Q1020=
200806270730 METAR LPPR 270730Z 35004KT CAVOK 21/18 Q1020=
200806270700 METAR LPPR 270700Z 35003KT CAVOK 18/18 Q1020=
200806270630 METAR LPPR 270630Z 36002KT 8000 SKC 17/17 Q1020=
200806270600 METAR LPPR 270600Z 01003KT 7000 SKC 16/16 Q1020=
200806270530 METAR LPPR 270530Z 36002KT 5000 BR SKC 15/15 Q1020=
200806270500 METAR LPPR 270500Z 35002KT 5000 BR SKC 15/15 Q1019=
200806270430 METAR LPPR 270430Z 36003KT 5000 BR SKC 15/15 Q1019=
200806270400 METAR LPPR 270400Z 35002KT 6000 SKC 15/15 Q1019=
200806270330 METAR LPPR 270330Z VRB03KT 7000 SKC 16/15 Q1019=
200806270300 METAR LPPR 270300Z 00000KT 7000 SKC 16/16 Q1019=
200806270230 METAR LPPR 270230Z 00000KT 7000 SKC 16/16 Q1019=
200806270200 METAR LPPR 270200Z 00000KT 7000 SKC 17/16 Q1019=
200806270130 METAR LPPR 270130Z 17005KT 6000 SKC 17/16 Q1019=
200806270100 METAR LPPR 270100Z 21002KT 6000 SKC 17/16 Q1019=
200806270030 METAR LPPR 270030Z 19003KT 8000 SKC 17/16 Q1019=
200806270000 METAR LPPR 270000Z 21003KT CAVOK 18/16 Q1019=
200806262330 METAR LPPR 262330Z VRB02KT CAVOK 18/16 Q1019=
200806262300 METAR LPPR 262300Z 00000KT CAVOK 18/16 Q1019=
200806262230 METAR LPPR 262230Z 00000KT CAVOK 18/17 Q1019=
200806262200 METAR LPPR 262200Z 00000KT CAVOK 19/17 Q1019=
200806262130 METAR LPPR 262130Z 00000KT CAVOK 19/17 Q1019=
200806262100 METAR LPPR 262100Z 34003KT CAVOK 19/17 Q1018=
200806262030 METAR LPPR 262030Z 35008KT CAVOK 20/17 Q1018=
200806262000 METAR LPPR 262000Z 32004KT 290V350 CAVOK 22/17 Q1018=
200806261930 METAR LPPR 261930Z 30005KT CAVOK 23/17 Q1018=
200806261900 METAR LPPR 261900Z 33009KT CAVOK 25/18 Q1018=
200806261830 METAR LPPR 261830Z 32007KT CAVOK 26/18 Q1018=
200806261800 METAR LPPR 261800Z 31005KT 270V350 CAVOK 25/18 Q1018=
200806261730 METAR LPPR 261730Z 28006KT 260V330 CAVOK 24/18 Q1018=
200806261700 METAR LPPR 261700Z 30007KT CAVOK 25/18 Q1018=
200806261630 METAR LPPR 261630Z 30008G19KT 270V330 CAVOK 25/18 Q1018=
200806261600 METAR LPPR 261600Z 31008KT 270V330 CAVOK 25/18 Q1018=
200806261530 METAR LPPR 261530Z 31009KT CAVOK 24/18 Q1018=
200806261500 METAR LPPR 261500Z 31009KT CAVOK 25/18 Q1018=
200806261430 METAR LPPR 261430Z 32010KT CAVOK 26/18 Q1018=
200806261400 METAR LPPR 261400Z 31009KT 270V340 CAVOK 25/18 Q1018=
200806261330 METAR LPPR 261330Z 31008KT 270V340 CAVOK 26/18 Q1018=
200806261300 METAR LPPR 261300Z 28008KT CAVOK 26/18 Q1018=
200806261230 METAR LPPR 261230Z 31008KT CAVOK 25/18 Q1018=
200806261200 METAR LPPR 261200Z 29009KT 260V320 CAVOK 23/18 Q1018=
200806261130 METAR LPPR 261130Z 26004KT 190V310 CAVOK 26/18 Q1018=
200806261100 METAR LPPR 261100Z 30004KT 250V360 CAVOK 24/18 Q1018=
200806261030 METAR LPPR 261030Z 30005KT 230V350 CAVOK 23/18 Q1018=
200806261000 METAR LPPR 261000Z 28006KT CAVOK 21/17 Q1018=
200806260930 METAR LPPR 260930Z 26005KT 210V340 8000 SKC 21/17 Q1018=
200806260900 METAR LPPR 260900Z 26004KT 240V310 8000 SKC 20/17 Q1018=
200806260830 METAR LPPR 260830Z 27004KT 220V330 8000 SKC 21/17 Q1017=
200806260800 METAR LPPR 260800Z 21004KT 8000 SKC 20/17 Q1017=
200806260730 METAR LPPR 260730Z 20004KT 160V230 8000 SKC 19/17 Q1017=
200806260700 METAR LPPR 260700Z 19004KT 140V220 8000 SKC 18/18 Q1017=
200806260630 METAR LPPR 260630Z 17006KT 7000 SKC 17/17 Q1017=
200806260600 METAR LPPR 260600Z 18005KT 6000 SKC 16/16 Q1017=
200806260530 METAR LPPR 260530Z 17005KT 5000 BR SKC 16/16 Q1016=
200806260500 METAR LPPR 260500Z VRB03KT 7000 SKC 16/16 Q1016=
200806260430 METAR LPPR 260430Z 20003KT 7000 SKC 15/15 Q1016=
200806260400 METAR LPPR 260400Z VRB02KT 7000 SKC 15/15 Q1016=
200806260330 METAR LPPR 260330Z 17003KT 7000 SKC 15/15 Q1016=
200806260300 METAR LPPR 260300Z 00000KT 5000 BR SKC 16/15 Q1016=
200806260230 METAR LPPR 260230Z 00000KT 6000 SKC 16/16 Q1016=
200806260200 METAR LPPR 260200Z 19003KT 8000 SKC 16/16 Q1016=
200806260130 METAR LPPR 260130Z 17004KT 8000 SKC 16/16 Q1016=
200806260100 METAR LPPR 260100Z 00000KT 8000 SKC 16/16 Q1016=
200806260030 METAR LPPR 260030Z 00000KT CAVOK 16/16 Q1016=
200806260000 METAR LPPR 260000Z 00000KT CAVOK 17/16 Q1016=
200806252330 METAR LPPR 252330Z 00000KT CAVOK 17/16 Q1016=
200806252300 METAR LPPR 252300Z 00000KT CAVOK 18/16 Q1016=
200806252230 METAR LPPR 252230Z 33002KT CAVOK 18/16 Q1016=
200806252200 METAR LPPR 252200Z 32003KT CAVOK 18/16 Q1016=
200806252130 METAR LPPR 252130Z 34003KT CAVOK 18/16 Q1016=
200806252100 METAR LPPR 252100Z 33006KT CAVOK 19/16 Q1016=
200806252030 METAR LPPR 252030Z 34007KT CAVOK 20/16 Q1016=
200806252000 METAR LPPR 252000Z 34006KT CAVOK 21/16 Q1016=
200806251930 METAR LPPR 251930Z 33009KT CAVOK 22/17 Q1016=
200806251900 METAR LPPR 251900Z 33009KT CAVOK 23/17 Q1016=
200806251830 METAR LPPR 251830Z 32008G19KT 280V350 CAVOK 23/17 Q1016=
200806251800 METAR LPPR 251800Z 31008KT CAVOK 24/17 Q1016=
200806251730 METAR LPPR 251730Z 33008KT 290V020 CAVOK 25/17 Q1016=
200806251700 METAR LPPR 251700Z 34014KT CAVOK 24/17 Q1016=
200806251630 METAR LPPR 251630Z 33010KT CAVOK 25/17 Q1016=
200806251600 METAR LPPR 251600Z 32009KT CAVOK 25/17 Q1017=
200806251530 METAR LPPR 251530Z 32010KT 300V360 CAVOK 25/17 Q1017=
200806251500 METAR LPPR 251500Z 34012KT 290V010 CAVOK 25/17 Q1017=
200806251430 METAR LPPR 251430Z 33010KT 280V350 CAVOK 25/17 Q1017=
200806251400 METAR LPPR 251400Z 34011KT 300V010 CAVOK 25/17 Q1017=
200806251330 METAR LPPR 251330Z 33011KT 300V360 CAVOK 25/17 Q1017=
200806251300 METAR LPPR 251300Z 32010KT 290V350 CAVOK 25/17 Q1018=
200806251230 METAR LPPR 251230Z 32011KT 290V350 CAVOK 24/17 Q1018=
200806251200 METAR LPPR 251200Z 32010KT CAVOK 24/18 Q1018=
200806251130 METAR LPPR 251130Z 32011KT CAVOK 24/17 Q1018=
200806251100 METAR LPPR 251100Z 33010KT 300V010 CAVOK 24/17 Q1018=
200806251030 METAR LPPR 251030Z 31008KT 280V350 CAVOK 24/17 Q1018=
200806251000 METAR LPPR 251000Z 32005KT 280V010 CAVOK 23/17 Q1018=
200806250930 METAR LPPR 250930Z 31006KT 260V360 CAVOK 22/17 Q1018=
200806250900 METAR LPPR 250900Z 35005KT 270V040 CAVOK 22/16 Q1018=
200806250830 METAR LPPR 250830Z 34006KT 300V030 CAVOK 21/16 Q1018=
200806250800 METAR LPPR 250800Z 34005KT 320V020 CAVOK 20/16 Q1018=
200806250730 METAR LPPR 250730Z VRB02KT CAVOK 19/15 Q1018=
200806250700 METAR LPPR 250700Z 00000KT CAVOK 17/15 Q1018=
200806250630 METAR LPPR 250630Z 35002KT CAVOK 16/15 Q1018=
200806250600 METAR LPPR 250600Z 00000KT CAVOK 14/14 Q1018=
200806250530 METAR LPPR 250530Z 00000KT CAVOK 14/13 Q1018=
200806250500 METAR LPPR 250500Z 00000KT CAVOK 14/13 Q1018=
200806250430 METAR LPPR 250430Z 00000KT CAVOK 14/13 Q1018=
200806250400 METAR LPPR 250400Z 00000KT CAVOK 14/13 Q1018=
200806250330 METAR LPPR 250330Z 00000KT CAVOK 14/13 Q1018=
200806250300 METAR LPPR 250300Z 00000KT CAVOK 14/13 Q1018=
200806250230 METAR LPPR 250230Z 00000KT CAVOK 15/13 Q1018=
200806250200 METAR LPPR 250200Z 00000KT CAVOK 15/13 Q1018=
200806250130 METAR LPPR 250130Z 00000KT CAVOK 15/13 Q1018=
200806250100 METAR LPPR 250100Z 00000KT CAVOK 15/13 Q1019=
200806250030 METAR LPPR 250030Z 00000KT CAVOK 15/13 Q1019=
200806250000 METAR LPPR 250000Z 36002KT CAVOK 15/14 Q1019=
200806242330 METAR LPPR 242330Z 35005KT CAVOK 16/14 Q1019=
200806242300 METAR LPPR 242300Z 35005KT CAVOK 16/14 Q1019=
200806242230 METAR LPPR 242230Z 34008KT CAVOK 16/14 Q1019=
200806242200 METAR LPPR 242200Z 34009KT CAVOK 17/14 Q1019=
200806242130 METAR LPPR 242130Z 33008KT CAVOK 17/14 Q1020=
200806242100 METAR LPPR 242100Z 33008KT CAVOK 17/14 Q1019=
200806242030 METAR LPPR 242030Z 33008KT CAVOK 17/15 Q1019=
200806242000 METAR LPPR 242000Z 32009KT CAVOK 18/15 Q1019=
200806241930 METAR LPPR 241930Z 32009KT CAVOK 19/15 Q1019=
200806241900 METAR LPPR 241900Z 32010KT CAVOK 19/15 Q1019=
200806241830 METAR LPPR 241830Z 33010KT CAVOK 20/15 Q1019=
200806241800 METAR LPPR 241800Z 32011KT CAVOK 20/15 Q1019=
200806241730 METAR LPPR 241730Z 32012KT CAVOK 21/14 Q1019=
200806241700 METAR LPPR 241700Z 32013KT 9999 FEW015 21/14 Q1019=
200806241630 METAR LPPR 241630Z 33013KT 9999 FEW015 21/15 Q1019=
200806241600 METAR LPPR 241600Z 32013KT 9999 FEW015 21/15 Q1019=
200806241530 METAR LPPR 241530Z 33013KT 300V020 9999 FEW015 21/15 Q1019=
200806241500 METAR LPPR 241500Z 32013KT 9999 FEW015 21/16 Q1019=
200806241430 METAR LPPR 241430Z 32012KT 280V340 9999 SCT015 21/16 Q1019=
200806241400 METAR LPPR 241400Z 32014KT 290V350 9999 SCT015 21/16 Q1019=
200806241330 METAR LPPR 241330Z 31012KT 280V340 9999 SCT012 21/17 Q1019=
200806241300 METAR LPPR 241300Z 30012KT 280V340 9999 FEW010 SCT015 21/17
                        Q1019=
200806241230 METAR LPPR 241230Z 31012KT 9999 FEW010 SCT015 21/17 Q1019=
200806241200 METAR LPPR 241200Z 31011KT 270V340 9999 SCT010 SCT015 21/17
                        Q1019=
200806241130 METAR LPPR 241130Z 30010KT 9999 SCT010 SCT015 21/17 Q1019=
200806241100 METAR LPPR 241100Z VRB09KT 9999 SCT010 BKN015 20/17 Q1019=
200806241030 METAR LPPR 241030Z 31008KT 280V350 9999 SCT008 BKN015 20/17
                        Q1019=
200806241000 METAR LPPR 241000Z 31009KT 280V360 9999 SCT008 BKN015 19/18
                        Q1019=
200806240930 METAR LPPR 240930Z 30009KT 270V350 9999 SCT006 BKN013 19/18
                        Q1019=
200806240900 METAR LPPR 240900Z 32008KT 240V350 9999 SCT006 BKN013 19/18
                        Q1019=
200806240830 METAR LPPR 240830Z 32007KT 300V020 8000 SCT005 SCT012 BKN030
                        18/18 Q1019=
200806240800 METAR LPPR 240800Z 32008KT 290V350 6000 SCT005 SCT012 BKN030
                        18/18 Q1019=
200806240730 METAR LPPR 240730Z 33005KT 290V350 5000 BR SCT005 SCT012
                        BKN030 18/18 Q1019=
200806240700 METAR LPPR 240700Z 33005KT 270V010 4000 BR SCT004 SCT007
                        BKN030 17/17 Q1019=
200806240630 METAR LPPR 240630Z 32005KT 3500 BR FEW003 SCT005 BKN030 17/17
                        Q1019=
200806240600 METAR LPPR 240600Z 31004KT 1500 VCFG BR SCT001 SCT003 BKN012
                        17/17 Q1019=
200806240530 METAR LPPR 240530Z 32004KT 280V350 4000 BR FEW001 SCT003
                        BKN004 17/17 Q1019=
200806240500 METAR LPPR 240500Z 33003KT 3500 -DZ BR SCT001 SCT003 BKN005
                        17/17 Q1019=
200806240430 METAR LPPR 240430Z VRB03KT 3000 -DZ BR SCT001 BKN003 17/17
                        Q1018=
200806240400 METAR LPPR 240400Z 32004KT 290V350 3000 BR SCT001 BKN003
                        17/17 Q1018=
200806240330 METAR LPPR 240330Z 31004KT 270V330 3000 BR SCT001 BKN003
                        17/17 Q1018=
200806240300 METAR LPPR 240300Z 31003KT 3000 BR SCT001 BKN003 17/17 Q1018=
200806240230 METAR LPPR 240230Z 31003KT 3000 BR SCT001 BKN004 17/17 Q1018=
200806240200 METAR LPPR 240200Z 31003KT 3000 BR SCT002 BKN006 17/17 Q1018=
200806240130 METAR LPPR 240130Z 32004KT 4000 SCT002 BKN007 BKN013 17/17
                        Q1018=
200806240100 METAR LPPR 240100Z 33005KT 3000 BR SCT003 SCT005 BKN009 17/17
                        Q1018=
200806240030 METAR LPPR 240030Z 32006KT 4000 -DZ BR SCT003 BKN006 17/17
                        Q1018=
200806240000 METAR LPPR 240000Z 32006KT 6000 SCT003 BKN007 BKN015 17/17
                        Q1018=
200806232330 METAR LPPR 232330Z 33008KT 5000 BR SCT002 BKN005 17/17 Q1018=
200806232300 METAR LPPR 232300Z 33008KT 3000 -DZ BR SCT001 BKN003 17/17
                        Q1018=
200806232230 METAR LPPR 232230Z 32007KT 2500 -DZ BR SCT001 BKN003 17/17
                        Q1018=
200806232200 METAR LPPR 232200Z 32006KT 290V350 2500 -DZ BR SCT001 BKN003
                        17/17 Q1018=
200806232130 METAR LPPR 232130Z 32007KT 2500 -DZ BR SCT001 BKN003 17/17
                        Q1018=
200806232100 METAR LPPR 232100Z 33006KT 2500 -DZ BR SCT002 BKN005 17/17
                        Q1018=
200806232030 METAR LPPR 232030Z 33007KT 3000 -DZ BR BKN003 BKN005 17/17
                        Q1018=
200806232000 METAR LPPR 232000Z 33007KT 300V020 3500 BR SCT002 BKN005
                        18/18 Q1017=
200806231930 METAR LPPR 231930Z 32008KT 280V350 3500 BR BKN002 BKN005
                        18/18 Q1017=
200806231900 METAR LPPR 231900Z 32008KT 2500 BR BKN002 BKN004 18/18 Q1017=
200806231830 METAR LPPR 231830Z 32009KT 280V340 2000 BR VCFG BKN001 BKN004
                        18/18 Q1017=
200806231800 METAR LPPR 231800Z 32007KT 290V350 1500 BR VCFG BKN001 BKN004
                        18/18 Q1017=
200806231730 METAR LPPR 231730Z 32008KT 290V360 1500 BR VCFG BKN001 BKN003
                        18/18 Q1017=
200806231700 METAR LPPR 231700Z 31008KT 280V340 1500 -DZ BR BKN000 BKN003
                        18/18 Q1017=
200806231630 METAR LPPR 231630Z 32007KT 1200 R17/P1500 R35/P1500 VCFG
                        BR SCT000 BKN003 18/18 Q1017=
200806231600 METAR LPPR 231600Z 32008KT 290V350 1200 R17/P1500 R35/P1500
                        VCFG BR SCT000 BKN003 18/18 Q1017=
200806231530 METAR LPPR 231530Z 30008KT 270V340 1200 R17/P1500 R35/P1500
                        VCFG SCT001 BKN002 18/18 Q1017=
200806231500 METAR LPPR 231500Z 30008KT 260V340 0800 R17/P1500 R35/P1500
                        FG SCT001 BKN002 18/18 Q1017=
200806231430 METAR LPPR 231430Z 31008KT 270V330 0800 R17/P1500 R35/P1500
                        FG SCT002 BKN003 19/18 Q1017=
200806231400 METAR LPPR 231400Z 29007KT 260V330 1200 R17/P1500 R35/P1500
                        VCFG SCT002 BKN003 20/18 Q1017=
200806231330 METAR LPPR 231330Z 29008KT 260V320 8000 FEW008 SCT012 21/18
                        Q1017=
200806231300 METAR LPPR 231300Z 30006KT 240V360 8000 SCT005 BKN008 21/18
                        Q1017=
200806231230 METAR LPPR 231230Z 31007KT 270V330 5000 BR VCFG SCT003 BKN007
                        21/18 Q1017=
200806231200 METAR LPPR 231200Z 31010KT 280V340 9999 SCT004 BKN012 21/18
                        Q1017=
200806231130 METAR LPPR 231130Z 29009KT 260V330 9999 SCT012 21/18 Q1017=
200806231100 METAR LPPR 231100Z 28007KT 260V320 8000 FEW008 SCT012 20/18
                        Q1017=
200806231030 METAR LPPR 231030Z 28005KT 240V350 4000 BR SCT004 BKN006
                        19/19 Q1017=
200806231000 METAR LPPR 231000Z 31004KT 260V010 3000 BR SCT002 BKN004
                        18/18 Q1016=
200806230930 METAR LPPR 230930Z 29006KT 240V320 0900 R17/P1500 R35/P1500
                        FG SCT001 BKN003 18/18 Q1016=
200806230900 METAR LPPR 230900Z 30005KT 0800 R17/P1500 R35/P1500 FG SCT001
                        BKN003 17/17 Q1016=
200806230830 METAR LPPR 230830Z 30006KT 260V330 0900 R17/P1500 R35/P1500
                        FG SCT001 BKN003 17/17 Q1016=
200806230800 METAR LPPR 230800Z VRB02KT 1500 BR SCT001 BKN003 17/17 Q1016=
200806230730 METAR LPPR 230730Z VRB03KT 1100 R17/P1500 R35/P1500 BR BKN001
                        BKN003 17/17 Q1015=
200806230700 METAR LPPR 230700Z VRB02KT 0900 R17/P1500 R35/P1500 FG BKN001
                        BKN002 17/17 Q1015=
200806230630 METAR LPPR 230630Z VRB02KT 0600 R17/1400N R35/P1500 FG BKN000
                        BKN001 17/17 Q1015=
200806230600 METAR LPPR 230600Z 21004KT 170V250 0600 R17/1300VP1500 R35/P1500
                        FG BKN000 BKN001 17/17 Q1015=
200806230530 METAR LPPR 230530Z 18004KT 160V220 0600 R17/P1500 R35/P1500
                        FG BKN000 BKN001 17/17 Q1015=
200806230500 METAR LPPR 230500Z 16004KT 0600 R17/P1500 R35/1300VP1500
                        FG BKN000 BKN001 17/17 Q1015=
200806230430 METAR LPPR 230430Z 19005KT 0700 R17/P1500 R35/P1500 FG BKN000
                        BKN001 17/17 Q1015=
200806230400 METAR LPPR 230400Z 14004KT 110V170 0900 R17/P1500 R35/P1500
                        FG OVC001 17/17 Q1014=
200806230330 METAR LPPR 230330Z VRB03KT 0900 R17/0900V1200N R35/P1500
                        FG OVC001 16/16 Q1015=
200806230300 METAR LPPR 230300Z 20004KT 160V250 1500 BR OVC001 16/16 Q1015=
200806230230 METAR LPPR 230230Z 18002KT 3000 BR BKN001 BKN003 16/16 Q1015=
200806230200 METAR LPPR 230200Z 00000KT 6000 SCT004 16/16 Q1015=
200806230130 METAR LPPR 230130Z 00000KT 6000 SCT003 16/16 Q1015=
200806230100 METAR LPPR 230100Z 00000KT 6000 SCT004 16/16 Q1015=
200806230030 METAR LPPR 230030Z 00000KT 6000 FEW090 16/16 Q1015=
200806230000 METAR LPPR 230000Z 00000KT 6000 FEW090 16/16 Q1015=
200806222330 METAR LPPR 222330Z 00000KT 6000 SKC 16/16 Q1016=
200806222300 METAR LPPR 222300Z VRB02KT 6000 SKC 17/17 Q1016=
200806222230 METAR LPPR 222230Z 33005KT 300V360 7000 SKC 17/17 Q1016=
200806222200 METAR LPPR 222200Z 35007KT CAVOK 17/17 Q1016=
200806222130 METAR LPPR 222130Z 34007KT CAVOK 18/17 Q1016=
200806222100 METAR LPPR 222100Z 34007KT CAVOK 18/17 Q1015=
200806222030 METAR LPPR 222030Z 33010KT CAVOK 18/17 Q1015=
200806222000 METAR LPPR 222000Z 32009KT CAVOK 19/16 Q1015=
200806221930 METAR LPPR 221930Z 33009KT 300V360 CAVOK 20/16 Q1015=
200806221900 METAR LPPR 221900Z 33013KT CAVOK 21/16 Q1015=
200806221830 METAR LPPR 221830Z 33012KT 300V360 CAVOK 21/17 Q1015=
200806221800 METAR LPPR 221800Z 33011KT 290V350 CAVOK 21/17 Q1015=
200806221730 METAR LPPR 221730Z 33012KT CAVOK 21/17 Q1016=
200806221700 METAR LPPR 221700Z 33015KT 9999 FEW005 21/18 Q1016=
200806221630 METAR LPPR 221630Z 32014KT 9999 FEW005 22/18 Q1016=
200806221600 METAR LPPR 221600Z 32011KT CAVOK 23/18 Q1016=
200806221530 METAR LPPR 221530Z 32016G31KT 280V360 CAVOK 22/18 Q1016=
200806221500 METAR LPPR 221500Z 32014KT CAVOK 22/18 Q1016=
200806221430 METAR LPPR 221430Z 31016KT CAVOK 23/18 Q1016=
200806221400 METAR LPPR 221400Z 32014KT 290V350 CAVOK 23/18 Q1017=
200806221330 METAR LPPR 221330Z 32013KT CAVOK 23/18 Q1017=
200806221300 METAR LPPR 221300Z 33012KT CAVOK 23/18 Q1017=
200806221230 METAR LPPR 221230Z 32012KT CAVOK 22/18 Q1017=
200806221200 METAR LPPR 221200Z 31013KT CAVOK 22/18 Q1017=
200806221130 METAR LPPR 221130Z 32014KT 300V360 9999 FEW009 21/18 Q1017=
200806221100 METAR LPPR 221100Z 32013G25KT 290V360 9999 FEW009 SCT080
                        22/18 Q1017=
200806221030 METAR LPPR 221030Z 33010KT 9999 FEW009 SCT080 21/18 Q1018=
200806221000 METAR LPPR 221000Z 33010KT 290V360 9999 SCT009 SCT012 20/18
                        Q1018=
200806220930 METAR LPPR 220930Z 31009KT 9999 SCT009 SCT012 19/18 Q1018=
200806220900 METAR LPPR 220900Z VRB03KT 9000 BKN006 BKN013 19/19 Q1018=
200806220830 METAR LPPR 220830Z 01005KT 330V050 7000 SCT004 BKN007 18/18
                        Q1017=
200806220800 METAR LPPR 220800Z 01005KT 330V040 7000 SCT003 BKN005 17/17
                        Q1017=
200806220730 METAR LPPR 220730Z 01004KT 4000 BR SCT002 BKN004 17/17 Q1017=
200806220700 METAR LPPR 220700Z 02004KT 350V060 0900 R17/P1500 R35/1400N
                        FG SCT001 BKN003 16/16 Q1017=
200806220630 METAR LPPR 220630Z 35004KT 330V030 0500 R17/1100VP1500 R35/0750V1400U
                        FG SCT001 BKN002 16/16 Q1017=
200806220600 METAR LPPR 220600Z VRB03KT 0300 R17/0900V1100N R35/0650V1100D
                        FG VV000 16/16 Q1016=
200806220530 METAR LPPR 220530Z VRB02KT 0300 R17/0900N R35/0600N FG VV000
                        16/16 Q1016=
200806220500 METAR LPPR 220500Z VRB03KT 0300 R17/0750D R35/0550D FG VV000
                        16/16 Q1016=
200806220430 METAR LPPR 220430Z 01003KT 0400 R17/0900U R35/0750V1100U
                        FG VV001 16/16 Q1016=
200806220400 METAR LPPR 220400Z 34004KT 0500 R17/1100VP1500 R35/0900V1300U
                        FG SCT001 BKN002 16/16 Q1016=
200806220330 METAR LPPR 220330Z VRB03KT 0600 R17/1400VP1500 R35/1200N
                        FG SCT001 BKN002 16/16 Q1016=
200806220300 METAR LPPR 220300Z 34006KT 0500 R17/1200D R35/1100N FG SCT001
                        BKN002 16/16 Q1017=
200806220230 METAR LPPR 220230Z 35004KT 0600 R17/P1500 R35/P1500 FG SCT001
                        BKN002 16/16 Q1017=
200806220200 METAR LPPR 220200Z 35005KT 0600 R17/1100VP1500 R35/0700V1100N
                        FG SCT001 BKN002 16/16 Q1017=
200806220130 METAR LPPR 220130Z 34004KT 0800 R17/P1500 R35/1300VP1500
                        FG SCT001 BKN002 16/16 Q1017=
200806220100 METAR LPPR 220100Z 34004KT 300V360 0900 R17/P1500 R35/P1500
                        FG SCT001 BKN002 16/16 Q1017=
200806220030 METAR LPPR 220030Z 35004KT 320V020 0900 R17/P1500 R35/P1500
                        FG SCT001 BKN002 17/17 Q1017=
200806220000 METAR LPPR 220000Z 34005KT 5000 BR SCT001 BKN002 17/17 Q1017=
200806212330 METAR LPPR 212330Z 35005KT 3000 BR SCT002 BKN003 17/17 Q1017=
200806212300 METAR LPPR 212300Z 35004KT 320V020 0900 R17/P1500 R35/P1500
                        FG SCT001 BKN002 17/17 Q1018=
200806212230 METAR LPPR 212230Z 32005KT 0900 R17/P1500 R35/P1500 FG SCT001
                        BKN002 17/17 Q1018=
200806212200 METAR LPPR 212200Z 33004KT 0900 R17/P1500 R35/P1500 FG SCT001
                        BKN002 17/17 Q1018=
200806212130 METAR LPPR 212130Z 32003KT 3000 BR FEW003 BKN004 17/17 Q1018=
200806212100 METAR LPPR 212100Z 35004KT 330V030 7000 SCT003 17/17 Q1018=
200806212030 METAR LPPR 212030Z 35003KT 5000 BR SCT004 17/17 Q1017=
200806212000 METAR LPPR 212000Z 33003KT 4000 BR SCT007 17/17 Q1017=
200806211930 METAR LPPR 211930Z 33006KT 0900 R17/P1500 R35/P1500 FG SCT001
                        BKN003 18/17 Q1017=
200806211900 METAR LPPR 211900Z 32007KT 0800 R17/P1500 R35/P1500 BCFG
                        SCT001 19/18 Q1017=
200806211830 METAR LPPR 211830Z 31006KT 4000W VCFG FEW006 20/18 Q1017=
200806211800 METAR LPPR 211800Z 32008KT 290V350 4000W VCFG FEW006 20/18
                        Q1017=
200806211730 METAR LPPR 211730Z 33009KT 290V350 4000W VCFG SCT005 20/18
                        Q1017=
200806211700 METAR LPPR 211700Z 31009KT 1200 R17/P1500 R35/P1500 VCFG
                        SCT005 20/18 Q1017=
200806211630 METAR LPPR 211630Z 32008KT 290V350 1200 R17/P1500 R35/P1500
                        VCFG SCT003 20/18 Q1017=
200806211600 METAR LPPR 211600Z 30010KT 270V330 1200 R17/P1500 R35/P1500
                        VCFG SCT002 BKN004 21/18 Q1017=
200806211530 METAR LPPR 211530Z 32009KT 290V350 0800 R17/P1500 R35/P1500
                        FG SCT002 BKN004 20/19 Q1018=
200806211500 METAR LPPR 211500Z 32009KT 280V340 0800 R17/P1500 R35/P1500
                        FG SCT003 BKN005 20/18 Q1018=
200806211430 METAR LPPR 211430Z 31010KT 4000W VCFG SCT005 21/18 Q1018=
200806211400 METAR LPPR 211400Z 31009KT 260V340 4000W VCFG FEW006 21/18
                        Q1018=
200806211330 METAR LPPR 211330Z 30010KT 4000W VCFG FEW008 21/18 Q1018=
200806211300 METAR LPPR 211300Z 31010KT 4000W VCFG FEW008 20/18 Q1018=
200806211230 METAR LPPR 211230Z 29010KT 260V330 4000W VCFG SCT008 20/18
                        Q1018=
200806211200 METAR LPPR 211200Z 29008KT 9999 FEW008 21/18 Q1018=
200806211130 METAR LPPR 211130Z 28007KT 250V340 9999 FEW006 22/18 Q1018=
200806211100 METAR LPPR 211100Z 28008KT CAVOK 22/18 Q1018=
200806211030 METAR LPPR 211030Z 27006G18KT 250V360 CAVOK 22/18 Q1018=
200806211000 METAR LPPR 211000Z 28006KT CAVOK 22/19 Q1018=
200806210930 METAR LPPR 210930Z VRB03KT CAVOK 21/21 Q1018=
200806210900 METAR LPPR 210900Z 00000KT 8000 SKC 19/19 Q1018=
200806210830 METAR LPPR 210830Z 00000KT 1100 R17/1300VP1500 R35/P1500
                        VCFG SCT001 BKN002 18/18 Q1018=
200806210800 METAR LPPR 210800Z VRB03KT 0800 R17/0450V0750D R35/0550V1000N
                        FG BKN000 17/17 Q1018=
200806210730 METAR LPPR 210730Z VRB02KT 0600 R17/0700N R35/0750V1300U
                        FG BKN000 17/17 Q1018=
200806210700 METAR LPPR 210700Z 00000KT 0300 R17/0600N R35/0550V0750N
                        FG BKN000 16/16 Q1018=
200806210630 METAR LPPR 210630Z 00000KT 0400 R17/0350V0550U R35/0600N
                        FG BKN000 16/16 Q1018=
200806210600 METAR LPPR 210600Z 35002KT 1000 R17/0450V0550N R35/0900VP1500
                        BCFG FEW000 15/15 Q1018=
200806210530 METAR LPPR 210530Z VRB02KT 0800 R17/0600N R35/0750V1200U
                        FG BKN000 16/16 Q1018=
200806210500 METAR LPPR 210500Z 02003KT 0200 R17/0600N R35/0350V0550N
                        FG VV000 16/16 Q1018=
200806210430 METAR LPPR 210430Z 01003KT 0200 R17/0550N R35/0400N FG VV000
                        16/16 Q1018=
200806210400 METAR LPPR 210400Z 32002KT 0900 R17/0400V0750D R35/0550V0750N
                        BCFG BKN001 15/15 Q1018=
200806210330 METAR LPPR 210330Z 00000KT 7000 FEW004 15/15 Q1018=
200806210300 METAR LPPR 210300Z 00000KT 9000 SKC 16/16 Q1018=
200806210230 METAR LPPR 210230Z 00000KT 9000 SKC 16/16 Q1019=
200806210200 METAR LPPR 210200Z 00000KT 9000 SKC 16/16 Q1019=
200806210130 METAR LPPR 210130Z 00000KT 9000 SKC 16/16 Q1019=
200806210100 METAR LPPR 210100Z VRB02KT 9000 SKC 16/16 Q1020=
200806210030 METAR LPPR 210030Z 36004KT 8000 FEW004 17/17 Q1020=
200806210000 METAR LPPR 210000Z 33005KT 9000 FEW004 17/17 Q1020=
200806202330 METAR LPPR 202330Z 35004KT 9000 FEW003 17/17 Q1020=
200806202300 METAR LPPR 202300Z 35004KT 9000 FEW003 17/17 Q1020=
200806202230 METAR LPPR 202230Z 33009KT 9999 FEW003 18/18 Q1020=
200806202200 METAR LPPR 202200Z 33006KT CAVOK 18/18 Q1020=
200806202130 METAR LPPR 202130Z 31005KT CAVOK 18/18 Q1020=
200806202100 METAR LPPR 202100Z 33005KT 9999 FEW006 18/18 Q1020=
200806202030 METAR LPPR 202030Z 33005KT CAVOK 19/18 Q1020=
200806202000 METAR LPPR 202000Z 32007G17KT 290V350 CAVOK 20/18 Q1020=
200806201930 METAR LPPR 201930Z 31007KT CAVOK 21/18 Q1020=
200806201900 METAR LPPR 201900Z 31007KT CAVOK 22/18 Q1020=
200806201830 METAR LPPR 201830Z 32008KT 290V350 CAVOK 23/17 Q1020=
200806201800 METAR LPPR 201800Z 33009KT CAVOK 24/17 Q1019=
200806201730 METAR LPPR 201730Z 33009KT 9999 FEW020 24/18 Q1019=
200806201700 METAR LPPR 201700Z 32011KT 9999 FEW020 24/18 Q1020=
200806201630 METAR LPPR 201630Z 32010KT 290V350 9999 FEW020 24/18 Q1020=
200806201600 METAR LPPR 201600Z 32013KT 9999 FEW020 24/18 Q1020=
200806201530 METAR LPPR 201530Z 33011KT 9999 FEW020 24/19 Q1020=
200806201500 METAR LPPR 201500Z 31010KT 290V010 9999 FEW015 23/19 Q1021=
200806201430 METAR LPPR 201430Z 32010KT 270V340 9999 FEW015 23/19 Q1021=
200806201400 METAR LPPR 201400Z 32011KT 280V340 9999 FEW015 23/19 Q1021=
200806201330 METAR LPPR 201330Z 32010KT 280V350 9999 FEW017 22/19 Q1021=
200806201300 METAR LPPR 201300Z 31011KT 280V350 9999 FEW017 22/19 Q1021=
200806201230 METAR LPPR 201230Z 31010KT 280V340 9999 FEW017 22/18 Q1021=
200806201200 METAR LPPR 201200Z 30009KT 9999 FEW015 22/18 Q1021=
200806201130 METAR LPPR 201130Z 31008KT 270V330 9999 FEW015 22/19 Q1021=
200806201100 METAR LPPR 201100Z 29008KT 260V320 9999 FEW017 22/19 Q1021=
200806201030 METAR LPPR 201030Z 31006KT 250V350 9999 FEW015 22/19 Q1021=
200806201000 METAR LPPR 201000Z 31005KT 250V340 9999 SCT015 22/18 Q1021=
200806200930 METAR LPPR 200930Z 31005KT 280V360 9999 SCT015 21/18 Q1021=
200806200900 METAR LPPR 200900Z 31005KT 270V360 9999 BKN013 21/18 Q1021=
200806200830 METAR LPPR 200830Z 03004KT 320V080 9999 BKN012 21/18 Q1021=
200806200800 METAR LPPR 200800Z VRB03KT 9999 BKN012 20/18 Q1021=
200806200730 METAR LPPR 200730Z VRB02KT 9999 SCT009 20/18 Q1021=
200806200700 METAR LPPR 200700Z VRB03KT 9999 SCT008 BKN013 19/18 Q1021=
200806200630 METAR LPPR 200630Z 00000KT 9999 SCT008 BKN013 19/18 Q1020=
200806200600 METAR LPPR 200600Z 00000KT 9999 FEW008 SCT013 18/18 Q1020=
200806200530 METAR LPPR 200530Z 00000KT 9999 SCT008 BKN013 18/18 Q1020=
200806200500 METAR LPPR 200500Z 00000KT 9999 BKN007 BKN012 19/18 Q1020=
200806200430 METAR LPPR 200430Z 36003KT 9999 BKN006 BKN009 19/18 Q1020=
200806200400 METAR LPPR 200400Z 00000KT 9000 BKN006 BKN009 19/18 Q1020=
200806200330 METAR LPPR 200330Z VRB02KT 9000 SCT006 BKN009 19/18 Q1020=
200806200300 METAR LPPR 200300Z VRB02KT 9000 SCT004 BKN009 18/18 Q1020=
200806200230 METAR LPPR 200230Z VRB03KT 9000 SCT004 BKN009 18/18 Q1020=
200806200200 METAR LPPR 200200Z 00000KT 9000 SCT006 SCT009 18/18 Q1021=
200806200130 METAR LPPR 200130Z VRB02KT 9000 SCT006 SCT009 18/18 Q1021=
200806200100 METAR LPPR 200100Z VRB02KT 8000 SCT004 SCT007 18/18 Q1021=
200806200030 METAR LPPR 200030Z 04003KT 7000 SCT003 BKN004 18/18 Q1021=
200806200000 METAR LPPR 200000Z 02004KT 350V050 6000 SCT002 BKN003 18/18
                        Q1021=
200806192330 METAR LPPR 192330Z 02004KT 340V050 6000 SCT002 BKN003 18/18
                        Q1022=
200806192300 METAR LPPR 192300Z 33004KT 6000 SCT002 BKN003 18/18 Q1022=
200806192230 METAR LPPR 192230Z 32005KT 7000 SCT002 BKN004 18/18 Q1022=
200806192200 METAR LPPR 192200Z 32007KT 9000 SCT003 BKN006 18/18 Q1022=
200806192130 METAR LPPR 192130Z 32004KT 9999 SCT004 BKN007 18/18 Q1021=
200806192100 METAR LPPR 192100Z 32005KT 290V350 9999 FEW006 18/18 Q1021=
200806192030 METAR LPPR 192030Z 34005KT CAVOK 19/17 Q1021=
200806192000 METAR LPPR 192000Z 33005KT CAVOK 20/17 Q1021=
200806191930 METAR LPPR 191930Z 32006KT CAVOK 20/17 Q1021=
200806191900 METAR LPPR 191900Z 32007KT CAVOK 21/17 Q1020=
200806191830 METAR LPPR 191830Z 32008KT 290V350 CAVOK 21/17 Q1020=
200806191800 METAR LPPR 191800Z 31010KT CAVOK 21/17 Q1020=
200806191730 METAR LPPR 191730Z 32010KT CAVOK 21/17 Q1020=
200806191700 METAR LPPR 191700Z 32009KT 270V350 9999 FEW020 22/17 Q1020=
200806191630 METAR LPPR 191630Z 32010KT 280V340 9999 FEW020 21/17 Q1020=
200806191600 METAR LPPR 191600Z 29009KT 260V330 9999 FEW020 22/17 Q1020=
200806191530 METAR LPPR 191530Z 30008KT 260V340 9999 FEW020 23/17 Q1020=
200806191500 METAR LPPR 191500Z 30009KT 270V350 9999 FEW020 22/17 Q1021=
200806191430 METAR LPPR 191430Z 32008KT 280V350 9999 FEW020 22/17 Q1021=
200806191400 METAR LPPR 191400Z 30009KT 270V330 9999 FEW020 21/16 Q1021=
200806191330 METAR LPPR 191330Z 30010KT 270V350 9999 FEW020 21/16 Q1021=
200806191300 METAR LPPR 191300Z 29007G19KT 260V330 9999 FEW025 22/16 Q1021=
200806191230 METAR LPPR 191230Z 30009KT 260V330 9999 FEW025 21/14 Q1021=
200806191200 METAR LPPR 191200Z 30010KT 9999 FEW025 21/14 Q1021=
200806191130 METAR LPPR 191130Z 28006KT CAVOK 22/15 Q1021=
200806191100 METAR LPPR 191100Z 27007KT 230V340 CAVOK 21/14 Q1021=
200806191030 METAR LPPR 191030Z 31005KT 260V020 CAVOK 22/15 Q1021=
200806191000 METAR LPPR 191000Z VRB02KT CAVOK 22/14 Q1021=
200806190930 METAR LPPR 190930Z VRB03KT CAVOK 20/12 Q1021=
200806190900 METAR LPPR 190900Z 00000KT CAVOK 20/12 Q1021=
200806190830 METAR LPPR 190830Z 00000KT CAVOK 19/12 Q1021=
200806190800 METAR LPPR 190800Z 00000KT CAVOK 18/13 Q1021=
200806190730 METAR LPPR 190730Z 00000KT CAVOK 16/13 Q1021=
200806190700 METAR LPPR 190700Z 11005KT 9999 FEW030 14/12 Q1020=
200806190630 METAR LPPR 190630Z 11006KT CAVOK 13/12 Q1020=
200806190600 METAR LPPR 190600Z 11005KT CAVOK 13/13 Q1020=
200806190530 METAR LPPR 190530Z 00000KT CAVOK 12/12 Q1020=
200806190500 METAR LPPR 190500Z VRB02KT CAVOK 12/12 Q1020=
200806190430 METAR LPPR 190430Z 00000KT CAVOK 11/11 Q1020=
200806190400 METAR LPPR 190400Z 00000KT CAVOK 12/12 Q1020=
200806190330 METAR LPPR 190330Z VRB02KT CAVOK 12/12 Q1020=
200806190300 METAR LPPR 190300Z 00000KT CAVOK 12/12 Q1020=
200806190230 METAR LPPR 190230Z 00000KT CAVOK 11/11 Q1020=
200806190200 METAR LPPR 190200Z 00000KT CAVOK 11/11 Q1020=
200806190130 METAR LPPR 190130Z 00000KT CAVOK 12/12 Q1020=
200806190100 METAR LPPR 190100Z 00000KT CAVOK 12/12 Q1020=
200806190030 METAR LPPR 190030Z 00000KT CAVOK 12/12 Q1020=
200806190000 METAR LPPR 190000Z 00000KT CAVOK 12/12 Q1020=
200806182330 METAR LPPR 182330Z 00000KT CAVOK 13/12 Q1020=
200806182300 METAR LPPR 182300Z 00000KT CAVOK 13/12 Q1020=
200806182230 METAR LPPR 182230Z 00000KT CAVOK 13/12 Q1020=
200806182200 METAR LPPR 182200Z 00000KT CAVOK 14/12 Q1021=
200806182130 METAR LPPR 182130Z 00000KT CAVOK 14/12 Q1020=
200806182100 METAR LPPR 182100Z 33004KT CAVOK 15/12 Q1020=
200806182030 METAR LPPR 182030Z 33004KT CAVOK 15/12 Q1020=
200806182000 METAR LPPR 182000Z 33007KT CAVOK 16/12 Q1020=
200806181930 METAR LPPR 181930Z 33007KT CAVOK 17/13 Q1020=
200806181900 METAR LPPR 181900Z 32010KT CAVOK 17/12 Q1020=
200806181830 METAR LPPR 181830Z 32011KT CAVOK 18/12 Q1020=
200806181800 METAR LPPR 181800Z 31010KT CAVOK 18/12 Q1019=
200806181730 METAR LPPR 181730Z 31010KT 270V340 CAVOK 19/13 Q1019=
200806181700 METAR LPPR 181700Z 33011KT 290V360 CAVOK 19/12 Q1019=
200806181630 METAR LPPR 181630Z 31012KT CAVOK 19/12 Q1019=
200806181600 METAR LPPR 181600Z 32013KT CAVOK 19/12 Q1019=
200806181530 METAR LPPR 181530Z 32012KT CAVOK 19/12 Q1020=
200806181500 METAR LPPR 181500Z 32012KT 290V350 CAVOK 19/12 Q1019=
200806181430 METAR LPPR 181430Z 32010KT 270V350 CAVOK 19/14 Q1019=
200806181400 METAR LPPR 181400Z 30012KT 9999 FEW015 19/14 Q1020=
200806181330 METAR LPPR 181330Z 31012KT 270V350 9999 FEW015 19/14 Q1019=
200806181300 METAR LPPR 181300Z 31011KT 270V340 9999 FEW017 19/14 Q1019=
200806181230 METAR LPPR 181230Z 32009KT 270V020 9999 FEW017 19/13 Q1019=
200806181200 METAR LPPR 181200Z 31008KT 280V350 9999 FEW017 19/14 Q1019=
200806181130 METAR LPPR 181130Z 29007KT 250V330 9999 SCT015 18/15 Q1019=
200806181100 METAR LPPR 181100Z 30004KT 210V360 8000 FEW009 SCT013 18/15
                        Q1019=
200806181030 METAR LPPR 181030Z 31006KT 260V340 8000 SCT009 BKN013 17/14
                        Q1019=
200806181000 METAR LPPR 181000Z 29006KT 260V330 8000 SCT009 BKN013 17/15
                        Q1019=
200806180930 METAR LPPR 180930Z VRB03KT 8000 SCT009 BKN013 17/15 Q1018=
200806180900 METAR LPPR 180900Z VRB02KT 8000 SCT006 BKN008 16/15 Q1018=
200806180830 METAR LPPR 180830Z 28004KT 250V320 8000 SCT006 BKN008 16/15
                        Q1018=
200806180800 METAR LPPR 180800Z VRB02KT 8000 SCT006 BKN008 16/15 Q1018=
200806180730 METAR LPPR 180730Z 00000KT 7000 SCT006 BKN008 15/15 Q1018=
200806180700 METAR LPPR 180700Z 00000KT 7000 BKN005 BKN007 15/15 Q1018=
200806180630 METAR LPPR 180630Z VRB02KT 7000 BKN004 BKN006 15/15 Q1018=
200806180600 METAR LPPR 180600Z VRB03KT 7000 BKN004 BKN006 15/15 Q1017=
200806180530 METAR LPPR 180530Z 11003KT 6000 SCT003 BKN006 15/15 Q1017=
200806180500 METAR LPPR 180500Z 14004KT 100V170 6000 SCT003 BKN006 15/15
                        Q1017=
200806180430 METAR LPPR 180430Z 14005KT 6000 SCT002 BKN005 14/14 Q1017=
200806180400 METAR LPPR 180400Z 14006KT 6000 SCT002 SCT005 14/14 Q1017=
200806180330 METAR LPPR 180330Z 14005KT 8000 SCT002 14/14 Q1017=
200806180300 METAR LPPR 180300Z 14004KT CAVOK 14/14 Q1017=
200806180230 METAR LPPR 180230Z 16006KT CAVOK 14/14 Q1017=
200806180200 METAR LPPR 180200Z 17006KT CAVOK 13/13 Q1017=
200806180130 METAR LPPR 180130Z 18005KT CAVOK 14/14 Q1017=
200806180100 METAR LPPR 180100Z VRB03KT CAVOK 14/14 Q1017=
200806180030 METAR LPPR 180030Z 13004KT CAVOK 14/14 Q1017=
200806180000 METAR LPPR 180000Z 00000KT CAVOK 14/14 Q1017=
200806172330 METAR LPPR 172330Z 00000KT CAVOK 14/14 Q1017=
200806172300 METAR LPPR 172300Z 00000KT CAVOK 14/14 Q1017=
200806172230 METAR LPPR 172230Z VRB02KT CAVOK 14/14 Q1018=
200806172200 METAR LPPR 172200Z 28003KT CAVOK 15/14 Q1018=
200806172130 METAR LPPR 172130Z 00000KT CAVOK 15/14 Q1018=
200806172100 METAR LPPR 172100Z 32003KT CAVOK 15/14 Q1017=
200806172030 METAR LPPR 172030Z 31006KT CAVOK 16/14 Q1017=
200806172000 METAR LPPR 172000Z 31006KT CAVOK 17/14 Q1017=
200806171930 METAR LPPR 171930Z 32006KT 290V350 CAVOK 18/14 Q1017=
200806171900 METAR LPPR 171900Z 32007KT 270V360 CAVOK 19/14 Q1017=
200806171830 METAR LPPR 171830Z 32008KT 290V350 CAVOK 19/14 Q1016=
200806171800 METAR LPPR 171800Z 31007KT CAVOK 20/14 Q1016=
200806171730 METAR LPPR 171730Z 32009KT CAVOK 20/14 Q1016=
200806171700 METAR LPPR 171700Z 32010KT CAVOK 20/14 Q1016=
200806171630 METAR LPPR 171630Z 31013KT CAVOK 20/14 Q1016=
200806171600 METAR LPPR 171600Z 31010G20KT 280V010 CAVOK 21/13 Q1016=
200806171530 METAR LPPR 171530Z 32012KT 9999 FEW020 21/14 Q1016=
200806171500 METAR LPPR 171500Z 31010KT 280V340 9999 FEW020 21/14 Q1016=
200806171430 METAR LPPR 171430Z 31008KT 9999 FEW020 21/14 Q1016=
200806171400 METAR LPPR 171400Z 31009KT 280V350 9999 FEW020 21/14 Q1016=
200806171330 METAR LPPR 171330Z 31010KT 9999 FEW020 20/13 Q1016=
200806171300 METAR LPPR 171300Z 32010KT 9999 FEW020 20/14 Q1016=
200806171230 METAR LPPR 171230Z 32012KT 9999 FEW020 20/14 Q1016=
200806171200 METAR LPPR 171200Z 31010KT 9999 FEW020 19/14 Q1017=
200806171130 METAR LPPR 171130Z 29010G21KT 9999 FEW020 19/14 Q1017=
200806171100 METAR LPPR 171100Z 30007G17KT 260V350 9999 FEW020 20/14 Q1016=
200806171030 METAR LPPR 171030Z 31008KT 280V340 9999 FEW017 19/14 Q1016=
200806171000 METAR LPPR 171000Z 31007KT 260V340 9999 FEW017 19/14 Q1016=
200806170930 METAR LPPR 170930Z 32005KT 280V350 CAVOK 19/13 Q1016=
200806170900 METAR LPPR 170900Z 33004KT 280V060 CAVOK 18/13 Q1016=
200806170830 METAR LPPR 170830Z 36005KT CAVOK 17/12 Q1016=
200806170800 METAR LPPR 170800Z 01006KT CAVOK 16/12 Q1016=
200806170730 METAR LPPR 170730Z 35007KT CAVOK 15/12 Q1016=
200806170700 METAR LPPR 170700Z 35005KT CAVOK 14/12 Q1016=
200806170630 METAR LPPR 170630Z 35003KT CAVOK 13/12 Q1015=
200806170600 METAR LPPR 170600Z 33002KT CAVOK 11/11 Q1015=
200806170530 METAR LPPR 170530Z 34003KT CAVOK 11/10 Q1015=
200806170500 METAR LPPR 170500Z 36002KT CAVOK 11/11 Q1015=
200806170430 METAR LPPR 170430Z 01003KT CAVOK 11/11 Q1014=
200806170400 METAR LPPR 170400Z 36005KT CAVOK 11/10 Q1014=
200806170330 METAR LPPR 170330Z 34003KT CAVOK 12/11 Q1014=
200806170300 METAR LPPR 170300Z 34003KT CAVOK 12/11 Q1014=
200806170230 METAR LPPR 170230Z VRB02KT CAVOK 13/11 Q1014=
200806170200 METAR LPPR 170200Z 36004KT CAVOK 14/11 Q1014=
200806170130 METAR LPPR 170130Z 36006KT CAVOK 13/11 Q1014=
200806170100 METAR LPPR 170100Z 35007KT CAVOK 14/11 Q1014=
200806170030 METAR LPPR 170030Z 35007KT CAVOK 14/11 Q1014=
200806170000 METAR LPPR 170000Z 02004KT 350V070 CAVOK 16/11 Q1014=
200806162330 METAR LPPR 162330Z 36008KT CAVOK 16/12 Q1013=
200806162300 METAR LPPR 162300Z 36010KT CAVOK 16/12 Q1013=
200806162230 METAR LPPR 162230Z 36008KT CAVOK 16/13 Q1013=
200806162200 METAR LPPR 162200Z 35007KT CAVOK 16/14 Q1013=
200806162130 METAR LPPR 162130Z 36004KT CAVOK 16/15 Q1012=
200806162100 METAR LPPR 162100Z 33005KT CAVOK 17/15 Q1012=
200806162030 METAR LPPR 162030Z 32004KT 9999 FEW013 18/15 Q1011=
200806162000 METAR LPPR 162000Z 33006KT 290V350 9999 FEW013 19/15 Q1011=
200806161930 METAR LPPR 161930Z 33006KT 9999 FEW013 20/15 Q1010=
200806161900 METAR LPPR 161900Z 33010KT 9999 FEW013 FEW020CB 20/16 Q1010=
200806161830 METAR LPPR 161830Z 34010KT 9999 SCT013 FEW020CB 19/16 Q1010=
200806161800 METAR LPPR 161800Z 33012KT 9999 SCT013 FEW020CB 21/15 Q1010=
200806161730 METAR LPPR 161730Z 33010KT 9999 SCT013 FEW020CB 21/16 Q1010=
200806161700 METAR LPPR 161700Z 32011KT 290V350 9999 SCT013 FEW020CB 21/16
                        Q1009=
200806161630 METAR LPPR 161630Z 32010G22KT 270V360 9999 SCT013 FEW020CB
                        20/16 Q1009=
200806161600 METAR LPPR 161600Z 31013KT 9999 SCT013 FEW020CB 20/16 Q1010=
200806161530 METAR LPPR 161530Z 31011KT 9999 SCT013 20/16 Q1010=
200806161500 METAR LPPR 161500Z 31011KT 270V330 9999 SCT013 20/16 Q1010=
200806161430 METAR LPPR 161430Z 32012KT 9999 SCT013 20/16 Q1010=
200806161400 METAR LPPR 161400Z 32013KT 290V350 9999 SCT009 BKN015 20/17
                        Q1010=
200806161330 METAR LPPR 161330Z 29011G21KT 250V330 9999 SCT009 BKN015
                        19/18 Q1010=
200806161300 METAR LPPR 161300Z 29009KT 260V330 9999 SCT009 BKN015 20/18
                        Q1009=
200806161230 METAR LPPR 161230Z 31010KT 9999 SCT008 BKN015 19/18 Q1010=
200806161200 METAR LPPR 161200Z 32009KT 270V350 9999 SCT008 BKN015 19/18
                        Q1009=
200806161130 METAR LPPR 161130Z 31007KT 270V340 9999 SCT004 BKN013 18/18
                        Q1010=
200806161100 METAR LPPR 161100Z 31008KT 280V010 9999 -SHRA SCT005 BKN013
                        18/18 Q1010=
200806161030 METAR LPPR 161030Z 30005KT 260V340 9999 -SHRA SCT003 BKN005
                        BKN013 17/17 Q1010=
200806161000 METAR LPPR 161000Z 30007KT 270V330 6000 -SHRA SCT003 BKN005
                        BKN013 17/17 Q1009=
200806160930 METAR LPPR 160930Z 27004KT 220V310 8000 -RA FEW003 SCT005
                        BKN016 17/17 Q1009=
200806160900 METAR LPPR 160900Z 28006KT 240V310 9999 SCT006 SCT015 BKN030
                        17/17 Q1009=
200806160830 METAR LPPR 160830Z 27004KT 240V320 9999 SCT003 BKN008 BKN020
                        18/18 Q1009=
200806160800 METAR LPPR 160800Z 27004KT 230V310 9999 SCT003 SCT006 BKN020
                        17/17 Q1009=
200806160730 METAR LPPR 160730Z 28004KT 250V310 9999 SCT003 SCT006 BKN020
                        17/17 Q1009=
200806160700 METAR LPPR 160700Z 28004KT 250V310 9999 -RA SCT003 BKN006
                        BKN020 17/17 Q1009=
200806160630 METAR LPPR 160630Z 28004KT 230V320 9999 -RA SCT004 BKN007
                        BKN020 17/17 Q1009=
200806160600 METAR LPPR 160600Z 30005KT 260V330 9999 BKN008 BKN015 17/17
                        Q1009=
200806160530 METAR LPPR 160530Z 28009KT 250V310 8000 -RA BKN002 BKN004
                        17/17 Q1008=
200806160500 METAR LPPR 160500Z 23004KT 200V310 9999 SCT005 BKN007 17/17
                        Q1008=
200806160430 METAR LPPR 160430Z VRB03KT 9999 SCT004 BKN007 17/17 Q1008=
200806160400 METAR LPPR 160400Z 22004KT 7000 BKN003 BKN005 17/17 Q1009=
200806160330 METAR LPPR 160330Z 21004KT 170V310 5000 -DZ BR BKN003 BKN005
                        16/16 Q1009=
200806160300 METAR LPPR 160300Z 24005KT 200V270 4000 -RADZ BR BKN002 BKN004
                        17/17 Q1009=
200806160230 METAR LPPR 160230Z 23006KT 190V260 4000 -RADZ BR BKN002 BKN004
                        17/17 Q1010=
200806160200 METAR LPPR 160200Z 23007KT 200V260 9999 SCT003 BKN005 17/17
                        Q1010=
200806160130 METAR LPPR 160130Z 23006KT 190V260 9999 SCT003 BKN005 17/17
                        Q1010=
200806160100 METAR LPPR 160100Z 23006KT 9999 BKN004 BKN025 17/17 Q1011=
200806160030 METAR LPPR 160030Z 22007KT 180V260 7000 SCT002 BKN004 18/18
                        Q1011=
200806160000 METAR LPPR 160000Z 22005KT 190V250 5000 BR SCT000 BKN003
                        18/18 Q1011=
200806152330 METAR LPPR 152330Z 22005KT 180V260 6000 SCT001 BKN005 18/18
                        Q1011=
200806152300 METAR LPPR 152300Z 23006KT 6000 SCT001 BKN005 18/18 Q1012=
200806152230 METAR LPPR 152230Z 23005KT 200V260 6000 SCT001 SCT003 BKN007
                        18/18 Q1012=
200806152200 METAR LPPR 152200Z 22004KT 190V260 7000 BKN002 BKN005 18/18
                        Q1012=
200806152130 METAR LPPR 152130Z VRB03KT 8000 SCT002 BKN004 18/18 Q1012=
200806152100 METAR LPPR 152100Z VRB03KT 9999 -DZ SCT003 BKN005 18/18 Q1012=
200806152030 METAR LPPR 152030Z 22003KT 9999 SCT004 BKN006 18/18 Q1012=
200806152000 METAR LPPR 152000Z VRB03KT 9999 SCT005 BKN008 18/18 Q1012=
200806151930 METAR LPPR 151930Z VRB03KT 9999 SCT005 BKN008 18/18 Q1012=
200806151900 METAR LPPR 151900Z VRB03KT 9999 SCT005 BKN008 18/18 Q1012=
200806151830 METAR LPPR 151830Z 27004KT 220V320 7000 FEW002 BKN004 BKN008
                        18/18 Q1012=
200806151800 METAR LPPR 151800Z 28005KT 250V310 5000 BR SCT001 BKN005
                        18/18 Q1013=
200806151730 METAR LPPR 151730Z 27006KT 250V310 2500 BR SCT000 BKN003
                        18/18 Q1013=
200806151700 METAR LPPR 151700Z 24005KT 200V290 3000 BR BKN002 BKN004
                        18/18 Q1013=
200806151630 METAR LPPR 151630Z 22008KT 190V250 3000 BR BKN001 BKN003
                        18/18 Q1013=
200806151600 METAR LPPR 151600Z 21008KT 170V250 3000 BR BKN001 BKN003
                        18/18 Q1013=
200806151530 METAR LPPR 151530Z 20012KT 180V240 3000 -DZ BR BKN001 BKN003
                        18/18 Q1014=
200806151500 METAR LPPR 151500Z 19012KT 160V220 2500 RADZ BR BKN001 BKN003
                        18/18 Q1013=
200806151430 METAR LPPR 151430Z 19015KT 2500 -RADZ BR SCT001 BKN003 18/18
                        Q1014=
200806151400 METAR LPPR 151400Z 18012KT 2500 -RADZ BR SCT001 BKN003 18/18
                        Q1014=
200806151330 METAR LPPR 151330Z 18014KT 2500 -RADZ BR SCT001 BKN004 17/17
                        Q1014=
200806151300 METAR LPPR 151300Z 18014KT 5000 -RA BR SCT004 BKN006 17/17
                        Q1014=
200806151230 METAR LPPR 151230Z 18014KT 4000 -RA BR SCT004 BKN006 17/17
                        Q1015=
200806151200 METAR LPPR 151200Z 18013KT 4000 -RA BR SCT003 BKN005 17/17
                        Q1015=
200806151130 METAR LPPR 151130Z 18011KT 5000 BR SCT004 BKN005 17/17 Q1015=
200806151100 METAR LPPR 151100Z 18010KT 5000 BR SCT003 BKN005 17/17 Q1015=
200806151030 METAR LPPR 151030Z 18010KT 3000 -RA BR SCT003 BKN005 17/17
                        Q1015=
200806151000 METAR LPPR 151000Z 18008KT 3000 -RA BR SCT003 BKN005 17/17
                        Q1015=
200806150930 METAR LPPR 150930Z 19007KT 4000 -RA BR SCT005 BKN006 17/17
                        Q1015=
200806150900 METAR LPPR 150900Z VRB03KT 4000 -RA BR SCT005 BKN006 17/17
                        Q1015=
200806150830 METAR LPPR 150830Z 20005KT 160V240 2000 -RA BR SCT003 BKN004
                        17/17 Q1015=
200806150800 METAR LPPR 150800Z VRB03KT 2000 -RA BR SCT002 BKN004 16/16
                        Q1015=
200806150730 METAR LPPR 150730Z 11005KT 070V150 2000 -RA BR BKN003 BKN005
                        16/16 Q1015=
200806150700 METAR LPPR 150700Z 12004KT 4000 -RA BR BKN006 BKN015 16/16
                        Q1015=
200806150630 METAR LPPR 150630Z 17005KT 5000 -RA BR BKN007 BKN015 16/16
                        Q1015=
200806150600 METAR LPPR 150600Z 15005KT 6000 -RA SCT009 BKN015 17/16 Q1015=
200806150530 METAR LPPR 150530Z VRB03KT 8000 SCT025 BKN070 17/16 Q1015=
200806150500 METAR LPPR 150500Z 18006KT 8000 SCT025 BKN070 16/15 Q1015=
200806150430 METAR LPPR 150430Z 17005KT 9999 FEW025 BKN070 16/15 Q1015=
200806150400 METAR LPPR 150400Z 18003KT 9999 FEW025 BKN080 16/15 Q1015=
200806150330 METAR LPPR 150330Z 18003KT 9999 FEW025 BKN080 16/15 Q1015=
200806150300 METAR LPPR 150300Z 00000KT 9999 FEW025 BKN090 16/15 Q1015=
200806150230 METAR LPPR 150230Z 16004KT 130V210 9999 FEW025 BKN080 16/15
                        Q1015=
200806150200 METAR LPPR 150200Z 17004KT 9999 FEW025 BKN080 16/16 Q1016=
200806150130 METAR LPPR 150130Z 00000KT 9999 FEW025 BKN080 16/16 Q1017=
200806150100 METAR LPPR 150100Z VRB03KT 9999 SCT025 BKN090 16/16 Q1017=
200806150030 METAR LPPR 150030Z 00000KT 9999 -RA BKN025 BKN090 16/15 Q1016=
200806150000 METAR LPPR 150000Z VRB03KT 9999 SCT025 BKN090 16/15 Q1017=
200806142330 METAR LPPR 142330Z 24002KT CAVOK 16/14 Q1017=
200806142300 METAR LPPR 142300Z 00000KT CAVOK 16/15 Q1017=
200806142230 METAR LPPR 142230Z 00000KT CAVOK 16/14 Q1018=
200806142200 METAR LPPR 142200Z 29003KT CAVOK 16/14 Q1018=
200806142130 METAR LPPR 142130Z 00000KT CAVOK 16/14 Q1017=
200806142100 METAR LPPR 142100Z 00000KT 9999 FEW030 SCT090 16/14 Q1017=
200806142030 METAR LPPR 142030Z 00000KT 9999 FEW030 16/14 Q1017=
200806142000 METAR LPPR 142000Z 00000KT 9999 FEW030 17/13 Q1017=
200806141930 METAR LPPR 141930Z 28006KT CAVOK 18/13 Q1018=
200806141900 METAR LPPR 141900Z 28005KT CAVOK 20/13 Q1017=
200806141830 METAR LPPR 141830Z VRB03KT CAVOK 20/14 Q1017=
200806141800 METAR LPPR 141800Z 32004KT 290V350 CAVOK 20/13 Q1017=
200806141730 METAR LPPR 141730Z 31006KT CAVOK 19/13 Q1017=
200806141700 METAR LPPR 141700Z 29007KT 250V340 CAVOK 21/14 Q1018=
200806141630 METAR LPPR 141630Z 29005KT 260V340 CAVOK 21/13 Q1018=
200806141600 METAR LPPR 141600Z 28005KT 240V330 9999 FEW006 BKN200 21/16
                        Q1018=
200806141530 METAR LPPR 141530Z 29005KT 250V320 9999 FEW006 BKN200 20/17
                        Q1018=
200806141500 METAR LPPR 141500Z 29005KT 9999 FEW006 BKN200 20/17 Q1018=
200806141430 METAR LPPR 141430Z 29005KT 260V340 9999 FEW006 BKN200 20/17
                        Q1018=
200806141400 METAR LPPR 141400Z 25006KT 9999 FEW006 BKN200 21/17 Q1018=
200806141330 METAR LPPR 141330Z 26005KT 230V290 CAVOK 22/17 Q1018=
200806141300 METAR LPPR 141300Z 24005KT 190V270 8000 FEW004 BKN250 22/18
                        Q1018=
200806141230 METAR LPPR 141230Z 26006KT 8000 FEW004 BKN250 22/18 Q1018=
200806141200 METAR LPPR 141200Z 22005KT 170V250 7000 FEW004 BKN250 20/17
                        Q1019=
200806141130 METAR LPPR 141130Z 22007KT 200V270 7000 FEW004 BKN250 21/17
                        Q1019=
200806141100 METAR LPPR 141100Z 23005KT 190V300 7000 FEW004 BKN250 20/17
                        Q1019=
200806141030 METAR LPPR 141030Z 22006KT 160V270 7000 FEW004 BKN250 20/17
                        Q1019=
200806141000 METAR LPPR 141000Z 23007KT 200V260 7000 FEW004 BKN250 19/17
                        Q1018=
200806140930 METAR LPPR 140930Z 20005KT 160V250 7000 FEW004 BKN250 20/17
                        Q1018=
200806140900 METAR LPPR 140900Z 20004KT 140V250 7000 FEW004 BKN250 19/17
                        Q1018=
200806140830 METAR LPPR 140830Z 22004KT 150V250 8000 FEW100 SCT250 19/16
                        Q1018=
200806140800 METAR LPPR 140800Z VRB03KT CAVOK 19/17 Q1018=
200806140730 METAR LPPR 140730Z VRB03KT CAVOK 18/16 Q1018=
200806140700 METAR LPPR 140700Z VRB03KT CAVOK 17/16 Q1018=
200806140630 METAR LPPR 140630Z 12003KT CAVOK 16/16 Q1017=
200806140600 METAR LPPR 140600Z 00000KT CAVOK 15/15 Q1017=
200806140530 METAR LPPR 140530Z 13002KT CAVOK 14/14 Q1017=
200806140500 METAR LPPR 140500Z 10003KT CAVOK 15/15 Q1017=
200806140430 METAR LPPR 140430Z 00000KT CAVOK 15/15 Q1017=
200806140400 METAR LPPR 140400Z 15003KT CAVOK 15/15 Q1017=
200806140330 METAR LPPR 140330Z 17006KT CAVOK 15/15 Q1017=
200806140300 METAR LPPR 140300Z 18005KT CAVOK 15/15 Q1017=
200806140230 METAR LPPR 140230Z VRB03KT CAVOK 15/15 Q1017=
200806140200 METAR LPPR 140200Z 18006KT CAVOK 15/15 Q1017=
200806140130 METAR LPPR 140130Z 16004KT CAVOK 15/15 Q1017=
200806140100 METAR LPPR 140100Z 00000KT CAVOK 15/15 Q1017=
200806140030 METAR LPPR 140030Z 00000KT CAVOK 15/15 Q1017=
200806140000 METAR LPPR 140000Z 00000KT CAVOK 15/15 Q1018=
200806132330 METAR LPPR 132330Z 00000KT CAVOK 15/15 Q1018=
200806132300 METAR LPPR 132300Z VRB02KT CAVOK 16/15 Q1018=
200806132230 METAR LPPR 132230Z 00000KT CAVOK 16/15 Q1018=
200806132200 METAR LPPR 132200Z 00000KT CAVOK 17/15 Q1018=
200806132130 METAR LPPR 132130Z 30004G16KT 260V340 CAVOK 18/15 Q1017=
200806132100 METAR LPPR 132100Z 35004KT CAVOK 18/15 Q1017=
200806132030 METAR LPPR 132030Z 33007KT CAVOK 19/14 Q1017=
200806132000 METAR LPPR 132000Z 33009KT CAVOK 20/14 Q1017=
200806131930 METAR LPPR 131930Z 32008KT CAVOK 21/15 Q1017=
200806131900 METAR LPPR 131900Z 33009KT CAVOK 22/15 Q1017=
200806131830 METAR LPPR 131830Z 33010KT CAVOK 22/15 Q1017=
200806131800 METAR LPPR 131800Z 33008KT CAVOK 23/15 Q1017=
200806131730 METAR LPPR 131730Z 32009KT CAVOK 23/16 Q1016=
200806131700 METAR LPPR 131700Z 31010KT 280V340 CAVOK 23/16 Q1016=
200806131630 METAR LPPR 131630Z 30009KT 270V010 CAVOK 22/16 Q1016=
200806131600 METAR LPPR 131600Z 30010G20KT 280V360 CAVOK 23/16 Q1016=
200806131530 METAR LPPR 131530Z 31007KT 270V350 CAVOK 24/16 Q1016=
200806131500 METAR LPPR 131500Z 31009KT 270V360 CAVOK 24/16 Q1016=
200806131430 METAR LPPR 131430Z 32010KT 280V340 CAVOK 24/15 Q1016=
200806131400 METAR LPPR 131400Z 30007KT 280V340 CAVOK 24/14 Q1016=
200806131330 METAR LPPR 131330Z 30007KT 260V360 CAVOK 23/16 Q1017=
200806131300 METAR LPPR 131300Z 29008KT 260V320 CAVOK 23/17 Q1017=
200806131230 METAR LPPR 131230Z 29006KT 260V320 CAVOK 23/17 Q1017=
200806131200 METAR LPPR 131200Z 28005KT 230V330 CAVOK 23/18 Q1017=
200806131130 METAR LPPR 131130Z 25006KT 220V280 CAVOK 23/18 Q1017=
200806131100 METAR LPPR 131100Z 27005KT 230V300 CAVOK 23/18 Q1017=
200806131030 METAR LPPR 131030Z 25005KT 190V290 CAVOK 23/18 Q1017=
200806131000 METAR LPPR 131000Z 25005KT CAVOK 23/18 Q1017=
200806130930 METAR LPPR 130930Z 25005KT CAVOK 22/16 Q1017=
200806130900 METAR LPPR 130900Z 26006KT 230V290 CAVOK 22/16 Q1017=
200806130830 METAR LPPR 130830Z VRB03KT CAVOK 23/16 Q1017=
200806130800 METAR LPPR 130800Z 12004KT CAVOK 22/16 Q1017=
200806130730 METAR LPPR 130730Z 11003KT CAVOK 21/16 Q1017=
200806130700 METAR LPPR 130700Z 13004KT CAVOK 19/16 Q1017=
200806130630 METAR LPPR 130630Z 00000KT 7000 FEW100 17/17 Q1017=
200806130600 METAR LPPR 130600Z 00000KT 7000 FEW100 16/16 Q1017=
200806130530 METAR LPPR 130530Z 00000KT 7000 FEW100 15/15 Q1016=
200806130500 METAR LPPR 130500Z 00000KT CAVOK 16/15 Q1016=
200806130430 METAR LPPR 130430Z 00000KT CAVOK 16/15 Q1016=
200806130400 METAR LPPR 130400Z 00000KT CAVOK 17/15 Q1016=
200806130330 METAR LPPR 130330Z 00000KT CAVOK 18/15 Q1017=
200806130300 METAR LPPR 130300Z 00000KT CAVOK 18/15 Q1017=
200806130230 METAR LPPR 130230Z 00000KT CAVOK 17/15 Q1017=
200806130200 METAR LPPR 130200Z 00000KT CAVOK 17/16 Q1017=
200806130130 METAR LPPR 130130Z 00000KT CAVOK 17/16 Q1017=
200806130100 METAR LPPR 130100Z 00000KT CAVOK 17/16 Q1017=
200806130030 METAR LPPR 130030Z 00000KT CAVOK 17/16 Q1017=
200806130000 METAR LPPR 130000Z 00000KT CAVOK 17/16 Q1018=
200806122330 METAR LPPR 122330Z 00000KT CAVOK 18/17 Q1018=
200806122300 METAR LPPR 122300Z 00000KT CAVOK 18/16 Q1018=
200806122230 METAR LPPR 122230Z 00000KT CAVOK 19/16 Q1018=
200806122200 METAR LPPR 122200Z 00000KT CAVOK 19/16 Q1018=
200806122130 METAR LPPR 122130Z 00000KT CAVOK 20/16 Q1018=
200806122100 METAR LPPR 122100Z 00000KT CAVOK 20/16 Q1018=
200806122030 METAR LPPR 122030Z 35005KT CAVOK 20/15 Q1018=
200806122000 METAR LPPR 122000Z 34008KT CAVOK 21/15 Q1018=
200806121930 METAR LPPR 121930Z 35010KT CAVOK 22/15 Q1018=
200806121900 METAR LPPR 121900Z 34008KT 300V010 9999 FEW025 23/15 Q1018=
200806121830 METAR LPPR 121830Z 32007KT 280V350 9999 FEW025 FEW030CB 24/15
                        Q1018=
200806121800 METAR LPPR 121800Z 33010KT 9999 FEW025CB 24/13 Q1018=
200806121730 METAR LPPR 121730Z 33014KT 9999 FEW025TCU 24/12 Q1018=
200806121700 METAR LPPR 121700Z 33012KT 9999 FEW025TCU 25/12 Q1019=
200806121630 METAR LPPR 121630Z 33013KT 9999 FEW025 25/12 Q1019=
200806121600 METAR LPPR 121600Z 32012KT 290V350 9999 FEW025 26/11 Q1019=
200806121530 METAR LPPR 121530Z 32012KT 290V350 9999 FEW025 26/12 Q1019=
200806121500 METAR LPPR 121500Z 33014KT CAVOK 26/12 Q1019=
200806121430 METAR LPPR 121430Z 31014KT CAVOK 26/13 Q1019=
200806121400 METAR LPPR 121400Z 32010KT CAVOK 27/14 Q1019=
200806121330 METAR LPPR 121330Z 31011KT CAVOK 27/13 Q1020=
200806121300 METAR LPPR 121300Z 33011KT CAVOK 26/14 Q1020=
200806121230 METAR LPPR 121230Z 32012KT CAVOK 26/14 Q1020=
200806121200 METAR LPPR 121200Z 31009KT 290V350 CAVOK 26/15 Q1020=
200806121130 METAR LPPR 121130Z 31007G18KT 270V040 CAVOK 27/14 Q1020=
200806121100 METAR LPPR 121100Z VRB02KT CAVOK 27/12 Q1020=
200806121030 METAR LPPR 121030Z 11005KT 050V160 CAVOK 27/12 Q1020=
200806121000 METAR LPPR 121000Z 10006KT 360V160 CAVOK 26/12 Q1020=
200806120930 METAR LPPR 120930Z 10007KT 030V150 CAVOK 25/12 Q1020=
200806120900 METAR LPPR 120900Z 09007KT 050V130 CAVOK 25/13 Q1021=
200806120830 METAR LPPR 120830Z 11007KT 060V130 CAVOK 24/13 Q1021=
200806120800 METAR LPPR 120800Z 10008KT 060V130 CAVOK 23/13 Q1021=
200806120730 METAR LPPR 120730Z 10007KT 060V140 CAVOK 23/13 Q1020=
200806120700 METAR LPPR 120700Z 10007KT CAVOK 22/13 Q1020=
200806120630 METAR LPPR 120630Z 10006KT 060V140 CAVOK 22/12 Q1020=
200806120600 METAR LPPR 120600Z 10005KT 070V130 CAVOK 21/12 Q1020=
200806120530 METAR LPPR 120530Z 09004KT 040V130 CAVOK 21/12 Q1020=
200806120500 METAR LPPR 120500Z 10006KT 050V130 CAVOK 21/12 Q1019=
200806120430 METAR LPPR 120430Z 10005KT CAVOK 21/12 Q1019=
200806120400 METAR LPPR 120400Z 10004KT CAVOK 21/13 Q1019=
200806120330 METAR LPPR 120330Z 10004KT CAVOK 21/12 Q1019=
200806120300 METAR LPPR 120300Z 11005KT CAVOK 21/13 Q1019=
200806120230 METAR LPPR 120230Z 11006KT CAVOK 22/14 Q1019=
200806120200 METAR LPPR 120200Z 10007KT CAVOK 22/14 Q1019=
200806120130 METAR LPPR 120130Z 10006KT 070V130 CAVOK 22/16 Q1019=
200806120100 METAR LPPR 120100Z 10004KT CAVOK 22/16 Q1019=
200806120030 METAR LPPR 120030Z VRB03KT CAVOK 21/16 Q1019=
200806120000 METAR LPPR 120000Z 03003KT CAVOK 20/17 Q1020=
200806112330 METAR LPPR 112330Z 12003KT CAVOK 21/17 Q1020=
200806112300 METAR LPPR 112300Z 09003KT CAVOK 20/16 Q1020=
200806112230 METAR LPPR 112230Z 00000KT CAVOK 19/17 Q1019=
200806112200 METAR LPPR 112200Z 00000KT CAVOK 19/17 Q1019=
200806112130 METAR LPPR 112130Z 00000KT CAVOK 18/17 Q1019=
200806112100 METAR LPPR 112100Z 35003KT 9999 FEW030TCU 19/16 Q1019=
200806112030 METAR LPPR 112030Z VRB03KT 9999 FEW030TCU 20/16 Q1019=
200806112000 METAR LPPR 112000Z VRB03KT 9999 FEW025 21/16 Q1019=
200806111930 METAR LPPR 111930Z 32004KT 9999 FEW025 21/16 Q1018=
200806111900 METAR LPPR 111900Z 31004KT 9999 FEW025 22/16 Q1018=
200806111830 METAR LPPR 111830Z 32007G17KT 270V350 9999 FEW025 24/16 Q1018=
200806111800 METAR LPPR 111800Z 32008KT 9999 FEW025 24/16 Q1018=
200806111730 METAR LPPR 111730Z 32008KT 280V350 9999 FEW025 24/16 Q1018=
200806111700 METAR LPPR 111700Z 33008KT 9999 FEW025 25/16 Q1019=
200806111630 METAR LPPR 111630Z 32010KT 9999 FEW020 FEW025TCU SCT080 26/16
                        Q1019=
200806111600 METAR LPPR 111600Z 34010KT 9999 FEW020 FEW025TCU 27/15 Q1019=
200806111530 METAR LPPR 111530Z 33011KT CAVOK 27/15 Q1019=
200806111500 METAR LPPR 111500Z 32011KT 9999 FEW025 27/16 Q1019=
200806111430 METAR LPPR 111430Z 32010KT 9999 FEW025 27/15 Q1019=
200806111400 METAR LPPR 111400Z 33014KT 9999 FEW025 27/12 Q1019=
200806111330 METAR LPPR 111330Z 32014KT 290V350 9999 FEW025 26/13 Q1019=
200806111300 METAR LPPR 111300Z 31013KT 270V330 9999 FEW025 27/15 Q1020=
200806111230 METAR LPPR 111230Z VRB06KT 9999 FEW020 28/12 Q1020=
200806111200 METAR LPPR 111200Z 09006KT 340V140 9999 FEW020 28/12 Q1020=
200806111130 METAR LPPR 111130Z 05008KT 010V080 9999 FEW020 27/12 Q1020=
200806111100 METAR LPPR 111100Z 06006KT 350V120 CAVOK 27/12 Q1020=
200806111030 METAR LPPR 111030Z 06005KT 330V130 CAVOK 26/13 Q1020=
200806111000 METAR LPPR 111000Z 04007KT 350V080 CAVOK 25/14 Q1020=
200806110930 METAR LPPR 110930Z 04008KT 360V070 CAVOK 24/14 Q1020=
200806110900 METAR LPPR 110900Z 04007KT 360V080 CAVOK 23/15 Q1020=
200806110830 METAR LPPR 110830Z 05007KT 350V080 CAVOK 23/14 Q1020=
200806110800 METAR LPPR 110800Z 05005KT 350V110 CAVOK 22/14 Q1020=
200806110730 METAR LPPR 110730Z 05008KT CAVOK 21/14 Q1020=
200806110700 METAR LPPR 110700Z 04005KT 360V070 CAVOK 20/14 Q1020=
200806110630 METAR LPPR 110630Z 00000KT CAVOK 19/15 Q1020=
200806110600 METAR LPPR 110600Z 00000KT CAVOK 18/14 Q1020=
200806110530 METAR LPPR 110530Z 08003KT CAVOK 17/14 Q1019=
200806110500 METAR LPPR 110500Z 00000KT CAVOK 17/14 Q1019=
200806110430 METAR LPPR 110430Z 08004KT CAVOK 18/14 Q1019=
200806110400 METAR LPPR 110400Z 05004KT CAVOK 18/14 Q1019=
200806110330 METAR LPPR 110330Z VRB02KT CAVOK 18/14 Q1019=
200806110300 METAR LPPR 110300Z 09004KT 050V120 CAVOK 19/15 Q1018=
200806110230 METAR LPPR 110230Z 10006KT 070V130 CAVOK 20/15 Q1018=
200806110200 METAR LPPR 110200Z 09004KT 050V130 CAVOK 19/15 Q1018=
200806110130 METAR LPPR 110130Z 00000KT CAVOK 18/16 Q1018=
200806110100 METAR LPPR 110100Z 05002KT CAVOK 19/16 Q1018=
200806110030 METAR LPPR 110030Z 08003KT CAVOK 19/16 Q1018=
200806110000 METAR LPPR 110000Z VRB02KT CAVOK 20/16 Q1018=
200806102330 METAR LPPR 102330Z VRB02KT CAVOK 20/16 Q1018=
200806102300 METAR LPPR 102300Z 04006KT CAVOK 20/16 Q1018=
200806102230 METAR LPPR 102230Z 05005KT 020V080 CAVOK 21/16 Q1018=
200806102200 METAR LPPR 102200Z 05004KT 020V080 CAVOK 21/16 Q1018=
200806102130 METAR LPPR 102130Z 06004KT 030V100 CAVOK 21/16 Q1018=
200806102100 METAR LPPR 102100Z VRB03KT CAVOK 21/16 Q1017=
200806102030 METAR LPPR 102030Z 05005KT 020V090 9999 FEW025CB SCT200 21/15
                        Q1017=
200806102000 METAR LPPR 102000Z 01005KT 350V050 9999 FEW020 FEW025CB SCT200
                        22/15 Q1017=
200806101930 METAR LPPR 101930Z 03005KT 9999 FEW020 FEW025CB BKN200 23/15
                        Q1017=
200806101900 METAR LPPR 101900Z 34004KT 300V010 9999 FEW020 SCT045 BKN200
                        23/14 Q1017=
200806101830 METAR LPPR 101830Z VRB03KT 9999 FEW020 FEW025CB SCT070 21/15
                        Q1017=
200806101800 METAR LPPR 101800Z 34010KT 9999 SCT020 FEW025CB BKN060 21/16
                        Q1017=
200806101730 METAR LPPR 101730Z 32007KT 270V350 8000 -TSRA SCT020 SCT025CB
                        BKN045 25/17 Q1017=
200806101700 METAR LPPR 101700Z 33008KT 290V360 9999 SCT020 FEW025CB 26/15
                        Q1017=
200806101630 METAR LPPR 101630Z 31008KT 9999 SCT020 26/15 Q1017=
200806101600 METAR LPPR 101600Z 28008KT 250V330 9999 SCT020 25/16 Q1017=
200806101530 METAR LPPR 101530Z 30007KT 260V330 9999 SCT020 26/15 Q1017=
200806101500 METAR LPPR 101500Z 32010KT 9999 SCT020 25/12 Q1017=
200806101430 METAR LPPR 101430Z 33013KT 290V350 9999 SCT018 25/10 Q1018=
200806101400 METAR LPPR 101400Z 33011KT 9999 SCT017 24/12 Q1018=
200806101330 METAR LPPR 101330Z 33013KT 9999 SCT017 22/13 Q1018=
200806101300 METAR LPPR 101300Z 32010KT 280V350 9999 FEW017 23/13 Q1018=
200806101230 METAR LPPR 101230Z 32012KT 9999 FEW017 24/14 Q1018=
200806101200 METAR LPPR 101200Z 31010KT 290V010 9999 FEW017 24/13 Q1018=
200806101130 METAR LPPR 101130Z 31010KT 270V010 9999 FEW020 24/13 Q1018=
200806101100 METAR LPPR 101100Z 04008KT 010V110 9999 FEW020 26/10 Q1018=
200806101030 METAR LPPR 101030Z 03007KT 9999 FEW020 25/11 Q1018=
200806101000 METAR LPPR 101000Z 03004KT 340V090 CAVOK 25/12 Q1018=
200806100930 METAR LPPR 100930Z 33004KT 290V030 CAVOK 24/14 Q1018=
200806100900 METAR LPPR 100900Z 35004KT 310V020 CAVOK 23/14 Q1019=
200806100830 METAR LPPR 100830Z VRB03KT CAVOK 22/13 Q1019=
200806100800 METAR LPPR 100800Z VRB03KT CAVOK 21/14 Q1019=
200806100730 METAR LPPR 100730Z 35004KT CAVOK 21/14 Q1019=
200806100700 METAR LPPR 100700Z VRB03KT CAVOK 20/13 Q1018=
200806100630 METAR LPPR 100630Z 35002KT CAVOK 19/14 Q1018=
200806100600 METAR LPPR 100600Z 04002KT CAVOK 18/12 Q1018=
200806100530 METAR LPPR 100530Z VRB03KT CAVOK 17/12 Q1018=
200806100500 METAR LPPR 100500Z 00000KT CAVOK 18/12 Q1018=
200806100430 METAR LPPR 100430Z 05004KT 030V090 CAVOK 18/12 Q1018=
200806100400 METAR LPPR 100400Z 00000KT CAVOK 16/13 Q1018=
200806100330 METAR LPPR 100330Z 00000KT CAVOK 17/13 Q1018=
200806100300 METAR LPPR 100300Z 05002KT CAVOK 17/13 Q1018=
200806100230 METAR LPPR 100230Z 00000KT CAVOK 17/13 Q1018=
200806100200 METAR LPPR 100200Z 00000KT CAVOK 18/13 Q1018=
200806100130 METAR LPPR 100130Z 00000KT CAVOK 19/14 Q1018=
200806100100 METAR LPPR 100100Z 08004KT 050V110 CAVOK 20/13 Q1018=
200806100030 METAR LPPR 100030Z 11006KT CAVOK 20/13 Q1018=
200806100000 METAR LPPR 100000Z 10005KT CAVOK 20/14 Q1018=
200806092330 METAR LPPR 092330Z VRB03KT CAVOK 21/14 Q1018=
200806092300 METAR LPPR 092300Z VRB03KT CAVOK 21/14 Q1018=
200806092230 METAR LPPR 092230Z 11004KT 080V140 CAVOK 22/13 Q1018=
200806092200 METAR LPPR 092200Z 11005KT 060V130 CAVOK 22/13 Q1018=
200806092130 METAR LPPR 092130Z 11003KT CAVOK 22/13 Q1018=
200806092100 METAR LPPR 092100Z VRB02KT 9999 FEW017 BKN080 22/14 Q1018=
200806092030 METAR LPPR 092030Z 00000KT 9999 FEW017 BKN080 22/15 Q1017=
200806092000 METAR LPPR 092000Z VRB03KT 9999 FEW017 BKN080 22/14 Q1017=
200806091930 METAR LPPR 091930Z 35006KT 9999 FEW030 BKN080 23/14 Q1017=
200806091900 METAR LPPR 091900Z 35008KT 9999 FEW030 BKN080 23/14 Q1017=
200806091830 METAR LPPR 091830Z 33010KT 9999 FEW030 BKN070 23/14 Q1017=
200806091800 METAR LPPR 091800Z 34013KT 9999 FEW030 SCT080 24/14 Q1017=
200806091730 METAR LPPR 091730Z 33009KT 9999 FEW030 24/14 Q1017=
200806091700 METAR LPPR 091700Z 32010KT 9999 FEW030 24/14 Q1017=
200806091630 METAR LPPR 091630Z 32011KT 280V350 9999 FEW030 24/12 Q1017=
200806091600 METAR LPPR 091600Z 32011KT 9999 FEW025 24/10 Q1017=
200806091530 METAR LPPR 091530Z 31011KT 270V340 9999 FEW025 24/09 Q1018=
200806091500 METAR LPPR 091500Z 32013KT 9999 FEW025 23/08 Q1018=
200806091430 METAR LPPR 091430Z 32013KT 9999 SCT025 24/08 Q1018=
200806091400 METAR LPPR 091400Z 31012KT 9999 SCT025 23/09 Q1018=
200806091330 METAR LPPR 091330Z 31010KT 270V340 9999 SCT025 23/10 Q1018=
200806091300 METAR LPPR 091300Z 30011KT 270V340 9999 SCT025 23/10 Q1019=
200806091230 METAR LPPR 091230Z 32010KT 270V350 9999 FEW025 23/10 Q1019=
200806091200 METAR LPPR 091200Z 32007KT 270V010 9999 FEW025 23/11 Q1019=
200806091130 METAR LPPR 091130Z 04007KT 350V080 9999 FEW020 24/10 Q1019=
200806091100 METAR LPPR 091100Z 03007KT 340V130 9999 FEW020 24/10 Q1019=
200806091030 METAR LPPR 091030Z 05009KT 010V110 9999 FEW020 23/09 Q1019=
200806091000 METAR LPPR 091000Z 03009KT 360V060 9999 FEW020 22/10 Q1019=
200806090930 METAR LPPR 090930Z 04006KT 010V090 9999 FEW020 22/10 Q1019=
200806090900 METAR LPPR 090900Z 07008KT 020V110 CAVOK 21/08 Q1019=
200806090830 METAR LPPR 090830Z 02005KT 340V060 CAVOK 21/10 Q1019=
200806090800 METAR LPPR 090800Z 02005KT 310V070 CAVOK 20/10 Q1019=
200806090730 METAR LPPR 090730Z 01006KT CAVOK 18/10 Q1019=
200806090700 METAR LPPR 090700Z 01005KT CAVOK 18/10 Q1019=
200806090630 METAR LPPR 090630Z 01003KT CAVOK 17/10 Q1019=
200806090600 METAR LPPR 090600Z 04003KT CAVOK 15/09 Q1019=
200806090530 METAR LPPR 090530Z 02003KT CAVOK 14/09 Q1019=
200806090500 METAR LPPR 090500Z 02003KT CAVOK 14/09 Q1019=
200806090430 METAR LPPR 090430Z VRB02KT CAVOK 14/09 Q1018=
200806090400 METAR LPPR 090400Z 04003KT CAVOK 16/08 Q1018=
200806090330 METAR LPPR 090330Z VRB02KT CAVOK 17/07 Q1018=
200806090300 METAR LPPR 090300Z 10004KT 070V130 CAVOK 17/07 Q1018=
200806090230 METAR LPPR 090230Z 10006KT CAVOK 18/06 Q1018=
200806090200 METAR LPPR 090200Z 09006KT 050V130 CAVOK 18/07 Q1019=
200806090130 METAR LPPR 090130Z 09005KT 060V130 CAVOK 19/08 Q1018=
200806090100 METAR LPPR 090100Z 09006KT 050V120 CAVOK 19/09 Q1018=
200806090030 METAR LPPR 090030Z 08004KT 040V110 CAVOK 19/11 Q1018=
200806090000 METAR LPPR 090000Z 05005KT 020V080 CAVOK 19/12 Q1018=
200806082330 METAR LPPR 082330Z 05005KT 020V080 CAVOK 18/12 Q1018=
200806082300 METAR LPPR 082300Z 02006KT CAVOK 18/12 Q1018=
200806082230 METAR LPPR 082230Z 02003KT CAVOK 17/12 Q1018=
200806082200 METAR LPPR 082200Z VRB02KT CAVOK 17/12 Q1017=
200806082130 METAR LPPR 082130Z 01002KT 9999 FEW040 18/13 Q1017=
200806082100 METAR LPPR 082100Z 36003KT 9999 FEW040 19/13 Q1017=
200806082030 METAR LPPR 082030Z 36003KT 9999 FEW040 19/12 Q1017=
200806082000 METAR LPPR 082000Z 33005KT 9999 FEW020 21/11 Q1016=
200806081930 METAR LPPR 081930Z 03004KT 360V070 9999 FEW020 23/08 Q1016=
200806081900 METAR LPPR 081900Z 03006KT 360V060 9999 FEW020 23/07 Q1016=
200806081830 METAR LPPR 081830Z 04007KT 330V100 9999 FEW020 24/07 Q1016=
200806081800 METAR LPPR 081800Z 04007KT 350V070 9999 FEW020 24/07 Q1016=
200806081730 METAR LPPR 081730Z 03012KT 9999 FEW020 24/07 Q1016=
200806081700 METAR LPPR 081700Z 06011KT 020V100 9999 SCT020 24/07 Q1016=
200806081630 METAR LPPR 081630Z 04009KT 010V100 9999 SCT020 24/09 Q1016=
200806081600 METAR LPPR 081600Z 05010KT 010V130 9999 SCT020 24/09 Q1016=
200806081530 METAR LPPR 081530Z 05009KT 010V090 9999 SCT020 24/09 Q1016=
200806081500 METAR LPPR 081500Z 09006KT 040V150 9999 SCT020 24/10 Q1016=
200806081430 METAR LPPR 081430Z 11008KT 050V140 9999 BKN020 23/09 Q1016=
200806081400 METAR LPPR 081400Z 03006KT 350V080 9999 BKN020 24/09 Q1016=
200806081330 METAR LPPR 081330Z VRB05G15KT 9999 SCT020 23/11 Q1016=
200806081300 METAR LPPR 081300Z VRB04KT 9999 FEW020 SCT045 23/12 Q1016=
200806081230 METAR LPPR 081230Z 01009KT 330V080 9999 FEW020 BKN045 23/12
                        Q1017=
200806081200 METAR LPPR 081200Z 03007G18KT 340V090 9999 FEW020 SCT040
                        23/12 Q1017=
200806081130 METAR LPPR 081130Z 02008KT 340V080 9999 FEW020 SCT070 23/10
                        Q1018=
200806081100 METAR LPPR 081100Z 01008KT 340V050 9999 FEW020 SCT080 23/11
                        Q1018=
200806081030 METAR LPPR 081030Z 06007KT 350V100 9999 FEW020 22/10 Q1018=
200806081000 METAR LPPR 081000Z 01009KT 340V040 CAVOK 22/09 Q1018=
200806080930 METAR LPPR 080930Z 05009KT 010V070 CAVOK 21/10 Q1018=
200806080900 METAR LPPR 080900Z 01007KT 330V060 CAVOK 21/10 Q1018=
200806080830 METAR LPPR 080830Z 02006KT CAVOK 20/10 Q1018=
200806080800 METAR LPPR 080800Z 02008KT 340V050 CAVOK 19/10 Q1018=
200806080730 METAR LPPR 080730Z 02004KT 330V080 CAVOK 19/10 Q1018=
200806080700 METAR LPPR 080700Z 01004KT CAVOK 18/10 Q1018=
200806080630 METAR LPPR 080630Z 03005KT CAVOK 17/10 Q1018=
200806080600 METAR LPPR 080600Z 02006KT CAVOK 15/09 Q1018=
200806080530 METAR LPPR 080530Z 02006KT CAVOK 15/09 Q1018=
200806080500 METAR LPPR 080500Z 01006KT CAVOK 14/09 Q1018=
200806080430 METAR LPPR 080430Z 02007KT CAVOK 14/09 Q1018=
200806080400 METAR LPPR 080400Z 35006KT CAVOK 14/09 Q1017=
200806080330 METAR LPPR 080330Z 01005KT 340V050 CAVOK 16/09 Q1017=
200806080300 METAR LPPR 080300Z 04005KT CAVOK 17/09 Q1017=
200806080230 METAR LPPR 080230Z 03006KT 350V060 CAVOK 17/09 Q1017=
200806080200 METAR LPPR 080200Z 01006KT 340V040 CAVOK 17/09 Q1017=
200806080130 METAR LPPR 080130Z 01006KT CAVOK 16/09 Q1017=
200806080100 METAR LPPR 080100Z 35008KT CAVOK 15/10 Q1017=
200806080030 METAR LPPR 080030Z 01006KT CAVOK 18/10 Q1017=
200806080000 METAR LPPR 080000Z 01007KT CAVOK 17/09 Q1017=
200806072330 METAR LPPR 072330Z 01010KT CAVOK 18/09 Q1017=
200806072300 METAR LPPR 072300Z 35007KT CAVOK 19/10 Q1017=
200806072230 METAR LPPR 072230Z 36011KT CAVOK 19/10 Q1017=
200806072200 METAR LPPR 072200Z 36007KT CAVOK 17/11 Q1017=
200806072130 METAR LPPR 072130Z 36006KT CAVOK 17/13 Q1017=
200806072100 METAR LPPR 072100Z 35005KT CAVOK 17/14 Q1017=
200806072030 METAR LPPR 072030Z 34005KT CAVOK 18/14 Q1017=
200806072000 METAR LPPR 072000Z 33005KT CAVOK 20/14 Q1017=
200806071930 METAR LPPR 071930Z 33007KT CAVOK 21/14 Q1017=
200806071900 METAR LPPR 071900Z 33008KT CAVOK 22/14 Q1017=
200806071830 METAR LPPR 071830Z 33009KT CAVOK 22/14 Q1017=
200806071800 METAR LPPR 071800Z 33012KT CAVOK 23/13 Q1017=
200806071730 METAR LPPR 071730Z 33010KT CAVOK 23/14 Q1017=
200806071700 METAR LPPR 071700Z 33012KT CAVOK 24/13 Q1017=
200806071630 METAR LPPR 071630Z 33008KT 300V360 CAVOK 24/14 Q1017=
200806071600 METAR LPPR 071600Z 32009KT 290V350 CAVOK 25/13 Q1017=
200806071530 METAR LPPR 071530Z 33012KT CAVOK 24/13 Q1018=
200806071500 METAR LPPR 071500Z 32010KT 300V010 CAVOK 24/14 Q1018=
200806071430 METAR LPPR 071430Z 32012KT 290V350 CAVOK 24/12 Q1018=
200806071400 METAR LPPR 071400Z 32011KT 290V350 CAVOK 24/11 Q1018=
200806071330 METAR LPPR 071330Z 33013KT 290V350 CAVOK 23/09 Q1019=
200806071300 METAR LPPR 071300Z 32012KT CAVOK 22/12 Q1019=
200806071230 METAR LPPR 071230Z 32010KT 280V360 CAVOK 22/12 Q1019=
200806071200 METAR LPPR 071200Z 32010KT CAVOK 22/14 Q1019=
200806071130 METAR LPPR 071130Z 31009KT 280V340 CAVOK 22/14 Q1019=
200806071100 METAR LPPR 071100Z 31009KT 270V360 CAVOK 22/14 Q1020=
200806071030 METAR LPPR 071030Z 34004KT 290V030 CAVOK 23/13 Q1019=
200806071000 METAR LPPR 071000Z VRB02KT CAVOK 23/13 Q1019=
200806070930 METAR LPPR 070930Z 02004KT 290V070 CAVOK 21/13 Q1019=
200806070900 METAR LPPR 070900Z 03005KT 350V080 CAVOK 21/12 Q1019=
200806070830 METAR LPPR 070830Z 04006KT 360V080 CAVOK 20/12 Q1019=
200806070800 METAR LPPR 070800Z 03004KT 350V100 CAVOK 19/13 Q1019=
200806070730 METAR LPPR 070730Z 03004KT 360V060 CAVOK 18/13 Q1019=
200806070700 METAR LPPR 070700Z VRB03KT CAVOK 17/13 Q1019=
200806070630 METAR LPPR 070630Z 00000KT CAVOK 15/14 Q1019=
200806070600 METAR LPPR 070600Z 00000KT CAVOK 13/12 Q1019=
200806070530 METAR LPPR 070530Z 09003KT CAVOK 12/12 Q1018=
200806070500 METAR LPPR 070500Z 00000KT CAVOK 12/12 Q1018=
200806070430 METAR LPPR 070430Z 00000KT CAVOK 12/12 Q1018=
200806070400 METAR LPPR 070400Z 00000KT CAVOK 12/12 Q1018=
200806070330 METAR LPPR 070330Z 00000KT CAVOK 13/12 Q1018=
200806070300 METAR LPPR 070300Z 00000KT CAVOK 13/13 Q1018=
200806070230 METAR LPPR 070230Z 00000KT CAVOK 13/13 Q1018=
200806070200 METAR LPPR 070200Z 00000KT CAVOK 13/13 Q1018=
200806070130 METAR LPPR 070130Z 00000KT CAVOK 14/14 Q1018=
200806070100 METAR LPPR 070100Z 35002KT CAVOK 14/14 Q1018=
200806070030 METAR LPPR 070030Z 35003KT CAVOK 14/14 Q1018=
200806070000 METAR LPPR 070000Z 00000KT CAVOK 15/14 Q1019=
200806062330 METAR LPPR 062330Z 36002KT CAVOK 15/14 Q1019=
200806062300 METAR LPPR 062300Z 35002KT CAVOK 15/14 Q1019=
200806062230 METAR LPPR 062230Z 00000KT CAVOK 16/15 Q1019=
200806062200 METAR LPPR 062200Z 00000KT CAVOK 16/14 Q1019=
200806062130 METAR LPPR 062130Z 35003KT CAVOK 17/14 Q1019=
200806062100 METAR LPPR 062100Z 35003KT CAVOK 17/14 Q1019=
200806062030 METAR LPPR 062030Z 35004KT 310V010 CAVOK 18/14 Q1018=
200806062000 METAR LPPR 062000Z 34007KT CAVOK 19/14 Q1018=
200806061930 METAR LPPR 061930Z 33007KT CAVOK 20/14 Q1018=
200806061900 METAR LPPR 061900Z 33008KT CAVOK 21/14 Q1018=
200806061830 METAR LPPR 061830Z 33009KT CAVOK 22/14 Q1018=
200806061800 METAR LPPR 061800Z 34010KT CAVOK 23/15 Q1018=
200806061730 METAR LPPR 061730Z 34012KT CAVOK 23/14 Q1018=
200806061700 METAR LPPR 061700Z 33011KT CAVOK 24/15 Q1018=
200806061630 METAR LPPR 061630Z 33010KT 9999 FEW020 23/15 Q1018=
200806061600 METAR LPPR 061600Z 32012KT 290V350 9999 FEW018 23/15 Q1019=
200806061530 METAR LPPR 061530Z 32011KT 290V350 9999 FEW018 23/15 Q1019=
200806061500 METAR LPPR 061500Z 33010KT 9999 FEW018 23/14 Q1019=
200806061430 METAR LPPR 061430Z 33010KT 9999 FEW018 23/15 Q1019=
200806061400 METAR LPPR 061400Z 31010KT 280V340 9999 FEW018 22/15 Q1019=
200806061330 METAR LPPR 061330Z 32009KT 290V020 9999 FEW018 22/14 Q1019=
200806061300 METAR LPPR 061300Z 32011KT 9999 FEW018 21/14 Q1019=
200806061230 METAR LPPR 061230Z 31010KT 9999 FEW018 21/15 Q1020=
200806061200 METAR LPPR 061200Z 32010KT 9999 FEW018 21/15 Q1020=
200806061130 METAR LPPR 061130Z 32009KT 280V340 9999 FEW018 21/14 Q1020=
200806061100 METAR LPPR 061100Z 29009KT 260V330 9999 FEW018 21/15 Q1020=
200806061030 METAR LPPR 061030Z 30007KT 270V330 CAVOK 21/15 Q1020=
200806061000 METAR LPPR 061000Z 31006KT 270V340 CAVOK 20/16 Q1020=
200806060930 METAR LPPR 060930Z 32005KT 270V360 CAVOK 19/16 Q1020=
200806060900 METAR LPPR 060900Z 32005KT CAVOK 18/16 Q1020=
200806060830 METAR LPPR 060830Z 29004KT 250V340 8000 FEW100 18/16 Q1020=
200806060800 METAR LPPR 060800Z 00000KT 8000 FEW100 18/15 Q1020=
200806060730 METAR LPPR 060730Z 00000KT 8000 FEW100 17/17 Q1020=
200806060700 METAR LPPR 060700Z 00000KT 8000 FEW100 16/16 Q1019=
200806060630 METAR LPPR 060630Z 00000KT 7000 FEW100 14/14 Q1019=
200806060600 METAR LPPR 060600Z 10003KT 6000 FEW100 13/13 Q1019=
200806060530 METAR LPPR 060530Z 00000KT 6000 FEW250 12/12 Q1019=
200806060500 METAR LPPR 060500Z VRB02KT 6000 FEW250 13/13 Q1019=
200806060430 METAR LPPR 060430Z VRB02KT 8000 SKC 13/13 Q1019=
200806060400 METAR LPPR 060400Z 00000KT 8000 SKC 13/13 Q1019=
200806060330 METAR LPPR 060330Z 00000KT 8000 SKC 13/13 Q1019=
200806060300 METAR LPPR 060300Z 00000KT 8000 SKC 13/13 Q1019=
200806060230 METAR LPPR 060230Z 00000KT CAVOK 13/13 Q1019=
200806060200 METAR LPPR 060200Z VRB03KT CAVOK 14/14 Q1019=
200806060130 METAR LPPR 060130Z 00000KT CAVOK 14/14 Q1019=
200806060100 METAR LPPR 060100Z 00000KT CAVOK 14/14 Q1019=
200806060030 METAR LPPR 060030Z 12003KT CAVOK 14/14 Q1019=
200806060000 METAR LPPR 060000Z 08002KT CAVOK 15/15 Q1019=
200806052330 METAR LPPR 052330Z 00000KT CAVOK 15/15 Q1020=
200806052300 METAR LPPR 052300Z 00000KT CAVOK 15/15 Q1020=
200806052230 METAR LPPR 052230Z 00000KT CAVOK 15/15 Q1020=
200806052200 METAR LPPR 052200Z VRB02KT CAVOK 15/15 Q1020=
200806052130 METAR LPPR 052130Z 32004KT CAVOK 15/15 Q1019=
200806052100 METAR LPPR 052100Z 32004KT CAVOK 16/15 Q1019=
200806052030 METAR LPPR 052030Z 33006KT 290V350 9999 FEW007 16/15 Q1019=
200806052000 METAR LPPR 052000Z 32009KT 280V360 9999 SCT007 17/16 Q1019=
200806051930 METAR LPPR 051930Z 32009KT 9999 SCT007 17/16 Q1019=
200806051900 METAR LPPR 051900Z 32010KT 9999 FEW008 18/16 Q1019=
200806051830 METAR LPPR 051830Z 33009KT 9999 FEW013 18/15 Q1018=
200806051800 METAR LPPR 051800Z 33011KT 9999 FEW013 19/15 Q1018=
200806051730 METAR LPPR 051730Z 33010KT 290V360 9999 FEW013 19/15 Q1018=
200806051700 METAR LPPR 051700Z 31012KT 270V350 9999 FEW013 19/15 Q1019=
200806051630 METAR LPPR 051630Z 30012KT 9999 FEW013 19/15 Q1019=
200806051600 METAR LPPR 051600Z 31012KT 290V350 9999 FEW013 19/16 Q1019=
200806051530 METAR LPPR 051530Z 32011KT 280V340 9999 SCT013 19/16 Q1019=
200806051500 METAR LPPR 051500Z 33012KT 9999 FEW013 19/15 Q1019=
200806051430 METAR LPPR 051430Z 31010KT 270V350 9999 FEW013 19/15 Q1019=
200806051400 METAR LPPR 051400Z 30009KT 260V330 9999 FEW013 19/16 Q1019=
200806051330 METAR LPPR 051330Z 30009KT 250V330 9999 FEW013 19/15 Q1019=
200806051300 METAR LPPR 051300Z 29008KT 260V030 9999 FEW013 19/15 Q1019=
200806051230 METAR LPPR 051230Z 28006KT 240V340 9999 FEW013 19/15 Q1019=
200806051200 METAR LPPR 051200Z 30008KT 250V350 9999 FEW013 19/15 Q1019=
200806051130 METAR LPPR 051130Z 28006KT 220V320 9999 SCT013 19/15 Q1019=
200806051100 METAR LPPR 051100Z 26005KT 220V310 8000 SCT013 18/16 Q1019=
200806051030 METAR LPPR 051030Z 25004KT 190V290 8000 FEW009 SCT013 18/16
                        Q1019=
200806051000 METAR LPPR 051000Z 00000KT 8000 FEW009 SCT013 18/16 Q1019=
200806050930 METAR LPPR 050930Z 13004KT 100V170 6000 SCT011 BKN020 16/16
                        Q1019=
200806050900 METAR LPPR 050900Z VRB03KT 4000 BR BKN008 BKN020 15/15 Q1019=
200806050830 METAR LPPR 050830Z 00000KT 4000 -DZ BR FEW005 BKN008 BKN012
                        15/15 Q1019=
200806050800 METAR LPPR 050800Z VRB02KT 6000 -DZ FEW005 BKN008 BKN012
                        14/14 Q1019=
200806050730 METAR LPPR 050730Z 12004KT 100V160 9999 SCT008 BKN013 14/14
                        Q1019=
200806050700 METAR LPPR 050700Z 14004KT 9999 SCT009 BKN013 14/14 Q1019=
200806050630 METAR LPPR 050630Z 14004KT 8000 -DZ BKN009 BKN013 14/13 Q1019=
200806050600 METAR LPPR 050600Z VRB02KT 9999 SCT010 BKN014 14/13 Q1019=
200806050530 METAR LPPR 050530Z 14003KT 9999 SCT011 BKN014 14/13 Q1019=
200806050500 METAR LPPR 050500Z 13004KT 100V180 9999 SCT011 BKN014 14/13
                        Q1019=
200806050430 METAR LPPR 050430Z 13006KT 9999 BKN011 BKN015 14/13 Q1019=
200806050400 METAR LPPR 050400Z 12005KT 9999 SCT011 BKN015 14/13 Q1019=
200806050330 METAR LPPR 050330Z 12004KT 9999 SCT013 BKN020 14/13 Q1019=
200806050300 METAR LPPR 050300Z 12005KT 9999 SCT013 BKN020 14/14 Q1019=
200806050230 METAR LPPR 050230Z 12004KT 9999 SCT013 BKN020 15/13 Q1020=
200806050200 METAR LPPR 050200Z 12002KT 9999 SCT013 BKN020 15/13 Q1020=
200806050130 METAR LPPR 050130Z 12004KT 9999 SCT015 BKN020 15/13 Q1020=
200806050100 METAR LPPR 050100Z 12004KT 9999 FEW017 SCT025 BKN100 14/13
                        Q1020=
200806050030 METAR LPPR 050030Z 12002KT 9999 SCT025 BKN100 14/13 Q1021=
200806050000 METAR LPPR 050000Z 00000KT 9999 SCT030 BKN100 14/13 Q1021=
200806042330 METAR LPPR 042330Z 00000KT CAVOK 13/12 Q1021=
200806042300 METAR LPPR 042300Z 00000KT CAVOK 13/12 Q1021=
200806042230 METAR LPPR 042230Z 00000KT CAVOK 14/12 Q1021=
200806042200 METAR LPPR 042200Z 00000KT CAVOK 14/13 Q1021=
200806042130 METAR LPPR 042130Z 32003KT CAVOK 14/12 Q1021=
200806042100 METAR LPPR 042100Z 33003KT CAVOK 14/12 Q1021=
200806042030 METAR LPPR 042030Z 33005KT CAVOK 14/12 Q1021=
200806042000 METAR LPPR 042000Z 31006KT CAVOK 15/12 Q1021=
200806041930 METAR LPPR 041930Z 32008KT 9999 FEW015 SCT100 16/12 Q1021=
200806041900 METAR LPPR 041900Z 32011KT 9999 FEW015 BKN200 16/12 Q1021=
200806041830 METAR LPPR 041830Z 32012KT 290V350 9999 FEW015 BKN200 16/12
                        Q1021=
200806041800 METAR LPPR 041800Z 33012KT 290V350 9999 FEW013 BKN200 17/12
                        Q1021=
200806041730 METAR LPPR 041730Z 32013KT 290V360 CAVOK 17/12 Q1021=
200806041700 METAR LPPR 041700Z 32014KT 270V350 CAVOK 17/12 Q1021=
200806041630 METAR LPPR 041630Z 32014KT 9999 FEW017 BKN200 17/12 Q1021=
200806041600 METAR LPPR 041600Z 31013KT 9999 FEW017 SCT100 BKN200 18/12
                        Q1021=
200806041530 METAR LPPR 041530Z 32011KT 290V350 9999 FEW017 SCT100 BKN200
                        17/11 Q1021=
200806041500 METAR LPPR 041500Z 33013KT 290V360 9999 FEW017 SCT100 BKN200
                        17/10 Q1021=
200806041430 METAR LPPR 041430Z 33014KT 290V350 9999 FEW017 SCT100 BKN200
                        18/14 Q1021=
200806041400 METAR LPPR 041400Z 32014KT 290V350 9999 FEW017 SCT100 BKN200
                        18/15 Q1021=
200806041330 METAR LPPR 041330Z 33014KT 9999 FEW017 BKN200 17/15 Q1021=
200806041300 METAR LPPR 041300Z 32013KT 9999 SCT020 BKN200 17/15 Q1021=
200806041230 METAR LPPR 041230Z 32015KT 9999 FEW015 BKN020 17/15 Q1022=
200806041200 METAR LPPR 041200Z 32008KT 9999 BKN020 17/16 Q1021=
200806041130 METAR LPPR 041130Z 32010KT 290V350 9999 FEW012 BKN016 16/16
                        Q1021=
200806041100 METAR LPPR 041100Z 30004KT 260V330 9999 SCT012 BKN016 17/16
                        Q1021=
200806041030 METAR LPPR 041030Z 32006KT 270V350 9999 SCT012 BKN016 16/16
                        Q1021=
200806041000 METAR LPPR 041000Z 31007KT 8000 SCT009 BKN012 15/15 Q1021=
200806040930 METAR LPPR 040930Z VRB03KT 5000 BR BKN008 BKN012 16/16 Q1021=
200806040900 METAR LPPR 040900Z 35004KT 5000 BR BKN008 BKN012 15/15 Q1021=
200806040830 METAR LPPR 040830Z 36004KT 330V040 4000 BR BKN008 BKN012
                        15/15 Q1021=
200806040800 METAR LPPR 040800Z 36005KT 3000 BR BKN005 BKN008 15/15 Q1021=
200806040730 METAR LPPR 040730Z 35004KT 3000 BR BKN005 BKN008 14/14 Q1021=
200806040700 METAR LPPR 040700Z 34003KT 3000 BR BKN005 BKN008 15/15 Q1020=
200806040630 METAR LPPR 040630Z 36003KT 4000 BR SCT005 BKN008 15/15 Q1020=
200806040600 METAR LPPR 040600Z VRB02KT 4000 BR BKN005 14/14 Q1020=
200806040530 METAR LPPR 040530Z VRB02KT 4000 BR BKN003 BKN007 14/14 Q1020=
200806040500 METAR LPPR 040500Z 00000KT 4000 BR BKN003 BKN006 14/14 Q1020=
200806040430 METAR LPPR 040430Z 00000KT 5000 BR BKN002 BKN005 14/14 Q1020=
200806040400 METAR LPPR 040400Z 00000KT 5000 BR SCT003 BKN005 14/14 Q1020=
200806040330 METAR LPPR 040330Z 25002KT 6000 SCT004 BKN006 14/14 Q1020=
200806040300 METAR LPPR 040300Z 00000KT 7000 SCT005 BKN008 13/13 Q1020=
200806040230 METAR LPPR 040230Z 00000KT 8000 SCT006 SCT007 13/13 Q1020=
200806040200 METAR LPPR 040200Z 00000KT CAVOK 13/13 Q1020=
200806040130 METAR LPPR 040130Z 00000KT CAVOK 13/13 Q1020=
200806040100 METAR LPPR 040100Z 00000KT CAVOK 13/13 Q1020=
200806040030 METAR LPPR 040030Z 00000KT 9999 FEW009 13/13 Q1020=
200806040000 METAR LPPR 040000Z 00000KT 9999 FEW009 SCT250 14/14 Q1020=
200806032330 METAR LPPR 032330Z 00000KT 9999 FEW009 SCT250 14/14 Q1021=
200806032300 METAR LPPR 032300Z 35004KT 9999 FEW009 SCT250 14/14 Q1021=
200806032230 METAR LPPR 032230Z 33005KT 9000 SCT007 SCT009 15/15 Q1021=
200806032200 METAR LPPR 032200Z 33007KT 9000 SCT007 BKN009 15/15 Q1021=
200806032130 METAR LPPR 032130Z 33012KT 9000 BKN007 SCT250 16/16 Q1021=
200806032100 METAR LPPR 032100Z 32009KT 8000 SCT004 BKN005 16/16 Q1021=
200806032030 METAR LPPR 032030Z 32005KT 8000 FEW004 BKN250 15/15 Q1020=
200806032000 METAR LPPR 032000Z 32006KT 290V350 9999 SCT004 BKN250 16/16
                        Q1020=
200806031930 METAR LPPR 031930Z 32011KT 8000 SCT004 BKN250 16/16 Q1020=
200806031900 METAR LPPR 031900Z 33010KT 9999 SCT006 BKN250 16/16 Q1020=
200806031830 METAR LPPR 031830Z 32012KT 9999 FEW008 BKN250 16/16 Q1020=
200806031800 METAR LPPR 031800Z 32012KT 9999 FEW013 BKN250 17/17 Q1020=
200806031730 METAR LPPR 031730Z 32014KT 9999 FEW013 SCT250 17/17 Q1020=
200806031700 METAR LPPR 031700Z 33015KT 9999 FEW013 18/17 Q1020=
200806031630 METAR LPPR 031630Z 33015KT 9999 FEW013 18/17 Q1020=
200806031600 METAR LPPR 031600Z 33014KT 9999 FEW013 19/17 Q1020=
200806031530 METAR LPPR 031530Z 32014KT 9999 FEW013 19/17 Q1021=
200806031500 METAR LPPR 031500Z 31014KT 270V340 9999 FEW017 19/18 Q1021=
200806031430 METAR LPPR 031430Z 30013KT 9999 FEW017 19/17 Q1021=
200806031400 METAR LPPR 031400Z 32013KT 9999 FEW017 19/16 Q1021=
200806031330 METAR LPPR 031330Z 32014KT 9999 FEW017 19/16 Q1021=
200806031300 METAR LPPR 031300Z 31013KT 9999 FEW017 19/16 Q1021=
200806031230 METAR LPPR 031230Z 31010KT 9999 FEW017 19/16 Q1021=
200806031200 METAR LPPR 031200Z 30010KT 270V330 9999 FEW017 19/17 Q1021=
200806031130 METAR LPPR 031130Z 32010KT 280V340 9999 FEW017 19/16 Q1022=
200806031100 METAR LPPR 031100Z 31010KT 270V340 9999 FEW017 19/17 Q1022=
200806031030 METAR LPPR 031030Z 31010KT 270V350 9999 FEW017 18/17 Q1022=
200806031000 METAR LPPR 031000Z 32010KT 280V340 9999 FEW015 SCT250 18/16
                        Q1022=
200806030930 METAR LPPR 030930Z 30007G18KT 270V360 9999 FEW015 SCT250
                        18/17 Q1021=
200806030900 METAR LPPR 030900Z 35007KT 310V020 9999 FEW015 18/15 Q1021=
200806030830 METAR LPPR 030830Z 01004KT 340V050 9999 FEW017 17/15 Q1021=
200806030800 METAR LPPR 030800Z VRB03KT 9999 FEW017 16/15 Q1021=
200806030730 METAR LPPR 030730Z 00000KT 9999 FEW017 16/15 Q1021=
200806030700 METAR LPPR 030700Z VRB03KT 8000 FEW017 14/14 Q1021=
200806030630 METAR LPPR 030630Z 11003KT 8000 FEW017 13/13 Q1021=
200806030600 METAR LPPR 030600Z 00000KT 8000 FEW017 12/12 Q1021=
200806030530 METAR LPPR 030530Z 00000KT 8000 FEW017 11/11 Q1020=
200806030500 METAR LPPR 030500Z VRB03KT 8000 FEW100 11/11 Q1020=
200806030430 METAR LPPR 030430Z 00000KT CAVOK 11/11 Q1020=
200806030400 METAR LPPR 030400Z 00000KT CAVOK 11/11 Q1020=
200806030330 METAR LPPR 030330Z 00000KT CAVOK 11/11 Q1020=
200806030300 METAR LPPR 030300Z 00000KT CAVOK 12/12 Q1020=
200806030230 METAR LPPR 030230Z 00000KT CAVOK 12/12 Q1020=
200806030200 METAR LPPR 030200Z 00000KT CAVOK 12/12 Q1020=
200806030130 METAR LPPR 030130Z 00000KT CAVOK 12/12 Q1020=
200806030100 METAR LPPR 030100Z 00000KT CAVOK 12/12 Q1020=
200806030030 METAR LPPR 030030Z 00000KT CAVOK 13/13 Q1020=
200806030000 METAR LPPR 030000Z 00000KT CAVOK 13/13 Q1020=
200806022330 METAR LPPR 022330Z VRB02KT CAVOK 13/13 Q1020=
200806022300 METAR LPPR 022300Z 36003KT CAVOK 13/13 Q1021=
200806022230 METAR LPPR 022230Z 34003KT CAVOK 13/13 Q1021=
200806022200 METAR LPPR 022200Z 00000KT CAVOK 14/14 Q1021=
200806022130 METAR LPPR 022130Z VRB03KT CAVOK 14/14 Q1021=
200806022100 METAR LPPR 022100Z 33005KT CAVOK 14/14 Q1020=
200806022030 METAR LPPR 022030Z 33006KT 9999 FEW013 15/15 Q1020=
200806022000 METAR LPPR 022000Z 32007KT 300V360 9999 FEW013 15/15 Q1020=
200806021930 METAR LPPR 021930Z 32008KT 9999 FEW015 16/15 Q1020=
200806021900 METAR LPPR 021900Z 32009KT 280V360 9999 FEW015 17/15 Q1020=
200806021830 METAR LPPR 021830Z 32010KT 9999 FEW015 17/15 Q1020=
200806021800 METAR LPPR 021800Z 32010KT 9999 FEW015 18/14 Q1019=
200806021730 METAR LPPR 021730Z 31010KT 270V340 9999 FEW015 18/14 Q1019=
200806021700 METAR LPPR 021700Z 31010KT 280V340 9999 FEW015 18/15 Q1019=
200806021630 METAR LPPR 021630Z 32010KT 260V340 9999 FEW015 18/15 Q1019=
200806021600 METAR LPPR 021600Z 31010KT 9999 FEW015 18/15 Q1019=
200806021530 METAR LPPR 021530Z 30010KT 260V330 9999 FEW015 SCT250 18/15
                        Q1019=
200806021500 METAR LPPR 021500Z 28010G26KT 250V320 CAVOK 18/15 Q1019=
200806021430 METAR LPPR 021430Z 28009G20KT 250V030 9999 FEW015 SCT250
                        18/15 Q1019=
200806021400 METAR LPPR 021400Z 28009KT 9999 FEW015 SCT250 18/14 Q1019=
200806021330 METAR LPPR 021330Z 28009G20KT 250V330 9999 FEW015 BKN250
                        18/14 Q1019=
200806021300 METAR LPPR 021300Z 28009KT 240V330 9999 SCT015 SCT250 18/16
                        Q1020=
200806021230 METAR LPPR 021230Z 29008KT 250V330 9999 SCT015 17/16 Q1019=
200806021200 METAR LPPR 021200Z 29008KT 260V340 9999 SCT017 SCT090 17/15
                        Q1020=
200806021130 METAR LPPR 021130Z 28007KT 250V360 9999 SCT015 18/15 Q1020=
200806021100 METAR LPPR 021100Z 27006KT 230V330 9999 SCT015 SCT080 17/16
                        Q1019=
200806021030 METAR LPPR 021030Z 30005KT 250V050 9999 BKN015 BKN080 17/14
                        Q1019=
200806021000 METAR LPPR 021000Z 29005KT 260V010 9999 BKN015 BKN080 17/15
                        Q1019=
200806020930 METAR LPPR 020930Z VRB02KT 9999 BKN015 BKN080 17/15 Q1019=
200806020900 METAR LPPR 020900Z VRB03KT 9999 BKN015 BKN060 16/15 Q1019=
200806020830 METAR LPPR 020830Z VRB02KT 9999 FEW015 BKN060 15/15 Q1019=
200806020800 METAR LPPR 020800Z 00000KT 9999 FEW015 BKN060 14/14 Q1019=
200806020730 METAR LPPR 020730Z 12003KT 9999 FEW015 BKN060 14/14 Q1019=
200806020700 METAR LPPR 020700Z VRB02KT 9999 FEW015 BKN060 13/13 Q1018=
200806020630 METAR LPPR 020630Z 00000KT 9999 FEW015 BKN060 12/12 Q1018=
200806020600 METAR LPPR 020600Z VRB03KT 9999 FEW015 SCT060 11/11 Q1018=
200806020530 METAR LPPR 020530Z 00000KT 9999 FEW015 11/11 Q1018=
200806020500 METAR LPPR 020500Z 00000KT CAVOK 11/11 Q1018=
200806020430 METAR LPPR 020430Z 00000KT CAVOK 10/10 Q1017=
200806020400 METAR LPPR 020400Z 00000KT CAVOK 11/11 Q1017=
200806020330 METAR LPPR 020330Z 00000KT CAVOK 11/11 Q1018=
200806020300 METAR LPPR 020300Z 00000KT CAVOK 11/11 Q1018=
200806020230 METAR LPPR 020230Z 00000KT CAVOK 12/12 Q1018=
200806020200 METAR LPPR 020200Z 00000KT CAVOK 12/12 Q1018=
200806020130 METAR LPPR 020130Z 00000KT CAVOK 12/12 Q1018=
200806020100 METAR LPPR 020100Z 00000KT CAVOK 12/12 Q1018=
200806020030 METAR LPPR 020030Z 00000KT CAVOK 13/13 Q1018=
200806020000 METAR LPPR 020000Z 01002KT 9999 FEW013 SCT250 13/13 Q1018=
200806012330 METAR LPPR 012330Z 34003KT 9999 FEW013 13/13 Q1018=
200806012300 METAR LPPR 012300Z 32005KT 230V020 9999 FEW013 SCT040 14/14
                        Q1018=
200806012230 METAR LPPR 012230Z 33005KT 9999 FEW013 14/14 Q1018=
200806012200 METAR LPPR 012200Z 33005KT 290V350 9999 FEW013 SCT020 14/14
                        Q1018=
200806012130 METAR LPPR 012130Z 33005KT 290V360 9999 FEW013 14/14 Q1018=
200806012100 METAR LPPR 012100Z 32005KT 270V350 9999 FEW013 SCT070 14/14
                        Q1017=
200806012030 METAR LPPR 012030Z 33006KT 9999 FEW009 SCT017 14/14 Q1017=
200806012000 METAR LPPR 012000Z 32009KT 9999 FEW013 BKN070 15/15 Q1017=
200806011930 METAR LPPR 011930Z 32010KT 9999 FEW012 BKN080 15/15 Q1017=
200806011900 METAR LPPR 011900Z 33010KT 300V010 9999 FEW012 BKN080 15/15
                        Q1017=
200806011830 METAR LPPR 011830Z 33010KT 300V360 9999 FEW009 SCT015 BKN090
                        16/15 Q1016=
200806011800 METAR LPPR 011800Z 32011KT 280V350 9999 FEW009 BKN015 16/15
                        Q1016=
200806011730 METAR LPPR 011730Z 32015KT 9999 BKN015 17/15 Q1016=
200806011700 METAR LPPR 011700Z 32013KT 9999 SCT017 17/15 Q1016=
200806011630 METAR LPPR 011630Z 32015KT 9999 FEW017 17/15 Q1016=
200806011600 METAR LPPR 011600Z 33015KT 290V350 9999 FEW017 18/16 Q1016=
200806011530 METAR LPPR 011530Z 32016KT 280V340 9999 FEW017 18/15 Q1016=
200806011500 METAR LPPR 011500Z 32015KT 9999 FEW017 18/15 Q1016=
200806011430 METAR LPPR 011430Z 32015KT 9999 FEW017 18/15 Q1016=
200806011400 METAR LPPR 011400Z 31012KT 280V350 9999 FEW017 19/16 Q1016=
200806011330 METAR LPPR 011330Z 32015KT 9999 FEW017 18/15 Q1016=
200806011300 METAR LPPR 011300Z 32016KT 9999 FEW017 18/15 Q1016=
200806011230 METAR LPPR 011230Z 33013KT 280V350 9999 FEW017 18/15 Q1016=
200806011200 METAR LPPR 011200Z 31013KT 280V340 9999 FEW017 18/16 Q1016=
200806011130 METAR LPPR 011130Z 32012KT 280V340 9999 FEW017 18/16 Q1016=
200806011100 METAR LPPR 011100Z 30011KT 9999 FEW017 18/15 Q1016=
200806011030 METAR LPPR 011030Z 31009KT 270V020 9999 FEW017 18/15 Q1016=
200806011000 METAR LPPR 011000Z 32010KT 9999 FEW017 17/15 Q1016=
200806010930 METAR LPPR 010930Z 31008KT 270V340 9999 FEW017 17/15 Q1016=
200806010900 METAR LPPR 010900Z 31007KT 9999 FEW017 17/15 Q1016=
200806010830 METAR LPPR 010830Z 33005KT 290V350 9999 FEW017 17/15 Q1016=
200806010800 METAR LPPR 010800Z 34006KT 310V020 9999 FEW015 16/14 Q1016=
200806010730 METAR LPPR 010730Z 36005KT 320V020 9999 FEW015 15/15 Q1016=
200806010700 METAR LPPR 010700Z 35003KT 9999 FEW015 14/14 Q1016=
200806010630 METAR LPPR 010630Z 01003KT 9999 FEW015 13/13 Q1015=
200806010600 METAR LPPR 010600Z 36003KT 9999 FEW015 12/12 Q1015=
200806010530 METAR LPPR 010530Z 34002KT 2000 BR FEW060 12/12 Q1015=
200806010500 METAR LPPR 010500Z 00000KT 3000 BR FEW060 12/12 Q1015=
200806010430 METAR LPPR 010430Z 34003KT 2000 BR FEW060 12/12 Q1015=
200806010400 METAR LPPR 010400Z 05002KT 2000 BR FEW060 12/12 Q1014=
200806010330 METAR LPPR 010330Z 00000KT 2000 BR FEW060 13/13 Q1015=
200806010300 METAR LPPR 010300Z 36002KT 3000 BR SCT060 13/13 Q1015=
200806010230 METAR LPPR 010230Z 00000KT 5000 BR SCT060 13/13 Q1014=
200806010200 METAR LPPR 010200Z 00000KT 5000 BR BKN060 14/14 Q1015=
200806010130 METAR LPPR 010130Z 00000KT 7000 FEW040 SCT060 14/14 Q1015=
200806010100 METAR LPPR 010100Z 10003KT 7000 FEW040 SCT060 14/14 Q1015=
200806010030 METAR LPPR 010030Z 00000KT 7000 SCT040 14/14 Q1015=
200806010000 METAR LPPR 010000Z 00000KT 8000 SCT040 14/14 Q1015=
