##########################################################
# Query made at 11/07/2014 16:23:08 UTC
# Time interval: from 03/01/2011 00:00  to 03/31/2011 23:59  UTC
##########################################################

##########################################################
# LPPR, Porto / Pedras Rubras (Portugal)
# WMO index: 08545
# Latitude 41-14N. Longitude 008-41W. Altitude 69 m.
##########################################################

###################################
#  METAR/SPECI from LPPR
###################################
201103312330 METAR LPPR 312330Z VRB02KT CAVOK 15/12 Q1023=
201103312300 METAR LPPR 312300Z VRB03KT CAVOK 14/11 Q1023=
201103312230 METAR LPPR 312230Z VRB02KT CAVOK 14/12 Q1023=
201103312200 METAR LPPR 312200Z VRB02KT CAVOK 13/12 Q1023=
201103312130 METAR LPPR 312130Z VRB01KT CAVOK 13/12 Q1024=
201103312100 METAR LPPR 312100Z VRB02KT CAVOK 13/12 Q1024=
201103312030 METAR LPPR 312030Z 04004KT CAVOK 13/12 Q1024=
201103312000 METAR LPPR 312000Z 02006KT CAVOK 13/12 Q1024=
201103311930 METAR LPPR 311930Z 34005KT 8000 NSC 14/13 Q1024=
201103311900 METAR LPPR 311900Z 31004KT CAVOK 14/13 Q1024=
201103311830 METAR LPPR 311830Z 31006KT 280V340 CAVOK 15/13 Q1024=
201103311800 METAR LPPR 311800Z 33005KT CAVOK 16/13 Q1024=
201103311730 METAR LPPR 311730Z 33007KT 290V350 CAVOK 16/13 Q1024=
201103311700 METAR LPPR 311700Z 32007KT 270V350 CAVOK 17/13 Q1024=
201103311630 METAR LPPR 311630Z 32007KT 290V350 CAVOK 17/13 Q1024=
201103311600 METAR LPPR 311600Z 32005KT 250V360 CAVOK 17/13 Q1024=
201103311530 METAR LPPR 311530Z 29006KT 260V340 CAVOK 17/13 Q1024=
201103311500 METAR LPPR 311500Z 30006KT 250V340 CAVOK 18/13 Q1024=
201103311430 METAR LPPR 311430Z 30006KT 260V330 CAVOK 18/14 Q1025=
201103311400 METAR LPPR 311400Z 31007KT 280V340 CAVOK 18/14 Q1025=
201103311330 METAR LPPR 311330Z 29007KT CAVOK 18/14 Q1025=
201103311300 METAR LPPR 311300Z 28006KT 250V310 CAVOK 20/14 Q1025=
201103311230 METAR LPPR 311230Z 08004KT 360V130 CAVOK 21/12 Q1026=
201103311200 METAR LPPR 311200Z VRB03KT CAVOK 21/12 Q1026=
201103311130 METAR LPPR 311130Z 09005KT 050V140 CAVOK 20/13 Q1026=
201103311100 METAR LPPR 311100Z 10005KT 060V130 CAVOK 18/13 Q1027=
201103311030 METAR COR LPPR 311030Z 07005KT 350V100 CAVOK 17/13 Q1027=
201103311000 METAR LPPR 311000Z 08006KT 040V110 9000 NSC 16/13 Q1027=
201103310930 METAR LPPR 310930Z 07003KT 360V140 9000 NSC 14/12 Q1027=
201103310900 METAR LPPR 310900Z 11005KT 060V140 8000 FEW003 13/13 Q1027=
201103310830 METAR LPPR 310830Z 11004KT 030V150 7000 SCT002 12/12 Q1027=
201103310800 METAR LPPR 310800Z 09003KT 3000 BR BKN001 11/11 Q1027=
201103310730 METAR LPPR 310730Z 07003KT 030V110 5000 BR SCT001 11/10 Q1027=
201103310700 METAR LPPR 310700Z 08003KT 350V140 2000 R17/1300VP2000 BR
                        SCT001 10/10 Q1027=
201103310630 METAR LPPR 310630Z 13004KT 090V170 0500 R17/0375 PRFG BKN002
                        08/08 Q1027=
201103310600 METAR COR LPPR 310600Z VRB03KT 0200 R17/P2000 PRFG BKN001
                        10/10 Q1027=
201103310530 METAR LPPR 310530Z VRB02KT 0400 R17/P2000 FG SCT001 BKN003
                        10/10 Q1026=
201103310500 METAR LPPR 310500Z 07003KT 0400 R17/P2000 FG SCT001 BKN003
                        10/10 Q1026=
201103310430 METAR LPPR 310430Z VRB02KT 4700 BR SCT003 10/10 Q1026=
201103310400 METAR LPPR 310400Z 36002KT 1300 0650S R35/P2000 BCFG FEW001
                        SCT003 11/11 Q1026=
201103310330 METAR LPPR 310330Z 03002KT 6000 0900N R35/P2000 BCFG FEW001
                        SCT003 09/09 Q1026=
201103310300 METAR LPPR 310300Z 03002KT 6000 1000N R35/P2000 BR FEW001
                        11/11 Q1027=
201103310230 METAR LPPR 310230Z 04002KT 6000 0700N R35/P2000 BR FEW003
                        11/11 Q1027=
201103310200 METAR LPPR 310200Z VRB01KT 0550 0450N R35/P2000 PRFG FEW003
                        SCT029 11/11 Q1027=
201103310130 METAR LPPR 310130Z 00000KT 9000 0800N R35/P2000 BR FEW006
                        BKN029 13/12 Q1028=
201103310100 METAR LPPR 310100Z 00000KT 8000 BKN029 13/13 Q1028=
201103310030 METAR LPPR 310030Z 00000KT 9999 OVC028 13/13 Q1028=
201103310000 METAR LPPR 310000Z 11005KT 8000 OVC028 13/13 Q1028=
201103302330 METAR LPPR 302330Z 11004KT 9999 OVC029 13/13 Q1028=
201103302300 METAR LPPR 302300Z 12004KT 090V160 8000 OVC029 13/13 Q1028=
201103302230 METAR LPPR 302230Z 13003KT 8000 OVC030 13/13 Q1028=
201103302200 METAR LPPR 302200Z VRB02KT 7000 OVC028 13/12 Q1028=
201103302130 METAR LPPR 302130Z VRB01KT 6000 FEW022 OVC026 13/12 Q1028=
201103302100 METAR LPPR 302100Z 00000KT 5000 FEW006 OVC026 12/12 Q1028=
201103302030 METAR LPPR 302030Z VRB01KT 0900 0550S R17/0700 FG SCT006
                        SCT010 BKN026 12/11 Q1028=
201103302000 METAR LPPR 302000Z 00000KT 0500 0350S R17/0900 FG FEW003
                        SCT006 12/12 Q1028=
201103301930 METAR LPPR 301930Z VRB01KT 5000 0500N R17/0900VP2000 BCFG
                        FEW004 13/13 Q1027=
201103301900 METAR LPPR 301900Z VRB01KT 4000 R17/1400VP2000 BR FEW004
                        SCT006 BKN019 13/13 Q1027=
201103301830 METAR LPPR 301830Z 24003KT 210V270 8000 SCT004 BKN021 BKN027
                        14/14 Q1027=
201103301800 METAR LPPR 301800Z 24004KT 200V270 9000 BKN004 BKN019 BKN025
                        15/14 Q1027=
201103301730 METAR LPPR 301730Z 22005KT 170V270 9999 BKN004 OVC012 15/14
                        Q1027=
201103301700 METAR LPPR 301700Z 22005KT 190V260 6000 BKN004 OVC012 14/14
                        Q1027=
201103301630 METAR LPPR 301630Z 22003KT 180V260 4000 -SHRA BR OVC003 14/14
                        Q1027=
201103301600 METAR LPPR 301600Z 21005KT 2400 -SHRA BR BKN003 BKN008 OVC011
                        14/14 Q1027=
201103301530 METAR LPPR 301530Z 20005KT 7000 FEW004 OVC007 15/14 Q1027=
201103301500 METAR LPPR 301500Z 20006KT 9999 SCT005 OVC007 15/13 Q1027=
201103301430 METAR LPPR 301430Z 20006KT 170V240 9000 BKN005 OVC007 14/13
                        Q1027=
201103301400 METAR LPPR 301400Z 19006KT 7000 BKN003 OVC008 14/14 Q1027=
201103301330 METAR LPPR 301330Z 21005KT 2800 -SHRA BR OVC003 14/13 Q1027=
201103301300 METAR LPPR 301300Z 20006KT 3500 BR SCT005 OVC008 14/13 Q1027=
201103301230 METAR LPPR 301230Z 20009KT 9000 SCT009 OVC011 15/13 Q1027=
201103301200 METAR LPPR 301200Z 20007KT 170V240 9999 SCT009 OVC012 15/13
                        Q1027=
201103301130 METAR LPPR 301130Z 19008KT 9999 SCT011 OVC013 15/12 Q1027=
201103301100 METAR LPPR 301100Z 19006KT 9999 OVC014 15/12 Q1027=
201103301030 METAR LPPR 301030Z 19007KT 9999 OVC015 14/12 Q1027=
201103301000 METAR LPPR 301000Z 19005KT 9000 OVC015 14/12 Q1027=
201103300930 METAR LPPR 300930Z 18005KT 8000 -DZ SCT010 OVC016 14/12 Q1027=
201103300900 METAR LPPR 300900Z 18005KT 130V200 9000 SCT012 OVC018 13/12
                        Q1027=
201103300830 METAR LPPR 300830Z 22004KT 190V270 7000 -DZ FEW005 OVC012
                        13/12 Q1027=
201103300800 METAR LPPR 300800Z 21005KT 170V240 4000 -DZ BR FEW005 SCT011
                        OVC013 13/12 Q1026=
201103300730 METAR LPPR 300730Z 18005KT 9999 OVC020 13/12 Q1026=
201103300700 METAR LPPR 300700Z 17005KT 9999 OVC020 13/12 Q1026=
201103300630 METAR LPPR 300630Z 16004KT 9999 SCT016 BKN020 12/12 Q1025=
201103300600 METAR LPPR 300600Z 16005KT 8000 SCT012 BKN018 12/12 Q1025=
201103300530 METAR LPPR 300530Z 16003KT 130V190 9999 FEW003 BKN018 12/12
                        Q1025=
201103300500 METAR LPPR 300500Z 22003KT 170V270 4000 -DZ BR FEW003 SCT006
                        BKN020 12/12 Q1025=
201103300430 METAR LPPR 300430Z 21003KT 180V250 3500 DZ BR FEW002 SCT005
                        BKN020 12/11 Q1025=
201103300400 METAR LPPR 300400Z 25003KT 220V290 9999 SCT020 BKN025 13/11
                        Q1025=
201103300330 METAR LPPR 300330Z 26003KT 210V300 9999 SCT016 BKN020 13/10
                        Q1024=
201103300300 METAR LPPR 300300Z 27003KT 210V330 9999 BKN020 14/11 Q1025=
201103300230 METAR LPPR 300230Z VRB02KT 9999 BKN030 14/12 Q1025=
201103300200 METAR LPPR 300200Z 27003KT 180V350 9999 FEW009 BKN030 14/12
                        Q1025=
201103300130 METAR LPPR 300130Z 28003KT 200V340 9999 SCT009 BKN030 14/12
                        Q1025=
201103300100 METAR LPPR 300100Z 29005KT 230V340 9999 BKN009 BKN030 14/12
                        Q1025=
201103300030 METAR LPPR 300030Z 29005KT 250V320 9999 SCT008 BKN030 14/12
                        Q1025=
201103300000 METAR LPPR 300000Z 26004KT 220V320 9999 BKN008 BKN030 14/13
                        Q1025=
201103292330 METAR LPPR 292330Z 26003KT 160V330 9999 SCT009 BKN030 14/13
                        Q1025=
201103292300 METAR LPPR 292300Z 27004KT 230V330 9999 FEW009 SCT013 BKN030/
                        14/13 Q1025=
201103292230 METAR LPPR 292230Z 27004KT 220V320 9999 BKN009 OVC015 14/13
                        Q1025=
201103292200 METAR LPPR 292200Z 26004KT 210V320 9999 OVC009 14/13 Q1025=
201103292130 METAR LPPR 292130Z 26004KT 190V350 9999 BKN008 BKN013 OVC027
                        14/13 Q1025=
201103292100 METAR LPPR 292100Z 26005KT 210V320 9999 BKN008 OVC013 14/13
                        Q1024=
201103292030 METAR LPPR 292030Z 26005KT 220V320 9999 BKN008 BKN012 OVC090
                        14/13 Q1024=
201103292000 METAR LPPR 292000Z 25006KT 200V300 9999 BKN008 OVC015 14/13
                        Q1024=
201103291930 METAR LPPR 291930Z 24005KT 200V290 9999 SCT008 BKN010 OVC014
                        14/13 Q1023=
201103291900 METAR LPPR 291900Z 24007KT 200V270 7000 -DZ BKN005 BKN009
                        14/13 Q1023=
201103291830 METAR LPPR 291830Z 23007KT 200V280 9999 SCT009 BKN012 14/12
                        Q1023=
201103291800 METAR LPPR 291800Z 22006KT 190V260 9000 -SHRA OVC012 14/12
                        Q1023=
201103291730 METAR LPPR 291730Z 22006KT 180V260 9999 BKN013 BKN016 OVC022
                        14/12 Q1023=
201103291700 METAR LPPR 291700Z 22006KT 190V250 9999 SCT016 BKN025 14/11
                        Q1023=
201103291630 METAR LPPR 291630Z 23005KT 180V260 9999 FEW014 BKN025 14/11
                        Q1023=
201103291600 METAR LPPR 291600Z 24007KT 210V310 9999 FEW015 BKN025 14/11
                        Q1023=
201103291530 METAR LPPR 291530Z 23005KT 190V280 9999 BKN018 BKN030 14/10
                        Q1023=
201103291500 METAR LPPR 291500Z 22005KT 180V280 9999 SCT020 BKN030 OVC036
                        14/10 Q1023=
201103291430 METAR LPPR 291430Z 22005KT 190V260 9999 FEW022 OVC030 14/10
                        Q1023=
201103291400 METAR LPPR 291400Z 25007KT 210V340 9999 BKN023 OVC031 14/10
                        Q1023=
201103291330 METAR LPPR 291330Z 23007KT 190V290 9999 FEW027 OVC034 15/10
                        Q1023=
201103291300 METAR LPPR 291300Z 25006KT 170V280 9999 FEW019 OVC036 15/10
                        Q1023=
201103291230 METAR LPPR 291230Z 25006KT 200V310 9999 FEW018 BKN038 15/11
                        Q1023=
201103291200 METAR LPPR 291200Z 26006KT 200V310 9999 FEW021 SCT030 OVC035
                        15/11 Q1023=
201103291130 METAR LPPR 291130Z 25007KT 210V290 9999 FEW021 BKN035 15/10
                        Q1023=
201103291100 METAR LPPR 291100Z 24006KT 200V300 9999 FEW019 BKN033 15/09
                        Q1023=
201103291030 METAR LPPR 291030Z 26004KT 200V340 9999 FEW018 BKN031 14/11
                        Q1023=
201103291000 METAR LPPR 291000Z 27004KT 230V310 9999 SCT016 SCT018 BKN033
                        14/10 Q1023=
201103290930 METAR LPPR 290930Z 29005KT 250V330 9999 FEW015 SCT017 BKN029
                        14/10 Q1023=
201103290900 METAR LPPR 290900Z VRB03KT 9999 FEW015 SCT024 BKN032 13/12
                        Q1023=
201103290830 METAR LPPR 290830Z VRB01KT 8000 FEW014 BKN018 BKN033 12/12
                        Q1023=
201103290800 METAR LPPR 290800Z VRB01KT 6000 2000N R17/1300VP2000U BR FEW001 SCT014 BKN092 12/12 Q1022=
201103290730 METAR LPPR 290730Z VRB01KT 3300 BR FEW010 SCT013 BKN026 11/11
                        Q1022=
201103290700 METAR LPPR 290700Z 15004KT 100V220 0750 0500N R17/0900 FG
                        FEW012 BKN025 11/11 Q1021=
201103290630 METAR COR LPPR 290630Z VRB02KT 0900 R17/1400VP2000 FG FEW003
                        BKN022 11/11 Q1021=
201103290600 METAR LPPR 290600Z VRB02KT 8000 FEW015 BKN025 11/11 Q1021=
201103290530 METAR COR LPPR 290530Z VRB01KT 8000 SCT012 SCT018 11/11 Q1020=
201103290500 METAR LPPR 290500Z 00000KT 6000 SCT008 BKN018 11/11 Q1020=
201103290430 METAR LPPR 290430Z 00000KT 1500 R17/0800N BCFG FEW004 BKN012
                        11/10 Q1021=
201103290400 METAR LPPR 290400Z 36002KT 6000 SCT007 BKN012 10/10 Q1021=
201103290330 METAR LPPR 290330Z VRB01KT 6000 SCT003 BKN013 10/10 Q1020=
201103290300 METAR LPPR 290300Z VRB01KT 4000 BR SCT003 BKN005 10/09 Q1020=
201103290230 METAR LPPR 290230Z 00000KT 2000 BR FEW003 SCT007 10/10 Q1020=
201103290200 METAR LPPR 290200Z 12001KT 2500 BR FEW003 BKN006 11/11 Q1020=
201103290130 METAR COR LPPR 290130Z 00000KT 3000 R17/1300VP2000 BR SCT005
                        BKN010 11/11 Q1020=
201103290100 METAR LPPR 290100Z VRB01KT 2000 R17/0750V1100N VCFG FEW005
                        BKN008 11/11 Q1020=
201103290030 METAR LPPR 290030Z 00000KT 4000 BR FEW005 BKN013 11/11 Q1020=
201103290000 METAR LPPR 290000Z 01002KT 3000 BR FEW003 SCT009 BKN014 11/11
                        Q1020=
201103282330 METAR LPPR 282330Z 35002KT 1500 R17/0900 BCFG SCT003 SCT007
                        11/11 Q1020=
201103282300 METAR LPPR 282300Z VRB01KT 3000 BR FEW003 SCT006 11/11 Q1020=
201103282230 METAR LPPR 282230Z VRB01KT 2500 BR VCFG SCT004 11/10 Q1020=
201103282200 METAR LPPR 282200Z VRB01KT 7000 FEW003 SCT009 12/11 Q1020=
201103282130 METAR LPPR 282130Z 24004KT 8000 FEW005 SCT008 BKN020 13/12
                        Q1020=
201103282100 METAR LPPR 282100Z VRB02KT 9000 FEW005 BKN010 OVC020 13/13
                        Q1020=
201103282030 METAR LPPR 282030Z 21003KT 9000 SCT006 BKN020 13/13 Q1020=
201103282000 METAR LPPR 282000Z 20005KT 170V230 9999 FEW015 BKN020 14/13
                        Q1019=
201103281930 METAR LPPR 281930Z 19005KT 9999 FEW015 BKN018 BKN021 14/13
                        Q1019=
201103281900 METAR LPPR 281900Z 17007KT 9999 SCT015 BKN020 13/12 Q1018=
201103281830 METAR LPPR 281830Z 19006KT 9999 FEW009 FEW015TCU BKN017 14/13
                        Q1018=
201103281800 METAR LPPR 281800Z 20008KT 9999 FEW005 FEW014CB BKN017 14/13
                        Q1018=
201103281730 METAR LPPR 281730Z VRB07KT 8000 SCT005 FEW013CB SCT015 14/13
                        Q1018=
201103281700 METAR LPPR 281700Z 19010KT 7000 -DZ BKN005 BKN009 14/13 Q1018=
201103281630 METAR LPPR 281630Z 20011KT 8000 -DZ BKN004 OVC012 14/13 Q1018=
201103281600 METAR LPPR 281600Z 21010KT 180V250 6000 -DZ BKN004 OVC010
                        14/13 Q1018=
201103281530 METAR LPPR 281530Z 22009KT 190V260 4000 -RA BR SCT003 BKN006
                        OVC012 14/13 Q1018=
201103281500 METAR LPPR 281500Z 21009KT 190V260 4000 -RA BR BKN004 BKN009
                        14/13 Q1018 RERA=
201103281430 METAR LPPR 281430Z 22009KT 170V270 4100 R17/1200VP2000 RA
                        BR BKN004 BKN007 13/13 Q1018=
201103281400 METAR LPPR 281400Z 19014KT 2500 R17/1400VP2000D RA BR OVC004
                        13/13 Q1018=
201103281330 METAR LPPR 281330Z 18014KT 3600 -RA BR BKN005 BKN012 13/13
                        Q1018 RERA=
201103281300 METAR LPPR 281300Z 18015KT 2600 R17/1300VP2000D RA BKN006
                        BKN013 13/13 Q1019=
201103281230 METAR LPPR 281230Z 19014KT 3000 RADZ SCT005 BKN008 OVC014
                        13/12 Q1019=
201103281200 METAR LPPR 281200Z 20013KT 3000 -RADZ FEW006 SCT010 BKN014
                        13/11 Q1019=
201103281130 METAR LPPR 281130Z 20014KT 2500 -RADZ SCT004 BKN007 OVC012
                        13/12 Q1019=
201103281100 METAR LPPR 281100Z 17013KT 5000 -DZ SCT006 BKN009 OVC014
                        13/12 Q1019=
201103281030 METAR LPPR 281030Z 18011KT 4000 -RADZ SCT006 SCT009 OVC014
                        13/12 Q1019=
201103281000 METAR LPPR 281000Z 18012KT 3000 -RADZ SCT004 BKN008 OVC012
                        12/11 Q1019=
201103280930 METAR LPPR 280930Z 18008KT 3000 RADZ SCT004 SCT008 BKN012
                        12/12 Q1019=
201103280900 METAR LPPR 280900Z 19008KT 6000 -RADZ SCT006 SCT012 BKN020
                        12/11 Q1019=
201103280830 METAR LPPR 280830Z 19009KT 4000 -RA SCT004 BKN006 12/11 Q1020=
201103280800 METAR LPPR 280800Z 18010KT 3000 RADZ SCT006 BKN009 12/11
                        Q1019=
201103280730 METAR LPPR 280730Z 17008KT 9999 -RA SCT010 BKN013 12/11 Q1019=
201103280700 METAR LPPR 280700Z 16008KT 9999 SCT009 SCT011 BKN034 12/11
                        Q1019=
201103280630 METAR LPPR 280630Z 16008KT 9999 FEW009 BKN013 BKN040 12/11
                        Q1019=
201103280600 METAR LPPR 280600Z 16009KT 9999 -RA FEW010 BKN014 BKN027
                        12/11 Q1019=
201103280530 METAR LPPR 280530Z 16008KT 7000 -RADZ//// FEW017 BKN023 BKN045
                        12/10 Q1019=
201103280500 METAR LPPR 280500Z 17009KT 8000 -RA FEW015 BKN040 OVC070
                        11/10 Q1019=
201103280430 METAR LPPR 280430Z 17008KT 9999 SCT015 SCT040 BKN050 11/10
                        Q1019=
201103280400 METAR LPPR 280400Z 17008KT 9999 FEW008 SCT018 OVC039 11/10
                        Q1019=
201103280330 METAR LPPR 280330Z 18009KT 9999 SCT006 BKN016 OVC028 11/10
                        Q1019=
201103280300 METAR LPPR 280300Z 17010KT 6000 -RADZ FEW005 SCT007 OVC014
                        12/11 Q1019=
201103280230 METAR LPPR 280230Z 21006KT 190V260 9999 FEW010 BKN016 BKN023
                        13/10 Q1019=
201103280200 METAR LPPR 280200Z 21005KT 180V260 9999 SCT014 BKN023 BKN030
                        13/11 Q1020=
201103280130 METAR LPPR 280130Z 22004KT 190V270 9999 SCT012 BKN016 BKN029
                        12/10 Q1020=
201103280100 METAR LPPR 280100Z VRB02KT 9999 BKN013 BKN037 OVC043 12/11
                        Q1020=
201103280030 METAR LPPR 280030Z 17003KT 140V220 9999 SCT014 BKN020 BKN040
                        12/11 Q1020=
201103280000 METAR LPPR 280000Z 17003KT 150V210 9999 SCT017 BKN050 12/11
                        Q1020=
201103272330 METAR LPPR 272330Z VRB02KT 9999 SCT018 BKN044 12/11 Q1020=
201103272300 METAR LPPR 272300Z VRB02KT 9999 BKN015 BKN050 11/10 Q1020=
201103272230 METAR LPPR 272230Z VRB01KT 9999 FEW010 SCT015 BKN034 11/10
                        Q1020=
201103272200 METAR LPPR 272200Z 00000KT 9999 FEW010 SCT015 BKN020 12/10
                        Q1020=
201103272130 METAR LPPR 272130Z 28005KT 230V330 9999 -SHRA FEW015 SCT040
                        BKN050 12/10 Q1020=
201103272100 METAR LPPR 272100Z 26004KT 190V330 9999 SCT015 SCT040 13/10
                        Q1020=
201103272030 METAR LPPR 272030Z 27005KT 230V320 9999 FEW016 SCT045 OVC063
                        13/10 Q1020=
201103272000 METAR LPPR 272000Z 28004KT 220V330 9999 SCT018 SCT025 13/10
                        Q1019=
201103271930 METAR LPPR 271930Z 28004KT 230V320 9999 SCT016 SCT025 BKN060
                        13/10 Q1019=
201103271900 METAR LPPR 271900Z 29004KT 230V330 9999 SCT016 BKN025 13/10
                        Q1019=
201103271830 METAR LPPR 271830Z 28006KT 220V330 9999 SCT018 BKN025 OVC057
                        13/10 Q1019=
201103271800 METAR LPPR 271800Z 28006KT 230V340 9999 BKN018 BKN023 14/10
                        Q1019=
201103271730 METAR LPPR 271730Z 28005KT 220V320 9999 SCT018 14/10 Q1018=
201103271700 METAR LPPR 271700Z 26006KT 210V320 9999 BKN017 14/10 Q1018=
201103271630 METAR LPPR 271630Z 27006KT 230V320 9999 SCT018 BKN021 BKN044
                        14/10 Q1018=
201103271600 METAR LPPR 271600Z 28006KT 210V330 9999 BKN019 BKN030 14/10
                        Q1018=
201103271530 METAR LPPR 271530Z 28008KT 230V330 9999 SCT019 SCT031 BKN061
                        15/10 Q1018=
201103271500 METAR LPPR 271500Z 28006KT 240V010 9999 SCT017 15/10 Q1018=
201103271430 METAR LPPR 271430Z 29008KT 250V330 9999 SCT020 15/10 Q1018=
201103271400 METAR LPPR 271400Z VRB08KT 9999 SCT020 SCT023 BKN028 15/10
                        Q1018=
201103271330 METAR LPPR 271330Z 29009KT 240V320 9999 BKN017 BKN047 15/10
                        Q1017=
201103271300 METAR LPPR 271300Z 28007KT 230V330 9999 SCT017 FEW020TCU
                        SCT050 15/10 Q1017=
201103271230 METAR LPPR 271230Z 28008G18KT 220V330 9999 SCT017 FEW020TCU
                        SCT050 14/10 Q1017=
201103271200 METAR LPPR 271200Z 28007KT 220V330 9999 FEW016 FEW018CB SCT050
                        15/10 Q1017=
201103271130 METAR LPPR 271130Z 27006KT 220V320 9999 FEW017 FEW020CB BKN050
                        14/11 Q1017=
201103271100 METAR LPPR 271100Z 28008KT 230V320 9999 SCT015 BKN050 14/10
                        Q1017=
201103271030 METAR LPPR 271030Z 28007KT 210V010 9999 FEW014 FEW016TCU
                        BKN050 14/10 Q1017=
201103271000 METAR LPPR 271000Z VRB06KT 9999 SCT013 FEW017TCU BKN050 14/10
                        Q1016=
201103270930 METAR LPPR 270930Z 29007KT 240V330 9999 SCT013 FEW017TCU
                        BKN040 14/10 Q1016=
201103270900 METAR LPPR 270900Z 28007KT 240V320 9999 SCT013 FEW017TCU
                        SCT040 14/10 Q1016=
201103270830 METAR LPPR 270830Z 27005KT 180V330 9999 SCT015 BKN040 14/10
                        Q1016=
201103270800 METAR LPPR 270800Z 27007KT 230V310 9999 FEW015 BKN030 13/10
                        Q1015=
201103270730 METAR LPPR 270730Z 26006KT 190V310 9999 SCT013 BKN030 13/10
                        Q1015=
201103270700 METAR LPPR 270700Z 27005KT 200V360 9999 SCT012 BKN015 BKN030
                        13/11 Q1015=
201103270630 METAR LPPR 270630Z 24007KT 200V280 9999 FEW009 SCT015 BKN030
                        13/11 Q1014=
201103270600 METAR LPPR 270600Z 24008KT 200V300 9999 SCT013 BKN030 12/10
                        Q1014=
201103270530 METAR LPPR 270530Z 27006KT 200V010 8000 -SHRA SCT015 BKN040
                        13/09 Q1014=
201103270500 METAR LPPR 270500Z 26005KT 190V310 9999 SCT015 BKN040 13/09
                        Q1014=
201103270430 METAR LPPR 270430Z 25006KT 210V320 9999 SCT015 BKN040 13/10
                        Q1013=
201103270400 METAR LPPR 270400Z VRB07KT 9999 SCT015 BKN040 13/10 Q1013=
201103270330 METAR LPPR 270330Z 25006KT 190V310 9999 FEW009 SCT015 BKN030
                        13/12 Q1013=
201103270300 METAR LPPR 270300Z 24006KT 200V280 8000 FEW005 SCT015 BKN030
                        12/11 Q1013=
201103270230 METAR LPPR 270230Z 26008KT 210V330 7000 -SHRA FEW003 SCT015
                        BKN025 12/11 Q1013=
201103270130 METAR LPPR 270130Z 23008KT 190V270 9000 SCT015 BKN020 BKN040
                        13/12 Q1013=
201103270100 METAR LPPR 270100Z 24007KT 200V280 8000 -SHRA SCT015 BKN020
                        BKN040 12/11 Q1013=
201103270030 METAR LPPR 270030Z 22011KT 190V270 7000 -SHRA FEW012 BKN015
                        BKN025 13/11 Q1013=
201103270000 METAR LPPR 270000Z 22012KT 190V260 9999 SCT015 BKN020 BKN040
                        13/11 Q1013=
201103262330 METAR LPPR 262330Z 21012KT 190V250 9999 SCT015 BKN020 BKN045
                        12/11 Q1013=
201103262300 METAR LPPR 262300Z 21013KT 190V250 9999 FEW015 SCT020 BKN030
                        13/11 Q1013=
201103262230 METAR LPPR 262230Z 21012G22KT 9000 -SHRA FEW009 SCT015 BKN020
                        13/11 Q1013=
201103262200 METAR LPPR 262200Z 20012KT 9000 -SHRA SCT020 SCT025 BKN035
                        13/10 Q1013=
201103262130 METAR LPPR 262130Z 21009KT 180V250 9999 SCT015 SCT020 BKN040
                        12/10 Q1013=
201103262100 METAR LPPR 262100Z 21011KT 170V250 6000 SHRA SCT015 BKN020
                        BKN040 12/10 Q1013=
201103262030 METAR LPPR 262030Z 21009KT 180V240 9000 -SHRA SCT007 SCT015
                        BKN037 12/10 Q1013 RERA=
201103262000 METAR LPPR 262000Z 20012KT 5000 SHRA SCT009 BKN015 FEW018CB
                        12/10 Q1013=
201103261930 METAR COR LPPR 261930Z 18013KT 9999 FEW009 BKN017 FEW020TCU
                        12/10 Q1013=
201103261900 METAR LPPR 261900Z 17011KT 9999 FEW009 BKN017 FEW020TCU 12/10
                        Q1013=
201103261830 METAR LPPR 261830Z 17013KT 9999 SCT009 BKN012 FEW017TCU 12/11
                        Q1013=
201103261800 METAR COR LPPR 261800Z 18013KT 9999 FEW009 FEW017TCU SCT020
                        12/11 Q1013=
201103261730 METAR LPPR 261730Z 18011KT 9999 SCT013 FEW017TCU BKN020 12/10
                        Q1013=
201103261700 METAR LPPR 261700Z 18011KT 9999 BKN014 12/10 Q1013=
201103261630 METAR LPPR 261630Z 18011KT 9999 FEW015 SCT020 BKN030 12/10
                        Q1013=
201103261600 METAR LPPR 261600Z 17010KT 9999 SCT009 SCT025 BKN045 12/10
                        Q1013=
201103261530 METAR LPPR 261530Z 15010KT 9000 -RA FEW007 SCT017 BKN050
                        11/10 Q1012=
201103261500 METAR LPPR 261500Z 20004KT 160V270 8000 -RA FEW006 SCT012
                        OVC050 12/10 Q1013=
201103261430 METAR LPPR 261430Z 24008KT 180V290 5000 RA BKN007 BKN010
                        OVC040 12/11 Q1013=
201103261400 METAR LPPR 261400Z 24013G23KT 210V300 2500 +RA BKN006 OVC012
                        12/11 Q1013=
201103261330 METAR LPPR 261330Z 20016G26KT 8000 -SHRA BKN009 BKN012 OVC039
                        14/13 Q1012=
201103261300 METAR LPPR 261300Z 20012KT 8000 -SHRA SCT008 BKN015 BKN043
                        13/10 Q1013 RERA=
201103261230 METAR LPPR 261230Z 19013KT 8000 -SHRA SCT014 BKN020 BKN030
                        15/12 Q1013=
201103261200 METAR LPPR 261200Z 18018KT 9999 SCT014 BKN020 15/12 Q1013=
201103261130 METAR LPPR 261130Z 18015KT 8000 -SHRA FEW010 SCT016 BKN043
                        15/12 Q1013=
201103261100 METAR LPPR 261100Z 18015KT 9999 FEW010 SCT013 BKN050 15/12
                        Q1014=
201103261030 METAR LPPR 261030Z 18016KT 9999 FEW009 SCT013 BKN050 15/12
                        Q1014=
201103261000 METAR LPPR 261000Z 18015KT 9999 FEW009 SCT020 BKN050 15/13
                        Q1014=
201103260930 METAR LPPR 260930Z 18014KT 7000 -SHRA SCT008 BKN011 BKN016
                        14/12 Q1014=
201103260900 METAR LPPR 260900Z 18012KT 7000 -SHRA SCT008 BKN012 BKN025
                        14/12 Q1014=
201103260830 METAR LPPR 260830Z 18013KT 9999 FEW008 SCT012 BKN050 14/12
                        Q1014=
201103260800 METAR LPPR 260800Z 18013KT 9999 FEW009 SCT013 OVC050 14/12
                        Q1014=
201103260730 METAR LPPR 260730Z 18015KT 9999 SCT013 SCT030 OVC050 14/12
                        Q1014=
201103260700 METAR LPPR 260700Z 17013KT 9999 FEW009 OVC015 14/12 Q1014=
201103260630 METAR LPPR 260630Z 17012KT 8000 -RA SCT009 BKN025 14/11 Q1014=
201103260600 METAR LPPR 260600Z 16012KT 9999 BKN030 14/11 Q1014=
201103260530 METAR LPPR 260530Z 16012KT 9999 FEW040 13/11 Q1014=
201103260500 METAR LPPR 260500Z 17012KT 9999 FEW011 BKN040 14/12 Q1014=
201103260430 METAR LPPR 260430Z 18012KT 9999 FEW011 BKN040 14/12 Q1015=
201103260400 METAR LPPR 260400Z 18011KT 9999 FEW009 SCT020 14/12 Q1015=
201103260330 METAR LPPR 260330Z 19011KT 9999 FEW015 BKN020 15/12 Q1015=
201103260300 METAR LPPR 260300Z 17009KT 9999 BKN017 14/12 Q1015=
201103260230 METAR LPPR 260230Z 16008KT 9999 -SHRA SCT017 BKN020 14/11
                        Q1015=
201103260200 METAR LPPR 260200Z 14007KT 9999 FEW017 SCT020 BKN040 14/11
                        Q1015=
201103260130 METAR LPPR 260130Z 14007KT 9999 FEW017 SCT020 BKN040 14/11
                        Q1015=
201103260100 METAR LPPR 260100Z 14008KT 9999 -SHRA FEW017 SCT020 BKN030
                        14/11 Q1016=
201103260030 METAR LPPR 260030Z 13007KT 9999 SCT020 BKN040 14/11 Q1016=
201103260000 METAR LPPR 260000Z 12006KT 9999 FEW020 SCT045 14/11 Q1016=
201103252330 METAR LPPR 252330Z 14007KT 9999 FEW020 SCT045 14/11 Q1016=
201103252300 METAR LPPR 252300Z 12006KT 9999 FEW020 BKN045 14/11 Q1016=
201103252230 METAR LPPR 252230Z 13006KT 9999 FEW020 BKN040 14/12 Q1017=
201103252200 METAR LPPR 252200Z 16007KT 9999 FEW020 BKN040 15/11 Q1017=
201103252130 METAR LPPR 252130Z 16006KT 9999 FEW020 SCT030 15/11 Q1017=
201103252100 METAR LPPR 252100Z 16006KT 9999 FEW020 BKN030 15/12 Q1017=
201103252030 METAR LPPR 252030Z 16007KT 9999 FEW020 BKN035 15/12 Q1017=
201103252000 METAR LPPR 252000Z 15007KT 9999 FEW020 BKN035 14/12 Q1017=
201103251930 METAR LPPR 251930Z 20004KT 170V240 9999 FEW015 BKN035 15/12
                        Q1017=
201103251900 METAR LPPR 251900Z 20004KT 170V230 9999 FEW015 BKN035 15/12
                        Q1016=
201103251830 METAR LPPR 251830Z 23006KT 190V270 9999 FEW015 SCT025 BKN035
                        15/12 Q1016=
201103251800 METAR LPPR 251800Z 24004KT 210V280 9999 FEW018 BKN030 15/13
                        Q1016=
201103251730 METAR LPPR 251730Z 23006KT 200V290 9999 FEW018 BKN030 16/12
                        Q1016=
201103251700 METAR LPPR 251700Z 25003KT 190V320 9999 FEW020 FEW025 BKN035
                        16/13 Q1016=
201103251630 METAR LPPR 251630Z 23007KT 200V260 9999 FEW020 FEW025CB BKN030
                        16/13 Q1016=
201103251600 METAR LPPR 251600Z 26006KT 220V300 9999 FEW020 BKN035 17/13
                        Q1016=
201103251530 METAR LPPR 251530Z 25007KT 210V300 9999 FEW020 SCT030 18/12
                        Q1016=
201103251500 METAR LPPR 251500Z 23007KT 180V270 9999 FEW025 SCT035 18/13
                        Q1016=
201103251430 METAR LPPR 251430Z 23008KT 190V270 9999 FEW020 18/12 Q1016=
201103251400 METAR LPPR 251400Z 21008KT 160V260 9999 FEW025TCU 18/12 Q1017=
201103251330 METAR LPPR 251330Z 20012KT 9999 FEW025TCU 18/12 Q1017=
201103251300 METAR LPPR 251300Z 21014KT 180V240 9999 FEW020 FEW025TCU
                        18/12 Q1017=
201103251230 METAR LPPR 251230Z 20011KT 9999 FEW025TCU 19/12 Q1017=
201103251200 METAR LPPR 251200Z 20013KT 170V230 9999 FEW025TCU 18/12 Q1018=
201103251130 METAR LPPR 251130Z 18012KT 9999 FEW020 SCT030 18/12 Q1018=
201103251100 METAR LPPR 251100Z 18010KT 150V210 9999 FEW020 SCT035 18/12
                        Q1018=
201103251030 METAR LPPR 251030Z 18007KT 9999 FEW020 SCT028 BKN100 17/12
                        Q1018=
201103251000 METAR LPPR 251000Z 16007KT 9999 BKN030 BKN090 17/11 Q1018=
201103250930 METAR LPPR 250930Z 14006KT 110V170 9999 BKN030 16/12 Q1018=
201103250900 METAR LPPR 250900Z 14006KT 9999 FEW025 BKN030 15/12 Q1018=
201103250830 METAR LPPR 250830Z 14004KT 100V180 9999 SCT025 BKN030 BKN060/
                        14/12 Q1018=
201103250800 METAR LPPR 250800Z 16005KT 9999 FEW025 SCT030 13/12 Q1018=
201103250730 METAR LPPR 250730Z 14006KT 9999 FEW020 SCT040 13/11 Q1018=
201103250700 METAR LPPR 250700Z 12007KT 9000 FEW020 SCT045 BKN050 12/11
                        Q1017=
201103250630 METAR LPPR 250630Z 13004KT 7000 FEW020 BKN045 11/10 Q1017=
201103250600 METAR LPPR 250600Z 12004KT 8000 FEW020 SCT035 11/10 Q1017=
201103250530 METAR LPPR 250530Z 12005KT 9999 FEW044 11/10 Q1017=
201103250500 METAR LPPR 250500Z 15004KT 9999 FEW035 BKN040 11/10 Q1017=
201103250430 METAR LPPR 250430Z 16003KT 9999 SCT038 BKN044 10/10 Q1017=
201103250400 METAR LPPR 250400Z 13004KT 9000 FEW046 SCT052 10/10 Q1017=
201103250330 METAR LPPR 250330Z VRB02KT 9000 FEW040 SCT050 10/10 Q1017=
201103250300 METAR LPPR 250300Z 24004KT 170V290 9999 FEW040 SCT050 12/11
                        Q1017=
201103250230 METAR LPPR 250230Z 07003KT 360V100 9999 FEW048 10/09 Q1017=
201103250200 METAR COR LPPR 250200Z VRB01KT 9999 FEW035 11/11 Q1017=
201103250130 METAR LPPR 250130Z 12003KT 080V160 CAVOK 11/11 Q1017=
201103250100 METAR LPPR 250100Z 03002KT CAVOK 11/10 Q1018=
201103250030 METAR LPPR 250030Z VRB01KT 8000 FEW047 BKN065 BKN086 11/11
                        Q1018=
201103250000 METAR LPPR 250000Z VRB01KT 9999 SCT045 11/11 Q1018=
201103242330 METAR LPPR 242330Z VRB02KT 9999 SCT045 11/10 Q1018=
201103242300 METAR LPPR 242300Z VRB02KT 9999 BKN045 12/11 Q1018=
201103242230 METAR LPPR 242230Z VRB03KT 9999 FEW037 BKN045 BKN080 12/11
                        Q1018 RERA=
201103242200 METAR LPPR 242200Z VRB02KT 7000 RA SCT035 SCT040 BKN070 13/11
                        Q1019=
201103242130 METAR LPPR 242130Z VRB02KT CAVOK 13/10 Q1018=
201103242100 METAR LPPR 242100Z 02003KT 360V060 CAVOK 13/10 Q1019=
201103242030 METAR LPPR 242030Z 01003KT 330V080 CAVOK 13/10 Q1019=
201103242000 METAR LPPR 242000Z 35003KT 330V030 CAVOK 13/10 Q1019=
201103241930 METAR LPPR 241930Z 32003KT CAVOK 14/10 Q1018=
201103241900 METAR LPPR 241900Z 33003KT 9999 FEW030 14/10 Q1018=
201103241830 METAR LPPR 241830Z 34003KT 9999 FEW030TCU 15/10 Q1018=
201103241800 METAR LPPR 241800Z 31003KT 280V350 9999 FEW030TCU 16/10 Q1018=
201103241730 METAR COR LPPR 241730Z 28004KT 230V330 9999 FEW030TCU 17/09
                        Q1018=
201103241700 METAR LPPR 241700Z 25005KT 220V310 9999 SCT030TCU 17/09 Q1018=
201103241630 METAR LPPR 241630Z 23007KT 190V280 9999 FEW030 18/09 Q1018=
201103241600 METAR LPPR 241600Z 21008KT 180V250 9999 FEW030 19/09 Q1018=
201103241530 METAR COR LPPR 241530Z 21007KT 170V240 9999 FEW025 SCT040
                        18/08 Q1018=
201103241500 METAR LPPR 241500Z 14008G18KT 110V170 9999 FEW030 SCT040
                        19/09 Q1018=
201103241430 METAR LPPR 241430Z 17006KT 110V210 9999 SCT030 SCT045 18/09
                        Q1018=
201103241400 METAR LPPR 241400Z 24006KT 190V290 9999 FEW025 SCT035 BKN040
                        17/10 Q1019=
201103241330 METAR LPPR 241330Z 23007KT 170V260 9999 FEW025 BKN040 17/09
                        Q1019=
201103241300 METAR LPPR 241300Z 18008KT 160V230 9999 FEW025 SCT040 BKN050
                        18/09 Q1019=
201103241230 METAR LPPR 241230Z 12006KT 9999 -SHRA/ FEW025 BKN040 BKN050
                        16/11 Q1019=
201103241200 METAR LPPR 241200Z 14009KT 100V170 9999 FEW025 BKN040 18/09
                        Q1019=
201103241130 METAR LPPR 241130Z 13008KT 080V170 9999 FEW025 SCT040 18/09
                        Q1019=
201103241100 METAR LPPR 241100Z 09010KT 050V130 9999 FEW025 18/09 Q1019=
201103241030 METAR LPPR 241030Z 10008KT 060V130 9999 FEW035 17/08 Q1020=
201103241000 METAR LPPR 241000Z 12010KT 9999 FEW035 16/08 Q1020=
201103240930 METAR LPPR 240930Z 12006KT 080V150 9999 FEW025 FEW030 15/08
                        Q1020=
201103240900 METAR LPPR 240900Z 12009KT 090V150 9999 FEW030CB BKN060 14/08
                        Q1020=
201103240830 METAR LPPR 240830Z 11008KT 070V140 9999 FEW030CB BKN050 14/08
                        Q1019=
201103240800 METAR LPPR 240800Z 10004KT 050V130 9999 FEW030CB SCT060 14/08
                        Q1019=
201103240730 METAR LPPR 240730Z 10006KT 9999 FEW030CB SCT050 BKN070 13/08
                        Q1019=
201103240700 METAR LPPR 240700Z 09007KT 9999 FEW030CB SCT040 BKN070 13/07
                        Q1019=
201103240630 METAR LPPR 240630Z 08006KT 9999 SCT040/BKN070/ 12/08 Q1019=
201103240600 METAR LPPR 240600Z 06004KT CAVOK 10/08 Q1019=
201103240530 METAR LPPR 240530Z 34003KT 240V030 CAVOK 11/08 Q1019=
201103240500 METAR LPPR 240500Z 22004KT 190V280 CAVOK 13/07 Q1019=
201103240430 METAR LPPR 240430Z 09006KT CAVOK 12/08 Q1018=
201103240400 METAR LPPR 240400Z 10006KT CAVOK 12/07 Q1018=
201103240330 METAR LPPR 240330Z 09005KT CAVOK 13/07 Q1019=
201103240300 METAR LPPR 240300Z 10006KT CAVOK 13/07 Q1019=
201103240230 METAR LPPR 240230Z 06005KT CAVOK 11/06 Q1019=
201103240200 METAR LPPR 240200Z 09005KT CAVOK 12/06 Q1019=
201103240130 METAR LPPR 240130Z 10005KT CAVOK 13/06 Q1019=
201103240100 METAR LPPR 240100Z 11008KT CAVOK 13/06 Q1019=
201103240030 METAR LPPR 240030Z 11008KT CAVOK 13/06 Q1019=
201103240000 METAR LPPR 240000Z 10009KT CAVOK 13/06 Q1019=
201103232330 METAR LPPR 232330Z 10009KT CAVOK 13/06 Q1019=
201103232300 METAR LPPR 232300Z 08008KT CAVOK 13/06 Q1020=
201103232230 METAR LPPR 232230Z 09008KT CAVOK 14/06 Q1020=
201103232200 METAR LPPR 232200Z 08009KT CAVOK 14/07 Q1020=
201103232130 METAR LPPR 232130Z 08011KT 9999 FEW025 14/06 Q1020=
201103232100 METAR LPPR 232100Z 08011KT 9999 FEW025 15/06 Q1020=
201103232030 METAR LPPR 232030Z 08009KT 9999 FEW025 15/06 Q1020=
201103232000 METAR LPPR 232000Z 08007KT 9999 FEW025 15/05 Q1020=
201103231930 METAR LPPR 231930Z 08007KT 9999 FEW025 15/05 Q1019=
201103231900 METAR LPPR 231900Z 09009KT 9999 FEW025 16/05 Q1019=
201103231830 METAR LPPR 231830Z 09011KT 9999 FEW025 17/04 Q1019=
201103231800 METAR LPPR 231800Z 08010KT 050V120 9999 FEW025 17/04 Q1019=
201103231730 METAR LPPR 231730Z 10009KT 9999 FEW025 17/04 Q1019=
201103231700 METAR LPPR 231700Z 10012KT 9999 FEW025 18/03 Q1019=
201103231630 METAR LPPR 231630Z 09011KT 050V130 9999 FEW025 18/03 Q1019=
201103231600 METAR LPPR 231600Z 11012KT 080V140 9999 FEW025 18/04 Q1019=
201103231530 METAR LPPR 231530Z 10014KT 070V130 9999 FEW025 18/04 Q1019=
201103231500 METAR LPPR 231500Z 10013KT 060V140 9999 FEW025 18/03 Q1019=
201103231430 METAR LPPR 231430Z 10013KT 060V120 9999 FEW025 17/03 Q1020=
201103231400 METAR LPPR 231400Z 09013KT 060V140 9999 FEW045 17/03 Q1020=
201103231330 METAR LPPR 231330Z 09015KT 070V130 9999 FEW045 17/03 Q1020=
201103231300 METAR LPPR 231300Z 10014KT 9999 FEW025 17/02 Q1021=
201103231230 METAR LPPR 231230Z 09014KT 060V130 9999 FEW025 17/02 Q1021=
201103231200 METAR LPPR 231200Z 09014KT 050V130 CAVOK 17/02 Q1021=
201103231130 METAR LPPR 231130Z 10015KT 060V130 CAVOK 16/01 Q1022=
201103231100 METAR LPPR 231100Z 11016KT 080V140 CAVOK 15/01 Q1022=
201103231030 METAR LPPR 231030Z 11014KT 070V140 CAVOK 15/02 Q1022=
201103231000 METAR LPPR 231000Z 11014KT 080V140 CAVOK 14/00 Q1022=
201103230930 METAR LPPR 230930Z 09008KT 030V130 CAVOK 14/01 Q1022=
201103230900 METAR LPPR 230900Z 13013KT CAVOK 13/01 Q1023=
201103230830 METAR LPPR 230830Z 09007KT 060V120 CAVOK 13/02 Q1023=
201103230800 METAR LPPR 230800Z 09006KT 060V150 CAVOK 12/02 Q1022=
201103230730 METAR LPPR 230730Z 09005KT 050V130 CAVOK 11/03 Q1022=
201103230700 METAR LPPR 230700Z 12007KT 090V160 CAVOK 11/02 Q1022=
201103230630 METAR LPPR 230630Z 10009KT 060V130 CAVOK 11/02 Q1021=
201103230600 METAR LPPR 230600Z 10009KT CAVOK 12/01 Q1021=
201103230530 METAR LPPR 230530Z 10011KT CAVOK 12/01 Q1021=
201103230500 METAR LPPR 230500Z 10009KT CAVOK 12/01 Q1021=
201103230430 METAR LPPR 230430Z 10008KT CAVOK 12/02 Q1021=
201103230400 METAR LPPR 230400Z 10008KT CAVOK 11/02 Q1021=
201103230330 METAR LPPR 230330Z 10007KT CAVOK 11/03 Q1021=
201103230300 METAR LPPR 230300Z 10007KT CAVOK 11/04 Q1021=
201103230230 METAR LPPR 230230Z 11008KT CAVOK 12/05 Q1021=
201103230200 METAR LPPR 230200Z 10007KT CAVOK 12/05 Q1021=
201103230130 METAR LPPR 230130Z 11008KT CAVOK 11/06 Q1021=
201103230100 METAR LPPR 230100Z 12005KT CAVOK 10/06 Q1021=
201103230030 METAR LPPR 230030Z 10005KT CAVOK 11/06 Q1021=
201103230000 METAR LPPR 230000Z 11005KT 9999 FEW035 12/06 Q1021=
201103222330 METAR LPPR 222330Z 14008KT 9999 FEW035 13/06 Q1021=
201103222300 METAR LPPR 222300Z 12006KT 9999 FEW030 13/07 Q1021=
201103222230 METAR LPPR 222230Z 13006KT 100V160 9999 FEW030 12/08 Q1021=
201103222200 METAR LPPR 222200Z 16006KT 9999 FEW030 13/08 Q1021=
201103222130 METAR LPPR 222130Z 17010KT 9999 SCT030 14/09 Q1021=
201103222100 METAR LPPR 222100Z 02002KT 9999 SCT030 12/06 Q1021=
201103222030 METAR LPPR 222030Z VRB02KT 9999 SCT030 14/05 Q1021=
201103222000 METAR LPPR 222000Z 01004KT 9999 SCT030 14/05 Q1020=
201103221930 METAR LPPR 221930Z 36005KT 9999 SCT030 14/05 Q1020=
201103221900 METAR LPPR 221900Z 35006KT 310V010 9999 SCT030 14/05 Q1020=
201103221830 METAR LPPR 221830Z 36007KT 9999 FEW030 16/05 Q1020=
201103221800 METAR LPPR 221800Z 34007KT 320V030 9999 FEW025 18/04 Q1020=
201103221730 METAR LPPR 221730Z 34009KT 9999 FEW025 18/05 Q1020=
201103221700 METAR LPPR 221700Z 34010KT 9999 FEW025 19/05 Q1020=
201103221630 METAR LPPR 221630Z 33010KT 9999 SCT025 FEW030CB 19/06 Q1020=
201103221600 METAR LPPR 221600Z 33011KT 300V360 9999 SCT025 FEW030CB 19/07
                        Q1020=
201103221530 METAR LPPR 221530Z 33008KT 300V360 9999 SCT025 FEW030CB 19/08
                        Q1020=
201103221500 METAR LPPR 221500Z 33006KT 300V360 9999 SCT025 FEW030CB 19/08
                        Q1020=
201103221430 METAR LPPR 221430Z 10009KT 060V130 9999 SCT025 FEW040 21/04
                        Q1020=
201103221400 METAR LPPR 221400Z 10010KT 9999 SCT020 22/03 Q1021=
201103221330 METAR LPPR 221330Z 11012KT 080V140 9999 FEW020 21/03 Q1021=
201103221300 METAR LPPR 221300Z 10007KT 040V140 9999 FEW020 20/04 Q1021=
201103221230 METAR LPPR 221230Z 11007KT 050V150 CAVOK 20/05 Q1021=
201103221200 METAR LPPR 221200Z 11008KT 070V150 CAVOK 19/06 Q1022=
201103221130 METAR LPPR 221130Z 08009KT 050V110 CAVOK 18/05 Q1022=
201103221100 METAR LPPR 221100Z 10009KT 070V140 CAVOK 18/06 Q1022=
201103221030 METAR LPPR 221030Z 10008KT 070V150 CAVOK 17/06 Q1022=
201103221000 METAR LPPR 221000Z 12008KT 090V150 CAVOK 16/06 Q1023=
201103220930 METAR LPPR 220930Z 12010KT 080V140 CAVOK 16/05 Q1023=
201103220900 METAR LPPR 220900Z 10009KT CAVOK 15/05 Q1022=
201103220830 METAR LPPR 220830Z 11010KT 080V140 CAVOK 14/05 Q1022=
201103220800 METAR LPPR 220800Z 10009KT CAVOK 14/04 Q1022=
201103220730 METAR LPPR 220730Z 11010KT CAVOK 13/05 Q1022=
201103220700 METAR LPPR 220700Z 14009KT CAVOK 11/04 Q1022=
201103220630 METAR LPPR 220630Z 12009KT 090V150 CAVOK 12/04 Q1022=
201103220600 METAR LPPR 220600Z 13006KT 090V150 CAVOK 11/04 Q1021=
201103220530 METAR LPPR 220530Z 14006KT 110V190 CAVOK 12/04 Q1021=
201103220500 METAR LPPR 220500Z 10009KT CAVOK 14/03 Q1020=
201103220430 METAR LPPR 220430Z 10009KT CAVOK 14/02 Q1020=
201103220400 METAR LPPR 220400Z 10009KT CAVOK 14/02 Q1020=
201103220330 METAR LPPR 220330Z 08009KT CAVOK 14/02 Q1020=
201103220300 METAR LPPR 220300Z 03004KT 360V080 CAVOK 10/02 Q1020=
201103220230 METAR LPPR 220230Z VRB01KT CAVOK 14/00 Q1020=
201103220200 METAR LPPR 220200Z 11006KT CAVOK 15/00 Q1020=
201103220130 METAR LPPR 220130Z 10007KT CAVOK 15/M00 Q1020=
201103220100 METAR LPPR 220100Z 04004KT 020V110 CAVOK 13/M01 Q1020=
201103220030 METAR LPPR 220030Z 08003KT 050V120 CAVOK 15/M01 Q1020=
201103220000 METAR LPPR 220000Z 11006KT CAVOK 12/01 Q1020=
201103212330 METAR LPPR 212330Z 11008KT CAVOK 10/05 Q1020=
201103212300 METAR LPPR 212300Z 11007KT CAVOK 11/06 Q1020=
201103212230 METAR LPPR 212230Z 10005KT 060V120 CAVOK 13/06 Q1020=
201103212200 METAR LPPR 212200Z 13003KT 100V170 CAVOK 12/06 Q1020=
201103212130 METAR LPPR 212130Z 05003KT 340V060 CAVOK 12/06 Q1019=
201103212100 METAR LPPR 212100Z 03003KT CAVOK 12/08 Q1019=
201103212030 METAR LPPR 212030Z 03003KT CAVOK 12/09 Q1019=
201103212000 METAR LPPR 212000Z 03002KT CAVOK 13/10 Q1019=
201103211930 METAR LPPR 211930Z 02003KT CAVOK 13/10 Q1019=
201103211900 METAR LPPR 211900Z 35006KT CAVOK 14/10 Q1019=
201103211830 METAR LPPR 211830Z 33006KT CAVOK 16/11 Q1019=
201103211800 METAR LPPR 211800Z 33006KT CAVOK 17/10 Q1019=
201103211730 METAR LPPR 211730Z 33007KT CAVOK 18/08 Q1019=
201103211700 METAR LPPR 211700Z 33008KT CAVOK 20/05 Q1019=
201103211630 METAR LPPR 211630Z 34009KT CAVOK 20/04 Q1019=
201103211600 METAR LPPR 211600Z 32009KT CAVOK 20/08 Q1019=
201103211530 METAR LPPR 211530Z 32008KT 290V350 CAVOK 21/03 Q1019=
201103211500 METAR LPPR 211500Z 32007KT 280V360 CAVOK 20/02 Q1019=
201103211430 METAR LPPR 211430Z 32007KT 290V360 CAVOK 20/02 Q1019=
201103211400 METAR LPPR 211400Z 31007KT 270V340 CAVOK 20/05 Q1019=
201103211330 METAR LPPR 211330Z 08006KT 030V120 CAVOK 24/M03 Q1020=
201103211300 METAR LPPR 211300Z 08007KT 050V140 CAVOK 23/M05 Q1020=
201103211230 METAR LPPR 211230Z 11008KT CAVOK 23/M00 Q1020=
201103211200 METAR LPPR 211200Z 11008KT 070V140 CAVOK 22/M02 Q1020=
201103211130 METAR LPPR 211130Z 09009KT 060V140 CAVOK 21/M01 Q1020=
201103211100 METAR LPPR 211100Z 08010KT CAVOK 20/M03 Q1020=
201103211030 METAR LPPR 211030Z 10012KT 070V130 CAVOK 19/M03 Q1021=
201103211000 METAR LPPR 211000Z 10011KT 070V130 CAVOK 19/M03 Q1021=
201103210930 METAR LPPR 210930Z 09012KT CAVOK 18/M03 Q1021=
201103210900 METAR LPPR 210900Z 10013KT CAVOK 17/M03 Q1020=
201103210830 METAR LPPR 210830Z 10012KT CAVOK 16/M02 Q1020=
201103210800 METAR LPPR 210800Z 10008KT CAVOK 16/M02 Q1020=
201103210730 METAR LPPR 210730Z 10010KT CAVOK 15/M02 Q1020=
201103210700 METAR LPPR 210700Z 10008KT CAVOK 14/01 Q1020=
201103210630 METAR LPPR 210630Z 10009KT CAVOK 14/02 Q1019=
201103210600 METAR LPPR 210600Z 10008KT CAVOK 14/03 Q1019=
201103210530 METAR LPPR 210530Z 10008KT CAVOK 13/04 Q1019=
201103210500 METAR LPPR 210500Z 09006KT CAVOK 09/06 Q1019=
201103210430 METAR LPPR 210430Z 02003KT 360V060 CAVOK 08/07 Q1019=
201103210400 METAR LPPR 210400Z 36003KT CAVOK 08/07 Q1019=
201103210330 METAR LPPR 210330Z 35002KT CAVOK 09/07 Q1019=
201103210300 METAR LPPR 210300Z VRB01KT CAVOK 10/07 Q1019=
201103210230 METAR LPPR 210230Z 03004KT 360V060 CAVOK 13/08 Q1020=
201103210200 METAR LPPR 210200Z 07004KT 040V100 CAVOK 12/07 Q1020=
201103210130 METAR LPPR 210130Z 07003KT CAVOK 13/08 Q1020=
201103210100 METAR LPPR 210100Z VRB02KT CAVOK 11/07 Q1020=
201103210030 METAR LPPR 210030Z VRB01KT CAVOK 13/07 Q1020=
201103210000 METAR LPPR 210000Z VRB01KT CAVOK 12/08 Q1020=
201103202330 METAR LPPR 202330Z 13003KT CAVOK 11/08 Q1020=
201103202300 METAR LPPR 202300Z 00000KT CAVOK 10/08 Q1020=
201103202230 METAR LPPR 202230Z VRB02KT CAVOK 11/09 Q1020=
201103202200 METAR LPPR 202200Z 08004KT CAVOK 11/09 Q1020=
201103202130 METAR LPPR 202130Z 36003KT CAVOK 12/09 Q1020=
201103202100 METAR LPPR 202100Z 36002KT CAVOK 13/09 Q1020=
201103202030 METAR LPPR 202030Z VRB02KT CAVOK 13/09 Q1020=
201103202000 METAR LPPR 202000Z 32005KT CAVOK 15/09 Q1020=
201103201930 METAR LPPR 201930Z 33004KT CAVOK 16/07 Q1020=
201103201900 METAR LPPR 201900Z 34007KT CAVOK 17/06 Q1020=
201103201830 METAR LPPR 201830Z 34006KT CAVOK 18/07 Q1020=
201103201800 METAR COR LPPR 201800Z 34007KT CAVOK 19/07 Q1020=
201103201730 METAR LPPR 201730Z 34008KT CAVOK 20/06 Q1020=
201103201700 METAR LPPR 201700Z 34008KT CAVOK 20/07 Q1020=
201103201630 METAR LPPR 201630Z 34010KT CAVOK 21/07 Q1020=
201103201600 METAR LPPR 201600Z 33009KT CAVOK 21/08 Q1020=
201103201530 METAR LPPR 201530Z 34009KT CAVOK 21/08 Q1020=
201103201500 METAR LPPR 201500Z 32009KT CAVOK 22/08 Q1020=
201103201430 METAR LPPR 201430Z 33010KT CAVOK 21/07 Q1021=
201103201400 METAR LPPR 201400Z 30007KT 260V330 CAVOK 22/11 Q1021=
201103201330 METAR LPPR 201330Z 36004KT 280V080 CAVOK 25/06 Q1021=
201103201300 METAR LPPR 201300Z 07005KT 350V130 CAVOK 24/07 Q1021=
201103201230 METAR LPPR 201230Z 10006KT 050V130 CAVOK 23/06 Q1021=
201103201200 METAR LPPR 201200Z 08006KT 040V120 CAVOK 23/06 Q1022=
201103201130 METAR LPPR 201130Z 10006KT CAVOK 22/05 Q1022=
201103201100 METAR LPPR 201100Z 09008KT 050V130 CAVOK 22/06 Q1022=
201103201030 METAR LPPR 201030Z 10010KT CAVOK 20/06 Q1022=
201103201000 METAR LPPR 201000Z 10008KT 030V130 CAVOK 19/07 Q1022=
201103200930 METAR LPPR 200930Z 10007KT 060V120 CAVOK 19/07 Q1022=
201103200900 METAR LPPR 200900Z 10007KT 080V140 CAVOK 18/07 Q1022=
201103200830 METAR LPPR 200830Z 08004KT 030V140 CAVOK 17/07 Q1022=
201103200800 METAR LPPR 200800Z 10003KT 030V130 CAVOK 14/08 Q1022=
201103200730 METAR LPPR 200730Z 07004KT 040V130 CAVOK 12/06 Q1022=
201103200700 METAR LPPR 200700Z 07006KT 050V110 CAVOK 10/05 Q1021=
201103200630 METAR LPPR 200630Z 07004KT CAVOK 11/06 Q1021=
201103200600 METAR LPPR 200600Z 07004KT CAVOK 10/06 Q1021=
201103200530 METAR LPPR 200530Z 05004KT CAVOK 11/06 Q1021=
201103200500 METAR LPPR 200500Z 09006KT CAVOK 10/06 Q1021=
201103200430 METAR LPPR 200430Z 09005KT CAVOK 12/06 Q1021=
201103200400 METAR LPPR 200400Z 10006KT CAVOK 12/06 Q1021=
201103200330 METAR LPPR 200330Z 10006KT 060V120 CAVOK 13/07 Q1022=
201103200300 METAR LPPR 200300Z 10006KT CAVOK 12/07 Q1022=
201103200230 METAR LPPR 200230Z 09003KT 010V140 CAVOK 10/06 Q1022=
201103200200 METAR LPPR 200200Z VRB02KT CAVOK 11/06 Q1022=
201103200130 METAR LPPR 200130Z 07003KT CAVOK 11/06 Q1022=
201103200100 METAR LPPR 200100Z 05003KT 340V080 CAVOK 12/06 Q1022=
201103200030 METAR LPPR 200030Z 07005KT CAVOK 12/06 Q1022=
201103200000 METAR LPPR 200000Z 07004KT CAVOK 11/05 Q1022=
201103192330 METAR LPPR 192330Z VRB02KT CAVOK 12/05 Q1023=
201103192300 METAR LPPR 192300Z VRB01KT CAVOK 12/04 Q1023=
201103192230 METAR LPPR 192230Z 00000KT CAVOK 10/05 Q1023=
201103192200 METAR LPPR 192200Z 00000KT CAVOK 11/05 Q1023=
201103192130 METAR LPPR 192130Z VRB01KT CAVOK 10/05 Q1023=
201103192100 METAR LPPR 192100Z 36002KT CAVOK 11/06 Q1023=
201103192030 METAR LPPR 192030Z 02002KT CAVOK 12/06 Q1023=
201103192000 METAR LPPR 192000Z 03004KT 340V070 CAVOK 13/06 Q1023=
201103191930 METAR LPPR 191930Z 36005KT CAVOK 14/05 Q1023=
201103191900 METAR LPPR 191900Z 35006KT CAVOK 15/05 Q1023=
201103191830 METAR LPPR 191830Z 35009KT CAVOK 16/05 Q1023=
201103191800 METAR LPPR 191800Z 35009KT CAVOK 17/05 Q1023=
201103191730 METAR LPPR 191730Z 34008KT CAVOK 17/06 Q1023=
201103191700 METAR LPPR 191700Z 33007KT CAVOK 18/09 Q1023=
201103191630 METAR LPPR 191630Z 32009KT CAVOK 18/09 Q1023=
201103191600 METAR LPPR 191600Z 31007KT 280V340 CAVOK 18/10 Q1023=
201103191530 METAR LPPR 191530Z 32007KT 280V360 CAVOK 18/10 Q1023=
201103191500 METAR LPPR 191500Z 31007KT 280V340 CAVOK 20/10 Q1024=
201103191430 METAR LPPR 191430Z 31006KT CAVOK 20/11 Q1024=
201103191400 METAR LPPR 191400Z 29006KT 260V320 CAVOK 19/11 Q1024=
201103191330 METAR LPPR 191330Z 29005KT CAVOK 19/11 Q1025=
201103191300 METAR LPPR 191300Z 09003KT 360V150 CAVOK 21/10 Q1025=
201103191230 METAR LPPR 191230Z 09006KT 060V120 CAVOK 21/05 Q1026=
201103191200 METAR LPPR 191200Z 11005KT 040V140 CAVOK 21/06 Q1026=
201103191130 METAR LPPR 191130Z 10006KT 030V140 CAVOK 20/05 Q1026=
201103191100 METAR LPPR 191100Z 11006KT 080V140 CAVOK 19/06 Q1026=
201103191030 METAR LPPR 191030Z 10006KT 070V140 CAVOK 18/06 Q1027=
201103191000 METAR LPPR 191000Z 10005KT 060V170 CAVOK 16/07 Q1027=
201103190930 METAR LPPR 190930Z 09006KT 060V120 CAVOK 15/07 Q1026=
201103190900 METAR LPPR 190900Z 10004KT 070V140 CAVOK 13/06 Q1027=
201103190830 METAR LPPR 190830Z 11003KT 040V130 CAVOK 12/08 Q1027=
201103190800 METAR LPPR 190800Z VRB02KT CAVOK 09/07 Q1027=
201103190730 METAR LPPR 190730Z VRB02KT CAVOK 06/05 Q1026=
201103190700 METAR LPPR 190700Z 10004KT 070V140 CAVOK 06/04 Q1026=
201103190630 METAR LPPR 190630Z VRB02KT CAVOK 08/05 Q1026=
201103190600 METAR LPPR 190600Z 07002KT CAVOK 07/05 Q1025=
201103190530 METAR LPPR 190530Z 08004KT CAVOK 08/06 Q1025=
201103190500 METAR LPPR 190500Z 12003KT 080V170 CAVOK 08/06 Q1025=
201103190430 METAR LPPR 190430Z 09004KT 070V130 CAVOK 08/06 Q1026=
201103190400 METAR LPPR 190400Z 07004KT 8000 NSC 08/07 Q1026=
201103190330 METAR LPPR 190330Z 08004KT 7000 FEW009 08/07 Q1026=
201103190300 METAR LPPR 190300Z VRB02KT 8000 NSC 08/07 Q1026=
201103190230 METAR LPPR 190230Z 13005KT 9000 NSC 07/07 Q1026=
201103190200 METAR LPPR 190200Z VRB02KT 9000 NSC 07/07 Q1027=
201103190130 METAR LPPR 190130Z VRB02KT CAVOK 07/06 Q1027=
201103190100 METAR LPPR 190100Z VRB01KT CAVOK 10/08 Q1027=
201103190030 METAR LPPR 190030Z 06003KT 010V100 CAVOK 10/09 Q1027=
201103190000 METAR LPPR 190000Z VRB02KT CAVOK 09/08 Q1027=
201103182330 METAR LPPR 182330Z VRB01KT CAVOK 09/08 Q1027=
201103182300 METAR LPPR 182300Z VRB02KT CAVOK 09/09 Q1027=
201103182230 METAR LPPR 182230Z VRB01KT CAVOK 08/08 Q1027=
201103182200 METAR LPPR 182200Z VRB02KT CAVOK 09/09 Q1027=
201103182130 METAR LPPR 182130Z 09002KT CAVOK 09/09 Q1027=
201103182100 METAR LPPR 182100Z VRB01KT CAVOK 09/09 Q1027=
201103182030 METAR LPPR 182030Z VRB02KT CAVOK 10/09 Q1027=
201103182000 METAR LPPR 182000Z VRB02KT CAVOK 11/10 Q1027=
201103181930 METAR LPPR 181930Z VRB02KT CAVOK 11/10 Q1027=
201103181900 METAR LPPR 181900Z 32003KT 280V350 CAVOK 13/10 Q1027=
201103181830 METAR LPPR 181830Z 34006KT CAVOK 13/10 Q1027=
201103181800 METAR LPPR 181800Z 34007KT CAVOK 14/10 Q1027=
201103181730 METAR LPPR 181730Z 34008KT 300V360 CAVOK 15/10 Q1027=
201103181700 METAR LPPR 181700Z 32007KT 280V350 CAVOK 15/10 Q1026=
201103181630 METAR LPPR 181630Z 32007KT 270V350 CAVOK 15/10 Q1027=
201103181600 METAR LPPR 181600Z 31006KT 280V350 CAVOK 16/08 Q1027=
201103181530 METAR LPPR 181530Z 31008KT 280V350 CAVOK 16/08 Q1027=
201103181500 METAR LPPR 181500Z 32007KT CAVOK 16/09 Q1027=
201103181430 METAR LPPR 181430Z 31007KT 270V340 CAVOK 15/08 Q1027=
201103181400 METAR LPPR 181400Z 31007KT 270V340 CAVOK 15/09 Q1027=
201103181330 METAR LPPR 181330Z 31007KT 280V340 CAVOK 15/08 Q1027=
201103181300 METAR LPPR 181300Z 32008KT 280V340 CAVOK 14/08 Q1028=
201103181230 METAR LPPR 181230Z 30006KT 260V340 9999 NSC 14/08 Q1028=
201103181200 METAR LPPR 181200Z 29005KT 230V320 CAVOK 14/08 Q1028=
201103181130 METAR LPPR 181130Z 34005KT 290V010 CAVOK 14/08 Q1028=
201103181100 METAR LPPR 181100Z VRB03KT CAVOK 14/08 Q1028=
201103181030 METAR LPPR 181030Z VRB03KT CAVOK 13/08 Q1028=
201103181000 METAR LPPR 181000Z 04003KT 340V080 CAVOK 12/08 Q1028=
201103180930 METAR LPPR 180930Z VRB02KT CAVOK 11/08 Q1028=
201103180900 METAR LPPR 180900Z 11003KT 070V140 9000 NSC 10/08 Q1027=
201103180830 METAR LPPR 180830Z VRB02KT 8000 NSC 08/07 Q1027=
201103180800 METAR LPPR 180800Z VRB02KT 6000 NSC 06/06 Q1027=
201103180730 METAR LPPR 180730Z VRB02KT 4000 2300N BR NSC 04/04 Q1027=
201103180700 METAR LPPR 180700Z VRB02KT 7000 3200N NSC 04/04 Q1027=
201103180630 METAR LPPR 180630Z VRB01KT 7000 NSC 04/04 Q1027=
201103180600 METAR LPPR 180600Z VRB02KT 6000 04/04 Q1027=
201103180530 METAR LPPR 180530Z VRB01KT 8000 NSC 06/05 Q1026=
201103180500 METAR LPPR 180500Z 10003KT 7000 NSC 05/04 Q1026=
201103180430 METAR LPPR 180430Z VRB02KT 6000 NSC 04/04 Q1026=
201103180400 METAR LPPR 180400Z 04002KT 6000 NSC 04/04 Q1026=
201103180330 METAR LPPR 180330Z VRB02KT 8000 NSC 04/04 Q1026=
201103180300 METAR LPPR 180300Z VRB02KT 7000 NSC 04/03 Q1026=
201103180230 METAR LPPR 180230Z VRB01KT 7000 NSC 04/04 Q1026=
201103180200 METAR LPPR 180200Z VRB02KT CAVOK 06/06 Q1026=
201103180130 METAR LPPR 180130Z VRB01KT 8000 NSC 05/05 Q1026=
201103180100 METAR LPPR 180100Z 02002KT 7000 NSC 05/05 Q1026=
201103180030 METAR LPPR 180030Z VRB01KT CAVOK 05/05 Q1026=
201103180000 METAR LPPR 180000Z 14002KT CAVOK 06/05 Q1026=
201103172330 METAR LPPR 172330Z VRB02KT CAVOK 06/05 Q1026=
201103172300 METAR LPPR 172300Z VRB02KT CAVOK 07/06 Q1026=
201103172230 METAR LPPR 172230Z VRB02KT CAVOK 08/06 Q1026=
201103172200 METAR LPPR 172200Z 01004KT 330V080 CAVOK 08/07 Q1026=
201103172130 METAR LPPR 172130Z 35003KT CAVOK 09/07 Q1026=
201103172100 METAR LPPR 172100Z 35003KT CAVOK 09/06 Q1025=
201103172030 METAR LPPR 172030Z 35004KT CAVOK 09/06 Q1025=
201103172000 METAR LPPR 172000Z 33004KT CAVOK 10/06 Q1025=
201103171930 METAR LPPR 171930Z 34006KT CAVOK 10/06 Q1025=
201103171900 METAR LPPR 171900Z 34007KT CAVOK 11/06 Q1025=
201103171830 METAR LPPR 171830Z 33009KT CAVOK 11/06 Q1025=
201103171800 METAR LPPR 171800Z 33009KT 300V360 CAVOK 12/06 Q1024=
201103171730 METAR LPPR 171730Z 33011KT CAVOK 12/05 Q1024=
201103171700 METAR LPPR 171700Z 32012KT 290V350 CAVOK 13/06 Q1024=
201103171630 METAR LPPR 171630Z 32012KT 300V360 9999 FEW020 13/06 Q1024=
201103171600 METAR LPPR 171600Z 33012KT 290V350 9999 FEW020 13/06 Q1024=
201103171530 METAR LPPR 171530Z 31010KT 280V350 9999 FEW020 13/06 Q1024=
201103171500 METAR LPPR 171500Z 32010KT 270V360 9999 FEW020 14/06 Q1024=
201103171430 METAR LPPR 171430Z 31009KT 9999 FEW020 14/06 Q1024=
201103171400 METAR LPPR 171400Z 31011KT 280V340 9999 FEW025 14/06 Q1024=
201103171330 METAR LPPR 171330Z 31009KT 280V350 9999 FEW030 14/07 Q1024=
201103171300 METAR LPPR 171300Z 32011KT 280V340 9999 SCT035 14/07 Q1024=
201103171230 METAR LPPR 171230Z 32010KT 290V350 9999 SCT030 13/06 Q1024=
201103171200 METAR LPPR 171200Z 32009KT 280V350 9999 SCT030 13/07 Q1024=
201103171130 METAR LPPR 171130Z 32010KT 290V360 9999 SCT030 13/07 Q1024=
201103171100 METAR LPPR 171100Z 33010KT 290V360 9999 SCT025 13/07 Q1024=
201103171030 METAR LPPR 171030Z 34011KT 300V010 9999 SCT020 13/07 Q1024=
201103171000 METAR LPPR 171000Z 36011KT 9999 FEW025 12/07 Q1024=
201103170930 METAR LPPR 170930Z 35011KT 320V020 9999 FEW035 12/07 Q1023=
201103170900 METAR LPPR 170900Z 36012KT CAVOK 12/07 Q1023=
201103170830 METAR LPPR 170830Z 36008KT 9999 FEW040 11/06 Q1023=
201103170800 METAR LPPR 170800Z 36006KT 9999 SCT035 11/06 Q1023=
201103170730 METAR LPPR 170730Z 34009KT 9999 BKN035 10/06 Q1022=
201103170700 METAR LPPR 170700Z 34010KT 9999 BKN035 10/07 Q1022=
201103170630 METAR LPPR 170630Z 34008KT 9999 BKN035 10/07 Q1022=
201103170600 METAR LPPR 170600Z 35008KT 9999 BKN035 11/07 Q1021=
201103170530 METAR LPPR 170530Z 34010KT 9999 OVC035 11/07 Q1021=
201103170500 METAR LPPR 170500Z 34010KT 9999 BKN030 11/08 Q1021=
201103170430 METAR LPPR 170430Z 34010KT 9999 BKN030 11/08 Q1021=
201103170400 METAR LPPR 170400Z 33011KT 9999 BKN030 11/09 Q1021=
201103170330 METAR LPPR 170330Z 33010KT 9999 BKN030 11/09 Q1020=
201103170300 METAR LPPR 170300Z 34007KT 9999 SCT025 BKN035 11/09 Q1020=
201103170230 METAR LPPR 170230Z 34009KT 9999 SCT025 OVC035 11/09 Q1020=
201103170200 METAR LPPR 170200Z 33011KT 9999 SCT025 BKN035 11/09 Q1020=
201103170130 METAR LPPR 170130Z 32008KT 9999 SCT025 BKN035 11/09 Q1020=
201103170100 METAR LPPR 170100Z 33008KT 9999 OVC030 12/09 Q1020=
201103170030 METAR LPPR 170030Z 33010KT 300V360 9999 OVC030 12/09 Q1020=
201103170000 METAR LPPR 170000Z 33009KT 9999 OVC030 12/09 Q1020=
201103162330 METAR LPPR 162330Z 33007KT 300V360 9999 OVC026 12/10 Q1019=
201103162300 METAR LPPR 162300Z 33008KT 300V360 9999 BKN029 12/10 Q1019=
201103162230 METAR LPPR 162230Z 33009KT 9999 BKN028 OVC032 12/10 Q1019=
201103162200 METAR LPPR 162200Z 34008KT 9999 OVC033 12/10 Q1019=
201103162130 METAR LPPR 162130Z 34011KT 9999 OVC032 12/09 Q1019=
201103162100 METAR LPPR 162100Z 34011KT 9999 FEW014 OVC034 12/09 Q1018=
201103162030 METAR LPPR 162030Z 33012KT 9999 FEW013 OVC033 12/10 Q1018=
201103162000 METAR LPPR 162000Z 34010KT 9999 FEW012 BKN033 12/10 Q1018=
201103161930 METAR LPPR 161930Z 33009KT 9999 FEW012 OVC033 12/10 Q1017=
201103161900 METAR LPPR 161900Z 34008KT 9999 FEW023 SCT027 OVC031 12/10
                        Q1017=
201103161830 METAR LPPR 161830Z 33010KT 9999 FEW015 OVC025 12/10 Q1016=
201103161800 METAR LPPR 161800Z 34013KT 9999 FEW012 BKN017 OVC022 12/10
                        Q1016=
201103161730 METAR LPPR 161730Z 33010KT 300V360 9999 FEW012 OVC017 12/10
                        Q1015=
201103161700 METAR LPPR 161700Z 34011KT 9999 SCT011 BKN020 12/10 Q1015=
201103161630 METAR LPPR 161630Z 34012KT 9999 FEW011 SCT013 OVC016 12/10
                        Q1015=
201103161600 METAR LPPR 161600Z 34012KT 9999 SCT009 BKN019 OVC023 12/10
                        Q1015=
201103161530 METAR LPPR 161530Z 34011KT 310V020 9999 FEW012 BKN040 13/10
                        Q1015=
201103161500 METAR LPPR 161500Z 32010KT 290V350 9999 FEW012 BKN040 14/10
                        Q1014=
201103161430 METAR LPPR 161430Z 32009KT 290V360 9999 FEW012 BKN040 14/11
                        Q1014=
201103161400 METAR LPPR 161400Z 32007KT 9999 FEW012 BKN030 13/11 Q1014=
201103161330 METAR LPPR 161330Z 31004KT 270V350 9999 -SHRA SCT012 BKN022
                        BKN030 13/10 Q1015=
201103161300 METAR LPPR 161300Z 31007KT 240V020 9999 SCT015 SCT025 BKN060
                        13/10 Q1015=
201103161230 METAR LPPR 161230Z 30007KT 270V340 9999 SCT015 BKN022 BKN090
                        14/10 Q1015=
201103161200 METAR LPPR 161200Z 28004KT 220V330 9999 SCT015 BKN090 13/10
                        Q1015=
201103161130 METAR LPPR 161130Z 29004KT 210V330 9999 FEW016 BKN018 BKN023
                        13/09 Q1015=
201103161100 METAR LPPR 161100Z 26003KT 220V310 9999 SCT020 BKN040 12/09
                        Q1015=
201103161030 METAR LPPR 161030Z VRB02KT 9999 SCT020 BKN030 11/08 Q1015=
201103161000 METAR LPPR 161000Z 00000KT 9999 SCT020 BKN033 11/08 Q1015=
201103160930 METAR LPPR 160930Z 13003KT 090V190 9999 SCT020 BKN040 10/08
                        Q1015=
201103160900 METAR LPPR 160900Z 12004KT 070V140 9999 SCT017 BKN050 09/07
                        Q1014=
201103160830 METAR LPPR 160830Z 12004KT 9999 FEW019 BKN050 08/07 Q1014=
201103160800 METAR LPPR 160800Z 12003KT 050V140 9999 FEW017 SCT025 08/07
                        Q1014=
201103160730 METAR LPPR 160730Z VRB01KT 9999 SCT025 07/06 Q1014=
201103160700 METAR LPPR 160700Z VRB02KT 9999 FEW025 07/06 Q1014=
201103160630 METAR LPPR 160630Z 17002KT CAVOK 07/06 Q1013=
201103160600 METAR LPPR 160600Z 00000KT CAVOK 06/06 Q1013=
201103160530 METAR LPPR 160530Z VRB01KT CAVOK 06/05 Q1013=
201103160500 METAR LPPR 160500Z VRB03KT CAVOK 05/05 Q1013=
201103160430 METAR LPPR 160430Z VRB01KT CAVOK 06/05 Q1013=
201103160400 METAR LPPR 160400Z VRB01KT CAVOK 06/05 Q1013=
201103160330 METAR LPPR 160330Z VRB01KT CAVOK 06/05 Q1012=
201103160300 METAR LPPR 160300Z VRB02KT CAVOK 06/05 Q1012=
201103160230 METAR LPPR 160230Z VRB02KT CAVOK 05/05 Q1012=
201103160200 METAR LPPR 160200Z VRB01KT CAVOK 05/05 Q1012=
201103160130 METAR LPPR 160130Z VRB01KT CAVOK 06/05 Q1012=
201103160100 METAR LPPR 160100Z VRB02KT 9999 FEW025 06/06 Q1012=
201103160030 METAR LPPR 160030Z VRB02KT 9999 FEW025 07/06 Q1012=
201103160000 METAR LPPR 160000Z 05002KT 9999 FEW025 07/06 Q1012=
201103152330 METAR LPPR 152330Z 00000KT 9999 FEW025 07/07 Q1012=
201103152300 METAR LPPR 152300Z VRB01KT 9999 SCT025 07/07 Q1012=
201103152230 METAR LPPR 152230Z 14003KT 110V170 9999 SCT030 08/07 Q1012=
201103152200 METAR LPPR 152200Z 04002KT 9999 SCT030 08/07 Q1012=
201103152130 METAR LPPR 152130Z 02002KT 9999 SCT030 08/07 Q1011=
201103152100 METAR LPPR 152100Z VRB02KT 9999 FEW025 08/07 Q1011=
201103152030 METAR LPPR 152030Z 00000KT 9999 SCT020 09/07 Q1010=
201103152000 METAR LPPR 152000Z 00000KT 9999 SCT025 09/07 Q1010=
201103151930 METAR LPPR 151930Z VRB02KT 9999 SCT025 10/07 Q1010=
201103151900 METAR LPPR 151900Z 22002KT 9999 FEW025 11/07 Q1009=
201103151830 METAR LPPR 151830Z 22003KT 200V260 9999 FEW025 12/07 Q1009=
201103151800 METAR LPPR 151800Z 24004KT 200V280 9999 FEW025 13/08 Q1008=
201103151730 METAR LPPR 151730Z 19008KT 9999 FEW025// 13/06 Q1008=
201103151700 METAR LPPR 151700Z 19010KT 9999 FEW025/ / 14/06 Q1008=
201103151630 METAR LPPR 151630Z 19011KT 9999 FEW025 13/06 Q1007=
201103151600 METAR LPPR 151600Z 20010KT 170V230 9999 FEW025 BKN030 13/07
                        Q1007=
201103151530 METAR LPPR 151530Z 23003KT 190V280 9999 FEW025 BKN030 BKN060
                        12/07 Q1007=
201103151500 METAR LPPR 151500Z 21010KT 180V250 9999 FEW025 BKN030 12/06
                        Q1007=
201103151430 METAR LPPR 151430Z 20011KT 9999 FEW025 BKN030 13/05 Q1006=
201103151400 METAR LPPR 151400Z 18012KT 9999 FEW025 BKN030 12/07 Q1007=
201103151330 METAR LPPR 151330Z 20011KT 170V230 8000 -SHRA FEW020 BKN030
                        12/07 Q1007=
201103151300 METAR LPPR 151300Z 20008KT 9999 FEW025 BKN030 13/06 Q1007=
201103151230 METAR LPPR 151230Z 23008KT 190V290 9999 FEW025 BKN035 12/06
                        Q1006=
201103151200 METAR LPPR 151200Z 20009KT 9999 FEW025 SCT035 BKN060 13/06
                        Q1006=
201103151130 METAR LPPR 151130Z 22009KT 9999 FEW020 BKN035 12/05 Q1006=
201103151100 METAR LPPR 151100Z 21009KT 170V260 9999 FEW009 SCT020 BKN030
                        12/05 Q1006=
201103151030 METAR LPPR 151030Z 20010KT 170V230 9999 FEW025 BKN030 12/06
                        Q1006=
201103151000 METAR LPPR 151000Z 21009KT 190V260 9999 SCT025 BKN030 12/05
                        Q1005=
201103150930 METAR LPPR 150930Z 21008KT 9999 SCT020 BKN030 11/05 Q1005=
201103150900 METAR LPPR 150900Z 22006KT 180V270 9999 FEW020 SCT030 BKN045
                        11/04 Q1005=
201103150830 METAR LPPR 150830Z 22007KT 190V260 9999 FEW020 SCT030 SCT045
                        11/05 Q1005=
201103150800 METAR LPPR 150800Z 23005KT 180V260 9999 SCT020 SCT030 BKN045
                        11/05 Q1004=
201103150730 METAR LPPR 150730Z 23008KT 190V260 9999 SCT020 BKN040 BKN050
                        11/05 Q1004=
201103150700 METAR LPPR 150700Z 23008KT 180V260 9999 FEW025 BKN040 BKN050
                        11/05 Q1004=
201103150630 METAR LPPR 150630Z 23007KT 190V280 9999 SCT030 BKN040 11/06
                        Q1003=
201103150600 METAR LPPR 150600Z 23008KT 200V260 9999 SCT030 BKN040 11/06
                        Q1003=
201103150530 METAR LPPR 150530Z 24009KT 210V270 9999 FEW026 BKN042 11/06
                        Q1003=
201103150500 METAR LPPR 150500Z 24009KT 210V290 9999 BKN023 11/07 Q1002=
201103150430 METAR LPPR 150430Z 25007KT 210V330 9999 FEW023 SCT026 BKN035
                        11/07 Q1002=
201103150400 METAR LPPR 150400Z 25007KT 210V290 9999 FEW022 BKN026 OVC033
                        11/07 Q1002=
201103150330 METAR LPPR 150330Z 25006KT 210V310 9999 SCT021 BKN026 OVC031
                        11/08 Q1001=
201103150300 METAR LPPR 150300Z 25006KT 210V300 9999 SCT018 BKN028 OVC068
                        11/08 Q1001=
201103150230 METAR LPPR 150230Z 26007KT 190V350 9999 -RA FEW013 BKN017
                        OVC020 11/08 Q1001=
201103150200 METAR LPPR 150200Z 28005KT 220V320 9999 -RA FEW010 BKN015
                        OVC043 11/09 Q1001=
201103150130 METAR LPPR 150130Z 27004KT 200V330 9999 -RA SCT008 BKN010
                        OVC014 11/09 Q1001=
201103150100 METAR LPPR 150100Z 26005KT 210V300 8000 -RA FEW008 BKN010
                        OVC039 10/09 Q1001=
201103150030 METAR LPPR 150030Z 21003KT 170V250 9999 FEW013 SCT016 BKN044
                        10/09 Q1001=
201103150000 METAR LPPR 150000Z 18003KT 9999 SCT012 SCT017 BKN045 10/09
                        Q1001=
201103142330 METAR LPPR 142330Z 17003KT 9999 SCT015 BKN030 BKN090 10/09
                        Q1001=
201103142300 METAR LPPR 142300Z 19002KT 9999 SCT012 BKN050 10/09 Q1001=
201103142230 METAR LPPR 142230Z VRB02KT 9999 SCT035 BKN050 BKN060 10/09
                        Q1000=
201103142200 METAR LPPR 142200Z 22001KT 9999 SCT035 SCT045 BKN060 10/09
                        Q1000=
201103142130 METAR LPPR 142130Z VRB02KT 9999 -RA/ SCT035 SCT040 BKN060
                        10/09 Q1000=
201103142100 METAR LPPR 142100Z VRB01KT 9999 -SHRA FEW010 BKN033 BKN060
                        10/09 Q1001=
201103142030 METAR LPPR 142030Z 34004KT 9999 FEW015 BKN030 BKN050 10/09
                        Q1000=
201103142000 METAR LPPR 142000Z 34005KT 9999 SCT017 BKN025 BKN050 11/09
                        Q1000=
201103141930 METAR LPPR 141930Z 33004KT 9999 FEW010 BKN015 BKN045 11/09
                        Q1000=
201103141900 METAR LPPR 141900Z 34005KT 9999 SCT015 BKN040 10/09 Q1000=
201103141830 METAR LPPR 141830Z 34006KT 9999 -RA FEW009 SCT020 BKN040
                        10/09 Q0999=
201103141800 METAR LPPR 141800Z 34007KT 9999 -RA FEW008 SCT025 BKN035
                        11/09 Q0999=
201103141730 METAR LPPR 141730Z 33007KT 9000 -RA FEW008 BKN021 BKN028
                        11/10 Q0999=
201103141700 METAR LPPR 141700Z 33006KT 290V350 9000 -RA FEW008 BKN023
                        BKN030 11/10 Q0999=
201103141630 METAR LPPR 141630Z 33007KT 8000 -RA SCT008 BKN021 BKN030
                        11/10 Q0998=
201103141600 METAR LPPR 141600Z 33007KT 9000 -RA SCT008 SCT015 BKN030
                        11/10 Q0998=
201103141530 METAR LPPR 141530Z 33007KT 9000 -RA FEW009 SCT015 BKN030
                        12/10 Q0998=
201103141500 METAR LPPR 141500Z 32006KT 9000 -RA SCT008 SCT010 BKN030
                        12/10 Q0998=
201103141430 METAR LPPR 141430Z 33005KT 9000 -RA FEW008 SCT010 BKN026
                        12/10 Q0998=
201103141400 METAR LPPR 141400Z 35006KT 9000 FEW009 SCT015 BKN040/ 12/10
                        Q0998=
201103141330 METAR LPPR 141330Z 34005KT 320V030 8000 -RA FEW008 SCT025
                        BKN040 12/10 Q0998=
201103141300 METAR LPPR 141300Z 36006KT 8000 -RA FEW007 SCT015 BKN040
                        11/10 Q0999=
201103141230 METAR LPPR 141230Z 36007KT 8000 -RA FEW007 SCT025 BKN040
                        11/10 Q0999=
201103141200 METAR LPPR 141200Z 01006KT 8000 -RA FEW005 SCT015 BKN040/
                        11/10 Q0999=
201103141130 METAR LPPR 141130Z 01004KT 8000 -RA SCT007 SCT015 BKN040
                        11/09 Q0999=
201103141100 METAR LPPR 141100Z 03005KT 320V080 8000 -RA SCT003 SCT015
                        BKN040 10/09 Q1000=
201103141030 METAR LPPR 141030Z 03004KT 350V110 8000 -RA FEW020 BKN040
                        10/09 Q1000=
201103141000 METAR LPPR 141000Z 03005KT 8000 -RA FEW025 BKN030 10/09 Q1000=
201103140930 METAR LPPR 140930Z 03004KT 010V070 8000 -RA FEW025 BKN030
                        10/09 Q1000=
201103140900 METAR LPPR 140900Z 05004KT 020V080 8000 -RA FEW025 BKN030
                        10/09 Q0999=
201103140830 METAR LPPR 140830Z 05003KT 350V100 7000 -RA FEW025 BKN030
                        09/09 Q0999=
201103140800 METAR LPPR 140800Z VRB01KT 6000 -RA FEW025 BKN030 09/09 Q0999=
201103140730 METAR LPPR 140730Z 03002KT 7000 -RA SCT028 BKN033 OVC038
                        09/09 Q0999=
201103140700 METAR LPPR 140700Z 08003KT 040V130 8000 -RA SCT017 BKN026
                        OVC045 09/09 Q0999=
201103140630 METAR LPPR 140630Z VRB02KT 8000 -RA SCT025 BKN029 OVC053
                        09/09 Q0999=
201103140600 METAR LPPR 140600Z VRB01KT 8000 -RA SCT025 SCT030 OVC049
                        09/09 Q0999=
201103140530 METAR LPPR 140530Z VRB02KT 7000 SHRA BR FEW024 SCT029 OVC053
                        09/08 Q0999=
201103140500 METAR LPPR 140500Z VRB01KT 9999 -SHRA SCT028 BKN048 OVC054
                        09/08 Q0999=
201103140430 METAR LPPR 140430Z 00000KT 9999 FEW044 SCT055 OVC068 09/08
                        Q0999=
201103140400 METAR LPPR 140400Z VRB01KT CAVOK 09/08 Q0999=
201103140330 METAR LPPR 140330Z 00000KT CAVOK 09/08 Q0999=
201103140300 METAR LPPR 140300Z VRB01KT 9999 FEW045 SCT080 09/08 Q0999=
201103140230 METAR LPPR 140230Z 15004KT 110V170 9999 FEW025 SCT045 09/08
                        Q0999=
201103140200 METAR LPPR 140200Z 14006KT 9999 FEW020 BKN045 10/09 Q1000=
201103140130 METAR LPPR 140130Z 16004KT 9999 RA SCT034 BKN045 OVC065 10/09
                        Q1000=
201103140100 METAR LPPR 140100Z 17004KT 9999 SCT020 BKN030 10/09 Q1000=
201103140030 METAR LPPR 140030Z 15004KT 130V190 9999 SCT025 BKN035 10/09
                        Q1000=
201103140000 METAR LPPR 140000Z 14006KT 100V160 9999 SCT020 BKN035 10/09
                        Q1000=
201103132330 METAR LPPR 132330Z 14006KT 9999 FEW020 BKN035 10/09 Q1000=
201103132300 METAR LPPR 132300Z 13007KT 090V150 9999 FEW020 BKN025 BKN038
                        11/09 Q1001=
201103132230 METAR LPPR 132230Z 12006KT 9999 FEW020 BKN035 BKN070 10/09
                        Q1001=
201103132200 METAR LPPR 132200Z 11004KT 9000 -SHRA FEW017 SCT030 BKN045
                        10/09 Q1001=
201103132130 METAR LPPR 132130Z VRB01KT 8000 -SHRA FEW009 BKN025 OVC035
                        10/09 Q1001=
201103132100 METAR LPPR 132100Z VRB01KT 8000 -SHRA FEW020 BKN030 BKN048
                        10/09 Q1001=
201103132030 METAR LPPR 132030Z 34003KT 300V010 9999 -RA FEW020 BKN035
                        BKN050 10/09 Q1000=
201103132000 METAR LPPR 132000Z 35005KT 9999 -RA FEW020 BKN035 OVC047
                        10/09 Q1000=
201103131930 METAR LPPR 131930Z 02004KT 340V050 9999 -RA FEW020 BKN040
                        BKN090 10/09 Q1000=
201103131900 METAR LPPR 131900Z 01005KT 340V060 9999 FEW025 SCT047 BKN099
                        10/09 Q1000=
201103131830 METAR LPPR 131830Z 02005KT 9999 FEW025TCU SCT040 BKN060 10/09
                        Q1000=
201103131800 METAR LPPR 131800Z 35005KT 9999 FEW020 SCT040 BKN050 11/09
                        Q1000=
201103131730 METAR LPPR 131730Z 01005KT R35/P2000 FEW007 SCT030 BKN048
                        11/09 Q1000=
201103131700 METAR LPPR 131700Z 34006KT 9999 FEW020 BKN045 OVC050 11/10
                        Q1000=
201103131630 METAR LPPR 131630Z 34004KT 310V020 8000 -RA SCT017 BKN038
                        OVC048 11/10 Q1000 RERA=
201103131600 METAR LPPR 131600Z 32004KT 6000 RA FEW020 BKN030 OVC045 11/10
                        Q1000=
201103131530 METAR LPPR 131530Z 33007KT 8000 -SHRA FEW020 SCT030CB OVC047
                        11/09 Q1000=
201103131500 METAR LPPR 131500Z 34004KT 310V040 7000 FEW017 SCT030CB BKN040
                        OVC050 11/09 Q1001=
201103131430 METAR LPPR 131430Z 32006KT 290V360 9999 -SHRA FEW017 SCT030CB
                        BKN045 12/09 Q1001=
201103131400 METAR LPPR 131400Z 29004KT 230V310 9999 -SHRA FEW017 SCT020CB
                        BKN040 12/08 Q1001=
201103131330 METAR LPPR 131330Z 34003KT 270V010 9999 FEW014 FEW020CB BKN045
                        13/09 Q1001=
201103131300 METAR LPPR 131300Z 33004KT 240V360 9999 FEW013 FEW020CB BKN040
                        12/09 Q1002=
201103131230 METAR LPPR 131230Z 36005KT 330V060 9999 FEW013 SCT020CB BKN034
                        12/09 Q1002=
201103131200 METAR LPPR 131200Z VRB02KT 9999 FEW013 SCT017CB BKN040 12/09
                        Q1002=
201103131130 METAR LPPR 131130Z 26003KT 210V320 9999 FEW014 SCT017CB BKN039
                        12/09 Q1003=
201103131100 METAR LPPR 131100Z 13005KT 100V160 9999 FEW013 SCT015CB BKN030
                        12/08 Q1003=
201103131030 METAR LPPR 131030Z 14005KT 110V180 9999 FEW012 SCT015CB BKN030
                        12/09 Q1003=
201103131000 METAR LPPR 131000Z 13006KT 110V170 9999 FEW012 FEW020CB SCT040
                        12/09 Q1003=
201103130930 METAR LPPR 130930Z 12004KT 060V140 9999 FEW017 FEW020CB SCT040
                        11/09 Q1003=
201103130900 METAR LPPR 130900Z 12005KT 070V160 9999 FEW017 FEW020CB SCT040/
                        10/09 Q1003=
201103130830 METAR LPPR 130830Z 12005KT 070V140 9999 FEW020 FEW025CB BKN040
                        10/09 Q1003=
201103130800 METAR LPPR 130800Z 12006KT 9999 FEW020 FEW025CB BKN040 09/08
                        Q1003=
201103130730 METAR LPPR 130730Z 11005KT 090V150 9000 -SHRA FEW025 BKN040
                        09/08 Q1002=
201103130700 METAR LPPR 130700Z 10004KT 6000 -SHRA FEW025 BKN040/ 09/09
                        Q1002=
201103130630 METAR LPPR 130630Z 14004KT 100V210 7000 SHRA FEW025 BKN040
                        09/08 Q1002=
201103130600 METAR LPPR 130600Z 02003KT 350V060 9999 FEW025 BKN040 09/08
                        Q1002=
201103130530 METAR LPPR 130530Z 10003KT 060V130 9999 -SHRA FEW025 BKN040
                        09/08 Q1002=
201103130500 METAR LPPR 130500Z 18003KT 130V220 9999 -SHRA FEW013 SCT020
                        BKN040 09/08 Q1002=
201103130430 METAR LPPR 130430Z 13004KT 9999 SCT020 BNK040/ 09/08 Q1002=
201103130400 METAR LPPR 130400Z 12005KT 9999 FEW025 BKN040 08/08 Q1002=
201103130330 METAR LPPR 130330Z 13004KT 9999 FEW025 BKN050 08/07 Q1002=
201103130300 METAR LPPR 130300Z 14005KT 9000 -SHRA FEW025 BKN040 09/08
                        Q1003=
201103130230 METAR LPPR 130230Z 14006KT 8000 -SHRA SCT025 BKN040 09/08
                        Q1003=
201103130200 METAR LPPR 130200Z 16009KT 7000 RA SCT025 BKN040 09/08 Q1003=
201103130130 METAR LPPR 130130Z 16005KT 7000 RA FEW020 BKN040 10/09 Q1003=
201103130100 METAR LPPR 130100Z 15002KT 5000 -RA BR FEW020 BKN040 10/10
                        Q1003=
201103130030 METAR LPPR 130030Z VRB02KT 5000 -RA BR FEW020 BKN040 10/10
                        Q1003=
201103130000 METAR LPPR 130000Z VRB01KT 8000 -RA FEW020 BKN030/ 11/10
                        Q1003=
201103122330 METAR LPPR 122330Z 13003KT 8000 SCT030 BKN040 10/10 Q1004=
201103122300 METAR LPPR 122300Z 13004KT 8000 SCT030 10/10 Q1004=
201103122230 METAR LPPR 122230Z 13004KT 080V180 9000 FEW030 BKN060 10/10
                        Q1004=
201103122200 METAR LPPR 122200Z 12003KT 090V160 9000 FEW020 SCT030 BKN060
                        11/10 Q1004=
201103122130 METAR LPPR 122130Z VRB01KT 9999 FEW020 FEW025CB BKN040 11/10
                        Q1004=
201103122100 METAR LPPR 122100Z VRB01KT 9999 -SHRA SCT017 FEW025 BKN040
                        11/10 Q1003=
201103122030 METAR LPPR 122030Z VRB02KT 9999 -SHRA SCT014 FEW018CB BKN030
                        11/10 Q1003=
201103122000 METAR LPPR 122000Z 03003KT 340V090 9999 -SHRA FEW012 SCT017CB
                        BKN025 11/10 Q1003=
201103121930 METAR LPPR 121930Z VRB01KT 9999 -SHRA FEW009 SCT014 FEW017CB
                        BKN025 11/10 Q1003=
201103121900 METAR LPPR 121900Z 35003KT 280V050 8000 -SHRA FEW008 SCT015CB
                        BKN027 10/09 Q1003 RESHRA=
201103121830 METAR LPPR 121830Z VRB01KT 9999 FEW009 SCT015CB BKN040 12/10
                        Q1002=
201103121800 METAR LPPR 121800Z 31004KT 280V350 9999 FEW013 FEW020CB BKN040
                        12/10 Q1002=
201103121730 METAR LPPR 121730Z 32007KT 280V360 9999 FEW009 SCT013 FEW020CB
                        SCT040 13/10 Q1002=
201103121700 METAR LPPR 121700Z 31006KT 270V340 9999 SCT013 FEW021CB SCT040
                        13/10 Q1002=
201103121630 METAR LPPR 121630Z 29005KT 230V330 9999 FEW014 BKN016TCU
                        FEW020CB 13/10 Q1002=
201103121600 METAR LPPR 121600Z 28007KT 220V320 9999 SCT015 BKN019TCU
                        14/10 Q1002=
201103121530 METAR LPPR 121530Z 28007KT 240V340 9999 SCT014 FEW017TCU
                        SCT045 13/10 Q1002=
201103121500 METAR LPPR 121500Z 28007KT 220V330 9999 SCT015 FEW017TCU
                        SCT045 14/10 Q1002=
201103121430 METAR LPPR 121430Z 28006KT 230V340 9999 FEW015 FEW017TCU
                        SCT045 14/10 Q1002=
201103121400 METAR LPPR 121400Z 27006KT 200V320 9999 FEW014 FEW017TCU
                        BKN053 OVC076 14/10 Q1002=
201103121330 METAR LPPR 121330Z 29005KT 230V330 9999 FEW013 FEW018TCU
                        BKN050 OVC080 14/10 Q1002=
201103121300 METAR LPPR 121300Z 26008KT 210V300 9999 SCT014 FEW018TCU
                        BKN080 14/10 Q1002=
201103121230 METAR LPPR 121230Z 26008KT 220V310 9999 SCT013 FEW017TCU
                        BKN080 14/11 Q1002=
201103121200 METAR LPPR 121200Z 23011KT 200V260 9999 FEW008/SCT013 FEW017TCU
                        BKN030 14/12 Q1002=
201103121130 METAR LPPR 121130Z 23007KT 190V270 9999 BKN012 SCT017TCU/
                        14/12 Q1002=
201103121100 METAR LPPR 121100Z 21008KT 9000 -SHRA SCT009/BKN015/OVC030
                        12/11 Q1002=
201103121030 METAR LPPR 121030Z 18011KT 9999 -SHRA FEW009/BKN012/OVC020
                        12/10 Q1002=
201103121000 METAR LPPR 121000Z 18009KT 9999 SCT012 BKN015/ 12/10 Q1002=
201103120930 METAR LPPR 120930Z 18011KT 9999 BKN012 FEW017CB BKN020 12/10
                        Q1002=
201103120900 METAR LPPR 120900Z 18008KT 9999 FEW009 SCT015 FEW017CB BKN020
                        11/10 Q1002=
201103120830 METAR LPPR 120830Z 17011KT 9000 -SHRA FEW009 SCT014 FEW018CB
                        BKN020 11/09 Q1002 RERA=
201103120800 METAR COR LPPR 120800Z 17011KT 9000 -SHRA FEW009 FEW017CB
                        BKN020 11/09 Q1001=
201103120730 METAR LPPR 120730Z 16009KT 9999 BKN017 OVC030 11/09 Q1001=
201103120700 METAR LPPR 120700Z 17009KT 9999 SCT017 BKN030 11/09 Q1001=
201103120630 METAR LPPR 120630Z 16008KT 9999 BKN020 11/09 Q1001=
201103120600 METAR LPPR 120600Z 14007KT 9999 SCT020 BKN030 11/09 Q1001=
201103120530 METAR LPPR 120530Z 15006KT 9999 OVC025 11/09 Q1001=
201103120500 METAR LPPR 120500Z 14005KT 9999 OVC025 11/10 Q1001=
201103120430 METAR LPPR 120430Z 14004KT 9999 FEW030 SCT040 11/10 Q1001=
201103120400 METAR LPPR 120400Z 12005KT 9999 BKN030 11/10 Q1001=
201103120330 METAR LPPR 120330Z 14004KT 9999 OVC030 11/10 Q1002=
201103120300 METAR LPPR 120300Z 15003KT 9999 BKN030 11/09 Q1002=
201103120230 METAR LPPR 120230Z 14004KT 9999 FEW030 11/10 Q1003=
201103120200 METAR LPPR 120200Z 12006KT 9999 SCT040 11/10 Q1003=
201103120130 METAR LPPR 120130Z 13006KT 9999 SCT030 BKN040 11/10 Q1003=
201103120100 METAR LPPR 120100Z 12006KT 9999 FEW030 BKN040 11/10 Q1004=
201103120030 METAR LPPR 120030Z 12006KT 9999 FEW030 BKN040 11/10 Q1004=
201103120000 METAR LPPR 120000Z 10004KT 9999 BKN040 11/10 Q1004=
201103112330 METAR LPPR 112330Z 08003KT 040V110 9000 BKN040 11/10 Q1004=
201103112300 METAR LPPR 112300Z 06003KT 9000 -RA BKN040 11/10 Q1005=
201103112230 METAR LPPR 112230Z 07004KT 9000 -RA BKN045 11/10 Q1005=
201103112200 METAR LPPR 112200Z 09004KT 9000 -RA SCT040 11/10 Q1006=
201103112130 METAR LPPR 112130Z 05005KT 9999 SCT045 12/11 Q1006=
201103112100 METAR LPPR 112100Z 03003KT 9999 SCT045 12/11 Q1006=
201103112030 METAR LPPR 112030Z 36003KT 320V060 9000 -DZ SCT045 12/11
                        Q1006=
201103112000 METAR LPPR 112000Z VRB02KT 9999 -RA BKN045 12/11 Q1006=
201103111930 METAR LPPR 111930Z 35001KT 9000 -RA SCT045 12/11 Q1006=
201103111900 METAR LPPR 111900Z VRB01KT 9000 -RA SCT045 12/11 Q1006=
201103111830 METAR LPPR 111830Z VRB02KT 9000 -RA SCT045 13/11 Q1006=
201103111800 METAR LPPR 111800Z 33003KT 9999 SCT045 13/11 Q1006=
201103111730 METAR LPPR 111730Z VRB02KT 9999 -RA SCT045 14/10 Q1006=
201103111700 METAR LPPR 111700Z 30004KT 270V330 CAVOK 14/10 Q1007=
201103111630 METAR LPPR 111630Z 30005KT 260V340 CAVOK 14/09 Q1007=
201103111600 METAR LPPR 111600Z 27005KT 220V310 CAVOK 15/08 Q1007=
201103111530 METAR LPPR 111530Z 29005KT 260V350 CAVOK 16/10 Q1007=
201103111500 METAR LPPR 111500Z 28006KT 250V320 CAVOK 16/08 Q1007=
201103111430 METAR LPPR 111430Z 28006KT 230V340 CAVOK 16/08 Q1008=
201103111400 METAR LPPR 111400Z 30005KT CAVOK 16/08 Q1008=
201103111330 METAR LPPR 111330Z 25005KT 210V330 CAVOK 16/08 Q1009=
201103111300 METAR LPPR 111300Z 28003KT 230V320 8000 -SHRA FEW045 14/08
                        Q1010=
201103111230 METAR LPPR 111230Z 24003KT 210V290 CAVOK 15/08 Q1011=
201103111200 METAR LPPR 111200Z 26005KT 230V290 CAVOK 14/08 Q1011=
201103111130 METAR LPPR 111130Z VRB02KT CAVOK 16/06 Q1012=
201103111100 METAR LPPR 111100Z VRB02KT CAVOK 15/06 Q1012=
201103111030 METAR LPPR 111030Z VRB01KT CAVOK 14/06 Q1012=
201103111000 METAR LPPR 111000Z 12005KT 040V150 CAVOK 13/08 Q1013=
201103110930 METAR LPPR 110930Z 13007KT CAVOK 13/07 Q1013=
201103110900 METAR LPPR 110900Z 12007KT 9999 FEW040 BKN090 13/07 Q1013=
201103110830 METAR LPPR 110830Z 11007KT 9999 FEW040CB BKN100 12/07 Q1013=
201103110800 METAR LPPR 110800Z 12007KT 9999 FEW040CB BKN100 12/07 Q1013=
201103110730 METAR LPPR 110730Z 11007KT 9999 FEW035CB SCT090 11/07 Q1014=
201103110700 METAR LPPR 110700Z 11010KT CAVOK 09/06 Q1013=
201103110630 METAR LPPR 110630Z 05003KT CAVOK 09/07 Q1014=
201103110600 METAR LPPR 110600Z 05004KT CAVOK 08/06 Q1014=
201103110530 METAR LPPR 110530Z 01003KT 340V060 CAVOK 09/06 Q1014=
201103110500 METAR LPPR 110500Z 11006KT CAVOK 10/07 Q1014=
201103110430 METAR LPPR 110430Z 12006KT CAVOK 11/07 Q1014=
201103110400 METAR LPPR 110400Z VRB02KT CAVOK 11/08 Q1014=
201103110330 METAR LPPR 110330Z 09003KT CAVOK 10/08 Q1015=
201103110300 METAR LPPR 110300Z 12003KT CAVOK 11/08 Q1015=
201103110230 METAR LPPR 110230Z 13004KT CAVOK 10/08 Q1016=
201103110200 METAR LPPR 110200Z 14004KT CAVOK 10/08 Q1016=
201103110130 METAR LPPR 110130Z VRB01KT 9000 NSC 10/09 Q1017=
201103110100 METAR LPPR 110100Z VRB02KT 8000 NSC 10/09 Q1017=
201103110030 METAR LPPR 110030Z VRB02KT 8000 NSC 10/09 Q1017=
201103110000 METAR LPPR 110000Z 12003KT 060V150 8000 NSC 11/10 Q1017=
201103102330 METAR LPPR 102330Z 16005KT 8000 NSC 10/09 Q1017=
201103102300 METAR LPPR 102300Z 19003KT 8000 NSC 11/10 Q1017=
201103102230 METAR LPPR 102230Z 17007KT CAVOK 11/10 Q1018=
201103102200 METAR LPPR 102200Z 17007KT CAVOK 11/08 Q1018=
201103102130 METAR LPPR 102130Z 18005KT CAVOK 11/07 Q1018=
201103102100 METAR LPPR 102100Z VRB02KT CAVOK 10/07 Q1018=
201103102030 METAR LPPR 102030Z VRB01KT CAVOK 11/08 Q1018=
201103102000 METAR LPPR 102000Z 02004KT 300V060 CAVOK 12/08 Q1018=
201103101930 METAR LPPR 101930Z 35006KT CAVOK 13/09 Q1018=
201103101900 METAR LPPR 101900Z 33006KT 290V350 9000 NSC 14/09 Q1018=
201103101830 METAR LPPR 101830Z 33007KT CAVOK 14/10 Q1018=
201103101800 METAR LPPR 101800Z 32006KT CAVOK 15/10 Q1018=
201103101730 METAR LPPR 101730Z 32008KT 290V350 CAVOK 15/10 Q1018=
201103101700 METAR LPPR 101700Z 33011KT CAVOK 16/09 Q1018=
201103101630 METAR LPPR 101630Z 33010KT CAVOK 16/09 Q1018=
201103101600 METAR LPPR 101600Z 32008KT 290V360 CAVOK 16/09 Q1018=
201103101530 METAR LPPR 101530Z 32010KT 280V350 CAVOK 16/10 Q1018=
201103101500 METAR LPPR 101500Z 32011KT 290V350 CAVOK 16/10 Q1018=
201103101430 METAR LPPR 101430Z 30007KT 260V340 CAVOK 17/10 Q1018=
201103101400 METAR LPPR 101400Z 30007KT 270V330 CAVOK 17/10 Q1019=
201103101330 METAR LPPR 101330Z 30007KT 260V330 CAVOK 17/08 Q1019=
201103101300 METAR LPPR 101300Z 03006KT 350V070 CAVOK 20/07 Q1019=
201103101230 METAR LPPR 101230Z 07006KT 040V130 CAVOK 19/06 Q1020=
201103101200 METAR LPPR 101200Z 10007KT 020V150 CAVOK 19/06 Q1020=
201103101130 METAR LPPR 101130Z 11007KT 060V150 CAVOK 18/07 Q1020=
201103101100 METAR LPPR 101100Z 09007KT 050V130 CAVOK 17/07 Q1020=
201103101030 METAR LPPR 101030Z 11007KT 080V140 CAVOK 17/06 Q1021=
201103101000 METAR LPPR 101000Z 12007KT 080V140 CAVOK 16/07 Q1021=
201103100930 METAR LPPR 100930Z 13004KT 080V170 CAVOK 15/07 Q1020=
201103100900 METAR LPPR 100900Z 15005KT 110V170 CAVOK 14/08 Q1020=
201103100830 METAR LPPR 100830Z 06004KT 040V180 CAVOK 12/08 Q1020=
201103100800 METAR LPPR 100800Z 05003KT CAVOK 09/07 Q1020=
201103100730 METAR LPPR 100730Z 05003KT 350V090 CAVOK 07/06 Q1020=
201103100700 METAR LPPR 100700Z 02003KT 360V090 9000 FEW013 06/05 Q1020=
201103100630 METAR LPPR 100630Z VRB02KT CAVOK 07/06 Q1020=
201103100600 METAR LPPR 100600Z 35004KT CAVOK 08/06 Q1019=
201103100530 METAR LPPR 100530Z VRB02KT CAVOK 08/06 Q1019=
201103100500 METAR LPPR 100500Z VRB02KT CAVOK 08/05 Q1019=
201103100430 METAR LPPR 100430Z VRB01KT CAVOK 07/06 Q1019=
201103100400 METAR LPPR 100400Z VRB02KT CAVOK 08/06 Q1019=
201103100330 METAR LPPR 100330Z VRB02KT CAVOK 10/07 Q1019=
201103100300 METAR LPPR 100300Z VRB02KT CAVOK 09/06 Q1019=
201103100230 METAR LPPR 100230Z 14003KT CAVOK 10/07 Q1019=
201103100200 METAR LPPR 100200Z 20004KT CAVOK 12/07 Q1019=
201103100130 METAR LPPR 100130Z 18004KT 100V270 CAVOK 12/07 Q1019=
201103100100 METAR LPPR 100100Z 12009KT CAVOK 10/07 Q1019=
201103100030 METAR LPPR 100030Z 12008KT CAVOK 12/07 Q1019=
201103100000 METAR LPPR 100000Z 13005KT CAVOK 11/07 Q1019=
201103092330 METAR LPPR 092330Z 13003KT 070V170 CAVOK 13/07 Q1019=
201103092300 METAR LPPR 092300Z 02003KT 340V080 CAVOK 13/07 Q1019=
201103092230 METAR LPPR 092230Z 03005KT 340V050 CAVOK 11/07 Q1019=
201103092200 METAR LPPR 092200Z VRB01KT CAVOK 12/07 Q1019=
201103092130 METAR LPPR 092130Z 35004KT 330V040 CAVOK 12/08 Q1019=
201103092100 METAR LPPR 092100Z 01004KT CAVOK 11/09 Q1019=
201103092030 METAR LPPR 092030Z 01004KT 340V050 CAVOK 12/10 Q1019=
201103092000 METAR LPPR 092000Z 36004KT 340V040 CAVOK 12/09 Q1018=
201103091930 METAR LPPR 091930Z 36004KT CAVOK 13/09 Q1018=
201103091900 METAR LPPR 091900Z 35005KT CAVOK 14/10 Q1018=
201103091830 METAR LPPR 091830Z 32003KT CAVOK 14/10 Q1018=
201103091800 METAR LPPR 091800Z 33005KT CAVOK 15/10 Q1018=
201103091730 METAR LPPR 091730Z 33006KT 9999 FEW020 SCT060 16/10 Q1017=
201103091700 METAR LPPR 091700Z 32008KT 9999 FEW020 SCT060 16/10 Q1017=
201103091630 METAR LPPR 091630Z 13006KT 100V160 9999 FEW020 SCT060 19/06
                        Q1017=
201103091600 METAR LPPR 091600Z 11008KT 070V130 9999 FEW020 SCT060 19/06
                        Q1017=
201103091530 METAR LPPR 091530Z 12010KT 9999 FEW020 SCT060 18/05 Q1017=
201103091500 METAR LPPR 091500Z 12010KT 9999 FEW020 SCT060 19/06 Q1017=
201103091430 METAR LPPR 091430Z 09012KT 060V120 9999 FEW020 SCT070 19/05
                        Q1017=
201103091400 METAR LPPR 091400Z 09010KT 050V120 9999 FEW020 SCT070 19/06
                        Q1017=
201103091330 METAR LPPR 091330Z 08011KT 040V120 CAVOK 18/06 Q1017=
201103091300 METAR LPPR 091300Z 08011KT 030V120 CAVOK 18/07 Q1018=
201103091230 METAR LPPR 091230Z 06010KT 020V100 CAVOK 18/06 Q1018=
201103091200 METAR LPPR 091200Z 08010KT 050V110 CAVOK 16/06 Q1019=
201103091130 METAR LPPR 091130Z 08010KT 040V120 CAVOK 17/06 Q1019=
201103091100 METAR LPPR 091100Z 09012KT CAVOK 16/06 Q1019=
201103091030 METAR LPPR 091030Z 07009KT 040V110 CAVOK 15/07 Q1019=
201103091000 METAR LPPR 091000Z 05008KT 330V080 CAVOK 14/07 Q1019=
201103090930 METAR LPPR 090930Z 04005KT 010V070 CAVOK 13/07 Q1019=
201103090900 METAR LPPR 090900Z 36004KT 310V020 CAVOK 12/08 Q1019=
201103090830 METAR LPPR 090830Z 01004KT 350V050 CAVOK 12/07 Q1019=
201103090800 METAR LPPR 090800Z VRB02KT CAVOK 09/06 Q1018=
201103090730 METAR LPPR 090730Z 09004KT CAVOK 09/06 Q1018=
201103090700 METAR LPPR 090700Z 09006KT CAVOK 10/05 Q1018=
201103090630 METAR LPPR 090630Z 08007KT 060V120 CAVOK 11/06 Q1017=
201103090600 METAR LPPR 090600Z 03008KT CAVOK 11/06 Q1017=
201103090530 METAR LPPR 090530Z VRB01KT CAVOK 10/06 Q1017=
201103090500 METAR LPPR 090500Z VRB01KT CAVOK 12/06 Q1017=
201103090430 METAR LPPR 090430Z 02003KT CAVOK 12/07 Q1017=
201103090400 METAR LPPR 090400Z 10006KT CAVOK 13/07 Q1017=
201103090330 METAR LPPR 090330Z 08006KT CAVOK 12/07 Q1017=
201103090300 METAR LPPR 090300Z 11003KT 080V140 CAVOK 11/08 Q1017=
201103090230 METAR LPPR 090230Z 04006KT CAVOK 09/08 Q1017=
201103090200 METAR LPPR 090200Z 07003KT 030V100 CAVOK 09/08 Q1017=
201103090130 METAR LPPR 090130Z 10002KT CAVOK 11/08 Q1017=
201103090100 METAR LPPR 090100Z VRB02KT CAVOK 11/08 Q1018=
201103090030 METAR LPPR 090030Z 01005KT CAVOK 11/08 Q1017=
201103090000 METAR LPPR 090000Z 02004KT CAVOK 10/09 Q1017=
201103082330 METAR LPPR 082330Z 02006KT 360V070 9999 SCT040 11/10 Q1017=
201103082300 METAR LPPR 082300Z 36007KT 9000 SCT040 12/10 Q1017=
201103082230 METAR LPPR 082230Z 36007KT 9000 SCT040 12/11 Q1018=
201103082200 METAR LPPR 082200Z 35008KT 8000 SCT040 11/10 Q1018=
201103082130 METAR LPPR 082130Z 34006KT 8000 SCT030 11/10 Q1018=
201103082100 METAR LPPR 082100Z VRB02KT 8000 -RA SCT030 11/10 Q1018=
201103082030 METAR LPPR 082030Z 01002KT 8000 FEW020 SCT030 11/10 Q1018=
201103082000 METAR LPPR 082000Z 35004KT 330V030 8000 -RA SCT030 11/10
                        Q1018=
201103081930 METAR LPPR 081930Z 34005KT 8000 -RA SCT030 12/10 Q1018=
201103081900 METAR LPPR 081900Z VRB03KT 8000 -RA SCT030 12/11 Q1017=
201103081830 METAR LPPR 081830Z VRB01KT 8000 -RA FEW030 12/11 Q1017=
201103081800 METAR LPPR 081800Z 33001KT 8000 -RA SCT030 13/11 Q1017=
201103081730 METAR LPPR 081730Z 24003KT 210V270 9000 -RA SCT030 13/10
                        Q1016=
201103081700 METAR LPPR 081700Z 22003KT 180V260 9999 SCT040 13/10 Q1016=
201103081630 METAR LPPR 081630Z 22006KT 190V250 9999 -SHRA FEW040 15/09
                        Q1016=
201103081600 METAR LPPR 081600Z 11008KT 080V140 9999 FEW040 16/05 Q1016=
201103081530 METAR LPPR 081530Z 11005KT 080V150 CAVOK 16/05 Q1016=
201103081500 METAR LPPR 081500Z 11006KT 060V140 CAVOK 16/04 Q1015=
201103081430 METAR LPPR 081430Z 12006KT 070V150 CAVOK 16/05 Q1016=
201103081400 METAR LPPR 081400Z 13008KT CAVOK 16/05 Q1016=
201103081330 METAR LPPR 081330Z 12010KT 090V150 CAVOK 16/04 Q1016=
201103081300 METAR LPPR 081300Z 12012KT 090V150 CAVOK 16/04 Q1016=
201103081230 METAR LPPR 081230Z 13012KT CAVOK 16/04 Q1016=
201103081200 METAR LPPR 081200Z 11010KT CAVOK 16/04 Q1016=
201103081130 METAR LPPR 081130Z 12013KT 090V150 CAVOK 16/05 Q1016=
201103081100 METAR LPPR 081100Z 10012KT CAVOK 16/04 Q1015=
201103081030 METAR LPPR 081030Z 11012KT 040V130 CAVOK 16/04 Q1015=
201103081000 METAR LPPR 081000Z 09014KT CAVOK 15/03 Q1015=
201103080930 METAR LPPR 080930Z 10014KT CAVOK 15/03 Q1015=
201103080900 METAR LPPR 080900Z 10011KT 050V130 CAVOK 15/03 Q1014=
201103080830 METAR LPPR 080830Z 10009KT CAVOK 14/03 Q1014=
201103080800 METAR LPPR 080800Z 09007KT CAVOK 13/03 Q1014=
201103080730 METAR LPPR 080730Z 08006KT 050V110 CAVOK 13/03 Q1014=
201103080700 METAR LPPR 080700Z 11010KT CAVOK 14/02 Q1014=
201103080630 METAR LPPR 080630Z 10008KT 080V140 CAVOK 13/03 Q1014=
201103080600 METAR LPPR 080600Z 12005KT CAVOK 10/04 Q1014=
201103080530 METAR LPPR 080530Z 17003KT CAVOK 12/03 Q1013=
201103080500 METAR LPPR 080500Z 11003KT CAVOK 12/03 Q1013=
201103080430 METAR LPPR 080430Z 10005KT CAVOK 12/04 Q1013=
201103080400 METAR LPPR 080400Z 07004KT CAVOK 12/03 Q1013=
201103080330 METAR LPPR 080330Z 06003KT 030V090 CAVOK 13/03 Q1013=
201103080300 METAR LPPR 080300Z 07007KT CAVOK 13/03 Q1013=
201103080230 METAR LPPR 080230Z 08006KT CAVOK 13/03 Q1013=
201103080200 METAR LPPR 080200Z 09006KT CAVOK 13/04 Q1013=
201103080130 METAR LPPR 080130Z 08006KT CAVOK 12/04 Q1013=
201103080100 METAR LPPR 080100Z 09006KT CAVOK 12/03 Q1013=
201103080030 METAR LPPR 080030Z 09006KT CAVOK 09/04 Q1014=
201103080000 METAR LPPR 080000Z 11005KT CAVOK 10/04 Q1014=
201103072330 METAR LPPR 072330Z 10005KT CAVOK 11/04 Q1014=
201103072300 METAR LPPR 072300Z 08004KT 020V100 CAVOK 14/04 Q1014=
201103072230 METAR LPPR 072230Z 07005KT CAVOK 13/04 Q1014=
201103072200 METAR LPPR 072200Z 09004KT CAVOK 12/05 Q1014=
201103072130 METAR LPPR 072130Z 10004KT CAVOK 12/05 Q1014=
201103072100 METAR LPPR 072100Z 09004KT CAVOK 14/05 Q1014=
201103072030 METAR LPPR 072030Z 09005KT 070V130 CAVOK 13/05 Q1014=
201103072000 METAR LPPR 072000Z 11005KT 080V150 CAVOK 15/06 Q1014=
201103071930 METAR LPPR 071930Z 08003KT 030V150 CAVOK 13/07 Q1014=
201103071900 METAR LPPR 071900Z 36003KT CAVOK 13/06 Q1014=
201103071830 METAR LPPR 071830Z 35005KT 9999 FEW045 14/06 Q1014=
201103071800 METAR LPPR 071800Z 35006KT 9999 FEW020 15/06 Q1014=
201103071730 METAR LPPR 071730Z 35006KT 9999 FEW020 15/06 Q1014=
201103071700 METAR LPPR 071700Z 34007KT 9999 FEW020 16/06 Q1014=
201103071630 METAR LPPR 071630Z 32005KT 290V350 9999 FEW020 16/07 Q1014=
201103071600 METAR LPPR 071600Z 31005KT 9999 FEW020 16/06 Q1014=
201103071530 METAR LPPR 071530Z 32008KT 9999 FEW020 SCT070 17/06 Q1014=
201103071500 METAR LPPR 071500Z 30005KT 260V330 9999 FEW020 17/06 Q1014=
201103071430 METAR LPPR 071430Z 31007KT 9999 FEW020 19/07 Q1014=
201103071400 METAR LPPR 071400Z 21005KT 160V290 9999 FEW020 20/05 Q1014=
201103071330 METAR LPPR 071330Z 11005KT 050V200 9999 FEW020 20/03 Q1015=
201103071300 METAR LPPR 071300Z 13006KT 100V160 9999 FEW020 19/03 Q1015=
201103071230 METAR LPPR 071230Z 11005KT 060V160 CAVOK 18/03 Q1016=
201103071200 METAR LPPR 071200Z 11006KT 030V130 CAVOK 17/04 Q1016=
201103071130 METAR LPPR 071130Z 10008KT 050V140 CAVOK 17/04 Q1016=
201103071100 METAR LPPR 071100Z 11007KT 060V140 CAVOK 15/04 Q1016=
201103071030 METAR LPPR 071030Z 12009KT CAVOK 15/03 Q1017=
201103071000 METAR LPPR 071000Z 11011KT CAVOK 15/04 Q1016=
201103070930 METAR LPPR 070930Z 11007KT CAVOK 12/04 Q1016=
201103070900 METAR LPPR 070900Z 11009KT 080V150 CAVOK 12/03 Q1016=
201103070830 METAR LPPR 070830Z 11009KT CAVOK 11/03 Q1016=
201103070800 METAR LPPR 070800Z 11010KT CAVOK 10/03 Q1016=
201103070730 METAR LPPR 070730Z 11008KT CAVOK 10/03 Q1016=
201103070700 METAR LPPR 070700Z 10006KT 060V120 9999 FEW020 10/02 Q1016=
201103070630 METAR LPPR 070630Z 10008G19KT CAVOK 09/03 Q1015=
201103070600 METAR LPPR 070600Z 11005KT 050V130 CAVOK 09/03 Q1016=
201103070530 METAR LPPR 070530Z 09005KT CAVOK 09/03 Q1015=
201103070500 METAR LPPR 070500Z 11007KT CAVOK 09/03 Q1015=
201103070430 METAR LPPR 070430Z 10006KT CAVOK 09/03 Q1015=
201103070400 METAR LPPR 070400Z 11007KT CAVOK 10/03 Q1015=
201103070330 METAR LPPR 070330Z 11007KT CAVOK 08/03 Q1015=
201103070300 METAR LPPR 070300Z 10007KT CAVOK 09/03 Q1015=
201103070230 METAR LPPR 070230Z 11007KT CAVOK 10/04 Q1015=
201103070200 METAR LPPR 070200Z 11007KT CAVOK 10/04 Q1016=
201103070130 METAR LPPR 070130Z 11007KT CAVOK 09/04 Q1016=
201103070100 METAR LPPR 070100Z 10007KT CAVOK 10/04 Q1016=
201103070030 METAR LPPR 070030Z 11007KT CAVOK 10/04 Q1016=
201103070000 METAR LPPR 070000Z 10006KT CAVOK 11/04 Q1016=
201103062330 METAR LPPR 062330Z 09007KT CAVOK 10/05 Q1016=
201103062300 METAR LPPR 062300Z 09004KT CAVOK 08/05 Q1016=
201103062230 METAR LPPR 062230Z 11003KT 060V160 CAVOK 09/06 Q1016=
201103062200 METAR LPPR 062200Z VRB02KT CAVOK 08/06 Q1016=
201103062130 METAR LPPR 062130Z VRB01KT CAVOK 09/07 Q1016=
201103062100 METAR LPPR 062100Z VRB02KT CAVOK 09/07 Q1016=
201103062030 METAR LPPR 062030Z 03003KT CAVOK 10/07 Q1016=
201103062000 METAR LPPR 062000Z VRB02KT CAVOK 10/08 Q1016=
201103061930 METAR LPPR 061930Z 02002KT CAVOK 11/08 Q1015=
201103061900 METAR LPPR 061900Z 21002KT CAVOK 12/08 Q1015=
201103061830 METAR LPPR 061830Z VRB02KT 9999 FEW040CB SCT060 BKN090 14/09
                        Q1015=
201103061800 METAR LPPR 061800Z 24003KT 180V290 9999 FEW040CB BKN060 15/08
                        Q1015=
201103061730 METAR LPPR 061730Z 26003KT 230V290 CAVOK 16/07 Q1015=
201103061700 METAR LPPR 061700Z 10005KT 060V130 CAVOK 18/07 Q1015=
201103061630 METAR LPPR 061630Z 12004KT 070V180 CAVOK 18/03 Q1015=
201103061600 METAR LPPR 061600Z 16008KT 130V190 CAVOK 18/03 Q1015=
201103061530 METAR LPPR 061530Z 16008KT CAVOK 17/04 Q1015=
201103061500 METAR LPPR 061500Z 11011G23KT 060V170 CAVOK 18/03 Q1015=
201103061430 METAR LPPR 061430Z VRB06KT CAVOK 18/03 Q1015=
201103061400 METAR LPPR 061400Z 08007KT 040V130 CAVOK 17/03 Q1015=
201103061330 METAR LPPR 061330Z 09009KT 060V120 CAVOK 17/05 Q1015=
201103061300 METAR LPPR 061300Z 08008KT 040V130 CAVOK 16/04 Q1016=
201103061230 METAR LPPR 061230Z 08009KT 050V120 CAVOK 16/04 Q1016=
201103061200 METAR LPPR 061200Z 09010KT CAVOK 15/03 Q1016=
201103061130 METAR LPPR 061130Z 10009KT CAVOK 15/04 Q1016=
201103061100 METAR LPPR 061100Z 10007KT 070V130 CAVOK 13/05 Q1017=
201103061030 METAR LPPR 061030Z 12007KT CAVOK 13/05 Q1017=
201103061000 METAR LPPR 061000Z 11009KT CAVOK 12/04 Q1017=
201103060930 METAR LPPR 060930Z 11007KT 9999 FEW041 BKN062 BKN078 12/04
                        Q1017=
201103060900 METAR LPPR 060900Z 11008KT CAVOK 11/04 Q1017=
201103060830 METAR LPPR 060830Z 09006KT CAVOK 11/04 Q1016=
201103060800 METAR LPPR 060800Z 11007KT CAVOK 11/04 Q1016=
201103060730 METAR LPPR 060730Z 11006KT 090V230 CAVOK 10/04 Q1016=
201103060700 METAR LPPR 060700Z 09005KT CAVOK 10/03 Q1015=
201103060630 METAR LPPR 060630Z 09005KT CAVOK 11/04 Q1015=
201103060600 METAR LPPR 060600Z 09006KT CAVOK 11/04 Q1015=
201103060530 METAR LPPR 060530Z 09005KT CAVOK 11/04 Q1015=
201103060500 METAR LPPR 060500Z 10005KT CAVOK 11/04 Q1015=
201103060430 METAR LPPR 060430Z 08005KT CAVOK 11/04 Q1015=
201103060400 METAR LPPR 060400Z 10006KT CAVOK 11/04 Q1015=
201103060330 METAR LPPR 060330Z 10006KT CAVOK 11/04 Q1015=
201103060300 METAR LPPR 060300Z 09006KT CAVOK 11/04 Q1015=
201103060230 METAR LPPR 060230Z 10005KT CAVOK 11/03 Q1016=
201103060200 METAR LPPR 060200Z 09004KT CAVOK 11/03 Q1016=
201103060130 METAR LPPR 060130Z 10005KT CAVOK 12/04 Q1016=
201103060100 METAR LPPR 060100Z 12007KT 080V150 CAVOK 12/04 Q1016=
201103060030 METAR LPPR 060030Z 10006KT CAVOK 12/04 Q1016=
201103060000 METAR LPPR 060000Z 10004KT 060V120 CAVOK 11/03 Q1016=
201103052330 METAR LPPR 052330Z 11004KT CAVOK 11/03 Q1016=
201103052300 METAR LPPR 052300Z 11005KT CAVOK 11/03 Q1016=
201103052230 METAR LPPR 052230Z 10006KT 060V120 CAVOK 11/03 Q1016=
201103052200 METAR LPPR 052200Z 09007KT CAVOK 11/03 Q1016=
201103052130 METAR LPPR 052130Z 10007KT CAVOK 11/03 Q1016=
201103052100 METAR LPPR 052100Z 10007KT CAVOK 11/04 Q1015=
201103052030 METAR LPPR 052030Z 10007KT CAVOK 12/04 Q1015=
201103052000 METAR LPPR 052000Z 11007KT 070V140 CAVOK 12/04 Q1015=
201103051930 METAR LPPR 051930Z 11009KT CAVOK 12/04 Q1015=
201103051900 METAR LPPR 051900Z 10009KT CAVOK 12/04 Q1015=
201103051830 METAR LPPR 051830Z 10010KT 9999 FEW040 BKN060 12/05 Q1015=
201103051800 METAR LPPR 051800Z 10010KT 9999 -RA FEW040 BKN060 12/05 Q1015=
201103051730 METAR LPPR 051730Z 10008KT 060V140 CAVOK 13/04 Q1015=
201103051700 METAR LPPR 051700Z 10008KT 060V130 CAVOK 13/04 Q1015=
201103051630 METAR LPPR 051630Z 09011KT 9999 FEW040 BKN060/ 13/04 Q1015=
201103051600 METAR LPPR 051600Z 10009KT 060V130 9999 FEW040 BKN055 13/04
                        Q1015=
201103051530 METAR LPPR 051530Z 13009KT 090V150 9999 SCT040 BKN055 13/03
                        Q1015=
201103051500 METAR LPPR 051500Z 14013KT 9999 SCT040 BKN050 13/05 Q1015=
201103051430 METAR LPPR 051430Z 12008KT 090V150 CAVOK 13/04 Q1015=
201103051400 METAR LPPR 051400Z 09009KT 060V120 CAVOK 13/03 Q1015=
201103051330 METAR LPPR 051330Z 12012KT CAVOK 13/03 Q1015=
201103051300 METAR LPPR 051300Z 12013KT 090V150 CAVOK 14/04 Q1015=
201103051230 METAR LPPR 051230Z 11012KT 080V140 CAVOK 13/03 Q1015=
201103051200 METAR LPPR 051200Z 11014KT CAVOK 12/02 Q1015=
201103051130 METAR LPPR 051130Z 11013KT 070V140 CAVOK 12/02 Q1015=
201103051100 METAR LPPR 051100Z 11014KT CAVOK 11/02 Q1015=
201103051030 METAR LPPR 051030Z 11014KT 080V140 CAVOK 11/02 Q1015=
201103051000 METAR LPPR 051000Z 11014KT CAVOK 11/02 Q1015=
201103050930 METAR LPPR 050930Z 10013KT CAVOK 10/02 Q1015=
201103050900 METAR LPPR 050900Z 10012KT 060V130 CAVOK 09/01 Q1015=
201103050830 METAR LPPR 050830Z 09011KT 060V120 CAVOK 09/00 Q1015=
201103050800 METAR LPPR 050800Z 10012KT CAVOK 08/01 Q1015=
201103050730 METAR LPPR 050730Z 10011KT CAVOK 08/01 Q1015=
201103050700 METAR LPPR 050700Z 11009KT CAVOK 07/01 Q1014=
201103050630 METAR LPPR 050630Z 10009KT CAVOK 07/01 Q1014=
201103050600 METAR LPPR 050600Z 09007KT CAVOK 07/00 Q1014=
201103050530 METAR LPPR 050530Z 10009KT CAVOK 07/00 Q1014=
201103050500 METAR LPPR 050500Z 10009KT CAVOK 07/M00 Q1014=
201103050430 METAR LPPR 050430Z 10008KT CAVOK 07/M00 Q1014=
201103050400 METAR LPPR 050400Z 10010KT CAVOK 07/M00 Q1014=
201103050330 METAR LPPR 050330Z 10010KT CAVOK 07/M00 Q1014=
201103050300 METAR LPPR 050300Z 10009KT CAVOK 07/M00 Q1015=
201103050230 METAR LPPR 050230Z 10008KT CAVOK 07/00 Q1015=
201103050200 METAR LPPR 050200Z 10008KT CAVOK 07/00 Q1015=
201103050130 METAR LPPR 050130Z 10008KT CAVOK 07/00 Q1015=
201103050100 METAR LPPR 050100Z 10007KT CAVOK 07/00 Q1015=
201103050030 METAR LPPR 050030Z 09006KT CAVOK 06/00 Q1015=
201103050000 METAR LPPR 050000Z 10006KT 060V130 CAVOK 06/00 Q1015=
201103042330 METAR LPPR 042330Z 10006KT CAVOK 06/M00 Q1015=
201103042300 METAR LPPR 042300Z 08005KT CAVOK 07/00 Q1015=
201103042230 METAR LPPR 042230Z 10006KT CAVOK 07/00 Q1015=
201103042200 METAR LPPR 042200Z 11006KT 090V190 CAVOK 07/00 Q1015=
201103042130 METAR LPPR 042130Z 10006KT CAVOK 07/00 Q1014=
201103042100 METAR LPPR 042100Z 09005KT CAVOK 08/M00 Q1014=
201103042030 METAR LPPR 042030Z 10004KT 070V150 9999 FEW045 BKN080 08/01
                        Q1014=
201103042000 METAR LPPR 042000Z 08003KT 020V180 9000 FEW045 BKN080 07/02
                        Q1014=
201103041930 METAR LPPR 041930Z 12004KT 080V150 9000 FEW045 BKN065 07/01
                        Q1014=
201103041900 METAR LPPR 041900Z VRB02KT 9999 4500S FEW040 SCT070 08/01
                        Q1014=
201103041830 METAR LPPR 041830Z VRB02KT 9999 FEW040 SCT070 09/01 Q1013=
201103041800 METAR LPPR 041800Z 21005KT 9999 FEW025 SCT040 BKN070 10/00
                        Q1013=
201103041730 METAR LPPR 041730Z 20005KT 9999 FEW025 SCT040 BKN060 10/01
                        Q1013=
201103041700 METAR LPPR 041700Z 19008KT 9999 FEW025 SCT040 BKN060 10/01
                        Q1013=
201103041630 METAR COR LPPR 041630Z 10006KT 070V130 9999 FEW020 SCT040
                        BKN060 11/M03 Q1013=
201103041600 METAR LPPR 041600Z 11005KT 080V140 9999 FEW020 BKN040 11/M03
                        Q1013=
201103041530 METAR LPPR 041530Z VRB08KT 9999 BKN040 12/M03 Q1013=
201103041500 METAR LPPR 041500Z 11008KT 070V140 9999 BKN040 11/M03
                        Q1013=
201103041430 METAR LPPR 041430Z 09007KT 050V120 9999 BKN040 11/M03 Q1014=
201103041400 METAR LPPR 041400Z 10007KT 040V150 9999 BKN040 11/M02 Q1014=
201103041330 METAR LPPR 041330Z 11009KT 9999 SCT040/ 11/M03 Q1015=
201103041300 METAR LPPR 041300Z 08008KT 040V120 9999 SCT040 11/M03 Q1015=
201103041230 METAR LPPR 041230Z 11008KT 060V140 9999 SCT040 11/M04 Q1015=
201103041200 METAR LPPR 041200Z 08009KT 030V120 9999 FEW030 11/M03 Q1016=
201103041130 METAR LPPR 041130Z 10006KT 060V130 9999 FEW030 10/M02 Q1016=
201103041100 METAR LPPR 041100Z 08011KT 060V120 CAVOK 10/M02 Q1016=
201103041030 METAR LPPR 041030Z 06009G21KT 030V100 CAVOK 09/M01 Q1017=
201103041000 METAR LPPR 041000Z 10008KT 060V130 CAVOK 09/M01 Q1017=
201103040930 METAR LPPR 040930Z 09010KT 060V140 CAVOK 09/M01 Q1017=
201103040900 METAR LPPR 040900Z 06007KT 010V090 CAVOK 08/M02 Q1017=
201103040830 METAR LPPR 040830Z 05008KT CAVOK 08/M00 Q1017=
201103040800 METAR LPPR 040800Z 03005KT 350V080 CAVOK 07/00 Q1016=
201103040730 METAR LPPR 040730Z 02005KT CAVOK 06/00 Q1017=
201103040700 METAR LPPR 040700Z 02007KT 330V050 CAVOK 06/00 Q1017=
201103040630 METAR LPPR 040630Z 02007KT CAVOK 06/M00 Q1017=
201103040600 METAR LPPR 040600Z VRB02KT CAVOK 04/00 Q1017=
201103040530 METAR LPPR 040530Z 36003KT CAVOK 06/M00 Q1017=
201103040500 METAR LPPR 040500Z 02004KT CAVOK 06/M00 Q1017=
201103040430 METAR LPPR 040430Z 04004KT CAVOK 07/M00 Q1017=
201103040400 METAR LPPR 040400Z 07003KT CAVOK 08/M00 Q1017=
201103040330 METAR LPPR 040330Z 09006KT CAVOK 09/M00 Q1017=
201103040300 METAR LPPR 040300Z 10010KT CAVOK 09/M00 Q1017=
201103040230 METAR LPPR 040230Z 11010KT CAVOK 10/M01 Q1017=
201103040200 METAR LPPR 040200Z 09006KT CAVOK 10/M02 Q1017=
201103040130 METAR LPPR 040130Z 09005KT CAVOK 10/M02 Q1017=
201103040100 METAR LPPR 040100Z 11007KT CAVOK 10/M01 Q1017=
201103040030 METAR LPPR 040030Z 11009KT CAVOK 10/M01 Q1017=
201103040000 METAR LPPR 040000Z 11011KT CAVOK 11/00 Q1017=
201103032330 METAR LPPR 032330Z 09008KT CAVOK 10/00 Q1017=
201103032300 METAR LPPR 032300Z 06008KT 040V100 CAVOK 10/M00 Q1017=
201103032230 METAR LPPR 032230Z 06009KT CAVOK 10/M00 Q1017=
201103032200 METAR LPPR 032200Z 03006KT CAVOK 10/M00 Q1017=
201103032130 METAR LPPR 032130Z 01004KT 330V040 CAVOK 09/00 Q1017=
201103032100 METAR LPPR 032100Z 35005KT CAVOK 09/00 Q1017=
201103032030 METAR LPPR 032030Z 02004KT CAVOK 10/01 Q1017=
201103032000 METAR LPPR 032000Z 02004KT 340V070 CAVOK 09/04 Q1017=
201103031930 METAR LPPR 031930Z 33003KT 280V030 CAVOK 10/04 Q1017=
201103031900 METAR LPPR 031900Z 36003KT CAVOK 10/05 Q1017=
201103031830 METAR LPPR 031830Z 34004KT CAVOK 11/05 Q1017=
201103031800 METAR LPPR 031800Z 32005KT 290V350 CAVOK 12/04 Q1017=
201103031730 METAR LPPR 031730Z 33006KT 290V360 9999 FEW040 13/03 Q1017=
201103031700 METAR LPPR 031700Z 33009KT 9999 FEW040 13/04 Q1018=
201103031630 METAR LPPR 031630Z 33009KT 9999 FEW040 13/04 Q1018=
201103031600 METAR LPPR 031600Z 33009KT 290V350 9999 FEW035 13/02 Q1018=
201103031530 METAR LPPR 031530Z 32010KT 290V350 9999 FEW030 13/03 Q1018=
201103031500 METAR LPPR 031500Z 32010KT 290V350 9999 FEW017 SCT250 12/02
                        Q1018=
201103031430 METAR LPPR 031430Z 33011KT 300V360 9999 FEW017 SCT250 13/04
                        Q1019=
201103031400 METAR LPPR 031400Z 02008KT 330V070 9999 FEW017 SCT250 14/01
                        Q1019=
201103031330 METAR LPPR 031330Z VRB05KT CAVOK 13/01 Q1020=
201103031300 METAR LPPR 031300Z VRB05KT 9999 FEW015 SCT050 BKN250 12/01
                        Q1020=
201103031230 METAR LPPR 031230Z VRB05KT 9999 FEW015 BKN250 12/03 Q1021=
201103031200 METAR LPPR 031200Z 07005KT 340V130 CAVOK 13/02 Q1021=
201103031130 METAR LPPR 031130Z VRB04KT CAVOK 13/01 Q1022=
201103031100 METAR LPPR 031100Z 06004KT 340V120 CAVOK 12/02 Q1022=
201103031030 METAR LPPR 031030Z 10006KT 060V140 CAVOK 10/01 Q1022=
201103031000 METAR LPPR 031000Z 05005KT 350V160 CAVOK 10/01 Q1022=
201103030930 METAR LPPR 030930Z 04004KT 350V090 CAVOK 08/02 Q1022=
201103030900 METAR LPPR 030900Z 04003KT 360V080 CAVOK 08/01 Q1022=
201103030830 METAR LPPR 030830Z 05003KT 350V090 CAVOK 05/01 Q1022=
201103030800 METAR LPPR 030800Z 01004KT 320V040 CAVOK 05/01 Q1022=
201103030730 METAR LPPR 030730Z 09003KT 060V160 CAVOK 03/00 Q1022=
201103030700 METAR LPPR 030700Z 10004KT 070V130 CAVOK 03/00 Q1022=
201103030630 METAR LPPR 030630Z 01005KT CAVOK 04/00 Q1022=
201103030600 METAR LPPR 030600Z 02006KT CAVOK 05/01 Q1022=
201103030530 METAR LPPR 030530Z 03006KT CAVOK 05/01 Q1022=
201103030500 METAR LPPR 030500Z 03005KT CAVOK 05/01 Q1022=
201103030430 METAR LPPR 030430Z 02006KT CAVOK 06/01 Q1022=
201103030400 METAR LPPR 030400Z 03005KT CAVOK 06/01 Q1022=
201103030330 METAR LPPR 030330Z 06006KT CAVOK 06/01 Q1022=
201103030300 METAR LPPR 030300Z 04007KT CAVOK 06/01 Q1022=
201103030230 METAR LPPR 030230Z 02006KT CAVOK 06/02 Q1022=
201103030200 METAR LPPR 030200Z 06004KT CAVOK 06/01 Q1023=
201103030130 METAR LPPR 030130Z 04005KT CAVOK 07/02 Q1023=
201103030100 METAR LPPR 030100Z 03005KT CAVOK 07/01 Q1023=
201103030030 METAR LPPR 030030Z 03007KT CAVOK 08/02 Q1023=
201103030000 METAR LPPR 030000Z 02009KT CAVOK 08/02 Q1023=
201103022330 METAR LPPR 022330Z 01006KT CAVOK 07/02 Q1023=
201103022300 METAR LPPR 022300Z 01005KT CAVOK 08/02 Q1023=
201103022230 METAR LPPR 022230Z 02004KT CAVOK 08/02 Q1023=
201103022200 METAR LPPR 022200Z 02008KT CAVOK 09/02 Q1023=
201103022130 METAR LPPR 022130Z 02006KT CAVOK 08/02 Q1023=
201103022100 METAR LPPR 022100Z 36005KT CAVOK 07/02 Q1023=
201103022030 METAR LPPR 022030Z 01006KT CAVOK 08/02 Q1023=
201103022000 METAR LPPR 022000Z 01006KT 340V050 CAVOK 08/02 Q1023=
201103021930 METAR LPPR 021930Z 35005KT CAVOK 09/02 Q1023=
201103021900 METAR LPPR 021900Z 34006KT CAVOK 10/03 Q1023=
201103021830 METAR LPPR 021830Z 34007KT CAVOK 11/03 Q1022=
201103021800 METAR LPPR 021800Z 35009KT CAVOK 12/03 Q1022=
201103021730 METAR LPPR 021730Z 35009KT CAVOK 13/03 Q1022=
201103021700 METAR LPPR 021700Z 34007KT CAVOK 14/02 Q1023=
201103021630 METAR LPPR 021630Z 30006KT 260V350 CAVOK 14/03 Q1023=
201103021600 METAR LPPR 021600Z 31007KT 270V350 CAVOK 14/03 Q1023=
201103021530 METAR LPPR 021530Z 31009KT 270V340 9999 FEW040 13/04 Q1023=
201103021500 METAR LPPR 021500Z 32010KT 280V350 9999 FEW048 13/04 Q1023=
201103021430 METAR LPPR 021430Z 31010KT 9999 FEW049 13/04 Q1023=
201103021400 METAR LPPR 021400Z 32009KT 290V350 9999 FEW045 12/03 Q1024=
201103021330 METAR LPPR 021330Z 32008KT 270V350 CAVOK 12/02 Q1024=
201103021300 METAR LPPR 021300Z 32008KT 290V350 CAVOK 12/02 Q1025=
201103021230 METAR LPPR 021230Z 31007KT 270V350 CAVOK 12/02 Q1025=
201103021200 METAR LPPR 021200Z 01006KT 310V040 CAVOK 12/M00 Q1026=
201103021130 METAR LPPR 021130Z 01005KT 320V060 CAVOK 11/M01 Q1026=
201103021100 METAR LPPR 021100Z 02004KT 330V100 CAVOK 11/M00 Q1026=
201103021030 METAR LPPR 021030Z 03005KT 350V090 CAVOK 10/00 Q1026=
201103021000 METAR LPPR 021000Z 02006KT 310V060 CAVOK 09/00 Q1027=
201103020930 METAR LPPR 020930Z 04006KT CAVOK 08/01 Q1027=
201103020900 METAR LPPR 020900Z 02005KT 340V040 CAVOK 07/00 Q1026=
201103020830 METAR LPPR 020830Z 04003KT 350V080 CAVOK 06/01 Q////=
201103020800 METAR LPPR 020800Z VRB02KT CAVOK 04/M00 Q1026=
201103020730 METAR LPPR 020730Z 02003KT CAVOK 02/M00 Q1026=
201103020700 METAR LPPR 020700Z 02005KT 340V070 CAVOK 03/M00 Q1026=
201103020630 METAR LPPR 020630Z 01003KT 300V060 CAVOK 02/M00 Q1026=
201103020600 METAR LPPR 020600Z 06004KT CAVOK 03/M00 Q1025=
201103020530 METAR LPPR 020530Z 04003KT CAVOK 04/M00 Q1025=
201103020500 METAR LPPR 020500Z 04003KT 010V080 CAVOK 03/M00 Q1025=
201103020430 METAR LPPR 020430Z 03005KT CAVOK 05/M00 Q1025=
201103020400 METAR LPPR 020400Z 05007KT CAVOK 06/M00 Q1025=
201103020330 METAR LPPR 020330Z 05007KT CAVOK 05/00 Q1025=
201103020300 METAR LPPR 020300Z 03006KT CAVOK 05/00 Q1025=
201103020230 METAR LPPR 020230Z 03005KT CAVOK 05/00 Q1026=
201103020200 METAR LPPR 020200Z 36004KT CAVOK 02/00 Q1026=
201103020130 METAR LPPR 020130Z 36004KT CAVOK 03/01 Q1026=
201103020100 METAR LPPR 020100Z 36003KT CAVOK 03/01 Q1026=
201103020030 METAR LPPR 020030Z 34003KT 290V010 CAVOK 05/01 Q1026=
201103020000 METAR LPPR 020000Z 02003KT CAVOK 05/01 Q1026=
201103012330 METAR LPPR 012330Z 36003KT 320V050 CAVOK 06/00 Q1026=
201103012300 METAR LPPR 012300Z VRB02KT CAVOK 07/00 Q1026=
201103012230 METAR LPPR 012230Z 03004KT CAVOK 07/M00 Q1026=
201103012200 METAR LPPR 012200Z 03007KT CAVOK 08/M00 Q1026=
201103012130 METAR LPPR 012130Z 01004KT CAVOK 07/00 Q1026=
201103012100 METAR LPPR 012100Z 01004KT CAVOK 07/01 Q1026=
201103012030 METAR LPPR 012030Z 34008KT CAVOK 09/00 Q1026=
201103012000 METAR LPPR 012000Z 35007KT CAVOK 09/00 Q1026=
201103011930 METAR LPPR 011930Z 35009KT CAVOK 10/M00 Q1026=
201103011900 METAR LPPR 011900Z 36007KT CAVOK 10/M00 Q1025=
201103011830 METAR LPPR 011830Z 36009KT CAVOK 11/M01 Q1025=
201103011800 METAR LPPR 011800Z 36011KT 9999 FEW020 12/00 Q1025=
201103011730 METAR LPPR 011730Z 35013KT 310V020 9999 FEW020 13/01 Q1025=
201103011700 METAR LPPR 011700Z 36012KT 9999 FEW020 14/01 Q1025=
201103011630 METAR LPPR 011630Z 34011KT 9999 FEW020 14/01 Q1025=
201103011600 METAR LPPR 011600Z 35010KT 9999 FEW020 SCT040 14/01 Q1025=
201103011530 METAR LPPR 011530Z 35009KT 320V030 9999 FEW020 SCT040 15/00
                        Q1025=
201103011500 METAR COR LPPR 011500Z 34006KT 250V060 9999 FEW020 SCT040
                        15/01 Q1025=
201103011430 METAR LPPR 011430Z VRB05KT 9999 SCT020 14/00 Q1025=
201103011400 METAR LPPR 011400Z 01006KT 320V060 9999 SCT020 14/M00 Q1026=
201103011330 METAR LPPR 011330Z 04007KT 350V080 9999 SCT020 14/00 Q1026=
201103011300 METAR LPPR 011300Z 01009KT 9999 SCT020 13/M01 Q1026=
201103011230 METAR LPPR 011230Z 03010KT 320V060 9999 FEW020 13/M01 Q1027=
201103011200 METAR LPPR 011200Z 01009KT 340V050 9999 FEW020 13/M01 Q1027=
201103011130 METAR LPPR 011130Z 03006KT 340V080 CAVOK 13/01 Q1028=
201103011100 METAR LPPR 011100Z 02008KT CAVOK 11/01 Q1028=
201103011030 METAR LPPR 011030Z 03008G18KT 350V060 CAVOK 10/01 Q1028=
201103011000 METAR LPPR 011000Z 04007KT 360V080 CAVOK 10/01 Q1028=
201103010930 METAR LPPR 010930Z 02005KT 350V100 CAVOK 08/02 Q1028=
201103010900 METAR LPPR 010900Z 03003KT 300V110 CAVOK 08/01 Q1028=
201103010830 METAR LPPR 010830Z 04005KT CAVOK 06/01 Q1028=
201103010800 METAR LPPR 010800Z 02004KT CAVOK 04/00 Q1028=
201103010730 METAR LPPR 010730Z VRB02KT CAVOK 03/M00 Q1028=
201103010700 METAR LPPR 010700Z 08004KT 020V110 CAVOK 03/M00 Q1027=
201103010630 METAR LPPR 010630Z 03004KT 340V090 CAVOK 04/00 Q1027=
201103010600 METAR LPPR 010600Z 03003KT CAVOK 04/00 Q1027=
201103010530 METAR LPPR 010530Z 03003KT CAVOK 04/00 Q1027=
201103010500 METAR LPPR 010500Z 02003KT CAVOK 05/00 Q1027=
201103010430 METAR LPPR 010430Z VRB02KT CAVOK 03/00 Q1027=
201103010400 METAR LPPR 010400Z 35004KT CAVOK 05/00 Q1027=
201103010330 METAR LPPR 010330Z 33005KT 300V360 CAVOK 05/01 Q1027=
201103010300 METAR LPPR 010300Z 02003KT 300V060 CAVOK 05/01 Q1027=
201103010230 METAR LPPR 010230Z 02005KT CAVOK 04/01 Q1027=
201103010200 METAR LPPR 010200Z 36007KT CAVOK 06/01 Q1027=
201103010130 METAR LPPR 010130Z 36005KT CAVOK 06/01 Q1027=
201103010100 METAR LPPR 010100Z 36006KT CAVOK 05/01 Q1027=
201103010030 METAR LPPR 010030Z 02005KT CAVOK 07/01 Q1027=
201103010000 METAR LPPR 010000Z 02005KT CAVOK 07/00 Q1027=

</pre>

</body>
</html>
