##########################################################
# Query made at 11/07/2014 15:00:21 UTC
# Time interval: from 03/01/2009 00:00  to 03/31/2009 23:59  UTC
##########################################################

##########################################################
# LPPR, Porto / Pedras Rubras (Portugal)
# WMO index: 08545
# Latitude 41-14N. Longitude 008-41W. Altitude 69 m.
##########################################################

###################################
#  METAR/SPECI from LPPR
###################################
200903312330 METAR LPPR 312330Z 00000KT CAVOK 08/05 Q1015=
200903312300 METAR LPPR 312300Z 10004KT CAVOK 10/05 Q1015=
200903312230 METAR LPPR 312230Z 00000KT CAVOK 08/05 Q1015=
200903312200 METAR LPPR 312200Z 00000KT CAVOK 09/05 Q1015=
200903312130 METAR LPPR 312130Z 00000KT CAVOK 09/05 Q1015=
200903312100 METAR LPPR 312100Z 35003KT CAVOK 10/05 Q1015=
200903312030 METAR LPPR 312030Z 36002KT CAVOK 10/05 Q1014=
200903312000 METAR LPPR 312000Z 34002KT CAVOK 10/05 Q1014=
200903311930 METAR COR LPPR 311930Z 35002KT CAVOK 11/06 Q1014=
200903311900 METAR LPPR 311900Z 33006KT 290V350 CAVOK 13/05 Q1014=
200903311830 METAR LPPR 311830Z 32007KT 9999 FEW020 13/06 Q1014=
200903311800 METAR LPPR 311800Z 32009G19KT 280V350 9999 FEW020 14/06 Q1014=
200903311730 METAR LPPR 311730Z 32009KT 9999 FEW020 14/06 Q1014=
200903311700 METAR LPPR 311700Z 32010KT 9999 FEW020 14/06 Q1014=
200903311630 METAR LPPR 311630Z 31010KT 280V340 9999 FEW020 15/04 Q1014=
200903311600 METAR LPPR 311600Z 31010KT CAVOK 15/06 Q1014=
200903311530 METAR LPPR 311530Z 31009KT 270V350 9999 FEW020 16/03 Q1014=
200903311500 METAR LPPR 311500Z 31009KT 270V330 9999 FEW020 16/05 Q1014=
200903311430 METAR LPPR 311430Z 30008KT 270V330 9999 FEW020 15/04 Q1014=
200903311400 METAR LPPR 311400Z 29009KT 260V330 CAVOK 15/04 Q1014=
200903311330 METAR LPPR 311330Z 29008KT 250V330 CAVOK 16/03 Q1015=
200903311300 METAR LPPR 311300Z 28008KT 240V320 CAVOK 16/04 Q1015=
200903311230 METAR LPPR 311230Z 27005KT 220V330 CAVOK 16/05 Q1015=
200903311200 METAR LPPR 311200Z 08006KT 010V150 CAVOK 17/00 Q1015=
200903311130 METAR LPPR 311130Z 12006KT 080V170 CAVOK 16/01 Q1015=
200903311100 METAR LPPR 311100Z 08006KT 050V130 CAVOK 16/01 Q1015=
200903311030 METAR LPPR 311030Z 08007KT 030V130 CAVOK 15/01 Q1015=
200903311000 METAR LPPR 311000Z 11009KT 080V140 CAVOK 14/00 Q1015=
200903310930 METAR LPPR 310930Z 10008KT 030V140 CAVOK 13/M00 Q1016=
200903310900 METAR LPPR 310900Z 10005KT 040V140 CAVOK 12/M01 Q1016=
200903310830 METAR LPPR 310830Z 11004KT 070V140 CAVOK 11/M01 Q1015=
200903310800 METAR LPPR 310800Z VRB03KT CAVOK 11/M02 Q1015=
200903310730 METAR LPPR 310730Z 10007KT 080V140 CAVOK 10/M03 Q1015=
200903310700 METAR LPPR 310700Z 10006KT 080V140 CAVOK 09/M03 Q1015=
200903310630 METAR LPPR 310630Z 10005KT CAVOK 08/M01 Q1015=
200903310600 METAR LPPR 310600Z 11006KT CAVOK 09/M01 Q1015=
200903310530 METAR LPPR 310530Z 12005KT CAVOK 09/M00 Q1015=
200903310500 METAR LPPR 310500Z 11006KT CAVOK 09/00 Q1015=
200903310430 METAR LPPR 310430Z 11006KT CAVOK 09/02 Q1015=
200903310400 METAR LPPR 310400Z 00000KT CAVOK 06/04 Q1015=
200903310330 METAR LPPR 310330Z VRB03KT CAVOK 09/04 Q1015=
200903310300 METAR LPPR 310300Z VRB03KT CAVOK 08/05 Q1015=
200903310230 METAR LPPR 310230Z 00000KT CAVOK 07/05 Q1015=
200903310200 METAR LPPR 310200Z 00000KT CAVOK 08/06 Q1015=
200903310130 METAR LPPR 310130Z 00000KT CAVOK 08/06 Q1015=
200903310100 METAR LPPR 310100Z 00000KT CAVOK 07/05 Q1015=
200903310030 METAR LPPR 310030Z VRB03KT CAVOK 09/06 Q1015=
200903310000 METAR LPPR 310000Z 10006KT CAVOK 09/07 Q1015=
200903302330 METAR LPPR 302330Z 11005KT CAVOK 10/07 Q1016=
200903302300 METAR LPPR 302300Z VRB03KT CAVOK 10/08 Q1016=
200903302230 METAR LPPR 302230Z 12003KT CAVOK 09/08 Q1016=
200903302200 METAR LPPR 302200Z 12002KT CAVOK 10/08 Q1016=
200903302130 METAR LPPR 302130Z 13003KT CAVOK 10/08 Q1016=
200903302100 METAR LPPR 302100Z 00000KT CAVOK 10/09 Q1015=
200903302030 METAR LPPR 302030Z 35003KT CAVOK 10/08 Q1015=
200903302000 METAR LPPR 302000Z 34004KT CAVOK 10/08 Q1015=
200903301930 METAR LPPR 301930Z 33005KT CAVOK 11/08 Q1015=
200903301900 METAR LPPR 301900Z 33009KT CAVOK 12/07 Q1015=
200903301830 METAR LPPR 301830Z 33008KT CAVOK 13/07 Q1015=
200903301800 METAR LPPR 301800Z 33013KT CAVOK 13/08 Q1015=
200903301730 METAR LPPR 301730Z 32011KT CAVOK 14/07 Q1014=
200903301700 METAR LPPR 301700Z 33012KT CAVOK 15/07 Q1015=
200903301630 METAR LPPR 301630Z 32013KT 290V350 CAVOK 15/06 Q1015=
200903301600 METAR LPPR 301600Z 33015KT CAVOK 15/05 Q1015=
200903301530 METAR LPPR 301530Z 32012KT 300V360 CAVOK 15/05 Q1015=
200903301500 METAR LPPR 301500Z 32014KT 290V350 CAVOK 15/05 Q1015=
200903301430 METAR LPPR 301430Z 32011KT 290V350 CAVOK 15/05 Q1015=
200903301400 METAR LPPR 301400Z 32012KT CAVOK 15/04 Q1015=
200903301330 METAR LPPR 301330Z 32011KT CAVOK 14/03 Q1015=
200903301300 METAR LPPR 301300Z 31010KT 270V330 CAVOK 14/03 Q1015=
200903301230 METAR LPPR 301230Z 29010KT 9999 FEW017 14/03 Q1016=
200903301200 METAR LPPR 301200Z 28010KT 260V320 9999 FEW017 14/03 Q1016=
200903301130 METAR LPPR 301130Z VRB03KT 9999 FEW017 15/03 Q1016=
200903301100 METAR LPPR 301100Z 01004KT 310V060 CAVOK 14/02 Q1016=
200903301030 METAR LPPR 301030Z 00000KT CAVOK 14/02 Q1016=
200903301000 METAR LPPR 301000Z VRB03KT CAVOK 13/03 Q1016=
200903300930 METAR LPPR 300930Z VRB03KT CAVOK 12/02 Q1016=
200903300900 METAR LPPR 300900Z VRB03KT CAVOK 11/03 Q1016=
200903300830 METAR LPPR 300830Z VRB02KT CAVOK 09/03 Q1016=
200903300800 METAR LPPR 300800Z 35004KT 9999 FEW030 08/03 Q1016=
200903300730 METAR LPPR 300730Z VRB03KT 9999 FEW025 06/02 Q1016=
200903300700 METAR LPPR 300700Z 00000KT CAVOK 04/02 Q1016=
200903300630 METAR LPPR 300630Z 00000KT CAVOK 04/01 Q1015=
200903300600 METAR LPPR 300600Z 00000KT CAVOK 03/01 Q1015=
200903300530 METAR LPPR 300530Z 00000KT CAVOK 04/01 Q1015=
200903300500 METAR LPPR 300500Z 00000KT CAVOK 04/02 Q1015=
200903300430 METAR LPPR 300430Z 35002KT CAVOK 04/01 Q1015=
200903300400 METAR LPPR 300400Z 35003KT CAVOK 05/02 Q1015=
200903300330 METAR LPPR 300330Z 35005KT CAVOK 05/02 Q1015=
200903300300 METAR LPPR 300300Z 35003KT CAVOK 05/02 Q1015=
200903300230 METAR LPPR 300230Z 01005KT CAVOK 05/02 Q1015=
200903300200 METAR LPPR 300200Z 36005KT CAVOK 06/02 Q1015=
200903300130 METAR LPPR 300130Z 35004KT CAVOK 06/01 Q1015=
200903300100 METAR LPPR 300100Z 36005KT CAVOK 07/02 Q1015=
200903300030 METAR LPPR 300030Z 35006KT CAVOK 07/02 Q1015=
200903300000 METAR LPPR 300000Z 35007KT CAVOK 07/02 Q1015=
200903292330 METAR LPPR 292330Z 35007KT CAVOK 08/02 Q1015=
200903292300 METAR LPPR 292300Z 35008KT CAVOK 09/03 Q1014=
200903292230 METAR LPPR 292230Z 35008KT CAVOK 08/03 Q1014=
200903292200 METAR LPPR 292200Z 35008KT CAVOK 09/03 Q1014=
200903292130 METAR LPPR 292130Z 35008KT CAVOK 09/03 Q1014=
200903292100 METAR LPPR 292100Z 35008KT CAVOK 10/03 Q1014=
200903292030 METAR LPPR 292030Z 34011KT CAVOK 11/03 Q1013=
200903292000 METAR LPPR 292000Z 35012KT CAVOK 12/02 Q1013=
200903291930 METAR LPPR 291930Z 35010KT CAVOK 12/03 Q1012=
200903291900 METAR LPPR 291900Z 34008KT CAVOK 13/04 Q1012=
200903291830 METAR LPPR 291830Z 34013KT CAVOK 13/06 Q1012=
200903291800 METAR LPPR 291800Z 33015KT 9999 FEW017 SCT250 13/06 Q1012=
200903291730 METAR LPPR 291730Z 33020KT 9999 FEW017TCU 14/05 Q1012 WS
                        ALL RWY=
200903291700 METAR LPPR 291700Z 33017G28KT 9999 FEW017 14/05 Q1011 WS
                        ALL RWY=
200903291630 METAR LPPR 291630Z 33018KT 9999 FEW017 14/05 Q1011 WS ALL
                        RWY=
200903291600 METAR LPPR 291600Z 33020KT 9999 FEW017 14/06 Q1011 WS ALL
                        RWY=
200903291530 METAR LPPR 291530Z 33021KT 9999 FEW017 15/05 Q1011 WS ALL
                        RWY=
200903291500 METAR LPPR 291500Z 32021KT 9999 SCT017 14/05 Q1011 WS ALL
                        RWY=
200903291430 METAR LPPR 291430Z 32020G33KT 9999 SCT017 15/05 Q1011 WS
                        ALL RWY=
200903291400 METAR LPPR 291400Z 33018G28KT 9999 SCT017 15/05 Q1011 WS
                        ALL RWY=
200903291330 METAR LPPR 291330Z 33018KT 310V010 9999 FEW017 15/06 Q1012=
200903291300 METAR LPPR 291300Z 35017KT 320V020 9999 FEW017 15/02 Q1012=
200903291230 METAR LPPR 291230Z 35017KT 320V020 9999 FEW017 15/02 Q1012=
200903291200 METAR LPPR 291200Z 36012G23KT 330V040 9999 FEW017 14/03 Q1012=
200903291130 METAR LPPR 291130Z 35013KT 9999 FEW017 14/03 Q1013=
200903291100 METAR LPPR 291100Z 35014KT 330V030 9999 FEW017 14/03 Q1013=
200903291030 METAR LPPR 291030Z 35015KT 9999 FEW017 13/03 Q1013=
200903291000 METAR LPPR 291000Z 35013KT 9999 FEW017 12/03 Q1013=
200903290930 METAR LPPR 290930Z 35013KT 9999 FEW017 11/03 Q1013=
200903290900 METAR LPPR 290900Z 35011KT 9999 FEW017 10/03 Q1012=
200903290830 METAR LPPR 290830Z 35010KT 9999 FEW017 09/03 Q1012=
200903290800 METAR LPPR 290800Z 35010KT 9999 FEW017 08/03 Q1012=
200903290730 METAR LPPR 290730Z 35006KT 9999 FEW017 07/03 Q1012=
200903290700 METAR LPPR 290700Z 02005KT 330V060 9999 FEW017 05/02 Q1012=
200903290630 METAR LPPR 290630Z 00000KT 9999 FEW017 05/02 Q1011=
200903290600 METAR LPPR 290600Z 35007KT CAVOK 05/02 Q1011=
200903290530 METAR LPPR 290530Z 34007KT CAVOK 06/02 Q1011=
200903290500 METAR LPPR 290500Z 33006KT CAVOK 05/02 Q1011=
200903290430 METAR LPPR 290430Z 32005KT CAVOK 06/02 Q1011=
200903290400 METAR LPPR 290400Z 34004KT CAVOK 05/01 Q1011=
200903290330 METAR LPPR 290330Z 33004KT CAVOK 06/01 Q1011=
200903290300 METAR LPPR 290300Z 35006KT CAVOK 05/02 Q1011=
200903290230 METAR LPPR 290230Z 34007KT CAVOK 06/01 Q1010=
200903290200 METAR LPPR 290200Z 34009KT CAVOK 06/02 Q1010=
200903290130 METAR LPPR 290130Z 00000KT CAVOK 06/02 Q1010=
200903290100 METAR LPPR 290100Z VRB03KT CAVOK 06/01 Q1010=
200903290030 METAR LPPR 290030Z 32004KT 290V350 CAVOK 07/01 Q1010=
200903290000 METAR LPPR 290000Z 33006KT CAVOK 07/02 Q1010=
200903282330 METAR LPPR 282330Z 34007KT 310V040 CAVOK 08/01 Q1010=
200903282300 METAR LPPR 282300Z 35010KT CAVOK 09/01 Q1009=
200903282230 METAR LPPR 282230Z 36013KT CAVOK 09/02 Q1009=
200903282200 METAR LPPR 282200Z 35012KT CAVOK 09/02 Q1009=
200903282130 METAR LPPR 282130Z 35013KT CAVOK 09/02 Q1009=
200903282100 METAR LPPR 282100Z 34015KT CAVOK 10/02 Q1008=
200903282030 METAR LPPR 282030Z 35016KT 9999 FEW017 10/02 Q1008=
200903282000 METAR LPPR 282000Z 35014KT 9999 FEW017 10/01 Q1007=
200903281930 METAR LPPR 281930Z 35016KT 9999 FEW017 11/01 Q1007=
200903281900 METAR LPPR 281900Z 36016KT 9999 FEW017 12/01 Q1007 WS ALL
                        RWY=
200903281830 METAR LPPR 281830Z 36017KT 9999 FEW017 13/01 Q1007=
200903281800 METAR COR LPPR 281800Z 35016KT 9999 FEW017 14/01 Q1006=
200903281730 METAR LPPR 281730Z 35016 9999 FEW017 14/01 Q1007=
200903281700 METAR LPPR 281700Z 35021KT 9999 FEW017 15/01 Q1007 WS ALL
                        RWY=
200903281630 METAR LPPR 281630Z 35019KT 9999 FEW017 15/01 Q1007 WS ALL
                        RWY=
200903281600 METAR LPPR 281600Z 35018G29KT 320V030 9999 FEW017 15/00 Q1007
                        WS ALL RWY=
200903281530 METAR LPPR 281530Z 33020G31KT 9999 SCT017 15/04 Q1007 WS
                        ALL RWY=
200903281500 METAR LPPR 281500Z 33024G34KT 9999 FEW017 15/04 Q1007 WS
                        ALL RWY=
200903281430 METAR LPPR 281430Z 32017G28KT 9999 FEW017 15/06 Q1007 WS
                        ALL RWY=
200903281400 METAR LPPR 281400Z 33021KT 9999 FEW017 15/05 Q1007 WS ALL
                        RWY=
200903281330 METAR LPPR 281330Z 35018KT 320V030 9999 FEW017 15/01 Q1007
                        WS ALL RWY=
200903281300 METAR LPPR 281300Z 36017KT 9999 FEW017 15/01 Q1008 WS ALL
                        RWY=
200903281230 METAR LPPR 281230Z 36019G29KT 9999 FEW017 15/01 Q1008 WS
                        ALL RWY=
200903281200 METAR LPPR 281200Z 35018G34KT 9999 FEW017 15/01 Q1008 WS
                        ALL RWY=
200903281130 METAR LPPR 281130Z 35018G29KT 9999 FEW017 14/02 Q1008 WS
                        ALL RWY=
200903281100 METAR LPPR 281100Z 35019KT 9999 FEW017 13/01 Q1008=
200903281030 METAR LPPR 281030Z 35018KT 9999 FEW017 13/02 Q1008=
200903281000 METAR LPPR 281000Z 36015KT 9999 FEW017 12/03 Q1008=
200903280930 METAR LPPR 280930Z 36015KT 340V040 9999 FEW017 11/03 Q1008=
200903280900 METAR LPPR 280900Z 36013KT 9999 FEW017 11/03 Q1008=
200903280830 METAR LPPR 280830Z 35013KT 9999 FEW017 10/03 Q1008=
200903280800 METAR LPPR 280800Z 35010KT 9999 FEW017 10/03 Q1008=
200903280730 METAR LPPR 280730Z 36010KT 9999 FEW017 09/03 Q1008=
200903280700 METAR LPPR 280700Z 35010KT 9999 FEW017 08/04 Q1007=
200903280630 METAR LPPR 280630Z 35013KT 9999 FEW035 08/04 Q1007=
200903280600 METAR LPPR 280600Z 34013KT 9999 FEW035 08/04 Q1007=
200903280530 METAR LPPR 280530Z 34012KT 9999 FEW035 08/05 Q1007=
200903280500 METAR LPPR 280500Z 33010KT 9999 FEW035 08/06 Q1007=
200903280430 METAR LPPR 280430Z 34008KT 9999 FEW035 09/05 Q1007=
200903280400 METAR LPPR 280400Z 34007KT 9999 FEW015 SCT035 09/05 Q1007=
200903280330 METAR LPPR 280330Z 34009KT 9999 FEW015 BKN030 11/06 Q1007=
200903280300 METAR LPPR 280300Z 33011KT 9999 FEW015 BKN025 12/06 Q1007=
200903280230 METAR LPPR 280230Z 33011KT 9999 FEW013 SCT020 12/08 Q1008=
200903280200 METAR LPPR 280200Z 34012KT 9999 FEW007 SCT020 11/09 Q1008=
200903280130 METAR LPPR 280130Z 33013KT 9999 FEW007 SCT020 12/09 Q1008=
200903280100 METAR LPPR 280100Z 33017KT 9999 SCT007 SCT020 12/10 Q1009=
200903280030 METAR LPPR 280030Z 33008KT 9999 FEW007 12/11 Q1009=
200903280000 METAR LPPR 280000Z 34008KT 9999 FEW007 12/10 Q1009=
200903272330 METAR LPPR 272330Z 34009KT 9999 FEW007 12/10 Q1009=
200903272300 METAR LPPR 272300Z 34013KT 9999 FEW007 12/10 Q1009=
200903272230 METAR LPPR 272230Z 34012KT 9999 FEW007 12/10 Q1009=
200903272200 METAR LPPR 272200Z 33016KT 9999 FEW007 12/11 Q1009=
200903272130 METAR LPPR 272130Z 33016KT 9999 FEW007 12/11 Q1010=
200903272100 METAR LPPR 272100Z 33016KT 9999 FEW007 12/11 Q1010=
200903272030 METAR LPPR 272030Z 33015KT CAVOK 12/11 Q1009=
200903272000 METAR LPPR 272000Z 33014KT CAVOK 12/11 Q1009=
200903271930 METAR LPPR 271930Z 33014KT CAVOK 13/11 Q1009=
200903271900 METAR LPPR 271900Z 33013KT CAVOK 13/11 Q1009=
200903271830 METAR LPPR 271830Z 33013KT CAVOK 14/11 Q1009=
200903271800 METAR LPPR 271800Z 34015KT CAVOK 15/11 Q1009=
200903271730 METAR LPPR 271730Z 34014KT CAVOK 15/11 Q1009=
200903271700 METAR LPPR 271700Z 34018KT CAVOK 16/11 Q1009=
200903271630 METAR LPPR 271630Z 33017KT CAVOK 17/11 Q1009=
200903271600 METAR LPPR 271600Z 33017KT CAVOK 17/11 Q1009=
200903271530 METAR LPPR 271530Z 33012KT CAVOK 18/12 Q1010=
200903271500 METAR LPPR 271500Z 34014KT CAVOK 18/11 Q1010=
200903271430 METAR LPPR 271430Z 31010KT CAVOK 18/12 Q1010=
200903271400 METAR LPPR 271400Z 30011KT 280V340 CAVOK 18/12 Q1011=
200903271330 METAR LPPR 271330Z 30009KT CAVOK 18/11 Q1012=
200903271300 METAR LPPR 271300Z 31008KT CAVOK 18/10 Q1012=
200903271230 METAR LPPR 271230Z 31009KT 280V350 CAVOK 18/08 Q1012=
200903271200 METAR LPPR 271200Z 28005KT 240V330 CAVOK 18/10 Q1013=
200903271130 METAR LPPR 271130Z 28005KT 250V330 CAVOK 17/10 Q1013=
200903271100 METAR LPPR 271100Z VRB03KT CAVOK 17/10 Q1013=
200903271030 METAR LPPR 271030Z VRB03KT CAVOK 16/11 Q1013=
200903271000 METAR LPPR 271000Z 28004KT 240V300 CAVOK 16/10 Q1013=
200903270930 METAR LPPR 270930Z 00000KT CAVOK 16/09 Q1013=
200903270900 METAR LPPR 270900Z 00000KT CAVOK 14/09 Q1013=
200903270830 METAR LPPR 270830Z 11003KT CAVOK 12/08 Q1013=
200903270800 METAR LPPR 270800Z 00000KT CAVOK 10/08 Q1013=
200903270730 METAR LPPR 270730Z 00000KT CAVOK 08/06 Q1013=
200903270700 METAR LPPR 270700Z 00000KT CAVOK 07/06 Q1013=
200903270630 METAR LPPR 270630Z 00000KT CAVOK 07/06 Q1013=
200903270600 METAR LPPR 270600Z 00000KT CAVOK 07/06 Q1013=
200903270530 METAR LPPR 270530Z 00000KT CAVOK 08/06 Q1013=
200903270500 METAR LPPR 270500Z 00000KT CAVOK 07/06 Q1013=
200903270430 METAR LPPR 270430Z 00000KT CAVOK 07/06 Q1013=
200903270400 METAR LPPR 270400Z 00000KT CAVOK 07/06 Q1013=
200903270330 METAR LPPR 270330Z 00000KT 8000 FEW250 08/07 Q1013=
200903270300 METAR LPPR 270300Z 00000KT 8000 FEW250 07/07 Q1013=
200903270230 METAR LPPR 270230Z 00000KT 8000 FEW250 08/07 Q1014=
200903270200 METAR LPPR 270200Z 00000KT 8000 FEW250 08/07 Q1014=
200903270130 METAR LPPR 270130Z 00000KT 8000 FEW250 08/07 Q1014=
200903270100 METAR LPPR 270100Z 00000KT 8000 FEW250 08/08 Q1014=
200903270030 METAR LPPR 270030Z 00000KT CAVOK 09/08 Q1014=
200903270000 METAR LPPR 270000Z 00000KT CAVOK 09/08 Q1014=
200903262330 METAR LPPR 262330Z 00000KT CAVOK 10/08 Q1014=
200903262300 METAR LPPR 262300Z 00000KT CAVOK 10/09 Q1014=
200903262230 METAR LPPR 262230Z 00000KT CAVOK 11/10 Q1014=
200903262200 METAR LPPR 262200Z 00000KT CAVOK 11/10 Q1014=
200903262130 METAR LPPR 262130Z 00000KT CAVOK 11/10 Q1014=
200903262100 METAR LPPR 262100Z 00000KT CAVOK 11/10 Q1014=
200903262030 METAR LPPR 262030Z 00000KT CAVOK 12/10 Q1014=
200903262000 METAR LPPR 262000Z 00000KT CAVOK 13/11 Q1014=
200903261930 METAR LPPR 261930Z VRB03KT CAVOK 14/10 Q1014=
200903261900 METAR LPPR 261900Z 33004KT CAVOK 14/09 Q1014=
200903261830 METAR LPPR 261830Z 31003KT CAVOK 17/11 Q1014=
200903261800 METAR LPPR 261800Z 32006KT CAVOK 18/11 Q1014=
200903261730 METAR LPPR 261730Z 32005KT CAVOK 19/11 Q1014=
200903261700 METAR LPPR 261700Z 30007KT 260V330 CAVOK 19/11 Q1014=
200903261630 METAR LPPR 261630Z 30009KT CAVOK 19/11 Q1014=
200903261600 METAR LPPR 261600Z 31008KT CAVOK 19/11 Q1014=
200903261530 METAR LPPR 261530Z 31007KT 260V330 CAVOK 20/09 Q1014=
200903261500 METAR LPPR 261500Z 31009KT CAVOK 20/09 Q1014=
200903261430 METAR LPPR 261430Z 31007KT 270V340 CAVOK 20/11 Q1014=
200903261400 METAR LPPR 261400Z 32009KT CAVOK 20/09 Q1015=
200903261330 METAR LPPR 261330Z 28006G16KT 260V030 CAVOK 21/09 Q1015=
200903261300 METAR LPPR 261300Z 29005KT 260V020 CAVOK 20/09 Q1015=
200903261230 METAR LPPR 261230Z 28008KT 250V340 CAVOK 20/09 Q1015=
200903261200 METAR LPPR 261200Z 26006G16KT CAVOK 21/10 Q1016=
200903261130 METAR LPPR 261130Z VRB03KT CAVOK 23/09 Q1015=
200903261100 METAR LPPR 261100Z 13004KT 110V170 CAVOK 22/04 Q1016=
200903261030 METAR LPPR 261030Z VRB03KT CAVOK 21/05 Q1016=
200903261000 METAR LPPR 261000Z VRB03KT CAVOK 20/05 Q1016=
200903260930 METAR LPPR 260930Z VRB03KT CAVOK 19/07 Q1016=
200903260900 METAR LPPR 260900Z 00000KT CAVOK 17/09 Q1016=
200903260830 METAR LPPR 260830Z 00000KT CAVOK 14/10 Q1015=
200903260800 METAR LPPR 260800Z 00000KT CAVOK 12/08 Q1015=
200903260730 METAR LPPR 260730Z 00000KT CAVOK 09/07 Q1015=
200903260700 METAR LPPR 260700Z 00000KT CAVOK 08/05 Q1015=
200903260630 METAR LPPR 260630Z 00000KT CAVOK 09/05 Q1015=
200903260600 METAR LPPR 260600Z 00000KT CAVOK 11/06 Q1015=
200903260530 METAR LPPR 260530Z 00000KT CAVOK 10/06 Q1014=
200903260500 METAR LPPR 260500Z 00000KT CAVOK 12/07 Q1014=
200903260430 METAR LPPR 260430Z 00000KT CAVOK 13/07 Q1014=
200903260400 METAR LPPR 260400Z 00000KT CAVOK 12/07 Q1014=
200903260330 METAR LPPR 260330Z 00000KT CAVOK 12/07 Q1014=
200903260300 METAR LPPR 260300Z 00000KT CAVOK 13/07 Q1014=
200903260230 METAR LPPR 260230Z 00000KT CAVOK 12/07 Q1015=
200903260200 METAR LPPR 260200Z 00000KT CAVOK 13/08 Q1015=
200903260130 METAR LPPR 260130Z 00000KT CAVOK 13/07 Q1015=
200903260100 METAR LPPR 260100Z 09004KT CAVOK 14/08 Q1015=
200903260030 METAR LPPR 260030Z 09002KT CAVOK 10/08 Q1015=
200903260000 METAR LPPR 260000Z 00000KT CAVOK 11/08 Q1015=
200903252330 METAR LPPR 252330Z 00000KT CAVOK 10/09 Q1015=
200903252300 METAR LPPR 252300Z 00000KT CAVOK 11/09 Q1015=
200903252230 METAR LPPR 252230Z 00000KT CAVOK 11/09 Q1015=
200903252200 METAR LPPR 252200Z 00000KT CAVOK 12/10 Q1015=
200903252130 METAR LPPR 252130Z 00000KT CAVOK 12/10 Q1015=
200903252100 METAR LPPR 252100Z 00000KT CAVOK 12/10 Q1015=
200903252030 METAR LPPR 252030Z 00000KT CAVOK 13/10 Q1015=
200903252000 METAR LPPR 252000Z 00000KT CAVOK 13/10 Q1015=
200903251930 METAR LPPR 251930Z 00000KT CAVOK 14/11 Q1014=
200903251900 METAR LPPR 251900Z 32003KT CAVOK 15/11 Q1014=
200903251830 METAR LPPR 251830Z 33004KT CAVOK 17/11 Q1014=
200903251800 METAR LPPR 251800Z 32004KT CAVOK 18/11 Q1014=
200903251730 METAR LPPR 251730Z 31005KT 270V350 CAVOK 18/11 Q1014=
200903251700 METAR LPPR 251700Z 33007KT CAVOK 19/07 Q1015=
200903251630 METAR LPPR 251630Z 32008KT CAVOK 19/08 Q1015=
200903251600 METAR LPPR 251600Z 32010KT 280V340 CAVOK 19/08 Q1015=
200903251530 METAR LPPR 251530Z 33011KT CAVOK 19/08 Q1015=
200903251500 METAR LPPR 251500Z 31010KT CAVOK 20/08 Q1015=
200903251430 METAR LPPR 251430Z 31008KT CAVOK 20/08 Q1015=
200903251400 METAR LPPR 251400Z 31008KT 270V340 CAVOK 20/08 Q1015=
200903251330 METAR LPPR 251330Z 30008KT 260V330 CAVOK 21/08 Q1015=
200903251300 METAR LPPR 251300Z 28008G18KT CAVOK 21/10 Q1016=
200903251230 METAR LPPR 251230Z 00000KT CAVOK 22/05 Q1016=
200903251200 METAR LPPR 251200Z VRB02KT CAVOK 22/05 Q1016=
200903251130 METAR LPPR 251130Z 08004KT 040V140 CAVOK 21/05 Q1016=
200903251100 METAR LPPR 251100Z VRB03KT CAVOK 20/05 Q1016=
200903251030 METAR LPPR 251030Z 07006KT 330V120 CAVOK 19/04 Q1016=
200903251000 METAR LPPR 251000Z 09009KT 060V120 CAVOK 18/03 Q1016=
200903250930 METAR LPPR 250930Z 09010KT 060V130 CAVOK 17/03 Q1016=
200903250900 METAR LPPR 250900Z 10010KT 070V130 CAVOK 16/03 Q1015=
200903250830 METAR LPPR 250830Z 10011KT 070V130 CAVOK 16/03 Q1015=
200903250800 METAR LPPR 250800Z 11008KT 060V140 CAVOK 15/02 Q1015=
200903250730 METAR LPPR 250730Z 11010KT 080V140 CAVOK 15/03 Q1015=
200903250700 METAR LPPR 250700Z 11008KT 080V140 CAVOK 14/03 Q1015=
200903250630 METAR LPPR 250630Z 10007KT 060V130 CAVOK 14/03 Q1015=
200903250600 METAR LPPR 250600Z 10009KT 060V140 CAVOK 15/03 Q1014=
200903250530 METAR LPPR 250530Z 10009KT 060V130 CAVOK 15/02 Q1014=
200903250500 METAR LPPR 250500Z 10008KT 070V130 CAVOK 15/02 Q1014=
200903250430 METAR LPPR 250430Z 09009KT 050V130 CAVOK 16/02 Q1014=
200903250400 METAR LPPR 250400Z 08007KT 050V110 CAVOK 16/01 Q1014=
200903250330 METAR LPPR 250330Z 07005KT 040V110 CAVOK 16/01 Q1014=
200903250300 METAR LPPR 250300Z 09007KT CAVOK 16/00 Q1014=
200903250230 METAR LPPR 250230Z 10009KT CAVOK 17/M00 Q1014=
200903250200 METAR LPPR 250200Z 10008KT CAVOK 17/M01 Q1014=
200903250130 METAR LPPR 250130Z VRB02KT CAVOK 17/M01 Q1015=
200903250100 METAR LPPR 250100Z 09005KT 060V130 CAVOK 17/M01 Q1014=
200903250030 METAR LPPR 250030Z VRB03KT CAVOK 17/M01 Q1014=
200903250000 METAR LPPR 250000Z 05006KT CAVOK 17/M00 Q1014=
200903242330 METAR LPPR 242330Z 09004KT CAVOK 17/M01 Q1014=
200903242300 METAR LPPR 242300Z 00000KT CAVOK 18/M00 Q1014=
200903242230 METAR LPPR 242230Z 05004KT 030V090 CAVOK 18/00 Q1014=
200903242200 METAR LPPR 242200Z 04002KT CAVOK 18/01 Q1014=
200903242130 METAR LPPR 242130Z VRB03KT CAVOK 18/00 Q1014=
200903242100 METAR LPPR 242100Z 05003KT CAVOK 19/M00 Q1014=
200903242030 METAR LPPR 242030Z 06003KT CAVOK 20/00 Q1014=
200903242000 METAR LPPR 242000Z 00000KT CAVOK 20/02 Q1013=
200903241930 METAR LPPR 241930Z 05003KT CAVOK 21/01 Q1013=
200903241900 METAR LPPR 241900Z 05002KT CAVOK 22/02 Q1013=
200903241830 METAR LPPR 241830Z 04002KT CAVOK 23/02 Q1013=
200903241800 METAR LPPR 241800Z VRB03KT CAVOK 24/02 Q1013=
200903241730 METAR LPPR 241730Z 06006KT 020V100 CAVOK 25/M00 Q1013=
200903241700 METAR LPPR 241700Z 05006KT 010V100 CAVOK 25/01 Q1013=
200903241630 METAR LPPR 241630Z 06007KT 020V100 CAVOK 26/M00 Q1013=
200903241600 METAR LPPR 241600Z 05007KT 350V120 CAVOK 26/02 Q1013=
200903241530 METAR LPPR 241530Z 08006KT 010V120 CAVOK 26/02 Q1014=
200903241500 METAR LPPR 241500Z 08007KT 350V120 CAVOK 26/01 Q1014=
200903241430 METAR LPPR 241430Z 08009KT 040V120 CAVOK 25/01 Q1014=
200903241400 METAR LPPR 241400Z 09009KT 040V130 CAVOK 25/01 Q1014=
200903241330 METAR LPPR 241330Z 09010KT 030V130 CAVOK 24/00 Q1015=
200903241300 METAR LPPR 241300Z 09010KT 050V130 CAVOK 24/02 Q1015=
200903241230 METAR LPPR 241230Z 06010KT 020V090 CAVOK 23/01 Q1015=
200903241200 METAR LPPR 241200Z 08011KT 040V120 CAVOK 23/M00 Q1015=
200903241130 METAR LPPR 241130Z 10010KT 060V120 CAVOK 22/00 Q1016=
200903241100 METAR LPPR 241100Z 08011G21KT 040V120 CAVOK 21/M00 Q1016=
200903241030 METAR LPPR 241030Z 10013KT 060V130 CAVOK 20/M01 Q1016=
200903241000 METAR LPPR 241000Z 08010KT 020V120 CAVOK 20/M01 Q1016=
200903240930 METAR LPPR 240930Z 08011KT 050V120 CAVOK 19/M02 Q1016=
200903240900 METAR LPPR 240900Z 11010KT 080V140 CAVOK 18/M01 Q1016=
200903240830 METAR LPPR 240830Z 10012KT 070V130 CAVOK 17/M02 Q1016=
200903240800 METAR LPPR 240800Z 10010KT 070V130 CAVOK 16/M02 Q1015=
200903240730 METAR LPPR 240730Z 11007KT CAVOK 15/M01 Q1015=
200903240700 METAR LPPR 240700Z 10005KT CAVOK 14/M01 Q1015=
200903240630 METAR LPPR 240630Z VRB03KT CAVOK 15/M01 Q1015=
200903240600 METAR LPPR 240600Z VRB03KT CAVOK 15/M02 Q1015=
200903240530 METAR LPPR 240530Z 08004KT 050V120 CAVOK 16/M02 Q1015=
200903240500 METAR LPPR 240500Z VRB03KT CAVOK 15/M01 Q1015=
200903240430 METAR LPPR 240430Z VRB02KT CAVOK 15/M01 Q1015=
200903240400 METAR LPPR 240400Z VRB03KT CAVOK 15/M00 Q1015=
200903240330 METAR LPPR 240330Z 07004KT 040V120 CAVOK 17/M01 Q1015=
200903240300 METAR LPPR 240300Z 09004KT 050V120 CAVOK 17/M01 Q1015=
200903240230 METAR LPPR 240230Z 09004KT 060V120 CAVOK 17/M00 Q1016=
200903240200 METAR LPPR 240200Z VRB03KT CAVOK 17/01 Q1016=
200903240130 METAR LPPR 240130Z VRB03KT CAVOK 17/01 Q1016=
200903240100 METAR LPPR 240100Z 00000KT CAVOK 17/02 Q1016=
200903240030 METAR LPPR 240030Z 00000KT CAVOK 16/02 Q1016=
200903240000 METAR LPPR 240000Z 00000KT CAVOK 14/04 Q1016=
200903232330 METAR LPPR 232330Z 00000KT CAVOK 14/05 Q1016=
200903232300 METAR LPPR 232300Z 00000KT CAVOK 13/06 Q1016=
200903232230 METAR LPPR 232230Z 00000KT CAVOK 14/08 Q1017=
200903232200 METAR LPPR 232200Z 00000KT CAVOK 14/08 Q1017=
200903232130 METAR LPPR 232130Z 00000KT CAVOK 14/08 Q1017=
200903232100 METAR LPPR 232100Z 00000KT CAVOK 14/08 Q1017=
200903232030 METAR LPPR 232030Z 00000KT CAVOK 15/09 Q1017=
200903232000 METAR LPPR 232000Z 00000KT 8000 FEW070 BKN250 15/09 Q1017=
200903231930 METAR LPPR 231930Z 00000KT 8000 FEW070 BKN250 16/08 Q1017=
200903231900 METAR LPPR 231900Z 00000KT 8000 FEW070 BKN250 16/09 Q1017=
200903231830 METAR LPPR 231830Z 35003KT 8000 FEW070 BKN250 17/08 Q1017=
200903231800 METAR LPPR 231800Z 33002KT 8000 BKN250 18/07 Q1017=
200903231730 METAR LPPR 231730Z 35004KT CAVOK 19/08 Q1017=
200903231700 METAR LPPR 231700Z 34006KT CAVOK 20/09 Q1017=
200903231630 METAR LPPR 231630Z 00000KT CAVOK 22/03 Q1017=
200903231600 METAR LPPR 231600Z VRB03KT CAVOK 22/02 Q1017=
200903231530 METAR LPPR 231530Z VRB03KT CAVOK 22/02 Q1018=
200903231500 METAR LPPR 231500Z VRB03KT CAVOK 22/01 Q1018=
200903231430 METAR LPPR 231430Z 12005KT 060V160 CAVOK 22/01 Q1018=
200903231400 METAR LPPR 231400Z 11007KT 080V140 CAVOK 22/01 Q1018=
200903231330 METAR LPPR 231330Z 10007KT 030V150 CAVOK 22/01 Q1019=
200903231300 METAR LPPR 231300Z 13008KT 100V160 CAVOK 22/01 Q1019=
200903231230 METAR LPPR 231230Z 08005KT 020V150 CAVOK 22/02 Q1019=
200903231200 METAR LPPR 231200Z 09006KT 050V150 CAVOK 21/01 Q1020=
200903231130 METAR LPPR 231130Z 10007KT 050V140 CAVOK 20/M00 Q1020=
200903231100 METAR LPPR 231100Z 10009KT 040V130 CAVOK 19/M00 Q1020=
200903231030 METAR LPPR 231030Z 09009KT 050V120 CAVOK 18/M00 Q1020=
200903231000 METAR LPPR 231000Z 09012KT 050V120 CAVOK 17/M02 Q1021=
200903230930 METAR LPPR 230930Z 09011KT 050V110 CAVOK 17/M03 Q1021=
200903230900 METAR LPPR 230900Z 10009KT 070V130 CAVOK 16/M02 Q1021=
200903230830 METAR LPPR 230830Z 10011KT 070V130 CAVOK 15/M03 Q1021=
200903230800 METAR LPPR 230800Z 10007KT 060V130 CAVOK 15/M03 Q1021=
200903230730 METAR LPPR 230730Z 08006KT 020V140 CAVOK 14/M03 Q1020=
200903230700 METAR LPPR 230700Z 08005KT 050V120 CAVOK 13/M03 Q1020=
200903230630 METAR LPPR 230630Z 00000KT CAVOK 12/M02 Q1020=
200903230600 METAR LPPR 230600Z 00000KT CAVOK 13/M01 Q1020=
200903230530 METAR LPPR 230530Z 09004KT CAVOK 13/M01 Q1020=
200903230500 METAR LPPR 230500Z 00000KT CAVOK 13/00 Q1020=
200903230430 METAR LPPR 230430Z 10004KT 060V130 CAVOK 15/M01 Q1020=
200903230400 METAR LPPR 230400Z 11006KT CAVOK 15/M00 Q1020=
200903230330 METAR LPPR 230330Z 10005KT 080V140 CAVOK 15/M00 Q1021=
200903230300 METAR LPPR 230300Z 09005KT 060V120 CAVOK 15/00 Q1021=
200903230230 METAR LPPR 230230Z 08005KT CAVOK 15/01 Q1021=
200903230200 METAR LPPR 230200Z 08004KT CAVOK 14/01 Q1021=
200903230130 METAR LPPR 230130Z 05005KT CAVOK 14/03 Q1021=
200903230100 METAR LPPR 230100Z 08004KT 050V110 CAVOK 14/03 Q1021=
200903230030 METAR LPPR 230030Z 11004KT CAVOK 14/03 Q1022=
200903230000 METAR LPPR 230000Z 11003KT CAVOK 13/03 Q1022=
200903222330 METAR LPPR 222330Z 00000KT CAVOK 12/03 Q1022=
200903222300 METAR LPPR 222300Z 00000KT CAVOK 11/03 Q1022=
200903222230 METAR LPPR 222230Z 00000KT CAVOK 12/02 Q1022=
200903222200 METAR LPPR 222200Z 00000KT CAVOK 12/02 Q1022=
200903222130 METAR LPPR 222130Z 00000KT CAVOK 12/03 Q1022=
200903222100 METAR LPPR 222100Z 00000KT CAVOK 13/03 Q1022=
200903222030 METAR LPPR 222030Z 00000KT CAVOK 14/02 Q1021=
200903222000 METAR LPPR 222000Z 00000KT CAVOK 14/02 Q1021=
200903221930 METAR LPPR 221930Z 00000KT CAVOK 15/03 Q1021=
200903221900 METAR LPPR 221900Z 00000KT CAVOK 16/03 Q1021=
200903221830 METAR LPPR 221830Z 33003KT CAVOK 17/02 Q1021=
200903221800 METAR LPPR 221800Z 32006KT CAVOK 19/M00 Q1021=
200903221730 METAR LPPR 221730Z 31005KT CAVOK 19/01 Q1020=
200903221700 METAR LPPR 221700Z 32005KT CAVOK 20/01 Q1020=
200903221630 METAR LPPR 221630Z 31007KT 290V010 CAVOK 20/02 Q1020=
200903221600 METAR LPPR 221600Z 31006KT CAVOK 20/04 Q1020=
200903221530 METAR LPPR 221530Z VRB03KT CAVOK 24/05 Q1020=
200903221500 METAR LPPR 221500Z 11004KT 010V170 CAVOK 23/01 Q1020=
200903221430 METAR LPPR 221430Z 13008KT 100V160 CAVOK 23/M01 Q1020=
200903221400 METAR LPPR 221400Z 10006KT 060V150 CAVOK 23/M00 Q1020=
200903221330 METAR LPPR 221330Z 13010KT 100V160 CAVOK 22/M03 Q1020=
200903221300 METAR LPPR 221300Z 10011KT 070V130 CAVOK 22/M04 Q1020=
200903221230 METAR LPPR 221230Z 09011KT 060V130 CAVOK 21/M04 Q1021=
200903221200 METAR LPPR 221200Z 10012KT 070V140 CAVOK 20/M04 Q1021=
200903221130 METAR LPPR 221130Z 09010KT 060V130 CAVOK 20/M05 Q1021=
200903221100 METAR LPPR 221100Z 09011KT 050V130 CAVOK 19/M06 Q1021=
200903221030 METAR LPPR 221030Z 09008G18KT 030V140 CAVOK 19/M07 Q1021=
200903221000 METAR LPPR 221000Z 08010KT 030V110 CAVOK 18/M07 Q1021=
200903220930 METAR LPPR 220930Z 08009KT 030V110 CAVOK 17/M08 Q1021=
200903220900 METAR LPPR 220900Z 07006KT 010V120 CAVOK 17/M08 Q1020=
200903220830 METAR LPPR 220830Z 08007KT 040V130 CAVOK 16/M09 Q1020=
200903220800 METAR LPPR 220800Z 09006KT 040V130 CAVOK 16/M08 Q1020=
200903220730 METAR LPPR 220730Z 08007KT 040V120 CAVOK 15/M10 Q1019=
200903220700 METAR LPPR 220700Z 06006KT 010V100 CAVOK 15/M10 Q1019=
200903220630 METAR LPPR 220630Z 07005KT 020V140 CAVOK 15/M11 Q1019=
200903220600 METAR LPPR 220600Z 07004KT 350V140 CAVOK 15/M10 Q1019=
200903220530 METAR LPPR 220530Z 07008KT 020V110 CAVOK 16/M11 Q1018=
200903220500 METAR LPPR 220500Z VRB03KT CAVOK 15/M10 Q1018=
200903220430 METAR LPPR 220430Z 08007KT 040V110 CAVOK 16/M09 Q1018=
200903220400 METAR LPPR 220400Z 08007KT 050V110 CAVOK 16/M08 Q1018=
200903220330 METAR LPPR 220330Z 09006KT 050V120 CAVOK 16/M08 Q1018=
200903220300 METAR LPPR 220300Z 07008KT 040V100 CAVOK 16/M07 Q1018=
200903220230 METAR LPPR 220230Z 08008G18KT 050V110 CAVOK 17/M07 Q1018=
200903220200 METAR LPPR 220200Z 08009KT 060V140 CAVOK 17/M06 Q1019=
200903220130 METAR LPPR 220130Z 09007KT 050V120 CAVOK 16/M02 Q1018=
200903220100 METAR LPPR 220100Z 09004KT 060V120 8000 SKC 14/04 Q1018=
200903220030 METAR LPPR 220030Z 12006KT 5000 BR SKC 13/09 Q1018=
200903220000 METAR LPPR 220000Z 09006KT 4000 BR SKC 12/11 Q1018=
200903212330 METAR LPPR 212330Z 12003KT 3000 BR SKC 11/10 Q1018=
200903212300 METAR LPPR 212300Z 00000KT 4000 BR SKC 11/10 Q1018=
200903212230 METAR LPPR 212230Z 10003KT 4000 BR SKC 11/11 Q1018=
200903212200 METAR LPPR 212200Z 00000KT 4000 BR SKC 10/10 Q1018=
200903212130 METAR LPPR 212130Z 00000KT 4000 BR SKC 10/10 Q1018=
200903212100 METAR LPPR 212100Z 00000KT 4000 BR SKC 11/10 Q1018=
200903212030 METAR LPPR 212030Z 00000KT 4000 BR SKC 11/10 Q1018=
200903212000 METAR LPPR 212000Z 00000KT 4000 BR SKC 12/10 Q1017=
200903211930 METAR LPPR 211930Z 00000KT 3000 BR VCFG SCT250 12/11 Q1017=
200903211900 METAR LPPR 211900Z 32003KT 4000 BR SCT250 13/11 Q1017=
200903211830 METAR LPPR 211830Z 31004KT 5000 BR BKN250 13/11 Q1017=
200903211800 METAR LPPR 211800Z 31005KT 7000 BKN250 14/11 Q1017=
200903211730 METAR LPPR 211730Z 30006KT 280V350 7000 BKN250 14/11 Q1017=
200903211700 METAR LPPR 211700Z 30008KT 7000 BKN250 15/11 Q1017=
200903211630 METAR LPPR 211630Z 29007KT 260V020 5000 BR BKN250 16/12 Q1017=
200903211600 METAR LPPR 211600Z 31006KT 280V340 4000 BR BKN250 16/12 Q1017=
200903211530 METAR LPPR 211530Z 31005KT 280V340 4000 BR BKN250 16/11 Q1017=
200903211500 METAR LPPR 211500Z 32007KT 4000 BR SCT250 15/12 Q1017=
200903211430 METAR LPPR 211430Z 32008KT 4000 BR BKN250 16/12 Q1018=
200903211400 METAR LPPR 211400Z 32008KT 4000 BR BKN250 16/12 Q1018=
200903211330 METAR LPPR 211330Z 32007KT 4000 BR BKN250 15/12 Q1018=
200903211300 METAR LPPR 211300Z 30007KT 4000 BR BKN250 15/11 Q1019=
200903211230 METAR LPPR 211230Z 29007KT 3000 BR FEW008 BKN250 14/11 Q1019=
200903211200 METAR LPPR 211200Z 32004KT 280V010 3000 BR SCT008 SCT250
                        15/11 Q1019=
200903211130 METAR LPPR 211130Z 33005KT 280V020 3000 BR SCT008 SCT250
                        15/11 Q1019=
200903211100 METAR LPPR 211100Z VRB03KT 3000 BR SCT008 SCT250 14/11 Q1019=
200903211030 METAR LPPR 211030Z 00000KT 3000 BR SCT008 BKN009 14/11 Q1020=
200903211000 METAR LPPR 211000Z 00000KT 2000 BR SCT006 BKN008 12/10 Q1020=
200903210930 METAR LPPR 210930Z 00000KT 2000 BR BKN006 BKN007 12/10 Q1020=
200903210900 METAR LPPR 210900Z 00000KT 2000 BR BKN005 BKN007 12/10 Q1019=
200903210830 METAR LPPR 210830Z VRB02KT 2000 BR BKN005 BKN007 12/10 Q1019=
200903210800 METAR LPPR 210800Z 00000KT 2000 BR BKN005 BKN008 12/10 Q1019=
200903210730 METAR LPPR 210730Z 00000KT 2000 BR BKN004 BKN007 11/10 Q1019=
200903210700 METAR LPPR 210700Z VRB03KT 2000 BR BKN004 BKN007 11/10 Q1019=
200903210630 METAR LPPR 210630Z VRB02KT 2000 BR BKN005 BKN007 12/10 Q1019=
200903210600 METAR LPPR 210600Z 00000KT 2000 BR BKN005 BKN007 12/10 Q1019=
200903210530 METAR LPPR 210530Z 00000KT 1500 BR VCFG OVC004 12/10 Q1019=
200903210500 METAR LPPR 210500Z 00000KT 1500 BR OVC004 12/11 Q1018=
200903210430 METAR LPPR 210430Z 00000KT 1500 BR BKN003 BKN004 12/10 Q1019=
200903210400 METAR LPPR 210400Z 00000KT 1500 BR VCFG BKN003 BKN004 12/11
                        Q1019=
200903210330 METAR LPPR 210330Z 00000KT 2000 BR BKN003 BKN005 12/11 Q1019=
200903210300 METAR LPPR 210300Z 00000KT 2000 BR BKN003 BKN005 12/11 Q1019=
200903210230 METAR LPPR 210230Z 00000KT 3000 BR SCT003 BKN006 12/11 Q1019=
200903210200 METAR LPPR 210200Z 33003KT 3000 BR SCT003 BKN005 12/11 Q1020=
200903210130 METAR LPPR 210130Z 00000KT 2000 BR BKN003 BKN005 12/11 Q1020=
200903210100 METAR LPPR 210100Z 00000KT 2000 BR BKN003 BKN005 12/11 Q1020=
200903210030 METAR LPPR 210030Z 00000KT 2500 BR SCT003 BKN005 12/11 Q1020=
200903210000 METAR LPPR 210000Z 00000KT 2500 BR SCT003 BKN005 12/11 Q1020=
200903202330 METAR LPPR 202330Z 00000KT 3000 BR BKN004 BKN006 12/11 Q1020=
200903202300 METAR LPPR 202300Z VRB03KT 3000 BR BKN004 BKN005 12/11 Q1020=
200903202230 METAR LPPR 202230Z 34003KT 3000 BR SCT003 BKN005 12/11 Q1020=
200903202200 METAR LPPR 202200Z 32005KT 3000 BR SCT003 BKN005 12/11 Q1020=
200903202130 METAR LPPR 202130Z 32004KT 3500 BR VCFG SCT003 BKN005 12/12
                        Q1020=
200903202100 METAR LPPR 202100Z 00000KT 2500 BR VCFG SCT004 BKN006 12/11
                        Q1020=
200903202030 METAR LPPR 202030Z 00000KT 3000 BR SCT004 SCT008 11/11 Q1020=
200903202000 METAR LPPR 202000Z VRB03KT 3000 BR SCT004 BKN005 12/11 Q1020=
200903201930 METAR LPPR 201930Z 33005KT 300V360 2000 BR SCT004 BKN005
                        13/12 Q1020=
200903201900 METAR LPPR 201900Z 32004KT 290V350 2000 BR SCT003 13/12 Q1019=
200903201830 METAR LPPR 201830Z 32002KT 2000 BR BKN003 13/12 Q1019=
200903201800 METAR LPPR 201800Z 32007KT 290V350 4000 BR SCT002 BKN005
                        13/12 Q1019=
200903201730 METAR LPPR 201730Z 31007KT 1200 R17/P1500 R35/P1500 BR SCT001
                        BKN003 13/13 Q1019=
200903201700 METAR LPPR 201700Z 31009KT 1200 R17/0900VP1500 R35/P1500
                        BR BKN001 BKN002 15/13 Q1019=
200903201630 METAR LPPR 201630Z 30008KT 260V330 9999 SCT007 16/14 Q1019=
200903201600 METAR LPPR 201600Z 28007KT 260V340 9999 FEW007 17/14 Q1019=
200903201530 METAR LPPR 201530Z 32007KT 270V340 9999 FEW007 17/13 Q1019=
200903201500 METAR LPPR 201500Z 29008KT 260V330 9999 SCT007 16/14 Q1019=
200903201430 METAR LPPR 201430Z 28009KT 260V320 9999 SCT007 17/13 Q1019=
200903201400 METAR LPPR 201400Z 28006KT 240V330 CAVOK 17/12 Q1019=
200903201330 METAR LPPR 201330Z 27008KT CAVOK 17/11 Q1020=
200903201300 METAR LPPR 201300Z 29005KT 240V340 CAVOK 18/10 Q1020=
200903201230 METAR LPPR 201230Z 30006KT 270V330 CAVOK 17/10 Q1020=
200903201200 METAR LPPR 201200Z 28009KT 170V320 CAVOK 16/10 Q1020=
200903201130 METAR LPPR 201130Z 28008KT 220V300 CAVOK 18/10 Q1019=
200903201100 METAR LPPR 201100Z VRB03KT CAVOK 18/08 Q1019=
200903201030 METAR LPPR 201030Z 28004KT 250V330 CAVOK 17/09 Q1019=
200903201000 METAR LPPR 201000Z VRB02KT CAVOK 18/10 Q1019=
200903200930 METAR LPPR 200930Z 00000KT CAVOK 17/08 Q1019=
200903200900 METAR LPPR 200900Z 00000KT CAVOK 15/08 Q1019=
200903200830 METAR LPPR 200830Z 00000KT CAVOK 14/08 Q1019=
200903200800 METAR LPPR 200800Z 00000KT CAVOK 12/08 Q1018=
200903200730 METAR LPPR 200730Z 00000KT CAVOK 11/07 Q1018=
200903200700 METAR LPPR 200700Z 10005KT CAVOK 10/07 Q1018=
200903200630 METAR LPPR 200630Z 10003KT CAVOK 10/07 Q1018=
200903200600 METAR LPPR 200600Z 00000KT CAVOK 10/06 Q1018=
200903200530 METAR LPPR 200530Z 00000KT CAVOK 10/06 Q1018=
200903200500 METAR LPPR 200500Z 00000KT CAVOK 10/07 Q1017=
200903200430 METAR LPPR 200430Z 00000KT CAVOK 09/07 Q1017=
200903200400 METAR LPPR 200400Z 00000KT CAVOK 09/07 Q1017=
200903200330 METAR LPPR 200330Z 00000KT CAVOK 11/07 Q1017=
200903200300 METAR LPPR 200300Z 00000KT CAVOK 11/07 Q1017=
200903200230 METAR LPPR 200230Z VRB02KT CAVOK 12/07 Q1017=
200903200200 METAR LPPR 200200Z 00000KT CAVOK 12/07 Q1017=
200903200130 METAR LPPR 200130Z 00000KT CAVOK 12/07 Q1018=
200903200100 METAR LPPR 200100Z 09002KT CAVOK 12/08 Q1018=
200903200030 METAR LPPR 200030Z 00000KT CAVOK 12/09 Q1018=
200903200000 METAR LPPR 200000Z 00000KT CAVOK 12/09 Q1018=
200903192330 METAR LPPR 192330Z 00000KT CAVOK 12/10 Q1018=
200903192300 METAR LPPR 192300Z 00000KT CAVOK 13/10 Q1018=
200903192230 METAR LPPR 192230Z 00000KT CAVOK 13/09 Q1018=
200903192200 METAR LPPR 192200Z 00000KT CAVOK 13/07 Q1018=
200903192130 METAR LPPR 192130Z 00000KT CAVOK 13/08 Q1017=
200903192100 METAR LPPR 192100Z 00000KT CAVOK 13/08 Q1017=
200903192030 METAR LPPR 192030Z 00000KT CAVOK 13/08 Q1017=
200903192000 METAR LPPR 192000Z 35003KT CAVOK 14/08 Q1017=
200903191930 METAR LPPR 191930Z 00000KT CAVOK 15/08 Q1017=
200903191900 METAR LPPR 191900Z 35006KT CAVOK 15/08 Q1017=
200903191830 METAR LPPR 191830Z 34007KT CAVOK 16/09 Q1016=
200903191800 METAR LPPR 191800Z 33009KT CAVOK 17/08 Q1016=
200903191730 METAR LPPR 191730Z 32010KT CAVOK 18/09 Q1016=
200903191700 METAR LPPR 191700Z 31009KT 270V340 CAVOK 19/08 Q1016=
200903191630 METAR LPPR 191630Z 31009KT CAVOK 19/08 Q1016=
200903191600 METAR LPPR 191600Z 31010KT CAVOK 20/07 Q1016=
200903191530 METAR LPPR 191530Z 30008KT CAVOK 21/07 Q1016=
200903191500 METAR LPPR 191500Z 30008KT CAVOK 22/06 Q1015=
200903191430 METAR LPPR 191430Z 29008KT 260V320 CAVOK 22/06 Q1015=
200903191400 METAR LPPR 191400Z 28006KT 250V310 CAVOK 23/06 Q1016=
200903191330 METAR LPPR 191330Z VRB03KT CAVOK 23/07 Q1016=
200903191300 METAR LPPR 191300Z VRB03KT CAVOK 23/06 Q1016=
200903191230 METAR LPPR 191230Z VRB03KT CAVOK 23/07 Q1017=
200903191200 METAR LPPR 191200Z 30004KT 270V340 CAVOK 21/07 Q1017=
200903191130 METAR LPPR 191130Z VRB03KT CAVOK 22/08 Q1017=
200903191100 METAR LPPR 191100Z 00000KT CAVOK 22/04 Q1017=
200903191030 METAR LPPR 191030Z 00000KT CAVOK 20/06 Q1017=
200903191000 METAR LPPR 191000Z 00000KT CAVOK 19/06 Q1017=
200903190930 METAR LPPR 190930Z 16002KT CAVOK 18/05 Q1017=
200903190900 METAR LPPR 190900Z 14005KT 080V240 CAVOK 16/05 Q1017=
200903190830 METAR LPPR 190830Z 11010KT CAVOK 15/04 Q1017=
200903190800 METAR LPPR 190800Z 11010KT CAVOK 14/03 Q1016=
200903190730 METAR LPPR 190730Z 11009KT CAVOK 14/03 Q1016=
200903190700 METAR LPPR 190700Z 11009KT CAVOK 13/03 Q1016=
200903190630 METAR LPPR 190630Z 11009KT CAVOK 13/03 Q1016=
200903190600 METAR LPPR 190600Z 11008KT CAVOK 13/03 Q1016=
200903190530 METAR LPPR 190530Z 11009KT CAVOK 14/03 Q1016=
200903190500 METAR LPPR 190500Z 11009KT CAVOK 14/03 Q1016=
200903190430 METAR LPPR 190430Z 11009KT CAVOK 14/04 Q1016=
200903190400 METAR LPPR 190400Z 11009KT CAVOK 13/04 Q1016=
200903190330 METAR LPPR 190330Z 11009KT CAVOK 14/04 Q1016=
200903190300 METAR LPPR 190300Z 00000KT CAVOK 13/03 Q1016=
200903190230 METAR LPPR 190230Z 10007KT CAVOK 14/03 Q1016=
200903190200 METAR LPPR 190200Z 00000KT CAVOK 13/03 Q1016=
200903190130 METAR LPPR 190130Z 10004KT CAVOK 15/04 Q1016=
200903190100 METAR LPPR 190100Z 10006KT CAVOK 15/05 Q1016=
200903190030 METAR LPPR 190030Z 10004KT CAVOK 15/05 Q1016=
200903190000 METAR LPPR 190000Z 12006KT CAVOK 16/06 Q1017=
200903182330 METAR LPPR 182330Z 13006KT CAVOK 15/06 Q1017=
200903182300 METAR LPPR 182300Z 12005KT CAVOK 14/05 Q1017=
200903182230 METAR LPPR 182230Z 00000KT CAVOK 13/05 Q1017=
200903182200 METAR LPPR 182200Z 00000KT CAVOK 13/05 Q1016=
200903182130 METAR LPPR 182130Z 00000KT CAVOK 14/05 Q1016=
200903182100 METAR LPPR 182100Z 12004KT CAVOK 14/03 Q1016=
200903182030 METAR LPPR 182030Z 00000KT CAVOK 13/04 Q1016=
200903182000 METAR LPPR 182000Z 00000KT CAVOK 15/04 Q1016=
200903181930 METAR LPPR 181930Z 00000KT 8000 SCT250 16/03 Q1016=
200903181900 METAR LPPR 181900Z 02004KT 8000 SCT250 17/04 Q1016=
200903181830 METAR LPPR 181830Z 35005KT CAVOK 17/05 Q1016=
200903181800 METAR LPPR 181800Z 33006KT CAVOK 19/05 Q1016=
200903181730 METAR LPPR 181730Z 32010KT CAVOK 19/05 Q1016=
200903181700 METAR LPPR 181700Z 33010KT 290V350 CAVOK 19/05 Q1016=
200903181630 METAR LPPR 181630Z 32009KT 290V350 CAVOK 21/07 Q1016=
200903181600 METAR LPPR 181600Z 33009KT CAVOK 21/06 Q1016=
200903181530 METAR LPPR 181530Z 31010KT CAVOK 20/07 Q1016=
200903181500 METAR LPPR 181500Z 29006KT 260V320 CAVOK 21/06 Q1016=
200903181430 METAR LPPR 181430Z 27006KT 230V320 CAVOK 22/06 Q1017=
200903181400 METAR LPPR 181400Z 24007KT 210V270 CAVOK 21/05 Q1017=
200903181330 METAR LPPR 181330Z 25007KT 220V290 CAVOK 22/07 Q1018=
200903181300 METAR LPPR 181300Z VRB05KT CAVOK 24/06 Q1018=
200903181230 METAR LPPR 181230Z 12008KT 050V180 CAVOK 24/02 Q1018=
200903181200 METAR LPPR 181200Z 08007KT 040V130 CAVOK 23/03 Q1019=
200903181130 METAR LPPR 181130Z 08007KT 040V130 CAVOK 23/02 Q1019=
200903181100 METAR LPPR 181100Z 09006KT 040V160 CAVOK 22/03 Q1019=
200903181030 METAR LPPR 181030Z 10006KT 050V130 CAVOK 21/04 Q1019=
200903181000 METAR LPPR 181000Z 10008KT 060V130 CAVOK 20/03 Q1019=
200903180930 METAR LPPR 180930Z 10007KT 060V120 CAVOK 19/03 Q1019=
200903180900 METAR LPPR 180900Z 09004KT 060V130 CAVOK 18/04 Q1019=
200903180830 METAR LPPR 180830Z VRB03KT CAVOK 17/03 Q1019=
200903180800 METAR LPPR 180800Z 00000KT CAVOK 16/03 Q1019=
200903180730 METAR LPPR 180730Z VRB02KT CAVOK 14/02 Q1019=
200903180700 METAR LPPR 180700Z 00000KT CAVOK 14/02 Q1019=
200903180630 METAR LPPR 180630Z 00000KT CAVOK 13/01 Q1019=
200903180600 METAR LPPR 180600Z 00000KT CAVOK 13/02 Q1019=
200903180530 METAR LPPR 180530Z 00000KT CAVOK 13/02 Q1019=
200903180500 METAR LPPR 180500Z 00000KT CAVOK 13/02 Q1019=
200903180430 METAR LPPR 180430Z 00000KT CAVOK 14/03 Q1019=
200903180400 METAR LPPR 180400Z 09004KT CAVOK 15/03 Q1019=
200903180330 METAR LPPR 180330Z 10005KT CAVOK 15/04 Q1020=
200903180300 METAR LPPR 180300Z 00000KT CAVOK 14/04 Q1020=
200903180230 METAR LPPR 180230Z 00000KT CAVOK 15/01 Q1020=
200903180200 METAR LPPR 180200Z 08004KT CAVOK 16/01 Q1020=
200903180130 METAR LPPR 180130Z 11005KT CAVOK 16/02 Q1020=
200903180100 METAR LPPR 180100Z 00000KT CAVOK 15/04 Q1020=
200903180030 METAR LPPR 180030Z 00000KT CAVOK 15/03 Q1020=
200903180000 METAR LPPR 180000Z 16003KT CAVOK 16/03 Q1020=
200903172330 METAR LPPR 172330Z 14005KT CAVOK 16/04 Q1020=
200903172300 METAR LPPR 172300Z 15006KT CAVOK 17/05 Q1020=
200903172230 METAR LPPR 172230Z 17005KT CAVOK 16/05 Q1020=
200903172200 METAR LPPR 172200Z 17005KT CAVOK 17/05 Q1020=
200903172130 METAR LPPR 172130Z 18009KT CAVOK 18/05 Q1019=
200903172100 METAR LPPR 172100Z 16006KT 140V200 CAVOK 19/08 Q1019=
200903172030 METAR LPPR 172030Z 09002KT CAVOK 20/06 Q1019=
200903172000 METAR LPPR 172000Z 05003KT CAVOK 18/07 Q1019=
200903171930 METAR LPPR 171930Z 00000KT 9000 SKC 18/10 Q1019=
200903171900 METAR LPPR 171900Z 02004KT 9000 FEW250 19/10 Q1018=
200903171830 METAR LPPR 171830Z 34003KT CAVOK 21/11 Q1018=
200903171800 METAR LPPR 171800Z 01005KT CAVOK 22/10 Q1018=
200903171730 METAR LPPR 171730Z 36004KT 330V030 CAVOK 23/10 Q1018=
200903171700 METAR LPPR 171700Z 34008KT CAVOK 22/09 Q1018=
200903171630 METAR LPPR 171630Z 34010KT CAVOK 23/09 Q1018=
200903171600 METAR LPPR 171600Z 32007KT CAVOK 23/08 Q1019=
200903171530 METAR LPPR 171530Z 33007KT CAVOK 23/08 Q1019=
200903171500 METAR LPPR 171500Z 33006KT 290V350 CAVOK 22/08 Q1019=
200903171430 METAR LPPR 171430Z 28006KT 240V320 CAVOK 22/08 Q1020=
200903171400 METAR LPPR 171400Z 29005KT 260V330 CAVOK 22/09 Q1020=
200903171330 METAR LPPR 171330Z 28007KT CAVOK 22/10 Q1020=
200903171300 METAR LPPR 171300Z 27006KT 240V340 CAVOK 23/09 Q1020=
200903171230 METAR LPPR 171230Z 27004KT 250V320 CAVOK 24/10 Q1021=
200903171200 METAR LPPR 171200Z VRB03KT CAVOK 25/06 Q1021=
200903171130 METAR LPPR 171130Z VRB02KT CAVOK 24/06 Q1021=
200903171100 METAR LPPR 171100Z VRB03KT CAVOK 23/05 Q1021=
200903171030 METAR LPPR 171030Z 11004KT 080V150 CAVOK 23/06 Q1021=
200903171000 METAR LPPR 171000Z VRB02KT CAVOK 23/05 Q1021=
200903170930 METAR LPPR 170930Z 00000KT CAVOK 21/06 Q1021=
200903170900 METAR LPPR 170900Z 00000KT CAVOK 20/05 Q1020=
200903170830 METAR LPPR 170830Z 18006KT 110V240 CAVOK 19/05 Q1020=
200903170800 METAR LPPR 170800Z 10009KT CAVOK 18/03 Q1019=
200903170730 METAR LPPR 170730Z 11008KT CAVOK 18/03 Q1019=
200903170700 METAR LPPR 170700Z 10009KT CAVOK 18/03 Q1019=
200903170630 METAR LPPR 170630Z 11009KT CAVOK 18/03 Q1019=
200903170600 METAR LPPR 170600Z 11010KT CAVOK 18/03 Q1018=
200903170530 METAR LPPR 170530Z 11010KT CAVOK 18/03 Q1018=
200903170500 METAR LPPR 170500Z 10009KT CAVOK 18/04 Q1018=
200903170430 METAR LPPR 170430Z 10009KT CAVOK 18/05 Q1018=
200903170400 METAR LPPR 170400Z 10008KT CAVOK 18/05 Q1018=
200903170330 METAR LPPR 170330Z 10007KT CAVOK 18/06 Q1018=
200903170300 METAR LPPR 170300Z 10006KT CAVOK 18/06 Q1018=
200903170230 METAR LPPR 170230Z 10005KT CAVOK 18/06 Q1018=
200903170200 METAR LPPR 170200Z 09005KT CAVOK 18/07 Q1018=
200903170130 METAR LPPR 170130Z 09005KT CAVOK 19/07 Q1018=
200903170100 METAR LPPR 170100Z 09006KT CAVOK 18/07 Q1018=
200903170030 METAR LPPR 170030Z 07003KT CAVOK 18/07 Q1018=
200903170000 METAR LPPR 170000Z 00000KT CAVOK 15/09 Q1018=
200903162330 METAR LPPR 162330Z 00000KT CAVOK 16/09 Q1019=
200903162300 METAR LPPR 162300Z 00000KT CAVOK 15/09 Q1019=
200903162230 METAR LPPR 162230Z 00000KT CAVOK 16/09 Q1019=
200903162200 METAR LPPR 162200Z 00000KT CAVOK 17/09 Q1019=
200903162130 METAR LPPR 162130Z 04003KT CAVOK 17/09 Q1019=
200903162100 METAR LPPR 162100Z 00000KT CAVOK 17/09 Q1018=
200903162030 METAR LPPR 162030Z 00000KT CAVOK 17/09 Q1018=
200903162000 METAR LPPR 162000Z 00000KT CAVOK 19/09 Q1018=
200903161930 METAR LPPR 161930Z 00000KT CAVOK 19/09 Q1018=
200903161900 METAR LPPR 161900Z 35003KT CAVOK 21/08 Q1018=
200903161830 METAR LPPR 161830Z 34004KT CAVOK 21/09 Q1018=
200903161800 METAR LPPR 161800Z 33007KT CAVOK 23/09 Q1018=
200903161730 METAR LPPR 161730Z 33008KT CAVOK 25/10 Q1017=
200903161700 METAR LPPR 161700Z 32008KT 290V350 CAVOK 26/10 Q1017=
200903161630 METAR LPPR 161630Z 31007KT 270V340 CAVOK 27/10 Q1017=
200903161600 METAR LPPR 161600Z 07004KT 010V120 CAVOK 28/06 Q1018=
200903161530 METAR LPPR 161530Z 10004KT 010V150 CAVOK 28/07 Q1018=
200903161500 METAR LPPR 161500Z 08004KT 040V130 CAVOK 28/06 Q1018=
200903161430 METAR LPPR 161430Z 09005KT 040V140 CAVOK 28/07 Q1018=
200903161400 METAR LPPR 161400Z 11006KT 080V150 CAVOK 28/08 Q1018=
200903161330 METAR LPPR 161330Z VRB02KT CAVOK 28/09 Q1019=
200903161300 METAR LPPR 161300Z 11004KT 080V160 CAVOK 27/09 Q1019=
200903161230 METAR LPPR 161230Z 12006KT 080V150 CAVOK 26/08 Q1019=
200903161200 METAR LPPR 161200Z 10006KT 070V130 CAVOK 25/09 Q1020=
200903161130 METAR LPPR 161130Z 10008KT CAVOK 24/09 Q1020=
200903161100 METAR LPPR 161100Z 10008KT 050V130 CAVOK 23/08 Q1020=
200903161030 METAR LPPR 161030Z 09007KT 050V130 CAVOK 23/08 Q1020=
200903161000 METAR LPPR 161000Z 10010KT CAVOK 21/08 Q1020=
200903160930 METAR LPPR 160930Z 10010KT 060V120 CAVOK 20/08 Q1020=
200903160900 METAR LPPR 160900Z 10009KT CAVOK 20/08 Q1020=
200903160830 METAR LPPR 160830Z 10008KT CAVOK 19/07 Q1020=
200903160800 METAR LPPR 160800Z 10007KT 060V120 CAVOK 18/07 Q1020=
200903160730 METAR LPPR 160730Z 09008KT CAVOK 17/07 Q1020=
200903160700 METAR LPPR 160700Z 11007KT 080V140 CAVOK 17/07 Q1020=
200903160630 METAR LPPR 160630Z 10007KT 060V120 CAVOK 18/07 Q1020=
200903160600 METAR LPPR 160600Z 10008KT CAVOK 18/07 Q1020=
200903160530 METAR LPPR 160530Z 10007KT CAVOK 18/07 Q1020=
200903160500 METAR LPPR 160500Z 10006KT CAVOK 18/07 Q1020=
200903160430 METAR LPPR 160430Z 11007KT CAVOK 18/07 Q1020=
200903160400 METAR LPPR 160400Z 10008KT CAVOK 18/07 Q1019=
200903160330 METAR LPPR 160330Z 10008KT CAVOK 18/07 Q1019=
200903160300 METAR LPPR 160300Z 10006KT CAVOK 18/07 Q1019=
200903160230 METAR LPPR 160230Z 09005KT CAVOK 18/07 Q1020=
200903160200 METAR LPPR 160200Z 10005KT CAVOK 19/07 Q1020=
200903160130 METAR LPPR 160130Z 10006KT CAVOK 19/07 Q1020=
200903160100 METAR LPPR 160100Z 09005KT CAVOK 18/07 Q1020=
200903160030 METAR LPPR 160030Z 10005KT CAVOK 18/08 Q1020=
200903160000 METAR LPPR 160000Z 09005KT CAVOK 19/08 Q1020=
200903152330 METAR LPPR 152330Z 10004KT CAVOK 19/08 Q1020=
200903152300 METAR LPPR 152300Z 10006KT CAVOK 19/08 Q1020=
200903152230 METAR LPPR 152230Z 10004KT CAVOK 19/08 Q1020=
200903152200 METAR LPPR 152200Z 08003KT CAVOK 16/09 Q1020=
200903152130 METAR LPPR 152130Z 00000KT CAVOK 15/12 Q1020=
200903152100 METAR LPPR 152100Z 00000KT CAVOK 15/12 Q1020=
200903152030 METAR LPPR 152030Z 08002KT CAVOK 16/12 Q1020=
200903152000 METAR LPPR 152000Z 00000KT CAVOK 17/13 Q1020=
200903151930 METAR LPPR 151930Z 00000KT CAVOK 19/13 Q1020=
200903151900 METAR LPPR 151900Z 00000KT CAVOK 19/13 Q1020=
200903151830 METAR LPPR 151830Z 35003KT CAVOK 20/13 Q1020=
200903151800 METAR LPPR 151800Z 32002KT CAVOK 23/12 Q1020=
200903151730 METAR LPPR 151730Z VRB03KT CAVOK 23/12 Q1019=
200903151700 METAR LPPR 151700Z 34007KT CAVOK 24/11 Q1019=
200903151630 METAR LPPR 151630Z 32007KT CAVOK 24/12 Q1019=
200903151600 METAR LPPR 151600Z 10005KT 040V130 CAVOK 26/06 Q1019=
200903151530 METAR LPPR 151530Z 10007KT 060V140 CAVOK 26/06 Q1019=
200903151500 METAR LPPR 151500Z 11009KT 080V140 CAVOK 26/06 Q1019=
200903151430 METAR LPPR 151430Z 09008KT 050V130 CAVOK 26/07 Q1020=
200903151400 METAR LPPR 151400Z 09008KT 050V130 CAVOK 26/07 Q1020=
200903151330 METAR LPPR 151330Z 08007KT 020V120 CAVOK 25/07 Q1020=
200903151300 METAR LPPR 151300Z 09009KT 040V130 CAVOK 24/07 Q1021=
200903151230 METAR LPPR 151230Z 09006KT 040V130 CAVOK 24/07 Q1021=
200903151200 METAR LPPR 151200Z 10006KT 070V150 CAVOK 23/07 Q1021=
200903151130 METAR LPPR 151130Z 08007KT 020V120 CAVOK 22/07 Q1021=
200903151100 METAR LPPR 151100Z 08006KT 030V120 CAVOK 21/06 Q1022=
200903151030 METAR LPPR 151030Z 08006KT 020V130 CAVOK 20/05 Q1022=
200903151000 METAR LPPR 151000Z 08006KT 020V120 CAVOK 20/05 Q1022=
200903150930 METAR LPPR 150930Z VRB03KT CAVOK 18/08 Q1021=
200903150900 METAR LPPR 150900Z 08005KT 040V130 CAVOK 17/07 Q1021=
200903150830 METAR LPPR 150830Z 07006KT 030V120 CAVOK 16/07 Q1021=
200903150800 METAR LPPR 150800Z 06005KT 020V100 CAVOK 13/09 Q1021=
200903150730 METAR LPPR 150730Z 00000KT CAVOK 09/09 Q1021=
200903150700 METAR LPPR 150700Z 00000KT CAVOK 09/08 Q1021=
200903150630 METAR LPPR 150630Z 00000KT CAVOK 09/09 Q1021=
200903150600 METAR LPPR 150600Z 00000KT 8000 SKC 08/08 Q1021=
200903150530 METAR LPPR 150530Z 00000KT 8000 SKC 09/08 Q1021=
200903150500 METAR LPPR 150500Z 00000KT 8000 SKC 09/08 Q1021=
200903150430 METAR LPPR 150430Z 00000KT 8000 SKC 10/09 Q1020=
200903150400 METAR LPPR 150400Z 00000KT 6000 FEW250 10/09 Q1021=
200903150330 METAR LPPR 150330Z 00000KT 6000 FEW250 10/09 Q1020=
200903150300 METAR LPPR 150300Z 00000KT 6000 FEW250 10/09 Q1021=
200903150230 METAR LPPR 150230Z 00000KT 6000 FEW250 10/10 Q1021=
200903150200 METAR LPPR 150200Z 00000KT 6000 FEW250 11/10 Q1021=
200903150130 METAR LPPR 150130Z 00000KT 6000 FEW250 11/10 Q1021=
200903150100 METAR LPPR 150100Z 00000KT 6000 FEW250 10/10 Q1021=
200903150030 METAR LPPR 150030Z 00000KT 6000 FEW250 10/10 Q1021=
200903150000 METAR LPPR 150000Z 00000KT 6000 FEW250 10/10 Q1021=
200903142330 METAR LPPR 142330Z 00000KT 6000 FEW250 11/10 Q1021=
200903142300 METAR LPPR 142300Z 00000KT 8000 FEW250 12/11 Q1021=
200903142230 METAR LPPR 142230Z 00000KT 8000 FEW250 12/11 Q1021=
200903142200 METAR LPPR 142200Z 00000KT 8000 FEW250 12/11 Q1021=
200903142130 METAR LPPR 142130Z 00000KT 8000 FEW250 12/12 Q1021=
200903142100 METAR LPPR 142100Z 00000KT 8000 FEW250 13/12 Q1021=
200903142030 METAR LPPR 142030Z VRB03KT CAVOK 13/12 Q1021=
200903142000 METAR LPPR 142000Z 33004KT CAVOK 13/12 Q1021=
200903141930 METAR LPPR 141930Z 33004KT CAVOK 14/12 Q1021=
200903141900 METAR LPPR 141900Z 33005KT CAVOK 14/12 Q1021=
200903141830 METAR LPPR 141830Z 31006KT CAVOK 16/12 Q1021=
200903141800 METAR LPPR 141800Z 34008KT CAVOK 16/12 Q1021=
200903141730 METAR LPPR 141730Z 34011KT CAVOK 16/12 Q1021=
200903141700 METAR LPPR 141700Z 33012KT CAVOK 17/12 Q1021=
200903141630 METAR LPPR 141630Z 32010KT CAVOK 18/12 Q1021=
200903141600 METAR LPPR 141600Z 32008KT 270V360 CAVOK 18/12 Q1021=
200903141530 METAR LPPR 141530Z 30007KT 270V350 CAVOK 18/11 Q1021=
200903141500 METAR LPPR 141500Z 31009KT CAVOK 18/11 Q1022=
200903141430 METAR LPPR 141430Z 30008KT 270V340 CAVOK 17/12 Q1022=
200903141400 METAR LPPR 141400Z 30008KT 270V330 CAVOK 17/12 Q1022=
200903141330 METAR LPPR 141330Z 30009KT CAVOK 16/11 Q1022=
200903141300 METAR LPPR 141300Z 31008KT CAVOK 17/08 Q1023=
200903141230 METAR LPPR 141230Z 28007G19KT 220V010 8000 BKN250 17/10 Q1023=
200903141200 METAR LPPR 141200Z 28007KT 260V320 8000 BKN250 16/11 Q1023=
200903141130 METAR LPPR 141130Z 00000KT CAVOK 18/10 Q1023=
200903141100 METAR LPPR 141100Z 00000KT CAVOK 16/10 Q1023=
200903141030 METAR LPPR 141030Z 00000KT CAVOK 16/10 Q1023=
200903141000 METAR LPPR 141000Z 00000KT CAVOK 14/10 Q1023=
200903140930 METAR LPPR 140930Z 00000KT CAVOK 13/12 Q1023=
200903140900 METAR LPPR 140900Z 00000KT 6000 BKN250 11/11 Q1023=
200903140830 METAR LPPR 140830Z 00000KT 6000 BKN250 09/09 Q1023=
200903140800 METAR LPPR 140800Z 00000KT 5000 BR BKN250 07/07 Q1023=
200903140730 METAR LPPR 140730Z 00000KT 5000 BR BKN250 07/07 Q1022=
200903140700 METAR LPPR 140700Z 00000KT 5000 BR BKN250 07/07 Q1022=
200903140630 METAR LPPR 140630Z 00000KT 5000 BR BKN250 07/07 Q1022=
200903140600 METAR LPPR 140600Z 00000KT 5000 BR BKN250 07/07 Q1022=
200903140530 METAR LPPR 140530Z 00000KT 5000 BR BKN250 08/08 Q1022=
200903140500 METAR LPPR 140500Z 00000KT 2000 BR VCFG SCT002 08/08 Q1022=
200903140430 METAR LPPR 140430Z 00000KT 0150 R17/0375U R35/0350N FG VV000
                        08/08 Q1022=
200903140400 METAR LPPR 140400Z 00000KT 0200 R17/0350N R35/0350VP1500
                        FG VV000 09/08 Q1022=
200903140330 METAR LPPR 140330Z 00000KT 0100 R17/0350N R35/0250V0350N
                        FG VV000 09/09 Q1022=
200903140300 METAR LPPR 140300Z 00000KT 0100 R17/0250N R35/0250V0350N
                        FG VV000 10/10 Q1022=
200903140230 METAR LPPR 140230Z 00000KT 0100 R17/0350N R35/0400U FG VV000
                        11/07 Q1022=
200903140200 METAR LPPR 140200Z 00000KT 0100 R17/0450N R35/0450N FG VV000
                        10/10 Q1022=
200903140130 METAR LPPR 140130Z 00000KT 0400 R17/0200N R35/0600V0900N
                        FG SCT000 SCT001 09/09 Q1022=
200903140100 METAR LPPR 140100Z 00000KT 0500 R17/0225N R35/0150V0500N
                        BCFG BKN000 10/10 Q1022=
200903140030 METAR LPPR 140030Z 00000KT 0300 R17/0450V0550N R35/0900U
                        FG SCT000 BKN001 11/10 Q1022=
200903140000 METAR LPPR 140000Z 36002KT 0900 R17/P1500 R35/P1500 BCFG
                        SCT000 BKN001 11/11 Q1022=
200903132330 METAR LPPR 132330Z 00000KT 5000 BR SCT003 SCT250 10/09 Q1022=
200903132300 METAR LPPR 132300Z 00000KT CAVOK 10/09 Q1022=
200903132230 METAR LPPR 132230Z 00000KT CAVOK 10/10 Q1022=
200903132200 METAR LPPR 132200Z 00000KT 7000 SCT250 11/10 Q1022=
200903132130 METAR LPPR 132130Z 00000KT 8000 SCT250 11/09 Q1022=
200903132100 METAR LPPR 132100Z 00000KT 9000 SCT250 11/10 Q1022=
200903132030 METAR LPPR 132030Z 00000KT CAVOK 12/10 Q1022=
200903132000 METAR LPPR 132000Z 00000KT 8000 SCT250 13/11 Q1021=
200903131930 METAR LPPR 131930Z 00000KT 8000 SCT250 13/11 Q1021=
200903131900 METAR LPPR 131900Z 00000KT 8000 SCT250 14/11 Q1021=
200903131830 METAR LPPR 131830Z 00000KT CAVOK 15/12 Q1021=
200903131800 METAR LPPR 131800Z 31006KT 280V340 CAVOK 17/12 Q1021=
200903131730 METAR LPPR 131730Z 29007KT 270V330 CAVOK 20/06 Q1021=
200903131700 METAR LPPR 131700Z 28004KT 240V310 CAVOK 21/06 Q1020=
200903131630 METAR LPPR 131630Z 28004KT CAVOK 22/06 Q1020=
200903131600 METAR LPPR 131600Z 30004KT 260V330 CAVOK 22/05 Q1020=
200903131530 METAR LPPR 131530Z VRB03KT CAVOK 21/05 Q1020=
200903131500 METAR LPPR 131500Z 25006KT 210V290 CAVOK 22/07 Q1020=
200903131430 METAR LPPR 131430Z VRB03KT CAVOK 22/06 Q1021=
200903131400 METAR LPPR 131400Z VRB03KT CAVOK 21/07 Q1021=
200903131330 METAR LPPR 131330Z 28006KT 250V310 CAVOK 20/08 Q1021=
200903131300 METAR LPPR 131300Z 29004KT 250V320 CAVOK 21/06 Q1021=
200903131230 METAR LPPR 131230Z 28004KT 260V320 CAVOK 21/09 Q1021=
200903131200 METAR LPPR 131200Z VRB03KT CAVOK 21/10 Q1021=
200903131130 METAR LPPR 131130Z 27007KT CAVOK 21/10 Q1022=
200903131100 METAR LPPR 131100Z VRB02KT CAVOK 22/07 Q1022=
200903131030 METAR LPPR 131030Z 11008KT CAVOK 20/08 Q1022=
200903131000 METAR LPPR 131000Z 11007KT CAVOK 19/07 Q1022=
200903130930 METAR LPPR 130930Z 10008KT CAVOK 17/07 Q1021=
200903130900 METAR LPPR 130900Z 10010KT CAVOK 15/05 Q1021=
200903130830 METAR LPPR 130830Z 10008KT CAVOK 14/05 Q1021=
200903130800 METAR LPPR 130800Z VRB03KT CAVOK 13/05 Q1021=
200903130730 METAR LPPR 130730Z 09004KT 020V120 CAVOK 12/05 Q1021=
200903130700 METAR LPPR 130700Z 10007KT 030V120 CAVOK 12/05 Q1021=
200903130630 METAR LPPR 130630Z VRB03KT CAVOK 11/05 Q1021=
200903130600 METAR LPPR 130600Z 00000KT CAVOK 10/05 Q1021=
200903130530 METAR LPPR 130530Z 00000KT CAVOK 12/05 Q1021=
200903130500 METAR LPPR 130500Z 11007KT 080V140 CAVOK 13/05 Q1020=
200903130430 METAR LPPR 130430Z 10008KT CAVOK 14/05 Q1020=
200903130400 METAR LPPR 130400Z 10005KT 050V150 CAVOK 14/05 Q1020=
200903130330 METAR LPPR 130330Z 10007KT 080V140 CAVOK 14/05 Q1020=
200903130300 METAR LPPR 130300Z 00000KT CAVOK 14/05 Q1020=
200903130230 METAR LPPR 130230Z 10004KT CAVOK 14/05 Q1020=
200903130200 METAR LPPR 130200Z 11009KT CAVOK 15/05 Q1021=
200903130130 METAR LPPR 130130Z 11010KT CAVOK 15/05 Q1021=
200903130100 METAR LPPR 130100Z 10009KT CAVOK 15/05 Q1021=
200903130030 METAR LPPR 130030Z 11009KT CAVOK 16/05 Q1021=
200903130000 METAR LPPR 130000Z 10004KT CAVOK 15/05 Q1021=
200903122330 METAR LPPR 122330Z 00000KT CAVOK 14/04 Q1021=
200903122300 METAR LPPR 122300Z 10003KT CAVOK 15/05 Q1021=
200903122230 METAR LPPR 122230Z 10002KT CAVOK 13/05 Q1021=
200903122200 METAR LPPR 122200Z 00000KT CAVOK 12/06 Q1021=
200903122130 METAR LPPR 122130Z 00000KT CAVOK 12/07 Q1021=
200903122100 METAR LPPR 122100Z 00000KT CAVOK 12/07 Q1021=
200903122030 METAR LPPR 122030Z 00000KT CAVOK 13/07 Q1021=
200903122000 METAR LPPR 122000Z 00000KT CAVOK 14/07 Q1020=
200903121930 METAR LPPR 121930Z 00000KT CAVOK 15/09 Q1020=
200903121900 METAR LPPR 121900Z 00000KT CAVOK 17/10 Q1020=
200903121830 METAR LPPR 121830Z 00000KT CAVOK 19/10 Q1020=
200903121800 METAR LPPR 121800Z 32004KT CAVOK 20/04 Q1020=
200903121730 METAR LPPR 121730Z 33005KT CAVOK 20/04 Q1020=
200903121700 METAR LPPR 121700Z 31004KT 270V330 CAVOK 21/05 Q1020=
200903121630 METAR LPPR 121630Z 30004KT 260V050 CAVOK 21/05 Q1020=
200903121600 METAR LPPR 121600Z 30004KT 260V340 CAVOK 21/06 Q1020=
200903121530 METAR LPPR 121530Z 29005KT 260V320 CAVOK 22/08 Q1020=
200903121500 METAR LPPR 121500Z 25005KT 220V290 CAVOK 23/07 Q1020=
200903121430 METAR LPPR 121430Z 26005KT 220V290 CAVOK 22/08 Q1020=
200903121400 METAR LPPR 121400Z 25005KT CAVOK 22/09 Q1020=
200903121330 METAR LPPR 121330Z 22005KT 190V250 CAVOK 23/08 Q1021=
200903121300 METAR LPPR 121300Z 23006KT 170V270 CAVOK 23/11 Q1021=
200903121230 METAR LPPR 121230Z 12007KT 090V150 CAVOK 24/04 Q1021=
200903121200 METAR LPPR 121200Z 13008KT 100V170 CAVOK 24/05 Q1021=
200903121130 METAR LPPR 121130Z 10008KT 070V130 CAVOK 23/05 Q1021=
200903121100 METAR LPPR 121100Z 09009KT 060V130 CAVOK 22/05 Q1021=
200903121030 METAR LPPR 121030Z 10009KT CAVOK 21/04 Q1021=
200903121000 METAR LPPR 121000Z 09010KT CAVOK 20/04 Q1021=
200903120930 METAR LPPR 120930Z 09009KT CAVOK 19/04 Q1021=
200903120900 METAR LPPR 120900Z 10008KT CAVOK 18/04 Q1021=
200903120830 METAR LPPR 120830Z 10007KT CAVOK 16/04 Q1021=
200903120800 METAR LPPR 120800Z 10008KT CAVOK 15/03 Q1021=
200903120730 METAR LPPR 120730Z 10009KT CAVOK 15/03 Q1020=
200903120700 METAR LPPR 120700Z 10009KT CAVOK 15/02 Q1020=
200903120630 METAR LPPR 120630Z 10009KT CAVOK 15/02 Q1020=
200903120600 METAR LPPR 120600Z 11008KT CAVOK 14/03 Q1020=
200903120530 METAR LPPR 120530Z 11010KT CAVOK 14/04 Q1020=
200903120500 METAR LPPR 120500Z 11009KT CAVOK 14/05 Q1020=
200903120430 METAR LPPR 120430Z 10007KT CAVOK 14/06 Q1020=
200903120400 METAR LPPR 120400Z 11006KT CAVOK 14/07 Q1020=
200903120330 METAR LPPR 120330Z 11005KT 8000 FEW220 12/07 Q1020=
200903120300 METAR LPPR 120300Z 00000KT 8000 FEW250 11/08 Q1020=
200903120230 METAR LPPR 120230Z 00000KT CAVOK 12/08 Q1020=
200903120200 METAR LPPR 120200Z 00000KT CAVOK 13/08 Q1020=
200903120130 METAR LPPR 120130Z 00000KT CAVOK 13/08 Q1021=
200903120100 METAR LPPR 120100Z 08004KT CAVOK 11/08 Q1021=
200903120030 METAR LPPR 120030Z 00000KT CAVOK 09/08 Q1021=
200903120000 METAR LPPR 120000Z 00000KT CAVOK 09/08 Q1021=
200903112330 METAR LPPR 112330Z 00000KT CAVOK 09/08 Q1021=
200903112300 METAR LPPR 112300Z 00000KT CAVOK 09/08 Q1021=
200903112230 METAR LPPR 112230Z 00000KT CAVOK 10/08 Q1021=
200903112200 METAR LPPR 112200Z 00000KT CAVOK 11/08 Q1021=
200903112130 METAR LPPR 112130Z 00000KT CAVOK 11/09 Q1021=
200903112100 METAR LPPR 112100Z 00000KT CAVOK 12/08 Q1021=
200903112030 METAR LPPR 112030Z 00000KT CAVOK 12/09 Q1021=
200903112000 METAR LPPR 112000Z 34003KT CAVOK 13/08 Q1021=
200903111930 METAR LPPR 111930Z 00000KT CAVOK 13/08 Q1020=
200903111900 METAR LPPR 111900Z 34003KT CAVOK 14/08 Q1020=
200903111830 METAR LPPR 111830Z 33004KT CAVOK 16/09 Q1020=
200903111800 METAR LPPR 111800Z 33006KT CAVOK 18/09 Q1020=
200903111730 METAR LPPR 111730Z 32004KT CAVOK 19/09 Q1020=
200903111700 METAR LPPR 111700Z 31005KT CAVOK 20/10 Q1020=
200903111630 METAR LPPR 111630Z 32006KT 270V340 CAVOK 21/09 Q1020=
200903111600 METAR LPPR 111600Z 32006KT 290V350 CAVOK 21/10 Q1020=
200903111530 METAR LPPR 111530Z 31007KT CAVOK 20/10 Q1021=
200903111500 METAR LPPR 111500Z 31007KT CAVOK 21/08 Q1021=
200903111430 METAR LPPR 111430Z 31006KT CAVOK 21/11 Q1021=
200903111400 METAR LPPR 111400Z 32006KT CAVOK 20/10 Q1021=
200903111330 METAR LPPR 111330Z 31007KT CAVOK 19/11 Q1022=
200903111300 METAR LPPR 111300Z 29005KT 260V350 CAVOK 20/12 Q1022=
200903111230 METAR LPPR 111230Z VRB04KT CAVOK 22/13 Q1022=
200903111200 METAR LPPR 111200Z 00000KT CAVOK 22/07 Q1022=
200903111130 METAR LPPR 111130Z 00000KT CAVOK 21/08 Q1023=
200903111100 METAR LPPR 111100Z 11004KT 080V140 CAVOK 20/08 Q1023=
200903111030 METAR LPPR 111030Z VRB02KT CAVOK 19/09 Q1023=
200903111000 METAR LPPR 111000Z 11004KT 080V140 CAVOK 17/07 Q1023=
200903110930 METAR LPPR 110930Z 00000KT CAVOK 16/08 Q1023=
200903110900 METAR LPPR 110900Z 00000KT CAVOK 14/08 Q1023=
200903110830 METAR LPPR 110830Z 00000KT CAVOK 12/08 Q1023=
200903110800 METAR LPPR 110800Z 00000KT CAVOK 11/06 Q1023=
200903110730 METAR LPPR 110730Z 00000KT CAVOK 11/06 Q1022=
200903110700 METAR LPPR 110700Z 09002KT CAVOK 10/06 Q1022=
200903110630 METAR LPPR 110630Z 00000KT CAVOK 10/06 Q1022=
200903110600 METAR LPPR 110600Z 00000KT CAVOK 10/06 Q1022=
200903110530 METAR LPPR 110530Z 00000KT CAVOK 10/07 Q1022=
200903110500 METAR LPPR 110500Z 10005KT CAVOK 11/07 Q1022=
200903110430 METAR LPPR 110430Z 00000KT CAVOK 10/06 Q1022=
200903110400 METAR LPPR 110400Z 00000KT CAVOK 09/06 Q1022=
200903110330 METAR LPPR 110330Z 00000KT CAVOK 09/05 Q1022=
200903110300 METAR LPPR 110300Z 00000KT CAVOK 11/06 Q1022=
200903110230 METAR LPPR 110230Z 00000KT CAVOK 11/06 Q1022=
200903110200 METAR LPPR 110200Z 00000KT CAVOK 10/06 Q1023=
200903110130 METAR LPPR 110130Z 00000KT CAVOK 09/06 Q1023=
200903110100 METAR LPPR 110100Z 00000KT CAVOK 08/05 Q1023=
200903110030 METAR LPPR 110030Z 00000KT CAVOK 08/06 Q1023=
200903110000 METAR LPPR 110000Z 00000KT CAVOK 08/06 Q1023=
200903102330 METAR LPPR 102330Z 00000KT CAVOK 09/07 Q1022=
200903102300 METAR LPPR 102300Z 00000KT CAVOK 09/07 Q1022=
200903102230 METAR LPPR 102230Z 00000KT CAVOK 10/07 Q1023=
200903102200 METAR LPPR 102200Z 00000KT CAVOK 10/08 Q1023=
200903102130 METAR LPPR 102130Z 00000KT CAVOK 10/07 Q1022=
200903102100 METAR LPPR 102100Z 00000KT CAVOK 11/09 Q1022=
200903102030 METAR LPPR 102030Z 00000KT CAVOK 11/09 Q1022=
200903102000 METAR LPPR 102000Z 35002KT CAVOK 12/09 Q1022=
200903101930 METAR LPPR 101930Z 00000KT CAVOK 12/10 Q1023=
200903101900 METAR LPPR 101900Z 00000KT CAVOK 14/11 Q1022=
200903101830 METAR LPPR 101830Z 00000KT CAVOK 16/11 Q1022=
200903101800 METAR LPPR 101800Z 33004KT CAVOK 18/07 Q1022=
200903101730 METAR LPPR 101730Z 32003KT CAVOK 19/09 Q1022=
200903101700 METAR LPPR 101700Z 32005KT CAVOK 19/09 Q1022=
200903101630 METAR LPPR 101630Z 30004G17KT 260V010 CAVOK 19/09 Q1022=
200903101600 METAR LPPR 101600Z 30006KT 270V330 CAVOK 20/08 Q1022=
200903101530 METAR LPPR 101530Z 32006KT 280V340 CAVOK 19/09 Q1022=
200903101500 METAR LPPR 101500Z 31006KT 290V350 CAVOK 19/09 Q1022=
200903101430 METAR LPPR 101430Z 30007KT CAVOK 19/09 Q1022=
200903101400 METAR LPPR 101400Z 31008KT CAVOK 19/09 Q1023=
200903101330 METAR LPPR 101330Z 31008KT 280V340 CAVOK 18/08 Q1023=
200903101300 METAR LPPR 101300Z 28007KT CAVOK 18/10 Q1023=
200903101230 METAR LPPR 101230Z 28006KT 250V330 CAVOK 18/09 Q1023=
200903101200 METAR LPPR 101200Z 25004KT 210V270 CAVOK 20/10 Q1023=
200903101130 METAR LPPR 101130Z VRB02KT CAVOK 20/06 Q1023=
200903101100 METAR LPPR 101100Z 13004KT 090V170 CAVOK 19/06 Q1023=
200903101030 METAR LPPR 101030Z 10004KT 050V130 CAVOK 18/06 Q1023=
200903101000 METAR LPPR 101000Z VRB03KT CAVOK 17/06 Q1023=
200903100930 METAR LPPR 100930Z VRB02KT CAVOK 16/05 Q1023=
200903100900 METAR LPPR 100900Z 00000KT CAVOK 13/07 Q1022=
200903100830 METAR LPPR 100830Z 00000KT CAVOK 10/06 Q1022=
200903100800 METAR LPPR 100800Z 00000KT CAVOK 08/05 Q1022=
200903100730 METAR LPPR 100730Z 00000KT CAVOK 07/03 Q1022=
200903100700 METAR LPPR 100700Z 00000KT CAVOK 08/03 Q1022=
200903100630 METAR LPPR 100630Z 00000KT CAVOK 09/04 Q1022=
200903100600 METAR LPPR 100600Z 00000KT CAVOK 09/04 Q1021=
200903100530 METAR LPPR 100530Z 00000KT CAVOK 09/04 Q1021=
200903100500 METAR LPPR 100500Z 00000KT CAVOK 09/04 Q1021=
200903100430 METAR LPPR 100430Z 00000KT CAVOK 09/04 Q1021=
200903100400 METAR LPPR 100400Z 00000KT CAVOK 11/04 Q1020=
200903100330 METAR LPPR 100330Z 00000KT CAVOK 11/04 Q1020=
200903100300 METAR LPPR 100300Z 00000KT CAVOK 11/05 Q1020=
200903100230 METAR LPPR 100230Z 00000KT CAVOK 10/05 Q1020=
200903100200 METAR LPPR 100200Z 00000KT CAVOK 10/06 Q1021=
200903100130 METAR LPPR 100130Z 00000KT CAVOK 10/06 Q1021=
200903100100 METAR LPPR 100100Z 00000KT CAVOK 11/06 Q1021=
200903100030 METAR LPPR 100030Z 00000KT CAVOK 12/07 Q1021=
200903100000 METAR LPPR 100000Z 10005KT CAVOK 14/07 Q1021=
200903092330 METAR LPPR 092330Z 00000KT CAVOK 11/07 Q1021=
200903092300 METAR LPPR 092300Z 00000KT CAVOK 13/08 Q1021=
200903092230 METAR LPPR 092230Z 10003KT CAVOK 12/08 Q1021=
200903092200 METAR LPPR 092200Z 00000KT CAVOK 11/09 Q1021=
200903092130 METAR LPPR 092130Z 00000KT CAVOK 11/09 Q1021=
200903092100 METAR LPPR 092100Z 00000KT CAVOK 12/09 Q1021=
200903092030 METAR LPPR 092030Z 00000KT CAVOK 12/09 Q1021=
200903092000 METAR LPPR 092000Z 00000KT CAVOK 12/09 Q1021=
200903091930 METAR LPPR 091930Z 00000KT CAVOK 13/09 Q1021=
200903091900 METAR LPPR 091900Z 36003KT CAVOK 13/09 Q1020=
200903091830 METAR LPPR 091830Z 00000KT CAVOK 15/10 Q1020=
200903091800 METAR LPPR 091800Z 33003KT CAVOK 16/09 Q1020=
200903091730 METAR LPPR 091730Z 34008KT CAVOK 17/08 Q1020=
200903091700 METAR LPPR 091700Z 34010KT CAVOK 17/06 Q1020=
200903091630 METAR LPPR 091630Z 34011KT CAVOK 17/07 Q1020=
200903091600 METAR LPPR 091600Z 33010KT CAVOK 18/08 Q1020=
200903091530 METAR LPPR 091530Z 31010KT CAVOK 19/10 Q1020=
200903091500 METAR LPPR 091500Z 29005KT 260V320 CAVOK 20/10 Q1020=
200903091430 METAR LPPR 091430Z 30007KT CAVOK 20/10 Q1020=
200903091400 METAR LPPR 091400Z 31005KT 270V340 CAVOK 20/10 Q1020=
200903091330 METAR LPPR 091330Z VRB02KT CAVOK 21/07 Q1021=
200903091300 METAR LPPR 091300Z 11006KT 050V140 CAVOK 20/07 Q1021=
200903091230 METAR LPPR 091230Z 09007KT 050V130 CAVOK 19/07 Q1021=
200903091200 METAR LPPR 091200Z 09007KT 040V140 CAVOK 18/07 Q1022=
200903091130 METAR LPPR 091130Z 10009KT 060V130 CAVOK 18/07 Q1022=
200903091100 METAR LPPR 091100Z 09006KT 050V120 CAVOK 17/07 Q1022=
200903091030 METAR LPPR 091030Z 08004KT 040V120 CAVOK 17/08 Q1022=
200903091000 METAR LPPR 091000Z 08005KT 030V110 CAVOK 16/07 Q1022=
200903090930 METAR LPPR 090930Z 08006KT 030V110 CAVOK 15/07 Q1022=
200903090900 METAR LPPR 090900Z VRB02KT CAVOK 13/07 Q1022=
200903090830 METAR LPPR 090830Z 05004KT 020V100 CAVOK 13/06 Q1022=
200903090800 METAR LPPR 090800Z 05004KT 010V090 CAVOK 12/06 Q1021=
200903090730 METAR LPPR 090730Z 05003KT CAVOK 10/06 Q1021=
200903090700 METAR LPPR 090700Z 04004KT 010V070 CAVOK 19/09 Q1020=
200903090630 METAR LPPR 090630Z VRB03KT CAVOK 07/05 Q1020=
200903090600 METAR LPPR 090600Z 00000KT CAVOK 05/04 Q1020=
200903090530 METAR LPPR 090530Z 00000KT CAVOK 07/06 Q1020=
200903090500 METAR LPPR 090500Z 04003KT CAVOK 07/06 Q1020=
200903090430 METAR LPPR 090430Z 00000KT CAVOK 07/06 Q1020=
200903090400 METAR LPPR 090400Z 00000KT CAVOK 06/05 Q1020=
200903090330 METAR LPPR 090330Z 00000KT CAVOK 07/06 Q1020=
200903090300 METAR LPPR 090300Z 00000KT CAVOK 08/07 Q1020=
200903090230 METAR LPPR 090230Z 00000KT CAVOK 07/06 Q1020=
200903090200 METAR LPPR 090200Z 36003KT CAVOK 09/07 Q1020=
200903090130 METAR COR LPPR 090130Z 01003KT CAVOK 09/07 Q1020=
200903090100 METAR LPPR 090100Z 36006KT CAVOK 09/08 Q1021=
200903090030 METAR LPPR 090030Z 01003KT CAVOK 09/08 Q1020=
200903090000 METAR LPPR 090000Z 35005KT CAVOK 10/07 Q1020=
200903082330 METAR LPPR 082330Z 36005KT CAVOK 10/08 Q1020=
200903082300 METAR LPPR 082300Z 35007KT CAVOK 10/09 Q1020=
200903082230 METAR LPPR 082230Z 35005KT CAVOK 11/09 Q1020=
200903082200 METAR LPPR 082200Z 35010KT CAVOK 11/09 Q1020=
200903082130 METAR LPPR 082130Z 36006KT CAVOK 12/10 Q1020=
200903082100 METAR LPPR 082100Z 35011KT CAVOK 12/11 Q1020=
200903082030 METAR LPPR 082030Z 35006KT CAVOK 10/09 Q1020=
200903082000 METAR LPPR 082000Z 35004KT CAVOK 11/10 Q1020=
200903081930 METAR LPPR 081930Z 34009KT CAVOK 12/11 Q1020=
200903081900 METAR LPPR 081900Z 34011KT CAVOK 12/11 Q1019=
200903081830 METAR LPPR 081830Z 33012KT CAVOK 13/11 Q1019=
200903081800 METAR LPPR 081800Z 33013KT CAVOK 14/11 Q1019=
200903081730 METAR LPPR 081730Z 34013KT CAVOK 15/10 Q1019=
200903081700 METAR LPPR 081700Z 33016KT CAVOK 15/10 Q1019=
200903081630 METAR LPPR 081630Z 34016KT CAVOK 16/10 Q1020=
200903081600 METAR LPPR 081600Z 32011KT 290V350 CAVOK 17/10 Q1020=
200903081530 METAR LPPR 081530Z 31010KT 290V350 CAVOK 17/10 Q1020=
200903081500 METAR LPPR 081500Z 32011KT 290V350 CAVOK 17/11 Q1020=
200903081430 METAR LPPR 081430Z 31011KT 9999 SCT030 17/11 Q1020=
200903081400 METAR LPPR 081400Z 31011KT 9999 SCT025 16/11 Q1020=
200903081330 METAR LPPR 081330Z 33010KT 290V360 9999 SCT025 17/09 Q1021=
200903081300 METAR LPPR 081300Z VRB04KT 9999 SCT025 17/10 Q1021=
200903081230 METAR LPPR 081230Z 32005KT 280V010 9999 SCT024 16/10 Q1021=
200903081200 METAR LPPR 081200Z 30006KT 260V360 9999 SCT020 15/10 Q1022=
200903081130 METAR LPPR 081130Z 01004KT 340V050 9999 SCT012 15/10 Q1022=
200903081100 METAR LPPR 081100Z 35006KT 320V030 9999 SCT010 14/10 Q1022=
200903081030 METAR LPPR 081030Z 01006KT 9999 SCT010 13/10 Q1022=
200903081000 METAR LPPR 081000Z 36005KT 330V040 9999 FEW007 12/10 Q1021=
200903080930 METAR LPPR 080930Z 36005KT 9999 FEW007 12/11 Q1021=
200903080900 METAR LPPR 080900Z 00000KT 9999 FEW004 10/10 Q1021=
200903080830 METAR LPPR 080830Z 00000KT 5000 BR FEW002 09/09 Q1021=
200903080800 METAR LPPR 080800Z 00000KT 3000 BR FEW002 07/07 Q1021=
200903080730 METAR LPPR 080730Z 00000KT 0900 R17/0650V1100U R35/P1500
                        BCFG SCT002 06/06 Q1021=
200903080700 METAR LPPR 080700Z 00000KT 0900 R17/0400V0500N R35/P1500
                        BCFG FEW002 06/06 Q1021=
200903080630 METAR LPPR 080630Z 00000KT 2500 BR FEW003 07/07 Q1021=
200903080600 METAR LPPR 080600Z 00000KT 3000 BR FEW004 07/07 Q1021=
200903080530 METAR LPPR 080530Z 00000KT 3000 BR FEW004 07/07 Q1021=
200903080500 METAR LPPR 080500Z 00000KT 3000 BR FEW004 08/08 Q1021=
200903080430 METAR LPPR 080430Z 01003KT 4000 BR FEW004 08/08 Q1020=
200903080400 METAR LPPR 080400Z 34003KT 4000 BR SCT006 09/09 Q1020=
200903080330 METAR LPPR 080330Z 00000KT 2000 R17/0450V0700N R35/0750V1200U
                        BCFG BR FEW000 08/08 Q1021=
200903080300 METAR LPPR 080300Z 00000KT 2000 R17/0800N R35/0350N BCFG
                        BR FEW000 08/08 Q1021=
200903080230 METAR LPPR 080230Z 33002KT 3000 R17/0750D R35/0550D BCFG
                        BR FEW008 08/08 Q1021=
200903080200 METAR LPPR 080200Z 00000KT 5000 BR FEW008 09/09 Q1021=
200903080130 METAR LPPR 080130Z 35003KT 8000 FEW250 09/08 Q1021=
200903080100 METAR LPPR 080100Z 35002KT CAVOK 09/09 Q1022=
200903080030 METAR LPPR 080030Z 00000KT CAVOK 10/10 Q1022=
200903080000 METAR LPPR 080000Z VRB03G13KT CAVOK 10/10 Q1022=
200903072330 METAR LPPR 072330Z 33003KT CAVOK 10/10 Q1022=
200903072300 METAR LPPR 072300Z 35003KT CAVOK 10/10 Q1021=
200903072230 METAR LPPR 072230Z 00000KT CAVOK 10/10 Q1022=
200903072200 METAR LPPR 072200Z 34002KT CAVOK 11/11 Q1022=
200903072130 METAR LPPR 072130Z 00000KT CAVOK 11/10 Q1022=
200903072100 METAR LPPR 072100Z 35005KT CAVOK 11/11 Q1022=
200903072030 METAR LPPR 072030Z 34003KT CAVOK 12/11 Q1022=
200903072000 METAR LPPR 072000Z 35005KT CAVOK 12/11 Q1022=
200903071930 METAR LPPR 071930Z 34008KT CAVOK 12/11 Q1021=
200903071900 METAR LPPR 071900Z 34009KT CAVOK 13/12 Q1022=
200903071830 METAR LPPR 071830Z 33009KT CAVOK 14/12 Q1022=
200903071800 METAR LPPR 071800Z 33008KT 280V350 CAVOK 14/12 Q1022=
200903071730 METAR LPPR 071730Z 33014KT CAVOK 15/12 Q1022=
200903071700 METAR LPPR 071700Z 33010KT 9999 FEW008 16/13 Q1022=
200903071630 METAR LPPR 071630Z 33011KT 9999 FEW017 16/13 Q1022=
200903071600 METAR LPPR 071600Z 34015KT 9999 FEW017 16/13 Q1022=
200903071530 METAR LPPR 071530Z 33012KT 9999 FEW015 16/13 Q1022=
200903071500 METAR LPPR 071500Z 31012KT 9999 FEW015 16/13 Q1022=
200903071430 METAR LPPR 071430Z 32013KT 9999 FEW015 16/13 Q1022=
200903071400 METAR LPPR 071400Z 33010KT 9999 FEW015 17/14 Q1023=
200903071330 METAR LPPR 071330Z 31012KT 9999 FEW013 16/13 Q1023=
200903071300 METAR LPPR 071300Z 31013KT 9999 FEW013 SCT020 16/13 Q1023=
200903071230 METAR LPPR 071230Z 30010KT 270V350 9999 FEW013 SCT020 16/14
                        Q1023=
200903071200 METAR LPPR 071200Z 30009KT 270V340 9999 FEW013 SCT020 16/13
                        Q1023=
200903071130 METAR LPPR 071130Z 32009KT 9999 SCT013 16/13 Q1023=
200903071100 METAR LPPR 071100Z 32008KT 290V350 9999 SCT013 16/13 Q1023=
200903071030 METAR LPPR 071030Z 30008KT 260V360 9999 SCT013 16/13 Q1023=
200903071000 METAR LPPR 071000Z 00000KT 9999 SCT013 15/12 Q1023=
200903070930 METAR LPPR 070930Z 34006KT 9999 FEW013 SCT250 15/13 Q1023=
200903070900 METAR LPPR 070900Z 35007KT 9999 FEW013 BKN250 14/12 Q1023=
200903070830 METAR LPPR 070830Z 35006KT 9999 FEW030 BKN250 13/13 Q1023=
200903070800 METAR LPPR 070800Z 33004KT 9999 FEW030 SCT250 13/12 Q1023=
200903070730 METAR LPPR 070730Z 33004KT 9999 SCT030 12/12 Q1022=
200903070700 METAR LPPR 070700Z 34005KT 9999 FEW008 BKN025 12/12 Q1022=
200903070630 METAR LPPR 070630Z 34006KT 9999 SCT007 BKN025 12/12 Q1022=
200903070600 METAR LPPR 070600Z 34006KT 9999 SCT006 BKN020 12/12 Q1022=
200903070530 METAR LPPR 070530Z 36003KT 9999 SCT003 SCT007 BKN020 12/12
                        Q1022=
200903070500 METAR LPPR 070500Z 35005KT 9999 SCT003 SCT006 BKN016 13/12
                        Q1022=
200903070430 METAR LPPR 070430Z 34012KT 9999 SCT002 SCT005 BKN012 13/12
                        Q1022=
200903070400 METAR LPPR 070400Z 33011KT 9999 SCT003 SCT005 BKN012 13/12
                        Q1021=
200903070330 METAR LPPR 070330Z 34009KT 9999 SCT002 SCT005 BKN015 13/12
                        Q1021=
200903070300 METAR LPPR 070300Z 33010KT 9999 SCT003 SCT005 BKN012 13/12
                        Q1022=
200903070230 METAR LPPR 070230Z 33012KT 9999 SCT002 BKN004 13/13 Q1022=
200903070200 METAR LPPR 070200Z 33011KT 9999 SCT004 SCT007 BKN014 13/13
                        Q1022=
200903070130 METAR LPPR 070130Z 33011KT 9999 SCT003 SCT007 BKN012 13/13
                        Q1022=
200903070100 METAR LPPR 070100Z 33013KT 9999 SCT003 BKN007 13/13 Q1022=
200903070030 METAR LPPR 070030Z 33012KT 9999 SCT003 BKN006 13/13 Q1022=
200903070000 METAR LPPR 070000Z 33011KT 9999 SCT003 BKN006 13/13 Q1022=
200903062330 METAR LPPR 062330Z 33011KT 9999 SCT003 BKN006 13/13 Q1022=
200903062300 METAR LPPR 062300Z 33012KT 9999 SCT003 BKN006 13/13 Q1022=
200903062230 METAR LPPR 062230Z 33013KT 9999 SCT004 BKN007 13/13 Q1021=
200903062200 METAR LPPR 062200Z 33013KT 9999 SCT002 BKN004 13/13 Q1021=
200903062130 METAR LPPR 062130Z 33009KT 8000 SCT002 BKN004 13/13 Q1021=
200903062100 METAR LPPR 062100Z 33009KT 290V350 1800 VCSH BR SCT001 BKN002
                        13/13 Q1021=
200903062030 METAR LPPR 062030Z 32010KT 1800 VCSH BR SCT001 BKN002 13/13
                        Q1021=
200903062000 METAR LPPR 062000Z 32011KT 1500 -DZ BR SCT001 BKN002 13/13
                        Q1021=
200903061930 METAR LPPR 061930Z 32011KT 1500 -DZ BR BKN001 BKN002 13/13
                        Q1021=
200903061900 METAR LPPR 061900Z 32011KT 1500 -DZ BR BKN001 BKN002 13/13
                        Q1020 WS ALL RWY=
200903061830 METAR LPPR 061830Z 32012G22KT 2000 BR VCSH BKN001 BKN003
                        13/12 Q1020 WS ALL RWY=
200903061800 METAR LPPR 061800Z 32013KT 3000 BR VCSH SCT001 BKN003 BKN005
                        13/12 Q1020 WS ALL RWY=
200903061730 METAR LPPR 061730Z 32015KT 290V350 4000 BR VCSH SCT002 BKN005
                        BKN007 13/12 Q1020=
200903061700 METAR LPPR 061700Z 33014KT 5000 BR VCSH SCT007 BKN012 13/12
                        Q1020=
200903061630 METAR LPPR 061630Z 32014KT 5000 BR VCSH SCT009 BKN012 13/12
                        Q1020=
200903061600 METAR LPPR 061600Z 32014KT 5000 BR VCSH SCT006 BKN009 13/12
                        Q1019=
200903061530 METAR LPPR 061530Z 32013KT 5000 BR VCSH SCT006 BKN009 13/12
                        Q1019=
200903061500 METAR LPPR 061500Z 32016G28KT 7000 SCT006 BKN008 13/12 Q1019
                        WS ALL RWY=
200903061430 METAR LPPR 061430Z 33015KT 7000 SCT006 BKN008 13/13 Q1019=
200903061400 METAR LPPR 061400Z 33016G26KT 8000 SCT006 BKN008 13/12 Q1019
                        WS ALL RWY=
200903061330 METAR LPPR 061330Z 32016G26KT 4000 BR SCT005 BKN007 13/13
                        Q1019 WS ALL RWY=
200903061300 METAR LPPR 061300Z 32019KT 3000 BR SCT001 SCT003 BKN005 13/13
                        Q1019=
200903061230 METAR LPPR 061230Z 32018G31KT 3000 BR SCT002 BKN003 13/13
                        Q1019 WS ALL RWY=
200903061200 METAR LPPR 061200Z 32016KT 4000 BR SCT002 SCT003 BKN007 13/13
                        Q1019 WS ALL RWY=
200903061130 METAR LPPR 061130Z 32016KT 1900 -DZ BR SCT001 BKN003 13/13
                        Q1019 WS ALL RWY=
200903061100 METAR LPPR 061100Z 32014G24KT 1900 -DZ BR SCT001 BKN003 13/13
                        Q1019=
200903061030 METAR LPPR 061030Z 32017KT 3000 -DZ BR SCT003 BKN005 13/13
                        Q1019=
200903061000 METAR LPPR 061000Z 32017KT 3000 -DZ BR SCT004 BKN007 13/13
                        Q1018=
200903060930 METAR LPPR 060930Z 32018KT 2000 -DZ BR SCT002 BKN005 13/13
                        Q1018 WS ALL RWY=
200903060900 METAR LPPR 060900Z 32018KT 2000 -DZ BR SCT002 BKN005 13/13
                        Q1018 WS ALL RWY=
200903060830 METAR LPPR 060830Z 32021KT 4000 BR SCT002 BKN005 13/13 Q1017
                        WS ALL RWY=
200903060800 METAR LPPR 060800Z 32015G27KT 280V340 3000 -DZ BR SCT001
                        BKN005 13/13 Q1017 WS ALL RWY=
200903060730 METAR LPPR 060730Z 32015KT 290V350 4000 -DZ BR SCT002 BKN005
                        13/13 Q1017 WS ALL RWY=
200903060700 METAR LPPR 060700Z 32014KT 290V350 4000 -DZ BR SCT002 BKN005
                        13/13 Q1016 WS ALL RWY=
200903060630 METAR LPPR 060630Z 32016G27KT 290V350 4000 -DZ BR SCT002
                        BKN006 13/13 Q1016 WS ALL RWY=
200903060600 METAR LPPR 060600Z 32017KT 3000 -DZ BR SCT002 BKN005 13/13
                        Q1016 WS ALL RWY=
200903060530 METAR LPPR 060530Z 32015G27KT 3000 -DZ BR SCT002 BKN005 13/13
                        Q1015 WS ALL RWY=
200903060500 METAR LPPR 060500Z 31015KT 3000 -DZ BR SCT002 BKN006 13/13
                        Q1015=
200903060430 METAR LPPR 060430Z 33008KT 290V350 3000 -DZ BR SCT001 SCT003
                        BKN006 11/11 Q1015=
200903060400 METAR LPPR 060400Z 00000KT 2500 DZ BR SCT001 BKN004 11/10
                        Q1015=
200903060330 METAR LPPR 060330Z 00000KT 3000 -DZ BR SCT001 BKN004 11/10
                        Q1015=
200903060300 METAR LPPR 060300Z 00000KT 3000 -DZ BR SCT001 BKN004 11/10
                        Q1015=
200903060230 METAR LPPR 060230Z 00000KT 3000 -DZ BR SCT001 BKN003 11/10
                        Q1016=
200903060200 METAR LPPR 060200Z 00000KT 3000 -DZ BR SCT001 BKN004 11/10
                        Q1016=
200903060130 METAR LPPR 060130Z 32003KT 4000 -DZ BR SCT003 SCT005 BKN012
                        11/10 Q1016=
200903060100 METAR LPPR 060100Z 33005KT 9999 FEW004 SCT007 BKN012 10/10
                        Q1016=
200903060030 METAR LPPR 060030Z 33012KT 6000 -DZ SCT004 SCT008 BKN020
                        11/10 Q1017=
200903060000 METAR LPPR 060000Z 32014G24KT 6000 -SHRA SCT008 SCT013 BKN025
                        12/09 Q1016=
200903052330 METAR LPPR 052330Z 32011KT 9999 SCT015 BKN030 12/09 Q1016=
200903052300 METAR LPPR 052300Z 32011KT 9999 SCT015 BKN030 12/09 Q1016=
200903052230 METAR LPPR 052230Z 33011KT 9999 FEW015 BKN035 11/08 Q1016=
200903052200 METAR LPPR 052200Z 33006KT 9999 FEW015 SCT025 11/08 Q1016=
200903052130 METAR LPPR 052130Z 33009KT 9999 FEW013 SCT030 11/07 Q1016=
200903052100 METAR LPPR 052100Z 35005KT 330V040 9999 SCT015 BKN030 11/08
                        Q1016=
200903052030 METAR LPPR 052030Z 34007KT 9999 FEW015 BKN030 11/07 Q1016=
200903052000 METAR LPPR 052000Z 33012KT 9999 FEW013 BKN025 11/07 Q1016=
200903051930 METAR LPPR 051930Z 33009KT 290V350 9999 FEW013 11/07 Q1015=
200903051900 METAR LPPR 051900Z 33009KT 9999 FEW013 11/07 Q1015=
200903051830 METAR LPPR 051830Z 33014KT 9999 BKN013 SCT040 11/07 Q1015
                        WS ALL RWY=
200903051800 METAR LPPR 051800Z 32016KT 8000 -SHRA BKN013 FEW017TCU 12/08
                        Q1015 WS ALL RWY=
200903051730 METAR LPPR 051730Z 33016G26KT 9999 SCT013 FEW017TCU 11/07
                        Q1014 WS ALL RWY=
200903051700 METAR LPPR 051700Z 33014KT 9999 SCT013 FEW017TCU BKN040 10/07
                        Q1014 WS ALL RWY=
200903051630 METAR LPPR 051630Z 33016KT 9999 SCT013 FEW017TCU SCT030 13/07
                        Q1014 WS ALL RWY=
200903051600 METAR LPPR 051600Z 32019KT 9999 SCT013 FEW017TCU SCT030 12/07
                        Q1014 WS ALL RWY=
200903051530 METAR LPPR 051530Z 33016KT 9999 SCT013 FEW017TCU SCT030 13/07
                        Q1014 WS ALL RWY=
200903051500 METAR LPPR 051500Z 32018KT 280V350 9999 SCT013 FEW017TCU
                        SCT030 12/07 Q1014 WS ALL RWY=
200903051430 METAR LPPR 051430Z 32021G39KT 9999 -SHRA SCT013 FEW017TCU
                        SCT040 11/09 Q1013 RERA WS ALL RWY=
200903051400 METAR LPPR 051400Z 33015G26KT 9999 SCT013 FEW017TCU BKN250
                        13/08 Q1013 WS ALL RWY=
200903051330 METAR LPPR 051330Z 34023G37KT 9999 SCT013 SCT030 11/08 Q1013
                        WS ALL RWY=
200903051300 METAR LPPR 051300Z 32016KT 290V350 9999 SCT013 SCT020 12/08
                        Q1013 WS ALL RWY=
200903051230 METAR LPPR 051230Z 34015KT 9999 BKN013 SCT020 12/08 Q1013
                        WS ALL RWY=
200903051200 METAR LPPR 051200Z 32023KT 7000 -SHRA BKN013 SCT020 12/08
                        Q1013 WS ALL RWY=
200903051130 METAR LPPR 051130Z 33022G33KT 9999 BKN015 SCT250 13/07 Q1012
                        WS ALL RWY=
200903051100 METAR LPPR 051100Z 32015KT 290V350 9999 SCT015 BKN040 11/09
                        Q1012 RERA WS ALL RWY=
200903051030 METAR LPPR 051030Z 32020G32KT 9999 SCT015 BKN040 12/07 Q1011
                        WS ALL RWY=
200903051000 METAR LPPR 051000Z 33020KT 9999 SCT015 BKN040 11/07 Q1011
                        WS ALL RWY=
200903050930 METAR LPPR 050930Z 03023G40KT 360V060 9999 -SHRA BKN013 SCT030
                        11/07 Q1011 WS ALL RWY=
200903050900 METAR LPPR 050900Z 03023G40KT 9999 BKN013 SCT060 BKN250 11/07
                        Q1010 WS ALL RWY=
200903050830 METAR LPPR 050830Z 03023G40KT 8000 -SHRA BKN013 BKN040 11/07
                        Q1009 WS ALL RWY=
200903050800 METAR LPPR 050800Z 03023G40KT 8000 BKN013 BKN040 11/07 Q1009
                        WS ALL RWY=
200903050730 METAR LPPR 050730Z 03023G40KT 8000 -SHRA BKN013 BKN025 11/06
                        Q1008 WS ALL RWY=
200903050700 METAR LPPR 050700Z 02018G29KT 7000 -SHRA BKN013 SCT025 10/08
                        Q1007 WS ALL RWY=
200903050630 METAR COR LPPR 050630Z 02018G29KT 7000 -SHRA BKN013 SCT025
                        10/08 Q1008 WS ALL RWY=
200903050600 METAR LPPR 050600Z 02025G41KT 7000 -SHRA BKN013 SCT025 11/08
                        Q1007 WS ALL RWY=
200903050530 METAR LPPR 050530Z 02021G32KT 5000 -SHRA BKN013 SCT020 10/08
                        Q1006 WS ALL RWY=
200903050500 METAR LPPR 050500Z 01016KT 6000 BKN013 SCT020 11/09 Q1006
                        RERA WS ALL RWY=
200903050430 METAR LPPR 050430Z 02019G30KT 4000 SHRA BKN013 SCT020 12/10
                        Q1005 WS ALL RWY=
200903050400 METAR LPPR 050400Z 02018KT 8000 -SHRA BKN015 SCT020 11/09
                        Q1005 WS ALL RWY=
200903050330 METAR LPPR 050330Z 02023G34KT 350V050 5000 -SHRA BKN013 SCT020
                        11/10 Q1005 WS ALL RWY=
200903050300 METAR LPPR 050300Z 01010KT 340V040 6000 -SHRA BKN013 SCT020
                        12/11 Q1005 WS ALL RWY=
200903050230 METAR LPPR 050230Z 01016G26KT 5000 -SHRA SCT008 BKN013 12/11
                        Q1005 WS ALL RWY=
200903050200 METAR LPPR 050200Z 36016G28KT 330V030 6000 FEW008 BKN013
                        13/11 Q1005 WS ALL RWY=
200903050130 METAR LPPR 050130Z 35016G26KT 320V030 8000 BKN013 SCT020
                        13/11 Q1005 WS ALL RWY=
200903050100 METAR LPPR 050100Z 35015G29KT 6000 FEW009 BKN013 13/12 Q1005
                        WS ALL RWY=
200903050030 METAR LPPR 050030Z 35014G26KT 310V030 5000 -SHRA FEW006 BKN013
                        13/12 Q1004 WS ALL RWY=
200903050000 METAR LPPR 050000Z 35017G27KT 320V020 8000 -SHRA FEW006 BKN013
                        13/12 Q1005 WS ALL RWY=
200903042330 METAR LPPR 042330Z 32011G25KT 280V010 5000 -SHRA SCT005 BKN013
                        12/12 Q1005 WS ALL RWY=
200903042300 METAR LPPR 042300Z 33005KT 280V010 3000 -SHRA SCT003 BKN013
                        11/11 Q1005=
200903042230 METAR LPPR 042230Z 33007KT 300V360 5000 -SHRA SCT006 BKN013
                        11/11 Q1006=
200903042200 METAR LPPR 042200Z 32008KT 280V360 5000 -SHRA SCT005 BKN013
                        11/10 Q1007=
200903042130 METAR LPPR 042130Z 33011KT 280V360 5000 -SHRA SCT009 BKN013
                        10/10 Q1007=
200903042100 METAR LPPR 042100Z 33005G17KT 300V010 5000 -SHRA SCT006 BKN013
                        09/09 Q1007=
200903042030 METAR LPPR 042030Z 02004KT 350V050 8000 -SHRA SCT015 BKN030
                        09/08 Q1008=
200903042000 METAR LPPR 042000Z 34007KT 270V030 8000 -SHRA SCT015 BKN030
                        10/09 Q1008=
200903041930 METAR LPPR 041930Z VRB03KT 9999 SCT015 BKN030 10/08 Q1008=
200903041900 METAR LPPR 041900Z 01005KT 8000 -SHRA SCT015 SCT030 BKN070
                        09/07 Q1008=
200903041830 METAR LPPR 041830Z 03012KT 8000 SCT015 SCT030 BKN070 09/07
                        Q1008=
200903041800 METAR LPPR 041800Z 02009KT 8000 VCSH SCT015 BKN030 10/07
                        Q1008=
200903041730 METAR LPPR 041730Z 02010G20KT 350V050 9999 FEW013 FEW017TCU
                        SCT025 BKN250 10/07 Q1008=
200903041700 METAR LPPR 041700Z 02010KT 8000 FEW013 SCT025 SCT070 09/08
                        Q1008=
200903041630 METAR LPPR 041630Z 02015KT 9999 SCT015 SCT030 BKN070 11/07
                        Q1007 WS ALL RWY=
200903041600 METAR LPPR 041600Z 02012G23KT 350V050 9999 FEW015 SCT030
                        BKN070 10/06 Q1008 WS ALL RWY=
200903041530 METAR LPPR 041530Z 02015G25KT 340V050 8000 -SHRA SCT013 SCT025
                        BKN040 10/08 Q1007 WS ALL RWY=
200903041500 METAR LPPR 041500Z 02016G28KT 8000 -SHRA SCT013 SCT020 BKN040
                        11/07 Q1007=
200903041430 METAR LPPR 041430Z 01016G26KT 340V050 9000 -SHRA FEW013 SCT020
                        BKN030 12/07 Q1007=
200903041400 METAR LPPR 041400Z 01015KT 340V040 9999 SCT013 SCT025 BKN040
                        12/08 Q1006=
200903041330 METAR LPPR 041330Z 01017KT 9999 FEW009 SCT015 BKN045 12/08
                        Q1007=
200903041300 METAR LPPR 041300Z 02017KT 9999 SCT013 SCT025 BKN080 12/08
                        Q1007=
200903041230 METAR LPPR 041230Z 02016KT 9999 SCT013 SCT025 BKN080 11/08
                        Q1007=
200903041200 METAR LPPR 041200Z 02019G31KT 9999 SCT013 SCT025 BKN080 13/08
                        Q1007=
200903041130 METAR LPPR 041130Z 01015KT 340V040 9999 SCT013 SCT025 BKN090
                        12/09 Q1006=
200903041100 METAR LPPR 041100Z 01019G32KT 9999 FEW013 SCT025 BKN040 11/10
                        Q1007=
200903041030 METAR LPPR 041030Z 36013KT 9999 SCT015 SCT025 BKN070 12/10
                        Q1006=
200903041000 METAR LPPR 041000Z 36014KT 9999 SCT015 SCT020 BKN080 11/10
                        Q1006=
200903040930 METAR LPPR 040930Z 36011G21KT 330V040 8000 -SHRA SCT013 BKN025
                        12/10 Q1006=
200903040900 METAR LPPR 040900Z 02017G29KT 350V050 7000 -SHRA SCT005 SCT013
                        BKN030 11/09 Q1006 WS ALL RWY=
200903040830 METAR LPPR 040830Z 01012KT 9999 SCT013 BKN030 11/10 Q1006
                        WS ALL RWY=
200903040800 METAR LPPR 040800Z 36011G22KT 320V020 9999 SCT008 SCT013
                        BKN025 12/09 Q1006 WS ALL RWY=
200903040730 METAR LPPR 040730Z 36012KT 330V030 9999 FEW008 SCT013 BKN025
                        11/09 Q1006 WS ALL RWY=
200903040700 METAR LPPR 040700Z 36012G26KT 9999 SCT008 SCT013 BKN020 11/10
                        Q1006 WS ALL RWY=
200903040630 METAR LPPR 040630Z 35011G21KT 320V020 9999 FEW008 SCT015
                        BKN035 12/10 Q1006 WS ALL RWY=
200903040600 METAR LPPR 040600Z 36010G21KT 330V040 9999 SCT008 SCT015
                        BKN030 12/11 Q1006 WS ALL RWY=
200903040530 METAR LPPR 040530Z 34011G22KT 320V020 7000 SCT005 SCT008
                        BKN025 12/12 Q1006 WS ALL RWY=
200903040500 METAR LPPR 040500Z 32012G23KT 270V360 4000 -RADZ BR SCT001
                        BKN004 12/12 Q1006 WS ALL RWY=
200903040430 METAR LPPR 040430Z 31009G19KT 260V350 3000 -DZ BR SCT001
                        BKN004 12/12 Q1007 WS ALL RWY=
200903040400 METAR LPPR 040400Z 29010KT 270V330 2000 RADZ BR SCT000 BKN002
                        12/12 Q1007=
200903040330 METAR LPPR 040330Z 29008KT 260V320 2000 -DZ BR BKN001 BKN002
                        12/12 Q1008=
200903040300 METAR LPPR 040300Z 29008KT 260V320 2000 -DZ BR BKN001 BKN002
                        11/11 Q1009 RERA=
200903040230 METAR LPPR 040230Z 29009KT 260V320 2000 DZ BR SCT001 BKN003
                        11/11 Q1010=
200903040200 METAR LPPR 040200Z 30005KT 260V340 7000 -RA SCT008 BKN013
                        11/10 Q1011=
200903040130 METAR COR LPPR 040130Z 30007KT 260V340 8000 -RA SCT009 BKN013
                        12/10 Q1012=
200903040100 METAR LPPR 040100Z 31005KT 280V350 9999 SCT013 SCT060 BKN250
                        12/10 Q1012=
200903040030 METAR LPPR 040030Z VRB03KT 9999 FEW009 SCT013 BKN020 11/10
                        Q1013 RERA=
200903040000 METAR LPPR 040000Z VRB03KT 9999 SCT020 SCT070 BKN250 12/10
                        Q1013=
200903032330 METAR LPPR 032330Z VRB02KT 9999 FEW012 SCT070 BKN250 12/10
                        Q1014=
200903032300 METAR LPPR 032300Z VRB02KT 9999 FEW013 BKN020 12/10 Q1014=
200903032230 METAR LPPR 032230Z 00000KT 9999 FEW008 SCT020 BKN250 11/10
                        Q1015=
200903032200 METAR LPPR 032200Z 35002KT 9999 FEW013 BKN020 11/09 Q1015=
200903032130 METAR LPPR 032130Z 00000KT 9999 FEW013 BKN020 11/09 Q1015=
200903032100 METAR LPPR 032100Z 01003KT 9999 FEW013 SCT025 BKN250 11/08
                        Q1015=
200903032030 METAR LPPR 032030Z 01008KT 340V060 9999 FEW013 SCT025 BKN250
                        11/08 Q1015=
200903032000 METAR LPPR 032000Z VRB03KT 9999 FEW017 SCT025 BKN250 11/08
                        Q1016=
200903031930 METAR LPPR 031930Z 03010KT 350V050 9999 FEW020 SCT025 BKN250
                        11/08 Q1016=
200903031900 METAR LPPR 031900Z 03014KT 9999 FEW020 SCT025 BKN250 11/08
                        Q1016=
200903031830 METAR LPPR 031830Z 03013KT 9999 FEW025 BKN250 11/08 Q1016=
200903031800 METAR LPPR 031800Z 02013KT 9999 FEW025 BKN250 11/07 Q1015=
200903031730 METAR LPPR 031730Z 02013KT 9999 FEW025 BKN250 12/07 Q1015=
200903031700 METAR LPPR 031700Z 03013KT CAVOK 12/08 Q1015=
200903031630 METAR LPPR 031630Z 02016KT 9999 FEW020 BKN250 12/07 Q1015=
200903031600 METAR LPPR 031600Z 02013KT 340V050 9999 FEW020 BKN250 13/07
                        Q1015=
200903031530 METAR LPPR 031530Z 02013KT 9999 FEW020 BKN250 14/06 Q1015=
200903031500 METAR LPPR 031500Z 02015KT 9999 FEW020 BKN250 14/06 Q1016=
200903031430 METAR LPPR 031430Z 02012KT 350V060 9999 FEW020 14/05 Q1016=
200903031400 METAR LPPR 031400Z 01013KT 9999 FEW020 14/07 Q1017=
200903031330 METAR LPPR 031330Z 36012KT 9999 FEW020 14/06 Q1017=
200903031300 METAR LPPR 031300Z 04007KT 350V070 CAVOK 14/06 Q1017=
200903031230 METAR LPPR 031230Z 03007KT 340V060 CAVOK 13/07 Q1018=
200903031200 METAR LPPR 031200Z 01007KT 340V040 CAVOK 13/06 Q1018=
200903031130 METAR LPPR 031130Z 36009KT 330V090 CAVOK 12/07 Q1018=
200903031100 METAR LPPR 031100Z 00000KT CAVOK 14/05 Q1018=
200903031030 METAR LPPR 031030Z 00000KT CAVOK 13/06 Q1018=
200903031000 METAR LPPR 031000Z 00000KT CAVOK 13/05 Q1018=
200903030930 METAR LPPR 030930Z 00000KT CAVOK 11/06 Q1018=
200903030900 METAR LPPR 030900Z VRB02KT CAVOK 10/05 Q1018=
200903030830 METAR LPPR 030830Z VRB02KT CAVOK 08/05 Q1018=
200903030800 METAR LPPR 030800Z 16003KT CAVOK 07/05 Q1018=
200903030730 METAR LPPR 030730Z 00000KT CAVOK 05/03 Q1018=
200903030700 METAR LPPR 030700Z 09005KT 060V120 CAVOK 06/04 Q1017=
200903030630 METAR LPPR 030630Z 00000KT CAVOK 05/04 Q1017=
200903030600 METAR LPPR 030600Z VRB03KT CAVOK 06/04 Q1017=
200903030530 METAR LPPR 030530Z 10002KT CAVOK 06/04 Q1017=
200903030500 METAR LPPR 030500Z 00000KT CAVOK 05/04 Q1018=
200903030430 METAR LPPR 030430Z 00000KT CAVOK 05/04 Q1017=
200903030400 METAR LPPR 030400Z 00000KT CAVOK 06/04 Q1018=
200903030330 METAR LPPR 030330Z 00000KT CAVOK 07/05 Q1018=
200903030300 METAR LPPR 030300Z 07003KT CAVOK 06/05 Q1018=
200903030230 METAR LPPR 030230Z 00000KT CAVOK 05/04 Q1019=
200903030200 METAR LPPR 030200Z 04003KT CAVOK 06/05 Q1019=
200903030130 METAR LPPR 030130Z 00000KT CAVOK 06/05 Q1018=
200903030100 METAR LPPR 030100Z 00000KT CAVOK 06/05 Q1018=
200903030030 METAR LPPR 030030Z 05003KT CAVOK 07/05 Q1019=
200903030000 METAR LPPR 030000Z 07003KT CAVOK 08/06 Q1019=
200903022330 METAR LPPR 022330Z 00000KT CAVOK 07/06 Q1019=
200903022300 METAR LPPR 022300Z 07003KT CAVOK 08/06 Q1019=
200903022230 METAR LPPR 022230Z 07005KT CAVOK 09/07 Q1018=
200903022200 METAR LPPR 022200Z 07006KT CAVOK 09/07 Q1018=
200903022130 METAR LPPR 022130Z 07003KT CAVOK 09/06 Q1018=
200903022100 METAR LPPR 022100Z 06003KT 9999 FEW017 SCT070 09/06 Q1018=
200903022030 METAR LPPR 022030Z 06003KT 9999 FEW017 SCT070 09/07 Q1018=
200903022000 METAR LPPR 022000Z 06003KT 9999 FEW017 SCT070 10/07 Q1018=
200903021930 METAR LPPR 021930Z 08005KT 050V130 9999 FEW017 SCT070 11/07
                        Q1018=
200903021900 METAR LPPR 021900Z 10006KT 070V130 9999 SCT040 12/07 Q1018=
200903021830 METAR LPPR 021830Z 08007KT 9999 FEW017 SCT045 12/07 Q1017=
200903021800 METAR LPPR 021800Z 06006KT 9999 FEW017 SCT040 12/08 Q1017=
200903021730 METAR LPPR 021730Z 05004KT 9999 FEW017 FEW020TCU SCT040 11/10
                        Q1017=
200903021700 METAR LPPR 021700Z 05006KT 9999 FEW015 FEW020TCU BKN040 12/09
                        Q1017=
200903021630 METAR LPPR 021630Z 09010KT 050V110 8000 -SHRA FEW015 BKN035
                        14/08 Q1017=
200903021600 METAR LPPR 021600Z 06007KT 9999 FEW017 SCT040 BKN080 15/08
                        Q1017=
200903021530 METAR LPPR 021530Z 04008KT 9999 FEW017 SCT040 BKN080 15/08
                        Q1017=
200903021500 METAR LPPR 021500Z 04007KT 9999 SCT017 FEW020TCU SCT040 15/08
                        Q1017=
200903021430 METAR LPPR 021430Z 05009KT 020V080 9999 SCT017 FEW020TCU
                        SCT035 15/09 Q1017=
200903021400 METAR LPPR 021400Z 06006KT 020V090 9999 SCT017 FEW020TCU
                        SCT035 15/08 Q1017=
200903021330 METAR LPPR 021330Z VRB03KT 9999 SCT017 FEW020TCU SCT035 16/08
                        Q1017=
200903021300 METAR LPPR 021300Z 08004KT 050V110 9999 SCT017 SCT035 15/08
                        Q1018=
200903021230 METAR LPPR 021230Z 09006KT 9999 FEW017 SCT035 BKN070 14/08
                        Q1018=
200903021200 METAR LPPR 021200Z 07004KT 040V110 9999 FEW017 SCT040 BKN060
                        14/08 Q1018=
200903021130 METAR LPPR 021130Z 09003KT 9999 FEW015 BKN045 12/08 Q1018=
200903021100 METAR LPPR 021100Z 00000KT 9999 FEW015 BKN040 12/07 Q1018=
200903021030 METAR LPPR 021030Z VRB03KT 9999 FEW017 BKN040 12/07 Q1018=
200903021000 METAR LPPR 021000Z 08003KT 9999 FEW017 BKN040 12/07 Q1018=
200903020930 METAR LPPR 020930Z 00000KT 9999 FEW017 BKN045 11/08 Q1017=
200903020900 METAR LPPR 020900Z 00000KT 9999 FEW017 SCT040 09/08 Q1017=
200903020830 METAR LPPR 020830Z 00000KT 9999 FEW017 SCT030 08/07 Q1017=
200903020800 METAR LPPR 020800Z 00000KT 9999 FEW017 SCT080 06/05 Q1017=
200903020730 METAR LPPR 020730Z 00000KT CAVOK 08/06 Q1016=
200903020700 METAR LPPR 020700Z 00000KT CAVOK 07/06 Q1016=
200903020630 METAR LPPR 020630Z 00000KT CAVOK 07/07 Q1016=
200903020600 METAR LPPR 020600Z 00000KT CAVOK 07/06 Q1016=
200903020530 METAR LPPR 020530Z 00000KT CAVOK 07/07 Q1016=
200903020500 METAR LPPR 020500Z 00000KT CAVOK 07/06 Q1016=
200903020430 METAR LPPR 020430Z 00000KT CAVOK 08/07 Q1016=
200903020400 METAR LPPR 020400Z 00000KT CAVOK 09/07 Q1016=
200903020330 METAR LPPR 020330Z 00000KT CAVOK 09/07 Q1016=
200903020300 METAR LPPR 020300Z 00000KT CAVOK 09/08 Q1016=
200903020230 METAR LPPR 020230Z 00000KT CAVOK 09/08 Q1016=
200903020200 METAR LPPR 020200Z 00000KT CAVOK 09/08 Q1016=
200903020130 METAR LPPR 020130Z 05003KT 9999 FEW040 BKN070 10/08 Q1016=
200903020100 METAR LPPR 020100Z 00000KT 9999 FEW040 BKN070 10/08 Q1016=
200903020030 METAR LPPR 020030Z 00000KT 9999 SCT040 BKN070 10/08 Q1016=
200903020000 METAR LPPR 020000Z 00000KT 9999 SCT040 BKN070 10/08 Q1016=
200903012330 METAR LPPR 012330Z 00000KT 9999 FEW040 BKN070 BKN250 10/08
                        Q1016=
200903012300 METAR LPPR 012300Z 00000KT 9999 FEW040 BKN070 BKN250 10/08
                        Q1016=
200903012230 METAR LPPR 012230Z 00000KT 9999 FEW040 SCT070 BKN250 10/08
                        Q1016=
200903012200 METAR LPPR 012200Z 00000KT 9999 FEW040 SCT090 BKN250 10/08
                        Q1016=
200903012130 METAR LPPR 012130Z 00000KT 9999 FEW040 SCT090 BKN250 10/08
                        Q1015=
200903012100 METAR LPPR 012100Z 00000KT 9999 FEW040 BKN250 11/09 Q1015=
200903012030 METAR LPPR 012030Z 00000KT 9999 FEW035 BKN250 10/08 Q1015=
200903012000 METAR LPPR 012000Z 00000KT 9999 FEW035 BKN250 11/08 Q1015=
200903011930 METAR LPPR 011930Z 00000KT 9999 FEW017 SCT035 BKN250 11/09
                        Q1015=
200903011900 METAR LPPR 011900Z 00000KT 9999 FEW017 SCT035 BKN080 12/10
                        Q1015=
200903011830 METAR LPPR 011830Z 00000KT 9999 FEW017 SCT035 BKN080 12/10
                        Q1014=
200903011800 METAR LPPR 011800Z VRB03KT 9999 FEW017 SCT080 BKN250 13/10
                        Q1014=
200903011730 METAR LPPR 011730Z VRB02G12KT 9999 FEW017 SCT080 BKN250 13/09
                        Q1014=
200903011700 METAR LPPR 011700Z VRB03KT 9999 FEW017 BKN080 14/07 Q1013=
200903011630 METAR LPPR 011630Z 01004KT 330V060 9999 FEW017 BKN080 14/07
                        Q1013=
200903011600 METAR LPPR 011600Z 01005KT 9999 FEW017 BKN080 14/07 Q1013=
200903011530 METAR LPPR 011530Z 01006KT 9999 FEW017 SCT080 14/08 Q1013=
200903011500 METAR LPPR 011500Z 01007KT 330V030 9999 SCT017 SCT080 15/09
                        Q1013=
200903011430 METAR LPPR 011430Z 36005KT 9999 SCT017 SCT080 15/09 Q1013=
200903011400 METAR LPPR 011400Z 34005KT 290V030 9999 SCT017 SCT080 15/09
                        Q1013=
200903011330 METAR LPPR 011330Z 33004KT 270V030 9999 SCT017 SCT080 14/09
                        Q1014=
200903011300 METAR LPPR 011300Z 33004KT 290V010 9999 SCT017 SCT040 14/10
                        Q1014=
200903011230 METAR LPPR 011230Z VRB03KT 9999 FEW017 BKN050 13/10 Q1014=
200903011200 METAR LPPR 011200Z 32004KT 290V010 9999 SCT017 BKN040 14/09
                        Q1014=
200903011130 METAR LPPR 011130Z 00000KT 9999 FEW017 BKN050 14/10 Q1014=
200903011100 METAR LPPR 011100Z 00000KT 9999 FEW017 BKN050 13/09 Q1014=
200903011030 METAR LPPR 011030Z 00000KT 9999 FEW020 BKN050 13/10 Q1014=
200903011000 METAR LPPR 011000Z 00000KT 8000 FEW020 BKN040 12/10 Q1014=
200903010930 METAR LPPR 010930Z 00000KT 8000 FEW020 BKN040 11/10 Q1014=
200903010900 METAR LPPR 010900Z 00000KT 9999 SCT040 BKN080 11/09 Q1014=
200903010830 METAR LPPR 010830Z 00000KT 9999 FEW040 BKN080 10/09 Q1013=
200903010800 METAR LPPR 010800Z 00000KT 9999 FEW040 BKN080 09/08 Q1013=
200903010730 METAR LPPR 010730Z 00000KT 9999 FEW040 BKN080 08/07 Q1013=
200903010700 METAR LPPR 010700Z 00000KT 9999 SCT040 BKN080 10/08 Q1013=
200903010630 METAR LPPR 010630Z 00000KT 9999 SCT040 BKN060 10/09 Q1013=
200903010600 METAR LPPR 010600Z 00000KT 9999 SCT040 BKN060 11/09 Q1013=
200903010530 METAR LPPR 010530Z 00000KT 9999 SCT030 BKN040 11/09 Q1013=
200903010500 METAR LPPR 010500Z 03003KT 9999 OVC030 11/09 Q1013=
200903010430 METAR LPPR 010430Z 02004KT 9999 OVC030 11/09 Q1013=
200903010400 METAR LPPR 010400Z 00000KT 9999 OVC030 11/09 Q1013=
200903010330 METAR LPPR 010330Z 00000KT 9999 SCT020 BKN030 11/09 Q1013=
200903010300 METAR LPPR 010300Z 00000KT 9999 SCT020 BKN030 11/09 Q1013=
200903010230 METAR LPPR 010230Z 00000KT 9999 SCT020 BKN030 11/09 Q1013=
200903010200 METAR LPPR 010200Z 00000KT 9999 OVC025 11/10 Q1013=
200903010130 METAR LPPR 010130Z 00000KT 9999 OVC025 11/10 Q1013=
200903010100 METAR LPPR 010100Z 00000KT 8000 OVC025 11/09 Q1013=
200903010030 METAR LPPR 010030Z 00000KT 7000 FEW009 OVC025 11/10 Q1013=
200903010000 METAR LPPR 010000Z 04003KT 7000 FEW009 BKN030 11/10 Q1013=
