##########################################################
# Query made at 11/07/2014 17:02:54 UTC
# Time interval: from 03/01/2012 00:00  to 03/31/2012 23:59  UTC
##########################################################

##########################################################
# LPPR, Porto / Pedras Rubras (Portugal)
# WMO index: 08545
# Latitude 41-14N. Longitude 008-41W. Altitude 69 m.
##########################################################

###################################
#  METAR/SPECI from LPPR
###################################
201203312330 METAR LPPR 312330Z 13005KT 6000 NSC 12/11 Q1010=
201203312300 METAR LPPR 312300Z VRB01KT 5000 BR FEW009 12/11 Q1010=
201203312230 METAR LPPR 312230Z VRB02KT 4000 BR FEW012 12/11 Q1010=
201203312200 METAR LPPR 312200Z 05002KT 4000 BR FEW012 12/11 Q1010=
201203312130 METAR LPPR 312130Z 05002KT 4000 BR FEW009 12/11 Q1010=
201203312100 METAR LPPR 312100Z 00000KT 5000 BR NSC 12/11 Q1011=
201203312030 METAR LPPR 312030Z 30003KT 210V330 5000 BR NSC 13/12 Q1010=
201203312000 METAR LPPR 312000Z VRB01KT 5000 BR NSC 13/12 Q1010=
201203311930 METAR LPPR 311930Z 25003KT 5000 BR NSC 14/12 Q1010=
201203311900 METAR LPPR 311900Z 00000KT 5000 BR NSC 14/12 Q1010=
201203311830 METAR LPPR 311830Z 00000KT 8000 NSC 15/12 Q1010=
201203311800 METAR LPPR 311800Z VRB02KT 8000 FEW009 15/12 Q1010=
201203311730 METAR LPPR 311730Z 27003KT 220V300 7000 FEW009 16/13 Q1010=
201203311700 METAR LPPR 311700Z 23004KT 130V300 8000 FEW009 16/13 Q1010=
201203311630 METAR LPPR 311630Z VRB04KT 9000 FEW012 16/12 Q1010=
201203311600 METAR LPPR 311600Z 23005KT 180V300 9000 NSC 16/12 Q1010=
201203311530 METAR LPPR 311530Z 26004KT 210V320 9000 NSC 16/12 Q1010=
201203311500 METAR LPPR 311500Z 26005KT 210V310 8000 FEW009 16/12 Q1010=
201203311430 METAR LPPR 311430Z 27006KT 230V320 7000 FEW007 15/12 Q1010=
201203311400 METAR LPPR 311400Z 24006KT 210V290 7000 FEW009 16/13 Q1010=
201203311330 METAR LPPR 311330Z 25008KT 210V310 7000 NSC 16/12 Q1011=
201203311300 METAR LPPR 311300Z 25006KT 220V290 9000 NSC 17/12 Q1011=
201203311230 METAR LPPR 311230Z 24007KT 210V290 7000 NSC 16/12 Q1011=
201203311200 METAR LPPR 311200Z 25007KT 220V290 7000 NSC 16/13 Q1011=
201203311130 METAR LPPR 311130Z 26006KT 230V300 7000 NSC 18/13 Q1011=
201203311100 METAR LPPR 311100Z VRB03KT 8000 NSC 17/12 Q1012=
201203311030 METAR LPPR 311030Z 21005KT 150V280 9000 NSC 17/11 Q1012=
201203311000 METAR LPPR 311000Z 21006KT 180V270 9000 NSC 16/12 Q1012=
201203310930 METAR LPPR 310930Z 19008KT 170V230 9000 NSC 15/11 Q1012=
201203310900 METAR LPPR 310900Z 17008KT 8000 NSC 15/12 Q1012=
201203310830 METAR LPPR 310830Z 16007KT 6000 NSC 14/12 Q1012=
201203310800 METAR LPPR 310800Z 16007KT 4000 BR NSC 13/11 Q1011=
201203310730 METAR LPPR 310730Z 14005KT 3000 BR NSC 11/10 Q1011=
201203310700 METAR LPPR 310700Z 14005KT 3500 BR FEW003 10/10 Q1011=
201203310630 METAR LPPR 310630Z 13005KT 3500 BR FEW003 10/09 Q1011=
201203310600 METAR LPPR 310600Z 13005KT 080V170 4500 BR FEW001 SCT004
                        10/10 Q1011=
201203310530 METAR LPPR 310530Z 15005KT 3000 BR SCT003 10/10 Q1011=
201203310500 METAR LPPR 310500Z 17006KT 2500 BR SCT002 BKN006 10/09 Q1011=
201203310430 METAR LPPR 310430Z 15003KT 4000 BR FEW005 11/10 Q1011=
201203310400 METAR LPPR 310400Z 13006KT 4500 BR FEW003 11/10 Q1011=
201203310330 METAR COR LPPR 310330Z 12006KT 4500 BR FEW003 10/10 Q1011=
201203310300 METAR LPPR 310300Z 12006KT 4000 BR FEW003 10/10 Q1011=
201203310230 METAR LPPR 310230Z 14006KT 4000 BR FEW002 SCT004 11/10 Q1011=
201203310200 METAR LPPR 310200Z 17005KT 4500 BR SCT002 BKN005 11/11 Q1012=
201203310130 METAR LPPR 310130Z 16007KT 3000 BR BKN002 13/13 Q1012=
201203310100 METAR LPPR 310100Z 16007KT 3800 BR BKN002 13/13 Q1012=
201203310030 METAR LPPR 310030Z 18007KT 4500 BR FEW003 12/12 Q1012=
201203310000 METAR LPPR 310000Z 18004KT 6000 NSC 11/10 Q1012=
201203302330 METAR LPPR 302330Z 15005KT 7000 FEW015 11/10 Q1012=
201203302300 METAR LPPR 302300Z 18005KT 8000 NSC 12/11 Q1012=
201203302230 METAR LPPR 302230Z 16006KT 9000 FEW015 12/09 Q1012=
201203302200 METAR LPPR 302200Z 17003KT 130V210 CAVOK 11/09 Q1013=
201203302130 METAR LPPR 302130Z VRB02KT CAVOK 11/09 Q1013=
201203302100 METAR LPPR 302100Z VRB01KT CAVOK 11/06 Q1013=
201203302030 METAR LPPR 302030Z 23003KT 200V270 CAVOK 14/07 Q1013=
201203302000 METAR LPPR 302000Z 20002KT CAVOK 14/06 Q1013=
201203301930 METAR LPPR 301930Z VRB03KT CAVOK 15/06 Q1013=
201203301900 METAR LPPR 301900Z 36009KT CAVOK 16/07 Q1013=
201203301830 METAR LPPR 301830Z 34010KT CAVOK 16/07 Q1013=
201203301800 METAR LPPR 301800Z 33009KT CAVOK 17/10 Q1013=
201203301730 METAR LPPR 301730Z 33010KT CAVOK 17/11 Q1013=
201203301700 METAR LPPR 301700Z 33011KT CAVOK 17/11 Q1013=
201203301630 METAR LPPR 301630Z 33013KT 290V360 CAVOK 18/11 Q1013=
201203301600 METAR LPPR 301600Z 32010KT 290V350 CAVOK 18/11 Q1014=
201203301530 METAR LPPR 301530Z 33012KT 290V350 CAVOK 18/11 Q1014=
201203301500 METAR LPPR 301500Z 31009KT 280V350 CAVOK 18/11 Q1014=
201203301430 METAR LPPR 301430Z 31007KT 280V340 CAVOK 18/11 Q1014=
201203301400 METAR LPPR 301400Z 29007KT 250V320 CAVOK 19/08 Q1014=
201203301330 METAR LPPR 301330Z 30007KT 260V340 CAVOK 21/03 Q1015=
201203301300 METAR LPPR 301300Z 28006KT CAVOK 21/02 Q1015=
201203301230 METAR LPPR 301230Z 29005KT 250V320 CAVOK 21/04 Q1015=
201203301200 METAR LPPR 301200Z 29005KT 260V330 CAVOK 21/05 Q1015=
201203301130 METAR LPPR 301130Z 26005KT 220V330 CAVOK 21/04 Q1016=
201203301100 METAR LPPR 301100Z 14005KT 070V200 CAVOK 22/01 Q1016=
201203301030 METAR LPPR 301030Z 12007KT 090V150 CAVOK 22/02 Q1016=
201203301000 METAR LPPR 301000Z 10009KT CAVOK 21/01 Q1016=
201203300930 METAR LPPR 300930Z 11010KT CAVOK 20/02 Q1016=
201203300900 METAR LPPR 300900Z 12011KT CAVOK 19/01 Q1016=
201203300830 METAR LPPR 300830Z 12004KT 070V150 CAVOK 18/01 Q1016=
201203300800 METAR LPPR 300800Z 14005KT 110V170 CAVOK 16/M00 Q1016=
201203300730 METAR LPPR 300730Z 12008KT 080V140 CAVOK 16/M01 Q1016=
201203300700 METAR LPPR 300700Z 11009KT CAVOK 15/M02 Q1015=
201203300630 METAR LPPR 300630Z 11010KT CAVOK 15/M02 Q1015=
201203300600 METAR LPPR 300600Z 11009KT CAVOK 15/M02 Q1015=
201203300530 METAR LPPR 300530Z 11010KT CAVOK 13/M02 Q1015=
201203300500 METAR LPPR 300500Z 11010KT CAVOK 13/M02 Q1015=
201203300430 METAR LPPR 300430Z 11009KT CAVOK 14/M02 Q1015=
201203300400 METAR LPPR 300400Z 10007KT CAVOK 14/M02 Q1015=
201203300330 METAR LPPR 300330Z 09007KT CAVOK 16/M03 Q1015=
201203300300 METAR LPPR 300300Z VRB02KT CAVOK 12/M01 Q1015=
201203300230 METAR LPPR 300230Z 11007KT CAVOK 14/M02 Q1015=
201203300200 METAR LPPR 300200Z 08004KT 8000 NSC 15/M03 Q1015=
201203300130 METAR LPPR 300130Z 10008KT CAVOK 16/M03 Q1015=
201203300100 METAR LPPR 300100Z 11008KT CAVOK 14/M02 Q1015=
201203300030 METAR LPPR 300030Z 10008KT CAVOK 15/M02 Q1016=
201203300000 METAR LPPR 300000Z 11007KT CAVOK 15/M01 Q1016=
201203292330 METAR LPPR 292330Z 11007KT CAVOK 16/M02 Q1016=
201203292300 METAR LPPR 292300Z 11006KT CAVOK 15/M01 Q1016=
201203292230 METAR LPPR 292230Z 10006KT CAVOK 14/01 Q1016=
201203292200 METAR LPPR 292200Z 11006KT CAVOK 14/03 Q1016=
201203292130 METAR LPPR 292130Z 10003G14KT 040V180 9000 NSC 12/06 Q1016=
201203292100 METAR LPPR 292100Z VRB02KT CAVOK 13/07 Q1015=
201203292030 METAR LPPR 292030Z 01004KT CAVOK 13/07 Q1015=
201203292000 METAR LPPR 292000Z 35006KT CAVOK 14/08 Q1015=
201203291930 METAR LPPR 291930Z 36007KT CAVOK 15/07 Q1015=
201203291900 METAR LPPR 291900Z 35010KT CAVOK 17/06 Q1015=
201203291830 METAR LPPR 291830Z 35013KT CAVOK 18/04 Q1015=
201203291800 METAR LPPR 291800Z 35011KT CAVOK 19/02 Q1015=
201203291730 METAR LPPR 291730Z 34010KT CAVOK 20/02 Q1015=
201203291700 METAR LPPR 291700Z 34008KT 300V360 CAVOK 21/02 Q1015=
201203291630 METAR LPPR 291630Z 33009KT CAVOK 22/04 Q1015=
201203291600 METAR LPPR 291600Z VRB07KT CAVOK 22/02 Q1015=
201203291530 METAR LPPR 291530Z 33012KT CAVOK 23/00 Q1015=
201203291500 METAR LPPR 291500Z 31005KT 250V040 CAVOK 24/02 Q1015=
201203291430 METAR LPPR 291430Z 07008KT 020V120 9999 FEW030 26/M02 Q1015=
201203291400 METAR LPPR 291400Z 04010KT 360V080 9999 FEW030 26/M02 Q1016=
201203291330 METAR LPPR 291330Z 06011KT 020V100 CAVOK 26/M01 Q1016=
201203291300 METAR LPPR 291300Z 04009KT 360V100 CAVOK 25/M02 Q1017=
201203291230 METAR LPPR 291230Z 05008KT 360V100 CAVOK 25/M01 Q1017=
201203291200 METAR LPPR 291200Z VRB06KT CAVOK 24/01 Q1018=
201203291130 METAR LPPR 291130Z 05007KT 020V120 CAVOK 24/00 Q1018=
201203291100 METAR LPPR 291100Z 09007KT 050V130 CAVOK 23/00 Q1018=
201203291030 METAR LPPR 291030Z 10008KT 060V120 CAVOK 23/02 Q1019=
201203291000 METAR LPPR 291000Z 08006KT 050V130 CAVOK 21/03 Q1019=
201203290930 METAR LPPR 290930Z 09007KT CAVOK 20/02 Q1019=
201203290900 METAR LPPR 290900Z 07006KT CAVOK 19/01 Q1019=
201203290830 METAR LPPR 290830Z 07005KT 040V100 CAVOK 18/M00 Q1019=
201203290800 METAR LPPR 290800Z 09006KT CAVOK 17/00 Q1019=
201203290730 METAR LPPR 290730Z 10006KT CAVOK 15/M00 Q1019=
201203290700 METAR LPPR 290700Z 10008KT CAVOK 14/M02 Q1019=
201203290630 METAR LPPR 290630Z 11008KT CAVOK 14/M02 Q1019=
201203290600 METAR LPPR 290600Z 11009KT 090V160 CAVOK 14/M02 Q1019=
201203290530 METAR LPPR 290530Z 12009KT CAVOK 14/M02 Q1019=
201203290500 METAR LPPR 290500Z 12009KT CAVOK 14/M02 Q1019=
201203290430 METAR LPPR 290430Z 10009KT CAVOK 14/M02 Q1019=
201203290400 METAR LPPR 290400Z 12008KT CAVOK 14/M01 Q1018=
201203290330 METAR LPPR 290330Z 08005KT CAVOK 13/M02 Q1018=
201203290300 METAR LPPR 290300Z 10005KT CAVOK 16/M03 Q1018=
201203290230 METAR LPPR 290230Z 09007KT CAVOK 16/M03 Q1018=
201203290200 METAR LPPR 290200Z 09008KT CAVOK 17/M03 Q1018=
201203290130 METAR LPPR 290130Z 10007KT CAVOK 15/M03 Q1019=
201203290100 METAR LPPR 290100Z 10007KT CAVOK 17/M03 Q1018=
201203290030 METAR LPPR 290030Z 10006KT CAVOK 14/M02 Q1019=
201203290000 METAR LPPR 290000Z 10008KT CAVOK 16/M02 Q1019=
201203282330 METAR LPPR 282330Z 11006KT CAVOK 13/00 Q1019=
201203282300 METAR LPPR 282300Z 11004KT CAVOK 16/M02 Q1019=
201203282230 METAR LPPR 282230Z 05006KT CAVOK 17/M02 Q1018=
201203282200 METAR LPPR 282200Z 05006KT CAVOK 18/M01 Q1018=
201203282130 METAR LPPR 282130Z 05005KT CAVOK 15/02 Q1018=
201203282100 METAR LPPR 282100Z 02004KT 260V060 CAVOK 14/04 Q1018=
201203282030 METAR LPPR 282030Z 36003KT CAVOK 15/03 Q1018=
201203282000 METAR LPPR 282000Z 35005KT CAVOK 15/02 Q1018=
201203281930 METAR LPPR 281930Z 35007KT CAVOK 17/02 Q1018=
201203281900 METAR LPPR 281900Z 36006KT CAVOK 18/02 Q1018=
201203281830 METAR LPPR 281830Z 35007KT CAVOK 18/02 Q1018=
201203281800 METAR LPPR 281800Z 34010KT CAVOK 20/02 Q1018=
201203281730 METAR LPPR 281730Z 05007KT 350V100 CAVOK 23/02 Q1018=
201203281700 METAR LPPR 281700Z 06007KT 010V120 CAVOK 26/M04 Q1018=
201203281630 METAR LPPR 281630Z 08007KT 050V140 CAVOK 25/M05 Q1018=
201203281600 METAR LPPR 281600Z 10009KT 070V140 CAVOK 25/M05 Q1019=
201203281530 METAR LPPR 281530Z 11008KT CAVOK 25/M05 Q1019=
201203281500 METAR LPPR 281500Z 10009KT 050V120 CAVOK 25/M05 Q1019=
201203281430 METAR LPPR 281430Z 09010KT 050V130 CAVOK 25/M03 Q1020=
201203281400 METAR LPPR 281400Z 12012KT CAVOK 25/M02 Q1020=
201203281330 METAR LPPR 281330Z 09010G20KT 040V120 CAVOK 25/M01 Q1020=
201203281300 METAR LPPR 281300Z 08013KT CAVOK 25/M01 Q1021=
201203281230 METAR LPPR 281230Z 10013KT 060V120 CAVOK 24/01 Q1021=
201203281200 METAR LPPR 281200Z 10009KT 050V130 CAVOK 24/01 Q1022=
201203281130 METAR LPPR 281130Z 09008KT 040V130 CAVOK 24/02 Q1022=
201203281100 METAR LPPR 281100Z 10007KT 050V150 CAVOK 23/01 Q1022=
201203281030 METAR LPPR 281030Z 10010KT CAVOK 22/01 Q1023=
201203281000 METAR LPPR 281000Z 11010KT 080V140 9999 FEW023 21/01 Q1023=
201203280930 METAR LPPR 280930Z 12010KT 080V150 9999 FEW022 20/01 Q1023=
201203280900 METAR LPPR 280900Z 11010KT 9999 FEW022 19/01 Q1023=
201203280830 METAR LPPR 280830Z 11011KT 9999 FEW018 18/01 Q1023=
201203280800 METAR LPPR 280800Z 11010KT 9999 FEW022 17/01 Q1023=
201203280730 METAR LPPR 280730Z 11010KT 9999 FEW022 16/M00 Q1023=
201203280700 METAR LPPR 280700Z 11011KT CAVOK 14/M00 Q1023=
201203280630 METAR LPPR 280630Z 11010KT CAVOK 14/M01 Q1022=
201203280600 METAR LPPR 280600Z 11010KT CAVOK 13/M00 Q1022=
201203280530 METAR LPPR 280530Z 11010KT CAVOK 14/M00 Q1022=
201203280500 METAR LPPR 280500Z 10008KT CAVOK 12/00 Q1022=
201203280430 METAR LPPR 280430Z 11008KT 060V120 CAVOK 14/00 Q1022=
201203280400 METAR LPPR 280400Z 10008KT CAVOK 12/00 Q1022=
201203280330 METAR LPPR 280330Z 11008KT CAVOK 12/01 Q1022=
201203280300 METAR LPPR 280300Z 11008KT CAVOK 11/02 Q1022=
201203280230 METAR LPPR 280230Z 09004KT 050V140 CAVOK 12/00 Q1022=
201203280200 METAR LPPR 280200Z 10004KT 060V140 CAVOK 14/M00 Q1022=
201203280130 METAR LPPR 280130Z 09006KT CAVOK 13/01 Q1022=
201203280100 METAR LPPR 280100Z 11006KT CAVOK 13/02 Q1022=
201203280030 METAR LPPR 280030Z 10005KT CAVOK 15/01 Q1022=
201203280000 METAR LPPR 280000Z 07004KT CAVOK 15/03 Q1021=
201203272330 METAR LPPR 272330Z 09007KT CAVOK 13/04 Q1021=
201203272300 METAR LPPR 272300Z 08005KT 040V140 CAVOK 16/04 Q1021=
201203272230 METAR LPPR 272230Z 08005KT CAVOK 13/05 Q1021=
201203272200 METAR LPPR 272200Z VRB02KT CAVOK 12/06 Q1021=
201203272130 METAR LPPR 272130Z VRB02KT CAVOK 13/06 Q1021=
201203272100 METAR LPPR 272100Z VRB02KT CAVOK 12/06 Q1021=
201203272030 METAR LPPR 272030Z VRB02KT CAVOK 13/05 Q1021=
201203272000 METAR LPPR 272000Z 01003KT CAVOK 15/05 Q1021=
201203271930 METAR LPPR 271930Z 01003KT 330V060 9999 FEW021 15/06 Q1020=
201203271900 METAR LPPR 271900Z 34004KT 9999 FEW022 16/05 Q1020=
201203271830 METAR LPPR 271830Z 35008KT CAVOK 18/04 Q1020=
201203271800 METAR LPPR 271800Z 34010KT CAVOK 19/02 Q1020=
201203271730 METAR LPPR 271730Z 35012KT CAVOK 19/02 Q1020=
201203271700 METAR LPPR 271700Z 34009KT CAVOK 20/04 Q1020=
201203271630 METAR LPPR 271630Z 33010KT CAVOK 21/03 Q1020=
201203271600 METAR LPPR 271600Z 33010KT 300V360 9999 FEW035 21/03 Q1020=
201203271530 METAR LPPR 271530Z 33009KT 9999 FEW035 21/04 Q1021=
201203271500 METAR LPPR 271500Z 30006KT 270V350 CAVOK 21/05 Q1021=
201203271430 METAR LPPR 271430Z 30007KT 270V330 CAVOK 21/05 Q1021=
201203271400 METAR LPPR 271400Z 29006KT 230V320 CAVOK 22/04 Q1021=
201203271330 METAR LPPR 271330Z 29007KT CAVOK 21/07 Q1021=
201203271300 METAR LPPR 271300Z 28007KT 240V310 CAVOK 22/10 Q1022=
201203271230 METAR LPPR 271230Z 12006KT 040V150 CAVOK 25/02 Q1022=
201203271200 METAR LPPR 271200Z VRB06KT CAVOK 25/02 Q1022=
201203271130 METAR LPPR 271130Z 11007KT 020V150 CAVOK 24/02 Q1022=
201203271100 METAR LPPR 271100Z 13008KT 100V160 CAVOK 23/01 Q1022=
201203271030 METAR LPPR 271030Z 12010KT CAVOK 23/02 Q1022=
201203271000 METAR LPPR 271000Z 12008KT CAVOK 21/02 Q1022=
201203270930 METAR LPPR 270930Z 12006KT CAVOK 20/03 Q1022=
201203270900 METAR LPPR 270900Z 12006KT CAVOK 19/02 Q1022=
201203270830 METAR LPPR 270830Z 11005KT 050V140 CAVOK 18/03 Q1022=
201203270800 METAR LPPR 270800Z 11006KT 080V150 CAVOK 17/03 Q1021=
201203270730 METAR LPPR 270730Z 10006KT CAVOK 15/04 Q1021=
201203270700 METAR LPPR 270700Z 11008KT CAVOK 13/03 Q1021=
201203270630 METAR LPPR 270630Z 11008KT CAVOK 14/03 Q1021=
201203270600 METAR LPPR 270600Z 11006KT CAVOK 12/04 Q1020=
201203270530 METAR LPPR 270530Z 11007KT CAVOK 14/04 Q1020=
201203270500 METAR LPPR 270500Z 11008KT CAVOK 14/04 Q1020=
201203270430 METAR LPPR 270430Z 12006KT CAVOK 12/05 Q1020=
201203270400 METAR LPPR 270400Z 12008KT CAVOK 12/05 Q1020=
201203270330 METAR LPPR 270330Z 12007KT CAVOK 13/05 Q1020=
201203270300 METAR LPPR 270300Z 12008KT 110V170 CAVOK 13/05 Q1020=
201203270230 METAR LPPR 270230Z VRB03KT CAVOK 13/04 Q1020=
201203270200 METAR LPPR 270200Z 16003KT 110V200 CAVOK 13/04 Q1020=
201203270130 METAR LPPR 270130Z 11004KT CAVOK 13/04 Q1019=
201203270100 METAR LPPR 270100Z 11007KT CAVOK 13/04 Q1019=
201203270030 METAR LPPR 270030Z 11006KT CAVOK 14/04 Q1019=
201203270000 METAR LPPR 270000Z VRB02KT CAVOK 12/04 Q1019=
201203262330 METAR LPPR 262330Z VRB01KT CAVOK 15/02 Q1019=
201203262300 METAR LPPR 262300Z VRB02KT CAVOK 13/04 Q1019=
201203262230 METAR LPPR 262230Z 10003KT CAVOK 14/03 Q1019=
201203262200 METAR LPPR 262200Z VRB01KT CAVOK 14/03 Q1019=
201203262130 METAR LPPR 262130Z 01002KT CAVOK 12/06 Q1019=
201203262100 METAR LPPR 262100Z 35002KT CAVOK 13/06 Q1019=
201203262030 METAR LPPR 262030Z 04003KT 360V060 CAVOK 14/06 Q1019=
201203262000 METAR LPPR 262000Z VRB02KT CAVOK 15/06 Q1019=
201203261930 METAR LPPR 261930Z 02003KT 300V080 CAVOK 15/05 Q1019=
201203261900 METAR LPPR 261900Z 34003KT CAVOK 16/05 Q1019=
201203261830 METAR LPPR 261830Z 33004KT 290V350 CAVOK 18/05 Q1018=
201203261800 METAR LPPR 261800Z 33005KT 300V360 CAVOK 19/05 Q1018=
201203261730 METAR LPPR 261730Z 32005KT 290V350 CAVOK 20/04 Q1018=
201203261700 METAR LPPR 261700Z 33006KT CAVOK 20/03 Q1018=
201203261630 METAR LPPR 261630Z 29005KT 270V330 CAVOK 21/04 Q1018=
201203261600 METAR LPPR 261600Z 29006KT 260V330 CAVOK 21/04 Q1018=
201203261530 METAR LPPR 261530Z 29005KT 250V360 CAVOK 22/04 Q1018=
201203261500 METAR LPPR 261500Z 29005KT 260V330 CAVOK 22/03 Q1018=
201203261430 METAR LPPR 261430Z 28006KT 250V320 CAVOK 23/04 Q1018=
201203261400 METAR LPPR 261400Z 26006KT 210V300 CAVOK 24/05 Q1018=
201203261330 METAR LPPR 261330Z 23007KT CAVOK 24/04 Q1019=
201203261300 METAR LPPR 261300Z 27006KT 220V290 CAVOK 25/04 Q1019=
201203261230 METAR LPPR 261230Z VRB04KT CAVOK 25/03 Q1019=
201203261200 METAR LPPR 261200Z VRB05KT CAVOK 25/05 Q1019=
201203261130 METAR LPPR 261130Z 15005KT 090V210 CAVOK 24/01 Q1019=
201203261100 METAR LPPR 261100Z 13006KT 100V170 CAVOK 24/03 Q1020=
201203261030 METAR LPPR 261030Z 10007KT 070V130 CAVOK 22/04 Q1020=
201203261000 METAR LPPR 261000Z 12008KT CAVOK 21/04 Q1020=
201203260930 METAR LPPR 260930Z 11009KT CAVOK 20/04 Q1020=
201203260900 METAR LPPR 260900Z 11010KT CAVOK 19/05 Q1020=
201203260830 METAR LPPR 260830Z 11007KT 060V140 CAVOK 18/06 Q1020=
201203260800 METAR LPPR 260800Z 11007KT 080V180 CAVOK 16/07 Q1020=
201203260730 METAR LPPR 260730Z 11008KT CAVOK 14/06 Q1019=
201203260700 METAR LPPR 260700Z 10008KT CAVOK 14/06 Q1019=
201203260630 METAR LPPR 260630Z 11008KT CAVOK 11/06 Q1019=
201203260600 METAR LPPR 260600Z 11007KT 080V220 CAVOK 10/07 Q1019=
201203260530 METAR LPPR 260530Z 19003KT 110V230 CAVOK 12/08 Q1019=
201203260500 METAR LPPR 260500Z 16003KT 100V210 CAVOK 12/08 Q1019=
201203260430 METAR LPPR 260430Z 12006KT CAVOK 10/07 Q1019=
201203260400 METAR LPPR 260400Z VRB02KT CAVOK 10/07 Q1019=
201203260330 METAR LPPR 260330Z VRB03KT CAVOK 12/08 Q1019=
201203260300 METAR LPPR 260300Z VRB02KT CAVOK 11/08 Q1019=
201203260230 METAR LPPR 260230Z 10003KT 030V190 CAVOK 12/08 Q1019=
201203260200 METAR LPPR 260200Z 18003KT 140V200 CAVOK 10/08 Q1019=
201203260130 METAR LPPR 260130Z VRB02KT CAVOK 12/08 Q1019=
201203260100 METAR LPPR 260100Z VRB02KT CAVOK 10/09 Q1019=
201203260030 METAR LPPR 260030Z VRB02KT CAVOK 11/10 Q1019=
201203260000 METAR LPPR 260000Z 00000KT 9000 NSC 10/09 Q1019=
201203252330 METAR LPPR 252330Z VRB02KT 8000 NSC 11/10 Q1019=
201203252300 METAR LPPR 252300Z VRB01KT 7000 NSC 11/10 Q1019=
201203252230 METAR LPPR 252230Z 00000KT 8000 NSC 11/10 Q1020=
201203252200 METAR LPPR 252200Z 07001KT 8000 NSC 12/11 Q1020=
201203252130 METAR LPPR 252130Z VRB02KT 8000 NSC 12/11 Q1020=
201203252100 METAR LPPR 252100Z VRB01KT 9000 NSC 12/11 Q1020=
201203252030 METAR LPPR 252030Z VRB01KT 9000 NSC 12/10 Q1020=
201203252000 METAR LPPR 252000Z 00000KT 9000 NSC 13/12 Q1019=
201203251930 METAR LPPR 251930Z 25001KT 9000 NSC 14/11 Q1019=
201203251900 METAR LPPR 251900Z VRB02KT CAVOK 15/12 Q1019=
201203251830 METAR LPPR 251830Z 34003KT 290V010 CAVOK 16/12 Q1019=
201203251800 METAR LPPR 251800Z 30004KT CAVOK 18/11 Q1019=
201203251730 METAR LPPR 251730Z 33006KT 300V360 CAVOK 20/10 Q1019=
201203251700 METAR LPPR 251700Z 33006KT CAVOK 20/09 Q1019=
201203251630 METAR LPPR 251630Z 29005KT 270V330 CAVOK 21/09 Q1019=
201203251600 METAR LPPR 251600Z 29004KT 240V330 CAVOK 21/09 Q1019=
201203251530 METAR LPPR 251530Z 28004KT CAVOK 21/09 Q1019=
201203251500 METAR LPPR 251500Z 28004KT 250V320 CAVOK 21/09 Q1019=
201203251430 METAR LPPR 251430Z 30005KT 260V330 8000 NSC 21/10 Q1020=
201203251400 METAR LPPR 251400Z 28005KT 230V320 8000 NSC 21/11 Q1020=
201203251330 METAR LPPR 251330Z 24005KT 190V270 9000 FEW029 22/11 Q1020=
201203251300 METAR LPPR 251300Z 26005KT 230V290 8000 FEW023 21/11 Q1020=
201203251230 METAR LPPR 251230Z 27005KT 230V300 8000 FEW019 21/11 Q1021=
201203251200 METAR LPPR 251200Z 26006KT 220V290 9000 NSC 21/12 Q1021=
201203251130 METAR LPPR 251130Z VRB04KT CAVOK 24/12 Q1021=
201203251100 METAR LPPR 251100Z 12006KT 080V150 CAVOK 24/06 Q1021=
201203251030 METAR LPPR 251030Z 08006KT CAVOK 24/07 Q1021=
201203251000 METAR LPPR 251000Z 09006KT 9000 FEW038 20/10 Q1021=
201203250930 METAR LPPR 250930Z 05003KT 020V080 9000 NSC 18/12 Q1021=
201203250900 METAR LPPR 250900Z 10003KT 050V140 9000 NSC 17/10 Q1021=
201203250830 METAR LPPR 250830Z 13003KT 060V180 9000 NSC 17/10 Q1021=
201203250800 METAR LPPR 250800Z VRB02KT 9000 NSC 15/10 Q1021=
201203250730 METAR LPPR 250730Z VRB02KT 9000 NSC 15/09 Q1021=
201203250700 METAR LPPR 250700Z VRB01KT 9000 NSC 14/09 Q1020=
201203250630 METAR LPPR 250630Z 06003KT 030V100 9000 NSC 13/10 Q1020=
201203250600 METAR LPPR 250600Z 09003KT 050V120 CAVOK 14/10 Q1020=
201203250530 METAR LPPR 250530Z 04003KT 360V100 CAVOK 13/10 Q1020=
201203250500 METAR LPPR 250500Z 01004KT CAVOK 14/10 Q1020=
201203250430 METAR LPPR 250430Z 02004KT 9999 FEW035 13/11 Q1020=
201203250400 METAR LPPR 250400Z 02002KT 9999 FEW035 13/10 Q1020=
201203250330 METAR LPPR 250330Z VRB02KT CAVOK 13/10 Q1020=
201203250300 METAR LPPR 250300Z VRB02KT CAVOK 14/09 Q1020=
201203250230 METAR LPPR 250230Z 00000KT CAVOK 15/09 Q1020=
201203250200 METAR LPPR 250200Z 07006KT CAVOK 16/09 Q1020=
201203250130 METAR LPPR 250130Z 11005KT CAVOK 17/08 Q1020=
201203250100 METAR LPPR 250100Z 07003KT CAVOK 17/08 Q1020=
201203250030 METAR LPPR 250030Z 04006KT CAVOK 17/08 Q1020=
201203250000 METAR LPPR 250000Z 04008KT CAVOK 16/09 Q1021=
201203242330 METAR LPPR 242330Z 04003KT 360V120 9999 SCT015 SCT030 16/09
                        Q1021=
201203242300 METAR LPPR 242300Z 13011KT 360V150 8000 -RA SCT030 16/09
                        Q1021=
201203242230 METAR LPPR 242230Z 11004KT 9000 -RA FEW035 15/09 Q1021=
201203242200 METAR LPPR 242200Z 36003KT CAVOK 17/07 Q1021=
201203242130 METAR LPPR 242130Z 03003KT CAVOK 16/07 Q1020=
201203242100 METAR LPPR 242100Z 04003KT 8000 NSC 14/09 Q1020=
201203242030 METAR LPPR 242030Z 34004KT CAVOK 15/08 Q1020=
201203242000 METAR LPPR 242000Z 02004KT 350V060 CAVOK 15/09 Q1020=
201203241930 METAR LPPR 241930Z 02004KT 350V050 CAVOK 16/09 Q1020=
201203241900 METAR LPPR 241900Z 34004KT CAVOK 16/09 Q1020=
201203241830 METAR LPPR 241830Z 36004KT 9999 FEW005 16/09 Q1020=
201203241800 METAR LPPR 241800Z 02004KT CAVOK 16/09 Q1020=
201203241730 METAR LPPR 241730Z 33004KT CAVOK 17/10 Q1019=
201203241700 METAR LPPR 241700Z 35003KT 310V030 CAVOK 17/10 Q1019=
201203241630 METAR LPPR 241630Z 01004KT 310V040 CAVOK 17/10 Q1019=
201203241600 METAR LPPR 241600Z 30004KT 270V330 CAVOK 17/09 Q1019=
201203241530 METAR LPPR 241530Z 28003KT 240V300 CAVOK 19/07 Q1019=
201203241500 METAR LPPR 241500Z 29004KT 220V340 CAVOK 19/06 Q1019=
201203241430 METAR LPPR 241430Z 31004KT 270V040 CAVOK 19/07 Q1018=
201203241400 METAR LPPR 241400Z 29005KT 250V320 CAVOK 19/06 Q1018=
201203241330 METAR LPPR 241330Z 28006KT 230V320 CAVOK 18/08 Q1018=
201203241300 METAR LPPR 241300Z 29003KT 250V310 CAVOK 21/07 Q1018=
201203241230 METAR LPPR 241230Z 26004KT 220V290 9999 FEW045 20/05 Q1018=
201203241200 METAR LPPR 241200Z 26005KT 220V290 9999 SCT045 21/05 Q1018=
201203241130 METAR LPPR 241130Z 11007KT 090V150 9999 FEW045 20/06 Q1017=
201203241100 METAR LPPR 241100Z 14006KT 090V150 CAVOK 19/06 Q1018=
201203241030 METAR LPPR 241030Z 13005KT 110V170 CAVOK 18/05 Q1018=
201203241000 METAR LPPR 241000Z VRB02KT CAVOK 19/03 Q1018=
201203240930 METAR LPPR 240930Z VRB02KT CAVOK 19/02 Q1018=
201203240900 METAR LPPR 240900Z 22004KT 150V280 CAVOK 17/04 Q1018=
201203240830 METAR LPPR 240830Z VRB01KT CAVOK 17/01 Q1017=
201203240800 METAR LPPR 240800Z 10005KT 040V120 CAVOK 16/02 Q1016=
201203240730 METAR LPPR 240730Z 11006KT 070V130 CAVOK 14/02 Q1016=
201203240700 METAR LPPR 240700Z 11007KT 100V160 CAVOK 14/03 Q1016=
201203240630 METAR LPPR 240630Z 12008KT CAVOK 12/03 Q1016=
201203240600 METAR LPPR 240600Z 11007KT CAVOK 12/03 Q1015=
201203240530 METAR LPPR 240530Z VRB02KT CAVOK 14/03 Q1015=
201203240500 METAR LPPR 240500Z VRB02KT CAVOK 13/03 Q1015=
201203240430 METAR LPPR 240430Z 12004KT CAVOK 13/03 Q1015=
201203240400 METAR LPPR 240400Z 16003KT 140V210 CAVOK 14/02 Q1014=
201203240330 METAR LPPR 240330Z 24007KT 200V270 CAVOK 16/01 Q1014=
201203240300 METAR LPPR 240300Z 13007KT 110V240 CAVOK 16/01 Q1014=
201203240230 METAR LPPR 240230Z 12007KT CAVOK 14/02 Q1014=
201203240200 METAR LPPR 240200Z 12007KT CAVOK 17/M00 Q1014=
201203240130 METAR LPPR 240130Z 11008KT CAVOK 18/M00 Q1014=
201203240100 METAR LPPR 240100Z 10007KT CAVOK 18/M00 Q1013=
201203240030 METAR LPPR 240030Z 10008KT CAVOK 18/00 Q1013=
201203240000 METAR LPPR 240000Z 11008KT CAVOK 18/01 Q1014=
201203232330 METAR LPPR 232330Z 11008KT CAVOK 18/01 Q1014=
201203232300 METAR LPPR 232300Z 10006KT CAVOK 16/03 Q1014=
201203232230 METAR LPPR 232230Z 11006KT 090V180 CAVOK 15/06 Q1014=
201203232200 METAR LPPR 232200Z 13005KT 080V140 CAVOK 16/04 Q1014=
201203232130 METAR LPPR 232130Z VRB01KT CAVOK 16/04 Q1014=
201203232100 METAR LPPR 232100Z VRB02KT CAVOK 16/05 Q1014=
201203232030 METAR LPPR 232030Z VRB02KT CAVOK 15/05 Q1014=
201203232000 METAR LPPR 232000Z VRB02KT CAVOK 15/04 Q1014=
201203231930 METAR LPPR 231930Z VRB01KT CAVOK 15/04 Q1014=
201203231900 METAR LPPR 231900Z 24003KT 220V290 CAVOK 18/04 Q1013=
201203231830 METAR LPPR 231830Z 23004KT 9999 FEW030 20/03 Q1013=
201203231800 METAR LPPR 231800Z 14005KT 9999 FEW030 22/02 Q1013=
201203231730 METAR LPPR 231730Z 13007KT 100V160 CAVOK 23/01 Q1012=
201203231700 METAR LPPR 231700Z 12009KT 080V150 9999 FEW020 24/01 Q1012=
201203231630 METAR LPPR 231630Z 13010KT CAVOK 24/01 Q1013=
201203231600 METAR LPPR 231600Z 12010KT CAVOK 23/01 Q1013=
201203231530 METAR LPPR 231530Z 11011KT CAVOK 23/01 Q1013=
201203231500 METAR LPPR 231500Z 11011KT CAVOK 22/00 Q1013=
201203231430 METAR LPPR 231430Z 12010KT 080V150 CAVOK 23/01 Q1013=
201203231400 METAR LPPR 231400Z 12011KT CAVOK 23/00 Q1014=
201203231330 METAR LPPR 231330Z 13011KT CAVOK 22/01 Q1014=
201203231300 METAR LPPR 231300Z 12012KT CAVOK 22/00 Q1014=
201203231230 METAR LPPR 231230Z 12012KT CAVOK 22/00 Q1014=
201203231200 METAR LPPR 231200Z 13011KT 080V150 CAVOK 21/M01 Q1014=
201203231130 METAR LPPR 231130Z 11011KT CAVOK 21/00 Q1015=
201203231100 METAR LPPR 231100Z 11015KT 080V140 CAVOK 21/01 Q1015=
201203231030 METAR LPPR 231030Z 12011KT CAVOK 19/00 Q1015=
201203231000 METAR LPPR 231000Z 12012KT CAVOK 19/01 Q1015=
201203230930 METAR LPPR 230930Z 12012KT CAVOK 18/01 Q1015=
201203230900 METAR LPPR 230900Z 14011KT CAVOK 18/02 Q1016=
201203230830 METAR LPPR 230830Z 12008KT CAVOK 17/01 Q1016=
201203230800 METAR LPPR 230800Z 11006KT 060V130 CAVOK 16/01 Q1015=
201203230730 METAR LPPR 230730Z 10006KT CAVOK 15/01 Q1015=
201203230700 METAR LPPR 230700Z 13006KT 100V160 CAVOK 14/01 Q1016=
201203230630 METAR LPPR 230630Z 11005KT 080V140 CAVOK 15/01 Q1016=
201203230600 METAR LPPR 230600Z 10007KT CAVOK 15/01 Q1016=
201203230530 METAR LPPR 230530Z 11008KT CAVOK 13/01 Q1016=
201203230500 METAR LPPR 230500Z 11010KT CAVOK 14/01 Q1016=
201203230430 METAR LPPR 230430Z 12007KT CAVOK 12/02 Q1016=
201203230400 METAR LPPR 230400Z 11007KT CAVOK 14/01 Q1017=
201203230330 METAR LPPR 230330Z 11009KT CAVOK 13/01 Q1017=
201203230300 METAR LPPR 230300Z 12007KT CAVOK 10/03 Q1017=
201203230230 METAR LPPR 230230Z 12007KT CAVOK 09/04 Q1017=
201203230200 METAR LPPR 230200Z 11006KT CAVOK 09/03 Q1018=
201203230130 METAR LPPR 230130Z 11005KT CAVOK 10/03 Q1018=
201203230100 METAR LPPR 230100Z 12006KT CAVOK 10/04 Q1018=
201203230030 METAR LPPR 230030Z 10008KT CAVOK 09/03 Q1018=
201203230000 METAR LPPR 230000Z VRB02KT CAVOK 09/02 Q1019=
201203222330 METAR LPPR 222330Z VRB01KT CAVOK 11/01 Q1019=
201203222300 METAR LPPR 222300Z 10005KT 050V120 CAVOK 11/01 Q1019=
201203222230 METAR LPPR 222230Z VRB01KT CAVOK 12/01 Q1019=
201203222200 METAR LPPR 222200Z 06003KT 030V090 CAVOK 11/00 Q1019=
201203222130 METAR LPPR 222130Z 05003KT CAVOK 11/01 Q1020=
201203222100 METAR LPPR 222100Z VRB02KT CAVOK 11/02 Q1020=
201203222030 METAR LPPR 222030Z 03003KT CAVOK 10/03 Q1020=
201203222000 METAR LPPR 222000Z 02003KT 340V080 CAVOK 11/02 Q1020=
201203221930 METAR LPPR 221930Z VRB01KT CAVOK 11/02 Q1020=
201203221900 METAR LPPR 221900Z 00000KT CAVOK 14/02 Q1020=
201203221830 METAR LPPR 221830Z VRB01KT CAVOK 15/01 Q1020=
201203221800 METAR LPPR 221800Z VRB02KT CAVOK 16/01 Q1020=
201203221730 METAR LPPR 221730Z 24003KT 180V310 CAVOK 16/01 Q1020=
201203221700 METAR LPPR 221700Z VRB02KT CAVOK 17/02 Q1020=
201203221630 METAR LPPR 221630Z 26003KT 180V310 CAVOK 17/03 Q1020=
201203221600 METAR LPPR 221600Z 28003KT 240V330 CAVOK 17/03 Q1020=
201203221530 METAR LPPR 221530Z 27005KT 220V310 CAVOK 16/03 Q1021=
201203221500 METAR LPPR 221500Z 24005KT 180V290 CAVOK 17/03 Q1021=
201203221430 METAR LPPR 221430Z 23006KT 180V270 CAVOK 17/02 Q1021=
201203221400 METAR LPPR 221400Z 22006KT 180V270 CAVOK 16/02 Q1021=
201203221330 METAR LPPR 221330Z 24008KT 190V280 CAVOK 17/01 Q1022=
201203221300 METAR LPPR 221300Z 21007KT 170V270 CAVOK 16/02 Q1022=
201203221230 METAR LPPR 221230Z 20006KT 150V230 CAVOK 17/02 Q1022=
201203221200 METAR LPPR 221200Z 21006KT 160V260 9999 FEW023 16/01 Q1022=
201203221130 METAR LPPR 221130Z 19007KT 160V230 CAVOK 15/01 Q1022=
201203221100 METAR LPPR 221100Z 17006KT 130V210 CAVOK 15/02 Q1022=
201203221030 METAR LPPR 221030Z 14005KT 090V190 CAVOK 14/03 Q1022=
201203221000 METAR LPPR 221000Z 13006KT 090V160 CAVOK 13/04 Q1023=
201203220930 METAR LPPR 220930Z 11007KT 080V140 9999 FEW020 12/03 Q1023=
201203220900 METAR LPPR 220900Z 11008KT 9999 FEW020 11/04 Q1022=
201203220830 METAR LPPR 220830Z 11010KT 9999 FEW020 09/03 Q1023=
201203220800 METAR LPPR 220800Z 11009KT CAVOK 08/03 Q1022=
201203220730 METAR LPPR 220730Z 11009KT CAVOK 07/03 Q1022=
201203220700 METAR LPPR 220700Z 12008KT CAVOK 06/03 Q1022=
201203220630 METAR LPPR 220630Z 11008KT 090V150 CAVOK 05/03 Q1022=
201203220600 METAR LPPR 220600Z 11007KT CAVOK 05/03 Q1022=
201203220530 METAR LPPR 220530Z 11008KT CAVOK 06/04 Q1022=
201203220500 METAR LPPR 220500Z 11009KT CAVOK 06/04 Q1021=
201203220430 METAR LPPR 220430Z 11008KT CAVOK 06/04 Q1021=
201203220400 METAR LPPR 220400Z 11007KT CAVOK 06/04 Q1021=
201203220330 METAR LPPR 220330Z 12006KT CAVOK 06/04 Q1021=
201203220300 METAR LPPR 220300Z 12008KT CAVOK 06/05 Q1021=
201203220230 METAR LPPR 220230Z 12007KT CAVOK 06/05 Q1021=
201203220200 METAR LPPR 220200Z 12007KT CAVOK 07/05 Q1021=
201203220130 METAR LPPR 220130Z 13005KT CAVOK 07/05 Q1021=
201203220100 METAR LPPR 220100Z 12007KT CAVOK 06/05 Q1022=
201203220030 METAR LPPR 220030Z 13006KT CAVOK 07/06 Q1022=
201203220000 METAR LPPR 220000Z 12007KT CAVOK 07/06 Q1022=
201203212330 METAR LPPR 212330Z 12006KT CAVOK 07/05 Q1022=
201203212300 METAR LPPR 212300Z 12006KT CAVOK 08/06 Q1022=
201203212230 METAR LPPR 212230Z 14003KT 080V200 CAVOK 08/06 Q1022=
201203212200 METAR LPPR 212200Z 12005KT CAVOK 08/06 Q1022=
201203212130 METAR LPPR 212130Z VRB02KT CAVOK 08/07 Q1022=
201203212100 METAR LPPR 212100Z VRB02KT CAVOK 07/06 Q1022=
201203212030 METAR LPPR 212030Z 13003KT 060V220 CAVOK 09/07 Q1022=
201203212000 METAR LPPR 212000Z 02003KT 270V070 CAVOK 09/07 Q1022=
201203211930 METAR LPPR 211930Z VRB02KT 9999 FEW025 10/08 Q1021=
201203211900 METAR LPPR 211900Z VRB02KT 9999 FEW022 11/07 Q1021=
201203211830 METAR LPPR 211830Z 31005KT 270V340 9999 FEW021 12/08 Q1021=
201203211800 METAR LPPR 211800Z 33008KT 9999 FEW020 12/07 Q1021=
201203211730 METAR LPPR 211730Z 32007KT 270V010 CAVOK 13/07 Q1021=
201203211700 METAR LPPR 211700Z 31007KT 270V350 CAVOK 13/05 Q1021=
201203211630 METAR LPPR 211630Z 32009KT 280V350 CAVOK 13/05 Q1021=
201203211600 METAR LPPR 211600Z 32006KT 270V350 CAVOK 13/04 Q1021=
201203211530 METAR LPPR 211530Z 32009KT 280V350 CAVOK 13/04 Q1021=
201203211500 METAR LPPR 211500Z 31008KT 270V350 CAVOK 13/04 Q1021=
201203211430 METAR LPPR 211430Z 30008KT 270V340 CAVOK 13/04 Q1021=
201203211400 METAR LPPR 211400Z 31009KT 270V340 CAVOK 14/04 Q1021=
201203211330 METAR LPPR 211330Z 29007KT 260V320 CAVOK 13/03 Q1022=
201203211300 METAR LPPR 211300Z 28007KT 220V310 CAVOK 14/04 Q1022=
201203211230 METAR LPPR 211230Z 28007KT 260V320 CAVOK 14/03 Q1022=
201203211200 METAR LPPR 211200Z 28006KT 200V320 CAVOK 14/03 Q1023=
201203211130 METAR LPPR 211130Z VRB04KT CAVOK 15/M01 Q1023=
201203211100 METAR LPPR 211100Z VRB04KT CAVOK 15/M01 Q1023=
201203211030 METAR LPPR 211030Z 09006KT 050V120 CAVOK 14/M01 Q1024=
201203211000 METAR LPPR 211000Z 11006KT 060V170 CAVOK 14/M00 Q1024=
201203210930 METAR LPPR 210930Z 09007KT 060V120 CAVOK 12/M01 Q1024=
201203210900 METAR LPPR 210900Z 11007KT 070V140 CAVOK 11/M01 Q1024=
201203210830 METAR LPPR 210830Z 11005KT 080V140 CAVOK 10/M01 Q1024=
201203210800 METAR LPPR 210800Z VRB05KT CAVOK 09/M01 Q1024=
201203210730 METAR LPPR 210730Z 08006KT 050V120 CAVOK 08/M01 Q1024=
201203210700 METAR LPPR 210700Z 09006KT 060V130 CAVOK 07/M01 Q1024=
201203210630 METAR LPPR 210630Z 08005KT CAVOK 07/M01 Q1024=
201203210600 METAR LPPR 210600Z 08005KT CAVOK 07/M01 Q1024=
201203210530 METAR LPPR 210530Z 07005KT CAVOK 07/M01 Q1024=
201203210500 METAR LPPR 210500Z 06003KT 030V090 CAVOK 07/M01 Q1024=
201203210430 METAR LPPR 210430Z 08003KT 010V130 CAVOK 08/M01 Q1024=
201203210400 METAR LPPR 210400Z 10008KT CAVOK 08/M01 Q1024=
201203210330 METAR LPPR 210330Z 10008KT CAVOK 08/M01 Q1024=
201203210300 METAR LPPR 210300Z 10007KT CAVOK 09/M01 Q1025=
201203210230 METAR LPPR 210230Z 10008KT CAVOK 09/M00 Q1025=
201203210200 METAR LPPR 210200Z 09007KT CAVOK 08/01 Q1025=
201203210130 METAR LPPR 210130Z 10007KT CAVOK 08/02 Q1026=
201203210100 METAR LPPR 210100Z 09007KT CAVOK 06/04 Q1026=
201203210030 METAR LPPR 210030Z VRB02KT CAVOK 06/04 Q1026=
201203210000 METAR LPPR 210000Z 12004KT 060V140 CAVOK 07/05 Q1027=
201203202330 METAR LPPR 202330Z 10006KT CAVOK 08/05 Q1027=
201203202300 METAR LPPR 202300Z VRB01KT CAVOK 07/04 Q1027=
201203202230 METAR LPPR 202230Z VRB01KT CAVOK 07/05 Q1027=
201203202200 METAR LPPR 202200Z 07003KT 020V100 CAVOK 07/05 Q1027=
201203202130 METAR LPPR 202130Z 36006KT CAVOK 09/06 Q1027=
201203202100 METAR LPPR 202100Z 36004KT CAVOK 10/06 Q1027=
201203202030 METAR LPPR 202030Z 36005KT CAVOK 10/06 Q1027=
201203202000 METAR LPPR 202000Z 35007KT CAVOK 09/05 Q1027=
201203201930 METAR LPPR 201930Z 36008KT CAVOK 10/05 Q1027=
201203201900 METAR LPPR 201900Z 34007KT CAVOK 11/04 Q1027=
201203201830 METAR LPPR 201830Z 34010KT 300V360 CAVOK 11/04 Q1027=
201203201800 METAR LPPR 201800Z 34011KT CAVOK 12/04 Q1027=
201203201730 METAR LPPR 201730Z 34012KT CAVOK 13/04 Q1027=
201203201700 METAR LPPR 201700Z 34012KT CAVOK 14/04 Q1027=
201203201630 METAR LPPR 201630Z 33011KT CAVOK 14/04 Q1027=
201203201600 METAR LPPR 201600Z 33012KT CAVOK 14/05 Q1027=
201203201530 METAR LPPR 201530Z 32013KT 9999 FEW025 14/05 Q1028=
201203201500 METAR LPPR 201500Z 33010KT 290V360 9999 FEW025 15/04 Q1028=
201203201430 METAR LPPR 201430Z 02009KT 350V070 9999 FEW025 17/M04 Q1028=
201203201400 METAR LPPR 201400Z 04007KT 350V160 9999 FEW025 16/M03 Q1029=
201203201330 METAR LPPR 201330Z 02010KT 360V060 9999 FEW025 16/M01 Q1029=
201203201300 METAR LPPR 201300Z 10004KT 050V150 9999 FEW025 16/M00 Q1030=
201203201230 METAR LPPR 201230Z 05008KT 350V130 9999 FEW025 15/M02 Q1030=
201203201200 METAR LPPR 201200Z 09010KT 060V130 9999 FEW025 15/M01 Q1030=
201203201130 METAR LPPR 201130Z 10009KT 050V130 CAVOK 15/M00 Q1031=
201203201100 METAR LPPR 201100Z 09011KT 040V120 CAVOK 14/M00 Q1031=
201203201030 METAR LPPR 201030Z 08014KT CAVOK 13/M01 Q1031=
201203201000 METAR LPPR 201000Z 09010KT 040V120 CAVOK 13/M00 Q1031=
201203200930 METAR LPPR 200930Z 10010KT 060V140 CAVOK 12/M00 Q1031=
201203200900 METAR LPPR 200900Z 10008KT 060V130 CAVOK 11/M00 Q1031=
201203200830 METAR LPPR 200830Z 10007KT 050V120 CAVOK 11/00 Q1031=
201203200800 METAR LPPR 200800Z 07005KT 030V170 CAVOK 10/M00 Q1031=
201203200730 METAR LPPR 200730Z 05005KT CAVOK 09/M00 Q1031=
201203200700 METAR LPPR 200700Z 04005G15KT 330V100 CAVOK 07/M00 Q1031=
201203200630 METAR LPPR 200630Z 07008KT CAVOK 08/M00 Q1031=
201203200600 METAR LPPR 200600Z 08007KT CAVOK 08/M00 Q1030=
201203200530 METAR LPPR 200530Z 09006KT 040V110 CAVOK 09/M00 Q1030=
201203200500 METAR LPPR 200500Z 10007KT CAVOK 09/00 Q1030=
201203200430 METAR LPPR 200430Z 09008KT CAVOK 09/00 Q1030=
201203200400 METAR LPPR 200400Z 10007KT CAVOK 10/M00 Q1030=
201203200330 METAR LPPR 200330Z 10008KT CAVOK 10/M00 Q1030=
201203200300 METAR LPPR 200300Z 09008KT CAVOK 11/M00 Q1030=
201203200230 METAR LPPR 200230Z 10010KT CAVOK 11/M00 Q1030=
201203200200 METAR LPPR 200200Z 10009KT CAVOK 11/M00 Q1031=
201203200130 METAR LPPR 200130Z 10009KT CAVOK 11/M00 Q1031=
201203200100 METAR LPPR 200100Z 10006KT CAVOK 11/M00 Q1031=
201203200030 METAR LPPR 200030Z 09007KT CAVOK 11/00 Q1031=
201203200000 METAR LPPR 200000Z 08006KT 060V120 CAVOK 11/01 Q1031=
201203192330 METAR LPPR 192330Z 06008KT CAVOK 11/01 Q1031=
201203192300 METAR LPPR 192300Z 06010KT CAVOK 12/01 Q1031=
201203192230 METAR LPPR 192230Z 04008KT CAVOK 11/01 Q1031=
201203192200 METAR LPPR 192200Z 03006KT CAVOK 11/01 Q1031=
201203192130 METAR LPPR 192130Z 02008KT CAVOK 12/01 Q1031=
201203192100 METAR LPPR 192100Z 03006KT CAVOK 12/01 Q1031=
201203192030 METAR LPPR 192030Z 02008KT CAVOK 12/02 Q1030=
201203192000 METAR LPPR 192000Z 01009KT CAVOK 12/02 Q1030=
201203191930 METAR LPPR 191930Z 36009KT CAVOK 13/02 Q1030=
201203191900 METAR LPPR 191900Z 01010KT 9999 FEW025 14/02 Q1030=
201203191830 METAR LPPR 191830Z 33009KT 9999 FEW025 14/05 Q1029=
201203191800 METAR LPPR 191800Z 32006KT 290V350 9999 FEW025 15/06 Q1029=
201203191730 METAR LPPR 191730Z 29007KT 9999 FEW025 14/08 Q1030=
201203191700 METAR LPPR 191700Z 32013KT 9999 FEW025 14/08 Q1030=
201203191630 METAR LPPR 191630Z 33014KT 9999 FEW025 15/08 Q1030=
201203191600 METAR LPPR 191600Z 33012KT 9999 FEW025 15/06 Q1030=
201203191530 METAR LPPR 191530Z 33014KT 9999 FEW025 15/05 Q1030=
201203191500 METAR LPPR 191500Z 33015KT 9999 FEW025 15/06 Q1030=
201203191430 METAR LPPR 191430Z 33012KT 9999 FEW025 15/06 Q1031=
201203191400 METAR LPPR 191400Z 32012KT 290V350 9999 FEW025 14/05 Q1031=
201203191330 METAR LPPR 191330Z 31010KT 260V350 9999 FEW025 14/06 Q1031=
201203191300 METAR LPPR 191300Z VRB07KT 9999 FEW025 15/04 Q1032=
201203191230 METAR LPPR 191230Z VRB06KT 9999 FEW025 15/01 Q1032=
201203191200 METAR LPPR 191200Z 05008KT CAVOK 14/01 Q1033=
201203191130 METAR LPPR 191130Z 05005KT 300V110 CAVOK 14/01 Q1033=
201203191100 METAR LPPR 191100Z 04008KT 360V070 CAVOK 13/02 Q1033=
201203191030 METAR LPPR 191030Z 02007KT 330V050 CAVOK 12/03 Q1033=
201203191000 METAR LPPR 191000Z 04007KT 340V080 CAVOK 11/03 Q1033=
201203190930 METAR LPPR 190930Z 36005KT 320V050 CAVOK 09/04 Q1033=
201203190900 METAR LPPR 190900Z 03007KT CAVOK 09/03 Q1033=
201203190830 METAR LPPR 190830Z 36003KT 280V080 CAVOK 07/03 Q1033=
201203190800 METAR LPPR 190800Z 00000KT CAVOK 05/04 Q1033=
201203190730 METAR LPPR 190730Z VRB02KT CAVOK 02/01 Q1032=
201203190700 METAR LPPR 190700Z 01003KT 320V070 CAVOK 02/01 Q1032=
201203190630 METAR LPPR 190630Z VRB02KT CAVOK 02/01 Q1032=
201203190600 METAR LPPR 190600Z 36003KT CAVOK 02/01 Q1032=
201203190530 METAR LPPR 190530Z 36003KT CAVOK 02/01 Q1032=
201203190500 METAR LPPR 190500Z 01003KT CAVOK 04/02 Q1032=
201203190430 METAR LPPR 190430Z 01005KT CAVOK 04/02 Q1031=
201203190400 METAR LPPR 190400Z 02004KT CAVOK 04/02 Q1031=
201203190330 METAR LPPR 190330Z 36004KT 340V040 CAVOK 05/02 Q1031=
201203190300 METAR LPPR 190300Z 02003KT 340V050 CAVOK 04/03 Q1031=
201203190230 METAR LPPR 190230Z 36007KT CAVOK 05/03 Q1031=
201203190200 METAR LPPR 190200Z 03006KT CAVOK 05/03 Q1031=
201203190130 METAR LPPR 190130Z 06006KT CAVOK 05/03 Q1031=
201203190100 METAR LPPR 190100Z 06004KT CAVOK 07/04 Q1031=
201203190030 METAR LPPR 190030Z 08004KT CAVOK 05/03 Q1032=
201203190000 METAR LPPR 190000Z 04003KT CAVOK 06/03 Q1032=
201203182330 METAR LPPR 182330Z 08005KT 360V120 CAVOK 05/03 Q1032=
201203182300 METAR LPPR 182300Z VRB02KT CAVOK 06/03 Q1031=
201203182230 METAR LPPR 182230Z 35003KT CAVOK 06/03 Q1031=
201203182200 METAR LPPR 182200Z 35002KT CAVOK 07/04 Q1031=
201203182130 METAR LPPR 182130Z 35004KT CAVOK 08/04 Q1031=
201203182100 METAR LPPR 182100Z 03004KT CAVOK 08/04 Q1031=
201203182030 METAR LPPR 182030Z 02005KT 9999 FEW018 09/04 Q1031=
201203182000 METAR LPPR 182000Z 01008KT 330V050 9999 FEW016 09/04 Q1031=
201203181930 METAR LPPR 181930Z 34008KT 9999 FEW027 10/04 Q1030=
201203181900 METAR LPPR 181900Z 34010KT 9999 FEW027 10/04 Q1030=
201203181830 METAR LPPR 181830Z 34011KT 9999 FEW027 11/04 Q1030=
201203181800 METAR LPPR 181800Z 34015KT 9999 FEW027 11/05 Q1030=
201203181730 METAR LPPR 181730Z 33012KT 300V360 9999 FEW025 12/05 Q1029=
201203181700 METAR LPPR 181700Z 33013KT 9999 FEW025 12/04 Q1029=
201203181630 METAR LPPR 181630Z 33015KT 9999 FEW025 12/04 Q1029=
201203181600 METAR LPPR 181600Z 32013KT 290V350 9999 FEW025 12/04 Q1029=
201203181530 METAR LPPR 181530Z 33014KT 290V350 9999 FEW025 13/04 Q1029=
201203181500 METAR LPPR 181500Z 33015KT 290V350 9999 FEW025 13/03 Q1029=
201203181430 METAR LPPR 181430Z 32013KT 9999 FEW025 13/03 Q1029=
201203181400 METAR LPPR 181400Z 32012KT 280V350 9999 FEW025 13/03 Q1029=
201203181330 METAR LPPR 181330Z 33011KT 280V360 9999 FEW025 13/05 Q1029=
201203181300 METAR LPPR 181300Z 32009KT 280V350 9999 FEW025 13/04 Q1029=
201203181230 METAR LPPR 181230Z 33012KT 280V360 9999 FEW025 13/03 Q1030=
201203181200 METAR LPPR 181200Z 32010KT 240V360 9999 FEW025 SCT040 13/05
                        Q1030=
201203181130 METAR LPPR 181130Z 33009KT 300V010 9999 FEW020 SCT035 13/04
                        Q1029=
201203181100 METAR LPPR 181100Z 36009KT 9999 FEW018 SCT030 11/05 Q1029=
201203181030 METAR LPPR 181030Z 34010KT 290V020 9999 FEW020 SCT035 12/05
                        Q1029=
201203181000 METAR LPPR 181000Z 02006KT 340V050 9999 FEW020 SCT040 12/05
                        Q1029=
201203180930 METAR LPPR 180930Z 01007KT 340V040 9999 FEW020 BKN038 11/05
                        Q1029=
201203180900 METAR LPPR 180900Z 03004KT 360V080 9999 FEW025 BKN040 10/04
                        Q1029=
201203180830 METAR LPPR 180830Z 02006KT 360V060 9999 FEW020 SCT035 10/04
                        Q1028=
201203180800 METAR LPPR 180800Z 34013KT 300V020 9999 FEW025 SCT045 10/04
                        Q1028=
201203180730 METAR LPPR 180730Z 34006KT 290V020 9999 FEW025 SCT040 10/04
                        Q1027=
201203180700 METAR LPPR 180700Z 33006KT 9999 FEW025 SCT040 09/04 Q1027=
201203180630 METAR LPPR 180630Z 33006KT 9999 FEW030 SCT040 09/05 Q1026=
201203180600 METAR LPPR 180600Z 33009KT 9999 FEW030 SCT040 10/05 Q1026=
201203180530 METAR LPPR 180530Z 33008KT 9999 FEW030 10/03 Q1026=
201203180500 METAR LPPR 180500Z 32009KT 9999 SCT030 10/04 Q1026=
201203180430 METAR LPPR 180430Z 32007KT 290V350 9999 -SHRA SCT030 SCT040
                        10/05 Q1025=
201203180400 METAR LPPR 180400Z 33007KT 9999 SCT030 10/05 Q1025=
201203180330 METAR LPPR 180330Z 32010KT 270V350 9999 FEW025 SCT040 10/05
                        Q1025=
201203180300 METAR LPPR 180300Z 31006KT 280V350 9999 FEW030 10/04 Q1025=
201203180230 METAR LPPR 180230Z 31007KT 250V020 9999 FEW030 10/04 Q1025=
201203180200 METAR LPPR 180200Z 31007KT 280V010 9999 FEW025 11/04 Q1025=
201203180130 METAR LPPR 180130Z 29006KT 260V330 9999 BKN030 11/06 Q1025=
201203180100 METAR LPPR 180100Z 29005KT 230V330 9999 SCT030 11/06 Q1025=
201203180030 METAR LPPR 180030Z 29006KT 220V340 9999 FEW030 BKN040 11/04
                        Q1025=
201203180000 METAR LPPR 180000Z 28005KT 250V310 9999 SCT025 BKN040 11/06
                        Q1025=
201203172330 METAR LPPR 172330Z 29004KT 240V340 9999 SCT040 10/07 Q1025=
201203172300 METAR LPPR 172300Z VRB02KT 9999 SCT020 BKN040 09/08 Q1025=
201203172230 METAR LPPR 172230Z 28006KT 230V320 9999 -SHRA FEW020 BKN030
                        11/07 Q1025=
201203172200 METAR LPPR 172200Z 27007KT 220V320 9999 FEW025 SCT040 12/05
                        Q1025=
201203172130 METAR LPPR 172130Z 25005KT 170V320 9999 FEW030 11/07 Q1025=
201203172100 METAR LPPR 172100Z 25006KT 210V010 9999 FEW030 11/06 Q1025=
201203172030 METAR LPPR 172030Z 23006KT 200V260 9999 FEW030 11/07 Q1025=
201203172000 METAR LPPR 172000Z 23003KT 170V290 9999 FEW025 SCT040 10/07
                        Q1024=
201203171930 METAR LPPR 171930Z 22003KT 160V260 9999 FEW025 FEW030CB BKN040
                        10/07 Q1024=
201203171900 METAR LPPR 171900Z 26004KT 210V300 9999 SCT025 FEW030CB BKN040
                        11/07 Q1024=
201203171830 METAR LPPR 171830Z 29003KT 240V360 9999 VCSH SCT025 FEW030CB
                        BKN040 11/07 Q1024=
201203171800 METAR LPPR 171800Z 24007KT 210V280 9999 BKN025 12/06 Q1024=
201203171730 METAR LPPR 171730Z 25007KT 210V320 9999 SCT025 13/07 Q1024=
201203171700 METAR LPPR 171700Z 25007KT 190V300 9999 BKN025 14/07 Q1024=
201203171630 METAR LPPR 171630Z 26008KT 200V300 9999 SCT025 13/07 Q1024=
201203171600 METAR LPPR 171600Z 28007KT 230V330 9999 SCT025 14/07 Q1024=
201203171530 METAR LPPR 171530Z 27007KT 230V310 9999 SCT020 14/06 Q1024=
201203171500 METAR LPPR 171500Z 26008KT 220V310 9999 FEW020 14/07 Q1024=
201203171430 METAR LPPR 171430Z 29006KT 230V340 9999 FEW020 14/08 Q1024=
201203171400 METAR LPPR 171400Z 29007KT 240V340 9999 FEW018 SCT032 13/08
                        Q1024=
201203171330 METAR LPPR 171330Z 28006KT 210V330 9999 FEW018 SCT032 14/08
                        Q1024=
201203171300 METAR LPPR 171300Z 29007KT 240V320 9999 FEW017 FEW025TCU
                        14/08 Q1025=
201203171230 METAR COR LPPR 171230Z 30009KT 270V340 9999 FEW015 FEW020TCU
                        14/08 Q1025=
201203171200 METAR LPPR 171200Z 27007KT 230V310 9999 FEW015 SCT018TCU
                        BKN022 14/09 Q1024=
201203171130 METAR LPPR 171130Z 28006KT 220V330 9999 SCT014 BKN020 BKN040
                        13/09 Q1025=
201203171100 METAR LPPR 171100Z 32005KT 290V350 9999 FEW010 SCT015 BKN039
                        13/11 Q1025=
201203171030 METAR LPPR 171030Z 28005KT 230V320 9999 FEW009 SCT017 BKN035
                        13/10 Q1024=
201203171000 METAR LPPR 171000Z 26004KT 210V320 9999 FEW009 SCT012 OVC040
                        12/10 Q1024=
201203170930 METAR LPPR 170930Z VRB02KT 9999 FEW009 SCT015 BKN033 11/10
                        Q1024=
201203170900 METAR LPPR 170900Z 29003KT 240V350 7000 -RA FEW003 SCT005
                        BKN022 10/10 Q1024 RERA=
201203170830 METAR LPPR 170830Z 26005KT 190V310 2500 RA BR SCT004 BKN009
                        BKN013 11/10 Q1024=
201203170800 METAR LPPR 170800Z 20009KT 5000 -RA BR FEW005 SCT012 OVC030
                        12/10 Q1023=
201203170730 METAR LPPR 170730Z 19010KT 5000 -RA BR SCT014 BKN045 12/10
                        Q1023=
201203170700 METAR LPPR 170700Z 19009KT 9999 FEW012 SCT028 BKN042 12/10
                        Q1023=
201203170630 METAR LPPR 170630Z 18009KT 9999 FEW014 SCT028 BKN042 12/10
                        Q1023=
201203170600 METAR LPPR 170600Z 18009KT 9999 SCT018 BKN042 12/10 Q1023=
201203170530 METAR LPPR 170530Z 18007KT 9999 FEW016 SCT042 11/10 Q1023=
201203170500 METAR LPPR 170500Z 17009KT 9999 FEW016 SCT042 11/09 Q1023=
201203170430 METAR LPPR 170430Z 17009KT 9000 SCT016 BKN042 11/10 Q1023=
201203170400 METAR LPPR 170400Z 17007KT 9000 SCT015 SCT030 11/10 Q1023=
201203170330 METAR LPPR 170330Z 17007KT 9000 SCT015 SCT030 11/09 Q1023=
201203170300 METAR LPPR 170300Z 18007KT 9000 SCT018 SCT038 11/09 Q1024=
201203170230 METAR LPPR 170230Z 18006KT 9000 FEW018 SCT038 11/09 Q1024=
201203170200 METAR LPPR 170200Z 18007KT 9000 FEW018 SCT048 11/10 Q1024=
201203170130 METAR LPPR 170130Z 17007KT 9000 FEW016 SCT048 11/09 Q1024=
201203170100 METAR LPPR 170100Z 19003KT 9999 FEW016 BKN048 11/09 Q1025=
201203170030 METAR LPPR 170030Z VRB01KT 9999 FEW016 BKN046 10/08 Q1025=
201203170000 METAR LPPR 170000Z VRB02KT 9999 FEW018 SCT040 09/08 Q1025=
201203162330 METAR LPPR 162330Z 17004KT 9999 SCT018 09/08 Q1025=
201203162300 METAR LPPR 162300Z 18004KT 9999 SCT019 10/08 Q1025=
201203162230 METAR LPPR 162230Z 17006KT 9999 FEW020 SCT040 11/08 Q1025=
201203162200 METAR LPPR 162200Z 19004KT 9999 FEW018 BKN035 11/08 Q1025=
201203162130 METAR LPPR 162130Z 21003KT 9999 FEW020 OVC034 12/08 Q1025=
201203162100 METAR LPPR 162100Z VRB02KT 9999 FEW018 OVC032 12/08 Q1025=
201203162030 METAR LPPR 162030Z 22002KT 9999 FEW018 OVC034 12/08 Q1025=
201203162000 METAR LPPR 162000Z 22002KT 9999 FEW017 OVC033 12/08 Q1025=
201203161930 METAR LPPR 161930Z VRB02KT 9999 FEW018 OVC032 12/08 Q1025=
201203161900 METAR LPPR 161900Z VRB02KT 9999 FEW015 OVC030 12/08 Q1025=
201203161830 METAR LPPR 161830Z VRB01KT 9999 FEW015 OVC030 13/07 Q1025=
201203161800 METAR LPPR 161800Z 24003KT 220V280 9999 FEW018 OVC030 13/07
                        Q1024=
201203161730 METAR LPPR 161730Z 28004KT 260V330 9999 FEW017 OVC030 13/07
                        Q1024=
201203161700 METAR LPPR 161700Z 29004KT 260V340 9999 FEW018 OVC028 13/08
                        Q1024=
201203161630 METAR LPPR 161630Z 30004KT 270V350 9999 SCT018 OVC025 13/09
                        Q1024=
201203161600 METAR LPPR 161600Z 29005KT 250V330 9999 FEW016 OVC025 13/09
                        Q1024=
201203161530 METAR LPPR 161530Z 27005KT 230V300 9000 BKN018 BKN022 13/09
                        Q1024=
201203161500 METAR LPPR 161500Z 31005KT 270V350 9000 SCT018 BKN025 13/09
                        Q1024=
201203161430 METAR LPPR 161430Z 32006KT 300V360 8000 BKN018 13/09 Q1024=
201203161400 METAR LPPR 161400Z 31005KT 270V360 9000 BKN017 13/09 Q1024=
201203161330 METAR LPPR 161330Z 29006KT 250V330 9000 BKN019 13/09 Q1025=
201203161300 METAR LPPR 161300Z 30005KT 270V340 9000 SCT015 BKN019 13/09
                        Q1025=
201203161230 METAR LPPR 161230Z 29006KT 240V320 9000 BKN015 13/09 Q1025=
201203161200 METAR LPPR 161200Z 30006KT 260V350 9000 FEW013 BKN015 13/10
                        Q1025=
201203161130 METAR LPPR 161130Z 29007KT 260V320 9000 FEW013 BKN018 14/10
                        Q1025=
201203161100 METAR LPPR 161100Z 30006KT 8000 BKN013 BKN017 13/10 Q1025=
201203161030 METAR LPPR 161030Z 30005KT 270V360 8000 SCT013 BKN016 13/10
                        Q1024=
201203161000 METAR LPPR 161000Z 31005KT 260V040 9000 BKN014 13/09 Q1024=
201203160930 METAR LPPR 160930Z 32007KT 280V350 8000 BKN013 13/10 Q1024=
201203160900 METAR LPPR 160900Z 32007KT 300V360 7000 FEW009 BKN012 13/10
                        Q1024=
201203160830 METAR LPPR 160830Z 32005KT 290V360 5000 BR FEW009 BKN010
                        12/10 Q1024=
201203160800 METAR LPPR 160800Z 32003KT 270V350 4800 BR SCT007 BKN010
                        12/11 Q1024=
201203160730 METAR LPPR 160730Z 34003KT 300V020 4000 BR SCT007 BKN010
                        12/11 Q1024=
201203160700 METAR LPPR 160700Z 32005KT 3000 BR BKN007 BKN009 11/11 Q1023=
201203160630 METAR LPPR 160630Z 33004KT 290V350 4000 -SHRA BR BKN006 11/11
                        Q1023=
201203160600 METAR LPPR 160600Z 32004KT 270V350 4000 BR FEW004 BKN007
                        11/11 Q1023=
201203160530 METAR LPPR 160530Z 35003KT 3000 BR FEW004 BKN007 11/11 Q1023=
201203160500 METAR LPPR 160500Z VRB02KT 3000 BR FEW003 BKN007 11/11 Q1023=
201203160430 METAR LPPR 160430Z 01003KT 330V060 3000 BR FEW002 BKN006
                        11/11 Q1023=
201203160400 METAR LPPR 160400Z VRB01KT 2400 BR FEW002 BKN006 11/11 Q1023=
201203160330 METAR LPPR 160330Z 34003KT 300V030 0600 R35/0400V0800U FG
                        FEW001 OVC004 11/11 Q1023=
201203160300 METAR LPPR 160300Z 02003KT 350V050 0350 R35/0400V0650U FG
                        VV002 11/11 Q1023=
201203160230 METAR LPPR 160230Z 04003KT 300V090 0300 R35/0325 FG VV002
                        11/11 Q1023=
201203160200 METAR LPPR 160200Z 35003KT 290V020 0300 R35/0275 FG VV001
                        11/11 Q1023=
201203160130 METAR LPPR 160130Z 31003KT 280V340 1500 0300N R35/P2000 BR
                        BCFG SCT001 11/10 Q1024=
201203160100 METAR LPPR 160100Z 35004KT 320V030 1500 R35/0700 BR BCFG
                        BKN001 11/10 Q1023=
201203160030 METAR LPPR 160030Z VRB01KT 2500 BR BKN002 11/11 Q1024=
201203160000 METAR LPPR 160000Z 34004KT 4000 BR SCT002 SCT004 12/11 Q1024=
201203152330 METAR LPPR 152330Z 08003KT 020V130 4000 BR FEW001 SCT003
                        11/11 Q1025=
201203152300 METAR LPPR 152300Z 33004KT 5000 BR FEW003 SCT009 11/10 Q1024=
201203152230 METAR LPPR 152230Z VRB01KT 6000 FEW009 12/11 Q1024=
201203152200 METAR LPPR 152200Z 26003KT 190V290 9000 FEW010 13/10 Q1024=
201203152130 METAR LPPR 152130Z VRB02KT 9000 NSC 12/10 Q1024=
201203152100 METAR LPPR 152100Z VRB01KT 9000 NSC 12/10 Q1024=
201203152030 METAR LPPR 152030Z 04003KT 340V110 9000 NSC 12/10 Q1024=
201203152000 METAR LPPR 152000Z 14003KT 110V170 9000 NSC 13/10 Q1024=
201203151930 METAR LPPR 151930Z 10004KT 040V150 9000 FEW030 13/11 Q1024=
201203151900 METAR LPPR 151900Z VRB02KT 9000 FEW030 13/11 Q1023=
201203151830 METAR LPPR 151830Z VRB02KT 9000 FEW025 14/11 Q1024=
201203151800 METAR LPPR 151800Z 35003KT 300V020 9000 FEW025 14/11 Q1024=
201203151730 METAR LPPR 151730Z VRB01KT 9000 FEW025 15/11 Q1024=
201203151700 METAR LPPR 151700Z 23003KT 9000 FEW025 15/11 Q1024=
201203151630 METAR LPPR 151630Z 25004KT 210V300 9000 FEW025 15/11 Q1024=
201203151600 METAR LPPR 151600Z 22004KT 170V300 9999 FEW025 15/11 Q1024=
201203151530 METAR LPPR 151530Z 21005KT 170V250 CAVOK 15/11 Q1024=
201203151500 METAR LPPR 151500Z 20007KT 170V230 CAVOK 16/11 Q1024=
201203151430 METAR LPPR 151430Z 20008KT 170V260 CAVOK 16/11 Q1024=
201203151400 METAR LPPR 151400Z 20010KT CAVOK 16/11 Q1025=
201203151330 METAR LPPR 151330Z 20011KT 180V250 CAVOK 16/11 Q1025=
201203151300 METAR LPPR 151300Z 21011KT CAVOK 17/10 Q1025=
201203151230 METAR LPPR 151230Z 20011KT 170V230 CAVOK 18/10 Q1025=
201203151200 METAR LPPR 151200Z 20010KT CAVOK 18/09 Q1024=
201203151130 METAR LPPR 151130Z 19011KT CAVOK 18/07 Q1024=
201203151100 METAR LPPR 151100Z 20011KT CAVOK 19/07 Q1024=
201203151030 METAR LPPR 151030Z 20011KT CAVOK 18/05 Q1024=
201203151000 METAR LPPR 151000Z 18010KT CAVOK 19/05 Q1024=
201203150930 METAR LPPR 150930Z 17005KT CAVOK 18/07 Q1024=
201203150900 METAR LPPR 150900Z 15007KT CAVOK 17/07 Q1024=
201203150830 METAR LPPR 150830Z 13007KT CAVOK 14/08 Q1023=
201203150800 METAR LPPR 150800Z 14007KT 8000 NSC 13/08 Q1023=
201203150730 METAR LPPR 150730Z 09003KT 7000 NSC 11/07 Q1023=
201203150700 METAR LPPR 150700Z 18007KT 7000 NSC 11/07 Q1022=
201203150630 METAR LPPR 150630Z 00000KT CAVOK 09/06 Q1022=
201203150600 METAR LPPR 150600Z VRB02KT CAVOK 13/07 Q1021=
201203150530 METAR LPPR 150530Z VRB01KT CAVOK 11/06 Q1021=
201203150500 METAR LPPR 150500Z 04004KT 8000 NSC 09/07 Q1021=
201203150430 METAR LPPR 150430Z VRB02KT 9000 NSC 11/08 Q1021=
201203150400 METAR LPPR 150400Z 00000KT 8000 NSC 09/08 Q1021=
201203150330 METAR LPPR 150330Z 06002KT 5000 BR NSC 08/08 Q1021=
201203150300 METAR LPPR 150300Z 05001KT 4700 BR NSC 08/08 Q1021=
201203150230 METAR LPPR 150230Z 07002KT 4200 BR NSC 08/08 Q1022=
201203150200 METAR LPPR 150200Z 03002KT 5000 BR NSC 08/08 Q1022=
201203150130 METAR LPPR 150130Z 36001KT 4400 BR NSC 08/08 Q1022=
201203150100 METAR LPPR 150100Z 00000KT 3800 BR FEW006 09/08 Q1022=
201203150030 METAR LPPR 150030Z VRB01KT 5000 BR NSC 10/09 Q1023=
201203150000 METAR LPPR 150000Z 06003KT 3900 BR FEW012 09/08 Q1023=
201203142330 METAR LPPR 142330Z VRB01KT 3600 BR FEW011 09/08 Q1023=
201203142300 METAR LPPR 142300Z VRB02KT 5000 BR FEW007 10/09 Q1023=
201203142230 METAR LPPR 142230Z 02004KT 360V060 5000 BR FEW007 10/09 Q1023=
201203142200 METAR LPPR 142200Z 00000KT 6000 NSC 10/09 Q1023=
201203142130 METAR LPPR 142130Z 00000KT 7000 NSC 11/10 Q1023=
201203142100 METAR LPPR 142100Z 00000KT 6000 NSC 10/08 Q1023=
201203142030 METAR LPPR 142030Z 03003KT 310V070 8000 NSC 11/10 Q1023=
201203142000 METAR LPPR 142000Z 01005KT 8000 NSC 12/10 Q1023=
201203141930 METAR LPPR 141930Z 35005KT 8000 NSC 12/10 Q1022=
201203141900 METAR LPPR 141900Z 29004KT 6000 NSC 13/10 Q1022=
201203141830 METAR LPPR 141830Z 32003KT 6000 NSC 14/10 Q1022=
201203141800 METAR LPPR 141800Z 32003KT 8000 NSC 15/11 Q1022=
201203141730 METAR LPPR 141730Z 33004KT CAVOK 16/10 Q1022=
201203141700 METAR LPPR 141700Z 34006KT CAVOK 16/10 Q1022=
201203141630 METAR LPPR 141630Z 35009KT CAVOK 17/10 Q1022=
201203141600 METAR LPPR 141600Z 35008KT CAVOK 17/11 Q1022=
201203141530 METAR LPPR 141530Z 32006KT 300V360 9000 NSC 16/11 Q1022=
201203141500 METAR LPPR 141500Z 31007KT CAVOK 17/12 Q1022=
201203141430 METAR LPPR 141430Z 34007KT 9000 NSC 19/12 Q1022=
201203141400 METAR LPPR 141400Z 33007KT 290V350 CAVOK 17/11 Q1022=
201203141330 METAR LPPR 141330Z 32007KT 290V350 9000 NSC 15/11 Q1023=
201203141300 METAR LPPR 141300Z 31005KT 260V340 8000 NSC 16/11 Q1023=
201203141230 METAR LPPR 141230Z 29006KT 7000 NSC 16/11 Q1023=
201203141200 METAR LPPR 141200Z 32006KT 280V350 6000 NSC 17/12 Q1023=
201203141130 METAR LPPR 141130Z 29005KT 6000 NSC 17/12 Q1023=
201203141100 METAR LPPR 141100Z 36003KT 310V050 6000 NSC 17/12 Q1023=
201203141030 METAR LPPR 141030Z VRB02KT 4000 BR NSC 16/12 Q1024=
201203141000 METAR LPPR 141000Z 36003KT 320V070 3000 BR NSC 13/11 Q1024=
201203140930 METAR LPPR 140930Z VRB02KT 2800 1300N R35/P2000 BR NSC 12/11
                        Q1024=
201203140900 METAR LPPR 140900Z 00000KT 2300 R17/1200N BR FEW005 11/11
                        Q1024=
201203140830 METAR LPPR 140830Z 00000KT 1700 R17/1000U BR PRFG FEW004
                        SCT013 09/09 Q1024=
201203140800 METAR LPPR 140800Z 00000KT 2000 BR FEW002 06/06 Q1024=
201203140730 METAR LPPR 140730Z VRB02KT 1200 BR VCFG SCT001 06/06 Q1023=
201203140700 METAR LPPR 140700Z 36004KT 340V040 0200 R17/0175N FG BKN001
                        06/06 Q1023=
201203140630 METAR LPPR 140630Z 01002KT 1200 BR VCFG BKN002 06/06 Q1023=
201203140600 METAR LPPR 140600Z VRB01KT 3000 BR SCT003 05/05 Q1023=
201203140530 METAR LPPR 140530Z VRB02KT 4000 BR SCT003 05/05 Q1023=
201203140500 METAR LPPR 140500Z VRB01KT 4000 BR SCT003 05/05 Q1023=
201203140430 METAR LPPR 140430Z 36002KT 1500 BR VCFG SCT002 05/05 Q1023=
201203140400 METAR LPPR 140400Z 34001KT 1200 BR VCFG SCT002 06/06 Q1023=
201203140330 METAR LPPR 140330Z 35003KT 1500 BR VCFG SCT002 06/06 Q1023=
201203140300 METAR LPPR 140300Z 01003KT 1500 BR VCFG SCT002 07/07 Q1023=
201203140230 METAR LPPR 140230Z VRB01KT 2000 BR VCFG BKN003 07/07 Q1023=
201203140200 METAR LPPR 140200Z VRB02KT 0350 R17/0275N FG BKN001 08/08
                        Q1023=
201203140130 METAR LPPR 140130Z VRB02KT 0300 R17/0325N FG BKN001 08/08
                        Q1024=
201203140100 METAR LPPR 140100Z VRB02KT 0300 R17/0300N FG BKN001 09/09
                        Q1024=
201203140030 METAR LPPR 140030Z VRB02KT 0300 R17/0275N FG BKN001 09/09
                        Q1024=
201203140000 METAR LPPR 140000Z VRB02KT 0300 R17/0350 FG BKN001 10/09
                        Q1024=
201203132330 METAR LPPR 132330Z 01003KT 340V050 0400 R17/0500N FG BKN001
                        10/10 Q1024=
201203132300 METAR LPPR 132300Z 36005KT 0700 R17/0800V1600D BCFG BKN001
                        10/09 Q1024=
201203132230 METAR LPPR 132230Z 36005KT 1200 R17/1400VP2000D BR VCFG BKN001
                        10/10 Q1024=
201203132200 METAR LPPR 132200Z 36005KT 3000 BR BKN002 OVC004 10/10 Q1024=
201203132130 METAR LPPR 132130Z 35005KT 3500 BR SCT002 BKN003 10/10 Q1024=
201203132100 METAR LPPR 132100Z 34005KT 4000 BR OVC003 10/10 Q1024=
201203132030 METAR LPPR 132030Z 34004KT 310V020 4000 BR SCT004 10/09 Q1024=
201203132000 METAR LPPR 132000Z 34003KT 4000 BR SCT004 10/09 Q1024=
201203131930 METAR LPPR 131930Z 36003KT 5000 BR SCT005 10/09 Q1024=
201203131900 METAR LPPR 131900Z 34004KT 5000 BR FEW005 11/09 Q1024=
201203131830 METAR LPPR 131830Z 32003KT 5000 BR NSC 11/09 Q1023=
201203131800 METAR LPPR 131800Z 32006KT 5000 BR NSC 12/10 Q1023=
201203131730 METAR LPPR 131730Z 33007KT 7000 NSC 12/10 Q1023=
201203131700 METAR LPPR 131700Z 33008KT 290V350 8000 NSC 13/10 Q1023=
201203131630 METAR LPPR 131630Z 31008KT 9000 NSC 13/11 Q1023=
201203131600 METAR LPPR 131600Z 31008KT 280V340 9000 NSC 13/10 Q1023=
201203131530 METAR LPPR 131530Z 32008KT CAVOK 14/10 Q1023=
201203131500 METAR LPPR 131500Z 29006KT CAVOK 14/10 Q1023=
201203131430 METAR LPPR 131430Z 29005KT 240V340 CAVOK 15/10 Q1024=
201203131400 METAR LPPR 131400Z 29005KT 260V320 9000 NSC 15/10 Q1024=
201203131330 METAR LPPR 131330Z 29005KT 250V320 8000 NSC 15/10 Q1024=
201203131300 METAR LPPR 131300Z 28005KT 240V360 7000 FEW025 15/11 Q1024=
201203131230 METAR LPPR 131230Z 28004KT 260V320 5000 BR VCFG FEW025 14/10
                        Q1025=
201203131200 METAR LPPR 131200Z 29005KT 260V330 5000 BR VCFG FEW025 13/10
                        Q1025=
201203131130 METAR LPPR 131130Z 28005KT 220V320 5000 BR VCFG FEW025 13/10
                        Q1025=
201203131100 METAR LPPR 131100Z 30004KT 270V330 5000 BR VCFG FEW024 13/09
                        Q1025=
201203131030 METAR LPPR 131030Z 30004KT 240V350 5000 BR VCFG FEW027 13/10
                        Q1025=
201203131000 METAR LPPR 131000Z VRB02KT 5000 1400N R35/P2000 BR VCFG FEW028
                        12/10 Q1025=
201203130930 METAR LPPR 130930Z VRB02KT 1900 1200N R35/P2000 BR FEW002
                        10/09 Q1025=
201203130900 METAR LPPR 130900Z VRB01KT 1500 0900N R35/P2000 BCFG SCT003
                        08/08 Q1024=
201203130830 METAR LPPR 130830Z 01003KT 330V040 1000 0800N R35/1800U BCFG
                        SCT003 07/07 Q1024=
201203130800 METAR LPPR 130800Z 00000KT 0150 R17/0175N BCFG SCT003 05/05
                        Q1024=
201203130730 METAR LPPR 130730Z 00000KT 0250 R17/0175N BCFG BKN002 06/06
                        Q1024=
201203130700 METAR LPPR 130700Z VRB02KT 0150 R17/0175N BCFG BKN002 06/06
                        Q1024=
201203130630 METAR LPPR 130630Z VRB01KT 0250 R17/0300N BCFG BKN002 05/05
                        Q1024=
201203130600 METAR LPPR 130600Z VRB01KT 0300 R17/0300 BCFG BKN003 04/04
                        Q1024=
201203130530 METAR LPPR 130530Z 03002KT 0300 R35/0375 BCFG BKN003 05/05
                        Q1024=
201203130500 METAR LPPR 130500Z 00000KT 0400 R35/1100VP2000 FG BKN003
                        04/04 Q1024=
201203130430 METAR LPPR 130430Z VRB01KT 0250 R35/0325N FG VV001 05/05
                        Q1024=
201203130400 METAR LPPR 130400Z VRB02KT 0250 0200S R35/0250N FG VV001
                        08/08 Q1023=
201203130330 METAR LPPR 130330Z 04002KT 0200 R35/0225N FG VV001 07/06
                        Q1023=
201203130300 METAR LPPR 130300Z 00000KT 0400 0250S R35/0300N BCFG SCT001
                        05/05 Q1023=
201203130230 METAR LPPR 130230Z 00000KT 4900 1800S R35/1300VP2000 BR FEW007
                        05/05 Q1024=
201203130200 METAR LPPR 130200Z 00000KT 6000 NSC 06/06 Q1024=
201203130130 METAR LPPR 130130Z 00000KT 8000 NSC 05/05 Q1024=
201203130100 METAR LPPR 130100Z 00000KT CAVOK 07/06 Q1024=
201203130030 METAR LPPR 130030Z 00000KT CAVOK 06/05 Q1024=
201203130000 METAR LPPR 130000Z 05002KT CAVOK 07/06 Q1024=
201203122330 METAR LPPR 122330Z 33002KT 8000 NSC 08/07 Q1024=
201203122300 METAR LPPR 122300Z 00000KT CAVOK 08/07 Q1024=
201203122230 METAR LPPR 122230Z 00000KT CAVOK 08/07 Q1024=
201203122200 METAR LPPR 122200Z 02001KT CAVOK 08/07 Q1024=
201203122130 METAR LPPR 122130Z 04001KT CAVOK 09/07 Q1024=
201203122100 METAR LPPR 122100Z 00000KT CAVOK 09/08 Q1024=
201203122030 METAR LPPR 122030Z 00000KT CAVOK 11/09 Q1024=
201203122000 METAR LPPR 122000Z 36004KT 330V030 CAVOK 11/09 Q1024=
201203121930 METAR LPPR 121930Z 36002KT CAVOK 11/08 Q1024=
201203121900 METAR LPPR 121900Z 32004KT 290V350 CAVOK 13/09 Q1024=
201203121830 METAR LPPR 121830Z 32004KT CAVOK 13/09 Q1024=
201203121800 METAR LPPR 121800Z 32006KT CAVOK 14/09 Q1024=
201203121730 METAR LPPR 121730Z 31005KT 280V340 CAVOK 15/08 Q1024=
201203121700 METAR LPPR 121700Z 31006KT 270V340 CAVOK 16/09 Q1024=
201203121630 METAR LPPR 121630Z 29005KT 270V330 CAVOK 16/10 Q1024=
201203121600 METAR LPPR 121600Z 30005KT 240V340 CAVOK 16/10 Q1024=
201203121530 METAR LPPR 121530Z 29005KT CAVOK 17/10 Q1024=
201203121500 METAR LPPR 121500Z 29005KT 250V330 CAVOK 17/08 Q1023=
201203121430 METAR LPPR 121430Z 30006KT 260V320 CAVOK 17/08 Q1024=
201203121400 METAR LPPR 121400Z 30006KT CAVOK 17/06 Q1024=
201203121330 METAR LPPR 121330Z 25005KT 220V300 CAVOK 18/09 Q1024=
201203121300 METAR LPPR 121300Z 27005KT CAVOK 19/07 Q1024=
201203121230 METAR LPPR 121230Z 26004KT 220V310 CAVOK 19/05 Q1024=
201203121200 METAR LPPR 121200Z 26005KT 230V290 CAVOK 19/06 Q1024=
201203121130 METAR LPPR 121130Z 26005KT 220V280 CAVOK 18/07 Q1024=
201203121100 METAR LPPR 121100Z 12005KT 070V160 CAVOK 20/02 Q1024=
201203121030 METAR LPPR 121030Z 10006KT CAVOK 19/02 Q1024=
201203121000 METAR LPPR 121000Z 12006KT 080V150 CAVOK 17/01 Q1024=
201203120930 METAR LPPR 120930Z 12008KT CAVOK 16/01 Q1024=
201203120900 METAR LPPR 120900Z 12007KT CAVOK 16/01 Q1024=
201203120830 METAR LPPR 120830Z 10005KT 030V140 CAVOK 15/01 Q1024=
201203120800 METAR LPPR 120800Z 10007KT CAVOK 13/02 Q1024=
201203120730 METAR LPPR 120730Z 12006KT CAVOK 12/01 Q1024=
201203120700 METAR LPPR 120700Z 11007KT CAVOK 12/01 Q1023=
201203120630 METAR LPPR 120630Z 10009KT CAVOK 13/01 Q1023=
201203120600 METAR LPPR 120600Z 09006KT 050V120 CAVOK 13/01 Q1023=
201203120530 METAR LPPR 120530Z 11010KT 060V120 CAVOK 13/01 Q1023=
201203120500 METAR LPPR 120500Z 11011KT CAVOK 13/01 Q1023=
201203120430 METAR LPPR 120430Z 11011KT CAVOK 14/02 Q1023=
201203120400 METAR LPPR 120400Z 11009KT CAVOK 14/02 Q1023=
201203120330 METAR LPPR 120330Z 11008KT CAVOK 14/02 Q1023=
201203120300 METAR LPPR 120300Z 11009KT CAVOK 13/02 Q1023=
201203120230 METAR LPPR 120230Z 10007KT CAVOK 11/03 Q1023=
201203120200 METAR LPPR 120200Z 11007KT CAVOK 09/03 Q1023=
201203120130 METAR LPPR 120130Z 10004KT 060V140 CAVOK 10/03 Q1023=
201203120100 METAR LPPR 120100Z VRB02KT 9999 6000S NSC 10/04 Q1023=
201203120030 METAR LPPR 120030Z 09003KT 330V140 9999 7000S NSC 12/04 Q1023=
201203120000 METAR LPPR 120000Z 07003KT 040V110 CAVOK 10/04 Q1023=
201203112330 METAR LPPR 112330Z VRB01KT CAVOK 12/04 Q1023=
201203112300 METAR LPPR 112300Z 01003KT CAVOK 10/05 Q1023=
201203112230 METAR LPPR 112230Z VRB03KT CAVOK 10/07 Q1023=
201203112200 METAR LPPR 112200Z 01003KT CAVOK 10/07 Q1023=
201203112130 METAR LPPR 112130Z VRB02KT CAVOK 12/08 Q1023=
201203112100 METAR LPPR 112100Z VRB02KT CAVOK 10/07 Q1023=
201203112030 METAR LPPR 112030Z VRB02KT CAVOK 11/07 Q1023=
201203112000 METAR LPPR 112000Z 00000KT CAVOK 12/08 Q1023=
201203111930 METAR LPPR 111930Z VRB02KT CAVOK 13/08 Q1023=
201203111900 METAR LPPR 111900Z 34003KT 310V020 CAVOK 16/07 Q1023=
201203111830 METAR LPPR 111830Z 36004KT CAVOK 16/09 Q1023=
201203111800 METAR LPPR 111800Z 33004KT CAVOK 18/09 Q1023=
201203111730 METAR LPPR 111730Z 31003KT 280V340 CAVOK 18/09 Q1023=
201203111700 METAR LPPR 111700Z 32005KT CAVOK 18/08 Q1023=
201203111630 METAR LPPR 111630Z 32006KT 280V350 CAVOK 18/07 Q1023=
201203111600 METAR LPPR 111600Z 32005KT 280V350 CAVOK 19/08 Q1023=
201203111530 METAR LPPR 111530Z 32007KT CAVOK 18/07 Q1024=
201203111500 METAR LPPR 111500Z 30007KT CAVOK 18/07 Q1024=
201203111430 METAR LPPR 111430Z 29006KT 240V320 CAVOK 19/08 Q1024=
201203111400 METAR LPPR 111400Z 12006KT 080V160 CAVOK 23/02 Q1024=
201203111330 METAR LPPR 111330Z 11010KT CAVOK 22/02 Q1024=
201203111300 METAR LPPR 111300Z 12010KT 080V140 CAVOK 22/01 Q1025=
201203111230 METAR LPPR 111230Z 09010KT 050V120 CAVOK 21/02 Q1025=
201203111200 METAR LPPR 111200Z 11007KT 080V150 CAVOK 21/03 Q1025=
201203111130 METAR LPPR 111130Z 10009KT 070V140 CAVOK 20/02 Q1025=
201203111100 METAR LPPR 111100Z 10006KT 050V150 CAVOK 20/02 Q1025=
201203111030 METAR LPPR 111030Z 12009KT CAVOK 19/02 Q1026=
201203111000 METAR LPPR 111000Z 11005KT 050V140 CAVOK 18/02 Q1026=
201203110930 METAR LPPR 110930Z 11005KT 060V140 CAVOK 17/02 Q1026=
201203110900 METAR LPPR 110900Z 08004KT 010V130 CAVOK 16/02 Q1026=
201203110830 METAR LPPR 110830Z 10005KT 070V200 CAVOK 15/02 Q1026=
201203110800 METAR LPPR 110800Z 12007KT CAVOK 13/03 Q1026=
201203110730 METAR LPPR 110730Z 11004KT CAVOK 07/04 Q1025=
201203110700 METAR LPPR 110700Z 10005KT CAVOK 06/04 Q1026=
201203110630 METAR LPPR 110630Z 18003KT 160V220 CAVOK 08/04 Q1025=
201203110600 METAR LPPR 110600Z 17003KT 140V200 CAVOK 08/04 Q1025=
201203110530 METAR LPPR 110530Z 12004KT CAVOK 08/05 Q1025=
201203110500 METAR LPPR 110500Z 14006KT CAVOK 08/05 Q1025=
201203110430 METAR LPPR 110430Z 13007KT CAVOK 09/05 Q1026=
201203110400 METAR LPPR 110400Z 11005KT CAVOK 09/05 Q1026=
201203110330 METAR LPPR 110330Z 12003KT CAVOK 07/04 Q1026=
201203110300 METAR LPPR 110300Z VRB02KT CAVOK 09/05 Q1026=
201203110230 METAR LPPR 110230Z VRB02KT CAVOK 09/06 Q1026=
201203110200 METAR LPPR 110200Z 13004KT CAVOK 09/08 Q1026=
201203110130 METAR LPPR 110130Z VRB01KT CAVOK 09/07 Q1027=
201203110100 METAR LPPR 110100Z 10002KT CAVOK 09/07 Q1027=
201203110030 METAR LPPR 110030Z VRB02KT CAVOK 09/07 Q1028=
201203110000 METAR LPPR 110000Z VRB02KT CAVOK 09/07 Q1028=
201203102330 METAR LPPR 102330Z 18004KT CAVOK 10/07 Q1028=
201203102300 METAR LPPR 102300Z 00000KT CAVOK 10/05 Q1028=
201203102230 METAR LPPR 102230Z 22002KT CAVOK 11/04 Q1028=
201203102200 METAR LPPR 102200Z 17003KT CAVOK 12/04 Q1028=
201203102130 METAR LPPR 102130Z VRB02KT CAVOK 11/04 Q1028=
201203102100 METAR LPPR 102100Z VRB01KT CAVOK 13/03 Q1029=
201203102030 METAR LPPR 102030Z 34003KT CAVOK 14/04 Q1029=
201203102000 METAR LPPR 102000Z 36005KT CAVOK 14/04 Q1029=
201203101930 METAR LPPR 101930Z 36006KT CAVOK 14/03 Q1029=
201203101900 METAR LPPR 101900Z 35006KT CAVOK 15/03 Q1029=
201203101830 METAR LPPR 101830Z 34007KT CAVOK 17/03 Q1029=
201203101800 METAR LPPR 101800Z 33006KT 300V360 CAVOK 17/04 Q1029=
201203101730 METAR LPPR 101730Z 32006KT CAVOK 17/07 Q1029=
201203101700 METAR LPPR 101700Z 32010KT 300V360 CAVOK 17/05 Q1029=
201203101630 METAR LPPR 101630Z 34010KT 300V360 CAVOK 18/06 Q1029=
201203101600 METAR LPPR 101600Z 33009KT CAVOK 20/03 Q1029=
201203101530 METAR LPPR 101530Z 33011KT CAVOK 20/03 Q1029=
201203101500 METAR LPPR 101500Z 32009KT 280V350 CAVOK 20/04 Q1029=
201203101430 METAR LPPR 101430Z 29007KT 270V340 CAVOK 22/04 Q1029=
201203101400 METAR LPPR 101400Z VRB03KT CAVOK 25/01 Q1029=
201203101330 METAR LPPR 101330Z 14006KT 100V190 CAVOK 25/M00 Q1030=
201203101300 METAR LPPR 101300Z 10009KT 070V130 CAVOK 24/01 Q1030=
201203101230 METAR LPPR 101230Z 09011KT CAVOK 23/01 Q1030=
201203101200 METAR LPPR 101200Z 12010KT 080V140 CAVOK 22/M00 Q1031=
201203101130 METAR LPPR 101130Z 12011KT 080V140 CAVOK 21/M00 Q1031=
201203101100 METAR LPPR 101100Z 12011KT 090V160 CAVOK 20/00 Q1031=
201203101030 METAR LPPR 101030Z 13009KT 080V150 CAVOK 19/00 Q1031=
201203101000 METAR LPPR 101000Z 14007KT 120V180 CAVOK 18/00 Q1031=
201203100930 METAR LPPR 100930Z 13008KT 080V150 CAVOK 17/01 Q1031=
201203100900 METAR LPPR 100900Z 10006KT CAVOK 17/00 Q1031=
201203100830 METAR LPPR 100830Z 12006KT CAVOK 16/00 Q1031=
201203100800 METAR LPPR 100800Z 06009KT CAVOK 15/M01 Q1031=
201203100730 METAR LPPR 100730Z 06010KT CAVOK 15/M00 Q1031=
201203100700 METAR LPPR 100700Z 06009KT CAVOK 15/00 Q1030=
201203100630 METAR LPPR 100630Z 07008KT CAVOK 14/01 Q1030=
201203100600 METAR LPPR 100600Z 06006KT 040V100 CAVOK 14/01 Q1029=
201203100530 METAR LPPR 100530Z 10004KT CAVOK 12/02 Q1029=
201203100500 METAR LPPR 100500Z 06006KT CAVOK 13/02 Q1029=
201203100430 METAR LPPR 100430Z 08004KT 050V110 CAVOK 14/02 Q1029=
201203100400 METAR LPPR 100400Z 10005KT CAVOK 15/02 Q1029=
201203100330 METAR LPPR 100330Z 09006KT CAVOK 14/02 Q1029=
201203100300 METAR LPPR 100300Z 10008KT CAVOK 14/02 Q1029=
201203100230 METAR LPPR 100230Z 10006KT CAVOK 15/02 Q1029=
201203100200 METAR LPPR 100200Z 10007KT CAVOK 14/02 Q1029=
201203100130 METAR LPPR 100130Z 11008KT CAVOK 15/03 Q1029=
201203100100 METAR LPPR 100100Z 11009KT CAVOK 15/03 Q1029=
201203100030 METAR LPPR 100030Z 11008KT CAVOK 15/04 Q1029=
201203100000 METAR LPPR 100000Z 11007KT CAVOK 14/05 Q1029=
201203092330 METAR LPPR 092330Z 11008KT CAVOK 14/06 Q1029=
201203092300 METAR LPPR 092300Z VRB01KT CAVOK 12/07 Q1029=
201203092230 METAR LPPR 092230Z VRB02KT CAVOK 09/07 Q1029=
201203092200 METAR LPPR 092200Z VRB02KT CAVOK 10/06 Q1029=
201203092130 METAR LPPR 092130Z VRB01KT CAVOK 11/07 Q1029=
201203092100 METAR LPPR 092100Z VRB01KT CAVOK 11/06 Q1029=
201203092030 METAR LPPR 092030Z VRB01KT CAVOK 13/07 Q1029=
201203092000 METAR LPPR 092000Z 05003KT 010V070 CAVOK 13/06 Q1029=
201203091930 METAR LPPR 091930Z 34006KT CAVOK 15/06 Q1029=
201203091900 METAR LPPR 091900Z 35008KT CAVOK 15/06 Q1029=
201203091830 METAR LPPR 091830Z 35010KT CAVOK 16/06 Q1029=
201203091800 METAR LPPR 091800Z 34007KT 300V360 CAVOK 18/06 Q1029=
201203091730 METAR LPPR 091730Z 33006KT CAVOK 19/07 Q1028=
201203091700 METAR LPPR 091700Z 31005KT 280V340 CAVOK 18/10 Q1028=
201203091630 METAR LPPR 091630Z 31006KT 280V340 CAVOK 19/11 Q1028=
201203091600 METAR LPPR 091600Z 33008KT 310V010 CAVOK 21/07 Q1028=
201203091530 METAR LPPR 091530Z 34009KT 300V360 CAVOK 20/07 Q1029=
201203091500 METAR LPPR 091500Z 33008KT CAVOK 20/07 Q1029=
201203091430 METAR LPPR 091430Z 33007KT CAVOK 20/06 Q1029=
201203091400 METAR LPPR 091400Z 34007KT CAVOK 20/07 Q1029=
201203091330 METAR LPPR 091330Z 10007KT 070V130 CAVOK 23/01 Q1029=
201203091300 METAR LPPR 091300Z 11008KT 080V150 CAVOK 22/00 Q1030=
201203091230 METAR LPPR 091230Z 12008KT 060V150 CAVOK 21/01 Q1030=
201203091200 METAR LPPR 091200Z 11007KT CAVOK 20/01 Q1030=
201203091130 METAR LPPR 091130Z 08005KT 030V130 CAVOK 19/02 Q1030=
201203091100 METAR LPPR 091100Z 09007KT 060V120 CAVOK 18/02 Q1030=
201203091030 METAR LPPR 091030Z 07006KT 010V110 CAVOK 16/02 Q1030=
201203091000 METAR LPPR 091000Z 08006KT 010V120 CAVOK 16/01 Q1030=
201203090930 METAR LPPR 090930Z 09008KT 060V120 CAVOK 15/01 Q1030=
201203090900 METAR LPPR 090900Z 11007KT 080V140 CAVOK 14/01 Q1031=
201203090830 METAR LPPR 090830Z 08009KT CAVOK 13/00 Q1030=
201203090800 METAR LPPR 090800Z 09009KT 060V120 CAVOK 12/M00 Q1030=
201203090730 METAR LPPR 090730Z 09009KT CAVOK 12/00 Q1030=
201203090700 METAR LPPR 090700Z 09006KT 060V130 CAVOK 11/00 Q1030=
201203090630 METAR LPPR 090630Z 11009KT CAVOK 11/01 Q1029=
201203090600 METAR LPPR 090600Z 10010KT CAVOK 11/01 Q1029=
201203090530 METAR LPPR 090530Z 12009KT 080V140 CAVOK 12/01 Q1029=
201203090500 METAR LPPR 090500Z VRB02KT CAVOK 12/01 Q1029=
201203090430 METAR LPPR 090430Z 11005KT 080V150 CAVOK 13/02 Q1029=
201203090400 METAR LPPR 090400Z 12007KT CAVOK 11/03 Q1029=
201203090330 METAR LPPR 090330Z 11006KT CAVOK 13/03 Q1028=
201203090300 METAR LPPR 090300Z 11006KT 070V130 CAVOK 13/03 Q1028=
201203090230 METAR LPPR 090230Z 12004KT CAVOK 10/04 Q1028=
201203090200 METAR LPPR 090200Z 10005KT CAVOK 12/04 Q1028=
201203090130 METAR LPPR 090130Z 10005KT CAVOK 12/05 Q1028=
201203090100 METAR LPPR 090100Z 10004KT CAVOK 13/06 Q1028=
201203090030 METAR LPPR 090030Z 12007KT CAVOK 15/07 Q1028=
201203090000 METAR LPPR 090000Z 10005KT CAVOK 12/08 Q1028=
201203082330 METAR LPPR 082330Z 11007KT CAVOK 11/09 Q1029=
201203082300 METAR LPPR 082300Z 05003KT 320V130 CAVOK 11/09 Q1029=
201203082230 METAR LPPR 082230Z 10003KT 350V150 8000 NSC 10/09 Q1028=
201203082200 METAR LPPR 082200Z 18005KT CAVOK 11/08 Q1028=
201203082130 METAR LPPR 082130Z VRB02KT 8000 NSC 11/09 Q1028=
201203082100 METAR LPPR 082100Z VRB01KT 8000 NSC 11/10 Q1028=
201203082030 METAR LPPR 082030Z VRB01KT 8000 FEW013 12/10 Q1028=
201203082000 METAR LPPR 082000Z VRB01KT 9000 NSC 12/10 Q1028=
201203081930 METAR LPPR 081930Z 12003KT 060V200 CAVOK 12/10 Q1027=
201203081900 METAR LPPR 081900Z 17003KT 7000 NSC 12/10 Q1028=
201203081830 METAR LPPR 081830Z VRB01KT 7000 NSC 15/10 Q1028=
201203081800 METAR LPPR 081800Z VRB01KT 9000 NSC 16/11 Q1027=
201203081730 METAR LPPR 081730Z 23003KT 190V280 9000 NSC 17/11 Q1027=
201203081700 METAR LPPR 081700Z 22003KT 170V260 CAVOK 17/11 Q1028=
201203081630 METAR LPPR 081630Z 27004KT 230V300 CAVOK 16/10 Q1028=
201203081600 METAR LPPR 081600Z 28004KT 250V330 CAVOK 16/10 Q1028=
201203081530 METAR LPPR 081530Z 31006KT 280V340 CAVOK 17/08 Q1028=
201203081500 METAR LPPR 081500Z 32007KT 270V340 CAVOK 17/07 Q1028=
201203081430 METAR LPPR 081430Z 32007KT 290V360 CAVOK 16/09 Q1029=
201203081400 METAR LPPR 081400Z 30006KT 270V340 CAVOK 16/08 Q1029=
201203081330 METAR LPPR 081330Z 30007KT CAVOK 16/09 Q1029=
201203081300 METAR LPPR 081300Z 29005KT 260V320 CAVOK 16/10 Q1030=
201203081230 METAR LPPR 081230Z 30006KT CAVOK 16/10 Q1030=
201203081200 METAR LPPR 081200Z 29005KT CAVOK 15/10 Q1030=
201203081130 METAR LPPR 081130Z VRB03KT CAVOK 17/09 Q1030=
201203081100 METAR LPPR 081100Z 36004KT 310V060 CAVOK 17/09 Q1030=
201203081030 METAR LPPR 081030Z 07003KT 030V130 CAVOK 15/09 Q1031=
201203081000 METAR LPPR 081000Z VRB02KT CAVOK 15/09 Q1031=
201203080930 METAR LPPR 080930Z VRB02KT CAVOK 14/09 Q1031=
201203080900 METAR LPPR 080900Z 12003KT 080V150 CAVOK 12/10 Q1031=
201203080830 METAR LPPR 080830Z VRB02KT 9000 NSC 09/09 Q1031=
201203080800 METAR LPPR 080800Z 06002KT 7000 NSC 06/06 Q1030=
201203080730 METAR LPPR 080730Z 12003KT 050V190 7000 NSC 07/07 Q1030=
201203080700 METAR LPPR 080700Z VRB02KT 6000 NSC 06/06 Q1030=
201203080630 METAR LPPR 080630Z 12003KT 7000 NSC 07/07 Q1030=
201203080600 METAR LPPR 080600Z VRB02KT 8000 NSC 06/06 Q1030=
201203080530 METAR LPPR 080530Z 35003KT 6000 NSC 07/07 Q1030=
201203080500 METAR LPPR 080500Z 04001KT 7000 NSC 06/06 Q1030=
201203080430 METAR LPPR 080430Z 04002KT 7000 NSC 06/06 Q1030=
201203080400 METAR LPPR 080400Z VRB01KT 6000 NSC 07/07 Q1030=
201203080330 METAR LPPR 080330Z 35003KT 4000 BR NSC 07/06 Q1030=
201203080300 METAR LPPR 080300Z VRB01KT 7000 NSC 08/08 Q1030=
201203080230 METAR LPPR 080230Z 00000KT 8000 NSC 08/08 Q1030=
201203080200 METAR LPPR 080200Z 16001KT 8000 NSC 09/09 Q1030=
201203080130 METAR LPPR 080130Z 06003KT 8000 NSC 09/09 Q1031=
201203080100 METAR LPPR 080100Z VRB01KT 7000 NSC 09/08 Q1031=
201203080030 METAR LPPR 080030Z VRB01KT CAVOK 09/08 Q1031=
201203080000 METAR LPPR 080000Z 00000KT CAVOK 09/09 Q1031=
201203072330 METAR LPPR 072330Z VRB03KT CAVOK 10/10 Q1031=
201203072300 METAR LPPR 072300Z 34006KT CAVOK 10/09 Q1030=
201203072230 METAR LPPR 072230Z 35003KT CAVOK 10/09 Q1030=
201203072200 METAR LPPR 072200Z VRB02KT CAVOK 10/09 Q1031=
201203072130 METAR LPPR 072130Z 36004KT 330V070 CAVOK 11/10 Q1030=
201203072100 METAR LPPR 072100Z 35004KT CAVOK 11/10 Q1030=
201203072030 METAR LPPR 072030Z 35005KT CAVOK 12/10 Q1030=
201203072000 METAR LPPR 072000Z 36004KT CAVOK 12/10 Q1030=
201203071930 METAR LPPR 071930Z 34008KT CAVOK 12/11 Q1030=
201203071900 METAR LPPR 071900Z 34010KT CAVOK 13/11 Q1030=
201203071830 METAR LPPR 071830Z 34010KT 300V010 CAVOK 13/11 Q1029=
201203071800 METAR LPPR 071800Z 34010KT CAVOK 14/11 Q1029=
201203071730 METAR LPPR 071730Z 34009KT CAVOK 14/11 Q1029=
201203071700 METAR LPPR 071700Z 31007KT 280V340 CAVOK 15/12 Q1028=
201203071630 METAR LPPR 071630Z 33011KT 9999 FEW025 15/11 Q1029=
201203071600 METAR LPPR 071600Z 33009KT 9999 FEW025 16/11 Q1028=
201203071530 METAR LPPR 071530Z 33009KT 300V360 9999 FEW025 16/12 Q1028=
201203071500 METAR LPPR 071500Z 32010KT 9999 FEW025 16/11 Q1028=
201203071430 METAR LPPR 071430Z 31009KT 9999 FEW025 16/11 Q1028=
201203071400 METAR LPPR 071400Z 32009KT 9999 FEW025 16/11 Q1028=
201203071330 METAR LPPR 071330Z 32010KT 9999 FEW025 16/11 Q1028=
201203071300 METAR LPPR 071300Z 31007KT 270V350 9999 FEW025 16/11 Q1029=
201203071230 METAR LPPR 071230Z 29007KT 260V340 9999 FEW020 15/11 Q1029=
201203071200 METAR LPPR 071200Z 29005KT 9999 FEW025 BKN250 15/11 Q1029=
201203071130 METAR LPPR 071130Z 34006KT 300V020 CAVOK 16/10 Q1029=
201203071100 METAR LPPR 071100Z 03004KT 310V100 CAVOK 15/10 Q1029=
201203071030 METAR LPPR 071030Z 02006KT 350V090 CAVOK 15/09 Q1029=
201203071000 METAR LPPR 071000Z 03006G17KT 360V060 CAVOK 13/09 Q1030=
201203070930 METAR LPPR 070930Z VRB02KT CAVOK 13/09 Q1029=
201203070900 METAR LPPR 070900Z 12004KT 070V160 CAVOK 12/09 Q1029=
201203070830 METAR LPPR 070830Z 11004KT 030V150 9000 NSC 10/08 Q1029=
201203070800 METAR LPPR 070800Z 10005KT 9000 NSC 09/08 Q1029=
201203070730 METAR LPPR 070730Z VRB02KT 5000 BR NSC 07/07 Q1029=
201203070700 METAR LPPR 070700Z VRB02KT 8000 NSC 06/06 Q1028=
201203070630 METAR LPPR 070630Z 15003KT 120V180 CAVOK 07/07 Q1028=
201203070600 METAR LPPR 070600Z 08002KT 9999 FEW003 06/06 Q1027=
201203070530 METAR LPPR 070530Z 00000KT 9999 NSC 07/07 Q1027=
201203070500 METAR LPPR 070500Z 02003KT 6000 FEW007 07/07 Q1027=
201203070430 METAR LPPR 070430Z 35004KT 0900 R17/0650 MIFG FEW005 06/06
                        Q1027=
201203070400 METAR LPPR 070400Z 35004KT 7000 NSC 07/07 Q1026=
201203070330 METAR LPPR 070330Z VRB01KT 9000 NSC 07/07 Q1026=
201203070300 METAR LPPR 070300Z VRB02KT CAVOK 08/08 Q1027=
201203070230 METAR LPPR 070230Z 00000KT CAVOK 09/09 Q1027=
201203070200 METAR LPPR 070200Z 02002KT CAVOK 09/08 Q1027=
201203070130 METAR LPPR 070130Z 07003KT 030V110 CAVOK 09/09 Q1027=
201203070100 METAR LPPR 070100Z VRB02KT CAVOK 09/09 Q1027=
201203070030 METAR LPPR 070030Z 01003KT 340V050 9999 FEW007 10/09 Q1027=
201203070000 METAR LPPR 070000Z 05003KT 020V090 9999 FEW007 SCT048 11/10
                        Q1027=
201203062330 METAR LPPR 062330Z 34006KT 9999 FEW007 BKN045 11/10 Q1027=
201203062300 METAR LPPR 062300Z 35007KT 9999 FEW008 SCT042 11/10 Q1027=
201203062230 METAR LPPR 062230Z 34006KT 9999 SCT008 BKN035 11/10 Q1027=
201203062200 METAR LPPR 062200Z 35006KT 9999 SCT009 11/10 Q1027=
201203062130 METAR LPPR 062130Z 35005KT 9999 FEW009 11/09 Q1027=
201203062100 METAR LPPR 062100Z 33007KT 9999 FEW009 11/09 Q1027=
201203062030 METAR LPPR 062030Z 33007KT 9999 SCT010 11/09 Q1027=
201203062000 METAR LPPR 062000Z 33008KT 9999 SCT011 11/09 Q1027=
201203061930 METAR LPPR 061930Z 33008KT 9999 SCT011 11/09 Q1027=
201203061900 METAR LPPR 061900Z 32011KT 9999 FEW012 12/09 Q1027=
201203061830 METAR LPPR 061830Z 33010KT 9999 FEW013 12/09 Q1027=
201203061800 METAR LPPR 061800Z 33009KT 9999 FEW013 12/09 Q1027=
201203061730 METAR LPPR 061730Z 32011KT 9999 FEW015 12/09 Q1027=
201203061700 METAR LPPR 061700Z 33011KT 9999 FEW015 12/08 Q1027=
201203061630 METAR LPPR 061630Z 33011KT 300V360 9999 FEW017 13/08 Q1027=
201203061600 METAR LPPR 061600Z 32009KT 290V350 CAVOK 13/09 Q1027=
201203061530 METAR LPPR 061530Z 33013KT CAVOK 13/09 Q1027=
201203061500 METAR LPPR 061500Z 32010KT 270V360 CAVOK 13/09 Q1028=
201203061430 METAR LPPR 061430Z 32009KT 280V340 CAVOK 14/08 Q1028=
201203061400 METAR LPPR 061400Z 32009KT 290V350 CAVOK 14/08 Q1028=
201203061330 METAR LPPR 061330Z 32010KT 290V350 CAVOK 14/09 Q1028=
201203061300 METAR LPPR 061300Z 32007KT 280V350 CAVOK 14/08 Q1028=
201203061230 METAR LPPR 061230Z 32008KT 290V360 9999 FEW035 14/07 Q1028=
201203061200 METAR LPPR 061200Z 29005KT 240V320 9999 SCT035 14/06 Q1029=
201203061130 METAR LPPR 061130Z 32004KT 250V030 9999 SCT035 14/05 Q1029=
201203061100 METAR LPPR 061100Z 35006KT 330V030 9999 SCT035 14/05 Q1029=
201203061030 METAR LPPR 061030Z 35004KT 300V050 9999 BKN038 12/05 Q1029=
201203061000 METAR LPPR 061000Z VRB02KT 9999 BKN040 12/06 Q1029=
201203060930 METAR LPPR 060930Z VRB02KT 9999 BKN040 11/07 Q1029=
201203060900 METAR LPPR 060900Z VRB02KT 9000 BKN040 10/07 Q1029=
201203060830 METAR LPPR 060830Z VRB01KT 8000 BKN040 08/06 Q1029=
201203060800 METAR LPPR 060800Z VRB02KT 8000 SCT047 07/06 Q1029=
201203060730 METAR LPPR 060730Z VRB02KT 6000 FEW048 05/04 Q1028=
201203060700 METAR LPPR 060700Z 00000KT 7000 NSC 05/04 Q1028=
201203060630 METAR LPPR 060630Z 00000KT CAVOK 07/05 Q1028=
201203060600 METAR LPPR 060600Z VRB01KT CAVOK 05/05 Q1028=
201203060530 METAR LPPR 060530Z VRB01KT CAVOK 05/05 Q1028=
201203060500 METAR LPPR 060500Z 00000KT CAVOK 05/05 Q1028=
201203060430 METAR LPPR 060430Z 00000KT CAVOK 04/04 Q1028=
201203060400 METAR LPPR 060400Z VRB01KT CAVOK 05/04 Q1028=
201203060330 METAR LPPR 060330Z 00000KT CAVOK 05/04 Q1027=
201203060300 METAR LPPR 060300Z 00000KT CAVOK 06/05 Q1028=
201203060230 METAR LPPR 060230Z 00000KT CAVOK 05/04 Q1028=
201203060200 METAR LPPR 060200Z VRB02KT CAVOK 07/05 Q1028=
201203060130 METAR LPPR 060130Z 00000KT CAVOK 06/05 Q1028=
201203060100 METAR LPPR 060100Z VRB01KT CAVOK 08/06 Q1029=
201203060030 METAR LPPR 060030Z 07003KT CAVOK 08/06 Q1029=
201203060000 METAR LPPR 060000Z VRB01KT CAVOK 08/06 Q1029=
201203052330 METAR LPPR 052330Z 21002KT CAVOK 08/06 Q1029=
201203052300 METAR LPPR 052300Z 00000KT CAVOK 08/06 Q1029=
201203052230 METAR LPPR 052230Z 09002KT 8000 NSC 08/06 Q1029=
201203052200 METAR LPPR 052200Z 08002KT CAVOK 08/06 Q1029=
201203052130 METAR LPPR 052130Z 35003KT CAVOK 08/06 Q1029=
201203052100 METAR LPPR 052100Z 35004KT CAVOK 09/06 Q1029=
201203052030 METAR LPPR 052030Z 01004KT CAVOK 09/06 Q1029=
201203052000 METAR LPPR 052000Z 35005KT CAVOK 10/06 Q1029=
201203051930 METAR LPPR 051930Z 34006KT CAVOK 10/06 Q1029=
201203051900 METAR LPPR 051900Z 33007KT CAVOK 11/06 Q1029=
201203051830 METAR LPPR 051830Z 33006KT CAVOK 11/06 Q1029=
201203051800 METAR LPPR 051800Z 32007KT CAVOK 11/06 Q1029=
201203051730 METAR LPPR 051730Z 33007KT 300V360 CAVOK 12/06 Q1028=
201203051700 METAR LPPR 051700Z 33008KT CAVOK 12/05 Q1028=
201203051630 METAR LPPR 051630Z 33008KT 290V360 CAVOK 12/06 Q1028=
201203051600 METAR LPPR 051600Z 32008KT 280V350 CAVOK 13/06 Q1028=
201203051530 METAR LPPR 051530Z 32008KT 290V350 CAVOK 13/06 Q1028=
201203051500 METAR LPPR 051500Z 30008KT 270V330 CAVOK 13/06 Q1029=
201203051430 METAR LPPR 051430Z 30007KT 250V330 CAVOK 14/06 Q1029=
201203051400 METAR LPPR 051400Z 29006KT 260V340 CAVOK 14/06 Q1029=
201203051330 METAR LPPR 051330Z 28006KT 240V310 CAVOK 14/05 Q1029=
201203051300 METAR LPPR 051300Z 02004KT 290V090 CAVOK 16/02 Q1029=
201203051230 METAR LPPR 051230Z 07005KT 010V120 CAVOK 15/02 Q1030=
201203051200 METAR LPPR 051200Z 10005KT 030V140 CAVOK 15/03 Q1030=
201203051130 METAR LPPR 051130Z 08007G17KT 040V120 CAVOK 14/03 Q1030=
201203051100 METAR LPPR 051100Z 11008KT CAVOK 13/04 Q1030=
201203051030 METAR LPPR 051030Z 11010KT CAVOK 13/04 Q1030=
201203051000 METAR LPPR 051000Z 11009G19KT 070V150 CAVOK 12/04 Q1030=
201203050930 METAR LPPR 050930Z 10007KT 070V130 CAVOK 11/04 Q1030=
201203050900 METAR LPPR 050900Z 08004KT 010V120 9999 FEW022 08/07 Q1030=
201203050830 METAR LPPR 050830Z VRB02KT 9000 NSC 06/06 Q1030=
201203050800 METAR LPPR 050800Z 01002KT 8000 MIFG NSC 04/04 Q1030=
201203050730 METAR LPPR 050730Z VRB02KT 3500 0800N R35/1000VP2000 BCFG
                        BR FEW001 02/02 Q1030=
201203050700 METAR LPPR 050700Z VRB01KT 7000 0900N R35/P2000 BCFG FEW002
                        03/03 Q1030=
201203050630 METAR LPPR 050630Z VRB02KT 5000 0900N R35/1100VP2000 BCFG
                        BR FEW002 03/03 Q1030=
201203050600 METAR LPPR 050600Z 01003KT 340V040 5000 2000N BR FEW004 04/04
                        Q1030=
201203050530 METAR LPPR 050530Z VRB01KT 3000 0900N R35/P2000 BCFG BR FEW003
                        03/03 Q1030=
201203050500 METAR LPPR 050500Z VRB01KT 3000 0500N R35/P2000 BCFG BR FEW004
                        04/04 Q1030=
201203050430 METAR LPPR 050430Z 00000KT 3000 0500N R35/P2000 BCFG BR FEW005
                        05/05 Q1029=
201203050400 METAR LPPR 050400Z 00000KT 3000 BR FEW008 03/03 Q1030=
201203050330 METAR LPPR 050330Z 02002KT 8000 FEW008 06/06 Q1030=
201203050300 METAR LPPR 050300Z 09003KT 040V110 8000 FEW003 06/06 Q1029=
201203050230 METAR LPPR 050230Z 05003KT 6000 NSC 06/06 Q1030=
201203050200 METAR LPPR 050200Z 05002KT 8000 NSC 05/05 Q1030=
201203050130 METAR LPPR 050130Z VRB02KT 5000 BR FEW003 06/06 Q1030=
201203050100 METAR LPPR 050100Z 01001KT 5000 0900N R35/P2000 BCFG BR FEW003
                        06/06 Q1030=
201203050030 METAR LPPR 050030Z 04002KT 5000 BR FEW005 05/05 Q1030=
201203050000 METAR LPPR 050000Z VRB01KT 5000 BR FEW005 06/06 Q1030=
201203042330 METAR LPPR 042330Z VRB01KT 5000 1800N BCFG BR FEW005 05/05
                        Q1030=
201203042300 METAR LPPR 042300Z VRB01KT 5000 BR FEW005 06/06 Q1030=
201203042230 METAR LPPR 042230Z VRB01KT 9000 NSC 07/07 Q1030=
201203042200 METAR LPPR 042200Z 00000KT 9000 NSC 08/07 Q1030=
201203042130 METAR LPPR 042130Z 06003KT 020V110 CAVOK 09/08 Q1030=
201203042100 METAR LPPR 042100Z VRB02KT CAVOK 10/08 Q1030=
201203042030 METAR LPPR 042030Z 33005KT 320V030 CAVOK 11/09 Q1030=
201203042000 METAR LPPR 042000Z 34006KT CAVOK 11/09 Q1029=
201203041930 METAR LPPR 041930Z 33008KT CAVOK 11/09 Q1029=
201203041900 METAR LPPR 041900Z 35007KT 9999 FEW015 11/09 Q1029=
201203041830 METAR LPPR 041830Z 33010KT 9999 FEW015 12/09 Q1029=
201203041800 METAR LPPR 041800Z 33010KT 9999 FEW015 12/09 Q1029=
201203041730 METAR LPPR 041730Z 33009KT 300V360 9999 FEW018 13/09 Q1029=
201203041700 METAR LPPR 041700Z 32008KT 9999 FEW016 13/09 Q1029=
201203041630 METAR LPPR 041630Z 32010KT 9999 SCT015 14/10 Q1029=
201203041600 METAR LPPR 041600Z 33011KT 280V350 9999 SCT012 13/10 Q1029=
201203041530 METAR LPPR 041530Z 32012KT 270V350 9999 SCT011 SCT015 13/10
                        Q1029=
201203041500 METAR LPPR 041500Z 32011KT 290V350 9999 FEW012 SCT014 14/11
                        Q1029=
201203041430 METAR LPPR 041430Z 32010KT 280V340 9999 FEW013 SCT030 14/11
                        Q1029=
201203041400 METAR LPPR 041400Z 32011KT 9999 FEW013 SCT015 BKN025 14/11
                        Q1029=
201203041330 METAR LPPR 041330Z 31009KT 280V340 9999 FEW012 SCT015 BKN030
                        14/11 Q1029=
201203041300 METAR LPPR 041300Z 33009KT 290V350 9999 FEW012 SCT015 BKN020
                        14/11 Q1029=
201203041230 METAR LPPR 041230Z 32011G21KT 280V350 9000 -SHRA SCT010 BKN019
                        BKN028 13/11 Q1029=
201203041200 METAR LPPR 041200Z 32009KT 270V360 9999 FEW009 BKN012 BKN025
                        14/11 Q1029=
201203041130 METAR LPPR 041130Z 32011KT 280V340 8000 FEW009 SCT015 BKN020
                        13/11 Q1029=
201203041100 METAR LPPR 041100Z 32009KT 290V350 7000 SCT004 SCT012 BKN018
                        13/11 Q1029=
201203041030 METAR LPPR 041030Z 32007KT 280V350 3000 -RA BR FEW002 BKN004
                        BKN015 13/12 Q1029=
201203041000 METAR LPPR 041000Z 24008KT 200V260 1200 R17/1100VP2000 -RA
                        BR BKN003 BKN005 14/13 Q1028=
201203040930 METAR LPPR 040930Z 23007KT 180V260 4000 BR BKN002 BKN005
                        13/13 Q1028=
201203040900 METAR LPPR 040900Z 22008KT 180V260 3500 -SHRA BR BKN002 BKN003
                        13/13 Q1028=
201203040830 METAR LPPR 040830Z 21009KT 180V240 3500 -SHRA BR BKN002 BKN003
                        13/13 Q1028=
201203040800 METAR LPPR 040800Z 21011KT 190V250 3900 -SHRA BR BKN002 BKN003
                        13/13 Q1028=
201203040730 METAR LPPR 040730Z 20010KT 3500 -RADZ BR BKN003 BKN005 13/12
                        Q1028=
201203040700 METAR LPPR 040700Z 20007KT 4500 -SHRA BR BKN004 BKN011 13/12
                        Q1027=
201203040630 METAR LPPR 040630Z 20007KT 8000 -SHRA BKN004 BKN006 13/12
                        Q1027=
201203040600 METAR LPPR 040600Z 20006KT 9999 SCT005 SCT012 BKN022 13/12
                        Q1028=
201203040530 METAR LPPR 040530Z 20008KT 9999 BKN005 BKN007 13/12 Q1027=
201203040500 METAR LPPR 040500Z 20006KT 160V220 9999 BKN005 BKN012 13/12
                        Q1028=
201203040430 METAR LPPR 040430Z 20006KT 9999 SCT004 BKN006 BKN011 13/12
                        Q1027=
201203040400 METAR LPPR 040400Z 20006KT 170V240 9999 BKN005 BKN012 13/12
                        Q1028=
201203040330 METAR LPPR 040330Z 19008KT 9999 SCT006 BKN010 BKN019 13/12
                        Q1028=
201203040300 METAR LPPR 040300Z 20007KT 9999 SCT004 BKN012 13/12 Q1028=
201203040230 METAR LPPR 040230Z 21006KT 190V250 9999 FEW002 SCT005 BKN011
                        13/12 Q1028=
201203040200 METAR LPPR 040200Z 19006KT 9999 SCT003 BKN011 12/12 Q1028=
201203040130 METAR LPPR 040130Z 20005KT 180V250 9999 FEW005 SCT008 BKN012
                        12/11 Q1028=
201203040100 METAR LPPR 040100Z 19007KT 9999 SCT005 BKN011 12/11 Q1028=
201203040030 METAR LPPR 040030Z 18008KT 9999 SCT004 SCT009 BKN012 13/12
                        Q1028=
201203040000 METAR LPPR 040000Z 19006KT 9999 FEW005 SCT008 BKN010 13/12
                        Q1028=
201203032330 METAR LPPR 032330Z 20005KT 9999 SCT003 BKN007 BKN010 13/12
                        Q1029=
201203032300 METAR LPPR 032300Z 20005KT 9999 SCT003 SCT005 BKN011 13/13
                        Q1029=
201203032230 METAR LPPR 032230Z 22005KT 170V260 9999 SCT003 BKN008 BKN010
                        13/13 Q1029=
201203032200 METAR LPPR 032200Z 22007KT 190V260 8000 SCT002 BKN003 BKN005
                        14/13 Q1029=
201203032130 METAR LPPR 032130Z 21008KT 180V240 9999 SCT002 BKN003 BKN005
                        14/13 Q1029=
201203032100 METAR LPPR 032100Z 20008KT 7000 SCT002 BKN003 BKN005 14/13
                        Q1028=
201203032030 METAR LPPR 032030Z 20007KT 170V230 8000 SCT002 BKN003 BKN005
                        14/13 Q1028=
201203032000 METAR LPPR 032000Z 20009KT 7000 BKN002 BKN003 14/13 Q1028=
201203031930 METAR LPPR 031930Z 20010KT 9000 BKN002 BKN003 14/13 Q1028=
201203031900 METAR LPPR 031900Z 19012KT 8000 BKN002 BKN004 14/13 Q1028=
201203031830 METAR LPPR 031830Z 19012KT 7000 BKN003 BKN004 13/13 Q1028=
201203031800 METAR LPPR 031800Z 19012KT 160V220 8000 SCT003 BKN004 13/13
                        Q1028=
201203031730 METAR LPPR 031730Z 18019KT 9000 BKN003 BKN004 14/13 Q1028=
201203031700 METAR LPPR 031700Z 19015G25KT 9999 BKN003 BKN004 13/12 Q1028=
201203031630 METAR LPPR 031630Z 19015KT 7000 BKN003 BKN004 13/13 Q1027=
201203031600 METAR LPPR 031600Z 19013KT 7000 BKN003 BKN004 13/13 Q1027=
201203031530 METAR LPPR 031530Z 19013KT 9000 BKN005 BKN012 14/13 Q1027=
201203031500 METAR LPPR 031500Z 19013KT 8000 -RA BKN005 BKN012 14/13 Q1028=
201203031430 METAR LPPR 031430Z 18014KT 9999 SCT005 BKN008 14/13 Q1028=
201203031400 METAR LPPR 031400Z 19012KT 8000 BKN006 14/12 Q1028=
201203031330 METAR LPPR 031330Z 19014KT 8000 SCT005 BKN014 14/13 Q1028=
201203031300 METAR LPPR 031300Z 19015KT 8000 -RA BKN005 BKN011 13/12 Q1028=
201203031230 METAR LPPR 031230Z 19015KT 7000 -RA SCT005 BKN012 13/12 Q1028=
201203031200 METAR LPPR 031200Z 18016KT 5000 -RA BKN006 12/11 Q1028=
201203031130 METAR LPPR 031130Z 18014KT 6000 -RA SCT006 BKN012 12/11 Q1028=
201203031100 METAR LPPR 031100Z 18015KT 8000 -RA SCT006 BKN009 12/11 Q1028=
201203031030 METAR LPPR 031030Z 18015KT 8000 -RA OVC008 12/11 Q1028=
201203031000 METAR LPPR 031000Z 18016KT 6000 -RA SCT007 OVC011 12/11 Q1028=
201203030930 METAR LPPR 030930Z 17015G25KT 9999 OVC010 12/11 Q1028=
201203030900 METAR LPPR 030900Z 17013KT 8000 -RA FEW008 BKN011 12/11 Q1028=
201203030830 METAR LPPR 030830Z 18014KT 2500 -RA OVC011 12/10 Q1028=
201203030800 METAR LPPR 030800Z 18011KT 9999 -SHRA BKN013 12/10 Q1028=
201203030730 METAR LPPR 030730Z 16013KT 9999 -SHRA BKN014 12/10 Q1027=
201203030700 METAR LPPR 030700Z 16011KT 8000 -SHRA BKN015 BKN025 11/10
                        Q1027=
201203030630 METAR LPPR 030630Z 16011KT 7000 -SHRA FEW015 BKN030 11/10
                        Q1027=
201203030600 METAR LPPR 030600Z 14008KT 9999 FEW020 BKN030 11/10 Q1027=
201203030530 METAR LPPR 030530Z 15007KT 9999 BKN020 BKN030 11/10 Q1027=
201203030500 METAR LPPR 030500Z 16009KT 9999 BKN025 BKN030 12/09 Q1027=
201203030430 METAR LPPR 030430Z 16010KT 9999 FEW025 BKN040 11/09 Q1027=
201203030400 METAR LPPR 030400Z 17009KT 9999 FEW025 11/09 Q1027=
201203030330 METAR LPPR 030330Z 17009KT 9999 FEW018 11/10 Q1028=
201203030300 METAR LPPR 030300Z 17009KT 9999 FEW020 11/10 Q1028=
201203030230 METAR LPPR 030230Z 17009KT 9999 FEW015 11/10 Q1028=
201203030200 METAR LPPR 030200Z 17008KT 9999 FEW015 11/10 Q1028=
201203030130 METAR LPPR 030130Z 17007KT 9999 FEW015 10/09 Q1028=
201203030100 METAR LPPR 030100Z 17007KT 9999 FEW012 10/09 Q1028=
201203030030 METAR LPPR 030030Z 17007KT 9999 FEW012 10/09 Q1028=
201203030000 METAR LPPR 030000Z 17006KT 9999 FEW009 SCT014 11/10 Q1028=
201203022330 METAR LPPR 022330Z 21005KT 180V250 9999 FEW009 SCT015 12/10
                        Q1028=
201203022300 METAR LPPR 022300Z 19007KT 9999 FEW008 SCT012 12/11 Q1028=
201203022230 METAR LPPR 022230Z 18005KT 9999 FEW009 SCT016 BKN035 11/10
                        Q1028=
201203022200 METAR LPPR 022200Z 17006KT 9000 FEW010 SCT020 BKN040 11/10
                        Q1027=
201203022130 METAR LPPR 022130Z 17007KT 9999 SCT015 11/10 Q1027=
201203022100 METAR LPPR 022100Z 17006KT 9999 FEW015 11/10 Q1027=
201203022030 METAR LPPR 022030Z 19005KT 9999 FEW015 10/10 Q1027=
201203022000 METAR LPPR 022000Z 21003KT 9999 FEW016 11/10 Q1027=
201203021930 METAR LPPR 021930Z 22003KT 190V260 9999 FEW012 12/10 Q1027=
201203021900 METAR LPPR 021900Z 22003KT 190V250 9999 FEW010 FEW016TCU
                        BKN047 12/10 Q1026=
201203021830 METAR LPPR 021830Z 19003KT 9999 FEW010 FEW016TCU SCT045 13/10
                        Q1026=
201203021800 METAR LPPR 021800Z 20004KT 9999 VCSH FEW008 FEW016TCU BKN045
                        13/11 Q1026=
201203021730 METAR LPPR 021730Z 21006KT 180V260 8000 -SHRA FEW008 BKN018
                        FEW019TCU BKN045 13/10 Q1026=
201203021700 METAR LPPR 021700Z 22006KT 190V260 9999 FEW008 FEW018TCU
                        BKN022 BKN042 14/11 Q1026=
201203021630 METAR LPPR 021630Z 23008KT 200V260 9999 FEW009 SCT014TCU
                        BKN028 14/11 Q1026=
201203021600 METAR LPPR 021600Z 23007KT 180V270 9999 FEW012 SCT014 BKN019
                        15/11 Q1026=
201203021530 METAR LPPR 021530Z 22007KT 160V280 9999 BKN014 BKN020 15/11
                        Q1025=
201203021500 METAR LPPR 021500Z 19008KT 160V220 9999 SCT016 BKN020 BKN040
                        14/10 Q1026=
201203021430 METAR LPPR 021430Z 22006KT 180V270 9999 SCT017 BKN020 BKN030
                        15/10 Q1026=
201203021400 METAR LPPR 021400Z 21007KT 170V260 9999 SCT017 SCT025 15/10
                        Q1026=
201203021330 METAR LPPR 021330Z 22006KT 180V270 9999 FEW019 SCT024 15/10
                        Q1026=
201203021300 METAR LPPR 021300Z 24006KT 180V270 9999 FEW017 SCT023 15/10
                        Q1026=
201203021230 METAR LPPR 021230Z 19006KT 120V230 9999 FEW013 BKN028 14/10
                        Q1026=
201203021200 METAR LPPR 021200Z 23006KT 200V270 9000 FEW010 BKN028 15/11
                        Q1026=
201203021130 METAR LPPR 021130Z 20004KT 150V260 9000 SCT015 BKN018 BKN022
                        14/10 Q1026=
201203021100 METAR LPPR 021100Z 16004KT 130V190 9000 FEW009 BKN015 14/09
                        Q1026=
201203021030 METAR LPPR 021030Z 16004KT 110V210 6000 FEW009 SCT013 BKN015
                        13/10 Q1026=
201203021000 METAR LPPR 021000Z 14006KT 5000 BR FEW013 13/09 Q1026=
201203020930 METAR LPPR 020930Z 13006KT 4100 BR SCT008 11/09 Q1026=
201203020900 METAR LPPR 020900Z 12006KT 4000 BR FEW009 10/08 Q1025=
201203020830 METAR LPPR 020830Z 12006KT 4000 BR FEW009 SCT020 09/08 Q1025=
201203020800 METAR LPPR 020800Z 11007KT 3500 BR FEW009 SCT019 09/08 Q1025=
201203020730 METAR LPPR 020730Z 12006KT 3500 BR FEW008 BKN018 09/08 Q1025=
201203020700 METAR LPPR 020700Z 12008KT 4000 BR FEW009 BKN018 09/08 Q1024=
201203020630 METAR LPPR 020630Z 00000KT 4000 BR FEW008 BKN012 08/08 Q1024=
201203020600 METAR LPPR 020600Z VRB01KT 4000 BR BKN011 08/07 Q1024=
201203020530 METAR LPPR 020530Z 11006KT 3500 BR SCT010 08/07 Q1024=
201203020500 METAR LPPR 020500Z 12005KT 4000 BR FEW007 BKN011 08/07 Q1024=
201203020430 METAR LPPR 020430Z VRB02KT 3500 BR FEW007 SCT011 07/07 Q1023=
201203020400 METAR LPPR 020400Z VRB02KT 4000 BR FEW007 SCT011 09/08 Q1023=
201203020330 METAR LPPR 020330Z 16002KT 4000 BR SCT011 08/08 Q1023=
201203020300 METAR LPPR 020300Z 00000KT 4000 BR FEW008 BKN011 09/09 Q1023=
201203020230 METAR LPPR 020230Z 10001KT 4000 BR BKN012 09/08 Q1023=
201203020200 METAR LPPR 020200Z VRB02KT 6000 OVC011 10/09 Q1023=
201203020130 METAR LPPR 020130Z VRB02KT 4000 BR BKN010 09/09 Q1024=
201203020100 METAR LPPR 020100Z 00000KT 4000 BR BKN010 09/08 Q1024=
201203020030 METAR LPPR 020030Z 00000KT 4000 BR BKN011 09/08 Q1023=
201203020000 METAR LPPR 020000Z 00000KT 4000 BR FEW009 BKN012 09/08 Q1024=
201203012330 METAR LPPR 012330Z VRB01KT 4000 BR FEW008 BKN011 08/08 Q1024=
201203012300 METAR LPPR 012300Z 21001KT 3000 BR FEW008 SCT012 09/08 Q1024=
201203012230 METAR LPPR 012230Z VRB01KT 4600 BR SCT008 BKN011 08/08 Q1024=
201203012200 METAR LPPR 012200Z VRB01KT 4000 BR FEW007 BKN009 08/08 Q1024=
201203012130 METAR LPPR 012130Z 00000KT 4000 BR FEW007 SCT009 09/08 Q1024=
201203012100 METAR LPPR 012100Z 17002KT 4000 BR FEW007 08/08 Q1023=
201203012030 METAR LPPR 012030Z VRB01KT 5000 BR FEW009 09/08 Q1023=
201203012000 METAR LPPR 012000Z 00000KT 7000 FEW013 10/08 Q1023=
201203011930 METAR LPPR 011930Z 00000KT 8000 FEW012 11/09 Q1023=
201203011900 METAR LPPR 011900Z 32004KT 280V340 8000 NSC 11/08 Q1022=
201203011830 METAR LPPR 011830Z 27003KT 240V320 6000 NSC 12/08 Q1022=
201203011800 METAR LPPR 011800Z 32006KT 9000 NSC 13/08 Q1022=
201203011730 METAR LPPR 011730Z 33010KT 290V360 9000 NSC 13/08 Q1022=
201203011700 METAR LPPR 011700Z 31007KT 280V340 8000 FEW014 13/10 Q1021=
201203011630 METAR LPPR 011630Z 30004KT 210V350 7000 FEW023 13/10 Q1022=
201203011600 METAR LPPR 011600Z 30006KT 260V340 7000 FEW013 13/10 Q1021=
201203011530 METAR LPPR 011530Z 29006KT 270V330 6000 NSC 14/09 Q1021=
201203011500 METAR LPPR 011500Z 29006KT 260V320 7000 FEW025 13/09 Q1021=
201203011430 METAR LPPR 011430Z 29006KT 260V330 7000 FEW025 14/09 Q1021=
201203011400 METAR LPPR 011400Z 30006KT 260V340 6000 FEW025 14/08 Q1020=
201203011330 METAR LPPR 011330Z 27006KT 230V310 6000 FEW022 14/08 Q1021=
201203011300 METAR LPPR 011300Z 28005KT 250V310 4600 BR FEW020 14/09 Q1021=
201203011230 METAR LPPR 011230Z 28004KT 250V310 5000 BR NSC 14/07 Q1021=
201203011200 METAR LPPR 011200Z 28005KT 210V320 4500 BR NSC 14/08 Q1021=
201203011130 METAR LPPR 011130Z 30004KT 4000 BR NSC 14/09 Q1021=
201203011100 METAR LPPR 011100Z VRB03KT 5000 BR NSC 14/06 Q1021=
201203011030 METAR LPPR 011030Z VRB02KT 6000 NSC 13/07 Q1021=
201203011000 METAR LPPR 011000Z VRB03KT 5000 BR NSC 11/07 Q1021=
201203010930 METAR LPPR 010930Z VRB01KT 5000 BR NSC 12/07 Q1021=
201203010900 METAR LPPR 010900Z 09004KT 060V170 4800 BR FEW040 10/06 Q1021=
201203010830 METAR LPPR 010830Z 12003KT 090V150 3800 BR FEW022 08/06 Q1021=
201203010800 METAR LPPR 010800Z VRB01KT 2300 VCFG BR NSC 04/04 Q1021=
201203010730 METAR LPPR 010730Z VRB01KT 2000 VCFG BR FEW006 05/05 Q1020=
201203010700 METAR LPPR 010700Z VRB02KT 4100 BR FEW008 06/05 Q1020=
201203010630 METAR LPPR 010630Z VRB01KT 4200 BR NSC 07/06 Q1020=
201203010600 METAR LPPR 010600Z 00000KT 4100 BR NSC 06/05 Q1020=
201203010530 METAR LPPR 010530Z VRB03KT 4000 BR NSC 07/06 Q1020=
201203010500 METAR LPPR 010500Z VRB03KT 4100 BR NSC 07/06 Q1020=
201203010430 METAR LPPR 010430Z 13003KT 4300 BR NSC 07/06 Q1020=
201203010400 METAR LPPR 010400Z 15003KT 100V210 4100 BR NSC 07/06 Q1020=
201203010330 METAR LPPR 010330Z 14002KT 4300 BR NSC 07/06 Q1020=
201203010300 METAR LPPR 010300Z 00000KT 4300 BR FEW007 05/05 Q1020=
201203010230 METAR LPPR 010230Z VRB01KT 4000 BR FEW006 05/05 Q1020=
201203010200 METAR LPPR 010200Z 14002KT 4100 0300N R17/0375 VCFG BR FEW006
                        04/04 Q1020=
201203010130 METAR LPPR 010130Z 00000KT 4000 R17/1000VP2000 VCFG BR SCT003
                        05/05 Q1020=
201203010100 METAR LPPR 010100Z 15001KT 3600 0350N R17/0325 PRFG SCT002
                        05/05 Q1021=
201203010030 METAR LPPR 010030Z 00000KT 0250 R17/0275N BCFG BKN002 07/07
                        Q1021=
201203010000 METAR LPPR 010000Z 00000KT 0300 0200S R17/0325V0500 BCFG
                        FEW001 SCT003 BKN009 06/06 Q1021=

</pre>

</body>
</html>
