##########################################################
# Query made at 11/07/2014 14:28:39 UTC
# Time interval: from 05/01/2008 00:00  to 05/31/2008 23:59  UTC
##########################################################

##########################################################
# LPPR, Porto / Pedras Rubras (Portugal)
# WMO index: 08545
# Latitude 41-14N. Longitude 008-41W. Altitude 69 m.
##########################################################

###################################
#  METAR/SPECI from LPPR
###################################
200805312330 METAR LPPR 312330Z 00000KT 8000 SCT040 15/15 Q1015=
200805312300 METAR LPPR 312300Z 33003KT 9000 SCT040 15/15 Q1015=
200805312230 METAR LPPR 312230Z VRB02KT 9999 SCT040 15/15 Q1015=
200805312200 METAR LPPR 312200Z VRB03KT 9999 SCT040 15/15 Q1015=
200805312130 METAR LPPR 312130Z 33007KT 9999 SCT040 15/15 Q1015=
200805312100 METAR LPPR 312100Z 32008KT 9999 FEW012 SCT040 16/16 Q1015=
200805312030 METAR LPPR 312030Z 33008KT 9999 FEW008 SCT012 16/16 Q1014=
200805312000 METAR LPPR 312000Z 32011KT 9999 FEW008 SCT012 16/16 Q1014=
200805311930 METAR LPPR 311930Z 33011KT 290V350 9999 FEW008 SCT012 16/16
                        Q1014=
200805311900 METAR LPPR 311900Z 32013KT 9999 SCT012 FEW020CB 17/17 Q1014=
200805311830 METAR LPPR 311830Z 33012KT 9999 SCT015 FEW020CB 17/16 Q1014=
200805311800 METAR LPPR 311800Z 31013KT 9999 SCT015 FEW020CB 17/16 Q1014=
200805311730 METAR LPPR 311730Z 31012KT 280V340 9999 SCT012 FEW020CB 17/15
                        Q1014=
200805311700 METAR LPPR 311700Z 31012KT 9999 BKN012 FEW020CB 17/16 Q1014=
200805311630 METAR LPPR 311630Z 32014KT 280V350 9999 BKN012 FEW020CB 17/16
                        Q1014=
200805311600 METAR LPPR 311600Z 32013KT 290V350 9999 BKN015 FEW020CB 18/16
                        Q1014=
200805311530 METAR LPPR 311530Z 32013KT 9999 BKN012 FEW020CB 18/16 Q1014=
200805311500 METAR LPPR 311500Z 31012KT 280V350 9999 SCT015 FEW020CB 18/16
                        Q1014=
200805311430 METAR LPPR 311430Z 33011KT 290V350 9999 SCT015 FEW020CB 18/15
                        Q1014=
200805311400 METAR LPPR 311400Z 33012KT 9999 SCT015 18/15 Q1014=
200805311330 METAR LPPR 311330Z 32012KT 290V350 9999 SCT015 18/15 Q1014=
200805311300 METAR LPPR 311300Z 31010KT 9999 SCT015 18/15 Q1015=
200805311230 METAR LPPR 311230Z 31011KT 260V340 9999 SCT013 17/15 Q1015=
200805311200 METAR LPPR 311200Z 29011KT 260V330 9999 SCT017 17/14 Q1015=
200805311130 METAR LPPR 311130Z 30009KT 270V350 9999 SCT015 17/14 Q1015=
200805311100 METAR LPPR 311100Z 31007KT 270V350 9999 SCT015 17/15 Q1015=
200805311030 METAR LPPR 311030Z 29006KT 230V330 9999 SCT015 17/15 Q1015=
200805311000 METAR LPPR 311000Z 29005KT 240V030 9999 BKN015 17/16 Q1015=
200805310930 METAR LPPR 310930Z VRB03KT 9999 BKN015 16/15 Q1015=
200805310900 METAR LPPR 310900Z 28005KT 260V330 9999 BKN015 15/15 Q1015=
200805310830 METAR LPPR 310830Z 00000KT 9999 SCT013 16/15 Q1015=
200805310800 METAR LPPR 310800Z 00000KT 9999 FEW013 15/15 Q1015=
200805310730 METAR LPPR 310730Z VRB03KT 8000 FEW017 14/14 Q1015=
200805310700 METAR LPPR 310700Z VRB03KT 8000 FEW017 13/13 Q1014=
200805310630 METAR LPPR 310630Z 10003KT 9999 FEW017 12/12 Q1014=
200805310600 METAR LPPR 310600Z 00000KT 8000 FEW017 10/10 Q1014=
200805310530 METAR LPPR 310530Z 00000KT 8000 FEW100 10/10 Q1014=
200805310500 METAR LPPR 310500Z 00000KT 8000 FEW100 10/10 Q1014=
200805310430 METAR LPPR 310430Z 00000KT CAVOK 11/11 Q1014=
200805310400 METAR LPPR 310400Z 10003KT CAVOK 11/11 Q1013=
200805310330 METAR LPPR 310330Z 11002KT CAVOK 11/11 Q1013=
200805310300 METAR LPPR 310300Z 00000KT CAVOK 11/11 Q1013=
200805310230 METAR LPPR 310230Z 10003KT CAVOK 12/12 Q1014=
200805310200 METAR LPPR 310200Z 00000KT CAVOK 12/12 Q1014=
200805310130 METAR LPPR 310130Z 34002KT CAVOK 12/12 Q1014=
200805310100 METAR LPPR 310100Z 35003KT 9999 FEW020 12/12 Q1014=
200805310030 METAR LPPR 310030Z 35003KT 9999 FEW020 12/12 Q1014=
200805310000 METAR LPPR 310000Z 35003KT 9999 FEW020 12/12 Q1014=
200805302330 METAR LPPR 302330Z 35005KT 9999 FEW017 13/13 Q1014=
200805302300 METAR LPPR 302300Z 34005KT 9999 FEW017 13/13 Q1014=
200805302230 METAR LPPR 302230Z 33007KT 9999 FEW017 14/14 Q1014=
200805302200 METAR LPPR 302200Z 34003KT 9999 FEW017 13/13 Q1014=
200805302130 METAR LPPR 302130Z 33006KT 280V360 9999 FEW017 14/14 Q1014=
200805302100 METAR LPPR 302100Z 33006KT 9999 FEW017 14/14 Q1014=
200805302030 METAR LPPR 302030Z 33008KT 9999 FEW017 FEW020TCU 14/14 Q1014=
200805302000 METAR LPPR 302000Z 33009KT 9999 FEW017 FEW020TCU 14/14 Q1013=
200805301930 METAR LPPR 301930Z 32009KT 290V350 9999 FEW017 FEW020TCU
                        15/13 Q1013=
200805301900 METAR LPPR 301900Z 33010KT 290V350 9999 FEW015 FEW020TCU
                        16/14 Q1013=
200805301830 METAR LPPR 301830Z 32011KT 290V350 9999 SCT015 FEW020TCU
                        16/13 Q1013=
200805301800 METAR LPPR 301800Z 33010KT 9999 SCT015 FEW020TCU 16/13 Q1013=
200805301730 METAR LPPR 301730Z 32012KT 290V350 9999 SCT015 FEW020TCU
                        16/13 Q1013=
200805301700 METAR LPPR 301700Z 32011KT 9999 SCT015 FEW020TCU 17/14 Q1013=
200805301630 METAR LPPR 301630Z 32010KT 290V360 9999 FEW015 17/13 Q1013=
200805301600 METAR LPPR 301600Z 31010KT 270V350 9999 SCT015 17/13 Q1013=
200805301530 METAR LPPR 301530Z 30009KT 270V340 9999 SCT015 18/14 Q1013=
200805301500 METAR LPPR 301500Z 31009KT 270V360 9999 SCT015 17/14 Q1013=
200805301430 METAR LPPR 301430Z 30010KT 270V340 9999 SCT015 17/14 Q1013=
200805301400 METAR LPPR 301400Z 30009KT 260V350 9999 SCT015 17/13 Q1013=
200805301330 METAR LPPR 301330Z 30010KT 260V330 9999 FEW015 17/14 Q1013=
200805301300 METAR LPPR 301300Z 29009KT 250V350 9999 FEW015 17/14 Q1013=
200805301230 METAR LPPR 301230Z 29008KT 250V330 9999 FEW015 17/14 Q1013=
200805301200 METAR LPPR 301200Z 27007KT 240V330 9999 FEW015 17/14 Q1014=
200805301130 METAR LPPR 301130Z 27007KT 230V300 9999 SCT015 FEW020CB 17/14
                        Q1014=
200805301100 METAR LPPR 301100Z 29006KT 270V330 9999 SCT015 FEW020CB 17/12
                        Q1014=
200805301030 METAR LPPR 301030Z 30005KT 240V350 9999 SCT015 FEW020CB 17/14
                        Q1014=
200805301000 METAR LPPR 301000Z 25004KT 210V320 9999 SCT015 FEW020CB 16/14
                        Q1014=
200805300930 METAR LPPR 300930Z 28005KT 220V320 9999 SCT015 FEW020CB 16/14
                        Q1014=
200805300900 METAR LPPR 300900Z VRB02KT 9999 BKN015 17/14 Q1013=
200805300830 METAR LPPR 300830Z VRB02KT 9999 SCT015 16/14 Q1013=
200805300800 METAR LPPR 300800Z 11004KT 9999 SCT015 SCT030 14/14 Q1013=
200805300730 METAR LPPR 300730Z 00000KT 9999 SCT015 SCT030 14/14 Q1013=
200805300700 METAR LPPR 300700Z 00000KT 7000 -SHRA FEW005 BKN015 13/13
                        Q1013=
200805300630 METAR LPPR 300630Z 12005KT 8000 VCSH FEW005 BKN015 13/13
                        Q1013=
200805300600 METAR LPPR 300600Z 12005KT 8000 SCT015 SCT025 13/13 Q1013=
200805300530 METAR LPPR 300530Z 12004KT 8000 SCT015 SCT025 13/13 Q1013=
200805300500 METAR LPPR 300500Z 12003KT 8000 SCT015 SCT030 BKN070 13/13
                        Q1013=
200805300430 METAR LPPR 300430Z 10003KT 9999 SCT030 BKN070 13/13 Q1013=
200805300400 METAR LPPR 300400Z 12002KT 9999 SCT030 BKN070 13/13 Q1013=
200805300330 METAR LPPR 300330Z 00000KT 9999 FEW015 SCT030 BKN070 13/13
                        Q1013=
200805300300 METAR LPPR 300300Z 00000KT 9999 -SHRA SCT013 BKN025 13/13
                        Q1013 RERA=
200805300230 METAR LPPR 300230Z 00000KT 9999 -SHRA SCT013 BKN030 13/13
                        Q1013=
200805300200 METAR LPPR 300200Z 17002KT 9999 FEW015 SCT030 BKN070 13/13
                        Q1013=
200805300130 METAR LPPR 300130Z 00000KT 9999 FEW015 SCT030 BKN070 13/13
                        Q1013=
200805300100 METAR LPPR 300100Z 00000KT 9999 BKN030 BKN070 13/13 Q1014=
200805300030 METAR LPPR 300030Z 00000KT 9999 BKN030 BKN070 13/13 Q1014=
200805300000 METAR LPPR 300000Z 00000KT 9999 FEW012 BKN030 13/13 Q1014=
200805292330 METAR LPPR 292330Z VRB03KT 9999 FEW012 BKN030 13/13 Q1014=
200805292300 METAR LPPR 292300Z 28007KT 210V330 9999 FEW012 SCT030 BKN070
                        14/14 Q1014=
200805292230 METAR LPPR 292230Z 00000KT 9999 FEW012 SCT030 BKN070 14/14
                        Q1015=
200805292200 METAR LPPR 292200Z 00000KT 9999 FEW012 SCT030 BKN070 14/14
                        Q1015=
200805292130 METAR LPPR 292130Z 00000KT 9999 FEW012 SCT030 BKN070 14/14
                        Q1015=
200805292100 METAR LPPR 292100Z VRB02KT 9999 FEW012 SCT030 BKN070 14/14
                        Q1014=
200805292030 METAR LPPR 292030Z VRB02KT 9999 SCT012 SCT030 BKN070 14/14
                        Q1014=
200805292000 METAR LPPR 292000Z VRB02KT 9999 SCT012 BKN030 15/15 Q1014=
200805291930 METAR LPPR 291930Z VRB05KT 9999 SCT012 BKN030 15/15 Q1014=
200805291900 METAR LPPR 291900Z 28004KT 250V310 9999 SCT015 SCT030 15/15
                        Q1014=
200805291830 METAR LPPR 291830Z 28005KT 250V330 9999 FEW008 SCT015 FEW017TCU
                        15/15 Q1014=
200805291800 METAR LPPR 291800Z 29006KT 260V330 9999 FEW008 SCT015 FEW017TCU
                        15/15 Q1014=
200805291730 METAR LPPR 291730Z 27007KT 230V300 9999 SCT015 FEW017TCU
                        BKN030 16/15 Q1014=
200805291700 METAR LPPR 291700Z 27006KT 230V310 9999 SCT013 FEW017TCU
                        BKN030 16/15 Q1014=
200805291630 METAR LPPR 291630Z 24007KT 200V270 9999 -SHRA SCT006 BKN013
                        FEW017TCU 15/15 Q1014=
200805291600 METAR LPPR 291600Z 21010KT 180V240 9999 BKN013 FEW017TCU
                        16/15 Q1014=
200805291530 METAR LPPR 291530Z 22009KT 190V260 9999 SCT013 SCT030 16/15
                        Q1014=
200805291500 METAR LPPR 291500Z 23009KT 200V260 9999 FEW013 SCT030 17/15
                        Q1014=
200805291430 METAR LPPR 291430Z 22009KT 190V250 9999 SCT013 SCT030 BKN060
                        16/16 Q1014=
200805291400 METAR LPPR 291400Z 21009KT 9999 SCT013 BKN030 16/16 Q1014=
200805291330 METAR LPPR 291330Z 22007KT 190V260 9999 SCT013 BKN030 15/15
                        Q1014=
200805291300 METAR LPPR 291300Z 20006KT 9999 SCT006 SCT013 BKN017 14/14
                        Q1014=
200805291230 METAR LPPR 291230Z 21008KT 7000 SCT005 SCT008 BKN015 14/14
                        Q1014=
200805291200 METAR LPPR 291200Z 25009KT 230V290 3000 -RA BR SCT003 BKN008
                        BKN015 14/14 Q1014=
200805291130 METAR LPPR 291130Z 27009KT 250V310 3000 -SHRA BR BKN004 SCT015
                        14/14 Q1013=
200805291100 METAR LPPR 291100Z 28008KT 250V320 9999 FEW008 SCT015 BKN025
                        15/15 Q1013=
200805291030 METAR LPPR 291030Z 24007KT 200V290 9999 FEW015 SCT025 BKN060
                        16/15 Q1013=
200805291000 METAR LPPR 291000Z 21006KT 190V260 9999 SCT015 SCT030 BKN060
                        15/15 Q1013=
200805290930 METAR LPPR 290930Z 23009KT 190V270 8000 SCT015 SCT040 BKN060
                        16/14 Q1013=
200805290900 METAR LPPR 290900Z 24008KT 200V270 9999 SCT015 BKN040 16/14
                        Q1013=
200805290830 METAR LPPR 290830Z 23008KT 180V290 9999 SCT015 SCT040 16/14
                        Q1012=
200805290800 METAR LPPR 290800Z 23006KT 200V270 9999 FEW015 SCT045 16/14
                        Q1012=
200805290730 METAR LPPR 290730Z 23005KT 200V270 9999 FEW015 BKN045 15/15
                        Q1012=
200805290700 METAR LPPR 290700Z 23004KT 190V280 9999 SCT017 SCT040 15/15
                        Q1012=
200805290630 METAR LPPR 290630Z 24005KT 210V270 8000 -SHRA SCT017 SCT020TCU
                        BKN040 15/15 Q1012=
200805290600 METAR LPPR 290600Z 20004KT 9999 BKN017 14/14 Q1011=
200805290530 METAR LPPR 290530Z 20003KT 9999 SCT017 13/13 Q1011=
200805290500 METAR LPPR 290500Z VRB03KT 9999 SCT015 SCT035 13/13 Q1011=
200805290430 METAR LPPR 290430Z 26005KT 230V290 8000 -SHRA FEW009 SCT015
                        BKN035 14/14 Q1011=
200805290400 METAR LPPR 290400Z 25005KT 210V280 9999 FEW009 BKN018 14/14
                        Q1011=
200805290330 METAR LPPR 290330Z 23006KT 190V260 9999 FEW009 BKN012 14/14
                        Q1011=
200805290300 METAR LPPR 290300Z 22003KT 9999 FEW009 BKN012 14/14 Q1011=
200805290230 METAR LPPR 290230Z VRB03KT 9999 FEW009 BKN012 14/14 Q1011=
200805290200 METAR LPPR 290200Z 25005KT 220V290 9999 FEW009 BKN015 14/14
                        Q1011=
200805290130 METAR LPPR 290130Z 26005KT 210V300 9999 FEW009 BKN012 14/14
                        Q1011=
200805290100 METAR LPPR 290100Z VRB03KT 9999 FEW009 BKN012 14/14 Q1011=
200805290030 METAR LPPR 290030Z 22005KT 170V270 9999 FEW009 BKN012 14/14
                        Q1011=
200805290000 METAR LPPR 290000Z 20004KT 170V270 9999 FEW009 BKN015 14/14
                        Q1011=
200805282330 METAR LPPR 282330Z VRB03KT 8000 SCT007 BKN008 14/14 Q1011=
200805282300 METAR LPPR 282300Z 19021G32KT 3000 -RA BR SCT003 BKN005 13/13
                        Q1010=
200805282230 METAR LPPR 282230Z 17016KT 5000 -RA BR SCT004 BKN006 13/13
                        Q1010=
200805282200 METAR LPPR 282200Z 16016KT 5000 -RA BR SCT005 BKN007 13/13
                        Q1010=
200805282130 METAR LPPR 282130Z 17017KT 5000 -RA BR SCT004 BKN006 13/13
                        Q1010=
200805282100 METAR LPPR 282100Z 18019KT 4000 -RA BR SCT003 BKN005 14/14
                        Q1010=
200805282030 METAR LPPR 282030Z 19016KT 4000 -RA BR SCT005 SCT010 BKN020
                        14/14 Q1010=
200805282000 METAR LPPR 282000Z 17013KT 2000 -RA BR SCT003 SCT010 BKN018
                        14/14 Q1010=
200805281930 METAR LPPR 281930Z 16013KT 4000 -RA SCT006 SCT015 BKN025
                        14/14 Q1011=
200805281900 METAR LPPR 281900Z 18014KT 3000 -RA BR SCT005 SCT012 BKN020
                        14/14 Q1011=
200805281830 METAR LPPR 281830Z 20016KT 4000 -RA BR SCT005 SCT012 BKN020
                        14/14 Q1011 RERA=
200805281800 METAR LPPR 281800Z 19016KT 7000 -RA FEW013 BKN020 15/15 Q1011=
200805281730 METAR LPPR 281730Z 19015KT 8000 -RA FEW015 BKN020 BKN070
                        15/15 Q1011=
200805281700 METAR LPPR 281700Z 20014KT 8000 -RA FEW015 SCT035 BKN070
                        15/15 Q1012=
200805281630 METAR LPPR 281630Z 20014KT 9999 SCT015 BKN035 16/13 Q1012=
200805281600 METAR LPPR 281600Z 21013KT 9999 SCT015 SCT040 BKN080 16/12
                        Q1012=
200805281530 METAR LPPR 281530Z 21013KT 9999 SCT015 BKN045 16/12 Q1012=
200805281500 METAR LPPR 281500Z 22010KT 180V270 9999 SCT015 BKN090 17/12
                        Q1012=
200805281430 METAR LPPR 281430Z 22011KT 190V260 9999 FEW015 BKN090 17/12
                        Q1012=
200805281400 METAR LPPR 281400Z 23011KT 190V260 9999 FEW015 BKN090 17/12
                        Q1012=
200805281330 METAR LPPR 281330Z 24010KT 180V280 9999 FEW015 BKN090 17/11
                        Q1012=
200805281300 METAR LPPR 281300Z 24009KT 9999 SCT015 BKN090 16/11 Q1012=
200805281230 METAR LPPR 281230Z 23010KT 190V280 9999 SCT015 BKN090 17/11
                        Q1012=
200805281200 METAR LPPR 281200Z 24010KT 190V280 9999 SCT015 BKN090 17/12
                        Q1012=
200805281130 METAR LPPR 281130Z 25009KT 210V290 9999 BKN016 16/12 Q1012=
200805281100 METAR LPPR 281100Z 25009KT 220V280 9999 BKN017 17/12 Q1012=
200805281030 METAR LPPR 281030Z 25007KT 200V300 8000 -SHRA BKN015 FEW025CB
                        SCT035 15/13 Q1012=
200805281000 METAR LPPR 281000Z 27006KT 9999 BKN015 FEW025CB SCT035 15/12
                        Q1012=
200805280930 METAR LPPR 280930Z 28006KT 260V320 9999 SCT015 FEW025CB BKN035
                        15/13 Q1011=
200805280900 METAR LPPR 280900Z 29007KT 260V330 9999 SCT015 FEW025CB BKN035
                        15/13 Q1011=
200805280830 METAR LPPR 280830Z 30007KT 270V330 9999 SCT015 FEW025CB BKN035
                        15/13 Q1011=
200805280800 METAR LPPR 280800Z 30005KT 260V330 9999 -SHRA SCT015 SCT030
                        14/14 Q1011=
200805280730 METAR LPPR 280730Z 29004KT 240V340 9999 FEW015 SCT035 BKN050
                        14/14 Q1011=
200805280700 METAR LPPR 280700Z 29004KT 260V320 9999 FEW015 SCT035 BKN050
                        14/14 Q1011=
200805280630 METAR LPPR 280630Z VRB02KT 9999 -SHRA SCT015 SCT025 BKN070
                        13/13 Q1010=
200805280600 METAR LPPR 280600Z 00000KT 9999 -SHRA SCT015 BKN030 13/13
                        Q1010=
200805280530 METAR LPPR 280530Z 00000KT 9999 BKN015 BKN025 13/13 Q1010=
200805280500 METAR LPPR 280500Z 00000KT 9999 SCT015 BKN025 13/13 Q1010=
200805280430 METAR LPPR 280430Z VRB03KT 9999 -SHRA SCT015 BKN035 14/11
                        Q1009=
200805280400 METAR LPPR 280400Z 28005KT 9999 SCT017 BKN035 14/13 Q1009=
200805280330 METAR LPPR 280330Z 26004KT 210V290 9999 SCT017 BKN030 14/11
                        Q1009=
200805280300 METAR LPPR 280300Z VRB02KT 9999 SCT017 BKN030 13/12 Q1010=
200805280230 METAR LPPR 280230Z 00000KT 9999 SCT017 SCT030 12/12 Q1010=
200805280200 METAR LPPR 280200Z 00000KT 9999 SCT017 13/12 Q1010=
200805280130 METAR LPPR 280130Z VRB02KT 9999 SCT017 13/11 Q1010=
200805280100 METAR LPPR 280100Z VRB03KT 9999 SCT017 SCT030 13/11 Q1010=
200805280030 METAR LPPR 280030Z 30004KT 270V330 9999 SCT017 SCT030 13/11
                        Q1010=
200805280000 METAR LPPR 280000Z 32005KT 9999 SCT015 SCT030 13/11 Q1010=
200805272330 METAR LPPR 272330Z 31006KT 290V360 9999 SCT015 SCT030 13/11
                        Q1010=
200805272300 METAR LPPR 272300Z 32007KT 9999 SCT015 SCT030 14/11 Q1010=
200805272230 METAR LPPR 272230Z 32005KT 9999 SCT015 SCT030 14/11 Q1010=
200805272200 METAR LPPR 272200Z 33007KT 9999 SCT015 SCT080 14/11 Q1010=
200805272130 METAR LPPR 272130Z 32009KT 9999 SCT015 SCT030 14/12 Q1010=
200805272100 METAR LPPR 272100Z 33007KT 280V350 9999 SCT015 SCT030 14/12
                        Q1010=
200805272030 METAR LPPR 272030Z 33009KT 9999 SCT015 SCT025 14/12 Q1009=
200805272000 METAR LPPR 272000Z 32011KT 9999 BKN015 SCT050 14/13 Q1009=
200805271930 METAR LPPR 271930Z 32011KT 9999 BKN015 15/12 Q1009=
200805271900 METAR LPPR 271900Z 32013KT 290V350 9999 BKN015 15/12 Q1009=
200805271830 METAR LPPR 271830Z 33011G22KT 300V360 9999 BKN015 15/12 Q1008=
200805271800 METAR LPPR 271800Z 34015KT 9999 BKN015 15/12 Q1008=
200805271730 METAR LPPR 271730Z 32014KT 9999 SCT015 16/12 Q1008=
200805271700 METAR LPPR 271700Z 33016KT 290V350 9999 SCT015 16/12 Q1008=
200805271630 METAR LPPR 271630Z 33017KT 9999 SCT015 16/12 Q1008=
200805271600 METAR LPPR 271600Z 33019KT 9999 SCT015 17/13 Q1008=
200805271530 METAR LPPR 271530Z 33018KT 9999 BKN015 15/13 Q1008=
200805271500 METAR LPPR 271500Z 32016KT 290V350 9999 BKN015 17/13 Q1007=
200805271430 METAR LPPR 271430Z 33016KT 290V350 9999 SCT015 17/14 Q1007=
200805271400 METAR LPPR 271400Z 32015KT 9999 BKN015 FEW020CB 16/14 Q1007=
200805271330 METAR LPPR 271330Z 33014KT 300V360 9999 BKN015 FEW020CB 17/15
                        Q1007=
200805271300 METAR LPPR 271300Z 32016KT 280V350 9999 SCT015 FEW020CB 17/14
                        Q1007=
200805271230 METAR LPPR 271230Z 32016KT 9999 FEW016 FEW020CB BKN070 16/13
                        Q1008=
200805271200 METAR LPPR 271200Z 32015KT 9999 SCT016 FEW020CB BKN070 16/13
                        Q1008=
200805271130 METAR LPPR 271130Z 32013KT 290V360 9999 FEW016 FEW020CB BKN070
                        15/14 Q1008=
200805271100 METAR LPPR 271100Z 33012KT 300V360 9999 FEW016 FEW020CB BKN070
                        16/14 Q1008=
200805271030 METAR LPPR 271030Z 32010KT 9999 SCT017 BKN070 15/15 Q1008=
200805271000 METAR LPPR 271000Z 31007KT 230V350 9999 FEW017 SCT070 16/16
                        Q1007=
200805270930 METAR LPPR 270930Z 02004KT 310V080 9999 FEW017 BKN070 17/14
                        Q1007=
200805270900 METAR LPPR 270900Z 36007KT 320V020 9999 FEW017 SCT030 BKN070
                        16/15 Q1007=
200805270830 METAR LPPR 270830Z 34007KT 9999 FEW017 SCT035 BKN070 15/15
                        Q1008=
200805270800 METAR LPPR 270800Z 34006KT 300V010 9999 FEW017 BKN035 15/15
                        Q1007=
200805270730 METAR LPPR 270730Z 35003KT 9999 FEW017 BKN030 14/14 Q1007=
200805270700 METAR LPPR 270700Z 35004KT 9999 FEW017 SCT030 14/14 Q1007=
200805270630 METAR LPPR 270630Z 02004KT 9999 FEW017 SCT030 13/13 Q1007=
200805270600 METAR LPPR 270600Z 36004KT 340V040 9999 FEW017 SCT030 BKN070
                        12/12 Q1007=
200805270530 METAR LPPR 270530Z 02003KT 9999 FEW017 SCT030 BKN070 12/12
                        Q1006=
200805270500 METAR LPPR 270500Z VRB02KT 9999 FEW020 BKN070 12/12 Q1006=
200805270430 METAR LPPR 270430Z 00000KT 9999 FEW020 BKN070 12/12 Q1006=
200805270400 METAR LPPR 270400Z VRB02KT 9999 FEW020 BKN070 12/12 Q1006=
200805270330 METAR LPPR 270330Z 36003KT 9999 FEW017 BKN070 12/12 Q1006=
200805270300 METAR LPPR 270300Z 11005KT 9999 FEW017 BKN070 12/12 Q1006=
200805270230 METAR LPPR 270230Z 10005KT 070V130 9999 FEW008 BKN080 12/12
                        Q1006=
200805270200 METAR LPPR 270200Z 10005KT 9000 -RA SCT007 SCT011 BKN060
                        13/13 Q1006=
200805270130 METAR LPPR 270130Z 11005KT 050V150 2000 RA BR BKN007 BKN011
                        13/13 Q1006=
200805270100 METAR LPPR 270100Z 12004KT 040V160 3000 -RADZ BR BKN007 BKN012
                        13/13 Q1006=
200805270030 METAR LPPR 270030Z 14004KT 110V170 1500 +SHRA SCT005 SCT012
                        SCT020CB BKN060 13/13 Q1006=
200805270000 METAR LPPR 270000Z 12007KT 3000 SHRA SCT006 SCT013 FEW020CB
                        BKN060 13/13 Q1006=
200805262330 METAR LPPR 262330Z 18005KT 9999 SCT013 SCT070 13/13 Q1006=
200805262300 METAR LPPR 262300Z 22007KT 190V250 9999 SCT013 BKN060 14/14
                        Q1006=
200805262230 METAR LPPR 262230Z 23006KT 200V270 9999 SCT013 SCT040 BKN060
                        14/14 Q1006=
200805262200 METAR LPPR 262200Z 26005KT 220V290 9999 SCT013 SCT040 BKN060
                        14/14 Q1007=
200805262130 METAR LPPR 262130Z 26005KT 230V310 9999 SCT013 SCT040 BKN060
                        14/14 Q1007=
200805262100 METAR LPPR 262100Z 21005KT 180V270 9999 SCT013 SCT040 BKN060
                        14/14 Q1007=
200805262030 METAR LPPR 262030Z VRB03KT 9999 -SHRA SCT013 FEW020TCU SCT040
                        BKN060 13/13 Q1007=
200805262000 METAR LPPR 262000Z 27006KT 230V290 9999 SCT013 FEW020TCU
                        SCT040 BKN060 14/14 Q1007=
200805261930 METAR LPPR 261930Z 26006KT 210V290 9999 -SHRA SCT012 FEW020TCU
                        SCT040 BKN060 14/14 Q1007=
200805261900 METAR LPPR 261900Z 27005KT 220V320 9999 SCT012 FEW020TCU
                        SCT040 BKN060 15/13 Q1007=
200805261830 METAR LPPR 261830Z 27008KT 230V300 9999 SCT012 FEW020TCU
                        SCT040 BKN060 15/14 Q1006=
200805261800 METAR LPPR 261800Z 28009KT 250V310 9999 SCT012 FEW020TCU
                        BKN060 15/14 Q1006=
200805261730 METAR LPPR 261730Z 28009KT 240V310 9999 FEW012 FEW020TCU
                        BKN070 16/14 Q1006=
200805261700 METAR LPPR 261700Z 27009KT 220V310 9999 SCT012 FEW020TCU
                        SCT070 16/15 Q1006=
200805261630 METAR LPPR 261630Z 28009KT 240V320 9999 SCT012 FEW020CB BKN070
                        16/15 Q1006=
200805261600 METAR LPPR 261600Z 27009KT 230V300 9999 FEW008 SCT012 FEW020CB
                        BKN060 16/16 Q1006=
200805261530 METAR LPPR 261530Z 25007KT 210V280 7000 SHRA FEW007 SCT015
                        FEW020CB BKN070 15/15 Q1006=
200805261500 METAR LPPR 261500Z 25008KT 220V290 8000 FEW008 SCT015 BKN035
                        16/16 Q1006=
200805261430 METAR LPPR 261430Z 26006KT 230V310 8000 -RA FEW006 BKN013
                        BKN025 15/15 Q1006=
200805261400 METAR LPPR 261400Z 30005KT 250V330 8000 -RA SCT006 SCT015
                        BKN025 14/14 Q1007=
200805261330 METAR LPPR 261330Z 28005KT 250V310 8000 -RA SCT006 BKN020
                        BKN100 14/14 Q1007=
200805261300 METAR LPPR 261300Z 27006KT 240V310 7000 -RA SCT006 SCT013
                        BKN025 14/14 Q1007=
200805261230 METAR LPPR 261230Z 28011KT 6000 -RA FEW008 SCT013 BKN070
                        14/14 Q1007=
200805261200 METAR LPPR 261200Z 27009KT 230V300 8000 -RA SCT009 BKN013
                        BKN025 15/15 Q1007=
200805261130 METAR LPPR 261130Z 27007KT 230V310 8000 FEW007 SCT012 BKN025
                        15/15 Q1007=
200805261100 METAR LPPR 261100Z 28009KT 230V310 8000 FEW006 BKN013 BKN025
                        15/15 Q1007=
200805261030 METAR LPPR 261030Z 25006KT 200V300 7000 FEW006 BKN013 BKN025
                        15/15 Q1006 RERA=
200805261000 METAR LPPR 261000Z 26007KT 220V280 6000 -RA FEW006 SCT015
                        BKN025 13/13 Q1007=
200805260930 METAR LPPR 260930Z 27008KT 220V310 6000 -RA SCT005 SCT010
                        BKN020 13/13 Q1007=
200805260900 METAR LPPR 260900Z 27007G17KT 230V320 7000 -RA SCT006 SCT010
                        BKN020 14/14 Q1007=
200805260830 METAR LPPR 260830Z 20005KT 160V260 5000 -RA BR SCT003 SCT006
                        BKN020 12/12 Q1007 RERA=
200805260800 METAR LPPR 260800Z 20007KT 160V250 2000 RA BR SCT003 BKN005
                        BKN020 12/12 Q1007=
200805260730 METAR LPPR 260730Z 17007KT 3000 -RA BR SCT003 BKN005 BKN020
                        12/12 Q1007 RERA=
200805260700 METAR LPPR 260700Z 18007KT 2000 RA BR BKN003 BKN005 12/12
                        Q1007=
200805260630 METAR LPPR 260630Z 17008KT 5000 -RA BR SCT004 BKN013 BKN020
                        12/12 Q1007=
200805260600 METAR LPPR 260600Z 19008KT 5000 -RA BR BKN004 BKN030 12/12
                        Q1007=
200805260530 METAR LPPR 260530Z 19008KT 8000 -SHRA BKN015 FEW020CB BKN025
                        12/12 Q1006=
200805260500 METAR LPPR 260500Z 18005KT 140V230 9999 BKN015 FEW020CB BKN025
                        13/13 Q1006=
200805260430 METAR LPPR 260430Z VRB02KT 9999 SCT017 BKN030 13/13 Q1006=
200805260400 METAR LPPR 260400Z 23002KT 9999 SCT017 BKN030 13/13 Q1006=
200805260330 METAR LPPR 260330Z 00000KT 9999 SCT017 FEW025CB BKN030 13/13
                        Q1007=
200805260300 METAR LPPR 260300Z 00000KT 9999 SCT017 FEW025CB BKN070 13/13
                        Q1007=
200805260230 METAR LPPR 260230Z 00000KT 9999 SCT017 FEW025CB BKN070 13/13
                        Q1007=
200805260200 METAR LPPR 260200Z 00000KT 9999 SCT017 FEW025CB BKN070 12/12
                        Q1007=
200805260130 METAR LPPR 260130Z 00000KT 9999 SCT017 FEW025CB BKN040 12/12
                        Q1007=
200805260100 METAR LPPR 260100Z 14003KT 9999 SCT017 FEW025CB BKN040 12/12
                        Q1007=
200805260030 METAR LPPR 260030Z 14003KT 9999 SCT017 FEW025CB BKN040 12/12
                        Q1007=
200805260000 METAR LPPR 260000Z 00000KT 9999 SCT017 FEW025CB 12/12 Q1008=
200805252330 METAR LPPR 252330Z 00000KT 9999 SCT017 FEW025CB 12/12 Q1008=
200805252300 METAR LPPR 252300Z 00000KT 9999 SCT017 FEW025CB BKN030 12/12
                        Q1007 RERA=
200805252230 METAR LPPR 252230Z VRB03KT 8000 -SHRA SCT017 FEW025CB BKN030
                        12/12 Q1008=
200805252200 METAR LPPR 252200Z 00000KT 9999 SCT017 FEW025CB BKN030 12/12
                        Q1008=
200805252130 METAR LPPR 252130Z 33006KT 9999 SCT017 FEW025CB BKN040 12/12
                        Q1008=
200805252100 METAR LPPR 252100Z 32003KT 9999 SCT017 FEW025CB BKN250 13/12
                        Q1007=
200805252030 METAR LPPR 252030Z 32005KT 9999 SCT017 SCT025CB BKN250 13/13
                        Q1007=
200805252000 METAR LPPR 252000Z 33007KT 9999 SCT017 FEW025CB BKN250 14/12
                        Q1007=
200805251930 METAR LPPR 251930Z 33008KT 300V360 9999 SCT017 FEW025CB BKN250
                        14/12 Q1007=
200805251900 METAR LPPR 251900Z 33009KT 9999 SCT017 FEW025CB BKN250 14/12
                        Q1007=
200805251830 METAR LPPR 251830Z 32009KT 9999 BKN017 FEW025CB SCT250 15/11
                        Q1007=
200805251800 METAR LPPR 251800Z 32009KT 290V350 9999 BKN017 BKN250 15/11
                        Q1007=
200805251730 METAR LPPR 251730Z 32013KT 290V350 9999 BKN017 BKN250 16/12
                        Q1007=
200805251700 METAR LPPR 251700Z 32014KT 9999 BKN017 BKN250 16/11 Q1007=
200805251630 METAR LPPR 251630Z 32014G25KT 300V360 9999 BKN017 BKN250
                        16/12 Q1007=
200805251600 METAR LPPR 251600Z 32015KT 290V350 9999 BKN015 FEW025CB BKN250
                        16/12 Q1007=
200805251530 METAR LPPR 251530Z 32014KT 9999 SCT015 FEW025CB BKN250 16/12
                        Q1007=
200805251500 METAR LPPR 251500Z 32013KT 280V360 9999 FEW015 FEW025CB BKN250
                        16/12 Q1007=
200805251430 METAR LPPR 251430Z 32013KT 290V350 9999 FEW015 FEW020TCU
                        FEW025CB SCT250 16/11 Q1007=
200805251400 METAR LPPR 251400Z 32013KT 9999 FEW015 FEW020TCU FEW025CB
                        SCT250 16/11 Q1007=
200805251330 METAR LPPR 251330Z 31011KT 280V340 9999 FEW015 FEW020TCU
                        FEW025CB SCT250 16/12 Q1007=
200805251300 METAR LPPR 251300Z 31010KT 270V340 9999 FEW015 FEW020TCU
                        SCT250 16/12 Q1007=
200805251230 METAR LPPR 251230Z 31009KT 280V340 9999 FEW015 FEW020TCU
                        SCT060 17/12 Q1007=
200805251200 METAR LPPR 251200Z 30009KT 270V330 9999 FEW015 FEW025TCU
                        SCT060 15/11 Q1007=
200805251130 METAR LPPR 251130Z 30009KT 270V030 9999 FEW015 SCT060 15/12
                        Q1007=
200805251100 METAR LPPR 251100Z 29008KT 260V340 9999 FEW015 FEW025TCU
                        SCT060 15/12 Q1007=
200805251030 METAR LPPR 251030Z 28006KT 230V320 9999 FEW015 FEW025TCU
                        BKN060 15/12 Q1007=
200805251000 METAR LPPR 251000Z 35005KT 300V040 9999 FEW015 FEW025TCU
                        BKN060 15/11 Q1007=
200805250930 METAR LPPR 250930Z 34005KT 290V050 9999 FEW015 FEW025CB SCT040
                        BKN060 15/11 Q1007=
200805250900 METAR LPPR 250900Z 00000KT 9999 FEW015 FEW025CB BKN060 14/11
                        Q1007=
200805250830 METAR LPPR 250830Z 00000KT 9999 FEW015 FEW020CB BKN060 14/11
                        Q1007=
200805250800 METAR LPPR 250800Z 00000KT 9999 FEW015 SCT070 14/11 Q1007=
200805250730 METAR LPPR 250730Z VRB03KT 9999 FEW015 SCT070 13/10 Q1007=
200805250700 METAR LPPR 250700Z VRB02KT 9999 FEW015 SCT070 12/11 Q1007=
200805250630 METAR LPPR 250630Z VRB02KT 9999 FEW015 FEW020TCU SCT070 11/11
                        Q1007=
200805250600 METAR LPPR 250600Z 00000KT 9999 FEW015 FEW020TCU SCT070 09/09
                        Q1007=
200805250530 METAR LPPR 250530Z 10004KT 9999 FEW015 FEW020TCU SCT070 10/10
                        Q1006=
200805250500 METAR LPPR 250500Z 10004KT 9999 FEW015 BKN070 10/10 Q1006=
200805250430 METAR LPPR 250430Z 10004KT 9999 FEW015 BKN070 10/10 Q1006=
200805250400 METAR LPPR 250400Z 10005KT 9999 FEW015 BKN070 10/10 Q1006=
200805250330 METAR LPPR 250330Z VRB03KT 9999 FEW015 SCT060 10/10 Q1006=
200805250300 METAR LPPR 250300Z 10004KT 9999 FEW015 SCT060 10/10 Q1006=
200805250230 METAR LPPR 250230Z 11003KT 9999 FEW015 BKN060 10/10 Q1006=
200805250200 METAR LPPR 250200Z 00000KT 9999 FEW015 BKN060 11/11 Q1007=
200805250130 METAR LPPR 250130Z VRB03KT 9999 FEW015 BKN060 11/11 Q1007=
200805250100 METAR LPPR 250100Z VRB03KT 9999 FEW015 BKN050 11/11 Q1007=
200805250030 METAR LPPR 250030Z 00000KT 9999 FEW015 BKN050 11/11 Q1007=
200805250000 METAR LPPR 250000Z VRB03KT 9999 FEW015 BKN050 11/11 Q1007=
200805242330 METAR LPPR 242330Z 11004KT 080V160 9999 FEW015 BKN050 11/11
                        Q1007=
200805242300 METAR LPPR 242300Z 11005KT 9999 FEW015 SCT050 11/11 Q1007=
200805242230 METAR LPPR 242230Z 10004KT 060V130 9999 FEW015 SCT050 11/11
                        Q1007=
200805242200 METAR LPPR 242200Z 11005KT 080V140 9999 SCT015 FEW025CB SCT050
                        11/11 Q1007=
200805242130 METAR LPPR 242130Z 11006KT 9999 -SHRA SCT015 FEW025CB SCT040
                        11/11 Q1007=
200805242100 METAR LPPR 242100Z 12006KT 9999 -SHRA SCT015 FEW025CB SCT040
                        11/11 Q1007=
200805242030 METAR LPPR 242030Z 10005KT 9999 SCT017 FEW025CB SCT070 12/12
                        Q1007=
200805242000 METAR LPPR 242000Z VRB03KT 9999 SCT017 FEW025CB SCT070 12/12
                        Q1007=
200805241930 METAR LPPR 241930Z VRB03KT 9999 SCT017 FEW025CB SCT070 13/12
                        Q1007=
200805241900 METAR LPPR 241900Z 31004KT 270V340 9999 -SHRA SCT017 FEW020CB
                        SCT035 13/12 Q1007=
200805241830 METAR LPPR 241830Z 28005KT 220V340 8000 -SHRA SCT015 SCT020CB
                        SCT035 13/12 Q1007=
200805241800 METAR LPPR 241800Z 24006KT 210V270 9999 SCT017 FEW025CB SCT035
                        14/12 Q1006=
200805241730 METAR LPPR 241730Z 22005KT 190V250 9999 BKN017 FEW025CB 15/12
                        Q1006=
200805241700 METAR LPPR 241700Z 20007KT 160V220 9999 SCT017 FEW025CB SCT035
                        14/13 Q1007=
200805241630 METAR LPPR 241630Z 17009KT 9999 SCT017 FEW025CB 15/13 Q1007=
200805241600 METAR LPPR 241600Z 23007KT 190V260 9999 BKN015 FEW020CB 16/14
                        Q1007=
200805241530 METAR LPPR 241530Z 22005KT 190V260 9999 BKN015 FEW020CB 15/12
                        Q1007=
200805241500 METAR LPPR 241500Z 24004KT 210V270 9999 BKN015 FEW020CB 15/12
                        Q1007=
200805241430 METAR LPPR 241430Z 25005KT 170V320 9999 SCT015 FEW020CB 16/12
                        Q1007=
200805241400 METAR LPPR 241400Z 20006KT 160V230 9999 SCT015 FEW020CB 15/13
                        Q1007=
200805241330 METAR LPPR 241330Z VRB03KT 9999 SCT015 FEW020CB 13/13 Q1008=
200805241300 METAR LPPR 241300Z 00000KT 9999 SCT015 FEW020CB 12/12 Q1008=
200805241230 METAR LPPR 241230Z VRB03KT 9000 -SHRA BKN015 FEW020CB 13/13
                        Q1008 RERA=
200805241200 METAR LPPR 241200Z 36007KT 9999 BKN015 FEW020CB BKN030 14/14
                        Q1008=
200805241130 METAR LPPR 241130Z 20004KT 150V270 9999 BKN015 FEW020CB BKN030
                        13/13 Q1008=
200805241100 METAR LPPR 241100Z 22006KT 190V280 9999 -SHRA SCT015 FEW020CB
                        BKN040 13/13 Q1008=
200805241030 METAR LPPR 241030Z 18007KT 150V210 9999 SCT015 FEW020CB BKN030
                        13/13 Q1008=
200805241000 METAR LPPR 241000Z 19006KT 150V220 9999 -SHRA SCT015 FEW020CB
                        BKN030 14/13 Q1008=
200805240930 METAR LPPR 240930Z 15005KT 110V180 9999 SCT015 FEW020CB BKN060
                        14/14 Q1008=
200805240900 METAR LPPR 240900Z 15004KT 110V180 9999 SCT015 FEW020CB BKN060
                        13/13 Q1008=
200805240830 METAR LPPR 240830Z 00000KT 9999 SCT015 FEW020CB BKN040 12/12
                        Q1008=
200805240800 METAR LPPR 240800Z 18011KT 130V200 4000 SHRA SCT015 SCT020CB
                        BKN040 12/12 Q1008=
200805240730 METAR LPPR 240730Z 11005KT 9999 SCT017 FEW020CB BKN040 13/13
                        Q1008=
200805240700 METAR LPPR 240700Z 12005KT 9999 SCT015 FEW020CB BKN040 12/12
                        Q1008=
200805240630 METAR LPPR 240630Z 12004KT 9999 FEW015 SCT040 BKN065 11/11
                        Q1008=
200805240600 METAR LPPR 240600Z 12003KT 9999 FEW015 SCT040 BKN070 11/11
                        Q1009=
200805240530 METAR LPPR 240530Z 00000KT 8000 -SHRA FEW012 FEW020CB BKN040
                        11/11 Q1009=
200805240500 METAR LPPR 240500Z 29005G21KT 240V350 2500 +SHRA FEW007 SCT012
                        FEW020CB BKN040 11/11 Q1009 WS ALL
                        RWY=
200805240430 METAR LPPR 240430Z VRB02KT 9999 SCT015 BKN035 11/11 Q1009=
200805240400 METAR LPPR 240400Z 00000KT 9999 FEW013 SCT040 12/12 Q1009=
200805240330 METAR LPPR 240330Z 00000KT 9999 SCT013 SCT040 BKN080 12/12
                        Q1009=
200805240300 METAR LPPR 240300Z VRB03KT 9999 -SHRA SCT013 FEW020TCU SCT040
                        BKN080 13/12 Q1009=
200805240230 METAR LPPR 240230Z 00000KT 9999 FEW013 SCT040 BKN080 13/11
                        Q1009=
200805240200 METAR LPPR 240200Z VRB02KT 9999 FEW013 BKN080 13/11 Q1010=
200805240130 METAR LPPR 240130Z 29002KT 9999 FEW013 SCT080 13/11 Q1010=
200805240100 METAR LPPR 240100Z VRB03KT 9999 FEW013 SCT080 13/11 Q1010=
200805240030 METAR LPPR 240030Z VRB03KT 9999 FEW012 SCT080 13/12 Q1010=
200805240000 METAR LPPR 240000Z 31004KT 9999 FEW012 SCT080 13/12 Q1010=
200805232330 METAR LPPR 232330Z 31005KT 9999 FEW012 BKN080 14/12 Q1010=
200805232300 METAR LPPR 232300Z 32004KT 9999 FEW012 SCT040 BKN080 14/12
                        Q1010=
200805232230 METAR LPPR 232230Z 32005KT 9999 FEW012 SCT040 14/11 Q1010=
200805232200 METAR LPPR 232200Z 32005KT 280V340 9999 FEW012 BKN080 14/12
                        Q1011=
200805232130 METAR LPPR 232130Z 33005KT 9999 FEW012 SCT080 14/11 Q1010=
200805232100 METAR LPPR 232100Z 33004KT 9999 -SHRA FEW012 SCT025 14/12
                        Q1010=
200805232030 METAR LPPR 232030Z 32006KT 9999 FEW012 FEW017CB SCT025 14/10
                        Q1010=
200805232000 METAR LPPR 232000Z 32009KT 9999 FEW012 SCT020 14/11 Q1010=
200805231930 METAR LPPR 231930Z 33009KT 9999 FEW012 SCT020 15/13 Q1010=
200805231900 METAR LPPR 231900Z 33008KT 9999 FEW012 BKN020 14/14 Q1010=
200805231830 METAR LPPR 231830Z 32010KT 290V350 9999 SCT015 15/14 Q1010=
200805231800 METAR LPPR 231800Z 31013KT 9999 BKN018 16/13 Q1010=
200805231730 METAR LPPR 231730Z 31010KT 270V340 9999 SCT018 BKN035 15/14
                        Q1010=
200805231700 METAR LPPR 231700Z 31010KT 270V330 9999 BKN020 16/13 Q1010=
200805231630 METAR LPPR 231630Z 30011KT 270V330 9999 FEW012 BKN020 17/14
                        Q1010=
200805231600 METAR LPPR 231600Z 29011KT 260V340 9999 FEW012 BKN017 17/14
                        Q1010=
200805231530 METAR LPPR 231530Z 30010KT 260V330 9999 FEW012 BKN017 17/15
                        Q1010=
200805231500 METAR LPPR 231500Z 29011KT 260V330 9999 FEW012 BKN020 16/14
                        Q1010=
200805231430 METAR LPPR 231430Z 30011KT 9999 SCT012 BKN017 17/15 Q1010=
200805231400 METAR LPPR 231400Z 29010KT 260V320 9999 SCT012 BKN017 17/15
                        Q1010=
200805231330 METAR LPPR 231330Z VRB10KT 9999 FEW012 BKN017 16/15 Q1010=
200805231300 METAR LPPR 231300Z 28009KT 240V310 9999 FEW012 BKN017 17/15
                        Q1010=
200805231230 METAR LPPR 231230Z 26009KT 220V310 9999 FEW012 BKN017 18/16
                        Q1010=
200805231200 METAR LPPR 231200Z 27009KT 230V320 9999 FEW012 BKN016 17/16
                        Q1010=
200805231130 METAR LPPR 231130Z 27009KT 230V300 9999 BKN015 SCT060 17/16
                        Q1010=
200805231100 METAR LPPR 231100Z 27011KT 240V320 9999 FEW009 BKN015 17/16
                        Q1010=
200805231030 METAR LPPR 231030Z 27009G22KT 240V310 9999 FEW009 SCT015
                        BKN040 17/17 Q1010=
200805231000 METAR LPPR 231000Z 27008KT 220V300 9999 FEW009 SCT015 BKN040
                        17/17 Q1010=
200805230930 METAR LPPR 230930Z 26009KT 220V300 9999 SCT009 SCT015 BKN025
                        16/16 Q1010=
200805230900 METAR LPPR 230900Z 26007KT 220V290 9999 SCT007 SCT015 BKN025
                        16/16 Q1010=
200805230830 METAR LPPR 230830Z 25008KT 210V290 9999 BKN007 SCT015 16/16
                        Q1010=
200805230800 METAR LPPR 230800Z 24008KT 210V270 9999 BKN007 SCT015 15/15
                        Q1009=
200805230730 METAR LPPR 230730Z 24009KT 200V280 9999 BKN007 SCT015 15/15
                        Q1009=
200805230700 METAR LPPR 230700Z 22009KT 5000 -RA BR SCT003 BKN006 BKN013
                        15/15 Q1009=
200805230630 METAR LPPR 230630Z 22008KT 190V260 5000 -RA BR SCT002 BKN005
                        BKN013 15/15 Q1009=
200805230600 METAR LPPR 230600Z 24011KT 200V270 2000 -RADZ BR SCT001 BKN004
                        BKN013 15/15 Q1008=
200805230530 METAR LPPR 230530Z 22009KT 180V250 2000 -RA BR SCT001 BKN004
                        BKN013 15/15 Q1009=
200805230500 METAR LPPR 230500Z 20013KT 4000 -RA BR SCT002 BKN005 BKN015
                        15/15 Q1008=
200805230430 METAR LPPR 230430Z 20013KT 8000 FEW003 BKN007 BKN015 15/15
                        Q1008=
200805230400 METAR LPPR 230400Z 20013KT 7000 FEW002 BKN006 BKN015 15/15
                        Q1008=
200805230330 METAR LPPR 230330Z 21011KT 6000 -RA BR SCT003 BKN005 BKN015
                        15/15 Q1009=
200805230300 METAR LPPR 230300Z 20012KT 3000 -RA BR SCT003 BKN005 BKN015
                        15/15 Q1009=
200805230230 METAR LPPR 230230Z 22009KT 200V260 3000 -RA BR SCT002 BKN005
                        BKN015 15/15 Q1009=
200805230200 METAR LPPR 230200Z 19011KT 6000 -RA SCT003 BKN007 BKN015
                        15/15 Q1009=
200805230130 METAR LPPR 230130Z 22009KT 9999 BKN007 BKN015 15/15 Q1009=
200805230100 METAR LPPR 230100Z 21009KT 9999 BKN006 BKN017 16/16 Q1010=
200805230030 METAR LPPR 230030Z 21011KT 8000 SCT002 BKN005 BKN015 16/16
                        Q1010=
200805230000 METAR LPPR 230000Z 21010KT 180V240 8000 SCT003 BKN005 BKN015
                        16/16 Q1010=
200805222330 METAR LPPR 222330Z 22008KT 180V250 5000 -RA BR SCT002 BKN004
                        BKN013 16/16 Q1010=
200805222300 METAR LPPR 222300Z 23008KT 200V270 2000 -RA BR SCT001 BKN003
                        BKN012 16/16 Q1010=
200805222230 METAR LPPR 222230Z 21011KT 180V240 6000 SCT002 BKN004 BKN012
                        16/16 Q1011=
200805222200 METAR LPPR 222200Z 21012KT 4000 BR SCT001 BKN003 BKN012 16/16
                        Q1011=
200805222130 METAR LPPR 222130Z 20015KT 6000 SCT002 BKN005 BKN013 16/16
                        Q1011=
200805222100 METAR LPPR 222100Z 20016KT 5000 BR SCT002 BKN005 BKN013 16/16
                        Q1011=
200805222030 METAR LPPR 222030Z 20013KT 4000 -RA BR SCT002 BKN005 BKN013
                        16/16 Q1011=
200805222000 METAR LPPR 222000Z 19018KT 4000 -RA BR SCT002 BKN005 BKN013
                        16/16 Q1011 RERA=
200805221930 METAR LPPR 221930Z 19015KT 3000 RA BR SCT002 BKN005 BKN013
                        16/16 Q1011=
200805221900 METAR LPPR 221900Z 19015KT 4000 -RA BR SCT002 BKN006 BKN013
                        17/17 Q1011=
200805221830 METAR LPPR 221830Z 20013KT 4000 -RA BR SCT003 BKN006 BKN013
                        17/17 Q1012=
200805221800 METAR LPPR 221800Z 21011KT 5000 -RA BR SCT004 BKN007 BKN013
                        16/16 Q1012=
200805221730 METAR LPPR 221730Z 20013KT 4000 -RA BR SCT002 BKN005 BKN013
                        16/16 Q1012=
200805221700 METAR LPPR 221700Z 20011KT 170V230 5000 -RA BR SCT003 SCT006
                        BKN013 16/16 Q1012=
200805221630 METAR LPPR 221630Z 19014KT 4000 -RA BR SCT003 SCT005 BKN015
                        17/17 Q1013=
200805221600 METAR LPPR 221600Z 20015KT 8000 -RA SCT004 SCT007 BKN015
                        17/17 Q1013=
200805221530 METAR LPPR 221530Z 20017KT 9999 FEW005 SCT008 BKN017 17/17
                        Q1013=
200805221500 METAR LPPR 221500Z 20020KT 8000 SCT005 SCT008 BKN015 17/17
                        Q1013=
200805221430 METAR LPPR 221430Z 20021KT 8000 SCT005 SCT008 BKN015 18/18
                        Q1013=
200805221400 METAR LPPR 221400Z 19021KT 8000 SCT005 SCT008 BKN015 17/17
                        Q1013=
200805221330 METAR LPPR 221330Z 18018KT 160V220 7000 SCT005 SCT008 BKN013
                        17/17 Q1013=
200805221300 METAR LPPR 221300Z 17011KT 4000 -RA BR SCT006 BKN013 16/16
                        Q1013=
200805221230 METAR LPPR 221230Z 14007KT 110V170 3000 -RA BR FEW004 SCT008
                        BKN014 15/15 Q1013 RERA=
200805221200 METAR LPPR 221200Z 14009KT 3000 RA BR SCT006 BKN016 15/15
                        Q1014=
200805221130 METAR LPPR 221130Z 13009KT 4000 -RA BR SCT008 BKN025 16/16
                        Q1014=
200805221100 METAR LPPR 221100Z 12009KT 090V150 9999 -RA FEW008 BKN030
                        15/15 Q1014 RERA=
200805221030 METAR LPPR 221030Z 15011KT 5000 RA BR FEW008 BKN040 15/15
                        Q1014=
200805221000 METAR LPPR 221000Z 19010KT 5000 -RA BR SCT008 SCT012 BKN025
                        16/16 Q1015=
200805220930 METAR LPPR 220930Z 18010KT 5000 -RA BR SCT008 SCT013 BKN020
                        16/16 Q1015=
200805220900 METAR LPPR 220900Z 19008KT 8000 -RA FEW008 SCT013 BKN020
                        17/17 Q1015=
200805220830 METAR LPPR 220830Z 17009KT 9999 FEW008 BKN015 17/17 Q1015=
200805220800 METAR LPPR 220800Z 17007KT 9999 SCT008 SCT013 BKN070 17/17
                        Q1015=
200805220730 METAR LPPR 220730Z 17007KT 9999 SCT008 SCT013 BKN070 17/17
                        Q1015=
200805220700 METAR LPPR 220700Z 20006KT 170V230 9999 SCT005 SCT013 BKN070
                        16/16 Q1015=
200805220630 METAR LPPR 220630Z 18005KT 9999 SCT005 SCT012 BKN070 16/16
                        Q1015=
200805220600 METAR LPPR 220600Z 18004KT 130V210 9999 BKN005 BKN070 16/16
                        Q1015=
200805220530 METAR LPPR 220530Z 00000KT 9999 SCT005 SCT030 BKN070 15/15
                        Q1015=
200805220500 METAR LPPR 220500Z 23004KT 210V270 7000 -RA SCT006 BKN030
                        15/15 Q1015=
200805220430 METAR LPPR 220430Z 23006KT 200V260 9999 SCT006 BKN030 16/16
                        Q1015=
200805220400 METAR LPPR 220400Z VRB03KT 9999 SCT005 BKN007 16/16 Q1015=
200805220330 METAR LPPR 220330Z 21004KT 180V240 9999 BKN007 SCT030 16/16
                        Q1015=
200805220300 METAR LPPR 220300Z VRB03KT 9999 SCT007 BKN070 16/16 Q1015=
200805220230 METAR LPPR 220230Z 21004KT 190V250 9999 SCT007 SCT009 16/16
                        Q1015=
200805220200 METAR LPPR 220200Z 21003KT 9999 FEW008 BKN080 16/16 Q1015=
200805220130 METAR LPPR 220130Z 23004KT 200V260 9999 FEW008 BKN080 16/16
                        Q1015=
200805220100 METAR LPPR 220100Z 23005KT 9999 FEW008 SCT013 BKN080 16/16
                        Q1015=
200805220030 METAR LPPR 220030Z VRB03KT 9999 SCT008 SCT013 16/16 Q1016=
200805220000 METAR LPPR 220000Z VRB03KT 9999 SCT008 SCT013 16/16 Q1016=
200805212330 METAR LPPR 212330Z VRB03KT 9999 FEW008 SCT013 16/16 Q1016=
200805212300 METAR LPPR 212300Z VRB03KT 9999 FEW008 SCT013 16/16 Q1016=
200805212230 METAR LPPR 212230Z VRB03KT 9999 SCT007 SCT013 16/16 Q1016=
200805212200 METAR LPPR 212200Z VRB03KT 9999 SCT009 SCT090 16/16 Q1016=
200805212130 METAR LPPR 212130Z VRB02KT 9999 FEW007 SCT090 16/16 Q1016=
200805212100 METAR LPPR 212100Z VRB02KT 9999 FEW009 SCT011 16/16 Q1016=
200805212030 METAR LPPR 212030Z 24004KT 200V260 9999 SCT009 SCT011 16/16
                        Q1016=
200805212000 METAR LPPR 212000Z 23005KT 200V260 9999 SCT009 SCT011 FEW017TCU
                        16/16 Q1016=
200805211930 METAR LPPR 211930Z 26006KT 9999 FEW008 BKN011 FEW017TCU BKN080
                        16/16 Q1016=
200805211900 METAR LPPR 211900Z 24006KT 210V310 9999 FEW008 BKN011 FEW015TCU
                        BKN080 17/17 Q1015=
200805211830 METAR LPPR 211830Z 22008KT 200V260 9999 FEW008 BKN012 FEW017CB
                        BKN080 17/17 Q1015=
200805211800 METAR LPPR 211800Z 24007KT 210V270 9999 FEW009 BKN012 FEW017CB
                        17/17 Q1015=
200805211730 METAR LPPR 211730Z 23007KT 200V270 9999 FEW009 BKN013 BKN040
                        17/16 Q1015=
200805211700 METAR LPPR 211700Z 24009KT 9999 BKN013 SCT030 17/16 Q1015=
200805211630 METAR LPPR 211630Z 22009KT 180V260 9999 BKN013 SCT090 18/16
                        Q1015=
200805211600 METAR LPPR 211600Z 24009KT 200V270 9999 FEW009 BKN013 18/16
                        Q1015=
200805211530 METAR LPPR 211530Z 22011KT 190V260 9999 FEW008 BKN013 18/16
                        Q1015=
200805211500 METAR LPPR 211500Z 24010KT 190V270 9999 FEW008 BKN013 18/15
                        Q1016=
200805211430 METAR LPPR 211430Z 23008KT 200V280 9999 BKN012 SCT090 18/17
                        Q1016=
200805211400 METAR LPPR 211400Z 22010KT 190V270 9999 BKN013 SCT090 18/16
                        Q1016=
200805211330 METAR LPPR 211330Z 23009KT 200V280 9999 BKN015 SCT090 18/16
                        Q1016=
200805211300 METAR LPPR 211300Z 22009KT 190V260 9999 BKN015 SCT090 18/15
                        Q1015=
200805211230 METAR LPPR 211230Z 23009KT 180V280 9999 BKN015 18/15 Q1015=
200805211200 METAR LPPR 211200Z 22007KT 130V300 9999 BKN015 SCT030 18/15
                        Q1015=
200805211130 METAR LPPR 211130Z 22008KT 180V260 9999 BKN015 18/15 Q1015=
200805211100 METAR LPPR 211100Z VRB03KT 9999 BKN015 18/15 Q1015=
200805211030 METAR LPPR 211030Z 25006G17KT 210V310 9999 BKN015 17/14 Q1015=
200805211000 METAR LPPR 211000Z 27005KT 230V300 9999 SCT012 SCT025 17/15
                        Q1015=
200805210930 METAR LPPR 210930Z 27006KT 230V320 9999 SCT012 SCT025 17/16
                        Q1015=
200805210900 METAR LPPR 210900Z 27004KT 220V340 9999 SCT012 BKN250 17/16
                        Q1015=
200805210830 METAR LPPR 210830Z 29006KT 260V330 9999 BKN012 16/16 Q1015=
200805210800 METAR LPPR 210800Z 29005KT 250V330 9999 BKN012 16/16 Q1014=
200805210730 METAR LPPR 210730Z 00000KT 8000 SCT007 BKN015 15/15 Q1014=
200805210700 METAR LPPR 210700Z 29004KT 260V320 6000 -DZ SCT007 BKN018
                        15/15 Q1014=
200805210630 METAR LPPR 210630Z 31004KT 280V340 8000 SCT009 BKN018 15/15
                        Q1014=
200805210600 METAR LPPR 210600Z VRB02KT 8000 FEW006 BKN015 15/15 Q1014=
200805210530 METAR LPPR 210530Z VRB02KT 8000 SCT007 BKN017 15/15 Q1014=
200805210500 METAR LPPR 210500Z 00000KT 9999 FEW006 BKN015 15/15 Q1013=
200805210430 METAR LPPR 210430Z VRB03KT 9999 SCT006 BKN015 15/15 Q1013=
200805210400 METAR LPPR 210400Z VRB03KT 8000 -RADZ SCT006 BKN015 15/15
                        Q1013=
200805210330 METAR LPPR 210330Z 31003KT 9999 SCT007 BKN012 15/15 Q1014=
200805210300 METAR LPPR 210300Z VRB02KT 9999 SCT006 BKN012 15/15 Q1014=
200805210230 METAR LPPR 210230Z 28005KT 250V320 9999 SCT004 BKN012 15/15
                        Q1014=
200805210200 METAR LPPR 210200Z 27004KT 230V300 9999 SCT007 BKN012 15/15
                        Q1014=
200805210130 METAR LPPR 210130Z 27005KT 220V300 9999 SCT003 BKN005 15/15
                        Q1014=
200805210100 METAR LPPR 210100Z 24005KT 200V290 9999 SCT004 BKN012 16/16
                        Q1014=
200805210030 METAR LPPR 210030Z 22005KT 190V250 9999 SCT004 BKN012 16/16
                        Q1014=
200805210000 METAR LPPR 210000Z 21008KT 9999 SCT004 BKN012 16/16 Q1014=
200805202330 METAR LPPR 202330Z 20007KT 9999 SCT004 BKN012 16/16 Q1014=
200805202300 METAR LPPR 202300Z 22004KT 190V280 9999 SCT012 16/16 Q1014=
200805202230 METAR LPPR 202230Z 22005KT 180V260 9999 SCT006 BKN012 16/16
                        Q1014=
200805202200 METAR LPPR 202200Z 22005KT 190V260 9999 SCT008 BKN012 16/16
                        Q1014=
200805202130 METAR LPPR 202130Z VRB03KT 9999 SCT008 SCT012 BKN060 17/17
                        Q1014=
200805202100 METAR LPPR 202100Z 20005KT 160V230 9999 SCT012 BKN060 17/16
                        Q1014=
200805202030 METAR LPPR 202030Z 17006KT 9999 SCT012 BKN060 16/16 Q1013=
200805202000 METAR LPPR 202000Z 19006KT 170V230 9999 SCT012 BKN060 17/17
                        Q1013=
200805201930 METAR LPPR 201930Z 21005KT 9999 SCT010 BKN070 17/16 Q1013=
200805201900 METAR LPPR 201900Z 23003KT 9999 FEW017 BKN070 17/16 Q1013=
200805201830 METAR LPPR 201830Z 25005KT 9999 FEW017 BKN070 18/15 Q1013=
200805201800 METAR LPPR 201800Z 26004KT 200V310 9999 FEW017 SCT070 18/15
                        Q1013=
200805201730 METAR LPPR 201730Z 26005KT 9999 FEW017 19/15 Q1013=
200805201700 METAR LPPR 201700Z 26005KT 210V300 9999 FEW015 SCT070 19/15
                        Q1013=
200805201630 METAR LPPR 201630Z 24006KT 150V270 9999 FEW015 SCT070 19/14
                        Q1013=
200805201600 METAR LPPR 201600Z 26006KT 200V330 9999 FEW015 SCT070 19/15
                        Q1013=
200805201530 METAR LPPR 201530Z 26007KT 190V310 9999 FEW015 BKN070 19/14
                        Q1013=
200805201500 METAR LPPR 201500Z 27006KT 210V320 9999 FEW015 BKN070 19/14
                        Q1013=
200805201430 METAR LPPR 201430Z 26006KT 210V300 9999 FEW015 BKN070 19/13
                        Q1013=
200805201400 METAR LPPR 201400Z 23006KT 180V270 9999 FEW015 BKN070 20/11
                        Q1013=
200805201330 METAR LPPR 201330Z 24009KT 210V270 9999 FEW015 SCT070 19/12
                        Q1013=
200805201300 METAR LPPR 201300Z 25008KT 190V300 9999 FEW015 BKN070 19/13
                        Q1013=
200805201230 METAR LPPR 201230Z 23007KT 200V280 9999 FEW015 BKN070 18/13
                        Q1013=
200805201200 METAR LPPR 201200Z 22007KT 180V270 9999 FEW015 BKN070 18/13
                        Q1013=
200805201130 METAR LPPR 201130Z 23008KT 200V260 9999 FEW015 SCT070 18/13
                        Q1013=
200805201100 METAR LPPR 201100Z 21008KT 180V250 9999 FEW015 SCT070 18/13
                        Q1013=
200805201030 METAR LPPR 201030Z 22008KT 180V260 9999 FEW013 SCT020 BKN070
                        18/12 Q1013=
200805201000 METAR LPPR 201000Z VRB03KT 9999 FEW013 SCT020 BKN070 18/12
                        Q1013=
200805200930 METAR LPPR 200930Z VRB03KT 9999 FEW013 SCT020 BKN070 17/12
                        Q1013=
200805200900 METAR LPPR 200900Z 15004KT 090V200 9999 FEW015 BKN070 16/12
                        Q1013=
200805200830 METAR LPPR 200830Z 13005KT 9999 FEW017 BKN090 15/12 Q1013=
200805200800 METAR LPPR 200800Z 11005KT CAVOK 14/13 Q1013=
200805200730 METAR LPPR 200730Z 11006KT CAVOK 13/13 Q1013=
200805200700 METAR LPPR 200700Z 12005KT CAVOK 13/13 Q1013=
200805200630 METAR LPPR 200630Z 11006KT CAVOK 13/13 Q1013=
200805200600 METAR LPPR 200600Z 11006KT 9999 FEW017 BKN080 12/12 Q1013=
200805200530 METAR LPPR 200530Z 11006KT 9999 FEW017 BKN090 12/12 Q1013=
200805200500 METAR LPPR 200500Z 11006KT 9999 FEW017 BKN090 12/12 Q1012=
200805200430 METAR LPPR 200430Z 11006KT 9999 FEW017 SCT100 12/12 Q1012=
200805200400 METAR LPPR 200400Z 11006KT 9999 FEW017 SCT100 12/12 Q1013=
200805200330 METAR LPPR 200330Z 10006KT 9999 FEW017 SCT100 12/12 Q1013=
200805200300 METAR LPPR 200300Z 11006KT 9999 FEW017 SCT090 12/12 Q1013=
200805200230 METAR LPPR 200230Z 10004KT 9999 FEW017 SCT030 12/12 Q1013=
200805200200 METAR LPPR 200200Z 11005KT 9999 FEW017 SCT070 13/13 Q1013=
200805200130 METAR LPPR 200130Z 13005KT 9999 FEW017 SCT070 13/13 Q1013=
200805200100 METAR LPPR 200100Z 12004KT 9999 FEW017 SCT035 13/13 Q1013=
200805200030 METAR LPPR 200030Z 10005KT 9999 FEW017 BKN035 13/13 Q1013=
200805200000 METAR LPPR 200000Z 11003KT 9999 FEW017 BKN035 14/13 Q1013=
200805192330 METAR LPPR 192330Z 10003KT 9999 FEW017 BKN035 14/13 Q1013=
200805192300 METAR LPPR 192300Z 10003KT 9999 FEW017 BKN035 14/13 Q1013=
200805192230 METAR LPPR 192230Z 10002KT 9999 SCT017 BKN035 14/13 Q1013=
200805192200 METAR LPPR 192200Z 00000KT 9999 FEW015 SCT030 BKN250 13/13
                        Q1013=
200805192130 METAR LPPR 192130Z 00000KT 9999 FEW015 BKN250 14/13 Q1014=
200805192100 METAR LPPR 192100Z 00000KT 9999 FEW015 BKN250 14/13 Q1013=
200805192030 METAR LPPR 192030Z 00000KT 9999 SCT015 BKN250 14/13 Q1013=
200805192000 METAR LPPR 192000Z 29004KT 9999 SCT015 BKN250 15/12 Q1013=
200805191930 METAR LPPR 191930Z VRB03KT 9999 SCT015 BKN250 15/13 Q1013=
200805191900 METAR LPPR 191900Z 27006KT 240V300 9999 SCT015 BKN250 15/13
                        Q1013=
200805191830 METAR LPPR 191830Z 29006KT 250V320 9999 FEW013 BKN250 15/13
                        Q1013=
200805191800 METAR LPPR 191800Z 27008KT 250V320 9999 FEW013 BKN250 16/13
                        Q1012=
200805191730 METAR LPPR 191730Z 31007KT 260V350 9999 FEW013 BKN250 16/13
                        Q1012=
200805191700 METAR LPPR 191700Z 30009KT 260V330 9999 FEW013 BKN250 16/13
                        Q1012=
200805191630 METAR LPPR 191630Z 30010KT 260V340 9999 FEW015 BKN250 17/13
                        Q1012=
200805191600 METAR LPPR 191600Z 30009KT 260V340 9999 FEW013 BKN250 16/13
                        Q1012=
200805191530 METAR LPPR 191530Z 29010KT 260V360 9999 FEW013 SCT250 17/14
                        Q1012=
200805191500 METAR LPPR 191500Z 29010KT 260V330 9999 SCT013 17/15 Q1012=
200805191430 METAR LPPR 191430Z 29010KT 260V360 9999 FEW017 17/14 Q1012=
200805191400 METAR LPPR 191400Z 30009KT 260V330 9999 FEW017 16/13 Q1013=
200805191330 METAR LPPR 191330Z 30009KT 250V350 9999 FEW017 17/13 Q1013=
200805191300 METAR LPPR 191300Z 29009KT 9999 FEW017 17/12 Q1013=
200805191230 METAR LPPR 191230Z 29007KT 260V330 9999 FEW015 17/13 Q1013=
200805191200 METAR LPPR 191200Z 28007KT 250V320 9999 FEW015 17/13 Q1013=
200805191130 METAR LPPR 191130Z 28006KT 250V330 9999 SCT015 16/14 Q1013=
200805191100 METAR LPPR 191100Z 29007KT 240V340 9999 SCT015 16/13 Q1013=
200805191030 METAR LPPR 191030Z 28005KT 240V320 9999 BKN015 16/14 Q1013=
200805191000 METAR LPPR 191000Z 29005KT 260V340 9999 BKN015 15/13 Q1013=
200805190930 METAR LPPR 190930Z 28004KT 240V330 9999 BKN015 15/14 Q1013=
200805190900 METAR LPPR 190900Z 00000KT 9999 BKN017 16/13 Q1013=
200805190830 METAR LPPR 190830Z VRB03KT 9999 FEW009 SCT015 15/13 Q1013=
200805190800 METAR LPPR 190800Z 10004KT 060V140 9999 FEW006 SCT015 14/14
                        Q1012=
200805190730 METAR LPPR 190730Z VRB03KT 9999 FEW006 SCT015 14/14 Q1012=
200805190700 METAR LPPR 190700Z 00000KT 9999 FEW015 14/14 Q1012=
200805190630 METAR LPPR 190630Z 00000KT 9999 FEW015 12/12 Q1012=
200805190600 METAR LPPR 190600Z VRB03KT 9999 FEW015 SCT020 11/11 Q1012=
200805190530 METAR LPPR 190530Z 00000KT 9999 FEW015 BKN020 11/11 Q1012=
200805190500 METAR LPPR 190500Z 00000KT 8000 FEW008 BKN020 11/11 Q1011=
200805190430 METAR LPPR 190430Z 08002KT 7000 FEW017 SCT060 11/11 Q1011=
200805190400 METAR LPPR 190400Z 00000KT 7000 FEW020 SCT060 10/10 Q1011=
200805190330 METAR LPPR 190330Z 00000KT 9000 SCT060 11/11 Q1011=
200805190300 METAR LPPR 190300Z 00000KT 8000 FEW030 SCT070 11/11 Q1011=
200805190230 METAR LPPR 190230Z 14003KT 8000 FEW030 SCT070 11/11 Q1011=
200805190200 METAR LPPR 190200Z 00000KT 9999 FEW009 SCT030 BKN070 11/11
                        Q1011=
200805190130 METAR LPPR 190130Z 00000KT 9999 SCT030 BKN070 12/12 Q1012=
200805190100 METAR LPPR 190100Z 10003KT 9999 SCT030 BKN070 12/12 Q1012=
200805190030 METAR LPPR 190030Z 00000KT 9999 FEW009 SCT030 BKN070 12/12
                        Q1012=
200805190000 METAR LPPR 190000Z VRB02KT 8000 BKN007 BKN070 13/13 Q1012=
200805182330 METAR LPPR 182330Z VRB03KT 9999 SCT009 SCT070 13/13 Q1012=
200805182300 METAR LPPR 182300Z VRB02KT 9000 SCT007 BKN009 13/13 Q1012=
200805182230 METAR LPPR 182230Z 00000KT 9999 SCT007 SCT025 BKN250 13/13
                        Q1012=
200805182200 METAR LPPR 182200Z 00000KT 9999 -SHRA SCT012 SCT030 BKN250
                        13/13 Q1012=
200805182130 METAR LPPR 182130Z VRB02KT 9000 -SHRA FEW007 SCT012 BKN250
                        13/13 Q1012=
200805182100 METAR LPPR 182100Z 24003KT 9999 FEW007 SCT013 BKN040 13/13
                        Q1012=
200805182030 METAR LPPR 182030Z VRB02KT 9999 FEW007 SCT012 FEW017CB 13/13
                        Q1012=
200805182000 METAR LPPR 182000Z VRB03KT 9999 FEW009 SCT012 FEW017CB BKN250
                        14/14 Q1011=
200805181930 METAR LPPR 181930Z 17007KT 8000 -SHRA FEW008 SCT011 FEW017CB
                        BKN250 14/14 Q1011=
200805181900 METAR LPPR 181900Z 00000KT 9000 -SHRA FEW008 SCT012 FEW017CB
                        BKN250 14/14 Q1011=
200805181830 METAR LPPR 181830Z VRB03KT 7000 SHRA SCT008 SCT012 FEW017CB
                        BKN060 14/14 Q1011=
200805181800 METAR LPPR 181800Z VRB02KT 6000 SHRA SCT009 SCT011 SCT017CB
                        BKN040 14/14 Q1011=
200805181730 METAR LPPR 181730Z 24004KT 180V320 7000 -SHRA FEW004 SCT011
                        SCT017CB BKN060 15/14 Q1011=
200805181700 METAR LPPR 181700Z 24005KT 200V280 9999 SCT015 SCT020CB SCT040
                        BKN250 15/13 Q1011=
200805181630 METAR LPPR 181630Z 25006KT 210V310 9999 SCT017 FEW020CB SCT040
                        BKN250 16/13 Q1011=
200805181600 METAR LPPR 181600Z 25007G19KT 130V280 9999 SCT017 FEW020CB
                        SCT030 BKN250 16/12 Q1011=
200805181530 METAR LPPR 181530Z 27006KT 200V310 9999 -SHRA SCT015 FEW020CB
                        SCT030 BKN250 16/12 Q1012=
200805181500 METAR LPPR 181500Z 27007KT 220V330 9999 SCT017 FEW025CB BKN250
                        17/12 Q1012=
200805181430 METAR LPPR 181430Z 29008KT 230V340 9999 SCT017 FEW025CB SCT250
                        17/11 Q1012=
200805181400 METAR LPPR 181400Z 30008KT 250V340 9999 SCT017 FEW025CB SCT250
                        16/13 Q1012=
200805181330 METAR LPPR 181330Z 28008KT 250V320 9999 SCT017 FEW025CB 17/12
                        Q1012=
200805181300 METAR LPPR 181300Z 26007KT 230V310 9999 SCT017 FEW025CB 16/13
                        Q1013=
200805181230 METAR LPPR 181230Z 28008KT 260V330 9999 SCT017 FEW020CB 16/13
                        Q1013=
200805181200 METAR LPPR 181200Z 28007KT 240V320 9999 SCT017 FEW020TCU
                        FEW025CB 16/12 Q1013=
200805181130 METAR LPPR 181130Z 28007KT 250V330 9999 SCT017 FEW025CB 16/12
                        Q1013=
200805181100 METAR LPPR 181100Z VRB03KT 9999 SCT015 FEW025CB 15/14 Q1013=
200805181030 METAR LPPR 181030Z 30005KT 270V330 9999 SCT015 FEW020CB BKN040
                        14/13 Q1013=
200805181000 METAR LPPR 181000Z VRB03KT 9999 SCT015 FEW020CB BKN060 14/13
                        Q1013=
200805180930 METAR LPPR 180930Z 35004KT 310V020 9000 -SHRA SCT015 FEW020CB
                        BKN060 13/13 Q1013=
200805180900 METAR LPPR 180900Z 36010KT 320V020 9999 SCT017 FEW025CB BKN060
                        14/12 Q1013=
200805180830 METAR LPPR 180830Z 32005KT 9999 SCT017 FEW025CB BKN060 14/12
                        Q1013=
200805180800 METAR LPPR 180800Z 33005KT 9999 SCT017 FEW025CB SCT045 BKN090
                        13/13 Q1013=
200805180730 METAR LPPR 180730Z 34008KT 290V360 9999 SCT017 SCT025 BKN080
                        13/13 Q1013=
200805180700 METAR LPPR 180700Z VRB03KT 9999 FEW015 SCT022 BKN080 14/14
                        Q1013=
200805180630 METAR LPPR 180630Z 00000KT 9999 SCT015 SCT025 BKN060 13/13
                        Q1013=
200805180600 METAR LPPR 180600Z 00000KT 9999 SCT015 OVC025 13/13 Q1013=
200805180530 METAR LPPR 180530Z 00000KT 9999 SCT015 BKN025 12/12 Q1013=
200805180500 METAR LPPR 180500Z VRB03KT 9000 -SHRA SCT015 BKN022 12/12
                        Q1012=
200805180430 METAR LPPR 180430Z VRB02KT 5000 -RA BR SCT015 BKN023 13/13
                        Q1013=
200805180400 METAR LPPR 180400Z 00000KT 8000 SCT015 SCT020 13/13 Q1013=
200805180330 METAR LPPR 180330Z 13002KT 7000 BKN015 13/13 Q1013=
200805180300 METAR LPPR 180300Z 00000KT 7000 SCT015 12/12 Q1013=
200805180230 METAR LPPR 180230Z 00000KT 7000 SCT015 11/11 Q1013=
200805180200 METAR LPPR 180200Z 00000KT 8000 SCT015 11/11 Q1013=
200805180130 METAR LPPR 180130Z 00000KT 7000 SCT015 12/12 Q1014=
200805180100 METAR LPPR 180100Z 00000KT 7000 SCT015 12/12 Q1014=
200805180030 METAR LPPR 180030Z 00000KT 8000 SCT015 12/12 Q1014=
200805180000 METAR LPPR 180000Z 00000KT 9999 SCT015 13/13 Q1014=
200805172330 METAR LPPR 172330Z 00000KT 7000 BKN015 13/13 Q1014=
200805172300 METAR LPPR 172300Z 35003KT 7000 SCT015 13/13 Q1014=
200805172230 METAR LPPR 172230Z 33004KT 9999 SCT015 13/13 Q1015=
200805172200 METAR LPPR 172200Z VRB03KT 9999 SCT015 13/13 Q1015=
200805172130 METAR LPPR 172130Z 33006KT 9999 SCT015 14/13 Q1015=
200805172100 METAR LPPR 172100Z 33007KT 9999 SCT015 14/13 Q1014=
200805172030 METAR LPPR 172030Z 33008KT 9999 SCT015 14/13 Q1014=
200805172000 METAR LPPR 172000Z 33009KT 9999 SCT015 14/13 Q1014=
200805171930 METAR LPPR 171930Z 33010KT 9999 SCT015 14/13 Q1014=
200805171900 METAR LPPR 171900Z 33010KT 300V360 9999 SCT015 15/13 Q1013=
200805171830 METAR LPPR 171830Z 32014KT 290V350 9999 SCT015 15/13 Q1013=
200805171800 METAR LPPR 171800Z 32014KT 9999 SCT013 16/13 Q1013=
200805171730 METAR LPPR 171730Z 31014KT 280V340 9999 SCT015 16/13 Q1013=
200805171700 METAR LPPR 171700Z 32013KT 9999 SCT015 16/13 Q1013=
200805171630 METAR LPPR 171630Z 32015KT 9999 SCT015 16/12 Q1013=
200805171600 METAR LPPR 171600Z 32013KT 290V350 9999 SCT015 17/13 Q1013=
200805171530 METAR LPPR 171530Z 30014KT 280V340 9999 SCT015 17/13 Q1013=
200805171500 METAR LPPR 171500Z 31013KT 270V340 9999 SCT015 17/13 Q1013=
200805171430 METAR LPPR 171430Z 33014KT 9999 SCT015 17/13 Q1013=
200805171400 METAR LPPR 171400Z 32014KT 290V350 9999 SCT015 17/13 Q1013=
200805171330 METAR LPPR 171330Z 32012KT 9999 FEW015 SCT070 17/14 Q1013=
200805171300 METAR LPPR 171300Z 31011KT 290V350 9999 FEW015 SCT070 17/14
                        Q1013=
200805171230 METAR LPPR 171230Z 32010KT 280V350 9999 FEW015 SCT070 17/12
                        Q1013=
200805171200 METAR LPPR 171200Z 30009KT 260V320 9999 FEW015 BKN070 16/14
                        Q1013=
200805171130 METAR LPPR 171130Z 31011KT 9999 FEW015 FEW020TCU BKN060 16/13
                        Q1013=
200805171100 METAR LPPR 171100Z 31008KT 260V350 9999 FEW015 FEW020 BKN060
                        16/13 Q1013=
200805171030 METAR LPPR 171030Z 30008KT 260V330 9999 FEW013 FEW020TCU
                        BKN070 16/13 Q1013=
200805171000 METAR LPPR 171000Z 32007KT 290V360 9999 FEW013 FEW020TCU
                        SCT070 16/12 Q1013=
200805170930 METAR LPPR 170930Z 35007KT 290V020 9999 FEW013 SCT070 16/13
                        Q1013=
200805170900 METAR LPPR 170900Z 36005KT 320V050 9999 FEW013 SCT070 16/13
                        Q1013=
200805170830 METAR LPPR 170830Z VRB02KT 9999 FEW015 SCT040 BKN070 15/14
                        Q1013=
200805170800 METAR LPPR 170800Z 00000KT 9999 FEW015 SCT040 BKN070 13/13
                        Q1013=
200805170730 METAR LPPR 170730Z VRB03KT 9999 FEW015 SCT040 BKN070 12/12
                        Q1012=
200805170700 METAR LPPR 170700Z 11003KT 9999 FEW015 SCT040 BKN070 12/12
                        Q1012=
200805170630 METAR LPPR 170630Z 00000KT 9999 FEW015 SCT070 11/11 Q1012=
200805170600 METAR LPPR 170600Z 00000KT 9999 FEW015 10/10 Q1012=
200805170530 METAR LPPR 170530Z 00000KT 9999 FEW015 09/09 Q1012=
200805170500 METAR LPPR 170500Z 00000KT 9999 FEW015 09/09 Q1012=
200805170430 METAR LPPR 170430Z 00000KT 9999 FEW015 SCT070 10/10 Q1012=
200805170400 METAR LPPR 170400Z 00000KT 9999 FEW015 SCT060 10/10 Q1011=
200805170330 METAR LPPR 170330Z 00000KT 9999 FEW015 SCT060 10/10 Q1012=
200805170300 METAR LPPR 170300Z 00000KT 9999 FEW015 SCT040 BKN060 10/10
                        Q1012=
200805170230 METAR LPPR 170230Z 00000KT 9999 FEW015 SCT040 10/10 Q1012=
200805170200 METAR LPPR 170200Z 00000KT 9999 FEW015 10/10 Q1012=
200805170130 METAR LPPR 170130Z 00000KT 9999 FEW015 11/11 Q1012=
200805170100 METAR LPPR 170100Z 00000KT 9999 FEW009 11/11 Q1012=
200805170030 METAR LPPR 170030Z 00000KT 9999 FEW009 11/11 Q1012=
200805170000 METAR LPPR 170000Z 00000KT 9999 FEW009 12/12 Q1012=
200805162330 METAR LPPR 162330Z VRB02KT 9999 FEW009 12/12 Q1012=
200805162300 METAR LPPR 162300Z 35003KT 9999 FEW012 12/12 Q1012=
200805162230 METAR LPPR 162230Z 35004KT 9999 FEW012 12/12 Q1012=
200805162200 METAR LPPR 162200Z 34003KT 9999 FEW015 13/13 Q1012=
200805162130 METAR LPPR 162130Z 33006KT 290V350 9999 SCT015 14/13 Q1012=
200805162100 METAR LPPR 162100Z 33006KT 280V350 9999 SCT015 14/13 Q1012=
200805162030 METAR LPPR 162030Z 33006KT 9999 SCT015 14/13 Q1011=
200805162000 METAR LPPR 162000Z 33007KT 9999 SCT015 14/13 Q1011=
200805161930 METAR LPPR 161930Z 33009KT 9999 SCT015 15/13 Q1011=
200805161900 METAR LPPR 161900Z 33010KT 9999 SCT015 15/12 Q1011=
200805161830 METAR LPPR 161830Z 33011KT 9999 FEW017 16/13 Q1010=
200805161800 METAR LPPR 161800Z 34012KT 9999 FEW017 16/12 Q1010=
200805161730 METAR LPPR 161730Z 33012KT 290V360 9999 FEW017 16/12 Q1010=
200805161700 METAR LPPR 161700Z 31011KT 9999 FEW017 16/13 Q1010=
200805161630 METAR LPPR 161630Z 32011KT 280V350 9999 FEW017 16/13 Q1010=
200805161600 METAR LPPR 161600Z 32010KT 9999 SCT015 17/14 Q1010=
200805161530 METAR LPPR 161530Z 30010KT 260V340 9999 SCT015 17/14 Q1010=
200805161500 METAR LPPR 161500Z 30009KT 9999 SCT015 17/14 Q1010=
200805161430 METAR LPPR 161430Z 28008KT 240V350 9999 SCT015 17/14 Q1010=
200805161400 METAR LPPR 161400Z 28008KT 250V330 9999 SCT017 17/13 Q1010=
200805161330 METAR LPPR 161330Z 29008KT 260V330 9999 SCT015 16/13 Q1010=
200805161300 METAR LPPR 161300Z 28007KT 240V350 9999 FEW015 FEW017TCU
                        17/13 Q1010=
200805161230 METAR LPPR 161230Z 26007KT 230V300 9999 FEW015 FEW017TCU
                        17/13 Q1010=
200805161200 METAR LPPR 161200Z 26007KT 220V340 9999 FEW015 FEW017TCU
                        17/12 Q1010=
200805161130 METAR LPPR 161130Z 27005KT 180V330 9999 BKN015 17/14 Q1010=
200805161100 METAR LPPR 161100Z 26004KT 180V350 9999 BKN015 16/14 Q1010=
200805161030 METAR LPPR 161030Z VRB03KT 9999 BKN015 16/14 Q1010=
200805161000 METAR LPPR 161000Z 25004KT 210V270 9999 SCT015 BKN030 15/14
                        Q1010=
200805160930 METAR LPPR 160930Z VRB03KT 7000 SCT008 BKN015 15/13 Q1010=
200805160900 METAR LPPR 160900Z 23004KT 180V260 7000 SCT008 BKN015 14/14
                        Q1010=
200805160830 METAR LPPR 160830Z 00000KT 7000 SCT013 BKN040 14/13 Q1010=
200805160800 METAR LPPR 160800Z VRB02KT 7000 FEW013 SCT040 BKN060 14/14
                        Q1010=
200805160730 METAR LPPR 160730Z 12004KT 7000 FEW013 SCT040 BKN060 13/13
                        Q1010=
200805160700 METAR LPPR 160700Z 12006KT 7000 FEW013 SCT040 BKN060 13/13
                        Q1010=
200805160630 METAR LPPR 160630Z 11004KT 7000 FEW013 BKN040 12/12 Q1009=
200805160600 METAR LPPR 160600Z 11005KT 7000 FEW013 BKN040 11/11 Q1009=
200805160530 METAR LPPR 160530Z VRB02KT 6000 FEW013 BKN070 11/11 Q1009=
200805160500 METAR LPPR 160500Z 11004KT 8000 BKN070 SCT250 11/11 Q1009=
200805160430 METAR LPPR 160430Z 12005KT 7000 BKN070 SCT250 11/11 Q1009=
200805160400 METAR LPPR 160400Z VRB02KT 7000 BKN070 SCT250 11/11 Q1009=
200805160330 METAR LPPR 160330Z VRB02KT 7000 FEW013 SCT070 11/11 Q1009=
200805160300 METAR LPPR 160300Z 10004KT 080V140 8000 FEW013 SCT250 11/11
                        Q1009=
200805160230 METAR LPPR 160230Z 00000KT 9999 FEW013 SCT250 10/10 Q1009=
200805160200 METAR LPPR 160200Z 00000KT 9999 FEW013 SCT250 10/10 Q1009=
200805160130 METAR LPPR 160130Z 00000KT 9999 FEW013 SCT250 11/11 Q1009=
200805160100 METAR LPPR 160100Z 00000KT 9999 FEW013 11/11 Q1009=
200805160030 METAR LPPR 160030Z 00000KT 9999 FEW013 11/11 Q1010=
200805160000 METAR LPPR 160000Z 00000KT 9999 FEW013 12/12 Q1010=
200805152330 METAR LPPR 152330Z 00000KT 9999 FEW015 12/12 Q1010=
200805152300 METAR LPPR 152300Z 00000KT 9999 FEW015 12/12 Q1010=
200805152230 METAR LPPR 152230Z 00000KT 9999 FEW015 SCT250 13/13 Q1010=
200805152200 METAR LPPR 152200Z 00000KT 9999 SCT015 SCT250 13/13 Q1010=
200805152130 METAR LPPR 152130Z 00000KT 9999 FEW015 SCT250 13/13 Q1010=
200805152100 METAR LPPR 152100Z 00000KT 9999 FEW015 SCT250 14/12 Q1010=
200805152030 METAR LPPR 152030Z 00000KT 9999 FEW015 SCT250 14/13 Q1010=
200805152000 METAR LPPR 152000Z 27003KT 9999 FEW015 SCT250 14/12 Q1010=
200805151930 METAR LPPR 151930Z VRB03KT 9999 FEW015 SCT250 15/12 Q1010=
200805151900 METAR LPPR 151900Z 27004KT 220V300 9999 SCT015 FEW020CB BKN250
                        16/12 Q1009=
200805151830 METAR LPPR 151830Z 25005KT 200V300 9999 SCT015 FEW020CB BKN250
                        16/13 Q1009=
200805151800 METAR LPPR 151800Z 27005KT 200V310 9999 SCT015 FEW020CB BKN250
                        17/12 Q1009=
200805151730 METAR LPPR 151730Z 24006KT 190V280 9999 SCT015 FEW020CB 17/12
                        Q1009=
200805151700 METAR LPPR 151700Z 27007KT 220V300 9999 SCT015 FEW020CB 17/13
                        Q1009=
200805151630 METAR LPPR 151630Z 25007KT 190V290 9999 SCT015 FEW020CB 17/13
                        Q1009=
200805151600 METAR LPPR 151600Z 26007KT 200V280 9999 SCT015 FEW020CB 17/13
                        Q1009=
200805151530 METAR LPPR 151530Z 26008KT 210V300 9999 SCT013 FEW020CB 17/13
                        Q1010=
200805151500 METAR LPPR 151500Z 23007KT 190V270 9999 SCT013 FEW020CB 17/13
                        Q1010=
200805151430 METAR LPPR 151430Z 21009KT 190V260 9999 SCT013 FEW020CB 17/13
                        Q1010=
200805151400 METAR LPPR 151400Z 22008KT 170V290 9999 SCT013 FEW020CB 17/14
                        Q1010=
200805151330 METAR LPPR 151330Z 21010KT 180V260 9999 SCT013 FEW020CB 17/13
                        Q1010=
200805151300 METAR LPPR 151300Z 23008KT 200V270 9999 SCT013 FEW020CB 17/14
                        Q1010=
200805151230 METAR LPPR 151230Z 20006KT 170V240 9999 BKN013 FEW020CB 16/14
                        Q1010=
200805151200 METAR LPPR 151200Z 23006KT 200V260 9999 -SHRA BKN013 FEW020CB
                        15/14 Q1010=
200805151130 METAR LPPR 151130Z 23008KT 190V300 9999 BKN013 FEW020CB 16/13
                        Q1010=
200805151100 METAR LPPR 151100Z 25008KT 9999 BKN013 FEW020CB 16/13 Q1010=
200805151030 METAR LPPR 151030Z 22008G21KT 170V260 9999 SCT013 FEW020CB
                        16/14 Q1010=
200805151000 METAR LPPR 151000Z 22007KT 180V260 9999 SCT013 FEW020CB 15/14
                        Q1010=
200805150930 METAR LPPR 150930Z 21008KT 170V230 9999 SCT005 BKN013 FEW020CB
                        14/14 Q1010=
200805150900 METAR LPPR 150900Z 23006KT 200V270 8000 -SHRA SCT007 BKN013
                        FEW020CB 13/13 Q1010=
200805150830 METAR LPPR 150830Z 20005KT 170V230 9999 SCT015 FEW020CB SCT030
                        14/14 Q1010=
200805150800 METAR LPPR 150800Z 20007KT 9999 SCT013 FEW020CB SCT030 13/13
                        Q1010=
200805150730 METAR LPPR 150730Z 21008KT 180V240 9999 SCT015 FEW020CB SCT030
                        14/14 Q1009=
200805150700 METAR LPPR 150700Z 20005KT 180V240 9999 BKN015 FEW020CB 14/14
                        Q1009=
200805150630 METAR LPPR 150630Z 20006KT 180V240 9999 BKN015 FEW020CB 14/14
                        Q1009=
200805150600 METAR LPPR 150600Z 21004KT 9999 BKN013 FEW020CB 13/13 Q1009=
200805150530 METAR LPPR 150530Z 20003KT 9999 SCT013 FEW020CB SCT030 12/12
                        Q1009=
200805150500 METAR LPPR 150500Z 22003KT 9999 FEW008 BKN015 FEW020CB 13/13
                        Q1009=
200805150430 METAR LPPR 150430Z 22004KT 200V280 9999 SCT008 BKN015 FEW020CB
                        13/13 Q1008=
200805150400 METAR LPPR 150400Z 24005KT 200V260 9999 SCT005 BKN015 FEW025CB
                        13/13 Q1009=
200805150330 METAR LPPR 150330Z VRB03KT 8000 -SHRA SCT003 BKN012 FEW025CB
                        13/13 Q1009=
200805150300 METAR LPPR 150300Z VRB03KT 9999 SCT014 FEW025CB BKN030 13/13
                        Q1009=
200805150230 METAR LPPR 150230Z 20005KT 180V240 8000 -SHRA FEW007 SCT014
                        FEW025CB BKN035 13/13 Q1009=
200805150200 METAR LPPR 150200Z 20011KT 9999 SCT004 BKN012 FEW025CB 13/13
                        Q1009=
200805150130 METAR LPPR 150130Z 19011KT 8000 -SHRA SCT009 SCT012 FEW025CB
                        BKN030 14/14 Q1009=
200805150100 METAR LPPR 150100Z 20014KT 9999 FEW005 SCT012 FEW025CB BKN030
                        13/13 Q1010=
200805150030 METAR LPPR 150030Z 19011KT 9999 -SHRA SCT012 FEW020CB SCT035
                        13/13 Q1010=
200805150000 METAR LPPR 150000Z 19012KT 9999 SCT011 FEW025CB BKN030 13/13
                        Q1010=
200805142330 METAR LPPR 142330Z 20013KT 9999 SCT017 FEW025CB SCT045 14/14
                        Q1010=
200805142300 METAR LPPR 142300Z 19013KT 9999 SCT017 FEW025CB SCT045 13/13
                        Q1010=
200805142230 METAR LPPR 142230Z 20015KT 9999 FEW008 SCT014 FEW025CB 13/13
                        Q1010=
200805142200 METAR LPPR 142200Z 19015KT 9999 -SHRA SCT008 BKN012 FEW017CB
                        14/14 Q1010 RERA=
200805142130 METAR LPPR 142130Z 21008G18KT 170V280 5000 SHRA BR SCT007
                        BKN015 FEW020CB 13/13 Q1010=
200805142100 METAR LPPR 142100Z 19014KT 9999 FEW008 SCT015 FEW020CB BKN035
                        14/14 Q1010=
200805142030 METAR LPPR 142030Z 18012KT 5000 SHRA BR SCT008 BKN013 FEW020CB
                        13/13 Q1010=
200805142000 METAR LPPR 142000Z 20013KT 9999 -SHRA SCT015 FEW020CB BKN035
                        14/14 Q1010=
200805141930 METAR LPPR 141930Z 20013KT 9999 -SHRA SCT015 FEW020CB BKN035
                        14/13 Q1010=
200805141900 METAR LPPR 141900Z 20015KT 9999 -SHRA SCT015 FEW020CB BKN040
                        14/14 Q1010=
200805141830 METAR LPPR 141830Z 20017KT 9999 SCT015 FEW020CB BKN080 15/13
                        Q1010=
200805141800 METAR LPPR 141800Z 20017KT 170V230 9999 SCT015 FEW002CB BKN080
                        15/13 Q1010=
200805141730 METAR LPPR 141730Z 20016KT 9999 FEW015 FEW020CB BKN080 15/13
                        Q1010=
200805141700 METAR LPPR 141700Z 20017KT 9999 SCT015 FEW020CB SCT040 15/13
                        Q1010 WS ALL RWY=
200805141630 METAR LPPR 141630Z 20017KT 9999 SCT015 FEW020CB SCT040 15/13
                        Q1010 WS ALL RWY=
200805141600 METAR LPPR 141600Z 20017KT 9999 SCT015 FEW020 SCT040 16/13
                        Q1010 WS ALL RWY=
200805141530 METAR LPPR 141530Z 20013KT 9999 SCT015 FEW020CB SCT040 16/15
                        Q1010=
200805141500 METAR LPPR 141500Z 20017KT 9999 -SHRA SCT015 FEW020CB BKN040
                        15/13 Q1011 WS ALL RWY=
200805141430 METAR LPPR 141430Z 19018KT 9999 SCT015 FEW020CB SCT040 16/13
                        Q1011=
200805141400 METAR LPPR 141400Z 19021KT 9999 SCT015 FEW020CB SCT040 16/14
                        Q1011=
200805141330 METAR LPPR 141330Z 19019KT 9999 SCT015 FEW020CB SCT040 16/14
                        Q1011=
200805141300 METAR LPPR 141300Z 19019KT 9999 SCT015 FEW025CB SCT040 16/14
                        Q1011=
200805141230 METAR LPPR 141230Z 19019KT 9999 SCT015 FEW025CB SCT040 16/15
                        Q1011=
200805141200 METAR LPPR 141200Z 19014KT 9999 FEW008 BKN013 FEW025CB 14/14
                        Q1011=
200805141130 METAR LPPR 141130Z 18014KT 7000 -SHRA SCT015 FEW025CB BKN030
                        13/13 Q1012=
200805141100 METAR LPPR 141100Z 19015KT 9999 -SHRA SCT015 FEW025CB BKN030
                        15/13 Q1012=
200805141030 METAR LPPR 141030Z 18014KT 9999 SCT015 FEW025CB 15/14 Q1012=
200805141000 METAR LPPR 141000Z 18014KT 9999 SCT015 FEW025CB 15/13 Q1012=
200805140930 METAR LPPR 140930Z 18014KT 9999 SCT015 FEW025CB SCT030 14/13
                        Q1012=
200805140900 METAR LPPR 140900Z 18012KT 9999 SCT015 FEW025CB SCT030 14/14
                        Q1012=
200805140830 METAR LPPR 140830Z 18015KT 9999 -SHRA SCT015 FEW025CB SCT030
                        13/12 Q1012=
200805140800 METAR LPPR 140800Z 18013KT 9999 SCT015 FEW025CB SCT030 14/13
                        Q1012=
200805140730 METAR LPPR 140730Z 16008KT 8000 BKN015 FEW025CB 13/13 Q1012=
200805140700 METAR LPPR 140700Z VRB03KT 8000 FEW008 BKN015 FEW025CB 12/12
                        Q1012=
200805140630 METAR LPPR 140630Z 18006KT 6000 -SHRA FEW008 BKN015 FEW025CB
                        12/12 Q1012=
200805140600 METAR LPPR 140600Z 16006KT 8000 -SHRA BKN015 FEW025CB 12/12
                        Q1012=
200805140530 METAR LPPR 140530Z 15008KT 9999 BKN015 FEW025CB 12/12 Q1012=
200805140500 METAR LPPR 140500Z 16006KT 9999 BKN015 FEW025CB 12/12 Q1012=
200805140430 METAR LPPR 140430Z 15007KT 9999 SCT015 BKN035 12/12 Q1012=
200805140400 METAR LPPR 140400Z 15007KT 9999 SCT015 SCT035 12/12 Q1012=
200805140330 METAR LPPR 140330Z 16007KT 9999 SCT015 BKN035 12/12 Q1012=
200805140300 METAR LPPR 140300Z 15006KT 9999 SCT015 SCT025 12/12 Q1012=
200805140230 METAR LPPR 140230Z 17005KT 9999 SCT015 SCT025 12/12 Q1013
                        RERA=
200805140200 METAR LPPR 140200Z 16005KT 130V260 8000 SHRA SCT005 SCT012
                        SCT025 12/12 Q1013=
200805140130 METAR LPPR 140130Z VRB03KT 9999 SCT015 12/12 Q1013=
200805140100 METAR LPPR 140100Z 12007KT 9999 SCT015 SCT025 12/12 Q1013=
200805140030 METAR LPPR 140030Z 11006KT 9999 SCT015 SCT025 12/12 Q1013=
200805140000 METAR LPPR 140000Z 12006KT 9999 SCT015 SCT025 12/12 Q1013=
200805132330 METAR LPPR 132330Z 14004KT 9999 SCT015 BKN025 12/12 Q1013=
200805132300 METAR LPPR 132300Z 16006KT 9999 SCT015 BKN025 12/12 Q1014
                        RERA=
200805132230 METAR LPPR 132230Z 24004KT 210V270 7000 SHRA SCT015 BKN030
                        12/12 Q1014=
200805132200 METAR LPPR 132200Z 26004KT 230V300 9999 SCT015 SCT035 13/13
                        Q1014=
200805132130 METAR LPPR 132130Z VRB03KT 9999 SCT015 FEW020CB 13/12 Q1014=
200805132100 METAR LPPR 132100Z VRB02KT 9999 SCT015 FEW020CB 13/12 Q1014=
200805132030 METAR LPPR 132030Z 22004KT 190V250 9999 SCT015 FEW020CB 14/11
                        Q1013=
200805132000 METAR LPPR 132000Z 22004KT 190V250 9999 FEW015 FEW020CB 14/12
                        Q1013=
200805131930 METAR LPPR 131930Z 22005KT 180V250 9999 SCT015 FEW020CB 14/12
                        Q1013=
200805131900 METAR LPPR 131900Z 23005KT 190V260 9999 SCT015 FEW017TCU
                        15/11 Q1013=
200805131830 METAR LPPR 131830Z 23006KT 9999 SCT015 FEW017TCU 15/11 Q1013=
200805131800 METAR LPPR 131800Z 24005KT 200V270 9999 SCT015 FEW017TCU
                        16/11 Q1013=
200805131730 METAR LPPR 131730Z 24006KT 190V290 9999 SCT015 FEW017TCU
                        16/11 Q1013=
200805131700 METAR LPPR 131700Z 26006KT 210V320 9999 SCT015 FEW017 17/12
                        Q1013=
200805131630 METAR LPPR 131630Z 25006KT 200V290 9999 SCT015 FEW017TCU
                        SCT060 17/12 Q1013=
200805131600 METAR LPPR 131600Z 24006KT 180V270 9999 SCT015 FEW017TCU
                        BKN060 16/12 Q1013=
200805131530 METAR LPPR 131530Z 27008KT 220V310 9999 SCT015 FEW017TCU
                        SCT060 16/12 Q1013=
200805131500 METAR LPPR 131500Z 25008KT 220V320 9999 SCT015 FEW017TCU
                        17/12 Q1013=
200805131430 METAR LPPR 131430Z 25007KT 210V320 9999 SCT015 FEW017TCU
                        17/13 Q1014=
200805131400 METAR LPPR 131400Z VRB04KT 9999 SCT015 FEW017TCU 17/12 Q1014=
200805131330 METAR LPPR 131330Z 25008KT 180V290 9999 SCT015 FEW017TCU
                        17/13 Q1014=
200805131300 METAR LPPR 131300Z 27007KT 200V300 9999 SCT015 FEW017TCU
                        17/13 Q1014=
200805131230 METAR LPPR 131230Z 28008KT 250V310 9999 SCT015 FEW017TCU
                        17/12 Q1014=
200805131200 METAR LPPR 131200Z 28007KT 220V340 9999 SCT015 FEW017TCU
                        17/12 Q1014=
200805131130 METAR LPPR 131130Z 30007KT 240V330 9999 SCT015 17/13 Q1014=
200805131100 METAR LPPR 131100Z 29008KT 250V330 9999 SCT015 FEW017TCU
                        16/13 Q1014=
200805131030 METAR LPPR 131030Z 29007KT 250V330 9999 SCT015 16/14 Q1014=
200805131000 METAR LPPR 131000Z 28008KT 260V330 9999 SCT013 FEW017TCU
                        16/14 Q1014=
200805130930 METAR LPPR 130930Z 28005KT 240V320 9999 FEW008 SCT015 15/15
                        Q1014=
200805130900 METAR LPPR 130900Z 31005KT 260V340 9999 FEW008 SCT015 BKN035
                        15/15 Q1014=
200805130830 METAR LPPR 130830Z VRB03KT 8000 FEW008 BKN013 FEW017TCU 14/14
                        Q1014=
200805130800 METAR LPPR 130800Z VRB03KT 8000 FEW008 BKN017 FEW020TCU 14/14
                        Q1014=
200805130730 METAR LPPR 130730Z VRB02KT 9999 SCT010 BKN017 14/14 Q1014=
200805130700 METAR LPPR 130700Z 00000KT 9999 FEW009 SCT015 BKN030 14/14
                        Q1013=
200805130630 METAR LPPR 130630Z 31004KT 280V340 9999 FEW008 SCT030 14/14
                        Q1013=
200805130600 METAR LPPR 130600Z 25004KT 210V320 8000 FEW008 SCT013 BKN030
                        13/13 Q1013 RERA=
200805130530 METAR LPPR 130530Z 20007KT 170V240 4000 RA BR SCT003 SCT006
                        BKN012 13/13 Q1013=
200805130500 METAR LPPR 130500Z 18011KT 5000 -RADZ BR SCT005 BKN012 13/13
                        Q1013=
200805130430 METAR LPPR 130430Z 18010KT 4000 RA BR SCT006 BKN010 13/13
                        Q1013=
200805130400 METAR LPPR 130400Z 17010KT 9999 SCT008 BKN015 14/14 Q1013=
200805130330 METAR LPPR 130330Z 17009KT 9999 SCT008 BKN009 14/14 Q1013=
200805130300 METAR LPPR 130300Z 18008KT 9999 SCT008 BKN009 14/14 Q1013=
200805130230 METAR LPPR 130230Z 16010KT 9999 SCT007 SCT012 14/14 Q1013=
200805130200 METAR LPPR 130200Z 14007KT 8000 SCT008 SCT012 13/13 Q1014=
200805130130 METAR LPPR 130130Z 14005KT 5000 -RA BR SCT006 BKN030 13/13
                        Q1014=
200805130100 METAR LPPR 130100Z 15007KT 5000 -RA BR FEW005 SCT007 BKN030
                        13/13 Q1014=
200805130030 METAR LPPR 130030Z 17005KT 5000 -RADZ BR FEW006 SCT007 BKN070
                        13/13 Q1015=
200805130000 METAR LPPR 130000Z 18008KT 8000 -SHRA SCT011 BKN070 13/13
                        Q1015=
200805122330 METAR LPPR 122330Z 16008KT 8000 SCT008 SCT015 BKN030 13/13
                        Q1015=
200805122300 METAR LPPR 122300Z 18010KT 8000 -SHRA SCT007 SCT015 BKN030
                        13/13 Q1015=
200805122230 METAR LPPR 122230Z 20010KT 9999 SCT015 BKN030 14/12 Q1015=
200805122200 METAR LPPR 122200Z 18009KT 9999 SCT015 BKN030 15/12 Q1015=
200805122130 METAR LPPR 122130Z 18010KT 9999 SCT015 BKN035 15/12 Q1015=
200805122100 METAR LPPR 122100Z 18008KT 9999 SCT015 BKN040 14/12 Q1015=
200805122030 METAR LPPR 122030Z 17009KT 9999 SCT015 BKN040 14/12 Q1015=
200805122000 METAR LPPR 122000Z 18006KT 9999 SCT013 BKN040 14/12 Q1015=
200805121930 METAR LPPR 121930Z 19007KT 150V220 9999 SCT013 15/11 Q1015=
200805121900 METAR LPPR 121900Z 19007KT 170V230 9999 SCT013 15/11 Q1015=
200805121830 METAR LPPR 121830Z 23007KT 190V270 9999 BKN012 15/13 Q1015=
200805121800 METAR LPPR 121800Z 23007KT 190V270 9999 BKN012 16/12 Q1015=
200805121730 METAR LPPR 121730Z 25008KT 200V270 9999 SCT012 16/13 Q1015=
200805121700 METAR LPPR 121700Z 25008KT 190V280 9999 SCT012 17/14 Q1015=
200805121630 METAR LPPR 121630Z 25006KT 180V290 9999 SCT012 SCT035 17/13
                        Q1015=
200805121600 METAR LPPR 121600Z 25006G16KT 200V280 9999 SCT012 BKN035
                        17/14 Q1015=
200805121530 METAR LPPR 121530Z 24007KT 180V280 9999 SCT013 BKN030 17/14
                        Q1016=
200805121500 METAR LPPR 121500Z VRB05KT 9999 SCT013 SCT018 BKN080 18/14
                        Q1016=
200805121430 METAR LPPR 121430Z 23004KT 160V290 9999 SCT013 SCT018 BKN080
                        17/13 Q1016=
200805121400 METAR LPPR 121400Z 26006KT 210V300 9999 SCT013 BKN017 BKN090
                        17/14 Q1016=
200805121330 METAR LPPR 121330Z 24007G19KT 200V280 9999 FEW012 BKN030
                        BKN090 16/13 Q1016=
200805121300 METAR LPPR 121300Z 25006KT 200V270 9999 FEW012 BKN030 BKN090
                        16/14 Q1016=
200805121230 METAR LPPR 121230Z 24007KT 210V290 9999 FEW013 SCT030 BKN090
                        16/14 Q1016=
200805121200 METAR LPPR 121200Z 21004KT 170V260 9999 FEW013 BKN030 17/13
                        Q1016=
200805121130 METAR LPPR 121130Z 23005KT 190V290 8000 FEW013 BKN030 16/14
                        Q1016=
200805121100 METAR LPPR 121100Z 23004KT 7000 SCT013 SCT017 BKN030 16/14
                        Q1016=
200805121030 METAR LPPR 121030Z 24004KT 190V280 7000 SCT013 SCT017 BKN030
                        16/14 Q1016=
200805121000 METAR LPPR 121000Z 23005KT 190V260 5000 BR SCT013 SCT017
                        BKN030 15/15 Q1016=
200805120930 METAR LPPR 120930Z 26005KT 230V300 8000 FEW015 SCT017 BKN030
                        16/15 Q1016=
200805120900 METAR LPPR 120900Z VRB02KT 8000 FEW015 BKN030 16/13 Q1016=
200805120830 METAR LPPR 120830Z 00000KT 8000 FEW015 BKN030 15/13 Q1016=
200805120800 METAR LPPR 120800Z 00000KT 8000 SCT015 BKN030 15/14 Q1016=
200805120730 METAR LPPR 120730Z 00000KT 8000 SCT017 BKN030 15/14 Q1016=
200805120700 METAR LPPR 120700Z 00000KT 8000 SCT020 BKN030 14/14 Q1016=
200805120630 METAR LPPR 120630Z 00000KT 8000 SCT015 BKN025 14/14 Q1016=
200805120600 METAR LPPR 120600Z VRB02KT 7000 FEW007 SCT015 BKN025 14/14
                        Q1016=
200805120530 METAR LPPR 120530Z 00000KT 7000 FEW008 SCT015 BKN025 14/14
                        Q1016=
200805120500 METAR LPPR 120500Z 00000KT 7000 SCT008 SCT013 BKN020 14/14
                        Q1016=
200805120430 METAR LPPR 120430Z 00000KT 7000 SCT008 BKN012 14/14 Q1016=
200805120400 METAR LPPR 120400Z VRB03KT 7000 SCT008 BKN013 14/14 Q1016=
200805120330 METAR LPPR 120330Z VRB03KT 7000 SCT008 BKN013 14/14 Q1016=
200805120300 METAR LPPR 120300Z 31004KT 280V340 7000 SCT008 BKN013 14/14
                        Q1016=
200805120230 METAR LPPR 120230Z VRB03KT 7000 SCT005 BKN008 14/14 Q1016=
200805120200 METAR LPPR 120200Z 28004KT 240V320 7000 SCT005 BKN008 14/14
                        Q1016=
200805120130 METAR LPPR 120130Z 29004KT 260V330 6000 SCT004 BKN007 14/14
                        Q1016=
200805120100 METAR LPPR 120100Z 28005KT 6000 SCT004 BKN006 14/14 Q1016=
200805120030 METAR LPPR 120030Z 29005KT 230V330 5000 BR SCT003 BKN005
                        14/14 Q1016=
200805120000 METAR LPPR 120000Z 30005KT 260V330 5000 BR SCT003 BKN005
                        14/14 Q1016=
200805112330 METAR LPPR 112330Z 30005KT 250V330 5000 BR SCT003 BKN005
                        14/14 Q1016=
200805112300 METAR LPPR 112300Z 31007KT 280V340 5000 BR SCT002 BKN005
                        14/14 Q1016=
200805112230 METAR LPPR 112230Z 31008KT 5000 BR SCT002 BKN005 14/14 Q1016=
200805112200 METAR LPPR 112200Z 31008KT 280V350 5000 BR SCT002 BKN005
                        14/14 Q1016=
200805112130 METAR LPPR 112130Z 31008KT 250V350 6000 SCT002 BKN005 14/14
                        Q1016=
200805112100 METAR LPPR 112100Z 30005KT 260V340 6000 SCT003 BKN006 14/14
                        Q1016=
200805112030 METAR LPPR 112030Z 31007KT 270V330 6000 SCT004 BKN007 14/14
                        Q1015=
200805112000 METAR LPPR 112000Z 31006KT 280V340 6000 SCT004 SCT007 14/14
                        Q1015=
200805111930 METAR LPPR 111930Z 30008KT 7000 FEW007 14/14 Q1015=
200805111900 METAR LPPR 111900Z 30008KT 270V340 9999 FEW020 15/14 Q1014=
200805111830 METAR LPPR 111830Z 34009KT 9999 FEW020 17/14 Q1014=
200805111800 METAR LPPR 111800Z 34012KT 9999 FEW020 17/14 Q1014=
200805111730 METAR LPPR 111730Z 33009KT 9999 FEW017 17/14 Q1014=
200805111700 METAR LPPR 111700Z 34012KT 9999 FEW017 SCT090 18/14 Q1014=
200805111630 METAR LPPR 111630Z 34013KT 310V010 9999 FEW017 SCT090 17/13
                        Q1014=
200805111600 METAR LPPR 111600Z 33012KT 290V350 9999 FEW017 SCT080 17/14
                        Q1014=
200805111530 METAR LPPR 111530Z 32014G28KT 290V360 9999 FEW017 SCT080
                        18/14 Q1014=
200805111500 METAR LPPR 111500Z 32013KT 9999 FEW017 SCT080 18/14 Q1014=
200805111430 METAR LPPR 111430Z 32015KT 9999 FEW017 18/14 Q1014=
200805111400 METAR LPPR 111400Z 32014KT 9999 FEW017 18/14 Q1014=
200805111330 METAR LPPR 111330Z 32013KT 290V350 9999 FEW017 19/14 Q1014=
200805111300 METAR LPPR 111300Z 32014KT 9999 FEW017 18/13 Q1015=
200805111230 METAR LPPR 111230Z 31013KT 290V350 9999 FEW017 18/14 Q1015=
200805111200 METAR LPPR 111200Z 32012KT 9999 FEW017 18/14 Q1015=
200805111130 METAR LPPR 111130Z 32013G24KT 9999 FEW017 18/14 Q1015=
200805111100 METAR LPPR 111100Z 32014KT 290V350 9999 FEW025 17/13 Q1015=
200805111030 METAR LPPR 111030Z 32011KT 290V350 9999 FEW017 SCT025 18/13
                        Q1015=
200805111000 METAR LPPR 111000Z 35006KT 330V050 9999 FEW017 SCT025 17/12
                        Q1015=
200805110930 METAR LPPR 110930Z 01007KT 320V060 9999 FEW017 SCT025 17/12
                        Q1015=
200805110900 METAR LPPR 110900Z 36008KT 340V040 9999 SCT017 17/11 Q1015=
200805110830 METAR LPPR 110830Z 36008KT 330V030 9999 FEW017 16/12 Q1015=
200805110800 METAR LPPR 110800Z 36007KT 330V030 9999 FEW040 15/12 Q1015=
200805110730 METAR LPPR 110730Z 36004KT 320V040 9999 FEW040 14/12 Q1015=
200805110700 METAR LPPR 110700Z 00000KT 9999 FEW040 14/12 Q1015=
200805110630 METAR LPPR 110630Z 00000KT 9999 FEW040 SCT100 12/12 Q1015=
200805110600 METAR LPPR 110600Z 00000KT 9999 FEW040 SCT100 12/12 Q1014=
200805110530 METAR LPPR 110530Z 02003KT 9999 FEW040 SCT100 12/12 Q1015=
200805110500 METAR LPPR 110500Z 36004KT 9999 SCT040 SCT100 11/11 Q1015=
200805110430 METAR LPPR 110430Z 35006KT 9999 FEW009 SCT250 11/11 Q1014=
200805110400 METAR LPPR 110400Z 35005KT 9999 FEW009 SCT250 12/12 Q1014=
200805110330 METAR LPPR 110330Z 35007KT 9000 FEW009 12/12 Q1014=
200805110300 METAR LPPR 110300Z 34011KT 9999 FEW040 12/12 Q1015=
200805110230 METAR LPPR 110230Z 35007KT 9999 FEW040 SCT250 12/12 Q1015=
200805110200 METAR LPPR 110200Z 34009KT CAVOK 13/13 Q1015=
200805110130 METAR LPPR 110130Z 34009KT 9999 FEW017 13/12 Q1015=
200805110100 METAR LPPR 110100Z 34009KT 9999 FEW017 SCT090 13/12 Q1015=
200805110030 METAR LPPR 110030Z 35007KT 9999 FEW017 BKN090 13/12 Q1015=
200805110000 METAR LPPR 110000Z 33010KT 9999 FEW017 SCT030 BKN080 13/12
                        Q1015=
200805102330 METAR LPPR 102330Z 34010KT 9999 FEW017 FEW025TCU SCT030 BKN080
                        13/12 Q1015=
200805102300 METAR LPPR 102300Z 34011KT 9999 FEW017 SCT040 BKN080 13/12
                        Q1015=
200805102230 METAR LPPR 102230Z 34012KT 9999 FEW040 SCT080 13/12 Q1016=
200805102200 METAR LPPR 102200Z 34010KT 9999 FEW040 SCT080 13/11 Q1016=
200805102130 METAR LPPR 102130Z 35008KT 9999 FEW040 12/11 Q1016=
200805102100 METAR LPPR 102100Z 35009KT 9999 FEW017 SCT070 12/11 Q1016=
200805102030 METAR LPPR 102030Z 33011KT 9999 FEW017 SCT040 13/11 Q1015=
200805102000 METAR LPPR 102000Z 35010KT 9999 FEW017 SCT040 14/11 Q1015=
200805101930 METAR LPPR 101930Z 34013KT 9999 FEW017 SCT040 14/10 Q1015=
200805101900 METAR LPPR 101900Z 34014KT 9999 FEW017 SCT040 BKN060 15/11
                        Q1015=
200805101830 METAR LPPR 101830Z 34012KT 9999 FEW017 SCT040 BKN060 15/11
                        Q1015=
200805101800 METAR LPPR 101800Z 33017KT 9999 FEW017 FEW025TCU SCT040 BKN060
                        15/11 Q1014=
200805101730 METAR LPPR 101730Z 34023G33KT 9999 FEW017 FEW025TCU SCT040
                        BKN060 15/10 Q1014=
200805101700 METAR LPPR 101700Z 34020G30KT 9999 FEW017 FEW025TCU SCT040
                        BKN060 15/11 Q1014=
200805101630 METAR LPPR 101630Z 33021G31KT 9999 FEW017 FEW025TCU SCT040
                        BKN060 16/11 Q1014=
200805101600 METAR LPPR 101600Z 33017KT 9999 FEW017 FEW025TCU SCT040 BKN060
                        15/12 Q1014=
200805101530 METAR LPPR 101530Z 34019KT 9999 FEW017 FEW025TCU SCT040 BKN060
                        15/11 Q1014 WS ALL RWY=
200805101500 METAR LPPR 101500Z 33020KT 9999 FEW017 SCT040 BKN060 17/11
                        Q1013=
200805101430 METAR LPPR 101430Z 33018KT 9999 FEW017 FEW025TCU SCT040 BKN060
                        17/12 Q1013=
200805101400 METAR LPPR 101400Z 33015KT 9999 FEW017 FEW025TCU BKN070 16/11
                        Q1014=
200805101330 METAR LPPR 101330Z 33016KT 9999 SCT017 FEW025TCU BKN060 16/11
                        Q1014=
200805101300 METAR LPPR 101300Z 33017KT 9999 FEW017 FEW025TCU BKN060 16/11
                        Q1014=
200805101230 METAR LPPR 101230Z 34018KT 9999 FEW017 SCT030 17/11 Q1013=
200805101200 METAR LPPR 101200Z 33016KT 9999 FEW017 SCT030 BKN250 17/12
                        Q1014=
200805101130 METAR LPPR 101130Z 33014KT 9999 FEW017 SCT030 BKN250 17/12
                        Q1014=
200805101100 METAR LPPR 101100Z 33013KT 300V360 9999 FEW015 SCT025 BKN250
                        17/11 Q1014=
200805101030 METAR LPPR 101030Z 35011KT 9999 FEW017 SCT030 BKN070 16/10
                        Q1014=
200805101000 METAR LPPR 101000Z 34012KT 9999 FEW017 BKN070 16/11 Q1014=
200805100930 METAR LPPR 100930Z 35012KT 9999 FEW017 BKN070 15/11 Q1014=
200805100900 METAR LPPR 100900Z 34012KT 9999 FEW017 BKN070 13/10 Q1014=
200805100830 METAR LPPR 100830Z 35008KT 9999 FEW017 BKN070 13/11 Q1014=
200805100800 METAR LPPR 100800Z 35010KT 9999 FEW015 BKN080 BKN200 13/11
                        Q1013=
200805100730 METAR LPPR 100730Z 35011KT 9999 FEW015 SCT100 BKN200 12/11
                        Q1013=
200805100700 METAR LPPR 100700Z 35010KT 9999 FEW015 SCT100 BKN200 12/10
                        Q1013=
200805100630 METAR LPPR 100630Z 33010KT 300V360 9999 FEW015 SCT050 BKN080
                        12/10 Q1013=
200805100600 METAR LPPR 100600Z 35005KT 9999 FEW015 SCT050 BKN080 11/10
                        Q1013=
200805100530 METAR LPPR 100530Z 34007KT 9999 FEW015 SCT050 BKN080 11/10
                        Q1012=
200805100500 METAR LPPR 100500Z 34008KT 9999 FEW015 SCT050 BKN070 11/10
                        Q1012=
200805100430 METAR LPPR 100430Z 35007KT 9999 FEW015 SCT050 11/10 Q1012=
200805100400 METAR LPPR 100400Z 36003KT 9999 SCT015 SCT050 BKN080 11/11
                        Q1012=
200805100330 METAR LPPR 100330Z 33006KT 9999 FEW015 SCT050 11/10 Q1012=
200805100300 METAR LPPR 100300Z 35005KT 9999 FEW015 SCT080 10/10 Q1012=
200805100230 METAR LPPR 100230Z 01004KT 9999 FEW015 BKN080 10/10 Q1012=
200805100200 METAR LPPR 100200Z 35003KT 9999 FEW015 BKN080 11/10 Q1012=
200805100130 METAR LPPR 100130Z 33003KT 9999 FEW015 SCT080 11/10 Q1012=
200805100100 METAR LPPR 100100Z 36003KT 9999 FEW015 FEW025CB BKN070 11/11
                        Q1012=
200805100030 METAR LPPR 100030Z 35006KT 9000 -SHRA FEW015 FEW025CB SCT050
                        11/10 Q1012=
200805100000 METAR LPPR 100000Z 36004KT 9999 FEW015 SCT080 11/09 Q1012=
200805092330 METAR LPPR 092330Z 35005KT 9999 FEW017 11/09 Q1012=
200805092300 METAR LPPR 092300Z 33005KT 9999 FEW017 11/10 Q1012=
200805092230 METAR LPPR 092230Z 33006KT 9999 FEW017 12/10 Q1012=
200805092200 METAR LPPR 092200Z 33005KT 9999 FEW017 12/10 Q1012=
200805092130 METAR LPPR 092130Z 33008KT 9999 FEW017 13/10 Q1012=
200805092100 METAR LPPR 092100Z 34010KT 9999 FEW017 13/10 Q1012=
200805092030 METAR LPPR 092030Z 33010KT 9999 SCT017 13/10 Q1012=
200805092000 METAR LPPR 092000Z 33010KT 9999 FEW017 FEW025CB 13/10 Q1012=
200805091930 METAR LPPR 091930Z 33008KT 9999 FEW017 FEW025CB 13/10 Q1012=
200805091900 METAR LPPR 091900Z 32010KT 9999 FEW017 FEW025CB 14/10 Q1012=
200805091830 METAR LPPR 091830Z 32011KT 9999 FEW017 FEW025CB 14/09 Q1011=
200805091800 METAR LPPR 091800Z 33013KT 290V350 9999 SCT017 14/09 Q1011=
200805091730 METAR LPPR 091730Z 31014KT 9999 SCT017 15/09 Q1012=
200805091700 METAR LPPR 091700Z 32013KT 280V350 9999 SCT017 15/10 Q1011=
200805091630 METAR LPPR 091630Z 30013KT 270V330 9999 SCT017 15/10 Q1011=
200805091600 METAR LPPR 091600Z 30011KT 260V330 9999 FEW017 FEW020CB 16/10
                        Q1011=
200805091530 METAR LPPR 091530Z 30011KT 260V340 9999 FEW017 FEW020CB 16/10
                        Q1011=
200805091500 METAR LPPR 091500Z 31012KT 280V340 9999 FEW017 FEW020CB 15/10
                        Q1011=
200805091430 METAR LPPR 091430Z 29012KT 260V330 9999 FEW017 16/10 Q1011=
200805091400 METAR LPPR 091400Z 29011KT 270V330 9999 SCT017 SCT030 16/10
                        Q1012=
200805091330 METAR LPPR 091330Z 30010KT 260V340 9999 SCT017 FEW025CB 16/11
                        Q1012=
200805091300 METAR LPPR 091300Z 31012KT 270V330 9999 SCT017 FEW025CB 15/11
                        Q1012=
200805091230 METAR LPPR 091230Z 30010KT 250V350 9999 SCT017 FEW025CB 16/11
                        Q1012=
200805091200 METAR LPPR 091200Z 30009KT 260V340 9999 SCT017 FEW025CB 16/10
                        Q1012=
200805091130 METAR LPPR 091130Z 30010KT 270V340 9999 SCT020 FEW025CB 16/10
                        Q1012=
200805091100 METAR LPPR 091100Z 31010KT 260V340 9999 SCT020 FEW025CB 15/10
                        Q1012=
200805091030 METAR LPPR 091030Z 31011KT 270V330 9999 SCT020 FEW025CB 16/10
                        Q1012=
200805091000 METAR LPPR 091000Z 32009KT 280V350 9999 SCT020 15/09 Q1012=
200805090930 METAR LPPR 090930Z 33009KT 9999 SCT020 15/08 Q1012=
200805090900 METAR LPPR 090900Z 33008KT 9999 SCT020 14/09 Q1012=
200805090830 METAR LPPR 090830Z 33008KT 290V360 9999 SCT020 15/09 Q1012=
200805090800 METAR LPPR 090800Z 32007KT 9999 SCT020 14/09 Q1012=
200805090730 METAR LPPR 090730Z 34004KT 320V020 9999 SCT020 14/10 Q1012=
200805090700 METAR LPPR 090700Z 00000KT 9999 SCT020 13/10 Q1012=
200805090630 METAR LPPR 090630Z VRB03KT 9999 SCT020 12/10 Q1012=
200805090600 METAR LPPR 090600Z VRB03KT 9999 SCT020 11/10 Q1012=
200805090530 METAR LPPR 090530Z 00000KT 9999 FEW017 SCT025 11/10 Q1012=
200805090500 METAR LPPR 090500Z 00000KT 9999 FEW017 SCT025 11/10 Q1012=
200805090430 METAR LPPR 090430Z 32005KT 9999 FEW017 SCT030 12/10 Q1012=
200805090400 METAR LPPR 090400Z 32005KT 9999 FEW017 SCT030 12/09 Q1012=
200805090330 METAR LPPR 090330Z 32006KT 9999 FEW017 SCT030 12/10 Q1012=
200805090300 METAR LPPR 090300Z 33007KT 9999 FEW017 SCT027 13/10 Q1012=
200805090230 METAR LPPR 090230Z 33007KT 9999 FEW017 SCT040 13/10 Q1012=
200805090200 METAR LPPR 090200Z 32007KT 9999 FEW017 SCT040 13/11 Q1012=
200805090130 METAR LPPR 090130Z 31006KT 9999 FEW017 SCT040 13/11 Q1012=
200805090100 METAR LPPR 090100Z 32006KT 9999 SCT017 SCT040 13/11 Q1013=
200805090030 METAR LPPR 090030Z 32005KT 9999 FEW017 SCT025 BKN040 13/11
                        Q1013=
200805090000 METAR LPPR 090000Z 32007KT 9999 FEW017 SCT030 13/11 Q1013=
200805082330 METAR LPPR 082330Z 33006KT 9999 FEW017 SCT030 13/11 Q1013=
200805082300 METAR LPPR 082300Z 32007KT 9999 FEW015 SCT025 13/11 Q1013=
200805082230 METAR LPPR 082230Z 32007KT 9999 SCT015 13/11 Q1013=
200805082200 METAR LPPR 082200Z 32006KT 9999 SCT015 13/11 Q1013=
200805082130 METAR LPPR 082130Z 33007KT 9999 SCT015 13/11 Q1013=
200805082100 METAR LPPR 082100Z 32007KT 9999 SCT015 13/11 Q1013=
200805082030 METAR LPPR 082030Z 33007KT 300V360 9999 FEW012 SCT015 13/11
                        Q1013=
200805082000 METAR LPPR 082000Z 32008KT 290V350 9999 FEW012 SCT015 13/11
                        Q1013=
200805081930 METAR LPPR 081930Z 32008KT 290V350 9999 SCT015 14/11 Q1013=
200805081900 METAR LPPR 081900Z 32010KT 9999 SCT015 14/11 Q1013=
200805081830 METAR LPPR 081830Z 32013KT 9999 SCT015 SCT035 15/11 Q1013=
200805081800 METAR LPPR 081800Z 32012KT 9999 SCT015 SCT035 15/12 Q1013=
200805081730 METAR LPPR 081730Z 32012KT 280V350 9999 SCT017 SCT080 16/12
                        Q1012=
200805081700 METAR LPPR 081700Z 32013KT 290V350 9999 SCT015 16/12 Q1012=
200805081630 METAR LPPR 081630Z 32014KT 290V350 9999 SCT015 16/12 Q1012=
200805081600 METAR LPPR 081600Z 32013KT 290V350 9999 SCT015 16/12 Q1012=
200805081530 METAR LPPR 081530Z 32013KT 280V350 9999 BKN015 16/13 Q1012=
200805081500 METAR LPPR 081500Z 32013KT 290V350 9999 BKN015 17/13 Q1012=
200805081430 METAR LPPR 081430Z 32014KT 9999 BKN015 17/13 Q1012=
200805081400 METAR LPPR 081400Z 34016KT 9999 FEW009 BKN015 16/14 Q1012=
200805081330 METAR LPPR 081330Z 33015KT 9999 FEW010 SCT015 17/14 Q1012=
200805081300 METAR LPPR 081300Z 32016KT 9999 SCT008 BKN015 16/14 Q1012=
200805081230 METAR LPPR 081230Z 32015KT 9999 SCT008 BKN015 16/15 Q1012=
200805081200 METAR LPPR 081200Z 33013KT 9999 SCT007 BKN013 15/15 Q1012=
200805081130 METAR LPPR 081130Z 33014KT 9999 SCT007 BKN013 15/15 Q1012=
200805081100 METAR LPPR 081100Z 33012KT 9999 SCT007 BKN013 15/15 Q1012=
200805081030 METAR LPPR 081030Z 33009KT 7000 -SHRA SCT007 BKN015 BKN030
                        14/14 Q1012=
200805081000 METAR LPPR 081000Z 33010KT 2000 -DZ BR BKN004 BKN007 14/14
                        Q1012=
200805080930 METAR LPPR 080930Z 33010KT 290V350 2000 -DZ BR BKN003 BKN006
                        14/14 Q1012=
200805080900 METAR LPPR 080900Z 32008KT 270V360 6000 SCT003 BKN005 BKN030
                        15/15 Q1011=
200805080830 METAR LPPR 080830Z 32008KT 5000 -RA BR SCT003 BKN006 BKN030
                        14/14 Q1011=
200805080800 METAR LPPR 080800Z 30007KT 260V330 2000 -RA BR SCT002 SCT004
                        BKN030 14/14 Q1011=
200805080730 METAR LPPR 080730Z 29005KT 260V330 3000 -RA BR SCT003 BKN005
                        14/14 Q1011=
200805080700 METAR LPPR 080700Z 31006KT 7000 -RADZ FEW004 SCT005 BKN030
                        14/14 Q1011=
200805080630 METAR LPPR 080630Z VRB03KT 7000 FEW002 SCT005 BKN030 15/15
                        Q1011=
200805080600 METAR LPPR 080600Z 20005KT 170V240 4000 -RADZ BR FEW004 SCT005
                        BKN030 15/15 Q1011=
200805080530 METAR LPPR 080530Z 17007KT 7000 FEW005 SCT012 BKN030 15/15
                        Q1011=
200805080500 METAR LPPR 080500Z 17005KT 7000 FEW009 SCT012 BKN030 15/15
                        Q1011=
200805080430 METAR LPPR 080430Z 16005KT 9999 FEW009 SCT012 BKN030 15/15
                        Q1010=
200805080400 METAR LPPR 080400Z 17004KT 7000 FEW009 SCT017 BKN030 15/15
                        Q1011=
200805080330 METAR LPPR 080330Z 14005KT 7000 SCT009 SCT017 BKN025 15/15
                        Q1011=
200805080300 METAR LPPR 080300Z VRB03KT 7000 SCT009 SCT012 BKN030 15/15
                        Q1011=
200805080230 METAR LPPR 080230Z 14004KT 7000 SCT009 SCT012 BKN030 15/15
                        Q1011=
200805080200 METAR LPPR 080200Z 13005KT 6000 SCT008 BKN012 15/15 Q1011=
200805080130 METAR LPPR 080130Z 16005KT 5000 -RA BR BKN008 BKN012 15/15
                        Q1011=
200805080100 METAR LPPR 080100Z 15003KT 7000 -RA SCT009 BKN013 15/15 Q1011=
200805080030 METAR LPPR 080030Z VRB03KT 8000 SCT009 BKN013 15/14 Q1011=
200805080000 METAR LPPR 080000Z 11002KT 8000 FEW009 BKN025 14/14 Q1012=
200805072330 METAR LPPR 072330Z 00000KT 8000 SCT009 SCT250 15/14 Q1012=
200805072300 METAR LPPR 072300Z 16002KT 7000 SCT007 BKN009 15/15 Q1012=
200805072230 METAR LPPR 072230Z 00000KT 7000 BKN009 14/14 Q1012=
200805072200 METAR LPPR 072200Z 00000KT 8000 FEW009 SCT250 14/14 Q1012=
200805072130 METAR LPPR 072130Z 00000KT 9000 FEW017 14/14 Q1012=
200805072100 METAR LPPR 072100Z 00000KT 8000 FEW017 14/14 Q1011=
200805072030 METAR LPPR 072030Z 00000KT 9999 FEW017 15/14 Q1011=
200805072000 METAR LPPR 072000Z 32003KT 9999 FEW017 15/15 Q1011=
200805071930 METAR LPPR 071930Z 30005KT 240V330 9999 FEW017 15/15 Q1011=
200805071900 METAR LPPR 071900Z 31006KT 270V330 9999 SCT017 16/15 Q1011=
200805071830 METAR LPPR 071830Z 30006KT 9999 FEW017 17/14 Q1010=
200805071800 METAR LPPR 071800Z 27005KT 250V320 9999 FEW017 SCT070 18/14
                        Q1010=
200805071730 METAR LPPR 071730Z 26006KT 210V290 9999 FEW017 SCT070 19/13
                        Q1010=
200805071700 METAR LPPR 071700Z 24005KT 200V280 9999 FEW017 BKN070 19/14
                        Q1010=
200805071630 METAR LPPR 071630Z 20006KT 170V230 9999 FEW017 BKN070 20/13
                        Q1010=
200805071600 METAR LPPR 071600Z 22004KT 170V260 9999 FEW030 BKN070 18/14
                        Q1010=
200805071530 METAR LPPR 071530Z VRB02KT 9999 FEW025 BKN080 17/15 Q1010=
200805071500 METAR LPPR 071500Z 26004KT 230V300 9999 FEW030 BKN080 17/15
                        Q1011=
200805071430 METAR LPPR 071430Z VRB03KT 9999 FEW030 BKN090 17/14 Q1011=
200805071400 METAR LPPR 071400Z 25007KT 9999 FEW030 BKN080 18/15 Q1011=
200805071330 METAR LPPR 071330Z VRB03KT 9999 FEW025 BKN080 19/13 Q1011=
200805071300 METAR LPPR 071300Z 16004KT 080V200 9999 FEW025 BKN090 18/14
                        Q1011=
200805071230 METAR LPPR 071230Z VRB02KT 9999 FEW025 BKN090 18/13 Q1012=
200805071200 METAR LPPR 071200Z 00000KT 9999 FEW025 BKN090 18/14 Q1011=
200805071130 METAR LPPR 071130Z 36008KT 340V040 9999 FEW025 BKN080 16/14
                        Q1011=
200805071100 METAR LPPR 071100Z 22007KT 190V260 9999 FEW025 BKN080 16/14
                        Q1012=
200805071030 METAR LPPR 071030Z 24006KT 200V290 CAVOK 17/14 Q1012=
200805071000 METAR LPPR 071000Z 23006KT 170V270 CAVOK 18/11 Q1011=
200805070930 METAR LPPR 070930Z 20004KT 160V260 CAVOK 18/10 Q1011=
200805070900 METAR LPPR 070900Z VRB03KT CAVOK 17/11 Q1011=
200805070830 METAR LPPR 070830Z VRB03KT 9999 FEW020 SCT100 BKN250 16/12
                        Q1011=
200805070800 METAR LPPR 070800Z 00000KT 9999 FEW020 SCT100 BKN250 15/11
                        Q1010=
200805070730 METAR LPPR 070730Z 00000KT CAVOK 14/10 Q1011=
200805070700 METAR LPPR 070700Z 00000KT CAVOK 14/10 Q1011=
200805070630 METAR LPPR 070630Z 00000KT CAVOK 13/09 Q1010=
200805070600 METAR LPPR 070600Z 00000KT CAVOK 13/09 Q1010=
200805070530 METAR LPPR 070530Z 16003KT CAVOK 12/09 Q1010=
200805070500 METAR LPPR 070500Z 00000KT CAVOK 13/10 Q1010=
200805070430 METAR LPPR 070430Z 00000KT CAVOK 13/09 Q1010=
200805070400 METAR LPPR 070400Z VRB02KT CAVOK 14/10 Q1011=
200805070330 METAR LPPR 070330Z 00000KT CAVOK 14/09 Q1011=
200805070300 METAR LPPR 070300Z VRB02KT CAVOK 14/09 Q1011=
200805070230 METAR LPPR 070230Z 10003KT CAVOK 14/11 Q1012=
200805070200 METAR LPPR 070200Z 00000KT CAVOK 13/11 Q1012=
200805070130 METAR LPPR 070130Z 07002KT CAVOK 13/11 Q1012=
200805070100 METAR LPPR 070100Z 00000KT CAVOK 13/11 Q1012=
200805070030 METAR LPPR 070030Z 00000KT CAVOK 13/11 Q1012=
200805070000 METAR LPPR 070000Z VRB02KT CAVOK 13/11 Q1012=
200805062330 METAR LPPR 062330Z 00000KT CAVOK 14/10 Q1012=
200805062300 METAR LPPR 062300Z 00000KT CAVOK 15/11 Q1013=
200805062230 METAR LPPR 062230Z VRB03KT CAVOK 15/11 Q1013=
200805062200 METAR LPPR 062200Z 04002KT CAVOK 14/12 Q1014=
200805062130 METAR LPPR 062130Z 01006KT CAVOK 15/11 Q1014=
200805062100 METAR LPPR 062100Z 36004KT 330V050 CAVOK 15/12 Q1014=
200805062030 METAR LPPR 062030Z VRB03KT CAVOK 15/12 Q1014=
200805062000 METAR LPPR 062000Z 32004KT CAVOK 15/12 Q1014=
200805061930 METAR LPPR 061930Z 33009KT 9999 FEW017 15/12 Q1014=
200805061900 METAR LPPR 061900Z 33010KT 9999 FEW017 16/11 Q1014=
200805061830 METAR LPPR 061830Z 33012KT 290V350 9999 FEW017 17/11 Q1014=
200805061800 METAR LPPR 061800Z 33011KT 290V350 9999 FEW017 17/11 Q1014=
200805061730 METAR LPPR 061730Z 32011KT 300V010 9999 FEW017 18/10 Q1014=
200805061700 METAR LPPR 061700Z 32010KT 9999 FEW017 SCT080 18/11 Q1014=
200805061630 METAR LPPR 061630Z 32011KT 9999 FEW017 SCT080 18/12 Q1014=
200805061600 METAR LPPR 061600Z 32012KT 260V350 9999 FEW017 SCT080 18/12
                        Q1014=
200805061530 METAR LPPR 061530Z 32010KT 9999 FEW017 SCT080 18/11 Q1014=
200805061500 METAR LPPR 061500Z 30009KT 270V340 9999 FEW017 BKN250 19/12
                        Q1014=
200805061430 METAR LPPR 061430Z 32009KT 9999 FEW017 BKN250 19/12 Q1015=
200805061400 METAR LPPR 061400Z 32009KT 270V350 CAVOK 20/10 Q1015=
200805061330 METAR LPPR 061330Z 29008KT 260V360 CAVOK 20/14 Q1015=
200805061300 METAR LPPR 061300Z 34005KT 290V010 CAVOK 20/14 Q1015=
200805061230 METAR LPPR 061230Z 33006KT 280V360 CAVOK 19/14 Q1015=
200805061200 METAR LPPR 061200Z 31005KT 260V330 8000 BKN250 18/14 Q1016=
200805061130 METAR LPPR 061130Z 29007KT 270V350 5000 BR BKN250 17/14 Q1016=
200805061100 METAR LPPR 061100Z 30005KT 260V330 5000 BR BKN250 17/14 Q1016=
200805061030 METAR LPPR 061030Z 31008KT 270V350 5000 BR BKN250 17/14 Q1017=
200805061000 METAR LPPR 061000Z VRB03KT 8000 FEW015 BKN250 18/14 Q1017=
200805060930 METAR LPPR 060930Z VRB02KT 8000 FEW015 BKN250 18/13 Q1017=
200805060900 METAR LPPR 060900Z VRB02KT 8000 BKN250 17/13 Q1017=
200805060830 METAR LPPR 060830Z 00000KT 5000 BR FEW012 BKN250 15/14 Q1017=
200805060800 METAR LPPR 060800Z 00000KT 4000 BR SCT004 BKN006 14/14 Q1017=
200805060730 METAR LPPR 060730Z VRB03KT 4000 BR BKN003 BKN005 13/13 Q1017=
200805060700 METAR LPPR 060700Z VRB02KT 4000 BR SCT003 BKN006 13/13 Q1017=
200805060630 METAR LPPR 060630Z 10002KT 3000 BR SCT004 SCT007 BKN100 13/13
                        Q1017=
200805060600 METAR LPPR 060600Z VRB02KT 4000 BR SCT004 SCT007 BKN100 13/13
                        Q1017=
200805060530 METAR LPPR 060530Z 00000KT 3000 BR SCT004 BKN006 12/12 Q1017=
200805060500 METAR LPPR 060500Z 00000KT 3000 BR SCT005 BKN100 12/12 Q1017=
200805060430 METAR LPPR 060430Z 00000KT 3000 BR FEW005 SCT100 11/11 Q1017=
200805060400 METAR LPPR 060400Z 00000KT 4000 BR FEW005 SCT100 11/11 Q1017=
200805060330 METAR LPPR 060330Z 00000KT 3000 BR FEW005 SCT100 12/12 Q1017=
200805060300 METAR LPPR 060300Z 00000KT 3000 BR SCT005 SCT100 BKN250 12/12
                        Q1018=
200805060230 METAR LPPR 060230Z 00000KT 3000 BR SCT005 SCT250 12/12 Q1018=
200805060200 METAR LPPR 060200Z VRB02KT 3000 BR SCT005 13/13 Q1018=
200805060130 METAR LPPR 060130Z 00000KT 3000 BR BKN005 SCT008 13/13 Q1018=
200805060100 METAR LPPR 060100Z 00000KT 3000 BR BKN005 SCT008 13/13 Q1018=
200805060030 METAR LPPR 060030Z 00000KT 3000 BR BKN006 SCT008 13/13 Q1019=
200805060000 METAR LPPR 060000Z 00000KT 3000 BR BKN006 13/13 Q1019=
200805052330 METAR LPPR 052330Z 00000KT 5000 BR SCT006 13/13 Q1019=
200805052300 METAR LPPR 052300Z 34006KT 5000 BR BKN006 14/13 Q1019=
200805052230 METAR LPPR 052230Z 32005KT 5000 BR BKN006 14/14 Q1019=
200805052200 METAR LPPR 052200Z 33006KT 5000 BR BKN006 14/13 Q1019=
200805052130 METAR LPPR 052130Z 32007KT 290V350 5000 BR BKN006 14/14 Q1020=
200805052100 METAR LPPR 052100Z 33005KT 5000 BR SCT006 SCT200 14/14 Q1019=
200805052030 METAR LPPR 052030Z 32006KT 6000 FEW090 BKN250 14/14 Q1019=
200805052000 METAR LPPR 052000Z 32005KT 280V020 7000 SCT090 BKN250 14/14
                        Q1019=
200805051930 METAR LPPR 051930Z 32006KT CAVOK 15/14 Q1018=
200805051900 METAR LPPR 051900Z 30004KT 250V330 CAVOK 16/13 Q1019=
200805051830 METAR LPPR 051830Z 31005KT 260V340 CAVOK 16/13 Q1018=
200805051800 METAR LPPR 051800Z 32007KT 290V350 CAVOK 17/12 Q1018=
200805051730 METAR LPPR 051730Z 32006KT CAVOK 17/13 Q1018=
200805051700 METAR LPPR 051700Z 31007KT CAVOK 17/13 Q1018=
200805051630 METAR LPPR 051630Z 31008KT 260V350 CAVOK 18/13 Q1019=
200805051600 METAR LPPR 051600Z 30007G17KT 230V340 CAVOK 18/13 Q1019=
200805051530 METAR LPPR 051530Z 31009KT CAVOK 18/13 Q1019=
200805051500 METAR LPPR 051500Z 30008KT 270V030 CAVOK 19/14 Q1019=
200805051430 METAR LPPR 051430Z 29008KT CAVOK 19/14 Q1019=
200805051400 METAR LPPR 051400Z 31006G16KT 270V340 CAVOK 19/14 Q1019=
200805051330 METAR LPPR 051330Z 30007KT 250V360 CAVOK 19/14 Q1020=
200805051300 METAR LPPR 051300Z 31007KT CAVOK 18/14 Q1020=
200805051230 METAR LPPR 051230Z 33007KT 290V350 CAVOK 18/13 Q1020=
200805051200 METAR LPPR 051200Z 30006KT 270V350 CAVOK 18/13 Q1020=
200805051130 METAR LPPR 051130Z 28006G16KT 250V040 CAVOK 17/13 Q1021=
200805051100 METAR LPPR 051100Z 29006KT CAVOK 16/12 Q1020=
200805051030 METAR LPPR 051030Z 28007KT CAVOK 16/13 Q1020=
200805051000 METAR LPPR 051000Z VRB03KT CAVOK 17/13 Q1020=
200805050930 METAR LPPR 050930Z 00000KT CAVOK 17/14 Q1020=
200805050900 METAR LPPR 050900Z 27004KT 230V320 CAVOK 17/14 Q1021=
200805050830 METAR LPPR 050830Z 00000KT CAVOK 17/14 Q1020=
200805050800 METAR LPPR 050800Z 00000KT CAVOK 16/13 Q1021=
200805050730 METAR LPPR 050730Z 11002KT CAVOK 14/13 Q1021=
200805050700 METAR LPPR 050700Z 00000KT CAVOK 13/13 Q1020=
200805050630 METAR LPPR 050630Z 10003KT CAVOK 12/12 Q1020=
200805050600 METAR LPPR 050600Z 11003KT CAVOK 11/11 Q1020=
200805050530 METAR LPPR 050530Z 00000KT CAVOK 10/10 Q1020=
200805050500 METAR LPPR 050500Z 00000KT CAVOK 11/11 Q1019=
200805050430 METAR LPPR 050430Z 00000KT CAVOK 12/11 Q1020=
200805050400 METAR LPPR 050400Z 00000KT CAVOK 12/12 Q1020=
200805050330 METAR LPPR 050330Z 11005KT CAVOK 12/12 Q1020=
200805050300 METAR LPPR 050300Z VRB03KT 8000 SKC 12/12 Q1020=
200805050230 METAR LPPR 050230Z 11004KT 8000 SKC 12/12 Q1021=
200805050200 METAR LPPR 050200Z 12004KT 8000 SKC 13/12 Q1021=
200805050130 METAR LPPR 050130Z VRB02KT CAVOK 12/12 Q1021=
200805050100 METAR LPPR 050100Z 11003KT CAVOK 13/12 Q1021=
200805050030 METAR LPPR 050030Z 17002KT CAVOK 12/12 Q1021=
200805050000 METAR LPPR 050000Z 12002KT CAVOK 13/12 Q1021=
200805042330 METAR LPPR 042330Z 00000KT CAVOK 13/12 Q1021=
200805042300 METAR LPPR 042300Z 00000KT CAVOK 13/12 Q1021=
200805042230 METAR LPPR 042230Z 00000KT CAVOK 14/12 Q1021=
200805042200 METAR LPPR 042200Z 00000KT CAVOK 14/13 Q1021=
200805042130 METAR LPPR 042130Z VRB03KT CAVOK 14/13 Q1021=
200805042100 METAR LPPR 042100Z 33003KT CAVOK 14/12 Q1021=
200805042030 METAR LPPR 042030Z 33004KT 290V350 CAVOK 14/12 Q1021=
200805042000 METAR LPPR 042000Z 33005KT CAVOK 14/12 Q1021=
200805041930 METAR LPPR 041930Z 33007KT 9999 FEW012 16/12 Q1021=
200805041900 METAR LPPR 041900Z 33010KT 9999 FEW012 16/12 Q1021=
200805041830 METAR LPPR 041830Z 32012KT 9999 FEW012 17/12 Q1021=
200805041800 METAR LPPR 041800Z 32011KT 9999 FEW012 18/12 Q1020=
200805041730 METAR LPPR 041730Z 33011KT 9999 FEW012 18/14 Q1020=
200805041700 METAR LPPR 041700Z 32015KT 9999 FEW012 18/14 Q1020=
200805041630 METAR LPPR 041630Z 32011KT 290V350 9999 FEW012 19/15 Q1020=
200805041600 METAR LPPR 041600Z 32012KT 280V340 9999 FEW012 19/15 Q1020=
200805041530 METAR LPPR 041530Z 32010KT 280V350 9999 FEW012 20/16 Q1020=
200805041500 METAR LPPR 041500Z 32010KT 280V020 9999 FEW012 20/16 Q1020=
200805041430 METAR LPPR 041430Z 31010KT 9999 FEW012 20/16 Q1021=
200805041400 METAR LPPR 041400Z 32010KT 9999 FEW012 20/16 Q1021=
200805041330 METAR LPPR 041330Z 30008KT 260V360 9999 SCT012 20/17 Q1021=
200805041300 METAR LPPR 041300Z 33006KT 290V360 9999 SCT012 BKN030 20/17
                        Q1021=
200805041230 METAR LPPR 041230Z 33007KT 7000 SCT007 SCT013 19/18 Q1021=
200805041200 METAR LPPR 041200Z 28005KT 240V310 5000 BR FEW002 SCT005
                        BKN008 18/18 Q1021=
200805041130 METAR LPPR 041130Z VRB03KT 8000 BKN007 BKN025 18/18 Q1021=
200805041100 METAR LPPR 041100Z VRB03KT 6000 SCT005 BKN008 17/17 Q1021=
200805041030 METAR LPPR 041030Z 19003KT 4000 -DZ BR FEW004 SCT006 BKN008
                        17/17 Q1021=
200805041000 METAR LPPR 041000Z VRB03KT 2000 DZ BR SCT002 BKN006 17/17
                        Q1021=
200805040930 METAR LPPR 040930Z 29004KT 3000 -DZ BR SCT002 BKN008 17/16
                        Q1020=
200805040900 METAR LPPR 040900Z VRB03KT 5000 BR SCT008 BKN013 18/16 Q1020=
200805040830 METAR LPPR 040830Z 14004KT 5000 BR SCT008 BKN013 17/16 Q1020=
200805040800 METAR LPPR 040800Z VRB03KT 5000 BR SCT008 BKN015 17/16 Q1020=
200805040730 METAR LPPR 040730Z 12005KT 4000 BR SCT007 BKN012 17/15 Q1020=
200805040700 METAR LPPR 040700Z 13005KT 4000 BR SCT007 BKN012 16/15 Q1019=
200805040630 METAR LPPR 040630Z 12005KT 4000 BR SCT007 BKN012 16/15 Q1019=
200805040600 METAR LPPR 040600Z 12003KT 4000 BR SCT008 BKN013 16/15 Q1019=
200805040530 METAR LPPR 040530Z 11004KT 4000 BR SCT008 BKN013 16/15 Q1019=
200805040500 METAR LPPR 040500Z 12004KT 4000 BR SCT008 BKN013 16/15 Q1019=
200805040430 METAR LPPR 040430Z 12003KT 4000 BR SCT008 BKN013 15/15 Q1018=
200805040400 METAR LPPR 040400Z 12003KT 4000 BR FEW013 SCT030 15/15 Q1018=
200805040330 METAR LPPR 040330Z 11004KT 5000 BR FEW013 SCT030 15/15 Q1018=
200805040300 METAR LPPR 040300Z 12004KT 5000 BR FEW012 BKN030 16/16 Q1018=
200805040230 METAR LPPR 040230Z 11003KT 5000 BR FEW012 BKN030 15/15 Q1018=
200805040200 METAR LPPR 040200Z 00000KT 5000 BR SCT012 BKN030 16/16 Q1018=
200805040130 METAR LPPR 040130Z VRB02KT 6000 FEW012 SCT025 16/16 Q1018=
200805040100 METAR LPPR 040100Z 00000KT 6000 FEW012 BKN025 15/15 Q1018=
200805040030 METAR LPPR 040030Z VRB02KT 7000 SCT012 SCT030 16/15 Q1018=
200805040000 METAR LPPR 040000Z 17004KT 8000 SCT090 15/15 Q1018=
200805032330 METAR LPPR 032330Z 16002KT CAVOK 15/15 Q1018=
200805032300 METAR LPPR 032300Z 00000KT CAVOK 16/15 Q1019=
200805032230 METAR LPPR 032230Z 00000KT CAVOK 16/15 Q1019=
200805032200 METAR LPPR 032200Z 18003KT CAVOK 16/14 Q1019=
200805032130 METAR LPPR 032130Z VRB03KT CAVOK 17/14 Q1019=
200805032100 METAR LPPR 032100Z VRB03KT CAVOK 17/14 Q1018=
200805032030 METAR LPPR 032030Z VRB03KT CAVOK 17/13 Q1018=
200805032000 METAR LPPR 032000Z VRB03KT CAVOK 18/13 Q1018=
200805031930 METAR LPPR 031930Z 18007KT CAVOK 19/14 Q1018=
200805031900 METAR LPPR 031900Z 19008KT CAVOK 19/12 Q1017=
200805031830 METAR LPPR 031830Z 20007KT CAVOK 20/14 Q1017=
200805031800 METAR LPPR 031800Z 20007KT CAVOK 20/13 Q1018=
200805031730 METAR LPPR 031730Z 20005KT 170V240 CAVOK 20/14 Q1018=
200805031700 METAR LPPR 031700Z 20007KT 170V230 CAVOK 21/14 Q1018=
200805031630 METAR LPPR 031630Z 23008KT 180V260 CAVOK 21/14 Q1018=
200805031600 METAR LPPR 031600Z 21007KT 170V250 CAVOK 22/14 Q1018=
200805031530 METAR LPPR 031530Z 23007KT 200V290 CAVOK 20/14 Q1018=
200805031500 METAR LPPR 031500Z 22007KT 190V300 CAVOK 21/14 Q1018=
200805031430 METAR LPPR 031430Z 26005KT 230V290 CAVOK 21/14 Q1018=
200805031400 METAR LPPR 031400Z 24008KT 180V290 CAVOK 21/13 Q1018=
200805031330 METAR LPPR 031330Z 23008KT 190V270 CAVOK 21/13 Q1018=
200805031300 METAR LPPR 031300Z 23007KT 190V260 CAVOK 21/12 Q1018=
200805031230 METAR LPPR 031230Z 22007KT 180V260 CAVOK 22/13 Q1018=
200805031200 METAR LPPR 031200Z 20010KT CAVOK 23/11 Q1017=
200805031130 METAR LPPR 031130Z 18011KT CAVOK 23/11 Q1017=
200805031100 METAR LPPR 031100Z 18014KT CAVOK 22/11 Q1017=
200805031030 METAR LPPR 031030Z 18013KT 150V210 CAVOK 22/12 Q1017=
200805031000 METAR LPPR 031000Z 19010KT CAVOK 22/12 Q1017=
200805030930 METAR LPPR 030930Z 21010KT CAVOK 22/12 Q1017=
200805030900 METAR LPPR 030900Z 16005KT CAVOK 21/12 Q1016=
200805030830 METAR LPPR 030830Z 15004KT CAVOK 20/12 Q1016=
200805030800 METAR LPPR 030800Z 12005KT CAVOK 18/12 Q1016=
200805030730 METAR LPPR 030730Z 11004KT 080V150 CAVOK 16/12 Q1016=
200805030700 METAR LPPR 030700Z 12007KT CAVOK 15/11 Q1017=
200805030630 METAR LPPR 030630Z 11007KT CAVOK 15/11 Q1016=
200805030600 METAR LPPR 030600Z 12008KT CAVOK 15/11 Q1016=
200805030530 METAR LPPR 030530Z 14004KT CAVOK 15/11 Q1016=
200805030500 METAR LPPR 030500Z VRB03KT CAVOK 15/11 Q1015=
200805030430 METAR LPPR 030430Z 11006KT CAVOK 15/11 Q1015=
200805030400 METAR LPPR 030400Z 11005KT CAVOK 15/11 Q1016=
200805030330 METAR LPPR 030330Z 11004KT 090V150 CAVOK 15/11 Q1016=
200805030300 METAR LPPR 030300Z VRB02KT CAVOK 15/11 Q1016=
200805030230 METAR LPPR 030230Z 11005KT CAVOK 15/10 Q1016=
200805030200 METAR LPPR 030200Z 00000KT CAVOK 15/11 Q1016=
200805030130 METAR LPPR 030130Z VRB03KT CAVOK 15/11 Q1016=
200805030100 METAR LPPR 030100Z 12004KT CAVOK 15/11 Q1016=
200805030030 METAR LPPR 030030Z 11007KT CAVOK 16/11 Q1016=
200805030000 METAR LPPR 030000Z 11005KT CAVOK 15/11 Q1017=
200805022330 METAR LPPR 022330Z 11005KT CAVOK 16/10 Q1017=
200805022300 METAR LPPR 022300Z 00000KT CAVOK 16/10 Q1017=
200805022230 METAR LPPR 022230Z VRB02KT CAVOK 16/10 Q1017=
200805022200 METAR LPPR 022200Z 00000KT CAVOK 16/10 Q1017=
200805022130 METAR LPPR 022130Z 00000KT CAVOK 16/11 Q1017=
200805022100 METAR LPPR 022100Z 00000KT CAVOK 16/11 Q1017=
200805022030 METAR LPPR 022030Z 00000KT CAVOK 16/11 Q1017=
200805022000 METAR LPPR 022000Z 28003KT CAVOK 16/11 Q1016=
200805021930 METAR LPPR 021930Z 00000KT CAVOK 17/10 Q1016=
200805021900 METAR LPPR 021900Z 00000KT CAVOK 18/10 Q1016=
200805021830 METAR LPPR 021830Z 25003KT CAVOK 20/10 Q1015=
200805021800 METAR LPPR 021800Z VRB03KT CAVOK 22/08 Q1015=
200805021730 METAR LPPR 021730Z 00000KT CAVOK 22/10 Q1016=
200805021700 METAR LPPR 021700Z 00000KT CAVOK 22/10 Q1016=
200805021630 METAR LPPR 021630Z VRB02KT CAVOK 21/11 Q1016=
200805021600 METAR LPPR 021600Z 23005KT 190V280 CAVOK 21/10 Q1016=
200805021530 METAR LPPR 021530Z VRB03KT CAVOK 21/11 Q1016=
200805021500 METAR LPPR 021500Z 26005KT 210V300 CAVOK 20/11 Q1016=
200805021430 METAR LPPR 021430Z 24008KT 190V280 CAVOK 21/10 Q1016=
200805021400 METAR LPPR 021400Z 22010KT 200V260 CAVOK 21/09 Q1016=
200805021330 METAR LPPR 021330Z 23008KT 180V260 CAVOK 21/10 Q1016=
200805021300 METAR LPPR 021300Z 22008KT 180V280 CAVOK 21/08 Q1016=
200805021230 METAR LPPR 021230Z 21010KT 180V250 CAVOK 21/09 Q1016=
200805021200 METAR LPPR 021200Z 18011KT CAVOK 21/08 Q1016=
200805021130 METAR LPPR 021130Z 18010KT CAVOK 21/08 Q1016=
200805021100 METAR LPPR 021100Z VRB03KT CAVOK 19/11 Q1017=
200805021030 METAR LPPR 021030Z VRB03KT CAVOK 17/11 Q1017=
200805021000 METAR LPPR 021000Z 29005KT 250V310 CAVOK 17/11 Q1017=
200805020930 METAR LPPR 020930Z 27004KT 240V300 CAVOK 16/11 Q1017=
200805020900 METAR LPPR 020900Z 17005KT 150V210 CAVOK 18/10 Q1016=
200805020830 METAR LPPR 020830Z 14006KT 110V170 CAVOK 16/11 Q1016=
200805020800 METAR LPPR 020800Z 13004KT 100V170 CAVOK 14/10 Q1016=
200805020730 METAR LPPR 020730Z 12004KT 060V170 CAVOK 12/09 Q1016=
200805020700 METAR LPPR 020700Z VRB02KT CAVOK 11/09 Q1016=
200805020630 METAR LPPR 020630Z 11006KT CAVOK 11/09 Q1016=
200805020600 METAR LPPR 020600Z 11006KT CAVOK 10/09 Q1015=
200805020530 METAR LPPR 020530Z 11006KT CAVOK 10/08 Q1015=
200805020500 METAR LPPR 020500Z 11005KT CAVOK 10/08 Q1015=
200805020430 METAR LPPR 020430Z VRB03KT CAVOK 09/08 Q1015=
200805020400 METAR LPPR 020400Z VRB02KT CAVOK 09/08 Q1015=
200805020330 METAR LPPR 020330Z 00000KT CAVOK 09/08 Q1015=
200805020300 METAR LPPR 020300Z 00000KT CAVOK 09/09 Q1015=
200805020230 METAR LPPR 020230Z 00000KT CAVOK 09/09 Q1015=
200805020200 METAR LPPR 020200Z 00000KT CAVOK 09/09 Q1015=
200805020130 METAR LPPR 020130Z 00000KT CAVOK 09/09 Q1016=
200805020100 METAR LPPR 020100Z 00000KT CAVOK 09/09 Q1016=
200805020030 METAR LPPR 020030Z 00000KT CAVOK 09/09 Q1016=
200805020000 METAR LPPR 020000Z 00000KT CAVOK 10/09 Q1016=
200805012330 METAR LPPR 012330Z 00000KT CAVOK 10/09 Q1016=
200805012300 METAR LPPR 012300Z 00000KT CAVOK 10/09 Q1016=
200805012230 METAR LPPR 012230Z 00000KT CAVOK 10/09 Q1016=
200805012200 METAR LPPR 012200Z 00000KT CAVOK 11/09 Q1016=
200805012130 METAR LPPR 012130Z 00000KT CAVOK 12/09 Q1016=
200805012100 METAR LPPR 012100Z 00000KT CAVOK 12/09 Q1016=
200805012030 METAR LPPR 012030Z 00000KT CAVOK 13/09 Q1016=
200805012000 METAR LPPR 012000Z 33003KT CAVOK 13/09 Q1015=
200805011930 METAR LPPR 011930Z 32004KT CAVOK 14/09 Q1015=
200805011900 METAR LPPR 011900Z VRB03KT CAVOK 15/09 Q1015=
200805011830 METAR LPPR 011830Z 32005KT CAVOK 16/09 Q1015=
200805011800 METAR LPPR 011800Z 32006KT 9999 FEW017 BKN250 16/09 Q1015=
200805011730 METAR LPPR 011730Z 32007KT 290V020 9999 SCT017 BKN250 16/09
                        Q1015=
200805011700 METAR LPPR 011700Z 31006KT 260V360 9999 FEW017 SCT060 BKN250
                        17/10 Q1015=
200805011630 METAR LPPR 011630Z 29006KT 260V350 9999 SCT017 SCT060 BKN250
                        17/10 Q1015=
200805011600 METAR LPPR 011600Z 29006KT 190V330 9999 SCT017 SCT060 17/10
                        Q1015=
200805011530 METAR LPPR 011530Z 29008KT 260V320 9999 SCT017 SCT060 16/10
                        Q1015=
200805011500 METAR LPPR 011500Z 26008KT 210V290 9999 SCT017 SCT060 16/11
                        Q1015=
200805011430 METAR LPPR 011430Z 25008KT 190V290 9999 SCT017 SCT060 18/10
                        Q1015=
200805011400 METAR LPPR 011400Z 24008KT 200V280 9999 SCT017 SCT060 18/10
                        Q1015=
200805011330 METAR LPPR 011330Z 23006KT 180V270 9999 SCT017 17/10 Q1015=
200805011300 METAR LPPR 011300Z 24008KT 200V280 9999 SCT017 17/10 Q1015=
200805011230 METAR LPPR 011230Z 22009KT 180V250 9999 SCT017 17/10 Q1015=
200805011200 METAR LPPR 011200Z 19008KT 150V220 9999 FEW017 SCT030 17/10
                        Q1015=
200805011130 METAR LPPR 011130Z 17009KT 9999 FEW017 SCT030 BKN070 14/11
                        Q1015=
200805011100 METAR LPPR 011100Z 18010KT 9999 FEW017 SCT030 BKN070 14/10
                        Q1015=
200805011030 METAR LPPR 011030Z 19009KT 9999 BKN030 BKN070 14/10 Q1015=
200805011000 METAR LPPR 011000Z 20010KT 9999 BKN030 BKN060 14/10 Q1014=
200805010930 METAR LPPR 010930Z 20013KT 9999 -RA BKN030 BKN060 15/10 Q1014=
200805010900 METAR LPPR 010900Z 19009KT 9999 FEW017 SCT040 BKN070 15/10
                        Q1014=
200805010830 METAR LPPR 010830Z 16008KT 130V190 9999 FEW017 SCT040 15/10
                        Q1014=
200805010800 METAR LPPR 010800Z 13006KT 9999 FEW017 SCT070 13/10 Q1014=
200805010730 METAR LPPR 010730Z 12008KT 9999 FEW017 SCT070 11/09 Q1013=
200805010700 METAR LPPR 010700Z 12009KT 9999 FEW017 SCT060 10/09 Q1013=
200805010630 METAR LPPR 010630Z 13007KT 9999 FEW017 BKN060 10/09 Q1013=
200805010600 METAR LPPR 010600Z 13006KT 9999 FEW017 BKN060 10/08 Q1012=
200805010530 METAR LPPR 010530Z 12007KT 9999 FEW017 BKN060 09/08 Q1012=
200805010500 METAR LPPR 010500Z 12007KT 9999 FEW017 10/08 Q1012=
200805010430 METAR LPPR 010430Z 12007KT 9999 FEW017 10/08 Q1012=
200805010400 METAR LPPR 010400Z 12007KT 9999 FEW017 SCT025 10/08 Q1012=
200805010330 METAR LPPR 010330Z 11006KT 9999 FEW020 BKN030 10/09 Q1012=
200805010300 METAR LPPR 010300Z 11008KT 9999 FEW020 SCT025 10/08 Q1012=
200805010230 METAR LPPR 010230Z 11007KT 9999 FEW020 10/09 Q1012=
200805010200 METAR LPPR 010200Z 11006KT 9999 FEW020 11/09 Q1012=
200805010130 METAR LPPR 010130Z 11006KT 9999 FEW020 11/09 Q1013=
200805010100 METAR LPPR 010100Z 11006KT 9999 FEW020 SCT060 10/09 Q1013=
200805010030 METAR LPPR 010030Z 00000KT 9999 FEW020 09/08 Q1013=
200805010000 METAR LPPR 010000Z 00000KT 9999 FEW020 10/08 Q1013=
