##########################################################
# Query made at 11/10/2014 10:20:19 UTC
# Time interval: from 05/01/2010 00:00  to 05/31/2010 23:59  UTC
##########################################################

##########################################################
# LPPR, Porto / Pedras Rubras (Portugal)
# WMO index: 08545
# Latitude 41-14N. Longitude 008-41W. Altitude 69 m.
##########################################################

###################################
#  METAR/SPECI from LPPR
###################################
201005312330 METAR LPPR 312330Z 00000KT CAVOK 18/17 Q1019=
201005312300 METAR LPPR 312300Z 33001KT CAVOK 19/17 Q1019=
201005312230 METAR LPPR 312230Z 00000KT CAVOK 19/17 Q1019=
201005312200 METAR LPPR 312200Z 00000KT CAVOK 19/18 Q1019=
201005312130 METAR LPPR 312130Z 32002KT CAVOK 19/17 Q1019=
201005312100 METAR LPPR 312100Z VRB02KT CAVOK 20/18 Q1019=
201005312030 METAR LPPR 312030Z 34002KT CAVOK 20/18 Q1019=
201005312000 METAR LPPR 312000Z 34005KT 320V020 CAVOK 20/18 Q1019=
201005311930 METAR LPPR 311930Z 31004KT 270V340 CAVOK 21/18 Q1019=
201005311900 METAR LPPR 311900Z 32006KT 280V340 CAVOK 21/18 Q1019=
201005311830 METAR LPPR 311830Z 30006KT 270V330 CAVOK 23/18 Q1019=
201005311800 METAR LPPR 311800Z 31005KT CAVOK 23/18 Q1019=
201005311730 METAR LPPR 311730Z 31008KT CAVOK 23/18 Q1019=
201005311700 METAR LPPR 311700Z 30007KT CAVOK 25/19 Q1020=
201005311630 METAR LPPR 311630Z 32008KT 280V350 CAVOK 25/19 Q1020=
201005311600 METAR LPPR 311600Z 31012KT 280V350 CAVOK 23/19 Q1020=
201005311530 METAR LPPR 311530Z 31010KT CAVOK 24/19 Q1020=
201005311500 METAR LPPR 311500Z 30010KT 270V330 CAVOK 24/19 Q1021=
201005311430 METAR LPPR 311430Z 31008KT 280V340 CAVOK 26/19 Q1021=
201005311400 METAR LPPR 311400Z 31011KT 280V350 CAVOK 25/18 Q1021=
201005311330 METAR LPPR 311330Z 30010KT CAVOK 25/18 Q1021=
201005311300 METAR LPPR 311300Z 30009KT 270V330 CAVOK 25/18 Q1021=
201005311230 METAR LPPR 311230Z 32009KT CAVOK 25/19 Q1021=
201005311200 METAR LPPR 311200Z 31008KT 260V340 CAVOK 25/18 Q1021=
201005311130 METAR LPPR 311130Z 27007KT CAVOK 25/19 Q1022=
201005311100 METAR LPPR 311100Z 27006G20KT 240V350 CAVOK 25/19 Q1022=
201005311030 METAR LPPR 311030Z 00000KT CAVOK 25/20 Q1022=
201005311000 METAR LPPR 311000Z VRB03KT 8000 FEW009 22/19 Q1022=
201005310930 METAR LPPR 310930Z 30005KT 260V330 8000 FEW004 20/18 Q1023=
201005310900 METAR LPPR 310900Z 28006KT 260V320 2000 BR VCFG SCT002 19/18
                        Q1023=
201005310830 METAR LPPR 310830Z 27004KT 8000 SCT250 22/19 Q1022=
201005310800 METAR LPPR 310800Z 13001KT 8000 SCT250 21/21 Q1023=
201005310730 METAR LPPR 310730Z 00000KT 5000 BR SCT250 19/19 Q1023=
201005310700 METAR LPPR 310700Z 00000KT 2000 R17/1000VP1500 R35/P1500
                        BR VCFG SCT002 17/17 Q1023=
201005310630 METAR LPPR 310630Z 00000KT 0200 R17/0600N R35/0500N FG VV001
                        16/16 Q1023=
201005310600 METAR LPPR 310600Z 00000KT 0150 R17/0400N R35/0350N FG VV001
                        16/16 Q1023=
201005310530 METAR LPPR 310530Z 00000KT 0100 R17/0300V0450D R35/0300V0400D
                        FG VV000 15/15 Q1023=
201005310500 METAR LPPR 310500Z 00000KT 2500 BR FEW004 16/15 Q1023=
201005310430 METAR LPPR 310430Z 00000KT 2000 R17/1000VP1500 R35/1000VP1500
                        BR SCT004 16/15 Q1022=
201005310400 METAR LPPR 310400Z 00000KT 2000 R17/P1500 R35/P1500 BR SCT004
                        16/15 Q1023=
201005310330 METAR LPPR 310330Z 00000KT 1100 R17/P1500 R35/0750V1000N
                        BCFG FEW001 SCT003 16/16 Q1023=
201005310300 METAR LPPR 310300Z 00000KT 4000 BR SCT250 16/16 Q1023=
201005310230 METAR LPPR 310230Z 00000KT 5000 BR SCT250 16/16 Q1023=
201005310200 METAR LPPR 310200Z 00000KT 8000 FEW250 16/16 Q1023=
201005310130 METAR LPPR 310130Z 00000KT CAVOK 16/16 Q1023=
201005310100 METAR LPPR 310100Z 00000KT CAVOK 17/16 Q1023=
201005310030 METAR LPPR 310030Z 00000KT CAVOK 17/17 Q1024=
201005310000 METAR LPPR 310000Z 00000KT CAVOK 17/16 Q1024=
201005302330 METAR LPPR 302330Z 00000KT CAVOK 17/17 Q1024=
201005302300 METAR LPPR 302300Z 00000KT CAVOK 17/17 Q1024=
201005302230 METAR LPPR 302230Z 00000KT CAVOK 17/17 Q1024=
201005302200 METAR LPPR 302200Z 00000KT 9999 FEW005 SCT250 18/17 Q1025=
201005302130 METAR LPPR 302130Z 33006KT 290V350 6000 SCT002 BKN004 18/18
                        Q1025=
201005302100 METAR LPPR 302100Z 33008KT 5000 BR SCT001 BKN003 18/17 Q1024=
201005302030 METAR LPPR 302030Z 33008KT 3000 BR SCT001 BKN003 18/18 Q1024=
201005302000 METAR LPPR 302000Z 32008KT 280V340 5000 BR SCT003 SCT250
                        18/17 Q1024=
201005301930 METAR LPPR 301930Z 34010KT 7000 SCT004 19/17 Q1024=
201005301900 METAR LPPR 301900Z 31009KT 9999 SCT004 20/18 Q1024=
201005301830 METAR LPPR 301830Z 32010KT 9999 FEW008 20/18 Q1024=
201005301800 METAR LPPR 301800Z 32014KT 9999 FEW008 21/18 Q1025=
201005301730 METAR LPPR 301730Z 32014KT 9999 FEW009 21/18 Q1025=
201005301700 METAR LPPR 301700Z 32016KT 9999 FEW010 21/18 Q1025=
201005301630 METAR LPPR 301630Z 32014KT 9999 FEW020 22/18 Q1025=
201005301600 METAR LPPR 301600Z 32015KT 290V350 9999 FEW020 22/18 Q1025=
201005301530 METAR LPPR 301530Z 32016KT 9999 FEW020 22/18 Q1025=
201005301500 METAR LPPR 301500Z 32013KT 9999 FEW020 22/18 Q1025=
201005301430 METAR LPPR 301430Z 32015KT 9999 FEW020 22/17 Q1026=
201005301400 METAR LPPR 301400Z 32014KT 9999 FEW020 22/17 Q1026=
201005301330 METAR LPPR 301330Z 31010KT 260V340 9999 FEW020 23/18 Q1026=
201005301300 METAR LPPR 301300Z 33012KT 9999 FEW020 23/18 Q1026=
201005301230 METAR LPPR 301230Z 32010KT 9999 FEW020 23/18 Q1026=
201005301200 METAR LPPR 301200Z 31009KT CAVOK 23/18 Q1026=
201005301130 METAR LPPR 301130Z 30011KT 270V330 CAVOK 22/17 Q1026=
201005301100 METAR LPPR 301100Z 32011KT CAVOK 22/17 Q1026=
201005301030 METAR LPPR 301030Z 30009G23KT 260V330 CAVOK 21/17 Q1026=
201005301000 METAR LPPR 301000Z 30007KT 240V330 CAVOK 21/17 Q1026=
201005300930 METAR LPPR 300930Z 30006KT 250V330 CAVOK 21/16 Q1026=
201005300900 METAR LPPR 300900Z 35005KT 320V030 CAVOK 20/16 Q1027=
201005300830 METAR LPPR 300830Z 34006KT 320V020 CAVOK 20/15 Q1027=
201005300800 METAR LPPR 300800Z 34005KT 320V020 CAVOK 19/16 Q1027=
201005300730 METAR LPPR 300730Z 00000KT CAVOK 18/16 Q1026=
201005300700 METAR LPPR 300700Z 00000KT CAVOK 17/16 Q1026=
201005300630 METAR LPPR 300630Z 00000KT CAVOK 16/15 Q1026=
201005300600 METAR LPPR 300600Z 00000KT CAVOK 13/13 Q1026=
201005300530 METAR LPPR 300530Z 00000KT CAVOK 13/13 Q1026=
201005300500 METAR LPPR 300500Z 00000KT CAVOK 13/12 Q1026=
201005300430 METAR LPPR 300430Z 00000KT CAVOK 13/13 Q1026=
201005300400 METAR LPPR 300400Z 00000KT CAVOK 14/13 Q1026=
201005300330 METAR LPPR 300330Z 00000KT CAVOK 14/13 Q1026=
201005300300 METAR LPPR 300300Z 00000KT CAVOK 14/13 Q1026=
201005300230 METAR LPPR 300230Z 00000KT CAVOK 15/14 Q1026=
201005300200 METAR LPPR 300200Z 34003KT CAVOK 15/14 Q1026=
201005300130 METAR LPPR 300130Z 34004KT CAVOK 15/14 Q1026=
201005300100 METAR LPPR 300100Z 35005KT CAVOK 15/14 Q1026=
201005300030 METAR LPPR 300030Z 34003KT CAVOK 15/14 Q1026=
201005300000 METAR LPPR 300000Z 34004KT CAVOK 15/14 Q1026=
201005292330 METAR LPPR 292330Z VRB03KT CAVOK 16/15 Q1026=
201005292300 METAR LPPR 292300Z 35005KT CAVOK 16/15 Q1026=
201005292230 METAR LPPR 292230Z 33007KT CAVOK 17/15 Q1027=
201005292200 METAR LPPR 292200Z 33005KT CAVOK 16/15 Q1027=
201005292130 METAR LPPR 292130Z 33004KT CAVOK 17/14 Q1026=
201005292100 METAR LPPR 292100Z 33005KT CAVOK 17/14 Q1026=
201005292030 METAR LPPR 292030Z 33008KT CAVOK 18/15 Q1026=
201005292000 METAR LPPR 292000Z 32007KT 9999 SCT040 18/15 Q1026=
201005291930 METAR LPPR 291930Z 32008KT 9999 SCT040 19/15 Q1026=
201005291900 METAR LPPR 291900Z 31009KT 9999 FEW015 SCT040 20/15 Q1026=
201005291830 METAR LPPR 291830Z 32010KT 9999 FEW013 SCT025 19/16 Q1026=
201005291800 METAR LPPR 291800Z 33013KT 9999 FEW013 SCT020 20/15 Q1026=
201005291730 METAR LPPR 291730Z 33012KT 9999 FEW013 SCT020 21/16 Q1025=
201005291700 METAR LPPR 291700Z 32012KT 9999 FEW008 SCT015 21/16 Q1025=
201005291630 METAR LPPR 291630Z 30011KT 270V350 9999 FEW008 SCT015 20/16
                        Q1025=
201005291600 METAR LPPR 291600Z 30010KT 270V330 9999 FEW008 SCT015 21/17
                        Q1025=
201005291530 METAR LPPR 291530Z 30011KT 250V330 9999 FEW008 SCT015 21/17
                        Q1025=
201005291500 METAR LPPR 291500Z 28010KT 240V320 9999 FEW008 SCT015 21/17
                        Q1025=
201005291430 METAR LPPR 291430Z 24008KT 210V280 9999 SCT015 21/17 Q1025=
201005291400 METAR LPPR 291400Z 25006KT 190V320 9999 SCT015 21/17 Q1025=
201005291330 METAR LPPR 291330Z 25007KT 220V300 9999 SCT015 21/17 Q1025=
201005291300 METAR LPPR 291300Z 24008KT 180V270 9999 SCT015 21/16 Q1025=
201005291230 METAR LPPR 291230Z 25005KT 210V280 9999 SCT015 22/16 Q1025=
201005291200 METAR LPPR 291200Z 22006KT 180V250 9999 SCT015 SCT040 21/16
                        Q1025=
201005291130 METAR LPPR 291130Z 24004KT 180V270 9999 FEW015 SCT040 BKN070
                        21/16 Q1025=
201005291100 METAR LPPR 291100Z 22004KT 180V270 9999 FEW015 SCT030 BKN070
                        21/15 Q1025=
201005291030 METAR LPPR 291030Z 21004KT 160V240 9999 FEW015 SCT020 19/15
                        Q1025=
201005291000 METAR LPPR 291000Z 22004KT 170V260 9999 FEW015 BKN020 18/15
                        Q1025=
201005290930 METAR LPPR 290930Z VRB02KT 9999 FEW015 BKN020 19/14 Q1025=
201005290900 METAR LPPR 290900Z 15004KT 100V190 9999 FEW015 BKN020 18/14
                        Q1025=
201005290830 METAR LPPR 290830Z 13006KT 9999 FEW015 BKN020 17/13 Q1025=
201005290800 METAR LPPR 290800Z 13007KT 9999 FEW015 BKN030 17/14 Q1024=
201005290730 METAR LPPR 290730Z 12006KT 9999 FEW015 BKN030 16/14 Q1024=
201005290700 METAR LPPR 290700Z 12006KT 9999 FEW015 BKN030 16/13 Q1024=
201005290630 METAR LPPR 290630Z 12007KT 9999 FEW015 SCT030 BKN070 15/13
                        Q1024=
201005290600 METAR LPPR 290600Z 11007KT 9999 FEW015 SCT030 BKN070 15/13
                        Q1024=
201005290530 METAR LPPR 290530Z 12007KT 9999 FEW015 BKN030 15/13 Q1023=
201005290500 METAR LPPR 290500Z 11006KT 9999 FEW015 SCT030 BKN060 15/13
                        Q1023=
201005290430 METAR LPPR 290430Z 11006KT 9999 FEW015 SCT030 BKN060 14/13
                        Q1023=
201005290400 METAR LPPR 290400Z 11005KT CAVOK 14/13 Q1023=
201005290330 METAR LPPR 290330Z 11005KT CAVOK 14/13 Q1023=
201005290300 METAR LPPR 290300Z 11004KT CAVOK 14/13 Q1023=
201005290230 METAR LPPR 290230Z 11005KT CAVOK 14/13 Q1023=
201005290200 METAR LPPR 290200Z 00000KT CAVOK 13/12 Q1023=
201005290130 METAR LPPR 290130Z 00000KT CAVOK 13/12 Q1023=
201005290100 METAR LPPR 290100Z 00000KT CAVOK 13/12 Q1023=
201005290030 METAR LPPR 290030Z 00000KT CAVOK 13/12 Q1023=
201005290000 METAR LPPR 290000Z 00000KT CAVOK 14/12 Q1022=
201005282330 METAR LPPR 282330Z 00000KT 9999 FEW015 SCT200 14/12 Q1023=
201005282300 METAR LPPR 282300Z 00000KT 9999 FEW015 14/12 Q1023=
201005282230 METAR LPPR 282230Z 00000KT 9999 FEW015 SCT025 15/12 Q1022=
201005282200 METAR LPPR 282200Z 00000KT 9999 FEW015 SCT025 15/12 Q1023=
201005282130 METAR LPPR 282130Z 32004KT 260V360 9999 FEW015 SCT025 15/12
                        Q1022=
201005282100 METAR LPPR 282100Z 33003KT 9999 FEW015 SCT025 15/12 Q1022=
201005282030 METAR LPPR 282030Z 33004KT 9999 FEW015 SCT020 16/13 Q1022=
201005282000 METAR LPPR 282000Z 32008KT 290V360 9999 FEW015 SCT020 17/13
                        Q1022=
201005281930 METAR LPPR 281930Z 32009KT 9999 SCT017 17/13 Q1021=
201005281900 METAR LPPR 281900Z 31010KT 9999 SCT017 18/14 Q1021=
201005281830 METAR LPPR 281830Z 32012KT 9999 SCT017 18/14 Q1021=
201005281800 METAR LPPR 281800Z 31010KT 260V340 9999 SCT017 19/14 Q1021=
201005281730 METAR LPPR 281730Z 30012KT 9999 SCT017 19/14 Q1021=
201005281700 METAR LPPR 281700Z 31013KT 290V350 9999 SCT017 19/14 Q1021=
201005281630 METAR LPPR 281630Z 31012KT 280V340 9999 FEW003 SCT017 19/14
                        Q1020=
201005281600 METAR LPPR 281600Z 31012KT 9999 FEW008 19/15 Q1020=
201005281530 METAR LPPR 281530Z 30012KT 270V330 9999 FEW017 SCT250 20/14
                        Q1020=
201005281500 METAR LPPR 281500Z 30012KT 9999 FEW017 SCT250 20/14 Q1020=
201005281430 METAR LPPR 281430Z 30013KT 260V330 9999 FEW017 SCT250 20/14
                        Q1020=
201005281400 METAR LPPR 281400Z 31011KT 280V340 9999 FEW017 SCT250 20/14
                        Q1020=
201005281330 METAR LPPR 281330Z 31011KT 270V330 9999 FEW015 SCT250 20/12
                        Q1020=
201005281300 METAR LPPR 281300Z 32012KT 9999 FEW015 20/13 Q1020=
201005281230 METAR LPPR 281230Z 32011KT 9999 FEW015 20/13 Q1020=
201005281200 METAR LPPR 281200Z 30011KT 9999 FEW015 20/13 Q1020=
201005281130 METAR LPPR 281130Z 30011KT 270V340 9999 FEW015 20/13 Q1020=
201005281100 METAR LPPR 281100Z 31010KT 270V340 9999 FEW015 20/13 Q1020=
201005281030 METAR LPPR 281030Z 31009KT 270V350 9999 FEW012 19/14 Q1019=
201005281000 METAR LPPR 281000Z 31008KT 260V340 9999 FEW012 19/13 Q1019=
201005280930 METAR LPPR 280930Z 30008G18KT 260V350 9999 FEW012 19/13 Q1019=
201005280900 METAR LPPR 280900Z 31008KT 280V350 9999 FEW012 18/14 Q1019=
201005280830 METAR LPPR 280830Z 34006KT 300V020 9999 FEW012 18/13 Q1019=
201005280800 METAR LPPR 280800Z 35005KT 9999 FEW012 17/14 Q1018=
201005280730 METAR LPPR 280730Z 36005KT 320V020 CAVOK 17/14 Q1018=
201005280700 METAR LPPR 280700Z 36005KT 330V030 CAVOK 15/15 Q1018=
201005280630 METAR LPPR 280630Z 33003KT CAVOK 14/14 Q1018=
201005280600 METAR LPPR 280600Z 35004KT CAVOK 13/13 Q1018=
201005280530 METAR LPPR 280530Z VRB02KT 8000 SKC 13/13 Q1018=
201005280500 METAR LPPR 280500Z 00000KT 8000 SKC 13/12 Q1017=
201005280430 METAR LPPR 280430Z 00000KT CAVOK 13/13 Q1017=
201005280400 METAR LPPR 280400Z 00000KT CAVOK 13/13 Q1017=
201005280330 METAR LPPR 280330Z 34001KT 8000 FEW012 14/13 Q1017=
201005280300 METAR LPPR 280300Z 00000KT 8000 FEW012 14/13 Q1017=
201005280230 METAR LPPR 280230Z 00000KT 8000 FEW012 14/13 Q1017=
201005280200 METAR LPPR 280200Z 00000KT 8000 FEW012 14/13 Q1017=
201005280130 METAR LPPR 280130Z 00000KT 8000 FEW012 14/13 Q1017=
201005280100 METAR LPPR 280100Z 00000KT 8000 FEW012 14/13 Q1017=
201005280030 METAR LPPR 280030Z 00000KT 9999 FEW012 15/14 Q1017=
201005280000 METAR LPPR 280000Z 34003KT 9999 FEW012 15/14 Q1017=
201005272330 METAR LPPR 272330Z 32006KT 9999 FEW012 16/14 Q1017=
201005272300 METAR LPPR 272300Z 00000KT 9999 SCT012 16/14 Q1017=
201005272230 METAR LPPR 272230Z 31003KT 9999 SCT012 16/14 Q1017=
201005272200 METAR LPPR 272200Z 32004KT 290V350 9999 FEW012 16/14 Q1017=
201005272130 METAR LPPR 272130Z 33004KT 9999 SCT012 16/14 Q1016=
201005272100 METAR LPPR 272100Z 32005KT 9999 SCT015 17/14 Q1016=
201005272030 METAR LPPR 272030Z 32006KT 9999 SCT015 17/14 Q1016=
201005272000 METAR LPPR 272000Z 32006KT 9999 SCT015 17/14 Q1016=
201005271930 METAR LPPR 271930Z 32008KT 9999 SCT015 18/14 Q1016=
201005271900 METAR LPPR 271900Z 32009KT 9999 SCT015 18/14 Q1015=
201005271830 METAR LPPR 271830Z 32010KT 9999 SCT015 19/14 Q1015=
201005271800 METAR LPPR 271800Z 33011KT 280V360 9999 SCT015 SCT250 18/14
                        Q1015=
201005271730 METAR LPPR 271730Z 31010KT 280V340 9999 SCT015 SCT250 19/14
                        Q1015=
201005271700 METAR LPPR 271700Z 31009KT 270V350 9999 SCT015 SCT250 20/14
                        Q1015=
201005271630 METAR LPPR 271630Z 30011KT 260V330 9999 BKN015 SCT060 19/15
                        Q1015=
201005271600 METAR LPPR 271600Z 29008KT 250V340 9999 SCT015 FEW020TCU
                        BKN060 19/15 Q1015=
201005271530 METAR LPPR 271530Z 29008KT 250V330 9999 SCT015 BKN060 19/15
                        Q1015=
201005271500 METAR LPPR 271500Z 29007KT 250V320 9999 SCT015 SCT060 19/15
                        Q1015=
201005271430 METAR LPPR 271430Z 30009KT 260V010 9999 BKN015 BKN250 18/15
                        Q1015=
201005271400 METAR LPPR 271400Z 29010KT 250V010 9999 BKN015 BKN250 19/15
                        Q1015=
201005271330 METAR LPPR 271330Z 29009KT 250V320 9999 SCT015 BKN250 19/15
                        Q1015=
201005271300 METAR LPPR 271300Z 29010G21KT 230V330 9999 SCT015 SCT250
                        20/15 Q1015=
201005271230 METAR LPPR 271230Z 30009KT 260V320 9999 SCT015 SCT250 20/15
                        Q1015=
201005271200 METAR LPPR 271200Z 29009KT 260V330 9999 SCT015 SCT250 20/15
                        Q1015=
201005271130 METAR LPPR 271130Z 29008KT 260V330 9999 SCT015 SCT250 20/16
                        Q1015=
201005271100 METAR LPPR 271100Z 27007KT 230V330 9999 SCT015 SCT250 20/15
                        Q1014=
201005271030 METAR LPPR 271030Z 28006KT 230V320 9999 SCT015 SCT250 19/15
                        Q1014=
201005271000 METAR LPPR 271000Z VRB03KT 9999 SCT013 BKN060 20/15 Q1014=
201005270930 METAR LPPR 270930Z VRB02KT 9999 SCT013 BKN060 19/15 Q1014=
201005270900 METAR LPPR 270900Z 00000KT 9999 SCT013 BKN060 18/15 Q1014=
201005270830 METAR LPPR 270830Z VRB02KT 9999 SCT013 BKN060 18/15 Q1014=
201005270800 METAR LPPR 270800Z 00000KT 9999 FEW013 BKN065 18/15 Q1014=
201005270730 METAR LPPR 270730Z 00000KT 8000 FEW013 BKN065 17/15 Q1014=
201005270700 METAR LPPR 270700Z 00000KT 8000 FEW013 BKN065 17/16 Q1014=
201005270630 METAR LPPR 270630Z 00000KT 7000 FEW013 SCT060 15/15 Q1013=
201005270600 METAR LPPR 270600Z 00000KT 8000 FEW013 SCT070 14/14 Q1013=
201005270530 METAR LPPR 270530Z 00000KT 7000 FEW013 SCT200 14/14 Q1013=
201005270500 METAR LPPR 270500Z 00000KT 7000 FEW013 SCT070 14/14 Q1013=
201005270430 METAR LPPR 270430Z 00000KT 9999 FEW013 BKN070 15/14 Q1013=
201005270400 METAR LPPR 270400Z 00000KT 8000 SCT013 BKN060 15/14 Q1013=
201005270330 METAR LPPR 270330Z 00000KT 7000 SCT013 BKN060 15/14 Q1013=
201005270300 METAR LPPR 270300Z 00000KT 7000 SCT012 SCT060 BKN250 15/14
                        Q1013=
201005270230 METAR LPPR 270230Z 00000KT 6000 SCT009 SCT015 15/15 Q1013=
201005270200 METAR LPPR 270200Z 00000KT 8000 SCT009 SCT013 16/15 Q1013=
201005270130 METAR LPPR 270130Z 00000KT 9999 SCT008 SCT013 BKN060 16/15
                        Q1014=
201005270100 METAR LPPR 270100Z 00000KT 9999 SCT008 SCT012 BKN060 16/15
                        Q1014=
201005270030 METAR LPPR 270030Z 34001KT 9999 FEW009 SCT035 BKN060 16/14
                        Q1014=
201005270000 METAR LPPR 270000Z 00000KT 9999 FEW009 BKN060 16/15 Q1015=
201005262330 METAR LPPR 262330Z 00000KT 9999 FEW008 BKN070 17/15 Q1015=
201005262300 METAR LPPR 262300Z VRB01KT 9999 FEW008 SCT013 BKN070 17/16
                        Q1015=
201005262230 METAR LPPR 262230Z 00000KT 9999 FEW009 SCT013 BKN070 17/16
                        Q1015=
201005262200 METAR LPPR 262200Z 00000KT 9999 FEW009 SCT013 BKN070 17/15
                        Q1015=
201005262130 METAR LPPR 262130Z 00000KT 9999 SCT009 SCT013 BKN070 17/15
                        Q1015=
201005262100 METAR LPPR 262100Z VRB02KT 9999 FEW013 BKN070 17/15 Q1015=
201005262030 METAR LPPR 262030Z VRB03KT 9999 FEW012 BKN065 17/15 Q1015=
201005262000 METAR LPPR 262000Z VRB03KT 9999 SCT012 BKN065 17/15 Q1015=
201005261930 METAR LPPR 261930Z 22004KT 180V270 9999 SCT012 BKN070 18/15
                        Q1015=
201005261900 METAR LPPR 261900Z 24005KT 180V270 9999 FEW011 SCT020 BKN070
                        18/15 Q1015=
201005261830 METAR LPPR 261830Z 24005KT 200V270 9999 SCT011 SCT015 BKN070
                        18/15 Q1014=
201005261800 METAR LPPR 261800Z 22006KT 190V260 9999 SCT011 FEW020TCU
                        SCT070 18/15 Q1014=
201005261730 METAR LPPR 261730Z 22007KT 190V260 9999 BKN013 SCT070 19/15
                        Q1014=
201005261700 METAR LPPR 261700Z 23008KT 200V280 9999 SCT013 SCT070 20/15
                        Q1015=
201005261630 METAR LPPR 261630Z 23008KT 200V270 9999 SCT015 SCT070 20/15
                        Q1015=
201005261600 METAR LPPR 261600Z 23008KT 180V280 9999 SCT015 SCT070 20/14
                        Q1015=
201005261530 METAR LPPR 261530Z 24008KT 200V270 9999 SCT015 SCT040 20/14
                        Q1015=
201005261500 METAR LPPR 261500Z 24008KT 200V270 9999 SCT015 SCT040 20/14
                        Q1015=
201005261430 METAR LPPR 261430Z 24008KT 200V280 9999 BKN015 21/14 Q1015=
201005261400 METAR LPPR 261400Z 23008KT 200V270 9999 BKN015 20/15 Q1015=
201005261330 METAR LPPR 261330Z 24009KT 9999 BKN012 SCT025 20/12 Q1015=
201005261300 METAR LPPR 261300Z 23008KT 9999 BKN012 SCT025 19/15 Q1015=
201005261230 METAR LPPR 261230Z 20013KT 8000 -SHRA FEW008 BKN012 19/15
                        Q1015 WS ALL RWY=
201005261200 METAR LPPR 261200Z 20014KT 170V230 9999 BKN012 SCT017 19/15
                        Q1015=
201005261130 METAR LPPR 261130Z 19015KT 170V230 9999 BKN012 SCT017 20/15
                        Q1015=
201005261100 METAR LPPR 261100Z 20013KT 9999 BKN012 SCT017 20/16 Q1015=
201005261030 METAR LPPR 261030Z 18014KT 9999 BKN012 SCT017 20/15 Q1015=
201005261000 METAR LPPR 261000Z 19012KT 160V220 9999 BKN012 SCT017 18/16
                        Q1015=
201005260930 METAR LPPR 260930Z 19012KT 160V220 9999 BKN012 SCT017 18/15
                        Q1015=
201005260900 METAR LPPR 260900Z 18011KT 9999 SCT012 BKN017 17/15 Q1015=
201005260830 METAR LPPR 260830Z 19008KT 9999 SCT012 BKN017 17/15 Q1014=
201005260800 METAR LPPR 260800Z 18011KT 130V210 9999 FEW008 BKN015 17/15
                        Q1014=
201005260730 METAR LPPR 260730Z 18009KT 9999 FEW008 BKN015 16/15 Q1014=
201005260700 METAR LPPR 260700Z 18009KT 9999 FEW008 BKN013 BKN060 17/15
                        Q1014=
201005260630 METAR LPPR 260630Z 20008KT 9999 FEW012 SCT015 BKN050 16/15
                        Q1014=
201005260600 METAR LPPR 260600Z 00000KT 9999 FEW012 BKN015 16/15 Q1014=
201005260530 METAR LPPR 260530Z 22005KT 9999 SCT012 SCT030 16/14 Q1014=
201005260500 METAR LPPR 260500Z 22005KT 200V260 9999 SCT012 SCT030 16/15
                        Q1014=
201005260430 METAR LPPR 260430Z 22006KT 9999 SCT012 BKN025 16/15 Q1014=
201005260400 METAR LPPR 260400Z 22006KT 9999 SCT012 BKN040 16/15 Q1014=
201005260330 METAR LPPR 260330Z 21004KT 9999 FEW009 SCT012 16/15 Q1014=
201005260300 METAR LPPR 260300Z 20005KT 9999 SCT012 SCT040 16/15 Q1014=
201005260230 METAR LPPR 260230Z 22007KT 200V260 9999 SCT012 SCT040 16/15
                        Q1014=
201005260200 METAR LPPR 260200Z 22005KT 8000 FEW008 SCT012 BKN070 16/15
                        Q1014=
201005260130 METAR LPPR 260130Z 22007KT 8000 FEW008 SCT012 BKN070 16/15
                        Q1015=
201005260100 METAR LPPR 260100Z 22006KT 190V250 8000 FEW007 SCT012 BKN070
                        16/15 Q1015=
201005260030 METAR LPPR 260030Z 22006KT 190V250 8000 FEW006 SCT012 BKN070
                        16/16 Q1015=
201005260000 METAR LPPR 260000Z 22007KT 190V250 8000 FEW008 SCT012 BKN070
                        16/16 Q1015=
201005252330 METAR LPPR 252330Z 23007KT 9999 SCT008 SCT012 BKN070 16/16
                        Q1015=
201005252300 METAR LPPR 252300Z 22006KT 180V260 8000 SCT008 SCT012 BKN070
                        16/16 Q1015=
201005252230 METAR LPPR 252230Z 21006KT 170V260 8000 SCT004 SCT012 BKN080
                        16/16 Q1015=
201005252200 METAR LPPR 252200Z 22007KT 5000 -SHRA FEW009 SCT012 BKN080
                        17/15 Q1015=
201005252130 METAR LPPR 252130Z 23006KT 200V290 9999 SCT012 17/15 Q1015=
201005252100 METAR LPPR 252100Z 22011KT 9999 FEW009 SCT012 BKN080 17/16
                        Q1015=
201005252030 METAR LPPR 252030Z 22011KT 9999 FEW009 SCT012 BKN080 17/16
                        Q1015=
201005252000 METAR LPPR 252000Z 22010KT 9999 SCT012 BKN080 17/16 Q1015=
201005251930 METAR LPPR 251930Z 22010KT 190V270 9999 SCT012 BKN080 17/16
                        Q1015=
201005251900 METAR LPPR 251900Z 21013KT 9999 SCT012 BKN080 18/16 Q1015=
201005251830 METAR LPPR 251830Z 21012KT 9999 SCT012 BKN080 18/15 Q1015=
201005251800 METAR LPPR 251800Z 21012KT 190V250 9999 SCT012 BKN080 19/16
                        Q1015=
201005251730 METAR LPPR 251730Z 21014KT 180V240 9999 SCT012 BKN080 19/16
                        Q1014=
201005251700 METAR LPPR 251700Z 22013KT 9999 FEW009 SCT015 BKN080 19/16
                        Q1014=
201005251630 METAR LPPR 251630Z 22014KT 9999 FEW009 SCT015 BKN080 19/16
                        Q1014=
201005251600 METAR LPPR 251600Z 22016KT 9999 FEW009 SCT013 FEW020TCU 20/16
                        Q1014=
201005251530 METAR LPPR 251530Z 22012KT 180V250 9999 FEW009 SCT013 FEW020TCU
                        19/16 Q1014=
201005251500 METAR LPPR 251500Z 22014KT 180V240 9999 FEW009 SCT013 FEW020TCU
                        19/16 Q1014=
201005251430 METAR LPPR 251430Z 21013KT 180V240 9999 FEW009 SCT013 FEW020TCU
                        20/16 Q1014=
201005251400 METAR LPPR 251400Z 20017KT 180V240 9999 FEW009 SCT013 FEW020TCU
                        19/16 Q1014=
201005251330 METAR LPPR 251330Z 21013KT 9999 SCT012 FEW020TCU 20/16 Q1014=
201005251300 METAR LPPR 251300Z 21015KT 180V240 9999 -SHRA SCT012 FEW020TCU
                        BKN080 18/16 Q1014=
201005251230 METAR LPPR 251230Z 20016KT 9999 SCT012 FEW020TCU BKN080 19/16
                        Q1014=
201005251200 METAR LPPR 251200Z 20016KT 9999 SCT012 FEW020TCU BKN080 19/16
                        Q1014=
201005251130 METAR LPPR 251130Z 20016KT 9999 SCT012 FEW020TCU BKN080 19/16
                        Q1013=
201005251100 METAR LPPR 251100Z 20018G28KT 9999 FEW015 FEW025TCU BKN080
                        19/16 Q1013=
201005251030 METAR LPPR 251030Z 19017KT 9999 SCT013 FEW020TCU BKN080 20/16
                        Q1013=
201005251000 METAR LPPR 251000Z 20018KT 9999 SCT013 FEW020TCU BKN090 19/16
                        Q1013=
201005250930 METAR LPPR 250930Z 20017KT 9999 FEW009 BKN013 FEW020CB 18/16
                        Q1012=
201005250900 METAR LPPR 250900Z 20015KT 160V220 9999 FEW009 BKN015 FEW020CB
                        18/16 Q1012=
201005250830 METAR LPPR 250830Z 20014KT 9999 FEW009 BKN015 FEW020CB 18/16
                        Q1012=
201005250800 METAR LPPR 250800Z 19014KT 8000 FEW009 BKN015 FEW020CB 18/16
                        Q1012=
201005250730 METAR LPPR 250730Z 19016KT 160V220 8000 FEW009 SCT015 FEW020CB
                        17/16 Q1012=
201005250700 METAR LPPR 250700Z 19013KT 8000 SCT007 BKN013 FEW020CB 17/16
                        Q1011=
201005250630 METAR LPPR 250630Z 18016KT 7000 SCT006 BKN013 FEW020CB 17/16
                        Q1011=
201005250600 METAR LPPR 250600Z 18014KT 8000 SCT007 BKN013 FEW020CB 16/16
                        Q1011=
201005250530 METAR LPPR 250530Z 19012KT 150V220 6000 -SHRA SCT008 FEW015CB
                        BKN020 16/16 Q1011 RERA=
201005250500 METAR LPPR 250500Z 17011KT 2000 +SHRA BR SCT008 FEW015CB
                        BKN020 16/16 Q1011=
201005250430 METAR LPPR 250430Z 18012KT 160V230 5000 -RA BR BKN007 BKN015
                        16/15 Q1011=
201005250400 METAR LPPR 250400Z 18011KT 160V220 3000 +RA BR BKN008 BKN015
                        16/15 Q1011 WS ALL RWY=
201005250330 METAR LPPR 250330Z 16016KT 7000 -RA SCT009 BKN017 16/15 Q1011=
201005250300 METAR LPPR 250300Z 17015KT 8000 -SHRA SCT013 BKN020 16/15
                        Q1011=
201005250230 METAR LPPR 250230Z 16016KT 9999 SCT013 BKN020 17/15 Q1011=
201005250200 METAR LPPR 250200Z 16016KT 9999 SCT013 BKN020 17/15 Q1011=
201005250130 METAR LPPR 250130Z 16015KT 9999 FEW017 BKN020 17/15 Q1011=
201005250100 METAR LPPR 250100Z 16015KT 9999 FEW009 BKN017 16/15 Q1012=
201005250030 METAR LPPR 250030Z 15013KT 9999 SCT009 BKN023 17/16 Q1012=
201005250000 METAR LPPR 250000Z 18017KT 7000 RADZ BKN006 BKN025 17/16
                        Q1012 WS ALL RWY=
201005242330 METAR LPPR 242330Z 17013KT 9999 SCT008 OVC030 17/16 Q1012=
201005242300 METAR LPPR 242300Z 18014KT 5000 -RA BR FEW009 BKN030 BKN070
                        17/16 Q1013=
201005242230 METAR LPPR 242230Z 19014KT 9999 FEW015 SCT020 BKN070 18/16
                        Q1013=
201005242200 METAR LPPR 242200Z 18013KT 9999 -RA FEW015 SCT020 BKN070
                        18/16 Q1013=
201005242130 METAR LPPR 242130Z 19015KT 9999 FEW015 SCT020 BKN080 19/15
                        Q1012=
201005242100 METAR LPPR 242100Z 19018KT 9999 FEW015 SCT020 BKN100 19/14
                        Q1012 WS ALL RWY=
201005242030 METAR LPPR 242030Z 19015KT 9999 FEW020 BKN100 19/14 Q1012=
201005242000 METAR LPPR 242000Z 19015KT 9999 FEW030 SCT100 19/14 Q1012=
201005241930 METAR LPPR 241930Z 18013KT 9999 FEW017 SCT100 19/13 Q1012=
201005241900 METAR LPPR 241900Z 20014KT 9999 FEW017 SCT140 19/13 Q1011=
201005241830 METAR LPPR 241830Z 20011KT 170V230 9999 FEW017 SCT250 20/13
                        Q1011=
201005241800 METAR LPPR 241800Z 19014KT 9999 FEW017 SCT250 21/12 Q1011=
201005241730 METAR LPPR 241730Z 19011KT 160V230 9999 FEW017 SCT250 22/12
                        Q1011=
201005241700 METAR LPPR 241700Z 20011KT 170V230 9999 FEW017 22/12 Q1012=
201005241630 METAR LPPR 241630Z 20010KT 170V260 9999 FEW017 22/13 Q1012=
201005241600 METAR LPPR 241600Z 21012KT 180V240 9999 FEW017 22/13 Q1012=
201005241530 METAR LPPR 241530Z 23010KT 190V260 9999 FEW017 22/13 Q1012=
201005241500 METAR LPPR 241500Z 23012KT 9999 FEW017 22/14 Q1012=
201005241430 METAR LPPR 241430Z 22011KT 200V260 9999 FEW017 22/14 Q1012=
201005241400 METAR LPPR 241400Z 22010KT 180V260 9999 FEW017 22/14 Q1013=
201005241330 METAR LPPR 241330Z 22011KT 190V260 9999 FEW017 23/14 Q1013=
201005241300 METAR LPPR 241300Z 22011KT 190V250 9999 FEW017 22/14 Q1013=
201005241230 METAR LPPR 241230Z 22012KT 9999 FEW017 22/14 Q1013=
201005241200 METAR LPPR 241200Z 22012KT 9999 FEW017 SCT060 23/14 Q1013=
201005241130 METAR LPPR 241130Z 20010KT 180V260 9999 FEW017 BKN060 22/14
                        Q1013=
201005241100 METAR LPPR 241100Z 20010KT 180V250 9999 FEW017 BKN060 22/14
                        Q1014=
201005241030 METAR LPPR 241030Z 21007KT 180V250 9999 FEW017 SCT040 20/14
                        Q1014=
201005241000 METAR LPPR 241000Z 17010KT 120V210 9999 FEW017 BKN035 22/13
                        Q1013=
201005240930 METAR LPPR 240930Z 16009KT 130V200 9999 FEW017 SCT035 20/14
                        Q1013=
201005240900 METAR LPPR 240900Z 17010KT 9999 SCT017 BKN035 20/14 Q1014=
201005240830 METAR LPPR 240830Z 19014KT 9999 SCT017 BKN035 19/15 Q1014=
201005240800 METAR LPPR 240800Z 17010KT 9999 SCT017 BKN035 19/15 Q1014=
201005240730 METAR LPPR 240730Z 19009KT 9999 SCT017 BKN035 19/15 Q1014=
201005240700 METAR LPPR 240700Z 19007KT 9999 FEW017 BKN035 19/15 Q1014=
201005240630 METAR LPPR 240630Z 17008KT 9999 FEW017 SCT035 BKN250 18/15
                        Q1013=
201005240600 METAR LPPR 240600Z 18008KT 9999 SCT035 BKN250 18/15 Q1013=
201005240530 METAR LPPR 240530Z 18007KT 9999 BKN030 BKN060 18/15 Q1013=
201005240500 METAR LPPR 240500Z 19006KT 9999 BKN035 18/14 Q1013=
201005240430 METAR LPPR 240430Z 17006KT 9999 BKN030 18/15 Q1013=
201005240400 METAR LPPR 240400Z 18006KT 9999 FEW017 BKN025 19/15 Q1013=
201005240330 METAR LPPR 240330Z 17007KT 9999 FEW020 BKN027 19/15 Q1013=
201005240300 METAR LPPR 240300Z 18008KT 9999 FEW020 BKN027 19/15 Q1013=
201005240230 METAR LPPR 240230Z 18007KT 9999 FEW020 BKN027 19/15 Q1013=
201005240200 METAR LPPR 240200Z 18008KT 9999 FEW022 BKN035 BKN045 19/15
                        Q1013=
201005240130 METAR LPPR 240130Z 18007KT 9999 FEW025 SCT030 BKN040 19/15
                        Q1013=
201005240100 METAR LPPR 240100Z 18007KT 140V210 9999 FEW025 SCT030 BKN040
                        19/15 Q1013=
201005240030 METAR LPPR 240030Z 17007KT 9999 SCT025 BKN035 18/15 Q1013=
201005240000 METAR LPPR 240000Z 17008KT 9999 FEW025 BKN035 19/16 Q1013=
201005232330 METAR LPPR 232330Z 19006KT 9999 FEW020 SCT032 19/16 Q1014=
201005232300 METAR LPPR 232300Z 20006KT 9999 SCT032 19/16 Q1014=
201005232230 METAR LPPR 232230Z 18006KT 160V220 9999 FEW035 19/16 Q1014=
201005232200 METAR LPPR 232200Z 20005KT CAVOK 20/15 Q1014=
201005232130 METAR LPPR 232130Z 17004KT CAVOK 19/16 Q1014=
201005232100 METAR LPPR 232100Z 00000KT CAVOK 19/16 Q1014=
201005232030 METAR LPPR 232030Z 00000KT CAVOK 19/16 Q1013=
201005232000 METAR LPPR 232000Z 00000KT 9999 FEW020TCU 19/16 Q1013=
201005231930 METAR LPPR 231930Z 00000KT 9999 FEW020TCU 20/16 Q1013=
201005231900 METAR COR LPPR 231900Z 00000KT 9999 FEW020TCU 20/16 Q1013=
201005231830 METAR LPPR 231830Z 25004KT 190V280 9999 FEW020CB 22/17 Q1013=
201005231800 METAR LPPR 231800Z 25005KT 220V290 9999 FEW020CB 22/17 Q1013=
201005231730 METAR LPPR 231730Z 27005KT 230V300 9999 FEW020CB 23/16 Q1012=
201005231700 METAR LPPR 231700Z 28005KT 240V310 9999 FEW020CB 23/16 Q1013=
201005231630 METAR LPPR 231630Z 30006KT 260V340 9999 FEW020TCU 23/16 Q1012=
201005231600 METAR LPPR 231600Z 29007KT 250V320 9999 FEW020TCU 23/15 Q1012=
201005231530 METAR LPPR 231530Z 29008KT 260V330 9999 FEW020 24/15 Q1012=
201005231500 METAR LPPR 231500Z 29006KT 230V330 9999 FEW020TCU 25/14 Q1012=
201005231430 METAR LPPR 231430Z 28008KT 230V310 9999 FEW020TCU 24/14 Q1012=
201005231400 METAR LPPR 231400Z 26007KT 220V300 9999 FEW020TCU 25/14 Q1012=
201005231330 METAR LPPR 231330Z 24006KT 210V300 9999 FEW020TCU 25/14 Q1013=
201005231300 METAR LPPR 231300Z 24008KT 210V270 9999 FEW020TCU 24/14 Q1013=
201005231230 METAR LPPR 231230Z 24008KT 9999 FEW020TCU 25/14 Q1013=
201005231200 METAR LPPR 231200Z 23008KT 190V270 9999 FEW020TCU 25/14 Q1013=
201005231130 METAR LPPR 231130Z 22007KT 200V260 CAVOK 25/14 Q1013=
201005231100 METAR LPPR 231100Z 19009KT 170V230 CAVOK 25/13 Q1013=
201005231030 METAR LPPR 231030Z 19008KT 170V230 CAVOK 25/14 Q1013=
201005231000 METAR LPPR 231000Z 19009KT CAVOK 24/13 Q1013=
201005230930 METAR LPPR 230930Z 20008KT CAVOK 24/13 Q1013=
201005230900 METAR LPPR 230900Z 19009KT CAVOK 23/14 Q1013=
201005230830 METAR LPPR 230830Z 16005KT CAVOK 22/14 Q1013=
201005230800 METAR LPPR 230800Z 17006KT 140V210 CAVOK 21/14 Q1013=
201005230730 METAR LPPR 230730Z 17005KT 8000 FEW250 20/15 Q1013=
201005230700 METAR LPPR 230700Z 16005KT 8000 FEW250 19/15 Q1013=
201005230630 METAR LPPR 230630Z 16006KT 8000 FEW250 17/15 Q1013=
201005230600 METAR LPPR 230600Z 18003KT CAVOK 16/14 Q1013=
201005230530 METAR LPPR 230530Z 00000KT CAVOK 16/13 Q1012=
201005230500 METAR LPPR 230500Z 00000KT CAVOK 16/13 Q1012=
201005230430 METAR LPPR 230430Z 00000KT CAVOK 17/13 Q1012=
201005230400 METAR LPPR 230400Z 00000KT CAVOK 17/14 Q1012=
201005230330 METAR LPPR 230330Z 00000KT CAVOK 17/14 Q1012=
201005230300 METAR LPPR 230300Z 00000KT CAVOK 17/14 Q1012=
201005230230 METAR LPPR 230230Z 00000KT CAVOK 17/14 Q1012=
201005230200 METAR LPPR 230200Z 00000KT CAVOK 16/15 Q1012=
201005230130 METAR LPPR 230130Z 00000KT CAVOK 16/14 Q1012=
201005230100 METAR LPPR 230100Z 00000KT CAVOK 17/15 Q1013=
201005230030 METAR LPPR 230030Z 00000KT CAVOK 18/15 Q1013=
201005230000 METAR LPPR 230000Z 00000KT CAVOK 17/15 Q1013=
201005222330 METAR LPPR 222330Z 00000KT CAVOK 17/15 Q1013=
201005222300 METAR LPPR 222300Z 00000KT CAVOK 18/15 Q1014=
201005222230 METAR LPPR 222230Z 00000KT CAVOK 18/15 Q1014=
201005222200 METAR LPPR 222200Z 00000KT CAVOK 18/15 Q1014=
201005222130 METAR LPPR 222130Z 00000KT CAVOK 19/15 Q1014=
201005222100 METAR LPPR 222100Z 00000KT CAVOK 20/15 Q1014=
201005222030 METAR LPPR 222030Z 00000KT CAVOK 20/15 Q1014=
201005222000 METAR LPPR 222000Z 00000KT CAVOK 21/15 Q1014=
201005221930 METAR LPPR 221930Z 00000KT CAVOK 22/14 Q1014=
201005221900 METAR LPPR 221900Z VRB02KT CAVOK 24/13 Q1014=
201005221830 METAR LPPR 221830Z 00000KT CAVOK 24/13 Q1014=
201005221800 METAR LPPR 221800Z 00000KT CAVOK 25/13 Q1013=
201005221730 METAR LPPR 221730Z 29006KT 260V320 CAVOK 25/13 Q1014=
201005221700 METAR LPPR 221700Z 29006KT 240V340 CAVOK 25/13 Q1014=
201005221630 METAR LPPR 221630Z 28007KT 250V310 CAVOK 25/13 Q1014=
201005221600 METAR LPPR 221600Z 28005KT 210V320 CAVOK 25/14 Q1014=
201005221530 METAR LPPR 221530Z 28006KT 230V320 CAVOK 25/13 Q1014=
201005221500 METAR LPPR 221500Z 27007G18KT 240V340 CAVOK 26/12 Q1014=
201005221430 METAR LPPR 221430Z 27006KT 230V300 CAVOK 26/13 Q1014=
201005221400 METAR LPPR 221400Z 28004KT 230V310 CAVOK 27/14 Q1014=
201005221330 METAR LPPR 221330Z 24005KT 190V280 CAVOK 27/13 Q1014=
201005221300 METAR LPPR 221300Z 25006G16KT 190V280 CAVOK 27/14 Q1015=
201005221230 METAR LPPR 221230Z 24007KT 200V300 CAVOK 26/13 Q1015=
201005221200 METAR LPPR 221200Z 23010KT CAVOK 27/13 Q1015=
201005221130 METAR LPPR 221130Z 24011KT 210V270 CAVOK 29/13 Q1014=
201005221100 METAR LPPR 221100Z 00000KT CAVOK 32/12 Q1014=
201005221030 METAR LPPR 221030Z 12005KT 080V160 CAVOK 31/11 Q1014=
201005221000 METAR LPPR 221000Z 10007KT 060V140 CAVOK 30/11 Q1014=
201005220930 METAR LPPR 220930Z 11009KT CAVOK 28/11 Q1014=
201005220900 METAR LPPR 220900Z 10009KT 060V130 CAVOK 27/11 Q1014=
201005220830 METAR LPPR 220830Z 10008KT 070V130 CAVOK 27/10 Q1014=
201005220800 METAR LPPR 220800Z 10008KT 070V140 CAVOK 25/10 Q1014=
201005220730 METAR LPPR 220730Z 11009KT CAVOK 24/10 Q1014=
201005220700 METAR LPPR 220700Z 11008KT CAVOK 24/09 Q1014=
201005220630 METAR LPPR 220630Z 10010KT CAVOK 24/08 Q1014=
201005220600 METAR LPPR 220600Z 10008KT CAVOK 23/08 Q1014=
201005220530 METAR LPPR 220530Z 10008KT 070V130 CAVOK 23/09 Q1014=
201005220500 METAR LPPR 220500Z 10005KT 070V130 CAVOK 22/09 Q1014=
201005220430 METAR LPPR 220430Z 10005KT CAVOK 22/10 Q1014=
201005220400 METAR LPPR 220400Z 10006KT CAVOK 22/10 Q1014=
201005220330 METAR LPPR 220330Z 00000KT CAVOK 21/11 Q1014=
201005220300 METAR LPPR 220300Z 00000KT CAVOK 20/13 Q1014=
201005220230 METAR LPPR 220230Z 00000KT CAVOK 21/12 Q1014=
201005220200 METAR LPPR 220200Z 00000KT CAVOK 19/13 Q1014=
201005220130 METAR LPPR 220130Z 00000KT CAVOK 19/13 Q1014=
201005220100 METAR LPPR 220100Z 00000KT CAVOK 20/13 Q1014=
201005220030 METAR LPPR 220030Z 00000KT CAVOK 20/13 Q1014=
201005220000 METAR LPPR 220000Z 00000KT CAVOK 20/13 Q1014=
201005212330 METAR LPPR 212330Z 00000KT CAVOK 19/13 Q1015=
201005212300 METAR LPPR 212300Z 00000KT CAVOK 19/13 Q1015=
201005212230 METAR LPPR 212230Z 00000KT CAVOK 19/12 Q1015=
201005212200 METAR LPPR 212200Z 00000KT CAVOK 20/12 Q1015=
201005212130 METAR LPPR 212130Z 00000KT CAVOK 20/11 Q1015=
201005212100 METAR LPPR 212100Z 00000KT CAVOK 22/11 Q1015=
201005212030 METAR LPPR 212030Z 00000KT CAVOK 23/09 Q1015=
201005212000 METAR LPPR 212000Z 00000KT CAVOK 23/10 Q1015=
201005211930 METAR LPPR 211930Z 33006KT 290V350 CAVOK 25/10 Q1015=
201005211900 METAR LPPR 211900Z 33009KT CAVOK 27/09 Q1015=
201005211830 METAR LPPR 211830Z 33011KT CAVOK 28/09 Q1015=
201005211800 METAR LPPR 211800Z 35012KT CAVOK 29/09 Q1015=
201005211730 METAR LPPR 211730Z 33011KT CAVOK 29/10 Q1015=
201005211700 METAR LPPR 211700Z 32014KT CAVOK 29/09 Q1015=
201005211630 METAR LPPR 211630Z 32013KT CAVOK 30/09 Q1015=
201005211600 METAR LPPR 211600Z 31008KT 270V360 CAVOK 31/10 Q1015=
201005211530 METAR LPPR 211530Z 30009KT 250V330 CAVOK 31/10 Q1015=
201005211500 METAR LPPR 211500Z 31011KT CAVOK 31/10 Q1015=
201005211430 METAR LPPR 211430Z 25007G18KT 210V360 CAVOK 32/13 Q1015=
201005211400 METAR LPPR 211400Z 28009KT 230V330 CAVOK 31/12 Q1016=
201005211330 METAR LPPR 211330Z 13007KT 060V180 CAVOK 32/10 Q1016=
201005211300 METAR LPPR 211300Z 11006KT 050V160 CAVOK 32/11 Q1017=
201005211230 METAR LPPR 211230Z 11004KT 050V160 CAVOK 31/11 Q1017=
201005211200 METAR LPPR 211200Z 10006KT 040V160 CAVOK 31/11 Q1017=
201005211130 METAR LPPR 211130Z 09005KT 020V140 CAVOK 30/12 Q1017=
201005211100 METAR LPPR 211100Z 10007KT 060V140 CAVOK 30/11 Q1018=
201005211030 METAR LPPR 211030Z 08007KT 010V110 CAVOK 29/11 Q1018=
201005211000 METAR LPPR 211000Z 09006KT 030V140 CAVOK 28/11 Q1018=
201005210930 METAR LPPR 210930Z 10009KT CAVOK 27/10 Q1018=
201005210900 METAR LPPR 210900Z 11010KT CAVOK 26/10 Q1018=
201005210830 METAR LPPR 210830Z 11010KT CAVOK 25/09 Q1018=
201005210800 METAR LPPR 210800Z 10010KT CAVOK 24/09 Q1018=
201005210730 METAR LPPR 210730Z 11010KT CAVOK 23/09 Q1018=
201005210700 METAR LPPR 210700Z 11009KT CAVOK 23/08 Q1018=
201005210630 METAR LPPR 210630Z 10009KT 070V130 CAVOK 22/08 Q1018=
201005210600 METAR LPPR 210600Z 10010KT CAVOK 22/07 Q1018=
201005210530 METAR LPPR 210530Z 10008KT 070V130 CAVOK 21/07 Q1018=
201005210500 METAR LPPR 210500Z 10007KT 050V130 CAVOK 21/08 Q1018=
201005210430 METAR LPPR 210430Z 10005KT CAVOK 21/08 Q1018=
201005210400 METAR LPPR 210400Z 10005KT CAVOK 21/08 Q1018=
201005210330 METAR LPPR 210330Z 09003KT CAVOK 21/08 Q1018=
201005210300 METAR LPPR 210300Z 10004KT CAVOK 21/07 Q1018=
201005210230 METAR LPPR 210230Z VRB02KT CAVOK 22/07 Q1018=
201005210200 METAR LPPR 210200Z 00000KT CAVOK 22/07 Q1018=
201005210130 METAR LPPR 210130Z 10004KT CAVOK 21/08 Q1018=
201005210100 METAR LPPR 210100Z 00000KT CAVOK 20/08 Q1018=
201005210030 METAR LPPR 210030Z 00000KT CAVOK 22/10 Q1018=
201005210000 METAR LPPR 210000Z VRB02KT CAVOK 22/08 Q1018=
201005202330 METAR LPPR 202330Z 00000KT CAVOK 22/08 Q1019=
201005202300 METAR LPPR 202300Z 00000KT CAVOK 22/10 Q1019=
201005202230 METAR LPPR 202230Z 10003KT CAVOK 23/09 Q1019=
201005202200 METAR LPPR 202200Z 10003KT CAVOK 21/12 Q1018=
201005202130 METAR LPPR 202130Z 00000KT CAVOK 20/14 Q1018=
201005202100 METAR LPPR 202100Z 00000KT CAVOK 21/14 Q1018=
201005202030 METAR LPPR 202030Z 00000KT CAVOK 22/13 Q1018=
201005202000 METAR LPPR 202000Z 00000KT CAVOK 24/13 Q1018=
201005201930 METAR LPPR 201930Z 35004KT CAVOK 25/12 Q1018=
201005201900 METAR LPPR 201900Z 33008KT CAVOK 27/12 Q1018=
201005201830 METAR LPPR 201830Z 33006KT CAVOK 28/13 Q1018=
201005201800 METAR LPPR 201800Z 34007KT CAVOK 29/13 Q1018=
201005201730 METAR LPPR 201730Z 31006KT 280V340 CAVOK 29/13 Q1018=
201005201700 METAR LPPR 201700Z 30008KT CAVOK 29/13 Q1018=
201005201630 METAR LPPR 201630Z 28006KT 250V330 CAVOK 28/14 Q1018=
201005201600 METAR LPPR 201600Z 27008KT CAVOK 29/13 Q1018=
201005201530 METAR LPPR 201530Z 27007KT CAVOK 30/13 Q1019=
201005201500 METAR LPPR 201500Z 26005KT 220V290 CAVOK 30/13 Q1019=
201005201430 METAR LPPR 201430Z 26010KT CAVOK 29/12 Q1019=
201005201400 METAR LPPR 201400Z VRB01KT CAVOK 31/10 Q1020=
201005201330 METAR LPPR 201330Z 04004KT 320V110 CAVOK 31/11 Q1020=
201005201300 METAR LPPR 201300Z 08006KT 020V150 CAVOK 30/10 Q1020=
201005201230 METAR LPPR 201230Z 07007KT 030V130 CAVOK 30/09 Q1020=
201005201200 METAR LPPR 201200Z 06007KT 010V110 CAVOK 29/10 Q1021=
201005201130 METAR LPPR 201130Z 08008KT 050V130 CAVOK 28/09 Q1021=
201005201100 METAR LPPR 201100Z 08010KT 050V130 CAVOK 28/09 Q1021=
201005201030 METAR LPPR 201030Z 08007KT 040V120 CAVOK 27/09 Q1021=
201005201000 METAR LPPR 201000Z 09010KT 030V130 CAVOK 26/09 Q1021=
201005200930 METAR LPPR 200930Z 08010KT 030V120 CAVOK 25/09 Q1021=
201005200900 METAR LPPR 200900Z 09012KT 050V120 CAVOK 24/08 Q1022=
201005200830 METAR LPPR 200830Z 09010KT 020V120 CAVOK 24/08 Q1022=
201005200800 METAR LPPR 200800Z 07010KT 020V110 CAVOK 23/08 Q1022=
201005200730 METAR LPPR 200730Z 07009KT 030V100 CAVOK 23/08 Q1022=
201005200700 METAR LPPR 200700Z 07006KT 020V110 CAVOK 22/09 Q1022=
201005200630 METAR LPPR 200630Z 07006KT 040V110 CAVOK 21/09 Q1022=
201005200600 METAR LPPR 200600Z VRB01KT CAVOK 20/09 Q1022=
201005200530 METAR LPPR 200530Z 04004KT CAVOK 20/09 Q1022=
201005200500 METAR LPPR 200500Z 00000KT CAVOK 21/09 Q1021=
201005200430 METAR LPPR 200430Z 06004KT 010V100 CAVOK 22/10 Q1021=
201005200400 METAR LPPR 200400Z VRB02KT CAVOK 22/09 Q1021=
201005200330 METAR LPPR 200330Z 08006KT 030V120 CAVOK 23/10 Q1022=
201005200300 METAR LPPR 200300Z 07009KT 030V110 CAVOK 23/10 Q1021=
201005200230 METAR LPPR 200230Z 06004G14KT 350V090 CAVOK 23/10 Q1021 WS
                        ALL RWY=
201005200200 METAR LPPR 200200Z 00000KT CAVOK 23/10 Q1021=
201005200130 METAR LPPR 200130Z 00000KT CAVOK 23/10 Q1021=
201005200100 METAR LPPR 200100Z 00000KT CAVOK 23/11 Q1022=
201005200030 METAR LPPR 200030Z 00000KT CAVOK 23/11 Q1022=
201005200000 METAR LPPR 200000Z 00000KT CAVOK 23/11 Q1022=
201005192330 METAR LPPR 192330Z 00000KT CAVOK 22/13 Q1021=
201005192300 METAR LPPR 192300Z 00000KT CAVOK 22/13 Q1021=
201005192230 METAR LPPR 192230Z 00000KT CAVOK 20/14 Q1021=
201005192200 METAR LPPR 192200Z 00000KT CAVOK 20/13 Q1021=
201005192130 METAR LPPR 192130Z 00000KT CAVOK 21/14 Q1021=
201005192100 METAR LPPR 192100Z 00000KT CAVOK 21/14 Q1021=
201005192030 METAR LPPR 192030Z 00000KT CAVOK 22/13 Q1021=
201005192000 METAR LPPR 192000Z 00000KT CAVOK 23/12 Q1021=
201005191930 METAR LPPR 191930Z 34007KT CAVOK 25/12 Q1020=
201005191900 METAR LPPR 191900Z 34010KT CAVOK 26/12 Q1020=
201005191830 METAR LPPR 191830Z 34012KT CAVOK 27/10 Q1020=
201005191800 METAR LPPR 191800Z 34007KT CAVOK 28/10 Q1020=
201005191730 METAR LPPR 191730Z 34011KT CAVOK 28/09 Q1020=
201005191700 METAR LPPR 191700Z 33009KT 290V360 CAVOK 29/09 Q1021=
201005191630 METAR LPPR 191630Z 33009KT CAVOK 29/11 Q1021=
201005191600 METAR LPPR 191600Z 33012KT CAVOK 29/10 Q1021=
201005191530 METAR LPPR 191530Z 33010KT 290V360 CAVOK 29/12 Q1021=
201005191500 METAR LPPR 191500Z 32010KT CAVOK 29/12 Q1021=
201005191430 METAR LPPR 191430Z 31009KT 260V330 CAVOK 29/12 Q1021=
201005191400 METAR LPPR 191400Z 31008KT 240V340 CAVOK 30/11 Q1021=
201005191330 METAR LPPR 191330Z 29009KT 250V310 CAVOK 29/11 Q1022=
201005191300 METAR LPPR 191300Z VRB06G17KT CAVOK 30/12 Q1022=
201005191230 METAR LPPR 191230Z VRB03KT CAVOK 30/09 Q1022=
201005191200 METAR LPPR 191200Z 11006KT 080V150 CAVOK 30/09 Q1022=
201005191130 METAR LPPR 191130Z 07006KT 020V120 CAVOK 29/09 Q1022=
201005191100 METAR LPPR 191100Z 09005KT 030V150 CAVOK 29/10 Q1023=
201005191030 METAR LPPR 191030Z 07005KT 020V170 CAVOK 28/11 Q1023=
201005191000 METAR LPPR 191000Z 07007KT 020V100 CAVOK 27/11 Q1023=
201005190930 METAR LPPR 190930Z 10008KT 040V130 CAVOK 26/11 Q1023=
201005190900 METAR LPPR 190900Z 09009KT 050V130 CAVOK 25/10 Q1023=
201005190830 METAR LPPR 190830Z 08005KT 020V140 CAVOK 24/12 Q1023=
201005190800 METAR LPPR 190800Z 07005KT 010V120 CAVOK 23/11 Q1023=
201005190730 METAR LPPR 190730Z 00000KT CAVOK 22/11 Q1023=
201005190700 METAR LPPR 190700Z 00000KT CAVOK 21/12 Q1023=
201005190630 METAR LPPR 190630Z 00000KT CAVOK 17/13 Q1023=
201005190600 METAR LPPR 190600Z 00000KT CAVOK 15/13 Q1023=
201005190530 METAR LPPR 190530Z 00000KT CAVOK 15/12 Q1023=
201005190500 METAR LPPR 190500Z 00000KT CAVOK 15/12 Q1022=
201005190430 METAR LPPR 190430Z 00000KT CAVOK 15/12 Q1022=
201005190400 METAR LPPR 190400Z 00000KT CAVOK 15/13 Q1023=
201005190330 METAR LPPR 190330Z 00000KT CAVOK 14/13 Q1023=
201005190300 METAR LPPR 190300Z 00000KT CAVOK 14/13 Q1023=
201005190230 METAR LPPR 190230Z 00000KT CAVOK 14/13 Q1023=
201005190200 METAR LPPR 190200Z 00000KT CAVOK 14/13 Q1023=
201005190130 METAR LPPR 190130Z 00000KT CAVOK 15/13 Q1023=
201005190100 METAR LPPR 190100Z 00000KT CAVOK 16/13 Q1023=
201005190030 METAR LPPR 190030Z 00000KT CAVOK 15/14 Q1023=
201005190000 METAR LPPR 190000Z 00000KT CAVOK 15/14 Q1023=
201005182330 METAR LPPR 182330Z 00000KT CAVOK 15/14 Q1024=
201005182300 METAR LPPR 182300Z 00000KT CAVOK 16/14 Q1024=
201005182230 METAR LPPR 182230Z 00000KT CAVOK 16/14 Q1024=
201005182200 METAR LPPR 182200Z 00000KT CAVOK 16/14 Q1024=
201005182130 METAR LPPR 182130Z 00000KT CAVOK 16/14 Q1024=
201005182100 METAR LPPR 182100Z 31001KT CAVOK 17/13 Q1024=
201005182030 METAR LPPR 182030Z 33003KT CAVOK 17/13 Q1024=
201005182000 METAR LPPR 182000Z 32003KT CAVOK 18/13 Q1024=
201005181930 METAR LPPR 181930Z 31005KT CAVOK 20/14 Q1024=
201005181900 METAR LPPR 181900Z 32006KT CAVOK 20/14 Q1024=
201005181830 METAR LPPR 181830Z 32006KT CAVOK 21/13 Q1024=
201005181800 METAR LPPR 181800Z 32008KT CAVOK 21/13 Q1024=
201005181730 METAR LPPR 181730Z 32009KT CAVOK 22/13 Q1024=
201005181700 METAR LPPR 181700Z 31010KT 260V350 CAVOK 23/13 Q1024=
201005181630 METAR LPPR 181630Z 32011KT 280V350 CAVOK 25/12 Q1024=
201005181600 METAR LPPR 181600Z 32011KT 290V350 CAVOK 25/12 Q1024=
201005181530 METAR LPPR 181530Z 32010KT CAVOK 25/13 Q1024=
201005181500 METAR LPPR 181500Z 32011KT CAVOK 26/12 Q1024=
201005181430 METAR LPPR 181430Z 32013KT CAVOK 26/12 Q1025=
201005181400 METAR LPPR 181400Z 32012KT CAVOK 27/12 Q1025=
201005181330 METAR LPPR 181330Z 31009KT 280V340 CAVOK 27/12 Q1025=
201005181300 METAR LPPR 181300Z 31009KT CAVOK 26/13 Q1025=
201005181230 METAR LPPR 181230Z 30007KT 270V350 CAVOK 26/13 Q1025=
201005181200 METAR LPPR 181200Z 30008KT 270V330 CAVOK 26/14 Q1025=
201005181130 METAR LPPR 181130Z 30007KT 270V030 CAVOK 26/14 Q1025=
201005181100 METAR LPPR 181100Z 27005KT CAVOK 27/15 Q1025=
201005181030 METAR LPPR 181030Z VRB03KT CAVOK 27/12 Q1025=
201005181000 METAR LPPR 181000Z 12004KT 080V150 CAVOK 26/12 Q1025=
201005180930 METAR LPPR 180930Z 10006KT CAVOK 25/12 Q1025=
201005180900 METAR LPPR 180900Z 08004KT 040V110 CAVOK 24/12 Q1025=
201005180830 METAR LPPR 180830Z 00000KT CAVOK 21/14 Q1025=
201005180800 METAR LPPR 180800Z 00000KT CAVOK 20/13 Q1025=
201005180730 METAR LPPR 180730Z 00000KT CAVOK 19/12 Q1025=
201005180700 METAR LPPR 180700Z 00000KT CAVOK 17/12 Q1025=
201005180630 METAR LPPR 180630Z 00000KT CAVOK 15/11 Q1025=
201005180600 METAR LPPR 180600Z 00000KT CAVOK 15/10 Q1024=
201005180530 METAR LPPR 180530Z 00000KT CAVOK 14/10 Q1024=
201005180500 METAR LPPR 180500Z 09004KT CAVOK 14/10 Q1024=
201005180430 METAR LPPR 180430Z VRB01KT CAVOK 13/10 Q1024=
201005180400 METAR LPPR 180400Z VRB01KT CAVOK 12/09 Q1024=
201005180330 METAR LPPR 180330Z 00000KT CAVOK 12/09 Q1025=
201005180300 METAR LPPR 180300Z 00000KT CAVOK 13/09 Q1025=
201005180230 METAR LPPR 180230Z VRB03KT CAVOK 14/09 Q1024=
201005180200 METAR LPPR 180200Z 10003KT CAVOK 13/09 Q1024=
201005180130 METAR LPPR 180130Z 00000KT CAVOK 12/10 Q1025=
201005180100 METAR LPPR 180100Z 00000KT CAVOK 12/10 Q1025=
201005180030 METAR LPPR 180030Z 00000KT CAVOK 12/10 Q1025=
201005180000 METAR LPPR 180000Z 00000KT CAVOK 13/11 Q1025=
201005172330 METAR LPPR 172330Z 00000KT CAVOK 13/10 Q1025=
201005172300 METAR LPPR 172300Z 00000KT CAVOK 14/11 Q1025=
201005172230 METAR LPPR 172230Z 00000KT CAVOK 14/11 Q1025=
201005172200 METAR LPPR 172200Z 33003KT CAVOK 14/10 Q1025=
201005172130 METAR LPPR 172130Z 35003KT CAVOK 14/09 Q1025=
201005172100 METAR LPPR 172100Z 35005KT CAVOK 15/09 Q1025=
201005172030 METAR LPPR 172030Z 34007KT CAVOK 15/08 Q1025=
201005172000 METAR LPPR 172000Z 33005KT CAVOK 17/08 Q1024=
201005171930 METAR LPPR 171930Z 34006KT CAVOK 18/09 Q1024=
201005171900 METAR LPPR 171900Z 33009KT CAVOK 20/08 Q1024=
201005171830 METAR LPPR 171830Z 34008KT CAVOK 21/09 Q1024=
201005171800 METAR LPPR 171800Z 33009KT CAVOK 22/10 Q1024=
201005171730 METAR LPPR 171730Z 32008KT CAVOK 22/11 Q1024=
201005171700 METAR LPPR 171700Z 32009KT CAVOK 22/11 Q1024=
201005171630 METAR LPPR 171630Z 31010KT CAVOK 23/10 Q1024=
201005171600 METAR LPPR 171600Z 32009G19KT 290V010 CAVOK 23/10 Q1024=
201005171530 METAR LPPR 171530Z 31011KT 290V350 CAVOK 23/09 Q1024=
201005171500 METAR LPPR 171500Z 32012KT CAVOK 23/10 Q1025=
201005171430 METAR LPPR 171430Z 31011KT CAVOK 22/11 Q1025=
201005171400 METAR LPPR 171400Z 31010KT 270V340 CAVOK 22/11 Q1025=
201005171330 METAR LPPR 171330Z 31010KT CAVOK 22/11 Q1025=
201005171300 METAR LPPR 171300Z 31010KT 280V340 CAVOK 22/11 Q1025=
201005171230 METAR LPPR 171230Z 31010KT CAVOK 22/12 Q1025=
201005171200 METAR LPPR 171200Z 28007KT 250V320 CAVOK 23/13 Q1025=
201005171130 METAR LPPR 171130Z 27007KT 240V330 CAVOK 23/13 Q1025=
201005171100 METAR LPPR 171100Z 27005KT 240V300 CAVOK 23/14 Q1025=
201005171030 METAR LPPR 171030Z VRB02KT CAVOK 22/13 Q1025=
201005171000 METAR LPPR 171000Z 32004KT 280V350 CAVOK 21/14 Q1025=
201005170930 METAR LPPR 170930Z 32005KT 290V350 CAVOK 21/13 Q1025=
201005170900 METAR LPPR 170900Z VRB02KT CAVOK 19/13 Q1025=
201005170830 METAR LPPR 170830Z VRB03KT CAVOK 18/13 Q1025=
201005170800 METAR LPPR 170800Z 00000KT CAVOK 18/12 Q1025=
201005170730 METAR LPPR 170730Z 00000KT CAVOK 16/11 Q1025=
201005170700 METAR LPPR 170700Z 00000KT CAVOK 13/13 Q1025=
201005170630 METAR LPPR 170630Z 00000KT CAVOK 12/11 Q1024=
201005170600 METAR LPPR 170600Z 13003KT CAVOK 10/09 Q1024=
201005170530 METAR LPPR 170530Z 00000KT CAVOK 10/09 Q1024=
201005170500 METAR LPPR 170500Z 00000KT CAVOK 10/09 Q1024=
201005170430 METAR LPPR 170430Z 00000KT CAVOK 10/09 Q1024=
201005170400 METAR LPPR 170400Z 00000KT CAVOK 10/09 Q1024=
201005170330 METAR LPPR 170330Z 00000KT CAVOK 10/09 Q1024=
201005170300 METAR LPPR 170300Z 08001KT CAVOK 11/10 Q1024=
201005170230 METAR LPPR 170230Z VRB02KT CAVOK 11/10 Q1024=
201005170200 METAR LPPR 170200Z 00000KT CAVOK 11/10 Q1024=
201005170130 METAR LPPR 170130Z 13003KT CAVOK 11/11 Q1024=
201005170100 METAR LPPR 170100Z 00000KT CAVOK 11/10 Q1024=
201005170030 METAR LPPR 170030Z 00000KT CAVOK 11/10 Q1024=
201005170000 METAR LPPR 170000Z 00000KT CAVOK 11/10 Q1024=
201005162330 METAR LPPR 162330Z 00000KT CAVOK 12/10 Q1024=
201005162300 METAR LPPR 162300Z 00000KT CAVOK 12/11 Q1024=
201005162230 METAR LPPR 162230Z 00000KT CAVOK 13/11 Q1024=
201005162200 METAR LPPR 162200Z 11001KT CAVOK 13/11 Q1024=
201005162130 METAR LPPR 162130Z 01002KT CAVOK 13/11 Q1024=
201005162100 METAR LPPR 162100Z 36002KT CAVOK 13/11 Q1024=
201005162030 METAR LPPR 162030Z 35003KT CAVOK 13/11 Q1023=
201005162000 METAR LPPR 162000Z 34004KT CAVOK 14/11 Q1023=
201005161930 METAR LPPR 161930Z 33007KT CAVOK 16/11 Q1023=
201005161900 METAR LPPR 161900Z 33011KT CAVOK 17/11 Q1023=
201005161830 METAR LPPR 161830Z 33009KT CAVOK 18/11 Q1023=
201005161800 METAR LPPR 161800Z 33013KT CAVOK 18/11 Q1023=
201005161730 METAR LPPR 161730Z 32010KT CAVOK 18/11 Q1023=
201005161700 METAR LPPR 161700Z 31013KT CAVOK 18/11 Q1023=
201005161630 METAR LPPR 161630Z 32011KT CAVOK 19/11 Q1023=
201005161600 METAR LPPR 161600Z 33013KT 290V360 CAVOK 19/10 Q1023=
201005161530 METAR LPPR 161530Z 32012KT CAVOK 19/10 Q1023=
201005161500 METAR LPPR 161500Z 32013KT CAVOK 19/09 Q1024=
201005161430 METAR LPPR 161430Z 32012KT CAVOK 19/08 Q1024=
201005161400 METAR LPPR 161400Z 32012KT CAVOK 19/09 Q1024=
201005161330 METAR LPPR 161330Z 31013KT CAVOK 19/09 Q1024=
201005161300 METAR LPPR 161300Z 32012KT CAVOK 19/09 Q1024=
201005161230 METAR LPPR 161230Z 31011KT CAVOK 18/10 Q1024=
201005161200 METAR LPPR 161200Z 31010KT 270V330 CAVOK 18/09 Q1024=
201005161130 METAR LPPR 161130Z 31009KT CAVOK 18/10 Q1024=
201005161100 METAR LPPR 161100Z 31008KT 280V340 CAVOK 17/09 Q1024=
201005161030 METAR LPPR 161030Z 28008KT 240V330 CAVOK 17/10 Q1024=
201005161000 METAR LPPR 161000Z 33004KT 280V030 CAVOK 17/07 Q1024=
201005160930 METAR LPPR 160930Z VRB01KT CAVOK 16/08 Q1024=
201005160900 METAR LPPR 160900Z 00000KT CAVOK 16/07 Q1024=
201005160830 METAR LPPR 160830Z 00000KT CAVOK 15/07 Q1024=
201005160800 METAR LPPR 160800Z 00000KT CAVOK 13/09 Q1024=
201005160730 METAR LPPR 160730Z 34001KT CAVOK 11/09 Q1024=
201005160700 METAR LPPR 160700Z 00000KT CAVOK 10/09 Q1023=
201005160630 METAR LPPR 160630Z 00000KT CAVOK 08/07 Q1023=
201005160600 METAR LPPR 160600Z 00000KT CAVOK 07/06 Q1023=
201005160530 METAR LPPR 160530Z 00000KT CAVOK 06/05 Q1023=
201005160500 METAR LPPR 160500Z 00000KT CAVOK 07/05 Q1023=
201005160430 METAR LPPR 160430Z 00000KT CAVOK 07/06 Q1023=
201005160400 METAR LPPR 160400Z 00000KT CAVOK 07/06 Q1023=
201005160330 METAR LPPR 160330Z 00000KT CAVOK 07/06 Q1023=
201005160300 METAR LPPR 160300Z 00000KT CAVOK 08/06 Q1023=
201005160230 METAR LPPR 160230Z 00000KT CAVOK 08/06 Q1023=
201005160200 METAR LPPR 160200Z 00000KT CAVOK 08/07 Q1023=
201005160130 METAR LPPR 160130Z 00000KT CAVOK 09/07 Q1023=
201005160100 METAR LPPR 160100Z 00000KT CAVOK 09/07 Q1023=
201005160030 METAR LPPR 160030Z 00000KT CAVOK 09/07 Q1023=
201005160000 METAR LPPR 160000Z 00000KT CAVOK 09/08 Q1023=
201005152330 METAR LPPR 152330Z 00000KT CAVOK 09/08 Q1023=
201005152300 METAR LPPR 152300Z 00000KT CAVOK 10/08 Q1023=
201005152230 METAR LPPR 152230Z 00000KT CAVOK 11/08 Q1023=
201005152200 METAR LPPR 152200Z 00000KT CAVOK 11/09 Q1023=
201005152130 METAR LPPR 152130Z 33003KT CAVOK 11/08 Q1023=
201005152100 METAR LPPR 152100Z 33007KT CAVOK 12/09 Q1023=
201005152030 METAR LPPR 152030Z 33007KT CAVOK 13/09 Q1023=
201005152000 METAR LPPR 152000Z 34012KT CAVOK 13/09 Q1023=
201005151930 METAR LPPR 151930Z 33012KT CAVOK 14/09 Q1023=
201005151900 METAR LPPR 151900Z 33014KT CAVOK 15/09 Q1023=
201005151830 METAR LPPR 151830Z 33017KT CAVOK 15/09 Q1023=
201005151800 METAR LPPR 151800Z 33015KT CAVOK 16/08 Q1023=
201005151730 METAR LPPR 151730Z 32015KT CAVOK 16/09 Q1022=
201005151700 METAR LPPR 151700Z 32015KT CAVOK 16/08 Q1023=
201005151630 METAR LPPR 151630Z 32017KT CAVOK 16/09 Q1023=
201005151600 METAR LPPR 151600Z 32016KT 9999 FEW020 17/07 Q1023=
201005151530 METAR LPPR 151530Z 33017KT 9999 FEW020 17/06 Q1023=
201005151500 METAR LPPR 151500Z 32019KT 9999 FEW020 17/07 Q1023=
201005151430 METAR LPPR 151430Z 32019KT 9999 FEW020 SCT040 17/08 Q1023=
201005151400 METAR LPPR 151400Z 32017KT 9999 FEW017 SCT040 16/08 Q1023=
201005151330 METAR LPPR 151330Z 32019KT 9999 FEW017 SCT040 17/07 Q1023=
201005151300 METAR LPPR 151300Z 32016KT 9999 FEW017 SCT030 17/09 Q1023=
201005151230 METAR LPPR 151230Z 32015KT 290V350 9999 FEW017 SCT030 17/08
                        Q1023=
201005151200 METAR LPPR 151200Z 32015G34KT 9999 FEW017 SCT030 16/08 Q1023=
201005151130 METAR LPPR 151130Z 31014KT 9999 FEW017 SCT030 16/09 Q1023=
201005151100 METAR LPPR 151100Z 32011KT 280V350 9999 FEW017 SCT030 16/09
                        Q1023=
201005151030 METAR LPPR 151030Z 32014KT 9999 FEW017 SCT030 15/08 Q1023=
201005151000 METAR LPPR 151000Z 34008KT 310V020 9999 FEW017 SCT030 16/07
                        Q1023=
201005150930 METAR LPPR 150930Z 34011KT 300V010 9999 FEW017 15/06 Q1023=
201005150900 METAR LPPR 150900Z 02006KT 320V060 9999 FEW017 15/08 Q1023=
201005150830 METAR LPPR 150830Z 01006KT 330V040 9999 FEW017 14/08 Q1023=
201005150800 METAR LPPR 150800Z 36009KT 340V050 CAVOK 14/08 Q1023=
201005150730 METAR LPPR 150730Z 36006KT 320V040 CAVOK 13/08 Q1022=
201005150700 METAR LPPR 150700Z 01005KT CAVOK 12/09 Q1022=
201005150630 METAR LPPR 150630Z 00000KT CAVOK 11/09 Q1022=
201005150600 METAR LPPR 150600Z 00000KT 9999 FEW040 BKN060 11/08 Q1022=
201005150530 METAR LPPR 150530Z 00000KT 9999 SCT040 BKN060 10/08 Q1022=
201005150500 METAR LPPR 150500Z 00000KT 9999 SCT040 BKN060 10/08 Q1021=
201005150430 METAR LPPR 150430Z 00000KT 9999 SCT040 BKN060 10/09 Q1021=
201005150400 METAR LPPR 150400Z 00000KT 9999 SCT040 BKN060 10/08 Q1022=
201005150330 METAR LPPR 150330Z 00000KT CAVOK 10/08 Q1022=
201005150300 METAR LPPR 150300Z 02004KT CAVOK 11/08 Q1022=
201005150230 METAR LPPR 150230Z 02004KT 350V050 CAVOK 11/08 Q1022=
201005150200 METAR LPPR 150200Z 00000KT CAVOK 11/09 Q1022=
201005150100 METAR LPPR 150100Z VRB03KT CAVOK 10/08 Q1021=
201005150030 METAR LPPR 150030Z 35005KT CAVOK 11/09 Q1022=
201005150000 METAR LPPR 150000Z 34007KT CAVOK 11/09 Q1022=
201005142330 METAR LPPR 142330Z 35006KT 320V020 CAVOK 11/09 Q1021=
201005142300 METAR LPPR 142300Z 34005KT 9999 FEW022 SCT060 11/09 Q1021=
201005142230 METAR LPPR 142230Z 33010KT 9999 FEW022 12/09 Q1021=
201005142200 METAR LPPR 142200Z 34009KT 9999 FEW020 12/09 Q1021=
201005142130 METAR LPPR 142130Z 33008KT 9999 FEW017 SCT060 13/10 Q1021=
201005142100 METAR LPPR 142100Z 33013KT 9999 SCT015 13/10 Q1021=
201005142030 METAR LPPR 142030Z 34013KT 9999 SCT015 13/10 Q1020=
201005142000 METAR LPPR 142000Z 33012KT 9999 SCT015 14/11 Q1020=
201005141930 METAR LPPR 141930Z 33013KT 9999 BKN015 14/10 Q1020=
201005141900 METAR LPPR 141900Z 32011KT 290V350 9999 SCT015 BKN060 14/11
                        Q1020=
201005141830 METAR LPPR 141830Z 33015KT 290V350 9999 SCT020 BKN060 15/11
                        Q1019=
201005141800 METAR LPPR 141800Z 32014G24KT 9999 SCT015 BKN050 BKN060 16/10
                        Q1019=
201005141730 METAR LPPR 141730Z 32012KT 9999 SCT012 BKN048 15/12 Q1019=
201005141700 METAR LPPR 141700Z 32014KT 9999 SCT010 SCT040 BKN060 15/12
                        Q1019=
201005141630 METAR LPPR 141630Z 32013KT 290V350 9999 SCT015 SCT030 BKN060
                        15/12 Q1019=
201005141600 METAR LPPR 141600Z 32013KT 8000 -SHRA FEW009 SCT015 BKN022
                        14/13 Q1019=
201005141530 METAR LPPR 141530Z 29012KT 260V320 9999 FEW009 BKN015 BKN060
                        17/13 Q1019=
201005141500 METAR LPPR 141500Z 29010KT 260V330 9999 SCT015 SCT035 BKN060
                        16/12 Q1019=
201005141430 METAR LPPR 141430Z 30012KT 270V330 9999 SCT016 SCT027 BKN033
                        16/12 Q1019=
201005141400 METAR LPPR 141400Z 32015KT 270V340 9999 SCT010 BKN030 BKN060
                        16/13 Q1019=
201005141330 METAR LPPR 141330Z 30012KT 270V350 9999 SCT015 SCT021 BKN060
                        16/12 Q1018=
201005141300 METAR LPPR 141300Z 32012KT 280V340 9999 FEW007 SCT012 BKN030
                        16/11 Q1018=
201005141230 METAR LPPR 141230Z 26007KT 200V290 9999 FEW008 SCT012 BKN030
                        15/13 Q1018=
201005141200 METAR LPPR 141200Z 28006KT 240V310 9999 SCT012 BKN030 15/12
                        Q1018=
201005141130 METAR LPPR 141130Z VRB02KT 9999 SCT012 BKN025 15/12 Q1018=
201005141100 METAR LPPR 141100Z 18005KT 8000 FEW008 SCT012 BKN020 13/12
                        Q1018=
201005141030 METAR LPPR 141030Z 20006KT 7000 FEW005 BKN015 12/11 Q1018=
201005141000 METAR LPPR 141000Z 21007KT 180V240 3000 BR SCT009 BKN015
                        13/10 Q1018=
201005140930 METAR LPPR 140930Z 16006KT 9999 SCT012 BKN015 13/10 Q1018=
201005140900 METAR LPPR 140900Z 18007KT 8000 SCT012 BKN015 12/10 Q1018=
201005140830 METAR LPPR 140830Z 20004KT 170V250 8000 SCT014 BKN018 11/09
                        Q1018=
201005140800 METAR LPPR 140800Z VRB02KT 6000 SCT014 BKN018 12/07 Q1017=
201005140730 METAR LPPR 140730Z VRB02KT 9000 SCT018 BKN025 11/07 Q1017=
201005140700 METAR LPPR 140700Z 13005KT 9999 SCT025 BKN035 10/06 Q1017=
201005140630 METAR LPPR 140630Z 12002KT 9999 SCT030 BKN040 10/06 Q1017=
201005140600 METAR LPPR 140600Z 00000KT 9999 SCT030 BKN045 09/06 Q1017=
201005140530 METAR LPPR 140530Z 00000KT 9999 FEW030 SCT045 09/05 Q1017=
201005140500 METAR LPPR 140500Z 00000KT 9999 BKN045 09/06 Q1017=
201005140430 METAR LPPR 140430Z 00000KT 9999 BKN045 08/06 Q1017=
201005140400 METAR LPPR 140400Z 00000KT CAVOK 07/06 Q1017=
201005140330 METAR LPPR 140330Z 00000KT CAVOK 07/06 Q1017=
201005140300 METAR LPPR 140300Z 00000KT CAVOK 08/05 Q1017=
201005140230 METAR LPPR 140230Z 00000KT CAVOK 09/05 Q1017=
201005140200 METAR LPPR 140200Z 04004KT 020V080 CAVOK 09/06 Q1017=
201005140130 METAR LPPR 140130Z 00000KT CAVOK 09/06 Q1017=
201005140100 METAR LPPR 140100Z 36002KT CAVOK 09/06 Q1017=
201005140030 METAR LPPR 140030Z 35004KT CAVOK 09/06 Q1017=
201005140000 METAR LPPR 140000Z 35006KT CAVOK 10/06 Q1017=
201005132330 METAR LPPR 132330Z 35008KT CAVOK 11/07 Q1017=
201005132300 METAR LPPR 132300Z 35008KT CAVOK 11/07 Q1017=
201005132230 METAR LPPR 132230Z 35010KT CAVOK 12/07 Q1017=
201005132200 METAR LPPR 132200Z 35013KT CAVOK 12/07 Q1017=
201005132130 METAR LPPR 132130Z 34012KT CAVOK 12/07 Q1017=
201005132100 METAR LPPR 132100Z 34013KT CAVOK 12/08 Q1016=
201005132030 METAR LPPR 132030Z 34014KT CAVOK 12/08 Q1016=
201005132000 METAR LPPR 132000Z 33015KT 9999 FEW017 13/08 Q1016=
201005131930 METAR LPPR 131930Z 33017G27KT 9999 FEW017 13/08 Q1016 WS
                        ALL RWY=
201005131900 METAR LPPR 131900Z 33021KT 9999 FEW017 14/07 Q1015 WS ALL
                        RWY=
201005131830 METAR LPPR 131830Z 33021G31KT 9999 FEW017 14/07 Q1015 WS
                        ALL RWY=
201005131800 METAR LPPR 131800Z 33020G30KT 9999 FEW017 15/07 Q1015 WS
                        ALL RWY=
201005131730 METAR LPPR 131730Z 33023KT 9999 FEW017 15/07 Q1015 WS ALL
                        RWY=
201005131700 METAR LPPR 131700Z 33021KT 9999 FEW017 16/07 Q1015 WS ALL
                        RWY=
201005131630 METAR LPPR 131630Z 33021G31KT 290V350 9999 FEW017 16/06 Q1014
                        WS ALL RWY=
201005131600 METAR LPPR 131600Z 32020KT 290V350 9999 FEW017 16/08 Q1014=
201005131530 METAR LPPR 131530Z 32021KT 9999 FEW017 16/07 Q1014 WS ALL
                        RWY=
201005131500 METAR LPPR 131500Z 33021G32KT 9999 FEW017 16/08 Q1014 WS
                        ALL RWY=
201005131430 METAR LPPR 131430Z 32021G31KT 9999 FEW017 16/08 Q1014 WS
                        ALL RWY=
201005131400 METAR LPPR 131400Z 32020KT 9999 FEW017 17/07 Q1014 WS ALL
                        RWY=
201005131330 METAR LPPR 131330Z 32019KT 290V350 9999 FEW017 16/07 Q1014
                        WS ALL RWY=
201005131300 METAR LPPR 131300Z 32019KT 290V350 9999 FEW017 16/08 Q1014
                        WS ALL RWY=
201005131230 METAR LPPR 131230Z 31018KT 9999 FEW017 SCT030 16/08 Q1014=
201005131200 METAR LPPR 131200Z 32014KT 9999 FEW017 SCT030 16/08 Q1014=
201005131130 METAR LPPR 131130Z 33010KT 280V360 9999 FEW017 SCT030 17/09
                        Q1014=
201005131100 METAR LPPR 131100Z 35006KT 290V060 9999 BKN020 15/09 Q1014=
201005131030 METAR LPPR 131030Z 34006KT 290V030 9999 BKN017 15/09 Q1014=
201005131000 METAR LPPR 131000Z 02006KT 340V050 9999 BKN017 14/09 Q1014=
201005130930 METAR LPPR 130930Z 34004KT 290V040 9999 SCT017 14/09 Q1014=
201005130900 METAR LPPR 130900Z 03004KT 350V090 9999 FEW017 13/08 Q1014=
201005130830 METAR LPPR 130830Z 01004KT 320V050 9999 FEW020 13/08 Q1014=
201005130800 METAR LPPR 130800Z 00000KT CAVOK 12/08 Q1013=
201005130730 METAR LPPR 130730Z 00000KT CAVOK 11/08 Q1013=
201005130700 METAR LPPR 130700Z 00000KT CAVOK 11/09 Q1013=
201005130630 METAR LPPR 130630Z 00000KT CAVOK 09/08 Q1013=
201005130600 METAR LPPR 130600Z 00000KT 8000 FEW030 BKN090 09/08 Q1012=
201005130530 METAR LPPR 130530Z 00000KT 8000 FEW030 BKN080 09/08 Q1012=
201005130500 METAR LPPR 130500Z 00000KT 9999 FEW020 BKN090 09/08 Q1012=
201005130430 METAR LPPR 130430Z 00000KT 9999 FEW020 BKN090 10/09 Q1012=
201005130400 METAR LPPR 130400Z 00000KT 9999 FEW020 BKN090 10/09 Q1012=
201005130330 METAR LPPR 130330Z 00000KT 9999 FEW025 BKN090 10/09 Q1012=
201005130300 METAR LPPR 130300Z 00000KT 9999 FEW020 BKN090 10/09 Q1012=
201005130230 METAR LPPR 130230Z 00000KT 9999 FEW020 SCT090 10/08 Q1012=
201005130200 METAR LPPR 130200Z 00000KT 9999 FEW020 BKN080 10/09 Q1012=
201005130130 METAR LPPR 130130Z 00000KT 9999 FEW020 BKN070 10/10 Q1012=
201005130100 METAR LPPR 130100Z 00000KT 9999 FEW018 BKN045 11/10 Q1012=
201005130030 METAR LPPR 130030Z 34003KT 9999 FEW018 SCT040 BKN060 11/10
                        Q1012=
201005130000 METAR LPPR 130000Z 36003KT 9999 FEW018 SCT040 BKN060 11/10
                        Q1012=
201005122330 METAR LPPR 122330Z 34005KT 9999 FEW018 SCT040 BKN070 12/10
                        Q1012=
201005122300 METAR LPPR 122300Z 01002KT 9999 SCT018 SCT045 12/10 Q1012=
201005122230 METAR LPPR 122230Z 31002KT 9999 SCT015 BKN045 13/10 Q1012=
201005122200 METAR LPPR 122200Z 31006KT 280V340 9999 SCT017 SCT060 13/10
                        Q1012=
201005122130 METAR LPPR 122130Z 30006KT 9999 SCT017 FEW023CB BKN070 13/10
                        Q1012=
201005122100 METAR LPPR 122100Z 30006KT 250V330 9999 SCT017 FEW023CB BKN080
                        13/09 Q1012=
201005122030 METAR LPPR 122030Z 31007KT 9999 SCT017 FEW025CB SCT070 13/10
                        Q1012=
201005122000 METAR LPPR 122000Z 32010KT 9999 SCT016 FEW025CB SCT070 13/09
                        Q1012=
201005121930 METAR LPPR 121930Z 30008KT 9999 SCT016 BKN070 14/10 Q1012=
201005121900 METAR LPPR 121900Z 31009KT 270V330 9999 SCT017 FEW020CB SCT070
                        14/09 Q1012=
201005121830 METAR LPPR 121830Z 31010KT 280V340 9999 SCT017 FEW020CB SCT030
                        14/09 Q1012=
201005121800 METAR LPPR 121800Z 31011KT 260V330 9999 BKN017 FEW020TCU
                        SCT030 14/10 Q1012=
201005121730 METAR LPPR 121730Z 31013KT 9999 BKN017 FEW020CB SCT030 15/10
                        Q1012=
201005121700 METAR LPPR 121700Z 31012KT 270V330 9999 BKN017 FEW020CB SCT030
                        15/09 Q1012=
201005121630 METAR LPPR 121630Z 30013KT 270V330 9999 BKN017 SCT030 14/09
                        Q1012=
201005121600 METAR LPPR 121600Z 31013KT 270V340 9999 SCT017 SCT080 15/09
                        Q1012=
201005121530 METAR LPPR 121530Z 30012G22KT 270V340 9999 SCT017 SCT080
                        16/10 Q1012=
201005121500 METAR LPPR 121500Z 32014KT 9999 SCT017 15/10 Q1012=
201005121430 METAR LPPR 121430Z 31015KT 270V340 9999 SCT017 SCT080 15/10
                        Q1012=
201005121400 METAR LPPR 121400Z 32014KT 9999 SCT017 SCT080 15/10 Q1012=
201005121330 METAR LPPR 121330Z 28010KT 250V310 9999 SCT017 SCT070 16/11
                        Q1012=
201005121300 METAR LPPR 121300Z 31013KT 280V350 9999 SCT017 FEW020CB SCT070
                        15/10 Q1012=
201005121230 METAR LPPR 121230Z 31010KT 270V330 9999 FEW017 FEW020CB BKN070
                        15/10 Q1012=
201005121200 METAR LPPR 121200Z 32013KT 260V340 9999 FEW017 FEW020CB BKN070
                        15/10 Q1012=
201005121130 METAR LPPR 121130Z 32013KT 290V350 9999 FEW017 FEW020CB BKN070
                        15/09 Q1012=
201005121100 METAR LPPR 121100Z 30010KT 260V330 9999 FEW017 FEW020CB BKN070
                        15/10 Q1012=
201005121030 METAR LPPR 121030Z 31011KT 270V340 9999 FEW017 FEW020CB SCT070
                        15/09 Q1012=
201005121000 METAR LPPR 121000Z 31010KT 260V330 9999 FEW017 FEW020CB 15/08
                        Q1011=
201005120930 METAR LPPR 120930Z 30010KT 270V340 9999 FEW017 FEW020CB 14/08
                        Q1012=
201005120900 METAR LPPR 120900Z 32010KT 280V340 9999 FEW017 FEW020TCU
                        14/08 Q1011=
201005120830 METAR LPPR 120830Z 31007KT 270V340 9999 FEW017 FEW020TCU
                        SCT060 14/10 Q1011=
201005120800 METAR LPPR 120800Z 31004KT 260V340 9999 FEW017 FEW020TCU
                        SCT060 13/10 Q1011=
201005120730 METAR LPPR 120730Z VRB03KT 9999 FEW017 FEW020TCU BKN060 12/09
                        Q1011=
201005120700 METAR LPPR 120700Z VRB03KT 9999 FEW017 FEW020TCU SCT070 12/09
                        Q1011=
201005120630 METAR LPPR 120630Z 34002KT 9999 FEW017 FEW020TCU 10/09 Q1011=
201005120600 METAR LPPR 120600Z 35004KT 310V020 9999 FEW017 FEW020TCU
                        09/08 Q1010=
201005120530 METAR LPPR 120530Z VRB02KT 9999 FEW017 09/08 Q1010=
201005120500 METAR LPPR 120500Z 34005KT 9999 FEW017 10/08 Q1010=
201005120430 METAR LPPR 120430Z 33007KT 9999 FEW017 SCT070 11/08 Q1010=
201005120400 METAR LPPR 120400Z 33009KT 9999 FEW017 SCT070 11/08 Q1010=
201005120330 METAR LPPR 120330Z 33009KT 9999 FEW017 SCT070 11/09 Q1010=
201005120300 METAR LPPR 120300Z 33008KT 9999 FEW017 SCT070 12/09 Q1010=
201005120230 METAR LPPR 120230Z 33008KT 9999 FEW030 SCT070 12/09 Q1010=
201005120200 METAR LPPR 120200Z 33007KT 9999 FEW040 BKN070 12/09 Q1010=
201005120130 METAR LPPR 120130Z 33009KT 9999 SCT040 BKN070 12/09 Q1010=
201005120100 METAR LPPR 120100Z 33009KT 9999 SCT040 BKN070 13/09 Q1010=
201005120030 METAR LPPR 120030Z 33009KT 9999 SCT040 BKN070 13/09 Q1010=
201005120000 METAR LPPR 120000Z 33010KT 9999 SCT040 BKN070 13/09 Q1010=
201005112330 METAR LPPR 112330Z 33010KT 9999 BKN040 BKN060 13/09 Q1010=
201005112300 METAR LPPR 112300Z 34008KT 9999 FEW020 SCT040 BKN060 13/09
                        Q1010=
201005112230 METAR LPPR 112230Z 34010KT 9999 FEW020 SCT040 BKN060 13/10
                        Q1010=
201005112200 METAR LPPR 112200Z 33010KT 9999 FEW020 SCT040 BKN080 13/10
                        Q1010=
201005112130 METAR LPPR 112130Z 33010KT 9999 FEW020 SCT040 BKN080 13/10
                        Q1010=
201005112100 METAR LPPR 112100Z 33012KT 9999 FEW020 SCT030 BKN080 13/10
                        Q1010=
201005112030 METAR LPPR 112030Z 33013KT 9999 FEW020 SCT030 BKN080 14/10
                        Q1010=
201005112000 METAR LPPR 112000Z 33009KT 9999 FEW017 SCT040 BKN080 14/10
                        Q1009=
201005111930 METAR LPPR 111930Z 33012KT 9999 FEW017 SCT025 BKN080 14/10
                        Q1009=
201005111900 METAR LPPR 111900Z 32012KT 9999 FEW017 FEW023TCU BKN080 14/10
                        Q1009=
201005111830 METAR LPPR 111830Z 32011KT 280V350 9999 FEW017 FEW023TCU
                        16/10 Q1009=
201005111800 METAR LPPR 111800Z 32012KT 290V350 9999 FEW017 FEW023TCU
                        16/11 Q1009=
201005111730 METAR LPPR 111730Z 32012KT 9999 FEW017 FEW023TCU 17/10 Q1009=
201005111700 METAR LPPR 111700Z 32013KT 290V350 9999 FEW017 FEW023TCU
                        17/11 Q1009=
201005111630 METAR LPPR 111630Z 32013KT 9999 FEW017 FEW023CB 17/11 Q1009=
201005111600 METAR LPPR 111600Z 32013KT 9999 FEW017 FEW023CB 17/11 Q1008=
201005111530 METAR LPPR 111530Z 32014KT 9999 FEW017 FEW023CB 18/11 Q1009=
201005111500 METAR LPPR 111500Z 31013KT 280V340 9999 FEW017 FEW022CB 18/12
                        Q1009=
201005111430 METAR LPPR 111430Z 30011KT 270V330 9999 FEW017 FEW022CB SCT090
                        17/12 Q1009=
201005111400 METAR LPPR 111400Z 32012KT 290V350 9999 FEW015 FEW020CB SCT080
                        17/12 Q1009=
201005111330 METAR LPPR 111330Z 31010KT 270V330 9999 FEW010 FEW013TCU
                        SCT080 17/12 Q1009=
201005111300 METAR LPPR 111300Z 31010KT 270V340 9999 FEW010 FEW013TCU
                        SCT080 16/12 Q1009=
201005111230 METAR LPPR 111230Z 30008KT 270V330 9999 FEW010 FEW013TCU
                        SCT080 16/12 Q1009=
201005111200 METAR LPPR 111200Z 28008KT 250V320 9999 FEW010 SCT013TCU
                        BKN080 16/13 Q1009=
201005111130 METAR LPPR 111130Z 26006KT 230V310 9999 SCT012 FEW015TCU
                        BKN080 16/13 Q1009=
201005111100 METAR LPPR 111100Z 25005G15KT 190V350 9999 SCT012 FEW015TCU
                        BKN025 15/12 Q1009=
201005111030 METAR LPPR 111030Z VRB03KT 8000 SCT010 FEW015TCU BKN020 14/13
                        Q1009=
201005111000 METAR LPPR 111000Z VRB03KT 8000 SCT010 FEW015TCU BKN020 15/12
                        Q1009=
201005110930 METAR LPPR 110930Z VRB02KT 8000 -SHRA SCT010 FEW014TCU BKN019
                        15/13 Q1009=
201005110900 METAR LPPR 110900Z 36002KT 9999 SCT013 SCT018 BKN080 15/12
                        Q1009=
201005110830 METAR LPPR 110830Z 00000KT 9999 BKN013 BKN070 15/13 Q1008=
201005110800 METAR LPPR 110800Z 11002KT 9999 SCT015 BKN070 14/13 Q1008=
201005110730 METAR LPPR 110730Z 00000KT 6000 SCT015 BKN070 13/12 Q1008=
201005110700 METAR LPPR 110700Z 00000KT 5000 BR SCT015 BKN070 12/12 Q1008=
201005110630 METAR LPPR 110630Z 00000KT 5000 BR FEW015 BKN070 11/11 Q1008=
201005110600 METAR LPPR 110600Z 00000KT 5000 BR FEW015 BKN070 11/11 Q1008=
201005110530 METAR LPPR 110530Z 00000KT 4000 BR FEW015 BKN070 11/11 Q1008=
201005110500 METAR LPPR 110500Z 00000KT 5000 BR FEW015 BKN070 11/11 Q1008=
201005110430 METAR LPPR 110430Z 00000KT 5000 BR FEW015 BKN070 11/10 Q1008=
201005110400 METAR LPPR 110400Z 00000KT 5000 BR BKN070 10/10 Q1008=
201005110330 METAR LPPR 110330Z 00000KT 4000 BR SCT070 10/09 Q1008=
201005110300 METAR LPPR 110300Z 00000KT 4000 BR FEW015 10/09 Q1009=
201005110230 METAR LPPR 110230Z 00000KT 2000 R17/0650V1200N R35/P1500
                        BCFG FEW005 10/09 Q1008=
201005110200 METAR LPPR 110200Z 00000KT 2000 BR FEW012 10/10 Q1009=
201005110130 METAR LPPR 110130Z 00000KT 2000 BR FEW015 10/10 Q1009=
201005110100 METAR LPPR 110100Z 00000KT 9999 BR FEW015 11/10 Q1009=
201005110030 METAR LPPR 110030Z 00000KT 4000 BR FEW015 12/11 Q1009=
201005110000 METAR LPPR 110000Z 00000KT 9999 FEW015 BKN070 12/11 Q1009=
201005102330 METAR LPPR 102330Z 00000KT 9999 FEW015 SCT035 BKN070 13/12
                        Q1010=
201005102300 METAR LPPR 102300Z 00000KT 9999 FEW015 SCT035 BKN070 13/12
                        Q1010=
201005102230 METAR LPPR 102230Z 00000KT 9999 FEW015 BKN070 13/12 Q1009=
201005102200 METAR LPPR 102200Z 00000KT 9999 FEW015 BKN070 13/12 Q1009=
201005102130 METAR LPPR 102130Z 00000KT 9999 FEW015 BKN070 13/12 Q1009=
201005102100 METAR LPPR 102100Z VRB02KT 9999 FEW015 BKN070 14/12 Q1009=
201005102030 METAR LPPR 102030Z 00000KT 9999 FEW009 SCT012 BKN070 14/13
                        Q1009=
201005102000 METAR LPPR 102000Z 00000KT 9999 FEW009 SCT012 BKN070 14/12
                        Q1009=
201005101930 METAR LPPR 101930Z VRB03KT 9999 FEW008 SCT012 14/12 Q1009=
201005101900 METAR LPPR 101900Z 25007KT 210V290 9999 SCT012 SCT040 15/13
                        Q1009=
201005101830 METAR LPPR 101830Z 24005KT 210V270 9999 BKN012 15/12 Q1009=
201005101800 METAR LPPR 101800Z 24005KT 190V300 9999 SCT012 SCT045 15/12
                        Q1008=
201005101730 METAR LPPR 101730Z 24007KT 200V270 9999 SCT014 SCT045 16/13
                        Q1009=
201005101700 METAR LPPR 101700Z 23006KT 200V270 9999 SCT012 BKN040 15/13
                        Q1009=
201005101630 METAR LPPR 101630Z 25007KT 220V290 9999 SCT009 BKN040 15/13
                        Q1008=
201005101600 METAR LPPR 101600Z 24007KT 210V290 9999 FEW007 SCT013 BKN070
                        15/13 Q1008=
201005101530 METAR LPPR 101530Z 24006KT 210V280 9999 FEW007 SCT013 BKN035
                        14/13 Q1008=
201005101500 METAR LPPR 101500Z 23006KT 200V270 8000 -RA SCT007 BKN012
                        14/13 Q1008=
201005101430 METAR LPPR 101430Z 22007KT 190V250 8000 -RA SCT007 BKN012
                        14/13 Q1008=
201005101400 METAR LPPR 101400Z 22009KT 8000 -RA SCT007 SCT012 BKN020
                        14/13 Q1008=
201005101330 METAR LPPR 101330Z 18011KT 8000 -RA SCT007 SCT012 BKN020
                        13/12 Q1008=
201005101300 METAR LPPR 101300Z 20010KT 7000 -RA FEW005 SCT013 BKN020
                        13/12 Q1008=
201005101230 METAR LPPR 101230Z 22010KT 110V250 7000 -RA FEW007 SCT009
                        BKN015 13/12 Q1008=
201005101200 METAR LPPR 101200Z 23009KT 190V270 8000 -SHRA FEW008 SCT017
                        BKN030 14/12 Q1008=
201005101130 METAR LPPR 101130Z 22010KT 8000 -SHRA FEW009 BKN017 BKN025
                        14/11 Q1008=
201005101100 METAR LPPR 101100Z 23009KT 190V260 7000 -SHRA BKN017 BKN025
                        14/12 Q1008=
201005101030 METAR LPPR 101030Z 22010KT 200V260 8000 -SHRA SCT017 SCT025
                        BKN043 15/11 Q1008=
201005101000 METAR LPPR 101000Z 22012KT 9999 SCT018 BKN035 15/10 Q1008=
201005100930 METAR LPPR 100930Z 22009KT 190V270 9999 SCT018 BKN040 15/10
                        Q1007=
201005100900 METAR LPPR 100900Z 22009KT 9999 SCT020 BKN040 14/10 Q1007=
201005100830 METAR LPPR 100830Z 22010KT 200V270 9999 BKN020 BKN060 16/10
                        Q1007=
201005100800 METAR LPPR 100800Z 24009KT 210V270 9999 SCT020 SCT040 BKN070
                        15/10 Q1007=
201005100730 METAR LPPR 100730Z 24007KT 200V260 9999 SCT020 SCT040 BKN070
                        14/10 Q1007=
201005100700 METAR LPPR 100700Z 23007KT 190V260 9999 SCT020 SCT040 BKN070
                        14/09 Q1007=
201005100630 METAR LPPR 100630Z 23007KT 200V260 9999 SCT020 SCT040 BKN070
                        14/09 Q1007=
201005100600 METAR LPPR 100600Z 23006KT 200V270 9999 SCT020 SCT040 BKN070
                        14/09 Q1007=
201005100530 METAR LPPR 100530Z 23007KT 190V270 9999 SCT020 SCT040 BKN070
                        13/09 Q1007=
201005100500 METAR LPPR 100500Z 23006KT 200V260 9999 BKN020 SCT040 14/09
                        Q1007=
201005100430 METAR LPPR 100430Z 23006KT 200V270 9999 BKN020 SCT040 14/09
                        Q1007=
201005100400 METAR LPPR 100400Z 23006KT 200V280 9999 BKN020 SCT040 14/09
                        Q1007=
201005100330 METAR LPPR 100330Z 22007KT 190V260 9999 SCT025 SCT050 BKN070
                        14/09 Q1007=
201005100300 METAR LPPR 100300Z 23006KT 190V250 9999 SCT025 BKN060 13/09
                        Q1007=
201005100230 METAR LPPR 100230Z 24008KT 200V260 9999 FEW025 BKN060 13/09
                        Q1007=
201005100200 METAR LPPR 100200Z 23007KT 210V270 9999 SCT025 BKN070 13/09
                        Q1007=
201005100130 METAR LPPR 100130Z 23007KT 9999 SCT025 SCT070 13/09 Q1007=
201005100100 METAR LPPR 100100Z 23007KT 200V260 9999 FEW025 13/09 Q1008=
201005100030 METAR LPPR 100030Z 23007KT 200V270 9999 FEW023 13/09 Q1008=
201005100000 METAR LPPR 100000Z 22006KT 9999 FEW025 13/08 Q1008=
201005092330 METAR LPPR 092330Z 24007KT 200V290 9999 FEW027 SCT032 13/09
                        Q1008=
201005092300 METAR LPPR 092300Z 22008KT 190V250 9999 SCT030 SCT070 14/09
                        Q1008=
201005092230 METAR LPPR 092230Z 22007KT 9999 FEW026 SCT060 BKN070 14/10
                        Q1008=
201005092200 METAR LPPR 092200Z 23006KT 200V270 9999 SCT025 BKN060 13/09
                        Q1008=
201005092130 METAR LPPR 092130Z 23006KT 180V260 9999 SCT025 13/09 Q1008=
201005092100 METAR LPPR 092100Z 24005KT 9999 FEW020 13/10 Q1007=
201005092030 METAR LPPR 092030Z 26004KT 8000 -SHRA BKN023 FEW025CB 13/10
                        Q1007=
201005092000 METAR LPPR 092000Z 22008KT 4000W VCSH SCT023 FEW025CB SCT030
                        BKN070 14/09 Q1007=
201005091930 METAR LPPR 091930Z 23006KT 190V250 8000 FEW020 FEW025CB SCT060
                        14/09 Q1007=
201005091900 METAR LPPR 091900Z 23008KT 200V260 9999 SCT020 FEW025CB 15/09
                        Q1007=
201005091830 METAR LPPR 091830Z 24009KT 200V260 9999 SCT025 FEW030CB 15/09
                        Q1007=
201005091800 METAR LPPR 091800Z 24008KT 210V290 9999 SCT025 FEW030CB 16/09
                        Q1007=
201005091730 METAR LPPR 091730Z 24010KT 210V280 9999 FEW025 FEW030CB 16/09
                        Q1007=
201005091700 METAR LPPR 091700Z 24010KT 9999 FEW025 FEW030CB 16/09 Q1007=
201005091630 METAR LPPR 091630Z 26010KT 230V290 9999 SCT025 FEW030CB 17/10
                        Q1007=
201005091600 METAR LPPR 091600Z 25009KT 220V280 9999 SCT025 FEW030CB 16/10
                        Q1006=
201005091530 METAR LPPR 091530Z 25009KT 210V280 9999 SCT025 FEW030CB 17/10
                        Q1006=
201005091500 METAR LPPR 091500Z 24010KT 200V290 9999 SCT025 17/10 Q1006=
201005091430 METAR LPPR 091430Z 24010KT 210V270 9999 FEW025 17/10 Q1006=
201005091400 METAR LPPR 091400Z 28010KT 250V310 9999 SCT020 FEW025TCU
                        17/10 Q1006=
201005091330 METAR LPPR 091330Z 24010KT 200V280 9999 SCT020 FEW025TCU
                        17/10 Q1006=
201005091300 METAR LPPR 091300Z 25010KT 210V290 9999 SCT020 17/11 Q1005=
201005091230 METAR LPPR 091230Z 25009KT 150V290 9999 SCT020 17/10 Q1005=
201005091200 METAR LPPR 091200Z 24010KT 200V290 9999 SCT020 17/10 Q1005=
201005091130 METAR LPPR 091130Z 24011KT 9999 SCT020 16/09 Q1005=
201005091100 METAR LPPR 091100Z 24010KT 210V280 9999 SCT020 16/10 Q1004=
201005091030 METAR LPPR 091030Z 26008KT 230V290 9999 SCT020 SCT250 16/10
                        Q1004=
201005091000 METAR LPPR 091000Z 27007KT 230V300 9999 SCT020 SCT250 15/10
                        Q1004=
201005090930 METAR LPPR 090930Z 26006KT 230V310 9999 SCT020 FEW025 SCT035
                        14/10 Q1004=
201005090900 METAR LPPR 090900Z 27005KT 220V310 9999 SCT020 FEW025TCU
                        SCT035 15/11 Q1003=
201005090830 METAR LPPR 090830Z 28008KT 9999 SCT017 FEW025TCU BKN250 14/10
                        Q1003=
201005090800 METAR LPPR 090800Z 28007KT 250V330 9999 SCT015 FEW020TCU
                        14/10 Q1003=
201005090730 METAR LPPR 090730Z 28006KT 250V310 9999 SCT015 FEW020CB SCT035
                        14/10 Q1002=
201005090700 METAR LPPR 090700Z 28007KT 260V320 9999 SCT008 SCT015 FEW020CB
                        13/10 Q1002=
201005090630 METAR LPPR 090630Z 29006KT 250V320 9999 FEW008 BKN015 FEW020CB
                        13/10 Q1001=
201005090600 METAR LPPR 090600Z 29006KT 260V330 9999 SCT008 BKN015 FEW020CB
                        13/11 Q1001=
201005090530 METAR LPPR 090530Z 28006KT 250V310 9999 -SHRA SCT006 BKN015
                        FEW020CB 13/11 Q1000=
201005090500 METAR LPPR 090500Z 28007KT 260V330 9999 SCT008 SCT015 FEW020CB
                        13/12 Q1000=
201005090430 METAR LPPR 090430Z 30006KT 260V340 8000 -SHRA SCT006 SCT013
                        FEW020CB 13/12 Q0999=
201005090400 METAR LPPR 090400Z 30010KT 9999 SCT005 SCT015 FEW020CB 13/12
                        Q0998 RERA WS ALL RWY=
201005090330 METAR LPPR 090330Z 18026G40KT 150V210 4000 SHRA SCT009 SCT013
                        FEW017CB BKN030 15/14 Q0997 WS ALL
                        RWY=
201005090300 METAR LPPR 090300Z 18022KT 8000 SCT008 BKN009 15/15 Q0998
                        WS ALL RWY=
201005090230 METAR LPPR 090230Z 18021KT 9999 SCT009 BKN013 15/15 Q0998
                        WS ALL RWY=
201005090200 METAR LPPR 090200Z 18019KT 9000 -SHRA SCT009 BKN015 15/14
                        Q0998 WS ALL RWY=
201005090130 METAR LPPR 090130Z 18019KT 9999 BKN009 SCT013 15/14 Q0998=
201005090100 METAR LPPR 090100Z 18020KT 9000 SCT008 BKN009 15/14 Q0999
                        WS ALL RWY=
201005090030 METAR LPPR 090030Z 17014KT 9999 BKN009 SCT012 15/14 Q0999
                        WS ALL RWY=
201005090000 METAR LPPR 090000Z 17016KT 9999 BKN009 SCT012 FEW020CB 15/13
                        Q1000 WS ALL RWY=
201005082330 METAR LPPR 082330Z 17016KT 9999 FEW007 SCT012 FEW017CB 15/14
                        Q1000 WS ALL RWY=
201005082300 METAR LPPR 082300Z 18020KT 9999 TS SCT007 SCT012 FEW017CB
                        15/14 Q1000 WS ALL RWY=
201005082230 METAR LPPR 082230Z 18020KT 9999 FEW008 SCT012 FEW017CB BKN030
                        16/15 Q1000 WS ALL RWY=
201005082200 METAR LPPR 082200Z 18020KT 9999 FEW009 SCT012 FEW017CB BKN030
                        16/15 Q1001 WS ALL RWY=
201005082130 METAR LPPR 082130Z 18020KT 9999 SCT013 FEW020CB SCT030 16/15
                        Q1001=
201005082100 METAR LPPR 082100Z 18019KT 9999 FEW014 FEW020CB SCT030 16/15
                        Q1000 RERA WS ALL RWY=
201005082030 METAR LPPR 082030Z 18021G31KT 5000 SHRA SCT014 FEW020CB BKN030
                        16/14 Q1000 WS ALL RWY=
201005082000 METAR LPPR 082000Z 18019KT 9999 SCT017 BKN030 16/14 Q1000=
201005081930 METAR LPPR 081930Z 17017KT 9999 BKN017 FEW025CB 16/14 Q1000=
201005081900 METAR LPPR 081900Z 16018KT 9999 BKN017 SCT035 16/14 Q1001=
201005081830 METAR LPPR 081830Z 17016KT 9999 SCT015 SCT035 16/14 Q1001=
201005081800 METAR LPPR 081800Z 16019KT 9999 FEW008 SCT015 BKN025 16/14
                        Q1001=
201005081730 METAR LPPR 081730Z 14010KT 7000 -SHRA FEW008 SCT015 BKN025
                        15/14 Q1001=
201005081700 METAR LPPR 081700Z VRB02KT 8000 FEW008 SCT015 BKN020 14/13
                        Q1002=
201005081630 METAR LPPR 081630Z 10004KT 020V180 6000 -RA SCT006 SCT013
                        BKN020 14/13 Q1002 RERA=
201005081600 METAR LPPR 081600Z 07004KT 010V130 4000 RA BR SCT005 SCT008
                        BKN017 14/13 Q1002=
201005081530 METAR LPPR 081530Z 10005KT 050V140 5000 -RA BR SCT008 SCT017
                        BKN030 14/13 Q1003=
201005081500 METAR LPPR 081500Z 10004KT 070V140 5000 -RA BR SCT008 SCT017
                        BKN030 14/13 Q1003=
201005081430 METAR LPPR 081430Z 16005KT 6000 -RA SCT008 SCT017 BKN030
                        14/13 Q1004=
201005081400 METAR LPPR 081400Z 17010KT 6000 -RA SCT008 SCT017 BKN030
                        14/12 Q1005=
201005081330 METAR LPPR 081330Z 16008KT 120V190 7000 -RA FEW008 SCT015
                        BKN030 15/13 Q1005=
201005081300 METAR LPPR 081300Z 13007KT 090V160 8000 -RADZ FEW009 SCT015
                        BKN035 14/13 Q1005 RERA=
201005081230 METAR LPPR 081230Z 16010KT 120V180 7000 RADZ BR FEW009 SCT010
                        BKN020 14/13 Q1005=
201005081200 METAR LPPR 081200Z 13006KT 8000 -RADZ FEW009 SCT012 BKN020
                        14/13 Q1005=
201005081130 METAR LPPR 081130Z 13006KT 100V170 7000 -RADZ BR SCT007 SCT012
                        BKN030 14/13 Q1006=
201005081100 METAR COR LPPR 081100Z 12007KT 9999 SCT004 SCT007 BKN015
                        13/12 Q1006=
201005081030 METAR LPPR 081030Z 12005KT 3000 -RADZ BR SCT006 SCT008 BKN020
                        13/12 Q1006=
201005081000 METAR LPPR 081000Z 17008KT 3500 -RADZ BR SCT007 SCT015 BKN030
                        13/12 Q1007=
201005080930 METAR LPPR 080930Z 17010KT 3000 -RADZ BR SCT007 SCT013 BKN040
                        13/12 Q1007=
201005080900 METAR LPPR 080900Z 18008KT 9999 FEW012 SCT035 BKN050 13/11
                        Q1007=
201005080830 METAR LPPR 080830Z 18009KT 9999 FEW010 SCT030 SCT050 13/11
                        Q1006=
201005080800 METAR LPPR 080800Z 18011KT 8000 FEW007 SCT020 BKN050 13/12
                        Q1006=
201005080730 METAR LPPR 080730Z 16009KT 6000 -SHRA BR SCT006 SCT015 BKN030
                        13/12 Q1006=
201005080700 METAR LPPR 080700Z 17009KT 5000 -SHRA BR FEW007 SCT015 BKN020
                        13/12 Q1006=
201005080630 METAR LPPR 080630Z 12004KT 9999 SCT015 SCT020 12/11 Q1006=
201005080600 METAR LPPR 080600Z 16005KT 9999 FEW015 SCT020 11/10 Q1006=
201005080530 METAR LPPR 080530Z 17006KT 9999 FEW015 SCT020 11/10 Q1006=
201005080500 METAR LPPR 080500Z 16008KT 9999 FEW015 SCT020 12/10 Q1006=
201005080430 METAR LPPR 080430Z 18011KT 9999 SCT016 SCT030 BKN060 14/11
                        Q1006=
201005080400 METAR LPPR 080400Z 21003KT 9999 FEW017 SCT030 BKN070 14/11
                        Q1006=
201005080330 METAR LPPR 080330Z 21007KT 9999 FEW015 BKN060 14/11 Q1006=
201005080300 METAR LPPR 080300Z VRB03KT 9999 FEW015 SCT070 14/11 Q1007=
201005080230 METAR LPPR 080230Z 21004KT 9999 FEW015 SCT035 14/11 Q1007=
201005080200 METAR LPPR 080200Z VRB03KT 9999 FEW015 SCT030 14/11 Q1007=
201005080130 METAR LPPR 080130Z 00000KT 9999 FEW017 SCT035 14/11 Q1007=
201005080100 METAR LPPR 080100Z 00000KT 9999 FEW017 SCT035 14/11 Q1007=
201005080030 METAR LPPR 080030Z 00000KT 9999 FEW017 SCT050 14/12 Q1008=
201005080000 METAR LPPR 080000Z 00000KT 9999 FEW017 SCT050 14/12 Q1008=
201005072330 METAR LPPR 072330Z 00000KT 9999 FEW017 BKN050 14/12 Q1008=
201005072300 METAR LPPR 072300Z 00000KT 9999 FEW017 BKN050 14/12 Q1008=
201005072230 METAR LPPR 072230Z 00000KT 9999 FEW017 BKN050 14/11 Q1008=
201005072200 METAR LPPR 072200Z 00000G10KT 9999 FEW017 BKN050 14/12 Q1008=
201005072130 METAR LPPR 072130Z 00000KT 9999 FEW017 BKN050 14/11 Q1008=
201005072100 METAR LPPR 072100Z VRB02KT 9999 FEW017 BKN050 14/11 Q1008=
201005072030 METAR LPPR 072030Z VRB03KT 9999 FEW017 BKN050 14/12 Q1008=
201005072000 METAR LPPR 072000Z 27007KT 240V300 9999 SCT020 BKN050 14/11
                        Q1008=
201005071930 METAR LPPR 071930Z 28005KT 250V330 9999 SCT015 BKN050 15/11
                        Q1008=
201005071900 METAR LPPR 071900Z 28006G16KT 240V330 9999 FEW015 BKN045
                        15/11 Q1008=
201005071830 METAR LPPR 071830Z 28010KT 250V320 9999 SCT015 SCT045 16/11
                        Q1007=
201005071800 METAR LPPR 071800Z 26007KT 230V300 9999 SCT015 BKN040 16/13
                        Q1007=
201005071730 METAR LPPR 071730Z 28007KT 240V310 9999 SCT015 BKN040 15/12
                        Q1007=
201005071700 METAR LPPR 071700Z 27008KT 210V320 9999 BKN015 SCT040 17/13
                        Q1007=
201005071630 METAR LPPR 071630Z 30007KT 270V330 9999 FEW015 BKN040 16/12
                        Q1007=
201005071600 METAR LPPR 071600Z 29009KT 250V350 9999 FEW015 BKN040 16/11
                        Q1007=
201005071530 METAR LPPR 071530Z 31010KT 280V340 9999 FEW015 BKN040 16/11
                        Q1007=
201005071500 METAR LPPR 071500Z 31010G20KT 270V350 9999 SCT015 BKN040
                        16/12 Q1007=
201005071430 METAR LPPR 071430Z 30007KT 250V330 9999 SCT012 BKN040 16/13
                        Q1007=
201005071400 METAR LPPR 071400Z 29011KT 240V030 9999 SCT012 BKN040 17/13
                        Q1007=
201005071330 METAR LPPR 071330Z 29010KT 260V330 9999 FEW006 BKN012 17/14
                        Q1007=
201005071300 METAR LPPR 071300Z 25005KT 210V290 8000 -SHRA BKN005 SCT012
                        15/13 Q1008=
201005071230 METAR LPPR 071230Z 24005KT 170V290 6000 -DZ BKN005 BKN008
                        15/14 Q1008=
201005071200 METAR LPPR 071200Z 23005KT 190V270 9999 SCT006 SCT012 BKN020
                        15/14 Q1008=
201005071130 METAR LPPR 071130Z 24006KT 8000 BKN006 SCT012 15/13 Q1008=
201005071100 METAR LPPR 071100Z 22004KT 180V270 9999 SCT006 SCT012 BKN018
                        15/14 Q1008=
201005071030 METAR LPPR 071030Z 24005KT 6000 SCT006 SCT012 BKN018 15/13
                        Q1008=
201005071000 METAR LPPR 071000Z 00000KT 6000 SCT006 SCT012 BKN020 15/13
                        Q1008=
201005070930 METAR LPPR 070930Z VRB01KT 4000 BR BKN006 BKN009 14/13 Q1008=
201005070900 METAR LPPR 070900Z VRB03KT 6000 -SHRA FEW007 SCT012 BKN020
                        13/12 Q1008=
201005070830 METAR LPPR 070830Z 15004KT 110V170 6000 FEW007 SCT012 BKN015
                        12/12 Q1007=
201005070800 METAR LPPR 070800Z 00000KT 4000 -RA BR SCT007 SCT010 BKN015
                        12/11 Q1008=
201005070730 METAR LPPR 070730Z 00000KT 4000 -RA BR SCT005 SCT010 BKN015
                        13/11 Q1008=
201005070700 METAR LPPR 070700Z 00000KT 9999 SCT013 BKN020 13/10 Q1007=
201005070630 METAR LPPR 070630Z 00000KT 9999 SCT020 BKN033 BKN090 12/09
                        Q1007=
201005070600 METAR LPPR 070600Z 00000KT 9999 SCT030 BKN090 12/10 Q1007=
201005070530 METAR LPPR 070530Z 02001KT 9999 FEW027 BKN090 12/10 Q1007=
201005070500 METAR LPPR 070500Z 00000KT CAVOK 12/10 Q1007=
201005070430 METAR LPPR 070430Z 35005KT CAVOK 12/10 Q1007=
201005070400 METAR LPPR 070400Z 34005KT CAVOK 12/10 Q1008=
201005070330 METAR LPPR 070330Z 33010KT CAVOK 12/11 Q1008=
201005070300 METAR LPPR 070300Z 34007KT CAVOK 11/10 Q1008=
201005070230 METAR LPPR 070230Z 34005KT CAVOK 10/09 Q1008=
201005070200 METAR LPPR 070200Z 00000KT CAVOK 10/09 Q1008=
201005070130 METAR LPPR 070130Z 00000KT CAVOK 11/10 Q1008=
201005070100 METAR LPPR 070100Z 00000KT CAVOK 11/10 Q1008=
201005070030 METAR LPPR 070030Z 00000KT CAVOK 10/10 Q1008=
201005070000 METAR LPPR 070000Z 00000KT CAVOK 11/10 Q1008=
201005062330 METAR LPPR 062330Z 00000KT CAVOK 11/10 Q1008=
201005062300 METAR LPPR 062300Z 00000KT 9000 FEW250 11/10 Q1008=
201005062230 METAR LPPR 062230Z 00000KT 9000 FEW250 12/11 Q1008=
201005062200 METAR LPPR 062200Z 00000KT 8000 FEW250 12/11 Q1009=
201005062130 METAR LPPR 062130Z 00000KT 8000 FEW250 12/11 Q1009=
201005062100 METAR LPPR 062100Z 33002KT 8000 FEW250 13/11 Q1009=
201005062030 METAR LPPR 062030Z 00000KT 9000 FEW250 13/11 Q1009=
201005062000 METAR LPPR 062000Z 33005KT 8000 FEW250 14/11 Q1009=
201005061930 METAR LPPR 061930Z 34006KT 9000 FEW250 15/11 Q1008=
201005061900 METAR LPPR 061900Z 31008KT 270V360 CAVOK 16/11 Q1009=
201005061830 METAR LPPR 061830Z 33009KT 280V340 CAVOK 18/09 Q1008=
201005061800 METAR LPPR 061800Z 33010KT CAVOK 18/08 Q1008=
201005061730 METAR LPPR 061730Z 32012KT CAVOK 19/07 Q1009=
201005061700 METAR LPPR 061700Z 33012KT CAVOK 19/06 Q1009=
201005061630 METAR LPPR 061630Z 32013G23KT 300V010 CAVOK 19/05 Q1009=
201005061600 METAR LPPR 061600Z 32011KT CAVOK 19/06 Q1009=
201005061530 METAR LPPR 061530Z 32012KT 290V350 9999 FEW025 19/06 Q1009=
201005061500 METAR LPPR 061500Z 32012KT 290V350 9999 FEW025 19/07 Q1009=
201005061430 METAR LPPR 061430Z 31012KT 9999 FEW025 19/07 Q1009=
201005061400 METAR LPPR 061400Z 33013KT 9999 FEW025 19/07 Q1010=
201005061330 METAR LPPR 061330Z 32012KT 9999 FEW025 19/07 Q1010=
201005061300 METAR LPPR 061300Z 30012KT 280V350 9999 FEW025 19/09 Q1010=
201005061230 METAR LPPR 061230Z 32012KT 280V340 CAVOK 19/08 Q1010=
201005061200 METAR LPPR 061200Z 31011KT CAVOK 19/07 Q1010=
201005061130 METAR LPPR 061130Z 30006KT 250V040 CAVOK 19/07 Q1010=
201005061100 METAR LPPR 061100Z 04004KT 320V130 CAVOK 19/04 Q1011=
201005061030 METAR LPPR 061030Z 05004KT 340V120 CAVOK 19/04 Q1011=
201005061000 METAR LPPR 061000Z VRB02KT CAVOK 18/04 Q1011=
201005060930 METAR LPPR 060930Z 08006KT 040V140 CAVOK 17/04 Q1011=
201005060900 METAR LPPR 060900Z 07006KT 010V130 CAVOK 16/03 Q1011=
201005060830 METAR LPPR 060830Z 08004KT 030V130 CAVOK 14/04 Q1011=
201005060800 METAR LPPR 060800Z 08007KT 040V130 CAVOK 14/03 Q1011=
201005060730 METAR LPPR 060730Z 08005KT 040V140 CAVOK 14/04 Q1011=
201005060700 METAR LPPR 060700Z 07004KT 040V130 CAVOK 13/04 Q1011=
201005060630 METAR LPPR 060630Z 00000KT CAVOK 12/04 Q1011=
201005060600 METAR LPPR 060600Z 00000KT CAVOK 10/05 Q1011=
201005060530 METAR LPPR 060530Z 00000KT CAVOK 09/05 Q1011=
201005060500 METAR LPPR 060500Z 00000KT CAVOK 07/06 Q1011=
201005060430 METAR LPPR 060430Z 00000KT CAVOK 07/05 Q1011=
201005060400 METAR LPPR 060400Z 00000KT CAVOK 08/06 Q1011=
201005060330 METAR LPPR 060330Z 00000KT CAVOK 08/06 Q1011=
201005060300 METAR LPPR 060300Z 00000KT CAVOK 08/06 Q1011=
201005060230 METAR LPPR 060230Z 00000KT CAVOK 09/06 Q1011=
201005060200 METAR LPPR 060200Z 00000KT CAVOK 10/06 Q1011=
201005060130 METAR LPPR 060130Z 11003KT CAVOK 10/06 Q1011=
201005060100 METAR LPPR 060100Z 00000KT CAVOK 10/06 Q1011=
201005060030 METAR LPPR 060030Z 00000KT CAVOK 09/06 Q1012=
201005060000 METAR LPPR 060000Z 08002KT CAVOK 10/06 Q1012=
201005052330 METAR LPPR 052330Z 00000KT CAVOK 10/06 Q1012=
201005052300 METAR LPPR 052300Z 00000KT CAVOK 11/06 Q1012=
201005052230 METAR LPPR 052230Z 00000KT CAVOK 12/06 Q1012=
201005052200 METAR LPPR 052200Z 34003KT CAVOK 12/06 Q1012=
201005052130 METAR LPPR 052130Z 36003KT CAVOK 12/07 Q1012=
201005052100 METAR LPPR 052100Z 35002KT CAVOK 13/09 Q1012=
201005052030 METAR LPPR 052030Z 35003KT CAVOK 13/09 Q1012=
201005052000 METAR LPPR 052000Z 35003KT CAVOK 14/08 Q1012=
201005051930 METAR LPPR 051930Z 33006KT 280V360 CAVOK 16/08 Q1012=
201005051900 METAR LPPR 051900Z 32007KT 280V360 CAVOK 17/08 Q1012=
201005051830 METAR LPPR 051830Z 32007KT CAVOK 17/09 Q1012=
201005051800 METAR LPPR 051800Z 31010KT CAVOK 18/09 Q1012=
201005051730 METAR LPPR 051730Z 32010G20KT 270V350 CAVOK 19/08 Q1012=
201005051700 METAR LPPR 051700Z 32011KT 290V350 CAVOK 19/07 Q1013=
201005051630 METAR LPPR 051630Z 32010KT CAVOK 19/09 Q1013=
201005051600 METAR LPPR 051600Z 31011KT CAVOK 18/08 Q1014=
201005051530 METAR LPPR 051530Z 31012KT 270V330 CAVOK 18/07 Q1014=
201005051500 METAR LPPR 051500Z 32013KT CAVOK 18/06 Q1014=
201005051430 METAR LPPR 051430Z 30011KT 260V330 CAVOK 17/06 Q1015=
201005051400 METAR LPPR 051400Z 29011KT 260V330 CAVOK 17/07 Q1015=
201005051330 METAR LPPR 051330Z 30012KT 270V330 CAVOK 17/05 Q1015=
201005051300 METAR LPPR 051300Z 29010KT 260V330 CAVOK 17/06 Q1016=
201005051230 METAR LPPR 051230Z 01007KT 300V090 CAVOK 18/05 Q1016=
201005051200 METAR LPPR 051200Z VRB05KT CAVOK 17/M00 Q1016=
201005051130 METAR LPPR 051130Z 04007KT 360V090 CAVOK 17/02 Q1016=
201005051100 METAR LPPR 051100Z 03004KT 330V110 CAVOK 16/02 Q1017=
201005051030 METAR LPPR 051030Z 04005KT 340V130 CAVOK 15/02 Q1017=
201005051000 METAR LPPR 051000Z 03006KT 330V100 CAVOK 15/01 Q1017=
201005050930 METAR LPPR 050930Z 03008KT 350V100 CAVOK 14/01 Q1017=
201005050900 METAR LPPR 050900Z 03009KT 360V080 CAVOK 13/01 Q1017=
201005050830 METAR LPPR 050830Z 03009KT CAVOK 12/01 Q1018=
201005050800 METAR LPPR 050800Z 03008KT CAVOK 11/01 Q1018=
201005050730 METAR LPPR 050730Z 04007KT 360V060 CAVOK 10/01 Q1018=
201005050700 METAR LPPR 050700Z 03005KT CAVOK 09/00 Q1018=
201005050630 METAR LPPR 050630Z 03006KT CAVOK 08/00 Q1018=
201005050600 METAR LPPR 050600Z 02005KT CAVOK 06/01 Q1018=
201005050530 METAR LPPR 050530Z 00000KT CAVOK 07/01 Q1018=
201005050500 METAR LPPR 050500Z 01008KT CAVOK 07/01 Q1018=
201005050430 METAR LPPR 050430Z 36006KT CAVOK 06/01 Q1018=
201005050400 METAR LPPR 050400Z 00000KT CAVOK 07/01 Q1018=
201005050330 METAR LPPR 050330Z 36004KT CAVOK 06/01 Q1018=
201005050300 METAR LPPR 050300Z 01006KT CAVOK 07/01 Q1018=
201005050230 METAR LPPR 050230Z 36004KT CAVOK 07/01 Q1018=
201005050200 METAR LPPR 050200Z 02004KT CAVOK 08/01 Q1018=
201005050130 METAR LPPR 050130Z 02005KT 360V060 CAVOK 09/01 Q1018=
201005050100 METAR LPPR 050100Z 02005KT CAVOK 09/01 Q1018=
201005050030 METAR LPPR 050030Z 02006KT 350V050 CAVOK 09/00 Q1019=
201005050000 METAR LPPR 050000Z 02004KT CAVOK 10/M00 Q1019=
201005042330 METAR LPPR 042330Z 36004KT 320V040 CAVOK 10/M01 Q1019=
201005042300 METAR LPPR 042300Z 01008KT CAVOK 11/M01 Q1019=
201005042230 METAR LPPR 042230Z 01012KT CAVOK 11/M01 Q1019=
201005042200 METAR LPPR 042200Z 01009KT CAVOK 12/M01 Q1019=
201005042130 METAR LPPR 042130Z 01011KT 340V040 CAVOK 12/M01 Q1019=
201005042100 METAR LPPR 042100Z 01011KT 9999 FEW030 12/M00 Q1019=
201005042030 METAR LPPR 042030Z 01011KT 9999 FEW030 13/00 Q1018=
201005042000 METAR LPPR 042000Z 01012KT 9999 FEW030 14/01 Q1018=
201005041930 METAR LPPR 041930Z 36010KT 330V030 CAVOK 15/01 Q1018=
201005041900 METAR LPPR 041900Z 01012KT CAVOK 16/M01 Q1018=
201005041830 METAR LPPR 041830Z 01015KT 340V050 CAVOK 16/M00 Q1018=
201005041800 METAR LPPR 041800Z 01012KT 340V040 CAVOK 17/01 Q1018=
201005041730 METAR LPPR 041730Z 36016KT 330V030 CAVOK 17/01 Q1018=
201005041700 METAR LPPR 041700Z 36015KT 320V020 CAVOK 18/02 Q1018=
201005041630 METAR LPPR 041630Z 35017KT CAVOK 18/02 Q1018=
201005041600 METAR LPPR 041600Z 36015KT CAVOK 19/02 Q1018=
201005041530 METAR LPPR 041530Z 36014KT 320V050 9999 FEW030 19/02 Q1018=
201005041500 METAR LPPR 041500Z 36012KT 330V040 9999 FEW030 19/03 Q1018=
201005041430 METAR LPPR 041430Z 36015KT 330V030 9999 FEW030 18/02 Q1018=
201005041400 METAR LPPR 041400Z 01013KT 330V040 9999 FEW030 18/02 Q1019=
201005041330 METAR LPPR 041330Z 36013KT 330V030 9999 FEW030 18/02 Q1019=
201005041300 METAR LPPR 041300Z 35015KT 9999 FEW030 18/03 Q1019=
201005041230 METAR LPPR 041230Z 36014KT 330V040 9999 FEW030 17/03 Q1019=
201005041200 METAR LPPR 041200Z 01015KT 340V070 9999 FEW030 17/03 Q1020=
201005041130 METAR LPPR 041130Z 03013G23KT 340V070 9999 FEW030 16/03 Q1020=
201005041100 METAR LPPR 041100Z 36015G27KT 320V030 9999 FEW030 15/02 Q1020=
201005041030 METAR LPPR 041030Z 36014G24KT 330V050 9999 FEW025 15/03 Q1021
                        WS ALL RWY=
201005041000 METAR LPPR 041000Z 01012KT 330V050 9999 FEW025 14/03 Q1021
                        WS ALL RWY=
201005040930 METAR LPPR 040930Z 01015KT 330V060 9999 FEW025 13/03 Q1021
                        WS ALL RWY=
201005040900 METAR LPPR 040900Z 35013KT 9999 FEW025 13/03 Q1021=
201005040830 METAR LPPR 040830Z 36014KT 9999 FEW025 12/03 Q1021=
201005040800 METAR LPPR 040800Z 36012KT 330V040 9999 FEW025 11/04 Q1021=
201005040730 METAR LPPR 040730Z 35015KT 9999 FEW025 10/04 Q1021=
201005040700 METAR LPPR 040700Z VRB01KT CAVOK 09/03 Q1021=
201005040630 METAR LPPR 040630Z 34006KT CAVOK 08/03 Q1021=
201005040600 METAR LPPR 040600Z 34005KT 310V010 CAVOK 06/02 Q1021=
201005040530 METAR LPPR 040530Z 00000KT CAVOK 07/02 Q1021=
201005040500 METAR LPPR 040500Z 36005KT CAVOK 07/02 Q1021=
201005040430 METAR LPPR 040430Z 00000KT CAVOK 07/02 Q1021=
201005040400 METAR LPPR 040400Z 36006KT CAVOK 08/02 Q1021=
201005040330 METAR LPPR 040330Z 01006KT CAVOK 08/02 Q1021=
201005040300 METAR LPPR 040300Z 01005KT 340V060 CAVOK 08/02 Q1021=
201005040230 METAR LPPR 040230Z 36009KT CAVOK 09/02 Q1021=
201005040200 METAR LPPR 040200Z 01010KT CAVOK 09/01 Q1021=
201005040130 METAR LPPR 040130Z 02007KT 350V050 CAVOK 09/02 Q1021=
201005040100 METAR LPPR 040100Z 35009KT CAVOK 09/02 Q1021=
201005040030 METAR LPPR 040030Z 35010KT CAVOK 09/03 Q1021=
201005040000 METAR LPPR 040000Z 35010KT CAVOK 10/03 Q1021=
201005032330 METAR LPPR 032330Z 36007KT 330V070 CAVOK 10/03 Q1021=
201005032300 METAR LPPR 032300Z 01009KT 340V060 CAVOK 11/02 Q1021=
201005032230 METAR LPPR 032230Z 01008KT 340V050 CAVOK 11/02 Q1021=
201005032200 METAR LPPR 032200Z 36013KT CAVOK 12/02 Q1021=
201005032130 METAR LPPR 032130Z 36014KT 9999 FEW020 13/03 Q1021=
201005032100 METAR LPPR 032100Z 36011KT 9999 FEW020 13/03 Q1020=
201005032030 METAR LPPR 032030Z 36009KT 9999 FEW020 14/04 Q1020=
201005032000 METAR LPPR 032000Z 35009KT 9999 FEW020 14/04 Q1020=
201005031930 METAR LPPR 031930Z 35010KT 9999 FEW020 15/04 Q1019=
201005031900 METAR LPPR 031900Z 35012KT 320V020 9999 FEW020 16/04 Q1019=
201005031830 METAR LPPR 031830Z 33016KT 9999 FEW020 SCT040 16/06 Q1019=
201005031800 METAR LPPR 031800Z 34015KT 9999 FEW020 SCT040 17/06 Q1018
                        WS ALL RWY=
201005031730 METAR LPPR 031730Z 36014KT 330V030 9999 FEW020 SCT040 18/02
                        Q1018 WS ALL RWY=
201005031700 METAR LPPR 031700Z 35013KT 9999 FEW020 SCT040 18/04 Q1018
                        WS ALL RWY=
201005031630 METAR LPPR 031630Z 33018KT 9999 FEW020 SCT040 18/06 Q1018
                        WS ALL RWY=
201005031600 METAR LPPR 031600Z 36015G25KT 330V040 9999 SCT020 SCT040
                        19/03 Q1018 WS ALL RWY=
201005031530 METAR LPPR 031530Z 33019KT 9999 SCT020 SCT040 19/06 Q1018
                        WS ALL RWY=
201005031500 METAR LPPR 031500Z 33016KT 9999 SCT025 18/07 Q1018 WS ALL
                        RWY=
201005031430 METAR LPPR 031430Z 34013KT 300V030 9999 SCT020 19/08 Q1018
                        WS ALL RWY=
201005031400 METAR LPPR 031400Z 35015KT 330V050 9999 SCT020 19/04 Q1018
                        WS ALL RWY=
201005031330 METAR LPPR 031330Z 35013KT 310V040 9999 SCT020 19/06 Q1018
                        WS ALL RWY=
201005031300 METAR LPPR 031300Z 35015KT 9999 SCT020 19/05 Q1018 WS ALL
                        RWY=
201005031230 METAR LPPR 031230Z 35015KT 9999 SCT020 19/05 Q1019 WS ALL
                        RWY=
201005031200 METAR LPPR 031200Z 01016KT 340V040 9999 SCT020 18/04 Q1019
                        WS ALL RWY=
201005031130 METAR LPPR 031130Z 36014KT 320V020 9999 SCT020 17/05 Q1019=
201005031100 METAR LPPR 031100Z 36014KT 9999 FEW020 17/06 Q1019=
201005031030 METAR LPPR 031030Z 35012KT 320V020 9999 FEW020 17/06 Q1019=
201005031000 METAR LPPR 031000Z 35010KT 330V030 9999 FEW020 16/07 Q1019=
201005030930 METAR LPPR 030930Z 36009KT 330V060 9999 FEW020 16/07 Q1019=
201005030900 METAR LPPR 030900Z 02009KT 340V050 9999 FEW017 15/07 Q1019=
201005030830 METAR LPPR 030830Z 34012KT 300V010 9999 FEW017 14/07 Q1020=
201005030800 METAR LPPR 030800Z 35015KT 9999 FEW017 13/07 Q1019=
201005030730 METAR LPPR 030730Z 35015KT 9999 FEW017 12/06 Q1019=
201005030700 METAR LPPR 030700Z 35011KT 9999 FEW017 12/06 Q1019=
201005030630 METAR LPPR 030630Z 35011KT 9999 FEW017 11/06 Q1018=
201005030600 METAR LPPR 030600Z 34010KT 9999 FEW017 10/06 Q1018=
201005030530 METAR LPPR 030530Z 35010KT CAVOK 09/06 Q1018=
201005030500 METAR LPPR 030500Z 34007KT CAVOK 09/06 Q1018=
201005030430 METAR LPPR 030430Z 33008KT CAVOK 09/06 Q1018=
201005030400 METAR LPPR 030400Z 35006KT CAVOK 08/06 Q1018=
201005030330 METAR LPPR 030330Z 35009KT CAVOK 09/07 Q1018=
201005030300 METAR LPPR 030300Z 35005KT CAVOK 09/06 Q1018=
201005030230 METAR LPPR 030230Z 34006KT CAVOK 09/06 Q1018=
201005030200 METAR LPPR 030200Z 35005KT CAVOK 10/06 Q1018=
201005030130 METAR LPPR 030130Z VRB03KT CAVOK 10/07 Q1018=
201005030100 METAR LPPR 030100Z 36003KT CAVOK 10/07 Q1018=
201005030030 METAR LPPR 030030Z 36007KT CAVOK 12/06 Q1018=
201005030000 METAR LPPR 030000Z 35009KT CAVOK 11/06 Q1018=
201005022330 METAR LPPR 022330Z 35012KT CAVOK 12/06 Q1018=
201005022300 METAR LPPR 022300Z 35013KT CAVOK 12/07 Q1018=
201005022230 METAR LPPR 022230Z 34010KT CAVOK 12/08 Q1018=
201005022200 METAR LPPR 022200Z 34013KT CAVOK 12/08 Q1017=
201005022130 METAR LPPR 022130Z 34012KT CAVOK 13/08 Q1017=
201005022100 METAR LPPR 022100Z 34014KT CAVOK 13/08 Q1017=
201005022030 METAR LPPR 022030Z 34016KT CAVOK 14/09 Q1016=
201005022000 METAR LPPR 022000Z 34016KT CAVOK 14/09 Q1016=
201005021930 METAR LPPR 021930Z 33019KT CAVOK 14/09 Q1016=
201005021900 METAR LPPR 021900Z 33019KT CAVOK 15/09 Q1015 WS ALL RWY=
201005021830 METAR LPPR 021830Z 33020G31KT CAVOK 15/09 Q1015 WS ALL RWY=
201005021800 METAR LPPR 021800Z 33024KT CAVOK 16/09 Q1015 WS ALL RWY=
201005021730 METAR LPPR 021730Z 33024KT CAVOK 16/09 Q1015 WS ALL RWY=
201005021700 METAR LPPR 021700Z 33020KT CAVOK 17/09 Q1016 WS ALL RWY=
201005021630 METAR LPPR 021630Z 33020G31KT CAVOK 17/09 Q1016 WS ALL RWY=
201005021600 METAR LPPR 021600Z 33025KT 9999 FEW020 17/09 Q1016 WS ALL
                        RWY=
201005021530 METAR LPPR 021530Z 33021G33KT 9999 FEW020 18/09 Q1016 WS
                        ALL RWY=
201005021500 METAR LPPR 021500Z 32022G32KT 9999 FEW020 18/10 Q1016 WS
                        ALL RWY=
201005021430 METAR LPPR 021430Z 32022KT 9999 FEW020 18/09 Q1016 WS ALL
                        RWY=
201005021400 METAR LPPR 021400Z 32020KT 9999 FEW020 SCT025 18/10 Q1016
                        WS ALL RWY=
201005021330 METAR LPPR 021330Z 32021KT 9999 FEW020 SCT250 18/10 Q1016
                        WS ALL RWY=
201005021300 METAR LPPR 021300Z 32017KT 9999 FEW020 SCT250 18/11 Q1016=
201005021230 METAR LPPR 021230Z 31017KT 9999 FEW020 SCT250 18/10 Q1016=
201005021200 METAR LPPR 021200Z 32017KT 9999 FEW020 SCT250 18/10 Q1017=
201005021130 METAR LPPR 021130Z 32017KT 9999 FEW020 SCT250 18/11 Q1017=
201005021100 METAR LPPR 021100Z 31016KT 9999 FEW017 SCT250 17/11 Q1017=
201005021030 METAR LPPR 021030Z 35011KT 9999 FEW017 BKN250 18/10 Q1017=
201005021000 METAR LPPR 021000Z 34011KT 310V010 9999 FEW017 BKN250 17/10
                        Q1017=
201005020930 METAR LPPR 020930Z 35010KT 9999 FEW017 SCT250 17/10 Q1017=
201005020900 METAR LPPR 020900Z 35010KT CAVOK 16/11 Q1017=
201005020830 METAR LPPR 020830Z 35007KT 320V020 CAVOK 15/11 Q1017=
201005020800 METAR LPPR 020800Z 01005KT 330V030 CAVOK 14/10 Q1017=
201005020730 METAR LPPR 020730Z 36005KT 330V030 CAVOK 13/10 Q1017=
201005020700 METAR LPPR 020700Z 01004KT CAVOK 13/11 Q1017=
201005020630 METAR LPPR 020630Z VRB03KT CAVOK 11/10 Q1017=
201005020600 METAR LPPR 020600Z 35003KT 9999 FEW047 10/09 Q1017=
201005020530 METAR LPPR 020530Z 02003KT 9999 FEW030 BKN045 10/09 Q1016=
201005020500 METAR LPPR 020500Z 02003KT 9999 SCT040 10/09 Q1016=
201005020430 METAR LPPR 020430Z 00000KT 9999 SCT040 10/09 Q1016=
201005020400 METAR LPPR 020400Z 00000KT CAVOK 10/09 Q1016=
201005020330 METAR LPPR 020330Z 00000KT CAVOK 10/09 Q1016=
201005020300 METAR LPPR 020300Z 33002KT CAVOK 11/10 Q1016=
201005020230 METAR LPPR 020230Z 35001KT CAVOK 11/10 Q1016=
201005020200 METAR LPPR 020200Z 00000KT CAVOK 12/10 Q1016=
201005020130 METAR LPPR 020130Z 36004KT CAVOK 12/11 Q1016=
201005020100 METAR LPPR 020100Z 34008KT CAVOK 13/12 Q1016=
201005020030 METAR LPPR 020030Z 33006KT CAVOK 13/12 Q1016=
201005020000 METAR LPPR 020000Z 34007KT CAVOK 13/12 Q1017=
201005012330 METAR LPPR 012330Z 33005KT CAVOK 13/12 Q1017=
201005012300 METAR LPPR 012300Z 33004KT CAVOK 14/12 Q1017=
201005012230 METAR LPPR 012230Z 33006KT CAVOK 14/13 Q1017=
201005012200 METAR LPPR 012200Z 33006KT 290V360 CAVOK 14/12 Q1017=
201005012130 METAR LPPR 012130Z 33010KT CAVOK 15/13 Q1017=
201005012100 METAR LPPR 012100Z 33010KT CAVOK 15/12 Q1017=
201005012030 METAR LPPR 012030Z 33010KT CAVOK 15/12 Q1016=
201005012000 METAR LPPR 012000Z 33012KT CAVOK 15/12 Q1016=
201005011930 METAR LPPR 011930Z 33013KT CAVOK 15/12 Q1016=
201005011900 METAR LPPR 011900Z 33012KT CAVOK 16/12 Q1016=
201005011830 METAR LPPR 011830Z 32015KT 9999 FEW015 BKN250 16/13 Q1016=
201005011800 METAR LPPR 011800Z 32016KT 9999 FEW015 BKN250 17/13 Q1016=
201005011730 METAR LPPR 011730Z 32016KT 9999 FEW015 BKN250 18/13 Q1016=
201005011700 METAR LPPR 011700Z 32017KT 9999 FEW015 SCT250 18/14 Q1016=
201005011630 METAR LPPR 011630Z 32014KT 280V340 9999 SCT015 SCT250 18/14
                        Q1015=
201005011600 METAR LPPR 011600Z 33015KT 9999 SCT015 18/15 Q1015=
201005011530 METAR LPPR 011530Z 32013KT 280V340 9999 FEW015 SCT250 19/14
                        Q1015=
201005011500 METAR LPPR 011500Z 32013KT 9999 SCT015 SCT250 18/14 Q1015=
201005011430 METAR LPPR 011430Z 32012KT 9999 BKN015 18/15 Q1016=
201005011400 METAR LPPR 011400Z 31012KT 9999 BKN015 18/15 Q1016=
201005011330 METAR LPPR 011330Z 31009KT 280V350 9999 BKN015 18/15 Q1016=
201005011300 METAR LPPR 011300Z 30008KT 9999 BKN015 18/15 Q1016=
201005011230 METAR LPPR 011230Z 31007KT 260V350 9999 BKN015 18/15 Q1016=
201005011200 METAR LPPR 011200Z 32004KT 290V360 9999 FEW009 BKN015 18/15
                        Q1016=
201005011130 METAR LPPR 011130Z VRB05KT 9999 FEW009 BKN013 17/15 Q1016=
201005011100 METAR LPPR 011100Z 32004KT 270V350 9999 FEW009 SCT013 BKN015
                        17/14 Q1016=
201005011030 METAR LPPR 011030Z VRB02KT 4000 BR BKN005 BKN013 16/15 Q1016=
201005011000 METAR LPPR 011000Z 28004KT 4000 BR BKN005 BKN015 15/14 Q1016=
201005010930 METAR LPPR 010930Z 00000KT 8000 SCT007 BKN015 16/14 Q1015=
201005010900 METAR LPPR 010900Z 00000KT 7000 SCT009 BKN015 15/13 Q1015=
201005010830 METAR LPPR 010830Z VRB03KT 9999 BKN015 15/13 Q1015=
201005010800 METAR LPPR 010800Z 00000KT 9999 OVC016 14/13 Q1015=
201005010730 METAR LPPR 010730Z VRB03KT 9999 OVC016 13/12 Q1015=
201005010700 METAR LPPR 010700Z 00000KT 9999 BKN016 BKN025 13/13 Q1015=
201005010630 METAR LPPR 010630Z VRB03KT 9999 SCT016 BKN025 BKN060 13/12
                        Q1015=
201005010600 METAR LPPR 010600Z VRB03KT 7000 FEW005 BKN018 BKN060 13/12
                        Q1014=
201005010530 METAR LPPR 010530Z 13005KT 7000 SCT018 BKN040 13/12 Q1014=
201005010500 METAR LPPR 010500Z 14003KT 6000 -RA SCT012 OVC018 13/12 Q1014=
201005010430 METAR LPPR 010430Z 14003KT 6000 -RADZ OVC013 13/12 Q1014=
201005010400 METAR LPPR 010400Z 10004KT 060V130 9999 SCT012 BKN016 13/12
                        Q1014=
201005010330 METAR LPPR 010330Z 00000KT 9999 SCT012 SCT015 13/12 Q1014=
201005010300 METAR LPPR 010300Z 00000KT 9999 BKN012 13/12 Q1014=
201005010230 METAR LPPR 010230Z 11002KT 9999 FEW012 BKN020 13/12 Q1015=
201005010200 METAR LPPR 010200Z 11004KT 9999 FEW017 BKN025 13/11 Q1015=
201005010130 METAR LPPR 010130Z 11003KT 9999 SCT017 BKN030 13/11 Q1015=
201005010100 METAR LPPR 010100Z 10003KT 9999 SCT015 BKN030 13/11 Q1015=
201005010030 METAR LPPR 010030Z 10003KT 9999 SCT015 SCT030 BKN080 12/11
                        Q1015=
201005010000 METAR LPPR 010000Z 00000KT 9999 SCT015 SCT040 BKN080 12/11
                        Q1015=

</pre>

</body>
</html>
