##########################################################
# Query made at 11/07/2014 15:06:41 UTC
# Time interval: from 05/01/2009 00:00  to 05/31/2009 23:59  UTC
##########################################################

##########################################################
# LPPR, Porto / Pedras Rubras (Portugal)
# WMO index: 08545
# Latitude 41-14N. Longitude 008-41W. Altitude 69 m.
##########################################################

###################################
#  METAR/SPECI from LPPR
###################################
200905312330 METAR LPPR 312330Z 00000KT CAVOK 20/11 Q1015=
200905312300 METAR LPPR 312300Z 00000KT CAVOK 20/10 Q1015=
200905312230 METAR LPPR 312230Z 00000KT CAVOK 19/09 Q1015=
200905312200 METAR LPPR 312200Z 00000KT CAVOK 19/11 Q1015=
200905312130 METAR LPPR 312130Z 00000KT CAVOK 20/11 Q1015=
200905312100 METAR LPPR 312100Z 00000KT CAVOK 21/11 Q1015=
200905312030 METAR LPPR 312030Z 00000KT CAVOK 22/10 Q1014=
200905312000 METAR LPPR 312000Z 00000KT CAVOK 24/10 Q1014=
200905311930 METAR LPPR 311930Z 26002KT CAVOK 26/10 Q1014=
200905311900 METAR LPPR 311900Z VRB03KT CAVOK 27/09 Q1014=
200905311830 METAR LPPR 311830Z 32004KT 290V350 CAVOK 27/08 Q1014=
200905311800 METAR LPPR 311800Z 31004KT CAVOK 27/10 Q1014=
200905311730 METAR LPPR 311730Z 29006KT 250V330 CAVOK 28/11 Q1014=
200905311700 METAR LPPR 311700Z 27007KT 210V290 CAVOK 29/09 Q1014=
200905311630 METAR LPPR 311630Z 27005KT 230V330 CAVOK 29/10 Q1013=
200905311600 METAR LPPR 311600Z 29005KT 250V330 CAVOK 29/11 Q1013=
200905311530 METAR LPPR 311530Z 31005KT 250V350 CAVOK 29/11 Q1013=
200905311500 METAR LPPR 311500Z 28005KT 250V320 CAVOK 28/14 Q1014=
200905311430 METAR LPPR 311430Z 27006KT CAVOK 28/14 Q1014=
200905311400 METAR LPPR 311400Z 27005KT 250V310 CAVOK 28/15 Q1014=
200905311330 METAR LPPR 311330Z 28006G16KT CAVOK 28/15 Q1014=
200905311300 METAR LPPR 311300Z 28006KT CAVOK 29/15 Q1014=
200905311230 METAR LPPR 311230Z 29004KT 250V320 CAVOK 29/14 Q1013=
200905311200 METAR LPPR 311200Z 26004KT 230V320 CAVOK 28/16 Q1014=
200905311130 METAR LPPR 311130Z 27005KT 240V310 CAVOK 28/16 Q1014=
200905311100 METAR LPPR 311100Z 28004KT 260V320 CAVOK 27/16 Q1013=
200905311030 METAR LPPR 311030Z VRB03KT CAVOK 26/17 Q1013=
200905311000 METAR LPPR 311000Z 28004KT 240V310 CAVOK 26/17 Q1013=
200905310930 METAR LPPR 310930Z 28005KT 220V320 CAVOK 27/17 Q1013=
200905310900 METAR LPPR 310900Z 00000KT CAVOK 28/14 Q1013=
200905310830 METAR LPPR 310830Z 00000KT CAVOK 27/14 Q1013=
200905310800 METAR LPPR 310800Z 00000KT CAVOK 25/14 Q1013=
200905310730 METAR LPPR 310730Z 00000KT CAVOK 22/15 Q1013=
200905310700 METAR LPPR 310700Z 00000KT CAVOK 20/14 Q1013=
200905310630 METAR LPPR 310630Z 00000KT CAVOK 17/13 Q1013=
200905310600 METAR LPPR 310600Z 00000KT CAVOK 17/12 Q1013=
200905310530 METAR LPPR 310530Z 00000KT CAVOK 17/12 Q1012=
200905310500 METAR LPPR 310500Z 00000KT CAVOK 17/12 Q1012=
200905310430 METAR LPPR 310430Z 00000KT CAVOK 18/12 Q1012=
200905310400 METAR LPPR 310400Z 05002KT CAVOK 18/11 Q1012=
200905310330 METAR LPPR 310330Z 00000KT CAVOK 18/12 Q1012=
200905310300 METAR LPPR 310300Z 00000KT CAVOK 19/12 Q1012=
200905310230 METAR LPPR 310230Z VRB03KT CAVOK 20/12 Q1012=
200905310200 METAR LPPR 310200Z 09002KT CAVOK 21/12 Q1012=
200905310130 METAR LPPR 310130Z 09004KT CAVOK 23/11 Q1012=
200905310100 METAR LPPR 310100Z 11003KT CAVOK 24/11 Q1012=
200905310030 METAR LPPR 310030Z VRB03KT CAVOK 24/10 Q1012=
200905310000 METAR LPPR 310000Z 03003KT CAVOK 21/12 Q1012=
200905302330 METAR LPPR 302330Z 36003KT CAVOK 22/13 Q1012=
200905302300 METAR LPPR 302300Z 34003KT CAVOK 23/12 Q1012=
200905302230 METAR LPPR 302230Z 02003KT CAVOK 25/11 Q1012=
200905302200 METAR LPPR 302200Z 02003KT CAVOK 24/12 Q1012=
200905302130 METAR LPPR 302130Z 02003KT CAVOK 24/13 Q1012=
200905302100 METAR LPPR 302100Z 00000KT CAVOK 24/14 Q1012=
200905302030 METAR LPPR 302030Z 00000KT CAVOK 24/14 Q1011=
200905302000 METAR LPPR 302000Z 31004KT CAVOK 27/14 Q1011=
200905301930 METAR LPPR 301930Z 35005KT CAVOK 29/14 Q1011=
200905301900 METAR LPPR 301900Z 34006KT CAVOK 30/12 Q1011=
200905301830 METAR LPPR 301830Z 32009KT CAVOK 30/12 Q1011=
200905301800 METAR LPPR 301800Z 33009KT CAVOK 29/12 Q1011=
200905301730 METAR LPPR 301730Z 33009KT CAVOK 30/13 Q1011=
200905301700 METAR LPPR 301700Z 33011KT CAVOK 31/12 Q1011=
200905301630 METAR LPPR 301630Z 32013KT 9999 FEW020 31/11 Q1011=
200905301600 METAR LPPR 301600Z 32010KT 290V350 9999 FEW020 33/10 Q1011=
200905301530 METAR LPPR 301530Z 31010KT 280V350 9999 FEW020 33/11 Q1011=
200905301500 METAR LPPR 301500Z 33012KT CAVOK 33/10 Q1011=
200905301430 METAR LPPR 301430Z 32012KT CAVOK 32/10 Q1012=
200905301400 METAR LPPR 301400Z 31010KT CAVOK 32/11 Q1012=
200905301330 METAR LPPR 301330Z 31010KT 270V330 CAVOK 32/12 Q1012=
200905301300 METAR LPPR 301300Z 31009KT CAVOK 33/12 Q1012=
200905301230 METAR LPPR 301230Z 31007KT 270V330 CAVOK 32/12 Q1012=
200905301200 METAR LPPR 301200Z 29006KT 250V330 CAVOK 32/13 Q1012=
200905301130 METAR LPPR 301130Z 31006KT CAVOK 31/13 Q1012=
200905301100 METAR LPPR 301100Z 29006KT 260V330 CAVOK 31/13 Q1012=
200905301030 METAR LPPR 301030Z 31004KT 270V330 CAVOK 31/14 Q1012=
200905301000 METAR LPPR 301000Z VRB03KT CAVOK 30/14 Q1013=
200905300930 METAR LPPR 300930Z VRB03KT CAVOK 29/14 Q1013=
200905300900 METAR LPPR 300900Z 00000KT CAVOK 28/14 Q1013=
200905300830 METAR LPPR 300830Z VRB02KT CAVOK 26/13 Q1013=
200905300800 METAR LPPR 300800Z 00000KT CAVOK 26/13 Q1013=
200905300730 METAR LPPR 300730Z 00000KT CAVOK 24/13 Q1013=
200905300700 METAR LPPR 300700Z 00000KT CAVOK 22/13 Q1012=
200905300630 METAR LPPR 300630Z 00000KT CAVOK 20/14 Q1012=
200905300600 METAR LPPR 300600Z VRB03KT CAVOK 20/12 Q1012=
200905300530 METAR LPPR 300530Z 08003KT CAVOK 17/12 Q1012=
200905300500 METAR LPPR 300500Z 00000KT CAVOK 17/12 Q1012=
200905300430 METAR LPPR 300430Z 00000KT CAVOK 19/12 Q1012=
200905300400 METAR LPPR 300400Z 08002KT CAVOK 19/12 Q1012=
200905300330 METAR LPPR 300330Z 08003KT CAVOK 17/11 Q1012=
200905300300 METAR LPPR 300300Z 00000KT CAVOK 17/11 Q1012=
200905300230 METAR LPPR 300230Z 00000KT CAVOK 18/11 Q1012=
200905300200 METAR LPPR 300200Z 00000KT CAVOK 19/11 Q1012=
200905300130 METAR LPPR 300130Z 00000KT CAVOK 20/10 Q1012=
200905300100 METAR LPPR 300100Z 10004KT CAVOK 20/09 Q1013=
200905300030 METAR LPPR 300030Z 00000KT CAVOK 18/10 Q1012=
200905300000 METAR LPPR 300000Z 00000KT CAVOK 19/10 Q1012=
200905292330 METAR LPPR 292330Z 00000KT CAVOK 20/09 Q1013=
200905292300 METAR LPPR 292300Z 00000KT CAVOK 20/09 Q1013=
200905292230 METAR LPPR 292230Z 00000KT CAVOK 20/09 Q1013=
200905292200 METAR LPPR 292200Z 00000KT CAVOK 21/08 Q1013=
200905292130 METAR LPPR 292130Z 01002KT CAVOK 22/08 Q1013=
200905292100 METAR LPPR 292100Z 35004KT CAVOK 22/07 Q1013=
200905292030 METAR LPPR 292030Z 35004KT CAVOK 23/07 Q1013=
200905292000 METAR LPPR 292000Z 34006KT CAVOK 23/07 Q1013=
200905291930 METAR LPPR 291930Z 34009KT CAVOK 25/07 Q1013=
200905291900 METAR LPPR 291900Z 33009KT CAVOK 26/08 Q1013=
200905291830 METAR LPPR 291830Z 33011KT CAVOK 27/07 Q1013=
200905291800 METAR LPPR 291800Z 32010KT CAVOK 27/09 Q1013=
200905291730 METAR LPPR 291730Z 30008KT CAVOK 29/09 Q1013=
200905291700 METAR LPPR 291700Z 32010KT CAVOK 29/07 Q1013=
200905291630 METAR LPPR 291630Z 32009KT 290V350 CAVOK 29/08 Q1013=
200905291600 METAR LPPR 291600Z 32010KT CAVOK 29/09 Q1014=
200905291530 METAR LPPR 291530Z 31010KT CAVOK 28/11 Q1014=
200905291500 METAR LPPR 291500Z 30008G18KT 260V350 CAVOK 29/10 Q1014=
200905291400 METAR LPPR 291400Z 28008KT 250V320 CAVOK 31/07 Q1014=
200905291330 METAR LPPR 291330Z 29007KT 260V030 CAVOK 32/08 Q1014=
200905291300 METAR LPPR 291300Z 27006KT 210V300 CAVOK 32/09 Q1015=
200905291230 METAR LPPR 291230Z 26008KT 220V290 CAVOK 32/07 Q1015=
200905291200 METAR LPPR 291200Z 25006G17KT 190V280 CAVOK 32/08 Q1015=
200905291130 METAR LPPR 291130Z 00000KT CAVOK 33/08 Q1015=
200905291100 METAR LPPR 291100Z VRB03KT CAVOK 32/08 Q1015=
200905291030 METAR LPPR 291030Z 11005KT 070V150 CAVOK 31/08 Q1016=
200905291000 METAR LPPR 291000Z 12008KT 070V160 CAVOK 30/09 Q1016=
200905290930 METAR LPPR 290930Z 12007KT 080V150 CAVOK 29/09 Q1016=
200905290900 METAR LPPR 290900Z 11009KT 080V140 CAVOK 28/08 Q1016=
200905290830 METAR LPPR 290830Z 11009KT 080V160 CAVOK 27/08 Q1016=
200905290800 METAR LPPR 290800Z 11007KT 070V130 CAVOK 26/08 Q1016=
200905290730 METAR LPPR 290730Z 11005KT 080V140 CAVOK 25/08 Q1016=
200905290700 METAR LPPR 290700Z 09004KT 060V130 CAVOK 24/07 Q1016=
200905290630 METAR LPPR 290630Z 00000KT CAVOK 20/08 Q1016=
200905290600 METAR LPPR 290600Z VRB03KT CAVOK 20/05 Q1016=
200905290530 METAR LPPR 290530Z 00000KT CAVOK 21/07 Q1016=
200905290500 METAR LPPR 290500Z 09004KT CAVOK 23/05 Q1015=
200905290430 METAR LPPR 290430Z 10006KT 060V130 CAVOK 23/06 Q1015=
200905290400 METAR LPPR 290400Z 10008KT CAVOK 24/06 Q1015=
200905290330 METAR LPPR 290330Z 10007KT CAVOK 23/06 Q1015=
200905290300 METAR LPPR 290300Z 11007KT CAVOK 23/06 Q1015=
200905290230 METAR LPPR 290230Z 10008KT CAVOK 23/06 Q1016=
200905290200 METAR LPPR 290200Z 09005KT 070V130 CAVOK 23/06 Q1016=
200905290130 METAR LPPR 290130Z 09004KT CAVOK 23/07 Q1016=
200905290100 METAR LPPR 290100Z 09005KT CAVOK 24/08 Q1016=
200905290030 METAR LPPR 290030Z 09006KT CAVOK 23/08 Q1016=
200905290000 METAR LPPR 290000Z 09004KT 050V110 CAVOK 24/09 Q1016=
200905282330 METAR LPPR 282330Z VRB03KT CAVOK 23/09 Q1016=
200905282300 METAR LPPR 282300Z 05003KT CAVOK 21/08 Q1016=
200905282230 METAR LPPR 282230Z 00000KT CAVOK 21/07 Q1016=
200905282200 METAR LPPR 282200Z 02006KT CAVOK 23/06 Q1017=
200905282130 METAR LPPR 282130Z 03004KT CAVOK 22/05 Q1017=
200905282100 METAR LPPR 282100Z 35005KT CAVOK 22/05 Q1017=
200905282030 METAR LPPR 282030Z 35005KT CAVOK 22/04 Q1017=
200905282000 METAR LPPR 282000Z 34006KT CAVOK 24/05 Q1017=
200905281930 METAR LPPR 281930Z 35005KT 320V020 CAVOK 27/04 Q1017=
200905281900 METAR LPPR 281900Z 34009KT CAVOK 28/05 Q1017=
200905281830 METAR LPPR 281830Z 33008KT CAVOK 29/05 Q1017=
200905281800 METAR LPPR 281800Z 33011KT CAVOK 30/05 Q1017=
200905281730 METAR LPPR 281730Z 31009KT CAVOK 31/07 Q1017=
200905281700 METAR LPPR 281700Z 31011KT 270V330 CAVOK 31/06 Q1017=
200905281630 METAR LPPR 281630Z 30011KT CAVOK 31/06 Q1017=
200905281600 METAR LPPR 281600Z 28009G19KT 240V310 CAVOK 31/07 Q1018=
200905281530 METAR LPPR 281530Z 29007KT 260V320 CAVOK 31/09 Q1018=
200905281500 METAR LPPR 281500Z 29008KT 240V320 CAVOK 31/08 Q1018=
200905281430 METAR LPPR 281430Z 28007KT CAVOK 30/09 Q1019=
200905281400 METAR LPPR 281400Z 28006KT 160V320 CAVOK 31/10 Q1019=
200905281330 METAR LPPR 281330Z VRB04KT CAVOK 32/07 Q1019=
200905281300 METAR LPPR 281300Z 10006KT 030V150 CAVOK 31/08 Q1020=
200905281230 METAR LPPR 281230Z 07006KT 020V130 CAVOK 31/07 Q1020=
200905281200 METAR LPPR 281200Z 10008KT 050V150 CAVOK 30/06 Q1020=
200905281130 METAR LPPR 281130Z 07009KT 030V130 CAVOK 29/07 Q1020=
200905281100 METAR LPPR 281100Z 10011KT 080V140 CAVOK 28/06 Q1020=
200905281030 METAR LPPR 281030Z 10012KT 060V130 CAVOK 27/05 Q1020=
200905281000 METAR LPPR 281000Z 10013KT 070V130 CAVOK 26/04 Q1020=
200905280930 METAR LPPR 280930Z 09013KT 050V120 CAVOK 25/03 Q1021=
200905280900 METAR LPPR 280900Z 09013KT 050V120 CAVOK 24/01 Q1021=
200905280830 METAR LPPR 280830Z 09011KT 050V120 CAVOK 23/00 Q1021=
200905280800 METAR LPPR 280800Z 10012KT 060V130 CAVOK 22/M02 Q1021=
200905280730 METAR LPPR 280730Z 09008KT 050V120 CAVOK 21/M01 Q1021=
200905280700 METAR LPPR 280700Z 08007G17KT 040V130 CAVOK 21/M03 Q1021=
200905280630 METAR LPPR 280630Z 10008KT 060V140 CAVOK 20/M03 Q1021=
200905280600 METAR LPPR 280600Z 08007KT 020V130 CAVOK 19/M04 Q1020=
200905280530 METAR LPPR 280530Z 07005KT 010V110 CAVOK 18/M03 Q1020=
200905280500 METAR LPPR 280500Z 08004KT 030V110 CAVOK 18/M02 Q1020=
200905280430 METAR LPPR 280430Z 00000KT CAVOK 17/M00 Q1020=
200905280400 METAR LPPR 280400Z 06004KT CAVOK 17/01 Q1021=
200905280330 METAR LPPR 280330Z 09003KT CAVOK 15/03 Q1021=
200905280300 METAR LPPR 280300Z 00000KT CAVOK 15/05 Q1021=
200905280230 METAR LPPR 280230Z 00000KT CAVOK 17/05 Q1021=
200905280200 METAR LPPR 280200Z VRB03KT CAVOK 19/03 Q1021=
200905280130 METAR LPPR 280130Z 04006KT 010V070 CAVOK 19/04 Q1021=
200905280100 METAR LPPR 280100Z 02006KT CAVOK 17/06 Q1021=
200905280030 METAR LPPR 280030Z 03003KT CAVOK 18/07 Q1021=
200905280000 METAR LPPR 280000Z 03004KT CAVOK 19/07 Q1021=
200905272330 METAR LPPR 272330Z 05004KT CAVOK 21/07 Q1022=
200905272300 METAR LPPR 272300Z 05003KT CAVOK 19/09 Q1022=
200905272230 METAR LPPR 272230Z 00000KT CAVOK 16/12 Q1022=
200905272200 METAR LPPR 272200Z 00000KT CAVOK 17/12 Q1022=
200905272130 METAR LPPR 272130Z 36003KT CAVOK 18/12 Q1021=
200905272100 METAR LPPR 272100Z 01003KT CAVOK 19/12 Q1021=
200905272030 METAR LPPR 272030Z 34003KT CAVOK 20/12 Q1021=
200905272000 METAR LPPR 272000Z 34005KT CAVOK 21/12 Q1021=
200905271930 METAR LPPR 271930Z 34007KT CAVOK 23/12 Q1021=
200905271900 METAR LPPR 271900Z 34008KT 300V360 CAVOK 24/11 Q1021=
200905271830 METAR LPPR 271830Z 34008KT CAVOK 25/12 Q1021=
200905271800 METAR LPPR 271800Z 33008KT CAVOK 26/12 Q1021=
200905271730 METAR LPPR 271730Z 33012KT CAVOK 25/11 Q1022=
200905271700 METAR LPPR 271700Z 33011KT CAVOK 26/11 Q1022=
200905271630 METAR LPPR 271630Z 33011KT CAVOK 26/12 Q1022=
200905271600 METAR LPPR 271600Z 33010KT CAVOK 26/12 Q1022=
200905271530 METAR LPPR 271530Z 30009KT 270V340 CAVOK 25/12 Q1023=
200905271500 METAR LPPR 271500Z 32010KT CAVOK 25/12 Q1023=
200905271430 METAR LPPR 271430Z 31012KT CAVOK 24/10 Q1023=
200905271400 METAR LPPR 271400Z 30010KT CAVOK 24/11 Q1024=
200905271330 METAR LPPR 271330Z 31010KT CAVOK 24/12 Q1024=
200905271300 METAR LPPR 271300Z 30009KT CAVOK 23/11 Q1024=
200905271230 METAR LPPR 271230Z 29010KT 270V360 CAVOK 23/12 Q1025=
200905271200 METAR LPPR 271200Z 28008KT 240V030 CAVOK 24/12 Q1025=
200905271130 METAR LPPR 271130Z VRB03KT CAVOK 25/10 Q1025=
200905271100 METAR LPPR 271100Z 08005KT 350V140 CAVOK 24/10 Q1025=
200905271030 METAR LPPR 271030Z 07006KT 030V130 CAVOK 23/10 Q1025=
200905271000 METAR LPPR 271000Z 09008KT 050V140 CAVOK 22/09 Q1025=
200905270930 METAR LPPR 270930Z 08006KT 020V110 CAVOK 22/09 Q1025=
200905270900 METAR LPPR 270900Z 08005KT 020V130 CAVOK 22/09 Q1025=
200905270830 METAR LPPR 270830Z 08007KT 040V200 CAVOK 21/08 Q1025=
200905270800 METAR LPPR 270800Z 08008KT 030V130 CAVOK 20/08 Q1025=
200905270730 METAR LPPR 270730Z 06006KT 020V100 CAVOK 19/08 Q1025=
200905270700 METAR LPPR 270700Z 04004KT 020V080 CAVOK 18/10 Q1025=
200905270630 METAR LPPR 270630Z VRB03KT CAVOK 16/10 Q1025=
200905270600 METAR LPPR 270600Z 36003KT CAVOK 13/09 Q1025=
200905270530 METAR LPPR 270530Z 05003KT CAVOK 14/09 Q1025=
200905270500 METAR LPPR 270500Z 00000KT CAVOK 13/09 Q1024=
200905270430 METAR LPPR 270430Z 03003KT CAVOK 13/09 Q1024=
200905270400 METAR LPPR 270400Z 04003KT CAVOK 12/09 Q1024=
200905270330 METAR LPPR 270330Z 00000KT CAVOK 12/09 Q1024=
200905270300 METAR LPPR 270300Z 34003KT CAVOK 12/09 Q1024=
200905270230 METAR LPPR 270230Z 02002KT CAVOK 13/09 Q1024=
200905270200 METAR LPPR 270200Z 01004KT CAVOK 13/09 Q1024=
200905270130 METAR LPPR 270130Z 35006KT CAVOK 12/09 Q1024=
200905270100 METAR LPPR 270100Z 34004KT CAVOK 13/09 Q1024=
200905270030 METAR LPPR 270030Z 33004KT 320V020 CAVOK 13/09 Q1024=
200905270000 METAR LPPR 270000Z 33004KT CAVOK 14/09 Q1024=
200905262330 METAR LPPR 262330Z 34005KT CAVOK 14/09 Q1024=
200905262300 METAR LPPR 262300Z 33006KT CAVOK 14/10 Q1024=
200905262230 METAR LPPR 262230Z 35005KT CAVOK 15/11 Q1024=
200905262200 METAR LPPR 262200Z 35006KT CAVOK 15/11 Q1025=
200905262130 METAR LPPR 262130Z 35007KT CAVOK 14/12 Q1024=
200905262100 METAR LPPR 262100Z 34009KT CAVOK 15/12 Q1024=
200905262030 METAR LPPR 262030Z 34009KT CAVOK 16/12 Q1024=
200905262000 METAR LPPR 262000Z 33010KT CAVOK 17/12 Q1024=
200905261930 METAR LPPR 261930Z 33011KT CAVOK 18/12 Q1024=
200905261900 METAR LPPR 261900Z 33012KT CAVOK 19/12 Q1024=
200905261830 METAR LPPR 261830Z 34014KT CAVOK 19/12 Q1024=
200905261800 METAR LPPR 261800Z 33015KT CAVOK 20/12 Q1024=
200905261730 METAR LPPR 261730Z 33018KT CAVOK 20/12 Q1024=
200905261700 METAR LPPR 261700Z 33017KT CAVOK 21/12 Q1024=
200905261630 METAR LPPR 261630Z 33016KT CAVOK 21/12 Q1024=
200905261600 METAR LPPR 261600Z 33019KT CAVOK 21/12 Q1024=
200905261530 METAR LPPR 261530Z 33016KT CAVOK 21/13 Q1024=
200905261500 METAR LPPR 261500Z 31013KT CAVOK 21/14 Q1024=
200905261430 METAR LPPR 261430Z 32015KT CAVOK 21/14 Q1025=
200905261400 METAR LPPR 261400Z 32013KT CAVOK 21/14 Q1025=
200905261330 METAR LPPR 261330Z 31014KT 9999 FEW025 21/14 Q1025=
200905261300 METAR LPPR 261300Z 31012KT 9999 FEW020 21/14 Q1025=
200905261230 METAR LPPR 261230Z 31011KT 280V350 9999 FEW017 21/13 Q1025=
200905261200 METAR LPPR 261200Z 31013KT 9999 FEW017 21/14 Q1025=
200905261130 METAR LPPR 261130Z 32013KT 290V350 9999 FEW017 20/14 Q1026=
200905261100 METAR LPPR 261100Z 30011G22KT 260V330 9999 FEW017 19/13 Q1026=
200905261030 METAR LPPR 261030Z 32013G24KT 9999 FEW015 19/12 Q1026=
200905261000 METAR LPPR 261000Z 35012KT 310V040 9999 FEW015 19/12 Q1026=
200905260930 METAR LPPR 260930Z 35013KT 9999 FEW017 19/11 Q1026=
200905260900 METAR LPPR 260900Z 35011KT CAVOK 17/10 Q1026=
200905260830 METAR LPPR 260830Z 35008KT CAVOK 16/10 Q1025=
200905260800 METAR LPPR 260800Z 36008KT CAVOK 15/09 Q1025=
200905260730 METAR LPPR 260730Z 01006KT 340V040 CAVOK 14/09 Q1025=
200905260700 METAR LPPR 260700Z 36007KT CAVOK 13/09 Q1025=
200905260630 METAR LPPR 260630Z 01005KT CAVOK 12/09 Q1025=
200905260600 METAR LPPR 260600Z 03005KT CAVOK 10/09 Q1025=
200905260530 METAR LPPR 260530Z 02004KT CAVOK 09/08 Q1024=
200905260500 METAR LPPR 260500Z 36005KT 330V030 CAVOK 09/08 Q1024=
200905260430 METAR LPPR 260430Z 02003KT CAVOK 09/09 Q1024=
200905260400 METAR LPPR 260400Z 03003KT CAVOK 09/08 Q1024=
200905260330 METAR LPPR 260330Z 01003KT CAVOK 09/09 Q1024=
200905260300 METAR LPPR 260300Z 36003KT CAVOK 09/09 Q1024=
200905260230 METAR LPPR 260230Z 02002KT CAVOK 10/09 Q1024=
200905260200 METAR LPPR 260200Z 00000KT CAVOK 10/09 Q1024=
200905260130 METAR LPPR 260130Z 00000KT CAVOK 10/09 Q1023=
200905260100 METAR LPPR 260100Z 00000KT CAVOK 10/09 Q1023=
200905260030 METAR LPPR 260030Z 04003KT CAVOK 11/10 Q1023=
200905260000 METAR LPPR 260000Z VRB02KT CAVOK 11/10 Q1024=
200905252330 METAR LPPR 252330Z 35004KT CAVOK 11/10 Q1024=
200905252300 METAR LPPR 252300Z 33005KT CAVOK 12/10 Q1024=
200905252230 METAR LPPR 252230Z 34003KT CAVOK 12/10 Q1023=
200905252200 METAR LPPR 252200Z 35006KT CAVOK 12/11 Q1023=
200905252130 METAR LPPR 252130Z 33010KT CAVOK 13/11 Q1023=
200905252100 METAR LPPR 252100Z 33011KT CAVOK 14/11 Q1023=
200905252030 METAR LPPR 252030Z 33012KT 9999 FEW015 14/11 Q1022=
200905252000 METAR LPPR 252000Z 32010KT 9999 FEW015 14/11 Q1022=
200905251930 METAR LPPR 251930Z 32011KT 9999 FEW015 SCT030 15/11 Q1022=
200905251900 METAR LPPR 251900Z 32013KT 9999 SCT030 15/11 Q1021=
200905251830 METAR LPPR 251830Z 33014KT 9999 FEW015 SCT250 16/11 Q1021=
200905251800 METAR LPPR 251800Z 32012KT 9999 FEW015 SCT250 16/12 Q1021=
200905251730 METAR LPPR 251730Z 32013KT 9999 FEW015 SCT250 17/11 Q1021=
200905251700 METAR LPPR 251700Z 32013KT 290V350 9999 FEW015 SCT250 17/12
                        Q1020=
200905251630 METAR LPPR 251630Z 33014KT 9999 FEW015 SCT250 17/11 Q1020=
200905251600 METAR LPPR 251600Z 33014KT 9999 FEW015 17/11 Q1020=
200905251530 METAR LPPR 251530Z 33015KT 9999 FEW015 BKN030 17/12 Q1020=
200905251500 METAR LPPR 251500Z 32013KT 270V340 9999 FEW015 BKN025 17/12
                        Q1020=
200905251430 METAR LPPR 251430Z 31015KT 280V340 9999 FEW015 BKN025 17/11
                        Q1020=
200905251400 METAR LPPR 251400Z 30014KT 9999 FEW015 BKN025 17/11 Q1020=
200905251330 METAR LPPR 251330Z 30015KT 9999 FEW015 BKN025 17/12 Q1020=
200905251300 METAR LPPR 251300Z 32012KT 9999 FEW015 BKN025 16/12 Q1020=
200905251230 METAR LPPR 251230Z 32013KT 290V350 9999 FEW015 BKN030 16/12
                        Q1020=
200905251200 METAR LPPR 251200Z 33014KT 290V350 9999 FEW015 BKN030 16/12
                        Q1019=
200905251130 METAR LPPR 251130Z 32012KT 290V350 9999 FEW015 BKN030 16/13
                        Q1019=
200905251100 METAR LPPR 251100Z 32013KT 290V350 9999 FEW015 BKN030 16/12
                        Q1019=
200905251030 METAR LPPR 251030Z 32015KT 9999 SCT013 BKN030 16/12 Q1019=
200905251000 METAR LPPR 251000Z 33015KT 9999 SCT013 BKN030 17/12 Q1019=
200905250930 METAR LPPR 250930Z 33012KT 9999 BKN013 BKN030 16/13 Q1019=
200905250900 METAR LPPR 250900Z 33012KT 9999 SCT013 BKN035 17/13 Q1018=
200905250830 METAR LPPR 250830Z 32010KT 9999 FEW009 SCT013 BKN035 15/13
                        Q1018=
200905250800 METAR LPPR 250800Z 32009KT 280V350 8000 SCT009 SCT012 BKN020
                        15/13 Q1018=
200905250730 METAR LPPR 250730Z 32010KT 290V350 8000 FEW006 SCT009 BKN015
                        15/13 Q1017=
200905250700 METAR LPPR 250700Z 31006KT 280V350 7000 FEW005 SCT009 BKN014
                        15/13 Q1017=
200905250630 METAR LPPR 250630Z 32007KT 290V350 6000 FEW003 SCT005 BKN009
                        15/13 Q1017=
200905250600 METAR LPPR 250600Z VRB03KT 3500 BR SCT003 BKN005 14/14 Q1016=
200905250530 METAR LPPR 250530Z 28002KT 4000 BR SCT003 BKN006 14/14 Q1016=
200905250500 METAR LPPR 250500Z VRB03KT 5000 BR FEW004 SCT006 BKN040 14/13
                        Q1016=
200905250430 METAR LPPR 250430Z 31004KT 5000 BR SCT006 BKN040 15/14 Q1016=
200905250400 METAR LPPR 250400Z 30005KT 270V330 5000 BR SCT006 BKN030
                        15/14 Q1016=
200905250330 METAR LPPR 250330Z VRB02KT 7000 SCT005 BKN025 14/14 Q1016=
200905250300 METAR LPPR 250300Z 00000KT 7000 SCT007 BKN025 15/14 Q1016=
200905250230 METAR LPPR 250230Z 00000KT 7000 SCT004 BKN025 15/14 Q1016=
200905250200 METAR LPPR 250200Z 31004KT 280V340 7000 SCT003 BKN007 15/14
                        Q1016=
200905250130 METAR LPPR 250130Z VRB02KT 7000 SCT004 BKN035 15/14 Q1016=
200905250100 METAR LPPR 250100Z VRB03KT 8000 FEW008 FEW020 BKN040 15/14
                        Q1016=
200905250030 METAR LPPR 250030Z 27004KT 8000 FEW008 SCT015 BKN035 16/14
                        Q1017=
200905250000 METAR LPPR 250000Z 00000KT 8000 FEW007 SCT015 BKN035 16/15
                        Q1017=
200905242330 METAR LPPR 242330Z VRB03KT 8000 SCT007 SCT015 FEW025CB 16/15
                        Q1017=
200905242300 METAR LPPR 242300Z 24003KT 8000 SCT006 SCT015 FEW025CB 16/15
                        Q1017=
200905242230 METAR LPPR 242230Z VRB03KT 7000 FEW005 FEW030CB BKN060 16/15
                        Q1017=
200905242200 METAR LPPR 242200Z 21003KT 7000 FEW004 FEW030CB BKN070 16/15
                        Q1017=
200905242130 METAR LPPR 242130Z VRB03KT 8000 FEW017 FEW030CB BKN060 16/14
                        Q1016=
200905242100 METAR LPPR 242100Z VRB02KT 8000 FEW017 FEW030CB SCT070 16/14
                        Q1016=
200905242030 METAR LPPR 242030Z VRB02KT 8000 FEW017 FEW030CB BKN080 16/14
                        Q1016=
200905242000 METAR LPPR 242000Z VRB03KT 8000 FEW007 FEW025CB BKN090 16/14
                        Q1016=
200905241930 METAR LPPR 241930Z VRB02KT 8000 FEW006 FEW025CB SCT080 16/14
                        Q1016=
200905241900 METAR COR LPPR 241900Z 28004KT 270V330 8000 FEW006 FEW025CB
                        SCT080 16/14 Q1015=
200905241830 METAR LPPR 241830Z 29006KT 260V320 8000 FEW005 FEW025CB SCT080
                        BKN250 17/14 Q1015=
200905241800 METAR LPPR 241800Z 29007KT 260V330 7000 FEW004 FEW017TCU
                        FEW025CB BKN250 17/15 Q1015=
200905241730 METAR LPPR 241730Z 28008KT 9999 FEW013 FEW020TCU FEW025CB
                        BKN250 18/15 Q1015=
200905241700 METAR LPPR 241700Z 27006KT 240V310 9999 FEW015 FEW020TCU
                        FEW025CB BKN080 19/15 Q1015=
200905241630 METAR COR LPPR 241630Z 30006KT 260V330 9999 FEW009 FEW017TCU
                        FEW025CB BKN250 19/15 Q1016=
200905241600 METAR LPPR 241600Z 28007KT 250V310 9999 SCT015 FEW025CB BKN200
                        19/15 Q1015=
200905241530 METAR LPPR 241530Z 28006KT 250V020 9999 FEW017 FEW025CB BKN200
                        18/14 Q1015=
200905241500 METAR LPPR 241500Z 28008KT 230V340 9999 SCT017 SCT025 BKN080
                        19/14 Q1015=
200905241430 METAR LPPR 241430Z 27006KT 190V320 9999 SCT015 SCT025 BKN070
                        21/15 Q1016=
200905241400 METAR LPPR 241400Z VRB03KT 9999 SCT013 SCT025 BKN070 20/15
                        Q1016=
200905241330 METAR LPPR 241330Z VRB03KT 9999 SCT012 SCT025 BKN100 18/15
                        Q1016=
200905241300 METAR LPPR 241300Z 23005KT 200V260 9999 FEW008 SCT012 BKN015
                        18/14 Q1017=
200905241230 METAR LPPR 241230Z VRB03KT 9999 SCT008 SCT012 BKN015 18/14
                        Q1017=
200905241200 METAR LPPR 241200Z VRB03KT 9999 SCT008 SCT012 BKN015 17/14
                        Q1017=
200905241130 METAR LPPR 241130Z 19005KT 9999 SCT008 BKN013 16/14 Q1017=
200905241100 METAR LPPR 241100Z 21005KT 180V240 7000 BKN008 BKN012 16/14
                        Q1017=
200905241030 METAR LPPR 241030Z 23004KT 180V260 7000 BKN008 BKN012 16/14
                        Q1017=
200905241000 METAR LPPR 241000Z 19005KT 7000 BKN008 BKN012 16/14 Q1017=
200905240930 METAR LPPR 240930Z 20006KT 170V240 7000 BKN008 BKN012 16/14
                        Q1017=
200905240900 METAR LPPR 240900Z 20006KT 6000 BKN008 BKN012 16/14 Q1017=
200905240830 METAR LPPR 240830Z 18004KT 130V240 6000 SCT004 BKN008 16/14
                        Q1017=
200905240800 METAR LPPR 240800Z VRB03KT 4000 BR SCT003 SCT005 BKN008 15/14
                        Q1017=
200905240730 METAR LPPR 240730Z 10004KT 4000 BR FEW003 SCT005 BKN008 15/14
                        Q1016=
200905240700 METAR LPPR 240700Z VRB03KT 4000 BR SCT002 BKN006 15/14 Q1016=
200905240630 METAR LPPR 240630Z 09003KT 4000 BR SCT002 BKN005 14/14 Q1016=
200905240600 METAR LPPR 240600Z 07002KT 3000 BR SCT001 BKN004 14/14 Q1016=
200905240530 METAR LPPR 240530Z 00000KT 4000 BR SCT002 BKN005 14/14 Q1016=
200905240500 METAR LPPR 240500Z 00000KT 5000 BR SCT005 SCT008 14/13 Q1016=
200905240430 METAR LPPR 240430Z 00000KT 6000 SCT005 SCT080 13/13 Q1016=
200905240400 METAR LPPR 240400Z 00000KT 7000 FEW015 SCT070 13/13 Q1015=
200905240330 METAR LPPR 240330Z 12006KT 8000 SCT015 SCT070 14/13 Q1015=
200905240300 METAR LPPR 240300Z 12004KT 8000 SCT015 SCT070 14/14 Q1016=
200905240230 METAR LPPR 240230Z 00000KT 8000 SCT015 SCT070 14/13 Q1016=
200905240200 METAR LPPR 240200Z 00000KT 8000 FEW004 SCT015 14/13 Q1016=
200905240130 METAR LPPR 240130Z 32003KT 8000 FEW003 SCT012 14/14 Q1016=
200905240100 METAR LPPR 240100Z VRB02KT 8000 SCT004 SCT012 15/14 Q1016=
200905240030 METAR LPPR 240030Z VRB03KT 6000 SCT006 SCT012 14/14 Q1017=
200905240000 METAR LPPR 240000Z 00000KT 9999 SCT004 SCT008 14/13 Q1017=
200905232330 METAR LPPR 232330Z 00000KT 9999 FEW005 SCT015 14/13 Q1016=
200905232300 METAR LPPR 232300Z 00000KT 9999 SCT007 SCT015 15/13 Q1017=
200905232230 METAR LPPR 232230Z 00000KT 9999 SCT004 SCT008 15/14 Q1017=
200905232200 METAR LPPR 232200Z 00000KT 9999 SCT004 SCT008 15/14 Q1017=
200905232130 METAR LPPR 232130Z 00000KT 9999 SCT005 SCT008 15/14 Q1017=
200905232100 METAR LPPR 232100Z VRB02KT 9999 FEW015 SCT090 15/13 Q1017=
200905232030 METAR LPPR 232030Z 00000KT 9999 FEW015 FEW020CB SCT090 15/13
                        Q1016=
200905232000 METAR LPPR 232000Z 31004KT 9999 FEW015 FEW020CB SCT090 15/14
                        Q1016=
200905231930 METAR LPPR 231930Z 33010KT 8000 SCT008 SCT015 FEW020CB 16/14
                        Q1017=
200905231900 METAR LPPR 231900Z 32010KT 290V350 8000 SCT008 SCT015 FEW020CB
                        17/14 Q1016=
200905231830 METAR LPPR 231830Z 33011KT 8000 SCT008 SCT015 FEW020CB 17/14
                        Q1016=
200905231800 METAR LPPR 231800Z 31010KT 270V350 9999 SCT013 FEW020CB SCT090
                        18/14 Q1015=
200905231730 METAR LPPR 231730Z 31009KT 9999 SCT017 FEW025CB SCT090 17/14
                        Q1015=
200905231700 METAR LPPR 231700Z 30007KT 9999 SCT017 FEW025CB SCT090 18/14
                        Q1015=
200905231630 METAR LPPR 231630Z 31008KT 9999 FEW008 SCT017 SCT025CB 17/14
                        Q1015=
200905231600 METAR LPPR 231600Z 33011KT 9999 FEW017 FEW025CB SCT090 19/13
                        Q1015=
200905231530 METAR LPPR 231530Z 32011KT 280V350 9999 FEW017 FEW025CB SCT250
                        19/14 Q1015=
200905231500 METAR LPPR 231500Z 28011KT 9999 SCT017 FEW025CB SCT250 19/14
                        Q1014=
200905231430 METAR LPPR 231430Z 30010KT 260V330 9999 SCT017 FEW025CB 19/14
                        Q1015=
200905231400 METAR LPPR 231400Z 31007KT 280V350 9999 SCT017 SCT250 19/14
                        Q1015=
200905231330 METAR LPPR 231330Z 29008KT 250V340 9999 SCT017 SCT040 18/14
                        Q1015=
200905231300 METAR LPPR 231300Z 29008KT 260V320 9999 SCT017 SCT040 19/13
                        Q1015=
200905231230 METAR LPPR 231230Z 27006KT 210V330 9999 SCT017 SCT040 19/13
                        Q1015=
200905231200 METAR LPPR 231200Z 28006KT 260V330 9999 FEW012 SCT017 18/14
                        Q1015=
200905231130 METAR LPPR 231130Z 30006KT 260V320 9999 SCT012 SCT015 18/14
                        Q1015=
200905231100 METAR LPPR 231100Z 29007KT 260V330 9999 SCT012 BKN015 18/14
                        Q1015=
200905231030 METAR LPPR 231030Z 29007KT 260V330 9999 SCT015 SCT040 18/14
                        Q1014=
200905231000 METAR LPPR 231000Z 29006KT 250V320 9999 FEW012 SCT015 18/14
                        Q1014=
200905230930 METAR LPPR 230930Z 28005KT 230V330 9999 FEW012 BKN015 17/14
                        Q1014=
200905230900 METAR LPPR 230900Z 28004KT 260V330 9000 FEW008 SCT015 16/14
                        Q1014=
200905230830 METAR LPPR 230830Z 34005KT 290V360 9000 BKN008 BKN015 16/14
                        Q1014=
200905230800 METAR LPPR 230800Z VRB03KT 8000 BKN007 BKN016 16/14 Q1013=
200905230730 METAR LPPR 230730Z 00000KT 8000 SCT007 BKN016 15/14 Q1013=
200905230700 METAR LPPR 230700Z 00000KT 6000 FEW017 BKN250 13/13 Q1013=
200905230630 METAR LPPR 230630Z 00000KT 6000 FEW017 BKN250 13/12 Q1013=
200905230600 METAR LPPR 230600Z 00000KT 7000 FEW017 SCT100 BKN250 13/12
                        Q1012=
200905230530 METAR LPPR 230530Z 00000KT 7000 FEW017 SCT100 12/12 Q1012=
200905230500 METAR LPPR 230500Z VRB03KT 7000 FEW017 SCT100 12/11 Q1012=
200905230430 METAR LPPR 230430Z 00000KT 9999 FEW017 SCT250 12/11 Q1012=
200905230400 METAR LPPR 230400Z 00000KT 9999 FEW017 SCT250 12/11 Q1011=
200905230330 METAR LPPR 230330Z 00000KT 9999 FEW017 SCT250 12/11 Q1012=
200905230300 METAR LPPR 230300Z 00000KT 9999 FEW017 SCT250 12/11 Q1012=
200905230230 METAR LPPR 230230Z 00000KT 9999 FEW017 SCT250 12/12 Q1012=
200905230200 METAR LPPR 230200Z 00000KT 9999 FEW017 SCT250 12/12 Q1012=
200905230130 METAR LPPR 230130Z 36002KT 9999 FEW017 SCT250 12/11 Q1012=
200905230100 METAR LPPR 230100Z 03003KT 9999 FEW017 SCT250 12/11 Q1012=
200905230030 METAR LPPR 230030Z 00000KT 9999 FEW017 SCT250 12/11 Q1013=
200905230000 METAR LPPR 230000Z 00000KT 9999 FEW017 SCT250 13/11 Q1013=
200905222330 METAR LPPR 222330Z 00000KT 9999 FEW017 SCT250 14/11 Q1013=
200905222300 METAR LPPR 222300Z 00000KT 9999 FEW017 SCT250 14/11 Q1013=
200905222230 METAR LPPR 222230Z 30002KT 9999 FEW017 SCT250 14/11 Q1013=
200905222200 METAR LPPR 222200Z 00000KT 9999 FEW017 SCT250 14/11 Q1013=
200905222130 METAR LPPR 222130Z 35003KT 9999 FEW017 SCT250 14/11 Q1013=
200905222100 METAR LPPR 222100Z 01003KT 9999 FEW017 SCT250 14/11 Q1013=
200905222030 METAR LPPR 222030Z 34004KT 9999 FEW017 SCT250 15/11 Q1013=
200905222000 METAR LPPR 222000Z 32005KT 280V340 9999 FEW017 SCT250 16/12
                        Q1013=
200905221930 METAR LPPR 221930Z 31005KT 270V020 9999 FEW017 SCT070 17/11
                        Q1013=
200905221900 METAR LPPR 221900Z 30005KT 270V360 9999 FEW017 SCT060 18/11
                        Q1013=
200905221830 METAR LPPR 221830Z 34005KT 300V360 CAVOK 18/12 Q1013=
200905221800 METAR LPPR 221800Z 32005KT 290V350 CAVOK 19/12 Q1013=
200905221730 METAR LPPR 221730Z 32005KT 260V350 9999 FEW015 SCT200 19/13
                        Q1013=
200905221700 METAR LPPR 221700Z 31006KT 280V340 9999 FEW015 SCT070 BKN200
                        19/12 Q1013=
200905221630 METAR LPPR 221630Z 28006KT 250V330 CAVOK 19/11 Q1013=
200905221600 METAR LPPR 221600Z 29004G16KT 250V350 CAVOK 19/11 Q1013=
200905221530 METAR LPPR 221530Z 27005KT 220V330 CAVOK 18/11 Q1013=
200905221500 METAR LPPR 221500Z 24010KT 210V270 CAVOK 19/10 Q1013=
200905221430 METAR LPPR 221430Z 24008KT 210V270 CAVOK 20/10 Q1013=
200905221400 METAR LPPR 221400Z 26007KT 210V290 9999 FEW018 SCT070 20/11
                        Q1013=
200905221330 METAR LPPR 221330Z 25010KT CAVOK 20/10 Q1013=
200905221300 METAR LPPR 221300Z 24009KT 210V270 9999 FEW018 SCT070 20/10
                        Q1013=
200905221230 METAR LPPR 221230Z 22010KT 190V260 9999 FEW018 SCT070 20/11
                        Q1013=
200905221200 METAR LPPR 221200Z 22009G19KT 180V260 9999 FEW018 SCT070
                        20/11 Q1013=
200905221130 METAR LPPR 221130Z 23008KT 190V260 9999 FEW018 SCT070 18/11
                        Q1014=
200905221100 METAR LPPR 221100Z 20009KT 170V230 9999 FEW018 SCT070 20/11
                        Q1014=
200905221030 METAR LPPR 221030Z 20010KT 170V240 9999 SCT018 19/11 Q1014=
200905221000 METAR LPPR 221000Z 19010KT 9999 FEW020 19/10 Q1014=
200905220930 METAR LPPR 220930Z 18010KT 150V220 9999 FEW020 19/11 Q1014=
200905220900 METAR LPPR 220900Z 18011KT 9999 FEW015 SCT020 18/11 Q1014=
200905220830 METAR LPPR 220830Z 18012KT 8000 FEW015 BKN020 17/11 Q1014=
200905220800 METAR LPPR 220800Z 17010KT 140V210 7000 SCT015 BKN020 17/13
                        Q1014=
200905220730 METAR LPPR 220730Z 17008KT 6000 SCT015 BKN020 17/13 Q1014=
200905220700 METAR LPPR 220700Z 16008KT 6000 SCT015 BKN020 16/13 Q1014=
200905220630 METAR LPPR 220630Z 17007KT 6000 SCT013 BKN017 16/13 Q1013=
200905220600 METAR LPPR 220600Z 16009KT 130V190 6000 SCT008 BKN013 16/13
                        Q1013=
200905220530 METAR LPPR 220530Z 13005KT 6000 SCT008 BKN013 16/13 Q1013=
200905220500 METAR LPPR 220500Z 14006KT 6000 SCT008 BKN015 15/13 Q1013=
200905220430 METAR LPPR 220430Z 15005KT 6000 SCT008 BKN013 15/13 Q1013=
200905220400 METAR LPPR 220400Z 16006KT 5000 BR SCT007 BKN013 15/13 Q1013=
200905220330 METAR LPPR 220330Z 17006KT 4000 BR FEW007 BKN009 15/13 Q1013=
200905220300 METAR LPPR 220300Z 17008KT 4000 BR SCT007 BKN008 15/13 Q1013=
200905220230 METAR LPPR 220230Z 18010KT 4000 BR BKN008 15/13 Q1013=
200905220200 METAR LPPR 220200Z 18008KT 4000 BR FEW007 BKN008 15/13 Q1013=
200905220130 METAR LPPR 220130Z 18009KT 4000 BR FEW007 BKN008 15/14 Q1013=
200905220100 METAR LPPR 220100Z 18010KT 4000 BR FEW005 BKN008 15/14 Q1013=
200905220030 METAR LPPR 220030Z 18010KT 4000 BR FEW003 BKN006 15/14 Q1013=
200905220000 METAR LPPR 220000Z 17011KT 4000 BR FEW003 BKN005 16/14 Q1013=
200905212330 METAR LPPR 212330Z 17010KT 5000 BR FEW003 BKN005 16/15 Q1013=
200905212300 METAR LPPR 212300Z 17008KT 5000 BR FEW003 BKN005 16/15 Q1013=
200905212230 METAR LPPR 212230Z 19007KT 8000 BKN250 16/15 Q1013=
200905212200 METAR LPPR 212200Z 18006KT 8000 BKN250 16/14 Q1013=
200905212130 METAR LPPR 212130Z 18006KT CAVOK 16/14 Q1013=
200905212100 METAR LPPR 212100Z VRB03KT CAVOK 16/14 Q1013=
200905212030 METAR LPPR 212030Z 19005KT 160V230 CAVOK 17/13 Q1013=
200905212000 METAR LPPR 212000Z 22004KT CAVOK 19/14 Q1012=
200905211930 METAR LPPR 211930Z 22005KT CAVOK 21/14 Q1012=
200905211900 METAR LPPR 211900Z VRB02KT CAVOK 22/11 Q1012=
200905211830 METAR LPPR 211830Z VRB03KT CAVOK 22/10 Q1012=
200905211800 METAR LPPR 211800Z 19004KT 160V240 CAVOK 22/11 Q1012=
200905211730 METAR LPPR 211730Z 22004KT 180V250 CAVOK 22/13 Q1012=
200905211700 METAR LPPR 211700Z 22004KT 180V280 CAVOK 22/12 Q1012=
200905211630 METAR LPPR 211630Z 22006KT 170V270 CAVOK 22/12 Q1012=
200905211600 METAR LPPR 211600Z 21007KT 180V240 CAVOK 22/13 Q1012=
200905211530 METAR LPPR 211530Z 20008KT CAVOK 21/13 Q1013=
200905211500 METAR LPPR 211500Z 20010KT CAVOK 21/14 Q1013=
200905211430 METAR LPPR 211430Z 20011KT CAVOK 21/15 Q1013=
200905211400 METAR LPPR 211400Z 20009KT CAVOK 21/15 Q1013=
200905211330 METAR LPPR 211330Z 20010KT CAVOK 21/16 Q1013=
200905211300 METAR LPPR 211300Z 21009KT CAVOK 20/15 Q1013=
200905211230 METAR LPPR 211230Z 20007KT 170V240 7000 BKN250 19/15 Q1013=
200905211200 METAR LPPR 211200Z 19007KT 160V220 5000 BR FEW007 BKN250
                        19/15 Q1013=
200905211130 METAR LPPR 211130Z 20008KT 180V250 7000 BKN250 19/15 Q1013=
200905211100 METAR LPPR 211100Z 20008KT 8000 BKN250 19/15 Q1013=
200905211030 METAR LPPR 211030Z 21008KT 170V240 CAVOK 19/14 Q1013=
200905211000 METAR LPPR 211000Z 25007KT CAVOK 20/15 Q1013=
200905210930 METAR LPPR 210930Z VRB03KT CAVOK 21/15 Q1012=
200905210900 METAR LPPR 210900Z VRB02KT CAVOK 20/15 Q1012=
200905210830 METAR LPPR 210830Z VRB03KT CAVOK 19/15 Q1012=
200905210800 METAR LPPR 210800Z VRB02KT CAVOK 18/15 Q1012=
200905210730 METAR LPPR 210730Z 00000KT CAVOK 16/14 Q1013=
200905210700 METAR LPPR 210700Z VRB02KT CAVOK 15/14 Q1013=
200905210630 METAR LPPR 210630Z 11003KT CAVOK 13/13 Q1013=
200905210600 METAR LPPR 210600Z 00000KT CAVOK 11/10 Q1012=
200905210530 METAR LPPR 210530Z 00000KT CAVOK 11/11 Q1012=
200905210500 METAR LPPR 210500Z 00000KT CAVOK 11/10 Q1012=
200905210430 METAR LPPR 210430Z 00000KT CAVOK 11/10 Q1012=
200905210400 METAR LPPR 210400Z 00000KT CAVOK 11/10 Q1012=
200905210330 METAR LPPR 210330Z 00000KT CAVOK 11/11 Q1012=
200905210300 METAR LPPR 210300Z 00000KT CAVOK 11/11 Q1012=
200905210230 METAR LPPR 210230Z 00000KT CAVOK 12/11 Q1012=
200905210200 METAR LPPR 210200Z 00000KT CAVOK 12/11 Q1012=
200905210130 METAR LPPR 210130Z 00000KT CAVOK 13/12 Q1013=
200905210100 METAR LPPR 210100Z 00000KT CAVOK 14/12 Q1013=
200905210030 METAR LPPR 210030Z 13002KT CAVOK 14/12 Q1013=
200905210000 METAR LPPR 210000Z 15005KT CAVOK 14/13 Q1013=
200905202330 METAR LPPR 202330Z 17003KT CAVOK 14/12 Q1013=
200905202300 METAR LPPR 202300Z 00000KT CAVOK 14/12 Q1013=
200905202230 METAR LPPR 202230Z VRB02KT CAVOK 14/12 Q1013=
200905202200 METAR LPPR 202200Z 00000KT CAVOK 14/13 Q1013=
200905202130 METAR LPPR 202130Z 00000KT CAVOK 15/12 Q1013=
200905202100 METAR LPPR 202100Z 34003KT CAVOK 15/12 Q1013=
200905202030 METAR LPPR 202030Z 34006KT CAVOK 15/12 Q1013=
200905202000 METAR LPPR 202000Z 33006KT CAVOK 16/12 Q1013=
200905201930 METAR LPPR 201930Z 33008KT CAVOK 18/13 Q1013=
200905201900 METAR LPPR 201900Z 33011KT CAVOK 18/12 Q1013=
200905201830 METAR LPPR 201830Z 34013KT CAVOK 19/12 Q1013=
200905201800 METAR LPPR 201800Z 33010KT CAVOK 19/12 Q1013=
200905201730 METAR LPPR 201730Z 32009KT 290V010 CAVOK 20/13 Q1014=
200905201700 METAR LPPR 201700Z 33010KT CAVOK 20/13 Q1014=
200905201630 METAR LPPR 201630Z 33011KT CAVOK 20/13 Q1014=
200905201600 METAR LPPR 201600Z 33011KT CAVOK 20/13 Q1014=
200905201530 METAR LPPR 201530Z 34011KT CAVOK 20/13 Q1014=
200905201500 METAR LPPR 201500Z 34011KT CAVOK 21/14 Q1015=
200905201430 METAR LPPR 201430Z 31011KT CAVOK 21/14 Q1015=
200905201400 METAR LPPR 201400Z 31011KT CAVOK 21/14 Q1015=
200905201330 METAR LPPR 201330Z 33010KT CAVOK 21/14 Q1015=
200905201300 METAR LPPR 201300Z 32011KT 290V350 CAVOK 20/13 Q1016=
200905201230 METAR LPPR 201230Z 32011KT 280V340 CAVOK 19/13 Q1016=
200905201200 METAR LPPR 201200Z 29011G25KT 270V010 CAVOK 19/13 Q1016=
200905201130 METAR LPPR 201130Z 31008KT 280V340 CAVOK 19/14 Q1017=
200905201100 METAR LPPR 201100Z 29008KT 210V010 CAVOK 18/14 Q1017=
200905201030 METAR LPPR 201030Z 30007KT CAVOK 17/13 Q1017=
200905201000 METAR LPPR 201000Z 31007KT 270V350 CAVOK 18/14 Q1017=
200905200930 METAR LPPR 200930Z 34006KT 300V020 CAVOK 17/13 Q1017=
200905200900 METAR LPPR 200900Z 03004KT 360V090 8000 BKN250 16/13 Q1017=
200905200830 METAR LPPR 200830Z VRB03KT 8000 BKN250 15/13 Q1017=
200905200800 METAR LPPR 200800Z VRB03KT 5000 BR BKN250 14/13 Q1018=
200905200730 METAR LPPR 200730Z VRB03KT 3000 BR FEW001 BKN250 13/13 Q1018=
200905200700 METAR LPPR 200700Z VRB03KT 2000 VCFG BR SCT001 SCT003 12/11
                        Q1017=
200905200630 METAR LPPR 200630Z 07004KT 020V110 0900 R17/1400VP1500 R35/1100VP1500
                        FG FEW001 BKN002 11/11 Q1018=
200905200600 METAR LPPR 200600Z 00000KT 0500 R17/0800N R35/0750V1200N
                        FG SCT000 BKN001 10/10 Q1018=
200905200530 METAR LPPR 200530Z 00000KT 0500 R17/0800V1100U R35/0750V1300U
                        FG SCT000 BKN001 10/10 Q1017=
200905200500 METAR LPPR 200500Z VRB03KT 6000 SCT250 10/10 Q1017=
200905200430 METAR LPPR 200430Z 36002KT CAVOK 10/09 Q1017=
200905200400 METAR LPPR 200400Z 00000KT CAVOK 11/10 Q1017=
200905200330 METAR LPPR 200330Z 00000KT CAVOK 11/10 Q1017=
200905200300 METAR LPPR 200300Z 00000KT CAVOK 10/10 Q1018=
200905200230 METAR LPPR 200230Z 00000KT CAVOK 11/10 Q1017=
200905200200 METAR LPPR 200200Z 00000KT CAVOK 12/11 Q1018=
200905200130 METAR LPPR 200130Z 35004KT CAVOK 12/11 Q1018=
200905200100 METAR LPPR 200100Z 34005KT CAVOK 12/11 Q1018=
200905200030 METAR LPPR 200030Z 34006KT CAVOK 13/11 Q1018=
200905200000 METAR LPPR 200000Z 33009KT 9999 FEW012 SCT250 13/12 Q1018=
200905192330 METAR LPPR 192330Z 32009KT 9999 FEW009 SCT013 BKN250 14/12
                        Q1019=
200905192300 METAR LPPR 192300Z 33011KT 9999 FEW009 SCT013 BKN250 14/12
                        Q1019=
200905192230 METAR LPPR 192230Z 33009KT 9999 FEW009 SCT013 14/12 Q1019=
200905192200 METAR LPPR 192200Z 33009KT CAVOK 14/12 Q1019=
200905192130 METAR LPPR 192130Z 32008KT CAVOK 14/12 Q1019=
200905192100 METAR LPPR 192100Z 32006KT CAVOK 14/12 Q1019=
200905192030 METAR LPPR 192030Z 32007KT CAVOK 14/12 Q1018=
200905192000 METAR LPPR 192000Z 32008KT CAVOK 15/12 Q1018=
200905191930 METAR LPPR 191930Z 31006KT CAVOK 16/11 Q1018=
200905191900 METAR LPPR 191900Z 33010KT 290V360 CAVOK 16/10 Q1018=
200905191830 METAR LPPR 191830Z 34010KT CAVOK 16/10 Q1018=
200905191800 METAR LPPR 191800Z 32011KT CAVOK 16/11 Q1018=
200905191730 METAR LPPR 191730Z 32015KT CAVOK 16/11 Q1018=
200905191700 METAR LPPR 191700Z 33016KT CAVOK 17/11 Q1018=
200905191630 METAR LPPR 191630Z 32013KT CAVOK 18/12 Q1019=
200905191600 METAR LPPR 191600Z 32015KT CAVOK 17/11 Q1019=
200905191530 METAR LPPR 191530Z 31014KT 280V340 CAVOK 18/12 Q1019=
200905191500 METAR LPPR 191500Z 32013KT CAVOK 18/12 Q1019=
200905191430 METAR LPPR 191430Z 31013KT 280V350 CAVOK 18/11 Q1019=
200905191400 METAR LPPR 191400Z 31012KT 280V340 CAVOK 18/11 Q1019=
200905191330 METAR LPPR 191330Z 30012KT 270V330 CAVOK 18/11 Q1020=
200905191300 METAR LPPR 191300Z 32013KT CAVOK 18/10 Q1020=
200905191230 METAR LPPR 191230Z 31012KT CAVOK 18/09 Q1020=
200905191200 METAR LPPR 191200Z 31012KT CAVOK 18/09 Q1020=
200905191130 METAR LPPR 191130Z 29010KT 250V320 CAVOK 18/10 Q1020=
200905191100 METAR LPPR 191100Z 28007KT 240V340 9999 FEW017 18/10 Q1021=
200905191030 METAR LPPR 191030Z 31004KT 240V040 9999 FEW017 18/08 Q1021=
200905191000 METAR LPPR 191000Z 35007KT 320V030 9999 FEW017 17/08 Q1021=
200905190930 METAR LPPR 190930Z 02006KT 350V050 9999 FEW017 16/08 Q1021=
200905190900 METAR LPPR 190900Z 36007KT 330V050 CAVOK 16/09 Q1022=
200905190830 METAR LPPR 190830Z 05004KT 360V100 CAVOK 15/09 Q1022=
200905190800 METAR LPPR 190800Z VRB02KT CAVOK 14/09 Q1022=
200905190730 METAR LPPR 190730Z VRB02KT CAVOK 13/09 Q1022=
200905190700 METAR LPPR 190700Z VRB02KT 9999 FEW020 11/09 Q1022=
200905190630 METAR LPPR 190630Z VRB03KT 9999 FEW020 10/09 Q1022=
200905190600 METAR LPPR 190600Z 00000KT 9999 FEW017 08/07 Q1021=
200905190530 METAR LPPR 190530Z 00000KT CAVOK 08/07 Q1021=
200905190500 METAR LPPR 190500Z 09003KT CAVOK 09/08 Q1021=
200905190430 METAR LPPR 190430Z 00000KT CAVOK 08/08 Q1021=
200905190400 METAR LPPR 190400Z 00000KT CAVOK 08/08 Q1021=
200905190330 METAR LPPR 190330Z 00000KT CAVOK 08/07 Q1021=
200905190300 METAR LPPR 190300Z 00000KT CAVOK 08/07 Q1021=
200905190230 METAR LPPR 190230Z 00000KT CAVOK 09/07 Q1021=
200905190200 METAR LPPR 190200Z 00000KT CAVOK 09/08 Q1021=
200905190130 METAR LPPR 190130Z 00000KT 9999 FEW020 09/08 Q1021=
200905190100 METAR LPPR 190100Z 00000KT 9999 FEW020 09/08 Q1021=
200905190030 METAR LPPR 190030Z 00000KT 9999 FEW020 09/08 Q1022=
200905190000 METAR LPPR 190000Z 00000KT 9999 FEW015 10/07 Q1022=
200905182330 METAR LPPR 182330Z 00000KT CAVOK 10/08 Q1022=
200905182300 METAR LPPR 182300Z 00000KT CAVOK 11/08 Q1022=
200905182230 METAR LPPR 182230Z 33004KT CAVOK 12/08 Q1022=
200905182200 METAR LPPR 182200Z 33007KT CAVOK 13/08 Q1022=
200905182130 METAR LPPR 182130Z 33007KT 9999 FEW008 13/09 Q1022=
200905182100 METAR LPPR 182100Z 32008KT 9999 FEW008 13/09 Q1022=
200905182030 METAR LPPR 182030Z 32007KT 300V010 9999 SCT008 14/09 Q1021=
200905182000 METAR LPPR 182000Z 32007KT 280V340 CAVOK 14/08 Q1021=
200905181930 METAR LPPR 181930Z 32008KT 290V350 CAVOK 15/09 Q1021=
200905181900 METAR LPPR 181900Z 32010KT 290V350 CAVOK 15/09 Q1021=
200905181830 METAR LPPR 181830Z 32012KT 290V360 CAVOK 16/10 Q1021=
200905181800 METAR LPPR 181800Z 33013KT CAVOK 16/08 Q1020=
200905181730 METAR LPPR 181730Z 33011KT CAVOK 17/08 Q1020=
200905181700 METAR LPPR 181700Z 33013KT 290V350 CAVOK 17/08 Q1021=
200905181630 METAR LPPR 181630Z 31013KT 280V340 9999 FEW017 17/08 Q1021=
200905181600 METAR LPPR 181600Z 32016KT 9999 FEW017 17/08 Q1021=
200905181530 METAR LPPR 181530Z 32014KT 9999 FEW017 17/08 Q1021=
200905181500 METAR LPPR 181500Z 31014KT 270V340 9999 FEW017 17/09 Q1021=
200905181430 METAR LPPR 181430Z 31014KT 280V340 9999 FEW017 17/09 Q1021=
200905181400 METAR LPPR 181400Z 32013KT 280V350 9999 FEW017 17/10 Q1021=
200905181330 METAR LPPR 181330Z 31013KT 280V350 9999 FEW017 17/10 Q1021=
200905181300 METAR LPPR 181300Z 30013KT 280V340 9999 FEW017 17/09 Q1021=
200905181230 METAR LPPR 181230Z 32012KT 280V340 9999 FEW017 17/11 Q1021=
200905181200 METAR LPPR 181200Z 31012KT 9999 FEW017 17/11 Q1022=
200905181130 METAR LPPR 181130Z 30011KT 270V330 9999 FEW017 16/11 Q1022=
200905181100 METAR LPPR 181100Z 29009KT 250V340 9999 FEW017 17/11 Q1022=
200905181030 METAR LPPR 181030Z 33009KT 300V360 9999 SCT017 17/09 Q1022=
200905181000 METAR LPPR 181000Z 35007KT 290V030 9999 FEW015 16/10 Q1022=
200905180930 METAR LPPR 180930Z 36008KT 330V050 9999 FEW015 16/10 Q1022=
200905180900 METAR LPPR 180900Z 36007KT 330V030 9999 FEW015 15/10 Q1022=
200905180830 METAR LPPR 180830Z 35006KT 330V040 9999 FEW015 15/10 Q1022=
200905180800 METAR LPPR 180800Z 36005KT 330V030 9999 FEW015 14/10 Q1022=
200905180730 METAR LPPR 180730Z 36005KT 9999 FEW015 13/10 Q1022=
200905180700 METAR LPPR 180700Z 00000KT 9999 FEW015 10/10 Q1022=
200905180630 METAR LPPR 180630Z 00000KT 9999 FEW015 09/09 Q1021=
200905180600 METAR LPPR 180600Z 00000KT 9999 FEW015 07/07 Q1021=
200905180530 METAR LPPR 180530Z 00000KT CAVOK 07/07 Q1021=
200905180500 METAR LPPR 180500Z 00000KT CAVOK 07/07 Q1021=
200905180430 METAR LPPR 180430Z 00000KT CAVOK 07/07 Q1021=
200905180400 METAR LPPR 180400Z 00000KT CAVOK 07/07 Q1021=
200905180330 METAR LPPR 180330Z 00000KT CAVOK 08/07 Q1021=
200905180300 METAR LPPR 180300Z 00000KT CAVOK 08/07 Q1021=
200905180230 METAR LPPR 180230Z 00000KT CAVOK 08/07 Q1021=
200905180200 METAR LPPR 180200Z 00000KT CAVOK 09/08 Q1021=
200905180130 METAR LPPR 180130Z 34003KT CAVOK 09/08 Q1021=
200905180100 METAR LPPR 180100Z 33003KT CAVOK 09/08 Q1021=
200905180030 METAR LPPR 180030Z 00000KT CAVOK 09/08 Q1021=
200905180000 METAR LPPR 180000Z 00000KT CAVOK 09/08 Q1022=
200905172330 METAR LPPR 172330Z 34003KT CAVOK 10/08 Q1022=
200905172300 METAR LPPR 172300Z 34004KT CAVOK 10/08 Q1022=
200905172230 METAR LPPR 172230Z 35004KT CAVOK 10/09 Q1022=
200905172200 METAR LPPR 172200Z 35003KT CAVOK 11/09 Q1021=
200905172130 METAR LPPR 172130Z 35004KT 9999 FEW015 SCT040 12/09 Q1021=
200905172100 METAR LPPR 172100Z 33007KT 9999 FEW015 BKN040 13/09 Q1021=
200905172030 METAR LPPR 172030Z 33008KT 290V350 9999 FEW015 BKN035 13/09
                        Q1021=
200905172000 METAR LPPR 172000Z 33007KT 9999 FEW015 BKN035 13/11 Q1021=
200905171930 METAR LPPR 171930Z 31004KT 290V350 9999 FEW015 BKN035 13/11
                        Q1021=
200905171900 METAR LPPR 171900Z 33005KT 9999 SCT015 BKN030 13/13 Q1020=
200905171830 METAR LPPR 171830Z VRB03KT 7000 -SHRA FEW008 SCT015 BKN030
                        13/13 Q1020=
200905171800 METAR LPPR 171800Z VRB03KT 6000 -SHRA FEW007 SCT015 BKN030
                        13/12 Q1020=
200905171730 METAR LPPR 171730Z 34006KT 8000 SCT015 BKN030 13/13 Q1020=
200905171700 METAR LPPR 171700Z 31005KT 8000 FEW007 SCT015 BKN030 13/13
                        Q1020=
200905171630 METAR LPPR 171630Z 30006KT 260V340 8000 FEW004 SCT015 BKN030
                        13/13 Q1020=
200905171600 METAR LPPR 171600Z 30006KT 270V330 8000 FEW009 SCT015 BKN030
                        14/13 Q1020=
200905171530 METAR LPPR 171530Z 00000KT 7000 FEW009 SCT015 BKN030 14/13
                        Q1020=
200905171500 METAR LPPR 171500Z 22004KT 180V280 5000 -RA BR SCT004 SCT015
                        BKN030 14/13 Q1020=
200905171430 METAR LPPR 171430Z 21005KT 190V250 5000 -RA BR SCT005 SCT015
                        BKN030 14/13 Q1020=
200905171400 METAR LPPR 171400Z 18008KT 6000 -RA SCT005 SCT015 BKN030
                        14/13 Q1020=
200905171330 METAR LPPR 171330Z 22006KT 200V260 6000 -SHRA FEW005 SCT015
                        BKN030 14/13 Q1020=
200905171300 METAR LPPR 171300Z 23006KT 200V260 6000 -SHRA SCT015 BKN030
                        BKN080 14/13 Q1020=
200905171230 METAR LPPR 171230Z 23007KT 6000 -SHRA SCT015 BKN040 BKN080
                        14/13 Q1019=
200905171200 METAR LPPR 171200Z 23010KT 200V260 8000 -SHRA BKN015 BKN080
                        16/12 Q1019=
200905171130 METAR LPPR 171130Z 23011KT 200V260 9999 BKN015 BKN080 17/11
                        Q1019=
200905171100 METAR LPPR 171100Z 20013KT 180V240 9999 BKN015 BKN060 17/12
                        Q1019=
200905171030 METAR LPPR 171030Z 21010KT 180V240 9999 BKN015 BKN060 16/12
                        Q1018=
200905171000 METAR LPPR 171000Z 20010KT 9999 BKN015 BKN025 17/12 Q1018=
200905170930 METAR LPPR 170930Z 22010KT 190V250 9999 BKN015 16/11 Q1018=
200905170900 METAR LPPR 170900Z 22010KT 9999 BKN015 15/11 Q1018=
200905170830 METAR LPPR 170830Z 22009KT 200V260 9999 BKN015 16/12 Q1018=
200905170800 METAR LPPR 170800Z 22009KT 200V260 9999 SCT015 SCT030 15/11
                        Q1017=
200905170730 METAR LPPR 170730Z 21007KT 180V240 9999 SCT015 SCT030 14/11
                        Q1017=
200905170700 METAR LPPR 170700Z 22007KT 180V240 9999 SCT015 SCT030 14/11
                        Q1017=
200905170630 METAR LPPR 170630Z 20005KT 170V260 9999 BKN015 SCT030 14/11
                        Q1017=
200905170600 METAR LPPR 170600Z 21006KT 9999 SCT015 BKN030 13/10 Q1017=
200905170530 METAR LPPR 170530Z 17003KT 9999 SCT015 BKN030 12/10 Q1017=
200905170500 METAR LPPR 170500Z 18003KT 9999 SCT015 BKN030 12/10 Q1016=
200905170430 METAR LPPR 170430Z 19002KT 9999 FEW015 SCT035 12/10 Q1016=
200905170400 METAR LPPR 170400Z 22003KT 9999 FEW015 SCT035 13/09 Q1016=
200905170330 METAR LPPR 170330Z VRB02KT 9999 SCT015 13/09 Q1016=
200905170300 METAR LPPR 170300Z VRB02KT 9999 SCT015 13/09 Q1016=
200905170230 METAR LPPR 170230Z VRB03KT 9999 SCT015 13/09 Q1017=
200905170200 METAR LPPR 170200Z VRB03KT 9999 SCT015 13/09 Q1017=
200905170130 METAR LPPR 170130Z 27004KT 240V310 9999 SCT015 13/10 Q1017=
200905170100 METAR LPPR 170100Z VRB03KT 9999 SCT015 14/10 Q1017=
200905170030 METAR LPPR 170030Z VRB02KT 9999 SCT015 SCT030 14/10 Q1017=
200905170000 METAR LPPR 170000Z VRB03KT 9999 SCT015 SCT030 14/10 Q1017=
200905162330 METAR LPPR 162330Z 27004KT 230V300 9999 SCT015 14/10 Q1017=
200905162300 METAR LPPR 162300Z 27004KT 230V320 9999 SCT015 14/10 Q1017=
200905162230 METAR LPPR 162230Z 28005KT 240V320 9999 SCT015 14/10 Q1017=
200905162200 METAR LPPR 162200Z 28007KT 250V310 9999 SCT015 14/11 Q1017=
200905162130 METAR LPPR 162130Z 28007KT 250V330 9999 FEW012 BKN030 14/11
                        Q1017=
200905162100 METAR LPPR 162100Z 27004KT 200V360 9999 FEW012 BKN030 14/13
                        Q1016=
200905162030 METAR LPPR 162030Z VRB03KT 9999 FEW012 BKN030 14/13 Q1016=
200905162000 METAR LPPR 162000Z 28008KT 240V300 8000 SCT004 BKN007 14/14
                        Q1016=
200905161930 METAR LPPR 161930Z 27007KT 240V330 8000 -RADZ SCT003 BKN005
                        14/14 Q1015=
200905161900 METAR LPPR 161900Z 28007KT 5000 -RADZ BR SCT002 SCT004 BKN008
                        14/14 Q1015=
200905161830 METAR LPPR 161830Z 25008KT 210V300 1500 RADZ VCFG SCT001
                        BKN002 15/15 Q1015=
200905161800 METAR LPPR 161800Z 20015KT 4000 -RA BR SCT003 BKN006 16/16
                        Q1015=
200905161730 METAR LPPR 161730Z 20014KT 6000 SCT004 BKN008 BKN020 16/16
                        Q1015=
200905161700 METAR LPPR 161700Z 20014KT 6000 SCT004 BKN008 BKN020 16/16
                        Q1015=
200905161630 METAR LPPR 161630Z 20013KT 6000 SCT004 BKN008 BKN020 17/16
                        Q1015=
200905161600 METAR LPPR 161600Z 20016KT 8000 SCT005 SCT008 BKN020 17/15
                        Q1015=
200905161530 METAR LPPR 161530Z 20018KT 8000 SCT006 SCT015 BKN020 18/16
                        Q1015 WS ALL RWY=
200905161500 METAR LPPR 161500Z 20017KT 8000 FEW004 SCT008 BKN020 18/16
                        Q1015=
200905161430 METAR LPPR 161430Z 19015KT 8000 FEW004 SCT008 BKN020 18/16
                        Q1015=
200905161400 METAR LPPR 161400Z 19015KT 160V220 8000 FEW004 SCT008 BKN020
                        17/16 Q1016=
200905161330 METAR LPPR 161330Z 20016KT 9999 SCT006 BKN020 17/15 Q1016=
200905161300 METAR LPPR 161300Z 19016KT 9999 SCT006 BKN020 17/16 Q1016=
200905161230 METAR LPPR 161230Z 19017KT 9999 SCT007 BKN020 16/15 Q1016
                        WS ALL RWY=
200905161200 METAR LPPR 161200Z 18015KT 5000 -DZ BR SCT005 BKN015 16/15
                        Q1016=
200905161130 METAR LPPR 161130Z 18015KT 9999 SCT008 BKN025 16/15 Q1017=
200905161100 METAR LPPR 161100Z 18015KT 9999 SCT008 BKN020 16/15 Q1017=
200905161030 METAR LPPR 161030Z 18014KT 9999 SCT008 BKN020 16/15 Q1017=
200905161000 METAR LPPR 161000Z 18014KT 8000 SCT004 BKN012 15/15 Q1017=
200905160930 METAR LPPR 160930Z 17013KT 7000 SCT004 BKN008 14/14 Q1017=
200905160900 METAR LPPR 160900Z 18012KT 4000 BR SCT003 BKN006 14/14 Q1016=
200905160830 METAR LPPR 160830Z 18011KT 4000 BR SCT002 BKN005 14/14 Q1016=
200905160800 METAR LPPR 160800Z 18011KT 3000 -DZ BR SCT002 BKN005 14/14
                        Q1016=
200905160730 METAR LPPR 160730Z 17012KT 2500 -DZ BR SCT002 BKN005 14/14
                        Q1016=
200905160700 METAR LPPR 160700Z 18011KT 5000 BR SCT003 BKN005 14/13 Q1016=
200905160630 METAR LPPR 160630Z 18012KT 3500 -DZ BR BKN002 BKN004 14/13
                        Q1016=
200905160600 METAR LPPR 160600Z 18011KT 3500 BR BKN002 BKN004 13/13 Q1016=
200905160530 METAR LPPR 160530Z 18011KT 2000 -DZ BR BKN002 BKN004 13/13
                        Q1016=
200905160500 METAR LPPR 160500Z 17010KT 3000 -RADZ BR BKN002 BKN004 13/13
                        Q1016=
200905160430 METAR LPPR 160430Z 17009KT 3500 BR BKN002 SCT004 13/13 Q1017=
200905160400 METAR LPPR 160400Z 17009KT 3500 -DZ BR SCT002 BKN005 13/13
                        Q1017=
200905160330 METAR LPPR 160330Z 16009KT 3500 -RADZ BR SCT003 BKN005 13/13
                        Q1017=
200905160300 METAR LPPR 160300Z 16009KT 3500 -RADZ BR SCT002 BKN005 13/13
                        Q1017=
200905160230 METAR LPPR 160230Z 16009KT 3500 -RADZ BR SCT003 SCT005 BKN015
                        13/13 Q1018 RERA=
200905160200 METAR LPPR 160200Z 17009KT 3500 RADZ BR SCT003 SCT005 BKN015
                        13/13 Q1018=
200905160130 METAR LPPR 160130Z 17010KT 3500 -RADZ BR SCT003 SCT005 BKN015
                        13/13 Q1018=
200905160100 METAR LPPR 160100Z 18009KT 4000 -RADZ BR SCT003 SCT012 BKN015
                        13/13 Q1018=
200905160030 METAR LPPR 160030Z 17007KT 140V200 5000 -RADZ BR SCT007 SCT012
                        BKN017 14/12 Q1019=
200905160000 METAR LPPR 160000Z 18009KT 7000 SCT006 SCT015 BKN018 14/12
                        Q1019=
200905152330 METAR LPPR 152330Z 17008KT 9999 BKN018 BKN022 15/11 Q1019=
200905152300 METAR LPPR 152300Z 17009KT 9999 BKN019 BKN023 15/11 Q1019=
200905152230 METAR LPPR 152230Z 20006KT 9999 BKN020 BKN025 15/11 Q1019=
200905152200 METAR LPPR 152200Z 18008KT 9999 SCT021 BKN025 15/10 Q1019=
200905152130 METAR LPPR 152130Z 20005KT 170V230 9999 SCT021 BKN025 15/10
                        Q1019=
200905152100 METAR LPPR 152100Z 22005KT 180V250 9999 BKN025 15/10 Q1019=
200905152030 METAR LPPR 152030Z 22005KT 170V260 9999 BKN025 15/10 Q1019=
200905152000 METAR LPPR 152000Z 23005G15KT 170V260 9999 BKN025 15/10 Q1019=
200905151930 METAR LPPR 151930Z 23004KT 9999 BKN025 14/10 Q1019=
200905151900 METAR LPPR 151900Z 22005KT 9999 FEW015 SCT025 15/09 Q1019=
200905151830 METAR LPPR 151830Z 26005KT 160V320 9999 FEW015 SCT060 16/09
                        Q1020=
200905151800 METAR LPPR 151800Z 24006KT 200V300 9999 FEW015 SCT022 BKN060
                        15/09 Q1020=
200905151730 METAR LPPR 151730Z 27005KT 190V340 9999 FEW015 BKN050 BKN070
                        16/09 Q1020=
200905151700 METAR LPPR 151700Z 28005KT 210V340 9999 FEW015 BKN050 BKN070
                        16/09 Q1020=
200905151630 METAR LPPR 151630Z 27008KT 210V310 9999 FEW015 SCT040 BKN060
                        16/09 Q1020=
200905151600 METAR LPPR 151600Z 27008KT 210V320 9999 FEW017 SCT040 BKN060
                        16/09 Q1020=
200905151530 METAR LPPR 151530Z VRB08G19KT 9999 FEW017 SCT040 16/09 Q1020=
200905151500 METAR LPPR 151500Z 28009KT 230V320 9999 FEW017 16/08 Q1020=
200905151430 METAR LPPR 151430Z 28010KT 240V320 9999 FEW017 SCT040 16/08
                        Q1020=
200905151400 METAR LPPR 151400Z 28008KT 240V320 9999 FEW017 SCT040 17/08
                        Q1020=
200905151330 METAR LPPR 151330Z 28009KT 240V330 9999 FEW017 16/08 Q1020=
200905151300 METAR LPPR 151300Z 27010KT 240V320 9999 FEW017 16/08 Q1020=
200905151230 METAR LPPR 151230Z 27009KT 230V310 9999 FEW015 16/07 Q1020=
200905151200 METAR LPPR 151200Z 28009KT 260V350 9999 FEW015 16/07 Q1020=
200905151130 METAR LPPR 151130Z 28010KT 250V310 9999 FEW015 16/07 Q1020=
200905151100 METAR LPPR 151100Z 29008KT 250V320 9999 FEW015 16/06 Q1021=
200905151030 METAR LPPR 151030Z 28006KT 240V340 9999 FEW015 16/07 Q1021=
200905151000 METAR LPPR 151000Z 35007KT 9999 FEW015 16/06 Q1021=
200905150930 METAR LPPR 150930Z 35006KT 300V030 9999 FEW015 15/06 Q1021=
200905150900 METAR LPPR 150900Z 02006KT 340V070 CAVOK 15/05 Q1021=
200905150830 METAR LPPR 150830Z 36005KT 320V060 CAVOK 14/06 Q1021=
200905150800 METAR LPPR 150800Z 03006KT CAVOK 13/06 Q1021=
200905150730 METAR LPPR 150730Z 04005KT 350V080 CAVOK 13/06 Q1021=
200905150700 METAR LPPR 150700Z 04005KT CAVOK 12/06 Q1021=
200905150630 METAR LPPR 150630Z VRB03KT CAVOK 10/07 Q1021=
200905150600 METAR LPPR 150600Z 00000KT CAVOK 07/06 Q1021=
200905150530 METAR LPPR 150530Z 00000KT CAVOK 08/06 Q1021=
200905150500 METAR LPPR 150500Z 00000KT CAVOK 09/06 Q1021=
200905150430 METAR LPPR 150430Z 04003KT 9999 FEW030 SCT060 10/07 Q1021=
200905150400 METAR LPPR 150400Z 00000KT 9999 SCT030 BKN040 09/08 Q1021=
200905150330 METAR LPPR 150330Z 05003KT 9999 SCT025 BKN040 09/07 Q1021=
200905150300 METAR LPPR 150300Z 00000KT 9999 SCT040 09/07 Q1021=
200905150230 METAR LPPR 150230Z 06002KT 9999 SCT040 09/07 Q1021=
200905150200 METAR LPPR 150200Z 00000KT 9999 BKN040 09/07 Q1021=
200905150130 METAR LPPR 150130Z 04003KT CAVOK 09/07 Q1021=
200905150100 METAR LPPR 150100Z 36003KT CAVOK 09/07 Q1021=
200905150030 METAR LPPR 150030Z 34003KT CAVOK 09/07 Q1021=
200905150000 METAR LPPR 150000Z 35006KT CAVOK 10/07 Q1022=
200905142330 METAR LPPR 142330Z 34007KT CAVOK 10/07 Q1022=
200905142300 METAR LPPR 142300Z 35007KT CAVOK 11/08 Q1021=
200905142230 METAR LPPR 142230Z 34008KT CAVOK 11/08 Q1021=
200905142200 METAR LPPR 142200Z 35007KT CAVOK 11/08 Q1021=
200905142130 METAR LPPR 142130Z 35006KT CAVOK 12/08 Q1021=
200905142100 METAR LPPR 142100Z 33010KT 9999 FEW018 12/08 Q1021=
200905142030 METAR LPPR 142030Z 34010KT 9999 FEW018 13/08 Q1021=
200905142000 METAR LPPR 142000Z 34012KT 9999 FEW018 13/08 Q1020=
200905141930 METAR LPPR 141930Z 33012KT 9999 FEW017 14/08 Q1020=
200905141900 METAR LPPR 141900Z 33016KT 9999 FEW015 14/09 Q1020=
200905141830 METAR LPPR 141830Z 32014KT 9999 FEW015 15/08 Q1020=
200905141800 METAR LPPR 141800Z 32017KT 290V350 9999 FEW015 15/09 Q1020=
200905141730 METAR LPPR 141730Z 32017KT 9999 FEW015 16/09 Q1020=
200905141700 METAR LPPR 141700Z 32017KT 290V350 9999 FEW015 16/08 Q1020=
200905141630 METAR LPPR 141630Z 33017KT 9999 FEW015 16/09 Q1020=
200905141600 METAR LPPR 141600Z 32016KT 290V350 9999 FEW015 SCT060 17/09
                        Q1020 WS ALL RWY=
200905141530 METAR LPPR 141530Z 32017KT 280V340 9999 FEW017 SCT060 17/09
                        Q1020=
200905141500 METAR LPPR 141500Z 33016KT 290V360 9999 FEW015 SCT060 17/09
                        Q1020=
200905141430 METAR LPPR 141430Z 32017KT 9999 FEW015 SCT060 17/07 Q1020=
200905141400 METAR LPPR 141400Z 32015KT 290V350 9999 FEW015 SCT060 17/10
                        Q1020=
200905141330 METAR LPPR 141330Z 31015KT 280V340 9999 FEW015 SCT060 17/10
                        Q1020=
200905141300 METAR LPPR 141300Z 32017KT 290V350 9999 FEW015 BKN060 17/10
                        Q1020=
200905141230 METAR LPPR 141230Z 32015KT 9999 FEW015 SCT030 17/10 Q1020=
200905141200 METAR LPPR 141200Z 33015KT 290V010 9999 SCT015 17/09 Q1020=
200905141130 METAR LPPR 141130Z 32017KT 9999 SCT015 SCT030 16/10 Q1021=
200905141100 METAR LPPR 141100Z 32015KT 290V350 9999 SCT015 SCT030 15/10
                        Q1020=
200905141030 METAR LPPR 141030Z 32013KT 9999 SCT015 16/10 Q1020=
200905141000 METAR LPPR 141000Z 32014KT 280V340 9999 SCT015 SCT030 15/10
                        Q1020=
200905140930 METAR LPPR 140930Z 32012KT 9999 SCT015 SCT030 15/10 Q1020=
200905140900 METAR LPPR 140900Z 33015KT 9999 -SHRA SCT015 BKN030 14/11
                        Q1020=
200905140830 METAR LPPR 140830Z 33010KT 9999 SCT017 BKN025 15/10 Q1020=
200905140800 METAR LPPR 140800Z 33014KT 9999 SCT017 BKN025 14/10 Q1020=
200905140730 METAR LPPR 140730Z 33009KT 9999 FEW015 13/10 Q1020=
200905140700 METAR LPPR 140700Z 34008KT 9999 SCT015 SCT080 13/09 Q1019=
200905140630 METAR LPPR 140630Z 34003KT 9999 SCT012 12/10 Q1019=
200905140600 METAR LPPR 140600Z 34002KT 9999 SCT015 BKN070 11/09 Q1019=
200905140530 METAR LPPR 140530Z 34003KT 9999 FEW015 SCT080 11/09 Q1019=
200905140500 METAR LPPR 140500Z 35006KT 9999 FEW015 SCT080 12/09 Q1018=
200905140430 METAR LPPR 140430Z 35005KT 9999 FEW015 SCT080 12/09 Q1018=
200905140400 METAR LPPR 140400Z 33008KT 9999 FEW015 SCT080 13/09 Q1018=
200905140330 METAR LPPR 140330Z 34010KT 9999 SCT015 SCT025 13/09 Q1018=
200905140300 METAR LPPR 140300Z 33010KT 9999 SCT015 SCT025 13/09 Q1018=
200905140200 METAR LPPR 140200Z 33012KT 9999 SCT015 SCT025 14/11 Q1017=
200905140130 METAR LPPR 140130Z 33013KT 9999 SCT012 BKN025 14/11 Q1017=
200905140100 METAR LPPR 140100Z 32013KT 9999 SCT012 BKN025 14/12 Q1017=
200905140030 METAR LPPR 140030Z 33010KT 9999 SCT012 BKN025 14/12 Q1017=
200905140000 METAR LPPR 140000Z 32011G21KT 9999 SCT015 BKN025 14/12 Q1017=
200905132330 METAR LPPR 132330Z 32011KT 9999 SCT012 BKN025 14/13 Q1017=
200905132300 METAR LPPR 132300Z 32010KT 9999 SCT012 BKN025 14/13 Q1017=
200905132230 METAR LPPR 132230Z 31011KT 9999 FEW009 SCT012 BKN025 14/13
                        Q1017=
200905132200 METAR LPPR 132200Z 28007KT 240V330 9999 SCT005 BKN025 15/14
                        Q1016=
200905132130 METAR LPPR 132130Z 19010KT 8000 SCT005 BKN025 14/14 Q1016=
200905132100 METAR LPPR 132100Z 21010KT 8000 SCT003 SCT012 BKN025 13/13
                        Q1016=
200905132030 METAR LPPR 132030Z 23008KT 3000 -RA BR SCT002 BKN005 13/13
                        Q1016=
200905132000 METAR LPPR 132000Z 24010KT 3000 -RA BR SCT002 BKN005 14/13
                        Q1016=
200905131930 METAR LPPR 131930Z 22007KT 190V290 4000 -RADZ BR SCT005 SCT012
                        BKN030 14/14 Q1016=
200905131900 METAR LPPR 131900Z 22006KT 190V260 7000 -RADZ SCT012 BKN025
                        15/14 Q1016=
200905131830 METAR LPPR 131830Z 23007KT 7000 -RADZ SCT012 BKN025 15/13
                        Q1016=
200905131800 METAR LPPR 131800Z 23007KT 190V270 6000 -RADZ SCT010 SCT015
                        BKN025 16/14 Q1016=
200905131730 METAR LPPR 131730Z 23007KT 9999 SCT012 BKN025 16/14 Q1016=
200905131700 METAR LPPR 131700Z 22008KT 200V260 9999 SCT012 BKN030 16/13
                        Q1016=
200905131630 METAR LPPR 131630Z 24009KT 190V260 9999 BKN012 BKN025 16/13
                        Q1016=
200905131600 METAR LPPR 131600Z 24008KT 9999 BKN012 BKN030 16/14 Q1016=
200905131530 METAR LPPR 131530Z 24008KT 180V280 9999 BKN013 BKN030 17/14
                        Q1016=
200905131500 METAR LPPR 131500Z 23007KT 200V260 9999 SCT013 BKN035 17/13
                        Q1016=
200905131430 METAR LPPR 131430Z 24006KT 200V350 9999 SCT013 BKN030 17/13
                        Q1016=
200905131400 METAR LPPR 131400Z 25008KT 210V300 9999 SCT013 BKN030 16/14
                        Q1016=
200905131330 METAR LPPR 131330Z 24008KT 200V270 9999 SCT013 BKN017 18/14
                        Q1016=
200905131300 METAR LPPR 131300Z 24007KT 210V290 9999 SCT013 BKN020 18/13
                        Q1016=
200905131230 METAR LPPR 131230Z 24007KT 190V270 9999 SCT013 SCT020 18/14
                        Q1016=
200905131200 METAR LPPR 131200Z 25007KT 210V290 9999 SCT012 SCT017 17/14
                        Q1016=
200905131130 METAR LPPR 131130Z 22009KT 190V250 9999 SCT012 BKN017 17/14
                        Q1016=
200905131100 METAR LPPR 131100Z 20007KT 9999 SCT012 BKN017 16/14 Q1016=
200905131030 METAR LPPR 131030Z 20008KT 170V240 9999 SCT008 BKN013 15/14
                        Q1016=
200905131000 METAR LPPR 131000Z 19010KT 7000 -RA SCT008 BKN013 15/14 Q1016=
200905130930 METAR LPPR 130930Z 18010KT 9999 SCT008 BKN014 15/13 Q1016=
200905130900 METAR LPPR 130900Z 18010KT 9999 BKN008 BKN015 15/13 Q1016=
200905130830 METAR LPPR 130830Z 16010KT 9999 BKN007 BKN015 14/13 Q1016=
200905130800 METAR LPPR 130800Z 15008KT 9999 BKN007 BKN015 14/13 Q1016=
200905130730 METAR LPPR 130730Z 14006KT 7000 -RA BKN007 BKN015 14/13 Q1016=
200905130700 METAR LPPR 130700Z 13004KT 8000 -RA SCT009 BKN015 13/13 Q1016=
200905130630 METAR LPPR 130630Z 13005KT 2000 -RA BR BKN008 BKN015 13/12
                        Q1015=
200905130600 METAR LPPR 130600Z 14004KT 4000 -RA BKN008 BKN015 13/12 Q1015=
200905130530 METAR LPPR 130530Z 14006KT 9999 SCT008 BKN013 BKN020 13/12
                        Q1015=
200905130500 METAR LPPR 130500Z 13006KT 9999 SCT008 BKN013 BKN020 13/12
                        Q1015=
200905130430 METAR LPPR 130430Z 14006KT 9999 SCT009 SCT015 BKN025 14/12
                        Q1014=
200905130400 METAR LPPR 130400Z 13006KT 9999 SCT013 BKN025 13/12 Q1014=
200905130330 METAR LPPR 130330Z 12006KT 9999 SCT013 BKN025 13/12 Q1014=
200905130300 METAR LPPR 130300Z 12005KT 9999 BKN013 SCT025 13/12 Q1015=
200905130230 METAR LPPR 130230Z 13004KT 100V160 9999 BKN013 SCT025 14/12
                        Q1015=
200905130200 METAR LPPR 130200Z 12004KT 9999 BKN013 SCT025 13/12 Q1015=
200905130130 METAR LPPR 130130Z 13004KT 7000 -SHRA SCT013 BKN025 14/12
                        Q1015=
200905130100 METAR LPPR 130100Z 14005KT 9999 SCT015 SCT030 14/12 Q1015=
200905130030 METAR LPPR 130030Z 13004KT 9999 SCT015 SCT030 14/12 Q1016=
200905130000 METAR LPPR 130000Z 15005KT 9999 FEW007 SCT015 14/12 Q1016=
200905122330 METAR LPPR 122330Z 16007KT 9999 SCT015 14/12 Q1016=
200905122300 METAR LPPR 122300Z 15007KT 9999 BKN015 14/12 Q1016=
200905122230 METAR LPPR 122230Z 18007KT 9999 BKN013 15/13 Q1016=
200905122200 METAR LPPR 122200Z 18007KT 9999 SCT017 15/11 Q1016=
200905122130 METAR LPPR 122130Z 18008KT 9999 SCT017 15/12 Q1016=
200905122100 METAR LPPR 122100Z 19007KT 9999 SCT017 15/11 Q1015=
200905122030 METAR LPPR 122030Z 18008KT 9999 SCT017 SCT250 15/11 Q1015=
200905122000 METAR LPPR 122000Z 18008KT 160V230 9999 SCT017 SCT250 15/11
                        Q1015=
200905121930 METAR LPPR 121930Z 20008KT 9999 SCT017 SCT250 15/11 Q1015=
200905121900 METAR LPPR 121900Z 18010KT 9999 SCT017 SCT250 16/11 Q1015=
200905121830 METAR LPPR 121830Z 19010KT 9999 SCT017 SCT250 16/11 Q1015=
200905121800 METAR LPPR 121800Z 20010KT 9999 SCT017 SCT250 17/11 Q1015=
200905121730 METAR LPPR 121730Z 21011KT 160V230 9999 BKN017 17/11 Q1015=
200905121700 METAR LPPR 121700Z 20011KT 9999 BKN017 17/11 Q1015=
200905121630 METAR LPPR 121630Z 21011KT 9999 BKN017 17/11 Q1015=
200905121600 METAR LPPR 121600Z 20011KT 9999 BKN017 17/12 Q1015=
200905121530 METAR LPPR 121530Z 20011KT 180V240 9999 BKN017 17/11 Q1015=
200905121500 METAR LPPR 121500Z 19014KT 9999 BKN017 17/11 Q1015=
200905121430 METAR LPPR 121430Z 19012KT 9999 BKN017 17/11 Q1015=
200905121400 METAR LPPR 121400Z 22011KT 9999 BKN015 18/11 Q1015=
200905121330 METAR LPPR 121330Z 20011KT 160V230 9999 BKN015 18/10 Q1015=
200905121300 METAR LPPR 121300Z 20012KT 9999 BKN015 18/12 Q1015=
200905121230 METAR LPPR 121230Z 22010KT 180V260 9999 SCT015 SCT250 17/11
                        Q1015=
200905121200 METAR LPPR 121200Z 21011KT 170V240 9999 SCT015 SCT250 16/11
                        Q1015=
200905121130 METAR LPPR 121130Z 23010KT 190V260 9999 SCT015 SCT025 17/11
                        Q1015=
200905121100 METAR LPPR 121100Z 22008KT 190V260 9999 SCT015 SCT025 16/11
                        Q1015=
200905121030 METAR LPPR 121030Z 20008KT 9999 SCT015 BKN025 16/12 Q1014=
200905121000 METAR LPPR 121000Z 22007KT 180V270 9999 SCT015 BKN025 16/12
                        Q1014=
200905120930 METAR LPPR 120930Z 22006KT 180V270 9999 FEW015 BKN025 16/12
                        Q1014=
200905120900 METAR LPPR 120900Z 23004KT 180V270 9999 FEW015 BKN035 15/11
                        Q1014=
200905120830 METAR LPPR 120830Z 28006KT 220V320 9999 FEW015 BKN035 15/11
                        Q1014=
200905120800 METAR LPPR 120800Z 29005KT 250V330 9999 FEW015 BKN035 15/11
                        Q1013=
200905120730 METAR LPPR 120730Z 29005KT 250V330 9999 FEW013 BKN030 14/11
                        Q1013=
200905120700 METAR LPPR 120700Z 29008KT 260V330 9999 FEW013 BKN020 13/12
                        Q1013=
200905120630 METAR LPPR 120630Z 28010KT 250V320 9999 -SHRA SCT008 BKN013
                        14/13 Q1012=
200905120600 METAR LPPR 120600Z 26008G18KT 180V320 9999 -SHRA FEW003 BKN008
                        BKN013 15/13 Q1012=
200905120530 METAR LPPR 120530Z 20006KT 150V270 9999 SCT005 SCT013 BKN025
                        15/14 Q1012=
200905120500 METAR LPPR 120500Z 17008KT 9999 SCT005 SCT012 BKN025 15/14
                        Q1012=
200905120430 METAR LPPR 120430Z 18008KT 9999 SCT005 SCT012 BKN020 15/14
                        Q1012=
200905120400 METAR LPPR 120400Z 20007KT 9999 SCT006 SCT012 BKN020 15/14
                        Q1012=
200905120330 METAR LPPR 120330Z 18007KT 9999 SCT008 SCT012 15/14 Q1012=
200905120300 METAR LPPR 120300Z 18009KT 9999 FEW008 SCT012 BKN030 15/14
                        Q1012=
200905120230 METAR LPPR 120230Z 18008KT 9999 SCT012 SCT030 15/13 Q1012=
200905120200 METAR LPPR 120200Z 18005KT 9999 FEW008 SCT012 15/13 Q1012=
200905120130 METAR LPPR 120130Z 23005KT 9999 SCT012 SCT030 15/14 Q1012=
200905120100 METAR LPPR 120100Z VRB03KT 9999 FEW007 SCT012 BKN040 15/13
                        Q1012=
200905120030 METAR LPPR 120030Z 23004KT 9999 SCT005 BKN030 15/13 Q1012=
200905120000 METAR LPPR 120000Z 23005KT 200V260 9999 SCT005 BKN030 15/13
                        Q1012=
200905112330 METAR LPPR 112330Z 23006KT 200V260 9999 SCT005 BKN013 15/14
                        Q1012=
200905112300 METAR LPPR 112300Z 22005KT 200V260 9999 SCT005 BKN013 15/14
                        Q1012=
200905112230 METAR LPPR 112230Z 23006KT 200V260 9999 SCT005 BKN013 15/14
                        Q1012=
200905112200 METAR LPPR 112200Z 23006KT 200V260 9999 SCT005 BKN013 15/14
                        Q1012=
200905112130 METAR LPPR 112130Z 22007KT 200V270 9999 SCT005 BKN013 15/14
                        Q1012=
200905112100 METAR LPPR 112100Z 22006KT 180V240 9999 FEW007 SCT013 BKN020
                        15/14 Q1011=
200905112030 METAR LPPR 112030Z 23007KT 9999 FEW007 SCT015 BKN030 16/14
                        Q1011=
200905112000 METAR LPPR 112000Z 19011KT 9999 SCT007 BKN030 16/15 Q1011=
200905111930 METAR LPPR 111930Z 22009G19KT 160V240 9999 FEW008 SCT012
                        BKN030 16/14 Q1010=
200905111900 METAR LPPR 111900Z 22011KT 9999 FEW008 SCT013 BKN020 16/14
                        Q1010=
200905111830 METAR LPPR 111830Z 22010KT 9999 FEW008 SCT015 17/14 Q1010=
200905111800 METAR LPPR 111800Z 22011KT 9999 FEW008 SCT015 BKN030 17/15
                        Q1010=
200905111730 METAR LPPR 111730Z 23012KT 200V260 9999 FEW008 SCT015 BKN030
                        17/15 Q1010=
200905111700 METAR LPPR 111700Z 21011KT 9999 SCT008 BKN015 18/15 Q1010=
200905111630 METAR LPPR 111630Z 22014KT 9999 SCT008 BKN015 18/15 Q1009=
200905111600 METAR LPPR 111600Z 22013KT 9999 SCT008 BKN015 18/15 Q1009=
200905111530 METAR LPPR 111530Z 22014KT 190V250 9999 SCT008 BKN015 17/15
                        Q1009 WS ALL RWY=
200905111500 METAR LPPR 111500Z 20017KT 9999 SCT006 BKN013 17/15 Q1009
                        WS ALL RWY=
200905111430 METAR LPPR 111430Z 19016KT 9999 SCT007 BKN013 18/15 Q1008
                        WS ALL RWY=
200905111400 METAR LPPR 111400Z 20016KT 9999 SCT006 BKN013 18/15 Q1008
                        WS ALL RWY=
200905111330 METAR LPPR 111330Z 18015KT 9999 SCT006 BKN013 18/16 Q1008=
200905111300 METAR LPPR 111300Z 19013KT 9999 SCT006 BKN015 18/16 Q1007=
200905111230 METAR LPPR 111230Z 19013KT 9999 SCT013 SCT025 18/15 Q1007=
200905111200 METAR LPPR 111200Z 18014KT 9999 SCT015 SCT025 BKN060 18/15
                        Q1007=
200905111130 METAR LPPR 111130Z 16012KT 9999 SCT013 SCT020 BKN060 18/16
                        Q1007=
200905111100 METAR LPPR 111100Z 16010KT 8000 SCT013 BKN020 16/15 Q1007=
200905111030 METAR LPPR 111030Z 13008KT 090V170 5000 -RA BR SCT013 BKN020
                        16/14 Q1007=
200905111000 METAR LPPR 111000Z 13010KT 8000 -RA SCT017 BKN020 15/14 Q1007=
200905110930 METAR LPPR 110930Z 12008KT 100V160 8000 -RA SCT013 BKN017
                        15/14 Q1007=
200905110900 METAR LPPR 110900Z 12006KT 8000 -RA SCT015 BKN020 15/14 Q1007=
200905110830 METAR LPPR 110830Z 14010KT 100V160 5000 -RA BR SCT015 BKN020
                        15/13 Q1007=
200905110800 METAR LPPR 110800Z 14009KT 100V160 9999 -RA BKN020 BKN070
                        16/13 Q1007=
200905110730 METAR LPPR 110730Z 13006KT 9999 -RA BKN025 BKN070 15/13 Q1007=
200905110700 METAR LPPR 110700Z 13006KT 9999 BKN025 BKN070 15/12 Q1007=
200905110630 METAR LPPR 110630Z 12008KT 9999 BKN025 BKN070 14/12 Q1007=
200905110600 METAR LPPR 110600Z 11006KT 9999 -RA BKN030 BKN070 14/12 Q1006=
200905110530 METAR LPPR 110530Z 13008KT 9999 BKN030 BKN070 14/12 Q1007=
200905110500 METAR LPPR 110500Z 15009KT 110V170 9999 -RA BKN030 BKN070
                        14/12 Q1007=
200905110430 METAR LPPR 110430Z 14006KT 9999 -RA SCT030 BKN070 15/12 Q1007=
200905110400 METAR LPPR 110400Z 16005KT 9999 -RA SCT030 BKN070 15/13 Q1007=
200905110330 METAR LPPR 110330Z 13005KT 9999 FEW045 SCT070 15/12 Q1007=
200905110300 METAR LPPR 110300Z VRB03KT 9999 FEW045 BKN070 15/13 Q1007=
200905110230 METAR LPPR 110230Z 11004KT 090V150 CAVOK 15/12 Q1007=
200905110200 METAR LPPR 110200Z 09004KT 070V130 9000 -RA BKN070 14/13
                        Q1007=
200905110130 METAR LPPR 110130Z 00000KT CAVOK 14/13 Q1007=
200905110100 METAR LPPR 110100Z 00000KT 9999 BKN080 BKN200 14/13 Q1008=
200905110030 METAR LPPR 110030Z 08002KT 9999 FEW015 BKN070 15/13 Q1008=
200905110000 METAR LPPR 110000Z 10003KT 9999 FEW015 SCT040 BKN080 15/13
                        Q1008=
200905102330 METAR LPPR 102330Z 12002KT 9999 FEW015 SCT040 BKN070 15/13
                        Q1008=
200905102300 METAR LPPR 102300Z 00000KT 9999 -RA FEW015 SCT040 BKN070
                        15/12 Q1008=
200905102230 METAR LPPR 102230Z 11006KT 8000 -RA FEW015 SCT040 BKN070
                        15/13 Q1009=
200905102200 METAR LPPR 102200Z 13006KT 9999 FEW015 SCT030 BKN070 15/13
                        Q1009=
200905102130 METAR LPPR 102130Z 13005KT 9999 SCT015 SCT050 BKN080 15/13
                        Q1009=
200905102100 METAR LPPR 102100Z 14007KT 9999 SCT015 SCT045 BKN080 16/13
                        Q1009=
200905102030 METAR LPPR 102030Z 16007KT 9999 SCT015 BKN045 15/14 Q1009=
200905102000 METAR LPPR 102000Z 17008KT 9999 FEW008 SCT015 BKN035 15/14
                        Q1009=
200905101930 METAR LPPR 101930Z 17009KT 8000 FEW008 BKN015 BKN030 16/14
                        Q1009=
200905101900 METAR LPPR 101900Z 19009KT 8000 FEW008 BKN015 BKN030 16/14
                        Q1009=
200905101830 METAR LPPR 101830Z 19011KT 8000 FEW008 SCT015 BKN040 16/14
                        Q1009=
200905101800 METAR LPPR 101800Z 20013KT 8000 FEW008 SCT015 BKN040 16/14
                        Q1009=
200905101730 METAR LPPR 101730Z 19011KT 7000 SCT006 SCT008 BKN010 16/15
                        Q1009=
200905101700 METAR LPPR 101700Z 21010KT 180V250 5000 BR SCT006 SCT008
                        BKN012 15/15 Q1009 RERA=
200905101630 METAR LPPR 101630Z 22012KT 4000 RA BR SCT003 BKN006 16/15
                        Q1009 WS ALL RWY=
200905101600 METAR LPPR 101600Z 20017KT 170V230 5000 -RA BR SCT003 SCT005
                        BKN025 17/16 Q1009 WS ALL RWY=
200905101530 METAR LPPR 101530Z 20016KT 7000 SCT006 SCT020 FEW025TCU BKN030
                        18/16 Q1009 WS ALL RWY=
200905101500 METAR LPPR 101500Z 21015KT 180V240 8000 FEW020 FEW025TCU
                        SCT040 BKN080 19/16 Q1008 WS ALL
                        RWY=
200905101430 METAR LPPR 101430Z 20017KT 9999 FEW020 SCT040 BKN080 21/16
                        Q1008 WS ALL RWY=
200905101400 METAR LPPR 101400Z 23009KT 190V270 9999 FEW020 SCT040 BKN080
                        21/15 Q1008=
200905101330 METAR LPPR 101330Z 22009KT 9999 SCT015 SCT040 BKN080 21/14
                        Q1008=
200905101300 METAR LPPR 101300Z 19011KT 9999 FEW015 SCT080 BKN250 23/14
                        Q1008=
200905101230 METAR LPPR 101230Z 18010KT 150V210 9999 FEW015 SCT040 BKN080
                        23/14 Q1009=
200905101200 METAR LPPR 101200Z 20008KT 9999 FEW012 SCT040 BKN080 21/14
                        Q1009=
200905101130 METAR LPPR 101130Z 21007KT 180V240 9999 FEW012 SCT030 BKN070
                        21/13 Q1009=
200905101100 METAR LPPR 101100Z 20006KT 170V240 9999 FEW012 SCT035 BKN080
                        21/13 Q1009=
200905101030 METAR LPPR 101030Z 19009KT 170V240 9999 FEW012 SCT035 BKN080
                        21/13 Q1009=
200905101000 METAR LPPR 101000Z 12004KT 100V160 9999 FEW012 SCT040 BKN070
                        20/14 Q1009=
200905100930 METAR LPPR 100930Z VRB03KT 9999 FEW012 SCT035 BKN070 19/14
                        Q1009=
200905100900 METAR LPPR 100900Z 12006KT 9999 FEW012 SCT035 BKN070 18/13
                        Q1009=
200905100830 METAR LPPR 100830Z 12008KT 9999 FEW012 SCT040 BKN070 19/12
                        Q1009=
200905100800 METAR LPPR 100800Z 10006KT CAVOK 18/12 Q1009=
200905100730 METAR LPPR 100730Z 11005KT CAVOK 18/11 Q1009=
200905100700 METAR LPPR 100700Z 11005KT CAVOK 18/11 Q1009=
200905100630 METAR LPPR 100630Z 11006KT CAVOK 17/11 Q1009=
200905100600 METAR LPPR 100600Z 10007KT CAVOK 17/11 Q1009=
200905100530 METAR LPPR 100530Z 10006KT CAVOK 16/11 Q1009=
200905100500 METAR LPPR 100500Z 10007KT CAVOK 16/11 Q1009=
200905100430 METAR LPPR 100430Z 10006KT 070V130 CAVOK 16/10 Q1009=
200905100400 METAR LPPR 100400Z 10005KT CAVOK 16/10 Q1009=
200905100330 METAR LPPR 100330Z 10004KT CAVOK 16/10 Q1009=
200905100300 METAR LPPR 100300Z 11005KT CAVOK 17/10 Q1009=
200905100230 METAR LPPR 100230Z 11006KT CAVOK 17/11 Q1009=
200905100200 METAR LPPR 100200Z 10005KT CAVOK 17/11 Q1009=
200905100130 METAR LPPR 100130Z 09005KT CAVOK 15/11 Q1010=
200905100100 METAR COR LPPR 100100Z 00000KT 8000 SCT090 SCT250 14/12 Q1010=
200905100030 METAR LPPR 100030Z 34003KT 8000 SCT090 SCT250 15/13 Q1010=
200905100000 METAR LPPR 100000Z VRB03KT 8000 SCT090 SCT250 15/12 Q1011=
200905092330 METAR LPPR 092330Z 00000KT 8000 FEW090 SCT250 14/13 Q1011=
200905092300 METAR LPPR 092300Z 00000KT 8000 FEW090 SCT250 14/12 Q1011=
200905092230 METAR LPPR 092230Z 00000KT 8000 FEW090 SCT250 14/12 Q1011=
200905092200 METAR LPPR 092200Z 35003KT CAVOK 15/13 Q1011=
200905092130 METAR LPPR 092130Z 35003KT CAVOK 15/13 Q1011=
200905092100 METAR LPPR 092100Z 35002KT CAVOK 15/13 Q1011=
200905092030 METAR LPPR 092030Z 35003KT 8000 FEW090 SCT250 15/13 Q1011=
200905092000 METAR LPPR 092000Z VRB03KT CAVOK 16/13 Q1011=
200905091930 METAR LPPR 091930Z 31003KT CAVOK 17/13 Q1011=
200905091900 METAR LPPR 091900Z 32004KT 280V350 CAVOK 18/13 Q1011=
200905091830 METAR LPPR 091830Z 28003KT CAVOK 19/13 Q1011=
200905091800 METAR LPPR 091800Z 30004KT 260V330 CAVOK 20/13 Q1011=
200905091730 METAR LPPR 091730Z 33004KT 280V360 CAVOK 20/12 Q1011=
200905091700 METAR LPPR 091700Z 33006KT 290V360 CAVOK 19/13 Q1011=
200905091630 METAR LPPR 091630Z 33006KT CAVOK 19/12 Q1012=
200905091600 METAR LPPR 091600Z 28007KT 230V320 CAVOK 18/12 Q1012=
200905091530 METAR LPPR 091530Z 25008KT 210V280 CAVOK 19/12 Q1012=
200905091500 METAR LPPR 091500Z 27005KT 220V290 CAVOK 19/13 Q1012=
200905091430 METAR LPPR 091430Z 28008KT CAVOK 19/13 Q1013=
200905091400 METAR LPPR 091400Z VRB03KT CAVOK 20/13 Q1013=
200905091330 METAR LPPR 091330Z 28006KT 230V330 CAVOK 19/12 Q1013=
200905091300 METAR LPPR 091300Z 29005KT 260V330 CAVOK 18/12 Q1014=
200905091230 METAR LPPR 091230Z 30007KT 270V330 CAVOK 18/12 Q1014=
200905091200 METAR LPPR 091200Z 25006KT 190V330 9999 FEW017 18/12 Q1014=
200905091130 METAR LPPR 091130Z 22004KT 170V280 9999 FEW017 SCT250 19/12
                        Q1015=
200905091100 METAR LPPR 091100Z 26005G18KT 210V310 9999 FEW017 SCT250
                        18/12 Q1015=
200905091030 METAR LPPR 091030Z VRB04KT 9999 SCT017 SCT025 17/11 Q1015=
200905091000 METAR LPPR 091000Z 23005KT 180V290 9999 SCT017 BKN025 17/11
                        Q1015=
200905090930 METAR LPPR 090930Z VRB03KT 9999 FEW015 BKN020 17/11 Q1015=
200905090900 METAR LPPR 090900Z VRB02KT 9999 FEW015 BKN020 16/11 Q1015=
200905090830 METAR LPPR 090830Z 16004KT 130V200 9999 FEW015 BKN020 15/11
                        Q1015=
200905090800 METAR LPPR 090800Z VRB03KT 9999 FEW015 BKN020 15/11 Q1015=
200905090730 METAR LPPR 090730Z VRB03KT 9999 FEW015 BKN020 14/11 Q1015=
200905090700 METAR LPPR 090700Z VRB03KT 9999 FEW015 BKN020 14/11 Q1014=
200905090630 METAR LPPR 090630Z VRB02KT 9999 FEW015 BKN020 14/11 Q1014=
200905090600 METAR LPPR 090600Z 11005KT 9999 FEW015 BKN020 14/11 Q1014=
200905090530 METAR LPPR 090530Z 11004KT 9999 FEW015 BKN020 14/10 Q1014=
200905090500 METAR LPPR 090500Z 10004KT 070V130 9999 SCT015 BKN020 14/11
                        Q1014=
200905090430 METAR LPPR 090430Z 12004KT 9999 SCT015 BKN020 14/11 Q1014=
200905090400 METAR LPPR 090400Z 15004KT 120V180 9999 SCT015 BKN020 14/11
                        Q1014=
200905090330 METAR LPPR 090330Z 19005KT 9999 SCT015 BKN017 14/11 Q1014=
200905090300 METAR LPPR 090300Z 13003KT 9999 SCT012 BKN016 14/11 Q1014=
200905090230 METAR LPPR 090230Z 14005KT 100V160 9999 SCT012 BKN016 14/11
                        Q1015=
200905090200 METAR LPPR 090200Z 12003KT 9999 SCT012 BKN016 14/11 Q1015=
200905090130 METAR LPPR 090130Z 13004KT 100V160 9999 SCT012 SCT015 14/12
                        Q1015=
200905090100 METAR LPPR 090100Z 12003KT 9999 SCT012 SCT015 14/12 Q1015=
200905090030 METAR LPPR 090030Z 16005KT 9999 SCT012 SCT015 13/12 Q1015=
200905090000 METAR LPPR 090000Z 16005KT 9999 SCT012 SCT015 14/12 Q1016=
200905082330 METAR LPPR 082330Z 18006KT 9999 SCT012 SCT015 14/12 Q1016=
200905082300 METAR LPPR 082300Z 18005KT 9999 FEW009 SCT012 13/12 Q1016=
200905082230 METAR LPPR 082230Z 17005KT 9999 SCT015 13/12 Q1016=
200905082200 METAR LPPR 082200Z 18005KT 9999 SCT015 SCT030 13/12 Q1016=
200905082130 METAR LPPR 082130Z 19004KT 9999 SCT015 SCT030 14/12 Q1016=
200905082100 METAR LPPR 082100Z VRB03KT 9999 FEW012 SCT030 14/12 Q1016=
200905082030 METAR LPPR 082030Z 20004KT 9999 SCT012 SCT030 14/12 Q1016=
200905082000 METAR LPPR 082000Z 22004KT 9999 SCT012 SCT030 BKN100 14/12
                        Q1015=
200905081930 METAR LPPR 081930Z 22007KT 9999 SCT012 SCT030 BKN100 15/13
                        Q1015=
200905081900 METAR LPPR 081900Z 23006KT 160V260 9999 SCT012 SCT030 BKN100
                        16/13 Q1015=
200905081830 METAR LPPR 081830Z 21007KT 9999 SCT011 SCT030 BKN100 16/13
                        Q1015=
200905081800 METAR LPPR 081800Z 22005KT 190V260 9999 SCT012 SCT030 BKN100
                        16/13 Q1015=
200905081730 METAR LPPR 081730Z 23007KT 160V330 9999 SCT011 SCT030 BKN250
                        17/13 Q1015=
200905081700 METAR LPPR 081700Z 21008KT 180V260 9999 SCT012 SCT030 BKN250
                        17/13 Q1015=
200905081630 METAR LPPR 081630Z 21007KT 170V250 9999 SCT015 SCT030 BKN100
                        18/13 Q1015=
200905081600 METAR LPPR 081600Z 22006KT 180V260 9999 SCT015 SCT025 BKN100
                        18/13 Q1015=
200905081530 METAR LPPR 081530Z 22009KT 180V240 9999 SCT015 SCT025 BKN100
                        17/13 Q1015=
200905081500 METAR LPPR 081500Z 22009KT 180V250 9999 FEW015 SCT025 BKN080
                        17/12 Q1015=
200905081430 METAR LPPR 081430Z 24008KT 200V260 9999 FEW015 SCT025 BKN080
                        18/12 Q1016=
200905081400 METAR LPPR 081400Z 22007KT 180V260 9999 FEW015 SCT025 BKN080
                        18/13 Q1016=
200905081330 METAR LPPR 081330Z 25006KT 180V280 9999 SCT015 SCT023 BKN070
                        17/13 Q1016=
200905081300 METAR LPPR 081300Z 19004KT 130V250 9999 SCT015 BKN023 17/12
                        Q1016=
200905081230 METAR LPPR 081230Z 26005KT 220V300 9999 FEW015 BKN025 17/13
                        Q1016=
200905081200 METAR LPPR 081200Z VRB04KT 9999 FEW015 BKN025 17/12 Q1016=
200905081130 METAR LPPR 081130Z 24007KT 210V280 9999 FEW015 BKN025 17/12
                        Q1017=
200905081100 METAR LPPR 081100Z VRB02KT 9999 FEW015 BKN025 16/13 Q1016=
200905081030 METAR LPPR 081030Z 29004KT 190V350 9999 FEW015 BKN025 16/13
                        Q1016=
200905081000 METAR LPPR 081000Z 28004KT 250V020 9999 FEW015 BKN025 16/12
                        Q1016=
200905080930 METAR LPPR 080930Z 00000KT 9999 FEW015 BKN025 16/12 Q1016=
200905080900 METAR LPPR 080900Z 30004KT 260V330 9999 FEW015 BKN025 16/12
                        Q1016=
200905080830 METAR LPPR 080830Z VRB02KT 9999 FEW015 BKN025 16/11 Q1016=
200905080800 METAR LPPR 080800Z VRB03KT 9999 FEW015 BKN025 15/11 Q1016=
200905080730 METAR LPPR 080730Z VRB03KT 9999 SCT015 BKN022 15/10 Q1016=
200905080700 METAR LPPR 080700Z VRB03KT 9999 SCT015 BKN022 14/10 Q1016=
200905080630 METAR LPPR 080630Z VRB03KT 9999 SCT015 BKN020 14/11 Q1016=
200905080600 METAR LPPR 080600Z 00000KT 9999 SCT015 BKN020 14/10 Q1016=
200905080530 METAR LPPR 080530Z 00000KT 9999 FEW009 SCT015 BKN023 14/11
                        Q1016=
200905080500 METAR LPPR 080500Z 00000KT 9999 FEW009 SCT015 BKN023 14/11
                        Q1016=
200905080430 METAR LPPR 080430Z 00000KT 9999 FEW009 SCT015 BKN023 14/12
                        Q1016=
200905080400 METAR LPPR 080400Z 04003KT 9999 SCT009 SCT013 BKN020 14/12
                        Q1016=
200905080330 METAR LPPR 080330Z 00000KT 9000 SCT009 BKN012 14/12 Q1016=
200905080300 METAR LPPR 080300Z 00000KT 8000 BKN009 BKN011 14/12 Q1017=
200905080230 METAR LPPR 080230Z 00000KT 8000 BKN009 BKN011 13/12 Q1017=
200905080200 METAR LPPR 080200Z 00000KT 8000 BKN009 BKN011 13/11 Q1017=
200905080130 METAR LPPR 080130Z 00000KT 9999 BKN009 BKN011 13/11 Q1017=
200905080100 METAR LPPR 080100Z 00000KT 9999 SCT009 BKN012 13/11 Q1017=
200905080030 METAR LPPR 080030Z 00000KT 9999 FEW009 SCT017 BKN250 12/10
                        Q1017=
200905080000 METAR LPPR 080000Z 00000KT 9999 FEW009 BKN250 12/10 Q1017=
200905072330 METAR LPPR 072330Z 00000KT CAVOK 12/10 Q1018=
200905072300 METAR LPPR 072300Z 00000KT 9999 FEW017 BKN250 13/10 Q1018=
200905072230 METAR LPPR 072230Z 00000KT 9999 FEW020 BKN250 13/11 Q1018=
200905072200 METAR LPPR 072200Z 00000KT 9999 FEW020 BKN250 13/11 Q1018=
200905072130 METAR LPPR 072130Z 00000KT 9999 FEW020 BKN250 13/10 Q1019=
200905072100 METAR LPPR 072100Z 00000KT CAVOK 14/10 Q1018=
200905072030 METAR LPPR 072030Z 00000KT CAVOK 14/10 Q1018=
200905072000 METAR LPPR 072000Z 00000KT CAVOK 14/10 Q1018=
200905071930 METAR LPPR 071930Z 29002KT 9999 FEW040 BKN200 14/10 Q1018=
200905071900 METAR LPPR 071900Z VRB03KT 9999 FEW020 BKN200 15/11 Q1018=
200905071830 METAR LPPR 071830Z VRB03KT 9999 FEW020 BKN200 15/11 Q1018=
200905071800 METAR LPPR 071800Z 26005KT 190V310 9999 FEW020 BKN200 15/11
                        Q1018=
200905071730 METAR LPPR 071730Z 28005KT 170V330 9999 FEW020 BKN200 16/11
                        Q1018=
200905071700 METAR LPPR 071700Z 26005KT 210V300 9999 FEW020 BKN200 16/11
                        Q1018=
200905071630 METAR LPPR 071630Z 25005KT 210V320 9999 FEW020 BKN200 17/11
                        Q1018=
200905071600 METAR LPPR 071600Z 25006KT 190V330 9999 FEW020 BKN200 17/11
                        Q1018=
200905071530 METAR LPPR 071530Z 25004KT 180V320 9999 SCT020 BKN200 17/11
                        Q1018=
200905071500 METAR LPPR 071500Z 25007KT 200V290 9999 SCT020 BKN200 17/12
                        Q1019=
200905071430 METAR LPPR 071430Z 23007KT 200V260 9999 FEW020 BKN200 17/11
                        Q1019=
200905071400 METAR LPPR 071400Z 23007KT 180V280 9999 FEW020 BKN200 17/11
                        Q1019=
200905071330 METAR LPPR 071330Z 24006KT 170V290 9999 FEW020 BKN200 17/11
                        Q1019=
200905071300 METAR LPPR 071300Z 25006KT 210V290 9999 SCT015 BKN200 17/11
                        Q1019=
200905071230 METAR LPPR 071230Z 23008KT 180V260 9999 SCT015 BKN200 17/12
                        Q1019=
200905071200 METAR LPPR 071200Z 22008KT 160V260 9999 SCT015 18/11 Q1020=
200905071130 METAR LPPR 071130Z 18008KT 130V230 9999 SCT015 SCT020 17/11
                        Q1020=
200905071100 METAR LPPR 071100Z 18008KT 160V220 9999 SCT015 SCT020 16/11
                        Q1020=
200905071030 METAR LPPR 071030Z 22007KT 190V250 9999 SCT015 SCT020 16/11
                        Q1020=
200905071000 METAR LPPR 071000Z 21006KT 170V280 9999 FEW014 BKN016 16/11
                        Q1020=
200905070930 METAR LPPR 070930Z 19005KT 110V250 9999 FEW012 BKN016 15/11
                        Q1020=
200905070900 METAR LPPR 070900Z 18006KT 160V220 9999 FEW012 BKN016 15/11
                        Q1020=
200905070830 METAR LPPR 070830Z 20006KT 170V240 9999 FEW012 BKN016 14/11
                        Q1020=
200905070800 METAR LPPR 070800Z 20005KT 9999 FEW009 BKN014 14/11 Q1020=
200905070730 METAR LPPR 070730Z 18006KT 140V220 9999 FEW009 BKN014 14/11
                        Q1020=
200905070700 METAR LPPR 070700Z 17004KT 150V250 9999 SCT009 BKN014 14/11
                        Q1020=
200905070630 METAR LPPR 070630Z 16006KT 9999 SCT009 BKN015 14/11 Q1020=
200905070600 METAR LPPR 070600Z 18006KT 130V200 9999 SCT008 BKN012 14/11
                        Q1019=
200905070530 METAR LPPR 070530Z 17005KT 9999 SCT008 BKN012 14/11 Q1019=
200905070500 METAR LPPR 070500Z 16007KT 9999 SCT008 BKN012 13/11 Q1019=
200905070430 METAR LPPR 070430Z 16005KT 130V190 9999 SCT008 BKN012 14/11
                        Q1019=
200905070400 METAR LPPR 070400Z 16005KT 130V190 8000 BKN007 14/11 Q1020=
200905070330 METAR LPPR 070330Z 18007KT 8000 BKN007 14/12 Q1020=
200905070300 METAR LPPR 070300Z 21005KT 5000 BR BKN007 14/12 Q1020=
200905070230 METAR LPPR 070230Z 17005KT 140V200 5000 BR SCT006 SCT011
                        14/12 Q1020=
200905070200 METAR LPPR 070200Z 18004KT 150V230 5000 BR SCT006 SCT009
                        14/12 Q1020=
200905070130 METAR LPPR 070130Z 19004KT 5000 BR SCT007 SCT009 14/12 Q1020=
200905070100 METAR LPPR 070100Z 16004KT 130V200 5000 BR BKN007 14/12 Q1020=
200905070030 METAR LPPR 070030Z 20004KT 170V240 3000 BR BKN006 14/13 Q1021=
200905070000 METAR LPPR 070000Z 22003KT 3000 BR BKN006 14/13 Q1021=
200905062330 METAR LPPR 062330Z 22004KT 3000 BR BKN003 14/13 Q1021=
200905062300 METAR LPPR 062300Z 23004KT 180V260 3000 BR BKN003 14/13 Q1021=
200905062230 METAR LPPR 062230Z VRB02KT 2500 BR VCFG BKN002 14/14 Q1021=
200905062200 METAR LPPR 062200Z VRB02KT 2500 BR VCFG BKN002 14/14 Q1021=
200905062130 METAR LPPR 062130Z VRB03KT 2500 BR VCFG BKN001 14/14 Q1021=
200905062100 METAR LPPR 062100Z 22004KT 190V260 1500 R17/1300VP1500 R35/P1500
                        BR=
200905062030 METAR LPPR 062030Z 23004G14KT 110V270 2500 BR BKN002 15/15
                        Q1020=
200905062000 METAR LPPR 062000Z VRB03KT 4000 BR FEW008 16/14 Q1020=
200905061930 METAR LPPR 061930Z 22002KT 5000 BR SKC 17/15 Q1020=
200905061900 METAR LPPR 061900Z VRB03KT CAVOK 18/14 Q1020=
200905061830 METAR LPPR 061830Z 25004KT CAVOK 20/14 Q1020=
200905061800 METAR LPPR 061800Z VRB03KT CAVOK 20/14 Q1020=
200905061730 METAR LPPR 061730Z VRB03KT CAVOK 21/14 Q1020=
200905061700 METAR LPPR 061700Z VRB03KT CAVOK 21/13 Q1020=
200905061630 METAR LPPR 061630Z 24006KT 150V290 CAVOK 20/14 Q1020=
200905061600 METAR LPPR 061600Z 24004KT 180V310 CAVOK 21/15 Q1020=
200905061530 METAR LPPR 061530Z 27005KT 210V300 CAVOK 20/15 Q1021=
200905061500 METAR LPPR 061500Z 23006KT 200V270 CAVOK 21/15 Q1021=
200905061430 METAR LPPR 061430Z 25005KT 200V280 CAVOK 21/14 Q1021=
200905061400 METAR LPPR 061400Z 26006KT 210V280 CAVOK 20/15 Q1021=
200905061330 METAR LPPR 061330Z 24006KT CAVOK 21/15 Q1021=
200905061300 METAR LPPR 061300Z 25005KT 180V290 CAVOK 21/16 Q1021=
200905061230 METAR LPPR 061230Z 21008KT 180V240 CAVOK 21/15 Q1021=
200905061200 METAR LPPR 061200Z 19009KT 170V240 CAVOK 23/13 Q1021=
200905061130 METAR LPPR 061130Z 19010KT CAVOK 24/12 Q1021=
200905061100 METAR LPPR 061100Z 19009KT CAVOK 23/11 Q1021=
200905061030 METAR LPPR 061030Z 20006KT 170V230 CAVOK 22/13 Q1021=
200905061000 METAR LPPR 061000Z 19006KT CAVOK 21/12 Q1021=
200905060930 METAR LPPR 060930Z 20005KT 170V230 CAVOK 21/12 Q1021=
200905060900 METAR LPPR 060900Z 22004KT 190V260 CAVOK 21/12 Q1021=
200905060830 METAR LPPR 060830Z 17004KT 140V220 CAVOK 21/11 Q1021=
200905060800 METAR LPPR 060800Z 16004KT CAVOK 20/11 Q1021=
200905060730 METAR LPPR 060730Z 17005KT CAVOK 19/11 Q1021=
200905060700 METAR LPPR 060700Z 13004KT CAVOK 17/12 Q1020=
200905060630 METAR LPPR 060630Z 12003KT CAVOK 16/12 Q1020=
200905060600 METAR LPPR 060600Z 11006KT CAVOK 15/11 Q1020=
200905060530 METAR LPPR 060530Z 00000KT CAVOK 15/12 Q1020=
200905060500 METAR LPPR 060500Z 00000KT CAVOK 14/11 Q1020=
200905060430 METAR LPPR 060430Z 00000KT CAVOK 14/12 Q1020=
200905060400 METAR LPPR 060400Z 00000KT CAVOK 14/12 Q1020=
200905060330 METAR LPPR 060330Z 00000KT CAVOK 15/12 Q1020=
200905060300 METAR LPPR 060300Z 00000KT CAVOK 15/12 Q1020=
200905060230 METAR LPPR 060230Z 00000KT CAVOK 15/12 Q1020=
200905060200 METAR LPPR 060200Z 00000KT CAVOK 15/12 Q1020=
200905060130 METAR LPPR 060130Z 00000KT CAVOK 16/12 Q1020=
200905060100 METAR LPPR 060100Z 00000KT CAVOK 15/12 Q1020=
200905060030 METAR LPPR 060030Z 00000KT CAVOK 15/12 Q1021=
200905060000 METAR LPPR 060000Z 00000KT CAVOK 15/12 Q1021=
200905052330 METAR LPPR 052330Z 00000KT CAVOK 16/12 Q1021=
200905052300 METAR LPPR 052300Z 00000KT CAVOK 16/12 Q1021=
200905052230 METAR LPPR 052230Z 00000KT CAVOK 16/12 Q1021=
200905052200 METAR LPPR 052200Z 00000KT CAVOK 17/12 Q1021=
200905052130 METAR LPPR 052130Z 02003KT CAVOK 17/11 Q1021=
200905052100 METAR LPPR 052100Z 36004KT CAVOK 17/11 Q1021=
200905052030 METAR LPPR 052030Z 35004KT CAVOK 18/11 Q1021=
200905052000 METAR LPPR 052000Z 32003KT CAVOK 19/11 Q1021=
200905051930 METAR LPPR 051930Z 32004KT 280V340 CAVOK 21/11 Q1021=
200905051900 METAR LPPR 051900Z 33007KT CAVOK 22/11 Q1021=
200905051830 METAR LPPR 051830Z 33007KT CAVOK 23/11 Q1021=
200905051800 METAR LPPR 051800Z 34011KT CAVOK 23/11 Q1021=
200905051730 METAR LPPR 051730Z 33012KT CAVOK 23/11 Q1021=
200905051700 METAR LPPR 051700Z 33010KT CAVOK 24/11 Q1021=
200905051630 METAR LPPR 051630Z 31009KT 290V350 CAVOK 25/12 Q1021=
200905051600 METAR LPPR 051600Z 32008KT CAVOK 24/12 Q1021=
200905051530 METAR LPPR 051530Z 31010KT 280V340 CAVOK 24/12 Q1021=
200905051500 METAR LPPR 051500Z 31008KT CAVOK 24/11 Q1021=
200905051430 METAR LPPR 051430Z 32010KT CAVOK 24/11 Q1022=
200905051400 METAR LPPR 051400Z 32009KT CAVOK 25/09 Q1022=
200905051330 METAR LPPR 051330Z 31008KT CAVOK 26/09 Q1022=
200905051300 METAR LPPR 051300Z 27007KT 220V300 CAVOK 26/10 Q1022=
200905051230 METAR LPPR 051230Z 12006KT 080V180 CAVOK 27/06 Q1022=
200905051200 METAR LPPR 051200Z 11007KT 060V140 CAVOK 26/04 Q1022=
200905051130 METAR LPPR 051130Z 08006KT 030V120 CAVOK 25/05 Q1022=
200905051100 METAR LPPR 051100Z 09010KT 050V130 CAVOK 24/04 Q1022=
200905051030 METAR LPPR 051030Z 08010KT 050V110 CAVOK 23/04 Q1023=
200905051000 METAR LPPR 051000Z 09012KT 050V140 CAVOK 22/02 Q1023 WS ALL
                        RWY=
200905050930 METAR LPPR 050930Z 09010KT 040V130 CAVOK 21/03 Q1022 WS ALL
                        RWY=
200905050900 METAR LPPR 050900Z 09014KT 060V120 CAVOK 20/03 Q1022 WS ALL
                        RWY=
200905050830 METAR LPPR 050830Z 09013KT 060V120 CAVOK 19/03 Q1022 WS ALL
                        RWY=
200905050800 METAR LPPR 050800Z 09016KT 040V110 CAVOK 19/03 Q1022=
200905050730 METAR LPPR 050730Z 10015KT CAVOK 18/03 Q1022=
200905050700 METAR LPPR 050700Z 10015KT CAVOK 18/03 Q1022=
200905050630 METAR LPPR 050630Z 10014KT CAVOK 18/03 Q1022=
200905050600 METAR LPPR 050600Z 10011KT CAVOK 18/04 Q1021=
200905050530 METAR LPPR 050530Z 10011KT CAVOK 18/05 Q1021=
200905050500 METAR LPPR 050500Z 10010KT CAVOK 19/05 Q1021=
200905050430 METAR LPPR 050430Z 10012KT CAVOK 19/05 Q1021=
200905050400 METAR LPPR 050400Z 11009KT 070V130 CAVOK 20/06 Q1021=
200905050330 METAR LPPR 050330Z 11010KT CAVOK 20/08 Q1021=
200905050300 METAR LPPR 050300Z 11009KT CAVOK 20/09 Q1020=
200905050230 METAR LPPR 050230Z 10007KT CAVOK 20/10 Q1020=
200905050200 METAR LPPR 050200Z 10006KT CAVOK 20/12 Q1020=
200905050130 METAR LPPR 050130Z 09006KT 060V120 CAVOK 19/13 Q1020=
200905050100 METAR LPPR 050100Z VRB03KT CAVOK 18/13 Q1020=
200905050030 METAR LPPR 050030Z 09004KT CAVOK 18/13 Q1020=
200905050000 METAR LPPR 050000Z 00000KT CAVOK 15/13 Q1020=
200905042330 METAR LPPR 042330Z 00000KT CAVOK 16/14 Q1020=
200905042300 METAR LPPR 042300Z 00000KT CAVOK 16/14 Q1020=
200905042230 METAR LPPR 042230Z 00000KT CAVOK 17/14 Q1020=
200905042200 METAR LPPR 042200Z 17002KT CAVOK 16/14 Q1020=
200905042130 METAR LPPR 042130Z 00000KT CAVOK 16/14 Q1020=
200905042100 METAR LPPR 042100Z 00000KT CAVOK 16/14 Q1020=
200905042030 METAR LPPR 042030Z 00000KT CAVOK 17/14 Q1020=
200905042000 METAR LPPR 042000Z 00000KT CAVOK 18/14 Q1020=
200905041930 METAR LPPR 041930Z 00000KT CAVOK 19/14 Q1020=
200905041900 METAR LPPR 041900Z VRB03KT CAVOK 21/14 Q1019=
200905041830 METAR LPPR 041830Z VRB03KT CAVOK 23/14 Q1019=
200905041800 METAR LPPR 041800Z 31005KT 270V340 CAVOK 24/14 Q1019=
200905041730 METAR LPPR 041730Z 33009KT CAVOK 25/13 Q1019=
200905041700 METAR LPPR 041700Z 32010KT CAVOK 25/13 Q1019=
200905041630 METAR LPPR 041630Z 31007KT 280V340 CAVOK 26/13 Q1019=
200905041600 METAR LPPR 041600Z 31009KT 280V360 CAVOK 26/11 Q1020=
200905041530 METAR LPPR 041530Z 31008KT 240V350 CAVOK 26/11 Q1020=
200905041500 METAR LPPR 041500Z 30009KT CAVOK 25/11 Q1020=
200905041430 METAR LPPR 041430Z 29008KT 250V330 CAVOK 25/12 Q1020=
200905041400 METAR LPPR 041400Z 30009KT CAVOK 25/11 Q1021=
200905041330 METAR LPPR 041330Z 31010KT CAVOK 24/11 Q1021=
200905041300 METAR LPPR 041300Z 30008KT 270V330 CAVOK 24/11 Q1021=
200905041230 METAR LPPR 041230Z 28009KT CAVOK 24/12 Q1021=
200905041200 METAR LPPR 041200Z 27009KT 230V290 CAVOK 24/11 Q1021=
200905041130 METAR LPPR 041130Z 10004KT 030V160 CAVOK 27/09 Q1021=
200905041100 METAR LPPR 041100Z 09004KT 050V140 CAVOK 26/09 Q1022=
200905041030 METAR LPPR 041030Z 09008KT 020V130 CAVOK 25/08 Q1021=
200905041000 METAR LPPR 041000Z 08008KT 010V130 CAVOK 24/08 Q1021=
200905040930 METAR LPPR 040930Z 09010KT 050V130 CAVOK 23/07 Q1021=
200905040900 METAR LPPR 040900Z 10011KT 080V140 CAVOK 22/06 Q1021=
200905040830 METAR LPPR 040830Z 09010KT 060V150 CAVOK 22/06 Q1021=
200905040800 METAR LPPR 040800Z 10008KT 060V130 CAVOK 21/06 Q1021=
200905040730 METAR LPPR 040730Z 10009KT 060V140 CAVOK 20/05 Q1021=
200905040700 METAR LPPR 040700Z 10008KT 050V140 CAVOK 20/04 Q1021=
200905040630 METAR LPPR 040630Z 10010KT 070V130 CAVOK 19/04 Q1020=
200905040600 METAR LPPR 040600Z 10007KT 060V130 CAVOK 18/04 Q1020=
200905040530 METAR LPPR 040530Z 10008KT CAVOK 18/04 Q1020=
200905040500 METAR LPPR 040500Z 10007KT 050V130 CAVOK 19/04 Q1020=
200905040430 METAR LPPR 040430Z 10007KT 060V130 CAVOK 18/04 Q1020=
200905040400 METAR LPPR 040400Z 08004KT 040V120 CAVOK 19/05 Q1020=
200905040330 METAR LPPR 040330Z 09004KT 050V130 CAVOK 19/06 Q1020=
200905040300 METAR LPPR 040300Z 10008KT 060V120 CAVOK 20/06 Q1020=
200905040230 METAR LPPR 040230Z 10009KT 060V130 CAVOK 20/07 Q1020=
200905040200 METAR LPPR 040200Z 09006KT CAVOK 20/07 Q1020=
200905040130 METAR LPPR 040130Z 07004KT 010V110 CAVOK 19/07 Q1020=
200905040100 METAR LPPR 040100Z 11006KT CAVOK 19/10 Q1021=
200905040030 METAR LPPR 040030Z 11005KT CAVOK 20/11 Q1021=
200905040000 METAR LPPR 040000Z 10005KT CAVOK 19/12 Q1021=
200905032330 METAR LPPR 032330Z 00000KT CAVOK 16/12 Q1020=
200905032300 METAR LPPR 032300Z 00000KT CAVOK 16/13 Q1020=
200905032230 METAR LPPR 032230Z 00000KT CAVOK 16/13 Q1020=
200905032200 METAR LPPR 032200Z 00000KT CAVOK 16/13 Q1020=
200905032130 METAR LPPR 032130Z 00000KT CAVOK 16/13 Q1020=
200905032100 METAR LPPR 032100Z 00000KT CAVOK 17/13 Q1020=
200905032030 METAR LPPR 032030Z 00000KT CAVOK 17/13 Q1020=
200905032000 METAR LPPR 032000Z 00000KT CAVOK 19/13 Q1020=
200905031930 METAR LPPR 031930Z 34004KT CAVOK 20/12 Q1019=
200905031900 METAR LPPR 031900Z 34008KT CAVOK 22/12 Q1019=
200905031830 METAR LPPR 031830Z 34009KT CAVOK 23/10 Q1019=
200905031800 METAR LPPR 031800Z 34010KT CAVOK 24/09 Q1019=
200905031730 METAR LPPR 031730Z 33012KT CAVOK 24/09 Q1019=
200905031700 METAR LPPR 031700Z 33014KT CAVOK 25/07 Q1019=
200905031630 METAR LPPR 031630Z 34013KT CAVOK 26/10 Q1020=
200905031600 METAR LPPR 031600Z 33010KT 290V350 CAVOK 27/09 Q1020=
200905031530 METAR LPPR 031530Z 33012KT CAVOK 26/07 Q1020=
200905031500 METAR LPPR 031500Z 32010KT 290V350 CAVOK 26/08 Q1020=
200905031430 METAR LPPR 031430Z 32010KT CAVOK 27/09 Q1021=
200905031400 METAR LPPR 031400Z 32010KT 290V360 CAVOK 26/09 Q1021=
200905031330 METAR LPPR 031330Z 32010KT CAVOK 26/09 Q1021=
200905031300 METAR LPPR 031300Z 29008KT CAVOK 27/09 Q1021=
200905031230 METAR LPPR 031230Z 31004KT 260V340 CAVOK 27/10 Q1021=
200905031200 METAR LPPR 031200Z 10004KT 050V150 CAVOK 27/07 Q1022=
200905031130 METAR LPPR 031130Z 08009KT 040V120 CAVOK 26/06 Q1022=
200905031100 METAR LPPR 031100Z 09008KT 050V130 CAVOK 26/07 Q1022=
200905031030 METAR LPPR 031030Z 10009KT 060V120 CAVOK 24/06 Q1022=
200905031000 METAR LPPR 031000Z 10010KT 060V120 CAVOK 24/06 Q1022=
200905030930 METAR LPPR 030930Z 10012KT 060V140 CAVOK 23/05 Q1022=
200905030900 METAR LPPR 030900Z 10012KT 060V120 CAVOK 22/04 Q1022=
200905030830 METAR LPPR 030830Z 11012KT 060V140 CAVOK 21/04 Q1022=
200905030800 METAR LPPR 030800Z 11010KT 070V140 CAVOK 20/05 Q1022=
200905030730 METAR LPPR 030730Z 10011KT CAVOK 19/05 Q1022=
200905030700 METAR LPPR 030700Z 10010KT CAVOK 19/06 Q1022=
200905030630 METAR LPPR 030630Z 10009KT 070V130 CAVOK 18/06 Q1022=
200905030600 METAR LPPR 030600Z 10010KT CAVOK 18/06 Q1022=
200905030530 METAR LPPR 030530Z 11010KT CAVOK 18/05 Q1021=
200905030500 METAR LPPR 030500Z 10009KT CAVOK 17/05 Q1021=
200905030430 METAR LPPR 030430Z 11008KT CAVOK 17/07 Q1021=
200905030400 METAR LPPR 030400Z 11007KT CAVOK 16/08 Q1022=
200905030330 METAR LPPR 030330Z 12009KT CAVOK 16/10 Q1022=
200905030300 METAR LPPR 030300Z 11006KT CAVOK 16/10 Q1022=
200905030230 METAR LPPR 030230Z 11007KT CAVOK 17/10 Q1022=
200905030200 METAR LPPR 030200Z 09006KT CAVOK 17/11 Q1022=
200905030130 METAR LPPR 030130Z 09004KT CAVOK 15/11 Q1022=
200905030100 METAR LPPR 030100Z 10004KT 070V130 CAVOK 16/11 Q1022=
200905030030 METAR LPPR 030030Z VRB03KT CAVOK 14/10 Q1022=
200905030000 METAR LPPR 030000Z 08003KT CAVOK 13/10 Q1022=
200905022330 METAR LPPR 022330Z 00000KT CAVOK 13/09 Q1022=
200905022300 METAR LPPR 022300Z 00000KT CAVOK 13/09 Q1022=
200905022230 METAR LPPR 022230Z 00000KT CAVOK 13/09 Q1022=
200905022200 METAR LPPR 022200Z 00000KT CAVOK 13/09 Q1022=
200905022130 METAR LPPR 022130Z 00000KT CAVOK 14/08 Q1022=
200905022100 METAR LPPR 022100Z 00000KT CAVOK 15/09 Q1022=
200905022030 METAR LPPR 022030Z 00000KT CAVOK 15/08 Q1022=
200905022000 METAR LPPR 022000Z 32002KT CAVOK 16/07 Q1022=
200905021930 METAR LPPR 021930Z 32005KT CAVOK 17/07 Q1022=
200905021900 METAR LPPR 021900Z 33007KT CAVOK 18/06 Q1022=
200905021830 METAR LPPR 021830Z 33012KT CAVOK 19/06 Q1022=
200905021800 METAR LPPR 021800Z 33014KT CAVOK 20/07 Q1022=
200905021730 METAR LPPR 021730Z 33014KT CAVOK 20/07 Q1022=
200905021700 METAR LPPR 021700Z 32011KT 290V350 CAVOK 21/08 Q1022=
200905021630 METAR LPPR 021630Z 32011KT CAVOK 22/09 Q1022=
200905021600 METAR LPPR 021600Z 32010KT 280V340 CAVOK 22/10 Q1022=
200905021530 METAR LPPR 021530Z 33011KT CAVOK 22/10 Q1023=
200905021500 METAR LPPR 021500Z 32012KT CAVOK 23/10 Q1023=
200905021430 METAR LPPR 021430Z 31011KT 280V350 CAVOK 23/10 Q1023=
200905021400 METAR LPPR 021400Z 31010KT CAVOK 23/10 Q1024=
200905021330 METAR LPPR 021330Z 31010KT 270V340 CAVOK 22/10 Q1024=
200905021300 METAR LPPR 021300Z 31010KT CAVOK 22/10 Q1024=
200905021230 METAR LPPR 021230Z 02005KT 290V090 CAVOK 24/09 Q1024=
200905021200 METAR LPPR 021200Z 06004KT 330V110 CAVOK 23/08 Q1025=
200905021130 METAR LPPR 021130Z VRB05KT CAVOK 22/08 Q1025=
200905021100 METAR LPPR 021100Z 10007KT 040V140 CAVOK 21/08 Q1025=
200905021030 METAR LPPR 021030Z 09007KT 030V130 CAVOK 21/08 Q1026=
200905021000 METAR LPPR 021000Z 08010KT 050V110 CAVOK 19/07 Q1026=
200905020930 METAR LPPR 020930Z 10007KT 030V130 CAVOK 19/08 Q1025=
200905020900 METAR LPPR 020900Z 08008KT 020V120 CAVOK 18/07 Q1026=
200905020830 METAR LPPR 020830Z 09009KT 050V120 CAVOK 17/06 Q1026=
200905020800 METAR LPPR 020800Z 10012KT CAVOK 16/06 Q1026=
200905020730 METAR LPPR 020730Z 09010KT 060V120 CAVOK 15/06 Q1026=
200905020700 METAR LPPR 020700Z 09007KT 060V130 CAVOK 15/06 Q1026=
200905020630 METAR LPPR 020630Z 10007KT 050V120 CAVOK 15/05 Q1026=
200905020600 METAR LPPR 020600Z 09007KT 050V120 CAVOK 14/05 Q1025=
200905020530 METAR LPPR 020530Z 10010KT CAVOK 15/05 Q1025=
200905020500 METAR LPPR 020500Z 09006KT CAVOK 14/05 Q1025=
200905020430 METAR LPPR 020430Z 10006KT CAVOK 14/05 Q1025=
200905020400 METAR LPPR 020400Z 08005KT 040V100 CAVOK 14/06 Q1025=
200905020330 METAR LPPR 020330Z 09005KT CAVOK 15/05 Q1025=
200905020300 METAR LPPR 020300Z VRB03KT CAVOK 14/06 Q1025=
200905020230 METAR LPPR 020230Z 09005KT CAVOK 15/07 Q1025=
200905020200 METAR LPPR 020200Z 09004KT CAVOK 15/08 Q1025=
200905020130 METAR LPPR 020130Z 08004KT CAVOK 15/08 Q1025=
200905020100 METAR LPPR 020100Z 11005KT CAVOK 15/10 Q1025=
200905020030 METAR LPPR 020030Z 10006KT CAVOK 15/11 Q1025=
200905020000 METAR LPPR 020000Z 10007KT CAVOK 15/11 Q1025=
200905012330 METAR LPPR 012330Z 00000KT CAVOK 12/11 Q1025=
200905012300 METAR LPPR 012300Z 00000KT CAVOK 12/11 Q1025=
200905012230 METAR LPPR 012230Z 00000KT CAVOK 12/11 Q1025=
200905012200 METAR LPPR 012200Z VRB02KT CAVOK 12/11 Q1025=
200905012130 METAR LPPR 012130Z 00000KT CAVOK 12/11 Q1025=
200905012100 METAR LPPR 012100Z 00000KT CAVOK 13/11 Q1024=
200905012030 METAR LPPR 012030Z 01003KT CAVOK 14/11 Q1024=
200905012000 METAR LPPR 012000Z VRB03KT CAVOK 14/11 Q1024=
200905011930 METAR LPPR 011930Z 33008KT CAVOK 15/11 Q1024=
200905011900 METAR LPPR 011900Z 34011KT CAVOK 16/11 Q1024=
200905011830 METAR LPPR 011830Z 34013KT CAVOK 16/11 Q1024=
200905011800 METAR LPPR 011800Z 34012KT CAVOK 17/11 Q1024=
200905011730 METAR LPPR 011730Z 33013KT CAVOK 18/11 Q1024=
200905011700 METAR LPPR 011700Z 33013KT CAVOK 18/11 Q1024=
200905011630 METAR LPPR 011630Z 33012KT CAVOK 18/11 Q1024=
200905011600 METAR LPPR 011600Z 32013KT CAVOK 19/10 Q1024=
200905011530 METAR LPPR 011530Z 33015KT CAVOK 19/10 Q1024=
200905011500 METAR LPPR 011500Z 33015KT CAVOK 20/08 Q1024=
200905011430 METAR LPPR 011430Z 32011KT CAVOK 19/09 Q1025=
200905011400 METAR LPPR 011400Z 32011KT CAVOK 19/09 Q1025=
200905011330 METAR LPPR 011330Z 30012KT CAVOK 18/08 Q1025=
200905011300 METAR LPPR 011300Z 32012KT CAVOK 17/08 Q1025=
200905011230 METAR LPPR 011230Z 32011KT 290V350 CAVOK 18/08 Q1025=
200905011200 METAR LPPR 011200Z 30011KT CAVOK 17/07 Q1025=
200905011130 METAR LPPR 011130Z 31012KT CAVOK 17/09 Q1025=
200905011100 METAR LPPR 011100Z VRB03KT CAVOK 18/08 Q1026=
200905011030 METAR LPPR 011030Z VRB03KT CAVOK 17/06 Q1025=
200905011000 METAR LPPR 011000Z 01004KT 320V090 CAVOK 16/06 Q1026=
200905010930 METAR LPPR 010930Z 04005KT 340V070 CAVOK 15/05 Q1026=
200905010900 METAR LPPR 010900Z 03007KT 350V060 CAVOK 14/05 Q1026=
200905010830 METAR LPPR 010830Z 02007KT 350V050 CAVOK 12/06 Q1026=
200905010800 METAR LPPR 010800Z 02004KT 350V050 CAVOK 12/06 Q1026=
200905010730 METAR LPPR 010730Z 01004KT 330V040 CAVOK 10/05 Q1026=
200905010700 METAR LPPR 010700Z 35004KT CAVOK 09/06 Q1025=
200905010630 METAR LPPR 010630Z 36004KT CAVOK 07/05 Q1025=
200905010600 METAR LPPR 010600Z 34004KT CAVOK 06/04 Q1025=
200905010530 METAR LPPR 010530Z 36004KT CAVOK 06/05 Q1025=
200905010500 METAR LPPR 010500Z 35005KT CAVOK 06/04 Q1025=
200905010430 METAR LPPR 010430Z 35007KT CAVOK 07/05 Q1025=
200905010400 METAR LPPR 010400Z 36006KT CAVOK 08/05 Q1025=
200905010330 METAR LPPR 010330Z 01006KT CAVOK 08/06 Q1024=
200905010300 METAR LPPR 010300Z 02004KT CAVOK 08/06 Q1024=
200905010230 METAR LPPR 010230Z 36005KT CAVOK 08/06 Q1025=
200905010200 METAR LPPR 010200Z 35006KT CAVOK 07/05 Q1025=
200905010130 METAR LPPR 010130Z 36005KT CAVOK 09/07 Q1025=
200905010100 METAR LPPR 010100Z 35003KT CAVOK 09/07 Q1025=
200905010030 METAR LPPR 010030Z VRB03KT CAVOK 09/07 Q1025=
200905010000 METAR LPPR 010000Z VRB02KT CAVOK 10/07 Q1025=
