##########################################################
# Query made at 11/07/2014 16:29:54 UTC
# Time interval: from 05/01/2011 00:00  to 05/31/2011 23:59  UTC
##########################################################

##########################################################
# LPPR, Porto / Pedras Rubras (Portugal)
# WMO index: 08545
# Latitude 41-14N. Longitude 008-41W. Altitude 69 m.
##########################################################

###################################
#  METAR/SPECI from LPPR
###################################
201105312330 METAR LPPR 312330Z 02006KT 010V070 CAVOK 18/09 Q1022=
201105312300 METAR LPPR 312300Z 04007KT CAVOK 18/09 Q1022=
201105312230 METAR LPPR 312230Z 02011KT CAVOK 19/09 Q1022=
201105312200 METAR LPPR 312200Z 01010KT CAVOK 18/09 Q1022=
201105312130 METAR LPPR 312130Z 01008KT CAVOK 19/09 Q1022=
201105312100 METAR LPPR 312100Z 36006KT CAVOK 19/09 Q1021=
201105312030 METAR LPPR 312030Z 36008KT CAVOK 19/09 Q1021=
201105312000 METAR LPPR 312000Z 36009KT CAVOK 20/09 Q1021=
201105311930 METAR LPPR 311930Z 33007KT CAVOK 21/11 Q1021=
201105311900 METAR LPPR 311900Z 33007KT CAVOK 21/11 Q1021=
201105311830 METAR LPPR 311830Z 31007KT 9999 FEW025 22/11 Q1020=
201105311800 METAR LPPR 311800Z 32009KT 9999 FEW025 23/12 Q1020=
201105311730 METAR LPPR 311730Z 32010KT 290V350 9999 FEW025 23/11 Q1020=
201105311700 METAR LPPR 311700Z 33010KT 300V360 9999 FEW025 23/11 Q1021=
201105311630 METAR LPPR 311630Z 33011KT 9999 FEW025 22/11 Q1020=
201105311600 METAR LPPR 311600Z 33012KT 9999 FEW025 22/12 Q1021=
201105311530 METAR LPPR 311530Z 32011KT 9999 FEW025 23/12 Q1021=
201105311500 METAR LPPR 311500Z 32010KT 280V350 9999 FEW025 22/12 Q1021=
201105311430 METAR LPPR 311430Z 32012KT 9999 FEW025 22/13 Q1021=
201105311400 METAR LPPR 311400Z 32013KT 290V350 9999 FEW025 22/13 Q1021=
201105311330 METAR LPPR 311330Z 31011KT 280V340 9999 FEW025 22/12 Q1021=
201105311300 METAR LPPR 311300Z 32011KT 9999 FEW025 22/13 Q1021=
201105311230 METAR LPPR 311230Z 32009KT 280V340 9999 FEW025 21/13 Q1021=
201105311200 METAR LPPR 311200Z 32009KT 280V340 9999 FEW025 22/13 Q1022=
201105311130 METAR LPPR 311130Z 32010KT 270V350 9999 FEW025 21/13 Q1022=
201105311100 METAR LPPR 311100Z 32009KT 280V340 9999 FEW025 21/13 Q1021=
201105311030 METAR LPPR 311030Z 32009KT 9999 FEW025 21/13 Q1021=
201105311000 METAR LPPR 311000Z 01008KT 300V050 CAVOK 21/12 Q1021=
201105310930 METAR LPPR 310930Z 01009KT 340V040 CAVOK 20/12 Q1022=
201105310900 METAR LPPR 310900Z 35010KT CAVOK 19/12 Q1021=
201105310830 METAR LPPR 310830Z 01009KT CAVOK 18/12 Q1021=
201105310800 METAR LPPR 310800Z 01011KT CAVOK 18/12 Q1021=
201105310730 METAR LPPR 310730Z 01009KT CAVOK 16/11 Q1021=
201105310700 METAR LPPR 310700Z 36008KT CAVOK 16/12 Q1021=
201105310630 METAR LPPR 310630Z 36007KT CAVOK 15/12 Q1021=
201105310600 METAR LPPR 310600Z 35006KT CAVOK 13/11 Q1021=
201105310530 METAR LPPR 310530Z 34006KT CAVOK 13/11 Q1021=
201105310500 METAR LPPR 310500Z 34005KT CAVOK 13/11 Q1020=
201105310430 METAR LPPR 310430Z 34004KT CAVOK 14/11 Q1020=
201105310400 METAR LPPR 310400Z 34007KT CAVOK 13/11 Q1020=
201105310330 METAR LPPR 310330Z 35007KT CAVOK 13/12 Q1020=
201105310300 METAR LPPR 310300Z 34008KT CAVOK 14/12 Q1019=
201105310230 METAR LPPR 310230Z 34007KT CAVOK 14/12 Q1020=
201105310200 METAR LPPR 310200Z 34008KT CAVOK 14/12 Q1019=
201105310130 METAR LPPR 310130Z 36005KT CAVOK 15/12 Q1019=
201105310100 METAR LPPR 310100Z 33006KT CAVOK 15/12 Q1019=
201105310030 METAR LPPR 310030Z 33006KT CAVOK 15/13 Q1019=
201105310000 METAR LPPR 310000Z 34008KT CAVOK 16/13 Q1019=
201105302330 METAR LPPR 302330Z 33010KT CAVOK 16/13 Q1019=
201105302300 METAR LPPR 302300Z 34009KT CAVOK 16/14 Q1019=
201105302230 METAR LPPR 302230Z 34007KT CAVOK 16/14 Q1018=
201105302200 METAR LPPR 302200Z 34008KT CAVOK 17/14 Q1018=
201105302130 METAR LPPR 302130Z 34009KT 310V010 CAVOK 17/14 Q1018=
201105302100 METAR LPPR 302100Z 33010KT CAVOK 17/14 Q1018=
201105302030 METAR LPPR 302030Z 34009KT 9999 FEW020 17/15 Q1017=
201105302000 METAR LPPR 302000Z 34011KT 9999 FEW020TCU 17/15 Q1017=
201105301930 METAR LPPR 301930Z 34012KT 9999 FEW025CB 18/14 Q1017=
201105301900 METAR LPPR 301900Z 33009KT R35/P2000 FEW025CB 18/15 Q1016=
201105301830 METAR LPPR 301830Z 33012KT 9999 FEW025CB 18/15 Q1016=
201105301800 METAR LPPR 301800Z 32013KT 9999 FEW017 FEW025CB 19/15 Q1016=
201105301730 METAR LPPR 301730Z 33013KT 9999 FEW017 FEW025CB 19/15 Q1016=
201105301700 METAR LPPR 301700Z 33013KT 9999 FEW025CB 19/15 Q1016=
201105301630 METAR LPPR 301630Z 33012KT 9999 FEW014 FEW025CB 19/15 Q1016=
201105301600 METAR LPPR 301600Z 33013KT 9999 FEW012 FEW025CB 20/15 Q1016=
201105301530 METAR LPPR 301530Z 33014KT 9999 FEW009 FEW025CB 19/15 Q1015=
201105301500 METAR LPPR 301500Z 33012KT 290V350 9999 FEW012 FEW025CB/
                        20/16 Q1015=
201105301430 METAR LPPR 301430Z 33013KT 9999 FEW012 FEW025CB 20/16 Q1015=
201105301400 METAR LPPR 301400Z 33012KT 290V350 9999 FEW012 FEW025CB 20/16
                        Q1015=
201105301330 METAR LPPR 301330Z 31010KT 290V350 9999 FEW010 FEW025CB 19/16
                        Q1015=
201105301300 METAR LPPR 301300Z 33010KT 300V360 9999 FEW010 FEW025CB 19/16
                        Q1015=
201105301230 METAR LPPR 301230Z 33009KT 300V360 9999 FEW012 FEW025CB 19/16
                        Q1015=
201105301200 METAR LPPR 301200Z 32010KT 280V350 9999 FEW012 FEW025CB 19/16
                        Q1015=
201105301130 METAR LPPR 301130Z 32010KT 290V350 9999 FEW014 FEW025CB 20/17
                        Q1015=
201105301100 METAR LPPR 301100Z 31007KT 270V360 9999 FEW012 FEW025CB 22/17
                        Q1015=
201105301030 METAR LPPR 301030Z 32007KT 270V340 9999 FEW012 FEW025CB 20/17
                        Q1015=
201105301000 METAR LPPR 301000Z 30005KT 260V340 9999 FEW010 FEW025CB 20/17
                        Q1015=
201105300930 METAR LPPR 300930Z 33006KT 310V010 8000 FEW010 FEW025CB 20/18
                        Q1015=
201105300900 METAR LPPR 300900Z 34004KT 290V010 9999 FEW011 FEW025CB 20/17
                        Q1015=
201105300830 METAR LPPR 300830Z 03003KT 340V060 9999 FEW008 FEW025CB 19/17
                        Q1014=
201105300800 METAR LPPR 300800Z 01004KT 340V080 8000 FEW011 FEW025CB 19/17
                        Q1014=
201105300730 METAR LPPR 300730Z 03003KT 350V110 9999 FEW011 FEW025CB 18/17
                        Q1014=
201105300700 METAR LPPR 300700Z VRB02KT 6000 FEW004 FEW025CB 18/17 Q1014=
201105300630 METAR LPPR 300630Z VRB01KT 7000 FEW025 BKN040 17/17 Q1014=
201105300600 METAR LPPR 300600Z VRB02KT 6000 FEW025 BKN045 17/16 Q1013=
201105300530 METAR LPPR 300530Z VRB02KT 3500 BR BKN045 16/16 Q1013=
201105300500 METAR LPPR 300500Z 35004KT 4700 BR SCT040 BKN080 16/16 Q1013=
201105300430 METAR LPPR 300430Z VRB02KT 8000 SCT045 BKN060 17/16 Q1013=
201105300400 METAR LPPR 300400Z 03001KT 7000 BKN045 17/16 Q1013=
201105300330 METAR LPPR 300330Z 00000KT 8000 FEW045 SCT060 17/16 Q1013=
201105300300 METAR LPPR 300300Z VRB02KT 6000 FEW005 SCT045 16/16 Q1013=
201105300230 METAR LPPR 300230Z VRB02KT 9999 0600N R17/0600V1000 PRFG
                        FEW0400 SCT1400 16/16 Q1013=
201105300200 METAR LPPR 300200Z 00000KT 3000 R17/0600 PRFG FEW005 16/15
                        Q1013=
201105300130 METAR LPPR 300130Z 01003KT 4000 PRFG FEW009 16/16 Q1013=
201105300100 METAR LPPR 300100Z VRB01KT 8000 FEW040 16/16 Q1013=
201105300030 METAR LPPR 300030Z 00000KT 9000 FEW040 17/16 Q1013=
201105300000 METAR LPPR 300000Z 19003KT CAVOK 17/16 Q1013=
201105292330 METAR LPPR 292330Z 14003KT 9999 SCT045 18/17 Q1013=
201105292300 METAR LPPR 292300Z VRB02KT 9000 FEW020 SCT045 18/17 Q1013=
201105292230 METAR LPPR 292230Z 00000KT 9000 SCT020 SCT045 19/17 Q1014=
201105292200 METAR LPPR 292200Z 18004KT 9000 -RA SCT020 FEW030CB 18/17
                        Q1014=
201105292130 METAR LPPR 292130Z 15003KT 9999 FEW020 FEW030CB 18/17 Q1014=
201105292100 METAR LPPR 292100Z 02005KT 340V040 9999 FEW020 FEW030CB SCT045
                        19/17 Q1014=
201105292030 METAR LPPR 292030Z 31003KT 9000 -RA FEW020 FEW030 BKN045
                        19/17 Q1014=
201105292000 METAR LPPR 292000Z 29003KT 9999 -RA FEW030CB SCT045 20/17
                        Q1014=
201105291930 METAR LPPR 291930Z VRB02KT 9999 FEW020 FEW030CB BKN045 20/16
                        Q1014=
201105291900 METAR LPPR 291900Z 26003KT 210V310 9999 -RA FEW018 FEW030CB
                        BKN045 21/15 Q1014=
201105291830 METAR LPPR 291830Z 32004KT 9999 FEW018 FEW025CB BKN045 21/16
                        Q1013=
201105291800 METAR LPPR 291800Z 32003KT 250V020 9999 FEW020 FEW030CB SCT045
                        21/15 Q1013=
201105291730 METAR LPPR 291730Z 33004KT 290V010 9999 FEW018 FEW030CB 21/16
                        Q1013=
201105291700 METAR LPPR 291700Z 35006KT 300V020 9999 FEW018 FEW030CB 21/16
                        Q1014=
201105291630 METAR LPPR 291630Z 33006KT 300V010 9999 FEW018 FEW030 SCT045
                        20/16 Q1014=
201105291600 METAR LPPR 291600Z 33008KT 300V360 9999 FEW018 FEW030CB SCT045
                        20/17 Q1014=
201105291530 METAR LPPR 291530Z 30005KT 260V340 9999 FEW020 FEW030CB SCT045
                        21/16 Q1013=
201105291500 METAR LPPR 291500Z 31005KT 240V350 9999 FEW020 FEW025CB SCT045
                        20/17 Q1013=
201105291430 METAR LPPR 291430Z 25007KT 220V310 9999 FEW020 FEW025CB BKN045
                        21/16 Q1014=
201105291400 METAR LPPR 291400Z 23008KT 200V330 9999 FEW020 FEW025CB 23/16
                        Q1014=
201105291330 METAR LPPR 291330Z 23010KT 200V280 9999 FEW020 FEW025CB 23/16
                        Q1013=
201105291300 METAR LPPR 291300Z 24009KT 210V280 9999 FEW020 FEW030CB 23/15
                        Q1014=
201105291230 METAR LPPR 291230Z 23010KT 200V260 9999 FEW025 FEW030 SCT040
                        23/16 Q1014=
201105291200 METAR LPPR 291200Z 20010KT 9999 FEW020 FEW030CB SCT040 22/16
                        Q1014=
201105291130 METAR LPPR 291130Z 21009KT 170V250 9999 SCT020 FEW030CB SCT040
                        23/17 Q1014=
201105291100 METAR LPPR 291100Z 19010KT 9999 FEW020 FEW030CB SCT040 21/17
                        Q1014=
201105291030 METAR LPPR 291030Z 20009KT 9999 FEW020 FEW030CB 21/17 Q1014=
201105291000 METAR LPPR 291000Z 19010KT 9999 FEW020 FEW030CB 21/17 Q1014=
201105290930 METAR LPPR 290930Z 19012KT 9999 FEW020 FEW030CB 22/17 Q1014=
201105290900 METAR LPPR 290900Z 18010KT 150V220 9999 FEW020 FEW030CB 22/17
                        Q1014=
201105290830 METAR LPPR 290830Z 18009KT 9999 FEW020 FEW030CB 22/17 Q1014=
201105290800 METAR LPPR 290800Z 18008KT 140V200 9999 FEW020 FEW030TCU
                        22/17 Q1014=
201105290730 METAR LPPR 290730Z 16006KT 9999 FEW020 FEW030TCU 21/17 Q1014=
201105290700 METAR LPPR 290700Z 16006KT 9999 FEW030 20/17 Q1014=
201105290630 METAR LPPR 290630Z 16006KT 9999 FEW025 20/16 Q1014=
201105290600 METAR LPPR 290600Z 15006KT 9999 FEW025 20/16 Q1013=
201105290530 METAR LPPR 290530Z 14006KT 9999 FEW025 19/16 Q1013=
201105290500 METAR LPPR 290500Z 14006KT CAVOK 18/16 Q1013=
201105290430 METAR LPPR 290430Z 13006KT CAVOK 17/15 Q1013=
201105290400 METAR LPPR 290400Z 12005KT CAVOK 17/15 Q1013=
201105290330 METAR LPPR 290330Z 13005KT CAVOK 17/15 Q1013=
201105290300 METAR LPPR 290300Z 15004KT 110V170 CAVOK 18/14 Q1013=
201105290230 METAR LPPR 290230Z 17003KT 120V220 CAVOK 19/14 Q1012=
201105290200 METAR LPPR 290200Z 06003KT CAVOK 19/14 Q1012=
201105290130 METAR LPPR 290130Z 06005KT 030V090 CAVOK 19/15 Q1013=
201105290100 METAR LPPR 290100Z 08006KT CAVOK 17/15 Q1013=
201105290030 METAR LPPR 290030Z 35004KT 310V010 CAVOK 17/15 Q1013=
201105290000 METAR LPPR 290000Z 36003KT CAVOK 18/15 Q1013=
201105282330 METAR LPPR 282330Z 01006KT CAVOK 18/16 Q1013=
201105282300 METAR LPPR 282300Z 12008KT CAVOK 19/16 Q1013=
201105282230 METAR LPPR 282230Z 15005KT 9999 FEW002 18/16 Q1014=
201105282200 METAR LPPR 282200Z 02003KT 330V060 CAVOK 18/16 Q1014=
201105282130 METAR LPPR 282130Z VRB02KT CAVOK 18/17 Q1013=
201105282100 METAR LPPR 282100Z 07003KT 300V110 9999 FEW025 SCT200 20/17
                        Q1013=
201105282030 METAR LPPR 282030Z 10004KT 9999 FEW025 SCT045 20/18 Q1013=
201105282000 METAR LPPR 282000Z 15003KT 100V230 9999 FEW025 FEW030CB 21/17
                        Q1014=
201105281930 METAR LPPR 281930Z VRB02KT 9999 FEW025 FEW030CB 22/17 Q1013=
201105281900 METAR LPPR 281900Z 18005KT 140V200 9999 FEW025 FEW030CB 21/18
                        Q1013=
201105281830 METAR LPPR 281830Z 21007KT 180V250 9999 FEW025 FEW030CB 22/18
                        Q1012=
201105281800 METAR LPPR 281800Z VRB03KT 9999 SCT025 FEW030CB 23/18 Q1012=
201105281730 METAR LPPR 281730Z 01008KT 9999 -SHRA SCT025 SCT030CB 22/19
                        Q1013 RETS=
201105281700 METAR LPPR 281700Z 05006KT 310V090 9999 -TSRA SCT025 SCT030CB
                        22/17 Q1014=
201105281630 METAR LPPR 281630Z 02005KT 350V050 9999 -SHRA SCT025 SCT030CB
                        22/16 Q1014=
201105281600 METAR LPPR 281600Z 31005KT 270V340 9999 SCT025 SCT030CB 22/16
                        Q1014=
201105281530 METAR LPPR 281530Z 29006KT 250V330 9999 SCT025 FEW030CB 24/16
                        Q1015=
201105281500 METAR LPPR 281500Z 31008KT 270V340 9999 SCT025 FEW030CB 24/15
                        Q1014=
201105281430 METAR LPPR 281430Z 32008KT 260V360 9999 FEW025 FEW030CB 26/16
                        Q1014=
201105281400 METAR LPPR 281400Z 32009KT 290V350 9999 FEW025 FEW030CB 26/16
                        Q1014=
201105281330 METAR LPPR 281330Z 32008KT 270V340 9999 FEW020 FEW025TCU
                        26/16 Q1014=
201105281300 METAR LPPR 281300Z 32009KT 290V350 9999 FEW020 FEW025TCU
                        25/16 Q1014=
201105281230 METAR LPPR 281230Z 31007KT 270V340 9999 FEW020 26/16 Q1014=
201105281200 METAR LPPR 281200Z 29006KT 240V320 9999 FEW020 26/16 Q1015=
201105281130 METAR LPPR 281130Z 29006KT 240V320 9999 FEW020 26/16 Q1015=
201105281100 METAR LPPR 281100Z 26006KT 230V300 CAVOK 26/16 Q1015=
201105281030 METAR LPPR 281030Z VRB03KT CAVOK 27/14 Q1014=
201105281000 METAR LPPR 281000Z 11006KT 070V140 CAVOK 27/15 Q1015=
201105280930 METAR LPPR 280930Z 12007KT 090V150 CAVOK 26/15 Q1015=
201105280900 METAR LPPR 280900Z 11005KT 050V180 CAVOK 25/15 Q1015=
201105280830 METAR LPPR 280830Z 11008KT 060V130 CAVOK 24/16 Q1015=
201105280800 METAR LPPR 280800Z 09008KT 060V120 CAVOK 23/16 Q1015=
201105280730 METAR LPPR 280730Z 09006KT 050V140 CAVOK 22/16 Q1015=
201105280700 METAR LPPR 280700Z 35004KT CAVOK 20/16 Q1015=
201105280630 METAR LPPR 280630Z 09003KT 040V120 CAVOK 19/16 Q1014=
201105280600 METAR LPPR 280600Z VRB04KT CAVOK 15/14 Q1014=
201105280530 METAR LPPR 280530Z 04003KT 010V070 CAVOK 16/14 Q1014=
201105280500 METAR LPPR 280500Z VRB01KT CAVOK 16/14 Q1014=
201105280430 METAR LPPR 280430Z VRB01KT CAVOK 16/14 Q1014=
201105280400 METAR LPPR 280400Z 15003KT CAVOK 16/14 Q1014=
201105280330 METAR LPPR 280330Z 36004KT CAVOK 15/14 Q1014=
201105280300 METAR LPPR 280300Z 00000KT CAVOK 16/14 Q1014=
201105280230 METAR LPPR 280230Z VRB02KT CAVOK 16/14 Q1015=
201105280200 METAR LPPR 280200Z 00000KT CAVOK 16/14 Q1014=
201105280130 METAR LPPR 280130Z 00000KT CAVOK 16/14 Q1015=
201105280100 METAR LPPR 280100Z 00000KT CAVOK 17/14 Q1015=
201105280030 METAR LPPR 280030Z 00000KT CAVOK 17/14 Q1015=
201105280000 METAR LPPR 280000Z 35002KT CAVOK 17/14 Q1015=
201105272330 METAR LPPR 272330Z 36001KT CAVOK 17/14 Q1015=
201105272300 METAR LPPR 272300Z 00000KT CAVOK 17/14 Q1015=
201105272230 METAR LPPR 272230Z 01001KT CAVOK 18/14 Q1015=
201105272200 METAR LPPR 272200Z 00000KT CAVOK 18/13 Q1015=
201105272130 METAR LPPR 272130Z 00000KT CAVOK 19/14 Q1015=
201105272100 METAR LPPR 272100Z 00000KT 9999 FEW040CB 19/13 Q1015=
201105272030 METAR LPPR 272030Z 34003KT 9999 FEW040CB 20/13 Q1015=
201105272000 METAR LPPR 272000Z 32003KT 280V360 9999 FEW040CB 21/13 Q1015=
201105271930 METAR LPPR 271930Z 30003KT 270V330 9999 FEW040CB 22/13 Q1015=
201105271900 METAR LPPR 271900Z 31005KT 270V340 9999 FEW040CB 23/13 Q1015=
201105271830 METAR LPPR 271830Z 34006KT 9999 FEW030 FEW040CB 23/13 Q1015=
201105271800 METAR LPPR 271800Z 31006KT 270V350 9999 FEW035CB 23/13 Q1015=
201105271730 METAR LPPR 271730Z 32007KT 280V360 9999 FEW035CB 23/13 Q1015=
201105271700 METAR LPPR 271700Z 32007KT 290V350 9999 FEW035CB 23/13 Q1015=
201105271630 METAR LPPR 271630Z 33008KT 270V360 9999 FEW030TCU FEW035CB
                        23/13 Q1015=
201105271600 METAR LPPR 271600Z 31007KT 270V360 9999 FEW035CB 23/14 Q1015=
201105271530 METAR LPPR 271530Z 30006KT 250V350 9999 FEW025 FEW030CB 22/13
                        Q1016=
201105271500 METAR LPPR 271500Z 30006KT 230V350 9999 FEW025 FEW030CB 23/13
                        Q1016=
201105271430 METAR LPPR 271430Z 28006KT 250V330 9999 FEW025 FEW030CB 23/13
                        Q1016=
201105271400 METAR LPPR 271400Z 28006KT 230V330 9999 FEW025 FEW030CB 23/14
                        Q1016=
201105271330 METAR LPPR 271330Z 30006KT 260V340 9999 FEW025 FEW030CB 23/14
                        Q1016=
201105271300 METAR LPPR 271300Z 28006KT 230V360 9999 FEW025 FEW030CB 23/14
                        Q1016=
201105271230 METAR LPPR 271230Z 30006KT 270V340 9999 FEW025 23/14 Q1017=
201105271200 METAR LPPR 271200Z 29005KT 260V340 9999 FEW025 22/14 Q1017=
201105271130 METAR LPPR 271130Z 29005KT 9999 FEW025 22/14 Q1017=
201105271100 METAR LPPR 271100Z 29005KT 260V330 CAVOK 21/14 Q1017=
201105271030 METAR LPPR 271030Z 29006KT 260V320 CAVOK 20/15 Q1017=
201105271000 METAR LPPR 271000Z 29004KT 260V320 CAVOK 21/15 Q1017=
201105270930 METAR LPPR 270930Z 16003KT 070V230 CAVOK 22/15 Q1017=
201105270900 METAR LPPR 270900Z 03004KT 330V100 CAVOK 21/14 Q1017=
201105270830 METAR LPPR 270830Z 02004KT 340V060 CAVOK 20/15 Q1017=
201105270800 METAR LPPR 270800Z VRB02KT CAVOK 18/14 Q1017=
201105270730 METAR LPPR 270730Z 03003KT 350V070 CAVOK 18/14 Q1017=
201105270700 METAR LPPR 270700Z VRB03KT CAVOK 17/14 Q1017=
201105270630 METAR LPPR 270630Z 02003KT 330V070 CAVOK 15/14 Q1017=
201105270600 METAR LPPR 270600Z 01004KT 340V050 8000 FEW020 14/13 Q1016=
201105270530 METAR LPPR 270530Z VRB02KT 8000 FEW018 14/13 Q1016=
201105270500 METAR LPPR 270500Z 34002KT 8000 FEW017 14/13 Q1016=
201105270430 METAR LPPR 270430Z 36003KT CAVOK 14/13 Q1016=
201105270400 METAR LPPR 270400Z 09001KT CAVOK 14/14 Q1016=
201105270330 METAR LPPR 270330Z 36003KT 9000 FEW018 14/13 Q1016=
201105270300 METAR LPPR 270300Z VRB02KT 9999 FEW017 15/14 Q1016=
201105270230 METAR LPPR 270230Z 01003KT 340V040 9999 FEW017 15/14 Q1016=
201105270200 METAR LPPR 270200Z 04003KT 010V070 CAVOK 15/13 Q1017=
201105270130 METAR LPPR 270130Z 10003KT 050V150 CAVOK 16/14 Q1017=
201105270100 METAR LPPR 270100Z 16006KT CAVOK 16/14 Q1017=
201105270030 METAR LPPR 270030Z 16009KT CAVOK 17/14 Q1017=
201105270000 METAR LPPR 270000Z 17009KT CAVOK 17/14 Q1017=
201105262330 METAR LPPR 262330Z 16010KT CAVOK 17/14 Q1017=
201105262300 METAR LPPR 262300Z 17011KT CAVOK 17/14 Q1017=
201105262230 METAR LPPR 262230Z 17010KT CAVOK 17/14 Q1017=
201105262200 METAR LPPR 262200Z 17010KT CAVOK 17/14 Q1017=
201105262130 METAR LPPR 262130Z 17010KT CAVOK 17/14 Q1017=
201105262100 METAR LPPR 262100Z 19008KT CAVOK 17/14 Q1017=
201105262030 METAR LPPR 262030Z 19005KT CAVOK 17/13 Q1017=
201105262000 METAR LPPR 262000Z 19007KT 9999 FEW025CB 17/13 Q1016=
201105261930 METAR LPPR 261930Z 22005KT 9999 FEW025CB 18/13 Q1016=
201105261900 METAR LPPR 261900Z 22005KT 190V260 9999 FEW014 FEW025CB 18/13
                        Q1016=
201105261830 METAR LPPR 261830Z 23006KT 180V260 9999 FEW025CB 19/14 Q1016=
201105261800 METAR LPPR 261800Z 24006KT 9999 FEW025CB 20/13 Q1016=
201105261730 METAR LPPR 261730Z 27004KT 220V320 9999 FEW025CB 21/14 Q1017=
201105261700 METAR LPPR 261700Z 28005KT 240V310 9999 FEW025CB 21/14 Q1017=
201105261630 METAR LPPR 261630Z 29005KT 230V340 9999 FEW025CB 21/14 Q1016=
201105261600 METAR LPPR 261600Z 28005KT 230V320 9999 FEW025CB 22/14 Q1017=
201105261530 METAR LPPR 261530Z 27005KT 230V310 9999 FEW025CB 22/14 Q1017=
201105261500 METAR LPPR 261500Z 27005KT 220V310 9999 FEW025TCU 23/15 Q1017=
201105261430 METAR LPPR 261430Z 30005KT 260V340 9999 FEW025TCU 23/14 Q1017=
201105261400 METAR LPPR 261400Z 27005KT 230V330 9999 FEW025TCU 22/15 Q1017=
201105261330 METAR LPPR 261330Z 29005KT 240V320 9999 FEW025TCU 21/15 Q1018=
201105261300 METAR LPPR 261300Z 28005KT 220V330 9999 FEW023 21/15 Q1018=
201105261230 METAR LPPR 261230Z 26006KT 200V310 CAVOK 21/15 Q1018=
201105261200 METAR LPPR 261200Z 25005KT 200V310 9999 FEW009 20/16 Q1018=
201105261130 METAR LPPR 261130Z 25005KT 200V340 8000 FEW007 20/16 Q1018=
201105261100 METAR LPPR 261100Z 26005KT 220V300 6000 SCT007 19/17 Q1019=
201105261030 METAR LPPR 261030Z 24006KT 210V270 6000 SCT006 19/16 Q1018=
201105261000 METAR LPPR 261000Z 25005KT 200V290 7000 FEW006 19/17 Q1018=
201105260930 METAR LPPR 260930Z 28004KT 220V320 7000 FEW007 19/16 Q1018=
201105260900 METAR LPPR 260900Z 26004KT 220V310 7000 FEW009 19/16 Q1018=
201105260830 METAR LPPR 260830Z 26003KT 190V300 9000 FEW015 19/17 Q1018=
201105260800 METAR LPPR 260800Z 22003KT 140V270 6000 SCT002 SCT014 17/17
                        Q1018=
201105260730 METAR LPPR 260730Z VRB02KT 0900 R17/0800 BCFG BKN002 16/16
                        Q1018=
201105260700 METAR LPPR 260700Z VRB02KT 0500 R17/0900 BCFG SCT002 BKN004
                        16/16 Q1018=
201105260630 METAR LPPR 260630Z VRB02KT 0450 0250S R17/0800 BCFG BKN002
                        BKN005 16/15 Q1018=
201105260600 METAR LPPR 260600Z VRB02KT 2300 0500N R35/0600VP2000D PRFG
                        BR FEW002 14/13 Q1018=
201105260530 METAR LPPR 260530Z 34001KT 3700 1400N R35/1000VP2000 BR VCFG
                        NSC 15/14 Q1018=
201105260500 METAR LPPR 260500Z 02002KT 3000 1200N R17/P2000 BR VCFG NSC
                        14/14 Q1018=
201105260430 METAR LPPR 260430Z VRB02KT 7000 NSC 15/14 Q1018=
201105260400 METAR LPPR 260400Z 18004KT 9000 NSC 16/15 Q1017=
201105260330 METAR LPPR 260330Z 17006KT 8000 NSC 14/14 Q1018=
201105260300 METAR LPPR 260300Z VRB01KT 7000 NSC 15/14 Q1018=
201105260230 METAR LPPR 260230Z VRB01KT 9000 NSC 15/14 Q1018=
201105260200 METAR LPPR 260200Z VRB02KT 8000 NSC 15/14 Q1018=
201105260130 METAR LPPR 260130Z 03002KT 8000 NSC 15/14 Q1018=
201105260100 METAR LPPR 260100Z 00000KT 9000 NSC 15/15 Q1018=
201105260030 METAR LPPR 260030Z VRB01KT 9000 NSC 16/15 Q1019=
201105260000 METAR LPPR 260000Z VRB01KT 8000 NSC 15/15 Q1019=
201105252330 METAR LPPR 252330Z VRB01KT CAVOK 16/15 Q1019=
201105252300 METAR LPPR 252300Z VRB01KT CAVOK 16/15 Q1019=
201105252230 METAR LPPR 252230Z 25003KT CAVOK 17/15 Q1019=
201105252200 METAR LPPR 252200Z 35003KT CAVOK 17/15 Q1019=
201105252130 METAR LPPR 252130Z 35004KT 310V010 CAVOK 17/15 Q1019=
201105252100 METAR LPPR 252100Z 35007KT 9999 FEW025 FEW030CB 17/15 Q1019=
201105252030 METAR LPPR 252030Z 33006KT 9000 FEW025 FEW030CB 18/15 Q1019=
201105252000 METAR LPPR 252000Z 32006KT 9999 FEW025 FEW030CB 19/15 Q1019=
201105251930 METAR LPPR 251930Z 31006KT 9999 FEW025 FEW030CB 20/16 Q1019=
201105251900 METAR LPPR 251900Z 32004KT 280V010 9999 FEW025 FEW030CB 21/16
                        Q1019=
201105251830 METAR LPPR 251830Z 27005KT 200V310 9999 FEW020 FEW030CB 24/17
                        Q1019=
201105251800 METAR LPPR 251800Z 33006KT 9999 FEW025 FEW030CB 24/15 Q1018=
201105251730 METAR LPPR 251730Z 35006KT 320V030 9999 FEW020 FEW030CB 24/15
                        Q1019=
201105251700 METAR LPPR 251700Z 33007KT 300V360 9999 FEW025 FEW030CB 23/16
                        Q1019=
201105251630 METAR LPPR 251630Z 32007KT 270V350 9999 FEW020 FEW030CB 23/17
                        Q1019=
201105251600 METAR LPPR 251600Z 32008KT 9999 FEW025 FEW030CB 23/17 Q1018=
201105251530 METAR LPPR 251530Z 33009KT 260V350 9999 FEW025 FEW030CB 24/17
                        Q1018=
201105251500 METAR LPPR 251500Z 33009KT 300V360 9999 FEW025 FEW030CB 24/17
                        Q1018=
201105251430 METAR LPPR 251430Z 29006KT 250V320 9999 FEW025 FEW030CB 26/17
                        Q1018=
201105251400 METAR LPPR 251400Z 28005KT 240V310 9999 FEW025 FEW030CB 27/17
                        Q1018=
201105251330 METAR LPPR 251330Z 29005KT 250V320 9999 FEW025 FEW030CB 27/17
                        Q1019=
201105251300 METAR LPPR 251300Z 29003KT 250V350 9999 FEW025 FEW030CB 27/17
                        Q1019=
201105251230 METAR LPPR 251230Z 22004KT 160V290 9999 FEW025 FEW030CB 26/16
                        Q1019=
201105251200 METAR LPPR 251200Z 28004KT 230V310 9999 SCT025 26/16 Q1019=
201105251130 METAR LPPR 251130Z 24006KT 200V280 9999 SCT025 27/16 Q1019=
201105251100 METAR LPPR 251100Z 24004KT 160V280 9999 FEW025 27/16 Q1019=
201105251030 METAR LPPR 251030Z 26004KT 220V300 9999 FEW025 27/16 Q1019=
201105251000 METAR LPPR 251000Z 26004KT 230V290 9999 FEW025 28/17 Q1019=
201105250930 METAR LPPR 250930Z 29004KT 9999 FEW025 28/15 Q1019=
201105250900 METAR LPPR 250900Z VRB02KT 9999 FEW025 27/16 Q1019=
201105250830 METAR LPPR 250830Z 35004KT 300V030 9999 FEW025 25/16 Q1019=
201105250800 METAR LPPR 250800Z 35003KT 310V040 9999 FEW025 24/17 Q1019=
201105250730 METAR LPPR 250730Z VRB02KT 9999 FEW025 21/17 Q1019=
201105250700 METAR LPPR 250700Z 02004KT 300V070 9999 FEW025 SCT070 22/17
                        Q1018=
201105250630 METAR LPPR 250630Z 01005KT CAVOK 19/16 Q1018=
201105250600 METAR LPPR 250600Z VRB02KT CAVOK 19/16 Q1018=
201105250530 METAR LPPR 250530Z 10004KT CAVOK 18/15 Q1019=
201105250500 METAR LPPR 250500Z 00000KT CAVOK 17/14 Q1018=
201105250430 METAR LPPR 250430Z 00000KT CAVOK 18/15 Q1018=
201105250400 METAR LPPR 250400Z VRB02KT CAVOK 18/15 Q1018=
201105250330 METAR LPPR 250330Z VRB02KT CAVOK 19/14 Q1018=
201105250300 METAR LPPR 250300Z 09003KT CAVOK 20/14 Q1018=
201105250230 METAR LPPR 250230Z VRB01KT CAVOK 20/14 Q1018=
201105250200 METAR LPPR 250200Z 09004KT CAVOK 19/13 Q1018=
201105250130 METAR LPPR 250130Z VRB02KT CAVOK 20/13 Q1019=
201105250100 METAR LPPR 250100Z VRB01KT CAVOK 18/13 Q1019=
201105250030 METAR LPPR 250030Z VRB01KT CAVOK 18/13 Q1019=
201105250000 METAR LPPR 250000Z 00000KT CAVOK 19/13 Q1019=
201105242330 METAR LPPR 242330Z 12003KT CAVOK 18/12 Q1020=
201105242300 METAR LPPR 242300Z VRB02KT CAVOK 19/13 Q1020=
201105242230 METAR LPPR 242230Z VRB01KT CAVOK 19/14 Q1020=
201105242200 METAR LPPR 242200Z VRB01KT CAVOK 21/14 Q1020=
201105242130 METAR LPPR 242130Z 00000KT CAVOK 20/15 Q1020=
201105242100 METAR LPPR 242100Z 01003KT CAVOK 21/16 Q1020=
201105242030 METAR LPPR 242030Z VRB01KT CAVOK 22/17 Q1019=
201105242000 METAR LPPR 242000Z 31003KT 9999 FEW030CB 25/14 Q1019=
201105241930 METAR LPPR 241930Z 33004KT 9999 FEW030CB 26/14 Q1019=
201105241900 METAR LPPR 241900Z 33005KT 290V360 9999 SCT030CB 27/13 Q1019=
201105241830 METAR LPPR 241830Z 33005KT 9999 FEW020 SCT030CB 28/11 Q1019=
201105241800 METAR LPPR 241800Z 33007KT 300V360 9999 FEW020 SCT030CB 28/12
                        Q1020=
201105241730 METAR LPPR 241730Z 31006KT 280V350 9999 FEW030 28/13 Q1019=
201105241700 METAR LPPR 241700Z 32007KT 280V360 9999 SCT030CB 28/13 Q1020=
201105241630 METAR LPPR 241630Z 31008KT 280V350 9999 FEW020 FEW030CB 28/13
                        Q1020=
201105241600 METAR LPPR 241600Z 31007KT 9999 FEW020 FEW030CB 28/13 Q1020=
201105241530 METAR LPPR 241530Z 32007KT 290V010 9999 FEW020 FEW030CB 28/14
                        Q1020=
201105241500 METAR LPPR 241500Z 31007KT 270V350 9999 FEW022 FEW027CB 27/15
                        Q1020=
201105241430 METAR LPPR 241430Z 32009KT 280V350 9999 FEW025TCU 27/16 Q1020=
201105241400 METAR LPPR 241400Z 30006KT 270V330 9999 FEW025TCU 27/15 Q1021=
201105241330 METAR LPPR 241330Z 29006KT 260V330 9999 FEW025 27/16 Q1021=
201105241300 METAR LPPR 241300Z 33007KT 280V350 9999 FEW025 26/16 Q1021=
201105241230 METAR LPPR 241230Z 30005KT 250V350 CAVOK 25/17 Q1021=
201105241200 METAR LPPR 241200Z 29005KT 240V320 CAVOK 25/17 Q1021=
201105241130 METAR LPPR 241130Z 29005KT 260V330 CAVOK 24/17 Q1022=
201105241100 METAR LPPR 241100Z 29005KT 260V320 CAVOK 24/17 Q1022=
201105241030 METAR LPPR 241030Z 29005KT 260V320 8000 NSC 23/17 Q1022=
201105241000 METAR LPPR 241000Z 28005KT 250V310 CAVOK 24/17 Q1022=
201105240930 METAR LPPR 240930Z 35005KT 310V050 CAVOK 24/16 Q1022=
201105240900 METAR LPPR 240900Z 34004KT 240V050 CAVOK 22/16 Q1022=
201105240830 METAR LPPR 240830Z 35003KT 300V060 CAVOK 21/16 Q1022=
201105240800 METAR LPPR 240800Z 36003KT 310V060 8000 NSC 19/16 Q1022=
201105240730 METAR LPPR 240730Z VRB01KT CAVOK 17/16 Q1022=
201105240700 METAR LPPR 240700Z 35003KT 6000 NSC 15/15 Q1022=
201105240630 METAR LPPR 240630Z VRB01KT 6000 NSC 13/13 Q1022=
201105240600 METAR LPPR 240600Z 00000KT 6000 NSC 13/13 Q1022=
201105240530 METAR LPPR 240530Z 00000KT 3000N BR VCFG NSC 13/13 Q1022=
201105240500 METAR LPPR 240500Z 00000KT 3900 BR 12/12 Q1022=
201105240430 METAR LPPR 240430Z 00000KT 8000 FEW007 12/12 Q1022=
201105240400 METAR LPPR 240400Z 01002KT 6000 FEW008 12/12 Q1022=
201105240330 METAR LPPR 240330Z 00000KT 7000 NSC 12/12 Q1022=
201105240300 METAR LPPR 240300Z 00000KT 6000 FEW007 12/12 Q1022=
201105240230 METAR LPPR 240230Z VRB01KT 6000 FEW007 13/13 Q1022=
201105240200 METAR LPPR 240200Z VRB02KT 7000 NSC 14/13 Q1022=
201105240130 METAR LPPR 240130Z 00000KT 8000 NSC 13/13 Q1022=
201105240100 METAR LPPR 240100Z 15003KT 110V170 8000 NSC 13/13 Q1022=
201105240030 METAR LPPR 240030Z 14004KT 8000 NSC 14/14 Q1022=
201105240000 METAR LPPR 240000Z 09003KT 7000 NSC 14/14 Q1022=
201105232330 METAR LPPR 232330Z 08003KT 020V110 7000 NSC 13/13 Q1022=
201105232300 METAR LPPR 232300Z 00000KT 8000 NSC 14/13 Q1023=
201105232230 METAR LPPR 232230Z VRB01KT 7000 NSC 15/14 Q1022=
201105232200 METAR LPPR 232200Z 00000KT CAVOK 15/14 Q1023=
201105232130 METAR LPPR 232130Z VRB01KT CAVOK 15/15 Q1023=
201105232100 METAR LPPR 232100Z VRB02KT CAVOK 16/15 Q1023=
201105232030 METAR LPPR 232030Z VRB02KT CAVOK 16/15 Q1023=
201105232000 METAR LPPR 232000Z 30003KT 260V330 CAVOK 17/15 Q1023=
201105231930 METAR LPPR 231930Z 31004KT 270V340 CAVOK 17/16 Q1023=
201105231900 METAR LPPR 231900Z 32006KT CAVOK 18/16 Q1022=
201105231830 METAR LPPR 231830Z 31006KT 270V350 CAVOK 19/16 Q1022=
201105231800 METAR LPPR 231800Z 31007KT 280V360 CAVOK 20/16 Q1022=
201105231730 METAR LPPR 231730Z 31005KT 260V340 CAVOK 20/15 Q1022=
201105231700 METAR LPPR 231700Z 30006KT 260V340 9999 FEW030CB 21/15 Q1022=
201105231630 METAR LPPR 231630Z 31006KT 270V360 9999 FEW017 FEW030CB 21/15
                        Q1022=
201105231600 METAR LPPR 231600Z 31007KT 270V350 9999 FEW017 FEW030CB 21/15
                        Q1022=
201105231530 METAR LPPR 231530Z 31007KT 270V360 9999 FEW017 FEW030CB 21/15
                        Q1022=
201105231500 METAR LPPR 231500Z 31007KT 260V350 9999 FEW017 FEW030CB 20/16
                        Q1022=
201105231430 METAR LPPR 231430Z 32006KT 270V360 7000 FEW017 20/16 Q1022=
201105231400 METAR LPPR 231400Z 29006KT 260V320 9999 FEW017 20/16 Q1022=
201105231330 METAR LPPR 231330Z 28005KT 240V330 9999 FEW008 20/16 Q1022=
201105231300 METAR LPPR 231300Z 30005KT 240V340 9999 FEW008 19/16 Q1022=
201105231230 METAR LPPR 231230Z 27005KT 200V350 9999 FEW008 20/16 Q1023=
201105231200 METAR LPPR 231200Z 27004KT 210V320 9999 FEW008 20/16 Q1023=
201105231130 METAR LPPR 231130Z 24004KT 190V320 9999 FEW008 20/17 Q1023=
201105231100 METAR LPPR 231100Z 24004KT 180V290 9999 FEW008 19/16 Q1023=
201105231030 METAR LPPR 231030Z 26004KT 200V320 9999 SCT007 18/16 Q1023=
201105231000 METAR LPPR 231000Z VRB03KT 9999 BKN007 18/16 Q1023=
201105230930 METAR LPPR 230930Z 25004KT 160V290 9000 BKN006 17/16 Q1022=
201105230900 METAR LPPR 230900Z 22003KT 120V270 6000 OVC004 17/16 Q1022=
201105230830 METAR LPPR 230830Z VRB03KT 5000 BR OVC003 16/15 Q1022=
201105230800 METAR LPPR 230800Z 19004KT 160V230 2300 BR VCFG BKN002 BKN003
                        16/16 Q1022=
201105230730 METAR LPPR 230730Z 20003KT 170V250 3800 BR VCFG BKN003 BKN004
                        16/16 Q1022=
201105230700 METAR LPPR 230700Z 22003KT 180V270 4100 BR VCFG BKN002 BKN004
                        16/15 Q1022=
201105230630 METAR LPPR 230630Z 21003KT 170V250 5000 BR VCFG BKN002 BKN003
                        16/15 Q1022=
201105230600 METAR LPPR 230600Z 16003KT 070V230 4800 BR VCFG SCT002 BKN003
                        16/15 Q1021=
201105230530 METAR LPPR 230530Z 18004KT 6000 BKN004 BKN005 16/15 Q1021=
201105230500 METAR LPPR 230500Z 17006KT 8000 BKN003 BKN004 16/15 Q1021=
201105230430 METAR LPPR 230430Z 18006KT 9000 BKN004 16/15 Q1021=
201105230400 METAR LPPR 230400Z 15007KT 9999 BKN003 BKN005 15/15 Q1021=
201105230330 METAR LPPR 230330Z 16005KT 9999 SCT003 BKN004 15/14 Q1021=
201105230300 METAR LPPR 230300Z 17005KT 9999 SCT005 BKN008 15/14 Q1021=
201105230230 METAR LPPR 230230Z 17005KT 9000 SCT005 BKN008 15/15 Q1021=
201105230200 METAR LPPR 230200Z 18005KT CAVOK 15/14 Q1021=
201105230130 METAR LPPR 230130Z 18005KT CAVOK 15/14 Q1021=
201105230100 METAR LPPR 230100Z 18005KT CAVOK 15/15 Q1021=
201105230030 METAR LPPR 230030Z 16005KT CAVOK 15/15 Q1021=
201105230000 METAR LPPR 230000Z 17005KT CAVOK 15/15 Q1021=
201105222330 METAR LPPR 222330Z 19004KT CAVOK 16/15 Q1021=
201105222300 METAR LPPR 222300Z 22003KT 190V260 CAVOK 16/15 Q1021=
201105222230 METAR LPPR 222230Z 19003KT CAVOK 15/15 Q1021=
201105222200 METAR LPPR 222200Z 21003KT CAVOK 15/14 Q1021=
201105222130 METAR LPPR 222130Z 19004KT CAVOK 15/14 Q1021=
201105222100 METAR LPPR 222100Z 22003KT 180V260 CAVOK 16/14 Q1021=
201105222030 METAR LPPR 222030Z 27003KT CAVOK 16/15 Q1021=
201105222000 METAR LPPR 222000Z VRB01KT CAVOK 17/15 Q1021=
201105221930 METAR LPPR 221930Z 27004KT 240V310 CAVOK 19/15 Q1020=
201105221900 METAR LPPR 221900Z 27003KT 240V300 CAVOK 20/15 Q1020=
201105221830 METAR LPPR 221830Z 30004KT 250V340 9999 FEW025 20/15 Q1020=
201105221800 METAR COR LPPR 221800Z 31005KT 280V360 9999 FEW025 21/15
                        Q1020=
201105221730 METAR LPPR 221730Z 31005KT 280V360 CAVOK 21/15 Q1020=
201105221700 METAR LPPR 221700Z 32007KT 290V350 9999 FEW025 21/15 Q1020=
201105221630 METAR LPPR 221630Z 33006KT 290V360 CAVOK 21/15 Q1020=
201105221600 METAR LPPR 221600Z 32008KT 290V350 CAVOK 21/14 Q1020=
201105221530 METAR LPPR 221530Z 32009KT 280V350 CAVOK 21/14 Q1021=
201105221500 METAR LPPR 221500Z 33010KT CAVOK 21/14 Q1021=
201105221430 METAR LPPR 221430Z 32010KT CAVOK 21/14 Q1021=
201105221400 METAR LPPR 221400Z 33011KT 280V360 CAVOK 21/13 Q1021=
201105221330 METAR COR LPPR 221330Z 32010KT 270V350 CAVOK 21/13 Q1021=
201105221300 METAR LPPR 221300Z 33012KT CAVOK 20/13 Q1022=
201105221230 METAR LPPR 221230Z 31008KT 280V340 CAVOK 20/14 Q1022=
201105221200 METAR LPPR 221200Z 31007KT 260V350 CAVOK 20/14 Q1022=
201105221130 METAR LPPR 221130Z 31008KT 270V350 CAVOK 20/14 Q1022=
201105221100 METAR LPPR 221100Z 30006KT 270V340 9999 FEW020 20/14 Q1022=
201105221030 METAR LPPR 221030Z 29006KT 270V340 9999 FEW020 19/14 Q1022=
201105221000 METAR LPPR 221000Z 29005KT 230V340 9999 FEW019 19/14 Q1022=
201105220930 METAR LPPR 220930Z 03004KT 300V090 9999 FEW019 19/13 Q1022=
201105220900 METAR LPPR 220900Z 36005KT 310V040 9999 FEW019 18/14 Q1022=
201105220830 METAR LPPR 220830Z 02005KT 330V040 9999 FEW025 18/14 Q1022=
201105220800 METAR LPPR 220800Z 01005KT 330V050 CAVOK 17/13 Q1022=
201105220730 METAR LPPR 220730Z 36005KT CAVOK 16/13 Q1022=
201105220700 METAR LPPR 220700Z 36004KT CAVOK 14/13 Q1022=
201105220630 METAR LPPR 220630Z 35003KT 9000 FEW022 13/13 Q1022=
201105220600 METAR LPPR 220600Z 33003KT 290V360 9000 SCT022 12/12 Q1021=
201105220530 METAR LPPR 220530Z 35002KT 9000 BKN023 12/12 Q1021=
201105220500 METAR LPPR 220500Z 01002KT 9999 SCT023 12/11 Q1021=
201105220430 METAR LPPR 220430Z 36003KT 9999 BKN024 12/11 Q1021=
201105220400 METAR LPPR 220400Z 34003KT 9999 SCT025 12/12 Q1021=
201105220330 METAR LPPR 220330Z 01002KT 9999 BKN025 13/12 Q1021=
201105220300 METAR LPPR 220300Z 34003KT 9999 BKN025 13/12 Q1021=
201105220230 METAR LPPR 220230Z 34003KT 9999 BKN025 13/12 Q1021=
201105220200 METAR LPPR 220200Z 33003KT 9999 BKN025 14/12 Q1021=
201105220130 METAR LPPR 220130Z VRB02KT 9999 BKN025 15/12 Q1022=
201105220100 METAR LPPR 220100Z 02003KT 340V050 9999 OVC023 15/13 Q1022=
201105220030 METAR LPPR 220030Z 34003KT 9999 OVC023 14/13 Q1022=
201105220000 METAR LPPR 220000Z 35003KT 9999 OVC023 14/13 Q1022=
201105212330 METAR LPPR 212330Z 33004KT 9999 BKN023 14/12 Q1022=
201105212300 METAR LPPR 212300Z 34005KT 9999 FEW024 13/12 Q1022=
201105212230 METAR LPPR 212230Z 35005KT 9999 FEW024 14/12 Q1023=
201105212200 METAR LPPR 212200Z 34007KT 9999 FEW017 14/12 Q1023=
201105212130 METAR LPPR 212130Z 34008KT 9999 FEW018 15/12 Q1023=
201105212100 METAR LPPR 212100Z 34010KT 9999 FEW015 SCT024 15/12 Q1023=
201105212030 METAR LPPR 212030Z 34012KT 9999 FEW014 BKN024 16/13 Q1022=
201105212000 METAR LPPR 212000Z 34013KT 9999 FEW014 BKN025 16/13 Q1022=
201105211930 METAR LPPR 211930Z 34011KT 300V360 9999 SCT014 BKN024 16/13
                        Q1021=
201105211900 METAR LPPR 211900Z 33014KT 9999 BKN013 BKN016 16/13 Q1021=
201105211830 METAR LPPR 211830Z 32012KT 290V350 9999 FEW012 BKN014 BKN017
                        16/13 Q1021=
201105211800 METAR LPPR 211800Z 33011KT 9999 SCT013 BKN020 16/13 Q1021=
201105211730 METAR LPPR 211730Z 33013KT 9999 SCT012 BKN021 17/14 Q1021=
201105211700 METAR LPPR 211700Z 33013KT 300V360 9999 SCT013 BKN018 BKN020
                        17/14 Q1021=
201105211630 METAR LPPR 211630Z 32012KT 280V350 9999 FEW013 SCT018 BKN022
                        18/14 Q1021=
201105211600 METAR LPPR 211600Z 32011KT 290V360 9999 FEW013 SCT015 BKN020
                        19/15 Q1021=
201105211530 METAR LPPR 211530Z 31009KT 280V350 9999 FEW015 SCT018 19/14
                        Q1021=
201105211500 METAR LPPR 211500Z 32010KT 280V350 9999 SCT017 SCT020 19/14
                        Q1021=
201105211430 METAR LPPR 211430Z 32008KT 280V360 9999 BKN016 19/14 Q1021=
201105211400 METAR LPPR 211400Z 31007KT 270V350 9999 BKN015 BKN020 18/15
                        Q1021=
201105211330 METAR LPPR 211330Z 31008KT 270V340 9999 BKN016 OVC020 18/14
                        Q1021=
201105211300 METAR LPPR 211300Z 31007KT 280V340 9999 BKN013 BKN020 18/14
                        Q1021=
201105211230 METAR LPPR 211230Z 30007KT 9999 BKN012 BKN014 18/15 Q1021=
201105211200 METAR LPPR 211200Z 28005KT 240V320 9999 FEW011 BKN013 BKN015
                        18/15 Q1021=
201105211130 METAR LPPR 211130Z 24005KT 210V280 9999 SCT011 BKN015 18/14
                        Q1021=
201105211100 METAR LPPR 211100Z 25005KT 200V330 9999 BKN012 BKN013 18/14
                        Q1021=
201105211030 METAR LPPR 211030Z 25004KT 190V340 9999 BKN011 BKN012 17/15
                        Q1021=
201105211000 METAR LPPR 211000Z 24005KT 210V290 9999 BKN010 BKN011 17/15
                        Q1021=
201105210930 METAR LPPR 210930Z 29003KT 200V340 9999 BKN010 BKN011 17/15
                        Q1020=
201105210900 METAR LPPR 210900Z 25004KT 220V300 9999 BKN011 BKN013 17/15
                        Q1020=
201105210830 METAR LPPR 210830Z 23004KT 190V280 9999 BKN011 BKN012 17/15
                        Q1020=
201105210800 METAR LPPR 210800Z 25003KT 180V320 9999 FEW005 BKN010 BKN012
                        17/15 Q1020=
201105210730 METAR LPPR 210730Z 24003KT 210V290 9999 FEW005 BKN010 17/15
                        Q1020=
201105210700 METAR LPPR 210700Z 20003KT 170V280 8000 SCT005 BKN009 16/15
                        Q1020=
201105210630 METAR LPPR 210630Z 24003KT 200V270 8000 SCT006 BKN008 16/15
                        Q1020=
201105210600 METAR LPPR 210600Z 24003KT 200V270 8000 SCT006 BKN008 16/15
                        Q1020=
201105210530 METAR LPPR 210530Z VRB01KT 6000 OVC005 16/15 Q1019=
201105210500 METAR LPPR 210500Z VRB01KT 6000 SCT003 BKN005 16/15 Q1019=
201105210430 METAR LPPR 210430Z 00000KT 8000 SCT003 BKN006 16/15 Q1019=
201105210400 METAR LPPR 210400Z VRB02KT 7000 SCT003 BKN005 15/15 Q1019=
201105210330 METAR LPPR 210330Z VRB01KT 9000 BKN005 16/15 Q1019=
201105210300 METAR LPPR 210300Z VRB01KT 9999 BKN006 16/15 Q1019=
201105210230 METAR LPPR 210230Z VRB02KT 9000 BKN006 16/16 Q1019=
201105210200 METAR LPPR 210200Z 35002KT 9000 OVC005 16/16 Q1019=
201105210130 METAR LPPR 210130Z 00000KT 8000 BKN005 15/15 Q1019=
201105210100 METAR LPPR 210100Z 00000KT 8000 BKN005 15/15 Q1019=
201105210030 METAR LPPR 210030Z 00000KT CAVOK 15/15 Q1019=
201105210000 METAR LPPR 210000Z VRB01KT 9000 FEW007 14/14 Q1019=
201105202330 METAR LPPR 202330Z 00000KT CAVOK 15/15 Q1019=
201105202300 METAR LPPR 202300Z VRB01KT CAVOK 15/15 Q1019=
201105202230 METAR LPPR 202230Z 00000KT CAVOK 15/14 Q1019=
201105202200 METAR LPPR 202200Z VRB01KT CAVOK 16/15 Q1019=
201105202130 METAR LPPR 202130Z VRB02KT CAVOK 17/15 Q1019=
201105202100 METAR LPPR 202100Z 32004KT 290V350 CAVOK 17/15 Q1019=
201105202030 METAR LPPR 202030Z 33004KT 280V020 CAVOK 17/16 Q1019=
201105202000 METAR LPPR 202000Z 32005KT CAVOK 18/16 Q1018=
201105201930 METAR LPPR 201930Z 31005KT 270V340 9999 FEW030CB 19/16 Q1018=
201105201900 METAR LPPR 201900Z 32006KT 9999 FEW025TCU FEW030CB 20/15
                        Q1018=
201105201830 METAR LPPR 201830Z 31004KT 270V350 9999 FEW025TCU FEW030CB
                        20/16 Q1018=
201105201800 METAR LPPR 201800Z 32004KT 280V340 9999 FEW025TCU FEW030CB
                        21/16 Q1018=
201105201730 METAR LPPR 201730Z 33005KT 280V360 9999 FEW025TCU FEW030CB
                        21/15 Q1018=
201105201700 METAR LPPR 201700Z 33008KT 270V360 9999 FEW025TCU FEW030CB
                        21/15 Q1018=
201105201630 METAR LPPR 201630Z 32007KT 290V360 9999 FEW025TCU FEW030CB
                        22/16 Q1018=
201105201600 METAR LPPR 201600Z 31007KT 270V350 9999 FEW025TCU FEW030CB
                        21/15 Q1018=
201105201530 METAR LPPR 201530Z 30006KT 230V340 9999 FEW025TCU FEW030CB
                        21/16 Q1018=
201105201500 METAR LPPR 201500Z 29006KT 260V330 9999 FEW025TCU FEW030CB
                        21/16 Q1018=
201105201430 METAR LPPR 201430Z 29005KT 230V330 9999 FEW025TCU FEW030CB
                        21/16 Q1018=
201105201400 METAR LPPR 201400Z 28006KT 220V350 9999 FEW025TCU FEW030CB
                        21/16 Q1018=
201105201330 METAR LPPR 201330Z 29005KT 230V330 9999 FEW025TCU 21/17 Q1018=
201105201300 METAR LPPR 201300Z 30005KT 260V360 9999 FEW020TCU 21/17 Q1019=
201105201230 METAR LPPR 201230Z VRB06KT 9999 FEW013 21/17 Q1019=
201105201200 METAR LPPR 201200Z 26005KT 180V310 9000 FEW009 20/17 Q1019=
201105201130 METAR LPPR 201130Z 25005KT 200V310 8000 FEW008 20/16 Q1019=
201105201100 METAR LPPR 201100Z 27004KT 190V330 8000 FEW009 20/17 Q1019=
201105201030 METAR LPPR 201030Z 24006KT 7000 FEW010 20/17 Q1019=
201105201000 METAR LPPR 201000Z 27005KT 220V300 7000 FEW014 20/17 Q1019=
201105200930 METAR LPPR 200930Z 25005KT 230V290 6000 FEW009 20/17 Q1019=
201105200900 METAR LPPR 200900Z VRB03KT 9999 FEW009 SCT012 21/16 Q1018=
201105200830 METAR LPPR 200830Z VRB03KT 9999 FEW009 20/17 Q1018=
201105200800 METAR LPPR 200800Z VRB01KT 9999 FEW004 18/16 Q1018=
201105200730 METAR LPPR 200730Z VRB01KT 8000 FEW002 SCT011 18/17 Q1018=
201105200700 METAR LPPR 200700Z VRB01KT 5000 BR FEW003 BKN009 17/16 Q1018=
201105200630 METAR LPPR 200630Z VRB02KT 4300 BR FEW001 SCT004 BKN007 16/16
                        Q1018=
201105200600 METAR LPPR 200600Z 14004KT 100V170 3200 1300N R17/1800N BR
                        SCT002 SCT004 BKN009 16/16 Q1017=
201105200530 METAR LPPR 200530Z 17003KT 140V200 0900 R17/1100VP2000D FG
                        BKN002 BKN004 15/15 Q1017=
201105200500 METAR LPPR 200500Z 19004KT 160V220 1000 R17/0800VP2000D BCFG
                        SCT002 SCT007 14/14 Q1017=
201105200430 METAR LPPR 200430Z 17004KT 9000 NSC 15/14 Q1016=
201105200400 METAR LPPR 200400Z VRB01KT 9000 14/14 Q1016=
201105200330 METAR LPPR 200330Z 00000KT 7000 NSC 15/15 Q1016=
201105200300 METAR LPPR 200300Z VRB01KT CAVOK 15/15 Q1016=
201105200230 METAR LPPR 200230Z VRB01KT CAVOK 16/15 Q1016=
201105200200 METAR LPPR 200200Z VRB02KT CAVOK 16/15 Q1016=
201105200130 METAR LPPR 200130Z VRB01KT CAVOK 16/15 Q1016=
201105200100 METAR LPPR 200100Z VRB01KT CAVOK 16/15 Q1016=
201105200030 METAR LPPR 200030Z VRB03KT CAVOK 17/16 Q1016=
201105200000 METAR LPPR 200000Z 09003KT 9999 SCT040 18/16 Q1016=
201105192330 METAR LPPR 192330Z 15003KT 100V190 9999 -SHRA FEW020 SCT040
                        18/16 Q1016=
201105192300 METAR LPPR 192300Z VRB02KT 9999 -SHRA FEW017 FEW025TCU 18/16
                        Q1016=
201105192230 METAR LPPR 192230Z 09003KT 040V140 9999 FEW025 17/16 Q1016=
201105192200 METAR LPPR 192200Z 02004KT 320V060 9999 FEW025 17/16 Q1017=
201105192130 METAR LPPR 192130Z VRB02KT 9999 FEW025 17/16 Q1016=
201105192100 METAR LPPR 192100Z VRB02KT 9999 FEW025 17/16 Q1016=
201105192030 METAR LPPR 192030Z 28003KT 230V350 9999 FEW025 FEW030CB 18/16
                        Q1016=
201105192000 METAR LPPR 192000Z 25005KT 220V290 9999 FEW025 FEW030CB 18/16
                        Q1015=
201105191930 METAR LPPR 191930Z 26004KT 230V300 9999 FEW025 FEW030CB 20/16
                        Q1015=
201105191900 METAR LPPR 191900Z 25004KT 200V310 9999 FEW025 FEW030CB 21/15
                        Q1015=
201105191830 METAR LPPR 191830Z 31006KT 9999 FEW025 FEW030CB 21/15 Q1014=
201105191800 METAR LPPR 191800Z 33008KT 9999 FEW025 FEW030CB 21/13 Q1014=
201105191730 METAR LPPR 191730Z 32007KT 280V350 9999 FEW025 FEW030CB 21/14
                        Q1014=
201105191700 METAR LPPR 191700Z 32010KT 9999 FEW025 FEW030CB/ 22/14 Q1013=
201105191630 METAR LPPR 191630Z 33009KT 300V360 9999 FEW025 FEW030CB 21/15
                        Q1014=
201105191600 METAR LPPR 191600Z 33010KT 290V350 9999 FEW025 FEW030CB 22/15
                        Q1014=
201105191530 METAR LPPR 191530Z 30007KT 260V340 9999 FEW025 FEW030CB 21/15
                        Q1014=
201105191500 METAR LPPR 191500Z 30008KT 270V340 9999 FEW025 FEW030CB 22/15
                        Q1014=
201105191430 METAR LPPR 191430Z 30007KT 260V340 9999 FEW025 22/17 Q1014=
201105191400 METAR LPPR 191400Z 30008KT 260V330 9999 FEW025 22/17 Q1014=
201105191330 METAR LPPR 191330Z 29006KT 260V330 9999 FEW025 22/16 Q1014=
201105191300 METAR LPPR 191300Z 29007KT 250V330 9999 FEW025 22/17 Q1014=
201105191230 METAR LPPR 191230Z 29006KT 260V330 9999 FEW025 22/17 Q1014=
201105191200 METAR LPPR 191200Z 25007KT 210V290 9999 FEW025 22/17 Q1014=
201105191130 METAR LPPR 191130Z 26006KT 220V300 9999 FEW025 22/16 Q1014=
201105191100 METAR LPPR 191100Z 24006KT 180V300 9999 FEW025 SCT045 22/16
                        Q1014=
201105191030 METAR LPPR 191030Z 24006KT 200V270 9999 FEW025 SCT045 21/16
                        Q1014=
201105191000 METAR LPPR 191000Z 28004KT 240V350 9999 FEW025 22/16 Q1014=
201105190930 METAR LPPR 190930Z 25004KT 210V300 9999 FEW042 21/16 Q1013=
201105190900 METAR LPPR 190900Z 26005KT 200V310 CAVOK 21/16 Q1013=
201105190830 METAR LPPR 190830Z 14003KT 080V220 CAVOK 22/15 Q1013=
201105190800 METAR LPPR 190800Z 09004KT 030V130 CAVOK 20/15 Q1013=
201105190730 METAR LPPR 190730Z 11004KT CAVOK 20/15 Q1012=
201105190700 METAR LPPR 190700Z 11005KT 070V220 CAVOK 19/15 Q1012=
201105190630 METAR LPPR 190630Z 11005KT 090V220 CAVOK 18/14 Q1012=
201105190600 METAR LPPR 190600Z 10006KT 080V140 CAVOK 18/15 Q1012=
201105190530 METAR LPPR 190530Z 10005KT CAVOK 17/15 Q1011=
201105190500 METAR LPPR 190500Z 10003KT 070V130 CAVOK 17/14 Q1011=
201105190430 METAR LPPR 190430Z 10004KT 070V130 CAVOK 17/15 Q1011=
201105190400 METAR LPPR 190400Z 12004KT 090V260 CAVOK 18/15 Q1011=
201105190330 METAR LPPR 190330Z 05004KT CAVOK 18/15 Q1011=
201105190300 METAR LPPR 190300Z 05004KT CAVOK 17/15 Q1011=
201105190230 METAR LPPR 190230Z 06005KT CAVOK 17/15 Q1011=
201105190200 METAR LPPR 190200Z VRB02KT CAVOK 17/16 Q1011=
201105190130 METAR LPPR 190130Z 04004KT 010V070 CAVOK 16/15 Q1011=
201105190100 METAR LPPR 190100Z VRB02KT CAVOK 18/15 Q1011=
201105190030 METAR LPPR 190030Z 07004KT 040V100 CAVOK 18/16 Q1010=
201105190000 METAR LPPR 190000Z 07005KT CAVOK 18/16 Q1011=
201105182330 METAR LPPR 182330Z 02004KT 8000 NSC 17/15 Q1011=
201105182300 METAR LPPR 182300Z 06003KT 360V110 9000 NSC 18/16 Q1011=
201105182230 METAR LPPR 182230Z 01003KT 340V040 8000 NSC 17/17 Q1011=
201105182200 METAR LPPR 182200Z 34004KT 8000 NSC 17/16 Q1011=
201105182130 METAR LPPR 182130Z 33004KT CAVOK 18/16 Q1010=
201105182100 METAR LPPR 182100Z VRB02KT CAVOK 18/16 Q1010=
201105182030 METAR LPPR 182030Z 12004KT 060V230 9999 FEW030 18/17 Q1010=
201105182000 METAR LPPR 182000Z 32006KT 9999 FEW030 18/16 Q1009=
201105181930 METAR LPPR 181930Z 03005KT 360V060 9999 FEW025CB SCT030 19/16
                        Q1010=
201105181900 METAR LPPR 181900Z 05003KT 010V090 9999 FEW025CB SCT030 19/16
                        Q1010=
201105181830 METAR LPPR 181830Z 09005KT 070V130 9999 FEW017 SCT025CB 19/16
                        Q1010=
201105181800 METAR LPPR 181800Z 02005KT 350V060 9999 FEW017 SCT025CB 19/16
                        Q1010=
201105181730 METAR LPPR 181730Z 03004KT 340V080 9999 FEW017 SCT025CB 19/16
                        Q1010=
201105181700 METAR LPPR 181700Z VRB01KT 9999 FEW017 SCT025CB 19/16 Q1010=
201105181630 METAR LPPR 181630Z 01006KT 330V030 9999 FEW017 SCT025CB SCT040
                        19/17 Q1010=
201105181600 METAR LPPR 181600Z 33005KT 290V360 9999 SCT017 SCT025CB SCT040
                        18/16 Q1010=
201105181530 METAR LPPR 181530Z 31003KT 270V350 9999 TS FEW009 SCT017
                        SCT025CB 18/16 Q1010=
201105181500 METAR LPPR 181500Z 32004KT 290V350 9000 TS FEW005 SCT020
                        SCT030CB 18/16 Q1011=
201105181430 METAR LPPR 181430Z 31004KT 240V360 7000 TSRA SCT025 FEW030CB
                        18/17 Q1011=
201105181400 METAR LPPR 181400Z 21009KT 180V240 5000 TSRA SCT025 SCT030CB
                        17/16 Q1011=
201105181330 METAR LPPR 181330Z 14010KT 4000 TSRA BR SCT025 SCT030CB
                        19/16 Q1012=
201105181300 METAR LPPR 181300Z 29007KT 270V330 9999 FEW025 FEW030CB 20/15
                        Q1010=
201105181230 METAR LPPR 181230Z 29007KT 270V330 9999 FEW025 FEW030CB 23/16
                        Q1010=
201105181200 METAR LPPR 181200Z 29007KT 9999 FEW025 FEW030CB 24/15 Q1010=
201105181130 METAR LPPR 181130Z 26005KT 230V310 9999 FEW025 25/16 Q1011=
201105181100 METAR LPPR 181100Z 29004KT 9999 FEW025 24/16 Q1011=
201105181030 METAR LPPR 181030Z 28004KT 9999 FEW025 24/16 Q1011=
201105181000 METAR LPPR 181000Z VRB04KT 9999 FEW025 25/14 Q1011=
201105180930 METAR LPPR 180930Z 04006KT 270V080 9999 FEW025 24/15 Q1011=
201105180900 METAR LPPR 180900Z VRB02KT 9999 FEW025 22/16 Q1011=
201105180830 METAR LPPR 180830Z 36004KT 290V050 9999 FEW025 21/15 Q1011=
201105180800 METAR LPPR 180800Z 36005KT 330V050 9999 FEW025 20/15 Q1011=
201105180730 METAR LPPR 180730Z VRB02KT 9999 FEW025 19/15 Q1012=
201105180700 METAR LPPR 180700Z VRB02KT 9999 FEW020 19/15 Q1012=
201105180630 METAR LPPR 180630Z VRB02KT 9000 FEW020 17/15 Q1012=
201105180600 METAR LPPR 180600Z 24002KT 8000 FEW020 SCT045 17/15 Q1012=
201105180530 METAR LPPR 180530Z 01003KT 350V070 8000 NSC 17/15 Q1012=
201105180500 METAR LPPR 180500Z 10004KT 060V130 CAVOK 18/15 Q1012=
201105180430 METAR LPPR 180430Z 07004KT 040V100 CAVOK 17/15 Q1012=
201105180400 METAR LPPR 180400Z 10005KT CAVOK 17/15 Q1012=
201105180330 METAR LPPR 180330Z VRB02KT CAVOK 16/14 Q1013=
201105180300 METAR LPPR 180300Z VRB01KT CAVOK 16/15 Q1013=
201105180230 METAR LPPR 180230Z 05002KT CAVOK 15/14 Q1013=
201105180200 METAR LPPR 180200Z 00000KT CAVOK 15/14 Q1013=
201105180130 METAR LPPR 180130Z 11002KT CAVOK 15/14 Q1014=
201105180100 METAR LPPR 180100Z 09001KT CAVOK 15/13 Q1014=
201105180030 METAR LPPR 180030Z 00000KT 9999 FEW025CB 15/14 Q1014=
201105180000 METAR LPPR 180000Z VRB02KT 9999 FEW025CB 15/13 Q1015=
201105172330 METAR LPPR 172330Z 00000KT 9999 FEW025CB 16/14 Q1015=
201105172300 METAR LPPR 172300Z 35002KT 9999 FEW025CB 16/13 Q1015=
201105172230 METAR LPPR 172230Z VRB02KT 9999 FEW025CB 16/13 Q1016=
201105172200 METAR LPPR 172200Z 35006KT 9999 FEW025CB 16/13 Q1016=
201105172130 METAR LPPR 172130Z 35004KT 9999 FEW025CB 17/13 Q1016=
201105172100 METAR LPPR 172100Z 36003KT 9999 FEW025CB 17/13 Q1016=
201105172030 METAR LPPR 172030Z 35004KT 9999 FEW025CB 17/13 Q1016=
201105172000 METAR LPPR 172000Z 32005KT 290V350 9999 FEW025CB 18/13 Q1016=
201105171930 METAR LPPR 171930Z 34008KT 9999 FEW025CB 19/13 Q1016=
201105171900 METAR LPPR 171900Z 34007KT 300V020 9999 FEW025CB SCT045 19/13
                        Q1016=
201105171830 METAR LPPR 171830Z 32007KT 280V350 9999 FEW018 FEW025CB 20/14
                        Q1016=
201105171800 METAR LPPR 171800Z 32008KT 290V350 9999 FEW025CB 21/15 Q1016=
201105171730 METAR LPPR 171730Z 29006KT 250V340 9999 FEW018 FEW025CB 21/17
                        Q1016=
201105171700 METAR LPPR 171700Z 33005KT 9999 FEW018 FEW025CB 23/17 Q1016=
201105171630 METAR LPPR 171630Z 02005KT 340V090 9999 FEW017 FEW025CB 23/17
                        Q1016=
201105171600 METAR LPPR 171600Z 36005KT 320V020 9999 FEW018 FEW025CB 22/16
                        Q1016=
201105171530 METAR LPPR 171530Z 32003KT 280V360 9999 FEW018 FEW025CB 21/16
                        Q1017=
201105171500 METAR LPPR 171500Z 35007KT 9999 FEW017 FEW025CB SCT030 21/17
                        Q1017=
201105171430 METAR LPPR 171430Z 34004KT 310V010 9999 FEW012 FEW020CB BKN036
                        20/16 Q1018=
201105171400 METAR LPPR 171400Z VRB01KT 8000 -SHRA FEW020 FEW025CB BKN030
                        20/16 Q1018=
201105171330 METAR LPPR 171330Z 04005KT 9999 -SHRA FEW020 FEW025CB SCT030
                        20/15 Q1018=
201105171300 METAR LPPR 171300Z VRB05KT 9999 -SHRA FEW020 FEW025CB SCT030
                        20/16 Q1019=
201105171230 METAR LPPR 171230Z 17006KT 9999 -SHRA FEW025 BKN033 19/15
                        Q1019=
201105171200 METAR LPPR 171200Z 12009KT 9999 -SHRA FEW017 FEW025CB SCT030
                        20/15 Q1019=
201105171130 METAR LPPR 171130Z 13010KT 100V160 9999 FEW017 FEW025CB SCT030
                        21/13 Q1020=
201105171100 METAR LPPR 171100Z VRB07KT 9999 FEW020 FEW025CB SCT030 23/14
                        Q1020=
201105171030 METAR LPPR 171030Z 10004KT 060V150 9999 FEW020CB SCT030 22/14
                        Q1019=
201105171000 METAR LPPR 171000Z 02006KT 350V060 9999 FEW017 FEW020CB SCT030
                        20/14 Q1019=
201105170930 METAR LPPR 170930Z 04004KT 360V080 9999 FEW017 FEW020CB SCT030
                        21/14 Q1019=
201105170900 METAR LPPR 170900Z 12004KT 060V150 9999 FEW017 FEW020CB SCT030
                        20/13 Q1019=
201105170830 METAR LPPR 170830Z 10004KT 050V130 9999 FEW017 FEW020CB SCT030
                        19/13 Q1019=
201105170800 METAR LPPR 170800Z 10004KT 070V140 9999 FEW017 FEW020CB SCT030
                        19/13 Q1019=
201105170730 METAR LPPR 170730Z 11004KT 9999 FEW020 SCT040 19/13 Q1019=
201105170700 METAR LPPR 170700Z 13003KT 090V170 9999 FEW025 18/13 Q1019=
201105170630 METAR LPPR 170630Z 03003KT 9999 FEW025 17/13 Q1019=
201105170600 METAR LPPR 170600Z 07006KT 040V100 9999 FEW025 17/13 Q1019=
201105170530 METAR LPPR 170530Z 07006KT 020V110 CAVOK 16/13 Q1018=
201105170500 METAR LPPR 170500Z 07004KT CAVOK 16/13 Q1019=
201105170430 METAR LPPR 170430Z 06003KT 330V100 CAVOK 16/12 Q1019=
201105170400 METAR LPPR 170400Z 14004KT CAVOK 16/13 Q1019=
201105170330 METAR LPPR 170330Z 18004KT 150V210 CAVOK 16/13 Q1020=
201105170300 METAR LPPR 170300Z 19003KT 150V220 CAVOK 17/13 Q1020=
201105170230 METAR LPPR 170230Z 22006KT 180V270 CAVOK 17/13 Q1020=
201105170200 METAR LPPR 170200Z 20012KT 170V230 CAVOK 18/14 Q1020=
201105170100 METAR LPPR 170100Z 18010KT CAVOK 20/11 Q1019=
201105170030 METAR LPPR 170030Z 13005KT CAVOK 19/11 Q1018=
201105170000 METAR LPPR 170000Z 03004KT 320V070 CAVOK 17/11 Q1018=
201105162330 METAR LPPR 162330Z 02003KT CAVOK 18/11 Q1018=
201105162300 METAR LPPR 162300Z 03003KT CAVOK 18/10 Q1018=
201105162230 METAR LPPR 162230Z 36002KT CAVOK 17/10 Q1018=
201105162200 METAR LPPR 162200Z VRB02KT CAVOK 17/09 Q1018=
201105162130 METAR LPPR 162130Z 36004KT CAVOK 17/10 Q1018=
201105162100 METAR LPPR 162100Z 36004KT CAVOK 19/09 Q1018=
201105162030 METAR LPPR 162030Z 32004KT CAVOK 19/09 Q1018=
201105162000 METAR LPPR 162000Z 33004KT CAVOK 21/08 Q1018=
201105161930 METAR LPPR 161930Z 33007KT CAVOK 21/07 Q1018=
201105161900 METAR LPPR 161900Z 35010KT CAVOK 22/06 Q1018=
201105161830 METAR COR LPPR 161830Z 34009KT CAVOK 23/06 Q1018=
201105161800 METAR LPPR 161800Z 35010KT CAVOK 24/06 Q1018=
201105161730 METAR LPPR 161730Z 33008KT 310V010 CAVOK 24/07 Q1018=
201105161700 METAR LPPR 161700Z 34009KT CAVOK 24/07 Q1019=
201105161630 METAR LPPR 161630Z 33010KT CAVOK 25/08 Q1019=
201105161600 METAR LPPR 161600Z 34011KT CAVOK 25/08 Q1019=
201105161530 METAR LPPR 161530Z 32009KT 290V350 CAVOK 25/08 Q1019=
201105161500 METAR LPPR 161500Z 31010KT CAVOK 24/07 Q1020=
201105161430 METAR LPPR 161430Z 32009KT 280V340 CAVOK 24/08 Q1020=
201105161400 METAR LPPR 161400Z 29006KT CAVOK 25/09 Q1020=
201105161330 METAR LPPR 161330Z 29006KT 240V330 CAVOK 25/09 Q1020=
201105161300 METAR LPPR 161300Z VRB04KT CAVOK 27/07 Q1021=
201105161230 METAR LPPR 161230Z VRB06KT CAVOK 26/06 Q1021=
201105161200 METAR LPPR 161200Z 07008KT 040V140 CAVOK 26/07 Q1021=
201105161130 METAR LPPR 161130Z 09009KT 050V130 CAVOK 25/08 Q1021=
201105161100 METAR LPPR 161100Z 10010KT CAVOK 25/09 Q1021=
201105161030 METAR LPPR 161030Z 10011KT 070V140 CAVOK 23/08 Q1021=
201105161000 METAR LPPR 161000Z 10012KT CAVOK 22/08 Q1021=
201105160930 METAR LPPR 160930Z 10015G26KT CAVOK 21/06 Q1021=
201105160900 METAR LPPR 160900Z 11015KT CAVOK 20/07 Q1021=
201105160830 METAR LPPR 160830Z 10015KT 070V140 CAVOK 19/06 Q1021=
201105160800 METAR LPPR 160800Z 10014KT CAVOK 18/06 Q1021=
201105160730 METAR LPPR 160730Z 11015KT CAVOK 17/05 Q1021=
201105160700 METAR LPPR 160700Z 10016KT CAVOK 16/05 Q1021=
201105160630 METAR LPPR 160630Z 10016KT CAVOK 16/04 Q1021=
201105160600 METAR LPPR 160600Z 10015KT CAVOK 16/04 Q1021=
201105160530 METAR LPPR 160530Z 10015KT CAVOK 16/04 Q1021=
201105160500 METAR LPPR 160500Z 09013KT CAVOK 17/04 Q1021=
201105160430 METAR LPPR 160430Z 09013KT 060V120 CAVOK 17/04 Q1021=
201105160400 METAR LPPR 160400Z 09012KT CAVOK 17/04 Q1021=
201105160330 METAR LPPR 160330Z 10013KT CAVOK 18/04 Q1021=
201105160300 METAR LPPR 160300Z 10012KT CAVOK 18/04 Q1021=
201105160230 METAR LPPR 160230Z 10012KT CAVOK 18/04 Q1021=
201105160200 METAR LPPR 160200Z 10010KT CAVOK 19/04 Q1021=
201105160130 METAR LPPR 160130Z 09009KT CAVOK 19/03 Q1021=
201105160100 METAR LPPR 160100Z 09008KT CAVOK 19/04 Q1021=
201105160030 METAR LPPR 160030Z 09009KT CAVOK 20/03 Q1021=
201105160000 METAR LPPR 160000Z 10008KT CAVOK 19/03 Q1021=
201105152330 METAR LPPR 152330Z 09006KT CAVOK 19/03 Q1021=
201105152300 METAR LPPR 152300Z 08006KT CAVOK 20/04 Q1021=
201105152230 METAR LPPR 152230Z 06007KT CAVOK 19/04 Q1021=
201105152200 METAR LPPR 152200Z 06006KT CAVOK 20/05 Q1021=
201105152130 METAR LPPR 152130Z 06005KT CAVOK 20/05 Q1021=
201105152100 METAR LPPR 152100Z VRB04KT CAVOK 19/07 Q1021=
201105152030 METAR LPPR 152030Z 08004KT CAVOK 19/07 Q1020=
201105152000 METAR LPPR 152000Z 08004KT CAVOK 23/05 Q1020=
201105151930 METAR LPPR 151930Z 09005KT 050V170 CAVOK 22/10 Q1020=
201105151900 METAR LPPR 151900Z VRB02KT CAVOK 24/10 Q1020=
201105151830 METAR LPPR 151830Z 32004KT 300V360 CAVOK 24/09 Q1020=
201105151800 METAR LPPR 151800Z 32005KT CAVOK 24/09 Q1020=
201105151730 METAR LPPR 151730Z 08006KT 040V130 CAVOK 27/03 Q1020=
201105151700 METAR LPPR 151700Z 07008KT 030V120 CAVOK 27/02 Q1020=
201105151630 METAR LPPR 151630Z 11008KT 080V140 CAVOK 27/04 Q1020=
201105151600 METAR LPPR 151600Z 11010KT 070V140 CAVOK 26/03 Q1020=
201105151530 METAR LPPR 151530Z 11009KT 070V150 CAVOK 26/03 Q1021=
201105151500 METAR LPPR 151500Z 11009KT 050V140 CAVOK 27/04 Q1021=
201105151430 METAR LPPR 151430Z VRB06KT CAVOK 26/04 Q1021=
201105151400 METAR LPPR 151400Z 10008KT 040V130 CAVOK 26/04 Q1021=
201105151330 METAR LPPR 151330Z 08009KT 040V100 CAVOK 25/04 Q1022=
201105151300 METAR LPPR 151300Z 09009KT 050V140 CAVOK 24/03 Q1022=
201105151230 METAR LPPR 151230Z 07008KT 040V110 CAVOK 24/02 Q1022=
201105151200 METAR LPPR 151200Z 07011KT 030V110 CAVOK 23/03 Q1023=
201105151130 METAR LPPR 151130Z 08009KT 020V120 CAVOK 23/03 Q1023=
201105151100 METAR LPPR 151100Z 07010KT 040V110 CAVOK 22/02 Q1023=
201105151030 METAR LPPR 151030Z 11012KT 070V130 CAVOK 21/02 Q1023=
201105151000 METAR LPPR 151000Z 08012KT 050V110 CAVOK 20/02 Q1023=
201105150930 METAR LPPR 150930Z 10012KT 060V120 CAVOK 20/03 Q1023=
201105150900 METAR LPPR 150900Z 09013KT 070V140 CAVOK 19/02 Q1023=
201105150830 METAR LPPR 150830Z 10014KT CAVOK 18/01 Q1023=
201105150800 METAR LPPR 150800Z 08015KT CAVOK 17/01 Q1022=
201105150730 METAR LPPR 150730Z 10012KT 070V130 CAVOK 17/01 Q1022=
201105150700 METAR LPPR 150700Z 09010KT 050V120 CAVOK 16/02 Q1022=
201105150630 METAR LPPR 150630Z 07008KT 040V110 CAVOK 15/02 Q1022=
201105150600 METAR LPPR 150600Z 07010KT 040V110 CAVOK 15/02 Q1022=
201105150530 METAR LPPR 150530Z 08011KT 050V110 CAVOK 15/02 Q1022=
201105150500 METAR LPPR 150500Z 09012KT 050V120 CAVOK 15/03 Q1021=
201105150430 METAR LPPR 150430Z 09013KT CAVOK 16/03 Q1021=
201105150400 METAR LPPR 150400Z 10014KT CAVOK 16/03 Q1021=
201105150330 METAR LPPR 150330Z 09011KT 050V110 CAVOK 17/04 Q1021=
201105150300 METAR LPPR 150300Z 09014KT CAVOK 17/04 Q1021=
201105150230 METAR LPPR 150230Z 09012KT 060V130 CAVOK 18/05 Q1020=
201105150200 METAR LPPR 150200Z 08013KT CAVOK 18/06 Q1020=
201105150130 METAR LPPR 150130Z 09015KT CAVOK 19/06 Q1020=
201105150100 METAR LPPR 150100Z 09016G29KT CAVOK 19/07 Q1020=
201105150030 METAR LPPR 150030Z 09012G22KT 060V120 CAVOK 20/08 Q1020=
201105150000 METAR LPPR 150000Z 08010KT 060V120 CAVOK 20/08 Q1020=
201105142330 METAR LPPR 142330Z 09012KT 050V120 CAVOK 21/09 Q1020=
201105142300 METAR LPPR 142300Z 07010KT 050V110 CAVOK 21/09 Q1019=
201105142230 METAR LPPR 142230Z 04008KT CAVOK 20/09 Q1019=
201105142200 METAR LPPR 142200Z 02007KT CAVOK 20/08 Q1019=
201105142130 METAR LPPR 142130Z 02009KT CAVOK 20/08 Q1018=
201105142100 METAR LPPR 142100Z 02008KT CAVOK 20/08 Q1018=
201105142030 METAR LPPR 142030Z 01008KT CAVOK 20/08 Q1018=
201105142000 METAR LPPR 142000Z 01010KT CAVOK 21/07 Q1017=
201105141930 METAR LPPR 141930Z 36010KT CAVOK 23/07 Q1017=
201105141900 METAR LPPR 141900Z 01011KT CAVOK 24/08 Q1017=
201105141830 METAR LPPR 141830Z 36012KT CAVOK 25/09 Q1017=
201105141800 METAR LPPR 141800Z 02013KT CAVOK 26/08 Q1017=
201105141730 METAR LPPR 141730Z 01013KT 340V040 CAVOK 26/10 Q1017=
201105141700 METAR LPPR 141700Z 36013KT CAVOK 26/10 Q1017=
201105141630 METAR LPPR 141630Z 35013KT CAVOK 26/11 Q1017=
201105141600 METAR LPPR 141600Z 36014KT CAVOK 26/10 Q1017=
201105141530 METAR LPPR 141530Z 32011KT 290V350 CAVOK 25/14 Q1017=
201105141500 METAR LPPR 141500Z 32009KT 270V350 CAVOK 25/13 Q1017=
201105141430 METAR LPPR 141430Z 32011KT CAVOK 25/14 Q1017=
201105141400 METAR LPPR 141400Z 32011KT CAVOK 24/13 Q1017=
201105141330 METAR LPPR 141330Z 30007KT 270V340 CAVOK 25/14 Q1017=
201105141300 METAR LPPR 141300Z 35006KT 270V060 CAVOK 26/14 Q1017=
201105141230 METAR LPPR 141230Z 33006KT 260V030 CAVOK 26/13 Q1018=
201105141200 METAR LPPR 141200Z 36005KT 300V100 CAVOK 25/12 Q1018=
201105141130 METAR LPPR 141130Z 02006KT 330V080 CAVOK 25/13 Q1018=
201105141100 METAR LPPR 141100Z 36007KT 330V050 CAVOK 23/12 Q1018=
201105141030 METAR LPPR 141030Z 02008KT 350V060 CAVOK 22/12 Q1018=
201105141000 METAR LPPR 141000Z 01010KT 340V050 CAVOK 22/13 Q1018=
201105140930 METAR LPPR 140930Z 02009KT 340V050 CAVOK 21/14 Q1018=
201105140900 METAR LPPR 140900Z 01006KT 340V060 9999 NSC 19/15 Q1018=
201105140830 METAR LPPR 140830Z 35007KT 330V030 9999 NSC 17/14 Q1018=
201105140800 METAR LPPR 140800Z 35005KT 6000 NSC 15/14 Q1018=
201105140730 METAR LPPR 140730Z 34003KT 6000 NSC 14/14 Q1018=
201105140700 METAR LPPR 140700Z 35003KT 5000 BR NSC 14/14 Q1018=
201105140630 METAR LPPR 140630Z 36003KT 3900 BR FEW008 13/13 Q1018=
201105140600 METAR COR LPPR 140600Z 07003KT 020V120 6000 2600N VCFG BR
                        13/12 Q1017=
201105140530 METAR LPPR 140530Z VRB01KT 3600 0800N R17/0900VP2000U BCFG
                        SCT002 BKN010 13/12 Q1017=
201105140500 METAR LPPR 140500Z 01003KT 0700 0350N R17/0325 BCFG VV004
                        12/11 Q1017=
201105140430 METAR LPPR 140430Z 36002KT 0400 0250N R17/0350V0500 BCFG
                        VV001 13/13 Q1016=
201105140400 METAR LPPR 140400Z VRB01KT 0500 0250N R35/P2000 PRFG BKN005
                        13/13 Q1016=
201105140330 METAR LPPR 140330Z 36003KT 0250 0150N R35/P2000 BCFG BR VV002
                        13/13 Q1016=
201105140300 METAR COR LPPR 140300Z 01003KT 2500 1100N R17/0900VP2000D
                        BR VCFG BKN004 14/14 Q1016=
201105140230 METAR LPPR 140230Z 04003KT 5000 1200N R17/1300VP2000 BR VCFG
                        SCT004 14/13 Q1016=
201105140200 METAR COR LPPR 140200Z VRB01KT 6000 2300N BR VCFG FEW002
                        SCT004 14/14 Q1016=
201105140130 METAR LPPR 140130Z 16005KT 9000 FEW002 SCT004 15/15 Q1016=
201105140100 METAR LPPR 140100Z 10003KT 070V130 9000 4200N FEW001 15/15
                        Q1016=
201105140030 METAR LPPR 140030Z 03003KT 350V070 6000 1300N R35/P2000 BR
                        VCFG SCT004 15/15 Q1016=
201105140000 METAR LPPR 140000Z 01001KT 8000 0650N R35/P2000 BR VCFG FEW008
                        15/15 Q1017=
201105132330 METAR LPPR 132330Z 00000KT 7000 2500N BR FEW024 16/15 Q1017=
201105132300 METAR LPPR 132300Z 00000KT 7000 SCT005 BKN008 16/15 Q1017=
201105132230 METAR LPPR 132230Z 00000KT 5000 1300N BR VCFG 16/15 Q1017=
201105132200 METAR LPPR 132200Z VRB01KT CAVOK 17/16 Q1017=
201105132130 METAR LPPR 132130Z VRB02KT CAVOK 17/16 Q1017=
201105132100 METAR LPPR 132100Z 27002KT CAVOK 18/16 Q1016=
201105132030 METAR LPPR 132030Z 31003KT 240V350 CAVOK 18/15 Q1016=
201105132000 METAR LPPR 132000Z 33004KT CAVOK 19/15 Q1016=
201105131930 METAR LPPR 131930Z 33005KT CAVOK 19/16 Q1015=
201105131900 METAR LPPR 131900Z 32005KT 290V350 CAVOK 20/16 Q1015=
201105131830 METAR LPPR 131830Z 33007KT 9999 FEW025CB 21/16 Q1015=
201105131800 METAR LPPR 131800Z 30006KT 280V340 9999 FEW025CB 21/17 Q1015=
201105131730 METAR LPPR 131730Z 31006KT 9999 FEW025CB 22/16 Q1015=
201105131700 METAR LPPR 131700Z 32007KT 9999 FEW025CB 22/17 Q1015=
201105131630 METAR LPPR 131630Z 33008KT 290V360 9999 FEW020 FEW025CB 22/17
                        Q1015=
201105131600 METAR LPPR 131600Z 30005KT 230V340 9999 FEW020 FEW025CB 23/17
                        Q1015=
201105131530 METAR LPPR 131530Z 29006KT 260V320 9999 FEW020CB 23/16 Q1015=
201105131500 METAR LPPR 131500Z 29005KT 250V330 9999 FEW020CB 23/15 Q1015=
201105131430 METAR LPPR 131430Z 29005KT 250V350 9999 FEW020CB 24/14 Q1015=
201105131400 METAR LPPR 131400Z 29005KT 240V320 9999 FEW020CB 24/13 Q1015=
201105131330 METAR COR LPPR 131330Z 27005KT 170V330 CAVOK 25/11 Q1015=
201105131300 METAR LPPR 131300Z 29006KT 250V320 CAVOK 25/13 Q1015=
201105131230 METAR LPPR 131230Z 29005KT 240V330 CAVOK 25/17 Q1015=
201105131200 METAR LPPR 131200Z 29005KT 240V330 CAVOK 24/16 Q1015=
201105131130 METAR LPPR 131130Z 27005KT 220V300 CAVOK 24/17 Q1015=
201105131100 METAR LPPR 131100Z 26005KT 230V290 CAVOK 24/19 Q1015=
201105131030 METAR LPPR 131030Z 23004KT 200V270 CAVOK 23/18 Q1015=
201105131000 METAR LPPR 131000Z 25006KT 220V300 CAVOK 22/18 Q1016=
201105130930 METAR LPPR 130930Z 26005KT 220V300 CAVOK 22/19 Q1015=
201105130900 METAR LPPR 130900Z 25004KT 210V290 CAVOK 24/18 Q1015=
201105130830 METAR LPPR 130830Z 23003KT 190V300 CAVOK 22/18 Q1015=
201105130800 METAR LPPR 130800Z 18004KT 130V220 9000 NSC 22/17 Q1015=
201105130730 METAR LPPR 130730Z 16004KT 120V200 CAVOK 22/15 Q1015=
201105130700 METAR LPPR 130700Z 13005KT CAVOK 20/15 Q1014=
201105130630 METAR LPPR 130630Z 12007KT CAVOK 19/15 Q1014=
201105130600 METAR LPPR 130600Z VRB02KT CAVOK 17/15 Q1014=
201105130530 METAR LPPR 130530Z 10002KT CAVOK 16/14 Q1013=
201105130500 METAR LPPR 130500Z VRB02KT CAVOK 17/15 Q1013=
201105130430 METAR LPPR 130430Z VRB01KT CAVOK 15/14 Q1013=
201105130400 METAR LPPR 130400Z VRB01KT CAVOK 15/14 Q1014=
201105130330 METAR LPPR 130330Z VRB02KT CAVOK 16/14 Q1014=
201105130300 METAR LPPR 130300Z 09003KT CAVOK 16/15 Q1014=
201105130230 METAR LPPR 130230Z 12001KT CAVOK 16/15 Q1014=
201105130200 METAR LPPR 130200Z 00000KT CAVOK 15/14 Q1014=
201105130130 METAR LPPR 130130Z 00000KT CAVOK 16/15 Q1014=
201105130100 METAR LPPR 130100Z VRB01KT CAVOK 15/14 Q1014=
201105130030 METAR LPPR 130030Z VRB02KT CAVOK 16/14 Q1014=
201105130000 METAR LPPR 130000Z 00000KT CAVOK 16/15 Q1015=
201105122330 METAR LPPR 122330Z 01002KT CAVOK 16/15 Q1015=
201105122300 METAR LPPR 122300Z 34001KT CAVOK 17/16 Q1015=
201105122230 METAR LPPR 122230Z VRB02KT CAVOK 17/15 Q1015=
201105122200 METAR LPPR 122200Z 28001KT CAVOK 17/16 Q1015=
201105122130 METAR LPPR 122130Z 00000KT CAVOK 18/16 Q1015=
201105122100 METAR LPPR 122100Z 00000KT CAVOK 19/16 Q1015=
201105122030 METAR LPPR 122030Z 00000KT CAVOK 19/16 Q1014=
201105122000 METAR LPPR 122000Z VRB02KT 9999 FEW030CB 21/15 Q1014=
201105121930 METAR LPPR 121930Z 33003KT 9999 FEW020 FEW030CB 22/15 Q1014=
201105121900 METAR LPPR 121900Z 31003KT 9999 FEW020TCU FEW030CB 23/14
                        Q1014=
201105121830 METAR LPPR 121830Z 30003KT 270V340 9999 FEW020 FEW025CB 24/14
                        Q1015=
201105121800 METAR LPPR 121800Z 31004KT 270V350 9999 FEW020 FEW025CB 24/14
                        Q1014=
201105121730 METAR LPPR 121730Z 32004KT 290V350 9999 FEW020 FEW025CB 24/14
                        Q1014=
201105121700 METAR LPPR 121700Z 28004KT 230V330 9999 FEW020 FEW025CB 24/15
                        Q1014=
201105121630 METAR LPPR 121630Z 29004KT 240V340 9999 FEW020 FEW025CB 25/14
                        Q1015=
201105121600 METAR LPPR 121600Z 29004KT 220V340 9999 FEW020 FEW025CB 25/15
                        Q1015=
201105121530 METAR LPPR 121530Z 30004KT 9999 FEW020 FEW025CB 25/16 Q1015=
201105121500 METAR LPPR 121500Z 31004KT 270V340 9999 R35/P2000 FEW020 FEW030CB
                        25/16 Q1015=
201105121430 METAR LPPR 121430Z 27005KT 230V320 9999 FEW025 FEW030CB 25/16
                        Q1016=
201105121400 METAR LPPR 121400Z 29004KT 250V320 9999 FEW025 FEW030CB 24/17
                        Q1016=
201105121330 METAR LPPR 121330Z 31005KT 260V330 9999 FEW025 FEW030CB 24/18
                        Q1016=
201105121300 METAR LPPR 121300Z 25006KT 220V290 9999 FEW025 23/18 Q1016=
201105121230 METAR LPPR 121230Z 27005KT 230V310 9999 FEW025 23/18 Q1017=
201105121200 METAR LPPR 121200Z 26004KT 180V300 8000 NSC 23/18 Q1017=
201105121130 METAR LPPR 121130Z 23004KT 190V290 8000 NSC 21/18 Q1017=
201105121100 METAR LPPR 121100Z 27004KT 220V300 6000 NSC 21/18 Q1017=
201105121030 METAR LPPR 121030Z 24006KT 6000 NSC 22/18 Q1017=
201105121000 METAR LPPR 121000Z 23005KT 170V270 5000 NSC 23/18 Q1017=
201105120930 METAR LPPR 120930Z 25005KT 210V300 8000 NSC 23/17 Q1016=
201105120900 METAR LPPR 120900Z VRB04KT CAVOK 23/18 Q1016=
201105120830 METAR LPPR 120830Z 15004KT 100V180 CAVOK 24/16 Q1016=
201105120800 METAR LPPR 120800Z 14004KT 080V170 CAVOK 22/16 Q1016=
201105120730 METAR LPPR 120730Z 10003KT 040V170 CAVOK 20/17 Q1016=
201105120700 METAR LPPR 120700Z VRB02KT 7000 NSC 18/17 Q1016=
201105120630 METAR LPPR 120630Z 10004KT 080V150 7000 NSC 17/16 Q1016=
201105120600 METAR LPPR 120600Z VRB03KT 6000 NSC 15/15 Q1015=
201105120530 METAR LPPR 120530Z VRB02KT 6000 NSC 14/14 Q1015=
201105120500 METAR LPPR 120500Z 00000KT 7000 NSC 14/13 Q1015=
201105120430 METAR LPPR 120430Z 01002KT 5000 BR NSC 14/14 Q1015=
201105120400 METAR LPPR 120400Z 01002KT 6000 NSC 15/14 Q1015=
201105120330 METAR LPPR 120330Z VRB01KT 7000 NSC 15/15 Q1016=
201105120300 METAR LPPR 120300Z 17002KT 7000 NSC 16/16 Q1016=
201105120230 METAR LPPR 120230Z VRB02KT 6000 NSC 16/15 Q1016=
201105120200 METAR LPPR 120200Z 18003KT 6000 NSC 16/15 Q1016=
201105120130 METAR LPPR 120130Z 00000KT 6000 NSC 16/15 Q1016=
201105120100 METAR LPPR 120100Z 00000KT 5000 BR NSC 16/15 Q1017=
201105120030 METAR LPPR 120030Z VRB01KT 5000 BR NSC 15/15 Q1017=
201105120000 METAR LPPR 120000Z VRB02KT 5000 BR NSC 16/15 Q1017=
201105112330 METAR LPPR 112330Z VRB01KT 5000 BR NSC 15/15 Q1017=
201105112300 METAR LPPR 112300Z 36002KT 7000 NSC 15/15 Q1017=
201105112230 METAR LPPR 112230Z 26002KT 8000 NSC 16/15 Q1017=
201105112200 METAR LPPR 112200Z VRB01KT 8000 NSC 16/15 Q1017=
201105112130 METAR LPPR 112130Z 00000KT CAVOK 17/16 Q1017=
201105112100 METAR LPPR 112100Z 00000KT CAVOK 17/15 Q1017=
201105112030 METAR LPPR 112030Z 31002KT CAVOK 18/16 Q1017=
201105112000 METAR LPPR 112000Z 28003KT 8000 NSC 19/16 Q1017=
201105111930 METAR LPPR 111930Z 31004KT CAVOK 20/16 Q1017=
201105111900 METAR LPPR 111900Z 32004KT 9999 FEW025CB 21/16 Q1017=
201105111830 METAR LPPR 111830Z 33006KT 300V360 9999 FEW025CB 22/16 Q1017=
201105111800 METAR LPPR 111800Z 33007KT 290V350 9999 FEW025CB 23/16 Q1017=
201105111730 METAR LPPR 111730Z 31006KT 270V330 9999 FEW025CB 23/16 Q1017=
201105111700 METAR LPPR 111700Z 31005KT 9999 FEW025CB 23/16 Q1017=
201105111630 METAR LPPR 111630Z 32006KT 290V350 9999 FEW025CB 23/17 Q1017=
201105111600 METAR LPPR 111600Z 33006KT 9999 FEW025CB 23/16 Q1017=
201105111530 METAR LPPR 111530Z 33006KT 290V360 9999 FEW017 23/17 Q1017=
201105111500 METAR LPPR 111500Z 29005KT 260V320 9999 FEW017 FEW020CB 23/17
                        Q1018=
201105111430 METAR LPPR 111430Z 28004KT 230V320 9999 FEW017 FEW020CB 23/16
                        Q1018=
201105111400 METAR LPPR 111400Z 29005KT 260V320 9999 FEW020CB 24/17 Q1018=
201105111330 METAR LPPR 111330Z 30004KT 270V330 9999 FEW020CB 23/17 Q1018=
201105111300 METAR LPPR 111300Z 29004KT 250V330 9999 FEW020TCU 23/17 Q1018=
201105111230 METAR LPPR 111230Z 29005KT 250V330 CAVOK 23/17 Q1018=
201105111200 METAR LPPR 111200Z 25005KT 220V300 CAVOK 22/16 Q1018=
201105111130 METAR LPPR 111130Z 24005KT 200V300 CAVOK 23/17 Q1018=
201105111100 METAR LPPR 111100Z 26005KT 220V300 9000 23/17 Q1019=
201105111030 METAR LPPR 111030Z 26005KT 220V300 8000 NSC 23/16 Q1019=
201105111000 METAR LPPR 111000Z 26004KT 210V310 8000 NSC 23/18 Q1019=
201105110930 METAR LPPR 110930Z VRB02KT CAVOK 23/16 Q1019=
201105110900 METAR LPPR 110900Z VRB02KT CAVOK 22/16 Q1019=
201105110830 METAR LPPR 110830Z VRB01KT CAVOK 21/17 Q1019=
201105110800 METAR LPPR 110800Z VRB02KT CAVOK 20/16 Q1019=
201105110730 METAR LPPR 110730Z 00000KT CAVOK 18/16 Q1019=
201105110700 METAR LPPR 110700Z 00000KT CAVOK 16/15 Q1019=
201105110630 METAR LPPR 110630Z 36002KT CAVOK 14/14 Q1019=
201105110600 METAR LPPR 110600Z VRB02KT CAVOK 13/13 Q1018=
201105110530 METAR LPPR 110530Z VRB01KT CAVOK 13/13 Q1018=
201105110500 METAR LPPR 110500Z 34003KT CAVOK 13/12 Q1018=
201105110430 METAR LPPR 110430Z 36003KT CAVOK 13/13 Q1018=
201105110400 METAR LPPR 110400Z VRB01KT CAVOK 13/13 Q1018=
201105110330 METAR LPPR 110330Z 16002KT CAVOK 14/13 Q1019=
201105110300 METAR LPPR 110300Z 13003KT CAVOK 14/14 Q1019=
201105110230 METAR LPPR 110230Z VRB02KT CAVOK 13/13 Q1019=
201105110200 METAR LPPR 110200Z VRB02KT CAVOK 14/14 Q1019=
201105110130 METAR LPPR 110130Z VRB01KT CAVOK 14/14 Q1019=
201105110100 METAR LPPR 110100Z VRB01KT CAVOK 14/13 Q1019=
201105110030 METAR LPPR 110030Z 00000KT CAVOK 14/14 Q1019=
201105110000 METAR LPPR 110000Z 16003KT CAVOK 14/14 Q1020=
201105102330 METAR LPPR 102330Z VRB02KT CAVOK 15/15 Q1020=
201105102300 METAR LPPR 102300Z VRB01KT CAVOK 15/15 Q1020=
201105102230 METAR LPPR 102230Z 00000KT CAVOK 15/14 Q1020=
201105102200 METAR LPPR 102200Z 00000KT CAVOK 15/14 Q1020=
201105102130 METAR LPPR 102130Z 32003KT 280V340 CAVOK 16/15 Q1020=
201105102100 METAR LPPR 102100Z 33003KT CAVOK 17/15 Q1020=
201105102030 METAR LPPR 102030Z 33003KT 300V010 CAVOK 17/15 Q1020=
201105102000 METAR LPPR 102000Z 34006KT CAVOK 18/15 Q1020=
201105101930 METAR LPPR 101930Z 32005KT 290V350 9000 NSC 18/15 Q1020=
201105101900 METAR LPPR 101900Z 31004KT CAVOK 20/16 Q1020=
201105101830 METAR LPPR 101830Z 32005KT 290V350 9999 FEW025 21/15 Q1019=
201105101800 METAR LPPR 101800Z 33006KT 9999 FEW025 21/16 Q1019=
201105101730 METAR LPPR 101730Z 32007KT 290V350 9999 FEW025 21/16 Q1020=
201105101700 METAR LPPR 101700Z 31006KT 280V350 CAVOK 21/16 Q1020=
201105101630 METAR LPPR 101630Z 31006KT 280V340 CAVOK 21/15 Q1020=
201105101600 METAR LPPR 101600Z 31007KT 270V340 CAVOK 21/15 Q1020=
201105101530 METAR LPPR 101530Z 32008KT 270V350 CAVOK 22/16 Q1020=
201105101500 METAR LPPR 101500Z 31007KT 280V350 CAVOK 22/15 Q1020=
201105101430 METAR LPPR 101430Z 31008KT 280V340 CAVOK 22/16 Q1020=
201105101400 METAR LPPR 101400Z 31008KT CAVOK 22/14 Q1020=
201105101330 METAR LPPR 101330Z 31007KT 270V340 CAVOK 22/15 Q1020=
201105101300 METAR LPPR 101300Z 30006KT 270V340 CAVOK 22/15 Q1020=
201105101200 METAR LPPR 101200Z 31007KT 270V340 CAVOK 21/14 Q1021=
201105101130 METAR LPPR 101130Z 29006KT 270V330 CAVOK 21/15 Q1021=
201105101100 METAR LPPR 101100Z 33006KT 280V360 CAVOK 21/14 Q1021=
201105101030 METAR LPPR 101030Z 29004KT 260V330 CAVOK 20/14 Q1021=
201105101000 METAR LPPR 101000Z 30005KT 250V330 CAVOK 19/14 Q1021=
201105100930 METAR LPPR 100930Z 31004KT 250V350 CAVOK 19/14 Q1021=
201105100900 METAR LPPR 100900Z 36005KT CAVOK 19/13 Q1021=
201105100830 METAR LPPR 100830Z 36003KT 310V040 CAVOK 18/13 Q1021=
201105100800 METAR LPPR 100800Z 35003KT 290V030 CAVOK 16/13 Q1021=
201105100730 METAR LPPR 100730Z VRB02KT CAVOK 15/13 Q1021=
201105100700 METAR LPPR 100700Z VRB02KT CAVOK 13/12 Q1021=
201105100630 METAR LPPR 100630Z 08001KT CAVOK 12/12 Q1020=
201105100600 METAR LPPR 100600Z VRB02KT CAVOK 09/09 Q1020=
201105100530 METAR LPPR 100530Z VRB02KT CAVOK 09/09 Q1020=
201105100500 METAR LPPR 100500Z VRB01KT CAVOK 10/09 Q1020=
201105100430 METAR LPPR 100430Z VRB01KT CAVOK 10/09 Q1020=
201105100400 METAR LPPR 100400Z VRB01KT CAVOK 10/10 Q1020=
201105100330 METAR LPPR 100330Z VRB01KT CAVOK 10/09 Q1020=
201105100300 METAR LPPR 100300Z 04002KT CAVOK 10/10 Q1020=
201105100230 METAR LPPR 100230Z 10003KT CAVOK 10/10 Q1020=
201105100200 METAR LPPR 100200Z 36001KT CAVOK 10/09 Q1020=
201105100130 METAR LPPR 100130Z VRB02KT CAVOK 10/09 Q1021=
201105100100 METAR LPPR 100100Z 02002KT CAVOK 11/10 Q1021=
201105100030 METAR LPPR 100030Z 02002KT CAVOK 11/10 Q1021=
201105100000 METAR LPPR 100000Z 04001KT CAVOK 11/10 Q1021=
201105092330 METAR LPPR 092330Z VRB01KT CAVOK 11/09 Q1021=
201105092300 METAR LPPR 092300Z 35001KT CAVOK 12/10 Q1021=
201105092230 METAR LPPR 092230Z 03002KT CAVOK 12/10 Q1021=
201105092200 METAR LPPR 092200Z 36002KT CAVOK 13/10 Q1021=
201105092130 METAR LPPR 092130Z 35004KT CAVOK 13/10 Q1021=
201105092100 METAR LPPR 092100Z 35008KT CAVOK 14/11 Q1021=
201105092030 METAR LPPR 092030Z 34009KT CAVOK 15/11 Q1021=
201105092000 METAR LPPR 092000Z 34009KT CAVOK 15/11 Q1021=
201105091930 METAR LPPR 091930Z 34008KT CAVOK 15/11 Q1021=
201105091900 METAR LPPR 091900Z 34008KT CAVOK 16/10 Q1021=
201105091830 METAR LPPR 091830Z 34011KT CAVOK 16/10 Q1020=
201105091800 METAR LPPR 091800Z 34010KT CAVOK 17/09 Q1020=
201105091730 METAR LPPR 091730Z 33011KT CAVOK 17/09 Q1020=
201105091700 METAR LPPR 091700Z 33013KT 300V360 CAVOK 18/09 Q1020=
201105091630 METAR LPPR 091630Z 32013KT CAVOK 18/09 Q1020=
201105091600 METAR LPPR 091600Z 33013KT CAVOK 18/09 Q1020=
201105091530 METAR LPPR 091530Z 32013KT CAVOK 18/09 Q1020=
201105091500 METAR LPPR 091500Z 33013KT CAVOK 18/09 Q1021=
201105091430 METAR LPPR 091430Z 32013KT CAVOK 18/08 Q1021=
201105091400 METAR LPPR 091400Z 33012KT 290V350 CAVOK 18/09 Q1021=
201105091330 METAR LPPR 091330Z 33012KT 290V360 CAVOK 18/09 Q1021=
201105091300 METAR LPPR 091300Z 32012KT CAVOK 18/09 Q1021=
201105091230 METAR LPPR 091230Z 32010KT 290V350 CAVOK 18/09 Q1021=
201105091200 METAR LPPR 091200Z 32010KT 290V360 CAVOK 18/10 Q1021=
201105091130 METAR LPPR 091130Z 32008KT 270V350 9999 FEW032 18/11 Q1021=
201105091100 METAR LPPR 091100Z 32009KT 250V360 9999 FEW031 18/11 Q1021=
201105091030 METAR LPPR 091030Z 35007KT 320V040 9999 FEW034 18/09 Q1021=
201105091000 METAR LPPR 091000Z 35008KT 9999 FEW020 17/09 Q1021=
201105090930 METAR LPPR 090930Z 03005KT 350V070 9999 FEW012 17/11 Q1021=
201105090900 METAR LPPR 090900Z 04006KT 010V070 CAVOK 16/11 Q1021=
201105090830 METAR LPPR 090830Z 04005KT 360V070 CAVOK 16/11 Q1022=
201105090800 METAR LPPR 090800Z 06004KT CAVOK 15/11 Q1022=
201105090730 METAR LPPR 090730Z 04004KT 350V070 CAVOK 14/12 Q1022=
201105090700 METAR LPPR 090700Z VRB02KT CAVOK 12/11 Q1022=
201105090630 METAR LPPR 090630Z 07003KT 020V100 CAVOK 10/10 Q1021=
201105090600 METAR LPPR 090600Z VRB02KT CAVOK 10/09 Q1021=
201105090530 METAR LPPR 090530Z VRB02KT CAVOK 09/09 Q1021=
201105090500 METAR LPPR 090500Z VRB01KT CAVOK 10/10 Q1021=
201105090430 METAR LPPR 090430Z 00000KT 9999 FEW025 10/10 Q1021=
201105090400 METAR LPPR 090400Z VRB01KT CAVOK 10/10 Q1021=
201105090330 METAR LPPR 090330Z VRB02KT 9999 FEW020 SCT035 10/10 Q1021=
201105090300 METAR LPPR 090300Z VRB02KT 9999 FEW020 SCT035 10/09 Q1021=
201105090230 METAR LPPR 090230Z VRB01KT 9999 FEW025 10/09 Q1020=
201105090200 METAR LPPR 090200Z VRB01KT 9999 FEW025 11/10 Q1020=
201105090130 METAR LPPR 090130Z VRB01KT 9999 FEW025 10/10 Q1021=
201105090100 METAR LPPR 090100Z VRB02KT CAVOK 10/10 Q1021=
201105090030 METAR LPPR 090030Z 00000KT CAVOK 11/10 Q1021=
201105090000 METAR LPPR 090000Z 00000KT CAVOK 10/09 Q1021=
201105082330 METAR LPPR 082330Z 00000KT CAVOK 11/10 Q1021=
201105082300 METAR LPPR 082300Z VRB01KT CAVOK 11/10 Q1021=
201105082230 METAR LPPR 082230Z VRB01KT 9999 FEW025 12/11 Q1021=
201105082200 METAR LPPR 082200Z VRB01KT 9999 FEW025 12/11 Q1021=
201105082130 METAR LPPR 082130Z 26001KT 9999 FEW025 13/11 Q1021=
201105082100 METAR LPPR 082100Z 23001KT 9999 SCT025 13/10 Q1020=
201105082030 METAR LPPR 082030Z 25002KT 9999 SCT025 15/10 Q1020=
201105082000 METAR LPPR 082000Z VRB02KT 9999 FEW025 15/11 Q1020=
201105081930 METAR LPPR 081930Z VRB02KT 9999 FEW020 16/11 Q1020=
201105081900 METAR LPPR 081900Z 23004KT 190V270 9999 FEW020 17/10 Q1020=
201105081830 METAR LPPR 081830Z 25003KT 200V290 9999 FEW020 17/11 Q1020=
201105081800 METAR LPPR 081800Z 25004KT 190V310 9999 FEW020 17/11 Q1020=
201105081730 METAR LPPR 081730Z VRB04KT 9999 FEW020 17/12 Q1020=
201105081700 METAR LPPR 081700Z 25006KT 190V310 9999 FEW020 SCT040 17/10
                        Q1019=
201105081630 METAR LPPR 081630Z 25006KT 200V310 9999 FEW020 SCT040 17/12
                        Q1019=
201105081600 METAR LPPR 081600Z 25006KT 190V300 9999 SCT020 FEW025CB SCT040
                        17/13 Q1019=
201105081530 METAR LPPR 081530Z 25006KT 210V310 9999 SCT020 FEW025CB SCT040
                        17/13 Q1019=
201105081500 METAR LPPR 081500Z 26005KT 210V320 9999 SCT020 FEW025CB SCT030
                        17/13 Q1019=
201105081430 METAR LPPR 081430Z 22010KT 190V260 9999 SCT020 FEW025CB SCT030
                        18/13 Q1019=
201105081400 METAR LPPR 081400Z 22010KT 180V270 9999 SCT020 FEW025CB SCT030
                        18/13 Q1019=
201105081330 METAR LPPR 081330Z 24008KT 210V280 9999 SCT020 FEW025CB SCT030
                        18/13 Q1019=
201105081300 METAR LPPR 081300Z 23006KT 200V270 9999 FEW020 SCT025CB SCT0030
                        17/15 Q1019=
201105081230 METAR LPPR 081230Z 25007KT 210V310 9999 -SHRA FEW020 SCT025CB
                        SCT030 16/13 Q1019=
201105081200 METAR LPPR 081200Z 19012KT 9999 FEW020 SCT025CB 18/13 Q1018=
201105081130 METAR LPPR 081130Z 19012KT 170V230 9999 SCT017 FEW025CB 18/13
                        Q1018=
201105081100 METAR LPPR 081100Z 19012KT 9999 SCT017 FEW025CB 18/12 Q1019=
201105081030 METAR LPPR 081030Z 22008KT 170V260 9999 FEW020 18/10 Q1018=
201105081000 METAR LPPR 081000Z 22007KT 170V280 9999 FEW020 18/11 Q1018=
201105080930 METAR LPPR 080930Z 22008KT 190V260 9999 FEW020 17/11 Q1018=
201105080900 METAR LPPR 080900Z 23007KT 200V270 9999 FEW017 SCT040 17/11
                        Q1018=
201105080830 METAR LPPR 080830Z 23007KT 190V270 9999 FEW017 SCT040 16/10
                        Q1018=
201105080800 METAR LPPR 080800Z 23008KT 200V280 9999 FEW020 SCT040 16/11
                        Q1018=
201105080730 METAR LPPR 080730Z 22006KT 190V280 9999 FEW020 SCT040 BKN050
                        16/11 Q1017=
201105080700 METAR LPPR 080700Z 23007KT 200V280 9999 FEW020 BKN045 BKN050
                        15/12 Q1017=
201105080630 METAR LPPR 080630Z 25004KT 190V310 9999 FEW018 BKN045 15/13
                        Q1017=
201105080600 METAR LPPR 080600Z 24008KT 200V290 9999 SCT018 BKN050 15/13
                        Q1016=
201105080530 METAR LPPR 080530Z 23007KT 180V270 9999 FEW016 BKN018 15/13
                        Q1016=
201105080500 METAR COR LPPR 080500Z 23008KT 200V260 9999 SCT016 FEW018TCU
                        15/13 Q1016=
201105080430 METAR LPPR 080430Z 22006KT 190V260 9999 FEW017 15/12 Q1015=
201105080400 METAR LPPR 080400Z 22006KT 180V260 9999 FEW012 SCT014 BKN080
                        15/13 Q1015=
201105080330 METAR LPPR 080330Z 22008KT 190V250 9999 FEW011 BKN013 OVC070
                        15/13 Q1015=
201105080300 METAR LPPR 080300Z 22009KT 190V250 9999 BKN011 BKN036 OVC068
                        14/13 Q1015=
201105080230 METAR LPPR 080230Z 21006KT 180V240 9999 FEW007 OVC040 14/13
                        Q1015=
201105080200 METAR LPPR 080200Z 24008KT 200V300 9000 -SHRA FEW004 BKN008
                        OVC026 13/13 Q1015=
201105080130 METAR LPPR 080130Z 24012G23KT 190V290 6000 SHRA FEW008 SCT012
                        OVC019 14/13 Q1015=
201105080100 METAR LPPR 080100Z 22009KT 190V260 8000 -SHRA SCT007 BKN017
                        BKN024 15/13 Q1015=
201105080030 METAR LPPR 080030Z 21009KT 180V240 9999 -SHRA FEW007 BKN019
                        OVC047 14/13 Q1015=
201105080000 METAR LPPR 080000Z 20017KT 9999 -SHRA FEW008 SCT010 OVC018
                        16/13 Q1015=
201105072330 METAR LPPR 072330Z 20014KT 9999 FEW005 BKN020 OVC026 16/13
                        Q1015=
201105072300 METAR LPPR 072300Z 21014G27KT 170V230 9999 FEW014 SCT017
                        OVC020 16/13 Q1015=
201105072230 METAR LPPR 072230Z 20014KT 9999 -SHRA FEW014 SCT017 BKN020
                        16/13 Q1014=
201105072200 METAR LPPR 072200Z 22013KT 9999 FEW013 BKN017 OVC038 15/13
                        Q1015=
201105072130 METAR LPPR 072130Z 20018KT 9999 -SHRA FEW021 BKN025 OVC038
                        16/12 Q1014=
201105072100 METAR LPPR 072100Z 20016KT 9999 FEW020 SCT025 16/12 Q1014=
201105072030 METAR LPPR 072030Z 20014KT 9999 FEW020 BKN030 15/12 Q1014=
201105072000 METAR LPPR 072000Z 21012G22KT 9999 SCT020 BKN030 14/13 Q1014=
201105071930 METAR LPPR 071930Z 19013KT 9999 FEW025 BKN037 OVC070 14/11
                        Q1013=
201105071900 METAR LPPR 071900Z 21014KT 160V250 9999 -RADZ SCT025 BKN040
                        15/12 Q1013=
201105071830 METAR LPPR 071830Z 20017KT 9999 SCT025 SCT030 16/11 Q1013=
201105071800 METAR LPPR 071800Z 20017KT 9999 SCT025 SCT045/ 17/10 Q1013=
201105071730 METAR LPPR 071730Z 20015KT 9999 SCT025 SCT030 17/10 Q1013=
201105071700 METAR LPPR 071700Z 20016KT 9999 SCT025 SCT040 17/10 Q1013=
201105071630 METAR LPPR 071630Z 20016G26KT 9999 SCT025 SCT030 17/10 Q1013=
201105071600 METAR LPPR 071600Z 21018G28KT 9999 SCT025 SCT030 17/11 Q1012=
201105071530 METAR LPPR 071530Z 21013KT 180V250 9999 SCT025 BKN035 17/11
                        Q1012=
201105071500 METAR LPPR 071500Z 21013G25KT 9999 SCT025 BKN030 17/10 Q1012=
201105071430 METAR LPPR 071430Z 21015KT 180V250 9999 SCT025 17/10 Q1012=
201105071400 METAR LPPR 071400Z 21014KT 9999 SCT020 BKN030 17/11 Q1012=
201105071330 METAR LPPR 071330Z 22014G25KT 190V260 9999 -SHRA SCT020 BKN030
                        15/12 Q1012=
201105071300 METAR LPPR 071300Z 22011KT 180V270 9999 BKN032 18/10 Q1012=
201105071230 METAR LPPR 071230Z 23013KT 200V280 9999 SCT025 17/09 Q1012=
201105071200 METAR LPPR 071200Z 22012KT 180V270 9999 SCT025 17/10 Q1012=
201105071130 METAR LPPR 071130Z 23013KT 190V280 9999 SCT025 17/10 Q1011=
201105071100 METAR LPPR 071100Z 23010KT 200V270 9999 SCT020 BKN030 17/11
                        Q1011=
201105071030 METAR LPPR 071030Z 24010G21KT 210V280 7000 -SHRA SCT020 BKN030
                        14/10 Q1011=
201105071000 METAR LPPR 071000Z 24008KT 210V290 9999 SCT020 BKN030 16/11
                        Q1010=
201105070930 METAR LPPR 070930Z 24007KT 210V290 9999 FEW015 BKN020 16/12
                        Q1010=
201105070900 METAR LPPR 070900Z VRB06KT 8000 -SHRA SCT015 BKN025 15/12
                        Q1010=
201105070830 METAR LPPR 070830Z 26007KT 210V320 9999 FEW009 BKN015 BKN040
                        15/13 Q1009=
201105070800 METAR LPPR 070800Z 20011KT 170V260 8000 -SHRA FEW009 SCT013
                        BKN020 15/14 Q1008=
201105070730 METAR LPPR 070730Z 18016KT 6000 -SHRA SCT015 BKN020 BKN040
                        15/13 Q1008=
201105070700 METAR LPPR 070700Z 18015KT 9999 SCT020 BKN030 16/11 Q1008=
201105070630 METAR LPPR 070630Z 17016KT 9999 SCT020 BKN030 16/11 Q1007=
201105070600 METAR LPPR 070600Z 18016KT 9999 SCT020 BKN025 16/11 Q1007=
201105070530 METAR LPPR 070530Z 18015KT 9999 FEW020 SCT027 15/11 Q1007=
201105070500 METAR LPPR 070500Z 17015KT 9999 SCT025 BKN060 BKN090 16/11
                        Q1007=
201105070430 METAR LPPR 070430Z 17014KT 9999 FEW035 BKN070 OVC080 16/11
                        Q1007=
201105070400 METAR LPPR 070400Z 16010KT 9999 FEW030 SCT040 BKN080 16/12
                        Q1008=
201105070330 METAR LPPR 070330Z 14009KT 9999 FEW030 SCT040 BKN090 16/12
                        Q1008=
201105070300 METAR LPPR 070300Z 14009KT 9999 FEW025 SCT035 BKN080 16/12
                        Q1008=
201105070230 METAR LPPR 070230Z 14009KT 9999 FEW020 SCT030 BKN060 15/12
                        Q1008=
201105070200 METAR COR LPPR 070200Z 14007KT 9999 SCT020 BKN030 BKN080
                        16/12 Q1008=
201105070130 METAR LPPR 070130Z 14009KT 9999 FEW025 BKN030 BKN080 16/12
                        Q1008=
201105070100 METAR LPPR 070100Z 13008KT 9999 SCT030 BKN040 BKN080 16/13
                        Q1008=
201105070030 METAR LPPR 070030Z 13007KT 9999 FEW023 BKN040 15/13 Q1008=
201105070000 METAR LPPR 070000Z 12006KT 9999 FEW023 BKN040 16/13 Q1009=
201105062330 METAR LPPR 062330Z 12005KT 9999 FEW020 SCT040 16/13 Q1009=
201105062300 METAR LPPR 062300Z 18005KT 9999 FEW020 SCT040 15/13 Q1009=
201105062230 METAR LPPR 062230Z 18006KT 9999 FEW017 SCT023 BKN090 16/13
                        Q1009=
201105062200 METAR LPPR 062200Z 19007KT 9999 FEW0015 SCT040 16/13 Q1009=
201105062130 METAR LPPR 062130Z 19007KT 9999 FEW015 SCT040 16/13 Q1009=
201105062100 METAR LPPR 062100Z 21008KT 170V250 9999 -SHRA SCT017 SCT030
                        16/14 Q1009=
201105062030 METAR LPPR 062030Z 19007KT 9999 SCT020 17/13 Q1009=
201105062000 METAR LPPR 062000Z 19007KT 9999 FEW020 17/13 Q1009=
201105061930 METAR LPPR 061930Z 20007KT 9999 FEW020 17/13 Q1009=
201105061900 METAR LPPR 061900Z 21009KT 180V240 9999 FEW017 FEW025TCU
                        17/13 Q1009=
201105061830 METAR LPPR 061830Z 20008KT 180V240 9999 FEW017 FEW025TCU
                        SCT030 17/13 Q1009=
201105061800 METAR LPPR 061800Z 21006KT 180V240 9999 FEW017 FEW025TCU
                        SCT040 17/13 Q1009=
201105061730 METAR LPPR 061730Z 24007KT 190V280 9999 FEW017 SCT020 17/13
                        Q1009=
201105061700 METAR LPPR 061700Z 23008KT 190V270 9999 FEW020 SCT040 18/13
                        Q1009=
201105061630 METAR LPPR 061630Z 21006KT 170V280 9999 FEW020 SCT040 18/13
                        Q1009=
201105061600 METAR LPPR 061600Z 23007KT 180V260 9999 FEW020 18/13 Q1009=
201105061530 METAR LPPR 061530Z 22008KT 190V280 9999 FEW020 19/13 Q1009=
201105061500 METAR LPPR 061500Z 23008KT 180V270 9999 FEW020 19/13 Q1009=
201105061430 METAR LPPR 061430Z 22007KT 180V270 9999 FEW020 19/12 Q1009=
201105061400 METAR LPPR 061400Z 24007KT 180V330 9999 FEW020 19/12 Q1009=
201105061330 METAR LPPR 061330Z 26007KT 200V300 9999 FEW020 19/11 Q1009=
201105061300 METAR LPPR 061300Z 23009KT 210V280 9999 FEW020 19/13 Q1009=
201105061230 METAR LPPR 061230Z 23008KT 200V280 9999 FEW020 19/14 Q1010=
201105061200 METAR LPPR 061200Z 26007KT 220V310 9999 FEW020 18/13 Q1010=
201105061130 METAR LPPR 061130Z 24007KT 200V300 9999 FEW020 19/12 Q1010=
201105061100 METAR LPPR 061100Z 25006KT 210V300 9999 FEW020 19/13 Q1010=
201105061030 METAR LPPR 061030Z VRB03KT 9999 FEW020 19/13 Q1010=
201105061000 METAR LPPR 061000Z VRB03KT 9999 FEW020 18/12 Q1010=
201105060930 METAR LPPR 060930Z 12004KT 070V180 9999 FEW020 17/12 Q1010=
201105060900 METAR LPPR 060900Z 12004KT 080V140 9999 FEW020 17/12 Q1010=
201105060830 METAR LPPR 060830Z 12003KT 070V150 9999 FEW020 16/12 Q1011=
201105060800 METAR LPPR 060800Z 12004KT 9999 FEW020 15/13 Q1011=
201105060730 METAR LPPR 060730Z 12005KT 9999 FEW020 14/13 Q1011=
201105060700 METAR LPPR 060700Z 12004KT 090V160 8000 FEW020 14/13 Q1011=
201105060630 METAR LPPR 060630Z VRB01KT 8000 FEW020 13/12 Q1011=
201105060600 METAR LPPR 060600Z 11003KT 070V150 7000 FEW020 12/12 Q1011=
201105060530 METAR LPPR 060530Z VRB02KT 6000 NSC 11/10 Q1011=
201105060500 METAR LPPR 060500Z VRB02KT 8000 NSC 12/11 Q1011=
201105060430 METAR LPPR 060430Z VRB01KT 8000 FEW050 12/12 Q1012=
201105060400 METAR LPPR 060400Z 00000KT 9000 FEW050 13/12 Q1012=
201105060330 METAR LPPR 060330Z 00000KT 9000 NSC 13/12 Q1012=
201105060300 METAR LPPR 060300Z 04002KT 8000 FEW050 12/12 Q1012=
201105060230 METAR LPPR 060230Z 00000KT 7000 FEW050 13/12 Q1013=
201105060200 METAR LPPR 060200Z 00000KT 8000 NSC 13/12 Q1013=
201105060130 METAR LPPR 060130Z 15002KT CAVOK 13/12 Q1013=
201105060100 METAR LPPR 060100Z VRB01KT CAVOK 13/12 Q1014=
201105060030 METAR LPPR 060030Z VRB01KT CAVOK 14/13 Q1014=
201105060000 METAR LPPR 060000Z VRB02KT 8000 NSC 14/13 Q1014=
201105052330 METAR LPPR 052330Z 02001KT 5000 BR NSC 13/12 Q1014=
201105052300 METAR LPPR 052300Z VRB02KT 6000 NSC 13/12 Q1015=
201105052230 METAR LPPR 052230Z 30002KT 5000 BR NSC 14/13 Q1015=
201105052200 METAR LPPR 052200Z 33002KT 8000 NSC 14/13 Q1015=
201105052130 METAR LPPR 052130Z VRB01KT CAVOK 14/13 Q1015=
201105052100 METAR LPPR 052100Z VRB01KT CAVOK 14/13 Q1015=
201105052030 METAR LPPR 052030Z 35001KT CAVOK 15/13 Q1015=
201105052000 METAR LPPR 052000Z VRB01KT CAVOK 15/13 Q1015=
201105051930 METAR LPPR 051930Z VRB01KT CAVOK 16/13 Q1015=
201105051900 METAR LPPR 051900Z VRB02KT CAVOK 17/13 Q1016=
201105051830 METAR LPPR 051830Z 27004KT 210V320 9999 FEW015 17/13 Q1016=
201105051800 METAR LPPR 051800Z 29005KT 210V330 9999 SCT017 17/14 Q1016=
201105051730 METAR LPPR 051730Z 30005KT 250V340 9999 FEW017 17/14 Q1016=
201105051700 METAR LPPR 051700Z 27006KT 220V330 9999 FEW020 18/13 Q1016=
201105051630 METAR LPPR 051630Z 26007KT 220V330 9999 FEW020 19/14 Q1016=
201105051600 METAR LPPR 051600Z 27006KT 220V320 9999 FEW020 18/14 Q1016=
201105051530 METAR LPPR 051530Z 25006KT 210V310 9999 FEW020 18/13 Q1016=
201105051500 METAR LPPR 051500Z 23007KT 200V310 9999 FEW020 18/13 Q1017=
201105051430 METAR LPPR 051430Z 24008KT 210V290 9999 FEW015 18/14 Q1017=
201105051400 METAR LPPR 051400Z 25007KT 210V300 9999 FEW020 18/13 Q1017=
201105051330 METAR LPPR 051330Z 24008KT 200V300 9999 FEW020 19/13 Q1017=
201105051300 METAR LPPR 051300Z 23008KT 210V300 9999 FEW020 18/12 Q1017=
201105051230 METAR LPPR 051230Z 23009KT 210V270 9999 FEW020 19/12 Q1017=
201105051200 METAR LPPR 051200Z 23009KT 200V260 9999 FEW020 19/13 Q1017=
201105051130 METAR LPPR 051130Z 23008KT 180V250 9999 FEW020 18/12 Q1017=
201105051100 METAR LPPR 051100Z 24009KT 9999 FEW020 19/12 Q1017=
201105051030 METAR LPPR 051030Z 18005KT 140V240 9999 FEW020 19/11 Q1017=
201105051000 METAR LPPR 051000Z 15007KT 130V190 9999 FEW017 19/11 Q1017=
201105050930 METAR LPPR 050930Z 14008KT 100V160 9999 FEW030 18/11 Q1017=
201105050900 METAR LPPR 050900Z 15007KT 9999 FEW030 18/11 Q1018=
201105050830 METAR LPPR 050830Z 14006KT 9999 FEW030 17/11 Q1018=
201105050800 METAR LPPR 050800Z 13006KT 9999 FEW030 15/11 Q1018=
201105050730 METAR LPPR 050730Z 12007KT 9999 FEW030 14/11 Q1018=
201105050700 METAR LPPR 050700Z 12006KT 9999 FEW020 13/11 Q1018=
201105050630 METAR LPPR 050630Z 12008KT 9999 FEW020 12/10 Q1018=
201105050600 METAR LPPR 050600Z 11008KT 9999 FEW020 11/10 Q1018=
201105050530 METAR LPPR 050530Z 12007KT CAVOK 11/10 Q1018=
201105050500 METAR LPPR 050500Z 11006KT CAVOK 11/10 Q1018=
201105050430 METAR LPPR 050430Z 11007KT CAVOK 11/10 Q1018=
201105050400 METAR LPPR 050400Z 12004KT CAVOK 12/11 Q1018=
201105050330 METAR LPPR 050330Z 12005KT CAVOK 11/11 Q1018=
201105050300 METAR LPPR 050300Z 11007KT CAVOK 11/10 Q1018=
201105050230 METAR LPPR 050230Z VRB01KT CAVOK 11/11 Q1018=
201105050200 METAR LPPR 050200Z VRB02KT CAVOK 11/10 Q1018=
201105050130 METAR LPPR 050130Z VRB01KT CAVOK 11/11 Q1019=
201105050100 METAR LPPR 050100Z 00000KT 9999 FEW026 11/11 Q1019=
201105050030 METAR LPPR 050030Z VRB01KT 9999 FEW026 11/10 Q1019=
201105050000 METAR LPPR 050000Z VRB01KT CAVOK 12/11 Q1019=
201105042330 METAR LPPR 042330Z VRB01KT CAVOK 12/11 Q1019=
201105042300 METAR LPPR 042300Z VRB02KT CAVOK 13/11 Q1019=
201105042230 METAR LPPR 042230Z 11004KT 9999 FEW018 13/11 Q1019=
201105042200 METAR LPPR 042200Z 11002KT 9999 FEW018 13/11 Q1019=
201105042130 METAR LPPR 042130Z 00000KT 9999 FEW018 13/12 Q1019=
201105042100 METAR LPPR 042100Z VRB01KT 9999 FEW018 14/12 Q1019=
201105042030 METAR LPPR 042030Z 00000KT 9999 FEW019 15/12 Q1019=
201105042000 METAR LPPR 042000Z VRB02KT 9999 FEW019 15/12 Q1019=
201105041930 METAR LPPR 041930Z 29003KT 250V340 9999 SCT019 16/12 Q1019=
201105041900 METAR LPPR 041900Z 28004KT 250V340 9999 SCT020 16/12 Q1019=
201105041830 METAR LPPR 041830Z 27004KT 210V320 9999 FEW021 17/11 Q1019=
201105041800 METAR LPPR 041800Z 29005KT 230V340 9999 FEW020 17/11 Q1019=
201105041730 METAR LPPR 041730Z 27006KT 210V330 9999 FEW018 17/12 Q1019=
201105041700 METAR LPPR 041700Z 26008KT 210V330 9999 FEW016 18/12 Q1019=
201105041630 METAR LPPR 041630Z 25007KT 200V290 9999 FEW019 18/13 Q1018=
201105041600 METAR LPPR 041600Z 25008KT 220V310 9999 FEW017 19/13 Q1018=
201105041530 METAR LPPR 041530Z 24008KT 210V280 9999 FEW019 18/13 Q1019=
201105041500 METAR LPPR 041500Z 24008KT 180V270 9999 FEW030 18/11 Q1019=
201105041430 METAR LPPR 041430Z 24009KT 9999 FEW030 19/12 Q1019=
201105041400 METAR LPPR 041400Z 24007KT 190V300 9999 FEW030 19/11 Q1019=
201105041330 METAR LPPR 041330Z 23008KT 200V280 9999 FEW025 19/12 Q1019=
201105041300 METAR LPPR 041300Z 25007KT 200V300 9999 FEW025 18/12 Q1019=
201105041230 METAR LPPR 041230Z 25007KT 210V290 9999 FEW025 18/12 Q1019=
201105041200 METAR LPPR 041200Z 23006KT 190V290 9999 FEW025 18/10 Q1020=
201105041130 METAR LPPR 041130Z 23007KT 200V260 9999 FEW025 18/11 Q1020=
201105041100 METAR LPPR 041100Z VRB06KT 9999 FEW025 18/12 Q1020=
201105041030 METAR LPPR 041030Z 24006KT 190V280 9999 SCT020 17/11 Q1020=
201105041000 METAR LPPR 041000Z 23006KT 170V270 9999 SCT020 17/11 Q1020=
201105040930 METAR LPPR 040930Z VRB03KT 9999 SCT020 17/12 Q1020=
201105040900 METAR LPPR 040900Z 11006KT 080V160 9999 SCT022 17/12 Q1020=
201105040830 METAR LPPR 040830Z 12006KT 080V140 9999 FEW025 16/12 Q1020=
201105040800 METAR LPPR 040800Z 12007KT 080V160 9000 FEW025 15/12 Q1020=
201105040730 METAR LPPR 040730Z 12007KT 7000 FEW025 14/12 Q1019=
201105040700 METAR LPPR 040700Z 11007KT 040V140 7000 FEW020 13/11 Q1019=
201105040630 METAR LPPR 040630Z 11007KT 080V140 6000 FEW025 SCT040 12/11
                        Q1019=
201105040600 METAR LPPR 040600Z 12007KT 6000 FEW040 12/11 Q1019=
201105040530 METAR LPPR 040530Z 12007KT 6000 FEW020 11/10 Q1019=
201105040500 METAR LPPR 040500Z 11007KT 8000 FEW020 11/10 Q1019=
201105040430 METAR LPPR 040430Z VRB01KT 8000 FEW020 11/10 Q1019=
201105040400 METAR LPPR 040400Z 00000KT 8000 FEW020 10/10 Q1019=
201105040330 METAR LPPR 040330Z VRB01KT 9000 NSC 10/10 Q1019=
201105040300 METAR LPPR 040300Z VRB02KT CAVOK 11/10 Q1018=
201105040230 METAR LPPR 040230Z 00000KT CAVOK 10/09 Q1018=
201105040200 METAR LPPR 040200Z 00000KT CAVOK 11/10 Q1019=
201105040130 METAR LPPR 040130Z 00000KT CAVOK 11/10 Q1019=
201105040100 METAR LPPR 040100Z VRB01KT 9999 FEW020 11/10 Q1019=
201105040030 METAR LPPR 040030Z 00000KT 9999 FEW020 12/11 Q1019=
201105040000 METAR LPPR 040000Z VRB01KT 9999 FEW020 12/11 Q1019=
201105032330 METAR LPPR 032330Z 00000KT 9999 FEW022 12/11 Q1019=
201105032300 METAR LPPR 032300Z VRB01KT 9999 FEW024 11/10 Q1019=
201105032230 METAR LPPR 032230Z 02001KT 9999 FEW022 12/10 Q1019=
201105032200 METAR LPPR 032200Z 00000KT 9999 FEW023 12/10 Q1019=
201105032130 METAR LPPR 032130Z 04002KT 9999 FEW023 13/11 Q1019=
201105032100 METAR LPPR 032100Z 33003KT 300V010 9999 FEW020 14/11 Q1018=
201105032030 METAR LPPR 032030Z 32003KT 280V340 9999 FEW020 14/12 Q1018=
201105032000 METAR LPPR 032000Z 32004KT 9999 FEW020 15/12 Q1018=
201105031930 METAR LPPR 031930Z 32004KT 290V350 9999 FEW018 15/12 Q1018=
201105031900 METAR LPPR 031900Z 31004KT 270V010 9999 FEW018 16/12 Q1017=
201105031830 METAR LPPR 031830Z 31006KT 280V340 9999 FEW020 16/12 Q1017=
201105031800 METAR LPPR 031800Z 30006KT 250V360 9999 FEW020 16/11 Q1017=
201105031730 METAR LPPR 031730Z 31007KT 270V350 9999 FEW020 17/11 Q1017=
201105031700 METAR LPPR 031700Z 31008KT 260V350 9999 FEW020 17/12 Q1017=
201105031630 METAR LPPR 031630Z 31008KT 260V350 9999 FEW020 17/12 Q1017=
201105031600 METAR LPPR 031600Z 30007KT 250V340 9999 FEW020 17/12 Q1017=
201105031530 METAR LPPR 031530Z 30007KT 220V360 9999 FEW022 17/11 Q1016=
201105031500 METAR LPPR 031500Z 28007KT 230V340 9999 SCT022 17/12 Q1017=
201105031430 METAR LPPR 031430Z 29007KT 230V340 9999 FEW003 SCT023 17/12
                        Q1017=
201105031400 METAR LPPR 031400Z 29008KT 250V330 9999 FEW003 SCT020 17/12
                        Q1016=
201105031330 METAR LPPR 031330Z 30007KT 250V330 9999 SCT020 17/13 Q1016=
201105031300 METAR LPPR 031300Z 28008KT 230V320 9999 SCT020 17/13 Q1016=
201105031230 METAR LPPR 031230Z 27008KT 230V320 9999 FEW025 17/12 Q1016=
201105031200 METAR LPPR 031200Z 28007KT 230V310 9999 FEW025 18/13 Q1016=
201105031130 METAR LPPR 031130Z 29006KT 230V340 9999 FEW026 17/11 Q1016=
201105031100 METAR LPPR 031100Z 30007KT 270V340 9999 FEW026 17/11 Q1015=
201105031030 METAR LPPR 031030Z 29006KT 260V320 9999 FEW026 17/11 Q1015=
201105031000 METAR LPPR 031000Z 32005KT 260V010 9999 SCT026 17/12 Q1015=
201105030930 METAR LPPR 030930Z 33004KT 250V050 9999 FEW019 SCT022 16/11
                        Q1015=
201105030900 METAR LPPR 030900Z 33006KT 290V010 9999 FEW016 SCT018 BKN021
                        16/12 Q1015=
201105030830 METAR LPPR 030830Z 01007KT 9000 SCT014 16/12 Q1015=
201105030800 METAR LPPR 030800Z 01007KT 340V070 8000 FEW013 15/12 Q1014=
201105030730 METAR LPPR 030730Z 01004KT 7000 FEW012 14/12 Q1014=
201105030700 METAR LPPR 030700Z VRB02KT 6000 FEW012 13/12 Q1013=
201105030630 METAR LPPR 030630Z 36002KT 5000 BR FEW012 12/11 Q1013=
201105030600 METAR LPPR 030600Z 34004KT 4000 BR FEW009 11/11 Q1013=
201105030530 METAR LPPR 030530Z 33004KT 4000 BR FEW008 12/11 Q1012=
201105030500 METAR LPPR 030500Z 33004KT 8000 FEW008 12/12 Q1012=
201105030430 METAR LPPR 030430Z 33004KT 8000 FEW009 13/12 Q1012=
201105030400 METAR LPPR 030400Z 34005KT 8000 SCT009 13/12 Q1011=
201105030330 METAR LPPR 030330Z 34005KT 9999 BKN009 14/12 Q1011=
201105030300 METAR LPPR 030300Z 34006KT 300V020 9999 BKN009 14/13 Q1011=
201105030230 METAR LPPR 030230Z 33010KT 9999 BKN009 15/13 Q1011=
201105030200 METAR LPPR 030200Z 33008KT 300V360 9999 BKN009 15/13 Q1011=
201105030130 METAR LPPR 030130Z 33006KT 300V360 9999 BKN009 15/13 Q1010=
201105030100 METAR LPPR 030100Z 33005KT 300V360 9999 BKN010 15/13 Q1010=
201105030030 METAR LPPR 030030Z 33006KT 300V010 9999 BKN012 15/13 Q1010=
201105030000 METAR LPPR 030000Z 33007KT 9999 FEW008 BKN014 14/12 Q1010=
201105022330 METAR LPPR 022330Z 34006KT 9999 FEW015 14/12 Q1010=
201105022300 METAR LPPR 022300Z 33007KT CAVOK 14/12 Q1010=
201105022230 METAR LPPR 022230Z 33008KT CAVOK 15/12 Q1009=
201105022200 METAR LPPR 022200Z 33008KT CAVOK 15/12 Q1009=
201105022130 METAR LPPR 022130Z 34007KT CAVOK 15/12 Q1009=
201105022100 METAR LPPR 022100Z 33007KT 9000 FEW012 15/13 Q1009=
201105022030 METAR LPPR 022030Z 33006KT 9000 FEW012 15/13 Q1008=
201105022000 METAR LPPR 022000Z 33009KT 290V360 8000 BKN012 15/13 Q1008=
201105021930 METAR LPPR 021930Z 33011KT 7000 BKN011 15/14 Q1008=
201105021900 METAR LPPR 021900Z 32010KT 8000 SCT011 16/14 Q1007=
201105021830 METAR LPPR 021830Z 33013KT 9000 BKN011 16/14 Q1007=
201105021800 METAR LPPR 021800Z 34011KT 8000 SCT011 16/14 Q1006=
201105021730 METAR LPPR 021730Z 33013KT 9000 FEW012 17/14 Q1006=
201105021700 METAR LPPR 021700Z 33013KT 300V360 9000 FEW013 17/13 Q1006=
201105021630 METAR LPPR 021630Z 33013KT 290V360 8000 FEW014 17/14 Q1006=
201105021600 METAR LPPR 021600Z 34011KT 9999 FEW015 FEW020TCU 17/13 Q1005=
201105021530 METAR LPPR 021530Z 32012KT 290V350 9999 FEW015 FEW020TCU
                        18/14 Q1005=
201105021500 METAR LPPR 021500Z 32012KT 9999 FEW015 FEW020TCU 18/14 Q1005=
201105021430 METAR LPPR 021430Z 32010KT 280V350 9999 FEW012 FEW020TCU
                        17/14 Q1005=
201105021400 METAR LPPR 021400Z 32011KT 290V350 9999 FEW015 17/14 Q1005=
201105021330 METAR LPPR 021330Z 32010KT 280V350 9999 FEW020 18/14 Q1005=
201105021300 METAR LPPR 021300Z 31009KT 280V340 9999 FEW020 18/13 Q1005=
201105021230 METAR LPPR 021230Z 31009KT 280V340 9999 FEW016 18/14 Q1005=
201105021200 METAR LPPR 021200Z 31007KT 270V360 9999 FEW017 18/14 Q1005=
201105021130 METAR LPPR 021130Z 31007KT 240V350 9999 FEW017 18/13 Q1005=
201105021100 METAR LPPR 021100Z 30005KT 260V340 9999 FEW017 18/13 Q1004=
201105021030 METAR LPPR 021030Z 28005KT 240V320 9999 FEW015 18/14 Q1004=
201105021000 METAR LPPR 021000Z 29005KT 260V320 9999 FEW015 18/13 Q1004=
201105020930 METAR LPPR 020930Z VRB04KT 9999 FEW015 17/13 Q1004=
201105020900 METAR LPPR 020900Z VRB03KT CAVOK 17/13 Q1004=
201105020830 METAR LPPR 020830Z VRB02KT CAVOK 16/13 Q1003=
201105020800 METAR LPPR 020800Z VRB02KT CAVOK 15/13 Q1003=
201105020730 METAR LPPR 020730Z VRB02KT CAVOK 14/14 Q1003=
201105020700 METAR LPPR 020700Z VRB01KT 9000 NSC 13/13 Q1002=
201105020630 METAR LPPR 020630Z 36003KT 330V070 6000 2900N BR NSC 11/10
                        Q1002=
201105020600 METAR LPPR 020600Z VRB02KT 9999 3100N NSC 11/11 Q1002=
201105020530 METAR LPPR 020530Z VRB01KT 8000 NSC 12/11 Q1002=
201105020500 METAR LPPR 020500Z 00000KT 9999 FEW001 12/12 Q1001=
201105020430 METAR LPPR 020430Z VRB01KT 7000 NSC 11/11 Q1001=
201105020400 METAR LPPR 020400Z 36002KT 7000 NSC 10/10 Q1001=
201105020330 METAR LPPR 020330Z VRB02KT 7000 NSC 11/11 Q1001=
201105020300 METAR COR LPPR 020300Z VRB01KT 9000 1800N VCFG NSC 11/11
                        Q1001=
201105020230 METAR LPPR 020230Z 01002KT 7000 NSC 11/10 Q1001=
201105020200 METAR LPPR 020200Z 36003KT 7000 1000N R35/P2000 VCFG NSC
                        11/10 Q1001=
201105020130 METAR LPPR 020130Z 01003KT 6000 1300N R35/P2000 VCFG NSC
                        12/12 Q1001=
201105020100 METAR LPPR 020100Z VRB02KT 9000 4000N NSC 12/11 Q1001=
201105020030 METAR LPPR 020030Z 01002KT CAVOK 12/12 Q1001=
201105020000 METAR LPPR 020000Z 36003KT CAVOK 13/12 Q1001=
201105012330 METAR LPPR 012330Z 02002KT CAVOK 13/12 Q1001=
201105012300 METAR LPPR 012300Z 03003KT CAVOK 14/13 Q1001=
201105012230 METAR LPPR 012230Z 06003KT 020V090 CAVOK 14/13 Q1002=
201105012200 METAR LPPR 012200Z 02004KT CAVOK 15/13 Q1002=
201105012130 METAR LPPR 012130Z 03003KT 9999 FEW015 15/14 Q1002=
201105012100 METAR LPPR 012100Z 01004KT 9999 FEW013 15/14 Q1002=
201105012030 METAR LPPR 012030Z 36003KT CAVOK 14/13 Q1001=
201105012000 METAR LPPR 012000Z 02003KT 9999 FEW017 15/13 Q1001=
201105011930 METAR LPPR 011930Z 36003KT 330V050 9999 FEW017 16/14 Q1001=
201105011900 METAR LPPR 011900Z 35003KT 320V040 9999 FEW017 SCT070 BKN100
                        16/14 Q1001=
201105011830 METAR LPPR 011830Z 30003KT 270V330 9999 FEW017 17/13 Q1001=
201105011800 METAR LPPR 011800Z 27003KT 220V320 9999 FEW017 BKN070 BKN100
                        17/13 Q1001=
201105011730 METAR LPPR 011730Z 27004KT 240V300 9999 FEW017 SCT020 BKN080
                        17/13 Q1001=
201105011700 METAR LPPR 011700Z 25004KT 210V280 9999 FEW016 SCT020 18/13
                        Q1001=
201105011630 METAR LPPR 011630Z 22004KT 170V260 9999 SCT016 SCT020 17/14
                        Q1001=
201105011600 METAR LPPR 011600Z 22005KT 200V260 9999 SCT016 SCT020 18/14
                        Q1001=
201105011530 METAR LPPR 011530Z 24006KT 190V270 9999 FEW016 SCT054 BKN078
                        17/13 Q1001=
201105011500 METAR COR LPPR 011500Z 26005KT 190V310 9999 FEW016 BKN077
                        18/13 Q1001=
201105011430 METAR LPPR 011430Z 24007KT 190V270 9999 SCT015 SCT017 BKN080
                        17/14 Q1001=
201105011400 METAR LPPR 011400Z 24007KT 210V300 9999 FEW013 SCT016 FEW025CB
                        17/14 Q1001=
201105011330 METAR LPPR 011330Z 22007KT 170V270 9999 SCT011 BKN014 FEW025CB
                        17/14 Q1001=
201105011300 METAR LPPR 011300Z 22009KT 190V270 9999 SCT011 BKN013 FEW020CB
                        17/14 Q1001=
201105011230 METAR LPPR 011230Z 20010KT 170V230 9999 SCT010 BKN016 FEW025CB
                        16/14 Q1001=
201105011200 METAR LPPR 011200Z 20009KT 170V250 9000 -SHRA SCT009 BKN014
                        FEW025CB 16/14 Q1001=
201105011130 METAR LPPR 011130Z 20012KT 9999 SCT009 BKN013 FEW025CB 16/14
                        Q1001=
201105011100 METAR LPPR 011100Z 19011KT 9000 FEW005 SCT008 FEW025CB BKN030
                        15/14 Q1001=
201105011030 METAR LPPR 011030Z 19008KT 160V240 6000 -SHRA SCT005 BKN012
                        FEW025CB 15/14 Q1001=
201105011000 METAR LPPR 011000Z 19009KT 5000 -SHRA FEW005 BKN007 OVC033
                        15/14 Q1001=
201105010930 METAR LPPR 010930Z 19010KT 7000 -RA FEW004 BKN008 OVC013
                        15/14 Q1001=
201105010900 METAR LPPR 010900Z 17006KT 9000 SCT006 BKN008 15/14 Q1000=
201105010830 METAR LPPR 010830Z 14007KT 8000 FEW004 BKN008 OVC021 15/14
                        Q1000=
201105010800 METAR LPPR 010800Z 15007KT 8000 -DZ FEW008 OVC009 15/14 Q1000=
201105010730 METAR LPPR 010730Z 17006KT 120V190 7000 -SHRA BKN009 BKN017
                        15/14 Q1000=
201105010700 METAR LPPR 010700Z 12004KT 8000 SCT009 BKN015 OVC020 15/14
                        Q1000=
201105010630 METAR LPPR 010630Z 12003KT 8000 FEW012 SCT015 BKN017 15/14
                        Q1000=
201105010600 METAR LPPR 010600Z 12003KT 100V170 7000 -SHRA FEW008 SCT015
                        OVC023 15/14 Q1000=
201105010530 METAR LPPR 010530Z 16005KT 7000 -SHRA SCT005 BKN015 OVC033
                        15/14 Q1000=
201105010500 METAR LPPR 010500Z 16004KT 7000 -SHRA BKN006 BKN020 OVC045
                        15/14 Q1000=
201105010430 METAR LPPR 010430Z 13003KT 110V170 7000 -SHRA SCT007 BKN012
                        OVC048 15/14 Q1000=
201105010400 METAR LPPR 010400Z 11003KT 7000 SCT006 BKN008 15/14 Q1000=
201105010330 METAR LPPR 010330Z VRB02KT 7000 -DZ BKN007 BKN020 15/14 Q1000=
201105010300 METAR LPPR 010300Z 15004KT 7000 -DZ BKN007 BKN018 15/14 Q1000=
201105010230 METAR LPPR 010230Z 13004KT 8000 SCT007 BKN009 BKN070 15/14
                        Q1000=
201105010200 METAR LPPR 010200Z 13003KT 9000 FEW009 SCT040 OVC070 15/14
                        Q1000=
201105010130 METAR LPPR 010130Z 14004KT 090V170 8000 NSC 15/14 Q1000=
201105010100 METAR LPPR 010100Z 16005KT 9000 NSC 15/14 Q1000=
201105010030 METAR LPPR 010030Z 19003KT 8000 FEW020 SCT050 BKN070 15/14
                        Q1000=
201105010000 METAR LPPR 010000Z VRB01KT 8000 FEW020 BKN070 OVC080 15/14
                        Q1000=

</pre>

</body>
</html>
