##########################################################
# Query made at 11/07/2014 14:47:46 UTC
# Time interval: from 11/01/2008 00:00  to 12/01/2008 23:59  UTC
##########################################################

##########################################################
# LPPR, Porto / Pedras Rubras (Portugal)
# WMO index: 08545
# Latitude 41-14N. Longitude 008-41W. Altitude 69 m.
##########################################################

###################################
#  METAR/SPECI from LPPR
###################################
200812012330 METAR LPPR 012330Z 35004KT CAVOK 02/01 Q1020=
200812012300 METAR LPPR 012300Z 34005KT CAVOK 02/01 Q1019=
200812012230 METAR LPPR 012230Z 34004KT CAVOK 03/02 Q1019=
200812012200 METAR LPPR 012200Z 34002KT CAVOK 03/02 Q1019=
200812012130 METAR LPPR 012130Z 36003KT CAVOK 03/02 Q1018=
200812012100 METAR LPPR 012100Z 00000KT CAVOK 03/02 Q1018=
200812012030 METAR LPPR 012030Z 00000KT 9999 FEW015 04/02 Q1017=
200812012000 METAR LPPR 012000Z 01003KT 9999 FEW015 05/02 Q1017=
200812011930 METAR LPPR 011930Z 01005KT 9999 FEW015 06/03 Q1017=
200812011900 METAR LPPR 011900Z 02005KT 9999 FEW015 06/03 Q1016=
200812011830 METAR LPPR 011830Z 01008KT 350V050 9999 FEW015 SCT035 07/05
                        Q1016=
200812011800 METAR LPPR 011800Z 36004KT 9999 FEW015 FEW025CB 06/04 Q1016=
200812011730 METAR LPPR 011730Z 34006KT 9999 FEW015 FEW025CB 06/04 Q1015=
200812011700 METAR LPPR 011700Z 34005KT 300V010 9999 FEW015 FEW025CB SCT250
                        07/05 Q1015=
200812011630 METAR LPPR 011630Z 32005KT 300V010 9999 FEW015 FEW025CB BKN250
                        08/05 Q1014=
200812011600 METAR LPPR 011600Z 33006KT 9999 FEW015 FEW025CB SCT250 09/05
                        Q1014=
200812011530 METAR LPPR 011530Z 33006KT 9999 FEW015 FEW025CB 09/06 Q1014=
200812011500 METAR LPPR 011500Z 34004KT 9999 SCT015 FEW025CB 07/06 Q1014=
200812011430 METAR LPPR 011430Z 34009KT 7000 -SHRA BKN015 FEW025CB 09/06
                        Q1014=
200812011400 METAR LPPR 011400Z 32008KT 280V350 9999 SCT015 FEW025CB 10/06
                        Q1013=
200812011330 METAR LPPR 011330Z 32006KT 280V010 9999 SCT015 FEW025CB 10/05
                        Q1013=
200812011300 METAR LPPR 011300Z 34006KT 310V010 9999 FEW015 FEW025CB BKN250
                        09/05 Q1013=
200812011230 METAR LPPR 011230Z 34004KT 290V010 9999 FEW015 FEW025CB BKN250
                        09/06 Q1013=
200812011200 METAR LPPR 011200Z VRB03KT 9999 FEW015 FEW025CB BKN250 09/05
                        Q1013=
200812011130 METAR LPPR 011130Z VRB03KT 9999 SCT015 FEW025CB BKN250 09/05
                        Q1013=
200812011100 METAR LPPR 011100Z VRB02KT 9999 SCT015 BKN250 08/05 Q1013=
200812011030 METAR LPPR 011030Z VRB03KT 9999 FEW015 FEW020CB BKN250 07/05
                        Q1013=
200812011000 METAR LPPR 011000Z VRB03KT 9999 FEW015 FEW020CB BKN250 07/05
                        Q1012=
200812010930 METAR LPPR 010930Z 22005KT 180V260 8000 -SHRA FEW015 FEW020CB
                        BKN025 06/05 Q1012=
200812010900 METAR LPPR 010900Z 20006KT 8000 -SHRA FEW015 FEW020CB BKN025
                        06/05 Q1012=
200812010830 METAR LPPR 010830Z 17003KT 8000 -SHRA FEW015 FEW020CB BKN025
                        05/04 Q1012=
200812010800 METAR LPPR 010800Z 13003KT 9999 -SHRA FEW015 FEW020CB BKN030
                        05/04 Q1012=
200812010730 METAR LPPR 010730Z 06004KT 330V110 8000 -SHRA SCT015 BKN025
                        05/04 Q1011=
200812010700 METAR LPPR 010700Z 12007KT 9999 FEW017 BKN030 05/04 Q1011=
200812010630 METAR LPPR 010630Z 11006KT 9999 FEW017 SCT030 BKN060 05/04
                        Q1011=
200812010600 METAR LPPR 010600Z 14005KT 9999 FEW017 SCT030 BKN080 04/04
                        Q1011=
200812010530 METAR LPPR 010530Z VRB03KT 9999 FEW015 SCT030 BKN080 04/04
                        Q1011=
200812010500 METAR LPPR 010500Z 17004KT 9999 FEW015 SCT025 BKN070 04/03
                        Q1010=
200812010430 METAR LPPR 010430Z 00000KT 9999 FEW015 SCT020 BKN050 04/03
                        Q1011=
200812010400 METAR LPPR 010400Z 00000KT 9999 SCT015 SCT020 05/03 Q1010=
200812010330 METAR LPPR 010330Z 36008KT 330V040 8000 -RA SCT015 BKN020
                        05/04 Q1011=
200812010300 METAR LPPR 010300Z 00000KT 8000 -SHRA SCT015 SCT020 04/03
                        Q1010=
200812010230 METAR LPPR 010230Z 25003KT 9999 FEW012 SCT045 04/03 Q1010=
200812010200 METAR LPPR 010200Z 06004KT 020V100 8000 -RA FEW012 SCT025
                        BKN045 05/04 Q1010=
200812010130 METAR LPPR 010130Z 35007KT 9999 FEW012 SCT022 BKN040 06/05
                        Q1011=
200812010100 METAR LPPR 010100Z 00000KT 8000 -RA FEW012 SCT020 BKN040
                        06/05 Q1010=
200812010030 METAR LPPR 010030Z VRB02KT 9999 FEW012 SCT030 BKN050 06/05
                        Q1010=
200812010000 METAR LPPR 010000Z VRB03KT 9000 -RA FEW012 SCT020 BKN050
                        06/05 Q1010=
200811302330 METAR LPPR 302330Z 00000KT 9999 FEW012 SCT020 BKN050 06/05
                        Q1010=
200811302300 METAR LPPR 302300Z VRB03KT 9999 FEW012 FEW020CB BKN030 06/05
                        Q1009=
200811302230 METAR LPPR 302230Z VRB03KT 8000 -RA FEW012 FEW020CB BKN025
                        07/05 Q1010=
200811302200 METAR LPPR 302200Z 29005KT 260V320 8000 -RA FEW012 FEW020CB
                        BKN025 07/06 Q1009=
200811302130 METAR LPPR 302130Z 30005KT 240V360 9999 FEW012 FEW020CB BKN030
                        07/06 Q1009=
200811302100 METAR LPPR 302100Z VRB02KT 8000 -RA FEW012 FEW020CB BKN025
                        06/06 Q1009=
200811302030 METAR LPPR 302030Z 15003KT 9999 FEW012 FEW020 BKN025 06/05
                        Q1009=
200811302000 METAR LPPR 302000Z 00000KT 9999 FEW012 FEW020CB BKN027 06/05
                        Q1009=
200811301930 METAR LPPR 301930Z 00000KT 9999 SCT012 SCT020CB 07/05 Q1009
                        RERA=
200811301900 METAR LPPR 301900Z 32010KT 280V350 7000 SHRA BR SCT012 SCT020CB
                        BKN025 07/05 Q1009=
200811301830 METAR LPPR 301830Z VRB02KT 8000 -RA BR FEW012 FEW020CB BKN027
                        08/06 Q1008=
200811301800 METAR LPPR 301800Z 25006KT 190V310 8000 -RA FEW012 FEW020
                        BKN030 08/06 Q1008=
200811301730 METAR LPPR 301730Z 22004KT 180V250 8000 -SHRA SCT012 FEW020CB
                        BKN030 08/05 Q1008=
200811301700 METAR LPPR 301700Z 23004KT 200V270 9999 SCT012 FEW025CB BKN040
                        07/05 Q1008=
200811301630 METAR LPPR 301630Z 27004KT 210V300 8000 VCSH SCT012 SCT020CB
                        08/06 Q1008=
200811301600 METAR LPPR 301600Z 34011KT 250V030 5000 -SHGS SCT012 SCT025CB
                        BKN035 09/06 Q1007=
200811301530 METAR LPPR 301530Z 21009KT 8000 VCRA SCT012 SCT025CB 09/06
                        Q1007=
200811301500 METAR LPPR 301500Z 19008KT 9999 SCT012 FEW025CB 10/07 Q1007=
200811301430 METAR LPPR 301430Z 23005KT 190V260 9999 SCT012 FEW025CB 09/06
                        Q1007=
200811301400 METAR LPPR 301400Z 20006KT 160V250 9999 SCT012 FEW025CB 09/07
                        Q1007=
200811301330 METAR LPPR 301330Z 17005KT 8000 -SHRA SCT012 BKN020 FEW025CB
                        08/06 Q1007=
200811301300 METAR LPPR 301300Z 17005KT 140V210 9999 SCT012 FEW025CB BKN035
                        08/06 Q1008=
200811301230 METAR LPPR 301230Z 15005KT 9999 SCT012 FEW025CB BKN035 06/06
                        Q1008 RERA=
200811301200 METAR LPPR 301200Z 02004KT 350V050 8000 SHRA SCT012 BKN017
                        FEW025CB 07/05 Q1008=
200811301130 METAR LPPR 301130Z 00000KT 8000 SCT015 BKN020 FEW025CB 07/05
                        Q1008=
200811301100 METAR LPPR 301100Z VRB02KT 9999 SCT015 SCT020 FEW025CB 06/05
                        Q1008=
200811301030 METAR LPPR 301030Z 11004KT 080V150 9999 SCT015 SCT020 FEW025CB
                        05/04 Q1007=
200811301000 METAR LPPR 301000Z 03005KT 010V070 9999 SCT015 BKN020 FEW025CB
                        06/04 Q1007=
200811300930 METAR LPPR 300930Z 34006KT 300V030 8000 -SHRA SCT015 BKN020
                        FEW025CB 05/05 Q1007=
200811300900 METAR LPPR 300900Z 11005KT 7000 -SHRA SCT015 SCT020 FEW025CB
                        04/04 Q1006=
200811300830 METAR LPPR 300830Z 11004KT 9999 FEW015 SCT020 FEW025CB BKN080
                        04/03 Q1006=
200811300800 METAR LPPR 300800Z 12006KT 9999 FEW015 SCT020 FEW025CB BKN080
                        04/03 Q1005=
200811300730 METAR LPPR 300730Z 00000KT 9999 FEW015 SCT025 BKN080 03/03
                        Q1005=
200811300700 METAR LPPR 300700Z 00000KT 9999 FEW015 SCT025 BKN080 03/03
                        Q1004=
200811300630 METAR LPPR 300630Z 12005KT 9999 FEW015 SCT025 BKN080 04/04
                        Q1004=
200811300600 METAR LPPR 300600Z 16003KT 9999 -SHRA SCT015 SCT025 BKN080
                        03/03 Q1004=
200811300530 METAR LPPR 300530Z 00000KT 9999 -SHRA FEW015 SCT025 BKN080
                        03/02 Q1004=
200811300500 METAR LPPR 300500Z 00000KT 9999 FEW030 SCT090 BKN200 03/02
                        Q1003=
200811300430 METAR LPPR 300430Z 00000KT 9999 FEW017 BKN020 FEW025CB 03/02
                        Q1003=
200811300400 METAR LPPR 300400Z 00000KT 9999 FEW017 SCT020 FEW025CB 03/02
                        Q1002=
200811300330 METAR LPPR 300330Z 00000KT 9999 FEW017 SCT020 FEW025CB 03/03
                        Q1002=
200811300300 METAR LPPR 300300Z 00000KT 9999 FEW015 FEW025CB BKN040 04/03
                        Q1002=
200811300230 METAR LPPR 300230Z VRB02KT 9999 FEW015 FEW025CB BKN040 04/03
                        Q1002=
200811300200 METAR LPPR 300200Z 13003KT 9999 FEW015 FEW020CB BKN040 04/03
                        Q1002=
200811300130 METAR LPPR 300130Z 00000KT 9999 FEW015 FEW020CB BKN040 04/03
                        Q1002=
200811300100 METAR LPPR 300100Z 00000KT 9999 FEW015 FEW020CB BKN040 05/04
                        Q1001=
200811300030 METAR LPPR 300030Z VRB03KT 9999 SCT015 FEW020CB BKN040 05/04
                        Q1001=
200811300000 METAR LPPR 300000Z 11005KT 080V140 9999 SCT015 FEW020CB BKN040
                        05/04 Q1001=
200811292330 METAR LPPR 292330Z 10004KT 070V130 9000 -SHRA SCT015 FEW020CB
                        BKN040 05/05 Q1001=
200811292300 METAR LPPR 292300Z VRB03KT 4000 -SHRA SCT012 FEW020CB BKN040
                        05/05 Q1002=
200811292230 METAR LPPR 292230Z 14007KT 110V170 4000 -SHRA SCT012 FEW020CB
                        BKN040 05/05 Q1001=
200811292200 METAR LPPR 292200Z 11007KT 080V140 5000 -SHRA SCT012 FEW020CB
                        BKN040 06/05 Q1001=
200811292130 METAR LPPR 292130Z 14005KT 110V210 5000 -TSRA SCT012 FEW025CB
                        BKN040 06/05 Q1001=
200811292100 METAR LPPR 292100Z 12006KT 9999 FEW015 FEW025CB BKN040 06/05
                        Q1001=
200811292030 METAR LPPR 292030Z 12007KT 9999 FEW015 FEW025CB BKN040 06/05
                        Q1001=
200811292000 METAR LPPR 292000Z 11002KT 9999 FEW015 FEW025 BKN040 06/04
                        Q1001=
200811291930 METAR LPPR 291930Z 00000KT 9999 SCT015 FEW025CB BKN040 07/05
                        Q1001=
200811291900 METAR LPPR 291900Z 00000KT 8000 -SHRA SCT013 FEW020CB BKN040
                        07/05 Q1001=
200811291830 METAR LPPR 291830Z 29007KT 260V320 8000 -SHRA SCT013 FEW020CB
                        BKN030 07/05 Q1001=
200811291800 METAR LPPR 291800Z VRB05KT 5000 SHRA GS FEW005 SCT013 SCT020CB
                        07/06 Q1001=
200811291730 METAR LPPR 291730Z 08003KT 6000 -SHRA FEW005 SCT013 FEW020CB
                        BKN030 07/06 Q1000=
200811291700 METAR LPPR 291700Z 00000KT 9999 SCT015 FEW020CB BKN030 07/05
                        Q1000 RERA=
200811291630 METAR LPPR 291630Z 25004KT 200V310 9999 SCT015 SCT020CB BKN030
                        08/05 Q1000=
200811291600 METAR LPPR 291600Z VRB03KT 8000 SCT015 SCT023CB BKN040 07/06
                        Q1000=
200811291530 METAR LPPR 291530Z 25004KT 200V300 8000 -SHRA FEW005 SCT015
                        SCT023CB BKN033 07/05 Q1000 RERA=
200811291500 METAR LPPR 291500Z VRB02KT 8000 SHRA SCT005 SCT015 FEW020CB
                        BKN033 07/05 Q1000=
200811291430 METAR LPPR 291430Z 36011KT 8000 -SHRA SCT017 FEW025CB BKN035
                        08/06 Q1000=
200811291400 METAR LPPR 291400Z 35009KT 9999 SCT015 FEW020CB SCT035 09/05
                        Q1000=
200811291330 METAR LPPR 291330Z 35015KT 9999 SCT015 FEW020CB SCT030 09/06
                        Q1000=
200811291300 METAR LPPR 291300Z 30010KT 260V330 9999 SCT015 FEW020CB SCT030
                        12/06 Q1000=
200811291230 METAR LPPR 291230Z 32009KT 270V350 9999 SCT013 FEW020CB SCT250
                        10/05 Q1000=
200811291200 METAR LPPR 291200Z 32015KT 280V340 9999 -SHRA SCT013 FEW020CB
                        SCT030 11/05 Q1000=
200811291130 METAR LPPR 291130Z 31013KT 280V340 9999 SCT013 FEW020CB 10/05
                        Q1000=
200811291100 METAR LPPR 291100Z VRB03KT 9999 SCT013 SCT020CB 08/05 Q1000=
200811291030 METAR LPPR 291030Z 31018G38KT 240V330 7000 -SHRA SCT013 SCT020CB
                        09/06 Q1000=
200811291000 METAR LPPR 291000Z VRB03KT 9999 SCT013 FEW020CB BKN030 07/05
                        Q1000=
200811290930 METAR LPPR 290930Z VRB02KT 8000 -SHRA SCT013 FEW020CB BKN030
                        07/05 Q1000=
200811290900 METAR LPPR 290900Z VRB02KT 5000 -SHRA SCT013 FEW020CB BKN030
                        06/06 Q1000=
200811290830 METAR LPPR 290830Z 36009KT 8000 -SHRA SCT013 FEW020CB BKN030
                        07/05 Q1000=
200811290800 METAR LPPR 290800Z 34011KT 9999 -SHRA SCT015 FEW020CB BKN030
                        08/06 Q0999=
200811290730 METAR LPPR 290730Z 32009G19KT 9999 SCT015 FEW020CB BKN030
                        08/05 Q0998=
200811290700 METAR LPPR 290700Z 33011KT 9999 -SHRA SCT015 FEW020CB BKN030
                        07/06 Q0998=
200811290630 METAR LPPR 290630Z 31015G30KT 280V340 8000 -SHGS SCT015 FEW020CB
                        BKN030 08/04 Q0998=
200811290600 METAR LPPR 290600Z 35009KT 320V020 9999 SCT015 FEW020CB BKN030
                        08/05 Q0998=
200811290530 METAR LPPR 290530Z 31012KT 240V340 9999 SCT015 FEW020CB BKN080
                        10/04 Q0998=
200811290500 METAR LPPR 290500Z 32012KT 270V340 9999 SCT015 FEW020CB SCT030
                        09/03 Q0997=
200811290430 METAR LPPR 290430Z 30010KT 260V330 9999 SCT015 FEW020CB SCT030
                        09/04 Q0997=
200811290400 METAR LPPR 290400Z 27010KT 200V310 8000 -SHRAGS SCT015 FEW020CB
                        BKN030 08/05 Q0998=
200811290330 METAR LPPR 290330Z 30016G27KT 270V330 9999 SCT015 FEW020CB
                        SCT035 10/04 Q0998 WS ALL RWY=
200811290300 METAR COR LPPR 290300Z 29015G26KT 260V320 9999 SCT015 FEW020CB
                        10/03 Q0998 WS ALL RWY=
200811290230 METAR LPPR 290230Z 30011G21KT 250V330 9999 SCT015 FEW020CB
                        SCT030 10/03 Q0997 WS ALL RWY=
200811290200 METAR LPPR 290200Z 32013KT 270V340 9999 SCT015 FEW020CB SCT030
                        09/05 Q0998 WS ALL RWY=
200811290130 METAR LPPR 290130Z 31010KT 9999 SCT015 FEW020CB SCT035 09/05
                        Q0998 WS ALL RWY=
200811290100 METAR LPPR 290100Z 29018G31KT 260V320 8000 -SHRA SCT006 SCT015
                        FEW020CB 09/04 Q0998 WS ALL RWY=
200811290030 METAR LPPR 290030Z 33012KT 9999 SCT015 FEW020CB BKN035 10/04
                        Q0998=
200811290000 METAR LPPR 290000Z 29009KT 260V330 9999 SCT015 FEW020CB SCT035
                        10/05 Q0998=
200811282330 METAR LPPR 282330Z 30012KT 250V340 9999 SCT015 FEW020CB SCT035
                        10/05 Q0998=
200811282300 METAR LPPR 282300Z 31012KT 270V330 9999 SCT013 FEW020CB SCT035
                        10/05 Q0998=
200811282230 METAR LPPR 282230Z 31013G24KT 260V330 9999 SCT013 FEW020CB
                        BKN035 10/06 Q0998=
200811282200 METAR LPPR 282200Z 27006KT 240V330 9999 SCT013 FEW020CB BKN040
                        09/06 Q0998=
200811282130 METAR LPPR 282130Z VRB03KT 7000 -SHRA SCT013 FEW020CB BKN040
                        08/08 Q0998=
200811282100 METAR LPPR 282100Z 00000KT 9999 SCT013 FEW020CB BKN070 09/08
                        Q0998=
200811282030 METAR LPPR 282030Z 32011KT 7000 -SHRA SCT013 FEW020CB BKN025
                        09/08 Q0999=
200811282000 METAR LPPR 282000Z 24007KT 210V280 5000 -SHRA BR SCT013 FEW020CB
                        BKN025 09/09 Q0999 RERA=
200811281930 METAR LPPR 281930Z 23007KT 190V260 4000 -SHRA BR SCT012 BKN020
                        FEW025CB 09/08 Q1000 RERA WS ALL
                        RWY=
200811281900 METAR LPPR 281900Z 26007KT 220V330 4000 SHRA BR FEW007 SCT012
                        BKN020 FEW025CB 10/09 Q1000 WS ALL
                        RWY=
200811281830 METAR LPPR 281830Z 27008G21KT 220V310 4000 SHRA BR SCT012
                        BKN020 FEW025CB 10/08 Q1001 WS ALL
                        RWY=
200811281800 METAR LPPR 281800Z 27017G29KT 240V300 5000 SHRA SCT012 BKN020
                        FEW025CB 11/08 Q1001 WS ALL RWY=
200811281730 METAR LPPR 281730Z 21008KT 190V250 9000 FEW015 BKN020 FEW025CB
                        12/08 Q1001=
200811281700 METAR LPPR 281700Z 21009KT 9999 SCT015 BKN020 12/09 Q1002=
200811281630 METAR LPPR 281630Z 22006KT 9999 SCT015 SCT025 BKN080 12/09
                        Q1002=
200811281600 METAR LPPR 281600Z 22007KT 170V260 9999 SCT015 BKN025 12/09
                        Q1002=
200811281530 METAR LPPR 281530Z VRB02KT 9999 SCT015 BKN025 12/11 Q1003=
200811281500 METAR LPPR 281500Z 26004KT 9999 SCT015 SCT025 BKN080 12/10
                        Q1003=
200811281430 METAR LPPR 281430Z 26005KT 230V300 9999 SCT015 SCT025 BKN080
                        13/11 Q1004=
200811281400 METAR LPPR 281400Z VRB03KT 9999 FEW008 SCT015 BKN020 FEW025CB
                        12/11 Q1004=
200811281330 METAR LPPR 281330Z 30008KT 270V330 5000 -SHRA SCT006 SCT015
                        BKN020 FEW025CB 12/11 Q1005=
200811281300 METAR LPPR 281300Z 30005KT 260V330 9999 FEW006 SCT015 BKN020
                        12/11 Q1005=
200811281230 METAR LPPR 281230Z 24007G18KT 170V320 7000 -SHRA SCT003 SCT012
                        BKN020 FEW025CB 10/10 Q1006 RERA
                        WS ALL RWY=
200811281200 METAR LPPR 281200Z 17021KT 3000 RA BR SCT003 BKN020 09/09
                        Q1005=
200811281130 METAR LPPR 281130Z 18017KT 3000 RA BR SCT008 BKN020 09/09
                        Q1007=
200811281100 METAR LPPR 281100Z 18017KT 3000 RA BR SCT008 BKN020 09/08
                        Q1007=
200811281030 METAR LPPR 281030Z 18015KT 4000 -RA BR SCT008 BKN020 09/07
                        Q1008=
200811281000 METAR LPPR 281000Z 16013KT 8000 SCT020 BKN030 09/05 Q1008=
200811280930 METAR LPPR 280930Z 16011KT 8000 SCT020 BKN030 09/05 Q1009=
200811280900 METAR LPPR 280900Z 16011KT 8000 SCT020 BKN030 08/05 Q1009=
200811280830 METAR LPPR 280830Z 15009KT 8000 SCT020 SCT030 07/04 Q1009=
200811280800 METAR LPPR 280800Z 14008KT 9999 SCT020 BKN030 07/05 Q1010=
200811280730 METAR LPPR 280730Z 14006KT 9999 SCT020 BKN030 06/04 Q1011=
200811280700 METAR LPPR 280700Z 13007KT 9999 SCT020 BKN030 06/04 Q1011=
200811280630 METAR LPPR 280630Z 13007KT 9999 SCT025 SCT045 06/04 Q1011=
200811280600 METAR LPPR 280600Z 12007KT 9999 SCT025 SCT045 06/04 Q1012=
200811280530 METAR LPPR 280530Z 13007KT 9999 SCT025 SCT045 06/04 Q1012=
200811280500 METAR LPPR 280500Z 11010KT 9999 SCT025 SCT045 05/04 Q1013=
200811280430 METAR LPPR 280430Z 11008KT 9999 FEW009 BKN030 05/04 Q1014=
200811280400 METAR LPPR 280400Z 12007KT 9999 FEW009 SCT035 05/04 Q1014=
200811280330 METAR LPPR 280330Z 12008KT 9999 FEW009 SCT035 05/04 Q1014=
200811280300 METAR LPPR 280300Z 11006KT 9999 FEW009 SCT035 05/04 Q1014=
200811280230 METAR LPPR 280230Z VRB03KT 9999 FEW009 BKN035 05/04 Q1015=
200811280200 METAR LPPR 280200Z 13003KT 9999 FEW009 BKN035 05/04 Q1015=
200811280130 METAR LPPR 280130Z 00000KT 9999 FEW009 SCT035 05/04 Q1015=
200811280100 METAR LPPR 280100Z 13005KT 9999 FEW009 SCT035 05/04 Q1015=
200811280030 METAR LPPR 280030Z 11007KT 9999 FEW012 04/04 Q1016=
200811280000 METAR LPPR 280000Z 11005KT 9999 FEW012 04/04 Q1016=
200811272330 METAR LPPR 272330Z VRB02KT 9999 FEW012 04/03 Q1016=
200811272300 METAR LPPR 272300Z 00000KT 9999 FEW012 04/04 Q1017=
200811272230 METAR LPPR 272230Z 00000KT 9999 FEW012 04/04 Q1017=
200811272200 METAR LPPR 272200Z 00000KT 9999 FEW012 04/04 Q1017=
200811272130 METAR LPPR 272130Z 00000KT 9999 FEW012 04/03 Q1017=
200811272100 METAR LPPR 272100Z 00000KT 9999 FEW012 04/03 Q1017=
200811272030 METAR LPPR 272030Z 00000KT 9999 FEW020 05/04 Q1018=
200811272000 METAR LPPR 272000Z 00000KT 9999 FEW020 05/04 Q1018=
200811271930 METAR LPPR 271930Z 01002KT 9999 FEW020 06/04 Q1018=
200811271900 METAR LPPR 271900Z 00000KT 9999 FEW020 06/04 Q1018=
200811271830 METAR LPPR 271830Z 36002KT 9999 FEW020 06/04 Q1018=
200811271800 METAR LPPR 271800Z 35003KT 9999 FEW020 07/04 Q1018=
200811271730 METAR LPPR 271730Z 34003KT CAVOK 08/04 Q1018=
200811271700 METAR LPPR 271700Z 32005KT 290V020 CAVOK 10/04 Q1018=
200811271630 METAR LPPR 271630Z 32005KT 290V350 CAVOK 11/04 Q1018=
200811271600 METAR LPPR 271600Z 32007KT 290V040 CAVOK 11/04 Q1019=
200811271530 METAR LPPR 271530Z 31006KT 260V350 CAVOK 12/03 Q1019=
200811271500 METAR LPPR 271500Z VRB03KT CAVOK 13/02 Q1019=
200811271430 METAR LPPR 271430Z 00000KT CAVOK 13/01 Q1019=
200811271400 METAR LPPR 271400Z 00000KT CAVOK 13/01 Q1020=
200811271330 METAR LPPR 271330Z VRB02KT CAVOK 12/01 Q1020=
200811271300 METAR LPPR 271300Z 00000KT CAVOK 12/00 Q1020=
200811271230 METAR LPPR 271230Z 07004KT 020V120 CAVOK 11/01 Q1021=
200811271200 METAR LPPR 271200Z 09005KT 060V140 CAVOK 11/01 Q1022=
200811271130 METAR LPPR 271130Z 10005KT 060V130 CAVOK 11/01 Q1022=
200811271100 METAR LPPR 271100Z 09006KT 050V130 CAVOK 10/01 Q1022=
200811271030 METAR LPPR 271030Z 09007KT 060V130 CAVOK 09/00 Q1022=
200811271000 METAR LPPR 271000Z 07004KT 030V110 CAVOK 08/M00 Q1022=
200811270930 METAR LPPR 270930Z 07006KT 020V130 CAVOK 07/M00 Q1022=
200811270900 METAR LPPR 270900Z 05004KT 020V100 CAVOK 06/M01 Q1022=
200811270830 METAR LPPR 270830Z 00000KT CAVOK 05/M01 Q1022=
200811270800 METAR LPPR 270800Z 06004KT 040V100 CAVOK 04/M01 Q1022=
200811270730 METAR LPPR 270730Z 11006KT 060V140 CAVOK 05/M01 Q1022=
200811270700 METAR LPPR 270700Z 12005KT 090V150 CAVOK 05/M01 Q1022=
200811270630 METAR LPPR 270630Z 09004KT 050V120 CAVOK 04/M01 Q1022=
200811270600 METAR LPPR 270600Z 08005KT 040V100 CAVOK 04/M01 Q1022=
200811270530 METAR LPPR 270530Z 08004KT CAVOK 04/M01 Q1022=
200811270500 METAR LPPR 270500Z 09004KT CAVOK 05/M01 Q1022=
200811270430 METAR LPPR 270430Z 05004KT CAVOK 05/M01 Q1022=
200811270400 METAR LPPR 270400Z 06005KT CAVOK 06/M01 Q1023=
200811270330 METAR LPPR 270330Z 05006KT CAVOK 06/M01 Q1023=
200811270300 METAR LPPR 270300Z 06006KT 030V090 CAVOK 05/M00 Q1023=
200811270230 METAR LPPR 270230Z 36005KT 330V040 CAVOK 04/M00 Q1023=
200811270200 METAR LPPR 270200Z VRB03KT CAVOK 06/M00 Q1023=
200811270130 METAR LPPR 270130Z 06005KT 020V090 CAVOK 06/00 Q1024=
200811270100 METAR LPPR 270100Z 01005KT CAVOK 04/01 Q1024=
200811270030 METAR LPPR 270030Z 02006KT CAVOK 05/01 Q1024=
200811270000 METAR LPPR 270000Z 05005KT 360V080 CAVOK 06/01 Q1024=
200811262330 METAR LPPR 262330Z 06005KT 020V100 CAVOK 07/01 Q1024=
200811262300 METAR LPPR 262300Z 00000KT CAVOK 05/01 Q1024=
200811262230 METAR LPPR 262230Z 00000KT CAVOK 06/01 Q1024=
200811262200 METAR LPPR 262200Z 04005KT 020V080 CAVOK 06/01 Q1024=
200811262130 METAR LPPR 262130Z 00000KT CAVOK 05/02 Q1024=
200811262100 METAR LPPR 262100Z VRB02KT CAVOK 06/02 Q1024=
200811262030 METAR LPPR 262030Z 04003KT CAVOK 05/03 Q1023=
200811262000 METAR LPPR 262000Z 04002KT CAVOK 05/03 Q1023=
200811261930 METAR LPPR 261930Z 00000KT CAVOK 06/03 Q1023=
200811261900 METAR LPPR 261900Z 00000KT CAVOK 07/03 Q1023=
200811261830 METAR LPPR 261830Z VRB03KT CAVOK 07/03 Q1023=
200811261800 METAR LPPR 261800Z 03002KT CAVOK 08/03 Q1023=
200811261730 METAR LPPR 261730Z VRB03KT CAVOK 08/03 Q1023=
200811261700 METAR LPPR 261700Z 36004KT CAVOK 10/04 Q1023=
200811261630 METAR LPPR 261630Z 36006KT CAVOK 12/03 Q1023=
200811261600 METAR LPPR 261600Z 01007KT 9999 FEW020 13/02 Q1023=
200811261530 METAR LPPR 261530Z 36007KT 9999 FEW020 13/02 Q1023=
200811261500 METAR LPPR 261500Z 01009KT 9999 FEW020 13/02 Q1023=
200811261430 METAR LPPR 261430Z 01008KT 9999 FEW020 13/02 Q1023=
200811261400 METAR LPPR 261400Z 36008KT 340V040 9999 FEW020 13/01 Q1023=
200811261330 METAR LPPR 261330Z 03008KT 360V060 9999 FEW020 13/01 Q1024=
200811261300 METAR LPPR 261300Z 04006KT 360V080 CAVOK 12/01 Q1024=
200811261230 METAR LPPR 261230Z 04006KT 010V090 CAVOK 12/01 Q1025=
200811261200 METAR LPPR 261200Z 05006KT 010V100 CAVOK 11/02 Q1025=
200811261130 METAR LPPR 261130Z 05007KT 020V080 CAVOK 11/01 Q1025=
200811261100 METAR LPPR 261100Z 05006KT 030V120 CAVOK 10/01 Q1026=
200811261030 METAR LPPR 261030Z 04006KT 010V080 CAVOK 09/01 Q1026=
200811261000 METAR LPPR 261000Z 04005KT 010V070 CAVOK 08/02 Q1026=
200811260930 METAR LPPR 260930Z 00000KT CAVOK 07/02 Q1026=
200811260900 METAR LPPR 260900Z 00000KT CAVOK 04/01 Q1026=
200811260830 METAR LPPR 260830Z 00000KT CAVOK 03/00 Q1025=
200811260800 METAR LPPR 260800Z 00000KT CAVOK 01/M01 Q1025=
200811260730 METAR LPPR 260730Z 00000KT CAVOK 01/M01 Q1025=
200811260700 METAR LPPR 260700Z 00000KT CAVOK 02/M01 Q1025=
200811260630 METAR LPPR 260630Z 00000KT CAVOK 02/00 Q1024=
200811260600 METAR LPPR 260600Z 11004KT 090V160 CAVOK 03/00 Q1024=
200811260530 METAR LPPR 260530Z VRB03KT CAVOK 04/00 Q1024=
200811260500 METAR LPPR 260500Z 00000KT CAVOK 03/00 Q1024=
200811260430 METAR LPPR 260430Z 36006KT CAVOK 02/01 Q1024=
200811260400 METAR LPPR 260400Z 35005KT CAVOK 03/00 Q1024=
200811260330 METAR LPPR 260330Z 00000KT CAVOK 03/00 Q1024=
200811260300 METAR LPPR 260300Z 00000KT CAVOK 03/00 Q1025=
200811260230 METAR LPPR 260230Z 00000KT CAVOK 03/00 Q1025=
200811260200 METAR LPPR 260200Z VRB03KT CAVOK 04/00 Q1024=
200811260130 METAR LPPR 260130Z 03004KT 360V070 CAVOK 05/01 Q1024=
200811260100 METAR LPPR 260100Z 03005KT CAVOK 05/01 Q1024=
200811260030 METAR LPPR 260030Z 00000KT CAVOK 05/00 Q1025=
200811260000 METAR LPPR 260000Z VRB03KT CAVOK 06/01 Q1024=
200811252330 METAR LPPR 252330Z 04007KT 010V080 CAVOK 07/01 Q1024=
200811252300 METAR LPPR 252300Z 02008KT CAVOK 07/01 Q1024=
200811252230 METAR LPPR 252230Z 03007KT CAVOK 07/01 Q1023=
200811252200 METAR LPPR 252200Z 02008KT CAVOK 08/01 Q1023=
200811252130 METAR LPPR 252130Z 36009KT CAVOK 07/01 Q1023=
200811252100 METAR LPPR 252100Z 01009KT CAVOK 08/01 Q1023=
200811252030 METAR LPPR 252030Z 01010KT CAVOK 08/01 Q1022=
200811252000 METAR LPPR 252000Z 01012KT CAVOK 09/01 Q1022=
200811251930 METAR LPPR 251930Z 01010KT CAVOK 09/01 Q1021=
200811251900 METAR LPPR 251900Z 36008KT CAVOK 09/02 Q1021=
200811251830 METAR LPPR 251830Z 36011KT CAVOK 10/02 Q1020=
200811251800 METAR LPPR 251800Z 01009KT CAVOK 10/02 Q1020=
200811251730 METAR LPPR 251730Z 01009KT CAVOK 11/02 Q1019=
200811251700 METAR LPPR 251700Z 36010KT 9999 FEW030 11/02 Q1019=
200811251630 METAR LPPR 251630Z 01013KT 9999 FEW030 12/02 Q1018=
200811251600 METAR LPPR 251600Z 01011KT 9999 FEW025 13/03 Q1018=
200811251530 METAR LPPR 251530Z 01012KT 9999 FEW025 13/03 Q1017=
200811251500 METAR LPPR 251500Z 03012KT 340V060 9999 FEW025 13/02 Q1017=
200811251430 METAR LPPR 251430Z 01014KT 9999 FEW030 13/03 Q1017=
200811251400 METAR LPPR 251400Z 36014KT 340V050 9999 FEW030 13/03 Q1017=
200811251330 METAR LPPR 251330Z 01012KT 340V050 9999 FEW030 13/04 Q1017=
200811251300 METAR LPPR 251300Z 01016KT 340V040 9999 FEW020 13/03 Q1017=
200811251230 METAR LPPR 251230Z 01013KT 350V050 9999 FEW020 13/05 Q1017=
200811251200 METAR LPPR 251200Z 01015KT 9999 FEW020 12/04 Q1017=
200811251130 METAR LPPR 251130Z 01017KT 9999 FEW020 12/05 Q1017=
200811251100 METAR LPPR 251100Z 35018KT 9999 FEW025 12/05 Q1017=
200811251030 METAR LPPR 251030Z 36017KT 9999 FEW025 11/05 Q1017=
200811251000 METAR LPPR 251000Z 35018KT 9999 FEW025 10/06 Q1016=
200811250930 METAR LPPR 250930Z 35018KT 9999 FEW025 10/06 Q1016=
200811250900 METAR LPPR 250900Z 35012KT 9999 FEW025 08/06 Q1016=
200811250830 METAR LPPR 250830Z 35010KT 9999 FEW025 07/06 Q1015=
200811250800 METAR LPPR 250800Z 35008KT 9999 FEW025 05/04 Q1015=
200811250730 METAR LPPR 250730Z 03007KT CAVOK 06/05 Q1015=
200811250700 METAR LPPR 250700Z 36006KT CAVOK 05/04 Q1014=
200811250630 METAR LPPR 250630Z 34004KT CAVOK 05/04 Q1014=
200811250600 METAR LPPR 250600Z VRB02KT CAVOK 05/04 Q1014=
200811250530 METAR LPPR 250530Z 35005KT CAVOK 05/04 Q1014=
200811250500 METAR LPPR 250500Z 02003KT CAVOK 05/05 Q1013=
200811250430 METAR LPPR 250430Z 04004KT CAVOK 05/05 Q1013=
200811250400 METAR LPPR 250400Z 35005KT CAVOK 06/05 Q1013=
200811250330 METAR LPPR 250330Z 36006KT CAVOK 06/05 Q1013=
200811250300 METAR LPPR 250300Z 34005KT CAVOK 06/05 Q1012=
200811250230 METAR LPPR 250230Z 01004KT CAVOK 07/06 Q1013=
200811250200 METAR LPPR 250200Z 33005KT CAVOK 05/04 Q1012=
200811250130 METAR LPPR 250130Z 00000KT CAVOK 06/05 Q1013=
200811250100 METAR LPPR 250100Z 00000KT CAVOK 06/05 Q1013=
200811250030 METAR LPPR 250030Z 36003KT CAVOK 07/06 Q1013=
200811250000 METAR LPPR 250000Z 35002KT 9999 FEW035 07/06 Q1013=
200811242330 METAR LPPR 242330Z 34004KT 9999 FEW035 08/06 Q1012=
200811242300 METAR LPPR 242300Z 34006KT 9999 SCT035 08/06 Q1012=
200811242230 METAR LPPR 242230Z 00000KT 9999 SCT040 08/06 Q1012=
200811242200 METAR LPPR 242200Z 34006KT 9999 FEW040 07/05 Q1012=
200811242130 METAR LPPR 242130Z 35006KT 320V020 CAVOK 08/05 Q1012=
200811242100 METAR LPPR 242100Z VRB02KT 9999 FEW015 09/06 Q1012=
200811242030 METAR LPPR 242030Z 09003KT 9999 FEW015 08/06 Q1012=
200811242000 METAR LPPR 242000Z 00000KT 9999 FEW015 08/06 Q1012=
200811241930 METAR LPPR 241930Z 35004KT 310V020 9999 FEW015 08/06 Q1011=
200811241900 METAR LPPR 241900Z 33008KT 9999 FEW017 08/06 Q1012=
200811241830 METAR LPPR 241830Z 35007KT 9999 FEW017 09/06 Q1011=
200811241800 METAR LPPR 241800Z 34010KT 9999 FEW017 10/07 Q1011=
200811241730 METAR LPPR 241730Z 33013KT 9999 FEW017 10/07 Q1011=
200811241700 METAR LPPR 241700Z 34017KT 9999 FEW017 SCT060 11/07 Q1011=
200811241630 METAR LPPR 241630Z 34010KT 310V010 9999 SCT015 SCT040 11/08
                        Q1010=
200811241600 METAR LPPR 241600Z 34017KT 9999 SCT015 SCT040 11/08 Q1011=
200811241530 METAR LPPR 241530Z 33012KT 9999 SCT015 SCT040 11/09 Q1011=
200811241500 METAR LPPR 241500Z 34016KT 8000 -SHRA SCT015 BKN040 11/09
                        Q1011 RERA WS ALL RWY=
200811241430 METAR LPPR 241430Z 34016KT 9000 -SHRA SCT017 BKN040 11/09
                        Q1011 RERA WS ALL RWY=
200811241400 METAR LPPR 241400Z 33018G30KT 4000 SHRA FEW012 BKN017 13/10
                        Q1011 WS ALL RWY=
200811241330 METAR LPPR 241330Z 34017G28KT 9000 -SHRA SCT017 BKN040 12/10
                        Q1011 WS ALL RWY=
200811241300 METAR LPPR 241300Z 33023KT 9999 SCT017 SCT040 13/09 Q1012
                        WS ALL RWY=
200811241230 METAR LPPR 241230Z 33013KT 8000 -SHRA SCT017 SCT030 12/11
                        Q1012 RERA WS ALL RWY=
200811241200 METAR LPPR 241200Z 33018KT 4000 SHRA FEW006 BKN017 13/10
                        Q1013 WS ALL RWY=
200811241130 METAR LPPR 241130Z 33017KT 9999 BKN017 13/10 Q1013 WS ALL
                        RWY=
200811241100 METAR LPPR 241100Z 33018G28KT 300V360 7000 -SHRA FEW012 BKN017
                        13/11 Q1013 RERA WS ALL RWY=
200811241030 METAR LPPR 241030Z 33015KT 9999 FEW013 SCT017 14/10 Q1013
                        WS ALL RWY=
200811241000 METAR LPPR 241000Z 33011KT 9999 SCT015 SCT040 12/10 Q1014
                        WS ALL RWY=
200811240930 METAR LPPR 240930Z 33008G19KT 290V360 9999 SCT015 BKN025
                        12/11 Q1014=
200811240900 METAR LPPR 240900Z 33008KT 9999 FEW015 BKN040 12/11 Q1014=
200811240830 METAR LPPR 240830Z 34012KT 9999 SCT015 BKN040 11/10 Q1015=
200811240800 METAR LPPR 240800Z 34018G28KT 9999 FEW015 SCT040 12/10 Q1015=
200811240730 METAR LPPR 240730Z 33007KT 9999 FEW015 BKN040 12/11 Q1014=
200811240700 METAR LPPR 240700Z 33007KT 310V010 9999 FEW015 BKN040 12/10
                        Q1015=
200811240630 METAR LPPR 240630Z 34011KT 9999 SCT015 BKN035 12/10 Q1015=
200811240600 METAR LPPR 240600Z 33012G24KT 7000 -RADZ SCT015 BKN025 12/11
                        Q1015=
200811240530 METAR LPPR 240530Z 32008KT 9999 SCT015 BKN040 13/11 Q1015=
200811240500 METAR LPPR 240500Z 33008KT 9999 FEW015 BKN040 13/10 Q1016=
200811240430 METAR LPPR 240430Z 33010KT 9999 SCT015 BKN040 13/10 Q1016=
200811240400 METAR LPPR 240400Z 34009KT 9999 SCT020 BKN030 13/11 Q1017=
200811240330 METAR LPPR 240330Z 33010KT 9999 FEW015 BKN045 13/11 Q1017=
200811240300 METAR LPPR 240300Z 32007KT 9999 SCT015 SCT025 BKN040 13/12
                        Q1017=
200811240230 METAR LPPR 240230Z 33008KT 9999 SCT015 BKN040 13/12 Q1018=
200811240200 METAR LPPR 240200Z 32006KT 9999 SCT015 BKN035 13/12 Q1018=
200811240130 METAR LPPR 240130Z 34007KT 9999 SCT015 BKN035 13/12 Q1018=
200811240100 METAR LPPR 240100Z 34008KT 9999 SCT015 BKN035 13/12 Q1018=
200811240030 METAR LPPR 240030Z 34008KT 9999 FEW005 SCT012 BKN030 13/12
                        Q1018=
200811240000 METAR LPPR 240000Z 30005KT 260V330 9999 FEW006 SCT012 BKN030
                        13/13 Q1019=
200811232330 METAR LPPR 232330Z VRB03KT 9999 FEW005 SCT012 BKN030 13/12
                        Q1019=
200811232300 METAR LPPR 232300Z 33003KT 9999 FEW005 SCT012 BKN030 13/12
                        Q1019=
200811232230 METAR LPPR 232230Z 32004KT 290V360 9999 FEW002 SCT012 BKN030
                        13/12 Q1019=
200811232200 METAR LPPR 232200Z 33006KT 9999 FEW004 SCT012 BKN030 13/12
                        Q1019=
200811232130 METAR LPPR 232130Z 33007KT 9999 FEW006 SCT012 BKN030 13/13
                        Q1020=
200811232100 METAR LPPR 232100Z 34008KT 9999 SCT012 BKN030 13/12 Q1020=
200811232030 METAR LPPR 232030Z 34007KT 9999 FEW015 BKN035 13/12 Q1020=
200811232000 METAR LPPR 232000Z 34006KT 9999 FEW020 SCT035 13/11 Q1020=
200811231930 METAR LPPR 231930Z 35006KT 320V020 9999 BKN035 13/11 Q1020=
200811231900 METAR LPPR 231900Z 33007KT 9999 SCT035 13/11 Q1020=
200811231830 METAR LPPR 231830Z 34008KT 9999 SCT040 13/11 Q1020=
200811231800 METAR LPPR 231800Z 34009KT 9999 FEW040 13/11 Q1020=
200811231730 METAR LPPR 231730Z 34012KT 9999 FEW040 13/11 Q1020=
200811231700 METAR LPPR 231700Z 34012KT 9999 FEW045 14/11 Q1020=
200811231630 METAR LPPR 231630Z 33013KT 9999 FEW045 15/11 Q1020=
200811231600 METAR LPPR 231600Z 35014KT 9999 FEW045 16/10 Q1020=
200811231530 METAR LPPR 231530Z 36012KT 9999 FEW040 17/11 Q1019=
200811231500 METAR LPPR 231500Z 34013KT 9999 FEW040 17/12 Q1020=
200811231430 METAR LPPR 231430Z 32007KT 9999 FEW040 18/12 Q1020=
200811231400 METAR LPPR 231400Z 33010KT CAVOK 18/11 Q1020=
200811231330 METAR LPPR 231330Z 36008KT 320V040 CAVOK 18/10 Q1020=
200811231300 METAR LPPR 231300Z 01010KT 330V040 CAVOK 17/10 Q1021=
200811231230 METAR LPPR 231230Z 01009KT CAVOK 17/10 Q1021=
200811231200 METAR LPPR 231200Z 01007KT 330V030 CAVOK 16/10 Q1021=
200811231130 METAR LPPR 231130Z 36006KT 330V050 CAVOK 15/09 Q1022=
200811231100 METAR LPPR 231100Z 36005KT 310V040 CAVOK 15/09 Q1022=
200811231030 METAR LPPR 231030Z VRB03KT CAVOK 14/09 Q1022=
200811231000 METAR LPPR 231000Z VRB03KT CAVOK 13/08 Q1022=
200811230930 METAR LPPR 230930Z 03005KT CAVOK 12/08 Q1022=
200811230900 METAR LPPR 230900Z VRB02KT CAVOK 10/08 Q1022=
200811230830 METAR LPPR 230830Z 00000KT CAVOK 08/06 Q1021=
200811230800 METAR LPPR 230800Z VRB02KT CAVOK 08/06 Q1021=
200811230730 METAR LPPR 230730Z 03004KT 360V060 CAVOK 08/07 Q1021=
200811230700 METAR LPPR 230700Z 03006KT CAVOK 07/07 Q1021=
200811230630 METAR LPPR 230630Z 00000KT CAVOK 06/05 Q1021=
200811230600 METAR LPPR 230600Z 35003KT CAVOK 06/05 Q1021=
200811230530 METAR LPPR 230530Z 36004KT CAVOK 06/05 Q1021=
200811230500 METAR LPPR 230500Z 00000KT CAVOK 08/06 Q1021=
200811230430 METAR LPPR 230430Z VRB03KT CAVOK 07/06 Q1020=
200811230400 METAR LPPR 230400Z 07002KT CAVOK 08/07 Q1020=
200811230330 METAR LPPR 230330Z 35003KT CAVOK 08/06 Q1021=
200811230300 METAR LPPR 230300Z 00000KT CAVOK 10/07 Q1021=
200811230230 METAR LPPR 230230Z 01004KT 340V040 CAVOK 10/07 Q1021=
200811230200 METAR LPPR 230200Z 02006KT CAVOK 10/07 Q1021=
200811230130 METAR LPPR 230130Z 36006KT CAVOK 10/07 Q1021=
200811230100 METAR LPPR 230100Z 01003KT CAVOK 10/07 Q1021=
200811230030 METAR LPPR 230030Z 35007KT CAVOK 10/07 Q1021=
200811230000 METAR LPPR 230000Z 02005KT CAVOK 11/07 Q1021=
200811222330 METAR LPPR 222330Z 02007KT CAVOK 12/07 Q1021=
200811222300 METAR LPPR 222300Z 01006KT CAVOK 12/07 Q1021=
200811222230 METAR LPPR 222230Z 02008KT CAVOK 12/07 Q1021=
200811222200 METAR LPPR 222200Z 02008KT CAVOK 13/07 Q1021=
200811222130 METAR LPPR 222130Z 02010KT CAVOK 13/07 Q1021=
200811222100 METAR LPPR 222100Z 01010KT CAVOK 13/07 Q1021=
200811222030 METAR LPPR 222030Z 01010KT CAVOK 13/07 Q1021=
200811222000 METAR LPPR 222000Z 01011KT CAVOK 14/07 Q1021=
200811221930 METAR LPPR 221930Z 01009KT CAVOK 14/07 Q1021=
200811221900 METAR LPPR 221900Z 36009KT CAVOK 14/08 Q1021=
200811221830 METAR LPPR 221830Z 36009KT 330V030 CAVOK 14/08 Q1021=
200811221800 METAR LPPR 221800Z 35008KT CAVOK 14/08 Q1021=
200811221730 METAR LPPR 221730Z 35010KT CAVOK 15/08 Q1021=
200811221700 METAR LPPR 221700Z 36010KT CAVOK 17/09 Q1021=
200811221630 METAR LPPR 221630Z 01012KT 9999 FEW040 18/08 Q1021=
200811221600 METAR LPPR 221600Z 01013KT 9999 FEW040 18/08 Q1021 WS ALL
                        RWY=
200811221530 METAR LPPR 221530Z 02014KT 340V040 9999 FEW040 19/08 Q1021
                        WS ALL RWY=
200811221500 METAR LPPR 221500Z 01015KT 9999 FEW040 19/09 Q1022=
200811221430 METAR LPPR 221430Z 36013KT 340V070 9999 FEW040 19/10 Q1022=
200811221400 METAR LPPR 221400Z 01016KT 340V040 9999 FEW040 19/09 Q1022=
200811221330 METAR LPPR 221330Z 01015KT 340V040 9999 FEW030 19/10 Q1023=
200811221300 METAR LPPR 221300Z 36017KT 9999 FEW030 19/11 Q1023=
200811221230 METAR LPPR 221230Z 36014KT 340V040 9999 FEW030 18/12 Q1024=
200811221200 METAR LPPR 221200Z 36016KT CAVOK 18/12 Q1024=
200811221130 METAR LPPR 221130Z 36012KT CAVOK 17/12 Q1025=
200811221100 METAR LPPR 221100Z 36010KT CAVOK 17/12 Q1026=
200811221030 METAR LPPR 221030Z 36008KT 340V040 CAVOK 16/12 Q1026=
200811221000 METAR LPPR 221000Z 36009KT CAVOK 15/11 Q1026=
200811220930 METAR LPPR 220930Z 36008KT CAVOK 14/11 Q1026=
200811220900 METAR LPPR 220900Z 35010KT CAVOK 12/11 Q1026=
200811220830 METAR LPPR 220830Z 36008KT CAVOK 12/10 Q1026=
200811220800 METAR LPPR 220800Z 36009KT CAVOK 11/09 Q1025=
200811220730 METAR LPPR 220730Z 01009KT CAVOK 10/10 Q1026=
200811220700 METAR LPPR 220700Z VRB03KT CAVOK 09/08 Q1026=
200811220630 METAR LPPR 220630Z 00000KT CAVOK 09/09 Q1026=
200811220600 METAR LPPR 220600Z 00000KT CAVOK 08/07 Q1026=
200811220530 METAR LPPR 220530Z 04003KT CAVOK 09/08 Q1026=
200811220500 METAR LPPR 220500Z 03003KT CAVOK 10/09 Q1026=
200811220430 METAR LPPR 220430Z 03005KT CAVOK 09/08 Q1026=
200811220400 METAR LPPR 220400Z 00000KT CAVOK 09/07 Q1026=
200811220330 METAR LPPR 220330Z VRB02KT CAVOK 10/09 Q1026=
200811220300 METAR LPPR 220300Z 36004KT 330V060 CAVOK 09/08 Q1026=
200811220230 METAR LPPR 220230Z 00000KT CAVOK 09/08 Q1027=
200811220200 METAR LPPR 220200Z 36003KT CAVOK 09/07 Q1027=
200811220130 METAR LPPR 220130Z 00000KT CAVOK 09/08 Q1027=
200811220100 METAR LPPR 220100Z 00000KT CAVOK 10/08 Q1027=
200811220030 METAR LPPR 220030Z VRB03KT CAVOK 11/09 Q1027=
200811220000 METAR LPPR 220000Z 04005KT 010V080 CAVOK 10/09 Q1027=
200811212330 METAR LPPR 212330Z 00000KT CAVOK 09/08 Q1027=
200811212300 METAR LPPR 212300Z 00000KT CAVOK 09/08 Q1027=
200811212230 METAR LPPR 212230Z 00000KT CAVOK 11/09 Q1027=
200811212200 METAR LPPR 212200Z 05004KT 020V080 CAVOK 12/10 Q1027=
200811212130 METAR LPPR 212130Z 35004KT 330V040 CAVOK 10/08 Q1027=
200811212100 METAR LPPR 212100Z 04004KT 360V080 CAVOK 12/09 Q1027=
200811212030 METAR LPPR 212030Z 00000KT CAVOK 10/10 Q1027=
200811212000 METAR LPPR 212000Z 33004KT 270V020 CAVOK 11/09 Q1027=
200811211930 METAR LPPR 211930Z 00000KT CAVOK 10/10 Q1026=
200811211900 METAR LPPR 211900Z 00000KT CAVOK 11/10 Q1026=
200811211830 METAR LPPR 211830Z 00000KT CAVOK 11/10 Q1026=
200811211800 METAR LPPR 211800Z 00000KT CAVOK 12/10 Q1026=
200811211730 METAR LPPR 211730Z VRB02KT CAVOK 14/11 Q1026=
200811211700 METAR LPPR 211700Z 02006KT CAVOK 15/11 Q1026=
200811211630 METAR LPPR 211630Z 34005KT CAVOK 16/12 Q1026=
200811211600 METAR LPPR 211600Z 33005KT CAVOK 16/11 Q1026=
200811211530 METAR LPPR 211530Z 32004KT 280V340 CAVOK 17/10 Q1026=
200811211500 METAR LPPR 211500Z 33007KT CAVOK 16/10 Q1026=
200811211430 METAR LPPR 211430Z 31009KT CAVOK 16/11 Q1026=
200811211400 METAR LPPR 211400Z 29007KT 260V330 CAVOK 17/10 Q1026=
200811211330 METAR LPPR 211330Z 35006KT 330V030 CAVOK 18/09 Q1027=
200811211300 METAR LPPR 211300Z 01005KT 330V050 CAVOK 17/08 Q1027=
200811211230 METAR LPPR 211230Z VRB03KT CAVOK 17/08 Q1028=
200811211200 METAR LPPR 211200Z 03004KT CAVOK 16/08 Q1028=
200811211130 METAR LPPR 211130Z 05004KT 010V080 CAVOK 15/08 Q1028=
200811211100 METAR LPPR 211100Z 34005KT CAVOK 15/09 Q1029=
200811211030 METAR LPPR 211030Z VRB03KT CAVOK 14/08 Q1028=
200811211000 METAR LPPR 211000Z VRB03KT CAVOK 13/08 Q1028=
200811210930 METAR LPPR 210930Z 02004KT 350V050 CAVOK 12/08 Q1028=
200811210900 METAR LPPR 210900Z VRB03KT CAVOK 10/07 Q1028=
200811210830 METAR LPPR 210830Z VRB03KT CAVOK 10/06 Q1027=
200811210800 METAR LPPR 210800Z 11005KT CAVOK 09/06 Q1027=
200811210730 METAR LPPR 210730Z 10004KT CAVOK 09/06 Q1027=
200811210700 METAR LPPR 210700Z 09004KT 060V120 CAVOK 09/06 Q1027=
200811210630 METAR LPPR 210630Z 09003KT CAVOK 09/06 Q1027=
200811210600 METAR LPPR 210600Z 06004KT CAVOK 09/06 Q1027=
200811210530 METAR LPPR 210530Z 08004KT CAVOK 09/06 Q1027=
200811210500 METAR LPPR 210500Z 00000KT CAVOK 07/06 Q1027=
200811210430 METAR LPPR 210430Z 00000KT CAVOK 08/05 Q1027=
200811210400 METAR LPPR 210400Z 12005KT CAVOK 08/06 Q1027=
200811210330 METAR LPPR 210330Z 00000KT CAVOK 06/05 Q1027=
200811210300 METAR LPPR 210300Z 00000KT CAVOK 06/05 Q1027=
200811210230 METAR LPPR 210230Z 36002KT CAVOK 07/06 Q1027=
200811210200 METAR LPPR 210200Z 00000KT CAVOK 07/06 Q1027=
200811210130 METAR LPPR 210130Z 02002KT CAVOK 07/06 Q1026=
200811210100 METAR LPPR 210100Z 02003KT CAVOK 07/06 Q1027=
200811210030 METAR LPPR 210030Z 02004KT 350V050 CAVOK 09/06 Q1027=
200811210000 METAR LPPR 210000Z VRB02KT CAVOK 08/06 Q1027=
200811202330 METAR LPPR 202330Z 00000KT CAVOK 10/06 Q1027=
200811202300 METAR LPPR 202300Z 03004KT CAVOK 08/06 Q1026=
200811202230 METAR LPPR 202230Z 00000KT CAVOK 09/06 Q1026=
200811202200 METAR LPPR 202200Z 02003KT CAVOK 10/07 Q1026=
200811202130 METAR LPPR 202130Z 02003KT CAVOK 10/07 Q1026=
200811202100 METAR LPPR 202100Z 06003KT CAVOK 11/07 Q1026=
200811202030 METAR LPPR 202030Z VRB03KT CAVOK 10/07 Q1025=
200811202000 METAR LPPR 202000Z 03006KT CAVOK 10/08 Q1025=
200811201930 METAR LPPR 201930Z 35004KT CAVOK 10/08 Q1025=
200811201900 METAR LPPR 201900Z 00000KT CAVOK 11/08 Q1025=
200811201830 METAR LPPR 201830Z 00000KT CAVOK 11/09 Q1025=
200811201800 METAR LPPR 201800Z 02005KT 8000 SKC 12/09 Q1024=
200811201730 METAR LPPR 201730Z 02005KT 8000 SKC 13/10 Q1024=
200811201700 METAR LPPR 201700Z 35006KT CAVOK 14/09 Q1024=
200811201630 METAR LPPR 201630Z 35008KT CAVOK 15/09 Q1024=
200811201600 METAR LPPR 201600Z 34008KT CAVOK 16/10 Q1023=
200811201530 METAR LPPR 201530Z 31007KT CAVOK 17/10 Q1024=
200811201500 METAR LPPR 201500Z 36004KT 330V040 CAVOK 17/09 Q1023=
200811201430 METAR LPPR 201430Z 03005KT 360V060 CAVOK 17/08 Q1024=
200811201400 METAR LPPR 201400Z 00000KT CAVOK 18/09 Q1024=
200811201330 METAR LPPR 201330Z 07005KT 030V120 CAVOK 17/08 Q1024=
200811201300 METAR LPPR 201300Z VRB02KT CAVOK 17/08 Q1025=
200811201230 METAR LPPR 201230Z VRB03KT CAVOK 17/08 Q1025=
200811201200 METAR LPPR 201200Z VRB03KT CAVOK 16/08 Q1025=
200811201130 METAR LPPR 201130Z VRB03KT CAVOK 16/08 Q1026=
200811201100 METAR LPPR 201100Z 02004KT 340V110 CAVOK 15/08 Q1026=
200811201030 METAR LPPR 201030Z 10004KT 050V140 CAVOK 15/07 Q1026=
200811201000 METAR LPPR 201000Z VRB03KT CAVOK 14/08 Q1026=
200811200930 METAR LPPR 200930Z 00000KT CAVOK 12/08 Q1026=
200811200900 METAR LPPR 200900Z 00000KT CAVOK 09/08 Q1026=
200811200830 METAR LPPR 200830Z 00000KT CAVOK 07/06 Q1026=
200811200800 METAR LPPR 200800Z 00000KT CAVOK 05/04 Q1026=
200811200730 METAR LPPR 200730Z 00000KT CAVOK 06/05 Q1025=
200811200700 METAR LPPR 200700Z 00000KT CAVOK 06/05 Q1025=
200811200630 METAR LPPR 200630Z 00000KT CAVOK 07/04 Q1025=
200811200600 METAR LPPR 200600Z 00000KT CAVOK 08/05 Q1025=
200811200530 METAR LPPR 200530Z 09003KT CAVOK 10/06 Q1025=
200811200500 METAR LPPR 200500Z 08005KT CAVOK 11/06 Q1025=
200811200430 METAR LPPR 200430Z 06004KT CAVOK 10/06 Q1025=
200811200400 METAR LPPR 200400Z 07003KT CAVOK 09/06 Q1025=
200811200330 METAR LPPR 200330Z 16004KT CAVOK 08/06 Q1025=
200811200300 METAR LPPR 200300Z 00000KT CAVOK 08/05 Q1025=
200811200230 METAR LPPR 200230Z 00000KT CAVOK 09/06 Q1025=
200811200200 METAR LPPR 200200Z 00000KT CAVOK 11/06 Q1025=
200811200130 METAR LPPR 200130Z 06004KT 020V100 CAVOK 12/07 Q1025=
200811200100 METAR LPPR 200100Z 05007KT 020V080 CAVOK 11/07 Q1025=
200811200030 METAR LPPR 200030Z 06004KT CAVOK 10/07 Q1025=
200811200000 METAR LPPR 200000Z VRB02KT CAVOK 11/07 Q1025=
200811192330 METAR LPPR 192330Z 05005KT CAVOK 11/07 Q1025=
200811192300 METAR LPPR 192300Z 02004KT CAVOK 10/07 Q1025=
200811192230 METAR LPPR 192230Z 02005KT CAVOK 11/07 Q1025=
200811192200 METAR LPPR 192200Z 02005KT CAVOK 11/07 Q1024=
200811192130 METAR LPPR 192130Z 04004KT 020V090 CAVOK 12/08 Q1024=
200811192100 METAR LPPR 192100Z 03004KT CAVOK 09/07 Q1024=
200811192030 METAR LPPR 192030Z VRB03KT CAVOK 10/08 Q1024=
200811192000 METAR LPPR 192000Z VRB02KT CAVOK 13/07 Q1023=
200811191930 METAR LPPR 191930Z 06004KT CAVOK 12/08 Q1023=
200811191900 METAR LPPR 191900Z 00000KT CAVOK 12/09 Q1023=
200811191830 METAR LPPR 191830Z VRB02KT CAVOK 12/10 Q1023=
200811191800 METAR LPPR 191800Z 00000KT CAVOK 13/10 Q1022=
200811191730 METAR LPPR 191730Z 00000KT CAVOK 14/10 Q1022=
200811191700 METAR LPPR 191700Z 36003KT CAVOK 16/11 Q1022=
200811191630 METAR LPPR 191630Z VRB03KT CAVOK 17/11 Q1022=
200811191600 METAR LPPR 191600Z VRB03KT CAVOK 18/11 Q1021=
200811191530 METAR LPPR 191530Z 10004KT 050V130 CAVOK 19/07 Q1022=
200811191500 METAR LPPR 191500Z 03006KT 350V100 CAVOK 19/07 Q1021=
200811191430 METAR LPPR 191430Z 04008KT 360V060 CAVOK 19/07 Q1022=
200811191400 METAR LPPR 191400Z 04007KT 010V070 CAVOK 19/08 Q1022=
200811191330 METAR LPPR 191330Z 04007KT 350V070 CAVOK 18/08 Q1022=
200811191300 METAR LPPR 191300Z 04007KT 010V070 CAVOK 18/08 Q1022=
200811191230 METAR LPPR 191230Z 03007KT 340V080 CAVOK 17/08 Q1023=
200811191200 METAR LPPR 191200Z 02008KT CAVOK 16/08 Q1024=
200811191130 METAR LPPR 191130Z 36006KT 310V020 CAVOK 16/09 Q1024=
200811191100 METAR LPPR 191100Z 03004KT 350V060 CAVOK 15/08 Q1024=
200811191030 METAR LPPR 191030Z 04004KT 010V080 CAVOK 14/08 Q1024=
200811191000 METAR LPPR 191000Z VRB03KT CAVOK 13/08 Q1024=
200811190930 METAR LPPR 190930Z 03004KT CAVOK 12/07 Q1024=
200811190900 METAR LPPR 190900Z 03002KT CAVOK 11/07 Q1023=
200811190830 METAR LPPR 190830Z 36004KT CAVOK 09/06 Q1023=
200811190800 METAR LPPR 190800Z 07002KT CAVOK 08/05 Q1023=
200811190730 METAR LPPR 190730Z 00000KT CAVOK 09/06 Q1022=
200811190700 METAR LPPR 190700Z 00000KT CAVOK 10/06 Q1022=
200811190630 METAR LPPR 190630Z 05004KT 360V100 CAVOK 11/06 Q1022=
200811190600 METAR LPPR 190600Z 04009KT CAVOK 11/06 Q1021=
200811190530 METAR LPPR 190530Z 03007KT CAVOK 10/06 Q1021=
200811190500 METAR LPPR 190500Z 04009KT CAVOK 10/06 Q1021=
200811190430 METAR LPPR 190430Z 00000KT CAVOK 09/06 Q1021=
200811190400 METAR LPPR 190400Z 03007KT CAVOK 10/07 Q1021=
200811190330 METAR LPPR 190330Z 00000KT CAVOK 06/05 Q1021=
200811190300 METAR LPPR 190300Z 36004KT CAVOK 06/06 Q1021=
200811190230 METAR LPPR 190230Z 00000KT CAVOK 07/06 Q1021=
200811190200 METAR LPPR 190200Z 00000KT CAVOK 07/06 Q1021=
200811190130 METAR LPPR 190130Z 00000KT CAVOK 07/06 Q1020=
200811190100 METAR LPPR 190100Z 00000KT CAVOK 07/06 Q1021=
200811190030 METAR LPPR 190030Z 36004KT CAVOK 07/07 Q1021=
200811190000 METAR LPPR 190000Z 02004KT CAVOK 07/06 Q1021=
200811182330 METAR LPPR 182330Z 36005KT CAVOK 07/06 Q1021=
200811182300 METAR LPPR 182300Z 00000KT CAVOK 08/07 Q1021=
200811182230 METAR LPPR 182230Z 35003KT CAVOK 08/07 Q1021=
200811182200 METAR LPPR 182200Z 00000KT CAVOK 09/08 Q1021=
200811182130 METAR LPPR 182130Z VRB02KT CAVOK 10/08 Q1021=
200811182100 METAR LPPR 182100Z 35006KT CAVOK 10/08 Q1021=
200811182030 METAR LPPR 182030Z 35004KT CAVOK 11/08 Q1021=
200811182000 METAR LPPR 182000Z 36007KT CAVOK 10/09 Q1021=
200811181930 METAR LPPR 181930Z 35006KT 9999 FEW017 SCT070 11/09 Q1020=
200811181900 METAR LPPR 181900Z 01005KT 330V030 9999 FEW017 SCT070 12/10
                        Q1020=
200811181830 METAR LPPR 181830Z 01004KT 330V050 9999 FEW017 SCT070 13/10
                        Q1020=
200811181800 METAR LPPR 181800Z 35005KT 9999 FEW017 SCT070 12/10 Q1020=
200811181730 METAR LPPR 181730Z 35007KT 9999 FEW017 13/10 Q1020=
200811181700 METAR LPPR 181700Z 36011KT 9999 FEW017 14/10 Q1020=
200811181630 METAR LPPR 181630Z 35012KT 9999 FEW017 SCT040 15/10 Q1020=
200811181600 METAR LPPR 181600Z 33009KT CAVOK 15/11 Q1020=
200811181530 METAR LPPR 181530Z 33013KT 9999 FEW017 15/11 Q1020=
200811181500 METAR LPPR 181500Z 33011KT 9999 FEW017 16/12 Q1020=
200811181430 METAR LPPR 181430Z 33010KT 9999 FEW017 16/12 Q1020=
200811181400 METAR LPPR 181400Z 33011KT 9999 FEW020 SCT090 15/11 Q1021=
200811181330 METAR LPPR 181330Z 32010KT 9999 FEW025 BKN090 15/11 Q1021=
200811181300 METAR LPPR 181300Z 33012KT CAVOK 14/10 Q1022=
200811181230 METAR LPPR 181230Z 33011KT CAVOK 15/10 Q1022=
200811181200 METAR LPPR 181200Z 34010KT CAVOK 15/10 Q1023=
200811181130 METAR LPPR 181130Z 36007KT 330V030 CAVOK 14/10 Q1023=
200811181100 METAR LPPR 181100Z VRB03KT CAVOK 12/09 Q1024=
200811181030 METAR LPPR 181030Z 35010KT CAVOK 11/09 Q1024=
200811181000 METAR LPPR 181000Z 01007KT CAVOK 10/08 Q1024=
200811180930 METAR LPPR 180930Z 01003KT 8000 FEW100 BKN200 09/08 Q1024=
200811180900 METAR LPPR 180900Z VRB02KT 6000 BKN250 08/08 Q1024=
200811180830 METAR LPPR 180830Z 00000KT 5000 BR BKN250 05/05 Q1024=
200811180800 METAR LPPR 180800Z 00000KT 5000 BR SCT250 04/04 Q1024=
200811180730 METAR LPPR 180730Z 00000KT 5000 BR FEW250 04/04 Q1023=
200811180700 METAR LPPR 180700Z 00000KT 6000 SKC 04/04 Q1023=
200811180630 METAR LPPR 180630Z 00000KT 8000 SKC 05/04 Q1023=
200811180600 METAR LPPR 180600Z 00000KT 8000 SKC 07/06 Q1024=
200811180530 METAR LPPR 180530Z 11004KT 070V140 8000 SKC 06/06 Q1023=
200811180500 METAR LPPR 180500Z 00000KT 7000 SKC 06/06 Q1024=
200811180430 METAR LPPR 180430Z 00000KT 8000 SKC 06/06 Q1024=
200811180400 METAR LPPR 180400Z 00000KT 5000 BR SKC 06/05 Q1024=
200811180330 METAR LPPR 180330Z 00000KT 5000 BR SKC 05/05 Q1024=
200811180300 METAR LPPR 180300Z 00000KT 7000 SKC 06/05 Q1024=
200811180230 METAR LPPR 180230Z 00000KT 7000 SKC 07/07 Q1024=
200811180200 METAR LPPR 180200Z 00000KT 8000 SKC 07/07 Q1025=
200811180130 METAR LPPR 180130Z 00000KT 8000 SKC 07/06 Q1025=
200811180100 METAR LPPR 180100Z 00000KT 8000 SKC 08/07 Q1025=
200811180030 METAR LPPR 180030Z 00000KT 8000 SKC 07/07 Q1025=
200811180000 METAR LPPR 180000Z 00000KT 8000 SKC 08/07 Q1026=
200811172330 METAR LPPR 172330Z 00000KT 8000 SKC 08/08 Q1026=
200811172300 METAR LPPR 172300Z 00000KT 7000 SKC 07/07 Q1026=
200811172230 METAR LPPR 172230Z VRB03KT 7000 SKC 08/08 Q1027=
200811172200 METAR LPPR 172200Z 00000KT 7000 SKC 08/08 Q1027=
200811172130 METAR LPPR 172130Z 00000KT 7000 SKC 09/08 Q1027=
200811172100 METAR LPPR 172100Z 00000KT 7000 SKC 10/09 Q1027=
200811172030 METAR LPPR 172030Z 00000KT 8000 SKC 10/09 Q1027=
200811172000 METAR LPPR 172000Z 00000KT 7000 SKC 09/09 Q1027=
200811171930 METAR LPPR 171930Z 00000KT 8000 SKC 10/09 Q1027=
200811171900 METAR LPPR 171900Z 00000KT 8000 SKC 11/10 Q1027=
200811171830 METAR LPPR 171830Z 00000KT 8000 SKC 11/10 Q1027=
200811171800 METAR LPPR 171800Z 01002KT CAVOK 12/11 Q1027=
200811171730 METAR LPPR 171730Z 30004KT 280V350 CAVOK 13/11 Q1027=
200811171700 METAR LPPR 171700Z VRB03KT CAVOK 16/12 Q1027=
200811171630 METAR LPPR 171630Z 00000KT CAVOK 17/11 Q1027=
200811171600 METAR LPPR 171600Z 28003KT CAVOK 18/10 Q1027=
200811171530 METAR LPPR 171530Z 32004KT 290V350 CAVOK 19/07 Q1027=
200811171500 METAR LPPR 171500Z 32006KT CAVOK 19/07 Q1027=
200811171430 METAR LPPR 171430Z 29005KT 260V330 CAVOK 21/11 Q1027=
200811171400 METAR LPPR 171400Z 35004KT 320V090 CAVOK 21/07 Q1028=
200811171330 METAR LPPR 171330Z 00000KT CAVOK 21/08 Q1028=
200811171300 METAR LPPR 171300Z VRB03KT CAVOK 20/09 Q1028=
200811171230 METAR LPPR 171230Z VRB03KT CAVOK 19/09 Q1029=
200811171200 METAR LPPR 171200Z VRB03KT CAVOK 19/09 Q1029=
200811171130 METAR LPPR 171130Z VRB03KT CAVOK 19/09 Q1030=
200811171100 METAR LPPR 171100Z 08004KT 010V130 CAVOK 18/08 Q1030=
200811171030 METAR LPPR 171030Z 10005KT 040V140 CAVOK 17/08 Q1030=
200811171000 METAR LPPR 171000Z 09004KT 050V130 CAVOK 16/08 Q1030=
200811170930 METAR LPPR 170930Z 00000KT CAVOK 14/08 Q1030=
200811170900 METAR LPPR 170900Z 12006KT CAVOK 13/07 Q1030=
200811170830 METAR LPPR 170830Z 10004KT CAVOK 11/06 Q1030=
200811170800 METAR LPPR 170800Z 00000KT CAVOK 08/06 Q1029=
200811170730 METAR LPPR 170730Z 11002KT CAVOK 07/05 Q1029=
200811170700 METAR LPPR 170700Z 00000KT CAVOK 08/05 Q1029=
200811170630 METAR LPPR 170630Z 11002KT CAVOK 09/06 Q1029=
200811170600 METAR LPPR 170600Z 13004KT 100V180 CAVOK 08/06 Q1029=
200811170530 METAR LPPR 170530Z 00000KT CAVOK 07/06 Q1029=
200811170500 METAR LPPR 170500Z 00000KT CAVOK 08/07 Q1028=
200811170430 METAR LPPR 170430Z 00000KT CAVOK 07/06 Q1028=
200811170400 METAR LPPR 170400Z 00000KT CAVOK 07/06 Q1028=
200811170330 METAR LPPR 170330Z 02003KT CAVOK 08/07 Q1028=
200811170300 METAR LPPR 170300Z 00000KT CAVOK 08/08 Q1028=
200811170230 METAR LPPR 170230Z 00000KT CAVOK 08/08 Q1028=
200811170200 METAR LPPR 170200Z 10005KT 050V140 CAVOK 09/09 Q1028=
200811170130 METAR LPPR 170130Z 00000KT 7000 SKC 09/09 Q1029=
200811170100 METAR LPPR 170100Z 00000KT 7000 SKC 09/09 Q1029=
200811170030 METAR LPPR 170030Z 00000KT 7000 SKC 09/09 Q1029=
200811170000 METAR LPPR 170000Z 00000KT 7000 SKC 09/09 Q1029=
200811162330 METAR LPPR 162330Z 00000KT 7000 SKC 09/09 Q1029=
200811162300 METAR LPPR 162300Z 00000KT 7000 SKC 09/09 Q1029=
200811162230 METAR LPPR 162230Z 00000KT 8000 SKC 09/09 Q1029=
200811162200 METAR LPPR 162200Z 00000KT 8000 SKC 10/10 Q1029=
200811162130 METAR LPPR 162130Z 00000KT 7000 SKC 10/10 Q1029=
200811162100 METAR LPPR 162100Z 00000KT 8000 SKC 10/10 Q1029=
200811162030 METAR LPPR 162030Z 00000KT CAVOK 10/09 Q1028=
200811162000 METAR LPPR 162000Z 00000KT CAVOK 10/09 Q1028=
200811161930 METAR LPPR 161930Z 00000KT CAVOK 11/10 Q1028=
200811161900 METAR LPPR 161900Z 00000KT CAVOK 11/10 Q1028=
200811161830 METAR LPPR 161830Z 00000KT CAVOK 12/10 Q1028=
200811161800 METAR LPPR 161800Z 00000KT CAVOK 13/10 Q1027=
200811161730 METAR LPPR 161730Z 00000KT CAVOK 14/11 Q1027=
200811161700 METAR LPPR 161700Z 33004KT 290V350 CAVOK 16/11 Q1027=
200811161630 METAR LPPR 161630Z 35005KT CAVOK 17/12 Q1027=
200811161600 METAR LPPR 161600Z 32005KT 270V330 CAVOK 18/12 Q1027=
200811161530 METAR LPPR 161530Z 28006KT CAVOK 18/13 Q1026=
200811161500 METAR LPPR 161500Z 00000KT CAVOK 20/11 Q1026=
200811161430 METAR LPPR 161430Z VRB02KT CAVOK 20/11 Q1026=
200811161400 METAR LPPR 161400Z VRB03KT CAVOK 20/11 Q1027=
200811161330 METAR LPPR 161330Z VRB04KT CAVOK 19/10 Q1027=
200811161300 METAR LPPR 161300Z 10005KT 060V150 CAVOK 19/10 Q1027=
200811161230 METAR LPPR 161230Z 10006KT 060V130 CAVOK 18/10 Q1027=
200811161200 METAR LPPR 161200Z 10007KT 050V140 CAVOK 17/10 Q1028=
200811161130 METAR LPPR 161130Z 11009KT CAVOK 17/09 Q1028=
200811161100 METAR LPPR 161100Z 11007KT CAVOK 17/10 Q1028=
200811161030 METAR LPPR 161030Z 11009KT CAVOK 15/10 Q1028=
200811161000 METAR LPPR 161000Z 11008KT 080V150 CAVOK 14/09 Q1028=
200811160930 METAR LPPR 160930Z 11008KT CAVOK 13/09 Q1028=
200811160900 METAR LPPR 160900Z 11010KT CAVOK 12/08 Q1028=
200811160830 METAR LPPR 160830Z 12007KT CAVOK 12/08 Q1028=
200811160800 METAR LPPR 160800Z 12008KT CAVOK 11/08 Q1027=
200811160730 METAR LPPR 160730Z 12005KT CAVOK 10/08 Q1027=
200811160700 METAR LPPR 160700Z 13007KT CAVOK 11/08 Q1027=
200811160630 METAR LPPR 160630Z 11008KT CAVOK 11/08 Q1027=
200811160600 METAR LPPR 160600Z 12007KT CAVOK 11/08 Q1026=
200811160530 METAR LPPR 160530Z 12006KT CAVOK 09/08 Q1026=
200811160500 METAR LPPR 160500Z VRB03KT CAVOK 09/08 Q1026=
200811160430 METAR LPPR 160430Z 12004KT CAVOK 09/08 Q1026=
200811160400 METAR LPPR 160400Z VRB02KT CAVOK 10/08 Q1026=
200811160330 METAR LPPR 160330Z 10002KT CAVOK 09/08 Q1026=
200811160300 METAR LPPR 160300Z 09003KT CAVOK 10/09 Q1026=
200811160230 METAR LPPR 160230Z 10005KT CAVOK 10/09 Q1026=
200811160200 METAR LPPR 160200Z VRB03KT CAVOK 09/08 Q1026=
200811160130 METAR LPPR 160130Z 00000KT CAVOK 08/08 Q1026=
200811160100 METAR LPPR 160100Z 00000KT CAVOK 08/08 Q1026=
200811160030 METAR LPPR 160030Z 00000KT CAVOK 09/08 Q1026=
200811160000 METAR LPPR 160000Z 00000KT CAVOK 09/09 Q1026=
200811152330 METAR LPPR 152330Z 00000KT CAVOK 09/09 Q1026=
200811152300 METAR LPPR 152300Z 00000KT CAVOK 09/09 Q1026=
200811152230 METAR LPPR 152230Z 00000KT CAVOK 09/08 Q1026=
200811152200 METAR LPPR 152200Z 00000KT CAVOK 09/09 Q1026=
200811152130 METAR LPPR 152130Z 00000KT 8000 SKC 10/10 Q1026=
200811152100 METAR LPPR 152100Z 00000KT CAVOK 10/09 Q1026=
200811152030 METAR LPPR 152030Z 00000KT CAVOK 10/09 Q1026=
200811152000 METAR LPPR 152000Z 00000KT CAVOK 09/09 Q1026=
200811151930 METAR LPPR 151930Z 00000KT CAVOK 10/09 Q1026=
200811151900 METAR LPPR 151900Z 00000KT CAVOK 10/09 Q1026=
200811151830 METAR LPPR 151830Z 00000KT CAVOK 11/10 Q1026=
200811151800 METAR LPPR 151800Z 00000KT CAVOK 12/10 Q1026=
200811151730 METAR LPPR 151730Z 31003KT CAVOK 13/10 Q1026=
200811151700 METAR LPPR 151700Z 33004KT CAVOK 15/10 Q1026=
200811151630 METAR LPPR 151630Z VRB02KT CAVOK 16/11 Q1025=
200811151600 METAR LPPR 151600Z 30007KT 260V330 CAVOK 16/11 Q1025=
200811151530 METAR LPPR 151530Z 28006KT CAVOK 16/12 Q1025=
200811151500 METAR LPPR 151500Z 29005KT CAVOK 17/12 Q1025=
200811151430 METAR LPPR 151430Z 28005KT 230V340 CAVOK 18/12 Q1025=
200811151400 METAR LPPR 151400Z 28007KT CAVOK 17/12 Q1025=
200811151330 METAR LPPR 151330Z VRB03KT CAVOK 20/09 Q1026=
200811151300 METAR LPPR 151300Z 09006KT 040V150 CAVOK 19/09 Q1026=
200811151230 METAR LPPR 151230Z 09006KT 050V130 CAVOK 18/10 Q1026=
200811151200 METAR LPPR 151200Z 10007KT 060V130 CAVOK 18/10 Q1027=
200811151130 METAR LPPR 151130Z 08007KT 050V130 CAVOK 17/10 Q1027=
200811151100 METAR LPPR 151100Z 08006KT 030V130 CAVOK 16/09 Q1027=
200811151030 METAR LPPR 151030Z 07006KT 020V110 CAVOK 15/09 Q1027=
200811151000 METAR LPPR 151000Z 09006KT 060V120 CAVOK 15/08 Q1027=
200811150930 METAR LPPR 150930Z 00000KT CAVOK 15/09 Q1027=
200811150900 METAR LPPR 150900Z 00000KT CAVOK 13/08 Q1027=
200811150830 METAR LPPR 150830Z 00000KT CAVOK 11/07 Q1027=
200811150800 METAR LPPR 150800Z 08002KT CAVOK 10/07 Q1027=
200811150730 METAR LPPR 150730Z 12006KT 090V150 CAVOK 10/07 Q1026=
200811150700 METAR LPPR 150700Z 14004KT CAVOK 09/06 Q1026=
200811150630 METAR LPPR 150630Z 10005KT CAVOK 10/07 Q1026=
200811150600 METAR LPPR 150600Z 12003KT CAVOK 09/06 Q1026=
200811150530 METAR LPPR 150530Z VRB02KT CAVOK 09/06 Q1026=
200811150500 METAR LPPR 150500Z 08003KT CAVOK 10/07 Q1026=
200811150430 METAR LPPR 150430Z 08004KT CAVOK 10/06 Q1026=
200811150400 METAR LPPR 150400Z 06004KT CAVOK 09/07 Q1026=
200811150330 METAR LPPR 150330Z 06003KT CAVOK 07/06 Q1026=
200811150300 METAR LPPR 150300Z 06004KT CAVOK 07/07 Q1026=
200811150230 METAR LPPR 150230Z 00000KT CAVOK 06/06 Q1026=
200811150200 METAR LPPR 150200Z 00000KT CAVOK 07/06 Q1027=
200811150130 METAR LPPR 150130Z 00000KT CAVOK 07/06 Q1026=
200811150100 METAR LPPR 150100Z 00000KT CAVOK 08/06 Q1027=
200811150030 METAR LPPR 150030Z 00000KT CAVOK 09/07 Q1027=
200811150000 METAR LPPR 150000Z 00000KT CAVOK 08/07 Q1027=
200811142330 METAR LPPR 142330Z 00000KT CAVOK 09/07 Q1027=
200811142300 METAR LPPR 142300Z 34002KT CAVOK 09/07 Q1027=
200811142230 METAR LPPR 142230Z 00000KT CAVOK 10/08 Q1026=
200811142200 METAR LPPR 142200Z VRB02KT CAVOK 10/08 Q1026=
200811142130 METAR LPPR 142130Z 00000KT CAVOK 08/08 Q1026=
200811142100 METAR LPPR 142100Z 00000KT CAVOK 08/08 Q1026=
200811142030 METAR LPPR 142030Z 00000KT CAVOK 09/08 Q1026=
200811142000 METAR LPPR 142000Z 00000KT CAVOK 09/09 Q1026=
200811141930 METAR LPPR 141930Z 00000KT CAVOK 10/09 Q1026=
200811141900 METAR LPPR 141900Z 00000KT CAVOK 11/09 Q1026=
200811141830 METAR LPPR 141830Z 00000KT CAVOK 11/09 Q1026=
200811141800 METAR LPPR 141800Z 00000KT CAVOK 12/10 Q1026=
200811141730 METAR LPPR 141730Z 36002KT CAVOK 13/10 Q1026=
200811141700 METAR LPPR 141700Z 00000KT CAVOK 15/11 Q1026=
200811141630 METAR LPPR 141630Z VRB03KT CAVOK 16/11 Q1026=
200811141600 METAR LPPR 141600Z VRB02KT CAVOK 17/11 Q1026=
200811141530 METAR LPPR 141530Z VRB03KT CAVOK 17/10 Q1026=
200811141500 METAR LPPR 141500Z 27006KT 240V300 CAVOK 17/11 Q1026=
200811141430 METAR LPPR 141430Z 07004KT 350V120 CAVOK 18/08 Q1027=
200811141400 METAR LPPR 141400Z 06004KT 360V120 CAVOK 18/08 Q1027=
200811141330 METAR LPPR 141330Z 10004KT 050V130 CAVOK 18/07 Q1027=
200811141300 METAR LPPR 141300Z 08005KT 030V130 CAVOK 17/06 Q1027=
200811141230 METAR LPPR 141230Z 08005KT 030V130 CAVOK 17/07 Q1028=
200811141200 METAR LPPR 141200Z 09006KT 050V130 CAVOK 16/06 Q1028=
200811141130 METAR LPPR 141130Z 10005KT 050V160 CAVOK 16/06 Q1028=
200811141100 METAR LPPR 141100Z 09005KT 020V130 CAVOK 15/06 Q1029=
200811141030 METAR LPPR 141030Z 09006KT 050V130 CAVOK 14/06 Q1028=
200811141000 METAR LPPR 141000Z 10006KT 060V130 CAVOK 13/06 Q1028=
200811140930 METAR LPPR 140930Z 10004KT 050V150 CAVOK 12/06 Q1028=
200811140900 METAR LPPR 140900Z 10005KT 050V140 CAVOK 12/05 Q1028=
200811140830 METAR LPPR 140830Z VRB03KT CAVOK 10/05 Q1028=
200811140800 METAR LPPR 140800Z VRB02KT CAVOK 08/05 Q1028=
200811140730 METAR LPPR 140730Z 11004KT CAVOK 08/05 Q1027=
200811140700 METAR LPPR 140700Z 09004KT 040V130 CAVOK 09/05 Q1027=
200811140630 METAR LPPR 140630Z 11008KT CAVOK 09/05 Q1027=
200811140600 METAR LPPR 140600Z 11007KT 070V130 CAVOK 09/05 Q1027=
200811140530 METAR LPPR 140530Z 10005KT 050V120 CAVOK 08/05 Q1027=
200811140500 METAR LPPR 140500Z 10005KT CAVOK 08/05 Q1027=
200811140430 METAR LPPR 140430Z 09004KT 060V120 CAVOK 08/06 Q1027=
200811140400 METAR LPPR 140400Z VRB02KT CAVOK 08/06 Q1027=
200811140330 METAR LPPR 140330Z VRB03KT CAVOK 08/06 Q1028=
200811140300 METAR LPPR 140300Z 10005KT 070V130 CAVOK 09/06 Q1028=
200811140230 METAR LPPR 140230Z 09004KT 050V110 CAVOK 09/06 Q1028=
200811140200 METAR LPPR 140200Z 10004KT 070V130 CAVOK 08/06 Q1028=
200811140130 METAR LPPR 140130Z VRB03KT CAVOK 08/06 Q1028=
200811140100 METAR LPPR 140100Z VRB02KT CAVOK 08/06 Q1028=
200811140030 METAR LPPR 140030Z 00000KT CAVOK 08/07 Q1028=
200811140000 METAR LPPR 140000Z 11002KT CAVOK 08/07 Q1028=
200811132330 METAR LPPR 132330Z 11004KT CAVOK 09/07 Q1028=
200811132300 METAR LPPR 132300Z VRB03KT CAVOK 09/07 Q1028=
200811132230 METAR LPPR 132230Z 09004KT CAVOK 09/07 Q1029=
200811132200 METAR LPPR 132200Z 00000KT CAVOK 08/07 Q1029=
200811132130 METAR LPPR 132130Z 00000KT CAVOK 08/07 Q1029=
200811132100 METAR LPPR 132100Z 00000KT CAVOK 08/07 Q1029=
200811132030 METAR LPPR 132030Z 00000KT CAVOK 08/07 Q1028=
200811132000 METAR LPPR 132000Z 00000KT CAVOK 09/07 Q1028=
200811131930 METAR LPPR 131930Z 00000KT 8000 FEW250 09/08 Q1028=
200811131900 METAR LPPR 131900Z 00000KT 8000 FEW250 10/08 Q1028=
200811131830 METAR LPPR 131830Z 00000KT 8000 FEW250 10/08 Q1028=
200811131800 METAR LPPR 131800Z 01003KT CAVOK 10/08 Q1028=
200811131730 METAR LPPR 131730Z 34003KT CAVOK 11/08 Q1028=
200811131700 METAR LPPR 131700Z 35006KT CAVOK 13/09 Q1028=
200811131630 METAR LPPR 131630Z 33005KT CAVOK 14/09 Q1028=
200811131600 METAR LPPR 131600Z 32007KT CAVOK 14/09 Q1028=
200811131530 METAR LPPR 131530Z 33008KT CAVOK 15/10 Q1027=
200811131500 METAR LPPR 131500Z 32006KT CAVOK 15/10 Q1027=
200811131430 METAR LPPR 131430Z 30005KT CAVOK 16/10 Q1027=
200811131400 METAR LPPR 131400Z 14004KT 100V190 CAVOK 17/06 Q1028=
200811131330 METAR LPPR 131330Z 11005KT 070V160 CAVOK 16/06 Q1028=
200811131300 METAR LPPR 131300Z VRB03KT CAVOK 16/06 Q1029=
200811131230 METAR LPPR 131230Z VRB03KT CAVOK 16/08 Q1029=
200811131200 METAR LPPR 131200Z VRB02KT CAVOK 15/07 Q1029=
200811131130 METAR LPPR 131130Z 03005KT CAVOK 14/08 Q1030=
200811131100 METAR LPPR 131100Z VRB03KT CAVOK 13/08 Q1030=
200811131030 METAR LPPR 131030Z 00000KT CAVOK 13/08 Q1030=
200811131000 METAR LPPR 131000Z VRB03KT CAVOK 11/08 Q1029=
200811130900 METAR LPPR 130900Z 10004KT 070V130 CAVOK 09/07 Q1029=
200811130830 METAR LPPR 130830Z 10005KT CAVOK 08/07 Q1029=
200811130800 METAR LPPR 130800Z 08004KT 050V130 8000 SKC 07/07 Q1029=
200811130730 METAR LPPR 130730Z 11005KT 5000 BR FEW001 06/06 Q1028=
200811130700 METAR LPPR 130700Z 11003KT 5000 BR SCT001 07/06 Q1028=
200811130630 METAR LPPR 130630Z 00000KT 5000 BR SKC 07/07 Q1028=
200811130600 METAR LPPR 130600Z 06004KT CAVOK 08/07 Q1028=
200811130530 METAR LPPR 130530Z 07004KT 8000 SKC 08/08 Q1028=
200811130500 METAR LPPR 130500Z 10006KT 2500 VCFG BR BKN001 08/07 Q1028=
200811130430 METAR LPPR 130430Z 00000KT CAVOK 08/08 Q1027=
200811130400 METAR LPPR 130400Z 07004KT CAVOK 09/09 Q1027=
200811130330 METAR LPPR 130330Z 05004KT 020V080 CAVOK 09/09 Q1028=
200811130300 METAR LPPR 130300Z 06004KT CAVOK 10/09 Q1028=
200811130230 METAR LPPR 130230Z VRB03KT 5000 BR FEW040 BKN070 10/10 Q1028=
200811130200 METAR LPPR 130200Z VRB02KT 5000 BR FEW040 BKN060 10/10 Q1028=
200811130130 METAR LPPR 130130Z 00000KT 5000 BR FEW040 BKN060 09/09 Q1028=
200811130100 METAR LPPR 130100Z 00000KT 5000 BR SCT250 08/08 Q1028=
200811130030 METAR LPPR 130030Z 34002KT 5000 BR SCT250 09/09 Q1028=
200811130000 METAR LPPR 130000Z 35003KT CAVOK 09/09 Q1028=
200811122330 METAR LPPR 122330Z 34002KT 8000 FEW017 SCT060 10/09 Q1028=
200811122300 METAR LPPR 122300Z 00000KT 8000 FEW017 SCT040 BKN060 11/10
                        Q1028=
200811122230 METAR LPPR 122230Z 00000KT 8000 FEW017 BKN060 10/10 Q1028=
200811122200 METAR LPPR 122200Z 00000KT 8000 FEW017 BKN060 10/10 Q1028=
200811122130 METAR LPPR 122130Z 00000KT 9999 FEW017 BKN050 10/10 Q1028=
200811122100 METAR LPPR 122100Z 36003KT 9999 FEW017 BKN060 11/10 Q1028=
200811122030 METAR LPPR 122030Z 36003KT 9999 FEW017 BKN060 11/11 Q1027=
200811122000 METAR LPPR 122000Z VRB03KT 9999 FEW015 SCT060 11/11 Q1027=
200811121930 METAR LPPR 121930Z 33005KT 270V010 9999 FEW015 12/11 Q1027=
200811121900 METAR LPPR 121900Z 33006KT 9999 FEW015 SCT060 12/10 Q1027=
200811121830 METAR LPPR 121830Z 33005KT 9999 FEW015 SCT060 12/11 Q1027=
200811121800 METAR LPPR 121800Z 34004KT 310V010 9999 FEW015 SCT060 12/11
                        Q1027=
200811121730 METAR LPPR 121730Z 33006KT 300V360 9999 FEW015 SCT035 12/11
                        Q1027=
200811121700 METAR LPPR 121700Z VRB03KT 9999 FEW015 BKN035 13/12 Q1027=
200811121630 METAR LPPR 121630Z 32007KT 9999 SCT015 BKN035 12/11 Q1026=
200811121600 METAR LPPR 121600Z 33010KT 9999 SCT006 SCT015 BKN030 14/11
                        Q1026=
200811121530 METAR LPPR 121530Z 33008KT 290V360 9999 FEW015 BKN035 15/10
                        Q1026=
200811121500 METAR LPPR 121500Z 32009KT 280V360 9999 FEW015 BKN030 14/11
                        Q1026=
200811121430 METAR LPPR 121430Z 32008KT 280V350 9999 FEW015 BKN030 15/11
                        Q1026=
200811121400 METAR LPPR 121400Z 33007KT 9999 FEW017 SCT025 15/11 Q1026=
200811121330 METAR LPPR 121330Z 28005KT 240V310 9999 FEW017 BKN025 13/10
                        Q1027=
200811121300 METAR LPPR 121300Z 31007KT 260V350 9999 SCT017 BKN025 14/10
                        Q1027=
200811121230 METAR LPPR 121230Z VRB03KT 9999 FEW017 BKN040 14/10 Q1027=
200811121200 METAR LPPR 121200Z 29004KT 260V320 9999 FEW017 SCT030 14/10
                        Q1027=
200811121130 METAR LPPR 121130Z 00000KT 9999 FEW017 SCT030 14/10 Q1028=
200811121100 METAR LPPR 121100Z 00000KT 9999 SCT030 14/09 Q1028=
200811121030 METAR LPPR 121030Z 00000KT 9999 FEW020 13/08 Q1027=
200811121000 METAR LPPR 121000Z VRB02KT 9999 FEW013 12/08 Q1028=
200811120930 METAR LPPR 120930Z VRB03KT 9999 FEW040 10/08 Q1027=
200811120900 METAR LPPR 120900Z VRB02KT 9999 FEW040 09/07 Q1027=
200811120830 METAR LPPR 120830Z 10004KT 070V140 9999 FEW025 SCT040 08/07
                        Q1027=
200811120800 METAR LPPR 120800Z 00000KT 9999 FEW025 SCT050 06/06 Q1027=
200811120730 METAR LPPR 120730Z 11004KT CAVOK 06/06 Q1026=
200811120700 METAR LPPR 120700Z 12003KT CAVOK 06/06 Q1026=
200811120630 METAR LPPR 120630Z 00000KT CAVOK 06/05 Q1026=
200811120600 METAR LPPR 120600Z 00000KT CAVOK 06/05 Q1026=
200811120530 METAR LPPR 120530Z 00000KT CAVOK 06/05 Q1026=
200811120500 METAR LPPR 120500Z 09002KT CAVOK 06/06 Q1026=
200811120430 METAR LPPR 120430Z 00000KT CAVOK 05/05 Q1026=
200811120400 METAR LPPR 120400Z 00000KT CAVOK 05/05 Q1026=
200811120330 METAR LPPR 120330Z 00000KT CAVOK 05/05 Q1026=
200811120300 METAR LPPR 120300Z 00000KT CAVOK 06/05 Q1026=
200811120230 METAR LPPR 120230Z 34002KT CAVOK 06/05 Q1026=
200811120200 METAR LPPR 120200Z 00000KT CAVOK 06/05 Q1026=
200811120130 METAR LPPR 120130Z 00000KT CAVOK 07/06 Q1026=
200811120100 METAR LPPR 120100Z 01002KT CAVOK 07/06 Q1026=
200811120030 METAR LPPR 120030Z 02003KT CAVOK 08/06 Q1026=
200811120000 METAR LPPR 120000Z 02004KT CAVOK 08/06 Q1026=
200811112330 METAR LPPR 112330Z VRB03KT CAVOK 08/07 Q1025=
200811112300 METAR LPPR 112300Z 01002KT CAVOK 09/07 Q1025=
200811112230 METAR LPPR 112230Z 36007KT CAVOK 10/07 Q1025=
200811112200 METAR LPPR 112200Z 01006KT CAVOK 10/07 Q1025=
200811112130 METAR LPPR 112130Z 35006KT CAVOK 09/07 Q1025=
200811112100 METAR LPPR 112100Z 36005KT CAVOK 10/07 Q1025=
200811112030 METAR LPPR 112030Z 35006KT CAVOK 10/08 Q1024=
200811112000 METAR LPPR 112000Z 01006KT CAVOK 11/08 Q1024=
200811111930 METAR LPPR 111930Z 36007KT CAVOK 11/08 Q1024=
200811111900 METAR LPPR 111900Z 36006KT CAVOK 11/08 Q1024=
200811111830 METAR LPPR 111830Z 34013KT CAVOK 12/09 Q1023=
200811111800 METAR LPPR 111800Z 34015KT CAVOK 12/09 Q1023=
200811111730 METAR LPPR 111730Z 34014KT CAVOK 12/09 Q1023=
200811111700 METAR LPPR 111700Z 33013KT 9999 FEW030 13/09 Q1022=
200811111630 METAR LPPR 111630Z 33015KT 9999 FEW030 14/09 Q1022=
200811111600 METAR LPPR 111600Z 34016KT 9999 SCT030 14/09 Q1022=
200811111530 METAR LPPR 111530Z 33014KT 9999 FEW015 SCT030 14/09 Q1022=
200811111500 METAR LPPR 111500Z 33012KT 9999 FEW015 SCT030 15/10 Q1022=
200811111430 METAR LPPR 111430Z 33013KT 9999 FEW015 SCT040 14/10 Q1021=
200811111400 METAR LPPR 111400Z 32013KT 9999 FEW015 SCT040 15/09 Q1022=
200811111330 METAR LPPR 111330Z 32013KT 9999 FEW015 SCT040 15/09 Q1022=
200811111300 METAR LPPR 111300Z 33011KT 9999 FEW015 SCT060 15/10 Q1022=
200811111230 METAR LPPR 111230Z 32010KT 9999 FEW015 SCT060 14/11 Q1022=
200811111200 METAR LPPR 111200Z 32009KT 9999 FEW015 BKN060 14/11 Q1023=
200811111130 METAR LPPR 111130Z 32007KT 9999 FEW015 BKN080 14/12 Q1023=
200811111100 METAR LPPR 111100Z 34005KT 280V010 9999 FEW015 BKN080 14/12
                        Q1023=
200811111030 METAR LPPR 111030Z 31004KT 270V360 9999 SCT020 BKN030 13/12
                        Q1023=
200811111000 METAR LPPR 111000Z 33003KT 9999 SCT020 BKN028 13/12 Q1023=
200811110930 METAR LPPR 110930Z 34006KT 9999 FEW014 BKN020 13/12 Q1023=
200811110900 METAR LPPR 110900Z 31007KT 280V010 8000 -RA FEW009 BKN018
                        13/12 Q1022=
200811110830 METAR LPPR 110830Z 32011KT 290V350 4000 RA BR SCT005 SCT009
                        BKN015 13/12 Q1022=
200811110800 METAR LPPR 110800Z 18010KT 2500 RA BR BKN001 BKN003 14/14
                        Q1022=
200811110730 METAR LPPR 110730Z 18011KT 150V210 4000 RA BR BKN002 BKN004
                        14/14 Q1021=
200811110700 METAR LPPR 110700Z 19011KT 4000 RA BKN003 BKN005 14/14 Q1021=
200811110630 METAR LPPR 110630Z 18011KT 6000 RA BKN004 BKN006 14/14 Q1021=
200811110600 METAR LPPR 110600Z 19014KT 6000 RA BKN005 BKN007 14/14 Q1021=
200811110530 METAR LPPR 110530Z 19014KT 9000 BKN005 BKN008 14/14 Q1021=
200811110500 METAR LPPR 110500Z 19010KT 8000 BKN005 BKN007 14/14 Q1021=
200811110430 METAR LPPR 110430Z 18014KT 9999 BKN006 BKN011 14/13 Q1021=
200811110400 METAR LPPR 110400Z 18012KT 9999 BKN006 BKN011 14/13 Q1021=
200811110330 METAR LPPR 110330Z 18013KT 9999 BKN006 BKN011 15/13 Q1022=
200811110300 METAR LPPR 110300Z 19012KT 9999 BKN006 BKN011 14/13 Q1022=
200811110230 METAR LPPR 110230Z 18014KT 9999 BKN006 BKN012 15/13 Q1022=
200811110200 METAR LPPR 110200Z 18013KT 9999 SCT006 BKN012 15/14 Q1022=
200811110130 METAR LPPR 110130Z 18010KT 9999 FEW006 SCT012 BKN025 15/14
                        Q1022=
200811110100 METAR LPPR 110100Z 18011KT 9999 SCT006 BKN012 15/14 Q1023=
200811110030 METAR LPPR 110030Z 18012KT 7000 SCT006 BKN012 14/14 Q1023=
200811110000 METAR LPPR 110000Z 17008KT 7000 FEW006 SCT013 14/13 Q1023=
200811102330 METAR LPPR 102330Z 18007KT 7000 SCT006 BKN013 14/14 Q1023=
200811102300 METAR LPPR 102300Z 18010KT 7000 -RA SCT006 BKN013 15/14 Q1024=
200811102230 METAR LPPR 102230Z 18010KT 9999 SCT006 BKN013 15/14 Q1024=
200811102200 METAR LPPR 102200Z 17009KT 9999 FEW006 SCT035 BKN050 15/13
                        Q1024=
200811102130 METAR LPPR 102130Z 18008KT 9999 SCT006 BKN030 14/13 Q1024=
200811102100 METAR LPPR 102100Z 18008KT 9999 SCT006 BKN040 14/13 Q1024=
200811102030 METAR LPPR 102030Z 18010KT 9999 SCT020 BKN060 14/13 Q1024=
200811102000 METAR LPPR 102000Z 17009KT 9999 SCT040 SCT080 14/13 Q1024=
200811101930 METAR LPPR 101930Z 18006KT 9999 SCT040 SCT080 14/12 Q1024=
200811101900 METAR LPPR 101900Z 18008KT 9999 BKN040 SCT080 14/13 Q1024=
200811101830 METAR LPPR 101830Z 18007KT 9999 SCT040 SCT080 14/13 Q1024=
200811101800 METAR LPPR 101800Z 18009KT 9999 BKN040 SCT100 15/13 Q1024=
200811101730 METAR LPPR 101730Z 18008KT 9999 BKN040 15/12 Q1024=
200811101700 METAR LPPR 101700Z 20006KT 180V240 9999 BKN040 SCT100 15/12
                        Q1024=
200811101630 METAR LPPR 101630Z 21007KT 190V250 9999 SCT040 SCT100 16/12
                        Q1024=
200811101600 METAR LPPR 101600Z 20009KT 9999 FEW040 SCT100 17/11 Q1024=
200811101530 METAR LPPR 101530Z 20010KT 9999 FEW040 SCT100 17/11 Q1024=
200811101500 METAR LPPR 101500Z 20010KT 9999 FEW040 SCT100 17/11 Q1024=
200811101430 METAR LPPR 101430Z 20011KT CAVOK 17/10 Q1024=
200811101400 METAR LPPR 101400Z 20011KT CAVOK 17/11 Q1024=
200811101330 METAR LPPR 101330Z 19013KT CAVOK 17/11 Q1024=
200811101300 METAR LPPR 101300Z 20013KT CAVOK 18/10 Q1024=
200811101230 METAR LPPR 101230Z 19011KT CAVOK 18/11 Q1025=
200811101200 METAR LPPR 101200Z 20011KT CAVOK 18/10 Q1025=
200811101130 METAR LPPR 101130Z 18010KT CAVOK 18/10 Q1026=
200811101100 METAR LPPR 101100Z 18011KT CAVOK 17/11 Q1026=
200811101030 METAR LPPR 101030Z 16007KT CAVOK 17/11 Q1026=
200811101000 METAR LPPR 101000Z 13007KT CAVOK 15/11 Q1027=
200811100930 METAR LPPR 100930Z 12006KT CAVOK 14/11 Q1027=
200811100900 METAR LPPR 100900Z 11005KT CAVOK 13/10 Q1027=
200811100830 METAR LPPR 100830Z 12005KT CAVOK 12/10 Q1027=
200811100800 METAR LPPR 100800Z 11006KT CAVOK 11/10 Q1026=
200811100730 METAR LPPR 100730Z 11005KT 9999 FEW040 11/10 Q1026=
200811100700 METAR LPPR 100700Z 11007KT 9999 FEW040 11/10 Q1026=
200811100630 METAR LPPR 100630Z 11006KT 9999 FEW040 11/10 Q1026=
200811100600 METAR LPPR 100600Z 11006KT 9999 FEW040 11/10 Q1026=
200811100530 METAR LPPR 100530Z 11005KT 9999 FEW040 11/10 Q1026=
200811100500 METAR LPPR 100500Z 11007KT 9999 FEW040 12/10 Q1026=
200811100430 METAR LPPR 100430Z 12006KT 9999 FEW040 12/11 Q1026=
200811100400 METAR LPPR 100400Z 12007KT 9999 FEW040 12/11 Q1026=
200811100330 METAR LPPR 100330Z 12007KT 9999 FEW040 12/11 Q1027=
200811100300 METAR LPPR 100300Z 12006KT 9999 FEW040 SCT070 13/11 Q1027=
200811100230 METAR LPPR 100230Z 11007KT 9999 FEW040 13/11 Q1027=
200811100200 METAR LPPR 100200Z 12007KT 9999 SCT040 13/11 Q1027=
200811100130 METAR LPPR 100130Z 12007KT 9999 FEW035 SCT040 14/11 Q1027=
200811100100 METAR LPPR 100100Z 12006KT 9999 SCT032 SCT037 15/11 Q1028=
200811100030 METAR LPPR 100030Z 12005KT 9999 SCT033 BKN037 15/11 Q1028=
200811100000 METAR LPPR 100000Z 12005KT 9999 SCT030 BKN035 15/11 Q1028=
200811092330 METAR LPPR 092330Z 12003KT 9999 SCT030 SCT035 BKN070 15/11
                        Q1028=
200811092300 METAR LPPR 092300Z 12004KT 9999 SCT030 SCT035 BKN070 15/11
                        Q1028=
200811092230 METAR LPPR 092230Z 12003KT 9999 SCT030 SCT035 BKN070 15/12
                        Q1028=
200811092200 METAR LPPR 092200Z 13006KT 9999 SCT027 BKN035 BKN070 15/12
                        Q1028=
200811092130 METAR LPPR 092130Z 13006KT 9999 BKN030 BKN070 15/12 Q1028=
200811092100 METAR LPPR 092100Z 13004KT 9999 SCT030 SCT040 BKN070 15/13
                        Q1029=
200811092030 METAR LPPR 092030Z 13004KT 9999 SCT030 SCT040 BKN060 15/13
                        Q1029=
200811092000 METAR LPPR 092000Z 16005KT 9999 SCT030 SCT040 BKN060 15/13
                        Q1029=
200811091930 METAR LPPR 091930Z 16005KT 9999 SCT030 BKN060 15/13 Q1028=
200811091900 METAR LPPR 091900Z 18004KT 9999 SCT030 BKN060 15/13 Q1029=
200811091830 METAR LPPR 091830Z 18004KT 9999 SCT035 BKN080 16/13 Q1029=
200811091800 METAR LPPR 091800Z VRB02KT 9999 FEW015 SCT035 BKN080 16/14
                        Q1029=
200811091730 METAR LPPR 091730Z 19004KT 9999 FEW015 SCT032 BKN080 16/13
                        Q1028=
200811091700 METAR LPPR 091700Z 20004KT 9999 FEW015 SCT040 BKN080 16/12
                        Q1028=
200811091630 METAR LPPR 091630Z 19009KT 9999 FEW015 SCT040 BKN060 17/12
                        Q1028=
200811091600 METAR LPPR 091600Z 19009KT 9999 FEW015 BKN040 BKN060 17/12
                        Q1028=
200811091530 METAR LPPR 091530Z 20008KT 9999 FEW015 SCT035 BKN060 17/12
                        Q1028=
200811091500 METAR LPPR 091500Z 19011KT 9999 FEW015 SCT040 BKN060 17/13
                        Q1028=
200811091430 METAR LPPR 091430Z 19011KT 9999 FEW015 SCT045 18/13 Q1028=
200811091400 METAR LPPR 091400Z 19012KT 9999 FEW015 BKN045 18/13 Q1028=
200811091330 METAR LPPR 091330Z 20012KT 9999 FEW015 BKN042 18/13 Q1028=
200811091300 METAR LPPR 091300Z 19012KT 9999 FEW015 BKN042 18/13 Q1029=
200811091230 METAR LPPR 091230Z 20012KT 9999 FEW015 BKN042 18/13 Q1029=
200811091200 METAR LPPR 091200Z 19012KT 9999 FEW015 BKN045 18/13 Q1029=
200811091130 METAR LPPR 091130Z 19013KT 9999 FEW015 BKN045 18/14 Q1029=
200811091100 METAR LPPR 091100Z 18013KT 9999 FEW015 SCT040 17/13 Q1029=
200811091030 METAR LPPR 091030Z 18014KT 9999 FEW015 SCT045 17/13 Q1029=
200811091000 METAR LPPR 091000Z 18013KT 9999 FEW015 SCT050 17/14 Q1029=
200811090930 METAR LPPR 090930Z 16007KT 9999 BKN045 16/13 Q1029=
200811090900 METAR LPPR 090900Z 14005KT 9999 BKN045 15/13 Q1029=
200811090830 METAR LPPR 090830Z 14005KT 9999 BKN045 14/13 Q1029=
200811090800 METAR LPPR 090800Z 14006KT 9999 FEW020 BKN040 14/13 Q1029=
200811090730 METAR LPPR 090730Z 14004KT 9999 BKN040 14/12 Q1028=
200811090700 METAR LPPR 090700Z 14004KT 9999 SCT040 SCT060 13/12 Q1028=
200811090630 METAR LPPR 090630Z 14005KT 9999 FEW020 BKN050 13/12 Q1028=
200811090600 METAR LPPR 090600Z 16006KT 9999 FEW020 BKN050 14/12 Q1028=
200811090530 METAR LPPR 090530Z 16006KT 9999 SCT020 BKN050 14/13 Q1028=
200811090500 METAR LPPR 090500Z 16008KT 130V190 9999 BKN040 SCT070 14/13
                        Q1028=
200811090430 METAR LPPR 090430Z 17007KT 9999 FEW017 BKN040 14/13 Q1027=
200811090400 METAR LPPR 090400Z 18006KT 9999 BKN040 SCT060 14/13 Q1027=
200811090330 METAR LPPR 090330Z 18008KT 9999 BKN040 SCT060 14/13 Q1027=
200811090300 METAR LPPR 090300Z 17007KT 9999 BKN040 SCT060 14/13 Q1027=
200811090230 METAR LPPR 090230Z 17008KT 9999 BKN040 SCT060 14/13 Q1027=
200811090200 METAR LPPR 090200Z 17009KT 9999 BKN040 SCT060 14/13 Q1027=
200811090130 METAR LPPR 090130Z 18008KT 9999 BKN040 SCT060 14/13 Q1027=
200811090100 METAR LPPR 090100Z 18009KT 9999 FEW017 SCT040 14/13 Q1027=
200811090030 METAR LPPR 090030Z 17009KT 9999 BKN040 14/13 Q1028=
200811090000 METAR LPPR 090000Z 17007KT 9999 FEW015 BKN040 14/13 Q1027=
200811082330 METAR LPPR 082330Z 17005KT 9999 FEW015 BKN030 14/13 Q1027=
200811082300 METAR LPPR 082300Z 17005KT 9999 FEW015 BKN020 14/13 Q1027=
200811082230 METAR LPPR 082230Z 16007KT 9999 FEW015 SCT020 BKN050 14/13
                        Q1027=
200811082200 METAR LPPR 082200Z 16006KT 9999 FEW015 SCT020 BKN080 14/13
                        Q1027=
200811082130 METAR LPPR 082130Z 16005KT 9999 FEW017 SCT030 BKN080 14/12
                        Q1027=
200811082100 METAR LPPR 082100Z 15005KT 9999 FEW017 BKN030 14/13 Q1027=
200811082030 METAR LPPR 082030Z 17007KT 7000 -SHRA FEW017 BKN025 14/13
                        Q1027=
200811082000 METAR LPPR 082000Z 18006KT 150V210 9999 SCT020 BKN030 15/12
                        Q1026=
200811081930 METAR LPPR 081930Z 17006KT 9999 FEW020 BKN035 15/13 Q1026=
200811081900 METAR LPPR 081900Z 17007KT 9999 FEW020 BKN030 14/13 Q1026=
200811081830 METAR LPPR 081830Z 17007KT 9999 FEW020 BKN030 15/13 Q1026=
200811081800 METAR LPPR 081800Z 18007KT 9999 FEW020 BKN030 14/13 Q1025=
200811081730 METAR LPPR 081730Z 18007KT 9999 SCT025 BKN060 14/13 Q1025=
200811081700 METAR LPPR 081700Z 17008KT 9999 FEW017 SCT025 BKN060 15/13
                        Q1025=
200811081630 METAR LPPR 081630Z 18008KT 9999 FEW017 SCT025 BKN040 15/13
                        Q1025=
200811081600 METAR LPPR 081600Z 23006KT 9999 FEW017 SCT020 BKN035 15/12
                        Q1025=
200811081530 METAR LPPR 081530Z 20009KT 9999 FEW017 BKN035 15/13 Q1025=
200811081500 METAR LPPR 081500Z 20010KT 9999 FEW017 BKN035 15/12 Q1025=
200811081430 METAR LPPR 081430Z 20011KT 9999 FEW017 BKN040 16/12 Q1025=
200811081400 METAR LPPR 081400Z 20012KT 9999 FEW017 BKN040 BKN250 16/12
                        Q1024=
200811081330 METAR LPPR 081330Z 19013KT 9999 FEW017 SCT040 BKN250 17/12
                        Q1024=
200811081300 METAR LPPR 081300Z 19013KT 9999 FEW017 SCT040 BKN250 17/11
                        Q1024=
200811081230 METAR LPPR 081230Z 20012KT 9999 FEW017 SCT040 BKN250 16/11
                        Q1024=
200811081200 METAR LPPR 081200Z 18011KT 9999 FEW017 SCT040 BKN100 16/11
                        Q1024=
200811081130 METAR LPPR 081130Z 18010KT 9999 FEW017 BKN040 15/11 Q1025=
200811081100 METAR LPPR 081100Z 17006KT 9999 FEW017 SCT030 BKN100 15/11
                        Q1025=
200811081030 METAR LPPR 081030Z 15006KT 120V180 9999 FEW015 SCT040 BKN100
                        14/11 Q1025=
200811081000 METAR LPPR 081000Z 16007KT 9999 FEW015 BKN040 BKN080 14/11
                        Q1025=
200811080930 METAR LPPR 080930Z 16008KT 9999 FEW015 BKN040 BKN080 13/10
                        Q1024=
200811080900 METAR LPPR 080900Z 13007KT 9999 FEW015 SCT040 BKN080 13/10
                        Q1024=
200811080830 METAR LPPR 080830Z 12008KT 9999 FEW015 SCT070 11/09 Q1024=
200811080800 METAR LPPR 080800Z 12008KT 9999 FEW015 SCT070 10/09 Q1024=
200811080730 METAR LPPR 080730Z 12006KT 9999 FEW015 SCT030 BKN250 10/09
                        Q1023=
200811080700 METAR LPPR 080700Z 12008KT 9999 FEW015 SCT030 BKN070 10/09
                        Q1023=
200811080630 METAR LPPR 080630Z 12008KT 9999 FEW008 SCT030 10/09 Q1023=
200811080600 METAR LPPR 080600Z 12007KT 8000 FEW008 SCT030 10/09 Q1023=
200811080530 METAR LPPR 080530Z 12007KT 8000 FEW030 SCT070 10/09 Q1023=
200811080500 METAR LPPR 080500Z 11006KT 8000 FEW008 SCT070 10/10 Q1023=
200811080430 METAR LPPR 080430Z 11006KT 7000 FEW017 SCT030 BKN060 11/10
                        Q1023=
200811080400 METAR LPPR 080400Z 12004KT 050V160 7000 SCT017 BKN030 11/10
                        Q1023=
200811080330 METAR LPPR 080330Z 12006KT 100V160 6000 FEW017 BKN030 11/10
                        Q1023=
200811080300 METAR LPPR 080300Z 13004KT 5000 BR SCT030 BKN060 11/10 Q1022=
200811080230 METAR LPPR 080230Z 13007KT 5000 BR SCT030 BKN060 11/10 Q1022=
200811080200 METAR LPPR 080200Z 12008KT 4000 BR SCT030 BKN060 10/10 Q1022=
200811080130 METAR LPPR 080130Z 12007KT 4000 BR SCT030 BKN060 10/10 Q1022=
200811080100 METAR LPPR 080100Z 12007KT 4000 BR FEW017 BKN040 11/11 Q1022=
200811080030 METAR LPPR 080030Z VRB03KT 4000 BR FEW017 SCT040 10/10 Q1022=
200811080000 METAR LPPR 080000Z 11006KT 4000 BR FEW025 10/10 Q1022=
200811072330 METAR LPPR 072330Z 12007KT 5000 BR FEW025 11/11 Q1022=
200811072300 METAR LPPR 072300Z 13005KT 7000 FEW080 10/10 Q1022=
200811072230 METAR LPPR 072230Z 00000KT 8000 FEW080 10/10 Q1022=
200811072200 METAR LPPR 072200Z 00000KT 9999 FEW015 SCT080 10/10 Q1022=
200811072130 METAR LPPR 072130Z 13004KT 9999 FEW015 SCT080 11/10 Q1022=
200811072100 METAR LPPR 072100Z 00000KT 9999 FEW015 SCT080 10/10 Q1022=
200811072030 METAR LPPR 072030Z 00000KT 9999 FEW015 SCT080 11/10 Q1021=
200811072000 METAR LPPR 072000Z 00000KT 9999 FEW015 SCT080 12/11 Q1021=
200811071930 METAR LPPR 071930Z 00000KT 9999 FEW015 SCT080 12/12 Q1021=
200811071900 METAR LPPR 071900Z 00000KT 9999 FEW015 SCT080 12/11 Q1021=
200811071830 METAR LPPR 071830Z 00000KT 9999 FEW015 SCT080 12/11 Q1021=
200811071800 METAR LPPR 071800Z 31003KT 9999 FEW015 SCT080 13/11 Q1020=
200811071730 METAR LPPR 071730Z 32003KT 9999 FEW015 SCT080 13/12 Q1020=
200811071700 METAR LPPR 071700Z VRB03KT 9999 FEW015 SCT080 14/12 Q1020=
200811071630 METAR LPPR 071630Z VRB03KT 9999 FEW015 SCT080 14/12 Q1020=
200811071600 METAR LPPR 071600Z 28005KT 9999 FEW015 SCT080 15/12 Q1020=
200811071530 METAR LPPR 071530Z 28005KT 240V320 9999 FEW015 SCT040 BKN080
                        15/12 Q1019=
200811071500 METAR LPPR 071500Z VRB03KT 9999 FEW015 SCT040 BKN080 15/12
                        Q1019=
200811071430 METAR LPPR 071430Z 00000KT 9999 FEW015 SCT040 BKN080 14/12
                        Q1020=
200811071400 METAR LPPR 071400Z 28008KT 9999 SCT015 BKN040 14/13 Q1020=
200811071330 METAR LPPR 071330Z 28007KT 9999 FEW015 BKN040 15/13 Q1020=
200811071300 METAR LPPR 071300Z 28005KT 250V320 9999 SCT015 16/12 Q1020=
200811071230 METAR LPPR 071230Z VRB03KT 9999 SCT015 16/09 Q1020=
200811071200 METAR LPPR 071200Z 00000KT 9999 FEW013 BKN060 16/12 Q1020=
200811071130 METAR LPPR 071130Z 00000KT 9999 FEW010 BKN040 14/13 Q1020=
200811071100 METAR LPPR 071100Z 00000KT 9999 FEW010 BKN040 13/13 Q1020=
200811071030 METAR LPPR 071030Z VRB03KT 9999 FEW007 BKN025 13/13 Q1020=
200811071000 METAR LPPR 071000Z 00000KT 9999 FEW007 BKN035 13/13 Q1020=
200811070930 METAR LPPR 070930Z 12004KT 8000 FEW007 SCT025 BKN040 12/12
                        Q1019=
200811070900 METAR LPPR 070900Z VRB02KT 3000 -DZ BR SCT007 BKN015 11/11
                        Q1019=
200811070830 METAR LPPR 070830Z 00000KT 3000 -RADZ SCT006 BKN020 11/11
                        Q1019=
200811070800 METAR LPPR 070800Z 00000KT 2000 VCFG FEW001 SCT018 BKN030
                        10/10 Q1019=
200811070730 METAR LPPR 070730Z 00000KT 1000 R17/0800V1100U R35/1400VP1500
                        BCFG SCT001 BKN030 10/10 Q1019=
200811070700 METAR LPPR 070700Z 00000KT 0300 R17/0800D R35/0500V0750N
                        FG VV000 10/10 Q1018=
200811070630 METAR LPPR 070630Z 00000KT 0300 R17/0900V0700N R35/0800N
                        FG VV000 11/11 Q1018=
200811070600 METAR LPPR 070600Z 00000KT 0200 R17/0600N R35/0350V0550N
                        FG VV000 11/11 Q1018=
200811070530 METAR LPPR 070530Z 35002KT 0200 R17/0450V0650D R35/0450V0750D
                        FG VV000 12/12 Q1018=
200811070500 METAR LPPR 070500Z 34003KT 0200 R17/0600N R35/0700U FG VV000
                        12/12 Q1018=
200811070430 METAR LPPR 070430Z 00000KT 0200 R17/0500D R35/0600V0500N
                        FG VV000 11/11 Q1018=
200811070400 METAR LPPR 070400Z 00000KT 1000 R17/0550V0750D R35/1300VP1500
                        BCFG FEW000 SCT060 12/12 Q1018=
200811070330 METAR LPPR 070330Z 00000KT 8000 FEW005 SCT030 13/13 Q1018=
200811070300 METAR LPPR 070300Z VRB03KT 2500 DZ BR SCT003 BKN005 13/13
                        Q1018=
200811070230 METAR LPPR 070230Z 00000KT 2500 -DZ BR SCT003 BKN006 13/13
                        Q1019=
200811070200 METAR LPPR 070200Z 25003KT 3000 -RADZ BR SCT004 BKN008 13/13
                        Q1019 RERA=
200811070130 METAR LPPR 070130Z 24005KT 210V270 2000 RADZ BR BKN004 BKN007
                        13/13 Q1019=
200811070100 METAR LPPR 070100Z 23008KT 190V290 2500 -RADZ BR SCT002 SCT004
                        BKN011 13/13 Q1019 RERA=
200811070030 METAR LPPR 070030Z 19015KT 2000 DZ BR SCT001 BKN003 14/14
                        Q1019=
200811070000 METAR LPPR 070000Z 19014KT 5000 -DZ BR FEW002 SCT004 BKN005
                        14/14 Q1019=
200811062330 METAR LPPR 062330Z 18014KT 3000 -DZ BR SCT004 BKN005 14/14
                        Q1019=
200811062300 METAR LPPR 062300Z 18014KT 6000 SCT003 BKN007 14/13 Q1019=
200811062230 METAR LPPR 062230Z 18016KT 7000 SCT003 BKN013 14/14 Q1020=
200811062200 METAR LPPR 062200Z 18015KT 6000 SCT003 BKN005 14/14 Q1020=
200811062130 METAR LPPR 062130Z 18013KT 5000 BR SCT002 BKN005 14/14 Q1020=
200811062100 METAR LPPR 062100Z 19013KT 9999 SCT008 BKN015 14/13 Q1020=
200811062030 METAR LPPR 062030Z 18012KT 9999 SCT015 BKN025 14/12 Q1020=
200811062000 METAR LPPR 062000Z 18012KT 9999 SCT015 BKN025 14/12 Q1020=
200811061930 METAR LPPR 061930Z 17008KT 9999 FEW015 BKN040 14/12 Q1020=
200811061900 METAR LPPR 061900Z 17010KT 9999 FEW015 BKN040 13/12 Q1021=
200811061830 METAR LPPR 061830Z 18008KT 9999 FEW015 BKN040 13/12 Q1021=
200811061800 METAR LPPR 061800Z 18008KT 9999 FEW015 BKN040 14/12 Q1021=
200811061730 METAR LPPR 061730Z 18009KT 9999 FEW015 BKN030 14/12 Q1021=
200811061700 METAR LPPR 061700Z 18008KT 8000 FEW012 BKN025 14/12 Q1021=
200811061630 METAR LPPR 061630Z 18008KT 9999 FEW015 SCT030 BKN080 14/13
                        Q1021=
200811061600 METAR LPPR 061600Z 18009KT 9999 FEW015 SCT030 BKN080 14/13
                        Q1021=
200811061530 METAR LPPR 061530Z 19010KT 9999 FEW015 SCT030 BKN080 14/12
                        Q1021=
200811061500 METAR LPPR 061500Z 18010KT 9999 FEW015 SCT030 BKN080 14/12
                        Q1021=
200811061430 METAR LPPR 061430Z 18008KT 5000 BR FEW005 SCT008 BKN030 14/13
                        Q1022=
200811061400 METAR LPPR 061400Z 17007KT 5000 BR FEW004 SCT008 BKN030 13/12
                        Q1022=
200811061330 METAR LPPR 061330Z 17008KT 4000 BR SCT004 SCT008 BKN030 13/12
                        Q1022=
200811061300 METAR LPPR 061300Z 17006KT 4000 BR FEW003 SCT007 BKN030 13/12
                        Q1022=
200811061230 METAR LPPR 061230Z 18006KT 4000 BR FEW003 SCT006 BKN030 12/12
                        Q1023=
200811061200 METAR LPPR 061200Z VRB03KT 3000 BR FEW004 SCT006 BKN030 12/11
                        Q1023=
200811061130 METAR LPPR 061130Z 13003KT 3000 BR FEW002 SCT005 BKN030 12/11
                        Q1023=
200811061100 METAR LPPR 061100Z 14004KT 110V170 3000 BR FEW002 SCT005
                        BKN030 11/11 Q1023=
200811061030 METAR LPPR 061030Z 12005KT 3000 BR FEW003 SCT006 BKN030 11/11
                        Q1023=
200811061000 METAR LPPR 061000Z 14005KT 3000 BR FEW001 SCT004 BKN030 11/11
                        Q1024=
200811060930 METAR LPPR 060930Z 13005KT 3000 BR FEW001 SCT005 BKN030 11/11
                        Q1024=
200811060900 METAR LPPR 060900Z 10005KT 3000 BR VCFG FEW001 SCT006 BKN020
                        10/10 Q1023=
200811060830 METAR LPPR 060830Z 11006KT 2000 BR VCFG SCT006 BKN040 10/10
                        Q1023=
200811060800 METAR LPPR 060800Z 12008KT 2000 BR VCFG FEW001 SCT005 BKN035
                        10/10 Q1023=
200811060730 METAR LPPR 060730Z 11005KT 2500 BR VCFG BKN003 BKN005 10/10
                        Q1023=
200811060700 METAR LPPR 060700Z 11005KT 3000 BR VCFG BKN002 BKN004 10/10
                        Q1023=
200811060630 METAR LPPR 060630Z 11004KT 080V140 3000 BR VCFG BKN001 BKN003
                        10/10 Q1023=
200811060600 METAR LPPR 060600Z 12006KT 1500 BR VCFG BKN001 BKN003 10/10
                        Q1023=
200811060530 METAR LPPR 060530Z 11004KT 0800 R17/P1500 R35/P1500 FG VV000
                        10/10 Q1023=
200811060500 METAR LPPR 060500Z 12006KT 0500 R17/P1500 R35/1300VP1500
                        FG VV000 10/10 Q1023=
200811060430 METAR LPPR 060430Z 14004KT 0500 R17/0900V1100N R35/1200U
                        FG VV000 10/10 Q1023=
200811060400 METAR LPPR 060400Z 13004KT 100V160 0400 R17/0700N R35/0600N
                        FG VV000 10/10 Q1023=
200811060330 METAR LPPR 060330Z 13004KT 0300 R17/0800N R35/0600N FG VV000
                        10/10 Q1023=
200811060300 METAR LPPR 060300Z 13005KT 0400 R17/0800N R35/0750D FG VV000
                        10/10 Q1023=
200811060230 METAR LPPR 060230Z 11005KT 0300 R17/0700N R35/0550N FG VV000
                        10/10 Q1023=
200811060200 METAR LPPR 060200Z VRB03KT 0200 R17/0500N R35/0450N FG VV000
                        10/10 Q1023=
200811060130 METAR LPPR 060130Z 12003KT 0200 R17/0450V0550N R35/0450V0550N
                        FG VV000 11/11 Q1023=
200811060100 METAR LPPR 060100Z 00000KT 0300 R17/0600V0800U R35/0700V1000N
                        FG VV000 11/11 Q1024=
200811060030 METAR LPPR 060030Z 00000KT 0100 R17/0375N R35/0300V0550U
                        FG VV000 10/10 Q1024=
200811060000 METAR LPPR 060000Z 00000KT 0100 R17/0400N R35/0375N FG VV000
                        10/10 Q1023=
200811052330 METAR LPPR 052330Z 00000KT 0100 R17/0450N R35/0350V0500N
                        FG VV000 10/10 Q1023=
200811052300 METAR LPPR 052300Z VRB03KT 0100 R17/0450N R35/0375N FG VV000
                        11/11 Q1023=
200811052230 METAR LPPR 052230Z 00000KT 0100 R17/0450N R35/0550V0700N
                        FG VV000 11/11 Q1024=
200811052200 METAR LPPR 052200Z VRB03KT 0200 R17/0600D R35/0600N FG VV000
                        11/11 Q1023=
200811052130 METAR LPPR 052130Z 00000KT 0200 R17/0600N R35/0800V1100N
                        FG VV000 12/12 Q1023=
200811052100 METAR LPPR 052100Z VRB03KT 4000 BR SCT001 BKN003 12/12 Q1023=
200811052030 METAR LPPR 052030Z 34005KT 290V010 5000 BR SCT002 BKN004
                        12/12 Q1023=
200811052000 METAR LPPR 052000Z 33006KT 280V360 5000 BR SCT002 SCT005
                        12/12 Q1023=
200811051930 METAR LPPR 051930Z VRB02KT 8000 FEW006 11/11 Q1023=
200811051900 METAR LPPR 051900Z VRB03KT 8000 FEW006 12/11 Q1023=
200811051830 METAR LPPR 051830Z 33004KT 8000 FEW006 12/11 Q1022=
200811051800 METAR LPPR 051800Z 32004KT 8000 FEW006 13/12 Q1022=
200811051730 METAR LPPR 051730Z 32007KT 290V350 9999 FEW006 13/12 Q1022=
200811051700 METAR LPPR 051700Z 31005KT 280V340 9999 FEW015 14/12 Q1022=
200811051630 METAR LPPR 051630Z 32008KT 280V350 9999 FEW015 15/12 Q1021=
200811051600 METAR LPPR 051600Z 33008KT 9999 FEW015 15/12 Q1021=
200811051530 METAR LPPR 051530Z 32007KT 280V340 9999 FEW015 16/13 Q1021=
200811051500 METAR LPPR 051500Z 31010KT 9999 FEW015 16/12 Q1021=
200811051430 METAR LPPR 051430Z 31007KT 9999 FEW015 16/12 Q1021=
200811051400 METAR LPPR 051400Z 30009KT 270V330 9999 FEW015 16/13 Q1021=
200811051330 METAR LPPR 051330Z 32009KT 280V340 9999 SCT015 16/13 Q1021=
200811051300 METAR LPPR 051300Z 31007KT 280V010 9999 FEW008 SCT015 16/13
                        Q1021=
200811051230 METAR LPPR 051230Z 31008KT 9999 FEW008 SCT013 16/13 Q1021=
200811051200 METAR LPPR 051200Z 30004G17KT 260V340 9999 FEW008 SCT013
                        15/13 Q1021=
200811051130 METAR LPPR 051130Z 30005KT 250V350 9999 FEW008 15/13 Q1021=
200811051100 METAR LPPR 051100Z 28006KT 250V310 8000 FEW008 14/13 Q1021=
200811051030 METAR LPPR 051030Z VRB03KT 8000 FEW008 14/13 Q1021=
200811051000 METAR LPPR 051000Z VRB02KT 8000 SCT006 14/13 Q1021=
200811050930 METAR LPPR 050930Z 00000KT 8000 FEW030 13/13 Q1020=
200811050900 METAR LPPR 050900Z 00000KT 8000 FEW030 11/11 Q1020=
200811050830 METAR LPPR 050830Z 00000KT 8000 FEW030 SCT100 10/10 Q1020=
200811050800 METAR LPPR 050800Z 00000KT 8000 FEW020 SCT100 09/09 Q1019=
200811050730 METAR LPPR 050730Z 00000KT 9999 FEW020 BKN100 08/08 Q1019=
200811050700 METAR LPPR 050700Z 00000KT 7000 FEW020 SCT080 08/08 Q1019=
200811050630 METAR LPPR 050630Z 00000KT 2000 BR FEW003 08/08 Q1018=
200811050600 METAR LPPR 050600Z 00000KT 2000 BR FEW003 08/08 Q1018=
200811050530 METAR LPPR 050530Z 00000KT 2000 BR FEW003 08/08 Q1018=
200811050500 METAR LPPR 050500Z 00000KT 3000 BR FEW003 08/08 Q1018=
200811050430 METAR LPPR 050430Z 00000KT 3000 R17/0650V1000N R35/P1500
                        BCFG BR FEW000 08/08 Q1017=
200811050400 METAR LPPR 050400Z 00000KT 3000 R17/0650V1300U R35/P1500
                        BCFG BR FEW000 SCT070 08/08 Q1017=
200811050330 METAR LPPR 050330Z 00000KT 4000 R17/0800V1000N R35/P1500
                        BCFG BR FEW000 SCT070 08/08 Q1017=
200811050300 METAR LPPR 050300Z 00000KT 5000 R17/1100VP1500 R35/P1500
                        BCFG BR FEW000 SCT070 09/09 Q1017=
200811050230 METAR LPPR 050230Z 00000KT 4000 R17/0600N R35/P1500 BCFG
                        BR FEW000 SCT070 09/09 Q1017=
200811050200 METAR LPPR 050200Z 00000KT 5000 R17/1000VP1500 R35/P1500
                        BCFG FEW000 SCT070 10/10 Q1017=
200811050130 METAR LPPR 050130Z 00000KT 5000 BR FEW015 SCT080 10/10 Q1017=
200811050100 METAR LPPR 050100Z 03002KT 9999 FEW015 SCT080 11/11 Q1017=
200811050030 METAR LPPR 050030Z 00000KT 9999 FEW015 SCT040 10/10 Q1016=
200811050000 METAR LPPR 050000Z 33003KT 9999 FEW015 SCT040 11/11 Q1016=
200811042330 METAR LPPR 042330Z 34003KT 9999 FEW012 BKN040 11/10 Q1016=
200811042300 METAR LPPR 042300Z 34004KT 9999 FEW009 BKN040 11/11 Q1016=
200811042230 METAR LPPR 042230Z 35004KT 9999 FEW009 BKN040 12/12 Q1016=
200811042200 METAR LPPR 042200Z 33005KT 9999 FEW008 BKN030 12/12 Q1016=
200811042130 METAR LPPR 042130Z 34004KT 9999 FEW013 BKN040 11/11 Q1015=
200811042100 METAR LPPR 042100Z 34004KT 9999 FEW013 11/11 Q1015=
200811042030 METAR LPPR 042030Z 35004KT 310V020 9999 FEW013 SCT030 11/11
                        Q1015=
200811042000 METAR LPPR 042000Z 33006KT 290V010 9999 SCT013 SCT030 12/12
                        Q1014=
200811041930 METAR LPPR 041930Z 32007KT 9999 SCT009 SCT015 13/12 Q1014=
200811041900 METAR LPPR 041900Z 33007KT 9999 FEW009 SCT015 BKN030 13/12
                        Q1014=
200811041830 METAR LPPR 041830Z 32008KT 9999 BKN009 13/12 Q1014=
200811041800 METAR LPPR 041800Z 33007KT 9999 SCT008 SCT015 13/12 Q1013=
200811041730 METAR LPPR 041730Z 33010KT 9999 FEW007 SCT012 13/12 Q1013=
200811041700 METAR LPPR 041700Z 33007KT 9999 BKN007 13/12 Q1013=
200811041630 METAR LPPR 041630Z 33009KT 300V360 9999 SCT007 13/12 Q1013=
200811041600 METAR LPPR 041600Z 33009KT 9999 BKN007 14/12 Q1013=
200811041530 METAR LPPR 041530Z 33008KT 9999 FEW006 SCT015 BKN030 14/12
                        Q1013=
200811041500 METAR LPPR 041500Z 33008KT 290V350 9999 FEW006 SCT015 BKN030
                        14/12 Q1012=
200811041430 METAR LPPR 041430Z 33006KT 9999 FEW015 BKN030 14/13 Q1012=
200811041400 METAR LPPR 041400Z 33005KT 9999 FEW012 BKN030 14/13 Q1012=
200811041330 METAR LPPR 041330Z 30006KT 260V330 5000 -SHRA BR SCT006 SCT012
                        BKN030 14/13 Q1013=
200811041300 METAR LPPR 041300Z VRB03KT 5000 -SHRA BR SCT006 SCT012 BKN030
                        14/13 Q1013=
200811041230 METAR LPPR 041230Z VRB03KT 5000 -SHRA BR SCT005 SCT011 BKN020
                        13/13 Q1013=
200811041200 METAR LPPR 041200Z VRB03KT 5000 BR SCT005 SCT011 BKN020 13/12
                        Q1013=
200811041130 METAR LPPR 041130Z 20006KT 5000 BR SCT005 SCT011 BKN020 13/12
                        Q1013=
200811041100 METAR LPPR 041100Z 20004KT 5000 BR SCT005 SCT011 BKN020 12/12
                        Q1013=
200811041030 METAR LPPR 041030Z 19006KT 170V230 3000 -RA BR BKN004 BKN013
                        12/12 Q1013=
200811041000 METAR LPPR 041000Z 20006KT 170V230 5000 BR SCT004 BKN017
                        12/12 Q1013=
200811040930 METAR LPPR 040930Z 19006KT 5000 BR SCT008 BKN025 12/12 Q1013=
200811040900 METAR LPPR 040900Z 17005KT 5000 BR FEW015 BKN030 11/11 Q1013=
200811040830 METAR COR LPPR 040830Z 16005KT 3000 BR FEW006 BKN040 11/11
                        Q1013=
200811040800 METAR LPPR 040800Z 14006KT 3000 BR SCT006 BKN035 10/10 Q1013=
200811040730 METAR LPPR 040730Z 13004KT 2000 -RA BR SCT001 BKN004 10/10
                        Q1013=
200811040700 METAR LPPR 040700Z 14006KT 3000 -RA BR SCT002 BKN005 09/09
                        Q1012=
200811040630 METAR LPPR 040630Z 15005KT 3000 -RA BR SCT002 BKN004 09/09
                        Q1012=
200811040600 METAR LPPR 040600Z 15003KT 7000 -RA FEW015 BKN018 09/09 Q1013=
200811040530 METAR LPPR 040530Z 14005KT 8000 FEW015 BKN030 09/09 Q1012=
200811040500 METAR LPPR 040500Z 00000KT 8000 FEW015 BKN030 09/09 Q1013=
200811040430 METAR LPPR 040430Z 12004KT 8000 FEW015 BKN035 BKN080 09/09
                        Q1013=
200811040400 METAR LPPR 040400Z 11006KT 8000 FEW015 SCT040 BKN080 08/08
                        Q1013=
200811040330 METAR LPPR 040330Z 00000KT 8000 FEW015 SCT040 BKN070 07/06
                        Q1013=
200811040300 METAR LPPR 040300Z 00000KT 9999 FEW015 SCT040 BKN060 07/07
                        Q1013=
200811040230 METAR LPPR 040230Z 00000KT 9999 SCT040 SCT060 07/07 Q1013=
200811040200 METAR LPPR 040200Z 00000KT 9999 SCT040 SCT060 07/07 Q1013=
200811040130 METAR LPPR 040130Z 00000KT 9999 SCT040 SCT060 07/07 Q1013=
200811040100 METAR LPPR 040100Z 00000KT 9999 SCT040 BKN060 08/08 Q1013=
200811040030 METAR LPPR 040030Z 00000KT 9999 SCT040 BKN060 08/08 Q1014=
200811040000 METAR LPPR 040000Z 00000KT 9999 FEW017 SCT040 09/08 Q1014=
200811032330 METAR LPPR 032330Z 00000KT 9999 FEW017 SCT040 09/08 Q1014=
200811032300 METAR LPPR 032300Z 34002KT 9999 FEW017 SCT040 10/09 Q1014=
200811032230 METAR LPPR 032230Z 00000KT 9999 FEW017 SCT040 BKN060 10/10
                        Q1014=
200811032200 METAR LPPR 032200Z 00000KT 9999 FEW017 SCT040 BKN060 10/09
                        Q1014=
200811032130 METAR LPPR 032130Z 36002KT 9999 FEW017 SCT030 10/09 Q1014=
200811032100 METAR LPPR 032100Z 00000KT 9999 SCT017 11/09 Q1014=
200811032030 METAR LPPR 032030Z 00000KT 9999 SCT017 SCT050 11/09 Q1014=
200811032000 METAR LPPR 032000Z 36004KT 290V070 9999 FEW020 BKN050 11/09
                        Q1014=
200811031930 METAR LPPR 031930Z 34007KT 9999 SCT030 SCT060 11/09 Q1014=
200811031900 METAR LPPR 031900Z 33007KT 9999 FEW013 SCT030 BKN060 12/10
                        Q1014=
200811031830 METAR LPPR 031830Z 33007KT 9999 FEW009 SCT013 11/10 Q1014=
200811031800 METAR LPPR 031800Z 33009KT 9999 FEW013 SCT040 12/10 Q1014=
200811031730 METAR LPPR 031730Z 34007KT 9999 FEW020 BKN050 12/10 Q1014=
200811031700 METAR LPPR 031700Z 34011KT 9999 -RA FEW020 SCT050 BKN080
                        13/09 Q1014=
200811031630 METAR LPPR 031630Z 33012KT 9999 FEW020 BKN080 13/09 Q1014=
200811031600 METAR LPPR 031600Z 33010KT 9999 FEW020 BKN100 13/09 Q1014=
200811031530 METAR LPPR 031530Z 33009KT 9999 FEW020 BKN100 13/10 Q1014=
200811031500 METAR LPPR 031500Z 33007KT 9999 FEW020 BKN090 13/09 Q1014=
200811031430 METAR LPPR 031430Z 33006KT 9999 FEW020 BKN090 13/09 Q1014=
200811031400 METAR LPPR 031400Z 32007KT 280V340 CAVOK 13/09 Q1014=
200811031330 METAR LPPR 031330Z 33007KT 300V360 CAVOK 13/09 Q1015=
200811031300 METAR LPPR 031300Z 34010KT 9999 FEW020 SCT080 BKN200 13/09
                        Q1015=
200811031230 METAR LPPR 031230Z 33009KT 280V360 9999 FEW020 SCT070 BKN200
                        13/09 Q1015=
200811031200 METAR LPPR 031200Z 33008KT 9999 FEW020 SCT045 BKN200 13/09
                        Q1016=
200811031130 METAR LPPR 031130Z 35006KT 310V020 9999 SCT020 SCT045 BKN250
                        14/09 Q1016=
200811031100 METAR LPPR 031100Z 34008KT 310V010 9999 FEW020 SCT045 BKN250
                        13/09 Q1016=
200811031030 METAR LPPR 031030Z 35006KT 310V010 9999 FEW040 BKN250 13/08
                        Q1016=
200811031000 METAR LPPR 031000Z 34007KT 9999 SCT040 SCT250 12/08 Q1016=
200811030930 METAR LPPR 030930Z 34006KT 310V010 9999 FEW035 BKN250 10/07
                        Q1016=
200811030900 METAR LPPR 030900Z 34004KT CAVOK 10/07 Q1016=
200811030830 METAR LPPR 030830Z VRB03KT CAVOK 09/07 Q1016=
200811030800 METAR LPPR 030800Z VRB03KT CAVOK 07/06 Q1016=
200811030730 METAR LPPR 030730Z 35004KT CAVOK 06/05 Q1015=
200811030700 METAR LPPR 030700Z 35006KT CAVOK 05/04 Q1015=
200811030630 METAR LPPR 030630Z 35004KT CAVOK 07/05 Q1015=
200811030600 METAR LPPR 030600Z 03003KT CAVOK 07/06 Q1015=
200811030530 METAR LPPR 030530Z 02004KT 340V050 CAVOK 06/06 Q1015=
200811030500 METAR LPPR 030500Z 00000KT CAVOK 06/05 Q1014=
200811030430 METAR LPPR 030430Z 00000KT CAVOK 07/05 Q1014=
200811030400 METAR LPPR 030400Z VRB03KT CAVOK 07/05 Q1014=
200811030330 METAR LPPR 030330Z VRB03KT CAVOK 08/06 Q1014=
200811030300 METAR LPPR 030300Z 02003KT CAVOK 07/05 Q1014=
200811030230 METAR LPPR 030230Z 03003KT CAVOK 07/06 Q1014=
200811030200 METAR LPPR 030200Z 34004KT CAVOK 07/05 Q1014=
200811030130 METAR LPPR 030130Z VRB02KT CAVOK 08/05 Q1014=
200811030100 METAR LPPR 030100Z 02003KT CAVOK 09/06 Q1014=
200811030030 METAR LPPR 030030Z 02004KT 350V050 CAVOK 09/06 Q1014=
200811030000 METAR LPPR 030000Z 36005KT 340V040 CAVOK 09/06 Q1014=
200811022330 METAR LPPR 022330Z 01006KT CAVOK 10/06 Q1014=
200811022300 METAR LPPR 022300Z 36005KT CAVOK 10/06 Q1014=
200811022230 METAR LPPR 022230Z 36008KT 9999 FEW020 BKN250 11/06 Q1014=
200811022200 METAR LPPR 022200Z 36007KT 9999 FEW020 BKN250 10/06 Q1014=
200811022130 METAR LPPR 022130Z 35006KT 9999 FEW020 BKN250 10/06 Q1014=
200811022100 METAR LPPR 022100Z 35005KT 9999 FEW020 BKN250 11/06 Q1014=
200811022030 METAR LPPR 022030Z 36008KT 9999 FEW020 BKN250 11/06 Q1013=
200811022000 METAR LPPR 022000Z 01007KT 9999 FEW020 BKN250 12/06 Q1013=
200811021930 METAR LPPR 021930Z 35007KT 9999 FEW020 BKN250 12/06 Q1013=
200811021900 METAR LPPR 021900Z 02009KT 9999 FEW020 BKN250 13/05 Q1013=
200811021830 METAR LPPR 021830Z 02008KT 340V040 9999 FEW020 BKN250 13/06
                        Q1013=
200811021800 METAR LPPR 021800Z 02006KT 350V050 9999 FEW020 BKN250 13/07
                        Q1012=
200811021730 METAR LPPR 021730Z 01007KT 9999 FEW020 BKN250 13/08 Q1012=
200811021700 METAR LPPR 021700Z 02009KT 350V050 9999 FEW020 BKN250 14/08
                        Q1011=
200811021630 METAR LPPR 021630Z 01013KT 9999 FEW018 SCT250 14/07 Q1011=
200811021600 METAR LPPR 021600Z 01012KT 9999 FEW018 SCT250 15/08 Q1011=
200811021530 METAR LPPR 021530Z 01011KT 340V040 9999 SCT017 SCT250 16/08
                        Q1011=
200811021500 METAR LPPR 021500Z 35007KT 320V020 9999 SCT017 SCT250 17/07
                        Q1011=
200811021430 METAR LPPR 021430Z 35007KT 310V030 9999 SCT017 SCT250 16/07
                        Q1011=
200811021400 METAR LPPR 021400Z 04006KT 350V080 9999 FEW017 BKN250 16/07
                        Q1011=
200811021330 METAR LPPR 021330Z 02006KT 330V070 9999 FEW015 FEW025CB SCT250
                        16/07 Q1011=
200811021300 METAR LPPR 021300Z 04007KT 360V090 9999 FEW015 FEW025CB 15/07
                        Q1011=
200811021230 METAR LPPR 021230Z 03007KT 350V060 9999 FEW015 FEW025CB 15/07
                        Q1011=
200811021200 METAR LPPR 021200Z 05006KT 010V080 9999 FEW015 FEW025CB 14/07
                        Q1011=
200811021130 METAR LPPR 021130Z 04008KT 010V080 9999 FEW017 FEW025CB 14/07
                        Q1011=
200811021100 METAR LPPR 021100Z 01006KT 330V070 9999 FEW017 FEW025CB 13/06
                        Q1011=
200811021030 METAR LPPR 021030Z 02006KT 340V060 9999 FEW025CB 12/06 Q1011=
200811021000 METAR LPPR 021000Z VRB03KT 9999 FEW020CB 12/06 Q1011=
200811020930 METAR LPPR 020930Z 07004KT 020V110 9999 FEW020CB 11/05 Q1010=
200811020900 METAR LPPR 020900Z VRB03KT 9999 FEW020TCU 10/05 Q1010=
200811020830 METAR LPPR 020830Z 00000KT 9999 FEW020TCU 09/05 Q1010=
200811020800 METAR LPPR 020800Z 05004KT 020V080 9999 FEW020TCU 07/04 Q1009=
200811020730 METAR LPPR 020730Z 00000KT CAVOK 05/04 Q1009=
200811020700 METAR LPPR 020700Z VRB02KT CAVOK 05/03 Q1008=
200811020630 METAR LPPR 020630Z 04002KT CAVOK 06/04 Q1008=
200811020600 METAR LPPR 020600Z 04004KT CAVOK 06/04 Q1008=
200811020530 METAR LPPR 020530Z 00000KT CAVOK 06/04 Q1008=
200811020500 METAR LPPR 020500Z VRB02KT CAVOK 07/05 Q1008=
200811020430 METAR LPPR 020430Z 03005KT CAVOK 06/05 Q1008=
200811020400 METAR LPPR 020400Z 04004KT CAVOK 07/05 Q1008=
200811020330 METAR LPPR 020330Z VRB03KT CAVOK 07/05 Q1008=
200811020300 METAR LPPR 020300Z VRB03KT CAVOK 07/05 Q1008=
200811020230 METAR LPPR 020230Z 36004KT 330V050 CAVOK 07/05 Q1008=
200811020200 METAR LPPR 020200Z 03005KT CAVOK 06/05 Q1008=
200811020130 METAR LPPR 020130Z 35004KT CAVOK 05/04 Q1008=
200811020100 METAR LPPR 020100Z 36003KT CAVOK 07/05 Q1008=
200811020030 METAR LPPR 020030Z 01004KT CAVOK 07/05 Q1008=
200811020000 METAR LPPR 020000Z 03006KT CAVOK 08/06 Q1008=
200811012330 METAR LPPR 012330Z 02004KT CAVOK 06/05 Q1008=
200811012300 METAR LPPR 012300Z 02003KT CAVOK 06/05 Q1008=
200811012230 METAR LPPR 012230Z 35003KT CAVOK 06/05 Q1008=
200811012200 METAR LPPR 012200Z VRB03KT CAVOK 06/05 Q1008=
200811012130 METAR LPPR 012130Z 02002KT 9999 FEW030 06/05 Q1008=
200811012100 METAR LPPR 012100Z 36003KT 9999 FEW015 07/05 Q1007=
200811012030 METAR LPPR 012030Z 00000KT 9999 FEW015 06/05 Q1007=
200811012000 METAR LPPR 012000Z 35003KT 9999 FEW015 07/05 Q1007=
200811011930 METAR LPPR 011930Z VRB03KT 9999 FEW015 08/05 Q1006=
200811011900 METAR LPPR 011900Z 03003KT 9999 FEW015 FEW020CB SCT030 09/06
                        Q1006=
200811011830 METAR LPPR 011830Z VRB03KT 9999 SCT015 FEW020CB SCT030 09/07
                        Q1006=
200811011800 METAR LPPR 011800Z 33004KT 300V010 9999 SCT015 FEW020CB SCT030
                        10/07 Q1006=
200811011730 METAR LPPR 011730Z 34003KT 9999 SCT015 SCT040 BKN080 11/08
                        Q1006=
200811011700 METAR LPPR 011700Z 01005KT 9999 FEW015 FEW020TCU SCT040 BKN080
                        11/07 Q1006=
200811011630 METAR LPPR 011630Z 35006KT 9999 FEW015 FEW020TCU SCT050 BKN080
                        11/07 Q1005=
200811011600 METAR LPPR 011600Z 34008KT 9999 FEW015 FEW020TCU SCT050 BKN080
                        12/08 Q1005=
200811011530 METAR LPPR 011530Z 35011KT 9999 FEW012 FEW020TCU SCT045 BKN080
                        13/08 Q1005=
200811011500 METAR LPPR 011500Z 33007KT 9999 FEW012 FEW020TCU SCT045 BKN080
                        13/08 Q1004=
200811011430 METAR LPPR 011430Z 33008KT 9999 FEW012 FEW020TCU SCT040 BKN070
                        13/09 Q1005=
200811011400 METAR LPPR 011400Z 33007KT 9999 FEW012 FEW020TCU SCT040 BKN070
                        13/09 Q1005=
200811011330 METAR LPPR 011330Z 32006KT 280V350 9999 FEW012 FEW020TCU
                        SCT030 BKN070 13/09 Q1004=
200811011300 METAR LPPR 011300Z 32006KT 280V340 9999 FEW012 FEW020TCU
                        SCT030 BKN070 13/08 Q1005=
200811011230 METAR LPPR 011230Z 32006KT 280V360 9000 FEW012 FEW017TCU
                        SCT030 BKN060 13/09 Q1005=
200811011200 METAR LPPR 011200Z 31005KT 280V350 9000 FEW013 FEW020TCU
                        SCT030 BKN060 13/09 Q1005=
200811011130 METAR LPPR 011130Z VRB03KT 9999 FEW013 FEW020TCU SCT030 13/08
                        Q1004=
200811011100 METAR LPPR 011100Z VRB02KT 9999 FEW013 SCT020 13/08 Q1004=
200811011030 METAR LPPR 011030Z VRB03KT 9999 SCT017 13/08 Q1004=
200811011000 METAR LPPR 011000Z VRB03KT 9999 FEW017 12/08 Q1003=
200811010930 METAR LPPR 010930Z 00000KT 9999 FEW016 10/08 Q1003=
200811010900 METAR LPPR 010900Z 00000KT 9999 FEW016 08/08 Q1003=
200811010830 METAR LPPR 010830Z 11004KT 9000 FEW012 SCT016 07/07 Q1003=
200811010800 METAR LPPR 010800Z 10004KT 9000 FEW012 SCT016 06/06 Q1002=
200811010730 METAR LPPR 010730Z 09004KT 8000 FEW020 SCT050 06/06 Q1002=
200811010700 METAR LPPR 010700Z 00000KT 8000 FEW020 SCT050 05/05 Q1001=
200811010630 METAR LPPR 010630Z VRB02KT 8000 BKN050 05/05 Q1001=
200811010600 METAR LPPR 010600Z 00000KT 7000 BKN050 04/04 Q1001=
200811010530 METAR LPPR 010530Z 00000KT 8000 SCT100 04/04 Q1001=
200811010500 METAR LPPR 010500Z 10004KT 8000 FEW090 05/05 Q1000=
200811010430 METAR LPPR 010430Z 00000KT 7000 FEW090 04/04 Q1000=
200811010400 METAR LPPR 010400Z 00000KT 6000 SKC 06/05 Q1000=
200811010330 METAR LPPR 010330Z 11005KT 7000 FEW080 06/06 Q0999=
200811010300 METAR LPPR 010300Z VRB03KT 8000 FEW080 06/05 Q1000=
200811010230 METAR LPPR 010230Z 10003KT 8000 FEW080 05/05 Q0999=
200811010200 METAR LPPR 010200Z 00000KT 8000 FEW080 05/05 Q0999=
200811010130 METAR LPPR 010130Z 00000KT CAVOK 06/06 Q0999=
200811010100 METAR LPPR 010100Z 36003KT 8000 FEW070 05/05 Q0999=
200811010030 METAR LPPR 010030Z 00000KT CAVOK 06/06 Q0999=
200811010000 METAR LPPR 010000Z 00000KT CAVOK 06/06 Q0999=
