##########################################################
# Query made at 11/07/2014 17:28:36 UTC
# Time interval: from 11/01/2012 00:00  to 12/01/2012 23:59  UTC
##########################################################

##########################################################
# LPPR, Porto / Pedras Rubras (Portugal)
# WMO index: 08545
# Latitude 41-14N. Longitude 008-41W. Altitude 69 m.
##########################################################

###################################
#  METAR/SPECI from LPPR
###################################
201212012330 METAR LPPR 012330Z 04005KT CAVOK 06/03 Q1022=
201212012300 METAR LPPR 012300Z 04003KT CAVOK 05/03 Q1022=
201212012230 METAR LPPR 012230Z 04005KT 350V050 CAVOK 05/04 Q1021=
201212012200 METAR LPPR 012200Z 01007KT CAVOK 06/03 Q1021=
201212012130 METAR LPPR 012130Z 01007KT CAVOK 05/03 Q1021=
201212012100 METAR LPPR 012100Z 02007KT CAVOK 06/04 Q1020=
201212012030 METAR LPPR 012030Z 01007KT CAVOK 06/04 Q1020=
201212012000 METAR LPPR 012000Z 36007KT CAVOK 06/04 Q1020=
201212011930 METAR LPPR 011930Z 36006KT CAVOK 07/04 Q1019=
201212011900 METAR LPPR 011900Z 36005KT 9999 FEW025 08/05 Q1019=
201212011830 METAR LPPR 011830Z 36008KT 330V030 9999 FEW025 08/05 Q1018=
201212011800 METAR LPPR 011800Z 35008KT 9999 FEW030 09/05 Q1018=
201212011730 METAR LPPR 011730Z 34009KT 9999 FEW030 10/05 Q1018=
201212011700 METAR LPPR 011700Z 33006KT 9999 FEW030 11/06 Q1017=
201212011630 METAR LPPR 011630Z 33007KT 9999 FEW030 11/06 Q1017=
201212011600 METAR LPPR 011600Z 34009KT 9999 FEW030 12/05 Q1017=
201212011530 METAR LPPR 011530Z 36010KT 320V020 9999 FEW030 12/05 Q1017=
201212011500 METAR LPPR 011500Z 33007KT 9999 FEW030 12/05 Q1017=
201212011430 METAR LPPR 011430Z 36012KT 310V020 9999 FEW030TCU 13/05 Q1017=
201212011400 METAR LPPR 011400Z 36011KT 320V040 9999 FEW023 FEW025CB 13/05
                        Q1017=
201212011330 METAR LPPR 011330Z 01011KT 9999 FEW023TCU 13/04 Q1017=
201212011300 METAR LPPR 011300Z 35010KT 9999 FEW020TCU 12/04 Q1017=
201212011230 METAR LPPR 011230Z 35011KT 310V010 9999 FEW018TCU 12/04 Q1017=
201212011200 METAR LPPR 011200Z 36012KT 9999 FEW018TCU 11/04 Q1017=
201212011130 METAR LPPR 011130Z 35010KT 9999 FEW020TCU 11/05 Q1018=
201212011100 METAR LPPR 011100Z 36011KT 9999 FEW019TCU 10/04 Q1018=
201212011030 METAR LPPR 011030Z 01007KT 340V040 9999 FEW018TCU 10/05 Q1017=
201212011000 METAR LPPR 011000Z 35006KT 9999 FEW018TCU 09/04 Q1017=
201212010930 METAR LPPR 010930Z 33004KT 300V020 9999 FEW018TCU 08/04 Q1017=
201212010900 METAR LPPR 010900Z 35006KT 9999 FEW017TCU 07/04 Q1016=
201212010830 METAR LPPR 010830Z 35006KT 9999 FEW016TCU 06/03 Q1016=
201212010800 METAR LPPR 010800Z 35007KT 9999 FEW016TCU 05/03 Q1016=
201212010730 METAR LPPR 010730Z 35008KT 9999 FEW015 05/03 Q1015=
201212010700 METAR LPPR 010700Z 35008KT CAVOK 05/03 Q1015=
201212010630 METAR LPPR 010630Z 35007KT CAVOK 06/03 Q1015=
201212010600 METAR LPPR 010600Z 35010KT CAVOK 06/03 Q1015=
201212010530 METAR LPPR 010530Z 35010KT CAVOK 06/03 Q1014=
201212010500 METAR LPPR 010500Z 35010KT CAVOK 06/03 Q1014=
201212010430 METAR LPPR 010430Z 35012KT CAVOK 06/03 Q1014=
201212010400 METAR LPPR 010400Z 35010KT CAVOK 06/03 Q1014=
201212010330 METAR LPPR 010330Z 36010KT CAVOK 06/03 Q1014=
201212010300 METAR LPPR 010300Z 35012KT CAVOK 07/04 Q1014=
201212010230 METAR LPPR 010230Z 35011KT CAVOK 07/03 Q1014=
201212010200 METAR LPPR 010200Z 36012KT CAVOK 07/04 Q1014=
201212010130 METAR LPPR 010130Z 35011KT CAVOK 07/04 Q1013=
201212010100 METAR LPPR 010100Z 35010KT CAVOK 07/04 Q1013=
201212010030 METAR LPPR 010030Z 36010KT CAVOK 08/04 Q1013=
201212010000 METAR LPPR 010000Z 36010KT CAVOK 07/04 Q1013=
201211302330 METAR LPPR 302330Z 35010KT CAVOK 07/04 Q1013=
201211302300 METAR LPPR 302300Z 35010KT CAVOK 07/05 Q1012=
201211302230 METAR LPPR 302230Z 35010KT CAVOK 07/04 Q1012=
201211302200 METAR LPPR 302200Z 35011KT CAVOK 08/05 Q1012=
201211302130 METAR LPPR 302130Z 35012KT CAVOK 08/05 Q1012=
201211302100 METAR LPPR 302100Z 36010KT CAVOK 08/05 Q1011=
201211302030 METAR LPPR 302030Z 35008KT CAVOK 08/05 Q1011=
201211302000 METAR LPPR 302000Z 35008KT CAVOK 09/05 Q1011=
201211301930 METAR LPPR 301930Z 35009KT CAVOK 09/06 Q1011=
201211301900 METAR LPPR 301900Z 36010KT CAVOK 10/06 Q1010=
201211301830 METAR LPPR 301830Z 35010KT CAVOK 10/06 Q1010=
201211301800 METAR LPPR 301800Z 34008KT CAVOK 10/06 Q1009=
201211301730 METAR LPPR 301730Z 36009KT CAVOK 10/06 Q1009=
201211301700 METAR LPPR 301700Z 35008KT 9999 FEW040 11/06 Q1009=
201211301630 METAR LPPR 301630Z 35009KT 9999 FEW030 11/06 Q1009=
201211301600 METAR LPPR 301600Z 36012KT 9999 FEW025 SCT048 12/06 Q1008=
201211301530 METAR LPPR 301530Z 36014KT 9999 SCT035 12/06 Q1008=
201211301500 METAR LPPR 301500Z 35012KT 9999 FEW030 SCT048 13/07 Q1008=
201211301430 METAR LPPR 301430Z 35010KT 310V020 9999 FEW030 12/07 Q1008=
201211301400 METAR LPPR 301400Z 36012KT 9999 FEW025 12/06 Q1008=
201211301330 METAR LPPR 301330Z 36015KT 9999 FEW025 12/06 Q1008=
201211301300 METAR LPPR 301300Z 36015KT 9999 FEW020 SCT027 12/07 Q1008=
201211301230 METAR LPPR 301230Z 01013KT 340V040 9999 FEW022 SCT035 11/07
                        Q1008=
201211301200 METAR LPPR 301200Z 01013KT 330V030 9999 SCT020 BKN025 11/07
                        Q1008=
201211301130 METAR LPPR 301130Z 01011KT 9999 FEW020 FEW025CB SCT030 11/08
                        Q1008=
201211301100 METAR LPPR 301100Z 35011KT 9999 SCT022 FEW025 BKN033 11/08
                        Q1009=
201211301030 METAR LPPR 301030Z 34010KT 9999 SCT020 FEW025CB BKN027 09/07
                        Q1009=
201211301000 METAR LPPR 301000Z 36011KT 320V020 9999 FEW018 FEW025CB BKN035
                        09/06 Q1009=
201211300930 METAR LPPR 300930Z 34009KT 310V010 9999 FEW018 FEW025CB BKN048
                        09/05 Q1009=
201211300900 METAR LPPR 300900Z 35010KT 9999 FEW018 FEW025CB BKN048 09/06
                        Q1009=
201211300830 METAR LPPR 300830Z 35007KT 9999 FEW015 FEW025CB 08/06 Q1009=
201211300800 METAR LPPR 300800Z 36011KT 9999 FEW012 FEW015CB 09/06 Q1009=
201211300730 METAR LPPR 300730Z 34009KT 9999 FEW017TCU BKN040 08/06 Q1009=
201211300700 METAR LPPR 300700Z 34006KT 9999 FEW031 SCT045 08/06 Q1009=
201211300630 METAR LPPR 300630Z 33005KT 290V360 9999 FEW032 SCT045 07/05
                        Q1009=
201211300600 METAR LPPR 300600Z 32005KT 9999 FEW032 SCT043 08/06 Q1009=
201211300530 METAR LPPR 300530Z 32006KT 9999 FEW042 08/06 Q1009=
201211300500 METAR LPPR 300500Z 35003KT 9999 -RA FEW015 SCT033 07/06 Q1010=
201211300430 METAR LPPR 300430Z 33006KT 9999 FEW016 08/06 Q1010=
201211300400 METAR LPPR 300400Z 32009KT 290V360 9999 -RA SCT013 BKN035
                        08/06 Q1010=
201211300330 METAR LPPR 300330Z 34012KT 300V010 9000 -RA SCT013 BKN035
                        08/06 Q1011=
201211300300 METAR LPPR 300300Z 29003KT 240V340 9999 FEW012 BKN030 08/07
                        Q1011=
201211300230 METAR LPPR 300230Z 33003KT 270V020 8000 -RA SCT030 07/06
                        Q1011=
201211300200 METAR LPPR 300200Z VRB02KT 9999 -RA SCT030 07/06 Q1011=
201211300130 METAR LPPR 300130Z 31003KT 9999 SCT032 07/06 Q1011=
201211300100 METAR LPPR 300100Z 03003KT 9999 FEW040 08/07 Q1011=
201211300030 METAR LPPR 300030Z 01003KT 330V090 5000 -RADZ BR FEW012 SCT026
                        BKN040 07/07 Q1012=
201211300000 METAR LPPR 300000Z VRB02KT 5000 -RADZ BR FEW012 SCT025 BKN038
                        08/07 Q1012=
201211292330 METAR LPPR 292330Z 00000KT 7000 -DZ FEW012 BKN046 08/07 Q1013=
201211292300 METAR LPPR 292300Z 16004KT 8000 -SHRA FEW015 SCT030 07/07
                        Q1013=
201211292230 METAR LPPR 292230Z 19003KT 130V260 8000 -RA FEW015 SCT027
                        BKN040 08/07 Q1014=
201211292200 METAR LPPR 292200Z 12004KT 090V150 8000 -SHRA FEW015 SCT025
                        BKN043 08/07 Q1014=
201211292130 METAR LPPR 292130Z 09004KT 350V140 9000 -RA FEW013 SCT030
                        BKN043 08/07 Q1014=
201211292100 METAR LPPR 292100Z 09004KT 030V110 8000 -RA FEW020 SCT030
                        BKN040 08/07 Q1015=
201211292030 METAR LPPR 292030Z VRB02KT 9000 -RA FEW020 SCT035 BKN045
                        09/07 Q1015=
201211292000 METAR LPPR 292000Z 15003KT 100V200 8000 -RA FEW020 SCT035
                        BKN045 09/07 Q1015=
201211291930 METAR LPPR 291930Z 18004KT 9999 FEW020 SCT035 BKN045 09/06
                        Q1016=
201211291900 METAR LPPR 291900Z 13004KT 020V180 9999 FEW020 SCT035 BKN040
                        09/07 Q1016=
201211291830 METAR LPPR 291830Z VRB01KT 9999 FEW020 BKN040 08/06 Q1017=
201211291800 METAR LPPR 291800Z 36002KT 9999 FEW020 SCT040 08/06 Q1017=
201211291730 METAR LPPR 291730Z 34002KT 9999 FEW020 SCT030 09/05 Q1017=
201211291700 METAR LPPR 291700Z 33004KT 9999 FEW020 SCT045 10/05 Q1017=
201211291630 METAR LPPR 291630Z 33008KT 300V360 9999 FEW025 BKN045 11/05
                        Q1018=
201211291600 METAR LPPR 291600Z 33009KT 9999 FEW025 BKN048 11/05 Q1018=
201211291530 METAR LPPR 291530Z 33007KT 300V360 9999 FEW030 12/05 Q1018=
201211291500 METAR LPPR 291500Z 33007KT 270V360 9999 FEW030 12/06 Q1018=
201211291430 METAR LPPR 291430Z 32007KT 280V350 9999 FEW030 12/06 Q1019=
201211291400 METAR LPPR 291400Z 34007KT 300V010 9999 SCT030 12/06 Q1019=
201211291330 METAR LPPR 291330Z 35005KT 290V060 9999 FEW025 12/05 Q1019=
201211291300 METAR LPPR 291300Z 35008KT 300V040 9999 FEW025 12/05 Q1020=
201211291230 METAR LPPR 291230Z 34007KT 280V020 9999 FEW020 12/05 Q1020=
201211291200 METAR LPPR 291200Z 34009KT 9999 FEW020 11/05 Q1021=
201211291130 METAR LPPR 291130Z 01007KT 340V040 9999 FEW020 11/05 Q1021=
201211291100 METAR LPPR 291100Z 36007KT CAVOK 10/05 Q1021=
201211291030 METAR LPPR 291030Z 01007KT CAVOK 09/05 Q1021=
201211291000 METAR LPPR 291000Z 03006KT CAVOK 09/05 Q1021=
201211290930 METAR LPPR 290930Z 03008KT 350V050 9999 FEW018 08/04 Q1021=
201211290900 METAR LPPR 290900Z 03006KT 330V050 9999 FEW018 06/04 Q1021=
201211290830 METAR LPPR 290830Z 03005KT 010V070 9999 FEW020 05/04 Q1021=
201211290800 METAR LPPR 290800Z 02003KT 340V050 9999 FEW015 04/03 Q1021=
201211290730 METAR LPPR 290730Z 36005KT CAVOK 04/03 Q1021=
201211290700 METAR LPPR 290700Z 02005KT 350V060 9999 FEW016 04/03 Q1020=
201211290630 METAR LPPR 290630Z 35004KT 330V030 CAVOK 05/04 Q1020=
201211290600 METAR LPPR 290600Z 36004KT CAVOK 05/04 Q1020=
201211290530 METAR LPPR 290530Z 02003KT 340V070 CAVOK 05/03 Q1020=
201211290500 METAR LPPR 290500Z 02003KT 340V050 CAVOK 04/03 Q1020=
201211290430 METAR LPPR 290430Z 05003KT 020V090 CAVOK 04/03 Q1019=
201211290400 METAR LPPR 290400Z 01003KT CAVOK 04/02 Q1019=
201211290330 METAR LPPR 290330Z 35006KT CAVOK 04/03 Q1019=
201211290300 METAR LPPR 290300Z 01003KT CAVOK 03/02 Q1019=
201211290230 METAR LPPR 290230Z 04004KT 360V060 CAVOK 04/03 Q1019=
201211290200 METAR LPPR 290200Z 01003KT 340V050 CAVOK 05/03 Q1019=
201211290130 METAR LPPR 290130Z VRB01KT CAVOK 04/03 Q1019=
201211290100 METAR LPPR 290100Z 02001KT CAVOK 04/03 Q1019=
201211290030 METAR LPPR 290030Z 35004KT CAVOK 05/04 Q1019=
201211290000 METAR LPPR 290000Z 08006KT CAVOK 06/04 Q1019=
201211282330 METAR LPPR 282330Z 08005KT CAVOK 07/04 Q1019=
201211282300 METAR LPPR 282300Z 36006KT 320V050 CAVOK 07/04 Q1019=
201211282230 METAR LPPR 282230Z 01005KT CAVOK 06/04 Q1019=
201211282200 METAR LPPR 282200Z 35006KT CAVOK 07/04 Q1019=
201211282130 METAR LPPR 282130Z 35007KT CAVOK 07/04 Q1018=
201211282100 METAR LPPR 282100Z 35008KT CAVOK 08/05 Q1018=
201211282030 METAR LPPR 282030Z 33010KT 9999 FEW023TCU 09/05 Q1018=
201211282000 METAR LPPR 282000Z 34008KT 9999 FEW023TCU 09/04 Q1018=
201211281930 METAR LPPR 281930Z 35011KT 9999 FEW023TCU SCT045 09/04 Q1018=
201211281900 METAR LPPR 281900Z 35012KT 9999 FEW023TCU 09/05 Q1017=
201211281830 METAR LPPR 281830Z 34013KT 9999 FEW023TCU 10/05 Q1017=
201211281800 METAR LPPR 281800Z 34013KT 9999 FEW023TCU SCT034 10/05 Q1017=
201211281730 METAR LPPR 281730Z 33011KT 9999 FEW023TCU SCT034 10/06 Q1017=
201211281700 METAR LPPR 281700Z 34012KT 9999 FEW023TCU SCT035 11/06 Q1016=
201211281630 METAR LPPR 281630Z 34010KT 9999 FEW023TCU SCT034 11/06 Q1016=
201211281600 METAR LPPR 281600Z 33010KT 9999 FEW023TCU SCT034 12/06 Q1016=
201211281530 METAR LPPR 281530Z 34012KT 310V010 9999 FEW023TCU SCT027
                        12/07 Q1016=
201211281500 METAR LPPR 281500Z 35013KT 9999 FEW023TCU SCT028 13/05 Q1016=
201211281430 METAR LPPR 281430Z 34011KT 9999 FEW023TCU 13/06 Q1016=
201211281400 METAR LPPR 281400Z 35014KT 9999 FEW023 13/05 Q1016=
201211281330 METAR LPPR 281330Z 34011KT 310V030 9999 FEW023 13/06 Q1016=
201211281300 METAR LPPR 281300Z 34004KT 240V030 9999 FEW023 13/06 Q1016=
201211281230 METAR LPPR 281230Z 35005KT 300V030 9999 FEW020 12/07 Q1017=
201211281200 METAR LPPR 281200Z 35006KT 310V030 9999 FEW020 11/06 Q1017=
201211281130 METAR LPPR 281130Z 35007KT 9999 FEW023 11/07 Q1017=
201211281100 METAR COR LPPR 281100Z 36006KT 320V020 9999 FEW022 FEW030CB
                        10/06 Q1017=
201211281030 METAR LPPR 281030Z VRB02KT 9999 FEW022 FEW030CB 09/05 Q1017=
201211281000 METAR LPPR 281000Z 13003KT 100V170 9999 FEW020 FEW025CB 09/05
                        Q1017=
201211280930 METAR LPPR 280930Z VRB02KT 9999 FEW020 07/04 Q1017=
201211280900 METAR LPPR 280900Z 11004KT 030V160 9999 FEW020 06/04 Q1017=
201211280830 METAR LPPR 280830Z 11006KT 9999 FEW022 04/02 Q1016=
201211280800 METAR LPPR 280800Z 15004KT 120V190 9999 BKN023 04/02 Q1016=
201211280730 METAR LPPR 280730Z 11004KT 9999 SCT023 03/01 Q1016=
201211280700 METAR LPPR 280700Z VRB05KT 9999 FEW035 03/02 Q1016=
201211280630 METAR LPPR 280630Z 13003KT CAVOK 02/01 Q1015=
201211280600 METAR LPPR 280600Z 00000KT CAVOK 01/M00 Q1015=
201211280530 METAR LPPR 280530Z 00000KT CAVOK 02/01 Q1015=
201211280500 METAR LPPR 280500Z 13002KT CAVOK 01/00 Q1015=
201211280430 METAR LPPR 280430Z VRB02KT CAVOK 02/01 Q1015=
201211280400 METAR LPPR 280400Z VRB02KT CAVOK 01/00 Q1015=
201211280330 METAR LPPR 280330Z 12002KT CAVOK 02/02 Q1015=
201211280300 METAR LPPR 280300Z 35003KT CAVOK 03/02 Q1015=
201211280230 METAR LPPR 280230Z VRB02KT CAVOK 04/02 Q1015=
201211280200 METAR LPPR 280200Z VRB02KT CAVOK 03/02 Q1015=
201211280130 METAR LPPR 280130Z VRB02KT CAVOK 03/01 Q1015=
201211280100 METAR LPPR 280100Z 35005KT CAVOK 05/02 Q1015=
201211280030 METAR LPPR 280030Z 35005KT CAVOK 04/02 Q1015=
201211280000 METAR LPPR 280000Z 02004KT CAVOK 05/02 Q1015=
201211272330 METAR LPPR 272330Z 36005KT CAVOK 04/02 Q1014=
201211272300 METAR LPPR 272300Z 34004KT CAVOK 06/03 Q1014=
201211272230 METAR LPPR 272230Z 35006KT CAVOK 06/03 Q1014=
201211272200 METAR LPPR 272200Z 35005KT CAVOK 06/04 Q1014=
201211272130 METAR LPPR 272130Z 34004KT 320V040 CAVOK 07/04 Q1014=
201211272100 METAR LPPR 272100Z 02003KT CAVOK 06/04 Q1014=
201211272030 METAR LPPR 272030Z 35004KT 9999 SCT048 07/04 Q1013=
201211272000 METAR LPPR 272000Z 01007KT 340V060 9999 BKN048 07/04 Q1013=
201211271930 METAR LPPR 271930Z 36005KT 330V030 9999 SCT048 07/04 Q1013=
201211271900 METAR LPPR 271900Z 35005KT 9999 BKN045 08/04 Q1013=
201211271830 METAR LPPR 271830Z 36004KT 9999 FEW020 SCT045 07/04 Q1013=
201211271800 METAR LPPR 271800Z 35007KT 9999 FEW020 SCT045 09/04 Q1013=
201211271730 METAR LPPR 271730Z 35009KT 9999 FEW020 SCT045 09/05 Q1013=
201211271700 METAR LPPR 271700Z 34008KT 9999 FEW020 SCT045 09/05 Q1012=
201211271630 METAR LPPR 271630Z 33009KT 9999 FEW024TCU SCT045 10/04 Q1013=
201211271600 METAR LPPR 271600Z 33007KT 9999 FEW024TCU SCT049 10/06 Q1013=
201211271530 METAR LPPR 271530Z 33008KT 290V360 9999 SCT024TCU SCT045
                        10/06 Q1013=
201211271500 METAR LPPR 271500Z 33008KT 9999 FEW024TCU SCT045 10/06 Q1013=
201211271430 METAR LPPR 271430Z 33008KT 280V010 9999 -SHRA SCT025TCU SCT043
                        BKN049 10/05 Q1013=
201211271400 METAR LPPR 271400Z 32009KT 9999 FEW025TCU SCT031 11/05 Q1013=
201211271330 METAR LPPR 271330Z 32008KT 290V010 9999 FEW025TCU SCT031
                        12/06 Q1014=
201211271300 METAR LPPR 271300Z 34009KT 300V360 9999 FEW020 FEW025TCU
                        SCT036 12/05 Q1014=
201211271230 METAR LPPR 271230Z 33006KT 290V010 9999 FEW017 11/05 Q1015=
201211271200 METAR LPPR 271200Z 34006KT 290V010 9999 FEW017 11/05 Q1015=
201211271130 METAR LPPR 271130Z 35007KT 9999 FEW015 10/05 Q1016=
201211271100 METAR LPPR 271100Z 01006KT 340V040 9999 FEW015 10/05 Q1016=
201211271030 METAR LPPR 271030Z 35005KT 9999 FEW015 09/05 Q1016=
201211271000 METAR LPPR 271000Z 02003KT 350V090 9999 FEW012 09/05 Q1016=
201211270930 METAR LPPR 270930Z VRB01KT 9999 FEW015 07/06 Q1016=
201211270900 METAR LPPR 270900Z VRB01KT 9999 FEW015 06/05 Q1016=
201211270830 METAR LPPR 270830Z 05002KT 9999 SCT015 03/03 Q1016=
201211270800 METAR LPPR 270800Z VRB01KT CAVOK 02/02 Q1016=
201211270730 METAR LPPR 270730Z VRB02KT CAVOK 02/02 Q1016=
201211270700 METAR LPPR 270700Z VRB02KT CAVOK 03/03 Q1016=
201211270630 METAR LPPR 270630Z VRB01KT CAVOK 02/02 Q1015=
201211270600 METAR LPPR 270600Z VRB02KT CAVOK 03/02 Q1015=
201211270530 METAR LPPR 270530Z 36002KT CAVOK 02/02 Q1015=
201211270500 METAR LPPR 270500Z 03001KT CAVOK 03/02 Q1016=
201211270430 METAR LPPR 270430Z 36002KT CAVOK 03/02 Q1016=
201211270400 METAR LPPR 270400Z 34004KT CAVOK 05/04 Q1016=
201211270330 METAR LPPR 270330Z 35002KT CAVOK 04/03 Q1016=
201211270300 METAR LPPR 270300Z 00000KT CAVOK 03/03 Q1016=
201211270230 METAR LPPR 270230Z 35002KT CAVOK 03/03 Q1016=
201211270200 METAR LPPR 270200Z 36002KT CAVOK 03/03 Q1016=
201211270130 METAR LPPR 270130Z 02002KT CAVOK 05/04 Q1016=
201211270100 METAR LPPR 270100Z 01002KT 9999 FEW040 05/04 Q1016=
201211270030 METAR LPPR 270030Z 34002KT 9999 FEW045 04/03 Q1017=
201211270000 METAR LPPR 270000Z VRB02KT 9999 FEW040 06/05 Q1017=
201211262330 METAR LPPR 262330Z 35001KT 9999 FEW040 05/04 Q1017=
201211262300 METAR LPPR 262300Z 00000KT 9999 FEW040 05/04 Q1017=
201211262230 METAR LPPR 262230Z 02003KT 340V060 9999 FEW045 06/04 Q1017=
201211262200 METAR LPPR 262200Z 11001KT 9999 FEW045 07/06 Q1017=
201211262130 METAR LPPR 262130Z 36003KT 330V060 9999 FEW035 07/06 Q1017=
201211262100 METAR LPPR 262100Z VRB02KT 9999 SCT035 07/06 Q1017=
201211262030 METAR LPPR 262030Z 04003KT 020V090 9999 SCT035 07/06 Q1017=
201211262000 METAR LPPR 262000Z 34003KT 320V020 9999 FEW048 07/05 Q1017=
201211261930 METAR LPPR 261930Z 33005KT 9999 FEW025 SCT040 08/06 Q1017=
201211261900 METAR LPPR 261900Z 34003KT 300V050 9999 -SHRA FEW025 SCT040
                        09/06 Q1017=
201211261830 METAR LPPR 261830Z 34005KT 9999 FEW025 FEW030CB SCT036 09/06
                        Q1017=
201211261800 METAR LPPR 261800Z 34008KT 9999 -SHRA FEW025 FEW030CB SCT036
                        10/06 Q1017=
201211261730 METAR LPPR 261730Z 34003KT 9999 FEW025 FEW030CB 09/07 Q1017=
201211261700 METAR LPPR 261700Z 34005KT 9999 FEW025 FEW030CB 10/07 Q1017=
201211261630 METAR LPPR 261630Z 36007KT 9999 SCT025 FEW030CB 10/07 Q1017=
201211261600 METAR LPPR 261600Z 33011G22KT 300V020 8000 -SHRA BKN025 FEW030CB
                        10/08 Q1017=
201211261530 METAR LPPR 261530Z 32006KT 280V360 9999 FEW025 FEW030CB 12/08
                        Q1017=
201211261500 METAR LPPR 261500Z 32006KT 280V350 9999 FEW025 FEW030CB 12/08
                        Q1017=
201211261430 METAR LPPR 261430Z 32007KT 270V340 9999 FEW020 FEW030CB 13/08
                        Q1017=
201211261400 METAR LPPR 261400Z 30006KT 240V360 9999 FEW020 FEW030CB 12/08
                        Q1017=
201211261330 METAR LPPR 261330Z 29005KT 260V330 9999 FEW020 SCT035CB 12/07
                        Q1017=
201211261300 METAR LPPR 261300Z 31005KT 280V340 9999 VCSH FEW020 SCT038CB
                        13/07 Q1017=
201211261230 METAR LPPR 261230Z 35006KT 290V060 9999 FEW017 FEW033CB 13/07
                        Q1018=
201211261200 METAR LPPR 261200Z 34005KT 300V010 9999 VCSH FEW015 FEW033CB
                        SCT040 13/08 Q1018=
201211261130 METAR LPPR 261130Z 29005KT 250V310 9999 -SHRA FEW018 FEW038CB
                        SCT048 11/08 Q1019=
201211261100 METAR LPPR 261100Z 03009KT 9999 VCSH FEW018 FEW039CB 13/07
                        Q1019=
201211261030 METAR LPPR 261030Z 03006KT 350V070 9999 FEW017 FEW025TCU
                        12/08 Q1019=
201211261000 METAR LPPR 261000Z 02004KT 9999 FEW016 FEW025TCU 12/10 Q1018=
201211260930 METAR LPPR 260930Z 36004KT 9999 FEW016 FEW025TCU 10/10 Q1018=
201211260900 METAR LPPR 260900Z VRB02KT 9999 VCSH FEW025TCU SCT040 10/10
                        Q1018=
201211260830 METAR LPPR 260830Z 00000KT 9000 MIFG VCSH FEW020 FEW025TCU
                        08/08 Q1018=
201211260800 METAR LPPR 260800Z 02003KT 300V080 8000 0500N R35/P2000 -RA
                        PRFG FEW003 SCT020 08/08 Q1018=
201211260730 METAR LPPR 260730Z VRB01KT 8000 FEW020 BKN040 09/09 Q1017=
201211260700 METAR LPPR 260700Z 13004KT 9000 BKN040 09/09 Q1017=
201211260630 METAR LPPR 260630Z 12004KT 100V190 9000 BKN040 09/09 Q1017=
201211260600 METAR LPPR 260600Z 11002KT 9000 BKN040 09/08 Q1017=
201211260530 METAR LPPR 260530Z VRB02KT 9000 FEW020 BKN040 09/09 Q1017=
201211260500 METAR LPPR 260500Z 13005KT 9000 FEW020 BKN040 09/09 Q1017=
201211260430 METAR LPPR 260430Z 12005KT 060V140 9000 FEW025 BKN040 09/09
                        Q1017=
201211260400 METAR LPPR 260400Z VRB03KT 7000 -RA SCT010 BKN025 09/09 Q1017=
201211260330 METAR LPPR 260330Z 13003KT 6000 -RA FEW010 BKN020 09/08 Q1017=
201211260300 METAR LPPR 260300Z 03003KT 360V070 6000 -RA SCT011 BKN020
                        09/08 Q1017=
201211260230 METAR LPPR 260230Z 15003KT 100V180 8000 -RA FEW012 BKN020
                        10/07 Q1017=
201211260200 METAR LPPR 260200Z 15006KT 120V200 9999 FEW020 BKN030 10/07
                        Q1017=
201211260130 METAR LPPR 260130Z 12006KT 9999 FEW025 BKN040 10/07 Q1017=
201211260100 METAR LPPR 260100Z 14005KT 9999 FEW025 BKN040 09/07 Q1017=
201211260030 METAR LPPR 260030Z VRB02KT 9999 SCT025 BKN040 08/06 Q1018=
201211260000 METAR LPPR 260000Z 14002KT 9999 FEW025 08/06 Q1018=
201211252330 METAR LPPR 252330Z VRB01KT 9999 FEW030 09/06 Q1018=
201211252300 METAR LPPR 252300Z 35002KT 9999 FEW025 10/06 Q1017=
201211252230 METAR LPPR 252230Z 35005KT 9999 FEW040 09/06 Q1017=
201211252200 METAR LPPR 252200Z 01002KT 9999 FEW040 10/07 Q1017=
201211252130 METAR LPPR 252130Z 35004KT 9999 FEW040 10/07 Q1017=
201211252100 METAR LPPR 252100Z 35006KT 9999 FEW040 10/07 Q1017=
201211252030 METAR LPPR 252030Z 34006KT 9999 FEW040 11/07 Q1017=
201211252000 METAR LPPR 252000Z 34006KT 9999 FEW040 11/07 Q1017=
201211251930 METAR LPPR 251930Z 35007KT 9999 FEW040 11/08 Q1017=
201211251900 METAR LPPR 251900Z 34007KT 9999 FEW040 12/08 Q1017=
201211251830 METAR LPPR 251830Z 33007KT 9999 FEW040 12/08 Q1016=
201211251800 METAR LPPR 251800Z 33005KT 9999 FEW040 12/09 Q1016=
201211251730 METAR LPPR 251730Z 34004KT 9999 FEW040 12/09 Q1016=
201211251700 METAR LPPR 251700Z 33004KT 9999 FEW020 12/10 Q1016=
201211251630 METAR LPPR 251630Z 33005KT 9999 FEW015 13/10 Q1016=
201211251600 METAR LPPR 251600Z 33004KT 9999 SCT016 13/10 Q1016=
201211251530 METAR LPPR 251530Z 34004KT 9999 FEW010 SCT016 13/10 Q1016=
201211251500 METAR LPPR 251500Z 30003KT 270V330 9999 FEW010 SCT016 13/10
                        Q1016=
201211251430 METAR LPPR 251430Z VRB02KT 9999 FEW010 13/10 Q1016=
201211251400 METAR LPPR 251400Z 36003KT 320V040 9999 FEW010 13/10 Q1016=
201211251330 METAR LPPR 251330Z 36005KT 330V030 9999 SCT010 13/10 Q1016=
201211251300 METAR LPPR 251300Z 36004KT 330V040 9999 FEW010 SCT025 13/11
                        Q1016=
201211251230 METAR LPPR 251230Z 01005KT 350V050 9999 -RA FEW010 SCT024
                        12/10 Q1017=
201211251200 METAR LPPR 251200Z 05004KT 9999 -RA FEW010 BKN023 12/10 Q1017=
201211251130 METAR LPPR 251130Z 04003KT 9999 -RA FEW010 BKN018 12/10 Q1017=
201211251100 METAR LPPR 251100Z 33004KT 290V010 9999 -RA FEW012 BKN018
                        11/10 Q1018=
201211251030 METAR LPPR 251030Z 35003KT 300V080 9999 -RA FEW010 SCT020
                        12/10 Q1017=
201211251000 METAR LPPR 251000Z VRB02KT 9000 -RA FEW010 SCT025 11/10 Q1017=
201211250930 METAR LPPR 250930Z VRB02KT 9999 -RA FEW028 11/09 Q1017=
201211250900 METAR LPPR 250900Z 31003KT 280V350 9999 -RA SCT029 11/09
                        Q1017=
201211250830 METAR LPPR 250830Z VRB02KT 9999 -RA FEW031 11/09 Q1016=
201211250800 METAR LPPR 250800Z 36003KT 330V050 9999 FEW032 10/09 Q1016=
201211250730 METAR LPPR 250730Z 02004KT 330V120 9999 SCT036 BKN090 11/09
                        Q1016=
201211250700 METAR LPPR 250700Z VRB02KT 9999 BKN035 11/09 Q1016=
201211250630 METAR LPPR 250630Z 04005KT 9999 BKN035 11/08 Q1016=
201211250600 METAR LPPR 250600Z 34005KT 9999 FEW028 BKN035 11/08 Q1016=
201211250530 METAR LPPR 250530Z 36004KT 9999 SCT028 BKN035 10/08 Q1016=
201211250500 METAR LPPR 250500Z 01005KT 9999 FEW028 OVC035 10/08 Q1016=
201211250430 METAR LPPR 250430Z 35007KT 9999 BKN032 BKN042 11/08 Q1016=
201211250400 METAR LPPR 250400Z 34007KT 9999 SCT035 BKN046 10/08 Q1016=
201211250330 METAR LPPR 250330Z 34006KT 9999 BKN042 10/08 Q1016=
201211250300 METAR LPPR 250300Z 35006KT 9999 SCT045 11/08 Q1017=
201211250230 METAR LPPR 250230Z 35005KT 9999 SCT045 10/08 Q1017=
201211250200 METAR LPPR 250200Z 35005KT 9999 SCT045 10/08 Q1017=
201211250130 METAR LPPR 250130Z 01004KT 9999 SCT045 10/08 Q1017=
201211250100 METAR LPPR 250100Z 02004KT 9999 BKN040 11/09 Q1017=
201211250030 METAR LPPR 250030Z 36004KT 9999 SCT040 10/08 Q1018=
201211250000 METAR LPPR 250000Z 35005KT 9999 FEW040 10/08 Q1018=
201211242330 METAR LPPR 242330Z 34007KT 9999 FEW040 11/09 Q1018=
201211242300 METAR LPPR 242300Z 35006KT 9999 FEW040 10/08 Q1018=
201211242230 METAR LPPR 242230Z 35006KT 340V040 9999 FEW040 10/09 Q1018=
201211242200 METAR LPPR 242200Z 35005KT 9999 FEW040 10/09 Q1018=
201211242130 METAR LPPR 242130Z 36003KT 9999 SCT040 11/09 Q1018=
201211242100 METAR LPPR 242100Z 35005KT 9999 FEW040 11/09 Q1018=
201211242030 METAR LPPR 242030Z 34005KT 9999 FEW040 11/10 Q1018=
201211242000 METAR LPPR 242000Z 36006KT 320V020 9999 FEW022 11/09 Q1018=
201211241930 METAR LPPR 241930Z 34005KT 310V010 9999 FEW022 12/10 Q1017=
201211241900 METAR LPPR 241900Z 36006KT 9999 FEW020 BKN040 13/11 Q1017=
201211241830 METAR LPPR 241830Z 35006KT 9999 BKN040 14/11 Q1017=
201211241800 METAR LPPR 241800Z 36006KT 320V030 9999 BKN040 14/11 Q1017=
201211241730 METAR LPPR 241730Z 35007KT 9999 BKN040 14/11 Q1016=
201211241700 METAR LPPR 241700Z 35006KT 9999 BKN040 14/11 Q1016=
201211241630 METAR LPPR 241630Z 34006KT 9999 FEW030 BKN040 14/11 Q1016=
201211241600 METAR LPPR 241600Z 35006KT 310V010 9999 FEW020 BKN040 15/11
                        Q1016=
201211241530 METAR LPPR 241530Z 34006KT 9999 FEW019 BKN040 15/11 Q1015=
201211241500 METAR LPPR 241500Z 34008KT 9999 FEW018 BKN040 15/11 Q1015=
201211241430 METAR LPPR 241430Z 35008KT 9999 SCT015 BKN030 15/12 Q1015=
201211241400 METAR LPPR 241400Z 35006KT 9999 FEW013 BKN030 15/12 Q1015=
201211241330 METAR LPPR 241330Z 33008KT 300V360 9999 FEW011 BKN030 15/12
                        Q1015=
201211241300 METAR LPPR 241300Z 32006KT 270V360 8000 FEW009 SCT015 BKN030
                        14/12 Q1015=
201211241230 METAR LPPR 241230Z 29005KT 240V330 9999 SCT015 BKN040 16/12
                        Q1015=
201211241200 METAR LPPR 241200Z 30004KT 260V340 9999 FEW020 BKN040 15/12
                        Q1015=
201211241130 METAR LPPR 241130Z 29004KT 260V340 9999 SCT015 BKN025 15/12
                        Q1015=
201211241100 METAR LPPR 241100Z VRB06KT 9999 FEW014 BKN025 15/13 Q1014=
201211241030 METAR LPPR 241030Z 25005KT 170V300 9999 SCT014 BKN025 15/13
                        Q1014=
201211241000 METAR LPPR 241000Z 23008KT 200V290 9999 FEW011 BKN015 15/13
                        Q1013=
201211240930 METAR LPPR 240930Z 23010KT 190V250 9999 FEW010 BKN015 15/13
                        Q1013=
201211240900 METAR LPPR 240900Z 22008KT 190V270 9000 FEW004 BKN015 15/14
                        Q1012=
201211240830 METAR LPPR 240830Z 20014KT 5000 -RA BR FEW003 SCT005 BKN013
                        15/14 Q1012=
201211240800 METAR LPPR 240800Z 20017KT 170V230 1500 +RADZ BR BKN003 BKN008
                        15/14 Q1011=
201211240730 METAR LPPR 240730Z 18022KT 4500 R17/1300VP2000D -DZ BR FEW008
                        BKN012 BKN030 15/13 Q1010=
201211240700 METAR LPPR 240700Z 17023G40KT 8000 -DZ FEW010 BKN014 15/13
                        Q1009=
201211240630 METAR LPPR 240630Z 17025G37KT 5000 R17/1400VP2000D -DZ BKN013
                        BKN026 14/13 Q1009=
201211240600 METAR LPPR 240600Z 17026G40KT 7000 -DZ FEW012 BKN016 BKN025
                        15/13 Q1009=
201211240530 METAR LPPR 240530Z 17023G34KT 8000 -DZ BKN014 BKN021 15/13
                        Q1009=
201211240500 METAR LPPR 240500Z 17024KT 9999 -DZ FEW018 BKN023 15/13 Q1009=
201211240430 METAR LPPR 240430Z 18023G35KT 5000 -DZRA BR FEW018 BKN025
                        15/12 Q1009=
201211240400 METAR LPPR 240400Z 17023G35KT 6000 -DZRA SCT024 BKN049 15/12
                        Q1009=
201211240330 METAR LPPR 240330Z 17027KT 9999 SCT024 16/12 Q1009=
201211240300 METAR LPPR 240300Z 16022G32KT 9999 -RA FEW027 15/12 Q1009=
201211240230 METAR LPPR 240230Z 17024KT 9999 -RA FEW028 SCT040 16/12 Q1010=
201211240200 METAR LPPR 240200Z 16025KT 9999 -RA FEW029 16/12 Q1010=
201211240130 METAR LPPR 240130Z 17021G31KT 9999 SCT030 16/11 Q1011=
201211240100 METAR LPPR 240100Z 17020KT 9999 FEW028 BKN035 16/11 Q1011=
201211240030 METAR LPPR 240030Z 17019KT 9999 FEW033 BKN045 16/11 Q1012=
201211240000 METAR LPPR 240000Z 17016KT 9999 SCT031 SCT045 16/10 Q1012=
201211232330 METAR LPPR 232330Z 17015KT 9999 SCT030 BKN047 16/10 Q1012=
201211232300 METAR LPPR 232300Z 17015KT 9999 SCT030 BKN040 15/09 Q1012=
201211232230 METAR LPPR 232230Z 16013KT 9999 SCT030 BKN035 15/09 Q1013=
201211232200 METAR LPPR 232200Z 16011KT 9999 BKN035 BKN045 15/09 Q1013=
201211232130 METAR LPPR 232130Z 15012KT 9999 BKN037 BKN045 15/09 Q1013=
201211232100 METAR LPPR 232100Z 15010KT 9999 BKN037 BKN045 15/09 Q1013=
201211232030 METAR LPPR 232030Z 15011KT 9999 BKN040 15/09 Q1013=
201211232000 METAR LPPR 232000Z 15011KT 9999 BKN042 14/09 Q1013=
201211231930 METAR LPPR 231930Z 15013KT 9999 BKN042 14/09 Q1013=
201211231900 METAR LPPR 231900Z 16014KT 9999 SCT043 15/09 Q1014=
201211231830 METAR LPPR 231830Z 17016KT CAVOK 15/09 Q1014=
201211231800 METAR LPPR 231800Z 16017KT 9999 FEW044 15/09 Q1014=
201211231730 METAR LPPR 231730Z 17019KT 9999 FEW043 15/08 Q1014=
201211231700 METAR LPPR 231700Z 17017KT 9999 FEW043 14/09 Q1014=
201211231630 METAR LPPR 231630Z 16016KT 9999 FEW047 14/09 Q1014=
201211231600 METAR LPPR 231600Z 16017KT CAVOK 15/09 Q1015=
201211231530 METAR LPPR 231530Z 16016KT CAVOK 14/09 Q1015=
201211231500 METAR LPPR 231500Z 15019KT CAVOK 14/09 Q1015=
201211231430 METAR LPPR 231430Z 17015KT CAVOK 14/09 Q1015=
201211231400 METAR LPPR 231400Z 17015KT CAVOK 14/09 Q1015=
201211231330 METAR LPPR 231330Z 17015KT 9999 FEW030 14/10 Q1016=
201211231300 METAR LPPR 231300Z 18014KT 9999 FEW030 14/10 Q1017=
201211231230 METAR LPPR 231230Z 18017KT 9999 FEW030 14/09 Q1017=
201211231200 METAR LPPR 231200Z 18014KT 9999 SCT025 BKN035 14/09 Q1017=
201211231130 METAR LPPR 231130Z 17013KT 9999 FEW030 14/09 Q1018=
201211231100 METAR LPPR 231100Z 15008KT 9999 FEW030 13/09 Q1018=
201211231030 METAR LPPR 231030Z 15009KT 9999 FEW022 BKN030 12/09 Q1018=
201211231000 METAR LPPR 231000Z 14008KT 9999 FEW020 SCT026 12/09 Q1017=
201211230930 METAR LPPR 230930Z 14008KT 9999 SCT019 11/09 Q1018=
201211230900 METAR LPPR 230900Z 14007KT 9999 FEW040 10/08 Q1018=
201211230830 METAR LPPR 230830Z 14008KT 9999 FEW040 09/07 Q1017=
201211230800 METAR LPPR 230800Z 13009KT 9999 FEW035 10/07 Q1018=
201211230730 METAR LPPR 230730Z 14009KT 9999 FEW025 SCT030 09/07 Q1018=
201211230700 METAR LPPR 230700Z 14007KT 9999 SCT029 09/07 Q1017=
201211230630 METAR LPPR 230630Z 14006KT 9999 SCT035 09/07 Q1017=
201211230600 METAR LPPR 230600Z 13007KT 9999 FEW035 09/07 Q1017=
201211230530 METAR LPPR 230530Z 12007KT 9999 SCT035 09/07 Q1018=
201211230500 METAR LPPR 230500Z 12008KT 9999 SCT036 09/07 Q1018=
201211230430 METAR LPPR 230430Z 12007KT 9999 BKN036 08/06 Q1018=
201211230400 METAR LPPR 230400Z 12008KT 9999 BKN035 09/06 Q1018=
201211230330 METAR LPPR 230330Z 13006KT 9999 BKN034 08/06 Q1019=
201211230300 METAR LPPR 230300Z 13004KT 9999 SCT030 08/06 Q1019=
201211230230 METAR LPPR 230230Z 14003KT 100V200 9999 SCT030 08/06 Q1019=
201211230200 METAR LPPR 230200Z 12005KT 9999 SCT029 07/06 Q1019=
201211230130 METAR LPPR 230130Z 13005KT 9999 SCT029 08/06 Q1019=
201211230100 METAR LPPR 230100Z 13004KT CAVOK 08/05 Q1019=
201211230030 METAR LPPR 230030Z 14003KT CAVOK 08/06 Q1019=
201211230000 METAR LPPR 230000Z 14004KT CAVOK 08/06 Q1019=
201211222330 METAR LPPR 222330Z 14007KT CAVOK 08/05 Q1019=
201211222300 METAR LPPR 222300Z 13008KT CAVOK 09/06 Q1019=
201211222230 METAR LPPR 222230Z 13008KT 100V170 CAVOK 09/06 Q1020=
201211222200 METAR LPPR 222200Z 13008KT CAVOK 10/06 Q1020=
201211222130 METAR LPPR 222130Z 13008KT CAVOK 10/06 Q1020=
201211222100 METAR LPPR 222100Z 12007KT CAVOK 10/06 Q1020=
201211222030 METAR LPPR 222030Z 13005KT CAVOK 09/06 Q1020=
201211222000 METAR LPPR 222000Z 13004KT CAVOK 09/05 Q1020=
201211221930 METAR LPPR 221930Z VRB01KT CAVOK 08/04 Q1020=
201211221900 METAR LPPR 221900Z 15003KT CAVOK 09/05 Q1020=
201211221830 METAR LPPR 221830Z 14005KT CAVOK 10/05 Q1020=
201211221800 METAR LPPR 221800Z 13003KT CAVOK 10/05 Q1020=
201211221730 METAR LPPR 221730Z 15006KT CAVOK 10/05 Q1020=
201211221700 METAR LPPR 221700Z 17006KT CAVOK 11/05 Q1020=
201211221630 METAR LPPR 221630Z 20005KT CAVOK 13/05 Q1020=
201211221600 METAR LPPR 221600Z 21004KT 170V250 CAVOK 13/05 Q1021=
201211221530 METAR LPPR 221530Z 19006KT 170V230 CAVOK 14/05 Q1020=
201211221430 METAR LPPR 221430Z 18007KT CAVOK 14/04 Q1021=
201211221400 METAR LPPR 221400Z 16003KT 130V190 CAVOK 14/05 Q1021=
201211221330 METAR LPPR 221330Z 19005KT 150V240 CAVOK 13/04 Q1021=
201211221300 METAR LPPR 221300Z 15005KT 120V190 CAVOK 14/04 Q1022=
201211221230 METAR LPPR 221230Z 15006KT CAVOK 13/04 Q1022=
201211221200 METAR LPPR 221200Z 12008KT CAVOK 12/06 Q1022=
201211221130 METAR LPPR 221130Z 13008KT 100V160 CAVOK 12/06 Q1023=
201211221100 METAR LPPR 221100Z 12009KT CAVOK 11/05 Q1023=
201211221030 METAR LPPR 221030Z 13008KT CAVOK 10/05 Q1024=
201211221000 METAR LPPR 221000Z 12012KT CAVOK 09/05 Q1023=
201211220930 METAR LPPR 220930Z 13008KT CAVOK 08/04 Q1023=
201211220900 METAR LPPR 220900Z 14005KT CAVOK 08/04 Q1023=
201211220830 METAR LPPR 220830Z 11010KT CAVOK 07/04 Q1023=
201211220800 METAR LPPR 220800Z 11010KT CAVOK 06/03 Q1023=
201211220730 METAR LPPR 220730Z 11008KT CAVOK 06/03 Q1022=
201211220700 METAR LPPR 220700Z 12008KT 100V160 CAVOK 06/03 Q1022=
201211220630 METAR LPPR 220630Z 12009KT CAVOK 05/04 Q1022=
201211220600 METAR LPPR 220600Z 11009KT CAVOK 06/04 Q1022=
201211220530 METAR LPPR 220530Z 11009KT CAVOK 06/04 Q1022=
201211220500 METAR LPPR 220500Z 12007KT CAVOK 05/04 Q1022=
201211220430 METAR LPPR 220430Z 11009KT CAVOK 05/04 Q1022=
201211220400 METAR LPPR 220400Z VRB01KT CAVOK 05/04 Q1023=
201211220330 METAR LPPR 220330Z VRB01KT CAVOK 04/03 Q1023=
201211220300 METAR LPPR 220300Z VRB02KT CAVOK 04/03 Q1023=
201211220230 METAR LPPR 220230Z 04001KT CAVOK 05/03 Q1023=
201211220200 METAR LPPR 220200Z 04003KT 330V100 CAVOK 06/04 Q1022=
201211220130 METAR LPPR 220130Z VRB01KT CAVOK 06/04 Q1022=
201211220100 METAR LPPR 220100Z 12003KT 050V190 CAVOK 06/04 Q1022=
201211220030 METAR LPPR 220030Z 07004KT CAVOK 05/04 Q1022=
201211220000 METAR LPPR 220000Z VRB02KT CAVOK 06/04 Q1023=
201211212330 METAR LPPR 212330Z 06003KT 020V080 CAVOK 08/05 Q1023=
201211212300 METAR LPPR 212300Z 10007KT 340V130 CAVOK 07/05 Q1023=
201211212230 METAR LPPR 212230Z 11003KT 030V160 CAVOK 06/05 Q1024=
201211212200 METAR LPPR 212200Z VRB02KT CAVOK 06/05 Q1023=
201211212130 METAR LPPR 212130Z VRB01KT CAVOK 06/04 Q1023=
201211212100 METAR LPPR 212100Z VRB02KT CAVOK 06/05 Q1023=
201211212030 METAR LPPR 212030Z 01002KT CAVOK 07/05 Q1023=
201211212000 METAR LPPR 212000Z 35003KT 320V110 9999 FEW008 09/06 Q1023=
201211211930 METAR LPPR 211930Z 03004KT 350V090 CAVOK 07/06 Q1023=
201211211900 METAR LPPR 211900Z 04002KT CAVOK 08/07 Q1023=
201211211830 METAR LPPR 211830Z 03002KT CAVOK 09/06 Q1023=
201211211800 METAR LPPR 211800Z 35003KT 320V040 CAVOK 10/07 Q1023=
201211211730 METAR LPPR 211730Z 35001KT CAVOK 10/06 Q1022=
201211211700 METAR LPPR 211700Z 34003KT 320V040 CAVOK 12/06 Q1022=
201211211630 METAR LPPR 211630Z 36004KT 9999 FEW045 13/06 Q1022=
201211211600 METAR LPPR 211600Z 36007KT 9999 FEW045 14/06 Q1022=
201211211530 METAR LPPR 211530Z 01008KT 9999 FEW045 14/05 Q1022=
201211211500 METAR LPPR 211500Z 01009KT 340V040 9999 FEW027 15/05 Q1022=
201211211430 METAR LPPR 211430Z 01009KT 340V040 9999 FEW027 15/05 Q1022=
201211211400 METAR LPPR 211400Z 02008KT 340V060 9999 FEW027 15/05 Q1022=
201211211330 METAR LPPR 211330Z 03009G19KT 360V070 9999 FEW027 15/05 Q1023=
201211211300 METAR LPPR 211300Z 04008KT 350V070 9999 FEW025 15/06 Q1023=
201211211230 METAR LPPR 211230Z 04008KT 010V070 9999 FEW025 14/07 Q1023=
201211211200 METAR LPPR 211200Z 01008KT 340V060 9999 SCT020 14/07 Q1023=
201211211130 METAR LPPR 211130Z 01007KT 330V050 CAVOK 14/06 Q1023=
201211211100 METAR LPPR 211100Z 01007KT 9999 FEW020 14/06 Q1023=
201211211030 METAR LPPR 211030Z 02006KT 340V050 9999 FEW037 14/08 Q1023=
201211211000 METAR LPPR 211000Z 03004KT 360V060 9999 FEW037 13/08 Q1023=
201211210930 METAR LPPR 210930Z VRB02KT 9999 SCT035 13/09 Q1023=
201211210900 METAR LPPR 210900Z 09003KT 9999 FEW032 SCT037 10/08 Q1022=
201211210830 METAR LPPR 210830Z 00000KT 9999 FEW030 09/08 Q1022=
201211210800 METAR LPPR 210800Z VRB02KT 9999 FEW030 08/07 Q1021=
201211210730 METAR LPPR 210730Z 09001KT 9999 SCT027 09/08 Q1021=
201211210700 METAR LPPR 210700Z 03003KT 340V060 9999 SCT030 08/07 Q1020=
201211210630 METAR LPPR 210630Z VRB02KT 9999 FEW025 09/07 Q1020=
201211210600 METAR LPPR 210600Z 06001KT 9999 FEW020 SCT030 09/08 Q1019=
201211210530 METAR LPPR 210530Z 03002KT 9999 FEW025 SCT048 09/08 Q1019=
201211210500 METAR LPPR 210500Z 36002KT 9999 FEW030 SCT038 09/07 Q1019=
201211210430 METAR LPPR 210430Z 01002KT 9999 FEW030 SCT040 10/08 Q1018=
201211210400 METAR LPPR 210400Z 36002KT 9999 SCT035 11/08 Q1018=
201211210330 METAR LPPR 210330Z 36003KT 9999 FEW025 BKN040 10/08 Q1018=
201211210300 METAR LPPR 210300Z 08003KT 040V100 9999 FEW022 BKN035 10/08
                        Q1018=
201211210230 METAR LPPR 210230Z 35004KT 9999 SCT035 11/08 Q1017=
201211210200 METAR LPPR 210200Z 33006KT 9999 FEW025 BKN048 13/08 Q1017=
201211210130 METAR LPPR 210130Z 32010KT 290V350 9999 FEW022 SCT030 13/08
                        Q1017=
201211210100 METAR LPPR 210100Z 33008KT 9999 SCT020 BKN028 13/10 Q1016=
201211210030 METAR LPPR 210030Z 28004KT 210V320 9999 FEW020 BKN025 13/11
                        Q1016=
201211210000 METAR LPPR 210000Z 13003KT 070V230 8000 -SHRA FEW020 BKN026
                        12/11 Q1016=
201211202330 METAR LPPR 202330Z 11005KT 9999 FEW018 BKN025 12/11 Q1015=
201211202300 METAR LPPR 202300Z VRB01KT 9999 FEW018 BKN025 12/10 Q1015=
201211202230 METAR LPPR 202230Z 33004KT 290V360 9999 FEW018 SCT045 12/10
                        Q1015=
201211202200 METAR LPPR 202200Z 32007KT 270V360 9999 -RA FEW008 SCT011
                        BKN045 12/10 Q1014=
201211202130 METAR LPPR 202130Z 31008KT 270V350 8000 -RA FEW008 BKN012
                        BKN028 12/11 Q1013=
201211202100 METAR LPPR 202100Z 32013G23KT 280V350 7000 -RA SCT006 BKN014
                        OVC035 12/11 Q1013 RERA=
201211202030 METAR LPPR 202030Z 30012G23KT 240V330 6000 RADZ SCT005 BKN009
                        OVC014 13/12 Q1012 WS ALL RWY=
201211202000 METAR LPPR 202000Z 17024G34KT 8000 -RA FEW015 BKN025 BKN046
                        14/12 Q1010=
201211201930 METAR LPPR 201930Z 18022KT 9999 -RA FEW018 BKN026 14/11 Q1010=
201211201900 METAR LPPR 201900Z 17021G31KT 9999 -RA SCT025 BKN048 15/11
                        Q1010=
201211201830 METAR LPPR 201830Z 17020KT 9999 FEW025 BKN048 15/11 Q1010=
201211201800 METAR LPPR 201800Z 17020KT 9999 -RA FEW025 BKN035 15/11 Q1010=
201211201730 METAR LPPR 201730Z 17019KT 9999 -RA FEW025 BKN048 15/11 Q1011=
201211201700 METAR LPPR 201700Z 17020KT 9999 FEW030 SCT048 16/10 Q1011=
201211201630 METAR LPPR 201630Z 17021KT 9999 FEW030 SCT048 16/10 Q1011=
201211201600 METAR LPPR 201600Z 17018KT 9999 FEW028 16/10 Q1011=
201211201530 METAR LPPR 201530Z 17020KT 9999 FEW025 16/10 Q1011=
201211201500 METAR LPPR 201500Z 16019KT 9999 FEW025 16/10 Q1012=
201211201430 METAR LPPR 201430Z 17017G27KT 9999 FEW028 16/10 Q1012=
201211201400 METAR LPPR 201400Z 18017KT 9999 BKN028 16/09 Q1012=
201211201330 METAR LPPR 201330Z 17016KT 9999 BKN030 16/09 Q1012=
201211201300 METAR LPPR 201300Z 16014KT 9999 SCT030 16/09 Q1013=
201211201230 METAR LPPR 201230Z 16014KT 9999 SCT028 16/10 Q1013=
201211201200 METAR LPPR 201200Z 16015KT 9999 FEW026 16/10 Q1014=
201211201130 METAR LPPR 201130Z 15012KT 9999 FEW026 15/10 Q1014=
201211201100 METAR LPPR 201100Z 16013KT 9999 FEW019 SCT025 15/10 Q1015=
201211201030 METAR LPPR 201030Z 16017KT 9999 FEW020 SCT025 15/10 Q1015=
201211201000 METAR LPPR 201000Z 17016KT 9999 BKN026 15/10 Q1015=
201211200930 METAR LPPR 200930Z 17015KT 9999 FEW025 SCT031 15/09 Q1015=
201211200900 METAR LPPR 200900Z 16014KT 9999 SCT032 15/09 Q1015=
201211200830 METAR LPPR 200830Z 16013KT 9999 FEW025 SCT033 15/09 Q1015=
201211200800 METAR LPPR 200800Z 17013KT 9999 SCT025 BKN040 14/09 Q1015=
201211200730 METAR LPPR 200730Z 16011KT 9999 FEW024 BKN040 14/09 Q1014=
201211200700 METAR LPPR 200700Z 17012KT 9999 FEW025 BKN040 14/09 Q1014=
201211200630 METAR LPPR 200630Z 17011KT 9999 SCT025 BKN040 14/09 Q1014=
201211200600 METAR LPPR 200600Z 16012KT 9999 SCT025 BKN040 14/09 Q1014=
201211200530 METAR LPPR 200530Z 16011KT 9999 SCT030 BKN040 14/09 Q1014=
201211200500 METAR LPPR 200500Z 17012KT 9999 BKN030 14/09 Q1014=
201211200430 METAR LPPR 200430Z 15009KT 9999 BKN030 14/09 Q1014=
201211200400 METAR LPPR 200400Z 15008KT 9999 BKN030 14/09 Q1015=
201211200330 METAR LPPR 200330Z 15008KT 9999 BKN030 14/09 Q1015=
201211200300 METAR LPPR 200300Z 14009KT 9999 BKN030 14/09 Q1015=
201211200230 METAR LPPR 200230Z 15010KT 9999 BKN030 14/09 Q1015=
201211200200 METAR LPPR 200200Z 17010KT 9999 BKN040 14/09 Q1016=
201211200130 METAR LPPR 200130Z 16011KT 9999 BKN040 14/09 Q1016=
201211200100 METAR LPPR 200100Z 17011KT 9999 SCT040 14/09 Q1016=
201211200030 METAR LPPR 200030Z 17010KT 9999 FEW025 BKN040 14/09 Q1016=
201211200000 METAR LPPR 200000Z 17011KT 9999 BKN040 14/09 Q1016=
201211192330 METAR LPPR 192330Z 17011KT 9999 BKN030 14/09 Q1016=
201211192300 METAR LPPR 192300Z 18009KT 9999 FEW025 SCT040 14/09 Q1016=
201211192230 METAR LPPR 192230Z 15010KT 9999 FEW030 14/09 Q1016=
201211192200 METAR LPPR 192200Z 17009KT 9999 BKN030 14/09 Q1016=
201211192130 METAR LPPR 192130Z 16011KT 9999 BKN030 14/09 Q1016=
201211192100 METAR LPPR 192100Z 17012KT 9999 FEW025 SCT030 14/09 Q1016=
201211192030 METAR LPPR 192030Z 17011KT 9999 FEW025 14/09 Q1016=
201211192000 METAR LPPR 192000Z 17011KT 9999 FEW025 SCT030 BKN040 14/10
                        Q1016=
201211191930 METAR LPPR 191930Z 17012KT 9999 SCT030 BKN040 15/10 Q1016=
201211191900 METAR LPPR 191900Z 16010KT 9999 SCT030 BKN040 14/10 Q1016=
201211191830 METAR LPPR 191830Z 16009KT 9999 FEW040 14/10 Q1016=
201211191800 METAR LPPR 191800Z 16009KT 9999 SCT040 15/10 Q1016=
201211191730 METAR LPPR 191730Z 16008KT 9999 SCT040 14/10 Q1016=
201211191700 METAR LPPR 191700Z 17009KT 9999 FEW040 14/10 Q1016=
201211191630 METAR LPPR 191630Z 17009KT 9999 FEW035 15/10 Q1016=
201211191600 METAR LPPR 191600Z 17010KT 9999 FEW032 15/10 Q1016=
201211191530 METAR LPPR 191530Z 18010KT 9999 FEW035 15/09 Q1016=
201211191500 METAR LPPR 191500Z 19010KT 9999 FEW037 15/09 Q1016=
201211191430 METAR LPPR 191430Z 16010KT 9999 FEW025 15/09 Q1016=
201211191400 METAR LPPR 191400Z 16011KT 9999 FEW025 16/09 Q1016=
201211191330 METAR LPPR 191330Z 17008KT 9999 FEW027 SCT030 15/09 Q1016=
201211191300 METAR LPPR 191300Z 18008KT 160V220 9999 FEW027 BKN030 15/09
                        Q1017=
201211191230 METAR LPPR 191230Z 18007KT 160V220 9999 FEW027 BKN031 15/09
                        Q1017=
201211191200 METAR LPPR 191200Z 20006KT 170V240 9999 FEW028 BKN032 15/09
                        Q1017=
201211191130 METAR LPPR 191130Z 14008KT 9999 FEW018 SCT033 15/09 Q1017=
201211191100 METAR LPPR 191100Z 14008KT 100V170 9999 FEW033 14/09 Q1017=
201211191030 METAR LPPR 191030Z 13008KT 9999 FEW017 SCT032 14/10 Q1017=
201211191000 METAR LPPR 191000Z 13008KT 9999 FEW016 12/08 Q1017=
201211190930 METAR LPPR 190930Z 13007KT 100V170 9999 FEW016 11/08 Q1017=
201211190900 METAR LPPR 190900Z 12007KT 9999 FEW016 BKN032 10/08 Q1017=
201211190830 METAR LPPR 190830Z 11007KT 080V150 9999 FEW016 BKN032 09/08
                        Q1017=
201211190800 METAR LPPR 190800Z 12007KT 9999 SCT030 09/07 Q1017=
201211190730 METAR LPPR 190730Z 12008KT 9999 FEW030 09/07 Q1016=
201211190700 METAR LPPR 190700Z 12005KT 100V160 9999 FEW030 09/07 Q1017=
201211190630 METAR LPPR 190630Z 12007KT 9999 FEW030 09/07 Q1016=
201211190600 METAR LPPR 190600Z 12009KT 9999 FEW034 09/07 Q1016=
201211190530 METAR LPPR 190530Z VRB02KT 9999 FEW030 09/08 Q1017=
201211190500 METAR LPPR 190500Z 12006KT CAVOK 09/07 Q1016=
201211190430 METAR LPPR 190430Z 12006KT CAVOK 09/07 Q1016=
201211190400 METAR LPPR 190400Z VRB02KT CAVOK 08/07 Q1016=
201211190330 METAR LPPR 190330Z VRB02KT CAVOK 08/07 Q1016=
201211190300 METAR LPPR 190300Z 11003KT 050V160 CAVOK 09/07 Q1016=
201211190230 METAR LPPR 190230Z 11003KT 070V180 CAVOK 08/07 Q1016=
201211190200 METAR LPPR 190200Z VRB02KT CAVOK 09/07 Q1016=
201211190130 METAR LPPR 190130Z 13002KT 9999 FEW028 07/06 Q1016=
201211190100 METAR LPPR 190100Z 10002KT 9999 FEW026 08/07 Q1017=
201211190030 METAR LPPR 190030Z 10001KT 9999 FEW026 07/06 Q1017=
201211190000 METAR LPPR 190000Z 07002KT CAVOK 08/07 Q1016=
201211182330 METAR LPPR 182330Z 03002KT CAVOK 07/06 Q1016=
201211182300 METAR LPPR 182300Z VRB01KT CAVOK 08/06 Q1016=
201211182230 METAR LPPR 182230Z VRB01KT CAVOK 08/07 Q1016=
201211182200 METAR LPPR 182200Z 05003KT CAVOK 09/08 Q1016=
201211182130 METAR LPPR 182130Z 03002KT CAVOK 08/07 Q1016=
201211182100 METAR LPPR 182100Z 35002KT CAVOK 09/08 Q1015=
201211182030 METAR LPPR 182030Z 02003KT CAVOK 09/07 Q1015=
201211182000 METAR LPPR 182000Z 35005KT 330V030 CAVOK 09/07 Q1015=
201211181930 METAR LPPR 181930Z 34004KT CAVOK 11/08 Q1015=
201211181900 METAR LPPR 181900Z 34005KT CAVOK 11/08 Q1015=
201211181830 METAR LPPR 181830Z 32004KT CAVOK 11/08 Q1014=
201211181800 METAR LPPR 181800Z 35004KT 9999 FEW020 12/08 Q1014=
201211181730 METAR LPPR 181730Z 34005KT 9999 FEW020 12/08 Q1014=
201211181700 METAR LPPR 181700Z 34008KT 310V010 9999 FEW020 13/09 Q1014=
201211181630 METAR LPPR 181630Z 33007KT 9999 FEW020 14/09 Q1014=
201211181600 METAR LPPR 181600Z 33008KT 9999 FEW020 14/09 Q1014=
201211181530 METAR LPPR 181530Z 33009KT 300V360 9999 FEW020 14/09 Q1014=
201211181500 METAR LPPR 181500Z 33009KT 9999 FEW020 15/09 Q1014=
201211181430 METAR LPPR 181430Z 33009KT 9999 FEW020 15/09 Q1013=
201211181400 METAR LPPR 181400Z 32007KT 280V340 9999 FEW020 15/09 Q1014=
201211181330 METAR LPPR 181330Z 34007KT 9999 FEW020 15/09 Q1014=
201211181300 METAR LPPR 181300Z 34007KT 290V010 9999 FEW020 15/09 Q1014=
201211181230 METAR LPPR 181230Z 35006KT 320V030 9999 FEW020 15/08 Q1014=
201211181200 METAR LPPR 181200Z 35006KT 310V040 9999 FEW020 15/08 Q1014=
201211181130 METAR LPPR 181130Z 01006KT 330V090 9999 FEW020 14/08 Q1015=
201211181100 METAR LPPR 181100Z 35009KT 9999 FEW020 14/08 Q1015=
201211181030 METAR LPPR 181030Z 01008KT 9999 FEW020 13/08 Q1015=
201211181000 METAR LPPR 181000Z 36008KT 340V040 9999 FEW020 12/08 Q1015=
201211180930 METAR LPPR 180930Z 36008KT 9999 FEW020 11/07 Q1015=
201211180900 METAR LPPR 180900Z 01004KT 9999 FEW020 10/07 Q1014=
201211180830 METAR LPPR 180830Z 36006KT 9999 FEW020 09/07 Q1014=
201211180800 METAR LPPR 180800Z 36007KT 9999 FEW022 07/06 Q1014=
201211180730 METAR LPPR 180730Z 34006KT 9999 FEW022 09/06 Q1014=
201211180700 METAR LPPR 180700Z 33004KT 290V020 CAVOK 09/07 Q1013=
201211180630 METAR LPPR 180630Z VRB02KT CAVOK 09/06 Q1013=
201211180600 METAR LPPR 180600Z 34004KT CAVOK 09/07 Q1013=
201211180530 METAR LPPR 180530Z 35005KT 310V040 CAVOK 10/07 Q1013=
201211180500 METAR LPPR 180500Z 32008KT CAVOK 11/07 Q1012=
201211180430 METAR LPPR 180430Z 35010KT CAVOK 11/07 Q1012=
201211180400 METAR LPPR 180400Z 35012KT CAVOK 11/07 Q1012=
201211180330 METAR LPPR 180330Z 35014KT CAVOK 11/07 Q1012=
201211180300 METAR LPPR 180300Z 34011KT CAVOK 12/07 Q1012=
201211180230 METAR LPPR 180230Z 34010KT CAVOK 12/08 Q1012=
201211180200 METAR LPPR 180200Z 36010KT 320V020 CAVOK 12/08 Q1012=
201211180130 METAR LPPR 180130Z 34008KT 9999 FEW022 12/08 Q1012=
201211180100 METAR LPPR 180100Z 35004KT 310V040 9999 FEW022 11/08 Q1012=
201211180030 METAR LPPR 180030Z 35007KT 9999 FEW022 12/08 Q1012=
201211180000 METAR LPPR 180000Z 02004KT 340V050 9999 FEW045 12/09 Q1012=
201211172330 METAR LPPR 172330Z 36009KT 9999 FEW045 12/09 Q1012=
201211172300 METAR LPPR 172300Z 33008KT 9999 FEW027 13/09 Q1011=
201211172230 METAR LPPR 172230Z 33009KT 9999 FEW030 13/10 Q1011=
201211172200 METAR LPPR 172200Z 36008KT 330V030 9999 FEW040 12/10 Q1011=
201211172130 METAR LPPR 172130Z 34008KT CAVOK 13/10 Q1010=
201211172100 METAR LPPR 172100Z 36010KT CAVOK 13/10 Q1010=
201211172030 METAR LPPR 172030Z 35012KT CAVOK 13/10 Q1010=
201211172000 METAR LPPR 172000Z 35008KT CAVOK 13/10 Q1009=
201211171930 METAR LPPR 171930Z 36011KT CAVOK 14/10 Q1009=
201211171900 METAR LPPR 171900Z 36012KT 9999 FEW023 13/10 Q1008=
201211171830 METAR LPPR 171830Z 34010KT 9999 FEW023 14/11 Q1008=
201211171800 METAR LPPR 171800Z 35011KT 9999 FEW022 14/11 Q1007=
201211171730 METAR LPPR 171730Z 35015KT 9999 FEW022 14/10 Q1007=
201211171700 METAR LPPR 171700Z 35011KT 9999 FEW022 15/11 Q1006=
201211171630 METAR LPPR 171630Z 35012KT 9999 FEW023 SCT048 15/11 Q1006=
201211171600 METAR LPPR 171600Z 34010KT 9999 FEW021 SCT048 15/12 Q1006=
201211171530 METAR LPPR 171530Z 36012KT 9999 FEW019 SCT045 16/12 Q1006=
201211171500 METAR LPPR 171500Z 36011KT 9999 FEW022 FEW025CB 16/12 Q1006=
201211171430 METAR LPPR 171430Z 35010KT 9999 FEW020 FEW025CB 15/12 Q1006=
201211171400 METAR LPPR 171400Z 34011KT 9999 FEW020 FEW025CB BKN046 15/11
                        Q1006=
201211171330 METAR LPPR 171330Z 33009KT 290V360 9999 FEW025 BKN048 17/12
                        Q1005=
201211171300 METAR LPPR 171300Z 33009KT 9999 FEW025 BKN047 16/14 Q1006=
201211171230 METAR LPPR 171230Z 35011KT 9999 -RA FEW025 BKN042 16/14 Q1006=
201211171200 METAR LPPR 171200Z 36010KT 9999 -RA FEW025 BKN045 16/13 Q1006=
201211171130 METAR LPPR 171130Z 36009KT 9999 FEW025 BKN048 17/12 Q1006=
201211171100 METAR LPPR 171100Z 34006KT 310V010 9999 FEW025 BKN048 17/13
                        Q1005=
201211171030 METAR LPPR 171030Z 01005KT 340V060 9999 FEW025 17/12 Q1005=
201211171000 METAR LPPR 171000Z 04006KT 010V070 9999 FEW025 17/11 Q1005=
201211170930 METAR LPPR 170930Z 05007KT 320V080 9999 FEW025 17/11 Q1005=
201211170900 METAR LPPR 170900Z 04007G17KT 310V070 9999 FEW025 16/11 Q1005=
201211170830 METAR LPPR 170830Z 03005KT 360V060 9999 FEW025 15/11 Q1005=
201211170800 METAR LPPR 170800Z 04005KT 020V080 9999 FEW025TCU SCT049
                        15/11 Q1005=
201211170730 METAR LPPR 170730Z 05005KT CAVOK 15/11 Q1004=
201211170700 METAR LPPR 170700Z 02005KT CAVOK 14/11 Q1004=
201211170630 METAR LPPR 170630Z 06005KT 350V080 CAVOK 15/11 Q1004=
201211170600 METAR LPPR 170600Z 05005KT CAVOK 15/11 Q1003=
201211170530 METAR LPPR 170530Z 05006KT 9999 BKN049 15/11 Q1003=
201211170500 METAR LPPR 170500Z 06005KT 9999 BKN044 BKN049 15/11 Q1003=
201211170430 METAR LPPR 170430Z 05004KT 9999 BKN042 BKN049 15/11 Q1003=
201211170400 METAR LPPR 170400Z 07005KT 9999 BKN043 BKN049 16/11 Q1003=
201211170330 METAR LPPR 170330Z 06006KT 9999 BKN048 15/11 Q1003=
201211170300 METAR LPPR 170300Z 07006KT 9999 FEW027 BKN046 16/10 Q1003=
201211170230 METAR LPPR 170230Z 07005KT CAVOK 16/10 Q1004=
201211170200 METAR LPPR 170200Z 08005KT CAVOK 16/10 Q1004=
201211170130 METAR LPPR 170130Z 10006KT 9999 FEW027 SCT048 16/10 Q1004=
201211170100 METAR COR LPPR 170100Z 10005KT 9999 FEW027 SCT044 17/10 Q1004=
201211170030 METAR LPPR 170030Z 11007KT 9999 FEW027 SCT043 16/10 Q1004=
201211170000 METAR LPPR 170000Z 12007KT 080V160 9999 FEW027 SCT043 16/10
                        Q1005=
201211162330 METAR LPPR 162330Z 10005KT CAVOK 16/10 Q1005=
201211162300 METAR LPPR 162300Z 10006KT 070V140 CAVOK 16/10 Q1005=
201211162230 METAR LPPR 162230Z 09006KT CAVOK 16/11 Q1005=
201211162200 METAR LPPR 162200Z 10005KT 9999 FEW030 16/11 Q1005=
201211162130 METAR LPPR 162130Z 11005KT 9999 FEW030 16/11 Q1005=
201211162100 METAR LPPR 162100Z 10005KT 9999 FEW030 16/11 Q1005=
201211162030 METAR LPPR 162030Z 11007KT CAVOK 16/12 Q1005=
201211162000 METAR LPPR 162000Z 10005KT CAVOK 16/12 Q1005=
201211161930 METAR LPPR 161930Z 09006KT CAVOK 16/12 Q1005=
201211161900 METAR LPPR 161900Z 08006KT 030V110 9999 FEW047 15/12 Q1005=
201211161830 METAR LPPR 161830Z 08006KT 9999 FEW047 15/12 Q1006=
201211161800 METAR LPPR 161800Z 08005KT 9999 SCT045 15/13 Q1006=
201211161730 METAR LPPR 161730Z 08006KT 9999 -RA BKN045 15/13 Q1006=
201211161700 METAR LPPR 161700Z 08005KT 9000 -RA BKN044 BKN049 15/13 Q1006=
201211161630 METAR LPPR 161630Z 09005KT 9000 -RA BKN038 BKN043 15/13 Q1007=
201211161600 METAR LPPR 161600Z 10006KT 7000 -RA SCT030 BKN045 16/13 Q1007=
201211161530 METAR LPPR 161530Z 07004KT 010V110 9999 -RA BKN040 15/14
                        Q1007=
201211161500 METAR LPPR 161500Z 12006KT 9000 -RA SCT030 BKN040 16/13 Q1008=
201211161430 METAR LPPR 161430Z 14007KT 8000 -RA FEW020 SCT035 BKN043
                        16/13 Q1008=
201211161400 METAR LPPR 161400Z 13008KT 9999 FEW030 BKN045 18/12 Q1008=
201211161330 METAR LPPR 161330Z 13008KT 9999 FEW040 18/12 Q1009=
201211161300 METAR LPPR 161300Z 13010KT CAVOK 19/12 Q1009=
201211161230 METAR LPPR 161230Z 13006KT 100V160 CAVOK 18/12 Q1010=
201211161200 METAR LPPR 161200Z 10008KT CAVOK 18/12 Q1010=
201211161130 METAR LPPR 161130Z 12009KT 080V140 CAVOK 17/11 Q1010=
201211161100 METAR LPPR 161100Z 11010KT CAVOK 18/11 Q1011=
201211161030 METAR LPPR 161030Z 10010KT CAVOK 17/11 Q1011=
201211161000 METAR LPPR 161000Z 10009KT CAVOK 16/10 Q1011=
201211160930 METAR LPPR 160930Z 11008KT CAVOK 16/10 Q1011=
201211160900 METAR LPPR 160900Z 11007KT CAVOK 14/10 Q1011=
201211160830 METAR LPPR 160830Z 11007KT CAVOK 14/10 Q1012=
201211160800 METAR LPPR 160800Z 10008KT CAVOK 13/10 Q1012=
201211160730 METAR LPPR 160730Z 10008KT CAVOK 13/09 Q1012=
201211160700 METAR LPPR 160700Z 11007KT CAVOK 12/09 Q1012=
201211160630 METAR LPPR 160630Z 10007KT CAVOK 13/09 Q1012=
201211160600 METAR LPPR 160600Z 10007KT CAVOK 12/09 Q1012=
201211160530 METAR LPPR 160530Z 11007KT 070V130 CAVOK 12/09 Q1012=
201211160500 METAR LPPR 160500Z 11007KT CAVOK 12/09 Q1012=
201211160430 METAR LPPR 160430Z 11007KT CAVOK 12/10 Q1012=
201211160400 METAR LPPR 160400Z 11007KT CAVOK 12/10 Q1013=
201211160330 METAR LPPR 160330Z 11006KT CAVOK 12/10 Q1013=
201211160300 METAR LPPR 160300Z 10006KT CAVOK 11/10 Q1013=
201211160230 METAR LPPR 160230Z 12005KT CAVOK 11/10 Q1013=
201211160200 METAR LPPR 160200Z 11005KT CAVOK 11/10 Q1013=
201211160130 METAR LPPR 160130Z 11005KT 080V140 CAVOK 12/10 Q1013=
201211160100 METAR LPPR 160100Z 13007KT CAVOK 12/10 Q1013=
201211160030 METAR LPPR 160030Z 14008KT CAVOK 12/10 Q1013=
201211160000 METAR LPPR 160000Z 16008KT 9999 FEW045 12/10 Q1014=
201211152330 METAR LPPR 152330Z 16010KT 9999 FEW045 13/10 Q1014=
201211152300 METAR LPPR 152300Z 17009KT 9999 FEW040 13/10 Q1014=
201211152230 METAR LPPR 152230Z 17011KT 9999 FEW040 13/10 Q1014=
201211152200 METAR LPPR 152200Z 17009KT 9999 SCT040 13/11 Q1014=
201211152130 METAR LPPR 152130Z 16009KT 9999 SCT040 14/11 Q1013=
201211152100 METAR LPPR 152100Z 15010KT 130V190 9999 FEW020 SCT040 14/11
                        Q1013=
201211152030 METAR LPPR 152030Z 15010KT 9999 FEW020 SCT045 13/11 Q1013=
201211152000 METAR LPPR 152000Z 14012KT 110V170 9999 FEW020 SCT045 13/11
                        Q1013=
201211151930 METAR LPPR 151930Z 12009KT 9999 -RA SCT020 BKN045 13/12 Q1012=
201211151900 METAR LPPR 151900Z 15010KT 9999 -RA FEW011 BKN020 13/12 Q1013=
201211151830 METAR LPPR 151830Z 17011KT 9999 -RA SCT007 BKN047 13/12 Q1013=
201211151800 METAR LPPR 151800Z 19015KT 5000 -RA BR FEW008 BKN013 BKN025
                        14/12 Q1013=
201211151730 METAR LPPR 151730Z 21018KT 8000 -RA SCT012 SCT020 BKN045
                        15/12 Q1012=
201211151700 METAR LPPR 151700Z 12009KT 9999 FEW025 SCT048 20/11 Q1010=
201211151630 METAR LPPR 151630Z 13007KT 9999 FEW025 20/11 Q1010=
201211151600 METAR LPPR 151600Z 12009KT 9999 FEW027 21/11 Q1010=
201211151530 METAR LPPR 151530Z 12007KT 090V150 9999 FEW027TCU 21/12 Q1010=
201211151500 METAR LPPR 151500Z 15006KT 110V190 9999 FEW027TCU 21/12 Q1011=
201211151430 METAR LPPR 151430Z 13008KT 9999 FEW027TCU 21/11 Q1011=
201211151400 METAR LPPR 151400Z 12008KT 9999 FEW027 21/12 Q1011=
201211151330 METAR LPPR 151330Z 13009KT 9999 FEW027 21/12 Q1011=
201211151300 METAR LPPR 151300Z 12010KT 9999 FEW027 21/12 Q1012=
201211151230 METAR LPPR 151230Z 10009KT 070V130 CAVOK 22/12 Q1012=
201211151200 METAR LPPR 151200Z 11011KT CAVOK 21/11 Q1013=
201211151130 METAR LPPR 151130Z 13013KT CAVOK 21/11 Q1013=
201211151100 METAR LPPR 151100Z 11011KT CAVOK 21/12 Q1014=
201211151030 METAR LPPR 151030Z 12013KT CAVOK 20/11 Q1014=
201211151000 METAR LPPR 151000Z 12012KT CAVOK 19/12 Q1014=
201211150930 METAR LPPR 150930Z 10008KT CAVOK 19/11 Q1014=
201211150900 METAR LPPR 150900Z 11009KT CAVOK 17/11 Q1013=
201211150830 METAR LPPR 150830Z 11010KT CAVOK 17/10 Q1013=
201211150800 METAR LPPR 150800Z 11007KT CAVOK 15/10 Q1013=
201211150730 METAR LPPR 150730Z 11007KT CAVOK 16/10 Q1013=
201211150700 METAR LPPR 150700Z 11007KT 090V150 CAVOK 14/10 Q1013=
201211150630 METAR LPPR 150630Z 11007KT CAVOK 14/10 Q1013=
201211150600 METAR LPPR 150600Z 11006KT CAVOK 14/10 Q1013=
201211150530 METAR LPPR 150530Z 12008KT CAVOK 14/10 Q1013=
201211150500 METAR LPPR 150500Z 11007KT CAVOK 15/10 Q1013=
201211150430 METAR LPPR 150430Z 10007KT CAVOK 15/10 Q1013=
201211150400 METAR LPPR 150400Z 10008KT CAVOK 16/10 Q1013=
201211150330 METAR LPPR 150330Z 11008KT CAVOK 15/10 Q1013=
201211150300 METAR LPPR 150300Z 11007KT CAVOK 16/10 Q1013=
201211150230 METAR LPPR 150230Z 11007KT CAVOK 16/10 Q1013=
201211150200 METAR LPPR 150200Z 11007KT CAVOK 16/10 Q1013=
201211150130 METAR LPPR 150130Z 11006KT CAVOK 15/10 Q1013=
201211150100 METAR LPPR 150100Z 11007KT CAVOK 16/09 Q1014=
201211150030 METAR LPPR 150030Z 10006KT CAVOK 16/09 Q1014=
201211150000 METAR LPPR 150000Z 11006KT CAVOK 16/09 Q1014=
201211142330 METAR LPPR 142330Z 11008KT CAVOK 16/09 Q1014=
201211142300 METAR LPPR 142300Z 10007KT CAVOK 16/09 Q1013=
201211142230 METAR LPPR 142230Z 10007KT CAVOK 16/09 Q1014=
201211142200 METAR LPPR 142200Z 12006KT CAVOK 14/09 Q1014=
201211142130 METAR LPPR 142130Z 12006KT CAVOK 14/09 Q1014=
201211142100 METAR LPPR 142100Z 11007KT CAVOK 17/08 Q1013=
201211142030 METAR LPPR 142030Z 11007KT CAVOK 17/08 Q1013=
201211142000 METAR LPPR 142000Z 11005KT CAVOK 17/07 Q1013=
201211141930 METAR LPPR 141930Z 11007KT 080V140 CAVOK 17/07 Q1013=
201211141900 METAR LPPR 141900Z 11007KT CAVOK 16/07 Q1013=
201211141830 METAR LPPR 141830Z 10008KT CAVOK 17/07 Q1013=
201211141800 METAR LPPR 141800Z 10006KT CAVOK 17/08 Q1013=
201211141730 METAR LPPR 141730Z 10004KT CAVOK 18/08 Q1013=
201211141700 METAR LPPR 141700Z 10004KT 080V160 CAVOK 18/09 Q1013=
201211141630 METAR LPPR 141630Z 09006KT CAVOK 19/08 Q1013=
201211141600 METAR LPPR 141600Z 09007KT 050V110 9999 FEW048 19/09 Q1013=
201211141530 METAR LPPR 141530Z 07004KT 040V110 CAVOK 20/09 Q1013=
201211141500 METAR LPPR 141500Z 09006KT 050V120 9999 FEW048 20/09 Q1013=
201211141430 METAR LPPR 141430Z 10007KT 9999 FEW048 19/08 Q1013=
201211141400 METAR LPPR 141400Z 09007KT 070V130 9999 FEW048 20/08 Q1013=
201211141330 METAR LPPR 141330Z 10009KT CAVOK 19/06 Q1014=
201211141300 METAR LPPR 141300Z 11009KT CAVOK 19/07 Q1014=
201211141230 METAR LPPR 141230Z 11009KT CAVOK 18/06 Q1015=
201211141200 METAR LPPR 141200Z 12009KT CAVOK 18/06 Q1015=
201211141130 METAR LPPR 141130Z 11009KT CAVOK 17/05 Q1015=
201211141100 METAR LPPR 141100Z 11011KT CAVOK 17/05 Q1016=
201211141030 METAR LPPR 141030Z 12010KT CAVOK 15/05 Q1016=
201211141000 METAR LPPR 141000Z 11009KT CAVOK 15/05 Q1016=
201211140930 METAR LPPR 140930Z 11010KT CAVOK 13/04 Q1016=
201211140900 METAR LPPR 140900Z 11009KT CAVOK 13/04 Q1016=
201211140830 METAR LPPR 140830Z 11011KT CAVOK 11/04 Q1016=
201211140800 METAR LPPR 140800Z 11011KT CAVOK 11/03 Q1016=
201211140730 METAR LPPR 140730Z 11010KT CAVOK 10/03 Q1016=
201211140700 METAR LPPR 140700Z 11010KT CAVOK 10/03 Q1016=
201211140630 METAR LPPR 140630Z 11010KT CAVOK 10/03 Q1016=
201211140600 METAR LPPR 140600Z 11008KT CAVOK 10/03 Q1016=
201211140530 METAR LPPR 140530Z 10009KT CAVOK 10/04 Q1016=
201211140500 METAR LPPR 140500Z 11010KT CAVOK 10/04 Q1016=
201211140430 METAR LPPR 140430Z 11010KT CAVOK 09/04 Q1016=
201211140400 METAR LPPR 140400Z 11009KT CAVOK 10/04 Q1016=
201211140330 METAR LPPR 140330Z 11011KT CAVOK 10/04 Q1016=
201211140300 METAR LPPR 140300Z 11009KT CAVOK 10/04 Q1016=
201211140230 METAR LPPR 140230Z 11008KT CAVOK 10/04 Q1016=
201211140200 METAR LPPR 140200Z 11008KT CAVOK 10/04 Q1016=
201211140130 METAR LPPR 140130Z 11009KT CAVOK 10/05 Q1017=
201211140100 METAR LPPR 140100Z 10007KT CAVOK 10/04 Q1017=
201211140030 METAR LPPR 140030Z 11007KT CAVOK 10/04 Q1017=
201211140000 METAR LPPR 140000Z 10007KT CAVOK 11/05 Q1017=
201211132330 METAR LPPR 132330Z 10008KT CAVOK 10/05 Q1017=
201211132300 METAR LPPR 132300Z 12008KT CAVOK 08/05 Q1018=
201211132230 METAR LPPR 132230Z 10007KT CAVOK 10/05 Q1018=
201211132200 METAR LPPR 132200Z 09005KT CAVOK 08/05 Q1018=
201211132130 METAR LPPR 132130Z 12006KT CAVOK 09/06 Q1018=
201211132100 METAR LPPR 132100Z 10003KT 080V180 CAVOK 09/07 Q1018=
201211132030 METAR LPPR 132030Z 10004KT 9000 NSC 10/08 Q1018=
201211132000 METAR LPPR 132000Z VRB01KT 9000 NSC 09/08 Q1018=
201211131930 METAR LPPR 131930Z VRB02KT CAVOK 10/08 Q1018=
201211131900 METAR LPPR 131900Z VRB02KT CAVOK 09/07 Q1018=
201211131830 METAR LPPR 131830Z VRB01KT CAVOK 10/09 Q1018=
201211131800 METAR LPPR 131800Z VRB02KT CAVOK 11/08 Q1018=
201211131730 METAR LPPR 131730Z 35003KT 320V020 CAVOK 12/09 Q1018=
201211131700 METAR LPPR 131700Z 32004KT CAVOK 13/09 Q1018=
201211131630 METAR LPPR 131630Z 32005KT CAVOK 14/09 Q1018=
201211131600 METAR LPPR 131600Z 32007KT CAVOK 15/08 Q1018=
201211131530 METAR LPPR 131530Z 31005KT 280V350 CAVOK 15/09 Q1018=
201211131500 METAR LPPR 131500Z 31005KT 270V340 CAVOK 16/09 Q1019=
201211131430 METAR LPPR 131430Z 01005KT 320V040 CAVOK 17/05 Q1019=
201211131400 METAR LPPR 131400Z 01005KT 310V050 CAVOK 17/06 Q1019=
201211131330 METAR LPPR 131330Z 02005KT 340V050 CAVOK 16/06 Q1020=
201211131300 METAR LPPR 131300Z 06007KT 020V090 CAVOK 17/05 Q1020=
201211131230 METAR LPPR 131230Z 09007KT 060V120 CAVOK 16/06 Q1021=
201211131200 METAR LPPR 131200Z 08008KT 050V110 CAVOK 16/06 Q1021=
201211131130 METAR LPPR 131130Z 10009KT CAVOK 15/05 Q1022=
201211131100 METAR LPPR 131100Z 10008KT 070V130 CAVOK 15/05 Q1023=
201211131030 METAR LPPR 131030Z 10007KT 050V120 CAVOK 13/05 Q1023=
201211131000 METAR LPPR 131000Z 09007KT 060V120 CAVOK 13/05 Q1023=
201211130930 METAR LPPR 130930Z 10008KT CAVOK 13/05 Q1023=
201211130900 METAR LPPR 130900Z 10007KT CAVOK 11/05 Q1023=
201211130830 METAR LPPR 130830Z 11008KT CAVOK 10/04 Q1023=
201211130800 METAR LPPR 130800Z 11005KT CAVOK 06/03 Q1022=
201211130730 METAR LPPR 130730Z 09006KT CAVOK 06/03 Q1022=
201211130700 METAR LPPR 130700Z 11006KT 090V170 CAVOK 06/03 Q1022=
201211130630 METAR LPPR 130630Z 10006KT CAVOK 08/04 Q1022=
201211130600 METAR LPPR 130600Z 11006KT CAVOK 07/04 Q1022=
201211130530 METAR LPPR 130530Z 08003KT 010V130 CAVOK 09/03 Q1022=
201211130500 METAR LPPR 130500Z 08004KT 050V120 CAVOK 09/04 Q1022=
201211130430 METAR LPPR 130430Z 07006KT CAVOK 09/04 Q1023=
201211130400 METAR LPPR 130400Z 07003KT 030V110 CAVOK 09/04 Q1023=
201211130330 METAR LPPR 130330Z 05006KT CAVOK 09/04 Q1023=
201211130300 METAR LPPR 130300Z 05007KT CAVOK 09/04 Q1023=
201211130230 METAR LPPR 130230Z 09004KT CAVOK 09/04 Q1024=
201211130200 METAR LPPR 130200Z 04003KT 010V100 CAVOK 07/04 Q1024=
201211130130 METAR LPPR 130130Z 03003KT 360V060 CAVOK 08/04 Q1024=
201211130100 METAR LPPR 130100Z 04003KT 010V090 CAVOK 08/04 Q1024=
201211130030 METAR LPPR 130030Z 01004KT CAVOK 07/04 Q1024=
201211130000 METAR LPPR 130000Z 06002KT CAVOK 07/05 Q1025=
201211122330 METAR LPPR 122330Z VRB02KT CAVOK 06/05 Q1025=
201211122300 METAR LPPR 122300Z VRB01KT CAVOK 08/06 Q1025=
201211122230 METAR LPPR 122230Z 06001KT CAVOK 07/06 Q1025=
201211122200 METAR LPPR 122200Z 03001KT CAVOK 07/06 Q1025=
201211122130 METAR LPPR 122130Z 00000KT CAVOK 08/06 Q1025=
201211122100 METAR LPPR 122100Z 02002KT CAVOK 07/06 Q1024=
201211122030 METAR LPPR 122030Z 06003KT 030V090 CAVOK 08/06 Q1024=
201211122000 METAR LPPR 122000Z 12004KT 090V150 CAVOK 09/07 Q1024=
201211121930 METAR LPPR 121930Z 10004KT CAVOK 10/07 Q1024=
201211121900 METAR LPPR 121900Z VRB02KT CAVOK 09/07 Q1024=
201211121830 METAR LPPR 121830Z VRB02KT CAVOK 10/07 Q1024=
201211121800 METAR LPPR 121800Z 36003KT CAVOK 10/07 Q1024=
201211121730 METAR LPPR 121730Z 34004KT CAVOK 12/07 Q1024=
201211121700 METAR LPPR 121700Z 32004KT CAVOK 13/07 Q1024=
201211121630 METAR LPPR 121630Z 33005KT CAVOK 14/07 Q1024=
201211121600 METAR LPPR 121600Z 33006KT CAVOK 15/06 Q1024=
201211121530 METAR LPPR 121530Z 33006KT CAVOK 15/07 Q1024=
201211121500 METAR LPPR 121500Z 33007KT CAVOK 14/07 Q1024=
201211121430 METAR LPPR 121430Z 34006KT 290V020 CAVOK 15/08 Q1024=
201211121400 METAR LPPR 121400Z 03005KT 340V090 CAVOK 16/06 Q1025=
201211121330 METAR LPPR 121330Z 04006KT 010V070 CAVOK 15/06 Q1025=
201211121300 METAR LPPR 121300Z 02004KT 340V140 CAVOK 15/05 Q1025=
201211121230 METAR LPPR 121230Z 03004KT 330V070 CAVOK 15/04 Q1026=
201211121200 METAR LPPR 121200Z 03004KT 320V080 CAVOK 14/04 Q1026=
201211121130 METAR LPPR 121130Z 09005KT 040V110 CAVOK 13/05 Q1026=
201211121100 METAR LPPR 121100Z 09006KT 030V140 CAVOK 13/05 Q1027=
201211121030 METAR LPPR 121030Z 02004KT 340V060 CAVOK 12/05 Q1027=
201211121000 METAR LPPR 121000Z 08006KT 040V100 CAVOK 12/05 Q1026=
201211120930 METAR LPPR 120930Z 11007KT CAVOK 11/05 Q1026=
201211120900 METAR LPPR 120900Z 09006KT CAVOK 09/04 Q1026=
201211120830 METAR LPPR 120830Z 11005KT CAVOK 07/04 Q1026=
201211120800 METAR LPPR 120800Z 08006KT CAVOK 05/03 Q1025=
201211120730 METAR LPPR 120730Z 06004KT 360V120 CAVOK 05/03 Q1025=
201211120700 METAR LPPR 120700Z 10003KT 050V160 CAVOK 04/03 Q1025=
201211120630 METAR LPPR 120630Z 03004KT 010V110 CAVOK 04/03 Q1025=
201211120600 METAR LPPR 120600Z 04002KT CAVOK 03/02 Q1025=
201211120530 METAR LPPR 120530Z VRB01KT CAVOK 05/04 Q1024=
201211120500 METAR LPPR 120500Z VRB02KT CAVOK 03/03 Q1024=
201211120430 METAR LPPR 120430Z VRB01KT CAVOK 05/03 Q1024=
201211120400 METAR LPPR 120400Z 08005KT CAVOK 04/03 Q1024=
201211120330 METAR LPPR 120330Z 06003KT 010V080 CAVOK 06/04 Q1024=
201211120300 METAR LPPR 120300Z 00000KT CAVOK 05/04 Q1024=
201211120230 METAR LPPR 120230Z VRB01KT CAVOK 04/03 Q1024=
201211120200 METAR LPPR 120200Z 35004KT 330V040 CAVOK 04/03 Q1024=
201211120130 METAR LPPR 120130Z VRB02KT CAVOK 05/03 Q1024=
201211120100 METAR LPPR 120100Z 36002KT CAVOK 06/04 Q1024=
201211120030 METAR LPPR 120030Z 33005KT CAVOK 07/04 Q1024=
201211120000 METAR LPPR 120000Z 02003KT 340V040 CAVOK 08/04 Q1024=
201211112330 METAR LPPR 112330Z 07004KT CAVOK 08/05 Q1024=
201211112300 METAR LPPR 112300Z 01004KT 340V040 CAVOK 08/04 Q1023=
201211112230 METAR LPPR 112230Z 36008KT CAVOK 09/05 Q1023=
201211112200 METAR LPPR 112200Z 34005KT CAVOK 08/04 Q1023=
201211112130 METAR LPPR 112130Z 35004KT 310V080 CAVOK 10/05 Q1023=
201211112100 METAR LPPR 112100Z 34007KT CAVOK 09/04 Q1023=
201211112030 METAR LPPR 112030Z VRB02KT CAVOK 09/05 Q1023=
201211112000 METAR LPPR 112000Z 07004KT 020V160 9999 FEW025 09/05 Q1022=
201211111930 METAR LPPR 111930Z 36005KT 320V040 9999 FEW025 10/05 Q1022=
201211111900 METAR LPPR 111900Z 36005KT 9999 FEW025 11/06 Q1021=
201211111830 METAR LPPR 111830Z 36005KT 320V020 9999 FEW025 08/06 Q1021=
201211111800 METAR LPPR 111800Z 01004KT 320V050 9999 FEW028 11/06 Q1021=
201211111730 METAR LPPR 111730Z 02004KT 340V060 9999 FEW030 11/05 Q1020=
201211111700 METAR LPPR 111700Z 36006KT 330V040 9999 FEW030 12/06 Q1020=
201211111630 METAR LPPR 111630Z 01010KT 340V050 9999 FEW040 13/06 Q1020=
201211111600 METAR LPPR 111600Z 35012KT 9999 FEW040 14/06 Q1019=
201211111530 METAR LPPR 111530Z 34014KT 9999 FEW028 14/06 Q1019=
201211111500 METAR LPPR 111500Z 36015KT 9999 FEW025 14/06 Q1019=
201211111430 METAR LPPR 111430Z 35014KT 9999 FEW025 14/04 Q1019=
201211111400 METAR LPPR 111400Z 01012KT 9999 FEW025 14/05 Q1018=
201211111330 METAR LPPR 111330Z 01013KT 340V040 9999 FEW030 14/05 Q1018=
201211111300 METAR LPPR 111300Z 01014KT 9999 FEW035 13/05 Q1018=
201211111230 METAR LPPR 111230Z 01012KT 340V040 9999 FEW040 13/05 Q1018=
201211111200 METAR LPPR 111200Z 36014KT 9999 FEW030 13/06 Q1019=
201211111130 METAR LPPR 111130Z 36014KT 9999 FEW035 12/06 Q1019=
201211111100 METAR LPPR 111100Z 35014KT 9999 FEW020 12/05 Q1018=
201211111030 METAR LPPR 111030Z 35012KT 9999 FEW018 11/06 Q1018=
201211111000 METAR LPPR 111000Z 35012KT 9999 FEW018 11/06 Q1018=
201211110930 METAR LPPR 110930Z 35009KT 9999 FEW018 10/06 Q1018=
201211110900 METAR LPPR 110900Z 34008KT 9999 FEW018 09/06 Q1017=
201211110830 METAR LPPR 110830Z 01008KT 9999 FEW018 09/06 Q1017=
201211110800 METAR LPPR 110800Z 01007KT 9999 FEW015 08/05 Q1016=
201211110730 METAR LPPR 110730Z 36005KT 310V070 9999 FEW015 06/05 Q1016=
201211110700 METAR LPPR 110700Z 03005KT 350V080 CAVOK 06/05 Q1015=
201211110630 METAR LPPR 110630Z 04004KT 340V060 CAVOK 06/05 Q1015=
201211110600 METAR LPPR 110600Z 36005KT CAVOK 07/05 Q1015=
201211110530 METAR LPPR 110530Z 35006KT 9999 FEW037 07/05 Q1014=
201211110500 METAR LPPR 110500Z 35004KT 9999 SCT037 07/06 Q1014=
201211110430 METAR LPPR 110430Z 34004KT 9999 SCT049 07/05 Q1014=
201211110400 METAR LPPR 110400Z 35002KT 9999 SCT049 07/06 Q1014=
201211110330 METAR LPPR 110330Z 34004KT 9999 BKN049 08/06 Q1014=
201211110300 METAR LPPR 110300Z 36004KT 310V050 9999 -RA BKN049 08/07
                        Q1014=
201211110230 METAR LPPR 110230Z 35003KT 9999 SCT040 07/07 Q1014=
201211110200 METAR LPPR 110200Z 33003KT 9999 FEW037 SCT047 07/06 Q1014=
201211110130 METAR LPPR 110130Z 02005KT 350V060 9999 FEW015 BKN039 09/07
                        Q1014=
201211110100 METAR LPPR 110100Z 03003KT 9999 FEW015 SCT039 08/07 Q1014=
201211110030 METAR LPPR 110030Z 04005KT 360V060 9999 -SHRA SCT012 SCT033
                        08/07 Q1014=
201211110000 METAR LPPR 110000Z 00000KT 9999 SCT033 08/07 Q1013=
201211102330 METAR LPPR 102330Z VRB02KT 9999 FEW045 09/08 Q1013=
201211102300 METAR LPPR 102300Z 05004KT 9999 SCT014 BKN040 10/08 Q1013=
201211102230 METAR LPPR 102230Z 01006KT 340V040 9999 -SHRA SCT024 BKN043
                        BKN049 10/09 Q1014=
201211102200 METAR LPPR 102200Z 35004KT 300V030 9999 -SHRA SCT024 BKN029
                        BKN041 10/09 Q1014=
201211102130 METAR LPPR 102130Z 35008KT 300V020 9999 -SHRA SCT022 BKN025
                        BKN049 11/09 Q1013 RERA=
201211102100 METAR LPPR 102100Z VRB02KT 9999 -SHRA SCT028 BKN035 10/09
                        Q1013=
201211102030 METAR LPPR 102030Z VRB02KT 9999 FEW022 SCT033 BKN049 10/09
                        Q1013=
201211102000 METAR LPPR 102000Z 33005KT 280V010 9999 -SHRA SCT022 SCT031
                        BKN049 11/09 Q1013=
201211101930 METAR LPPR 101930Z 35006KT 9999 -SHRA SCT018 SCT021 BKN049
                        10/09 Q1013=
201211101900 METAR LPPR 101900Z 01003KT 340V060 9999 SCT022 BKN031 BKN049
                        11/09 Q1013=
201211101830 METAR LPPR 101830Z 35010KT 9999 -SHRA SCT027 SCT030 BKN037
                        12/08 Q1013=
201211101800 METAR LPPR 101800Z 32005KT 9999 FEW022 SCT030 BKN036 12/08
                        Q1013=
201211101730 METAR LPPR 101730Z 34005KT 9999 SCT022 SCT034 BKN039 13/09
                        Q1013=
201211101700 METAR LPPR 101700Z 34006KT 9999 FEW022 FEW025TCU BKN035 BKN042
                        12/09 Q1012=
201211101630 METAR LPPR 101630Z 35008KT 320V020 9999 SCT020 FEW025CB BKN035
                        BKN042 13/09 Q1012=
201211101600 METAR LPPR 101600Z 34011KT 9999 FEW020 FEW025CB BKN040 13/10
                        Q1013=
201211101530 METAR LPPR 101530Z 34009KT 9999 FEW018 FEW022CB SCT030 14/10
                        Q1012=
201211101500 METAR LPPR 101500Z 33007KT 300V360 9999 -SHRA SCT020 BKN027
                        14/11 Q1012=
201211101430 METAR LPPR 101430Z 33008KT 290V010 9999 FEW017 BKN027 14/11
                        Q1012=
201211101400 METAR LPPR 101400Z 34011KT 9000 -SHRA FEW015 SCT020 BKN035
                        14/10 Q1012=
201211101330 METAR LPPR 101330Z 33009KT 290V360 9999 FEW012 SCT023 15/10
                        Q1012=
201211101300 METAR LPPR 101300Z 34006KT 290V360 9999 FEW009 FEW020TCU
                        14/12 Q1012=
201211101230 METAR LPPR 101230Z 33009KT 8000 -SHRA FEW006 SCT010 BKN040
                        13/12 Q1012=
201211101200 METAR LPPR 101200Z 33015KT 280V360 6000 -SHRA SCT009 SCT020
                        BKN030 13/12 Q1012=
201211101130 METAR LPPR 101130Z VRB05KT 9999 FEW020TCU SCT040 16/11 Q1012=
201211101100 METAR LPPR 101100Z 32006KT 9999 -SHRA FEW015 FEW020TCU SCT025
                        15/12 Q1012=
201211101030 METAR LPPR 101030Z 33007KT 300V010 9999 FEW015 SCT020 15/12
                        Q1012=
201211101000 METAR LPPR 101000Z 34005KT 300V010 9999 FEW015 SCT018 15/12
                        Q1012=
201211100930 METAR LPPR 100930Z 34007KT 300V360 9999 FEW006 SCT015 14/12
                        Q1012=
201211100900 METAR LPPR 100900Z 33007KT 300V010 9000 -SHRA SCT013 SCT018TCU
                        14/12 Q1012=
201211100830 METAR LPPR 100830Z 31004KT 250V050 9999 SCT012 FEW017TCU
                        SCT040 13/12 Q1011=
201211100800 METAR LPPR 100800Z 32004KT 270V350 9000 -SHRA FEW003 SCT009
                        BKN015 13/12 Q1011 RERA=
201211100730 METAR LPPR 100730Z 32006KT 290V350 2500 -SHRA BR SCT009 BKN013
                        13/12 Q1011=
201211100700 METAR LPPR 100700Z 29006KT 180V330 9999 FEW008 BKN014 14/12
                        Q1010=
201211100630 METAR LPPR 100630Z 30006KT 260V360 7000 -SHRA FEW009 BKN015
                        BKN022 14/12 Q1010=
201211100600 METAR LPPR 100600Z 28005KT 240V320 9000 -RA SCT009 BKN015
                        13/13 Q1010 RERA=
201211100530 METAR LPPR 100530Z 25003KT 170V310 8000 -RA FEW009 SCT012
                        BKN020 13/12 Q1010=
201211100500 METAR LPPR 100500Z 18003KT 9999 -RA SCT012 BKN020 12/12 Q1010=
201211100430 METAR LPPR 100430Z 20003KT 170V240 9999 -RA SCT008 BKN012
                        12/11 Q1010 RERA=
201211100400 METAR LPPR 100400Z VRB06KT 6000 RA SCT007 BKN009 BKN020 12/11
                        Q1010=
201211100330 METAR LPPR 100330Z 15008KT 9000 -SHRA FEW020 SCT025 BKN035
                        12/11 Q1010=
201211100300 METAR LPPR 100300Z 16007KT 9000 FEW025 11/10 Q1010=
201211100230 METAR LPPR 100230Z 14006KT 9000 SCT025 11/10 Q1011=
201211100200 METAR LPPR 100200Z 15007KT 8000 FEW020 SCT030 11/10 Q1011=
201211100130 METAR LPPR 100130Z 14006KT 8000 FEW020 SCT030 11/10 Q1011=
201211100100 METAR LPPR 100100Z 14007KT 8000 FEW020 10/09 Q1012=
201211100030 METAR LPPR 100030Z 13006KT 7000 FEW017 SCT027 11/10 Q1012=
201211100000 METAR LPPR 100000Z VRB02KT 7000 FEW006 SCT020 11/10 Q1012=
201211092330 METAR LPPR 092330Z 12005KT 110V170 8000 FEW006 SCT030 11/10
                        Q1012=
201211092300 METAR LPPR 092300Z VRB01KT 8000 FEW005 10/09 Q1013=
201211092230 METAR LPPR 092230Z VRB02KT 8000 FEW005 10/09 Q1012=
201211092200 METAR LPPR 092200Z VRB02KT 8000 NSC 11/10 Q1012=
201211092130 METAR LPPR 092130Z 13006KT 8000 NSC 11/10 Q1012=
201211092100 METAR LPPR 092100Z 16003KT 120V220 8000 NSC 11/10 Q1013=
201211092030 METAR LPPR 092030Z 13005KT 110V180 9000 NSC 11/10 Q1013=
201211092000 METAR LPPR 092000Z VRB02KT 9000 NSC 11/10 Q1013=
201211091930 METAR LPPR 091930Z VRB02KT 8000 NSC 11/10 Q1013=
201211091900 METAR LPPR 091900Z 00000KT 7000 NSC 11/11 Q1013=
201211091830 METAR LPPR 091830Z 00000KT 9999 FEW015 12/11 Q1013=
201211091800 METAR LPPR 091800Z 30001KT 9999 FEW015 FEW020CB 13/11 Q1013=
201211091730 METAR LPPR 091730Z VRB02KT 9999 FEW015 FEW020CB 14/11 Q1013=
201211091700 METAR LPPR 091700Z VRB02KT 9999 FEW015 FEW020CB 15/11 Q1012=
201211091630 METAR LPPR 091630Z 29003KT 9999 FEW018 16/11 Q1013=
201211091600 METAR LPPR 091600Z 29004KT 260V350 9999 FEW020TCU 16/11 Q1012=
201211091530 METAR LPPR 091530Z 29004KT 250V320 9999 SCT025 17/11 Q1012=
201211091500 METAR LPPR 091500Z 30004KT 9999 SCT025 17/11 Q1013=
201211091430 METAR LPPR 091430Z 26004KT 230V300 9999 SCT025 17/11 Q1013=
201211091400 METAR LPPR 091400Z 25004KT 200V300 9999 SCT025 17/11 Q1013=
201211091330 METAR LPPR 091330Z 20003KT 150V250 9999 SCT025 18/10 Q1013=
201211091300 METAR LPPR 091300Z 16003KT 100V250 9999 SCT020 18/10 Q1013=
201211091230 METAR LPPR 091230Z VRB03KT 9999 SCT020 17/11 Q1014=
201211091200 METAR LPPR 091200Z 08004KT 030V130 9999 SCT020 16/11 Q1014=
201211091130 METAR LPPR 091130Z 11006KT 9999 SCT020 15/11 Q1014=
201211091100 METAR LPPR 091100Z 12006KT 9999 FEW017 15/11 Q1014=
201211091030 METAR LPPR 091030Z 11007KT 9999 FEW017 13/11 Q1014=
201211091000 METAR LPPR 091000Z 11009KT 9999 FEW017 12/10 Q1014=
201211090930 METAR LPPR 090930Z 11007KT CAVOK 12/10 Q1014=
201211090900 METAR LPPR 090900Z 11010KT 080V140 9999 SCT002 10/09 Q1014=
201211090830 METAR LPPR 090830Z 11010KT 9999 SCT001 09/08 Q1014=
201211090800 METAR LPPR 090800Z 11011KT 9000 FEW001 09/08 Q1014=
201211090730 METAR LPPR 090730Z 11011KT 8000 SCT002 08/08 Q1013=
201211090700 METAR LPPR 090700Z 11009KT 8000 NSC 08/08 Q1013=
201211090630 METAR LPPR 090630Z 11009KT 6000 SCT001 08/08 Q1013=
201211090600 METAR LPPR 090600Z 11009KT CAVOK 09/08 Q1013=
201211090530 METAR LPPR 090530Z 11009KT CAVOK 09/08 Q1013=
201211090500 METAR LPPR 090500Z 11010KT CAVOK 09/08 Q1014=
201211090430 METAR LPPR 090430Z 11009KT CAVOK 09/08 Q1013=
201211090400 METAR LPPR 090400Z 11008KT CAVOK 09/08 Q1013=
201211090330 METAR LPPR 090330Z 12008KT 9000 NSC 10/09 Q1013=
201211090300 METAR LPPR 090300Z 12005KT 070V210 9000 NSC 09/08 Q1013=
201211090230 METAR LPPR 090230Z 11008KT 8000 NSC 09/09 Q1013=
201211090200 METAR LPPR 090200Z 12008KT 9000 NSC 10/09 Q1013=
201211090130 METAR LPPR 090130Z 12009KT 9000 NSC 09/09 Q1013=
201211090100 METAR LPPR 090100Z VRB03KT 8000 NSC 09/09 Q1014=
201211090030 METAR LPPR 090030Z 11006KT CAVOK 10/09 Q1014=
201211090000 METAR LPPR 090000Z 11006KT CAVOK 10/09 Q1014=
201211082330 METAR LPPR 082330Z VRB02KT CAVOK 11/10 Q1014=
201211082300 METAR LPPR 082300Z 09004KT 050V120 CAVOK 11/10 Q1014=
201211082230 METAR LPPR 082230Z 11006KT CAVOK 11/10 Q1014=
201211082200 METAR LPPR 082200Z 11006KT CAVOK 11/10 Q1014=
201211082130 METAR LPPR 082130Z 11006KT CAVOK 11/10 Q1014=
201211082100 METAR LPPR 082100Z VRB02KT CAVOK 10/10 Q1014=
201211082030 METAR LPPR 082030Z 11006KT CAVOK 11/10 Q1014=
201211082000 METAR LPPR 082000Z VRB02KT 7000 NSC 10/09 Q1014=
201211081930 METAR LPPR 081930Z 11005KT 060V150 9000 NSC 11/10 Q1014=
201211081900 METAR LPPR 081900Z 12006KT CAVOK 11/10 Q1014=
201211081830 METAR LPPR 081830Z 12006KT 9999 FEW015 FEW018TCU 12/11 Q1013=
201211081800 METAR LPPR 081800Z 12005KT 9999 FEW015 FEW018TCU 12/11 Q1013=
201211081730 METAR LPPR 081730Z 14005KT 090V160 9999 FEW018 SCT036 13/11
                        Q1013=
201211081700 METAR LPPR 081700Z 16006KT 9999 FEW018 SCT036 14/11 Q1013=
201211081630 METAR LPPR 081630Z 16006KT 9999 SCT025 SCT036 13/11 Q1013=
201211081600 METAR LPPR 081600Z 14007KT 9999 FEW006 FEW015TCU SCT044 13/11
                        Q1013=
201211081530 METAR LPPR 081530Z 18007KT 9999 4000N -RADZ FEW005 FEW012TCU
                        SCT025 BKN040 13/11 Q1013 RERA REDZ=
201211081500 METAR LPPR 081500Z 17006KT 8000 -RADZ FEW005 FEW012TCU SCT020
                        BKN045 13/12 Q1013=
201211081430 METAR LPPR 081430Z 18007KT 4000 -RADZ BR SCT005 BKN025 13/13
                        Q1013=
201211081400 METAR LPPR 081400Z 20007KT 3000 DZRA BR BKN003 BKN015 14/13
                        Q1013=
201211081330 METAR LPPR 081330Z 21004KT 180V260 4500 -DZRA BR SCT004 BKN012
                        14/13 Q1013 REDZ=
201211081300 METAR LPPR 081300Z 21005KT 180V240 3500 DZ BR SCT005 BKN010
                        14/13 Q1013=
201211081230 METAR LPPR 081230Z 20004KT 160V230 9999 -DZ SCT008 FEW020CB
                        SCT022 BKN035 15/13 Q1013=
201211081200 METAR LPPR 081200Z 18003KT 130V210 9999 FEW010 SCT028 15/12
                        Q1014=
201211081130 METAR LPPR 081130Z 20004KT 170V230 9999 FEW015 SCT025 BKN032
                        14/12 Q1014=
201211081100 METAR LPPR 081100Z 19005KT 9999 FEW015 SCT020 BKN030 14/12
                        Q1015=
201211081030 METAR LPPR 081030Z 15005KT 8000 VCSH FEW015TCU BKN029 14/12
                        Q1015=
201211081000 METAR LPPR 081000Z 14004KT 9999 FEW015TCU BKN029 14/12 Q1015=
201211080930 METAR LPPR 080930Z 15004KT 9999 FEW015TCU SCT025 BKN042 13/11
                        Q1015=
201211080900 METAR LPPR 080900Z 15003KT 9999 FEW015TCU SCT030 BKN040 13/11
                        Q1015=
201211080830 METAR LPPR 080830Z 18003KT 9999 SCT025 BKN037 12/11 Q1015=
201211080800 METAR LPPR 080800Z 21002KT 9999 SCT025 BKN040 12/11 Q1014=
201211080730 METAR LPPR 080730Z 14003KT 100V170 9999 SCT025 BKN040 12/11
                        Q1014=
201211080700 METAR LPPR 080700Z VRB01KT 9000 SCT025 BKN040 12/11 Q1014=
201211080630 METAR LPPR 080630Z 06003KT 010V110 9999 SCT025 BKN040 11/11
                        Q1014=
201211080600 METAR LPPR 080600Z 06003KT 9999 SCT025 BKN040 11/11 Q1014=
201211080530 METAR LPPR 080530Z 04003KT 9999 BKN025 11/10 Q1014=
201211080500 METAR LPPR 080500Z 02002KT 9999 BKN030 11/10 Q1014=
201211080430 METAR LPPR 080430Z 01003KT 9999 BKN025 11/10 Q1014=
201211080400 METAR LPPR 080400Z 34003KT 9999 BKN025 11/10 Q1014=
201211080330 METAR LPPR 080330Z 36003KT 9999 BKN025 11/10 Q1014=
201211080300 METAR LPPR 080300Z 04003KT 9999 FEW020 BKN025 11/10 Q1014=
201211080230 METAR LPPR 080230Z 04003KT 9999 BKN025 11/10 Q1014=
201211080200 METAR LPPR 080200Z 02003KT 9999 SCT025 BKN040 11/10 Q1014=
201211080130 METAR LPPR 080130Z 02004KT 350V070 9999 SCT025 BKN040 11/10
                        Q1015=
201211080100 METAR LPPR 080100Z 03004KT 9999 BKN025 10/10 Q1015=
201211080030 METAR LPPR 080030Z 02005KT 9999 FEW020 BKN030 10/10 Q1015=
201211080000 METAR LPPR 080000Z 03005KT 9999 SCT020 BKN030 10/10 Q1015=
201211072330 METAR LPPR 072330Z 05005KT 7000 -RA BKN025 10/09 Q1016=
201211072300 METAR LPPR 072300Z 05007KT 8000 -RA BKN025 10/09 Q1016=
201211072230 METAR LPPR 072230Z 07005KT 040V110 7000 -RA BKN025 10/09
                        Q1016=
201211072200 METAR LPPR 072200Z 09005KT 040V110 8000 -RA SCT025 BKN040
                        10/09 Q1016=
201211072130 METAR LPPR 072130Z 10007KT 060V120 4000 -RA BR BKN025 10/09
                        Q1016=
201211072100 METAR LPPR 072100Z 07005KT 040V110 7000 -RA BKN030 10/09
                        Q1016=
201211072030 METAR LPPR 072030Z 08008KT 060V120 9000 -RA BKN030 10/09
                        Q1016=
201211072000 METAR LPPR 072000Z 10008KT 9000 -RA BKN030 10/08 Q1016=
201211071930 METAR LPPR 071930Z 10007KT 9999 -RA SCT030 BKN040 10/08 Q1016=
201211071900 METAR LPPR 071900Z 09008KT 9999 -RA FEW030 BKN040 10/08 Q1017=
201211071830 METAR LPPR 071830Z 09007KT 9000 -RA SCT040 10/08 Q1017=
201211071800 METAR LPPR 071800Z 09006KT 9000 -RA BKN040 09/08 Q1016=
201211071730 METAR LPPR 071730Z 09008KT 9000 SCT040 10/07 Q1017=
201211071700 METAR LPPR 071700Z 08007KT 040V110 9000 -RA SCT040 09/07
                        Q1017=
201211071630 METAR LPPR 071630Z 08006KT 7000 -RA FEW040 10/07 Q1017=
201211071600 METAR LPPR 071600Z 08006KT 8000 -RA FEW049 10/06 Q1017=
201211071530 METAR LPPR 071530Z 08009KT 9999 FEW048 12/04 Q1017=
201211071500 METAR LPPR 071500Z 09010KT 060V120 9999 SCT048 12/04 Q1017=
201211071430 METAR LPPR 071430Z 10009KT 9999 FEW040 SCT049 12/03 Q1018=
201211071400 METAR LPPR 071400Z 11008KT 080V140 9999 VCSH FEW040 13/04
                        Q1018=
201211071330 METAR LPPR 071330Z 10007KT 9999 FEW042 13/03 Q1018=
201211071300 METAR LPPR 071300Z 10006KT 080V140 9999 FEW042 13/03 Q1018=
201211071230 METAR LPPR 071230Z 08008G18KT 030V120 9999 FEW048 14/02 Q1019=
201211071200 METAR LPPR 071200Z 08007KT 050V120 9999 FEW049 14/01 Q1019=
201211071130 METAR LPPR 071130Z 08010KT 050V110 9999 FEW049 14/01 Q1020=
201211071100 METAR LPPR 071100Z 08011KT 9999 FEW049 13/M00 Q1020=
201211071030 METAR LPPR 071030Z 08007KT 040V120 9999 FEW045 13/02 Q1021=
201211071000 METAR LPPR 071000Z 07007KT 030V100 9999 FEW045 12/01 Q1021=
201211070930 METAR LPPR 070930Z 08010KT 050V110 CAVOK 13/02 Q1021=
201211070900 METAR LPPR 070900Z 08009KT 050V130 CAVOK 12/01 Q1021=
201211070830 METAR LPPR 070830Z 08010KT 050V110 CAVOK 11/01 Q1021=
201211070800 METAR LPPR 070800Z 06007KT 040V100 CAVOK 09/01 Q1021=
201211070730 METAR LPPR 070730Z 05007KT CAVOK 09/00 Q1021=
201211070700 METAR LPPR 070700Z 08006KT 040V120 CAVOK 09/00 Q1021=
201211070630 METAR LPPR 070630Z 08011KT CAVOK 10/00 Q1021=
201211070600 METAR LPPR 070600Z 08010KT CAVOK 10/00 Q1022=
201211070530 METAR LPPR 070530Z 09011KT CAVOK 10/01 Q1022=
201211070500 METAR LPPR 070500Z 09011KT CAVOK 10/00 Q1022=
201211070430 METAR LPPR 070430Z 09013KT CAVOK 10/01 Q1022=
201211070400 METAR LPPR 070400Z 08011KT CAVOK 10/01 Q1022=
201211070330 METAR LPPR 070330Z 08010KT CAVOK 10/00 Q1023=
201211070300 METAR LPPR 070300Z 09008KT 050V110 CAVOK 11/00 Q1023=
201211070230 METAR LPPR 070230Z 08009KT 050V120 CAVOK 11/01 Q1023=
201211070200 METAR LPPR 070200Z 08009KT 050V110 CAVOK 11/01 Q1024=
201211070130 METAR LPPR 070130Z 08007KT 050V110 CAVOK 11/02 Q1024=
201211070100 METAR LPPR 070100Z 07005KT CAVOK 11/03 Q1024=
201211070030 METAR LPPR 070030Z 07008KT CAVOK 11/03 Q1024=
201211070000 METAR LPPR 070000Z 07009KT CAVOK 11/03 Q1024=
201211062330 METAR LPPR 062330Z 06009KT CAVOK 12/03 Q1024=
201211062300 METAR LPPR 062300Z 05006KT 010V080 CAVOK 10/04 Q1024=
201211062230 METAR LPPR 062230Z 06006KT CAVOK 12/03 Q1024=
201211062200 METAR LPPR 062200Z 05004KT 020V080 CAVOK 12/03 Q1024=
201211062130 METAR LPPR 062130Z 04005KT CAVOK 12/03 Q1024=
201211062100 METAR LPPR 062100Z 06007KT CAVOK 13/03 Q1023=
201211062030 METAR LPPR 062030Z 07008KT CAVOK 13/04 Q1023=
201211062000 METAR LPPR 062000Z 04004KT 010V090 CAVOK 10/06 Q1023=
201211061930 METAR LPPR 061930Z 01005KT CAVOK 10/05 Q1023=
201211061900 METAR LPPR 061900Z VRB05KT CAVOK 11/05 Q1023=
201211061830 METAR LPPR 061830Z 03006KT CAVOK 13/05 Q1023=
201211061800 METAR LPPR 061800Z 03005KT 360V070 CAVOK 13/06 Q1023=
201211061730 METAR LPPR 061730Z 05004KT CAVOK 14/07 Q1022=
201211061700 METAR LPPR 061700Z 05005KT 340V100 CAVOK 15/06 Q1022=
201211061630 METAR LPPR 061630Z 04006KT CAVOK 16/05 Q1022=
201211061600 METAR LPPR 061600Z 04008KT CAVOK 17/05 Q1022=
201211061530 METAR LPPR 061530Z 04007KT 360V080 CAVOK 17/06 Q1022=
201211061500 METAR LPPR 061500Z 03009KT CAVOK 17/05 Q1022=
201211061430 METAR LPPR 061430Z 08007KT 9999 FEW015 17/04 Q1022=
201211061400 METAR LPPR 061400Z 05007KT 350V110 CAVOK 16/05 Q1022=
201211061330 METAR LPPR 061330Z 05005KT 010V120 CAVOK 16/06 Q1022=
201211061300 METAR LPPR 061300Z 04006KT 340V070 CAVOK 16/06 Q1022=
201211061230 METAR LPPR 061230Z 04007KT 340V090 9999 FEW015 15/07 Q1023=
201211061200 METAR LPPR 061200Z 02007KT 350V060 9999 FEW015 15/06 Q1023=
201211061130 METAR LPPR 061130Z 03006KT 360V080 9999 FEW015 15/06 Q1023=
201211061100 METAR LPPR 061100Z 06006KT 030V090 9999 FEW020 14/06 Q1023=
201211061030 METAR LPPR 061030Z 03007KT 9999 FEW020 13/06 Q1023=
201211061000 METAR LPPR 061000Z 03005KT 350V060 9999 FEW020 12/06 Q1023=
201211060930 METAR LPPR 060930Z 03005KT 350V060 9999 FEW020 10/06 Q1023=
201211060900 METAR LPPR 060900Z 05004KT 010V100 9999 FEW020TCU 10/06 Q1023=
201211060830 METAR LPPR 060830Z 10004KT 9999 FEW020TCU 08/06 Q1023=
201211060800 METAR LPPR 060800Z 12003KT 9999 FEW020TCU 06/05 Q1023=
201211060730 METAR LPPR 060730Z VRB02KT CAVOK 06/05 Q1022=
201211060700 METAR LPPR 060700Z 06003KT 320V110 CAVOK 06/04 Q1022=
201211060630 METAR LPPR 060630Z 07003KT 030V130 CAVOK 06/05 Q1022=
201211060600 METAR LPPR 060600Z VRB02KT CAVOK 06/05 Q1021=
201211060530 METAR LPPR 060530Z 04003KT CAVOK 07/05 Q1021=
201211060500 METAR LPPR 060500Z 07004KT 020V080 CAVOK 08/05 Q1021=
201211060430 METAR LPPR 060430Z VRB02KT CAVOK 07/05 Q1021=
201211060400 METAR LPPR 060400Z 10003KT 080V140 CAVOK 07/05 Q1021=
201211060330 METAR LPPR 060330Z 04004KT CAVOK 07/05 Q1021=
201211060300 METAR LPPR 060300Z 07003KT CAVOK 08/06 Q1021=
201211060230 METAR LPPR 060230Z 08003KT 050V110 CAVOK 08/06 Q1021=
201211060200 METAR LPPR 060200Z 07003KT 040V100 CAVOK 08/06 Q1021=
201211060130 METAR LPPR 060130Z 03003KT CAVOK 08/07 Q1021=
201211060100 METAR LPPR 060100Z 03004KT CAVOK 08/06 Q1021=
201211060030 METAR LPPR 060030Z 04004KT CAVOK 08/07 Q1021=
201211060000 METAR LPPR 060000Z 06003KT CAVOK 08/07 Q1021=
201211052330 METAR LPPR 052330Z VRB02KT CAVOK 08/07 Q1021=
201211052300 METAR LPPR 052300Z VRB01KT CAVOK 09/07 Q1021=
201211052230 METAR LPPR 052230Z VRB01KT CAVOK 09/08 Q1021=
201211052200 METAR LPPR 052200Z 03003KT 350V070 CAVOK 09/08 Q1021=
201211052130 METAR LPPR 052130Z VRB02KT CAVOK 09/09 Q1021=
201211052100 METAR LPPR 052100Z 03002KT 9000 FEW030 09/09 Q1020=
201211052030 METAR LPPR 052030Z 04003KT 360V150 9999 FEW025 09/08 Q1020=
201211052000 METAR LPPR 052000Z 02003KT 330V110 9999 FEW020 SCT027 10/09
                        Q1020=
201211051930 METAR LPPR 051930Z 01002KT CAVOK 10/09 Q1020=
201211051900 METAR LPPR 051900Z VRB02KT CAVOK 10/09 Q1019=
201211051830 METAR LPPR 051830Z VRB01KT 9999 FEW020 12/09 Q1019=
201211051800 METAR LPPR 051800Z 00000KT 9999 FEW020 11/08 Q1019=
201211051730 METAR LPPR 051730Z VRB02KT 9999 FEW025 13/09 Q1019=
201211051700 METAR LPPR 051700Z 00000KT 9999 FEW025 14/10 Q1019=
201211051630 METAR LPPR 051630Z 27003KT 210V310 9999 FEW025 15/10 Q1019=
201211051600 METAR LPPR 051600Z VRB03KT 9999 FEW025 16/09 Q1019=
201211051530 METAR LPPR 051530Z 25004KT 200V290 9999 FEW025 16/09 Q1019=
201211051500 METAR LPPR 051500Z 23005KT 190V270 9999 FEW025 16/10 Q1019=
201211051430 METAR LPPR 051430Z 24005KT 180V320 9999 FEW025 16/10 Q1018=
201211051400 METAR LPPR 051400Z 28004KT 230V320 9999 FEW025 16/10 Q1018=
201211051330 METAR LPPR 051330Z 26004KT 210V330 9999 FEW025 16/10 Q1018=
201211051300 METAR LPPR 051300Z VRB05KT 9999 FEW025 16/09 Q1019=
201211051230 METAR LPPR 051230Z VRB02KT 9999 FEW025 SCT047 16/10 Q1019=
201211051200 METAR LPPR 051200Z 17004KT 110V190 9999 FEW020 16/11 Q1019=
201211051130 METAR LPPR 051130Z 18005KT 140V200 9999 FEW025 15/10 Q1019=
201211051100 METAR LPPR 051100Z 18006KT 9999 FEW035 14/10 Q1019=
201211051030 METAR LPPR 051030Z 17006KT 130V200 9999 FEW025 SCT042 13/10
                        Q1019=
201211051000 METAR LPPR 051000Z 13006KT 9999 FEW035 12/10 Q1019=
201211050930 METAR LPPR 050930Z 12005KT 100V160 9999 FEW022 SCT045 10/09
                        Q1019=
201211050900 METAR LPPR 050900Z 09005KT 360V130 9999 -SHRA FEW011 SCT030
                        BKN035 10/09 Q1018=
201211050830 METAR LPPR 050830Z 13008KT 9999 SCT025 BKN037 10/09 Q1018=
201211050800 METAR LPPR 050800Z 13007KT 9999 SCT025 SCT035 09/08 Q1018=
201211050730 METAR LPPR 050730Z VRB02KT 9999 SCT009 SCT025 BKN031 09/08
                        Q1017 RERA=
201211050700 METAR LPPR 050700Z 13008KT 9999 SCT025 BKN034 09/08 Q1017=
201211050630 METAR LPPR 050630Z 14005KT 9999 SCT034 09/08 Q1017=
201211050600 METAR LPPR 050600Z 17003KT 070V210 9999 FEW025 SCT049 08/07
                        Q1017=
201211050530 METAR LPPR 050530Z 13008KT 9999 FEW025 SCT030 09/08 Q1017=
201211050500 METAR LPPR 050500Z 11006KT 9999 -RA FEW025 BKN034 09/08 Q1017=
201211050430 METAR LPPR 050430Z 03004KT 340V070 9999 -RA SCT031 BKN035
                        09/08 Q1017=
201211050400 METAR LPPR 050400Z 10005KT 040V130 9999 FEW025 BKN034 09/08
                        Q1016=
201211050330 METAR LPPR 050330Z 13003KT 100V180 9999 FEW025 BKN035 09/08
                        Q1016=
201211050300 METAR LPPR 050300Z 12004KT 100V160 9999 FEW025 SCT034 08/07
                        Q1016=
201211050230 METAR LPPR 050230Z 13006KT 9999 FEW025 BKN036 09/08 Q1016=
201211050200 METAR LPPR 050200Z 12007KT 9999 FEW025 BKN037 09/08 Q1016=
201211050130 METAR LPPR 050130Z 12007KT 9999 FEW025 SCT034 BKN043 09/08
                        Q1016=
201211050100 METAR LPPR 050100Z 16005KT 130V210 9999 -RA FEW025 SCT040
                        BKN049 09/08 Q1016=
201211050030 METAR LPPR 050030Z VRB03KT 9999 FEW025 SCT035 BKN047 09/08
                        Q1016=
201211050000 METAR LPPR 050000Z 12007KT 9999 FEW025 BKN034 09/08 Q1016=
201211042330 METAR LPPR 042330Z VRB02KT 9999 FEW025 SCT038 09/08 Q1016=
201211042300 METAR LPPR 042300Z 11003KT 350V150 9999 FEW025 SCT033 10/08
                        Q1016=
201211042230 METAR LPPR 042230Z 17005KT 9999 FEW025 BKN032 10/08 Q1015=
201211042200 METAR LPPR 042200Z 07004KT 030V090 9999 FEW025 SCT029 BKN037
                        09/08 Q1015=
201211042130 METAR LPPR 042130Z VRB02KT 9999 FEW027 SCT034 BKN037 09/08
                        Q1015=
201211042100 METAR LPPR 042100Z VRB02KT 9999 FEW019 SCT028 BKN037 10/08
                        Q1015 RERA=
201211042030 METAR LPPR 042030Z 32011KT 9000 SHRA SCT025 SCT036 BKN042
                        11/08 Q1015=
201211042000 METAR LPPR 042000Z 14003KT 120V190 9999 FEW025 SCT043 10/06
                        Q1014=
201211041930 METAR LPPR 041930Z VRB02KT 9999 FEW025 BKN040 10/06 Q1014=
201211041900 METAR LPPR 041900Z 06003KT 9999 FEW025 SCT044 10/05 Q1014=
201211041830 METAR LPPR 041830Z 01002KT 9999 FEW025 SCT045 11/04 Q1013=
201211041800 METAR LPPR 041800Z 34005KT 9999 FEW025 SCT045 12/04 Q1013=
201211041730 METAR LPPR 041730Z 34007KT 9999 FEW025 SCT043 12/05 Q1012=
201211041700 METAR LPPR 041700Z 34008KT 310V010 9999 FEW025 SCT045 13/05
                        Q1012=
201211041630 METAR LPPR 041630Z 34010KT 9999 FEW025 SCT048 14/05 Q1012=
201211041600 METAR LPPR 041600Z 33011KT 300V360 9999 FEW025 14/05 Q1011=
201211041530 METAR LPPR 041530Z 34012KT 310V020 9999 FEW025 14/05 Q1011=
201211041500 METAR LPPR 041500Z 33013KT 9999 FEW025 14/04 Q1011=
201211041430 METAR LPPR 041430Z 34015KT 9999 FEW025 14/06 Q1010=
201211041400 METAR LPPR 041400Z 34014KT 300V010 9999 FEW025 SCT034 14/08
                        Q1010=
201211041330 METAR LPPR 041330Z 33013KT 300V360 9999 FEW025 BKN035 14/08
                        Q1010=
201211041300 METAR LPPR 041300Z 33010KT 300V360 9999 FEW025 SCT049 14/10
                        Q1010=
201211041230 METAR LPPR 041230Z 33006KT 300V010 9999 FEW020 SCT045 14/10
                        Q1009=
201211041200 METAR LPPR 041200Z 01009KT 9999 FEW020 SCT033 12/10 Q1009=
201211041130 METAR LPPR 041130Z 32007KT 9999 SCT025 SCT040 14/09 Q1009=
201211041100 METAR LPPR 041100Z 32005KT 290V350 9999 FEW020 SCT049 14/10
                        Q1009=
201211041030 METAR LPPR 041030Z 32003KT 280V360 9999 FEW020 BKN049 14/11
                        Q1009=
201211041000 METAR LPPR 041000Z VRB02KT 9999 FEW020 BKN049 14/10 Q1008=
201211040930 METAR LPPR 040930Z VRB02KT 9999 FEW020 BKN038 13/10 Q1008=
201211040900 METAR LPPR 040900Z 35004KT 9999 -RADZ FEW020 BKN030 13/11
                        Q1008=
201211040830 METAR LPPR 040830Z 32007KT 290V350 4000 -RADZ BR FEW014 BKN030
                        13/11 Q1008=
201211040800 METAR LPPR 040800Z VRB02KT 9999 FEW022 BKN029 13/11 Q1007=
201211040730 METAR LPPR 040730Z 34004KT 9999 SCT040 13/11 Q1007=
201211040700 METAR LPPR 040700Z 35005KT 310V030 9999 FEW040 13/11 Q1006=
201211040630 METAR LPPR 040630Z VRB01KT 9999 SCT040 12/11 Q1007=
201211040600 METAR LPPR 040600Z 11002KT 9999 SCT040 13/12 Q1006=
201211040530 METAR LPPR 040530Z 00000KT 9999 SCT035 13/12 Q1007=
201211040500 METAR LPPR 040500Z VRB01KT 9999 FEW027 BKN048 13/12 Q1006=
201211040430 METAR LPPR 040430Z VRB01KT 9999 FEW025 BKN048 13/12 Q1006=
201211040400 METAR LPPR 040400Z 00000KT 9999 SCT030 OVC045 13/12 Q1006=
201211040330 METAR LPPR 040330Z 07002KT 9999 SCT025 OVC042 14/11 Q1006=
201211040300 METAR LPPR 040300Z 36003KT 9999 FEW025 OVC040 14/11 Q1007=
201211040230 METAR LPPR 040230Z 34004KT 9999 OVC038 14/11 Q1007=
201211040200 METAR LPPR 040200Z 35003KT 9999 -RA SCT025 OVC032 14/12 Q1007=
201211040130 METAR LPPR 040130Z 35004KT 9999 SCT025 BKN037 14/12 Q1007=
201211040100 METAR LPPR 040100Z 34006KT 9999 FEW015 SCT020 14/12 Q1007=
201211040030 METAR LPPR 040030Z 33007KT 310V010 9999 SCT016 BKN024 15/12
                        Q1007=
201211040000 METAR LPPR 040000Z 33005KT 290V350 9999 FEW010 BKN018 BKN045
                        15/13 Q1008=
201211032330 METAR LPPR 032330Z 23003KT 160V270 9999 SCT009 SCT015 BKN035
                        16/14 Q1007=
201211032300 METAR LPPR 032300Z 21007KT 180V300 9999 FEW008 SCT013 BKN020
                        16/14 Q1007=
201211032230 METAR LPPR 032230Z 19007KT 9999 -RA FEW009 SCT015 BKN035
                        16/14 Q1008=
201211032200 METAR LPPR 032200Z 19009KT 9999 FEW008 SCT014 BKN048 16/14
                        Q1008=
201211032130 METAR LPPR 032130Z 18009KT 9999 SCT009 SCT020 BKN038 15/14
                        Q1008=
201211032100 METAR LPPR 032100Z 16007KT 9999 FEW016 SCT029 BKN048 14/13
                        Q1008=
201211032030 METAR LPPR 032030Z 15007KT 9999 FEW028 SCT048 14/13 Q1008=
201211032000 METAR LPPR 032000Z 14005KT 9999 FEW032 BKN047 14/12 Q1008=
201211031930 METAR LPPR 031930Z 15005KT 9999 FEW015 SCT040 14/13 Q1008=
201211031900 METAR LPPR 031900Z 18003KT 9999 FEW015 SCT040 14/12 Q1008=
201211031830 METAR LPPR 031830Z 18003KT 9999 FEW015 SCT048 13/12 Q1007=
201211031800 METAR LPPR 031800Z 18002KT 9999 FEW015 SCT048 14/12 Q1007=
201211031730 METAR LPPR 031730Z 22002KT 9999 FEW015 15/13 Q1007=
201211031700 METAR LPPR 031700Z 24002KT 9999 FEW015 16/13 Q1007=
201211031630 METAR LPPR 031630Z VRB02KT 9999 SCT016 16/13 Q1007=
201211031600 METAR LPPR 031600Z VRB02KT 9999 SCT015 17/13 Q1007=
201211031530 METAR LPPR 031530Z 31005KT 260V350 9999 SCT013 16/13 Q1007=
201211031500 METAR LPPR 031500Z 32005KT 270V360 9999 SCT007 SCT011 16/14
                        Q1007=
201211031430 METAR LPPR 031430Z 32004KT 280V350 9999 SCT008 BKN012 BKN029
                        16/15 Q1007=
201211031400 METAR LPPR 031400Z 32004KT 270V350 9999 SCT003 SCT015 BKN025
                        15/15 Q1007 RERA=
201211031330 METAR LPPR 031330Z 32006KT 270V350 2100 RADZ BR SCT004 BKN010
                        BKN012 15/14 Q1007=
201211031300 METAR LPPR 031300Z 29005KT 230V340 9999 SCT008 BKN017 BKN043
                        17/15 Q1006=
201211031230 METAR LPPR 031230Z 29006KT 260V330 9999 SCT008 BKN017 BKN043
                        17/15 Q1007=
201211031200 METAR LPPR 031200Z 29006KT 260V320 9999 BKN008 BKN016 16/15
                        Q1006=
201211031130 METAR LPPR 031130Z 30005KT 260V340 9999 SCT006 SCT008 BKN022
                        16/15 Q1006=
201211031100 METAR LPPR 031100Z 30005KT 260V330 9999 FEW005 SCT007 BKN043
                        16/15 Q1006=
201211031030 METAR LPPR 031030Z 28005KT 230V320 9999 SCT003 BKN004 BKN020
                        16/16 Q1006 RERA=
201211031000 METAR LPPR 031000Z 20012KT 3700 RADZ BR BKN004 BKN006 16/15
                        Q1005=
201211030930 METAR LPPR 030930Z 18016KT 8000 -RADZ SCT006 BKN009 BKN014
                        16/15 Q1005 RERA=
201211030900 METAR LPPR 030900Z 18018KT 9000 -RADZ BKN009 BKN010 16/15
                        Q1005=
201211030830 METAR LPPR 030830Z 18018KT 9999 BKN007 BKN014 16/15 Q1004=
201211030800 METAR LPPR 030800Z 18013KT 3000 -DZRA BR SCT005 OVC015 16/15
                        Q1004 REDZ=
201211030730 METAR LPPR 030730Z 18014KT 9999 FEW005 BKN015 15/14 Q1004=
201211030700 METAR LPPR 030700Z 17013KT 7000 -DZRA FEW006 BKN018 15/14
                        Q1004=
201211030630 METAR LPPR 030630Z 17010KT 9999 -RA FEW006 BKN016 15/14 Q1004=
201211030600 METAR LPPR 030600Z 15007KT 9999 SCT005 BKN018 15/14 Q1004=
201211030530 METAR LPPR 030530Z 16008KT 130V190 9000 -RA FEW001 SCT003
                        BKN022 15/14 Q1005=
201211030500 METAR COR LPPR 030500Z 16007KT 8000 -RADZ SCT003 BKN025 15/14
                        Q1004 RERA REDZ=
201211030430 METAR LPPR 030430Z 18008KT 4000 RADZ BR SCT003 BKN030 15/14
                        Q1005=
201211030400 METAR LPPR 030400Z 19007KT 8000 -RA SCT018 BKN049 16/14 Q1005=
201211030330 METAR LPPR 030330Z 17003KT 9999 FEW033 16/14 Q1005=
201211030300 METAR LPPR 030300Z 15004KT 9999 SCT033 15/14 Q1006=
201211030230 METAR LPPR 030230Z 17005KT 9999 SCT030 15/14 Q1006=
201211030200 METAR LPPR 030200Z 18006KT 9999 BKN029 16/14 Q1007=
201211030130 METAR LPPR 030130Z 18010KT 9999 BKN026 16/14 Q1007=
201211030100 METAR LPPR 030100Z 18009KT 9999 BKN028 17/14 Q1007=
201211030030 METAR LPPR 030030Z 18010KT 9999 BKN023 17/14 Q1008=
201211030000 METAR LPPR 030000Z 17009KT 9999 BKN020 16/13 Q1008=
201211022330 METAR LPPR 022330Z 15008KT 9999 FEW015 SCT020 16/13 Q1008=
201211022300 METAR LPPR 022300Z 16008KT 9999 FEW020 16/12 Q1008=
201211022230 METAR LPPR 022230Z 15007KT 9999 VCSH FEW028 16/12 Q1009=
201211022200 METAR LPPR 022200Z 14007KT 9999 FEW015 16/12 Q1009=
201211022130 METAR LPPR 022130Z 15006KT 9999 FEW015 SCT030 16/12 Q1009=
201211022100 METAR LPPR 022100Z 16006KT 9999 BKN029 16/12 Q1009=
201211022030 METAR LPPR 022030Z 17007KT 9999 BKN033 16/13 Q1009=
201211022000 METAR LPPR 022000Z 17008KT 9999 BKN037 16/13 Q1010=
201211021930 METAR LPPR 021930Z 18009KT 9999 FEW042 16/13 Q1010=
201211021900 METAR LPPR 021900Z 17009KT 9999 FEW011 16/14 Q1010=
201211021830 METAR LPPR 021830Z 17009KT 9999 FEW012 16/14 Q1010=
201211021800 METAR LPPR 021800Z 18010KT 9999 FEW012 17/14 Q1010=
201211021730 METAR LPPR 021730Z 20010KT 9999 FEW009 FEW012TCU 17/14 Q1010=
201211021700 METAR LPPR 021700Z 20011KT 9999 FEW009 FEW012TCU 17/14 Q1010=
201211021630 METAR LPPR 021630Z 19012KT 9999 SCT011 FEW012TCU 17/15 Q1010=
201211021600 METAR LPPR 021600Z 19010KT 9999 FEW009 SCT014 BKN046 17/15
                        Q1010=
201211021530 METAR LPPR 021530Z 19011KT 160V230 9999 FEW009 SCT014 BKN048
                        18/15 Q1010=
201211021500 METAR LPPR 021500Z 20011KT 9999 FEW014 SCT048 18/15 Q1010=
201211021430 METAR LPPR 021430Z 20010KT 9999 FEW015 SCT048 18/15 Q1011=
201211021400 METAR LPPR 021400Z 20011KT 9999 FEW009 SCT015 BKN048 17/15
                        Q1011=
201211021330 METAR LPPR 021330Z 20013G23KT 9999 FEW014 BKN048 18/15 Q1011=
201211021300 METAR LPPR 021300Z 20012KT 170V230 9999 FEW025 BKN048 18/15
                        Q1011=
201211021230 METAR LPPR 021230Z 20011KT 170V230 9999 FEW018 BKN045 18/14
                        Q1011=
201211021200 METAR LPPR 021200Z 19011KT 9999 FEW009 SCT018 BKN045 16/14
                        Q1012=
201211021130 METAR LPPR 021130Z 19010KT 9000 FEW007 SCT009 BKN043 16/14
                        Q1012=
201211021100 METAR LPPR 021100Z 19012KT 9999 FEW009 SCT021 BKN044 16/14
                        Q1012=
201211021030 METAR LPPR 021030Z 19011KT 9999 FEW007 SCT018 BKN038 17/15
                        Q1012=
201211021000 METAR LPPR 021000Z 19009KT 9999 FEW009 BKN045 16/14 Q1012=
201211020930 METAR LPPR 020930Z 18008KT 9999 FEW009 SCT022 BKN047 16/14
                        Q1012=
201211020900 METAR LPPR 020900Z 23009KT 190V290 7000 -SHRA FEW016 SCT020
                        BKN040 15/13 Q1012=
201211020830 METAR LPPR 020830Z 18006KT 9000 FEW009 SCT021 15/14 Q1012=
201211020800 METAR LPPR 020800Z 21006KT 180V240 9999 FEW015 SCT030 15/13
                        Q1011=
201211020730 METAR LPPR 020730Z 22005KT 180V270 9999 FEW020 SCT040 16/13
                        Q1011=
201211020700 METAR LPPR 020700Z 22007KT 170V270 9999 FEW008 BKN020 15/13
                        Q1011=
201211020630 METAR LPPR 020630Z 19010KT 9999 FEW007 SCT012 BKN020 15/14
                        Q1011=
201211020600 METAR LPPR 020600Z 17008KT 9000 -RA FEW008 SCT012 BKN025
                        14/13 Q1010=
201211020530 METAR LPPR 020530Z 17008KT 9999 SCT010 BKN020 14/13 Q1010=
201211020500 METAR LPPR 020500Z 17006KT 9999 SCT015 BKN040 13/13 Q1010=
201211020430 METAR LPPR 020430Z 16009KT 9999 FEW005 SCT015 BKN030 13/13
                        Q1010=
201211020400 METAR LPPR 020400Z 17007KT 9999 FEW006 SCT015 BKN030 14/13
                        Q1010=
201211020330 METAR LPPR 020330Z 17006KT 9999 SCT007 BKN020 13/13 Q1010=
201211020300 METAR LPPR 020300Z 15006KT 9999 FEW015 SCT025 BKN030 13/13
                        Q1010=
201211020230 METAR LPPR 020230Z 18004KT 9999 SCT040 13/12 Q1010=
201211020200 METAR LPPR 020200Z 18004KT 9999 SCT040 13/12 Q1010=
201211020130 METAR LPPR 020130Z 15003KT 130V190 9999 SCT040 12/11 Q1010=
201211020100 METAR LPPR 020100Z 19003KT 9999 FEW015 SCT030 12/11 Q1011=
201211020030 METAR LPPR 020030Z 21004KT 9999 FEW012 BKN030 13/12 Q1011=
201211020000 METAR LPPR 020000Z 24004KT 190V310 7000 -RA FEW015 SCT020
                        BKN040 14/13 Q1010=
201211012330 METAR LPPR 012330Z VRB02KT 9999 FEW025 SCT040 13/12 Q1010=
201211012300 METAR LPPR 012300Z 21003KT 170V260 9999 FEW025 BKN040 14/12
                        Q1010=
201211012230 METAR LPPR 012230Z 25003KT 190V310 9999 FEW025 BKN040 14/13
                        Q1010=
201211012200 METAR LPPR 012200Z 31006KT 270V360 9999 FEW015 BKN020 14/13
                        Q1010=
201211012130 METAR LPPR 012130Z 23005KT 170V270 9999 FEW012 BKN025 15/13
                        Q1009=
201211012100 METAR LPPR 012100Z 22004KT 190V260 9999 SCT015 BKN030 14/13
                        Q1009=
201211012030 METAR LPPR 012030Z 24008KT 190V300 8000 -SHRA FEW007 SCT015
                        BKN025 14/13 Q1009=
201211012000 METAR LPPR 012000Z 29004KT 240V340 9999 -SHRA FEW015 BKN030
                        14/13 Q1009=
201211011930 METAR LPPR 011930Z 27004KT 220V330 9999 FEW015 BKN030 15/12
                        Q1009=
201211011900 METAR LPPR 011900Z 24003KT 200V290 9999 FEW020 SCT040 15/12
                        Q1009=
201211011830 METAR LPPR 011830Z 21003KT 180V270 9999 FEW025 BKN040 15/12
                        Q1008=
201211011800 METAR LPPR 011800Z 22003KT 170V260 9999 FEW020 FEW025CB SCT040
                        15/10 Q1008=
201211011730 METAR LPPR 011730Z 27006KT 210V330 9999 SCT025TCU BKN040
                        16/11 Q1008=
201211011700 METAR LPPR 011700Z 25004KT 210V310 9999 FEW025 SCT040 16/12
                        Q1008=
201211011630 METAR LPPR 011630Z 26007KT 220V310 9999 SCT025TCU 17/12 Q1007=
201211011600 METAR LPPR 011600Z 25008KT 210V320 9999 SCT023TCU 18/12 Q1007=
201211011530 METAR LPPR 011530Z 27006KT 200V320 9999 FEW026TCU 17/13 Q1007=
201211011500 METAR LPPR 011500Z 25008KT 210V330 9999 SCT022TCU SCT030
                        17/13 Q1006=
201211011430 METAR LPPR 011430Z 25007KT 210V290 9999 SCT020TCU BKN040
                        17/13 Q1006=
201211011400 METAR LPPR 011400Z 24007KT 190V280 9999 FEW016 SCT025 BKN048
                        17/13 Q1006=
201211011330 METAR LPPR 011330Z 27004KT 210V310 9999 SCT016 FEW018TCU
                        17/12 Q1005=
201211011300 METAR LPPR 011300Z 29005KT 260V350 9999 FEW012 FEW016TCU
                        17/12 Q1005=
201211011230 METAR LPPR 011230Z 27004KT 210V310 9999 FEW020 17/14 Q1005=
201211011200 METAR LPPR 011200Z 29004KT 240V360 9999 FEW018 FEW022TCU
                        BKN049 16/13 Q1005=
201211011130 METAR LPPR 011130Z 31007KT 250V350 8000 -SHRA SCT018 FEW022CB
                        BKN048 14/12 Q1005=
201211011100 METAR LPPR 011100Z 23007KT 210V280 9999 VCSH SCT022 FEW023CB
                        SCT048 18/14 Q1005=
201211011030 METAR LPPR 011030Z 24006KT 190V280 9999 FEW010 SCT020 FEW022TCU
                        BKN049 16/13 Q1005=
201211011000 METAR LPPR 011000Z 26004KT 170V310 9999 FEW008 FEW016TCU
                        SCT049 16/13 Q1004=
201211010930 METAR LPPR 010930Z 27003KT 190V330 9999 FEW007 FEW020TCU
                        SCT045 14/13 Q1004=
201211010900 METAR LPPR 010900Z 31008KT 270V340 9000 -SHRA BKN007 FEW020CB
                        SCT030 14/13 Q1004 RESHRA=
201211010830 METAR LPPR 010830Z 28008KT 230V320 3000 -RA BR SCT006 BKN018
                        FEW022CB 14/13 Q1003=
201211010800 METAR LPPR 010800Z 25007KT 210V320 9999 -SHRA FEW020 FEW022CB
                        SCT045 16/12 Q1002=
201211010730 METAR LPPR 010730Z 23008KT 190V270 9999 SCT020 SCT046 15/12
                        Q1001=
201211010700 METAR LPPR 010700Z 23008KT 210V270 9999 FEW018 SCT034 15/11
                        Q1001=
201211010630 METAR LPPR 010630Z 23007KT 160V270 9999 FEW018 SCT030 15/12
                        Q1001=
201211010600 METAR LPPR 010600Z 24011KT 200V280 9999 SCT022 SCT037 15/13
                        Q1001=
201211010530 METAR LPPR 010530Z 25006KT 210V290 9999 FEW025 SCT048 15/11
                        Q1001=
201211010500 METAR LPPR 010500Z 24007KT 200V280 9999 FEW025 SCT045 15/11
                        Q1001=
201211010430 METAR LPPR 010430Z 24007KT 190V290 9999 SCT025 SCT045 15/11
                        Q1000=
201211010400 METAR LPPR 010400Z 25007KT 210V300 9999 FEW025 BKN048 15/11
                        Q1000=
201211010330 METAR LPPR 010330Z 25006KT 200V310 9999 FEW025 SCT040 BKN048
                        15/10 Q1000=
201211010300 METAR LPPR 010300Z 26008KT 180V340 9999 -RA FEW018 SCT028
                        BKN047 14/11 Q1000=
201211010230 METAR LPPR 010230Z 24007KT 210V270 9999 FEW025 SCT030 BKN042
                        15/11 Q1000=
201211010200 METAR LPPR 010200Z 24009KT 200V280 9999 FEW025 BKN040 15/10
                        Q1000=
201211010130 METAR LPPR 010130Z 22008KT 180V260 9999 FEW025 BKN036 BKN048
                        15/11 Q1000=
201211010100 METAR LPPR 010100Z 28010KT 230V320 9999 -RA FEW014 SCT030
                        BKN038 14/11 Q1001=
201211010030 METAR LPPR 010030Z 25007KT 200V280 9999 FEW025 SCT039 15/10
                        Q1000=
201211010000 METAR LPPR 010000Z 25007KT 200V290 9999 FEW025 BKN034 15/12
                        Q1000=

</pre>

</body>
</html>
