##########################################################
# Query made at 11/07/2014 15:25:42 UTC
# Time interval: from 11/01/2009 00:00  to 12/01/2009 23:59  UTC
##########################################################

##########################################################
# LPPR, Porto / Pedras Rubras (Portugal)
# WMO index: 08545
# Latitude 41-14N. Longitude 008-41W. Altitude 69 m.
##########################################################

###################################
#  METAR/SPECI from LPPR
###################################
200912012330 METAR LPPR 012330Z VRB03KT 8000 SCT001 SCT003 BKN007 16/16
                        Q1018=
200912012300 METAR LPPR 012300Z 28007KT 230V310 8000 SCT001 SCT003 BKN006
                        16/16 Q1018=
200912012230 METAR LPPR 012230Z 27008KT 240V300 3000 BR SCT001 BKN003
                        16/16 Q1018=
200912012200 METAR LPPR 012200Z 23005KT 200V270 2000 -RADZ BR BKN001 BKN002
                        16/16 Q1018=
200912012130 METAR LPPR 012130Z 21010KT 2000 -RADZ BR BKN001 BKN002 15/15
                        Q1018=
200912012100 METAR LPPR 012100Z 20012KT 2000 -RADZ BR BKN001 BKN002 15/15
                        Q1018=
200912012030 METAR LPPR 012030Z 21011KT 2000 -DZ BR BKN001 BKN002 15/15
                        Q1019=
200912012000 METAR LPPR 012000Z 20010KT 150V250 2000 -RADZ BR SCT001 BKN002
                        15/15 Q1019=
200912011930 METAR LPPR 011930Z 21009KT 180V240 2000 -RADZ BR SCT001 BKN003
                        15/15 Q1019=
200912011900 METAR LPPR 011900Z 20009KT 2000 -RADZ BR SCT001 BKN006 14/14
                        Q1019=
200912011830 METAR LPPR 011830Z 22005KT 170V270 2000 -RADZ BR SCT001 BKN006
                        14/14 Q1019=
200912011800 METAR LPPR 011800Z 20007KT 180V240 2000 -RADZ BR SCT004 BKN006
                        14/14 Q1019=
200912011730 METAR LPPR 011730Z 20006KT 2000 -RADZ BR SCT002 BKN003 14/14
                        Q1019=
200912011700 METAR LPPR 011700Z VRB02KT 2000 -RADZ BR SCT002 BKN003 14/14
                        Q1019=
200912011630 METAR LPPR 011630Z 27006KT 230V020 3000 -RADZ BR SCT001 BKN003
                        15/14 Q1019=
200912011600 METAR LPPR 011600Z 28007KT 250V350 3000 -RADZ BR SCT004 BKN005
                        15/14 Q1019=
200912011530 METAR LPPR 011530Z 26006KT 200V300 8000 SCT008 SCT015 BKN030
                        16/15 Q1019=
200912011500 METAR LPPR 011500Z 25006KT 200V280 5000 -RADZ BR SCT008 BKN009
                        16/15 Q1019=
200912011430 METAR LPPR 011430Z 25006KT 220V280 7000 SCT008 BKN030 16/15
                        Q1019=
200912011400 METAR LPPR 011400Z 25005KT 200V300 7000 SCT008 BKN013 BKN025
                        16/15 Q1019=
200912011330 METAR LPPR 011330Z 25005KT 210V320 5000 BR SCT008 BKN013
                        BKN025 16/15 Q1020=
200912011300 METAR LPPR 011300Z VRB05KT 8000 SCT008 BKN014 BKN030 15/15
                        Q1020=
200912011230 METAR LPPR 011230Z 19008KT 170V250 5000 BR SCT008 BKN014
                        BKN025 14/14 Q1020=
200912011200 METAR LPPR 011200Z 19010KT 5000 BR SCT006 SCT009 BKN013 14/14
                        Q1021=
200912011130 METAR LPPR 011130Z 19010KT 5000 -RADZ BR SCT003 BKN006 BKN013
                        13/13 Q1021=
200912011100 METAR LPPR 011100Z 18012KT 5000 -RADZ BR SCT004 SCT008 BKN013
                        13/13 Q1021=
200912011030 METAR LPPR 011030Z 17009KT 5000 BR SCT004 SCT008 BKN013 12/12
                        Q1021=
200912011000 METAR LPPR 011000Z 18011KT 5000 -RADZ BR SCT005 BKN013 12/12
                        Q1021=
200912010930 METAR LPPR 010930Z 19005KT 150V250 2000 -RADZ BR SCT002 BKN006
                        BKN013 11/11 Q1021=
200912010900 METAR LPPR 010900Z 15008KT 2000 -DZ BR SCT002 BKN004 11/11
                        Q1021=
200912010830 METAR LPPR 010830Z 15008KT 3000 -DZ BR SCT002 BKN004 11/11
                        Q1021=
200912010800 METAR LPPR 010800Z 14007KT 2000 -DZ BR SCT002 BKN004 11/10
                        Q1021=
200912010730 METAR LPPR 010730Z 15008KT 3000 -DZ BR SCT002 BKN005 11/10
                        Q1021=
200912010700 METAR LPPR 010700Z 15008KT 3000 -DZ BR SCT002 BKN005 11/10
                        Q1021=
200912010630 METAR LPPR 010630Z 16008KT 4000 -DZ BR SCT003 BKN007 11/10
                        Q1021=
200912010600 METAR LPPR 010600Z 15008KT 4000 -DZ BR SCT005 BKN012 11/10
                        Q1021=
200912010530 METAR LPPR 010530Z 16005KT 130V200 7000 SCT008 BKN015 10/10
                        Q1021=
200912010500 METAR LPPR 010500Z 16009KT 8000 -DZ SCT007 BKN015 10/09 Q1021=
200912010430 METAR LPPR 010430Z 13005KT 090V160 9999 SCT020 BKN035 10/08
                        Q1021=
200912010400 METAR LPPR 010400Z 12007KT 9999 SCT020 BKN035 10/09 Q1021=
200912010330 METAR LPPR 010330Z 12006KT 8000 -RA SCT020 BKN035 10/08 Q1021=
200912010300 METAR LPPR 010300Z 13008KT 8000 FEW015 SCT030 BKN040 10/08
                        Q1021=
200912010230 METAR LPPR 010230Z 12007KT 8000 SCT013 BKN033 10/08 Q1021=
200912010200 METAR LPPR 010200Z 12008KT 7000 FEW015 SCT035 BKN060 10/08
                        Q1021=
200912010130 METAR LPPR 010130Z 13007KT 8000 FEW015 SCT035 BKN090 10/08
                        Q1021=
200912010100 METAR LPPR 010100Z 13006KT 8000 FEW015 SCT040 BKN090 09/08
                        Q1021=
200912010030 METAR LPPR 010030Z 11006KT 7000 FEW015 SCT040 BKN090 09/08
                        Q1021=
200912010000 METAR LPPR 010000Z 11007KT 6000 FEW015 SCT030 BKN070 09/08
                        Q1022=
200911302330 METAR LPPR 302330Z 11007KT 8000 FEW015 SCT030 BKN060 10/08
                        Q1022=
200911302300 METAR LPPR 302300Z VRB03KT 8000 -SHRA FEW015 SCT030 BKN060
                        10/08 Q1021=
200911302230 METAR LPPR 302230Z 13006KT 9999 FEW015 BKN035 10/08 Q1021=
200911302200 METAR LPPR 302200Z 12006KT 9999 FEW015 SCT030 09/08 Q1021=
200911302130 METAR LPPR 302130Z 10006KT 9999 SCT015 09/08 Q1021=
200911302100 METAR LPPR 302100Z 13001KT 9999 FEW017 09/07 Q1021=
200911302030 METAR LPPR 302030Z 00000KT 9999 SCT017 10/07 Q1021=
200911302000 METAR LPPR 302000Z VRB03KT 9999 SCT015 BKN035 11/08 Q1021
                        RERA=
200911301930 METAR LPPR 301930Z 00000KT 8000 SHRA SCT015 BKN025 09/08
                        Q1021=
200911301900 METAR LPPR 301900Z 00000KT 9999 FEW015 SCT035 09/07 Q1020=
200911301830 METAR LPPR 301830Z 00000KT 9999 FEW015 SCT035 09/07 Q1020=
200911301800 METAR LPPR 301800Z 00000KT 9999 FEW015 FEW025CB 10/08 Q1020=
200911301730 METAR LPPR 301730Z 31002KT 9999 FEW015 FEW025CB 11/08 Q1020=
200911301700 METAR LPPR 301700Z 33006KT 270V050 9999 FEW015 FEW025CB 12/08
                        Q1019=
200911301630 METAR LPPR 301630Z VRB02KT 9999 FEW015 FEW025CB SCT040 14/09
                        Q1019=
200911301600 METAR LPPR 301600Z 29002KT 9999 FEW015 FEW025CB SCT040 13/09
                        Q1019=
200911301530 METAR LPPR 301530Z VRB02KT 9999 FEW015 FEW025CB SCT040 13/09
                        Q1018=
200911301500 METAR LPPR 301500Z VRB03KT 9999 FEW015 FEW025CB SCT040 13/08
                        Q1018=
200911301430 METAR LPPR 301430Z 27004KT 230V300 9999 FEW015 FEW025CB SCT250
                        14/08 Q1018=
200911301400 METAR LPPR 301400Z 31004KT 280V340 9999 FEW015 FEW025CB SCT250
                        14/07 Q1018=
200911301330 METAR LPPR 301330Z VRB03KT 9999 FEW015 FEW025CB SCT200 13/07
                        Q1018=
200911301300 METAR LPPR 301300Z 27004KT 240V310 9999 FEW015 FEW025CB SCT200
                        14/08 Q1018=
200911301230 METAR LPPR 301230Z 33004KT 270V020 9999 FEW015 FEW025CB SCT200
                        13/08 Q1018=
200911301200 METAR LPPR 301200Z 33005KT 260V010 9999 FEW015 FEW025CB 13/07
                        Q1018=
200911301130 METAR LPPR 301130Z VRB03KT 9999 FEW015 FEW025CB 12/08 Q1018=
200911301100 METAR LPPR 301100Z VRB03KT 9999 FEW015 FEW025CB 12/08 Q1018=
200911301030 METAR LPPR 301030Z VRB02KT 9999 FEW015 FEW025CB 11/08 Q1017=
200911301000 METAR LPPR 301000Z 00000KT 9999 FEW015 FEW000CB 11/08 Q1017=
200911300930 METAR LPPR 300930Z 00000KT 9999 FEW015 FEW025CB 09/08 Q1016=
200911300900 METAR LPPR 300900Z 11001KT 9999 FEW015 FEW025CB 08/07 Q1016=
200911300830 METAR LPPR 300830Z 10003KT 9999 FEW015 FEW025CB 07/06 Q1015=
200911300800 METAR LPPR 300800Z VRB01KT 8000 -SHRA SCT015 FEW025CB 07/06
                        Q1015=
200911300730 METAR LPPR 300730Z 11005KT 8000 FEW015 FEW025CB 06/06 Q1014=
200911300700 METAR LPPR 300700Z 10003KT 9999 FEW017 06/05 Q1014=
200911300630 METAR LPPR 300630Z VRB02KT 9999 FEW015 06/05 Q1013=
200911300600 METAR LPPR 300600Z 00000KT 9999 SCT015 FEW025CB 07/06 Q1012=
200911300530 METAR LPPR 300530Z VRB03KT 4000 -SHRA BR SCT015 FEW020CB
                        BKN030 07/06 Q1013=
200911300500 METAR LPPR 300500Z 06008KT 030V090 6000 SCT015 BKN030 07/06
                        Q1012=
200911300430 METAR LPPR 300430Z VRB01KT 8000 -SHRA SCT015 FEW020CB BKN030
                        07/07 Q1011=
200911300400 METAR LPPR 300400Z VRB02KT 8000 -SHRA SCT015 FEW020CB BKN030
                        07/07 Q1011=
200911300330 METAR LPPR 300330Z VRB03KT 8000 -SHRA SCT015 FEW020CB BKN030
                        07/06 Q1011=
200911300300 METAR LPPR 300300Z VRB02KT 8000 SCT015 FEW020CB BKN030 07/06
                        Q1011=
200911300230 METAR LPPR 300230Z 16005KT 8000 -SHRA SCT015 FEW020CB BKN030
                        07/06 Q1010=
200911300200 METAR LPPR 300200Z 13007KT 8000 SCT015 FEW020CB BKN030 07/06
                        Q1010=
200911300130 METAR LPPR 300130Z 12007KT 8000 SCT015 FEW020CB BKN030 06/06
                        Q1010=
200911300100 METAR LPPR 300100Z 12006KT 8000 SCT015 FEW020CB BKN030 07/06
                        Q1010=
200911300030 METAR LPPR 300030Z 10007KT 5000 SHRA BR SCT015 FEW020CB BKN030
                        07/06 Q1010=
200911300000 METAR LPPR 300000Z 12007KT 8000 -SHRA SCT015 FEW025CB BKN030
                        07/05 Q1010=
200911292330 METAR LPPR 292330Z 12009KT 8000 -SHRA SCT015 FEW025CB BKN030
                        07/05 Q1010=
200911292300 METAR LPPR 292300Z 11005KT 080V140 9999 SCT015 BKN030 07/05
                        Q1009=
200911292230 METAR LPPR 292230Z 11005KT 9999 BKN015 FEW025CB 07/05 Q1009=
200911292200 METAR LPPR 292200Z 12007KT 9999 BKN015 FEW025CB 07/05 Q1009=
200911292130 METAR LPPR 292130Z 10008KT 080V140 9999 BKN015 FEW025CB 07/05
                        Q1008=
200911292100 METAR LPPR 292100Z 10006KT 050V120 9999 BKN015 FEW025CB 07/05
                        Q1008=
200911292030 METAR LPPR 292030Z 10011KT 060V140 8000 -SHRA BKN015 FEW025CB
                        07/06 Q1009=
200911292000 METAR LPPR 292000Z 04008KT 010V080 8000 -SHRA BKN015 FEW025CB
                        08/06 Q1008=
200911291930 METAR LPPR 291930Z VRB04KT 5000 -SHRA BR BKN015 FEW025CB
                        08/06 Q1008=
200911291900 METAR LPPR 291900Z 11008KT 9999 -SHRA BKN015 FEW025CB SCT030
                        08/06 Q1007=
200911291830 METAR LPPR 291830Z 10008KT 9999 -SHRA SCT015 FEW025CB BKN030
                        08/06 Q1007=
200911291800 METAR LPPR 291800Z 10005KT 9999 SCT015 FEW025CB BKN030 07/06
                        Q1007=
200911291730 METAR LPPR 291730Z 05005KT 020V080 9999 SCT015 FEW025CB BKN070
                        08/06 Q1007=
200911291700 METAR LPPR 291700Z 34007G17KT 280V070 8000 -SHRA SCT007 BKN015
                        SCT025CB 08/06 Q1007 WS ALL RWY=
200911291630 METAR LPPR 291630Z 33008KT 290V010 4000 -SHRA BR SCT006 BKN015
                        SCT025CB 07/06 Q1007 RERA WS ALL
                        RWY=
200911291600 METAR LPPR 291600Z 29006KT 250V330 8000 VCSH SCT015 FEW020TCU
                        SCT025CB 11/06 Q1006 WS ALL RWY=
200911291530 METAR LPPR 291530Z 29004KT 250V330 9999 BKN015 SCT025CB 09/06
                        Q1006 WS ALL RWY=
200911291500 METAR LPPR 291500Z 32019KT 8000 -SHRA BKN015 SCT025CB 11/06
                        Q1007 WS ALL RWY=
200911291430 METAR COR LPPR 291430Z 30012G25KT 260V330 9999 BKN015 SCT025CB
                        12/06 Q1006 WS ALL RWY=
200911291400 METAR LPPR 291400Z 30013KT 260V320 9999 SCT015 FEW025CB BKN250
                        12/06 Q1006 WS ALL RWY=
200911291330 METAR LPPR 291330Z 30012KT 270V330 9999 SCT015 FEW025CB 12/05
                        Q1006=
200911291300 METAR LPPR 291300Z 28010G22KT 250V330 9999 SCT015 FEW025CB
                        11/06 Q1006 WS ALL RWY=
200911291230 METAR LPPR 291230Z 31010KT 270V330 9999 SCT015 FEW025CB 11/06
                        Q1007 WS ALL RWY=
200911291200 METAR LPPR 291200Z 31013G29KT 8000 VCSH SCT015 FEW025CB BKN070
                        12/06 Q1006 WS ALL RWY=
200911291130 METAR LPPR 291130Z 33010KT 270V360 9999 SCT015 FEW025CB 11/07
                        Q1007 WS ALL RWY=
200911291100 METAR LPPR 291100Z 30009KT 250V330 9999 SCT015 FEW025CB BKN030
                        12/06 Q1007 WS ALL RWY=
200911291030 METAR LPPR 291030Z 28010KT 240V330 9999 SCT015 FEW025CB 10/03
                        Q1007 WS ALL RWY=
200911291000 METAR LPPR 291000Z 32019KT 9999 SCT015 FEW025 11/06 Q1007
                        WS ALL RWY=
200911290930 METAR LPPR 290930Z 30015KT 270V330 9999 SCT015 FEW025CB 12/05
                        Q1007=
200911290900 METAR LPPR 290900Z 30012KT 260V330 9999 SCT015 FEW025CB BKN070
                        12/05 Q1007=
200911290830 METAR LPPR 290830Z 30012KT 260V330 9999 SCT015 FEW025CB BKN070
                        12/05 Q1006=
200911290800 METAR LPPR 290800Z 32009KT 9999 SCT015 FEW020CB BKN070 11/07
                        Q1006=
200911290730 METAR LPPR 290730Z VRB03KT 8000 -SHRA SCT015 FEW020CB BKN060
                        10/08 Q1006 RETS=
200911290700 METAR LPPR 290700Z 34015KT 310V010 5000 TSGR SCT015 SCT020CB
                        BKN060 12/08 Q1006 WS ALL RWY=
200911290630 METAR LPPR 290630Z 31004KT 270V330 9999 FEW009 SCT030 BKN060
                        12/08 Q1006=
200911290600 METAR LPPR 290600Z 33010KT 9999 FEW009 SCT030 BKN060 12/08
                        Q1006=
200911290530 METAR LPPR 290530Z 30007KT 9999 FEW009 SCT030 BKN060 12/08
                        Q1006=
200911290500 METAR LPPR 290500Z 31008KT 9999 FEW009 SCT030 BKN060 12/08
                        Q1006=
200911290430 METAR LPPR 290430Z 32005KT 270V350 8000 -RA SCT009 BKN015
                        11/10 Q1006=
200911290400 METAR LPPR 290400Z 30008KT 8000 -RA SCT009 BKN015 12/10 Q1006=
200911290330 METAR LPPR 290330Z 31015G26KT 280V340 7000 -RA BKN009 BKN015
                        13/10 Q1006 WS ALL RWY=
200911290300 METAR LPPR 290300Z 32009KT 280V340 7000 -RA SCT009 BKN025
                        13/10 Q1006=
200911290230 METAR LPPR 290230Z 31011KT 9999 FEW009 SCT030 BKN250 13/10
                        Q1006 WS ALL RWY=
200911290200 METAR LPPR 290200Z 29009G19KT 260V340 7000 -RA SCT009 BKN020
                        14/10 Q1006 WS ALL RWY=
200911290130 METAR LPPR 290130Z 30013G26KT 260V330 7000 -RA SCT009 BKN020
                        13/10 Q1007 RERA WS ALL RWY=
200911290100 METAR LPPR 290100Z 25008G18KT 200V290 3000 SHRA SCT009 FEW017CB
                        BKN030 14/13 Q1007 WS ALL RWY=
200911290030 METAR LPPR 290030Z 26009KT 210V300 7000 -RA FEW009 FEW020CB
                        BKN030 13/12 Q1006 WS ALL RWY=
200911290000 METAR LPPR 290000Z 25014G24KT 220V280 4000 SHRA FEW009 SCT020CB
                        BKN030 13/11 Q1007 WS ALL RWY=
200911282330 METAR LPPR 282330Z 23016G27KT 190V250 8000 -SHRA FEW015 FEW020CB
                        BKN030 15/13 Q1007 WS ALL RWY=
200911282300 METAR LPPR 282300Z 22017G28KT 200V260 9999 FEW015 FEW025CB
                        SCT030 BKN090 16/12 Q1007 WS ALL
                        RWY=
200911282230 METAR LPPR 282230Z 22020G31KT 190V250 9999 FEW015 FEW025CB
                        SCT030 BKN090 16/12 Q1008 WS ALL
                        RWY=
200911282200 METAR LPPR 282200Z 21015KT 9999 FEW015 FEW025CB SCT030 BKN090
                        15/13 Q1009 WS ALL RWY=
200911282130 METAR LPPR 282130Z 22017KT 9999 FEW015 FEW025CB SCT030 BKN070
                        15/12 Q1010 WS ALL RWY=
200911282100 METAR LPPR 282100Z 23012G22KT 200V260 9999 SCT015 FEW025CB
                        BKN030 14/13 Q1010 WS ALL RWY=
200911282030 METAR LPPR 282030Z 22017G28KT 9999 SCT015 FEW025CB BKN030
                        16/12 Q1010 WS ALL RWY=
200911282000 METAR LPPR 282000Z 22015G26KT 9999 SCT015 BKN019 FEW020CB
                        16/12 Q1011 WS ALL RWY=
200911281930 METAR LPPR 281930Z 21016G27KT 9999 SCT015 BKN019 FEW020CB
                        16/13 Q1011 WS ALL RWY=
200911281900 METAR LPPR 281900Z 21015KT 8000 SCT015 BKN019 FEW020CB 15/12
                        Q1011=
200911281830 METAR LPPR 281830Z 21015KT 9999 -SHRA SCT015 BKN019 FEW020CB
                        16/12 Q1012=
200911281800 METAR LPPR 281800Z 21016KT 9999 SCT015 BKN019 FEW020CB 15/12
                        Q1012 WS ALL RWY=
200911281730 METAR LPPR 281730Z 21010KT 9999 SCT013 BKN019 FEW020CB 14/12
                        Q1012=
200911281700 METAR LPPR 281700Z 22013KT 200V260 9999 SCT013 BKN019 FEW020CB
                        16/11 Q1012=
200911281630 METAR LPPR 281630Z 21013KT 9999 SCT013 BKN019 FEW020CB 15/13
                        Q1013=
200911281600 METAR LPPR 281600Z 19015KT 9999 SCT015 BKN019 FEW020CB 15/12
                        Q1014=
200911281530 METAR LPPR 281530Z 21013KT 9999 SCT015 BKN019 FEW020CB 15/11
                        Q1014 WS ALL RWY=
200911281500 METAR LPPR 281500Z 20016KT 170V230 9999 SCT015 BKN019 FEW020CB
                        15/12 Q1014 WS ALL RWY=
200911281430 METAR LPPR 281430Z 22012KT 8000 FEW008 SCT015 BKN019 FEW020CB
                        14/13 Q1014 WS ALL RWY=
200911281400 METAR LPPR 281400Z 21016G26KT 170V260 6000 -SHRA SCT008 BKN015
                        FEW020CB 13/12 Q1014 RERA WS ALL
                        RWY=
200911281330 METAR LPPR 281330Z 25008KT 210V290 7000 -SHRA SCT008 BKN015
                        FEW020CB 14/12 Q1015=
200911281300 METAR LPPR 281300Z 19014KT 9999 -SHRA SCT008 BKN015 FEW020CB
                        15/13 Q1016=
200911281230 METAR LPPR 281230Z 18017KT 9999 SCT008 BKN015 15/13 Q1017=
200911281200 METAR LPPR 281200Z 18017KT 9999 SCT015 BKN040 BKN250 15/13
                        Q1018=
200911281130 METAR LPPR 281130Z 18016KT 9999 FEW008 SCT015 BKN250 14/13
                        Q1018=
200911281100 METAR LPPR 281100Z 18015KT 9999 FEW008 SCT015 BKN040 14/13
                        Q1018=
200911281030 METAR LPPR 281030Z 17015KT 9999 -SHRA FEW008 BKN015 FEW020CB
                        13/12 Q1018=
200911281000 METAR LPPR 281000Z 17015KT 9999 FEW008 BKN015 FEW020CB 13/12
                        Q1019=
200911280930 METAR LPPR 280930Z 18014KT 9999 FEW006 SCT015 BKN025 13/12
                        Q1019=
200911280900 METAR LPPR 280900Z 20008KT 9999 -RA FEW006 SCT015 BKN040
                        12/11 Q1019=
200911280830 METAR LPPR 280830Z 20008KT 7000 -RA FEW006 BKN013 BKN020
                        12/11 Q1019=
200911280800 METAR LPPR 280800Z 17008KT 7000 -RA SCT015 SCT025 BKN050
                        12/11 Q1019=
200911280730 METAR LPPR 280730Z 17010KT 9999 FEW015 SCT025 BKN050 12/11
                        Q1019=
200911280700 METAR LPPR 280700Z 17011KT 9999 SCT025 BKN050 12/11 Q1019=
200911280630 METAR LPPR 280630Z 17011KT 9999 SCT025 BKN050 12/11 Q1019=
200911280600 METAR LPPR 280600Z 17011KT 9999 SCT030 BKN050 12/11 Q1019=
200911280530 METAR LPPR 280530Z 17011KT 9999 SCT020 BKN040 12/11 Q1019=
200911280500 METAR LPPR 280500Z 17012KT 9999 SCT030 BKN060 12/11 Q1020=
200911280430 METAR LPPR 280430Z 00000KT 9999 SCT040 BKN060 12/10 Q1020=
200911280400 METAR LPPR 280400Z 17003KT 9999 FEW030 BKN060 12/10 Q1020=
200911280330 METAR LPPR 280330Z 16002KT 8000 FEW030 BKN060 12/11 Q1020=
200911280300 METAR LPPR 280300Z 00000KT 8000 SCT030 BKN060 12/11 Q1020=
200911280230 METAR LPPR 280230Z 00000KT 8000 SCT030 BKN060 12/10 Q1021=
200911280200 METAR LPPR 280200Z 15006KT 8000 SCT030 BKN060 12/10 Q1021=
200911280130 METAR LPPR 280130Z 14005KT 8000 FEW040 BKN060 11/10 Q1021=
200911280100 METAR LPPR 280100Z 15006KT 8000 SCT040 BKN060 11/10 Q1022=
200911280030 METAR LPPR 280030Z 12006KT 8000 FEW250 11/10 Q1022=
200911280000 METAR LPPR 280000Z 13006KT 8000 FEW250 11/10 Q1022=
200911272330 METAR LPPR 272330Z 11006KT 8000 FEW250 11/10 Q1022=
200911272300 METAR LPPR 272300Z 11007KT 9999 FEW017 SCT035 11/10 Q1022=
200911272230 METAR LPPR 272230Z 10005KT 9999 FEW017 SCT035 11/10 Q1022=
200911272200 METAR LPPR 272200Z VRB02KT 9999 FEW017 SCT035 11/10 Q1022=
200911272130 METAR LPPR 272130Z VRB01KT 9999 FEW017 SCT025 11/09 Q1022=
200911272100 METAR LPPR 272100Z 23002KT 9999 SCT017 13/09 Q1022=
200911272030 METAR LPPR 272030Z VRB03G14KT 9999 SCT017 13/09 Q1022=
200911272000 METAR LPPR 272000Z VRB02KT 9999 FEW017 13/09 Q1021=
200911271930 METAR LPPR 271930Z VRB01KT 9999 FEW017 12/10 Q1021=
200911271900 METAR LPPR 271900Z VRB02KT 9999 FEW017 13/10 Q1021=
200911271830 METAR LPPR 271830Z 00000KT 9999 FEW020 SCT040 13/10 Q1021=
200911271800 METAR LPPR 271800Z VRB02KT 9999 FEW020 SCT040 14/10 Q1021=
200911271730 METAR LPPR 271730Z VRB02KT 9999 FEW020 BKN040 14/11 Q1021=
200911271700 METAR LPPR 271700Z 00000KT 9999 FEW020 BKN040 14/11 Q1021=
200911271630 METAR LPPR 271630Z VRB03KT 9999 FEW017 BKN040 14/10 Q1021=
200911271600 METAR LPPR 271600Z 30004KT 260V320 9999 FEW017 BKN035 15/10
                        Q1021=
200911271530 METAR LPPR 271530Z 29004KT 250V330 9999 FEW017 FEW020TCU
                        SCT030 15/11 Q1021=
200911271500 METAR LPPR 271500Z 30004KT 260V350 9999 SCT015 FEW020TCU
                        SCT080 15/11 Q1021=
200911271430 METAR LPPR 271430Z 31005KT 270V330 9999 SCT015 FEW020CB SCT060
                        15/11 Q1021=
200911271400 METAR LPPR 271400Z 00000KT 9999 FEW015 FEW020TCU SCT030 15/11
                        Q1021=
200911271330 METAR LPPR 271330Z 00000KT 9999 FEW015 FEW020CB SCT080 15/12
                        Q1021=
200911271300 METAR LPPR 271300Z VRB02KT 9999 FEW015 SCT040 14/12 Q1021=
200911271230 METAR LPPR 271230Z 28004KT 200V360 6000 -SHRA SCT015 BKN035
                        14/11 Q1022=
200911271200 METAR LPPR 271200Z 00000KT 7000 -SHRA SCT013 SCT020TCU BKN030
                        14/12 Q1022=
200911271130 METAR LPPR 271130Z 16006KT 5000 -SHRA SCT015 BKN025 14/12
                        Q1022=
200911271100 METAR LPPR 271100Z 18004KT 150V220 8000 FEW008 SCT015 BKN040
                        14/13 Q1022=
200911271030 METAR LPPR 271030Z VRB03KT 5000 -SHRA FEW008 SCT013 FEW017CB
                        BKN080 13/12 Q1022=
200911271000 METAR LPPR 271000Z VRB03KT 5000 -SHRA FEW009 SCT013 FEW017CB
                        BKN080 13/12 Q1022=
200911270930 METAR LPPR 270930Z 14005KT 9999 SCT017 FEW020TCU SCT025 13/12
                        Q1021=
200911270900 METAR LPPR 270900Z 13004KT 9999 SCT017 BKN090 12/11 Q1021=
200911270830 METAR LPPR 270830Z VRB02KT 9999 FEW015 SCT035 BKN080 11/11
                        Q1021=
200911270800 METAR LPPR 270800Z 12004KT 9999 FEW017 SCT040 BKN090 11/10
                        Q1021=
200911270730 METAR LPPR 270730Z 11003KT 9999 FEW017 FEW035 BKN080 12/10
                        Q1021 WS ALL RWY=
200911270700 METAR LPPR 270700Z VRB03KT 9999 FEW017 BKN035 13/10 Q1020=
200911270630 METAR LPPR 270630Z 29007KT 250V330 9999 -RA SCT018 BKN035
                        13/11 Q1020=
200911270600 METAR LPPR 270600Z 27004KT 240V320 9999 FEW017 BKN040 13/11
                        Q1020=
200911270530 METAR LPPR 270530Z VRB02KT 9999 FEW015 BKN040 14/10 Q1020=
200911270500 METAR LPPR 270500Z 30004KT 270V330 9999 FEW015 BKN035 14/11
                        Q1020=
200911270430 METAR LPPR 270430Z 30004KT 270V330 9999 FEW013 SCT030 14/12
                        Q1020=
200911270400 METAR LPPR 270400Z 19002KT 9999 SCT013 SCT030 13/11 Q1020=
200911270330 METAR LPPR 270330Z VRB02KT 9999 FEW013 SCT030 12/10 Q1020=
200911270300 METAR LPPR 270300Z VRB03KT 8000 -RA SCT017 BKN060 13/11 Q1020
                        RERA=
200911270230 METAR LPPR 270230Z VRB02KT 9999 FEW011 SCT017 BKN060 14/11
                        Q1020=
200911270200 METAR LPPR 270200Z 27004KT 230V310 9999 SCT017 BKN060 14/11
                        Q1020=
200911270130 METAR LPPR 270130Z 27004KT 240V300 9999 FEW009 SCT017 BKN060
                        14/12 Q1020=
200911270100 METAR LPPR 270100Z 22006KT 190V250 9999 FEW017 SCT040 BKN060
                        14/12 Q1021=
200911270030 METAR LPPR 270030Z 22008KT 9999 SCT040 BKN060 14/12 Q1021=
200911270000 METAR LPPR 270000Z 21006KT 9999 SCT040 BKN060 14/12 Q1021=
200911262330 METAR LPPR 262330Z 24005KT 210V280 9999 FEW017 SCT030 14/11
                        Q1021=
200911262300 METAR LPPR 262300Z 25005KT 230V290 9999 FEW017 SCT060 14/11
                        Q1021=
200911262230 METAR LPPR 262230Z VRB01KT 9999 SCT017 12/10 Q1021=
200911262200 METAR LPPR 262200Z 17004KT 9999 SCT017 SCT030 12/10 Q1022=
200911262130 METAR LPPR 262130Z 21004KT 180V250 9999 SCT015 SCT030 13/10
                        Q1022=
200911262100 METAR LPPR 262100Z 23005KT 190V260 9999 SCT018 BKN045 14/10
                        Q1022=
200911262030 METAR LPPR 262030Z 25004KT 200V320 9999 SCT017 SCT040 14/12
                        Q1022=
200911262000 METAR LPPR 262000Z 26007G20KT 160V310 8000 -RA SCT017 BKN025
                        15/12 Q1022=
200911261930 METAR LPPR 261930Z 25006KT 210V280 9999 FEW017 SCT030 BKN070
                        14/10 Q1021=
200911261900 METAR LPPR 261900Z 23005KT 200V260 9999 FEW017 BKN050 14/11
                        Q1021=
200911261830 METAR LPPR 261830Z 23006KT 200V260 9999 FEW017 BKN025 14/11
                        Q1021=
200911261800 METAR LPPR 261800Z 16006KT 130V190 9999 SCT017 BKN025 13/10
                        Q1021=
200911261730 METAR LPPR 261730Z 17005KT 150V210 9999 SCT017 BKN025 13/10
                        Q1021=
200911261700 METAR LPPR 261700Z 16006KT 9999 FEW017 BKN025 14/10 Q1021=
200911261630 METAR LPPR 261630Z 17005KT 9999 FEW017 BKN040 13/10 Q1021=
200911261600 METAR LPPR 261600Z 17005KT 9999 FEW017 SCT060 14/10 Q1021=
200911261530 METAR LPPR 261530Z 17006KT 9999 FEW017 SCT060 15/08 Q1021=
200911261500 METAR LPPR 261500Z 16006KT 9999 FEW017 BKN060 14/09 Q1021=
200911261430 METAR LPPR 261430Z 16005KT 9999 FEW017 BKN060 14/09 Q1022=
200911261400 METAR LPPR 261400Z 13004KT 090V170 9999 FEW017 BKN040 15/09
                        Q1022=
200911261330 METAR LPPR 261330Z 14005KT 9999 FEW017 SCT040 BKN250 15/09
                        Q1022=
200911261300 METAR LPPR 261300Z 12005KT 9999 FEW015 SCT040 BKN250 13/09
                        Q1022=
200911261230 METAR LPPR 261230Z 12004KT 9999 FEW017 BKN040 13/09 Q1023=
200911261200 METAR LPPR 261200Z 11006KT 9999 FEW017 BKN040 13/09 Q1023=
200911261130 METAR LPPR 261130Z 11004KT 090V160 9999 BKN045 13/08 Q1023=
200911261100 METAR LPPR 261100Z 12005KT 9999 BKN045 13/09 Q1023=
200911261030 METAR LPPR 261030Z 12008KT 9999 SCT045 BKN250 11/09 Q1023=
200911261000 METAR LPPR 261000Z 11007KT 9999 SCT045 BKN250 11/08 Q1023=
200911260930 METAR LPPR 260930Z 11007KT 9999 SCT045 10/07 Q1023=
200911260900 METAR LPPR 260900Z 11009KT 9999 FEW015 SCT250 08/07 Q1023=
200911260830 METAR LPPR 260830Z 00000KT 8000 FEW017 SCT250 07/07 Q1022=
200911260800 METAR LPPR 260800Z 00000KT 8000 FEW017 SCT250 07/06 Q1022=
200911260730 METAR LPPR 260730Z 00000KT CAVOK 07/06 Q1022=
200911260700 METAR LPPR 260700Z 00000KT CAVOK 07/07 Q1022=
200911260630 METAR LPPR 260630Z 00000KT CAVOK 07/06 Q1022=
200911260600 METAR LPPR 260600Z 00000KT CAVOK 07/07 Q1022=
200911260530 METAR LPPR 260530Z 00000KT CAVOK 07/07 Q1021=
200911260500 METAR LPPR 260500Z 00000KT CAVOK 07/07 Q1021=
200911260430 METAR LPPR 260430Z 00000KT CAVOK 07/07 Q1022=
200911260400 METAR LPPR 260400Z 00000KT CAVOK 07/07 Q1022=
200911260330 METAR LPPR 260330Z 00000KT CAVOK 07/07 Q1022=
200911260300 METAR LPPR 260300Z 00000KT CAVOK 08/08 Q1022=
200911260230 METAR LPPR 260230Z 00000KT CAVOK 09/08 Q1022=
200911260200 METAR LPPR 260200Z 00000KT CAVOK 09/08 Q1022=
200911260130 METAR LPPR 260130Z 00000KT CAVOK 10/09 Q1022=
200911260100 METAR LPPR 260100Z 00000KT 9999 SCT040 SCT050 BKN090 11/10
                        Q1021=
200911260030 METAR LPPR 260030Z 00000KT 9999 SCT035 SCT050 BKN090 12/11
                        Q1022=
200911260000 METAR LPPR 260000Z 00000KT 9999 SCT035 BKN090 12/11 Q1022=
200911252330 METAR LPPR 252330Z 00000KT 9999 SCT040 SCT090 12/11 Q1022=
200911252300 METAR LPPR 252300Z 00000KT 9999 SCT040 SCT090 12/11 Q1022=
200911252230 METAR LPPR 252230Z 00000KT 9999 SCT040 SCT090 12/11 Q1022=
200911252200 METAR LPPR 252200Z 00000KT 9999 SCT040 SCT090 12/11 Q1022=
200911252130 METAR LPPR 252130Z 00000KT 9999 SCT040 BKN090 12/11 Q1021=
200911252100 METAR LPPR 252100Z 00000KT 9999 SCT035 BKN090 12/11 Q1021=
200911252030 METAR LPPR 252030Z 00000KT 9999 SCT030 SCT050 BKN090 12/12
                        Q1021=
200911252000 METAR LPPR 252000Z 00000KT 9999 SCT035 SCT050 BKN090 12/12
                        Q1021=
200911251930 METAR LPPR 251930Z 00000KT 9999 SCT030 SCT050 BKN090 12/12
                        Q1021=
200911251900 METAR LPPR 251900Z 00000KT 9999 SCT035 SCT045 BKN090 12/12
                        Q1021=
200911251830 METAR LPPR 251830Z 00000KT 9999 FEW025 SCT040 BKN090 12/11
                        Q1021=
200911251800 METAR LPPR 251800Z 00000KT 9999 FEW025 SCT040 BKN090 13/11
                        Q1020=
200911251730 METAR LPPR 251730Z 00000KT 9999 SCT025 SCT035 BKN090 13/11
                        Q1020=
200911251700 METAR LPPR 251700Z 00000KT 9999 FEW015 SCT035 BKN090 13/11
                        Q1020=
200911251630 METAR LPPR 251630Z 00000KT 9999 FEW015 SCT030 BKN090 13/12
                        Q1020=
200911251600 METAR LPPR 251600Z 00000KT 9999 FEW015 SCT025 BKN090 13/11
                        Q1020=
200911251530 METAR LPPR 251530Z 00000KT 9999 FEW015 SCT025 BKN090 13/12
                        Q1019=
200911251500 METAR LPPR 251500Z 35005KT 9999 FEW015 SCT025 BKN090 13/12
                        Q1019=
200911251430 METAR LPPR 251430Z 35007KT 5000 -RA BR FEW005 SCT008 BKN025
                        12/12 Q1019=
200911251400 METAR LPPR 251400Z 35011KT 4000 -RA BR SCT003 SCT007 BKN015
                        12/12 Q1020=
200911251330 METAR LPPR 251330Z 33011KT 4000 -RA BR SCT003 BKN007 BKN015
                        12/12 Q1019 RERA=
200911251300 METAR LPPR 251300Z 33011KT 3000 RA BR SCT002 BKN005 BKN013
                        13/12 Q1019=
200911251230 METAR LPPR 251230Z 33013KT 290V350 3000 RA BR SCT004 BKN006
                        BKN013 13/13 Q1019=
200911251200 METAR LPPR 251200Z 18018KT 4000 -RA BR FEW004 SCT006 BKN013
                        15/14 Q1018=
200911251130 METAR LPPR 251130Z 18021KT 4000 -RA BR FEW004 SCT006 BKN017
                        15/13 Q1018=
200911251100 METAR LPPR 251100Z 18020KT 3000 -RADZ BR FEW004 SCT006 BKN022
                        15/13 Q1018=
200911251030 METAR LPPR 251030Z 18021KT 8000 FEW008 BKN025 BKN080 16/12
                        Q1018 WS ALL RWY=
200911251000 METAR LPPR 251000Z 17021KT 8000 FEW008 BKN030 BKN080 15/13
                        Q1018 WS ALL RWY=
200911250930 METAR LPPR 250930Z 17018KT 8000 FEW008 SCT030 BKN080 15/12
                        Q1018=
200911250900 METAR LPPR 250900Z 17016KT 8000 FEW008 SCT035 BKN080 15/12
                        Q1019=
200911250830 METAR LPPR 250830Z 16015KT 9999 FEW008 SCT040 BKN070 15/12
                        Q1019=
200911250800 METAR LPPR 250800Z 17013KT 9999 FEW008 SCT030 BKN070 14/11
                        Q1019=
200911250730 METAR LPPR 250730Z 16014KT 9999 SCT030 BKN070 14/12 Q1019=
200911250700 METAR LPPR 250700Z 17015KT 9999 SCT030 BKN070 14/11 Q1019=
200911250630 METAR LPPR 250630Z 17014KT 9999 SCT030 BKN070 14/12 Q1019=
200911250600 METAR LPPR 250600Z 16013KT 9999 BKN035 14/11 Q1018=
200911250530 METAR LPPR 250530Z 16011KT 9999 SCT030 BKN070 13/11 Q1018=
200911250500 METAR LPPR 250500Z 15009KT 9999 FEW030 BKN070 13/10 Q1018=
200911250430 METAR LPPR 250430Z 15009KT 9999 BKN030 13/10 Q1019=
200911250400 METAR LPPR 250400Z 15010KT 8000 BKN030 13/10 Q1019=
200911250330 METAR LPPR 250330Z 15009KT 8000 BKN030 12/10 Q1019=
200911250300 METAR LPPR 250300Z 13007KT 8000 BKN030 12/10 Q1019=
200911250230 METAR LPPR 250230Z 13007KT 8000 BKN030 12/10 Q1020=
200911250200 METAR LPPR 250200Z 13008KT 8000 BKN030 12/10 Q1020=
200911250130 METAR LPPR 250130Z 13007KT 8000 SCT040 12/10 Q1020=
200911250100 METAR LPPR 250100Z 13010KT 8000 FEW040 12/10 Q1020=
200911250030 METAR LPPR 250030Z 14007KT 8000 FEW040 12/10 Q1021=
200911250000 METAR LPPR 250000Z 13008KT 8000 FEW070 12/10 Q1021=
200911242330 METAR LPPR 242330Z 13007KT 8000 FEW070 11/10 Q1021=
200911242300 METAR LPPR 242300Z 13009KT 8000 FEW070 12/09 Q1021=
200911242230 METAR LPPR 242230Z 13007KT 8000 FEW070 11/09 Q1021=
200911242200 METAR LPPR 242200Z 12010KT 8000 FEW070 11/09 Q1021=
200911242130 METAR LPPR 242130Z 12009KT 8000 FEW070 12/10 Q1022=
200911242100 METAR LPPR 242100Z 12008KT 8000 FEW070 12/10 Q1022=
200911242030 METAR LPPR 242030Z 12008KT 8000 FEW015 12/10 Q1022=
200911242000 METAR LPPR 242000Z 12007KT 8000 FEW015 13/10 Q1022=
200911241930 METAR LPPR 241930Z 11006KT 9999 FEW015 13/10 Q1022=
200911241900 METAR LPPR 241900Z 13005KT 9999 FEW015 13/10 Q1022=
200911241830 METAR LPPR 241830Z 14005KT 9999 FEW015 13/10 Q1023=
200911241800 METAR LPPR 241800Z 15003KT 9999 FEW015 13/09 Q1023=
200911241730 METAR LPPR 241730Z 19002KT 9999 FEW015 14/09 Q1023=
200911241700 METAR LPPR 241700Z 19002KT 9999 FEW015 15/09 Q1023=
200911241630 METAR LPPR 241630Z 20005KT 9999 FEW015 16/08 Q1023=
200911241600 METAR LPPR 241600Z VRB03KT 9999 FEW015 17/09 Q1023=
200911241530 METAR LPPR 241530Z 22005KT 190V250 9999 FEW015 17/10 Q1023=
200911241500 METAR LPPR 241500Z 23004KT 180V270 CAVOK 17/10 Q1023=
200911241430 METAR LPPR 241430Z 21007KT CAVOK 17/08 Q1023=
200911241400 METAR LPPR 241400Z 20008KT CAVOK 17/09 Q1024=
200911241330 METAR LPPR 241330Z 17006KT 120V200 CAVOK 18/09 Q1024=
200911241300 METAR LPPR 241300Z 16005KT 130V190 CAVOK 17/10 Q1024=
200911241230 METAR LPPR 241230Z 13006KT CAVOK 16/11 Q1025=
200911241200 METAR LPPR 241200Z 12006KT CAVOK 15/11 Q1025=
200911241130 METAR LPPR 241130Z 12008KT CAVOK 14/10 Q1026=
200911241100 METAR LPPR 241100Z 11006KT CAVOK 13/10 Q1026=
200911241030 METAR LPPR 241030Z 11008KT CAVOK 12/09 Q1026=
200911241000 METAR LPPR 241000Z 11010KT CAVOK 11/09 Q1027=
200911240930 METAR LPPR 240930Z 11010KT CAVOK 10/08 Q1027=
200911240900 METAR LPPR 240900Z 11009KT 8000 SKC 09/08 Q1027=
200911240830 METAR LPPR 240830Z 11006KT 080V140 7000 SKC 09/08 Q1027=
200911240800 METAR LPPR 240800Z 11007KT 7000 SKC 09/08 Q1027=
200911240730 METAR LPPR 240730Z 10008KT 7000 SKC 09/08 Q1027=
200911240700 METAR LPPR 240700Z 11008KT 7000 SKC 09/08 Q1027=
200911240630 METAR LPPR 240630Z 10009KT 7000 SKC 09/08 Q1027=
200911240600 METAR LPPR 240600Z 11009KT 7000 SKC 09/08 Q1027=
200911240530 METAR LPPR 240530Z 11008KT 7000 SKC 09/08 Q1027=
200911240500 METAR LPPR 240500Z 11008KT 7000 SKC 09/08 Q1027=
200911240430 METAR LPPR 240430Z 11007KT 7000 SKC 09/08 Q1027=
200911240400 METAR LPPR 240400Z 11008KT 7000 SKC 09/08 Q1027=
200911240330 METAR LPPR 240330Z 10006KT 7000 SKC 09/08 Q1027=
200911240300 METAR LPPR 240300Z VRB03KT 5000 BR SKC 09/09 Q1028=
200911240230 METAR LPPR 240230Z 09002KT 5000 BR SKC 09/09 Q1028=
200911240200 METAR LPPR 240200Z 00000KT 4000 BR SKC 09/09 Q1028=
200911240130 METAR LPPR 240130Z 09004KT 4000 BR SKC 10/10 Q1028=
200911240100 METAR LPPR 240100Z 00000KT 4000 BR SKC 09/09 Q1029=
200911240030 METAR LPPR 240030Z 00000KT 5000 BR SKC 10/09 Q1029=
200911240000 METAR LPPR 240000Z 00000KT 7000 SKC 10/09 Q1029=
200911232330 METAR LPPR 232330Z 00000KT 8000 SKC 11/10 Q1029=
200911232300 METAR LPPR 232300Z 10004KT 8000 SKC 11/11 Q1029=
200911232230 METAR LPPR 232230Z 00000KT 8000 SKC 11/10 Q1030=
200911232200 METAR LPPR 232200Z 00000KT 7000 SKC 11/10 Q1030=
200911232130 METAR LPPR 232130Z 00000KT 7000 FEW030 11/10 Q1030=
200911232100 METAR LPPR 232100Z 00000KT 7000 FEW030 11/10 Q1030=
200911232030 METAR LPPR 232030Z 10003KT 5000 BR FEW030 12/12 Q1030=
200911232000 METAR LPPR 232000Z 00000KT 5000 BR FEW030 11/11 Q1030=
200911231930 METAR LPPR 231930Z 00000KT 5000 BR FEW030 11/11 Q1030=
200911231900 METAR LPPR 231900Z 00000KT 6000 FEW030 12/11 Q1030=
200911231830 METAR LPPR 231830Z 00000KT 6000 SCT025 13/12 Q1030=
200911231800 METAR LPPR 231800Z 00000KT 6000 SCT025 14/12 Q1030=
200911231730 METAR LPPR 231730Z 00000KT 6000 FEW015 SCT040 15/13 Q1030=
200911231700 METAR LPPR 231700Z 00000KT 8000 FEW015 SCT040 16/13 Q1030=
200911231630 METAR LPPR 231630Z 00000KT 8000 FEW015 SCT040 17/11 Q1030=
200911231600 METAR LPPR 231600Z 00000KT 8000 FEW015 SCT040 18/12 Q1031=
200911231530 METAR LPPR 231530Z VRB03KT 8000 FEW015 SCT040 18/13 Q1031=
200911231500 METAR LPPR 231500Z VRB03KT 8000 FEW015 SCT040 17/13 Q1031=
200911231430 METAR LPPR 231430Z 23004KT 8000 SCT015 BKN025 18/13 Q1031=
200911231400 METAR LPPR 231400Z 22006KT 190V280 8000 SCT015 BKN025 17/14
                        Q1031=
200911231330 METAR LPPR 231330Z 21005KT 7000 SCT013 BKN025 16/14 Q1032=
200911231300 METAR LPPR 231300Z 20007KT 7000 SCT013 BKN025 16/14 Q1032=
200911231230 METAR LPPR 231230Z 19008KT 6000 SCT013 BKN025 17/15 Q1032=
200911231200 METAR LPPR 231200Z 20007KT 180V240 6000 FEW009 SCT013 BKN020
                        16/15 Q1033=
200911231130 METAR LPPR 231130Z VRB03KT 6000 FEW009 SCT013 BKN019 15/14
                        Q1033=
200911231100 METAR LPPR 231100Z 00000KT 5000 BR FEW009 SCT013 BKN019 14/13
                        Q1033=
200911231030 METAR LPPR 231030Z 14004KT 4000 -RA BR SCT007 SCT013 BKN020
                        13/13 Q1033=
200911231000 METAR LPPR 231000Z VRB03KT 6000 FEW009 SCT013 BKN020 13/13
                        Q1033=
200911230930 METAR LPPR 230930Z 00000KT 6000 -RA SCT004 SCT013 BKN019
                        13/12 Q1033=
200911230900 METAR LPPR 230900Z 11005KT 6000 -RA SCT003 SCT006 BKN013
                        13/12 Q1033=
200911230830 METAR LPPR 230830Z 00000KT 6000 FEW013 BKN017 13/12 Q1033=
200911230800 METAR LPPR 230800Z 11006KT 6000 FEW015 BKN020 12/12 Q1032=
200911230730 METAR LPPR 230730Z 11007KT 5000 BR FEW017 BKN040 12/12 Q1032=
200911230700 METAR LPPR 230700Z 11005KT 5000 BR BKN040 SCT080 12/12 Q1032=
200911230630 METAR LPPR 230630Z 11003KT 4000 BR SCT040 SCT080 12/12 Q1032=
200911230600 METAR LPPR 230600Z 11007KT 4000 BR SCT040 SCT080 12/12 Q1032=
200911230530 METAR LPPR 230530Z 10005KT 6000 FEW040 SCT080 12/12 Q1032=
200911230500 METAR LPPR 230500Z 10005KT 6000 FEW040 SCT080 13/12 Q1032=
200911230430 METAR LPPR 230430Z 10005KT 4000 BR FEW020 BKN040 13/12 Q1032=
200911230400 METAR LPPR 230400Z 11006KT 4000 BR FEW020 BKN040 13/12 Q1032=
200911230330 METAR LPPR 230330Z 10004KT 5000 BR BKN035 13/12 Q1032=
200911230300 METAR LPPR 230300Z 11005KT 5000 BR BKN035 13/12 Q1032=
200911230230 METAR LPPR 230230Z 11004KT 5000 BR SCT040 12/12 Q1032=
200911230200 METAR LPPR 230200Z 00000KT 5000 BR FEW015 SCT045 11/11 Q1032=
200911230130 METAR LPPR 230130Z 00000KT 5000 BR FEW015 12/11 Q1032=
200911230100 METAR LPPR 230100Z 00000KT 5000 BR FEW015 SCT025 13/12 Q1032=
200911230030 METAR LPPR 230030Z 00000KT 5000 BR FEW015 SCT025 13/12 Q1032=
200911230000 METAR LPPR 230000Z 00000KT 5000 BR FEW017 SCT035 15/12 Q1032=
200911222330 METAR LPPR 222330Z 00000KT 5000 BR FEW015 SCT035 15/13 Q1032=
200911222300 METAR LPPR 222300Z 00000KT 8000 FEW015 SCT070 15/13 Q1032=
200911222230 METAR LPPR 222230Z 30004KT 270V030 9999 FEW015 SCT030 BKN070
                        15/13 Q1032=
200911222200 METAR LPPR 222200Z 00000KT 8000 SCT020 SCT030 BKN070 14/13
                        Q1032=
200911222130 METAR LPPR 222130Z 00000KT 7000 FEW020 SCT030 BKN070 14/13
                        Q1032=
200911222100 METAR LPPR 222100Z VRB02KT 7000 FEW020 SCT030 BKN070 14/13
                        Q1032=
200911222030 METAR LPPR 222030Z 00000KT 7000 FEW020TCU SCT030 BKN070 14/13
                        Q1032=
200911222000 METAR LPPR 222000Z 00000KT 7000 FEW020 SCT040 BKN070 14/12
                        Q1032=
200911221930 METAR LPPR 221930Z 00000KT 7000 FEW020 SCT040 BKN060 14/12
                        Q1031=
200911221900 METAR LPPR 221900Z 00000KT 9999 FEW020 SCT040 BKN060 14/12
                        Q1031=
200911221830 METAR LPPR 221830Z VRB03KT 9999 SCT020TCU SCT040 BKN060 15/13
                        Q1031=
200911221800 METAR LPPR 221800Z 30004KT 250V330 9999 FEW020TCU SCT040
                        BKN070 16/12 Q1031=
200911221730 METAR LPPR 221730Z 00000KT 9999 FEW020TCU SCT035 BKN060 16/12
                        Q1031=
200911221700 METAR LPPR 221700Z 00000KT 9999 FEW020TCU SCT035 BKN060 16/13
                        Q1031=
200911221630 METAR LPPR 221630Z VRB02KT 9999 FEW020TCU SCT060 16/13 Q1031=
200911221600 METAR LPPR 221600Z 25006KT 200V290 9999 FEW017 FEW020TCU
                        SCT060 16/13 Q1030=
200911221530 METAR LPPR 221530Z 29006KT 230V340 9999 FEW017 FEW020TCU
                        SCT070 16/13 Q1030=
200911221500 METAR LPPR 221500Z 27010G20KT 210V320 9999 FEW017 FEW020TCU
                        SCT030 BKN070 18/13 Q1030=
200911221430 METAR LPPR 221430Z 26007KT 230V300 9999 FEW017 FEW020TCU
                        SCT030 BKN070 17/13 Q1030=
200911221400 METAR LPPR 221400Z 24009KT 220V280 9999 SCT017 FEW020TCU
                        SCT030 BKN070 17/13 Q1030=
200911221330 METAR LPPR 221330Z 24010KT 9999 SCT017 FEW020TCU BKN070 17/13
                        Q1030=
200911221300 METAR LPPR 221300Z 24007KT 220V280 9999 FEW017 SCT070 17/13
                        Q1030=
200911221230 METAR LPPR 221230Z 24009KT 190V280 9999 SCT017 BKN030 17/13
                        Q1031=
200911221200 METAR LPPR 221200Z 23007KT 200V260 9999 SCT017 BKN030 17/13
                        Q1031=
200911221130 METAR LPPR 221130Z 22008KT 200V260 9000 VCSH SCT017 BKN030
                        16/13 Q1031=
200911221100 METAR LPPR 221100Z 22009KT 190V260 9999 SCT015 BKN025 16/13
                        Q1031=
200911221030 METAR LPPR 221030Z 21008KT 9999 FEW015 SCT025 17/13 Q1031=
200911221000 METAR LPPR 221000Z 22009KT 190V260 9999 FEW015 SCT030 16/12
                        Q1031=
200911220930 METAR LPPR 220930Z 22005KT 200V260 9999 FEW015 SCT030 15/12
                        Q1031=
200911220900 METAR LPPR 220900Z 23004KT 170V290 9999 FEW015 BKN030 15/10
                        Q1030=
200911220830 METAR LPPR 220830Z 23005KT 200V260 9999 FEW015 BKN035 15/10
                        Q1030=
200911220800 METAR LPPR 220800Z 23006KT 200V260 9999 FEW015 BKN040 15/09
                        Q1029=
200911220730 METAR LPPR 220730Z 23004KT 200V270 9999 FEW020 14/09 Q1029=
200911220700 METAR LPPR 220700Z VRB05KT 9999 FEW018 15/09 Q1029=
200911220630 METAR LPPR 220630Z VRB03KT 9999 FEW018 15/10 Q1029=
200911220600 METAR LPPR 220600Z 25007KT 220V310 9999 SCT018 15/10 Q1029=
200911220530 METAR LPPR 220530Z VRB03KT 9999 SCT018 14/09 Q1028=
200911220500 METAR LPPR 220500Z 25004KT 210V300 9999 SCT015 14/08 Q1028=
200911220430 METAR LPPR 220430Z 25004KT 220V280 9999 FEW015 14/08 Q1028=
200911220400 METAR LPPR 220400Z 25004KT 9999 FEW015 13/08 Q1028=
200911220330 METAR LPPR 220330Z VRB03KT 9999 FEW015 13/08 Q1027=
200911220300 METAR LPPR 220300Z 00000KT 9999 FEW015 12/09 Q1027=
200911220230 METAR LPPR 220230Z 00000KT 9999 FEW015 SCT040 13/09 Q1027=
200911220200 METAR LPPR 220200Z VRB03KT 9999 FEW015 BKN040 14/09 Q1027=
200911220130 METAR LPPR 220130Z 28011KT 260V330 9999 FEW015 SCT030 14/10
                        Q1027=
200911220100 METAR LPPR 220100Z 29006KT 260V330 9999 FEW015 SCT040 15/10
                        Q1027=
200911220030 METAR LPPR 220030Z 27006KT 240V300 9999 FEW015 SCT040 15/09
                        Q1027=
200911220000 METAR LPPR 220000Z 27005KT 220V320 9999 FEW015 SCT040 15/10
                        Q1027=
200911212330 METAR LPPR 212330Z 26005KT 220V290 9999 FEW015 SCT040 15/09
                        Q1026=
200911212300 METAR LPPR 212300Z 25005KT 210V290 9999 SCT015 SCT030 15/10
                        Q1026=
200911212230 METAR LPPR 212230Z 24005KT 210V270 9999 FEW015 15/10 Q1026=
200911212200 METAR LPPR 212200Z 25005KT 210V280 9999 FEW015 15/10 Q1025=
200911212130 METAR LPPR 212130Z 25006KT 210V290 9999 SCT015 15/09 Q1025=
200911212100 METAR LPPR 212100Z 24006KT 9999 FEW015 15/11 Q1025=
200911212030 METAR LPPR 212030Z 25004KT 210V290 9999 FEW015 SCT030 15/12
                        Q1024=
200911212000 METAR LPPR 212000Z VRB03KT 9999 FEW013 SCT030 15/11 Q1024=
200911211930 METAR LPPR 211930Z 24006KT 200V270 9999 FEW012 BKN030 15/11
                        Q1023=
200911211900 METAR LPPR 211900Z 24004KT 200V270 8000 FEW009 SCT030 SCT250
                        15/11 Q1023=
200911211830 METAR LPPR 211830Z 20006KT 170V230 7000 FEW009 SCT030 BKN250
                        14/14 Q1023=
200911211800 METAR LPPR 211800Z 18009KT 7000 FEW009 SCT015 BKN030 14/14
                        Q1022=
200911211730 METAR LPPR 211730Z 18010KT 7000 SCT004 BKN006 15/14 Q1022=
200911211700 METAR LPPR 211700Z 18011KT 8000 FEW005 SCT015 BKN030 15/14
                        Q1022=
200911211630 METAR LPPR 211630Z 19010KT 8000 FEW009 SCT015 BKN030 15/14
                        Q1021=
200911211600 METAR LPPR 211600Z 21006KT 6000 FEW009 SCT015 BKN030 15/14
                        Q1021=
200911211530 METAR LPPR 211530Z 23005KT 200V270 2000 RADZ BR FEW003 BKN007
                        15/14 Q1020=
200911211500 METAR LPPR 211500Z 18010KT 5000 -RADZ BR SCT007 SCT015 BKN030
                        14/14 Q1020=
200911211430 METAR LPPR 211430Z 22006KT 180V250 3000 -RADZ BR FEW004 SCT007
                        BKN030 14/14 Q1020 WS ALL RWY=
200911211400 METAR LPPR 211400Z 22011G22KT 190V250 1500 RADZ BR SCT003
                        BKN007 15/14 Q1019 WS ALL RWY=
200911211330 METAR LPPR 211330Z 18020KT 3000 -RADZ BR SCT006 BKN008 15/15
                        Q1018 WS ALL RWY=
200911211300 METAR LPPR 211300Z 17022G32KT 2000 -RADZ BR SCT008 BKN009
                        15/14 Q1018=
200911211230 METAR LPPR 211230Z 16023G33KT 3000 -RADZ BR SCT008 SCT030
                        BKN070 15/14 Q1018=
200911211200 METAR LPPR 211200Z 17023KT 4000 -RADZ BR SCT030 BKN070 16/14
                        Q1018=
200911211130 METAR LPPR 211130Z 17023KT 3000 -RADZ BR SCT025 BKN070 16/14
                        Q1019=
200911211100 METAR LPPR 211100Z 16022KT 8000 -RADZ SCT030 BKN070 16/13
                        Q1018=
200911211030 METAR LPPR 211030Z 16021KT 9999 -RADZ FEW015 SCT040 BKN080
                        16/12 Q1018=
200911211000 METAR LPPR 211000Z 16021KT 8000 -RADZ FEW015 SCT040 BKN080
                        16/12 Q1019=
200911210930 METAR LPPR 210930Z 16022KT 9999 FEW015 SCT040 BKN080 16/10
                        Q1019=
200911210900 METAR LPPR 210900Z 16020KT 9999 SCT040 BKN090 16/08 Q1019=
200911210830 METAR LPPR 210830Z 16020KT 9999 SCT040 BKN080 17/05 Q1019=
200911210800 METAR LPPR 210800Z 16022KT 9999 SCT040 BKN070 17/07 Q1019=
200911210730 METAR LPPR 210730Z 16022KT 9999 SCT040 BKN070 17/08 Q1018=
200911210700 METAR LPPR 210700Z 16022KT 9999 SCT040 BKN070 17/08 Q1019=
200911210630 METAR LPPR 210630Z 16021KT 9999 SCT040 BKN070 17/09 Q1019=
200911210600 METAR LPPR 210600Z 17019KT 9999 SCT040 BKN070 17/09 Q1019=
200911210530 METAR LPPR 210530Z 17019KT 9999 SCT040 BKN070 17/09 Q1019=
200911210500 METAR LPPR 210500Z 17015KT 9999 SCT040 BKN070 17/08 Q1019=
200911210430 METAR LPPR 210430Z 16018KT 9999 SCT040 BKN070 18/07 Q1019=
200911210400 METAR LPPR 210400Z 17017KT 9999 SCT040 BKN070 18/07 Q1019=
200911210330 METAR LPPR 210330Z 16017KT CAVOK 18/07 Q1019=
200911210300 METAR LPPR 210300Z 16017KT CAVOK 18/07 Q1019=
200911210230 METAR LPPR 210230Z 16018KT CAVOK 18/07 Q1019=
200911210200 METAR LPPR 210200Z 16017KT 9999 SCT040 BKN060 18/08 Q1020=
200911210130 METAR LPPR 210130Z 16019KT 9999 SCT040 BKN060 18/09 Q1020=
200911210100 METAR LPPR 210100Z 17015KT 9999 SCT040 BKN060 18/09 Q1020=
200911210030 METAR LPPR 210030Z 17017G27KT 9999 SCT040 BKN080 18/10 Q1021=
200911210000 METAR LPPR 210000Z 16017KT 9999 SCT040 BKN070 18/10 Q1021=
200911202330 METAR LPPR 202330Z 16017G27KT 9999 BKN040 BKN060 18/10 Q1021=
200911202300 METAR LPPR 202300Z 17017KT 9999 BKN040 18/10 Q1021=
200911202230 METAR LPPR 202230Z 17020KT 9999 BKN040 19/10 Q1021=
200911202200 METAR LPPR 202200Z 17017KT 9999 BKN040 18/10 Q1021=
200911202130 METAR LPPR 202130Z 16018KT 9999 SCT035 BKN090 18/11 Q1021=
200911202100 METAR LPPR 202100Z 17019KT 9999 SCT035 BKN090 18/11 Q1021=
200911202030 METAR LPPR 202030Z 16021G31KT 9999 SCT030 BKN090 18/11 Q1021=
200911202000 METAR LPPR 202000Z 16021KT 9999 SCT025 BKN080 18/11 Q1020=
200911201930 METAR LPPR 201930Z 16021G33KT 9999 SCT025 BKN080 18/11 Q1020=
200911201900 METAR LPPR 201900Z 16020KT 9999 SCT025 BKN080 18/11 Q1020=
200911201830 METAR LPPR 201830Z 16019KT 9999 BKN025 BKN080 18/11 Q1020=
200911201800 METAR LPPR 201800Z 16019KT 9999 BKN025 BKN070 18/12 Q1020=
200911201730 METAR LPPR 201730Z 16018KT 9999 BKN025 BKN070 18/12 Q1020=
200911201700 METAR LPPR 201700Z 16018G29KT 9999 BKN025 BKN070 18/12 Q1021=
200911201630 METAR LPPR 201630Z 16017KT 9999 SCT020 BKN035 18/13 Q1021=
200911201600 METAR LPPR 201600Z 16017KT 9999 SCT020 BKN035 18/13 Q1021=
200911201530 METAR LPPR 201530Z 16017KT 9999 SCT020 BKN035 18/13 Q1020=
200911201500 METAR LPPR 201500Z 16017KT 9999 SCT020 BKN035 18/13 Q1021=
200911201430 METAR LPPR 201430Z 17018KT 9999 SCT020 BKN030 18/13 Q1020=
200911201400 METAR LPPR 201400Z 17016KT 9999 SCT020 BKN025 17/13 Q1021=
200911201330 METAR LPPR 201330Z 17017KT 9999 SCT017 BKN025 17/13 Q1021=
200911201300 METAR LPPR 201300Z 16018KT 9999 SCT017 BKN025 16/14 Q1021=
200911201230 METAR LPPR 201230Z 16017KT 9999 SCT015 BKN025 17/13 Q1021
                        WS ALL RWY=
200911201200 METAR LPPR 201200Z 17019G30KT 9999 SCT015 BKN025 17/13 Q1021
                        WS ALL RWY=
200911201130 METAR LPPR 201130Z 17021KT 9999 BKN020 BKN070 18/13 Q1021
                        WS ALL RWY=
200911201100 METAR LPPR 201100Z 17018KT 9999 BKN015 BKN070 18/13 Q1021=
200911201030 METAR LPPR 201030Z 16019KT 9999 SCT035 BKN070 17/13 Q1021=
200911201000 METAR LPPR 201000Z 16018KT 9999 SCT035 BKN070 17/13 Q1021=
200911200930 METAR LPPR 200930Z 16017KT 9999 SCT035 BKN080 16/13 Q1021=
200911200900 METAR LPPR 200900Z 16016KT 9999 SCT020 BKN030 16/13 Q1021=
200911200830 METAR LPPR 200830Z 17017KT 5000 -RA BR SCT016 BKN030 16/13
                        Q1021=
200911200800 METAR LPPR 200800Z 16017KT 9999 SCT020 BKN035 16/12 Q1020=
200911200730 METAR LPPR 200730Z 16017KT 9999 BKN020 BKN040 16/11 Q1020=
200911200700 METAR LPPR 200700Z 16014KT 9999 FEW025 BKN050 16/11 Q1020=
200911200630 METAR LPPR 200630Z 16014KT 9999 FEW025 BKN050 16/10 Q1019=
200911200600 METAR LPPR 200600Z 15016KT 9999 FEW025 BKN050 16/10 Q1020=
200911200530 METAR LPPR 200530Z 16013KT 9999 FEW025 BKN045 16/10 Q1020=
200911200500 METAR LPPR 200500Z 15014KT 9999 FEW025 BKN040 16/10 Q1020=
200911200430 METAR LPPR 200430Z 15015KT 9999 SCT030 BKN090 BKN250 16/10
                        Q1019=
200911200400 METAR LPPR 200400Z 16014KT 9999 SCT025 BKN090 BKN250 16/09
                        Q1019=
200911200330 METAR LPPR 200330Z 16016KT 9999 SCT025 SCT058 BKN075 16/10
                        Q1019=
200911200300 METAR LPPR 200300Z 16012KT 9999 SCT025 SCT080 BKN250 15/10
                        Q1020=
200911200230 METAR LPPR 200230Z 16013KT 9999 FEW025 SCT080 BKN250 15/10
                        Q1020=
200911200200 METAR LPPR 200200Z 16015KT CAVOK 15/09 Q1020=
200911200130 METAR LPPR 200130Z 17013KT 9999 FEW040 SCT090 BKN250 15/09
                        Q1020=
200911200100 METAR LPPR 200100Z 16012KT 9999 SCT040 SCT060 BKN250 15/09
                        Q1020=
200911200030 METAR LPPR 200030Z 15012KT CAVOK 15/10 Q1020=
200911200000 METAR LPPR 200000Z 15008KT 110V180 CAVOK 15/10 Q1020=
200911192330 METAR LPPR 192330Z 15013KT CAVOK 15/10 Q1020=
200911192300 METAR LPPR 192300Z 14010KT 9999 FEW040 SCT080 14/10 Q1020=
200911192230 METAR LPPR 192230Z 14008KT 9999 FEW040 BKN080 14/10 Q1020=
200911192200 METAR LPPR 192200Z 13009KT 9999 FEW015 SCT080 BKN250 14/11
                        Q1020=
200911192130 METAR LPPR 192130Z 13007KT 9999 FEW015 SCT080 BKN250 14/11
                        Q1020=
200911192100 METAR LPPR 192100Z 13008KT 9999 FEW015 SCT080 14/11 Q1020=
200911192030 METAR LPPR 192030Z 15009KT 9999 FEW015 SCT080 15/12 Q1020=
200911192000 METAR LPPR 192000Z 15007KT 9999 FEW015 SCT080 15/12 Q1020=
200911191930 METAR LPPR 191930Z 17010KT 9999 FEW015 SCT080 15/12 Q1020=
200911191900 METAR LPPR 191900Z 17010KT 9999 FEW015 SCT080 15/12 Q1020=
200911191830 METAR LPPR 191830Z 19009KT 9999 FEW015 SCT080 15/12 Q1020=
200911191800 METAR LPPR 191800Z 19011KT 9999 FEW015 SCT080 15/12 Q1020=
200911191730 METAR LPPR 191730Z 19009KT 9999 FEW015 SCT080 15/12 Q1020=
200911191700 METAR LPPR 191700Z 20011KT 160V260 9999 FEW015 SCT250 16/12
                        Q1020=
200911191630 METAR LPPR 191630Z 20011KT 9999 FEW015 SCT250 16/12 Q1020=
200911191600 METAR LPPR 191600Z 19013KT 9999 FEW015 BKN250 17/12 Q1020=
200911191530 METAR LPPR 191530Z 19012KT 9999 FEW015 BKN250 17/11 Q1020=
200911191500 METAR LPPR 191500Z 19012KT 9999 FEW015 BKN250 16/11 Q1020=
200911191430 METAR LPPR 191430Z 19013KT 9999 FEW015 BKN250 17/11 Q1019=
200911191400 METAR LPPR 191400Z 18012KT 9999 FEW015 BKN250 18/11 Q1019=
200911191330 METAR LPPR 191330Z 19011KT 9999 FEW015 SCT035 BKN250 18/11
                        Q1019=
200911191300 METAR LPPR 191300Z 18012KT 9999 FEW015 SCT035 BKN250 17/11
                        Q1020=
200911191230 METAR LPPR 191230Z 19010KT 9999 FEW015 BKN035 16/11 Q1020=
200911191200 METAR LPPR 191200Z 17008KT 9999 FEW015 BKN035 17/11 Q1020=
200911191130 METAR LPPR 191130Z 16007KT 9999 FEW017 BKN035 16/11 Q1020=
200911191100 METAR LPPR 191100Z 14007KT 9999 FEW017 SCT060 16/10 Q1021=
200911191030 METAR LPPR 191030Z 13005KT 9999 FEW017 15/11 Q1020=
200911191000 METAR LPPR 191000Z 12005KT 9999 FEW017 SCT060 14/11 Q1021=
200911190930 METAR LPPR 190930Z 12007KT CAVOK 13/11 Q1021=
200911190900 METAR LPPR 190900Z 12007KT 9999 SCT035 BKN060 13/11 Q1021=
200911190830 METAR LPPR 190830Z 12008KT 9999 SCT035 BKN060 12/11 Q1021=
200911190800 METAR LPPR 190800Z 11008KT 9999 FEW030 BKN050 12/11 Q1021=
200911190730 METAR LPPR 190730Z 11007KT 8000 BKN040 12/11 Q1021=
200911190700 METAR LPPR 190700Z 11007KT 8000 BKN040 12/10 Q1020=
200911190630 METAR LPPR 190630Z 11006KT 8000 BKN040 12/11 Q1020=
200911190600 METAR LPPR 190600Z 10006KT 7000 BKN040 12/11 Q1020=
200911190530 METAR LPPR 190530Z 11004KT 7000 BKN040 BKN090 11/11 Q1020=
200911190500 METAR LPPR 190500Z 00000KT 7000 FEW040 SCT090 10/10 Q1020=
200911190430 METAR LPPR 190430Z 00000KT 8000 SCT040 BKN090 10/09 Q1020=
200911190400 METAR LPPR 190400Z 00000KT 7000 BKN090 10/10 Q1020=
200911190330 METAR LPPR 190330Z 00000KT 7000 BKN090 10/10 Q1020=
200911190300 METAR LPPR 190300Z 00000KT CAVOK 10/09 Q1020=
200911190230 METAR LPPR 190230Z 00000KT 9000 SKC 10/09 Q1020=
200911190200 METAR LPPR 190200Z 00000KT 8000 SKC 10/10 Q1020=
200911190130 METAR LPPR 190130Z 10005KT CAVOK 10/09 Q1020=
200911190100 METAR LPPR 190100Z 00000KT CAVOK 09/08 Q1021=
200911190030 METAR LPPR 190030Z 00000KT CAVOK 09/08 Q1021=
200911190000 METAR LPPR 190000Z 00000KT 9000 SKC 09/08 Q1021=
200911182330 METAR LPPR 182330Z 00000KT 7000 SKC 09/07 Q1021=
200911182300 METAR LPPR 182300Z 00000KT CAVOK 09/08 Q1022=
200911182230 METAR LPPR 182230Z 00000KT CAVOK 09/08 Q1022=
200911182200 METAR LPPR 182200Z 00000KT CAVOK 09/08 Q1022=
200911182130 METAR LPPR 182130Z 00000KT CAVOK 09/08 Q1022=
200911182100 METAR LPPR 182100Z 00000KT CAVOK 10/08 Q1022=
200911182030 METAR LPPR 182030Z 00000KT CAVOK 10/08 Q1022=
200911182000 METAR LPPR 182000Z 00000KT CAVOK 11/08 Q1022=
200911181930 METAR LPPR 181930Z 00000KT CAVOK 11/09 Q1022=
200911181900 METAR LPPR 181900Z 00000KT CAVOK 12/09 Q1022=
200911181830 METAR LPPR 181830Z 00000KT CAVOK 12/09 Q1022=
200911181800 METAR LPPR 181800Z 00000KT CAVOK 12/10 Q1022=
200911181730 METAR LPPR 181730Z 34002KT CAVOK 13/09 Q1021=
200911181700 METAR LPPR 181700Z 34006KT 290V350 CAVOK 14/10 Q1021=
200911181630 METAR LPPR 181630Z 33005KT CAVOK 16/10 Q1021=
200911181600 METAR LPPR 181600Z 32007KT 290V360 CAVOK 16/10 Q1021=
200911181530 METAR LPPR 181530Z 32006KT CAVOK 17/10 Q1021=
200911181500 METAR LPPR 181500Z 32006KT 290V350 CAVOK 17/10 Q1021=
200911181430 METAR LPPR 181430Z 30007KT CAVOK 17/11 Q1021=
200911181400 METAR LPPR 181400Z 32005KT CAVOK 18/12 Q1021=
200911181330 METAR LPPR 181330Z VRB03KT CAVOK 17/11 Q1022=
200911181300 METAR LPPR 181300Z 32004KT 290V350 CAVOK 17/11 Q1022=
200911181230 METAR LPPR 181230Z VRB03KT CAVOK 17/11 Q1022=
200911181200 METAR LPPR 181200Z 00000KT CAVOK 17/11 Q1023=
200911181130 METAR LPPR 181130Z 00000KT CAVOK 15/11 Q1023=
200911181100 METAR LPPR 181100Z VRB02KT CAVOK 14/11 Q1023=
200911181030 METAR LPPR 181030Z 00000KT CAVOK 13/10 Q1024=
200911181000 METAR LPPR 181000Z VRB03KT CAVOK 12/11 Q1023=
200911180930 METAR LPPR 180930Z 00000KT CAVOK 11/11 Q1023=
200911180900 METAR LPPR 180900Z 00000KT 8000 SCT040 09/09 Q1023=
200911180830 METAR LPPR 180830Z 00000KT 8000 SCT040 09/09 Q1023=
200911180800 METAR LPPR 180800Z 00000KT 8000 FEW050 07/07 Q1023=
200911180730 METAR LPPR 180730Z 00000KT 8000 FEW050 07/07 Q1023=
200911180700 METAR LPPR 180700Z 00000KT 8000 FEW040 08/08 Q1023=
200911180630 METAR LPPR 180630Z 00000KT 7000 FEW250 07/07 Q1023=
200911180600 METAR LPPR 180600Z 00000KT 5000 BR FEW250 07/07 Q1023=
200911180530 METAR LPPR 180530Z 00000KT 5000 BR FEW250 07/07 Q1023=
200911180500 METAR LPPR 180500Z 00000KT 4000 BR FEW250 08/08 Q1023=
200911180430 METAR LPPR 180430Z 00000KT 4000 BR FEW250 08/08 Q1022=
200911180400 METAR LPPR 180400Z 00000KT 3000 BR FEW250 08/08 Q1023=
200911180330 METAR LPPR 180330Z 00000KT 3000 BR FEW250 08/08 Q1023=
200911180300 METAR LPPR 180300Z 00000KT 4000 BR FEW250 08/08 Q1023=
200911180230 METAR LPPR 180230Z VRB02KT 5000 BR FEW250 09/09 Q1023=
200911180200 METAR LPPR 180200Z 00000KT 5000 BR FEW250 09/09 Q1023=
200911180130 METAR LPPR 180130Z 09003KT 6000 FEW250 10/10 Q1023=
200911180100 METAR LPPR 180100Z 00000KT CAVOK 09/09 Q1023=
200911180030 METAR LPPR 180030Z 00000KT CAVOK 09/09 Q1023=
200911180000 METAR LPPR 180000Z 00000KT CAVOK 09/08 Q1023=
200911172330 METAR LPPR 172330Z 00000KT CAVOK 09/08 Q1023=
200911172300 METAR LPPR 172300Z 00000KT CAVOK 09/09 Q1023=
200911172230 METAR LPPR 172230Z 00000KT CAVOK 10/09 Q1023=
200911172200 METAR LPPR 172200Z 00000KT CAVOK 10/09 Q1023=
200911172130 METAR LPPR 172130Z 09002KT CAVOK 11/10 Q1023=
200911172100 METAR LPPR 172100Z 00000KT CAVOK 10/10 Q1023=
200911172030 METAR LPPR 172030Z 00000KT CAVOK 11/10 Q1023=
200911172000 METAR LPPR 172000Z 00000KT CAVOK 11/10 Q1023=
200911171930 METAR LPPR 171930Z 00000KT CAVOK 11/10 Q1023=
200911171900 METAR LPPR 171900Z 00000KT 9999 FEW020 12/11 Q1022=
200911171830 METAR LPPR 171830Z 00000KT 9999 FEW020 12/11 Q1022=
200911171800 METAR LPPR 171800Z 00000KT 9999 FEW020 13/11 Q1021=
200911171730 METAR LPPR 171730Z 00000KT 9999 FEW020 14/11 Q1021=
200911171700 METAR LPPR 171700Z VRB03KT 9999 FEW020 15/11 Q1021=
200911171630 METAR LPPR 171630Z 31004KT 280V350 9999 FEW020 16/11 Q1021=
200911171600 METAR LPPR 171600Z 31005KT 9999 SCT020 16/11 Q1021=
200911171530 METAR LPPR 171530Z 29005KT 230V330 9999 SCT020 16/11 Q1020=
200911171500 METAR LPPR 171500Z 28005KT 230V340 9999 SCT020 17/10 Q1020=
200911171430 METAR LPPR 171430Z 28005KT 240V310 9999 SCT017 17/11 Q1020=
200911171400 METAR LPPR 171400Z VRB03KT 9999 SCT017 17/11 Q1020=
200911171330 METAR LPPR 171330Z VRB03KT 9999 SCT017 17/12 Q1020=
200911171300 METAR LPPR 171300Z 00000KT 9999 SCT017 17/10 Q1020=
200911171230 METAR LPPR 171230Z 00000KT 9999 FEW017 17/11 Q1020=
200911171200 METAR LPPR 171200Z 00000KT 9999 FEW017 17/10 Q1020=
200911171130 METAR LPPR 171130Z VRB02KT 9999 FEW017 17/11 Q1020=
200911171100 METAR LPPR 171100Z 00000KT 9999 FEW017 16/11 Q1020=
200911171030 METAR LPPR 171030Z VRB03KT 9999 FEW017 15/11 Q1020=
200911171000 METAR LPPR 171000Z 00000KT 9999 FEW017 SCT070 15/11 Q1020=
200911170930 METAR LPPR 170930Z VRB02KT 9999 FEW017 SCT070 14/12 Q1019=
200911170900 METAR LPPR 170900Z 09003KT 9999 FEW017 SCT070 13/11 Q1018=
200911170830 METAR LPPR 170830Z 11003KT 9999 FEW017 SCT070 12/11 Q1018=
200911170800 METAR LPPR 170800Z 00000KT 9999 FEW017 SCT080 11/10 Q1017=
200911170730 METAR LPPR 170730Z 07003KT 9999 FEW017 SCT080 11/11 Q1017=
200911170700 METAR LPPR 170700Z 00000KT 9999 FEW017 SCT080 11/10 Q1017=
200911170630 METAR LPPR 170630Z 00000KT 9999 FEW017 BKN080 11/11 Q1016=
200911170600 METAR LPPR 170600Z 00000KT 9999 FEW017 BKN080 11/10 Q1016=
200911170530 METAR LPPR 170530Z 35002KT 9999 FEW017 BKN080 10/10 Q1016=
200911170500 METAR LPPR 170500Z 00000KT 9999 FEW017 BKN070 11/10 Q1015=
200911170430 METAR LPPR 170430Z 00000KT 9999 FEW015 SCT040 BKN070 12/11
                        Q1015=
200911170400 METAR LPPR 170400Z 00000KT 9999 SCT015 BKN040 12/11 Q1014=
200911170330 METAR LPPR 170330Z 35004KT 9999 SCT015 BKN040 12/11 Q1014=
200911170300 METAR LPPR 170300Z 35006KT 9999 SCT015 BKN040 12/12 Q1014=
200911170230 METAR LPPR 170230Z 35006KT 8000 -RA SCT007 SCT015 BKN030
                        12/12 Q1013=
200911170200 METAR LPPR 170200Z 33004KT 7000 -RA SCT005 SCT012 BKN020
                        13/12 Q1014=
200911170130 METAR LPPR 170130Z 33008KT 5000 RA BR SCT004 BKN015 13/12
                        Q1013=
200911170100 METAR LPPR 170100Z 00000KT 5000 RA BR SCT004 BKN015 13/13
                        Q1013=
200911170030 METAR LPPR 170030Z 00000KT 7000 -RA SCT007 BKN020 13/13 Q1013=
200911170000 METAR LPPR 170000Z 00000KT 7000 -RA SCT007 BKN020 13/13 Q1012=
200911162330 METAR LPPR 162330Z 33002KT 7000 -RA SCT007 BKN017 13/13 Q1012=
200911162300 METAR LPPR 162300Z 34005KT 7000 -RA SCT007 BKN015 13/13 Q1012=
200911162230 METAR LPPR 162230Z 00000KT 7000 SCT007 BKN015 13/12 Q1012=
200911162200 METAR LPPR 162200Z VRB02KT 7000 SCT006 BKN015 13/12 Q1012=
200911162130 METAR LPPR 162130Z 03002KT 7000 -RA SCT006 BKN015 13/12 Q1011=
200911162100 METAR LPPR 162100Z 02002KT 6000 -RA SCT006 BKN015 13/13 Q1011=
200911162030 METAR LPPR 162030Z 34003KT 5000 -RA BR SCT005 BKN013 13/13
                        Q1011=
200911162000 METAR LPPR 162000Z VRB03KT 7000 -RA FEW013 BKN045 13/13 Q1011=
200911161930 METAR LPPR 161930Z 28004KT 250V310 7000 -RA FEW013 BKN050
                        13/13 Q1011=
200911161900 METAR LPPR 161900Z 35004KT 310V070 7000 -RA FEW013 BKN050
                        13/13 Q1011=
200911161830 METAR LPPR 161830Z VRB03KT 7000 -RA FEW013 BKN050 13/13 Q1011=
200911161800 METAR LPPR 161800Z 29004KT 7000 -RA FEW013 SCT020 BKN060
                        13/13 Q1011=
200911161730 METAR LPPR 161730Z VRB02KT 9999 FEW013 BKN035 13/13 Q1011=
200911161700 METAR LPPR 161700Z 03003KT 9999 FEW013 BKN035 13/13 Q1010=
200911161630 METAR LPPR 161630Z VRB03KT 9999 FEW013 SCT030 BKN050 13/13
                        Q1010=
200911161600 METAR LPPR 161600Z 36005KT 4000 -RA BR FEW008 SCT013 BKN030
                        13/12 Q1010=
200911161530 METAR LPPR 161530Z 32006KT 5000 -RA BR FEW008 SCT013 BKN025
                        13/13 Q1011=
200911161500 METAR LPPR 161500Z 36008KT 7000 -RA BR FEW008 SCT013 BKN025
                        14/13 Q1010=
200911161430 METAR LPPR 161430Z 36008KT 5000 -RA BR FEW013 BKN030 14/13
                        Q1010=
200911161400 METAR LPPR 161400Z 36005KT 6000 SCT005 BKN025 14/13 Q1010=
200911161330 METAR LPPR 161330Z 35006KT 5000 -RA BR SCT006 BKN025 14/13
                        Q1011 RERA=
200911161300 METAR LPPR 161300Z 35006KT 3000 RA BR SCT005 BKN008 13/13
                        Q1011=
200911161230 METAR LPPR 161230Z 35006KT 3000 RA BR SCT004 BKN006 14/13
                        Q1011=
200911161200 METAR LPPR 161200Z 00000KT 2500 RA BR SCT003 BKN005 14/13
                        Q1011=
200911161130 METAR LPPR 161130Z VRB02KT 4000 RA BR SCT004 SCT007 BKN060
                        14/13 Q1011=
200911161100 METAR LPPR 161100Z 02004KT 350V050 4000 -RA BR FEW006 SCT035
                        BKN060 14/13 Q1011=
200911161030 METAR LPPR 161030Z VRB02KT 7000 SCT035 BKN060 14/13 Q1012=
200911161000 METAR LPPR 161000Z VRB03KT 5000 -RA BR FEW007 SCT035 BKN100
                        14/13 Q1012=
200911160930 METAR LPPR 160930Z 00000KT 4000 -RA BR FEW007 SCT035 BKN100
                        13/13 Q1012=
200911160900 METAR LPPR 160900Z 05003KT 9999 -RA FEW017 BKN035 BKN100
                        13/13 Q1012=
200911160830 METAR LPPR 160830Z VRB03KT 9000 -RA FEW015 BKN030 BKN070
                        13/13 Q1011=
200911160800 METAR LPPR 160800Z 07002KT 5000 -RA BR FEW007 SCT015 BKN040
                        13/13 Q1011=
200911160730 METAR LPPR 160730Z 04005KT 5000 -RA BR FEW005 SCT013 BKN030
                        13/13 Q1011=
200911160700 METAR LPPR 160700Z 01005KT 2000 RA BR SCT004 SCT007 BKN015
                        13/13 Q1011=
200911160630 METAR LPPR 160630Z 01006KT 2000 RA BR SCT003 SCT005 BKN012
                        14/13 Q1011=
200911160600 METAR LPPR 160600Z 34004KT 2000 RA BR BKN003 BKN005 14/14
                        Q1010=
200911160530 METAR LPPR 160530Z VRB03KT 2000 RA BR BKN003 BKN005 15/14
                        Q1010=
200911160500 METAR LPPR 160500Z VRB04KT 3000 RA BR SCT003 SCT005 BKN013
                        15/14 Q1010=
200911160430 METAR LPPR 160430Z 15011KT 5000 -RA BR FEW007 SCT017 BKN030
                        15/14 Q1010=
200911160400 METAR LPPR 160400Z 17011KT 5000 -RA BR SCT006 SCT030 BKN070
                        15/14 Q1010=
200911160330 METAR LPPR 160330Z 16010KT 7000 -RA BR SCT006 BKN050 BKN070
                        15/15 Q1010=
200911160300 METAR LPPR 160300Z 17012KT 7000 -RA BR SCT006 BKN050 BKN070
                        15/15 Q1010=
200911160230 METAR LPPR 160230Z 17011KT 7000 -RA BR SCT003 SCT006 BKN012
                        15/15 Q1010=
200911160200 METAR LPPR 160200Z 17010KT 7000 -RA BR SCT004 SCT035 BKN070
                        15/15 Q1010=
200911160130 METAR LPPR 160130Z 16009KT 7000 -RA BR SCT005 SCT015 BKN070
                        15/15 Q1009=
200911160100 METAR LPPR 160100Z 17010KT 7000 -RA BR SCT006 SCT015 BKN070
                        15/15 Q1009=
200911160030 METAR LPPR 160030Z 18013KT 5000 -RA BR SCT002 SCT015 BKN050
                        16/15 Q1010=
200911160000 METAR LPPR 160000Z 18011KT 160V220 5000 -RA BR SCT004 SCT012
                        BKN050 16/15 Q1010 RERA=
200911152330 METAR LPPR 152330Z 17012KT 4000 RA BR SCT003 SCT007 BKN012
                        16/15 Q1010=
200911152300 METAR LPPR 152300Z 19012KT 3000 RA BR SCT004 SCT007 BKN012
                        16/16 Q1010=
200911152230 METAR LPPR 152230Z 18013KT 2500 RA BR SCT003 SCT006 BKN013
                        16/16 Q1010=
200911152200 METAR LPPR 152200Z 19013KT 2500 RA BR SCT004 SCT008 BKN013
                        16/15 Q1010=
200911152130 METAR LPPR 152130Z 19016KT 3500 RA BR FEW005 BKN015 BKN020
                        16/15 Q1009 WS ALL RWY=
200911152100 METAR LPPR 152100Z 19017KT 3500 RA BR FEW005 BKN011 BKN020
                        16/15 Q1009 RERA WS ALL RWY=
200911152030 METAR LPPR 152030Z 22009G19KT 180V250 2500 +RA BR SCT001
                        SCT003 BKN012 17/17 Q1008 WS ALL
                        RWY=
200911152000 METAR LPPR 152000Z 22010KT 3500 -RA BR SCT002 BKN014 BKN020
                        17/17 Q1008=
200911151930 METAR LPPR 151930Z 20010KT 4000 -RA BR SCT003 BKN015 BKN020
                        17/17 Q1008=
200911151900 METAR LPPR 151900Z 20013KT 2500 -RA BR SCT001 SCT005 BKN010
                        17/17 Q1008=
200911151830 METAR LPPR 151830Z 19014KT 4000 -RA BR FEW001 SCT003 BKN010
                        17/17 Q1007 RERA=
200911151800 METAR LPPR 151800Z 19017KT 2500 RA BR SCT002 BKN005 BKN008
                        17/17 Q1008 WS ALL RWY=
200911151730 METAR LPPR 151730Z 19018G30KT 2500 -RA BR SCT002 BKN005 BKN010
                        17/17 Q1007 WS ALL RWY=
200911151700 METAR LPPR 151700Z 18025KT 2000 -RA BR SCT002 BKN005 BKN010
                        18/17 Q1007 WS ALL RWY=
200911151630 METAR LPPR 151630Z 19022G32KT 3500 -REA BR SCT002 SCT007
                        FEW017CB BKN030 18/18 Q1007 WS ALL
                        RWY=
200911151600 METAR LPPR 151600Z 18024G34KT 3500 -RA BR SCT004 SCT007 FEW017CB
                        BKN020 18/18 Q1007 WS ALL RWY=
200911151530 METAR LPPR 151530Z 20018G39KT 1500 +RA VCFG SCT002 BKN012
                        BKN020 18/18 Q1007 WS ALL RWY=
200911151500 METAR LPPR 151500Z 21017G29KT 1000 R17/P1500 R35/P1500 +RA
                        VCFG BR SCT001 BKN003 BKN007 17/17
                        Q1007 WS ALL RWY=
200911151430 METAR LPPR 151430Z 18028KT 1000 R17/1400U R35/1500N +RA VCFG
                        BR SCT004 BKN007 BKN012 18/18 Q1007
                        WS ALL RWY=
200911151400 METAR LPPR 151400Z 18025G35KT 1500 RA BR FEW010 SCT013 BKN020
                        18/17 Q1007 WS ALL RWY=
200911151330 METAR LPPR 151330Z 18024KT 2000 RA BR SCT013 BKN020 18/17
                        Q1007 WS ALL RWY=
200911151300 METAR LPPR 151300Z 18025G37KT 5000 -RA BR SCT010 BKN018 19/17
                        Q1007 WS ALL RWY=
200911151230 METAR LPPR 151230Z 18025G35KT 5000 -RA BR SCT010 BKN018 19/17
                        Q1007 WS ALL RWY=
200911151200 METAR LPPR 151200Z 18024KT 4000 -RA BR BKN010 BKN018 18/17
                        Q1008 WS ALL RWY=
200911151130 METAR LPPR 151130Z 18026KT 3000 -RA BR SCT005 BKN008 BKN016
                        18/17 Q1008 WS ALL RWY=
200911151100 METAR LPPR 151100Z 18026G37KT 3000 R17/1400N R35/1100U -RA
                        BR SCT005 BKN008 BKN016 18/17 Q1008
                        RERA=
200911151030 METAR LPPR 151030Z 18026G36KT 1200 R17/1100N R35/1000N RA
                        BR BKN006 BKN012 18/17 Q1008 WS ALL
                        RWY=
200911151000 METAR LPPR 151000Z 17025KT 3000 -RA BR BKN008 BKN016 18/17
                        Q1008 WS ALL RWY=
200911150930 METAR LPPR 150930Z 17025G36KT 8000 BKN008 BKN016 18/17 Q1008
                        WS ALL RWY=
200911150900 METAR LPPR 150900Z 18026KT 8000 SCT005 BKN008 BKN016 18/17
                        Q1008 WS ALL RWY=
200911150830 METAR LPPR 150830Z 18025KT 7000 SCT004 BKN008 BKN014 18/17
                        Q1008 WS ALL RWY=
200911150800 METAR LPPR 150800Z 18025KT 5000 -RA BR SCT004 BKN007 BKN012
                        18/17 Q1008 WS ALL RWY=
200911150730 METAR LPPR 150730Z 18025G36KT 6000 -RA SCT004 BKN008 BKN012
                        18/17 Q1008 RERA WS ALL RWY=
200911150700 METAR LPPR 150700Z 21020KT 170V240 1500 +RA BR BKN003 BKN005
                        17/17 Q1007 WS ALL RWY=
200911150630 METAR LPPR 150630Z 19022G33KT 1500 RA BR SCT004 BKN008 BKN012
                        17/17 Q1007 WS ALL RWY=
200911150600 METAR LPPR 150600Z 18025G36KT 1500 RA BR SCT004 BKN008 BKN012
                        17/17 Q1007 WS ALL RWY=
200911150530 METAR LPPR 150530Z 16016G26KT 3500 RA BR SCT005 SCT014 BKN020
                        16/16 Q1007=
200911150500 METAR LPPR 150500Z 11005KT 080V140 3500 RA BR SCT005 SCT014
                        BKN020 14/14 Q1008=
200911150430 METAR LPPR 150430Z 10006KT 060V140 3000 RA BR SCT004 SCT013
                        BKN017 14/14 Q1009=
200911150400 METAR LPPR 150400Z 10005KT 3000 RA BR SCT009 SCT013 BKN017
                        14/14 Q1010=
200911150330 METAR LPPR 150330Z 10005KT 060V160 3000 RA BR SCT009 SCT013
                        BKN017 15/14 Q1010=
200911150300 METAR LPPR 150300Z VRB03KT 3000 RA BR SCT009 SCT013 BKN017
                        15/14 Q1011=
200911150230 METAR LPPR 150230Z 11005KT 4000 -RA BR FEW009 SCT013 BKN017
                        15/14 Q1012=
200911150200 METAR LPPR 150200Z 13006KT 5000 -RA BR FEW013 SCT017 BKN070
                        15/15 Q1012=
200911150130 METAR LPPR 150130Z 13006KT 5000 -RA BR FEW013 SCT017 BKN070
                        15/15 Q1012=
200911150100 METAR LPPR 150100Z 13007KT 6000 -RA FEW013 SCT017 BKN070
                        16/15 Q1013=
200911150030 METAR LPPR 150030Z 13006KT 7000 -RA FEW013 SCT017 BKN070
                        16/15 Q1014=
200911150000 METAR LPPR 150000Z 15007KT 7000 -RA SCT013 BKN070 16/15 Q1014=
200911142330 METAR LPPR 142330Z 16009KT 7000 SCT017 BKN070 17/14 Q1015=
200911142300 METAR LPPR 142300Z 16009KT 7000 SCT025 BKN070 17/15 Q1015=
200911142230 METAR LPPR 142230Z 17008KT 7000 SCT025 BKN070 16/15 Q1016=
200911142200 METAR LPPR 142200Z 17008KT 7000 SCT025 BKN070 17/15 Q1016=
200911142130 METAR LPPR 142130Z 18010KT 7000 SCT025 BKN070 17/15 Q1016=
200911142100 METAR LPPR 142100Z 17010KT 7000 SCT025 BKN070 17/15 Q1016=
200911142030 METAR LPPR 142030Z 17010KT 5000 BR FEW007 BKN025 17/14 Q1016=
200911142000 METAR LPPR 142000Z 18010KT 5000 BR FEW015 SCT030 BKN070 17/14
                        Q1016=
200911141930 METAR LPPR 141930Z 18010KT 5000 BR FEW015 BKN030 BKN070 17/14
                        Q1016=
200911141900 METAR LPPR 141900Z 18010KT 5000 BR SCT015 SCT050 BKN070 17/14
                        Q1016=
200911141830 METAR LPPR 141830Z 17009KT 5000 BR SCT015 SCT050 BKN070 17/14
                        Q1016=
200911141800 METAR LPPR 141800Z 18010KT 5000 BR SCT015 SCT050 BKN070 17/13
                        Q1016=
200911141730 METAR LPPR 141730Z 18012KT 5000 BR SCT015 BKN050 BKN070 17/13
                        Q1016=
200911141700 METAR LPPR 141700Z 18014KT 4000 VCSH BR SCT015 BKN040 BKN070
                        18/13 Q1016=
200911141630 METAR LPPR 141630Z 19013KT 4000 VCSH BR FEW015 BKN040 BKN060
                        18/14 Q1016=
200911141600 METAR LPPR 141600Z 19014KT 5000 BR VCSH FEW015 BKN040 BKN060
                        18/13 Q1016=
200911141530 METAR LPPR 141530Z 19013KT 9999 FEW017 FEW020TCU BKN050 BKN070
                        18/13 Q1016=
200911141500 METAR LPPR 141500Z 18015KT 9999 FEW017 FEW020TCU BKN050 18/13
                        Q1016=
200911141430 METAR LPPR 141430Z 19016KT 9999 FEW017 SCT040 BKN200 18/13
                        Q1015=
200911141400 METAR LPPR 141400Z 18015KT 9999 FEW017 SCT040 BKN200 18/14
                        Q1015=
200911141330 METAR LPPR 141330Z 18015KT 9999 FEW017 SCT040 BKN200 18/14
                        Q1016=
200911141300 METAR LPPR 141300Z 18015KT 9999 FEW017 SCT090 BKN200 18/13
                        Q1016=
200911141230 METAR LPPR 141230Z 19012KT 9999 FEW017 BKN200 18/12 Q1016=
200911141200 METAR LPPR 141200Z 18013KT 9999 FEW015 BKN200 18/12 Q1016=
200911141130 METAR LPPR 141130Z 18013KT 9999 FEW015 FEW025TCU BKN250 18/13
                        Q1016=
200911141100 METAR LPPR 141100Z 19011KT 9999 SCT015 SCT250 18/14 Q1016=
200911141030 METAR LPPR 141030Z 18011KT 8000 SCT015 17/14 Q1016=
200911141000 METAR LPPR 141000Z 17010KT 8000 FEW015 SCT250 17/13 Q1016=
200911140930 METAR LPPR 140930Z 17009KT 8000 FEW015 SCT090 BKN250 15/13
                        Q1016=
200911140900 METAR LPPR 140900Z 14005KT 8000 FEW015 SCT250 15/13 Q1016=
200911140830 METAR LPPR 140830Z 15006KT 8000 SCT015 BKN250 14/12 Q1015=
200911140800 METAR LPPR 140800Z 16006KT 8000 SCT015 BKN250 13/12 Q1015=
200911140730 METAR LPPR 140730Z 18006KT 8000 SCT017 BKN250 14/12 Q1014=
200911140700 METAR LPPR 140700Z 20004KT 9999 FEW015 SCT250 14/12 Q1014=
200911140630 METAR LPPR 140630Z 21004KT 9999 FEW015 SCT030 14/10 Q1014=
200911140600 METAR LPPR 140600Z 22003KT 9999 FEW015 SCT030 14/10 Q1013=
200911140530 METAR LPPR 140530Z VRB03KT 9999 FEW015 SCT030 15/10 Q1013=
200911140500 METAR LPPR 140500Z 25004KT 210V290 9999 FEW015 SCT030 15/09
                        Q1013=
200911140430 METAR LPPR 140430Z 26006KT 220V300 9999 FEW015 SCT030 15/09
                        Q1013=
200911140400 METAR LPPR 140400Z 24004KT 9999 FEW015 SCT030 15/10 Q1013=
200911140330 METAR LPPR 140330Z 24004KT 210V270 9999 FEW015 SCT030 15/11
                        Q1012=
200911140300 METAR LPPR 140300Z 26004KT 210V310 9999 FEW030 15/11 Q1012=
200911140230 METAR LPPR 140230Z 27007KT 230V320 9999 FEW015 SCT030 16/11
                        Q1012=
200911140200 METAR LPPR 140200Z 26005KT 210V290 9999 SCT020 SCT040 BKN070
                        16/12 Q1011=
200911140130 METAR LPPR 140130Z 24005KT 200V290 9999 FEW020 SCT040 BKN080
                        16/13 Q1011=
200911140100 METAR LPPR 140100Z 20005KT 9999 FEW009 SCT020 BKN040 16/15
                        Q1011=
200911140030 METAR LPPR 140030Z 21005KT 180V250 9000 -SHRA SCT020 BKN040
                        15/14 Q1011=
200911140000 METAR LPPR 140000Z 19005KT 8000 -SHRA FEW008 FEW017CB BKN020
                        15/14 Q1010=
200911132330 METAR LPPR 132330Z VRB03KT 9000 -SHRA FEW009 FEW017CB BKN030
                        15/14 Q1010=
200911132300 METAR LPPR 132300Z VRB03KT 8000 -SHRA FEW009 FEW017CB BKN030
                        14/14 Q1009=
200911132230 METAR LPPR 132230Z 28009G21KT 200V320 1500 +SHRA SCT002 BKN005
                        FEW017CB 14/13 Q1010 WS ALL RWY=
200911132200 METAR LPPR 132200Z 18028G38KT 8000 -TSRA SCT009 FEW017CB
                        BKN020 18/15 Q1007 WS ALL RWY=
200911132130 METAR LPPR 132130Z 18028G38KT 9999 SCT008 BKN017 17/15 Q1008
                        WS ALL RWY=
200911132100 METAR LPPR 132100Z 18027G37KT 9999 SCT008 BKN017 17/15 Q1008
                        WS ALL RWY=
200911132030 METAR LPPR 132030Z 18026G38KT 3000 RA BR SCT007 BKN017 18/15
                        Q1008 WS ALL RWY=
200911132000 METAR LPPR 132000Z 17027G38KT 9999 FEW009 BKN020 18/15 Q1008
                        WS ALL RWY=
200911131930 METAR LPPR 131930Z 17026G36KT 8000 -RA FEW009 BKN020 18/15
                        Q1008 WS ALL RWY=
200911131900 METAR LPPR 131900Z 17025KT 9999 FEW013 BKN020 18/14 Q1008
                        WS ALL RWY=
200911131830 METAR LPPR 131830Z 17022KT 9999 FEW013 BKN020 18/15 Q1009
                        WS ALL RWY=
200911131800 METAR LPPR 131800Z 17023KT 9999 FEW013 BKN020 18/15 Q1009
                        WS ALL RWY=
200911131730 METAR LPPR 131730Z 17022KT 9999 SCT013 BKN020 18/15 Q1010
                        WS ALL RWY=
200911131700 METAR LPPR 131700Z 17022KT 9999 SCT013 BKN018 18/15 Q1010
                        WS ALL RWY=
200911131630 METAR LPPR 131630Z 18024KT 9999 SCT013 BKN020 18/15 Q1010
                        WS ALL RWY=
200911131600 METAR LPPR 131600Z 18022KT 9999 SCT013 BKN020 18/15 Q1010
                        WS ALL RWY=
200911131530 METAR LPPR 131530Z 18022KT 9999 SCT013 BKN020 18/15 Q1010
                        WS ALL RWY=
200911131500 METAR LPPR 131500Z 17022KT 9999 SCT013 BKN020 19/15 Q1010
                        WS ALL RWY=
200911131430 METAR LPPR 131430Z 17022KT 9999 SCT013 BKN020 19/15 Q1010
                        WS ALL RWY=
200911131400 METAR LPPR 131400Z 17022KT 9999 SCT013 BKN020 19/15 Q1010
                        WS ALL RWY=
200911131330 METAR LPPR 131330Z 17022KT 9999 FEW009 SCT013 BKN020 19/16
                        Q1010 WS ALL RWY=
200911131300 METAR LPPR 131300Z 17022KT 9999 SCT009 SCT013 BKN020 19/16
                        Q1011 WS ALL RWY=
200911131230 METAR LPPR 131230Z 18023G34KT 9999 SCT009 SCT013 BKN020 19/16
                        Q1011 WS ALL RWY=
200911131200 METAR LPPR 131200Z 17024KT 9999 SCT009 SCT013 BKN020 19/16
                        Q1011 WS ALL RWY=
200911131130 METAR LPPR 131130Z 17022KT 9999 SCT009 SCT013 BKN020 19/16
                        Q1012 WS ALL RWY=
200911131100 METAR LPPR 131100Z 17021KT 9999 SCT009 SCT013 BKN030 19/16
                        Q1012 WS ALL RWY=
200911131030 METAR LPPR 131030Z 18022KT 9999 SCT009 SCT013 BKN030 19/16
                        Q1012 WS ALL RWY=
200911131000 METAR LPPR 131000Z 17024KT 9999 SCT009 SCT013 BKN030 19/16
                        Q1013 WS ALL RWY=
200911130930 METAR LPPR 130930Z 17021KT 9999 SCT009 SCT013 BKN017 18/16
                        Q1013 WS ALL RWY=
200911130900 METAR LPPR 130900Z 17020KT 9999 SCT010 BKN016 18/16 Q1013=
200911130830 METAR LPPR 130830Z 17022G33KT 9999 SCT010 BKN016 18/16 Q1013=
200911130800 METAR LPPR 130800Z 17018KT 9999 SCT008 BKN016 18/16 Q1012=
200911130730 METAR LPPR 130730Z 17016KT 9999 SCT008 BKN016 17/16 Q1012=
200911130700 METAR LPPR 130700Z 17017KT 9999 SCT008 SCT030 17/16 Q1012=
200911130630 METAR LPPR 130630Z 17015KT 9999 BKN008 BKN030 17/16 Q1012=
200911130600 METAR LPPR 130600Z 17015KT 9999 SCT008 BKN030 17/16 Q1013=
200911130530 METAR LPPR 130530Z 16013KT 9999 BKN008 SCT020 17/16 Q1013=
200911130500 METAR LPPR 130500Z 17016KT 9999 BKN008 SCT020 17/16 Q1013=
200911130430 METAR LPPR 130430Z 17015KT 8000 FEW006 BKN008 17/16 Q1013=
200911130400 METAR LPPR 130400Z 17013KT 8000 SCT006 BKN008 17/16 Q1013=
200911130330 METAR LPPR 130330Z 17013KT 5000 BR FEW006 BKN008 16/15 Q1013=
200911130300 METAR LPPR 130300Z 17016KT 5000 BR SCT006 BKN008 17/16 Q1013=
200911130230 METAR LPPR 130230Z 17014KT 4000 BR SCT005 BKN008 17/16 Q1013=
200911130200 METAR LPPR 130200Z 18013KT 4000 BR SCT005 BKN008 17/16 Q1013=
200911130130 METAR LPPR 130130Z 18013KT 4000 BR SCT004 BKN007 17/16 Q1014=
200911130100 METAR LPPR 130100Z 18013KT 5000 BR SCT004 BKN007 17/16 Q1014=
200911130030 METAR LPPR 130030Z 18013KT 5000 BR SCT004 BKN007 17/16 Q1014=
200911130000 METAR LPPR 130000Z 17014KT 5000 BR SCT003 BKN006 17/16 Q1014=
200911122330 METAR LPPR 122330Z 17014KT 8000 SCT003 BKN005 17/16 Q1014=
200911122300 METAR LPPR 122300Z 18012KT 8000 SCT004 BKN006 17/16 Q1014=
200911122230 METAR LPPR 122230Z 18010KT 9999 SCT004 BKN006 16/16 Q1014=
200911122200 METAR LPPR 122200Z 17013KT 9999 SCT004 BKN006 16/16 Q1014=
200911122130 METAR LPPR 122130Z 18010KT 9999 SCT003 BKN005 16/16 Q1014=
200911122100 METAR LPPR 122100Z 17012KT 7000 SCT003 BKN005 16/16 Q1014=
200911122030 METAR LPPR 122030Z 18012KT 7000 SCT004 BKN006 17/16 Q1014=
200911122000 METAR LPPR 122000Z 17013KT 7000 SCT004 BKN006 17/16 Q1014=
200911121930 METAR LPPR 121930Z 18012KT 7000 SCT004 BKN006 17/16 Q1014=
200911121900 METAR LPPR 121900Z 17009KT 9999 SCT008 BKN250 16/15 Q1014=
200911121830 METAR LPPR 121830Z 18010KT 9000 SCT004 BKN250 16/16 Q1014=
200911121800 METAR LPPR 121800Z 18008KT 9999 FEW040 BKN250 16/15 Q1014=
200911121730 METAR LPPR 121730Z 18009KT 9999 SCT040 BKN250 16/15 Q1014=
200911121700 METAR LPPR 121700Z 18011KT 9999 FEW007 BKN040 16/15 Q1013=
200911121630 METAR LPPR 121630Z 19010KT 9999 SCT005 BKN007 17/15 Q1013=
200911121600 METAR LPPR 121600Z 18011KT 9999 FEW005 SCT013 BKN250 17/15
                        Q1013=
200911121530 METAR LPPR 121530Z 18012KT 9999 FEW013 SCT060 BKN250 17/15
                        Q1013=
200911121500 METAR LPPR 121500Z 18012KT 9999 FEW004 SCT030 BKN060 17/15
                        Q1013=
200911121430 METAR LPPR 121430Z 18014KT 9999 SCT002 BKN004 17/15 Q1013=
200911121400 METAR LPPR 121400Z 18016KT 9999 SCT002 BKN006 17/15 Q1013=
200911121330 METAR LPPR 121330Z 17014KT 9999 BKN006 SCT250 17/15 Q1013=
200911121300 METAR LPPR 121300Z 17014KT 9999 SCT006 SCT250 17/15 Q1013=
200911121230 METAR LPPR 121230Z 18012KT 9999 FEW005 SCT013 BKN060 17/15
                        Q1014=
200911121200 METAR LPPR 121200Z 18010KT 160V220 9999 FEW013 SCT030 BKN060
                        17/15 Q1014=
200911121130 METAR LPPR 121130Z 19013KT 9999 FEW008 SCT013 BKN020 16/16
                        Q1015=
200911121100 METAR LPPR 121100Z 18015KT 9999 FEW005 SCT015 BKN250 16/16
                        Q1014=
200911121030 METAR LPPR 121030Z 19015KT 9999 FEW008 SCT015 BKN070 15/15
                        Q1014=
200911121000 METAR LPPR 121000Z 19013KT 7000 -RA SCT004 SCT012 BKN017
                        15/15 Q1014 WS ALL RWY=
200911120930 METAR LPPR 120930Z 19014G25KT 1700 RA BR SCT005 SCT012 BKN015
                        15/15 Q1014 WS ALL RWY=
200911120900 METAR LPPR 120900Z 18021KT 2000 RA BR SCT005 SCT011 BKN017
                        15/15 Q1013 WS ALL RWY=
200911120830 METAR LPPR 120830Z 17020KT 5000 -RA BR SCT007 SCT013 BKN020
                        15/15 Q1013 WS ALL RWY=
200911120800 METAR LPPR 120800Z 17019KT 8000 -RA SCT007 SCT013 BKN030
                        15/15 Q1012 WS ALL RWY=
200911120730 METAR LPPR 120730Z 17020KT 8000 -RA SCT006 SCT015 BKN030
                        15/15 Q1012 RERA WS ALL RWY=
200911120700 METAR LPPR 120700Z 18017KT 6000 RA SCT006 BKN012 BKN020 15/15
                        Q1012 WS ALL RWY=
200911120630 METAR LPPR 120630Z 18018KT 8000 -RA SCT008 BKN015 BKN020
                        15/15 Q1012 WS ALL RWY=
200911120600 METAR LPPR 120600Z 18020KT 8000 SCT008 SCT015 BKN020 15/15
                        Q1012 WS ALL RWY=
200911120530 METAR LPPR 120530Z 18018KT 8000 -RA SCT008 SCT015 BKN020
                        16/16 Q1012 WS ALL RWY=
200911120500 METAR LPPR 120500Z 18021KT 9999 FEW008 SCT015 BKN020 16/16
                        Q1012=
200911120430 METAR LPPR 120430Z 18019KT 9999 FEW008 SCT015 BKN030 16/16
                        Q1012=
200911120400 METAR LPPR 120400Z 18018KT 9999 SCT005 SCT011 BKN030 16/16
                        Q1012=
200911120330 METAR LPPR 120330Z 18018KT 9999 SCT008 SCT014 BKN035 16/16
                        Q1013=
200911120300 METAR LPPR 120300Z 18018KT 9999 SCT007 SCT012 BKN030 16/16
                        Q1013=
200911120230 METAR LPPR 120230Z 18018KT 9999 FEW007 SCT015 BKN030 16/16
                        Q1013=
200911120200 METAR LPPR 120200Z 18017KT 9999 FEW009 SCT015 BKN030 16/16
                        Q1013=
200911120130 METAR LPPR 120130Z 18017KT 9999 FEW009 SCT015 BKN030 16/16
                        Q1013=
200911120100 METAR LPPR 120100Z 18016KT 9999 FEW009 SCT015 BKN030 16/16
                        Q1014=
200911120030 METAR LPPR 120030Z 18016KT 9999 FEW010 SCT017 BKN030 16/16
                        Q1014=
200911120000 METAR LPPR 120000Z 18016KT 9999 SCT025 SCT045 BKN070 16/16
                        Q1014=
200911112330 METAR LPPR 112330Z 18014KT 9999 FEW010 SCT022 BKN070 16/16
                        Q1014=
200911112300 METAR LPPR 112300Z 18013KT 9999 FEW010 SCT022 BKN070 16/16
                        Q1014=
200911112230 METAR LPPR 112230Z 18014KT 9999 FEW010 BKN025 16/16 Q1014=
200911112200 METAR LPPR 112200Z 17014KT 9999 FEW015 SCT027 16/16 Q1015=
200911112130 METAR LPPR 112130Z 17013KT 9999 FEW030 16/16 Q1015=
200911112100 METAR LPPR 112100Z 17012KT 9999 FEW015 16/16 Q1015=
200911112030 METAR LPPR 112030Z 18014KT 9999 FEW040 16/16 Q1015=
200911112000 METAR LPPR 112000Z 17012KT 9999 FEW040 16/16 Q1015=
200911111930 METAR LPPR 111930Z 18013KT 9999 SCT040 16/16 Q1015=
200911111900 METAR LPPR 111900Z 18012KT 9999 FEW009 SCT250 16/16 Q1015=
200911111830 METAR LPPR 111830Z 18014KT 9999 FEW009 SCT250 16/16 Q1015=
200911111800 METAR LPPR 111800Z 18015KT 9999 FEW015 SCT250 16/16 Q1015=
200911111730 METAR LPPR 111730Z 18014KT 9999 FEW015 SCT250 17/17 Q1015=
200911111700 METAR LPPR 111700Z 18015KT 9999 FEW015 SCT250 17/17 Q1015=
200911111630 METAR LPPR 111630Z 18016KT 9999 FEW015 BKN250 17/17 Q1015=
200911111600 METAR LPPR 111600Z 18015KT 9999 FEW015 BKN250 18/17 Q1015=
200911111530 METAR LPPR 111530Z 19016KT 9999 SCT015 SCT250 18/17 Q1015=
200911111500 METAR LPPR 111500Z 18016KT 9999 SCT015 18/17 Q1015=
200911111430 METAR LPPR 111430Z 19015KT 9999 SCT015 19/17 Q1015=
200911111400 METAR LPPR 111400Z 18016KT 9999 FEW008 SCT015 18/17 Q1015=
200911111330 METAR LPPR 111330Z 18015KT 9999 FEW008 SCT015 19/18 Q1016=
200911111300 METAR LPPR 111300Z 18016KT 9999 FEW008 BKN015 18/18 Q1016=
200911111230 METAR LPPR 111230Z 18013KT 9999 SCT008 BKN015 18/18 Q1016=
200911111200 METAR LPPR 111200Z 19012KT 9999 BKN007 BKN013 17/17 Q1017=
200911111130 METAR LPPR 111130Z 19011KT 9999 BKN006 BKN013 17/17 Q1017=
200911111100 METAR LPPR 111100Z 19009KT 9999 BKN006 BKN012 17/17 Q1017=
200911111030 METAR LPPR 111030Z 20008KT 8000 BKN007 BKN012 17/17 Q1017=
200911111000 METAR LPPR 111000Z 19009KT 8000 SCT007 BKN012 17/17 Q1017=
200911110930 METAR LPPR 110930Z 18007KT 8000 SCT006 BKN012 16/16 Q1017=
200911110900 METAR LPPR 110900Z 18005KT 8000 SCT007 BKN013 16/16 Q1017=
200911110830 METAR LPPR 110830Z 20006KT 7000 FEW004 SCT012 BKN020 16/16
                        Q1016=
200911110800 METAR LPPR 110800Z 17008KT 6000 SCT004 BKN010 15/15 Q1016=
200911110730 METAR LPPR 110730Z 19004KT 170V230 7000 SCT003 BKN010 15/15
                        Q1016=
200911110700 METAR LPPR 110700Z 19005KT 8000 SCT004 BKN012 15/15 Q1016=
200911110630 METAR LPPR 110630Z 19004KT 170V230 7000 SCT003 BKN012 15/15
                        Q1016=
200911110600 METAR LPPR 110600Z 19006KT 7000 SCT004 BKN012 15/15 Q1016=
200911110530 METAR LPPR 110530Z VRB03KT 7000 SCT003 BKN015 15/15 Q1016=
200911110500 METAR LPPR 110500Z 20003KT 7000 SCT003 BKN015 15/15 Q1016=
200911110430 METAR LPPR 110430Z 19004KT 170V230 5000 BR SCT002 BKN007
                        15/15 Q1016=
200911110400 METAR LPPR 110400Z 20004KT 4000 BR SCT002 BKN004 15/15 Q1016=
200911110330 METAR LPPR 110330Z VRB02KT 4000 BR SCT002 BKN005 15/15 Q1016=
200911110300 METAR LPPR 110300Z 19005KT 170V250 5000 BR SCT002 BKN005
                        15/15 Q1017=
200911110230 METAR LPPR 110230Z 19008KT 6000 SCT003 BKN005 15/15 Q1017=
200911110200 METAR LPPR 110200Z 19008KT 8000 SCT004 BKN009 15/15 Q1017=
200911110130 METAR LPPR 110130Z 18008KT 7000 SCT005 SCT008 BKN013 14/14
                        Q1017=
200911110100 METAR LPPR 110100Z 17008KT 7000 -RA SCT008 BKN013 14/14 Q1017=
200911110030 METAR LPPR 110030Z 19008KT 5000 -DZ BR SCT007 SCT009 BKN015
                        14/14 Q1018=
200911110000 METAR LPPR 110000Z 20008KT 170V230 4000 -DZ BR FEW005 SCT007
                        BKN012 14/14 Q1018=
200911102330 METAR LPPR 102330Z 17008KT 8000 -DZ FEW006 SCT009 BKN012
                        15/15 Q1018=
200911102300 METAR LPPR 102300Z 18007KT 9999 FEW009 SCT013 BKN030 15/14
                        Q1018=
200911102230 METAR LPPR 102230Z 17007KT 9999 FEW009 SCT013 BKN030 15/14
                        Q1019=
200911102200 METAR LPPR 102200Z 17006KT 9999 FEW009 SCT015 BKN025 15/14
                        Q1019=
200911102130 METAR LPPR 102130Z 16007KT 9999 SCT012 BKN025 15/14 Q1019=
200911102100 METAR LPPR 102100Z 17008KT 9999 SCT013 BKN025 15/14 Q1019=
200911102030 METAR LPPR 102030Z 18006KT 160V230 9999 SCT015 BKN025 15/13
                        Q1019=
200911102000 METAR LPPR 102000Z 18006KT 150V210 9999 FEW017 BKN040 15/13
                        Q1019=
200911101930 METAR LPPR 101930Z 17005KT 9999 FEW015 BKN035 15/14 Q1020=
200911101900 METAR LPPR 101900Z 18004KT 140V230 9999 FEW015 BKN025 15/14
                        Q1020=
200911101830 METAR LPPR 101830Z 14003KT 9999 FEW013 BKN017 15/14 Q1020=
200911101800 METAR LPPR 101800Z 16003KT 9999 SCT015 BKN030 15/14 Q1020=
200911101730 METAR LPPR 101730Z 16003KT 9999 FEW015 BKN035 15/13 Q1020=
200911101700 METAR LPPR 101700Z 00000KT 9999 FEW015 BKN030 15/14 Q1020=
200911101630 METAR LPPR 101630Z 27005KT 220V330 6000 -DZ SCT007 SCT012
                        BKN025 15/14 Q1020=
200911101600 METAR LPPR 101600Z VRB03KT 9999 FEW015 BKN035 16/14 Q1020=
200911101530 METAR LPPR 101530Z 23004KT 9999 FEW015 BKN035 15/14 Q1020=
200911101500 METAR LPPR 101500Z 24005KT 190V260 9999 FEW015 BKN035 16/14
                        Q1020=
200911101430 METAR LPPR 101430Z 24004KT 200V280 9999 FEW015 BKN035 16/13
                        Q1020=
200911101400 METAR LPPR 101400Z VRB03KT 9999 FEW015 BKN035 16/14 Q1021=
200911101330 METAR LPPR 101330Z 27004KT 230V310 9999 FEW015 BKN035 16/13
                        Q1021=
200911101300 METAR LPPR 101300Z 31007KT 9999 FEW015 BKN035 17/12 Q1021=
200911101230 METAR LPPR 101230Z 29006KT 260V320 9999 FEW015 BKN035 17/12
                        Q1022=
200911101200 METAR LPPR 101200Z 30006KT 250V330 9999 FEW015 BKN035 17/14
                        Q1022=
200911101130 METAR LPPR 101130Z 28004KT 220V320 9999 SCT015 BKN035 16/15
                        Q1023=
200911101100 METAR LPPR 101100Z 25004KT 210V300 8000 SCT015 BKN035 17/16
                        Q1023=
200911101030 METAR LPPR 101030Z VRB02KT 5000 BR SCT008 SCT015 BKN030 16/16
                        Q1023=
200911101000 METAR LPPR 101000Z 20002KT 4000 BR SCT006 BKN015 15/15 Q1023=
200911100930 METAR LPPR 100930Z 18003KT 3000 BR SCT004 BKN012 15/15 Q1023=
200911100900 METAR LPPR 100900Z 00000KT 3000 BR SCT003 SCT013 BKN025 15/15
                        Q1022=
200911100830 METAR LPPR 100830Z VRB02KT 3000 BR SCT006 SCT013 BKN030 14/14
                        Q1022=
200911100800 METAR LPPR 100800Z 00000KT 4000 BR SCT006 SCT015 BKN030 14/14
                        Q1022=
200911100730 METAR LPPR 100730Z 00000KT 4000 BR FEW002 SCT006 BKN015 14/14
                        Q1022=
200911100700 METAR LPPR 100700Z 00000KT 4000 BR SCT007 BKN017 14/14 Q1022=
200911100630 METAR LPPR 100630Z 00000KT 4000 BR SCT004 BKN017 14/14 Q1022=
200911100600 METAR LPPR 100600Z 17003KT 3000 BR SCT002 BKN005 14/14 Q1022=
200911100530 METAR LPPR 100530Z 00000KT 2000 -DZ BR SCT001 BKN004 14/14
                        Q1022=
200911100500 METAR LPPR 100500Z 15002KT 4000 BR SCT002 BKN005 14/14 Q1022=
200911100430 METAR LPPR 100430Z 00000KT 3000 -DZ BR FEW002 SCT004 BKN013
                        14/14 Q1022=
200911100400 METAR LPPR 100400Z 18003KT 4000 BR SCT008 BKN013 14/14 Q1022=
200911100330 METAR LPPR 100330Z 00000KT 3000 BR SCT005 BKN015 14/14 Q1022=
200911100300 METAR LPPR 100300Z 18002KT 3000 BR SCT004 BKN015 14/14 Q1022=
200911100230 METAR LPPR 100230Z 00000KT 3000 SCT004 BKN015 13/13 Q1022=
200911100200 METAR LPPR 100200Z 00000KT 3000 BR SCT002 BKN004 13/13 Q1023=
200911100130 METAR LPPR 100130Z 00000KT 3000 BR SCT003 BKN005 13/13 Q1023=
200911100100 METAR LPPR 100100Z VRB02KT 4000 BR SCT003 BKN005 13/13 Q1023=
200911100030 METAR LPPR 100030Z 00000KT 3000 BR SCT002 BKN004 13/13 Q1023=
200911100000 METAR LPPR 100000Z 00000KT 3000 BR SCT002 BKN004 13/13 Q1023=
200911092330 METAR LPPR 092330Z 11002KT 3000 BR SCT002 BKN005 13/13 Q1023=
200911092300 METAR LPPR 092300Z 00000KT 3000 BR SCT002 BKN005 13/13 Q1023=
200911092230 METAR LPPR 092230Z 00000KT 3000 BR SCT002 BKN005 13/13 Q1023=
200911092200 METAR LPPR 092200Z 00000KT 2000 BR VCFG SCT001 BKN006 13/13
                        Q1023=
200911092130 METAR LPPR 092130Z 00000KT 1500 -DZ BR VCFG SCT001 BKN005
                        13/13 Q1023=
200911092100 METAR LPPR 092100Z 00000KT 1500 BR SCT001 BKN005 13/13 Q1023=
200911092030 METAR LPPR 092030Z 00000KT 2000 BR SCT002 BKN005 13/13 Q1023=
200911092000 METAR LPPR 092000Z 00000KT 2000 BR SCT002 BKN005 13/13 Q1023=
200911091930 METAR LPPR 091930Z 00000KT 2000 BR SCT002 BKN005 13/13 Q1023=
200911091900 METAR LPPR 091900Z 00000KT 2500 BR SCT002 BKN005 13/13 Q1023=
200911091830 METAR LPPR 091830Z 00000KT 2000 BR SCT003 BKN006 13/13 Q1022=
200911091800 METAR LPPR 091800Z 00000KT 1500 -DZ BR SCT002 BKN005 13/13
                        Q1022=
200911091730 METAR LPPR 091730Z 00000KT 2000 -DZ BR SCT001 BKN004 13/13
                        Q1022=
200911091700 METAR LPPR 091700Z 00000KT 1500 -DZ BR SCT001 BKN003 13/13
                        Q1022=
200911091630 METAR LPPR 091630Z 00000KT 1500 -DZ BR SCT001 BKN003 13/13
                        Q1022=
200911091600 METAR LPPR 091600Z 00000KT 1500 -DZ BR SCT001 BKN003 13/13
                        Q1022=
200911091530 METAR LPPR 091530Z 00000KT 1700 -DZ BR SCT002 BKN004 13/13
                        Q1022=
200911091500 METAR LPPR 091500Z VRB02KT 1700 -DZ BR SCT002 BKN004 13/13
                        Q1022=
200911091430 METAR LPPR 091430Z 28004KT 2000 -DZ BR SCT002 BKN004 13/13
                        Q1022=
200911091400 METAR LPPR 091400Z VRB03KT 2000 -DZ BR SCT002 BKN004 13/13
                        Q1022=
200911091330 METAR LPPR 091330Z VRB03KT 2000 -DZ BR SCT003 BKN006 BKN020
                        13/13 Q1022=
200911091300 METAR LPPR 091300Z 28005KT 3000 -DZ BR SCT006 SCT013 BKN030
                        14/12 Q1023=
200911091230 METAR LPPR 091230Z 32004KT 270V350 7000 -DZ SCT009 SCT020
                        BKN035 14/12 Q1023=
200911091200 METAR LPPR 091200Z 31006KT 270V340 5000 -DZ BR SCT008 SCT017
                        BKN035 15/12 Q1023=
200911091130 METAR LPPR 091130Z VRB03KT 8000 FEW009 BKN020 BKN070 15/12
                        Q1023=
200911091100 METAR LPPR 091100Z 00000KT 9999 BKN020 BKN070 15/12 Q1023=
200911091030 METAR LPPR 091030Z 00000KT 9999 BKN030 BKN070 14/11 Q1023=
200911091000 METAR LPPR 091000Z 00000KT 9999 BKN035 BKN070 14/11 Q1023=
200911090930 METAR LPPR 090930Z 00000KT 9999 BKN040 BKN070 13/11 Q1023=
200911090900 METAR LPPR 090900Z 00000KT 9999 SCT040 BKN060 13/11 Q1023=
200911090830 METAR LPPR 090830Z 00000KT 9999 SCT040 BKN060 12/11 Q1023=
200911090800 METAR LPPR 090800Z 00000KT 9999 SCT040 BKN060 12/11 Q1022=
200911090730 METAR LPPR 090730Z 00000KT 9999 SCT040 BKN060 12/11 Q1022=
200911090700 METAR LPPR 090700Z 00000KT 9999 SCT040 BKN060 11/11 Q1022=
200911090630 METAR LPPR 090630Z 00000KT 9999 SCT040 BKN060 11/11 Q1022=
200911090600 METAR LPPR 090600Z 00000KT 9999 SCT040 BKN060 11/10 Q1022=
200911090530 METAR LPPR 090530Z 01003KT 9999 SCT040 BKN060 10/10 Q1022=
200911090500 METAR LPPR 090500Z 34003KT 9999 SCT040 BKN060 10/10 Q1022=
200911090430 METAR LPPR 090430Z 35003KT 9999 SCT040 BKN060 09/09 Q1021=
200911090400 METAR LPPR 090400Z 01002KT CAVOK 09/09 Q1021=
200911090330 METAR LPPR 090330Z 33002KT CAVOK 09/09 Q1021=
200911090300 METAR LPPR 090300Z 00000KT CAVOK 09/09 Q1021=
200911090230 METAR LPPR 090230Z 33002KT CAVOK 09/09 Q1022=
200911090200 METAR LPPR 090200Z 00000KT CAVOK 09/09 Q1022=
200911090130 METAR LPPR 090130Z 00000KT CAVOK 09/08 Q1022=
200911090100 METAR LPPR 090100Z 00000KT CAVOK 09/08 Q1022=
200911090030 METAR LPPR 090030Z 00000KT CAVOK 10/09 Q1022=
200911090000 METAR LPPR 090000Z 00000KT CAVOK 10/08 Q1022=
200911082330 METAR LPPR 082330Z 00000KT CAVOK 10/08 Q1021=
200911082300 METAR LPPR 082300Z 00000KT 8000 SCT080 11/09 Q1022=
200911082230 METAR LPPR 082230Z 02003KT 8000 SCT080 11/09 Q1022=
200911082200 METAR LPPR 082200Z 34006KT 8000 SCT080 11/09 Q1021=
200911082130 METAR LPPR 082130Z 33009KT 8000 SCT080 12/11 Q1021=
200911082100 METAR LPPR 082100Z 35004KT 8000 FEW025 SCT070 11/11 Q1021=
200911082030 METAR LPPR 082030Z 35004KT 8000 FEW025 SCT070 11/11 Q1021=
200911082000 METAR LPPR 082000Z 34004KT 300V020 8000 FEW025 SCT070 12/11
                        Q1021=
200911081930 METAR LPPR 081930Z 35005KT 8000 FEW025 SCT070 12/12 Q1021=
200911081900 METAR LPPR 081900Z 33008KT 8000 FEW025 SCT070 13/13 Q1021=
200911081830 METAR LPPR 081830Z 34007KT 8000 SCT025 SCT070 13/12 Q1020=
200911081800 METAR LPPR 081800Z 33010KT 8000 SCT025 SCT070 14/13 Q1020=
200911081730 METAR LPPR 081730Z 33008KT 8000 FEW017 SCT025 14/12 Q1020=
200911081700 METAR LPPR 081700Z 33010KT 8000 FEW015 SCT025 14/13 Q1020=
200911081630 METAR LPPR 081630Z 33011KT 8000 SCT012 BKN025 14/13 Q1020=
200911081600 METAR LPPR 081600Z 33011KT 8000 SCT007 SCT012 BKN020 14/14
                        Q1020=
200911081530 METAR LPPR 081530Z 33011KT 6000 SCT004 SCT012 BKN020 14/14
                        Q1020=
200911081500 METAR LPPR 081500Z 33011KT 4000 BR SCT003 SCT007 BKN012 14/14
                        Q1020=
200911081430 METAR LPPR 081430Z 33009KT 2000 -RADZ BR SCT003 SCT007 BKN012
                        14/14 Q1020=
200911081400 METAR LPPR 081400Z 32006KT 3500 BR SCT003 SCT007 BKN012 14/14
                        Q1020=
200911081330 METAR LPPR 081330Z 31006KT 270V350 3500 VCSH BR SCT003 SCT007
                        BKN012 14/14 Q1021=
200911081300 METAR LPPR 081300Z 32006KT 3000 VCSH BR SCT003 BKN012 BKN020
                        14/14 Q1021=
200911081230 METAR LPPR 081230Z 33007KT 280V350 2500 -RADZ BR FEW002 BKN005
                        BKN007 13/13 Q1022=
200911081200 METAR LPPR 081200Z 33005KT 2000 -RADZ BR SCT002 BKN004 BKN007
                        13/13 Q1022=
200911081130 METAR LPPR 081130Z 33004KT 270V360 2000 -RADZ SCT002 BKN005
                        BKN010 13/13 Q1022=
200911081100 METAR LPPR 081100Z 34004KT 280V010 3500 -RADZ BR FEW002 SCT004
                        BKN012 14/13 Q1022=
200911081030 METAR LPPR 081030Z 33009KT 3500 -RADZ BR SCT004 SCT010 BKN020
                        14/13 Q1022=
200911081000 METAR LPPR 081000Z 33004KT 290V360 3500 -RADZ BR SCT004 SCT012
                        BKN020 13/13 Q1023=
200911080930 METAR LPPR 080930Z 00000KT 3000 -RADZ BR SCT004 SCT012 BKN020
                        13/13 Q1022=
200911080900 METAR LPPR 080900Z 00000KT 4000 -RA BR SCT005 SCT015 BKN025
                        13/13 Q1023=
200911080830 METAR LPPR 080830Z 00000KT 4000 -RA BR SCT005 SCT015 BKN025
                        13/12 Q1022=
200911080800 METAR LPPR 080800Z 35003KT 8000 FEW009 SCT015 BKN025 13/12
                        Q1022=
200911080730 METAR LPPR 080730Z 01004KT 340V050 8000 SCT009 SCT015 BKN025
                        12/12 Q1022=
200911080700 METAR LPPR 080700Z 36002KT 8000 -SHRA FEW009 SCT017 BKN030
                        12/12 Q1022=
200911080630 METAR LPPR 080630Z 32004KT 270V350 8000 FEW009 SCT017 BKN030
                        12/12 Q1022=
200911080600 METAR LPPR 080600Z 34003KT 8000 FEW009 BKN030 12/12 Q1022=
200911080530 METAR LPPR 080530Z 35008KT 6000 -SHRA SCT009 SCT017 BKN025
                        13/11 Q1022=
200911080500 METAR LPPR 080500Z 36010KT 7000 -SHRA FEW009 BKN020 13/11
                        Q1022=
200911080430 METAR LPPR 080430Z 33013G23KT 5000 -SHRA SCT015 SCT020 BKN060
                        14/11 Q1022=
200911080400 METAR LPPR 080400Z 35007KT 300V040 6000 -SHRA SCT015 SCT060
                        14/11 Q1022=
200911080330 METAR LPPR 080330Z 35008KT 320V030 9999 FEW015 SCT070 14/11
                        Q1022=
200911080300 METAR LPPR 080300Z 32013KT 9999 FEW015 SCT060 14/11 Q1022=
200911080230 METAR LPPR 080230Z 32011KT 9999 FEW015 SCT060 15/11 Q1022=
200911080200 METAR LPPR 080200Z 32012KT 9999 FEW013 SCT060 15/11 Q1022=
200911080130 METAR LPPR 080130Z 33011KT 9999 FEW013 SCT060 14/10 Q1022=
200911080100 METAR LPPR 080100Z 32014KT 9999 FEW013 SCT060 15/10 Q1022=
200911080030 METAR LPPR 080030Z 32015KT 9999 SCT013 BKN030 15/09 Q1023=
200911080000 METAR LPPR 080000Z 32012KT 8000 SCT013 BKN030 15/10 Q1023=
200911072330 METAR LPPR 072330Z 32010KT 290V350 9999 FEW013 SCT030 14/10
                        Q1023=
200911072300 METAR LPPR 072300Z 33007KT 8000 FEW013 BKN030 13/12 Q1023=
200911072230 METAR LPPR 072230Z 32016KT 4000 -RA BR SCT009 BKN015 14/11
                        Q1023=
200911072200 METAR LPPR 072200Z 31013KT 9999 FEW015 SCT030 15/10 Q1023=
200911072130 METAR LPPR 072130Z 32014KT 9999 FEW015 SCT050 15/10 Q1023=
200911072100 METAR LPPR 072100Z 32009KT 9999 FEW015 SCT030 15/10 Q1023=
200911072030 METAR LPPR 072030Z 32010KT 9999 FEW015 SCT040 15/10 Q1023=
200911072000 METAR LPPR 072000Z 32013KT 9999 FEW015 SCT040 15/09 Q1023=
200911071930 METAR LPPR 071930Z 32012KT 9999 SCT045 15/10 Q1022=
200911071900 METAR LPPR 071900Z 32010KT 9999 FEW015 SCT045 14/10 Q1023=
200911071830 METAR LPPR 071830Z 33008KT 290V350 9999 FEW015 SCT045 13/09
                        Q1022=
200911071800 METAR LPPR 071800Z 34009KT 320V020 9999 SCT015 13/10 Q1022=
200911071730 METAR LPPR 071730Z 34012KT 9999 FEW015 FEW017TCU SCT030 14/10
                        Q1022=
200911071700 METAR LPPR 071700Z 32012KT 9999 FEW015 FEW017TCU SCT030 15/09
                        Q1022=
200911071630 METAR LPPR 071630Z 33011KT 9999 SCT015 SCT030 BKN050 15/10
                        Q1022=
200911071600 METAR LPPR 071600Z 33015KT 9999 SCT015 SCT040 15/10 Q1022=
200911071530 METAR LPPR 071530Z 32014KT 290V350 9999 FEW015 FEW017TCU
                        SCT040 16/09 Q1022=
200911071500 METAR LPPR 071500Z 32011KT 9999 SCT015 BKN045 15/11 Q1022=
200911071430 METAR LPPR 071430Z 32012KT 9999 FEW015 BKN040 15/10 Q1022=
200911071400 METAR LPPR 071400Z 33017KT 9999 FEW013 SCT030 BKN060 16/10
                        Q1022 WS ALL RWY=
200911071330 METAR LPPR 071330Z 33016KT 290V350 9999 FEW013 SCT030 BKN060
                        16/10 Q1022 WS ALL RWY=
200911071300 METAR LPPR 071300Z 32017KT 9999 FEW013 SCT030 BKN060 16/11
                        Q1022 WS ALL RWY=
200911071230 METAR LPPR 071230Z 33017KT 9999 FEW013 BKN060 16/11 Q1022
                        WS ALL RWY=
200911071200 METAR LPPR 071200Z 33013KT 290V350 9999 FEW013 SCT040 BKN060
                        16/11 Q1022 WS ALL RWY=
200911071130 METAR LPPR 071130Z 32014KT 9999 FEW009 BKN040 15/11 Q1022
                        WS ALL RWY=
200911071100 METAR LPPR 071100Z 32010KT 6000 SCT004 BKN020 14/13 Q1022
                        WS ALL RWY=
200911071030 METAR LPPR 071030Z 32009KT 7000 SCT008 FEW017TCU BKN040 13/13
                        Q1022 RERA WS ALL RWY=
200911071000 METAR LPPR 071000Z 31016G28KT 270V330 3000 -SHRA SCT009 BKN013
                        16/12 Q1022 WS ALL RWY=
200911070930 METAR LPPR 070930Z 30012G23KT 270V330 9999 SCT017 SCT025
                        16/12 Q1022=
200911070900 METAR LPPR 070900Z 30011KT 9999 FEW015 SCT030 16/11 Q1022=
200911070830 METAR LPPR 070830Z 30012G22KT 250V330 9999 SCT015 16/11 Q1022=
200911070800 METAR LPPR 070800Z 29008KT 260V330 9999 SCT015 SCT030 15/12
                        Q1021=
200911070730 METAR LPPR 070730Z 30010KT 260V330 9999 SCT015 SCT030 15/11
                        Q1021=
200911070700 METAR LPPR 070700Z 30009KT 260V330 9999 FEW015 SCT035 15/11
                        Q1021=
200911070630 METAR LPPR 070630Z 30009KT 260V330 9999 FEW017 SCT035 15/12
                        Q1021=
200911070600 METAR LPPR 070600Z 29006KT 270V330 9999 FEW017 SCT035 15/11
                        Q1021=
200911070530 METAR LPPR 070530Z 31006KT 9999 FEW017 BKN035 15/11 Q1021=
200911070500 METAR LPPR 070500Z 32008KT 9999 FEW017 BKN030 15/12 Q1021=
200911070430 METAR LPPR 070430Z 31009KT 280V340 8000 -SHRA FEW017 BKN025
                        15/12 Q1021=
200911070400 METAR LPPR 070400Z 32005KT 9999 FEW017 BKN030 14/11 Q1021=
200911070330 METAR LPPR 070330Z 33009KT 9999 FEW017 BKN030 15/12 Q1021=
200911070300 METAR LPPR 070300Z 32009KT 9999 FEW017 BKN030 14/11 Q1021=
200911070230 METAR LPPR 070230Z 34003KT 9999 FEW017 BKN030 14/13 Q1021=
200911070200 METAR LPPR 070200Z 35002KT 9999 FEW017 BKN025 14/13 Q1021=
200911070130 METAR LPPR 070130Z 36003KT 9999 FEW017 SCT025 14/13 Q1021=
200911070100 METAR LPPR 070100Z 34006KT 9999 SCT015 BKN025 15/14 Q1021=
200911070030 METAR LPPR 070030Z 33011KT 9999 FEW008 SCT015 BKN025 15/15
                        Q1021=
200911070000 METAR LPPR 070000Z 33007KT 9999 FEW008 SCT013 BKN025 16/16
                        Q1021=
200911062330 METAR LPPR 062330Z 32006KT 8000 -RA FEW003 SCT006 BKN013
                        16/16 Q1021=
200911062300 METAR LPPR 062300Z 32007KT 290V350 9999 FEW003 SCT006 BKN013
                        16/16 Q1021=
200911062230 METAR LPPR 062230Z 32006KT 9999 FEW003 SCT006 BKN013 16/16
                        Q1020=
200911062200 METAR LPPR 062200Z 31005KT 8000 SCT002 SCT005 BKN013 16/16
                        Q1020=
200911062130 METAR LPPR 062130Z 32008KT 8000 -DZ SCT002 SCT005 BKN013
                        16/16 Q1020=
200911062100 METAR LPPR 062100Z 33009KT 9999 SCT004 BKN015 16/16 Q1020=
200911062030 METAR LPPR 062030Z 31008KT 270V330 9999 SCT008 BKN013 17/17
                        Q1020=
200911062000 METAR LPPR 062000Z 32010KT 290V350 4000 -DZ BR SCT002 BKN006
                        17/17 Q1020=
200911061930 METAR LPPR 061930Z 31007KT 9999 SCT002 BKN006 17/17 Q1020=
200911061900 METAR LPPR 061900Z 31008KT 8000 SCT002 BKN006 17/17 Q1020=
200911061830 METAR LPPR 061830Z 31009KT 270V330 5000 BR SCT001 BKN004
                        17/17 Q1020=
200911061800 METAR LPPR 061800Z 30008KT 260V330 3000 -DZ BR SCT001 BKN003
                        17/17 Q1019=
200911061730 METAR LPPR 061730Z 31008KT 4000 BR SCT001 BKN003 17/17 Q1019=
200911061700 METAR LPPR 061700Z 30008KT 260V340 2000 -DZ BR SCT001 BKN002
                        17/17 Q1019=
200911061630 METAR LPPR 061630Z 30008KT 270V330 3000 -DZ BR SCT001 BKN003
                        17/17 Q1019=
200911061600 METAR LPPR 061600Z 30008KT 4000 BR SCT001 BKN003 17/17 Q1019=
200911061530 METAR LPPR 061530Z 30011KT 3000 BR SCT001 BKN003 17/17 Q1019=
200911061500 METAR LPPR 061500Z 30008KT 240V330 2000 -DZ BR SCT001 BKN003
                        17/17 Q1019=
200911061430 METAR LPPR 061430Z 30009KT 270V330 3000 BR SCT001 BKN004
                        17/17 Q1018=
200911061400 METAR LPPR 061400Z 30008KT 260V330 4000 BR SCT001 BKN005
                        18/18 Q1019=
200911061330 METAR LPPR 061330Z 31009KT 270V330 6000 SCT002 BKN005 18/18
                        Q1018=
200911061300 METAR LPPR 061300Z 31010KT 8000 SCT003 BKN007 18/18 Q1019=
200911061230 METAR LPPR 061230Z 31011KT 280V350 9999 SCT004 BKN008 18/18
                        Q1018=
200911061200 METAR LPPR 061200Z 31009KT 9999 SCT004 BKN008 18/18 Q1019=
200911061130 METAR LPPR 061130Z 30009KT 260V340 5000 BR SCT003 BKN006
                        18/18 Q1019=
200911061100 METAR LPPR 061100Z 31009KT 4000 BR SCT002 BKN005 18/18 Q1019=
200911061030 METAR LPPR 061030Z 31009KT 3000 -DZ BR SCT001 BKN004 17/17
                        Q1018=
200911061000 METAR LPPR 061000Z 31008KT 5000 BR SCT002 BKN006 17/17 Q1018=
200911060930 METAR LPPR 060930Z 30010KT 270V340 3000 BR SCT002 BKN005
                        17/17 Q1018=
200911060900 METAR LPPR 060900Z 30008KT 260V330 2000 -DZ BR SCT001 BKN005
                        17/17 Q1018=
200911060830 METAR LPPR 060830Z 30010KT 270V330 3000 -DZ BR SCT001 BKN006
                        17/17 Q1018=
200911060800 METAR LPPR 060800Z 29008KT 250V330 1500 -DZ BR SCT000 BKN002
                        16/16 Q1017=
200911060730 METAR LPPR 060730Z 29009KT 260V330 2000 -DZ BR SCT000 BKN003
                        16/16 Q1017=
200911060700 METAR LPPR 060700Z 28009KT 230V320 2000 DZ BR SCT000 BKN002
                        16/16 Q1017=
200911060630 METAR LPPR 060630Z 27006KT 230V310 2000 DZ BR SCT000 BKN002
                        15/15 Q1017=
200911060600 METAR LPPR 060600Z VRB03KT 2000 DZ BR SCT000 BKN002 15/15
                        Q1017=
200911060530 METAR LPPR 060530Z VRB03KT 2000 DZ BR SCT000 BKN003 14/14
                        Q1017=
200911060500 METAR LPPR 060500Z 00000KT 2000 DZ BR BKN001 BKN003 14/14
                        Q1018=
200911060430 METAR LPPR 060430Z VRB03KT 3000 DZRA BR SCT001 BKN003 14/14
                        Q1018=
200911060400 METAR LPPR 060400Z 00000KT 3000 DZRA BR SCT001 BKN003 13/13
                        Q1018=
200911060330 METAR LPPR 060330Z 00000KT 5000 -DZ BR SCT003 BKN007 13/13
                        Q1018=
200911060300 METAR LPPR 060300Z 00000KT 5000 -DZ BR SCT005 BKN008 13/13
                        Q1019=
200911060230 METAR LPPR 060230Z 33008KT 5000 -DZRA BR SCT003 BKN008 13/13
                        Q1019=
200911060200 METAR LPPR 060200Z 32009KT 8000 -SHRA SCT011 BKN015 14/12
                        Q1019=
200911060130 METAR LPPR 060130Z 30011KT 270V330 5000 -SHRA BR SCT011 BKN017
                        14/12 Q1019 RERA=
200911060100 METAR LPPR 060100Z 30010KT 270V330 9999 SCT017 BKN030 15/11
                        Q1019=
200911060030 METAR LPPR 060030Z 31006KT 9999 SCT015 BKN020 13/13 Q1019=
200911060000 METAR LPPR 060000Z 00000KT 9999 SCT015 BKN020 13/13 Q1019=
200911052330 METAR LPPR 052330Z 33005KT 9999 SCT015 BKN030 13/12 Q1019
                        RERA=
200911052300 METAR LPPR 052300Z 32007KT 8000 -SHRA FEW013 BKN017 BKN070
                        14/12 Q1019=
200911052230 METAR LPPR 052230Z 32009KT 9999 FEW013 BKN025 BKN070 14/12
                        Q1019=
200911052200 METAR LPPR 052200Z 30006KT 260V330 9999 SCT013 BKN025 13/12
                        Q1019=
200911052130 METAR LPPR 052130Z 33006KT 290V350 8000 -SHRA SCT008 SCT013
                        BKN020 13/12 Q1019=
200911052100 METAR LPPR 052100Z 36006KT 330V030 9999 SCT015 BKN020 13/12
                        Q1019=
200911052030 METAR LPPR 052030Z 00000KT 9999 SCT015 BKN020 13/12 Q1019=
200911052000 METAR LPPR 052000Z 00000KT 9999 FEW015 SCT035 BKN070 13/12
                        Q1019=
200911051930 METAR LPPR 051930Z VRB02KT 9999 SCT015 BKN025 13/11 Q1019=
200911051900 METAR LPPR 051900Z VRB03KT 9999 SCT015 BKN025 13/11 Q1019=
200911051830 METAR LPPR 051830Z 35003KT 9999 SCT018 SCT035 13/11 Q1019=
200911051800 METAR LPPR 051800Z 36009KT 9999 SCT018 SCT035 14/12 Q1018=
200911051730 METAR LPPR 051730Z 33004KT 300V010 8000 -SHRA SCT015 BKN025
                        14/12 Q1018=
200911051700 METAR LPPR 051700Z 32005KT 9999 SCT015 BKN035 13/12 Q1018=
200911051630 METAR LPPR 051630Z 33011KT 8000 -SHRA SCT015 BKN035 14/11
                        Q1018=
200911051600 METAR LPPR 051600Z 34011KT 8000 SCT018 BKN035 15/11 Q1018=
200911051530 METAR LPPR 051530Z 33012KT 9999 BKN017 SCT030 16/11 Q1018=
200911051500 METAR LPPR 051500Z 34014KT 9999 SCT015 SCT025 BKN250 16/11
                        Q1018 WS ALL RWY=
200911051430 METAR LPPR 051430Z 32015KT 9999 SCT015 SCT025 BKN250 16/11
                        Q1018 WS ALL RWY=
200911051400 METAR LPPR 051400Z 32014KT 280V340 9999 BKN015 SCT025 15/11
                        Q1018=
200911051330 METAR LPPR 051330Z 34013KT 9999 BKN015 SCT025 15/11 Q1018=
200911051300 METAR LPPR 051300Z 34017KT 8000 -SHRA SCT015 BKN025 14/12
                        Q1018 WS ALL RWY=
200911051230 METAR LPPR 051230Z 32011KT 290V350 9999 SCT015 SCT035 BKN070
                        15/11 Q1019=
200911051200 METAR LPPR 051200Z 33010KT 9999 FEW015 SCT035 BKN070 14/11
                        Q1019=
200911051130 METAR LPPR 051130Z 36008KT 8000 -SHRA FEW008 SCT017 BKN035
                        13/10 Q1019 WS ALL RWY=
200911051100 METAR LPPR 051100Z 35011KT 8000 -SHRA SCT017 SCT035 BKN070
                        13/11 Q1019 WS ALL RWY=
200911051030 METAR LPPR 051030Z 32012KT 8000 SCT017 SCT030 BKN070 15/10
                        Q1018=
200911051000 METAR LPPR 051000Z 33011KT 7000 -SHRA SCT017 SCT030 BKN070
                        14/11 Q1018=
200911050930 METAR LPPR 050930Z 34008KT 310V010 8000 SCT017 SCT030 BKN070
                        14/10 Q1018=
200911050900 METAR LPPR 050900Z 32015G26KT 8000 SCT017 SCT030 BKN070 15/09
                        Q1018 WS ALL RWY=
200911050830 METAR LPPR 050830Z 33010G20KT 290V360 8000 FEW017 SCT030
                        BKN070 14/10 Q1018 WS ALL RWY=
200911050800 METAR LPPR 050800Z 32014G24KT 8000 FEW017 SCT030 BKN070 15/09
                        Q1017 WS ALL RWY=
200911050730 METAR LPPR 050730Z 32017KT 9999 SCT017 SCT030 BKN070 15/09
                        Q1017 WS ALL RWY=
200911050700 METAR LPPR 050700Z 32014KT 9999 SCT017 SCT040 BKN070 15/09
                        Q1017 WS ALL RWY=
200911050630 METAR LPPR 050630Z 32016KT 9999 FEW017 BKN040 BKN070 14/08
                        Q1017 RERA=
200911050600 METAR LPPR 050600Z 31015G25KT 7000 SHRA SCT017 BKN030 BKN060
                        14/10 Q1017 WS ALL RWY=
200911050530 METAR LPPR 050530Z 31014G24KT 280V340 9999 FEW017 SCT030
                        BKN060 15/09 Q1017=
200911050500 METAR LPPR 050500Z 31015KT 280V340 9999 FEW017 SCT030 15/08
                        Q1017=
200911050430 METAR LPPR 050430Z 32011KT 290V350 9999 FEW017 SCT030 14/09
                        Q1016=
200911050400 METAR LPPR 050400Z 32015G25KT 9999 FEW017 SCT030 15/09 Q1016=
200911050330 METAR LPPR 050330Z 31013G23KT 270V340 9999 FEW017 SCT030
                        15/10 Q1016=
200911050300 METAR LPPR 050300Z 33014KT 9999 FEW017 SCT030 14/09 Q1017=
200911050230 METAR LPPR 050230Z 32013KT 9999 FEW017 SCT030 15/09 Q1016=
200911050200 METAR LPPR 050200Z 32011KT 9999 FEW017 SCT030 15/09 Q1016=
200911050130 METAR LPPR 050130Z 31013KT 9999 FEW017 SCT030 15/09 Q1017=
200911050100 METAR LPPR 050100Z 32014KT 9999 FEW017 BKN030 15/09 Q1017=
200911050030 METAR LPPR 050030Z 32010KT 9999 FEW016 BKN030 15/11 Q1017=
200911050000 METAR LPPR 050000Z 31011KT 9999 FEW016 SCT030 15/10 Q1017=
200911042330 METAR LPPR 042330Z 31012KT 9999 FEW016 BKN030 15/10 Q1017=
200911042300 METAR LPPR 042300Z 30011KT 9999 FEW016 SCT030 14/11 Q1017=
200911042230 METAR LPPR 042230Z 33006KT 290V350 9999 FEW015 BKN030 14/11
                        Q1017=
200911042200 METAR LPPR 042200Z 31013KT 9999 FEW015 BKN030 15/10 Q1017=
200911042130 METAR LPPR 042130Z 31013G25KT 280V340 9999 FEW015 BKN025
                        15/11 Q1017=
200911042100 METAR LPPR 042100Z 30010KT 260V320 9999 FEW015 BKN025 15/10
                        Q1017=
200911042030 METAR LPPR 042030Z 30008KT 260V330 9999 FEW015 BKN025 15/09
                        Q1016=
200911042000 METAR LPPR 042000Z 30011KT 270V330 9999 FEW015 BKN020 15/10
                        Q1016=
200911041930 METAR LPPR 041930Z 31014G25KT 9999 FEW015 BKN030 15/12 Q1017=
200911041900 METAR LPPR 041900Z 31006KT 270V330 9999 FEW015 BKN035 14/10
                        Q1016=
200911041830 METAR LPPR 041830Z 33003KT 9999 FEW015 BKN035 14/12 Q1016=
200911041800 METAR LPPR 041800Z 31014KT 260V340 8000 -SHRA SCT015 BKN030
                        14/12 Q1017=
200911041730 METAR LPPR 041730Z 30009KT 270V330 9999 SCT017 SCT030 BKN060
                        16/10 Q1016=
200911041700 METAR LPPR 041700Z 32011G21KT 290V350 9999 SCT017 BKN035
                        16/09 Q1016=
200911041630 METAR LPPR 041630Z 31011KT 9999 SCT017 SCT035 17/09 Q1016=
200911041600 METAR LPPR 041600Z 32012KT 9999 SCT017 SCT033 17/09 Q1016=
200911041530 METAR LPPR 041530Z 31014KT 9999 SCT017 FEW020TCU SCT060 17/10
                        Q1016=
200911041500 METAR LPPR 041500Z 32014G24KT 280V340 9999 FEW017 FEW025TCU
                        17/09 Q1016=
200911041430 METAR LPPR 041430Z 33016KT 9999 FEW015 17/09 Q1016=
200911041400 METAR LPPR 041400Z 32010KT 9999 SCT015 SCT050 17/11 Q1016=
200911041330 METAR LPPR 041330Z 31013KT 9999 SCT015 17/10 Q1016=
200911041300 METAR LPPR 041300Z 32014KT 280V350 9999 SCT015 17/10 Q1016=
200911041230 METAR LPPR 041230Z 33013KT 290V350 9999 SCT015 SCT035 17/10
                        Q1016=
200911041200 METAR LPPR 041200Z 32012KT 9999 FEW015 SCT035 17/10 Q1017=
200911041130 METAR LPPR 041130Z 33013KT 290V350 9999 FEW017 SCT030 17/10
                        Q1017=
200911041100 METAR LPPR 041100Z 32012KT 9999 FEW017 SCT030 BKN060 17/11
                        Q1017=
200911041030 METAR LPPR 041030Z 32013KT 290V360 9999 FEW017 SCT030 16/10
                        Q1017=
200911041000 METAR LPPR 041000Z 32012KT 9999 FEW017 BKN030 17/09 Q1016=
200911040930 METAR LPPR 040930Z 33015KT 9999 FEW017 SCT025 16/11 Q1016=
200911040900 METAR LPPR 040900Z 33012KT 290V350 9999 SCT017 SCT030 16/10
                        Q1016=
200911040830 METAR LPPR 040830Z 33011KT 9999 SCT017 SCT030 16/10 Q1016=
200911040800 METAR LPPR 040800Z 33011KT 9999 SCT017 15/10 Q1015=
200911040730 METAR LPPR 040730Z 33014KT 9999 SCT017 15/10 Q1015=
200911040700 METAR LPPR 040700Z 33012KT 9999 SCT017 15/11 Q1015=
200911040630 METAR LPPR 040630Z 32012KT 9999 SCT020 15/10 Q1015=
200911040600 METAR LPPR 040600Z 32012KT 290V350 9999 SCT020 SCT030 15/11
                        Q1014=
200911040530 METAR LPPR 040530Z 32011KT 9999 SCT025 SCT040 16/12 Q1014=
200911040500 METAR LPPR 040500Z 32013KT 9999 FEW009 SCT013 BKN030 16/13
                        Q1014=
200911040430 METAR LPPR 040430Z 32015G28KT 7000 -RADZ SCT008 BKN013 16/14
                        Q1014=
200911040400 METAR LPPR 040400Z 33012KT 9999 SCT007 BKN013 16/16 Q1013=
200911040330 METAR LPPR 040330Z 33008KT 5000 -RADZ BR BKN004 BKN013 17/17
                        Q1013=
200911040300 METAR LPPR 040300Z 33012KT 9000 SCT004 SCT007 BKN013 17/17
                        Q1013=
200911040230 METAR LPPR 040230Z 30008KT 260V330 8000 SCT003 BKN007 17/17
                        Q1014=
200911040200 METAR LPPR 040200Z 27012KT 250V310 7000 -DZ SCT002 SCT005
                        BKN013 17/17 Q1014=
200911040130 METAR LPPR 040130Z 26007KT 220V300 7000 -DZ SCT003 BKN005
                        17/17 Q1014=
200911040100 METAR LPPR 040100Z 26007KT 230V290 7000 -DZ SCT003 BKN005
                        17/16 Q1014=
200911040030 METAR LPPR 040030Z 25007KT 210V270 4000 -DZ BR SCT002 BKN004
                        17/17 Q1014=
200911040000 METAR LPPR 040000Z 24007KT 210V280 8000 SCT003 BKN009 17/17
                        Q1015=
200911032330 METAR LPPR 032330Z 23007KT 3000 DZ BR SCT002 BKN004 16/16
                        Q1015=
200911032300 METAR LPPR 032300Z 22007KT 3000 -DZ BR SCT001 BKN003 16/16
                        Q1016=
200911032230 METAR LPPR 032230Z 22006KT 180V240 2500 DZ BR SCT001 BKN003
                        16/16 Q1016=
200911032200 METAR LPPR 032200Z 22005KT 2500 DZ BR BKN003 BKN004 16/15
                        Q1016=
200911032130 METAR LPPR 032130Z 25006KT 220V290 8000 -DZ BKN009 BKN020
                        16/14 Q1016=
200911032100 METAR LPPR 032100Z 26006KT 230V290 9999 FEW017 BKN030 17/14
                        Q1017=
200911032030 METAR LPPR 032030Z 26005KT 210V330 9999 FEW017 BKN030 17/13
                        Q1017=
200911032000 METAR LPPR 032000Z 25005KT 210V290 9999 FEW017 BKN030 17/13
                        Q1017=
200911031930 METAR LPPR 031930Z VRB03KT 9999 SCT017 BKN030 17/13 Q1017=
200911031900 METAR LPPR 031900Z VRB03G15KT 9999 SCT015 BKN040 17/14 Q1017=
200911031830 METAR LPPR 031830Z 25004KT 220V290 9999 SCT015 BKN040 17/14
                        Q1017=
200911031800 METAR LPPR 031800Z 25004KT 210V290 9999 SCT015 BKN040 17/13
                        Q1017=
200911031730 METAR LPPR 031730Z 23003KT 9999 SCT015 BKN040 17/14 Q1017=
200911031700 METAR LPPR 031700Z VRB03KT 9999 FEW015 BKN040 17/13 Q1017=
200911031630 METAR LPPR 031630Z 23004KT 190V260 9999 FEW015 BKN040 17/13
                        Q1017=
200911031600 METAR LPPR 031600Z 25004KT 210V290 9999 FEW015 BKN040 18/13
                        Q1017=
200911031530 METAR LPPR 031530Z 28006KT 250V330 9999 FEW015 BKN040 18/13
                        Q1018=
200911031500 METAR LPPR 031500Z 28004KT 230V320 9999 FEW015 BKN040 18/12
                        Q1018=
200911031430 METAR LPPR 031430Z 29005KT 250V310 9999 FEW015 BKN040 18/13
                        Q1018=
200911031400 METAR LPPR 031400Z 29006KT 250V330 9999 FEW015 BKN040 18/13
                        Q1018=
200911031330 METAR LPPR 031330Z 28006KT 250V310 9999 FEW015 BKN035 18/14
                        Q1019=
200911031300 METAR LPPR 031300Z 27006KT 210V320 9000 SCT015 BKN030 17/13
                        Q1019=
200911031230 METAR LPPR 031230Z 20005KT 170V250 9000 SCT007 BKN015 17/16
                        Q1019=
200911031200 METAR LPPR 031200Z 19007KT 9000 SCT010 BKN015 17/16 Q1019=
200911031130 METAR LPPR 031130Z 19007KT 170V240 9000 FEW010 BKN015 BKN040
                        18/16 Q1020=
200911031100 METAR LPPR 031100Z 19009KT 9000 FEW013 SCT015 BKN030 17/16
                        Q1020=
200911031030 METAR LPPR 031030Z 20006KT 160V220 8000 FEW013 BKN015 16/16
                        Q1020=
200911031000 METAR LPPR 031000Z 17004KT 8000 FEW015 BKN025 16/15 Q1020=
200911030930 METAR LPPR 030930Z VRB03KT 8000 FEW015 BKN025 15/15 Q1020=
200911030900 METAR LPPR 030900Z 15004KT 8000 FEW015 BKN025 15/15 Q1020=
200911030830 METAR LPPR 030830Z 13006KT 8000 FEW015 BKN025 14/14 Q1020=
200911030800 METAR LPPR 030800Z 12006KT 8000 FEW015 BKN025 14/14 Q1020=
200911030730 METAR LPPR 030730Z VRB03KT 7000 SCT008 BKN025 13/13 Q1020=
200911030700 METAR LPPR 030700Z 12006KT 7000 SCT008 BKN025 13/13 Q1020=
200911030630 METAR LPPR 030630Z 10005KT 6000 SCT006 BKN025 13/13 Q1020=
200911030600 METAR LPPR 030600Z 10003KT 5000 -DZ BR FEW004 SCT007 BKN015
                        13/13 Q1021=
200911030530 METAR LPPR 030530Z 00000KT 6000 -DZ SCT003 BKN008 13/13 Q1020=
200911030500 METAR LPPR 030500Z 11005KT 9999 SCT013 BKN020 13/13 Q1020=
200911030430 METAR LPPR 030430Z 09004KT 060V120 9999 FEW012 BKN020 13/13
                        Q1020=
200911030400 METAR LPPR 030400Z 14005KT 9999 FEW013 BKN020 14/13 Q1021=
200911030330 METAR LPPR 030330Z 00000KT 8000 SCT013 BKN020 14/13 Q1021=
200911030300 METAR LPPR 030300Z 12006KT 8000 FEW012 BKN020 14/13 Q1021=
200911030230 METAR LPPR 030230Z 11007KT 9999 FEW015 BKN025 13/13 Q1021=
200911030200 METAR LPPR 030200Z 11006KT 9999 FEW015 BKN025 13/13 Q1021=
200911030130 METAR LPPR 030130Z 12005KT 9999 FEW015 BKN025 14/13 Q1022=
200911030100 METAR LPPR 030100Z 10003KT 8000 SCT012 BKN025 14/13 Q1022=
200911030030 METAR LPPR 030030Z 00000KT 5000 -DZ BR SCT006 BKN012 14/12
                        Q1022=
200911030000 METAR LPPR 030000Z VRB02KT 9999 FEW015 BKN025 14/12 Q1022=
200911022330 METAR LPPR 022330Z 11003KT 9999 FEW015 BKN030 14/12 Q1023=
200911022300 METAR LPPR 022300Z 12004KT 9999 FEW015 BKN030 14/12 Q1023=
200911022230 METAR LPPR 022230Z 11004KT 9999 FEW015 BKN025 14/12 Q1023=
200911022200 METAR LPPR 022200Z 00000KT 9999 FEW015 BKN035 13/11 Q1023=
200911022130 METAR LPPR 022130Z 00000KT 9999 FEW015 SCT035 13/11 Q1023=
200911022100 METAR LPPR 022100Z 00000KT 9999 FEW015 SCT035 14/12 Q1023=
200911022030 METAR LPPR 022030Z 00000KT 9999 FEW015 SCT035 14/12 Q1023=
200911022000 METAR LPPR 022000Z 00000KT 9999 FEW015 SCT035 14/11 Q1023=
200911021930 METAR LPPR 021930Z 00000KT 9999 FEW015 SCT030 BKN250 14/12
                        Q1023=
200911021900 METAR LPPR 021900Z 36003KT 9999 FEW015 SCT030 BKN250 14/11
                        Q1023=
200911021830 METAR LPPR 021830Z 00000KT 9999 FEW015 SCT040 BKN250 14/11
                        Q1023=
200911021800 METAR LPPR 021800Z VRB02KT 9999 FEW015 SCT040 BKN250 14/11
                        Q1023=
200911021730 METAR LPPR 021730Z 00000KT 9999 FEW015 SCT040 BKN250 15/11
                        Q1023=
200911021700 METAR LPPR 021700Z 35007KT 9999 FEW015 SCT040 BKN250 15/11
                        Q1023=
200911021630 METAR LPPR 021630Z 34007KT 310V010 9999 FEW015 SCT040 BKN250
                        16/11 Q1023=
200911021600 METAR LPPR 021600Z 33009KT 9999 FEW015 SCT040 BKN250 16/11
                        Q1023=
200911021530 METAR LPPR 021530Z 32009KT 9999 FEW015 BKN040 BKN250 16/11
                        Q1023=
200911021500 METAR LPPR 021500Z 32010KT 9999 FEW015 SCT040 BKN250 17/11
                        Q1023=
200911021430 METAR LPPR 021430Z 32008KT 9999 FEW015 SCT040 BKN250 17/11
                        Q1023=
200911021400 METAR LPPR 021400Z 31008KT 9999 FEW015 BKN040 BKN250 16/11
                        Q1023=
200911021330 METAR LPPR 021330Z 29006KT 260V340 9999 FEW015 SCT030 BKN250
                        17/11 Q1023=
200911021300 METAR LPPR 021300Z 35006KT 320V020 9999 FEW015 SCT030 BKN250
                        17/11 Q1024=
200911021230 METAR LPPR 021230Z 35007KT 310V020 9999 FEW015 SCT030 BKN250
                        17/11 Q1024=
200911021200 METAR LPPR 021200Z 35006KT 320V050 9999 FEW017 SCT030 BKN250
                        16/11 Q1024=
200911021130 METAR LPPR 021130Z 36006KT 9999 FEW017 SCT035 BKN250 16/10
                        Q1025=
200911021100 METAR LPPR 021100Z 36006KT 330V040 9999 BKN035 SCT060 15/10
                        Q1024=
200911021030 METAR LPPR 021030Z 34005KT 9999 BKN035 SCT060 15/12 Q1024=
200911021000 METAR LPPR 021000Z 36004KT 340V040 9999 SCT030 BKN060 15/12
                        Q1024=
200911020930 METAR LPPR 020930Z VRB02KT 9999 SCT030 BKN060 14/12 Q1024=
200911020900 METAR LPPR 020900Z 35005KT 9999 SCT030 BKN060 14/12 Q1024=
200911020830 METAR LPPR 020830Z 02003KT 9999 FEW015 SCT030 BKN050 14/12
                        Q1023=
200911020800 METAR LPPR 020800Z 03005KT 9999 FEW015 BKN050 13/12 Q1023=
200911020730 METAR LPPR 020730Z VRB03KT 9999 FEW015 BKN050 13/12 Q1023=
200911020700 METAR LPPR 020700Z 02002KT 9999 FEW015 SCT050 BKN250 13/12
                        Q1023=
200911020630 METAR LPPR 020630Z VRB03KT 9999 FEW025 BKN050 13/13 Q1022=
200911020600 METAR LPPR 020600Z 00000KT 9999 FEW015 BKN050 13/12 Q1022=
200911020530 METAR LPPR 020530Z 00000KT 9999 FEW015 BKN050 13/13 Q1022=
200911020500 METAR LPPR 020500Z VRB03KT 9999 FEW015 BKN035 14/13 Q1022=
200911020430 METAR LPPR 020430Z 02004KT 330V060 9999 FEW012 BKN025 13/13
                        Q1022=
200911020400 METAR LPPR 020400Z 00000KT 9999 FEW012 BKN025 13/13 Q1022=
200911020330 METAR LPPR 020330Z 00000KT 9999 FEW015 BKN035 13/13 Q1022=
200911020300 METAR LPPR 020300Z 35005KT 310V020 9999 FEW017 BKN030 13/13
                        Q1022=
200911020230 METAR LPPR 020230Z 00000KT 9999 FEW017 SCT035 13/13 Q1022=
200911020200 METAR LPPR 020200Z 35002KT 9999 FEW017 SCT025 13/13 Q1022=
200911020130 METAR LPPR 020130Z 00000KT 9999 SCT020 13/13 Q1022=
200911020100 METAR LPPR 020100Z 00000KT 9999 FEW015 SCT025 13/13 Q1022=
200911020030 METAR LPPR 020030Z 00000KT 9999 FEW015 SCT025 13/13 Q1022=
200911020000 METAR LPPR 020000Z 00000KT 9999 FEW015 FEW025 13/13 Q1022=
200911012330 METAR LPPR 012330Z 00000KT 9999 SCT015 13/13 Q1022=
200911012300 METAR LPPR 012300Z 00000KT 9999 SCT015 13/13 Q1022=
200911012230 METAR LPPR 012230Z 00000KT 9999 FEW020 13/13 Q1022=
200911012200 METAR LPPR 012200Z VRB03KT 9999 FEW020 13/13 Q1022=
200911012130 METAR LPPR 012130Z 00000KT 9999 FEW020 14/13 Q1022=
200911012100 METAR LPPR 012100Z 35004KT 9999 FEW020 14/14 Q1022=
200911012030 METAR LPPR 012030Z 35006KT 9999 FEW030 15/14 Q1022=
200911012000 METAR LPPR 012000Z 35008KT 9999 SCT040 15/15 Q1022=
200911011930 METAR LPPR 011930Z 35008KT 9999 FEW015 BKN040 16/15 Q1021=
200911011900 METAR LPPR 011900Z 34010KT 9999 FEW015 BKN030 16/16 Q1021=
200911011830 METAR LPPR 011830Z 33011KT 9999 SCT009 SCT013 BKN020 17/17
                        Q1021=
200911011800 METAR LPPR 011800Z 33009KT 290V350 9999 FEW008 SCT013 BKN020
                        17/17 Q1020=
200911011730 METAR LPPR 011730Z 34011KT 9999 SCT007 SCT013 BKN025 17/17
                        Q1020=
200911011700 METAR LPPR 011700Z 33010KT 8000 -RA SCT004 SCT008 BKN012
                        17/17 Q1019=
200911011630 METAR LPPR 011630Z 33012KT 8000 SCT003 SCT007 BKN012 17/17
                        Q1019=
200911011600 METAR LPPR 011600Z 32010KT 4000 -RA BR SCT003 BKN005 18/18
                        Q1019=
200911011530 METAR LPPR 011530Z 33009KT 6000 SCT002 BKN005 18/18 Q1019=
200911011500 METAR LPPR 011500Z 22010KT 1300 R17/P1500 R35/P1500 -RA BR
                        SCT001 BKN003 19/19 Q1019=
200911011430 METAR COR LPPR 011430Z 21012KT 1700 -RA BR SCT001 BKN003
                        19/19 Q1019 RERA=
200911011400 METAR LPPR 011400Z 21012KT 1500 RA BR SCT001 BKN003 19/19
                        Q1019=
200911011330 METAR LPPR 011330Z 20013KT 170V230 1500 -RADZ BR SCT001 BKN002
                        20/20 Q1020=
200911011300 METAR LPPR 011300Z 20012KT 2000 BR SCT001 BKN003 20/20 Q1020=
200911011230 METAR LPPR 011230Z 20012KT 4000 BR SCT002 BKN004 20/20 Q1021=
200911011200 METAR LPPR 011200Z 20010KT 1500 -DZ BR SCT001 BKN003 20/20
                        Q1021=
200911011130 METAR LPPR 011130Z 20010G21KT 140V220 0900 R17/P1500 R35/0900VP1500
                        FG SCT000 BKN002 20/20 Q1022=
200911011100 METAR LPPR 011100Z 21009KT 0800 R17/P1500 R35/1200VP1500
                        FG SCT000 BKN002 20/20 Q1022=
200911011030 METAR LPPR 011030Z 21009KT 180V240 0800 R17/P1500 R35/0900VP1500
                        FG SCT000 BKN002 20/20 Q1023=
200911011000 METAR LPPR 011000Z 20009KT 1500 -DZ BR SCT001 BKN003 19/19
                        Q1023=
200911010930 METAR LPPR 010930Z 20009KT 1500 -DZ BR SCT001 BKN003 19/19
                        Q1023=
200911010900 METAR LPPR 010900Z 20010KT 1500 -DZ BR SCT001 BKN003 19/19
                        Q1023=
200911010830 METAR LPPR 010830Z 19009KT 170V240 1500 -DZ BR SCT001 BKN003
                        19/19 Q1023=
200911010800 METAR LPPR 010800Z 19009KT 1500 DZRA BR SCT001 BKN003 19/19
                        Q1023=
200911010730 METAR LPPR 010730Z 19007KT 1500 DZ BR BKN001 BKN003 19/19
                        Q1023=
200911010700 METAR LPPR 010700Z 19008KT 1200 R17/P1500 R35/0800V1300U
                        -DZ BR SCT000 BKN003 19/19 Q1023=
200911010630 METAR LPPR 010630Z 18008KT 2000 -DZ BR BKN001 BKN002 19/19
                        Q1023=
200911010600 METAR LPPR 010600Z 20005KT 2000 -DZ BR BKN001 BKN002 19/19
                        Q1023=
200911010530 METAR LPPR 010530Z 19007KT 2000 -DZ BR BKN001 BKN002 19/19
                        Q1023=
200911010500 METAR LPPR 010500Z 17007KT 5000 BR FEW001 SCT003 BKN008 19/19
                        Q1023=
200911010430 METAR LPPR 010430Z 18005KT 5000 BR FEW001 SCT003 BKN008 19/19
                        Q1023=
200911010400 METAR LPPR 010400Z 17006KT 2000 BR SCT001 SCT004 BKN005 19/19
                        Q1024=
200911010330 METAR LPPR 010330Z 18006KT 0300 R17/P1500 R35/0900VP1500
                        BCFG BKN001 BKN002 19/19 Q1024=
200911010300 METAR LPPR 010300Z 20005KT 0800 R17/P1500 R35/P1500 BCFG
                        SCT001 BKN002 19/19 Q1024=
200911010230 METAR LPPR 010230Z 19005KT 0800 R17/P1500 R35/P1500 BCFG
                        BKN001 BKN002 19/19 Q1024=
200911010200 METAR LPPR 010200Z 18004KT 2000 BR VCFG SCT001 SCT003 BKN005
                        19/19 Q1024=
200911010130 METAR LPPR 010130Z 20005KT 0800 R17/P1500 R35/P1500 BCFG
                        BKN001 BKN002 19/19 Q1025=
200911010100 METAR LPPR 010100Z 21004KT 0800 R17/P1500 R35/P1500 BCFG
                        BKN001 BKN002 20/20 Q1025=
200911010030 METAR LPPR 010030Z 20003KT 4000 -DZ BR SCT001 BKN003 20/20
                        Q1025=
200911010000 METAR LPPR 010000Z 17004KT 5000 BR SCT002 SCT004 BKN009 19/19
                        Q1025=
