##########################################################
# Query made at 11/07/2014 16:07:20 UTC
# Time interval: from 11/01/2010 00:00  to 12/01/2010 23:59  UTC
##########################################################

##########################################################
# LPPR, Porto / Pedras Rubras (Portugal)
# WMO index: 08545
# Latitude 41-14N. Longitude 008-41W. Altitude 69 m.
##########################################################

###################################
#  METAR/SPECI from LPPR
###################################
201012012330 METAR LPPR 012330Z VRB01KT 7000 FEW030 BKN070 06/05 Q1010=
201012012300 METAR LPPR 012300Z 12005KT 8000 FEW040 BKN150 06/05 Q1010=
201012012230 METAR LPPR 012230Z 00000KT 9999 FEW040 SCT150 05/04 Q1010=
201012012200 METAR LPPR 012200Z VRB01KT 9999 FEW040 BKN150 06/05 Q1010=
201012012130 METAR LPPR 012130Z 00000KT 9999 FEW040 BKN150 06/05 Q1010=
201012012100 METAR LPPR 012100Z 00000KT 9999 FEW040 BKN150 06/05 Q1010=
201012012030 METAR LPPR 012030Z 00000KT 9999 SCT040 SCT070 07/05 Q1010=
201012012000 METAR LPPR 012000Z VRB01KT 9999 -RA SCT030 BKN050 07/05 Q1010=
201012011930 METAR LPPR 011930Z 25004KT 9999 SCT030 SCT050 BKN150 08/05
                        Q1010=
201012011900 METAR LPPR 011900Z 00000KT 8000 -RA SCT030 SCT050 BKN160
                        07/05 Q1009=
201012011830 METAR LPPR 011830Z 00000KT 9999 FEW020 BKN160 07/05 Q1009=
201012011800 METAR LPPR 011800Z 00000KT 9999 FEW020 BKN160 08/05 Q1009=
201012011730 METAR LPPR 011730Z 00000KT 9999 FEW020 BKN160 08/05 Q1008=
201012011700 METAR LPPR 011700Z 00000KT 9999 FEW020 BKN250 09/05 Q1008=
201012011630 METAR LPPR 011630Z 32004KT 270V360 9999 FEW020 BKN250 10/05
                        Q1008=
201012011600 METAR LPPR 011600Z 33005KT 9999 FEW020 BKN250 11/05 Q1007=
201012011530 METAR LPPR 011530Z 33007KT 9999 FEW020 BKN250 12/06 Q1007=
201012011500 METAR LPPR 011500Z 32007KT 9999 FEW020 BKN250 12/06 Q1007=
201012011430 METAR LPPR 011430Z 36004KT 320V030 9999 FEW020 BKN250 11/06
                        Q1007=
201012011400 METAR LPPR 011400Z 34004KT 300V020 9999 FEW017 SCT250 11/05
                        Q1007=
201012011330 METAR LPPR 011330Z 35007KT 9999 SCT017 11/06 Q1006=
201012011300 METAR LPPR 011300Z 02004KT 350V070 9999 SCT017 11/05 Q1006=
201012011230 METAR LPPR 011230Z 31005KT 260V340 9999 SCT015 FEW020TCU
                        11/07 Q1007=
201012011200 METAR LPPR 011200Z 34005KT 270V010 9999 SCT015 FEW020TCU
                        11/07 Q1006=
201012011130 METAR LPPR 011130Z VRB01KT 9999 SCT015 10/07 Q1006=
201012011100 METAR LPPR 011100Z 00000KT 9999 SCT017 09/07 Q1006=
201012011030 METAR LPPR 011030Z VRB02KT 9999 FEW015 BKN023 09/07 Q1005=
201012011000 METAR LPPR 011000Z VRB02KT 9999 SCT020 FEW025CB BKN250 08/07
                        Q1005=
201012010930 METAR LPPR 010930Z 10002KT 9999 FEW017 FEW023CB SCT070 07/06
                        Q1004=
201012010900 METAR LPPR 010900Z VRB01KT 9999 FEW017 FEW025CB BKN070 06/05
                        Q1004=
201012010830 METAR LPPR 010830Z VRB01KT 9999 FEW017 FEW020CB BKN035 06/06
                        Q1003=
201012010800 METAR LPPR 010800Z VRB03KT 9999 FEW017 FEW020CB BKN030 07/06
                        Q1003=
201012010730 METAR LPPR 010730Z VRB01KT 9999 -SHRA SCT017 BKN030 07/06
                        Q1002=
201012010700 METAR LPPR 010700Z VRB02KT 9999 BKN030 SCT080 07/06 Q1002=
201012010630 METAR LPPR 010630Z 11003KT 9999 -SHRA FEW017 BKN030 BKN080
                        07/06 Q1001=
201012010600 METAR LPPR 010600Z VRB03KT 9999 -SHRA FEW017 BKN030 06/06
                        Q1001=
201012010530 METAR LPPR 010530Z 10005KT 9999 FEW017 SCT025 06/06 Q1000=
201012010500 METAR LPPR 010500Z 12005KT 9999 -SHRA FEW017 SCT025 07/06
                        Q1000=
201012010430 METAR LPPR 010430Z 12006KT 9999 FEW017 SCT070 07/06 Q1000=
201012010400 METAR LPPR 010400Z 12005KT 9999 FEW017 SCT060 07/06 Q1000=
201012010330 METAR LPPR 010330Z 13007KT 9999 SCT025 BKN070 07/06 Q0999=
201012010300 METAR LPPR 010300Z 12006KT 8000 -RA BKN025 SCT060 07/06 Q1000
                        RERA=
201012010230 METAR LPPR 010230Z 17003KT 7000 RA OVC022 07/06 Q1000=
201012010200 METAR LPPR 010200Z 12005KT 9999 -SHRA SCT017 BKN025 07/06
                        Q0999=
201012010130 METAR LPPR 010130Z 12007KT 9999 -SHRA SCT017 BKN025 07/06
                        Q0999=
201012010100 METAR LPPR 010100Z 11007KT 9000 -SHRA SCT017 BKN025 07/06
                        Q0999 RERA=
201012010030 METAR LPPR 010030Z 07005KT 020V100 7000 SHRA SCT007 SCT015
                        BKN025 07/06 Q0999=
201012010000 METAR LPPR 010000Z VRB02KT 8000 -SHRA FEW009 SCT015 BKN025
                        07/06 Q0999 RERA=
201011302330 METAR LPPR 302330Z 14008KT 8000 -SHRA SCT017 BKN030 08/06
                        Q0998=
201011302300 METAR LPPR 302300Z 12009KT 9999 SCT017 SCT040 08/06 Q0998=
201011302230 METAR LPPR 302230Z 13009KT 9999 SCT017 SCT035 08/06 Q0998=
201011302200 METAR LPPR 302200Z 13004KT 9999 FEW017 SCT030 BKN040 08/06
                        Q0997=
201011302130 METAR LPPR 302130Z VRB02KT 9999 -SHRA FEW017 SCT030 BKN040
                        08/06 Q0997=
201011302100 METAR LPPR 302100Z VRB02KT 9999 -SHRA FEW017 SCT020 BKN030
                        08/07 Q0997=
201011302030 METAR LPPR 302030Z VRB07KT 8000 -SHRA FEW017 SCT020 BKN030
                        08/07 Q0997=
201011302000 METAR LPPR 302000Z 10007KT 9999 FEW017 SCT030 BKN060 08/06
                        Q0996=
201011301930 METAR LPPR 301930Z 11009KT 9999 FEW017 SCT030 BKN060 08/06
                        Q0996=
201011301900 METAR LPPR 301900Z 11008KT 9999 FEW017 SCT030 BKN060 08/06
                        Q0996=
201011301830 METAR LPPR 301830Z 12004KT 090V160 9999 FEW017 FEW020CB BKN030
                        08/06 Q0995=
201011301800 METAR LPPR 301800Z VRB03KT 9999 SCT017 FEW020CB SCT030 09/06
                        Q0995 RERA=
201011301730 METAR LPPR 301730Z 13009KT 100V270 5000 SHRAGS BKN015 FEW020CB
                        09/07 Q0994=
201011301700 METAR LPPR 301700Z 12006KT 080V150 9999 VCSH SCT017 FEW020CB
                        SCT030 10/07 Q0994=
201011301630 METAR LPPR 301630Z 11004KT 080V170 9999 SCT017 FEW020CB SCT030
                        11/07 Q0994=
201011301600 METAR LPPR 301600Z 12006KT 100V160 9999 SCT017 FEW020CB SCT030
                        10/08 Q0994=
201011301530 METAR LPPR 301530Z 11005KT 9999 SCT017 FEW020CB 10/08 Q0994=
201011301500 METAR LPPR 301500Z 11006KT 9999 SCT017 FEW020CB 11/08 Q0994=
201011301430 METAR LPPR 301430Z 11005KT 9999 SCT015 FEW020CB 10/08 Q0993=
201011301400 METAR LPPR 301400Z 17008KT 130V190 9999 -SHRA BKN015 FEW020CB
                        10/08 Q0994=
201011301330 METAR LPPR 301330Z 15008KT 9999 BKN015 FEW020CB 10/07 Q0994=
201011301300 METAR LPPR 301300Z 17008KT 9999 -SHRA SCT015 FEW020CB BKN040
                        10/08 Q0994=
201011301230 METAR LPPR 301230Z 15009KT 110V190 8000 -SHRA SCT015 FEW020CB
                        BKN040 10/07 Q0994=
201011301200 METAR LPPR 301200Z VRB03KT 9999 SCT015 FEW020CB BKN040 10/07
                        Q0994=
201011301130 METAR LPPR 301130Z 25008KT 170V290 8000 -TSRA BKN015 SCT020CB
                        09/06 Q0994 RERA=
201011301100 METAR LPPR 301100Z 16009KT 9999 FEW012 SCT015 FEW020CB BKN030
                        09/07 Q0994=
201011301030 METAR LPPR 301030Z 15011KT 9999 FEW012 SCT015 FEW020CB BKN030
                        09/07 Q0994=
201011301000 METAR LPPR 301000Z 18009KT 9999 SCT015 FEW020CB BKN030 09/07
                        Q0994=
201011300930 METAR LPPR 300930Z 20006KT 160V290 9999 SCT015 FEW020CB BKN030
                        10/06 Q0993=
201011300900 METAR LPPR 300900Z 22006KT 190V260 9999 SCT015 FEW020CB BKN030
                        10/06 Q0993=
201011300830 METAR LPPR 300830Z 22007KT 180V260 8000 -SHRA SCT012 FEW017CB
                        BKN025 10/06 Q0993=
201011300800 METAR LPPR 300800Z 16010KT 9999 SCT012 FEW017CB BKN020 08/07
                        Q0993=
201011300730 METAR LPPR 300730Z 15009KT 120V190 8000 SHRA FEW009 SCT013
                        BKN020 08/06 Q0993=
201011300700 METAR LPPR 300700Z 13010KT 8000 SHRA FEW009 SCT013 BKN025
                        07/06 Q0992=
201011300630 METAR LPPR 300630Z 13010KT 100V160 7000 -SHRA FEW008 SCT015
                        BKN025 07/06 Q0993=
201011300600 METAR LPPR 300600Z 11009KT 9999 FEW015 SCT020 BKN035 07/05
                        Q0992=
201011300530 METAR LPPR 300530Z 12010KT 9000 -RA SCT017 BKN030 07/06 Q0993=
201011300500 METAR LPPR 300500Z 13010KT 9999 FEW017 SCT030 BKN040 07/06
                        Q0993=
201011300430 METAR LPPR 300430Z 14011KT 9999 FEW015 BKN040 BKN060 07/06
                        Q0993=
201011300400 METAR LPPR 300400Z 15014KT 8000 -RA FEW006 SCT013 BKN030
                        07/06 Q0994=
201011300330 METAR LPPR 300330Z 16015KT 8000 -RA FEW007 SCT012 BKN025
                        08/07 Q0994=
201011300300 METAR LPPR 300300Z 17011KT 8000 -RA FEW008 SCT013 BKN033
                        08/06 Q0994 RERA=
201011300230 METAR LPPR 300230Z 19014KT 6000 SHRA FEW009 SCT015 BKN030
                        08/06 Q0994=
201011300200 METAR LPPR 300200Z 14008KT 8000 -RA SCT020 SCT030 BKN080
                        08/06 Q0994=
201011300130 METAR LPPR 300130Z 13007KT 9999 FEW017 SCT040 BKN090 08/06
                        Q0995=
201011300100 METAR LPPR 300100Z 13007KT 9999 FEW017 SCT040 BKN100 08/06
                        Q0995=
201011300030 METAR LPPR 300030Z 14007KT 9999 FEW017 SCT030 08/06 Q0995=
201011300000 METAR LPPR 300000Z 15009KT 9999 SCT017 BKN033 08/06 Q0995=
201011292330 METAR LPPR 292330Z 17011KT 9999 -SHRA SCT017 SCT025 BKN035
                        09/06 Q0996=
201011292300 METAR LPPR 292300Z 16012KT 9999 SCT017 BKN028 BKN080 09/06
                        Q0996=
201011292230 METAR LPPR 292230Z 17012KT 150V210 9999 SCT013 BKN028 BKN070
                        10/07 Q0995=
201011292200 METAR LPPR 292200Z 21008KT 190V250 9999 SCT017 SCT023 BKN030
                        10/06 Q0995=
201011292130 METAR LPPR 292130Z 22014KT 9999 BKN017 BKN040 10/06 Q0995=
201011292100 METAR LPPR 292100Z 22015KT 9999 SCT015 BKN020 BKN070 10/07
                        Q0994=
201011292030 METAR LPPR 292030Z 16019KT 9999 SCT017 BKN020 BKN070 09/07
                        Q0994=
201011292000 METAR LPPR 292000Z 16021G31KT 9999 SCT015 BKN020 09/07 Q0994=
201011291930 METAR LPPR 291930Z 13010KT 100V160 8000 -RA SCT020 BKN025
                        BKN060 07/06 Q0994=
201011291900 METAR LPPR 291900Z 09006KT 050V150 8000 -RA SCT020 BKN025
                        BKN060 06/05 Q0994 RERA=
201011291830 METAR LPPR 291830Z 10008KT 8000 RA SCT020 BKN025 BKN060 06/05
                        Q0994=
201011291800 METAR LPPR 291800Z 10008KT 8000 RA BKN025 BKN060 06/04 Q0994=
201011291730 METAR LPPR 291730Z 10008KT 8000 -RA BKN025 BKN060 06/04 Q0995=
201011291700 METAR LPPR 291700Z 10007KT 070V130 8000 -RA BKN030 BKN060
                        06/04 Q0995=
201011291630 METAR LPPR 291630Z 09007KT 060V130 8000 -RA BKN030 BKN060
                        06/04 Q0995=
201011291600 METAR LPPR 291600Z 09006KT 040V130 8000 -RA BR BKN030 BKN060
                        06/04 Q0995=
201011291530 METAR LPPR 291530Z 08004KT 030V160 8000 -RA BR BKN030 BKN060
                        06/04 Q0995=
201011291500 METAR LPPR 291500Z 08007KT 030V130 7000 -RA BKN030 BKN060
                        06/04 Q0996=
201011291430 METAR LPPR 291430Z 09007KT 050V130 7000 -RA BR BKN037 BKN060
                        06/04 Q0996=
201011291400 METAR LPPR 291400Z 09008KT 060V130 5000 -RA BR BKN020 BKN060
                        06/04 Q0997=
201011291330 METAR LPPR 291330Z 09006KT 050V120 7000 -RA BKN020 BKN060
                        06/03 Q0997=
201011291300 METAR LPPR 291300Z 11008KT 8000 -RA BKN020 BKN060 07/03 Q0998=
201011291230 METAR LPPR 291230Z 10010KT 8000 -RA SCT025 BKN060 08/01 Q0998=
201011291200 METAR LPPR 291200Z 10009KT 060V130 9999 SCT030 BKN070 08/00
                        Q0999=
201011291130 METAR LPPR 291130Z 11009KT 080V140 9999 FEW040 BKN060 08/00
                        Q0999=
201011291100 METAR LPPR 291100Z 10008KT 070V130 9999 FEW040 BKN070 08/00
                        Q0999=
201011291030 METAR LPPR 291030Z 09008KT 060V130 9999 FEW040 OVC080 07/M00
                        Q0999=
201011291000 METAR LPPR 291000Z 09007KT 060V130 9999 FEW040 BKN080 07/M00
                        Q0999=
201011290930 METAR LPPR 290930Z 10010KT 9999 FEW040 BKN080 07/M00 Q1000=
201011290900 METAR COR LPPR 290900Z 10008KT 9999 FEW040 BKN080 06/M00
                        Q1000=
201011290830 METAR LPPR 290830Z 10007KT 070V130 9999 FEW040 BKN080 06/00
                        Q1000=
201011290800 METAR LPPR 290800Z 10007KT 9999 FEW040 BKN080 06/M00 Q1000=
201011290730 METAR LPPR 290730Z 11007KT CAVOK 05/M00 Q1000=
201011290700 METAR LPPR 290700Z 11006KT CAVOK 05/M00 Q1001=
201011290630 METAR LPPR 290630Z 11006KT CAVOK 05/M00 Q1001=
201011290600 METAR LPPR 290600Z 11007KT CAVOK 05/M00 Q1001=
201011290530 METAR LPPR 290530Z 10007KT 060V130 CAVOK 05/00 Q1001=
201011290500 METAR LPPR 290500Z 11008KT CAVOK 05/00 Q1002=
201011290430 METAR LPPR 290430Z 11008KT CAVOK 05/00 Q1002=
201011290400 METAR LPPR 290400Z 11008KT CAVOK 05/01 Q1002=
201011290330 METAR LPPR 290330Z 11006KT CAVOK 05/01 Q1003=
201011290300 METAR LPPR 290300Z VRB03KT CAVOK 04/01 Q1003=
201011290230 METAR LPPR 290230Z 10006KT CAVOK 04/01 Q1004=
201011290200 METAR LPPR 290200Z 10006KT CAVOK 04/01 Q1004=
201011290130 METAR LPPR 290130Z 11008KT 9999 FEW040 SCT060 05/01 Q1005=
201011290100 METAR LPPR 290100Z 11007KT 9999 FEW040 SCT060 05/01 Q1005=
201011290030 METAR LPPR 290030Z 10007KT 9999 FEW040 BKN060 05/02 Q1006=
201011290000 METAR LPPR 290000Z 10007KT 9999 FEW040 BKN060 05/02 Q1006=
201011282330 METAR LPPR 282330Z 11008KT 9999 FEW040 SCT070 05/02 Q1006=
201011282300 METAR LPPR 282300Z 11009KT 9999 FEW040 SCT070 06/02 Q1007=
201011282230 METAR LPPR 282230Z 11008KT 9999 FEW040 SCT070 06/02 Q1007=
201011282200 METAR LPPR 282200Z 11008KT 9999 FEW015 SCT060 06/02 Q1007=
201011282130 METAR LPPR 282130Z 11008KT CAVOK 06/02 Q1007=
201011282100 METAR LPPR 282100Z 11007KT 9999 FEW015 06/02 Q1007=
201011282030 METAR LPPR 282030Z 11006KT CAVOK 06/02 Q1007=
201011282000 METAR LPPR 282000Z 11006KT 9999 FEW020 SCT060 06/02 Q1008=
201011281930 METAR LPPR 281930Z 10004KT 9999 FEW030 05/02 Q1008=
201011281900 METAR LPPR 281900Z VRB01KT 9999 FEW030 05/02 Q1008=
201011281830 METAR LPPR 281830Z VRB01KT 9999 FEW015 05/01 Q1008=
201011281800 METAR LPPR 281800Z 17002KT 9999 FEW015 06/02 Q1008=
201011281730 METAR LPPR 281730Z 00000KT 9999 FEW015 07/01 Q1007=
201011281700 METAR LPPR 281700Z 28001KT 9999 FEW015 09/02 Q1007=
201011281630 METAR LPPR 281630Z VRB02KT 9999 FEW015 10/01 Q1007=
201011281600 METAR LPPR 281600Z 33004KT 9999 FEW015 11/01 Q1007=
201011281530 METAR LPPR 281530Z 32004KT 250V060 9999 SCT015 11/01 Q1007=
201011281500 METAR LPPR 281500Z 31006KT 280V020 9999 SCT015 11/01 Q1008=
201011281430 METAR LPPR 281430Z 29004KT 240V010 9999 SCT015 11/02 Q1008=
201011281400 METAR LPPR 281400Z 29005KT 250V330 9999 SCT015 11/03 Q1008=
201011281330 METAR LPPR 281330Z 28006KT 220V340 9999 SCT015 11/03 Q1008=
201011281300 METAR LPPR 281300Z VRB04KT 9999 FEW017 11/03 Q1008=
201011281230 METAR LPPR 281230Z VRB02KT 9999 FEW017 FEW020TCU 10/02 Q1008=
201011281200 METAR LPPR 281200Z 30004KT 260V330 9999 FEW017 SCT045 BKN070
                        10/01 Q1008=
201011281130 METAR LPPR 281130Z VRB01KT 9999 FEW017TCU SCT050 10/03 Q1008=
201011281100 METAR LPPR 281100Z VRB02KT 9999 FEW005 FEW017TCU SCT050 08/04
                        Q1009=
201011281030 METAR LPPR 281030Z VRB03KT 9999 FEW017TCU SCT050 08/04 Q1008=
201011281000 METAR LPPR 281000Z 12004KT 080V150 9999 FEW017TCU SCT050
                        06/03 Q1008=
201011280930 METAR LPPR 280930Z 11004KT 070V140 9000 FEW017TCU SCT045
                        05/03 Q1008=
201011280900 METAR LPPR 280900Z VRB01KT 8000 FEW004 FEW017TCU 04/03 Q1008=
201011280830 METAR LPPR 280830Z VRB02KT 6000 FEW017TCU SCT100 03/02 Q1008=
201011280800 METAR LPPR 280800Z VRB03KT 8000 FEW017 FEW020TCU 02/01 Q1007=
201011280730 METAR LPPR 280730Z 10003KT 8000 FEW017 FEW020TCU 02/01 Q1007=
201011280700 METAR LPPR 280700Z VRB01KT CAVOK 02/01 Q1006=
201011280630 METAR LPPR 280630Z 00000KT CAVOK 01/00 Q1006=
201011280600 METAR LPPR 280600Z 00000KT CAVOK 02/00 Q1006=
201011280530 METAR LPPR 280530Z 00000KT CAVOK 02/01 Q1005=
201011280500 METAR LPPR 280500Z 00000KT CAVOK 02/01 Q1005=
201011280430 METAR LPPR 280430Z 03001KT CAVOK 02/01 Q1005=
201011280400 METAR LPPR 280400Z 00000KT 9999 FEW040 SCT070 04/02 Q1005=
201011280330 METAR LPPR 280330Z 00000KT 9999 FEW040 SCT070 04/03 Q1005=
201011280300 METAR LPPR 280300Z 00000KT 9999 SCT040 SCT070 04/02 Q1005=
201011280230 METAR LPPR 280230Z 36001KT 9999 FEW040 SCT070 03/02 Q1004=
201011280200 METAR LPPR 280200Z 00000KT CAVOK 03/02 Q1004=
201011280130 METAR LPPR 280130Z 00000KT CAVOK 04/02 Q1004=
201011280100 METAR LPPR 280100Z 02002KT CAVOK 04/02 Q1005=
201011280030 METAR LPPR 280030Z 34002KT CAVOK 04/02 Q1004=
201011280000 METAR LPPR 280000Z 36003KT 9999 FEW080 04/03 Q1004=
201011272330 METAR LPPR 272330Z 01003KT CAVOK 04/03 Q1004=
201011272300 METAR LPPR 272300Z 35002KT CAVOK 05/03 Q1004=
201011272230 METAR LPPR 272230Z 33004KT CAVOK 05/03 Q1004=
201011272200 METAR LPPR 272200Z 34003KT CAVOK 05/03 Q1004=
201011272130 METAR LPPR 272130Z VRB02KT CAVOK 05/03 Q1003=
201011272100 METAR LPPR 272100Z 00000KT CAVOK 05/03 Q1004=
201011272030 METAR LPPR 272030Z VRB02KT CAVOK 07/03 Q1003=
201011272000 METAR LPPR 272000Z VRB03KT CAVOK 08/04 Q1003=
201011271930 METAR LPPR 271930Z 35007KT CAVOK 07/04 Q1003=
201011271900 METAR LPPR 271900Z 34010KT CAVOK 08/05 Q1003=
201011271830 METAR LPPR 271830Z 34007KT 9999 FEW020 08/05 Q1003=
201011271800 METAR LPPR 271800Z 36006KT 9999 FEW020 08/05 Q1003=
201011271730 METAR LPPR 271730Z 34008KT 9999 FEW020 10/05 Q1003=
201011271700 METAR LPPR 271700Z 34009KT 9999 FEW020 11/06 Q1003=
201011271630 METAR LPPR 271630Z 33010KT 9999 FEW020 12/05 Q1003=
201011271600 METAR LPPR 271600Z 33010KT 9999 FEW020 13/05 Q1003=
201011271530 METAR LPPR 271530Z 32010KT 9999 FEW020 13/05 Q1003=
201011271500 METAR LPPR 271500Z 32007KT 290V350 9999 FEW020 13/05 Q1003=
201011271430 METAR LPPR 271430Z 32008KT 280V340 9999 FEW020 13/05 Q1003=
201011271400 METAR LPPR 271400Z 32007KT 290V010 9999 FEW020 13/04 Q1003=
201011271330 METAR LPPR 271330Z 36006KT 280V040 CAVOK 13/03 Q1003=
201011271300 METAR LPPR 271300Z 34007KT CAVOK 12/03 Q1004=
201011271230 METAR LPPR 271230Z 35005KT 320V030 CAVOK 12/03 Q1004=
201011271200 METAR LPPR 271200Z 02004KT 350V050 CAVOK 11/03 Q1004=
201011271130 METAR LPPR 271130Z 01004KT 330V040 CAVOK 11/02 Q1005=
201011271100 METAR LPPR 271100Z VRB02KT CAVOK 10/03 Q1005=
201011271030 METAR LPPR 271030Z VRB03KT CAVOK 08/02 Q1005=
201011271000 METAR LPPR 271000Z 10003KT CAVOK 06/02 Q1005=
201011270930 METAR LPPR 270930Z VRB01KT CAVOK 04/02 Q1005=
201011270900 METAR LPPR 270900Z 01001KT CAVOK 02/00 Q1005=
201011270830 METAR LPPR 270830Z 00000KT CAVOK 02/M01 Q1005=
201011270800 METAR LPPR 270800Z 00000KT CAVOK 03/M00 Q1005=
201011270730 METAR LPPR 270730Z 09003KT CAVOK 03/01 Q1005=
201011270700 METAR LPPR 270700Z 00000KT CAVOK 02/M00 Q1005=
201011270630 METAR LPPR 270630Z 04001KT CAVOK 02/M01 Q1005=
201011270600 METAR LPPR 270600Z VRB03KT CAVOK 03/00 Q1005=
201011270530 METAR LPPR 270530Z 11003KT CAVOK 02/01 Q1005=
201011270500 METAR LPPR 270500Z 06001KT CAVOK 01/M00 Q1005=
201011270430 METAR LPPR 270430Z 00000KT CAVOK 01/M00 Q1006=
201011270400 METAR LPPR 270400Z 09002KT CAVOK 01/M00 Q1006=
201011270330 METAR LPPR 270330Z 00000KT CAVOK 02/M00 Q1006=
201011270300 METAR LPPR 270300Z 00000KT CAVOK 02/M00 Q1006=
201011270230 METAR LPPR 270230Z 36001KT CAVOK 02/00 Q1006=
201011270200 METAR LPPR 270200Z 00000KT CAVOK 03/00 Q1006=
201011270130 METAR LPPR 270130Z 02004KT CAVOK 03/01 Q1006=
201011270100 METAR LPPR 270100Z VRB01KT CAVOK 03/01 Q1006=
201011270030 METAR LPPR 270030Z 00000KT CAVOK 03/01 Q1007=
201011270000 METAR LPPR 270000Z 01001KT CAVOK 04/01 Q1007=
201011262330 METAR LPPR 262330Z 36001KT CAVOK 04/01 Q1007=
201011262300 METAR LPPR 262300Z VRB02KT CAVOK 04/01 Q1008=
201011262230 METAR LPPR 262230Z VRB02KT CAVOK 05/01 Q1008=
201011262200 METAR LPPR 262200Z VRB03KT CAVOK 06/02 Q1008=
201011262130 METAR LPPR 262130Z VRB03KT 8000 SCT200 04/02 Q1007=
201011262100 METAR LPPR 262100Z 03003KT 8000 SCT200 04/02 Q1007=
201011262030 METAR LPPR 262030Z 04001KT 5000 BR SCT200 05/03 Q1007=
201011262000 METAR LPPR 262000Z 03002KT 5000 BR SCT200 05/03 Q1007=
201011261930 METAR LPPR 261930Z 02002KT 8000 SCT200 05/03 Q1008=
201011261900 METAR LPPR 261900Z 35003KT 7000 SCT250 05/03 Q1008=
201011261830 METAR LPPR 261830Z VRB02KT CAVOK 07/03 Q1008=
201011261800 METAR LPPR 261800Z 11004KT CAVOK 09/01 Q1008=
201011261730 METAR LPPR 261730Z 11003KT CAVOK 10/02 Q1008=
201011261700 METAR LPPR 261700Z 10002KT CAVOK 10/02 Q1007=
201011261630 METAR LPPR 261630Z 12003KT CAVOK 11/02 Q1008=
201011261600 METAR LPPR 261600Z 13005KT CAVOK 11/01 Q1008=
201011261530 METAR LPPR 261530Z 13005KT CAVOK 12/01 Q1008=
201011261500 METAR LPPR 261500Z VRB03KT CAVOK 13/02 Q1008=
201011261430 METAR LPPR 261430Z 03005KT CAVOK 13/01 Q1008=
201011261400 METAR LPPR 261400Z 03006KT 350V070 CAVOK 12/01 Q1009=
201011261330 METAR LPPR 261330Z 04006KT 010V080 CAVOK 12/01 Q1009=
201011261300 METAR LPPR 261300Z 04007KT 350V070 CAVOK 12/00 Q1010=
201011261230 METAR LPPR 261230Z 03008KT 010V090 CAVOK 12/00 Q1010=
201011261200 METAR LPPR 261200Z 04007KT 350V080 CAVOK 11/01 Q1010=
201011261130 METAR LPPR 261130Z 04007KT 010V090 CAVOK 11/00 Q1011=
201011261100 METAR LPPR 261100Z 04007KT CAVOK 10/01 Q1011=
201011261030 METAR LPPR 261030Z VRB03KT CAVOK 09/01 Q1012=
201011261000 METAR LPPR 261000Z 04004KT 010V080 CAVOK 08/01 Q1012=
201011260930 METAR LPPR 260930Z VRB03KT CAVOK 08/00 Q1012=
201011260900 METAR LPPR 260900Z VRB02KT CAVOK 07/M00 Q1012=
201011260830 METAR LPPR 260830Z VRB02KT CAVOK 05/M00 Q1012=
201011260800 METAR LPPR 260800Z 00000KT CAVOK 04/M01 Q1012=
201011260730 METAR LPPR 260730Z VRB03KT CAVOK 05/M01 Q1012=
201011260700 METAR LPPR 260700Z VRB03KT CAVOK 05/M00 Q1012=
201011260630 METAR LPPR 260630Z VRB03KT CAVOK 05/M00 Q1012=
201011260600 METAR LPPR 260600Z VRB02KT CAVOK 05/M00 Q1012=
201011260530 METAR LPPR 260530Z 04004KT CAVOK 05/00 Q1012=
201011260500 METAR LPPR 260500Z VRB02KT CAVOK 04/00 Q1012=
201011260430 METAR LPPR 260430Z VRB02KT CAVOK 04/01 Q1012=
201011260400 METAR LPPR 260400Z 00000KT CAVOK 04/00 Q1012=
201011260330 METAR LPPR 260330Z 02004KT 350V050 CAVOK 04/01 Q1013=
201011260300 METAR LPPR 260300Z 05002KT CAVOK 04/01 Q1013=
201011260230 METAR LPPR 260230Z 02004KT CAVOK 05/02 Q1013=
201011260200 METAR LPPR 260200Z 02003KT CAVOK 05/02 Q1013=
201011260130 METAR LPPR 260130Z VRB02KT CAVOK 05/02 Q1014=
201011260100 METAR LPPR 260100Z VRB03KT CAVOK 06/02 Q1014=
201011260030 METAR LPPR 260030Z 02007KT CAVOK 07/02 Q1014=
201011260000 METAR LPPR 260000Z 03005KT 350V050 CAVOK 07/02 Q1014=
201011252330 METAR LPPR 252330Z 02007KT CAVOK 07/03 Q1014=
201011252300 METAR LPPR 252300Z 36009KT CAVOK 08/03 Q1014=
201011252230 METAR LPPR 252230Z 36004KT 350V060 CAVOK 07/03 Q1014=
201011252200 METAR LPPR 252200Z 01005KT CAVOK 07/03 Q1015=
201011252130 METAR LPPR 252130Z 36006KT CAVOK 07/03 Q1014=
201011252100 METAR LPPR 252100Z 01006KT CAVOK 08/03 Q1014=
201011252030 METAR LPPR 252030Z 02005KT CAVOK 08/04 Q1014=
201011252000 METAR LPPR 252000Z VRB03KT CAVOK 09/05 Q1014=
201011251930 METAR LPPR 251930Z 02004KT CAVOK 09/05 Q1014=
201011251900 METAR LPPR 251900Z 02005KT CAVOK 09/05 Q1014=
201011251830 METAR LPPR 251830Z 36006KT CAVOK 10/05 Q1014=
201011251800 METAR LPPR 251800Z 01005KT CAVOK 10/05 Q1014=
201011251730 METAR LPPR 251730Z 36006KT 340V040 CAVOK 11/05 Q1014=
201011251700 METAR LPPR 251700Z 35006KT CAVOK 12/06 Q1014=
201011251630 METAR LPPR 251630Z 36007KT 9999 FEW030 BKN250 13/05 Q1014=
201011251600 METAR LPPR 251600Z 36010KT 9999 FEW030 BKN250 14/05 Q1014=
201011251530 METAR LPPR 251530Z 36007KT 9999 FEW030 BKN200 14/06 Q1014=
201011251500 METAR LPPR 251500Z 36008KT 9999 FEW030 BKN200 14/06 Q1014=
201011251430 METAR LPPR 251430Z 36009KT 330V030 9999 FEW030 BKN200 14/05
                        Q1014=
201011251400 METAR LPPR 251400Z 01009KT 340V040 9999 FEW030 BKN200 14/05
                        Q1014=
201011251330 METAR LPPR 251330Z 36009KT 340V040 9999 FEW030 BKN200 14/05
                        Q1014=
201011251300 METAR LPPR 251300Z 36008KT CAVOK 13/05 Q1014=
201011251230 METAR LPPR 251230Z 01005KT 340V040 CAVOK 12/05 Q1015=
201011251200 METAR LPPR 251200Z 01005KT 330V040 CAVOK 11/04 Q1015=
201011251130 METAR LPPR 251130Z 36005KT 340V040 CAVOK 11/05 Q1016=
201011251100 METAR LPPR 251100Z 02005KT CAVOK 10/04 Q1016=
201011251030 METAR LPPR 251030Z VRB03KT CAVOK 10/05 Q1016=
201011251000 METAR LPPR 251000Z VRB02KT CAVOK 09/05 Q1015=
201011250930 METAR LPPR 250930Z VRB03KT CAVOK 07/05 Q1015=
201011250900 METAR LPPR 250900Z 03003KT CAVOK 05/04 Q1015=
201011250830 METAR LPPR 250830Z VRB01KT CAVOK 04/03 Q1015=
201011250800 METAR LPPR 250800Z 00000KT CAVOK 03/02 Q1015=
201011250730 METAR LPPR 250730Z 00000KT CAVOK 03/02 Q1015=
201011250700 METAR LPPR 250700Z 08002KT CAVOK 03/02 Q1014=
201011250630 METAR LPPR 250630Z 04002KT CAVOK 04/02 Q1014=
201011250600 METAR LPPR 250600Z VRB01KT CAVOK 04/03 Q1014=
201011250530 METAR LPPR 250530Z VRB01KT CAVOK 04/02 Q1014=
201011250500 METAR LPPR 250500Z VRB02KT CAVOK 05/03 Q1014=
201011250430 METAR LPPR 250430Z VRB03KT CAVOK 05/03 Q1014=
201011250400 METAR LPPR 250400Z VRB02KT CAVOK 06/04 Q1014=
201011250330 METAR LPPR 250330Z VRB01KT CAVOK 06/04 Q1014=
201011250300 METAR LPPR 250300Z VRB03KT CAVOK 06/05 Q1014=
201011250230 METAR LPPR 250230Z 00000KT CAVOK 05/04 Q1014=
201011250200 METAR LPPR 250200Z 00000KT CAVOK 05/04 Q1014=
201011250130 METAR LPPR 250130Z 01004KT 340V060 8000 SKC 05/04 Q1014=
201011250100 METAR LPPR 250100Z 01002KT 8000 SKC 05/04 Q1014=
201011250030 METAR LPPR 250030Z 35003KT 8000 SKC 06/04 Q1015=
201011240000 METAR LPPR 240000Z 02003KT CAVOK 10/06 Q1012=
201011232330 METAR LPPR 232330Z VRB03KT CAVOK 10/06 Q1012=
201011232300 METAR LPPR 232300Z 03003KT CAVOK 10/07 Q1012=
201011232230 METAR LPPR 232230Z 02002KT CAVOK 10/07 Q1012=
201011232200 METAR LPPR 232200Z 03002KT CAVOK 11/08 Q1012=
201011232130 METAR LPPR 232130Z 02003KT CAVOK 11/08 Q1011=
201011232100 METAR LPPR 232100Z 36002KT CAVOK 12/08 Q1011=
201011232030 METAR LPPR 232030Z VRB02KT CAVOK 12/08 Q1011=
201011232000 METAR LPPR 232000Z VRB02KT CAVOK 12/08 Q1011=
201011231930 METAR LPPR 231930Z VRB01KT CAVOK 13/08 Q1011=
201011231900 METAR LPPR 231900Z 03002KT CAVOK 13/08 Q1011=
201011231830 METAR LPPR 231830Z 02004KT 350V050 CAVOK 13/08 Q1011=
201011231800 METAR LPPR 231800Z VRB03KT CAVOK 13/08 Q1011=
201011231730 METAR LPPR 231730Z 02004KT CAVOK 13/08 Q1011=
201011231700 METAR LPPR 231700Z 01003KT CAVOK 14/08 Q1011=
201011231630 METAR LPPR 231630Z 36003KT CAVOK 15/08 Q1011=
201011231600 METAR LPPR 231600Z 35004KT CAVOK 16/07 Q1011=
201011231530 METAR LPPR 231530Z VRB02KT 9999 BKN090 SCT250 16/05 Q1011=
201011231500 METAR LPPR 231500Z VRB03KT CAVOK 16/06 Q1010=
201011231430 METAR LPPR 231430Z VRB02KT CAVOK 16/07 Q1011=
201011231400 METAR LPPR 231400Z 09005KT 040V130 CAVOK 16/06 Q1011=
201011231330 METAR LPPR 231330Z 09006KT 040V150 CAVOK 15/06 Q1011=
201011231300 METAR LPPR 231300Z 08005KT 050V130 CAVOK 15/06 Q1011=
201011231230 METAR LPPR 231230Z 08005KT 050V110 CAVOK 14/07 Q1012=
201011231200 METAR LPPR 231200Z 09006KT 050V130 CAVOK 14/06 Q1012=
201011231130 METAR LPPR 231130Z 11008KT CAVOK 14/06 Q1012=
201011231100 METAR LPPR 231100Z 10006KT 050V120 CAVOK 14/06 Q1012=
201011231030 METAR LPPR 231030Z 09004KT 040V170 CAVOK 13/07 Q1012=
201011231000 METAR LPPR 231000Z 08004KT 030V130 CAVOK 12/06 Q1012=
201011230930 METAR LPPR 230930Z 10006KT CAVOK 11/06 Q1012=
201011230900 METAR LPPR 230900Z 10007KT CAVOK 10/05 Q1012=
201011230830 METAR LPPR 230830Z 10008KT CAVOK 09/05 Q1012=
201011230800 METAR LPPR 230800Z 11008KT CAVOK 08/05 Q1012=
201011230730 METAR LPPR 230730Z 10009KT CAVOK 08/05 Q1012=
201011230700 METAR LPPR 230700Z 11009KT CAVOK 08/06 Q1012=
201011230630 METAR LPPR 230630Z 11006KT 070V140 CAVOK 08/06 Q1012=
201011230600 METAR LPPR 230600Z VRB03KT CAVOK 08/06 Q1012=
201011230530 METAR LPPR 230530Z 10004KT 060V130 CAVOK 08/06 Q1012=
201011230500 METAR LPPR 230500Z 09004KT 060V130 CAVOK 08/06 Q1012=
201011230430 METAR LPPR 230430Z 09005KT 060V120 CAVOK 08/06 Q1012=
201011230400 METAR LPPR 230400Z VRB03KT 9999 FEW030 SCT065 08/06 Q1012=
201011230330 METAR LPPR 230330Z 11007KT 9999 FEW030 SCT065 09/06 Q1012=
201011230300 METAR LPPR 230300Z 10007KT 9999 FEW030 BKN060 09/07 Q1012=
201011230230 METAR LPPR 230230Z 10008KT 9999 FEW030 BKN060 09/07 Q1012=
201011230200 METAR LPPR 230200Z 10008KT 9999 FEW035 BKN065 09/07 Q1012=
201011230130 METAR LPPR 230130Z 10008KT 9999 FEW035 SCT065 09/07 Q1013=
201011230100 METAR LPPR 230100Z 10008KT 9999 FEW030 BKN065 09/07 Q1013=
201011230030 METAR LPPR 230030Z 11007KT 9999 FEW030 SCT070 09/07 Q1013=
201011230000 METAR LPPR 230000Z 10007KT CAVOK 09/07 Q1013=
201011222330 METAR LPPR 222330Z 10007KT CAVOK 09/07 Q1013=
201011222300 METAR LPPR 222300Z 10007KT 9999 FEW025 SCT250 10/07 Q1013=
201011222230 METAR LPPR 222230Z 10007KT 9999 FEW025 BKN250 10/08 Q1013=
201011222200 METAR LPPR 222200Z 10005KT 9999 FEW030 BKN250 10/08 Q1013=
201011222130 METAR LPPR 222130Z 11006KT 9999 FEW030 BKN250 10/08 Q1013=
201011222100 METAR LPPR 222100Z 11006KT 9999 FEW020 SCT030 BKN250 11/08
                        Q1012=
201011222030 METAR LPPR 222030Z 11006KT 9999 FEW020 SCT030 11/08 Q1012=
201011222000 METAR LPPR 222000Z 11006KT 9999 FEW020 SCT030 11/09 Q1012=
201011221930 METAR LPPR 221930Z 11006KT 9999 SCT020 SCT060 11/09 Q1012=
201011221900 METAR LPPR 221900Z 11005KT 9999 FEW020 SCT060 11/08 Q1012=
201011221830 METAR LPPR 221830Z 11005KT 9999 FEW020 SCT250 11/09 Q1012=
201011221800 METAR LPPR 221800Z 11003KT 9999 FEW020 SCT025 12/09 Q1012=
201011221730 METAR LPPR 221730Z VRB02KT 9999 FEW020 SCT025 BKN060 12/09
                        Q1012=
201011221700 METAR LPPR 221700Z VRB02KT 9999 FEW020 SCT030 BKN250 13/08
                        Q1012=
201011221630 METAR LPPR 221630Z 20004KT 170V230 9999 SCT020 BKN250 14/08
                        Q1012=
201011221600 METAR LPPR 221600Z VRB02KT 9999 BKN020 SCT250 14/09 Q1012=
201011221530 METAR LPPR 221530Z VRB03KT 9999 BKN020 14/09 Q1012=
201011221500 METAR LPPR 221500Z VRB03KT 9999 BKN020 14/09 Q1012=
201011221430 METAR LPPR 221430Z VRB02KT 9999 BKN020 FEW025TCU SCT040 15/09
                        Q1012=
201011221400 METAR LPPR 221400Z 15004KT 040V210 9999 BKN020 SCT040 15/09
                        Q1012=
201011221330 METAR LPPR 221330Z 22005KT 180V250 9999 SCT017 SCT040 15/09
                        Q1012=
201011221300 METAR LPPR 221300Z 18009KT 9999 SCT015 SCT040 15/10 Q1012=
201011221230 METAR LPPR 221230Z 20008KT 9999 SCT015 BKN040 13/10 Q1013=
201011221200 METAR LPPR 221200Z 19007KT 9999 SCT015 SCT040 14/10 Q1013=
201011221130 METAR LPPR 221130Z 20006KT 170V230 9999 FEW015 SCT040 BKN060
                        14/10 Q1013=
201011221100 METAR LPPR 221100Z 18005KT 9999 FEW017 BKN060 13/11 Q1013=
201011221030 METAR LPPR 221030Z 16004KT 130V190 9999 FEW015 FEW020TCU
                        BKN060 13/11 Q1013=
201011221000 METAR LPPR 221000Z 13004KT 9999 FEW015 FEW020TCU SCT060 12/10
                        Q1013=
201011220930 METAR LPPR 220930Z 11006KT 9999 FEW015 FEW020TCU SCT070 11/09
                        Q1013=
201011220900 METAR LPPR 220900Z 12006KT 9999 FEW002 FEW020TCU SCT070 10/09
                        Q1013=
201011220830 METAR LPPR 220830Z 13005KT 9999 FEW002 FEW002TCU BKN070 09/08
                        Q1013=
201011220800 METAR LPPR 220800Z 12006KT 9999 FEW002 FEW020TCU BKN070 09/08
                        Q1012=
201011220730 METAR LPPR 220730Z 14005KT 9999 FEW002 SCT040 BKN080 09/08
                        Q1012=
201011220700 METAR LPPR 220700Z VRB03KT 8000 FEW001 SCT030 BKN070 08/08
                        Q1012=
201011220630 METAR LPPR 220630Z 13005KT 9000 FEW018 SCT030 BKN080 09/08
                        Q1012=
201011220600 METAR LPPR 220600Z 11004KT 040V140 7000 -SHRA FEW018 SCT030
                        BKN080 09/08 Q1012=
201011220530 METAR LPPR 220530Z 11006KT 9000 FEW030 SCT080 08/08 Q1012=
201011220500 METAR LPPR 220500Z 11006KT 8000 FEW017 SCT030 BKN070 09/08
                        Q1012=
201011220430 METAR LPPR 220430Z 10005KT 070V130 9000 -SHRA FEW017 SCT035
                        BKN070 09/08 Q1012=
201011220400 METAR LPPR 220400Z 15004KT 100V200 9999 FEW017 SCT030 BKN070
                        09/08 Q1012=
201011220330 METAR LPPR 220330Z 11006KT 8000 FEW017 SCT027 BKN070 08/08
                        Q1012=
201011220300 METAR LPPR 220300Z VRB03KT 8000 FEW017 SCT030 BKN070 08/07
                        Q1012=
201011220230 METAR LPPR 220230Z VRB01KT 6000 FEW017 SCT030 BKN070 08/07
                        Q1012=
201011220200 METAR LPPR 220200Z 11002KT 7000 -SHRA FEW015 SCT025 BKN060
                        07/07 Q1012=
201011220130 METAR LPPR 220130Z 16001KT 8000 FEW040 08/07 Q1012=
201011220100 METAR LPPR 220100Z 15004KT 120V210 9999 FEW025 SCT040 09/08
                        Q1012=
201011220030 METAR LPPR 220030Z VRB02KT 8000 -SHRA FEW020 SCT035 BKN060
                        09/08 Q1013=
201011220000 METAR LPPR 220000Z VRB01KT 9999 FEW004 SCT030 BKN070 09/08
                        Q1013=
201011212330 METAR LPPR 212330Z VRB02KT 9999 FEW025 SCT050 BKN070 09/08
                        Q1013=
201011212300 METAR LPPR 212300Z 00000KT 9999 FEW025 SCT035 BKN100 09/08
                        Q1013=
201011212230 METAR LPPR 212230Z VRB02KT 9999 FEW017 SCT035 09/07 Q1013=
201011212200 METAR LPPR 212200Z VRB01KT 9999 FEW017 BKN045 BKN070 10/08
                        Q1013=
201011212130 METAR LPPR 212130Z 04005KT 010V080 4000S VCSH FEW017 FEW020CB
                        BKN035 10/08 Q1013=
201011212100 METAR LPPR 212100Z 00000KT 9999 FEW017 SCT030 09/08 Q1012=
201011212030 METAR LPPR 212030Z VRB02KT 9999 FEW017 FEW020TCU SCT070 10/08
                        Q1012=
201011212000 METAR LPPR 212000Z VRB01KT 9999 FEW017 FEW020CB SCT100 10/08
                        Q1012=
201011211930 METAR LPPR 211930Z VRB03KT 9999 FEW017 FEW020CB SCT030 BKN070
                        11/09 Q1012=
201011211900 METAR LPPR 211900Z 00000KT 8000 -SHRA SCT017 SCT020CB SCT030
                        BKN070 10/09 Q1012=
201011211830 METAR LPPR 211830Z VRB01KT 8000 -SHRA SCT017 FEW020CB BKN045
                        10/09 Q1012=
201011211800 METAR LPPR 211800Z VRB01KT 9999 FEW017 FEW020CB SCT045 10/09
                        Q1012=
201011211730 METAR LPPR 211730Z 34004KT 9999 SCT015 FEW020CB BKN035 11/09
                        Q1012=
201011211700 METAR LPPR 211700Z 32006KT 280V350 5000 VCSH SCT015 SCT020CB
                        BKN045 12/09 Q1012=
201011211630 METAR LPPR 211630Z 33010KT 9999 FEW015 SCT020CB 13/08 Q1012=
201011211600 METAR LPPR 211600Z 32008KT 9999 SCT015 FEW020CB 13/09 Q1012
                        RERA=
201011211530 METAR LPPR 211530Z 29010G23KT 260V330 3500N SHRA SCT015 SCT020CB
                        BKN100 12/09 Q1012 WS ALL RWY=
201011211500 METAR LPPR 211500Z 33012KT 9999 SCT015 FEW020 SCT050 14/10
                        Q1012 RERA=
201011211430 METAR LPPR 211430Z 33014KT 290V350 9999 SCT015 FEW020CB 15/10
                        Q1012=
201011211400 METAR LPPR 211400Z 32015KT 9999 SCT015 FEW017TCU FEW020CB
                        15/08 Q1012=
201011211330 METAR LPPR 211330Z 31013KT 9999 SCT015 FEW017TCU FEW020CB
                        15/09 Q1012=
201011211300 METAR LPPR 211300Z 32011KT 9999 SCT015 FEW017TCU FEW020CB
                        15/10 Q1012=
201011211230 METAR LPPR 211230Z 31012KT 280V340 9999 SCT015 FEW020CB 15/10
                        Q1013=
201011211200 METAR LPPR 211200Z 32013KT 9999 SCT015 FEW017TCU FEW020CB
                        15/09 Q1013=
201011211130 METAR LPPR 211130Z 32011KT 9999 SCT015 FEW017TCU FEW020CB
                        15/10 Q1014=
201011211100 METAR LPPR 211100Z 33007KT 300V360 9999 BKN015 FEW020CB 14/11
                        Q1014=
201011211030 METAR LPPR 211030Z 31012KT 9999 BKN015 FEW020CB 14/10 Q1014=
201011211000 METAR LPPR 211000Z 35004KT 330V030 9999 BKN015 FEW020CB 13/11
                        Q1014=
201011210930 METAR LPPR 210930Z 35005KT 8000 FEW009 BKN015 FEW020CB 12/11
                        Q1014=
201011210900 METAR LPPR 210900Z 35006KT 7000 -SHRA FEW009 BKN015 FEW020CB
                        12/11 Q1014=
201011210830 METAR LPPR 210830Z 35011G21KT 7000 -SHRA SCT009 BKN013 FEW020CB
                        12/11 Q1013=
201011210800 METAR LPPR 210800Z 34009KT 7000 -SHRA SCT009 BKN013 FEW020CB
                        12/11 Q1013=
201011210730 METAR LPPR 210730Z 34011KT 7000 -SHRA BKN013 FEW017TCU FEW020CB
                        12/11 Q1013=
201011210700 METAR LPPR 210700Z 33018KT 290V350 9999 -SHRA BKN013 FEW017TCU
                        FEW020CB 13/11 Q1013=
201011210630 METAR LPPR 210630Z 32014G25KT 8000 -SHRA BKN013 FEW017TCU
                        FEW020CB 13/11 Q1012=
201011210600 METAR LPPR 210600Z 33013KT 300V360 9999 BKN013 FEW017TCU
                        FEW020CB 13/11 Q1012=
201011210530 METAR LPPR 210530Z 33014G24KT 9999 -SHRA BKN013 FEW017TCU
                        FEW020CB 12/11 Q1012 WS ALL RWY=
201011210500 METAR LPPR 210500Z 32017G27KT 9999 BKN012 FEW017TCU FEW020CB
                        13/11 Q1012=
201011210430 METAR LPPR 210430Z 33016KT 9999 BKN013 FEW017TCU FEW020CB
                        13/11 Q1012=
201011210400 METAR LPPR 210400Z 33011KT 6000 -SHRA SCT012 FEW017TCU FEW020CB
                        12/11 Q1012=
201011210330 METAR LPPR 210330Z 34009KT 8000 -SHRA SCT013 FEW017TCU FEW020CB
                        12/11 Q1012=
201011210300 METAR LPPR 210300Z 31012KT 270V330 9999 BKN013 FEW017TCU
                        FEW020CB 12/11 Q1013 RERA WS ALL
                        RWY=
201011210230 METAR LPPR 210230Z 34019KT 4000 SHRA BR BKN015 FEW017TCU
                        FEW020CB 12/10 Q1013 WS ALL RWY=
201011210200 METAR LPPR 210200Z 31015KT 280V350 9999 SCT017 FEW020TCU
                        SCT030 14/10 Q1012 WS ALL RWY=
201011210130 METAR LPPR 210130Z 31012G22KT 270V330 9999 SCT017 FEW020TCU
                        SCT030 13/10 Q1013=
201011210100 METAR LPPR 210100Z 31014KT 9999 SCT017 FEW020TCU SCT030 12/11
                        Q1013 RERA=
201011210030 METAR LPPR 210030Z 30011G23KT 240V330 3500 SHRA BR BKN015
                        FEW020TCU 12/11 Q1013 WS ALL RWY=
201011210000 METAR LPPR 210000Z 31014KT 9999 SCT017 FEW020TCU SCT030 14/09
                        Q1013 WS ALL RWY=
201011202330 METAR LPPR 202330Z 31016KT 9999 SCT017 FEW020TCU SCT030 14/09
                        Q1014 WS ALL RWY=
201011202300 METAR LPPR 202300Z 30014KT 270V330 9999 FEW017 SCT030 14/08
                        Q1014 WS ALL RWY=
201011202230 METAR LPPR 202230Z 31014KT 9999 FEW017 SCT030 14/06 Q1014=
201011202200 METAR LPPR 202200Z 31014KT 9999 FEW017 SCT060 14/07 Q1014=
201011202130 METAR LPPR 202130Z 31013KT 9999 FEW017 SCT060 14/07 Q1014=
201011202100 METAR LPPR 202100Z 31013KT 9999 FEW017 SCT250 14/07 Q1014=
201011202030 METAR LPPR 202030Z 31012KT 9999 FEW017 14/07 Q1014=
201011202000 METAR LPPR 202000Z 31013KT 9999 FEW017 SCT060 14/08 Q1014=
201011201930 METAR LPPR 201930Z 31012KT 270V330 9999 FEW017 SCT060 14/07
                        Q1014=
201011201900 METAR LPPR 201900Z 32013KT 9999 FEW017 FEW020TCU 14/06 Q1014
                        WS ALL RWY=
201011201830 METAR LPPR 201830Z 32014KT 9999 SCT017 FEW020 SCT060 14/07
                        Q1014=
201011201800 METAR LPPR 201800Z 32011KT 290V350 9999 SCT017 FEW020TCU
                        SCT060 14/08 Q1014=
201011201730 METAR LPPR 201730Z 32013KT 9999 FEW017 FEW020TCU SCT060 14/07
                        Q1014=
201011201700 METAR LPPR 201700Z 31012KT 270V340 9999 FEW017 FEW020TCU
                        SCT060 14/07 Q1014=
201011201630 METAR LPPR 201630Z 32011KT 9999 SCT017 FEW020TCU 14/08 Q1014=
201011201600 METAR LPPR 201600Z 32012KT 9999 FEW017 FEW020CB 15/08 Q1013=
201011201530 METAR LPPR 201530Z 32015KT 9999 FEW017 FEW020CB 15/08 Q1013=
201011201500 METAR LPPR 201500Z 32013G25KT 290V350 9999 SCT017 FEW020CB
                        SCT060 14/10 Q1013 RERA WS ALL RWY=
201011201430 METAR LPPR 201430Z 31014G24KT 270V340 4000 SHRA FEW009 SCT017
                        SCT020CB 15/10 Q1013 WS ALL RWY=
201011201400 METAR LPPR 201400Z 33013KT 290V350 9999 SCT017 FEW020CB 15/09
                        Q1013=
201011201330 METAR LPPR 201330Z 32014KT 9999 BKN017TCU FEW020CB 16/10
                        Q1013=
201011201300 METAR LPPR 201300Z 31015KT 8000 -SHRA SCT017TCU FEW020CB
                        16/10 Q1014=
201011201230 METAR LPPR 201230Z 32011G21KT 270V340 9999 SCT017TCU FEW020CB
                        15/11 Q1014=
201011201200 METAR LPPR 201200Z 30008KT 260V340 9999 SCT017TCU FEW020CB
                        16/11 Q1014=
201011201130 METAR LPPR 201130Z 30011KT 270V330 9999 SCT017TCU FEW020CB
                        14/11 Q1014=
201011201100 METAR LPPR 201100Z 29010KT 260V330 9999 -SHRA SCT017TCU FEW020CB
                        14/10 Q1014=
201011201030 METAR LPPR 201030Z 34005KT 9999 SCT017TCU FEW020CB 14/11
                        Q1014=
201011201000 METAR LPPR 201000Z 31010KT 270V340 9999 FEW015 SCT017TCU
                        FEW020CB 15/11 Q1014=
201011200930 METAR LPPR 200930Z 33005KT 310V010 9999 FEW015 FEW017TCU
                        FEW020CB 12/10 Q1014 RERA=
201011200900 METAR LPPR 200900Z 31007KT 270V330 4500N VCSH BR SCT015 SCT017TCU
                        FEW020CB 14/10 Q1014=
201011200830 METAR LPPR 200830Z 31009KT 9999 SCT015 FEW017TCU FEW020CB
                        13/09 Q1014=
201011200800 METAR LPPR 200800Z 30008KT 260V330 9999 BKN015 FEW017TCU
                        FEW020CB 14/09 Q1013=
201011200730 METAR LPPR 200730Z 30010KT 9999 SCT017 14/09 Q1013=
201011200700 METAR LPPR 200700Z 30013KT 270V330 9999 SCT017 SCT030 14/10
                        Q1013=
201011200630 METAR LPPR 200630Z 30008KT 250V020 9999 SCT017 SCT030 14/10
                        Q1012=
201011200600 METAR LPPR 200600Z 30008KT 260V340 9999 SCT017 14/08 Q1012=
201011200530 METAR LPPR 200530Z 30008KT 270V330 9999 SCT017 14/09 Q1012=
201011200500 METAR LPPR 200500Z 30008KT 270V330 9999 SCT017 14/09 Q1012=
201011200430 METAR LPPR 200430Z 30009KT 270V330 9999 SCT017 14/09 Q1012=
201011200400 METAR LPPR 200400Z 30011KT 270V330 9999 FEW017 14/09 Q1012=
201011200330 METAR LPPR 200330Z 29010KT 260V330 9999 -SHRA SCT017 SCT030
                        15/10 Q1011 WS ALL RWY=
201011200300 METAR LPPR 200300Z 28008KT 260V320 9999 BKN017 14/09 Q1011=
201011200230 METAR LPPR 200230Z 29008KT 240V330 9999 FEW017 SCT025 14/08
                        Q1011=
201011200200 METAR LPPR 200200Z 30010KT 260V330 9999 FEW015 SCT070 14/08
                        Q1011=
201011200130 METAR LPPR 200130Z 29010G21KT 260V330 9999 SCT025 BKN070
                        15/09 Q1011=
201011200100 METAR LPPR 200100Z 29008KT 250V320 9999 SCT017 BKN030 BKN070
                        15/11 Q1011=
201011200030 METAR LPPR 200030Z 30008KT 240V340 9999 SCT017 BKN025 14/12
                        Q1011=
201011200000 METAR LPPR 200000Z 29009G19KT 260V320 9999 FEW017 BKN025
                        14/11 Q1010=
201011192330 METAR LPPR 192330Z 27007KT 230V300 9999 FEW015 BKN030 13/12
                        Q1010=
201011192300 METAR LPPR 192300Z 31014KT 270V330 5000 -RA BR BKN003 BKN008
                        13/12 Q1011=
201011192230 METAR LPPR 192230Z 30012KT 270V330 5000 -RA BR BKN003 BKN005
                        13/12 Q1010=
201011192200 METAR LPPR 192200Z 29006KT 250V340 5000 RA BR BKN004 BKN006
                        14/13 Q1010=
201011192130 METAR LPPR 192130Z 28010G21KT 240V340 5000 +RA BR BKN004
                        BKN006 14/13 Q1011 WS ALL RWY=
201011192100 METAR LPPR 192100Z 20020KT 5000 RA BR BKN004 BKN006 15/14
                        Q1009 WS ALL RWY=
201011192030 METAR LPPR 192030Z 19023KT 8000 -RA SCT004 BKN008 15/14 Q1010
                        WS ALL RWY=
201011192000 METAR LPPR 192000Z 19019G29KT 8000 BKN005 BKN011 14/14 Q1010
                        WS ALL RWY=
201011191930 METAR LPPR 191930Z 18019KT 7000 -RA BKN006 BKN015 14/13 Q1011=
201011191900 METAR LPPR 191900Z 18019KT 8000 SCT005 BKN008 14/13 Q1011
                        WS ALL RWY=
201011191830 METAR LPPR 191830Z 18017KT 8000 BKN005 BKN008 14/14 Q1011
                        WS ALL RWY=
201011191800 METAR LPPR 191800Z 18017KT 5000 BR BKN004 BKN012 FEW017CB
                        14/14 Q1011 WS ALL RWY=
201011191730 METAR LPPR 191730Z 19016G30KT 160V230 5000 -SHRA BKN004 BKN012
                        FEW017CB 14/13 Q1011 RERA WS ALL
                        RWY=
201011191700 METAR LPPR 191700Z 18015KT 5000 SHRA BKN004 BKN012 FEW017CB
                        14/13 Q1011 WS ALL RWY=
201011191630 METAR LPPR 191630Z 18014KT 2000 SHRA BKN004 BKN012 FEW017CB
                        14/13 Q1012=
201011191600 METAR LPPR 191600Z 17014KT 8000 -SHRA SCT004 BKN013 FEW020CB
                        14/13 Q1011=
201011191530 METAR LPPR 191530Z 18008KT 160V220 8000 -SHRA SCT004 BKN013
                        FEW020CB 14/13 Q1012=
201011191500 METAR LPPR 191500Z 17013KT 9999 FEW008 SCT013 BKN040 14/13
                        Q1012=
201011191430 METAR LPPR 191430Z 17014KT 8000 -SHRA SCT008 SCT013 BKN030
                        14/13 Q1012=
201011191400 METAR LPPR 191400Z 18017KT 8000 SCT008 SCT013 BKN020 14/13
                        Q1012=
201011191330 METAR LPPR 191330Z 18016KT 9999 SCT007 SCT013 BKN060 14/13
                        Q1013=
201011191300 METAR LPPR 191300Z 17014KT 9999 BKN007 BKN012 13/13 Q1013=
201011191230 METAR LPPR 191230Z 17013KT 5000 -RA BR SCT005 SCT007 BKN012
                        13/12 Q1013=
201011191200 METAR LPPR 191200Z 18014KT 9000 SCT006 SCT013 FEW017TCU BKN060
                        13/12 Q1013=
201011191130 METAR LPPR 191130Z 17014KT 8000 -SHRA SCT007 SCT013 FEW017TCU
                        BKN070 13/12 Q1013=
201011191100 METAR LPPR 191100Z 17016KT 9999 FEW005 SCT009 BKN015 13/12
                        Q1014=
201011191030 METAR LPPR 191030Z 17016KT 9000 SCT006 BKN013 12/12 Q1014=
201011191000 METAR LPPR 191000Z 17013KT 4000 -DZ BR SCT004 BKN007 12/12
                        Q1014 RERA=
201011190930 METAR LPPR 190930Z 16012KT 4000 RADZ BR FEW004 BKN006 BKN013
                        12/11 Q1014=
201011190900 METAR LPPR 190900Z 17012KT 7000 -RA SCT006 SCT009 BKN013
                        12/11 Q1014=
201011190830 METAR LPPR 190830Z 16013KT 7000 -RA SCT009 SCT011 BKN020
                        12/11 Q1014 RERA=
201011190800 METAR LPPR 190800Z 15010KT 5000 RA BR SCT007 BKN018 BKN022
                        11/11 Q1013=
201011190730 METAR LPPR 190730Z 15011KT 5000 RA BR SCT007 BKN017 BKN050
                        11/11 Q1013=
201011190700 METAR LPPR 190700Z 14008KT 5000 -RA BR SCT013 BKN040 BKN070
                        11/10 Q1013=
201011190630 METAR LPPR 190630Z 15012KT 5000 -RA BR SCT030 BKN040 BKN070
                        11/10 Q1013=
201011190600 METAR LPPR 190600Z 16014KT 7000 -RA BR FEW012 SCT037 BKN070
                        11/10 Q1013=
201011190530 METAR LPPR 190530Z 16012KT 7000 -RA BR FEW011 SCT035 BKN150
                        12/10 Q1014=
201011190500 METAR LPPR 190500Z 17013KT 7000 -RA BR FEW013 SCT015 BKN034
                        12/11 Q1014=
201011190430 METAR LPPR 190430Z 16010KT 8000 -RA BR FEW020 BKN040 BKN070
                        12/11 Q1014=
201011190400 METAR LPPR 190400Z 14007KT 9999 -RA SCT030 BKN040 BKN070
                        12/10 Q1014=
201011190330 METAR LPPR 190330Z 15009KT 120V180 5000 -RA BR FEW015 BKN030
                        BKN070 12/11 Q1014=
201011190300 METAR LPPR 190300Z 19009KT 8000 -RA BR FEW015 SCT025 BKN033
                        13/10 Q1015=
201011190230 METAR LPPR 190230Z 14007KT 9999 BKN045 BKN070 13/10 Q1015=
201011190200 METAR LPPR 190200Z 14007KT CAVOK 12/10 Q1015=
201011190130 METAR LPPR 190130Z 14006KT CAVOK 12/10 Q1015=
201011190100 METAR LPPR 190100Z 13006KT 9999 FEW048 SCT070 BKN080 12/10
                        Q1016=
201011190030 METAR LPPR 190030Z 13005KT CAVOK 12/10 Q1016=
201011190000 METAR LPPR 190000Z 12006KT 9999 SCT045 BKN070 BKN200 12/10
                        Q1016=
201011182330 METAR LPPR 182330Z 12005KT 9999 FEW040 BKN050 BKN070 12/10
                        Q1016=
201011182300 METAR LPPR 182300Z 13005KT 9999 SCT040 BKN070 13/10 Q1017=
201011182230 METAR LPPR 182230Z 13005KT 8000 SCT040 BKN070 12/11 Q1017=
201011182200 METAR LPPR 182200Z 13004KT 9999 SCT040 BKN070 12/11 Q1017=
201011182130 METAR LPPR 182130Z 12005KT CAVOK 12/11 Q1017=
201011182100 METAR LPPR 182100Z 12005KT CAVOK 12/11 Q1017=
201011182030 METAR LPPR 182030Z 13004KT 9999 SCT030 BKN070 13/10 Q1017=
201011182000 METAR LPPR 182000Z 12004KT 9999 FEW017 BKN070 13/10 Q1018=
201011181930 METAR LPPR 181930Z 12004KT 9999 FEW017 SCT040 BKN070 13/10
                        Q1018=
201011181900 METAR LPPR 181900Z 14004KT 9999 FEW017 SCT040 BKN070 13/11
                        Q1018=
201011181830 METAR LPPR 181830Z 18003KT 9999 SCT017 BKN070 13/10 Q1018=
201011181800 METAR LPPR 181800Z 21006KT 180V240 9999 SCT015 SCT020 BKN070
                        14/11 Q1018=
201011181730 METAR LPPR 181730Z 19007KT 160V220 9999 SCT015 SCT020 BKN070
                        14/12 Q1018=
201011181700 METAR LPPR 181700Z 19008KT 9999 SCT015 SCT025 BKN070 14/12
                        Q1018=
201011181630 METAR LPPR 181630Z 19009KT 9999 SCT015 SCT030 BKN070 14/12
                        Q1018=
201011181600 METAR LPPR 181600Z 20007KT 9999 SCT015 FEW020TCU BKN070 15/12
                        Q1018=
201011181530 METAR LPPR 181530Z 20007KT 9999 SCT015 FEW020TCU BKN070 15/11
                        Q1018=
201011181500 METAR LPPR 181500Z 21008KT 180V240 9999 SCT017 FEW020TCU
                        15/12 Q1017=
201011181430 METAR LPPR 181430Z 19008KT 9999 SCT017 FEW020TCU 16/12 Q1017=
201011181400 METAR LPPR 181400Z 20008KT 9999 BKN017 FEW020TCU 16/11 Q1018=
201011181330 METAR LPPR 181330Z 18007KT 9999 BKN017 FEW020TCU 15/11 Q1018=
201011181300 METAR LPPR 181300Z 18008KT 9999 SCT017 FEW020TCU 15/12 Q1018=
201011181230 METAR LPPR 181230Z 18008KT 9999 BKN017 FEW020TCU SCT030 15/11
                        Q1018=
201011181200 METAR LPPR 181200Z 18007KT 9999 FEW009 SCT017 BKN030 14/12
                        Q1019=
201011181130 METAR LPPR 181130Z 17007KT 9999 FEW017 SCT040 BKN060 14/12
                        Q1019=
201011181100 METAR LPPR 181100Z 17007KT 9999 FEW017 SCT040 BKN060 13/13
                        Q1019=
201011181030 METAR LPPR 181030Z 14004KT 110V170 9999 SCT017 BKN040 12/12
                        Q1019=
201011181000 METAR LPPR 181000Z VRB02KT 5000 -SHRA BR SCT015 BKN020 12/11
                        Q1019=
201011180930 METAR LPPR 180930Z 15005KT 6000 -SHRA SCT017 FEW020TCU BKN030
                        11/11 Q1018=
201011180900 METAR LPPR 180900Z 11004KT 060V140 8000 SCT017 FEW020TCU
                        SCT040 11/10 Q1018=
201011180830 METAR LPPR 180830Z 13005KT 8000 SCT017 FEW020TCU SCT040 10/10
                        Q1018=
201011180800 METAR LPPR 180800Z 11005KT 8000 FEW017 FEW020TCU BKN030 10/09
                        Q1018=
201011180730 METAR LPPR 180730Z 11005KT 7000 FEW017 BKN030 10/09 Q1018=
201011180700 METAR LPPR 180700Z VRB02KT 9000 -SHRA FEW017 SCT030 BKN060
                        10/10 Q1017=
201011180630 METAR LPPR 180630Z 11005KT 7000 -SHRA FEW017 SCT025 BKN060
                        10/09 Q1017=
201011180600 METAR LPPR 180600Z 11006KT 8000 FEW017 SCT025 BKN060 10/09
                        Q1017=
201011180530 METAR LPPR 180530Z 11007KT 8000 FEW017 SCT025 10/09 Q1017
                        RERA=
201011180500 METAR LPPR 180500Z VRB03KT 6000 SHRA SCT017 BKN025 11/10
                        Q1017=
201011180430 METAR LPPR 180430Z 13005KT 9999 FEW017 SCT030 BKN070 10/09
                        Q1017=
201011180400 METAR LPPR 180400Z 12006KT 9999 FEW017 SCT030 BKN070 10/09
                        Q1017=
201011180330 METAR LPPR 180330Z 15002KT 9999 FEW017 SCT040 BKN070 10/09
                        Q1017=
201011180300 METAR LPPR 180300Z VRB02KT 9999 FEW017 SCT040 10/10 Q1017=
201011180230 METAR LPPR 180230Z 11005KT 7000 -SHRA SCT017 SCT025 10/09
                        Q1017=
201011180200 METAR LPPR 180200Z 15002KT 8000 FEW020 SCT070 10/09 Q1017=
201011180130 METAR LPPR 180130Z 12006KT 9999 FEW020 BKN060 10/09 Q1017=
201011180100 METAR LPPR 180100Z VRB02KT 9999 FEW020 SCT030 BKN060 10/09
                        Q1017=
201011180030 METAR LPPR 180030Z 08004KT 020V120 8000 -SHRA SCT020 SCT030
                        10/09 Q1017=
201011180000 METAR LPPR 180000Z VRB01KT 9999 SCT020 SCT030 10/08 Q1017=
201011172330 METAR LPPR 172330Z 00000KT 9999 SCT020 BKN030 11/09 Q1017=
201011172300 METAR LPPR 172300Z VRB03KT 9999 SCT020 BKN030 12/10 Q1017=
201011172230 METAR LPPR 172230Z 30007KT 250V340 9999 SCT020 SCT030 13/09
                        Q1017=
201011172200 METAR LPPR 172200Z VRB03KT 9999 SCT020 SCT030 12/09 Q1017=
201011172130 METAR LPPR 172130Z VRB03KT 9999 SCT020 SCT030 12/09 Q1017=
201011172100 METAR LPPR 172100Z 32007KT 9000 -SHRA SCT020 BKN030 12/09
                        Q1017=
201011172030 METAR LPPR 172030Z 31008KT 270V330 9999 SCT020 BKN030 14/09
                        Q1017=
201011172000 METAR LPPR 172000Z 32008KT 9999 SCT020 BKN030 13/08 Q1017=
201011171930 METAR LPPR 171930Z 31009KT 280V360 9999 SCT020 BKN030 14/08
                        Q1017=
201011171900 METAR LPPR 171900Z 32007KT 280V340 9999 SCT020 SCT030 13/07
                        Q1017=
201011171830 METAR LPPR 171830Z 29006KT 260V350 9999 FEW020 SCT040 13/08
                        Q1016=
201011171800 METAR LPPR 171800Z 30004KT 260V050 9999 SCT015 SCT040 13/08
                        Q1016=
201011171730 METAR LPPR 171730Z 33004KT 9999 SCT015 FEW020TCU 13/09 Q1016=
201011171700 METAR LPPR 171700Z 32007KT 280V340 9999 SCT015 FEW020TCU
                        14/09 Q1016=
201011171630 METAR LPPR 171630Z VRB03KT 9999 SCT015 FEW020TCU 14/10 Q1016=
201011171600 METAR LPPR 171600Z 28006KT 260V320 9999 SCT015 FEW020TCU
                        15/09 Q1016=
201011171530 METAR LPPR 171530Z 32009KT 280V340 9999 -SHRA FEW015 FEW020CB
                        SCT040 15/09 Q1016=
201011171500 METAR LPPR 171500Z 32010KT 9999 FEW015 FEW020TCU SCT040 16/09
                        Q1016=
201011171430 METAR LPPR 171430Z 31011KT 9999 FEW015 FEW017TCU SCT040 15/09
                        Q1016=
201011171400 METAR LPPR 171400Z 31009KT 260V350 9999 SCT020 SCT040 16/09
                        Q1016=
201011171330 METAR LPPR 171330Z 31010KT 270V340 9999 SCT020 SCT040 16/09
                        Q1016=
201011171300 METAR LPPR 171300Z 32010KT 280V350 9999 SCT015 SCT040 15/09
                        Q1016=
201011171230 METAR LPPR 171230Z 32012KT 290V350 9999 SCT015 SCT040 15/09
                        Q1016=
201011171200 METAR LPPR 171200Z 31009KT 270V350 9999 SCT015 SCT040 16/10
                        Q1016=
201011171130 METAR LPPR 171130Z 33008KT 9999 FEW015 SCT040 15/10 Q1016=
201011171100 METAR LPPR 171100Z 32011KT 280V340 9999 SCT015 FEW020TCU
                        16/10 Q1016=
201011171030 METAR LPPR 171030Z 33008KT 280V350 9999 SCT015 15/10 Q1016=
201011171000 METAR LPPR 171000Z 34004KT 260V360 9999 SCT015 15/10 Q1016=
201011170930 METAR LPPR 170930Z VRB02KT 9999 SCT015 SCT040 14/09 Q1015=
201011170900 METAR LPPR 170900Z VRB01KT 9999 FEW015 SCT040 12/10 Q1015=
201011170830 METAR LPPR 170830Z 00000KT 9999 FEW015 SCT040 11/10 Q1015=
201011170800 METAR LPPR 170800Z 03001KT 9999 FEW017 10/08 Q1014=
201011170730 METAR LPPR 170730Z 00000KT 9999 SCT030 10/08 Q1014=
201011170700 METAR LPPR 170700Z VRB02KT 9999 BKN030 11/09 Q1014=
201011170630 METAR LPPR 170630Z VRB02KT 9999 BKN030 10/09 Q1013=
201011170600 METAR LPPR 170600Z 35006KT 9999 BKN030 12/10 Q1013=
201011170530 METAR LPPR 170530Z 34006KT 9999 BKN030 SCT060 12/10 Q1012=
201011170500 METAR LPPR 170500Z 34010KT 9999 SCT030 12/11 Q1012=
201011170430 METAR LPPR 170430Z 33013KT 8000 FEW006 BKN020 13/12 Q1011=
201011170400 METAR LPPR 170400Z 33015KT 2000 -RA BR SCT003 SCT007 BKN013
                        13/13 Q1011 RERA WS ALL RWY=
201011170330 METAR LPPR 170330Z 29009G20KT 250V350 2000 RA BR BKN003 BKN005
                        13/13 Q1011 WS ALL RWY=
201011170300 METAR LPPR 170300Z 18022KT 2000 RA BR BKN003 BKN005 12/12
                        Q1010 WS ALL RWY=
201011170230 METAR LPPR 170230Z 17023KT 3000 -RA BR BKN003 BKN005 12/11
                        Q1010 WS ALL RWY=
201011170200 METAR LPPR 170200Z 17023G33KT 5000 -RA BR BKN006 BKN008 12/11
                        Q1010 RERA WS ALL RWY=
201011170130 METAR LPPR 170130Z 17022KT 7000 RA BKN008 BKN013 12/11 Q1011=
201011170100 METAR LPPR 170100Z 17021KT 7000 -RA BKN008 BKN013 12/11 Q1012=
201011170030 METAR LPPR 170030Z 17020KT 7000 -RA BKN008 BKN013 12/11 Q1013
                        RERA=
201011170000 METAR LPPR 170000Z 17021KT 6000 RA BKN009 BKN013 12/10 Q1013=
201011162330 METAR LPPR 162330Z 16022KT 6000 RA BKN013 BKN020 12/10 Q1014=
201011162300 METAR LPPR 162300Z 16020KT 8000 -RA SCT015 BKN020 12/10 Q1015=
201011162230 METAR LPPR 162230Z 16020KT 8000 -RA BKN017 BKN025 12/10 Q1015=
201011162200 METAR LPPR 162200Z 16017G27KT 8000 -RA BKN020 BKN030 12/10
                        Q1016=
201011162130 METAR LPPR 162130Z 16018KT 8000 -RA SCT025 BKN035 13/09 Q1016=
201011162100 METAR LPPR 162100Z 17018KT 8000 -RA BKN030 BKN040 13/09 Q1017=
201011162030 METAR LPPR 162030Z 17019KT 9999 BKN030 BKN045 13/09 Q1017=
201011162000 METAR LPPR 162000Z 17016KT 9999 SCT030 BKN040 14/09 Q1018=
201011161930 METAR LPPR 161930Z 17015KT 9999 SCT030 BKN040 14/08 Q1018=
201011161900 METAR LPPR 161900Z 17015KT 9999 SCT030 BKN040 14/08 Q1018=
201011161830 METAR LPPR 161830Z 17012KT 9999 SCT030 BKN040 14/09 Q1019=
201011161800 METAR LPPR 161800Z 16013KT 9999 FEW020 SCT030 BKN050 14/09
                        Q1019=
201011161730 METAR LPPR 161730Z 16012KT 9999 FEW020 SCT030 BKN050 14/09
                        Q1019=
201011161700 METAR LPPR 161700Z 17012KT 150V210 9999 FEW020 SCT030 BKN045
                        14/10 Q1020=
201011161630 METAR LPPR 161630Z 17012KT 9999 FEW025 SCT040 BKN250 14/10
                        Q1020=
201011161600 METAR LPPR 161600Z 17013KT 9999 FEW025 SCT040 BKN250 14/10
                        Q1021=
201011161530 METAR LPPR 161530Z 17012KT 9999 SCT040 BKN060 14/10 Q1021=
201011161500 METAR LPPR 161500Z 17012KT 9999 SCT025 BKN040 14/09 Q1021=
201011161430 METAR LPPR 161430Z 17015KT 9999 SCT025 BKN040 14/09 Q1022=
201011161400 METAR LPPR 161400Z 17013KT 9999 SCT030 BKN060 15/09 Q1022=
201011161330 METAR LPPR 161330Z 17012KT 9999 SCT030 BKN060 14/08 Q1023=
201011161300 METAR LPPR 161300Z 16009KT 9999 SCT030 BKN060 14/09 Q1024=
201011161230 METAR LPPR 161230Z 15009KT 9999 SCT040 BKN060 14/09 Q1024=
201011161200 METAR LPPR 161200Z 14007KT 9999 FEW025 BKN040 13/09 Q1025=
201011161130 METAR LPPR 161130Z 13006KT 9999 FEW025 BKN040 12/09 Q1025=
201011161100 METAR LPPR 161100Z 12007KT 9999 BKN040 12/09 Q1025=
201011161030 METAR LPPR 161030Z 12009KT 9999 BKN040 11/08 Q1026=
201011161000 METAR LPPR 161000Z 12009KT 9999 BKN040 11/08 Q1026=
201011160930 METAR LPPR 160930Z 11010KT 9999 SCT040 BKN250 10/08 Q1026=
201011160900 METAR LPPR 160900Z 11008KT 9999 FEW025 SCT060 BKN250 10/08
                        Q1026=
201011160830 METAR LPPR 160830Z 11007KT 9999 SCT025 BKN080 09/07 Q1026=
201011160800 METAR LPPR 160800Z 11007KT 9999 SCT025 BKN080 08/07 Q1026=
201011160730 METAR LPPR 160730Z 11008KT 9999 SCT025 BKN080 08/07 Q1026=
201011160700 METAR LPPR 160700Z 11007KT 9999 SCT020 BKN060 09/08 Q1026=
201011160630 METAR LPPR 160630Z 11006KT 9999 SCT025 SCT060 09/08 Q1026=
201011160600 METAR LPPR 160600Z 11006KT 9999 FEW025 SCT030 09/08 Q1025=
201011160530 METAR LPPR 160530Z 12005KT 090V150 8000 FEW025 SCT030 BKN060
                        09/08 Q1026=
201011160500 METAR LPPR 160500Z 11008KT 7000 SCT030 BKN060 09/08 Q1026=
201011160430 METAR LPPR 160430Z 10007KT 7000 SCT030 BKN070 10/08 Q1026=
201011160400 METAR LPPR 160400Z 11008KT 7000 SCT030 BKN070 10/09 Q1026=
201011160330 METAR LPPR 160330Z 11007KT 7000 SCT030 BKN070 10/09 Q1026=
201011160300 METAR LPPR 160300Z 11007KT 7000 SCT030 BKN070 10/09 Q1026=
201011160230 METAR LPPR 160230Z 10006KT 8000 SCT030 BKN070 10/09 Q1026=
201011160200 METAR LPPR 160200Z 11007KT 8000 SCT040 BKN070 10/09 Q1026=
201011160130 METAR LPPR 160130Z 10007KT 8000 FEW040 BKN070 10/09 Q1027=
201011160100 METAR LPPR 160100Z 11007KT 8000 FEW040 BKN070 10/09 Q1027=
201011160030 METAR LPPR 160030Z 11007KT 9999 FEW040 SCT070 10/09 Q1027=
201011160000 METAR LPPR 160000Z 11006KT CAVOK 10/09 Q1027=
201011152330 METAR LPPR 152330Z 11006KT CAVOK 10/09 Q1027=
201011152300 METAR LPPR 152300Z 11007KT CAVOK 10/09 Q1027=
201011152230 METAR LPPR 152230Z 11006KT CAVOK 10/09 Q1027=
201011152200 METAR LPPR 152200Z 11006KT CAVOK 11/10 Q1027=
201011152130 METAR LPPR 152130Z 11005KT CAVOK 10/10 Q1027=
201011152100 METAR LPPR 152100Z 00000KT CAVOK 10/09 Q1027=
201011152030 METAR LPPR 152030Z 00000KT CAVOK 10/09 Q1026=
201011152000 METAR LPPR 152000Z VRB02KT 9999 FEW035 11/10 Q1026=
201011151930 METAR LPPR 151930Z 15003KT 9999 FEW035 11/10 Q1026=
201011151900 METAR LPPR 151900Z 17003KT 9999 FEW017 FEW025TCU 11/10 Q1026=
201011151830 METAR LPPR 151830Z 00000KT 9999 SCT017 FEW025CB 11/10 Q1025=
201011151800 METAR LPPR 151800Z 00000KT 9999 SCT017 FEW025CB 12/10 Q1025=
201011151730 METAR LPPR 151730Z 00000KT 9999 SCT017 FEW025CB SCT040 13/10
                        Q1025=
201011151700 METAR LPPR 151700Z VRB01KT 9999 SCT017 FEW025CB SCT040 14/09
                        Q1024=
201011151630 METAR LPPR 151630Z VRB02KT 9999 SCT017 FEW025CB SCT040 14/10
                        Q1024=
201011151600 METAR LPPR 151600Z VRB03KT 8000 -SHRA SCT017 FEW025CB BKN040
                        14/10 Q1024=
201011151530 METAR LPPR 151530Z VRB03KT 9999 FEW017 FEW025CB BKN070 16/09
                        Q1023=
201011151500 METAR LPPR 151500Z VRB03KT 9999 FEW017 FEW025CB 16/09 Q1023=
201011151430 METAR LPPR 151430Z 21005KT 180V270 9999 FEW017 FEW025CB SCT040
                        15/10 Q1023=
201011151400 METAR LPPR 151400Z 20005KT 160V230 9999 FEW017 FEW025CB SCT040
                        15/11 Q1023=
201011151330 METAR LPPR 151330Z 20006KT 170V270 9999 FEW017 FEW025CB SCT040
                        14/10 Q1023=
201011151300 METAR LPPR 151300Z 21005KT 9999 SCT015 FEW023CB BKN030 14/10
                        Q1023=
201011151230 METAR LPPR 151230Z 19006KT 9999 FEW017 FEW023CB SCT030 14/10
                        Q1023=
201011151200 METAR LPPR 151200Z 20005KT 170V260 9999 FEW017 FEW023CB BKN030
                        14/10 Q1023=
201011151130 METAR LPPR 151130Z 17006KT 140V210 9999 FEW017 FEW025CB SCT030
                        14/10 Q1023=
201011151100 METAR LPPR 151100Z 15006KT 9999 FEW017 FEW025CB 13/11 Q1023=
201011151030 METAR LPPR 151030Z VRB03KT 8000 -SHRA FEW017 FEW020CB SCT035
                        12/10 Q1023=
201011151000 METAR LPPR 151000Z 15004KT 120V180 9999 FEW017 FEW025CB BKN040
                        13/10 Q1022=
201011150930 METAR LPPR 150930Z 12006KT 9999 FEW017 FEW025CB 11/09 Q1022=
201011150900 METAR LPPR 150900Z 12008KT 9999 FEW017 FEW025CB 10/08 Q1021=
201011150830 METAR LPPR 150830Z 11007KT 9999 FEW017 FEW025CB 09/07 Q1021=
201011150800 METAR LPPR 150800Z 08005KT 020V110 9999 -SHRA SCT017 FEW020CB
                        09/08 Q1020=
201011150730 METAR LPPR 150730Z 11008KT 8000 -SHRA SCT004 SCT017 BKN030
                        09/07 Q1020=
201011150700 METAR LPPR 150700Z 11008KT 9999 SCT017 FEW025CB 09/07 Q1019=
201011150630 METAR LPPR 150630Z 11009KT 9999 FEW017 SCT035 09/07 Q1019=
201011150600 METAR LPPR 150600Z VRB03KT 9999 SCT017 08/07 Q1018=
201011150530 METAR LPPR 150530Z 10005KT 9999 FEW017 SCT040 09/07 Q1018=
201011150500 METAR LPPR 150500Z 09008KT 030V120 8000 -SHRA FEW017 FEW025CB
                        SCT040 09/08 Q1018=
201011150430 METAR LPPR 150430Z 13007KT 090V160 8000 -SHRA FEW017 FEW025CB
                        SCT040 09/08 Q1017=
201011150400 METAR LPPR 150400Z VRB02KT 9999 FEW017 FEW025CB SCT040 09/08
                        Q1017=
201011150330 METAR LPPR 150330Z VRB03KT 9999 FEW017 FEW025CB SCT040 09/08
                        Q1017=
201011150300 METAR LPPR 150300Z 13006KT 8000 -SHRA FEW017 FEW025CB SCT040
                        09/07 Q1017=
201011150230 METAR LPPR 150230Z VRB03KT 9999 -SHRA FEW017 SCT040 09/07
                        Q1017=
201011150200 METAR LPPR 150200Z 09004KT 050V150 9999 FEW017 SCT040 09/07
                        Q1016=
201011150130 METAR LPPR 150130Z VRB06KT 9999 -SHRA SCT017 FEW025CB SCT040
                        10/07 Q1017=
201011150100 METAR LPPR 150100Z VRB01KT 9999 SCT017 09/07 Q1016=
201011150030 METAR LPPR 150030Z 10007KT 9999 SCT017 SCT040 09/07 Q1016=
201011150000 METAR LPPR 150000Z VRB04KT 9999 SCT017 11/07 Q1016=
201011142330 METAR LPPR 142330Z 30004KT 260V010 9999 SCT017 FEW025CB 10/07
                        Q1016=
201011142300 METAR LPPR 142300Z 00000KT 9999 FEW017 SCT040 10/07 Q1015=
201011142230 METAR LPPR 142230Z VRB03KT 9999 FEW017 SCT040 10/07 Q1015=
201011142200 METAR LPPR 142200Z 10001KT 9999 SCT017 SCT060 10/07 Q1015=
201011142130 METAR LPPR 142130Z 00000KT 9999 SCT017 10/06 Q1014=
201011142100 METAR LPPR 142100Z VRB02KT 9999 SCT017 10/07 Q1014=
201011142030 METAR LPPR 142030Z 01004KT 340V050 9999 SCT017 11/06 Q1014=
201011142000 METAR LPPR 142000Z 31007KT 270V350 9999 SCT017 12/05 Q1014=
201011141930 METAR LPPR 141930Z 32007KT 280V340 9999 SCT015 11/06 Q1013=
201011141900 METAR LPPR 141900Z 32008KT 9999 BKN015 FEW020CB 11/06 Q1013
                        RERA=
201011141830 METAR LPPR 141830Z 28007G17KT 230V360 3000 SHRA BR BKN015
                        FEW020CB 11/07 Q1013 WS ALL RWY=
201011141800 METAR LPPR 141800Z 30004KT 270V330 9999 SCT017 FEW020CB 12/06
                        Q1012=
201011141730 METAR LPPR 141730Z 31007KT 260V350 9999 SCT015 12/06 Q1012=
201011141700 METAR LPPR 141700Z VRB03KT 9999 SCT015 FEW017TCU FEW020CB
                        12/08 Q1012=
201011141630 METAR LPPR 141630Z 35007KT 9999 SCT015 FEW017TCU FEW020CB
                        13/08 Q1011=
201011141600 METAR LPPR 141600Z 30010KT 270V330 9999 BKN015 14/07 Q1011=
201011141530 METAR LPPR 141530Z 31008KT 9999 BKN015 13/08 Q1011=
201011141500 METAR LPPR 141500Z 30009KT 260V330 9999 SCT015 14/08 Q1010=
201011141430 METAR LPPR 141430Z 30009KT 270V330 9999 FEW017 FEW025CB SCT080
                        14/07 Q1010=
201011141400 METAR LPPR 141400Z 31010KT 9999 FEW015 FEW025CB BKN060 12/09
                        Q1010=
201011141330 METAR LPPR 141330Z 28006KT 260V320 7000 VCSH FEW015 FEW025CB
                        SCT040 BKN070 13/10 Q1010=
201011141300 METAR LPPR 141300Z 30007KT 260V330 9999 -SHRA FEW015 FEW025CB
                        SCT030 BKN070 12/09 Q1010=
201011141230 METAR LPPR 141230Z 30014G25KT 260V340 9999 FEW015 FEW025CB
                        SCT030 BKN070 13/10 Q1010=
201011141200 METAR LPPR 141200Z 27010KT 230V310 5000 VCSH SCT015 BKN030
                        13/09 Q1009=
201011141130 METAR LPPR 141130Z 23005KT 210V280 9999 FEW015 SCT040 BKN070
                        15/07 Q1009=
201011141100 METAR LPPR 141100Z 26005KT 220V310 9999 FEW015 SCT040 BKN070
                        16/06 Q1009=
201011141030 METAR LPPR 141030Z 27006KT 220V300 9999 SCT017 16/07 Q1009=
201011141000 METAR LPPR 141000Z 27004KT 230V300 9999 FEW017 15/07 Q1009=
201011140930 METAR LPPR 140930Z 31004KT 260V360 9999 SCT017 14/08 Q1009=
201011140900 METAR LPPR 140900Z 30005KT 260V330 9999 SCT017 14/08 Q1008=
201011140830 METAR LPPR 140830Z 31005KT 270V340 9999 FEW017 SCT035 13/07
                        Q1008=
201011140800 METAR LPPR 140800Z 32005KT 9999 FEW017 SCT035 12/08 Q1007=
201011140730 METAR LPPR 140730Z 31006KT 260V360 9999 FEW017 SCT030 13/08
                        Q1007=
201011140700 METAR LPPR 140700Z 31006KT 280V340 9999 FEW020 SCT030 13/09
                        Q1007=
201011140630 METAR LPPR 140630Z 00000KT 9999 FEW017 SCT030 BKN060 12/11
                        Q1006=
201011140600 METAR LPPR 140600Z 33003KT 9999 FEW017 SCT030 BKN060 12/11
                        Q1006=
201011140530 METAR LPPR 140530Z 30005KT 270V350 9999 FEW017 SCT030 BKN080
                        14/10 Q1006=
201011140500 METAR LPPR 140500Z 30006KT 270V330 9999 FEW017 SCT030 BKN080
                        14/10 Q1005=
201011140430 METAR LPPR 140430Z 32006KT 9999 FEW015 SCT030 BKN070 14/11
                        Q1005=
201011140400 METAR LPPR 140400Z 32009KT 9999 SCT017 BKN025 14/12 Q1005=
201011140330 METAR LPPR 140330Z 32012KT 290V350 9999 SCT015 BKN025 14/12
                        Q1005=
201011140300 METAR LPPR 140300Z 32009KT 9999 SCT013 BKN025 BKN080 14/13
                        Q1004=
201011140230 METAR LPPR 140230Z 30011KT 270V330 9999 FEW008 SCT013 BKN025
                        14/14 Q1004=
201011140200 METAR LPPR 140200Z 29009KT 250V330 4000 RA BR SCT004 SCT008
                        BKN015 14/14 Q1004=
201011140130 METAR LPPR 140130Z VRB03KT 7000 -RA SCT003 SCT015 BKN030
                        15/15 Q1004=
201011140100 METAR LPPR 140100Z VRB03KT 7000 -RA SCT002 SCT015 BKN030
                        15/15 Q1004=
201011140030 METAR LPPR 140030Z 23004KT 190V280 8000 -RA FEW003 BKN006
                        BKN030 15/15 Q1004=
201011140000 METAR LPPR 140000Z 27006KT 230V320 7000 RA BR SCT003 BKN009
                        BKN020 15/15 Q1003 RERA WS ALL RWY=
201011132330 METAR LPPR 132330Z 19022G32KT 170V240 3700N RA BR FEW002
                        SCT003 BKN005 16/15 Q1002 WS ALL
                        RWY=
201011132300 METAR LPPR 132300Z 19023KT 8000 RA BR SCT004 BKN006 BKN014
                        16/15 Q1002 WS ALL RWY=
201011132230 METAR LPPR 132230Z 18025KT 6000 RA BR SCT005 SCT007 BKN012
                        16/15 Q1003 WS ALL RWY=
201011132200 METAR LPPR 132200Z 18026KT 4000N R17/1300N R35/P1500 RA BR
                        SCT003 BKN006 16/15 Q1003 WS ALL
                        RWY=
201011132130 METAR LPPR 132130Z 18027G38KT 3400N -RA BR SCT004 BKN008
                        BKN015 16/15 Q1003 WS ALL RWY=
201011132100 METAR LPPR 132100Z 17025G35KT 5000 R17/1300N R35/1000VP1500
                        -RA BR BKN007 BKN014 16/15 Q1004
                        WS ALL RWY=
201011132030 METAR LPPR 132030Z 17024KT 4000 -RA BR BKN007 BKN014 16/15
                        Q1004 WS ALL RWY=
201011132000 METAR LPPR 132000Z 18024G35KT 1800N R17/1200VP1500 R35/1000VP1500
                        -RA BR SCT004 BKN007 BKN012 16/15
                        Q1005 WS ALL RWY=
201011131930 METAR LPPR 131930Z 18022KT 4000 -RA BR SCT008 BKN010 BKN014
                        16/15 Q1006 WS ALL RWY=
201011131900 METAR LPPR 131900Z 18021KT 5000 -RA BR SCT010 BKN015 16/15
                        Q1006=
201011131830 METAR LPPR 131830Z 17019G30KT 8000 -RA BR FEW015 SCT020 BKN025
                        16/15 Q1006=
201011131800 METAR LPPR 131800Z 17019KT 9999 -RA BR FEW015 SCT020 BKN025
                        16/14 Q1006=
201011131730 METAR LPPR 131730Z 18021KT 7000 -RA BR FEW015 BKN019 BKN029
                        16/15 Q1007=
201011131700 METAR LPPR 131700Z 18020KT 9999 FEW018 BKN021 BKN035 17/14
                        Q1007=
201011131630 METAR LPPR 131630Z 18020KT 9999 BKN023 BKN050 17/14 Q1007=
201011131600 METAR LPPR 131600Z 17020KT 9999 SCT020 BKN030 BKN050 17/14
                        Q1007=
201011131530 METAR LPPR 131530Z 17019KT 9999 BKN020 BKN060 17/14 Q1008=
201011131500 METAR LPPR 131500Z 18020G32KT 9000 FEW010 BKN020 BKN060 16/15
                        Q1008 WS ALL RWY=
201011131430 METAR LPPR 131430Z 17020KT 5000 VCSH BR BKN009 BKN019 16/15
                        Q1009=
201011131400 METAR LPPR 131400Z 17021KT 6000 SCT008 BKN013 16/14 Q1009
                        WS ALL RWY=
201011131330 METAR LPPR 131330Z 18021KT 3000 -RADZ BR BKN007 BKN015 16/14
                        Q1010=
201011131300 METAR LPPR 131300Z 18022KT 9999 SCT008 BKN015 16/14 Q1010=
201011131230 METAR COR LPPR 131230Z 18020KT 9999 BKN008 BKN015 16/14 Q1011
                        WS ALL RWY=
201011131200 METAR LPPR 131200Z 18022KT 9999 SCT013 BKN017 17/14 Q1012=
201011131130 METAR LPPR 131130Z 18021KT 9999 SCT013 BKN017 16/14 Q1012=
201011131100 METAR LPPR 131100Z 17021KT 9999 SCT013 BKN017 16/14 Q1013
                        WS ALL RWY=
201011131030 METAR LPPR 131030Z 18019KT 9999 SCT012 BKN017 16/14 Q1013=
201011131000 METAR LPPR 131000Z 17015KT 9999 SCT013 BKN020 15/14 Q1013=
201011130930 METAR LPPR 130930Z 17016KT 9999 SCT006 BKN017 15/14 Q1013=
201011130900 METAR LPPR 130900Z 17017KT 8000 SCT005 BKN017 14/14 Q1014=
201011130830 METAR LPPR 130830Z 17017KT 4000 -RADZ BR BKN002 BKN004 14/14
                        Q1014 WS ALL RWY=
201011130800 METAR LPPR 130800Z 17015KT 2000 -RADZ BR SCT002 BKN004 14/14
                        Q1013=
201011130730 METAR LPPR 130730Z 18015KT 3000 -RADZ BR SCT005 BKN007 14/14
                        Q1013=
201011130700 METAR LPPR 130700Z 18017KT 6000 -DZ SCT008 BKN030 15/14 Q1014=
201011130630 METAR LPPR 130630Z 18015KT 9999 FEW008 BKN025 15/13 Q1014=
201011130600 METAR LPPR 130600Z 18016KT 9999 FEW008 BKN025 16/13 Q1014=
201011130530 METAR LPPR 130530Z 18014KT 9999 FEW008 BKN025 16/13 Q1014=
201011130500 METAR LPPR 130500Z 18017KT 9999 FEW008 BKN030 16/13 Q1014=
201011130430 METAR LPPR 130430Z 18015KT 9999 FEW008 BKN030 16/13 Q1014=
201011130400 METAR LPPR 130400Z 18014KT 9999 FEW008 BKN030 16/13 Q1015=
201011130330 METAR LPPR 130330Z 17013KT 9999 FEW008 BKN030 16/13 Q1015=
201011130300 METAR LPPR 130300Z 18014KT 9999 FEW008 BKN030 16/13 Q1015=
201011130230 METAR LPPR 130230Z 17014KT 9999 FEW008 BKN030 16/13 Q1016=
201011130200 METAR LPPR 130200Z 18013KT 9999 FEW008 BKN030 16/13 Q1016=
201011130130 METAR LPPR 130130Z 17011KT 9999 FEW008 BKN030 15/13 Q1017=
201011130100 METAR LPPR 130100Z 17011KT 9999 FEW008 SCT030 BKN070 15/13
                        Q1017=
201011130030 METAR LPPR 130030Z 16009KT 9999 FEW008 SCT030 BKN070 15/13
                        Q1017=
201011130000 METAR LPPR 130000Z 16009KT 8000 FEW008 SCT030 15/14 Q1017=
201011122330 METAR LPPR 122330Z 17011KT 9999 SCT009 BKN020 15/14 Q1018=
201011122300 METAR LPPR 122300Z 18012KT 8000 -DZ BKN007 BKN015 15/14 Q1018=
201011122230 METAR LPPR 122230Z 16010KT 9999 BKN020 SCT060 15/14 Q1018=
201011122200 METAR LPPR 122200Z 17012KT 9999 BKN025 15/14 Q1019=
201011122130 METAR LPPR 122130Z 17010KT 9999 BKN030 15/14 Q1019=
201011122100 METAR LPPR 122100Z 18013KT 9999 SCT020 BKN040 16/13 Q1019=
201011122030 METAR LPPR 122030Z 18013KT 140V210 9999 FEW020 BKN040 16/13
                        Q1019=
201011122000 METAR LPPR 122000Z 17010KT 9999 FEW020 BKN040 16/13 Q1019=
201011121930 METAR LPPR 121930Z 17010KT 9999 BKN040 SCT060 15/14 Q1020=
201011121900 METAR LPPR 121900Z 15010KT 9999 BKN040 SCT060 15/14 Q1020=
201011121830 METAR LPPR 121830Z 17010KT 9999 SCT020 BKN040 15/14 Q1020=
201011121800 METAR LPPR 121800Z 18010KT 9999 FEW009 SCT020 BKN040 15/14
                        Q1020=
201011121730 METAR LPPR 121730Z 19010KT 160V230 9999 FEW008 SCT017 BKN040
                        16/14 Q1020=
201011121700 METAR LPPR 121700Z 19007KT 9999 FEW009 SCT017 BKN040 16/15
                        Q1020=
201011121630 METAR LPPR 121630Z 19011KT 7000 -DZ FEW009 SCT017 BKN030
                        16/14 Q1020=
201011121600 METAR LPPR 121600Z 18009KT 9999 SCT017 BKN030 17/14 Q1021=
201011121530 METAR LPPR 121530Z 18012KT 9999 SCT017 BKN030 17/14 Q1021=
201011121500 METAR LPPR 121500Z 18012KT 9999 SCT017 BKN030 16/14 Q1021=
201011121430 METAR LPPR 121430Z 19009KT 9999 SCT017 BKN030 16/14 Q1021=
201011121400 METAR LPPR 121400Z 18012KT 9999 SCT017 BKN030 17/14 Q1021=
201011121330 METAR LPPR 121330Z 16009KT 9999 FEW020 BKN030 17/15 Q1022=
201011121300 METAR LPPR 121300Z 18007KT 4000 -RA BR FEW008 SCT017 BKN025
                        16/15 Q1022=
201011121230 METAR LPPR 121230Z 16007KT 8000 FEW006 SCT017 BKN030 16/15
                        Q1023=
201011121200 METAR LPPR 121200Z 16006KT 130V200 7000 FEW004 SCT017 BKN030
                        15/15 Q1023=
201011121130 METAR LPPR 121130Z 21008KT 3000 -RADZ BR BKN004 BKN017 15/14
                        Q1024=
201011121100 METAR LPPR 121100Z 18009KT 2500 -RADZ BR BKN006 BKN017 15/14
                        Q1024=
201011121030 METAR LPPR 121030Z 18008KT 2500 -RADZ BR BKN004 BKN017 15/14
                        Q1024=
201011121000 METAR LPPR 121000Z 16008KT 2500 -RADZ BR BKN004 BKN020 15/15
                        Q1024=
201011120930 METAR LPPR 120930Z 16010KT 9999 SCT004 SCT013 BKN025 15/15
                        Q1024=
201011120900 METAR LPPR 120900Z 16010KT 9999 FEW006 SCT013 BKN025 15/14
                        Q1024=
201011120830 METAR LPPR 120830Z 16010KT 8000 FEW006 BKN025 15/14 Q1024=
201011120800 METAR LPPR 120800Z 19012KT 7000 SCT005 SCT012 BKN025 15/14
                        Q1024=
201011120730 METAR LPPR 120730Z 17011KT 9999 SCT013 BKN025 15/14 Q1023=
201011120700 METAR LPPR 120700Z 18011KT 9999 SCT013 BKN025 15/14 Q1023=
201011120630 METAR LPPR 120630Z 17008KT 9999 SCT007 BKN025 15/14 Q1024=
201011120600 METAR LPPR 120600Z 15006KT 9999 BKN005 BKN008 14/14 Q1024=
201011120530 METAR LPPR 120530Z 16006KT 8000 BKN003 BKN005 14/14 Q1024=
201011120500 METAR LPPR 120500Z 17008KT 5000 -DZ BR BKN003 BKN005 14/14
                        Q1024=
201011120430 METAR LPPR 120430Z 18007KT 5000 -DZ BR BKN003 BKN005 14/14
                        Q1024=
201011120400 METAR LPPR 120400Z 17008KT 3000 -DZ BR BKN004 BKN006 14/14
                        Q1024=
201011120330 METAR LPPR 120330Z VRB03KT 8000 BKN003 BKN007 14/14 Q1024=
201011120300 METAR LPPR 120300Z 17006KT 8000 BKN003 BKN007 15/14 Q1024=
201011120230 METAR LPPR 120230Z 17006KT 7000 SCT002 BKN004 15/14 Q1024=
201011120200 METAR LPPR 120200Z 18010KT 5000 -DZ BKN002 BKN004 15/14 Q1025=
201011120130 METAR LPPR 120130Z 17010KT 9999 SCT004 BKN025 15/14 Q1025=
201011120100 METAR LPPR 120100Z 16008KT 8000 SCT004 BKN025 15/14 Q1025=
201011120030 METAR LPPR 120030Z 17008KT 9999 FEW005 SCT017 BKN025 15/14
                        Q1025=
201011120000 METAR LPPR 120000Z 17007KT 9999 FEW005 SCT017 BKN025 15/14
                        Q1025=
201011112330 METAR LPPR 112330Z 18007KT 9999 FEW006 SCT017 BKN025 15/14
                        Q1025=
201011112300 METAR LPPR 112300Z 17005KT 8000 -DZ SCT009 BKN015 15/14 Q1025=
201011112230 METAR LPPR 112230Z 21005KT 180V250 7000 -DZ SCT003 BKN015
                        15/14 Q1026=
201011112200 METAR LPPR 112200Z VRB03KT 8000 SCT009 BKN017 15/14 Q1025=
201011112130 METAR LPPR 112130Z 20007KT 180V250 5000 -DZ BR BKN008 BKN020
                        16/14 Q1025=
201011112100 METAR LPPR 112100Z 18009KT 9999 FEW008 SCT015 BKN030 16/14
                        Q1025=
201011112030 METAR LPPR 112030Z 18010KT 9999 FEW017 BKN025 16/13 Q1024=
201011112000 METAR LPPR 112000Z 18009KT 9999 BKN025 16/14 Q1024=
201011111930 METAR LPPR 111930Z VRB03KT 9999 FEW009 BKN030 16/14 Q1024=
201011111900 METAR LPPR 111900Z 23005KT 190V280 7000 -DZ SCT008 SCT017
                        BKN025 16/14 Q1024=
201011111830 METAR LPPR 111830Z 19008KT 9999 FEW020 BKN030 16/14 Q1024=
201011111800 METAR LPPR 111800Z 19007KT 9999 FEW017 BKN030 16/13 Q1024=
201011111730 METAR LPPR 111730Z 19009KT 9999 SCT020 BKN030 16/13 Q1024=
201011111700 METAR LPPR 111700Z 19009KT 9999 SCT020 BKN030 16/13 Q1024=
201011111630 METAR LPPR 111630Z 19008KT 9999 SCT020 BKN030 16/12 Q1024=
201011111600 METAR LPPR 111600Z 20010KT 9999 SCT020 BKN030 16/12 Q1024=
201011111530 METAR LPPR 111530Z 22009KT 9999 FEW025 BKN030 16/12 Q1023=
201011111500 METAR LPPR 111500Z 21007KT 180V250 9999 FEW025 BKN040 17/12
                        Q1023=
201011111430 METAR LPPR 111430Z 21009KT 9999 SCT025 BKN040 17/12 Q1023=
201011111400 METAR LPPR 111400Z 22008KT 190V250 9999 SCT020 BKN040 17/12
                        Q1023=
201011111330 METAR LPPR 111330Z 22009KT 9999 FEW020 BKN040 BKN250 18/12
                        Q1023=
201011111300 METAR LPPR 111300Z 20007KT 170V240 9999 FEW020 SCT040 BKN250
                        18/13 Q1023=
201011111230 METAR LPPR 111230Z 19009KT 9999 FEW020 SCT040 BKN250 16/13
                        Q1023=
201011111200 METAR LPPR 111200Z 20008KT 160V250 9999 SCT020 BKN040 BKN250
                        16/13 Q1024=
201011111130 METAR LPPR 111130Z 19008KT 9999 SCT020 SCT040 BKN250 17/13
                        Q1024=
201011111100 METAR LPPR 111100Z 18009KT 9999 FEW020 SCT040 BKN250 16/13
                        Q1023=
201011111030 METAR LPPR 111030Z 18011KT 9999 FEW020 SCT030 BKN250 15/13
                        Q1023=
201011111000 METAR LPPR 111000Z 18008KT 9999 SCT020 SCT030 BKN250 15/13
                        Q1023=
201011110930 METAR LPPR 110930Z 18010KT 9999 FEW020 SCT030 BKN250 14/12
                        Q1023=
201011110900 METAR LPPR 110900Z 16006KT 9999 FEW020 SCT030 BKN250 14/12
                        Q1023=
201011110830 METAR LPPR 110830Z 16007KT 9999 -SHRA SCT020 BKN030 BKN200
                        13/12 Q1022=
201011110800 METAR LPPR 110800Z 16006KT 9999 SCT025 BKN035 BKN200 13/11
                        Q1022=
201011110730 METAR LPPR 110730Z 16006KT 9999 SCT025 SCT045 BKN200 13/11
                        Q1021=
201011110700 METAR LPPR 110700Z 16007KT 9999 SCT025 BKN040 BKN060 13/11
                        Q1021=
201011110630 METAR LPPR 110630Z 16006KT 9999 SCT030 BKN040 BKN060 12/11
                        Q1021=
201011110600 METAR LPPR 110600Z 16006KT 9999 SCT035 BKN045 BKN060 12/11
                        Q1021=
201011110530 METAR LPPR 110530Z 16005KT 9000 FEW020 SCT035 BKN045 12/11
                        Q1021=
201011110500 METAR LPPR 110500Z 17004KT 9000 SCT015 BKN020 12/11 Q1020=
201011110430 METAR LPPR 110430Z 15006KT 9000 FEW025 BKN040 BKN060 12/11
                        Q1020=
201011110400 METAR LPPR 110400Z 16004KT 9999 FEW025 SCT060 BKN200 12/11
                        Q1020=
201011110330 METAR LPPR 110330Z 16005KT 9999 SCT025 BKN100 BKN200 12/11
                        Q1020=
201011110300 METAR LPPR 110300Z 15003KT 9999 SCT025 BKN030 12/10 Q1020=
201011110230 METAR LPPR 110230Z 13005KT 9999 FEW025 SCT045 BKN060 12/10
                        Q1020=
201011110200 METAR LPPR 110200Z 13005KT 8000 SCT029 BKN060 11/10 Q1020=
201011110130 METAR LPPR 110130Z 13004KT 9000 SCT025 11/10 Q1020=
201011110100 METAR LPPR 110100Z 16007KT 9999 FEW030 SCT040 11/10 Q1020=
201011110030 METAR LPPR 110030Z 14004KT 9000 FEW035 BKN070 11/10 Q1019=
201011110000 METAR LPPR 110000Z 13004KT 9000 SCT060 11/10 Q1019=
201011102330 METAR LPPR 102330Z 13005KT 9999 FEW030 11/10 Q1019=
201011102300 METAR LPPR 102300Z 12005KT 9999 FEW030 12/10 Q1019=
201011102230 METAR LPPR 102230Z 12005KT 9999 FEW030 12/11 Q1019=
201011102200 METAR LPPR 102200Z 11006KT 9999 FEW030 12/11 Q1018=
201011102130 METAR LPPR 102130Z 13005KT 9999 SCT030 12/11 Q1018=
201011102100 METAR LPPR 102100Z 13004KT 9999 FEW030 12/11 Q1018=
201011102030 METAR LPPR 102030Z 14003KT 8000 SKC 11/10 Q1018=
201011102000 METAR LPPR 102000Z VRB02KT 7000 SKC 11/10 Q1018=
201011101930 METAR LPPR 101930Z 00000KT 7000 SKC 12/10 Q1017=
201011101900 METAR LPPR 101900Z VRB02KT 8000 FEW020 12/10 Q1017=
201011101830 METAR LPPR 101830Z 24004KT 8000 FEW020 13/11 Q1016=
201011101800 METAR LPPR 101800Z 22003KT 8000 FEW020 14/11 Q1016=
201011101730 METAR LPPR 101730Z VRB03KT 9999 FEW020 14/11 Q1016=
201011101700 METAR LPPR 101700Z VRB03KT 9999 FEW020 15/11 Q1015=
201011101630 METAR LPPR 101630Z VRB03KT 9999 FEW020 16/11 Q1015=
201011101600 METAR LPPR 101600Z 25005KT 9999 FEW020 16/10 Q1015=
201011101530 METAR LPPR 101530Z 23004G14KT 190V270 9999 FEW020 17/09 Q1014=
201011101500 METAR LPPR 101500Z 23005KT 180V260 9999 FEW018 16/10 Q1014=
201011101430 METAR LPPR 101430Z 26004KT 210V310 9999 FEW018 16/11 Q1013=
201011101400 METAR LPPR 101400Z 28006KT 260V020 9999 FEW018 16/09 Q1013=
201011101330 METAR LPPR 101330Z 27004KT 230V330 9999 FEW018 16/10 Q1013=
201011101300 METAR LPPR 101300Z 27006KT 240V340 9999 FEW018 16/09 Q1013=
201011101230 METAR LPPR 101230Z 32004KT 260V020 9999 FEW018 16/09 Q1013=
201011101200 METAR LPPR 101200Z 32005KT 270V360 9999 SCT018 16/09 Q1013=
201011101130 METAR LPPR 101130Z 34005KT 300V010 9999 FEW020 16/09 Q1013=
201011101100 METAR LPPR 101100Z VRB03KT 9999 FEW020 SCT045 16/10 Q1012=
201011101030 METAR LPPR 101030Z VRB03KT 9999 FEW020 15/10 Q1012=
201011101000 METAR LPPR 101000Z VRB01KT 9999 FEW020 15/10 Q1011=
201011100930 METAR LPPR 100930Z 00000KT 9999 FEW020 15/11 Q1011=
201011100900 METAR LPPR 100900Z 00000KT 9999 FEW020 12/11 Q1010=
201011100830 METAR LPPR 100830Z 00000KT 9999 FEW020 10/10 Q1009=
201011100800 METAR LPPR 100800Z 00000KT 9999 FEW020 08/07 Q1009=
201011100730 METAR LPPR 100730Z VRB01KT 9999 FEW020 09/08 Q1008=
201011100700 METAR LPPR 100700Z 00000KT 9999 FEW030 09/08 Q1007=
201011100630 METAR LPPR 100630Z 00000KT 9999 FEW030 09/09 Q1007=
201011100600 METAR LPPR 100600Z VRB01KT 9999 FEW020 SCT030 09/08 Q1006=
201011100530 METAR LPPR 100530Z 00000KT 9999 FEW025 09/08 Q1006=
201011100500 METAR LPPR 100500Z 18001KT 9999 FEW025 09/08 Q1005=
201011100430 METAR LPPR 100430Z 00000KT 9999 FEW030 SCT080 10/09 Q1005=
201011100400 METAR LPPR 100400Z 00000KT 9999 FEW030 10/09 Q1005=
201011100330 METAR LPPR 100330Z 00000KT 9999 FEW017 SCT250 10/09 Q1004=
201011100300 METAR LPPR 100300Z 00000KT 9999 FEW017 FEW020TCU SCT070 10/09
                        Q1004=
201011100230 METAR LPPR 100230Z VRB01KT 9000 -SHRA FEW017 FEW020TCU SCT070
                        11/09 Q1004=
201011100200 METAR LPPR 100200Z 34005KT 9999 FEW017 SCT070 12/09 Q1003=
201011100130 METAR LPPR 100130Z 32008KT 9999 FEW017 FEW020TCU SCT070 13/11
                        Q1003=
201011100100 METAR LPPR 100100Z 32004KT 9999 SCT017 FEW020TCU SCT070 12/10
                        Q1003=
201011100030 METAR LPPR 100030Z 34005KT 310V010 7000 -SHRA SCT017 FEW020TCU
                        SCT030 BKN070 13/11 Q1003=
201011100000 METAR LPPR 100000Z VRB02KT 7000 -SHRA SCT017 SCT030 BKN080
                        13/11 Q1002=
201011092330 METAR LPPR 092330Z 35004KT 310V050 9000 SCT017 SCT030 13/11
                        Q1002=
201011092300 METAR LPPR 092300Z 31010KT 9999 SCT015 FEW020CB BKN030 14/11
                        Q1002 WS ALL RWY=
201011092230 METAR LPPR 092230Z 31011KT 9999 SCT015 FEW020CB BKN030 14/10
                        Q1001 WS ALL RWY=
201011092200 METAR LPPR 092200Z 32009KT 9999 SCT015 FEW020CB BKN030 14/11
                        Q1001 WS ALL RWY=
201011092130 METAR LPPR 092130Z 31011KT 9999 SCT015 FEW020CB BKN030 13/09
                        Q1001 WS ALL RWY=
201011092100 METAR LPPR 092100Z 32014G24KT 9999 SCT015 FEW020CB BKN030
                        13/10 Q1000 WS ALL RWY=
201011092030 METAR LPPR 092030Z 31013KT 8000 SCT015 FEW020CB BKN030 14/11
                        Q1000 WS ALL RWY=
201011092000 METAR LPPR 092000Z 31012KT 270V330 8000 SCT015 FEW020CB BKN030
                        14/11 Q1000 WS ALL RWY=
201011091930 METAR LPPR 091930Z 31013G23KT 6000 -SHRA SCT015 FEW020CB
                        BKN030 14/11 Q0999 WS ALL RWY=
201011091900 METAR LPPR 091900Z 32012KT 7000 SCT015 FEW020CB SCT030 13/10
                        Q0999 WS ALL RWY=
201011091830 METAR LPPR 091830Z 30012KT 270V330 8000 SCT015 FEW020CB SCT030
                        14/11 Q0998 WS ALL RWY=
201011091800 METAR LPPR 091800Z 31018G29KT 8000 SCT015 FEW020CB SCT030
                        15/10 Q0998 WS ALL RWY=
201011091730 METAR LPPR 091730Z 30014KT 280V340 9999 SCT015 FEW020CB SCT040
                        14/10 Q0998 WS ALL RWY=
201011091700 METAR LPPR 091700Z 30010KT 260V330 8000 SCT015 FEW020CB BKN040
                        13/11 Q0997 WS ALL RWY=
201011091630 METAR LPPR 091630Z 30012G22KT 260V330 8000 SCT015 FEW020CB
                        SCT040 13/10 Q0997 WS ALL RWY=
201011091600 METAR LPPR 091600Z 31014KT 7000 -SHRA SCT015 FEW020CB BKN040
                        14/10 Q0997=
201011091530 METAR LPPR 091530Z 30016G28KT 270V330 9999 SCT015 FEW020CB
                        BKN040 16/10 Q0997 WS ALL RWY=
201011091500 METAR LPPR 091500Z 29015KT 260V320 9999 SCT015 FEW020CB 16/10
                        Q0997=
201011091430 METAR LPPR 091430Z 30017G28KT 260V330 9999 SCT015 FEW020CB
                        15/10 Q0997=
201011091400 METAR LPPR 091400Z 30016G27KT 260V330 9999 SCT015 FEW020CB
                        15/09 Q0997=
201011091330 METAR LPPR 091330Z 30015G28KT 270V330 9999 SCT015 FEW020CB
                        SCT035 15/10 Q0997 WS ALL RWY=
201011091300 METAR LPPR 091300Z 29011KT 250V330 9999 SCT015 FEW020CB 14/10
                        Q0997=
201011091230 METAR LPPR 091230Z 30015G30KT 260V330 9999 SCT015 FEW020CB
                        SCT030 14/07 Q0997 WS ALL RWY=
201011091200 METAR LPPR 091200Z 30007KT 260V330 9999 SCT015 FEW020CB SCT030
                        13/10 Q0997=
201011091130 METAR LPPR 091130Z 31018G33KT 6000 -SHRA FEW006 BKN015 FEW020CB
                        12/09 Q0997 WS ALL RWY=
201011091100 METAR LPPR 091100Z 30017G29KT 270V330 9999 FEW007 SCT015
                        FEW020CB 16/08 Q0997=
201011091030 METAR LPPR 091030Z 30015G25KT 9999 SCT015 FEW020CB SCT030
                        15/09 Q0996=
201011091000 METAR LPPR 091000Z 31016KT 9999 SCT015 FEW020CB SCT030 15/08
                        Q0996=
201011090930 METAR LPPR 090930Z 32009KT 9999 SCT015 FEW020CB SCT030 13/10
                        Q0997=
201011090900 METAR LPPR 090900Z 30017G32KT 270V330 8000 SCT015 FEW020CB
                        SCT030 12/08 Q0996 RERA WS ALL RWY=
201011090830 METAR LPPR 090830Z 30010KT 260V330 9999 SCT015 FEW020CB SCT030
                        13/09 Q0996 WS ALL RWY=
201011090800 METAR LPPR 090800Z 32017G30KT 8000 -SHRA FEW017 FEW025CB
                        BKN040 11/09 Q0996 WS ALL RWY=
201011090730 METAR LPPR 090730Z 31014G27KT 9999 SCT017 BKN035 12/09 Q0995
                        WS ALL RWY=
201011090700 METAR LPPR 090700Z 32012KT 280V360 9999 FEW017 BKN040 14/08
                        Q0995=
201011090630 METAR LPPR 090630Z 31013G23KT 270V330 9999 FEW017 BKN040
                        14/09 Q0995 WS ALL RWY=
201011090600 METAR LPPR 090600Z 30014G24KT 270V330 9999 FEW018 BKN035
                        14/09 Q0995 WS ALL RWY=
201011090530 METAR LPPR 090530Z 31013KT 9999 SCT018 BKN030 14/09 Q0995=
201011090500 METAR LPPR 090500Z 31016KT 9999 FEW018 SCT035 BKN070 14/10
                        Q0994 WS ALL RWY=
201011090430 METAR LPPR 090430Z 31014KT 9999 FEW018 SCT035 BKN070 14/10
                        Q0994=
201011090400 METAR LPPR 090400Z 30013KT 260V330 9999 FEW018 SCT035 BKN060
                        14/11 Q0995 WS ALL RWY=
201011090330 METAR LPPR 090330Z 32013KT 9999 FEW017 SCT035 BKN060 13/11
                        Q0995 WS ALL RWY=
201011090300 METAR LPPR 090300Z 31014KT 8000 SCT017 BKN035 14/12 Q0995
                        WS ALL RWY=
201011090230 METAR LPPR 090230Z 30015G25KT 6000 -SHRA SCT015 BKN030 13/12
                        Q0995 WS ALL RWY=
201011090200 METAR LPPR 090200Z 31018G28KT 270V330 6000 -SHRA SCT013 BKN025
                        14/11 Q0996 WS ALL RWY=
201011090130 METAR LPPR 090130Z 30013G25KT 270V330 8000 -SHRA SCT013 BKN020
                        13/12 Q0996 WS ALL RWY=
201011090100 METAR LPPR 090100Z 28017G29KT 260V330 6000 SHRA SCT013 BKN025
                        15/13 Q0996 WS ALL RWY=
201011090030 METAR LPPR 090030Z 28011KT 250V320 8000 SCT015 BKN025 15/13
                        Q0996 WS ALL RWY=
201011090000 METAR LPPR 090000Z 29012G24KT 260V330 8000 -SHRA SCT015 BKN030
                        14/13 Q0997 WS ALL RWY=
201011082330 METAR LPPR 082330Z 27011G24KT 210V310 8000 -SHRA SCT015 BKN025
                        14/13 Q0997=
201011082300 METAR LPPR 082300Z 30011KT 260V330 6000 -SHRA SCT015 BKN035
                        14/12 Q0998=
201011082230 METAR LPPR 082230Z 28011KT 250V340 6000 SCT017 BKN030 15/13
                        Q0998 RERA=
201011082200 METAR LPPR 082200Z 28018G35KT 250V320 5000 SHRA FEW009 BKN017
                        BKN025 15/13 Q0999=
201011082130 METAR LPPR 082130Z 27013G33KT 8000 SCT017 BKN025 15/12 Q0998
                        RERA=
201011082100 METAR LPPR 082100Z 29013G23KT 250V320 8000 SCT017 BKN025
                        16/12 Q0998=
201011082030 METAR LPPR 082030Z 29012KT 260V340 8000 SCT017 BKN025 15/12
                        Q0999=
201011082000 METAR LPPR 082000Z 28012KT 250V320 8000 SCT017 BKN025 16/12
                        Q0999=
201011081930 METAR LPPR 081930Z 29014KT 260V330 8000 SCT017 BKN025 16/11
                        Q0999=
201011081900 METAR LPPR 081900Z 29012KT 260V330 8000 SCT017 BKN025 16/12
                        Q0999=
201011081830 METAR LPPR 081830Z 30011KT 260V330 6000 SCT017 BKN035 15/12
                        Q0999=
201011081800 METAR LPPR 081800Z 32011KT 6000 SCT017 BKN035 15/13 Q0999=
201011081730 METAR LPPR 081730Z 29012KT 250V320 6000 FEW007 BKN017 BKN035
                        16/12 Q0999=
201011081700 METAR LPPR 081700Z 29010G20KT 260V330 6000 FEW007 BKN017
                        BKN035 16/13 Q0999 WS ALL RWY=
201011081630 METAR LPPR 081630Z 29010G20KT 260V330 6000 FEW007 BKN015
                        BKN030 15/12 Q0999 WS ALL RWY=
201011081600 METAR LPPR 081600Z 29008KT 250V320 6000 -SHRA SCT007 BKN015
                        15/14 Q0999=
201011081530 METAR LPPR 081530Z 30014G24KT 270V330 7000 FEW007 BKN015
                        BKN030 15/13 Q0999 RERA=
201011081500 METAR LPPR 081500Z 30012KT 270V330 7000 -SHRA FEW007 SCT015
                        BKN030 16/13 Q0999=
201011081430 METAR LPPR 081430Z 30009KT 270V330 8000 SCT007 SCT015 BKN030
                        15/14 Q0999=
201011081400 METAR LPPR 081400Z 28012KT 250V330 6000 SCT005 SCT015 BKN020
                        16/14 Q1000=
201011081330 METAR LPPR 081330Z 29011KT 260V320 4000 -SHRA BR SCT005 BKN009
                        15/14 Q1000=
201011081300 METAR LPPR 081300Z 29011KT 260V330 3000 -SHRA BR SCT005 BKN009
                        16/14 Q1000 WS ALL RWY=
201011081230 METAR LPPR 081230Z 28011KT 250V310 5000 -SHRA BR SCT005 BKN007
                        15/15 Q1001 WS ALL RWY=
201011081200 METAR LPPR 081200Z 27015G26KT 220V320 8000 SCT005 BKN013
                        BKN017 16/15 Q1002 WS ALL RWY=
201011081130 METAR LPPR 081130Z 26010KT 220V320 5000 -SHRA BR SCT004 SCT010
                        BKN017 15/15 Q1002 WS ALL RWY=
201011081100 METAR LPPR 081100Z 27011G23KT 220V300 8000 SCT009 SCT013
                        BKN030 16/14 Q1002 WS ALL RWY=
201011081030 METAR LPPR 081030Z 27011G23KT 230V300 8000 SCT009 SCT013
                        BKN025 15/14 Q1003 WS ALL RWY=
201011081000 METAR LPPR 081000Z 28013KT 250V310 8000 FEW009 SCT015 BKN025
                        15/14 Q1004=
201011080930 METAR LPPR 080930Z 28012G24KT 240V310 8000 SCT007 SCT015
                        BKN025 15/13 Q1004 WS ALL RWY=
201011080900 METAR LPPR 080900Z 27010KT 240V310 9999 FEW009 SCT015 BKN040
                        16/13 Q1004=
201011080830 METAR LPPR 080830Z 27012KT 230V300 9999 FEW009 SCT015 BKN040
                        16/13 Q1004=
201011080800 METAR LPPR 080800Z 27013G23KT 220V300 9999 FEW009 SCT013
                        FEW020TCU BKN100 15/13 Q1005=
201011080730 METAR LPPR 080730Z 25008KT 220V290 7000 SCT007 BKN015 FEW020TCU
                        BKN045 15/14 Q1005=
201011080700 METAR LPPR 080700Z 26008KT 230V310 9999 FEW005 SCT008 BKN040
                        14/14 Q1006=
201011080630 METAR LPPR 080630Z 26010KT 210V300 3900 RA BR SCT007 BKN018
                        BKN030 14/12 Q1006=
201011080600 METAR LPPR 080600Z 25007KT 200V320 8000 SCT015 BKN030 BKN060
                        14/13 Q1007=
201011080530 METAR LPPR 080530Z 26009G19KT 210V310 5000 -RA BR FEW004
                        BKN008 BKN040 13/12 Q1008=
201011080500 METAR LPPR 080500Z 23004KT 190V300 4000 -RA BR SCT012 BKN025
                        BKN060 13/12 Q1008=
201011080430 METAR LPPR 080430Z VRB03KT 9999 SCT016 BKN040 BKN060 13/11
                        Q1009=
201011080400 METAR LPPR 080400Z VRB03KT 5000 -RA BR SCT015 BKN022 BKN040
                        12/10 Q1009=
201011080330 METAR LPPR 080330Z 17005KT 130V270 8000 -RA BR SCT023 BKN030
                        BKN060 11/09 Q1010=
201011080300 METAR LPPR 080300Z VRB02KT 8000 SCT025 BKN040 BKN060 11/09
                        Q1010=
201011080230 METAR LPPR 080230Z 12005KT 8000 SCT025 BKN030 BKN060 10/09
                        Q1011=
201011080200 METAR LPPR 080200Z 09002KT 9999 SCT025 SCT035 BKN060 10/09
                        Q1011=
201011080130 METAR LPPR 080130Z 09005KT 9999 FEW023 SCT030 BKN040 10/08
                        Q1011=
201011080100 METAR LPPR 080100Z 13005KT 9999 SCT030 BKN060 09/08 Q1012=
201011080030 METAR LPPR 080030Z 00000KT 9999 FEW040 08/07 Q1013=
201011080000 METAR LPPR 080000Z 00000KT CAVOK 08/07 Q1013=
201011072330 METAR LPPR 072330Z 00000KT CAVOK 08/07 Q1013=
201011072300 METAR LPPR 072300Z 00000KT CAVOK 08/07 Q1013=
201011072230 METAR LPPR 072230Z 00000KT CAVOK 09/07 Q1014=
201011072200 METAR LPPR 072200Z 00000KT CAVOK 09/07 Q1014=
201011072130 METAR LPPR 072130Z 34003KT CAVOK 09/07 Q1015=
201011072100 METAR LPPR 072100Z 35003KT CAVOK 10/07 Q1015=
201011072030 METAR LPPR 072030Z 33005KT CAVOK 10/07 Q1015=
201011072000 METAR LPPR 072000Z 34006KT 300V360 CAVOK 11/08 Q1015=
201011071930 METAR LPPR 071930Z 34004KT 9999 FEW020 BKN060 12/09 Q1015=
201011071900 METAR LPPR 071900Z 34004KT 9999 FEW020 12/09 Q1015=
201011071830 METAR LPPR 071830Z 35005KT 9999 FEW020 12/09 Q1015=
201011071800 METAR LPPR 071800Z VRB03KT 9999 FEW020 13/09 Q1015=
201011071730 METAR LPPR 071730Z 33010KT 9999 FEW020 14/10 Q1015=
201011071700 METAR LPPR 071700Z 33012KT 9999 FEW020 15/09 Q1015=
201011071630 METAR LPPR 071630Z 33011KT 9999 FEW020 15/09 Q1015=
201011071600 METAR LPPR 071600Z 34014KT 9999 FEW020 16/10 Q1015=
201011071530 METAR LPPR 071530Z 33015KT 9999 FEW020 16/10 Q1015=
201011071500 METAR LPPR 071500Z 33016KT 9999 FEW020 SCT030 17/09 Q1015=
201011071430 METAR LPPR 071430Z 33014KT 300V010 9999 FEW020 SCT043 17/10
                        Q1015=
201011071400 METAR LPPR 071400Z 35011KT 320V020 9999 SCT020 17/09 Q1015=
201011071330 METAR LPPR 071330Z 34012KT 320V030 9999 FEW020 17/08 Q1015=
201011071300 METAR LPPR 071300Z 34015KT 9999 FEW020 17/08 Q1016=
201011071230 METAR LPPR 071230Z 35012KT 9999 FEW015 17/08 Q1016=
201011071200 METAR LPPR 071200Z 35015KT 9999 FEW015 16/08 Q1016=
201011071130 METAR LPPR 071130Z 34011KT 9999 FEW015 16/10 Q1017=
201011071100 METAR LPPR 071100Z 35009KT 9999 FEW015 SCT080 BKN250 16/10
                        Q1017=
201011071030 METAR LPPR 071030Z 36007KT 330V040 9999 FEW015 BKN080 15/11
                        Q1017=
201011071000 METAR LPPR 071000Z 36010KT 9999 FEW015 SCT080 BKN250 14/12
                        Q1017=
201011070930 METAR LPPR 070930Z 36007KT 330V040 9999 FEW005 SCT012 BKN250
                        14/13 Q1017=
201011070900 METAR LPPR 070900Z 36006KT 7000 -DZ SCT005 BKN030 14/13 Q1017=
201011070830 METAR LPPR 070830Z 35004KT 4000 BR FEW004 SCT006 BKN030 14/13
                        Q1017=
201011070800 METAR LPPR 070800Z 04001KT 4000 -DZ BR SCT004 BKN008 14/13
                        Q1017=
201011070730 METAR LPPR 070730Z VRB01KT 3000 -DZ BR SCT004 BKN008 14/13
                        Q1017=
201011070700 METAR LPPR 070700Z 15002KT 9999 SCT009 BKN017 14/13 Q1017=
201011070630 METAR LPPR 070630Z 16002KT 9999 SCT011 BKN020 14/12 Q1017=
201011070600 METAR LPPR 070600Z 00000KT 9999 SCT015 BKN020 14/12 Q1018=
201011070530 METAR LPPR 070530Z 07002KT 9999 FEW016 BKN020 14/12 Q1018=
201011070500 METAR LPPR 070500Z 00000KT 9999 SCT017 BKN020 14/12 Q1018=
201011070430 METAR LPPR 070430Z 00000KT 9999 SCT020 BKN030 14/12 Q1018=
201011070400 METAR LPPR 070400Z 34002KT 9999 FEW030 BKN040 13/12 Q1018=
201011070330 METAR LPPR 070330Z VRB02KT 9999 BKN040 14/12 Q1019=
201011070300 METAR LPPR 070300Z VRB01KT 9999 BKN040 14/12 Q1019=
201011070230 METAR LPPR 070230Z 33003KT 9999 BKN040 13/11 Q1019=
201011070200 METAR LPPR 070200Z 34002KT 9999 BKN040 13/11 Q1019=
201011070130 METAR LPPR 070130Z 35004KT 9999 SCT040 14/11 Q1020=
201011070100 METAR LPPR 070100Z 35010KT 9999 BKN040 15/12 Q1020=
201011070030 METAR LPPR 070030Z 34010KT 9999 FEW020 BKN030 15/13 Q1021=
201011070000 METAR LPPR 070000Z 33006KT 9999 FEW020 BKN030 14/12 Q1021=
201011062330 METAR LPPR 062330Z 34002KT 9999 FEW030 SCT250 13/12 Q1021=
201011062300 METAR LPPR 062300Z 34004KT CAVOK 13/12 Q1021=
201011062230 METAR LPPR 062230Z 33006KT 290V350 CAVOK 14/12 Q1021=
201011062200 METAR LPPR 062200Z 33007KT 9999 FEW030 BKN250 15/12 Q1021=
201011062130 METAR LPPR 062130Z 32006KT 9999 BKN030 15/13 Q1021=
201011062100 METAR LPPR 062100Z 33007KT 9999 FEW013 BKN030 15/13 Q1022=
201011062030 METAR LPPR 062030Z 34008KT 9999 FEW008 BKN025 15/14 Q1022=
201011062000 METAR LPPR 062000Z 33006KT 9999 FEW007 BKN015 15/14 Q1022=
201011061930 METAR LPPR 061930Z 33007KT 9999 FEW007 BKN015 15/13 Q1022=
201011061900 METAR LPPR 061900Z 33008KT 9999 SCT007 BKN015 15/13 Q1022=
201011061830 METAR LPPR 061830Z 33008KT 9999 SCT007 BKN015 16/13 Q1022=
201011061800 METAR LPPR 061800Z 33009KT 9999 SCT007 BKN015 16/13 Q1022=
201011061730 METAR LPPR 061730Z 31009KT 270V350 8000 SCT007 BKN015 16/13
                        Q1022=
201011061700 METAR LPPR 061700Z 31006KT 280V350 8000 SCT007 BKN250 16/13
                        Q1022=
201011061630 METAR LPPR 061630Z 32007KT 9999 SCT007 BKN011 16/13 Q1022=
201011061600 METAR LPPR 061600Z 32011KT 9999 FEW007 BKN011 16/13 Q1022=
201011061530 METAR LPPR 061530Z 30007KT 260V330 9999 FEW007 BKN011 17/14
                        Q1022=
201011061500 METAR LPPR 061500Z 30008KT 270V330 9999 SCT007 BKN011 17/14
                        Q1023=
201011061430 METAR LPPR 061430Z 30005KT 270V330 9999 SCT007 BKN011 17/14
                        Q1023=
201011061400 METAR LPPR 061400Z 29007KT 250V350 9999 SCT007 BKN009 16/14
                        Q1023=
201011061330 METAR LPPR 061330Z 28005KT 230V330 3000 BR SCT006 BKN008
                        17/15 Q1024=
201011061300 METAR LPPR 061300Z 27004KT 220V340 4000 BR SCT006 BKN008
                        17/15 Q1024=
201011061230 METAR LPPR 061230Z 27006KT 220V310 3000 BR BKN006 17/15 Q1024=
201011061200 METAR LPPR 061200Z 28006KT 250V310 5000 BR SCT009 17/15 Q1025=
201011061130 METAR LPPR 061130Z 25006KT 8000 SCT250 18/14 Q1025=
201011061100 METAR LPPR 061100Z VRB01KT 8000 SCT250 19/14 Q1025=
201011061030 METAR LPPR 061030Z 00000KT 8000 SCT250 18/14 Q1025=
201011061000 METAR LPPR 061000Z VRB01KT 8000 SCT250 18/14 Q1025=
201011060930 METAR LPPR 060930Z 00000KT 8000 SCT250 15/15 Q1025=
201011060900 METAR LPPR 060900Z 00000KT 7000 SCT250 14/14 Q1025=
201011060830 METAR LPPR 060830Z VRB01KT 5000 BR SCT250 13/13 Q1025=
201011060800 METAR LPPR 060800Z 00000KT 5000 MIFG BR FEW015 SCT200 12/11
                        Q1024=
201011060730 METAR LPPR 060730Z 00000KT 5000 R17/0450V0900N R35/P1500
                        MIFG BR FEW015 SCT200 10/10 Q1024=
201011060700 METAR LPPR 060700Z 34002KT 4000N MIFG BR FEW015 11/10 Q1024=
201011060630 METAR LPPR 060630Z 00000KT 6000 SKC 12/11 Q1024=
201011060600 METAR LPPR 060600Z 00000KT 6000 SKC 12/12 Q1024=
201011060530 METAR LPPR 060530Z VRB01KT 7000 SKC 13/12 Q1024=
201011060500 METAR LPPR 060500Z VRB03KT 8000 SKC 13/13 Q1024=
201011060430 METAR LPPR 060430Z VRB01KT 8000 SKC 13/13 Q1024=
201011060400 METAR LPPR 060400Z VRB02KT 4000N BR SKC 12/12 Q1024=
201011060330 METAR LPPR 060330Z 00000KT 5000 BR SKC 13/12 Q1024=
201011060300 METAR LPPR 060300Z 07002KT 5000 BR SKC 13/13 Q1024=
201011060230 METAR LPPR 060230Z 10002KT 8000 SKC 13/12 Q1024=
201011060200 METAR LPPR 060200Z 00000KT 5000 BR SKC 12/12 Q1025=
201011060130 METAR LPPR 060130Z 00000KT 7000 SKC 12/11 Q1025=
201011060100 METAR LPPR 060100Z 00000KT 4000N BR SKC 12/11 Q1025=
201011060030 METAR LPPR 060030Z 00000KT 4000N BR SKC 13/12 Q1025=
201011060000 METAR LPPR 060000Z 00000KT CAVOK 14/12 Q1025=
201011052330 METAR LPPR 052330Z 00000KT CAVOK 15/12 Q1025=
201011052300 METAR LPPR 052300Z VRB03KT CAVOK 16/13 Q1025=
201011052230 METAR LPPR 052230Z VRB02KT CAVOK 14/12 Q1025=
201011052200 METAR LPPR 052200Z 00000KT CAVOK 14/13 Q1025=
201011052130 METAR LPPR 052130Z 00000KT 8000 SKC 14/13 Q1025=
201011052100 METAR LPPR 052100Z 00000KT 8000 SKC 14/13 Q1025=
201011052030 METAR LPPR 052030Z 10001KT CAVOK 15/14 Q1025=
201011052000 METAR LPPR 052000Z 00000KT CAVOK 15/13 Q1025=
201011051930 METAR LPPR 051930Z 00000KT CAVOK 15/13 Q1025=
201011051900 METAR LPPR 051900Z 00000KT CAVOK 15/13 Q1025=
201011051830 METAR LPPR 051830Z 00000KT CAVOK 16/13 Q1025=
201011051800 METAR LPPR 051800Z 00000KT CAVOK 17/13 Q1024=
201011051730 METAR LPPR 051730Z 00000KT CAVOK 19/14 Q1024=
201011051700 METAR LPPR 051700Z 32004KT 270V340 CAVOK 20/13 Q1024=
201011051630 METAR LPPR 051630Z VRB03KT CAVOK 21/14 Q1024=
201011051600 METAR LPPR 051600Z 32004KT 290V350 CAVOK 21/14 Q1024=
201011051530 METAR LPPR 051530Z 31004KT 280V340 CAVOK 22/14 Q1024=
201011051500 METAR LPPR 051500Z 29004KT 250V330 CAVOK 22/13 Q1024=
201011051430 METAR LPPR 051430Z VRB03KT CAVOK 22/14 Q1025=
201011051400 METAR LPPR 051400Z 27004KT CAVOK 22/14 Q1025=
201011051330 METAR LPPR 051330Z 26005KT CAVOK 23/15 Q1025=
201011051300 METAR LPPR 051300Z 26004G14KT 180V340 CAVOK 23/15 Q1025=
201011051230 METAR LPPR 051230Z VRB03KT CAVOK 24/15 Q1025=
201011051200 METAR LPPR 051200Z 12005KT 100V180 CAVOK 24/14 Q1026=
201011051130 METAR LPPR 051130Z 13005KT 100V170 CAVOK 23/14 Q1026=
201011051100 METAR LPPR 051100Z 12006KT 080V170 CAVOK 22/14 Q1026=
201011051030 METAR LPPR 051030Z 11007KT 080V140 CAVOK 21/14 Q1026=
201011051000 METAR LPPR 051000Z 11007KT 080V140 CAVOK 20/14 Q1026=
201011050930 METAR LPPR 050930Z 11007KT CAVOK 19/13 Q1026=
201011050900 METAR LPPR 050900Z 10008KT CAVOK 19/13 Q1026=
201011050830 METAR LPPR 050830Z 10007KT CAVOK 18/12 Q1026=
201011050800 METAR LPPR 050800Z 09005KT CAVOK 16/12 Q1026=
201011050730 METAR LPPR 050730Z 10004KT 060V130 CAVOK 16/12 Q1025=
201011050700 METAR LPPR 050700Z 10005KT CAVOK 16/12 Q1025=
201011050630 METAR LPPR 050630Z 10003KT CAVOK 15/12 Q1025=
201011050600 METAR LPPR 050600Z VRB03KT CAVOK 14/12 Q1025=
201011050530 METAR LPPR 050530Z VRB03KT CAVOK 15/12 Q1025=
201011050500 METAR LPPR 050500Z VRB03KT CAVOK 15/12 Q1025=
201011050430 METAR LPPR 050430Z 10004KT CAVOK 15/12 Q1025=
201011050400 METAR LPPR 050400Z 10004KT CAVOK 15/12 Q1025=
201011050330 METAR LPPR 050330Z 10002KT CAVOK 16/12 Q1025=
201011050300 METAR LPPR 050300Z VRB03KT CAVOK 16/12 Q1026=
201011050230 METAR COR LPPR 050230Z 10004KT 070V130 CAVOK 16/13 Q1026=
201011050200 METAR LPPR 050200Z 09005KT CAVOK 16/13 Q1026=
201011050130 METAR LPPR 050130Z 10006KT CAVOK 16/13 Q1026=
201011050100 METAR LPPR 050100Z 10003KT CAVOK 15/13 Q1026=
201011050030 METAR LPPR 050030Z 10003KT CAVOK 16/14 Q1027=
201011050000 METAR LPPR 050000Z 09002KT CAVOK 15/13 Q1027=
201011042330 METAR LPPR 042330Z 03003KT CAVOK 16/15 Q1027=
201011042300 METAR LPPR 042300Z 06003KT CAVOK 15/14 Q1027=
201011042230 METAR LPPR 042230Z 06001KT 9000 SKC 15/14 Q1027=
201011042200 METAR LPPR 042200Z 07002KT 8000 SKC 15/15 Q1027=
201011042130 METAR LPPR 042130Z VRB02KT 9000 SKC 15/14 Q1027=
201011042100 METAR LPPR 042100Z 00000KT CAVOK 15/14 Q1027=
201011042030 METAR LPPR 042030Z 00000KT CAVOK 15/13 Q1027=
201011042000 METAR LPPR 042000Z 00000KT CAVOK 15/14 Q1027=
201011041930 METAR LPPR 041930Z 00000KT 9000 SKC 16/14 Q1027=
201011041900 METAR LPPR 041900Z 00000KT CAVOK 16/14 Q1027=
201011041830 METAR LPPR 041830Z 00000KT CAVOK 17/14 Q1027=
201011041800 METAR LPPR 041800Z 33002KT CAVOK 19/14 Q1027=
201011041730 METAR LPPR 041730Z 33004KT CAVOK 20/14 Q1026=
201011041700 METAR LPPR 041700Z 33004KT 280V350 CAVOK 22/15 Q1026=
201011041630 METAR LPPR 041630Z VRB03KT CAVOK 23/17 Q1026=
201011041600 METAR LPPR 041600Z 26002KT CAVOK 24/16 Q1026=
201011041530 METAR LPPR 041530Z 27003KT CAVOK 24/16 Q1026=
201011041500 METAR LPPR 041500Z 27004KT CAVOK 23/15 Q1027=
201011041430 METAR LPPR 041430Z 27004KT CAVOK 23/15 Q1027=
201011041400 METAR LPPR 041400Z VRB03KT CAVOK 23/15 Q1027=
201011041330 METAR LPPR 041330Z 26006KT CAVOK 24/16 Q1027=
201011041300 METAR LPPR 041300Z 09004KT 050V130 CAVOK 25/13 Q1027=
201011041230 METAR LPPR 041230Z 11006KT 060V140 CAVOK 25/13 Q1027=
201011041200 METAR LPPR 041200Z 08005KT 040V130 CAVOK 24/13 Q1028=
201011041130 METAR LPPR 041130Z 11005KT 070V150 CAVOK 24/13 Q1028=
201011041100 METAR LPPR 041100Z 08004KT 030V130 CAVOK 23/14 Q1028=
201011041030 METAR LPPR 041030Z VRB03KT CAVOK 22/13 Q1028=
201011041000 METAR LPPR 041000Z VRB02KT CAVOK 20/14 Q1028=
201011040930 METAR LPPR 040930Z VRB02KT CAVOK 19/13 Q1028=
201011040900 METAR LPPR 040900Z 05004KT 360V080 CAVOK 18/12 Q1028=
201011040830 METAR LPPR 040830Z VRB01KT CAVOK 17/13 Q1028=
201011040800 METAR LPPR 040800Z VRB03KT CAVOK 15/11 Q1027=
201011040730 METAR LPPR 040730Z 05005KT CAVOK 15/12 Q1027=
201011040700 METAR LPPR 040700Z 08003KT CAVOK 16/12 Q1026=
201011040630 METAR LPPR 040630Z VRB03KT 7000 SKC 15/14 Q1026=
201011040600 METAR LPPR 040600Z 07005KT 6000 SKC 13/13 Q1026=
201011040530 METAR LPPR 040530Z 00000KT 5000 BR SKC 11/11 Q1026=
201011040500 METAR LPPR 040500Z 02002KT 5000 BR SKC 12/12 Q1026=
201011040430 METAR LPPR 040430Z 04001KT 3000 BR SKC 12/12 Q1026=
201011040400 METAR LPPR 040400Z 00000KT 3000 BR SKC 12/12 Q1026=
201011040330 METAR LPPR 040330Z 00000KT 2000 BR SKC 13/13 Q1026=
201011040300 METAR LPPR 040300Z 00000KT 2000 BR SKC 12/12 Q1026=
201011040230 METAR LPPR 040230Z 08003KT 2000 BR SKC 13/12 Q1026=
201011040200 METAR LPPR 040200Z VRB01KT 2000 R17/1000VP1500 R35/P1500
                        BCFG BR SKC 13/13 Q1026=
201011040130 METAR LPPR 040130Z 00000KT 2000 R17/0750V1100U R35/P1500
                        BCFG BR SKC 12/12 Q1026=
201011040100 METAR LPPR 040100Z 00000KT 2000 R17/0700V1100N R35/P1500
                        BCFG BR SKC 12/12 Q1026=
201011040030 METAR LPPR 040030Z 00000KT 2000 BR FEW005 13/12 Q1026=
201011040000 METAR LPPR 040000Z VRB01KT 3000 BR FEW005 13/13 Q1026=
201011032330 METAR LPPR 032330Z 00000KT 7000 SKC 13/13 Q1026=
201011032300 METAR LPPR 032300Z 02002KT 8000 SKC 13/13 Q1026=
201011032230 METAR LPPR 032230Z 05002KT 7000 SKC 14/14 Q1026=
201011032200 METAR LPPR 032200Z 10003KT 7000 SKC 15/15 Q1026=
201011032130 METAR LPPR 032130Z 00000KT 6000 SKC 14/13 Q1026=
201011032100 METAR LPPR 032100Z 00000KT 8000 SKC 14/14 Q1026=
201011032030 METAR LPPR 032030Z 00000KT 8000 SKC 15/14 Q1026=
201011032000 METAR LPPR 032000Z VRB02KT 9000 FEW250 15/14 Q1026=
201011031930 METAR LPPR 031930Z 00000KT 8000 SKC 15/14 Q1026=
201011031900 METAR LPPR 031900Z 34001KT CAVOK 16/15 Q1025=
201011031830 METAR LPPR 031830Z 34001KT 9000 FEW250 16/15 Q1025=
201011031800 METAR LPPR 031800Z VRB02KT 7000 FEW250 17/15 Q1025=
201011031730 METAR LPPR 031730Z 33005KT 6000 FEW250 18/16 Q1025=
201011031700 METAR LPPR 031700Z 31005KT 7000 FEW250 19/16 Q1025=
201011031630 METAR LPPR 031630Z 31004KT 260V340 CAVOK 20/16 Q1025=
201011031600 METAR LPPR 031600Z 30004KT CAVOK 20/16 Q1024=
201011031530 METAR LPPR 031530Z 30004KT 270V350 CAVOK 20/16 Q1024=
201011031500 METAR LPPR 031500Z 30006KT CAVOK 20/16 Q1024=
201011031430 METAR LPPR 031430Z 30006KT 270V330 CAVOK 20/16 Q1025=
201011031400 METAR LPPR 031400Z 31007KT 280V340 CAVOK 20/15 Q1025=
201011031330 METAR LPPR 031330Z 31006KT 270V330 CAVOK 20/15 Q1025=
201011031300 METAR LPPR 031300Z 30005KT 250V330 CAVOK 20/15 Q1025=
201011031230 METAR LPPR 031230Z 35004KT 290V040 CAVOK 20/14 Q1025=
201011031200 METAR LPPR 031200Z 34007KT 320V020 CAVOK 19/13 Q1026=
201011031130 METAR LPPR 031130Z 36004KT 320V030 CAVOK 19/13 Q1026=
201011031100 METAR LPPR 031100Z 01004KT 340V060 CAVOK 19/13 Q1026=
201011031030 METAR LPPR 031030Z 36005KT 330V050 CAVOK 18/13 Q1026=
201011031000 METAR LPPR 031000Z VRB02KT 9999 FEW025 18/13 Q1026=
201011030930 METAR LPPR 030930Z 00000KT 9999 FEW025 16/13 Q1026=
201011030900 METAR LPPR 030900Z 11003KT 9999 FEW025 15/13 Q1026=
201011030830 METAR LPPR 030830Z 00000KT 9999 FEW025 13/13 Q1026=
201011030800 METAR LPPR 030800Z 10001KT 8000 FEW025 12/11 Q1025=
201011030730 METAR LPPR 030730Z 00000KT 8000 FEW025 11/10 Q1025=
201011030700 METAR LPPR 030700Z 07003KT 6000 FEW025 11/11 Q1025=
201011030630 METAR LPPR 030630Z 08004KT 5000 BR FEW025 11/11 Q1025=
201011030600 METAR LPPR 030600Z 00000KT 5000 BR FEW025 11/10 Q1025=
201011030530 METAR LPPR 030530Z 00000KT 6000 FEW025 11/11 Q1025=
201011030500 METAR LPPR 030500Z 11003KT 6000 FEW025 11/11 Q1025=
201011030430 METAR LPPR 030430Z 00000KT 6000 FEW025 12/11 Q1025=
201011030400 METAR LPPR 030400Z 10004KT 070V140 6000 FEW025 12/12 Q1025=
201011030330 METAR LPPR 030330Z 08003KT 7000 SCT025 13/12 Q1025=
201011030300 METAR LPPR 030300Z VRB01KT 7000 BKN025 13/13 Q1025=
201011030230 METAR LPPR 030230Z 00000KT 8000 BKN025 14/13 Q1025=
201011030200 METAR LPPR 030200Z VRB02KT 9999 BKN025 14/13 Q1025=
201011030130 METAR LPPR 030130Z 00000KT 9999 SCT025 13/13 Q1025=
201011030100 METAR LPPR 030100Z 00000KT 9999 SCT025 13/13 Q1025=
201011030030 METAR LPPR 030030Z 00000KT 9999 BKN025 13/13 Q1025=
201011030000 METAR LPPR 030000Z 00000KT 9999 BKN025 12/12 Q1025=
201011022330 METAR LPPR 022330Z 10001KT 9999 FEW025 12/12 Q1025=
201011022300 METAR LPPR 022300Z 00000KT CAVOK 12/11 Q1025=
201011022230 METAR LPPR 022230Z 00000KT CAVOK 13/12 Q1026=
201011022200 METAR LPPR 022200Z 00000KT CAVOK 13/12 Q1026=
201011022130 METAR LPPR 022130Z 33002KT CAVOK 13/12 Q1025=
201011022100 METAR LPPR 022100Z VRB01KT CAVOK 13/12 Q1025=
201011022030 METAR LPPR 022030Z 03002KT CAVOK 14/13 Q1025=
201011022000 METAR LPPR 022000Z 36004KT CAVOK 14/13 Q1025=
201011021930 METAR LPPR 021930Z 35005KT CAVOK 15/13 Q1025=
201011021900 METAR LPPR 021900Z 33007KT CAVOK 15/13 Q1025=
201011021830 METAR LPPR 021830Z 33007KT CAVOK 15/13 Q1025=
201011021800 METAR LPPR 021800Z 33008KT CAVOK 16/14 Q1025=
201011021730 METAR LPPR 021730Z 33007KT CAVOK 16/13 Q1024=
201011021700 METAR LPPR 021700Z 33007KT CAVOK 17/13 Q1024=
201011021630 METAR LPPR 021630Z 32008KT 290V350 CAVOK 18/14 Q1024=
201011021600 METAR LPPR 021600Z 32009KT CAVOK 18/14 Q1024=
201011021530 METAR LPPR 021530Z 30009KT CAVOK 19/14 Q1024=
201011021500 METAR LPPR 021500Z 31008KT CAVOK 19/14 Q1024=
201011021430 METAR LPPR 021430Z 32008KT CAVOK 19/13 Q1024=
201011021400 METAR LPPR 021400Z 31008KT 280V350 CAVOK 19/13 Q1024=
201011021330 METAR LPPR 021330Z 32005KT 290V350 CAVOK 19/13 Q1024=
201011021300 METAR LPPR 021300Z 30007KT CAVOK 18/13 Q1024=
201011021230 METAR LPPR 021230Z 35008KT CAVOK 18/11 Q1025=
201011021200 METAR LPPR 021200Z 36007KT CAVOK 17/11 Q1025=
201011021130 METAR LPPR 021130Z 35007KT 330V030 CAVOK 17/11 Q1025=
201011021100 METAR LPPR 021100Z 01005KT 330V070 CAVOK 16/11 Q1025=
201011021030 METAR LPPR 021030Z 04004KT CAVOK 15/10 Q1025=
201011021000 METAR LPPR 021000Z 03005KT 350V080 CAVOK 14/10 Q1026=
201011020930 METAR LPPR 020930Z VRB03KT CAVOK 14/11 Q1026=
201011020900 METAR LPPR 020900Z VRB03KT CAVOK 12/12 Q1026=
201011020830 METAR LPPR 020830Z 00000KT 9999 FEW018 11/10 Q1025=
201011020800 METAR LPPR 020800Z 00000KT 9999 FEW017 10/09 Q1025=
201011020730 METAR LPPR 020730Z 00000KT 9999 FEW017 09/09 Q1025=
201011020700 METAR LPPR 020700Z 00000KT CAVOK 09/08 Q1025=
201011020630 METAR LPPR 020630Z 06002KT CAVOK 09/08 Q1024=
201011020600 METAR LPPR 020600Z 07002KT CAVOK 09/08 Q1024=
201011020530 METAR LPPR 020530Z 00000KT CAVOK 09/08 Q1024=
201011020500 METAR LPPR 020500Z VRB01KT CAVOK 10/09 Q1024=
201011020430 METAR LPPR 020430Z 12002KT CAVOK 09/08 Q1024=
201011020400 METAR LPPR 020400Z VRB02KT CAVOK 09/09 Q1024=
201011020330 METAR LPPR 020330Z 34002KT CAVOK 09/09 Q1024=
201011020300 METAR LPPR 020300Z 36002KT CAVOK 10/09 Q1024=
201011020230 METAR LPPR 020230Z 34005KT CAVOK 09/08 Q1024=
201011020200 METAR LPPR 020200Z 33005KT CAVOK 10/09 Q1024=
201011020130 METAR LPPR 020130Z 33004KT CAVOK 10/09 Q1024=
201011020100 METAR LPPR 020100Z 34003KT CAVOK 10/09 Q1024=
201011020030 METAR LPPR 020030Z VRB03KT CAVOK 10/09 Q1024=
201011020000 METAR LPPR 020000Z 01005KT CAVOK 11/10 Q1024=
201011012330 METAR LPPR 012330Z 02004KT CAVOK 12/10 Q1024=
201011012300 METAR LPPR 012300Z VRB01KT CAVOK 11/10 Q1024=
201011012230 METAR LPPR 012230Z 05001KT CAVOK 12/10 Q1024=
201011012200 METAR LPPR 012200Z VRB03KT CAVOK 12/10 Q1024=
201011012130 METAR LPPR 012130Z 00000KT CAVOK 12/10 Q1024=
201011012100 METAR LPPR 012100Z 34004KT CAVOK 12/10 Q1024=
201011012030 METAR LPPR 012030Z 36004KT 330V040 CAVOK 13/11 Q1024=
201011012000 METAR LPPR 012000Z 35006KT CAVOK 14/11 Q1023=
201011011930 METAR LPPR 011930Z 35006KT CAVOK 14/11 Q1023=
201011011900 METAR LPPR 011900Z 36006KT 330V040 CAVOK 15/11 Q1023=
201011011830 METAR LPPR 011830Z 35006KT CAVOK 14/12 Q1023=
201011011800 METAR LPPR 011800Z 35008KT CAVOK 15/12 Q1023=
201011011730 METAR LPPR 011730Z 35010KT 9999 FEW025 SCT250 16/12 Q1022=
201011011700 METAR LPPR 011700Z 34011KT 9999 SCT025 17/12 Q1022=
201011011630 METAR LPPR 011630Z 33011KT 9999 FEW020 SCT030 17/12 Q1022=
201011011600 METAR LPPR 011600Z 33012KT 9999 FEW020 SCT030 18/12 Q1022=
201011011530 METAR LPPR 011530Z 32012KT 290V350 9999 FEW020 SCT030 18/13
                        Q1022=
201011011500 METAR LPPR 011500Z 33012KT 9999 FEW020 SCT030 18/12 Q1022=
201011011430 METAR LPPR 011430Z 33011KT 9999 FEW015 SCT030 18/12 Q1022=
201011011400 METAR LPPR 011400Z 33013KT 9999 FEW015 SCT030 18/12 Q1022=
201011011330 METAR LPPR 011330Z 33014KT 9999 FEW015 SCT030 18/12 Q1022=
201011011300 METAR LPPR 011300Z 33014KT 9999 FEW015 SCT030 18/13 Q1022=
201011011230 METAR LPPR 011230Z 35012KT 9999 FEW015 SCT030 17/11 Q1022=
201011011200 METAR LPPR 011200Z 35010KT 9999 SCT015 18/11 Q1022=
201011011130 METAR LPPR 011130Z 34010KT 9999 SCT015 17/11 Q1023=
201011011100 METAR LPPR 011100Z 35012KT 9999 SCT015 17/11 Q1023=
201011011030 METAR LPPR 011030Z 34008KT 9999 FEW017 SCT060 16/11 Q1023=
201011011000 METAR LPPR 011000Z 35011KT 9999 FEW017 SCT045 16/11 Q1022=
201011010930 METAR LPPR 010930Z 34012KT 9999 FEW017 SCT045 16/11 Q1022=
201011010900 METAR LPPR 010900Z 34011KT 9999 FEW017 SCT045 15/11 Q1022=
201011010830 METAR LPPR 010830Z 33015KT 9999 FEW017 SCT045 14/10 Q1022=
201011010800 METAR LPPR 010800Z 34006KT 9999 FEW018 SCT045 13/10 Q1021=
201011010730 METAR LPPR 010730Z 34006KT CAVOK 13/10 Q1021=
201011010700 METAR LPPR 010700Z 33010G20KT 280V350 CAVOK 13/10 Q1020=
201011010630 METAR LPPR 010630Z 34010KT CAVOK 13/10 Q1020=
201011010600 METAR LPPR 010600Z 33010KT 9999 FEW018 SCT045 13/10 Q1020=
201011010530 METAR LPPR 010530Z 33007KT 9999 FEW018 SCT045 13/10 Q1020=
201011010500 METAR LPPR 010500Z 34007KT 9999 FEW018 BKN040 14/10 Q1019=
201011010430 METAR LPPR 010430Z 02006KT 9999 FEW017 BKN035 14/10 Q1019=
201011010400 METAR LPPR 010400Z 36007KT 330V030 9999 FEW017 BKN040 14/11
                        Q1019=
201011010330 METAR LPPR 010330Z 36008KT 9999 FEW015 BKN040 14/11 Q1018=
201011010300 METAR LPPR 010300Z 35005KT 9999 FEW015 BKN035 14/11 Q1018=
201011010230 METAR LPPR 010230Z VRB03KT 9999 FEW015 BKN035 14/11 Q1018=
201011010200 METAR LPPR 010200Z VRB03KT 9999 FEW015 BKN025 14/11 Q1018=
201011010130 METAR LPPR 010130Z 02006KT 330V060 9999 FEW015 BKN025 14/11
                        Q1018=
201011010100 METAR LPPR 010100Z 36005KT 320V050 9999 FEW015 BKN030 14/11
                        Q1017=
201011010030 METAR LPPR 010030Z 35010KT 320V020 9999 FEW015 BKN025 14/11
                        Q1017=
201011010000 METAR LPPR 010000Z 34011KT 9999 FEW015 BKN025 14/11 Q1017=

</pre>

</body>
</html>
