##########################################################
# Query made at 11/07/2014 16:49:44 UTC
# Time interval: from 11/01/2011 00:00  to 12/01/2011 23:59  UTC
##########################################################

##########################################################
# LPPR, Porto / Pedras Rubras (Portugal)
# WMO index: 08545
# Latitude 41-14N. Longitude 008-41W. Altitude 69 m.
##########################################################

###################################
#  METAR/SPECI from LPPR
###################################
201112012330 METAR LPPR 012330Z 32011KT 260V350 9999 FEW025 BKN030 13/08
                        Q1021=
201112012300 METAR LPPR 012300Z 32010KT 280V350 9999 FEW024 BKN032 14/08
                        Q1021 RERA=
201112012230 METAR LPPR 012230Z 32012G24KT 270V350 7000 RA FEW005 BKN014
                        BKN022 12/11 Q1021=
201112012200 METAR LPPR 012200Z 32011KT 280V350 6000 -RA SCT003 OVC011
                        13/13 Q1020 RERA WS ALL RWY=
201112012130 METAR LPPR 012130Z 26010G23KT 210V320 3000 +RA BR SCT004
                        BKN010 OVC017 14/13 Q1020 WS ALL
                        RWY=
201112012100 METAR LPPR 012100Z 21014KT 190V250 5000 -RA BR FEW004 SCT010
                        OVC017 15/14 Q1019=
201112012030 METAR LPPR 012030Z 20017G27KT 7000 -RA FEW014 SCT020 BKN029
                        16/14 Q1020=
201112012000 METAR LPPR 012000Z 20016KT 9999 SCT015 SCT020 BKN035 16/13
                        Q1020=
201112011930 METAR LPPR 011930Z 19015KT 9999 FEW015 SCT020 BKN045 16/13
                        Q1021=
201112011900 METAR LPPR 011900Z 19014KT 150V220 9999 SCT025 BKN040 16/13
                        Q1021=
201112011830 METAR LPPR 011830Z 19013KT 9999 SCT030 BKN042 15/13 Q1021=
201112011800 METAR LPPR 011800Z 19012KT 9999 SCT035 BKN042 15/13 Q1022=
201112011730 METAR LPPR 011730Z 19015KT 9999 FEW017 SCT040 15/12 Q1022=
201112011700 METAR LPPR 011700Z 19014KT 9999 FEW017 SCT036 15/12 Q1022=
201112011630 METAR LPPR 011630Z 19015KT 9999 FEW017 SCT034 15/12 Q1022=
201112011600 METAR LPPR 011600Z 19014KT 9999 FEW017 SCT039 15/11 Q1022=
201112011530 METAR LPPR 011530Z 19014KT 9999 SCT039 15/11 Q1022=
201112011500 METAR LPPR 011500Z 18014KT 9999 SCT039 15/11 Q1023=
201112011430 METAR LPPR 011430Z 19013KT 9999 SCT037 BKN042 15/10 Q1023=
201112011400 METAR LPPR 011400Z 18013KT 9999 SCT031 SCT036 BKN044 15/10
                        Q1023=
201112011330 METAR LPPR 011330Z 19012KT 9999 SCT031 SCT036 BKN044 14/10
                        Q1023=
201112011300 METAR LPPR 011300Z 19013KT 9999 SCT031 BKN045 15/09 Q1024=
201112011230 METAR LPPR 011230Z 18013KT 9999 SCT030 BKN050 15/09 Q1024=
201112011200 METAR LPPR 011200Z 16012KT CAVOK 15/08 Q1025=
201112011130 METAR LPPR 011130Z 15009KT CAVOK 14/08 Q1025=
201112011100 METAR LPPR 011100Z 14010KT 9999 SCT036 BKN050 13/08 Q1025=
201112011030 METAR LPPR 011030Z 13009KT 9999 SCT048 12/07 Q1025=
201112011000 METAR LPPR 011000Z 14010KT 9999 SCT045 BKN050 12/07 Q1025=
201112010930 METAR LPPR 010930Z 12010KT 9999 SCT045 BKN050 11/07 Q1025=
201112010900 METAR LPPR 010900Z 12009KT 9999 SCT031 BKN042 11/07 Q1025=
201112010830 METAR LPPR 010830Z 12008KT 9999 SCT031 BKN042 10/06 Q1025=
201112010800 METAR LPPR 010800Z 13007KT 9999 BKN043 10/06 Q1025=
201112010730 METAR LPPR 010730Z 12009KT 9999 BKN042 10/06 Q1025=
201112010700 METAR LPPR 010700Z 11011KT 9999 BKN040 10/06 Q1024=
201112010630 METAR LPPR 010630Z 11010KT 9999 BKN040 10/06 Q1024=
201112010600 METAR LPPR 010600Z 12009KT 9999 BKN040 10/06 Q1024=
201112010530 METAR LPPR 010530Z 11009KT 9999 BKN040 10/06 Q1024=
201112010500 METAR LPPR 010500Z 11010KT 9999 BKN040 10/06 Q1024=
201112010430 METAR LPPR 010430Z 12010KT 9999 BKN040 10/06 Q1024=
201112010400 METAR LPPR 010400Z 12011KT 9999 BKN040 09/06 Q1024=
201112010330 METAR LPPR 010330Z 12009KT 9999 BKN040 09/06 Q1024=
201112010300 METAR LPPR 010300Z 12010KT CAVOK 09/06 Q1025=
201112010230 METAR LPPR 010230Z 12009KT CAVOK 09/06 Q1025=
201112010200 METAR LPPR 010200Z 12009KT CAVOK 09/06 Q1025=
201112010130 METAR LPPR 010130Z 11010KT CAVOK 09/06 Q1025=
201112010100 METAR LPPR 010100Z 11009KT CAVOK 09/07 Q1026=
201112010030 METAR LPPR 010030Z 11009KT CAVOK 09/07 Q1026=
201112010000 METAR LPPR 010000Z 11009KT CAVOK 10/07 Q1026=
201111302330 METAR LPPR 302330Z 11008KT CAVOK 10/07 Q1026=
201111302300 METAR LPPR 302300Z 11005KT CAVOK 10/07 Q1026=
201111302230 METAR LPPR 302230Z 12010KT CAVOK 10/07 Q1026=
201111302200 METAR LPPR 302200Z 12009KT 9999 FEW045 10/07 Q1026=
201111302130 METAR LPPR 302130Z 11008KT 9999 SCT044 11/07 Q1026=
201111302100 METAR LPPR 302100Z 11008KT 9999 SCT042 11/07 Q1026=
201111302030 METAR LPPR 302030Z 11008KT 080V140 9999 SCT040 11/07 Q1026=
201111302000 METAR LPPR 302000Z 12010KT 9999 BKN040 12/07 Q1026=
201111301930 METAR LPPR 301930Z 12009KT 9999 BKN040 12/08 Q1025=
201111301900 METAR LPPR 301900Z 13008KT 9999 BKN040 13/08 Q1025=
201111301830 METAR LPPR 301830Z 13006KT 9999 BKN040 13/08 Q1025=
201111301800 METAR LPPR 301800Z 13007KT 9999 BKN038 13/09 Q1025=
201111301730 METAR LPPR 301730Z 17008KT 9999 SCT037 BKN043 14/08 Q1025=
201111301700 METAR LPPR 301700Z 18008KT 9999 BKN038 BKN045 15/08 Q1025=
201111301630 METAR LPPR 301630Z 18008KT 9999 BKN043 15/08 Q1025=
201111301600 METAR LPPR 301600Z 18009KT 9999 BKN043 15/09 Q1025=
201111301530 METAR LPPR 301530Z 19011KT 9999 FEW040 15/08 Q1025=
201111301500 METAR LPPR 301500Z 18013KT 9999 SCT040 16/08 Q1025=
201111301430 METAR LPPR 301430Z 19012KT 9999 SCT040 16/08 Q1025=
201111301400 METAR LPPR 301400Z 18012KT 9999 SCT040 16/08 Q1025=
201111301330 METAR LPPR 301330Z 19010KT 9999 SCT035 BKN042 16/09 Q1025=
201111301300 METAR LPPR 301300Z 17008KT 9999 SCT035 BKN042 15/09 Q1025=
201111301230 METAR LPPR 301230Z 16007KT 130V190 9999 SCT035 16/08 Q1026=
201111301200 METAR LPPR 301200Z 14008KT 9999 FEW035 15/08 Q1026=
201111301130 METAR LPPR 301130Z 13009KT CAVOK 14/08 Q1026=
201111301100 METAR LPPR 301100Z 13010KT CAVOK 13/07 Q1026=
201111301030 METAR LPPR 301030Z 12009KT CAVOK 13/07 Q1026=
201111301000 METAR LPPR 301000Z 12009KT 100V160 CAVOK 12/07 Q1026=
201111300930 METAR LPPR 300930Z 12009KT CAVOK 11/07 Q1026=
201111300900 METAR LPPR 300900Z 12009KT CAVOK 10/06 Q1026=
201111300830 METAR LPPR 300830Z 12008KT CAVOK 10/06 Q1026=
201111300800 METAR LPPR 300800Z 12009KT CAVOK 10/06 Q1026=
201111300730 METAR LPPR 300730Z 12009KT CAVOK 10/06 Q1025=
201111300700 METAR LPPR 300700Z 12009KT CAVOK 10/06 Q1025=
201111300630 METAR LPPR 300630Z 12008KT CAVOK 10/06 Q1025=
201111300600 METAR LPPR 300600Z 12009KT CAVOK 10/07 Q1025=
201111300530 METAR LPPR 300530Z 12008KT CAVOK 10/07 Q1025=
201111300500 METAR LPPR 300500Z 12008KT CAVOK 10/07 Q1025=
201111300430 METAR LPPR 300430Z 12010KT CAVOK 11/07 Q1025=
201111300400 METAR LPPR 300400Z 12011KT CAVOK 11/07 Q1025=
201111300330 METAR LPPR 300330Z 12008KT CAVOK 11/07 Q1025=
201111300300 METAR LPPR 300300Z 12009KT CAVOK 11/07 Q1025=
201111300230 METAR LPPR 300230Z 12010KT CAVOK 11/07 Q1025=
201111300200 METAR LPPR 300200Z 12009KT CAVOK 11/07 Q1025=
201111300130 METAR LPPR 300130Z 12008KT 9999 BKN049 11/08 Q1025=
201111300100 METAR LPPR 300100Z 12007KT CAVOK 11/08 Q1025=
201111300030 METAR LPPR 300030Z 12007KT 9999 BKN049 12/08 Q1025=
201111300000 METAR LPPR 300000Z 12009KT 9999 SCT048 11/08 Q1025=
201111292330 METAR LPPR 292330Z 12009KT 9999 SCT044 BKN050 12/08 Q1025=
201111292300 METAR LPPR 292300Z 12009KT 9999 BKN040 12/08 Q1025=
201111292230 METAR LPPR 292230Z 12008KT 9999 BKN040 13/08 Q1025=
201111292200 METAR LPPR 292200Z 13009KT 9999 BKN040 13/09 Q1025=
201111292130 METAR LPPR 292130Z 14006KT 9999 BKN040 13/09 Q1025=
201111292100 METAR LPPR 292100Z 14008KT 9999 SCT040 13/09 Q1025=
201111292030 METAR LPPR 292030Z 14008KT 9999 BKN040 13/09 Q1025=
201111292000 METAR LPPR 292000Z 13007KT 9000 OVC040 13/09 Q1025=
201111291930 METAR LPPR 291930Z 15006KT 9999 BKN040 14/09 Q1025=
201111291900 METAR LPPR 291900Z 16008KT 9999 BKN040 14/09 Q1024=
201111291830 METAR LPPR 291830Z 17007KT 9999 SCT030 BKN043 14/09 Q1025=
201111291800 METAR LPPR 291800Z 16008KT 9999 SCT030 BKN040 14/09 Q1024=
201111291730 METAR LPPR 291730Z 17009KT 9999 BKN040 14/09 Q1024=
201111291700 METAR LPPR 291700Z 19007KT 9999 SCT035 15/10 Q1024=
201111291630 METAR LPPR 291630Z 18009KT 9999 SCT040 15/10 Q1023=
201111291600 METAR LPPR 291600Z 18009KT CAVOK 15/10 Q1023=
201111291530 METAR LPPR 291530Z 18010KT 9999 FEW027 SCT045 15/10 Q1023=
201111291500 METAR LPPR 291500Z 18010KT 9999 FEW027 SCT046 15/10 Q1023=
201111291430 METAR LPPR 291430Z 17010KT 9999 FEW027 SCT047 16/10 Q1023=
201111291400 METAR LPPR 291400Z 16008KT 9000 FEW027 SCT046 15/10 Q1024=
201111291330 METAR LPPR 291330Z 15008KT 9999 SCT036 15/09 Q1024=
201111291230 METAR LPPR 291230Z 14009KT 9000 SCT035 BKN050 14/09 Q1024=
201111291200 METAR LPPR 291200Z 14008KT 9000 SCT042 BKN050 13/09 Q1024=
201111291130 METAR LPPR 291130Z 13007KT 9000 FEW027 SCT045 BKN050 12/09
                        Q1025=
201111291100 METAR LPPR 291100Z 13008KT 9000 FEW027 SCT040 BKN049 12/09
                        Q1025=
201111291030 METAR LPPR 291030Z 13009KT 9000 SCT027 BKN043 BKN048 11/08
                        Q1025=
201111291000 METAR LPPR 291000Z 13010KT 9000 SCT027 BKN043 BKN048 10/07
                        Q1025=
201111290930 METAR LPPR 290930Z 13009KT 9000 SCT026 BKN034 BKN039 10/07
                        Q1024=
201111290900 METAR LPPR 290900Z 12010KT 9000 SCT026 BKN034 BKN039 09/07
                        Q1024=
201111290830 METAR LPPR 290830Z 12010KT 9000 SCT026 BKN034 BKN039 09/07
                        Q1024=
201111290800 METAR LPPR 290800Z 12009KT 9000 BKN026 BKN035 09/06 Q1023=
201111290730 METAR LPPR 290730Z 12010KT 9999 SCT030 BKN035 09/06 Q1023=
201111290700 METAR LPPR 290700Z 12011KT 090V150 9999 SCT030 BKN042 09/06
                        Q1022=
201111290630 METAR LPPR 290630Z 12010KT 9999 SCT030 BKN042 09/06 Q1022=
201111290600 METAR LPPR 290600Z 12009KT 9999 BKN040 08/06 Q1022=
201111290530 METAR LPPR 290530Z 12011KT 9999 BKN035 08/06 Q1021=
201111290500 METAR LPPR 290500Z 12008KT 9999 FEW025 BKN035 09/06 Q1022=
201111290430 METAR LPPR 290430Z 12009KT 9999 FEW020 BKN035 09/06 Q1022=
201111290400 METAR LPPR 290400Z 12010KT 9999 FEW025 BKN035 09/07 Q1022=
201111290330 METAR LPPR 290330Z 12010KT 9000 FEW020 BKN035 09/07 Q1022=
201111290300 METAR LPPR 290300Z 12009KT 9000 FEW020 BKN035 09/07 Q1022=
201111290230 METAR LPPR 290230Z 12010KT 9000 FEW018 BKN030 09/07 Q1022=
201111290200 METAR LPPR 290200Z 12010KT 9000 SCT020 BKN030 09/06 Q1022=
201111290130 METAR LPPR 290130Z 12009KT 8000 SCT018 BKN030 09/07 Q1022=
201111290100 METAR LPPR 290100Z 12009KT 8000 SCT020 BKN030 09/07 Q1023=
201111290030 METAR LPPR 290030Z 11010KT 8000 SCT025 09/07 Q1023=
201111290000 METAR LPPR 290000Z 11009KT 7000 SCT025 08/07 Q1023=
201111282330 METAR LPPR 282330Z 11010KT 6000 SCT020 08/07 Q1023=
201111282300 METAR LPPR 282300Z 11009KT 6000 SCT020 08/07 Q1023=
201111282230 METAR LPPR 282230Z 10005KT 040V130 5000 BR SCT020 08/07 Q1023=
201111282200 METAR LPPR 282200Z 11005KT 060V160 5000 BR FEW020 09/08 Q1023=
201111282130 METAR LPPR 282130Z VRB01KT 4000 BR NSC 09/08 Q1023=
201111282100 METAR LPPR 282100Z VRB01KT 4000 BR NSC 09/08 Q1023=
201111282030 METAR LPPR 282030Z 12006KT 4000 BR NSC 09/09 Q1023=
201111282000 METAR LPPR 282000Z 12005KT 090V160 3000 BR NSC 09/09 Q1023=
201111281930 METAR LPPR 281930Z 00000KT 3000 BR FEW008 09/08 Q1023=
201111281900 METAR LPPR 281900Z VRB01KT 4000 BR FEW013 10/09 Q1023=
201111281830 METAR LPPR 281830Z 00000KT 4000 BR FEW014 10/09 Q1023=
201111281800 METAR LPPR 281800Z 05002KT 4000 BR FEW012 10/09 Q1023=
201111281730 METAR LPPR 281730Z VRB02KT 5000 BR FEW015 11/10 Q1023=
201111281700 METAR LPPR 281700Z 00000KT 7000 FEW012 12/10 Q1023=
201111281630 METAR LPPR 281630Z VRB02KT 9000 FEW012 SCT020 14/10 Q1023=
201111281600 METAR LPPR 281600Z 23004KT 190V270 9000 FEW009 SCT017 14/10
                        Q1023=
201111281530 METAR LPPR 281530Z 26003KT 200V290 9000 FEW009 SCT017 15/10
                        Q1023=
201111281500 METAR LPPR 281500Z 24003KT 170V290 9000 FEW009 SCT017 15/11
                        Q1023=
201111281430 METAR LPPR 281430Z 18004KT 130V220 8000 FEW009 SCT018 15/10
                        Q1023=
201111281400 METAR LPPR 281400Z VRB02KT 9000 SCT013 15/10 Q1023=
201111281330 METAR LPPR 281330Z 15003KT 090V210 7000 FEW011 14/10 Q1023=
201111281300 METAR LPPR 281300Z 14003KT 090V190 8000 FEW011 15/11 Q1023=
201111281230 METAR LPPR 281230Z 14004KT 100V180 8000 FEW011 13/10 Q1023=
201111281200 METAR LPPR 281200Z 13006KT 7000 FEW009 SCT013 13/10 Q1024=
201111281130 METAR LPPR 281130Z 13007KT 7000 BKN009 13/09 Q1024=
201111281100 METAR LPPR 281100Z 12007KT 9999 SCT009 12/08 Q1024=
201111281030 METAR LPPR 281030Z 12009KT 9999 FEW008 11/07 Q1024=
201111281000 METAR LPPR 281000Z 12008KT CAVOK 11/06 Q1024=
201111280930 METAR LPPR 280930Z 13006KT CAVOK 10/06 Q1024=
201111280900 METAR LPPR 280900Z VRB03KT CAVOK 09/06 Q1024=
201111280830 METAR LPPR 280830Z VRB02KT CAVOK 07/05 Q1024=
201111280800 METAR LPPR 280800Z VRB01KT 7000 NSC 05/04 Q1023=
201111280730 METAR LPPR 280730Z 12003KT 080V140 CAVOK 06/05 Q1023=
201111280700 METAR LPPR 280700Z 10003KT 060V150 CAVOK 07/07 Q1023=
201111280630 METAR LPPR 280630Z 04003KT 010V160 3000 BR NSC 06/05 Q1023=
201111280600 METAR LPPR 280600Z 00000KT 8000 NSC 07/06 Q1023=
201111280530 METAR LPPR 280530Z VRB02KT 7000 NSC 07/06 Q1022=
201111280500 METAR LPPR 280500Z 02003KT 350V060 4000 BR NSC 06/05 Q1023=
201111280430 METAR LPPR 280430Z 00000KT 8000 NSC 07/07 Q1023=
201111280400 METAR LPPR 280400Z VRB01KT 7000 NSC 08/07 Q1023=
201111280330 METAR LPPR 280330Z 12006KT 6000 NSC 08/07 Q1023=
201111280300 METAR LPPR 280300Z VRB01KT 4500 BR NSC 08/07 Q1023=
201111280230 METAR LPPR 280230Z 14003KT 110V170 4000 BR NSC 07/07 Q1023=
201111280200 METAR LPPR 280200Z 17003KT 2000 BR NSC 05/05 Q1023=
201111280130 METAR LPPR 280130Z VRB01KT 2000 BR NSC 06/06 Q1023=
201111280100 METAR LPPR 280100Z 09003KT 070V130 2000 BR NSC 06/06 Q1023=
201111280030 METAR LPPR 280030Z VRB01KT 3000 BR NSC 06/05 Q1024=
201111280000 METAR LPPR 280000Z 02003KT 340V080 4000 BR NSC 07/06 Q1024=
201111272330 METAR LPPR 272330Z VRB03KT 7000 NSC 09/08 Q1024=
201111272300 METAR LPPR 272300Z VRB02KT 7000 NSC 09/08 Q1024=
201111272230 METAR LPPR 272230Z VRB01KT 5000 BR NSC 07/06 Q1024=
201111272200 METAR LPPR 272200Z VRB01KT 5000 BR NSC 07/06 Q1024=
201111272130 METAR LPPR 272130Z 03003KT 350V100 4000 BR NSC 07/06 Q1024=
201111272100 METAR LPPR 272100Z VRB01KT 6000 NSC 09/08 Q1024=
201111272030 METAR LPPR 272030Z VRB02KT 7000 NSC 10/08 Q1024=
201111272000 METAR LPPR 272000Z 12004KT 6000 NSC 09/08 Q1024=
201111271930 METAR LPPR 271930Z VRB01KT 6000 NSC 09/08 Q1024=
201111271900 METAR LPPR 271900Z VRB01KT 6000 NSC 09/08 Q1024=
201111271830 METAR LPPR 271830Z 00000KT 6000 NSC 10/09 Q1024=
201111271800 METAR LPPR 271800Z VRB02KT 7000 NSC 10/09 Q1024=
201111271730 METAR LPPR 271730Z VRB02KT 6000 NSC 11/09 Q1024=
201111271700 METAR LPPR 271700Z VRB02KT 7000 NSC 12/09 Q1024=
201111271630 METAR LPPR 271630Z 33005KT 8000 NSC 13/09 Q1024=
201111271600 METAR LPPR 271600Z VRB01KT 9000 NSC 14/10 Q1024=
201111271530 METAR LPPR 271530Z 31003KT 270V360 8000 NSC 14/10 Q1024=
201111271500 METAR LPPR 271500Z 29005KT 270V330 9000 NSC 14/09 Q1024=
201111271430 METAR LPPR 271430Z 29004KT 250V340 CAVOK 14/09 Q1024=
201111271400 METAR LPPR 271400Z 25003KT 180V310 CAVOK 14/09 Q1024=
201111271330 METAR LPPR 271330Z 28003KT 250V310 9000 NSC 14/09 Q1025=
201111271300 METAR LPPR 271300Z 28004KT 240V310 9000 NSC 15/09 Q1025=
201111271230 METAR LPPR 271230Z 28004KT 240V330 9000 NSC 14/09 Q1026=
201111271200 METAR LPPR 271200Z VRB02KT 9000 NSC 15/09 Q1026=
201111271130 METAR LPPR 271130Z 15003KT 080V250 CAVOK 14/08 Q1026=
201111271100 METAR LPPR 271100Z 11004KT 080V160 CAVOK 14/08 Q1026=
201111271030 METAR LPPR 271030Z 11007KT CAVOK 13/08 Q1027=
201111271000 METAR LPPR 271000Z 12009KT 9000 NSC 11/08 Q1027=
201111270930 METAR LPPR 270930Z 11006KT 060V130 9000 NSC 10/07 Q1026=
201111270900 METAR LPPR 270900Z 11007KT 9000 NSC 09/07 Q1026=
201111270830 METAR LPPR 270830Z 15004KT 7000 NSC 07/07 Q1026=
201111270800 METAR LPPR 270800Z 12006KT 7000 NSC 06/05 Q1026=
201111270730 METAR LPPR 270730Z 13003KT 090V180 7000 NSC 07/06 Q1026=
201111270700 METAR LPPR 270700Z VRB02KT 8000 NSC 07/07 Q1026=
201111270630 METAR LPPR 270630Z VRB02KT 8000 NSC 05/05 Q1026=
201111270600 METAR LPPR 270600Z 14002KT 8000 NSC 06/06 Q1026=
201111270530 METAR LPPR 270530Z 14002KT 9000 NSC 06/05 Q1026=
201111270500 METAR LPPR 270500Z 00000KT 8000 NSC 06/06 Q1026=
201111270430 METAR LPPR 270430Z 07002KT 8000 NSC 06/06 Q1026=
201111270400 METAR LPPR 270400Z VRB02KT 8000 NSC 05/05 Q1026=
201111270330 METAR LPPR 270330Z VRB01KT 6000 NSC 07/06 Q1027=
201111270300 METAR LPPR 270300Z VRB02KT 6000 NSC 06/05 Q1027=
201111270230 METAR LPPR 270230Z 10002KT 6000 NSC 07/07 Q1027=
201111270200 METAR LPPR 270200Z 00000KT 7000 NSC 07/06 Q1027=
201111270130 METAR LPPR 270130Z 00000KT 6000 NSC 06/05 Q1027=
201111270100 METAR LPPR 270100Z VRB02KT 9000 NSC 08/07 Q1027=
201111270030 METAR LPPR 270030Z VRB02KT 9000 NSC 08/06 Q1028=
201111270000 METAR LPPR 270000Z VRB02KT 9000 NSC 10/08 Q1028=
201111262330 METAR LPPR 262330Z VRB02KT 7000 NSC 08/07 Q1028=
201111262300 METAR LPPR 262300Z VRB01KT 7000 NSC 10/08 Q1028=
201111262230 METAR LPPR 262230Z VRB01KT 8000 NSC 11/08 Q1028=
201111262200 METAR LPPR 262200Z 13002KT 8000 NSC 08/06 Q1028=
201111262130 METAR LPPR 262130Z VRB02KT 8000 NSC 09/07 Q1028=
201111262100 METAR LPPR 262100Z 11001KT 9000 NSC 08/06 Q1028=
201111262030 METAR LPPR 262030Z 00000KT 9000 NSC 10/08 Q1028=
201111262000 METAR LPPR 262000Z 01003KT 320V050 9000 NSC 11/09 Q1029=
201111261930 METAR LPPR 261930Z 36004KT 9000 NSC 11/09 Q1029=
201111261900 METAR LPPR 261900Z 01003KT CAVOK 12/09 Q1029=
201111261830 METAR LPPR 261830Z 36003KT CAVOK 12/09 Q1028=
201111261800 METAR LPPR 261800Z 36003KT CAVOK 13/09 Q1028=
201111261730 METAR LPPR 261730Z 36004KT 7000 NSC 13/09 Q1028=
201111261700 METAR LPPR 261700Z 33004KT 8000 NSC 14/10 Q1028=
201111261630 METAR LPPR 261630Z 31003KT 280V340 9000 NSC 16/11 Q1028=
201111261600 METAR LPPR 261600Z 31005KT CAVOK 17/10 Q1028=
201111261530 METAR LPPR 261530Z VRB02KT CAVOK 18/11 Q1028=
201111261500 METAR LPPR 261500Z 08004KT 050V110 CAVOK 20/08 Q1028=
201111261430 METAR LPPR 261430Z 10004KT 050V130 CAVOK 20/08 Q1029=
201111261400 METAR LPPR 261400Z 10005KT 060V140 CAVOK 19/08 Q1029=
201111261330 METAR LPPR 261330Z 08006KT CAVOK 19/08 Q1029=
201111261300 METAR LPPR 261300Z 09006KT 050V130 CAVOK 18/08 Q1029=
201111261230 METAR LPPR 261230Z 10006KT 060V140 CAVOK 18/07 Q1030=
201111261200 METAR LPPR 261200Z 10007KT 070V130 CAVOK 17/08 Q1030=
201111261130 METAR LPPR 261130Z 08006KT 050V140 CAVOK 16/08 Q1030=
201111261100 METAR LPPR 261100Z 08006KT 040V150 CAVOK 16/08 Q1031=
201111261030 METAR LPPR 261030Z 08006KT 040V100 CAVOK 15/08 Q1031=
201111261000 METAR LPPR 261000Z 09007KT 030V130 CAVOK 14/08 Q1031=
201111260930 METAR LPPR 260930Z 11008KT 060V130 CAVOK 13/07 Q1031=
201111260900 METAR LPPR 260900Z 11010KT CAVOK 12/07 Q1031=
201111260830 METAR LPPR 260830Z 11008KT CAVOK 11/06 Q1031=
201111260800 METAR LPPR 260800Z 11008KT CAVOK 10/06 Q1031=
201111260730 METAR LPPR 260730Z 10006KT CAVOK 10/06 Q1030=
201111260700 METAR LPPR 260700Z 09004KT 060V120 CAVOK 11/06 Q1030=
201111260630 METAR LPPR 260630Z 11006KT CAVOK 09/06 Q1030=
201111260600 METAR LPPR 260600Z 05003KT 020V090 CAVOK 08/06 Q1030=
201111260530 METAR LPPR 260530Z 02004KT 350V070 CAVOK 07/06 Q1030=
201111260500 METAR LPPR 260500Z 06004KT CAVOK 07/06 Q1030=
201111260430 METAR LPPR 260430Z 06004KT CAVOK 07/06 Q1030=
201111260400 METAR LPPR 260400Z 05003KT 8000 NSC 07/06 Q1030=
201111260330 METAR LPPR 260330Z 04004KT 8000 NSC 07/06 Q1030=
201111260300 METAR LPPR 260300Z 02004KT 8000 NSC 07/06 Q1030=
201111260230 METAR LPPR 260230Z 07004KT 040V120 8000 NSC 08/07 Q1030=
201111260200 METAR LPPR 260200Z 08005KT 7000 NSC 08/08 Q1030=
201111260130 METAR LPPR 260130Z VRB01KT 5000 BR NSC 09/08 Q1031=
201111260100 METAR LPPR 260100Z VRB02KT 5000 BR NSC 08/08 Q1031=
201111260030 METAR LPPR 260030Z VRB01KT 5000 BR NSC 09/08 Q1031=
201111260000 METAR LPPR 260000Z 03003KT 5000 2000N BR NSC 08/08 Q1031=
201111252330 METAR LPPR 252330Z 01004KT 350V050 5000 2900N BR NSC 08/08
                        Q1031=
201111252300 METAR LPPR 252300Z VRB01KT 7000 2500N BR NSC 09/08 Q1031=
201111252230 METAR LPPR 252230Z 01002KT 7000 3000N BR NSC 09/09 Q1031=
201111252200 METAR LPPR 252200Z 08003KT 030V170 7000 3000N BR NSC 09/08
                        Q1031=
201111252130 METAR LPPR 252130Z VRB02KT 7000 2500N BR NSC 10/09 Q1031=
201111252100 METAR LPPR 252100Z 01002KT 8000 3500N BR NSC 09/09 Q1031=
201111252030 METAR LPPR 252030Z VRB01KT 9999 2500N BR 10/10 Q1031=
201111252000 METAR LPPR 252000Z VRB01KT 7000 2000N BR FEW008 11/10 Q1031=
201111251930 METAR LPPR 251930Z 01003KT 350V150 9000 3000N BR NSC 10/09
                        Q1031=
201111251900 METAR LPPR 251900Z VRB01KT 8000 NSC 12/11 Q1030=
201111251830 METAR LPPR 251830Z 05002KT 7000 NSC 12/11 Q1030=
201111251800 METAR LPPR 251800Z 02003KT 340V040 8000 NSC 12/11 Q1030=
201111251730 METAR LPPR 251730Z VRB02KT 7000 NSC 13/11 Q1030=
201111251700 METAR LPPR 251700Z 30003KT 9000 NSC 15/12 Q1030=
201111251630 METAR LPPR 251630Z VRB02KT CAVOK 16/12 Q1030=
201111251600 METAR LPPR 251600Z 34003KT CAVOK 17/11 Q1029=
201111251530 METAR LPPR 251530Z 33004KT 290V360 CAVOK 17/11 Q1030=
201111251500 METAR LPPR 251500Z 28004KT CAVOK 17/12 Q1030=
201111251430 METAR LPPR 251430Z 34004KT 300V010 CAVOK 17/10 Q1030=
201111251400 METAR LPPR 251400Z 33005KT 300V360 CAVOK 17/09 Q1030=
201111251330 METAR LPPR 251330Z 32006KT CAVOK 16/10 Q1031=
201111251300 METAR LPPR 251300Z 34004KT 300V010 CAVOK 17/09 Q1031=
201111251230 METAR LPPR 251230Z VRB03KT CAVOK 17/09 Q1031=
201111251200 METAR LPPR 251200Z VRB02KT CAVOK 16/11 Q1032=
201111251130 METAR LPPR 251130Z 05003KT 020V090 CAVOK 16/09 Q1032=
201111251100 METAR LPPR 251100Z 09003KT 050V110 CAVOK 16/08 Q1032=
201111251030 METAR LPPR 251030Z 12003KT 090V150 CAVOK 16/09 Q1032=
201111251000 METAR LPPR 251000Z VRB02KT CAVOK 14/08 Q1032=
201111250930 METAR LPPR 250930Z 08004KT 030V150 CAVOK 14/08 Q1032=
201111250900 METAR LPPR 250900Z 08003KT 360V140 CAVOK 11/07 Q1032=
201111250830 METAR LPPR 250830Z VRB03KT CAVOK 10/07 Q1031=
201111250800 METAR LPPR 250800Z 08003KT 010V140 CAVOK 06/05 Q1031=
201111250730 METAR LPPR 250730Z 11003KT CAVOK 07/07 Q1031=
201111250700 METAR LPPR 250700Z VRB02KT CAVOK 07/05 Q1030=
201111250630 METAR LPPR 250630Z 04003KT 310V100 CAVOK 07/06 Q1030=
201111250600 METAR LPPR 250600Z 36003KT 320V020 9000 NSC 08/06 Q1030=
201111250530 METAR LPPR 250530Z 35004KT 320V050 CAVOK 08/06 Q1030=
201111250500 METAR LPPR 250500Z 32003KT 260V050 CAVOK 10/06 Q1029=
201111250430 METAR LPPR 250430Z 08008KT 350V130 CAVOK 11/07 Q1029=
201111250400 METAR LPPR 250400Z 12010KT CAVOK 11/07 Q1028=
201111250330 METAR LPPR 250330Z 09005KT CAVOK 10/06 Q1028=
201111250300 METAR LPPR 250300Z 10005KT CAVOK 10/06 Q1028=
201111250230 METAR LPPR 250230Z 07005KT CAVOK 10/07 Q1028=
201111250200 METAR LPPR 250200Z 04004KT CAVOK 10/07 Q1028=
201111250130 METAR LPPR 250130Z 04003KT CAVOK 10/06 Q1028=
201111250100 METAR LPPR 250100Z 09004KT CAVOK 10/07 Q1028=
201111250030 METAR LPPR 250030Z 08003KT CAVOK 09/08 Q1028=
201111250000 METAR LPPR 250000Z VRB02KT CAVOK 08/06 Q1028=
201111241600 METAR LPPR 241600Z 32004KT CAVOK 18/11 Q1025=
201111241530 METAR LPPR 241530Z VRB02KT CAVOK 20/09 Q1025=
201111241500 METAR LPPR 241500Z 09004KT 040V140 CAVOK 20/09 Q1025=
201111241430 METAR LPPR 241430Z 12007KT CAVOK 20/08 Q1025=
201111240000 METAR LPPR 240000Z 10008KT R35/P2000 15/09 Q1025=
201111232330 METAR LPPR 232330Z 11008KT CAVOK 15/09 Q1025=
201111232300 METAR LPPR 232300Z 11006KT CAVOK 14/09 Q1025=
201111232230 METAR LPPR 232230Z 10007KT CAVOK 13/09 Q1025=
201111232130 METAR LPPR 232130Z 10005KT 050V110 CAVOK 11/09 Q1025=
201111232100 METAR LPPR 232100Z 02003KT 300V110 CAVOK 14/09 Q1025=
201111232030 METAR LPPR 232030Z 08005KT 030V110 CAVOK 14/09 Q1025=
201111232000 METAR LPPR 232000Z 09005KT 040V150 CAVOK 15/09 Q1025=
201111231930 METAR LPPR 231930Z 09005KT CAVOK 15/09 Q1024=
201111231900 METAR LPPR 231900Z 09007KT CAVOK 13/10 Q1024=
201111231830 METAR LPPR 231830Z 05003KT CAVOK 14/11 Q1024=
201111231800 METAR LPPR 231800Z 03002KT CAVOK 14/11 Q1024=
201111231730 METAR LPPR 231730Z VRB02KT CAVOK 15/12 Q1024=
201111231700 METAR LPPR 231700Z VRB02KT CAVOK 16/12 Q1023=
201111231630 METAR LPPR 231630Z 29004KT CAVOK 18/12 Q1023=
201111231600 METAR LPPR 231600Z 33003KT 270V050 CAVOK 20/10 Q1023=
201111231530 METAR LPPR 231530Z 09004KT 020V120 CAVOK 21/10 Q1022=
201111231500 METAR LPPR 231500Z 09005KT 060V140 CAVOK 21/10 Q1022=
201111231430 METAR LPPR 231430Z 11006KT CAVOK 21/10 Q1022=
201111231400 METAR LPPR 231400Z 07004KT 010V120 CAVOK 20/10 Q1022=
201111231330 METAR LPPR 231330Z 06009KT CAVOK 20/10 Q1023=
201111231300 METAR LPPR 231300Z 04010KT 010V070 CAVOK 19/10 Q1023=
201111231230 METAR LPPR 231230Z 05009KT 020V080 CAVOK 19/10 Q1023=
201111231200 METAR LPPR 231200Z 05009KT CAVOK 18/10 Q1024=
201111231130 METAR LPPR 231130Z 04007KT 010V080 CAVOK 17/11 Q1024=
201111231100 METAR LPPR 231100Z 03007G17KT 360V060 CAVOK 17/11 Q1025=
201111231030 METAR LPPR 231030Z 32003KT 280V360 CAVOK 15/10 Q1025=
201111231000 METAR LPPR 231000Z VRB01KT CAVOK 15/10 Q1024=
201111230930 METAR LPPR 230930Z VRB02KT CAVOK 13/10 Q1024=
201111230900 METAR LPPR 230900Z VRB02KT CAVOK 11/10 Q1024=
201111230830 METAR LPPR 230830Z 14003KT 090V210 CAVOK 10/09 Q1024=
201111230800 METAR LPPR 230800Z VRB05KT CAVOK 09/08 Q1024=
201111230730 METAR LPPR 230730Z 05004KT 010V080 CAVOK 09/08 Q1023=
201111230700 METAR LPPR 230700Z 02004KT 330V070 CAVOK 08/08 Q1023=
201111230630 METAR LPPR 230630Z 01002KT CAVOK 08/07 Q1023=
201111230600 METAR LPPR 230600Z VRB01KT CAVOK 09/08 Q1023=
201111230530 METAR LPPR 230530Z 01003KT CAVOK 08/07 Q1023=
201111230500 METAR LPPR 230500Z 34003KT 300V030 CAVOK 10/09 Q1022=
201111230430 METAR LPPR 230430Z 35004KT CAVOK 08/07 Q1022=
201111230400 METAR LPPR 230400Z 01003KT CAVOK 09/08 Q1022=
201111230330 METAR LPPR 230330Z VRB02KT CAVOK 09/08 Q1022=
201111230300 METAR LPPR 230300Z 01004KT CAVOK 09/08 Q1022=
201111230230 METAR LPPR 230230Z 04003KT CAVOK 09/08 Q1022=
201111230200 METAR LPPR 230200Z 35003KT CAVOK 09/08 Q1022=
201111230130 METAR LPPR 230130Z 35002KT CAVOK 11/10 Q1022=
201111230100 METAR LPPR 230100Z VRB01KT CAVOK 09/09 Q1022=
201111230030 METAR LPPR 230030Z 29002KT CAVOK 10/09 Q1022=
201111230000 METAR LPPR 230000Z 32003KT 290V350 CAVOK 11/09 Q1022=
201111222330 METAR LPPR 222330Z 35003KT CAVOK 11/10 Q1022=
201111222300 METAR LPPR 222300Z VRB02KT CAVOK 11/09 Q1021=
201111222230 METAR LPPR 222230Z 02007KT CAVOK 12/10 Q1021=
201111222200 METAR LPPR 222200Z 35005KT 320V030 CAVOK 12/10 Q1021=
201111222130 METAR LPPR 222130Z 01007KT CAVOK 13/10 Q1021=
201111222100 METAR LPPR 222100Z 01009KT CAVOK 13/10 Q1021=
201111222030 METAR LPPR 222030Z 36007KT CAVOK 13/10 Q1020=
201111222000 METAR LPPR 222000Z 01009KT CAVOK 13/10 Q1020=
201111221930 METAR LPPR 221930Z 01009KT CAVOK 14/10 Q1020=
201111221900 METAR LPPR 221900Z 32004KT 280V010 CAVOK 13/10 Q1020=
201111221830 METAR LPPR 221830Z 34008KT CAVOK 13/10 Q1019=
201111221800 METAR LPPR 221800Z 35009KT CAVOK 13/10 Q1019=
201111221730 METAR LPPR 221730Z 35008KT CAVOK 14/10 Q1019=
201111221700 METAR LPPR 221700Z 36008KT CAVOK 15/09 Q1018=
201111221630 METAR LPPR 221630Z 34005KT CAVOK 15/09 Q1018=
201111221600 METAR LPPR 221600Z 34008KT 9999 FEW030 15/09 Q1018=
201111221530 METAR LPPR 221530Z 34006KT 300V360 9999 FEW025 16/09 Q1017=
201111221500 METAR LPPR 221500Z 34006KT 300V010 9999 FEW025 17/09 Q1017=
201111221430 METAR LPPR 221430Z 01008KT 340V040 9999 FEW025 16/08 Q1017=
201111221400 METAR LPPR 221400Z 36008KT 330V030 9999 FEW020 16/08 Q1017=
201111221330 METAR LPPR 221330Z 36008KT 340V040 9999 FEW020 16/08 Q1017=
201111221300 METAR LPPR 221300Z 36009KT 9999 FEW030 15/08 Q1017=
201111221230 METAR LPPR 221230Z 35011KT 9999 FEW030 14/07 Q1017=
201111221200 METAR LPPR 221200Z 01008KT 340V040 9999 FEW015 SCT030 14/07
                        Q1017=
201111221130 METAR LPPR 221130Z 04010KT 010V070 9999 FEW015 SCT030 13/06
                        Q1017=
201111221100 METAR LPPR 221100Z 04011KT 360V070 9999 FEW015 SCT030 13/07
                        Q1017=
201111221030 METAR LPPR 221030Z 02010KT 9999 FEW015 SCT030 11/08 Q1016=
201111221000 METAR LPPR 221000Z 01009KT 9999 -SHRA FEW015 BKN030 10/07
                        Q1016=
201111220930 METAR LPPR 220930Z 02010KT 9999 -SHRA FEW009 SCT015 BKN035
                        09/07 Q1015=
201111220900 METAR LPPR 220900Z 02012KT 9999 -SHRA FEW009 SCT015 BKN035
                        09/07 Q1014=
201111220830 METAR LPPR 220830Z 02018G28KT 9000 -SHRA SCT009 SCT013 BKN023
                        10/08 Q1012=
201111220800 METAR LPPR 220800Z 35018KT 9999 SCT009 SCT012 BKN045 09/08
                        Q1011=
201111220730 METAR LPPR 220730Z 33014KT 9999 FEW011 BKN035 11/08 Q1010=
201111220700 METAR LPPR 220700Z 33017G30KT 290V350 9999 SCT015 BKN035
                        12/09 Q1010=
201111220630 METAR LPPR 220630Z 32018G34KT 280V350 9999 FEW014 SCT025
                        12/09 Q1010=
201111220600 METAR LPPR 220600Z 32017G32KT 280V360 9999 SCT018 BKN027
                        13/09 Q1010=
201111220530 METAR LPPR 220530Z 32017G29KT 280V350 8000 -SHRA FEW019 BKN025
                        12/09 Q1011=
201111220500 METAR LPPR 220500Z 33017G28KT 9999 4700/ -SHRA FEW017 BKN025
                        12/09 Q1012=
201111220430 METAR LPPR 220430Z 33019G31KT 9999 -SHRA FEW020 BKN030 12/09
                        Q1013=
201111220400 METAR LPPR 220400Z 34008KT 310V010 9999 FEW014 BKN025 11/10
                        Q1013=
201111220330 METAR LPPR 220330Z 32013G23KT 270V350 8000 -SHRA FEW020 BKN030
                        11/09 Q1014=
201111220300 METAR LPPR 220300Z 33015KT 290V350 9999 FEW020 BKN025 12/08
                        Q1014=
201111220230 METAR LPPR 220230Z 33015G26KT 9999 SCT020 BKN025 12/08 Q1014=
201111220200 METAR LPPR 220200Z 32012KT 280V360 9000 -SHRA SCT020 BKN025
                        11/09 Q1014=
201111220130 METAR LPPR 220130Z 32011G26KT 290V350 9999 -SHRA SCT020 BKN030
                        11/08 Q1015=
201111220100 METAR LPPR 220100Z 33013KT 9999 -SHRA SCT020 BKN049 11/08
                        Q1015=
201111220030 METAR LPPR 220030Z 34013KT 9999 -RA SCT025 BKN048 11/08 Q1016=
201111220000 METAR LPPR 220000Z 33012KT 9999 -RA FEW020 FEW025CB BKN045
                        11/08 Q1016=
201111212330 METAR LPPR 212330Z 34014KT 9999 -RA FEW016 FEW025CB BKN045
                        10/07 Q1016=
201111212300 METAR LPPR 212300Z 33012KT 9999 SCT016 FEW025CB BKN035 11/08
                        Q1016=
201111212230 METAR LPPR 212230Z 33012KT 9999 SCT020 FEW025 BKN040 11/08
                        Q1016=
201111212200 METAR LPPR 212200Z 33012KT 290V350 9999 FEW015 FEW020CB BKN030
                        12/07 Q1016=
201111212130 METAR LPPR 212130Z 32009KT 280V360 9999 -SHRA FEW015 FEW020CB
                        BKN040 12/08 Q1016=
201111212100 METAR LPPR 212100Z 33011KT 300V360 9999 FEW020 SCT030 12/08
                        Q1016=
201111212030 METAR LPPR 212030Z 33011KT 9999 FEW020 SCT040 12/07 Q1015=
201111212000 METAR LPPR 212000Z 34009KT 300V010 9999 FEW020 FEW025CB BKN030
                        12/09 Q1015=
201111211930 METAR LPPR 211930Z 32012G26KT 8000 -RA FEW020 BKN030 12/08
                        Q1015=
201111211900 METAR LPPR 211900Z 33010KT 9999 SCT020 BKN040 13/08 Q1015=
201111211830 METAR LPPR 211830Z 33011KT 9999 FEW020 BKN030 13/09 Q1014=
201111211800 METAR LPPR 211800Z 33008KT 9999 FEW015 BKN020 12/10 Q1014=
201111211730 METAR LPPR 211730Z 33011KT 8000 -SHRA FEW009 BKN015 BKN030
                        12/11 Q1013=
201111211700 METAR LPPR 211700Z 32014KT 4000 -SHRA FEW009 BKN015 BKN030
                        13/11 Q1013=
201111211630 METAR LPPR 211630Z 30007KT 250V360 9999 FEW007 SCT010 BKN018
                        13/12 Q1012=
201111211600 METAR LPPR 211600Z 25005KT 170V320 9999 -SHRA FEW008 SCT015
                        BKN020 15/12 Q1012=
201111211530 METAR LPPR 211530Z 26004KT 190V330 9999 SCT020 BKN030 15/12
                        Q1012=
201111211500 METAR LPPR 211500Z 24003KT 150V310 9999 FEW005 SCT013 BKN020
                        14/13 Q1012 RERA=
201111211430 METAR LPPR 211430Z 18011KT 4000 SHRA SCT007 BKN015 BKN020
                        13/13 Q1012 RERA=
201111211400 METAR LPPR 211400Z 19008KT 8000 -SHRA FEW010 SCT015 BKN030
                        14/12 Q1012=
201111211330 METAR LPPR 211330Z 19008KT 9999 FEW010 SCT015 BKN040 14/12
                        Q1012=
201111211300 METAR LPPR 211300Z 18006KT 9999 FEW009 SCT015 BKN040 14/11
                        Q1013=
201111211230 METAR LPPR 211230Z 16006KT 9999 FEW020 BKN040 13/11 Q1013=
201111211200 METAR LPPR 211200Z 15005KT 110V170 9999 FEW020 BKN040 13/10
                        Q1013=
201111211130 METAR LPPR 211130Z 13007KT 9999 FEW015 SCT030 12/10 Q1013=
201111211100 METAR LPPR 211100Z 14007KT 9999 FEW015 SCT030 11/09 Q1013=
201111211030 METAR LPPR 211030Z 14007KT 9999 FEW015 SCT030 11/09 Q1013=
201111211000 METAR LPPR 211000Z 13008KT 9999 FEW015 SCT030 11/09 Q1013=
201111210930 METAR LPPR 210930Z 12006KT 070V140 9999 FEW015 SCT030 10/09
                        Q1013=
201111210900 METAR LPPR 210900Z 12005KT 040V160 9999 FEW015 BKN030 09/08
                        Q1013=
201111210830 METAR LPPR 210830Z 15003KT 090V220 9999 FEW015 BKN030 09/08
                        Q1013=
201111210800 METAR LPPR 210800Z 12006KT 080V140 9999 FEW020 09/08 Q1012=
201111210730 METAR LPPR 210730Z 12007KT CAVOK 09/08 Q1012=
201111210700 METAR LPPR 210700Z 11007KT CAVOK 09/08 Q1012=
201111210630 METAR LPPR 210630Z 11009KT CAVOK 09/08 Q1012=
201111210600 METAR LPPR 210600Z 11008KT CAVOK 08/08 Q1012=
201111210530 METAR LPPR 210530Z 11004KT 060V180 CAVOK 08/08 Q1012=
201111210500 METAR LPPR 210500Z VRB02KT 9000 NSC 08/08 Q1012=
201111210430 METAR LPPR 210430Z VRB03KT 8000 NSC 09/09 Q1012=
201111210400 METAR LPPR 210400Z 13003KT 100V160 5000 BR NSC 08/08 Q1012=
201111210330 METAR LPPR 210330Z 01003KT 2500 BR NSC 08/07 Q1012=
201111210300 METAR LPPR 210300Z VRB02KT 7000 08/08 Q1012=
201111210230 METAR LPPR 210230Z VRB02KT 6000 NSC 08/08 Q1012=
201111210200 METAR LPPR 210200Z VRB01KT 6000 NSC 08/08 Q1012=
201111210130 METAR LPPR 210130Z 12003KT 090V150 CAVOK 09/09 Q1012=
201111210100 METAR LPPR 210100Z VRB02KT CAVOK 10/09 Q1013=
201111210030 METAR LPPR 210030Z VRB01KT 8000 NSC 09/09 Q1013=
201111210000 METAR LPPR 210000Z VRB01KT 8000 NSC 10/09 Q1013=
201111202330 METAR LPPR 202330Z 13003KT 100V170 9000 NSC 10/10 Q1013=
201111202300 METAR LPPR 202300Z VRB01KT 8000 NSC 10/09 Q1013=
201111202230 METAR LPPR 202230Z VRB01KT CAVOK 10/09 Q1013=
201111202200 METAR LPPR 202200Z VRB02KT CAVOK 10/09 Q1013=
201111202130 METAR LPPR 202130Z 00000KT CAVOK 10/10 Q1013=
201111202100 METAR LPPR 202100Z 00000KT CAVOK 10/10 Q1013=
201111202030 METAR LPPR 202030Z VRB01KT CAVOK 10/10 Q1013=
201111202000 METAR LPPR 202000Z 05003KT 010V090 CAVOK 10/10 Q1012=
201111201930 METAR LPPR 201930Z VRB02KT CAVOK 11/10 Q1012=
201111201900 METAR LPPR 201900Z VRB02KT CAVOK 11/10 Q1012=
201111201830 METAR LPPR 201830Z 00000KT CAVOK 12/11 Q1012=
201111201800 METAR LPPR 201800Z 00000KT CAVOK 12/10 Q1012=
201111201730 METAR LPPR 201730Z 30001KT 9999 FEW048 13/11 Q1011=
201111201700 METAR LPPR 201700Z VRB02KT 9999 FEW020 SCT048 15/11 Q1011=
201111201630 METAR LPPR 201630Z 25003KT 210V300 9999 FEW020 SCT048 15/11
                        Q1011=
201111201600 METAR LPPR 201600Z 27003KT 230V300 9999 FEW025 16/11 Q1011=
201111201530 METAR LPPR 201530Z 25003KT 200V340 CAVOK 16/11 Q1010=
201111201500 METAR LPPR 201500Z 26004KT 210V310 9999 FEW025 16/10 Q1010=
201111201430 METAR LPPR 201430Z 23005KT 210V270 9999 FEW025 16/11 Q1010=
201111201400 METAR LPPR 201400Z 23006KT 200V280 9999 FEW020 17/11 Q1010=
201111201330 METAR LPPR 201330Z 25006KT 220V300 9999 FEW020 17/11 Q1010=
201111201300 METAR LPPR 201300Z 17003KT 110V230 9999 FEW020 17/10 Q1010=
201111201230 METAR LPPR 201230Z 16005KT 120V190 9999 FEW020 17/10 Q1011=
201111201200 METAR LPPR 201200Z 15006KT 9999 FEW020 16/10 Q1011=
201111201130 METAR LPPR 201130Z 12005KT 9999 FEW018 16/12 Q1011=
201111201100 METAR LPPR 201100Z 12007KT 9999 FEW018 15/11 Q1011=
201111201030 METAR LPPR 201030Z 09005KT 030V120 CAVOK 15/12 Q1011=
201111201000 METAR LPPR 201000Z VRB03KT 9999 SCT040 13/12 Q1011=
201111200930 METAR LPPR 200930Z VRB02KT 9999 FEW018 BKN040 13/11 Q1010=
201111200900 METAR LPPR 200900Z 08004KT 9999 FEW018 BKN035 12/11 Q1010=
201111200830 METAR LPPR 200830Z 08003KT 010V120 9999 FEW020 BKN035 11/10
                        Q1010=
201111200800 METAR LPPR 200800Z 07003KT 9999 FEW020 BKN040 11/11 Q1009=
201111200730 METAR LPPR 200730Z 04004KT 9999 -SHRA FEW020 BKN040 12/11
                        Q1009=
201111200700 METAR LPPR 200700Z 01005KT 9999 FEW020 BKN040 11/11 Q1009=
201111200630 METAR LPPR 200630Z 34006KT 9999 FEW020 BKN040 12/11 Q1009=
201111200600 METAR LPPR 200600Z 34004KT 8000 FEW020 BKN040 12/11 Q1008=
201111200530 METAR LPPR 200530Z 31004KT 9999 -SHRA FEW020 BKN040 12/11
                        Q1008=
201111200500 METAR LPPR 200500Z 03003KT 9999 -SHRA FEW020 BKN040 12/11
                        Q1008=
201111200430 METAR LPPR 200430Z 02005KT 9999 -SHRA FEW020 BKN040 12/11
                        Q1008=
201111200400 METAR LPPR 200400Z 02006KT 9999 -RA FEW020 BKN040 12/11 Q1008=
201111200330 METAR LPPR 200330Z 02005KT 9999 -RA FEW020 BKN040 12/11 Q1008=
201111200300 METAR LPPR 200300Z 02006KT 9999 -RA FEW020 BKN040 12/11 Q1008=
201111200230 METAR LPPR 200230Z 02004KT 9999 -RA FEW020 BKN040 12/11 Q1008=
201111200200 METAR LPPR 200200Z 02004KT 9999 -RA FEW020 BKN040 12/11 Q1008=
201111200130 METAR LPPR 200130Z 03004KT 9000 -RA FEW020 BKN030 12/11 Q1008=
201111200100 METAR LPPR 200100Z 01004KT 9000 -RA FEW020 BKN030 12/11 Q1008=
201111200030 METAR LPPR 200030Z 02004KT 9000 -RA FEW020 BKN030 13/11 Q1008=
201111200000 METAR LPPR 200000Z 02004KT 9000 -RA SCT030 13/11 Q1008=
201111192330 METAR LPPR 192330Z 02003KT 9000 -RA SCT030 13/10 Q1008=
201111192300 METAR LPPR 192300Z 04005KT CAVOK 14/10 Q1008=
201111192230 METAR LPPR 192230Z 05006KT CAVOK 14/10 Q1008=
201111192200 METAR LPPR 192200Z 05003KT 9999 FEW045 13/11 Q1008=
201111192130 METAR LPPR 192130Z 01003KT 9999 SCT045 13/12 Q1008=
201111192100 METAR LPPR 192100Z 36004KT 9999 FEW025 SCT045 13/12 Q1008=
201111192030 METAR LPPR 192030Z 35004KT 9999 FEW025 SCT045 13/12 Q1008=
201111192000 METAR LPPR 192000Z 02004KT 350V050 9999 FEW025 SCT045 13/12
                        Q1007=
201111191930 METAR LPPR 191930Z 01003KT 9999 FEW025 SCT040 13/12 Q1007=
201111191900 METAR LPPR 191900Z 35004KT 9999 FEW025 SCT040 13/12 Q1007=
201111191830 METAR LPPR 191830Z 36006KT 9999 FEW025 SCT045 14/12 Q1007=
201111191800 METAR LPPR 191800Z 35008KT 9999 FEW025 SCT035 14/11 Q1007=
201111191730 METAR LPPR 191730Z 33005KT 7000 FEW025 SCT035 15/12 Q1006=
201111191700 METAR LPPR 191700Z 33004KT 9999 FEW025 16/11 Q1006=
201111191630 METAR LPPR 191630Z 01004KT CAVOK 17/10 Q1006=
201111191600 METAR LPPR 191600Z 04004KT 010V090 CAVOK 17/10 Q1006=
201111191530 METAR LPPR 191530Z 05004KT 020V080 9999 FEW030 17/10 Q1006=
201111191500 METAR COR LPPR 191500Z 04005KT 360V090 9999 FEW025 17/10
                        Q1006=
201111191430 METAR LPPR 191430Z 05006KT 010V080 9999 FEW025 17/10 Q1006=
201111191400 METAR LPPR 191400Z 03005KT 360V060 9999 FEW025 SCT032 17/10
                        Q1006=
201111191330 METAR LPPR 191330Z 01006KT 330V050 9999 SCT020 SCT032 16/10
                        Q1006=
201111191300 METAR LPPR 191300Z 03005KT 330V100 9999 R35/P2000 SCT018 FEW025CB
                        SCT029 16/11 Q1006=
201111191230 METAR LPPR 191230Z VRB04KT 9999 SCT023 FEW029CB 16/10 Q1007=
201111191200 METAR LPPR 191200Z 08005KT 020V120 9999 FEW015 FEW023CB 16/10
                        Q1007=
201111191130 METAR LPPR 191130Z 05005KT 340V130 9999 FEW013 FEW025CB 15/10
                        Q1007=
201111191100 METAR LPPR 191100Z 08006KT 050V110 9999 FEW013 FEW025CB 15/11
                        Q1008=
201111191030 METAR LPPR 191030Z 10005KT 9999 SCT013 FEW025CB 15/11 Q1008=
201111191000 METAR LPPR 191000Z 11007KT 9999 SCT013 FEW025CB 14/11 Q1008=
201111190930 METAR LPPR 190930Z 11007KT 9999 SCT013 FEW025CB 13/11 Q1008=
201111190900 METAR LPPR 190900Z 08004KT 030V120 9999 FEW015 FEW025CB 12/10
                        Q1007=
201111190830 METAR LPPR 190830Z 10005KT 060V150 9999 SCT013 SCT015CB 11/10
                        Q1007=
201111190800 METAR LPPR 190800Z 12004KT 9999 SCT015 FEW025CB 10/09 Q1007=
201111190730 METAR LPPR 190730Z 14008KT 9999 FEW025CB 10/10 Q1006=
201111190700 METAR LPPR 190700Z 14007KT 9999 SCT040 10/09 Q1006=
201111190630 METAR LPPR 190630Z 13005KT 9999 SCT040 10/09 Q1006=
201111190600 METAR LPPR 190600Z 12007KT 040V140 9999 FEW020 SCT045 11/10
                        Q1006=
201111190530 METAR LPPR 190530Z 12004KT 9999 FEW020 SCT045 10/09 Q1007=
201111190500 METAR LPPR 190500Z 14006KT 9999 FEW020 SCT045 11/10 Q1007=
201111190430 METAR LPPR 190430Z 14006KT 9999 FEW020 BKN045 12/10 Q1007=
201111190400 METAR LPPR 190400Z 14006KT 9999 FEW018 BKN045 11/10 Q1007=
201111190330 METAR LPPR 190330Z 14007KT 9999 FEW020 SCT045 11/10 Q1007=
201111190300 METAR LPPR 190300Z 13006KT 9999 FEW018 SCT040 11/10 Q1007=
201111190230 METAR LPPR 190230Z 13008KT 9999 FEW020 BKN035 12/11 Q1007=
201111190200 METAR LPPR 190200Z 11005KT 080V140 9999 SCT012 BKN045 12/11
                        Q1007=
201111190130 METAR LPPR 190130Z 16006KT 9999 FEW013 BKN025 12/11 Q1007=
201111190100 METAR LPPR 190100Z 17009KT 9999 FEW007 SCT015 BKN045 12/11
                        Q1008=
201111190030 METAR LPPR 190030Z 17012KT 9999 -RA FEW010 SCT020 BKN040
                        12/11 Q1008=
201111190000 METAR LPPR 190000Z 18014KT 9999 -RA FEW012 BKN025 13/11 Q1008=
201111182330 METAR LPPR 182330Z 18016KT 9999 -RA FEW015 BKN040 13/11 Q1008=
201111182300 METAR LPPR 182300Z 17018KT 9999 -RA FEW012 SCT018 BKN040
                        13/11 Q1008=
201111182230 METAR LPPR 182230Z 21005KT 140V260 9999 -RA SCT012 BKN040
                        13/12 Q1009=
201111182200 METAR LPPR 182200Z 18005KT 150V230 8000 -RA FEW009 SCT012
                        BKN030 13/12 Q1009=
201111182130 METAR LPPR 182130Z 19009KT 7000 -RA FEW015 BKN030 13/11 Q1009=
201111182100 METAR LPPR 182100Z 16012KT 9999 -RA SCT030 BKN045 13/11 Q1009=
201111182030 METAR LPPR 182030Z 15010KT 8000 -RA SCT030 SCT040 13/11 Q1009=
201111182000 METAR LPPR 182000Z 15010KT 8000 -RA SCT030 BKN045 13/11 Q1009=
201111181930 METAR LPPR 181930Z 14011KT 8000 -RA SCT030 BKN040 13/11 Q1009=
201111181900 METAR LPPR 181900Z 13009KT 090V160 8000 -RA SCT030 SCT040
                        12/11 Q1009=
201111181830 METAR LPPR 181830Z 13008KT 8000 -RA SCT035 SCT040 12/11 Q1010=
201111181800 METAR LPPR 181800Z 13008KT 100V170 8000 -RA SCT035 SCT045
                        12/11 Q1010=
201111181730 METAR LPPR 181730Z 17011KT 8000 -RA SCT030 SCT045 13/11 Q1010=
201111181700 METAR LPPR 181700Z 15009KT 8000 -RA SCT030 BKN045 12/11 Q1011
                        RERA=
201111181630 METAR LPPR 181630Z 16012KT 7000 RA SCT030 BKN045 13/11 Q1011=
201111181600 METAR LPPR 181600Z 16011KT 8000 RA SCT030 BKN045 13/11 Q1011=
201111181530 METAR LPPR 181530Z 16008KT 9999 -RA SCT025 BKN034 13/11 Q1011=
201111181500 METAR LPPR 181500Z 16008KT 120V180 8000 -RA SCT035 BKN042
                        13/11 Q1012=
201111181430 METAR LPPR 181430Z 16009KT 9999 -RA SCT035 BKN042 13/11 Q1012=
201111181400 METAR LPPR 181400Z 17010KT 9999 -RA SCT036 OVC045 13/11 Q1012=
201111181330 METAR LPPR 181330Z 18011KT 8000 -RA SCT030 OVC040 13/11 Q1013=
201111181300 METAR LPPR 181300Z 17005KT 9999 -RA OVC040 14/11 Q1013=
201111181230 METAR LPPR 181230Z 18006KT 150V210 8000 -RA OVC040 13/11
                        Q1013=
201111181200 METAR LPPR 181200Z 16004KT 120V200 9999 OVC040 14/09 Q1014=
201111181130 METAR LPPR 181130Z 14006KT 9999 BKN040 14/08 Q1014=
201111181100 METAR LPPR 181100Z 13009KT 9999 SCT040 14/08 Q1014=
201111181030 METAR LPPR 181030Z 12008KT 9999 FEW040 13/08 Q1015=
201111181000 METAR LPPR 181000Z 13008KT 9999 FEW040 13/08 Q1015=
201111180930 METAR LPPR 180930Z 13009KT 9999 FEW040 12/07 Q1015=
201111180900 METAR LPPR 180900Z 12009KT 9999 FEW045 12/07 Q1015=
201111180830 METAR LPPR 180830Z 12009KT CAVOK 11/07 Q1015=
201111180800 METAR LPPR 180800Z 12009KT CAVOK 11/07 Q1015=
201111180730 METAR LPPR 180730Z 11009KT CAVOK 10/06 Q1015=
201111180700 METAR LPPR 180700Z 12010KT CAVOK 10/06 Q1015=
201111180630 METAR LPPR 180630Z 11010KT CAVOK 10/07 Q1016=
201111180600 METAR LPPR 180600Z 11010KT CAVOK 10/07 Q1016=
201111180530 METAR LPPR 180530Z 11010KT CAVOK 10/07 Q1016=
201111180500 METAR LPPR 180500Z 12010KT CAVOK 10/07 Q1016=
201111180430 METAR LPPR 180430Z 11009KT CAVOK 10/07 Q1017=
201111180400 METAR LPPR 180400Z 11009KT CAVOK 10/07 Q1017=
201111180330 METAR LPPR 180330Z 11008KT CAVOK 10/08 Q1018=
201111180300 METAR LPPR 180300Z 12008KT CAVOK 10/08 Q1018=
201111180230 METAR LPPR 180230Z 12008KT CAVOK 10/08 Q1018=
201111180200 METAR LPPR 180200Z 12008KT CAVOK 10/08 Q1018=
201111180130 METAR LPPR 180130Z 12008KT CAVOK 10/08 Q1018=
201111180100 METAR LPPR 180100Z 12008KT CAVOK 11/08 Q1019=
201111180030 METAR LPPR 180030Z 11008KT CAVOK 11/08 Q1019=
201111180000 METAR LPPR 180000Z 11008KT CAVOK 11/08 Q1019=
201111172330 METAR LPPR 172330Z 11007KT CAVOK 11/08 Q1019=
201111172300 METAR LPPR 172300Z 11007KT 9999 FEW040 12/09 Q1020=
201111172230 METAR LPPR 172230Z 11007KT 9999 SCT040 11/09 Q1020=
201111172200 METAR LPPR 172200Z 12005KT 9000 FEW030 BKN045 11/09 Q1020=
201111172130 METAR LPPR 172130Z VRB02KT CAVOK 10/09 Q1020=
201111172100 METAR LPPR 172100Z VRB01KT 9000 NSC 09/09 Q1020=
201111172030 METAR COR LPPR 172030Z 12003KT 070V150 8000 NSC 10/09 Q1020=
201111172000 METAR LPPR 172000Z 12003KT 070V150 9000 NSC 10/09 Q1020=
201111171930 METAR LPPR 171930Z 00000KT 9000 NSC 10/09 Q1020=
201111171900 METAR LPPR 171900Z VRB02KT 9000 FEW030 11/10 Q1020=
201111171830 METAR LPPR 171830Z 00000KT 9000 FEW030 11/10 Q1020=
201111171800 METAR LPPR 171800Z 00000KT 9000 FEW030 11/09 Q1020=
201111171730 METAR LPPR 171730Z VRB01KT 9000 FEW030 12/10 Q1020=
201111171700 METAR LPPR 171700Z 34001KT 9999 FEW030 14/10 Q1021=
201111171630 METAR LPPR 171630Z 28002KT 9999 FEW030 15/10 Q1021=
201111171600 METAR LPPR 171600Z 29003KT 270V340 CAVOK 16/10 Q1021=
201111171530 METAR LPPR 171530Z 29003KT 250V320 CAVOK 16/09 Q1021=
201111171500 METAR LPPR 171500Z 27003KT 230V310 CAVOK 17/09 Q1021=
201111171430 METAR LPPR 171430Z 29004KT 240V320 CAVOK 17/10 Q1021=
201111171400 METAR LPPR 171400Z 27004KT 210V320 CAVOK 17/09 Q1021=
201111171330 METAR LPPR 171330Z 27004KT 220V300 CAVOK 17/09 Q1021=
201111171300 METAR LPPR 171300Z VRB03KT CAVOK 17/09 Q1021=
201111171230 METAR LPPR 171230Z 15004KT 120V190 CAVOK 17/08 Q1022=
201111171200 METAR LPPR 171200Z 14004KT 110V190 CAVOK 16/09 Q1022=
201111171130 METAR LPPR 171130Z 14006KT 100V170 CAVOK 15/09 Q1022=
201111171100 METAR LPPR 171100Z 13007KT CAVOK 15/10 Q1023=
201111171030 METAR LPPR 171030Z 12008KT CAVOK 14/10 Q1023=
201111171000 METAR LPPR 171000Z 13007KT 100V160 CAVOK 13/10 Q1023=
201111170930 METAR LPPR 170930Z 12008KT CAVOK 12/09 Q1022=
201111170900 METAR LPPR 170900Z 11007KT 080V140 CAVOK 11/09 Q1022=
201111170830 METAR LPPR 170830Z 12008KT CAVOK 10/09 Q1022=
201111170800 METAR LPPR 170800Z 11008KT CAVOK 09/08 Q1022=
201111170730 METAR LPPR 170730Z 12008KT 100V180 9000 NSC 09/08 Q1022=
201111170700 METAR LPPR 170700Z 11007KT 9000 NSC 09/08 Q1021=
201111170630 METAR LPPR 170630Z 10003KT 050V180 8000 NSC 07/07 Q1021=
201111170600 METAR LPPR 170600Z 10003KT 9999 4500N BR NSC 08/08 Q1021=
201111170530 METAR LPPR 170530Z 04004KT 350V080 9000 3000N BR NSC 08/07
                        Q1021=
201111170500 METAR LPPR 170500Z 10004KT 050V150 8000 NSC 09/09 Q1021=
201111170430 METAR LPPR 170430Z 08004KT 040V120 9999 4000N BR NSC 08/08
                        Q1021=
201111170400 METAR LPPR 170400Z 07002KT 9999 3500N BR NSC 08/07 Q1021=
201111170330 METAR LPPR 170330Z VRB03KT 4000 BR NSC 09/08 Q1021=
201111170300 METAR LPPR 170300Z 09004KT 5000 BR NSC 09/09 Q1021=
201111170230 METAR LPPR 170230Z VRB02KT 6000 NSC 10/09 Q1021=
201111170200 METAR LPPR 170200Z 01003KT 340V040 8000 4000N BR NSC 09/08
                        Q1021=
201111170130 METAR LPPR 170130Z VRB02KT 9000 NSC 10/10 Q1021=
201111170100 METAR LPPR 170100Z 00000KT 8000 NSC 10/10 Q1021=
201111170030 METAR LPPR 170030Z 01003KT 8000 3000N BR NSC 10/09 Q1022=
201111170000 METAR LPPR 170000Z VRB01KT 9999 3400N BR NSC 10/10 Q1022=
201111162330 METAR LPPR 162330Z 00000KT 6000 NSC 11/11 Q1022=
201111162300 METAR LPPR 162300Z VRB02KT 8000 2500N BR NSC 10/10 Q1022=
201111162230 METAR LPPR 162230Z VRB02KT 6000 NSC 11/10 Q1021=
201111162200 METAR LPPR 162200Z VRB02KT 6000 NSC 11/10 Q1021=
201111162130 METAR LPPR 162130Z 09003KT 6000 NSC 12/11 Q1021=
201111162100 METAR LPPR 162100Z 10004KT CAVOK 12/11 Q1021=
201111162030 METAR LPPR 162030Z VRB04KT CAVOK 12/11 Q1021=
201111162000 METAR LPPR 162000Z VRB01KT CAVOK 12/11 Q1021=
201111161930 METAR LPPR 161930Z VRB01KT CAVOK 12/11 Q1021=
201111161900 METAR LPPR 161900Z VRB02KT CAVOK 12/11 Q1021=
201111161830 METAR LPPR 161830Z 02003KT CAVOK 13/12 Q1020=
201111161800 METAR LPPR 161800Z 03003KT 9999 FEW018 13/11 Q1020=
201111161730 METAR LPPR 161730Z 01004KT 9999 FEW018 SCT045 13/11 Q1020=
201111161700 METAR LPPR 161700Z 34004KT 310V010 9999 FEW015 SCT045 14/12
                        Q1020=
201111161630 METAR LPPR 161630Z 33006KT 9999 FEW015 SCT023 14/12 Q1020=
201111161600 METAR LPPR 161600Z 24003KT 220V280 9999 FEW017 FEW025TCU
                        SCT030 15/12 Q1019=
201111161530 METAR LPPR 161530Z 22004KT 190V270 9999 FEW017 SCT030 15/11
                        Q1019=
201111161500 METAR LPPR 161500Z 20005KT 170V230 9999 FEW017 SCT030 16/11
                        Q1019=
201111161430 METAR LPPR 161430Z 21005KT 9999 FEW017 SCT027 16/11 Q1019=
201111161400 METAR LPPR 161400Z 20006KT 170V240 9999 FEW017 SCT027 16/11
                        Q1019=
201111161330 METAR LPPR 161330Z 20008KT 9999 FEW017 SCT030 16/11 Q1019=
201111161300 METAR LPPR 161300Z 19007KT 9999 FEW017 SCT040 16/11 Q1019=
201111161230 METAR LPPR 161230Z 20008KT 9999 FEW017 SCT040 15/11 Q1020=
201111161200 METAR LPPR 161200Z 19008KT 9999 FEW017 SCT035 16/11 Q1020=
201111161130 METAR LPPR 161130Z 20007KT 9999 FEW017 SCT035 15/10 Q1020=
201111161100 METAR LPPR 161100Z 17007KT 9999 FEW017 SCT035 15/11 Q1020=
201111161030 METAR LPPR 161030Z 17007KT 9999 FEW017 SCT035 15/11 Q1020=
201111161000 METAR LPPR 161000Z 16006KT 9999 FEW017 SCT035 15/11 Q1019=
201111160930 METAR LPPR 160930Z 15007KT 9999 FEW017 SCT035 15/11 Q1019=
201111160900 METAR LPPR 160900Z 13008KT 9999 FEW017 SCT035 13/11 Q1019=
201111160830 METAR LPPR 160830Z 13007KT 9999 FEW017 SCT035 12/10 Q1019=
201111160800 METAR LPPR 160800Z 12007KT 9999 FEW020 11/10 Q1018=
201111160730 METAR LPPR 160730Z 13007KT 9999 FEW020 10/09 Q1018=
201111160700 METAR LPPR 160700Z 14006KT 9999 FEW020 10/09 Q1018=
201111160630 METAR LPPR 160630Z 13004KT 9999 FEW020 SCT035 11/10 Q1018=
201111160600 METAR LPPR 160600Z 16003KT 9999 FEW020 SCT035 11/10 Q1018=
201111160530 METAR LPPR 160530Z 15004KT 9999 FEW020 SCT040 11/10 Q1017=
201111160500 METAR LPPR 160500Z 15003KT 9999 FEW020 SCT040 12/11 Q1017=
201111160430 METAR LPPR 160430Z 14005KT 9999 FEW020 SCT045 12/11 Q1017=
201111160400 METAR LPPR 160400Z 12006KT 9999 FEW020 SCT040 12/10 Q1017=
201111160330 METAR LPPR 160330Z 32005KT 280V050 9999 FEW020 BKN030 13/09
                        Q1017=
201111160300 METAR LPPR 160300Z 31005KT 270V360 9999 FEW020 BKN030 14/10
                        Q1017=
201111160230 METAR LPPR 160230Z 27005KT 220V350 9000 -RA FEW017 SCT030
                        14/11 Q1017=
201111160200 METAR LPPR 160200Z 23003KT 200V260 9999 FEW020 SCT030 13/10
                        Q1016=
201111160130 METAR LPPR 160130Z 22003KT 190V250 9999 FEW020 SCT030 13/10
                        Q1016=
201111160100 METAR LPPR 160100Z 26004KT 210V300 9999 FEW020 SCT030 14/10
                        Q1016=
201111160030 METAR LPPR 160030Z VRB01KT 9999 FEW020 SCT030 13/10 Q1016=
201111160000 METAR LPPR 160000Z VRB01KT 9999 FEW020 SCT030 14/09 Q1016=
201111152330 METAR LPPR 152330Z 26004KT 190V330 9999 FEW020 SCT030 14/09
                        Q1016=
201111152300 METAR LPPR 152300Z VRB01KT 9999 FEW025 SCT030 14/11 Q1016=
201111152230 METAR LPPR 152230Z 32003KT 250V360 9999 FEW025 BKN040 14/11
                        Q1016=
201111152200 METAR LPPR 152200Z 29003KT 250V360 9999 FEW020 BKN030 15/11
                        Q1016=
201111152130 METAR LPPR 152130Z 30003KT 260V010 9999 FEW020 SCT040 15/11
                        Q1015=
201111152100 METAR LPPR 152100Z 28004KT 220V340 9999 FEW020 SCT030 15/11
                        Q1015=
201111152030 METAR LPPR 152030Z 28004KT 220V010 9999 FEW020 SCT025 14/11
                        Q1015=
201111152000 METAR LPPR 152000Z 30006KT 270V350 9999 FEW020 BKN030 14/11
                        Q1015=
201111151930 METAR LPPR 151930Z 27006KT 210V300 9999 FEW016 SCT024 15/10
                        Q1014=
201111151900 METAR LPPR 151900Z 30005KT 260V360 9999 FEW020 BKN040 15/12
                        Q1014=
201111151830 METAR LPPR 151830Z 28007KT 230V350 9999 FEW020 BKN040 15/11
                        Q1014=
201111151800 METAR LPPR 151800Z 29006KT 230V320 9999 SCT020 BKN030 15/11
                        Q1013=
201111151730 METAR LPPR 151730Z 29007KT 240V330 9999 SCT020 BKN030 15/11
                        Q1013=
201111151700 METAR LPPR 151700Z 30005KT 240V340 9999 SCT015 BKN030 14/12
                        Q1013=
201111151630 METAR LPPR 151630Z 27008KT 230V320 9000 SCT015 BKN025 14/12
                        Q1013=
201111151600 METAR LPPR 151600Z 28007KT 240V320 8000 -SHRA FEW009 SCT015
                        BKN025 14/12 Q1012=
201111151530 METAR LPPR 151530Z 28005KT 220V030 9000 -RA FEW009 SCT015
                        BKN030 14/12 Q1012=
201111151500 METAR LPPR 151500Z 30008KT 250V330 6000 -RA FEW009 SCT015
                        BKN030 14/12 Q1012=
201111151430 METAR LPPR 151430Z 30008KT 250V360 6000 -RA FEW008 SCT011
                        BKN020 14/13 Q1012=
201111151400 METAR LPPR 151400Z 29010G21KT 250V320 6000 RA FEW006 SCT012
                        BKN020 14/12 Q1011=
201111151330 METAR LPPR 151330Z 30010KT 270V330 3000 RA BR FEW007 SCT012
                        BKN020 13/12 Q1011=
201111151300 METAR LPPR 151300Z 28008KT 220V320 5000 -RA BR FEW007 SCT012
                        BKN020 14/12 Q1011=
201111151230 METAR LPPR 151230Z 27010KT 220V330 9000 -RA FEW009 SCT015
                        BKN020 14/11 Q1011=
201111151200 METAR LPPR 151200Z 26010G21KT 190V310 7000 -RA FEW009 SCT013
                        BKN018 14/12 Q1011 RERA=
201111151130 METAR LPPR 151130Z 26008KT 210V310 5000 RA BR FEW008 SCT012
                        BKN018 14/13 Q1011=
201111151100 METAR LPPR 151100Z 26007KT 180V320 5000 RA BR BKN009 BKN015
                        14/13 Q1011 RERA=
201111151030 METAR LPPR 151030Z VRB09G21KT 4000 RA BR SCT005 BKN007 13/13
                        Q1011 RERA=
201111151000 METAR LPPR 151000Z 29006KT 250V350 3000 +RA SCT008 SCT015
                        FEW018CB BKN040 13/12 Q1011=
201111150930 METAR LPPR 150930Z 26006KT 220V360 6000 RA SCT009 SCT015
                        FEW018 BKN040 13/12 Q1010=
201111150900 METAR LPPR 150900Z 26006KT 210V330 6000 -SHRA SCT009 SCT015
                        FEW018CB BKN040 14/12 Q1010=
201111150830 METAR LPPR 150830Z 27005KT 210V320 8000 -SHRA SCT009 BKN015
                        FEW018CB 14/12 Q1010=
201111150800 METAR LPPR 150800Z 28007KT 210V330 9999 -SHRA SCT009 BKN015
                        FEW018CB 14/10 Q1009 RERA=
201111150730 METAR LPPR 150730Z 28007KT 240V320 6000 SHRA SCT009 BKN015
                        FEW018CB 13/12 Q1009=
201111150700 METAR LPPR 150700Z 30006KT 260V350 9000 -SHRA FEW009 SCT015
                        FEW018CB BKN040 14/12 Q1009=
201111150630 METAR LPPR 150630Z 30009KT 250V350 9000 -SHRA FEW007 BKN011
                        FEW018CB 14/11 Q1008=
201111150600 METAR LPPR 150600Z 28009KT 230V330 8000 -SHRA FEW007 SCT012
                        FEW018CB BKN020 14/13 Q1008=
201111150530 METAR LPPR 150530Z 26017G27KT 220V290 8000 -SHRA FEW008 SCT012
                        FEW018CB BKN020 14/13 Q1008=
201111150500 METAR LPPR 150500Z 25006KT 170V300 9000 -RA FEW008 SCT012
                        FEW018CB BKN020 14/13 Q1008=
201111150430 METAR LPPR 150430Z 20008KT 160V260 5000 SHRA SCT012 FEW020CB
                        SCT030 12/11 Q1008=
201111150400 METAR LPPR 150400Z 24008KT 190V280 4000 SHRA FEW009 SCT020CB
                        SCT025 12/11 Q1008=
201111150330 METAR LPPR 150330Z 24004KT 170V280 9000 -RA SCT009 SCT016
                        12/11 Q1008=
201111150300 METAR LPPR 150300Z VRB07G17KT 9000 -RA FEW007 SCT009 BKN016
                        13/11 Q1008=
201111150230 METAR LPPR 150230Z 25009KT 200V290 8000 -RA FEW007 SCT009
                        BKN016 13/12 Q1008=
201111150200 METAR LPPR 150200Z 23010KT 190V280 8000 -RA FEW007 SCT009
                        BKN016 13/12 Q1007=
201111150130 METAR LPPR 150130Z 18008KT 150V210 9000 -SHRA FEW007 BKN015
                        FEW020CB 12/11 Q1008 RERA=
201111150100 METAR LPPR 150100Z 17011KT 9999 -SHRA FEW008 BKN015 FEW020CB
                        12/11 Q1008=
201111150030 METAR LPPR 150030Z 18013KT 9999 -SHRA SCT008 BKN015 FEW020CB
                        12/11 Q1008=
201111150000 METAR COR LPPR 150000Z 17015KT 9999 -SHRA FEW009 SCT013 FEW025CB
                        BKN030 12/11 Q1008=
201111142330 METAR LPPR 142330Z 16014KT 9999 -SHRA FEW009 FEW025CB SCT030
                        12/11 Q1008=
201111142300 METAR LPPR 142300Z 16019KT 9999 -RA FEW009 SCT015 BKN023
                        12/10 Q1008 RERA=
201111142230 METAR LPPR 142230Z 16016KT 9000 RA SCT012 BKN015 BKN035 12/10
                        Q1008=
201111142200 METAR LPPR 142200Z 14011KT 7000 RA SCT013 BKN016 BKN020 11/10
                        Q1008=
201111142130 METAR LPPR 142130Z 15013KT 9000 -RA BKN015 FEW017CB BKN023
                        11/10 Q1008=
201111142100 METAR LPPR 142100Z 15013KT 9000 -RA SCT011 FEW017CB BKN024
                        BKN050 12/10 Q1008=
201111142030 METAR LPPR 142030Z 16015KT 9999 -SHRA SCT015 SCT017CB BKN023
                        12/10 Q1008=
201111142000 METAR LPPR 142000Z 15014KT 9999 -SHRA SCT015 SCT019CB BKN032
                        12/10 Q1008 RERA=
201111141930 METAR LPPR 141930Z 16013KT 4500 SHRA FEW014 SCT016 FEW020CB
                        BKN022 12/10 Q1008=
201111141900 METAR LPPR 141900Z 16015KT 9999 FEW014 SCT017 FEW020CB BKN025
                        13/10 Q1008=
201111141830 METAR LPPR 141830Z 17015KT 9000 -SHRA BKN023 FEW025CB BKN031
                        13/11 Q1008=
201111141800 METAR LPPR 141800Z 16013KT 9999 SCT020 FEW025CB BKN046 13/10
                        Q1008=
201111141730 METAR LPPR 141730Z 15013KT 9999 SCT020 FEW025CB BKN046 13/10
                        Q1008=
201111141700 METAR COR LPPR 141700Z 17016KT 9000 -SHRA SCT021 BKN024 FEW027CB
                        BKN050 13/11 Q1008=
201111141630 METAR LPPR 141630Z 17016KT 9999 SCT027 SCT043 BKN050 14/10
                        Q1007=
201111141600 METAR LPPR 141600Z 18017KT 9999 FEW020 FEW025CB SCT030 15/10
                        Q1007=
201111141530 METAR LPPR 141530Z 18016KT 9999 FEW020 FEW025CB SCT030 16/10
                        Q1007=
201111141500 METAR LPPR 141500Z 18018KT 9999 FEW020 FEW025CB SCT030 16/09
                        Q1007=
201111141430 METAR LPPR 141430Z 16015KT 9999 FEW020 FEW025CB SCT030 16/11
                        Q1007=
201111141400 METAR LPPR 141400Z 16017KT 9999 FEW020 FEW025CB SCT030 16/11
                        Q1007=
201111141330 METAR LPPR 141330Z 15013KT 9999 FEW020 FEW025CB SCT040 15/10
                        Q1007=
201111141300 METAR LPPR 141300Z 17015KT 9999 FEW020 SCT049 15/09 Q1007=
201111141230 METAR LPPR 141230Z 16011KT 130V190 9999 FEW020 SCT049 14/10
                        Q1007=
201111141200 METAR LPPR 141200Z 16014KT 9999 -RA FEW020 SCT035 14/12 Q1007=
201111141130 METAR LPPR 141130Z 16014KT 9999 -RA FEW020 SCT030 14/12 Q1007=
201111141100 METAR LPPR 141100Z 18015KT 3000 -RA BR SCT007 BKN035 13/12
                        Q1007=
201111141030 METAR LPPR 141030Z 21007KT 180V240 8000 -RA FEW020 BKN039
                        14/12 Q1007=
201111141000 METAR LPPR 141000Z 18008KT 9999 -RA FEW020 BKN042 15/12 Q1006=
201111140930 METAR LPPR 140930Z 16011KT 9999 -RA FEW020 BKN049 15/11 Q1006=
201111140900 METAR LPPR 140900Z 17009KT 9999 FEW020 SCT045 15/11 Q1006=
201111140830 METAR LPPR 140830Z 15014KT 9999 -RA FEW020 SCT048 16/11 Q1006=
201111140800 METAR LPPR 140800Z 14009KT 9999 -RA FEW018 SCT048 15/12 Q1005=
201111140730 METAR LPPR 140730Z 13005KT 9999 -RA FEW018 BKN045 14/12 Q1005=
201111140700 METAR LPPR 140700Z 15006KT 110V170 9999 FEW018 BKN045 14/12
                        Q1005=
201111140630 METAR LPPR 140630Z 16008KT 9999 FEW018 BKN045 14/13 Q1006=
201111140600 METAR LPPR 140600Z 18011KT 9999 -RA FEW015 BKN045 14/12 Q1006=
201111140530 METAR LPPR 140530Z 15008KT 120V180 9999 -RA FEW025 SCT045
                        14/12 Q1006=
201111140500 METAR LPPR 140500Z 18014KT 9999 -RA FEW020 BKN050 14/12 Q1006=
201111140430 METAR LPPR 140430Z 18012KT 9999 BKN045 15/12 Q1007=
201111140400 METAR LPPR 140400Z 16015KT 9999 FEW025 BKN045 15/12 Q1007=
201111140330 METAR LPPR 140330Z 16013KT 9999 -RA BKN040 15/12 Q1007=
201111140300 METAR LPPR 140300Z 16019KT 9999 -RA FEW018 BKN045 15/13 Q1008=
201111140230 METAR LPPR 140230Z 15015KT 9999 -RA FEW025CB BKN045 15/13
                        Q1008=
201111140200 METAR LPPR 140200Z 13005KT 100V160 9999 -RA FEW025CB BKN045
                        14/14 Q1008=
201111140130 METAR LPPR 140130Z 12006KT 100V170 9999 -RA FEW018 FEW025CB
                        BKN050 14/13 Q1008=
201111140100 METAR LPPR 140100Z 21007KT 170V240 9999 -SHRA SCT008 FEW025CB
                        BKN050 15/13 Q1009=
201111140030 METAR LPPR 140030Z 22008KT 190V260 6000 SHRA SCT010 FEW025CB
                        BKN050 15/14 Q1009=
201111140000 METAR LPPR 140000Z 22007KT 9999 -SHRA FEW018 FEW025CB SCT045
                        15/12 Q1008=
201111132330 METAR LPPR 132330Z 12012G26KT 090V160 9999 SCT040 16/12 Q1007=
201111132300 METAR LPPR 132300Z 10005KT 9999 SCT040 14/13 Q1007=
201111132230 METAR LPPR 132230Z 06005KT 360V090 9999 SCT040 14/13 Q1008=
201111132200 METAR LPPR 132200Z 08008KT 9999 FEW020 FEW025CB SCT040 14/13
                        Q1008=
201111132130 METAR LPPR 132130Z 13005KT 110V170 9999 SCT020 FEW025CB SCT035
                        14/13 Q1010=
201111132100 METAR LPPR 132100Z 07007KT 050V110 9999 FEW009 FEW025CB SCT035
                        14/13 Q1009=
201111132030 METAR LPPR 132030Z 17007KT 9000 -SHRA SCT012 FEW025CB SCT035
                        14/13 Q1011 RETS=
201111132000 METAR LPPR 132000Z 16004KT 120V210 9999 -TSRA FEW012 FEW025CB
                        SCT036 15/13 Q1010=
201111131930 METAR LPPR 131930Z 20007KT 160V230 9999 -TSRA SCT020 FEW027CB
                        SCT036 15/13 Q1011=
201111131900 METAR LPPR 131900Z 25011G23KT 210V290 9999 -TSRA SCT020 FEW027CB
                        BKN038 16/12 Q1011=
201111131830 METAR LPPR 131830Z 11011KT 080V140 9999 TS SCT025 FEW027CB
                        SCT040 18/11 Q1008=
201111131800 METAR LPPR 131800Z 12010KT 9999 SCT025 FEW027CB SCT040 17/11
                        Q1008 RETS=
201111131730 METAR LPPR 131730Z 11012KT 080V140 9999 TS SCT025 FEW027CB
                        SCT040 17/11 Q1007=
201111131700 METAR LPPR 131700Z 13018KT 9999 SCT025 FEW027CB SCT040 18/10
                        Q1008 RETS=
201111131630 METAR LPPR 131630Z 14026G37KT 8000 -TSRA SCT025 FEW027CB
                        BKN040 17/11 Q1010=
201111131600 METAR LPPR 131600Z 14020G31KT 9999 -SHRA SCT025 FEW027CB
                        SCT040 18/11 Q1009=
201111131530 METAR LPPR 131530Z 14014KT 9999 -SHRA SCT025 FEW027CB SCT034
                        17/12 Q1009=
201111131500 METAR LPPR 131500Z 15020G33KT 8000 -SHRA SCT025 FEW027CB
                        SCT034 18/13 Q1010=
201111131430 METAR COR LPPR 131430Z 12008KT 9999 FEW024 FEW027CB 16/14
                        Q1010 RETS=
201111131400 METAR LPPR 131400Z 17008KT 120V190 8000 -TSRA SCT025 SCT027CB
                        BKN050 15/14 Q1010 RETS=
201111131330 METAR LPPR 131330Z 21006KT 9999 -SHRA SCT025 FEW027CB BKN045
                        15/14 Q1011=
201111131300 METAR LPPR 131300Z 17008KT 140V200 9999 -SHRA SCT025 FEW027CB
                        BKN045 15/13 Q1011=
201111131230 METAR LPPR 131230Z 16012KT 9999 -SHRA SCT025 FEW027CB BKN050
                        17/12 Q1012=
201111131200 METAR LPPR 131200Z 16018KT 9999 SCT025 FEW027CB SCT031 17/12
                        Q1012=
201111131130 METAR LPPR 131130Z 17016KT 9999 -SHRA FEW029CB SCT034 BKN042
                        17/13 Q1012=
201111131100 METAR LPPR 131100Z 16016KT 8000 -SHRA SCT015 FEW020CB SCT046
                        17/13 Q1012=
201111131030 METAR LPPR 131030Z 15019G30KT 9999 FEW020 FEW025CB SCT045
                        18/12 Q1012=
201111131000 METAR LPPR 131000Z 16022KT 9999 FEW020 FEW025CB SCT046 17/12
                        Q1013=
201111130930 METAR LPPR 130930Z 15019G30KT 9999 FEW025CB 17/12 Q1012=
201111130900 METAR LPPR 130900Z 16020KT 9999 -RA SCT015 FEW020CB 16/13
                        Q1012=
201111130830 METAR LPPR 130830Z 17018G28KT 9999 -RA SCT011 SCT020 BKN050
                        16/13 Q1012=
201111130800 METAR LPPR 130800Z 18023KT 5000 -RA BR FEW015 FEW018CB BKN030
                        16/14 Q1011=
201111130730 METAR LPPR 130730Z 21021G31KT 5000 -TSRA FEW015 FEW018CB
                        BKN040 16/14 Q1011=
201111130700 METAR LPPR 130700Z 19021G32KT 170V230 8000 -TSRA FEW015 FEW018CB
                        BKN040 21/09 Q1009=
201111130630 METAR LPPR 130630Z 18023G37KT 9999 SCT040 23/05 Q1007=
201111130600 METAR LPPR 130600Z 16015KT 9999 SCT040 21/06 Q1006=
201111130530 METAR LPPR 130530Z 16015KT 9999 SCT040 21/07 Q1006=
201111130500 METAR LPPR 130500Z 13010KT 9999 SCT040 19/08 Q1006=
201111130430 METAR LPPR 130430Z 13008KT 9999 FEW040 18/09 Q1006=
201111130400 METAR LPPR 130400Z 13007KT 9999 SCT040 17/10 Q1006=
201111130330 METAR LPPR 130330Z 10005KT 9999 SCT040 15/13 Q1007=
201111130300 METAR LPPR 130300Z 07005KT 9999 FEW018CB BKN040 15/14 Q1008=
201111130230 METAR LPPR 130230Z 07005KT 9999 FEW011 FEW018 BKN040 16/14
                        Q1008=
201111130200 METAR LPPR 130200Z VRB03KT 9999 FEW011 FEW018CB BKN040 16/15
                        Q1009=
201111130130 METAR LPPR 130130Z 14004KT 9999 FEW011 FEW018CB BKN040 16/14
                        Q1009=
201111130100 METAR LPPR 130100Z 18007KT 9999 FEW020CB BKN040 16/14 Q1010=
201111130030 METAR LPPR 130030Z 18011KT 9999 FEW018 FEW025CB BKN040 16/14
                        Q1010=
201111130000 METAR LPPR 130000Z 19011KT 9999 FEW025CB SCT040 17/14 Q1010=
201111122330 METAR LPPR 122330Z 20013G23KT 9999 VCTS FEW025 FEW030CB BKN040
                        17/14 Q1010=
201111122300 METAR LPPR 122300Z 21013KT 180V240 9999 VCTS FEW023 FEW025CB
                        SCT050 20/13 Q1010 RETS=
201111122230 METAR LPPR 122230Z 17021KT 9999 TS FEW030CB 22/07 Q1009=
201111122200 METAR LPPR 122200Z 17020KT 9999 VCTS FEW030CB 22/07 Q1009=
201111122130 METAR LPPR 122130Z 17020KT 9999 VCTS FEW030CB 22/06 Q1009=
201111122100 METAR LPPR 122100Z 16019KT CAVOK 23/06 Q1009=
201111122030 METAR LPPR 122030Z 15019KT CAVOK 23/07 Q1008=
201111122000 METAR LPPR 122000Z 14015KT 9999 FEW050 22/07 Q1008=
201111121930 METAR LPPR 121930Z 16020KT 9999 -RA FEW050 23/07 Q1009=
201111121900 METAR LPPR 121900Z 15020G30KT CAVOK 23/06 Q1008=
201111121830 METAR LPPR 121830Z 14018KT CAVOK 23/06 Q1007=
201111121800 METAR LPPR 121800Z 14019G29KT CAVOK 23/05 Q1006=
201111121730 METAR LPPR 121730Z 14018G28KT CAVOK 23/06 Q1006=
201111121700 METAR LPPR 121700Z 14018KT CAVOK 23/07 Q1006=
201111121630 METAR LPPR 121630Z 14018KT CAVOK 24/07 Q1006=
201111121600 METAR LPPR 121600Z 14016KT 9999 FEW045 24/07 Q1006=
201111121530 METAR LPPR 121530Z 13020KT 9999 FEW045 24/08 Q1006=
201111121500 METAR LPPR 121500Z 13018KT 9999 FEW040 24/08 Q1006=
201111121430 METAR LPPR 121430Z 12016KT 9999 SCT040 23/08 Q1006=
201111121400 METAR LPPR 121400Z 13018KT 9999 SCT040 23/09 Q1007=
201111121330 METAR LPPR 121330Z 13018KT 9999 SCT040 23/09 Q1008=
201111121300 METAR LPPR 121300Z 13018G29KT 9999 SCT040 23/09 Q1008=
201111121230 METAR LPPR 121230Z 13018KT 9999 SCT040 22/09 Q1008=
201111121200 METAR LPPR 121200Z 13016KT 9999 SCT040 21/10 Q1009=
201111121130 METAR LPPR 121130Z 13017KT 9999 SCT040 21/10 Q1009=
201111121100 METAR LPPR 121100Z 14014KT 9999 FEW017 20/11 Q1010=
201111121030 METAR LPPR 121030Z 12011KT 9999 FEW017 19/12 Q1010=
201111121000 METAR LPPR 121000Z 11011KT 9999 FEW017 19/12 Q1010=
201111120930 METAR LPPR 120930Z 11011KT 9999 FEW017 18/12 Q1010=
201111120900 METAR LPPR 120900Z 11010KT 9999 FEW017 17/13 Q1011=
201111120830 METAR LPPR 120830Z 11010KT 9999 FEW017 16/12 Q1011=
201111120800 METAR LPPR 120800Z 11008KT 9999 FEW017 16/12 Q1011=
201111120730 METAR LPPR 120730Z 11008KT 9999 FEW017 15/12 Q1011=
201111120700 METAR LPPR 120700Z 11008KT 9999 FEW045 15/12 Q1012=
201111120630 METAR LPPR 120630Z 10007KT 9999 FEW045 15/12 Q1012=
201111120600 METAR LPPR 120600Z 10005KT 9999 SCT044 14/12 Q1012=
201111120530 METAR LPPR 120530Z 11007KT 9999 BKN043 15/12 Q1012=
201111120500 METAR LPPR 120500Z 10007KT 9999 BKN042 14/12 Q1013=
201111120430 METAR LPPR 120430Z 10006KT 9999 BKN042 14/12 Q1013=
201111120400 METAR LPPR 120400Z 11006KT 9999 BKN042 14/12 Q1013=
201111120330 METAR LPPR 120330Z 11008KT 9999 BKN042 14/12 Q1013=
201111120300 METAR COR LPPR 120300Z 11006KT 9999 BKN042 14/12 Q1013=
201111120230 METAR LPPR 120230Z 11006KT 9999 OVC047 13/12 Q1014=
201111120200 METAR LPPR 120200Z 11007KT 9999 BKN049 13/12 Q1014=
201111120130 METAR LPPR 120130Z 10006KT 9999 0500N R35/P2000 MIFG NSC
                        11/10 Q1014=
201111120100 METAR LPPR 120100Z 05003KT 4800 0550N R35/P2000 MIFG BR NSC
                        11/11 Q1015=
201111120030 METAR LPPR 120030Z 08004KT 9999 0650N R35/P2000 MIFG NSC
                        11/11 Q1015=
201111120000 METAR LPPR 120000Z 10004KT 9999 VCFG NSC 12/12 Q1015=
201111112330 METAR LPPR 112330Z VRB01KT 7000 FEW013 12/12 Q1016=
201111112300 METAR LPPR 112300Z 09003KT 030V120 9000 FEW013 12/12 Q1016=
201111112230 METAR LPPR 112230Z 11005KT 080V170 8000 FEW006 12/12 Q1016=
201111112200 METAR LPPR 112200Z VRB01KT 8000 NSC 12/12 Q1016=
201111112130 METAR LPPR 112130Z VRB02KT 7000 FEW015 13/12 Q1016=
201111112100 METAR LPPR 112100Z 11005KT 9000 NSC 12/12 Q1016=
201111112030 METAR LPPR 112030Z 12006KT 9000 FEW013 12/12 Q1016=
201111112000 METAR LPPR 112000Z 13006KT 8000 FEW013 13/13 Q1016=
201111111930 METAR LPPR 111930Z 16003KT 4000 BR FEW015 13/13 Q1015=
201111111900 METAR LPPR 111900Z 18003KT 9999 FEW015 13/13 Q1015=
201111111830 METAR LPPR 111830Z 19003KT 170V230 9999 FEW012 13/12 Q1015=
201111111800 METAR LPPR 111800Z 18004KT 9999 FEW008 FEW017TCU 15/13 Q1015=
201111111730 METAR LPPR 111730Z 20004KT 9999 FEW008 FEW017TCU 15/14 Q1014=
201111111700 METAR LPPR 111700Z 19006KT 9999 SCT010 SCT017TCU 16/14 Q1014=
201111111630 METAR LPPR 111630Z 21005KT 170V230 9999 SCT010 SCT017TCU
                        16/14 Q1014=
201111111600 METAR LPPR 111600Z 19007KT 170V230 9999 FEW010 SCT014 FEW015TCU
                        17/14 Q1014=
201111111530 METAR LPPR 111530Z 19008KT 9999 FEW010 SCT013 FEW015TCU 16/14
                        Q1014=
201111111500 METAR LPPR 111500Z 19010KT 9999 FEW008 BKN013 FEW016TCU 16/14
                        Q1013=
201111111430 METAR LPPR 111430Z 18010KT 9999 FEW007 SCT012 16/14 Q1013=
201111111400 METAR LPPR 111400Z 19009KT 9999 SCT009 FEW014TCU SCT045 16/14
                        Q1013=
201111111330 METAR LPPR 111330Z 18010KT 9999 SCT005 BKN008 15/14 Q1013=
201111111300 METAR LPPR 111300Z 18010KT 9999 FEW005 BKN007 15/15 Q1012=
201111111230 METAR LPPR 111230Z 19008KT 9999 -RADZ BKN005 SCT022 15/15
                        Q1012=
201111111200 METAR LPPR 111200Z 19008KT 5000 -RADZ BR SCT005 SCT022 BKN040
                        15/14 Q1012=
201111111130 METAR LPPR 111130Z 19008KT 8000 -RADZ SCT006 SCT010 BKN045
                        15/14 Q1013 RERA REDZ=
201111111100 METAR LPPR 111100Z 18007KT 5000 -RADZ BR SCT004 BKN006 BKN030
                        15/14 Q1012=
201111111030 METAR LPPR 111030Z 16007KT 7000 -RA SCT004 BKN038 15/14 Q1012=
201111111000 METAR LPPR 111000Z 16007KT 5000 -RA BR SCT003 SCT012 BKN035
                        14/14 Q1012=
201111110930 METAR LPPR 110930Z 16007KT 8000 3800S -RA BR SCT004 BKN035
                        14/14 Q1011=
201111110900 METAR LPPR 110900Z 18004KT 3500 -RA BR SCT001 SCT003 BKN040
                        14/14 Q1012 RERA=
201111110830 METAR LPPR 110830Z 17004KT 4500 -RA BR SCT002 SCT012 BKN025
                        14/13 Q1011 RERA REDZ=
201111110800 METAR LPPR 110800Z 17006KT 3500 RADZ BR BKN003 OVC019 14/13
                        Q1011=
201111110730 METAR LPPR 110730Z 17006KT 5000 -RADZ BR SCT004 SCT018 OVC022
                        14/13 Q1010=
201111110700 METAR LPPR 110700Z 20005KT 6000 -RADZ FEW003 SCT007 OVC022
                        14/13 Q1010 RERA=
201111110630 METAR LPPR 110630Z 20006KT 5000 RADZ BR FEW004 SCT008 OVC028
                        14/13 Q1010=
201111110600 METAR LPPR 110600Z 20007KT 9000 RA FEW008 BKN020 OVC030 14/13
                        Q1010=
201111110530 METAR LPPR 110530Z 21008KT 180V240 6000 RA FEW005 BKN020
                        OVC030 14/13 Q1010=
201111110500 METAR LPPR 110500Z 19019G30KT 7000 -RADZ SCT004 SCT009 OVC018
                        15/14 Q1010=
201111110430 METAR LPPR 110430Z 18018KT 8000 -RADZ FEW003 SCT008 OVC015
                        15/14 Q1009 RERA=
201111110400 METAR LPPR 110400Z 17015KT 5000 RA BR FEW009 SCT012 OVC028
                        15/14 Q1009=
201111110330 METAR LPPR 110330Z 18017KT 9000 -RA FEW009 SCT016 BKN030
                        15/13 Q1009=
201111110300 METAR LPPR 110300Z 18020KT 8000 -RA SCT025 OVC040 16/13 Q1009=
201111110230 METAR LPPR 110230Z 17020G30KT 9999 SCT025 BKN045 16/13 Q1009=
201111110200 METAR LPPR 110200Z 18020KT 9999 FEW020 BKN040 16/13 Q1009=
201111110130 METAR LPPR 110130Z 17020KT 9999 -RA SCT018 BKN040 16/13 Q1009=
201111110100 METAR LPPR 110100Z 18020KT 9999 FEW020 BKN040 17/13 Q1010=
201111110030 METAR LPPR 110030Z 17019KT 9999 FEW020 BKN040 17/13 Q1010=
201111110000 METAR LPPR 110000Z 18020KT 9999 SCT020 BKN040 17/13 Q1010=
201111102330 METAR LPPR 102330Z 18020KT 9999 BKN020 BKN040 17/13 Q1010=
201111102300 METAR LPPR 102300Z 18020KT 9999 BKN020 BKN040 17/13 Q1010=
201111102230 METAR LPPR 102230Z 18021KT 9999 SCT020 BKN040 17/13 Q1011=
201111102200 METAR LPPR 102200Z 18018KT 9999 FEW025 BKN040 17/12 Q1011=
201111102130 METAR LPPR 102130Z 18019KT 9999 FEW024 SCT040 17/13 Q1011=
201111102100 METAR LPPR 102100Z 19016KT 9999 BKN025 17/12 Q1010=
201111102030 METAR LPPR 102030Z 17014KT 9999 FEW030 16/13 Q1010=
201111102000 METAR LPPR 102000Z 17016KT 9999 SCT015 16/13 Q1010=
201111101930 METAR LPPR 101930Z 17016KT 9999 FEW014 16/13 Q1010=
201111101900 METAR LPPR 101900Z 17013KT 9999 FEW014 16/14 Q1010=
201111101830 METAR LPPR 101830Z 17011KT 9999 FEW030 16/14 Q1010=
201111101800 METAR LPPR 101800Z 17009KT 9999 FEW030 16/13 Q1011=
201111101730 METAR LPPR 101730Z 18013KT 9999 FEW025 17/13 Q1011=
201111101700 METAR LPPR 101700Z 19014KT 9999 FEW012 17/13 Q1011=
201111101630 METAR LPPR 101630Z 18014KT CAVOK 17/13 Q1011=
201111101600 METAR LPPR 101600Z 18017KT 9999 FEW020 18/13 Q1011=
201111101530 METAR LPPR 101530Z 18016KT 9999 FEW020 17/13 Q1011=
201111101500 METAR LPPR 101500Z 18014KT 9999 FEW020 SCT040 17/14 Q1012=
201111101430 METAR LPPR 101430Z 19014KT 9999 FEW018 BKN030 17/14 Q1012=
201111101400 METAR LPPR 101400Z 19014KT 9999 FEW017 SCT025 BKN030 17/13
                        Q1012=
201111101330 METAR LPPR 101330Z 19015KT 9999 FEW017 BKN030 17/13 Q1013=
201111101300 METAR LPPR 101300Z 18015KT 9999 FEW017 BKN035 17/14 Q1013=
201111101230 METAR LPPR 101230Z 18015KT 9999 FEW017 BKN035 18/13 Q1013=
201111101200 METAR LPPR 101200Z 18016KT 9999 FEW017 BKN035 17/12 Q1014=
201111101130 METAR LPPR 101130Z 18015KT 9999 BKN018 BKN030 17/12 Q1014=
201111101100 METAR LPPR 101100Z 17015KT 9999 BKN020 BKN033 17/12 Q1014=
201111101030 METAR LPPR 101030Z 16008KT 9999 BKN020 BKN033 17/13 Q1014=
201111101000 METAR LPPR 101000Z 15008KT 9999 SCT020 BKN030 16/13 Q1014=
201111100930 METAR LPPR 100930Z 15008KT 9999 SCT020 BKN032 16/12 Q1014=
201111100900 METAR LPPR 100900Z 14009KT 9999 FEW018 SCT030 BKN040 15/12
                        Q1014=
201111100830 METAR LPPR 100830Z 14009KT 9999 FEW015 SCT020 BKN033 14/12
                        Q1014=
201111100800 METAR LPPR 100800Z 13006KT 9999 FEW016 SCT035 14/12 Q1014=
201111100730 METAR LPPR 100730Z 13007KT 090V150 9999 FEW017 SCT035 14/12
                        Q1014=
201111100700 METAR LPPR 100700Z 13007KT 100V160 9999 FEW016 SCT022 BKN040
                        14/12 Q1014=
201111100630 METAR LPPR 100630Z 14007KT 9999 FEW017 BKN020 14/12 Q1014=
201111100600 METAR LPPR 100600Z 13006KT 9999 SCT019 14/12 Q1014=
201111100530 METAR LPPR 100530Z 14005KT 9999 FEW013 BKN024 14/12 Q1014=
201111100500 METAR LPPR 100500Z 14006KT 9999 FEW013 SCT027 13/12 Q1014=
201111100430 METAR LPPR 100430Z 14006KT 9999 FEW012 SCT025 13/12 Q1014=
201111100400 METAR LPPR 100400Z 14008KT 9999 FEW012 BKN023 13/12 Q1014=
201111100330 METAR LPPR 100330Z 13008KT 9999 FEW012 SCT020 13/12 Q1014=
201111100300 METAR LPPR 100300Z 15007KT 9000 -DZ FEW010 BKN020 14/12 Q1014=
201111100230 METAR LPPR 100230Z 14007KT 9999 FEW010 BKN024 13/12 Q1015=
201111100200 METAR LPPR 100200Z 16007KT 9999 FEW010 BKN025 14/13 Q1015=
201111100130 METAR LPPR 100130Z 17007KT 9999 FEW010 BKN032 14/13 Q1014=
201111100100 METAR LPPR 100100Z 16011KT 6000 -DZ FEW006 BKN028 14/13 Q1015=
201111100030 METAR LPPR 100030Z 16009KT 9999 -RA FEW012 BKN026 14/12 Q1014=
201111100000 METAR LPPR 100000Z 16008KT 7000 -RA FEW015 BKN035 14/12 Q1015=
201111092330 METAR LPPR 092330Z 14007KT 9000 -RA FEW015 SCT035 14/12 Q1015=
201111092300 METAR LPPR 092300Z 13005KT 9999 -RA FEW018 BKN040 14/11 Q1015=
201111092230 METAR LPPR 092230Z 13007KT 9999 FEW018 BKN040 14/11 Q1015=
201111092200 METAR LPPR 092200Z 13008KT 9999 FEW015 BKN040 15/12 Q1015=
201111092130 METAR LPPR 092130Z 14007KT 9999 FEW015 BKN040 15/12 Q1015=
201111092100 METAR LPPR 092100Z 15007KT 9999 FEW015 BKN045 15/12 Q1015=
201111092030 METAR LPPR 092030Z 14009KT 110V170 9999 FEW015 BKN045 14/12
                        Q1015=
201111092000 METAR LPPR 092000Z 14007KT 9999 FEW018 BKN045 15/12 Q1015=
201111091930 METAR LPPR 091930Z 15006KT 9999 FEW020 BKN045 14/12 Q1015=
201111091900 METAR LPPR 091900Z 16006KT 9999 FEW035 14/12 Q1015=
201111091830 METAR LPPR 091830Z 16005KT 9999 FEW020 14/12 Q1015=
201111091800 METAR LPPR 091800Z 16005KT 9999 FEW020 14/13 Q1014=
201111091730 METAR LPPR 091730Z 16007KT 9999 FEW020 15/13 Q1015=
201111091700 METAR LPPR 091700Z 17007KT 9999 FEW018 16/13 Q1015=
201111091630 METAR LPPR 091630Z 20008KT 9999 FEW018 17/12 Q1015=
201111091600 METAR LPPR 091600Z 19007KT 9999 FEW015 SCT025 17/12 Q1014=
201111091530 METAR LPPR 091530Z 18009KT 9999 FEW015 SCT025 17/12 Q1014=
201111091500 METAR LPPR 091500Z 20007KT 170V230 9999 FEW013 SCT020 17/13
                        Q1014=
201111091430 METAR LPPR 091430Z 19007KT 160V220 9999 FEW012 SCT020 17/14
                        Q1014=
201111091400 METAR LPPR 091400Z 19008KT 9999 FEW013 SCT025 17/13 Q1015=
201111091330 METAR LPPR 091330Z 20008KT 170V230 9999 FEW015 BKN020 16/13
                        Q1015=
201111091300 METAR LPPR 091300Z 20010KT 9999 FEW015 SCT025 18/12 Q1015=
201111091230 METAR LPPR 091230Z 19009KT 170V230 9999 FEW015 SCT025 17/11
                        Q1015=
201111091200 METAR LPPR 091200Z 18006KT 140V210 9999 FEW015 SCT025 17/11
                        Q1015=
201111091130 METAR LPPR 091130Z 18007KT 9999 FEW015 SCT025 17/12 Q1015=
201111091100 METAR LPPR 091100Z 14007KT 9999 FEW015 SCT040 17/13 Q1015=
201111091030 METAR LPPR 091030Z 14007KT 9999 FEW015 BKN040 16/13 Q1015=
201111091000 METAR LPPR 091000Z 14007KT 9999 FEW015 BKN040 15/13 Q1015=
201111090930 METAR LPPR 090930Z 15005KT 9999 FEW015 BKN040 15/13 Q1015=
201111090900 METAR LPPR 090900Z 17004KT 9999 FEW015 BKN040 15/13 Q1015=
201111090830 METAR LPPR 090830Z 16007KT 9999 SCT030 BKN040 15/13 Q1014=
201111090800 METAR LPPR 090800Z 17007KT 9999 SCT030 BKN045 14/13 Q1014=
201111090730 METAR LPPR 090730Z 18009KT 9999 FEW009 SCT030 BKN045 14/13
                        Q1014=
201111090700 METAR LPPR 090700Z 18006KT 9999 FEW009 BKN040 14/13 Q1014=
201111090630 METAR LPPR 090630Z 17007KT 9999 SCT009 BKN030 14/13 Q1013=
201111090600 METAR LPPR 090600Z 18006KT 9999 BKN006 BKN025 14/14 Q1013=
201111090530 METAR LPPR 090530Z 18007KT 9999 BKN006 BKN025 14/14 Q1013=
201111090500 METAR LPPR 090500Z 17009KT 9999 BKN007 BKN030 14/13 Q1013=
201111090430 METAR LPPR 090430Z 18009KT 9999 BKN007 BKN025 14/13 Q1013=
201111090400 METAR LPPR 090400Z 18009KT 9999 FEW005 BKN007 BKN030 14/13
                        Q1013=
201111090330 METAR LPPR 090330Z 18011KT 9999 BKN006 BKN015 14/13 Q1013=
201111090300 METAR LPPR 090300Z 18011KT 9999 FEW007 BKN009 14/13 Q1013=
201111090230 METAR LPPR 090230Z 18011KT 9999 SCT009 BKN017 14/13 Q1014=
201111090200 METAR LPPR 090200Z 18012KT 9999 SCT009 BKN017 15/13 Q1013=
201111090130 METAR LPPR 090130Z 19010KT 9999 SCT009 BKN012 15/13 Q1013=
201111090100 METAR LPPR 090100Z 19013KT 9999 SCT008 BKN012 15/13 Q1014=
201111090030 METAR LPPR 090030Z 18009KT 9999 SCT008 BKN012 15/13 Q1014=
201111090000 METAR LPPR 090000Z 18013KT 9999 SCT008 BKN012 15/13 Q1014=
201111082330 METAR LPPR 082330Z 18011KT 9999 SCT005 BKN007 14/14 Q1014=
201111082300 METAR LPPR 082300Z 18012KT 3600 -RA BR SCT004 BKN009 BKN012
                        14/14 Q1014=
201111082230 METAR LPPR 082230Z 18009KT 5000 -RA BR BKN005 BKN014 BKN017
                        14/14 Q1014=
201111082200 METAR LPPR 082200Z 18013KT 9999 -RA SCT013 BKN017 BKN042
                        15/13 Q1014=
201111082130 METAR LPPR 082130Z 18014KT 8000 -RA SCT014 BKN016 15/13 Q1014=
201111082100 METAR LPPR 082100Z 16011KT 8000 -RA SCT013 BKN018 BKN023
                        15/14 Q1014=
201111082030 METAR COR LPPR 082030Z 17013KT 9999 -SHRA SCT012 BKN015 15/13
                        Q1013=
201111082000 METAR COR LPPR 082000Z 18013KT 9999 -SHRA SCT012 BKN015 15/13
                        Q1014=
201111081930 METAR LPPR 081930Z 17015KT 9999 SCT012 BKN015 15/13 Q1013=
201111081900 METAR LPPR 081900Z 16013KT 9999 BKN014 BKN016 15/13 Q1013=
201111081830 METAR LPPR 081830Z 14010KT 9999 -RA FEW015 BKN016 14/13 Q1013=
201111081800 METAR LPPR 081800Z 14010KT 9000 -RA FEW012 BKN017 14/13 Q1013=
201111081730 METAR LPPR 081730Z 13009KT 9999 SCT012 BKN016 14/13 Q1013=
201111081700 METAR LPPR 081700Z 13008KT 100V160 9999 SCT010 BKN012 BKN016
                        13/13 Q1013=
201111081630 METAR LPPR 081630Z 14008KT 9000 -RA SCT005 BKN011 BKN015
                        13/12 Q1013=
201111081600 METAR LPPR 081600Z 14009KT 4000 -RA BR FEW011 BKN015 OVC018
                        13/12 Q1013=
201111081530 METAR LPPR 081530Z 14010KT 3000 -RA BR FEW008 OVC018 13/12
                        Q1013=
201111081500 METAR LPPR 081500Z 13009KT 7000 -DZ FEW012 OVC020 13/12 Q1013=
201111081430 METAR LPPR 081430Z 14010KT 6000 -DZ FEW012 OVC018 13/12 Q1013=
201111081400 METAR LPPR 081400Z 13011KT 8000 FEW012 SCT015 OVC020 12/11
                        Q1013=
201111081330 METAR LPPR 081330Z 13011KT 8000 -DZ SCT009 OVC015 12/11 Q1014=
201111081300 METAR LPPR 081300Z 13009KT 6000 -DZ FEW007 SCT011 OVC015
                        11/10 Q1014=
201111081230 METAR LPPR 081230Z 12009KT 3000 -DZ BR SCT008 OVC015 11/10
                        Q1015=
201111081200 METAR LPPR 081200Z 13009KT 4000 -RA BR FEW010 OVC018 12/10
                        Q1015=
201111081130 METAR LPPR 081130Z 14008KT 7000 -RA FEW012 OVC020 12/09 Q1016=
201111081100 METAR LPPR 081100Z 13009KT 8000 -RA FEW012 OVC025 12/09 Q1016=
201111081030 METAR LPPR 081030Z 13009KT 8000 -RA FEW015 OVC035 12/08 Q1016=
201111081000 METAR LPPR 081000Z 14009KT 7000 -DZ FEW015 OVC030 12/08 Q1016=
201111080930 METAR LPPR 080930Z 15008KT 9999 OVC035 13/07 Q1015=
201111080900 METAR LPPR 080900Z 15009KT 9999 OVC035 12/07 Q1015=
201111080830 METAR LPPR 080830Z 14008KT 9999 OVC035 12/07 Q1015=
201111080800 METAR LPPR 080800Z 13008KT 9999 BKN040 12/07 Q1015=
201111080730 METAR LPPR 080730Z 13008KT 9999 BKN040 11/07 Q1015=
201111080700 METAR LPPR 080700Z 13008KT 9999 SCT040 11/07 Q1014=
201111080630 METAR LPPR 080630Z 13008KT 9999 SCT040 11/07 Q1014=
201111080600 METAR LPPR 080600Z 13009KT 9999 BKN040 11/07 Q1015=
201111080530 METAR LPPR 080530Z 14007KT 9999 BKN040 11/08 Q1015=
201111080500 METAR LPPR 080500Z 13009KT 9999 BKN040 12/08 Q1014=
201111080430 METAR LPPR 080430Z 14008KT 9999 BKN040 11/08 Q1015=
201111080400 METAR LPPR 080400Z 14007KT 9999 BKN040 11/08 Q1015=
201111080330 METAR LPPR 080330Z 14006KT 9999 BKN040 11/08 Q1015=
201111080300 METAR LPPR 080300Z 13006KT 9999 BKN040 11/08 Q1015=
201111080230 METAR LPPR 080230Z 14006KT 9999 BKN030 10/08 Q1015=
201111080200 METAR LPPR 080200Z 14006KT 9999 BKN030 10/08 Q1015=
201111080130 METAR LPPR 080130Z 12007KT 9999 SCT030 11/09 Q1015=
201111080100 METAR LPPR 080100Z 12007KT 9999 SCT030 11/09 Q1015=
201111080030 METAR LPPR 080030Z 12008KT 9999 BKN030 12/09 Q1016=
201111080000 METAR LPPR 080000Z 12007KT 9999 FEW025 SCT030 11/09 Q1016=
201111072330 METAR LPPR 072330Z 12007KT 9999 SCT025 11/09 Q1016=
201111072300 METAR LPPR 072300Z 12004KT 080V140 9999 FEW025 BKN030 11/09
                        Q1016=
201111072230 METAR LPPR 072230Z 13004KT 100V170 9999 SCT030 BKN036 12/10
                        Q1016=
201111072200 METAR LPPR 072200Z 20004KT 170V240 9999 SCT020 SCT030 14/09
                        Q1016=
201111072130 METAR LPPR 072130Z 20004KT 170V230 9999 BKN020 13/10 Q1016=
201111072100 METAR LPPR 072100Z 20004KT 9999 BKN020 14/10 Q1016=
201111072030 METAR LPPR 072030Z 21004KT 170V250 9999 BKN020 SCT030 13/10
                        Q1016=
201111072000 METAR LPPR 072000Z 20004KT 170V260 9999 BKN020 12/10 Q1016=
201111071930 METAR LPPR 071930Z VRB02KT 9999 FEW020 11/09 Q1016=
201111071900 METAR LPPR 071900Z 18004KT 9999 FEW020 11/10 Q1016=
201111071830 METAR LPPR 071830Z 17005KT CAVOK 12/10 Q1016=
201111071800 METAR LPPR 071800Z 20004KT 180V240 CAVOK 13/10 Q1015=
201111071730 METAR LPPR 071730Z 20006KT CAVOK 13/10 Q1015=
201111071700 METAR LPPR 071700Z 19007KT CAVOK 14/11 Q1015=
201111071630 METAR LPPR 071630Z 21004KT 170V250 CAVOK 15/11 Q1016=
201111071600 METAR LPPR 071600Z 24006KT 190V270 CAVOK 15/11 Q1016=
201111071530 METAR LPPR 071530Z 24005KT 190V290 CAVOK 15/11 Q1016=
201111071500 METAR LPPR 071500Z 24006KT 210V290 CAVOK 16/10 Q1016=
201111071430 METAR LPPR 071430Z 26006KT 200V300 CAVOK 16/10 Q1016=
201111071400 METAR LPPR 071400Z 24007KT 210V270 CAVOK 15/09 Q1016=
201111071330 METAR LPPR 071330Z 25005KT 170V310 CAVOK 16/09 Q1016=
201111071300 METAR LPPR 071300Z 22005KT 190V260 CAVOK 16/07 Q1017=
201111071230 METAR LPPR 071230Z 20003KT 110V270 CAVOK 16/09 Q1017=
201111071200 METAR LPPR 071200Z VRB03KT CAVOK 16/08 Q1018=
201111071130 METAR LPPR 071130Z 17004KT 130V220 CAVOK 15/06 Q1018=
201111071100 METAR LPPR 071100Z 13004KT CAVOK 15/06 Q1018=
201111071030 METAR LPPR 071030Z 09005KT 070V140 CAVOK 14/07 Q1019=
201111071000 METAR LPPR 071000Z VRB02KT CAVOK 13/06 Q1019=
201111070930 METAR LPPR 070930Z 10004KT 040V140 CAVOK 12/06 Q1019=
201111070900 METAR LPPR 070900Z VRB02KT CAVOK 10/06 Q1019=
201111070830 METAR LPPR 070830Z 14004KT 080V170 CAVOK 09/05 Q1019=
201111070800 METAR LPPR 070800Z 11011KT CAVOK 09/05 Q1018=
201111070730 METAR LPPR 070730Z VRB03KT CAVOK 08/04 Q1019=
201111070700 METAR LPPR 070700Z 11009KT CAVOK 08/04 Q1019=
201111070630 METAR LPPR 070630Z 11008KT CAVOK 07/04 Q1019=
201111070600 METAR LPPR 070600Z VRB03KT CAVOK 06/04 Q1019=
201111070530 METAR LPPR 070530Z 05003KT 010V090 CAVOK 06/04 Q1019=
201111070500 METAR LPPR 070500Z VRB02KT CAVOK 06/04 Q1019=
201111070430 METAR LPPR 070430Z 08005KT 060V120 CAVOK 06/04 Q1019=
201111070400 METAR LPPR 070400Z 10005KT CAVOK 08/05 Q1019=
201111070330 METAR LPPR 070330Z VRB04KT CAVOK 07/05 Q1019=
201111070300 METAR LPPR 070300Z 09004KT 020V180 CAVOK 07/05 Q1019=
201111070230 METAR LPPR 070230Z 07004KT CAVOK 07/05 Q1019=
201111070200 METAR LPPR 070200Z 07005KT CAVOK 07/05 Q1020=
201111070130 METAR LPPR 070130Z 05003KT CAVOK 07/05 Q1020=
201111070100 METAR LPPR 070100Z 05003KT CAVOK 08/05 Q1020=
201111070030 METAR LPPR 070030Z 08004KT CAVOK 08/05 Q1020=
201111070000 METAR LPPR 070000Z 03003KT 350V060 CAVOK 08/05 Q1020=
201111062330 METAR LPPR 062330Z VRB02KT CAVOK 09/05 Q1020=
201111062300 METAR LPPR 062300Z 10003KT 060V150 CAVOK 07/04 Q1021=
201111062230 METAR LPPR 062230Z VRB01KT CAVOK 09/05 Q1021=
201111062200 METAR LPPR 062200Z 07003KT CAVOK 07/06 Q1021=
201111062130 METAR LPPR 062130Z 01003KT CAVOK 07/05 Q1021=
201111062100 METAR LPPR 062100Z 35003KT CAVOK 08/05 Q1021=
201111062030 METAR LPPR 062030Z 36005KT CAVOK 10/05 Q1021=
201111062000 METAR LPPR 062000Z 36006KT CAVOK 10/06 Q1021=
201111061930 METAR LPPR 061930Z 35005KT 9999 FEW018 11/06 Q1021=
201111061900 METAR LPPR 061900Z 35006KT 9999 FEW018 11/06 Q1021=
201111061830 METAR LPPR 061830Z 36006KT 9999 FEW019 11/06 Q1021=
201111061800 METAR LPPR 061800Z 34008KT 9999 FEW020 12/06 Q1021=
201111061730 METAR LPPR 061730Z 33007KT 9999 FEW020 14/06 Q1020=
201111061700 METAR LPPR 061700Z 34008KT 9999 FEW030 14/06 Q1020=
201111061630 METAR LPPR 061630Z 35010KT 9999 FEW030 15/05 Q1020=
201111061600 METAR LPPR 061600Z 35009KT 9999 FEW040 16/05 Q1020=
201111061530 METAR LPPR 061530Z 36010KT 9999 FEW040 16/06 Q1020=
201111061500 METAR LPPR 061500Z 33011KT 9999 FEW040 16/07 Q1020=
201111061430 METAR LPPR 061430Z 34011KT 300V020 9999 FEW030 16/09 Q1020=
201111061400 METAR LPPR 061400Z 36010KT 9999 FEW017 16/06 Q1020=
201111061330 METAR LPPR 061330Z 36012KT 9999 FEW017 16/06 Q1021=
201111061300 METAR LPPR 061300Z 01011KT 330V030 9999 FEW015 16/06 Q1021=
201111061230 METAR LPPR 061230Z 02012KT 9999 FEW015 16/07 Q1021=
201111061200 METAR LPPR 061200Z 01010KT 340V050 9999 FEW015 15/06 Q1022=
201111061130 METAR LPPR 061130Z 01009KT 340V040 9999 FEW015 15/07 Q1022=
201111061100 METAR LPPR 061100Z 36010KT 9999 FEW015 14/07 Q1022=
201111061030 METAR LPPR 061030Z 01006KT 340V060 CAVOK 13/07 Q1023=
201111061000 METAR LPPR 061000Z 03006KT 360V060 CAVOK 12/07 Q1023=
201111060930 METAR LPPR 060930Z 36009KT 9999 FEW015 12/08 Q1023=
201111060900 METAR LPPR 060900Z 36008KT 9999 FEW015 10/08 Q1023=
201111060830 METAR LPPR 060830Z 34006KT 9999 FEW015 09/07 Q1023=
201111060800 METAR LPPR 060800Z 34003KT 9999 FEW015 08/07 Q1022=
201111060730 METAR LPPR 060730Z 34005KT CAVOK 07/06 Q1022=
201111060700 METAR LPPR 060700Z 35005KT 330V030 CAVOK 07/06 Q1022=
201111060630 METAR LPPR 060630Z 34004KT 310V040 CAVOK 08/06 Q1022=
201111060600 METAR LPPR 060600Z 34005KT 310V050 CAVOK 08/06 Q1022=
201111060530 METAR LPPR 060530Z 01005KT CAVOK 07/06 Q1021=
201111060500 METAR LPPR 060500Z 02006KT CAVOK 07/06 Q1021=
201111060430 METAR LPPR 060430Z 05004KT CAVOK 06/05 Q1021=
201111060400 METAR LPPR 060400Z 36003KT CAVOK 07/06 Q1021=
201111060330 METAR LPPR 060330Z VRB02KT CAVOK 07/06 Q1021=
201111060300 METAR LPPR 060300Z 01002KT CAVOK 08/06 Q1021=
201111060230 METAR LPPR 060230Z 35006KT CAVOK 08/06 Q1021=
201111060200 METAR LPPR 060200Z 34006KT CAVOK 09/07 Q1021=
201111060130 METAR LPPR 060130Z 35004KT CAVOK 09/07 Q1021=
201111060100 METAR LPPR 060100Z 35006KT CAVOK 09/07 Q1021=
201111060030 METAR LPPR 060030Z 35007KT CAVOK 09/07 Q1021=
201111060000 METAR LPPR 060000Z 35004KT CAVOK 09/06 Q1021=
201111052330 METAR LPPR 052330Z 33004KT CAVOK 10/07 Q1021=
201111052300 METAR LPPR 052300Z 35005KT CAVOK 09/07 Q1021=
201111052230 METAR LPPR 052230Z 34004KT CAVOK 10/07 Q1021=
201111052200 METAR LPPR 052200Z 35004KT CAVOK 10/07 Q1020=
201111052130 METAR LPPR 052130Z 35005KT CAVOK 10/07 Q1020=
201111052100 METAR LPPR 052100Z 34005KT CAVOK 10/07 Q1020=
201111052030 METAR LPPR 052030Z VRB02KT CAVOK 11/08 Q1019=
201111052000 METAR LPPR 052000Z 36005KT 330V070 CAVOK 12/07 Q1019=
201111051930 METAR LPPR 051930Z 34010KT 9999 FEW025 13/08 Q1019=
201111051900 METAR LPPR 051900Z 34009KT 9999 FEW025 13/08 Q1018=
201111051830 METAR LPPR 051830Z 34008KT 9999 FEW025 13/09 Q1018=
201111051800 METAR LPPR 051800Z 33008KT 9999 FEW025 14/09 Q1018=
201111051730 METAR LPPR 051730Z 34010KT 9999 FEW025 14/08 Q1017=
201111051700 METAR LPPR 051700Z 35011KT 9999 FEW025 SCT045 15/08 Q1017=
201111051630 METAR LPPR 051630Z 34014KT 9999 FEW025 SCT040 15/09 Q1016=
201111051600 METAR LPPR 051600Z 33012KT 300V360 9999 FEW026 FEW028CB SCT045
                        15/09 Q1016=
201111051530 METAR LPPR 051530Z 33015KT 290V350 9999 FEW026 FEW028TCU
                        15/09 Q1015=
201111051500 METAR LPPR 051500Z 33012KT 9999 FEW026 FEW028CB SCT032 16/10
                        Q1015=
201111051430 METAR LPPR 051430Z 33010KT 300V360 9999 FEW026 FEW028CB 16/10
                        Q1014=
201111051400 METAR LPPR 051400Z 33010KT 300V360 9999 FEW026 FEW028CB 16/09
                        Q1014=
201111051330 METAR LPPR 051330Z 33012KT 9999 SCT025 FEW026CB 15/10 Q1014=
201111051300 METAR LPPR 051300Z 33013KT 280V350 9999 SCT025 FEW026CB 15/09
                        Q1014=
201111051230 METAR LPPR 051230Z 32009KT 290V350 9999 FEW023 FEW025CB 15/09
                        Q1014=
201111051200 METAR LPPR 051200Z 35014KT 9999 FEW022 FEW023CB 15/08 Q1014=
201111051130 METAR LPPR 051130Z 35013KT 9999 FEW019 FEW022CB 15/09 Q1013=
201111051100 METAR LPPR 051100Z 34009KT 310V010 9999 FEW018 FEW020CB 14/09
                        Q1013=
201111051030 METAR LPPR 051030Z 36010KT 330V030 9999 FEW017 FEW020CB 14/09
                        Q1013=
201111051000 METAR LPPR 051000Z 36009KT 320V020 9999 FEW017 FEW020CB 13/10
                        Q1013=
201111050930 METAR LPPR 050930Z 34008KT 9999 FEW016 FEW020CB 13/10 Q1012=
201111050900 METAR LPPR 050900Z 34005KT 310V020 9999 FEW015 FEW020CB 12/10
                        Q1012=
201111050830 METAR LPPR 050830Z VRB02KT 9999 VCSH FEW015 FEW020CB 12/10
                        Q1011=
201111050800 METAR LPPR 050800Z 36003KT 9999 -SHRA FEW015 FEW020CB 11/10
                        Q1011=
201111050730 METAR LPPR 050730Z 34004KT 9999 -SHRA FEW015 FEW025TCU BKN045
                        09/08 Q1011=
201111050700 METAR LPPR 050700Z 35004KT 320V060 9999 -SHRA FEW020TCU SCT040
                        09/08 Q1010=
201111050630 METAR LPPR 050630Z VRB01KT 9999 FEW020 SCT045 09/08 Q1009=
201111050600 METAR LPPR 050600Z 06002KT 9999 FEW020 SCT040 08/07 Q1009=
201111050530 METAR LPPR 050530Z 00000KT 9999 FEW040 08/08 Q1009=
201111050500 METAR LPPR 050500Z 00000KT 9999 SCT040 09/08 Q1008=
201111050430 METAR LPPR 050430Z VRB01KT 9999 FEW040 09/08 Q1007=
201111050400 METAR LPPR 050400Z 28003KT 250V320 9999 -SHRA SCT025 BKN045
                        10/09 Q1007=
201111050330 METAR LPPR 050330Z 34004KT 9999 -SHRA BKN040 10/08 Q1007=
201111050300 METAR LPPR 050300Z 35003KT 320V020 9999 FEW025 09/08 Q1007=
201111050230 METAR LPPR 050230Z 36007KT 310V040 9999 -SHRA SCT020 BKN040
                        10/08 Q1007=
201111050200 METAR LPPR 050200Z 35004KT 9999 FEW035 09/09 Q1007=
201111050130 METAR LPPR 050130Z 34004KT 9999 SCT040 09/09 Q1006=
201111050100 METAR LPPR 050100Z 34004KT 9999 FEW040 08/08 Q1006=
201111050030 METAR LPPR 050030Z 34002KT 9999 FEW040 09/08 Q1006=
201111050000 METAR LPPR 050000Z 35001KT 9999 FEW025 10/09 Q1005=
201111042330 METAR LPPR 042330Z VRB02KT 9999 FEW020 FEW030TCU 10/09 Q1005=
201111042300 METAR LPPR 042300Z 01003KT 330V040 9000 -SHRA SCT020 SCT025TCU
                        BKN040 10/10 Q1005=
201111042230 METAR LPPR 042230Z 35004KT 8000 FEW018 SCT035TCU 10/10 Q1004=
201111042200 METAR LPPR 042200Z 36003KT 8000 FEW018 SCT028 09/09 Q1004=
201111042130 METAR LPPR 042130Z 03002KT 9000 SCT018 BKN030 10/10 Q1004=
201111042100 METAR LPPR 042100Z 04002KT 7000 FEW020 SCT040 10/09 Q1003=
201111042030 METAR LPPR 042030Z VRB02KT 8000 -SHRA FEW025 BKN040 10/09
                        Q1003=
201111042000 METAR LPPR 042000Z VRB02KT 9999 SCT040 10/09 Q1002=
201111041930 METAR LPPR 041930Z 00000KT 9999 FEW040 10/09 Q1002=
201111041900 METAR LPPR 041900Z VRB02KT 9999 FEW035 10/09 Q1001=
201111041830 METAR LPPR 041830Z 00000KT 9999 FEW020 SCT045 11/10 Q1001=
201111041800 METAR LPPR 041800Z VRB01KT 9999 -SHRA FEW020 FEW030CB SCT045
                        12/10 Q1000=
201111041730 METAR LPPR 041730Z 35003KT 9999 FEW018 FEW030 SCT045 12/09
                        Q1000=
201111041700 METAR LPPR 041700Z 35003KT 9999 FEW020 FEW030CB SCT045 13/09
                        Q1000=
201111041630 METAR LPPR 041630Z 31004KT 250V350 9999 FEW018 FEW030CB SCT045
                        14/09 Q0999=
201111041600 METAR LPPR 041600Z 25003KT 200V320 9999 FEW017 FEW030CB SCT040
                        14/10 Q0999=
201111041530 METAR LPPR 041530Z 25004KT 210V290 9999 FEW017 FEW030CB 14/10
                        Q0998=
201111041500 METAR LPPR 041500Z VRB04KT 9999 FEW017 FEW025CB 15/10 Q0998=
201111041430 METAR LPPR 041430Z 25005KT 220V290 9999 FEW017 FEW025CB 14/10
                        Q0998=
201111041400 METAR LPPR 041400Z 24004KT 190V270 9999 FEW017 FEW025CB 14/10
                        Q0997=
201111041330 METAR LPPR 041330Z 22003KT 160V300 9999 FEW018 FEW025CB 14/09
                        Q0997=
201111041300 METAR LPPR 041300Z 25007KT 200V280 9999 FEW020 FEW025CB 14/09
                        Q0997=
201111041230 METAR LPPR 041230Z 21007KT 170V270 9999 FEW018 FEW025CB 15/10
                        Q0997=
201111041200 METAR LPPR 041200Z 17004KT 090V250 9999 FEW015 FEW025CB 15/10
                        Q0997=
201111041130 METAR LPPR 041130Z 16006KT 120V200 9999 FEW015 FEW025CB 14/10
                        Q0997=
201111041100 METAR LPPR 041100Z 16003KT 090V220 9999 FEW015 FEW025CB 13/10
                        Q0997=
201111041030 METAR LPPR 041030Z 16004KT 130V200 9999 FEW012 FEW020CB SCT040/
                        13/09 Q0996=
201111041000 METAR LPPR 041000Z 15006KT 9999 FEW012 SCT040/ 12/09 Q0996=
201111040930 METAR LPPR 040930Z 19007KT 160V220 9000 -RA FEW009 FEW020CB
                        SCT040 11/09 Q0996 RERA=
201111040900 METAR LPPR 040900Z 16014KT 8000 -RA FEW007 FEW018CB SCT040
                        11/09 Q0996=
201111040830 METAR LPPR 040830Z 18012KT 9000 -RA FEW012 SCT040 11/09 Q0996=
201111040800 METAR LPPR 040800Z 17010KT 9999 -RA FEW010 SCT040 11/09 Q0995=
201111040730 METAR LPPR 040730Z 13010KT 9999 -RA FEW010 BKN050 10/09 Q0995=
201111040700 METAR LPPR 040700Z 14010KT 9999 -RA FEW010 FEW016CB BKN050
                        10/09 Q0995=
201111040630 METAR LPPR 040630Z 15009KT 7000 -RA FEW010 FEW017CB BKN050
                        10/09 Q0995 RERA=
201111040600 METAR LPPR 040600Z 16008KT 7000 RA FEW010 FEW017CB BKN050
                        10/09 Q0995=
201111040530 METAR LPPR 040530Z 08003KT 040V110 9000 -RA FEW010 FEW017CB
                        BKN050 10/09 Q0995 RETS=
201111040500 METAR LPPR 040500Z 05003KT 010V090 9999 -TSRA FEW018CB SCT035
                        BKN050 10/09 Q0995=
201111040430 METAR LPPR 040430Z 03004KT 360V060 9999 -RA FEW018CB SCT035
                        BKN050 10/09 Q0994=
201111040400 METAR LPPR 040400Z 06005KT 9999 -RA FEW010 SCT015 FEW018CB
                        11/10 Q0994=
201111040330 METAR LPPR 040330Z 15007KT 9999 -RA SCT014 FEW018CB SCT040
                        11/10 Q0994 RETS=
201111040300 METAR LPPR 040300Z 16010KT 9999 -TSRA SCT014 FEW018CB SCT040
                        11/10 Q0995=
201111040230 METAR LPPR 040230Z 14008KT 9999 TS VCSH SCT014 FEW018CB SCT020
                        11/10 Q0995=
201111040200 METAR LPPR 040200Z 14008KT 9999 TS FEW014 FEW018CB 11/10
                        Q0994=
201111040130 METAR LPPR 040130Z 16011KT 9999 FEW013 FEW018CB 11/10 Q0995
                        RETS=
201111040100 METAR LPPR 040100Z 15012KT 9999 TS FEW012 FEW020CB SCT040
                        11/10 Q0995=
201111040030 METAR LPPR 040030Z 12006KT 9999 TS FEW010 FEW020CB SCT035
                        11/10 Q0995=
201111040000 METAR LPPR 040000Z 16013KT 9999 -RA SCT012 FEW020CB 12/11
                        Q0995=
201111032330 METAR LPPR 032330Z 15012KT 9999 -RA BKN012 FEW020CB BKN030
                        12/10 Q0995=
201111032300 METAR LPPR 032300Z 14010KT 9999 -SHRA SCT015 FEW020CB BKN030
                        11/10 Q0996=
201111032230 METAR LPPR 032230Z 17009KT 130V210 9999 -SHRA FEW007 SCT015
                        FEW020CB BKN040 11/10 Q0995=
201111032200 METAR LPPR 032200Z 21010KT 180V280 3000 TSRA FEW009 SCT012
                        SCT020CB BKN025 12/11 Q0996=
201111032130 METAR LPPR 032130Z 20009KT 170V280 5000 -SHRA FEW009 SCT015
                        FEW020CB BKN025 13/11 Q0995=
201111032100 METAR LPPR 032100Z 17011KT 9999 SCT015 FEW020CB BKN025 12/11
                        Q0995=
201111032030 METAR LPPR 032030Z 17014KT 9999 SCT013 FEW020CB BKN025 13/11
                        Q0995=
201111032000 METAR LPPR 032000Z 17010KT 9999 FEW015 FEW020CB BKN025 13/11
                        Q0995=
201111031930 METAR LPPR 031930Z 17010KT 140V200 9999 FEW015 FEW020CB BKN030
                        14/10 Q0996=
201111031900 METAR LPPR 031900Z VRB06KT 9999 FEW014 FEW020CB BKN030 14/09
                        Q0996=
201111031830 METAR LPPR 031830Z 22008KT 190V250 9999 SCT015 FEW020CB BKN030
                        15/11 Q0995=
201111031800 METAR LPPR 031800Z 22007KT 180V270 9999 SCT015 FEW020CB BKN030
                        14/11 Q0995=
201111031730 METAR LPPR 031730Z 22007KT 170V270 9999 SCT015 FEW020CB BKN030
                        14/10 Q0995=
201111031700 METAR LPPR 031700Z 21007KT 170V260 9000 SCT015 FEW020CB BKN040
                        14/11 Q0995=
201111031630 METAR LPPR 031630Z 22008KT 180V250 9999 SCT015 FEW020CB BKN040
                        14/12 Q0995=
201111031600 METAR LPPR 031600Z 21006KT 9000 -SHRA SCT015 FEW020CB BKN040
                        13/11 Q0995=
201111031530 METAR LPPR 031530Z 22008KT 170V260 9999 FEW013 SCT017 FEW020CB
                        BKN040 14/11 Q0995=
201111031500 METAR LPPR 031500Z 25007KT 210V310 9999 FEW015 SCT017 FEW020CB
                        BKN040 13/11 Q0995=
201111031430 METAR LPPR 031430Z 25008KT 170V310 6000 -SHRA FEW015 SCT017
                        FEW020CB BKN040 13/11 Q0995=
201111031400 METAR LPPR 031400Z 22008KT 200V260 9999 SCT014 FEW020CB BKN025
                        15/12 Q0995=
201111031330 METAR LPPR 031330Z 24010KT 200V280 9999 FEW009 SCT015 FEW020CB
                        BKN040 14/11 Q0995=
201111031300 METAR LPPR 031300Z 23010KT 200V270 5000 -SHRA FEW009 SCT015
                        FEW020CB BKN040 13/12 Q0995=
201111031230 METAR LPPR 031230Z 25010KT 210V300 5000 -SHRA FEW008 SCT015
                        FEW020CB BKN030 13/11 Q0995=
201111031200 METAR LPPR 031200Z 27006KT 230V320 6000 -SHRA FEW009 SCT015
                        FEW020CB BKN030 14/12 Q0995=
201111031130 METAR LPPR 031130Z 21014G27KT 180V240 9999 SCT015 FEW020CB
                        BKN030 15/12 Q0995=
201111031100 METAR LPPR 031100Z 26005KT 210V330 9000 FEW013 FEW020CB BKN030
                        14/13 Q0995=
201111031030 METAR LPPR 031030Z 22008KT 190V260 9999 -SHRA SCT015 FEW020CB
                        BKN030 15/13 Q0995=
201111031000 METAR LPPR 031000Z 24009KT 190V290 5000 -SHRA SCT015 SCT020CB
                        BKN030 13/12 Q0995 RERA=
201111030930 METAR LPPR 030930Z 22011KT 190V260 9000 -SHRA SCT015 SCT020CB
                        SCT030 16/12 Q0994=
201111030900 METAR LPPR 030900Z 21012KT 180V240 9999 FEW015 SCT020CB SCT030
                        16/11 Q0994=
201111030830 METAR LPPR 030830Z 19013KT 9000 SCT015 SCT020CB BKN030 15/12
                        Q0994=
201111030800 METAR LPPR 030800Z 20010KT 9999 SCT015 SCT023CB BKN030 16/12
                        Q0994=
201111030730 METAR LPPR 030730Z 20007KT 180V240 9999 FEW015 FEW018CB SCT030
                        15/12 Q0994=
201111030700 METAR LPPR 030700Z 21009KT 180V250 9999 FEW015 FEW018CB SCT030
                        15/11 Q0994=
201111030630 METAR LPPR 030630Z 20007KT 170V230 9999 TS FEW009 FEW018CB
                        14/12 Q0994=
201111030600 METAR LPPR 030600Z 19007KT 9000 -TSRA FEW007 SCT020CB SCT030
                        13/12 Q0993=
201111030530 METAR LPPR 030530Z 20014G27KT 170V260 8000 -TSRA FEW013 SCT020CB
                        SCT025 15/12 Q0994=
201111030500 METAR LPPR 030500Z 20013KT 9999 FEW013 FEW020CB SCT025 16/13
                        Q0994=
201111030430 METAR LPPR 030430Z 20012KT 9999 FEW013 FEW020CB SCT030 16/13
                        Q0994=
201111030400 METAR LPPR 030400Z 20013KT 9999 FEW020CB SCT030 16/12 Q0994=
201111030330 METAR LPPR 030330Z 20015KT 9999 TS FEW017 FEW020CB 16/12
                        Q0994=
201111030300 METAR LPPR 030300Z 21012KT 170V230 8000 -SHRA FEW020 FEW025CB
                        BKN030 16/14 Q0994=
201111030230 METAR LPPR 030230Z 19010KT 9999 TS FEW020 FEW025CB BKN030
                        16/13 Q0994=
201111030200 METAR LPPR 030200Z 19013KT 9999 FEW020 FEW025CB BKN030 16/14
                        Q0995=
201111030130 METAR LPPR 030130Z 20010KT 180V250 9999 FEW015 FEW025CB BKN040
                        16/13 Q0995=
201111030100 METAR LPPR 030100Z 20012KT 9999 FEW015 FEW025CB BKN040 15/13
                        Q0995=
201111030030 METAR LPPR 030030Z 22008KT 190V250 9000 -SHRA FEW015 FEW025CB
                        BKN040 14/13 Q0995 RERA=
201111030000 METAR LPPR 030000Z 22012KT 190V260 9999 -SHRA FEW013 SCT025CB
                        SCT030 14/12 Q0995=
201111022330 METAR LPPR 022330Z 20011KT 170V230 9000 -TSRA SCT025CB BKN033
                        16/13 Q0995=
201111022300 METAR LPPR 022300Z 21008KT 9999 -SHRA FEW025CB BKN029 15/13
                        Q0995 RETS WS ALL RWY=
201111022230 METAR LPPR 022230Z 20008KT 170V250 9999 -SHRA SCT013 SCT016CB
                        BKN044 13/12 Q0996 RETS=
201111022200 METAR LPPR 022200Z 23009KT 200V280 9999 FEW022CB SCT027 BKN050
                        15/13 Q0996 RETS=
201111022130 METAR LPPR 022130Z 21009KT 150V250 9999 TS FEW018CB SCT024
                        16/14 Q0996=
201111022100 METAR LPPR 022100Z 19008KT 160V220 9999 SCT019 SCT024 BKN044
                        16/14 Q0996=
201111022030 METAR LPPR 022030Z 22011KT 190V250 8000 -SHRA SCT013 BKN047
                        15/13 Q0996 WS ALL RWY=
201111022000 METAR LPPR 022000Z 20019KT 2000 1300S R17/P2000 -TSRA SCT009
                        BKN014CB BKN021 16/15 Q0995 WS ALL
                        RWY=
201111021930 METAR LPPR 021930Z 19024KT 160V220 2600 +TSRA SCT009 BKN014CB
                        BKN021 16/15 Q0995 WS ALL RWY=
201111021900 METAR LPPR 021900Z 18019KT 9999 TSRA FEW011 SCT015CB BKN017
                        17/15 Q0996 WS ALL RWY=
201111021830 METAR LPPR 021830Z 18021KT 9999 SCT010 BKN022 17/15 Q0996
                        WS ALL RWY=
201111021800 METAR LPPR 021800Z 19020KT 9999 SCT007 BKN014 BKN023 17/15
                        Q0997=
201111021730 METAR LPPR 021730Z 18019KT 7000 -SHRA BKN006 FEW015TCU BKN018
                        17/16 Q0997 WS ALL RWY=
201111021700 METAR LPPR 021700Z 19018KT 8000 -SHRA SCT007 SCT015TCU BKN023
                        17/16 Q0997 WS ALL RWY=
201111021630 METAR LPPR 021630Z 19017KT 8000 SCT008 SCT015TCU BKN016 17/16
                        Q0997 WS ALL RWY=
201111021600 METAR LPPR 021600Z 19019KT 6000 -TSRA SCT008 SCT014CB BKN018
                        17/16 Q0997 WS ALL RWY=
201111021530 METAR LPPR 021530Z 18020KT 7000 -SHRA SCT007 FEW012CB BKN015
                        17/16 Q0997 WS ALL RWY=
201111021500 METAR LPPR 021500Z 19019KT 8000 SCT007 BKN010 OVC015 18/16
                        Q0997 WS ALL RWY=
201111021430 METAR LPPR 021430Z 20015G25KT 170V230 8000 SCT009 BKN013
                        18/16 Q0997 WS ALL RWY=
201111021400 METAR LPPR 021400Z 19014KT 9999 FEW012 SCT020 19/16 Q0997=
201111021330 METAR LPPR 021330Z 18015KT 9999 SCT015 BKN025 18/15 Q0998=
201111021300 METAR LPPR 021300Z 18017KT 9999 SCT015 BKN025 18/14 Q0998=
201111021230 METAR LPPR 021230Z 18016KT 9999 SCT016 BKN025 17/14 Q0998=
201111021200 METAR LPPR 021200Z 17016KT 9999 SCT015 SCT035 BKN045 17/14
                        Q0999=
201111021130 METAR LPPR 021130Z 18015KT 9999 FEW020 SCT045 16/13 Q0999=
201111021100 METAR LPPR 021100Z 18018KT 9999 FEW020 SCT045 16/13 Q1000=
201111021030 METAR LPPR 021030Z 17021KT 9999 -RA FEW020 BKN045 15/13 Q0999
                        WS ALL RWY=
201111021000 METAR LPPR 021000Z 17022KT 8000 -RA FEW018 SCT035 OVC045
                        15/13 Q1000 WS ALL RWY=
201111020930 METAR LPPR 020930Z 17020KT 6000 RA FEW015 BKN035 OVC045 16/14
                        Q1001 WS ALL RWY=
201111020900 METAR LPPR 020900Z 19023KT 4000 RA SCT011 BKN015 OVC035 15/12
                        Q1001 WS ALL RWY=
201111020830 METAR LPPR 020830Z 21017G29KT 180V260 4000 RA SCT015 BKN025
                        OVC030 16/14 Q1002 WS ALL RWY=
201111020800 METAR LPPR 020800Z 18023G33KT 9999 SCT020 BKN030 18/13 Q1001=
201111020730 METAR LPPR 020730Z 17024G35KT 9999 SCT020 BKN030 17/12 Q1001=
201111020700 METAR LPPR 020700Z 17022KT 9999 SCT020 BKN030 17/12 Q1001=
201111020630 METAR LPPR 020630Z 17023KT 9999 FEW020 BKN030 17/11 Q1002=
201111020600 METAR LPPR 020600Z 17025G36KT 9999 FEW020 BKN030 17/11 Q1002=
201111020530 METAR LPPR 020530Z 17023KT 9999 FEW020 SCT030 17/10 Q1003=
201111020500 METAR LPPR 020500Z 17021KT 9999 FEW020 SCT030 16/09 Q1003=
201111020430 METAR LPPR 020430Z 17021KT 9999 SCT040 16/09 Q1003=
201111020400 METAR LPPR 020400Z 17020KT 9999 SCT040 16/08 Q1003=
201111020330 METAR LPPR 020330Z 17018KT 9999 SCT040 16/08 Q1003=
201111020300 METAR LPPR 020300Z 16016KT 9999 FEW040 15/08 Q1004=
201111020230 METAR LPPR 020230Z 16015KT 9999 SCT040 15/08 Q1005=
201111020200 METAR LPPR 020200Z 16014KT 9999 SCT040 15/08 Q1006=
201111020130 METAR LPPR 020130Z 16013KT 9999 SCT040 15/08 Q1007=
201111020100 METAR LPPR 020100Z 16014KT 9999 FEW040 15/08 Q1007=
201111020030 METAR LPPR 020030Z 16011KT 9999 SCT040 14/09 Q1008=
201111020000 METAR LPPR 020000Z 16012KT 9999 SCT040 14/09 Q1008=
201111012330 METAR LPPR 012330Z 16011KT 9999 SCT040 14/09 Q1009=
201111012300 METAR LPPR 012300Z 16011KT 9999 SCT040 14/09 Q1010=
201111012230 METAR LPPR 012230Z 17010KT 9999 FEW040 14/10 Q1010=
201111012200 METAR LPPR 012200Z 17010KT 9999 FEW040 14/10 Q1011=
201111012130 METAR LPPR 012130Z 16009KT 9999 FEW040 14/10 Q1011=
201111012100 METAR LPPR 012100Z 16005KT 9999 FEW040 13/10 Q1011=
201111012030 METAR LPPR 012030Z 15006KT CAVOK 14/10 Q1011=
201111012000 METAR LPPR 012000Z 13007KT CAVOK 14/10 Q1010=
201111011930 METAR LPPR 011930Z 14006KT CAVOK 13/10 Q1011=
201111011900 METAR LPPR 011900Z 15006KT CAVOK 13/10 Q1012=
201111011830 METAR LPPR 011830Z 17004KT CAVOK 12/09 Q1012=
201111011800 METAR LPPR 011800Z 17006KT CAVOK 14/10 Q1012=
201111011730 METAR LPPR 011730Z 18006KT CAVOK 14/10 Q1012=
201111011700 METAR LPPR 011700Z 19005KT CAVOK 15/09 Q1012=
201111011630 METAR LPPR 011630Z 21004KT 180V240 CAVOK 15/10 Q1012=
201111011600 METAR LPPR 011600Z 20005KT CAVOK 16/10 Q1013=
201111011530 METAR LPPR 011530Z 20005KT CAVOK 16/09 Q1013=
201111011500 METAR LPPR 011500Z 21005KT 180V240 CAVOK 16/08 Q1013=
201111011430 METAR LPPR 011430Z 19005KT 160V220 9999 FEW013 16/10 Q1013=
201111011400 METAR LPPR 011400Z 24004KT 180V280 9999 FEW012 16/13 Q1013=
201111011330 METAR LPPR 011330Z 28003KT 180V330 9999 FEW012 17/13 Q1014=
201111011300 METAR LPPR 011300Z VRB03KT 9999 FEW012 17/12 Q1014=
201111011230 METAR LPPR 011230Z 21003KT 170V270 9999 FEW009 17/12 Q1015=
201111011200 METAR LPPR 011200Z VRB02KT 9999 FEW005 16/11 Q1015=
201111011130 METAR LPPR 011130Z 13003KT 110V200 9999 FEW005 15/11 Q1015=
201111011100 METAR LPPR 011100Z 13005KT 100V170 9999 FEW005 14/12 Q1015=
201111011030 METAR LPPR 011030Z 13006KT 9999 SCT004 13/13 Q1016=
201111011000 METAR LPPR 011000Z 12006KT 090V150 9000 SCT002 11/11 Q1016=
201111010930 METAR LPPR 010930Z 12006KT 090V150 7000 SCT002 SCT004 10/10
                        Q1016=
201111010900 METAR LPPR 010900Z 10006KT 030V130 1500 BR VCFG SCT002 BKN004
                        09/09 Q1016=
201111010830 METAR COR LPPR 010830Z 10005KT 080V150 0800 R17/0800VP2000
                        FG OVC002 09/09 Q1016=
201111010800 METAR LPPR 010800Z 09005KT 060V120 0400 R17/0550 FG OVC001
                        09/09 Q1016=
201111010730 METAR LPPR 010730Z 09004KT 040V120 0400 R17/0650 FG VV002
                        09/09 Q1016=
201111010700 METAR LPPR 010700Z 08004KT 050V120 0600 R17/0750V1700D FG
                        BKN001 09/09 Q1015=
201111010630 METAR LPPR 010630Z 07003KT 0700 FG VV002 08/08 Q1015=
201111010600 METAR LPPR 010600Z VRB02KT 0600 FG BKN001 08/08 Q1015=
201111010530 METAR LPPR 010530Z VRB01KT 0600 R17/0900U FG SCT001 BKN002
                        09/09 Q1016=
201111010500 METAR LPPR 010500Z 06003KT 030V090 0700 R17/0700 FG SCT001
                        BKN002 09/09 Q1016=
201111010430 METAR LPPR 010430Z VRB02KT 1500 BR BKN001 09/09 Q1015=
201111010400 METAR LPPR 010400Z 03003KT 330V070 3000 BR SCT002 09/09 Q1015=
201111010330 METAR LPPR 010330Z VRB02KT 0700 R17/0800VP2000D FG BKN001
                        09/09 Q1015=
201111010300 METAR LPPR 010300Z VRB01KT 0500 R17/0800VP2000 FG VV001 09/09
                        Q1015=
201111010230 METAR LPPR 010230Z VRB01KT 0400 R17/0900 FG VV001 10/09 Q1015=
201111010200 METAR LPPR 010200Z 00000KT 0300 R17/0600N FG VV001 10/10
                        Q1016=
201111010130 METAR LPPR 010130Z VRB02KT 0500 R17/0700 FG BKN001 10/10
                        Q1016=
201111010100 METAR LPPR 010100Z 10004KT 350V160 0500 R17/1000VP2000 FG
                        BKN001 10/10 Q1016=
201111010030 METAR LPPR 010030Z VRB02KT 0400 R17/0700N FG BKN001 10/10
                        Q1016=
201111010000 METAR LPPR 010000Z 14003KT 080V160 0300 R17/0450V0750 FG
                        BKN001 09/09 Q1016=

</pre>

</body>
</html>
