##########################################################
# Query made at 11/07/2014 15:22:32 UTC
# Time interval: from 10/01/2009 00:00  to 10/31/2009 23:59  UTC
##########################################################

##########################################################
# LPPR, Porto / Pedras Rubras (Portugal)
# WMO index: 08545
# Latitude 41-14N. Longitude 008-41W. Altitude 69 m.
##########################################################

###################################
#  METAR/SPECI from LPPR
###################################
200910312330 METAR LPPR 312330Z 18005KT 2000 -DZ BR FEW002 SCT006 BKN009
                        19/19 Q1026=
200910312300 METAR LPPR 312300Z 20006KT 1500 -DZ BR SCT001 FEW002 20/20
                        Q1026=
200910312230 METAR LPPR 312230Z 19005KT 1500 -DZ BR SCT001 BKN002 20/20
                        Q1026=
200910312200 METAR LPPR 312200Z 18004KT 1500 -DZ BR SCT001 BKN002 20/20
                        Q1026=
200910312130 METAR LPPR 312130Z 17005KT 3000 -DZ BR SCT001 BKN004 20/20
                        Q1026=
200910312100 METAR LPPR 312100Z 15003KT 3000 -DZ BR SCT001 BKN004 20/20
                        Q1026=
200910312030 METAR LPPR 312030Z 17003KT 3500 BR SCT001 SCT003 BKN020 20/20
                        Q1026=
200910312000 METAR LPPR 312000Z 18005KT 160V220 3500N VCFG BR SCT001 SCT003
                        BKN020 20/20 Q1026=
200910311930 METAR LPPR 311930Z 23004KT 200V260 5000 BR SCT002 SCT015
                        BKN020 20/20 Q1026=
200910311900 METAR LPPR 311900Z 11005KT 5000 BR FEW005 SCT015 BKN020 20/20
                        Q1025=
200910311830 METAR LPPR 311830Z VRB03KT 5000 BR FEW005 SCT012 BKN017 20/20
                        Q1026=
200910311800 METAR LPPR 311800Z 16004KT 3000N BR VCFG SCT001 SCT010 BKN016
                        20/20 Q1025=
200910311730 METAR LPPR 311730Z 17003KT 3500 BR SCT001 SCT004 BKN015 20/19
                        Q1025=
200910311700 METAR LPPR 311700Z 18005KT 3500 BR SCT002 SCT012 BKN017 20/20
                        Q1025=
200910311630 METAR LPPR 311630Z 17003KT 3500 BR FEW001 SCT005 BKN017 20/20
                        Q1025=
200910311600 METAR COR LPPR 311600Z 20005KT 3000 VCFG BR SCT001 SCT005
                        BKN017 20/19 Q1025=
200910311530 METAR LPPR 311530Z 19005KT 3500 BR SCT001 SCT012 BKN017 21/20
                        Q1025=
200910311500 METAR LPPR 311500Z 21005KT 180V270 3000 VCFG BR SCT001 SCT006
                        BKN015 21/20 Q1025=
200910311430 METAR LPPR 311430Z 20005KT 3000 VCFG BR SCT001 SCT006 BKN015
                        21/19 Q1025=
200910311400 METAR LPPR 311400Z 20005KT 160V250 5000 BR BKN003 BKN015
                        21/19 Q1026=
200910311330 METAR LPPR 311330Z 23006KT 7000 SCT005 BKN015 21/19 Q1026=
200910311300 METAR LPPR 311300Z 20005KT 180V240 7000 SCT008 BKN015 22/19
                        Q1026=
200910311230 METAR LPPR 311230Z 21005KT 180V240 7000 SCT008 BKN015 21/18
                        Q1026=
200910311200 METAR LPPR 311200Z 19005KT 8000 BKN017 SCT070 21/18 Q1026=
200910311130 METAR LPPR 311130Z 21006KT 8000 SCT017 BKN070 21/18 Q1027=
200910311100 METAR LPPR 311100Z 20006KT 180V240 7000 BKN020 SCT070 22/18
                        Q1027=
200910311030 METAR LPPR 311030Z 15006KT 7000 BKN025 SCT070 21/17 Q1027=
200910311000 METAR LPPR 311000Z 12005KT 7000 BKN020 SCT035 20/17 Q1027=
200910310930 METAR LPPR 310930Z 12005KT 7000 BKN020 SCT035 19/17 Q1027=
200910310900 METAR LPPR 310900Z 12004KT 8000 SCT017 BKN035 19/17 Q1026=
200910310830 METAR LPPR 310830Z 12004KT 6000 SCT008 BKN017 19/17 Q1026=
200910310800 METAR LPPR 310800Z 12005KT 5000 BR SCT008 BKN017 19/17 Q1026=
200910310730 METAR COR LPPR 310730Z 12004KT 5000 BR SCT006 BKN009 19/18
                        Q1025=
200910310700 METAR LPPR 310700Z 13006KT 5000 BR SCT005 BKN008 19/18 Q1025=
200910310630 METAR LPPR 310630Z 11006KT 5000 BR SCT005 BKN008 19/17 Q1025=
200910310600 METAR LPPR 310600Z 11005KT 6000 SCT006 BKN008 19/17 Q1025=
200910310530 METAR LPPR 310530Z 12006KT 6000 SCT005 BKN008 19/18 Q1025=
200910310500 METAR LPPR 310500Z 11005KT 6000 SCT004 BKN007 19/18 Q1024=
200910310430 METAR LPPR 310430Z 11005KT 6000 SCT004 BKN007 18/18 Q1024=
200910310400 METAR LPPR 310400Z 12005KT 5000 BR SCT004 BKN025 19/18 Q1024=
200910310330 METAR LPPR 310330Z 12005KT 5000 BR FEW009 SCT025 19/18 Q1024=
200910310300 METAR LPPR 310300Z 13005KT 5000 BR FEW009 SCT025 SCT060 19/18
                        Q1024=
200910310230 METAR LPPR 310230Z 14003KT 5000 BR SCT025 BKN060 19/18 Q1024=
200910310200 METAR LPPR 310200Z 13003KT 6000 SCT025 BKN060 19/18 Q1024=
200910310130 METAR LPPR 310130Z 12005KT 6000 SCT025 BKN060 19/18 Q1024=
200910310100 METAR LPPR 310100Z 12005KT 7000 SCT060 SCT250 19/18 Q1024=
200910310030 METAR LPPR 310030Z 12004KT 7000 SCT060 SCT250 19/18 Q1024=
200910310000 METAR LPPR 310000Z 12005KT 7000 SCT060 SCT250 19/18 Q1023=
200910302330 METAR LPPR 302330Z 12004KT 6000 SCT060 SCT250 19/18 Q1024=
200910302300 METAR LPPR 302300Z 12003KT 7000 SCT060 SCT250 19/18 Q1024=
200910302230 METAR LPPR 302230Z 12005KT 6000 SCT060 SCT250 19/18 Q1024=
200910302200 METAR LPPR 302200Z 12005KT 6000 SCT060 SCT250 19/18 Q1024=
200910302130 METAR LPPR 302130Z 15005KT 6000 SCT060 SCT250 19/18 Q1024=
200910302100 METAR LPPR 302100Z 16005KT 6000 SCT070 SCT250 19/18 Q1024=
200910302030 METAR LPPR 302030Z 17005KT 7000 SCT080 SCT250 19/18 Q1024=
200910302000 METAR LPPR 302000Z 17005KT 8000 SCT080 SCT250 19/18 Q1023=
200910301930 METAR LPPR 301930Z 16004KT 8000 SCT080 BKN250 19/18 Q1023=
200910301900 METAR LPPR 301900Z 16006KT 8000 SCT080 BKN250 19/18 Q1023=
200910301830 METAR LPPR 301830Z 16005KT 8000 BKN250 19/18 Q1023=
200910301800 METAR LPPR 301800Z 18005KT 9000 BKN250 20/18 Q1022=
200910301730 METAR LPPR 301730Z 20007KT 180V240 9999 FEW015 BKN250 20/18
                        Q1022=
200910301700 METAR LPPR 301700Z 19008KT 9999 FEW015 BKN250 21/18 Q1022=
200910301630 METAR LPPR 301630Z 19010KT 9999 FEW015 BKN250 21/18 Q1021=
200910301600 METAR LPPR 301600Z 18010KT 9999 FEW015 BKN250 22/18 Q1021=
200910301530 METAR LPPR 301530Z 19010KT 9999 FEW015 BKN250 22/18 Q1022=
200910301500 METAR LPPR 301500Z 19010KT 9999 SCT015 BKN250 22/18 Q1022=
200910301430 METAR LPPR 301430Z 20010KT 160V220 9999 SCT015 BKN080 21/18
                        Q1022=
200910301400 METAR LPPR 301400Z 19010KT 9999 SCT015 BKN025 21/18 Q1022=
200910301330 METAR LPPR 301330Z 19010KT 160V220 9999 SCT015 BKN025 21/18
                        Q1022=
200910301300 METAR LPPR 301300Z 18012KT 9999 SCT013 BKN025 21/18 Q1022=
200910301230 METAR LPPR 301230Z 19012KT 9999 SCT013 BKN025 21/18 Q1022=
200910301200 METAR LPPR 301200Z 19014KT 9999 SCT013 BKN025 21/18 Q1022=
200910301130 METAR LPPR 301130Z 18013KT 9999 FEW009 SCT013 BKN090 21/18
                        Q1022=
200910301100 METAR LPPR 301100Z 18010KT 9999 FEW009 SCT013 BKN030 21/18
                        Q1022=
200910301030 METAR LPPR 301030Z 17009KT 8000 FEW009 BKN013 21/18 Q1022=
200910301000 METAR LPPR 301000Z 14005KT 110V180 8000 SCT009 SCT013 BKN090
                        20/18 Q1022=
200910300930 METAR LPPR 300930Z 13006KT 7000 SCT009 BKN013 19/17 Q1022=
200910300900 METAR LPPR 300900Z 13006KT 7000 SCT009 BKN013 19/17 Q1021=
200910300830 METAR LPPR 300830Z 13004KT 100V160 7000 SCT009 BKN015 18/17
                        Q1021=
200910300800 METAR LPPR 300800Z 12005KT 7000 SCT009 BKN015 18/17 Q1021=
200910300730 METAR LPPR 300730Z 13005KT 7000 SCT009 BKN013 18/16 Q1020=
200910300700 METAR LPPR 300700Z 12005KT 7000 BKN009 BKN012 18/17 Q1020=
200910300630 METAR LPPR 300630Z 12006KT 7000 BKN008 BKN012 18/17 Q1019=
200910300600 METAR LPPR 300600Z 11007KT 7000 BKN008 BKN012 18/17 Q1019=
200910300530 METAR LPPR 300530Z 11008KT 7000 BKN008 BKN012 18/17 Q1019=
200910300500 METAR LPPR 300500Z 12007KT 7000 BKN008 BKN012 18/17 Q1019=
200910300430 METAR LPPR 300430Z 12007KT 7000 SCT009 BKN017 18/17 Q1019=
200910300400 METAR LPPR 300400Z 12007KT 7000 SCT009 BKN015 18/17 Q1019=
200910300330 METAR LPPR 300330Z 11007KT 7000 SCT009 BKN015 17/17 Q1019=
200910300300 METAR LPPR 300300Z 11007KT 8000 SCT250 17/16 Q1019=
200910300230 METAR LPPR 300230Z 11007KT 8000 SCT250 18/17 Q1019=
200910300200 METAR LPPR 300200Z 11008KT 8000 SCT250 18/17 Q1019=
200910300130 METAR LPPR 300130Z 11007KT CAVOK 18/17 Q1019=
200910300100 METAR LPPR 300100Z 11007KT CAVOK 18/17 Q1019=
200910300030 METAR LPPR 300030Z 11008KT CAVOK 18/17 Q1019=
200910300000 METAR LPPR 300000Z 11007KT CAVOK 18/17 Q1019=
200910292330 METAR LPPR 292330Z 11006KT CAVOK 18/17 Q1019=
200910292300 METAR LPPR 292300Z 11005KT CAVOK 18/17 Q1020=
200910292230 METAR LPPR 292230Z 11006KT 8000 FEW250 18/17 Q1020=
200910292200 METAR LPPR 292200Z 11005KT 8000 FEW250 18/17 Q1020=
200910292130 METAR LPPR 292130Z 10006KT 8000 FEW250 18/17 Q1020=
200910292100 METAR LPPR 292100Z 12006KT 8000 FEW250 19/17 Q1020=
200910292030 METAR LPPR 292030Z 11004KT 8000 FEW250 18/17 Q1020=
200910292000 METAR LPPR 292000Z VRB03KT 8000 FEW080 18/17 Q1019=
200910291930 METAR LPPR 291930Z 18004KT 8000 FEW080 18/17 Q1019=
200910291900 METAR LPPR 291900Z VRB03KT 8000 SCT080 19/17 Q1019=
200910291830 METAR LPPR 291830Z 16005KT 8000 SCT080 19/17 Q1019=
200910291800 METAR LPPR 291800Z VRB02KT 8000 FEW080 SCT250 19/17 Q1019=
200910291730 METAR LPPR 291730Z 23003KT CAVOK 20/17 Q1019=
200910291700 METAR LPPR 291700Z 21004KT 160V230 CAVOK 21/17 Q1019=
200910291630 METAR LPPR 291630Z 21005KT 160V250 CAVOK 21/17 Q1019=
200910291600 METAR LPPR 291600Z 23006KT 200V260 CAVOK 22/17 Q1019=
200910291530 METAR LPPR 291530Z 22006KT CAVOK 22/17 Q1019=
200910291500 METAR LPPR 291500Z 21006KT CAVOK 22/17 Q1019=
200910291430 METAR LPPR 291430Z 22008KT CAVOK 22/17 Q1018=
200910291400 METAR LPPR 291400Z 22007KT 190V260 CAVOK 23/18 Q1018=
200910291330 METAR LPPR 291330Z 22007KT 9999 FEW017 BKN250 22/18 Q1018=
200910291300 METAR LPPR 291300Z 21009KT 180V250 9999 FEW017 BKN250 23/17
                        Q1018=
200910291230 METAR LPPR 291230Z 21007KT 180V240 9999 FEW017 BKN250 23/17
                        Q1018=
200910291200 METAR LPPR 291200Z 19008KT 150V230 9999 FEW015 BKN250 23/17
                        Q1019=
200910291130 METAR COR LPPR 291130Z 18008KT 150V210 9999 FEW015 BKN250
                        23/17 Q1018=
200910291100 METAR LPPR 291100Z 16010KT 9999 SCT015 SCT250 23/17 Q1019=
200910291030 METAR LPPR 291030Z 15010KT 9999 FEW013 SCT250 22/17 Q1018=
200910291000 METAR LPPR 291000Z 14007KT 9999 FEW013 SCT250 21/18 Q1019=
200910290930 METAR LPPR 290930Z 13006KT 100V170 9999 SCT013 SCT017 20/17
                        Q1019=
200910290900 METAR LPPR 290900Z 12007KT 9999 FEW013 SCT017 19/17 Q1019=
200910290830 METAR LPPR 290830Z 12006KT 9999 SCT013 SCT020 18/17 Q1019=
200910290800 METAR LPPR 290800Z 11007KT 9000 FEW015 SCT250 18/17 Q1019=
200910290730 METAR LPPR 290730Z 11006KT 8000 SCT025 17/17 Q1018=
200910290700 METAR LPPR 290700Z 00000KT 8000 SCT020 SCT030 16/16 Q1018=
200910290630 METAR LPPR 290630Z 00000KT 8000 SKC 16/16 Q1018=
200910290600 METAR LPPR 290600Z 00000KT 8000 SKC 17/16 Q1018=
200910290530 METAR LPPR 290530Z 11003KT 8000 SKC 18/17 Q1017=
200910290500 METAR LPPR 290500Z 12003KT 7000 FEW008 18/18 Q1017=
200910290430 METAR LPPR 290430Z 13004KT 6000 FEW008 19/18 Q1017=
200910290400 METAR LPPR 290400Z 12007KT 7000 FEW008 19/18 Q1016=
200910290330 METAR LPPR 290330Z 12007KT 8000 SCT008 19/18 Q1016=
200910290300 METAR LPPR 290300Z 14006KT 110V170 8000 SCT008 19/18 Q1017=
200910290230 METAR LPPR 290230Z 16006KT 8000 SCT007 BKN009 20/19 Q1018=
200910290200 METAR LPPR 290200Z 18007KT 5000 BR SCT007 BKN009 20/18 Q1018=
200910290130 METAR LPPR 290130Z 18008KT 5000 BR SCT006 BKN008 20/18 Q1018=
200910290100 METAR LPPR 290100Z 18010KT 7000 SCT006 BKN015 20/19 Q1018=
200910290030 METAR LPPR 290030Z 18009KT 7000 SCT007 BKN015 20/19 Q1018=
200910290000 METAR LPPR 290000Z 18010KT 8000 SCT007 BKN015 20/18 Q1018=
200910282330 METAR LPPR 282330Z 18009KT 8000 SCT008 BKN020 20/18 Q1018=
200910282300 METAR LPPR 282300Z 17011KT 9999 SCT009 BKN025 20/18 Q1017=
200910282230 METAR LPPR 282230Z 18010KT 9999 FEW009 BKN020 20/18 Q1017=
200910282200 METAR LPPR 282200Z 17008KT 9999 FEW009 BKN012 19/17 Q1017=
200910282130 METAR LPPR 282130Z 16008KT CAVOK 20/17 Q1017=
200910282100 METAR LPPR 282100Z 15006KT CAVOK 20/17 Q1016=
200910282030 METAR LPPR 282030Z 14005KT CAVOK 19/16 Q1016=
200910282000 METAR LPPR 282000Z 15005KT CAVOK 20/16 Q1016=
200910281930 METAR LPPR 281930Z 16005KT CAVOK 20/16 Q1016=
200910281900 METAR LPPR 281900Z 15006KT CAVOK 20/16 Q1015=
200910281830 METAR LPPR 281830Z 15006KT CAVOK 20/16 Q1015=
200910281800 METAR LPPR 281800Z 16008KT CAVOK 20/16 Q1015=
200910281730 METAR LPPR 281730Z 16006KT CAVOK 21/16 Q1015=
200910281700 METAR LPPR 281700Z 17007KT CAVOK 21/17 Q1015=
200910281630 METAR LPPR 281630Z 21008KT CAVOK 22/17 Q1015=
200910281600 METAR LPPR 281600Z 22004KT 160V290 CAVOK 22/16 Q1015=
200910281530 METAR LPPR 281530Z 22011KT CAVOK 23/16 Q1014=
200910281500 METAR LPPR 281500Z 22011KT 180V240 CAVOK 26/16 Q1014=
200910281430 METAR LPPR 281430Z 22007KT 190V250 CAVOK 27/16 Q1014=
200910281400 METAR LPPR 281400Z 15007KT 110V180 CAVOK 28/14 Q1013=
200910281330 METAR LPPR 281330Z 12006KT 080V160 CAVOK 28/14 Q1014=
200910281300 METAR LPPR 281300Z 13009KT CAVOK 27/14 Q1014=
200910281230 METAR LPPR 281230Z 11009KT 070V140 CAVOK 26/15 Q1014=
200910281200 METAR LPPR 281200Z 12011KT 080V150 CAVOK 26/15 Q1015=
200910281130 METAR LPPR 281130Z 11008KT CAVOK 25/15 Q1015=
200910281100 METAR LPPR 281100Z 10011KT CAVOK 24/15 Q1015=
200910281030 METAR LPPR 281030Z 10012KT CAVOK 22/15 Q1015=
200910281000 METAR LPPR 281000Z 10010KT CAVOK 21/15 Q1016=
200910280930 METAR LPPR 280930Z 11009KT CAVOK 21/15 Q1015=
200910280900 METAR LPPR 280900Z 11009KT CAVOK 20/15 Q1015=
200910280830 METAR LPPR 280830Z 10010KT CAVOK 19/14 Q1015=
200910280800 METAR LPPR 280800Z 11010KT CAVOK 19/14 Q1015=
200910280730 METAR LPPR 280730Z 11010KT CAVOK 18/14 Q1015=
200910280700 METAR LPPR 280700Z 11008KT CAVOK 18/14 Q1015=
200910280630 METAR LPPR 280630Z 11008KT CAVOK 18/15 Q1015=
200910280600 METAR LPPR 280600Z 11008KT CAVOK 18/15 Q1015=
200910280530 METAR LPPR 280530Z 11009KT CAVOK 19/15 Q1015=
200910280500 METAR LPPR 280500Z 11009KT CAVOK 19/15 Q1015=
200910280430 METAR LPPR 280430Z 11009KT CAVOK 19/15 Q1015=
200910280400 METAR LPPR 280400Z 11009KT CAVOK 19/15 Q1015=
200910280330 METAR LPPR 280330Z 11009KT CAVOK 19/16 Q1015=
200910280300 METAR LPPR 280300Z 10008KT CAVOK 19/16 Q1015=
200910280230 METAR LPPR 280230Z 10009KT CAVOK 19/16 Q1015=
200910280200 METAR LPPR 280200Z 10009KT CAVOK 19/16 Q1015=
200910280130 METAR LPPR 280130Z 10008KT CAVOK 19/16 Q1015=
200910280100 METAR LPPR 280100Z 10007KT CAVOK 19/17 Q1015=
200910280030 METAR LPPR 280030Z 10007KT CAVOK 19/17 Q1016=
200910280000 METAR LPPR 280000Z 10006KT CAVOK 19/17 Q1015=
200910272330 METAR LPPR 272330Z 10006KT CAVOK 19/17 Q1016=
200910272300 METAR LPPR 272300Z 10006KT CAVOK 19/16 Q1016=
200910272230 METAR LPPR 272230Z 11004KT CAVOK 19/16 Q1016=
200910272200 METAR LPPR 272200Z 09003KT 8000 FEW250 17/16 Q1016=
200910272130 METAR LPPR 272130Z 00000KT 8000 FEW250 16/16 Q1016=
200910272100 METAR LPPR 272100Z VRB02KT 8000 SCT250 16/15 Q1016=
200910272030 METAR LPPR 272030Z 00000KT 8000 SCT250 17/16 Q1016=
200910272000 METAR LPPR 272000Z 00000KT 9000 BKN250 18/16 Q1016=
200910271930 METAR LPPR 271930Z 00000KT 9000 BKN250 18/16 Q1016=
200910271900 METAR LPPR 271900Z 00000KT 8000 SCT100 BKN200 19/17 Q1016=
200910271830 METAR LPPR 271830Z 00000KT 8000 SCT100 BKN200 19/17 Q1016=
200910271800 METAR LPPR 271800Z 00000KT 8000 SCT100 BKN200 21/16 Q1016=
200910271730 METAR LPPR 271730Z 15003KT 8000 SCT100 BKN200 21/16 Q1016=
200910271700 METAR LPPR 271700Z 18006KT 8000 FEW100 BKN200 22/16 Q1016=
200910271630 METAR LPPR 271630Z 19006KT 150V220 8000 FEW100 BKN200 24/16
                        Q1016=
200910271600 METAR LPPR 271600Z 18006KT 150V220 8000 FEW100 BKN200 24/17
                        Q1015=
200910271530 METAR LPPR 271530Z VRB02KT 8000 FEW100 BKN200 22/18 Q1015=
200910271500 METAR LPPR 271500Z 26004KT 220V300 5000 BR FEW100 BKN200
                        22/18 Q1016=
200910271430 METAR LPPR 271430Z 18005KT 150V210 8000 SCT100 BKN200 22/17
                        Q1016=
200910271400 METAR LPPR 271400Z 14004KT 110V170 8000 SCT100 BKN200 21/17
                        Q1015=
200910271330 METAR LPPR 271330Z 00000KT 5000 BR VCFG FEW003 SCT100 BKN200
                        20/18 Q1016=
200910271300 METAR LPPR 271300Z 27004KT 230V320 3000 BR VCFG FEW003 SCT100
                        BKN200 19/18 Q1016=
200910271230 METAR LPPR 271230Z 26004KT 190V320 2500 BR VCFG FEW001 SCT003
                        BKN200 19/18 Q1016=
200910271200 METAR LPPR 271200Z 27004KT 230V310 2000 BR VCFG SCT003 BKN200
                        19/18 Q1017=
200910271130 METAR LPPR 271130Z VRB03KT 2000 BR VCFG SCT003 SCT100 19/18
                        Q1017=
200910271100 METAR LPPR 271100Z 27007KT 0800 R17/1400VP1500 R35/P1500
                        BCFG SCT000 BKN002 19/18 Q1017=
200910271030 METAR LPPR 271030Z 00000KT 5000 BR FEW004 BKN200 20/18 Q1016=
200910271000 METAR LPPR 271000Z VRB03KT CAVOK 19/17 Q1016=
200910270930 METAR LPPR 270930Z 14004KT 100V170 CAVOK 18/17 Q1016=
200910270900 METAR LPPR 270900Z 12006KT 8000 BKN200 17/17 Q1015=
200910270830 METAR LPPR 270830Z VRB02KT 4000 BR FEW001 BKN200 17/17 Q1016=
200910270800 METAR LPPR 270800Z 00000KT 0400 R17/0450N R35/0300N FG SCT000
                        BKN001 16/16 Q1015=
200910270730 METAR LPPR 270730Z 00000KT 0600 R17/0800V1000N R35/0750N
                        FG SCT000 BKN001 15/15 Q1015=
200910270700 METAR LPPR 270700Z 19004KT 160V270 3000 BR FEW002 SCT200
                        16/16 Q1014=
200910270630 METAR LPPR 270630Z 00000KT 3000 BR FEW001 SCT250 15/15 Q1014=
200910270600 METAR LPPR 270600Z 00000KT 0700 R17/0300V0400N R35/0600N
                        BCFG SCT001 15/15 Q1014=
200910270530 METAR LPPR 270530Z 00000KT CAVOK 16/15 Q1014=
200910270500 METAR LPPR 270500Z 22003KT CAVOK 17/16 Q1014=
200910270430 METAR LPPR 270430Z 11005KT CAVOK 18/16 Q1013=
200910270400 METAR LPPR 270400Z 10004KT CAVOK 18/16 Q1013=
200910270330 METAR LPPR 270330Z 11005KT CAVOK 18/16 Q1013=
200910270300 METAR LPPR 270300Z 11006KT CAVOK 18/16 Q1014=
200910270230 METAR LPPR 270230Z VRB02KT CAVOK 16/16 Q1014=
200910270200 METAR LPPR 270200Z 00000KT CAVOK 16/16 Q1014=
200910270130 METAR LPPR 270130Z 11003KT CAVOK 17/16 Q1014=
200910270100 METAR LPPR 270100Z 00000KT CAVOK 16/16 Q1015=
200910270030 METAR LPPR 270030Z 14002KT CAVOK 17/16 Q1015=
200910270000 METAR LPPR 270000Z 00000KT CAVOK 17/16 Q1015=
200910262330 METAR LPPR 262330Z 00000KT CAVOK 18/16 Q1015=
200910262300 METAR LPPR 262300Z 13004KT CAVOK 19/17 Q1015=
200910262230 METAR LPPR 262230Z 11005KT CAVOK 19/18 Q1015=
200910262200 METAR LPPR 262200Z 00000KT CAVOK 17/17 Q1015=
200910262130 METAR LPPR 262130Z 00000KT CAVOK 17/17 Q1015=
200910262100 METAR LPPR 262100Z 00000KT CAVOK 17/17 Q1015=
200910262030 METAR LPPR 262030Z 00000KT CAVOK 18/18 Q1016=
200910262000 METAR LPPR 262000Z 00000KT CAVOK 18/17 Q1016=
200910261930 METAR LPPR 261930Z 00000KT CAVOK 18/17 Q1016=
200910261900 METAR LPPR 261900Z 35002KT CAVOK 18/17 Q1016=
200910261830 METAR LPPR 261830Z 02003KT CAVOK 19/18 Q1015=
200910261800 METAR LPPR 261800Z VRB02KT CAVOK 19/17 Q1015=
200910261730 METAR LPPR 261730Z 34003KT CAVOK 20/17 Q1015=
200910261700 METAR LPPR 261700Z VRB02KT CAVOK 21/18 Q1015=
200910261630 METAR LPPR 261630Z 27004KT 210V310 CAVOK 22/18 Q1015=
200910261600 METAR LPPR 261600Z 26005KT 160V310 CAVOK 23/19 Q1015=
200910261530 METAR LPPR 261530Z VRB02KT CAVOK 24/19 Q1015=
200910261500 METAR LPPR 261500Z VRB03KT CAVOK 24/19 Q1015=
200910261430 METAR LPPR 261430Z 26005KT 210V010 CAVOK 25/19 Q1015=
200910261400 METAR LPPR 261400Z 12004KT 090V160 CAVOK 25/17 Q1015=
200910261330 METAR LPPR 261330Z 13006KT 100V170 CAVOK 25/17 Q1015=
200910261300 METAR LPPR 261300Z 12008KT 090V150 CAVOK 25/17 Q1016=
200910261230 METAR LPPR 261230Z 12008KT CAVOK 24/16 Q1016=
200910261200 METAR LPPR 261200Z 12010KT CAVOK 24/16 Q1016=
200910261130 METAR LPPR 261130Z 11007KT 080V140 CAVOK 23/17 Q1017=
200910261100 METAR LPPR 261100Z 12010KT CAVOK 23/17 Q1017=
200910261030 METAR LPPR 261030Z 11008KT 070V140 CAVOK 23/17 Q1017=
200910261000 METAR LPPR 261000Z 11009KT 080V140 CAVOK 22/17 Q1017=
200910260930 METAR LPPR 260930Z 11008KT 070V140 CAVOK 21/17 Q1017=
200910260900 METAR LPPR 260900Z 10006KT CAVOK 20/18 Q1017=
200910260830 METAR LPPR 260830Z 10006KT 9999 FEW030 SCT090 18/18 Q1017=
200910260800 METAR LPPR 260800Z 10006KT 9999 FEW030 SCT090 17/17 Q1017=
200910260730 METAR LPPR 260730Z 09004KT 050V120 9999 FEW025 SCT090 17/17
                        Q1017=
200910260700 METAR LPPR 260700Z 00000KT 9999 FEW025 SCT090 16/16 Q1016=
200910260630 METAR LPPR 260630Z 02002KT 8000 FEW020 SCT090 16/16 Q1017=
200910260600 METAR LPPR 260600Z 00000KT 7000 SCT020 SCT080 16/16 Q1017=
200910260530 METAR LPPR 260530Z 00000KT 7000 SCT020 SCT080 16/16 Q1017=
200910260500 METAR LPPR 260500Z 02002KT 6000 FEW008 BKN020 16/16 Q1017=
200910260430 METAR LPPR 260430Z 04004KT 3000 BR SCT003 SCT007 17/17 Q1017=
200910260400 METAR LPPR 260400Z 04005KT 010V070 0800 R17/P1500 R35/P1500
                        FG BKN001 BKN003 17/17 Q1017=
200910260330 METAR LPPR 260330Z 04005KT 0800 R17/P1500 R35/P1500 FG BKN001
                        BKN003 17/17 Q1017=
200910260300 METAR LPPR 260300Z VRB03KT 0800 R17/P1500 R35/P1500 FG BKN001
                        BKN003 17/17 Q1017=
200910260230 METAR LPPR 260230Z VRB03KT 0800 R17/P1500 R35/P1500 FG BKN001
                        BKN003 17/17 Q1018=
200910260200 METAR LPPR 260200Z VRB03KT 0800 R17/P1500 R35/P1500 FG BKN001
                        BKN003 18/18 Q1018=
200910260130 METAR LPPR 260130Z 03004KT 340V080 3000 BR VCFG SCT001 BKN003
                        18/18 Q1018=
200910260100 METAR LPPR 260100Z 01004KT 340V040 3000 BR VCFG SCT001 BKN004
                        18/18 Q1018=
200910260030 METAR LPPR 260030Z 01004KT 2000 BR VCFG SCT001 BKN004 18/18
                        Q1018=
200910260000 METAR LPPR 260000Z 00000KT 1200 R17/1000U R35/1300VP1500
                        BR VCFG SCT002 BKN005 17/17 Q1019=
200910252330 METAR LPPR 252330Z 00000KT 1200 R17/1200VP1500 R35/1000N
                        BR VCFG BKN002 BKN005 17/17 Q1019=
200910252300 METAR LPPR 252300Z 00000KT 0800 R17/0750N R35/0550V0800N
                        FG SCT001 BKN005 17/17 Q1019=
200910252230 METAR LPPR 252230Z 00000KT 3000 BR SCT002 SCT005 BKN025 18/18
                        Q1019=
200910252200 METAR LPPR 252200Z 00000KT 6000 SCT002 SCT007 BKN025 18/18
                        Q1019=
200910252130 METAR LPPR 252130Z 00000KT 7000 SCT004 SCT007 BKN025 18/18
                        Q1019=
200910252100 METAR LPPR 252100Z 02004KT 350V060 7000 SCT001 SCT003 BKN025
                        18/18 Q1019=
200910252030 METAR LPPR 252030Z VRB03KT 7000 SCT003 SCT005 BKN025 18/18
                        Q1019=
200910252000 METAR LPPR 252000Z 02004KT 5000 BR SCT003 SCT005 BKN025 18/18
                        Q1019=
200910251930 METAR LPPR 251930Z 01003KT 4000 BR SCT008 SCT012 BKN025 18/18
                        Q1019=
200910251900 METAR LPPR 251900Z 01003KT 5000 BR SCT008 SCT012 BKN027 18/18
                        Q1019=
200910251830 METAR LPPR 251830Z VRB03KT 5000 BR SCT008 SCT012 BKN027 18/18
                        Q1019=
200910251800 METAR LPPR 251800Z 00000KT 8000 SCT005 SCT008 BKN017 19/19
                        Q1019=
200910251730 METAR LPPR 251730Z 00000KT 5000 BR SCT002 BKN007 BKN009 19/19
                        Q1019=
200910251700 METAR LPPR 251700Z 00000KT 5000 BR SCT003 BKN007 BKN009 19/19
                        Q1019=
200910251630 METAR LPPR 251630Z 00000KT 3000 VCFG BR SCT003 SCT005 BKN007
                        19/19 Q1019=
200910251600 METAR LPPR 251600Z VRB03KT 0900 R17/P1500 R35/P1500 BCFG
                        SCT001 BKN003 19/19 Q1019=
200910251530 METAR LPPR 251530Z VRB02KT 0800 R17/P1500 R35/P1500 BCFG
                        SCT001 BKN003 19/19 Q1019=
200910251500 METAR LPPR 251500Z VRB03KT 0800 R17/P1500 R35/P1500 -RADZ
                        FG SCT001 BKN003 19/19 Q1019=
200910251430 METAR LPPR 251430Z 22003KT 0800 R17/P1500 R35/P1500 -RADZ
                        FG SCT001 BKN003 19/19 Q1019=
200910251400 METAR LPPR 251400Z VRB03KT 0800 R17/P1500 R35/1300VP1500
                        FG VV001 19/19 Q1019=
200910251330 METAR LPPR 251330Z 26004KT 210V320 0500 R17/1100VP1500 R35/1000VP1500
                        FG VV001 19/19 Q1020=
200910251300 METAR LPPR 251300Z VRB03KT 1200 R17/P1500 R35/1400VP1500
                        BR BKN001 BKN002 19/19 Q1020=
200910251230 METAR LPPR 251230Z 22005KT 180V250 0500 R17/P1500 R35/1000V1400U
                        FG VV001 19/19 Q1020=
200910251200 METAR LPPR 251200Z 21006KT 180V250 0500 R17/P1500 R35/1200U
                        FG VV001 19/19 Q1020=
200910251130 METAR LPPR 251130Z 20007KT 0800 R17/P1500 R35/P1500 FG BKN000
                        BKN001 19/19 Q1020=
200910251100 METAR LPPR 251100Z 20006KT 180V250 0800 R17/P1500 R35/P1500
                        FG BKN000 BKN001 19/19 Q1020=
200910251030 METAR LPPR 251030Z 20006KT 160V270 0800 R17/P1500 R35/P1500
                        FG BKN000 BKN001 19/19 Q1020=
200910251000 METAR LPPR 251000Z 19009KT 0800 R17/0800N R35/1400VP1500
                        FG SCT000 BKN001 19/19 Q1020=
200910250930 METAR LPPR 250930Z 19008KT 0800 R17/1000VP1500 R35/0800VP1500
                        FG BKN000 BKN001 19/19 Q1020=
200910250900 METAR LPPR 250900Z 19009KT 0800 R17/1100VP1500 R35/0800VP1500
                        FG BKN000 BKN001 19/19 Q1020=
200910250830 METAR LPPR 250830Z 19010KT 1500 BR VCFG BKN000 BKN001 19/19
                        Q1020=
200910250800 METAR COR LPPR 250800Z 19009KT 1500 -DZ BR BKN001 BKN002
                        19/19 Q1020=
200910250730 METAR LPPR 250730Z 20008KT 170V230 2000 -DZ BR BKN001 BKN003
                        19/19 Q1019=
200910250700 METAR LPPR 250700Z 20007KT 170V230 4000 -DZ BR SCT001 BKN004
                        19/19 Q1019=
200910250630 METAR LPPR 250630Z 20007KT 180V240 2000 -RADZ BR BKN001 BKN004
                        19/19 Q1019=
200910250600 METAR LPPR 250600Z 18010KT 2000 -RADZ BR BKN001 BKN003 19/19
                        Q1019=
200910250530 METAR LPPR 250530Z 18011KT 2000 -DZ BR SCT001 BKN003 19/19
                        Q1019=
200910250500 METAR LPPR 250500Z 18010KT 3000 -DZ BR SCT001 BKN003 19/19
                        Q1019=
200910250430 METAR LPPR 250430Z 18010KT 2000 -DZ BR SCT001 BKN003 19/19
                        Q1019=
200910250400 METAR LPPR 250400Z 18010KT 2000 -DZ BR BKN001 BKN003 19/19
                        Q1020=
200910250330 METAR LPPR 250330Z 18010KT 2000 -DZ BR BKN001 BKN003 19/19
                        Q1020=
200910250300 METAR LPPR 250300Z 18010KT 2000 -DZ BR BKN001 BKN003 19/19
                        Q1020=
200910250230 METAR LPPR 250230Z 17009KT 2000 -DZ BR BKN001 BKN003 19/19
                        Q1020=
200910250200 METAR LPPR 250200Z 17008KT 2000 -DZ BR BKN001 BKN004 19/19
                        Q1020=
200910250130 METAR LPPR 250130Z 17008KT 2000 -DZ BR BKN001 BKN004 19/19
                        Q1020=
200910250100 METAR LPPR 250100Z 17009KT 2000 -DZ BR BKN002 BKN004 19/19
                        Q1020=
200910250030 METAR LPPR 250030Z 18008KT 2000 -DZ BR BKN001 BKN003 19/19
                        Q1021=
200910250000 METAR LPPR 250000Z 18009KT 2000 -DZ BR BKN001 BKN003 19/19
                        Q1021=
200910242330 METAR LPPR 242330Z 18006KT 2000 -DZ BR BKN001 BKN003 19/19
                        Q1021=
200910242300 METAR LPPR 242300Z 18008KT 2000 -DZ BR BKN001 BKN003 19/19
                        Q1021=
200910242230 METAR LPPR 242230Z 18010KT 3000 -DZ BR BKN001 BKN003 19/19
                        Q1021=
200910242200 METAR LPPR 242200Z 18009KT 3000 -DZ BR BKN001 BKN003 19/19
                        Q1021=
200910242130 METAR LPPR 242130Z 19008KT 3000 -DZ BR BKN001 BKN003 19/19
                        Q1021=
200910242100 METAR LPPR 242100Z 20006KT 3000 -DZ BR BKN001 BKN003 19/19
                        Q1021=
200910242030 METAR LPPR 242030Z 20007KT 160V220 2000 -DZ BR BKN001 BKN003
                        19/19 Q1021=
200910242000 METAR LPPR 242000Z 19007KT 3000 -DZ BR BKN001 BKN003 19/19
                        Q1021=
200910241930 METAR LPPR 241930Z 19010KT 3000 -RADZ BR BKN001 BKN003 19/19
                        Q1021=
200910241900 METAR LPPR 241900Z 20010KT 3000 -RADZ BR SCT002 BKN004 19/19
                        Q1022=
200910241830 METAR LPPR 241830Z 18012KT 5000 -RA BR SCT004 BKN015 19/19
                        Q1021=
200910241800 METAR LPPR 241800Z 19010KT 6000 -RA SCT007 BKN018 20/19 Q1021=
200910241730 METAR LPPR 241730Z 19010KT 6000 -RA SCT007 BKN020 20/19 Q1021=
200910241700 METAR LPPR 241700Z 19012KT 7000 -RA SCT008 SCT012 BKN025
                        20/19 Q1021=
200910241630 METAR LPPR 241630Z 19011KT 9999 FEW009 SCT012 BKN025 20/19
                        Q1021=
200910241600 METAR LPPR 241600Z 19013KT 9999 FEW009 SCT012 BKN025 20/19
                        Q1021=
200910241530 METAR LPPR 241530Z 19010KT 9999 FEW009 SCT012 BKN025 20/19
                        Q1021=
200910241500 METAR LPPR 241500Z 19011KT 9999 FEW009 SCT012 BKN025 20/19
                        Q1021=
200910241430 METAR LPPR 241430Z 19012KT 9999 FEW009 SCT012 BKN020 20/19
                        Q1021=
200910241400 METAR LPPR 241400Z 19012KT 9999 SCT012 BKN017 20/19 Q1021=
200910241330 METAR LPPR 241330Z 18014KT 9999 SCT008 BKN015 20/19 Q1021=
200910241300 METAR LPPR 241300Z 19013KT 9999 SCT008 BKN012 21/18 Q1022=
200910241230 METAR LPPR 241230Z 19013KT 9999 FEW009 BKN012 21/19 Q1022=
200910241200 METAR LPPR 241200Z 18014KT 9999 SCT009 BKN012 20/19 Q1022=
200910241130 METAR LPPR 241130Z 18014KT 9999 SCT009 BKN012 20/19 Q1022=
200910241100 METAR LPPR 241100Z 18013KT 9999 SCT012 BKN020 20/18 Q1022=
200910241030 METAR LPPR 241030Z 18014KT 9999 -RA SCT012 BKN017 20/18 Q1022=
200910241000 METAR LPPR 241000Z 18014KT 9999 SCT015 BKN020 20/18 Q1022=
200910240930 METAR LPPR 240930Z 18013KT 9999 SCT015 BKN025 20/18 Q1022=
200910240900 METAR LPPR 240900Z 17013KT 9999 FEW015 BKN030 19/19 Q1022=
200910240830 METAR LPPR 240830Z 17010KT 9999 SCT015 BKN025 19/18 Q1022=
200910240800 METAR LPPR 240800Z 17012KT 9999 SCT014 BKN025 19/18 Q1022=
200910240730 METAR LPPR 240730Z 17011KT 9999 SCT012 BKN020 18/18 Q1021=
200910240700 METAR LPPR 240700Z 18011KT 9999 SCT012 BKN020 19/18 Q1021=
200910240630 METAR LPPR 240630Z 18012KT 9999 -RA SCT016 BKN025 19/18 Q1021=
200910240600 METAR LPPR 240600Z 18013KT 9999 SCT016 BKN025 19/18 Q1021=
200910240530 METAR LPPR 240530Z 18012KT 9999 FEW006 SCT016 BKN040 18/18
                        Q1021=
200910240500 METAR LPPR 240500Z 18012KT 9999 FEW006 SCT012 BKN040 18/18
                        Q1021=
200910240430 METAR LPPR 240430Z 18012KT 9999 SCT006 SCT012 BKN040 18/18
                        Q1021=
200910240400 METAR LPPR 240400Z 18012KT 9999 SCT004 BKN012 BKN040 18/18
                        Q1021=
200910240330 METAR LPPR 240330Z 18013KT 7000 SCT003 BKN007 18/18 Q1020=
200910240300 METAR LPPR 240300Z 18012KT 4000 BR SCT001 BKN004 18/18 Q1020=
200910240230 METAR LPPR 240230Z 19010KT 3000 -RADZ BR SCT001 BKN003 18/18
                        Q1021=
200910240200 METAR LPPR 240200Z 20011KT 3000 -RADZ BR SCT001 BKN003 18/18
                        Q1020=
200910240130 METAR LPPR 240130Z 18012KT 3000 -RADZ BR SCT001 BKN003 18/18
                        Q1021=
200910240100 METAR LPPR 240100Z 18011KT 4000 -RADZ BR SCT001 BKN003 18/18
                        Q1021=
200910240030 METAR LPPR 240030Z 19011KT 5000 BR SCT001 BKN003 19/19 Q1021=
200910240000 METAR LPPR 240000Z 18010KT 5000 BR SCT001 BKN003 19/19 Q1021=
200910232330 METAR LPPR 232330Z 18012KT 5000 BR SCT001 BKN003 19/19 Q1021=
200910232300 METAR LPPR 232300Z 18012KT 4000 -RADZ BR SCT001 BKN004 19/19
                        Q1021=
200910232230 METAR LPPR 232230Z 18011KT 6000 SCT001 BKN004 19/19 Q1021=
200910232200 METAR LPPR 232200Z 18010KT 5000 -RADZ BR SCT001 BKN004 19/19
                        Q1021=
200910232130 METAR LPPR 232130Z 19011KT 9999 SCT002 BKN004 19/19 Q1021=
200910232100 METAR LPPR 232100Z 18013KT 9999 SCT002 BKN004 19/19 Q1021=
200910232030 METAR LPPR 232030Z 18012KT 8000 -RA SCT002 BKN005 19/19 Q1021=
200910232000 METAR LPPR 232000Z 18011KT 9999 SCT003 BKN006 19/18 Q1021=
200910231930 METAR LPPR 231930Z 18013KT 9999 SCT002 BKN005 19/18 Q1021=
200910231900 METAR LPPR 231900Z 18011KT 9999 SCT002 BKN007 19/18 Q1021=
200910231830 METAR LPPR 231830Z 19014KT 8000 FEW001 SCT003 BKN005 19/18
                        Q1021=
200910231800 METAR LPPR 231800Z 19012KT 8000 SCT002 BKN006 19/18 Q1020=
200910231730 METAR LPPR 231730Z 19013KT 9999 SCT003 BKN007 19/18 Q1020=
200910231700 METAR LPPR 231700Z 18013KT 9999 SCT003 BKN006 19/18 Q1020=
200910231630 METAR LPPR 231630Z 18013KT 9999 SCT003 BKN006 19/18 Q1020=
200910231600 METAR LPPR 231600Z 18014KT 9999 SCT003 BKN006 19/18 Q1020=
200910231530 METAR LPPR 231530Z 18014KT 9000 SCT002 BKN005 18/18 Q1020=
200910231500 METAR LPPR 231500Z 18016KT 8000 SCT002 BKN005 18/18 Q1020=
200910231430 METAR LPPR 231430Z 18017KT 8000 FEW002 SCT004 BKN006 18/18
                        Q1020=
200910231400 METAR LPPR 231400Z 18014KT 7000 FEW001 SCT003 BKN006 18/18
                        Q1020=
200910231330 METAR LPPR 231330Z 19015KT 7000 SCT003 BKN005 18/17 Q1020=
200910231300 METAR LPPR 231300Z 19014KT 3000 -DZ BR SCT004 BKN008 18/17
                        Q1021=
200910231230 METAR LPPR 231230Z 19016G26KT 8000 SCT008 SCT015 BKN025 20/16
                        Q1021 WS ALL RWY=
200910231200 METAR LPPR 231200Z 18017KT 9999 SCT015 BKN025 20/16 Q1021=
200910231130 METAR LPPR 231130Z 18016KT 9999 BKN025 BKN080 20/15 Q1021=
200910231100 METAR LPPR 231100Z 18015KT 9999 BKN020 BKN080 20/15 Q1020=
200910231030 METAR LPPR 231030Z 17016KT 9999 BKN017 BKN080 19/15 Q1020=
200910231000 METAR LPPR 231000Z 18014KT 9999 SCT015 BKN035 19/15 Q1020=
200910230930 METAR LPPR 230930Z 17012KT 9999 SCT030 BKN070 19/14 Q1020=
200910230900 METAR LPPR 230900Z 16010KT 9999 BKN025 BKN070 18/14 Q1020=
200910230830 METAR LPPR 230830Z 14008KT 9999 FEW015 SCT025 BKN060 17/14
                        Q1020=
200910230800 METAR LPPR 230800Z 13007KT 9999 SCT015 BKN080 16/13 Q1019=
200910230730 METAR LPPR 230730Z 13007KT 9999 BKN020 16/13 Q1019=
200910230700 METAR LPPR 230700Z 13006KT 9999 FEW009 BKN020 16/13 Q1019=
200910230630 METAR LPPR 230630Z 13006KT 8000 BKN025 15/13 Q1019=
200910230600 METAR LPPR 230600Z 13006KT 8000 BKN025 15/13 Q1019=
200910230530 METAR LPPR 230530Z 12005KT 8000 BKN025 15/13 Q1018=
200910230500 METAR LPPR 230500Z 13005KT 8000 BKN035 15/13 Q1018=
200910230430 METAR LPPR 230430Z 13005KT 8000 BKN035 15/13 Q1018=
200910230400 METAR LPPR 230400Z 13004KT 8000 BKN035 15/13 Q1018=
200910230330 METAR LPPR 230330Z 13005KT 8000 BKN040 15/13 Q1018=
200910230300 METAR LPPR 230300Z 13006KT 100V160 8000 BKN040 15/13 Q1018=
200910230230 METAR LPPR 230230Z 12007KT 8000 BKN040 14/13 Q1018=
200910230200 METAR LPPR 230200Z 11008KT 8000 SCT040 14/13 Q1018=
200910230130 METAR LPPR 230130Z 12008KT 8000 FEW015 SCT040 14/13 Q1018=
200910230100 METAR LPPR 230100Z 13005KT 9999 FEW015 BKN040 15/13 Q1018=
200910230030 METAR LPPR 230030Z VRB02KT 9999 FEW015 BKN040 14/12 Q1018=
200910230000 METAR LPPR 230000Z 14004KT 9999 FEW015 14/12 Q1017=
200910222330 METAR LPPR 222330Z 18003KT CAVOK 14/12 Q1017=
200910222300 METAR LPPR 222300Z VRB03KT 9999 FEW015 15/12 Q1017=
200910222230 METAR LPPR 222230Z 20003KT 9999 FEW015 15/12 Q1017=
200910222200 METAR LPPR 222200Z VRB03KT 9999 FEW015 SCT040 15/12 Q1017=
200910222130 METAR LPPR 222130Z VRB03KT 9999 FEW015 15/12 Q1017=
200910222100 METAR LPPR 222100Z VRB03KT 9999 FEW015 SCT040 16/12 Q1016=
200910222030 METAR LPPR 222030Z 21002KT 9999 FEW015 SCT040 16/11 Q1016=
200910222000 METAR LPPR 222000Z VRB02KT 9999 FEW015 SCT040 16/12 Q1016=
200910221930 METAR LPPR 221930Z VRB02KT 9999 FEW015 BKN040 17/12 Q1016=
200910221900 METAR LPPR 221900Z 25004KT 220V300 9999 FEW015 BKN040 17/12
                        Q1015=
200910221830 METAR LPPR 221830Z VRB03KT 9999 FEW015 SCT025 17/12 Q1015=
200910221800 METAR LPPR 221800Z VRB02KT 9999 FEW015 SCT025 17/12 Q1014=
200910221730 METAR LPPR 221730Z VRB03KT 9999 SCT015 17/12 Q1014=
200910221700 METAR LPPR 221700Z 27006KT 250V330 9999 SCT015 18/12 Q1014=
200910221630 METAR LPPR 221630Z 28007KT 230V310 9999 SCT015 18/12 Q1013=
200910221600 METAR LPPR 221600Z 28008KT 230V310 9999 SCT015 19/12 Q1013=
200910221530 METAR LPPR 221530Z 28009KT 250V310 9999 SCT015 19/12 Q1012=
200910221500 METAR LPPR 221500Z 28009KT 250V350 9999 SCT015 19/12 Q1012=
200910221430 METAR LPPR 221430Z 27007KT 230V310 9999 SCT015 SCT250 19/12
                        Q1012=
200910221400 METAR LPPR 221400Z 28008KT 230V320 9999 SCT015 SCT250 19/12
                        Q1011=
200910221330 METAR LPPR 221330Z 28008KT 240V310 9999 SCT015 SCT250 19/13
                        Q1011=
200910221300 METAR LPPR 221300Z 28008KT 220V320 9999 SCT015 BKN250 19/13
                        Q1011=
200910221230 METAR LPPR 221230Z 31009KT 270V330 9999 SCT015 SCT250 19/12
                        Q1011=
200910221200 METAR LPPR 221200Z 31010KT 270V330 9999 SCT015 FEW025TCU
                        18/12 Q1010=
200910221130 METAR LPPR 221130Z 30009KT 260V330 9999 SCT015 FEW025TCU
                        SCT040 18/13 Q1010=
200910221100 METAR LPPR 221100Z 31005KT 270V020 9999 SCT015 FEW025TCU
                        SCT040 17/13 Q1010=
200910221030 METAR LPPR 221030Z 31010KT 270V350 7000 -SHRA FEW006 SCT015
                        FEW025TCU BKN030 17/13 Q1010=
200910221000 METAR LPPR 221000Z 31008KT 270V330 9999 SCT015 FEW025TCU
                        BKN040 17/12 Q1009=
200910220930 METAR LPPR 220930Z 30011KT 270V330 9999 BKN015 FEW020TCU
                        17/13 Q1009=
200910220900 METAR LPPR 220900Z 29007KT 250V360 9999 BKN015 FEW020TCU
                        17/12 Q1008=
200910220830 METAR LPPR 220830Z 30007KT 260V330 9999 SCT015 FEW020TCU
                        17/12 Q1007=
200910220800 METAR LPPR 220800Z 30007KT 270V340 9999 SCT015 FEW020TCU
                        16/12 Q1007=
200910220730 METAR LPPR 220730Z VRB03KT 9999 SCT015 FEW020TCU 15/12 Q1006=
200910220700 METAR LPPR 220700Z 31007KT 270V350 9999 SCT015 SCT040 15/12
                        Q1005=
200910220630 METAR LPPR 220630Z VRB03KT 9999 SCT015 SCT040 14/11 Q1004=
200910220600 METAR LPPR 220600Z 32008KT 290V350 9999 FEW015 SCT030 BKN050
                        14/11 Q1004=
200910220530 METAR LPPR 220530Z 33012KT 9999 FEW015 SCT030 BKN070 15/12
                        Q1004=
200910220500 METAR LPPR 220500Z 30007KT 270V340 9999 FEW015 BKN050 16/11
                        Q1003=
200910220430 METAR LPPR 220430Z 31010KT 290V350 9999 FEW015 SCT030 BKN060
                        15/11 Q1002=
200910220400 METAR LPPR 220400Z 30009KT 270V340 8000 -SHRA SCT015 BKN040
                        15/13 Q1001=
200910220330 METAR LPPR 220330Z 32013KT 9999 FEW015 BKN035 16/12 Q1001=
200910220300 METAR LPPR 220300Z 32016KT 9999 FEW015 FEW025TCU BKN035 16/12
                        Q1000=
200910220230 METAR LPPR 220230Z 32017KT 9999 SCT015 BKN045 16/12 Q1000=
200910220200 METAR LPPR 220200Z 32018KT 9999 SCT015 SCT020 16/14 Q0998=
200910220130 METAR LPPR 220130Z 32019KT 290V350 9999 SCT015 SCT040 16/14
                        Q0998 WS ALL RWY=
200910220100 METAR LPPR 220100Z 32020KT 8000 -SHRA FEW008 SCT015 BKN040
                        15/15 Q0997 RERA WS ALL RWY=
200910220030 METAR LPPR 220030Z 32023G35KT 3000 RA BR SCT002 SCT005 BKN007
                        15/15 Q0995 WS ALL RWY=
200910220000 METAR LPPR 220000Z 19018G28KT 3000 RA BR SCT002 SCT005 BKN007
                        16/16 Q0993 WS ALL RWY=
200910212330 METAR LPPR 212330Z 18023KT 3000 R17/P1500 R35/1100U RA BR
                        SCT002 SCT005 BKN016 16/16 Q0993
                        WS ALL RWY=
200910212300 METAR LPPR 212300Z 18019G30KT 5000 -RA BR SCT003 SCT005 BKN008
                        16/16 Q0994 RERA=
200910212230 METAR LPPR 212230Z 18017KT 3000 RA BR SCT003 SCT005 BKN008
                        16/16 Q0994=
200910212200 METAR LPPR 212200Z 17019KT 3000 RA BR SCT002 SCT006 BKN012
                        15/15 Q0995=
200910212130 METAR LPPR 212130Z 18015KT 4000 -RA BR SCT002 SCT005 BKN012
                        16/16 Q0996=
200910212100 METAR LPPR 212100Z 18015KT 5000 -RA BR FEW001 SCT007 BKN012
                        15/15 Q0997 RERA=
200910212030 METAR LPPR 212030Z 19013KT 5000 RA BR SCT003 SCT005 BKN012
                        15/15 Q0998=
200910212000 METAR LPPR 212000Z 19015KT 170V230 5000 RA BR SCT003 SCT008
                        BKN012 15/15 Q0998=
200910211930 METAR LPPR 211930Z 17012G24KT 5000 RA BR SCT003 SCT007 BKN012
                        15/15 Q0998=
200910211900 METAR LPPR 211900Z 17016KT 6000 -RA SCT004 BKN013 15/14 Q0999
                        WS ALL RWY=
200910211830 METAR LPPR 211830Z 18014KT 6000 SCT005 SCT011 BKN015 15/14
                        Q0999 WS ALL RWY=
200910211800 METAR LPPR 211800Z 19014KT 6000 -RA SCT007 SCT013 BKN015
                        16/14 Q1000 WS ALL RWY=
200910211730 METAR LPPR 211730Z 19015KT 8000 SCT007 SCT015 BKN020 16/15
                        Q1000 WS ALL RWY=
200910211700 METAR LPPR 211700Z 19013KT 8000 -RA SCT007 SCT015 BKN020
                        15/14 Q1000=
200910211630 METAR LPPR 211630Z 19016KT 8000 FEW006 SCT015 BKN020 15/14
                        Q1000 WS ALL RWY=
200910211600 METAR LPPR 211600Z 20016KT 8000 -RA FEW006 SCT015 BKN020
                        16/13 Q1000=
200910211530 METAR LPPR 211530Z 19015KT 9999 FEW006 SCT015 BKN035 16/14
                        Q1000 WS ALL RWY=
200910211500 METAR LPPR 211500Z 20014KT 9999 -RA FEW006 SCT015 BKN020
                        16/13 Q1000=
200910211430 METAR LPPR 211430Z 21014KT 9999 -SHRA FEW006 SCT015 BKN060
                        16/13 Q1000=
200910211400 METAR LPPR 211400Z 21016KT 9999 FEW006 SCT015 BKN060 17/12
                        Q1000=
200910211330 METAR LPPR 211330Z 22015KT 9999 SCT015 BKN060 16/13 Q1000=
200910211300 METAR LPPR 211300Z 21012KT 9999 SCT015 SCT025 BKN060 16/13
                        Q1001=
200910211230 METAR LPPR 211230Z 21015KT 9999 -SHRA SCT015 SCT025 BKN060
                        17/12 Q1001=
200910211200 METAR LPPR 211200Z 22010KT 190V250 9999 SCT013 SCT025 BKN060
                        17/12 Q1001=
200910211130 METAR LPPR 211130Z 16011KT 8000 SCT013 BKN025 15/14 Q1001=
200910211100 METAR COR LPPR 211100Z 17013KT 8000 -SHRA SCT013 SCT020 BKN060
                        15/13 Q1001=
200910211030 METAR LPPR 211030Z 17013KT 9999 FEW015 SCT030 BKN060 15/13
                        Q1002=
200910211000 METAR LPPR 211000Z 21010KT 9999 FEW015 SCT030 BKN060 16/12
                        Q1002=
200910210930 METAR LPPR 210930Z 22008KT 180V250 9999 FEW015 SCT030 BKN060
                        16/12 Q1002=
200910210900 METAR LPPR 210900Z 23006KT 180V270 9999 FEW015 SCT030 BKN060
                        16/12 Q1001=
200910210830 METAR LPPR 210830Z 23004KT 190V280 9999 FEW015 SCT030 BKN070
                        15/10 Q1001=
200910210800 METAR LPPR 210800Z 11005KT 090V150 9999 -SHRA FEW015 SCT025
                        BKN070 13/12 Q1001=
200910210730 METAR LPPR 210730Z 15005KT 9999 FEW015 SCT030 BKN070 13/11
                        Q1001=
200910210700 METAR LPPR 210700Z 14006KT 110V180 9999 FEW015 BKN025 13/12
                        Q1001=
200910210630 METAR LPPR 210630Z 14005KT 120V180 9999 FEW015 BKN030 13/12
                        Q1000=
200910210600 METAR LPPR 210600Z 15008KT 9999 FEW015 BKN035 13/12 Q1001=
200910210530 METAR LPPR 210530Z 19005KT 140V250 9999 FEW015 BKN030 13/12
                        Q1001=
200910210500 METAR LPPR 210500Z 18009KT 9999 FEW015 SCT030 13/11 Q1000=
200910210430 METAR LPPR 210430Z 00000KT 9999 FEW015 BKN025 13/12 Q1000=
200910210400 METAR LPPR 210400Z 17006KT 130V200 9999 FEW015 BKN030 13/12
                        Q1000=
200910210330 METAR LPPR 210330Z 17008KT 9999 SCT015 SCT020 12/12 Q1001=
200910210300 METAR LPPR 210300Z 13008KT 9999 SCT015 SCT020 12/12 Q1001=
200910210230 METAR LPPR 210230Z 14005KT 9999 SCT015 SCT020 12/12 Q1001=
200910210200 METAR LPPR 210200Z 13006KT 8000 SCT015 BKN020 12/12 Q1001=
200910210130 METAR LPPR 210130Z 14005KT 100V190 8000 SCT015 BKN020 12/12
                        Q1001=
200910210100 METAR LPPR 210100Z 11005KT 8000 SCT015 BKN020 FEW025CB 12/12
                        Q1001=
200910210030 METAR LPPR 210030Z 15005KT 8000 -SHRA SCT015 BKN020 FEW025CB
                        13/12 Q1001=
200910210000 METAR LPPR 210000Z 32005KT 280V010 8000 -SHRA SCT015 BKN020
                        FEW025CB 13/11 Q1001=
200910202330 METAR LPPR 202330Z 25002KT 8000 -SHRA SCT015 BKN020 13/11
                        Q1001=
200910202300 METAR LPPR 202300Z 25005KT 150V300 9000 -SHRA SCT015 BKN020
                        14/12 Q1001=
200910202230 METAR LPPR 202230Z 20003KT 9999 SCT015 SCT025 14/11 Q1001=
200910202200 METAR LPPR 202200Z 21006KT 9999 SCT015 SCT030 14/11 Q1001=
200910202130 METAR LPPR 202130Z 00000KT 9999 FEW015 SCT030 14/10 Q1001=
200910202100 METAR LPPR 202100Z VRB03KT 9999 FEW015 SCT040 14/10 Q1001=
200910202030 METAR LPPR 202030Z VRB03KT 9999 FEW015 FEW025CB SCT040 14/10
                        Q1001=
200910202000 METAR LPPR 202000Z VRB02KT 9999 FEW015 FEW025CB SCT040 15/10
                        Q1001=
200910201930 METAR LPPR 201930Z 28005KT 250V320 9999 SCT015 FEW020CB BKN040
                        15/10 Q1001=
200910201900 METAR LPPR 201900Z 28005KT 180V330 9999 -SHRA SCT015 FEW020CB
                        BKN040 16/11 Q1001=
200910201830 METAR LPPR 201830Z 29006KT 250V340 9999 SCT015 FEW020CB BKN040
                        16/10 Q1001=
200910201800 METAR LPPR 201800Z 28006KT 260V320 9999 SCT015 FEW020CB BKN040
                        15/11 Q1000=
200910201730 METAR LPPR 201730Z 27006KT 230V300 9999 SCT015 FEW020CB BKN040
                        16/10 Q1000=
200910201700 METAR LPPR 201700Z VRB03KT 9999 SCT015 FEW020CB BKN040 16/12
                        Q1000=
200910201630 METAR LPPR 201630Z 24005KT 200V290 9999 SCT015 FEW020CB BKN040
                        16/13 Q1000=
200910201600 METAR LPPR 201600Z VRB03KT 9999 SCT015 FEW020CB BKN040 17/12
                        Q1000=
200910201530 METAR LPPR 201530Z VRB03G14KT 9999 FEW015 FEW025CB SCT030
                        17/13 Q1000=
200910201500 METAR LPPR 201500Z VRB03KT 9999 -SHRA FEW015 FEW025CB SCT030
                        15/13 Q1000=
200910201430 METAR LPPR 201430Z VRB03KT 9999 FEW015 FEW025CB BKN040 15/12
                        Q1000=
200910201400 METAR LPPR 201400Z 28005KT 250V320 9000 -SHRA SCT015 FEW025CB
                        BKN035 16/12 Q1000=
200910201330 METAR LPPR 201330Z 32008KT 280V350 9999 SCT015 FEW025CB BKN040
                        17/12 Q1000=
200910201300 METAR LPPR 201300Z 30007KT 240V360 9999 SCT015 FEW025CB BKN060
                        17/13 Q1000=
200910201230 METAR LPPR 201230Z VRB07KT 9999 SCT015 FEW025CB BKN070 17/12
                        Q1000=
200910201200 METAR LPPR 201200Z 30005KT 260V350 9999 SCT015 FEW025CB BKN060
                        16/14 Q1001=
200910201130 METAR LPPR 201130Z 31008KT 9999 SCT015 FEW025CB BKN040 16/15
                        Q1001=
200910201100 METAR LPPR 201100Z 32010KT 280V350 9999 SCT015 FEW025CB BKN040
                        17/14 Q1001=
200910201030 METAR LPPR 201030Z 34013KT 300V360 9999 FEW015 FEW025CB BKN070
                        17/14 Q1001=
200910201000 METAR LPPR 201000Z 31005KT 280V340 9999 FEW015 FEW020TCU
                        SCT040 17/14 Q1001=
200910200930 METAR LPPR 200930Z 32007KT 280V340 9999 FEW015 FEW020TCU
                        BKN040 16/15 Q1001=
200910200900 METAR COR LPPR 200900Z 32007KT 9999 FEW008 SCT015 BKN030
                        16/15 Q1001=
200910200830 METAR LPPR 200830Z 00000KT 9999 FEW009 SCT015 BKN025 15/15
                        Q1000=
200910200800 METAR LPPR 200800Z 00000KT 9999 BKN015 SCT030 15/15 Q1000=
200910200730 METAR LPPR 200730Z 35002KT 9999 SCT015 BKN030 15/15 Q0999=
200910200700 METAR LPPR 200700Z 02004KT 9999 FEW015 BKN025 BKN090 15/15
                        Q0999=
200910200630 METAR LPPR 200630Z VRB04KT 7000 -RA SCT006 BKN017 16/16 Q0999=
200910200600 METAR LPPR 200600Z 20009KT 160V250 3000 RA BR SCT002 SCT004
                        BKN008 16/16 Q0999 WS ALL RWY=
200910200530 METAR LPPR 200530Z 18020G31KT 4000 RA BR SCT005 SCT008 BKN020
                        16/16 Q1000 WS ALL RWY=
200910200500 METAR LPPR 200500Z 17021KT 5000 RA BR SCT005 SCT008 BKN025
                        16/16 Q0999 WS ALL RWY=
200910200430 METAR LPPR 200430Z 17024KT 6000 RA SCT005 SCT008 BKN025 16/16
                        Q0999 WS ALL RWY=
200910200400 METAR LPPR 200400Z 17019G29KT 8000 -RA SCT005 SCT008 BKN025
                        16/16 Q1000 WS ALL RWY=
200910200330 METAR LPPR 200330Z 18020KT 8000 -RA SCT006 SCT015 BKN025
                        16/16 Q1002 WS ALL RWY=
200910200300 METAR LPPR 200300Z 17017KT 6000 RA FEW013 BKN025 16/15 Q1002=
200910200230 METAR LPPR 200230Z 18015KT 6000 RA SCT015 BKN025 16/15 Q1003=
200910200200 METAR LPPR 200200Z 17021KT 8000 -RA SCT013 SCT020 16/15 Q1002
                        WS ALL RWY=
200910200130 METAR LPPR 200130Z 18018KT 8000 -RA SCT015 BKN025 17/14 Q1003
                        WS ALL RWY=
200910200100 METAR LPPR 200100Z 18019KT 9999 -RA SCT015 BKN040 17/14 Q1004
                        WS ALL RWY=
200910200030 METAR LPPR 200030Z 17018KT 9999 -RA FEW015 BKN035 17/14 Q1003
                        WS ALL RWY=
200910200000 METAR LPPR 200000Z 16016KT 9999 SCT015 BKN030 17/14 Q1004=
200910192330 METAR COR LPPR 192330Z 17013KT 9999 FEW015 BKN035 17/14 Q1006=
200910192300 METAR LPPR 192300Z 18013KT 9999 FEW012 BKN030 17/14 Q1006=
200910192230 METAR LPPR 192230Z 17011KT 9999 FEW012 SCT025 17/14 Q1007=
200910192200 METAR LPPR 192200Z 17012KT 9999 FEW015 BKN035 17/14 Q1007=
200910192130 METAR LPPR 192130Z 19012KT 9999 FEW015 BKN035 18/14 Q1007=
200910192100 METAR LPPR 192100Z 18011KT 9999 FEW015 BKN040 18/14 Q1007=
200910192030 METAR LPPR 192030Z 19009KT 9999 SCT017 BKN035 18/14 Q1008=
200910192000 METAR LPPR 192000Z 19010KT 9999 SCT017 BKN035 17/14 Q1008=
200910191930 METAR LPPR 191930Z 18008KT 9999 SCT015 BKN030 17/14 Q1008=
200910191900 METAR LPPR 191900Z 19008KT 9999 SCT015 BKN025 17/14 Q1009=
200910191830 METAR LPPR 191830Z 19008KT 9999 FEW015 BKN035 17/13 Q1009=
200910191800 METAR LPPR 191800Z 19008KT 9999 FEW015 BKN035 17/13 Q1009=
200910191730 METAR LPPR 191730Z 19008KT 160V230 9999 FEW015 BKN040 17/13
                        Q1009=
200910191700 METAR LPPR 191700Z 21007KT 180V240 9999 FEW015 BKN040 18/13
                        Q1009=
200910191630 METAR LPPR 191630Z 23007KT 180V270 9999 FEW015 BKN040 18/13
                        Q1010=
200910191600 METAR LPPR 191600Z 23007G17KT 160V260 9999 FEW015 BKN025
                        18/13 Q1010=
200910191530 METAR LPPR 191530Z 24007KT 210V270 9999 SCT015 BKN020 17/13
                        Q1010=
200910191500 METAR LPPR 191500Z 25008KT 210V300 9999 SCT015 BKN020 18/13
                        Q1010=
200910191430 METAR LPPR 191430Z 25007KT 220V280 9999 SCT015 BKN020 18/14
                        Q1010=
200910191400 METAR LPPR 191400Z 19011KT 9999 SCT012 BKN016 19/15 Q1010=
200910191330 METAR LPPR 191330Z 20010KT 9999 SCT012 SCT018 BKN090 18/15
                        Q1010=
200910191300 METAR LPPR 191300Z 19010KT 9999 SCT012 SCT018 BKN090 19/15
                        Q1011=
200910191230 METAR LPPR 191230Z 19009KT 9999 SCT012 BKN016 19/15 Q1011=
200910191200 METAR LPPR 191200Z 19009KT 160V220 9999 SCT012 BKN016 19/15
                        Q1011=
200910191130 METAR LPPR 191130Z 18008KT 140V220 9999 SCT012 BKN017 19/15
                        Q1012=
200910191100 METAR LPPR 191100Z 19007KT 140V210 9999 SCT012 SCT080 19/13
                        Q1012=
200910191030 METAR LPPR 191030Z 15006KT 120V190 9999 SCT012 SCT080 18/10
                        Q1013=
200910191000 METAR LPPR 191000Z 13005KT 100V160 9999 SCT012 SCT080 17/10
                        Q1013=
200910190930 METAR LPPR 190930Z 12007KT 9999 SCT009 SCT080 15/09 Q1013=
200910190900 METAR LPPR 190900Z 11009KT 9999 SCT007 SCT080 14/06 Q1012=
200910190830 METAR LPPR 190830Z 11009KT 9999 SCT007 SCT080 13/05 Q1012=
200910190800 METAR LPPR 190800Z 11009KT 9999 SCT009 SCT080 12/05 Q1012=
200910190730 METAR LPPR 190730Z 11009KT 9999 SCT006 12/05 Q1012=
200910190700 METAR LPPR 190700Z 00000KT 9999 FEW009 SCT040 10/05 Q1012=
200910190630 METAR LPPR 190630Z 00000KT CAVOK 11/05 Q1012=
200910190600 METAR LPPR 190600Z 12006KT CAVOK 12/04 Q1011=
200910190530 METAR LPPR 190530Z 11008KT CAVOK 13/04 Q1011=
200910190500 METAR LPPR 190500Z 10008KT CAVOK 13/03 Q1011=
200910190430 METAR LPPR 190430Z 10006KT CAVOK 13/04 Q1012=
200910190400 METAR LPPR 190400Z 10008KT CAVOK 13/05 Q1011=
200910190330 METAR LPPR 190330Z 11008KT CAVOK 13/06 Q1011=
200910190300 METAR LPPR 190300Z 10004KT 070V150 CAVOK 12/06 Q1012=
200910190230 METAR LPPR 190230Z 11004KT CAVOK 12/06 Q1012=
200910190200 METAR LPPR 190200Z 10005KT 080V140 CAVOK 12/06 Q1013=
200910190130 METAR LPPR 190130Z 10005KT CAVOK 12/05 Q1013=
200910190100 METAR LPPR 190100Z 00000KT CAVOK 10/06 Q1014=
200910190030 METAR LPPR 190030Z 00000KT CAVOK 10/07 Q1014=
200910190000 METAR LPPR 190000Z 00000KT CAVOK 10/08 Q1014=
200910182330 METAR LPPR 182330Z 00000KT CAVOK 11/07 Q1013=
200910182300 METAR LPPR 182300Z 00000KT CAVOK 11/09 Q1014=
200910182230 METAR LPPR 182230Z VRB02KT CAVOK 14/06 Q1013=
200910182200 METAR LPPR 182200Z 11004KT CAVOK 15/08 Q1013=
200910182130 METAR LPPR 182130Z 10004KT CAVOK 15/11 Q1013=
200910182100 METAR LPPR 182100Z 11006KT CAVOK 14/12 Q1013=
200910182030 METAR LPPR 182030Z 10002KT CAVOK 13/12 Q1014=
200910182000 METAR LPPR 182000Z 00000KT 8000 SKC 13/12 Q1014=
200910181930 METAR LPPR 181930Z 00000KT 8000 SKC 14/12 Q1014=
200910181900 METAR LPPR 181900Z 00000KT 8000 SKC 15/13 Q1014=
200910181830 METAR LPPR 181830Z 00000KT CAVOK 16/13 Q1014=
200910181800 METAR LPPR 181800Z 00000KT CAVOK 18/13 Q1014=
200910181730 METAR LPPR 181730Z VRB03KT CAVOK 19/14 Q1014=
200910181700 METAR LPPR 181700Z 29007KT CAVOK 19/14 Q1014=
200910181630 METAR LPPR 181630Z 28007KT 250V310 CAVOK 20/14 Q1014=
200910181600 METAR LPPR 181600Z 24005KT 180V290 CAVOK 22/13 Q1013=
200910181530 METAR LPPR 181530Z 23007KT 190V260 CAVOK 24/08 Q1013=
200910181500 METAR LPPR 181500Z VRB04KT CAVOK 25/M06 Q1014=
200910181430 METAR LPPR 181430Z 06005KT 350V120 CAVOK 25/M09 Q1014=
200910181400 METAR LPPR 181400Z 10006KT 060V140 CAVOK 25/M07 Q1014=
200910181330 METAR LPPR 181330Z 09006KT 040V140 CAVOK 24/M07 Q1014=
200910181300 METAR LPPR 181300Z 10008KT 050V140 CAVOK 24/M08 Q1015=
200910181230 METAR LPPR 181230Z 10009KT 050V130 CAVOK 23/M04 Q1015=
200910181200 METAR LPPR 181200Z 10011KT 070V130 CAVOK 22/M07 Q1015=
200910181130 METAR LPPR 181130Z 10010KT 080V140 CAVOK 22/M06 Q1016=
200910181100 METAR LPPR 181100Z 09008KT 060V120 CAVOK 21/M02 Q1016=
200910181030 METAR LPPR 181030Z 10011KT 080V140 CAVOK 20/M02 Q1016=
200910181000 METAR LPPR 181000Z 10010KT 060V130 CAVOK 19/M02 Q1016=
200910180930 METAR LPPR 180930Z 10010KT CAVOK 18/M02 Q1016=
200910180900 METAR LPPR 180900Z 10007KT 050V120 CAVOK 17/M02 Q1016=
200910180830 METAR LPPR 180830Z 10010KT CAVOK 17/M03 Q1016=
200910180800 METAR LPPR 180800Z 10009KT CAVOK 16/M04 Q1016=
200910180730 METAR LPPR 180730Z 10009KT CAVOK 16/M04 Q1016=
200910180700 METAR LPPR 180700Z 10008KT CAVOK 15/M03 Q1016=
200910180630 METAR LPPR 180630Z 09007KT 040V120 CAVOK 15/M01 Q1015=
200910180600 METAR LPPR 180600Z VRB03KT CAVOK 15/01 Q1015=
200910180530 METAR LPPR 180530Z 09008KT 060V120 CAVOK 16/01 Q1015=
200910180500 METAR LPPR 180500Z 09007KT 050V110 CAVOK 16/01 Q1015=
200910180430 METAR LPPR 180430Z 09007KT 050V130 CAVOK 17/01 Q1015=
200910180400 METAR LPPR 180400Z 09005KT 050V130 CAVOK 15/01 Q1015=
200910180330 METAR LPPR 180330Z 10007KT CAVOK 15/02 Q1015=
200910180300 METAR LPPR 180300Z 10003KT 8000 SKC 14/04 Q1016=
200910180230 METAR LPPR 180230Z 10007KT 7000 SKC 14/03 Q1016=
200910180200 METAR LPPR 180200Z 00000KT 7000 SKC 12/05 Q1016=
200910180130 METAR LPPR 180130Z 00000KT 7000 SKC 13/05 Q1016=
200910180100 METAR LPPR 180100Z 00000KT 5000 BR SKC 13/06 Q1016=
200910180030 METAR LPPR 180030Z 00000KT 5000 BR SKC 12/06 Q1016=
200910180000 METAR LPPR 180000Z 00000KT 5000 BR SKC 13/06 Q1016=
200910172330 METAR LPPR 172330Z 00000KT 5000 BR SKC 13/06 Q1016=
200910172300 METAR LPPR 172300Z 00000KT 7000 SKC 13/06 Q1016=
200910172230 METAR LPPR 172230Z 00000KT 7000 SKC 12/07 Q1016=
200910172200 METAR LPPR 172200Z 00000KT 7000 SKC 11/07 Q1017=
200910172130 METAR LPPR 172130Z 00000KT 7000 SKC 11/07 Q1017=
200910172100 METAR LPPR 172100Z 00000KT 7000 SKC 12/07 Q1017=
200910172030 METAR LPPR 172030Z 00000KT 7000 SKC 12/07 Q1017=
200910172000 METAR LPPR 172000Z 00000KT 7000 SKC 13/07 Q1017=
200910171930 METAR LPPR 171930Z 00000KT 8000 FEW250 14/07 Q1017=
200910171900 METAR LPPR 171900Z 00000KT 7000 FEW250 15/08 Q1017=
200910171830 METAR LPPR 171830Z 00000KT 7000 SCT250 16/07 Q1017=
200910171800 METAR LPPR 171800Z 00000KT CAVOK 17/07 Q1017=
200910171730 METAR LPPR 171730Z 33003KT CAVOK 18/06 Q1017=
200910171700 METAR LPPR 171700Z 35006KT CAVOK 20/04 Q1017=
200910171630 METAR LPPR 171630Z 34007KT CAVOK 21/05 Q1017=
200910171600 METAR LPPR 171600Z 32007KT 290V010 CAVOK 22/03 Q1017=
200910171530 METAR LPPR 171530Z 31007KT CAVOK 23/01 Q1017=
200910171500 METAR LPPR 171500Z VRB06KT CAVOK 24/04 Q1017=
200910171430 METAR LPPR 171430Z VRB03KT CAVOK 24/M06 Q1017=
200910171400 METAR LPPR 171400Z 00000KT CAVOK 25/M08 Q1017=
200910171330 METAR LPPR 171330Z 10005KT 060V140 CAVOK 24/M06 Q1018=
200910171300 METAR LPPR 171300Z 06006KT 030V110 CAVOK 23/M07 Q1018=
200910171230 METAR LPPR 171230Z 09005KT 030V140 CAVOK 23/M06 Q1018=
200910171200 METAR LPPR 171200Z 09005KT 010V130 CAVOK 22/M05 Q1019=
200910171130 METAR LPPR 171130Z 10009KT 070V160 CAVOK 21/M07 Q1019=
200910171100 METAR LPPR 171100Z 08005KT 340V140 CAVOK 20/M06 Q1020=
200910171030 METAR LPPR 171030Z 10009KT 070V140 CAVOK 19/M07 Q1020=
200910171000 METAR LPPR 171000Z 11012KT CAVOK 18/M08 Q1020=
200910170930 METAR LPPR 170930Z 10010KT CAVOK 18/M07 Q1020=
200910170900 METAR LPPR 170900Z 11009KT CAVOK 17/M07 Q1020=
200910170830 METAR LPPR 170830Z 10012KT CAVOK 16/M08 Q1020=
200910170800 METAR LPPR 170800Z 10011KT 060V120 CAVOK 15/M09 Q1019=
200910170730 METAR LPPR 170730Z 10011KT 070V130 CAVOK 15/M10 Q1019=
200910170700 METAR LPPR 170700Z 10009KT CAVOK 14/M09 Q1019=
200910170630 METAR LPPR 170630Z 10009KT CAVOK 14/M09 Q1019=
200910170600 METAR LPPR 170600Z 10008KT CAVOK 14/M09 Q1019=
200910170530 METAR LPPR 170530Z 09006KT 060V120 CAVOK 14/M09 Q1018=
200910170500 METAR LPPR 170500Z 08005KT 050V120 CAVOK 14/M10 Q1018=
200910170430 METAR LPPR 170430Z 08006KT 040V100 CAVOK 15/M10 Q1018=
200910170400 METAR LPPR 170400Z 06004KT 020V100 CAVOK 15/M09 Q1018=
200910170330 METAR LPPR 170330Z 08004KT 050V110 CAVOK 15/M10 Q1018=
200910170300 METAR LPPR 170300Z 08005KT 030V120 CAVOK 15/M11 Q1018=
200910170230 METAR LPPR 170230Z 08005KT 040V120 CAVOK 16/M10 Q1018=
200910170200 METAR LPPR 170200Z 08004KT 030V130 CAVOK 16/M10 Q1019=
200910170130 METAR LPPR 170130Z 08003KT CAVOK 14/M09 Q1019=
200910170100 METAR LPPR 170100Z 00000KT CAVOK 10/M06 Q1019=
200910170030 METAR LPPR 170030Z 00000KT CAVOK 08/01 Q1019=
200910170000 METAR LPPR 170000Z 00000KT CAVOK 08/02 Q1019=
200910162330 METAR LPPR 162330Z 00000KT CAVOK 09/02 Q1019=
200910162300 METAR LPPR 162300Z 00000KT CAVOK 09/02 Q1019=
200910162230 METAR LPPR 162230Z 00000KT CAVOK 08/03 Q1019=
200910162200 METAR LPPR 162200Z 00000KT CAVOK 09/03 Q1019=
200910162130 METAR LPPR 162130Z 00000KT CAVOK 11/03 Q1019=
200910162100 METAR LPPR 162100Z 00000KT CAVOK 12/04 Q1019=
200910162030 METAR LPPR 162030Z 00000KT CAVOK 13/04 Q1019=
200910162000 METAR LPPR 162000Z 00000KT CAVOK 15/00 Q1019=
200910161930 METAR LPPR 161930Z 00000KT CAVOK 16/01 Q1019=
200910161900 METAR LPPR 161900Z 00000KT CAVOK 16/M00 Q1019=
200910161830 METAR LPPR 161830Z 00000KT CAVOK 19/M02 Q1018=
200910161800 METAR LPPR 161800Z 12003KT CAVOK 21/M04 Q1018=
200910161730 METAR LPPR 161730Z 12003KT CAVOK 22/M04 Q1018=
200910161700 METAR LPPR 161700Z 11005KT CAVOK 23/M05 Q1018=
200910161630 METAR LPPR 161630Z 11006KT 080V140 CAVOK 24/M05 Q1018=
200910161600 METAR LPPR 161600Z VRB05KT CAVOK 24/M07 Q1018=
200910161530 METAR LPPR 161530Z 10006KT 030V140 CAVOK 24/M06 Q1018=
200910161500 METAR LPPR 161500Z 09008KT 050V130 CAVOK 24/M06 Q1018 WS
                        ALL RWY=
200910161430 METAR LPPR 161430Z 11010KT 080V140 CAVOK 23/M07 Q1018 WS
                        ALL RWY=
200910161400 METAR LPPR 161400Z 10009KT 050V140 CAVOK 23/M07 Q1018 WS
                        ALL RWY=
200910161330 METAR LPPR 161330Z 11013KT 090V150 CAVOK 23/M08 Q1018 WS
                        ALL RWY=
200910161300 METAR LPPR 161300Z 08008KT 050V130 CAVOK 23/M09 Q1019 WS
                        ALL RWY=
200910161230 METAR LPPR 161230Z 10011KT 060V160 CAVOK 22/M09 Q1019 WS
                        ALL RWY=
200910161200 METAR LPPR 161200Z 09010KT 050V120 CAVOK 21/M09 Q1019 WS
                        ALL RWY=
200910161130 METAR LPPR 161130Z 10012KT 050V130 CAVOK 20/M09 Q1019 WS
                        ALL RWY=
200910161100 METAR LPPR 161100Z 09011KT 060V140 CAVOK 20/M08 Q1019 WS
                        ALL RWY=
200910161030 METAR LPPR 161030Z 09014G24KT 040V130 CAVOK 19/M08 Q1019
                        WS ALL RWY=
200910161000 METAR LPPR 161000Z 10012KT 080V140 CAVOK 18/M08 Q1019 WS
                        ALL RWY=
200910160930 METAR LPPR 160930Z 10014KT 070V130 CAVOK 17/M09 Q1019 WS
                        ALL RWY=
200910160900 METAR LPPR 160900Z 09013KT 060V130 CAVOK 17/M08 Q1019 WS
                        ALL RWY=
200910160830 METAR LPPR 160830Z 09010KT 050V140 CAVOK 16/M09 Q1019=
200910160800 METAR LPPR 160800Z 08011KT 050V120 CAVOK 16/M10 Q1019=
200910160730 METAR LPPR 160730Z 09010KT 040V120 CAVOK 16/M12 Q1018=
200910160700 METAR LPPR 160700Z 08008KT 040V120 CAVOK 16/M13 Q1018=
200910160630 METAR LPPR 160630Z 08009KT 050V120 CAVOK 16/M15 Q1018=
200910160600 METAR LPPR 160600Z 09009KT CAVOK 17/M15 Q1018=
200910160530 METAR LPPR 160530Z 10009KT 060V120 CAVOK 17/M15 Q1018=
200910160500 METAR LPPR 160500Z 09009KT 050V130 CAVOK 17/M13 Q1017=
200910160430 METAR LPPR 160430Z 09009KT 040V120 CAVOK 18/M12 Q1017=
200910160400 METAR LPPR 160400Z 08007KT 050V120 CAVOK 18/M11 Q1017=
200910160330 METAR LPPR 160330Z 07005KT 040V140 CAVOK 18/M10 Q1017=
200910160300 METAR LPPR 160300Z 08005KT 030V140 CAVOK 18/M09 Q1017=
200910160230 METAR LPPR 160230Z 08006KT 050V120 CAVOK 19/M09 Q1017=
200910160200 METAR LPPR 160200Z 08007KT 020V120 CAVOK 19/M08 Q1017=
200910160130 METAR LPPR 160130Z 09006KT 050V130 CAVOK 19/M07 Q1017=
200910160100 METAR LPPR 160100Z 00000KT CAVOK 14/M00 Q1017=
200910160030 METAR LPPR 160030Z 00000KT CAVOK 15/02 Q1017=
200910160000 METAR LPPR 160000Z 00000KT CAVOK 14/04 Q1017=
200910152330 METAR LPPR 152330Z 00000KT CAVOK 14/06 Q1017=
200910152300 METAR LPPR 152300Z 00000KT CAVOK 14/05 Q1017=
200910152230 METAR LPPR 152230Z 00000KT CAVOK 14/07 Q1017=
200910152200 METAR LPPR 152200Z 00000KT CAVOK 15/07 Q1016=
200910152130 METAR LPPR 152130Z 00000KT CAVOK 16/06 Q1016=
200910152100 METAR LPPR 152100Z 04002KT CAVOK 16/08 Q1016=
200910152030 METAR LPPR 152030Z 00000KT CAVOK 16/08 Q1016=
200910152000 METAR LPPR 152000Z 00000KT CAVOK 16/09 Q1016=
200910151930 METAR LPPR 151930Z 00000KT CAVOK 17/09 Q1016=
200910151900 METAR LPPR 151900Z 00000KT CAVOK 19/09 Q1016=
200910151830 METAR LPPR 151830Z 00000KT CAVOK 21/06 Q1016=
200910151800 METAR LPPR 151800Z VRB02KT CAVOK 24/03 Q1015=
200910151730 METAR LPPR 151730Z 02004KT CAVOK 26/02 Q1015=
200910151700 METAR LPPR 151700Z 03005KT CAVOK 26/01 Q1015=
200910151630 METAR LPPR 151630Z 02006KT CAVOK 27/00 Q1015=
200910151600 METAR LPPR 151600Z 03007KT 350V060 CAVOK 27/00 Q1015=
200910151530 METAR LPPR 151530Z 02005KT 350V060 CAVOK 27/M00 Q1015=
200910151500 METAR LPPR 151500Z 08005KT 030V140 CAVOK 27/M01 Q1015=
200910151430 METAR LPPR 151430Z 03006KT 010V100 CAVOK 27/01 Q1015=
200910151400 METAR LPPR 151400Z 04007KT 360V100 CAVOK 27/00 Q1015=
200910151330 METAR LPPR 151330Z 08006KT 030V120 CAVOK 27/01 Q1016=
200910151300 METAR LPPR 151300Z 08005KT 030V150 CAVOK 26/02 Q1016=
200910151230 METAR LPPR 151230Z 10007KT 050V140 CAVOK 25/04 Q1016=
200910151200 METAR LPPR 151200Z 08005KT 010V140 CAVOK 25/06 Q1016=
200910151130 METAR LPPR 151130Z 09007KT 010V140 CAVOK 25/05 Q1017=
200910151100 METAR LPPR 151100Z 08007KT 030V120 CAVOK 24/05 Q1017=
200910151030 METAR LPPR 151030Z 07006KT 340V130 CAVOK 23/05 Q1017=
200910151000 METAR LPPR 151000Z 07006KT 020V120 CAVOK 22/07 Q1017=
200910150930 METAR LPPR 150930Z 09004KT 050V140 CAVOK 21/07 Q1017=
200910150900 METAR LPPR 150900Z 09004KT 040V130 CAVOK 21/06 Q1017=
200910150830 METAR LPPR 150830Z 10007KT 040V140 CAVOK 20/06 Q1017=
200910150800 METAR LPPR 150800Z 10006KT 060V140 CAVOK 19/06 Q1017=
200910150730 METAR LPPR 150730Z 09006KT 060V120 CAVOK 18/06 Q1017=
200910150700 METAR LPPR 150700Z 09006KT CAVOK 17/07 Q1016=
200910150630 METAR LPPR 150630Z 10007KT CAVOK 17/07 Q1016=
200910150600 METAR LPPR 150600Z 11007KT CAVOK 17/08 Q1016=
200910150530 METAR LPPR 150530Z 10006KT CAVOK 17/08 Q1016=
200910150500 METAR LPPR 150500Z 10008KT CAVOK 17/08 Q1016=
200910150430 METAR LPPR 150430Z 10007KT 070V130 CAVOK 17/08 Q1016=
200910150400 METAR LPPR 150400Z 10006KT 070V130 CAVOK 17/08 Q1016=
200910150330 METAR LPPR 150330Z 10005KT 070V130 CAVOK 16/09 Q1016=
200910150300 METAR LPPR 150300Z VRB03KT CAVOK 16/10 Q1016=
200910150230 METAR LPPR 150230Z 00000KT CAVOK 15/10 Q1016=
200910150200 METAR LPPR 150200Z VRB02KT CAVOK 16/10 Q1016=
200910150130 METAR LPPR 150130Z VRB03KT CAVOK 17/10 Q1016=
200910150100 METAR LPPR 150100Z 10003KT CAVOK 17/11 Q1016=
200910150030 METAR LPPR 150030Z 00000KT CAVOK 14/11 Q1016=
200910150000 METAR LPPR 150000Z 00000KT CAVOK 15/11 Q1016=
200910142330 METAR LPPR 142330Z 00000KT CAVOK 15/11 Q1016=
200910142300 METAR LPPR 142300Z 00000KT CAVOK 15/10 Q1016=
200910142230 METAR LPPR 142230Z 00000KT CAVOK 16/10 Q1016=
200910142200 METAR LPPR 142200Z 00000KT CAVOK 16/10 Q1016=
200910142130 METAR LPPR 142130Z 00000KT CAVOK 16/09 Q1016=
200910142100 METAR LPPR 142100Z 00000KT CAVOK 17/09 Q1016=
200910142030 METAR LPPR 142030Z 00000KT CAVOK 18/10 Q1016=
200910142000 METAR LPPR 142000Z 00000KT CAVOK 18/10 Q1016=
200910141930 METAR LPPR 141930Z 00000KT CAVOK 19/10 Q1016=
200910141900 METAR LPPR 141900Z 36002KT CAVOK 20/10 Q1016=
200910141830 METAR LPPR 141830Z 00000KT CAVOK 20/10 Q1016=
200910141800 METAR LPPR 141800Z 00000KT CAVOK 22/08 Q1015=
200910141730 METAR LPPR 141730Z 32002KT CAVOK 24/07 Q1015=
200910141700 METAR LPPR 141700Z 30005KT 270V340 CAVOK 26/06 Q1015=
200910141630 METAR LPPR 141630Z 31004KT CAVOK 27/06 Q1015=
200910141600 METAR LPPR 141600Z 32004KT 250V340 CAVOK 27/06 Q1015=
200910141530 METAR LPPR 141530Z 29004KT 260V330 CAVOK 27/06 Q1015=
200910141500 METAR LPPR 141500Z 27005KT 250V310 CAVOK 27/06 Q1016=
200910141430 METAR LPPR 141430Z 06004KT 010V120 CAVOK 28/04 Q1016=
200910141400 METAR LPPR 141400Z VRB03KT CAVOK 28/03 Q1016=
200910141330 METAR LPPR 141330Z VRB03KT CAVOK 28/03 Q1016=
200910141300 METAR LPPR 141300Z VRB03KT CAVOK 27/03 Q1017=
200910141230 METAR LPPR 141230Z VRB03KT CAVOK 26/03 Q1017=
200910141200 METAR LPPR 141200Z 09005KT 030V150 CAVOK 26/03 Q1017=
200910141130 METAR LPPR 141130Z 09007KT 030V120 CAVOK 25/03 Q1017=
200910141100 METAR LPPR 141100Z 10007KT 060V140 CAVOK 24/02 Q1017=
200910141030 METAR LPPR 141030Z 10008KT 070V150 CAVOK 23/02 Q1017=
200910141000 METAR LPPR 141000Z 09009KT 060V120 CAVOK 22/02 Q1018=
200910140930 METAR LPPR 140930Z 10009KT 060V130 CAVOK 22/01 Q1017=
200910140900 METAR LPPR 140900Z 10008KT 070V130 CAVOK 21/01 Q1017=
200910140830 METAR LPPR 140830Z 10009KT 070V130 CAVOK 20/01 Q1017=
200910140800 METAR LPPR 140800Z 09007KT 060V130 CAVOK 19/01 Q1017=
200910140730 METAR LPPR 140730Z 09007KT 050V140 CAVOK 19/01 Q1016=
200910140700 METAR LPPR 140700Z 09007KT 040V130 CAVOK 19/00 Q1016=
200910140630 METAR LPPR 140630Z 09007KT 050V120 CAVOK 19/00 Q1016=
200910140600 METAR LPPR 140600Z 09007KT 040V130 CAVOK 19/00 Q1016=
200910140530 METAR LPPR 140530Z 10007KT 060V120 CAVOK 19/01 Q1016=
200910140500 METAR LPPR 140500Z 10007KT CAVOK 19/01 Q1016=
200910140430 METAR LPPR 140430Z 10008KT CAVOK 20/01 Q1016=
200910140400 METAR LPPR 140400Z 10009KT CAVOK 20/01 Q1016=
200910140330 METAR LPPR 140330Z 10007KT 070V130 CAVOK 19/02 Q1016=
200910140300 METAR LPPR 140300Z 10007KT CAVOK 20/02 Q1016=
200910140230 METAR LPPR 140230Z 10008KT CAVOK 20/03 Q1016=
200910140200 METAR LPPR 140200Z 10008KT CAVOK 19/04 Q1016=
200910140130 METAR LPPR 140130Z 10007KT CAVOK 20/05 Q1017=
200910140100 METAR LPPR 140100Z 10007KT CAVOK 20/05 Q1017=
200910140030 METAR LPPR 140030Z 10007KT CAVOK 20/06 Q1017=
200910140000 METAR LPPR 140000Z 10007KT CAVOK 20/05 Q1016=
200910132330 METAR LPPR 132330Z 10007KT CAVOK 20/05 Q1017=
200910132300 METAR LPPR 132300Z 11006KT CAVOK 20/05 Q1017=
200910132230 METAR LPPR 132230Z 11006KT CAVOK 20/05 Q1017=
200910132200 METAR LPPR 132200Z 11007KT CAVOK 21/05 Q1017=
200910132130 METAR LPPR 132130Z 11006KT CAVOK 20/05 Q1017=
200910132100 METAR LPPR 132100Z 11006KT CAVOK 21/06 Q1017=
200910132030 METAR LPPR 132030Z 11007KT CAVOK 21/05 Q1017=
200910132000 METAR LPPR 132000Z 10005KT CAVOK 21/06 Q1017=
200910131930 METAR LPPR 131930Z 09004KT 060V130 CAVOK 22/05 Q1017=
200910131900 METAR LPPR 131900Z 10005KT CAVOK 22/05 Q1017=
200910131830 METAR LPPR 131830Z 09004KT CAVOK 22/06 Q1017=
200910131800 METAR LPPR 131800Z 10005KT 060V120 CAVOK 23/05 Q1016=
200910131730 METAR LPPR 131730Z 10005KT 070V130 CAVOK 25/05 Q1016=
200910131700 METAR LPPR 131700Z 11007KT 080V140 CAVOK 25/04 Q1016=
200910131630 METAR LPPR 131630Z 10007KT 070V130 CAVOK 26/04 Q1016=
200910131600 METAR LPPR 131600Z 10007KT 040V140 CAVOK 26/03 Q1016=
200910131530 METAR LPPR 131530Z 08007KT 030V120 CAVOK 26/02 Q1016=
200910131500 METAR LPPR 131500Z 10007KT 060V140 CAVOK 26/01 Q1017=
200910131430 METAR LPPR 131430Z 11009KT 070V130 CAVOK 26/02 Q1016=
200910131400 METAR LPPR 131400Z 10010KT 060V140 CAVOK 26/02 Q1017=
200910131330 METAR LPPR 131330Z 10010KT 060V140 CAVOK 26/M00 Q1017=
200910131300 METAR LPPR 131300Z 10011KT 050V130 CAVOK 25/02 Q1017=
200910131230 METAR LPPR 131230Z 10011KT 070V130 CAVOK 24/03 Q1017=
200910131200 METAR LPPR 131200Z 09011KT 050V130 CAVOK 24/03 Q1018=
200910131130 METAR LPPR 131130Z 10014KT 060V130 CAVOK 23/03 Q1018=
200910131100 METAR LPPR 131100Z 10012KT 070V130 CAVOK 23/03 Q1018=
200910131030 METAR LPPR 131030Z 10011G21KT 070V140 CAVOK 22/02 Q1018=
200910131000 METAR LPPR 131000Z 09010G22KT 050V130 CAVOK 21/02 Q1018=
200910130930 METAR LPPR 130930Z 08010KT 020V140 CAVOK 20/02 Q1018=
200910130900 METAR LPPR 130900Z 09012G22KT 060V130 CAVOK 20/02 Q1018=
200910130830 METAR LPPR 130830Z 10012KT 060V130 CAVOK 19/01 Q1018=
200910130800 METAR LPPR 130800Z 09007KT 030V130 CAVOK 19/01 Q1018=
200910130730 METAR LPPR 130730Z 09006KT 050V150 CAVOK 19/00 Q1018=
200910130700 METAR LPPR 130700Z 08006KT 030V110 CAVOK 19/00 Q1018=
200910130630 METAR LPPR 130630Z 08005KT 030V120 CAVOK 19/M02 Q1018=
200910130600 METAR LPPR 130600Z 09007KT 060V130 CAVOK 20/M02 Q1018=
200910130530 METAR LPPR 130530Z 09007KT 040V140 CAVOK 20/M01 Q1018=
200910130500 METAR LPPR 130500Z 09006KT 050V110 CAVOK 19/M01 Q1018=
200910130430 METAR LPPR 130430Z 06004KT 030V090 CAVOK 19/02 Q1018=
200910130400 METAR LPPR 130400Z 00000KT CAVOK 17/10 Q1018=
200910130330 METAR LPPR 130330Z VRB03KT 9999 FEW035 BKN250 18/10 Q1018=
200910130300 METAR LPPR 130300Z VRB02KT 9999 FEW030 BKN250 19/12 Q1018=
200910130230 METAR LPPR 130230Z VRB03KT 9999 FEW030 SCT250 18/13 Q1018=
200910130200 METAR LPPR 130200Z 02003KT 9999 FEW030 SCT250 20/13 Q1018=
200910130130 METAR LPPR 130130Z 36003KT 9999 FEW030 SCT250 19/13 Q1018=
200910130100 METAR LPPR 130100Z 01004KT CAVOK 20/13 Q1018=
200910130030 METAR LPPR 130030Z 04003KT CAVOK 22/13 Q1018=
200910130000 METAR LPPR 130000Z 08004KT 050V140 CAVOK 23/13 Q1018=
200910122330 METAR LPPR 122330Z 08004KT 050V130 CAVOK 23/13 Q1018=
200910122300 METAR LPPR 122300Z 08005KT 040V110 CAVOK 23/13 Q1018=
200910122230 METAR LPPR 122230Z 07003KT CAVOK 22/14 Q1018=
200910122200 METAR LPPR 122200Z 06004KT CAVOK 23/13 Q1019=
200910122130 METAR LPPR 122130Z 06003KT CAVOK 23/13 Q1019=
200910122100 METAR LPPR 122100Z VRB03KT CAVOK 24/13 Q1019=
200910122030 METAR LPPR 122030Z 07004KT 030V110 CAVOK 25/12 Q1018=
200910122000 METAR LPPR 122000Z 09005KT CAVOK 26/12 Q1018=
200910121930 METAR LPPR 121930Z 08004KT 040V110 CAVOK 26/12 Q1018=
200910121900 METAR LPPR 121900Z 09005KT 060V120 CAVOK 26/11 Q1018=
200910121830 METAR LPPR 121830Z 07003KT CAVOK 27/13 Q1018=
200910121800 METAR LPPR 121800Z VRB03KT CAVOK 27/18 Q1018=
200910121730 METAR LPPR 121730Z 01003KT CAVOK 28/18 Q1018=
200910121700 METAR LPPR 121700Z VRB03KT CAVOK 29/17 Q1018=
200910121630 METAR LPPR 121630Z 33005KT CAVOK 29/17 Q1018=
200910121600 METAR LPPR 121600Z 32007KT 270V340 CAVOK 29/17 Q1018=
200910121530 METAR LPPR 121530Z 32007KT 280V340 CAVOK 29/17 Q1018=
200910121500 METAR LPPR 121500Z 32009KT CAVOK 29/16 Q1018=
200910121430 METAR LPPR 121430Z 31006KT CAVOK 29/16 Q1018=
200910121400 METAR LPPR 121400Z 32006KT 270V070 CAVOK 30/16 Q1018=
200910121330 METAR LPPR 121330Z 06004KT 340V140 CAVOK 30/12 Q1019=
200910121300 METAR LPPR 121300Z 08006KT 050V120 CAVOK 29/12 Q1019=
200910121230 METAR LPPR 121230Z 10007KT CAVOK 29/12 Q1020=
200910121200 METAR LPPR 121200Z 09005KT 010V140 CAVOK 28/12 Q1020=
200910121130 METAR LPPR 121130Z 10008KT 050V140 CAVOK 28/13 Q1020=
200910121100 METAR LPPR 121100Z 11008KT 070V130 CAVOK 27/13 Q1020=
200910121030 METAR LPPR 121030Z 10008KT 070V130 CAVOK 26/14 Q1021=
200910121000 METAR LPPR 121000Z 08007KT 040V120 CAVOK 25/15 Q1020=
200910120930 METAR LPPR 120930Z 10007KT 070V130 CAVOK 24/15 Q1020=
200910120900 METAR LPPR 120900Z 10006KT 060V130 CAVOK 23/15 Q1020=
200910120830 METAR LPPR 120830Z 10006KT CAVOK 22/15 Q1020=
200910120800 METAR LPPR 120800Z 12007KT CAVOK 20/15 Q1020=
200910120730 METAR LPPR 120730Z 11007KT CAVOK 20/15 Q1020=
200910120700 METAR LPPR 120700Z 10007KT CAVOK 19/15 Q1020=
200910120630 METAR LPPR 120630Z 10005KT 070V130 CAVOK 19/15 Q1020=
200910120600 METAR LPPR 120600Z VRB03KT CAVOK 18/16 Q1020=
200910120530 METAR LPPR 120530Z 06005KT 030V100 CAVOK 19/16 Q1020=
200910120500 METAR LPPR 120500Z 09005KT CAVOK 20/16 Q1020=
200910120430 METAR LPPR 120430Z 09003KT CAVOK 19/16 Q1019=
200910120400 METAR LPPR 120400Z 00000KT CAVOK 19/16 Q1019=
200910120330 METAR LPPR 120330Z VRB02KT CAVOK 19/16 Q1019=
200910120300 METAR LPPR 120300Z 10004KT CAVOK 19/16 Q1020=
200910120230 METAR LPPR 120230Z 10004KT CAVOK 20/16 Q1020=
200910120200 METAR LPPR 120200Z 00000KT CAVOK 19/16 Q1020=
200910120130 METAR LPPR 120130Z VRB03KT CAVOK 21/17 Q1020=
200910120100 METAR LPPR 120100Z 11004KT CAVOK 22/17 Q1020=
200910120030 METAR LPPR 120030Z 10003KT CAVOK 20/17 Q1020=
200910120000 METAR LPPR 120000Z 00000KT CAVOK 19/17 Q1020=
200910112330 METAR LPPR 112330Z 00000KT CAVOK 20/18 Q1020=
200910112300 METAR LPPR 112300Z 00000KT CAVOK 20/18 Q1021=
200910112230 METAR LPPR 112230Z 00000KT CAVOK 19/17 Q1020=
200910112200 METAR LPPR 112200Z 00000KT CAVOK 19/18 Q1020=
200910112130 METAR LPPR 112130Z 00000KT CAVOK 19/17 Q1020=
200910112100 METAR LPPR 112100Z 00000KT CAVOK 19/18 Q1020=
200910112030 METAR LPPR 112030Z 00000KT CAVOK 19/18 Q1020=
200910112000 METAR LPPR 112000Z 00000KT CAVOK 20/18 Q1020=
200910111930 METAR LPPR 111930Z 01002KT CAVOK 20/18 Q1020=
200910111900 METAR LPPR 111900Z 35003KT CAVOK 21/18 Q1020=
200910111830 METAR LPPR 111830Z 35004KT CAVOK 21/18 Q1020=
200910111800 METAR LPPR 111800Z 33006KT CAVOK 23/17 Q1020=
200910111730 METAR LPPR 111730Z 33008KT CAVOK 24/17 Q1020=
200910111700 METAR LPPR 111700Z 33008KT CAVOK 25/17 Q1020=
200910111630 METAR LPPR 111630Z 34008KT CAVOK 26/17 Q1020=
200910111600 METAR LPPR 111600Z 34009KT 290V360 CAVOK 26/18 Q1020=
200910111530 METAR LPPR 111530Z 32009KT 290V350 CAVOK 26/18 Q1020=
200910111500 METAR LPPR 111500Z 32009KT CAVOK 26/18 Q1020=
200910111430 METAR LPPR 111430Z 31008KT CAVOK 27/18 Q1020=
200910111400 METAR LPPR 111400Z 33004KT 260V060 CAVOK 28/18 Q1020=
200910111330 METAR LPPR 111330Z 02004KT 330V110 CAVOK 28/18 Q1020=
200910111300 METAR LPPR 111300Z 04004KT 010V080 CAVOK 27/17 Q1020=
200910111230 METAR LPPR 111230Z VRB03KT CAVOK 27/17 Q1021=
200910111200 METAR LPPR 111200Z VRB03KT CAVOK 26/17 Q1021=
200910111130 METAR LPPR 111130Z 02005KT 330V060 CAVOK 25/17 Q1021=
200910111100 METAR LPPR 111100Z 04005KT 020V080 CAVOK 24/16 Q1021=
200910111030 METAR LPPR 111030Z 04004KT 360V070 CAVOK 24/16 Q1022=
200910111000 METAR LPPR 111000Z 05004KT 350V100 CAVOK 22/16 Q1022=
200910110930 METAR LPPR 110930Z VRB03KT CAVOK 21/17 Q1022=
200910110900 METAR LPPR 110900Z VRB03KT CAVOK 19/19 Q1022=
200910110830 METAR LPPR 110830Z 00000KT CAVOK 18/18 Q1022=
200910110800 METAR LPPR 110800Z 00000KT CAVOK 16/16 Q1022=
200910110730 METAR LPPR 110730Z 36003KT 8000 FEW200 15/15 Q1022=
200910110700 METAR LPPR 110700Z 35002KT 8000 FEW200 14/14 Q1022=
200910110630 METAR LPPR 110630Z 02002KT 7000 FEW200 15/15 Q1021=
200910110600 METAR LPPR 110600Z 35003KT 5000 BR SKC 15/15 Q1021=
200910110530 METAR LPPR 110530Z 00000KT 8000 SKC 15/15 Q1021=
200910110500 METAR LPPR 110500Z 00000KT 8000 SKC 15/15 Q1022=
200910110430 METAR LPPR 110430Z VRB02KT 8000 SKC 16/16 Q1022=
200910110400 METAR LPPR 110400Z 01002KT 8000 SKC 16/16 Q1022=
200910110330 METAR LPPR 110330Z 35005KT 8000 SKC 16/16 Q1022=
200910110300 METAR LPPR 110300Z 36003KT 8000 SKC 16/16 Q1022=
200910110230 METAR LPPR 110230Z 01004KT 8000 SKC 16/16 Q1022=
200910110200 METAR LPPR 110200Z 36006KT 8000 SKC 16/16 Q1022=
200910110130 METAR LPPR 110130Z 35005KT 8000 SKC 16/16 Q1023=
200910110100 METAR LPPR 110100Z 35003KT 8000 SKC 16/16 Q1023=
200910110030 METAR LPPR 110030Z 33004KT 8000 FEW007 17/17 Q1023=
200910110000 METAR LPPR 110000Z 34003KT 8000 FEW007 17/17 Q1023=
200910102330 METAR LPPR 102330Z 36004KT 8000 FEW007 17/17 Q1023=
200910102300 METAR LPPR 102300Z 33007KT 7000 FEW007 17/17 Q1023=
200910102230 METAR LPPR 102230Z 34006KT 7000 FEW007 17/17 Q1023=
200910102200 METAR LPPR 102200Z 33004KT 7000 FEW005 17/17 Q1023=
200910102130 METAR LPPR 102130Z 34005KT 7000 FEW005 18/18 Q1023=
200910102100 METAR LPPR 102100Z 34007KT 7000 SCT005 18/18 Q1023=
200910102030 METAR LPPR 102030Z 33003KT 9999 FEW025 18/17 Q1023=
200910102000 METAR LPPR 102000Z 33004KT 9999 FEW025 18/18 Q1023=
200910101930 METAR LPPR 101930Z 35004KT 9999 FEW025 19/18 Q1023=
200910101900 METAR LPPR 101900Z 33007KT 9999 FEW025 19/18 Q1023=
200910101830 METAR LPPR 101830Z 33011KT 9999 FEW025 19/18 Q1023=
200910101800 METAR LPPR 101800Z 33010KT 7000 FEW005 SCT012 20/19 Q1022=
200910101730 METAR LPPR 101730Z 33013KT 4000W VCFG BR SCT004 SCT010 20/19
                        Q1022=
200910101700 METAR LPPR 101700Z 32010KT 290V350 4000W VCFG BR SCT005 SCT010
                        21/19 Q1022=
200910101630 METAR LPPR 101630Z 32011KT 270V010 7000 SCT005 SCT012 21/19
                        Q1022=
200910101600 METAR LPPR 101600Z 31010KT 280V360 9999 SCT015 21/19 Q1022=
200910101530 METAR LPPR 101530Z 31010KT 280V350 9999 SCT015 21/18 Q1022=
200910101500 METAR LPPR 101500Z 31010G20KT 270V340 9999 SCT015 22/19 Q1022=
200910101430 METAR LPPR 101430Z 32011KT 9999 SCT015 SCT200 22/19 Q1022=
200910101400 METAR LPPR 101400Z 30009KT 270V330 9999 SCT015 SCT200 22/19
                        Q1023=
200910101330 METAR LPPR 101330Z 30009KT 270V330 9999 FEW015 SCT020 22/19
                        Q1023=
200910101300 METAR LPPR 101300Z 30009KT 9999 FEW015 SCT020 22/19 Q1023=
200910101230 METAR LPPR 101230Z 31007KT 260V340 9999 FEW015 SCT020 22/18
                        Q1024=
200910101200 METAR LPPR 101200Z 30008KT 250V330 9999 FEW015 SCT025 22/17
                        Q1024=
200910101130 METAR LPPR 101130Z 33005KT 270V020 9999 FEW017 BKN025 22/17
                        Q1024=
200910101100 METAR LPPR 101100Z 33006KT 290V010 9999 BKN020 21/17 Q1024=
200910101030 METAR LPPR 101030Z 33005KT 290V020 9999 BKN020 21/17 Q1024=
200910101000 METAR LPPR 101000Z 33004KT 9999 BKN020 20/16 Q1024=
200910100930 METAR LPPR 100930Z VRB03KT 9999 BKN020 19/16 Q1024=
200910100900 METAR LPPR 100900Z VRB02KT 9999 SCT020 BKN027 20/15 Q1024=
200910100830 METAR LPPR 100830Z VRB02KT 9999 FEW020 18/15 Q1023=
200910100800 METAR LPPR 100800Z VRB02KT 9999 SCT025 16/14 Q1023=
200910100730 METAR LPPR 100730Z 00000KT 9999 FEW025 15/15 Q1023=
200910100700 METAR LPPR 100700Z VRB02KT CAVOK 14/14 Q1023=
200910100630 METAR LPPR 100630Z 00000KT CAVOK 13/13 Q1022=
200910100600 METAR LPPR 100600Z 00000KT CAVOK 13/13 Q1022=
200910100530 METAR LPPR 100530Z 00000KT CAVOK 13/13 Q1022=
200910100500 METAR LPPR 100500Z 00000KT CAVOK 13/13 Q1022=
200910100430 METAR LPPR 100430Z 00000KT CAVOK 13/13 Q1023=
200910100400 METAR LPPR 100400Z 00000KT CAVOK 13/13 Q1023=
200910100330 METAR LPPR 100330Z 10002KT CAVOK 13/13 Q1022=
200910100300 METAR LPPR 100300Z 00000KT CAVOK 13/13 Q1022=
200910100230 METAR LPPR 100230Z 00000KT CAVOK 13/13 Q1023=
200910100200 METAR LPPR 100200Z 00000KT CAVOK 13/13 Q1023=
200910100130 METAR LPPR 100130Z 00000KT CAVOK 13/13 Q1023=
200910100100 METAR LPPR 100100Z 00000KT CAVOK 13/13 Q1023=
200910100030 METAR LPPR 100030Z 00000KT CAVOK 14/13 Q1023=
200910100000 METAR LPPR 100000Z 00000KT CAVOK 14/14 Q1023=
200910092330 METAR LPPR 092330Z 00000KT CAVOK 14/14 Q1022=
200910092300 METAR LPPR 092300Z 00000KT CAVOK 15/14 Q1023=
200910092230 METAR LPPR 092230Z 00000KT CAVOK 15/15 Q1022=
200910092200 METAR LPPR 092200Z 34003KT CAVOK 15/15 Q1023=
200910092130 METAR LPPR 092130Z 00000KT CAVOK 16/15 Q1023=
200910092100 METAR LPPR 092100Z 33002KT CAVOK 16/15 Q1023=
200910092030 METAR LPPR 092030Z 36002KT CAVOK 16/15 Q1022=
200910092000 METAR LPPR 092000Z VRB03KT CAVOK 16/15 Q1022=
200910091930 METAR LPPR 091930Z 35003KT CAVOK 16/15 Q1022=
200910091900 METAR LPPR 091900Z 33006KT CAVOK 17/15 Q1022=
200910091830 METAR LPPR 091830Z 32006KT CAVOK 18/15 Q1022=
200910091800 METAR LPPR 091800Z 31007KT CAVOK 18/15 Q1022=
200910091730 METAR LPPR 091730Z 31007KT CAVOK 19/15 Q1021=
200910091700 METAR LPPR 091700Z 32006KT 260V340 CAVOK 20/14 Q1021=
200910091630 METAR LPPR 091630Z 32006KT 9999 FEW017 BKN250 20/14 Q1021=
200910091600 METAR LPPR 091600Z 32009KT 270V350 9999 FEW015 BKN250 20/14
                        Q1021=
200910091530 METAR LPPR 091530Z 33009KT 290V350 9999 FEW015 BKN250 20/14
                        Q1021=
200910091500 METAR LPPR 091500Z 31009KT 9999 FEW015 BKN200 20/15 Q1021=
200910091430 METAR LPPR 091430Z 31008KT 9999 FEW015 BKN200 20/14 Q1021=
200910091400 METAR LPPR 091400Z 32008KT 270V350 9999 FEW015 SCT040 BKN200
                        20/15 Q1021=
200910091330 METAR LPPR 091330Z 31009KT 9999 FEW015 BKN040 20/16 Q1021=
200910091300 METAR LPPR 091300Z 31008KT 270V350 9999 SCT015 BKN035 20/16
                        Q1021=
200910091230 METAR LPPR 091230Z 29006KT 260V330 9999 SCT015 BKN035 20/16
                        Q1021=
200910091200 METAR LPPR 091200Z 28004KT 250V310 9999 SCT013 SCT040 20/16
                        Q1021=
200910091130 METAR LPPR 091130Z 28005KT 9999 SCT015 BKN040 19/17 Q1021=
200910091100 METAR LPPR 091100Z VRB03KT 9999 SCT015 BKN040 20/16 Q1022=
200910091030 METAR LPPR 091030Z VRB02KT 9999 SCT015 BKN040 19/16 Q1022=
200910091000 METAR LPPR 091000Z 00000KT 9999 FEW017 BKN040 19/16 Q1021=
200910090930 METAR LPPR 090930Z VRB03KT 9999 FEW017 BKN040 18/16 Q1021=
200910090900 METAR LPPR 090900Z VRB03KT 9999 FEW017 BKN035 18/17 Q1021=
200910090830 METAR LPPR 090830Z 00000KT 8000 FEW017 BKN035 17/17 Q1021=
200910090800 METAR LPPR 090800Z VRB02KT 8000 FEW017 BKN035 17/17 Q1021=
200910090730 METAR LPPR 090730Z 00000KT 8000 SCT020 BKN035 17/17 Q1021=
200910090700 METAR LPPR 090700Z VRB02KT 8000 FEW008 SCT020 BKN035 17/17
                        Q1020=
200910090630 METAR LPPR 090630Z 00000KT 8000 -RA SCT016 BKN025 16/16 Q1020=
200910090600 METAR LPPR 090600Z VRB02KT 9999 BKN020 BKN030 16/16 Q1020=
200910090530 METAR COR LPPR 090530Z 00000KT 9999 SCT020 BKN035 16/16 Q1020=
200910090500 METAR LPPR 090500Z 00000KT 9999 BKN030 16/16 Q1020=
200910090430 METAR LPPR 090430Z 00000KT 9999 BKN030 16/16 Q1019=
200910090400 METAR LPPR 090400Z 00000KT 9999 BKN030 17/17 Q1019=
200910090330 METAR LPPR 090330Z 35002KT 9999 BKN025 16/16 Q1019=
200910090300 METAR LPPR 090300Z 00000KT 9999 BKN030 16/16 Q1019=
200910090230 METAR LPPR 090230Z 00000KT 9999 BKN025 17/16 Q1019=
200910090200 METAR LPPR 090200Z 00000KT 9999 BKN025 17/16 Q1019=
200910090130 METAR LPPR 090130Z 12004KT 9999 SCT025 17/17 Q1019=
200910090100 METAR LPPR 090100Z 11003KT 9999 SCT025 17/16 Q1019=
200910090030 METAR LPPR 090030Z 11003KT 9999 SCT025 17/17 Q1019=
200910090000 METAR LPPR 090000Z 11003KT 9999 SCT025 17/17 Q1019=
200910082330 METAR LPPR 082330Z 00000KT 9999 BKN025 17/17 Q1020=
200910082300 METAR LPPR 082300Z 00000KT 9999 BKN020 17/17 Q1020=
200910082230 METAR LPPR 082230Z 00000KT 9999 SCT020 17/17 Q1020=
200910082200 METAR LPPR 082200Z 00000KT 9999 SCT020 17/16 Q1020=
200910082130 METAR LPPR 082130Z 00000KT 9999 SCT020 17/16 Q1019=
200910082100 METAR LPPR 082100Z 00000KT 9999 SCT020 17/16 Q1019=
200910082030 METAR LPPR 082030Z 00000KT 9999 FEW015 17/16 Q1019=
200910082000 METAR LPPR 082000Z 00000KT 9999 FEW015 17/16 Q1019=
200910081930 METAR LPPR 081930Z 00000KT 9999 FEW015 18/16 Q1019=
200910081900 METAR LPPR 081900Z VRB03KT 9999 FEW015 18/17 Q1019=
200910081830 METAR LPPR 081830Z 32003KT 9999 FEW013 18/17 Q1019=
200910081800 METAR LPPR 081800Z 32005KT 280V340 9999 SCT013 19/17 Q1019=
200910081730 METAR LPPR 081730Z 29005KT 250V050 9999 SCT013 20/17 Q1018=
200910081700 METAR LPPR 081700Z 30005KT 250V340 9999 BKN012 20/17 Q1018=
200910081630 METAR LPPR 081630Z 28005G17KT 240V010 9999 SCT018 20/17 Q1018=
200910081600 METAR LPPR 081600Z 27006G17KT 240V310 9999 SCT018 21/17 Q1018=
200910081530 METAR LPPR 081530Z 28007G18KT 220V320 9999 SCT018 21/16 Q1018=
200910081500 METAR LPPR 081500Z 27005G16KT 210V310 9999 SCT018 21/17 Q1018=
200910081430 METAR LPPR 081430Z 28006KT 240V320 9999 FEW018 21/16 Q1018=
200910081400 METAR LPPR 081400Z 28006KT 230V330 9999 SCT018 21/17 Q1018=
200910081330 METAR LPPR 081330Z 28007KT 240V330 9999 SCT015 21/16 Q1018=
200910081300 METAR LPPR 081300Z 29007KT 250V310 9999 FEW015 21/16 Q1018=
200910081230 METAR LPPR 081230Z 29006KT 220V320 9999 SCT015 21/17 Q1018=
200910081200 METAR LPPR 081200Z 27005KT 210V300 9999 BKN015 20/17 Q1018=
200910081130 METAR LPPR 081130Z 28005KT 250V320 9999 FEW008 BKN015 20/17
                        Q1018=
200910081100 METAR LPPR 081100Z 28004KT 240V330 9999 FEW008 BKN015 20/18
                        Q1018=
200910081030 METAR LPPR 081030Z 28004KT 230V320 9999 SCT010 FEW015TCU
                        20/18 Q1018=
200910081000 METAR LPPR 081000Z 27005KT 9999 SCT010 FEW015TCU 20/17 Q1018=
200910080930 METAR LPPR 080930Z VRB04G14KT 9999 SCT010 FEW015TCU 19/19
                        Q1018=
200910080900 METAR LPPR 080900Z VRB03KT 9999 SCT010 FEW015TCU 19/19 Q1017=
200910080830 METAR LPPR 080830Z VRB03KT 9999 SCT004 SCT015 18/18 Q1017=
200910080800 METAR LPPR 080800Z 00000KT 9999 SCT007 18/18 Q1017=
200910080730 METAR LPPR 080730Z 00000KT 9999 FEW006 SCT025 18/18 Q1016=
200910080700 METAR LPPR 080700Z 00000KT 9999 SCT007 18/18 Q1016=
200910080630 METAR LPPR 080630Z 00000KT 9999 FEW006 SCT015 18/18 Q1015=
200910080600 METAR LPPR 080600Z VRB03KT 9999 SCT005 BKN015 18/18 Q1015=
200910080530 METAR LPPR 080530Z VRB03KT 9999 SCT006 BKN012 18/18 Q1015=
200910080500 METAR LPPR 080500Z VRB03KT 9000 SCT005 BKN013 18/18 Q1015=
200910080430 METAR LPPR 080430Z 16005KT 6000 -SHRA SCT006 SCT012 18/18
                        Q1015=
200910080400 METAR LPPR 080400Z VRB02KT 8000 SCT005 BKN009 17/17 Q1014=
200910080330 METAR LPPR 080330Z 14003KT 7000 FEW004 SCT008 17/17 Q1014=
200910080300 METAR LPPR 080300Z 16002KT 6000 FEW004 SCT250 17/17 Q1014=
200910080230 METAR LPPR 080230Z 00000KT 5000 BR FEW013 SCT250 17/17 Q1014=
200910080200 METAR LPPR 080200Z 00000KT 5000 BR FEW012 SCT040 18/17 Q1014=
200910080130 METAR LPPR 080130Z 00000KT 6000 FEW012 SCT040 18/18 Q1014=
200910080100 METAR LPPR 080100Z 00000KT 9999 FEW006 SCT015 BKN050 18/18
                        Q1014=
200910080030 METAR LPPR 080030Z VRB03KT 9999 FEW005 SCT015 BKN060 19/18
                        Q1014=
200910080000 METAR LPPR 080000Z VRB03KT 9999 SCT004 SCT015 BKN030 19/18
                        Q1014=
200910072330 METAR LPPR 072330Z 23004KT 200V260 9999 FEW006 SCT012 BKN027
                        19/18 Q1014=
200910072300 METAR LPPR 072300Z 22005KT 9999 FEW007 SCT015 BKN025 19/18
                        Q1014=
200910072230 METAR LPPR 072230Z 21007KT 190V250 8000 FEW004 SCT012 BKN020
                        19/18 Q1014=
200910072200 METAR LPPR 072200Z 21007KT 6000 SCT002 SCT004 20/19 Q1014=
200910072130 METAR LPPR 072130Z 20007KT 5000 BR SCT002 BKN004 20/20 Q1013=
200910072100 METAR LPPR 072100Z 21007KT 180V250 5000 SCT002 BKN004 20/19
                        Q1013=
200910072030 METAR LPPR 072030Z 21008KT 170V240 8000 SCT003 BKN006 20/20
                        Q1013=
200910072000 METAR LPPR 072000Z 20008KT 9999 SCT004 SCT012 20/19 Q1013=
200910071930 METAR LPPR 071930Z 22009KT 9999 SCT007 BKN013 20/19 Q1013=
200910071900 METAR LPPR 071900Z 20008KT 8000 SCT008 SCT015 20/19 Q1013=
200910071830 METAR LPPR 071830Z 20010KT 8000 FEW003 SCT007 BKN015 20/19
                        Q1012=
200910071800 METAR LPPR 071800Z 19013KT 8000 SCT003 SCT007 BKN015 20/19
                        Q1012=
200910071730 METAR LPPR 071730Z 19014KT 9000 FEW004 SCT008 FEW020TCU 21/19
                        Q1012=
200910071700 METAR LPPR 071700Z 19013KT 9999 SCT007 BKN013 FEW020TCU 21/19
                        Q1012=
200910071630 METAR LPPR 071630Z 19012KT 9999 SCT007 BKN015 21/19 Q1012=
200910071600 METAR LPPR 071600Z 19015KT 9999 SCT007 BKN015 21/19 Q1012
                        WS ALL RWY=
200910071530 METAR LPPR 071530Z 19015KT 9999 SCT007 BKN015 22/19 Q1012
                        WS ALL RWY=
200910071500 METAR LPPR 071500Z 20016KT 9999 SCT007 BKN012 22/19 Q1012
                        WS ALL RWY=
200910071430 METAR LPPR 071430Z 19018KT 9999 SCT008 BKN015 21/19 Q1012
                        WS ALL RWY=
200910071400 METAR LPPR 071400Z 19021KT 9999 SCT008 BKN015 21/19 Q1012
                        WS ALL RWY=
200910071330 METAR LPPR 071330Z 19022KT 9999 SCT013 BKN017 22/19 Q1012
                        WS ALL RWY=
200910071300 METAR LPPR 071300Z 18024G37KT 9999 FEW013 SCT020 BKN025 21/19
                        Q1012 WS ALL RWY=
200910071230 METAR LPPR 071230Z 18025G37KT 9999 FEW009 SCT015 BKN040 21/19
                        Q1012 WS ALL RWY=
200910071200 METAR LPPR 071200Z 18023G33KT 9999 SCT006 BKN015 21/19 Q1012
                        WS ALL RWY=
200910071130 METAR LPPR 071130Z 18019KT 9999 SCT006 BKN015 21/20 Q1012
                        WS ALL RWY=
200910071100 METAR LPPR 071100Z 18019KT 9999 BKN005 SCT015 21/19 Q1012=
200910071030 METAR LPPR 071030Z 18019KT 9999 SCT005 BKN015 21/20 Q1012=
200910071000 METAR LPPR 071000Z 19017KT 9999 SCT005 BKN015 21/20 Q1012=
200910070930 METAR LPPR 070930Z 18016KT 9000 SCT005 BKN015 21/20 Q1012=
200910070900 METAR LPPR 070900Z 19014KT 9000 SCT004 BKN015 21/20 Q1011=
200910070830 METAR LPPR 070830Z 18014KT 8000 BKN004 SCT015 20/20 Q1011=
200910070800 METAR LPPR 070800Z 19011KT 8000 SCT004 BKN007 20/20 Q1011=
200910070730 METAR LPPR 070730Z 19011KT 8000 SCT004 BKN007 20/19 Q1011=
200910070700 METAR LPPR 070700Z 18013KT 8000 SCT004 BKN007 20/19 Q1011=
200910070630 METAR LPPR 070630Z 17011KT 9999 SCT004 BKN008 19/19 Q1010=
200910070600 METAR LPPR 070600Z 15008KT 9999 SCT007 BKN015 19/19 Q1011=
200910070530 METAR LPPR 070530Z 16011KT 140V200 9999 SCT015 BKN025 18/18
                        Q1011=
200910070500 METAR LPPR 070500Z 17012KT 9999 FEW008 FEW020CB SCT040 18/17
                        Q1010=
200910070430 METAR LPPR 070430Z 17013KT 9000 -TSRA SCT012 SCT020TCU BKN035
                        18/18 Q1010=
200910070400 METAR LPPR 070400Z 18017KT 8000 -TSRA SCT015 SCT020CB BKN070
                        18/18 Q1011=
200910070330 METAR LPPR 070330Z 18015KT 9000 -TSRA SCT017 SCT020CB BKN100
                        18/17 Q1010=
200910070300 METAR LPPR 070300Z 19021G32KT 8000 -TSRA FEW008 SCT017 SCT020CB
                        19/17 Q1009 RETS=
200910070230 METAR LPPR 070230Z 17023KT 7000 TSRA SCT008 SCT017 SCT020CB
                        20/19 Q1010=
200910070200 METAR LPPR 070200Z 17018KT 7000 TSRA SCT008 SCT017 SCT020CB
                        21/20 Q1010=
200910070130 METAR LPPR 070130Z 15016G27KT 7000 TSRA SCT008 SCT015 SCT020CB
                        21/19 Q1011 WS ALL RWY=
200910070100 METAR LPPR 070100Z 14009KT 9999 FEW008 SCT017 FEW020CB BKN040
                        20/18 Q1011=
200910070030 METAR LPPR 070030Z 14011KT 9999 SCT017 FEW020CB BKN070 19/18
                        Q1011=
200910070000 METAR LPPR 070000Z 13010KT 9999 SCT017 FEW020CB SCT045 BKN070
                        19/18 Q1012 RETS=
200910062330 METAR LPPR 062330Z 13007KT 9999 FEW017 FEW020CB BKN060 19/17
                        Q1012=
200910062300 METAR LPPR 062300Z 15010KT 9999 FEW017 FEW020CB BKN100 19/17
                        Q1012=
200910062230 METAR LPPR 062230Z 15018KT 8000 -SHRA SCT017 FEW020CB BKN100
                        19/18 Q1013=
200910062200 METAR LPPR 062200Z 17016KT 9999 FEW017 FEW020CB BKN200 20/18
                        Q1013=
200910062130 METAR LPPR 062130Z 17018KT 9999 SCT017 FEW020CB BKN100 20/19
                        Q1013=
200910062100 METAR LPPR 062100Z 18013KT 9999 FEW008 SCT017 FEW020CB 20/19
                        Q1012 WS ALL RWY=
200910062030 METAR LPPR 062030Z 17020G30KT 9999 FEW008 SCT017 FEW025CB
                        BKN070 20/20 Q1011 RETS=
200910062000 METAR LPPR 062000Z 18019KT 7000 -TSRA SCT008 SCT017 FEW020CB
                        BKN070 21/20 Q1011=
200910061930 METAR LPPR 061930Z 18019KT 8000 SCT008 FEW017TCU BKN070 21/20
                        Q1012=
200910061900 METAR LPPR 061900Z 17018KT 9999 SCT008 SCT015 BKN030 21/20
                        Q1011=
200910061830 METAR LPPR 061830Z 17018KT 8000 SCT007 SCT015 FEW017TCU 21/20
                        Q1012=
200910061800 METAR LPPR 061800Z 18018KT 8000 SCT007 SCT015 FEW017TCU 21/20
                        Q1012=
200910061730 METAR LPPR 061730Z 18018KT 8000 SCT007 SCT013 FEW017TCU 22/20
                        Q1012=
200910061700 METAR LPPR 061700Z 18017KT 9999 BKN007 SCT013 FEW015TCU 22/20
                        Q1012=
200910061630 METAR LPPR 061630Z 17017KT 9999 SCT006 SCT013 FEW017CB BKN090
                        22/21 Q1012=
200910061600 METAR LPPR 061600Z 17017KT 9999 SCT006 SCT013 FEW017CB 22/21
                        Q1012=
200910061530 METAR LPPR 061530Z 16015KT 7000 -SHRA SCT006 SCT015 FEW017CB
                        23/21 Q1012=
200910061500 METAR LPPR 061500Z 17016KT 8000 FEW008 SCT015 FEW017CB BKN200
                        22/21 Q1012=
200910061430 METAR LPPR 061430Z 18015KT 8000 -SHRA BR SCT008 SCT015 FEW017CB
                        BKN025 22/21 Q1013 RERA WS ALL RWY=
200910061400 METAR LPPR 061400Z 17009KT 3000 -SHRA BR SCT005 SCT015 FEW017CB
                        24/20 Q1012=
200910061330 METAR LPPR 061330Z 17011KT 9999 SCT015 FEW017CB BKN025 23/21
                        Q1013=
200910061300 METAR LPPR 061300Z 18012KT 9999 SCT013 FEW017CB BKN025 22/20
                        Q1013=
200910061230 METAR LPPR 061230Z 18017KT 9999 SCT013 FEW017CB BKN025 23/20
                        Q1013=
200910061200 METAR LPPR 061200Z 18017KT 9999 SCT013 FEW017CB SCT025 22/21
                        Q1013=
200910061130 METAR LPPR 061130Z 18013KT 7000 -SHRA SCT013 FEW017TCU BKN020
                        21/20 Q1014=
200910061100 METAR LPPR 061100Z 17016G27KT 9999 SCT013 BKN025 23/19 Q1014=
200910061030 METAR LPPR 061030Z 17017KT 9999 SCT013 BKN025 22/20 Q1014=
200910061000 METAR LPPR 061000Z 18017KT 8000 -SHRA FEW013 BKN030 BKN080
                        23/19 Q1014=
200910060930 METAR LPPR 060930Z 17017KT 9999 FEW013 BKN035 BKN070 23/19
                        Q1014=
200910060900 METAR LPPR 060900Z 17017KT 9999 FEW013 BKN035 23/20 Q1014=
200910060830 METAR LPPR 060830Z 17014KT 9999 SCT013 BKN035 22/19 Q1014=
200910060800 METAR LPPR 060800Z 17015KT 9999 SCT013 BKN035 21/19 Q1013=
200910060730 METAR LPPR 060730Z 17016KT 9999 SCT013 BKN050 21/19 Q1013=
200910060700 METAR LPPR 060700Z 17015KT 9999 FEW009 SCT013 BKN060 21/19
                        Q1013=
200910060630 METAR LPPR 060630Z 17016KT 9999 FEW009 SCT013 BKN060 21/19
                        Q1013=
200910060600 METAR LPPR 060600Z 17017KT 9999 FEW009 SCT015 BKN060 21/20
                        Q1013=
200910060530 METAR LPPR 060530Z 18018KT 9999 SCT009 SCT013 BKN060 21/19
                        Q1013=
200910060500 METAR LPPR 060500Z 17016KT 9999 SCT009 BKN012 21/20 Q1013=
200910060430 METAR LPPR 060430Z 17015KT 9999 SCT009 BKN013 21/20 Q1012=
200910060400 METAR LPPR 060400Z 17012KT 9999 SCT009 BKN013 20/19 Q1012=
200910060330 METAR LPPR 060330Z 16013KT 8000 SCT009 SCT015 BKN025 20/19
                        Q1012=
200910060300 METAR LPPR 060300Z 17013KT 8000 SCT008 SCT012 BKN025 20/19
                        Q1013=
200910060230 METAR LPPR 060230Z 17014KT 8000 SCT008 SCT012 BKN025 20/19
                        Q1013=
200910060200 METAR LPPR 060200Z 17015KT 8000 SCT007 SCT012 BKN025 20/20
                        Q1013=
200910060130 METAR LPPR 060130Z 17014KT 8000 SCT004 SCT012 BKN025 20/20
                        Q1013=
200910060100 METAR LPPR 060100Z 17015KT 7000 -RA SCT004 SCT012 BKN025
                        20/20 Q1013=
200910060030 METAR LPPR 060030Z 17015KT 7000 -RA SCT004 SCT015 BKN025
                        20/19 Q1013=
200910060000 METAR LPPR 060000Z 18018KT 8000 SCT012 FEW020CB BKN025 20/20
                        Q1013=
200910052330 METAR LPPR 052330Z 17013KT 8000 SCT012 FEW020CB BKN025 21/19
                        Q1012=
200910052300 METAR LPPR 052300Z 16014KT 8000 SCT012 FEW020CB BKN025 20/19
                        Q1013=
200910052230 METAR LPPR 052230Z 16014KT 8000 SCT012 FEW020CB BKN025 20/19
                        Q1012=
200910052200 METAR LPPR 052200Z 15012KT 8000 -SHRA FEW007 SCT015 FEW020CB
                        BKN030 19/19 Q1013=
200910052130 METAR LPPR 052130Z 16017KT 7000 -SHRA FEW004 SCT015 FEW020CB
                        BKN030 19/18 Q1013 RERA=
200910052100 METAR LPPR 052100Z 16017KT 130V190 8000 -RA FEW008 SCT015
                        BKN025 19/18 Q1012=
200910052030 METAR LPPR 052030Z 17015G28KT 8000 -RA FEW008 SCT015 BKN025
                        20/19 Q1012=
200910052000 METAR LPPR 052000Z 15013KT 8000 -RA SCT008 SCT015 BKN025
                        20/19 Q1012=
200910051930 METAR LPPR 051930Z 14011KT 8000 FEW009 SCT015 BKN070 20/19
                        Q1012=
200910051900 METAR LPPR 051900Z 16014KT 8000 FEW009 SCT015 BKN070 20/19
                        Q1012=
200910051830 METAR LPPR 051830Z 17017KT 7000 -RA SCT008 SCT013 BKN025
                        20/20 Q1012=
200910051800 METAR LPPR 051800Z 16013KT 6000 -RA SCT006 SCT012 BKN025
                        20/20 Q1012=
200910051730 METAR LPPR 051730Z 16014KT 7000 -RA SCT005 SCT015 BKN035
                        20/20 Q1011=
200910051700 METAR LPPR 051700Z 17014KT 4000 -RA BR SCT002 SCT005 BKN013
                        20/20 Q1012=
200910051630 METAR LPPR 051630Z 18020KT 2500 RA BR SCT001 SCT003 BKN006
                        20/20 Q1012=
200910051600 METAR LPPR 051600Z 19017G27KT 2500 RA BR SCT002 BKN005 20/19
                        Q1011=
200910051530 METAR LPPR 051530Z 19015KT 3500 RA BR SCT007 SCT013 BKN030
                        21/19 Q1011=
200910051500 METAR LPPR 051500Z 17010KT 9999 FEW015 BKN035 23/18 Q1011=
200910051430 METAR LPPR 051430Z 16009KT 9999 FEW015 BKN035 BKN070 23/18
                        Q1011=
200910051400 METAR LPPR 051400Z 16012KT 9999 FEW015 SCT030 BKN040 22/19
                        Q1011=
200910051330 METAR LPPR 051330Z 17012KT 9999 SCT015 BKN030 22/18 Q1012=
200910051300 METAR LPPR 051300Z 18011KT 9999 FEW015 BKN030 23/17 Q1012=
200910051230 METAR LPPR 051230Z 19009KT 160V220 8000 FEW015 BKN030 23/17
                        Q1012=
200910051200 METAR LPPR 051200Z 17012KT 140V200 9999 FEW015 BKN035 23/17
                        Q1012=
200910051130 METAR LPPR 051130Z 17013KT 9999 SCT015 BKN035 23/17 Q1013=
200910051100 METAR LPPR 051100Z 17013KT 9999 SCT015 FEW020CB BKN030 23/18
                        Q1013=
200910051030 METAR LPPR 051030Z 17012KT 8000 VCSH SCT015 FEW020CB BKN025
                        22/19 Q1013=
200910051000 METAR LPPR 051000Z 17014KT 9999 SCT015 BKN025 22/19 Q1013=
200910050930 METAR LPPR 050930Z 17011KT 9999 SCT015 BKN022 22/19 Q1013=
200910050900 METAR LPPR 050900Z 16010KT 9999 SCT013 BKN020 22/19 Q1013=
200910050830 METAR LPPR 050830Z 16008KT 9999 SCT015 BKN025 21/19 Q1013=
200910050800 METAR LPPR 050800Z 16007KT 9999 SCT017 BKN030 21/19 Q1013=
200910050730 METAR LPPR 050730Z 15003KT 9999 SCT017 BKN030 20/19 Q1013=
200910050700 METAR LPPR 050700Z 14005KT 8000 -RA SCT015 BKN025 20/19 Q1013=
200910050630 METAR LPPR 050630Z 14006KT 100V160 9999 SCT015 BKN030 20/19
                        Q1013=
200910050600 METAR LPPR 050600Z 14007KT 9999 SCT008 SCT015 BKN035 20/19
                        Q1013=
200910050530 METAR LPPR 050530Z 14006KT 9999 SCT008 SCT015 BKN035 20/19
                        Q1013=
200910050500 METAR LPPR 050500Z 14007KT 9999 SCT008 SCT015 BKN040 20/19
                        Q1013=
200910050430 METAR LPPR 050430Z 15009KT 9999 SCT007 SCT015 BKN060 20/20
                        Q1013=
200910050400 METAR LPPR 050400Z 16010KT 9999 SCT007 SCT015 BKN070 20/19
                        Q1013=
200910050330 METAR LPPR 050330Z 14010KT 9999 SCT008 SCT012 BKN080 20/19
                        Q1013=
200910050300 METAR LPPR 050300Z 16010KT 8000 SCT007 SCT012 BKN080 20/19
                        Q1013=
200910050230 METAR LPPR 050230Z 16011KT 9999 SCT008 SCT012 BKN080 20/19
                        Q1013=
200910050200 METAR LPPR 050200Z 16010KT 9999 FEW009 SCT012 BKN080 20/19
                        Q1014=
200910050130 METAR LPPR 050130Z 16010KT 9999 FEW008 SCT014 BKN080 20/19
                        Q1014=
200910050100 METAR LPPR 050100Z 17009KT 9999 SCT014 SCT020 BKN080 20/19
                        Q1014=
200910050030 METAR LPPR 050030Z 17009KT 9999 FEW014 SCT020 BKN080 20/19
                        Q1014=
200910050000 METAR LPPR 050000Z 17008KT 9999 SCT014 SCT020 BKN080 20/19
                        Q1014=
200910042330 METAR LPPR 042330Z VRB03KT 9999 SCT020 BKN080 20/20 Q1015=
200910042300 METAR LPPR 042300Z VRB03KT 9999 SCT022 BKN080 BKN200 20/19
                        Q1015=
200910042230 METAR LPPR 042230Z 13004KT 9999 SCT045 BKN080 20/19 Q1015=
200910042200 METAR LPPR 042200Z 11004KT 080V140 8000 FEW012 SCT040 BKN080
                        20/19 Q1015=
200910042130 METAR LPPR 042130Z 13008KT 090V160 8000 -RA BR SCT008 SCT035
                        BKN080 20/19 Q1015=
200910042100 METAR LPPR 042100Z 13005KT 100V160 7000 -RA BR SCT008 SCT035
                        BKN070 20/19 Q1015 RERA=
200910042030 METAR LPPR 042030Z 13006KT 6000 RA BR SCT007 SCT035 BKN070
                        20/20 Q1015=
200910042000 METAR LPPR 042000Z 14005KT 7000 RA BR SCT005 SCT015 BKN030
                        20/20 Q1015=
200910041930 METAR LPPR 041930Z 15004KT 110V190 8000 -RA SCT005 SCT015
                        BKN030 20/19 Q1015=
200910041900 METAR LPPR 041900Z 17005KT 7000 RA BR SCT004 BKN007 BKN030
                        19/19 Q1015=
200910041830 METAR COR LPPR 041830Z 18007KT 7000 -RA BR SCT004 SCT007
                        BKN030 19/19 Q1015=
200910041800 METAR LPPR 041800Z 22004KT 190V270 7000 -RA BR FEW015 BKN050
                        BKN070 20/19 Q1015=
200910041730 METAR LPPR 041730Z 22008KT 190V250 8000 -RA SCT015 SCT025
                        BKN060 21/19 Q1014=
200910041700 METAR LPPR 041700Z 21007KT 180V250 9000 -RA SCT015 BKN020
                        BKN080 21/19 Q1014=
200910041630 METAR LPPR 041630Z 21009KT 9999 SCT015 SCT020 BKN090 22/19
                        Q1014=
200910041600 METAR LPPR 041600Z 20009KT 9999 SCT015 BKN100 BKN200 22/19
                        Q1014=
200910041530 METAR LPPR 041530Z 20008KT 160V240 9999 FEW015 BKN100 BKN200
                        23/19 Q1014=
200910041500 METAR LPPR 041500Z 22008KT 190V260 9999 FEW015 BKN100 BKN200
                        23/19 Q1014=
200910041430 METAR LPPR 041430Z 21009KT 9999 FEW015 SCT100 BKN200 23/19
                        Q1015=
200910041400 METAR LPPR 041400Z 21009KT 180V240 9999 SCT015 SCT100 BKN200
                        23/19 Q1015=
200910041330 METAR LPPR 041330Z 22011KT 9999 SCT015 BKN100 BKN200 23/19
                        Q1015=
200910041300 METAR LPPR 041300Z 20011KT 9999 FEW015 BKN090 BKN200 24/19
                        Q1015=
200910041230 METAR LPPR 041230Z 20011KT 9999 FEW015 BKN080 24/19 Q1015=
200910041200 METAR LPPR 041200Z 20011KT 9999 SCT012 SCT080 23/19 Q1016=
200910041130 METAR LPPR 041130Z 20011KT 180V240 9999 SCT012 SCT080 24/19
                        Q1016=
200910041100 METAR LPPR 041100Z 19011KT 9999 SCT020 SCT080 24/19 Q1016=
200910041030 METAR LPPR 041030Z 19011KT 9999 SCT020 SCT080 24/19 Q1016=
200910041000 METAR LPPR 041000Z 19010KT 9999 FEW020 SCT080 24/19 Q1016=
200910040930 METAR LPPR 040930Z 17008KT 140V200 8000 SCT025 SCT080 23/19
                        Q1016=
200910040900 METAR LPPR 040900Z 16006KT 8000 SCT020 SCT080 22/20 Q1016=
200910040830 METAR LPPR 040830Z 15004KT 8000 BKN020 SCT080 21/20 Q1016=
200910040800 METAR LPPR 040800Z 00000KT 7000 BKN020 SCT080 20/20 Q1016=
200910040730 METAR LPPR 040730Z 00000KT 6000 SCT018 SCT040 BKN080 20/20
                        Q1016=
200910040700 METAR LPPR 040700Z 00000KT 5000 BR BKN040 SCT080 20/19 Q1016=
200910040630 METAR LPPR 040630Z VRB03KT 5000 BR BKN040 SCT080 20/19 Q1016=
200910040600 METAR LPPR 040600Z 17004KT 5000 BR FEW008 SCT040 BKN080 20/20
                        Q1016=
200910040530 METAR LPPR 040530Z 17005KT 5000 BR FEW008 SCT040 BKN080 20/20
                        Q1016=
200910040500 METAR LPPR 040500Z 21004KT 5000 BR FEW008 BKN040 20/20 Q1016=
200910040430 METAR LPPR 040430Z 00000KT 5000 BR FEW008 BKN040 20/20 Q1016=
200910040400 METAR LPPR 040400Z 00000KT 5000 BR FEW008 BKN040 20/20 Q1016=
200910040330 METAR LPPR 040330Z VRB03KT 5000 BR SCT008 BKN080 20/20 Q1016=
200910040300 METAR LPPR 040300Z 17004KT 5000 BR SCT005 BKN008 20/20 Q1016=
200910040230 METAR LPPR 040230Z 18005KT 5000 BR FEW005 BKN006 20/20 Q1017=
200910040200 METAR LPPR 040200Z 17005KT 5000 BR SCT002 BKN005 20/20 Q1017=
200910040130 METAR LPPR 040130Z 17007KT 4000 BR SCT002 BKN005 20/20 Q1018=
200910040100 METAR LPPR 040100Z 17007KT 4000 BR SCT002 BKN005 20/20 Q1018=
200910040030 METAR LPPR 040030Z 17008KT 5000 -DZRA SCT003 BKN006 20/20
                        Q1018=
200910040000 METAR LPPR 040000Z 20006KT 8000 BKN007 21/19 Q1018=
200910032330 METAR LPPR 032330Z 19008KT 8000 BKN006 21/20 Q1018=
200910032300 METAR LPPR 032300Z 18008KT 9999 BKN007 21/20 Q1018=
200910032230 METAR LPPR 032230Z 18006KT 9999 BKN006 21/20 Q1018=
200910032200 METAR LPPR 032200Z 16006KT 9999 SCT007 BKN070 21/20 Q1018=
200910032130 METAR LPPR 032130Z 16006KT 9999 FEW012 BKN070 21/20 Q1018=
200910032100 METAR LPPR 032100Z 16005KT 9999 FEW012 BKN070 21/19 Q1019=
200910032030 METAR LPPR 032030Z 17007KT 9999 SCT005 BKN009 21/19 Q1018=
200910032000 METAR LPPR 032000Z 18006KT 8000 SCT005 BKN009 21/19 Q1018=
200910031930 METAR LPPR 031930Z 17006KT 8000 SCT006 BKN009 21/18 Q1018=
200910031900 METAR LPPR 031900Z 18007KT 8000 SCT007 SCT015 BKN070 21/18
                        Q1018=
200910031830 METAR LPPR 031830Z 19005KT 160V220 9999 SCT007 SCT015 BKN070
                        22/17 Q1018=
200910031800 METAR LPPR 031800Z 17005KT 9999 FEW009 SCT015 BKN070 22/17
                        Q1018=
200910031730 METAR LPPR 031730Z 20004KT 170V230 9999 FEW009 SCT015 BKN070
                        21/16 Q1018=
200910031700 METAR LPPR 031700Z 22006KT 9999 SCT015 BKN070 22/15 Q1018=
200910031630 METAR LPPR 031630Z 20005KT 150V220 9999 FEW015 SCT025 BKN070
                        22/15 Q1018=
200910031600 METAR LPPR 031600Z 21006KT 180V240 9999 FEW015 SCT030 BKN080
                        23/13 Q1018=
200910031530 METAR LPPR 031530Z 21004KT 150V260 9999 FEW015 SCT030 BKN080
                        23/12 Q1018=
200910031500 METAR LPPR 031500Z 20005KT 170V250 9999 FEW015 SCT030 BKN080
                        23/11 Q1018=
200910031430 METAR LPPR 031430Z 23005KT 180V260 8000 FEW015 SCT040 BKN080
                        24/11 Q1019=
200910031400 METAR LPPR 031400Z 22008KT 190V260 7000 FEW015 SCT040 BKN080
                        23/13 Q1019=
200910031330 METAR LPPR 031330Z 21005KT 170V250 7000 FEW035 SCT080 22/14
                        Q1019=
200910031300 METAR LPPR 031300Z 23008KT 200V260 8000 FEW090 BKN250 23/14
                        Q1019=
200910031230 METAR LPPR 031230Z 20008KT 160V230 CAVOK 25/09 Q1019=
200910031200 METAR LPPR 031200Z 21004KT 160V280 8000 SCT090 BKN250 24/13
                        Q1019=
200910031130 METAR LPPR 031130Z 19005KT 130V270 6000 SCT090 BKN250 24/11
                        Q1019=
200910031100 METAR LPPR 031100Z 15005KT 100V180 6000 SCT090 BKN250 22/11
                        Q1019=
200910031030 METAR LPPR 031030Z VRB03KT 5000 HZ FEW090 BKN250 20/12 Q1020=
200910031000 METAR LPPR 031000Z VRB03KT 5000 BR FEW090 BKN250 19/13 Q1020=
200910030930 METAR LPPR 030930Z 13004KT 090V160 5000 BR FEW007 BKN250
                        18/13 Q1020=
200910030900 METAR LPPR 030900Z 11004KT 080V160 5000 BR FEW006 BKN250
                        17/13 Q1020=
200910030830 METAR LPPR 030830Z 11004KT 070V140 4000 BR FEW004 SCT007
                        BKN250 15/14 Q1020=
200910030800 METAR LPPR 030800Z VRB03KT 2500 BR BKN003 BKN006 15/14 Q1020=
200910030730 METAR LPPR 030730Z 15005KT 100V180 2000 BR BKN002 BKN005
                        14/14 Q1020=
200910030700 METAR LPPR 030700Z VRB03KT 2000 BR BKN002 BKN004 14/14 Q1020=
200910030630 METAR LPPR 030630Z VRB03KT 2500 BR BKN002 BKN004 14/14 Q1020=
200910030600 METAR LPPR 030600Z 16004KT 100V210 3000 BR BKN002 BKN005
                        14/14 Q1020=
200910030530 METAR LPPR 030530Z VRB03KT 3000 BR BKN003 BKN005 14/14 Q1020=
200910030500 METAR LPPR 030500Z 17004KT 3000 BR SCT002 BKN004 14/14 Q1020=
200910030430 METAR LPPR 030430Z 11004KT 080V160 3000 BR SCT002 BKN004
                        14/14 Q1020=
200910030400 METAR LPPR 030400Z 12004KT 080V170 3000 BR SCT002 BKN004
                        15/14 Q1020=
200910030330 METAR LPPR 030330Z 11004KT 080V150 3000 BR SCT002 BKN005
                        15/14 Q1020=
200910030300 METAR LPPR 030300Z 00000KT 2000 BR SCT002 BKN005 15/14 Q1020=
200910030230 METAR LPPR 030230Z VRB03KT 1500 BR SCT002 BKN004 14/14 Q1020=
200910030200 METAR LPPR 030200Z VRB02KT 1500 BR SCT002 BKN004 15/15 Q1021=
200910030130 METAR LPPR 030130Z 00000KT 1500 BR SCT001 BKN003 15/15 Q1021=
200910030100 METAR LPPR 030100Z VRB02KT 2000 BR SCT001 BKN004 15/15 Q1021=
200910030030 METAR LPPR 030030Z 00000KT 2000 BR SCT001 BKN004 15/15 Q1021=
200910030000 METAR LPPR 030000Z 00000KT 2000 BR SCT002 BKN004 15/15 Q1021=
200910022330 METAR LPPR 022330Z 00000KT 2000 BR SCT002 BKN004 15/15 Q1021=
200910022300 METAR LPPR 022300Z 00000KT 1500 BR VCFG SCT001 BKN003 15/15
                        Q1021=
200910022230 METAR LPPR 022230Z 00000KT 1500 BR SCT001 BKN002 15/15 Q1021=
200910022200 METAR LPPR 022200Z VRB02KT 1500 BR SCT001 BKN003 15/15 Q1021=
200910022130 METAR LPPR 022130Z 32002KT 1500 BR SCT001 BKN003 14/14 Q1021=
200910022100 METAR LPPR 022100Z 00000KT 1500 BR FEW004 14/13 Q1021=
200910022030 METAR LPPR 022030Z 00000KT 1500 BR FEW005 14/14 Q1021=
200910022000 METAR LPPR 022000Z 00000KT 2000 BR FEW006 14/14 Q1020=
200910021930 METAR LPPR 021930Z 00000KT 2000 BR FEW006 15/14 Q1020=
200910021900 METAR LPPR 021900Z 00000KT 2000 BR FEW006 SCT250 15/14 Q1020=
200910021830 METAR LPPR 021830Z 35003KT 2000 BR FEW006 SCT250 15/14 Q1020=
200910021800 METAR LPPR 021800Z 32004KT 2000 BR FEW006 SCT250 16/15 Q1021=
200910021730 METAR LPPR 021730Z 33006KT 2000 BR FEW006 SCT250 16/15 Q1020=
200910021700 METAR LPPR 021700Z 31006KT 260V330 2000 BR FEW006 SCT250
                        17/15 Q1021=
200910021630 METAR LPPR 021630Z 31008KT 270V330 2000 BR FEW006 SCT250
                        17/15 Q1021=
200910021600 METAR LPPR 021600Z 30007KT 260V330 3000 BR BKN250 18/15 Q1021=
200910021530 METAR LPPR 021530Z 30008KT 260V010 3000 BR BKN250 19/15 Q1021=
200910021500 METAR LPPR 021500Z 28008KT 260V320 7000 FEW016 BKN250 19/15
                        Q1021=
200910021430 METAR LPPR 021430Z 31007KT 260V330 7000 FEW016 SCT250 20/15
                        Q1021=
200910021400 METAR LPPR 021400Z 28007KT 240V310 7000 FEW016 BKN250 19/15
                        Q1021=
200910021330 METAR LPPR 021330Z 28006KT 250V330 7000 FEW016 BKN250 19/15
                        Q1022=
200910021300 METAR LPPR 021300Z 27007KT 7000 FEW016 BKN250 20/15 Q1022=
200910021230 METAR LPPR 021230Z 27005KT 230V340 7000 FEW016 BKN250 19/15
                        Q1022=
200910021200 METAR LPPR 021200Z 28007KT 240V320 8000 SCT016 19/15 Q1022=
200910021130 METAR LPPR 021130Z 00000KT 7000 SCT012 BKN016 19/15 Q1022=
200910021100 METAR LPPR 021100Z 00000KT 6000 SCT009 BKN012 18/14 Q1022=
200910021030 METAR LPPR 021030Z 00000KT 5000 BR SCT009 BKN012 18/14 Q1022=
200910021000 METAR LPPR 021000Z VRB03KT 4000 BR SCT008 BKN012 17/14 Q1022=
200910020930 METAR LPPR 020930Z VRB02KT 4000 BR SCT007 BKN012 17/14 Q1022=
200910020900 METAR LPPR 020900Z 00000KT 4000 BR SCT007 BKN012 17/14 Q1022=
200910020830 METAR LPPR 020830Z 03003KT 2500 BR BKN009 BKN012 16/14 Q1022=
200910020800 METAR LPPR 020800Z 01003KT 2500 BR BKN009 BKN012 16/14 Q1022=
200910020730 METAR LPPR 020730Z 35002KT 2500 BR BKN008 BKN012 16/14 Q1021=
200910020700 METAR LPPR 020700Z 35002KT 3000 BR BKN008 BKN012 15/14 Q1021=
200910020630 METAR LPPR 020630Z 00000KT 4000 BR BKN008 BKN012 16/14 Q1021=
200910020600 METAR LPPR 020600Z 00000KT 4000 BR SCT008 BKN012 15/14 Q1021=
200910020530 METAR LPPR 020530Z 00000KT 3000 BR SCT008 BKN012 15/14 Q1021=
200910020500 METAR LPPR 020500Z 35003KT 3000 BR SCT008 BKN012 15/14 Q1021=
200910020430 METAR LPPR 020430Z 00000KT 3000 BR SCT007 BKN012 14/14 Q1021=
200910020400 METAR LPPR 020400Z 00000KT 3000 BR SCT007 BKN009 14/14 Q1021=
200910020330 METAR LPPR 020330Z 00000KT 3000 BR BKN007 BKN011 14/14 Q1021=
200910020300 METAR LPPR 020300Z 00000KT 4000 BR SCT007 BKN011 13/13 Q1021=
200910020230 METAR LPPR 020230Z 00000KT 4000 BR SCT006 SCT011 13/13 Q1021=
200910020200 METAR LPPR 020200Z 00000KT 4000 BR FEW006 13/12 Q1021=
200910020130 METAR LPPR 020130Z 00000KT 4000 BR FEW006 14/13 Q1021=
200910020100 METAR LPPR 020100Z 00000KT 5000 BR FEW009 14/13 Q1021=
200910020030 METAR LPPR 020030Z 00000KT 6000 FEW009 SCT013 14/13 Q1021=
200910020000 METAR LPPR 020000Z 00000KT 6000 FEW009 SCT012 15/14 Q1021=
200910012330 METAR LPPR 012330Z 00000KT 6000 FEW009 BKN012 16/14 Q1021=
200910012300 METAR LPPR 012300Z 00000KT 6000 SCT009 BKN012 16/14 Q1021=
200910012230 METAR LPPR 012230Z 00000KT 8000 FEW009 BKN013 17/14 Q1021=
200910012200 METAR LPPR 012200Z VRB03KT 8000 FEW009 BKN013 17/14 Q1021=
200910012130 METAR LPPR 012130Z 33004KT 310V040 8000 FEW009 BKN013 17/14
                        Q1021=
200910012100 METAR LPPR 012100Z 31003KT 8000 FEW009 BKN013 17/15 Q1021=
200910012030 METAR LPPR 012030Z 32003KT 7000 SCT009 BKN012 17/14 Q1021=
200910012000 METAR LPPR 012000Z 33004KT 7000 SCT009 BKN012 17/14 Q1021=
200910011930 METAR LPPR 011930Z 31004KT 280V340 7000 SCT009 BKN012 18/15
                        Q1021=
200910011900 METAR LPPR 011900Z VRB03KT 7000 BKN009 BKN012 18/15 Q1020=
200910011830 METAR LPPR 011830Z 26004G14KT 210V290 7000 BKN009 BKN012
                        18/15 Q1020=
200910011800 METAR LPPR 011800Z 25003G14KT 7000 BKN008 BKN011 18/15 Q1020=
200910011730 METAR LPPR 011730Z 28004KT 210V320 7000 SCT008 BKN012 18/15
                        Q1020=
200910011700 METAR LPPR 011700Z 28005KT 250V310 7000 SCT008 BKN012 19/15
                        Q1020=
200910011630 METAR LPPR 011630Z 23005KT 170V270 7000 FEW008 BKN012 19/16
                        Q1020=
200910011600 METAR LPPR 011600Z 28005G16KT 250V010 7000 FEW009 BKN012
                        20/16 Q1020=
200910011530 METAR LPPR 011530Z 25005KT 190V300 8000 BKN012 21/16 Q1020=
200910011500 METAR LPPR 011500Z 25004G15KT 200V330 8000 BKN012 20/16 Q1020=
200910011430 METAR LPPR 011430Z 26005KT 170V300 8000 SCT009 21/16 Q1019=
200910011400 METAR LPPR 011400Z 25005KT 200V320 8000 FEW009 21/16 Q1019=
200910011330 METAR LPPR 011330Z 25006KT 180V290 8000 FEW009 21/15 Q1020=
200910011300 METAR LPPR 011300Z 24006KT 190V260 8000 FEW009 21/16 Q1020=
200910011230 METAR LPPR 011230Z 24005KT 200V280 8000 FEW009 21/16 Q1020=
200910011200 METAR LPPR 011200Z 25005KT 190V280 7000 SCT009 SCT012 21/16
                        Q1020=
200910011130 METAR LPPR 011130Z 17005KT 140V220 7000 SCT009 SCT012 21/16
                        Q1020=
200910011100 METAR LPPR 011100Z 21007KT 170V250 5000 BR SCT009 BKN014
                        19/16 Q1020=
200910011030 METAR LPPR 011030Z 21005KT 180V260 4000 BR BKN009 BKN011
                        19/16 Q1020=
200910011000 METAR LPPR 011000Z 19005KT 150V230 4000 BR BKN009 BKN011
                        19/16 Q1020=
200910010930 METAR LPPR 010930Z 20004KT 150V240 4000 BR SCT009 BKN011
                        18/16 Q1019=
200910010900 METAR LPPR 010900Z 19004KT 150V210 4000 BR SCT009 BKN012
                        18/16 Q1019=
200910010830 METAR LPPR 010830Z VRB03KT 3000 BR SCT008 BKN012 18/17 Q1019=
200910010800 METAR LPPR 010800Z VRB02KT 2000 BR SCT006 BKN012 17/17 Q1019=
200910010730 METAR LPPR 010730Z VRB03KT 2000 BR SCT003 SCT006 BKN012 18/16
                        Q1018=
200910010700 METAR LPPR 010700Z 16005KT 5000 BR SCT008 BKN012 17/16 Q1018=
200910010630 METAR LPPR 010630Z 16005KT 4500 BR SCT008 BKN010 17/16 Q1018=
200910010600 METAR LPPR 010600Z 15004KT 110V180 4500 BR SCT007 BKN009
                        18/16 Q1018=
200910010530 METAR LPPR 010530Z 13004KT 110V170 4000 BR SCT006 BKN008
                        18/17 Q1017=
200910010500 METAR LPPR 010500Z 17004KT 4000 BR SCT005 BKN007 18/17 Q1017=
200910010430 METAR LPPR 010430Z 17006KT 3000 BR SCT004 BKN006 18/17 Q1017=
200910010400 METAR LPPR 010400Z 19006KT 3000 BR SCT004 BKN006 18/17 Q1017=
200910010330 METAR LPPR 010330Z 19005KT 3000 BR SCT003 SCT004 18/18 Q1017=
200910010300 METAR LPPR 010300Z 19004KT 140V220 3000 BR FEW001 SCT003
                        18/18 Q1017=
200910010230 METAR LPPR 010230Z 00000KT 3000 BR FEW001 SCT003 16/16 Q1017=
200910010200 METAR LPPR 010200Z 00000KT 4000 BR FEW001 SCT003 15/15 Q1017=
200910010130 METAR LPPR 010130Z 00000KT 4000 BR FEW004 SCT100 16/16 Q1017=
200910010100 METAR LPPR 010100Z 00000KT 5000 BR FEW004 SCT100 17/16 Q1017=
200910010030 METAR LPPR 010030Z 00000KT 4000 BR FEW003 SCT100 18/17 Q1017=
200910010000 METAR LPPR 010000Z 00000KT 4000 BR FEW003 SCT100 18/17 Q1017=
