##########################################################
# Query made at 11/07/2014 14:44:36 UTC
# Time interval: from 10/01/2008 00:00  to 10/31/2008 23:59  UTC
##########################################################

##########################################################
# LPPR, Porto / Pedras Rubras (Portugal)
# WMO index: 08545
# Latitude 41-14N. Longitude 008-41W. Altitude 69 m.
##########################################################

###################################
#  METAR/SPECI from LPPR
###################################
200810312330 METAR LPPR 312330Z VRB02KT CAVOK 06/06 Q0998=
200810312300 METAR LPPR 312300Z 00000KT CAVOK 06/06 Q0998=
200810312230 METAR LPPR 312230Z 00000KT CAVOK 07/06 Q0998=
200810312200 METAR LPPR 312200Z 00000KT CAVOK 07/07 Q0997=
200810312130 METAR LPPR 312130Z 00000KT CAVOK 07/07 Q0997=
200810312100 METAR LPPR 312100Z 00000KT CAVOK 07/07 Q0997=
200810312030 METAR LPPR 312030Z 00000KT 9999 FEW015 09/08 Q0997=
200810312000 METAR LPPR 312000Z 00000KT 9999 FEW015 09/08 Q0996=
200810311930 METAR LPPR 311930Z 00000KT 9999 FEW015 10/08 Q0996=
200810311900 METAR LPPR 311900Z VRB03KT 9999 FEW015 10/09 Q0996=
200810311830 METAR LPPR 311830Z 01002KT 9999 FEW015 FEW025CB 10/09 Q0996=
200810311800 METAR LPPR 311800Z 34004KT 300V010 9999 FEW015 FEW025CB 11/09
                        Q0995=
200810311730 METAR LPPR 311730Z 33006KT 9999 FEW015 FEW025CB 12/09 Q0995=
200810311700 METAR LPPR 311700Z 33007KT 9999 SCT015 FEW025CB 13/09 Q0995=
200810311630 METAR LPPR 311630Z 33011KT 9999 SCT015 FEW020TCU 13/09 Q0994=
200810311600 METAR LPPR 311600Z 33010KT 9999 SCT015 FEW020TCU 14/09 Q0994=
200810311530 METAR LPPR 311530Z 32012KT 9999 SCT015 FEW020TCU 14/09 Q0994=
200810311500 METAR LPPR 311500Z 33012KT 9999 SCT015 FEW020TCU 14/09 Q0994=
200810311430 METAR LPPR 311430Z 32010KT 290V350 9999 SCT015 FEW020TCU
                        14/09 Q0994=
200810311400 METAR LPPR 311400Z 31011KT 9999 SCT015 FEW020TCU SCT250 14/09
                        Q0994=
200810311330 METAR LPPR 311330Z 33007KT 280V010 9999 FEW015 FEW020TCU
                        BKN250 14/08 Q0994=
200810311300 METAR LPPR 311300Z 35005KT 310V030 9999 FEW015 FEW020TCU
                        BKN200 14/08 Q0995=
200810311230 METAR LPPR 311230Z 35006KT 9999 SCT015 FEW017TCU BKN200 13/10
                        Q0995=
200810311200 METAR LPPR 311200Z 35008KT 9999 SCT015 SCT090 13/09 Q0996=
200810311130 METAR LPPR 311130Z 35006KT 320V040 9999 SCT015 SCT040 12/10
                        Q0996=
200810311100 METAR LPPR 311100Z 02005KT 350V060 9999 FEW013 BKN040 13/10
                        Q0996=
200810311030 METAR LPPR 311030Z 03005KT 350V060 9999 FEW013 BKN040 12/10
                        Q0996=
200810311000 METAR LPPR 311000Z VRB03KT 9999 FEW008 BKN040 10/10 Q0996=
200810310930 METAR LPPR 310930Z 36006KT 8000 FEW008 SCT030 BKN080 10/10
                        Q0996=
200810310900 METAR LPPR 310900Z 35004KT 9999 FEW015 SCT030 BKN060 09/09
                        Q0996=
200810310830 METAR LPPR 310830Z 00000KT 5000 BR FEW015 SCT030 BKN250 08/08
                        Q0996=
200810310800 METAR LPPR 310800Z 00000KT 5000 MIFG FEW015 SCT030 BKN250
                        08/08 Q0995=
200810310730 METAR LPPR 310730Z 35002KT 5000 R17/0900VP1500 R35/P1500
                        BCFG FEW018 SCT030 BKN250 08/07 Q0995=
200810310700 METAR LPPR 310700Z VRB03KT 5000 BR FEW018 SCT030 BKN070 08/08
                        Q0995=
200810310630 METAR LPPR 310630Z 00000KT 7000 FEW018 SCT030 BKN070 08/08
                        Q0996=
200810310600 METAR LPPR 310600Z 35003KT 9000 FEW018 SCT030 BKN070 09/08
                        Q0996=
200810310530 METAR LPPR 310530Z 01006KT 340V040 9000 FEW018 BKN030 BKN070
                        09/08 Q0996=
200810310500 METAR LPPR 310500Z 09004KT 050V130 8000 -SHRA FEW018 BKN030
                        BKN070 10/09 Q0996=
200810310430 METAR LPPR 310430Z 07006KT 030V110 8000 -SHRA FEW020 BKN040
                        BKN070 09/08 Q0996 RERA=
200810310400 METAR LPPR 310400Z 03004KT 4000 SHRA FEW020 BKN030 09/08
                        Q0997=
200810310330 METAR LPPR 310330Z 35011KT 3000 SHRA SCT020 BKN030 09/08
                        Q0997=
200810310300 METAR LPPR 310300Z 00000KT 8000 BKN040 BKN070 10/10 Q0997=
200810310230 METAR LPPR 310230Z 00000KT 9999 -SHRA FEW020 SCT030 BKN070
                        10/10 Q0998=
200810310200 METAR LPPR 310200Z 00000KT 9999 SCT030 BKN070 10/10 Q0998=
200810310130 METAR LPPR 310130Z 00000KT 9999 FEW020 SCT030 BKN070 11/10
                        Q0998=
200810310100 METAR LPPR 310100Z 16006KT 9999 FEW020 BKN030 11/10 Q0999
                        RERA=
200810310030 METAR LPPR 310030Z 00000KT 7000 SHRA SCT020 BKN030 11/10
                        Q0999=
200810310000 METAR LPPR 310000Z 00000KT 9999 BKN040 SCT070 11/10 Q1000=
200810302330 METAR LPPR 302330Z 12002KT 9999 BKN040 SCT070 11/10 Q1000=
200810302300 METAR LPPR 302300Z 00000KT 9000 SCT040 BKN080 11/10 Q1000=
200810302230 METAR LPPR 302230Z 32005KT 9000 SCT040 BKN080 11/10 Q1001=
200810302200 METAR LPPR 302200Z 33007KT 9000 -SHRA SCT040 BKN080 11/10
                        Q1001=
200810302130 METAR LPPR 302130Z 00000KT 9999 SCT035 BKN080 12/11 Q1001=
200810302100 METAR LPPR 302100Z VRB03KT 9999 SCT040 BKN080 12/11 Q1001=
200810302030 METAR LPPR 302030Z VRB02KT 4000 BR FEW015 SCT035 BKN070 12/11
                        Q1002=
200810302000 METAR LPPR 302000Z 32005KT 270V070 4000 -SHRA BR FEW015 SCT035
                        BKN070 12/11 Q1002=
200810301930 METAR LPPR 301930Z 34004KT 5000 BR FEW015 SCT040 BKN070 12/10
                        Q1002=
200810301900 METAR LPPR 301900Z 33007KT 290V360 5000 BR FEW015 SCT040
                        BKN070 13/11 Q1003=
200810301830 METAR LPPR 301830Z 29004KT 250V320 5000 BR FEW015 SCT040
                        BKN070 14/12 Q1003=
200810301800 METAR LPPR 301800Z VRB03KT 7000 FEW015 SCT040 BKN070 14/13
                        Q1003=
200810301730 METAR LPPR 301730Z 31005KT 270V360 8000 FEW015 SCT040 BKN070
                        14/12 Q1003=
200810301700 METAR LPPR 301700Z 28004KT 240V320 8000 FEW015 SCT040 BKN080
                        14/13 Q1004=
200810301630 METAR LPPR 301630Z 29004KT 250V360 9999 FEW015 BKN040 15/13
                        Q1004=
200810301600 METAR LPPR 301600Z 30004KT 270V340 9999 FEW015 BKN040 15/13
                        Q1004=
200810301530 METAR LPPR 301530Z 28005KT 230V330 9999 SCT015 BKN030 15/13
                        Q1004=
200810301500 METAR LPPR 301500Z 28005KT 230V310 9999 FEW015 BKN030 15/13
                        Q1005=
200810301430 METAR LPPR 301430Z 29005KT 250V330 9999 FEW015 BKN030 15/13
                        Q1005=
200810301400 METAR LPPR 301400Z 30006KT 260V330 9999 SCT015 BKN025 14/13
                        Q1006=
200810301330 METAR LPPR 301330Z 31009KT 9999 SCT015 BKN025 14/13 Q1006=
200810301300 METAR LPPR 301300Z 31007KT 270V010 9999 SCT015 BKN025 15/14
                        Q1006=
200810301230 METAR LPPR 301230Z 29008KT 260V320 9999 SCT015 BKN025 16/14
                        Q1007=
200810301200 METAR LPPR 301200Z 29009KT 260V330 9999 SCT015 BKN025 15/14
                        Q1007=
200810301130 METAR LPPR 301130Z 31006KT 270V350 9999 -SHRA FEW008 SCT015
                        BKN030 14/13 Q1008=
200810301100 METAR LPPR 301100Z 31010G26KT 270V340 8000 -SHRA FEW008 SCT013
                        BKN025 15/13 Q1008=
200810301030 METAR LPPR 301030Z 32010KT 290V350 9999 SCT015 SCT025 BKN070
                        15/13 Q1008=
200810301000 METAR LPPR 301000Z 33012KT 9999 SCT015 SCT025 BKN070 16/13
                        Q1008=
200810300930 METAR LPPR 300930Z 31010KT 270V330 9999 FEW013 SCT020 BKN070
                        16/14 Q1008=
200810300900 METAR LPPR 300900Z 32010KT 9999 FEW013 SCT030 BKN070 15/14
                        Q1008=
200810300830 METAR LPPR 300830Z 31010KT 8000 FEW005 SCT013 BKN030 15/15
                        Q1008=
200810300800 METAR LPPR 300800Z 29010KT 260V320 5000 -RA BR FEW003 SCT006
                        BKN012 15/15 Q1008=
200810300730 METAR LPPR 300730Z 28008KT 230V320 2000 RA BR BKN000 BKN003
                        15/15 Q1007=
200810300700 METAR LPPR 300700Z 24008KT 210V280 5000 -RA BR BKN001 BKN004
                        14/14 Q1007=
200810300630 METAR LPPR 300630Z 25007KT 180V340 5000 -RA BR BKN001 BKN003
                        14/14 Q1008=
200810300600 METAR LPPR 300600Z 23010KT 200V260 4000 -RA BR BKN001 BKN005
                        14/14 Q1009=
200810300530 METAR LPPR 300530Z 23011KT 200V270 6000 -RA SCT000 BKN005
                        13/13 Q1009 RERA=
200810300500 METAR LPPR 300500Z 22009KT 3000 RA BR BKN001 BKN003 12/12
                        Q1010=
200810300430 METAR LPPR 300430Z 22009KT 190V250 4000 RA BR SCT003 BKN005
                        12/12 Q1010=
200810300400 METAR LPPR 300400Z 25006KT 200V290 7000 -RA SCT004 BKN012
                        12/12 Q1011=
200810300330 METAR LPPR 300330Z 21009KT 160V290 7000 -RADZ SCT003 BKN006
                        11/11 Q1012=
200810300300 METAR LPPR 300300Z 19009KT 7000 -RA SCT003 BKN006 11/10 Q1012=
200810300230 METAR LPPR 300230Z 19014KT 7000 -RA SCT003 BKN006 11/11 Q1013
                        RERA=
200810300200 METAR LPPR 300200Z 20008KT 150V260 5000 RA BR SCT004 BKN008
                        10/10 Q1013=
200810300130 METAR LPPR 300130Z 18012KT 8000 -RA SCT004 BKN006 11/11 Q1014=
200810300100 METAR LPPR 300100Z 20009KT 8000 SCT005 BKN007 11/11 Q1015=
200810300030 METAR LPPR 300030Z 20008KT 170V240 8000 SCT006 BKN013 11/10
                        Q1015=
200810300000 METAR LPPR 300000Z 23007KT 190V260 7000 -RA BKN015 BKN025
                        11/09 Q1016=
200810292330 METAR LPPR 292330Z 20005KT 9999 BKN023 SCT070 11/07 Q1016=
200810292300 METAR LPPR 292300Z 21002KT 9999 BKN025 SCT070 11/07 Q1016=
200810292230 METAR LPPR 292230Z 18002KT 9999 BKN025 BKN070 11/07 Q1017=
200810292200 METAR LPPR 292200Z 00000KT 9999 SCT040 SCT070 11/07 Q1018=
200810292130 METAR LPPR 292130Z 00000KT 9999 FEW017 BKN050 11/06 Q1018=
200810292100 METAR LPPR 292100Z 00000KT 9999 FEW017 BKN050 11/06 Q1018=
200810292030 METAR LPPR 292030Z 00000KT 9999 FEW017 BKN050 11/06 Q1018=
200810292000 METAR LPPR 292000Z VRB03KT 9999 FEW017 BKN050 11/06 Q1018=
200810291930 METAR LPPR 291930Z 34003KT 9999 FEW020 SCT050 10/06 Q1018=
200810291900 METAR LPPR 291900Z VRB03KT 9999 FEW020 09/05 Q1018=
200810291830 METAR LPPR 291830Z 33005KT 9999 FEW020 11/05 Q1018=
200810291800 METAR LPPR 291800Z 33009KT 9999 FEW020 11/06 Q1018=
200810291730 METAR LPPR 291730Z 33009KT 9999 FEW020 12/06 Q1018=
200810291700 METAR LPPR 291700Z 34009KT 9999 FEW020 13/05 Q1018=
200810291630 METAR LPPR 291630Z 35014KT 9999 FEW017 13/04 Q1018=
200810291600 METAR LPPR 291600Z 33014KT 9999 SCT017 SCT060 14/06 Q1018=
200810291530 METAR LPPR 291530Z 33017KT 9999 SCT015 14/05 Q1018=
200810291500 METAR LPPR 291500Z 32013KT 9999 SCT015 14/06 Q1018=
200810291430 METAR LPPR 291430Z 33015KT 9999 SCT015 14/07 Q1018=
200810291400 METAR LPPR 291400Z 33015KT 9999 SCT015 15/06 Q1018=
200810291330 METAR LPPR 291330Z 34017KT 9999 SCT015 15/05 Q1018=
200810291300 METAR LPPR 291300Z 34013KT 9999 SCT015 14/06 Q1018=
200810291230 METAR LPPR 291230Z 36012KT 330V030 9999 SCT015 14/07 Q1018=
200810291200 METAR LPPR 291200Z 34009KT 300V010 9999 SCT015 14/08 Q1018=
200810291130 METAR LPPR 291130Z 33010KT 300V010 9999 FEW015 SCT250 14/08
                        Q1019=
200810291100 METAR LPPR 291100Z 33010KT 9999 FEW015 SCT250 13/08 Q1018=
200810291030 METAR LPPR 291030Z 35007KT 330V030 9999 FEW015 BKN250 13/08
                        Q1018=
200810291000 METAR LPPR 291000Z 34006KT 310V010 9999 FEW015 SCT250 12/08
                        Q1019=
200810290930 METAR LPPR 290930Z 36005KT 330V050 9999 FEW015 11/08 Q1019=
200810290900 METAR LPPR 290900Z 36004KT 9999 FEW013 10/08 Q1019=
200810290830 METAR LPPR 290830Z 00000KT 9999 FEW013 07/07 Q1018=
200810290800 METAR LPPR 290800Z 00000KT 9999 FEW013 05/04 Q1018=
200810290730 METAR LPPR 290730Z 00000KT 9999 FEW013 05/04 Q1017=
200810290700 METAR LPPR 290700Z 00000KT 9999 FEW013 05/04 Q1017=
200810290630 METAR LPPR 290630Z 00000KT 9999 FEW040 04/04 Q1017=
200810290600 METAR LPPR 290600Z 00000KT CAVOK 04/03 Q1017=
200810290530 METAR LPPR 290530Z 00000KT CAVOK 05/04 Q1017=
200810290500 METAR LPPR 290500Z 34003KT CAVOK 05/04 Q1017=
200810290430 METAR LPPR 290430Z 00000KT CAVOK 05/04 Q1017=
200810290400 METAR LPPR 290400Z 00000KT CAVOK 05/04 Q1017=
200810290330 METAR LPPR 290330Z 00000KT CAVOK 05/04 Q1017=
200810290300 METAR LPPR 290300Z VRB03KT CAVOK 05/04 Q1017=
200810290230 METAR LPPR 290230Z 00000KT CAVOK 05/04 Q1017=
200810290200 METAR LPPR 290200Z 01003KT CAVOK 06/04 Q1017=
200810290130 METAR LPPR 290130Z 00000KT CAVOK 05/04 Q1018=
200810290100 METAR LPPR 290100Z 00000KT CAVOK 06/04 Q1018=
200810290030 METAR LPPR 290030Z 00000KT CAVOK 07/05 Q1018=
200810290000 METAR LPPR 290000Z 35004KT CAVOK 07/04 Q1018=
200810282330 METAR LPPR 282330Z 36004KT CAVOK 07/04 Q1018=
200810282300 METAR LPPR 282300Z 34004KT CAVOK 08/05 Q1018=
200810282230 METAR LPPR 282230Z 34007KT CAVOK 09/05 Q1018=
200810282200 METAR LPPR 282200Z 34007KT CAVOK 09/05 Q1018=
200810282130 METAR LPPR 282130Z 36007KT CAVOK 10/05 Q1018=
200810282100 METAR LPPR 282100Z 01005KT 9999 FEW040 SCT090 09/05 Q1018=
200810282030 METAR LPPR 282030Z 35007KT 9999 FEW040 09/05 Q1018=
200810282000 METAR LPPR 282000Z 02005KT 9999 FEW040 10/05 Q1017=
200810281930 METAR LPPR 281930Z 35006KT 9999 FEW040 10/04 Q1017=
200810281900 METAR LPPR 281900Z 35011KT 320V020 9999 FEW013 11/05 Q1017=
200810281830 METAR LPPR 281830Z 36008KT 9999 FEW013 12/05 Q1017=
200810281800 METAR LPPR 281800Z 36011KT 9999 FEW013 12/05 Q1016=
200810281730 METAR LPPR 281730Z 36010KT 9999 FEW013 13/05 Q1016=
200810281700 METAR LPPR 281700Z 01014KT 9999 FEW013 14/04 Q1015=
200810281630 METAR LPPR 281630Z 35017KT 9999 FEW013 15/05 Q1015 WS ALL
                        RWY=
200810281600 METAR LPPR 281600Z 36017KT 9999 FEW013 15/04 Q1015 WS ALL
                        RWY=
200810281530 METAR LPPR 281530Z 36020KT 9999 FEW013 15/04 Q1015 WS ALL
                        RWY=
200810281500 METAR LPPR 281500Z 35020KT 9999 FEW013 16/05 Q1014 WS ALL
                        RWY=
200810281430 METAR LPPR 281430Z 36017KT 330V030 9999 FEW013 16/05 Q1014
                        WS ALL RWY=
200810281400 METAR LPPR 281400Z 01017G28KT 340V040 9999 FEW013 15/04 Q1015
                        WS ALL RWY=
200810281330 METAR LPPR 281330Z 36017KT 330V030 9999 FEW013 15/04 Q1015
                        WS ALL RWY=
200810281300 METAR LPPR 281300Z 36016KT 9999 FEW013 15/04 Q1015 WS ALL
                        RWY=
200810281230 METAR LPPR 281230Z 01023G36KT 9999 FEW013 15/04 Q1016 WS
                        ALL RWY=
200810281200 METAR LPPR 281200Z 01021G32KT 340V050 9999 FEW015 14/04 Q1016
                        WS ALL RWY=
200810281130 METAR LPPR 281130Z 36016G28KT 9999 FEW015 14/06 Q1016 WS
                        ALL RWY=
200810281100 METAR LPPR 281100Z 36016G26KT 9999 FEW017 SCT040 13/06 Q1016
                        WS ALL RWY=
200810281030 METAR LPPR 281030Z 36018KT 9999 FEW017 SCT040 12/05 Q1016=
200810281000 METAR LPPR 281000Z 35017KT 9999 FEW017 SCT040 12/07 Q1016=
200810280930 METAR LPPR 280930Z 35013KT 9999 FEW017 SCT040 11/07 Q1016=
200810280900 METAR LPPR 280900Z 35016KT 9999 FEW020 SCT045 12/06 Q1016=
200810280830 METAR LPPR 280830Z 35016KT 9999 FEW020 SCT045 11/06 Q1015=
200810280800 METAR LPPR 280800Z 34016KT 9999 FEW020 SCT045 10/06 Q1015=
200810280730 METAR LPPR 280730Z 36013KT 9999 FEW020 SCT045 10/06 Q1014=
200810280700 METAR LPPR 280700Z 35010KT 9999 FEW020 SCT070 09/06 Q1014=
200810280630 METAR LPPR 280630Z 35008KT 9999 FEW020 SCT080 09/06 Q1014=
200810280600 METAR LPPR 280600Z 35008KT 9999 FEW020 BKN070 09/06 Q1014=
200810280530 METAR LPPR 280530Z 35009KT 9999 FEW020 SCT080 09/06 Q1014=
200810280500 METAR LPPR 280500Z 36010KT CAVOK 09/07 Q1014=
200810280430 METAR LPPR 280430Z 35009KT CAVOK 09/07 Q1014=
200810280400 METAR LPPR 280400Z 35009KT CAVOK 09/07 Q1014=
200810280330 METAR LPPR 280330Z 34008KT CAVOK 09/07 Q1014=
200810280300 METAR LPPR 280300Z 35010KT CAVOK 10/08 Q1014=
200810280230 METAR LPPR 280230Z 35010KT CAVOK 09/08 Q1015=
200810280200 METAR LPPR 280200Z 34010KT CAVOK 10/08 Q1015=
200810280130 METAR LPPR 280130Z 33009KT CAVOK 10/08 Q1015=
200810280100 METAR LPPR 280100Z 35007KT CAVOK 09/08 Q1015=
200810280030 METAR LPPR 280030Z 01004KT CAVOK 08/08 Q1015=
200810280000 METAR LPPR 280000Z 35004KT CAVOK 09/08 Q1016=
200810272330 METAR LPPR 272330Z 34004KT 9999 FEW035 09/08 Q1016=
200810272300 METAR LPPR 272300Z 34006KT 9999 FEW035 09/08 Q1016=
200810272230 METAR LPPR 272230Z 01005KT 9999 FEW035 11/09 Q1016=
200810272200 METAR LPPR 272200Z 35006KT 9999 FEW035 10/09 Q1016=
200810272130 METAR LPPR 272130Z 33006KT 9999 SCT030 11/09 Q1016=
200810272100 METAR LPPR 272100Z 36009KT 9999 SCT035 13/10 Q1016=
200810272030 METAR LPPR 272030Z 34013KT 9999 SCT035 13/10 Q1016=
200810272000 METAR LPPR 272000Z 34014KT 9999 SCT035 13/11 Q1016=
200810271930 METAR LPPR 271930Z 35010KT 9999 FEW035 13/11 Q1016=
200810271900 METAR LPPR 271900Z 34010KT 9999 FEW035 13/12 Q1016=
200810271830 METAR LPPR 271830Z 34014KT 9999 FEW035 14/12 Q1016=
200810271800 METAR LPPR 271800Z 34015KT 9999 FEW035 14/13 Q1016=
200810271730 METAR LPPR 271730Z 34014KT 9999 FEW006 BKN020 14/13 Q1016=
200810271700 METAR LPPR 271700Z 34013KT 9999 FEW006 BKN030 15/14 Q1016=
200810271630 METAR LPPR 271630Z 34014KT 9999 FEW006 BKN025 15/14 Q1016=
200810271600 METAR LPPR 271600Z 34012KT 2000 BR SCT001 BKN005 15/15 Q1016=
200810271530 METAR LPPR 271530Z 33009KT 2000 -DZ BR SCT001 BKN004 15/15
                        Q1016=
200810271500 METAR LPPR 271500Z VRB03KT 1500 -RA BR SCT001 BKN004 15/15
                        Q1016=
200810271430 METAR LPPR 271430Z 25004KT 210V280 1500 -RADZ BR SCT001 BKN004
                        15/15 Q1017=
200810271400 METAR LPPR 271400Z 23004KT 180V300 1500 -RADZ BR SCT001 BKN005
                        16/16 Q1017=
200810271330 METAR LPPR 271330Z 18007KT 2000 BR BKN001 BKN005 16/16 Q1017
                        RERA=
200810271300 METAR LPPR 271300Z 19006KT 1500 RA BR BKN001 BKN005 16/16
                        Q1018=
200810271230 METAR LPPR 271230Z 21004KT 1500 RADZ BR BKN001 BKN003 16/16
                        Q1019=
200810271200 METAR LPPR 271200Z VRB02KT 1500 DZ BR BKN003 SCT004 16/16
                        Q1019=
200810271130 METAR LPPR 271130Z VRB02KT 2000 -DZ BR BKN003 BKN005 16/15
                        Q1019=
200810271100 METAR LPPR 271100Z 13003KT 3000 BR SCT003 BKN005 15/15 Q1020=
200810271030 METAR LPPR 271030Z VRB02KT 2000 BR SCT002 BKN005 15/15 Q1020=
200810271000 METAR LPPR 271000Z 00000KT 1500 BR VCFG BKN002 SCT004 14/14
                        Q1021=
200810270930 METAR LPPR 270930Z VRB02KT 1200 R17/P1500 R35/P1500 BR VCFG
                        BKN002 BKN005 13/13 Q1021=
200810270900 METAR LPPR 270900Z 12005KT 1200 R17/P1500 R35/P1500 BR VCFG
                        SCT001 BKN005 12/12 Q1021=
200810270830 METAR LPPR 270830Z VRB03KT 0500 R17/P1500 R35/P1500 BCFG
                        SCT000 12/12 Q1021=
200810270800 METAR LPPR 270800Z 00000KT 0200 R17/0800V1200N R35/0700V1000N
                        FG BKN000 11/11 Q1021=
200810270730 METAR LPPR 270730Z 00000KT 0300 R17/0500N R35/0400V0750D
                        FG BKN000 11/11 Q1021=
200810270700 METAR LPPR 270700Z 12004KT 2000 BR SCT000 SCT250 11/11 Q1020=
200810270630 METAR LPPR 270630Z 35002KT 4000 BR SCT003 12/12 Q1020=
200810270600 METAR LPPR 270600Z 00000KT 4000 BR SCT001 BKN005 11/11 Q1021=
200810270530 METAR LPPR 270530Z 00000KT 2000 BR VCFG SCT002 BKN004 10/10
                        Q1021=
200810270500 METAR LPPR 270500Z 00000KT 1200 R17/0750V1000N R35/P1500
                        BCFG BR FEW000 SCT003 10/10 Q1021=
200810270430 METAR LPPR 270430Z 00000KT 0500 R17/0400V0550N R35/0400V0550D
                        FG SCT000 BKN001 11/11 Q1021=
200810270400 METAR LPPR 270400Z 00000KT 0600 R17/0800U R35/0650V0900N
                        FG SCT000 BKN001 11/11 Q1021=
200810270330 METAR LPPR 270330Z 13003KT 0600 R17/0600V0900N R35/0600N
                        FG SCT001 SCT002 12/12 Q1021=
200810270300 METAR LPPR 270300Z 00000KT 0300 R17/0400N R35/0400N FG VV000
                        13/13 Q1022=
200810270230 METAR LPPR 270230Z 00000KT 0400 R17/0550N R35/0450N FG VV000
                        13/13 Q1022=
200810270200 METAR LPPR 270200Z 00000KT 0500 R17/0500N R35/0450N FG VV000
                        12/12 Q1022=
200810270130 METAR LPPR 270130Z 00000KT 0500 R17/0400V0500N R35/0350V0500N
                        FG VV000 11/11 Q1022=
200810270100 METAR LPPR 270100Z 00000KT 0900 R17/P1500 R35/0600V1000N
                        FG BKN050 10/10 Q1023=
200810270030 METAR LPPR 270030Z 00000KT 7000 SCT250 10/10 Q1023=
200810270000 METAR LPPR 270000Z 00000KT 8000 SCT250 10/10 Q1023=
200810262330 METAR LPPR 262330Z 00000KT 7000 SCT250 11/10 Q1023=
200810262300 METAR LPPR 262300Z 00000KT 7000 FEW250 11/11 Q1023=
200810262230 METAR LPPR 262230Z 00000KT 8000 FEW250 11/11 Q1024=
200810262200 METAR LPPR 262200Z 00000KT 8000 FEW250 12/11 Q1024=
200810262130 METAR LPPR 262130Z 00000KT 8000 FEW250 12/11 Q1024=
200810262100 METAR LPPR 262100Z 00000KT CAVOK 12/10 Q1024=
200810262030 METAR LPPR 262030Z 00000KT CAVOK 12/11 Q1024=
200810262000 METAR LPPR 262000Z 00000KT CAVOK 12/10 Q1024=
200810261930 METAR LPPR 261930Z 00000KT CAVOK 13/10 Q1023=
200810261900 METAR LPPR 261900Z 00000KT CAVOK 13/10 Q1023=
200810261830 METAR LPPR 261830Z 35003KT CAVOK 14/10 Q1023=
200810261800 METAR LPPR 261800Z 00000KT CAVOK 16/12 Q1023=
200810261730 METAR LPPR 261730Z VRB03KT CAVOK 17/12 Q1023=
200810261700 METAR LPPR 261700Z 32005KT 280V340 CAVOK 19/11 Q1024=
200810261630 METAR LPPR 261630Z 32005KT 280V350 CAVOK 20/12 Q1024=
200810261600 METAR LPPR 261600Z 32006KT 280V350 CAVOK 20/13 Q1024=
200810261530 METAR LPPR 261530Z 31006KT 270V340 CAVOK 20/12 Q1024=
200810261500 METAR LPPR 261500Z 33006KT 300V360 CAVOK 21/09 Q1024=
200810261430 METAR LPPR 261430Z 33007KT CAVOK 21/09 Q1024=
200810261400 METAR LPPR 261400Z 31007KT CAVOK 20/10 Q1025=
200810261330 METAR LPPR 261330Z 32007KT 280V350 CAVOK 21/11 Q1025=
200810261300 METAR LPPR 261300Z 32005KT CAVOK 21/12 Q1025=
200810261230 METAR LPPR 261230Z 31005KT CAVOK 21/12 Q1026=
200810261200 METAR LPPR 261200Z 32005KT 280V010 CAVOK 21/12 Q1026=
200810261130 METAR LPPR 261130Z VRB03KT CAVOK 22/11 Q1026=
200810261100 METAR LPPR 261100Z VRB02KT CAVOK 21/11 Q1026=
200810261030 METAR LPPR 261030Z 00000KT CAVOK 21/09 Q1027=
200810261000 METAR LPPR 261000Z 00000KT CAVOK 19/09 Q1027=
200810260930 METAR LPPR 260930Z 00000KT CAVOK 18/08 Q1027=
200810260900 METAR LPPR 260900Z 00000KT CAVOK 15/08 Q1027=
200810260830 METAR LPPR 260830Z VRB03KT CAVOK 13/07 Q1027=
200810260800 METAR LPPR 260800Z 07003KT CAVOK 10/06 Q1027=
200810260730 METAR LPPR 260730Z 00000KT CAVOK 09/06 Q1027=
200810260700 METAR LPPR 260700Z 00000KT CAVOK 09/06 Q1027=
200810260630 METAR LPPR 260630Z VRB03KT CAVOK 10/06 Q1026=
200810260600 METAR LPPR 260600Z 14005KT CAVOK 11/07 Q1027=
200810260530 METAR LPPR 260530Z 00000KT CAVOK 10/06 Q1026=
200810260500 METAR LPPR 260500Z 00000KT CAVOK 11/06 Q1026=
200810260430 METAR LPPR 260430Z 09003KT CAVOK 11/07 Q1026=
200810260400 METAR LPPR 260400Z VRB03KT CAVOK 11/07 Q1026=
200810260330 METAR LPPR 260330Z VRB03KT CAVOK 11/07 Q1026=
200810260300 METAR LPPR 260300Z VRB02KT CAVOK 12/08 Q1026=
200810260230 METAR LPPR 260230Z 00000KT CAVOK 10/09 Q1027=
200810260200 METAR LPPR 260200Z 00000KT CAVOK 10/08 Q1027=
200810260130 METAR LPPR 260130Z 00000KT 8000 SKC 11/09 Q1027=
200810260100 METAR LPPR 260100Z 00000KT 7000 SKC 10/09 Q1027=
200810260030 METAR LPPR 260030Z 08003KT 7000 SKC 10/08 Q1027=
200810260000 METAR LPPR 260000Z 00000KT 9000 SKC 10/07 Q1027=
200810252330 METAR LPPR 252330Z 00000KT CAVOK 10/08 Q1027=
200810252300 METAR LPPR 252300Z 00000KT CAVOK 10/08 Q1027=
200810252230 METAR LPPR 252230Z 00000KT CAVOK 11/08 Q1027=
200810252200 METAR LPPR 252200Z 00000KT CAVOK 13/08 Q1027=
200810252130 METAR LPPR 252130Z 11003KT CAVOK 14/09 Q1027=
200810252100 METAR LPPR 252100Z 00000KT CAVOK 12/08 Q1027=
200810252030 METAR LPPR 252030Z 00000KT CAVOK 12/08 Q1027=
200810252000 METAR LPPR 252000Z 00000KT CAVOK 13/08 Q1027=
200810251930 METAR LPPR 251930Z 02002KT CAVOK 13/07 Q1027=
200810251900 METAR LPPR 251900Z 01003KT CAVOK 14/08 Q1027=
200810251830 METAR LPPR 251830Z 34008KT CAVOK 15/08 Q1027=
200810251800 METAR LPPR 251800Z 35006KT CAVOK 15/07 Q1027=
200810251730 METAR LPPR 251730Z 35005KT CAVOK 17/07 Q1026=
200810251700 METAR LPPR 251700Z 35007KT CAVOK 19/07 Q1026=
200810251630 METAR LPPR 251630Z 35007KT CAVOK 20/08 Q1026=
200810251600 METAR LPPR 251600Z 35009KT CAVOK 21/09 Q1026=
200810251530 METAR LPPR 251530Z 33009KT CAVOK 21/11 Q1026=
200810251500 METAR LPPR 251500Z 33010KT CAVOK 22/09 Q1026=
200810251430 METAR LPPR 251430Z 33007KT CAVOK 23/10 Q1026=
200810251400 METAR LPPR 251400Z 04004KT 350V120 CAVOK 24/06 Q1026=
200810251330 METAR LPPR 251330Z 11005KT 060V170 CAVOK 24/05 Q1027=
200810251300 METAR LPPR 251300Z VRB03KT CAVOK 23/05 Q1027=
200810251230 METAR LPPR 251230Z 12005KT 050V150 CAVOK 23/06 Q1027=
200810251200 METAR LPPR 251200Z 11007KT 080V150 CAVOK 22/04 Q1028=
200810251130 METAR LPPR 251130Z 11007KT 060V140 CAVOK 22/04 Q1028=
200810251100 METAR LPPR 251100Z 09005KT 050V140 CAVOK 21/05 Q1028=
200810251030 METAR LPPR 251030Z 10007KT 060V140 CAVOK 20/05 Q1028=
200810251000 METAR LPPR 251000Z 07005KT 030V110 CAVOK 19/06 Q1028=
200810250930 METAR LPPR 250930Z 08004KT 050V110 CAVOK 18/06 Q1028=
200810250900 METAR LPPR 250900Z VRB03KT CAVOK 17/06 Q1028=
200810250830 METAR LPPR 250830Z VRB03KT CAVOK 16/05 Q1028=
200810250800 METAR LPPR 250800Z 10007KT CAVOK 15/04 Q1027=
200810250730 METAR LPPR 250730Z 10009KT CAVOK 14/04 Q1027=
200810250700 METAR LPPR 250700Z 11008KT CAVOK 14/05 Q1026=
200810250630 METAR LPPR 250630Z 10008KT CAVOK 13/05 Q1026=
200810250600 METAR LPPR 250600Z 10006KT CAVOK 13/06 Q1025=
200810250530 METAR LPPR 250530Z 10004KT CAVOK 13/06 Q1025=
200810250500 METAR LPPR 250500Z VRB03KT CAVOK 11/07 Q1025=
200810250430 METAR LPPR 250430Z 05003KT CAVOK 09/07 Q1025=
200810250400 METAR LPPR 250400Z 04003KT CAVOK 09/08 Q1025=
200810250330 METAR LPPR 250330Z 00000KT 8000 SKC 09/08 Q1025=
200810250300 METAR LPPR 250300Z 00000KT 8000 SKC 10/09 Q1025=
200810250230 METAR LPPR 250230Z 00000KT 7000 SKC 10/09 Q1025=
200810250200 METAR LPPR 250200Z 00000KT 7000 SKC 12/09 Q1025=
200810250130 METAR LPPR 250130Z 08005KT 7000 SKC 12/09 Q1025=
200810250100 METAR LPPR 250100Z VRB03KT 5000 BR SKC 12/09 Q1025=
200810250030 METAR LPPR 250030Z 12004KT 5000 BR SKC 12/10 Q1025=
200810250000 METAR LPPR 250000Z 00000KT 5000 BR SKC 11/10 Q1025=
200810242330 METAR LPPR 242330Z 00000KT 5000 BR SKC 12/10 Q1025=
200810242300 METAR LPPR 242300Z 09004KT 5000 BR SKC 12/11 Q1025=
200810242230 METAR LPPR 242230Z 10005KT 5000 BR SKC 12/11 Q1024=
200810242200 METAR LPPR 242200Z 10004KT 5000 BR SKC 11/11 Q1024=
200810242130 METAR LPPR 242130Z 00000KT 7000 SKC 11/10 Q1024=
200810242100 METAR LPPR 242100Z 00000KT 7000 SKC 12/11 Q1024=
200810242030 METAR LPPR 242030Z 12002KT 8000 FEW080 12/12 Q1024=
200810242000 METAR LPPR 242000Z 00000KT 8000 FEW080 13/12 Q1024=
200810241930 METAR LPPR 241930Z 00000KT 8000 SCT080 13/12 Q1023=
200810241900 METAR LPPR 241900Z 00000KT 8000 SCT080 14/12 Q1023=
200810241830 METAR LPPR 241830Z 00000KT 8000 SCT080 14/11 Q1023=
200810241800 METAR LPPR 241800Z 35004KT 8000 SCT080 14/11 Q1022=
200810241730 METAR LPPR 241730Z 36003KT CAVOK 16/12 Q1022=
200810241700 METAR LPPR 241700Z 33007KT CAVOK 15/12 Q1022=
200810241630 METAR LPPR 241630Z 32007KT CAVOK 16/12 Q1022=
200810241600 METAR LPPR 241600Z 33005KT CAVOK 16/12 Q1022=
200810241530 METAR LPPR 241530Z 31007KT 270V330 CAVOK 17/11 Q1022=
200810241500 METAR LPPR 241500Z 32005KT CAVOK 18/11 Q1021=
200810241430 METAR LPPR 241430Z VRB03KT CAVOK 20/08 Q1022=
200810241400 METAR LPPR 241400Z 32004KT 270V360 CAVOK 19/08 Q1022=
200810241330 METAR LPPR 241330Z 31006KT 280V350 CAVOK 18/07 Q1022=
200810241300 METAR LPPR 241300Z 31007KT 290V350 CAVOK 17/09 Q1022=
200810241230 METAR LPPR 241230Z 29006KT CAVOK 17/10 Q1023=
200810241200 METAR LPPR 241200Z 28004KT 250V320 CAVOK 17/10 Q1023=
200810241130 METAR LPPR 241130Z 28005KT 230V310 CAVOK 17/09 Q1023=
200810241100 METAR LPPR 241100Z 00000KT CAVOK 18/07 Q1023=
200810241030 METAR LPPR 241030Z 00000KT CAVOK 17/07 Q1023=
200810241000 METAR LPPR 241000Z VRB03KT CAVOK 16/07 Q1023=
200810240930 METAR LPPR 240930Z 00000KT CAVOK 15/07 Q1022=
200810240900 METAR LPPR 240900Z 11005KT 090V150 CAVOK 12/06 Q1022=
200810240830 METAR LPPR 240830Z 11005KT CAVOK 11/06 Q1022=
200810240800 METAR LPPR 240800Z 00000KT CAVOK 09/06 Q1022=
200810240730 METAR LPPR 240730Z 00000KT CAVOK 07/05 Q1021=
200810240700 METAR LPPR 240700Z 00000KT CAVOK 06/05 Q1021=
200810240630 METAR LPPR 240630Z 00000KT CAVOK 07/05 Q1021=
200810240600 METAR LPPR 240600Z VRB03KT CAVOK 08/05 Q1021=
200810240530 METAR LPPR 240530Z 00000KT CAVOK 07/05 Q1021=
200810240500 METAR LPPR 240500Z VRB03KT CAVOK 07/05 Q1021=
200810240430 METAR LPPR 240430Z VRB02KT CAVOK 08/06 Q1021=
200810240400 METAR LPPR 240400Z 35004KT CAVOK 08/06 Q1021=
200810240330 METAR LPPR 240330Z VRB02KT CAVOK 08/06 Q1020=
200810240300 METAR LPPR 240300Z 00000KT CAVOK 11/06 Q1020=
200810240230 METAR LPPR 240230Z 00000KT CAVOK 10/07 Q1020=
200810240200 METAR LPPR 240200Z 09004KT 050V130 CAVOK 10/07 Q1021=
200810240130 METAR LPPR 240130Z 00000KT CAVOK 10/08 Q1021=
200810240100 METAR LPPR 240100Z 00000KT CAVOK 09/08 Q1021=
200810240030 METAR LPPR 240030Z 00000KT CAVOK 08/07 Q1022=
200810240000 METAR LPPR 240000Z 00000KT CAVOK 08/07 Q1022=
200810232330 METAR LPPR 232330Z 00000KT CAVOK 08/07 Q1022=
200810232300 METAR LPPR 232300Z 00000KT CAVOK 08/07 Q1022=
200810232230 METAR LPPR 232230Z 00000KT CAVOK 08/07 Q1022=
200810232200 METAR LPPR 232200Z 00000KT CAVOK 08/07 Q1022=
200810232130 METAR LPPR 232130Z 35002KT CAVOK 09/07 Q1022=
200810232100 METAR LPPR 232100Z 00000KT CAVOK 10/07 Q1021=
200810232030 METAR LPPR 232030Z 00000KT CAVOK 10/07 Q1021=
200810232000 METAR LPPR 232000Z 06003KT CAVOK 11/07 Q1021=
200810231930 METAR LPPR 231930Z 01003KT CAVOK 11/08 Q1021=
200810231900 METAR LPPR 231900Z 35003KT CAVOK 11/07 Q1021=
200810231830 METAR LPPR 231830Z 35004KT 300V010 CAVOK 12/06 Q1021=
200810231800 METAR LPPR 231800Z 35003KT CAVOK 13/06 Q1020=
200810231730 METAR LPPR 231730Z 34008KT CAVOK 14/07 Q1020=
200810231700 METAR LPPR 231700Z 34010KT CAVOK 16/07 Q1020=
200810231630 METAR LPPR 231630Z 33010KT CAVOK 17/06 Q1020=
200810231600 METAR LPPR 231600Z 33009KT CAVOK 17/07 Q1020=
200810231530 METAR LPPR 231530Z 33009KT CAVOK 19/09 Q1020=
200810231500 METAR LPPR 231500Z 33006KT 290V350 CAVOK 19/08 Q1020=
200810231430 METAR LPPR 231430Z 03004KT 310V090 CAVOK 20/06 Q1021=
200810231400 METAR LPPR 231400Z 03005KT 350V070 CAVOK 19/05 Q1021=
200810231330 METAR LPPR 231330Z 04007KT 010V070 CAVOK 19/05 Q1021=
200810231300 METAR LPPR 231300Z 03008KT 360V090 CAVOK 18/05 Q1022=
200810231230 METAR LPPR 231230Z 03007KT 330V060 CAVOK 18/06 Q1022=
200810231200 METAR LPPR 231200Z 04007KT 350V100 CAVOK 18/05 Q1023=
200810231130 METAR LPPR 231130Z 06006KT 010V110 CAVOK 17/05 Q1023=
200810231100 METAR LPPR 231100Z 05007KT 020V090 CAVOK 16/04 Q1023=
200810231030 METAR LPPR 231030Z 04008KT 010V080 CAVOK 16/05 Q1023=
200810231000 METAR LPPR 231000Z 05005KT 010V090 CAVOK 15/05 Q1023=
200810230930 METAR LPPR 230930Z 05005KT 010V090 CAVOK 14/05 Q1024=
200810230900 METAR LPPR 230900Z VRB03KT CAVOK 13/04 Q1024=
200810230830 METAR LPPR 230830Z VRB03KT CAVOK 11/04 Q1024=
200810230800 METAR LPPR 230800Z 00000KT CAVOK 09/05 Q1023=
200810230730 METAR LPPR 230730Z 00000KT CAVOK 08/04 Q1023=
200810230700 METAR LPPR 230700Z 26002KT CAVOK 08/04 Q1023=
200810230630 METAR LPPR 230630Z 06004KT 030V090 CAVOK 09/04 Q1023=
200810230600 METAR LPPR 230600Z 00000KT CAVOK 10/04 Q1023=
200810230530 METAR LPPR 230530Z VRB03KT CAVOK 10/04 Q1023=
200810230500 METAR LPPR 230500Z 03007KT CAVOK 10/04 Q1023=
200810230430 METAR LPPR 230430Z 03005KT CAVOK 10/04 Q1022=
200810230400 METAR LPPR 230400Z 02003KT CAVOK 11/04 Q1023=
200810230330 METAR LPPR 230330Z 04004KT CAVOK 12/05 Q1023=
200810230300 METAR LPPR 230300Z 36008KT 330V050 CAVOK 10/05 Q1023=
200810230230 METAR LPPR 230230Z 02006KT 350V050 CAVOK 11/05 Q1023=
200810230200 METAR LPPR 230200Z 04007KT CAVOK 11/05 Q1023=
200810230130 METAR LPPR 230130Z 03007KT CAVOK 11/05 Q1024=
200810230100 METAR LPPR 230100Z 33003KT CAVOK 10/05 Q1024=
200810230030 METAR LPPR 230030Z 03007KT CAVOK 12/05 Q1024=
200810230000 METAR LPPR 230000Z 02007KT CAVOK 12/06 Q1024=
200810222330 METAR LPPR 222330Z 03006KT CAVOK 12/06 Q1024=
200810222300 METAR LPPR 222300Z 01007KT CAVOK 10/06 Q1024=
200810222230 METAR LPPR 222230Z 35005KT CAVOK 11/06 Q1024=
200810222200 METAR LPPR 222200Z 36007KT CAVOK 12/07 Q1024=
200810222130 METAR LPPR 222130Z 01008KT CAVOK 12/07 Q1024=
200810222100 METAR LPPR 222100Z 35007KT CAVOK 11/07 Q1023=
200810222030 METAR LPPR 222030Z 35006KT CAVOK 13/07 Q1023=
200810222000 METAR LPPR 222000Z 03009KT CAVOK 14/07 Q1023=
200810221930 METAR LPPR 221930Z 02010KT 350V050 CAVOK 15/07 Q1023=
200810221900 METAR LPPR 221900Z 01012KT CAVOK 15/07 Q1023=
200810221830 METAR LPPR 221830Z 36010KT CAVOK 15/07 Q1022=
200810221800 METAR LPPR 221800Z 35010KT CAVOK 15/07 Q1022=
200810221730 METAR LPPR 221730Z 35010KT CAVOK 16/08 Q1022=
200810221700 METAR LPPR 221700Z 36009KT CAVOK 18/08 Q1022=
200810221630 METAR LPPR 221630Z 36011KT CAVOK 18/08 Q1022=
200810221600 METAR LPPR 221600Z 01009KT 340V050 9999 FEW017 19/07 Q1022=
200810221530 METAR LPPR 221530Z 01014KT 350V050 9999 FEW017 19/07 Q1022=
200810221500 METAR LPPR 221500Z 01016KT 9999 FEW017 19/07 Q1022=
200810221430 METAR LPPR 221430Z 01013KT 340V050 9999 FEW017 19/07 Q1022=
200810221400 METAR LPPR 221400Z 01014KT 9999 FEW017 19/07 Q1022=
200810221330 METAR LPPR 221330Z 36015KT 9999 FEW017 18/07 Q1023=
200810221300 METAR LPPR 221300Z 36015KT 340V040 9999 FEW017 18/07 Q1023=
200810221230 METAR LPPR 221230Z 36013KT 9999 FEW017 18/07 Q1023=
200810221200 METAR LPPR 221200Z 01011KT 340V040 9999 FEW017 17/07 Q1023=
200810221130 METAR LPPR 221130Z 01009KT 340V050 9999 FEW017 17/07 Q1023=
200810221100 METAR LPPR 221100Z 01013KT 330V050 9999 FEW017 16/07 Q1023=
200810221030 METAR LPPR 221030Z 01015KT 340V040 CAVOK 15/07 Q1023=
200810221000 METAR LPPR 221000Z 01015KT 340V040 CAVOK 15/07 Q1022=
200810220930 METAR LPPR 220930Z 01014G24KT 9999 FEW020 14/07 Q1022=
200810220900 METAR LPPR 220900Z 36013G24KT 9999 FEW020 13/07 Q1022=
200810220830 METAR LPPR 220830Z 36014KT 9999 FEW017 12/07 Q1022=
200810220800 METAR LPPR 220800Z 36013KT 9999 FEW017 11/06 Q1022=
200810220730 METAR LPPR 220730Z 35012KT 9999 FEW017 10/06 Q1021=
200810220700 METAR LPPR 220700Z 35012KT CAVOK 10/06 Q1021=
200810220630 METAR LPPR 220630Z 36010KT CAVOK 10/06 Q1021=
200810220600 METAR LPPR 220600Z 34016KT CAVOK 10/06 Q1020=
200810220530 METAR LPPR 220530Z 36012KT CAVOK 10/06 Q1020=
200810220500 METAR LPPR 220500Z 36014KT CAVOK 10/06 Q1020=
200810220430 METAR LPPR 220430Z 34016KT CAVOK 10/06 Q1020=
200810220400 METAR LPPR 220400Z 35016KT CAVOK 10/06 Q1020=
200810220330 METAR LPPR 220330Z 35017KT CAVOK 10/06 Q1020=
200810220300 METAR LPPR 220300Z 35013KT CAVOK 10/06 Q1020=
200810220230 METAR LPPR 220230Z 35014KT CAVOK 10/06 Q1020=
200810220200 METAR LPPR 220200Z 36016KT CAVOK 10/06 Q1020=
200810220130 METAR LPPR 220130Z 35016KT CAVOK 10/06 Q1020=
200810220100 METAR LPPR 220100Z 36014KT CAVOK 11/06 Q1020=
200810220030 METAR LPPR 220030Z 36014KT 9999 FEW020 SCT045 11/06 Q1020=
200810220000 METAR LPPR 220000Z 36014KT 9999 FEW020 SCT045 11/06 Q1020=
200810212330 METAR LPPR 212330Z 35015KT 9999 FEW020 SCT045 11/07 Q1019=
200810212300 METAR LPPR 212300Z 36012KT 9999 FEW020 SCT045 11/07 Q1020=
200810212230 METAR LPPR 212230Z 36009KT 9999 FEW020 SCT045 11/07 Q1020=
200810212200 METAR LPPR 212200Z 36010KT 9999 FEW020 SCT045 11/07 Q1020=
200810212130 METAR LPPR 212130Z 36010KT 9999 FEW020 SCT040 11/08 Q1019=
200810212100 METAR LPPR 212100Z 36010KT 9999 FEW020 SCT040 11/08 Q1019=
200810212030 METAR LPPR 212030Z 35009KT 9999 FEW017 SCT040 11/09 Q1019=
200810212000 METAR LPPR 212000Z 36009KT 9999 FEW017 SCT035 11/09 Q1018=
200810211930 METAR LPPR 211930Z 36007KT 9999 FEW017 SCT035 11/10 Q1018=
200810211900 METAR LPPR 211900Z 34010KT 9999 FEW017 SCT035 11/10 Q1018=
200810211830 METAR LPPR 211830Z 35007KT 320V030 9999 FEW017 SCT035 BKN090
                        11/11 Q1017=
200810211800 METAR LPPR 211800Z 35007KT 9999 -SHRA FEW017 SCT040 BKN090
                        12/11 Q1017=
200810211730 METAR LPPR 211730Z 01011KT 9999 FEW017 SCT040 BKN090 12/11
                        Q1017=
200810211700 METAR LPPR 211700Z 35009KT 7000 -RA SCT008 BKN040 BKN090
                        12/11 Q1017=
200810211630 METAR LPPR 211630Z 35011KT 6000 -RA SCT008 BKN040 BKN080
                        12/11 Q1017=
200810211600 METAR LPPR 211600Z 36010KT 6000 -RA SCT008 BKN040 BKN080
                        12/11 Q1017=
200810211530 METAR LPPR 211530Z 01012KT 6000 -RA SCT008 BKN040 BKN080
                        12/11 Q1017=
200810211500 METAR LPPR 211500Z 35016KT 5000 -RA BR SCT005 SCT008 BKN030
                        12/11 Q1017=
200810211430 METAR LPPR 211430Z 35017KT 5000 -RA BR SCT005 SCT008 BKN020
                        12/11 Q1017=
200810211400 METAR LPPR 211400Z 35017KT 4000 -RA BR SCT004 SCT007 BKN017
                        13/13 Q1016=
200810211330 METAR LPPR 211330Z 34017KT 3000 -RA BR SCT003 BKN005 BKN017
                        13/13 Q1016=
200810211300 METAR LPPR 211300Z 33014KT 3000 -RA BR SCT002 BKN005 BKN015
                        15/14 Q1016=
200810211230 METAR LPPR 211230Z 25006KT 210V290 4000 -RA BR SCT002 BKN005
                        BKN015 16/16 Q1016=
200810211200 METAR LPPR 211200Z 19007KT 2000 -RA BR BKN005 BKN015 17/17
                        Q1016=
200810211130 METAR LPPR 211130Z 19007KT 170V230 7000 -RA SCT007 SCT013
                        BKN020 18/17 Q1016=
200810211100 METAR LPPR 211100Z 21005KT 160V250 7000 -RA SCT012 BKN080
                        18/16 Q1016=
200810211030 METAR LPPR 211030Z 19005KT 150V220 7000 SCT012 BKN080 BKN200
                        18/16 Q1016=
200810211000 METAR LPPR 211000Z 20004KT 160V230 7000 FEW009 BKN020 BKN080
                        18/16 Q1017=
200810210930 METAR LPPR 210930Z VRB03KT 6000 FEW009 BKN020 BKN080 17/16
                        Q1017=
200810210900 METAR LPPR 210900Z 13004KT 6000 FEW015 BKN090 BKN250 17/15
                        Q1017=
200810210830 METAR LPPR 210830Z 12006KT 6000 FEW015 SCT090 BKN250 15/14
                        Q1017=
200810210800 METAR LPPR 210800Z 11006KT 5000 BR FEW015 SCT090 BKN250 14/14
                        Q1017=
200810210730 METAR LPPR 210730Z 11005KT 4000 BR SCT090 BKN250 14/14 Q1016=
200810210700 METAR LPPR 210700Z VRB03KT 3500 BR SCT090 BKN250 13/13 Q1016=
200810210630 METAR LPPR 210630Z 00000KT 3500 BR SCT090 BKN250 13/13 Q1016=
200810210600 METAR LPPR 210600Z 00000KT 3000 BR FEW090 BKN250 13/13 Q1016=
200810210530 METAR LPPR 210530Z 00000KT 3000 BR FEW000 BKN250 13/13 Q1016=
200810210500 METAR LPPR 210500Z 00000KT 3500 BR FEW090 BKN250 13/13 Q1016=
200810210430 METAR LPPR 210430Z VRB03KT 3500 BR FEW090 13/13 Q1016=
200810210400 METAR LPPR 210400Z 00000KT 2000 R17/0550V0900N R35/P1500
                        BCFG BR FEW090 12/12 Q1017=
200810210330 METAR LPPR 210330Z 00000KT 2000 BR SKC 12/12 Q1017=
200810210300 METAR LPPR 210300Z 00000KT 2000 BR SKC 13/13 Q1017=
200810210230 METAR LPPR 210230Z 00000KT 2000 BR SKC 13/13 Q1017=
200810210200 METAR LPPR 210200Z 00000KT 2000 BR FEW000 13/13 Q1017=
200810210130 METAR LPPR 210130Z 00000KT 2000 BR SCT000 14/14 Q1017=
200810210100 METAR LPPR 210100Z 00000KT 5000 BR SKC 14/14 Q1018=
200810210030 METAR LPPR 210030Z 00000KT 5000 BR SKC 14/13 Q1018=
200810210000 METAR LPPR 210000Z 00000KT 8000 SKC 14/14 Q1018=
200810202330 METAR LPPR 202330Z 00000KT 8000 SKC 14/14 Q1018=
200810202300 METAR LPPR 202300Z 00000KT CAVOK 15/14 Q1018=
200810202230 METAR LPPR 202230Z 00000KT CAVOK 15/14 Q1018=
200810202200 METAR LPPR 202200Z 36002KT CAVOK 15/14 Q1018=
200810202130 METAR LPPR 202130Z 34004KT CAVOK 15/14 Q1018=
200810202100 METAR LPPR 202100Z 00000KT CAVOK 15/14 Q1018=
200810202030 METAR LPPR 202030Z VRB02KT CAVOK 15/14 Q1018=
200810202000 METAR LPPR 202000Z 36005KT CAVOK 16/15 Q1018=
200810201930 METAR LPPR 201930Z 35004KT CAVOK 16/14 Q1018=
200810201900 METAR LPPR 201900Z 35002KT CAVOK 17/15 Q1017=
200810201830 METAR LPPR 201830Z VRB02KT CAVOK 18/15 Q1017=
200810201800 METAR LPPR 201800Z 35003KT CAVOK 19/15 Q1017=
200810201730 METAR LPPR 201730Z 33005KT CAVOK 20/16 Q1017=
200810201700 METAR LPPR 201700Z 32003KT 9999 FEW020 SCT100 21/15 Q1017=
200810201630 METAR LPPR 201630Z 32005KT 9999 FEW020 SCT250 21/15 Q1017=
200810201600 METAR LPPR 201600Z 32006KT 290V350 9999 FEW020 SCT250 21/15
                        Q1017=
200810201530 METAR LPPR 201530Z 32008KT 9999 FEW020 22/16 Q1017=
200810201500 METAR LPPR 201500Z 32008KT 9999 FEW020 22/16 Q1018=
200810201430 METAR LPPR 201430Z 32006KT 290V350 9999 FEW020 22/16 Q1018=
200810201400 METAR LPPR 201400Z 32006KT 290V350 9999 FEW017 SCT250 22/16
                        Q1018=
200810201330 METAR LPPR 201330Z 32007KT 280V020 CAVOK 22/16 Q1018=
200810201300 METAR LPPR 201300Z 31011KT 270V330 CAVOK 22/16 Q1018=
200810201230 METAR LPPR 201230Z VRB03KT CAVOK 25/15 Q1018=
200810201200 METAR LPPR 201200Z 14005KT 110V180 CAVOK 25/16 Q1019=
200810201130 METAR LPPR 201130Z 11005KT 080V160 CAVOK 24/16 Q1019=
200810201100 METAR LPPR 201100Z 10004KT 050V140 CAVOK 22/15 Q1019=
200810201030 METAR LPPR 201030Z 11005KT 060V140 CAVOK 21/15 Q1019=
200810201000 METAR LPPR 201000Z 11004KT 050V150 CAVOK 20/15 Q1019=
200810200930 METAR LPPR 200930Z 10005KT CAVOK 20/15 Q1019=
200810200900 METAR LPPR 200900Z VRB03KT CAVOK 20/15 Q1019=
200810200830 METAR LPPR 200830Z 00000KT CAVOK 18/15 Q1019=
200810200800 METAR LPPR 200800Z VRB03KT CAVOK 14/14 Q1019=
200810200730 METAR LPPR 200730Z 36003KT CAVOK 12/12 Q1019=
200810200700 METAR LPPR 200700Z VRB03KT CAVOK 12/12 Q1018=
200810200630 METAR LPPR 200630Z 00000KT CAVOK 13/13 Q1018=
200810200600 METAR LPPR 200600Z VRB03KT CAVOK 13/13 Q1018=
200810200530 METAR LPPR 200530Z 00000KT CAVOK 13/12 Q1017=
200810200500 METAR LPPR 200500Z VRB03KT CAVOK 14/13 Q1017=
200810200430 METAR LPPR 200430Z 09005KT CAVOK 14/14 Q1018=
200810200400 METAR LPPR 200400Z VRB02KT CAVOK 14/13 Q1018=
200810200330 METAR LPPR 200330Z 36004KT 330V030 CAVOK 14/13 Q1018=
200810200300 METAR LPPR 200300Z VRB03KT CAVOK 14/13 Q1017=
200810200230 METAR LPPR 200230Z VRB03KT CAVOK 16/14 Q1018=
200810200200 METAR LPPR 200200Z VRB03KT CAVOK 15/14 Q1018=
200810200130 METAR LPPR 200130Z VRB03KT CAVOK 14/13 Q1018=
200810200100 METAR LPPR 200100Z 00000KT CAVOK 15/13 Q1018=
200810200030 METAR LPPR 200030Z 10003KT CAVOK 16/14 Q1018=
200810200000 METAR LPPR 200000Z VRB02KT CAVOK 15/13 Q1018=
200810192330 METAR LPPR 192330Z VRB02KT CAVOK 16/14 Q1018=
200810192300 METAR LPPR 192300Z VRB02KT CAVOK 16/14 Q1019=
200810192230 METAR LPPR 192230Z 10003KT CAVOK 16/14 Q1019=
200810192200 METAR LPPR 192200Z 00000KT CAVOK 16/14 Q1019=
200810192130 METAR LPPR 192130Z 00000KT CAVOK 15/14 Q1019=
200810192100 METAR LPPR 192100Z 00000KT CAVOK 15/14 Q1019=
200810192030 METAR LPPR 192030Z 00000KT CAVOK 15/14 Q1018=
200810192000 METAR LPPR 192000Z 00000KT CAVOK 16/14 Q1018=
200810191930 METAR LPPR 191930Z 02002KT 9999 FEW025 16/14 Q1018=
200810191900 METAR LPPR 191900Z 00000KT 9999 FEW025 16/14 Q1018=
200810191830 METAR LPPR 191830Z 35004KT 9999 FEW020 16/14 Q1018=
200810191800 METAR LPPR 191800Z 35004KT 9999 FEW020 18/15 Q1017=
200810191730 METAR LPPR 191730Z 32008KT 9999 FEW020 19/15 Q1017=
200810191700 METAR LPPR 191700Z 32007KT 9999 FEW017 20/15 Q1017=
200810191630 METAR LPPR 191630Z 31007KT 9999 FEW017 21/15 Q1017=
200810191600 METAR LPPR 191600Z 31006KT 250V030 9999 FEW017 22/15 Q1017=
200810191530 METAR LPPR 191530Z 31006KT 9999 FEW017 22/15 Q1017=
200810191500 METAR LPPR 191500Z 30007KT 270V330 9999 FEW017 21/15 Q1017=
200810191430 METAR LPPR 191430Z 28007KT 9999 FEW017 22/15 Q1017=
200810191400 METAR LPPR 191400Z 27007KT 9999 FEW017 22/15 Q1017=
200810191330 METAR LPPR 191330Z VRB03G15KT 9999 FEW017 24/15 Q1017=
200810191300 METAR LPPR 191300Z VRB03KT CAVOK 24/16 Q1017=
200810191230 METAR LPPR 191230Z VRB03KT CAVOK 24/16 Q1018=
200810191200 METAR LPPR 191200Z VRB03KT CAVOK 24/15 Q1018=
200810191130 METAR LPPR 191130Z VRB03KT CAVOK 23/14 Q1018=
200810191100 METAR LPPR 191100Z VRB03KT CAVOK 22/15 Q1018=
200810191030 METAR LPPR 191030Z VRB03KT CAVOK 21/14 Q1018=
200810191000 METAR LPPR 191000Z VRB03KT CAVOK 20/14 Q1018=
200810190930 METAR LPPR 190930Z 11004KT 070V130 CAVOK 19/14 Q1018=
200810190900 METAR LPPR 190900Z VRB03KT CAVOK 18/14 Q1018=
200810190830 METAR LPPR 190830Z VRB03KT CAVOK 17/14 Q1018=
200810190800 METAR LPPR 190800Z 00000KT 3500 MIFG SKC 14/13 Q1018=
200810190730 METAR LPPR 190730Z 00000KT CAVOK 14/13 Q1017=
200810190700 METAR LPPR 190700Z 00000KT 8000 SKC 13/12 Q1017=
200810190630 METAR LPPR 190630Z 00000KT 6000 SKC 13/12 Q1017=
200810190600 METAR LPPR 190600Z VRB02KT 6000 SKC 14/13 Q1017=
200810190530 METAR LPPR 190530Z VRB03KT 6000 SKC 15/13 Q1017=
200810190500 METAR LPPR 190500Z 11006KT 6000 SKC 15/14 Q1016=
200810190430 METAR LPPR 190430Z 11005KT 5000 BR SKC 15/14 Q1016=
200810190400 METAR LPPR 190400Z 10005KT 5000 BR SKC 15/14 Q1016=
200810190330 METAR LPPR 190330Z 11005KT 5000 BR SKC 15/14 Q1016=
200810190300 METAR LPPR 190300Z 08003KT 4000 BR SKC 15/14 Q1016=
200810190230 METAR LPPR 190230Z VRB03KT 4000 BR SKC 14/14 Q1016=
200810190200 METAR LPPR 190200Z 00000KT 4000 BR SKC 14/14 Q1016=
200810190130 METAR LPPR 190130Z 00000KT 4000 BR SKC 14/14 Q1016=
200810190100 METAR LPPR 190100Z 10005KT 5000 BR SKC 14/14 Q1017=
200810190030 METAR LPPR 190030Z 00000KT 5000 BR SKC 14/14 Q1016=
200810190000 METAR LPPR 190000Z VRB02KT 5000 BR SKC 13/13 Q1016=
200810182330 METAR LPPR 182330Z 00000KT 6000 SKC 13/13 Q1017=
200810182300 METAR LPPR 182300Z 00000KT 6000 SKC 13/13 Q1017=
200810182230 METAR LPPR 182230Z 00000KT 6000 SKC 14/13 Q1017=
200810182200 METAR LPPR 182200Z 00000KT 6000 SKC 14/14 Q1017=
200810182130 METAR LPPR 182130Z 00000KT 8000 SKC 15/14 Q1017=
200810182100 METAR LPPR 182100Z 00000KT 8000 FEW250 14/14 Q1017=
200810182030 METAR LPPR 182030Z 00000KT 8000 FEW250 15/14 Q1017=
200810182000 METAR LPPR 182000Z 00000KT 7000 FEW250 15/14 Q1016=
200810181930 METAR LPPR 181930Z 00000KT 5000 BR FEW250 15/14 Q1016=
200810181900 METAR LPPR 181900Z 00000KT 5000 BR FEW080 16/14 Q1016=
200810181830 METAR LPPR 181830Z VRB03KT 7000 FEW080 16/14 Q1016=
200810181800 METAR LPPR 181800Z 00000KT CAVOK 17/15 Q1016=
200810181730 METAR LPPR 181730Z VRB03KT CAVOK 19/14 Q1016=
200810181700 METAR LPPR 181700Z 34005KT 280V360 9999 FEW030 19/14 Q1016=
200810181630 METAR LPPR 181630Z 32005KT 9999 FEW025 19/15 Q1015=
200810181600 METAR LPPR 181600Z 32006KT 290V350 9999 FEW025 19/14 Q1015=
200810181530 METAR LPPR 181530Z 31008KT 9999 FEW025 19/14 Q1016=
200810181500 METAR LPPR 181500Z 32009KT CAVOK 19/15 Q1016=
200810181430 METAR LPPR 181430Z 32008KT 290V350 CAVOK 19/15 Q1016=
200810181400 METAR LPPR 181400Z 31010KT 7000 FEW017 19/15 Q1016=
200810181330 METAR LPPR 181330Z 30008KT 260V330 6000 FEW017 19/16 Q1016=
200810181300 METAR LPPR 181300Z 28007KT 250V310 6000 FEW017 19/16 Q1016=
200810181230 METAR LPPR 181230Z 26005KT 6000 FEW015 20/16 Q1016=
200810181200 METAR LPPR 181200Z 27005KT 220V320 7000 FEW015 20/17 Q1016=
200810181130 METAR LPPR 181130Z VRB02KT 7000 FEW013 20/15 Q1017=
200810181100 METAR LPPR 181100Z VRB03KT 6000 BR SCT013 19/15 Q1017=
200810181030 METAR LPPR 181030Z VRB02KT 6000 SCT008 18/15 Q1017=
200810181000 METAR LPPR 181000Z VRB02KT 5000 BR FEW008 18/15 Q1017=
200810180930 METAR LPPR 180930Z 00000KT 4000 BR FEW008 SCT250 18/16 Q1017=
200810180900 METAR LPPR 180900Z 00000KT 4000 BR FEW015 SCT040 16/16 Q1017=
200810180830 METAR LPPR 180830Z 00000KT 2500 BR SCT045 15/15 Q1017=
200810180800 METAR LPPR 180800Z 00000KT 2000 BR FEW002 BKN045 15/15 Q1017=
200810180730 METAR LPPR 180730Z 00000KT 1500 BR FEW002 BKN050 14/14 Q1017=
200810180700 METAR LPPR 180700Z 36002KT 1500 BR FEW002 BKN040 14/14 Q1016=
200810180630 METAR LPPR 180630Z 00000KT 3000 BR FEW002 BKN040 14/14 Q1016=
200810180600 METAR LPPR 180600Z 11003KT 3000 BR FEW002 BKN035 14/14 Q1016=
200810180530 METAR LPPR 180530Z 00000KT 3000 BR FEW002 BKN035 14/14 Q1016=
200810180500 METAR LPPR 180500Z 00000KT 2500 BR FEW002 BKN030 14/14 Q1016=
200810180430 METAR LPPR 180430Z 00000KT 2500 BR FEW002 BKN060 14/14 Q1016=
200810180400 METAR LPPR 180400Z 00000KT 2000N R17/1200VP1500 R35/1100VP1500
                        -RA BR FEW002 BKN060 14/14 Q1016=
200810180330 METAR LPPR 180330Z 01003KT 3000 BR SCT030 BKN090 14/14 Q1016=
200810180300 METAR LPPR 180300Z 02002KT 3000 BR SCT030 BKN090 15/15 Q1016=
200810180230 METAR LPPR 180230Z 01002KT 3000 BR SCT030 BKN090 15/15 Q1016=
200810180200 METAR LPPR 180200Z 00000KT 4000 BR SCT030 BKN090 15/15 Q1017=
200810180130 METAR LPPR 180130Z 00000KT 4000 BR SCT030 BKN090 15/15 Q1017=
200810180100 METAR LPPR 180100Z 00000KT 5000 BR FEW015 SCT030 BKN090 15/15
                        Q1017=
200810180030 METAR LPPR 180030Z 00000KT 5000 BR FEW015 SCT030 BKN090 15/15
                        Q1017=
200810180000 METAR LPPR 180000Z 00000KT 4000 BR FEW015 SCT030 BKN080 15/15
                        Q1017=
200810172330 METAR LPPR 172330Z 00000KT 5000 BR FEW015 SCT035 BKN080 15/15
                        Q1017=
200810172300 METAR LPPR 172300Z 00000KT 5000 BR FEW015 BKN035 15/15 Q1018=
200810172230 METAR LPPR 172230Z 00000KT 5000 BR FEW015 BKN030 15/15 Q1018=
200810172200 METAR LPPR 172200Z 00000KT 6000 FEW015 SCT030 BKN080 15/15
                        Q1018=
200810172130 METAR LPPR 172130Z 00000KT 9999 FEW015 SCT030 BKN080 15/15
                        Q1018=
200810172100 METAR LPPR 172100Z 00000KT 9999 FEW012 SCT020 16/16 Q1018=
200810172030 METAR LPPR 172030Z 03002KT 8000 FEW012 SCT020 BKN070 16/16
                        Q1018=
200810172000 METAR LPPR 172000Z 00000KT 8000 FEW012 SCT020 BKN070 16/16
                        Q1018=
200810171930 METAR LPPR 171930Z 00000KT 8000 FEW012 BKN070 16/15 Q1018=
200810171900 METAR LPPR 171900Z 00000KT 9999 FEW012 SCT020 BKN070 16/16
                        Q1018=
200810171830 METAR LPPR 171830Z 22002KT 8000 -SHRA SCT012 BKN020 17/16
                        Q1017=
200810171800 METAR LPPR 171800Z 22002KT 9999 -SHRA FEW011 BKN020 17/15
                        Q1017=
200810171730 METAR LPPR 171730Z VRB03KT 9999 FEW011 BKN020 BKN080 17/15
                        Q1017=
200810171700 METAR LPPR 171700Z VRB02KT 9999 FEW011 BKN020 17/15 Q1017=
200810171630 METAR LPPR 171630Z VRB03KT 9999 FEW011 FEW020TCU SCT030 BKN080
                        18/15 Q1017=
200810171600 METAR LPPR 171600Z VRB03KT 9999 FEW011 SCT030 BKN080 18/16
                        Q1017=
200810171530 METAR LPPR 171530Z 26004KT 220V290 9999 FEW012 SCT030 BKN080
                        18/16 Q1017=
200810171500 METAR LPPR 171500Z 25004KT 200V290 9999 FEW012 SCT030 BKN080
                        19/16 Q1018=
200810171430 METAR LPPR 171430Z 25004KT 210V310 9999 FEW013 BKN080 18/16
                        Q1018=
200810171400 METAR LPPR 171400Z 28005KT 240V320 9999 FEW013 BKN090 18/15
                        Q1018=
200810171330 METAR LPPR 171330Z 28005KT 260V320 9999 FEW013 SCT090 BKN250
                        19/15 Q1018=
200810171300 METAR LPPR 171300Z 28004KT 230V340 9999 FEW013 SCT090 BKN250
                        19/15 Q1018=
200810171230 METAR LPPR 171230Z 28004KT 230V350 9999 FEW013 BKN250 19/15
                        Q1019=
200810171200 METAR LPPR 171200Z 28005KT 210V320 9999 FEW013 BKN250 18/14
                        Q1019=
200810171130 METAR LPPR 171130Z 27007KT 210V010 9999 SCT013 BKN250 18/15
                        Q1019=
200810171100 METAR LPPR 171100Z 27004KT 210V010 9999 SCT013 19/15 Q1019=
200810171030 METAR LPPR 171030Z VRB02KT 9999 SCT013 18/15 Q1019=
200810171000 METAR LPPR 171000Z VRB04KT 9999 SCT013 18/15 Q1019=
200810170930 METAR LPPR 170930Z 00000KT 9999 SCT013 18/16 Q1019=
200810170900 METAR LPPR 170900Z 00000KT 9999 FEW013 SCT250 16/16 Q1019=
200810170830 METAR LPPR 170830Z 13002KT 8000 FEW015 BKN080 15/15 Q1019=
200810170800 METAR LPPR 170800Z 00000KT 5000 BR FEW015 SCT050 SCT080 14/14
                        Q1019=
200810170730 METAR LPPR 170730Z 00000KT 8000 FEW015 SCT050 BKN080 13/13
                        Q1019=
200810170700 METAR LPPR 170700Z 00000KT 9999 SCT045 SCT100 13/13 Q1019=
200810170630 METAR LPPR 170630Z 00000KT 9999 FEW015 SCT040 BKN100 14/14
                        Q1019=
200810170600 METAR LPPR 170600Z 00000KT 9999 FEW015 SCT100 14/14 Q1019=
200810170530 METAR LPPR 170530Z 00000KT 9999 SCT015 14/14 Q1019=
200810170500 METAR LPPR 170500Z 00000KT 5000 BR SCT003 SCT005 BKN020 14/14
                        Q1019=
200810170430 METAR LPPR 170430Z 33003KT 3000 BR SCT002 SCT004 BKN020 15/15
                        Q1019=
200810170400 METAR LPPR 170400Z 35004KT 3000 BR SCT002 SCT004 BKN020 15/15
                        Q1019=
200810170330 METAR LPPR 170330Z 35004KT 290V020 3500 BR SCT002 SCT005
                        BKN020 15/15 Q1019=
200810170300 METAR LPPR 170300Z 34004KT 3000 BR SCT002 SCT004 BKN020 15/15
                        Q1019=
200810170230 METAR LPPR 170230Z 03003KT 3000 BR FEW002 SCT004 BKN020 16/16
                        Q1020=
200810170200 METAR LPPR 170200Z VRB02KT 4000 BR FEW004 SCT006 BKN020 16/16
                        Q1020=
200810170130 METAR LPPR 170130Z 33004KT 300V360 3000 BR SCT001 BKN007
                        BKN020 17/17 Q1021=
200810170100 METAR LPPR 170100Z 00000KT 3000 BR SCT003 BKN008 BKN025 17/17
                        Q1021=
200810170030 METAR LPPR 170030Z VRB03KT 4000 BR FEW002 SCT009 BKN025 17/17
                        Q1021=
200810170000 METAR LPPR 170000Z 00000KT 4000 BR FEW005 SCT009 BKN015 17/17
                        Q1021=
200810162330 METAR LPPR 162330Z 00000KT 4000 BR SCT005 BKN008 BKN014 17/17
                        Q1021=
200810162300 METAR LPPR 162300Z 34005KT 3000 -DZ BR VCFG SCT002 BKN005
                        17/17 Q1021=
200810162230 METAR LPPR 162230Z 31003KT 3500 BR VCFG SCT002 SCT005 BKN020
                        17/17 Q1021=
200810162200 METAR LPPR 162200Z 34003KT 3000 -DZ VCFG BR SCT002 SCT004
                        BKN020 17/17 Q1021=
200810162130 METAR LPPR 162130Z VRB02KT 3000 BR VCFG SCT003 SCT005 BKN020
                        17/17 Q1021=
200810162100 METAR LPPR 162100Z 31003KT 7000 BR FEW002 SCT012 BKN020 17/17
                        Q1021=
200810162030 METAR LPPR 162030Z 00000KT 3000 BR VCFG SCT005 SCT012 BKN020
                        17/17 Q1021=
200810162000 METAR LPPR 162000Z 33003KT 5000 BR FEW007 SCT010 BKN019 17/17
                        Q1021=
200810161930 METAR LPPR 161930Z 33003KT 8000 SCT005 BKN012 17/17 Q1022=
200810161900 METAR LPPR 161900Z 33004KT 270V350 1500 -DZ BR SCT002 SCT005
                        BKN012 17/17 Q1022=
200810161830 METAR LPPR 161830Z VRB02KT 0700 R17/P1500 R35/P1500 -DZ BCFG
                        SCT001 BKN004 18/18 Q1021=
200810161800 METAR LPPR 161800Z 00000KT 0600 R17/P1500 R35/P1500 -DZ BCFG
                        SCT001 BKN003 18/18 Q1021=
200810161730 METAR LPPR 161730Z 22004KT 190V250 0500 R17/P1500 R35/1200VP1500
                        -DZ BCFG SCT001 BKN003 18/18 Q1021=
200810161700 METAR LPPR 161700Z 21004KT 180V240 0800 R17/P1500 R35/P1500
                        BCFG SCT001 BKN003 18/18 Q1021=
200810161630 METAR LPPR 161630Z 21006KT 1500 -RADZ VCFG SCT001 BKN003
                        BKN005 18/18 Q1021=
200810161600 METAR LPPR 161600Z 20007KT 1500 -RADZ VCFG BR SCT001 BKN003
                        BKN005 18/18 Q1021=
200810161530 METAR LPPR 161530Z 19010KT 3000 -RADZ BR SCT002 BKN005 BKN012
                        18/18 Q1021 RERA=
200810161500 METAR LPPR 161500Z 20009KT 2000 RADZ BR SCT001 BKN003 BKN010
                        18/18 Q1022=
200810161430 METAR LPPR 161430Z 20009KT 2000 RADZ BR SCT001 BKN003 BKN010
                        18/18 Q1022=
200810161400 METAR LPPR 161400Z 20009KT 2500 -RADZ BR SCT001 BKN005 BKN012
                        18/18 Q1022=
200810161330 METAR LPPR 161330Z 20010KT 2000 -RADZ BR SCT001 BKN005 BKN012
                        18/18 Q1022=
200810161300 METAR LPPR 161300Z 20009KT 2500 -RA BR FEW004 BKN005 BKN012
                        18/18 Q1023=
200810161230 METAR LPPR 161230Z 19009KT 4000 BR FEW003 SCT005 BKN012 19/19
                        Q1023=
200810161200 METAR LPPR 161200Z 20008KT 3000 -RA BR SCT002 BKN005 18/18
                        Q1023=
200810161130 METAR LPPR 161130Z 19008KT 3000 -DZRA BR SCT003 BKN005 18/18
                        Q1024=
200810161100 METAR LPPR 161100Z 19007KT 3000 BR FEW001 BKN004 BKN012 18/18
                        Q1024=
200810161030 METAR LPPR 161030Z 20007KT 170V230 2000 -DZ BR SCT001 BKN003
                        18/18 Q1024=
200810161000 METAR LPPR 161000Z 21007KT 170V240 1500 -DZ BR SCT001 BKN003
                        18/18 Q1024=
200810160930 METAR LPPR 160930Z 20007KT 170V230 2000 -DZ BR SCT001 BKN004
                        18/18 Q1024=
200810160900 METAR LPPR 160900Z 21005KT 170V250 2500 -DZ BR SCT004 BKN005
                        18/18 Q1023=
200810160830 METAR LPPR 160830Z 18004KT 4000 BR FEW002 SCT006 BKN015 18/18
                        Q1023=
200810160800 METAR LPPR 160800Z 18005KT 3500 BR SCT002 BKN005 BKN025 18/18
                        Q1023=
200810160730 METAR LPPR 160730Z 16005KT 3000 BR SCT001 BKN005 17/17 Q1023=
200810160700 METAR LPPR 160700Z 17005KT 3500 BR FEW001 BKN005 17/17 Q1023=
200810160630 METAR LPPR 160630Z 17004KT 5000 BR SCT003 BKN006 17/17 Q1023=
200810160600 METAR LPPR 160600Z 18005KT 5000 BR SCT003 BKN006 17/17 Q1023=
200810160530 METAR LPPR 160530Z 18004KT 4000 BR SCT002 BKN006 17/17 Q1023=
200810160500 METAR LPPR 160500Z 20003KT 4000 BR FEW002 SCT004 BKN007 17/17
                        Q1023=
200810160430 METAR LPPR 160430Z VRB02KT 4000 BR SCT002 BKN007 17/17 Q1023=
200810160400 METAR LPPR 160400Z 00000KT 4000 BR SCT005 BKN015 17/17 Q1023=
200810160330 METAR LPPR 160330Z 29003KT 6000 BKN005 BKN007 17/17 Q1023=
200810160300 METAR LPPR 160300Z 14003KT 7000 BKN005 BKN007 18/17 Q1023=
200810160230 METAR LPPR 160230Z 13002KT 7000 BKN007 BKN014 18/17 Q1023=
200810160200 METAR LPPR 160200Z VRB03KT 7000 SCT007 SCT014 BKN025 18/17
                        Q1023=
200810160130 METAR LPPR 160130Z 13003KT 7000 SCT008 SCT014 BKN030 18/17
                        Q1023=
200810160100 METAR LPPR 160100Z 13004KT 7000 SCT006 SCT008 BKN025 18/17
                        Q1024=
200810160030 METAR LPPR 160030Z 14004KT 7000 BKN006 BKN008 18/17 Q1024=
200810160000 METAR LPPR 160000Z 13004KT 7000 BKN006 BKN008 18/17 Q1024=
200810152330 METAR LPPR 152330Z 11003KT 7000 SCT006 SCT012 BKN020 18/17
                        Q1024=
200810152300 METAR LPPR 152300Z 12003KT 6000 SCT004 BKN006 18/17 Q1024=
200810152230 METAR LPPR 152230Z 13004KT 6000 BKN004 BKN006 18/17 Q1024=
200810152200 METAR LPPR 152200Z 12003KT 5000 BR BKN005 BKN008 18/17 Q1024=
200810152130 METAR LPPR 152130Z 12004KT 5000 BR BKN005 BKN008 17/17 Q1024=
200810152100 METAR LPPR 152100Z 11003KT 6000 SCT005 BKN008 17/17 Q1024=
200810152030 METAR LPPR 152030Z 00000KT 6000 FEW005 SCT030 16/16 Q1024=
200810152000 METAR LPPR 152000Z 00000KT 8000 SCT018 16/16 Q1024=
200810151930 METAR LPPR 151930Z 00000KT 7000 FEW020 16/16 Q1024=
200810151900 METAR LPPR 151900Z 00000KT 7000 FEW008 17/16 Q1024=
200810151830 METAR LPPR 151830Z VRB02KT 8000 FEW008 17/16 Q1024=
200810151800 METAR LPPR 151800Z 34003KT 8000 FEW008 18/16 Q1023=
200810151730 METAR LPPR 151730Z 33005KT 8000 FEW008 19/17 Q1023=
200810151700 METAR LPPR 151700Z 32006KT 8000 FEW010 19/17 Q1023=
200810151630 METAR LPPR 151630Z 31006KT 270V340 CAVOK 20/17 Q1023=
200810151600 METAR LPPR 151600Z 31007KT 260V340 CAVOK 20/16 Q1023=
200810151530 METAR LPPR 151530Z 32007KT 290V350 CAVOK 20/16 Q1023=
200810151500 METAR LPPR 151500Z 32009KT CAVOK 20/16 Q1023=
200810151430 METAR LPPR 151430Z 32008KT 260V350 9999 FEW020 21/16 Q1023=
200810151400 METAR LPPR 151400Z 28008KT 260V320 CAVOK 21/16 Q1023=
200810151330 METAR LPPR 151330Z VRB03KT 5000 BR FEW007 21/16 Q1023=
200810151300 METAR LPPR 151300Z 29006KT 260V330 5000 BR SCT007 21/16 Q1024=
200810151230 METAR LPPR 151230Z 28005KT 5000 BR SCT007 20/17 Q1024=
200810151200 METAR LPPR 151200Z 28006KT 260V320 5000 BR SCT007 19/17 Q1024=
200810151130 METAR LPPR 151130Z 00000KT 5000 BR SKC 21/17 Q1024=
200810151100 METAR LPPR 151100Z 00000KT 5000 BR SKC 20/16 Q1024=
200810151030 METAR LPPR 151030Z 00000KT 4000 BR SCT005 19/17 Q1025=
200810151000 METAR LPPR 151000Z 00000KT 3500 BR VCFG SCT005 18/16 Q1025=
200810150930 METAR LPPR 150930Z 00000KT 2500N BR VCFG SCT003 16/16 Q1025=
200810150900 METAR LPPR 150900Z 11004KT 080V140 1500 BR VCFG SCT001 15/15
                        Q1024=
200810150830 METAR LPPR 150830Z 00000KT 1200 R17/P1500 R35/P1500 BR VCFG
                        SCT000 14/14 Q1024=
200810150800 METAR LPPR 150800Z VRB02KT 2000 BR SKC 13/13 Q1024=
200810150730 METAR LPPR 150730Z 00000KT 2000 BR SKC 12/12 Q1023=
200810150700 METAR LPPR 150700Z 00000KT 2000 BR SKC 13/13 Q1023=
200810150630 METAR LPPR 150630Z VRB03KT 2000 BR SKC 13/13 Q1023=
200810150600 METAR LPPR 150600Z 00000KT 2000 BR SKC 12/12 Q1023=
200810150530 METAR LPPR 150530Z 00000KT 2000 BR SKC 12/12 Q1022=
200810150500 METAR LPPR 150500Z 00000KT 2000 BR SKC 12/12 Q1022=
200810150430 METAR LPPR 150430Z 00000KT 3000 BR FEW250 12/12 Q1023=
200810150400 METAR LPPR 150400Z 00000KT 5000 BR FEW250 13/13 Q1022=
200810150330 METAR LPPR 150330Z 00000KT 5000 BR FEW250 13/13 Q1022=
200810150300 METAR LPPR 150300Z VRB03KT 8000 SKC 14/14 Q1023=
200810150230 METAR LPPR 150230Z 00000KT 8000 SKC 13/13 Q1023=
200810150200 METAR LPPR 150200Z 00000KT 8000 SKC 13/13 Q1023=
200810150130 METAR LPPR 150130Z 00000KT 8000 SKC 13/13 Q1023=
200810150100 METAR LPPR 150100Z 00000KT 8000 SKC 13/13 Q1023=
200810150030 METAR LPPR 150030Z 00000KT 8000 SKC 13/13 Q1023=
200810150000 METAR LPPR 150000Z 00000KT 8000 SKC 13/13 Q1023=
200810142330 METAR LPPR 142330Z 03003KT 8000 SKC 13/13 Q1023=
200810142300 METAR LPPR 142300Z 00000KT CAVOK 14/13 Q1023=
200810142230 METAR LPPR 142230Z 00000KT CAVOK 14/14 Q1023=
200810142200 METAR LPPR 142200Z 00000KT CAVOK 15/14 Q1023=
200810142130 METAR LPPR 142130Z 00000KT CAVOK 15/14 Q1023=
200810142100 METAR LPPR 142100Z 35003KT CAVOK 15/14 Q1023=
200810142030 METAR LPPR 142030Z 34005KT 320V020 CAVOK 15/14 Q1023=
200810142000 METAR LPPR 142000Z 35006KT CAVOK 16/14 Q1023=
200810141930 METAR LPPR 141930Z 34007KT 8000 SKC 16/14 Q1023=
200810141900 METAR LPPR 141900Z 34005KT 8000 FEW100 16/14 Q1023=
200810141830 METAR LPPR 141830Z 34005KT 300V010 7000 FEW100 17/15 Q1022=
200810141800 METAR LPPR 141800Z 33006KT 7000 FEW100 18/15 Q1022=
200810141730 METAR LPPR 141730Z 33005KT 8000 FEW100 19/16 Q1022=
200810141700 METAR LPPR 141700Z 33007KT 7000 FEW100 19/16 Q1022=
200810141630 METAR LPPR 141630Z 31007KT 5000 BR SCT100 20/16 Q1022=
200810141600 METAR LPPR 141600Z 32006KT 290V010 5000 BR SCT250 20/16 Q1022=
200810141530 METAR LPPR 141530Z 32008KT 290V350 5000 BR SCT250 20/16 Q1022=
200810141500 METAR LPPR 141500Z 32007KT 5000 BR SCT250 19/17 Q1022=
200810141430 METAR LPPR 141430Z 33009KT 5000 BR SCT250 19/16 Q1022=
200810141400 METAR LPPR 141400Z 29007KT 5000 BR SCT250 19/16 Q1022=
200810141330 METAR LPPR 141330Z 28006KT 260V320 5000 BR SCT250 19/16 Q1022=
200810141300 METAR LPPR 141300Z 29006KT 5000 BR SCT250 18/16 Q1022=
200810141230 METAR LPPR 141230Z 28005KT 5000 BR SCT250 20/18 Q1023=
200810141200 METAR LPPR 141200Z VRB02KT 5000 BR SCT250 21/17 Q1023=
200810141130 METAR LPPR 141130Z 00000KT 5000 BR SCT250 20/17 Q1023=
200810141100 METAR LPPR 141100Z 00000KT 4000 BR VCFG SCT004 19/16 Q1023=
200810141030 METAR LPPR 141030Z 00000KT 2000 BR VCFG SCT002 SCT005 17/16
                        Q1024=
200810141000 METAR LPPR 141000Z 31005KT 270V340 1200 R17/P1500 R35/P1500
                        BR VCFG BKN003 BKN005 16/16 Q1024=
200810140930 METAR LPPR 140930Z 00000KT 3000 BR VCFG SCT003 17/16 Q1024=
200810140900 METAR LPPR 140900Z 00000KT 5000 BR FEW250 17/16 Q1023=
200810140830 METAR LPPR 140830Z 00000KT 5000 BR FEW250 15/15 Q1023=
200810140800 METAR LPPR 140800Z 13003KT 5000 BR FEW250 14/14 Q1023=
200810140730 METAR LPPR 140730Z 16002KT 5000 BR FEW250 13/13 Q1022=
200810140700 METAR LPPR 140700Z 00000KT 5000 BR FEW250 13/13 Q1022=
200810140630 METAR LPPR 140630Z 00000KT 5000 BR SKC 13/13 Q1022=
200810140600 METAR LPPR 140600Z 00000KT 5000 BR SKC 14/14 Q1022=
200810140530 METAR LPPR 140530Z 00000KT 4000 BR SKC 13/13 Q1022=
200810140500 METAR LPPR 140500Z 00000KT 5000 BR SKC 13/13 Q1022=
200810140430 METAR LPPR 140430Z 00000KT 6000 SKC 14/14 Q1022=
200810140400 METAR LPPR 140400Z VRB02KT 7000 SKC 14/14 Q1022=
200810140330 METAR LPPR 140330Z 00000KT 8000 SKC 13/13 Q1022=
200810140300 METAR LPPR 140300Z 00000KT 7000 SKC 13/13 Q1022=
200810140230 METAR LPPR 140230Z 00000KT 7000 SKC 13/13 Q1022=
200810140200 METAR LPPR 140200Z 00000KT 7000 SKC 13/13 Q1022=
200810140130 METAR LPPR 140130Z 00000KT 7000 SKC 13/13 Q1023=
200810140100 METAR LPPR 140100Z 00000KT 7000 SKC 14/14 Q1022=
200810140030 METAR LPPR 140030Z 00000KT 7000 SKC 15/15 Q1022=
200810140000 METAR LPPR 140000Z 00000KT 8000 SKC 15/15 Q1022=
200810132330 METAR LPPR 132330Z 15002KT 8000 FEW080 14/14 Q1022=
200810132300 METAR LPPR 132300Z 00000KT 7000 FEW080 15/15 Q1022=
200810132230 METAR LPPR 132230Z 00000KT 7000 FEW080 14/14 Q1023=
200810132200 METAR LPPR 132200Z 35002KT 7000 FEW080 15/14 Q1023=
200810132130 METAR LPPR 132130Z 00000KT 8000 FEW080 15/15 Q1023=
200810132100 METAR LPPR 132100Z 00000KT 8000 FEW080 15/15 Q1023=
200810132030 METAR LPPR 132030Z 00000KT 8000 FEW080 15/15 Q1022=
200810132000 METAR LPPR 132000Z 00000KT 8000 FEW080 16/15 Q1022=
200810131930 METAR LPPR 131930Z 34002KT 8000 FEW080 16/15 Q1022=
200810131900 METAR LPPR 131900Z VRB03KT CAVOK 17/15 Q1022=
200810131830 METAR LPPR 131830Z 34004KT 280V350 CAVOK 17/15 Q1022=
200810131800 METAR LPPR 131800Z 33004KT 9999 FEW030 18/15 Q1022=
200810131730 METAR LPPR 131730Z 33005KT 9999 FEW030 19/16 Q1022=
200810131700 METAR LPPR 131700Z 32006KT 270V340 9999 FEW030 19/16 Q1022=
200810131630 METAR LPPR 131630Z 32007KT 290V350 9999 FEW025 20/16 Q1022=
200810131600 METAR LPPR 131600Z 31008KT 280V340 9999 FEW025 20/16 Q1022=
200810131530 METAR LPPR 131530Z 32008KT 9999 FEW025 20/16 Q1022=
200810131500 METAR LPPR 131500Z 32009KT 300V360 9999 FEW025 21/16 Q1022=
200810131430 METAR LPPR 131430Z 31008KT 260V350 9999 FEW025 21/16 Q1022=
200810131400 METAR LPPR 131400Z 29007KT 270V330 9999 FEW025 21/16 Q1022=
200810131330 METAR LPPR 131330Z 30005KT 230V340 9999 FEW025 21/16 Q1022=
200810131300 METAR LPPR 131300Z 31008KT 9999 FEW025 21/17 Q1023=
200810131230 METAR LPPR 131230Z 32007KT 290V350 9999 FEW025 21/16 Q1023=
200810131200 METAR LPPR 131200Z 31007KT 260V340 9999 FEW025 20/17 Q1023=
200810131130 METAR LPPR 131130Z 28007KT 230V310 9999 FEW020 SCT030 20/17
                        Q1023=
200810131100 METAR LPPR 131100Z 28005KT 250V310 9999 SCT020 20/17 Q1023=
200810131030 METAR LPPR 131030Z VRB03KT 9999 SCT020 22/17 Q1023=
200810131000 METAR LPPR 131000Z VRB02KT 9999 FEW020 21/17 Q1023=
200810130930 METAR LPPR 130930Z 00000KT CAVOK 20/17 Q1023=
200810130900 METAR LPPR 130900Z 12004KT CAVOK 19/17 Q1023=
200810130830 METAR LPPR 130830Z 11006KT 9999 FEW040 18/16 Q1023=
200810130800 METAR LPPR 130800Z 00000KT 9999 FEW040 17/16 Q1023=
200810130730 METAR LPPR 130730Z 00000KT 9999 FEW040 16/15 Q1022=
200810130700 METAR LPPR 130700Z VRB03KT 9999 FEW040 16/15 Q1022=
200810130630 METAR LPPR 130630Z 12006KT 9999 FEW040 16/16 Q1021=
200810130600 METAR LPPR 130600Z 00000KT 9999 FEW040 15/15 Q1021=
200810130530 METAR LPPR 130530Z 11004KT 9999 FEW040 16/16 Q1021=
200810130500 METAR LPPR 130500Z 12005KT 9999 FEW040 SCT080 16/16 Q1021=
200810130430 METAR LPPR 130430Z VRB02KT 9999 SCT040 SCT080 16/16 Q1021=
200810130400 METAR LPPR 130400Z 11003KT 9999 SCT040 SCT080 16/16 Q1021=
200810130330 METAR LPPR 130330Z 10004KT 9999 SCT030 BKN080 17/16 Q1021=
200810130300 METAR LPPR 130300Z 00000KT 9999 BKN030 BKN070 17/16 Q1022=
200810130230 METAR LPPR 130230Z 11004KT 9999 BKN030 BKN070 17/16 Q1022=
200810130200 METAR LPPR 130200Z VRB03KT 9999 BKN030 BKN070 17/16 Q1022=
200810130130 METAR LPPR 130130Z 05004KT 7000 -RA FEW020 BKN030 17/17 Q1022
                        RERA=
200810130100 METAR LPPR 130100Z 00000KT 7000 RA FEW020 BKN030 17/17 Q1022=
200810130030 METAR LPPR 130030Z 00000KT 7000 -RA FEW020 BKN030 17/17 Q1022=
200810130000 METAR LPPR 130000Z 00000KT 9999 FEW020 BKN030 18/17 Q1022=
200810122330 METAR LPPR 122330Z 00000KT 9999 FEW020 BKN030 18/17 Q1022=
200810122300 METAR LPPR 122300Z 13002KT 9999 FEW020 BKN030 18/17 Q1022=
200810122230 METAR LPPR 122230Z 00000KT 9999 FEW020 BKN030 18/17 Q1022=
200810122200 METAR LPPR 122200Z 00000KT 9999 -SHRA FEW020 BKN030 17/17
                        Q1022=
200810122130 METAR LPPR 122130Z 00000KT 9999 FEW020 BKN035 BKN100 17/17
                        Q1022=
200810122100 METAR LPPR 122100Z 20003KT 9999 -SHRA FEW020 BKN040 BKN100
                        18/17 Q1022=
200810122030 METAR LPPR 122030Z VRB03KT 9999 -SHRA FEW020 BKN035 BKN070
                        18/17 Q1022=
200810122000 METAR LPPR 122000Z 19004KT 9999 FEW020 BKN035 BKN070 18/18
                        Q1022 RERA=
200810121930 METAR LPPR 121930Z 15008KT 7000 SHRA FEW020 BKN030 18/17
                        Q1022=
200810121900 METAR LPPR 121900Z 17008KT 9000 -SHRA FEW020TCU BKN030 18/17
                        Q1021=
200810121830 METAR LPPR 121830Z 18008KT 7000 SCT020TCU SCT050 BKN080 18/17
                        Q1021=
200810121800 METAR LPPR 121800Z 18007KT 7000 SCT020TCU SCT050 BKN080 18/17
                        Q1020=
200810121730 METAR LPPR 121730Z 19005KT 8000 SCT020 BKN050 BKN100 19/17
                        Q1020=
200810121700 METAR LPPR 121700Z 20005KT 180V250 8000 FEW020 FEW025TCU
                        BKN050 BKN100 19/17 Q1020=
200810121630 METAR LPPR 121630Z 20004KT 8000 FEW020 FEW025CB BKN050 BKN100
                        19/17 Q1020 RERA=
200810121600 METAR LPPR 121600Z 19005KT 160V230 5000 SHRA BR FEW009 SCT020
                        FEW025CB BKN050 20/17 Q1020=
200810121530 METAR LPPR 121530Z 23006KT 9999 FEW020 FEW025TCU SCT050 BKN100
                        21/15 Q1020=
200810121500 METAR LPPR 121500Z 23008KT 200V260 9999 FEW020 FEW025TCU
                        BKN100 21/15 Q1020=
200810121430 METAR LPPR 121430Z 23006KT 190V270 9999 FEW020 BKN100 22/16
                        Q1020=
200810121400 METAR LPPR 121400Z 26006KT 230V300 9999 FEW020 BKN100 22/17
                        Q1020=
200810121330 METAR LPPR 121330Z 24007KT 9999 FEW020 BKN100 23/17 Q1020=
200810121300 METAR LPPR 121300Z 25005KT 220V290 9999 SCT020 BKN080 23/17
                        Q1020=
200810121230 METAR LPPR 121230Z 25006KT 9999 FEW025 SCT080 24/18 Q1021=
200810121200 METAR LPPR 121200Z 00000KT 9999 SCT025 25/17 Q1021=
200810121130 METAR LPPR 121130Z 00000KT 9999 FEW025 25/17 Q1021=
200810121100 METAR LPPR 121100Z 12004KT 090V160 9999 FEW025 24/17 Q1021=
200810121030 METAR LPPR 121030Z 13005KT 100V170 9999 SCT025 23/17 Q1021=
200810121000 METAR LPPR 121000Z 13006KT 9999 BKN025 22/17 Q1021=
200810120930 METAR LPPR 120930Z VRB03KT 9999 SCT025 22/17 Q1021=
200810120900 METAR LPPR 120900Z 00000KT 9999 FEW020 21/17 Q1021=
200810120830 METAR LPPR 120830Z 09002KT 9999 FEW020 20/17 Q1020=
200810120800 METAR LPPR 120800Z 00000KT 9999 FEW020 SCT030 18/16 Q1020=
200810120730 METAR LPPR 120730Z 00000KT 9999 BKN030 17/16 Q1020=
200810120700 METAR LPPR 120700Z 00000KT 9999 BKN030 SCT090 17/16 Q1019=
200810120630 METAR LPPR 120630Z 00000KT 9999 FEW040 BKN090 17/16 Q1019=
200810120600 METAR LPPR 120600Z 00000KT 9999 FEW040 BKN090 18/16 Q1019=
200810120530 METAR LPPR 120530Z 00000KT 9999 SCT040 BKN090 18/16 Q1019=
200810120500 METAR LPPR 120500Z 00000KT 9999 SCT040 BKN090 19/16 Q1018=
200810120430 METAR LPPR 120430Z 00000KT 9999 SCT040 BKN090 20/16 Q1018=
200810120400 METAR LPPR 120400Z VRB03KT 9999 BKN040 SCT090 20/16 Q1018=
200810120330 METAR LPPR 120330Z VRB03KT 9999 FEW040 BKN090 20/16 Q1018=
200810120300 METAR LPPR 120300Z 11004KT 9999 FEW025 SCT080 BKN100 21/16
                        Q1018=
200810120230 METAR LPPR 120230Z 10004KT 9999 FEW025 SCT080 BKN100 21/16
                        Q1018=
200810120200 METAR LPPR 120200Z 10004KT CAVOK 21/16 Q1018=
200810120130 METAR LPPR 120130Z 10004KT 9999 FEW025 BKN080 21/16 Q1018=
200810120100 METAR LPPR 120100Z 10004KT 9999 FEW040 BKN100 21/16 Q1018=
200810120030 METAR LPPR 120030Z 11005KT 9999 FEW040 BKN090 21/16 Q1018=
200810120000 METAR LPPR 120000Z 12006KT CAVOK 21/16 Q1018=
200810112330 METAR LPPR 112330Z 13005KT 9999 FEW030 BKN090 21/16 Q1018=
200810112300 METAR LPPR 112300Z 11005KT 090V150 9999 FEW030 BKN090 21/15
                        Q1018=
200810112230 METAR LPPR 112230Z 10004KT 070V130 9999 FEW030 BKN090 21/15
                        Q1018=
200810112200 METAR LPPR 112200Z 11004KT 9999 FEW030 BKN090 21/15 Q1018=
200810112130 METAR LPPR 112130Z 10003KT 9999 FEW020 BKN090 21/15 Q1017=
200810112100 METAR LPPR 112100Z 10003KT 9999 FEW020 BKN100 21/15 Q1017=
200810112030 METAR LPPR 112030Z 00000KT 9999 FEW020 BKN100 20/16 Q1017=
200810112000 METAR LPPR 112000Z 00000KT 9999 FEW020 BKN100 19/16 Q1017=
200810111930 METAR LPPR 111930Z 00000KT 9999 FEW025 SCT090 20/17 Q1017=
200810111900 METAR LPPR 111900Z VRB02KT 9999 FEW025 BKN090 21/17 Q1017=
200810111830 METAR LPPR 111830Z 00000KT 9999 FEW025 BKN070 22/17 Q1016=
200810111800 METAR LPPR 111800Z 00000KT 9999 -SHRA FEW025 SCT040 BKN070
                        24/17 Q1016=
200810111730 METAR LPPR 111730Z 00000KT 9999 FEW025 BKN070 24/17 Q1016=
200810111700 METAR LPPR 111700Z 00000KT 9999 FEW025 BKN070 24/16 Q1016=
200810111630 METAR LPPR 111630Z VRB03KT 9999 FEW025 SCT070 BKN250 25/16
                        Q1016=
200810111600 METAR LPPR 111600Z 05005KT 020V100 CAVOK 26/15 Q1016=
200810111530 METAR LPPR 111530Z 03006KT 350V060 CAVOK 25/15 Q1015=
200810111500 METAR LPPR 111500Z 03008KT 350V060 9999 FEW030 SCT090 BKN250
                        26/15 Q1015=
200810111430 METAR LPPR 111430Z VRB03KT 9999 FEW030 BKN090 26/15 Q1016=
200810111400 METAR LPPR 111400Z 10005KT 050V140 CAVOK 26/15 Q1016=
200810111330 METAR LPPR 111330Z 09005KT 040V130 CAVOK 26/14 Q1016=
200810111300 METAR LPPR 111300Z 11008KT 090V150 CAVOK 27/14 Q1017=
200810111230 METAR LPPR 111230Z 10009KT 060V160 CAVOK 26/14 Q1017=
200810111200 METAR LPPR 111200Z 10010KT 080V160 CAVOK 25/13 Q1017=
200810111130 METAR LPPR 111130Z 10008KT 050V130 CAVOK 25/14 Q1017=
200810111100 METAR LPPR 111100Z 10009KT 070V140 CAVOK 24/14 Q1017=
200810111030 METAR LPPR 111030Z 10008KT 060V140 CAVOK 23/13 Q1017=
200810111000 METAR LPPR 111000Z 09008KT 060V130 CAVOK 23/13 Q1017=
200810110930 METAR LPPR 110930Z 11011KT CAVOK 23/13 Q1017=
200810110900 METAR LPPR 110900Z 09008G18KT 060V140 CAVOK 22/12 Q1017=
200810110830 METAR LPPR 110830Z 09005KT 050V130 CAVOK 22/12 Q1017=
200810110800 METAR LPPR 110800Z 09005KT 350V130 CAVOK 22/12 Q1017=
200810110730 METAR LPPR 110730Z 11008KT 080V140 CAVOK 21/12 Q1017=
200810110700 METAR LPPR 110700Z 10010KT CAVOK 21/11 Q1017=
200810110630 METAR LPPR 110630Z 11011KT 080V140 CAVOK 21/11 Q1017=
200810110600 METAR LPPR 110600Z 11008KT 070V140 CAVOK 21/12 Q1016=
200810110530 METAR LPPR 110530Z 09005KT 010V140 CAVOK 22/12 Q1016=
200810110500 METAR LPPR 110500Z 10008KT 060V140 CAVOK 22/11 Q1016=
200810110430 METAR LPPR 110430Z 10011KT CAVOK 22/11 Q1016=
200810110400 METAR LPPR 110400Z 09007KT 060V120 CAVOK 22/11 Q1016=
200810110330 METAR LPPR 110330Z 09007KT 060V130 CAVOK 22/11 Q1016=
200810110300 METAR LPPR 110300Z 09008KT 050V130 CAVOK 22/11 Q1017=
200810110230 METAR LPPR 110230Z 07006KT 040V100 CAVOK 22/11 Q1017=
200810110200 METAR LPPR 110200Z 08007KT 030V160 CAVOK 23/11 Q1017=
200810110130 METAR LPPR 110130Z 06004KT 010V110 CAVOK 23/12 Q1018=
200810110100 METAR LPPR 110100Z 07005KT 040V110 CAVOK 22/12 Q1018=
200810110030 METAR LPPR 110030Z 08005KT 050V110 CAVOK 22/13 Q1019=
200810110000 METAR LPPR 110000Z 15004KT 120V180 CAVOK 20/13 Q1019=
200810102330 METAR LPPR 102330Z VRB03KT CAVOK 22/13 Q1019=
200810102300 METAR LPPR 102300Z 06004KT 020V100 CAVOK 23/13 Q1019=
200810102230 METAR LPPR 102230Z 08005KT 020V120 CAVOK 24/13 Q1019=
200810102200 METAR LPPR 102200Z 06007KT 020V090 CAVOK 24/13 Q1019=
200810102130 METAR LPPR 102130Z 05006KT CAVOK 23/13 Q1019=
200810102100 METAR LPPR 102100Z 05006KT 360V090 CAVOK 23/13 Q1019=
200810102030 METAR LPPR 102030Z 04005KT 020V080 CAVOK 22/13 Q1019=
200810102000 METAR LPPR 102000Z 04005KT CAVOK 22/14 Q1019=
200810101930 METAR LPPR 101930Z 04005KT CAVOK 24/14 Q1019=
200810101900 METAR LPPR 101900Z 05004KT CAVOK 24/13 Q1019=
200810101830 METAR LPPR 101830Z 02004KT CAVOK 24/14 Q1019=
200810101800 METAR LPPR 101800Z 02004KT CAVOK 25/14 Q1019=
200810101730 METAR LPPR 101730Z 04005KT 360V090 CAVOK 26/14 Q1019=
200810101700 METAR LPPR 101700Z 05007KT 020V080 CAVOK 27/14 Q1019=
200810101630 METAR LPPR 101630Z 04006KT 350V070 CAVOK 27/14 Q1019=
200810101600 METAR LPPR 101600Z 08006KT 040V130 CAVOK 28/13 Q1020=
200810101530 METAR LPPR 101530Z 05008KT 010V120 CAVOK 27/13 Q1020=
200810101500 METAR LPPR 101500Z 05006KT 360V100 CAVOK 27/13 Q1020=
200810101430 METAR LPPR 101430Z 03007KT 350V080 CAVOK 27/14 Q1021=
200810101400 METAR LPPR 101400Z 03009KT 350V060 CAVOK 26/13 Q1021=
200810101330 METAR LPPR 101330Z 04008KT 360V080 CAVOK 26/13 Q1021=
200810101300 METAR LPPR 101300Z 07006KT 350V130 CAVOK 25/12 Q1022=
200810101230 METAR LPPR 101230Z 08005KT 030V130 CAVOK 25/12 Q1022=
200810101200 METAR LPPR 101200Z 08009KT 040V120 CAVOK 24/11 Q1023=
200810101130 METAR LPPR 101130Z 10010KT 060V130 CAVOK 23/11 Q1023=
200810101100 METAR LPPR 101100Z 10011KT 070V140 CAVOK 22/11 Q1023=
200810101030 METAR LPPR 101030Z 07008KT 350V130 CAVOK 21/10 Q1024=
200810101000 METAR LPPR 101000Z 08008KT 030V130 CAVOK 20/10 Q1024=
200810100930 METAR LPPR 100930Z 09005KT 040V130 CAVOK 20/09 Q1024=
200810100900 METAR LPPR 100900Z 06006KT 010V110 CAVOK 18/09 Q1024=
200810100830 METAR LPPR 100830Z VRB03KT CAVOK 17/08 Q1024=
200810100800 METAR LPPR 100800Z 00000KT CAVOK 16/09 Q1024=
200810100730 METAR LPPR 100730Z VRB03KT CAVOK 13/07 Q1023=
200810100700 METAR LPPR 100700Z 01004KT 280V090 CAVOK 14/07 Q1023=
200810100630 METAR LPPR 100630Z 35006KT CAVOK 10/07 Q1023=
200810100600 METAR LPPR 100600Z 00000KT CAVOK 10/07 Q1023=
200810100530 METAR LPPR 100530Z 06003KT CAVOK 10/06 Q1023=
200810100500 METAR LPPR 100500Z 00000KT CAVOK 11/07 Q1023=
200810100430 METAR LPPR 100430Z 04003KT CAVOK 12/07 Q1023=
200810100400 METAR LPPR 100400Z 03006KT CAVOK 13/06 Q1023=
200810100330 METAR LPPR 100330Z 03006KT CAVOK 14/06 Q1024=
200810100300 METAR LPPR 100300Z 06005KT CAVOK 13/06 Q1024=
200810100230 METAR LPPR 100230Z 04005KT CAVOK 13/06 Q1024=
200810100200 METAR LPPR 100200Z 36004KT CAVOK 11/06 Q1025=
200810100130 METAR LPPR 100130Z 00000KT CAVOK 11/06 Q1025=
200810100100 METAR LPPR 100100Z 00000KT CAVOK 12/07 Q1025=
200810100030 METAR LPPR 100030Z VRB02KT CAVOK 13/07 Q1025=
200810100000 METAR LPPR 100000Z 05005KT CAVOK 15/07 Q1025=
200810092330 METAR LPPR 092330Z 04004KT CAVOK 14/08 Q1025=
200810092300 METAR LPPR 092300Z 03004KT CAVOK 13/09 Q1025=
200810092230 METAR LPPR 092230Z 36005KT 340V040 CAVOK 13/10 Q1025=
200810092200 METAR LPPR 092200Z VRB03KT CAVOK 14/10 Q1025=
200810092130 METAR LPPR 092130Z 07004KT CAVOK 16/10 Q1025=
200810092100 METAR LPPR 092100Z 04005KT CAVOK 15/11 Q1025=
200810092030 METAR LPPR 092030Z 35003KT CAVOK 14/10 Q1025=
200810092000 METAR LPPR 092000Z VRB03KT CAVOK 14/11 Q1024=
200810091930 METAR LPPR 091930Z VRB02KT CAVOK 14/11 Q1024=
200810091900 METAR LPPR 091900Z VRB02KT CAVOK 15/11 Q1024=
200810091830 METAR LPPR 091830Z 01004KT CAVOK 15/11 Q1024=
200810091800 METAR LPPR 091800Z 34004KT CAVOK 17/11 Q1024=
200810091730 METAR LPPR 091730Z 35006KT CAVOK 18/11 Q1024=
200810091700 METAR LPPR 091700Z 33007KT CAVOK 19/11 Q1024=
200810091630 METAR LPPR 091630Z 35012KT CAVOK 19/09 Q1023=
200810091600 METAR LPPR 091600Z 34012KT CAVOK 20/09 Q1024=
200810091530 METAR LPPR 091530Z 32009KT 290V350 CAVOK 21/10 Q1024=
200810091500 METAR LPPR 091500Z 33009KT CAVOK 21/10 Q1024=
200810091430 METAR LPPR 091430Z 05007KT 360V120 CAVOK 22/08 Q1024=
200810091400 METAR LPPR 091400Z 03007KT 350V070 CAVOK 22/08 Q1025=
200810091330 METAR LPPR 091330Z 03006KT 340V070 CAVOK 21/08 Q1025=
200810091300 METAR LPPR 091300Z 05006KT 010V100 CAVOK 21/09 Q1025=
200810091230 METAR LPPR 091230Z 07005KT 350V140 CAVOK 20/08 Q1026=
200810091200 METAR LPPR 091200Z 04006KT 350V080 CAVOK 20/09 Q1026=
200810091130 METAR LPPR 091130Z 03007KT 360V080 CAVOK 19/09 Q1027=
200810091100 METAR LPPR 091100Z 02007KT 350V050 CAVOK 19/09 Q1027=
200810091030 METAR LPPR 091030Z 03005KT 340V080 CAVOK 18/09 Q1027=
200810091000 METAR LPPR 091000Z 01004KT 350V050 CAVOK 18/10 Q1027=
200810090930 METAR LPPR 090930Z 02004KT 350V050 CAVOK 17/10 Q1027=
200810090900 METAR LPPR 090900Z VRB02KT CAVOK 16/10 Q1027=
200810090830 METAR LPPR 090830Z VRB03KT CAVOK 15/09 Q1027=
200810090800 METAR LPPR 090800Z 07002KT CAVOK 12/09 Q1026=
200810090730 METAR LPPR 090730Z 00000KT CAVOK 10/08 Q1026=
200810090700 METAR LPPR 090700Z VRB03KT CAVOK 11/08 Q1026=
200810090630 METAR LPPR 090630Z 06004KT CAVOK 10/09 Q1026=
200810090600 METAR LPPR 090600Z 05003KT CAVOK 10/08 Q1025=
200810090530 METAR LPPR 090530Z 06004KT 030V090 CAVOK 12/09 Q1025=
200810090500 METAR LPPR 090500Z 07004KT CAVOK 12/09 Q1025=
200810090430 METAR LPPR 090430Z 08004KT CAVOK 12/09 Q1025=
200810090400 METAR LPPR 090400Z 06005KT CAVOK 12/10 Q1025=
200810090330 METAR LPPR 090330Z 08005KT CAVOK 12/10 Q1024=
200810090300 METAR LPPR 090300Z 07003KT CAVOK 11/11 Q1024=
200810090230 METAR LPPR 090230Z 06004KT CAVOK 11/11 Q1024=
200810090200 METAR LPPR 090200Z VRB02KT CAVOK 11/11 Q1024=
200810090130 METAR LPPR 090130Z VRB03KT CAVOK 10/10 Q1024=
200810090100 METAR LPPR 090100Z 36003KT CAVOK 11/10 Q1024=
200810090030 METAR LPPR 090030Z 34004KT CAVOK 11/10 Q1024=
200810090000 METAR LPPR 090000Z 35003KT CAVOK 11/11 Q1024=
200810082330 METAR LPPR 082330Z 35003KT CAVOK 11/11 Q1024=
200810082300 METAR LPPR 082300Z 00000KT CAVOK 12/11 Q1024=
200810082230 METAR LPPR 082230Z 32002KT CAVOK 12/11 Q1024=
200810082200 METAR LPPR 082200Z 00000KT CAVOK 13/12 Q1024=
200810082130 METAR LPPR 082130Z VRB02KT CAVOK 13/12 Q1024=
200810082100 METAR LPPR 082100Z 35005KT CAVOK 13/12 Q1024=
200810082030 METAR LPPR 082030Z 35004KT CAVOK 14/12 Q1024=
200810082000 METAR LPPR 082000Z VRB03KT CAVOK 15/13 Q1024=
200810081930 METAR LPPR 081930Z 33007KT CAVOK 15/13 Q1023=
200810081900 METAR LPPR 081900Z 34007KT CAVOK 15/13 Q1023=
200810081830 METAR LPPR 081830Z 33008KT 9999 FEW017 16/13 Q1023=
200810081800 METAR LPPR 081800Z 32007KT 9999 FEW017 16/14 Q1023=
200810081730 METAR LPPR 081730Z 32007KT 300V360 9999 FEW017 17/13 Q1023=
200810081700 METAR LPPR 081700Z 33009KT 9999 FEW017 18/13 Q1022=
200810081630 METAR LPPR 081630Z 33007KT 9999 FEW017 18/14 Q1022=
200810081600 METAR LPPR 081600Z 32009KT 9999 FEW017 SCT070 18/14 Q1022=
200810081530 METAR LPPR 081530Z 32009KT 9999 FEW017 SCT070 19/14 Q1022=
200810081500 METAR LPPR 081500Z 32008KT 9999 FEW017 SCT070 18/14 Q1022=
200810081430 METAR LPPR 081430Z 31009KT 9999 FEW015 SCT070 18/14 Q1022=
200810081400 METAR LPPR 081400Z 28007KT 250V340 9999 FEW015 FEW020TCU
                        SCT070 19/14 Q1022=
200810081330 METAR LPPR 081330Z 29006KT 260V340 9999 FEW015 FEW020TCU
                        SCT070 19/15 Q1023=
200810081300 METAR LPPR 081300Z VRB03KT 9000 FEW015 FEW020TCU FEW025CB
                        BKN070 18/15 Q1023=
200810081230 METAR LPPR 081230Z 28004KT 250V330 9000 FEW015 FEW020CB BKN070
                        17/15 Q1023=
200810081200 METAR LPPR 081200Z 27004KT 240V320 8000 FEW009 FEW020CB BKN070
                        17/15 Q1023=
200810081130 METAR LPPR 081130Z 28005KT 230V330 7000 FEW009 SCT015 FEW020CB
                        BKN250 18/16 Q1023=
200810081100 METAR LPPR 081100Z VRB03G14KT 6000 FEW007 SCT015 BKN250 18/16
                        Q1023=
200810081030 METAR LPPR 081030Z 00000KT 4000 BR FEW005 SCT017 BKN250 18/16
                        Q1023=
200810081000 METAR LPPR 081000Z 00000KT 3000 BR SCT001 SCT004 17/16 Q1023=
200810080930 METAR LPPR 080930Z VRB02KT 2500 BR VCFG SCT001 SCT003 15/15
                        Q1023=
200810080900 METAR LPPR 080900Z VRB02KT 0800 R17/1300VP1500 R35/1300VP1500
                        FG BKN000 BKN001 14/14 Q1023=
200810080830 METAR LPPR 080830Z VRB02KT 0500 R17/1000N R35/0900V1000U
                        FG BKN000 BKN001 14/14 Q1023=
200810080800 METAR LPPR 080800Z 12003KT 1200 R17/P1500 R35/P1500 BR SCT000
                        BKN001 14/14 Q1023=
200810080700 METAR LPPR 080700Z VRB02KT 6000 SCT001 BKN003 13/13 Q1022=
200810080600 METAR LPPR 080600Z VRB02KT 8000 FEW015 BKN020 13/13 Q1022=
200810080500 METAR LPPR 080500Z VRB02KT 9999 FEW017 SCT090 13/13 Q1022=
200810080400 METAR LPPR 080400Z 00000KT 9999 FEW015 SCT090 13/13 Q1021=
200810080300 METAR LPPR 080300Z 12007KT 7000 FEW015 14/14 Q1021=
200810080200 METAR LPPR 080200Z 00000KT 7000 FEW015 13/13 Q1022=
200810080130 METAR LPPR 080130Z 00000KT 8000 FEW015 13/13 Q1022=
200810080100 METAR LPPR 080100Z 00000KT 7000 FEW015 13/13 Q1022=
200810080030 METAR LPPR 080030Z 00000KT 8000 FEW015 14/14 Q1022=
200810080000 METAR LPPR 080000Z 00000KT 9999 FEW015 14/14 Q1022=
200810072330 METAR LPPR 072330Z 00000KT 8000 SCT017 13/13 Q1022=
200810072300 METAR LPPR 072300Z 00000KT 8000 FEW017 13/13 Q1022=
200810072230 METAR LPPR 072230Z 00000KT 4000 R17/0900VP1500 R35/P1500
                        MIFG FEW250 13/13 Q1022=
200810072200 METAR LPPR 072200Z 00000KT CAVOK 13/13 Q1022=
200810072130 METAR LPPR 072130Z 00000KT CAVOK 14/14 Q1021=
200810072100 METAR LPPR 072100Z 00000KT CAVOK 14/14 Q1021=
200810072030 METAR LPPR 072030Z 00000KT CAVOK 14/14 Q1021=
200810072000 METAR LPPR 072000Z 00000KT 9999 FEW017 15/14 Q1021=
200810071930 METAR LPPR 071930Z 00000KT 9999 FEW017 15/15 Q1020=
200810071900 METAR LPPR 071900Z 33004KT 9999 FEW017 16/15 Q1020=
200810071830 METAR LPPR 071830Z 33005KT 280V360 9999 FEW017 16/15 Q1020=
200810071800 METAR LPPR 071800Z 32005KT 9999 FEW017 17/16 Q1020=
200810071730 METAR LPPR 071730Z 32007KT 290V350 9999 FEW017 18/16 Q1019=
200810071700 METAR LPPR 071700Z 33009KT 9999 FEW017 19/15 Q1019=
200810071630 METAR LPPR 071630Z 32010KT 9999 FEW017 19/15 Q1019=
200810071600 METAR LPPR 071600Z 33010KT 9999 FEW017 20/15 Q1019=
200810071530 METAR LPPR 071530Z 33011KT 9999 SCT017 20/15 Q1019=
200810071500 METAR LPPR 071500Z 32013KT 9999 SCT017 20/15 Q1018=
200810071430 METAR LPPR 071430Z 33013KT 9999 SCT017 20/15 Q1018=
200810071400 METAR LPPR 071400Z 31010KT 270V340 9999 FEW013 SCT020 19/16
                        Q1018=
200810071330 METAR LPPR 071330Z 31007KT 260V340 9999 FEW013 BKN020 19/16
                        Q1018=
200810071300 METAR LPPR 071300Z 31008KT 280V360 9999 SCT013 BKN020 18/16
                        Q1018=
200810071230 METAR LPPR 071230Z 32007KT 280V350 9999 SCT013 BKN020 18/16
                        Q1017=
200810071200 METAR LPPR 071200Z 33008KT 290V350 9999 SCT013 BKN020 18/15
                        Q1017=
200810071130 METAR LPPR 071130Z 31007KT 270V350 9999 SCT015 SCT070 17/15
                        Q1017=
200810071100 METAR LPPR 071100Z 33006KT 270V360 9999 FEW016 BKN025 16/16
                        Q1017=
200810071030 METAR LPPR 071030Z 34009KT 8000 SCT003 SCT012 BKN016 15/15
                        Q1017=
200810071000 METAR LPPR 071000Z 32011KT 3000 -RA BR SCT003 BKN007 BKN016
                        15/15 Q1016 RERA=
200810070930 METAR LPPR 070930Z 31011KT 260V350 2000 RA BR BKN001 BKN003
                        16/16 Q1016=
200810070900 METAR LPPR 070900Z 19021G32KT 0900 R17/P1500 R35/P1500 RA
                        FG BKN001 BKN003 18/18 Q1015=
200810070830 METAR LPPR 070830Z 19019KT 1500 RA BR BKN001 BKN003 17/17
                        Q1015=
200810070800 METAR LPPR 070800Z 19022KT 2500 RA BR SCT001 BKN003 18/18
                        Q1015=
200810070730 METAR LPPR 070730Z 19021KT 3000 -RA BR SCT001 BKN003 18/18
                        Q1015=
200810070700 METAR LPPR 070700Z 19021KT 3000 BR SCT001 SCT003 BKN070 17/17
                        Q1016=
200810070630 METAR LPPR 070630Z 19022KT 4000 -RA BR SCT001 SCT004 BKN070
                        17/17 Q1016=
200810070600 METAR LPPR 070600Z 19020KT 3000 -RA BR SCT001 SCT003 BKN070
                        18/18 Q1016=
200810070530 METAR LPPR 070530Z 19020KT 5000 -RA BR SCT003 BKN006 BKN011
                        18/18 Q1016=
200810070500 METAR LPPR 070500Z 18020KT 5000 -RA BR SCT003 BKN006 BKN011
                        18/18 Q1016=
200810070430 METAR LPPR 070430Z 18017KT 5000 -RA BR SCT003 BKN006 BKN011
                        18/18 Q1016=
200810070400 METAR LPPR 070400Z 18017KT 4000 -RA BR SCT003 BKN006 BKN011
                        18/18 Q1016=
200810070330 METAR LPPR 070330Z 18018KT 5000 -RA BR SCT003 BKN006 BKN011
                        18/18 Q1016=
200810070300 METAR LPPR 070300Z 18018KT 6000 -RA BKN004 BKN006 18/18 Q1017=
200810070230 METAR LPPR 070230Z 18017KT 7000 -RA BKN004 BKN007 18/18 Q1017=
200810070200 METAR LPPR 070200Z 18015KT 8000 SCT005 BKN007 18/18 Q1018=
200810070130 METAR LPPR 070130Z 18015KT 9000 SCT005 SCT007 BKN012 18/18
                        Q1018=
200810070100 METAR LPPR 070100Z 18015KT 8000 -RA BKN007 BKN012 18/18 Q1018=
200810070030 METAR LPPR 070030Z 18013KT 8000 SCT005 SCT007 BKN012 18/18
                        Q1019=
200810070000 METAR LPPR 070000Z 18012KT 8000 -RA BKN005 BKN012 19/18 Q1019=
200810062330 METAR LPPR 062330Z 18011KT 8000 -RA BKN005 BKN008 19/18 Q1019=
200810062300 METAR LPPR 062300Z 18011KT 9000 SCT005 BKN009 19/18 Q1019=
200810062230 METAR LPPR 062230Z 18011KT 9000 SCT005 BKN009 19/18 Q1020=
200810062200 METAR LPPR 062200Z 18011KT 9000 SCT005 BKN009 18/18 Q1020=
200810062130 METAR LPPR 062130Z 18010KT 9000 SCT004 BKN009 18/18 Q1020=
200810062100 METAR LPPR 062100Z 17009KT 9999 SCT005 18/17 Q1020=
200810062030 METAR LPPR 062030Z 18008KT 8000 SCT003 SCT030 18/17 Q1020=
200810062000 METAR LPPR 062000Z 18008KT 9999 FEW012 SCT030 18/17 Q1020=
200810061930 METAR LPPR 061930Z 17008KT 9999 FEW012 SCT030 18/17 Q1020=
200810061900 METAR LPPR 061900Z 18007KT 9999 FEW012 BKN030 18/17 Q1020=
200810061830 METAR LPPR 061830Z 18007KT 9999 FEW012 BKN030 18/17 Q1020=
200810061800 METAR LPPR 061800Z 20007KT 170V230 9999 FEW012 BKN030 19/17
                        Q1020=
200810061730 METAR LPPR 061730Z 20008KT 9999 FEW012 BKN030 19/17 Q1020=
200810061700 METAR LPPR 061700Z 19007KT 9999 FEW012 BKN030 19/17 Q1019=
200810061630 METAR LPPR 061630Z 20007KT 170V230 9999 FEW012 BKN030 19/17
                        Q1019=
200810061600 METAR LPPR 061600Z 20008KT 9999 FEW012 BKN030 20/17 Q1019=
200810061530 METAR LPPR 061530Z 18009KT 160V220 9999 FEW012 BKN030 20/17
                        Q1019=
200810061500 METAR LPPR 061500Z 18010KT 9999 FEW017 BKN030 19/16 Q1020=
200810061430 METAR LPPR 061430Z 20008KT 9999 FEW017 BKN030 20/16 Q1020=
200810061400 METAR LPPR 061400Z 19010KT 9999 FEW017 BKN030 21/16 Q1020=
200810061330 METAR LPPR 061330Z 20011KT 9999 FEW014 BKN018 21/16 Q1020=
200810061300 METAR LPPR 061300Z 19010KT 180V240 9999 FEW014 BKN018 20/16
                        Q1021=
200810061230 METAR LPPR 061230Z 20009KT 9999 FEW014 BKN018 20/15 Q1021=
200810061200 METAR LPPR 061200Z 22006KT 190V260 8000 FEW014 BKN018 19/15
                        Q1021=
200810061130 METAR LPPR 061130Z 21008KT 180V240 9999 FEW015 BKN030 20/15
                        Q1021=
200810061100 METAR LPPR 061100Z 18008KT 150V210 9999 FEW015 BKN030 21/15
                        Q1021=
200810061030 METAR LPPR 061030Z 14006KT 090V170 9999 FEW015 BKN030 19/13
                        Q1021=
200810061000 METAR LPPR 061000Z 13007KT 9999 FEW015 BKN030 18/12 Q1021=
200810060930 METAR LPPR 060930Z 12009KT 9999 FEW015 BKN030 17/11 Q1021=
200810060900 METAR LPPR 060900Z 12009KT 9999 FEW017 BKN030 16/11 Q1021=
200810060830 METAR LPPR 060830Z 11008KT 9999 FEW017 BKN025 15/11 Q1021=
200810060800 METAR LPPR 060800Z 00000KT 9999 FEW017 BKN025 15/11 Q1021=
200810060730 METAR LPPR 060730Z 12007KT 9999 FEW017 BKN025 15/10 Q1020=
200810060700 METAR LPPR 060700Z 12010KT 9999 FEW017 BKN020 15/10 Q1020=
200810060630 METAR LPPR 060630Z 12007KT 9999 FEW017 BKN020 14/10 Q1020=
200810060600 METAR LPPR 060600Z 11007KT 9999 SCT015 BKN020 14/10 Q1020=
200810060530 METAR LPPR 060530Z 11005KT 9999 SCT015 BKN020 14/11 Q1020=
200810060500 METAR LPPR 060500Z 12008KT 9999 SCT015 BKN020 14/10 Q1020=
200810060430 METAR LPPR 060430Z 12009KT 9999 SCT015 BKN020 15/11 Q1019=
200810060400 METAR LPPR 060400Z 11008KT 9999 SCT015 BKN020 15/10 Q1020=
200810060330 METAR LPPR 060330Z 11008KT 9999 FEW015 BKN020 14/11 Q1019=
200810060300 METAR LPPR 060300Z 11008KT 9999 SCT015 BKN020 14/11 Q1020=
200810060230 METAR LPPR 060230Z 11008KT 9999 FEW011 SCT017 BKN020 14/11
                        Q1020=
200810060200 METAR LPPR 060200Z 00000KT 9999 SCT011 BKN016 14/12 Q1020=
200810060130 METAR LPPR 060130Z 11005KT 080V140 9999 FEW020 SCT070 14/12
                        Q1020=
200810060100 METAR LPPR 060100Z 11008KT 9999 FEW020 SCT070 14/12 Q1020=
200810060030 METAR LPPR 060030Z 11007KT 9999 FEW020 SCT070 14/12 Q1020=
200810060000 METAR LPPR 060000Z 11007KT 9999 SCT020 SCT070 15/13 Q1020=
200810052330 METAR LPPR 052330Z VRB03KT 9999 SCT020 14/13 Q1020=
200810052300 METAR LPPR 052300Z VRB03KT CAVOK 14/13 Q1020=
200810052230 METAR LPPR 052230Z 11005KT CAVOK 14/13 Q1020=
200810052200 METAR LPPR 052200Z 00000KT CAVOK 13/12 Q1020=
200810052130 METAR LPPR 052130Z 00000KT CAVOK 13/12 Q1020=
200810052100 METAR LPPR 052100Z 00000KT CAVOK 13/13 Q1020=
200810052030 METAR LPPR 052030Z 00000KT CAVOK 14/12 Q1020=
200810052000 METAR LPPR 052000Z 00000KT CAVOK 15/13 Q1020=
200810051930 METAR LPPR 051930Z 00000KT CAVOK 15/13 Q1020=
200810051900 METAR LPPR 051900Z 00000KT CAVOK 15/13 Q1019=
200810051830 METAR LPPR 051830Z 00000KT CAVOK 17/14 Q1019=
200810051800 METAR LPPR 051800Z VRB02KT CAVOK 18/14 Q1019=
200810051730 METAR LPPR 051730Z VRB03KT CAVOK 19/14 Q1019=
200810051700 METAR LPPR 051700Z VRB03KT CAVOK 19/14 Q1019=
200810051630 METAR LPPR 051630Z 26004KT 210V310 CAVOK 19/14 Q1019=
200810051600 METAR LPPR 051600Z 26005KT 220V290 CAVOK 20/14 Q1019=
200810051530 METAR LPPR 051530Z 27004KT 170V320 CAVOK 20/14 Q1019=
200810051500 METAR LPPR 051500Z 27005KT 230V330 CAVOK 20/13 Q1020=
200810051430 METAR LPPR 051430Z 30005KT 240V340 CAVOK 20/13 Q1020=
200810051400 METAR LPPR 051400Z 27004KT 200V010 CAVOK 20/13 Q1020=
200810051330 METAR LPPR 051330Z 26005KT 200V310 CAVOK 20/11 Q1020=
200810051300 METAR LPPR 051300Z 25006KT 210V290 CAVOK 20/06 Q1020=
200810051230 METAR LPPR 051230Z 25006KT 210V290 CAVOK 20/04 Q1021=
200810051200 METAR LPPR 051200Z 24006KT 200V260 CAVOK 20/05 Q1021=
200810051130 METAR LPPR 051130Z 26005KT 200V290 CAVOK 20/07 Q1021=
200810051100 METAR LPPR 051100Z VRB03KT CAVOK 20/03 Q1021=
200810051030 METAR LPPR 051030Z 15004KT 120V180 CAVOK 19/07 Q1021=
200810051000 METAR LPPR 051000Z 12005KT 100V160 CAVOK 17/07 Q1021=
200810050930 METAR LPPR 050930Z 13007KT CAVOK 15/07 Q1021=
200810050900 METAR LPPR 050900Z 11005KT CAVOK 13/07 Q1021=
200810050830 METAR LPPR 050830Z 12007KT 090V150 CAVOK 12/06 Q1020=
200810050800 METAR LPPR 050800Z 00000KT CAVOK 11/07 Q1021=
200810050730 METAR LPPR 050730Z 11005KT 070V140 CAVOK 10/06 Q1020=
200810050700 METAR LPPR 050700Z 00000KT CAVOK 09/05 Q1020=
200810050630 METAR LPPR 050630Z 11005KT 030V170 CAVOK 09/06 Q1020=
200810050600 METAR LPPR 050600Z 11005KT 080V140 CAVOK 08/06 Q1020=
200810050530 METAR LPPR 050530Z 00000KT CAVOK 08/06 Q1020=
200810050500 METAR LPPR 050500Z 00000KT CAVOK 08/05 Q1020=
200810050430 METAR LPPR 050430Z 00000KT CAVOK 07/05 Q1020=
200810050400 METAR LPPR 050400Z 00000KT CAVOK 07/05 Q1020=
200810050330 METAR LPPR 050330Z 00000KT CAVOK 08/06 Q1020=
200810050300 METAR LPPR 050300Z 00000KT CAVOK 08/06 Q1020=
200810050230 METAR LPPR 050230Z 00000KT CAVOK 09/06 Q1020=
200810050200 METAR LPPR 050200Z 00000KT CAVOK 10/06 Q1020=
200810050130 METAR LPPR 050130Z 00000KT CAVOK 10/06 Q1020=
200810050100 METAR LPPR 050100Z 09003KT CAVOK 09/06 Q1021=
200810050030 METAR LPPR 050030Z 00000KT CAVOK 08/06 Q1021=
200810050000 METAR LPPR 050000Z 00000KT CAVOK 08/06 Q1021=
200810042330 METAR LPPR 042330Z 00000KT CAVOK 09/06 Q1021=
200810042300 METAR LPPR 042300Z 00000KT CAVOK 09/06 Q1021=
200810042230 METAR LPPR 042230Z 00000KT CAVOK 09/06 Q1021=
200810042200 METAR LPPR 042200Z 00000KT CAVOK 10/06 Q1022=
200810042130 METAR LPPR 042130Z 00000KT CAVOK 10/06 Q1022=
200810042100 METAR LPPR 042100Z 00000KT CAVOK 10/06 Q1022=
200810042030 METAR LPPR 042030Z 00000KT CAVOK 11/07 Q1022=
200810042000 METAR LPPR 042000Z 01003KT CAVOK 12/06 Q1022=
200810041930 METAR LPPR 041930Z 34003KT CAVOK 12/07 Q1022=
200810041900 METAR LPPR 041900Z 35003KT CAVOK 12/08 Q1022=
200810041830 METAR LPPR 041830Z 34003KT CAVOK 13/07 Q1022=
200810041800 METAR LPPR 041800Z 32004KT CAVOK 16/06 Q1022=
200810041730 METAR LPPR 041730Z VRB03KT CAVOK 17/06 Q1022=
200810041700 METAR LPPR 041700Z 31005KT 290V350 CAVOK 17/05 Q1022=
200810041630 METAR LPPR 041630Z 30004KT 250V340 CAVOK 18/06 Q1022=
200810041600 METAR LPPR 041600Z VRB03KT CAVOK 19/06 Q1022=
200810041530 METAR LPPR 041530Z 29004KT 240V330 CAVOK 18/07 Q1022=
200810041500 METAR LPPR 041500Z 31007KT 270V330 CAVOK 18/08 Q1023=
200810041430 METAR LPPR 041430Z 29006KT 250V320 CAVOK 19/07 Q1023=
200810041400 METAR LPPR 041400Z 25006KT 210V290 CAVOK 20/07 Q1023=
200810041330 METAR LPPR 041330Z 22005KT 180V280 CAVOK 21/06 Q1023=
200810041300 METAR LPPR 041300Z 24004KT 190V290 CAVOK 21/07 Q1023=
200810041230 METAR LPPR 041230Z 24004KT 190V290 CAVOK 20/05 Q1024=
200810041200 METAR LPPR 041200Z VRB03KT CAVOK 20/07 Q1024=
200810041130 METAR LPPR 041130Z VRB03KT CAVOK 20/05 Q1024=
200810041100 METAR LPPR 041100Z 15005KT 100V180 CAVOK 20/06 Q1024=
200810041030 METAR LPPR 041030Z 13005KT 100V170 CAVOK 18/06 Q1025=
200810041000 METAR LPPR 041000Z 11005KT 060V170 CAVOK 18/06 Q1025=
200810040930 METAR LPPR 040930Z 11006KT 060V130 CAVOK 17/05 Q1025=
200810040900 METAR LPPR 040900Z 10004KT 050V130 CAVOK 16/06 Q1024=
200810040830 METAR LPPR 040830Z VRB02KT CAVOK 15/05 Q1024=
200810040800 METAR LPPR 040800Z 00000KT CAVOK 14/05 Q1024=
200810040730 METAR LPPR 040730Z 09004KT 030V130 CAVOK 12/04 Q1024=
200810040700 METAR LPPR 040700Z VRB02KT CAVOK 11/04 Q1024=
200810040630 METAR LPPR 040630Z VRB03KT CAVOK 12/04 Q1023=
200810040600 METAR LPPR 040600Z 10005KT 060V130 CAVOK 13/04 Q1023=
200810040530 METAR LPPR 040530Z 09004KT 050V140 CAVOK 12/04 Q1024=
200810040500 METAR LPPR 040500Z 08004KT 050V110 CAVOK 12/04 Q1024=
200810040430 METAR LPPR 040430Z 10005KT CAVOK 12/04 Q1024=
200810040400 METAR LPPR 040400Z 10004KT CAVOK 11/05 Q1024=
200810040330 METAR LPPR 040330Z 00000KT CAVOK 08/05 Q1024=
200810040300 METAR LPPR 040300Z 00000KT CAVOK 09/05 Q1024=
200810040230 METAR LPPR 040230Z 00000KT CAVOK 09/05 Q1024=
200810040200 METAR LPPR 040200Z 04004KT CAVOK 10/05 Q1024=
200810040130 METAR LPPR 040130Z 01003KT CAVOK 09/06 Q1024=
200810040100 METAR LPPR 040100Z 00000KT CAVOK 09/06 Q1024=
200810040030 METAR LPPR 040030Z 00000KT CAVOK 09/06 Q1024=
200810040000 METAR LPPR 040000Z 00000KT CAVOK 09/06 Q1024=
200810032330 METAR LPPR 032330Z 00000KT CAVOK 10/06 Q1024=
200810032300 METAR LPPR 032300Z 00000KT CAVOK 10/06 Q1024=
200810032230 METAR LPPR 032230Z 36003KT CAVOK 10/07 Q1024=
200810032200 METAR LPPR 032200Z 36005KT CAVOK 11/07 Q1024=
200810032130 METAR LPPR 032130Z 02005KT CAVOK 13/07 Q1024=
200810032100 METAR LPPR 032100Z 02004KT CAVOK 12/08 Q1024=
200810032030 METAR LPPR 032030Z 35006KT CAVOK 12/09 Q1024=
200810032000 METAR LPPR 032000Z 35007KT CAVOK 12/09 Q1024=
200810031930 METAR LPPR 031930Z 35007KT CAVOK 13/10 Q1023=
200810031900 METAR LPPR 031900Z 35008KT CAVOK 13/10 Q1023=
200810031830 METAR LPPR 031830Z 34010KT CAVOK 15/11 Q1023=
200810031800 METAR LPPR 031800Z 34014KT CAVOK 16/11 Q1023=
200810031730 METAR LPPR 031730Z 34016KT CAVOK 16/10 Q1023=
200810031700 METAR LPPR 031700Z 33017KT CAVOK 17/10 Q1023=
200810031630 METAR LPPR 031630Z 33016KT CAVOK 18/10 Q1022=
200810031600 METAR LPPR 031600Z 33013KT CAVOK 18/10 Q1023=
200810031530 METAR LPPR 031530Z 33013KT 9999 FEW025 18/11 Q1023=
200810031500 METAR LPPR 031500Z 32015KT 9999 FEW025 18/11 Q1023=
200810031430 METAR LPPR 031430Z 32014KT 9999 FEW025 18/10 Q1023=
200810031400 METAR LPPR 031400Z 32014KT 9999 FEW025 18/10 Q1023=
200810031330 METAR LPPR 031330Z 32013KT 9999 FEW025 18/10 Q1023=
200810031300 METAR LPPR 031300Z 35011KT 320V030 9999 FEW025 19/07 Q1024=
200810031230 METAR LPPR 031230Z 03008KT 360V060 9999 FEW025 18/07 Q1024=
200810031200 METAR LPPR 031200Z 01011KT 340V040 9999 FEW025 18/07 Q1024=
200810031130 METAR LPPR 031130Z 35010KT 330V030 9999 FEW025 18/08 Q1024=
200810031100 METAR LPPR 031100Z 34011KT 9999 FEW020 17/08 Q1024=
200810031030 METAR LPPR 031030Z 36009KT 330V030 9999 FEW020 16/08 Q1024=
200810031000 METAR LPPR 031000Z 02010KT 350V050 9999 FEW020 15/08 Q1025=
200810030930 METAR LPPR 030930Z 01008KT CAVOK 15/08 Q1024=
200810030900 METAR LPPR 030900Z 36006KT 330V050 CAVOK 14/09 Q1024=
200810030830 METAR LPPR 030830Z 35006KT CAVOK 12/08 Q1024=
200810030800 METAR LPPR 030800Z 01005KT CAVOK 11/08 Q1023=
200810030730 METAR LPPR 030730Z 36004KT CAVOK 09/08 Q1023=
200810030700 METAR LPPR 030700Z 35005KT CAVOK 08/06 Q1023=
200810030630 METAR LPPR 030630Z 02003KT CAVOK 09/07 Q1023=
200810030600 METAR LPPR 030600Z VRB03KT CAVOK 09/07 Q1022=
200810030530 METAR LPPR 030530Z 01004KT CAVOK 09/07 Q1022=
200810030500 METAR LPPR 030500Z 36004KT CAVOK 08/07 Q1022=
200810030430 METAR LPPR 030430Z 34004KT CAVOK 08/07 Q1022=
200810030400 METAR LPPR 030400Z VRB02KT CAVOK 09/07 Q1022=
200810030330 METAR LPPR 030330Z 35004KT CAVOK 09/07 Q1022=
200810030300 METAR LPPR 030300Z 35004KT CAVOK 10/07 Q1022=
200810030230 METAR LPPR 030230Z 35008KT CAVOK 11/07 Q1022=
200810030200 METAR LPPR 030200Z 01007KT CAVOK 12/08 Q1022=
200810030130 METAR LPPR 030130Z 02007KT CAVOK 12/07 Q1022=
200810030100 METAR LPPR 030100Z 01007KT CAVOK 12/07 Q1022=
200810030030 METAR LPPR 030030Z 36006KT CAVOK 12/07 Q1022=
200810030000 METAR LPPR 030000Z 36005KT CAVOK 12/07 Q1022=
200810022330 METAR LPPR 022330Z 36008KT CAVOK 13/07 Q1022=
200810022300 METAR LPPR 022300Z 01006KT CAVOK 13/07 Q1022=
200810022230 METAR LPPR 022230Z 36007KT CAVOK 13/07 Q1022=
200810022200 METAR LPPR 022200Z 35008KT CAVOK 13/07 Q1021=
200810022130 METAR LPPR 022130Z 01007KT CAVOK 14/07 Q1021=
200810022100 METAR LPPR 022100Z 36009KT CAVOK 14/08 Q1021=
200810022030 METAR LPPR 022030Z 35010KT CAVOK 14/08 Q1021=
200810022000 METAR LPPR 022000Z 35012KT CAVOK 14/08 Q1020=
200810021930 METAR LPPR 021930Z 34014KT CAVOK 15/09 Q1020=
200810021900 METAR LPPR 021900Z 34015KT CAVOK 15/09 Q1020=
200810021830 METAR LPPR 021830Z 34014KT CAVOK 15/10 Q1019=
200810021800 METAR LPPR 021800Z 34017KT CAVOK 16/10 Q1019=
200810021730 METAR LPPR 021730Z 34020KT CAVOK 17/10 Q1019=
200810021700 METAR LPPR 021700Z 34021KT CAVOK 17/10 Q1019=
200810021630 METAR LPPR 021630Z 34019KT CAVOK 18/11 Q1018=
200810021600 METAR LPPR 021600Z 34021KT 9999 FEW025 18/11 Q1018=
200810021530 METAR LPPR 021530Z 33019KT 9999 FEW025 19/10 Q1018=
200810021500 METAR LPPR 021500Z 33017G27KT 9999 FEW025 19/12 Q1018=
200810021430 METAR LPPR 021430Z 33016KT 9999 FEW025 19/12 Q1018=
200810021400 METAR LPPR 021400Z 33015KT 9999 FEW025 20/13 Q1019=
200810021330 METAR LPPR 021330Z 33014KT 9999 FEW025 20/12 Q1019=
200810021300 METAR LPPR 021300Z 33015KT 9999 FEW025 19/13 Q1019=
200810021230 METAR LPPR 021230Z 33013KT 290V350 9999 FEW025 20/13 Q1019=
200810021200 METAR LPPR 021200Z 31014KT 280V340 9999 FEW025 19/14 Q1019=
200810021130 METAR LPPR 021130Z 32010KT 9999 FEW025 20/13 Q1019=
200810021100 METAR LPPR 021100Z 36011KT 330V030 9999 FEW025 20/11 Q1019=
200810021030 METAR LPPR 021030Z 35012KT 9999 FEW020 19/12 Q1019=
200810021000 METAR LPPR 021000Z 35009KT 9999 FEW020 19/13 Q1019=
200810020930 METAR LPPR 020930Z 35007KT 320V020 CAVOK 17/12 Q1019=
200810020900 METAR LPPR 020900Z 36007KT CAVOK 16/12 Q1019=
200810020830 METAR LPPR 020830Z 36005KT CAVOK 15/12 Q1019=
200810020800 METAR LPPR 020800Z VRB02KT CAVOK 14/11 Q1019=
200810020730 METAR LPPR 020730Z VRB03KT CAVOK 12/10 Q1019=
200810020700 METAR LPPR 020700Z 00000KT CAVOK 11/10 Q1018=
200810020630 METAR LPPR 020630Z 00000KT CAVOK 10/09 Q1018=
200810020600 METAR LPPR 020600Z 00000KT CAVOK 10/09 Q1018=
200810020530 METAR LPPR 020530Z 00000KT CAVOK 10/09 Q1018=
200810020500 METAR LPPR 020500Z 03003KT CAVOK 11/09 Q1017=
200810020430 METAR LPPR 020430Z 04003KT CAVOK 11/09 Q1017=
200810020400 METAR LPPR 020400Z 03003KT CAVOK 11/09 Q1017=
200810020330 METAR LPPR 020330Z 01003KT CAVOK 10/09 Q1017=
200810020300 METAR LPPR 020300Z 00000KT CAVOK 10/09 Q1017=
200810020230 METAR LPPR 020230Z 34002KT CAVOK 11/09 Q1018=
200810020200 METAR LPPR 020200Z 36002KT CAVOK 11/10 Q1018=
200810020130 METAR LPPR 020130Z 35003KT CAVOK 11/10 Q1018=
200810020100 METAR LPPR 020100Z 35003KT CAVOK 11/10 Q1018=
200810020030 METAR LPPR 020030Z 35002KT CAVOK 11/10 Q1018=
200810020000 METAR LPPR 020000Z 00000KT CAVOK 11/11 Q1018=
200810012330 METAR LPPR 012330Z 00000KT CAVOK 11/11 Q1018=
200810012300 METAR LPPR 012300Z 35002KT CAVOK 11/11 Q1018=
200810012230 METAR LPPR 012230Z 00000KT CAVOK 12/11 Q1018=
200810012200 METAR LPPR 012200Z 00000KT CAVOK 12/11 Q1018=
200810012130 METAR LPPR 012130Z 00000KT CAVOK 13/12 Q1018=
200810012100 METAR LPPR 012100Z 00000KT CAVOK 13/12 Q1018=
200810012030 METAR LPPR 012030Z 35003KT CAVOK 13/12 Q1018=
200810012000 METAR LPPR 012000Z 35003KT CAVOK 14/12 Q1018=
200810011930 METAR LPPR 011930Z 35005KT CAVOK 14/12 Q1018=
200810011900 METAR LPPR 011900Z 35007KT CAVOK 15/13 Q1018=
200810011830 METAR LPPR 011830Z 34010KT CAVOK 16/13 Q1017=
200810011800 METAR LPPR 011800Z 34010KT CAVOK 17/13 Q1017=
200810011730 METAR LPPR 011730Z 33013KT CAVOK 18/13 Q1017=
200810011700 METAR LPPR 011700Z 33013KT 300V360 CAVOK 18/13 Q1017=
200810011630 METAR LPPR 011630Z 34014KT CAVOK 19/13 Q1017=
200810011600 METAR LPPR 011600Z 34016KT CAVOK 19/13 Q1017=
200810011530 METAR LPPR 011530Z 32012KT CAVOK 20/13 Q1017=
200810011500 METAR LPPR 011500Z 32011KT CAVOK 20/13 Q1017=
200810011430 METAR LPPR 011430Z 33011KT 300V360 CAVOK 21/13 Q1017=
200810011400 METAR LPPR 011400Z 33012KT CAVOK 21/13 Q1018=
200810011330 METAR LPPR 011330Z 32010KT CAVOK 20/13 Q1018=
200810011300 METAR LPPR 011300Z 32011KT CAVOK 20/13 Q1018=
200810011230 METAR LPPR 011230Z 32009KT 290V360 CAVOK 20/14 Q1018=
200810011200 METAR LPPR 011200Z 31007KT 260V340 CAVOK 20/14 Q1019=
200810011130 METAR LPPR 011130Z 31006KT 270V350 8000 FEW250 19/14 Q1019=
200810011100 METAR LPPR 011100Z 29005KT 260V340 7000 FEW250 19/14 Q1019=
200810011030 METAR LPPR 011030Z VRB02KT 8000 FEW250 19/14 Q1019=
200810011000 METAR LPPR 011000Z 00000KT 7000 FEW250 19/14 Q1019=
200810010930 METAR LPPR 010930Z 00000KT 6000 FEW250 17/13 Q1019=
200810010900 METAR LPPR 010900Z VRB02KT 5000 BR FEW003 15/13 Q1019=
200810010830 METAR LPPR 010830Z 00000KT 2000 R17/P1500 R35/0900VP1500
                        BR VCFG FEW001 14/14 Q1019=
200810010800 METAR LPPR 010800Z 00000KT 6000 FEW007 12/12 Q1018=
200810010730 METAR LPPR 010730Z 00000KT 7000 FEW250 12/12 Q1018=
200810010700 METAR LPPR 010700Z 00000KT 7000 FEW250 11/11 Q1018=
200810010630 METAR LPPR 010630Z 00000KT 7000 SKC 11/11 Q1018=
200810010600 METAR LPPR 010600Z VRB02KT CAVOK 11/10 Q1018=
200810010530 METAR LPPR 010530Z 00000KT CAVOK 10/10 Q1018=
200810010500 METAR LPPR 010500Z 00000KT CAVOK 11/11 Q1018=
200810010430 METAR LPPR 010430Z 00000KT CAVOK 12/12 Q1018=
200810010400 METAR LPPR 010400Z 17003KT CAVOK 12/12 Q1017=
200810010330 METAR LPPR 010330Z 00000KT CAVOK 13/12 Q1018=
200810010300 METAR LPPR 010300Z 00000KT CAVOK 12/12 Q1018=
200810010230 METAR LPPR 010230Z 00000KT CAVOK 12/12 Q1018=
200810010200 METAR LPPR 010200Z 00000KT CAVOK 12/12 Q1018=
200810010130 METAR LPPR 010130Z 01002KT CAVOK 12/11 Q1018=
200810010100 METAR LPPR 010100Z 00000KT CAVOK 12/11 Q1018=
200810010030 METAR LPPR 010030Z 00000KT CAVOK 13/11 Q1018=
200810010000 METAR LPPR 010000Z 00000KT CAVOK 13/11 Q1018=
