##########################################################
# Query made at 11/07/2014 16:00:54 UTC
# Time interval: from 09/01/2010 00:00  to 10/01/2010 23:59  UTC
##########################################################

##########################################################
# LPPR, Porto / Pedras Rubras (Portugal)
# WMO index: 08545
# Latitude 41-14N. Longitude 008-41W. Altitude 69 m.
##########################################################

###################################
#  METAR/SPECI from LPPR
###################################
201010012330 METAR LPPR 012330Z 11003KT 9999 SCT030 16/15 Q1014=
201010012300 METAR LPPR 012300Z VRB03KT CAVOK 16/15 Q1014=
201010012230 METAR LPPR 012230Z 16005KT CAVOK 16/15 Q1015=
201010012200 METAR LPPR 012200Z 14002KT CAVOK 17/15 Q1015=
201010012130 METAR LPPR 012130Z 15003KT CAVOK 17/16 Q1015=
201010012100 METAR LPPR 012100Z 16006KT CAVOK 17/16 Q1015=
201010012030 METAR LPPR 012030Z 17006KT CAVOK 17/16 Q1015=
201010012000 METAR LPPR 012000Z 17005KT CAVOK 17/16 Q1015=
201010011930 METAR LPPR 011930Z 19004KT CAVOK 18/16 Q1015=
201010011900 METAR LPPR 011900Z 19004KT 170V240 CAVOK 18/15 Q1015=
201010011830 METAR LPPR 011830Z 21003KT CAVOK 18/15 Q1015=
201010011800 METAR LPPR 011800Z 22004KT 180V260 CAVOK 19/16 Q1015=
201010011730 METAR LPPR 011730Z 22006KT CAVOK 19/15 Q1015=
201010011700 METAR LPPR 011700Z 22005KT 190V270 9999 FEW017 SCT100 19/15
                        Q1015=
201010011630 METAR LPPR 011630Z 22007KT 190V250 9999 FEW017 SCT100 20/15
                        Q1015=
201010011600 METAR LPPR 011600Z 22007KT 190V260 9999 FEW017 SCT100 20/15
                        Q1015=
201010011530 METAR LPPR 011530Z 21008KT 190V250 9999 FEW017 SCT250 21/15
                        Q1015=
201010011500 METAR LPPR 011500Z 22008KT 190V250 9999 SCT017 SCT100 21/15
                        Q1015=
201010011430 METAR LPPR 011430Z 24007KT 200V280 9999 SCT017 SCT100 21/14
                        Q1015=
201010011400 METAR LPPR 011400Z 21007KT 180V250 9999 SCT017 SCT100 21/15
                        Q1015=
201010011330 METAR LPPR 011330Z 23007KT 190V270 9999 SCT017 SCT100 22/14
                        Q1015=
201010011300 METAR LPPR 011300Z 26006KT 210V290 9999 SCT017 SCT100 22/14
                        Q1016=
201010011230 METAR LPPR 011230Z 26007KT 220V300 9999 SCT017 21/14 Q1016=
201010011200 METAR LPPR 011200Z VRB05KT 9999 SCT017 21/14 Q1016=
201010011130 METAR LPPR 011130Z 27004KT 240V300 9999 SCT017 20/14 Q1017=
201010011100 METAR LPPR 011100Z VRB02KT 9999 SCT017 21/13 Q1017=
201010011030 METAR LPPR 011030Z 17005KT 120V210 9999 SCT017 21/14 Q1017=
201010011000 METAR LPPR 011000Z 13004KT 100V160 9999 SCT017 20/14 Q1017=
201010010930 METAR LPPR 010930Z 13005KT 9999 FEW017 19/13 Q1017=
201010010900 METAR LPPR 010900Z 12007KT CAVOK 18/12 Q1017=
201010010830 METAR LPPR 010830Z 11007KT CAVOK 16/12 Q1016=
201010010800 METAR LPPR 010800Z 11008KT 9999 FEW030 14/11 Q1016=
201010010730 METAR LPPR 010730Z 10008KT 9999 SCT020 13/11 Q1017=
201010010700 METAR LPPR 010700Z 10006KT 9999 FEW015 13/11 Q1017=
201010010630 METAR LPPR 010630Z 09004KT 050V130 9999 FEW020 13/11 Q1017=
201010010600 METAR LPPR 010600Z 00000KT 9999 FEW020 13/11 Q1016=
201010010530 METAR LPPR 010530Z 10006KT 9999 FEW018 13/11 Q1016=
201010010500 METAR LPPR 010500Z 11007KT 9999 SCT018 14/12 Q1016=
201010010430 METAR LPPR 010430Z 11005KT 9999 SCT018 13/12 Q1017=
201010010400 METAR LPPR 010400Z 11005KT 9999 SCT020 13/12 Q1017=
201010010330 METAR LPPR 010330Z VRB02KT 9999 FEW020 SCT070 13/12 Q1017=
201010010300 METAR LPPR 010300Z VRB01KT CAVOK 13/12 Q1017=
201010010230 METAR LPPR 010230Z VRB01KT CAVOK 13/12 Q1017=
201010010200 METAR LPPR 010200Z 10001KT CAVOK 13/12 Q1018=
201010010130 METAR LPPR 010130Z 09002KT CAVOK 14/13 Q1018=
201010010100 METAR LPPR 010100Z 09003KT CAVOK 14/13 Q1018=
201010010030 METAR LPPR 010030Z 00000KT CAVOK 13/12 Q1018=
201010010000 METAR LPPR 010000Z 01001KT CAVOK 14/13 Q1019=
201009302330 METAR LPPR 302330Z 35002KT CAVOK 14/13 Q1019=
201009302300 METAR LPPR 302300Z 35001KT CAVOK 14/13 Q1019=
201009302230 METAR LPPR 302230Z 34001KT CAVOK 14/13 Q1019=
201009302200 METAR LPPR 302200Z VRB01KT CAVOK 14/13 Q1019=
201009302130 METAR LPPR 302130Z 34002KT CAVOK 14/13 Q1019=
201009302100 METAR LPPR 302100Z 33005KT CAVOK 15/14 Q1019=
201009302030 METAR LPPR 302030Z 33005KT CAVOK 15/13 Q1019=
201009302000 METAR LPPR 302000Z 34005KT CAVOK 15/13 Q1019=
201009301930 METAR LPPR 301930Z 32006KT CAVOK 16/13 Q1019=
201009301900 METAR LPPR 301900Z 33011KT CAVOK 16/14 Q1019=
201009301830 METAR LPPR 301830Z 33011KT CAVOK 17/14 Q1019=
201009301800 METAR LPPR 301800Z 32012KT CAVOK 17/13 Q1019=
201009301730 METAR LPPR 301730Z 33013KT 290V350 CAVOK 18/13 Q1019=
201009301700 METAR LPPR 301700Z 32013KT CAVOK 19/13 Q1019=
201009301630 METAR LPPR 301630Z 32014KT CAVOK 19/12 Q1019=
201009301600 METAR LPPR 301600Z 32015KT CAVOK 19/12 Q1019=
201009301530 METAR LPPR 301530Z 32015KT CAVOK 19/12 Q1019=
201009301500 METAR LPPR 301500Z 32016KT 290V350 CAVOK 20/11 Q1019=
201009301430 METAR LPPR 301430Z 32015KT CAVOK 20/11 Q1019=
201009301400 METAR LPPR 301400Z 32017KT 9999 FEW017 BKN250 20/12 Q1019=
201009301330 METAR LPPR 301330Z 32015KT CAVOK 20/12 Q1020=
201009301300 METAR LPPR 301300Z 32015KT CAVOK 20/12 Q1020=
201009301230 METAR LPPR 301230Z 32014KT CAVOK 20/11 Q1020=
201009301200 METAR LPPR 301200Z 31008KT 280V350 9999 FEW017 BKN250 21/12
                        Q1020=
201009301130 METAR LPPR 301130Z 31009KT 9999 FEW017 BKN250 21/11 Q1020=
201009301100 METAR LPPR 301100Z 32008KT CAVOK 20/11 Q1020=
201009301030 METAR LPPR 301030Z 33008KT 290V020 CAVOK 19/12 Q1020=
201009301000 METAR LPPR 301000Z 36007KT 320V040 CAVOK 19/12 Q1020=
201009300930 METAR LPPR 300930Z 34006KT CAVOK 18/12 Q1020=
201009300900 METAR LPPR 300900Z 35006KT CAVOK 16/12 Q1020=
201009300830 METAR LPPR 300830Z 36005KT CAVOK 15/12 Q1020=
201009300800 METAR LPPR 300800Z 34004KT CAVOK 15/13 Q1020=
201009300730 METAR LPPR 300730Z 34003KT CAVOK 13/13 Q1020=
201009300700 METAR LPPR 300700Z 35003KT CAVOK 12/12 Q1020=
201009300630 METAR LPPR 300630Z 36003KT CAVOK 12/12 Q1020=
201009300600 METAR LPPR 300600Z 35003KT CAVOK 13/12 Q1020=
201009300530 METAR LPPR 300530Z 36002KT CAVOK 13/13 Q1020=
201009300500 METAR LPPR 300500Z 35003KT CAVOK 13/13 Q1019=
201009300430 METAR LPPR 300430Z 33004KT 9999 FEW017 14/13 Q1019=
201009300400 METAR LPPR 300400Z 34003KT 9999 SCT017 14/13 Q1019=
201009300330 METAR LPPR 300330Z 02004KT 9999 SCT017 15/14 Q1019=
201009300300 METAR LPPR 300300Z 34003KT 9999 SCT013 14/14 Q1019=
201009300230 METAR LPPR 300230Z 35004KT 9999 SCT009 BKN013 15/14 Q1019=
201009300200 METAR LPPR 300200Z 35004KT 9999 SCT009 BKN015 16/15 Q1019=
201009300130 METAR LPPR 300130Z 35004KT 9999 BKN013 SCT015 16/15 Q1020=
201009300100 METAR LPPR 300100Z 33004KT 9999 SCT013 BKN020 16/15 Q1020=
201009300030 METAR LPPR 300030Z 31004KT 9999 FEW008 BKN020 17/15 Q1020=
201009300000 METAR LPPR 300000Z 30003KT 9999 FEW008 BKN020 17/16 Q1020=
201009292330 METAR LPPR 292330Z 33003KT 9999 SCT006 BKN017 17/16 Q1020=
201009292300 METAR LPPR 292300Z 32005KT 8000 SCT006 BKN017 17/16 Q1020=
201009292230 METAR LPPR 292230Z 33004KT 8000 FEW007 SCT015 BKN025 18/17
                        Q1020=
201009292200 METAR LPPR 292200Z 31003KT 8000 FEW006 SCT012 BKN025 18/17
                        Q1020=
201009292130 METAR LPPR 292130Z 32004KT 290V350 8000 FEW006 SCT008 BKN025
                        18/17 Q1020=
201009292100 METAR LPPR 292100Z 30004KT 8000 FEW008 SCT012 BKN025 18/17
                        Q1020=
201009292030 METAR LPPR 292030Z 00000KT 8000 FEW009 SCT012 BKN030 18/17
                        Q1020=
201009292000 METAR LPPR 292000Z 34001KT 8000 FEW007 SCT012 BKN030 18/17
                        Q1020=
201009291930 METAR LPPR 291930Z 34003KT 8000 FEW007 SCT012 BKN025 19/17
                        Q1020=
201009291900 METAR LPPR 291900Z VRB02KT 8000 FEW008 SCT012 BKN025 19/17
                        Q1020=
201009291830 METAR LPPR 291830Z VRB03KT 7000 SCT012 BKN025 18/17 Q1020=
201009291800 METAR LPPR 291800Z VRB03KT 7000 FEW008 SCT015 BKN025 18/17
                        Q1020=
201009291730 METAR LPPR 291730Z 31006KT 270V330 9999 FEW008 SCT015 BKN030
                        19/17 Q1020=
201009291700 METAR LPPR 291700Z 29006KT 250V330 9999 FEW015 BKN040 19/17
                        Q1019=
201009291630 METAR LPPR 291630Z 30007G18KT 260V360 9999 FEW015 BKN040
                        20/17 Q1020=
201009291600 METAR LPPR 291600Z 28007KT 250V310 9999 FEW020 BKN040 20/16
                        Q1020=
201009291530 METAR LPPR 291530Z 28009KT 9999 BKN040 20/16 Q1020=
201009291500 METAR LPPR 291500Z 28008KT 250V310 9999 FEW020 BKN040 21/16
                        Q1020=
201009291430 METAR LPPR 291430Z 28009KT 250V310 9999 FEW020 BKN030 21/16
                        Q1019=
201009291400 METAR LPPR 291400Z 28010KT 210V310 9999 FEW020 BKN030 21/17
                        Q1020=
201009291330 METAR LPPR 291330Z 27006KT 240V340 9999 FEW000 BKN030 21/15
                        Q1020=
201009291300 METAR LPPR 291300Z 27008KT 240V310 9999 FEW020 21/16 Q1020=
201009291230 METAR LPPR 291230Z 28009KT 9999 FEW020 21/16 Q1020=
201009291200 METAR LPPR 291200Z VRB03KT 9999 FEW020 22/15 Q1020=
201009291130 METAR LPPR 291130Z 28005KT 240V310 9999 FEW020 22/16 Q1020=
201009291100 METAR LPPR 291100Z 26005KT 210V330 9999 FEW020 21/16 Q1020=
201009291030 METAR LPPR 291030Z VRB02KT 9999 SCT015 21/15 Q1020=
201009291000 METAR LPPR 291000Z VRB02KT 9999 FEW015 21/15 Q1020=
201009290930 METAR LPPR 290930Z VRB03KT 9999 FEW017 20/15 Q1020=
201009290900 METAR LPPR 290900Z VRB03KT 8000 FEW030 19/16 Q1020=
201009290830 METAR LPPR 290830Z VRB03KT 7000 FEW015 SCT030 18/16 Q1020=
201009290800 METAR LPPR 290800Z 09004KT 050V120 5000 BR FEW015 BKN025
                        16/15 Q1020=
201009290730 METAR LPPR 290730Z 10005KT 9999 FEW015 BKN025 15/15 Q1020=
201009290700 METAR LPPR 290700Z 10006KT 5000 BR FEW015 BKN025 15/15 Q1020=
201009290630 METAR LPPR 290630Z VRB03KT 5000 BR SCT006 BKN025 15/15 Q1020=
201009290600 METAR LPPR 290600Z 10002KT 5000 BR FEW005 SCT008 BKN020 16/15
                        Q1020=
201009290530 METAR LPPR 290530Z 00000KT 4000 BR SCT003 BKN008 15/15 Q1019=
201009290500 METAR LPPR 290500Z 00000KT 4000 BR FEW001 SCT003 BKN013 16/15
                        Q1019=
201009290430 METAR LPPR 290430Z 05003KT 5000 BR SCT004 BKN008 16/16 Q1019=
201009290400 METAR LPPR 290400Z VRB03KT 5000 BR SCT005 BKN008 16/15 Q1019=
201009290330 METAR LPPR 290330Z VRB01KT 5000 BR SCT005 BKN008 16/16 Q1019=
201009290300 METAR LPPR 290300Z 10001KT 4000 BR SCT004 BKN008 16/16 Q1019=
201009290230 METAR LPPR 290230Z 00000KT 4000 BR SCT004 BKN008 16/16 Q1019=
201009290200 METAR LPPR 290200Z 09002KT 4000 BR SCT003 BKN006 15/15 Q1019=
201009290130 METAR LPPR 290130Z 00000KT 4000 BR SCT003 BKN005 15/15 Q1019=
201009290100 METAR LPPR 290100Z 00000KT 4000 BR SCT003 BKN006 15/14 Q1020=
201009290030 METAR LPPR 290030Z 00000KT 4000 BR SCT003 BKN006 14/13 Q1020=
201009290000 METAR LPPR 290000Z 00000KT 4000 BR FEW003 14/14 Q1020=
201009282330 METAR LPPR 282330Z VRB01KT 5000 BR FEW004 15/14 Q1020=
201009282300 METAR LPPR 282300Z 14002KT 5000 BR FEW004 14/14 Q1020=
201009282230 METAR LPPR 282230Z 00000KT 4000 BR FEW004 14/14 Q1020=
201009282200 METAR LPPR 282200Z 00000KT 5000 BR FEW005 15/15 Q1020=
201009282130 METAR LPPR 282130Z 00000KT 5000 BR FEW005 15/14 Q1020=
201009282100 METAR LPPR 282100Z 00000KT 3000 BR FEW005 15/15 Q1020=
201009282030 METAR LPPR 282030Z 00000KT 7000 FEW250 16/15 Q1019=
201009282000 METAR LPPR 282000Z 00000KT 7000 FEW024 16/15 Q1019=
201009281930 METAR LPPR 281930Z VRB01KT 8000 FEW250 17/15 Q1019=
201009281900 METAR LPPR 281900Z VRB03KT CAVOK 17/16 Q1019=
201009281830 METAR LPPR 281830Z 32005KT CAVOK 18/16 Q1019=
201009281800 METAR LPPR 281800Z 31006KT CAVOK 19/16 Q1018=
201009281730 METAR LPPR 281730Z 31006KT CAVOK 19/15 Q1018=
201009281700 METAR LPPR 281700Z 31008KT CAVOK 20/15 Q1018=
201009281630 METAR LPPR 281630Z 31008KT CAVOK 20/14 Q1018=
201009281600 METAR LPPR 281600Z 30007KT 250V330 CAVOK 20/14 Q1018=
201009281530 METAR LPPR 281530Z 29007KT 260V320 CAVOK 20/15 Q1018=
201009281500 METAR LPPR 281500Z 27007KT CAVOK 20/15 Q1018=
201009281430 METAR LPPR 281430Z 27007KT 230V300 CAVOK 20/14 Q1018=
201009281400 METAR LPPR 281400Z 27006G18KT 240V340 CAVOK 20/13 Q1018=
201009281330 METAR LPPR 281330Z 27008KT 240V310 CAVOK 20/12 Q1018=
201009281300 METAR LPPR 281300Z 27007KT 240V300 CAVOK 21/13 Q1018=
201009281230 METAR LPPR 281230Z 27005KT 240V320 CAVOK 20/12 Q1018=
201009281200 METAR LPPR 281200Z 24004KT 200V290 CAVOK 21/13 Q1018=
201009281130 METAR LPPR 281130Z 24005KT 180V290 CAVOK 20/13 Q1019=
201009281100 METAR LPPR 281100Z 23004KT 200V270 CAVOK 20/12 Q1018=
201009281030 METAR LPPR 281030Z 00000KT CAVOK 21/10 Q1019=
201009281000 METAR LPPR 281000Z 00000KT CAVOK 20/11 Q1018=
201009280930 METAR LPPR 280930Z 12004KT 100V160 8000 SKC 18/11 Q1018=
201009280900 METAR LPPR 280900Z VRB03KT 8000 SKC 16/11 Q1018=
201009280830 METAR LPPR 280830Z VRB02KT 8000 SKC 15/11 Q1018=
201009280800 METAR LPPR 280800Z 00000KT 8000 SKC 13/10 Q1018=
201009280730 METAR LPPR 280730Z 10004KT 070V130 8000 SKC 12/10 Q1017=
201009280700 METAR LPPR 280700Z VRB01KT 8000 SKC 11/09 Q1017=
201009280630 METAR LPPR 280630Z 10006KT 7000 SKC 11/10 Q1017=
201009280600 METAR LPPR 280600Z 10007KT 8000 FEW007 11/10 Q1017=
201009280530 METAR LPPR 280530Z 00000KT 8000 FEW007 11/09 Q1017=
201009280500 METAR LPPR 280500Z 00000KT 8000 FEW007 12/10 Q1016=
201009280430 METAR LPPR 280430Z 10006KT 8000 FEW007 12/10 Q1016=
201009280400 METAR LPPR 280400Z 10006KT 8000 FEW007 12/10 Q1016=
201009280330 METAR LPPR 280330Z VRB02KT 8000 FEW007 12/10 Q1016=
201009280300 METAR LPPR 280300Z 11007KT 8000 FEW007 12/11 Q1016=
201009280230 METAR LPPR 280230Z 11006KT 7000 FEW008 12/11 Q1016=
201009280200 METAR LPPR 280200Z 11006KT 7000 FEW007 12/11 Q1016=
201009280130 METAR LPPR 280130Z 10004KT 6000 FEW007 11/11 Q1016=
201009280100 METAR LPPR 280100Z 00000KT 6000 FEW007 11/10 Q1016=
201009280030 METAR LPPR 280030Z 00000KT 7000 FEW007 11/10 Q1016=
201009280000 METAR LPPR 280000Z 00000KT 8000 FEW250 12/11 Q1016=
201009272330 METAR LPPR 272330Z 00000KT 8000 FEW250 12/11 Q1016=
201009272300 METAR LPPR 272300Z 11003KT CAVOK 13/12 Q1016=
201009272230 METAR LPPR 272230Z 00000KT CAVOK 12/11 Q1016=
201009272200 METAR LPPR 272200Z 00000KT CAVOK 12/11 Q1016=
201009272130 METAR LPPR 272130Z 00000KT CAVOK 12/11 Q1016=
201009272100 METAR LPPR 272100Z 00000KT CAVOK 13/12 Q1016=
201009272030 METAR LPPR 272030Z 00000KT CAVOK 14/12 Q1016=
201009272000 METAR LPPR 272000Z 00000KT CAVOK 14/12 Q1016=
201009271930 METAR LPPR 271930Z 00000KT CAVOK 15/12 Q1015=
201009271900 METAR LPPR 271900Z VRB02KT CAVOK 16/12 Q1015=
201009271830 METAR LPPR 271830Z 32003KT CAVOK 16/12 Q1015=
201009271800 METAR LPPR 271800Z 30005KT 240V330 CAVOK 18/12 Q1015=
201009271730 METAR LPPR 271730Z 31007KT CAVOK 18/12 Q1015=
201009271700 METAR LPPR 271700Z 31008KT CAVOK 19/11 Q1014=
201009271630 METAR LPPR 271630Z 31007KT 270V340 CAVOK 19/12 Q1014=
201009271600 METAR LPPR 271600Z 30009KT 240V330 CAVOK 19/13 Q1014=
201009271530 METAR LPPR 271530Z 28007KT 250V330 CAVOK 19/13 Q1014=
201009271500 METAR LPPR 271500Z 29006KT 250V330 CAVOK 19/13 Q1014=
201009271430 METAR LPPR 271430Z 30007G17KT 9999 SCT090 20/12 Q1014=
201009271400 METAR LPPR 271400Z 27006KT 230V320 CAVOK 21/15 Q1015=
201009271330 METAR LPPR 271330Z 24006KT 210V270 CAVOK 21/13 Q1015=
201009271300 METAR LPPR 271300Z 23008KT 200V290 CAVOK 21/13 Q1015=
201009271230 METAR LPPR 271230Z 19007KT 160V230 9999 FEW018 21/12 Q1014=
201009271200 METAR LPPR 271200Z 19007KT 140V230 9999 FEW015 21/13 Q1015=
201009271130 METAR LPPR 271130Z 21007KT 160V250 9999 FEW014 SCT250 20/14
                        Q1015=
201009271100 METAR LPPR 271100Z 21006KT 170V250 9999 FEW013 SCT250 20/15
                        Q1015=
201009271030 METAR LPPR 271030Z 20007KT 9999 FEW013 SCT250 19/14 Q1015=
201009271000 METAR LPPR 271000Z 21005KT 180V260 9999 FEW013 BKN250 19/15
                        Q1015=
201009270930 METAR LPPR 270930Z 15006KT 120V180 9999 FEW008 SCT250 19/14
                        Q1014=
201009270900 METAR LPPR 270900Z 15006KT 120V180 9999 FEW005 SCT250 18/13
                        Q1014=
201009270830 METAR LPPR 270830Z 14007KT 9999 FEW004 SCT250 17/10 Q1014=
201009270800 METAR LPPR 270800Z VRB03KT 9999 FEW004 SCT250 15/10 Q1014=
201009270730 METAR LPPR 270730Z VRB01KT 9999 FEW004 SCT250 13/09 Q1013=
201009270700 METAR LPPR 270700Z 00000KT CAVOK 12/09 Q1013=
201009270630 METAR LPPR 270630Z 00000KT CAVOK 12/09 Q1013=
201009270600 METAR LPPR 270600Z 12006KT CAVOK 13/09 Q1013=
201009270530 METAR LPPR 270530Z VRB03KT CAVOK 12/09 Q1013=
201009270500 METAR LPPR 270500Z 11003KT CAVOK 13/09 Q1012=
201009270430 METAR LPPR 270430Z VRB02KT CAVOK 13/09 Q1012=
201009270400 METAR LPPR 270400Z VRB01KT CAVOK 13/09 Q1012=
201009270330 METAR LPPR 270330Z 00000KT CAVOK 13/09 Q1012=
201009270300 METAR LPPR 270300Z 00000KT CAVOK 13/09 Q1012=
201009270230 METAR LPPR 270230Z VRB01KT CAVOK 14/09 Q1012=
201009270200 METAR LPPR 270200Z 11004KT 080V150 CAVOK 13/09 Q1013=
201009270130 METAR LPPR 270130Z 00000KT CAVOK 12/09 Q1013=
201009270100 METAR LPPR 270100Z 00000KT CAVOK 12/09 Q1013=
201009270030 METAR LPPR 270030Z 00000KT CAVOK 13/09 Q1013=
201009270000 METAR LPPR 270000Z 00000KT CAVOK 14/09 Q1013=
201009262330 METAR LPPR 262330Z VRB02KT CAVOK 14/09 Q1013=
201009262300 METAR LPPR 262300Z 11003KT CAVOK 13/10 Q1013=
201009262230 METAR LPPR 262230Z 34001KT CAVOK 14/10 Q1013=
201009262200 METAR LPPR 262200Z 10002KT CAVOK 14/10 Q1013=
201009262130 METAR LPPR 262130Z 00000KT CAVOK 15/11 Q1013=
201009262100 METAR LPPR 262100Z 36004KT CAVOK 15/11 Q1013=
201009262030 METAR LPPR 262030Z 34005KT CAVOK 15/11 Q1013=
201009262000 METAR LPPR 262000Z 35005KT CAVOK 15/10 Q1013=
201009261930 METAR LPPR 261930Z 34004KT CAVOK 16/10 Q1013=
201009261900 METAR LPPR 261900Z 35006KT CAVOK 17/09 Q1013=
201009261830 METAR LPPR 261830Z 34008KT CAVOK 19/09 Q1013=
201009261800 METAR LPPR 261800Z 34008KT CAVOK 20/08 Q1013=
201009261730 METAR LPPR 261730Z 34015KT CAVOK 21/08 Q1013=
201009261700 METAR LPPR 261700Z 33014KT CAVOK 21/08 Q1013=
201009261630 METAR LPPR 261630Z 32011KT CAVOK 21/10 Q1012=
201009261600 METAR LPPR 261600Z 32010KT CAVOK 22/10 Q1012=
201009261530 METAR LPPR 261530Z 31012KT CAVOK 23/09 Q1012=
201009261500 METAR LPPR 261500Z 32012KT 290V350 CAVOK 23/09 Q1012=
201009261430 METAR LPPR 261430Z 32014KT 290V350 CAVOK 23/08 Q1013=
201009261400 METAR LPPR 261400Z 31011KT 270V340 CAVOK 23/09 Q1013=
201009261330 METAR LPPR 261330Z 30010KT 270V330 CAVOK 23/09 Q1013=
201009261300 METAR LPPR 261300Z 30010KT CAVOK 23/09 Q1013=
201009261230 METAR LPPR 261230Z VRB01KT CAVOK 25/08 Q1013=
201009261200 METAR LPPR 261200Z 03004KT 310V120 CAVOK 24/08 Q1013=
201009261130 METAR LPPR 261130Z 11007KT 070V140 CAVOK 23/08 Q1013=
201009261100 METAR LPPR 261100Z 09008KT 030V140 CAVOK 23/08 Q1014=
201009261030 METAR LPPR 261030Z 08006KT 010V120 CAVOK 22/07 Q1014=
201009261000 METAR LPPR 261000Z 08007KT 030V140 CAVOK 21/07 Q1013=
201009260930 METAR LPPR 260930Z 08008KT 020V120 CAVOK 20/07 Q1013=
201009260900 METAR LPPR 260900Z 09008KT 030V130 CAVOK 20/07 Q1013=
201009260830 METAR LPPR 260830Z 09007KT 030V120 CAVOK 19/07 Q1013=
201009260800 METAR LPPR 260800Z 08005KT 030V130 CAVOK 18/07 Q1013=
201009260730 METAR LPPR 260730Z 09006KT 040V130 CAVOK 17/07 Q1013=
201009260700 METAR LPPR 260700Z 08006KT 050V110 CAVOK 16/06 Q1013=
201009260630 METAR LPPR 260630Z 08005KT 050V110 CAVOK 16/07 Q1013=
201009260600 METAR LPPR 260600Z 09004KT 050V110 CAVOK 16/07 Q1012=
201009260530 METAR LPPR 260530Z 09004KT 060V120 CAVOK 16/07 Q1012=
201009260500 METAR LPPR 260500Z 09006KT 060V120 CAVOK 16/08 Q1012=
201009260430 METAR LPPR 260430Z 09007KT 040V120 CAVOK 16/08 Q1012=
201009260400 METAR LPPR 260400Z 08004KT 040V120 CAVOK 16/08 Q1012=
201009260330 METAR LPPR 260330Z VRB02KT CAVOK 14/09 Q1012=
201009260300 METAR LPPR 260300Z VRB02KT CAVOK 15/09 Q1012=
201009260230 METAR LPPR 260230Z 04003KT CAVOK 14/09 Q1012=
201009260200 METAR LPPR 260200Z 03005KT CAVOK 14/09 Q1012=
201009260130 METAR LPPR 260130Z 02005KT CAVOK 15/09 Q1013=
201009260100 METAR LPPR 260100Z 02004KT CAVOK 14/10 Q1013=
201009260030 METAR LPPR 260030Z 35004KT CAVOK 14/10 Q1013=
201009260000 METAR LPPR 260000Z 34004KT CAVOK 14/10 Q1013=
201009252330 METAR LPPR 252330Z 35004KT CAVOK 15/10 Q1013=
201009252300 METAR LPPR 252300Z 01004KT CAVOK 14/10 Q1013=
201009252230 METAR LPPR 252230Z 34006KT CAVOK 14/10 Q1013=
201009252200 METAR LPPR 252200Z 35005KT CAVOK 15/10 Q1013=
201009252130 METAR LPPR 252130Z 36006KT CAVOK 17/11 Q1013=
201009252100 METAR LPPR 252100Z 36007KT CAVOK 17/11 Q1013=
201009252030 METAR LPPR 252030Z 35007KT CAVOK 15/12 Q1013=
201009252000 METAR LPPR 252000Z 33005KT CAVOK 16/12 Q1013=
201009251930 METAR LPPR 251930Z 34006KT CAVOK 17/12 Q1013=
201009251900 METAR LPPR 251900Z 33009KT 9999 FEW020 SCT250 18/12 Q1013=
201009251830 METAR LPPR 251830Z 34010KT 9999 FEW020 SCT250 19/12 Q1012=
201009251800 METAR LPPR 251800Z 33012KT 9999 FEW020 SCT250 20/12 Q1012=
201009251730 METAR LPPR 251730Z 33015KT 9999 FEW020 SCT250 20/12 Q1012=
201009251700 METAR LPPR 251700Z 33015KT 9999 FEW020 SCT250 21/13 Q1012=
201009251630 METAR LPPR 251630Z 32013KT 9999 FEW020 SCT250 22/13 Q1012=
201009251600 METAR LPPR 251600Z 32011KT 290V350 9999 FEW020 SCT250 22/13
                        Q1013=
201009251530 METAR LPPR 251530Z 32014KT 9999 FEW020 SCT250 21/13 Q1013=
201009251500 METAR LPPR 251500Z 31013KT 9999 FEW020 SCT250 22/13 Q1013=
201009251430 METAR LPPR 251430Z 32015KT 9999 FEW020 SCT250 21/13 Q1013=
201009251400 METAR LPPR 251400Z 31014KT 9999 FEW020 22/12 Q1014=
201009251330 METAR LPPR 251330Z 32014KT 290V350 9999 FEW020 22/12 Q1014=
201009251300 METAR LPPR 251300Z 32013KT 280V340 9999 FEW020 22/11 Q1015=
201009251230 METAR LPPR 251230Z 31009KT 270V350 9999 FEW020 22/11 Q1015=
201009251200 METAR LPPR 251200Z 02005KT 310V110 9999 FEW020 22/08 Q1015=
201009251130 METAR LPPR 251130Z 03006KT 350V090 9999 FEW020 21/08 Q1016=
201009251100 METAR LPPR 251100Z 05004KT 350V100 9999 FEW020 20/08 Q1016=
201009251030 METAR LPPR 251030Z 03006KT 340V060 CAVOK 19/09 Q1016=
201009251000 METAR LPPR 251000Z 01007KT 330V050 CAVOK 18/09 Q1016=
201009250930 METAR LPPR 250930Z 01006KT CAVOK 17/10 Q1016=
201009250900 METAR LPPR 250900Z 01006KT 340V040 CAVOK 16/10 Q1016=
201009250830 METAR LPPR 250830Z 01007KT 350V050 CAVOK 16/10 Q1016=
201009250800 METAR LPPR 250800Z 02005KT 350V060 CAVOK 15/10 Q1016=
201009250730 METAR LPPR 250730Z 02005KT CAVOK 13/09 Q1016=
201009250700 METAR LPPR 250700Z 01006KT CAVOK 12/09 Q1016=
201009250630 METAR LPPR 250630Z 01006KT CAVOK 12/09 Q1015=
201009250600 METAR LPPR 250600Z 02003KT CAVOK 12/09 Q1015=
201009250530 METAR LPPR 250530Z 01006KT CAVOK 13/09 Q1015=
201009250500 METAR LPPR 250500Z 36005KT CAVOK 12/09 Q1015=
201009250430 METAR LPPR 250430Z 02003KT CAVOK 13/09 Q1015=
201009250400 METAR LPPR 250400Z 02005KT CAVOK 13/09 Q1015=
201009250330 METAR LPPR 250330Z 03003KT CAVOK 13/09 Q1015=
201009250300 METAR LPPR 250300Z 36004KT CAVOK 13/09 Q1015=
201009250230 METAR LPPR 250230Z 01006KT CAVOK 13/10 Q1016=
201009250200 METAR LPPR 250200Z 36005KT CAVOK 13/10 Q1016=
201009250130 METAR LPPR 250130Z 33004KT CAVOK 13/10 Q1016=
201009250100 METAR LPPR 250100Z 35003KT CAVOK 13/11 Q1016=
201009250030 METAR LPPR 250030Z 35004KT CAVOK 13/11 Q1016=
201009250000 METAR LPPR 250000Z 36003KT CAVOK 13/12 Q1016=
201009242330 METAR LPPR 242330Z 34003KT CAVOK 14/12 Q1016=
201009242300 METAR LPPR 242300Z 35003KT CAVOK 14/13 Q1016=
201009242230 METAR LPPR 242230Z 35003KT CAVOK 14/13 Q1017=
201009242200 METAR LPPR 242200Z 35004KT CAVOK 15/13 Q1017=
201009242130 METAR LPPR 242130Z 35005KT CAVOK 16/14 Q1017=
201009242100 METAR LPPR 242100Z 34008KT CAVOK 16/14 Q1017=
201009242030 METAR LPPR 242030Z 35006KT CAVOK 16/14 Q1017=
201009242000 METAR LPPR 242000Z 33009KT CAVOK 17/14 Q1017=
201009241930 METAR LPPR 241930Z 33010KT CAVOK 17/14 Q1017=
201009241900 METAR LPPR 241900Z 33009KT 9999 FEW025 18/13 Q1016=
201009241830 METAR LPPR 241830Z 33012KT 9999 FEW025 18/14 Q1016=
201009241800 METAR LPPR 241800Z 32011KT 9999 FEW025 19/14 Q1016=
201009241730 METAR LPPR 241730Z 33011KT 9999 FEW025 20/14 Q1016=
201009241700 METAR LPPR 241700Z 33014KT 9999 FEW015 20/14 Q1017=
201009241630 METAR LPPR 241630Z 32013KT 9999 FEW015 21/14 Q1017=
201009241600 METAR LPPR 241600Z 32014KT 280V350 9999 FEW015 21/14 Q1017=
201009241530 METAR LPPR 241530Z 31015KT 9999 SCT015 21/13 Q1017=
201009241500 METAR LPPR 241500Z 32015KT 9999 SCT015 22/14 Q1017=
201009241430 METAR LPPR 241430Z 32016KT 9999 SCT015 22/13 Q1017=
201009241400 METAR LPPR 241400Z 31015KT 9999 FEW015 FEW025CB 22/14 Q1017=
201009241330 METAR LPPR 241330Z 31014KT 9999 FEW015 FEW025CB 22/15 Q1017=
201009241300 METAR LPPR 241300Z 32014KT 9999 FEW015 FEW025CB SCT080 22/15
                        Q1017=
201009241230 METAR LPPR 241230Z 32012KT 9999 FEW015 FEW025CB BKN060 22/17
                        Q1017=
201009241200 METAR LPPR 241200Z 31011KT 9999 FEW015 BKN060 21/17 Q1017=
201009241130 METAR LPPR 241130Z 33006KT 290V360 9999 FEW012 SCT040 BKN060
                        22/18 Q1017=
201009241100 METAR LPPR 241100Z 32007KT 290V350 9999 FEW011 BKN060 21/18
                        Q1018=
201009241030 METAR LPPR 241030Z 31008KT 270V340 9999 FEW012 SCT040 20/18
                        Q1018=
201009241000 METAR LPPR 241000Z VRB02KT 9999 FEW006 SCT020 20/19 Q1017=
201009240930 METAR LPPR 240930Z VRB02KT 9999 FEW004 BKN030 BKN060 19/18
                        Q1017=
201009240900 METAR LPPR 240900Z VRB02KT 3000 -RADZ BR SCT004 SCT030 BKN060
                        19/18 Q1017=
201009240830 METAR LPPR 240830Z VRB02KT 9999 FEW008 SCT030 BKN060 19/19
                        Q1017=
201009240800 METAR LPPR 240800Z VRB01KT 5000 BR FEW011 SCT045 19/19 Q1017=
201009240730 METAR LPPR 240730Z 00000KT 5000 BR FEW005 SCT020 17/17 Q1017=
201009240700 METAR LPPR 240700Z 00000KT 2500 BR MIFG FEW015 16/16 Q1017=
201009240630 METAR LPPR 240630Z 00000KT 3000 BR FEW005 SCT015 17/16 Q1016=
201009240600 METAR LPPR 240600Z 01003KT 6000 FEW005 SCT015 16/16 Q1016=
201009240530 METAR LPPR 240530Z VRB02KT 7000 FEW006 SCT009 17/17 Q1016=
201009240500 METAR LPPR 240500Z 00000KT 8000 SCT006 BKN015 17/16 Q1016=
201009240430 METAR LPPR 240430Z 00000KT 9999 SCT008 SCT013 17/16 Q1016=
201009240400 METAR LPPR 240400Z 00000KT 9999 SCT008 BKN020 17/16 Q1017=
201009240330 METAR LPPR 240330Z 16001KT 9999 FEW008 SCT015 SCT035 18/18
                        Q1016=
201009240300 METAR LPPR 240300Z 20002KT 9999 FEW012 BKN035 18/18 Q1017=
201009240230 METAR LPPR 240230Z 00000KT 9999 FEW013 BKN025 17/17 Q1016=
201009240200 METAR LPPR 240200Z 00000KT 9999 FEW013 BKN030 17/16 Q1016=
201009240130 METAR LPPR 240130Z 00000KT 9999 FEW013 BKN025 17/16 Q1017=
201009240100 METAR LPPR 240100Z 00000KT 9999 FEW012 BKN020 16/16 Q1017=
201009240030 METAR LPPR 240030Z 00000KT 9999 FEW012 SCT025 17/16 Q1017=
201009240000 METAR LPPR 240000Z VRB01KT 9999 FEW018 17/16 Q1017=
201009232330 METAR LPPR 232330Z VRB02KT 9999 FEW018 18/16 Q1017=
201009232300 METAR LPPR 232300Z 24003KT 9999 FEW015 FEW020CB 19/17 Q1017=
201009232230 METAR LPPR 232230Z 24002KT 9999 SCT015 FEW020CB SCT025 19/18
                        Q1017=
201009232200 METAR LPPR 232200Z VRB03KT 9999 SCT013 FEW020CB SCT025 19/18
                        Q1017=
201009232130 METAR LPPR 232130Z 22003KT 9999 SCT015 FEW025TCU 19/18 Q1017=
201009232100 METAR LPPR 232100Z VRB02KT 9999 FEW020 FEW025TCU 19/17 Q1017=
201009232030 METAR LPPR 232030Z 18007KT 9999 FEW020 FEW025TCU 20/18 Q1016=
201009232000 METAR LPPR 232000Z 18004KT 9999 SCT017 FEW025CB SCT035 20/19
                        Q1016=
201009231930 METAR LPPR 231930Z 18006KT 9999 SCT017 FEW025CB SCT035 20/18
                        Q1016=
201009231900 METAR LPPR 231900Z 17007KT 9999 SCT017 FEW025CB SCT035 20/16
                        Q1016=
201009231830 METAR LPPR 231830Z 16005KT 9999 SCT017 FEW025CB 21/16 Q1016=
201009231800 METAR LPPR 231800Z 19008KT 9999 FEW009 FEW025CB SCT035 21/18
                        Q1016=
201009231730 METAR LPPR 231730Z 19008KT 9999 FEW017 FEW025CB SCT045 BKN100
                        21/18 Q1016=
201009231700 METAR LPPR 231700Z 19006KT 170V250 9999 FEW017 FEW025CB SCT035
                        BKN090 22/17 Q1016=
201009231630 METAR LPPR 231630Z 20006KT 160V230 9999 FEW017 FEW025CB SCT045
                        BKN060 21/17 Q1016=
201009231600 METAR LPPR 231600Z 19007KT 170V230 9999 FEW020 FEW025CB SCT045
                        BKN060 22/16 Q1016=
201009231530 METAR LPPR 231530Z 19009KT 9999 FEW020 FEW025CB SCT045 BKN100
                        22/17 Q1016=
201009231500 METAR LPPR 231500Z 20008KT 9999 FEW020 BKN060 BKN100 21/17
                        Q1016=
201009231430 METAR LPPR 231430Z 20009KT 9999 FEW020 BKN060 BKN100 22/16
                        Q1016=
201009231400 METAR LPPR 231400Z 20010KT 170V230 9999 FEW020 BKN060 BKN100
                        22/16 Q1017=
201009231330 METAR LPPR 231330Z 20007KT 9999 FEW020 BKN050 BKN070 22/16
                        Q1017=
201009231300 METAR LPPR 231300Z 20009KT 9999 FEW020 BKN050 BKN070 22/16
                        Q1017=
201009231230 METAR LPPR 231230Z 19010KT 9999 FEW017 SCT050 BKN200 23/17
                        Q1017=
201009231200 METAR LPPR 231200Z 19009KT 9999 FEW017 SCT050 BKN070 22/17
                        Q1017=
201009231130 METAR LPPR 231130Z 20009KT 170V230 9999 FEW017 BKN070 21/16
                        Q1018=
201009231100 METAR LPPR 231100Z 18008KT 150V210 9999 FEW015 BKN070 BKN200
                        21/17 Q1018=
201009231030 METAR LPPR 231030Z 16008KT 9999 FEW020 BKN070 BKN200 21/16
                        Q1018=
201009231000 METAR LPPR 231000Z 17007KT 9999 FEW015 BKN070 BKN200 20/15
                        Q1018=
201009230930 METAR LPPR 230930Z VRB03KT 8000 FEW015 SCT090 BKN200 20/16
                        Q1018=
201009230900 METAR LPPR 230900Z 13004KT 8000 FEW015 BKN090 BKN200 19/16
                        Q1017=
201009230830 METAR LPPR 230830Z 13004KT 7000 FEW012 SCT090 BKN200 19/16
                        Q1017=
201009230800 METAR LPPR 230800Z 12005KT 7000 FEW012 SCT090 BKN200 18/16
                        Q1017=
201009230730 METAR LPPR 230730Z 11004KT 7000 FEW012 SCT070 BKN200 18/16
                        Q1017=
201009230700 METAR LPPR 230700Z 12005KT 7000 FEW012 SCT040 BKN190 18/16
                        Q1017=
201009230630 METAR LPPR 230630Z 12005KT 7000 FEW011 BKN190 18/16 Q1016=
201009230600 METAR LPPR 230600Z 13006KT 8000 BKN180 18/16 Q1016=
201009230530 METAR LPPR 230530Z 12004KT 8000 BKN190 18/16 Q1016=
201009230500 METAR LPPR 230500Z 11004KT 8000 BKN190 18/16 Q1016=
201009230430 METAR LPPR 230430Z 11004KT 8000 BKN190 18/16 Q1016=
201009230400 METAR LPPR 230400Z 10003KT 8000 BKN200 18/16 Q1017=
201009230330 METAR LPPR 230330Z 12002KT 5000 BR BKN250 18/16 Q1017=
201009230300 METAR LPPR 230300Z 14002KT 7000 BKN250 18/17 Q1017=
201009230230 METAR LPPR 230230Z 00000KT 8000 FEW015 BKN250 17/16 Q1017=
201009230200 METAR LPPR 230200Z 00000KT 8000 FEW012 SCT030 BKN250 18/16
                        Q1018=
201009230130 METAR LPPR 230130Z 18003KT 8000 SCT030 BKN250 18/16 Q1018=
201009230100 METAR LPPR 230100Z 00000KT 8000 FEW020 SCT030 BKN250 18/16
                        Q1018=
201009230030 METAR LPPR 230030Z 00000KT 8000 SCT020 SCT030 BKN250 18/16
                        Q1018=
201009230000 METAR LPPR 230000Z 00000KT 8000 SCT020 SCT070 BKN250 18/16
                        Q1018=
201009222330 METAR LPPR 222330Z 10002KT 9999 FEW020 BKN250 18/16 Q1018=
201009222300 METAR LPPR 222300Z 12002KT 9999 FEW020 BKN250 19/16 Q1018=
201009222230 METAR LPPR 222230Z 07001KT 9999 SCT020 19/16 Q1018=
201009222200 METAR LPPR 222200Z 00000KT 9999 SCT020 BKN030 19/16 Q1018=
201009222130 METAR LPPR 222130Z VRB01KT 9999 SCT025 SCT035 19/16 Q1018=
201009222100 METAR LPPR 222100Z 00000KT 9999 FEW015 BKN030 19/16 Q1018=
201009222030 METAR LPPR 222030Z 00000KT 9999 FEW015 BKN025 19/16 Q1018=
201009222000 METAR LPPR 222000Z VRB02KT 9999 FEW015 BKN025 19/17 Q1017=
201009221930 METAR LPPR 221930Z 07001KT 9999 FEW012 BKN022 19/17 Q1017=
201009221900 METAR LPPR 221900Z 00000KT 9999 FEW013 BKN020 19/17 Q1017=
201009221830 METAR LPPR 221830Z VRB02KT 9999 SCT013 19/17 Q1017=
201009221800 METAR LPPR 221800Z 29003KT 9999 FEW015 20/16 Q1017=
201009221730 METAR LPPR 221730Z 28005KT 250V310 9999 FEW015 20/16 Q1017=
201009221700 METAR LPPR 221700Z 29007KT 240V330 9999 FEW015 21/16 Q1017=
201009221630 METAR LPPR 221630Z 29008KT 250V330 9999 FEW018 21/16 Q1017=
201009221600 METAR LPPR 221600Z 29007KT 260V330 CAVOK 22/15 Q1016=
201009221530 METAR LPPR 221530Z 29007KT 260V330 CAVOK 22/16 Q1016=
201009221500 METAR LPPR 221500Z 31007KT CAVOK 23/15 Q1016=
201009221430 METAR LPPR 221430Z 31005KT 260V350 9999 FEW020 23/16 Q1016=
201009221400 METAR LPPR 221400Z 30007KT 270V330 9000 FEW020 22/15 Q1016=
201009221330 METAR LPPR 221330Z 29007KT 250V330 9000 FEW100 22/16 Q1016=
201009221300 METAR LPPR 221300Z 24005KT 160V280 8000 SCT100 24/15 Q1017=
201009221230 METAR LPPR 221230Z 25005KT 190V270 7000 FEW070 BKN250 23/16
                        Q1016=
201009221200 METAR LPPR 221200Z 25006KT 7000 FEW070 BKN250 23/15 Q1016=
201009221130 METAR LPPR 221130Z VRB01KT 6000 SCT070 BKN250 23/15 Q1016=
201009221100 METAR LPPR 221100Z VRB02KT 6000 SCT080 BKN250 22/15 Q1016=
201009221030 METAR LPPR 221030Z VRB01KT 7000 FEW090 BKN250 21/14 Q1017=
201009221000 METAR LPPR 221000Z VRB02KT 5000 BR FEW100 BKN200 20/15 Q1017=
201009220930 METAR LPPR 220930Z VRB01KT 5000 BR FEW100 BKN200 19/15 Q1017=
201009220900 METAR LPPR 220900Z 26003KT 5000 BR BKN200 19/15 Q1017=
201009220830 METAR LPPR 220830Z VRB02KT 5000 BR BKN200 18/15 Q1016=
201009220800 METAR LPPR 220800Z VRB01KT 5000 BR BKN200 17/15 Q1016=
201009220730 METAR LPPR 220730Z VRB02KT 5000 BR BKN200 16/14 Q1016=
201009220700 METAR LPPR 220700Z 09002KT 4000 BR BKN250 16/14 Q1016=
201009220630 METAR LPPR 220630Z 36001KT 5000 BR SCT250 15/14 Q1016=
201009220600 METAR LPPR 220600Z VRB01KT 7000 FEW070 15/14 Q1016=
201009220530 METAR LPPR 220530Z 00000KT 7000 FEW250 15/13 Q1016=
201009220500 METAR LPPR 220500Z VRB02KT 7000 FEW070 15/14 Q1016=
201009220430 METAR LPPR 220430Z 00000KT 7000 SCT070 15/14 Q1016=
201009220400 METAR LPPR 220400Z 00000KT 7000 SCT070 15/14 Q1016=
201009220330 METAR LPPR 220330Z 00000KT 8000 SCT250 14/13 Q1016=
201009220300 METAR LPPR 220300Z 00000KT 8000 SKC 15/13 Q1016=
201009220230 METAR LPPR 220230Z 00000KT CAVOK 15/13 Q1017=
201009220200 METAR LPPR 220200Z 10003KT CAVOK 16/14 Q1017=
201009220130 METAR LPPR 220130Z 05001KT CAVOK 16/14 Q1017=
201009220100 METAR LPPR 220100Z 00000KT CAVOK 15/14 Q1018=
201009220030 METAR LPPR 220030Z 00000KT CAVOK 16/14 Q1018=
201009220000 METAR LPPR 220000Z VRB02KT CAVOK 16/14 Q1018=
201009212330 METAR LPPR 212330Z 00000KT CAVOK 16/14 Q1018=
201009212300 METAR LPPR 212300Z 00000KT CAVOK 16/14 Q1017=
201009212230 METAR LPPR 212230Z 00000KT CAVOK 16/14 Q1017=
201009212200 METAR LPPR 212200Z 03002KT CAVOK 16/14 Q1017=
201009212130 METAR LPPR 212130Z 03003KT CAVOK 16/14 Q1018=
201009212100 METAR LPPR 212100Z 00000KT CAVOK 17/15 Q1018=
201009212030 METAR LPPR 212030Z VRB02KT CAVOK 17/14 Q1018=
201009212000 METAR LPPR 212000Z VRB02KT CAVOK 17/14 Q1017=
201009211930 METAR LPPR 211930Z 36003KT CAVOK 17/15 Q1017=
201009211900 METAR LPPR 211900Z 32005KT 280V350 CAVOK 18/15 Q1017=
201009211830 METAR LPPR 211830Z 32005KT CAVOK 19/15 Q1017=
201009211800 METAR LPPR 211800Z 32007KT CAVOK 20/15 Q1017=
201009211730 METAR LPPR 211730Z 32007KT 290V350 CAVOK 20/15 Q1017=
201009211700 METAR LPPR 211700Z 30007KT CAVOK 21/15 Q1017=
201009211630 METAR LPPR 211630Z 30009KT 260V030 CAVOK 21/16 Q1017=
201009211600 METAR LPPR 211600Z 31009KT 270V330 CAVOK 21/15 Q1017=
201009211530 METAR LPPR 211530Z 28009KT 250V320 CAVOK 22/15 Q1017=
201009211500 METAR LPPR 211500Z 29007KT 260V330 CAVOK 22/15 Q1017=
201009211430 METAR LPPR 211430Z 28007KT CAVOK 22/14 Q1017=
201009211400 METAR LPPR 211400Z 28007KT 250V320 CAVOK 22/14 Q1017=
201009211330 METAR LPPR 211330Z 28008KT 250V310 CAVOK 22/14 Q1017=
201009211300 METAR LPPR 211300Z 27006KT CAVOK 22/14 Q1017=
201009211230 METAR LPPR 211230Z 27006KT 240V320 CAVOK 22/14 Q1017=
201009211200 METAR LPPR 211200Z 26006G16KT 220V310 CAVOK 22/14 Q1017=
201009211130 METAR LPPR 211130Z 30006KT 260V340 CAVOK 22/14 Q1018=
201009211100 METAR LPPR 211100Z VRB02KT CAVOK 22/14 Q1018=
201009211030 METAR LPPR 211030Z VRB04KT 9999 FEW020 21/14 Q1018=
201009211000 METAR LPPR 211000Z VRB03KT 9999 FEW020 21/14 Q1018=
201009210930 METAR LPPR 210930Z VRB01KT 9999 SCT020 20/14 Q1018=
201009210900 METAR LPPR 210900Z VRB02KT 9999 SCT020 20/14 Q1018=
201009210830 METAR LPPR 210830Z 11003KT 9999 FEW015 SCT025 19/15 Q1017=
201009210800 METAR LPPR 210800Z VRB01KT 7000 FEW015 BKN025 19/15 Q1017=
201009210730 METAR LPPR 210730Z 07001KT 7000 FEW015 SCT025 17/15 Q1017=
201009210700 METAR LPPR 210700Z VRB01KT 8000 FEW015 BKN020 17/15 Q1017=
201009210630 METAR LPPR 210630Z 00000KT 8000 SCT015 BKN020 17/15 Q1016=
201009210600 METAR LPPR 210600Z 00000KT 9999 SCT015 BKN020 17/15 Q1016=
201009210530 METAR LPPR 210530Z 00000KT 8000 SCT013 BKN017 17/15 Q1016=
201009210500 METAR LPPR 210500Z VRB01KT 8000 SCT013 BKN017 17/15 Q1016=
201009210430 METAR LPPR 210430Z 00000KT 8000 SCT013 BKN017 17/16 Q1015=
201009210400 METAR LPPR 210400Z 00000KT 8000 BKN015 17/16 Q1016=
201009210330 METAR LPPR 210330Z 00000KT 8000 BKN015 17/16 Q1015=
201009210300 METAR LPPR 210300Z VRB02KT 8000 FEW007 BKN017 17/16 Q1015=
201009210230 METAR LPPR 210230Z 10003KT 8000 SCT008 SCT017 16/15 Q1015=
201009210200 METAR LPPR 210200Z 09001KT 9999 FEW008 BKN017 16/15 Q1015=
201009210130 METAR LPPR 210130Z 00000KT 9999 SCT008 BKN017 17/16 Q1015=
201009210100 METAR LPPR 210100Z VRB02KT 9999 SCT008 BKN015 17/16 Q1015=
201009210030 METAR LPPR 210030Z 06002KT 9999 SCT008 BKN015 17/17 Q1016=
201009210000 METAR LPPR 210000Z VRB02KT 9999 FEW008 BKN015 17/16 Q1016=
201009202330 METAR LPPR 202330Z 00000KT 9999 SCT008 SCT015 16/15 Q1016=
201009202300 METAR LPPR 202300Z 00000KT 9999 FEW006 SCT009 16/16 Q1015=
201009202230 METAR LPPR 202230Z 00000KT 7000 FEW007 BKN009 17/16 Q1015=
201009202200 METAR LPPR 202200Z 00000KT 6000 BKN009 17/16 Q1015=
201009202130 METAR LPPR 202130Z 00000KT 8000 FEW008 SCT010 17/16 Q1015=
201009202100 METAR LPPR 202100Z 33003KT 8000 SCT008 BKN010 17/16 Q1015=
201009202030 METAR LPPR 202030Z VRB02KT 8000 FEW009 18/17 Q1015=
201009202000 METAR LPPR 202000Z VRB02KT 9999 FEW009 FEW030CB 18/16 Q1015=
201009201930 METAR LPPR 201930Z 31001KT 9999 FEW009 FEW030CB 18/16 Q1014=
201009201900 METAR LPPR 201900Z VRB02KT 9999 FEW009 FEW030CB 19/17 Q1014=
201009201830 METAR LPPR 201830Z VRB02KT 9999 FEW009 FEW030CB 19/16 Q1014=
201009201800 METAR LPPR 201800Z 30004KT 250V330 9999 FEW009 FEW030CB 20/17
                        Q1013=
201009201730 METAR LPPR 201730Z 30006KT 9999 FEW009 FEW030CB 20/16 Q1013=
201009201700 METAR LPPR 201700Z 30007KT 250V340 9999 FEW008 FEW025CB 21/17
                        Q1013=
201009201630 METAR LPPR 201630Z 29007KT 250V330 9999 FEW008 FEW025CB 21/17
                        Q1013=
201009201600 METAR LPPR 201600Z 28008KT 260V330 9999 FEW008 FEW025CB 21/16
                        Q1013=
201009201530 METAR LPPR 201530Z 28008KT 230V320 9999 FEW008 FEW025CB 22/17
                        Q1013=
201009201500 METAR LPPR 201500Z 24008KT 210V270 9999 FEW080 FEW025CB 23/17
                        Q1013=
201009201430 METAR LPPR 201430Z 25007KT 220V280 9999 FEW025CB 24/17 Q1013=
201009201400 METAR LPPR 201400Z 21006KT 170V280 CAVOK 23/15 Q1013=
201009201330 METAR LPPR 201330Z 22005KT 180V280 CAVOK 23/17 Q1013=
201009201300 METAR LPPR 201300Z 22007KT 180V270 CAVOK 23/17 Q1013=
201009201230 METAR LPPR 201230Z 21007KT 180V260 CAVOK 23/16 Q1013=
201009201200 METAR LPPR 201200Z 23007KT 190V260 9999 FEW008 SCT080 23/16
                        Q1014=
201009201130 METAR LPPR 201130Z 21006KT 170V280 9999 FEW008 SCT080 23/16
                        Q1013=
201009201100 METAR LPPR 201100Z 24008KT 210V270 8000 BKN008 22/18 Q1014=
201009201030 METAR LPPR 201030Z 22007KT 8000 FEW006 22/18 Q1013=
201009201000 METAR LPPR 201000Z 20008KT CAVOK 22/17 Q1013=
201009200930 METAR LPPR 200930Z 19006KT 160V220 CAVOK 23/16 Q1013=
201009200900 METAR LPPR 200900Z 16006KT CAVOK 22/15 Q1013=
201009200830 METAR LPPR 200830Z 14006KT CAVOK 20/15 Q1013=
201009200800 METAR LPPR 200800Z 11003KT CAVOK 18/15 Q1012=
201009200730 METAR LPPR 200730Z 00000KT CAVOK 15/14 Q1012=
201009200700 METAR LPPR 200700Z 00000KT CAVOK 15/13 Q1012=
201009200630 METAR LPPR 200630Z VRB01KT CAVOK 15/14 Q1012=
201009200600 METAR LPPR 200600Z 00000KT CAVOK 14/13 Q1012=
201009200530 METAR LPPR 200530Z 00000KT CAVOK 15/13 Q1012=
201009200500 METAR LPPR 200500Z 00000KT CAVOK 15/13 Q1012=
201009200430 METAR LPPR 200430Z 00000KT CAVOK 15/13 Q1012=
201009200400 METAR LPPR 200400Z 10002KT CAVOK 15/14 Q1012=
201009200330 METAR LPPR 200330Z 00000KT CAVOK 15/13 Q1012=
201009200300 METAR LPPR 200300Z 00000KT CAVOK 15/14 Q1012=
201009200230 METAR LPPR 200230Z 00000KT CAVOK 15/14 Q1012=
201009200200 METAR LPPR 200200Z 00000KT CAVOK 16/14 Q1012=
201009200130 METAR LPPR 200130Z 00000KT CAVOK 16/14 Q1013=
201009200100 METAR LPPR 200100Z 00000KT CAVOK 16/14 Q1013=
201009200030 METAR LPPR 200030Z 00000KT CAVOK 16/14 Q1013=
201009200000 METAR LPPR 200000Z 00000KT CAVOK 17/14 Q1013=
201009192330 METAR LPPR 192330Z 00000KT CAVOK 17/14 Q1013=
201009192300 METAR LPPR 192300Z 00000KT CAVOK 17/14 Q1013=
201009192230 METAR LPPR 192230Z 00000KT CAVOK 17/14 Q1014=
201009192200 METAR LPPR 192200Z 00000KT CAVOK 17/14 Q1014=
201009192130 METAR LPPR 192130Z 33001KT CAVOK 17/14 Q1014=
201009192100 METAR LPPR 192100Z 00000KT CAVOK 18/14 Q1014=
201009192030 METAR LPPR 192030Z 00000KT CAVOK 18/14 Q1013=
201009192000 METAR LPPR 192000Z 00000KT CAVOK 19/14 Q1013=
201009191930 METAR LPPR 191930Z 33003KT CAVOK 19/13 Q1013=
201009191900 METAR LPPR 191900Z 35004KT CAVOK 20/13 Q1013=
201009191830 METAR LPPR 191830Z 33003KT CAVOK 23/13 Q1013=
201009191800 METAR LPPR 191800Z 30004KT CAVOK 23/13 Q1013=
201009191730 METAR LPPR 191730Z 32006KT CAVOK 24/12 Q1013=
201009191700 METAR LPPR 191700Z 31007KT CAVOK 24/13 Q1013=
201009191630 METAR LPPR 191630Z 31008KT 280V010 9999 FEW025 24/13 Q1013=
201009191600 METAR LPPR 191600Z 30006G17KT 260V330 9999 FEW025 24/13 Q1013=
201009191530 METAR LPPR 191530Z 31006KT 9999 FEW025 24/15 Q1014=
201009191500 METAR LPPR 191500Z 29007KT 250V320 9999 FEW025 24/15 Q1014=
201009191430 METAR LPPR 191430Z 28006KT 220V300 9999 FEW025 26/13 Q1014=
201009191400 METAR LPPR 191400Z 28007KT 9999 FEW025 25/13 Q1014=
201009191330 METAR LPPR 191330Z 25007KT 220V280 9999 FEW025 26/13 Q1014=
201009191300 METAR LPPR 191300Z 25007KT 9999 FEW025 26/13 Q1015=
201009191230 METAR LPPR 191230Z 25006KT 210V280 CAVOK 25/14 Q1015=
201009191200 METAR LPPR 191200Z 23005KT 190V280 CAVOK 25/14 Q1015=
201009191130 METAR LPPR 191130Z 24006KT 210V280 CAVOK 24/15 Q1015=
201009191100 METAR LPPR 191100Z 25005KT 200V280 CAVOK 25/16 Q1015=
201009191030 METAR LPPR 191030Z 24005G15KT 200V270 CAVOK 25/15 Q1015=
201009191000 METAR LPPR 191000Z 12006KT CAVOK 25/12 Q1015=
201009190930 METAR LPPR 190930Z 13008KT 090V150 CAVOK 24/12 Q1015=
201009190900 METAR LPPR 190900Z 11006KT 060V150 CAVOK 23/12 Q1015=
201009190830 METAR LPPR 190830Z VRB03KT CAVOK 22/12 Q1015=
201009190800 METAR LPPR 190800Z 11004KT 070V150 CAVOK 21/12 Q1015=
201009190730 METAR LPPR 190730Z 10006KT CAVOK 20/12 Q1015=
201009190700 METAR LPPR 190700Z 10005KT CAVOK 18/12 Q1015=
201009190630 METAR LPPR 190630Z 09005KT 070V130 CAVOK 18/12 Q1015=
201009190600 METAR LPPR 190600Z 10007KT CAVOK 18/13 Q1014=
201009190530 METAR LPPR 190530Z 10006KT CAVOK 18/13 Q1014=
201009190500 METAR LPPR 190500Z 09005KT 060V130 CAVOK 17/14 Q1014=
201009190430 METAR LPPR 190430Z VRB02KT 8000 SKC 16/14 Q1014=
201009190400 METAR LPPR 190400Z 09002KT 8000 SKC 16/15 Q1014=
201009190330 METAR LPPR 190330Z 00000KT CAVOK 15/13 Q1014=
201009190300 METAR LPPR 190300Z 00000KT CAVOK 15/13 Q1015=
201009190230 METAR LPPR 190230Z 00000KT CAVOK 15/14 Q1015=
201009190200 METAR LPPR 190200Z 00000KT CAVOK 15/13 Q1015=
201009190130 METAR LPPR 190130Z 00000KT CAVOK 15/13 Q1015=
201009190100 METAR LPPR 190100Z 00000KT CAVOK 15/13 Q1015=
201009190030 METAR LPPR 190030Z VRB02KT CAVOK 16/13 Q1015=
201009190000 METAR LPPR 190000Z 00000KT CAVOK 16/13 Q1015=
201009182330 METAR LPPR 182330Z 00000KT CAVOK 16/13 Q1015=
201009182300 METAR LPPR 182300Z 00000KT CAVOK 17/14 Q1015=
201009182230 METAR LPPR 182230Z 00000KT CAVOK 17/13 Q1015=
201009182200 METAR LPPR 182200Z 00000KT CAVOK 17/13 Q1015=
201009182130 METAR LPPR 182130Z 00000KT CAVOK 18/13 Q1016=
201009182100 METAR LPPR 182100Z 00000KT CAVOK 18/13 Q1016=
201009182030 METAR LPPR 182030Z 34004KT CAVOK 18/13 Q1015=
201009182000 METAR LPPR 182000Z 34004KT CAVOK 18/13 Q1015=
201009181930 METAR LPPR 181930Z 35006KT CAVOK 20/13 Q1015=
201009181900 METAR LPPR 181900Z 34007KT CAVOK 20/13 Q1015=
201009181830 METAR LPPR 181830Z 34007KT 9999 FEW020 21/14 Q1015=
201009181800 METAR LPPR 181800Z 34010KT 9999 FEW020 23/14 Q1014=
201009181730 METAR LPPR 181730Z 33010KT 9999 FEW020 24/14 Q1014=
201009181700 METAR LPPR 181700Z 33014KT 9999 FEW020 24/13 Q1014=
201009181630 METAR LPPR 181630Z 32013KT 270V350 9999 FEW020 24/13 Q1014=
201009181600 METAR LPPR 181600Z 32013KT 9999 FEW020 24/13 Q1014=
201009181530 METAR LPPR 181530Z 32012KT 9999 FEW020 25/13 Q1014=
201009181500 METAR LPPR 181500Z 33013KT 9999 FEW020 25/14 Q1014=
201009181430 METAR LPPR 181430Z 32011KT 9999 FEW020 25/14 Q1015=
201009181400 METAR LPPR 181400Z 32011KT 290V010 9999 FEW020 25/14 Q1015=
201009181330 METAR LPPR 181330Z 31009KT 9999 FEW020 25/14 Q1015=
201009181300 METAR LPPR 181300Z 31007KT 290V360 9999 FEW020 26/14 Q1015=
201009181230 METAR LPPR 181230Z VRB03KT 9999 FEW045 26/14 Q1015=
201009181200 METAR LPPR 181200Z 12004KT 020V170 9999 FEW020 26/12 Q1015=
201009181130 METAR LPPR 181130Z VRB03KT 9999 FEW020 SCT045 25/12 Q1016=
201009181100 METAR LPPR 181100Z VRB03KT 9999 FEW020 SCT045 25/12 Q1016=
201009181030 METAR LPPR 181030Z 07004KT 030V130 9999 FEW020 SCT070 24/12
                        Q1016=
201009181000 METAR LPPR 181000Z 08005KT 020V130 9999 FEW020 SCT070 24/12
                        Q1015=
201009180930 METAR LPPR 180930Z 09007KT 050V130 9999 FEW020 23/11 Q1015=
201009180900 METAR LPPR 180900Z 08007KT 020V130 9999 FEW020 22/12 Q1015=
201009180830 METAR LPPR 180830Z VRB03KT 9999 FEW020 21/13 Q1015=
201009180800 METAR LPPR 180800Z 06004KT 010V100 CAVOK 20/14 Q1014=
201009180730 METAR LPPR 180730Z 08004KT 040V120 CAVOK 20/14 Q1014=
201009180700 METAR LPPR 180700Z VRB03KT CAVOK 19/14 Q1014=
201009180630 METAR LPPR 180630Z VRB03KT CAVOK 19/14 Q1014=
201009180600 METAR LPPR 180600Z VRB02KT CAVOK 19/15 Q1013=
201009180530 METAR LPPR 180530Z VRB02KT CAVOK 19/16 Q1013=
201009180500 METAR LPPR 180500Z VRB02KT CAVOK 18/17 Q1013=
201009180430 METAR LPPR 180430Z 08003KT CAVOK 18/17 Q1013=
201009180400 METAR LPPR 180400Z 34001KT 8000 BKN060 17/16 Q1013=
201009180330 METAR LPPR 180330Z VRB02KT 8000 BKN060 17/17 Q1013=
201009180300 METAR LPPR 180300Z 08002KT 7000 SCT060 17/17 Q1013=
201009180230 METAR LPPR 180230Z 00000KT 8000 SCT070 17/16 Q1013=
201009180200 METAR LPPR 180200Z 00000KT 8000 SCT070 18/17 Q1013=
201009180130 METAR LPPR 180130Z 12002KT 6000 SCT060 SCT080 18/17 Q1013=
201009180100 METAR LPPR 180100Z 00000KT 6000 FEW050 BKN070 18/17 Q1013=
201009180030 METAR LPPR 180030Z 00000KT 6000 SCT080 17/16 Q1013=
201009180000 METAR LPPR 180000Z 00000KT 7000 SCT080 18/16 Q1013=
201009172330 METAR LPPR 172330Z 36001KT 8000 FEW080 18/17 Q1013=
201009172300 METAR LPPR 172300Z 00000KT 8000 FEW080 18/17 Q1013=
201009172230 METAR LPPR 172230Z 34002KT 9000 SCT080 19/17 Q1013=
201009172200 METAR LPPR 172200Z 35003KT 9000 SCT070 19/17 Q1013=
201009172130 METAR LPPR 172130Z 00000KT 9000 SCT070 21/17 Q1012=
201009172100 METAR LPPR 172100Z 10003KT 9000 SCT070 21/17 Q1012=
201009172030 METAR LPPR 172030Z VRB02KT 8000 SCT080 21/17 Q1012=
201009172000 METAR LPPR 172000Z 00000KT 9999 FEW040 BKN080 21/17 Q1011=
201009171930 METAR LPPR 171930Z VRB02KT 9999 FEW040 BKN250 22/17 Q1011=
201009171900 METAR LPPR 171900Z 32004KT 290V350 9999 SCT040 BKN250 23/16
                        Q1011=
201009171830 METAR LPPR 171830Z 33006KT 290V350 9999 SCT040 BKN250 24/16
                        Q1011=
201009171800 METAR LPPR 171800Z 33006KT 9999 FEW020 FEW025CB BKN250 24/16
                        Q1011=
201009171730 METAR LPPR 171730Z 35006KT 9999 FEW020 FEW025CB SCT250 24/16
                        Q1011=
201009171700 METAR LPPR 171700Z 32007KT 290V350 9999 FEW020 FEW025CB 24/16
                        Q1010=
201009171630 METAR LPPR 171630Z 32009KT 290V350 9999 FEW020 FEW025CB 23/16
                        Q1010=
201009171600 METAR LPPR 171600Z 31008KT 260V020 9999 FEW020 FEW025CB 23/16
                        Q1011=
201009171530 METAR LPPR 171530Z 29007KT 250V320 9999 FEW020 FEW025CB 23/16
                        Q1011=
201009171500 METAR LPPR 171500Z 30008KT 250V330 8000 FEW020 FEW025CB 23/17
                        Q1011=
201009171430 METAR LPPR 171430Z 28007KT 240V320 8000 FEW020 FEW025CB 23/17
                        Q1011=
201009171400 METAR LPPR 171400Z 26006KT 220V330 8000 FEW007 FEW025CB 22/17
                        Q1011=
201009171330 METAR LPPR 171330Z 24005KT 190V310 5000 BR FEW008 SCT030
                        23/18 Q1011=
201009171300 METAR LPPR 171300Z 27005KT 210V310 5000 BR FEW009 SCT045
                        22/18 Q1012=
201009171230 METAR LPPR 171230Z 26004KT 210V320 4000 BR SCT010 SCT045
                        21/18 Q1012=
201009171200 METAR LPPR 171200Z 26005KT 220V300 4000 BR FEW009 SCT015
                        BKN040 21/18 Q1012=
201009171130 METAR LPPR 171130Z 26006KT 230V290 4000 BR FEW008 SCT014
                        BKN020 20/18 Q1012=
201009171100 METAR LPPR 171100Z VRB03KT 4000 BR SCT012 BKN035 22/18 Q1012=
201009171030 METAR LPPR 171030Z 00000KT 4000 BR SCT009 SCT015 BKN035 22/17
                        Q1012=
201009171000 METAR LPPR 171000Z VRB01KT 4000 BR SCT006 BKN013 21/17 Q1012=
201009170930 METAR LPPR 170930Z VRB01KT 4000 BR FEW004 SCT045 20/18 Q1012=
201009170900 METAR LPPR 170900Z VRB02KT 3000 BR SCT004 BKN040 19/18 Q1012=
201009170830 METAR LPPR 170830Z VRB03KT 2000 BR SCT003 BKN005 19/17 Q1012=
201009170800 METAR LPPR 170800Z VRB02KT 3000 BR SCT004 BKN006 18/17 Q1012=
201009170730 METAR LPPR 170730Z 00000KT 2000 BR SCT003 BKN005 18/17 Q1012=
201009170700 METAR LPPR 170700Z VRB02KT 3000 BR BKN006 18/17 Q1011=
201009170630 METAR LPPR 170630Z VRB01KT 3000 BR SCT003 BKN006 18/17 Q1011=
201009170600 METAR LPPR 170600Z 12003KT 4000 BR SCT003 BKN006 18/18 Q1011=
201009170530 METAR LPPR 170530Z 00000KT 4000 BR SCT002 BKN005 18/18 Q1011=
201009170500 METAR LPPR 170500Z VRB02KT 4000 BR SCT002 BKN004 18/18 Q1011=
201009170430 METAR LPPR 170430Z 00000KT 6000 SCT002 BKN004 18/18 Q1011=
201009170400 METAR LPPR 170400Z 00000KT 6000 SCT002 BKN005 18/18 Q1011=
201009170330 METAR LPPR 170330Z VRB01KT 6000 SCT002 BKN005 18/18 Q1011=
201009170300 METAR LPPR 170300Z VRB01KT 6000 BKN003 BKN005 18/18 Q1011=
201009170230 METAR LPPR 170230Z 00000KT 5000 BR SCT003 BKN006 18/18 Q1012=
201009170200 METAR LPPR 170200Z VRB01KT 5000 BR SCT003 BKN006 18/17 Q1012=
201009170130 METAR LPPR 170130Z 00000KT 5000 BR SCT004 BKN006 18/18 Q1012=
201009170100 METAR LPPR 170100Z 18002KT 5000 BR SCT004 BKN006 18/17 Q1012=
201009170030 METAR LPPR 170030Z 00000KT 5000 BR SCT006 BKN040 17/17 Q1013=
201009170000 METAR LPPR 170000Z 00000KT 5000 BR FEW006 SCT040 16/16 Q1013=
201009162330 METAR LPPR 162330Z 00000KT 5000 BR FEW006 16/16 Q1013=
201009162300 METAR LPPR 162300Z 35001KT 5000 BR FEW007 16/15 Q1013=
201009162230 METAR LPPR 162230Z 00000KT 8000 SKC 17/16 Q1013=
201009162200 METAR LPPR 162200Z 00000KT 8000 SKC 17/16 Q1013=
201009162130 METAR LPPR 162130Z 00000KT CAVOK 17/16 Q1013=
201009162100 METAR LPPR 162100Z 34003KT CAVOK 17/15 Q1013=
201009162030 METAR LPPR 162030Z 00000KT CAVOK 18/16 Q1013=
201009162000 METAR LPPR 162000Z VRB01KT CAVOK 18/16 Q1013=
201009161930 METAR LPPR 161930Z VRB01KT CAVOK 19/16 Q1013=
201009161900 METAR LPPR 161900Z 33006KT 290V350 9999 FEW017 20/16 Q1013=
201009161830 METAR LPPR 161830Z 32007KT 9999 FEW017 SCT040 20/16 Q1013=
201009161800 METAR LPPR 161800Z 32008KT 9999 FEW017 SCT040 21/16 Q1013=
201009161730 METAR LPPR 161730Z 33010KT 9999 FEW015 SCT040 22/17 Q1013=
201009161700 METAR LPPR 161700Z 32009KT 280V020 9999 FEW015 SCT045 22/17
                        Q1013=
201009161630 METAR LPPR 161630Z 33008KT 290V350 9999 FEW015 23/17 Q1013=
201009161600 METAR LPPR 161600Z 32008KT 280V350 9999 FEW015 SCT250 23/17
                        Q1013=
201009161530 METAR LPPR 161530Z 31008KT 260V330 9999 FEW015 SCT250 23/17
                        Q1013=
201009161500 METAR LPPR 161500Z 31007KT 250V330 9999 FEW017 SCT250 23/17
                        Q1013=
201009161430 METAR LPPR 161430Z 31008KT 260V330 9999 FEW015 SCT250 23/17
                        Q1014=
201009161400 METAR LPPR 161400Z 28006KT 210V330 9999 SCT015 SCT250 23/18
                        Q1014=
201009161330 METAR LPPR 161330Z 26005KT 220V320 9999 SCT015 SCT250 23/18
                        Q1014=
201009161300 METAR LPPR 161300Z 27007KT 240V320 9999 BKN015 23/18 Q1014=
201009161230 METAR LPPR 161230Z 26006KT 240V300 9999 FEW015 BKN020 22/18
                        Q1015=
201009161200 METAR LPPR 161200Z 29005KT 210V320 9999 SCT013 BKN020 22/17
                        Q1015=
201009161130 METAR LPPR 161130Z 29005KT 240V340 9999 FEW013 BKN020 22/18
                        Q1015=
201009161100 METAR LPPR 161100Z 28005KT 210V310 9999 FEW013 BKN020 22/17
                        Q1015=
201009161030 METAR LPPR 161030Z VRB03KT 8000 SCT013 BKN017 22/18 Q1015=
201009161000 METAR LPPR 161000Z VRB03KT 7000 SCT014 BKN050 21/18 Q1016=
201009160930 METAR LPPR 160930Z VRB03KT 7000 SCT013 BKN050 21/18 Q1016=
201009160900 METAR LPPR 160900Z 24006KT 7000 SCT013 BKN050 21/18 Q1016=
201009160830 METAR LPPR 160830Z VRB02KT 7000 FEW013 BKN045 20/18 Q1016=
201009160800 METAR LPPR 160800Z 18004KT 140V220 5000 BR BKN045 19/18 Q1015=
201009160730 METAR LPPR 160730Z 13002KT 5000 BR BKN045 18/17 Q1015=
201009160700 METAR LPPR 160700Z 00000KT 5000 BR FEW009 BKN045 18/17 Q1015=
201009160630 METAR LPPR 160630Z 00000KT 5000 BR SCT005 BKN040 18/17 Q1015=
201009160600 METAR LPPR 160600Z 00000KT 8000 SCT006 SCT009 BKN045 18/17
                        Q1015=
201009160530 METAR LPPR 160530Z VRB01KT 5000 BR SCT004 BKN008 18/18 Q1015=
201009160500 METAR LPPR 160500Z VRB02KT 5000 BR SCT003 BKN006 18/18 Q1015=
201009160430 METAR LPPR 160430Z VRB02KT 7000 SCT004 BKN006 19/18 Q1015=
201009160400 METAR LPPR 160400Z VRB01KT 8000 SCT004 BKN008 19/18 Q1015=
201009160330 METAR LPPR 160330Z VRB03KT 7000 SCT004 BKN006 19/18 Q1015=
201009160300 METAR LPPR 160300Z VRB03KT 6000 SCT002 BKN004 19/18 Q1015=
201009160230 METAR LPPR 160230Z 28004KT 5000 BR SCT002 BKN005 19/18 Q1015=
201009160200 METAR LPPR 160200Z 00000KT 7000 SCT004 BKN007 19/18 Q1016=
201009160130 METAR LPPR 160130Z 34004KT 310V010 7000 SCT003 BKN006 19/18
                        Q1016=
201009160100 METAR LPPR 160100Z VRB03KT 7000 SCT004 BKN006 19/18 Q1016=
201009160030 METAR LPPR 160030Z 34005KT 8000 SCT004 BKN007 19/18 Q1016=
201009160000 METAR LPPR 160000Z 34004KT 310V010 8000 SCT004 BKN006 19/19
                        Q1017=
201009152330 METAR LPPR 152330Z 35002KT 7000 SCT004 BKN006 19/19 Q1017=
201009152300 METAR LPPR 152300Z 32004KT 7000 SCT004 BKN006 19/19 Q1017=
201009152230 METAR LPPR 152230Z 31004KT 270V350 8000 SCT003 SCT006 BKN090
                        19/19 Q1017=
201009152200 METAR LPPR 152200Z 33008KT 8000 SCT003 SCT006 BKN090 19/19
                        Q1017=
201009152130 METAR LPPR 152130Z 31007KT 280V340 8000 SCT003 SCT006 BKN090
                        20/19 Q1017=
201009152100 METAR LPPR 152100Z 31004KT 270V330 6000 FEW040 BKN090 20/19
                        Q1017=
201009152030 METAR LPPR 152030Z 33003KT 6000 FEW040 SCT090 20/19 Q1017=
201009152000 METAR LPPR 152000Z 32004KT 270V350 7000 FEW040 BKN090 21/19
                        Q1017=
201009151930 METAR LPPR 151930Z 31003KT 7000 FEW040 BKN100 21/20 Q1017=
201009151900 METAR LPPR 151900Z VRB03KT 6000 FEW040 BKN100 22/20 Q1017=
201009151830 METAR LPPR 151830Z 34003KT 7000 FEW040 BKN100 22/20 Q1017=
201009151800 METAR LPPR 151800Z VRB03KT 7000 FEW040 BKN100 22/20 Q1017=
201009151730 METAR LPPR 151730Z VRB03KT 7000 FEW040 BKN100 22/20 Q1017=
201009151700 METAR LPPR 151700Z 00000KT 7000 FEW040 BKN100 23/19 Q1018=
201009151630 METAR LPPR 151630Z 00000KT 8000 FEW040 BKN100 23/19 Q1018=
201009151600 METAR LPPR 151600Z 19004KT 8000 FEW040 BKN100 23/19 Q1019=
201009151530 METAR LPPR 151530Z VRB03KT 8000 SCT030 SCT050 BKN080 22/19
                        Q1018=
201009151500 METAR LPPR 151500Z 06006KT 010V110 8000 SCT030 BKN050 BKN080
                        22/19 Q1018=
201009151430 METAR LPPR 151430Z 03004KT 350V070 8000 -RA FEW010 BKN040
                        BKN080 22/19 Q1020=
201009151400 METAR LPPR 151400Z VRB03KT 8000 SCT009 SCT017 BKN080 22/19
                        Q1020=
201009151330 METAR LPPR 151330Z VRB03KT 8000 FEW007 SCT017 BKN080 22/19
                        Q1021=
201009151300 METAR LPPR 151300Z 24004KT 190V290 8000 FEW007 SCT015 BKN040
                        21/19 Q1021=
201009151230 METAR LPPR 151230Z 21006KT 190V250 8000 -RA FEW008 SCT020
                        BKN090 22/20 Q1022=
201009151200 METAR LPPR 151200Z 19004KT 160V250 8000 FEW009 SCT016 BKN120
                        22/19 Q1021=
201009151130 METAR LPPR 151130Z VRB03KT 8000 SCT009 BKN016 22/19 Q1021=
201009151100 METAR LPPR 151100Z VRB02KT 9999 FEW002 SCT006 BKN200 22/21
                        Q1021=
201009151030 METAR LPPR 151030Z VRB01KT 5000 BR SCT002 BKN005 20/20 Q1021=
201009151000 METAR LPPR 151000Z 22004KT 180V270 0500 R17/1000N R35/1000N
                        FG BKN000 BKN001 20/20 Q1021=
201009150930 METAR LPPR 150930Z 25005KT 200V280 0500 R17/0800N R35/0900N
                        FG BKN000 BKN001 20/20 Q1020=
201009150900 METAR LPPR 150900Z 22005KT 190V280 0500 R17/1200N R35/1400VP1500
                        FG BKN000 BKN001 20/19 Q1020=
201009150830 METAR LPPR 150830Z 24005KT 220V280 5000 BR BKN200 21/19 Q1019=
201009150800 METAR LPPR 150800Z 00000KT 5000 BR BKN200 20/18 Q1018=
201009150730 METAR LPPR 150730Z 00000KT 5000 BR BKN250 19/17 Q1018=
201009150700 METAR LPPR 150700Z 00000KT 5000 BR BKN250 19/17 Q1018=
201009150630 METAR LPPR 150630Z 00000KT 4000 BR BKN250 19/17 Q1018=
201009150600 METAR LPPR 150600Z 00000KT 6000 BKN250 19/17 Q1018=
201009150530 METAR LPPR 150530Z VRB02KT 8000 BKN250 19/16 Q1019=
201009150500 METAR LPPR 150500Z 00000KT 8000 BKN250 19/17 Q1018=
201009150430 METAR LPPR 150430Z 08001KT 8000 BKN250 19/18 Q1019=
201009150400 METAR LPPR 150400Z 10002KT 8000 BKN250 19/18 Q1019=
201009150330 METAR LPPR 150330Z 00000KT 8000 BKN250 19/17 Q1019=
201009150300 METAR LPPR 150300Z 00000KT 8000 BKN250 19/16 Q1019=
201009150230 METAR LPPR 150230Z 00000KT 8000 BKN250 20/15 Q1019=
201009150200 METAR LPPR 150200Z 00000KT 8000 BKN250 20/16 Q1019=
201009150130 METAR LPPR 150130Z 00000KT 8000 BKN250 19/16 Q1020=
201009150100 METAR LPPR 150100Z 00000KT 8000 FEW250 20/16 Q1020=
201009150030 METAR LPPR 150030Z 00000KT 8000 FEW250 19/17 Q1020=
201009150000 METAR LPPR 150000Z 00000KT 8000 SCT250 19/17 Q1020=
201009142330 METAR LPPR 142330Z 00000KT 8000 SCT250 19/17 Q1020=
201009142300 METAR LPPR 142300Z 00000KT 8000 BKN250 20/18 Q1021=
201009142230 METAR LPPR 142230Z 00000KT 8000 FEW020 21/15 Q1021=
201009142200 METAR LPPR 142200Z 00000KT 9999 FEW020 21/14 Q1021=
201009142130 METAR LPPR 142130Z 00000KT 9999 FEW020 SCT250 20/15 Q1021=
201009142100 METAR LPPR 142100Z 00000KT 8000 FEW020 SCT250 20/15 Q1020=
201009142030 METAR LPPR 142030Z 00000KT 8000 FEW020 SCT250 21/15 Q1020=
201009142000 METAR LPPR 142000Z 00000KT 8000 FEW020 SCT250 21/16 Q1020=
201009141930 METAR LPPR 141930Z 00000KT 9999 FEW020 SCT250 22/15 Q1020=
201009141900 METAR LPPR 141900Z VRB01G12KT 9999 FEW020 SCT250 23/14 Q1020=
201009141830 METAR LPPR 141830Z 31001KT 9999 FEW020 SCT250 24/15 Q1020=
201009141800 METAR LPPR 141800Z VRB03KT 9999 FEW020 SCT250 25/14 Q1020=
201009141730 METAR LPPR 141730Z VRB02KT 9999 FEW020 SCT250 25/15 Q1020=
201009141700 METAR LPPR 141700Z 26005KT CAVOK 29/11 Q1020=
201009141630 METAR LPPR 141630Z VRB03KT CAVOK 30/12 Q1020=
201009141600 METAR LPPR 141600Z 31005KT 270V330 CAVOK 30/11 Q1020=
201009141530 METAR LPPR 141530Z 31005KT 280V350 CAVOK 30/12 Q1020=
201009141500 METAR LPPR 141500Z VRB03KT CAVOK 30/14 Q1020=
201009141430 METAR LPPR 141430Z VRB03KT CAVOK 28/13 Q1020=
201009141400 METAR LPPR 141400Z 28005G15KT 250V350 CAVOK 27/15 Q1021=
201009141330 METAR LPPR 141330Z 29005KT 260V320 CAVOK 28/13 Q1021=
201009141300 METAR LPPR 141300Z 28005KT 250V320 CAVOK 29/11 Q1022=
201009141230 METAR LPPR 141230Z 29004KT 230V330 CAVOK 29/11 Q1022=
201009141200 METAR LPPR 141200Z 25004KT 210V310 CAVOK 29/11 Q1022=
201009141130 METAR LPPR 141130Z VRB03KT CAVOK 28/12 Q1022=
201009141100 METAR LPPR 141100Z 25005KT 210V320 CAVOK 28/13 Q1022=
201009141030 METAR LPPR 141030Z VRB02KT CAVOK 28/14 Q1022=
201009141000 METAR LPPR 141000Z 25004KT 150V300 CAVOK 29/16 Q1022=
201009140930 METAR LPPR 140930Z VRB02KT CAVOK 30/07 Q1022=
201009140900 METAR LPPR 140900Z 00000KT CAVOK 27/14 Q1022=
201009140830 METAR LPPR 140830Z 00000KT CAVOK 25/16 Q1022=
201009140800 METAR LPPR 140800Z VRB02KT CAVOK 22/16 Q1022=
201009140730 METAR LPPR 140730Z 00000KT CAVOK 19/16 Q1022=
201009140700 METAR LPPR 140700Z 00000KT CAVOK 17/15 Q1022=
201009140630 METAR LPPR 140630Z 00000KT CAVOK 17/15 Q1022=
201009140600 METAR LPPR 140600Z 00000KT CAVOK 17/14 Q1022=
201009140530 METAR LPPR 140530Z 00000KT CAVOK 17/14 Q1022=
201009140500 METAR LPPR 140500Z 00000KT CAVOK 18/15 Q1021=
201009140430 METAR LPPR 140430Z 00000KT CAVOK 18/15 Q1021=
201009140400 METAR LPPR 140400Z 00000KT CAVOK 19/14 Q1021=
201009140330 METAR LPPR 140330Z 12001KT CAVOK 20/14 Q1021=
201009140300 METAR LPPR 140300Z VRB03KT CAVOK 21/14 Q1022=
201009140230 METAR LPPR 140230Z 00000KT CAVOK 21/14 Q1021=
201009140200 METAR LPPR 140200Z 10003KT CAVOK 22/14 Q1022=
201009140130 METAR LPPR 140130Z 00000KT CAVOK 21/14 Q1022=
201009140100 METAR LPPR 140100Z 00000KT CAVOK 20/14 Q1022=
201009140030 METAR LPPR 140030Z 00000KT CAVOK 20/14 Q1021=
201009140000 METAR LPPR 140000Z 00000KT CAVOK 20/14 Q1022=
201009132330 METAR LPPR 132330Z 00000KT CAVOK 20/14 Q1022=
201009132300 METAR LPPR 132300Z 00000KT CAVOK 20/14 Q1022=
201009132230 METAR LPPR 132230Z 00000KT CAVOK 21/14 Q1022=
201009132200 METAR LPPR 132200Z 01001KT CAVOK 22/13 Q1022=
201009132130 METAR LPPR 132130Z 35003KT CAVOK 22/13 Q1022=
201009132100 METAR LPPR 132100Z 35003KT CAVOK 22/13 Q1022=
201009132030 METAR LPPR 132030Z 35003KT CAVOK 23/12 Q1022=
201009132000 METAR LPPR 132000Z 00000KT CAVOK 23/12 Q1022=
201009131930 METAR LPPR 131930Z 33003KT CAVOK 24/12 Q1021=
201009131900 METAR LPPR 131900Z 32005KT CAVOK 25/12 Q1021=
201009131830 METAR LPPR 131830Z 33006KT CAVOK 27/12 Q1021=
201009131800 METAR LPPR 131800Z 33006KT 300V010 CAVOK 28/13 Q1021=
201009131730 METAR LPPR 131730Z 32008KT CAVOK 29/12 Q1021=
201009131700 METAR LPPR 131700Z 33009KT 300V010 CAVOK 29/12 Q1021=
201009131630 METAR LPPR 131630Z 33010KT CAVOK 29/12 Q1021=
201009131600 METAR LPPR 131600Z 32010KT CAVOK 29/12 Q1021=
201009131530 METAR LPPR 131530Z 31009KT CAVOK 30/12 Q1021=
201009131500 METAR LPPR 131500Z 32008KT 280V340 CAVOK 30/12 Q1021=
201009131430 METAR LPPR 131430Z 30007KT 270V340 CAVOK 29/13 Q1021=
201009131400 METAR LPPR 131400Z 28007KT 250V320 CAVOK 29/13 Q1022=
201009131330 METAR LPPR 131330Z 27006KT 230V310 CAVOK 30/13 Q1021=
201009131300 METAR LPPR 131300Z 28007KT 240V010 CAVOK 30/13 Q1022=
201009131230 METAR LPPR 131230Z VRB03KT CAVOK 30/13 Q1022=
201009131200 METAR LPPR 131200Z 28006KT CAVOK 28/13 Q1022=
201009131130 METAR LPPR 131130Z 25007KT CAVOK 29/14 Q1022=
201009131100 METAR LPPR 131100Z VRB03KT CAVOK 30/13 Q1022=
201009131030 METAR LPPR 131030Z 09005KT 030V120 CAVOK 29/13 Q1022=
201009131000 METAR LPPR 131000Z 10005KT 020V160 CAVOK 28/13 Q1021=
201009130930 METAR LPPR 130930Z 10007KT 060V150 CAVOK 27/12 Q1021=
201009130900 METAR LPPR 130900Z 09007KT 040V140 CAVOK 26/12 Q1021=
201009130830 METAR LPPR 130830Z 10013KT 070V130 CAVOK 25/12 Q1020=
201009130800 METAR LPPR 130800Z 11015KT 080V140 CAVOK 25/12 Q1020=
201009130730 METAR LPPR 130730Z 11011KT 080V140 CAVOK 24/11 Q1020=
201009130700 METAR LPPR 130700Z 10014G24KT CAVOK 24/11 Q1020=
201009130630 METAR LPPR 130630Z 10013KT 080V140 CAVOK 24/11 Q1019=
201009130600 METAR LPPR 130600Z 11012G23KT 070V140 CAVOK 24/12 Q1019=
201009130530 METAR LPPR 130530Z 10010KT 050V130 CAVOK 24/11 Q1019=
201009130500 METAR LPPR 130500Z 09012KT 050V130 CAVOK 25/12 Q1019=
201009130430 METAR LPPR 130430Z 11008KT 080V140 CAVOK 25/12 Q1018=
201009130400 METAR LPPR 130400Z 09006KT 050V130 CAVOK 25/12 Q1019=
201009130330 METAR LPPR 130330Z 10008KT CAVOK 26/12 Q1019=
201009130300 METAR LPPR 130300Z 09009KT 060V130 CAVOK 26/12 Q1019=
201009130230 METAR LPPR 130230Z 10009KT 060V130 CAVOK 26/12 Q1018=
201009130200 METAR LPPR 130200Z 09007KT 050V120 CAVOK 27/12 Q1018=
201009130130 METAR LPPR 130130Z 09006KT 050V140 CAVOK 27/12 Q1018=
201009130100 METAR LPPR 130100Z 09005KT 040V120 CAVOK 26/12 Q1018=
201009130030 METAR LPPR 130030Z VRB03KT CAVOK 27/12 Q1018=
201009130000 METAR LPPR 130000Z 07004KT 030V110 CAVOK 26/12 Q1018=
201009122330 METAR LPPR 122330Z 06004KT 030V100 CAVOK 26/13 Q1018=
201009122300 METAR LPPR 122300Z 05004KT CAVOK 26/13 Q1018=
201009122230 METAR LPPR 122230Z 04004KT 010V080 CAVOK 27/14 Q1018=
201009122200 METAR LPPR 122200Z 05005KT CAVOK 26/15 Q1017=
201009122130 METAR LPPR 122130Z 04004KT CAVOK 24/16 Q1017=
201009122100 METAR LPPR 122100Z 04003KT CAVOK 23/17 Q1017=
201009122030 METAR LPPR 122030Z 36002KT CAVOK 24/18 Q1017=
201009122000 METAR LPPR 122000Z 01001KT CAVOK 24/17 Q1017=
201009121930 METAR LPPR 121930Z 00000KT CAVOK 26/17 Q1017=
201009121900 METAR LPPR 121900Z 35002KT CAVOK 27/17 Q1016=
201009121830 METAR LPPR 121830Z 34003KT CAVOK 28/17 Q1016=
201009121800 METAR LPPR 121800Z 34008KT CAVOK 30/16 Q1016=
201009121730 METAR LPPR 121730Z 33010KT CAVOK 30/15 Q1016=
201009121700 METAR LPPR 121700Z 33010KT CAVOK 31/15 Q1016=
201009121630 METAR LPPR 121630Z 34012KT CAVOK 30/16 Q1016=
201009121600 METAR LPPR 121600Z 33011KT CAVOK 30/16 Q1016=
201009121530 METAR LPPR 121530Z 32010KT CAVOK 31/16 Q1016=
201009121500 METAR LPPR 121500Z 31010KT CAVOK 31/16 Q1016=
201009121430 METAR LPPR 121430Z 33008KT 280V010 CAVOK 35/15 Q1016=
201009121400 METAR LPPR 121400Z 01005KT 340V050 CAVOK 34/13 Q1016=
201009121330 METAR LPPR 121330Z 02006KT 330V080 CAVOK 33/14 Q1016=
201009121300 METAR LPPR 121300Z 36009KT CAVOK 31/15 Q1017=
201009121230 METAR LPPR 121230Z 01007KT 340V060 CAVOK 32/14 Q1017=
201009121200 METAR LPPR 121200Z 36007KT CAVOK 31/15 Q1017=
201009121130 METAR LPPR 121130Z 35008KT CAVOK 30/15 Q1017=
201009121100 METAR LPPR 121100Z 02006KT 340V060 CAVOK 30/14 Q1017=
201009121030 METAR LPPR 121030Z 03006KT 340V070 CAVOK 29/14 Q1017=
201009121000 METAR LPPR 121000Z 36004KT 330V050 CAVOK 27/16 Q1017=
201009120930 METAR LPPR 120930Z 35006KT CAVOK 26/16 Q1017=
201009120900 METAR LPPR 120900Z 35005KT CAVOK 24/16 Q1017=
201009120830 METAR LPPR 120830Z 35004KT CAVOK 23/16 Q1016=
201009120800 METAR LPPR 120800Z 35004KT CAVOK 20/18 Q1016=
201009120730 METAR LPPR 120730Z 35003KT CAVOK 17/16 Q1016=
201009120700 METAR LPPR 120700Z 36002KT CAVOK 16/15 Q1016=
201009120630 METAR LPPR 120630Z VRB02KT CAVOK 16/14 Q1015=
201009120600 METAR LPPR 120600Z VRB02KT CAVOK 16/15 Q1015=
201009120530 METAR LPPR 120530Z 03003KT 8000 FEW250 16/14 Q1015=
201009120500 METAR LPPR 120500Z VRB01KT 8000 FEW250 16/15 Q1015=
201009120430 METAR LPPR 120430Z 00000KT 8000 FEW250 16/15 Q1015=
201009120400 METAR LPPR 120400Z 02001KT 7000 FEW250 16/15 Q1015=
201009120330 METAR LPPR 120330Z 00000KT 7000 FEW250 17/16 Q1015=
201009120300 METAR LPPR 120300Z 00000KT 7000 FEW250 16/15 Q1015=
201009120230 METAR LPPR 120230Z 00000KT 7000 FEW250 16/15 Q1015=
201009120200 METAR LPPR 120200Z 01002KT 7000 FEW250 17/16 Q1015=
201009120130 METAR LPPR 120130Z 00000KT 7000 FEW250 17/16 Q1015=
201009120100 METAR LPPR 120100Z 00000KT 6000 FEW250 17/16 Q1015=
201009120030 METAR LPPR 120030Z 34001KT 6000 SKC 17/16 Q1015=
201009120000 METAR LPPR 120000Z 00000KT 6000 SKC 17/16 Q1015=
201009112330 METAR LPPR 112330Z 00000KT 6000 SKC 17/17 Q1015=
201009112300 METAR LPPR 112300Z 34001KT CAVOK 18/16 Q1015=
201009112230 METAR LPPR 112230Z 15002KT CAVOK 18/17 Q1015=
201009112200 METAR LPPR 112200Z 00000KT CAVOK 18/17 Q1015=
201009112130 METAR LPPR 112130Z 00000KT CAVOK 18/17 Q1015=
201009112100 METAR LPPR 112100Z VRB01KT CAVOK 19/17 Q1015=
201009112030 METAR LPPR 112030Z 16001KT 8000 SKC 18/17 Q1014=
201009112000 METAR LPPR 112000Z 00000KT 8000 FEW250 19/17 Q1014=
201009111930 METAR LPPR 111930Z 00000KT 8000 FEW250 19/17 Q1014=
201009111900 METAR LPPR 111900Z VRB02KT 8000 FEW250 20/18 Q1014=
201009111830 METAR LPPR 111830Z 31004KT CAVOK 21/18 Q1014=
201009111800 METAR LPPR 111800Z 31006KT 280V340 CAVOK 22/18 Q1014=
201009111730 METAR LPPR 111730Z 31009KT CAVOK 22/17 Q1014=
201009111700 METAR LPPR 111700Z 30008KT 270V340 CAVOK 24/17 Q1014=
201009111630 METAR LPPR 111630Z 30008KT 260V340 CAVOK 24/17 Q1014=
201009111600 METAR LPPR 111600Z 30007G17KT 270V340 CAVOK 24/17 Q1014=
201009111530 METAR LPPR 111530Z 30007KT 270V330 CAVOK 25/17 Q1014=
201009111500 METAR LPPR 111500Z 31007KT 270V340 CAVOK 24/17 Q1014=
201009111430 METAR LPPR 111430Z 30007KT 260V330 CAVOK 25/17 Q1014=
201009111400 METAR LPPR 111400Z 32007KT 290V350 CAVOK 25/16 Q1015=
201009111330 METAR LPPR 111330Z 32007KT 270V350 CAVOK 25/16 Q1015=
201009111300 METAR LPPR 111300Z 30007KT 250V340 CAVOK 25/16 Q1015=
201009111230 METAR LPPR 111230Z 30006KT 250V350 CAVOK 23/16 Q1015=
201009111200 METAR LPPR 111200Z 28007KT 230V300 CAVOK 25/16 Q1015=
201009111130 METAR LPPR 111130Z 26004KT 200V290 8000 FEW250 25/15 Q1015=
201009111100 METAR LPPR 111100Z 27004KT 210V320 8000 FEW250 24/16 Q1015=
201009111030 METAR LPPR 111030Z VRB04KT 8000 FEW080 24/17 Q1015=
201009111000 METAR LPPR 111000Z 28004KT 200V330 CAVOK 24/17 Q1015=
201009110930 METAR LPPR 110930Z 00000KT CAVOK 24/15 Q1015=
201009110900 METAR LPPR 110900Z 00000KT CAVOK 23/15 Q1015=
201009110830 METAR LPPR 110830Z 00000KT 7000 FEW080 20/16 Q1015=
201009110800 METAR LPPR 110800Z 35001KT 6000 FEW004 18/16 Q1015=
201009110730 METAR LPPR 110730Z 00000KT CAVOK 16/14 Q1014=
201009110700 METAR LPPR 110700Z 00000KT 7000 FEW070 SCT250 16/14 Q1014=
201009110630 METAR LPPR 110630Z 11004KT 7000 SCT250 16/15 Q1014=
201009110600 METAR LPPR 110600Z 11002KT 5000 BR SCT250 15/15 Q1014=
201009110530 METAR LPPR 110530Z 00000KT 5000 BR SCT250 16/15 Q1015=
201009110500 METAR LPPR 110500Z 00000KT 5000 BR SCT250 16/16 Q1015=
201009110430 METAR LPPR 110430Z 01002KT 5000 BR SCT250 16/16 Q1015=
201009110400 METAR LPPR 110400Z 01003KT 5000 BR SCT250 16/16 Q1015=
201009110330 METAR LPPR 110330Z 36003KT 7000 SCT250 16/15 Q1015=
201009110300 METAR LPPR 110300Z 34003KT CAVOK 16/15 Q1015=
201009110230 METAR LPPR 110230Z VRB02KT CAVOK 16/15 Q1015=
201009110200 METAR LPPR 110200Z 00000KT CAVOK 16/14 Q1015=
201009110130 METAR LPPR 110130Z 35001KT CAVOK 16/14 Q1015=
201009110100 METAR LPPR 110100Z 00000KT CAVOK 17/14 Q1015=
201009110030 METAR LPPR 110030Z 00000KT CAVOK 17/15 Q1016=
201009110000 METAR LPPR 110000Z 00000KT CAVOK 18/15 Q1016=
201009102330 METAR LPPR 102330Z 00000KT CAVOK 18/15 Q1016=
201009102300 METAR LPPR 102300Z 00000KT CAVOK 18/15 Q1016=
201009102230 METAR LPPR 102230Z 00000KT CAVOK 18/15 Q1016=
201009102200 METAR LPPR 102200Z 00000KT CAVOK 18/15 Q1016=
201009102130 METAR LPPR 102130Z 00000KT CAVOK 19/15 Q1017=
201009102100 METAR LPPR 102100Z 00000KT CAVOK 19/15 Q1017=
201009102030 METAR LPPR 102030Z 35002KT CAVOK 19/15 Q1017=
201009102000 METAR LPPR 102000Z 34003KT CAVOK 19/14 Q1017=
201009101930 METAR LPPR 101930Z 33007KT 290V350 CAVOK 21/13 Q1016=
201009101900 METAR LPPR 101900Z 33007KT CAVOK 21/13 Q1016=
201009101830 METAR LPPR 101830Z 34010KT CAVOK 24/13 Q1017=
201009101800 METAR LPPR 101800Z 32006KT CAVOK 26/14 Q1017=
201009101730 METAR LPPR 101730Z 32007KT CAVOK 27/14 Q1017=
201009101700 METAR LPPR 101700Z 31006KT CAVOK 27/15 Q1017=
201009101630 METAR LPPR 101630Z 30006KT 270V330 CAVOK 27/15 Q1017=
201009101600 METAR LPPR 101600Z 30007KT CAVOK 27/14 Q1017=
201009101530 METAR LPPR 101530Z 33008KT 290V350 CAVOK 28/13 Q1018=
201009101500 METAR LPPR 101500Z 31008KT CAVOK 27/15 Q1018=
201009101430 METAR LPPR 101430Z 30007KT CAVOK 26/15 Q1019=
201009101400 METAR LPPR 101400Z 32008G19KT 290V030 CAVOK 26/15 Q1019=
201009101330 METAR LPPR 101330Z 28007KT CAVOK 25/15 Q1019=
201009101300 METAR LPPR 101300Z 28007G18KT 250V050 CAVOK 26/16 Q1019=
201009101230 METAR LPPR 101230Z 28006KT CAVOK 26/16 Q1019=
201009101200 METAR LPPR 101200Z 27006KT 240V330 CAVOK 27/16 Q1020=
201009101130 METAR LPPR 101130Z 25006KT 160V270 CAVOK 28/16 Q1020=
201009101100 METAR LPPR 101100Z 12004KT 070V170 CAVOK 29/11 Q1020=
201009101030 METAR LPPR 101030Z VRB03KT CAVOK 28/13 Q1020=
201009101000 METAR LPPR 101000Z 08005KT 340V150 CAVOK 26/13 Q1020=
201009100930 METAR LPPR 100930Z VRB03KT CAVOK 25/15 Q1020=
201009100900 METAR LPPR 100900Z VRB02KT CAVOK 22/16 Q1020=
201009100830 METAR LPPR 100830Z 36002KT CAVOK 20/16 Q1020=
201009100800 METAR LPPR 100800Z VRB01KT CAVOK 18/17 Q1020=
201009100730 METAR LPPR 100730Z 35001KT CAVOK 16/16 Q1020=
201009100700 METAR LPPR 100700Z 00000KT CAVOK 15/14 Q1020=
201009100630 METAR LPPR 100630Z VRB01KT CAVOK 14/13 Q1020=
201009100600 METAR LPPR 100600Z 00000KT CAVOK 14/13 Q1020=
201009100530 METAR LPPR 100530Z 05002KT CAVOK 15/14 Q1020=
201009100500 METAR LPPR 100500Z 05002KT CAVOK 16/15 Q1020=
201009100430 METAR LPPR 100430Z VRB02KT CAVOK 15/14 Q1020=
201009100400 METAR LPPR 100400Z 06001KT CAVOK 15/15 Q1020=
201009100330 METAR LPPR 100330Z 00000KT CAVOK 14/14 Q1020=
201009100300 METAR LPPR 100300Z 01001KT CAVOK 14/13 Q1021=
201009100230 METAR LPPR 100230Z VRB02KT CAVOK 16/15 Q1021=
201009100200 METAR LPPR 100200Z 02001KT CAVOK 16/15 Q1021=
201009100130 METAR LPPR 100130Z VRB03KT CAVOK 16/15 Q1021=
201009100100 METAR LPPR 100100Z 07001KT CAVOK 15/14 Q1021=
201009100030 METAR LPPR 100030Z VRB02KT CAVOK 15/14 Q1021=
201009100000 METAR LPPR 100000Z 00000KT CAVOK 15/14 Q1022=
201009092330 METAR LPPR 092330Z 00000KT CAVOK 15/14 Q1022=
201009092300 METAR LPPR 092300Z 00000KT CAVOK 16/15 Q1022=
201009092230 METAR LPPR 092230Z 00000KT CAVOK 16/15 Q1022=
201009092200 METAR LPPR 092200Z 00000KT CAVOK 16/15 Q1022=
201009092130 METAR LPPR 092130Z 01001KT CAVOK 17/15 Q1022=
201009092100 METAR LPPR 092100Z 36001KT CAVOK 17/15 Q1023=
201009092030 METAR LPPR 092030Z 01002KT CAVOK 17/15 Q1023=
201009092000 METAR LPPR 092000Z 34007KT CAVOK 18/15 Q1023=
201009091930 METAR LPPR 091930Z 35005KT CAVOK 18/15 Q1022=
201009091900 METAR LPPR 091900Z 32007KT 280V340 CAVOK 19/15 Q1022=
201009091830 METAR LPPR 091830Z 32006KT CAVOK 20/16 Q1022=
201009091800 METAR LPPR 091800Z 32009KT CAVOK 21/17 Q1022=
201009091730 METAR LPPR 091730Z 31008KT CAVOK 21/17 Q1022=
201009091700 METAR LPPR 091700Z 31009KT CAVOK 22/17 Q1022=
201009091630 METAR LPPR 091630Z 32011KT CAVOK 22/15 Q1023=
201009091600 METAR LPPR 091600Z 33013KT CAVOK 22/16 Q1023=
201009091530 METAR LPPR 091530Z 33013KT CAVOK 22/15 Q1023=
201009091500 METAR LPPR 091500Z 31013KT CAVOK 23/14 Q1023=
201009091430 METAR LPPR 091430Z 32013KT CAVOK 23/15 Q1023=
201009091400 METAR LPPR 091400Z 30011KT 270V330 9999 FEW020 23/15 Q1023=
201009091330 METAR LPPR 091330Z 31010KT 260V330 9999 FEW020 23/15 Q1023=
201009091300 METAR LPPR 091300Z 29010KT 9999 FEW020 23/15 Q1023=
201009091230 METAR LPPR 091230Z 28008KT 250V330 9999 FEW030 23/16 Q1023=
201009091200 METAR LPPR 091200Z 29008KT 260V330 9999 FEW030 24/16 Q1023=
201009091130 METAR LPPR 091130Z 32006KT 270V360 9999 SCT025 24/16 Q1023=
201009091100 METAR LPPR 091100Z VRB03KT 9999 SCT022 24/14 Q1023=
201009091030 METAR LPPR 091030Z 34005KT 310V020 9999 SCT020 23/14 Q1023=
201009091000 METAR LPPR 091000Z 02004KT 300V070 9999 SCT020 23/15 Q1023=
201009090930 METAR LPPR 090930Z VRB01KT 9999 SCT012 22/16 Q1023=
201009090900 METAR LPPR 090900Z 00000KT 9999 FEW008 SCT014 21/18 Q1023=
201009090830 METAR LPPR 090830Z 00000KT 9999 SCT013 21/18 Q1023=
201009090800 METAR LPPR 090800Z VRB01KT 9000 FEW013 19/19 Q1023=
201009090730 METAR LPPR 090730Z 00000KT 9999 FEW010 SCT013 18/18 Q1022=
201009090700 METAR LPPR 090700Z 10002KT 9999 SCT010 17/17 Q1022=
201009090630 METAR LPPR 090630Z 09002KT 9999 SCT010 16/15 Q1022=
201009090600 METAR LPPR 090600Z 00000KT 8000 SCT010 SCT015 16/16 Q1022=
201009090530 METAR LPPR 090530Z 00000KT 9999 SCT010 SCT015 17/16 Q1021=
201009090500 METAR LPPR 090500Z 13001KT 9999 FEW010 SCT015 17/17 Q1021=
201009090430 METAR LPPR 090430Z 13003KT 9999 FEW008 SCT015 18/17 Q1021=
201009090400 METAR LPPR 090400Z 00000KT 9999 FEW008 BKN015 18/18 Q1021=
201009090330 METAR LPPR 090330Z 14001KT 9999 SCT008 SCT014 18/17 Q1021=
201009090300 METAR LPPR 090300Z 00000KT 9999 SCT006 BKN013 BKN035 19/18
                        Q1021=
201009090230 METAR LPPR 090230Z VRB02KT 9999 SCT006 BKN013 19/18 Q1021=
201009090200 METAR LPPR 090200Z 19004KT 9999 SCT007 BKN013 20/18 Q1021=
201009090130 METAR LPPR 090130Z 20004KT 9999 SCT008 BKN013 19/18 Q1021=
201009090100 METAR LPPR 090100Z 19005KT 9999 SCT010 BKN013 20/18 Q1021=
201009090030 METAR LPPR 090030Z 21004KT 9999 SCT010 BKN013 20/18 Q1021=
201009090000 METAR LPPR 090000Z 19004KT 9999 SCT012 BKN020 20/18 Q1021=
201009082330 METAR LPPR 082330Z 18006KT 9999 SCT012 BKN016 20/18 Q1021=
201009082300 METAR LPPR 082300Z 16005KT 9999 SCT012 BKN016 19/18 Q1021=
201009082230 METAR LPPR 082230Z 18004KT 9999 SCT013 BKN017 20/18 Q1020=
201009082200 METAR LPPR 082200Z 20004KT 160V230 9999 FEW013 BKN017 20/18
                        Q1020=
201009082130 METAR LPPR 082130Z 17004KT 9999 FEW015 BKN025 19/18 Q1020=
201009082100 METAR LPPR 082100Z 18003KT 9999 SCT017 SCT030 19/18 Q1020=
201009082030 METAR LPPR 082030Z VRB02KT 9999 FEW017 19/18 Q1020=
201009082000 METAR LPPR 082000Z VRB02KT 9999 FEW017 19/18 Q1020=
201009081930 METAR LPPR 081930Z VRB02KT 9999 FEW017 19/18 Q1019=
201009081900 METAR LPPR 081900Z 24004KT 180V280 9999 FEW017 20/18 Q1019=
201009081830 METAR LPPR 081830Z 25005KT 200V330 9999 FEW017 FEW020TCU
                        21/18 Q1019=
201009081800 METAR LPPR 081800Z 24006KT 220V280 9999 SCT017 FEW020TCU
                        21/18 Q1019=
201009081730 METAR LPPR 081730Z 26008KT 230V310 9999 SCT017 FEW020TCU
                        22/18 Q1019=
201009081700 METAR LPPR 081700Z 24008KT 200V260 9999 FEW017 FEW020TCU
                        SCT080 22/18 Q1018=
201009081630 METAR LPPR 081630Z 26007KT 160V310 9999 FEW017 FEW020TCU
                        SCT080 23/18 Q1018=
201009081600 METAR LPPR 081600Z 26008KT 230V320 9999 SCT017 FEW020TCU
                        SCT080 23/17 Q1018=
201009081530 METAR LPPR 081530Z 23009KT 200V270 9999 SCT017 FEW020TCU
                        SCT080 23/17 Q1018=
201009081500 METAR LPPR 081500Z 24010KT 200V280 9999 SCT017 FEW020TCU
                        SCT080 23/18 Q1018=
201009081430 METAR LPPR 081430Z 23009KT 180V260 9999 SCT017 SCT080 23/17
                        Q1018=
201009081400 METAR LPPR 081400Z 21011KT 9999 SCT015 SCT030 22/17 Q1018=
201009081330 METAR LPPR 081330Z 20008KT 9999 FEW020 SCT040 BKN070 20/17
                        Q1018=
201009081300 METAR LPPR 081300Z 22009KT 9999 FEW020 SCT040 BKN070 21/16
                        Q1018=
201009081230 METAR LPPR 081230Z 22010KT 190V250 9999 FEW020 SCT040 BKN070
                        22/15 Q1018=
201009081200 METAR LPPR 081200Z 21009KT 180V250 9999 FEW020 SCT080 22/15
                        Q1017=
201009081130 METAR LPPR 081130Z 22007KT 170V280 9999 FEW015 BKN080 22/16
                        Q1018=
201009081100 METAR LPPR 081100Z 19005KT 140V250 9999 FEW015 BKN080 22/14
                        Q1017=
201009081030 METAR LPPR 081030Z 23006KT 170V280 9999 FEW020 SCT060 22/16
                        Q1017=
201009081000 METAR LPPR 081000Z 17005KT 130V210 9999 FEW020 SCT040 21/17
                        Q1017=
201009080930 METAR LPPR 080930Z 19005KT 160V230 9999 FEW020 SCT040 BKN090
                        20/17 Q1017=
201009080900 METAR LPPR 080900Z 20004KT 180V240 9999 FEW020 SCT035 BKN080
                        20/17 Q1017=
201009080830 METAR LPPR 080830Z VRB03KT 9999 SCT020 19/18 Q1016=
201009080800 METAR LPPR 080800Z 19005KT 160V240 9999 FEW025 SCT040 18/17
                        Q1016=
201009080730 METAR LPPR 080730Z VRB01KT 9999 FEW025 SCT040 BKN070 17/16
                        Q1016=
201009080700 METAR LPPR 080700Z VRB03KT 9999 FEW025 SCT040 BKN070 17/16
                        Q1016=
201009080630 METAR LPPR 080630Z 13004KT 9999 FEW025 SCT030 BKN070 16/16
                        Q1015=
201009080600 METAR LPPR 080600Z 10003KT 9999 FEW006 SCT030 BKN080 16/15
                        Q1015=
201009080530 METAR LPPR 080530Z VRB01KT 9999 FEW010 SCT030 BKN050 17/15
                        Q1015=
201009080500 METAR LPPR 080500Z 10004KT 9999 FEW025 SCT030 BKN080 16/15
                        Q1014=
201009080430 METAR LPPR 080430Z VRB02KT 9999 SCT025 SCT030 BKN070 16/15
                        Q1014 RERA=
201009080400 METAR LPPR 080400Z 19005KT 130V280 5000 RA SCT011 BKN026
                        BKN070 17/16 Q1014=
201009080330 METAR LPPR 080330Z 12005KT 9999 FEW030 BKN070 16/15 Q1014=
201009080300 METAR LPPR 080300Z 12005KT 9999 SCT030 SCT080 16/15 Q1014=
201009080230 METAR LPPR 080230Z 12004KT 9999 SCT033 BKN070 16/16 Q1014=
201009080200 METAR LPPR 080200Z 11001KT 9999 FEW020 SCT030 BKN070 16/15
                        Q1014=
201009080130 METAR LPPR 080130Z 00000KT 9999 FEW027 16/15 Q1014=
201009080100 METAR LPPR 080100Z 00000KT 9999 FEW026 16/15 Q1014=
201009080030 METAR LPPR 080030Z 00000KT 9999 FEW023 BKN065 17/16 Q1014=
201009080000 METAR LPPR 080000Z VRB01KT 9999 FEW027 BKN070 17/16 Q1014=
201009072330 METAR LPPR 072330Z 00000KT 9999 SCT025 BKN065 17/16 Q1014=
201009072300 METAR LPPR 072300Z 11003KT 9999 FEW025 BKN070 17/16 Q1013=
201009072230 METAR LPPR 072230Z 11002KT CAVOK 17/16 Q1013=
201009072200 METAR LPPR 072200Z 00000KT CAVOK 17/15 Q1013=
201009072130 METAR LPPR 072130Z 00000KT CAVOK 16/15 Q1013=
201009072100 METAR LPPR 072100Z 36002KT CAVOK 17/15 Q1013=
201009072030 METAR LPPR 072030Z 32005KT CAVOK 17/15 Q1012=
201009072000 METAR LPPR 072000Z 32005KT CAVOK 18/15 Q1012=
201009071930 METAR LPPR 071930Z 32005KT CAVOK 18/15 Q1012=
201009071900 METAR LPPR 071900Z 32007KT 9999 FEW017 SCT250 18/15 Q1012=
201009071830 METAR LPPR 071830Z 32010KT 9999 FEW017 19/15 Q1011=
201009071800 METAR LPPR 071800Z 32011KT 9999 FEW017 20/14 Q1011=
201009071730 METAR LPPR 071730Z 33014KT 9999 SCT017 20/14 Q1011=
201009071700 METAR LPPR 071700Z 32011KT 9999 SCT017 21/15 Q1010=
201009071630 METAR LPPR 071630Z 32012KT 290V350 9999 SCT017 21/15 Q1010=
201009071600 METAR LPPR 071600Z 33015KT 290V350 9999 SCT017 21/15 Q1010=
201009071530 METAR LPPR 071530Z 31014KT 280V340 9999 SCT017 21/16 Q1010=
201009071500 METAR LPPR 071500Z 32014KT 9999 SCT017 21/16 Q1009=
201009071430 METAR LPPR 071430Z 32018KT 9999 SCT017 21/16 Q1009=
201009071400 METAR LPPR 071400Z 32018KT 9999 SCT017 21/17 Q1009=
201009071330 METAR LPPR 071330Z 32016KT 9999 SCT017 20/17 Q1008=
201009071300 METAR LPPR 071300Z 30015KT 9999 FEW013 SCT015 BKN040 19/18
                        Q1008=
201009071230 METAR LPPR 071230Z 23011KT 200V270 9999 FEW013 BKN017 22/19
                        Q1007=
201009071200 METAR LPPR 071200Z 22013KT 9999 FEW013 SCT017 22/20 Q1007=
201009071130 METAR LPPR 071130Z 23010KT 190V270 9999 SCT013 SCT017 21/20
                        Q1008=
201009071100 METAR LPPR 071100Z 21012KT 180V240 9999 SCT006 SCT009 BKN015
                        20/19 Q1008=
201009071030 METAR LPPR 071030Z 20015KT 9999 SCT004 SCT008 BKN015 20/19
                        Q1008=
201009071000 METAR LPPR 071000Z 21014KT 170V240 8000 SCT004 SCT008 BKN016
                        18/18 Q1008 RERA=
201009070930 METAR LPPR 070930Z 20014KT 3000 RA BR SCT004 BKN012 18/18
                        Q1008=
201009070900 METAR LPPR 070900Z 20012KT 6000 -RA FEW015 SCT020 BKN025
                        19/17 Q1007=
201009070830 METAR LPPR 070830Z 19014KT 9999 FEW015 BKN045 20/17 Q1007=
201009070800 METAR LPPR 070800Z 19012KT 9999 FEW015 SCT025 BKN050 20/18
                        Q1008=
201009070730 METAR LPPR 070730Z 19008KT 9999 SCT015 BKN025 19/17 Q1008=
201009070700 METAR LPPR 070700Z 18008KT 9999 FEW015 SCT040 BKN060 19/17
                        Q1008=
201009070630 METAR LPPR 070630Z 19005KT 9999 FEW015 SCT030 BKN060 18/17
                        Q1008=
201009070600 METAR LPPR 070600Z 19004KT 9999 FEW015 BKN070 18/17 Q1009=
201009070530 METAR LPPR 070530Z 20003KT 9999 FEW012 BKN070 17/17 Q1009=
201009070500 METAR LPPR 070500Z 20004KT 9999 FEW004 17/17 Q1009=
201009070430 METAR LPPR 070430Z 19003KT 8000 FEW004 17/16 Q1009=
201009070400 METAR LPPR 070400Z 20002KT 8000 SCT015 17/16 Q1009=
201009070330 METAR LPPR 070330Z 19001KT 9999 FEW015 17/17 Q1009=
201009070300 METAR LPPR 070300Z VRB01KT 9999 FEW015 18/17 Q1009=
201009070230 METAR LPPR 070230Z VRB01KT 9999 FEW015 SCT060 18/18 Q1010=
201009070200 METAR LPPR 070200Z 24002KT 7000 FEW020 BKN030 18/18 Q1010=
201009070130 METAR LPPR 070130Z 25003KT 8000 FEW020 BKN030 18/18 Q1010=
201009070100 METAR LPPR 070100Z 23002KT 8000 FEW020 BKN030 18/18 Q1010=
201009070030 METAR LPPR 070030Z 26001KT 8000 FEW020 BKN030 19/18 Q1010=
201009070000 METAR LPPR 070000Z 25002KT 8000 FEW020 BKN030 19/18 Q1011=
201009062330 METAR LPPR 062330Z 25001KT 8000 FEW020 BKN030 19/18 Q1011=
201009062300 METAR LPPR 062300Z 25002KT 7000 BR FEW020 BKN030 19/18 Q1011=
201009062230 METAR LPPR 062230Z VRB02KT 7000 -DZ SCT010 BKN020 19/18 Q1011=
201009062200 METAR LPPR 062200Z VRB02KT 9999 FEW018 SCT030 BKN060 19/18
                        Q1011=
201009062130 METAR LPPR 062130Z 23002KT 9999 FEW015 BKN060 19/18 Q1012=
201009062100 METAR LPPR 062100Z VRB03KT 9999 FEW015 18/18 Q1012=
201009062030 METAR LPPR 062030Z VRB02KT 9999 FEW018 19/18 Q1012=
201009062000 METAR LPPR 062000Z VRB01KT 9999 FEW012 SCT030 19/18 Q1012=
201009061930 METAR LPPR 061930Z 26002KT 9999 FEW012 SCT020 20/19 Q1011=
201009061900 METAR LPPR 061900Z 00000KT 8000 SCT012 BKN022 20/19 Q1011=
201009061830 METAR LPPR 061830Z VRB01KT 9999 SCT018 BKN045 20/19 Q1011=
201009061800 METAR LPPR 061800Z VRB02KT 8000 -SHRA FEW008 SCT015 BKN035
                        20/19 Q1011=
201009061730 METAR LPPR 061730Z 32004KT 290V350 9999 FEW006 SCT015 BKN035
                        20/20 Q1012=
201009061700 METAR LPPR 061700Z 30006KT 270V330 4000 -DZ SCT002 BKN004
                        20/20 Q1012=
201009061630 METAR LPPR 061630Z 29005KT 260V330 4000 -RADZ BR SCT004 BKN007
                        20/20 Q1012=
201009061600 METAR LPPR 061600Z 28005KT 240V310 5000 BR SCT005 BKN008
                        20/20 Q1012=
201009061530 METAR LPPR 061530Z 27007KT 240V300 3000 -RADZ BR SCT002 BKN005
                        20/20 Q1012=
201009061500 METAR LPPR 061500Z 19014KT 3000 -RADZ BR SCT002 BKN005 20/20
                        Q1011=
201009061430 METAR LPPR 061430Z 19015KT 2000 -RADZ BR SCT002 BKN005 21/20
                        Q1012=
201009061400 METAR LPPR 061400Z 19014KT 9999 FEW008 BKN015 BKN080 22/19
                        Q1012=
201009061330 METAR LPPR 061330Z 19014KT 9999 FEW013 BKN025 BKN080 22/19
                        Q1012=
201009061300 METAR LPPR 061300Z 20014KT 9999 FEW013 BKN025 BKN080 23/19
                        Q1013=
201009061230 METAR LPPR 061230Z 19016KT 9999 SCT025 BKN090 23/18 Q1013=
201009061200 METAR LPPR 061200Z 19015KT 9999 SCT030 BKN090 23/18 Q1013=
201009061130 METAR LPPR 061130Z 20014KT 9999 SCT030 BKN090 23/18 Q1014=
201009061100 METAR LPPR 061100Z 19012KT 9999 SCT025 BKN090 23/18 Q1014=
201009061030 METAR LPPR 061030Z 20010KT 9999 FEW017 SCT025 BKN090 23/18
                        Q1014=
201009061000 METAR LPPR 061000Z 18009KT 9999 SCT015 BKN025 22/18 Q1014=
201009060930 METAR LPPR 060930Z 19008KT 9999 FEW015 BKN030 21/18 Q1014=
201009060900 METAR LPPR 060900Z 17006KT 9000 SCT015 SCT025 21/18 Q1014=
201009060830 METAR LPPR 060830Z 15006KT 8000 SCT015 SCT025 20/18 Q1014=
201009060800 METAR LPPR 060800Z 16005KT 8000 SCT013 SCT020 19/18 Q1014=
201009060730 METAR LPPR 060730Z 13002KT 8000 FEW008 BKN013 19/18 Q1014=
201009060700 METAR LPPR 060700Z 12005KT 7000 FEW008 BKN013 18/18 Q1014=
201009060630 METAR LPPR 060630Z 12004KT 6000 FEW008 SCT013 BKN250 18/18
                        Q1014=
201009060600 METAR LPPR 060600Z 12005KT 6000 SCT006 BKN250 18/18 Q1014=
201009060530 METAR LPPR 060530Z 11004KT 6000 BKN003 BKN250 18/18 Q1014=
201009060500 METAR LPPR 060500Z 10003KT 6000 BKN003 BKN013 18/18 Q1014=
201009060430 METAR LPPR 060430Z 11003KT 6000 BKN003 BKN013 18/18 Q1014=
201009060400 METAR LPPR 060400Z 00000KT 5000 BR SCT003 BKN006 17/17 Q1014=
201009060330 METAR LPPR 060330Z 00000KT 4000 BR SCT003 BKN250 17/17 Q1014=
201009060300 METAR LPPR 060300Z 00000KT 5000 BR SCT003 BKN250 17/17 Q1014=
201009060230 METAR LPPR 060230Z 00000KT 5000 BR SCT003 SCT200 17/17 Q1014=
201009060200 METAR LPPR 060200Z 00000KT 2000 BR BKN003 17/17 Q1014=
201009060130 METAR LPPR 060130Z 00000KT 2000NW BR SCT002 17/17 Q1014=
201009060100 METAR LPPR 060100Z 07002KT 2000 BR SCT002 18/17 Q1014=
201009060030 METAR LPPR 060030Z 28003KT 6000 SCT003 BKN006 18/18 Q1015=
201009060000 METAR LPPR 060000Z 00000KT 7000 SCT005 18/17 Q1015=
201009052330 METAR LPPR 052330Z 10002KT 9999 FEW005 18/18 Q1014=
201009052300 METAR LPPR 052300Z VRB01KT 8000 FEW007 18/18 Q1015=
201009052230 METAR LPPR 052230Z 36003KT 8000 SCT006 19/18 Q1015=
201009052200 METAR LPPR 052200Z 33003KT 7000 BKN004 BKN006 19/19 Q1015=
201009052130 METAR LPPR 052130Z VRB03KT 7000 BKN002 BKN004 19/19 Q1015=
201009052100 METAR LPPR 052100Z 33004KT 8000 SCT003 19/19 Q1017=
201009052030 METAR LPPR 052030Z 33006KT 9999 FEW005 20/19 Q1015=
201009052000 METAR LPPR 052000Z 32005KT 9999 FEW007 20/19 Q1015=
201009051930 METAR LPPR 051930Z 32004KT 280V350 8000 FEW006 20/19 Q1015=
201009051900 METAR LPPR 051900Z 31006KT 280V030 9999 FEW007 21/19 Q1015=
201009051830 METAR LPPR 051830Z 32007KT 9999 BKN006 21/19 Q1015=
201009051800 METAR LPPR 051800Z 31007KT 270V340 9999 BKN006 22/20 Q1015=
201009051730 METAR LPPR 051730Z 30008KT 270V330 9999 BKN006 22/20 Q1015=
201009051700 METAR LPPR 051700Z 29008KT 260V330 9999 SCT008 22/19 Q1015=
201009051630 METAR LPPR 051630Z 30008KT 260V360 9999 FEW009 23/19 Q1015=
201009051600 METAR LPPR 051600Z 28008KT 240V330 9999 FEW009 23/19 Q1015=
201009051530 METAR LPPR 051530Z 29008KT 250V330 CAVOK 24/19 Q1015=
201009051500 METAR LPPR 051500Z 27007G17KT 230V040 CAVOK 24/18 Q1015=
201009051430 METAR LPPR 051430Z 30008G20KT 250V350 9999 FEW017 24/18 Q1015=
201009051400 METAR LPPR 051400Z 29008KT 260V320 9999 FEW017 24/18 Q1015=
201009051330 METAR LPPR 051330Z 31007KT 270V350 9999 FEW017 25/18 Q1016=
201009051300 METAR LPPR 051300Z 30008KT 260V360 9999 FEW017 23/17 Q1016=
201009051230 METAR LPPR 051230Z 28008KT 250V320 9999 FEW013 23/17 Q1016=
201009051200 METAR LPPR 051200Z 28009KT 9999 FEW012 22/17 Q1016=
201009051130 METAR LPPR 051130Z VRB08KT 9999 FEW012 23/17 Q1016=
201009051100 METAR LPPR 051100Z 29004KT 240V350 9999 FEW010 24/18 Q1016=
201009051030 METAR LPPR 051030Z VRB02KT CAVOK 23/17 Q1016=
201009051000 METAR LPPR 051000Z VRB02KT 9999 FEW009 23/17 Q1016=
201009050930 METAR LPPR 050930Z VRB02KT 9999 FEW009 21/17 Q1016=
201009050900 METAR LPPR 050900Z VRB02KT 9999 FEW009 20/17 Q1016=
201009050830 METAR LPPR 050830Z VRB02KT 8000 FEW008 19/17 Q1016=
201009050800 METAR LPPR 050800Z VRB02KT 8000 SCT008 19/17 Q1016=
201009050730 METAR LPPR 050730Z 00000KT 7000 SCT008 18/17 Q1016=
201009050700 METAR LPPR 050700Z 00000KT 7000 FEW006 BKN008 BKN012 18/17
                        Q1016=
201009050630 METAR LPPR 050630Z 27002KT 7000 BKN007 BKN009 18/16 Q1015=
201009050600 METAR LPPR 050600Z 00000KT 8000 BKN006 BKN009 18/16 Q1015=
201009050530 METAR LPPR 050530Z 00000KT 9999 SCT006 BKN009 18/16 Q1015=
201009050500 METAR LPPR 050500Z VRB02KT 9999 SCT007 BKN009 18/17 Q1015=
201009050430 METAR LPPR 050430Z 34004KT 9999 SCT006 BKN008 18/17 Q1015=
201009050400 METAR LPPR 050400Z 36002KT 9000 FEW005 BKN008 18/17 Q1015=
201009050330 METAR COR LPPR 050330Z VRB02KT 9000 FEW005 BKN007 BKN010
                        18/17 Q1015=
201009050300 METAR LPPR 050300Z 00000KT 9000 FEW005 BKN007 18/17 Q1015=
201009050230 METAR LPPR 050230Z VRB02KT 9000 FEW004 BKN006 18/17 Q1015=
201009050200 METAR LPPR 050200Z 34005KT 9999 SCT004 BKN006 18/17 Q1016=
201009050130 METAR LPPR 050130Z 35004KT 9000 SCT003 BKN006 18/17 Q1016=
201009050100 METAR LPPR 050100Z 33006KT 9000 SCT002 BKN006 18/17 Q1016=
201009050030 METAR LPPR 050030Z 32006KT 9000 SCT002 BKN006 18/17 Q1016=
201009050000 METAR LPPR 050000Z 32005KT 9000 SCT003 BKN005 18/18 Q1016=
201009042330 METAR LPPR 042330Z 32008KT 280V360 9999 SCT003 BKN005 19/18
                        Q1016=
201009042300 METAR LPPR 042300Z 33005KT 9999 SCT002 BKN004 19/18 Q1016=
201009042230 METAR LPPR 042230Z 32005KT 270V360 8000 SCT003 BKN005 19/18
                        Q1016=
201009042200 METAR LPPR 042200Z 33005KT 300V360 8000 SCT003 BKN005 19/18
                        Q1017=
201009042130 METAR LPPR 042130Z 33005KT 290V010 8000 SCT002 BKN005 19/18
                        Q1017=
201009042100 METAR LPPR 042100Z 33003KT 8000 SCT002 BKN004 19/18 Q1016=
201009042030 METAR LPPR 042030Z 32005KT 280V350 9999 SCT003 SCT006 18/18
                        Q1016=
201009042000 METAR LPPR 042000Z 32005KT 9999 FEW007 18/17 Q1016=
201009041930 METAR LPPR 041930Z 31006KT 260V340 9999 FEW007 19/18 Q1016=
201009041900 METAR LPPR 041900Z 31005KT 9999 FEW007 19/18 Q1016=
201009041830 METAR LPPR 041830Z 33009KT 290V350 9999 FEW006 20/18 Q1015=
201009041800 METAR LPPR 041800Z 31007KT 9999 FEW006 21/18 Q1016=
201009041730 METAR LPPR 041730Z 31009KT 9999 FEW005 21/18 Q1016=
201009041700 METAR LPPR 041700Z 27009KT 250V310 CAVOK 22/18 Q1015=
201009041630 METAR LPPR 041630Z 32009KT 270V350 CAVOK 23/18 Q1015=
201009041600 METAR LPPR 041600Z 30008KT 270V340 CAVOK 24/18 Q1015=
201009041530 METAR LPPR 041530Z 30006KT 260V350 CAVOK 24/18 Q1016=
201009041500 METAR LPPR 041500Z 30007KT 270V340 CAVOK 23/18 Q1016=
201009041430 METAR LPPR 041430Z 29007KT 260V330 8000 FEW005 BKN250 22/18
                        Q1016=
201009041400 METAR LPPR 041400Z 28006KT 250V310 5000 BR SCT003 BKN005
                        20/19 Q1017=
201009041330 METAR LPPR 041330Z 29006KT 240V330 4000 BR FEW001 SCT003
                        BKN250 20/18 Q1017=
201009041300 METAR LPPR 041300Z 25008KT 220V290 7000 BKN250 23/18 Q1016=
201009041230 METAR LPPR 041230Z 24005KT 160V290 6000 FEW007 SCT250 23/19
                        Q1016=
201009041200 METAR LPPR 041200Z 25006KT 220V290 5000 BR SCT007 BKN250
                        22/19 Q1016=
201009041130 METAR LPPR 041130Z 24005KT 210V280 5000 BR SCT009 SCT250
                        22/19 Q1017=
201009041100 METAR LPPR 041100Z VRB03KT 5000 BR SCT008 BKN250 23/19 Q1017=
201009041030 METAR LPPR 041030Z VRB03KT 4000 BR SCT006 BKN250 22/20 Q1017=
201009041000 METAR LPPR 041000Z VRB01KT 3000 BR BKN003 BKN005 20/20 Q1018=
201009040930 METAR LPPR 040930Z VRB02KT 2000 BR BKN002 BKN004 19/19 Q1017=
201009040900 METAR LPPR 040900Z 00000KT 1500 BR VCFG BKN001 BKN003 18/18
                        Q1017=
201009040830 METAR LPPR 040830Z 00000KT 0600 R17/P1500 R35/P1500 FG VV002
                        18/18 Q1017=
201009040800 METAR LPPR 040800Z 00000KT 0600 R17/P1500 R35/P1500 FG VV002
                        18/18 Q1017=
201009040730 METAR LPPR 040730Z 00000KT 0600 R17/P1500 R35/1400VP1500
                        FG VV002 18/18 Q1017=
201009040700 METAR LPPR 040700Z VRB01KT 0600 R17/P1500 R35/1100V0600D
                        FG VV001 18/08 Q1017=
201009040630 METAR LPPR 040630Z VRB02KT 0500 R17/1000VP1500 R35/0900V1500D
                        FG VV001 18/18 Q1017=
201009040600 METAR LPPR 040600Z VRB01KT 0500 R17/0800U R35/0700V1000N
                        FG VV001 18/18 Q1016=
201009040530 METAR LPPR 040530Z 00000KT 0500 R17/0800N R35/0650N FG VV001
                        18/18 Q1016=
201009040500 METAR LPPR 040500Z VRB03KT 0600 R17/1000VP1500 R35/0700V1000D
                        FG SCT000 BKN002 18/18 Q1016=
201009040430 METAR LPPR 040430Z 00000KT 0600 R17/0600N R35/0900VP1500
                        FG SCT000 BKN002 17/17 Q1016=
201009040400 METAR LPPR 040400Z 29001KT 0600 R17/0500V0700N R35/1300VP1500
                        FG SCT000 BKN002 17/17 Q1016=
201009040330 METAR LPPR 040330Z 00000KT 3000 BR VCFG SCT002 17/16 Q1016=
201009040300 METAR LPPR 040300Z 15003KT 2000 BR VCFG SCT001 17/17 Q1016=
201009040230 METAR LPPR 040230Z 16003KT 2000 BR VCFG SCT001 SCT003 17/17
                        Q1016=
201009040200 METAR LPPR 040200Z 18004KT 3000 BR VCFG FEW001 SCT003 18/17
                        Q1016=
201009040130 METAR LPPR 040130Z 00000KT CAVOK 18/17 Q1016=
201009040100 METAR LPPR 040100Z 11003KT CAVOK 18/18 Q1016=
201009040030 METAR LPPR 040030Z 11002KT CAVOK 17/17 Q1016=
201009040000 METAR LPPR 040000Z 00000KT 8000 SKC 17/16 Q1016=
201009032330 METAR LPPR 032330Z 00000KT 8000 SKC 17/17 Q1017=
201009032300 METAR LPPR 032300Z VRB02KT 8000 SKC 18/17 Q1017=
201009032230 METAR LPPR 032230Z 00000KT 8000 SKC 18/17 Q1017=
201009032200 METAR LPPR 032200Z VRB01KT CAVOK 18/17 Q1017=
201009032130 METAR LPPR 032130Z VRB03KT CAVOK 19/18 Q1017=
201009032100 METAR LPPR 032100Z 35004KT CAVOK 19/18 Q1017=
201009032030 METAR LPPR 032030Z 33007KT CAVOK 19/18 Q1017=
201009032000 METAR LPPR 032000Z 33007KT 310V010 CAVOK 19/18 Q1017=
201009031930 METAR LPPR 031930Z 32008KT 8000 FEW006 20/18 Q1017=
201009031900 METAR LPPR 031900Z 32012KT 9999 FEW006 20/18 Q1016=
201009031830 METAR LPPR 031830Z 33011KT 9999 FEW006 SCT250 21/18 Q1017=
201009031800 METAR LPPR 031800Z 32013KT 9999 FEW006 SCT250 22/18 Q1017=
201009031730 METAR LPPR 031730Z 32013KT CAVOK 22/18 Q1017=
201009031700 METAR LPPR 031700Z 32014KT CAVOK 23/18 Q1017=
201009031630 METAR LPPR 031630Z 32015KT 260V340 CAVOK 23/18 Q1017=
201009031600 METAR LPPR 031600Z 32015KT CAVOK 24/18 Q1017=
201009031530 METAR LPPR 031530Z 33015KT CAVOK 24/18 Q1017=
201009031500 METAR LPPR 031500Z 32014KT CAVOK 24/18 Q1017=
201009031430 METAR LPPR 031430Z 32013KT CAVOK 24/17 Q1017=
201009031400 METAR LPPR 031400Z 32011KT 290V350 CAVOK 25/17 Q1017=
201009031330 METAR LPPR 031330Z 30009KT CAVOK 24/17 Q1017=
201009031300 METAR LPPR 031300Z 31008KT CAVOK 24/17 Q1017=
201009031230 METAR LPPR 031230Z 31007KT 270V350 CAVOK 24/17 Q1017=
201009031200 METAR LPPR 031200Z 28007KT 240V310 CAVOK 23/17 Q1017=
201009031130 METAR LPPR 031130Z 28006KT 260V320 8000 FEW250 23/17 Q1017=
201009031100 METAR LPPR 031100Z 28007KT 240V300 8000 FEW250 23/17 Q1018=
201009031030 METAR LPPR 031030Z 28006KT 250V320 7000 FEW250 23/17 Q1017=
201009031000 METAR LPPR 031000Z 00000KT CAVOK 24/17 Q1017=
201009030930 METAR LPPR 030930Z 00000KT CAVOK 22/17 Q1017=
201009030900 METAR LPPR 030900Z VRB01KT CAVOK 21/17 Q1017=
201009030830 METAR LPPR 030830Z 00000KT 8000 SCT250 20/18 Q1017=
201009030800 METAR LPPR 030800Z 00000KT 7000 SCT250 18/17 Q1017=
201009030730 METAR LPPR 030730Z 00000KT 6000 SCT250 17/17 Q1017=
201009030700 METAR LPPR 030700Z 00000KT 4000N BR SCT250 15/15 Q1017=
201009030630 METAR COR LPPR 030630Z 00000KT 3000N BR SCT250 14/14 Q1017=
201009030600 METAR LPPR 030600Z 00000KT 5000 BR FEW250 14/14 Q1017=
201009030530 METAR LPPR 030530Z 00000KT 7000 FEW250 14/14 Q1016=
201009030500 METAR LPPR 030500Z 00000KT 7000 SKC 15/14 Q1016=
201009030430 METAR LPPR 030430Z 00000KT 7000 SKC 15/15 Q1016=
201009030400 METAR LPPR 030400Z 09002KT 7000 SKC 16/15 Q1016=
201009030330 METAR LPPR 030330Z 08002KT 7000 SKC 15/14 Q1017=
201009030300 METAR LPPR 030300Z 00000KT 7000 SKC 15/14 Q1017=
201009030230 METAR LPPR 030230Z 00000KT 7000 SKC 15/15 Q1017=
201009030200 METAR LPPR 030200Z 00000KT 5000 BR FEW005 15/15 Q1017=
201009030130 METAR LPPR 030130Z 00000KT 5000 BR FEW005 15/15 Q1017=
201009030100 METAR LPPR 030100Z 00000KT 6000 FEW005 15/15 Q1017=
201009030030 METAR LPPR 030030Z 00000KT 6000 FEW005 16/16 Q1017=
201009030000 METAR LPPR 030000Z 00000KT 6000 FEW005 16/16 Q1017=
201009022330 METAR LPPR 022330Z 00000KT 6000 SKC 16/16 Q1017=
201009022300 METAR LPPR 022300Z 35001KT 8000 SKC 17/16 Q1017=
201009022230 METAR LPPR 022230Z 34003KT 8000 SKC 17/16 Q1017=
201009022200 METAR LPPR 022200Z 34002KT 8000 FEW007 17/16 Q1017=
201009022130 METAR LPPR 022130Z VRB01KT 8000 FEW007 18/17 Q1017=
201009022100 METAR LPPR 022100Z 31006KT CAVOK 19/17 Q1017=
201009022030 METAR LPPR 022030Z 32006KT 300V360 CAVOK 19/17 Q1017=
201009022000 METAR LPPR 022000Z 32005KT CAVOK 19/17 Q1017=
201009021930 METAR LPPR 021930Z 32006KT CAVOK 19/17 Q1016=
201009021900 METAR LPPR 021900Z 32007KT CAVOK 20/17 Q1016=
201009021830 METAR LPPR 021830Z 31009KT CAVOK 21/17 Q1016=
201009021800 METAR LPPR 021800Z 32010KT 290V350 CAVOK 21/17 Q1016=
201009021730 METAR LPPR 021730Z 32011KT CAVOK 22/16 Q1016=
201009021700 METAR LPPR 021700Z 32012KT CAVOK 22/17 Q1016=
201009021630 METAR LPPR 021630Z 31011KT 280V360 CAVOK 22/17 Q1016=
201009021600 METAR LPPR 021600Z 31012KT CAVOK 22/17 Q1016=
201009021530 METAR LPPR 021530Z 32010KT 270V340 CAVOK 23/17 Q1016=
201009021500 METAR LPPR 021500Z 31012KT CAVOK 23/16 Q1016=
201009021430 METAR LPPR 021430Z 32011KT 270V350 CAVOK 23/17 Q1016=
201009021400 METAR LPPR 021400Z 31010KT 270V340 9999 FEW018 23/17 Q1016=
201009021330 METAR LPPR 021330Z 31011KT 270V350 9999 FEW016 23/17 Q1016=
201009021300 METAR LPPR 021300Z 29010KT 260V330 9999 SCT015 22/17 Q1016=
201009021230 METAR LPPR 021230Z 28009KT 250V330 9999 SCT015 22/17 Q1016=
201009021200 METAR LPPR 021200Z 31008KT 260V340 9999 SCT015 23/17 Q1016=
201009021130 METAR LPPR 021130Z 32010KT 270V340 9999 SCT012 BKN017 22/17
                        Q1016=
201009021100 METAR LPPR 021100Z 30008KT 270V340 9999 SCT011 BKN015 22/17
                        Q1016=
201009021030 METAR LPPR 021030Z 33007KT 9999 FEW009 BKN013 22/18 Q1016=
201009021000 METAR LPPR 021000Z 31008KT 280V340 9999 SCT008 BKN012 20/18
                        Q1016=
201009020930 METAR LPPR 020930Z VRB07KT 9999 BKN008 21/18 Q1016=
201009020900 METAR LPPR 020900Z 35008KT 320V020 8000 SCT004 BKN009 20/19
                        Q1015=
201009020830 METAR LPPR 020830Z 34004KT 320V020 4000 BR SCT002 BKN008
                        18/18 Q1015=
201009020800 METAR LPPR 020800Z VRB01KT 3000 BR SCT001 BKN004 18/18 Q1015=
201009020730 METAR LPPR 020730Z VRB03KT 2000 BR VCFG BKN001 BKN002 18/18
                        Q1015=
201009020700 METAR LPPR 020700Z 33005KT 1500 BR VCFG SCT000 BKN002 17/17
                        Q1014=
201009020630 METAR LPPR 020630Z VRB02KT 0600 R17/0900VP1500 R35/0700V1200U
                        FG VV001 17/17 Q1014=
201009020600 METAR LPPR 020600Z 35004KT 0500 R17/0800V1300D R35/0700V1200D
                        FG VV001 17/17 Q1013=
201009020530 METAR LPPR 020530Z 35004KT 2000 BR SCT000 BKN002 17/17 Q1013=
201009020500 METAR LPPR 020500Z VRB02KT 4000 BR SCT002 17/16 Q1013=
201009020430 METAR LPPR 020430Z 00000KT 8000 FEW004 17/16 Q1013=
201009020400 METAR LPPR 020400Z 00000KT CAVOK 17/16 Q1013=
201009020330 METAR LPPR 020330Z 00000KT 8000 FEW008 17/16 Q1013=
201009020300 METAR LPPR 020300Z 00000KT 8000 FEW008 17/16 Q1013=
201009020230 METAR LPPR 020230Z 00000KT CAVOK 17/16 Q1013=
201009020200 METAR LPPR 020200Z VRB01KT CAVOK 17/17 Q1013=
201009020130 METAR LPPR 020130Z 00000KT CAVOK 17/16 Q1013=
201009020100 METAR LPPR 020100Z 00000KT CAVOK 17/16 Q1013=
201009020030 METAR LPPR 020030Z 00000KT CAVOK 18/17 Q1013=
201009020000 METAR LPPR 020000Z 00000KT CAVOK 18/17 Q1012=
201009012330 METAR LPPR 012330Z 00000KT CAVOK 18/17 Q1012=
201009012300 METAR LPPR 012300Z 00000KT CAVOK 18/17 Q1012=
201009012230 METAR LPPR 012230Z 00000KT 9999 FEW008 18/17 Q1012=
201009012200 METAR LPPR 012200Z 35004KT 9999 FEW020 19/17 Q1012=
201009012130 METAR LPPR 012130Z 33007KT 9999 FEW020 19/18 Q1012=
201009012100 METAR LPPR 012100Z 32005KT 9999 FEW020 19/18 Q1012=
201009012030 METAR LPPR 012030Z 31004KT 9999 FEW020 19/18 Q1012=
201009012000 METAR LPPR 012000Z 32002KT 9999 FEW020 19/18 Q1012=
201009011930 METAR LPPR 011930Z 31005KT 280V340 9999 FEW020 20/18 Q1011=
201009011900 METAR LPPR 011900Z 31006KT 9999 FEW020 21/18 Q1011=
201009011830 METAR LPPR 011830Z 31008KT 9999 FEW020 21/17 Q1011=
201009011800 METAR LPPR 011800Z 31007KT 9999 FEW020 FEW025CB 22/17 Q1011=
201009011730 METAR LPPR 011730Z 31010KT 280V340 9999 FEW025 FEW030CB 22/17
                        Q1010=
201009011700 METAR LPPR 011700Z 31009KT 9999 FEW025 FEW030CB 23/18 Q1010=
201009011630 METAR LPPR 011630Z 29009KT 250V340 9999 FEW025 FEW030CB 23/18
                        Q1010=
201009011600 METAR LPPR 011600Z 29008KT 260V330 9999 FEW025 FEW030CB 23/18
                        Q1010=
201009011530 METAR LPPR 011530Z 30008KT 260V340 9999 FEW022 24/17 Q1010=
201009011500 METAR LPPR 011500Z 30009KT 250V330 9999 FEW022 24/17 Q1010=
201009011430 METAR LPPR 011430Z 28010KT 9999 FEW022 24/17 Q1010=
201009011400 METAR LPPR 011400Z 27008KT 230V310 9999 FEW022 24/17 Q1010=
201009011330 METAR LPPR 011330Z 27007G19KT 210V350 9999 SCT022 24/17 Q1010=
201009011300 METAR LPPR 011300Z 29008KT 260V320 9999 SCT022 24/17 Q1010=
201009011230 METAR LPPR 011230Z 29007G17KT 250V330 9999 SCT020 SCT025
                        24/17 Q1010=
201009011200 METAR LPPR 011200Z 27004KT 210V310 9999 BKN022 23/17 Q1010=
201009011130 METAR LPPR 011130Z 30005KT 260V330 9999 SCT020 SCT025 23/16
                        Q1010=
201009011100 METAR LPPR 011100Z 29005KT 240V330 9999 FEW015 SCT022 BKN027
                        23/17 Q1010=
201009011030 METAR LPPR 011030Z 28006KT 260V330 9999 FEW014 SCT017 BKN025
                        22/18 Q1010=
201009011000 METAR LPPR 011000Z 27005KT 240V300 9999 SCT009 BKN020 BKN025
                        22/19 Q1010=
201009010930 METAR LPPR 010930Z 26007KT 220V290 9999 FEW006 SCT011 BKN025
                        22/19 Q1010=
201009010900 METAR LPPR 010900Z 22004KT 180V270 9999 FEW007 SCT010 BKN017
                        21/18 Q1010=
201009010830 METAR LPPR 010830Z 22004KT 170V250 8000 SCT009 BKN017 21/19
                        Q1009=
201009010800 METAR LPPR 010800Z 21004KT 180V250 6000 SCT008 SCT010 20/19
                        Q1009=
201009010730 METAR LPPR 010730Z VRB02KT 6000 SCT008 SCT020 BKN100 20/19
                        Q1009=
201009010700 METAR LPPR 010700Z VRB03KT 6000 SCT006 BKN020 20/19 Q1009=
201009010630 METAR LPPR 010630Z 19002KT 7000 SCT006 SCT017 BKN100 20/19
                        Q1009=
201009010600 METAR LPPR 010600Z VRB03KT 9999 BKN006 SCT017 20/19 Q1008=
201009010530 METAR LPPR 010530Z VRB03KT 9999 BKN005 SCT017 20/19 Q1008=
201009010500 METAR LPPR 010500Z 20004KT 9999 BKN005 BKN015 20/19 Q1008=
201009010430 METAR LPPR 010430Z 18004KT 9999 BKN005 BKN013 20/18 Q1008=
201009010400 METAR LPPR 010400Z VRB03KT 9999 BKN004 BKN013 20/19 Q1008=
201009010330 METAR LPPR 010330Z 18006KT 9999 BKN004 BKN013 20/19 Q1008=
201009010300 METAR LPPR 010300Z 22003KT 9999 SCT002 SCT009 BKN013 20/19
                        Q1008=
201009010230 METAR LPPR 010230Z 21002KT 9999 SCT002 BKN009 20/19 Q1009=
201009010200 METAR LPPR 010200Z 22002KT 8000 SCT002 BKN008 20/20 Q1008=
201009010130 METAR LPPR 010130Z 19002KT 7000 SCT002 BKN006 20/20 Q1008=
201009010100 METAR LPPR 010100Z VRB03KT 4000 BR BKN001 BKN002 20/20 Q1009=
201009010030 METAR LPPR 010030Z VRB02KT 4000 BR BKN001 BKN002 20/20 Q1009=
201009010000 METAR LPPR 010000Z VRB03KT 7000 BKN002 BKN003 20/20 Q1009=

</pre>

</body>
</html>
