##########################################################
# Query made at 11/07/2014 14:41:23 UTC
# Time interval: from 09/01/2008 00:00  to 10/01/2008 23:59  UTC
##########################################################

##########################################################
# LPPR, Porto / Pedras Rubras (Portugal)
# WMO index: 08545
# Latitude 41-14N. Longitude 008-41W. Altitude 69 m.
##########################################################

###################################
#  METAR/SPECI from LPPR
###################################
200810012330 METAR LPPR 012330Z 00000KT CAVOK 11/11 Q1018=
200810012300 METAR LPPR 012300Z 35002KT CAVOK 11/11 Q1018=
200810012230 METAR LPPR 012230Z 00000KT CAVOK 12/11 Q1018=
200810012200 METAR LPPR 012200Z 00000KT CAVOK 12/11 Q1018=
200810012130 METAR LPPR 012130Z 00000KT CAVOK 13/12 Q1018=
200810012100 METAR LPPR 012100Z 00000KT CAVOK 13/12 Q1018=
200810012030 METAR LPPR 012030Z 35003KT CAVOK 13/12 Q1018=
200810012000 METAR LPPR 012000Z 35003KT CAVOK 14/12 Q1018=
200810011930 METAR LPPR 011930Z 35005KT CAVOK 14/12 Q1018=
200810011900 METAR LPPR 011900Z 35007KT CAVOK 15/13 Q1018=
200810011830 METAR LPPR 011830Z 34010KT CAVOK 16/13 Q1017=
200810011800 METAR LPPR 011800Z 34010KT CAVOK 17/13 Q1017=
200810011730 METAR LPPR 011730Z 33013KT CAVOK 18/13 Q1017=
200810011700 METAR LPPR 011700Z 33013KT 300V360 CAVOK 18/13 Q1017=
200810011630 METAR LPPR 011630Z 34014KT CAVOK 19/13 Q1017=
200810011600 METAR LPPR 011600Z 34016KT CAVOK 19/13 Q1017=
200810011530 METAR LPPR 011530Z 32012KT CAVOK 20/13 Q1017=
200810011500 METAR LPPR 011500Z 32011KT CAVOK 20/13 Q1017=
200810011430 METAR LPPR 011430Z 33011KT 300V360 CAVOK 21/13 Q1017=
200810011400 METAR LPPR 011400Z 33012KT CAVOK 21/13 Q1018=
200810011330 METAR LPPR 011330Z 32010KT CAVOK 20/13 Q1018=
200810011300 METAR LPPR 011300Z 32011KT CAVOK 20/13 Q1018=
200810011230 METAR LPPR 011230Z 32009KT 290V360 CAVOK 20/14 Q1018=
200810011200 METAR LPPR 011200Z 31007KT 260V340 CAVOK 20/14 Q1019=
200810011130 METAR LPPR 011130Z 31006KT 270V350 8000 FEW250 19/14 Q1019=
200810011100 METAR LPPR 011100Z 29005KT 260V340 7000 FEW250 19/14 Q1019=
200810011030 METAR LPPR 011030Z VRB02KT 8000 FEW250 19/14 Q1019=
200810011000 METAR LPPR 011000Z 00000KT 7000 FEW250 19/14 Q1019=
200810010930 METAR LPPR 010930Z 00000KT 6000 FEW250 17/13 Q1019=
200810010900 METAR LPPR 010900Z VRB02KT 5000 BR FEW003 15/13 Q1019=
200810010830 METAR LPPR 010830Z 00000KT 2000 R35/0900VP1500
                        BR VCFG FEW001 14/14 Q1019=
200810010800 METAR LPPR 010800Z 00000KT 6000 FEW007 12/12 Q1018=
200810010730 METAR LPPR 010730Z 00000KT 7000 FEW250 12/12 Q1018=
200810010700 METAR LPPR 010700Z 00000KT 7000 FEW250 11/11 Q1018=
200810010630 METAR LPPR 010630Z 00000KT 7000 SKC 11/11 Q1018=
200810010600 METAR LPPR 010600Z VRB02KT CAVOK 11/10 Q1018=
200810010530 METAR LPPR 010530Z 00000KT CAVOK 10/10 Q1018=
200810010500 METAR LPPR 010500Z 00000KT CAVOK 11/11 Q1018=
200810010430 METAR LPPR 010430Z 00000KT CAVOK 12/12 Q1018=
200810010400 METAR LPPR 010400Z 17003KT CAVOK 12/12 Q1017=
200810010330 METAR LPPR 010330Z 00000KT CAVOK 13/12 Q1018=
200810010300 METAR LPPR 010300Z 00000KT CAVOK 12/12 Q1018=
200810010230 METAR LPPR 010230Z 00000KT CAVOK 12/12 Q1018=
200810010200 METAR LPPR 010200Z 00000KT CAVOK 12/12 Q1018=
200810010130 METAR LPPR 010130Z 01002KT CAVOK 12/11 Q1018=
200810010100 METAR LPPR 010100Z 00000KT CAVOK 12/11 Q1018=
200810010030 METAR LPPR 010030Z 00000KT CAVOK 13/11 Q1018=
200810010000 METAR LPPR 010000Z 00000KT CAVOK 13/11 Q1018=
200809302330 METAR LPPR 302330Z 00000KT CAVOK 13/12 Q1018=
200809302300 METAR LPPR 302300Z 00000KT CAVOK 13/12 Q1018=
200809302230 METAR LPPR 302230Z 35003KT CAVOK 14/12 Q1018=
200809302200 METAR LPPR 302200Z 00000KT CAVOK 15/13 Q1018=
200809302130 METAR LPPR 302130Z VRB02KT CAVOK 15/13 Q1018=
200809302100 METAR LPPR 302100Z 00000KT CAVOK 15/14 Q1018=
200809302030 METAR LPPR 302030Z 00000KT CAVOK 16/14 Q1018=
200809302000 METAR LPPR 302000Z 00000KT CAVOK 16/14 Q1018=
200809301930 METAR LPPR 301930Z 00000KT CAVOK 17/14 Q1018=
200809301900 METAR LPPR 301900Z 35005KT CAVOK 17/14 Q1018=
200809301830 METAR LPPR 301830Z 35007KT CAVOK 18/13 Q1018=
200809301800 METAR LPPR 301800Z 34005KT 280V360 CAVOK 20/13 Q1018=
200809301730 METAR LPPR 301730Z 33006KT CAVOK 22/12 Q1018=
200809301700 METAR LPPR 301700Z 34009KT CAVOK 22/12 Q1018=
200809301630 METAR LPPR 301630Z 34009KT CAVOK 23/12 Q1018=
200809301600 METAR LPPR 301600Z 32009KT 290V020 CAVOK 23/12 Q1018=
200809301530 METAR LPPR 301530Z 33010KT CAVOK 23/12 Q1018=
200809301500 METAR LPPR 301500Z 32010KT CAVOK 22/13 Q1018=
200809301430 METAR LPPR 301430Z 32010KT CAVOK 22/14 Q1018=
200809301400 METAR LPPR 301400Z 31009KT CAVOK 24/13 Q1018=
200809301330 METAR LPPR 301330Z 32007KT 280V340 CAVOK 23/13 Q1018=
200809301300 METAR LPPR 301300Z 32008KT 280V340 CAVOK 23/14 Q1019=
200809301230 METAR LPPR 301230Z 29007KT 260V320 CAVOK 23/14 Q1019=
200809301200 METAR LPPR 301200Z VRB03KT CAVOK 26/14 Q1019=
200809301130 METAR LPPR 301130Z VRB03KT CAVOK 25/12 Q1020=
200809301100 METAR LPPR 301100Z 10004KT 060V150 CAVOK 24/12 Q1020=
200809301030 METAR LPPR 301030Z 10006KT 050V150 CAVOK 23/12 Q1020=
200809301000 METAR LPPR 301000Z 09004KT 050V140 CAVOK 22/13 Q1020=
200809300930 METAR LPPR 300930Z 10006KT 070V130 CAVOK 21/12 Q1019=
200809300900 METAR LPPR 300900Z VRB03KT CAVOK 20/12 Q1019=
200809300830 METAR LPPR 300830Z 00000KT CAVOK 18/13 Q1019=
200809300800 METAR LPPR 300800Z 00000KT CAVOK 15/12 Q1019=
200809300730 METAR LPPR 300730Z 00000KT CAVOK 14/12 Q1018=
200809300700 METAR LPPR 300700Z 00000KT CAVOK 13/11 Q1019=
200809300630 METAR LPPR 300630Z 10003KT CAVOK 14/11 Q1018=
200809300600 METAR LPPR 300600Z VRB03KT CAVOK 13/11 Q1018=
200809300530 METAR LPPR 300530Z 00000KT CAVOK 13/11 Q1018=
200809300500 METAR LPPR 300500Z 00000KT CAVOK 13/11 Q1018=
200809300430 METAR LPPR 300430Z 00000KT CAVOK 13/11 Q1018=
200809300400 METAR LPPR 300400Z VRB02KT CAVOK 13/12 Q1018=
200809300330 METAR LPPR 300330Z 00000KT CAVOK 13/12 Q1018=
200809300300 METAR LPPR 300300Z VRB03KT CAVOK 14/11 Q1018=
200809300230 METAR LPPR 300230Z 34007KT 300V030 CAVOK 15/12 Q1018=
200809300200 METAR LPPR 300200Z 08002KT CAVOK 16/13 Q1018=
200809300130 METAR LPPR 300130Z 00000KT CAVOK 16/13 Q1018=
200809300100 METAR LPPR 300100Z 11003KT CAVOK 16/13 Q1018=
200809300030 METAR LPPR 300030Z 06003KT CAVOK 15/13 Q1018=
200809300000 METAR LPPR 300000Z 00000KT 8000 SKC 15/13 Q1019=
200809292330 METAR LPPR 292330Z 00000KT CAVOK 15/14 Q1019=
200809292300 METAR LPPR 292300Z 00000KT 8000 SKC 15/14 Q1019=
200809292230 METAR LPPR 292230Z 00000KT 8000 SKC 15/14 Q1019=
200809292200 METAR LPPR 292200Z 00000KT CAVOK 16/15 Q1019=
200809292130 METAR LPPR 292130Z 00000KT CAVOK 16/15 Q1019=
200809292100 METAR LPPR 292100Z 00000KT CAVOK 16/15 Q1019=
200809292030 METAR LPPR 292030Z 00000KT CAVOK 17/15 Q1019=
200809292000 METAR LPPR 292000Z 35002KT CAVOK 17/15 Q1018=
200809291930 METAR LPPR 291930Z 35004KT CAVOK 17/15 Q1018=
200809291900 METAR LPPR 291900Z 34006KT CAVOK 18/14 Q1018=
200809291830 METAR LPPR 291830Z 34005KT CAVOK 19/13 Q1018=
200809291800 METAR LPPR 291800Z 35009KT CAVOK 21/13 Q1018=
200809291730 METAR LPPR 291730Z 34010KT CAVOK 22/12 Q1018=
200809291700 METAR LPPR 291700Z 33010KT CAVOK 23/13 Q1018=
200809291630 METAR LPPR 291630Z 33010KT CAVOK 23/13 Q1018=
200809291600 METAR LPPR 291600Z 33011KT 9999 FEW025 23/14 Q1018=
200809291530 METAR LPPR 291530Z 33012KT 9999 FEW025 23/14 Q1019=
200809291500 METAR LPPR 291500Z 32012KT 280V350 9999 FEW025 23/14 Q1019=
200809291430 METAR LPPR 291430Z 31011KT 280V340 9999 FEW017 23/14 Q1019=
200809291400 METAR LPPR 291400Z 31012KT 9999 FEW017 23/14 Q1019=
200809291330 METAR LPPR 291330Z 31011KT 9999 FEW017 24/14 Q1019=
200809291300 METAR LPPR 291300Z 30008KT 270V350 9999 FEW017 25/14 Q1019=
200809291230 METAR LPPR 291230Z 32008KT 9999 FEW017 25/14 Q1020=
200809291200 METAR LPPR 291200Z VRB03KT 9999 FEW017 25/13 Q1020=
200809291130 METAR LPPR 291130Z VRB03KT CAVOK 24/12 Q1020=
200809291100 METAR LPPR 291100Z 04004KT 360V130 CAVOK 23/13 Q1021=
200809291030 METAR LPPR 291030Z 02006KT 350V060 CAVOK 23/12 Q1021=
200809291000 METAR LPPR 291000Z 05005KT 010V090 CAVOK 22/12 Q1021=
200809290930 METAR LPPR 290930Z 08004KT 020V110 CAVOK 22/11 Q1021=
200809290900 METAR LPPR 290900Z VRB03KT CAVOK 21/12 Q1021=
200809290830 METAR LPPR 290830Z VRB03KT CAVOK 20/11 Q1020=
200809290800 METAR LPPR 290800Z 00000KT CAVOK 19/11 Q1020=
200809290730 METAR LPPR 290730Z 08004KT CAVOK 17/10 Q1020=
200809290700 METAR LPPR 290700Z 09004KT CAVOK 16/10 Q1019=
200809290630 METAR LPPR 290630Z 00000KT CAVOK 14/10 Q1019=
200809290600 METAR LPPR 290600Z VRB03KT CAVOK 14/10 Q1019=
200809290530 METAR LPPR 290530Z 12007KT CAVOK 16/09 Q1019=
200809290500 METAR LPPR 290500Z VRB02KT CAVOK 13/09 Q1019=
200809290430 METAR LPPR 290430Z 35002KT CAVOK 14/10 Q1019=
200809290400 METAR LPPR 290400Z 10005KT CAVOK 16/09 Q1019=
200809290330 METAR LPPR 290330Z 00000KT CAVOK 14/09 Q1019=
200809290300 METAR LPPR 290300Z 00000KT CAVOK 14/10 Q1019=
200809290230 METAR LPPR 290230Z 00000KT CAVOK 15/09 Q1019=
200809290200 METAR LPPR 290200Z 10004KT CAVOK 15/09 Q1019=
200809290130 METAR LPPR 290130Z 00000KT CAVOK 15/10 Q1019=
200809290100 METAR LPPR 290100Z 00000 CAVOK 15/10 Q1019=
200809290030 METAR LPPR 290030Z 00000KT CAVOK 16/10 Q1019=
200809290000 METAR LPPR 290000Z 00000KT CAVOK 16/10 Q1019=
200809282330 METAR LPPR 282330Z 00000KT CAVOK 17/09 Q1019=
200809282300 METAR LPPR 282300Z 15006KT CAVOK 18/09 Q1019=
200809282230 METAR LPPR 282230Z 09004KT CAVOK 20/08 Q1019=
200809282200 METAR LPPR 282200Z 10006KT CAVOK 20/09 Q1019=
200809282130 METAR LPPR 282130Z 03005KT CAVOK 16/11 Q1018=
200809282100 METAR LPPR 282100Z 02004KT CAVOK 17/12 Q1018=
200809282030 METAR LPPR 282030Z 02003KT CAVOK 17/12 Q1018=
200809282000 METAR LPPR 282000Z 01003KT CAVOK 18/12 Q1018=
200809281930 METAR LPPR 281930Z 36002KT CAVOK 18/11 Q1018=
200809281900 METAR LPPR 281900Z 36005KT CAVOK 19/11 Q1018=
200809281830 METAR LPPR 281830Z 35005KT CAVOK 20/11 Q1017=
200809281800 METAR LPPR 281800Z 34006KT CAVOK 22/12 Q1017=
200809281730 METAR LPPR 281730Z 34009KT 9999 FEW017 23/11 Q1017=
200809281700 METAR LPPR 281700Z 33008KT 9999 FEW017 25/12 Q1017=
200809281630 METAR LPPR 281630Z 32006KT 290V020 9999 FEW017 26/13 Q1017=
200809281600 METAR LPPR 281600Z 06007KT 360V110 9999 SCT017 28/08 Q1017=
200809281530 METAR LPPR 281530Z 06007KT 010V120 9999 SCT017 28/08 Q1017=
200809281500 METAR LPPR 281500Z 05007KT 010V130 9999 SCT017 27/09 Q1017=
200809281430 METAR LPPR 281430Z 08007KT 040V120 9999 FEW017 27/08 Q1018=
200809281400 METAR LPPR 281400Z 07006KT 020V130 9999 FEW017 28/09 Q1018=
200809281330 METAR LPPR 281330Z 11008KT 040V160 9999 FEW017 27/11 Q1018=
200809281300 METAR LPPR 281300Z 11005KT 040V180 9999 FEW017 27/11 Q1018=
200809281230 METAR LPPR 281230Z 08006KT 040V120 CAVOK 26/11 Q1019=
200809281200 METAR LPPR 281200Z 10008KT 060V130 CAVOK 26/11 Q1019=
200809281130 METAR LPPR 281130Z 08004KT 010V140 CAVOK 25/11 Q1019=
200809281100 METAR LPPR 281100Z 09006KT 050V130 CAVOK 24/10 Q1020=
200809281030 METAR LPPR 281030Z 10008KT 050V130 CAVOK 24/10 Q1020=
200809281000 METAR LPPR 281000Z 10005KT 050V140 CAVOK 23/10 Q1020=
200809280930 METAR LPPR 280930Z 11008KT 080V150 CAVOK 22/09 Q1020=
200809280900 METAR LPPR 280900Z 10005KT 060V130 CAVOK 21/10 Q1019=
200809280830 METAR LPPR 280830Z 11006KT 080V140 CAVOK 20/09 Q1019=
200809280800 METAR LPPR 280800Z VRB03KT CAVOK 19/10 Q1019=
200809280730 METAR LPPR 280730Z VRB03KT CAVOK 18/09 Q1019=
200809280700 METAR LPPR 280700Z VRB02KT CAVOK 16/10 Q1019=
200809280630 METAR LPPR 280630Z 10004KT 030V150 CAVOK 17/09 Q1019=
200809280600 METAR LPPR 280600Z 12008KT 9999 FEW030 BKN090 17/09 Q1018=
200809280530 METAR LPPR 280530Z 10005KT 070V130 9999 FEW030 BKN090 17/09
                        Q1018=
200809280500 METAR LPPR 280500Z 11005KT 9999 FEW030 BKN090 17/10 Q1018=
200809280430 METAR LPPR 280430Z 10004KT 9999 FEW030 SCT090 16/10 Q1018=
200809280400 METAR LPPR 280400Z 00000KT 9999 SCT030 15/10 Q1018=
200809280330 METAR LPPR 280330Z 00000KT 9999 FEW030 SCT090 15/11 Q1018=
200809280300 METAR LPPR 280300Z 00000KT 9999 FEW030 17/10 Q1018=
200809280230 METAR LPPR 280230Z 09005KT 060V120 9999 FEW030 17/11 Q1018=
200809280200 METAR LPPR 280200Z 07005KT 9999 FEW030 SCT090 16/11 Q1019=
200809280130 METAR LPPR 280130Z VRB02KT 9999 FEW025 SCT090 16/11 Q1019=
200809280100 METAR LPPR 280100Z 00000KT 9999 FEW025 17/10 Q1018=
200809280030 METAR LPPR 280030Z 06004KT CAVOK 18/10 Q1018=
200809280000 METAR LPPR 280000Z 06003KT 9999 FEW017 18/10 Q1018=
200809272330 METAR LPPR 272330Z 07002KT CAVOK 16/11 Q1018=
200809272300 METAR LPPR 272300Z 00000KT CAVOK 16/11 Q1018=
200809272230 METAR LPPR 272230Z 00000KT CAVOK 16/12 Q1018=
200809272200 METAR LPPR 272200Z 00000KT CAVOK 16/12 Q1018=
200809272130 METAR LPPR 272130Z 00000KT CAVOK 16/13 Q1018=
200809272100 METAR LPPR 272100Z 00000KT CAVOK 17/13 Q1018=
200809272030 METAR LPPR 272030Z 00000KT CAVOK 17/14 Q1018=
200809272000 METAR LPPR 272000Z 00000KT CAVOK 18/13 Q1018=
200809271930 METAR LPPR 271930Z 00000KT CAVOK 19/13 Q1017=
200809271900 METAR LPPR 271900Z 36004KT CAVOK 19/13 Q1017=
200809271830 METAR LPPR 271830Z 36003KT CAVOK 21/13 Q1017=
200809271800 METAR LPPR 271800Z 35004KT CAVOK 23/13 Q1017=
200809271730 METAR LPPR 271730Z 34006KT CAVOK 24/13 Q1017=
200809271700 METAR LPPR 271700Z 32005KT CAVOK 25/13 Q1017=
200809271630 METAR LPPR 271630Z 32005KT 290V350 CAVOK 26/14 Q1017=
200809271600 METAR LPPR 271600Z 32006KT 230V350 CAVOK 26/13 Q1017=
200809271530 METAR LPPR 271530Z 32006KT 280V340 CAVOK 26/12 Q1017=
200809271500 METAR LPPR 271500Z VRB02KT CAVOK 27/12 Q1017=
200809271430 METAR LPPR 271430Z 00000KT CAVOK 27/11 Q1017=
200809271400 METAR LPPR 271400Z VRB03KT CAVOK 27/12 Q1017=
200809271330 METAR LPPR 271330Z VRB03KT CAVOK 26/11 Q1018=
200809271300 METAR LPPR 271300Z 05005KT 010V100 CAVOK 25/11 Q1018=
200809271230 METAR LPPR 271230Z 06005KT 030V090 CAVOK 25/11 Q1018=
200809271200 METAR LPPR 271200Z 09006KT 030V130 CAVOK 24/11 Q1018=
200809271130 METAR LPPR 271130Z 09007KT 040V130 CAVOK 23/10 Q1018=
200809271100 METAR LPPR 271100Z 11010KT 070V140 CAVOK 23/10 Q1018=
200809271030 METAR LPPR 271030Z 10011KT 040V130 CAVOK 22/10 Q1018=
200809271000 METAR LPPR 271000Z 11010KT 080V150 CAVOK 21/09 Q1018=
200809270930 METAR LPPR 270930Z 11012KT 080V140 CAVOK 20/09 Q1018=
200809270900 METAR LPPR 270900Z 10010KT 070V130 CAVOK 20/09 Q1018=
200809270830 METAR LPPR 270830Z 10009KT 070V130 CAVOK 19/08 Q1018=
200809270800 METAR LPPR 270800Z 10009KT 060V130 CAVOK 18/08 Q1018=
200809270730 METAR LPPR 270730Z 09008KT 060V130 CAVOK 17/08 Q1017=
200809270700 METAR LPPR 270700Z 09006KT 040V120 CAVOK 16/08 Q1017=
200809270630 METAR LPPR 270630Z 10007KT 060V160 CAVOK 17/08 Q1017=
200809270600 METAR LPPR 270600Z 10009KT CAVOK 17/08 Q1017=
200809270530 METAR LPPR 270530Z 09008KT 060V120 CAVOK 17/08 Q1017=
200809270500 METAR LPPR 270500Z 10008KT 070V130 CAVOK 17/08 Q1017=
200809270430 METAR LPPR 270430Z 08005KT 030V130 CAVOK 17/08 Q1017=
200809270400 METAR LPPR 270400Z 09006KT 050V130 CAVOK 18/08 Q1016=
200809270330 METAR LPPR 270330Z 10006KT 060V130 CAVOK 18/08 Q1017=
200809270300 METAR LPPR 270300Z 09006KT 030V120 CAVOK 18/08 Q1017=
200809270230 METAR LPPR 270230Z 09005KT 060V130 CAVOK 17/08 Q1017=
200809270200 METAR LPPR 270200Z 10005KT CAVOK 17/09 Q1017=
200809270130 METAR LPPR 270130Z 10004KT CAVOK 17/09 Q1017=
200809270100 METAR LPPR 270100Z 09003KT CAVOK 17/09 Q1017=
200809270030 METAR LPPR 270030Z 10003KT CAVOK 17/09 Q1018=
200809270000 METAR LPPR 270000Z 10004KT CAVOK 17/10 Q1018=
200809262330 METAR LPPR 262330Z 11005KT CAVOK 16/11 Q1018=
200809262300 METAR LPPR 262300Z VRB03KT CAVOK 15/11 Q1018=
200809262230 METAR LPPR 262230Z VRB02KT CAVOK 14/12 Q1018=
200809262200 METAR LPPR 262200Z 00000KT CAVOK 15/12 Q1018=
200809262130 METAR LPPR 262130Z 00000KT CAVOK 15/13 Q1018=
200809262100 METAR LPPR 262100Z 00000KT CAVOK 16/13 Q1018=
200809262030 METAR LPPR 262030Z 36003KT CAVOK 16/13 Q1018=
200809262000 METAR LPPR 262000Z 36002KT CAVOK 17/13 Q1018=
200809261930 METAR LPPR 261930Z 01003KT CAVOK 17/13 Q1018=
200809261900 METAR LPPR 261900Z 36005KT CAVOK 18/13 Q1018=
200809261830 METAR LPPR 261830Z 35004KT CAVOK 18/13 Q1018=
200809261800 METAR LPPR 261800Z 33006KT CAVOK 20/12 Q1018=
200809261730 METAR LPPR 261730Z 34010KT CAVOK 22/12 Q1018=
200809261700 METAR LPPR 261700Z 34012KT CAVOK 23/12 Q1018=
200809261630 METAR LPPR 261630Z 33005KT 270V040 CAVOK 25/14 Q1018=
200809261600 METAR LPPR 261600Z VRB03KT CAVOK 26/10 Q1018=
200809261530 METAR LPPR 261530Z 05006KT 360V110 CAVOK 26/09 Q1018=
200809261500 METAR LPPR 261500Z VRB03KT CAVOK 26/10 Q1019=
200809261430 METAR LPPR 261430Z 07005KT 020V160 CAVOK 25/09 Q1019=
200809261400 METAR LPPR 261400Z VRB03KT CAVOK 25/10 Q1019=
200809261330 METAR LPPR 261330Z 08007KT 020V120 CAVOK 24/09 Q1019=
200809261300 METAR LPPR 261300Z 10008KT 050V140 CAVOK 24/09 Q1020=
200809261230 METAR LPPR 261230Z 06007KT 010V110 CAVOK 24/10 Q1020=
200809261200 METAR LPPR 261200Z 06008KT 010V110 CAVOK 23/10 Q1020=
200809261130 METAR LPPR 261130Z 10007KT 030V160 CAVOK 22/10 Q1020=
200809261100 METAR LPPR 261100Z 10010KT 060V130 CAVOK 22/09 Q1020=
200809261030 METAR LPPR 261030Z 11012KT 070V140 CAVOK 21/09 Q1021=
200809261000 METAR LPPR 261000Z 10011KT 050V130 CAVOK 20/09 Q1021=
200809260930 METAR LPPR 260930Z 10010KT 060V130 CAVOK 19/08 Q1021=
200809260900 METAR LPPR 260900Z 10009KT 050V150 CAVOK 19/08 Q1021=
200809260830 METAR LPPR 260830Z 10007KT 060V140 CAVOK 18/08 Q1021=
200809260800 METAR LPPR 260800Z 10010KT 070V130 CAVOK 17/07 Q1021=
200809260730 METAR LPPR 260730Z 10006KT 040V130 CAVOK 17/08 Q1021=
200809260700 METAR LPPR 260700Z 10008KT 060V130 CAVOK 16/08 Q1020=
200809260630 METAR LPPR 260630Z 11005KT 080V140 CAVOK 15/08 Q1020=
200809260600 METAR LPPR 260600Z 09004KT 060V120 CAVOK 16/08 Q1020=
200809260530 METAR LPPR 260530Z 08007KT 050V110 CAVOK 17/09 Q1020=
200809260500 METAR LPPR 260500Z 08006KT 030V120 CAVOK 16/09 Q1020=
200809260430 METAR LPPR 260430Z 06004KT 030V100 CAVOK 16/10 Q1020=
200809260400 METAR LPPR 260400Z 05004KT 030V090 CAVOK 16/10 Q1020=
200809260330 METAR LPPR 260330Z 08004KT 050V110 CAVOK 17/10 Q1020=
200809260300 METAR LPPR 260300Z 08004KT 030V120 CAVOK 17/10 Q1020=
200809260230 METAR LPPR 260230Z VRB03KT CAVOK 17/11 Q1020=
200809260200 METAR LPPR 260200Z 06004KT 020V090 CAVOK 17/11 Q1021=
200809260130 METAR LPPR 260130Z VRB03KT CAVOK 17/11 Q1021=
200809260100 METAR LPPR 260100Z 10006KT CAVOK 17/11 Q1021=
200809260030 METAR LPPR 260030Z 00000KT CAVOK 15/12 Q1021=
200809260000 METAR LPPR 260000Z 00000KT CAVOK 15/13 Q1021=
200809252330 METAR LPPR 252330Z 00000KT CAVOK 16/13 Q1020=
200809252300 METAR LPPR 252300Z 10004KT CAVOK 17/13 Q1020=
200809252230 METAR LPPR 252230Z 00000KT CAVOK 15/13 Q1020=
200809252200 METAR LPPR 252200Z 00000KT CAVOK 15/13 Q1020=
200809252130 METAR LPPR 252130Z 00000KT CAVOK 16/13 Q1020=
200809252100 METAR LPPR 252100Z 02002KT CAVOK 16/13 Q1020=
200809252030 METAR LPPR 252030Z VRB03KT CAVOK 17/13 Q1020=
200809252000 METAR LPPR 252000Z 35003KT CAVOK 17/13 Q1020=
200809251930 METAR LPPR 251930Z 35003KT CAVOK 18/13 Q1020=
200809251900 METAR LPPR 251900Z 34003KT CAVOK 18/12 Q1020=
200809251830 METAR LPPR 251830Z 34007KT CAVOK 20/12 Q1019=
200809251800 METAR LPPR 251800Z 34008KT CAVOK 21/12 Q1019=
200809251730 METAR LPPR 251730Z 35009KT CAVOK 22/12 Q1019=
200809251700 METAR LPPR 251700Z 34007KT 320V020 CAVOK 23/13 Q1019=
200809251630 METAR LPPR 251630Z 34009KT 9999 FEW030 24/13 Q1019=
200809251600 METAR LPPR 251600Z 32010KT 9999 FEW020 24/14 Q1019=
200809251530 METAR LPPR 251530Z 32008KT 9999 FEW025 24/14 Q1019=
200809251500 METAR LPPR 251500Z 30009KT 9999 FEW020 24/13 Q1019=
200809251430 METAR LPPR 251430Z 30007KT 270V330 9999 FEW020 25/14 Q1019=
200809251400 METAR LPPR 251400Z VRB03KT 9999 FEW020 26/11 Q1020=
200809251330 METAR LPPR 251330Z 02007KT 330V070 CAVOK 25/11 Q1020=
200809251300 METAR LPPR 251300Z 11005KT 010V170 CAVOK 25/12 Q1020=
200809251230 METAR LPPR 251230Z 11004KT 030V190 CAVOK 25/11 Q1020=
200809251200 METAR LPPR 251200Z 11007KT 060V150 CAVOK 24/11 Q1020=
200809251130 METAR LPPR 251130Z 10008KT 050V140 CAVOK 23/11 Q1020=
200809251100 METAR LPPR 251100Z 10007KT 050V140 CAVOK 23/10 Q1020=
200809251030 METAR LPPR 251030Z 11012KT 070V140 CAVOK 22/09 Q1020=
200809251000 METAR LPPR 251000Z 11012KT 080V140 CAVOK 21/09 Q1020=
200809250930 METAR LPPR 250930Z 12009KT 080V160 CAVOK 20/09 Q1020=
200809250900 METAR LPPR 250900Z 11010KT 080V140 CAVOK 19/08 Q1020=
200809250830 METAR LPPR 250830Z 12011KT CAVOK 19/08 Q1020=
200809250800 METAR LPPR 250800Z 10010KT 070V130 CAVOK 18/08 Q1019=
200809250730 METAR LPPR 250730Z 11010KT 060V140 CAVOK 18/08 Q1019=
200809250700 METAR LPPR 250700Z 11007KT CAVOK 17/08 Q1019=
200809250630 METAR LPPR 250630Z 11007KT CAVOK 17/08 Q1019=
200809250600 METAR LPPR 250600Z 11007KT CAVOK 17/08 Q1019=
200809250530 METAR LPPR 250530Z 10007KT 060V130 CAVOK 17/09 Q1019=
200809250500 METAR LPPR 250500Z 10009KT 080V140 CAVOK 17/09 Q1019=
200809250430 METAR LPPR 250430Z 13008KT CAVOK 17/09 Q1018=
200809250400 METAR LPPR 250400Z 12007KT CAVOK 18/10 Q1018=
200809250330 METAR LPPR 250330Z 12006KT 080V140 CAVOK 17/11 Q1018=
200809250300 METAR LPPR 250300Z 12005KT 080V140 CAVOK 17/12 Q1018=
200809250230 METAR LPPR 250230Z VRB03KT CAVOK 17/14 Q1018=
200809250200 METAR LPPR 250200Z 11006KT CAVOK 18/14 Q1018=
200809250130 METAR LPPR 250130Z 08004KT 050V110 CAVOK 17/14 Q1018=
200809250100 METAR LPPR 250100Z 10005KT 070V130 CAVOK 17/15 Q1018=
200809250030 METAR LPPR 250030Z VRB03KT CAVOK 17/15 Q1018=
200809250000 METAR LPPR 250000Z VRB02KT CAVOK 17/15 Q1018=
200809242330 METAR LPPR 242330Z 08003KT CAVOK 16/15 Q1018=
200809242300 METAR LPPR 242300Z 00000KT CAVOK 15/14 Q1018=
200809242230 METAR LPPR 242230Z 00000KT CAVOK 16/15 Q1018=
200809242200 METAR LPPR 242200Z 00000KT CAVOK 16/15 Q1018=
200809242130 METAR LPPR 242130Z 00000KT CAVOK 16/15 Q1017=
200809242100 METAR LPPR 242100Z 00000KT CAVOK 17/15 Q1017=
200809242030 METAR LPPR 242030Z VRB02KT CAVOK 17/15 Q1017=
200809242000 METAR LPPR 242000Z 00000KT CAVOK 17/15 Q1017=
200809241930 METAR LPPR 241930Z 35004KT CAVOK 17/15 Q1017=
200809241900 METAR LPPR 241900Z 35005KT CAVOK 18/15 Q1016=
200809241830 METAR LPPR 241830Z 35005KT 9999 FEW025 SCT070 19/15 Q1016=
200809241800 METAR LPPR 241800Z 34005KT 9999 FEW025 SCT070 20/14 Q1016=
200809241730 METAR LPPR 241730Z 35006KT 9999 FEW025 SCT070 20/14 Q1016=
200809241700 METAR LPPR 241700Z 33010KT 9999 FEW025 22/14 Q1016=
200809241630 METAR LPPR 241630Z 33009KT 9999 FEW025 22/12 Q1016=
200809241600 METAR LPPR 241600Z 33009KT 9999 FEW025 SCT070 22/13 Q1016=
200809241530 METAR LPPR 241530Z 32008KT 290V350 9999 FEW025 SCT070 22/14
                        Q1016=
200809241500 METAR LPPR 241500Z 31007KT 270V340 9999 FEW025 SCT070 23/14
                        Q1016=
200809241430 METAR LPPR 241430Z 30008KT 270V330 9999 FEW025 SCT080 23/13
                        Q1016=
200809241400 METAR LPPR 241400Z 29005KT 260V320 9999 FEW025 25/14 Q1016=
200809241330 METAR LPPR 241330Z 11004KT 060V150 CAVOK 25/11 Q1016=
200809241300 METAR LPPR 241300Z VRB03KT CAVOK 25/11 Q1016=
200809241230 METAR LPPR 241230Z 08007KT 040V120 9999 FEW025 24/11 Q1016=
200809241200 METAR LPPR 241200Z 10007KT 020V150 9999 FEW025 23/11 Q1016=
200809241130 METAR LPPR 241130Z 10007KT 030V160 9999 FEW025 23/11 Q1016=
200809241100 METAR LPPR 241100Z 09007KT 050V150 9999 FEW025 22/11 Q1016=
200809241030 METAR LPPR 241030Z 09008KT 050V140 CAVOK 21/10 Q1016=
200809241000 METAR LPPR 241000Z 10009KT 060V130 CAVOK 20/09 Q1016=
200809240930 METAR LPPR 240930Z 10007KT 050V140 CAVOK 20/10 Q1016=
200809240900 METAR LPPR 240900Z 10005KT 070V170 CAVOK 19/11 Q1015=
200809240830 METAR LPPR 240830Z 11005KT 080V140 CAVOK 17/11 Q1015=
200809240800 METAR LPPR 240800Z 11006KT 9999 FEW017 17/11 Q1015=
200809240730 METAR LPPR 240730Z 10005KT 060V140 9999 FEW017 16/12 Q1015=
200809240700 METAR LPPR 240700Z VRB03KT 9999 FEW017 15/12 Q1014=
200809240630 METAR LPPR 240630Z VRB03KT CAVOK 15/13 Q1014=
200809240600 METAR LPPR 240600Z VRB02KT CAVOK 14/14 Q1014=
200809240530 METAR LPPR 240530Z 00000KT 3000 BR FEW100 15/15 Q1013=
200809240500 METAR LPPR 240500Z 00000KT 3000 BR SCT008 16/16 Q1013=
200809240430 METAR LPPR 240430Z 09003KT 3000 BR SCT008 16/16 Q1013=
200809240400 METAR LPPR 240400Z 00000KT 3000 BR SCT007 16/16 Q1013=
200809240330 METAR LPPR 240330Z 11004KT 2000 BR SCT002 SCT004 16/16 Q1013=
200809240300 METAR LPPR 240300Z 00000KT 1200 R17/0700V1000D R35/P1500
                        BCFG BKN001 16/16 Q1013=
200809240230 METAR LPPR 240230Z 00000KT 1200 R17/0350V0550N R35/1100VP1500
                        BCFG BKN000 16/16 Q1013=
200809240200 METAR LPPR 240200Z 00000KT 0500 R17/0350N R35/0600N FG BKN000
                        16/16 Q1013=
200809240130 METAR LPPR 240130Z 00000KT 1200 R35/0350N BCFG
                        SCT000 BKN001 16/16 Q1013=
200809240100 METAR LPPR 240100Z 00000KT 2000 BR BKN001 15/15 Q1013=
200809240030 METAR LPPR 240030Z 00000KT 2000 BR SKC 15/15 Q1012=
200809240000 METAR LPPR 240000Z 00000KT 2000 BR SKC 16/16 Q1012=
200809232330 METAR LPPR 232330Z 00000KT 2000 BR SKC 16/16 Q1012=
200809232300 METAR LPPR 232300Z 00000KT 2000 BR SKC 16/16 Q1013=
200809232230 METAR LPPR 232230Z 00000KT 3000 BR SKC 16/16 Q1013=
200809232200 METAR LPPR 232200Z 00000KT 4000 BR SKC 17/16 Q1012=
200809232130 METAR LPPR 232130Z 00000KT 4000 BR SKC 17/17 Q1012=
200809232100 METAR LPPR 232100Z 00000KT 4000 BR FEW080 17/17 Q1013=
200809232030 METAR LPPR 232030Z 00000KT 3000 BR FEW080 18/17 Q1012=
200809232000 METAR LPPR 232000Z 00000KT 3000 BR SKC 18/17 Q1012=
200809231930 METAR LPPR 231930Z 00000KT 4000 BR FEW100 18/17 Q1012=
200809231900 METAR LPPR 231900Z 00000KT 4000 BR FEW100 19/17 Q1012=
200809231830 METAR LPPR 231830Z VRB03KT 5000 BR FEW015 20/17 Q1012=
200809231800 METAR LPPR 231800Z VRB03KT 9999 FEW017 21/17 Q1011=
200809231730 METAR LPPR 231730Z 32006KT 280V360 9999 FEW017 21/17 Q1011=
200809231700 METAR LPPR 231700Z 31007KT 9999 FEW017 21/17 Q1011=
200809231630 METAR LPPR 231630Z 31007KT 270V330 9999 FEW017 22/18 Q1011=
200809231600 METAR LPPR 231600Z 31007G17KT 280V360 9999 FEW017 22/18 Q1011=
200809231530 METAR LPPR 231530Z 30008KT 270V340 9999 FEW017 22/18 Q1011=
200809231500 METAR LPPR 231500Z 31007KT 270V340 9999 FEW017 22/18 Q1011=
200809231430 METAR LPPR 231430Z 29007KT 260V320 8000 FEW017 22/18 Q1011=
200809231400 METAR LPPR 231400Z 28007KT 8000 FEW017 21/18 Q1011=
200809231330 METAR LPPR 231330Z VRB07KT 8000 FEW017 22/18 Q1012=
200809231300 METAR LPPR 231300Z 25007KT 220V280 8000 FEW017 23/18 Q1012=
200809231230 METAR LPPR 231230Z 28007KT 8000 FEW017 23/18 Q1012=
200809231200 METAR LPPR 231200Z 27005KT 250V310 9999 FEW017 23/19 Q1012=
200809231130 METAR LPPR 231130Z 00000KT 9999 FEW017 25/17 Q1012=
200809231100 METAR LPPR 231100Z 00000KT 9999 FEW015 23/18 Q1012=
200809231030 METAR LPPR 231030Z VRB03KT 9999 FEW015 23/18 Q1012=
200809231000 METAR LPPR 231000Z 11004KT 060V170 9999 FEW015 22/17 Q1012=
200809230930 METAR LPPR 230930Z 00000KT 8000 FEW250 21/18 Q1012=
200809230900 METAR LPPR 230900Z 00000KT 7000 FEW250 19/17 Q1012=
200809230830 METAR LPPR 230830Z VRB03KT 6000 FEW250 18/17 Q1012=
200809230800 METAR LPPR 230800Z VRB03KT 5000 BR FEW200 17/17 Q1011=
200809230730 METAR LPPR 230730Z 11005KT 5000 BR FEW070 16/16 Q1011=
200809230700 METAR LPPR 230700Z 00000KT 4000 R17/1200VP1500 R35/P1500
                        BR FEW070 15/15 Q1011=
200809230630 METAR LPPR 230630Z VRB02KT 2000 BR VCFG FEW070 15/15 Q1011=
200809230600 METAR LPPR 230600Z 11004KT 3000 BR VCFG SKC 15/15 Q1011=
200809230530 METAR LPPR 230530Z VRB03KT 3000 BR VCFG SKC 15/15 Q1011=
200809230500 METAR LPPR 230500Z 11002KT 1500 R17/0750V1000D R35/P1500
                        BR VCFG SKC 14/14 Q1011=
200809230430 METAR LPPR 230430Z 00000KT 0500 R17/0600U R35/0350V0550U
                        BCFG SKC 14/14 Q1011=
200809230400 METAR LPPR 230400Z 01002KT 1500NW R17/0450N BR
                        VCFG SKC 14/14 Q1011=
200809230330 METAR LPPR 230330Z 00000KT 2500NW R17/1100VP1500 R35/P1500
                        VCFG BR SKC 15/15 Q1011=
200809230300 METAR LPPR 230300Z 00000KT 2500NW R17/0900VP1500 R35/P1500
                        BR SKC 16/16 Q1011=
200809230230 METAR LPPR 230230Z 10003KT 3000 BR SKC 16/16 Q1011=
200809230200 METAR LPPR 230200Z 00000KT 3000 BR SKC 16/16 Q1011=
200809230130 METAR LPPR 230130Z 00000KT 4000 BR SKC 15/15 Q1011=
200809230100 METAR LPPR 230100Z 00000KT 4000 BR SKC 16/16 Q1012=
200809230030 METAR LPPR 230030Z 00000KT 3500 R17/1000VP1500 R35/P1500
                        BR FEW070 16/16 Q1011=
200809230000 METAR LPPR 230000Z 00000KT 4000 BR FEW070 16/16 Q1012=
200809222330 METAR LPPR 222330Z 00000KT 3000NW R17/0800N BR
                        VCFG FEW070 16/16 Q1012=
200809222300 METAR LPPR 222300Z 00000KT 3000NW R17/1400VP1500 R35/P1500
                        BR VCFG FEW070 16/16 Q1012=
200809222230 METAR LPPR 222230Z 00000KT 3000NW R17/0500V0750N R35/P1500
                        BR VCFG FEW070 16/16 Q1012=
200809222200 METAR LPPR 222200Z 00000KT 2500NW R17/0800N BR
                        VCFG SCT070 17/17 Q1012=
200809222130 METAR LPPR 222130Z 00000KT 2500NW R17/0700V1300N R35/P1500
                        BR VCFG SCT070 17/17 Q1012=
200809222100 METAR LPPR 222100Z 09002KT 5000 BR FEW017 SCT070 18/17 Q1012=
200809222030 METAR LPPR 222030Z 06003KT 5000 BR FEW020 SCT070 18/18 Q1012=
200809222000 METAR LPPR 222000Z 04002KT 5000 BR FEW020 SCT070 18/18 Q1012=
200809221930 METAR LPPR 221930Z 00000KT 5000 BR FEW008 FEW020TCU SCT070
                        18/18 Q1012=
200809221900 METAR LPPR 221900Z 00000KT 5000 BR FEW008 SCT020TCU BKN070
                        19/18 Q1011=
200809221830 METAR LPPR 221830Z 00000KT 5000 BR SCT005 SCT012 FEW020TCU
                        BKN070 19/18 Q1011=
200809221800 METAR LPPR 221800Z 00000KT 5000 BR SCT006 SCT012 FEW020TCU
                        BKN070 19/18 Q1011=
200809221730 METAR LPPR 221730Z 22004KT 190V270 7000 SCT008 BKN012 FEW020TCU
                        20/18 Q1011=
200809221700 METAR LPPR 221700Z 21005KT 190V260 7000 FEW006 SCT009 BKN012
                        FEW020TCU 20/19 Q1011=
200809221630 METAR LPPR 221630Z 21006KT 7000 FEW004 SCT009 BKN012 FEW020TCU
                        20/19 Q1011=
200809221600 METAR LPPR 221600Z 19007KT 170V230 7000 FEW003 SCT006 BKN012
                        FEW020TCU 20/19 Q1011=
200809221530 METAR LPPR 221530Z 19008KT 7000 FEW003 SCT006 BKN013 FEW020TCU
                        20/19 Q1011=
200809221500 METAR LPPR 221500Z 20008KT 6000 FEW008 BKN013 FEW020TCU 20/19
                        Q1011=
200809221430 METAR LPPR 221430Z 19009KT 8000 SCT008 BKN013 20/19 Q1011=
200809221400 METAR LPPR 221400Z 20011KT 8000 SCT008 BKN013 FEW017CB 20/19
                        Q1011=
200809221330 METAR LPPR 221330Z 19010KT 170V230 8000 SCT006 BKN013 FEW017CB
                        20/19 Q1011=
200809221300 METAR LPPR 221300Z 19011KT 7000 SCT008 BKN013 FEW017CB 20/19
                        Q1012=
200809221230 METAR LPPR 221230Z 19010KT 7000 SCT005 BKN013 FEW017CB 20/19
                        Q1012=
200809221200 METAR LPPR 221200Z 19010KT 4000 -SHRA BR SCT005 BKN013 FEW017CB
                        19/19 Q1012=
200809221130 METAR LPPR 221130Z 17008KT 3000 -SHRA BR SCT003 BKN013 FEW017CB
                        19/19 Q1012=
200809221100 METAR LPPR 221100Z 17006KT 140V200 3000 -SHRA BR SCT003 BKN013
                        FEW017CB 19/19 Q1012=
200809221030 METAR LPPR 221030Z 17008KT 3000 -SHRA BR SCT005 BKN015 FEW017CB
                        18/18 Q1012=
200809221000 METAR LPPR 221000Z 18008KT 3000 -SHRA BR SCT007 BKN013 FEW017CB
                        18/18 Q1012=
200809220930 METAR LPPR 220930Z 19008KT 2000 SHRA BR SCT007 BKN015 FEW017CB
                        18/18 Q1012=
200809220900 METAR LPPR 220900Z 17009KT 150V210 2000 RA BR SCT003 BKN008
                        FEW017CB 18/18 Q1011=
200809220830 METAR LPPR 220830Z 18010KT 2000 RA BR SCT003 BKN008 FEW017CB
                        18/18 Q1011 RERA=
200809220800 METAR LPPR 220800Z 19012KT 2000 +RA BR SCT001 BKN004 FEW017CB
                        18/18 Q1011=
200809220730 METAR LPPR 220730Z 19013KT 1200 +RA BR
                        BKN001 BKN003 18/18 Q1011=
200809220700 METAR LPPR 220700Z 18008KT 160V230 1500 RA BR BKN001 BKN003
                        18/18 Q1011=
200809220630 METAR LPPR 220630Z 20008KT 2500 -RA BR BKN001 BKN004 18/18
                        Q1010=
200809220600 METAR LPPR 220600Z 20009KT 170V230 3000 BR BKN001 BKN005
                        18/18 Q1010=
200809220530 METAR LPPR 220530Z 20010KT 3000 BR SCT001 BKN004 18/18 Q1010=
200809220500 METAR LPPR 220500Z 19008KT 3000 BR BKN002 BKN004 19/19 Q1010=
200809220430 METAR LPPR 220430Z 20003KT 3000 BR SCT001 BKN004 BKN013 19/19
                        Q1011=
200809220400 METAR LPPR 220400Z 19003KT 3000 -DZ BR SCT001 SCT005 BKN013
                        19/19 Q1011=
200809220330 METAR LPPR 220330Z 00000KT 3500 -RADZ BR SCT001 BKN005 BKN017
                        19/19 Q1011=
200809220300 METAR LPPR 220300Z 18003KT 3500 -RADZ BR SCT001 BKN004 19/19
                        Q1011=
200809220230 METAR LPPR 220230Z 00000KT 4000 BR SCT007 BKN009 19/18 Q1011=
200809220200 METAR LPPR 220200Z 00000KT 4000 BR SCT005 BKN009 19/18 Q1011=
200809220130 METAR LPPR 220130Z 00000KT 5000 BR FEW005 SCT007 BKN009 19/18
                        Q1011=
200809220100 METAR LPPR 220100Z 00000KT 3500 -SHRA BR SCT005 SCT008 BKN012
                        19/18 Q1011=
200809220030 METAR LPPR 220030Z 00000KT 4000 -SHRA BR SCT004 SCT008 BKN012
                        18/18 Q1012=
200809220000 METAR LPPR 220000Z 18003KT 4000 BR SCT005 SCT008 BKN015 18/18
                        Q1012=
200809212330 METAR LPPR 212330Z 00000KT 3500 BR SCT003 SCT006 BKN020 18/18
                        Q1012=
200809212300 METAR LPPR 212300Z 00000KT 2500NW BR VCFG SCT002 SCT020 BKN090
                        18/18 Q1011=
200809212230 METAR LPPR 212230Z 00000KT 2500 BR VCFG SCT001 SCT020 BKN090
                        18/18 Q1012=
200809212200 METAR LPPR 212200Z 00000KT 2000 BR SCT001 SCT020 BKN090 19/18
                        Q1012=
200809212130 METAR LPPR 212130Z VRB03KT 3500 TS BR FEW020 FEW025CB SCT045
                        BKN090 19/19 Q1012=
200809212100 METAR LPPR 212100Z 00000KT 3500 TS BR FEW020 FEW025CB BKN080
                        19/19 Q1012=
200809212030 METAR LPPR 212030Z VRB03KT 3500 TS BR FEW020 FEW025CB BKN080
                        20/19 Q1011=
200809212000 METAR LPPR 212000Z 00000KT 3000 BR FEW020 SCT045 BKN080 20/19
                        Q1011=
200809211930 METAR LPPR 211930Z VRB03KT 3500 BR SCT020 SCT045 BKN080 20/19
                        Q1011=
200809211900 METAR LPPR 211900Z 11004KT 070V140 3000 BR SCT020 SCT045
                        BKN080 20/20 Q1011=
200809211830 METAR LPPR 211830Z 21004KT 180V240 4000 -RA BR SCT020 FEW025CB
                        BKN080 20/19 Q1012=
200809211800 METAR LPPR 211800Z 02004KT 7000 -RA BR FEW020 FEW025CB BKN080
                        20/19 Q1011=
200809211730 METAR LPPR 211730Z 17006KT 7000 -TSRA BR SCT020 SCT025CB
                        BKN080 20/19 Q1012=
200809211700 METAR LPPR 211700Z 21004KT 180V240 9000 -TSRA BR SCT020 SCT025CB
                        BKN080 21/19 Q1012=
200809211630 METAR LPPR 211630Z 00000KT 7000 -TSRA BR SCT020 SCT202CB
                        BKN080 21/19 Q101 CHECK TEXT NEW
                        ENDING ADDED LPPRYFYX=
200809211600 METAR LPPR 211600Z VRB02KT 9999 SCT020 FEW025CB BKN080 22/18
                        Q1011=
200809211530 METAR LPPR 211530Z 30004KT 270V330 8000 SCT020 FEW025TCU
                        BKN080 BKN200 22/18 Q1012=
200809211500 METAR LPPR 211500Z 33006KT 280V350 7000 FEW020 BKN080 BKN200
                        22/19 Q1012=
200809211430 METAR LPPR 211430Z 32006KT 290V350 5000 BR FEW020 BKN080
                        23/19 Q1012=
200809211400 METAR LPPR 211400Z 33006KT 5000 BR FEW020 BKN080 23/19 Q1012=
200809211330 METAR LPPR 211330Z 29005KT 250V360 5000 BR FEW020 FEW025TCU
                        BKN080 23/19 Q1013=
200809211300 METAR LPPR 211300Z 29004KT 220V340 5000 BR FEW020 FEW025TCU
                        BKN070 23/19 Q1013=
200809211230 METAR LPPR 211230Z 29006KT 240V330 4000 BR FEW020 BKN070
                        23/19 Q1013=
200809211200 METAR LPPR 211200Z 29006KT 4000 BR FEW020 BKN070 22/19 Q1013=
200809211130 METAR LPPR 211130Z 28006KT 250V330 4000 BR FEW020 SCT070
                        22/20 Q1013=
200809211100 METAR LPPR 211100Z 28006KT 250V310 4000 BR FEW020 SCT070
                        23/20 Q1014=
200809211030 METAR LPPR 211030Z 27005KT 210V290 7000 FEW020 SCT070 24/20
                        Q1014=
200809211000 METAR LPPR 211000Z 00000KT 7000 FEW020 SCT070 25/20 Q1014=
200809210930 METAR LPPR 210930Z VRB03KT 5000 BR FEW020 SCT060 23/20 Q1014=
200809210900 METAR LPPR 210900Z 00000KT 5000 BR FEW020 SCT060 22/19 Q1014=
200809210830 METAR LPPR 210830Z VRB03KT 5000 BR FEW020 SCT060 21/19 Q1014=
200809210800 METAR LPPR 210800Z 11006KT 5000 BR FEW020 SCT060 20/19 Q1014=
200809210730 METAR LPPR 210730Z 11005KT 4000 BR FEW020 BKN070 19/19 Q1014=
200809210700 METAR LPPR 210700Z 11005KT 3000 BR FEW020 BKN070 19/19 Q1014=
200809210630 METAR LPPR 210630Z 12005KT 3000 BR FEW020 BKN070 19/19 Q1014=
200809210600 METAR LPPR 210600Z VRB03KT 3000 BR SCT004 SCT017 BKN060 19/19
                        Q1014=
200809210530 METAR LPPR 210530Z VRB03KT 2000 -SHRA BR SCT003 SCT017 BKN040
                        19/19 Q1013=
200809210500 METAR LPPR 210500Z 14004KT 090V160 3000 BR BKN090 BKN200
                        19/19 Q1014=
200809210430 METAR LPPR 210430Z 17005KT 3000 BR BKN090 BKN200 19/19 Q1014=
200809210400 METAR LPPR 210400Z 00000KT 3000 BR BKN070 19/19 Q1014=
200809210330 METAR LPPR 210330Z 20002KT 3000 BR BKN070 19/19 Q1014=
200809210300 METAR LPPR 210300Z 00000KT 4000 BR BKN070 18/18 Q1014=
200809210230 METAR LPPR 210230Z 00000KT 4000 BR BKN070 18/18 Q1014=
200809210200 METAR LPPR 210200Z VRB02KT 4000 BR BKN070 19/19 Q1014=
200809210130 METAR LPPR 210130Z 00000KT 5000 BR BKN070 18/18 Q1014=
200809210100 METAR LPPR 210100Z 19002KT 8000 BKN070 18/18 Q1014=
200809210030 METAR LPPR 210030Z 00000KT 8000 BKN070 19/18 Q1014=
200809210000 METAR LPPR 210000Z VRB02KT 8000 BKN070 19/18 Q1014=
200809202330 METAR LPPR 202330Z 00000KT 8000 SCT250 19/18 Q1014=
200809202300 METAR LPPR 202300Z 06003KT 8000 FEW015 SCT070 20/18 Q1014=
200809202230 METAR LPPR 202230Z 00000KT 8000 FEW015 SCT070 20/18 Q1015=
200809202200 METAR LPPR 202200Z 00000KT 7000 FEW015 SCT070 20/18 Q1015=
200809202130 METAR LPPR 202130Z 00000KT 4000 BR FEW015 SCT070 20/19 Q1015=
200809202100 METAR LPPR 202100Z VRB02KT 4000 BR FEW015 SCT070 19/19 Q1015=
200809202030 METAR LPPR 202030Z 05002KT 4000 BR SCT070 19/19 Q1016=
200809202000 METAR LPPR 202000Z VRB02KT 4000 BR FEW015 SCT040 BKN070 20/19
                        Q1016=
200809201930 METAR LPPR 201930Z 01004KT 340V040 4000 BR FEW015 SCT040
                        BKN070 20/19 Q1016=
200809201900 METAR LPPR 201900Z 01004KT 4000 BR FEW015 SCT040 BKN070 20/19
                        Q1016=
200809201830 METAR LPPR 201830Z 01007KT 4000 BR FEW015 SCT040 BKN070 20/19
                        Q1016=
200809201800 METAR LPPR 201800Z 04007KT 2000 -RA BR SCT007 BKN070 20/19
                        Q1016=
200809201730 METAR LPPR 201730Z 02008KT 5000 -RA FEW005 SCT040 BKN070
                        20/19 Q1016=
200809201700 METAR LPPR 201700Z 35008KT 5000 -RA FEW015 SCT040 BKN080
                        21/19 Q1017=
200809201630 METAR LPPR 201630Z 36007KT 5000 -RA FEW008 BKN080 20/20 Q1017=
200809201600 METAR LPPR 201600Z 32005KT 230V360 3000 -RA FEW008 SCT100
                        BKN250 20/19 Q1017=
200809201530 METAR LPPR 201530Z 28006KT 240V320 4000SW VCSH FEW008 SCT100
                        BKN250 21/19 Q1017=
200809201500 METAR LPPR 201500Z 25009KT 210V280 8000 SCT100 BKN250 22/19
                        Q1017=
200809201430 METAR LPPR 201430Z 25008KT 210V280 CAVOK 22/18 Q1017=
200809201400 METAR LPPR 201400Z 23012KT 200V270 CAVOK 23/16 Q1017=
200809201330 METAR LPPR 201330Z 22016KT CAVOK 28/15 Q1017=
200809201300 METAR LPPR 201300Z 13007KT CAVOK 29/15 Q1016=
200809201230 METAR LPPR 201230Z 11008KT 080V140 CAVOK 29/14 Q1016=
200809201200 METAR LPPR 201200Z 12008KT CAVOK 28/15 Q1016=
200809201130 METAR LPPR 201130Z 11008KT 080V140 CAVOK 28/14 Q1016=
200809201100 METAR LPPR 201100Z 12008KT 080V150 CAVOK 28/14 Q1016=
200809201030 METAR LPPR 201030Z 10007KT 070V130 CAVOK 27/14 Q1016=
200809201000 METAR LPPR 201000Z 11009KT 060V140 CAVOK 27/14 Q1016=
200809200930 METAR LPPR 200930Z 12011KT CAVOK 26/13 Q1017=
200809200900 METAR LPPR 200900Z 10008KT 060V140 CAVOK 25/14 Q1017=
200809200830 METAR LPPR 200830Z 09007KT 050V130 CAVOK 24/14 Q1017=
200809200800 METAR LPPR 200800Z 11006KT 070V140 CAVOK 23/13 Q1017=
200809200730 METAR LPPR 200730Z 10007KT 070V140 CAVOK 22/13 Q1017=
200809200700 METAR LPPR 200700Z 10004KT 050V140 CAVOK 21/13 Q1017=
200809200630 METAR LPPR 200630Z 10008KT CAVOK 21/13 Q1017=
200809200600 METAR LPPR 200600Z 11007KT CAVOK 21/13 Q1017=
200809200530 METAR LPPR 200530Z 10006KT 070V130 CAVOK 21/14 Q1017=
200809200500 METAR LPPR 200500Z VRB02KT CAVOK 17/15 Q1017=
200809200430 METAR LPPR 200430Z 00000KT CAVOK 19/15 Q1017=
200809200400 METAR LPPR 200400Z VRB03KT CAVOK 19/15 Q1017=
200809200330 METAR LPPR 200330Z VRB03KT CAVOK 19/16 Q1017=
200809200300 METAR LPPR 200300Z 11002KT CAVOK 19/17 Q1018=
200809200230 METAR LPPR 200230Z VRB03KT CAVOK 20/17 Q1018=
200809200200 METAR LPPR 200200Z VRB03KT CAVOK 20/17 Q1018=
200809200130 METAR LPPR 200130Z 00000KT CAVOK 18/17 Q1019=
200809200100 METAR LPPR 200100Z 00000KT CAVOK 19/17 Q1019=
200809200030 METAR LPPR 200030Z VRB02KT CAVOK 19/17 Q1018=
200809200000 METAR LPPR 200000Z 07002KT CAVOK 19/16 Q1018=
200809192330 METAR LPPR 192330Z 00000KT CAVOK 20/17 Q1018=
200809192300 METAR LPPR 192300Z 10003KT CAVOK 21/17 Q1018=
200809192230 METAR LPPR 192230Z 11004KT CAVOK 20/17 Q1018=
200809192200 METAR LPPR 192200Z 00000KT CAVOK 20/17 Q1019=
200809192130 METAR LPPR 192130Z 00000KT CAVOK 19/17 Q1019=
200809192100 METAR LPPR 192100Z 00000KT CAVOK 20/16 Q1019=
200809192030 METAR LPPR 192030Z 00000KT CAVOK 20/16 Q1019=
200809192000 METAR LPPR 192000Z 35002KT CAVOK 21/16 Q1018=
200809191930 METAR LPPR 191930Z 36003KT CAVOK 21/16 Q1018=
200809191900 METAR LPPR 191900Z 35004KT CAVOK 22/16 Q1018=
200809191830 METAR LPPR 191830Z 33005KT CAVOK 24/15 Q1018=
200809191800 METAR LPPR 191800Z 33005KT 9999 FEW015 BKN250 25/15 Q1018=
200809191730 METAR LPPR 191730Z 33006KT 9999 FEW015 BKN250 26/16 Q1018=
200809191700 METAR LPPR 191700Z 33005KT 9999 FEW015 BKN250 26/16 Q1018=
200809191630 METAR LPPR 191630Z 34010KT 300V360 9999 FEW015 BKN250 26/15
                        Q1018=
200809191600 METAR LPPR 191600Z 33008KT 290V350 9999 FEW015 BKN250 26/16
                        Q1018=
200809191530 METAR LPPR 191530Z 32008KT 9999 FEW015 SCT250 27/16 Q1018=
200809191500 METAR LPPR 191500Z 33010KT 9999 FEW015 SCT250 27/16 Q1018=
200809191430 METAR LPPR 191430Z 32009KT 290V350 CAVOK 27/17 Q1018=
200809191400 METAR LPPR 191400Z 33009KT CAVOK 26/16 Q1019=
200809191330 METAR LPPR 191330Z 32009KT 280V350 CAVOK 25/17 Q1019=
200809191300 METAR LPPR 191300Z 30008KT 270V330 CAVOK 25/17 Q1019=
200809191230 METAR LPPR 191230Z 31007KT CAVOK 25/18 Q1019=
200809191200 METAR LPPR 191200Z 28006G16KT 260V350 CAVOK 25/18 Q1020=
200809191130 METAR LPPR 191130Z 28006KT 240V310 CAVOK 24/18 Q1020=
200809191100 METAR LPPR 191100Z VRB03KT CAVOK 25/18 Q1020=
200809191030 METAR LPPR 191030Z 00000KT CAVOK 25/17 Q1020=
200809191000 METAR LPPR 191000Z VRB02KT CAVOK 24/17 Q1020=
200809190930 METAR LPPR 190930Z VRB03KT CAVOK 22/16 Q1020=
200809190900 METAR LPPR 190900Z 05004KT 010V110 CAVOK 21/16 Q1020=
200809190830 METAR LPPR 190830Z 05004KT 360V100 CAVOK 21/16 Q1020=
200809190800 METAR LPPR 190800Z 00000KT CAVOK 17/16 Q1020=
200809190730 METAR LPPR 190730Z 00000KT CAVOK 15/15 Q1019=
200809190700 METAR LPPR 190700Z 00000KT CAVOK 14/14 Q1019=
200809190630 METAR LPPR 190630Z 09003KT CAVOK 14/14 Q1019=
200809190600 METAR LPPR 190600Z 00000KT CAVOK 14/14 Q1019=
200809190530 METAR LPPR 190530Z VRB02KT CAVOK 14/14 Q1018=
200809190500 METAR LPPR 190500Z 00000KT CAVOK 14/13 Q1018=
200809190430 METAR LPPR 190430Z 36002KT CAVOK 14/14 Q1018=
200809190400 METAR LPPR 190400Z 00000KT CAVOK 15/14 Q1018=
200809190330 METAR LPPR 190330Z VRB02KT CAVOK 15/14 Q1018=
200809190300 METAR LPPR 190300Z VRB02KT CAVOK 15/14 Q1018=
200809190230 METAR LPPR 190230Z 00000KT CAVOK 14/14 Q1018=
200809190200 METAR LPPR 190200Z 00000KT CAVOK 15/14 Q1018=
200809190130 METAR LPPR 190130Z 09003KT CAVOK 14/14 Q1019=
200809190100 METAR LPPR 190100Z 00000KT CAVOK 15/14 Q1019=
200809190030 METAR LPPR 190030Z 00000KT 8000 SKC 15/14 Q1019=
200809190000 METAR LPPR 190000Z 00000KT 7000 SKC 16/15 Q1019=
200809182330 METAR LPPR 182330Z 14003KT 7000 SKC 16/16 Q1019=
200809182300 METAR LPPR 182300Z 00000KT 7000 SKC 16/15 Q1019=
200809182230 METAR LPPR 182230Z 00000KT 7000 SKC 16/16 Q1019=
200809182200 METAR LPPR 182200Z 00000KT 8000 FEW100 16/16 Q1019=
200809182130 METAR LPPR 182130Z 00000KT 8000 FEW100 16/16 Q1019=
200809182100 METAR LPPR 182100Z 00000KT 7000 FEW100 17/16 Q1019=
200809182030 METAR LPPR 182030Z 00000KT 9000 FEW100 17/16 Q1019=
200809182000 METAR LPPR 182000Z 01003KT CAVOK 17/16 Q1018=
200809181930 METAR LPPR 181930Z VRB03KT CAVOK 17/16 Q1018=
200809181900 METAR LPPR 181900Z 32005KT CAVOK 18/16 Q1018=
200809181830 METAR LPPR 181830Z 32006KT CAVOK 19/16 Q1018=
200809181800 METAR LPPR 181800Z 32007KT 290V010 9999 FEW025TCU 20/15 Q1017=
200809181730 METAR LPPR 181730Z 32008KT 290V350 9999 FEW017 21/15 Q1017=
200809181700 METAR LPPR 181700Z 31007KT 280V340 9999 FEW017 22/15 Q1017=
200809181630 METAR LPPR 181630Z 31008KT 280V340 9999 FEW017 22/15 Q1017=
200809181600 METAR LPPR 181600Z 30008KT 280V360 9999 FEW017 22/15 Q1017=
200809181530 METAR LPPR 181530Z 31009KT 9999 FEW017 23/14 Q1017=
200809181500 METAR LPPR 181500Z 29008KT 260V320 9999 FEW017 FEW030CB 24/15
                        Q1017=
200809181430 METAR LPPR 181430Z 29008KT 9999 FEW017 FEW030CB 24/15 Q1016=
200809181400 METAR LPPR 181400Z 30009KT 260V320 9999 FEW017 FEW030CB 24/16
                        Q1017=
200809181330 METAR LPPR 181330Z 29007KT 250V320 9999 FEW020 FEW030CB 24/16
                        Q1016=
200809181300 METAR LPPR 181300Z VRB03KT 9999 FEW020 FEW030CB 24/17 Q1017=
200809181230 METAR LPPR 181230Z 32006KT 270V350 9999 FEW025 24/17 Q1017=
200809181200 METAR LPPR 181200Z 35004KT 300V030 9999 FEW025 SCT040 23/17
                        Q1017=
200809181130 METAR LPPR 181130Z 02005KT 350V050 9999 FEW025 SCT070 22/17
                        Q1017=
200809181100 METAR LPPR 181100Z 36006KT 340V040 9999 FEW025 SCT040 BKN070
                        21/17 Q1017=
200809181030 METAR LPPR 181030Z 36005KT 9999 FEW025 SCT040 BKN070 21/17
                        Q1017=
200809181000 METAR LPPR 181000Z VRB03KT 9999 FEW025 SCT040 BKN070 19/18
                        Q1017=
200809180930 METAR LPPR 180930Z VRB03KT 9999 FEW025 SCT040 BKN070 19/17
                        Q1016=
200809180900 METAR LPPR 180900Z 00000KT 8000 -SHRA FEW025 SCT040 BKN070
                        19/17 Q1016=
200809180830 METAR LPPR 180830Z VRB03KT 9999 FEW025 SCT040 BKN070 18/17
                        Q1015=
200809180800 METAR LPPR 180800Z 05006KT 020V090 9999 FEW035 BKN065 17/16
                        Q1015=
200809180730 METAR LPPR 180730Z VRB03KT 9999 FEW030 BKN070 17/16 Q1015=
200809180700 METAR LPPR 180700Z 06004KT 020V100 9999 FEW030 BKN070 17/16
                        Q1014=
200809180630 METAR LPPR 180630Z 02004KT 340V050 6000 -SHRA SCT030 BKN070
                        17/16 Q1014=
200809180600 METAR LPPR 180600Z VRB03KT 8000 SCT030 BKN060 17/16 Q1014=
200809180530 METAR LPPR 180530Z 02005KT 350V050 8000 SCT025 BKN060 17/16
                        Q1014=
200809180500 METAR LPPR 180500Z 31004KT 270V360 8000 SCT025 BKN070 17/16
                        Q1015=
200809180430 METAR LPPR 180430Z VRB02KT 6000 -SHRA SCT030 BKN060 17/16
                        Q1015=
200809180400 METAR LPPR 180400Z VRB03KT 8000 BKN060 17/16 Q1014=
200809180330 METAR LPPR 180330Z 00000KT 8000 SCT080 BKN250 17/16 Q1014=
200809180300 METAR LPPR 180300Z 00000KT CAVOK 17/16 Q1014=
200809180230 METAR LPPR 180230Z 00000KT 8000 SCT080 17/15 Q1014=
200809180200 METAR LPPR 180200Z 10004KT CAVOK 17/15 Q1014=
200809180130 METAR LPPR 180130Z 00000KT CAVOK 17/15 Q1014=
200809180100 METAR LPPR 180100Z 00000KT CAVOK 16/15 Q1014=
200809180030 METAR LPPR 180030Z 00000KT CAVOK 16/15 Q1014=
200809180000 METAR LPPR 180000Z 00000KT CAVOK 16/15 Q1014=
200809172330 METAR LPPR 172330Z 00000KT CAVOK 16/15 Q1014=
200809172300 METAR LPPR 172300Z 00000KT CAVOK 16/15 Q1014=
200809172230 METAR LPPR 172230Z 00000KT CAVOK 17/15 Q1014=
200809172200 METAR LPPR 172200Z 00000KT CAVOK 17/16 Q1014=
200809172130 METAR LPPR 172130Z 00000KT CAVOK 17/16 Q1014=
200809172100 METAR LPPR 172100Z 00000KT CAVOK 18/16 Q1014=
200809172030 METAR LPPR 172030Z 00000KT CAVOK 18/16 Q1014=
200809172000 METAR LPPR 172000Z 00000KT CAVOK 18/16 Q1014=
200809171930 METAR LPPR 171930Z 00000KT CAVOK 18/16 Q1013=
200809171900 METAR LPPR 171900Z 04003KT CAVOK 19/16 Q1013=
200809171830 METAR LPPR 171830Z VRB02KT CAVOK 20/16 Q1013=
200809171800 METAR LPPR 171800Z 00000KT 9999 FEW020 SCT090 21/16 Q1013=
200809171730 METAR LPPR 171730Z 27004KT 230V290 9999 FEW020 SCT090 21/16
                        Q1013=
200809171700 METAR LPPR 171700Z 25005KT 210V290 9999 FEW020 SCT070 22/16
                        Q1013=
200809171630 METAR LPPR 171630Z 26005KT 210V300 9999 FEW020 SCT060 23/15
                        Q1012=
200809171600 METAR LPPR 171600Z 28004KT 230V320 9999 FEW020 SCT060 23/15
                        Q1012=
200809171530 METAR LPPR 171530Z 26005KT 230V300 9999 FEW020 BKN050 22/16
                        Q1013=
200809171500 METAR LPPR 171500Z 23004KT 180V260 9999 SCT020 BKN050 23/16
                        Q1012=
200809171430 METAR LPPR 171430Z 26006KT 220V310 9999 SCT020 BKN050 23/15
                        Q1012=
200809171400 METAR LPPR 171400Z 25005KT 200V300 9999 SCT020 SCT040 24/15
                        Q1012=
200809171330 METAR LPPR 171330Z 21007KT 170V260 9999 FEW020 SCT040 23/15
                        Q1013=
200809171300 METAR LPPR 171300Z 21008KT 190V250 9999 SCT030 SCT090 23/15
                        Q1013=
200809171230 METAR LPPR 171230Z 22008KT 180V260 9999 SCT030 SCT090 23/16
                        Q1013=
200809171200 METAR LPPR 171200Z VRB03KT 9999 SCT020 SCT030 22/15 Q1013=
200809171130 METAR LPPR 171130Z 17007KT 120V250 9999 FEW020 SCT090 22/15
                        Q1013=
200809171100 METAR LPPR 171100Z 17008KT 130V220 9999 FEW017 SCT025 21/15
                        Q1013=
200809171030 METAR LPPR 171030Z 17009KT 130V200 9999 SCT017 SCT040 21/15
                        Q1013=
200809171000 METAR LPPR 171000Z 16008KT 9999 FEW020 BKN040 20/15 Q1013=
200809170930 METAR LPPR 170930Z 15006KT 110V210 9999 BKN035 20/15 Q1013=
200809170900 METAR LPPR 170900Z 14005KT 110V170 9999 BKN035 19/15 Q1013=
200809170830 METAR LPPR 170830Z 15005KT 9999 BKN035 18/15 Q1012=
200809170800 METAR LPPR 170800Z 13005KT 9999 SCT030 BKN040 18/15 Q1012=
200809170730 METAR LPPR 170730Z 12006KT 9999 SCT030 BKN040 17/15 Q1012=
200809170700 METAR LPPR 170700Z 12005KT 9999 FEW015 BKN035 17/15 Q1012=
200809170630 METAR LPPR 170630Z 11005KT 9999 FEW015 BKN035 17/15 Q1011=
200809170600 METAR LPPR 170600Z 11005KT 9999 FEW015 BKN035 17/15 Q1011=
200809170530 METAR LPPR 170530Z 12004KT 9999 FEW015 BKN035 17/15 Q1011=
200809170500 METAR LPPR 170500Z 12004KT 9999 SCT013 BKN035 17/15 Q1011=
200809170430 METAR LPPR 170430Z 12005KT 9999 SCT015 BKN035 17/15 Q1011=
200809170400 METAR LPPR 170400Z 13005KT 9999 BKN033 17/15 Q1011=
200809170330 METAR LPPR 170330Z 13005KT 100V160 9999 BKN030 17/15 Q1011=
200809170300 METAR LPPR 170300Z 14005KT 9999 BKN030 17/15 Q1011=
200809170230 METAR LPPR 170230Z 13004KT 9999 SCT030 SCT250 17/16 Q1011=
200809170200 METAR LPPR 170200Z 13005KT 9999 SCT030 SCT250 16/15 Q1011=
200809170130 METAR LPPR 170130Z 13005KT 9999 FEW017 SCT250 16/15 Q1011=
200809170100 METAR LPPR 170100Z 12005KT 9999 FEW017 SCT250 17/16 Q1011=
200809170030 METAR LPPR 170030Z 13004KT 9999 FEW017 SCT025 17/16 Q1012=
200809170000 METAR LPPR 170000Z 17005KT 9999 SCT015 BKN025 18/16 Q1012=
200809162330 METAR LPPR 162330Z 17006KT 9999 SCT017 BKN025 18/16 Q1012=
200809162300 METAR LPPR 162300Z 17005KT 9999 FEW017 BKN025 18/16 Q1012=
200809162230 METAR LPPR 162230Z 15005KT 9999 FEW017 BKN025 18/16 Q1012=
200809162200 METAR LPPR 162200Z 18007KT 9999 FEW017 BKN025 17/16 Q1012=
200809162130 METAR LPPR 162130Z 18006KT 9999 FEW017 SCT250 17/15 Q1012=
200809162100 METAR LPPR 162100Z 17007KT 9999 FEW020 17/16 Q1012=
200809162030 METAR LPPR 162030Z 17007KT 9999 SCT020 18/16 Q1012=
200809162000 METAR LPPR 162000Z 19007KT 9999 FEW015 SCT025 18/16 Q1012=
200809161930 METAR LPPR 161930Z 19007KT 9999 FEW015 19/16 Q1011=
200809161900 METAR LPPR 161900Z 19006KT 9999 FEW017 SCT250 19/16 Q1011=
200809161830 METAR LPPR 161830Z 19006KT 9999 FEW017 SCT250 19/15 Q1011=
200809161800 METAR LPPR 161800Z 20007KT 170V230 9999 SCT017 20/15 Q1011=
200809161730 METAR LPPR 161730Z 22006KT 180V260 9999 SCT017 21/16 Q1011=
200809161700 METAR LPPR 161700Z 23007KT 9999 FEW017 SCT250 21/16 Q1011=
200809161630 METAR LPPR 161630Z 22007KT 180V260 9999 FEW017 BKN250 21/16
                        Q1011=
200809161600 METAR LPPR 161600Z 22006KT 190V280 9999 FEW017 BKN250 21/16
                        Q1011=
200809161530 METAR LPPR 161530Z 22007KT 190V250 9999 FEW020 BKN250 21/16
                        Q1011=
200809161500 METAR LPPR 161500Z 23008KT 200V270 9999 FEW020 BKN250 21/15
                        Q1012=
200809161430 METAR LPPR 161430Z 23007KT 200V260 9999 FEW020 BKN250 21/16
                        Q1012=
200809161400 METAR LPPR 161400Z 24007KT 180V270 CAVOK 22/15 Q1012=
200809161330 METAR LPPR 161330Z 20010KT CAVOK 21/15 Q1012=
200809161300 METAR LPPR 161300Z 21009KT 170V230 9999 FEW020 BKN250 21/15
                        Q1012=
200809161230 METAR LPPR 161230Z 21008KT 180V250 9999 FEW020 SCT250 22/14
                        Q1012=
200809161200 METAR LPPR 161200Z 20006KT 150V230 9999 FEW017 21/15 Q1013=
200809161130 METAR LPPR 161130Z 21008KT 170V260 9999 FEW017 21/15 Q1013=
200809161100 METAR LPPR 161100Z 20006KT 160V260 9999 FEW017 SCT025 21/15
                        Q1013=
200809161030 METAR LPPR 161030Z 19005KT 090V240 9999 FEW017 SCT025 21/15
                        Q1013=
200809161000 METAR LPPR 161000Z 19005KT 150V220 9999 FEW025 20/15 Q1013=
200809160930 METAR LPPR 160930Z 13005KT 100V170 8000 FEW025 19/15 Q1013=
200809160900 METAR LPPR 160900Z 12006KT 8000 FEW030 18/14 Q1013=
200809160830 METAR LPPR 160830Z 12007KT 8000 FEW100 17/14 Q1013=
200809160800 METAR LPPR 160800Z 12006KT 6000 FEW100 16/14 Q1013=
200809160730 METAR LPPR 160730Z 11006KT 5000 BR FEW100 15/13 Q1013=
200809160700 METAR LPPR 160700Z 10006KT 5000 BR FEW100 14/14 Q1013=
200809160630 METAR LPPR 160630Z 11005KT 6000 FEW016 14/13 Q1013=
200809160600 METAR LPPR 160600Z 12005KT 6000 FEW016 14/13 Q1013=
200809160530 METAR LPPR 160530Z 11005KT 8000 FEW009 SCT016 15/14 Q1013=
200809160500 METAR LPPR 160500Z 10004KT 8000 FEW009 SCT014 15/14 Q1013=
200809160430 METAR LPPR 160430Z 10004KT 8000 FEW009 SCT014 14/14 Q1013=
200809160400 METAR LPPR 160400Z 12004KT 8000 SCT009 SCT012 15/14 Q1013=
200809160330 METAR LPPR 160330Z 12004KT 9000 FEW009 SCT012 15/14 Q1013=
200809160300 METAR LPPR 160300Z 11003KT 8000 SCT009 BKN012 16/15 Q1014=
200809160230 METAR LPPR 160230Z 00000KT 7000 BKN008 BKN011 15/15 Q1014=
200809160200 METAR LPPR 160200Z 00000KT 8000 SCT009 BKN011 15/15 Q1014=
200809160130 METAR LPPR 160130Z 00000KT 8000 SCT008 BKN009 15/15 Q1014=
200809160100 METAR LPPR 160100Z 00000KT 8000 SCT008 BKN009 14/14 Q1015=
200809160030 METAR LPPR 160030Z 00000KT 7000 SCT007 BKN009 14/14 Q1015=
200809160000 METAR LPPR 160000Z 11002KT 7000 SCT007 BKN009 15/15 Q1015=
200809152330 METAR LPPR 152330Z 00000KT 6000 SCT006 BKN009 14/14 Q1015=
200809152300 METAR LPPR 152300Z 00000KT 6000 SCT006 BKN009 14/14 Q1016=
200809152230 METAR LPPR 152230Z 00000KT 6000 SCT008 14/14 Q1016=
200809152200 METAR LPPR 152200Z 00000KT 7000 FEW009 15/14 Q1016=
200809152130 METAR LPPR 152130Z 00000KT 9000 FEW008 15/14 Q1016=
200809152100 METAR LPPR 152100Z 00000KT 9999 FEW008 16/15 Q1016=
200809152030 METAR LPPR 152030Z 00000KT 9999 SCT008 16/15 Q1017=
200809152000 METAR LPPR 152000Z 34003KT 8000 SCT007 BKN011 17/15 Q1016=
200809151930 METAR LPPR 151930Z 00000KT 8000 BKN011 18/16 Q1016=
200809151900 METAR LPPR 151900Z VRB03KT 8000 BKN012 18/16 Q1016=
200809151830 METAR LPPR 151830Z 28004KT 9999 FEW012 18/16 Q1016=
200809151800 METAR LPPR 151800Z 30005KT 270V340 9999 SCT012 19/16 Q1016=
200809151730 METAR LPPR 151730Z 32005KT 270V350 9999 SCT012 20/17 Q1016=
200809151700 METAR LPPR 151700Z 30007KT 270V340 9999 SCT012 20/17 Q1017=
200809151630 METAR LPPR 151630Z 30007KT 270V330 9999 SCT012 20/17 Q1017=
200809151600 METAR LPPR 151600Z 32009KT 280V350 9999 FEW013 21/16 Q1017=
200809151530 METAR LPPR 151530Z 31010KT 280V340 CAVOK 21/16 Q1017=
200809151500 METAR LPPR 151500Z 31009KT 280V350 CAVOK 21/16 Q1017=
200809151430 METAR LPPR 151430Z 31010KT CAVOK 20/16 Q1018=
200809151400 METAR LPPR 151400Z 31010KT 280V340 CAVOK 21/16 Q1018=
200809151330 METAR LPPR 151330Z 30011G24KT 280V350 CAVOK 20/15 Q1018=
200809151300 METAR LPPR 151300Z 31011KT 280V340 CAVOK 20/16 Q1018=
200809151230 METAR LPPR 151230Z 31009KT 270V350 CAVOK 21/15 Q1018=
200809151200 METAR LPPR 151200Z 31009KT 280V340 CAVOK 20/15 Q1018=
200809151130 METAR LPPR 151130Z 31008KT 280V360 CAVOK 20/15 Q1019=
200809151100 METAR LPPR 151100Z 30006KT 250V350 CAVOK 20/14 Q1019=
200809151030 METAR LPPR 151030Z 28004KT 250V330 CAVOK 20/15 Q1019=
200809151000 METAR LPPR 151000Z VRB04KT CAVOK 19/15 Q1019=
200809150930 METAR LPPR 150930Z 00000KT CAVOK 19/14 Q1019=
200809150900 METAR LPPR 150900Z 00000KT CAVOK 18/14 Q1019=
200809150830 METAR LPPR 150830Z 12003KT CAVOK 16/13 Q1019=
200809150800 METAR LPPR 150800Z 11003KT CAVOK 15/13 Q1019=
200809150730 METAR LPPR 150730Z 00000KT CAVOK 12/12 Q1019=
200809150700 METAR LPPR 150700Z 00000KT CAVOK 11/11 Q1019=
200809150630 METAR LPPR 150630Z 00000KT 8000 SKC 10/10 Q1019=
200809150600 METAR LPPR 150600Z 00000KT 7000 SKC 11/11 Q1018=
200809150530 METAR LPPR 150530Z VRB03KT 6000 SKC 12/12 Q1018=
200809150500 METAR LPPR 150500Z 00000KT 6000 SKC 12/12 Q1018=
200809150430 METAR LPPR 150430Z 00000KT 5000 BR SKC 11/11 Q1018=
200809150400 METAR LPPR 150400Z 00000KT 5000 BR SKC 12/12 Q1018=
200809150330 METAR LPPR 150330Z VRB02KT 5000 BR SKC 13/13 Q1019=
200809150300 METAR LPPR 150300Z 00000KT 5000 BR SKC 13/13 Q1019=
200809150230 METAR LPPR 150230Z 00000KT 5000 BR SKC 13/13 Q1019=
200809150200 METAR LPPR 150200Z 00000KT 5000 BR SKC 13/13 Q1019=
200809150130 METAR LPPR 150130Z 00000KT 5000 BR SKC 13/12 Q1019=
200809150100 METAR LPPR 150100Z 00000KT 5000 BR SKC 13/13 Q1019=
200809150030 METAR LPPR 150030Z 00000KT 7000 SKC 14/13 Q1020=
200809150000 METAR LPPR 150000Z 01003KT CAVOK 14/13 Q1020=
200809142330 METAR LPPR 142330Z 34003KT CAVOK 14/13 Q1020=
200809142300 METAR LPPR 142300Z 00000KT CAVOK 14/13 Q1020=
200809142230 METAR LPPR 142230Z 36003KT CAVOK 14/13 Q1020=
200809142200 METAR LPPR 142200Z 35004KT CAVOK 14/13 Q1020=
200809142130 METAR LPPR 142130Z 34006KT CAVOK 15/13 Q1020=
200809142100 METAR LPPR 142100Z 00000KT CAVOK 15/13 Q1020=
200809142030 METAR LPPR 142030Z 35004KT CAVOK 15/13 Q1020=
200809142000 METAR LPPR 142000Z 35004KT CAVOK 15/13 Q1020=
200809141930 METAR LPPR 141930Z 35006KT CAVOK 16/14 Q1019=
200809141900 METAR LPPR 141900Z 34008KT CAVOK 17/14 Q1019=
200809141830 METAR LPPR 141830Z 35008KT CAVOK 19/14 Q1019=
200809141800 METAR LPPR 141800Z 34007KT CAVOK 20/14 Q1019=
200809141730 METAR LPPR 141730Z 33008KT CAVOK 21/15 Q1019=
200809141700 METAR LPPR 141700Z 32010KT CAVOK 22/12 Q1019=
200809141630 METAR LPPR 141630Z 33007KT CAVOK 22/11 Q1019=
200809141600 METAR LPPR 141600Z 30008KT 280V350 CAVOK 23/12 Q1019=
200809141530 METAR LPPR 141530Z 31007KT CAVOK 23/12 Q1019=
200809141500 METAR LPPR 141500Z 32010KT CAVOK 22/12 Q1020=
200809141430 METAR LPPR 141430Z 31007KT 260V360 CAVOK 22/12 Q1020=
200809141400 METAR LPPR 141400Z 30007KT 260V350 CAVOK 22/12 Q1020=
200809141330 METAR LPPR 141330Z 30007KT 260V340 CAVOK 22/12 Q1020=
200809141300 METAR LPPR 141300Z 29008KT 260V330 9999 FEW017 21/12 Q1020=
200809141230 METAR LPPR 141230Z 26006KT 210V290 9999 FEW017 23/13 Q1020=
200809141200 METAR LPPR 141200Z 23005KT 180V270 9999 FEW017 23/13 Q1020=
200809141130 METAR LPPR 141130Z 22006KT 190V280 CAVOK 23/12 Q1020=
200809141100 METAR LPPR 141100Z 23005KT 200V330 CAVOK 23/12 Q1020=
200809141030 METAR LPPR 141030Z 14008KT CAVOK 24/09 Q1020=
200809141000 METAR LPPR 141000Z 12007KT CAVOK 23/09 Q1020=
200809140930 METAR LPPR 140930Z 13005KT 090V160 CAVOK 22/10 Q1020=
200809140900 METAR LPPR 140900Z 11006KT 060V150 CAVOK 21/09 Q1020=
200809140830 METAR LPPR 140830Z 11005KT 070V140 CAVOK 20/09 Q1020=
200809140800 METAR LPPR 140800Z 11005KT 080V140 CAVOK 19/09 Q1020=
200809140730 METAR LPPR 140730Z VRB03KT CAVOK 18/09 Q1019=
200809140700 METAR LPPR 140700Z VRB03KT CAVOK 17/09 Q1019=
200809140630 METAR LPPR 140630Z VRB03KT CAVOK 16/10 Q1019=
200809140600 METAR LPPR 140600Z 10005KT 060V120 CAVOK 16/10 Q1019=
200809140530 METAR LPPR 140530Z 10004KT CAVOK 15/11 Q1019=
200809140500 METAR LPPR 140500Z 06003KT CAVOK 14/11 Q1019=
200809140430 METAR LPPR 140430Z 35002KT CAVOK 12/11 Q1019=
200809140400 METAR LPPR 140400Z 05005KT CAVOK 14/11 Q1019=
200809140330 METAR LPPR 140330Z 00000KT CAVOK 13/12 Q1019=
200809140300 METAR LPPR 140300Z 00000KT CAVOK 13/12 Q1019=
200809140230 METAR LPPR 140230Z 00000KT CAVOK 14/12 Q1019=
200809140200 METAR LPPR 140200Z 00000KT CAVOK 14/13 Q1019=
200809140130 METAR LPPR 140130Z 00000KT CAVOK 14/13 Q1019=
200809140100 METAR LPPR 140100Z 06002KT CAVOK 13/13 Q1019=
200809140030 METAR LPPR 140030Z 00000KT CAVOK 14/13 Q1019=
200809140000 METAR LPPR 140000Z 00000KT CAVOK 15/14 Q1019=
200809132330 METAR LPPR 132330Z 00000KT CAVOK 14/13 Q1019=
200809132300 METAR LPPR 132300Z 00000KT CAVOK 15/14 Q1019=
200809132230 METAR LPPR 132230Z 00000KT CAVOK 15/14 Q1019=
200809132200 METAR LPPR 132200Z 00000KT CAVOK 15/14 Q1019=
200809132130 METAR LPPR 132130Z 00000KT CAVOK 15/14 Q1019=
200809132100 METAR LPPR 132100Z 00000KT CAVOK 15/14 Q1019=
200809132030 METAR LPPR 132030Z 36003KT CAVOK 16/14 Q1019=
200809132000 METAR LPPR 132000Z 34003KT CAVOK 16/14 Q1019=
200809131930 METAR LPPR 131930Z 34006KT CAVOK 17/14 Q1019=
200809131900 METAR LPPR 131900Z 34007KT CAVOK 17/14 Q1019=
200809131830 METAR LPPR 131830Z 33009KT CAVOK 19/15 Q1019=
200809131800 METAR LPPR 131800Z 34009KT CAVOK 20/15 Q1019=
200809131730 METAR LPPR 131730Z 33012KT CAVOK 20/15 Q1019=
200809131700 METAR LPPR 131700Z 33010KT 290V350 CAVOK 21/15 Q1019=
200809131630 METAR LPPR 131630Z 32010KT 290V350 CAVOK 21/15 Q1019=
200809131600 METAR LPPR 131600Z 32010KT CAVOK 22/14 Q1019=
200809131530 METAR LPPR 131530Z 33012KT CAVOK 22/13 Q1019=
200809131500 METAR LPPR 131500Z 33011KT 290V350 CAVOK 22/13 Q1020=
200809131430 METAR LPPR 131430Z 31012KT CAVOK 22/12 Q1020=
200809131400 METAR LPPR 131400Z 32011KT 290V350 CAVOK 22/11 Q1020=
200809131330 METAR LPPR 131330Z 32011KT 290V350 CAVOK 22/11 Q1021=
200809131300 METAR LPPR 131300Z 31011KT 290V020 CAVOK 21/11 Q1021=
200809131230 METAR LPPR 131230Z 31008KT 270V340 CAVOK 21/12 Q1021=
200809131200 METAR LPPR 131200Z VRB05KT CAVOK 22/12 Q1021=
200809131130 METAR LPPR 131130Z 01004KT 330V050 CAVOK 21/10 Q1021=
200809131100 METAR LPPR 131100Z 04004KT 330V080 CAVOK 21/09 Q1022=
200809131030 METAR LPPR 131030Z VRB03KT CAVOK 20/10 Q1022=
200809131000 METAR LPPR 131000Z 03005KT 340V070 CAVOK 19/10 Q1022=
200809130930 METAR LPPR 130930Z 02005KT 350V050 CAVOK 18/10 Q1022=
200809130900 METAR LPPR 130900Z VRB03KT CAVOK 17/10 Q1022=
200809130830 METAR LPPR 130830Z VRB03KT CAVOK 16/11 Q1022=
200809130800 METAR LPPR 130800Z 00000KT CAVOK 13/11 Q1021=
200809130730 METAR LPPR 130730Z 05002KT CAVOK 11/11 Q1021=
200809130700 METAR LPPR 130700Z 00000KT CAVOK 10/09 Q1021=
200809130630 METAR LPPR 130630Z 36002KT CAVOK 09/09 Q1021=
200809130600 METAR LPPR 130600Z 03003KT CAVOK 10/09 Q1021=
200809130530 METAR LPPR 130530Z 00000KT CAVOK 09/09 Q1021=
200809130500 METAR LPPR 130500Z 36002KT CAVOK 10/09 Q1021=
200809130430 METAR LPPR 130430Z 01003KT CAVOK 10/09 Q1021=
200809130400 METAR LPPR 130400Z 00000KT CAVOK 10/09 Q1021=
200809130330 METAR LPPR 130330Z 00000KT CAVOK 11/10 Q1021=
200809130300 METAR LPPR 130300Z 00000KT CAVOK 11/09 Q1021=
200809130230 METAR LPPR 130230Z 00000KT CAVOK 11/10 Q1021=
200809130200 METAR LPPR 130200Z VRB03KT CAVOK 12/10 Q1021=
200809130130 METAR LPPR 130130Z VRB02KT CAVOK 12/10 Q1022=
200809130100 METAR LPPR 130100Z 00000KT CAVOK 13/10 Q1022=
200809130030 METAR LPPR 130030Z 35004KT CAVOK 13/10 Q1022=
200809130000 METAR LPPR 130000Z 35007KT CAVOK 14/11 Q1022=
200809122330 METAR LPPR 122330Z 04006KT CAVOK 15/11 Q1022=
200809122300 METAR LPPR 122300Z 02005KT 350V050 CAVOK 15/12 Q1022=
200809122230 METAR LPPR 122230Z 03005KT 350V060 CAVOK 15/12 Q1022=
200809122200 METAR LPPR 122200Z 36004KT 340V050 CAVOK 14/11 Q1022=
200809122130 METAR LPPR 122130Z 36005KT CAVOK 14/12 Q1022=
200809122100 METAR LPPR 122100Z 35007KT CAVOK 14/12 Q1022=
200809122030 METAR LPPR 122030Z 35007KT CAVOK 15/12 Q1022=
200809122000 METAR LPPR 122000Z 36006KT CAVOK 16/12 Q1022=
200809121930 METAR LPPR 121930Z 35007KT CAVOK 16/12 Q1022=
200809121900 METAR LPPR 121900Z 34010KT 9999 FEW017 17/12 Q1022=
200809121830 METAR LPPR 121830Z 34013KT 9999 FEW017 18/13 Q1021=
200809121800 METAR LPPR 121800Z 33015KT 9999 FEW017 18/12 Q1021=
200809121730 METAR LPPR 121730Z 34017KT 9999 FEW017 19/12 Q1021=
200809121700 METAR LPPR 121700Z 34016KT 9999 FEW017 19/13 Q1021=
200809121630 METAR LPPR 121630Z 34015KT 300V360 9999 FEW017 20/13 Q1021=
200809121600 METAR LPPR 121600Z 33014KT 9999 FEW017 20/14 Q1021=
200809121530 METAR LPPR 121530Z 33015KT 300V010 9999 FEW017 20/13 Q1021=
200809121500 METAR LPPR 121500Z 33015KT 290V350 9999 FEW017 20/13 Q1021=
200809121430 METAR LPPR 121430Z 33015KT 9999 SCT017 20/12 Q1022=
200809121400 METAR LPPR 121400Z 32013KT 290V350 9999 FEW017 20/12 Q1022=
200809121330 METAR LPPR 121330Z 32014KT 280V350 9999 SCT017 20/13 Q1023=
200809121300 METAR LPPR 121300Z 31011KT 9999 SCT017 20/13 Q1023=
200809121230 METAR LPPR 121230Z 31008KT 280V340 9999 SCT017 19/13 Q1023=
200809121200 METAR LPPR 121200Z 36005KT 290V050 9999 SCT017 20/13 Q1023=
200809121130 METAR LPPR 121130Z 02007KT 340V070 9999 SCT017 20/11 Q1024=
200809121100 METAR LPPR 121100Z 01006KT 320V060 9999 SCT017 19/11 Q1024=
200809121030 METAR LPPR 121030Z 02007KT 340V060 9999 SCT020 18/12 Q1024=
200809121000 METAR LPPR 121000Z 02006KT 350V070 9999 FEW020 SCT060 18/12
                        Q1024=
200809120930 METAR LPPR 120930Z 03005KT 350V070 CAVOK 17/12 Q1024=
200809120900 METAR LPPR 120900Z 04004KT 350V080 CAVOK 17/12 Q1024=
200809120830 METAR LPPR 120830Z VRB03KT CAVOK 16/11 Q1024=
200809120800 METAR LPPR 120800Z 00000KT CAVOK 15/11 Q1024=
200809120730 METAR LPPR 120730Z 00000KT CAVOK 12/12 Q1023=
200809120700 METAR LPPR 120700Z 00000KT CAVOK 11/10 Q1023=
200809120630 METAR LPPR 120630Z 07002KT CAVOK 11/11 Q1023=
200809120600 METAR LPPR 120600Z 00000KT CAVOK 10/10 Q1022=
200809120530 METAR LPPR 120530Z 00000KT CAVOK 10/10 Q1022=
200809120500 METAR LPPR 120500Z 00000KT CAVOK 10/10 Q1022=
200809120430 METAR LPPR 120430Z 00000KT CAVOK 11/10 Q1022=
200809120400 METAR LPPR 120400Z 00000KT CAVOK 11/10 Q1022=
200809120330 METAR LPPR 120330Z 00000KT CAVOK 11/10 Q1022=
200809120300 METAR LPPR 120300Z 00000KT CAVOK 11/10 Q1022=
200809120230 METAR LPPR 120230Z VRB02KT CAVOK 11/10 Q1022=
200809120200 METAR LPPR 120200Z 00000KT CAVOK 11/10 Q1022=
200809120130 METAR LPPR 120130Z 00000KT CAVOK 12/10 Q1022=
200809120100 METAR LPPR 120100Z 00000KT CAVOK 12/11 Q1022=
200809120030 METAR LPPR 120030Z 03002KT CAVOK 13/11 Q1022=
200809120000 METAR LPPR 120000Z VRB03KT CAVOK 13/11 Q1022=
200809112330 METAR LPPR 112330Z VRB03KT CAVOK 13/11 Q1022=
200809112300 METAR LPPR 112300Z 01003KT CAVOK 13/11 Q1022=
200809112230 METAR LPPR 112230Z 01004KT CAVOK 13/11 Q1022=
200809112200 METAR LPPR 112200Z 01004KT CAVOK 14/11 Q1022=
200809112130 METAR LPPR 112130Z 36005KT CAVOK 14/11 Q1022=
200809112100 METAR LPPR 112100Z 35005KT CAVOK 14/11 Q1022=
200809112030 METAR LPPR 112030Z 35003KT 9999 FEW017 SCT250 14/11 Q1021=
200809112000 METAR LPPR 112000Z 36004KT 9999 FEW017 SCT250 15/11 Q1021=
200809111930 METAR LPPR 111930Z 33008KT 9999 FEW017 SCT250 16/11 Q1021=
200809111900 METAR LPPR 111900Z 34012KT 9999 FEW017 SCT250 17/10 Q1020=
200809111830 METAR LPPR 111830Z 34014KT 9999 FEW015 SCT250 17/12 Q1020=
200809111800 METAR LPPR 111800Z 33014KT 9999 FEW015 SCT250 19/11 Q1020=
200809111730 METAR LPPR 111730Z 34015KT 9999 FEW015 SCT250 19/12 Q1020=
200809111700 METAR LPPR 111700Z 34015KT 9999 FEW015 19/12 Q1020=
200809111630 METAR LPPR 111630Z 33017KT 9999 FEW015 20/11 Q1020=
200809111600 METAR LPPR 111600Z 34017KT 9999 FEW015 20/11 Q1019=
200809111530 METAR LPPR 111530Z 34019KT 300V010 9999 SCT015 21/12 Q1019=
200809111500 METAR LPPR 111500Z 33015KT 290V350 9999 SCT015 21/12 Q1019=
200809111430 METAR LPPR 111430Z 33016KT 9999 FEW015 21/13 Q1019=
200809111400 METAR LPPR 111400Z 32017KT 9999 FEW015 21/12 Q1019=
200809111330 METAR LPPR 111330Z 33015KT 290V350 9999 FEW017 21/12 Q1019=
200809111300 METAR LPPR 111300Z 32015KT 9999 FEW015 21/11 Q1019=
200809111230 METAR LPPR 111230Z 33013KT 290V360 9999 FEW015 21/13 Q1019=
200809111200 METAR LPPR 111200Z 32016KT 9999 SCT015 20/12 Q1019=
200809111130 METAR LPPR 111130Z 33017KT 9999 SCT015 21/11 Q1019=
200809111100 METAR LPPR 111100Z 34014KT 9999 SCT015 21/12 Q1019=
200809111030 METAR LPPR 111030Z 34014KT 320V020 9999 SCT015 20/12 Q1019=
200809111000 METAR LPPR 111000Z 36008KT 320V020 9999 SCT015 20/14 Q1019=
200809110930 METAR LPPR 110930Z 35007KT 320V020 9999 FEW015 SCT070 19/14
                        Q1019=
200809110900 METAR LPPR 110900Z 01005KT 330V040 9999 FEW015 SCT070 17/15
                        Q1018=
200809110830 METAR LPPR 110830Z 35005KT 9999 FEW015 SCT040 BKN070 17/15
                        Q1018=
200809110800 METAR LPPR 110800Z 35006KT 9999 FEW030 BKN050 16/15 Q1017=
200809110730 METAR LPPR 110730Z 36010KT 9999 SCT030 BKN050 16/14 Q1017=
200809110700 METAR LPPR 110700Z 36007KT 9999 SCT025 BKN040 15/15 Q1016=
200809110630 METAR LPPR 110630Z 35010KT 8000 FEW006 SCT025 BKN035 15/15
                        Q1016=
200809110600 METAR LPPR 110600Z 34017KT 4000 -RA FEW002 BKN006 BKN014
                        16/15 Q1016=
200809110530 METAR LPPR 110530Z 34016KT 4000 -RA FEW002 BKN007 BKN014
                        16/16 Q1016=
200809110500 METAR LPPR 110500Z 34011KT 3000 -RADZ SCT002 BKN008 19/19
                        Q1015 RERA=
200809110430 METAR LPPR 110430Z 18012KT 3000 RADZ BR SCT005 BKN009 19/18
                        Q1015=
200809110400 METAR LPPR 110400Z 18008KT 8000 SCT005 BKN009 19/18 Q1015=
200809110330 METAR LPPR 110330Z 19006KT 8000 SCT005 BKN009 19/18 Q1015=
200809110300 METAR LPPR 110300Z 18008KT 9999 BKN009 BKN013 19/18 Q1015=
200809110230 METAR LPPR 110230Z 18005KT 9999 FEW009 SCT013 BKN020 19/18
                        Q1015=
200809110200 METAR LPPR 110200Z VRB03KT 9999 FEW009 SCT013 BKN017 19/18
                        Q1015=
200809110130 METAR LPPR 110130Z 13003KT 9999 SCT009 BKN017 19/18 Q1015=
200809110100 METAR LPPR 110100Z 14003KT 9999 SCT009 BKN017 19/18 Q1016=
200809110030 METAR LPPR 110030Z 12003KT 9999 SCT008 BKN017 19/18 Q1016=
200809110000 METAR LPPR 110000Z VRB03KT 9999 SCT008 BKN020 19/18 Q1016=
200809102330 METAR LPPR 102330Z 00000KT 9999 SCT008 BKN020 18/18 Q1016=
200809102300 METAR LPPR 102300Z 00000KT 9999 SCT008 BKN020 17/16 Q1017=
200809102230 METAR LPPR 102230Z VRB02KT 9999 SCT009 17/16 Q1017=
200809102200 METAR LPPR 102200Z 00000KT 9999 FEW009 18/17 Q1017=
200809102130 METAR LPPR 102130Z 22002KT 9999 FEW009 18/17 Q1017=
200809102100 METAR LPPR 102100Z 15002KT 9999 FEW009 18/17 Q1017=
200809102030 METAR LPPR 102030Z 00000KT 9999 FEW009 SCT015 18/17 Q1017=
200809102000 METAR LPPR 102000Z 00000KT 9999 SCT015 19/17 Q1017=
200809101930 METAR LPPR 101930Z 00000KT 9999 FEW009 SCT013 19/17 Q1017=
200809101900 METAR LPPR 101900Z 00000KT 9999 FEW009 BKN013 20/18 Q1017=
200809101830 METAR LPPR 101830Z 33004KT 9999 SCT013 BKN017 20/17 Q1017=
200809101800 METAR LPPR 101800Z 30006KT 270V330 9999 SCT015 20/17 Q1017=
200809101730 METAR LPPR 101730Z 30005KT 260V330 9999 FEW017 21/17 Q1016=
200809101700 METAR LPPR 101700Z 31006KT 270V340 9999 FEW017 22/17 Q1016=
200809101630 METAR LPPR 101630Z 30009KT 270V330 9999 FEW015 22/17 Q1016=
200809101600 METAR LPPR 101600Z 31009KT 280V340 9999 FEW015 22/17 Q1016=
200809101530 METAR LPPR 101530Z 30007KT 270V330 9999 FEW015 23/17 Q1016=
200809101500 METAR LPPR 101500Z 29008KT 260V320 9999 FEW015 23/17 Q1016=
200809101430 METAR LPPR 101430Z 29006KT 260V320 9999 FEW015 23/17 Q1016=
200809101400 METAR LPPR 101400Z 29005KT 250V330 9999 FEW015 23/15 Q1017=
200809101330 METAR LPPR 101330Z 28007KT 240V320 9999 FEW015 22/17 Q1017=
200809101300 METAR LPPR 101300Z 26005KT 200V330 9999 FEW015 23/18 Q1017=
200809101230 METAR LPPR 101230Z VRB03KT 8000 SCT013 22/19 Q1017=
200809101200 METAR LPPR 101200Z 27005KT 240V310 6000 SCT006 SCT008 21/19
                        Q1018=
200809101130 METAR LPPR 101130Z 29005KT 260V320 4000 BR SCT003 BKN006
                        20/19 Q1018=
200809101100 METAR LPPR 101100Z 28005KT 250V310 2000 BR VCFG SCT001 BKN003
                        20/19 Q1018=
200809101030 METAR LPPR 101030Z VRB03KT 2000 BR VCFG SCT001 BKN003 19/19
                        Q1018=
200809101000 METAR LPPR 101000Z VRB03KT 1500 BR VCFG SCT001 BKN002 19/19
                        Q1018=
200809100930 METAR LPPR 100930Z 00000KT 0600 R17/0700V1200U R35/0700V1000N
                        BCFG SCT000 BKN001 18/18 Q1018=
200809100900 METAR LPPR 100900Z VRB03KT 0400 R17/0700U R35/1100VP1500
                        BCFG SCT000 BKN001 18/18 Q1018=
200809100830 METAR LPPR 100830Z VRB02KT 1500 BR SCT000 BKN003 18/18 Q1017=
200809100800 METAR LPPR 100800Z 00000KT 2500 BR SCT002 BKN005 18/18 Q1017=
200809100730 METAR LPPR 100730Z 00000KT 3000 BR SCT006 17/17 Q1017=
200809100700 METAR LPPR 100700Z 00000KT 4000 BR FEW002 16/16 Q1017=
200809100630 METAR LPPR 100630Z 00000KT 1500 VCFG BR SCT001 16/16 Q1017=
200809100600 METAR LPPR 100600Z 00000KT 1500 VCFG BR SCT000 BKN001 16/16
                        Q1016=
200809100530 METAR LPPR 100530Z 00000KT 4000 BR SCT002 BKN006 16/16 Q1016=
200809100500 METAR LPPR 100500Z 00000KT 3000 BR SCT003 BKN006 15/15 Q1016=
200809100430 METAR LPPR 100430Z 00000KT 0900 R17/0700V1000N R35/P1500
                        BCFG FEW001 SCT004 16/16 Q1016=
200809100400 METAR LPPR 100400Z 00000KT 0800 R17/0600N R35/0750VP1500
                        BCFG SCT001 16/16 Q1016=
200809100330 METAR LPPR 100330Z 33002KT 0400 R17/0450N R35/0750VP1500
                        FG BKN000 16/16 Q1016=
200809100300 METAR LPPR 100300Z 00000KT 0400 R17/0450V0650D R35/P1500
                        FG SCT000 16/16 Q1016=
200809100230 METAR LPPR 100230Z 00000KT 0700 R17/0800N FG SCT000
                        17/17 Q1016=
200809100200 METAR LPPR 100200Z 00000KT 0600 R17/0600N R35/1300VP1500
                        FG SCT000 17/17 Q1016=
200809100130 METAR LPPR 100130Z 00000KT 0400 R17/0600N R35/0450V0700N
                        FG SCT000 18/18 Q1016=
200809100100 METAR LPPR 100100Z 00000KT 0300 R17/0450N R35/0350N FG SCT000
                        BKN001 18/18 Q1017=
200809100030 METAR LPPR 100030Z VRB02KT 0600 R17/0650N R35/0700VP1500
                        FG SCT005 18/18 Q1016=
200809100000 METAR LPPR 100000Z VRB02KT 0500 R17/0600N R35/0600N FG SCT000
                        BKN001 19/19 Q1017=
200809092330 METAR LPPR 092330Z 00000KT 0500 R17/0650V0900D R35/0550V0800N
                        FG SCT000 BKN001 19/19 Q1016=
200809092300 METAR LPPR 092300Z 00000KT 3000 VCFG BR SCT001 BKN002 18/18
                        Q1016=
200809092230 METAR LPPR 092230Z 00000KT 8000 FEW250 18/18 Q1016=
200809092200 METAR LPPR 092200Z 00000KT 8000 SCT250 18/18 Q1016=
200809092130 METAR LPPR 092130Z 00000KT 9999 FEW012 SCT250 19/18 Q1016=
200809092100 METAR LPPR 092100Z 00000KT 9999 FEW012 SCT250 19/19 Q1016=
200809092030 METAR LPPR 092030Z 00000KT 9999 FEW012 19/19 Q1015=
200809092000 METAR LPPR 092000Z 00000KT 9999 FEW012 19/19 Q1015=
200809091930 METAR LPPR 091930Z VRB03KT 9999 SCT012 20/19 Q1015=
200809091900 METAR LPPR 091900Z 35004KT 9999 FEW012 SCT250 20/19 Q1015=
200809091830 METAR LPPR 091830Z 32005KT 280V340 9999 FEW015 SCT250 21/19
                        Q1014=
200809091800 METAR LPPR 091800Z 30004KT 260V350 9999 FEW017 SCT250 22/19
                        Q1014=
200809091730 METAR LPPR 091730Z 29005G15KT 270V360 9999 FEW017 SCT250
                        22/19 Q1014=
200809091700 METAR LPPR 091700Z 30006KT 270V330 9999 FEW017 SCT250 23/19
                        Q1014=
200809091630 METAR LPPR 091630Z 30007KT 270V020 9999 FEW017 SCT070 22/19
                        Q1014=
200809091600 METAR LPPR 091600Z 28010KT 250V320 9999 FEW017 SCT070 23/19
                        Q1014=
200809091530 METAR LPPR 091530Z 30008KT 240V350 9999 FEW017 SCT070 25/19
                        Q1013=
200809091500 METAR LPPR 091500Z 27005KT 230V300 9999 FEW017 25/18 Q1013=
200809091430 METAR LPPR 091430Z 26005KT 210V300 9999 FEW017 25/18 Q1013=
200809091400 METAR LPPR 091400Z 26007KT 230V300 9999 FEW017 25/18 Q1013=
200809091330 METAR LPPR 091330Z 27004KT 210V330 9999 FEW017 26/18 Q1013=
200809091300 METAR LPPR 091300Z 26005KT 220V320 9999 FEW017 SCT070 25/18
                        Q1014=
200809091230 METAR LPPR 091230Z 26006KT 210V300 9999 FEW017 SCT070 24/18
                        Q1013=
200809091200 METAR LPPR 091200Z 27005KT 9999 FEW017 SCT070 24/18 Q1013=
200809091130 METAR LPPR 091130Z VRB02KT 9999 FEW017 BKN080 25/18 Q1013=
200809091100 METAR LPPR 091100Z VRB03KT 9999 FEW017 SCT025 BKN045 24/18
                        Q1014=
200809091030 METAR LPPR 091030Z VRB02KT 9999 FEW017 BKN025 23/18 Q1014=
200809091000 METAR LPPR 091000Z VRB03KT 9999 FEW017 BKN023 22/17 Q1014=
200809090930 METAR LPPR 090930Z VRB02KT 9999 FEW017 BKN023 21/17 Q1013=
200809090900 METAR LPPR 090900Z 00000KT 9999 FEW017 BKN023 20/18 Q1013=
200809090830 METAR LPPR 090830Z 11004KT 060V130 9999 FEW017 BKN025 19/17
                        Q1013=
200809090800 METAR LPPR 090800Z 12004KT 080V150 9999 FEW017 BKN025 18/17
                        Q1013=
200809090730 METAR LPPR 090730Z 12004KT 9999 FEW017 BKN025 18/16 Q1013=
200809090700 METAR LPPR 090700Z 11006KT 8000 SCT020 17/16 Q1012=
200809090630 METAR LPPR 090630Z 11004KT 9999 FEW020 17/16 Q1012=
200809090600 METAR LPPR 090600Z 10004KT 9999 FEW015 SCT020 17/16 Q1012=
200809090530 METAR LPPR 090530Z 09003KT 9999 FEW015 BKN020 17/16 Q1012=
200809090500 METAR LPPR 090500Z 00000KT 9999 FEW015 SCT020 16/16 Q1012=
200809090430 METAR LPPR 090430Z 00000KT 9999 FEW017 SCT070 16/16 Q1011=
200809090400 METAR LPPR 090400Z 00000KT 9999 FEW017 SCT060 17/16 Q1011=
200809090330 METAR LPPR 090330Z 00000KT 9999 FEW017 SCT070 17/16 Q1011=
200809090300 METAR LPPR 090300Z 11005KT 9999 FEW017 SCT080 18/16 Q1011=
200809090230 METAR LPPR 090230Z 11007KT 9999 FEW017 SCT030 18/16 Q1011=
200809090200 METAR LPPR 090200Z 11005KT 9999 SCT017 SCT030 18/16 Q1011=
200809090130 METAR LPPR 090130Z 13006KT 9999 SCT017 FEW025CB 18/17 Q1012=
200809090100 METAR LPPR 090100Z 15007KT 8000 -SHRA SCT017 FEW025CB BKN090
                        18/17 Q1012=
200809090030 METAR LPPR 090030Z 12006KT 9999 SCT017 FEW025CB BKN090 19/17
                        Q1012=
200809090000 METAR LPPR 090000Z 09005KT 050V130 9999 TS SCT017 FEW025CB
                        SCT040 19/17 Q1011=
200809082330 METAR LPPR 082330Z 00000KT 6000 -TSRA SCT006 SCT017 FEW025CB
                        19/18 Q1012=
200809082300 METAR LPPR 082300Z 20006KT 9999 FEW008 SCT017 BKN090 20/17
                        Q1013=
200809082230 METAR LPPR 082230Z VRB02KT 9999 FEW017 SCT040 BKN080 19/16
                        Q1012=
200809082200 METAR LPPR 082200Z 00000KT 9999 SCT040 SCT070 20/17 Q1012=
200809082130 METAR LPPR 082130Z 14003KT 9999 -SHRA SCT040 BKN100 20/16
                        Q1012=
200809082100 METAR LPPR 082100Z 12004KT 9999 SCT040 BKN100 20/16 Q1012=
200809082030 METAR LPPR 082030Z 13004KT 9999 SCT040 BKN090 20/16 Q1012=
200809082000 METAR LPPR 082000Z 13004KT CAVOK 20/16 Q1012=
200809081930 METAR LPPR 081930Z 13004KT CAVOK 20/16 Q1012=
200809081900 METAR LPPR 081900Z VRB03KT CAVOK 20/16 Q1012=
200809081830 METAR LPPR 081830Z VRB03KT CAVOK 21/15 Q1012=
200809081800 METAR LPPR 081800Z VRB03KT CAVOK 21/15 Q1012=
200809081730 METAR LPPR 081730Z VRB03KT CAVOK 21/14 Q1012=
200809081700 METAR LPPR 081700Z 22005KT 180V270 CAVOK 21/13 Q1011=
200809081630 METAR LPPR 081630Z 24005KT 210V280 CAVOK 22/13 Q1011=
200809081600 METAR LPPR 081600Z 22007KT CAVOK 23/11 Q1011=
200809081530 METAR LPPR 081530Z 22006KT 180V250 CAVOK 23/10 Q1011=
200809081500 METAR LPPR 081500Z 22007KT 180V250 CAVOK 23/10 Q1011=
200809081430 METAR LPPR 081430Z 23007KT 200V270 CAVOK 23/12 Q1012=
200809081400 METAR LPPR 081400Z 23008KT 180V260 CAVOK 23/13 Q1012=
200809081330 METAR LPPR 081330Z 24008KT 200V280 CAVOK 23/15 Q1012=
200809081300 METAR LPPR 081300Z 24007KT 190V270 CAVOK 23/14 Q1012=
200809081230 METAR LPPR 081230Z 22007KT 180V250 CAVOK 23/15 Q1012=
200809081200 METAR LPPR 081200Z 21009KT 160V250 CAVOK 22/15 Q1012=
200809081130 METAR LPPR 081130Z 21008KT 170V240 CAVOK 22/14 Q1012=
200809081100 METAR LPPR 081100Z 18011KT 160V220 CAVOK 22/12 Q1012=
200809081030 METAR LPPR 081030Z 18008KT CAVOK 21/12 Q1012=
200809081000 METAR LPPR 081000Z 19007KT 150V270 CAVOK 20/13 Q1013=
200809080930 METAR LPPR 080930Z 18006KT CAVOK 19/13 Q1012=
200809080900 METAR LPPR 080900Z 19005KT 130V220 CAVOK 19/14 Q1012=
200809080830 METAR LPPR 080830Z 15005KT 120V180 CAVOK 17/14 Q1012=
200809080800 METAR LPPR 080800Z 14005KT 110V180 CAVOK 16/13 Q1012=
200809080730 METAR LPPR 080730Z 14004KT CAVOK 14/12 Q1012=
200809080700 METAR LPPR 080700Z 12006KT CAVOK 13/12 Q1011=
200809080630 METAR LPPR 080630Z VRB02KT CAVOK 13/11 Q1011=
200809080600 METAR LPPR 080600Z 11005KT CAVOK 13/11 Q1011=
200809080530 METAR LPPR 080530Z 11006KT CAVOK 13/11 Q1011=
200809080500 METAR LPPR 080500Z VRB03KT CAVOK 12/12 Q1011=
200809080430 METAR LPPR 080430Z 00000KT CAVOK 12/11 Q1012=
200809080400 METAR LPPR 080400Z 00000KT CAVOK 12/11 Q1012=
200809080330 METAR LPPR 080330Z 00000KT CAVOK 12/12 Q1012=
200809080300 METAR LPPR 080300Z 00000KT CAVOK 12/11 Q1012=
200809080230 METAR LPPR 080230Z 00000KT CAVOK 12/11 Q1012=
200809080200 METAR LPPR 080200Z 00000KT CAVOK 12/12 Q1013=
200809080130 METAR LPPR 080130Z 00000KT CAVOK 12/11 Q1013=
200809080100 METAR LPPR 080100Z 00000KT CAVOK 13/12 Q1013=
200809080030 METAR LPPR 080030Z 00000KT CAVOK 13/12 Q1013=
200809080000 METAR LPPR 080000Z 00000KT CAVOK 13/12 Q1013=
200809072330 METAR LPPR 072330Z 00000KT CAVOK 13/12 Q1013=
200809072300 METAR LPPR 072300Z 00000KT CAVOK 14/12 Q1013=
200809072230 METAR LPPR 072230Z 00000KT CAVOK 15/13 Q1014=
200809072200 METAR LPPR 072200Z 07003KT CAVOK 14/13 Q1014=
200809072130 METAR LPPR 072130Z 00000KT CAVOK 15/13 Q1014=
200809072100 METAR LPPR 072100Z 00000KT CAVOK 15/13 Q1015=
200809072030 METAR LPPR 072030Z 00000KT CAVOK 16/14 Q1015=
200809072000 METAR LPPR 072000Z 35002KT CAVOK 16/14 Q1015=
200809071930 METAR LPPR 071930Z VRB03KT CAVOK 16/14 Q1014=
200809071900 METAR LPPR 071900Z 33004KT 290V360 CAVOK 17/14 Q1014=
200809071830 METAR LPPR 071830Z 32005KT CAVOK 18/14 Q1014=
200809071800 METAR LPPR 071800Z 31008KT CAVOK 19/14 Q1014=
200809071730 METAR LPPR 071730Z 30006KT 250V330 CAVOK 19/13 Q1014=
200809071700 METAR LPPR 071700Z 28007KT 260V320 CAVOK 20/12 Q1014=
200809071630 METAR LPPR 071630Z 29005KT 250V350 CAVOK 21/11 Q1014=
200809071600 METAR LPPR 071600Z 29006KT 250V330 CAVOK 21/12 Q1014=
200809071530 METAR LPPR 071530Z 28006KT 250V310 CAVOK 20/13 Q1014=
200809071500 METAR LPPR 071500Z 29007KT 260V320 9999 FEW017 21/13 Q1014=
200809071430 METAR LPPR 071430Z 30008KT 260V330 9999 FEW017 21/14 Q1014=
200809071400 METAR LPPR 071400Z 28007KT 9999 FEW017 21/14 Q1015=
200809071330 METAR LPPR 071330Z 29006KT 270V330 9999 FEW017 21/14 Q1015=
200809071300 METAR LPPR 071300Z 30006KT 260V330 9999 FEW017 21/14 Q1015=
200809071230 METAR LPPR 071230Z 28007KT 240V320 9999 FEW017 20/14 Q1015=
200809071200 METAR LPPR 071200Z 28007KT 240V320 9999 FEW017 20/14 Q1016=
200809071130 METAR LPPR 071130Z 28006G16KT 240V320 9999 FEW017 20/14 Q1016=
200809071100 METAR LPPR 071100Z 29005KT 260V360 9999 FEW017 20/15 Q1016=
200809071030 METAR LPPR 071030Z VRB03KT 9999 FEW017 20/13 Q1016=
200809071000 METAR LPPR 071000Z 00000KT CAVOK 20/13 Q1016=
200809070930 METAR LPPR 070930Z VRB03KT CAVOK 18/13 Q1016=
200809070900 METAR LPPR 070900Z VRB03KT CAVOK 17/13 Q1016=
200809070830 METAR LPPR 070830Z VRB03KT CAVOK 16/13 Q1016=
200809070800 METAR LPPR 070800Z VRB03KT CAVOK 14/12 Q1016=
200809070730 METAR LPPR 070730Z VRB02KT CAVOK 13/12 Q1016=
200809070700 METAR LPPR 070700Z VRB02KT CAVOK 12/12 Q1016=
200809070630 METAR LPPR 070630Z VRB03KT 7000 SKC 11/11 Q1016=
200809070600 METAR LPPR 070600Z 00000KT 7000 SKC 11/11 Q1015=
200809070530 METAR LPPR 070530Z 10004KT 7000 SKC 12/12 Q1016=
200809070500 METAR LPPR 070500Z 00000KT 7000 SKC 11/11 Q1016=
200809070430 METAR LPPR 070430Z 00000KT CAVOK 11/11 Q1015=
200809070400 METAR LPPR 070400Z 00000KT CAVOK 11/11 Q1015=
200809070330 METAR LPPR 070330Z 00000KT CAVOK 12/11 Q1016=
200809070300 METAR LPPR 070300Z 00000KT CAVOK 11/11 Q1016=
200809070230 METAR LPPR 070230Z 00000KT CAVOK 11/11 Q1016=
200809070200 METAR LPPR 070200Z 00000KT CAVOK 12/11 Q1016=
200809070130 METAR LPPR 070130Z 00000KT CAVOK 12/12 Q1016=
200809070100 METAR LPPR 070100Z 00000KT CAVOK 12/12 Q1017=
200809070030 METAR LPPR 070030Z 00000KT CAVOK 13/12 Q1017=
200809070000 METAR LPPR 070000Z 00000KT CAVOK 13/13 Q1017=
200809062330 METAR LPPR 062330Z 00000KT CAVOK 13/12 Q1017=
200809062300 METAR LPPR 062300Z 00000KT CAVOK 14/13 Q1017=
200809062230 METAR LPPR 062230Z 00000KT CAVOK 14/13 Q1017=
200809062200 METAR LPPR 062200Z 00000KT CAVOK 14/13 Q1017=
200809062130 METAR LPPR 062130Z 00000KT CAVOK 15/13 Q1017=
200809062100 METAR LPPR 062100Z 00000KT CAVOK 15/13 Q1017=
200809062030 METAR LPPR 062030Z 00000KT CAVOK 15/13 Q1017=
200809062000 METAR LPPR 062000Z 34003KT CAVOK 16/13 Q1017=
200809061930 METAR LPPR 061930Z 33005KT 290V360 9999 FEW015 17/13 Q1017=
200809061900 METAR LPPR 061900Z 33006KT 9999 FEW025 18/14 Q1016=
200809061830 METAR LPPR 061830Z 33006KT 290V350 9999 FEW025 19/14 Q1016=
200809061800 METAR LPPR 061800Z 32008KT 9999 FEW017 20/14 Q1016=
200809061730 METAR LPPR 061730Z 32010KT 290V350 9999 FEW017 20/12 Q1016=
200809061700 METAR LPPR 061700Z 32010KT 9999 FEW017 20/12 Q1016=
200809061630 METAR LPPR 061630Z 32011KT 9999 FEW017 20/12 Q1016=
200809061600 METAR LPPR 061600Z 32010KT 290V350 9999 FEW017 21/13 Q1016=
200809061530 METAR LPPR 061530Z 32010KT 9999 FEW017 21/13 Q1016=
200809061500 METAR LPPR 061500Z 32010KT 9999 FEW017 21/12 Q1016=
200809061430 METAR LPPR 061430Z 31009KT 270V340 9999 FEW017 21/12 Q1016=
200809061400 METAR LPPR 061400Z 32010KT 280V350 9999 FEW017 22/11 Q1016=
200809061330 METAR LPPR 061330Z 30010KT 280V340 9999 FEW017 21/11 Q1016=
200809061300 METAR LPPR 061300Z 31011KT 9999 FEW017 21/13 Q1016=
200809061230 METAR LPPR 061230Z 32010KT 9999 FEW017 21/15 Q1016=
200809061200 METAR LPPR 061200Z 29008G18KT 260V330 9999 FEW017 21/15 Q1016=
200809061130 METAR LPPR 061130Z 29008G20KT 250V320 9999 FEW017 20/14 Q1016=
200809061100 METAR LPPR 061100Z 28007KT 250V320 9999 SCT017 21/15 Q1016=
200809061030 METAR LPPR 061030Z VRB02KT 9999 SCT015 20/15 Q1015=
200809061000 METAR LPPR 061000Z VRB03KT 9999 SCT017 SCT070 19/16 Q1015=
200809060930 METAR LPPR 060930Z 28004KT 200V330 9999 SCT017 SCT030 19/16
                        Q1015=
200809060900 METAR LPPR 060900Z VRB03KT 9999 SCT017 SCT030 20/15 Q1015=
200809060830 METAR LPPR 060830Z VRB02KT 8000 FEW017 19/16 Q1014=
200809060800 METAR LPPR 060800Z 00000KT 8000 FEW017 18/16 Q1014=
200809060730 METAR LPPR 060730Z 11003KT 8000 FEW017 17/16 Q1014=
200809060700 METAR LPPR 060700Z 13004KT 6000 FEW017 SCT070 16/15 Q1014=
200809060630 METAR LPPR 060630Z VRB03KT 8000 FEW015 SCT025 BKN060 16/15
                        Q1013=
200809060600 METAR LPPR 060600Z 00000KT 6000 FEW015 SCT023 BKN060 16/16
                        Q1013=
200809060530 METAR LPPR 060530Z 00000KT 9999 FEW015 SCT025 BKN060 16/16
                        Q1013=
200809060500 METAR LPPR 060500Z 00000KT 9999 FEW015 SCT025 BKN060 16/16
                        Q1013=
200809060430 METAR LPPR 060430Z 00000KT 9999 FEW015 SCT025 BKN060 16/16
                        Q1012=
200809060400 METAR LPPR 060400Z 12005KT 9999 SCT015 SCT022 15/15 Q1012=
200809060330 METAR LPPR 060330Z 00000KT 9999 FEW015 SCT070 15/15 Q1012=
200809060300 METAR LPPR 060300Z 00000KT 9999 FEW015 SCT060 15/15 Q1012=
200809060230 METAR LPPR 060230Z 00000KT 9999 FEW015 SCT040 16/15 Q1012
                        RERA=
200809060200 METAR LPPR 060200Z 36005KT 330V110 5000 SHRA FEW008 BKN013
                        16/16 Q1012=
200809060130 METAR LPPR 060130Z 00000KT 9999 FEW015 BKN040 17/16 Q1012=
200809060100 METAR LPPR 060100Z 00000KT 9999 FEW015 BKN040 17/16 Q1012=
200809060030 METAR LPPR 060030Z 00000KT 9999 FEW015 SCT070 16/16 Q1012=
200809060000 METAR LPPR 060000Z 00000KT 9999 FEW015 SCT060 17/16 Q1012=
200809052330 METAR LPPR 052330Z 00000KT 9999 FEW015 BKN050 17/17 Q1012=
200809052300 METAR LPPR 052300Z VRB03KT 9999 FEW015 BKN050 18/17 Q1011=
200809052230 METAR LPPR 052230Z 25002KT 9999 SCT015 BKN050 18/17 Q1011=
200809052200 METAR LPPR 052200Z VRB03KT 9999 SCT015 SCT040 18/17 Q1011=
200809052130 METAR LPPR 052130Z 00000KT 9999 SCT015 BKN025 18/17 Q1011=
200809052100 METAR LPPR 052100Z 00000KT 9999 SCT015 SCT030 18/17 Q1011=
200809052030 METAR LPPR 052030Z 22003KT 8000 SCT015 SCT025 18/17 Q1010=
200809052000 METAR LPPR 052000Z 20003KT 8000 SCT015 SCT025 18/17 Q1010=
200809051930 METAR LPPR 051930Z 20004KT 6000 SCT015 SCT025 18/18 Q1009=
200809051900 METAR LPPR 051900Z 21006KT 180V240 6000 SCT015 SCT025 19/18
                        Q1009=
200809051830 METAR LPPR 051830Z 20007KT 170V250 6000 FEW017 SCT025 BKN080
                        19/18 Q1009=
200809051800 METAR LPPR 051800Z 20006KT 170V250 7000 FEW017 SCT025 BKN080
                        19/18 Q1009=
200809051730 METAR LPPR 051730Z 21005KT 170V260 5000 BR FEW015 SCT020
                        BKN080 20/18 Q1008=
200809051700 METAR LPPR 051700Z 22005KT 5000 BR FEW015 SCT020 BKN080 20/18
                        Q1008=
200809051630 METAR LPPR 051630Z 23005KT 180V260 5000 BR FEW015 BKN030
                        20/18 Q1008=
200809051600 METAR LPPR 051600Z 22005KT 170V280 5000 BR FEW015 BKN040
                        20/18 Q1008=
200809051530 METAR LPPR 051530Z 22004KT 180V270 4000 BR FEW015 BKN030
                        19/18 Q1008=
200809051500 METAR LPPR 051500Z 20006KT 3500 BR SCT008 BKN040 19/18 Q1008=
200809051430 METAR LPPR 051430Z 21006KT 3000 -RA BR SCT003 SCT010 BKN025
                        18/18 Q1007=
200809051400 METAR LPPR 051400Z 22006KT 190V270 3000 -RA BR SCT001 BKN003
                        18/18 Q1007=
200809051330 METAR LPPR 051330Z 24004KT 180V280 3000 RADZ BR SCT003 BKN005
                        18/18 Q1007=
200809051300 METAR LPPR 051300Z 23004KT 200V270 3500 RADZ BR SCT003 BKN007
                        18/18 Q1007=
200809051230 METAR LPPR 051230Z 26006KT 210V320 2000 RADZ BR SCT001 BKN003
                        BKN005 18/18 Q1007 WS ALL RWY=
200809051200 METAR LPPR 051200Z 20022KT 2000 RADZ BR SCT001 BKN003 BKN005
                        18/18 Q1006 WS ALL RWY=
200809051130 METAR LPPR 051130Z 20022G33KT 3000 RADZ BR FEW002 BKN004
                        BKN007 18/18 Q1006 WS ALL RWY=
200809051100 METAR LPPR 051100Z 20021G32KT 2000 RADZ BR FEW001 SCT003
                        BKN007 18/18 Q1006=
200809051030 METAR LPPR 051030Z 20024G35KT 2000 RADZ BR SCT004 BKN009
                        18/18 Q1006 WS ALL RWY=
200809051000 METAR LPPR 051000Z 20024KT 2000 RADZ BR SCT004 BKN009 18/18
                        Q1006 WS ALL RWY=
200809050930 METAR LPPR 050930Z 20023G34KT 3000 RADZ BR SCT005 BKN009
                        BKN014 18/18 Q1006=
200809050900 METAR LPPR 050900Z 19026G36KT 3500 -RADZ BR FEW007 BKN010
                        BKN017 18/18 Q1006 WS ALL RWY=
200809050830 METAR LPPR 050830Z 19024KT 4000 -RADZ BR SCT009 SCT017 18/18
                        Q1006=
200809050800 METAR LPPR 050800Z 19025KT 3000 -RADZ BR SCT009 BKN030 18/17
                        Q1006 WS ALL RWY=
200809050730 METAR LPPR 050730Z 19025KT 3000 -RADZ BR FEW015 BKN030 19/17
                        Q1006 WS ALL RWY=
200809050700 METAR LPPR 050700Z 18024G35KT 9999 FEW015 BKN030 19/16 Q1006
                        WS ALL RWY=
200809050630 METAR LPPR 050630Z 18024KT 9999 FEW015 BKN030 19/16 Q1006=
200809050600 METAR LPPR 050600Z 18023KT 9999 FEW015 BKN030 19/16 Q1006=
200809050530 METAR LPPR 050530Z 18020KT 9999 BKN035 19/16 Q1007=
200809050500 METAR LPPR 050500Z 18020KT 9999 BKN040 19/16 Q1007=
200809050430 METAR LPPR 050430Z 18019KT 9999 BKN035 19/16 Q1007=
200809050400 METAR LPPR 050400Z 18017KT 9999 SCT030 BKN040 19/16 Q1007=
200809050330 METAR LPPR 050330Z 18018KT 9999 OVC030 19/16 Q1008=
200809050300 METAR LPPR 050300Z 18017KT 9999 SCT030 BKN040 19/16 Q1008=
200809050230 METAR LPPR 050230Z 18018KT 9999 BKN030 SCT040 19/16 Q1008=
200809050200 METAR LPPR 050200Z 18017KT 9999 OVC030 19/16 Q1009=
200809050130 METAR LPPR 050130Z 18019KT 9999 BKN030 BKN040 19/15 Q1009=
200809050100 METAR LPPR 050100Z 18016KT 9999 BKN030 BKN040 19/15 Q1009=
200809050030 METAR LPPR 050030Z 18016KT 9999 BKN030 19/15 Q1010=
200809050000 METAR LPPR 050000Z 18018KT 9999 SCT030 BKN040 19/16 Q1010=
200809042330 METAR LPPR 042330Z 18016KT 9999 SCT025 BKN040 19/15 Q1010=
200809042300 METAR LPPR 042300Z 18014KT 9999 SCT025 BKN030 19/15 Q1010=
200809042230 METAR LPPR 042230Z 18015KT 9999 FEW015 BKN025 19/15 Q1010=
200809042200 METAR LPPR 042200Z 18013KT 9999 FEW015 BKN030 18/15 Q1010=
200809042130 METAR LPPR 042130Z 18012KT 9999 FEW015 BKN030 18/15 Q1011=
200809042100 METAR LPPR 042100Z 18012KT 9999 FEW015 BKN030 19/15 Q1011=
200809042030 METAR LPPR 042030Z 18011KT 9999 FEW015 BKN030 19/15 Q1011=
200809042000 METAR LPPR 042000Z 18009KT 9999 FEW015 BKN030 19/15 Q1011=
200809041930 METAR LPPR 041930Z 18007KT 9999 FEW015 SCT030 BKN250 19/14
                        Q1011=
200809041900 METAR LPPR 041900Z 18009KT 9999 FEW015 SCT030 BKN250 18/14
                        Q1011=
200809041830 METAR LPPR 041830Z 19008KT 9999 FEW015 SCT030 BKN250 19/14
                        Q1011=
200809041800 METAR LPPR 041800Z 20008KT 160V230 9999 FEW015 SCT030 BKN250
                        19/14 Q1011=
200809041730 METAR LPPR 041730Z 21006KT 180V260 9999 FEW015 SCT030 BKN250
                        19/14 Q1011=
200809041700 METAR LPPR 041700Z 22006KT 200V260 9999 FEW015 SCT030 BKN250
                        19/14 Q1011=
200809041630 METAR LPPR 041630Z 23006KT 190V260 9999 FEW015 SCT030 BKN250
                        20/14 Q1011=
200809041600 METAR LPPR 041600Z 25005KT 190V280 9999 SCT030 BKN250 20/13
                        Q1011=
200809041530 METAR LPPR 041530Z 26005KT 230V300 9999 SCT030 BKN250 20/14
                        Q1011=
200809041500 METAR LPPR 041500Z 27006KT 230V320 9999 SCT030 BKN250 20/14
                        Q1011=
200809041430 METAR LPPR 041430Z 29008KT 260V320 9999 FEW015 SCT030 BKN250
                        20/13 Q1012=
200809041400 METAR LPPR 041400Z VRB08KT 9999 FEW015 SCT030 BKN250 21/13
                        Q1012=
200809041330 METAR LPPR 041330Z 30010KT 260V320 9999 FEW015 SCT030 BKN250
                        20/13 Q1012=
200809041300 METAR LPPR 041300Z 31009G19KT 270V340 9999 FEW015 BKN250
                        20/12 Q1012=
200809041230 METAR LPPR 041230Z 32009KT 270V350 9999 FEW015 BKN250 21/12
                        Q1012=
200809041200 METAR LPPR 041200Z 31009KT 270V330 9999 FEW015 BKN250 20/12
                        Q1012=
200809041130 METAR LPPR 041130Z 31009KT 270V050 9999 SCT015 SCT250 20/14
                        Q1012=
200809041100 METAR LPPR 041100Z 30007KT 270V350 9999 SCT015 SCT250 20/16
                        Q1012=
200809041030 METAR LPPR 041030Z 29005KT 240V340 9999 SCT012 SCT017 20/17
                        Q1012=
200809041000 METAR LPPR 041000Z 29004KT 180V340 9999 FEW008 SCT012 BKN017
                        19/17 Q1011=
200809040930 METAR LPPR 040930Z VRB03KT 9999 SCT008 BKN016 18/16 Q1011=
200809040900 METAR LPPR 040900Z 33005KT 290V350 9999 SCT004 SCT008 BKN017
                        18/17 Q1011=
200809040830 METAR LPPR 040830Z 32006KT 280V340 9999 SCT004 SCT008 BKN016
                        17/17 Q1011=
200809040800 METAR LPPR 040800Z VRB03KT 5000 BR SCT006 SCT013 BKN020 18/17
                        Q1011=
200809040730 METAR LPPR 040730Z 00000KT 5000 BR SCT008 SCT015 BKN025 17/17
                        Q1010=
200809040700 METAR LPPR 040700Z VRB03KT 5000 BR SCT007 SCT015 BKN025 17/17
                        Q1010=
200809040630 METAR LPPR 040630Z VRB03KT 4000 BR SCT005 BKN015 17/17 Q1010=
200809040600 METAR LPPR 040600Z 35004KT 4000 BR SCT002 SCT006 BKN017 17/17
                        Q1010=
200809040530 METAR LPPR 040530Z 35004KT 3000 -DZ BR SCT002 SCT006 BKN017
                        17/17 Q1010=
200809040500 METAR LPPR 040500Z 34003KT 5000 BR SCT005 SCT008 BKN020 17/17
                        Q1009=
200809040430 METAR LPPR 040430Z 00000KT 5000 BR SCT006 SCT009 BKN020 17/17
                        Q1009=
200809040400 METAR LPPR 040400Z 02003KT 5000 BR SCT005 SCT008 BKN015 17/17
                        Q1010=
200809040330 METAR LPPR 040330Z 01005KT 4000 -DZ BR SCT002 BKN006 17/17
                        Q1010=
200809040300 METAR LPPR 040300Z 35006KT 2500 -DZ BR SCT002 BKN005 17/17
                        Q1010=
200809040230 METAR LPPR 040230Z 35004KT 3000 -DZ BR SCT002 BKN005 17/17
                        Q1010=
200809040200 METAR LPPR 040200Z 02003KT 2500 -DZ BR SCT003 BKN008 17/17
                        Q1010=
200809040130 METAR LPPR 040130Z VRB02KT 4000 -DZ BR SCT004 BKN015 17/17
                        Q1010=
200809040100 METAR LPPR 040100Z VRB02KT 3000 -DZ BR SCT003 BKN015 17/17
                        Q1010=
200809040030 METAR LPPR 040030Z VRB02KT 3000 -RA BR SCT006 BKN020 17/17
                        Q1011=
200809040000 METAR LPPR 040000Z 00000KT 3000 -RADZ BR SCT003 BKN007 17/17
                        Q1011=
200809032330 METAR LPPR 032330Z VRB02KT 4000 -RADZ SCT003 BKN008 17/17
                        Q1011=
200809032300 METAR LPPR 032300Z VRB02KT 5000 -RADZ BR SCT003 BKN008 17/17
                        Q1012=
200809032230 METAR LPPR 032230Z 00000KT 5000 -RADZ BR SCT004 BKN020 17/17
                        Q1012=
200809032200 METAR LPPR 032200Z 18006KT 4000 -RADZ BR SCT005 SCT025 BKN080
                        18/17 Q1012=
200809032130 METAR LPPR 032130Z 18005KT 9999 FEW025 SCT040 BKN090 19/17
                        Q1012=
200809032100 METAR LPPR 032100Z 18006KT 9999 FEW025 SCT040 BKN100 19/17
                        Q1012=
200809032030 METAR LPPR 032030Z 18007KT 9999 FEW025 SCT040 BKN100 19/16
                        Q1012=
200809032000 METAR LPPR 032000Z 21005KT 9999 FEW025 SCT040 BKN100 19/17
                        Q1012=
200809031930 METAR LPPR 031930Z 00000KT 9999 FEW025 SCT040 BKN100 19/17
                        Q1012=
200809031900 METAR LPPR 031900Z 00000KT 9999 FEW015 SCT040 BKN100 19/17
                        Q1012=
200809031830 METAR LPPR 031830Z 00000KT 9999 FEW015 SCT035 BKN100 19/17
                        Q1012=
200809031800 METAR LPPR 031800Z 19007KT 160V220 9999 FEW015 SCT035 BKN100
                        20/17 Q1012=
200809031730 METAR LPPR 031730Z 20007KT 9999 -SHRA FEW015 BKN100 20/17
                        Q1013=
200809031700 METAR LPPR 031700Z 20010KT 9999 FEW015 BKN100 20/17 Q1013=
200809031630 METAR LPPR 031630Z 20007KT 170V230 9999 FEW015 BKN090 21/17
                        Q1012=
200809031600 METAR LPPR 031600Z 20009KT 9999 FEW015 SCT030 BKN080 21/15
                        Q1012=
200809031530 METAR LPPR 031530Z 19010KT 9999 FEW015 SCT030 BKN080 20/17
                        Q1013=
200809031500 METAR LPPR 031500Z 19010KT 9999 FEW015 SCT030 BKN080 21/16
                        Q1013=
200809031430 METAR LPPR 031430Z 20009KT 160V240 9999 FEW015 SCT030 BKN080
                        21/16 Q1013=
200809031400 METAR LPPR 031400Z 20010KT 9999 FEW015 SCT030 BKN080 22/16
                        Q1014=
200809031330 METAR LPPR 031330Z 21012KT 9999 FEW015 BKN080 22/15 Q1014=
200809031300 METAR LPPR 031300Z 21012KT 9999 FEW015 BKN080 22/15 Q1014=
200809031230 METAR LPPR 031230Z 21013KT 180V240 9999 SCT015 BKN080 21/16
                        Q1014=
200809031200 METAR LPPR 031200Z 19013KT 9999 FEW015 BKN080 22/17 Q1014=
200809031130 METAR LPPR 031130Z 19014KT 9999 FEW015 SCT030 22/17 Q1014=
200809031100 METAR LPPR 031100Z 21014KT 9999 FEW015 SCT030 21/17 Q1014=
200809031030 METAR LPPR 031030Z 19015KT 9999 FEW015 SCT030 22/17 Q1014=
200809031000 METAR LPPR 031000Z 19011KT 9999 FEW015 SCT030 21/17 Q1014=
200809030930 METAR LPPR 030930Z 19011KT 9999 FEW015 SCT030 20/17 Q1014=
200809030900 METAR LPPR 030900Z 20011KT 9999 FEW015 BKN030 19/17 Q1014=
200809030830 METAR LPPR 030830Z 20008KT 9999 SCT015 BKN030 19/17 Q1013=
200809030800 METAR LPPR 030800Z 17006KT 8000 FEW015 BKN030 18/17 Q1013=
200809030730 METAR LPPR 030730Z 18008KT 8000 -RA FEW015 SCT020 BKN030
                        18/17 Q1013=
200809030700 METAR LPPR 030700Z 18009KT 9999 SCT016 BKN025 18/17 Q1013=
200809030630 METAR LPPR 030630Z 18008KT 9999 SCT016 BKN025 18/17 Q1013=
200809030600 METAR LPPR 030600Z 14006KT 120V180 9999 SCT016 BKN030 18/16
                        Q1012=
200809030530 METAR LPPR 030530Z 12004KT 9999 BKN030 SCT060 18/16 Q1013=
200809030500 METAR LPPR 030500Z 15006KT 9999 BKN030 SCT060 18/16 Q1013=
200809030430 METAR LPPR 030430Z 17007KT 9999 BKN030 SCT070 18/16 Q1013=
200809030400 METAR LPPR 030400Z 17007KT 9999 BKN030 SCT070 18/16 Q1013=
200809030330 METAR LPPR 030330Z 17006KT 9999 BKN040 BKN250 18/16 Q1013=
200809030300 METAR LPPR 030300Z 16005KT 9999 SCT040 SCT070 BKN250 18/16
                        Q1013=
200809030230 METAR LPPR 030230Z 13004KT 9999 SCT040 BKN250 18/16 Q1013=
200809030200 METAR LPPR 030200Z 17004KT 9999 FEW017 SCT040 BKN250 17/16
                        Q1014=
200809030130 METAR LPPR 030130Z 00000KT 9999 FEW020 SCT070 17/15 Q1014=
200809030100 METAR LPPR 030100Z 13003KT 9999 FEW020 SCT070 17/16 Q1014=
200809030030 METAR LPPR 030030Z 14002KT 9999 FEW040 SCT250 17/16 Q1014=
200809030000 METAR LPPR 030000Z 00000KT 9999 FEW040 SCT250 16/15 Q1015=
200809022330 METAR LPPR 022330Z 00000KT 9999 FEW040 SCT250 17/15 Q1015=
200809022300 METAR LPPR 022300Z 00000KT 9999 FEW040 BKN250 17/15 Q1015=
200809022230 METAR LPPR 022230Z 00000KT 9999 FEW040 BKN250 17/15 Q1015=
200809022200 METAR LPPR 022200Z 00000KT 9999 FEW040 BKN250 17/16 Q1016=
200809022130 METAR LPPR 022130Z 00000KT 9999 FEW040 BKN250 18/16 Q1016=
200809022100 METAR LPPR 022100Z 00000KT 9999 FEW040 BKN250 18/16 Q1016=
200809022030 METAR LPPR 022030Z 00000KT 9999 FEW040 BKN250 18/16 Q1016=
200809022000 METAR LPPR 022000Z 00000KT 9999 FEW040 BKN250 18/16 Q1016=
200809021930 METAR LPPR 021930Z 00000KT 9999 FEW040 BKN250 19/16 Q1016=
200809021900 METAR LPPR 021900Z VRB03KT 9999 FEW017 SCT090 BKN250 19/16
                        Q1016=
200809021830 METAR LPPR 021830Z 28004KT 250V320 9999 FEW017 SCT100 BKN250
                        20/16 Q1016=
200809021800 METAR LPPR 021800Z 30005KT 260V330 9999 FEW017 BKN250 20/16
                        Q1016=
200809021730 METAR LPPR 021730Z 28006KT 250V340 9999 FEW017 BKN250 20/16
                        Q1016=
200809021700 METAR LPPR 021700Z 29006KT 250V330 9999 FEW017 BKN250 20/16
                        Q1016=
200809021630 METAR LPPR 021630Z 27008KT 230V320 9999 FEW017 BKN250 21/16
                        Q1016=
200809021600 METAR LPPR 021600Z 28009G20KT 250V320 9999 FEW017 BKN250
                        21/16 Q1016=
200809021530 METAR LPPR 021530Z 29009KT 260V330 9999 FEW017 BKN250 22/16
                        Q1016=
200809021500 METAR LPPR 021500Z 31009KT 9999 FEW017 BKN250 21/16 Q1016=
200809021430 METAR LPPR 021430Z 30009KT 260V330 9999 FEW017 BKN250 22/15
                        Q1017=
200809021400 METAR LPPR 021400Z 30009KT 260V340 9999 FEW017 BKN250 23/16
                        Q1017=
200809021330 METAR LPPR 021330Z 31008KT 260V010 9999 FEW017 BKN250 22/15
                        Q1017=
200809021300 METAR LPPR 021300Z 29009KT 270V330 9999 FEW017 BKN250 22/15
                        Q1017=
200809021230 METAR LPPR 021230Z 29008KT 250V330 9999 FEW017 BKN250 22/16
                        Q1017=
200809021200 METAR LPPR 021200Z 30008G19KT 250V330 9999 SCT017 BKN250
                        22/15 Q1017=
200809021130 METAR LPPR 021130Z 28009KT 260V330 9999 SCT015 SCT250 22/16
                        Q1018=
200809021100 METAR LPPR 021100Z 32005KT 260V350 9999 SCT017 BKN250 22/17
                        Q1018=
200809021030 METAR LPPR 021030Z 29005KT 240V330 9999 SCT015 BKN250 21/17
                        Q1018=
200809021000 METAR LPPR 021000Z 31005KT 270V350 9999 SCT015 BKN250 21/16
                        Q1018=
200809020930 METAR LPPR 020930Z 35006KT 290V020 8000 FEW015 BKN250 21/16
                        Q1018=
200809020900 METAR LPPR 020900Z VRB02KT 8000 FEW015 BKN250 20/16 Q1018=
200809020830 METAR LPPR 020830Z 00000KT 7000 FEW090 BKN250 20/16 Q1018=
200809020800 METAR LPPR 020800Z 10003KT 7000 FEW070 SCT250 18/16 Q1018=
200809020730 METAR LPPR 020730Z 00000KT 6000 FEW070 SCT250 16/16 Q1018=
200809020700 METAR LPPR 020700Z 10002KT 5000 BR FEW070 BKN250 14/14 Q1018=
200809020630 METAR LPPR 020630Z 36002KT 5000 BR FEW070 BKN250 14/14 Q1017=
200809020600 METAR LPPR 020600Z 00000KT 6000 FEW070 BKN250 14/14 Q1017=
200809020530 METAR LPPR 020530Z 00000KT CAVOK 15/15 Q1017=
200809020500 METAR LPPR 020500Z VRB02KT CAVOK 15/15 Q1017=
200809020430 METAR LPPR 020430Z 00000KT CAVOK 14/14 Q1017=
200809020400 METAR LPPR 020400Z 00000KT CAVOK 14/14 Q1017=
200809020330 METAR LPPR 020330Z 00000KT CAVOK 14/14 Q1017=
200809020300 METAR LPPR 020300Z 00000KT CAVOK 15/14 Q1018=
200809020230 METAR LPPR 020230Z 00000KT CAVOK 15/14 Q1018=
200809020200 METAR LPPR 020200Z 00000KT CAVOK 15/14 Q1018=
200809020130 METAR LPPR 020130Z 00000KT CAVOK 15/14 Q1018=
200809020100 METAR LPPR 020100Z 00000KT CAVOK 15/14 Q1018=
200809020030 METAR LPPR 020030Z 00000KT CAVOK 15/14 Q1018=
200809020000 METAR LPPR 020000Z 00000KT CAVOK 16/14 Q1018=
200809012330 METAR LPPR 012330Z 02003KT CAVOK 16/14 Q1019=
200809012300 METAR LPPR 012300Z 35005KT CAVOK 17/15 Q1019=
200809012230 METAR LPPR 012230Z 34005KT 320V020 CAVOK 17/15 Q1019=
200809012200 METAR LPPR 012200Z 34004KT 300V010 CAVOK 17/16 Q1019=
200809012130 METAR LPPR 012130Z 34003KT CAVOK 17/16 Q1019=
200809012100 METAR LPPR 012100Z 33008KT 290V350 9999 FEW008 SCT250 18/17
                        Q1019=
200809012030 METAR LPPR 012030Z 33006KT 9999 SCT006 BKN250 18/17 Q1019=
200809012000 METAR LPPR 012000Z 33006KT 9999 FEW009 SCT250 18/17 Q1019=
200809011930 METAR LPPR 011930Z 32008KT 9999 FEW009 SCT250 19/17 Q1019=
200809011900 METAR LPPR 011900Z 32007KT 290V360 9999 SCT009 SCT250 19/17
                        Q1019=
200809011830 METAR LPPR 011830Z 31006KT 270V340 9999 SCT009 SCT250 19/18
                        Q1019=
200809011800 METAR LPPR 011800Z 29007KT 260V330 9999 FEW009 SCT250 20/17
                        Q1019=
200809011730 METAR LPPR 011730Z 29008KT 260V330 9999 SCT009 SCT250 21/18
                        Q1019=
200809011700 METAR LPPR 011700Z 30008G19KT 260V040 9999 FEW012 SCT250
                        21/17 Q1019=
200809011630 METAR LPPR 011630Z 29009KT 260V330 CAVOK 21/17 Q1019=
200809011600 METAR LPPR 011600Z 29008KT 230V340 CAVOK 22/17 Q1019=
200809011530 METAR LPPR 011530Z 29007KT 260V320 CAVOK 22/17 Q1019=
200809011500 METAR LPPR 011500Z 28007KT 260V320 CAVOK 22/17 Q1019=
200809011430 METAR LPPR 011430Z 30008KT 260V340 CAVOK 22/17 Q1019=
200809011400 METAR LPPR 011400Z 28007KT 250V320 CAVOK 22/17 Q1019=
200809011330 METAR LPPR 011330Z 29006KT 240V330 9999 FEW013 22/17 Q1020=
200809011300 METAR LPPR 011300Z 29007KT 250V340 9999 FEW012 22/17 Q1020=
200809011230 METAR LPPR 011230Z VRB06KT 9999 FEW012 22/17 Q1020=
200809011200 METAR LPPR 011200Z 29007KT 260V320 9999 FEW012 22/17 Q1020=
200809011130 METAR LPPR 011130Z 29007KT 9999 FEW009 22/17 Q1020=
200809011100 METAR LPPR 011100Z 28006KT 240V310 9999 FEW009 22/17 Q1020=
200809011030 METAR LPPR 011030Z VRB03KT 9999 FEW009 23/17 Q1021=
200809011000 METAR LPPR 011000Z 00000KT 9999 FEW009 22/16 Q1021=
200809010930 METAR LPPR 010930Z 00000KT 8000 FEW009 21/16 Q1021=
200809010900 METAR LPPR 010900Z VRB03KT 8000 FEW008 20/16 Q1020=
200809010830 METAR LPPR 010830Z VRB02KT 8000 FEW006 19/16 Q1020=
200809010800 METAR LPPR 010800Z VRB02KT 6000 FEW005 18/16 Q1020=
200809010730 METAR LPPR 010730Z 00000KT 4000 BR FEW003 16/16 Q1021=
200809010700 METAR LPPR 010700Z 00000KT 3000 BR SKC 14/14 Q1020=
200809010630 METAR LPPR 010630Z 00000KT 2500 R17/0800VP1500 R35/P1500
                        BR VCFG FEW000 14/14 Q1020=
200809010600 METAR LPPR 010600Z 00000KT 3000 BR VCFG FEW001 14/14 Q1020=
200809010530 METAR LPPR 010530Z 00000KT 3000 R17/0400V0500N R35/P1500
                        BR VCFG FEW000 15/15 Q1020=
200809010500 METAR LPPR 010500Z VRB02KT 2000 R17/0800D BCFG
                        BR FEW000 15/15 Q1020=
200809010430 METAR LPPR 010430Z 00000KT 3000 BR FEW001 15/15 Q1020=
200809010400 METAR LPPR 010400Z 03003KT 5000 BR SCT004 16/15 Q1020=
200809010330 METAR LPPR 010330Z 04003KT 6000 FEW003 SCT005 16/16 Q1020=
200809010300 METAR LPPR 010300Z 00000KT 6000 SCT003 SCT005 16/16 Q1020=
200809010230 METAR LPPR 010230Z 00000KT 6000 SCT003 BKN005 15/15 Q1020=
200809010200 METAR LPPR 010200Z 00000KT 7000 FEW005 15/15 Q1020=
200809010130 METAR LPPR 010130Z 00000KT 8000 SKC 15/15 Q1020=
200809010100 METAR LPPR 010100Z 00000KT 9000 FEW070 16/15 Q1020=
200809010030 METAR LPPR 010030Z 00000KT CAVOK 16/15 Q1020=
200809010000 METAR LPPR 010000Z 00000KT CAVOK 16/16 Q1020=
