##########################################################
# Query made at 11/07/2014 17:22:09 UTC
# Time interval: from 09/01/2012 00:00  to 10/01/2012 23:59  UTC
##########################################################

##########################################################
# LPPR, Porto / Pedras Rubras (Portugal)
# WMO index: 08545
# Latitude 41-14N. Longitude 008-41W. Altitude 69 m.
##########################################################

###################################
#  METAR/SPECI from LPPR
###################################
201210012330 METAR LPPR 012330Z 00000KT 8000 NSC 13/12 Q1022=
201210012300 METAR LPPR 012300Z 36003KT CAVOK 14/13 Q1023=
201210012230 METAR LPPR 012230Z 36003KT CAVOK 14/13 Q1023=
201210012200 METAR LPPR 012200Z 36003KT CAVOK 14/13 Q1023=
201210012130 METAR LPPR 012130Z 36004KT CAVOK 14/13 Q1023=
201210012100 METAR LPPR 012100Z 36004KT CAVOK 15/14 Q1022=
201210012030 METAR LPPR 012030Z 01003KT 330V030 CAVOK 15/13 Q1022=
201210012000 METAR LPPR 012000Z 33005KT CAVOK 15/14 Q1022=
201210011930 METAR LPPR 011930Z 33006KT CAVOK 15/14 Q1022=
201210011900 METAR LPPR 011900Z 33006KT CAVOK 16/14 Q1022=
201210011830 METAR LPPR 011830Z 32006KT CAVOK 16/14 Q1022=
201210011800 METAR LPPR 011800Z 32007KT 300V360 CAVOK 16/13 Q1022=
201210011730 METAR LPPR 011730Z 32008KT CAVOK 17/13 Q1022=
201210011700 METAR LPPR 011700Z 33007KT 290V350 CAVOK 17/12 Q1021=
201210011630 METAR LPPR 011630Z 33008KT 290V360 CAVOK 18/12 Q1021=
201210011600 METAR LPPR 011600Z 33010KT CAVOK 18/12 Q1021=
201210011530 METAR LPPR 011530Z 33008KT 300V360 CAVOK 18/12 Q1021=
201210011500 METAR LPPR 011500Z 32009KT CAVOK 18/13 Q1021=
201210011430 METAR LPPR 011430Z 32008KT 270V350 CAVOK 18/13 Q1021=
201210011400 METAR LPPR 011400Z 32008KT 280V350 CAVOK 19/13 Q1021=
201210011330 METAR LPPR 011330Z 31007KT 270V340 CAVOK 19/13 Q1021=
201210011300 METAR LPPR 011300Z 29005KT CAVOK 19/14 Q1021=
201210011230 METAR LPPR 011230Z 29005KT CAVOK 19/13 Q1022=
201210011200 METAR LPPR 011200Z 30005KT 260V330 CAVOK 19/13 Q1022=
201210011130 METAR LPPR 011130Z 28004KT 230V330 CAVOK 19/13 Q1022=
201210011100 METAR LPPR 011100Z 29004KT 250V320 CAVOK 18/13 Q1022=
201210011030 METAR LPPR 011030Z 28005KT CAVOK 18/14 Q1022=
201210011000 METAR LPPR 011000Z VRB02KT CAVOK 19/13 Q1021=
201210010930 METAR LPPR 010930Z VRB02KT CAVOK 18/13 Q1021=
201210010900 METAR LPPR 010900Z VRB02KT CAVOK 17/12 Q1021=
201210010830 METAR LPPR 010830Z 12004KT 100V170 CAVOK 16/13 Q1021=
201210010800 METAR LPPR 010800Z 12003KT 080V160 CAVOK 14/12 Q1021=
201210010730 METAR LPPR 010730Z VRB01KT CAVOK 11/10 Q1021=
201210010700 METAR LPPR 010700Z 13002KT CAVOK 11/10 Q1020=
201210010630 METAR LPPR 010630Z 01003KT 7000 NSC 09/09 Q1020=
201210010600 METAR LPPR 010600Z VRB02KT CAVOK 10/09 Q1020=
201210010530 METAR LPPR 010530Z VRB02KT CAVOK 10/10 Q1020=
201210010500 METAR LPPR 010500Z VRB01KT CAVOK 10/09 Q1020=
201210010430 METAR LPPR 010430Z VRB02KT CAVOK 10/09 Q1019=
201210010400 METAR LPPR 010400Z VRB01KT CAVOK 13/11 Q1019=
201210010330 METAR LPPR 010330Z VRB02KT CAVOK 10/09 Q1019=
201210010300 METAR LPPR 010300Z VRB01KT CAVOK 11/09 Q1019=
201210010230 METAR LPPR 010230Z VRB01KT CAVOK 11/10 Q1019=
201210010200 METAR LPPR 010200Z 13001KT CAVOK 11/10 Q1019=
201210010130 METAR LPPR 010130Z VRB02KT CAVOK 11/09 Q1020=
201210010100 METAR LPPR 010100Z 00000KT CAVOK 11/09 Q1020=
201210010030 METAR LPPR 010030Z 13003KT CAVOK 12/11 Q1020=
201210010000 METAR LPPR 010000Z VRB02KT CAVOK 11/10 Q1020=
201209302330 METAR LPPR 302330Z VRB01KT CAVOK 12/10 Q1020=
201209302300 METAR LPPR 302300Z VRB01KT CAVOK 12/10 Q1020=
201209302230 METAR LPPR 302230Z 00000KT CAVOK 12/10 Q1020=
201209302200 METAR LPPR 302200Z 00000KT CAVOK 13/10 Q1020=
201209302130 METAR LPPR 302130Z VRB01KT CAVOK 12/10 Q1020=
201209302100 METAR LPPR 302100Z 36003KT 320V100 CAVOK 13/10 Q1020=
201209302030 METAR LPPR 302030Z VRB02KT CAVOK 16/10 Q1020=
201209302000 METAR LPPR 302000Z 01003KT CAVOK 15/11 Q1019=
201209301930 METAR LPPR 301930Z 36005KT CAVOK 16/11 Q1019=
201209301900 METAR LPPR 301900Z 35006KT CAVOK 16/11 Q1019=
201209301830 METAR LPPR 301830Z 35007KT CAVOK 17/11 Q1019=
201209301800 METAR LPPR 301800Z 34006KT CAVOK 17/12 Q1019=
201209301730 METAR LPPR 301730Z 32009KT 290V350 CAVOK 18/11 Q1019=
201209301700 METAR LPPR 301700Z 33009KT 9999 FEW025 20/12 Q1019=
201209301630 METAR LPPR 301630Z 32008KT 9999 FEW025 20/11 Q1019=
201209301600 METAR LPPR 301600Z 33007KT 290V350 9999 FEW025 21/13 Q1019=
201209301530 METAR LPPR 301530Z 32009KT 290V350 9999 FEW025 21/12 Q1019=
201209301500 METAR LPPR 301500Z 33009KT 9999 FEW033 21/12 Q1019=
201209301430 METAR LPPR 301430Z 33009KT 290V360 9999 FEW033 21/11 Q1019=
201209301400 METAR LPPR 301400Z 31007KT 280V340 9999 FEW033 21/11 Q1019=
201209301330 METAR LPPR 301330Z 31006KT 280V340 9999 FEW030 22/13 Q1019=
201209301300 METAR LPPR 301300Z VRB03KT 9999 FEW030 23/12 Q1020=
201209301230 METAR LPPR 301230Z VRB04KT 9999 FEW030 23/10 Q1020=
201209301200 METAR LPPR 301200Z 11005KT 030V190 9999 FEW025 24/11 Q1020=
201209301130 METAR LPPR 301130Z 14004KT 090V240 9999 FEW025 22/10 Q1020=
201209301100 METAR LPPR 301100Z 09006KT 050V140 9999 FEW025 22/10 Q1020=
201209301030 METAR LPPR 301030Z 10005KT CAVOK 21/11 Q1021=
201209301000 METAR LPPR 301000Z 10005KT 030V160 CAVOK 21/10 Q1021=
201209300930 METAR LPPR 300930Z 11007KT 080V140 CAVOK 20/11 Q1020=
201209300900 METAR LPPR 300900Z 10005KT 060V140 CAVOK 19/11 Q1020=
201209300830 METAR LPPR 300830Z 01004KT 350V070 CAVOK 17/11 Q1020=
201209300800 METAR LPPR 300800Z 01004KT CAVOK 15/12 Q1020=
201209300730 METAR LPPR 300730Z 35003KT CAVOK 13/11 Q1020=
201209300700 METAR LPPR 300700Z 02002KT CAVOK 11/10 Q1020=
201209300630 METAR LPPR 300630Z VRB02KT CAVOK 11/10 Q1019=
201209300600 METAR LPPR 300600Z VRB03KT CAVOK 11/10 Q1019=
201209300530 METAR LPPR 300530Z 35003KT 300V110 CAVOK 13/10 Q1019=
201209300500 METAR LPPR 300500Z 35003KT CAVOK 12/10 Q1019=
201209300430 METAR LPPR 300430Z 34003KT CAVOK 12/10 Q1019=
201209300400 METAR LPPR 300400Z 35003KT CAVOK 12/10 Q1019=
201209300330 METAR LPPR 300330Z VRB02KT CAVOK 12/10 Q1019=
201209300300 METAR LPPR 300300Z 11005KT CAVOK 15/10 Q1019=
201209300230 METAR LPPR 300230Z 11006KT CAVOK 14/12 Q1019=
201209300200 METAR LPPR 300200Z VRB01KT CAVOK 12/12 Q1019=
201209300130 METAR LPPR 300130Z VRB01KT CAVOK 13/12 Q1019=
201209300100 METAR LPPR 300100Z 11003KT CAVOK 14/12 Q1019=
201209300030 METAR LPPR 300030Z VRB01KT CAVOK 14/12 Q1019=
201209300000 METAR LPPR 300000Z 00000KT CAVOK 15/13 Q1019=
201209292330 METAR LPPR 292330Z 34003KT 300V360 CAVOK 16/12 Q1019=
201209292300 METAR LPPR 292300Z 11004KT 080V150 CAVOK 15/13 Q1018=
201209292230 METAR LPPR 292230Z VRB01KT CAVOK 15/13 Q1018=
201209292200 METAR LPPR 292200Z 35002KT CAVOK 15/13 Q1018=
201209292130 METAR LPPR 292130Z 04001KT CAVOK 16/13 Q1018=
201209292100 METAR LPPR 292100Z 36002KT CAVOK 16/14 Q1018=
201209292030 METAR LPPR 292030Z 35003KT CAVOK 17/14 Q1018=
201209292000 METAR LPPR 292000Z 36003KT CAVOK 17/15 Q1017=
201209291930 METAR LPPR 291930Z 36003KT CAVOK 18/15 Q1017=
201209291900 METAR LPPR 291900Z 36003KT 320V040 CAVOK 18/15 Q1017=
201209291830 METAR LPPR 291830Z VRB02KT CAVOK 20/15 Q1017=
201209291800 METAR LPPR 291800Z 34004KT CAVOK 21/15 Q1016=
201209291730 METAR LPPR 291730Z 33005KT CAVOK 22/15 Q1016=
201209291700 METAR LPPR 291700Z 33006KT CAVOK 23/15 Q1016=
201209291630 METAR LPPR 291630Z 32008KT 300V360 9999 FEW023 23/15 Q1016=
201209291600 METAR LPPR 291600Z 33007KT 9999 FEW023 24/15 Q1016=
201209291530 METAR LPPR 291530Z 33007KT 9999 FEW020 24/15 Q1016=
201209291500 METAR LPPR 291500Z 33008KT 300V010 9999 FEW015 24/15 Q1016=
201209291430 METAR LPPR 291430Z 32008KT 290V350 9999 FEW015 23/15 Q1016=
201209291400 METAR LPPR 291400Z 35009KT 320V040 9999 FEW015 24/14 Q1016=
201209291330 METAR LPPR 291330Z 34009KT 9999 FEW015 23/15 Q1016=
201209291300 METAR LPPR 291300Z 32007KT 290V350 9999 FEW015 23/15 Q1016=
201209291230 METAR LPPR 291230Z 32008KT 9999 FEW015 22/15 Q1016=
201209291200 METAR LPPR 291200Z 31007KT 280V340 CAVOK 21/14 Q1016=
201209291130 METAR LPPR 291130Z 04004KT 330V090 CAVOK 21/14 Q1016=
201209291100 METAR LPPR 291100Z 01005KT 280V050 CAVOK 21/14 Q1017=
201209291030 METAR LPPR 291030Z 02006KT 350V050 CAVOK 20/14 Q1017=
201209291000 METAR LPPR 291000Z 35007KT CAVOK 19/13 Q1017=
201209290930 METAR LPPR 290930Z 34007KT CAVOK 18/13 Q1016=
201209290900 METAR LPPR 290900Z 36004KT 320V060 CAVOK 18/13 Q1016=
201209290830 METAR LPPR 290830Z 03003KT 350V070 CAVOK 17/13 Q1015=
201209290800 METAR LPPR 290800Z 05004KT CAVOK 16/12 Q1015=
201209290730 METAR LPPR 290730Z 02004KT 340V050 CAVOK 15/12 Q1015=
201209290700 METAR LPPR 290700Z 35005KT CAVOK 13/11 Q1014=
201209290630 METAR LPPR 290630Z 35004KT 330V040 CAVOK 14/11 Q1014=
201209290600 METAR LPPR 290600Z 34005KT CAVOK 14/12 Q1014=
201209290530 METAR LPPR 290530Z 36007KT CAVOK 14/12 Q1013=
201209290500 METAR LPPR 290500Z 34004KT CAVOK 13/11 Q1013=
201209290430 METAR LPPR 290430Z 33006KT CAVOK 14/12 Q1013=
201209290400 METAR LPPR 290400Z 34005KT CAVOK 14/12 Q1013=
201209290330 METAR LPPR 290330Z 34006KT CAVOK 14/12 Q1013=
201209290300 METAR LPPR 290300Z 34005KT CAVOK 14/12 Q1013=
201209290230 METAR LPPR 290230Z 35004KT CAVOK 14/12 Q1013=
201209290200 METAR LPPR 290200Z 35006KT CAVOK 15/12 Q1013=
201209290130 METAR LPPR 290130Z 34003KT CAVOK 14/12 Q1013=
201209290100 METAR LPPR 290100Z 35004KT CAVOK 15/12 Q1013=
201209290030 METAR LPPR 290030Z 34006KT CAVOK 16/13 Q1013=
201209290000 METAR LPPR 290000Z 29004KT 230V320 CAVOK 15/13 Q1013=
201209282330 METAR LPPR 282330Z 01004KT 340V060 CAVOK 16/13 Q1012=
201209282300 METAR LPPR 282300Z 33004KT 290V350 CAVOK 15/13 Q1012=
201209282230 METAR LPPR 282230Z 32004KT CAVOK 16/14 Q1012=
201209282200 METAR LPPR 282200Z 35003KT 8000 NSC 15/14 Q1012=
201209282130 METAR LPPR 282130Z VRB02KT 8000 NSC 14/14 Q1012=
201209282100 METAR LPPR 282100Z 01003KT 9000 NSC 15/14 Q1012=
201209282030 METAR LPPR 282030Z 04002KT 8000 NSC 15/14 Q1012=
201209282000 METAR LPPR 282000Z 35002KT CAVOK 16/15 Q1012=
201209281930 METAR LPPR 281930Z VRB02KT CAVOK 16/15 Q1012=
201209281900 METAR LPPR 281900Z VRB02KT CAVOK 18/15 Q1012=
201209281830 METAR LPPR 281830Z 01004KT CAVOK 18/15 Q1012=
201209281800 METAR LPPR 281800Z 32006KT CAVOK 19/15 Q1011=
201209281730 METAR LPPR 281730Z 32003KT CAVOK 19/16 Q1012=
201209281700 METAR LPPR 281700Z VRB02KT CAVOK 20/16 Q1012=
201209281630 METAR LPPR 281630Z VRB02KT CAVOK 21/15 Q1011=
201209281600 METAR LPPR 281600Z VRB02KT CAVOK 21/15 Q1011=
201209281530 METAR LPPR 281530Z 30003KT 220V340 CAVOK 20/15 Q1011=
201209281500 METAR LPPR 281500Z VRB02KT CAVOK 21/15 Q1011=
201209281430 METAR LPPR 281430Z 31004KT 280V360 CAVOK 20/14 Q1011=
201209281400 METAR LPPR 281400Z 32004KT 280V360 CAVOK 20/15 Q1011=
201209281330 METAR LPPR 281330Z 34005KT 320V020 CAVOK 20/15 Q1011=
201209281300 METAR LPPR 281300Z 32005KT CAVOK 19/15 Q1012=
201209281230 METAR LPPR 281230Z VRB02KT CAVOK 20/15 Q1012=
201209281200 METAR LPPR 281200Z VRB01KT CAVOK 20/13 Q1012=
201209281130 METAR LPPR 281130Z VRB02KT CAVOK 20/14 Q1012=
201209281100 METAR LPPR 281100Z 02005KT 350V060 9999 FEW020 19/14 Q1012=
201209281030 METAR LPPR 281030Z 34006KT 9999 FEW020 18/13 Q1012=
201209281000 METAR LPPR 281000Z 34006KT 9999 FEW020 18/13 Q1012=
201209280930 METAR LPPR 280930Z 02005KT 350V050 9999 FEW017 SCT036 17/13
                        Q1011=
201209280900 METAR LPPR 280900Z 01008KT 350V050 9999 FEW017 SCT040 16/12
                        Q1011=
201209280830 METAR LPPR 280830Z 01006KT 340V040 9999 FEW015 16/13 Q1011=
201209280800 METAR LPPR 280800Z 01007KT 320V020 9999 FEW015 15/13 Q1011=
201209280730 METAR LPPR 280730Z 35006KT 9999 FEW015 15/13 Q1011=
201209280700 METAR LPPR 280700Z 36007KT 9999 FEW012 14/12 Q1011=
201209280630 METAR LPPR 280630Z 34006KT 9999 FEW013 14/12 Q1011=
201209280600 METAR LPPR 280600Z 01007KT 340V040 9999 FEW013 14/13 Q1010=
201209280530 METAR LPPR 280530Z 36007KT 9999 FEW048 14/13 Q1010=
201209280500 METAR LPPR 280500Z 01008KT 9999 FEW045 14/13 Q1011=
201209280430 METAR LPPR 280430Z 01005KT 9999 -RA FEW010 15/13 Q1011=
201209280400 METAR LPPR 280400Z 04003KT 010V080 9999 -RA FEW045 14/13
                        Q1011=
201209280330 METAR LPPR 280330Z 07003KT 360V150 9000 -RA SCT040 14/13
                        Q1011=
201209280300 METAR LPPR 280300Z VRB02KT 9000 -RA SCT040 16/12 Q1012=
201209280230 METAR LPPR 280230Z 03008KT 9999 -RA FEW040 18/10 Q1011=
201209280200 METAR LPPR 280200Z 03007KT CAVOK 18/10 Q1011=
201209280130 METAR LPPR 280130Z 01008KT CAVOK 17/10 Q1011=
201209280100 METAR LPPR 280100Z 03006KT CAVOK 18/10 Q1011=
201209280030 METAR LPPR 280030Z 03008KT CAVOK 18/10 Q1011=
201209280000 METAR LPPR 280000Z 03007KT CAVOK 18/10 Q1012=
201209272330 METAR LPPR 272330Z 02008KT CAVOK 18/10 Q1012=
201209272300 METAR LPPR 272300Z 03008KT CAVOK 18/10 Q1012=
201209272230 METAR LPPR 272230Z 02009KT CAVOK 18/11 Q1012=
201209272200 METAR LPPR 272200Z 01008KT CAVOK 18/11 Q1012=
201209272130 METAR LPPR 272130Z 01007KT CAVOK 17/11 Q1012=
201209272100 METAR LPPR 272100Z 02007KT CAVOK 18/11 Q1012=
201209272030 METAR LPPR 272030Z 01007KT CAVOK 18/11 Q1012=
201209272000 METAR LPPR 272000Z 36007KT CAVOK 18/12 Q1012=
201209271930 METAR LPPR 271930Z 36006KT CAVOK 18/12 Q1012=
201209271900 METAR LPPR 271900Z 36007KT CAVOK 18/12 Q1012=
201209271830 METAR LPPR 271830Z 34007KT CAVOK 19/12 Q1012=
201209271800 METAR LPPR 271800Z 34009KT CAVOK 20/12 Q1012=
201209271730 METAR LPPR 271730Z 34011KT CAVOK 20/12 Q1012=
201209271700 METAR LPPR 271700Z 34009KT 9999 FEW030 20/12 Q1011=
201209271630 METAR LPPR 271630Z 34008KT 9999 FEW025 20/13 Q1011=
201209271600 METAR LPPR 271600Z 33010KT 9999 FEW025 21/13 Q1012=
201209271530 METAR LPPR 271530Z 33008KT 9999 FEW025 21/13 Q1012=
201209271500 METAR LPPR 271500Z 33009KT 290V360 9999 FEW025 21/12 Q1012=
201209271430 METAR LPPR 271430Z 34010KT 300V020 9999 FEW025 21/12 Q1012=
201209271400 METAR LPPR 271400Z 35007KT 320V040 9999 FEW025 22/11 Q1012=
201209271330 METAR LPPR 271330Z 02005KT 340V070 9999 FEW025 21/11 Q1012=
201209271300 METAR LPPR 271300Z 01006KT 300V080 9999 FEW020 21/11 Q1013=
201209271230 METAR LPPR 271230Z 35007KT 310V050 9999 FEW020 20/11 Q1013=
201209271200 METAR LPPR 271200Z 35007KT 310V050 9999 FEW020 20/11 Q1013=
201209271130 METAR LPPR 271130Z 07004KT 340V120 CAVOK 19/10 Q1013=
201209271100 METAR LPPR 271100Z 06006KT 360V120 CAVOK 19/10 Q1013=
201209271030 METAR LPPR 271030Z 04005KT 360V090 CAVOK 18/10 Q1014=
201209271000 METAR LPPR 271000Z 03006KT 340V070 CAVOK 17/10 Q1014=
201209270930 METAR LPPR 270930Z 03004KT 350V070 9999 FEW040 16/11 Q1014=
201209270900 METAR LPPR 270900Z 35005KT 9999 SCT040 14/12 Q1014=
201209270830 METAR LPPR 270830Z 35003KT 320V030 9999 FEW018 13/11 Q1014=
201209270800 METAR LPPR 270800Z 03004KT 9999 FEW018 13/10 Q1014=
201209270730 METAR LPPR 270730Z 09003KT 040V130 9999 FEW018 13/11 Q1014=
201209270700 METAR LPPR 270700Z 02004KT 9999 FEW025 12/10 Q1013=
201209270630 METAR LPPR 270630Z 05006KT 9999 FEW025 12/10 Q1013=
201209270600 METAR LPPR 270600Z VRB05KT 9999 FEW025 13/11 Q1013=
201209270530 METAR LPPR 270530Z 09004KT 040V130 9999 FEW025 12/11 Q1013=
201209270500 METAR LPPR 270500Z 01004KT 9999 FEW025 12/11 Q1013=
201209270430 METAR LPPR 270430Z 36004KT 9999 FEW025 12/11 Q1013=
201209270400 METAR LPPR 270400Z 01004KT 9999 FEW025 12/11 Q1013=
201209270330 METAR LPPR 270330Z VRB01KT 9999 FEW020 12/11 Q1013=
201209270300 METAR LPPR 270300Z 05004KT 9999 FEW022 13/11 Q1013=
201209270230 METAR LPPR 270230Z 04005KT 9999 FEW022 13/11 Q1013=
201209270200 METAR LPPR 270200Z 04002KT 9999 FEW022 12/11 Q1013=
201209270130 METAR LPPR 270130Z 36002KT 9999 FEW020 13/12 Q1014=
201209270100 METAR LPPR 270100Z 02003KT 9999 FEW020 13/11 Q1013=
201209270030 METAR LPPR 270030Z VRB02KT 9999 FEW020 13/11 Q1013=
201209270000 METAR LPPR 270000Z 12003KT 9999 FEW020 13/12 Q1013=
201209262330 METAR LPPR 262330Z 00000KT 9999 FEW020 13/12 Q1013=
201209262300 METAR LPPR 262300Z VRB02KT 9999 FEW020 12/11 Q1013=
201209262230 METAR LPPR 262230Z 01002KT 9999 FEW020 12/12 Q1013=
201209262200 METAR LPPR 262200Z 36003KT 9999 FEW024 12/11 Q1013=
201209262130 METAR LPPR 262130Z 01003KT 9999 FEW024 13/12 Q1013=
201209262100 METAR LPPR 262100Z 02002KT 9999 FEW025 13/12 Q1013=
201209262030 METAR LPPR 262030Z 00000KT 9999 FEW024 14/12 Q1013=
201209262000 METAR LPPR 262000Z 00000KT CAVOK 14/13 Q1012=
201209261930 METAR LPPR 261930Z 36002KT 9999 FEW030 14/13 Q1012=
201209261900 METAR LPPR 261900Z 32002KT 9999 FEW024 15/12 Q1012=
201209261830 METAR LPPR 261830Z VRB02KT 9999 FEW020 16/13 Q1011=
201209261800 METAR LPPR 261800Z 26003KT 200V330 9999 FEW025 17/12 Q1011=
201209261730 METAR LPPR 261730Z 27004KT 220V320 9999 FEW025 18/12 Q1011=
201209261700 METAR LPPR 261700Z 27005KT 230V320 9999 FEW025 18/12 Q1011=
201209261630 METAR LPPR 261630Z 26004KT 190V310 9999 FEW025 19/13 Q1011=
201209261600 METAR LPPR 261600Z 28004KT 230V010 9999 FEW025 19/12 Q1011=
201209261530 METAR LPPR 261530Z 30005KT 240V350 9999 FEW025 18/12 Q1010=
201209261500 METAR LPPR 261500Z 28005KT 200V340 9999 FEW025 19/12 Q1010=
201209261430 METAR LPPR 261430Z 26006KT 210V300 9999 FEW025 19/11 Q1010=
201209261400 METAR LPPR 261400Z 25006KT 210V310 9999 FEW023 19/11 Q1010=
201209261330 METAR LPPR 261330Z 27006KT 210V310 9999 FEW022 19/12 Q1010=
201209261300 METAR LPPR 261300Z 25007KT 190V310 9999 FEW025 18/12 Q1010=
201209261230 METAR LPPR 261230Z 26006KT 200V330 9999 FEW027 19/11 Q1010=
201209261200 METAR LPPR 261200Z 26007KT 210V320 9999 FEW025 19/12 Q1010=
201209261130 METAR LPPR 261130Z 28006KT 220V330 9999 FEW025 19/12 Q1010=
201209261100 METAR LPPR 261100Z 27006KT 210V310 9999 FEW030 18/12 Q1010=
201209261030 METAR LPPR 261030Z 25007KT 190V300 9999 SCT025 18/12 Q1010=
201209261000 METAR LPPR 261000Z 27006KT 220V320 9999 SCT030 18/11 Q1009=
201209260930 METAR LPPR 260930Z 25005KT 190V310 9999 FEW030 18/12 Q1009=
201209260900 METAR LPPR 260900Z 25005KT 210V300 9999 FEW020 SCT033 17/11
                        Q1008=
201209260830 METAR LPPR 260830Z 28004KT 200V330 9999 FEW020 SCT032 17/11
                        Q1008=
201209260800 METAR LPPR 260800Z 13004KT 110V170 9999 FEW020 SCT033 14/12
                        Q1007=
201209260730 METAR LPPR 260730Z VRB01KT 9999 FEW020 SCT030 12/11 Q1007=
201209260700 METAR LPPR 260700Z 14003KT 9999 FEW020 11/10 Q1007=
201209260630 METAR LPPR 260630Z VRB02KT 9999 FEW020 11/10 Q1007=
201209260600 METAR LPPR 260600Z VRB02KT 9999 FEW020 SCT032 11/10 Q1006=
201209260530 METAR LPPR 260530Z VRB01KT 9999 FEW030 11/09 Q1006=
201209260500 METAR LPPR 260500Z VRB02KT 9999 FEW030 11/10 Q1006=
201209260430 METAR LPPR 260430Z 15003KT 9999 FEW025 12/10 Q1006=
201209260400 METAR LPPR 260400Z VRB02KT 9999 -SHRA FEW025 SCT038 12/10
                        Q1006=
201209260330 METAR LPPR 260330Z VRB02KT 9999 FEW030 12/10 Q1006=
201209260300 METAR LPPR 260300Z VRB02KT 9999 FEW028 12/10 Q1006=
201209260230 METAR LPPR 260230Z VRB01KT 9999 SCT028 13/11 Q1006=
201209260200 METAR LPPR 260200Z VRB05KT 9999 SCT028 13/11 Q1006=
201209260130 METAR LPPR 260130Z 22004KT 190V270 9999 SCT028 14/10 Q1006=
201209260100 METAR LPPR 260100Z 26004KT 210V330 9999 SCT030 15/10 Q1006=
201209260030 METAR LPPR 260030Z 30005KT 250V010 9999 FEW030 15/11 Q1006=
201209260000 METAR LPPR 260000Z 29004KT 260V340 9999 FEW028 15/11 Q1005=
201209252330 METAR LPPR 252330Z 30003KT 260V040 9999 SCT030 15/11 Q1006=
201209252300 METAR LPPR 252300Z 31003KT 250V010 9999 SCT030 14/11 Q1006=
201209252230 METAR LPPR 252230Z VRB02KT 9999 FEW015 SCT030 14/12 Q1005=
201209252200 METAR LPPR 252200Z VRB06KT 9999 -SHRA SCT015 BKN020 15/13
                        Q1005 RERA WS ALL RWY=
201209252130 METAR LPPR 252130Z 14005KT 9999 SCT017 BKN025 14/13 Q1005=
201209252100 METAR LPPR 252100Z 14006KT 9999 FEW012 BKN030 14/13 Q1005=
201209252030 METAR LPPR 252030Z 13005KT 9999 FEW011 BKN020 14/13 Q1005=
201209252000 METAR LPPR 252000Z 08003KT 010V140 9999 SCT012 BKN020 14/13
                        Q1005=
201209251930 METAR LPPR 251930Z 15004KT 9999 SCT015 BKN045 14/13 Q1005=
201209251900 METAR LPPR 251900Z 13003KT 090V160 9000 -RA FEW015 SCT020
                        OVC045 14/13 Q1005=
201209251830 METAR LPPR 251830Z 00000KT 5000 -RA SCT020 BKN026 14/13 Q1005=
201209251800 METAR LPPR 251800Z VRB01KT 8000 -RA FEW020 BKN025 OVC035
                        14/13 Q1005=
201209251730 METAR LPPR 251730Z 01006KT 9999 -RA SCT010 FEW020CB BKN030
                        14/13 Q1005=
201209251700 METAR LPPR 251700Z 33010KT 290V360 6000 -TSRA SCT004 BKN011
                        FEW016CB 15/14 Q1005=
201209251630 METAR LPPR 251630Z 22007KT 180V270 7000 -RA FEW013 FEW018CB
                        BKN025 16/15 Q1004=
201209251600 METAR LPPR 251600Z 26004KT 200V320 9999 -RA SCT009 FEW018CB
                        BKN022 16/15 Q1005=
201209251530 METAR LPPR 251530Z 29009KT 230V330 8000 -SHRA FEW011 BKN017
                        FEW020CB 16/14 Q1005=
201209251500 METAR LPPR 251500Z 23010KT 200V260 8000 -SHRA FEW010 SCT020
                        FEW025CB BKN040 19/15 Q1005=
201209251430 METAR LPPR 251430Z 24007KT 200V280 9999 FEW020 BKN030 19/15
                        Q1005=
201209251400 METAR LPPR 251400Z 24009KT 200V260 9999 FEW020 19/15 Q1006=
201209251330 METAR LPPR 251330Z 23008KT 200V270 9999 SCT020 BKN040 19/16
                        Q1006=
201209251300 METAR LPPR 251300Z 23009KT 200V270 9999 FEW015 BKN040 18/16
                        Q1006=
201209251230 METAR LPPR 251230Z 22008KT 190V260 9999 FEW009 BKN015 18/16
                        Q1007=
201209251200 METAR LPPR 251200Z 23008KT 200V260 9999 FEW009 BKN015 17/16
                        Q1007=
201209251130 METAR LPPR 251130Z 22007KT 170V250 9999 FEW007 BKN020 17/16
                        Q1007=
201209251100 METAR LPPR 251100Z 23007KT 190V280 8000 -RA FEW003 BKN030
                        17/16 Q1007=
201209251030 METAR LPPR 251030Z 21005KT 160V250 6000 -RA SCT004 BKN025
                        16/15 Q1008=
201209251000 METAR LPPR 251000Z 21010KT 180V240 4000 -RA BR SCT003 BKN008
                        16/15 Q1008=
201209250930 METAR LPPR 250930Z 22007KT 190V270 6000 -SHRA SCT005 BKN010
                        17/15 Q1008=
201209250900 METAR LPPR 250900Z 22005KT 160V280 9999 FEW005 BKN009 17/16
                        Q1008=
201209250830 METAR LPPR 250830Z 25005KT 210V320 9999 SCT005 BKN015 16/15
                        Q1008=
201209250800 METAR LPPR 250800Z 23016G27KT 200V270 2000 -SHRA BR SCT003
                        BKN020 16/15 Q1008=
201209250730 METAR LPPR 250730Z 24008KT 190V290 8000 -SHRA SCT005 BKN020
                        17/16 Q1008=
201209250700 METAR LPPR 250700Z 25010KT 210V290 3800 -SHRA BR BKN005 OVC030
                        17/16 Q1008=
201209250630 METAR LPPR 250630Z 22009KT 180V250 8000 VCSH FEW024 BKN040
                        18/15 Q1008=
201209250600 METAR LPPR 250600Z 22009KT 9999 FEW020 BKN040 18/15 Q1009=
201209250530 METAR LPPR 250530Z 23010KT 190V270 9999 FEW016 BKN040 18/14
                        Q1009=
201209250500 METAR LPPR 250500Z 22008KT 180V260 9999 FEW016 BKN037 18/15
                        Q1009=
201209250430 METAR LPPR 250430Z 21010KT 180V250 9999 FEW015 BKN025 17/14
                        Q1010=
201209250400 METAR LPPR 250400Z 21010G20KT 180V240 9999 FEW023 SCT030
                        17/14 Q1010=
201209250330 METAR LPPR 250330Z 22009KT 190V260 9999 FEW025 BKN034 18/14
                        Q1010=
201209250300 METAR LPPR 250300Z 23010KT 200V280 9999 FEW016 BKN030 18/14
                        Q1011=
201209250230 METAR LPPR 250230Z 21009KT 190V250 9999 SCT022 BKN030 18/14
                        Q1011=
201209250200 METAR LPPR 250200Z 21009KT 180V250 9999 FEW025 SCT033 17/15
                        Q1012=
201209250130 METAR LPPR 250130Z 23008KT 200V270 9999 FEW015 BKN030 17/14
                        Q1012=
201209250100 METAR LPPR 250100Z 21006KT 170V240 9999 FEW025 SCT046 16/14
                        Q1012=
201209250030 METAR LPPR 250030Z 20004KT 160V270 9999 SCT019 BKN045 16/14
                        Q1013=
201209250000 METAR LPPR 250000Z 22004KT 160V260 9999 FEW017 SCT034 18/15
                        Q1013=
201209242330 METAR LPPR 242330Z 22004KT 180V280 9999 FEW018 SCT030 17/15
                        Q1014=
201209242300 METAR LPPR 242300Z 22005KT 190V260 9999 FEW025 BKN030 17/14
                        Q1014=
201209242230 METAR LPPR 242230Z 21005KT 9999 FEW025 BKN034 17/13 Q1014=
201209242200 METAR LPPR 242200Z 22009KT 180V260 9999 FEW020 BKN040 17/13
                        Q1014=
201209242130 METAR LPPR 242130Z 25003KT 150V300 9999 FEW014 SCT040 17/14
                        Q1014=
201209242100 METAR LPPR 242100Z 28003KT 250V320 8000 -SHRA FEW020 BKN040
                        18/15 Q1015=
201209242030 METAR LPPR 242030Z 24005KT 210V290 9999 FEW020 BKN027 18/15
                        Q1015=
201209242000 METAR LPPR 242000Z 23005KT 200V270 9999 FEW016 SCT030 18/14
                        Q1015=
201209241930 METAR LPPR 241930Z 21005KT 190V250 9999 FEW016 SCT040 18/15
                        Q1015=
201209241900 METAR LPPR 241900Z 19007KT 9999 FEW016 SCT030 18/15 Q1015=
201209241830 METAR LPPR 241830Z 20007KT 9999 FEW015 SCT030 18/16 Q1015=
201209241800 METAR LPPR 241800Z 20007KT 9999 FEW015 SCT030 18/16 Q1015=
201209241730 METAR LPPR 241730Z 20008KT 9999 FEW012 SCT045 18/15 Q1015=
201209241700 METAR LPPR 241700Z 20007KT 9999 FEW015 SCT049 18/15 Q1016=
201209241630 METAR LPPR 241630Z 20007KT 170V230 9999 FEW015 SCT049 19/15
                        Q1016=
201209241600 METAR LPPR 241600Z 23007KT 170V270 9999 FEW015 SCT045 19/15
                        Q1016=
201209241530 METAR LPPR 241530Z 22005KT 190V270 9999 FEW015 FEW020TCU
                        BKN040 19/14 Q1016=
201209241500 METAR LPPR 241500Z 21008KT 180V260 9999 FEW013 FEW017TCU
                        BKN030 19/15 Q1017=
201209241430 METAR LPPR 241430Z 21007KT 180V250 9999 FEW013 FEW017TCU
                        BKN030 18/16 Q1017=
201209241400 METAR LPPR 241400Z 23009KT 190V260 9999 FEW017 FEW023TCU
                        BKN030 19/15 Q1017=
201209241330 METAR LPPR 241330Z 24010KT 200V270 9999 FEW017 SCT035 20/15
                        Q1017=
201209241300 METAR LPPR 241300Z 23007KT 190V280 9999 FEW017 SCT035 20/14
                        Q1018=
201209241230 METAR LPPR 241230Z 23007KT 170V270 9999 FEW017 SCT030 20/14
                        Q1018=
201209241200 METAR LPPR 241200Z 22007KT 160V280 9999 FEW017 SCT029 BKN040
                        20/15 Q1018=
201209241130 METAR LPPR 241130Z 21007KT 170V260 9999 FEW017 SCT025 BKN044
                        18/14 Q1018=
201209241100 METAR LPPR 241100Z 19010KT 9999 FEW017 SCT027 19/14 Q1018=
201209241030 METAR LPPR 241030Z 21009KT 180V250 9999 FEW017 SCT027 20/13
                        Q1018=
201209241000 METAR LPPR 241000Z 21007KT 180V250 9999 FEW017 SCT030 20/14
                        Q1018=
201209240930 METAR LPPR 240930Z 22006KT 190V250 9999 FEW017 SCT030 19/14
                        Q1018=
201209240900 METAR LPPR 240900Z 23006KT 200V260 9999 FEW017 SCT020 19/15
                        Q1018=
201209240830 METAR LPPR 240830Z 23005KT 190V280 9999 FEW020 19/14 Q1018=
201209240800 METAR LPPR 240800Z 22003KT 190V260 9999 FEW020 19/15 Q1018=
201209240730 METAR LPPR 240730Z VRB02KT 9999 FEW020 17/15 Q1017=
201209240700 METAR LPPR 240700Z VRB02KT 9999 FEW020 16/14 Q1017=
201209240630 METAR LPPR 240630Z VRB02KT 9999 FEW040 15/14 Q1017=
201209240600 METAR LPPR 240600Z 26003KT 220V320 9999 FEW018 SCT040 17/14
                        Q1017=
201209240530 METAR LPPR 240530Z VRB02KT 9999 FEW020 SCT045 16/14 Q1017=
201209240500 METAR LPPR 240500Z VRB02KT 9999 FEW020 17/14 Q1017=
201209240430 METAR LPPR 240430Z VRB02KT 9999 FEW018 17/14 Q1016=
201209240400 METAR LPPR 240400Z 30003KT 260V360 9999 FEW018 BKN045 18/15
                        Q1016=
201209240330 METAR LPPR 240330Z 30003KT 240V360 9999 FEW017 BKN045 18/15
                        Q1016=
201209240300 METAR LPPR 240300Z 29004KT 230V340 9999 FEW020 SCT040 18/15
                        Q1016=
201209240230 METAR LPPR 240230Z 30005KT 220V010 9999 FEW020 SCT030 17/15
                        Q1016=
201209240200 METAR LPPR 240200Z 29003KT 240V340 9999 SCT025 17/15 Q1016=
201209240130 METAR LPPR 240130Z 30004KT 260V360 9999 SCT035 BKN045 17/15
                        Q1016=
201209240100 METAR LPPR 240100Z 31003KT 260V030 9999 BKN035 18/15 Q1016=
201209240030 METAR LPPR 240030Z 29005KT 250V320 9999 FEW015 BKN035 18/15
                        Q1016=
201209240000 METAR LPPR 240000Z 29005KT 240V360 9999 SCT014 OVC045 18/16
                        Q1015=
201209232330 METAR LPPR 232330Z 30005KT 270V330 9999 FEW015 BKN025 17/15
                        Q1015=
201209232300 METAR LPPR 232300Z 29005KT 240V340 9999 FEW012 BKN017 OVC045
                        17/16 Q1015=
201209232230 METAR LPPR 232230Z 29006KT 240V320 9999 FEW014 BKN020 18/16
                        Q1015=
201209232200 METAR LPPR 232200Z 30007KT 260V350 9999 FEW015 BKN040 18/15
                        Q1014=
201209232130 METAR LPPR 232130Z 28008KT 240V330 9999 FEW014TCU SCT020
                        BKN040 18/15 Q1014=
201209232100 METAR LPPR 232100Z 29007KT 250V330 9999 FEW016 FEW017CB SCT022
                        18/16 Q1014=
201209232030 METAR LPPR 232030Z 29008KT 250V330 9999 FEW016 FEW017CB SCT025
                        18/16 Q1013=
201209232000 METAR LPPR 232000Z 30008KT 250V350 9999 VCSH FEW008 FEW015CB
                        SCT020 BKN048 17/16 Q1013=
201209231930 METAR LPPR 231930Z 28007G21KT 230V320 9999 SCT010 FEW015CB
                        BKN021 18/16 Q1012=
201209231900 METAR LPPR 231900Z 28009KT 230V320 9999 FEW012 FEW015CB SCT020
                        18/16 Q1011=
201209231830 METAR LPPR 231830Z 27008KT 210V340 9999 VCSH BKN016 FEW017CB
                        18/16 Q1011=
201209231800 METAR LPPR 231800Z 26008KT 210V300 9000 VCSH FEW010 SCT016
                        FEW017CB BKN030 18/16 Q1010=
201209231730 METAR LPPR 231730Z 28009KT 220V320 9000 VCSH FEW010 FEW015CB
                        BKN045 18/16 Q1010=
201209231700 METAR LPPR 231700Z 25010G21KT 200V320 7000 -RA FEW007 SCT015
                        FEW016CB BKN035 18/17 Q1009=
201209231630 METAR LPPR 231630Z 23014KT 190V270 5000 -SHRA FEW008 SCT012
                        FEW015CB BKN035 18/16 Q1009=
201209231600 METAR LPPR 231600Z 22010KT 180V250 7000 3000SE TSRA SCT003
                        BKN012 SCT015CB 17/16 Q1009=
201209231530 METAR LPPR 231530Z 23013G23KT 170V260 5000 -SHRA FEW005 SCT010
                        FEW018CB 18/16 Q1009=
201209231500 METAR LPPR 231500Z 22011KT 190V260 6000 VCSH FEW009 FEW020CB
                        BKN026 18/17 Q1008=
201209231430 METAR LPPR 231430Z 21012KT 180V250 4000 -SHRA BR FEW012 FEW020CB
                        BKN025 18/16 Q1008=
201209231400 METAR LPPR 231400Z 21013KT 190V260 8000 -SHRA FEW008 FEW020CB
                        BKN025 18/17 Q1008=
201209231330 METAR LPPR 231330Z 21017G27KT 170V240 9999 FEW015 FEW021CB
                        SCT030 20/16 Q1008=
201209231300 METAR LPPR 231300Z 21017G28KT 180V240 9999 FEW015 FEW020CB
                        20/17 Q1008=
201209231230 METAR LPPR 231230Z 22013KT 180V260 9000 VCSH FEW012 FEW020CB
                        BKN030 18/17 Q1008=
201209231200 METAR LPPR 231200Z 21017KT 9999 FEW016 FEW020CB BKN045 21/17
                        Q1008=
201209231130 METAR LPPR 231130Z 21014G25KT 190V250 9999 FEW014 FEW020CB
                        SCT026 21/17 Q1008=
201209231100 METAR LPPR 231100Z 21017G27KT 180V250 9999 FEW017 FEW024CB
                        BKN045 21/17 Q1008=
201209231030 METAR LPPR 231030Z 20017KT 9999 FEW019 FEW025CB SCT028 20/17
                        Q1008=
201209231000 METAR LPPR 231000Z 19018KT 9999 FEW011 FEW022CB SCT030 21/17
                        Q1007=
201209230930 METAR LPPR 230930Z 19020KT 9999 FEW014 FEW024CB SCT030 21/17
                        Q1007=
201209230900 METAR LPPR 230900Z 19016KT 9999 SCT020 FEW025CB BKN030 21/17
                        Q1007=
201209230830 METAR LPPR 230830Z 19018G28KT 9999 SCT013 FEW025CB 20/17
                        Q1007=
201209230800 METAR LPPR 230800Z 19015KT 9999 SCT022 20/17 Q1007=
201209230730 METAR LPPR 230730Z 19014KT 9999 FEW009 SCT020 20/17 Q1007=
201209230700 METAR LPPR 230700Z 19013KT 9999 FEW009 SCT020 19/18 Q1007=
201209230630 METAR LPPR 230630Z 19014KT 9999 FEW009 SCT020 BKN030 19/18
                        Q1007=
201209230600 METAR LPPR 230600Z 20013KT 9999 FEW009 SCT012 BKN020 19/18
                        Q1007=
201209230530 METAR LPPR 230530Z 19016KT 9000 -SHRA SCT008 SCT017 BKN025
                        20/18 Q1007=
201209230500 METAR LPPR 230500Z 19015KT 9999 SCT007 SCT015 BKN023 20/19
                        Q1007=
201209230430 METAR LPPR 230430Z 19016KT 9999 SCT006 SCT015 BKN023 20/19
                        Q1006=
201209230400 METAR LPPR 230400Z 19014KT 9999 SCT005 SCT015 BKN032 20/19
                        Q1006=
201209230330 METAR LPPR 230330Z 19014KT 9999 SCT005 SCT015 BKN035 20/19
                        Q1006=
201209230300 METAR LPPR 230300Z 19014KT 9999 SCT005 SCT015 BKN040 20/19
                        Q1006=
201209230230 METAR LPPR 230230Z 19014KT 9000 SCT004 BKN013 20/19 Q1006=
201209230200 METAR LPPR 230200Z 19013KT 9999 SCT004 BKN015 BKN037 20/19
                        Q1007=
201209230130 METAR LPPR 230130Z 19014KT 8000 SCT003 BKN013 FEW017CB OVC027
                        19/19 Q1007 RERA=
201209230100 METAR LPPR 230100Z 21010KT 190V250 3500 TSRA FEW002 BKN004
                        BKN013 FEW015CB 19/18 Q1007=
201209230030 METAR LPPR 230030Z 20013G23KT 2000 R17/1300VP2000U TSRA SCT012
                        BKN015 FEW017CB 19/18 Q1006=
201209230000 METAR LPPR 230000Z 17021G33KT 9999 -TSRA FEW015 FEW023CB
                        BKN025 22/18 Q1006=
201209222330 METAR LPPR 222330Z 17019KT 9999 SCT023 FEW025CB BKN033 22/17
                        Q1007=
201209222300 METAR LPPR 222300Z 17019KT 9999 FEW025CB BKN033 23/16 Q1008=
201209222230 METAR LPPR 222230Z 18017KT 9999 FEW020CB 23/17 Q1008=
201209222200 METAR LPPR 222200Z 18013KT 9999 VCTS FEW017CB 22/17 Q1008=
201209222130 METAR LPPR 222130Z 18016KT 9999 FEW035 22/17 Q1008=
201209222100 METAR LPPR 222100Z 19017KT 9999 FEW015 22/17 Q1008=
201209222030 METAR LPPR 222030Z 18017KT 9999 FEW015 22/17 Q1008=
201209222000 METAR LPPR 222000Z 19018G28KT 9999 FEW016 23/17 Q1008=
201209221930 METAR LPPR 221930Z 18016KT 9999 FEW015 23/17 Q1008=
201209221900 METAR LPPR 221900Z 18018KT 9999 FEW015 22/18 Q1008=
201209221830 METAR LPPR 221830Z 17018KT 9999 FEW016 FEW018CB 22/18 Q1008=
201209221800 METAR LPPR 221800Z 18017KT 9999 FEW016 FEW018CB 22/18 Q1009=
201209221730 METAR LPPR 221730Z 19015G26KT 9999 FEW017 22/18 Q1009=
201209221700 METAR LPPR 221700Z 19017KT 9999 FEW018 22/17 Q1009=
201209221630 METAR LPPR 221630Z 18015KT 9999 FEW020 23/17 Q1009=
201209221600 METAR LPPR 221600Z 19015KT 9999 FEW022 23/17 Q1009=
201209221530 METAR LPPR 221530Z 19015KT 9999 FEW023 24/17 Q1010=
201209221500 METAR LPPR 221500Z 19014KT 160V220 CAVOK 23/17 Q1010=
201209221430 METAR LPPR 221430Z 20015KT 170V230 CAVOK 23/17 Q1011=
201209221400 METAR LPPR 221400Z 21013KT CAVOK 23/17 Q1011=
201209221330 METAR LPPR 221330Z 20014KT 180V250 CAVOK 23/17 Q1011=
201209221300 METAR LPPR 221300Z 21015G25KT 170V240 CAVOK 23/17 Q1011=
201209221230 METAR LPPR 221230Z 20015KT 180V240 CAVOK 23/17 Q1012=
201209221200 METAR LPPR 221200Z 21013KT 190V260 CAVOK 22/17 Q1012=
201209221130 METAR LPPR 221130Z 21012KT 170V240 CAVOK 23/15 Q1012=
201209221100 METAR LPPR 221100Z 19013KT CAVOK 24/15 Q1012=
201209221030 METAR LPPR 221030Z 20011KT CAVOK 23/15 Q1012=
201209221000 METAR LPPR 221000Z 19011KT 160V220 CAVOK 23/15 Q1012=
201209220930 METAR LPPR 220930Z 18012KT CAVOK 22/15 Q1012=
201209220900 METAR LPPR 220900Z 18012KT CAVOK 22/14 Q1012=
201209220830 METAR LPPR 220830Z 17008KT CAVOK 21/14 Q1012=
201209220800 METAR LPPR 220800Z 14006KT 120V180 CAVOK 19/14 Q1012=
201209220730 METAR LPPR 220730Z 12007KT CAVOK 18/14 Q1012=
201209220700 METAR LPPR 220700Z 12007KT CAVOK 18/13 Q1012=
201209220630 METAR LPPR 220630Z 12006KT CAVOK 16/13 Q1012=
201209220600 METAR LPPR 220600Z 12007KT CAVOK 17/13 Q1012=
201209220530 METAR LPPR 220530Z 13006KT CAVOK 17/13 Q1012=
201209220500 METAR LPPR 220500Z 12007KT CAVOK 17/13 Q1012=
201209220430 METAR LPPR 220430Z 12007KT CAVOK 16/13 Q1012=
201209220400 METAR LPPR 220400Z 11007KT CAVOK 17/13 Q1012=
201209220330 METAR LPPR 220330Z 11007KT CAVOK 17/13 Q1012=
201209220300 METAR LPPR 220300Z 13005KT CAVOK 16/13 Q1012=
201209220230 METAR LPPR 220230Z 11006KT CAVOK 17/13 Q1013=
201209220200 METAR LPPR 220200Z 11007KT CAVOK 17/13 Q1013=
201209220130 METAR LPPR 220130Z 11008KT CAVOK 17/14 Q1013=
201209220100 METAR LPPR 220100Z 09004KT 050V110 CAVOK 15/13 Q1013=
201209220030 METAR LPPR 220030Z 08004KT 050V110 CAVOK 15/14 Q1014=
201209220000 METAR LPPR 220000Z 08004KT CAVOK 15/13 Q1014=
201209212330 METAR LPPR 212330Z VRB02KT CAVOK 16/14 Q1014=
201209212300 METAR LPPR 212300Z 10004KT CAVOK 16/14 Q1014=
201209212230 METAR LPPR 212230Z VRB01KT CAVOK 15/14 Q1015=
201209212200 METAR LPPR 212200Z VRB01KT CAVOK 15/14 Q1015=
201209212130 METAR LPPR 212130Z 11004KT CAVOK 17/14 Q1015=
201209212100 METAR LPPR 212100Z VRB02KT CAVOK 16/15 Q1015=
201209212030 METAR LPPR 212030Z 03001KT CAVOK 16/15 Q1015=
201209212000 METAR LPPR 212000Z 02001KT CAVOK 18/15 Q1015=
201209211930 METAR LPPR 211930Z VRB02KT 9999 FEW045 18/15 Q1015=
201209211900 METAR LPPR 211900Z VRB02KT 9999 SCT045 18/15 Q1015=
201209211830 METAR LPPR 211830Z 28002KT 9999 FEW045 20/15 Q1015=
201209211800 METAR LPPR 211800Z 26003KT 210V310 9999 FEW046 21/15 Q1015=
201209211730 METAR LPPR 211730Z 25004KT 200V280 9999 SCT046 21/15 Q1015=
201209211700 METAR LPPR 211700Z 23005KT 190V290 9999 BKN048 21/15 Q1015=
201209211630 METAR LPPR 211630Z 24006KT 210V280 9999 BKN045 21/15 Q1015=
201209211600 METAR LPPR 211600Z 23006KT 200V260 9999 FEW020 BKN045 23/13
                        Q1015=
201209211530 METAR LPPR 211530Z 22006KT 180V260 9999 FEW020 SCT045 23/13
                        Q1015=
201209211500 METAR LPPR 211500Z 19007KT 160V240 9999 FEW020 SCT045 23/13
                        Q1015=
201209211430 METAR LPPR 211430Z 19007KT 160V220 9999 FEW020 SCT045 23/12
                        Q1015=
201209211400 METAR LPPR 211400Z 18007KT 140V230 9999 FEW020 24/13 Q1015=
201209211330 METAR LPPR 211330Z 22006KT 170V270 9999 FEW020 23/15 Q1015=
201209211300 METAR LPPR 211300Z 21005KT 140V260 9999 SCT019 23/17 Q1015=
201209211230 METAR LPPR 211230Z 16005KT 110V260 9999 SCT016 23/16 Q1015=
201209211200 METAR LPPR 211200Z VRB02KT 9999 FEW014 SCT045 21/17 Q1016=
201209211130 METAR LPPR 211130Z 20003KT 150V230 9999 FEW009 SCT011 BKN045
                        21/17 Q1016=
201209211100 METAR LPPR 211100Z VRB03KT 9999 FEW008 SCT011 BKN040 20/17
                        Q1016=
201209211030 METAR LPPR 211030Z 18005KT 9999 FEW006 BKN009 BKN035 20/17
                        Q1016=
201209211000 METAR LPPR 211000Z 17005KT 9999 FEW004 SCT009 BKN035 19/17
                        Q1016=
201209210930 METAR LPPR 210930Z 17003KT 110V230 9999 SCT004 BKN024 19/17
                        Q1015=
201209210900 METAR LPPR 210900Z 18004KT 8000 3400N -DZ SCT003 BKN015 18/17
                        Q1015=
201209210830 METAR LPPR 210830Z 22004KT 170V270 3500 -DZ BR BKN004 BKN015
                        18/18 Q1015=
201209210800 METAR LPPR 210800Z 21004KT 180V280 3500 -DZ BR BKN005 OVC015
                        18/17 Q1014=
201209210730 METAR LPPR 210730Z 21004KT 180V260 7000 SCT007 BKN012 19/17
                        Q1014=
201209210700 METAR LPPR 210700Z 21005KT 9999 SCT012 BKN030 19/17 Q1014=
201209210630 METAR LPPR 210630Z VRB02KT 9999 FEW012 BKN020 19/17 Q1013=
201209210600 METAR LPPR 210600Z 15004KT 120V210 9999 FEW014 BKN030 19/17
                        Q1013=
201209210530 METAR LPPR 210530Z 18003KT 9999 FEW012 BKN020 19/17 Q1013=
201209210500 METAR LPPR 210500Z 19004KT 160V220 9999 FEW012 BKN020 19/17
                        Q1013=
201209210430 METAR LPPR 210430Z 17005KT 9999 BKN025 19/17 Q1013=
201209210400 METAR LPPR 210400Z VRB02KT 9999 FEW014 BKN025 19/17 Q1013=
201209210330 METAR LPPR 210330Z VRB02KT 9999 FEW020 BKN030 19/17 Q1013=
201209210300 METAR LPPR 210300Z 00000KT 9999 FEW020 BKN030 19/17 Q1013=
201209210230 METAR LPPR 210230Z 17004KT 120V200 9999 BKN025 19/17 Q1013=
201209210200 METAR LPPR 210200Z 20003KT 170V230 9000 FEW020 BKN030 19/17
                        Q1014=
201209210130 METAR LPPR 210130Z 17005KT 9999 BKN025 19/17 Q1014=
201209210100 METAR LPPR 210100Z 20003KT 160V230 9999 BKN025 19/17 Q1014=
201209210030 METAR LPPR 210030Z 13003KT 070V150 9999 BKN025 19/17 Q1014=
201209210000 METAR LPPR 210000Z VRB02KT 9999 BKN025 18/17 Q1014=
201209202330 METAR LPPR 202330Z VRB02KT 9999 FEW019 BKN025 17/16 Q1014=
201209202300 METAR LPPR 202300Z VRB02KT 9000 SCT020 18/16 Q1014=
201209202230 METAR LPPR 202230Z 23003KT 9999 FEW013 19/17 Q1014=
201209202200 METAR LPPR 202200Z 18004KT 9999 FEW012 18/17 Q1014=
201209202130 METAR LPPR 202130Z 19004KT 9999 FEW012 19/17 Q1014=
201209202100 METAR LPPR 202100Z 18005KT 9999 FEW012 19/17 Q1014=
201209202030 METAR LPPR 202030Z 17006KT 9999 FEW012 19/17 Q1014=
201209202000 METAR LPPR 202000Z 19004KT 9999 FEW015 19/17 Q1014=
201209201930 METAR LPPR 201930Z 21004KT 9999 FEW013 20/17 Q1014=
201209201900 METAR LPPR 201900Z 20003KT 170V230 9999 FEW013 20/17 Q1013=
201209201830 METAR LPPR 201830Z 25003KT 210V290 9999 FEW012 20/18 Q1013=
201209201800 METAR LPPR 201800Z 23004KT 190V270 9999 FEW010 SCT014 21/18
                        Q1013=
201209201730 METAR LPPR 201730Z 28003KT 220V310 9999 FEW009 BKN013 21/18
                        Q1013=
201209201700 METAR LPPR 201700Z 22005KT 180V270 9999 FEW009 SCT011 22/18
                        Q1013=
201209201630 METAR LPPR 201630Z 24005KT 170V320 9999 SCT008 22/19 Q1013=
201209201600 METAR LPPR 201600Z 23006KT 170V270 9999 SCT010 22/18 Q1013=
201209201530 METAR LPPR 201530Z 21006KT 180V280 9999 FEW009 22/19 Q1013=
201209201500 METAR LPPR 201500Z 23006KT 170V270 9999 FEW010 22/19 Q1013=
201209201430 METAR LPPR 201430Z 21005KT 160V250 9999 SCT006 22/18 Q1013=
201209201400 METAR LPPR 201400Z 24007KT 200V290 9000 SCT005 21/18 Q1013=
201209201330 METAR LPPR 201330Z 23006KT 190V290 9999 FEW005 21/18 Q1013=
201209201300 METAR LPPR 201300Z 25007KT 200V280 9999 FEW003 21/18 Q1013=
201209201230 METAR LPPR 201230Z 22008KT 170V270 9999 FEW005 23/18 Q1014=
201209201200 METAR LPPR 201200Z 22008KT 190V260 CAVOK 24/17 Q1014=
201209201130 METAR LPPR 201130Z 20008KT 160V240 CAVOK 24/16 Q1013=
201209201100 METAR LPPR 201100Z 19009KT CAVOK 25/16 Q1013=
201209201030 METAR LPPR 201030Z 21007KT 180V240 CAVOK 24/16 Q1014=
201209201000 METAR LPPR 201000Z 20008KT 9999 FEW030 24/16 Q1014=
201209200930 METAR LPPR 200930Z 16008KT 120V190 CAVOK 25/11 Q1013=
201209200900 METAR LPPR 200900Z 16008KT CAVOK 24/12 Q1013=
201209200830 METAR LPPR 200830Z 18006KT CAVOK 22/13 Q1013=
201209200800 METAR LPPR 200800Z 18005KT CAVOK 21/15 Q1013=
201209200730 METAR LPPR 200730Z 18004KT 9000 NSC 19/17 Q1013=
201209200700 METAR LPPR 200700Z VRB02KT 9000 NSC 17/15 Q1013=
201209200630 METAR LPPR 200630Z VRB02KT 9000 NSC 16/15 Q1013=
201209200600 METAR LPPR 200600Z VRB02KT CAVOK 16/15 Q1012=
201209200530 METAR LPPR 200530Z VRB01KT CAVOK 16/14 Q1012=
201209200500 METAR LPPR 200500Z 20004KT CAVOK 15/14 Q1012=
201209200430 METAR LPPR 200430Z 19003KT CAVOK 16/15 Q1012=
201209200400 METAR LPPR 200400Z VRB01KT CAVOK 16/15 Q1012=
201209200330 METAR LPPR 200330Z 13001KT CAVOK 17/15 Q1012=
201209200300 METAR LPPR 200300Z 14003KT 090V170 CAVOK 17/15 Q1012=
201209200230 METAR LPPR 200230Z 18003KT CAVOK 17/15 Q1013=
201209200200 METAR LPPR 200200Z 18004KT CAVOK 18/16 Q1013=
201209200130 METAR LPPR 200130Z 18004KT CAVOK 18/16 Q1013=
201209200100 METAR LPPR 200100Z 16004KT CAVOK 18/15 Q1013=
201209200030 METAR LPPR 200030Z 19004KT CAVOK 18/15 Q1013=
201209200000 METAR LPPR 200000Z 18005KT CAVOK 18/16 Q1014=
201209192330 METAR LPPR 192330Z 20005KT CAVOK 20/16 Q1014=
201209192300 METAR LPPR 192300Z 17006KT CAVOK 18/16 Q1014=
201209192230 METAR LPPR 192230Z 17006KT CAVOK 18/16 Q1014=
201209192200 METAR LPPR 192200Z 17005KT CAVOK 18/16 Q1014=
201209192130 METAR LPPR 192130Z 18004KT CAVOK 18/16 Q1014=
201209192100 METAR LPPR 192100Z 19002KT CAVOK 18/16 Q1013=
201209192030 METAR LPPR 192030Z 22003KT CAVOK 18/16 Q1013=
201209192000 METAR LPPR 192000Z 21002KT CAVOK 19/16 Q1013=
201209191930 METAR LPPR 191930Z VRB02KT CAVOK 20/16 Q1013=
201209191900 METAR LPPR 191900Z VRB01KT CAVOK 20/16 Q1013=
201209191830 METAR LPPR 191830Z VRB02KT CAVOK 22/16 Q1013=
201209191800 METAR LPPR 191800Z 30004KT 280V350 CAVOK 24/16 Q1013=
201209191730 METAR LPPR 191730Z 32006KT CAVOK 25/16 Q1013=
201209191700 METAR LPPR 191700Z 32006KT 290V360 CAVOK 25/16 Q1013=
201209191600 METAR LPPR 191600Z 33007KT 300V010 CAVOK 26/16 Q1013=
201209191500 METAR LPPR 191500Z 32010KT CAVOK 27/14 Q1013=
201209191430 METAR LPPR 191430Z 32011KT CAVOK 27/15 Q1013=
201209191400 METAR LPPR 191400Z 31009KT 270V340 CAVOK 27/15 Q1013=
201209191330 METAR LPPR 191330Z 32008KT CAVOK 27/16 Q1013=
201209191300 METAR LPPR 191300Z 30006KT 270V340 CAVOK 27/16 Q1014=
201209191230 METAR LPPR 191230Z 31006KT 280V340 CAVOK 27/16 Q1014=
201209191200 METAR LPPR 191200Z 07005KT 010V130 CAVOK 27/16 Q1014=
201209191130 METAR LPPR 191130Z 05004KT 350V110 CAVOK 28/13 Q1014=
201209191100 METAR LPPR 191100Z 10006KT 070V140 CAVOK 28/13 Q1014=
201209191030 METAR LPPR 191030Z 08007KT 050V110 CAVOK 27/13 Q1014=
201209191000 METAR LPPR 191000Z 09007KT 050V130 CAVOK 26/13 Q1014=
201209190930 METAR LPPR 190930Z VRB05KT CAVOK 24/15 Q1014=
201209190900 METAR LPPR 190900Z 04004KT 360V070 CAVOK 23/15 Q1014=
201209190830 METAR LPPR 190830Z 05004KT 020V080 CAVOK 22/15 Q1014=
201209190800 METAR LPPR 190800Z 06003KT 360V090 9000 NSC 18/18 Q1014=
201209190700 METAR LPPR 190700Z 36003KT 3000 BR NSC 14/13 Q1014=
201209190630 METAR LPPR 190630Z 35004KT 2000 BR NSC 14/14 Q1013=
201209190600 METAR LPPR 190600Z VRB02KT 4000 BR NSC 15/14 Q1013=
201209190530 METAR LPPR 190530Z 36002KT 4000 BR FEW005 14/14 Q1013=
201209190500 METAR LPPR 190500Z 00000KT 4000 BR NSC 16/15 Q1013=
201209190430 METAR LPPR 190430Z VRB02KT 4900 BR NSC 15/15 Q1013=
201209190400 METAR LPPR 190400Z 01001KT 4500 BR NSC 15/14 Q1013=
201209190330 METAR LPPR 190330Z 36003KT 4900 BR NSC 14/14 Q1013=
201209190300 METAR LPPR 190300Z 36003KT 4500 BR NSC 15/14 Q1013=
201209190230 METAR LPPR 190230Z VRB01KT 4500 BR NSC 15/14 Q1013=
201209190200 METAR LPPR 190200Z 01003KT 6000 NSC 15/15 Q1013=
201209190130 METAR LPPR 190130Z 17004KT 7000 NSC 16/16 Q1013=
201209190100 METAR LPPR 190100Z 00000KT 7000 NSC 16/15 Q1014=
201209190030 METAR LPPR 190030Z 00000KT 4900 BR NSC 16/15 Q1013=
201209190000 METAR LPPR 190000Z 17002KT 9000 NSC 16/15 Q1013=
201209182330 METAR LPPR 182330Z 17003KT 8000 NSC 17/16 Q1013=
201209182300 METAR LPPR 182300Z 20004KT 8000 NSC 17/15 Q1013=
201209182230 METAR LPPR 182230Z 14003KT 9000 NSC 17/16 Q1013=
201209182200 METAR LPPR 182200Z 17006KT 8000 NSC 17/16 Q1013=
201209182130 METAR LPPR 182130Z 17006KT 8000 NSC 16/15 Q1013=
201209182100 METAR LPPR 182100Z 20003KT 7000 NSC 17/16 Q1013=
201209182030 METAR LPPR 182030Z 19002KT 7000 NSC 16/15 Q1013=
201209182000 METAR LPPR 182000Z VRB02KT 8000 NSC 17/16 Q1013=
201209181930 METAR LPPR 181930Z VRB01KT 9000 NSC 18/16 Q1013=
201209181900 METAR LPPR 181900Z 29003KT 7000 NSC 18/16 Q1013=
201209181830 METAR LPPR 181830Z 32005KT 9000 NSC 19/16 Q1013=
201209181800 METAR LPPR 181800Z 32006KT 9000 NSC 20/17 Q1013=
201209181730 METAR LPPR 181730Z 32007KT 9000 NSC 20/17 Q1013=
201209181700 METAR LPPR 181700Z 32008KT 290V350 9999 FEW025TCU 21/17 Q1013=
201209181630 METAR LPPR 181630Z 31008KT 280V340 9999 FEW025TCU 21/17 Q1013=
201209181600 METAR LPPR 181600Z 31008KT 9999 FEW025TCU 22/17 Q1013=
201209181530 METAR LPPR 181530Z 32009KT 290V350 9999 FEW025TCU 22/16 Q1013=
201209181500 METAR LPPR 181500Z 31007KT 9999 FEW025TCU 23/16 Q1013=
201209181430 METAR LPPR 181430Z 32008KT 9999 FEW025TCU 24/16 Q1013=
201209181400 METAR LPPR 181400Z 32009KT 290V350 9999 FEW025TCU 24/16 Q1013=
201209181330 METAR LPPR 181330Z 32007KT 280V360 CAVOK 24/17 Q1013=
201209181300 METAR LPPR 181300Z 34008KT 300V010 CAVOK 23/16 Q1014=
201209181230 METAR LPPR 181230Z 32010KT 290V350 CAVOK 23/16 Q1014=
201209181200 METAR LPPR 181200Z 31008KT 280V340 CAVOK 22/16 Q1014=
201209181130 METAR LPPR 181130Z 33007KT 270V020 CAVOK 23/16 Q1014=
201209181100 METAR LPPR 181100Z 31006KT 270V350 CAVOK 22/17 Q1015=
201209181030 METAR LPPR 181030Z 32004KT 240V050 CAVOK 23/17 Q1015=
201209181000 METAR LPPR 181000Z 31004KT 260V350 CAVOK 22/16 Q1015=
201209180930 METAR LPPR 180930Z 30003KT 250V010 CAVOK 22/17 Q1015=
201209180900 METAR LPPR 180900Z 36003KT 320V060 CAVOK 20/16 Q1014=
201209180830 METAR LPPR 180830Z 35003KT 320V020 9000 NSC 19/16 Q1014=
201209180800 METAR LPPR 180800Z 36004KT 6000 NSC 18/17 Q1014=
201209180730 METAR LPPR 180730Z VRB02KT 6000 NSC 18/16 Q1014=
201209180700 METAR LPPR 180700Z VRB02KT 6000 NSC 17/16 Q1014=
201209180630 METAR LPPR 180630Z 35002KT 6000 NSC 17/16 Q1014=
201209180600 METAR LPPR 180600Z VRB01KT 9000 NSC 17/16 Q1014=
201209180530 METAR LPPR 180530Z VRB01KT CAVOK 17/16 Q1014=
201209180500 METAR LPPR 180500Z 12002KT CAVOK 17/16 Q1014=
201209180430 METAR LPPR 180430Z 17002KT CAVOK 17/16 Q1014=
201209180400 METAR LPPR 180400Z 36004KT CAVOK 17/16 Q1014=
201209180330 METAR LPPR 180330Z 05004KT CAVOK 17/15 Q1014=
201209180300 METAR LPPR 180300Z VRB02KT CAVOK 17/16 Q1014=
201209180230 METAR LPPR 180230Z 04002KT CAVOK 17/16 Q1014=
201209180200 METAR LPPR 180200Z 36003KT CAVOK 17/16 Q1015=
201209180130 METAR LPPR 180130Z VRB02KT CAVOK 17/16 Q1015=
201209180100 METAR LPPR 180100Z 04002KT 8000 NSC 17/16 Q1015=
201209180030 METAR LPPR 180030Z 02002KT 7000 NSC 16/15 Q1015=
201209180000 METAR LPPR 180000Z 01003KT 7000 NSC 16/15 Q1016=
201209172330 METAR LPPR 172330Z 34002KT CAVOK 17/16 Q1015=
201209172300 METAR LPPR 172300Z 00000KT CAVOK 17/16 Q1016=
201209172230 METAR LPPR 172230Z 04003KT 010V080 CAVOK 18/16 Q1015=
201209172200 METAR LPPR 172200Z 02003KT CAVOK 18/16 Q1016=
201209172130 METAR LPPR 172130Z 03001KT CAVOK 18/16 Q1016=
201209172100 METAR LPPR 172100Z 05003KT 360V090 CAVOK 18/16 Q1016=
201209172030 METAR LPPR 172030Z VRB02KT CAVOK 18/16 Q1016=
201209172000 METAR LPPR 172000Z VRB02KT 9000 NSC 18/16 Q1016=
201209171930 METAR LPPR 171930Z 04003KT 350V080 9000 NSC 18/16 Q1016=
201209171900 METAR LPPR 171900Z 02004KT 360V080 8000 NSC 18/16 Q1016=
201209171830 METAR LPPR 171830Z VRB01KT CAVOK 19/16 Q1016=
201209171800 METAR LPPR 171800Z 29004KT 260V320 CAVOK 19/16 Q1016=
201209171730 METAR LPPR 171730Z 32003KT 290V350 CAVOK 19/16 Q1015=
201209171700 METAR LPPR 171700Z 30005KT 250V330 CAVOK 20/17 Q1015=
201209171630 METAR LPPR 171630Z 29004KT 270V330 CAVOK 20/17 Q1015=
201209171600 METAR LPPR 171600Z 27005KT 240V320 9999 FEW022 20/17 Q1015=
201209171530 METAR LPPR 171530Z 27008KT 230V300 9999 FEW025 20/17 Q1015=
201209171500 METAR LPPR 171500Z 30004KT 250V340 9999 FEW025 23/17 Q1015=
201209171430 METAR LPPR 171430Z VRB02KT 9999 FEW025 23/16 Q1015=
201209171400 METAR LPPR 171400Z 28003KT 240V330 9999 FEW025 21/16 Q1015=
201209171330 METAR LPPR 171330Z 25005KT 210V320 9999 FEW025 21/16 Q1015=
201209171300 METAR LPPR 171300Z 30004KT 260V340 9999 FEW025 21/16 Q1015=
201209171230 METAR LPPR 171230Z 30004KT 230V010 9999 FEW015 21/16 Q1016=
201209171200 METAR LPPR 171200Z VRB03KT 9999 FEW015 SCT030 22/16 Q1016=
201209171130 METAR LPPR 171130Z 23005KT 190V270 9999 FEW015 BKN027 20/16
                        Q1016=
201209171100 METAR LPPR 171100Z 25005KT 200V290 9000 FEW013 BKN028 20/17
                        Q1016=
201209171030 METAR LPPR 171030Z 22004KT 180V260 8000 FEW014 SCT035 20/17
                        Q1016=
201209171000 METAR LPPR 171000Z VRB04KT 8000 SCT015 SCT045 21/17 Q1015=
201209170930 METAR LPPR 170930Z VRB02KT 9999 FEW020 SCT045 20/16 Q1016=
201209170900 METAR LPPR 170900Z 09004KT 050V120 8000 FEW020 SCT045 20/17
                        Q1015=
201209170830 METAR LPPR 170830Z 11004KT 080V160 7000 FEW017 SCT045 19/17
                        Q1015=
201209170800 METAR LPPR 170800Z 12003KT 080V170 7000 FEW015 SCT045 18/17
                        Q1015=
201209170730 METAR LPPR 170730Z 11004KT 080V140 7000 FEW025 SCT045 17/16
                        Q1015=
201209170700 METAR LPPR 170700Z VRB02KT 7000 SCT015 15/15 Q1015=
201209170630 METAR LPPR 170630Z 03003KT 360V060 6000 FEW005 BKN015 15/15
                        Q1014=
201209170600 METAR LPPR 170600Z 00000KT 7000 FEW014 SCT017 15/15 Q1014=
201209170530 METAR LPPR 170530Z 00000KT 9999 FEW014 15/14 Q1014=
201209170500 METAR LPPR 170500Z 24003KT 9000 FEW012 15/15 Q1014=
201209170430 METAR LPPR 170430Z 00000KT 9000 FEW012 15/15 Q1013=
201209170400 METAR LPPR 170400Z 01002KT 9999 FEW005 15/14 Q1013=
201209170330 METAR LPPR 170330Z 00000KT 9999 FEW005 15/15 Q1013=
201209170300 METAR LPPR 170300Z 00000KT 9999 FEW014 16/15 Q1013=
201209170230 METAR LPPR 170230Z VRB01KT 7000 FEW005 SCT014 16/15 Q1014=
201209170200 METAR LPPR 170200Z 00000KT 7000 FEW005 SCT015 16/16 Q1014=
201209170130 METAR LPPR 170130Z 00000KT 9999 FEW005 SCT014 15/15 Q1014=
201209170100 METAR LPPR 170100Z 00000KT 8000 FEW005 SCT015 16/16 Q1014=
201209170030 METAR COR LPPR 170030Z VRB01KT 8000 FEW005 SCT013 BKN015
                        16/16 Q1014=
201209170000 METAR LPPR 170000Z 00000KT 7000 SCT002 BKN014 17/16 Q1015=
201209162330 METAR LPPR 162330Z VRB01KT 9000 FEW002 SCT004 BKN014 17/17
                        Q1015=
201209162300 METAR LPPR 162300Z 11002KT 9000 SCT003 SCT009 BKN013 17/17
                        Q1015=
201209162230 METAR LPPR 162230Z VRB02KT 9999 FEW001 SCT003 BKN013 17/17
                        Q1015=
201209162200 METAR LPPR 162200Z 00000KT 4700 VCFG SCT002 SCT005 BKN011
                        17/17 Q1015=
201209162130 METAR LPPR 162130Z VRB02KT 0900 R17/0800VP2000U BCFG BKN002
                        BKN004 17/17 Q1015=
201209162100 METAR LPPR 162100Z VRB01KT 1000 0450N R17/0600 BCFG VV002
                        17/17 Q1015=
201209162030 METAR LPPR 162030Z VRB01KT 0800 R17/0800V1300U BCFG BKN002
                        BKN004 17/17 Q1015=
201209162000 METAR LPPR 162000Z VRB01KT 0700 R17/1000 FG VV002 17/17 Q1015=
201209161930 METAR LPPR 161930Z 35003KT 0450 R17/0650 FG VV002 17/17 Q1014=
201209161900 METAR LPPR 161900Z 33003KT 290V020 1700 0800N R17/P2000 BCFG
                        BKN002 BKN004 17/16 Q1014=
201209161830 METAR LPPR 161830Z VRB01KT 9999 FEW005 18/16 Q1014=
201209161800 METAR LPPR 161800Z VRB02KT 9999 FEW003 18/17 Q1014=
201209161730 METAR LPPR 161730Z 30003KT 260V320 9999 FEW003 20/17 Q1014=
201209161700 METAR LPPR 161700Z VRB02KT 9999 FEW003 22/17 Q1014=
201209161630 METAR LPPR 161630Z VRB02KT 9999 FEW003 21/18 Q1014=
201209161600 METAR LPPR 161600Z 31004KT 280V350 9000 4000NW VCFG SCT003
                        19/18 Q1014=
201209161530 METAR LPPR 161530Z 30005KT 260V340 9999 SCT003 20/17 Q1014=
201209161500 METAR LPPR 161500Z 31005KT 290V360 9999 SCT003 19/17 Q1014=
201209161430 METAR LPPR 161430Z 30006KT 9999 FEW003 20/17 Q1014=
201209161400 METAR LPPR 161400Z 26005KT 200V330 CAVOK 22/17 Q1014=
201209161330 METAR LPPR 161330Z 26007KT 220V300 9999 FEW007 21/17 Q1014=
201209161300 METAR LPPR 161300Z 26007KT 230V290 9999 FEW008 23/17 Q1014=
201209161230 METAR LPPR 161230Z VRB02KT CAVOK 26/12 Q1014=
201209161200 METAR LPPR 161200Z 15004KT 090V250 CAVOK 24/15 Q1014=
201209161130 METAR LPPR 161130Z 25004KT 190V290 CAVOK 22/16 Q1014=
201209161100 METAR LPPR 161100Z 25006KT 220V280 9999 FEW009 20/15 Q1014=
201209161030 METAR LPPR 161030Z 26008KT 230V290 9999 FEW009 19/16 Q1014=
201209161000 METAR LPPR 161000Z 11004KT 060V170 CAVOK 22/13 Q1014=
201209160930 METAR LPPR 160930Z 15008KT CAVOK 20/13 Q1014=
201209160900 METAR LPPR 160900Z 13003KT 8000 NSC 18/14 Q1014=
201209160830 METAR LPPR 160830Z 16003KT 110V210 8000 NSC 18/15 Q1013=
201209160800 METAR LPPR 160800Z VRB01KT 7000 NSC 16/15 Q1014=
201209160730 METAR LPPR 160730Z 25003KT 210V300 8000 NSC 16/13 Q1013=
201209160700 METAR LPPR 160700Z 13003KT 100V160 7000 NSC 14/12 Q1013=
201209160630 METAR LPPR 160630Z VRB02KT 5000 2400NW PRFG BR FEW001 14/13
                        Q1013=
201209160600 METAR LPPR 160600Z 26002KT 9000 NSC 13/11 Q1013=
201209160530 METAR LPPR 160530Z VRB01KT 9000 NSC 13/10 Q1012=
201209160500 METAR LPPR 160500Z VRB01KT CAVOK 13/10 Q1012=
201209160430 METAR LPPR 160430Z 15003KT 120V190 CAVOK 16/10 Q1012=
201209160400 METAR LPPR 160400Z 15003KT 110V210 CAVOK 14/10 Q1012=
201209160330 METAR LPPR 160330Z 14003KT 120V180 9000 NSC 14/11 Q1012=
201209160300 METAR LPPR 160300Z VRB01KT CAVOK 15/10 Q1012=
201209160230 METAR LPPR 160230Z 11002KT CAVOK 14/11 Q1012=
201209160200 METAR LPPR 160200Z VRB02KT CAVOK 14/11 Q1013=
201209160130 METAR LPPR 160130Z 19004KT CAVOK 13/10 Q1013=
201209160100 METAR LPPR 160100Z 17003KT CAVOK 14/11 Q1012=
201209160030 METAR LPPR 160030Z 00000KT CAVOK 13/11 Q1013=
201209160000 METAR LPPR 160000Z 00000KT CAVOK 14/11 Q1013=
201209152330 METAR LPPR 152330Z 05002KT CAVOK 14/12 Q1013=
201209152300 METAR LPPR 152300Z 00000KT CAVOK 14/11 Q1013=
201209152230 METAR LPPR 152230Z 00000KT CAVOK 16/12 Q1013=
201209152200 METAR LPPR 152200Z 06002KT CAVOK 15/12 Q1013=
201209152130 METAR LPPR 152130Z 00000KT CAVOK 16/12 Q1013=
201209152100 METAR LPPR 152100Z 00000KT CAVOK 15/12 Q1013=
201209152030 METAR LPPR 152030Z 00000KT 9999 FEW005 16/12 Q1013=
201209152000 METAR LPPR 152000Z 06002KT 9999 FEW005 17/12 Q1013=
201209151930 METAR LPPR 151930Z VRB01KT CAVOK 19/12 Q1013=
201209151900 METAR LPPR 151900Z 27001KT CAVOK 21/12 Q1013=
201209151830 METAR LPPR 151830Z 32002KT 9999 FEW040 22/11 Q1013=
201209151800 METAR LPPR 151800Z 34004KT 9999 FEW035 23/11 Q1012=
201209151730 METAR LPPR 151730Z 32003KT 270V010 9999 FEW025 24/09 Q1013=
201209151700 METAR LPPR 151700Z 30004KT 270V360 9999 FEW020 24/09 Q1013=
201209151630 METAR LPPR 151630Z 29004KT 250V310 9999 FEW020 25/09 Q1013=
201209151600 METAR LPPR 151600Z 29004KT 260V320 9999 FEW020 27/11 Q1013=
201209151530 METAR LPPR 151530Z 29004KT 9999 FEW012 27/11 Q1013=
201209151500 METAR LPPR 151500Z 30005KT CAVOK 27/12 Q1013=
201209151430 METAR LPPR 151430Z 30004KT 270V330 CAVOK 27/10 Q1013=
201209151400 METAR LPPR 151400Z 30004KT 260V330 CAVOK 27/10 Q1013=
201209151330 METAR LPPR 151330Z 29004KT 240V330 CAVOK 27/09 Q1013=
201209151300 METAR LPPR 151300Z 28005KT 240V320 CAVOK 25/09 Q1013=
201209151230 METAR LPPR 151230Z 26005KT 220V310 CAVOK 26/09 Q1014=
201209151200 METAR LPPR 151200Z 24006KT 210V280 CAVOK 27/10 Q1014=
201209151130 METAR LPPR 151130Z 26003KT 220V350 CAVOK 27/12 Q1013=
201209151100 METAR LPPR 151100Z 24004KT 210V270 CAVOK 27/12 Q1013=
201209151030 METAR LPPR 151030Z 24004KT 210V290 CAVOK 26/12 Q1014=
201209151000 METAR LPPR 151000Z 26003KT 200V320 CAVOK 24/11 Q1014=
201209150930 METAR LPPR 150930Z 24003KT 210V320 CAVOK 24/10 Q1014=
201209150900 METAR LPPR 150900Z 26003KT 220V280 CAVOK 23/12 Q1014=
201209150830 METAR LPPR 150830Z 26003KT 210V320 CAVOK 23/11 Q1014=
201209150800 METAR LPPR 150800Z VRB01KT CAVOK 21/13 Q1013=
201209150730 METAR LPPR 150730Z VRB02KT CAVOK 16/11 Q1013=
201209150700 METAR LPPR 150700Z VRB04KT CAVOK 16/10 Q1013=
201209150630 METAR LPPR 150630Z 09005KT 060V120 CAVOK 13/10 Q1013=
201209150600 METAR LPPR 150600Z 07004KT 010V160 CAVOK 14/10 Q1013=
201209150530 METAR LPPR 150530Z VRB01KT CAVOK 16/10 Q1013=
201209150500 METAR LPPR 150500Z VRB02KT CAVOK 15/12 Q1013=
201209150430 METAR LPPR 150430Z VRB02KT CAVOK 14/11 Q1013=
201209150400 METAR LPPR 150400Z 15001KT CAVOK 13/12 Q1013=
201209150330 METAR LPPR 150330Z VRB02KT CAVOK 15/13 Q1013=
201209150300 METAR LPPR 150300Z 13003KT CAVOK 14/12 Q1014=
201209150230 METAR LPPR 150230Z 05004KT 010V070 CAVOK 15/12 Q1014=
201209150200 METAR LPPR 150200Z VRB01KT CAVOK 16/12 Q1014=
201209150130 METAR LPPR 150130Z VRB01KT CAVOK 17/13 Q1014=
201209150100 METAR LPPR 150100Z 07002KT CAVOK 16/13 Q1014=
201209150030 METAR LPPR 150030Z VRB02KT CAVOK 19/13 Q1014=
201209150000 METAR LPPR 150000Z VRB01KT CAVOK 20/13 Q1014=
201209142330 METAR LPPR 142330Z VRB02KT CAVOK 20/12 Q1014=
201209142300 METAR LPPR 142300Z 12004KT 080V150 CAVOK 19/12 Q1015=
201209142230 METAR LPPR 142230Z 13003KT 100V160 CAVOK 18/13 Q1015=
201209142200 METAR LPPR 142200Z VRB01KT CAVOK 17/13 Q1015=
201209142130 METAR LPPR 142130Z VRB01KT CAVOK 17/12 Q1015=
201209142100 METAR LPPR 142100Z VRB01KT CAVOK 18/13 Q1015=
201209142030 METAR LPPR 142030Z 01002KT CAVOK 19/12 Q1015=
201209142000 METAR LPPR 142000Z 36006KT CAVOK 20/12 Q1015=
201209141930 METAR LPPR 141930Z 35005KT CAVOK 21/12 Q1015=
201209141900 METAR LPPR 141900Z 34007KT CAVOK 21/12 Q1014=
201209141830 METAR LPPR 141830Z 35009KT CAVOK 22/12 Q1014=
201209141800 METAR LPPR 141800Z 35011KT CAVOK 23/12 Q1014=
201209141730 METAR LPPR 141730Z 34012KT 310V010 CAVOK 24/11 Q1014=
201209141700 METAR LPPR 141700Z 33010KT 300V360 CAVOK 25/11 Q1014=
201209141630 METAR LPPR 141630Z 34010KT CAVOK 26/11 Q1014=
201209141600 METAR LPPR 141600Z 31009KT CAVOK 25/13 Q1014=
201209141530 METAR LPPR 141530Z 34010KT 300V360 CAVOK 28/13 Q1015=
201209141500 METAR LPPR 141500Z 34012KT CAVOK 28/13 Q1015=
201209141430 METAR LPPR 141430Z 33009KT 290V360 CAVOK 28/13 Q1015=
201209141400 METAR LPPR 141400Z 32009KT 280V350 CAVOK 27/13 Q1016=
201209141330 METAR LPPR 141330Z 32010KT 290V350 CAVOK 27/12 Q1016=
201209141300 METAR LPPR 141300Z 31008KT CAVOK 26/11 Q1017=
201209141230 METAR LPPR 141230Z 05007KT 350V090 CAVOK 30/06 Q1017=
201209141200 METAR LPPR 141200Z 09007KT 040V140 CAVOK 28/08 Q1017=
201209141130 METAR LPPR 141130Z 08008KT 040V120 CAVOK 28/08 Q1018=
201209141100 METAR LPPR 141100Z 08009KT 040V120 CAVOK 27/08 Q1018=
201209141030 METAR LPPR 141030Z 10010KT CAVOK 26/08 Q1018=
201209141000 METAR LPPR 141000Z 10010KT 050V120 CAVOK 25/08 Q1018=
201209140930 METAR LPPR 140930Z 09010KT 060V120 CAVOK 24/08 Q1017=
201209140900 METAR LPPR 140900Z 10011KT CAVOK 23/09 Q1018=
201209140830 METAR LPPR 140830Z 10011KT CAVOK 22/08 Q1017=
201209140800 METAR LPPR 140800Z 09009KT 060V120 CAVOK 22/09 Q1017=
201209140730 METAR LPPR 140730Z 09008KT CAVOK 21/09 Q1017=
201209140700 METAR LPPR 140700Z 08008KT CAVOK 20/09 Q1017=
201209140630 METAR LPPR 140630Z 08007KT 060V130 CAVOK 20/09 Q1017=
201209140600 METAR LPPR 140600Z 09006KT 030V140 CAVOK 20/10 Q1017=
201209140530 METAR LPPR 140530Z 10004KT CAVOK 20/10 Q1017=
201209140500 METAR LPPR 140500Z 09006KT CAVOK 20/11 Q1017=
201209140430 METAR LPPR 140430Z 10008KT CAVOK 21/11 Q1016=
201209140400 METAR LPPR 140400Z 09005KT CAVOK 17/12 Q1016=
201209140330 METAR LPPR 140330Z 07005KT 040V100 CAVOK 14/13 Q1016=
201209140300 METAR LPPR 140300Z 36004KT CAVOK 14/13 Q1017=
201209140230 METAR LPPR 140230Z 05004KT 010V080 CAVOK 15/12 Q1017=
201209140200 METAR LPPR 140200Z 05004KT 020V090 CAVOK 15/13 Q1017=
201209140130 METAR LPPR 140130Z VRB01KT CAVOK 15/13 Q1017=
201209140100 METAR LPPR 140100Z VRB02KT CAVOK 17/14 Q1017=
201209140030 METAR LPPR 140030Z VRB04KT CAVOK 17/14 Q1017=
201209140000 METAR LPPR 140000Z VRB02KT CAVOK 19/15 Q1017=
201209132330 METAR LPPR 132330Z VRB02KT CAVOK 17/14 Q1017=
201209132300 METAR LPPR 132300Z VRB01KT CAVOK 17/14 Q1017=
201209132230 METAR LPPR 132230Z 00000KT CAVOK 16/14 Q1017=
201209132200 METAR LPPR 132200Z 00000KT CAVOK 16/14 Q1017=
201209132130 METAR LPPR 132130Z 36001KT CAVOK 17/14 Q1017=
201209132100 METAR LPPR 132100Z 04002KT CAVOK 17/15 Q1017=
201209132030 METAR LPPR 132030Z 02003KT CAVOK 17/15 Q1017=
201209132000 METAR LPPR 132000Z 35004KT CAVOK 18/15 Q1017=
201209131930 METAR LPPR 131930Z 34004KT CAVOK 19/15 Q1017=
201209131900 METAR LPPR 131900Z 35007KT CAVOK 19/15 Q1017=
201209131830 METAR LPPR 131830Z 33005KT CAVOK 20/15 Q1017=
201209131800 METAR LPPR 131800Z 33007KT CAVOK 21/15 Q1017=
201209131730 METAR LPPR 131730Z 32006KT CAVOK 22/16 Q1017=
201209131700 METAR LPPR 131700Z 32006KT 290V360 CAVOK 22/16 Q1017=
201209131630 METAR LPPR 131630Z 31007KT CAVOK 23/16 Q1017=
201209131600 METAR LPPR 131600Z 33009KT CAVOK 25/15 Q1018=
201209131530 METAR LPPR 131530Z 32009KT CAVOK 25/15 Q1018=
201209131500 METAR LPPR 131500Z 33010KT CAVOK 25/15 Q1018=
201209131430 METAR LPPR 131430Z 32011KT CAVOK 24/14 Q1018=
201209131400 METAR LPPR 131400Z 33011KT CAVOK 24/14 Q1019=
201209131330 METAR LPPR 131330Z 30008KT 260V330 CAVOK 24/14 Q1019=
201209131300 METAR LPPR 131300Z 31007KT 280V350 CAVOK 24/15 Q1019=
201209131230 METAR LPPR 131230Z 34009KT CAVOK 23/14 Q1020=
201209131200 METAR LPPR 131200Z 33010KT 300V360 CAVOK 22/13 Q1020=
201209131130 METAR LPPR 131130Z 32008KT 280V340 CAVOK 21/14 Q1020=
201209131100 METAR LPPR 131100Z VRB06KT CAVOK 22/14 Q1020=
201209131030 METAR LPPR 131030Z 36005KT 310V070 CAVOK 22/12 Q1021=
201209131000 METAR LPPR 131000Z 02007KT 340V060 CAVOK 21/13 Q1021=
201209130930 METAR LPPR 130930Z 04008KT CAVOK 20/13 Q1021=
201209130900 METAR LPPR 130900Z 05006KT 010V070 CAVOK 20/13 Q1021=
201209130830 METAR LPPR 130830Z 03006KT 360V060 CAVOK 18/12 Q1021=
201209130800 METAR LPPR 130800Z 02006KT CAVOK 16/12 Q1020=
201209130730 METAR LPPR 130730Z 02005KT CAVOK 15/11 Q1021=
201209130700 METAR LPPR 130700Z 02006KT CAVOK 13/11 Q1020=
201209130630 METAR LPPR 130630Z 36007KT CAVOK 12/10 Q1020=
201209130600 METAR LPPR 130600Z 01007KT 320V050 CAVOK 13/11 Q1020=
201209130530 METAR LPPR 130530Z 36007KT CAVOK 13/11 Q1020=
201209130500 METAR LPPR 130500Z 36010KT CAVOK 14/11 Q1020=
201209130430 METAR LPPR 130430Z 36007KT CAVOK 15/11 Q1020=
201209130400 METAR LPPR 130400Z 35005KT CAVOK 16/11 Q1020=
201209130330 METAR LPPR 130330Z 36007KT CAVOK 15/12 Q1020=
201209130300 METAR LPPR 130300Z 01007KT CAVOK 16/12 Q1020=
201209130230 METAR LPPR 130230Z 35008KT CAVOK 16/13 Q1020=
201209130200 METAR LPPR 130200Z 34006KT CAVOK 17/14 Q1020=
201209130130 METAR LPPR 130130Z 35008KT CAVOK 16/14 Q1020=
201209130100 METAR LPPR 130100Z 36007KT CAVOK 17/14 Q1020=
201209130030 METAR LPPR 130030Z 33004KT CAVOK 19/14 Q1020=
201209130000 METAR LPPR 130000Z 35006KT CAVOK 18/14 Q1020=
201209122330 METAR LPPR 122330Z 01010KT CAVOK 20/15 Q1020=
201209122300 METAR LPPR 122300Z 36009KT CAVOK 18/15 Q1020=
201209122230 METAR LPPR 122230Z 34009KT CAVOK 19/16 Q1020=
201209122200 METAR LPPR 122200Z 35004KT CAVOK 18/16 Q1020=
201209122130 METAR LPPR 122130Z VRB02KT CAVOK 19/15 Q1020=
201209122100 METAR LPPR 122100Z 36003KT 340V040 CAVOK 18/15 Q1020=
201209122030 METAR LPPR 122030Z 04003KT 350V070 CAVOK 18/16 Q1020=
201209122000 METAR LPPR 122000Z 33008KT CAVOK 19/16 Q1020=
201209121930 METAR LPPR 121930Z 34009KT CAVOK 19/16 Q1020=
201209121900 METAR LPPR 121900Z 33009KT CAVOK 19/16 Q1020=
201209121830 METAR LPPR 121830Z 33007KT 300V360 CAVOK 19/16 Q1020=
201209121800 METAR LPPR 121800Z 33009KT CAVOK 20/16 Q1020=
201209121730 METAR LPPR 121730Z 32012KT CAVOK 20/16 Q1020=
201209121700 METAR LPPR 121700Z 32012KT CAVOK 21/16 Q1020=
201209121630 METAR LPPR 121630Z 33010KT 280V350 CAVOK 22/16 Q1020=
201209121600 METAR LPPR 121600Z 34011KT CAVOK 23/17 Q1020=
201209121530 METAR LPPR 121530Z 32009KT CAVOK 23/17 Q1020=
201209121500 METAR LPPR 121500Z 32011KT CAVOK 23/17 Q1020=
201209121430 METAR LPPR 121430Z 32011KT 290V350 CAVOK 23/18 Q1020=
201209121400 METAR LPPR 121400Z 32011KT CAVOK 23/18 Q1020=
201209121330 METAR LPPR 121330Z 32010KT 290V350 CAVOK 23/17 Q1020=
201209121300 METAR LPPR 121300Z 32009KT 280V360 CAVOK 23/17 Q1021=
201209121230 METAR LPPR 121230Z 32009KT 280V350 CAVOK 23/18 Q1021=
201209121200 METAR LPPR 121200Z 32009KT CAVOK 23/18 Q1021=
201209121130 METAR LPPR 121130Z 32008KT CAVOK 23/18 Q1021=
201209121100 METAR LPPR 121100Z 31005KT 260V340 CAVOK 22/18 Q1021=
201209121030 METAR LPPR 121030Z 30006KT 270V340 CAVOK 22/18 Q1021=
201209121000 METAR LPPR 121000Z 30005KT 270V330 CAVOK 22/19 Q1021=
201209120930 METAR LPPR 120930Z 01004KT 330V060 9999 FEW007 23/18 Q1021=
201209120900 METAR LPPR 120900Z 05003KT 310V120 9999 FEW002 23/19 Q1021=
201209120830 METAR LPPR 120830Z 04003KT 340V090 9999 FEW001 21/19 Q1021=
201209120800 METAR LPPR 120800Z VRB01KT 9000 FEW003 19/19 Q1020=
201209120730 METAR LPPR 120730Z 36002KT 6000 FEW003 17/17 Q1020=
201209120700 METAR LPPR 120700Z 01001KT 6000 NSC 15/15 Q1020=
201209120630 METAR LPPR 120630Z VRB01KT 6000 NSC 16/15 Q1020=
201209120600 METAR LPPR 120600Z VRB02KT 7000 FEW004 15/15 Q1020=
201209120530 METAR LPPR 120530Z VRB01KT 6000 FEW003 16/15 Q1020=
201209120500 METAR LPPR 120500Z 03002KT 6000 SCT003 16/15 Q1020=
201209120430 METAR LPPR 120430Z 01002KT 6000 FEW003 16/15 Q1020=
201209120400 METAR LPPR 120400Z VRB01KT 6000 SCT003 15/15 Q1020=
201209120330 METAR LPPR 120330Z VRB01KT 6000 FEW004 16/16 Q1020=
201209120300 METAR LPPR 120300Z 02002KT 4500 BR SCT003 16/16 Q1020=
201209120230 METAR LPPR 120230Z VRB02KT 4500 BR FEW002 16/16 Q1020=
201209120200 METAR LPPR 120200Z 00000KT 3000 BR FEW002 SCT004 17/17 Q1020=
201209120130 METAR LPPR 120130Z 00000KT 2000 R35/0800VP2000D PRFG FEW003
                        SCT005 17/17 Q1020=
201209120100 METAR LPPR 120100Z 36003KT 4000 BR FEW002 SCT004 17/17 Q1021=
201209120030 METAR LPPR 120030Z 34004KT 4000 BR SCT002 17/17 Q1020=
201209120000 METAR LPPR 120000Z 35004KT 4500 BR SCT004 17/16 Q1020=
201209112330 METAR LPPR 112330Z 00000KT 4500 BR SCT004 18/17 Q1020=
201209112300 METAR LPPR 112300Z 34003KT 6000 FEW006 18/17 Q1020=
201209112230 METAR LPPR 112230Z 33003KT 8000 NSC 18/18 Q1020=
201209112200 METAR LPPR 112200Z 34005KT 8000 FEW006 19/18 Q1020=
201209112130 METAR LPPR 112130Z 33003KT 8000 NSC 19/18 Q1020=
201209112100 METAR LPPR 112100Z 36003KT 8000 FEW005 19/18 Q1020=
201209112030 METAR LPPR 112030Z 35005KT CAVOK 19/18 Q1020=
201209112000 METAR LPPR 112000Z 34003KT CAVOK 20/19 Q1020=
201209111930 METAR LPPR 111930Z 32004KT 290V360 CAVOK 20/19 Q1019=
201209111900 METAR LPPR 111900Z 33006KT CAVOK 21/19 Q1019=
201209111830 METAR LPPR 111830Z 33005KT CAVOK 21/19 Q1019=
201209111800 METAR LPPR 111800Z 32006KT 250V340 CAVOK 22/19 Q1019=
201209111730 METAR LPPR 111730Z 30004KT 260V340 CAVOK 23/19 Q1019=
201209111700 METAR LPPR 111700Z 30005KT 260V340 CAVOK 23/19 Q1019=
201209111630 METAR LPPR 111630Z 30006KT CAVOK 23/19 Q1018=
201209111600 METAR LPPR 111600Z 31006KT 260V350 CAVOK 24/19 Q1018=
201209111530 METAR LPPR 111530Z 29005KT 260V320 9999 FEW022 23/18 Q1018=
201209111500 METAR LPPR 111500Z 29005KT 240V340 9999 FEW022 24/18 Q1018=
201209111430 METAR LPPR 111430Z 29005KT 260V360 9999 FEW025 24/18 Q1019=
201209111400 METAR LPPR 111400Z 30007KT 260V330 9999 FEW020 SCT035 23/18
                        Q1019=
201209111330 METAR LPPR 111330Z 29006KT 250V320 9999 FEW020 SCT035 24/18
                        Q1019=
201209111300 METAR LPPR 111300Z 27006KT 220V340 9999 FEW020 SCT030 23/17
                        Q1019=
201209111230 METAR LPPR 111230Z 25004KT 190V310 9999 FEW020 SCT030 25/17
                        Q1019=
201209111200 METAR LPPR 111200Z 26004KT 230V320 9999 FEW020 BKN032 23/17
                        Q1019=
201209111130 METAR LPPR 111130Z 27004KT 230V290 9999 FEW020 BKN033 23/16
                        Q1019=
201209111100 METAR LPPR 111100Z 17004KT 110V220 9999 FEW020 BKN034 24/17
                        Q1019=
201209111030 METAR LPPR 111030Z 21003KT 160V330 9999 BKN038 24/17 Q1019=
201209111000 METAR LPPR 111000Z 17004KT 110V230 9999 BKN037 22/16 Q1019=
201209110930 METAR LPPR 110930Z 14006KT 9999 BKN036 23/16 Q1019=
201209110900 METAR LPPR 110900Z 13006KT 9999 BKN040 21/16 Q1018=
201209110830 METAR LPPR 110830Z 12005KT 090V180 9999 SCT042 21/16 Q1018=
201209110800 METAR LPPR 110800Z 11006KT 090V150 9999 BKN040 19/16 Q1018=
201209110730 METAR LPPR 110730Z 11006KT 070V130 9999 BKN041 19/16 Q1018=
201209110700 METAR LPPR 110700Z 11006KT 9999 BKN043 18/16 Q1018=
201209110630 METAR LPPR 110630Z 11006KT 070V130 9999 SCT046 18/16 Q1017=
201209110600 METAR LPPR 110600Z 13007KT 9999 FEW023 18/16 Q1017=
201209110530 METAR LPPR 110530Z VRB02KT 9999 SCT022 17/16 Q1017=
201209110500 METAR LPPR 110500Z VRB02KT 9999 FEW022 17/16 Q1017=
201209110430 METAR LPPR 110430Z 11004KT 9999 FEW016 17/16 Q1017=
201209110400 METAR LPPR 110400Z 12004KT 9999 FEW016 17/16 Q1017=
201209110330 METAR LPPR 110330Z 12005KT 9999 FEW016 18/16 Q1017=
201209110300 METAR LPPR 110300Z 12006KT 9999 SCT015 18/17 Q1017=
201209110230 METAR LPPR 110230Z 13005KT 9999 SCT013 SCT015 19/17 Q1017=
201209110200 METAR LPPR 110200Z 12006KT 9999 SCT013 SCT015 19/17 Q1017=
201209110130 METAR LPPR 110130Z 12006KT 9999 SCT014 SCT017 19/17 Q1017=
201209110100 METAR LPPR 110100Z 12004KT 9999 SCT017 18/17 Q1017=
201209110030 METAR LPPR 110030Z 12004KT CAVOK 19/17 Q1017=
201209110000 METAR LPPR 110000Z 14006KT CAVOK 19/17 Q1017=
201209102330 METAR LPPR 102330Z 14006KT CAVOK 19/18 Q1017=
201209102300 METAR LPPR 102300Z 16005KT CAVOK 19/18 Q1017=
201209102230 METAR LPPR 102230Z 17006KT CAVOK 19/18 Q1017=
201209102200 METAR LPPR 102200Z 16005KT CAVOK 19/18 Q1017=
201209102130 METAR LPPR 102130Z 17007KT CAVOK 19/18 Q1018=
201209102100 METAR LPPR 102100Z 18006KT CAVOK 19/18 Q1017=
201209102030 METAR LPPR 102030Z 17006KT CAVOK 20/18 Q1017=
201209102000 METAR LPPR 102000Z 17006KT CAVOK 20/18 Q1017=
201209101930 METAR LPPR 101930Z 20005KT 9999 FEW022 20/18 Q1017=
201209101900 METAR LPPR 101900Z 20005KT 190V260 9999 FEW022 20/18 Q1017=
201209101830 METAR LPPR 101830Z 19005KT 9999 FEW022 20/18 Q1016=
201209101800 METAR LPPR 101800Z 22004KT 180V270 9999 FEW030 21/18 Q1017=
201209101730 METAR LPPR 101730Z 20006KT 170V270 9999 FEW022 21/17 Q1017=
201209101700 METAR LPPR 101700Z 23006KT 190V290 9999 FEW022 21/17 Q1017=
201209101630 METAR LPPR 101630Z 23007KT 200V260 9999 FEW022 21/17 Q1017=
201209101600 METAR LPPR 101600Z 22008KT 180V260 9999 SCT020 22/17 Q1016=
201209101530 METAR LPPR 101530Z 20009KT 9999 SCT020 22/17 Q1016=
201209101500 METAR LPPR 101500Z 21009KT 160V230 9999 SCT020 22/17 Q1016=
201209101430 METAR LPPR 101430Z 21008KT 170V230 9999 FEW020 22/16 Q1017=
201209101400 METAR LPPR 101400Z 21009KT 180V250 9999 FEW030 22/16 Q1017=
201209101330 METAR LPPR 101330Z 23008KT 190V260 9999 FEW035 22/15 Q1017=
201209101300 METAR LPPR 101300Z 21009KT 180V260 9999 FEW020 21/16 Q1017=
201209101230 METAR LPPR 101230Z 20009KT 160V240 9999 FEW020 22/16 Q1017=
201209101200 METAR LPPR 101200Z 20010KT 9999 FEW017 21/16 Q1017=
201209101130 METAR LPPR 101130Z 20009KT 170V260 9999 FEW018 22/16 Q1017=
201209101100 METAR LPPR 101100Z 20007KT 160V230 9999 FEW017 22/16 Q1017=
201209101030 METAR LPPR 101030Z 19009KT 160V220 9999 FEW015 22/16 Q1017=
201209101000 METAR LPPR 101000Z 20008KT 9999 SCT013 21/17 Q1017=
201209100930 METAR LPPR 100930Z 18007KT 160V220 9999 SCT012 20/17 Q1017=
201209100900 METAR COR LPPR 100900Z 19006KT 9000 SCT008 SCT012 20/17 Q1017=
201209100830 METAR LPPR 100830Z 21005KT 180V240 8000 SCT008 20/17 Q1017=
201209100800 METAR LPPR 100800Z 17005KT 6000 SCT006 SCT016 19/17 Q1017=
201209100730 METAR LPPR 100730Z 13004KT 6000 FEW006 18/16 Q1017=
201209100700 METAR LPPR 100700Z 11004KT 070V130 5000 BR FEW006 17/16 Q1017=
201209100630 METAR LPPR 100630Z 13004KT 100V160 5000 BR SCT005 16/15 Q1016=
201209100600 METAR LPPR 100600Z 14004KT 120V190 9000 FEW010 SCT040 17/16
                        Q1016=
201209100530 METAR LPPR 100530Z VRB02KT 9000 FEW009 BKN042 17/16 Q1016=
201209100500 METAR LPPR 100500Z VRB02KT 9000 FEW009 SCT026 BKN042 17/16
                        Q1016=
201209100430 METAR LPPR 100430Z VRB02KT 8000 FEW009 BKN038 17/16 Q1016=
201209100400 METAR LPPR 100400Z VRB02KT 8000 SCT023 BKN032 17/16 Q1016=
201209100330 METAR LPPR 100330Z 12004KT 7000 BKN028 17/16 Q1016=
201209100300 METAR LPPR 100300Z 13004KT 7000 FEW006 BKN023 17/16 Q1016=
201209100230 METAR LPPR 100230Z 15003KT 120V180 6000 FEW005 BKN023 16/15
                        Q1016=
201209100200 METAR LPPR 100200Z VRB02KT 8000 2000NW PRFG FEW005 15/15
                        Q1017=
201209100130 METAR LPPR 100130Z 02001KT 5000 BR FEW005 16/15 Q1017=
201209100100 METAR LPPR 100100Z 36003KT 9000 4400N FEW005 16/15 Q1017=
201209100030 METAR LPPR 100030Z 00000KT 9000 4000N FEW006 17/16 Q1017=
201209100000 METAR LPPR 100000Z VRB01KT 7000 FEW006 17/16 Q1017=
201209092330 METAR LPPR 092330Z 04002KT 6000 FEW006 17/16 Q1017=
201209092300 METAR LPPR 092300Z 00000KT 5000 BR FEW006 17/16 Q1018=
201209092230 METAR LPPR 092230Z 25002KT 6000 FEW007 17/16 Q1018=
201209092200 METAR LPPR 092200Z 12004KT 8000 FEW007 17/16 Q1018=
201209092130 METAR LPPR 092130Z VRB02KT 8000 FEW006 17/16 Q1018=
201209092100 METAR LPPR 092100Z 00000KT 7000 FEW006 17/16 Q1018=
201209092030 METAR LPPR 092030Z VRB01KT 8000 FEW008 18/17 Q1018=
201209092000 METAR LPPR 092000Z VRB01KT 8000 FEW008 18/17 Q1017=
201209091930 METAR LPPR 091930Z VRB02KT 8000 FEW012 FEW015TCU 19/17 Q1017=
201209091900 METAR LPPR 091900Z VRB02KT 8000 FEW012 FEW015TCU 19/18 Q1017=
201209091830 METAR LPPR 091830Z 28003KT 240V320 9999 FEW012 20/17 Q1017=
201209091800 METAR LPPR 091800Z 30004KT 260V330 9999 FEW013 20/18 Q1017=
201209091730 METAR LPPR 091730Z 29004KT 240V340 9999 FEW014 20/17 Q1017=
201209091700 METAR LPPR 091700Z 28005KT 240V310 9999 FEW014 21/17 Q1017=
201209091630 METAR LPPR 091630Z 30006KT 210V330 9999 FEW016 21/17 Q1017=
201209091600 METAR LPPR 091600Z 29006KT 9999 FEW016 21/17 Q1017=
201209091530 METAR LPPR 091530Z 30006KT 270V330 9999 FEW020 21/17 Q1017=
201209091500 METAR LPPR 091500Z 29006KT 250V320 9999 FEW027 22/17 Q1018=
201209091430 METAR LPPR 091430Z 29005KT 250V320 9999 FEW027 22/17 Q1018=
201209091400 METAR LPPR 091400Z 29005KT 240V320 9999 FEW027 22/17 Q1018=
201209091330 METAR LPPR 091330Z 29005KT 230V320 9999 FEW027 22/17 Q1018=
201209091300 METAR LPPR 091300Z 30004KT 240V030 9999 SCT025 23/16 Q1018=
201209091230 METAR LPPR 091230Z 29005KT 250V330 9999 SCT025 22/16 Q1018=
201209091200 METAR LPPR 091200Z 29006KT 220V330 9999 SCT025 22/16 Q1018=
201209091130 METAR LPPR 091130Z 29005KT 250V320 9999 SCT025 22/17 Q1018=
201209091100 METAR LPPR 091100Z 28006KT 250V310 9999 SCT025 22/18 Q1018=
201209091030 METAR LPPR 091030Z 29004KT 9999 SCT025 22/18 Q1018=
201209091000 METAR LPPR 091000Z VRB04KT 9999 SCT025 23/18 Q1018=
201209090930 METAR LPPR 090930Z 02003KT 330V080 9999 FEW020 22/17 Q1018=
201209090900 METAR COR LPPR 090900Z 36005KT 340V040 9999 FEW031 21/18
                        Q1018=
201209090830 METAR LPPR 090830Z 34003KT 310V020 9000 FEW001 20/19 Q1018=
201209090800 METAR LPPR 090800Z VRB02KT 9000 FEW001 SCT003 19/18 Q1018=
201209090730 METAR LPPR 090730Z VRB01KT 8000 SCT003 19/18 Q1018=
201209090700 METAR LPPR 090700Z 00000KT 6000 SCT003 18/17 Q1018=
201209090630 METAR LPPR 090630Z 08003KT 5000 BR SCT003 BKN040 17/17 Q1017=
201209090600 METAR LPPR 090600Z VRB02KT 6000 0300N R17/0375 PRFG SCT003
                        17/16 Q1017=
201209090530 METAR LPPR 090530Z VRB02KT 5000 BR SCT002 18/17 Q1017=
201209090500 METAR LPPR 090500Z 02001KT 6000 FEW002 SCT004 18/17 Q1017=
201209090430 METAR LPPR 090430Z VRB01KT 6000 SCT003 BKN040 18/18 Q1017=
201209090400 METAR LPPR 090400Z 02002KT 6000 FEW002 SCT004 BKN030 18/18
                        Q1018=
201209090330 METAR LPPR 090330Z VRB02KT 6000 SCT002 BKN005 18/18 Q1018=
201209090300 METAR LPPR 090300Z 04003KT 010V080 0900 R17/0800VP2000U FG
                        FEW002 BKN004 19/18 Q1018=
201209090230 METAR LPPR 090230Z VRB02KT 0500 R17/0650N FG VV002 19/18
                        Q1018=
201209090200 METAR LPPR 090200Z 01003KT 340V050 0600 R17/0650N FG VV002
                        19/18 Q1018=
201209090130 METAR LPPR 090130Z 35003KT 310V040 0900 R17/0750V1300 FG
                        VV002 19/18 Q1018=
201209090100 METAR LPPR 090100Z 34003KT 290V010 0400 R17/0375V0550U FG
                        VV002 19/18 Q1018=
201209090030 METAR LPPR 090030Z 33004KT 300V010 0400 R17/0400N FG VV002
                        19/18 Q1018=
201209090000 METAR LPPR 090000Z 30005KT 270V350 0500 R35/0500 FG BKN002
                        18/18 Q1018=
201209082330 METAR LPPR 082330Z 29004KT 6000 FEW008 18/17 Q1018=
201209082300 METAR LPPR 082300Z VRB02KT 6000 FEW009 18/17 Q1019=
201209082230 METAR LPPR 082230Z 00000KT 6000 FEW008 18/17 Q1019=
201209082200 METAR LPPR 082200Z 00000KT 6000 FEW008 17/17 Q1019=
201209082130 METAR LPPR 082130Z 26001KT 6000 FEW008 18/17 Q1019=
201209082100 METAR LPPR 082100Z 00000KT 5000 BR FEW009 19/18 Q1019=
201209082030 METAR LPPR 082030Z 06002KT 7000 FEW009 18/18 Q1018=
201209082000 METAR LPPR 082000Z VRB01KT 6000 FEW009 SCT015 19/18 Q1018=
201209081930 METAR LPPR 081930Z VRB01KT 6000 FEW009 BKN018 19/18 Q1018=
201209081900 METAR LPPR 081900Z 28003KT 6000 FEW009 BKN018 20/18 Q1018=
201209081830 METAR LPPR 081830Z 25004KT 7000 FEW012 BKN019 20/18 Q1018=
201209081800 METAR LPPR 081800Z 30004KT 8000 FEW009 BKN015 21/19 Q1018=
201209081730 METAR LPPR 081730Z 34004KT 310V030 7000 FEW009 SCT012 21/19
                        Q1018=
201209081700 METAR LPPR 081700Z 33004KT 290V010 8000 FEW008 BKN020 22/19
                        Q1018=
201209081630 METAR LPPR 081630Z 31004KT 240V340 9000 FEW010 BKN019 22/19
                        Q1018=
201209081600 METAR LPPR 081600Z 24004KT 190V280 9000 BKN015 22/19 Q1018=
201209081530 METAR LPPR 081530Z 26003KT 220V290 9000 FEW012 BKN016 21/19
                        Q1019=
201209081500 METAR LPPR 081500Z VRB03KT 9000 BKN015 22/18 Q1019=
201209081430 METAR LPPR 081430Z 26004KT 210V350 8000 SCT012 BKN015 22/19
                        Q1019=
201209081400 METAR LPPR 081400Z 29004KT 230V330 9000 SCT012 BKN015 22/19
                        Q1019=
201209081330 METAR LPPR 081330Z 30004KT 250V340 9000 SCT010 BKN013 22/19
                        Q1019=
201209081300 METAR LPPR 081300Z 31005KT 260V360 8000 BKN008 BKN011 21/19
                        Q1020=
201209081230 METAR LPPR 081230Z 30004KT 260V340 8000 SCT007 BKN008 21/19
                        Q1020=
201209081200 METAR LPPR 081200Z 30005KT 230V350 9999 SCT008 BKN009 21/19
                        Q1020=
201209081130 METAR LPPR 081130Z 26003KT 200V330 9999 FEW006 BKN007 21/19
                        Q1020=
201209081100 METAR LPPR 081100Z 25004KT 160V290 5000 BR OVC004 19/18 Q1020=
201209081030 METAR LPPR 081030Z 24005KT 220V290 7000 FEW003 OVC005 19/19
                        Q1020=
201209081000 METAR LPPR 081000Z 23005KT 210V270 4000 BR BKN002 BKN004
                        19/18 Q1020=
201209080930 METAR LPPR 080930Z 20004KT 160V240 3300 BR BKN001 BKN003
                        19/19 Q1020=
201209080900 METAR LPPR 080900Z 18005KT 140V220 1300 R17/P2000 BR VCFG
                        OVC001 19/18 Q1020=
201209080830 METAR LPPR 080830Z 16003KT 100V210 2000 BR BKN002 BKN004
                        19/18 Q1020=
201209080800 METAR LPPR 080800Z 17003KT 140V200 1800 BR VCFG SCT001 BKN003
                        18/18 Q1020=
201209080730 METAR LPPR 080730Z 18003KT 110V220 1000 0600NE R17/0800V1600U
                        PRFG BR VV002 18/18 Q1020=
201209080700 METAR LPPR 080700Z 15003KT 110V170 0600 R17/0900 FG VV002
                        18/18 Q1020=
201209080630 METAR LPPR 080630Z 17003KT 0500 R17/0600 FG VV002 18/18 Q1019=
201209080600 METAR LPPR 080600Z 19003KT 0500 R17/0600 FG VV002 18/18 Q1019=
201209080530 METAR LPPR 080530Z 20002KT 0300 R17/0375N FG VV001 18/17
                        Q1019=
201209080500 METAR LPPR 080500Z VRB02KT 0250 R17/0300N FG VV001 17/16
                        Q1019=
201209080430 METAR LPPR 080430Z 00000KT 0150 R17/0175N FG VV001 16/16
                        Q1019=
201209080400 METAR LPPR 080400Z 02002KT 0300 R17/0250N FG VV001 16/15
                        Q1019=
201209080330 METAR LPPR 080330Z 31001KT 3000 BR FEW001 16/15 Q1019=
201209080300 METAR LPPR 080300Z 02001KT 6000 NSC 17/16 Q1019=
201209080230 METAR LPPR 080230Z 01002KT 8000 NSC 16/15 Q1019=
201209080200 METAR LPPR 080200Z 00000KT 6000 NSC 16/15 Q1019=
201209080130 METAR LPPR 080130Z 17003KT 7000 NSC 17/16 Q1020=
201209080100 METAR LPPR 080100Z 18003KT 8000 NSC 17/16 Q1020=
201209080030 METAR LPPR 080030Z 19004KT CAVOK 18/16 Q1020=
201209080000 METAR LPPR 080000Z VRB01KT CAVOK 17/15 Q1020=
201209072330 METAR LPPR 072330Z VRB01KT CAVOK 18/15 Q1020=
201209072300 METAR LPPR 072300Z 19001KT CAVOK 18/15 Q1020=
201209072230 METAR LPPR 072230Z VRB02KT CAVOK 19/15 Q1020=
201209072200 METAR LPPR 072200Z 22003KT CAVOK 18/15 Q1020=
201209072130 METAR LPPR 072130Z 19001KT CAVOK 19/15 Q1020=
201209072100 METAR LPPR 072100Z 22004KT CAVOK 21/15 Q1020=
201209072030 METAR LPPR 072030Z VRB02KT CAVOK 20/15 Q1020=
201209072000 METAR LPPR 072000Z 24002KT CAVOK 20/15 Q1020=
201209071930 METAR LPPR 071930Z 24002KT 9000 NSC 21/15 Q1019=
201209071900 METAR LPPR 071900Z 35003KT 9999 FEW040CB 22/15 Q1019=
201209071830 METAR LPPR 071830Z VRB02KT 9999 FEW040CB 23/15 Q1019=
201209071800 METAR LPPR 071800Z 30003KT 270V340 9999 FEW035CB 24/14 Q1019=
201209071730 METAR LPPR 071730Z 26005KT 9999 FEW035CB 26/13 Q1019=
201209071700 METAR LPPR 071700Z 24004KT 200V270 9999 FEW030CB 27/11 Q1018=
201209071630 METAR LPPR 071630Z 23005KT 210V270 9999 FEW030CB 28/11 Q1018=
201209071600 METAR LPPR 071600Z 23005KT 190V270 9999 FEW025TCU FEW035CB
                        28/12 Q1018=
201209071530 METAR LPPR 071530Z 23005KT 150V270 9999 FEW025TCU 27/14 Q1018=
201209071500 METAR LPPR 071500Z 24004KT 180V290 9999 FEW025TCU 27/15 Q1019=
201209071430 METAR LPPR 071430Z 24006KT 190V290 9999 FEW015CB 27/15 Q1019=
201209071400 METAR LPPR 071400Z 23006KT 200V270 9999 FEW015 26/14 Q1019=
201209071330 METAR LPPR 071330Z 23006KT 180V270 9999 FEW015 26/16 Q1019=
201209071300 METAR LPPR 071300Z 24004KT 200V310 9999 FEW015 28/17 Q1019=
201209071230 METAR LPPR 071230Z 25005KT 210V290 9999 FEW015 26/16 Q1019=
201209071200 METAR LPPR 071200Z 22005KT 180V260 9999 FEW015 26/16 Q1019=
201209071130 METAR LPPR 071130Z 22007KT 170V260 9999 FEW015 25/15 Q1019=
201209071100 METAR LPPR 071100Z 21010KT 180V240 9999 FEW015 25/15 Q1019=
201209071030 METAR LPPR 071030Z 20008KT 170V230 9999 FEW015 25/14 Q1019=
201209071000 METAR LPPR 071000Z 19009KT 170V230 9999 FEW015 25/14 Q1019=
201209070930 METAR LPPR 070930Z 18009KT 9999 FEW015 24/13 Q1019=
201209070900 METAR LPPR 070900Z 18010KT 9999 FEW020 22/14 Q1019=
201209070830 METAR LPPR 070830Z 19011KT 9000 FEW020 21/15 Q1018=
201209070800 METAR LPPR 070800Z VRB04KT 9999 FEW020 24/15 Q1017=
201209070730 METAR LPPR 070730Z 06004KT 010V110 9000 FEW020 20/16 Q1017=
201209070700 METAR LPPR 070700Z 19003KT 7000 FEW020 18/16 Q1017=
201209070630 METAR LPPR 070630Z VRB02KT 8000 NSC 18/16 Q1016=
201209070600 METAR LPPR 070600Z 02005KT 360V060 7000 NSC 15/14 Q1016=
201209070530 METAR LPPR 070530Z 02003KT 9000 NSC 16/14 Q1016=
201209070500 METAR LPPR 070500Z VRB02KT CAVOK 17/15 Q1016=
201209070430 METAR LPPR 070430Z VRB02KT 9000 NSC 17/15 Q1016=
201209070400 METAR LPPR 070400Z 12001KT CAVOK 16/14 Q1016=
201209070330 METAR LPPR 070330Z 18001KT 9000 NSC 17/14 Q1016=
201209070300 METAR LPPR 070300Z 07001KT CAVOK 17/15 Q1016=
201209070230 METAR LPPR 070230Z 15002KT CAVOK 17/15 Q1016=
201209070200 METAR LPPR 070200Z VRB02KT CAVOK 19/15 Q1016=
201209070130 METAR LPPR 070130Z 17006KT CAVOK 19/15 Q1016=
201209070100 METAR LPPR 070100Z 18005KT CAVOK 19/15 Q1016=
201209070030 METAR LPPR 070030Z 18005KT CAVOK 19/15 Q1016=
201209070000 METAR LPPR 070000Z 17007KT CAVOK 18/15 Q1016=
201209062330 METAR LPPR 062330Z 17006KT CAVOK 19/15 Q1016=
201209062300 METAR LPPR 062300Z 17007KT CAVOK 18/15 Q1016=
201209062230 METAR LPPR 062230Z 17008KT CAVOK 19/15 Q1016=
201209062200 METAR LPPR 062200Z 19007KT CAVOK 20/15 Q1016=
201209062130 METAR LPPR 062130Z 19007KT CAVOK 20/15 Q1016=
201209062100 METAR LPPR 062100Z 21005KT CAVOK 24/14 Q1016=
201209062030 METAR LPPR 062030Z 01002KT CAVOK 22/14 Q1015=
201209062000 METAR LPPR 062000Z VRB01KT CAVOK 23/14 Q1015=
201209061930 METAR LPPR 061930Z 35004KT CAVOK 25/13 Q1015=
201209061900 METAR LPPR 061900Z 36004KT CAVOK 26/13 Q1015=
201209061830 METAR LPPR 061830Z 33006KT CAVOK 28/13 Q1015=
201209061800 METAR LPPR 061800Z 34009KT 9999 FEW020 29/12 Q1015=
201209061730 METAR LPPR 061730Z 34009KT 9999 FEW020 29/13 Q1015=
201209061700 METAR LPPR 061700Z 34007KT 9999 FEW030 30/13 Q1015=
201209061630 METAR LPPR 061630Z 34010KT 9999 FEW030 30/13 Q1015=
201209061600 METAR LPPR 061600Z 34009KT 9999 FEW030 30/14 Q1015=
201209061530 METAR LPPR 061530Z 33010KT 9999 FEW030 30/14 Q1015=
201209061500 METAR LPPR 061500Z 29006KT 270V340 9999 FEW030 29/15 Q1015=
201209061430 METAR LPPR 061430Z 30006KT 260V320 CAVOK 30/15 Q1015=
201209061400 METAR LPPR 061400Z 29005KT CAVOK 31/15 Q1016=
201209061330 METAR LPPR 061330Z 28006KT 240V310 CAVOK 30/15 Q1016=
201209061300 METAR LPPR 061300Z 28005KT 240V300 CAVOK 30/16 Q1016=
201209061230 METAR LPPR 061230Z 08006KT 020V130 CAVOK 32/13 Q1016=
201209061200 METAR LPPR 061200Z 10006KT 030V150 CAVOK 32/13 Q1016=
201209061130 METAR LPPR 061130Z 09009KT 060V120 CAVOK 31/12 Q1016=
201209061100 METAR LPPR 061100Z 10012KT CAVOK 30/14 Q1016=
201209061030 METAR LPPR 061030Z 10013KT CAVOK 29/13 Q1016=
201209061000 METAR LPPR 061000Z 10014KT CAVOK 27/13 Q1016=
201209060930 METAR LPPR 060930Z 10014KT CAVOK 27/13 Q1016=
201209060900 METAR LPPR 060900Z 10014KT CAVOK 26/13 Q1016=
201209060830 METAR LPPR 060830Z 10014KT CAVOK 25/12 Q1015=
201209060800 METAR LPPR 060800Z 10014KT CAVOK 24/12 Q1015=
201209060730 METAR LPPR 060730Z 09011KT CAVOK 24/12 Q1015=
201209060700 METAR LPPR 060700Z 10011KT CAVOK 24/12 Q1015=
201209060630 METAR LPPR 060630Z 10010KT CAVOK 24/11 Q1015=
201209060600 METAR LPPR 060600Z 11011KT CAVOK 23/11 Q1015=
201209060530 METAR LPPR 060530Z 10011KT CAVOK 24/11 Q1014=
201209060500 METAR LPPR 060500Z 11010KT CAVOK 24/11 Q1014=
201209060430 METAR LPPR 060430Z 10009KT CAVOK 24/11 Q1014=
201209060400 METAR LPPR 060400Z 11008KT CAVOK 24/11 Q1014=
201209060330 METAR LPPR 060330Z 10008KT CAVOK 24/11 Q1014=
201209060300 METAR LPPR 060300Z 10008KT CAVOK 24/10 Q1014=
201209060230 METAR LPPR 060230Z 09008KT CAVOK 24/10 Q1014=
201209060200 METAR LPPR 060200Z 10008KT CAVOK 24/10 Q1014=
201209060130 METAR LPPR 060130Z 09007KT CAVOK 23/11 Q1014=
201209060100 METAR LPPR 060100Z 10007KT CAVOK 21/12 Q1014=
201209060030 METAR LPPR 060030Z 08005KT CAVOK 18/14 Q1014=
201209060000 METAR LPPR 060000Z 05004KT CAVOK 18/15 Q1014=
201209052330 METAR LPPR 052330Z 08004KT CAVOK 18/15 Q1014=
201209052300 METAR LPPR 052300Z VRB01KT CAVOK 19/15 Q1014=
201209052230 METAR LPPR 052230Z VRB02KT CAVOK 18/15 Q1014=
201209052200 METAR LPPR 052200Z 00000KT CAVOK 19/15 Q1014=
201209052130 METAR LPPR 052130Z 05001KT CAVOK 19/15 Q1014=
201209052100 METAR LPPR 052100Z 04001KT CAVOK 20/15 Q1014=
201209052030 METAR LPPR 052030Z 35003KT CAVOK 20/15 Q1014=
201209052000 METAR LPPR 052000Z 01003KT CAVOK 21/15 Q1014=
201209051930 METAR LPPR 051930Z 35007KT CAVOK 23/14 Q1013=
201209051900 METAR LPPR 051900Z 35007KT CAVOK 23/14 Q1013=
201209051830 METAR LPPR 051830Z 34008KT CAVOK 24/14 Q1013=
201209051800 METAR LPPR 051800Z 34009KT CAVOK 25/13 Q1013=
201209051730 METAR LPPR 051730Z 35010KT CAVOK 25/13 Q1013=
201209051700 METAR LPPR 051700Z 35012KT CAVOK 25/13 Q1013=
201209051630 METAR LPPR 051630Z 32010KT CAVOK 26/14 Q1013=
201209051600 METAR LPPR 051600Z 33009KT CAVOK 27/14 Q1013=
201209051530 METAR LPPR 051530Z 32008KT 290V350 CAVOK 27/15 Q1013=
201209051500 METAR LPPR 051500Z 33010KT CAVOK 27/16 Q1014=
201209051430 METAR LPPR 051430Z 31009KT 280V350 CAVOK 28/15 Q1014=
201209051400 METAR LPPR 051400Z 32007KT 290V350 CAVOK 28/16 Q1014=
201209051330 METAR LPPR 051330Z 03007KT 350V070 CAVOK 29/14 Q1014=
201209051300 METAR LPPR 051300Z 06005KT 010V120 CAVOK 29/11 Q1014=
201209051230 METAR LPPR 051230Z 09004KT 010V160 CAVOK 29/12 Q1015=
201209051200 METAR LPPR 051200Z 05006KT 010V100 CAVOK 29/13 Q1015=
201209051130 METAR LPPR 051130Z 05007KT 020V100 CAVOK 28/13 Q1015=
201209051100 METAR LPPR 051100Z 08008KT 040V110 CAVOK 26/12 Q1015=
201209051030 METAR LPPR 051030Z 10011KT 060V120 CAVOK 27/13 Q1015=
201209051000 METAR LPPR 051000Z 08012KT 060V130 CAVOK 25/12 Q1015=
201209050930 METAR LPPR 050930Z 09012KT 060V120 CAVOK 24/12 Q1015=
201209050900 METAR LPPR 050900Z 09010KT 060V120 CAVOK 24/11 Q1015=
201209050830 METAR LPPR 050830Z 09013KT 060V120 CAVOK 22/11 Q1015=
201209050800 METAR LPPR 050800Z 10011KT CAVOK 22/11 Q1015=
201209050730 METAR LPPR 050730Z 10012KT CAVOK 22/11 Q1015=
201209050700 METAR LPPR 050700Z 10010KT CAVOK 21/11 Q1014=
201209050630 METAR LPPR 050630Z 10012KT 060V120 CAVOK 21/11 Q1014=
201209050600 METAR LPPR 050600Z 10011KT CAVOK 21/11 Q1014=
201209050530 METAR LPPR 050530Z 10010KT CAVOK 22/11 Q1014=
201209050500 METAR LPPR 050500Z 10010KT CAVOK 22/11 Q1014=
201209050430 METAR LPPR 050430Z 10009KT CAVOK 22/11 Q1014=
201209050400 METAR LPPR 050400Z 11009KT CAVOK 22/11 Q1013=
201209050330 METAR LPPR 050330Z 11007KT CAVOK 21/11 Q1014=
201209050300 METAR LPPR 050300Z 11006KT CAVOK 20/12 Q1014=
201209050230 METAR LPPR 050230Z 10007KT CAVOK 22/12 Q1014=
201209050200 METAR LPPR 050200Z 11008KT CAVOK 22/12 Q1014=
201209050130 METAR LPPR 050130Z 09007KT CAVOK 20/13 Q1014=
201209050100 METAR LPPR 050100Z 10007KT CAVOK 19/14 Q1014=
201209050030 METAR LPPR 050030Z 09006KT CAVOK 20/15 Q1014=
201209050000 METAR LPPR 050000Z 09004KT CAVOK 19/16 Q1014=
201209042330 METAR LPPR 042330Z 11004KT CAVOK 21/15 Q1014=
201209042300 METAR LPPR 042300Z VRB02KT CAVOK 21/15 Q1014=
201209042230 METAR LPPR 042230Z VRB02KT CAVOK 18/16 Q1014=
201209042200 METAR LPPR 042200Z 15001KT CAVOK 21/16 Q1014=
201209042130 METAR LPPR 042130Z VRB01KT CAVOK 19/16 Q1014=
201209042100 METAR LPPR 042100Z VRB01KT CAVOK 20/16 Q1014=
201209042030 METAR LPPR 042030Z VRB02KT CAVOK 20/16 Q1014=
201209042000 METAR LPPR 042000Z 34003KT CAVOK 21/16 Q1014=
201209041930 METAR LPPR 041930Z 34004KT CAVOK 23/16 Q1014=
201209041900 METAR LPPR 041900Z 35006KT CAVOK 23/16 Q1014=
201209041830 METAR LPPR 041830Z 35006KT CAVOK 23/16 Q1014=
201209041800 METAR LPPR 041800Z 34007KT CAVOK 23/16 Q1014=
201209041730 METAR LPPR 041730Z 35007KT CAVOK 22/16 Q1014=
201209041700 METAR LPPR 041700Z 33007KT CAVOK 24/16 Q1014=
201209041630 METAR LPPR 041630Z 32005KT 290V350 CAVOK 23/16 Q1014=
201209041600 METAR LPPR 041600Z 35010KT CAVOK 24/15 Q1014=
201209041530 METAR LPPR 041530Z 34010KT CAVOK 23/15 Q1015=
201209041500 METAR LPPR 041500Z 32010KT CAVOK 24/15 Q1015=
201209041430 METAR LPPR 041430Z 34011KT CAVOK 24/15 Q1016=
201209041400 METAR LPPR 041400Z 31009KT 280V350 CAVOK 23/15 Q1016=
201209041330 METAR LPPR 041330Z 29008KT 270V330 CAVOK 25/14 Q1016=
201209041300 METAR LPPR 041300Z 03008KT 340V070 CAVOK 29/13 Q1016=
201209041230 METAR LPPR 041230Z 01008KT 340V050 CAVOK 29/09 Q1017=
201209041200 METAR LPPR 041200Z 02008KT 330V090 CAVOK 28/10 Q1017=
201209041130 METAR LPPR 041130Z 03009KT 360V070 CAVOK 28/10 Q1017=
201209041100 METAR LPPR 041100Z 03009KT 010V070 CAVOK 27/11 Q1017=
201209041030 METAR LPPR 041030Z 04008KT 310V070 CAVOK 26/10 Q1018=
201209041000 METAR LPPR 041000Z 05008KT 010V120 CAVOK 26/11 Q1018=
201209040930 METAR LPPR 040930Z 09008KT 070V140 CAVOK 25/12 Q1017=
201209040900 METAR LPPR 040900Z 10006KT 070V130 CAVOK 24/12 Q1017=
201209040830 METAR LPPR 040830Z 05006KT 360V070 CAVOK 23/11 Q1018=
201209040800 METAR LPPR 040800Z 03006KT CAVOK 22/11 Q1017=
201209040730 METAR LPPR 040730Z 08007KT 050V110 CAVOK 22/10 Q1017=
201209040700 METAR LPPR 040700Z 08007KT CAVOK 21/10 Q1017=
201209040630 METAR LPPR 040630Z 07009KT CAVOK 21/09 Q1017=
201209040600 METAR LPPR 040600Z 09010KT CAVOK 21/09 Q1017=
201209040530 METAR LPPR 040530Z 09010KT CAVOK 21/09 Q1017=
201209040500 METAR LPPR 040500Z 09011KT CAVOK 22/09 Q1017=
201209040430 METAR LPPR 040430Z 09011KT CAVOK 22/09 Q1017=
201209040400 METAR LPPR 040400Z 10010KT CAVOK 22/09 Q1017=
201209040330 METAR LPPR 040330Z 10009KT CAVOK 23/09 Q1017=
201209040300 METAR LPPR 040300Z 10010KT CAVOK 23/09 Q1017=
201209040230 METAR LPPR 040230Z 11009KT CAVOK 23/10 Q1017=
201209040200 METAR LPPR 040200Z 11007KT CAVOK 20/12 Q1017=
201209040130 METAR LPPR 040130Z 11005KT CAVOK 17/15 Q1017=
201209040100 METAR LPPR 040100Z 08004KT CAVOK 17/14 Q1017=
201209040030 METAR LPPR 040030Z VRB02KT CAVOK 17/14 Q1017=
201209040000 METAR LPPR 040000Z 07003KT CAVOK 20/15 Q1017=
201209032330 METAR LPPR 032330Z 13004KT CAVOK 17/14 Q1017=
201209032300 METAR LPPR 032300Z VRB02KT CAVOK 20/15 Q1017=
201209032230 METAR LPPR 032230Z VRB02KT CAVOK 18/15 Q1017=
201209032200 METAR LPPR 032200Z VRB02KT CAVOK 18/15 Q1017=
201209032130 METAR LPPR 032130Z VRB02KT CAVOK 19/15 Q1017=
201209032100 METAR LPPR 032100Z 36003KT 320V040 CAVOK 19/15 Q1017=
201209032030 METAR LPPR 032030Z VRB02KT CAVOK 19/15 Q1017=
201209032000 METAR LPPR 032000Z 36004KT 330V030 CAVOK 20/15 Q1017=
201209031930 METAR LPPR 031930Z 32004KT 300V360 CAVOK 21/15 Q1017=
201209031900 METAR LPPR 031900Z 33006KT CAVOK 22/15 Q1017=
201209031830 METAR LPPR 031830Z 32006KT CAVOK 23/15 Q1017=
201209031800 METAR LPPR 031800Z 33007KT CAVOK 24/14 Q1017=
201209031730 METAR LPPR 031730Z 34010KT CAVOK 25/13 Q1017=
201209031700 METAR LPPR 031700Z 33008KT CAVOK 25/13 Q1017=
201209031630 METAR LPPR 031630Z 33009KT CAVOK 25/13 Q1018=
201209031600 METAR LPPR 031600Z 33009KT CAVOK 25/13 Q1018=
201209031530 METAR LPPR 031530Z 32010KT CAVOK 24/11 Q1018=
201209031500 METAR LPPR 031500Z 32011KT CAVOK 25/12 Q1018=
201209031430 METAR LPPR 031430Z 32011KT CAVOK 26/12 Q1019=
201209031400 METAR LPPR 031400Z 30008KT 270V330 CAVOK 25/14 Q1019=
201209031330 METAR LPPR 031330Z 32008KT 270V350 CAVOK 26/14 Q1019=
201209031300 METAR LPPR 031300Z 01009KT 330V050 CAVOK 28/11 Q1019=
201209031230 METAR LPPR 031230Z 03007G17KT 330V080 CAVOK 28/11 Q1020=
201209031200 METAR LPPR 031200Z 09008G18KT 030V130 CAVOK 28/11 Q1020=
201209031130 METAR LPPR 031130Z 08008KT 350V130 CAVOK 27/11 Q1020=
201209031100 METAR LPPR 031100Z 08008KT 360V130 CAVOK 26/11 Q1021=
201209031030 METAR LPPR 031030Z 09009KT 020V120 CAVOK 26/11 Q1021=
201209031000 METAR LPPR 031000Z 07010KT 050V110 CAVOK 25/11 Q1021=
201209030930 METAR LPPR 030930Z 09011KT 060V120 CAVOK 25/11 Q1021=
201209030900 METAR LPPR 030900Z 10012KT 070V130 CAVOK 24/10 Q1021=
201209030830 METAR LPPR 030830Z 10014KT CAVOK 23/10 Q1020=
201209030800 METAR LPPR 030800Z 10012KT 080V140 CAVOK 22/10 Q1020=
201209030730 METAR LPPR 030730Z 10012KT CAVOK 22/09 Q1020=
201209030700 METAR LPPR 030700Z 10012KT CAVOK 21/08 Q1020=
201209030630 METAR LPPR 030630Z 11009KT CAVOK 21/07 Q1020=
201209030600 METAR LPPR 030600Z 10009KT CAVOK 21/07 Q1020=
201209030530 METAR LPPR 030530Z 11008KT CAVOK 21/06 Q1020=
201209030500 METAR LPPR 030500Z 10010KT CAVOK 22/05 Q1020=
201209030430 METAR LPPR 030430Z 10010KT CAVOK 22/04 Q1019=
201209030400 METAR LPPR 030400Z 10012KT CAVOK 23/03 Q1019=
201209030330 METAR LPPR 030330Z 11010KT 070V130 CAVOK 23/03 Q1019=
201209030300 METAR LPPR 030300Z 10010KT CAVOK 23/04 Q1019=
201209030230 METAR LPPR 030230Z 11010KT CAVOK 24/04 Q1020=
201209030200 METAR LPPR 030200Z 11008KT CAVOK 23/06 Q1020=
201209030130 METAR LPPR 030130Z 11008KT CAVOK 22/11 Q1020=
201209030100 METAR LPPR 030100Z 11008KT CAVOK 22/13 Q1020=
201209030030 METAR LPPR 030030Z 11009KT CAVOK 22/13 Q1020=
201209030000 METAR LPPR 030000Z 12009KT CAVOK 22/14 Q1020=
201209022330 METAR LPPR 022330Z 11008KT CAVOK 19/14 Q1020=
201209022300 METAR LPPR 022300Z 11004KT CAVOK 21/14 Q1020=
201209022230 METAR LPPR 022230Z 14003KT 110V170 CAVOK 19/14 Q1020=
201209022200 METAR LPPR 022200Z VRB02KT CAVOK 17/14 Q1020=
201209022130 METAR LPPR 022130Z VRB02KT CAVOK 18/14 Q1020=
201209022100 METAR LPPR 022100Z 36005KT CAVOK 20/14 Q1020=
201209022030 METAR LPPR 022030Z 35007KT CAVOK 20/14 Q1020=
201209022000 METAR LPPR 022000Z 36007KT CAVOK 20/14 Q1019=
201209021930 METAR LPPR 021930Z 35010KT CAVOK 21/14 Q1019=
201209021900 METAR LPPR 021900Z 35010KT CAVOK 23/14 Q1019=
201209021830 METAR LPPR 021830Z 35009KT CAVOK 24/14 Q1019=
201209021800 METAR LPPR 021800Z 35011KT CAVOK 25/12 Q1019=
201209021730 METAR LPPR 021730Z 35010KT CAVOK 26/11 Q1019=
201209021700 METAR LPPR 021700Z 35010KT CAVOK 27/11 Q1019=
201209021630 METAR LPPR 021630Z 35011KT CAVOK 26/10 Q1019=
201209021600 METAR LPPR 021600Z 33007KT 290V360 CAVOK 27/14 Q1019=
201209021530 METAR LPPR 021530Z 31008KT 290V350 CAVOK 26/14 Q1020=
201209021500 METAR LPPR 021500Z 32009KT CAVOK 27/14 Q1020=
201209021430 METAR LPPR 021430Z 31009KT CAVOK 27/12 Q1020=
201209021400 METAR LPPR 021400Z 31007KT 270V350 CAVOK 27/12 Q1020=
201209021330 METAR LPPR 021330Z 04008KT 350V080 CAVOK 30/09 Q1021=
201209021300 METAR LPPR 021300Z 01009KT CAVOK 29/09 Q1021=
201209021230 METAR LPPR 021230Z 03007KT 360V080 CAVOK 28/09 Q1021=
201209021200 METAR LPPR 021200Z 05008KT 010V130 CAVOK 27/09 Q1021=
201209021130 METAR LPPR 021130Z 05007KT 350V090 CAVOK 27/09 Q1021=
201209021100 METAR LPPR 021100Z 06009KT 030V100 CAVOK 26/09 Q1022=
201209021030 METAR LPPR 021030Z 05010KT 030V090 CAVOK 25/10 Q1021=
201209021000 METAR LPPR 021000Z 05008KT 020V080 CAVOK 24/10 Q1021=
201209020930 METAR LPPR 020930Z 06009KT 020V100 CAVOK 24/09 Q1021=
201209020900 METAR LPPR 020900Z 08009KT 040V120 CAVOK 22/09 Q1021=
201209020830 METAR LPPR 020830Z 11012KT CAVOK 22/09 Q1021=
201209020800 METAR LPPR 020800Z 09008KT 070V130 CAVOK 21/09 Q1021=
201209020730 METAR LPPR 020730Z 09008KT CAVOK 20/10 Q1021=
201209020700 METAR LPPR 020700Z 10007KT CAVOK 19/10 Q1021=
201209020630 METAR LPPR 020630Z 04004KT 010V080 CAVOK 18/08 Q1021=
201209020600 METAR LPPR 020600Z 06004KT 020V140 CAVOK 19/08 Q1020=
201209020530 METAR LPPR 020530Z 04004KT 330V100 CAVOK 20/08 Q1020=
201209020500 METAR LPPR 020500Z 06004KT 030V100 CAVOK 19/08 Q1020=
201209020430 METAR LPPR 020430Z 10009KT CAVOK 21/07 Q1020=
201209020400 METAR LPPR 020400Z 09004KT 060V120 CAVOK 21/07 Q1020=
201209020330 METAR LPPR 020330Z 09006KT 060V120 CAVOK 21/08 Q1020=
201209020300 METAR LPPR 020300Z 13004KT CAVOK 20/08 Q1020=
201209020230 METAR LPPR 020230Z 12005KT 080V140 CAVOK 18/08 Q1020=
201209020200 METAR LPPR 020200Z 11005KT CAVOK 16/09 Q1020=
201209020130 METAR LPPR 020130Z 10004KT CAVOK 19/09 Q1020=
201209020100 METAR LPPR 020100Z 08004KT CAVOK 17/10 Q1020=
201209020030 METAR LPPR 020030Z 10006KT CAVOK 18/10 Q1020=
201209020000 METAR LPPR 020000Z 09003KT CAVOK 19/10 Q1020=
201209012330 METAR LPPR 012330Z 07005KT CAVOK 20/12 Q1020=
201209012300 METAR LPPR 012300Z 08004KT CAVOK 18/13 Q1020=
201209012230 METAR LPPR 012230Z VRB02KT CAVOK 16/13 Q1020=
201209012200 METAR LPPR 012200Z 35004KT CAVOK 16/14 Q1020=
201209012130 METAR LPPR 012130Z 34003KT CAVOK 17/13 Q1020=
201209012100 METAR LPPR 012100Z 36004KT CAVOK 17/14 Q1019=
201209012030 METAR LPPR 012030Z 35004KT CAVOK 18/14 Q1019=
201209012000 METAR LPPR 012000Z 35005KT CAVOK 19/13 Q1019=
201209011930 METAR LPPR 011930Z 34007KT CAVOK 20/13 Q1019=
201209011900 METAR LPPR 011900Z 33007KT CAVOK 22/13 Q1019=
201209011830 METAR LPPR 011830Z 34007KT CAVOK 23/12 Q1019=
201209011800 METAR LPPR 011800Z 35010KT CAVOK 24/10 Q1019=
201209011730 METAR LPPR 011730Z 35011KT CAVOK 24/10 Q1019=
201209011700 METAR LPPR 011700Z 35011KT CAVOK 25/10 Q1019=
201209011630 METAR LPPR 011630Z 34010KT CAVOK 26/09 Q1019=
201209011600 METAR LPPR 011600Z 32009KT CAVOK 26/12 Q1019=
201209011530 METAR LPPR 011530Z 31009KT 250V330 CAVOK 25/11 Q1020=
201209011500 METAR LPPR 011500Z 05007KT 360V080 CAVOK 29/04 Q1020=
201209011430 METAR LPPR 011430Z 02009KT CAVOK 29/04 Q1020=
201209011400 METAR LPPR 011400Z 03007KT 360V080 CAVOK 28/04 Q1021=
201209011330 METAR LPPR 011330Z 07007G18KT 010V110 CAVOK 28/04 Q1021=
201209011300 METAR LPPR 011300Z 08008KT 360V110 CAVOK 27/03 Q1021=
201209011230 METAR LPPR 011230Z 07010G21KT CAVOK 27/04 Q1021=
201209011200 METAR LPPR 011200Z 07009KT 030V110 CAVOK 26/04 Q1021=
201209011130 METAR LPPR 011130Z 08009KT 030V120 CAVOK 25/04 Q1022=
201209011100 METAR LPPR 011100Z 09010KT 050V140 CAVOK 24/04 Q1022=
201209011030 METAR LPPR 011030Z 09014KT CAVOK 24/02 Q1022=
201209011000 METAR LPPR 011000Z 10012KT 060V120 CAVOK 23/01 Q1022=
201209010930 METAR LPPR 010930Z 10013KT CAVOK 22/00 Q1022=
201209010900 METAR LPPR 010900Z 10012KT 070V140 CAVOK 21/01 Q1022=
201209010830 METAR LPPR 010830Z 11010KT CAVOK 21/01 Q1022=
201209010800 METAR LPPR 010800Z 10013KT CAVOK 20/01 Q1022=
201209010730 METAR LPPR 010730Z 10012KT CAVOK 20/01 Q1022=
201209010700 METAR LPPR 010700Z 10010KT CAVOK 19/01 Q1022=
201209010630 METAR LPPR 010630Z 10010KT CAVOK 19/01 Q1022=
201209010600 METAR LPPR 010600Z 10008KT CAVOK 20/00 Q1022=
201209010530 METAR LPPR 010530Z 10010KT CAVOK 20/01 Q1022=
201209010500 METAR LPPR 010500Z 10009KT CAVOK 20/02 Q1021=
201209010430 METAR LPPR 010430Z 11009KT CAVOK 20/03 Q1021=
201209010400 METAR LPPR 010400Z 11009KT CAVOK 20/04 Q1021=
201209010330 METAR LPPR 010330Z 11008KT CAVOK 21/04 Q1021=
201209010300 METAR LPPR 010300Z 11009KT CAVOK 21/04 Q1021=
201209010230 METAR LPPR 010230Z 13007KT CAVOK 20/04 Q1021=
201209010200 METAR LPPR 010200Z 11008KT CAVOK 21/04 Q1021=
201209010130 METAR LPPR 010130Z 12006KT CAVOK 21/05 Q1021=
201209010100 METAR LPPR 010100Z 11007KT CAVOK 17/09 Q1021=
201209010030 METAR LPPR 010030Z 11006KT CAVOK 17/11 Q1022=
201209010000 METAR LPPR 010000Z 10006KT CAVOK 18/11 Q1021=

</pre>

</body>
</html>
