##########################################################
# Query made at 01/18/2013 16:57:43 UTC
# Time interval: from 04/01/2008 00:00  to 05/01/2008 23:59  UTC
##########################################################

##########################################################
# LMML, Luqa (Malta)
# WMO index: 16597
# Latitude 35-51N. Longitude 014-29E. Altitude 91 m.
##########################################################

###################################
#  METAR/SPECI from LMML
###################################
200804302345 METAR LMML 302345Z 07006KT 030V110 3000 BR BKN001 17/17 Q1011
                        TEMPO 1500 BKN001=
200804302330 METAR LMML NIL=
200804302315 METAR LMML 302315Z 07006KT 030V100 3000 BR BKN001 17/17 Q1012
                        TEMPO 1500 BKN001=
200804302300 METAR LMML NIL=
200804302245 METAR LMML 302245Z 07004KT 320V110 3000 BR BKN001 17/17 Q1012
                        TEMPO 1500 BKN001=
200804302215 METAR LMML 302215Z 07005KT 050V110 3000 BR BKN001 17/17 Q1012
                        TEMPO 2000 BKN001=
200804302200 METAR LMML NIL=
200804302145 METAR LMML 302145Z 07006KT 040V110 4000 BR BKN001 17/17 Q1012
                        TEMPO 2000 BKN001=
200804302130 METAR LMML NIL=
200804302115 METAR LMML 302115Z 06007KT 020V100 4000 BR BKN002 17/17 Q1012
                        TEMPO 2000 BKN001=
200804302100 METAR LMML NIL=
200804302045 METAR LMML 302045Z 07004KT 040V100 5000 BR BKN003 17/17 Q1012
                        NOSIG=
200804302030 METAR LMML NIL=
200804302015 METAR LMML 302015Z 08005KT 050V110 5000 BR BKN003 17/17 Q1012
                        NOSIG=
200804302000 METAR LMML NIL=
200804301945 METAR LMML 301945Z 10006KT 070V130 6000 SCT003 17/17 Q1012
                        TEMPO 5000 BKN003=
200804301930 METAR LMML NIL=
200804301915 METAR LMML 301915Z 09006KT 6000 SCT003 17/17 Q1011 TEMPO
                        5000 BKN003=
200804301900 METAR LMML NIL=
200804301845 METAR LMML 301845Z 09005KT 060V120 7000 SCT009 SCT250 17/17
                        Q1011 TEMPO 5000 BKN005=
200804301830 METAR LMML NIL=
200804301815 METAR LMML 301815Z 08006KT 7000 FEW009 BKN250 18/18 Q1011
                        TEMPO 5000 SCT008=
200804301800 METAR LMML NIL=
200804301745 METAR LMML 301745Z 09006KT CAVOK 18/17 Q1010 NOSIG=
200804301730 METAR LMML NIL=
200804301715 METAR LMML 301715Z 11006KT CAVOK 19/16 Q1010 NOSIG=
200804301700 METAR LMML NIL=
200804301645 METAR LMML 301645Z 11007KT CAVOK 19/16 Q1010 NOSIG=
200804301630 METAR LMML NIL=
200804301615 METAR LMML 301615Z 10006KT 070V140 CAVOK 20/16 Q1010 NOSIG=
200804301600 METAR LMML NIL=
200804301545 METAR LMML 301545Z 09007KT 060V130 CAVOK 20/16 Q1010 NOSIG=
200804301530 METAR LMML NIL=
200804301515 METAR LMML 301515Z 11007KT 060V140 CAVOK 21/15 Q1010 NOSIG=
200804301500 METAR LMML NIL=
200804301445 METAR LMML 301445Z 08006KT 040V140 CAVOK 22/16 Q1010 NOSIG=
200804301430 METAR LMML NIL=
200804301415 METAR LMML 301415Z 08007KT 030V130 CAVOK 22/15 Q1010 NOSIG=
200804301400 METAR LMML NIL=
200804301345 METAR LMML 301345Z 09008KT 050V120 CAVOK 22/15 Q1010 NOSIG=
200804301330 METAR LMML NIL=
200804301315 METAR LMML 301315Z 09009KT 050V140 CAVOK 22/15 Q1010 NOSIG=
200804301300 METAR LMML NIL=
200804301245 METAR LMML 301245Z 09010KT 050V120 CAVOK 22/14 Q1010 NOSIG=
200804301230 METAR LMML NIL=
200804301215 METAR LMML 301215Z 08008KT 030V130 CAVOK 23/15 Q1010 NOSIG=
200804301200 METAR LMML NIL=
200804301145 METAR LMML 301145Z 08007KT 050V120 CAVOK 22/14 Q1010 NOSIG=
200804301130 METAR LMML NIL=
200804301115 METAR LMML 301115Z 07007KT 030V110 9999 FEW012 22/14 Q1010
                        NOSIG=
200804301100 METAR LMML NIL=
200804301045 METAR LMML 301045Z 07008KT 050V110 9999 FEW010 22/15 Q1010
                        NOSIG=
200804301030 METAR LMML NIL=
200804301015 METAR LMML 301015Z 07008KT 030V110 9999 FEW010 21/16 Q1010
                        NOSIG=
200804301000 METAR LMML NIL=
200804300945 METAR LMML 300945Z 31007KT 9999 FEW010 22/16 Q1010 NOSIG=
200804300930 METAR LMML NIL=
200804300915 METAR LMML 300915Z 05007KT 360V110 9999 FEW010 22/16 Q1010
                        NOSIG=
200804300900 METAR LMML NIL=
200804300845 METAR LMML 300845Z 04006KT 9999 FEW005 21/16 Q1010 BECMG
                        FEW010=
200804300830 METAR LMML NIL=
200804300815 METAR LMML 300815Z 02006KT 290V080 9000 FEW005 20/18 Q1010
                        BECMG FEW010=
200804300800 METAR LMML NIL=
200804300745 METAR LMML 300745Z 04004KT 360V090 7000 FEW005 20/18 Q1010
                        BECMG FEW010=
200804300730 METAR LMML NIL=
200804300715 METAR LMML 300715Z 03005KT 360V070 7000 FEW005 19/18 Q1009
                        BECMG FEW010=
200804300700 METAR LMML NIL=
200804300645 METAR LMML 300645Z 01006KT 350V050 5000 BR BKN005 17/17 Q1009
                        BECMG SCT008=
200804300630 METAR LMML NIL=
200804300615 METAR LMML 300615Z 02005KT 350V050 3000 BR BKN004 17/17 Q1009
                        BECMG 5000 BR SCT006=
200804300600 METAR LMML NIL=
200804300545 METAR LMML 300545Z 03005KT 360V070 2700 BR BKN003 17/17 Q1009
                        BECMG 5000 BR SCT004=
200804300530 METAR LMML NIL=
200804300515 METAR LMML 300515Z VRB02KT 1800 BR BKN001 16/16 Q1009 BECMG
                        5000 BR SCT001=
200804300500 METAR LMML NIL=
200804300445 METAR LMML 300445Z VRB02KT 1500 BR BKN001 15/15 Q1008 BECMG
                        5000 BR SCT001 ///=
200804300415 METAR LMML 300415Z VRB01KT 0800 R14/1048VP1500U FG BKN001
                        15/15 Q1008 BECMG 4000 BR SCT001=
200804300400 METAR LMML NIL=
200804300345 METAR LMML 300345Z VRB03KT 0100 R14/0457V0672D FG BKN001
                        14/14 Q1008 BECMG SCT001=
200804300330 METAR LMML NIL=
200804300315 METAR LMML 300315Z VRB02KT 5000 BR BKN001 13/13 Q1008 BECMG
                        SCT001=
200804300300 METAR LMML NIL=
200804300245 METAR LMML 300245Z VRB02KT 5000 BR SCT001 14/14 Q1008 NOSIG=
200804300230 METAR LMML NIL=
200804300215 METAR LMML 300215Z VRB02KT 5000 BR BKN001 14/14 Q1008 NOSIG=
200804300200 METAR LMML NIL=
200804300145 METAR LMML 300145Z VRB02KT 4000 BR BKN001 14/14 Q1009 NOSIG=
200804300137 LMML 300137Z VRB02KT 2000 BR BKN001 14/14 Q1009 NOSIG=
200804300130 METAR LMML NIL=
200804300115 METAR LMML 300115Z VRB01KT 0200 R14/P1500N FG BKN001 13/13
                        Q1009 NOSIG=
200804300045 METAR LMML 300045Z VRB01KT 9000 SKC 14/14 Q1009 NOSIG=
200804300030 METAR LMML NIL=
200804300015 METAR LMML 300015Z VRB01KT 9000 SKC 14/14 Q1009 NOSIG=
200804300000 METAR LMML NIL=
200804292345 METAR LMML 292345Z 13004KT 9000 SKC 15/15 Q1009 NOSIG=
200804292330 METAR LMML NIL=
200804292315 METAR LMML 292315Z 14004KT CAVOK 15/15 Q1009 NOSIG=
200804292300 METAR LMML NIL=
200804292245 METAR LMML 292245Z VRB01KT CAVOK 15/15 Q1009 NOSIG=
200804292230 METAR LMML NIL=
200804292215 METAR LMML 292215Z VRB01KT CAVOK 15/15 Q1010 NOSIG=
200804292200 METAR LMML NIL=
200804292145 METAR LMML 292145Z VRB01KT CAVOK 15/15 Q1010 NOSIG=
200804292130 METAR LMML NIL=
200804292115 METAR LMML 292115Z VRB01KT CAVOK 16/16 Q1010 NOSIG=
200804292100 METAR LMML NIL=
200804292045 METAR LMML 292045Z VRB03KT CAVOK 16/16 Q1010 NOSIG=
200804292015 METAR LMML 292015Z 15004KT CAVOK 16/16 Q1010 NOSIG=
200804292000 METAR LMML NIL=
200804291945 METAR LMML 291945Z VRB02KT CAVOK 16/15 Q1010 NOSIG=
200804291930 METAR LMML NIL=
200804291915 METAR LMML 291915Z 16004KT CAVOK 17/15 Q1010 NOSIG=
200804291845 METAR LMML 291845Z 16004KT 120V220 CAVOK 17/15 Q1009 NOSIG=
200804291815 METAR LMML 291815Z 16004KT 110V200 CAVOK 17/15 Q1009 NOSIG=
200804291800 METAR LMML NIL=
200804291745 METAR LMML 291745Z 18007KT CAVOK 17/15 Q1009 NOSIG=
200804291730 METAR LMML NIL=
200804291715 METAR LMML 291715Z 18007KT 140V210 CAVOK 18/15 Q1009 NOSIG=
200804291700 METAR LMML NIL=
200804291645 METAR LMML 291645Z 17010KT 140V210 CAVOK 18/15 Q1009 NOSIG=
200804291630 METAR LMML NIL=
200804291615 METAR LMML 291615Z 17007KT 120V210 CAVOK 18/15 Q1009 NOSIG=
200804291600 METAR LMML NIL=
200804291545 METAR LMML 291545Z 17007KT 120V220 CAVOK 18/15 Q1009 NOSIG=
200804291530 METAR LMML NIL=
200804291515 METAR LMML 291515Z 16008KT 130V200 CAVOK 19/15 Q1009 NOSIG=
200804291500 METAR LMML NIL=
200804291445 METAR LMML 291445Z 17008KT 110V200 CAVOK 19/14 Q1010 NOSIG=
200804291430 METAR LMML NIL=
200804291415 METAR LMML 291415Z 16009KT 100V190 CAVOK 19/14 Q1010 NOSIG=
200804291400 METAR LMML NIL=
200804291345 METAR LMML 291345Z 17009KT 100V210 CAVOK 19/13 Q1010 NOSIG=
200804291330 METAR LMML NIL=
200804291315 METAR LMML 291315Z 18012KT 120V220 CAVOK 19/12 Q1010 NOSIG=
200804291245 METAR LMML 291245Z 18012KT 140V230 9999 FEW017 BKN250 19/13
                        Q1011 NOSIG=
200804291230 METAR LMML NIL=
200804291215 METAR LMML 291215Z 19012KT 160V220 9999 FEW017 BKN250 19/13
                        Q1011 NOSIG=
200804291200 METAR LMML NIL=
200804291145 METAR LMML 291145Z 19013KT 160V230 9999 FEW017 SCT250 19/13
                        Q1011 NOSIG=
200804291130 METAR LMML NIL=
200804291115 METAR LMML 291115Z 19015KT 150V240 9999 FEW017 20/13 Q1011
                        NOSIG=
200804291100 METAR LMML NIL=
200804291045 METAR LMML 291045Z 19015KT 160V230 9999 FEW017 SCT250 19/13
                        Q1012 NOSIG=
200804291030 METAR LMML NIL=
200804291015 METAR LMML 291015Z 18012KT 150V220 9999 FEW017 SCT250 19/14
                        Q1012 NOSIG=
200804291000 METAR LMML NIL=
200804290945 METAR LMML 290945Z 18014KT 150V220 9999 FEW020 SCT250 19/13
                        Q1012 NOSIG=
200804290930 METAR LMML NIL=
200804290915 METAR LMML 290915Z 18013KT 160V220 9999 FEW015 SCT250 19/13
                        Q1013 NOSIG=
200804290900 METAR LMML NIL=
200804290845 METAR LMML 290845Z 18012KT 150V230 9999 FEW015 SCT250 18/13
                        Q1013 NOSIG=
200804290830 METAR LMML NIL=
200804290815 METAR LMML 290815Z 19011KT 150V220 9999 FEW015 SCT250 18/13
                        Q1013 NOSIG=
200804290800 METAR LMML NIL=
200804290745 METAR LMML 290745Z 18011KT 140V220 9999 FEW025 18/13 Q1013
                        NOSIG=
200804290730 METAR LMML NIL=
200804290715 METAR LMML 290715Z 17010KT 140V210 9999 FEW025 18/13 Q1013
                        NOSIG=
200804290700 METAR LMML NIL=
200804290645 METAR LMML 290645Z 18011KT 150V220 CAVOK 17/12 Q1013 NOSIG=
200804290615 METAR LMML 290615Z 18008KT 140V230 CAVOK 17/11 Q1013 NOSIG=
200804290600 METAR LMML NIL=
200804290545 METAR LMML 290545Z 18006KT 130V210 CAVOK 16/11 Q1013 NOSIG=
200804290530 METAR LMML NIL=
200804290515 METAR LMML 290515Z 18005KT CAVOK 15/11 Q1013 NOSIG=
200804290500 METAR LMML NIL=
200804290445 METAR LMML 290445Z VRB03KT CAVOK 14/11 Q1013 NOSIG=
200804290430 METAR LMML NIL=
200804290415 METAR LMML 290415Z VRB03KT CAVOK 14/11 Q1013 NOSIG=
200804290400 METAR LMML NIL=
200804290345 METAR LMML 290345Z 17005KT CAVOK 14/10 Q1013 NOSIG=
200804290330 METAR LMML NIL=
200804290315 METAR LMML 290315Z 19004KT CAVOK 13/10 Q1014 NOSIG=
200804290300 METAR LMML NIL=
200804290245 METAR LMML 290245Z 17005KT CAVOK 14/10 Q1013 NOSIG=
200804290230 METAR LMML NIL=
200804290215 METAR LMML 290215Z 18004KT CAVOK 14/10 Q1014 NOSIG=
200804290200 METAR LMML NIL=
200804290145 METAR LMML 290145Z VRB03KT CAVOK 13/10 Q1014 NOSIG=
200804290130 METAR LMML NIL=
200804290115 METAR LMML 290115Z VRB03KT CAVOK 13/11 Q1014 NOSIG=
200804290100 METAR LMML NIL=
200804290045 METAR LMML 290045Z 19004KT CAVOK 13/11 Q1015 NOSIG=
200804290015 METAR LMML 290015Z VRB03KT CAVOK 13/10 Q1015 NOSIG=
200804290000 METAR LMML NIL=
200804282345 METAR LMML 282345Z VRB03KT CAVOK 12/10 Q1015 NOSIG=
200804282330 METAR LMML NIL=
200804282315 METAR LMML 282315Z VRB02KT CAVOK 12/10 Q1016 NOSIG=
200804282300 METAR LMML NIL=
200804282245 METAR LMML 282245Z VRB01KT CAVOK 12/10 Q1016 NOSIG=
200804282230 METAR LMML NIL=
200804282215 METAR LMML 282215Z VRB02KT CAVOK 12/10 Q1016 NOSIG=
200804282200 METAR LMML NIL=
200804282145 METAR LMML 282145Z VRB02KT CAVOK 13/10 Q1016 NOSIG=
200804282130 METAR LMML NIL=
200804282115 METAR LMML 282115Z VRB03KT CAVOK 13/10 Q1017 NOSIG=
200804282045 METAR LMML 282045Z VRB02KT CAVOK 14/10 Q1017 NOSIG=
200804282030 METAR LMML NIL=
200804282015 METAR LMML 282015Z VRB02KT CAVOK 14/10 Q1017 NOSIG=
200804282000 METAR LMML NIL=
200804281945 METAR LMML 281945Z VRB03KT CAVOK 14/10 Q1017 NOSIG=
200804281930 METAR LMML NIL=
200804281915 METAR LMML 281915Z VRB01KT CAVOK 14/10 Q1017 NOSIG=
200804281900 METAR LMML NIL=
200804281845 METAR LMML 281845Z VRB02KT CAVOK 15/10 Q1017 NOSIG=
200804281830 METAR LMML NIL=
200804281815 METAR LMML 281815Z 26004KT CAVOK 15/10 Q1017 NOSIG=
200804281800 METAR LMML NIL=
200804281745 METAR LMML 281745Z 25005KT 210V270 CAVOK 16/10 Q1016 NOSIG=
200804281730 METAR LMML NIL=
200804281715 METAR LMML 281715Z 23006KT 200V280 CAVOK 17/09 Q1016 NOSIG=
200804281700 METAR LMML NIL=
200804281645 METAR LMML 281645Z 24007KT 210V280 9999 FEW034 17/10 Q1016
                        NOSIG=
200804281630 METAR LMML NIL=
200804281615 METAR LMML 281615Z 23007KT 200V260 9999 FEW034 18/10 Q1016
                        NOSIG=
200804281600 METAR LMML NIL=
200804281545 METAR LMML 281545Z 23007KT 200V290 9999 FEW034 18/10 Q1017
                        NOSIG=
200804281530 METAR LMML NIL=
200804281515 METAR LMML 281515Z 22008KT 200V270 9999 FEW027 SCT250 18/10
                        Q1017 NOSIG=
200804281445 METAR LMML 281445Z 22008KT 170V270 9999 SCT035 SCT250 18/10
                        Q1017 NOSIG=
200804281430 METAR LMML NIL=
200804281415 METAR LMML 281415Z 19007KT 160V240 9999 SCT034 19/10 Q1017
                        NOSIG=
200804281400 METAR LMML NIL=
200804281345 METAR LMML 281345Z 19006KT 160V250 9999 SCT032 19/09 Q1017
                        NOSIG=
200804281330 METAR LMML NIL=
200804281315 METAR LMML 281315Z 19006KT 150V230 9999 SCT031 18/10 Q1018
                        NOSIG=
200804281300 METAR LMML NIL=
200804281245 METAR LMML 281245Z 18005KT 120V280 9999 SCT029 18/08 Q1018
                        NOSIG=
200804281230 METAR LMML NIL=
200804281215 METAR LMML 281215Z 17004KT 130V250 9999 SCT026 17/11 Q1018
                        NOSIG=
200804281200 METAR LMML NIL=
200804281145 METAR LMML 281145Z 18004KT 140V220 9999 SCT030 18/11 Q1018
                        NOSIG=
200804281130 METAR LMML NIL=
200804281115 METAR LMML 281115Z VRB03KT 9999 SCT030 19/11 Q1019 NOSIG=
200804281100 METAR LMML NIL=
200804281045 METAR LMML 281045Z VRB03KT 9999 SCT031 17/11 Q1019 NOSIG=
200804281030 METAR LMML NIL=
200804281015 METAR LMML 281015Z 18004KT 130V230 9999 SCT036 18/10 Q1019
                        NOSIG=
200804281000 METAR LMML NIL=
200804280945 METAR LMML 280945Z VRB02KT 9999 SCT033 19/10 Q1019 NOSIG=
200804280930 METAR LMML NIL=
200804280915 METAR LMML 280915Z VRB03KT 9999 SCT031 19/07 Q1019 NOSIG=
200804280900 METAR LMML NIL=
200804280845 METAR LMML 280845Z 04006KT 010V090 9999 FEW030 20/09 Q1019
                        NOSIG=
200804280830 METAR LMML NIL=
200804280815 METAR LMML 280815Z 33004KT 9999 FEW030 19/08 Q1019 NOSIG=
200804280800 METAR LMML NIL=
200804280745 METAR LMML 280745Z VRB03KT 9999 FEW025 19/10 Q1019 NOSIG=
200804280730 METAR LMML NIL=
200804280715 METAR LMML 280715Z VRB03KT 9999 FEW025 19/11 Q1019 NOSIG=
200804280700 METAR LMML NIL=
200804280645 METAR LMML 280645Z VRB03KT 9999 FEW025 18/10 Q1019 NOSIG=
200804280630 METAR LMML NIL=
200804280615 METAR LMML 280615Z VRB02KT 9999 FEW020 17/12 Q1018 NOSIG=
200804280600 METAR LMML NIL=
200804280545 METAR LMML 280545Z VRB01KT 9999 FEW015 15/13 Q1018 NOSIG=
200804280530 METAR LMML NIL=
200804280515 METAR LMML 280515Z VRB01KT 9999 FEW015 14/13 Q1018 NOSIG=
200804280500 METAR LMML NIL=
200804280445 METAR LMML 280445Z VRB01KT 9999 FEW015 13/13 Q1018 NOSIG=
200804280430 METAR LMML NIL=
200804280415 METAR LMML 280415Z VRB03KT 9999 FEW013 13/12 Q1018 NOSIG=
200804280400 METAR LMML NIL=
200804280345 METAR LMML 280345Z VRB03KT 9999 FEW013 14/13 Q1018 NOSIG=
200804280330 METAR LMML NIL=
200804280315 METAR LMML 280315Z VRB03KT 9999 FEW013 14/13 Q1018 NOSIG=
200804280245 METAR LMML 280245Z VRB03KT 9999 FEW013 14/14 Q1018 NOSIG=
200804280230 METAR LMML NIL=
200804280215 METAR LMML 280215Z 06004KT 9999 FEW014 14/14 Q1018 NOSIG=
200804280200 METAR LMML NIL=
200804280145 METAR LMML 280145Z 08004KT 9999 FEW013 14/13 Q1018 NOSIG=
200804280130 METAR LMML NIL=
200804280115 METAR LMML 280115Z 07004KT 9999 FEW014 14/13 Q1018 NOSIG=
200804280100 METAR LMML NIL=
200804280045 METAR LMML 280045Z VRB02KT 9999 FEW015 14/13 Q1018 NOSIG=
200804280030 METAR LMML NIL=
200804280015 METAR LMML 280015Z VRB01KT 9999 FEW020 14/13 Q1018 NOSIG=
200804280000 METAR LMML NIL=
200804272345 METAR LMML 272345Z VRB03KT CAVOK 14/13 Q1019 NOSIG=
200804272330 METAR LMML NIL=
200804272315 METAR LMML 272315Z VRB03KT CAVOK 15/13 Q1019 NOSIG=
200804272300 METAR LMML NIL=
200804272245 METAR LMML 272245Z VRB03KT CAVOK 15/13 Q1019 NOSIG=
200804272230 METAR LMML NIL=
200804272215 METAR LMML 272215Z 22004KT 190V250 CAVOK 15/13 Q1019 NOSIG=
200804272200 METAR LMML NIL=
200804272145 METAR LMML 272145Z 22005KT 190V260 CAVOK 15/13 Q1019 NOSIG=
200804272130 METAR LMML NIL=
200804272115 METAR LMML 272115Z 22005KT 200V270 CAVOK 15/14 Q1019 NOSIG=
200804272100 METAR LMML NIL=
200804272045 METAR LMML 272045Z VRB02KT CAVOK 15/13 Q1019 NOSIG=
200804272030 METAR LMML NIL=
200804272015 METAR LMML 272015Z 23005KT 200V270 CAVOK 15/12 Q1019 NOSIG=
200804272000 METAR LMML NIL=
200804271945 METAR LMML 271945Z 24004KT CAVOK 15/11 Q1019 NOSIG=
200804271930 METAR LMML NIL=
200804271915 METAR LMML 271915Z 25005KT 210V270 CAVOK 15/11 Q1019 NOSIG=
200804271900 METAR LMML NIL=
200804271845 METAR LMML 271845Z 28006KT CAVOK 15/10 Q1019 NOSIG=
200804271830 METAR LMML NIL=
200804271815 METAR LMML 271815Z VRB03KT CAVOK 16/09 Q1019 NOSIG=
200804271800 METAR LMML NIL=
200804271745 METAR LMML 271745Z 27006KT 240V300 9999 FEW040 16/09 Q1019
                        NOSIG=
200804271730 METAR LMML NIL=
200804271715 METAR LMML 271715Z 28008KT 240V300 9999 FEW040 17/10 Q1019
                        NOSIG=
200804271700 METAR LMML NIL=
200804271645 METAR LMML 271645Z 29009KT 260V320 9999 FEW041 18/09 Q1019
                        NOSIG=
200804271630 METAR LMML NIL=
200804271615 METAR LMML 271615Z 28009KT 250V320 CAVOK 18/08 Q1019 NOSIG=
200804271545 METAR LMML 271545Z 28010KT 240V330 9999 FEW047 19/07 Q1019
                        NOSIG=
200804271530 METAR LMML NIL=
200804271515 METAR LMML 271515Z 29009KT 240V330 9999 FEW049 19/07 Q1019
                        NOSIG=
200804271500 METAR LMML NIL=
200804271445 METAR LMML 271445Z 34006KT 300V020 9999 FEW043 20/07 Q1018
                        NOSIG=
200804271430 METAR LMML NIL=
200804271415 METAR LMML 271415Z 36004KT 300V090 9999 FEW046 19/08 Q1018
                        NOSIG=
200804271400 LMML NIL=
200804271345 METAR LMML 271345Z 36005KT 9999 FEW040 21/03 Q1018 NOSIG=
200804271330 METAR LMML NIL=
200804271315 METAR LMML 271315Z 35006KT 260V060 9999 FEW040 20/05 Q1019
                        NOSIG=
200804271300 METAR LMML NIL=
200804271245 METAR LMML 271245Z 36008KT 330V040 9999 FEW040 21/06 Q1019
                        NOSIG=
200804271230 METAR LMML NIL=
200804271215 METAR LMML 271215Z 33006KT 260V030 9999 FEW040 21/04 Q1019
                        NOSIG=
200804271200 METAR LMML NIL=
200804271145 METAR LMML 271145Z 33004KT 240V040 9999 FEW040 20/03 Q1019
                        NOSIG=
200804271130 METAR LMML NIL=
200804271115 METAR LMML 271115Z 34006KT 280V030 9999 FEW040 19/03 Q1019
                        NOSIG=
200804271100 METAR LMML NIL=
200804271045 METAR LMML 271045Z 01006KT 320V050 9999 FEW040 20/04 Q1019
                        NOSIG=
200804271030 METAR LMML NIL=
200804271015 METAR LMML 271015Z 01006KT 330V070 9999 FEW040 20/06 Q1020
                        NOSIG=
200804271000 METAR LMML NIL=
200804270945 METAR LMML 270945Z 02007KT 350V090 9999 FEW041 20/06 Q1020
                        NOSIG=
200804270930 METAR LMML NIL=
200804270915 METAR LMML 270915Z 36005KT 270V060 9999 FEW036 20/06 Q1020
                        NOSIG=
200804270900 METAR LMML NIL=
200804270845 METAR LMML 270845Z 34007KT 280V040 9999 FEW037 19/07 Q1020
                        NOSIG=
200804270830 METAR LMML NIL=
200804270815 METAR LMML 270815Z 35007KT 300V050 9999 FEW037 18/08 Q1020
                        NOSIG=
200804270745 METAR LMML 270745Z 35007KT 300V040 9999 FEW025 18/08 Q1019
                        NOSIG=
200804270730 METAR LMML NIL=
200804270715 METAR LMML 270715Z 36006KT 320V030 9999 FEW025 18/09 Q1019
                        NOSIG=
200804270700 METAR LMML NIL=
200804270645 METAR LMML 270645Z 34007KT 310V020 9999 FEW025 17/09 Q1019
                        NOSIG=
200804270630 METAR LMML NIL=
200804270615 METAR LMML 270615Z 36007KT 9999 FEW025 17/10 Q1019 NOSIG=
200804270600 METAR LMML NIL=
200804270545 METAR LMML 270545Z 01004KT 330V040 9999 FEW030 16/10 Q1019
                        NOSIG=
200804270530 METAR LMML NIL=
200804270515 METAR LMML 270515Z VRB02KT 9999 FEW030 14/11 Q1019 NOSIG=
200804270500 METAR LMML NIL=
200804270445 METAR LMML 270445Z 36004KT 9999 FEW020 14/10 Q1018 NOSIG=
200804270430 METAR LMML NIL=
200804270415 METAR LMML 270415Z 01005KT 9999 FEW020 14/10 Q1018 NOSIG=
200804270345 METAR LMML 270345Z 01006KT 9999 FEW020 14/10 Q1018 NOSIG=
200804270315 METAR LMML 270315Z 02006KT 9999 FEW020 14/11 Q1018 NOSIG=
200804270300 METAR LMML NIL=
200804270245 METAR LMML 270245Z 03006KT 360V070 9999 FEW020 15/10 Q1018
                        NOSIG=
200804270230 METAR LMML NIL=
200804270215 METAR LMML 270215Z 03006KT 360V060 CAVOK 15/10 Q1018 NOSIG=
200804270200 METAR LMML NIL=
200804270145 METAR LMML 270145Z 03006KT 010V070 CAVOK 15/10 Q1018 NOSIG=
200804270130 METAR LMML NIL=
200804270115 METAR LMML 270115Z 04005KT 360V070 CAVOK 15/10 Q1018 NOSIG=
200804270045 METAR LMML 270045Z 04006KT 360V070 9999 FEW023 15/10 Q1018
                        NOSIG=
200804270030 METAR LMML NIL=
200804270000 METAR LMML NIL=
200804262315 METAR LMML 262315Z 05006KT 020V080 9999 FEW012 15/12 Q1018
                        NOSIG=
200804262245 METAR LMML 262245Z 04006KT 010V070 9999 FEW012 15/14 Q1018
                        NOSIG=
200804262215 METAR LMML 262215Z 03006KT 9999 FEW012 16/14 Q1018 NOSIG=
200804262145 METAR LMML 262145Z 02006KT 350V050 9999 FEW014 16/14 Q1018
                        NOSIG=
200804262130 METAR LMML NIL=
200804262115 METAR LMML 262115Z 36004KT 9999 FEW015 16/14 Q1018 NOSIG=
200804262100 METAR LMML NIL=
200804262045 METAR LMML 262045Z VRB03KT CAVOK 16/15 Q1018 NOSIG=
200804262030 METAR LMML NIL=
200804262015 METAR LMML 262015Z VRB03KT CAVOK 16/15 Q1018 NOSIG=
200804262000 METAR LMML NIL=
200804261945 METAR LMML 261945Z 32004KT 9999 SCT014 16/14 Q1018 NOSIG=
200804261930 METAR LMML NIL=
200804261915 METAR LMML 261915Z 33005KT 9999 FEW017 SCT064 16/14 Q1018
                        NOSIG=
200804261900 METAR LMML NIL=
200804261845 METAR LMML 261845Z 30007KT 9999 FEW015 SCT060 17/14 Q1017
                        NOSIG=
200804261830 METAR LMML NIL=
200804261815 METAR LMML 261815Z 33008KT 9999 SCT018 17/14 Q1017 NOSIG=
200804261800 METAR LMML NIL=
200804261745 METAR LMML 261745Z 31006KT 280V340 9999 SCT016 17/14 Q1017
                        NOSIG=
200804261730 METAR LMML NIL=
200804261715 METAR LMML 261715Z 30008KT 9999 SCT016 17/14 Q1017 NOSIG=
200804261645 METAR LMML 261645Z 29010KT 250V320 9999 FEW020 18/14 Q1017
                        NOSIG=
200804261630 METAR LMML NIL=
200804261615 METAR LMML 261615Z 33008KT 300V360 9999 FEW018 18/13 Q1017
                        NOSIG=
200804261600 METAR LMML NIL=
200804261545 METAR LMML 261545Z 31012KT 280V340 9999 SCT019 BKN080 18/14
                        Q1017 NOSIG=
200804261530 METAR LMML NIL=
200804261515 METAR LMML 261515Z 28017KT 250V310 9999 FEW023 SCT080 19/13
                        Q1017 NOSIG=
200804261500 METAR LMML NIL=
200804261445 METAR LMML 261445Z 28014KT 230V310 9999 FEW023 19/13 Q1017
                        NOSIG=
200804261415 METAR LMML 261415Z 28016KT 250V310 9999 FEW023 19/13 Q1017
                        NOSIG=
200804261400 METAR LMML NIL=
200804261345 METAR LMML 261345Z 29018KT 9999 FEW023 19/12 Q1017 NOSIG=
200804261330 METAR LMML NIL=
200804261315 METAR LMML 261315Z 27016KT 240V310 9999 FEW023 19/12 Q1017
                        NOSIG=
200804261300 METAR LMML NIL=
200804261245 METAR LMML 261245Z 28015KT 250V310 9999 FEW023 19/12 Q1018
                        NOSIG=
200804261215 METAR LMML 261215Z 29014KT 9999 FEW023 20/12 Q1018 NOSIG=
200804261200 METAR LMML NIL=
200804261145 METAR LMML 261145Z 27012KT 230V310 9999 FEW023 19/12 Q1018
                        NOSIG=
200804261130 METAR LMML NIL=
200804261115 METAR LMML 261115Z 29011KT 260V330 9999 FEW028 20/11 Q1019
                        NOSIG=
200804261045 METAR LMML 261045Z 30010KT 240V340 9999 FEW028 20/11 Q1019
                        NOSIG=
200804261030 METAR LMML NIL=
200804261015 METAR LMML 261015Z 28010KT 230V320 9999 FEW028 20/10 Q1019
                        NOSIG=
200804261000 METAR LMML NIL=
200804260945 METAR LMML 260945Z 28010KT 230V320 9999 FEW027 20/11 Q1019
                        NOSIG=
200804260930 METAR LMML NIL=
200804260915 METAR LMML 260915Z 31008KT 270V350 9999 FEW028 19/10 Q1019
                        NOSIG=
200804260900 METAR LMML NIL=
200804260845 METAR LMML 260845Z 29010KT 230V320 9999 FEW029 18/10 Q1019
                        NOSIG=
200804260830 METAR LMML NIL=
200804260815 METAR LMML 260815Z 34007KT 300V020 9999 FEW025 19/10 Q1019
                        NOSIG=
200804260745 METAR LMML 260745Z 33008KT 300V360 9999 FEW025 18/11 Q1019
                        NOSIG=
200804260730 METAR LMML NIL=
200804260715 METAR LMML 260715Z 32009KT 280V350 9999 FEW021 17/11 Q1019
                        NOSIG=
200804260700 METAR LMML NIL=
200804260645 METAR LMML 260645Z 32009KT 9999 FEW021 17/12 Q1019 NOSIG=
200804260615 METAR LMML 260615Z 32008KT 290V360 9999 FEW022 17/12 Q1019
                        NOSIG=
200804260600 METAR LMML NIL=
200804260545 METAR LMML 260545Z 33008KT 9999 FEW020 16/12 Q1019 NOSIG=
200804260530 METAR LMML NIL=
200804260515 METAR LMML 260515Z 32007KT 9999 FEW015 15/12 Q1019 NOSIG=
200804260500 METAR LMML NIL=
200804260445 METAR LMML 260445Z 32006KT 9999 FEW015 14/11 Q1019 NOSIG=
200804260430 METAR LMML NIL=
200804260415 METAR LMML 260415Z 32007KT 9999 FEW015 14/11 Q1019 NOSIG=
200804260400 METAR LMML NIL=
200804260345 METAR LMML 260345Z 31008KT CAVOK 14/11 Q1019 NOSIG=
200804260330 METAR LMML NIL=
200804260315 METAR LMML 260315Z 32007KT CAVOK 14/11 Q1019 NOSIG=
200804260300 METAR LMML NIL=
200804260245 METAR LMML 260245Z 32008KT CAVOK 14/11 Q1019 NOSIG=
200804260230 METAR LMML NIL=
200804260215 METAR LMML 260215Z 31007KT CAVOK 14/11 Q1019 NOSIG=
200804260200 METAR LMML NIL=
200804260145 METAR LMML 260145Z 32006KT CAVOK 14/11 Q1019 NOSIG=
200804260130 METAR LMML NIL=
200804260115 METAR LMML 260115Z 31011KT CAVOK 15/11 Q1019 NOSIG=
200804260100 METAR LMML NIL=
200804260045 METAR LMML 260045Z 31009KT CAVOK 15/12 Q1020 NOSIG=
200804260030 METAR LMML NIL=
200804260000 METAR LMML NIL=
200804252330 METAR LMML NIL=
200804252315 METAR LMML 252315Z 31010KT CAVOK 15/13 Q1020 NOSIG=
200804252300 METAR LMML NIL=
200804252245 METAR LMML 252245Z 30007KT CAVOK 15/13 Q1021 NOSIG=
200804252230 METAR LMML NIL=
200804252215 METAR LMML 252215Z 28006KT 240V310 CAVOK 16/14 Q1021 NOSIG=
200804252145 METAR LMML 252145Z 26006KT 220V300 CAVOK 16/14 Q1021 NOSIG=
200804252115 METAR LMML 252115Z 27008KT 240V300 CAVOK 16/15 Q1021 NOSIG=
200804252100 METAR LMML NIL=
200804252045 METAR LMML 252045Z 26005KT 220V290 CAVOK 16/14 Q1022 NOSIG=
200804252030 METAR LMML NIL=
200804252015 METAR LMML 252015Z 27006KT CAVOK 16/14 Q1022 NOSIG=
200804252000 LMML NIL=
200804251945 LMML 251945Z 26005KT 230V290 9999 FEW024 16/14 Q1022 NOSIG=
200804251930 METAR LMML NIL=
200804251915 METAR LMML 251915Z 26005KT 230V290 9999 FEW024 SCT250 16/14
                        Q1022 NOSIG=
200804251900 METAR LMML NIL=
200804251845 METAR LMML 251845Z 27005KT 9999 FEW024 SCT250 16/12 Q1022
                        NOSIG=
200804251830 METAR LMML NIL=
200804251815 METAR LMML 251815Z 28005KT 240V310 9999 FEW024 SCT250 16/12
                        Q1021 NOSIG=
200804251800 METAR LMML NIL=
200804251745 METAR LMML 251745Z 28008KT 9999 FEW024 SCT250 17/13 Q1021
                        NOSIG=
200804251730 METAR LMML NIL=
200804251715 METAR LMML 251715Z 28009KT 230V310 9999 FEW024 17/12 Q1021
                        NOSIG=
200804251700 METAR LMML NIL=
200804251645 METAR LMML 251645Z 28009KT 240V300 9999 SCT022 18/12 Q1021
                        NOSIG=
200804251630 METAR LMML NIL=
200804251615 METAR LMML 251615Z 23006KT 190V310 9999 BKN020 18/13 Q1021
                        NOSIG=
200804251600 METAR LMML NIL=
200804251545 METAR LMML 251545Z 22005KT 180V290 9999 FEW024 SCT038 18/13
                        Q1021 NOSIG=
200804251530 METAR LMML NIL=
200804251515 METAR LMML 251515Z 19006KT 160V230 9999 SCT024 19/12 Q1021
                        NOSIG=
200804251500 METAR LMML NIL=
200804251445 METAR LMML 251445Z 20004KT 150V260 9999 SCT031 19/11 Q1021
                        NOSIG=
200804251430 METAR LMML NIL=
200804251415 METAR LMML 251415Z 31005KT 190V050 9999 SCT030 19/12 Q1022
                        NOSIG=
200804251400 METAR LMML NIL=
200804251345 METAR LMML 251345Z 04006KT 330V090 9999 FEW030 20/12 Q1022
                        BECMG 32010KT=
200804251330 METAR LMML NIL=
200804251315 METAR LMML 251315Z 03005KT 330V100 9999 FEW029 20/12 Q1022
                        BECMG 32010KT=
200804251300 METAR LMML NIL=
200804251245 METAR LMML 251245Z 01005KT 320V090 9999 FEW028 21/12 Q1022
                        BECMG 32010KT=
200804251230 METAR LMML NIL=
200804251215 METAR LMML 251215Z 03006KT 350V070 9999 FEW025 21/12 Q1022
                        BECMG 32010KT=
200804251200 METAR LMML NIL=
200804251145 METAR LMML 251145Z 03007KT 350V060 9999 FEW025 21/12 Q1023
                        BECMG 32010KT=
200804251130 METAR LMML NIL=
200804251115 METAR LMML 251115Z 01007KT 330V040 9999 FEW023 20/12 Q1023
                        NOSIG=
200804251100 METAR LMML NIL=
200804251045 METAR LMML 251045Z 02009KT 350V060 9999 FEW023 20/13 Q1023
                        NOSIG=
200804251030 METAR LMML NIL=
200804251015 METAR LMML 251015Z 02008KT 330V100 9999 FEW023 20/12 Q1023
                        NOSIG=
200804251000 METAR LMML NIL=
200804250945 METAR LMML 250945Z 03010KT 360V070 9999 SCT018 19/12 Q1023
                        NOSIG=
200804250930 METAR LMML NIL=
200804250915 METAR LMML 250915Z 02010KT 340V060 9999 SCT017 20/13 Q1023
                        NOSIG=
200804250900 METAR LMML NIL=
200804250845 METAR LMML 250845Z 03010KT 340V070 9999 BKN016 20/14 Q1023
                        NOSIG=
200804250830 METAR LMML NIL=
200804250815 METAR LMML 250815Z 01010KT 350V060 9999 SCT016 18/13 Q1022
                        NOSIG=
200804250745 METAR LMML 250745Z 02008KT 350V060 9999 SCT014 18/14 Q1022
                        TEMPO BKN015=
200804250730 METAR LMML NIL=
200804250715 METAR LMML 250715Z 02009KT 350V060 9999 BKN013 17/14 Q1022
                        TEMPO BKN015=
200804250700 METAR LMML NIL=
200804250645 METAR LMML 250645Z 02008KT 350V050 9999 BKN014 17/14 Q1021
                        TEMPO BKN015=
200804250615 METAR LMML 250615Z 02010KT 9999 SCT013 17/14 Q1021 TEMPO
                        BKN015=
200804250600 METAR LMML NIL=
200804250545 METAR LMML 250545Z 03011KT 360V060 9999 SCT012 16/14 Q1021
                        NOSIG=
200804250530 METAR LMML NIL=
200804250515 LMML 250515Z 02008KT 9999 SCT013 16/14 Q1021 NOSIG=
200804250500 METAR LMML NIL=
200804250445 METAR LMML 250445Z 01008KT 9999 SCT012 15/14 Q1021 NOSIG=
200804250430 METAR LMML NIL=
200804250415 METAR LMML 250415Z 01009KT 9999 SCT012 15/14 Q1021 BECMG
                        BKN012=
200804250400 METAR LMML NIL=
200804250345 METAR LMML 250345Z 36008KT 9999 SCT012 15/15 Q1021 BECMG
                        BKN012=
200804250330 METAR LMML NIL=
200804250315 METAR LMML 250315Z 35010KT 9999 SCT013 15/14 Q1020 BECMG
                        BKN012=
200804250300 METAR LMML NIL=
200804250245 METAR LMML 250245Z 35009KT 9999 SCT013 15/14 Q1020 NOSIG=
200804250230 METAR LMML NIL=
200804250215 METAR LMML 250215Z 35007KT 9999 FEW015 15/14 Q1020 NOSIG=
200804250200 METAR LMML NIL=
200804250145 METAR LMML 250145Z 02004KT 9999 FEW015 15/13 Q1020 NOSIG=
200804250130 METAR LMML NIL=
200804250115 METAR LMML 250115Z VRB03KT 9999 FEW013 15/13 Q1020 NOSIG=
200804250100 METAR LMML NIL=
200804250045 METAR LMML 250045Z 03004KT 360V060 9999 FEW013 15/14 Q1020
                        NOSIG=
200804250000 METAR LMML NIL=
200804242330 METAR LMML NIL=
200804242315 METAR LMML 242315Z 34007KT 280V010 9999 FEW015 16/15 Q1021
                        NOSIG=
200804242300 METAR LMML NIL=
200804242245 METAR LMML 242245Z 33009KT 300V360 9999 FEW015 16/15 Q1021
                        NOSIG=
200804242230 METAR LMML NIL=
200804242215 METAR LMML 242215Z 32006KT CAVOK 15/15 Q1021 NOSIG=
200804242200 METAR LMML NIL=
200804242145 METAR LMML 242145Z 33007KT CAVOK 15/14 Q1020 NOSIG=
200804242130 METAR LMML NIL=
200804242115 METAR LMML 242115Z 30008KT CAVOK 15/14 Q1020 NOSIG=
200804242100 METAR LMML NIL=
200804242045 METAR LMML 242045Z 27006KT 240V300 9999 FEW018 15/13 Q1020
                        NOSIG=
200804242030 METAR LMML NIL=
200804242015 METAR LMML 242015Z 27007KT 240V310 9999 FEW018 15/14 Q1021
                        NOSIG=
200804242000 METAR LMML NIL=
200804241945 METAR LMML 241945Z 27008KT 240V300 9999 FEW018 15/13 Q1021
                        NOSIG=
200804241930 METAR LMML NIL=
200804241915 LMML 241915Z 27008KT 240V320 9999 FEW018 15/13 Q1020 NOSIG=
200804241900 METAR LMML NIL=
200804241845 METAR LMML 241845Z 27007KT 9999 FEW018 15/13 Q1020 NOSIG=
200804241830 METAR LMML NIL=
200804241815 METAR LMML 241815Z 28009KT 240V310 9999 SCT018 16/13 Q1020
                        NOSIG=
200804241800 METAR LMML NIL=
200804241745 METAR LMML 241745Z 28010KT 250V310 9999 SCT020 16/12 Q1020
                        NOSIG=
200804241730 METAR LMML NIL=
200804241715 METAR LMML 241715Z 29010KT 240V320 9999 SCT021 17/12 Q1020
                        NOSIG=
200804241700 METAR LMML NIL=
200804241645 METAR LMML 241645Z 29014KT 260V320 9999 SCT022 17/12 Q1020
                        NOSIG=
200804241630 METAR LMML NIL=
200804241615 METAR LMML 241615Z 29013KT 260V320 9999 SCT022 17/12 Q1020
                        NOSIG=
200804241545 METAR LMML 241545Z 28017KT 9999 SCT023 17/12 Q1021 NOSIG=
200804241530 METAR LMML NIL=
200804241515 METAR LMML 241515Z 29013KT 250V320 9999 FEW024 19/12 Q1021
                        NOSIG=
200804241500 METAR LMML NIL=
200804241445 METAR LMML 241445Z 29012KT 250V320 9999 FEW025 19/11 Q1021
                        NOSIG=
200804241430 METAR LMML NIL=
200804241415 METAR LMML 241415Z 29014KT 250V320 9999 FEW025 19/10 Q1021
                        NOSIG=
200804241400 METAR LMML NIL=
200804241345 METAR LMML 241345Z 30016KT 9999 FEW025 19/11 Q1021 NOSIG=
200804241330 METAR LMML NIL=
200804241315 METAR LMML 241315Z 29014KT 9999 FEW025 20/10 Q1022 NOSIG=
200804241300 METAR LMML NIL=
200804241245 METAR LMML 241245Z 30016KT 260V320 9999 FEW025 20/09 Q1022
                        NOSIG=
200804241230 METAR LMML NIL=
200804241215 METAR LMML 241215Z 30017KT 9999 FEW025 20/09 Q1022 NOSIG=
200804241200 METAR LMML NIL=
200804241145 METAR LMML 241145Z 30017KT 9999 FEW025 20/11 Q1022 NOSIG=
200804241130 METAR LMML NIL=
200804241115 METAR LMML 241115Z 30014KT 260V330 9999 FEW025 20/10 Q1022
                        NOSIG=
200804241045 METAR LMML 241045Z 28014KT 250V320 9999 FEW026 20/11 Q1022
                        NOSIG=
200804241030 METAR LMML NIL=
200804241015 METAR LMML 241015Z 29012KT 260V330 9999 FEW026 20/12 Q1022
                        NOSIG=
200804241000 METAR LMML NIL=
200804240945 METAR LMML 240945Z 30012KT 260V350 9999 FEW020 20/13 Q1022
                        NOSIG=
200804240930 METAR LMML NIL=
200804240915 METAR LMML 240915Z 29014KT 9999 FEW019 19/13 Q1022 NOSIG=
200804240900 METAR LMML NIL=
200804240845 METAR LMML 240845Z 30013KT 9999 FEW019 19/13 Q1022 NOSIG=
200804240830 METAR LMML NIL=
200804240815 METAR LMML 240815Z 29014KT 9999 SCT017 18/13 Q1022 NOSIG=
200804240800 METAR LMML NIL=
200804240745 METAR LMML 240745Z 30012KT 9999 SCT016 18/13 Q1022 NOSIG=
200804240730 METAR LMML NIL=
200804240715 METAR LMML 240715Z 30014KT 9999 SCT016 17/13 Q1022 NOSIG=
200804240700 METAR LMML NIL=
200804240645 METAR LMML 240645Z 30012KT 270V330 9999 SCT015 17/14 Q1022
                        NOSIG=
200804240630 METAR LMML NIL=
200804240615 METAR LMML 240615Z 30011KT 260V330 9999 SCT014 17/14 Q1022
                        NOSIG=
200804240600 METAR LMML NIL=
200804240545 METAR LMML 240545Z 29009KT 9999 FEW020 16/14 Q1021 NOSIG=
200804240530 METAR LMML NIL=
200804240515 METAR LMML 240515Z 28007KT 9999 FEW020 15/14 Q1021 NOSIG=
200804240500 METAR LMML NIL=
200804240445 METAR LMML 240445Z 28007KT 9999 FEW020 14/14 Q1021 NOSIG=
200804240430 METAR LMML NIL=
200804240415 METAR LMML 240415Z 28008KT 9999 FEW020 14/13 Q1021 NOSIG=
200804240400 METAR LMML NIL=
200804240345 METAR LMML 240345Z 28004KT 9999 FEW020 13/13 Q1021 NOSIG=
200804240330 METAR LMML NIL=
200804240315 METAR LMML 240315Z 29005KT CAVOK 14/13 Q1021 NOSIG=
200804240300 METAR LMML NIL=
200804240245 METAR LMML 240245Z 28006KT CAVOK 14/13 Q1021 NOSIG=
200804240230 METAR LMML NIL=
200804240215 METAR LMML 240215Z 29007KT CAVOK 14/13 Q1021 NOSIG=
200804240200 METAR LMML NIL=
200804240145 METAR LMML 240145Z 30008KT CAVOK 14/13 Q1021 NOSIG=
200804240130 METAR LMML NIL=
200804240115 METAR LMML 240115Z 30008KT CAVOK 14/13 Q1021 NOSIG=
200804240100 METAR LMML NIL=
200804240045 METAR LMML 240045Z 29007KT CAVOK 14/12 Q1021 NOSIG=
200804240030 METAR LMML NIL=
200804240015 METAR LMML 240015Z 29008KT CAVOK 14/12 Q1021 NOSIG=
200804240000 METAR LMML NIL=
200804232345 METAR LMML 232345Z 30008KT CAVOK 14/12 Q1021 NOSIG=
200804232330 METAR LMML NIL=
200804232315 METAR LMML 232315Z 30009KT CAVOK 15/12 Q1021 NOSIG=
200804232300 METAR LMML NIL=
200804232245 METAR LMML 232245Z 31009KT CAVOK 15/11 Q1022 NOSIG=
200804232215 METAR LMML 232215Z 29010KT CAVOK 15/12 Q1022 NOSIG=
200804232200 METAR LMML NIL=
200804232145 METAR LMML 232145Z 30009KT CAVOK 15/12 Q1022 NOSIG=
200804232130 METAR LMML NIL=
200804232115 METAR LMML 232115Z 29009KT CAVOK 15/12 Q1022 NOSIG=
200804232100 METAR LMML NIL=
200804232045 METAR LMML 232045Z 29010KT CAVOK 15/12 Q1022 NOSIG=
200804232015 METAR LMML 232015Z 29010KT CAVOK 15/11 Q1022 NOSIG=
200804232000 METAR LMML NIL=
200804231945 METAR LMML 231945Z 30011KT CAVOK 15/11 Q1021 NOSIG=
200804231915 METAR LMML 231915Z 30012KT CAVOK 16/12 Q1021 NOSIG=
200804231845 METAR LMML 231845Z 31012KT CAVOK 16/12 Q1021 NOSIG=
200804231815 METAR LMML 231815Z 29011KT 260V320 9999 FEW020 16/12 Q1020
                        NOSIG=
200804231800 METAR LMML NIL=
200804231745 METAR LMML 231745Z 29012KT 9999 FEW020 16/12 Q1020 NOSIG=
200804231730 METAR LMML NIL=
200804231715 METAR LMML 231715Z 28015KT 9999 FEW020 16/12 Q1020 NOSIG=
200804231700 METAR LMML NIL=
200804231645 METAR LMML 231645Z 29014KT 250V320 9999 FEW021 17/11 Q1020
                        NOSIG=
200804231615 METAR LMML 231615Z 29015KT 9999 FEW021 18/11 Q1020 NOSIG=
200804231600 METAR LMML NIL=
200804231545 METAR LMML 231545Z 29016KT 9999 FEW021 18/12 Q1020 NOSIG=
200804231530 METAR LMML NIL=
200804231515 METAR LMML 231515Z 29016KT 260V320 9999 FEW021 19/11 Q1020
                        NOSIG=
200804231445 METAR LMML 231445Z 29017KT 9999 FEW027 19/12 Q1020 NOSIG=
200804231430 METAR LMML NIL=
200804231415 METAR LMML 231415Z 30017KT 260V330 9999 FEW027 19/12 Q1020
                        NOSIG=
200804231400 METAR LMML NIL=
200804231345 METAR LMML 231345Z 29018KT 9999 FEW027 19/12 Q1020 NOSIG=
200804231330 METAR LMML NIL=
200804231315 METAR LMML 231315Z 30018KT 9999 FEW025 19/11 Q1021 NOSIG=
200804231245 METAR LMML 231245Z 28016KT 9999 FEW025 20/11 Q1020 NOSIG=
200804231230 METAR LMML NIL=
200804231215 METAR LMML 231215Z 29015KT 260V320 9999 FEW027 20/11 Q1020
                        NOSIG=
200804231200 METAR LMML NIL=
200804231145 METAR LMML 231145Z 28016KT 250V320 9999 FEW027 19/11 Q1020
                        NOSIG=
200804231130 METAR LMML NIL=
200804231115 METAR LMML 231115Z 28017KT 240V310 9999 FEW024 20/11 Q1020
                        NOSIG=
200804231100 METAR LMML NIL=
200804231045 METAR LMML 231045Z 29017KT 250V320 9999 FEW024 20/10 Q1020
                        NOSIG=
200804231030 METAR LMML NIL=
200804231015 METAR LMML 231015Z 29015KT 240V330 9999 FEW024 20/10 Q1021
                        NOSIG=
200804231000 METAR LMML NIL=
200804230945 METAR LMML 230945Z 28014KT 240V310 9999 FEW024 19/10 Q1020
                        NOSIG=
200804230930 METAR LMML NIL=
200804230915 METAR LMML 230915Z 28014KT 240V300 9999 FEW024 19/09 Q1021
                        NOSIG=
200804230900 METAR LMML NIL=
200804230845 METAR LMML 230845Z 29016KT 9999 FEW024 19/08 Q1020 NOSIG=
200804230830 METAR LMML NIL=
200804230815 METAR LMML 230815Z 30014KT 9999 FEW024 19/10 Q1020 NOSIG=
200804230800 METAR LMML NIL=
200804230745 METAR LMML 230745Z 29013KT 9999 FEW024 18/10 Q1020 NOSIG=
200804230730 METAR LMML NIL=
200804230715 METAR LMML 230715Z 30014KT 9999 FEW024 18/11 Q1019 NOSIG=
200804230700 METAR LMML NIL=
200804230645 METAR LMML 230645Z 29013KT 9999 FEW026 17/11 Q1019 NOSIG=
200804230630 METAR LMML NIL=
200804230615 METAR LMML 230615Z 29012KT 9999 FEW020 SCT250 17/12 Q1019
                        NOSIG=
200804230600 METAR LMML NIL=
200804230545 METAR LMML 230545Z 29010KT 9999 FEW020 SCT250 16/11 Q1018
                        NOSIG=
200804230530 METAR LMML NIL=
200804230515 METAR LMML 230515Z 29007KT 9999 FEW020 BKN250 15/11 Q1018
                        NOSIG=
200804230500 METAR LMML NIL=
200804230445 METAR LMML 230445Z 29008KT 9999 FEW025 BKN250 14/11 Q1018
                        NOSIG=
200804230430 METAR LMML NIL=
200804230415 METAR LMML 230415Z 27007KT 9999 FEW025 BKN250 14/12 Q1018
                        NOSIG=
200804230400 METAR LMML NIL=
200804230345 METAR LMML 230345Z 25007KT 230V290 9999 FEW025 SCT250 15/12
                        Q1018 NOSIG=
200804230330 METAR LMML NIL=
200804230315 METAR LMML 230315Z 25006KT 210V280 CAVOK 14/13 Q1017 NOSIG=
200804230300 METAR LMML NIL=
200804230245 METAR LMML 230245Z 26007KT 230V290 CAVOK 15/13 Q1017 NOSIG=
200804230230 METAR LMML NIL=
200804230215 METAR LMML 230215Z 26008KT CAVOK 15/13 Q1017 NOSIG=
200804230200 METAR LMML NIL=
200804230145 METAR LMML 230145Z 26007KT 230V290 CAVOK 15/13 Q1017 NOSIG=
200804230130 METAR LMML NIL=
200804230115 METAR LMML 230115Z 26006KT 230V290 CAVOK 15/14 Q1017 NOSIG=
200804230100 METAR LMML NIL=
200804230045 METAR LMML 230045Z 27007KT 240V300 CAVOK 15/14 Q1017 NOSIG=
200804230030 METAR LMML NIL=
200804230015 METAR LMML 230015Z 27006KT 240V300 CAVOK 15/14 Q1018 NOSIG=
200804230000 METAR LMML NIL=
200804222345 METAR LMML 222345Z 26006KT 220V300 CAVOK 15/14 Q1018 NOSIG=
200804222330 METAR LMML NIL=
200804222315 METAR LMML 222315Z 26007KT 220V290 CAVOK 15/14 Q1018 NOSIG=
200804222245 METAR LMML 222245Z 26007KT 230V290 CAVOK 15/13 Q1018 NOSIG=
200804222230 METAR LMML NIL=
200804222215 METAR LMML 222215Z 27007KT 240V310 CAVOK 15/13 Q1018 NOSIG=
200804222200 METAR LMML NIL=
200804222145 METAR LMML 222145Z 27007KT CAVOK 15/13 Q1018 NOSIG=
200804222130 METAR LMML NIL=
200804222115 METAR LMML 222115Z 27007KT CAVOK 15/13 Q1018 NOSIG=
200804222100 METAR LMML NIL=
200804222045 METAR LMML 222045Z 27006KT CAVOK 15/13 Q1018 NOSIG=
200804222030 METAR LMML NIL=
200804222015 METAR LMML 222015Z 28006KT CAVOK 16/12 Q1018 NOSIG=
200804222000 METAR LMML NIL=
200804221945 METAR LMML 221945Z 26006KT 220V290 CAVOK 16/12 Q1017 NOSIG=
200804221930 METAR LMML NIL=
200804221915 METAR LMML 221915Z 27006KT 240V300 CAVOK 16/12 Q1017 NOSIG=
200804221900 METAR LMML NIL=
200804221845 METAR LMML 221845Z 27007KT 240V300 CAVOK 16/12 Q1017 NOSIG=
200804221830 METAR LMML NIL=
200804221815 METAR LMML 221815Z 26006KT CAVOK 16/12 Q1016 NOSIG=
200804221800 METAR LMML NIL=
200804221745 METAR LMML 221745Z 27008KT CAVOK 16/11 Q1016 NOSIG=
200804221715 METAR LMML 221715Z 28009KT CAVOK 17/11 Q1016 NOSIG=
200804221700 METAR LMML NIL=
200804221645 METAR LMML 221645Z 28010KT 250V310 CAVOK 18/10 Q1016 NOSIG=
200804221630 METAR LMML NIL=
200804221615 METAR LMML 221615Z 29013KT CAVOK 18/10 Q1016 NOSIG=
200804221600 METAR LMML NIL=
200804221545 METAR LMML 221545Z 30016KT CAVOK 18/10 Q1015 NOSIG=
200804221530 METAR LMML NIL=
200804221515 METAR LMML 221515Z 30018KT CAVOK 19/10 Q1016 NOSIG=
200804221500 METAR LMML NIL=
200804221445 METAR LMML 221445Z 30018KT CAVOK 19/10 Q1015 NOSIG=
200804221430 METAR LMML NIL=
200804221415 METAR LMML 221415Z 29018G30KT 250V320 9999 FEW022 20/11 Q1015
                        NOSIG=
200804221400 METAR LMML NIL=
200804221345 METAR LMML 221345Z 29017KT 260V320 CAVOK 20/10 Q1015 NOSIG=
200804221330 METAR LMML NIL=
200804221315 METAR LMML 221315Z 29018KT 9999 FEW022 20/10 Q1015 NOSIG=
200804221300 METAR LMML NIL=
200804221245 METAR LMML 221245Z 28016KT 260V320 9999 FEW022 20/10 Q1015
                        NOSIG=
200804221230 METAR LMML NIL=
200804221215 METAR LMML 221215Z 28016KT 240V320 9999 FEW022 20/10 Q1015
                        NOSIG=
200804221200 METAR LMML NIL=
200804221145 METAR LMML 221145Z 28015KT 240V310 9999 FEW022 20/10 Q1015
                        NOSIG=
200804221130 METAR LMML NIL=
200804221115 METAR LMML 221115Z 29017KT 9999 FEW022 20/11 Q1015 NOSIG=
200804221100 METAR LMML NIL=
200804221045 METAR LMML 221045Z 30018KT 9999 FEW022 20/11 Q1015 NOSIG=
200804221030 METAR LMML NIL=
200804221015 METAR LMML 221015Z 29017KT 9999 FEW022 20/12 Q1015 NOSIG=
200804221000 METAR LMML NIL=
200804220945 METAR LMML 220945Z 31018KT 9999 FEW022 20/12 Q1015 NOSIG=
200804220930 METAR LMML NIL=
200804220915 METAR LMML 220915Z 30019KT 9999 FEW021 19/12 Q1015 NOSIG=
200804220900 METAR LMML NIL=
200804220845 METAR LMML 220845Z 29015KT 260V320 9999 FEW021 18/12 Q1015
                        NOSIG=
200804220830 METAR LMML NIL=
200804220815 METAR LMML 220815Z 28016KT 250V320 9999 FEW021 18/11 Q1015
                        NOSIG=
200804220800 METAR LMML NIL=
200804220745 METAR LMML 220745Z 29017KT 260V320 9999 FEW020 18/12 Q1014
                        NOSIG=
200804220730 METAR LMML NIL=
200804220715 METAR LMML 220715Z 28015KT 240V300 9999 FEW020 18/12 Q1014
                        NOSIG=
200804220700 METAR LMML NIL=
200804220645 METAR LMML 220645Z 28015KT 240V300 9999 FEW020 17/12 Q1014
                        NOSIG=
200804220630 METAR LMML NIL=
200804220615 METAR LMML 220615Z 28013KT 250V310 9999 FEW019 17/12 Q1014
                        NOSIG=
200804220600 METAR LMML NIL=
200804220545 METAR LMML 220545Z 30011KT CAVOK 16/12 Q1014 NOSIG=
200804220530 METAR LMML NIL=
200804220515 METAR LMML 220515Z 30011KT CAVOK 16/12 Q1013 NOSIG=
200804220500 METAR LMML NIL=
200804220445 METAR LMML 220445Z 31011KT CAVOK 15/12 Q1013 NOSIG=
200804220430 METAR LMML NIL=
200804220415 METAR LMML 220415Z 31008KT CAVOK 15/11 Q1013 NOSIG=
200804220400 METAR LMML NIL=
200804220345 METAR LMML 220345Z 31008KT 280V340 CAVOK 15/10 Q1013 NOSIG=
200804220330 METAR LMML NIL=
200804220315 METAR LMML 220315Z 31012KT CAVOK 16/09 Q1013 NOSIG=
200804220300 METAR LMML NIL=
200804220245 METAR LMML 220245Z 31012KT CAVOK 16/10 Q1013 NOSIG=
200804220230 METAR LMML NIL=
200804220215 METAR LMML 220215Z 30012KT CAVOK 16/11 Q1013 NOSIG=
200804220200 METAR LMML NIL=
200804220145 METAR LMML 220145Z 30013KT CAVOK 16/10 Q1012 NOSIG=
200804220130 METAR LMML NIL=
200804220115 METAR LMML 220115Z 31015KT CAVOK 16/11 Q1012 NOSIG=
200804220100 METAR LMML NIL=
200804220045 METAR LMML 220045Z 31015KT CAVOK 16/10 Q1012 NOSIG=
200804220030 METAR LMML NIL=
200804220015 METAR LMML 220015Z 31017KT CAVOK 16/11 Q1012 NOSIG=
200804220000 METAR LMML NIL=
200804212345 METAR LMML 212345Z 31018KT CAVOK 17/09 Q1012 NOSIG=
200804212330 METAR LMML NIL=
200804212315 METAR LMML 212315Z 31013KT CAVOK 16/10 Q1011 NOSIG=
200804212300 METAR LMML NIL=
200804212245 METAR LMML 212245Z 30011KT CAVOK 16/11 Q1011 NOSIG=
200804212230 METAR LMML NIL=
200804212215 METAR LMML 212215Z 30013KT CAVOK 16/11 Q1011 NOSIG=
200804212145 METAR LMML 212145Z 30011KT CAVOK 16/11 Q1010 NOSIG=
200804212130 METAR LMML NIL=
200804212115 METAR LMML 212115Z 30010KT CAVOK 16/12 Q1011 NOSIG=
200804212100 METAR LMML NIL=
200804212045 METAR LMML 212045Z 30014KT CAVOK 16/12 Q1011 NOSIG=
200804212030 METAR LMML NIL=
200804212015 METAR LMML 212015Z 31011KT CAVOK 16/12 Q1011 NOSIG=
200804212000 METAR LMML NIL=
200804211945 METAR LMML 211945Z 31011KT CAVOK 16/12 Q1010 NOSIG=
200804211930 METAR LMML NIL=
200804211915 METAR LMML 211915Z 31009KT CAVOK 16/11 Q1010 NOSIG=
200804211900 METAR LMML NIL=
200804211845 METAR LMML 211845Z 32010KT CAVOK 16/11 Q1010 NOSIG=
200804211830 METAR LMML NIL=
200804211815 METAR LMML 211815Z 31013KT CAVOK 17/11 Q1009 NOSIG=
200804211800 METAR LMML NIL=
200804211745 METAR LMML 211745Z 31014KT CAVOK 17/11 Q1009 NOSIG=
200804211730 METAR LMML NIL=
200804211715 METAR LMML 211715Z 31018KT CAVOK 18/10 Q1009 NOSIG=
200804211700 METAR LMML NIL=
200804211645 METAR LMML 211645Z 31018KT CAVOK 19/09 Q1009 NOSIG=
200804211630 METAR LMML NIL=
200804211615 METAR LMML 211615Z 32018KT CAVOK 18/09 Q1009 NOSIG=
200804211600 METAR LMML NIL=
200804211545 METAR LMML 211545Z 32018KT CAVOK 20/09 Q1009 NOSIG=
200804211530 METAR LMML NIL=
200804211515 METAR LMML 211515Z 31017KT CAVOK 20/09 Q1008 NOSIG=
200804211500 METAR LMML NIL=
200804211445 METAR LMML 211445Z 31016KT CAVOK 21/09 Q1008 NOSIG=
200804211430 METAR LMML NIL=
200804211415 METAR LMML 211415Z 31016KT 280V340 CAVOK 21/10 Q1008 NOSIG=
200804211400 METAR LMML NIL=
200804211345 METAR LMML 211345Z 30018KT CAVOK 21/10 Q1008 NOSIG=
200804211330 METAR LMML NIL=
200804211315 METAR LMML 211315Z 31019KT CAVOK 21/11 Q1008 NOSIG=
200804211300 METAR LMML NIL=
200804211245 METAR LMML 211245Z 29015KT 270V330 CAVOK 21/12 Q1008 NOSIG=
200804211215 METAR LMML 211215Z 30016KT CAVOK 22/12 Q1008 NOSIG=
200804211145 METAR LMML 211145Z 33013KT 290V360 CAVOK 22/12 Q1008 NOSIG=
200804211115 METAR LMML 211115Z 33015KT CAVOK 21/12 Q1008 NOSIG=
200804211100 METAR LMML NIL=
200804211045 METAR LMML 211045Z 33019KT CAVOK 21/11 Q1008 NOSIG=
200804211030 METAR LMML NIL=
200804211015 METAR LMML 211015Z 32019KT CAVOK 21/11 Q1008 NOSIG=
200804211000 METAR LMML NIL=
200804210945 METAR LMML 210945Z 33019KT CAVOK 21/13 Q1008 NOSIG=
200804210930 METAR LMML NIL=
200804210915 METAR LMML 210915Z 33015KT CAVOK 20/14 Q1008 NOSIG=
200804210900 METAR LMML NIL=
200804210845 METAR LMML 210845Z 33014KT CAVOK 20/15 Q1008 NOSIG=
200804210830 METAR LMML NIL=
200804210815 METAR LMML 210815Z 33013KT 9000 FEW010 BKN250 20/15 Q1007
                        NOSIG=
200804210800 METAR LMML NIL=
200804210745 METAR LMML 210745Z 33013KT 300V360 8000 FEW010 BKN250 19/16
                        Q1007 NOSIG=
200804210730 METAR LMML NIL=
200804210715 METAR LMML 210715Z 33016KT 8000 BKN011 BKN250 18/16 Q1007
                        BECMG SCT010=
200804210645 METAR LMML 210645Z 33013KT 300V360 7000 BKN009 BKN250 17/17
                        Q1007 BECMG SCT 010=
200804210630 METAR LMML NIL=
200804210615 METAR LMML 210615Z 32013KT 300V360 5000 BR BKN007 BKN250
                        17/17 Q1007 BECMG 8000=
200804210545 METAR LMML 210545Z 33011KT 5000 BR BKN007 OVC250 17/17 Q1006
                        BECMG 8000=
200804210530 METAR LMML NIL=
200804210515 METAR LMML 210515Z 33012KT 4000 BR SCT006 OVC250 16/16 Q1006
                        BECMG 5000=
200804210445 METAR LMML 210445Z 32008KT 4000 BKN004 16/16 Q1006 BECMG
                        7000 BKN006=
200804210430 METAR LMML NIL=
200804210415 METAR LMML 210415Z 33007KT 4000 OVC003 16/16 Q1005 NOSIG=
200804210400 METAR LMML NIL=
200804210345 METAR LMML 210345Z 33005KT 4000 BKN003 16/16 Q1005 NOSIG=
200804210330 METAR LMML NIL=
200804210315 METAR LMML 210315Z 23005KT 4000 BKN003 16/16 Q1005 NOSIG=
200804210300 METAR LMML NIL=
200804210245 METAR LMML 210245Z 35011KT 320V040 6000 SCT001 16/16 Q1005
                        BECMG 9999=
200804210232 LMML 210232Z 28007G17KT 130V360 6000 SCT001 16/16 Q1004 NOSIG=
200804210230 METAR LMML NIL=
200804210215 METAR LMML 210215Z 30012KT 270V330 0600 R14/0748VP1500U FG
                        BKN001 16/16 Q10 05 BECMG 1500 BR
                        BKN004=
200804210200 METAR LMML NIL=
200804210145 METAR LMML 210145Z 12007KT 090V160 0400 R14/0710V1194N FG
                        BKN001 16/16 Q100 4 NOSIG=
200804210115 METAR LMML 210115Z 11006KT 0400 R14/1179VP1500D FG OVC001
                        16/16 Q1004 NOSIG=
200804210100 METAR LMML NIL=
200804210045 METAR LMML 210045Z 11006KT 5000 BKN001 16/16 Q1005 BECMG
                        1500=
200804210030 METAR LMML NIL=
200804210015 METAR LMML 210015Z 10005KT 070V140 5000 BKN001 17/17 Q1005
                        BECMG 1500=
200804210000 METAR LMML NIL=
200804202345 METAR LMML 202345Z 10005KT 060V120 5000 BKN001 17/17 Q1005
                        NOSIG=
200804202330 METAR LMML NIL=
200804202315 METAR LMML 202315Z 11008KT 5000 BKN002 17/17 Q1005 BECMG
                        7000 SCT003=
200804202300 METAR LMML NIL=
200804202245 METAR LMML 202245Z 12008KT 5000 BKN002 16/16 Q1005 BECMG
                        7000 SCT003=
200804202230 METAR LMML NIL=
200804202215 METAR LMML 202215Z 11007KT 080V140 5000 BKN002 16/16 Q1005
                        NOSIG=
200804202200 METAR LMML NIL=
200804202145 METAR LMML 202145Z 10006KT 5000 BKN002 16/16 Q1006 NOSIG=
200804202130 METAR LMML NIL=
200804202115 METAR LMML 202115Z 10005KT 5000 BKN002 16/16 Q1006 NOSIG=
200804202100 METAR LMML NIL=
200804202045 METAR LMML 202045Z 09006KT 070V130 5000 BKN002 16/16 Q1006
                        NOSIG=
200804202030 METAR LMML NIL=
200804202015 METAR LMML 202015Z 08005KT 020V110 5000 BKN002 16/16 Q1006
                        NOSIG=
200804202000 METAR LMML NIL=
200804201945 METAR LMML 201945Z 08004KT 050V110 CAVOK 16/16 Q1006 BECMG
                        9000 FEW004=
200804201930 METAR LMML NIL=
200804201915 METAR LMML 201915Z 08004KT CAVOK 17/16 Q1007 BECMG 9000 FEW004=
200804201900 METAR LMML NIL=
200804201845 METAR LMML 201845Z 10004KT CAVOK 17/17 Q1007 BECMG 9000 FEW004=
200804201830 METAR LMML NIL=
200804201815 METAR LMML 201815Z 10004KT 070V130 CAVOK 17/17 Q1006 BECMG
                        9000 NSC=
200804201745 METAR LMML 201745Z 11006KT CAVOK 17/16 Q1006 BECMG 9000 NSC=
200804201730 METAR LMML NIL=
200804201715 METAR LMML 201715Z 12008KT CAVOK 18/16 Q1006 BECMG 9000 NSC=
200804201700 METAR LMML NIL=
200804201645 METAR LMML 201645Z 12011KT CAVOK 18/16 Q1006 NOSIG=
200804201630 METAR LMML NIL=
200804201615 METAR LMML 201615Z 12012KT CAVOK 19/15 Q1006 NOSIG=
200804201600 METAR LMML NIL=
200804201545 METAR LMML 201545Z 11011KT CAVOK 20/14 Q1006 NOSIG=
200804201530 METAR LMML NIL=
200804201515 METAR LMML 201515Z 09010KT 070V130 CAVOK 21/14 Q1006 NOSIG=
200804201500 METAR LMML NIL=
200804201445 METAR LMML 201445Z 10010KT CAVOK 21/13 Q1007 NOSIG=
200804201430 METAR LMML NIL=
200804201415 METAR LMML 201415Z 07010KT 050V110 CAVOK 22/13 Q1007 NOSIG=
200804201400 METAR LMML NIL=
200804201345 METAR LMML 201345Z 09011KT CAVOK 22/13 Q1007 NOSIG=
200804201330 METAR LMML NIL=
200804201315 METAR LMML 201315Z 06010KT CAVOK 23/13 Q1007 NOSIG=
200804201300 METAR LMML NIL=
200804201245 METAR LMML 201245Z 06009KT 020V090 CAVOK 23/12 Q1008 NOSIG=
200804201230 METAR LMML NIL=
200804201215 METAR LMML 201215Z 06010KT 010V090 CAVOK 24/12 Q1008 NOSIG=
200804201200 METAR LMML NIL=
200804201145 METAR LMML 201145Z 03007KT 350V070 CAVOK 24/12 Q1008 NOSIG=
200804201130 METAR LMML NIL=
200804201115 METAR LMML 201115Z 02006KT 350V050 CAVOK 24/12 Q1008 NOSIG=
200804201100 METAR LMML NIL=
200804201045 METAR LMML 201045Z 03005KT 360V080 CAVOK 24/12 Q1008 NOSIG=
200804201030 METAR LMML NIL=
200804201015 METAR LMML 201015Z 03005KT 350V070 CAVOK 24/12 Q1009 NOSIG=
200804201000 METAR LMML NIL=
200804200945 METAR LMML 200945Z 04005KT 350V080 CAVOK 23/13 Q1009 NOSIG=
200804200930 METAR LMML NIL=
200804200915 METAR LMML 200915Z 03004KT 320V080 CAVOK 23/13 Q1009 NOSIG=
200804200900 METAR LMML NIL=
200804200845 METAR LMML 200845Z 02005KT 320V050 CAVOK 22/13 Q1009 NOSIG=
200804200830 METAR LMML NIL=
200804200815 METAR LMML 200815Z 03004KT 330V080 CAVOK 22/14 Q1009 NOSIG=
200804200800 METAR LMML NIL=
200804200745 METAR LMML 200745Z 35005KT 320V020 9000 SKC 20/15 Q1008 NOSIG=
200804200730 METAR LMML NIL=
200804200715 METAR LMML 200715Z 36005KT 9000 SKC 19/16 Q1008 NOSIG=
200804200700 METAR LMML NIL=
200804200645 METAR LMML 200645Z VRB03KT 7000 SKC 18/16 Q1008 BECMG 9000=
200804200630 METAR LMML NIL=
200804200615 METAR LMML 200615Z 36004KT 7000 SKC 17/17 Q1008 NOSIG=
200804200600 METAR LMML NIL=
200804200545 METAR LMML 200545Z VRB02KT 7000 SKC 17/17 Q1008 NOSIG=
200804200530 METAR LMML NIL=
200804200515 METAR LMML 200515Z VRB01KT 7000 SKC 15/15 Q1007 NOSIG=
200804200500 METAR LMML NIL=
200804200445 METAR LMML 200445Z VRB02KT 7000 SKC 15/15 Q1007 NOSIG=
200804200430 METAR LMML NIL=
200804200415 METAR LMML 200415Z VRB03KT 7000 SKC 16/16 Q1007 TEMPO 5000=
200804200400 METAR LMML NIL=
200804200345 METAR LMML 200345Z VRB03KT 7000 SKC 16/16 Q1007 TEMPO 5000=
200804200330 METAR LMML NIL=
200804200315 METAR LMML 200315Z 35004KT 7000 SKC 15/15 Q1006 TEMPO 5000=
200804200300 METAR LMML NIL=
200804200245 METAR LMML 200245Z 36004KT 7000 SKC 16/15 Q1006 TEMPO 5000=
200804200230 METAR LMML NIL=
200804200215 METAR LMML 200215Z 36005KT 7000 SKC 16/16 Q1006 TEMPO 5000
                        DU=
200804200200 METAR LMML NIL=
200804200145 METAR LMML 200145Z 36005KT 320V120 6000 SKC 16/16 Q1006 NOSIG=
200804200115 METAR LMML 200115Z 34006KT 7000 SKC 16/16 Q1006 NOSIG=
200804200100 METAR LMML NIL=
200804200045 METAR LMML 200045Z 32004KT 290V010 7000 SKC 15/15 Q1006 NOSIG=
200804200015 METAR LMML 200015Z 31005KT 7000 SKC 15/15 Q1006 NOSIG=
200804200000 METAR LMML NIL=
200804192345 METAR LMML 192345Z 31004KT 7000 SKC 15/15 Q1006 NOSIG=
200804192315 METAR LMML 192315Z VRB03KT 7000 SKC 15/15 Q1006 NOSIG=
200804192245 METAR LMML 192245Z 31004KT 7000 SKC 15/15 Q1006 NOSIG=
200804192215 METAR LMML 192215Z VRB02KT 7000 SKC 16/15 Q1006 NOSIG=
200804192200 METAR LMML NIL=
200804192145 METAR LMML 192145Z 36004KT 7000 SKC 16/16 Q1006 NOSIG=
200804192130 METAR LMML NIL=
200804192115 METAR LMML 192115Z VRB03KT 7000 SKC 17/16 Q1006 NOSIG=
200804192045 METAR LMML 192045Z VRB03KT 8000 SKC 17/16 Q1006 NOSIG=
200804192015 METAR LMML 192015Z 24004KT 210V270 8000 SKC 18/14 Q1006 NOSIG=
200804192000 METAR LMML NIL=
200804191945 METAR LMML 191945Z VRB01KT 8000 SKC 18/14 Q1005 NOSIG=
200804191930 METAR LMML NIL=
200804191915 METAR LMML 191915Z 22004KT 190V250 8000 SKC 18/15 Q1005 NOSIG=
200804191900 METAR LMML NIL=
200804191845 METAR LMML 191845Z VRB02KT 8000 SKC 18/15 Q1005 NOSIG=
200804191830 METAR LMML NIL=
200804191815 METAR LMML 191815Z 15004KT 8000 SKC 18/15 Q1004 NOSIG=
200804191800 METAR LMML NIL=
200804191745 METAR LMML 191745Z 14006KT 8000 SKC 18/15 Q1004 NOSIG=
200804191730 METAR LMML NIL=
200804191715 METAR LMML 191715Z 13006KT 8000 SKC 19/15 Q1004 NOSIG=
200804191700 METAR LMML NIL=
200804191645 METAR LMML 191645Z 14005KT 100V180 8000 SKC 20/14 Q1005 NOSIG=
200804191630 METAR LMML NIL=
200804191615 METAR LMML 191615Z 14008KT 8000 SKC 21/14 Q1004 NOSIG=
200804191600 METAR LMML NIL=
200804191545 METAR LMML 191545Z 15009KT 120V180 CAVOK 22/13 Q1005 NOSIG=
200804191530 METAR LMML NIL=
200804191515 METAR LMML 191515Z 15008KT 110V200 CAVOK 22/13 Q1005 NOSIG=
200804191500 METAR LMML NIL=
200804191445 METAR LMML 191445Z 15010KT 110V210 CAVOK 22/13 Q1005 NOSIG=
200804191430 METAR LMML NIL=
200804191415 METAR LMML 191415Z 13009KT 100V170 CAVOK 22/13 Q1006 NOSIG=
200804191400 METAR LMML NIL=
200804191345 METAR LMML 191345Z 12010KT 090V170 CAVOK 23/14 Q1006 NOSIG=
200804191330 METAR LMML NIL=
200804191315 METAR LMML 191315Z 15013KT 100V200 CAVOK 23/13 Q1007 NOSIG=
200804191245 METAR LMML 191245Z 13013KT 100V170 CAVOK 23/13 Q1006 NOSIG=
200804191230 METAR LMML NIL=
200804191215 METAR LMML 191215Z 12014KT CAVOK 23/13 Q1007 NOSIG=
200804191200 METAR LMML NIL=
200804191145 METAR LMML 191145Z 12013KT CAVOK 23/13 Q1008 NOSIG=
200804191130 METAR LMML NIL=
200804191115 METAR LMML 191115Z 13012KT 090V160 CAVOK 23/14 Q1008 NOSIG=
200804191100 METAR LMML NIL=
200804191045 METAR LMML 191045Z 13013KT 090V170 CAVOK 23/13 Q1008 NOSIG=
200804191030 METAR LMML NIL=
200804191015 METAR LMML 191015Z 14015KT CAVOK 23/12 Q1009 NOSIG=
200804190945 METAR LMML 190945Z 15012KT 120V190 CAVOK 23/11 Q1009 NOSIG=
200804190930 METAR LMML NIL=
200804190915 METAR LMML 190915Z 16007KT 120V210 CAVOK 23/11 Q1010 NOSIG=
200804190900 METAR LMML NIL=
200804190845 METAR LMML 190845Z 16006KT 110V220 8000 SKC 23/11 Q1010 BECMG
                        CAVOK=
200804190830 METAR LMML NIL=
200804190815 METAR LMML 190815Z 15007KT 110V200 8000 SKC 23/11 Q1010 BECMG
                        CAVOK=
200804190800 METAR LMML NIL=
200804190745 METAR LMML 190745Z VRB03KT 8000 SKC 22/11 Q1010 BECMG CAVOK=
200804190730 METAR LMML NIL=
200804190715 METAR LMML 190715Z 19006KT 150V280 8000 SKC 21/12 Q1010 NOSIG=
200804190700 METAR LMML NIL=
200804190645 METAR LMML 190645Z 19007KT 150V300 8000 SKC 21/13 Q1010 NOSIG=
200804190630 METAR LMML NIL=
200804190615 METAR LMML 190615Z 31004KT 200V350 8000 SKC 20/14 Q1010 NOSIG=
200804190600 METAR LMML NIL=
200804190545 METAR LMML 190545Z 18016KT 150V210 8000 SKC 19/13 Q1008 NOSIG=
200804190530 METAR LMML NIL=
200804190515 METAR LMML 190515Z 18014KT 8000 SKC 19/13 Q1008 NOSIG=
200804190500 METAR LMML NIL=
200804190445 METAR LMML 190445Z 17013KT 8000 SKC 18/13 Q1008 NOSIG=
200804190430 METAR LMML NIL=
200804190415 METAR LMML 190415Z 17014KT 150V210 8000 SKC 18/14 Q1007 NOSIG=
200804190400 METAR LMML NIL=
200804190345 METAR LMML 190345Z 17013KT 140V200 CAVOK 18/14 Q1008 NOSIG=
200804190330 METAR LMML NIL=
200804190315 METAR LMML 190315Z 17012KT CAVOK 18/14 Q1008 NOSIG=
200804190300 METAR LMML NIL=
200804190245 METAR LMML 190245Z 17013KT 130V200 8000 SKC 18/14 Q1007 NOSIG=
200804190215 METAR LMML 190215Z 16014KT 120V180 8000 SKC 18/14 Q1007 NOSIG=
200804190200 METAR LMML NIL=
200804190145 METAR LMML 190145Z 15014KT 120V180 7000 SKC 18/14 Q1007 NOSIG=
200804190130 METAR LMML NIL=
200804190115 METAR LMML 190115Z 15014KT 7000 SKC 19/13 Q1008 TEMPO 5000
                        BR=
200804190100 METAR LMML NIL=
200804190045 METAR LMML 190045Z 15013KT 120V180 7000 SKC 18/13 Q1008 TEMPO
                        5000 BR=
200804190030 METAR LMML NIL=
200804190015 METAR LMML 190015Z 16013KT 7000 SKC 18/14 Q1009 TEMPO 5000
                        BR=
200804190000 METAR LMML NIL=
200804182345 METAR LMML 182345Z 14012KT 7000 SKC 18/13 Q1009 TEMPO 5000
                        BR=
200804182330 METAR LMML NIL=
200804182315 METAR LMML 182315Z 15011KT 110V170 6000 SKC 18/15 Q1009 TEMPO
                        5000 BR=
200804182300 METAR LMML NIL=
200804182245 METAR LMML 182245Z 14011KT 5000 BR SKC 17/17 Q1009 TEMPO
                        3000 BR=
200804182215 METAR LMML 182215Z 14009KT 120V180 5000 BR SKC 17/17 Q1010
                        TEMPO 3000 BR=
200804182200 METAR LMML NIL=
200804182145 METAR LMML 182145Z 14008KT 120V180 5000 BR SKC 17/17 Q1010
                        TEMPO 3000 BR=
200804182130 METAR LMML NIL=
200804182115 METAR LMML 182115Z 14007KT 110V170 5000 BR SKC 17/17 Q1010
                        TEMPO 3000 BR=
200804182100 METAR LMML NIL=
200804182045 METAR LMML 182045Z 13006KT 5000 BR FEW006 17/16 Q1010 TEMPO
                        3000 BR=
200804182030 METAR LMML NIL=
200804182015 METAR LMML 182015Z 14006KT 5000 BR SKC 17/17 Q1010 TEMPO
                        3000 BR=
200804182000 METAR LMML NIL=
200804181945 METAR LMML 181945Z 14006KT 5000 BR SKC 17/17 Q1010 TEMPO
                        3000 BR=
200804181900 METAR LMML NIL=
200804181845 METAR LMML 181845Z 15006KT 5000 HZ SKC 17/17 Q1010 NOSIG=
200804181830 METAR LMML NIL=
200804181815 METAR LMML 181815Z 15006KT 120V180 5000 HZ SKC 17/17 Q1010
                        NOSIG=
200804181800 METAR LMML NIL=
200804181745 METAR LMML 181745Z 15007KT 5000 HZ FEW006 17/17 Q1009 NOSIG=
200804181730 METAR LMML NIL=
200804181715 METAR LMML 181715Z 16007KT 120V190 5000 HZ FEW006 18/17 Q1009
                        NOSIG=
200804181700 METAR LMML NIL=
200804181645 METAR LMML 181645Z 17009KT 6000 FEW006 18/17 Q1010 NOSIG
                        RMK DUST=
200804181630 METAR LMML NIL=
200804181615 METAR LMML 181615Z 16009KT 130V210 6000 SCT006 18/16 Q1010
                        NOSIG RMK DUST H AZE=
200804181600 METAR LMML NIL=
200804181545 METAR LMML 181545Z 15008KT 120V190 7000 FEW006 19/16 Q1010
                        NOSIG RMK DUST H AZE=
200804181530 METAR LMML NIL=
200804181515 METAR LMML 181515Z 15009KT 120V190 7000 FEW007 19/16 Q1010
                        NOSIG RMK DUST H AZE=
200804181500 METAR LMML NIL=
200804181445 METAR LMML 181445Z 17008KT 140V220 9000 FEW250 19/15 Q1010
                        NOSIG=
200804181430 METAR LMML NIL=
200804181415 METAR LMML 181415Z 17006KT 120V210 9000 FEW250 20/14 Q1010
                        NOSIG=
200804181400 METAR LMML NIL=
200804181345 METAR LMML 181345Z 18005KT 150V240 9000 FEW025 20/14 Q1010
                        NOSIG=
200804181330 METAR LMML NIL=
200804181315 METAR LMML 181315Z 19005KT 130V240 9000 FEW250 20/13 Q1011
                        NOSIG=
200804181245 METAR LMML 181245Z 20007KT 160V240 9000 FEW250 21/13 Q1011
                        NOSIG=
200804181230 METAR LMML NIL=
200804181215 METAR LMML 181215Z 20005KT 130V260 9000 SCT025 21/14 Q1011
                        NOSIG=
200804181200 METAR LMML NIL=
200804181145 METAR LMML 181145Z 18004KT 130V260 9000 SCT250 20/14 Q1011
                        NOSIG=
200804181130 METAR LMML NIL=
200804181115 METAR LMML 181115Z 18004KT 120V270 7000 FEW008 BKN250 19/15
                        Q1011 NOSIG RMK DUST HAZE=
200804181045 METAR LMML 181045Z 19006KT 160V220 7000 FEW008 BKN250 18/15
                        Q1012 NOSIG RMK DUST HAZE=
200804181015 METAR LMML 181015Z 20006KT 150V260 7000 SCT008 BKN250 18/15
                        Q1012 BECMG SCT 012 RMK DUST HAZE=
200804181000 METAR LMML NIL=
200804180945 METAR LMML 180945Z 18006KT 130V230 7000 FEW008 BKN250 18/15
                        Q1012 BECMG SCT 012=
200804180930 METAR LMML NIL=
200804180915 METAR LMML 180915Z 15007KT 110V220 7000 FEW009 BKN250 18/15
                        Q1011 BECMG SCT 012=
200804180845 METAR LMML 180845Z 15006KT 120V180 7000 FEW008 BKN250 18/15
                        Q1011 BECMG SCT 012=
200804180830 METAR LMML NIL=
200804180815 METAR LMML 180815Z 14006KT 090V190 7000 FEW009 BKN250 18/15
                        Q1011 BECMG SCT 012=
200804180800 METAR LMML NIL=
200804180745 METAR LMML 180745Z 10005KT 060V150 7000 FEW009 BKN250 18/16
                        Q1011 BECMG SCT 008=
200804180730 METAR LMML NIL=
200804180715 METAR LMML 180715Z 12005KT 090V160 7000 FEW007 BKN250 17/15
                        Q1011 BECMG SCT 008=
200804180645 METAR LMML 180645Z 10004KT 070V150 6000 SCT007 BKN250 16/16
                        Q1011 BECMG BKN 007=
200804180630 METAR LMML NIL=
200804180615 METAR LMML 180615Z 07004KT 020V110 5000 BR SCT005 BKN250
                        16/16 Q1011 BECMG BKN007=
200804180600 METAR LMML NIL=
200804180545 METAR LMML 180545Z VRB03KT 5000 BR SCT005 BKN250 16/16 Q1010
                        NOSIG=
200804180530 METAR LMML NIL=
200804180515 METAR LMML 180515Z VRB02KT 5000 BR FEW005 BKN250 15/15 Q1010
                        NOSIG=
200804180500 METAR LMML NIL=
200804180445 METAR LMML 180445Z VRB03KT 5000 BR FEW005 BKN250 15/15 Q1009
                        NOSIG=
200804180430 METAR LMML NIL=
200804180415 METAR LMML 180415Z 03004KT 360V070 5000 SCT006 SCT250 15/15
                        Q1009 NOSIG=
200804180400 METAR LMML NIL=
200804180345 METAR LMML 180345Z 02006KT 350V060 5000 BKN005 15/15 Q1009
                        NOSIG=
200804180330 METAR LMML NIL=
200804180315 METAR LMML 180315Z 01006KT 340V050 5000 BKN004 15/15 Q1009
                        NOSIG=
200804180300 METAR LMML NIL=
200804180245 METAR LMML 180245Z 01007KT 5000 BKN004 15/15 Q1009 NOSIG=
200804180230 METAR LMML NIL=
200804180215 METAR LMML 180215Z 02006KT 350V060 5000 BKN004 15/15 Q1008
                        TEMPO BKN004=
200804180200 METAR LMML NIL=
200804180145 METAR LMML 180145Z 02007KT 5000 BKN004 16/15 Q1009 NOSIG=
200804180115 METAR LMML 180115Z 02008KT 350V060 5000 BKN005 16/16 Q1009
                        TEMPO BKN004=
200804180045 METAR LMML 180045Z 03007KT 360V070 9000 BKN005 16/16 Q1009
                        TEMPO BKN004=
200804180030 METAR LMML NIL=
200804180015 METAR LMML 180015Z 03005KT 360V070 9000 BKN005 16/16 Q1009
                        TEMPO BKN004=
200804180000 METAR LMML NIL=
200804172345 METAR LMML 172345Z 01005KT 340V040 9000 BKN005 16/16 Q1009
                        TEMPO BKN004=
200804172330 METAR LMML NIL=
200804172315 METAR LMML 172315Z 02006KT 350V050 9999 BKN005 16/16 Q1009
                        TEMPO BKN004=
200804172300 METAR LMML NIL=
200804172245 METAR LMML 172245Z 03006KT 010V070 9999 SCT005 16/15 Q1009
                        TEMPO BKN005=
200804172230 METAR LMML NIL=
200804172215 METAR LMML 172215Z 02006KT 350V050 9999 SCT007 16/15 Q1009
                        NOSIG=
200804172200 METAR LMML NIL=
200804172145 METAR LMML 172145Z 02006KT 350V060 9999 FEW007 16/15 Q1009
                        NOSIG=
200804172130 METAR LMML NIL=
200804172115 METAR LMML 172115Z 03008KT 360V060 9999 FEW008 16/15 Q1008
                        NOSIG=
200804172100 METAR LMML NIL=
200804172045 METAR LMML 172045Z 03006KT 360V060 9999 SCT008 16/15 Q1009
                        NOSIG=
200804172030 METAR LMML NIL=
200804172015 METAR LMML 172015Z 05009KT 010V100 9999 SCT009 16/15 Q1008
                        NOSIG=
200804172000 METAR LMML NIL=
200804171945 METAR LMML 171945Z 06010KT 030V090 9999 FEW009 SCT250 16/15
                        Q1008 NOSIG=
200804171930 METAR LMML NIL=
200804171915 METAR LMML 171915Z 05010KT 020V090 9999 FEW012 SCT250 16/15
                        Q1008 NOSIG=
200804171900 METAR LMML NIL=
200804171845 METAR LMML 171845Z 06009KT 020V100 9999 SCT016 BKN250 16/14
                        Q1007 NOSIG=
200804171830 METAR LMML NIL=
200804171815 METAR LMML 171815Z 06011KT 030V110 9999 SCT014 BKN250 16/14
                        Q1007 NOSIG=
200804171800 METAR LMML NIL=
200804171745 METAR LMML 171745Z 07011KT 040V100 9999 FEW012 BKN250 16/14
                        Q1007 NOSIG=
200804171730 METAR LMML NIL=
200804171715 METAR LMML 171715Z 07011KT 030V090 9999 FEW015 BKN250 17/14
                        Q1007 NOSIG=
200804171700 METAR LMML NIL=
200804171645 METAR LMML 171645Z 08015KT 050V110 9999 FEW017 BKN250 17/14
                        Q1007 NOSIG=
200804171630 METAR LMML NIL=
200804171615 METAR LMML 171615Z 08014KT 040V100 9999 FEW017 BKN250 17/14
                        Q1007 NOSIG=
200804171600 METAR LMML NIL=
200804171545 METAR LMML 171545Z 08014KT 050V110 9999 FEW017 BKN250 18/14
                        Q1007 NOSIG=
200804171530 METAR LMML NIL=
200804171515 METAR LMML 171515Z 09013KT 060V120 9999 FEW017 18/14 Q1007
                        NOSIG=
200804171500 METAR LMML NIL=
200804171445 METAR LMML 171445Z 09014KT 060V120 9999 FEW017 18/14 Q1007
                        NOSIG=
200804171430 METAR LMML NIL=
200804171415 METAR LMML 171415Z 09014KT 050V130 9999 FEW017 19/14 Q1008
                        NOSIG=
200804171400 METAR LMML NIL=
200804171345 METAR LMML 171345Z 08015KT 050V120 9999 FEW017 19/14 Q1008
                        NOSIG=
200804171330 METAR LMML NIL=
200804171315 METAR LMML 171315Z 09015KT 060V120 9999 FEW016 SCT250 19/14
                        Q1009 NOSIG=
200804171300 METAR LMML NIL=
200804171245 METAR LMML 171245Z 10013KT 060V120 9999 FEW016 BKN250 20/14
                        Q1009 NOSIG=
200804171230 METAR LMML NIL=
200804171215 METAR LMML 171215Z 09012KT 060V130 9999 FEW016 SCT110 18/14
                        Q1010 NOSIG=
200804171200 METAR LMML NIL=
200804171145 METAR LMML 171145Z 10018KT 060V130 9999 FEW017 BKN250 19/14
                        Q1009 NOSIG=
200804171130 METAR LMML NIL=
200804171115 METAR LMML 171115Z 09017KT 9999 FEW017 BKN250 18/15 Q1010
                        NOSIG=
200804171100 METAR LMML NIL=
200804171045 METAR LMML 171045Z 09013KT 9000 -RA FEW017 SCT110 BKN150
                        17/15 Q1011 TEMPO 8000 RA BKN011=
200804171030 METAR LMML NIL=
200804171015 METAR LMML 171015Z 07010KT 010V100 9999 FEW020 SCT110 OVC150
                        17/14 Q1011 NO SIG=
200804171000 METAR LMML NIL=
200804170945 METAR LMML 170945Z 10010KT CAVOK 17/14 Q1013 NOSIG=
200804170930 METAR LMML NIL=
200804170915 METAR LMML 170915Z 11012KT 080V150 CAVOK 17/14 Q1012 NOSIG=
200804170900 METAR LMML NIL=
200804170845 METAR LMML 170845Z 13012KT 100V160 CAVOK 17/14 Q1012 NOSIG=
200804170830 METAR LMML NIL=
200804170815 METAR LMML 170815Z 14013KT 110V170 CAVOK 17/14 Q1013 NOSIG=
200804170800 METAR LMML NIL=
200804170745 METAR LMML 170745Z 15016KT 110V180 CAVOK 17/14 Q1013 NOSIG=
200804170715 METAR LMML 170715Z 15016KT CAVOK 17/14 Q1013 NOSIG=
200804170645 METAR LMML 170645Z 15013KT 100V180 CAVOK 17/14 Q1013 NOSIG=
200804170630 METAR LMML NIL=
200804170615 METAR LMML 170615Z 16011KT 130V210 CAVOK 17/14 Q1014 NOSIG=
200804170600 METAR LMML NIL=
200804170545 METAR LMML 170545Z 16014KT CAVOK 17/14 Q1013 NOSIG=
200804170515 METAR LMML 170515Z 16012KT 130V190 CAVOK 16/14 Q1013 NOSIG=
200804170500 METAR LMML NIL=
200804170445 METAR LMML 170445Z 15009KT 120V190 CAVOK 16/14 Q1014 NOSIG=
200804170430 METAR LMML NIL=
200804170415 METAR LMML 170415Z 15010KT 130V200 CAVOK 16/14 Q1014 NOSIG=
200804170400 METAR LMML NIL=
200804170345 METAR LMML 170345Z 15013KT CAVOK 16/14 Q1013 NOSIG=
200804170330 METAR LMML NIL=
200804170315 METAR LMML 170315Z 16011KT 120V200 CAVOK 16/13 Q1014 NOSIG=
200804170245 METAR LMML 170245Z 16011KT 140V200 CAVOK 16/13 Q1015 NOSIG=
200804170230 METAR LMML NIL=
200804170215 METAR LMML 170215Z 16013KT CAVOK 17/13 Q1014 NOSIG=
200804170200 METAR LMML NIL=
200804170145 METAR LMML 170145Z 15011KT CAVOK 17/13 Q1014 NOSIG=
200804170130 METAR LMML NIL=
200804170115 METAR LMML 170115Z 16009KT CAVOK 17/14 Q1016 NOSIG=
200804170100 METAR LMML NIL=
200804170045 METAR LMML 170045Z 16011KT CAVOK 16/14 Q1016 NOSIG=
200804170030 METAR LMML NIL=
200804170015 METAR LMML 170015Z 17010KT 130V220 CAVOK 16/14 Q1017 NOSIG=
200804170000 METAR LMML NIL=
200804162345 METAR LMML 162345Z 17009KT 140V200 CAVOK 16/14 Q1018 NOSIG=
200804162330 METAR LMML NIL=
200804162315 METAR LMML 162315Z 16009KT 120V200 CAVOK 16/14 Q1018 NOSIG=
200804162300 METAR LMML NIL=
200804162245 METAR LMML 162245Z 16008KT 110V200 CAVOK 16/14 Q1018 NOSIG=
200804162230 METAR LMML NIL=
200804162215 METAR LMML 162215Z 16008KT CAVOK 16/15 Q1018 NOSIG=
200804162200 METAR LMML NIL=
200804162145 METAR LMML 162145Z 14006KT 110V170 CAVOK 16/15 Q1018 NOSIG=
200804162130 METAR LMML NIL=
200804162115 METAR LMML 162115Z 15007KT 120V180 CAVOK 16/15 Q1019 NOSIG=
200804162100 METAR LMML NIL=
200804162045 METAR LMML 162045Z 16008KT 120V190 CAVOK 16/15 Q1019 NOSIG=
200804162030 METAR LMML NIL=
200804162015 METAR LMML 162015Z 16008KT 120V200 CAVOK 16/15 Q1019 NOSIG=
200804162000 METAR LMML NIL=
200804161945 METAR LMML 161945Z 16007KT 130V190 CAVOK 16/15 Q1019 NOSIG=
200804161930 METAR LMML NIL=
200804161915 METAR LMML 161915Z 16008KT 130V190 CAVOK 16/15 Q1019 NOSIG=
200804161900 METAR LMML NIL=
200804161845 METAR LMML 161845Z 16005KT 130V190 CAVOK 16/14 Q1019 NOSIG=
200804161830 METAR LMML NIL=
200804161815 METAR LMML 161815Z 15004KT 120V230 CAVOK 16/13 Q1020 NOSIG=
200804161800 METAR LMML NIL=
200804161745 METAR LMML 161745Z 16007KT 130V190 CAVOK 16/13 Q1019 NOSIG=
200804161730 METAR LMML NIL=
200804161715 METAR LMML 161715Z 16008KT 130V200 CAVOK 16/13 Q1019 NOSIG=
200804161700 METAR LMML NIL=
200804161645 METAR LMML 161645Z 16009KT 110V190 CAVOK 17/12 Q1019 NOSIG=
200804161630 METAR LMML NIL=
200804161615 METAR LMML 161615Z 16008KT 130V200 CAVOK 17/12 Q1019 NOSIG=
200804161600 METAR LMML NIL=
200804161545 METAR LMML 161545Z 16008KT 130V190 CAVOK 17/11 Q1019 NOSIG=
200804161530 METAR LMML NIL=
200804161515 METAR LMML 161515Z 16008KT 130V210 CAVOK 17/11 Q1020 NOSIG=
200804161500 METAR LMML NIL=
200804161445 METAR LMML 161445Z 17008KT 110V210 CAVOK 17/11 Q1020 NOSIG=
200804161430 METAR LMML NIL=
200804161415 METAR LMML 161415Z 19007KT 150V260 CAVOK 18/10 Q1020 NOSIG=
200804161400 METAR LMML NIL=
200804161345 METAR LMML 161345Z 18007KT 150V240 CAVOK 18/09 Q1020 NOSIG=
200804161330 METAR LMML NIL=
200804161315 METAR LMML 161315Z 21005KT 150V290 CAVOK 19/09 Q1021 NOSIG=
200804161300 METAR LMML NIL=
200804161245 METAR LMML 161245Z 19007KT 160V250 CAVOK 18/09 Q1021 NOSIG=
200804161230 METAR LMML NIL=
200804161215 METAR LMML 161215Z 21005KT 150V290 CAVOK 18/09 Q1022 NOSIG=
200804161200 LMML 171145Z 21005KT 150V290 CAVOK 18/09 Q1022 NOSIG=
200804161145 METAR LMML 161145Z 21005KT 150V290 CAVOK 18/09 Q1022 NOSIG=
200804161130 LMML 171115Z 21006KT 160V260 CAVOK 18/10 Q1022 NOSIG=
200804161115 METAR LMML 161115Z 21006KT 160V260 CAVOK 18/10 Q1022 NOSIG=
200804161100 METAR LMML NIL=
200804161045 METAR LMML 161045Z 21008KT 170V260 CAVOK 18/10 Q1022 NOSIG=
200804161030 METAR LMML NIL=
200804161015 METAR LMML 161015Z 21006KT 160V270 CAVOK 19/09 Q1022 NOSIG=
200804161000 METAR LMML NIL=
200804160945 METAR LMML 160945Z 27005KT 210V330 CAVOK 19/05 Q1022 NOSIG=
200804160930 METAR LMML NIL=
200804160915 METAR LMML 160915Z 26004KT 160V360 CAVOK 18/07 Q1023 NOSIG=
200804160900 METAR LMML NIL=
200804160845 METAR LMML 160845Z 28006KT 220V330 CAVOK 18/08 Q1023 NOSIG=
200804160830 METAR LMML NIL=
200804160815 METAR LMML 160815Z 29009KT CAVOK 17/08 Q1023 NOSIG=
200804160800 METAR LMML NIL=
200804160745 METAR LMML 160745Z 29008KT 260V320 CAVOK 17/09 Q1022 NOSIG=
200804160730 METAR LMML NIL=
200804160715 METAR LMML 160715Z 28009KT CAVOK 16/09 Q1022 NOSIG=
200804160700 METAR LMML NIL=
200804160645 METAR LMML 160645Z 28009KT 240V320 CAVOK 16/10 Q1022 NOSIG=
200804160630 METAR LMML NIL=
200804160615 METAR LMML 160615Z VRB03KT CAVOK 15/10 Q1022 NOSIG=
200804160600 METAR LMML NIL=
200804160545 METAR LMML 160545Z VRB03KT 9999 FEW020 14/10 Q1022 NOSIG=
200804160530 METAR LMML NIL=
200804160515 METAR LMML 160515Z VRB03KT 9999 FEW020 12/09 Q1021 NOSIG=
200804160500 METAR LMML NIL=
200804160445 METAR LMML 160445Z 26005KT 9999 FEW020 12/09 Q1021 NOSIG=
200804160430 METAR LMML NIL=
200804160415 METAR LMML 160415Z 27004KT 230V290 9999 FEW020 12/08 Q1021
                        NOSIG=
200804160400 METAR LMML NIL=
200804160345 METAR LMML 160345Z 28008KT 9999 FEW020 13/08 Q1021 NOSIG=
200804160330 METAR LMML NIL=
200804160315 METAR LMML 160315Z 27005KT 9999 FEW020 13/08 Q1021 NOSIG=
200804160300 METAR LMML NIL=
200804160245 METAR LMML 160245Z 29008KT CAVOK 13/08 Q1021 NOSIG=
200804160230 METAR LMML NIL=
200804160215 METAR LMML 160215Z 29010KT CAVOK 13/08 Q1021 NOSIG=
200804160200 METAR LMML NIL=
200804160145 METAR LMML 160145Z 29011KT CAVOK 13/08 Q1022 NOSIG=
200804160130 METAR LMML NIL=
200804160115 METAR LMML 160115Z 27009KT CAVOK 13/08 Q1022 NOSIG=
200804160100 METAR LMML NIL=
200804160045 METAR LMML 160045Z 28011KT CAVOK 13/08 Q1022 NOSIG=
200804160030 METAR LMML NIL=
200804160015 METAR LMML 160015Z 28008KT 250V310 CAVOK 13/08 Q1022 NOSIG=
200804152345 METAR LMML 152345Z 27010KT 240V300 9999 FEW025 14/08 Q1022
                        NOSIG=
200804152330 METAR LMML NIL=
200804152315 METAR LMML 152315Z 29009KT 9999 FEW025 14/07 Q1023 NOSIG=
200804152300 METAR LMML NIL=
200804152245 METAR LMML 152245Z 28013KT CAVOK 14/07 Q1022 NOSIG=
200804152230 METAR LMML NIL=
200804152215 METAR LMML 152215Z 28012KT CAVOK 14/07 Q1022 NOSIG=
200804152200 METAR LMML NIL=
200804152145 METAR LMML 152145Z 26009KT CAVOK 14/08 Q1022 NOSIG=
200804152130 METAR LMML NIL=
200804152115 METAR LMML 152115Z 27007KT 220V300 CAVOK 13/08 Q1022 NOSIG=
200804152100 METAR LMML NIL=
200804152045 METAR LMML 152045Z 29011KT CAVOK 14/07 Q1022 NOSIG=
200804152030 METAR LMML NIL=
200804152015 METAR LMML 152015Z 29011KT CAVOK 14/07 Q1021 NOSIG=
200804152000 METAR LMML NIL=
200804151945 METAR LMML 151945Z 28008KT CAVOK 14/07 Q1021 NOSIG=
200804151915 METAR LMML 151915Z 29010KT 250V310 CAVOK 14/07 Q1021 NOSIG=
200804151900 METAR LMML NIL=
200804151845 METAR LMML 151845Z 29009KT CAVOK 14/07 Q1021 NOSIG=
200804151830 METAR LMML NIL=
200804151815 METAR LMML 151815Z 29010KT CAVOK 15/07 Q1021 NOSIG=
200804151800 METAR LMML NIL=
200804151745 METAR LMML 151745Z 29014KT CAVOK 15/08 Q1021 NOSIG=
200804151715 METAR LMML 151715Z 29014KT 270V330 9999 FEW030 15/08 Q1021
                        NOSIG=
200804151700 METAR LMML NIL=
200804151645 METAR LMML 151645Z 29016KT 260V320 9999 FEW030 16/08 Q1021
                        NOSIG=
200804151630 METAR LMML NIL=
200804151615 METAR LMML 151615Z 29018KT 260V320 9999 FEW030 16/07 Q1020
                        NOSIG=
200804151600 METAR LMML NIL=
200804151545 METAR LMML 151545Z 28019KT 260V320 9999 FEW030 17/07 Q1020
                        NOSIG=
200804151530 METAR LMML NIL=
200804151515 METAR LMML 151515Z 28017KT 250V320 9999 FEW030 17/07 Q1020
                        NOSIG=
200804151500 METAR LMML NIL=
200804151445 METAR LMML 151445Z 29019KT 260V320 9999 FEW032 18/06 Q1020
                        NOSIG=
200804151430 METAR LMML NIL=
200804151415 METAR LMML 151415Z 29017KT 260V330 CAVOK 18/07 Q1021 NOSIG=
200804151400 METAR LMML NIL=
200804151345 METAR LMML 151345Z 30017KT 250V320 9999 FEW034 18/05 Q1020
                        NOSIG=
200804151330 METAR LMML NIL=
200804151315 METAR LMML 151315Z 29018KT 250V320 9999 FEW034 18/07 Q1021
                        NOSIG=
200804151300 METAR LMML NIL=
200804151245 METAR LMML 151245Z 29019KT 260V320 9999 FEW030 18/08 Q1021
                        NOSIG=
200804151230 METAR LMML NIL=
200804151215 METAR LMML 151215Z 29019KT 260V320 9999 FEW030 18/08 Q1021
                        NOSIG=
200804151200 METAR LMML NIL=
200804151145 METAR LMML 151145Z 29017KT 250V320 9999 FEW020 18/07 Q1021
                        NOSIG=
200804151130 METAR LMML NIL=
200804151115 METAR LMML 151115Z 29018KT 9999 FEW020 18/08 Q1021 NOSIG=
200804151100 METAR LMML NIL=
200804151045 METAR LMML 151045Z 30020KT 9999 FEW020 18/07 Q1021 NOSIG=
200804151015 METAR LMML 151015Z 30018KT 9999 FEW020 18/07 Q1021 NOSIG=
200804151000 METAR LMML NIL=
200804150945 METAR LMML 150945Z 29018KT 250V320 9999 FEW020 18/07 Q1021
                        NOSIG=
200804150930 METAR LMML NIL=
200804150915 METAR LMML 150915Z 30018G28KT 270V330 9999 FEW020 18/07 Q1021
                        NOSIG=
200804150900 METAR LMML NIL=
200804150845 METAR LMML 150845Z 30021KT 9999 FEW020 17/07 Q1020 NOSIG=
200804150830 METAR LMML NIL=
200804150815 METAR LMML 150815Z 29017KT 260V320 9999 SCT020 17/11 Q1020
                        NOSIG=
200804150800 METAR LMML NIL=
200804150745 METAR LMML 150745Z 28015KT 250V320 9999 SCT022 17/12 Q1019
                        NOSIG=
200804150730 METAR LMML NIL=
200804150715 METAR LMML 150715Z 28012KT 230V310 9999 SCT021 17/12 Q1019
                        NOSIG=
200804150700 METAR LMML NIL=
200804150645 METAR LMML 150645Z 28015KT 240V300 9999 FEW020 16/12 Q1019
                        NOSIG=
200804150630 METAR LMML NIL=
200804150615 METAR LMML 150615Z 28010KT 240V320 9999 FEW020 16/12 Q1019
                        NOSIG=
200804150600 METAR LMML NIL=
200804150545 METAR LMML 150545Z 28008KT 250V310 9999 FEW020 15/12 Q1019
                        NOSIG=
200804150530 METAR LMML NIL=
200804150515 METAR LMML 150515Z 28008KT 260V320 9999 FEW020 SCT250 14/11
                        Q1019 NOSIG=
200804150500 METAR LMML NIL=
200804150445 METAR LMML 150445Z 28006KT 9999 FEW020 SCT250 13/11 Q1019
                        NOSIG=
200804150430 METAR LMML NIL=
200804150415 METAR LMML 150415Z 27009KT 9999 FEW020 14/11 Q1018 NOSIG=
200804150400 METAR LMML NIL=
200804150345 METAR LMML 150345Z 27009KT CAVOK 14/11 Q1018 NOSIG=
200804150330 METAR LMML NIL=
200804150315 METAR LMML 150315Z 26009KT 230V290 CAVOK 13/09 Q1018 NOSIG=
200804150300 METAR LMML NIL=
200804150245 METAR LMML 150245Z 26006KT CAVOK 12/08 Q1018 NOSIG=
200804150230 METAR LMML NIL=
200804150215 METAR LMML 150215Z VRB03KT CAVOK 12/09 Q1018 NOSIG=
200804150200 METAR LMML NIL=
200804150145 METAR LMML 150145Z 27004KT CAVOK 13/09 Q1018 NOSIG=
200804150115 METAR LMML 150115Z 29006KT CAVOK 13/10 Q1018 NOSIG=
200804150045 METAR LMML 150045Z 29006KT CAVOK 13/09 Q1019 NOSIG=
200804150030 METAR LMML NIL=
200804150015 METAR LMML 150015Z 29006KT CAVOK 13/09 Q1019 NOSIG=
200804150000 METAR LMML NIL=
200804142345 METAR LMML 142345Z 29007KT CAVOK 13/09 Q1019 NOSIG=
200804142330 METAR LMML NIL=
200804142315 METAR LMML 142315Z 29007KT CAVOK 14/09 Q1019 NOSIG=
200804142300 METAR LMML NIL=
200804142245 METAR LMML 142245Z 30008KT CAVOK 14/09 Q1019 NOSIG=
200804142230 METAR LMML NIL=
200804142215 METAR LMML 142215Z 30007KT CAVOK 14/09 Q1019 NOSIG=
200804142200 METAR LMML NIL=
200804142145 METAR LMML 142145Z 30009KT CAVOK 14/09 Q1019 NOSIG=
200804142130 METAR LMML NIL=
200804142115 METAR LMML 142115Z 30010KT CAVOK 15/09 Q1019 NOSIG=
200804142100 METAR LMML NIL=
200804142045 METAR LMML 142045Z 29009KT CAVOK 15/09 Q1019 NOSIG=
200804142030 METAR LMML NIL=
200804142015 METAR LMML 142015Z 30010KT CAVOK 15/09 Q1019 NOSIG=
200804142000 METAR LMML NIL=
200804141945 METAR LMML 141945Z 30009KT CAVOK 15/10 Q1019 NOSIG=
200804141930 METAR LMML NIL=
200804141915 METAR LMML 141915Z 30011KT CAVOK 15/10 Q1019 NOSIG=
200804141900 METAR LMML NIL=
200804141845 METAR LMML 141845Z 30010KT 270V330 CAVOK 15/10 Q1018 NOSIG=
200804141830 METAR LMML NIL=
200804141815 METAR LMML 141815Z 30011KT CAVOK 15/11 Q1018 NOSIG=
200804141800 METAR LMML NIL=
200804141745 METAR LMML 141745Z 30013KT CAVOK 15/10 Q1018 NOSIG=
200804141730 METAR LMML NIL=
200804141715 METAR LMML 141715Z 31014KT CAVOK 16/10 Q1017 NOSIG=
200804141700 METAR LMML NIL=
200804141645 METAR LMML 141645Z 32013KT 9999 FEW030 17/09 Q1017 NOSIG=
200804141630 METAR LMML NIL=
200804141615 METAR LMML 141615Z 31013KT 9999 FEW030 17/08 Q1017 NOSIG=
200804141600 METAR LMML NIL=
200804141545 METAR LMML 141545Z 32013KT 9999 FEW030 18/07 Q1017 NOSIG=
200804141530 METAR LMML NIL=
200804141515 METAR LMML 141515Z 29014KT 9999 FEW030 18/07 Q1017 NOSIG=
200804141445 METAR LMML 141445Z 30014KT 9999 FEW036 18/08 Q1017 NOSIG=
200804141430 METAR LMML NIL=
200804141415 METAR LMML 141415Z 29015KT 9999 FEW032 18/09 Q1017 NOSIG=
200804141400 METAR LMML NIL=
200804141345 METAR LMML 141345Z 29014KT 260V340 9999 FEW028 19/10 Q1017
                        NOSIG=
200804141330 METAR LMML NIL=
200804141315 METAR LMML 141315Z 33012KT 300V360 9999 FEW027 17/11 Q1018
                        NOSIG=
200804141245 METAR LMML 141245Z 33011KT 290V030 9999 FEW028 19/11 Q1017
                        NOSIG=
200804141230 METAR LMML NIL=
200804141215 METAR LMML 141215Z 33014KT 9999 FEW027 19/10 Q1018 NOSIG=
200804141200 METAR LMML NIL=
200804141145 METAR LMML 141145Z 33012KT 9999 FEW025 18/11 Q1018 NOSIG=
200804141115 METAR LMML 141115Z 32012KT 290V350 9999 FEW023 19/11 Q1018
                        NOSIG=
200804141045 METAR LMML 141045Z 29012KT 250V320 9999 SCT022 19/12 Q1017
                        NOSIG=
200804141015 METAR LMML 141015Z 29011KT 260V330 9999 SCT026 19/11 Q1017
                        NOSIG=
200804141000 METAR LMML NIL=
200804140945 METAR LMML 140945Z 31009KT 280V340 9999 FEW020 18/11 Q1018
                        NOSIG=
200804140930 METAR LMML NIL=
200804140915 METAR LMML 140915Z 32012KT 9999 FEW020 17/12 Q1018 NOSIG=
200804140900 METAR LMML NIL=
200804140845 METAR LMML 140845Z 30010KT 9999 FEW015 SCT090 15/12 Q1018
                        NOSIG=
200804140830 METAR LMML NIL=
200804140815 METAR LMML 140815Z 30011KT 9999 -RA FEW012 SCT070 BKN130
                        15/12 Q1018 NOSIG=
200804140745 METAR LMML 140745Z 29011KT 260V320 9999 FEW012 SCT090 BKN130
                        15/12 Q1018 NO SIG=
200804140715 METAR LMML 140715Z 30013KT CAVOK 15/11 Q1018 NOSIG=
200804140700 METAR LMML NIL=
200804140645 METAR LMML 140645Z 30012KT 260V320 CAVOK 15/11 Q1018 NOSIG=
200804140615 METAR LMML 140615Z 30009KT CAVOK 15/11 Q1018 NOSIG=
200804140600 METAR LMML NIL=
200804140545 METAR LMML 140545Z 31013KT CAVOK 15/11 Q1018 NOSIG=
200804140530 METAR LMML NIL=
200804140515 METAR LMML 140515Z 30010KT 9999 FEW010 BKN090 14/11 Q1017
                        NOSIG=
200804140500 METAR LMML NIL=
200804140445 METAR LMML 140445Z 31011KT 9999 FEW010 BKN100 14/12 Q1017
                        NOSIG=
200804140430 METAR LMML NIL=
200804140415 METAR LMML 140415Z 30011KT 9999 FEW010 BKN100 15/13 Q1017
                        NOSIG=
200804140345 METAR LMML 140345Z 30008KT 9999 FEW010 BKN100 15/13 Q1017
                        NOSIG=
200804140330 METAR LMML NIL=
200804140315 METAR LMML 140315Z 31008KT 9999 FEW010 BKN100 15/13 Q1017
                        NOSIG=
200804140300 METAR LMML NIL=
200804140245 METAR LMML 140245Z 31008KT 9999 SCT010 BKN100 15/14 Q1016
                        NOSIG=
200804140230 METAR LMML NIL=
200804140215 METAR LMML 140215Z 31007KT CAVOK 15/14 Q1017 NOSIG=
200804140200 METAR LMML NIL=
200804140145 METAR LMML 140145Z 33006KT CAVOK 15/14 Q1016 NOSIG=
200804140130 METAR LMML NIL=
200804140115 METAR LMML 140115Z 33007KT CAVOK 15/14 Q1017 NOSIG=
200804140100 METAR LMML NIL=
200804140045 METAR LMML 140045Z 32006KT CAVOK 15/14 Q1017 NOSIG=
200804140030 METAR LMML NIL=
200804140015 METAR LMML 140015Z 31006KT CAVOK 15/14 Q1017 NOSIG=
200804140000 METAR LMML NIL=
200804132345 METAR LMML 132345Z 33005KT CAVOK 15/13 Q1018 NOSIG=
200804132330 METAR LMML NIL=
200804132315 METAR LMML 132315Z 32007KT CAVOK 15/13 Q1018 NOSIG=
200804132300 METAR LMML NIL=
200804132245 METAR LMML 132245Z 32009KT 280V340 9999 FEW010 BKN250 15/13
                        Q1018 NOSIG=
200804132215 METAR LMML 132215Z 32009KT 9999 FEW010 BKN250 16/14 Q1018
                        NOSIG=
200804132145 METAR LMML 132145Z 32007KT 280V340 9999 FEW009 BKN250 16/14
                        Q1018 NOSIG=
200804132115 METAR LMML 132115Z 32006KT 300V360 9999 FEW009 BKN250 16/15
                        Q1018 NOSIG=
200804132100 METAR LMML NIL=
200804132045 METAR LMML 132045Z 32006KT CAVOK 16/15 Q1018 NOSIG=
200804132030 METAR LMML NIL=
200804132015 METAR LMML 132015Z 35004KT 320V030 CAVOK 16/14 Q1017 NOSIG=
200804132000 METAR LMML NIL=
200804131945 METAR LMML 131945Z 02005KT 330V070 CAVOK 17/14 Q1017 NOSIG=
200804131915 METAR LMML 131915Z 04006KT 010V090 CAVOK 17/14 Q1017 NOSIG=
200804131900 METAR LMML NIL=
200804131845 METAR LMML 131845Z 03004KT 340V070 CAVOK 17/15 Q1017 NOSIG=
200804131830 METAR LMML NIL=
200804131815 METAR LMML 131815Z 03004KT 360V060 CAVOK 17/14 Q1016 NOSIG=
200804131800 METAR LMML NIL=
200804131745 METAR LMML 131745Z 02005KT CAVOK 17/13 Q1016 NOSIG=
200804131730 METAR LMML NIL=
200804131715 METAR LMML 131715Z 01008KT CAVOK 17/12 Q1016 NOSIG=
200804131645 METAR LMML 131645Z 01008KT CAVOK 18/12 Q1017 NOSIG=
200804131630 METAR LMML NIL=
200804131615 METAR LMML 131615Z 01009KT CAVOK 18/12 Q1016 NOSIG=
200804131600 METAR LMML NIL=
200804131545 METAR LMML 131545Z 36012KT CAVOK 19/12 Q1017 NOSIG=
200804131530 METAR LMML NIL=
200804131515 METAR LMML 131515Z 36010KT 320V030 CAVOK 19/12 Q1017 NOSIG=
200804131500 METAR LMML NIL=
200804131445 METAR LMML 131445Z 35011KT CAVOK 19/12 Q1017 NOSIG=
200804131415 METAR LMML 131415Z 34012KT CAVOK 19/11 Q1017 NOSIG=
200804131400 METAR LMML NIL=
200804131345 METAR LMML 131345Z 34011KT 310V010 CAVOK 19/10 Q1018 NOSIG=
200804131330 METAR LMML NIL=
200804131315 METAR LMML 131315Z 34011KT 310V020 CAVOK 19/11 Q1018 NOSIG=
200804131300 METAR LMML NIL=
200804131245 METAR LMML 131245Z 35011KT 320V020 CAVOK 20/11 Q1018 NOSIG=
200804131230 METAR LMML NIL=
200804131215 METAR LMML 131215Z 34013KT 310V010 CAVOK 20/11 Q1018 NOSIG=
200804131200 METAR LMML NIL=
200804131145 METAR LMML 131145Z 33015KT 300V360 CAVOK 20/11 Q1018 NOSIG=
200804131130 METAR LMML NIL=
200804131115 METAR LMML 131115Z 33014KT CAVOK 20/12 Q1019 NOSIG=
200804131100 METAR LMML NIL=
200804131045 METAR LMML 131045Z 33015KT CAVOK 19/11 Q1018 NOSIG=
200804131030 METAR LMML NIL=
200804131015 METAR LMML 131015Z 32013KT CAVOK 20/11 Q1018 NOSIG=
200804131000 METAR LMML NIL=
200804130945 METAR LMML 130945Z 32012KT 300V360 CAVOK 19/12 Q1018 NOSIG=
200804130930 METAR LMML NIL=
200804130915 METAR LMML 130915Z 33011KT 300V010 CAVOK 19/11 Q1018 NOSIG=
200804130900 METAR LMML NIL=
200804130845 METAR LMML 130845Z 34014KT CAVOK 19/12 Q1018 NOSIG=
200804130830 METAR LMML NIL=
200804130815 METAR LMML 130815Z 33013KT CAVOK 18/12 Q1018 NOSIG=
200804130800 METAR LMML NIL=
200804130745 METAR LMML 130745Z 33011KT CAVOK 18/12 Q1017 NOSIG=
200804130730 METAR LMML NIL=
200804130715 METAR LMML 130715Z 32006KT CAVOK 18/12 Q1017 NOSIG=
200804130700 METAR LMML NIL=
200804130645 METAR LMML 130645Z 30005KT CAVOK 17/13 Q1017 NOSIG=
200804130630 METAR LMML NIL=
200804130615 METAR LMML 130615Z VRB03KT CAVOK 16/13 Q1016 NOSIG=
200804130600 METAR LMML NIL=
200804130545 METAR LMML 130545Z 32004KT 290V350 CAVOK 16/13 Q1016 NOSIG=
200804130530 METAR LMML NIL=
200804130515 METAR LMML 130515Z 33005KT 310V010 CAVOK 16/13 Q1016 NOSIG=
200804130500 METAR LMML NIL=
200804130445 METAR LMML 130445Z 34007KT CAVOK 16/14 Q1016 NOSIG=
200804130430 METAR LMML NIL=
200804130415 METAR LMML 130415Z 34006KT CAVOK 16/15 Q1015 NOSIG=
200804130400 METAR LMML NIL=
200804130345 METAR LMML 130345Z 33006KT CAVOK 16/15 Q1015 NOSIG=
200804130330 METAR LMML NIL=
200804130315 METAR LMML 130315Z 33005KT CAVOK 16/15 Q1015 NOSIG=
200804130300 METAR LMML NIL=
200804130245 METAR LMML 130245Z 32005KT CAVOK 16/14 Q1015 NOSIG=
200804130230 METAR LMML NIL=
200804130215 METAR LMML 130215Z 32006KT CAVOK 16/14 Q1015 NOSIG=
200804130200 METAR LMML NIL=
200804130145 METAR LMML 130145Z 32008KT CAVOK 16/14 Q1015 NOSIG=
200804130115 METAR LMML 130115Z 36008KT 330V050 CAVOK 16/13 Q1016 NOSIG=
200804130100 METAR LMML NIL=
200804130045 METAR LMML 130045Z 32008KT CAVOK 16/13 Q1015 NOSIG=
200804130030 METAR LMML NIL=
200804130015 METAR LMML 130015Z 32006KT 290V020 CAVOK 16/12 Q1016 NOSIG=
200804130000 METAR LMML NIL=
200804122345 METAR LMML 122345Z 32008KT CAVOK 16/13 Q1016 NOSIG=
200804122330 METAR LMML NIL=
200804122315 METAR LMML 122315Z 33008KT CAVOK 16/12 Q1016 NOSIG=
200804122300 METAR LMML NIL=
200804122245 METAR LMML 122245Z 33008KT CAVOK 17/12 Q1016 NOSIG=
200804122230 METAR LMML NIL=
200804122215 METAR LMML 122215Z 33008KT CAVOK 17/12 Q1016 NOSIG=
200804122200 METAR LMML NIL=
200804122145 METAR LMML 122145Z 33007KT CAVOK 17/12 Q1016 NOSIG=
200804122130 METAR LMML NIL=
200804122115 METAR LMML 122115Z 33008KT 290V360 CAVOK 17/11 Q1015 NOSIG=
200804122100 METAR LMML NIL=
200804122045 METAR LMML 122045Z 32010KT CAVOK 17/11 Q1015 NOSIG=
200804122030 METAR LMML NIL=
200804122015 METAR LMML 122015Z 33009KT CAVOK 17/12 Q1015 NOSIG=
200804122000 METAR LMML NIL=
200804121945 METAR LMML 121945Z 33010KT CAVOK 17/12 Q1015 NOSIG=
200804121930 METAR LMML NIL=
200804121915 METAR LMML 121915Z 32011KT 290V350 CAVOK 17/11 Q1014 NOSIG=
200804121900 METAR LMML NIL=
200804121845 METAR LMML 121845Z 32011KT CAVOK 17/11 Q1014 NOSIG=
200804121830 METAR LMML NIL=
200804121815 METAR LMML 121815Z 32012KT CAVOK 17/10 Q1013 NOSIG=
200804121745 METAR LMML 121745Z 32011KT CAVOK 18/10 Q1013 NOSIG=
200804121730 METAR LMML NIL=
200804121715 METAR LMML 121715Z 32012KT CAVOK 18/11 Q1013 NOSIG=
200804121700 METAR LMML NIL=
200804121645 METAR LMML 121645Z 31010KT CAVOK 18/12 Q1013 NOSIG=
200804121630 METAR LMML NIL=
200804121615 METAR LMML 121615Z 32010KT CAVOK 18/12 Q1013 NOSIG=
200804121600 METAR LMML NIL=
200804121545 METAR LMML 121545Z 33010KT CAVOK 18/11 Q1012 NOSIG=
200804121530 METAR LMML NIL=
200804121515 METAR LMML 121515Z 33013KT CAVOK 18/12 Q1013 NOSIG=
200804121500 METAR LMML NIL=
200804121445 METAR LMML 121445Z 33014KT CAVOK 19/12 Q1012 NOSIG=
200804121415 METAR LMML 121415Z 34013KT CAVOK 20/14 Q1012 NOSIG=
200804121400 METAR LMML NIL=
200804121345 METAR LMML 121345Z 33012KT 300V360 CAVOK 21/13 Q1012 NOSIG=
200804121330 METAR LMML NIL=
200804121315 METAR LMML 121315Z 35006KT 290V040 CAVOK 24/13 Q1011 NOSIG=
200804121300 METAR LMML NIL=
200804121245 METAR LMML 121245Z 01004KT 320V060 CAVOK 24/14 Q1011 NOSIG=
200804121230 METAR LMML NIL=
200804121215 METAR LMML 121215Z 30009KT 270V330 CAVOK 23/15 Q1011 NOSIG=
200804121200 METAR LMML NIL=
200804121145 METAR LMML 121145Z VRB03KT CAVOK 23/14 Q1011 NOSIG=
200804121115 METAR LMML 121115Z VRB03KT CAVOK 22/15 Q1011 NOSIG=
200804121100 METAR LMML NIL=
200804121045 METAR LMML 121045Z 36004KT 310V070 CAVOK 21/14 Q1011 NOSIG=
200804121030 METAR LMML NIL=
200804121015 METAR LMML 121015Z 01006KT 330V090 CAVOK 22/14 Q1010 NOSIG=
200804121000 METAR LMML NIL=
200804120945 METAR LMML 120945Z 01007KT 340V050 9000 BKN250 22/14 Q1010
                        NOSIG=
200804120915 METAR LMML 120915Z 01005KT 320V060 9000 BKN250 22/15 Q1010
                        NOSIG=
200804120900 METAR LMML NIL=
200804120845 METAR LMML 120845Z 35005KT 300V040 8000 BKN250 21/15 Q1009
                        NOSIG=
200804120830 METAR LMML NIL=
200804120815 METAR LMML 120815Z 06008KT 010V090 8000 BKN250 21/15 Q1008
                        NOSIG=
200804120800 METAR LMML NIL=
200804120745 METAR LMML 120745Z 01004KT 340V050 8000 BKN250 20/15 Q1009
                        NOSIG=
200804120730 METAR LMML NIL=
200804120715 METAR LMML 120715Z 36006KT 8000 BKN250 19/16 Q1008 NOSIG=
200804120645 METAR LMML 120645Z 02005KT 350V050 8000 BKN250 19/16 Q1008
                        NOSIG=
200804120630 METAR LMML NIL=
200804120615 METAR LMML 120615Z 36004KT 340V040 8000 BKN250 19/16 Q1008
                        NOSIG=
200804120600 METAR LMML NIL=
200804120545 METAR LMML 120545Z 34005KT 9000 BKN250 18/15 Q1007 NOSIG=
200804120515 METAR LMML 120515Z 31004KT 9000 BKN250 17/13 Q1006 NOSIG=
200804120500 METAR LMML NIL=
200804120445 METAR LMML 120445Z 32004KT 9000 FEW130 BKN250 18/12 Q1006
                        NOSIG=
200804120430 METAR LMML NIL=
200804120415 METAR LMML 120415Z 31004KT CAVOK 18/12 Q1006 NOSIG=
200804120400 METAR LMML NIL=
200804120345 METAR LMML 120345Z 29005KT 260V320 CAVOK 18/12 Q1006 NOSIG=
200804120330 METAR LMML NIL=
200804120315 METAR LMML 120315Z 32004KT CAVOK 19/11 Q1006 NOSIG=
200804120300 METAR LMML NIL=
200804120245 METAR LMML 120245Z 32006KT CAVOK 20/11 Q1006 NOSIG=
200804120230 METAR LMML NIL=
200804120215 METAR LMML 120215Z 33007KT CAVOK 22/09 Q1006 NOSIG=
200804120200 METAR LMML NIL=
200804120145 METAR LMML 120145Z 21012KT 170V260 CAVOK 23/10 Q1006 NOSIG=
200804120130 METAR LMML NIL=
200804120115 METAR LMML 120115Z 20012KT 150V270 CAVOK 24/11 Q1006 NOSIG=
200804120100 METAR LMML NIL=
200804120045 METAR LMML 120045Z 17011KT 140V200 CAVOK 25/08 Q1005 NOSIG=
200804120030 METAR LMML NIL=
200804120015 METAR LMML 120015Z 18008KT CAVOK 26/05 Q1006 NOSIG=
200804120000 METAR LMML NIL=
200804112345 METAR LMML 112345Z 17009KT 140V200 CAVOK 26/05 Q1006 NOSIG=
200804112330 METAR LMML NIL=
200804112315 METAR LMML 112315Z 18008KT 140V210 CAVOK 24/09 Q1006 NOSIG=
200804112300 METAR LMML NIL=
200804112245 METAR LMML 112245Z 19007KT 160V220 CAVOK 25/05 Q1007 NOSIG=
200804112230 METAR LMML NIL=
200804112215 METAR LMML 112215Z 19007KT CAVOK 25/05 Q1007 NOSIG=
200804112200 METAR LMML NIL=
200804112145 METAR LMML 112145Z 19007KT 150V220 CAVOK 25/06 Q1007 NOSIG=
200804112130 METAR LMML NIL=
200804112115 METAR LMML 112115Z 18011KT CAVOK 24/08 Q1007 NOSIG=
200804112100 METAR LMML NIL=
200804112045 METAR LMML 112045Z 17010KT CAVOK 23/08 Q1007 NOSIG=
200804112030 METAR LMML NIL=
200804112015 METAR LMML 112015Z 18008KT CAVOK 23/07 Q1008 NOSIG=
200804112000 METAR LMML NIL=
200804111945 METAR LMML 111945Z 19009KT CAVOK 22/07 Q1008 NOSIG=
200804111930 METAR LMML NIL=
200804111915 METAR LMML 111915Z 19010KT 160V230 CAVOK 23/04 Q1007 TEMPO
                        8000=
200804111900 METAR LMML NIL=
200804111845 METAR LMML 111845Z 19009KT CAVOK 23/05 Q1007 TEMPO 8000=
200804111830 METAR LMML NIL=
200804111815 METAR LMML 111815Z 19008KT 170V250 CAVOK 22/08 Q1007 TEMPO
                        5000 DU=
200804111800 METAR LMML NIL=
200804111745 METAR LMML 111745Z 19008KT 7000 BKN250 20/12 Q1007 TEMPO
                        5000 DU RMK DUST H AZE=
200804111730 METAR LMML NIL=
200804111715 METAR LMML 111715Z 19007KT 160V220 7000 BKN250 21/13 Q1007
                        TEMPO 5000 DU RM K DUST HAZE=
200804111700 METAR LMML NIL=
200804111645 METAR LMML 111645Z 18007KT 150V210 6000 BKN250 23/11 Q1007
                        TEMPO 5000 DU=
200804111630 METAR LMML NIL=
200804111615 METAR LMML 111615Z 17006KT 6000 BKN250 25/10 Q1006 NOSIG=
200804111600 METAR LMML NIL=
200804111545 METAR LMML 111545Z 18005KT 160V220 5000 BKN250 26/09 Q1006
                        NOSIG=
200804111530 METAR LMML NIL=
200804111515 METAR LMML 111515Z 19004KT 150V220 9000 BKN250 26/10 Q1007
                        NOSIG=
200804111500 METAR LMML NIL=
200804111445 METAR LMML 111445Z VRB03KT 9000 FEW250 28/11 Q1007 NOSIG
                        RMK DUST=
200804111430 METAR LMML NIL=
200804111415 METAR LMML 111415Z 22005KT 190V290 9000 FEW250 29/08 Q1007
                        NOSIG RMK DUST H AZE=
200804111400 METAR LMML NIL=
200804111345 METAR LMML 111345Z VRB02KT 9000 SCT250 27/13 Q1007 NOSIG
                        RMK DUST=
200804111330 METAR LMML NIL=
200804111315 METAR LMML 111315Z VRB03KT 9000 BKN250 25/13 Q1007 NOSIG
                        RMK DUST HAZE=
200804111300 METAR LMML NIL=
200804111245 METAR LMML 111245Z 19006KT 160V240 9000 BKN250 25/13 Q1008
                        NOSIG RMK DUST H AZE=
200804111230 METAR LMML NIL=
200804111215 METAR LMML 111215Z 22005KT 180V260 9000 BKN250 27/11 Q1008
                        NOSIG RMK DUST H AZE=
200804111200 METAR LMML NIL=
200804111145 METAR LMML 111145Z 23008KT 200V280 CAVOK 26/11 Q1008 NOSIG=
200804111115 METAR LMML 111115Z 22011KT 190V270 CAVOK 25/10 Q1008 NOSIG=
200804111100 METAR LMML NIL=
200804111045 METAR LMML 111045Z 22011KT 190V250 CAVOK 26/08 Q1008 NOSIG=
200804111030 METAR LMML NIL=
200804111015 METAR LMML 111015Z 23013KT 190V270 9000 BKN250 26/07 Q1008
                        NOSIG=
200804111000 METAR LMML NIL=
200804110945 METAR LMML 110945Z 23013KT 190V270 9000 BKN250 26/08 Q1009
                        NOSIG=
200804110930 METAR LMML NIL=
200804110915 METAR LMML 110915Z 23014KT 190V270 8000 DU BKN250 26/07 Q1008
                        NOSIG=
200804110900 METAR LMML NIL=
200804110845 METAR LMML 110845Z 22013KT 190V270 8000 BKN250 25/08 Q1008
                        NOSIG RMK DUST H AZE=
200804110830 METAR LMML NIL=
200804110815 METAR LMML 110815Z 21011KT 180V260 8000 BKN250 25/08 Q1007
                        NOSIG RMK DUST H AZE=
200804110800 METAR LMML NIL=
200804110745 METAR LMML 110745Z 21011KT 180V250 6000 BKN250 23/11 Q1007
                        NOSIG RMK DUST H AZE=
200804110730 METAR LMML NIL=
200804110715 METAR LMML 110715Z 20011KT 170V230 6000 BKN250 22/13 Q1007
                        NOSIG RMK DUST H AZE=
200804110700 METAR LMML NIL=
200804110645 METAR LMML 110645Z 20011KT 160V230 5000 HZ OVC250 21/13 Q1007
                        NOSIG=
200804110630 METAR LMML NIL=
200804110615 METAR LMML 110615Z 20009KT 170V240 5000 HZ OVC250 20/14 Q1007
                        NOSIG=
200804110600 METAR LMML NIL=
200804110545 METAR LMML 110545Z 20007KT 150V240 6000 OVC250 20/14 Q1007
                        NOSIG=
200804110530 METAR LMML NIL=
200804110515 METAR LMML 110515Z 20010KT 160V230 6000 BKN250 20/13 Q1006
                        NOSIG=
200804110445 METAR LMML 110445Z 19011KT 160V220 6000 BKN250 20/13 Q1006
                        NOSIG=
200804110430 METAR LMML NIL=
200804110415 METAR LMML 110415Z 19010KT 170V230 7000 FEW130 BKN250 20/12
                        Q1006 NOSIG=
200804110400 METAR LMML NIL=
200804110345 METAR LMML 110345Z 19006KT 130V240 7000 FEW130 BKN250 20/12
                        Q1006 NOSIG=
200804110330 METAR LMML NIL=
200804110315 METAR LMML 110315Z 17005KT 150V220 7000 FEW130 BKN250 19/12
                        Q1007 NOSIG=
200804110300 METAR LMML NIL=
200804110245 METAR LMML 110245Z 18005KT 150V280 7000 FEW130 BKN250 18/14
                        Q1007 NOSIG=
200804110215 METAR LMML 110215Z VRB02KT 7000 FEW130 BKN250 18/14 Q1008
                        NOSIG=
200804110200 METAR LMML NIL=
200804110145 METAR LMML 110145Z 21004KT 160V280 7000 FEW130 BKN250 19/14
                        Q1008 TEMPO 700 0=
200804110130 METAR LMML NIL=
200804110115 METAR LMML 110115Z 09004KT 7000 FEW130 BKN250 19/15 Q1008
                        TEMPO 7000=
200804110100 METAR LMML NIL=
200804110045 METAR LMML 110045Z 17008KT 130V200 7000 FEW130 BKN250 19/15
                        Q1007 TEMPO 700 0=
200804110030 METAR LMML NIL=
200804110015 METAR LMML 110015Z 17009KT 140V200 7000 BKN250 19/15 Q1008
                        TEMPO 7000=
200804110000 METAR LMML NIL=
200804102345 METAR LMML 102345Z 16009KT 120V190 7000 BKN250 19/16 Q1008
                        TEMPO 7000=
200804102330 METAR LMML NIL=
200804102315 METAR LMML 102315Z 16009KT 7000 BKN250 19/15 Q1008 TEMPO
                        7000=
200804102300 METAR LMML NIL=
200804102245 METAR LMML 102245Z 16009KT 130V200 7000 BKN250 19/15 Q1009
                        TEMPO 7000=
200804102230 METAR LMML NIL=
200804102215 METAR LMML 102215Z 15008KT 7000 BKN250 19/15 Q1009 TEMPO
                        8000=
200804102200 METAR LMML NIL=
200804102145 METAR LMML 102145Z 13007KT 7000 BKN250 17/17 Q1009 TEMPO
                        6000=
200804102130 METAR LMML NIL=
200804102115 METAR LMML 102115Z 12006KT 7000 BKN250 17/17 Q1009 NOSIG=
200804102100 LMML NIL=
200804102045 METAR LMML 102045Z 13005KT 9000 BKN250 18/17 Q1009 NOSIG=
200804102030 METAR LMML NIL=
200804102015 METAR LMML 102015Z 13005KT 9000 BKN250 17/17 Q1010 NOSIG=
200804102000 METAR LMML NIL=
200804101945 METAR LMML 101945Z VRB02KT 9000 BKN250 18/17 Q1010 NOSIG=
200804101930 METAR LMML NIL=
200804101915 METAR LMML 101915Z VRB01KT 9000 BKN250 18/17 Q1010 NOSIG=
200804101900 METAR LMML NIL=
200804101845 METAR LMML 101845Z VRB02KT 9000 BKN250 18/16 Q1009 NOSIG=
200804101830 METAR LMML NIL=
200804101815 METAR LMML 101815Z VRB01KT 9000 BKN250 19/16 Q1009 NOSIG=
200804101800 METAR LMML NIL=
200804101745 METAR LMML 101745Z VRB01KT 9000 BKN250 19/16 Q1009 NOSIG=
200804101730 METAR LMML NIL=
200804101715 METAR LMML 101715Z VRB02KT 9000 BKN250 20/16 Q1009 NOSIG=
200804101700 METAR LMML NIL=
200804101645 METAR LMML 101645Z VRB03KT 9000 BKN250 20/16 Q1009 NOSIG
                        RMK DUST=
200804101630 METAR LMML NIL=
200804101615 METAR LMML 101615Z 17004KT 9000 BKN250 20/16 Q1009 NOSIG
                        RMK DUST HAZE=
200804101600 METAR LMML NIL=
200804101545 METAR LMML 101545Z 13005KT 9000 BKN250 21/16 Q1009 NOSIG=
200804101530 METAR LMML NIL=
200804101515 METAR LMML 101515Z 12005KT 9000 BKN250 22/16 Q1009 NOSIG=
200804101500 METAR LMML NIL=
200804101445 METAR LMML 101445Z 12006KT 090V150 9000 FEW250 23/17 Q1009
                        NOSIG=
200804101430 METAR LMML NIL=
200804101415 METAR LMML 101415Z 08004KT 040V130 9000 FEW250 25/15 Q1009
                        NOSIG=
200804101400 METAR LMML NIL=
200804101345 METAR LMML 101345Z VRB03KT CAVOK 26/14 Q1009 NOSIG=
200804101330 METAR LMML NIL=
200804101315 METAR LMML 101315Z 10004KT 050V140 CAVOK 26/15 Q1010 NOSIG=
200804101245 METAR LMML 101245Z VRB03KT CAVOK 26/13 Q1010 NOSIG=
200804101230 METAR LMML NIL=
200804101215 METAR LMML 101215Z 27004KT 200V320 CAVOK 26/13 Q1011 NOSIG=
200804101200 METAR LMML NIL=
200804101145 METAR LMML 101145Z 24004KT 170V330 CAVOK 25/14 Q1011 NOSIG=
200804101130 METAR LMML NIL=
200804101115 METAR LMML 101115Z 27006KT 210V320 CAVOK 25/13 Q1011 NOSIG=
200804101100 METAR LMML NIL=
200804101045 METAR LMML 101045Z 23006KT 170V290 CAVOK 23/14 Q1011 NOSIG=
200804101030 METAR LMML NIL=
200804101015 METAR LMML 101015Z 19005KT 130V240 CAVOK 23/14 Q1011 NOSIG=
200804100945 METAR LMML 100945Z 21009KT 150V260 CAVOK 23/13 Q1011 NOSIG=
200804100930 METAR LMML NIL=
200804100915 METAR LMML 100915Z 20010KT 170V240 CAVOK 23/13 Q1011 NOSIG=
200804100900 METAR LMML NIL=
200804100845 METAR LMML 100845Z 20010KT 170V260 CAVOK 22/13 Q1011 NOSIG=
200804100830 METAR LMML NIL=
200804100815 METAR LMML 100815Z 20009KT 160V250 CAVOK 22/13 Q1010 NOSIG=
200804100800 METAR LMML NIL=
200804100745 METAR LMML 100745Z 21009KT 160V260 CAVOK 22/13 Q1010 NOSIG=
200804100730 METAR LMML NIL=
200804100715 METAR LMML 100715Z 20011KT 150V240 CAVOK 20/14 Q1010 NOSIG=
200804100700 METAR LMML NIL=
200804100645 METAR LMML 100645Z 20012KT 170V240 CAVOK 20/14 Q1010 NOSIG=
200804100630 METAR LMML NIL=
200804100615 METAR LMML 100615Z 20011KT 160V260 CAVOK 20/13 Q1010 NOSIG=
200804100600 METAR LMML NIL=
200804100545 METAR LMML 100545Z 19010KT 170V240 CAVOK 19/14 Q1010 NOSIG=
200804100530 METAR LMML NIL=
200804100515 METAR LMML 100515Z 19009KT 160V220 CAVOK 18/13 Q1010 NOSIG=
200804100445 METAR LMML 100445Z VRB03KT CAVOK 17/13 Q1010 NOSIG=
200804100430 METAR LMML NIL=
200804100415 METAR LMML 100415Z 17004KT 130V200 CAVOK 17/13 Q1010 NOSIG=
200804100400 METAR LMML NIL=
200804100345 METAR LMML 100345Z 16005KT 120V200 CAVOK 17/13 Q1010 NOSIG=
200804100330 METAR LMML NIL=
200804100315 METAR LMML 100315Z 18008KT 140V220 CAVOK 18/13 Q1010 NOSIG=
200804100300 METAR LMML NIL=
200804100245 METAR LMML 100245Z 18008KT 150V210 CAVOK 17/13 Q1010 NOSIG=
200804100230 METAR LMML NIL=
200804100215 METAR LMML 100215Z 17005KT 140V210 CAVOK 16/13 Q1011 NOSIG=
200804100200 METAR LMML NIL=
200804100145 METAR LMML 100145Z 15004KT 130V190 CAVOK 16/15 Q1011 NOSIG=
200804100130 METAR LMML NIL=
200804100115 METAR LMML 100115Z 17008KT CAVOK 17/13 Q1011 NOSIG=
200804100100 METAR LMML NIL=
200804100045 METAR LMML 100045Z 15005KT 120V190 CAVOK 16/13 Q1011 NOSIG=
200804100030 METAR LMML NIL=
200804100015 METAR LMML 100015Z 17006KT 130V190 CAVOK 16/14 Q1011 NOSIG=
200804100000 METAR LMML NIL=
200804092345 METAR LMML 092345Z 15005KT 120V180 CAVOK 15/14 Q1011 NOSIG=
200804092330 METAR LMML NIL=
200804092315 METAR LMML 092315Z 14004KT 110V200 CAVOK 16/11 Q1011 NOSIG=
200804092300 METAR LMML NIL=
200804092245 METAR LMML 092245Z 19004KT 160V240 CAVOK 18/06 Q1011 NOSIG=
200804092230 METAR LMML NIL=
200804092215 METAR LMML 092215Z 21007KT 190V250 CAVOK 18/07 Q1011 NOSIG=
200804092200 METAR LMML NIL=
200804092145 METAR LMML 092145Z VRB03KT CAVOK 17/08 Q1012 NOSIG=
200804092130 METAR LMML NIL=
200804092115 METAR LMML 092115Z VRB01KT CAVOK 16/09 Q1012 NOSIG=
200804092100 METAR LMML NIL=
200804092045 METAR LMML 092045Z VRB02KT CAVOK 18/07 Q1012 NOSIG=
200804092030 METAR LMML NIL=
200804092015 METAR LMML 092015Z 25004KT 220V280 CAVOK 17/06 Q1012 NOSIG=
200804092000 METAR LMML NIL=
200804091945 METAR LMML 091945Z VRB03KT CAVOK 16/09 Q1011 NOSIG=
200804091930 METAR LMML NIL=
200804091915 METAR LMML 091915Z VRB01KT CAVOK 16/10 Q1011 NOSIG=
200804091900 METAR LMML NIL=
200804091845 METAR LMML 091845Z VRB03KT CAVOK 16/12 Q1011 NOSIG=
200804091830 METAR LMML NIL=
200804091815 METAR LMML 091815Z VRB03KT CAVOK 17/12 Q1011 NOSIG=
200804091745 METAR LMML 091745Z VRB02KT CAVOK 17/11 Q1011 NOSIG=
200804091730 METAR LMML NIL=
200804091715 METAR LMML 091715Z VRB03KT CAVOK 19/08 Q1010 NOSIG=
200804091700 METAR LMML NIL=
200804091645 METAR LMML 091645Z 26006KT 200V290 CAVOK 20/07 Q1011 NOSIG=
200804091630 METAR LMML NIL=
200804091615 METAR LMML 091615Z 26008KT 220V310 CAVOK 20/08 Q1011 NOSIG=
200804091600 METAR LMML NIL=
200804091545 METAR LMML 091545Z 24008KT 210V280 CAVOK 20/08 Q1011 NOSIG=
200804091530 METAR LMML NIL=
200804091515 METAR LMML 091515Z 26007KT 190V300 CAVOK 21/09 Q1011 NOSIG=
200804091500 METAR LMML NIL=
200804091445 METAR LMML 091445Z 25008KT 210V300 CAVOK 21/08 Q1011 NOSIG=
200804091430 METAR LMML NIL=
200804091415 METAR LMML 091415Z 26007KT 230V300 CAVOK 21/09 Q1011 NOSIG=
200804091400 METAR LMML NIL=
200804091345 METAR LMML 091345Z 28009KT CAVOK 21/11 Q1011 NOSIG=
200804091330 METAR LMML NIL=
200804091315 METAR LMML 091315Z 26008KT 220V300 CAVOK 21/10 Q1011 NOSIG=
200804091300 METAR LMML NIL=
200804091245 METAR LMML 091245Z 26008KT 230V320 CAVOK 21/11 Q1011 NOSIG=
200804091230 METAR LMML NIL=
200804091215 METAR LMML 091215Z 26009KT 210V320 CAVOK 21/12 Q1012 NOSIG=
200804091200 METAR LMML NIL=
200804091145 METAR LMML 091145Z 27009KT 220V310 CAVOK 21/12 Q1012 NOSIG=
200804091130 METAR LMML NIL=
200804091115 METAR LMML 091115Z 27008KT 240V310 9999 FEW025 SCT250 22/13
                        Q1012 NOSIG=
200804091100 METAR LMML NIL=
200804091045 METAR LMML 091045Z 28009KT 210V310 CAVOK 22/10 Q1012 NOSIG=
200804091030 METAR LMML NIL=
200804091015 METAR LMML 091015Z 29009KT CAVOK 22/09 Q1012 NOSIG=
200804091000 METAR LMML NIL=
200804090945 METAR LMML 090945Z 30009KT CAVOK 23/09 Q1012 NOSIG=
200804090930 METAR LMML NIL=
200804090915 METAR LMML 090915Z 31008KT 280V340 CAVOK 23/07 Q1012 NOSIG=
200804090900 METAR LMML NIL=
200804090845 METAR LMML 090845Z 30010KT CAVOK 22/08 Q1012 NOSIG=
200804090815 METAR LMML 090815Z 30009KT CAVOK 21/09 Q1012 NOSIG=
200804090800 METAR LMML NIL=
200804090745 METAR LMML 090745Z 30009KT CAVOK 20/11 Q1012 NOSIG=
200804090730 METAR LMML NIL=
200804090715 METAR LMML 090715Z 30010KT CAVOK 19/12 Q1011 NOSIG=
200804090645 METAR LMML 090645Z 32006KT CAVOK 18/13 Q1011 NOSIG=
200804090630 METAR LMML NIL=
200804090615 METAR LMML 090615Z 31007KT 270V330 CAVOK 17/13 Q1011 NOSIG=
200804090600 METAR LMML NIL=
200804090545 METAR LMML 090545Z 30005KT CAVOK 15/14 Q1010 NOSIG=
200804090530 METAR LMML NIL=
200804090515 METAR LMML 090515Z 30006KT CAVOK 15/14 Q1010 NOSIG=
200804090500 METAR LMML NIL=
200804090445 METAR LMML 090445Z 31005KT CAVOK 14/13 Q1010 NOSIG=
200804090430 METAR LMML NIL=
200804090415 METAR LMML 090415Z 33005KT 300V010 CAVOK 15/12 Q1010 NOSIG=
200804090400 METAR LMML NIL=
200804090345 METAR LMML 090345Z VRB03KT CAVOK 15/12 Q1010 NOSIG=
200804090330 METAR LMML NIL=
200804090315 METAR LMML 090315Z 32006KT CAVOK 15/12 Q1010 NOSIG=
200804090300 METAR LMML NIL=
200804090245 METAR LMML 090245Z 32006KT CAVOK 15/11 Q1010 NOSIG=
200804090230 METAR LMML NIL=
200804090215 METAR LMML 090215Z 32006KT CAVOK 15/11 Q1010 NOSIG=
200804090200 METAR LMML NIL=
200804090145 METAR LMML 090145Z 31008KT CAVOK 16/11 Q1010 NOSIG=
200804090115 METAR LMML 090115Z 31009KT CAVOK 16/12 Q1010 NOSIG=
200804090100 METAR LMML NIL=
200804090045 METAR LMML 090045Z 31010KT CAVOK 17/12 Q1010 NOSIG=
200804090015 METAR LMML 090015Z 31010KT CAVOK 17/12 Q1010 NOSIG=
200804090000 METAR LMML NIL=
200804082345 METAR LMML 082345Z 32009KT CAVOK 18/12 Q1010 NOSIG=
200804082330 METAR LMML NIL=
200804082315 METAR LMML 082315Z 32009KT CAVOK 18/12 Q1010 NOSIG=
200804082300 METAR LMML NIL=
200804082245 METAR LMML 082245Z 32011KT CAVOK 18/12 Q1010 NOSIG=
200804082230 METAR LMML NIL=
200804082215 METAR LMML 082215Z 32010KT CAVOK 18/12 Q1010 NOSIG=
200804082200 METAR LMML NIL=
200804082145 METAR LMML 082145Z 32013KT CAVOK 18/12 Q1010 NOSIG=
200804082130 METAR LMML NIL=
200804082115 METAR LMML 082115Z 32012KT CAVOK 18/12 Q1010 NOSIG=
200804082100 METAR LMML NIL=
200804082045 METAR LMML 082045Z 32012KT CAVOK 17/12 Q1010 NOSIG=
200804082030 METAR LMML NIL=
200804082015 METAR LMML 082015Z 32012KT CAVOK 17/13 Q1009 NOSIG=
200804082000 METAR LMML NIL=
200804081945 METAR LMML 081945Z 32012KT 290V360 CAVOK 17/13 Q1009 NOSIG=
200804081930 METAR LMML NIL=
200804081915 METAR LMML 081915Z 32009KT CAVOK 17/14 Q1008 NOSIG=
200804081900 METAR LMML NIL=
200804081845 METAR LMML 081845Z 32009KT CAVOK 17/14 Q1008 NOSIG=
200804081830 METAR LMML NIL=
200804081815 METAR LMML 081815Z 31012KT 270V350 5000 DU SCT130 OVC250
                        18/13 Q1008 NOSIG=
200804081800 METAR LMML NIL=
200804081745 METAR LMML 081745Z 27019KT 5000 DU SKC 20/13 Q1008 NOSIG=
200804081730 METAR LMML NIL=
200804081715 METAR LMML 081715Z 24012KT 200V280 5000 DU SKC 20/11 Q1008
                        NOSIG=
200804081700 METAR LMML NIL=
200804081645 METAR LMML 081645Z 22012KT 200V270 5000 DU BKN120 BKN250
                        21/11 Q1008 NOSIG=
200804081630 METAR LMML NIL=
200804081615 METAR LMML 081615Z 20007KT 180V240 5000 DU BKN120 BKN250
                        22/10 Q1007 NOSIG=
200804081600 METAR LMML NIL=
200804081545 METAR LMML 081545Z 20007KT 170V240 5000 DU BKN120 BKN250
                        21/11 Q1006 NOSIG=
200804081530 METAR LMML NIL=
200804081515 METAR LMML 081515Z 19004KT 170V250 5000 DU BKN120 BKN250
                        21/12 Q1006 NOSIG=
200804081500 METAR LMML NIL=
200804081445 METAR LMML 081445Z 18004KT 150V220 5000 DU BKN120 BKN250
                        21/13 Q1005 NOSIG=
200804081430 METAR LMML NIL=
200804081415 METAR LMML 081415Z 17005KT 140V220 5000 DU BKN120 BKN250
                        22/11 Q1006 NOSIG=
200804081400 METAR LMML NIL=
200804081345 METAR LMML 081345Z 24008KT 180V350 5000 DU BKN120 BKN250
                        24/08 Q1007 NOSIG=
200804081330 METAR LMML NIL=
200804081315 METAR LMML 081315Z 22007KT 180V270 5000 DU BKN120 BKN250
                        22/12 Q1007 NOSIG=
200804081300 METAR LMML NIL=
200804081245 METAR LMML 081245Z 19009KT 160V230 5000 DU BKN120 BKN250
                        21/13 Q1009 NOSIG=
200804081230 METAR LMML NIL=
200804081215 METAR LMML 081215Z 20010KT 150V250 5000 DU BKN120 BKN250
                        20/13 Q1009 NOSIG=
200804081145 METAR LMML 081145Z 20007KT 150V270 5000 DU BKN120 BKN250
                        20/13 Q1009 NOSIG=
200804081115 METAR LMML 081115Z 19010KT 160V240 5000 DU BKN120 BKN250
                        20/13 Q1009 NOSIG=
200804081045 METAR LMML 081045Z 14009KT 100V170 5000 DU BKN120 BKN250
                        21/13 Q1009 NOSIG=
200804081015 METAR LMML 081015Z 15009KT 120V180 5000 DU BKN120 BKN250
                        21/11 Q1009 NOSIG=
200804080945 METAR LMML 080945Z 17005KT 110V200 5000 DU BKN120 BKN250
                        21/10 Q1010 NOSIG=
200804080930 METAR LMML NIL=
200804080915 METAR LMML 080915Z 15006KT 120V180 5000 DU BKN120 BKN250
                        20/11 Q1010 NOSIG=
200804080900 METAR LMML NIL=
200804080845 METAR LMML 080845Z 16007KT 130V190 7000 HZ BKN150 BKN250
                        20/09 Q1010 NOSIG=
200804080830 METAR LMML NIL=
200804080815 METAR LMML 080815Z 16008KT 130V190 7000 BKN150 BKN250 20/09
                        Q1010 NOSIG=
200804080800 METAR LMML NIL=
200804080745 LMML 080745Z 15004KT 090V190 7000 SKC 19/10 Q1010 NOSIG=
200804080730 METAR LMML NIL=
200804080715 METAR LMML 080715Z 15006KT 120V180 CAVOK 18/11 Q1009 NOSIG=
200804080700 METAR LMML NIL=
200804080645 METAR LMML 080645Z 15006KT CAVOK 18/12 Q1009 NOSIG=
200804080630 METAR LMML NIL=
200804080615 METAR LMML 080615Z 16008KT CAVOK 17/13 Q1010 NOSIG=
200804080600 METAR LMML NIL=
200804080545 METAR LMML 080545Z 16007KT CAVOK 17/14 Q1010 NOSIG=
200804080530 METAR LMML NIL=
200804080515 METAR LMML 080515Z 14004KT 110V170 CAVOK 16/14 Q1009 NOSIG=
200804080500 METAR LMML NIL=
200804080445 METAR LMML 080445Z VRB03KT CAVOK 15/14 Q1009 NOSIG=
200804080430 METAR LMML NIL=
200804080415 METAR LMML 080415Z VRB03KT CAVOK 15/12 Q1009 NOSIG=
200804080400 METAR LMML NIL=
200804080345 METAR LMML 080345Z 17005KT 090V310 CAVOK 16/12 Q1009 NOSIG=
200804080330 METAR LMML NIL=
200804080315 METAR LMML 080315Z VRB03KT CAVOK 16/10 Q1010 NOSIG=
200804080300 METAR LMML NIL=
200804080245 METAR LMML 080245Z VRB03KT CAVOK 16/08 Q1009 NOSIG=
200804080230 METAR LMML NIL=
200804080215 METAR LMML 080215Z VRB01KT CAVOK 15/08 Q1010 NOSIG=
200804080200 METAR LMML NIL=
200804080145 METAR LMML 080145Z 00000KT CAVOK 15/08 Q1010 NOSIG=
200804080130 METAR LMML NIL=
200804080115 METAR LMML 080115Z VRB02KT CAVOK 17/07 Q1010 NOSIG=
200804080100 METAR LMML NIL=
200804080045 METAR LMML 080045Z 24005KT 180V290 CAVOK 17/06 Q1010 NOSIG=
200804080030 METAR LMML NIL=
200804080015 METAR LMML 080015Z VRB03KT CAVOK 16/10 Q1011 NOSIG=
200804080000 METAR LMML NIL=
200804072345 METAR LMML 072345Z VRB02KT CAVOK 16/11 Q1011 NOSIG=
200804072330 METAR LMML NIL=
200804072315 METAR LMML 072315Z 20004KT CAVOK 16/13 Q1011 NOSIG=
200804072300 METAR LMML NIL=
200804072245 METAR LMML 072245Z 20004KT CAVOK 16/14 Q1011 NOSIG=
200804072230 METAR LMML NIL=
200804072215 METAR LMML 072215Z 20005KT CAVOK 16/13 Q1011 NOSIG=
200804072200 METAR LMML NIL=
200804072145 METAR LMML 072145Z 18004KT 150V210 CAVOK 16/14 Q1011 NOSIG=
200804072130 METAR LMML NIL=
200804072115 METAR LMML 072115Z 15005KT 120V190 CAVOK 15/14 Q1011 NOSIG=
200804072100 METAR LMML NIL=
200804072045 METAR LMML 072045Z VRB03KT CAVOK 15/11 Q1011 NOSIG=
200804072030 METAR LMML NIL=
200804072015 METAR LMML 072015Z VRB01KT CAVOK 15/11 Q1011 NOSIG=
200804072000 METAR LMML NIL=
200804071945 METAR LMML 071945Z VRB01KT CAVOK 16/12 Q1011 NOSIG=
200804071930 METAR LMML NIL=
200804071915 METAR LMML 071915Z VRB01KT CAVOK 16/11 Q1010 NOSIG=
200804071900 METAR LMML NIL=
200804071845 METAR LMML 071845Z VRB02KT CAVOK 17/10 Q1010 NOSIG=
200804071830 METAR LMML NIL=
200804071815 METAR LMML 071815Z VRB03KT CAVOK 17/11 Q1010 NOSIG=
200804071800 METAR LMML NIL=
200804071745 METAR LMML 071745Z VRB01KT CAVOK 17/13 Q1010 NOSIG=
200804071730 METAR LMML NIL=
200804071715 METAR LMML 071715Z VRB03KT CAVOK 17/13 Q1010 NOSIG=
200804071700 METAR LMML NIL=
200804071645 METAR LMML 071645Z 21005KT 170V280 CAVOK 18/13 Q1010 NOSIG=
200804071630 METAR LMML NIL=
200804071615 METAR LMML 071615Z 20006KT 170V230 CAVOK 19/13 Q1010 NOSIG=
200804071600 METAR LMML NIL=
200804071545 METAR LMML 071545Z 20007KT 170V240 CAVOK 19/13 Q1010 NOSIG=
200804071530 METAR LMML NIL=
200804071515 METAR LMML 071515Z 19006KT 160V220 CAVOK 20/13 Q1010 NOSIG=
200804071500 METAR LMML NIL=
200804071445 METAR LMML 071445Z 20005KT 160V220 CAVOK 21/12 Q1009 NOSIG=
200804071430 METAR LMML NIL=
200804071415 METAR LMML 071415Z 20007KT 170V240 CAVOK 21/13 Q1010 NOSIG=
200804071400 METAR LMML NIL=
200804071345 METAR LMML 071345Z 21008KT 170V240 CAVOK 20/13 Q1010 NOSIG=
200804071330 METAR LMML NIL=
200804071315 METAR LMML 071315Z 19007KT 150V230 CAVOK 20/12 Q1010 NOSIG=
200804071300 METAR LMML NIL=
200804071245 LMML 071245Z 19006KT 160V250 CAVOK 21/13 Q1010 NOSIG=
200804071230 METAR LMML NIL=
200804071215 METAR LMML 071215Z 20009KT 170V260 CAVOK 20/13 Q1010 NOSIG=
200804071200 METAR LMML NIL=
200804071145 METAR LMML 071145Z 21007KT 170V260 CAVOK 20/13 Q1010 NOSIG=
200804071130 METAR LMML NIL=
200804071115 METAR LMML 071115Z 19009KT 160V230 CAVOK 20/13 Q1010 NOSIG=
200804071100 METAR LMML NIL=
200804071045 METAR LMML 071045Z 19009KT 160V240 CAVOK 20/13 Q1011 NOSIG=
200804071030 METAR LMML NIL=
200804071015 LMML 071015Z 19008KT 150V240 CAVOK 20/13 Q1011 NOSIG=
200804071000 METAR LMML NIL=
200804070945 METAR LMML 070945Z 19010KT 140V230 CAVOK 19/13 Q1011 NOSIG=
200804070930 METAR LMML NIL=
200804070915 METAR LMML 070915Z 20009KT 150V250 CAVOK 19/13 Q1011 NOSIG=
200804070900 METAR LMML NIL=
200804070845 METAR LMML 070845Z 20008KT 150V240 CAVOK 19/13 Q1011 NOSIG=
200804070830 METAR LMML NIL=
200804070815 METAR LMML 070815Z 20009KT 170V280 CAVOK 19/13 Q1011 NOSIG=
200804070800 METAR LMML NIL=
200804070745 METAR LMML 070745Z 19011KT 160V240 CAVOK 18/13 Q1011 NOSIG=
200804070730 METAR LMML NIL=
200804070715 METAR LMML 070715Z 19009KT 160V220 CAVOK 18/13 Q1010 NOSIG=
200804070700 METAR LMML NIL=
200804070645 METAR LMML 070645Z 19008KT 160V220 CAVOK 17/13 Q1010 NOSIG=
200804070630 METAR LMML NIL=
200804070615 METAR LMML 070615Z 19009KT 160V220 CAVOK 17/13 Q1010 NOSIG=
200804070600 METAR LMML NIL=
200804070545 METAR LMML 070545Z 19010KT 160V220 CAVOK 16/13 Q1010 NOSIG=
200804070530 METAR LMML NIL=
200804070515 METAR LMML 070515Z 19009KT CAVOK 16/13 Q1010 NOSIG=
200804070500 METAR LMML NIL=
200804070445 METAR LMML 070445Z 20009KT 160V240 CAVOK 15/13 Q1010 NOSIG=
200804070415 METAR LMML 070415Z 19012KT 160V230 CAVOK 15/13 Q1010 NOSIG=
200804070345 METAR LMML 070345Z 19009KT 160V240 CAVOK 15/12 Q1010 NOSIG=
200804070330 METAR LMML NIL=
200804070315 METAR LMML 070315Z 19008KT 160V220 CAVOK 15/13 Q1010 NOSIG=
200804070300 METAR LMML NIL=
200804070245 METAR LMML 070245Z 19008KT 160V230 CAVOK 15/13 Q1010 NOSIG=
200804070230 METAR LMML NIL=
200804070215 METAR LMML 070215Z 18009KT CAVOK 15/13 Q1010 NOSIG=
200804070200 METAR LMML NIL=
200804070145 METAR LMML 070145Z 18008KT CAVOK 15/13 Q1011 NOSIG=
200804070130 METAR LMML NIL=
200804070115 METAR LMML 070115Z 18008KT CAVOK 15/13 Q1011 NOSIG=
200804070100 METAR LMML NIL=
200804070045 METAR LMML 070045Z 18007KT CAVOK 15/13 Q1011 NOSIG=
200804070030 METAR LMML NIL=
200804070015 METAR LMML 070015Z 18007KT 160V220 CAVOK 14/13 Q1011 NOSIG=
200804070000 METAR LMML NIL=
200804062345 METAR LMML 062345Z 18006KT CAVOK 14/13 Q1012 NOSIG=
200804062330 METAR LMML NIL=
200804062315 METAR LMML 062315Z 18004KT 150V220 CAVOK 14/13 Q1012 NOSIG=
200804062300 METAR LMML NIL=
200804062245 METAR LMML 062245Z 17004KT CAVOK 14/12 Q1012 NOSIG=
200804062230 METAR LMML NIL=
200804062215 METAR LMML 062215Z 18005KT 150V210 CAVOK 14/12 Q1012 NOSIG=
200804062200 METAR LMML NIL=
200804062145 METAR LMML 062145Z 20004KT 170V230 CAVOK 13/12 Q1013 NOSIG=
200804062130 METAR LMML NIL=
200804062115 METAR LMML 062115Z 21004KT 180V250 CAVOK 14/12 Q1013 NOSIG=
200804062100 METAR LMML NIL=
200804062045 METAR LMML 062045Z 21004KT CAVOK 14/12 Q1013 NOSIG=
200804062030 METAR LMML NIL=
200804062015 METAR LMML 062015Z 21004KT CAVOK 14/11 Q1013 NOSIG=
200804062000 METAR LMML NIL=
200804061945 METAR LMML 061945Z VRB03KT CAVOK 14/11 Q1013 NOSIG=
200804061930 METAR LMML NIL=
200804061915 METAR LMML 061915Z 22004KT 190V270 CAVOK 14/11 Q1012 NOSIG=
200804061900 METAR LMML NIL=
200804061845 METAR LMML 061845Z 22004KT 190V250 CAVOK 14/12 Q1012 NOSIG=
200804061830 METAR LMML NIL=
200804061815 METAR LMML 061815Z 22005KT 190V260 CAVOK 15/12 Q1012 NOSIG=
200804061800 METAR LMML NIL=
200804061745 METAR LMML 061745Z 22006KT 190V250 CAVOK 15/12 Q1012 NOSIG=
200804061730 METAR LMML NIL=
200804061715 METAR LMML 061715Z 22006KT 190V270 CAVOK 15/12 Q1012 NOSIG=
200804061700 METAR LMML NIL=
200804061645 METAR LMML 061645Z 22007KT 190V260 9999 FEW018 16/12 Q1012
                        NOSIG=
200804061630 METAR LMML NIL=
200804061615 METAR LMML 061615Z 23007KT 180V270 9999 FEW018 16/12 Q1012
                        NOSIG=
200804061600 METAR LMML NIL=
200804061545 METAR LMML 061545Z 21008KT 170V270 9999 FEW020 16/12 Q1012
                        NOSIG=
200804061530 METAR LMML NIL=
200804061515 METAR LMML 061515Z 21008KT 170V270 9999 FEW030 17/10 Q1012
                        NOSIG=
200804061500 METAR LMML NIL=
200804061445 METAR LMML 061445Z 23010KT 190V270 CAVOK 17/09 Q1012 NOSIG=
200804061430 METAR LMML NIL=
200804061415 METAR LMML 061415Z 24010KT 200V290 CAVOK 17/07 Q1012 NOSIG=
200804061400 METAR LMML NIL=
200804061345 METAR LMML 061345Z 24011KT 200V280 CAVOK 17/07 Q1013 NOSIG=
200804061330 METAR LMML NIL=
200804061315 METAR LMML 061315Z 24010KT 190V290 CAVOK 17/07 Q1012 NOSIG=
200804061300 METAR LMML NIL=
200804061245 METAR LMML 061245Z 25011KT 210V290 CAVOK 17/06 Q1013 NOSIG=
200804061230 METAR LMML NIL=
200804061215 METAR LMML 061215Z 24011KT 200V280 9999 FEW033 17/06 Q1013
                        NOSIG=
200804061200 METAR LMML NIL=
200804061145 METAR LMML 061145Z 26012KT 180V300 9999 FEW033 17/06 Q1013
                        NOSIG=
200804061130 METAR LMML NIL=
200804061115 METAR LMML 061115Z 27013KT 230V310 9999 FEW033 17/07 Q1013
                        NOSIG=
200804061100 METAR LMML NIL=
200804061045 METAR LMML 061045Z 26014KT 230V310 9999 SCT033 16/08 Q1013
                        NOSIG=
200804061030 METAR LMML NIL=
200804061015 METAR LMML 061015Z 27013KT 230V300 9999 SCT033 16/08 Q1013
                        NOSIG=
200804061000 METAR LMML NIL=
200804060945 METAR LMML 060945Z 28015KT 250V310 9999 SCT031 17/10 Q1013
                        NOSIG=
200804060930 METAR LMML NIL=
200804060915 METAR LMML 060915Z 27014KT 230V310 9999 SCT031 16/09 Q1013
                        NOSIG=
200804060900 METAR LMML NIL=
200804060845 METAR LMML 060845Z 27016KT 230V300 9999 SCT028 16/08 Q1013
                        NOSIG=
200804060830 METAR LMML NIL=
200804060815 METAR LMML 060815Z 28015KT 240V310 9999 SCT028 15/09 Q1013
                        NOSIG=
200804060800 METAR LMML NIL=
200804060745 METAR LMML 060745Z 28014KT 250V310 9999 SCT026 15/10 Q1012
                        NOSIG=
200804060730 METAR LMML NIL=
200804060715 METAR LMML 060715Z 27013KT 240V310 9999 SCT025 15/10 Q1012
                        NOSIG=
200804060700 METAR LMML NIL=
200804060645 METAR LMML 060645Z 29014KT 250V310 9999 SCT022 15/10 Q1011
                        NOSIG=
200804060630 METAR LMML NIL=
200804060615 METAR LMML 060615Z 28014KT 9999 FEW022 14/11 Q1011 NOSIG=
200804060600 METAR LMML NIL=
200804060545 METAR LMML 060545Z 29013KT 260V320 9999 FEW023 14/10 Q1011
                        NOSIG=
200804060515 METAR LMML 060515Z 29011KT 9999 FEW023 13/10 Q1011 NOSIG=
200804060500 METAR LMML NIL=
200804060445 METAR LMML 060445Z 29013KT 9999 FEW023 13/10 Q1010 NOSIG=
200804060430 METAR LMML NIL=
200804060415 METAR LMML 060415Z 29014KT 9999 FEW024 13/10 Q1010 NOSIG=
200804060400 METAR LMML NIL=
200804060345 METAR LMML 060345Z 28013KT 9999 SCT023 13/10 Q1010 NOSIG=
200804060330 METAR LMML NIL=
200804060315 METAR LMML 060315Z 28012KT 9999 SCT023 14/10 Q1010 NOSIG=
200804060300 METAR LMML NIL=
200804060245 METAR LMML 060245Z 28012KT 9999 SCT024 13/10 Q1010 NOSIG=
200804060230 METAR LMML NIL=
200804060215 METAR LMML 060215Z 29014KT 260V320 9999 FEW027 13/09 Q1010
                        NOSIG=
200804060200 METAR LMML NIL=
200804060145 METAR LMML 060145Z 28015KT 250V310 9999 FEW029 13/09 Q1010
                        NOSIG=
200804060130 METAR LMML NIL=
200804060115 METAR LMML 060115Z 28014KT 9999 FEW028 13/09 Q1010 NOSIG=
200804060100 METAR LMML NIL=
200804060045 METAR LMML 060045Z 29015KT 250V320 9999 FEW031 13/08 Q1010
                        NOSIG=
200804060030 METAR LMML NIL=
200804060015 METAR LMML 060015Z 29013KT 9999 FEW038 13/07 Q1011 NOSIG=
200804060000 METAR LMML NIL=
200804052345 METAR LMML 052345Z 29012KT 9999 FEW034 13/07 Q1011 NOSIG=
200804052330 METAR LMML NIL=
200804052315 METAR LMML 052315Z 30014KT 9999 FEW025 13/07 Q1011 NOSIG=
200804052300 METAR LMML NIL=
200804052245 METAR LMML 052245Z 30014KT 9999 FEW025 13/08 Q1011 NOSIG=
200804052230 METAR LMML NIL=
200804052215 METAR LMML 052215Z 31012KT 9999 FEW027 13/08 Q1011 NOSIG=
200804052200 METAR LMML NIL=
200804052145 METAR LMML 052145Z 30011KT 9999 FEW030 13/09 Q1011 NOSIG=
200804052115 METAR LMML 052115Z 30012KT 270V330 9999 FEW030 13/09 Q1011
                        NOSIG=
200804052100 METAR LMML NIL=
200804052045 METAR LMML 052045Z 31014KT 9999 FEW030 13/08 Q1011 NOSIG=
200804052030 METAR LMML NIL=
200804052015 METAR LMML 052015Z 30011KT 9999 FEW030 13/09 Q1010 NOSIG=
200804052000 METAR LMML NIL=
200804051945 METAR LMML 051945Z 31014KT 9999 FEW030 13/09 Q1010 NOSIG=
200804051930 METAR LMML NIL=
200804051915 METAR LMML 051915Z 30014KT 9999 FEW030 14/09 Q1010 NOSIG=
200804051845 METAR LMML 051845Z 30014KT 9999 FEW030 14/10 Q1010 NOSIG=
200804051830 METAR LMML NIL=
200804051815 METAR LMML 051815Z 30013KT 9999 FEW030 14/09 Q1009 NOSIG=
200804051800 METAR LMML NIL=
200804051745 METAR LMML 051745Z 30017KT 9999 FEW030 14/09 Q1009 NOSIG=
200804051730 METAR LMML NIL=
200804051715 METAR LMML 051715Z 30015KT 9999 FEW030 15/09 Q1009 NOSIG=
200804051700 METAR LMML NIL=
200804051645 METAR LMML 051645Z 30017KT 9999 FEW035 15/09 Q1009 NOSIG=
200804051630 METAR LMML NIL=
200804051615 METAR LMML 051615Z 31015KT 280V340 9999 FEW034 16/08 Q1009
                        NOSIG=
200804051545 METAR LMML 051545Z 32015KT 9999 FEW034 16/08 Q1009 NOSIG=
200804051530 METAR LMML NIL=
200804051515 METAR LMML 051515Z 31013KT 280V340 9999 FEW035 16/09 Q1008
                        NOSIG=
200804051500 METAR LMML NIL=
200804051445 METAR LMML 051445Z 32012KT 9999 FEW035 16/08 Q1008 NOSIG=
200804051430 METAR LMML NIL=
200804051415 METAR LMML 051415Z 31013KT 260V350 9999 FEW035 17/08 Q1008
                        NOSIG=
200804051400 METAR LMML NIL=
200804051345 METAR LMML 051345Z 32013KT 300V360 9999 FEW030 17/08 Q1008
                        NOSIG=
200804051330 METAR LMML NIL=
200804051315 METAR LMML 051315Z 33016KT 310V010 9999 FEW031 16/06 Q1008
                        NOSIG=
200804051300 METAR LMML NIL=
200804051245 METAR LMML 051245Z 33013KT 9999 FEW031 16/07 Q1009 NOSIG=
200804051230 METAR LMML NIL=
200804051215 METAR LMML 051215Z 33014KT 300V010 9999 FEW031 16/07 Q1009
                        NOSIG=
200804051200 METAR LMML NIL=
200804051145 METAR LMML 051145Z 33014KT 9999 FEW031 16/06 Q1009 NOSIG=
200804051130 METAR LMML NIL=
200804051115 METAR LMML 051115Z 32013KT 270V350 9999 FEW031 16/08 Q1009
                        NOSIG=
200804051100 METAR LMML NIL=
200804051045 METAR LMML 051045Z 32012KT 290V350 9999 FEW029 16/08 Q1009
                        NOSIG=
200804051030 METAR LMML NIL=
200804051015 METAR LMML 051015Z 32011KT 280V350 9999 SCT029 16/09 Q1009
                        NOSIG=
200804051000 METAR LMML NIL=
200804050945 METAR LMML 050945Z 32008KT 9999 BKN028 14/09 Q1009 NOSIG=
200804050930 METAR LMML NIL=
200804050915 METAR LMML 050915Z 32008KT 280V350 9999 BKN028 14/08 Q1009
                        NOSIG=
200804050900 METAR LMML NIL=
200804050845 METAR LMML 050845Z 31009KT 280V340 9999 FEW034 16/08 Q1009
                        NOSIG=
200804050830 METAR LMML NIL=
200804050815 METAR LMML 050815Z 30008KT 270V350 9999 FEW029 15/07 Q1009
                        NOSIG=
200804050800 METAR LMML NIL=
200804050745 METAR LMML 050745Z 32008KT 280V340 9999 FEW029 15/09 Q1010
                        NOSIG=
200804050730 METAR LMML NIL=
200804050715 METAR LMML 050715Z 33008KT 280V360 9999 FEW025 14/08 Q1010
                        NOSIG=
200804050700 METAR LMML NIL=
200804050645 METAR LMML 050645Z 33008KT 9999 FEW025 14/09 Q1009 NOSIG=
200804050630 METAR LMML NIL=
200804050615 METAR LMML 050615Z 32007KT 9999 FEW025 13/08 Q1009 NOSIG=
200804050600 METAR LMML NIL=
200804050545 METAR LMML 050545Z 30007KT 9999 FEW025 12/08 Q1009 NOSIG=
200804050530 METAR LMML NIL=
200804050515 METAR LMML 050515Z 29006KT 9999 FEW025 11/08 Q1009 NOSIG=
200804050500 METAR LMML NIL=
200804050445 METAR LMML 050445Z 29007KT 9999 FEW025 10/08 Q1009 NOSIG=
200804050430 METAR LMML NIL=
200804050415 METAR LMML 050415Z 29006KT 9999 FEW025 11/08 Q1009 NOSIG=
200804050400 METAR LMML NIL=
200804050345 METAR LMML 050345Z 29008KT 9999 FEW025 11/08 Q1009 NOSIG=
200804050330 METAR LMML NIL=
200804050315 METAR LMML 050315Z 29006KT 9999 FEW025 11/08 Q1009 NOSIG=
200804050300 METAR LMML NIL=
200804050245 METAR LMML 050245Z 29006KT 9999 FEW025 11/08 Q1009 NOSIG=
200804050230 METAR LMML NIL=
200804050215 METAR LMML 050215Z 30007KT 9999 FEW025 11/08 Q1009 NOSIG=
200804050200 METAR LMML NIL=
200804050145 METAR LMML 050145Z 30008KT 9999 FEW025 11/08 Q1009 NOSIG=
200804050130 METAR LMML NIL=
200804050115 METAR LMML 050115Z 31009KT 9999 FEW025 11/08 Q1009 NOSIG=
200804050100 METAR LMML NIL=
200804050045 METAR LMML 050045Z 30008KT 9999 FEW024 12/08 Q1009 NOSIG=
200804050030 METAR LMML NIL=
200804050015 METAR LMML 050015Z 30008KT CAVOK 12/08 Q1009 NOSIG=
200804050000 METAR LMML NIL=
200804042345 METAR LMML 042345Z 30008KT CAVOK 12/08 Q1010 NOSIG=
200804042330 METAR LMML NIL=
200804042315 METAR LMML 042315Z 30008KT CAVOK 12/08 Q1010 NOSIG=
200804042300 METAR LMML NIL=
200804042245 METAR LMML 042245Z 30008KT 270V330 CAVOK 12/08 Q1010 NOSIG=
200804042230 METAR LMML NIL=
200804042215 METAR LMML 042215Z 30009KT CAVOK 12/08 Q1010 NOSIG=
200804042200 METAR LMML NIL=
200804042145 METAR LMML 042145Z 30009KT 9999 FEW028 13/08 Q1010 NOSIG=
200804042130 METAR LMML NIL=
200804042115 METAR LMML 042115Z 28009KT 9999 FEW028 12/08 Q1010 NOSIG=
200804042100 METAR LMML NIL=
200804042045 METAR LMML 042045Z 29012KT 9999 FEW029 13/08 Q1011 NOSIG=
200804042030 METAR LMML NIL=
200804042015 METAR LMML 042015Z 29009KT 9999 FEW029 13/07 Q1011 NOSIG=
200804041945 METAR LMML 041945Z 28008KT 9999 FEW032 13/08 Q1011 NOSIG=
200804041930 METAR LMML NIL=
200804041915 METAR LMML 041915Z 29009KT 9999 FEW030 13/08 Q1011 NOSIG=
200804041900 LMML NIL=
200804041845 LMML 041845Z 30008KT 270V330 9999 FEW029 FEW115 13/08 Q1011
                        NOSIG=
200804041830 METAR LMML NIL=
200804041815 METAR LMML 041815Z 29010KT 9999 FEW025 13/08 Q1011 NOSIG=
200804041800 METAR LMML NIL=
200804041745 METAR LMML 041745Z 30010KT 270V330 9999 FEW025 14/07 Q1010
                        NOSIG=
200804041730 METAR LMML NIL=
200804041715 METAR LMML 041715Z 30013KT 9999 FEW025 14/08 Q1010 NOSIG=
200804041700 METAR LMML NIL=
200804041645 METAR LMML 041645Z 30016KT 9999 FEW025 15/07 Q1010 NOSIG=
200804041630 METAR LMML NIL=
200804041615 METAR LMML 041615Z 30017KT 9999 FEW025 16/07 Q1010 NOSIG=
200804041600 METAR LMML NIL=
200804041545 METAR LMML 041545Z 30019KT 9999 FEW030 16/07 Q1010 NOSIG=
200804041530 METAR LMML NIL=
200804041515 METAR LMML 041515Z 30015KT 9999 FEW030 17/08 Q1010 NOSIG=
200804041500 METAR LMML NIL=
200804041445 METAR LMML 041445Z 31019KT 9999 FEW030 SCT250 17/09 Q1010
                        NOSIG=
200804041430 METAR LMML NIL=
200804041415 METAR LMML 041415Z 30019KT 9999 FEW030 SCT250 17/08 Q1010
                        NOSIG=
200804041400 LMML NIL=
200804041345 METAR LMML 041345Z 30017KT 260V340 9999 FEW030 SCT110 17/07
                        Q1010 NOSIG=
200804041330 METAR LMML NIL=
200804041315 METAR LMML 041315Z 30016KT 9999 FEW030 SCT090 18/07 Q1010
                        NOSIG=
200804041300 METAR LMML NIL=
200804041245 METAR LMML 041245Z 29014KT 9999 FEW030 BKN080 17/07 Q1011
                        NOSIG=
200804041230 METAR LMML NIL=
200804041215 METAR LMML 041215Z 32013KT 9999 FEW040 BKN080 17/05 Q1011
                        NOSIG=
200804041200 METAR LMML NIL=
200804041145 METAR LMML 041145Z 29011KT 9999 FEW034 BKN080 17/10 Q1011
                        NOSIG=
200804041130 METAR LMML NIL=
200804041115 METAR LMML 041115Z 29013KT 9999 FEW030 BKN080 17/11 Q1011
                        NOSIG=
200804041100 METAR LMML NIL=
200804041045 METAR LMML 041045Z 28012KT 240V320 9999 FEW028 BKN080 17/10
                        Q1011 NOSIG=
200804041030 METAR LMML NIL=
200804041015 METAR LMML 041015Z 28012KT 230V310 9999 SCT025 SCT080 18/12
                        Q1011 NOSIG=
200804040945 METAR LMML 040945Z 29011KT 250V320 9999 SCT022 SCT090 17/12
                        Q1011 NOSIG=
200804040930 METAR LMML NIL=
200804040915 METAR LMML 040915Z 30012KT 270V330 9999 SCT020 SCT090 17/12
                        Q1011 NOSIG=
200804040900 METAR LMML NIL=
200804040845 METAR LMML 040845Z 27012KT 230V300 9999 SCT018 16/13 Q1011
                        NOSIG=
200804040830 METAR LMML NIL=
200804040815 METAR LMML 040815Z 27010KT 230V300 9999 SCT017 SCT080 16/13
                        Q1011 NOSIG=
200804040800 METAR LMML NIL=
200804040745 METAR LMML 040745Z 26010KT 220V300 9999 FEW017 SCT060 BKN080
                        15/13 Q1011 NO SIG=
200804040730 METAR LMML NIL=
200804040715 METAR LMML 040715Z 25009KT 220V290 9999 FEW018 SCT060 BKN080
                        15/13 Q1011 NO SIG=
200804040700 METAR LMML NIL=
200804040645 METAR LMML 040645Z 26010KT 220V300 9000 FEW014 SCT050 BKN080
                        14/13 Q1011 NO SIG=
200804040630 METAR LMML NIL=
200804040615 METAR LMML 040615Z 26009KT 210V290 9000 SCT019 BKN050 14/12
                        Q1011 BECMG 999 9=
200804040600 METAR LMML NIL=
200804040545 METAR LMML 040545Z 27009KT 230V310 9000 FEW017 BKN060 14/12
                        Q1011 NOSIG=
200804040530 METAR LMML NIL=
200804040515 METAR LMML 040515Z 27010KT 230V300 9000 FEW021 SCT060 BKN090
                        14/12 Q1011 TE MPO 8000 SHRA BKN015=
200804040500 METAR LMML NIL=
200804040445 METAR LMML 040445Z 26004KT 230V290 9000 SCT016 BKN070 14/13
                        Q1011 TEMPO 800 0 SHRA BKN015=
200804040430 METAR LMML NIL=
200804040415 METAR LMML 040415Z 26006KT 9000 FEW019 SCT060 BKN070 13/12
                        Q1011 TEMPO 8000 SHRA BKN015=
200804040400 METAR LMML NIL=
200804040345 METAR LMML 040345Z 27005KT 220V320 9000 FEW016 BKN070 14/13
                        Q1011 TEMPO 800 0 SHRA BKN015=
200804040330 METAR LMML NIL=
200804040315 METAR LMML 040315Z 27004KT 220V320 9000 FEW016 BKN036 13/13
                        Q1011 TEMPO 800 0 SHRA=
200804040300 METAR LMML NIL=
200804040245 METAR LMML 040245Z 28005KT 240V300 9000 FEW018 SCT070 13/12
                        Q1011 TEMPO 800 0 SHRA=
200804040230 METAR LMML NIL=
200804040215 METAR LMML 040215Z 28008KT 9000 FEW018 13/12 Q1011 NOSIG=
200804040145 METAR LMML 040145Z 29008KT 9000 FEW018 13/12 Q1011 NOSIG=
200804040130 METAR LMML NIL=
200804040115 METAR LMML 040115Z 28006KT 240V310 9000 FEW018 13/12 Q1012
                        NOSIG=
200804040100 METAR LMML NIL=
200804040045 METAR LMML 040045Z 28006KT 9000 FEW018 13/12 Q1012 NOSIG=
200804040030 METAR LMML NIL=
200804040015 METAR LMML 040015Z 29009KT 9000 FEW016 13/12 Q1012 NOSIG=
200804040000 METAR LMML NIL=
200804032345 METAR LMML 032345Z 29005KT 260V330 9000 SCT017 13/12 Q1013
                        NOSIG=
200804032330 METAR LMML NIL=
200804032315 METAR LMML 032315Z 30011KT 9000 FEW017 13/12 Q1013 NOSIG=
200804032300 METAR LMML NIL=
200804032245 METAR LMML 032245Z 32005KT 290V020 9000 FEW015 13/12 Q1013
                        NOSIG=
200804032215 METAR LMML 032215Z 28013KT 9000 FEW015 14/12 Q1013 NOSIG=
200804032145 METAR LMML 032145Z 30006KT 270V330 9000 FEW017 14/12 Q1013
                        NOSIG=
200804032130 METAR LMML NIL=
200804032115 METAR LMML 032115Z 28011KT 9000 SKC 14/12 Q1013 NOSIG=
200804032100 METAR LMML NIL=
200804032045 METAR LMML 032045Z 28009KT 250V310 9000 SKC 14/12 Q1014 NOSIG=
200804032030 METAR LMML NIL=
200804032015 METAR LMML 032015Z 29012KT 9000 FEW017 14/12 Q1014 NOSIG=
200804032000 METAR LMML NIL=
200804031945 METAR LMML 031945Z 28016KT 9000 FEW017 14/12 Q1013 NOSIG=
200804031930 METAR LMML NIL=
200804031915 METAR LMML 031915Z 27013KT 230V300 9000 FEW017 14/12 Q1013
                        NOSIG=
200804031900 METAR LMML NIL=
200804031845 METAR LMML 031845Z 27014KT 230V300 9000 FEW017 15/12 Q1013
                        NOSIG=
200804031830 METAR LMML NIL=
200804031815 METAR LMML 031815Z 28012KT 250V310 9000 SCT017 14/13 Q1012
                        NOSIG=
200804031745 METAR LMML 031745Z 28012KT 230V320 9000 FEW017 15/12 Q1012
                        NOSIG=
200804031730 METAR LMML NIL=
200804031715 METAR LMML 031715Z 27012KT 240V300 9000 FEW016 15/12 Q1012
                        NOSIG=
200804031700 METAR LMML NIL=
200804031645 METAR LMML 031645Z 29015KT 260V320 9000 FEW016 15/13 Q1012
                        NOSIG=
200804031630 METAR LMML NIL=
200804031615 METAR LMML 031615Z 28017KT 9000 SCT016 15/12 Q1011 NOSIG=
200804031600 METAR LMML NIL=
200804031545 METAR LMML 031545Z 27015KT 240V310 9000 FEW016 16/13 Q1011
                        TEMPO 8000=
200804031530 METAR LMML NIL=
200804031515 METAR LMML 031515Z 28018KT 230V320 9999 BKN018 16/12 Q1011
                        TEMPO 8000=
200804031500 METAR LMML NIL=
200804031445 METAR LMML 031445Z 28017KT 9999 BKN018 16/13 Q1011 TEMPO
                        8000=
200804031430 METAR LMML NIL=
200804031415 METAR LMML 031415Z 28017KT 250V320 9999 BKN019 16/12 Q1012
                        TEMPO 8000=
200804031400 METAR LMML NIL=
200804031345 METAR LMML 031345Z 28018KT 250V310 9999 BKN021 17/12 Q1012
                        NOSIG=
200804031330 METAR LMML NIL=
200804031315 METAR LMML 031315Z 28019KT 250V320 9999 BKN020 17/12 Q1012
                        NOSIG=
200804031300 METAR LMML NIL=
200804031245 METAR LMML 031245Z 28019KT 240V310 9999 SCT019 BKN060 17/13
                        Q1012 NOSIG=
200804031230 METAR LMML NIL=
200804031215 METAR LMML 031215Z 28021KT 260V320 9999 SCT018 BKN060 17/13
                        Q1013 NOSIG=
200804031200 METAR LMML NIL=
200804031145 METAR LMML 031145Z 27019G30KT 230V300 9999 SCT018 BKN060
                        16/13 Q1013 NOSIG=
200804031130 METAR LMML NIL=
200804031115 METAR LMML 031115Z 28017KT 250V310 9999 SCT019 BKN060 16/13
                        Q1013 NOSIG=
200804031100 METAR LMML NIL=
200804031045 METAR LMML 031045Z 27016G26KT 230V310 9999 SCT019 BKN060
                        16/12 Q1013 NOSIG=
200804031015 METAR LMML 031015Z 26017KT 220V310 9999 SCT020 BKN060 16/12
                        Q1014 NOSIG=
200804031000 METAR LMML NIL=
200804030945 METAR LMML 030945Z 27018G29KT 230V300 9999 SCT022 BKN060
                        16/12 Q1014 NOSIG=
200804030930 METAR LMML NIL=
200804030915 METAR LMML 030915Z 26022G32KT 210V290 9999 BKN020 BKN070
                        16/12 Q1014 NOSIG=
200804030900 METAR LMML NIL=
200804030845 METAR LMML 030845Z 26022KT 230V300 9999 BKN020 BKN070 15/12
                        Q1014 NOSIG=
200804030830 METAR LMML NIL=
200804030815 METAR LMML 030815Z 26019G30KT 210V300 9999 SCT018 BKN070
                        15/13 Q1014 NOSIG=
200804030800 METAR LMML NIL=
200804030745 METAR LMML 030745Z 27019KT 230V310 9999 BKN018 OVC070 15/12
                        Q1013 NOSIG=
200804030730 METAR LMML NIL=
200804030715 METAR LMML 030715Z 27017KT 230V300 9999 -SHRA BKN017 BKN070
                        15/13 Q1013 NOS IG=
200804030700 METAR LMML NIL=
200804030645 METAR LMML 030645Z 26017KT 210V300 9999 BKN018 BKN070 14/13
                        Q1013 NOSIG=
200804030630 METAR LMML NIL=
200804030615 METAR LMML 030615Z 27016KT 7000 -SHRA BKN014 BKN019 14/13
                        Q1013 NOSIG=
200804030602 LMML 030602Z 26016KT 230V300 6000 SHRA BKN011 14/13 Q1014
                        NOSIG=
200804030600 METAR LMML NIL=
200804030545 METAR LMML 030545Z 27015G25KT 220V300 4000 SHRA SCT011 BKN016
                        14/13 Q1013 N OSIG=
200804030530 METAR LMML NIL=
200804030515 METAR LMML 030515Z 27011KT 240V300 6000 SHRA BKN018 SCT050
                        14/12 Q1013 TEMP O 3000 SHRA=
200804030500 METAR LMML NIL=
200804030445 METAR LMML 030445Z 28012KT 240V300 9999 SCT018 SCT048 14/12
                        Q1013 NOSIG=
200804030430 METAR LMML NIL=
200804030415 METAR LMML 030415Z 29011KT 9999 FEW020 BKN050 14/12 Q1013
                        NOSIG=
200804030400 METAR LMML NIL=
200804030345 METAR LMML 030345Z 28013KT 250V310 9999 SCT019 BKN050 14/12
                        Q1014 NOSIG=
200804030330 METAR LMML NIL=
200804030315 METAR LMML 030315Z 27014KT 240V300 9999 FEW024 BKN050 14/11
                        Q1014 NOSIG=
200804030300 METAR LMML NIL=
200804030245 METAR LMML 030245Z 28012KT 250V310 9999 FEW021 BKN041 14/11
                        Q1014 NOSIG=
200804030230 METAR LMML NIL=
200804030215 METAR LMML 030215Z 28010KT 240V310 9999 FEW019 SCT038 14/12
                        Q1014 NOSIG=
200804030200 METAR LMML NIL=
200804030145 METAR LMML 030145Z 26007KT 230V300 9999 FEW019 SCT039 14/12
                        Q1015 NOSIG=
200804030130 METAR LMML NIL=
200804030115 METAR LMML 030115Z 27010KT 240V300 9999 SCT019 14/12 Q1015
                        NOSIG=
200804030100 METAR LMML NIL=
200804030045 METAR LMML 030045Z 29015KT 270V330 9999 FEW024 14/11 Q1016
                        NOSIG=
200804030030 METAR LMML NIL=
200804030015 METAR LMML 030015Z 29015KT 9999 FEW015 14/11 Q1016 NOSIG=
200804030000 METAR LMML NIL=
200804022345 METAR LMML 022345Z 30014KT 9999 FEW016 14/12 Q1016 NOSIG=
200804022330 METAR LMML NIL=
200804022315 METAR LMML 022315Z 30016KT 9999 FEW016 14/12 Q1016 NOSIG=
200804022300 METAR LMML NIL=
200804022245 METAR LMML 022245Z 31015KT 9999 FEW017 14/12 Q1016 NOSIG=
200804022230 METAR LMML NIL=
200804022215 METAR LMML 022215Z 30016KT 9999 FEW014 14/12 Q1017 NOSIG=
200804022200 METAR LMML NIL=
200804022145 METAR LMML 022145Z 31014KT 9999 FEW015 14/13 Q1017 NOSIG=
200804022130 METAR LMML NIL=
200804022115 METAR LMML 022115Z 30015KT CAVOK 14/13 Q1017 NOSIG=
200804022100 METAR LMML NIL=
200804022045 METAR LMML 022045Z 29015KT CAVOK 15/13 Q1017 NOSIG=
200804022030 METAR LMML NIL=
200804022015 METAR LMML 022015Z 29011KT CAVOK 15/11 Q1017 NOSIG=
200804022000 METAR LMML NIL=
200804021945 METAR LMML 021945Z 29010KT 9999 FEW015 14/12 Q1017 NOSIG=
200804021930 METAR LMML NIL=
200804021915 METAR LMML 021915Z 29011KT 9999 FEW015 15/13 Q1017 NOSIG=
200804021900 METAR LMML NIL=
200804021845 METAR LMML 021845Z 28012KT 9999 FEW015 15/13 Q1017 NOSIG=
200804021830 METAR LMML NIL=
200804021815 METAR LMML 021815Z 28009KT 9999 FEW015 15/13 Q1016 NOSIG=
200804021800 METAR LMML NIL=
200804021745 METAR LMML 021745Z 28009KT 9999 FEW015 15/12 Q1016 NOSIG=
200804021730 METAR LMML NIL=
200804021715 METAR LMML 021715Z 28007KT 240V300 CAVOK 15/09 Q1016 NOSIG=
200804021700 METAR LMML NIL=
200804021645 METAR LMML 021645Z 28008KT 240V300 CAVOK 16/08 Q1016 NOSIG=
200804021630 METAR LMML NIL=
200804021615 METAR LMML 021615Z 28008KT 240V330 CAVOK 16/08 Q1016 NOSIG=
200804021600 METAR LMML NIL=
200804021545 METAR LMML 021545Z 28010KT 250V320 CAVOK 17/09 Q1016 NOSIG=
200804021530 METAR LMML NIL=
200804021515 METAR LMML 021515Z 29009KT 260V330 CAVOK 17/09 Q1016 NOSIG=
200804021500 METAR LMML NIL=
200804021445 METAR LMML 021445Z 32007KT 290V020 9999 FEW028 17/08 Q1016
                        NOSIG=
200804021430 METAR LMML NIL=
200804021415 METAR LMML 021415Z 33009KT 300V360 9999 FEW028 17/09 Q1016
                        NOSIG=
200804021400 METAR LMML NIL=
200804021345 METAR LMML 021345Z 32006KT 280V360 9999 FEW028 17/09 Q1016
                        NOSIG=
200804021330 METAR LMML NIL=
200804021315 METAR LMML 021315Z 32007KT 280V350 9999 FEW028 17/09 Q1016
                        NOSIG=
200804021300 METAR LMML NIL=
200804021245 METAR LMML 021245Z 34008KT 300V020 9999 FEW028 17/10 Q1016
                        NOSIG=
200804021230 METAR LMML NIL=
200804021215 METAR LMML 021215Z 33010KT 300V010 9999 FEW030 17/10 Q1016
                        NOSIG=
200804021145 METAR LMML 021145Z 34012KT 300V010 9999 FEW030 SCT060 16/09
                        Q1017 NOSIG=
200804021130 METAR LMML NIL=
200804021115 METAR LMML 021115Z 35010KT 320V020 9999 SCT027 SCT060 17/11
                        Q1017 TEMPO 800 0 SHRA SCT015=
200804021100 METAR LMML NIL=
200804021045 METAR LMML 021045Z 33012KT 300V360 9999 FEW020 BKN047 16/11
                        Q1017 TEMPO 800 0 SHRA SCT015=
200804021030 METAR LMML NIL=
200804021015 METAR LMML 021015Z 33010KT 310V010 9999 FEW018 BKN044 15/11
                        Q1017 TEMPO 800 0 SHRA SCT015=
200804021000 METAR LMML NIL=
200804020945 METAR LMML 020945Z 33010KT 300V360 9999 FEW017 BKN050 15/12
                        Q1017 TEMPO 800 0 SHRA SCT015=
200804020930 METAR LMML NIL=
200804020915 METAR LMML 020915Z 33009KT 300V360 9999 -RA SCT022 BKN048
                        13/12 Q1017 TEMPO 8000 SHRA SCT015=
200804020900 METAR LMML NIL=
200804020845 METAR LMML 020845Z 34010KT 310V010 9999 BKN021 BKN035 14/10
                        Q1017 TEMPO 800 0 SHRA SCT015=
200804020830 METAR LMML NIL=
200804020815 METAR LMML 020815Z 33009KT 9999 SCT019 BKN037 14/10 Q1017
                        TEMPO 8000 SHRA S CT015=
200804020800 METAR LMML NIL=
200804020745 METAR LMML 020745Z 33007KT 9999 -RA FEW018 OVC060 13/11 Q1016
                        NOSIG=
200804020730 METAR LMML NIL=
200804020715 METAR LMML 020715Z 32007KT 9999 FEW028 BKN060 14/10 Q1016
                        NOSIG=
200804020700 METAR LMML NIL=
200804020645 METAR LMML 020645Z 34007KT 300V360 9999 SCT020 BKN060 13/11
                        Q1016 NOSIG=
200804020630 METAR LMML NIL=
200804020615 METAR LMML 020615Z 31004KT 9999 FEW019 BKN060 13/11 Q1015
                        NOSIG=
200804020600 METAR LMML NIL=
200804020545 METAR LMML 020545Z 30005KT 9999 FEW020 SCT050 BKN110 12/11
                        Q1015 NOSIG=
200804020530 METAR LMML NIL=
200804020515 METAR LMML 020515Z 31004KT 9999 FEW020 SCT050 BKN110 11/11
                        Q1014 NOSIG=
200804020500 METAR LMML NIL=
200804020445 METAR LMML 020445Z 31005KT 9999 FEW017 SCT050 11/11 Q1014
                        NOSIG=
200804020430 METAR LMML NIL=
200804020415 METAR LMML 020415Z 33004KT 9999 FEW016 BKN037 12/11 Q1014
                        NOSIG=
200804020400 METAR LMML NIL=
200804020345 METAR LMML 020345Z VRB03KT 9999 FEW016 BKN038 12/11 Q1014
                        NOSIG=
200804020330 METAR LMML NIL=
200804020315 METAR LMML 020315Z VRB02KT 9999 FEW016 SCT039 12/11 Q1014
                        NOSIG=
200804020300 METAR LMML NIL=
200804020245 METAR LMML 020245Z VRB02KT 9999 SCT017 12/11 Q1014 NOSIG=
200804020230 METAR LMML NIL=
200804020215 METAR LMML 020215Z 03004KT 9999 SCT020 12/10 Q1013 NOSIG=
200804020200 METAR LMML NIL=
200804020145 METAR LMML 020145Z VRB03KT 9999 SCT020 12/10 Q1014 NOSIG=
200804020130 METAR LMML NIL=
200804020115 METAR LMML 020115Z 05004KT 020V080 9999 SCT020 12/11 Q1014
                        NOSIG=
200804020045 METAR LMML 020045Z 04005KT 360V080 9999 SCT018 13/11 Q1014
                        NOSIG=
200804020030 METAR LMML NIL=
200804020015 METAR LMML 020015Z 03004KT 340V080 9999 SCT017 12/11 Q1014
                        NOSIG=
200804020000 METAR LMML NIL=
200804012345 METAR LMML 012345Z 01004KT 9999 FEW017 12/10 Q1014 NOSIG=
200804012330 METAR LMML NIL=
200804012315 METAR LMML 012315Z VRB03KT 9999 FEW015 12/10 Q1014 NOSIG=
200804012300 METAR LMML NIL=
200804012245 METAR LMML 012245Z 03004KT 350V070 9999 FEW020 12/10 Q1014
                        NOSIG=
200804012230 METAR LMML NIL=
200804012215 METAR LMML 012215Z 02005KT 350V050 9999 FEW020 12/11 Q1013
                        NOSIG=
200804012200 METAR LMML NIL=
200804012145 METAR LMML 012145Z 01005KT 9999 FEW020 12/10 Q1013 NOSIG=
200804012130 METAR LMML NIL=
200804012115 METAR LMML 012115Z 01005KT 9999 FEW019 12/10 Q1013 NOSIG=
200804012100 METAR LMML NIL=
200804012045 METAR LMML 012045Z 36004KT 9999 FEW020 SCT090 12/10 Q1013
                        NOSIG=
200804012030 METAR LMML NIL=
200804012015 METAR LMML 012015Z VRB03KT 9999 FEW020 SCT090 12/09 Q1013
                        NOSIG=
200804012000 METAR LMML NIL=
200804011945 METAR LMML 011945Z VRB02KT 9999 FEW025 11/09 Q1013 NOSIG=
200804011930 METAR LMML NIL=
200804011915 METAR LMML 011915Z 33004KT 290V030 9999 FEW025 12/08 Q1013
                        NOSIG=
200804011900 METAR LMML NIL=
200804011845 METAR LMML 011845Z VRB03KT 9999 FEW025 12/09 Q1013 NOSIG=
200804011815 METAR LMML 011815Z 26004KT 230V300 9999 FEW025 SCT250 12/09
                        Q1012 NOSIG=
200804011800 METAR LMML NIL=
200804011745 METAR LMML 011745Z 25004KT 220V280 9999 FEW025 SCT250 13/09
                        Q1012 NOSIG=
200804011730 METAR LMML NIL=
200804011715 METAR LMML 011715Z 26004KT 230V290 9999 FEW025 13/09 Q1012
                        NOSIG=
200804011700 METAR LMML NIL=
200804011645 METAR LMML 011645Z 26005KT 200V300 9999 FEW024 14/09 Q1011
                        NOSIG=
200804011630 METAR LMML NIL=
200804011615 METAR LMML 011615Z 25007KT 200V310 9999 FEW024 15/09 Q1011
                        NOSIG=
200804011600 METAR LMML NIL=
200804011545 METAR LMML 011545Z 25007KT 210V300 9999 FEW024 15/10 Q1011
                        NOSIG=
200804011530 METAR LMML NIL=
200804011515 METAR LMML 011515Z 26010KT 230V300 9999 FEW024 15/10 Q1011
                        NOSIG=
200804011500 METAR LMML NIL=
200804011445 METAR LMML 011445Z 26010KT 220V300 9999 SCT025 15/10 Q1010
                        NOSIG=
200804011430 METAR LMML NIL=
200804011415 METAR LMML 011415Z 26008KT 220V300 9999 SCT022 FEW000 14/11
                        Q1010 NOSIG=
200804011345 METAR LMML 011345Z 26010KT 210V290 9999 SCT023 15/10 Q1010
                        NOSIG=
200804011330 METAR LMML NIL=
200804011315 METAR LMML 011315Z 26010KT 210V310 9999 SCT020 15/10 Q1010
                        NOSIG=
200804011245 METAR LMML 011245Z 26010KT 200V300 9999 SCT018 15/11 Q1010
                        TEMPO 9000 SHRA=
200804011215 METAR LMML 011215Z 28011KT 250V310 9999 -SHRA BKN017 SCT130
                        14/12 Q1010 TEM PO 9000 SHRA=
200804011200 METAR LMML NIL=
200804011145 METAR LMML 011145Z 24008KT 190V290 9999 BKN018 SCT130 15/12
                        Q1010 TEMPO 70 00 SHRA BKN015=
200804011130 METAR LMML NIL=
200804011115 METAR LMML 011115Z 24007KT 9999 SCT017 BKN130 14/12 Q1010
                        TEMPO 7000 SHRA BKN015=
200804011100 METAR LMML NIL=
200804011045 METAR LMML 011045Z 23008KT 200V270 9999 SCT013 BKN130 14/13
                        Q1010 TEMPO 70 00 SHRA BKN015=
200804011030 METAR LMML NIL=
200804011015 METAR LMML 011015Z 15005KT 100V230 9999 -RA BKN011 BKN130
                        13/13 Q1010 TEMPO 7000 SHRA BKN015=
200804011000 METAR LMML NIL=
200804010945 METAR LMML 010945Z 12008KT 9000 -RA BKN012 OVC130 13/12 Q1010
                        TEMPO 7000 S HRA BKN015=
200804010930 METAR LMML NIL=
200804010915 METAR LMML 010915Z 11005KT 040V180 9000 -RA BKN012 OVC130
                        12/12 Q1009 TEMPO 7000 SHRA BKN015=
200804010900 METAR LMML NIL=
200804010845 METAR LMML 010845Z 08006KT 040V130 9000 SCT014 OVC070 12/12
                        Q1009 TEMPO 70 00 SHRA BKN015=
200804010830 METAR LMML NIL=
200804010815 METAR LMML 010815Z 08004KT 9000 FEW016CB SCT019 BKN070 12/12
                        Q1009 TEMPO 7 000 SHRA BKN015=
200804010800 METAR LMML NIL=
200804010745 METAR LMML 010745Z VRB03KT 8000 -TSRA FEW023CB BKN060 12/11
                        Q1009 TEMPO 50 00 TSRA BKN015CB=
200804010715 METAR LMML 010715Z VRB02KT 7000 -TSRA FEW012 FEW040CB BKN060
                        11/11 Q1009 TE MPO TSRA BKN015CB=
200804010700 METAR LMML NIL=
200804010645 METAR LMML 010645Z 23005KT 200V280 5000 -TSRA FEW030CB BKN050
                        12/11 Q1009 T EMPO TSRA BKN015CB=
200804010630 METAR LMML NIL=
200804010627 LMML 010627Z 24008KT 200V270 5000 -TSRA FEW030CB SCT043 OVC060
                        12/11 Q1009 TEMPO TSRA BKN015CB=
200804010615 METAR LMML 010615Z 24006KT 200V280 5000 -RA FEW013 SCT047
                        OVC060 12/11 Q100 9 TEMPO TSRA BKN015CB=
200804010604 LMML 010604Z 24009KT 210V290 5000 -RA BKN011 OVC050 12/11
                        Q1009 TEMPO TSRA BKN015CB=
200804010600 METAR LMML NIL=
200804010545 METAR LMML 010545Z 23012KT 180V280 3000 RA BKN007 OVC027
                        12/12 Q1009 TEMPO TSRA BKN015CB=
200804010530 METAR LMML NIL=
200804010515 METAR LMML 010515Z 29004KT 200V040 6000 -RA BKN006 BKN015
                        14/14 Q1008 TEMPO 5000 TSRA BKN015CB=
200804010500 METAR LMML NIL=
200804010445 METAR LMML 010445Z VRB03KT 9000 RA SCT006 SCT013 BKN024 15/14
                        Q1008 NOSIG=
200804010430 METAR LMML NIL=
200804010415 METAR LMML 010415Z 16010KT 9999 -RA FEW017 SCT037 BKN060
                        15/14 Q1008 TEMPO 8000 RA BKN015=
200804010345 METAR LMML 010345Z 15011KT 9999 -RA SCT025 BKN080 15/15 Q1008
                        TEMPO 8000 RA BKN015=
200804010330 METAR LMML NIL=
200804010315 METAR LMML 010315Z 15008KT 120V180 9999 SCT022 BKN080 16/14
                        Q1008 TEMPO 800 0 RA BKN015=
200804010300 METAR LMML NIL=
200804010245 METAR LMML 010245Z 14009KT 110V170 9999 FEW033 BKN080 16/14
                        Q1008 TEMPO 800 0 RA BKN015=
200804010230 METAR LMML NIL=
200804010215 METAR LMML 010215Z 14009KT 9999 -RA FEW033 BKN080 15/14 Q1008
                        TEMPO 8000 RA BKN015=
200804010200 METAR LMML NIL=
200804010145 METAR LMML 010145Z 13007KT 9999 SCT033 BKN090 15/14 Q1008
                        TEMPO 8000 RA BKN 015=
200804010130 METAR LMML NIL=
200804010115 METAR LMML 010115Z 13005KT 9999 -RA SCT036 BKN080 15/14 Q1009
                        TEMPO 8000 RA BKN015=
200804010100 METAR LMML NIL=
200804010045 METAR LMML 010045Z 15005KT 120V200 9999 FEW020 BKN080 15/14
                        Q1010 TEMPO 800 0 RA BKN015=
200804010015 METAR LMML 010015Z 13006KT 100V160 9999 FEW017 BKN080 15/15
                        Q1010 TEMPO 800 0 RA BKN015=
200804010000 METAR LMML NIL=

###################################
#  short TAF from LMML
###################################
200805012300 TAF LMML 012300Z 020009 04008KT 4000 BR SCT003
                      TEMPO 0006 1500 BCFG BKN001
                      PROB30 TEMPO 0006 0800 FG
                      BECMG 0609 9999 FEW010=
200805012000 TAF LMML 012000Z 012106 03005KT 4000 BR SCT003
                      TEMPO 2106 1500 BCFG BKN001
                      PROB30 TEMPO 2106 0800 FG=
200805011700 TAF LMML 011700Z 011803 04006KT 8000 FEW011
                      TEMPO 1803 5000 BR BKN007
                      PROB30 TEMPO 2103 0800 FG BKN002=
200805011400 TAF LMML 011400Z 011524 04008KT 8000 SCT011
                      TEMPO 1524 BKN007
                      PROB30 TEMPO 1824 3000 BR BKN003=
200805011100 TAF LMML 011100Z 011221 07008KT 9000 NSC
                      BECMG 1417 SCT010
                      TEMPO 1521 BKN008
                      PROB30 TEMPO 1821 5000 BR BKN005=
200805010800 TAF LMML 010800Z 010918 08010KT 9000 SCT010
                      BECMG 0912 CAVOK
                      PROB30 TEMPO 1518 8000 BKN009=
200805010500 TAF LMML 010500Z 010615 08008KT 5000 BR SCT005
                      BECMG 1215 9000 FEW012=
200805010200 TAF LMML 010200Z 010312 08007KT 5000 BR SCT005
                      TEMPO 0306 0300 FG BKN001=
200804302300 TAF LMML 302300Z 010009 08005KT 5000 BR SCT003
                      TEMPO 0006 0800 BCFG BKN001
                      BECMG 0709 8000 SCT008=
200804302000 TAF LMML 302000Z 302106 06005KT 6000 SCT003
                      PROB40 TEMPO 2106 3000 BR BKN003
                      PROB30 TEMPO 0006 0300 BCFG BKN001=
200804301700 TAF LMML 301700Z 301803 10010KT CAVOK
                      TEMPO 1803 7000
                      PROB30 TEMPO 2003 5000 BR SCT005=
200804301400 TAF LMML 301400Z 301524 10010KT CAVOK
                      TEMPO 1824 7000
                      PROB30 TEMPO 2024 5000 BR FEW005=
200804301100 TAF LMML 301100Z 301221 09010KT 9999 FEW015=
200804300800 TAF LMML 300800Z 300918 06010KT 9999 FEW015=
200804300500 TAF LMML 300500Z 300615 09004KT 7000 SCT001
                      BECMG 0608 CAVOK=
200804300200 TAF LMML 300200Z 300312 09004KT CAVOK
                      PROB40 TEMPO 0305 5000 BR SCT003
                      PROB30 TEMPO 0305 0800 BCFG BKN002=
200804292300 TAF LMML 292300Z 300009 VRB03KT CAVOK
                      PROB40 TEMPO 0005 5000 BR SCT003
                      PROB30 TEMPO 0005 0800 BCFG BKN002=
200804292000 TAF LMML 292000Z 292106 09004KT CAVOK
                      PROB30 TEMPO 2306 3000 BR BKN003=
200804291700 TAF LMML 291700Z 291803 18008KT CAVOK
                      TEMPO 2003 8000 SCT003=
200804291400 TAF LMML 291400Z 291524 18008KT CAVOK
                      TEMPO 1824 8000 SCT006=
200804291100 TAF LMML 291100Z 291221 18011KT 9999 SCT018 BKN140
                      PROB30 TEMPO 1721 8000 BKN008=
200804290800 TAF LMML 290800Z 290918 17010KT CAVOK=
200804290500 TAF LMML 290500Z 290615 18010KT CAVOK=
200804290200 TAF LMML 290200Z 290312 18010KT 9999 FEW025=
200804282300 TAF LMML 282300Z 290009 24005KT CAVOK BRCMG 0205 18015KT=
200804282000 TAF LMML 282000Z 282106 27005KT CAVOK
                      BECMG 0205 18012KT=
200804281700 TAF LMML 281700Z 281803 19006KT 9999 FEW025=
200804281400 TAF LMML 281400Z 281524 19006KT 9999 FEW025=
200804281100 TAF LMML 281100Z 281221 30006KT 9999 SCT030=
200804280800 LMML 280800Z 280918 33006KT 9999 FEW030=
200804280500 TAF LMML 280500Z 280615 28006KT 9999 FEW015=
200804280200 TAF LMML 280200Z 280312 26008KT 9999 FEW040=
200804272300 TAF LMML 272300Z 280009 23005KT 9999 FEW040=
200804272000 TAF LMML 272000Z 272106 27005KT 9999 FEW035=
200804271700 TAF LMML 271700Z 271803 29005KT 9999 FEW030=
200804271400 TAF LMML 271400Z 271524 33008KT 9999 FEW025=
200804271100 TAF LMML 271100Z 271221 34010KT 9999 FEW030
                      PROB30 TEMPO 1418 BKN015=
200804270800 TAF LMML 270800Z 270918 34010KT 9999 FEW025
                      PROB30 TEMPO 1418 BKN015=
200804270500 TAF LMML 270500Z 270615 33008KT 9999 SCT025=
200804262300 TAF LMML 262300Z 270009 03004KT 9999 FEW012
                      PROB30 TEMPO 0006 9000 BKN012=
200804262001 LMML 262001Z 262106 33006KT 9999 FEW020
                      BECMG 2302 03003KT
                      PROB30 TEMPO=
200804262000 TAF LMML 262000Z 262106 33006KT 9999 FEW020
                      BECMG 2302 03004KT=
200804261700 TAF LMML 261700Z 261803 33012KT 9999 SCT020=
200804261400 TAF LMML 261400Z 261524 30015KT 9999 SCT020
                      BECMG 2124 03010KT=
200804261100 TAF LMML 261100Z 261221 30015KT 9999 FEW020
                      PROB30 TEMPO 1521 SCT020=
200804260800 TAF LMML 260800Z 260918 31015KT 9999 FEW020
                      PROB30 TEMPO 1418 SCT020=
200804260500 TAF LMML 260500Z 260615 32013KT 9999 FEW025=
200804252300 TAF LMML 252300Z 260009 28007KT 9999 FEW020=
200804252000 TAF LMML 252000Z 252106 28007KT 9999 FEW020=
200804251700 TAF LMML 251700Z 251803 28006KT 9999 FEW018=
200804251400 TAF LMML 251400Z 251524 30010KT 9999 FEW025=
200804251100 TAF LMML 251100Z 251221 02010KT 9999 FEW025
                      BECMG 1518 30008KT=
200804250920 LMML 250920Z 250918 02012KT 9999 SCT015 SCT035
                      BECMG 1518 30008KT=
200804250800 TAF LMML 250800Z 250918 02012KT 9999 SCT015 SCT035=
200804250500 TAF LMML 250500Z 250615 03009KT 9999 SCT015 SCT050=
200804242300 TAF LMML 242300Z 250009 34010KT CAVOK
                      TEMPO 0006 9000 SCT011
                      PROB30 TEMPO 0005 5000 BR BKN004
                      BECMG 0407 04008KT 9999 SCT015=
200804242000 TAF LMML 242000Z 242106 30007KT 9999 FEW015
                      BECMG 0003 03010KT
                      PROB30 TEMPO 0006 9000=
200804241700 TAF LMML 241700Z 241803 30014KT 9999 SCT020=
200804241400 TAF LMML 241400Z 241524 30013KT 9999 FEW020=
200804241100 TAF LMML 241100Z 241221 30015KT 9999 FEW020=
200804240800 TAF LMML 240800Z 240918 30015KT 9999 FEW020=
200804240500 TAF LMML 240500Z 240615 31015KT 9999 FEW020=
200804240200 TAF LMML 240200Z 240312 31015KT 9999 FEW020=
200804232300 TAF LMML 232300Z 240009 31015KT 9999 FEW020=
200804232000 TAF LMML 232000Z 232106 31015KT 9999 FEW020=
200804231700 TAF LMML 231700Z 231803 28013KT 9999 FEW020=
200804231400 TAF LMML 231400Z 231524 29017G27KT 9999 FEW025
                      BECMG 1619 29011KT=
200804231100 TAF LMML 231100Z 231221 29015G25KT 9999 FEW025
                      BECMG 1518 28011KT=
200804230800 TAF LMML 230800Z 230918 29013KT 9999 FEW025
                      BECMG 0912 28015G25KT=
200804230500 TAF LMML 230500Z 230615 29015KT 9999 FEW020=
200804230200 TAF LMML 230200Z 230312 28006KT CAVOK
                      PROB40 TEMPO 0310 SCT015=
200804222300 TAF LMML 222300Z 230009 29010KT CAVOK
                      PROB40 TEMPO 0009 SCT018=
200804222000 TAF LMML 222000Z 222106 28005KT CAVOK
                      PROB40 TEMPO 0206 SCT015=
200804221700 TAF LMML 221700Z 221803 29015KT 9999 FEW020=
200804221400 TAF LMML 221400Z 221524 28015KT 9999 FEW020=
200804221100 TAF LMML 221100Z 221221 29015KT 9999 FEW020=
200804220800 TAF LMML 220800Z 220918 29015KT 9999 SCT018=
200804220500 TAF LMML 220500Z 220615 30015KT 9999 FEW025=
200804220200 TAF LMML 220200Z 220312 30015KT 9999 FEW020=
200804212300 TAF LMML 212300Z 220009 30015KT CAVOK
                      PROB30 TEMPO 0009 FEW020=
200804212000 TAF LMML 212000Z 212106 30012KT CAVOK
                      PROB30 TEMPO 2106 FEW020=
200804211700 TAF LMML 211700Z 211803 30015KT CAVOK
                      PROB30 TEMPO 2103 9000 SCT006=
200804211400 TAF LMML 211400Z 211524 31015G25KT CAVOK
                      PROB30 TEMPO 1824 9000 FEW012=
200804211145 LMML 211145Z 211221 31018G28KT 9000 FEW012=
200804211100 TAF LMML 211100Z 210918 31018G28KT CAVOK
                      PROB30 TEMPO 1518 9000 FEW012=
200804210800 TAF LMML 210800Z 210918 31018G28KT 9000 FEW012=
200804210500 TAF LMML 210500Z 210615 33008KT 7000 BKN006
                      BECMG 0609 9999 SCT012
                      BECMG 0912 30015G25KT=
200804210200 TAF LMML 210200Z 210312 11005KT 0300 FG BKN001
                      BECMG 0306 35010KT 8000 SCT T011
                      BECMG 0609 9999
                      BECMG 0912 29013KT=
200804202300 TAF LMML 202300Z 210009 10007KT 9999 FEW011
                      TEMPO 0006 3000 BKN002
                      PROB30 TEMPO 0005 1500 BCFG BKN001
                      BECMG 0205 35010KT
                      BECMG 0709 29012KT=
200804202000 TAF LMML 202000Z 202106 08005KT CAVOK
                      BECMG 2124 8000 NSC
                      TEMPO 2106 5000 BR FEW004
                      PROB30 TEMPO 2106 1500 MIFG BKN002
                      BECMG 0406 35010KT=
200804201700 TAF LMML 201700Z 201803 11010KT CAVOK
                      TEMPO 2003 7000 SCT008
                      PROB30 TEMPO 0103 5000 BR BKN005=
200804201400 TAF LMML 201400Z 201524 09007KT CAVOK
                      TEMPO 2124 8000 FEW010=
200804201100 LMML 201100Z 200921 09007KT CAVOK=
200804200800 TAF LMML 200800Z 200918 05007KT CAVOK=
200804200500 TAF LMML 200500Z 200615 03005KT 9000 NSC=
200804200200 TAF LMML 200200Z 200312 VRB03KT 7000 NSC
                      PROB30 TEMPO 0306 5000 DU FEW006
                      BECMG 0912 10010KT=
200804192300 TAF LMML 192300Z 200009 VRB03KT 7000 NSC
                      PROB30 TEMPO 0006 5000 DU FEW008=
200804192000 TAF LMML 192000Z 192106 VRB03KT 8000 NSC
                      PROB30 TEMPO 2106 5000 DU FEW006=
200804191700 TAF LMML 191700Z 191803 14010KT 9000 SKC
                      PROB30 TEMPO 1803 5000 BR SCT006
                      BECMG 2124 35005KT=
200804191400 TAF LMML 191400Z 191524 12014KT CAVOK
                      BECMG 1518 18005KT 9000 NSC
                      PROB30 TEMPO 1724 5000 BR SCT006=
200804191100 TAF LMML 191100Z 191221 13014KT CAVOK
                      BECMG 1518 19004KT 9000 FEW012
                      PROB 30
                      TEMPO 1821 5000 DU BKN006=
200804190800 TAF LMML 190800Z 190918 20004KT 9000 SKC
                      BECMG 0912 14011KT 9999 FEW015 B ECMG 1518
                       VRB03KT=
200804190500 TAF LMML 190500Z 190615 17010KT 9999 FEW015=
200804190200 TAF LMML 190200Z 190312 15012KT 9999 FEW015
                      PROB30 TEMPO 0306 5000 BR BKN 003=
200804182300 TAF LMML 182300Z 190009 14010KT 9999 FEW005
                      PROB30 TEMPO 0006 4000 DU BKN 003
                      PROB30 TEMPO 0306 1000 BCFG=
200804182000 TAF LMML 182000Z 182106 16010KT 7000 FEW005
                      PROB30 TEMPO 2106 4000 DU BKN 003
                      PROB30 TEMPO 0306 1000 BCFG=
200804181700 TAF LMML 181700Z 181803 16008KT 7000 FEW007
                      PROB30 TEMPO 1803 5000 DU BKN 003=
200804181400 TAF LMML 181400Z 181524 16006KT 8000 NSC
                      PROB30 TEMPO 2024 5000 BKN005=
200804181100 TAF LMML 181100Z 181221 16008KT 8000 FEW008
                      PROB40 TEMPO 1221 BKN006=
200804180800 TAF LMML 180800Z 180918 13008KT 8000 FEW012
                      PROB40 TEMPO 0911 SCT008=
200804180500 TAF LMML 180500Z 180615 07010KT 8000 FEW012
                      BECMG 0811 16010 CAVOK=
200804180200 TAF LMML 180200Z 180312 02010KT 4000 BR BKN004
                      BECMG 0507 7000 SCT010 BEC MG 0810 16010KT
                       CAVOK=
200804172300 TAF LMML 172300Z 180009 03010KT 9999 SCT006
                      TEMPO 0006 7000 BKN005=
200804172000 TAF LMML 172000Z 172106 05010KT 9999 SCT015
                      PROB30 TEMPO 2106 7000 BKN007=
200804171700 TAF LMML 171700Z 171803 08014KT 9999 FEW018=
200804171400 TAF LMML 171400Z 171524 09015KT 9999 FEW018=
200804171100 TAF LMML 171100Z 171221 12015KT CAVOK=
200804170800 TAF LMML 170800Z 170918 16015G25KT CAVOK
                      PROB30 0912 9000 SHRA
                      BECMG 1418 12014KT=
200804170500 TAF LMML 170500Z 170615 15016KT CAVOK
                      TEMPO 0615 FEW015
                      PROB30 TEMPO 0611 7000 SHRA=
200804170200 TAF LMML 170200Z 170312 14017KT CAVOK
                      TEMPO 0312 FEW015
                      TEMPO 0611 7000 S HRA=
200804162300 LMML 162300Z 170009 16010KT 9999 FEW015 SCT120
                      PROB30 TEMPO 0006 9000 BKN010
                      BECMG 0306 14015G25KT
                      TEMPO 0609 9000 RA=
200804162000 TAF LMML 162000Z 162106 16010KT CAVOK
                      PROB30 TEMPO 2106 9000 BKN010
                      BECMG 2302 14015G25KT 9999 FEW015 BKN100=
200804161700 TAF LMML 161700Z 161803 16013KT CAVOK
                      PROB30 TEMPO 0003 9000 BKN010=
200804161400 TAF LMML 161400Z 161524 18010KT CAVOK=
200804161100 TAF LMML 161100Z 161221 22010KT CAVOK
                      BECMG 1518 16010KT=
200804160800 TAF LMML 160800Z 160918 28012KT CAVOK
                      BECMG 1316 18015KT=
200804160500 TAF LMML 160500Z 160615 28012KT 9999 FEW020
                      BECMG 1215 18010KT=
200804160200 TAF LMML 160200Z 160312 28004KT 9999 FEW020
                      BECMG 0912 21012KT=
200804152300 TAF LMML 152300Z 160009 27008KT CAVOK
                      PROB30 TEMPO 0009 FEW020=
200804152000 TAF LMML 152000Z 152106 28008KT CAVOK
                      PROB30 TEMPO 0006 FEW020=
200804151700 TAF LMML 151700Z 151803 28015G25KT 9999 FEW025
                      BECMG 1821 28012KT=
200804151400 TAF LMML 151400Z 151524 29017G27KT 9999 FEW025
                      BECMG 1619 28013KT=
200804151100 TAF LMML 151100Z 151221 29016G26KT 9999 FEW025
                      BECMG 1821 28013KT=
200804150800 TAF LMML 150800Z 150918 28015KT 9999 SCT020
                      BECMG 0912 28016G26KT=
200804150500 TAF LMML 150500Z 150615 29018KT 9999 FEW020
                      BECMG 0609 CAVOK=
200804150200 TAF LMML 150200Z 150312 29015KT CAVOK
                      PROB30 TEMPO 0306 SCT025=
200804142300 TAF LMML 142300Z 150009 29010KT CAVOK
                      BECMG 0609 29020KT
                      PROB30 TEMPO 030 6 SCT025=
200804142000 TAF LMML 142000Z 142106 29012KT CAVOK
                      PROB30 TEMPO 0306 SCT025=
200804141700 TAF LMML 141700Z 141803 31012KT CAVOK
                      PROB30 TEMPO 1803 FEW030=
200804141400 TAF LMML 141400Z 141524 31012KT 9999 FEW025=
200804141100 TAF LMML 141100Z 141221 31012KT CAVOK
                      PROB30 TEMPO 1218 FEW025=
200804140800 TAF LMML 140800Z 140918 31014KT CAVOK
                      PROB30 TEMPO 0918 FEW020=
200804140500 TAF LMML 140500Z 140615 32013KT 9999 FEW015
                      PROB30 TEMPO 0610 8000 SHRA=
200804140200 TAF LMML 140200Z 140312 31016KT 9999 SCT017=
200804132300 TAF LMML 132300Z 140009 33013KT 9999 SCT015=
200804132000 TAF LMML 132000Z 132106 04006KT CAVOK
                      BECMG 2201 33012KT=
200804131700 TAF LMML 131700Z 131803 01012KT CAVOK
                      PROB30 TEMPO 1803 9999 RA SCT080=
200804131400 TAF LMML 131400Z 131524 36012KT CAVOK
                      PROB30 TEMPO 2124 9999 RA SCT080=
200804131100 TAF LMML 131100Z 131221 36014KT CAVOK=
200804130800 TAF LMML 130800Z 130918 35012KT CAVOK=
200804130500 TAF LMML 130500Z 130615 34013KT CAVOK=
200804130200 TAF LMML 130200Z 130312 34012KT CAVOK=
200804122300 TAF LMML 122300Z 130009 34010KT CAVOK=
200804122000 TAF LMML 122000Z 122024 33015KT CAVOK=
200804121700 TAF LMML 121700Z 121803 32013KT CAVOK=
200804121400 TAF LMML 121400Z 121524 33015KT CAVOK=
200804121100 TAF LMML 121100Z 121221 36012KT 8000 NSC
                      BECMG 1215 CAVOK=
200804120800 TAF LMML 120800Z 120918 33012KT 9999 NSC
                      TEMPO 0918 CAVOK=
200804120500 TAF LMML 120500Z 120615 30008KT CAVOK
                      BECMG 0811 29015G25KT 9999 FEW020=
200804120200 TAF LMML 120200Z 120312 22014KT CAVOK
                      PROB30 TEMPO 0306 5000 DU NSC
                      BECMG 0306 28011KT
                      BECMG 0811 29015G25KT 9999 FEW015=
200804112300 TAF LMML 112300Z 120009 17008KT CAVOK
                      PROB30 TEMPO 0003 5000 DU NSC
                      BECMG 0003 18015G25KT
                      BECMG 0305 28012KT=
200804112000 TAF LMML 112000Z 112106 20008KT CAVOK
                      PROB30 TEMPO 2103 5000 DU NSC
                      BECMG 2124 17015G25KT
                      BECMG 0205 28012KT=
200804111700 TAF LMML 111700Z 111803 16012KT 6000 NSC
                      TEMPO 1801 5000 DU
                      BECMG 2124 18 015G25
                      BECMG 0103 30012KT CAVOK=
200804111400 TAF LMML 111400Z 111524 16010KT 7000 NSC
                      PROB30 TEMPO 1523 5000 DU
                      BECMG 2224 29010KT CAVOK=
200804111100 TAF LMML 111100Z 111221 22014KT 9000 NSC
                      PROB30 TEMPO 1521 5000 DU
                      BECMG 1518 16010KT=
200804110800 TAF LMML 110800Z 110918 20012KT 6000 NSC
                      PROB30 TEMPO 0918 5000 DU=
200804110500 TAF LMML 110500Z 110615 19014KT CAVOK
                      PROB40 TEMPO 0615 7000 DU=
200804110200 LMML 110200Z 110312 30014KT 9999 CAVOK
                      PROB30 TEMPO 0312 7000 DU=
200804102300 TAF LMML 102300Z 110009 18012KT 7000 NSC=
200804102000 TAF LMML 102000Z 102106 18012KT 8000 NSC=
200804101700 TAF LMML 101700Z 101803 18004KT CAVOK
                      TEMPO 1800 9000
                      BECMG 0003 18013KT=
200804101400 TAF LMML 101400Z 101524 20010KT CAVOK
                      BECMG 2124 18015KT=
200804101100 TAF LMML 101100Z 101221 18012KT CAVOK=
200804100800 TAF LMML 100800Z 100918 18012KT CAVOK=
200804100500 TAF LMML 100500Z 100615 16006KT CAVOK=
200804100200 TAF LMML 100200Z 100312 16006KT CAVOK=
200804092300 LMML NIL=
200804092000 TAF LMML 092000Z 092106 16005KT CAVOK=
200804091700 TAF LMML 091700Z 091803 22008KT CAVOK=
200804091400 TAF LMML 091400Z 091524 25010KT CAVOK=
200804091100 TAF LMML 091100Z 091221 28010KT CAVOK=
200804090800 TAF LMML 090800Z 090918 29010KT CAVOK=
200804090500 TAF LMML 090500Z 090615 31010KT CAVOK=
200804090200 TAF LMML 090200Z 090312 31010KT CAVOK=
200804082300 TAF LMML 082300Z 090009 32010KT CAVOK=
200804082000 TAF LMML 082000Z 082106 33010KT CAVOK
                      PROB30 TEMPO 2106 8000 SCT008=
200804081700 TAF LMML 081700Z 081803 20008KT 5000 DU NSC
                      TEMPO 1823 7000
                      BECMG 1720 30 008KT CAVOK=
200804081400 TAF LMML 081400Z 081524 20008KT 5000 DU NSC
                      TEMPO 1520 7000
                      BECMG 1720 30 012KT CAVOK
                      PROB30 TEMPO 1721 SCT020=
200804081100 TAF LMML 081100Z 081221 15008KT 5000 NSC
                      TEMPO 1218 7000
                      BECMG 1720 30012 KT CAVOK
                      PROB30 TEMPO 1721 SCT020=
200804080800 LMML 080800Z 080918 15007KT CAVOK
                      TEMPO 0918 7000 DU=
200804080500 TAF LMML 080500Z 080615 15010KT CAVOK=
200804080200 TAF LMML 080200Z 080312 19005KT CAVOK=
200804072300 TAF LMML 072300Z 080009 VRB03KT CAVOK
                      PROB30 TEMPO 0305 9000=
200804072000 TAF LMML 072000Z 072106 VRB03KT CAVOK=
200804071700 TAF LMML 071700Z 071803 19007KT CAVOK=
200804071400 TAF LMML 071400Z 071524 18010KT CAVOK=
200804071100 TAF LMML 071100Z 071221 18012KT CAVOK=
200804070800 TAF LMML 070800Z 070918 19012KT CAVOK=
200804070500 TAF LMML 070500Z 070615 19010KT CAVOK=
200804070200 TAF LMML 070200Z 070312 18005KT CAVOK
                      PROB30 TEMPO 0306 FEW012=
200804062300 TAF LMML 062300Z 070009 19005KT CAVOK
                      PROB30 TEMPO 0306 FEW012=
200804062000 TAF LMML 062000Z 062106 20005KT CAVOK
                      PROB30 TEMPO 0306 FEW012=
200804061700 TAF LMML 061700Z 061803 19005KT CAVOK
                      PROB30 TEMPO 1803 FEW012=
200804061400 TAF LMML 061400Z 061524 23010KT CAVOK=
200804061100 TAF LMML 061100Z 061221 24013KT 9999 SCT030
                      BECMG 1821 CAVOK=
200804060800 TAF LMML 060800Z 060918 28015KT 9999 SCT030=
200804060500 TAF LMML 060500Z 060615 29014KT 9999 SCT025
                      BECMG 0609 27015G25KT=
200804060200 TAF LMML 060200Z 060312 29014KT 9999 SCT025
                      BECMG 0306 28015G25KT=
200804052300 TAF LMML 052300Z 060009 30015KT 9999 SCT030
                      BECMG 0306 30015G25KT=
200804052000 TAF LMML 052000Z 052106 30015KT 9999 FEW030=
200804051700 TAF LMML 051700Z 051803 32016KT 9999 SCT025=
200804051400 TAF LMML 051400Z 051524 32015KT 9999 SCT025=
200804051100 TAF LMML 051100Z 051221 32012KT 9999 SCT025=
200804050800 TAF LMML 050800Z 050918 31012KT 9999 SCT025=
200804050500 TAF LMML 050500Z 050615 30010KT 9999 SCT025=
200804050200 TAF LMML 050200Z 050312 30010KT 9999 SCT025
                      PROB30 TEMPO 0312 8000 SHRA B KN015=
200804042300 TAF LMML 042300Z 050009 30010KT 9999 SCT020
                      PROB30 TEMPO 0009 8000 SHRA B KN015=
200804042000 TAF LMML 042000Z 042106 29010KT 9999 SCT020
                      PROB30 TEMPO 2106 8000 SHRA B KN015=
200804041700 TAF LMML 041700Z 041803 29015G25KT 9999 FEW025
                      BECMG 1821 28013KT
                      PROB30 TEMPO 2103 8000 SHRA BKN015=
200804041400 TAF LMML 041400Z 041524 29014KT 9999 SCT020
                      BECMG 1518 30015G25KT
                      PROB30 TEMPO 2124 8000 SHRA BKN015=
200804041100 TAF LMML 041100Z 041221 27013KT 9999 SCT020
                      BECMG 1316 28015G25KT=
200804040800 TAF LMML 040800Z 040918 27013KT 9999 SCT020=
200804040500 TAF LMML 040500Z 040615 28010KT 9999 SCT018
                      TEMPO 0612 8000 SHRA BKN015 B ECMG 1215 31015KT=
200804040200 TAF LMML 040200Z 040312 28006KT 9999 SCT018
                      TEMPO 0312 8000 BKN015=
200804032300 TAF LMML 032300Z 040009 28008KT 9999 SCT018
                      PROB040 TEMPO 0009 8000 SHRA BKN015=
200804032000 TAF LMML 032000Z 032106 28010KT 9999 SCT015
                      PROB40 TEMPO 0306 8000 SHRA B KN015=
200804031700 TAF LMML 031700Z 031803 29016KT 9999 SCT017
                      PROB30 TEMPO 0003 8000 BKN010=
200804031400 TAF LMML 031400Z 031524 28016G26KT 9999 SCT020
                      BECMG 2124 29015KT
                      TEMPO 1 618 8000=
200804031100 TAF LMML 031100Z 031221 27017G27KT 9999 SCT020 SCT050
                      BECMG 2023 29015KT=
200804030800 TAF LMML 030800Z 030918 27017G27KT 9999 SCT020 SCT040
                      PROB30 TEMPO 0912 8 000 SHRA BKN015=
200804030500 TAF LMML 030500Z 030615 28015G25KT 9999 SCT020 BKN045
                      TEMPO 0615 8000 SHR A BKN015=
200804030200 TAF LMML 030200Z 030312 28015G25KT 9999 SCT015
                      PROB30 TEMPO 0312 9000 SHR A BKN015=
200804022300 TAF LMML 022300Z 030009 29015G25KT 9999 SCT015
                      PROB30 TEMPO 0309 9000 SHR A BKN015=
200804022000 TAF LMML 022000Z 022106 28014KT 9999 SCT015=
200804021700 TAF LMML 021700Z 021803 28008KT 9999 FEW030
                      PROB30 TEMPO 0003 BKN012 BECM G 0003 30015KT=
200804021400 TAF LMML 021400Z 021524 31010KT 9999 FEW030=
200804021100 TAF LMML 021100Z 021221 33013KT 9999 SCT020 SCT040
                      PROB30 TEMPO 1215 8000 SHRA
                      BECMG 1821 27008KT=
200804020800 TAF LMML 020800Z 020918 31005KT 9999 SCT018 SCT050
                      PROB30 TEMPO 0918 8000 SHRA SCT012 BKN015
                       BECMG 1215 30015KT=
200804020500 TAF LMML 020500Z 020615 01010KT 9999 SCT020 SCT040
                      PROB40 TEMPO 0612 8000 SHRA BKN015
                      BECMG 1215 30012KT=
200804020200 TAF LMML 020200Z 020312 01010KT 9999 SCT020
                      PROB30 TEMPO 0612 8000 SHRA B KN015=
200804012300 TAF LMML 012300Z 020009 36008KT 9999 FEW020
                      PROB30 TEMPO 0609 8000 SHRA B KN015=
200804012000 TAF LMML 012000Z 012106 36005KT 9999 FEW025=
200804011700 TAF LMML 011700Z 011803 28010KT 9999 SCT020=
200804011400 TAF LMML 011400Z 011524 27010KT 9999 SCT020=
200804011100 TAF LMML 011100Z 011221 24012KT 9999 SCT025=
200804010800 TAF LMML 010800Z 010918 29012KT 9999 SCT020 BKN050
                      TEMPO 0911 8000 SHRA B KN012=
200804010500 TAF LMML 010500Z 010615 28013KT 9999 SCT015 BKN030
                      TEMPO 0612 8000 SHRA B KN010
                      PROB40 TEMPO 0610 5000 TSRA BKN008 BKN012CB=
200804010200 TAF LMML 010200Z 010312 16010KT 9999 SCT015 BKN030
                      TEMPO 0312 7000 SHRA B KN010
                      PROB40 TEMPO 0312 4000 TSRA BKN008 BKN012CB
                       BECMG 0508 27013KT=

###################################
#  large TAF from LMML
###################################
200805012300 TAF LMML 012300Z 020606 06008KT 7000 SCT005
                      BECMG 0609 9999 FEW015
                      PROB40 TEMPO 0006 5000 BR SCT005=
200805011700 TAF LMML 011700Z 020024 04007KT 8000 SCT010
                      TEMPO 0007 4000 BR BKN006
                      PROB30 TEMPO 0006 0800 FG BKN001
                      BECMG 1013 CAVOK=
200805011100 TAF LMML 011100Z 011818 05006KT 8000 SCT008
                      TEMPO 1806 5000 BR BKN005
                      PROB30 TEMPO 2106 0800 FG BKN002
                      BECMG 0912 NSC=
200805010500 TAF LMML 010500Z 011212 10010KT CAVOK
                      TEMPO 2106 3000 BR BKN003
                      BECMG 0912 03010KT 8000 FEW012=
200804302300 TAF LMML 302300Z 010606 10008KT 9999 FEW012
                      PROB40 TEMPO 0609 8000 SCT005
                      PROB40 TEMPO 2106 3000 BR BKN003=
200804301700 TAF LMML 301700Z 010024 10010KT CAVOK
                      TEMPO 0006 7000
                      PROB30 TEMPO 0006 5000 BR SCT003
                      BECMG 1518 03008KT=
200804301100 TAF LMML 301100Z 301818 09010KT 9999 FEW015
                      TEMPO 2106 7000
                      PROB30 TEMPO 2306 4000 BR BKN003=
200804300500 TAF LMML 300500Z 301212 09008KT CAVOK TENPO 2206 7000
                      PROB30 TEMPO 2306 4000 BR BKN003=
200804292300 TAF LMML 292300Z 300606 07007KT CAVOK
                      PROB30 TEMP 2206 8000 SCT008=
200804291700 TAF LMML 291700Z 300024 20005KT 9999 FEW003
                      PROB30 TEMPO 0305 3000 BR BKN003
                      BECMG 0508 CAVOK
                      BECMG 1013 08010KT=
200804291100 TAF LMML 291100Z 291818 19008KT 9999 SCT008
                      TEMPO 2106 7000 BKN007
                      PROB30 TEMPO 0205 4000 BR BKN003
                      BECMG 0912 08010KT=
200804290500 TAF LMML 290500Z 291212 18010KT CAVOK
                      BECMG 0003 01005KT
                      PROB30 TEMPO 0006 6000 BKN006=
200804282300 TAF LMML 282300Z 290606 18015KT 9999 FEW030 SCT120
                      BECMG 2023 27005KT
                      PROB30 TEMPO 0006 6000 BKN006=
200804281700 TAF LMML 281700Z 290024 18013KT 9999 FEW025=
200804281100 TAF LMML 281100Z 281818 18010KT 9999 FEW025=
200804280500 TAF LMML 280500Z 281212 28008KT 9999 FEW040=
200804272300 TAF LMML 272300Z 280606 29008KT 9999 FEW040=
200804271700 TAF LMML 271700Z 280024 27005KT 9999 FEW025=
200804271100 TAF LMML 271100Z 271818 31005KT 9999 FEW025=
200804262300 TAF LMML 262300Z 270606 33008KT 9999 SCT020
                      BECMG 2202 24003KT=
200804261700 TAF LMML 261700Z 270024 03010KT 9999 FEW020
                      BECMG 0508 32010KT=
200804261100 TAF LMML 261100Z 261818 30015KT 9999 SCT020
                      BECMG 2124 03010KT=
200804252300 TAF LMML 252300Z 260606 31010KT 9999 FEW020=
200804251700 TAF LMML 251700Z 260024 30005KT 9999 FEW015
                      BECMG 1215 31015KT
                      PROB30 TEMPO 0618 BKN015=
200804251100 TAF LMML 251100Z 251818 30006KT 9999 FEW025
                      BECMG 0912 32018KT=
200804242300 TAF LMML 242300Z 250606 04008KT 9999 SCT015 SCT050
                      BECMG 1518 28010KT=
200804241700 TAF LMML 241700Z 250024 30015KT 9999 SCT020=
200804241100 TAF LMML 241100Z 241818 31010KT 9999 SCT017=
200804240500 TAF LMML 240500Z 241212 30015KT 9999 FEW020
                      PROB30 TEMPO 1806 SCT018=
200804232300 LMML 232300Z 240606 31015KT 9999 FEW020
                      PROB30 TEMPO 0006 SCT018=
200804231700 TAF LMML 231700Z 240024 28010KT 9999 FEW020
                      BECMG 0609 29015G25KT
                      BECMG 1 618 29012KT=
200804231100 TAF LMML 231100Z 231818 28011KT 9999 FEW020
                      BECMG 0609 29015G25KT=
200804230500 TAF LMML 230500Z 231212 31018G28KT 9999 FEW025
                      BECMG 2124 29008KT=
200804222300 TAF LMML 222300Z 230606 30010KT CAVOK
                      BECMG 1215 32015G25KT=
200804221700 TAF LMML 221700Z 230024 30015KT 9999 FEW020=
200804221100 TAF LMML 221100Z 221818 29015KT 9999 FEW020=
200804220500 TAF LMML 220500Z 221212 30013KT 9999 FEW025=
200804212300 TAF LMML 212300Z 220606 30015KT 9999 FEW020=
200804211700 TAF LMML 211700Z 220024 30010KT 9999 FEW025
                      PROB30 TEMPO 0006 8000 SCT006=
200804211100 TAF LMML 211100Z 211818 30015KT 9000 FEW012
                      PROB30 TEMPO 0206 BKN006 BECM G 0609 29008KT
                       999 SCT020=
200804210500 TAF LMML 210500Z 211212 29016G26KT 9999 SCT015
                      BECMG 1821 28013KT=
200804202300 TAF LMML 202300Z 210606 35010KT 9999 SCT015
                      BECMG 0709 29012KT
                      BECMG 1114 28015G25KT=
200804201700 TAF LMML 201700Z 210024 09010KT 7000 SCT007
                      PROB40 TEMPO 0107 5000 BR BKN 005
                      BECMG 0609 33015KT CAVOK=
200804201100 TAF LMML 201100Z 201818 09005KT CAVOK
                      TEMPO 2107 7000 FEW010
                      PROB40 TEMPO 0106 5000 BR BKN007=
200804200500 TAF LMML 200500Z 201212 09006KT 9000 NSC
                      BECMG 0306 30005KT
                      PROB30 TEMPO 0206 5000 BR BKN008=
200804192300 TAF LMML 192300Z 200606 10008KT 9000 NSC
                      PROB30 TEMPO 0606 FEW008=
200804191700 TAF LMML 191700Z 200024 35005KT 8000 NSC
                      PROB30 TEMPO 0006 4000 BR SCT005
                      BECMG 0811 08010KT 9999 FEW015=
200804191100 TAF LMML 191100Z 191818 18004KT 8000 FEW012
                      PROB30 TEMPO 1806 3000 DU BKN 006
                      BECMG 0407 34010KT CAVOK
                      BECMG 1518 12007KT=
200804190500 TAF LMML 190500Z 191212 16010KT 9999 FEW015
                      BECMG 2201 36010KT
                      PROB30 210 6 5000 BR BKN003=
200804182300 TAF LMML 182300Z 190606 15010KT 9999 FEW015
                      PROB30 2106 7000 SCT005=
200804181700 TAF LMML 181700Z 190024 16010KT 6000 SCT006
                      PROB30 TEMPO 0006 3000 DU BKN 003
                      BECMG 1215 30015KT=
200804181100 TAF LMML 181100Z 181818 16008KT 8000 SCT008
                      PROB40 TEMPO 1806 3000 DU BKN 005=
200804180500 TAF LMML 180500Z 181212 06010KT CAVOK
                      PROB30 TEMPO 1212 7000 DU
                      BECMG 212 4 13015G25KT=
200804172300 TAF LMML 172300Z 180606 03010KT 9999 FEW015
                      BECMG 0912 15010 CAVOK
                      PROB30 TEMPO 1206 7000 DU=
200804171700 TAF LMML 171700Z 180024 05010KT CAVOK
                      BECMG 1417 14010KT=
200804171100 TAF LMML 171100Z 171818 12014KT CAVOK
                      BECMG 1823 05010KT=
200804170500 TAF LMML 170500Z 171212 15016KT CAVOK
                      BECMG 1518 08008KT=
200804162300 TAF LMML 162300Z 170606 14015G25KT 9999 FEW015 BKN100
                      TEMPO 0612 9000 RA
                      BECMG 1518 08008KT=
200804161700 TAF LMML 161700Z 170024 15015KT CAVOK
                      BECMG 14015G25KT FEW020 BKN100 TEMP O 0613
                       8000 RA
                      BECMG 1518 07010KT
                      PROB30 TEMPO 0006 9000 BKN010=
200804161100 TAF LMML 161100Z 161818 16010KT CAVOK
                      BECMG 0306 14018KT 9999 SCT040 BKN1 00
                      PROB30 TEMPO 0312 8000 RA
                      BECMG 1518 07010KT=
200804160500 TAF LMML 160500Z 161212 18010KT 9999 FEW025
                      BECMG 0609 12018KT
                      PROB30 TEM PO 0006 SCT005=
200804152300 TAF LMML 152300Z 160606 28012KT 9999 FEW020
                      BECMG 0912 21012KT=
200804151700 TAF LMML 151700Z 160024 28011KT 9999 FEW020
                      BECMG 1215 22008KT
                      BECMG 1518 16010KT
                      PROB30 TEMPO 1824 9000 BKN010=
200804151100 TAF LMML 151100Z 151818 29015G25KT 9999 FEW020
                      BECMG 1821 28013KT
                      BECMG 1 215 21010KT=
200804150500 TAF LMML 150500Z 151212 29020KT CAVOK=
200804142300 TAF LMML 142300Z 150606 29020KT CAVOK=
200804141700 TAF LMML 141700Z 150024 30015KT CAVOK
                      PROB30 TEMPO 0324 SCT020=
200804141100 TAF LMML 141100Z 141818 30008KT CAVOK
                      BECMG 0508 30018KT BKN015=
200804140500 TAF LMML 140500Z 141212 30016KT 9999 FEW020=
200804132300 TAF LMML 132300Z 140606 31016KT 9999 FEW020=
200804131700 TAF LMML 131700Z 140024 33012KT CAVOK
                      PROB30 TEMPO 0008 9999 RA SCT080=
200804131100 TAF LMML 131100Z 131818 01012KT CAVOK
                      PROB30 TEMPO 2108 9000 RA SCT070=
200804130500 TAF LMML 130500Z 131212 36010KT CAVOK=
200804122300 TAF LMML 122300Z 130606 35013KT CAVOK
                      TEMPO 0606 FEW020=
200804121700 TAF LMML 121700Z 130024 34012KT CAVOK
                      TEMPO 0624 FEW020=
200804121100 TAF LMML 121100Z 121818 33015KT CAVOK
                      TEMPO 1818 FEW020=
200804120500 TAF LMML 120500Z 121212 29015G25KT 9999 FEW025
                      BECMG 2201 35013KT=
200804112300 TAF LMML 112300Z 120606 28012KT CAVOK
                      BECMG 1013 29015G25KT 9999 FEW020 B ECMG
                       0003 35013KT=
200804111700 TAF LMML 111700Z 120024 18015G25KT 6000 NSC
                      BECMG 0104 30012KT CAVOK BECM G 1518 3215G25KT=
200804111100 TAF LMML 111100Z 111818 16010KT 9000 NSC
                      PROB30 TEMPO 1823 5000 DU
                      BECMG 2302 30015KT CAVOK
                      BECMG 1518 31015G25KT=
200804110500 TAF LMML 110500Z 111212 22010KT CAVOK
                      BECMG 2024 32010KT
                      PROB30 TEMPO 121 8 7000 DU=
200804102300 TAF LMML 102300Z 110606 20014KT CAVOK
                      BECMG 2024 32010KT
                      PROB30 TEMPO 061 8 7000 DU=
200804101700 TAF LMML 101700Z 110024 18004KT CAVOK
                      BECMG 1518 15003KT
                      PROB30 TEMPO 032 4 8000 DU=
200804101100 TAF LMML 101100Z 101818 18015KT CAVOK=
200804100500 TAF LMML 100500Z 101212 16008KT CAVOK=
200804091700 TAF LMML 091700Z 100024 19008KT CAVOK
                      PROB30 TEMPO 0624 5000 DU=
200804091100 TAF LMML 091100Z 091818 21008KT CAVOK
                      BECMG 0306 14010KT
                      PROB30 TEMPO 061 8 5000 DU=
200804090500 TAF LMML 090500Z 091212 29010KT CAVOK
                      BECMG 1518 21010KT
                      BECMG 0306 13010 KT
                      PROB30 TEMPO 0612 5000 DU=
200804082300 TAF LMML 082300Z 090606 31010KT CAVOK
                      BECMG 1215 24010KT
                      BECMG 18010KT=
200804081700 TAF LMML 081700Z 090024 30008KT CAVOK=
200804081100 TAF LMML 081100Z 081818 30012KT CAVOK
                      PROB30 TEMPO 1820 7000 NSC=
200804080500 TAF LMML 080500Z 081212 27012KT CAVOK=
200804072300 TAF LMML 072300Z 080606 21010KT CAVOK
                      BECMG 1215 30015KT=
200804071700 TAF LMML 071700Z 080024 16007KT CAVOK
                      BECMG 0912 20015KT
                      BECMG 1518 30015 KT=
200804071100 TAF LMML 071100Z 071818 15007KT CAVOK
                      BECMG 0912 22015KT
                      BECMG 1417 31015 KT=
200804070500 TAF LMML 070500Z 071212 19010KT CAVOK=
200804062300 TAF LMML 062300Z 070606 18005KT CAVOK=
200804061700 TAF LMML 061700Z 070024 16005KT CAVOK
                      PROB30 TEMPO 0005 5000 BR SCT006=
200804061100 TAF LMML 061100Z 061818 18005KT CAVOK=
200804060500 TAF LMML 060500Z 061212 27015G25KT 9999 FEW025
                      BECMG 1417 24010KT
                      BECMG 2 124 18008KT=
200804052300 TAF LMML 052300Z 060606 30015G25KT 9999 FEW030
                      BECMG 1215 24010KT=
200804051700 TAF LMML 051700Z 060024 32016KT 9999 SCT025
                      BECMG 1014 24012KT=
200804051100 TAF LMML 051100Z 051818 32015KT 9999 SCT020
                      BECMG 1014 24012KT=
200804050500 TAF LMML 050500Z 051212 33012KT 9999 FEW025
                      BECMG 1518 32015G25KT=
200804042300 TAF LMML 042300Z 050606 32010KT 9999 SCT025
                      PROB30 TEMPO 0609 8000 SHRA B KN015
                      BECMG 1316 32015G25KT=
200804041700 TAF LMML 041700Z 050024 28012KT 9999 SCT020
                      PROB30 TEMPO 0003 8000 SHRA B KN015
                      BECMG 1316 32015G25KT=
200804041100 TAF LMML 041100Z 041818 29015G25KT 9999 SCT018
                      PROB30 TEMPO 2106 8000 SHR A BKN015
                      BECMG 0609 32013KT=
200804040500 TAF LMML 040500Z 041212 31015KT 9999 FEW025
                      PROB40 TEMPO 1803 8000 SHRA B KN018=
200804032300 TAF LMML 032300Z 040606 27010KT 9999 SCT020
                      PROB40 TEMPO 0615 8000 SHRA B KN015
                      BECMG 1417 30015G25KT=
200804031700 TAF LMML 031700Z 040024 29015KT 9999 SCT015
                      PROB30 TEMPO 0006 8000 BKN010
                      BECMG 1518 31015G25KT=
200804031100 TAF LMML 031100Z 031818 29015KT 9999 SCT020
                      PROB30 TEMPO 0012 8000 SHRA B KN015=
200804030500 TAF LMML 030500Z 031212 28015G25KT 9999 SCT020 SCT045
                      PROB30 TEMPO 0012 8 000 SHRA BKN015
                      BECMG 1720 28015KT=
200804022300 TAF LMML 022300Z 030606 28015G25KT 9999 SCT020
                      PROB30 TEMPO 0612 9000 SHR A BKN018=
200804021700 TAF LMML 021700Z 030024 30015G25KT 9999 SCT020
                      PROB30 TEMPO 0312 9000 SHR A BKN018=
200804021100 TAF LMML 021100Z 021818 30015KT 9999 SCT020
                      PROB30 TEMPO 0012 8000 BKN015=
200804020500 TAF LMML 020500Z 021212 28012KT 9999 SCT020
                      BECMG 0003 27018G28KT=
200804012300 TAF LMML 012300Z 020606 01010KT 9999 SCT020
                      PROB30 TEMPO 0612 8000 SHRA B ECMG 1215 27015KT=
200804011700 TAF LMML 011700Z 020024 28010KT 9999 SCT020
                      BECMG 0508 01010KT
                      PROB30 TEM PO 0312 8000 SHRA BKN015=
200804011100 TAF LMML 011100Z 011818 28010KT 9999 SCT020
                      PROB30 TEMPO 0312 8000 SHRA B KN015
                      BECMG 0508 01010KT=
200804010500 TAF LMML 010500Z 011212 28012KT 9999 SCT020 SCT100
                      PROB40 TEMPO 0008 8000 SHRA BKN010
                      BECMG 0306 36010KT=
