##########################################################
# Query made at 01/18/2013 15:36:48 UTC
# Time interval: from 04/01/2011 00:00  to 05/01/2011 23:59  UTC
##########################################################

##########################################################
# LMML, Luqa (Malta)
# WMO index: 16597
# Latitude 35-51N. Longitude 014-29E. Altitude 91 m.
##########################################################

###################################
#  METAR/SPECI from LMML
###################################
201104302345 METAR LMML 302345Z 24009KT 210V280 CAVOK 17/14 Q1000 NOSIG=
201104302315 METAR LMML 302315Z 24012KT 200V280 CAVOK 18/14 Q1000 NOSIG=
201104302300 METAR LMML NIL=
201104302245 METAR LMML 302245Z 23012KT 200V270 9000 NSC 19/13 Q1000 NOSIG=
201104302230 METAR LMML NIL=
201104302215 METAR LMML 302215Z 21010KT 180V250 9000 NSC 19/13 Q1000 NOSIG=
201104302200 METAR LMML NIL=
201104302145 METAR LMML 302145Z 21009KT 180V250 9000 NSC 19/13 Q1000 NOSIG=
201104302130 METAR LMML NIL=
201104302115 METAR LMML 302115Z 21009KT 180V240 9000 NSC 19/13 Q1000 NOSIG=
201104302045 METAR LMML 302045Z 21009KT 160V250 9000 NSC 19/13 Q1000 NOSIG=
201104302030 METAR LMML NIL=
201104302015 METAR LMML 302015Z 20009KT 160V230 9000 NSC 19/14 Q1000 NOSIG=
201104301945 METAR LMML 301945Z 19011KT 160V220 9000 NSC 18/14 Q1000 NOSIG=
201104301930 METAR LMML NIL=
201104301915 METAR LMML 301915Z 20010KT 160V250 9000 NSC 18/14 Q1000 NOSIG=
201104301845 METAR LMML 301845Z 19010KT 160V230 9000 NSC 18/14 Q0999 NOSIG=
201104301830 METAR LMML NIL=
201104301815 METAR LMML 301815Z 19009KT 160V240 9000 NSC 18/14 Q0999 NOSIG=
201104301800 METAR LMML NIL=
201104301745 METAR LMML 301745Z 19011KT 160V220 9000 NSC 18/14 Q0999 NOSIG=
201104301730 METAR LMML NIL=
201104301715 METAR LMML 301715Z 18014KT 160V220 CAVOK 19/14 Q0998 NOSIG=
201104301700 METAR LMML NIL=
201104301645 METAR LMML 301645Z 18014KT 160V220 7000 NSC 19/14 Q0998 NOSIG=
201104301630 METAR LMML NIL=
201104301615 METAR LMML 301615Z 18013KT 140V230 8000 NSC 19/14 Q0999 NOSIG=
201104301545 METAR LMML 301545Z 18013KT 7000 NSC 19/14 Q0999 TEMPO 5000
                        DU=
201104301530 METAR LMML NIL=
201104301515 METAR LMML 301515Z 18013KT 150V210 7000 NSC 19/14 Q0999 TEMPO
                        5000 DU=
201104301500 METAR LMML NIL=
201104301445 METAR LMML 301445Z 18013KT 150V220 7000 NSC 19/14 Q0999 TEMPO
                        5000 DU=
201104301430 METAR LMML NIL=
201104301415 METAR LMML 301415Z 18013KT 140V220 7000 NSC 19/14 Q0999 TEMPO
                        5000 DU=
201104301400 METAR LMML NIL=
201104301345 METAR LMML 301345Z 18014KT 160V230 7000 NSC 20/14 Q0999 TEMPO
                        5000 DU=
201104301330 METAR LMML NIL=
201104301315 METAR LMML 301315Z 19010KT 160V240 7000 NSC 20/14 Q1000 TEMPO
                        5000 DU=
201104301300 METAR LMML NIL=
201104301245 METAR LMML 301245Z 18012KT 140V210 6000 NSC 20/14 Q1000 TEMPO
                        5000 DU=
201104301230 METAR LMML NIL=
201104301215 METAR LMML 301215Z 18012KT 140V220 6000 NSC 21/15 Q1000 TEMPO
                        5000 DU=
201104301200 METAR LMML NIL=
201104301145 METAR LMML 301145Z 17015KT 130V220 7000 NSC 20/15 Q1000 NOSIG=
201104301130 METAR LMML NIL=
201104301115 METAR LMML 301115Z 17013KT 140V200 8000 NSC 20/15 Q1000 NOSIG=
201104301100 METAR LMML NIL=
201104301045 METAR LMML 301045Z 16013KT 9000 NSC 20/15 Q1000 NOSIG=
201104301030 METAR LMML NIL=
201104301015 METAR LMML 301015Z 15013KT 110V170 9000 NSC 20/15 Q1001 NOSIG=
201104301000 METAR LMML NIL=
201104300945 METAR LMML 300945Z 14014KT 9000 NSC 19/15 Q1001 NOSIG=
201104300930 METAR LMML NIL=
201104300915 METAR LMML 300915Z 13014KT 9000 NSC 19/16 Q1001 NOSIG=
201104300900 METAR LMML NIL=
201104300845 METAR LMML 300845Z 13015KT 9000 NSC 18/16 Q1002 NOSIG=
201104300830 METAR LMML NIL=
201104300815 METAR LMML 300815Z 14014KT 9000 NSC 18/15 Q1002 NOSIG=
201104300800 METAR LMML NIL=
201104300745 METAR LMML 300745Z 14010KT 110V180 7000 NSC 18/15 Q1003 RERA
                        TEMPO 5000 RA=
201104300730 METAR LMML NIL=
201104300715 METAR LMML 300715Z 17009KT 110V210 6000 -RA NSC 17/14 Q1004
                        TEMPO 5000 RA=
201104300700 METAR LMML NIL=
201104300645 METAR LMML 300645Z 15015KT 130V190 8000 -RA NSC 17/14 Q1003
                        NOSIG=
201104300630 METAR LMML NIL=
201104300615 METAR LMML 300615Z 15016KT 110V190 9000 -RA NSC 17/14 Q1003
                        NOSIG=
201104300600 METAR LMML NIL=
201104300545 METAR LMML 300545Z 13014KT 100V170 9000 -RA NSC 17/14 Q1002
                        NOSIG=
201104300530 METAR LMML NIL=
201104300515 METAR LMML 300515Z 13015KT 9000 NSC 17/14 Q1002 NOSIG=
201104300500 METAR LMML NIL=
201104300445 METAR LMML 300445Z 13011KT 7000 -RA NSC 16/14 Q1004 NOSIG=
201104300430 METAR LMML NIL=
201104300415 METAR LMML 300415Z 13016KT 7000 -SHRA NSC 16/14 Q1003 NOSIG=
201104300400 METAR LMML NIL=
201104300345 METAR LMML 300345Z 12014KT CAVOK 17/13 Q1003 NOSIG=
201104300315 METAR LMML 300315Z 12018KT CAVOK 16/14 Q1003 NOSIG=
201104300300 METAR LMML NIL=
201104300245 METAR LMML 300245Z 13017KT CAVOK 16/14 Q1003 NOSIG=
201104300230 METAR LMML NIL=
201104300215 METAR LMML 300215Z 14013KT CAVOK 16/14 Q1005 NOSIG=
201104300200 METAR LMML NIL=
201104300145 METAR LMML 300145Z 14014KT CAVOK 17/14 Q1004 NOSIG=
201104300130 METAR LMML NIL=
201104300115 METAR LMML 300115Z 14013KT 110V180 CAVOK 16/14 Q1005 NOSIG=
201104300045 METAR LMML 300045Z 15012KT 110V180 CAVOK 16/14 Q1006 NOSIG=
201104300030 METAR LMML NIL=
201104300015 METAR LMML 300015Z 16010KT 130V200 CAVOK 16/14 Q1007 NOSIG=
201104300000 METAR LMML NIL=
201104292345 METAR LMML 292345Z 14011KT CAVOK 16/14 Q1006 NOSIG=
201104292330 METAR LMML NIL=
201104292315 METAR LMML 292315Z 13011KT CAVOK 16/14 Q1006 NOSIG=
201104292300 METAR LMML NIL=
201104292245 METAR LMML 292245Z 14012KT CAVOK 16/14 Q1007 NOSIG=
201104292215 METAR LMML 292215Z 14012KT CAVOK 16/14 Q1007 NOSIG=
201104292200 METAR LMML NIL=
201104292145 METAR LMML 292145Z 14012KT CAVOK 16/14 Q1007 NOSIG=
201104292130 METAR LMML NIL=
201104292115 METAR LMML 292115Z 14011KT CAVOK 16/14 Q1007 NOSIG=
201104292100 METAR LMML NIL=
201104292045 METAR LMML 292045Z 14010KT 9000 NSC 16/15 Q1008 NOSIG=
201104292030 METAR LMML NIL=
201104292015 METAR LMML 292015Z 14009KT 9000 NSC 16/15 Q1009 NOSIG=
201104291945 METAR LMML 291945Z 14008KT 9000 NSC 16/15 Q1009 NOSIG=
201104291930 METAR LMML NIL=
201104291915 METAR LMML 291915Z 14008KT 9000 NSC 16/15 Q1009 NOSIG=
201104291900 METAR LMML NIL=
201104291845 METAR LMML 291845Z 14007KT CAVOK 16/15 Q1009 NOSIG=
201104291830 METAR LMML NIL=
201104291815 METAR LMML 291815Z 14008KT CAVOK 16/15 Q1009 NOSIG=
201104291800 METAR LMML NIL=
201104291745 METAR LMML 291745Z 15005KT CAVOK 16/14 Q1009 NOSIG=
201104291715 METAR LMML 291715Z 14007KT 110V170 CAVOK 17/14 Q1009 NOSIG=
201104291700 METAR LMML NIL=
201104291645 METAR LMML 291645Z 15008KT 120V180 CAVOK 17/13 Q1008 NOSIG=
201104291630 METAR LMML NIL=
201104291615 METAR LMML 291615Z 13008KT CAVOK 18/13 Q1009 NOSIG=
201104291545 METAR LMML 291545Z 17005KT 140V200 CAVOK 18/12 Q1009 NOSIG=
201104291530 METAR LMML NIL=
201104291515 METAR LMML 291515Z 18006KT 150V210 CAVOK 18/12 Q1009 NOSIG=
201104291500 METAR LMML NIL=
201104291445 METAR LMML 291445Z 20007KT 170V240 9999 FEW012 SCT120 18/13
                        Q1010 NOSIG=
201104291430 METAR LMML NIL=
201104291415 METAR LMML 291415Z 19007KT 150V240 9999 FEW012 SCT120 18/14
                        Q1010 NOSIG=
201104291400 METAR LMML NIL=
201104291345 METAR LMML 291345Z 20007KT 160V260 CAVOK 20/12 Q1010 NOSIG=
201104291330 METAR LMML NIL=
201104291315 METAR LMML 291315Z 21009KT 180V250 CAVOK 19/10 Q1010 NOSIG=
201104291300 METAR LMML NIL=
201104291245 METAR LMML 291245Z 20009KT 160V250 9999 FEW012 BKN250 19/13
                        Q1010 NOSIG=
201104291230 METAR LMML NIL=
201104291215 METAR LMML 291215Z 20009KT 160V270 9999 FEW012 BKN250 19/13
                        Q1011 NOSIG=
201104291145 METAR LMML 291145Z 20008KT 150V260 9999 FEW012 BKN250 19/14
                        Q1011 NOSIG=
201104291115 METAR LMML 291115Z 19007KT 150V230 9999 FEW012 BKN250 19/14
                        Q1011 NOSIG=
201104291045 METAR LMML 291045Z 20005KT 140V270 9999 FEW012 BKN250 19/14
                        Q1011 NOSIG=
201104291030 METAR LMML NIL=
201104291015 METAR LMML 291015Z 20005KT 140V270 9999 FEW012 BKN250 19/13
                        Q1011 NOSIG=
201104290945 METAR LMML 290945Z 21007KT 150V260 9999 FEW012 BKN250 18/14
                        Q1011 NOSIG=
201104290930 METAR LMML NIL=
201104290915 METAR LMML 290915Z 22007KT 9999 FEW012 BKN250 18/14 Q1011
                        NOSIG=
201104290900 METAR LMML NIL=
201104290845 METAR LMML 290845Z 21005KT 150V260 CAVOK 19/14 Q1011 NOSIG=
201104290830 METAR LMML NIL=
201104290815 METAR LMML 290815Z VRB02KT CAVOK 19/12 Q1011 NOSIG=
201104290800 METAR LMML NIL=
201104290745 METAR LMML 290745Z VRB02KT CAVOK 18/12 Q1011 NOSIG=
201104290730 METAR LMML NIL=
201104290715 METAR LMML 290715Z VRB01KT CAVOK 17/13 Q1011 NOSIG=
201104290700 METAR LMML NIL=
201104290645 METAR LMML 290645Z VRB02KT 9000 FEW012 BKN250 16/13 Q1011
                        BECMG 9999=
201104290630 METAR LMML NIL=
201104290615 METAR LMML 290615Z 27003KT 9000 FEW012 BKN250 15/14 Q1011
                        BECMG 9999=
201104290600 METAR LMML NIL=
201104290545 METAR LMML 290545Z 30004KT 270V340 7000 NSC 15/14 Q1011 BECMG
                        9999=
201104290530 METAR LMML NIL=
201104290515 METAR LMML 290515Z 28004KT 240V310 7000 FEW008 BKN250 14/13
                        Q1011 BECMG 9999=
201104290445 METAR LMML 290445Z 27006KT 230V300 7000 FEW008 BKN250 13/13
                        Q1011 BECMG 9000 NSC=
201104290430 METAR LMML NIL=
201104290415 METAR LMML 290415Z 28003KT 7000 FEW008 SCT250 13/12 Q1010
                        TEMPO 5000 SCT008=
201104290400 METAR LMML NIL=
201104290345 METAR LMML 290345Z 28007KT 7000 FEW008 13/12 Q1010 TEMPO
                        5000 SCT008=
201104290330 METAR LMML NIL=
201104290315 METAR LMML 290315Z 31005KT 280V340 7000 FEW008 13/12 Q1010
                        TEMPO 5000 SCT008=
201104290300 METAR LMML NIL=
201104290245 METAR LMML 290245Z VRB02KT 7000 FEW008 13/12 Q1010 TEMPO
                        5000 SCT008=
201104290230 METAR LMML NIL=
201104290215 METAR LMML 290215Z VRB02KT 7000 FEW008 13/13 Q1010 TEMPO
                        5000 SCT008=
201104290200 METAR LMML NIL=
201104290145 METAR LMML 290145Z 26005KT 220V310 7000 FEW008 13/13 Q1011
                        TEMPO 5000 SCT008=
201104290130 METAR LMML NIL=
201104290115 METAR LMML 290115Z 26005KT 220V290 7000 NSC 14/13 Q1010 TEMPO
                        5000 SCT008=
201104290100 METAR LMML NIL=
201104290045 METAR LMML 290045Z 27005KT 240V300 8000 NSC 14/13 Q1010 TEMPO
                        5000 SCT008=
201104290030 METAR LMML NIL=
201104290015 METAR LMML 290015Z 25004KT 210V280 8000 NSC 13/13 Q1011 TEMPO
                        5000 SCT008=
201104290000 METAR LMML NIL=
201104282345 METAR LMML 282345Z 24005KT 220V280 8000 NSC 14/13 Q1011 TEMPO
                        5000 SCT008=
201104282330 METAR LMML NIL=
201104282315 METAR LMML 282315Z 24004KT 190V290 8000 NSC 14/13 Q1011 TEMPO
                        5000 SCT008=
201104282300 METAR LMML NIL=
201104282245 METAR LMML 282245Z 25006KT 210V270 9000 NSC 14/13 Q1011 TEMPO
                        8000 SCT008=
201104282230 METAR LMML NIL=
201104282215 METAR LMML 282215Z 25004KT 9000 NSC 14/13 Q1012 TEMPO 8000
                        SCT008=
201104282200 METAR LMML NIL=
201104282145 METAR LMML 282145Z 26004KT 230V300 9000 NSC 15/13 Q1012 TEMPO
                        8000 SCT008=
201104282130 METAR LMML NIL=
201104282115 METAR LMML 282115Z 25004KT 220V290 9000 NSC 14/13 Q1012 TEMPO
                        8000 SCT008=
201104282100 METAR LMML NIL=
201104282045 METAR LMML 282045Z 28006KT 250V310 9000 NSC 14/13 Q1012 TEMPO
                        8000 SCT008=
201104282030 METAR LMML NIL=
201104282015 METAR LMML 282015Z 23003KT 9000 FEW014 14/13 Q1012 TEMPO
                        8000 SCT008=
201104282000 METAR LMML NIL=
201104281945 METAR LMML 281945Z VRB02KT 9000 FEW014 15/13 Q1012 TEMPO
                        8000 SCT008=
201104281930 METAR LMML NIL=
201104281915 METAR LMML 281915Z 28006KT 9000 FEW014 15/13 Q1011 TEMPO
                        8000 SCT008=
201104281900 METAR LMML NIL=
201104281845 METAR LMML 281845Z 31006KT 260V330 9999 FEW014 15/14 Q1011
                        NOSIG=
201104281830 METAR LMML NIL=
201104281815 METAR LMML 281815Z 29006KT 230V330 9999 FEW014 15/13 Q1011
                        NOSIG=
201104281800 METAR LMML NIL=
201104281745 METAR LMML 281745Z 28008KT 220V320 9999 FEW014 15/13 Q1011
                        NOSIG=
201104281730 METAR LMML NIL=
201104281715 METAR LMML 281715Z 28011KT 250V310 9999 FEW014 16/13 Q1011
                        NOSIG=
201104281700 METAR LMML NIL=
201104281645 METAR LMML 281645Z 28011KT 9999 FEW016 17/13 Q1010 NOSIG=
201104281630 METAR LMML NIL=
201104281615 METAR LMML 281615Z 28011KT 240V310 9999 FEW016 17/13 Q1010
                        NOSIG=
201104281600 METAR LMML NIL=
201104281545 METAR LMML 281545Z 28013KT 240V310 9999 FEW017 18/13 Q1010
                        NOSIG=
201104281530 METAR LMML NIL=
201104281515 METAR LMML 281515Z 28014KT 9999 FEW019 18/13 Q1010 NOSIG=
201104281500 METAR LMML NIL=
201104281445 METAR LMML 281445Z 29013KT 250V320 9999 FEW016 19/12 Q1010
                        NOSIG RMK CB TOPS TO NNE=
201104281430 METAR LMML NIL=
201104281415 METAR LMML 281415Z 28015KT 250V320 9999 FEW016 19/12 Q1010
                        NOSIG RMK CB TOPS TO NNE=
201104281345 METAR LMML 281345Z 28015KT 250V310 9999 FEW024 19/11 Q1010
                        NOSIG=
201104281330 METAR LMML NIL=
201104281315 METAR LMML 281315Z 29015KT 9999 FEW024 19/11 Q1010 NOSIG=
201104281300 METAR LMML NIL=
201104281245 METAR LMML 281245Z 28014KT 240V310 9999 FEW024 19/11 Q1010
                        NOSIG=
201104281230 METAR LMML NIL=
201104281215 METAR LMML 281215Z 29014KT 250V320 9999 FEW024 19/11 Q1010
                        NOSIG=
201104281200 METAR LMML NIL=
201104281145 METAR LMML 281145Z 30016KT 260V330 9999 FEW020 20/12 Q1010
                        NOSIG=
201104281115 METAR LMML 281115Z 30016KT 270V340 9999 FEW020 20/11 Q1010
                        NOSIG=
201104281100 METAR LMML NIL=
201104281045 METAR LMML 281045Z 30016KT 270V330 9999 FEW019 19/11 Q1010
                        NOSIG=
201104281030 METAR LMML NIL=
201104281015 METAR LMML 281015Z 30016KT 280V340 9999 FEW019 19/11 Q1011
                        NOSIG=
201104281000 METAR LMML NIL=
201104280945 METAR LMML 280945Z 29014KT 250V320 9999 FEW019 SCT060 18/13
                        Q1011 NOSIG=
201104280930 METAR LMML NIL=
201104280915 METAR LMML 280915Z 29011KT 260V330 9999 FEW017 BKN070 18/13
                        Q1010 NOSIG=
201104280900 METAR LMML NIL=
201104280845 METAR LMML 280845Z 30015KT 260V320 9999 FEW015 SCT070 18/13
                        Q1010 NOSIG=
201104280830 METAR LMML NIL=
201104280815 METAR LMML 280815Z 30014KT 9999 FEW014 17/14 Q1010 NOSIG=
201104280800 METAR LMML NIL=
201104280745 METAR LMML 280745Z 30012KT 260V330 9999 SCT013 SCT070 16/14
                        Q1010 NOSIG=
201104280730 METAR LMML NIL=
201104280715 METAR LMML 280715Z 31012KT 9999 FEW010 SCT050 BKN072 16/14
                        Q1010 NOSIG=
201104280700 METAR LMML NIL=
201104280645 METAR LMML 280645Z 31011KT 9999 FEW010 SCT053 BKN070 16/14
                        Q1010 NOSIG=
201104280630 METAR LMML NIL=
201104280615 METAR LMML 280615Z 31008KT 9000 FEW010 SCT057 BKN077 16/15
                        Q1010 BECMG 9999=
201104280600 METAR LMML NIL=
201104280545 METAR LMML 280545Z 31008KT 7000 FEW018 SCT060 BKN090 15/14
                        Q1009 BECMG 9999=
201104280515 METAR LMML 280515Z 31009KT 7000 NSC 15/14 Q1009 BECMG CAVOK=
201104280500 METAR LMML NIL=
201104280445 METAR LMML 280445Z 31007KT 7000 FEW012 SCT070 BKN090 15/14
                        Q1009 BECMG 9999=
201104280430 METAR LMML NIL=
201104280415 METAR LMML 280415Z 31006KT 7000 -RA FEW012 SCT036 BKN080
                        15/14 Q1009 BECMG 9999=
201104280400 METAR LMML NIL=
201104280345 METAR LMML 280345Z 32006KT 9000 -RA FEW008 SCT037 BKN070
                        15/14 Q1009 NOSIG=
201104280330 METAR LMML NIL=
201104280315 METAR LMML 280315Z 31004KT 9999 -RA SCT008 BKN011 15/14 Q1008
                        NOSIG=
201104280300 METAR LMML NIL=
201104280245 METAR LMML 280245Z VRB01KT 9999 FEW009 BKN011 15/14 Q1008
                        NOSIG=
201104280230 METAR LMML NIL=
201104280215 METAR LMML 280215Z VRB01KT 9999 FEW005 BKN010 15/14 Q1008
                        NOSIG=
201104280200 METAR LMML NIL=
201104280145 METAR LMML 280145Z VRB02KT 9999 -RA FEW008 SCT012 BKN020
                        15/14 Q1008 NOSIG=
201104280130 METAR LMML NIL=
201104280115 METAR LMML 280115Z VRB02KT 9999 FEW005 SCT022 BKN060 15/14
                        Q1008 NOSIG=
201104280100 METAR LMML NIL=
201104280045 METAR LMML 280045Z 01004KT 350V050 9999 FEW013 SCT025 BKN060
                        15/14 Q1008 NOSIG=
201104280030 METAR LMML NIL=
201104280015 METAR LMML 280015Z VRB02KT 9999 FEW007 SCT042 BKN070 15/14
                        Q1008 NOSIG=
201104280000 METAR LMML NIL=
201104272345 METAR LMML 272345Z 35004KT 9999 FEW006 SCT031 BKN070 15/15
                        Q1008 NOSIG=
201104272330 METAR LMML NIL=
201104272315 METAR LMML 272315Z 34005KT 9999 FEW012 SCT033 BKN080 15/14
                        Q1008 NOSIG=
201104272300 METAR LMML NIL=
201104272245 METAR LMML 272245Z VRB01KT 9999 FEW036 SCT045 BKN080 15/15
                        Q1008 NOSIG=
201104272230 METAR LMML NIL=
201104272215 METAR LMML 272215Z VRB02KT 9999 FEW012 SCT042 BKN080 15/15
                        Q1008 NOSIG=
201104272145 METAR LMML 272145Z 31003KT 9999 FEW012 BKN080 15/14 Q1008
                        NOSIG=
201104272130 METAR LMML NIL=
201104272115 METAR LMML 272115Z 28003KT 9999 FEW012 BKN080 15/14 Q1008
                        NOSIG=
201104272045 METAR LMML 272045Z VRB02KT 9999 FEW012 BKN080 15/14 Q1008
                        NOSIG=
201104272030 METAR LMML NIL=
201104272015 METAR LMML 272015Z 27004KT 9999 FEW012 SCT044 BKN090 15/14
                        Q1008 NOSIG=
201104272000 METAR LMML NIL=
201104271945 METAR LMML 271945Z VRB02KT 9999 FEW012 SCT070 BKN100 15/15
                        Q1008 NOSIG=
201104271930 METAR LMML NIL=
201104271915 METAR LMML 271915Z 33003KT 9999 FEW010 SCT100 BKN120 15/15
                        Q1007 NOSIG=
201104271900 METAR LMML NIL=
201104271845 METAR LMML 271845Z 01004KT 9999 FEW010 SCT100 BKN120 15/14
                        Q1007 NOSIG=
201104271830 METAR LMML NIL=
201104271815 METAR LMML 271815Z 36006KT 9999 FEW010 SCT120 15/14 Q1007
                        NOSIG=
201104271800 METAR LMML NIL=
201104271745 METAR LMML 271745Z 35004KT 9999 FEW011 SCT080 16/14 Q1007
                        NOSIG=
201104271730 METAR LMML NIL=
201104271715 METAR LMML 271715Z 33004KT 310V010 9999 FEW011 SCT049 BKN080
                        16/14 Q1006 NOSIG=
201104271700 METAR LMML NIL=
201104271645 METAR LMML 271645Z 34005KT 9999 FEW011 BKN080 BKN120 17/15
                        Q1006 NOSIG=
201104271630 METAR LMML NIL=
201104271615 METAR LMML 271615Z 34007KT 9999 SCT012 SCT050 BKN080 16/14
                        Q1006 NOSIG=
201104271600 METAR LMML NIL=
201104271545 METAR LMML 271545Z 34006KT 310V020 9999 SCT012 SCT035 BKN060
                        16/15 Q1005 NOSIG=
201104271530 METAR LMML NIL=
201104271515 METAR LMML 271515Z 30011KT 9999 -SHRA SCT014 SCT035 BKN090
                        18/14 Q1005 NOSIG=
201104271500 METAR LMML NIL=
201104271445 METAR LMML 271445Z 29012KT 260V320 9999 SCT014 SCT035 BKN090
                        17/14 Q1005 NOSIG=
201104271430 METAR LMML NIL=
201104271415 METAR LMML 271415Z 29012KT 260V320 9999 BKN015 SCT050 17/14
                        Q1005 NOSIG=
201104271345 METAR LMML 271345Z 29012KT 240V320 9999 BKN015 18/14 Q1005
                        NOSIG=
201104271330 METAR LMML NIL=
201104271315 METAR LMML 271315Z 28015KT 250V310 9999 BKN015 18/14 Q1005
                        NOSIG=
201104271300 METAR LMML NIL=
201104271245 METAR LMML 271245Z 29015KT 250V310 9999 BKN015 19/14 Q1005
                        NOSIG=
201104271230 METAR LMML NIL=
201104271215 METAR LMML 271215Z 28015KT 220V300 9999 BKN015 18/14 Q1005
                        NOSIG=
201104271200 METAR LMML NIL=
201104271145 METAR LMML 271145Z 28015KT 240V300 9999 BKN016 SCT250 18/14
                        Q1005 NOSIG=
201104271130 METAR LMML NIL=
201104271115 METAR LMML 271115Z 28015KT 250V310 9999 SCT016 19/14 Q1005
                        NOSIG=
201104271045 METAR LMML 271045Z 29013KT 260V320 9999 SCT014 SCT250 18/14
                        Q1005 NOSIG=
201104271030 METAR LMML NIL=
201104271015 METAR LMML 271015Z 30016KT 9999 BKN016 18/14 Q1005 TEMPO
                        8000 RA=
201104271000 METAR LMML NIL=
201104270945 METAR LMML 270945Z 29016KT 250V320 9999 BKN014 SCT080 18/14
                        Q1005 TEMPO 8000 RA=
201104270930 METAR LMML NIL=
201104270915 METAR LMML 270915Z 30016KT 9999 BKN014 BKN080 17/14 Q1005
                        TEMPO 8000 RA=
201104270900 METAR LMML NIL=
201104270845 METAR LMML 270845Z 30015KT 9999 SCT010 BKN017 17/15 Q1005
                        TEMPO 8000 RA=
201104270830 METAR LMML NIL=
201104270815 METAR LMML 270815Z 30014KT 9999 SCT012 SCT018 BKN080 16/14
                        Q1005 TEMPO 8000 RA=
201104270745 METAR LMML 270745Z 30016KT 270V330 9999 BKN012 BKN080 16/14
                        Q1005 TEMPO 8000 RA=
201104270730 METAR LMML NIL=
201104270715 METAR LMML 270715Z 30018KT 9999 SCT008 SCT080 16/15 Q1004
                        TEMPO 8000 RA=
201104270700 METAR LMML NIL=
201104270645 METAR LMML 270645Z 29013KT 260V330 9999 BKN009 SCT012 BKN070
                        16/15 Q1004 TEMPO 8000 RA=
201104270630 METAR LMML NIL=
201104270615 METAR LMML 270615Z 31012KT 9999 SCT007 SCT070 16/15 Q1004
                        TEMPO 8000 RA=
201104270600 METAR LMML NIL=
201104270545 METAR LMML 270545Z 31009KT 9999 -RA FEW010 SCT060 BKN080
                        15/15 Q1004 TEMPO 8000 RA=
201104270530 METAR LMML NIL=
201104270515 METAR LMML 270515Z 30010KT 9999 -RA BKN010 BKN080 15/15 Q1004
                        TEMPO 8000 RA=
201104270500 METAR LMML NIL=
201104270445 METAR LMML 270445Z 31011KT 270V330 9999 BKN009 BKN013 15/15
                        Q1003 NOSIG=
201104270415 METAR LMML 270415Z 30011KT 9999 BKN009 BKN014 15/15 Q1003
                        NOSIG=
201104270400 METAR LMML NIL=
201104270345 METAR LMML 270345Z 30010KT 9999 FEW008 BKN014 BKN100 15/15
                        Q1003 TEMPO BKN008=
201104270330 METAR LMML NIL=
201104270315 METAR LMML 270315Z 30010KT 270V340 9999 BKN012 BKN100 15/14
                        Q1003 NOSIG=
201104270300 METAR LMML NIL=
201104270245 METAR LMML 270245Z 30010KT 9999 FEW007 SCT060 BKN100 15/14
                        Q1003 TEMPO 5000 RA BKN003=
201104270230 METAR LMML NIL=
201104270215 METAR LMML 270215Z 29009KT 9999 FEW007 BKN060 15/14 Q1003
                        TEMPO 5000 RA BKN003=
201104270200 METAR LMML NIL=
201104270145 METAR LMML 270145Z 30009KT 9999 FEW007 15/14 Q1003 TEMPO
                        5000 RA BKN003=
201104270130 METAR LMML NIL=
201104270115 METAR LMML 270115Z 31011KT 9999 FEW007 SCT026 15/14 Q1003
                        TEMPO 5000 RA BKN003=
201104270100 METAR LMML NIL=
201104270045 METAR LMML 270045Z 31014KT 9999 BKN007 BKN024 15/14 Q1003
                        TEMPO 5000 RA BKN003=
201104270030 METAR LMML NIL=
201104270015 METAR LMML 270015Z 30011KT 9999 BKN007 BKN021 15/15 Q1003
                        TEMPO 5000 RA BKN003=
201104270000 METAR LMML NIL=
201104262345 METAR LMML 262345Z 31010KT 9999 BKN007 BKN016 15/15 Q1003
                        TEMPO 5000 RA BKN003=
201104262330 METAR LMML NIL=
201104262315 METAR LMML 262315Z 33011KT 9999 BKN005 BKN014 15/15 Q1003
                        TEMPO 5000 RA BKN003=
201104262245 METAR LMML 262245Z 33009KT 9999 BKN004 BKN014 15/15 Q1003
                        TEMPO 5000 RA BKN003=
201104262230 METAR LMML NIL=
201104262215 METAR LMML 262215Z 33008KT 9999 BKN004 BKN014 15/15 Q1003
                        TEMPO 5000 RA BKN003=
201104262145 METAR LMML 262145Z 32006KT 9999 BKN004 BKN014 16/15 Q1003
                        TEMPO 5000 RA BKN003=
201104262130 METAR LMML NIL=
201104262115 METAR LMML 262115Z 32005KT 9999 SCT004 BKN090 BKN100 15/15
                        Q1003 TEMPO 5000 RA BKN003=
201104262045 METAR LMML 262045Z 33007KT 9999 BKN004 BKN090 16/15 Q1002
                        TEMPO 5000 RA BKN005=
201104262030 METAR LMML NIL=
201104262015 METAR LMML 262015Z 33003KT 9999 SCT006 SCT040 BKN090 15/15
                        Q1002 TEMPO 5000 RA BKN005=
201104262000 METAR LMML NIL=
201104261945 METAR LMML 261945Z VRB02KT 9000 SCT008 SCT044 BKN090 15/15
                        Q1002 TEMPO 5000 RA BKN005=
201104261915 METAR LMML 261915Z 03003KT 7000 -RA SCT003 BKN035 15/15 Q1001
                        NOSIG=
201104261900 METAR LMML NIL=
201104261845 METAR LMML 261845Z 07005KT 8000 -RA SCT003 BKN036 15/14 Q1001
                        TEMPO BKN003=
201104261831 SPECI LMML 261831Z 06005KT 030V090 7000 -RA SCT004 SCT012
                        BKN050 15/15 Q1000 TEMPO BKN003=
201104261830 METAR LMML NIL=
201104261815 METAR LMML 261815Z 07008KT 030V090 2000 RA SCT003 BKN010
                        BKN014 15/14 Q1000 TEMPO BKN003=
201104261800 METAR LMML NIL=
201104261745 METAR LMML 261745Z 06009KT 030V090 2000 RA SCT003 BKN009
                        BKN014 15/15 Q1000 TEMPO BKN003=
201104261730 METAR LMML NIL=
201104261715 METAR LMML 261715Z 10007KT 070V130 3000 BKN009 BKN013 15/15
                        Q0999 BECMG 8000=
201104261645 METAR LMML 261645Z 10011KT 070V130 3000 -SHRA BKN007 BKN012
                        15/15 Q0999 TEMPO BKN005=
201104261631 SPECI LMML 261631Z 09011KT 060V120 3000 -SHRA BKN008 BKN014
                        16/15 Q0999 TEMPO BKN005=
201104261630 METAR LMML NIL=
201104261615 METAR LMML 261615Z 11010KT 3000 -SHRA BKN011 BKN019 16/15
                        Q0999 NOSIG=
201104261600 METAR LMML NIL=
201104261545 METAR LMML 261545Z 14008KT 110V170 9999 SCT008 BKN014 BKN048
                        17/15 Q0999 NOSIG=
201104261530 METAR LMML NIL=
201104261515 METAR LMML 261515Z 15007KT 120V190 9999 SCT010 BKN019 17/15
                        Q0999 NOSIG=
201104261500 METAR LMML NIL=
201104261445 METAR LMML 261445Z 18009KT 150V210 9999 SCT009 BKN017 18/15
                        Q0999 NOSIG=
201104261430 METAR LMML NIL=
201104261415 METAR LMML 261415Z 18010KT 150V220 9999 SCT008 BKN024 18/15
                        Q0999 NOSIG=
201104261400 METAR LMML NIL=
201104261345 METAR LMML 261345Z 19008KT 160V220 9999 BKN009 BKN015 17/15
                        Q1000 NOSIG=
201104261330 METAR LMML NIL=
201104261315 METAR LMML 261315Z 20009KT 170V230 9999 FEW007 SCT024 SCT120
                        17/15 Q1000 NOSIG=
201104261300 METAR LMML NIL=
201104261245 METAR LMML 261245Z 21008KT 150V260 8000 FEW009 SCT024 BKN120
                        18/16 Q1000 TEMPO BKN008=
201104261230 METAR LMML NIL=
201104261215 METAR LMML 261215Z 20007KT 170V240 8000 SCT005 SCT023 BKN120
                        17/16 Q1000 TEMPO BKN008=
201104261200 METAR LMML NIL=
201104261145 METAR LMML 261145Z 15009KT 4000 -RA BKN009 BKN016 BKN120
                        17/16 Q1000 TEMPO BKN008=
201104261137 SPECI LMML 261137Z 15008KT 120V190 4000 -RA BKN009 BKN017
                        BKN120 17/16 Q1000 TEMPO BKN008=
201104261130 METAR LMML NIL=
201104261115 METAR LMML 261115Z 12010KT 090V160 4000 -RA FEW009 SCT018
                        BKN120 18/16 Q1000 TEMPO BKN008=
201104261100 METAR LMML NIL=
201104261045 METAR LMML 261045Z 10008KT 080V140 4000 BR FEW007 SCT080
                        BKN120 18/17 Q1000 TEMPO BKN008=
201104261030 METAR LMML NIL=
201104261015 METAR LMML 261015Z 08007KT 040V110 3000 BR FEW006 SCT080
                        BKN120 17/16 Q1000 TEMPO BKN008=
201104261000 METAR LMML NIL=
201104260945 METAR LMML 260945Z 09010KT 060V120 3000 -RA FEW006 SCT070
                        BKN130 16/16 Q1001 TEMPO 2000 TSRA
                        BKN030CB=
201104260930 METAR LMML NIL=
201104260915 METAR LMML 260915Z 12007KT 090V170 3000 BR FEW006 SCT080
                        BKN130 17/16 Q1001 TEMPO 2000 TSRA
                        BKN030CB=
201104260900 METAR LMML NIL=
201104260845 METAR LMML 260845Z 08009KT 3000 BR SCT002 SCT060 BKN120 17/17
                        Q1000 RESHRA TEMPO 2000 TSRA BKN030CB=
201104260830 METAR LMML NIL=
201104260815 METAR LMML 260815Z 07008KT 030V100 2000 -RA SCT003 SCT060
                        BKN120 17/16 Q1000 RESHRA TEMPO 2000
                        TSRA BKN030CB=
201104260800 METAR LMML NIL=
201104260745 METAR LMML 260745Z 08006KT 030V120 3000 SHRA BKN005 BKN009
                        BKN120 17/16 Q1001 TEMPO 2000 TSRA
                        BKN030CB=
201104260730 METAR LMML NIL=
201104260715 METAR LMML 260715Z 11003KT 3000 -SHRA BKN005 BKN120 17/16
                        Q1001 TEMPO 2000 TSRA BKN030CB=
201104260700 METAR LMML NIL=
201104260645 METAR LMML 260645Z 10010KT 3000 BR BKN004 BKN008 17/16 Q1000
                        TEMPO 2000 TSRA BKN030CB=
201104260630 METAR LMML NIL=
201104260615 METAR LMML 260615Z 09008KT 3000 BR BKN003 BKN008 17/16 Q1001
                        TEMPO 2000 TSRA BKN030CB=
201104260600 METAR LMML NIL=
201104260545 METAR LMML 260545Z 10009KT 3000 BR BKN005 BKN008 17/16 Q1001
                        NOSIG=
201104260530 METAR LMML NIL=
201104260515 METAR LMML 260515Z 10008KT 070V130 3000 BR BKN004 16/16 Q1001
                        NOSIG=
201104260500 METAR LMML NIL=
201104260445 METAR LMML 260445Z 11008KT 3000 BR BKN004 16/16 Q1001 NOSIG=
201104260415 METAR LMML 260415Z 10007KT 070V130 4000 BR BKN004 16/15 Q1001
                        NOSIG=
201104260400 METAR LMML NIL=
201104260345 METAR LMML 260345Z 10008KT 070V130 4000 BR BKN004 16/15 Q1001
                        TEMPO 3000 BR BKN003=
201104260330 METAR LMML NIL=
201104260315 METAR LMML 260315Z 08009KT 050V110 4000 BR BKN004 16/15 Q1001
                        TEMPO 3000 BR BKN003=
201104260300 METAR LMML NIL=
201104260245 METAR LMML 260245Z 09009KT 4000 BR BKN004 16/15 Q1001 TEMPO
                        3000 BR BKN003=
201104260230 METAR LMML NIL=
201104260215 METAR LMML 260215Z 08010KT 4000 BR BKN004 16/15 Q1002 TEMPO
                        3000 BR BKN003=
201104260145 METAR LMML 260145Z 09008KT 050V120 4000 BR BKN004 16/15 Q1002
                        TEMPO 3000 BR BKN003=
201104260130 METAR LMML NIL=
201104260115 METAR LMML 260115Z 09007KT 050V120 4000 BR BKN005 16/15 Q1002
                        TEMPO 3000 BR BKN003=
201104260100 METAR LMML NIL=
201104260045 METAR LMML 260045Z 08008KT 060V120 5000 BR BKN006 16/15 Q1002
                        TEMPO BKN005=
201104260030 METAR LMML NIL=
201104260015 METAR LMML 260015Z 08010KT 040V110 6000 BKN007 16/15 Q1003
                        TEMPO 5000 BR=
201104260000 METAR LMML NIL=
201104252345 METAR LMML 252345Z 08010KT 010V120 6000 BKN008 16/15 Q1003
                        TEMPO 5000 BR=
201104252330 METAR LMML NIL=
201104252315 METAR LMML 252315Z 09010KT 050V110 6000 BKN009 16/15 Q1004
                        TEMPO 5000 BR=
201104252300 METAR LMML NIL=
201104252245 METAR LMML 252245Z 08012KT 6000 BKN009 16/15 Q1003 TEMPO
                        5000 BR=
201104252230 METAR LMML NIL=
201104252215 METAR LMML 252215Z 09010KT 040V110 6000 BKN010 16/15 Q1003
                        TEMPO 5000 BR=
201104252200 METAR LMML NIL=
201104252145 METAR LMML 252145Z 09012KT 7000 FEW008 SCT012 16/15 Q1004
                        TEMPO 5000 BR BKN010=
201104252130 METAR LMML NIL=
201104252115 METAR LMML 252115Z 08011KT 050V110 7000 SCT012 16/15 Q1004
                        TEMPO 5000 BR BKN010=
201104252100 METAR LMML NIL=
201104252045 METAR LMML 252045Z 09011KT 050V120 7000 SCT012 16/15 Q1004
                        TEMPO 5000 BR BKN010=
201104252030 METAR LMML NIL=
201104252015 METAR LMML 252015Z 09011KT 7000 FEW011 16/14 Q1004 NOSIG=
201104252000 METAR LMML NIL=
201104251945 METAR LMML 251945Z 09011KT 060V120 7000 FEW009 16/14 Q1004
                        NOSIG=
201104251930 METAR LMML NIL=
201104251915 METAR LMML 251915Z 09011KT 050V120 7000 FEW009 16/14 Q1003
                        NOSIG=
201104251900 METAR LMML NIL=
201104251845 METAR LMML 251845Z 09012KT 060V120 7000 FEW012 16/14 Q1003
                        NOSIG=
201104251830 METAR LMML NIL=
201104251815 METAR LMML 251815Z 09014KT 050V130 7000 FEW012 16/14 Q1002
                        NOSIG=
201104251800 METAR LMML NIL=
201104251745 METAR LMML 251745Z 09014KT 6000 FEW012 16/14 Q1002 TEMPO
                        5000 DU=
201104251730 METAR LMML NIL=
201104251715 METAR LMML 251715Z 10014KT 6000 FEW012 16/14 Q1002 TEMPO
                        5000 DU=
201104251645 METAR LMML 251645Z 10014KT 6000 FEW012 17/14 Q1002 NOSIG=
201104251630 METAR LMML NIL=
201104251615 METAR LMML 251615Z 10016KT 7000 FEW012 17/14 Q1002 NOSIG=
201104251545 METAR LMML 251545Z 10016KT 8000 FEW013 18/14 Q1002 NOSIG=
201104251515 METAR LMML 251515Z 09015KT 060V120 9999 FEW017 18/14 Q1002
                        NOSIG=
201104251500 METAR LMML NIL=
201104251445 METAR LMML 251445Z 10014KT 9999 FEW017 19/14 Q1003 NOSIG=
201104251430 METAR LMML NIL=
201104251415 METAR LMML 251415Z 10014KT 080V140 9999 FEW020 19/14 Q1003
                        NOSIG=
201104251400 METAR LMML NIL=
201104251345 METAR LMML 251345Z 09015KT 060V120 CAVOK 19/14 Q1003 NOSIG=
201104251315 METAR LMML 251315Z 09017KT 060V120 CAVOK 20/14 Q1003 NOSIG=
201104251300 METAR LMML NIL=
201104251245 METAR LMML 251245Z 10019KT CAVOK 20/14 Q1003 NOSIG=
201104251215 METAR LMML 251215Z 10018KT CAVOK 20/14 Q1004 NOSIG=
201104251200 METAR LMML NIL=
201104251145 METAR LMML 251145Z 10017KT 070V130 CAVOK 20/14 Q1004 NOSIG=
201104251115 METAR LMML 251115Z 11018KT 080V140 CAVOK 20/14 Q1004 NOSIG=
201104251045 METAR LMML 251045Z 11018KT CAVOK 20/14 Q1005 NOSIG=
201104251030 METAR LMML NIL=
201104251015 METAR LMML 251015Z 10019KT 070V130 CAVOK 20/14 Q1005 NOSIG=
201104251000 METAR LMML NIL=
201104250945 METAR LMML 250945Z 10019KT CAVOK 19/14 Q1005 NOSIG=
201104250930 METAR LMML NIL=
201104250915 METAR LMML 250915Z 10019KT 070V140 CAVOK 19/14 Q1005 NOSIG=
201104250900 METAR LMML NIL=
201104250845 METAR LMML 250845Z 10020KT CAVOK 19/14 Q1005 TEMPO 11025G35KT=
201104250830 METAR LMML NIL=
201104250815 METAR LMML 250815Z 10020KT 070V130 CAVOK 19/14 Q1005 TEMPO
                        11025G35KT=
201104250800 METAR LMML NIL=
201104250745 METAR LMML 250745Z 10022KT CAVOK 18/13 Q1005 TEMPO 11025G35KT=
201104250715 METAR LMML 250715Z 10019KT CAVOK 18/13 Q1005 TEMPO 11020G30KT=
201104250645 METAR LMML 250645Z 10016KT CAVOK 17/13 Q1006 TEMPO 11020G30KT=
201104250630 METAR LMML NIL=
201104250615 METAR LMML 250615Z 10016KT CAVOK 17/13 Q1006 NOSIG=
201104250545 METAR LMML 250545Z 10016KT 060V120 CAVOK 16/13 Q1005 NOSIG=
201104250515 METAR LMML 250515Z 09016KT 9000 NSC 16/13 Q1006 NOSIG=
201104250500 METAR LMML NIL=
201104250445 METAR LMML 250445Z 09016G27KT 9000 NSC 16/13 Q1006 NOSIG=
201104250430 METAR LMML NIL=
201104250415 METAR LMML 250415Z 09017KT 9000 NSC 15/12 Q1006 NOSIG=
201104250400 METAR LMML NIL=
201104250345 METAR LMML 250345Z 09017KT CAVOK 16/12 Q1006 NOSIG=
201104250330 METAR LMML NIL=
201104250315 METAR LMML 250315Z 10017KT CAVOK 16/11 Q1006 NOSIG=
201104250300 METAR LMML NIL=
201104250245 METAR LMML 250245Z 09018KT 050V120 CAVOK 15/12 Q1006 TEMPO
                        7000 TSRA BKN039CB=
201104250230 METAR LMML NIL=
201104250215 METAR LMML 250215Z 10018KT CAVOK 15/12 Q1007 TEMPO 7000 TSRA
                        BKN039CB=
201104250200 METAR LMML NIL=
201104250145 METAR LMML 250145Z 09018KT 060V120 9999 FEW035 SCT120 15/12
                        Q1007 TEMPO 7000 TSRA BKN039CB=
201104250130 METAR LMML NIL=
201104250115 METAR LMML 250115Z 10020KT 9999 FEW035 SCT120 15/12 Q1007
                        TEMPO 7000 TSRA BKN039CB=
201104250100 METAR LMML NIL=
201104250045 METAR LMML 250045Z 10021KT 9999 SCT035 BKN120 15/12 Q1007
                        RETSRA TEMPO 7000 TSRA BKN039CB=
201104250030 METAR LMML NIL=
201104250015 METAR LMML 250015Z 09017KT 060V120 9000 -TSRA SCT039CB BKN120
                        15/12 Q1008 TEMPO 7000 TSRA BKN039CB=
201104250000 METAR LMML NIL=
201104242345 METAR LMML 242345Z 10017KT 070V130 9999 FEW015 SCT120 16/11
                        Q1009 TEMPO 7000 TSRA BKN050CB=
201104242330 METAR LMML NIL=
201104242315 METAR LMML 242315Z 10018KT CAVOK 16/11 Q1010 TEMPO 7000 TSRA
                        BKN050CB=
201104242300 METAR LMML NIL=
201104242245 METAR LMML 242245Z 10017KT 9999 FEW015 SCT120 16/12 Q1010
                        TEMPO 7000 TSRA BKN050CB=
201104242230 METAR LMML NIL=
201104242215 METAR LMML 242215Z 10017KT 9999 FEW015 SCT120 16/11 Q1010
                        TEMPO 7000 TSRA BKN050CB=
201104242200 METAR LMML NIL=
201104242145 METAR LMML 242145Z 09015KT 9999 FEW015 SCT120 16/12 Q1011
                        TEMPO 7000 TSRA BKN050CB=
201104242130 METAR LMML NIL=
201104242115 METAR LMML 242115Z 09015KT 9999 FEW015 SCT120 16/13 Q1011
                        NOSIG=
201104242100 METAR LMML NIL=
201104242045 METAR LMML 242045Z 10018KT 9999 FEW015 SCT130 16/12 Q1011
                        NOSIG=
201104242030 METAR LMML NIL=
201104242015 METAR LMML 242015Z 10015G26KT 060V120 9999 FEW015 SCT130
                        16/13 Q1012 NOSIG=
201104241945 METAR LMML 241945Z 09015KT 060V120 9999 FEW015 BKN130 16/13
                        Q1012 NOSIG=
201104241930 METAR LMML NIL=
201104241915 METAR LMML 241915Z 09016KT 9999 FEW015 BKN120 16/13 Q1012
                        NOSIG=
201104241900 METAR LMML NIL=
201104241845 METAR LMML 241845Z 09016KT 050V120 9999 FEW015 SCT120 16/14
                        Q1012 NOSIG=
201104241830 METAR LMML NIL=
201104241815 METAR LMML 241815Z 09016KT 9999 FEW015 SCT120 16/14 Q1011
                        NOSIG=
201104241800 METAR LMML NIL=
201104241745 METAR LMML 241745Z 10016KT 9999 FEW015 16/14 Q1012 NOSIG=
201104241730 METAR LMML NIL=
201104241715 METAR LMML 241715Z 10017KT 9999 FEW015 16/14 Q1012 NOSIG=
201104241645 METAR LMML 241645Z 10018KT 9999 FEW015 17/14 Q1012 NOSIG=
201104241630 METAR LMML NIL=
201104241615 METAR LMML 241615Z 10019KT 9999 FEW015 17/13 Q1012 NOSIG=
201104241600 METAR LMML NIL=
201104241545 METAR LMML 241545Z 10019KT 9999 FEW015 18/14 Q1012 NOSIG=
201104241530 METAR LMML NIL=
201104241515 METAR LMML 241515Z 10019KT 060V130 9999 FEW015 18/14 Q1012
                        NOSIG=
201104241445 METAR LMML 241445Z 10021KT 9999 FEW020 18/14 Q1012 NOSIG=
201104241430 METAR LMML NIL=
201104241415 METAR LMML 241415Z 10020KT 070V130 9999 FEW020 18/14 Q1012
                        NOSIG=
201104241400 METAR LMML NIL=
201104241345 METAR LMML 241345Z 10020KT 9999 FEW020 19/13 Q1013 NOSIG=
201104241330 METAR LMML NIL=
201104241315 METAR LMML 241315Z 10020KT 070V130 CAVOK 19/13 Q1013 NOSIG=
201104241300 METAR LMML NIL=
201104241245 METAR LMML 241245Z 10020KT CAVOK 19/13 Q1014 NOSIG=
201104241230 METAR LMML NIL=
201104241215 METAR LMML 241215Z 10020KT 070V130 CAVOK 19/13 Q1014 NOSIG=
201104241200 METAR LMML NIL=
201104241145 METAR LMML 241145Z 10022KT CAVOK 19/13 Q1014 NOSIG=
201104241115 METAR LMML 241115Z 10019KT 070V130 CAVOK 19/13 Q1014 NOSIG=
201104241100 METAR LMML NIL=
201104241045 METAR LMML 241045Z 09018KT 070V130 9999 FEW017 SCT120 19/14
                        Q1014 NOSIG=
201104241030 METAR LMML NIL=
201104241015 METAR LMML 241015Z 10020KT 9999 FEW017 SCT120 18/13 Q1014
                        NOSIG=
201104240945 METAR LMML 240945Z 10020KT 9999 FEW017 18/13 Q1015 NOSIG=
201104240930 METAR LMML NIL=
201104240915 METAR LMML 240915Z 10019KT 9999 FEW017 18/13 Q1015 NOSIG=
201104240900 METAR LMML NIL=
201104240845 METAR LMML 240845Z 10018KT 9999 FEW017 18/13 Q1015 NOSIG=
201104240830 METAR LMML NIL=
201104240815 METAR LMML 240815Z 09016KT 060V130 9999 FEW015 18/14 Q1015
                        NOSIG=
201104240745 METAR LMML 240745Z 09014KT 9999 FEW013 18/14 Q1015 NOSIG=
201104240730 METAR LMML NIL=
201104240715 METAR LMML 240715Z 09014KT 060V120 9999 FEW012 17/14 Q1015
                        NOSIG=
201104240700 METAR LMML NIL=
201104240645 METAR LMML 240645Z 10013KT 9999 FEW012 17/14 Q1015 NOSIG=
201104240630 METAR LMML NIL=
201104240615 METAR LMML 240615Z 10012KT 9000 FEW012 16/14 Q1015 BECMG
                        9999=
201104240600 METAR LMML NIL=
201104240545 METAR LMML 240545Z 09012KT 060V120 9000 FEW011 16/14 Q1015
                        BECMG 9999=
201104240515 METAR LMML 240515Z 10012KT 070V130 8000 FEW010 15/14 Q1014
                        BECMG 9999=
201104240500 METAR LMML NIL=
201104240445 METAR LMML 240445Z 10013KT 8000 SCT009 15/14 Q1014 NOSIG=
201104240430 METAR LMML NIL=
201104240415 METAR LMML 240415Z 10013KT 8000 BKN009 14/14 Q1014 NOSIG=
201104240400 METAR LMML NIL=
201104240345 METAR LMML 240345Z 10011KT 9999 BKN008 14/14 Q1014 NOSIG=
201104240330 METAR LMML NIL=
201104240315 METAR LMML 240315Z 10010KT 9999 BKN008 14/14 Q1014 NOSIG=
201104240300 METAR LMML NIL=
201104240245 METAR LMML 240245Z 09009KT 9999 BKN008 15/14 Q1014 NOSIG=
201104240230 METAR LMML NIL=
201104240215 METAR LMML 240215Z 09009KT 070V130 9999 BKN009 15/14 Q1014
                        TEMPO SCT008=
201104240200 METAR LMML NIL=
201104240145 METAR LMML 240145Z 10010KT 9999 BKN009 15/14 Q1014 TEMPO
                        SCT008=
201104240130 METAR LMML NIL=
201104240115 METAR LMML 240115Z 10009KT 9999 BKN010 14/13 Q1014 TEMPO
                        SCT008=
201104240100 METAR LMML NIL=
201104240045 METAR LMML 240045Z 10009KT 9999 FEW010 14/13 Q1015 TEMPO
                        SCT008=
201104240030 METAR LMML NIL=
201104240015 METAR LMML 240015Z 10009KT 9999 FEW011 14/13 Q1015 NOSIG=
201104240000 METAR LMML NIL=
201104232345 METAR LMML 232345Z 11010KT 9999 FEW012 14/13 Q1015 NOSIG=
201104232330 METAR LMML NIL=
201104232315 METAR LMML 232315Z 11011KT 9999 FEW015 14/13 Q1015 NOSIG=
201104232300 METAR LMML NIL=
201104232245 METAR LMML 232245Z 11013KT 9999 FEW015 15/13 Q1015 NOSIG=
201104232230 METAR LMML NIL=
201104232215 METAR LMML 232215Z 11012KT 9999 FEW015 15/13 Q1015 NOSIG=
201104232200 METAR LMML NIL=
201104232145 METAR LMML 232145Z 11011KT 9999 FEW015 15/13 Q1015 NOSIG=
201104232130 METAR LMML NIL=
201104232115 METAR LMML 232115Z 12011KT 9999 FEW015 15/12 Q1015 NOSIG=
201104232100 METAR LMML NIL=
201104232045 METAR LMML 232045Z 11011KT 9999 FEW015 15/12 Q1016 NOSIG=
201104232030 METAR LMML NIL=
201104232015 METAR LMML 232015Z 12011KT 9999 FEW018 15/12 Q1016 NOSIG=
201104232000 METAR LMML NIL=
201104231945 METAR LMML 231945Z 11010KT 9999 FEW018 SCT120 15/12 Q1015
                        NOSIG=
201104231930 METAR LMML NIL=
201104231915 METAR LMML 231915Z 10011KT 9999 FEW018 15/12 Q1015 NOSIG=
201104231900 METAR LMML NIL=
201104231845 METAR LMML 231845Z 10010KT 070V130 9999 FEW018 15/12 Q1014
                        NOSIG=
201104231830 METAR LMML NIL=
201104231815 METAR LMML 231815Z 11010KT 070V130 9999 FEW018 15/12 Q1014
                        NOSIG=
201104231800 METAR LMML NIL=
201104231745 METAR LMML 231745Z 11012KT 070V130 9999 FEW018 15/12 Q1014
                        NOSIG=
201104231730 METAR LMML NIL=
201104231715 METAR LMML 231715Z 11011KT 9999 FEW018 16/12 Q1014 NOSIG=
201104231700 METAR LMML NIL=
201104231645 METAR LMML 231645Z 12013KT 9999 FEW017 16/12 Q1014 NOSIG=
201104231630 METAR LMML NIL=
201104231615 METAR LMML 231615Z 12015KT 9999 FEW017 16/12 Q1014 NOSIG=
201104231545 METAR LMML 231545Z 12015KT 9999 SCT017 17/12 Q1014 NOSIG=
201104231530 METAR LMML NIL=
201104231515 METAR LMML 231515Z 12013KT 090V150 9999 FEW018 18/12 Q1014
                        NOSIG=
201104231500 METAR LMML NIL=
201104231445 METAR LMML 231445Z 12013KT 9999 SCT019 18/12 Q1014 NOSIG=
201104231430 METAR LMML NIL=
201104231415 METAR LMML 231415Z 12013KT 090V150 9999 SCT019 17/12 Q1014
                        NOSIG=
201104231400 METAR LMML NIL=
201104231345 METAR LMML 231345Z 12013KT 9999 SCT017 SCT250 18/12 Q1014
                        NOSIG=
201104231315 METAR LMML 231315Z 12013KT 9999 FEW021 SCT250 18/12 Q1014
                        NOSIG=
201104231245 METAR LMML 231245Z 11013KT 090V150 9999 FEW020 BKN250 19/12
                        Q1014 NOSIG=
201104231230 METAR LMML NIL=
201104231215 METAR LMML 231215Z 12014KT 080V160 9999 FEW021 BKN250 18/12
                        Q1015 NOSIG=
201104231200 METAR LMML NIL=
201104231145 METAR LMML 231145Z 12014KT 090V150 9999 FEW019 BKN250 18/12
                        Q1015 NOSIG=
201104231115 METAR LMML 231115Z 11013KT 080V150 9999 FEW019 BKN250 19/12
                        Q1015 NOSIG=
201104231100 METAR LMML NIL=
201104231045 METAR LMML 231045Z 12013KT 090V160 9999 FEW018 BKN250 19/12
                        Q1015 NOSIG=
201104231030 METAR LMML NIL=
201104231015 METAR LMML 231015Z 11013KT 080V150 9999 SCT015 SCT250 18/12
                        Q1015 NOSIG=
201104231000 METAR LMML NIL=
201104230945 METAR LMML 230945Z 13013KT 090V150 9999 SCT014 SCT110 18/13
                        Q1015 NOSIG=
201104230930 METAR LMML NIL=
201104230915 METAR LMML 230915Z 11013KT 090V150 9999 SCT014 SCT110 18/13
                        Q1015 NOSIG=
201104230900 METAR LMML NIL=
201104230845 METAR LMML 230845Z 12013KT 9999 SCT013 BKN100 17/13 Q1015
                        NOSIG=
201104230830 METAR LMML NIL=
201104230815 METAR LMML 230815Z 12011KT 9999 BKN012 BKN090 16/14 Q1015
                        NOSIG=
201104230800 METAR LMML NIL=
201104230745 METAR LMML 230745Z 12011KT 9999 BKN012 BKN080 16/14 Q1015
                        NOSIG=
201104230730 METAR LMML NIL=
201104230715 METAR LMML 230715Z 12012KT 9999 BKN012 BKN090 16/13 Q1014
                        NOSIG=
201104230700 METAR LMML NIL=
201104230645 METAR LMML 230645Z 12011KT 9999 BKN012 BKN100 16/13 Q1014
                        NOSIG=
201104230630 METAR LMML NIL=
201104230615 METAR LMML 230615Z 12009KT 9999 SCT013 BKN080 16/14 Q1014
                        NOSIG=
201104230600 METAR LMML NIL=
201104230545 METAR LMML 230545Z 11009KT 9999 FEW013 BKN090 15/14 Q1014
                        NOSIG=
201104230530 METAR LMML NIL=
201104230515 METAR LMML 230515Z 12010KT 9999 FEW012 BKN090 15/14 Q1013
                        NOSIG=
201104230500 METAR LMML NIL=
201104230445 METAR LMML 230445Z 12008KT 9999 FEW011 BKN090 15/13 Q1013
                        NOSIG=
201104230430 METAR LMML NIL=
201104230415 METAR LMML 230415Z 12010KT CAVOK 15/13 Q1013 NOSIG=
201104230400 METAR LMML NIL=
201104230345 METAR LMML 230345Z 13009KT CAVOK 15/13 Q1013 NOSIG=
201104230330 METAR LMML NIL=
201104230315 METAR LMML 230315Z 12007KT CAVOK 14/13 Q1013 NOSIG=
201104230300 METAR LMML NIL=
201104230245 METAR LMML 230245Z 11008KT CAVOK 15/14 Q1013 NOSIG=
201104230230 METAR LMML NIL=
201104230215 METAR LMML 230215Z 11007KT CAVOK 14/13 Q1013 NOSIG=
201104230200 METAR LMML NIL=
201104230145 METAR LMML 230145Z 11007KT CAVOK 14/13 Q1013 NOSIG=
201104230115 METAR LMML 230115Z 11007KT CAVOK 14/13 Q1014 NOSIG=
201104230045 METAR LMML 230045Z 12007KT CAVOK 15/13 Q1014 NOSIG=
201104230030 METAR LMML NIL=
201104230015 METAR LMML 230015Z 12008KT CAVOK 15/13 Q1014 NOSIG=
201104230000 METAR LMML NIL=
201104222345 METAR LMML 222345Z 12009KT CAVOK 15/13 Q1014 NOSIG=
201104222315 METAR LMML 222315Z 12009KT CAVOK 15/13 Q1014 NOSIG=
201104222245 METAR LMML 222245Z 12009KT CAVOK 15/13 Q1015 NOSIG=
201104222230 METAR LMML NIL=
201104222215 METAR LMML 222215Z 13008KT CAVOK 15/13 Q1015 NOSIG=
201104222200 METAR LMML NIL=
201104222145 METAR LMML 222145Z 11009KT CAVOK 15/14 Q1014 NOSIG=
201104222130 METAR LMML NIL=
201104222115 METAR LMML 222115Z 11008KT 9999 FEW011 BKN110 15/14 Q1014
                        NOSIG=
201104222100 METAR LMML NIL=
201104222045 METAR LMML 222045Z 12008KT 9999 FEW011 BKN110 15/14 Q1014
                        NOSIG=
201104222030 METAR LMML NIL=
201104222015 METAR LMML 222015Z 11010KT 9999 FEW011 BKN110 15/14 Q1015
                        NOSIG=
201104221945 METAR LMML 221945Z 11009KT 9999 FEW011 SCT110 15/13 Q1015
                        NOSIG=
201104221930 METAR LMML NIL=
201104221915 METAR LMML 221915Z 11010KT 9999 FEW011 15/14 Q1015 NOSIG=
201104221900 METAR LMML NIL=
201104221845 METAR LMML 221845Z 10009KT 9999 FEW011 15/14 Q1014 NOSIG=
201104221830 METAR LMML NIL=
201104221815 METAR LMML 221815Z 10009KT 9999 FEW014 15/13 Q1014 NOSIG=
201104221745 METAR LMML 221745Z 10009KT 070V130 9999 FEW014 15/13 Q1014
                        NOSIG=
201104221715 METAR LMML 221715Z 10009KT 9999 FEW014 15/13 Q1014 NOSIG=
201104221645 METAR LMML 221645Z 10009KT 070V130 9999 FEW016 16/13 Q1014
                        NOSIG=
201104221615 METAR LMML 221615Z 10012KT 9999 FEW017 17/13 Q1014 NOSIG=
201104221545 METAR LMML 221545Z 12011KT 9999 FEW019 SCT070 17/12 Q1014
                        NOSIG=
201104221515 METAR LMML 221515Z 11012KT 070V150 9999 FEW025 SCT070 18/12
                        Q1014 NOSIG=
201104221500 METAR LMML NIL=
201104221445 METAR LMML 221445Z 12013KT CAVOK 18/10 Q1014 NOSIG=
201104221430 METAR LMML NIL=
201104221415 METAR LMML 221415Z 12013KT 090V150 CAVOK 19/09 Q1014 NOSIG=
201104221400 METAR LMML NIL=
201104221345 METAR LMML 221345Z 11013KT 090V150 CAVOK 18/09 Q1014 NOSIG=
201104221330 METAR LMML NIL=
201104221315 METAR LMML 221315Z 12012KT 9999 FEW030 SCT100 BKN120 17/08
                        Q1014 NOSIG=
201104221300 METAR LMML NIL=
201104221245 METAR LMML 221245Z 10010KT 070V130 9999 FEW030 SCT090 BKN120
                        17/09 Q1014 NOSIG=
201104221230 METAR LMML NIL=
201104221215 METAR LMML 221215Z 12010KT 9999 -SHRA NSC 18/06 Q1014 NOSIG=
201104221145 METAR LMML 221145Z 12008KT 080V150 CAVOK 18/03 Q1014 NOSIG=
201104221130 METAR LMML NIL=
201104221115 METAR LMML 221115Z 14007KT 100V180 CAVOK 18/06 Q1014 NOSIG=
201104221100 METAR LMML NIL=
201104221045 METAR LMML 221045Z 15009KT 120V190 CAVOK 17/05 Q1015 NOSIG=
201104221015 METAR LMML 221015Z 15009KT 110V180 CAVOK 17/06 Q1015 NOSIG=
201104221000 METAR LMML NIL=
201104220945 METAR LMML 220945Z 15011KT 120V180 CAVOK 17/07 Q1015 NOSIG=
201104220930 METAR LMML NIL=
201104220915 METAR LMML 220915Z 14011KT 100V180 CAVOK 16/07 Q1015 NOSIG=
201104220900 METAR LMML NIL=
201104220845 METAR LMML 220845Z 15013KT CAVOK 15/08 Q1015 NOSIG=
201104220830 METAR LMML NIL=
201104220815 METAR LMML 220815Z 16012KT 120V180 CAVOK 15/10 Q1015 NOSIG=
201104220800 METAR LMML NIL=
201104220745 METAR LMML 220745Z 16011KT CAVOK 15/10 Q1015 NOSIG=
201104220730 METAR LMML NIL=
201104220715 METAR LMML 220715Z 16009KT 9999 FEW030 SCT080 OVC130 14/08
                        Q1015 NOSIG=
201104220700 METAR LMML NIL=
201104220645 METAR LMML 220645Z 17007KT 130V200 9999 -RA FEW030 SCT080
                        OVC130 14/09 Q1015 NOSIG=
201104220630 METAR LMML NIL=
201104220615 METAR LMML 220615Z 17010KT 140V210 9999 -RA FEW030 SCT080
                        OVC130 14/08 Q1015 NOSIG=
201104220600 METAR LMML NIL=
201104220545 METAR LMML 220545Z 18010KT 150V210 9999 -RA FEW020 SCT090
                        BKN130 13/08 Q1015 NOSIG=
201104220530 METAR LMML NIL=
201104220515 METAR LMML 220515Z 19009KT 150V240 9999 -RA FEW020 SCT035
                        BKN090 14/09 Q1016 NOSIG=
201104220500 METAR LMML NIL=
201104220445 METAR LMML 220445Z 15008KT 110V180 9999 FEW015 BKN080 OVC120
                        15/12 Q1015 NOSIG=
201104220430 METAR LMML NIL=
201104220415 METAR LMML 220415Z 15007KT 9999 FEW015 BKN100 OVC200 15/12
                        Q1015 NOSIG=
201104220400 METAR LMML NIL=
201104220345 METAR LMML 220345Z 14007KT 110V170 9999 FEW015 BKN100 15/11
                        Q1015 NOSIG=
201104220330 METAR LMML NIL=
201104220315 METAR LMML 220315Z 14007KT 9999 FEW015 BKN080 15/12 Q1015
                        NOSIG=
201104220245 METAR LMML 220245Z 14007KT 9999 FEW015 BKN090 15/12 Q1015
                        NOSIG=
201104220230 METAR LMML NIL=
201104220215 METAR LMML 220215Z 14007KT 120V180 9999 FEW015 BKN120 15/12
                        Q1015 NOSIG=
201104220200 METAR LMML NIL=
201104220145 METAR LMML 220145Z 14008KT 9999 FEW015 BKN120 15/12 Q1015
                        NOSIG=
201104220130 METAR LMML NIL=
201104220115 METAR LMML 220115Z 15008KT 9999 FEW015 BKN120 15/11 Q1015
                        NOSIG=
201104220100 METAR LMML NIL=
201104220045 METAR LMML 220045Z 14008KT 9999 FEW015 BKN120 15/12 Q1015
                        NOSIG=
201104220030 METAR LMML NIL=
201104220015 METAR LMML 220015Z 14008KT 9999 FEW015 BKN120 15/12 Q1016
                        NOSIG=
201104220000 METAR LMML NIL=
201104212345 METAR LMML 212345Z 14008KT 110V170 9999 FEW015 BKN120 15/12
                        Q1016 NOSIG=
201104212315 METAR LMML 212315Z 14008KT 9999 FEW015 BKN120 15/12 Q1017
                        NOSIG=
201104212245 METAR LMML 212245Z 14008KT 9999 FEW015 BKN120 15/12 Q1017
                        NOSIG=
201104212230 METAR LMML NIL=
201104212215 METAR LMML 212215Z 14009KT 9999 FEW015 BKN120 15/12 Q1017
                        NOSIG=
201104212200 METAR LMML NIL=
201104212145 METAR LMML 212145Z 14008KT 9999 FEW015 BKN120 15/12 Q1017
                        NOSIG=
201104212130 METAR LMML NIL=
201104212115 METAR LMML 212115Z 14008KT 9999 FEW015 BKN120 15/12 Q1018
                        NOSIG=
201104212100 METAR LMML NIL=
201104212045 METAR LMML 212045Z 13007KT 9999 FEW016 BKN120 14/12 Q1018
                        NOSIG=
201104212030 METAR LMML NIL=
201104212015 METAR LMML 212015Z 13007KT 9999 FEW016 BKN120 15/12 Q1018
                        NOSIG=
201104212000 METAR LMML NIL=
201104211945 METAR LMML 211945Z 12007KT 9999 FEW016 BKN120 15/12 Q1018
                        NOSIG=
201104211930 METAR LMML NIL=
201104211915 METAR LMML 211915Z 13007KT 9999 FEW017 BKN120 14/12 Q1018
                        NOSIG=
201104211900 METAR LMML NIL=
201104211845 METAR LMML 211845Z 13006KT 9999 FEW017 BKN120 15/12 Q1018
                        NOSIG=
201104211830 METAR LMML NIL=
201104211815 METAR LMML 211815Z 14006KT 9999 SCT016 BKN120 15/11 Q1018
                        TEMPO BKN015=
201104211800 METAR LMML NIL=
201104211745 METAR LMML 211745Z 13007KT 9999 SCT017 SCT120 BKN200 15/12
                        Q1018 TEMPO BKN015=
201104211730 METAR LMML NIL=
201104211715 METAR LMML 211715Z 13007KT 9999 SCT017 OVC200 15/12 Q1018
                        NOSIG=
201104211700 METAR LMML NIL=
201104211645 METAR LMML 211645Z 13008KT 9999 SCT017 OVC200 15/12 Q1018
                        NOSIG=
201104211630 METAR LMML NIL=
201104211615 METAR LMML 211615Z 14008KT 110V170 9999 SCT019 OVC200 16/12
                        Q1018 NOSIG=
201104211600 METAR LMML NIL=
201104211545 METAR LMML 211545Z 14007KT 9999 SCT019 OVC200 16/12 Q1019
                        NOSIG=
201104211530 METAR LMML NIL=
201104211515 METAR LMML 211515Z 15006KT 110V190 9999 SCT019 OVC200 16/12
                        Q1019 NOSIG=
201104211500 METAR LMML NIL=
201104211445 METAR LMML 211445Z 14007KT 110V190 9999 SCT020 OVC200 16/11
                        Q1019 NOSIG=
201104211430 METAR LMML NIL=
201104211400 METAR LMML NIL=
201104211345 METAR LMML 211345Z 14009KT 9999 SCT020 16/11 Q1019 NOSIG=
201104211330 METAR LMML NIL=
201104211315 METAR LMML 211315Z 13008KT 090V180 9999 SCT019 BKN250 17/12
                        Q1020 NOSIG=
201104211300 METAR LMML NIL=
201104211245 METAR LMML 211245Z 12009KT 070V160 9999 SCT019 BKN250 17/12
                        Q1020 NOSIG=
201104211230 METAR LMML NIL=
201104211215 METAR LMML 211215Z 12010KT 090V150 9999 SCT019 BKN250 16/12
                        Q1020 NOSIG=
201104211200 METAR LMML NIL=
201104211145 METAR LMML 211145Z 12009KT 070V160 9999 SCT020 BKN250 17/11
                        Q1020 NOSIG=
201104211130 METAR LMML NIL=
201104211115 METAR LMML 211115Z 11008KT 080V140 9999 SCT019 BKN250 17/11
                        Q1020 NOSIG=
201104211100 METAR LMML NIL=
201104211045 METAR LMML 211045Z 10009KT 080V140 9999 SCT019 BKN250 17/11
                        Q1020 NOSIG=
201104211030 METAR LMML NIL=
201104211015 METAR LMML 211015Z 12009KT 090V160 9999 SCT019 BKN250 17/11
                        Q1021 NOSIG=
201104211000 METAR LMML NIL=
201104210945 METAR LMML 210945Z 13009KT 090V160 9999 SCT021 BKN250 17/11
                        Q1021 NOSIG=
201104210930 METAR LMML NIL=
201104210915 METAR LMML 210915Z 11009KT 080V150 9999 SCT019 BKN250 16/11
                        Q1021 NOSIG=
201104210900 METAR LMML NIL=
201104210845 METAR LMML 210845Z 10009KT 080V140 9999 SCT020 BKN250 16/11
                        Q1021 NOSIG=
201104210830 METAR LMML NIL=
201104210815 METAR LMML 210815Z 10009KT 070V130 9999 SCT019 BKN250 17/11
                        Q1021 NOSIG=
201104210800 METAR LMML NIL=
201104210745 METAR LMML 210745Z 10009KT 040V140 9999 SCT019 BKN250 16/11
                        Q1021 NOSIG=
201104210730 METAR LMML NIL=
201104210715 METAR LMML 210715Z 09008KT 050V120 9999 SCT017 BKN250 16/12
                        Q1021 NOSIG=
201104210645 METAR LMML 210645Z 08006KT 050V120 9999 FEW020 BKN250 15/12
                        Q1020 NOSIG=
201104210615 METAR LMML 210615Z 07004KT 040V100 9000 FEW015 BKN250 14/12
                        Q1020 NOSIG=
201104210600 METAR LMML NIL=
201104210545 METAR LMML 210545Z 07004KT 030V110 9000 FEW015 BKN250 14/11
                        Q1020 NOSIG=
201104210530 METAR LMML NIL=
201104210515 METAR LMML 210515Z 05003KT 7000 FEW015 BKN250 12/12 Q1020
                        BECMG 9999=
201104210500 METAR LMML NIL=
201104210445 METAR LMML 210445Z 05003KT 6000 FEW015 BKN200 11/11 Q1020
                        TEMPO 5000 BR=
201104210430 METAR LMML NIL=
201104210415 METAR LMML 210415Z VRB02KT 6000 FEW015 BKN200 11/11 Q1020
                        TEMPO 5000 BR=
201104210400 METAR LMML NIL=
201104210345 METAR LMML 210345Z VRB01KT 6000 FEW011 SCT130 BKN200 11/10
                        Q1020 TEMPO 5000 BR=
201104210330 METAR LMML NIL=
201104210315 METAR LMML 210315Z VRB01KT 6000 FEW011 BKN200 11/10 Q1020
                        TEMPO 5000 BR=
201104210245 METAR LMML 210245Z VRB02KT 6000 FEW011 BKN200 11/10 Q1020
                        TEMPO 5000 BR=
201104210230 METAR LMML NIL=
201104210215 METAR LMML 210215Z VRB01KT 6000 FEW015 BKN200 11/10 Q1020
                        TEMPO 5000 BR=
201104210145 METAR LMML 210145Z VRB01KT 7000 FEW015 BKN250 11/10 Q1020
                        TEMPO 5000 BR=
201104210130 METAR LMML NIL=
201104210115 METAR LMML 210115Z VRB02KT 7000 FEW015 BKN250 11/10 Q1019
                        TEMPO 5000 BR=
201104210100 METAR LMML NIL=
201104210045 METAR LMML 210045Z 04003KT 7000 NSC 13/11 Q1020 TEMPO 5000
                        BR=
201104210030 METAR LMML NIL=
201104210015 METAR LMML 210015Z 04003KT 7000 NSC 12/10 Q1020 TEMPO 5000
                        BR=
201104210000 METAR LMML NIL=
201104202345 METAR LMML 202345Z 05003KT 7000 NSC 11/10 Q1020 TEMPO 5000
                        BR=
201104202315 METAR LMML 202315Z VRB01KT 7000 NSC 11/10 Q1021 TEMPO 5000
                        BR=
201104202300 METAR LMML NIL=
201104202245 METAR LMML 202245Z VRB02KT 7000 NSC 11/09 Q1021 TEMPO 5000
                        BR=
201104202230 METAR LMML NIL=
201104202215 METAR LMML 202215Z VRB01KT 8000 NSC 11/09 Q1021 NOSIG=
201104202200 METAR LMML NIL=
201104202145 METAR LMML 202145Z VRB01KT 8000 NSC 11/10 Q1021 NOSIG=
201104202130 METAR LMML NIL=
201104202115 METAR LMML 202115Z VRB01KT 8000 NSC 12/10 Q1021 NOSIG=
201104202045 METAR LMML 202045Z 00000KT CAVOK 12/10 Q1020 NOSIG=
201104202030 METAR LMML NIL=
201104202015 METAR LMML 202015Z 00000KT CAVOK 12/10 Q1020 NOSIG=
201104202000 METAR LMML NIL=
201104201945 METAR LMML 201945Z VRB02KT CAVOK 13/10 Q1020 NOSIG=
201104201930 METAR LMML NIL=
201104201915 METAR LMML 201915Z VRB02KT CAVOK 14/10 Q1019 NOSIG=
201104201845 METAR LMML 201845Z 09003KT CAVOK 13/10 Q1019 NOSIG=
201104201830 METAR LMML NIL=
201104201815 METAR LMML 201815Z 10004KT CAVOK 14/10 Q1018 NOSIG=
201104201800 METAR LMML NIL=
201104201745 METAR LMML 201745Z 10003KT CAVOK 14/10 Q1018 NOSIG=
201104201730 METAR LMML NIL=
201104201715 METAR LMML 201715Z 12005KT CAVOK 15/10 Q1018 NOSIG=
201104201700 METAR LMML NIL=
201104201645 METAR LMML 201645Z 12007KT 080V150 CAVOK 16/09 Q1018 NOSIG=
201104201630 METAR LMML NIL=
201104201615 METAR LMML 201615Z 11008KT 080V140 CAVOK 17/09 Q1017 NOSIG=
201104201545 METAR LMML 201545Z 09007KT 020V160 CAVOK 17/09 Q1017 NOSIG=
201104201530 METAR LMML NIL=
201104201515 METAR LMML 201515Z 09008KT 060V120 CAVOK 17/07 Q1017 NOSIG=
201104201500 METAR LMML NIL=
201104201445 METAR LMML 201445Z 08008KT 050V120 CAVOK 17/08 Q1017 NOSIG=
201104201430 METAR LMML NIL=
201104201415 METAR LMML 201415Z 09008KT 050V120 9999 FEW021 BKN250 17/08
                        Q1017 NOSIG=
201104201400 METAR LMML NIL=
201104201345 METAR LMML 201345Z 09010KT 060V120 9999 FEW021 BKN250 17/10
                        Q1017 NOSIG=
201104201330 METAR LMML NIL=
201104201315 METAR LMML 201315Z 08010KT 050V120 9999 FEW021 BKN250 17/10
                        Q1017 NOSIG=
201104201245 METAR LMML 201245Z 08011KT 9999 FEW028 BKN250 18/10 Q1017
                        NOSIG=
201104201230 METAR LMML NIL=
201104201215 METAR LMML 201215Z 09011KT 060V120 9999 FEW028 SCT250 18/08
                        Q1017 NOSIG=
201104201200 METAR LMML NIL=
201104201145 METAR LMML 201145Z 08012KT 050V120 9999 FEW023 BKN250 18/10
                        Q1017 NOSIG=
201104201130 METAR LMML NIL=
201104201115 METAR LMML 201115Z 08011KT 050V110 9999 FEW023 BKN250 17/10
                        Q1017 NOSIG=
201104201100 METAR LMML NIL=
201104201045 METAR LMML 201045Z 09011KT 060V120 9999 FEW023 18/10 Q1017
                        NOSIG=
201104201030 METAR LMML NIL=
201104201015 METAR LMML 201015Z 08010KT 050V110 9999 FEW020 BKN250 17/10
                        Q1016 NOSIG=
201104201000 METAR LMML NIL=
201104200945 METAR LMML 200945Z 09009KT 050V120 9999 FEW020 BKN250 18/11
                        Q1016 NOSIG=
201104200930 METAR LMML NIL=
201104200915 METAR LMML 200915Z 09010KT 050V120 9999 FEW020 BKN250 17/10
                        Q1016 NOSIG=
201104200900 METAR LMML NIL=
201104200845 METAR LMML 200845Z 08009KT 040V110 9999 FEW022 BKN250 16/10
                        Q1016 NOSIG=
201104200830 METAR LMML NIL=
201104200815 METAR LMML 200815Z 08008KT 040V130 9999 FEW020 BKN250 16/11
                        Q1016 NOSIG=
201104200800 METAR LMML NIL=
201104200745 METAR LMML 200745Z 08008KT 050V120 9000 SCT018 SCT120 BKN250
                        16/11 Q1016 BECMG 9999=
201104200730 METAR LMML NIL=
201104200715 METAR LMML 200715Z 08008KT 9000 SCT016 SCT120 BKN250 16/12
                        Q1015 BECMG 9999=
201104200700 METAR LMML NIL=
201104200645 METAR LMML 200645Z 08005KT 7000 FEW014 SCT120 BKN250 15/12
                        Q1015 NOSIG=
201104200630 METAR LMML NIL=
201104200615 METAR LMML 200615Z 08004KT 020V140 7000 FEW014 BKN120 BKN250
                        15/12 Q1015 BECMG 9999=
201104200600 METAR LMML NIL=
201104200545 METAR LMML 200545Z 08004KT 7000 FEW014 BKN120 BKN250 14/12
                        Q1015 BECMG 9999=
201104200530 METAR LMML NIL=
201104200515 METAR LMML 200515Z 08004KT 7000 FEW013 BKN120 BKN250 14/12
                        Q1015 BECMG 9999=
201104200500 METAR LMML NIL=
201104200445 METAR LMML 200445Z 07003G13KT 7000 FEW013 SCT070 BKN120 14/12
                        Q1014 NOSIG=
201104200430 METAR LMML NIL=
201104200415 METAR LMML 200415Z 07004KT 9999 FEW013 SCT070 BKN120 13/12
                        Q1014 NOSIG=
201104200400 METAR LMML NIL=
201104200345 METAR LMML 200345Z 07003KT 9999 FEW014 BKN120 13/12 Q1014
                        NOSIG=
201104200330 METAR LMML NIL=
201104200315 METAR LMML 200315Z VRB02KT 9999 FEW014 SCT070 BKN120 13/12
                        Q1014 NOSIG=
201104200300 METAR LMML NIL=
201104200245 METAR LMML 200245Z VRB02KT 9999 FEW012 SCT070 13/11 Q1014
                        NOSIG=
201104200230 METAR LMML NIL=
201104200215 METAR LMML 200215Z 06003KT 9999 FEW013 SCT070 14/12 Q1014
                        NOSIG=
201104200200 METAR LMML NIL=
201104200145 METAR LMML 200145Z 07003KT 9999 FEW014 SCT070 BKN120 13/12
                        Q1014 NOSIG=
201104200130 METAR LMML NIL=
201104200115 METAR LMML 200115Z 08004KT 9999 FEW020 BKN120 14/11 Q1014
                        NOSIG=
201104200100 METAR LMML NIL=
201104200045 METAR LMML 200045Z 09004KT 9999 FEW020 SCT120 BKN250 13/11
                        Q1014 NOSIG=
201104200030 METAR LMML NIL=
201104200015 METAR LMML 200015Z 09004KT CAVOK 13/11 Q1014 NOSIG=
201104200000 METAR LMML NIL=
201104192345 METAR LMML 192345Z 10003KT CAVOK 13/11 Q1014 NOSIG=
201104192330 METAR LMML NIL=
201104192315 METAR LMML 192315Z 10004KT CAVOK 13/11 Q1014 NOSIG=
201104192300 METAR LMML NIL=
201104192245 METAR LMML 192245Z 09005KT 040V120 CAVOK 13/11 Q1014 NOSIG=
201104192230 METAR LMML NIL=
201104192215 METAR LMML 192215Z 11003KT CAVOK 13/11 Q1014 NOSIG=
201104192200 METAR LMML NIL=
201104192145 METAR LMML 192145Z 13004KT CAVOK 13/11 Q1014 NOSIG=
201104192130 METAR LMML NIL=
201104192115 METAR LMML 192115Z VRB02KT 9999 FEW020 14/11 Q1015 NOSIG=
201104192100 METAR LMML NIL=
201104192045 METAR LMML 192045Z 14004KT 9999 FEW020 14/11 Q1015 NOSIG=
201104192030 METAR LMML NIL=
201104192015 METAR LMML 192015Z 14004KT 9999 FEW020 13/10 Q1015 NOSIG=
201104192000 METAR LMML NIL=
201104191945 METAR LMML 191945Z 13004KT 9999 FEW020 13/11 Q1014 NOSIG=
201104191930 METAR LMML NIL=
201104191915 METAR LMML 191915Z 14004KT 9999 FEW025 14/11 Q1014 NOSIG=
201104191900 METAR LMML NIL=
201104191845 METAR LMML 191845Z 14003KT 9999 FEW025 SCT080 14/11 Q1014
                        NOSIG=
201104191830 METAR LMML NIL=
201104191815 METAR LMML 191815Z VRB02KT 9999 FEW025 14/10 Q1014 NOSIG=
201104191800 METAR LMML NIL=
201104191745 METAR LMML 191745Z VRB02KT 9999 FEW025 15/10 Q1014 NOSIG=
201104191730 METAR LMML NIL=
201104191715 METAR LMML 191715Z 20004KT 9999 FEW025 15/10 Q1014 NOSIG=
201104191700 METAR LMML NIL=
201104191645 METAR LMML 191645Z 20003KT 9999 SCT023 17/10 Q1014 NOSIG=
201104191630 METAR LMML NIL=
201104191615 METAR LMML 191615Z 19003KT 9999 FEW029 17/09 Q1014 NOSIG=
201104191600 METAR LMML NIL=
201104191545 METAR LMML 191545Z 24004KT 200V300 9999 FEW035 17/07 Q1014
                        NOSIG=
201104191530 METAR LMML NIL=
201104191515 METAR LMML 191515Z 23005KT 190V290 9999 FEW035 17/10 Q1014
                        NOSIG=
201104191500 METAR LMML NIL=
201104191445 METAR LMML 191445Z 22006KT 170V280 9999 SCT035 18/09 Q1014
                        NOSIG=
201104191430 METAR LMML NIL=
201104191415 METAR LMML 191415Z 24005KT 190V290 9999 FEW035 18/08 Q1014
                        NOSIG=
201104191400 METAR LMML NIL=
201104191345 METAR LMML 191345Z 24007KT 200V300 9999 SCT035 18/10 Q1015
                        NOSIG=
201104191330 METAR LMML NIL=
201104191315 METAR LMML 191315Z 24006KT 190V290 9999 SCT023 18/08 Q1015
                        NOSIG=
201104191300 METAR LMML NIL=
201104191245 METAR LMML 191245Z 23005KT 180V280 9999 FEW023 BKN038 17/10
                        Q1015 NOSIG=
201104191230 METAR LMML NIL=
201104191215 METAR LMML 191215Z 24007KT 200V270 9999 BKN022 16/12 Q1015
                        NOSIG=
201104191200 METAR LMML NIL=
201104191145 METAR LMML 191145Z 20010KT 170V240 9999 BKN034 17/12 Q1015
                        NOSIG=
201104191130 METAR LMML NIL=
201104191115 METAR LMML 191115Z 21004KT 9999 SCT024 19/07 Q1015 NOSIG=
201104191100 METAR LMML NIL=
201104191045 METAR LMML 191045Z 07009KT 030V150 9999 BKN023 18/12 Q1016
                        NOSIG=
201104191030 METAR LMML NIL=
201104191015 METAR LMML 191015Z 08008KT 040V110 9999 FEW022 SCT040 18/12
                        Q1016 NOSIG=
201104191000 METAR LMML NIL=
201104190945 METAR LMML 190945Z 10009KT 070V140 9999 SCT037 19/12 Q1016
                        NOSIG=
201104190930 METAR LMML NIL=
201104190915 METAR LMML 190915Z VRB02KT 9999 FEW030 20/06 Q1016 NOSIG=
201104190900 METAR LMML NIL=
201104190845 METAR LMML 190845Z VRB02KT 9999 FEW020 20/09 Q1016 NOSIG=
201104190830 METAR LMML NIL=
201104190815 METAR LMML 190815Z 29005KT 230V340 9999 FEW020 18/10 Q1016
                        NOSIG=
201104190800 METAR LMML NIL=
201104190745 METAR LMML 190745Z 29006KT 260V320 CAVOK 17/11 Q1016 NOSIG=
201104190730 METAR LMML NIL=
201104190715 METAR LMML 190715Z 29007KT 250V320 9999 FEW015 16/11 Q1016
                        NOSIG=
201104190700 METAR LMML NIL=
201104190645 METAR LMML 190645Z 27007KT 240V300 9999 FEW015 16/11 Q1016
                        NOSIG=
201104190630 METAR LMML NIL=
201104190615 METAR LMML 190615Z 26007KT 230V290 9999 FEW015 15/12 Q1016
                        NOSIG=
201104190600 METAR LMML NIL=
201104190545 METAR LMML 190545Z 25006KT 220V290 9999 FEW015 14/12 Q1016
                        NOSIG=
201104190530 METAR LMML NIL=
201104190515 METAR LMML 190515Z 25007KT 220V290 9999 FEW015 13/12 Q1016
                        NOSIG=
201104190500 METAR LMML NIL=
201104190445 METAR LMML 190445Z 24007KT 210V270 9999 FEW015 13/12 Q1016
                        NOSIG=
201104190430 METAR LMML NIL=
201104190415 METAR LMML 190415Z 24005KT 210V270 9999 FEW015 12/12 Q1016
                        NOSIG=
201104190345 METAR LMML 190345Z 24006KT 220V280 CAVOK 13/12 Q1016 NOSIG=
201104190330 METAR LMML NIL=
201104190315 METAR LMML 190315Z 24006KT CAVOK 13/12 Q1016 NOSIG=
201104190300 METAR LMML NIL=
201104190245 METAR LMML 190245Z 24007KT 200V280 CAVOK 13/12 Q1016 NOSIG=
201104190230 METAR LMML NIL=
201104190215 METAR LMML 190215Z 24007KT 200V280 CAVOK 13/12 Q1016 NOSIG=
201104190200 METAR LMML NIL=
201104190145 METAR LMML 190145Z 23005KT 200V260 CAVOK 13/12 Q1016 NOSIG=
201104190130 METAR LMML NIL=
201104190115 METAR LMML 190115Z 22004KT CAVOK 12/11 Q1017 NOSIG=
201104190100 METAR LMML NIL=
201104190045 METAR LMML 190045Z 22003KT CAVOK 12/11 Q1017 NOSIG=
201104190015 METAR LMML 190015Z 29003KT CAVOK 11/11 Q1017 NOSIG=
201104190000 METAR LMML NIL=
201104182345 METAR LMML 182345Z VRB01KT CAVOK 12/11 Q1018 NOSIG=
201104182330 METAR LMML NIL=
201104182315 METAR LMML 182315Z VRB02KT CAVOK 12/10 Q1018 NOSIG=
201104182300 METAR LMML NIL=
201104182245 METAR LMML 182245Z VRB02KT CAVOK 13/11 Q1018 NOSIG=
201104182215 METAR LMML 182215Z 27003KT CAVOK 13/11 Q1018 NOSIG=
201104182145 METAR LMML 182145Z 25003KT CAVOK 13/11 Q1019 NOSIG=
201104182130 METAR LMML NIL=
201104182115 METAR LMML 182115Z 27005KT 220V320 CAVOK 13/11 Q1019 NOSIG=
201104182045 METAR LMML 182045Z 26003KT CAVOK 13/11 Q1018 NOSIG=
201104182030 METAR LMML NIL=
201104182015 METAR LMML 182015Z 26005KT 220V300 CAVOK 13/11 Q1019 NOSIG=
201104181945 METAR LMML 181945Z 29005KT 250V320 CAVOK 13/11 Q1018 NOSIG=
201104181930 METAR LMML NIL=
201104181915 METAR LMML 181915Z 29009KT CAVOK 14/11 Q1018 NOSIG=
201104181900 METAR LMML NIL=
201104181845 METAR LMML 181845Z 28007KT CAVOK 14/11 Q1018 NOSIG=
201104181830 METAR LMML NIL=
201104181815 METAR LMML 181815Z 29009KT CAVOK 14/11 Q1018 NOSIG=
201104181800 METAR LMML NIL=
201104181745 METAR LMML 181745Z 29008KT 260V320 CAVOK 15/11 Q1017 NOSIG=
201104181715 METAR LMML 181715Z 30009KT 9999 FEW030 15/11 Q1017 NOSIG=
201104181700 METAR LMML NIL=
201104181645 METAR LMML 181645Z 29008KT 260V320 9999 FEW030 16/09 Q1017
                        NOSIG=
201104181630 METAR LMML NIL=
201104181615 METAR LMML 181615Z 29011KT 270V330 9999 FEW030 17/10 Q1018
                        NOSIG=
201104181600 METAR LMML NIL=
201104181545 METAR LMML 181545Z 28010KT 250V310 9999 FEW035 17/09 Q1017
                        NOSIG=
201104181530 METAR LMML NIL=
201104181515 METAR LMML 181515Z 30009KT 250V320 9999 FEW035 18/09 Q1017
                        NOSIG=
201104181500 METAR LMML NIL=
201104181445 METAR LMML 181445Z 29009KT 240V320 9999 FEW037 18/09 Q1017
                        NOSIG=
201104181430 METAR LMML NIL=
201104181415 METAR LMML 181415Z 31008KT 230V340 9999 FEW037 18/09 Q1018
                        NOSIG=
201104181400 METAR LMML NIL=
201104181345 METAR LMML 181345Z 31009KT 280V340 9999 FEW037 18/09 Q1018
                        NOSIG=
201104181330 METAR LMML NIL=
201104181315 METAR LMML 181315Z 30010KT 250V330 9999 FEW036 18/09 Q1018
                        NOSIG=
201104181300 METAR LMML NIL=
201104181245 METAR LMML 181245Z 30008KT 200V010 9999 FEW035 19/09 Q1018
                        NOSIG=
201104181230 METAR LMML NIL=
201104181215 METAR LMML 181215Z 32008KT 290V010 9999 FEW034 18/09 Q1018
                        NOSIG=
201104181200 METAR LMML NIL=
201104181145 METAR LMML 181145Z 33008KT 270V010 9999 FEW030 18/09 Q1018
                        NOSIG=
201104181130 METAR LMML NIL=
201104181115 METAR LMML 181115Z 34008KT 300V020 9999 FEW030 18/08 Q1019
                        NOSIG=
201104181100 METAR LMML NIL=
201104181045 METAR LMML 181045Z 33008KT 280V020 9999 FEW030 18/07 Q1019
                        NOSIG=
201104181030 METAR LMML NIL=
201104181015 METAR LMML 181015Z 34008KT 290V030 9999 FEW030 17/09 Q1019
                        NOSIG=
201104181000 METAR LMML NIL=
201104180945 METAR LMML 180945Z 34008KT 300V020 9999 FEW025 17/08 Q1019
                        NOSIG=
201104180930 METAR LMML NIL=
201104180915 METAR LMML 180915Z 32006KT 260V020 9999 FEW025 17/08 Q1019
                        NOSIG=
201104180900 METAR LMML NIL=
201104180845 METAR LMML 180845Z 35008KT 310V020 9999 FEW025 16/08 Q1019
                        NOSIG=
201104180830 METAR LMML NIL=
201104180815 METAR LMML 180815Z 33008KT 9999 FEW025 16/08 Q1019 NOSIG=
201104180800 METAR LMML NIL=
201104180745 METAR LMML 180745Z 33009KT 9999 FEW025 15/08 Q1019 NOSIG=
201104180730 METAR LMML NIL=
201104180715 METAR LMML 180715Z 34010KT 9999 FEW025 14/09 Q1019 NOSIG=
201104180700 METAR LMML NIL=
201104180645 METAR LMML 180645Z 35007KT 310V020 9999 FEW025 14/09 Q1018
                        NOSIG=
201104180630 METAR LMML NIL=
201104180615 METAR LMML 180615Z 36007KT 9999 FEW026 14/09 Q1018 NOSIG=
201104180600 METAR LMML NIL=
201104180545 METAR LMML 180545Z 36007KT 330V030 9999 FEW021 13/09 Q1018
                        NOSIG=
201104180530 METAR LMML NIL=
201104180515 METAR LMML 180515Z 36007KT 9999 FEW021 SCT047 11/09 Q1018
                        NOSIG=
201104180500 METAR LMML NIL=
201104180445 METAR LMML 180445Z 36008KT 9999 -SHRA FEW020 SCT060 11/09
                        Q1017 NOSIG=
201104180430 METAR LMML NIL=
201104180415 METAR LMML 180415Z 30008KT 9999 FEW031 BKN060 12/09 Q1017
                        NOSIG=
201104180400 METAR LMML NIL=
201104180345 METAR LMML 180345Z 34004KT 9999 SCT025 12/09 Q1017 NOSIG=
201104180330 METAR LMML NIL=
201104180315 METAR LMML 180315Z 30010KT 9999 FEW030 12/08 Q1017 NOSIG=
201104180300 METAR LMML NIL=
201104180245 METAR LMML 180245Z 29010KT 9999 FEW030 12/07 Q1017 NOSIG=
201104180230 METAR LMML NIL=
201104180215 METAR LMML 180215Z 29009KT 260V320 9999 SCT030 12/08 Q1017
                        TEMPO 8000 SHRA RMK LIGHTNING TO
                        NE=
201104180200 METAR LMML NIL=
201104180145 METAR LMML 180145Z 29009KT 9999 SCT030 12/08 Q1017 TEMPO
                        8000 SHRA RMK LIGHTNING TO NE=
201104180130 METAR LMML NIL=
201104180115 METAR LMML 180115Z 27007KT 250V310 9999 SCT029 11/08 Q1017
                        TEMPO 8000 SHRA RMK LIGHTNING TO
                        N=
201104180100 METAR LMML NIL=
201104180045 METAR LMML 180045Z 24004KT 210V280 9999 FEW020 11/08 Q1017
                        NOSIG RMK LIGHTNING TO NE=
201104180030 METAR LMML NIL=
201104180015 METAR LMML 180015Z 28004KT 9999 FEW020 11/08 Q1017 NOSIG
                        RMK LIGHTNING TO N AND NE=
201104172345 METAR LMML 172345Z 30009KT 9999 FEW020 12/08 Q1017 NOSIG=
201104172330 METAR LMML NIL=
201104172315 METAR LMML 172315Z 31004KT 9999 FEW020 11/08 Q1018 NOSIG=
201104172300 METAR LMML NIL=
201104172245 METAR LMML 172245Z 32005KT 9999 FEW020 11/08 Q1018 NOSIG=
201104172230 METAR LMML NIL=
201104172215 METAR LMML 172215Z 35004KT 310V020 CAVOK 12/08 Q1018 NOSIG=
201104172200 METAR LMML NIL=
201104172145 METAR LMML 172145Z 30006KT 270V340 CAVOK 12/08 Q1018 NOSIG=
201104172130 METAR LMML NIL=
201104172115 METAR LMML 172115Z 32008KT 290V350 CAVOK 12/08 Q1018 NOSIG=
201104172100 METAR LMML NIL=
201104172045 METAR LMML 172045Z 30008KT CAVOK 13/08 Q1017 NOSIG=
201104172030 METAR LMML NIL=
201104172015 METAR LMML 172015Z 30009KT CAVOK 13/09 Q1017 NOSIG=
201104172000 METAR LMML NIL=
201104171945 METAR LMML 171945Z 31009KT CAVOK 13/08 Q1017 NOSIG=
201104171930 METAR LMML NIL=
201104171915 METAR LMML 171915Z 31011KT CAVOK 13/08 Q1017 NOSIG=
201104171900 METAR LMML NIL=
201104171845 METAR LMML 171845Z 30009KT CAVOK 13/09 Q1017 NOSIG=
201104171830 METAR LMML NIL=
201104171815 METAR LMML 171815Z 30010KT 9999 FEW035 14/09 Q1016 BECMG
                        CAVOK=
201104171800 METAR LMML NIL=
201104171745 METAR LMML 171745Z 31011KT 9999 FEW035 14/09 Q1016 NOSIG=
201104171730 METAR LMML NIL=
201104171715 METAR LMML 171715Z 30011KT 270V330 CAVOK 15/10 Q1016 NOSIG=
201104171700 METAR LMML NIL=
201104171645 METAR LMML 171645Z 30014KT 9999 FEW035 16/11 Q1016 NOSIG=
201104171630 METAR LMML NIL=
201104171615 METAR LMML 171615Z 30013KT 9999 FEW035 17/09 Q1016 NOSIG=
201104171600 METAR LMML NIL=
201104171545 METAR LMML 171545Z 29012KT 250V320 9999 FEW035 17/09 Q1015
                        NOSIG=
201104171530 METAR LMML NIL=
201104171515 METAR LMML 171515Z 29013KT 250V330 9999 FEW035 18/09 Q1015
                        NOSIG=
201104171500 METAR LMML NIL=
201104171445 METAR LMML 171445Z 32013KT 9999 FEW037 18/08 Q1015 NOSIG=
201104171430 METAR LMML NIL=
201104171415 METAR LMML 171415Z 32013KT 9999 FEW037 18/07 Q1015 NOSIG=
201104171400 METAR LMML NIL=
201104171345 METAR LMML 171345Z 33012KT 300V360 9999 FEW037 18/08 Q1015
                        NOSIG=
201104171330 METAR LMML NIL=
201104171315 METAR LMML 171315Z 34012KT 9999 FEW037 17/08 Q1015 NOSIG=
201104171245 METAR LMML 171245Z 32011KT 270V010 9999 FEW037 18/09 Q1015
                        NOSIG=
201104171215 METAR LMML 171215Z 32013KT 280V340 9999 FEW036 18/09 Q1015
                        NOSIG=
201104171200 METAR LMML NIL=
201104171145 METAR LMML 171145Z 33012KT 280V360 9999 FEW025 18/09 Q1015
                        NOSIG=
201104171115 METAR LMML 171115Z 33013KT 9999 FEW025 17/09 Q1016 NOSIG=
201104171100 METAR LMML NIL=
201104171045 METAR LMML 171045Z 33011KT 300V360 9999 FEW025 17/08 Q1015
                        NOSIG=
201104171030 METAR LMML NIL=
201104171015 METAR LMML 171015Z 33011KT 300V010 9999 FEW025 17/09 Q1015
                        NOSIG=
201104171000 METAR LMML NIL=
201104170945 METAR LMML 170945Z 33010KT 300V360 9999 FEW025 17/09 Q1015
                        NOSIG=
201104170930 METAR LMML NIL=
201104170915 METAR LMML 170915Z 33012KT 300V360 9999 FEW025 16/09 Q1015
                        NOSIG=
201104170845 METAR LMML 170845Z 32013KT 9999 FEW028 16/09 Q1015 NOSIG=
201104170815 METAR LMML 170815Z 33013KT 9999 FEW028 15/10 Q1015 NOSIG=
201104170800 METAR LMML NIL=
201104170745 METAR LMML 170745Z 32013KT 9999 SCT022 15/10 Q1015 NOSIG=
201104170730 METAR LMML NIL=
201104170715 METAR LMML 170715Z 34011KT 9999 SCT018 15/11 Q1015 NOSIG=
201104170700 METAR LMML NIL=
201104170645 METAR LMML 170645Z 33008KT 9999 SCT016 14/11 Q1014 NOSIG=
201104170630 METAR LMML NIL=
201104170615 METAR LMML 170615Z 35007KT 320V020 9999 SCT015 14/12 Q1014
                        NOSIG=
201104170600 METAR LMML NIL=
201104170545 METAR LMML 170545Z 36010KT 9999 BKN017 SCT060 13/11 Q1013
                        NOSIG=
201104170515 METAR LMML 170515Z 01009KT 9999 BKN014 SCT060 12/11 Q1013
                        NOSIG=
201104170500 METAR LMML NIL=
201104170445 METAR LMML 170445Z 01010KT 9999 BKN012 12/11 Q1012 NOSIG=
201104170430 METAR LMML NIL=
201104170415 METAR LMML 170415Z 03005KT 010V070 9999 SCT010 SCT045 12/12
                        Q1012 NOSIG=
201104170400 METAR LMML NIL=
201104170345 METAR LMML 170345Z 36007KT 330V030 9000 -RA SCT012 SCT050
                        12/11 Q1011 BECMG 9999 NSW=
201104170330 METAR LMML NIL=
201104170315 METAR LMML 170315Z 36008KT 9000 -RA FEW012 SCT050 BKN090
                        12/11 Q1011 BECMG 9999 NSW=
201104170245 METAR LMML 170245Z 02006KT 9999 FEW015 BKN050 11/10 Q1011
                        TEMPO 8000 TSRA BKN015CB=
201104170230 METAR LMML NIL=
201104170215 METAR LMML 170215Z 36013KT 9000 -SHRA SCT015 BKN060 11/10
                        Q1011 TEMPO 8000 TSRA BKN015CB=
201104170200 METAR LMML NIL=
201104170145 METAR LMML 170145Z 31004KT 9000 -RA SCT017 SCT070 12/11 Q1010
                        TEMPO 8000 TSRA BKN015CB=
201104170130 METAR LMML NIL=
201104170115 METAR LMML 170115Z VRB02KT 9999 FEW019 12/10 Q1010 NOSIG=
201104170100 METAR LMML NIL=
201104170045 METAR LMML 170045Z VRB02KT 9999 FEW019 SCT040 12/10 Q1010
                        NOSIG=
201104170030 METAR LMML NIL=
201104170015 METAR LMML 170015Z VRB01KT 9999 FEW020 SCT060 12/10 Q1011
                        NOSIG=
201104170000 METAR LMML NIL=
201104162345 METAR LMML 162345Z VRB01KT 9999 FEW022 SCT060 11/10 Q1011
                        NOSIG=
201104162330 METAR LMML NIL=
201104162315 METAR LMML 162315Z VRB01KT 9999 FEW024 SCT060 11/10 Q1011
                        NOSIG=
201104162300 METAR LMML NIL=
201104162245 METAR LMML 162245Z VRB01KT 9999 FEW023 SCT035 12/09 Q1011
                        NOSIG=
201104162230 METAR LMML NIL=
201104162215 METAR LMML 162215Z 29003KT 9999 FEW025 SCT040 12/09 Q1012
                        NOSIG=
201104162200 METAR LMML NIL=
201104162145 METAR LMML 162145Z VRB02KT 9999 FEW025 12/10 Q1012 NOSIG=
201104162130 METAR LMML NIL=
201104162115 METAR LMML 162115Z 30004KT 9999 SCT025 12/10 Q1012 NOSIG=
201104162100 METAR LMML NIL=
201104162045 METAR LMML 162045Z 24003KT 9999 SCT024 12/10 Q1012 NOSIG=
201104162030 METAR LMML NIL=
201104162015 METAR LMML 162015Z 27003KT CAVOK 12/10 Q1012 NOSIG=
201104162000 METAR LMML NIL=
201104161945 METAR LMML 161945Z 29003KT CAVOK 12/10 Q1012 NOSIG=
201104161930 METAR LMML NIL=
201104161915 METAR LMML 161915Z 31005KT 290V350 9999 FEW020 12/10 Q1012
                        NOSIG=
201104161900 METAR LMML NIL=
201104161845 METAR LMML 161845Z 30005KT 260V330 9999 FEW020 13/10 Q1011
                        NOSIG=
201104161830 METAR LMML NIL=
201104161815 METAR LMML 161815Z 30009KT 9999 FEW020 13/11 Q1011 NOSIG=
201104161800 METAR LMML NIL=
201104161745 METAR LMML 161745Z 30008KT 9999 FEW020 14/10 Q1011 NOSIG=
201104161730 METAR LMML NIL=
201104161715 METAR LMML 161715Z 30010KT 9999 FEW021 15/11 Q1010 NOSIG=
201104161700 METAR LMML NIL=
201104161645 METAR LMML 161645Z 30011KT 270V330 9999 FEW025 15/11 Q1010
                        NOSIG=
201104161630 METAR LMML NIL=
201104161615 METAR LMML 161615Z 29011KT 250V320 9999 FEW025 SCT250 16/11
                        Q1010 NOSIG=
201104161600 METAR LMML NIL=
201104161545 METAR LMML 161545Z 29014KT 9999 FEW022 SCT250 16/11 Q1010
                        NOSIG=
201104161530 METAR LMML NIL=
201104161515 METAR LMML 161515Z 30015KT 9999 FEW022 SCT250 17/11 Q1010
                        NOSIG=
201104161500 METAR LMML NIL=
201104161445 METAR LMML 161445Z 29011KT 260V320 9999 FEW022 BKN120 16/11
                        Q1010 NOSIG=
201104161430 METAR LMML NIL=
201104161415 METAR LMML 161415Z 30009KT 9999 FEW022 BKN120 17/12 Q1010
                        NOSIG=
201104161400 METAR LMML NIL=
201104161345 METAR LMML 161345Z 28010KT 240V310 9999 FEW018 BKN100 16/12
                        Q1010 NOSIG=
201104161330 METAR LMML NIL=
201104161315 METAR LMML 161315Z 28009KT 250V310 9999 FEW018 BKN096 15/12
                        Q1010 NOSIG=
201104161300 METAR LMML NIL=
201104161245 METAR LMML 161245Z 29006KT 240V320 9999 -RA FEW018 BKN093
                        15/12 Q1010 NOSIG=
201104161230 METAR LMML NIL=
201104161215 METAR LMML 161215Z 28009KT 250V310 9999 -RA FEW018 BKN095
                        15/12 Q1010 NOSIG=
201104161200 METAR LMML NIL=
201104161145 METAR LMML 161145Z 28009KT 250V310 9999 -RA FEW018 BKN090
                        15/12 Q1010 NOSIG=
201104161130 METAR LMML NIL=
201104161115 METAR LMML 161115Z 29006KT 260V330 9999 SCT014 BKN090 15/13
                        Q1010 NOSIG=
201104161100 METAR LMML NIL=
201104161045 METAR LMML 161045Z 29008KT 9999 -RA SCT017 BKN090 15/13 Q1010
                        NOSIG=
201104161030 METAR LMML NIL=
201104161015 METAR LMML 161015Z 30004KT 260V330 9999 SCT015 BKN100 15/13
                        Q1010 NOSIG=
201104161000 METAR LMML NIL=
201104160945 METAR LMML 160945Z 32003KT 9999 -RA SCT014 BKN090 15/13 Q1010
                        TEMPO BKN013=
201104160930 METAR LMML NIL=
201104160915 METAR LMML 160915Z 29003KT 9999 -RA FEW011 SCT014 BKN100
                        15/13 Q1010 TEMPO BKN013=
201104160900 METAR LMML NIL=
201104160845 METAR LMML 160845Z 31007KT 9999 FEW012 SCT098 15/13 Q1010
                        NOSIG=
201104160830 METAR LMML NIL=
201104160815 METAR LMML 160815Z 32005KT 280V010 9999 FEW009 SCT040 BKN100
                        15/14 Q1009 NOSIG=
201104160800 METAR LMML NIL=
201104160745 METAR LMML 160745Z 26005KT 210V320 7000 -RA FEW009 SCT032
                        OVC086 14/13 Q1010 NOSIG=
201104160730 METAR LMML NIL=
201104160715 METAR LMML 160715Z 31004KT 250V050 7000 -RA FEW010 BKN040
                        OVC085 14/13 Q1009 NOSIG=
201104160700 METAR LMML NIL=
201104160645 METAR LMML 160645Z 30008KT 270V330 6000 -RA FEW010 BKN040
                        OVC090 14/13 Q1009 NOSIG=
201104160630 METAR LMML NIL=
201104160615 METAR LMML 160615Z 29009KT 250V320 6000 RA FEW010 SCT050
                        BKN060 14/14 Q1009 NOSIG=
201104160600 METAR LMML NIL=
201104160545 METAR LMML 160545Z 27004KT 6000 -RA FEW006 SCT050 BKN080
                        14/14 Q1009 RERA NOSIG=
201104160530 METAR LMML NIL=
201104160515 METAR LMML 160515Z 29006KT 220V320 6000 RA FEW006 SCT016
                        BKN080 14/14 Q1008 TEMPO BKN015=
201104160500 METAR LMML NIL=
201104160445 METAR LMML 160445Z 22005KT 170V270 6000 -RA FEW006 SCT090
                        BKN110 14/14 Q1007 TEMPO 8000 RA
                        SCT005=
201104160430 METAR LMML NIL=
201104160415 METAR LMML 160415Z 20005KT 140V250 6000 RA FEW006 SCT023
                        BKN090 15/15 Q1007 TEMPO 8000 RA
                        SCT005=
201104160400 METAR LMML NIL=
201104160345 METAR LMML 160345Z 24005KT 200V280 6000 SCT005 SCT018 BKN090
                        15/15 Q1009 TEMPO 8000 RA SCT005=
201104160330 METAR LMML NIL=
201104160315 METAR LMML 160315Z 18006KT 150V210 9000 FEW005 BKN090 15/15
                        Q1007 TEMPO 8000 RA SCT005=
201104160300 METAR LMML NIL=
201104160245 METAR LMML 160245Z 17004KT 9000 SCT006 BKN130 15/15 Q1007
                        TEMPO 8000 RA SCT005=
201104160230 METAR LMML NIL=
201104160215 METAR LMML 160215Z 16003KT 9000 -RA FEW006 SCT013 BKN029
                        15/15 Q1007 TEMPO 8000 RA SCT005=
201104160200 METAR LMML NIL=
201104160145 METAR LMML 160145Z 21004KT 160V280 9999 FEW006 SCT025 BKN120
                        15/15 Q1008 TEMPO 8000 RA BKN009=
201104160130 METAR LMML NIL=
201104160115 METAR LMML 160115Z 16005KT 120V190 9999 FEW013 SCT025 BKN130
                        15/14 Q1007 TEMPO 8000 RA BKN009=
201104160100 METAR LMML NIL=
201104160045 METAR LMML 160045Z 18005KT 140V250 9999 SCT013 BKN120 15/14
                        Q1008 TEMPO 8000 RA BKN009=
201104160030 METAR LMML NIL=
201104160015 METAR LMML 160015Z 19005KT 150V230 9999 SCT009 BKN029 15/15
                        Q1008 TEMPO 8000 RA BKN009=
201104160000 METAR LMML NIL=
201104152345 METAR LMML 152345Z 19006KT 160V220 9999 SCT009 BKN028 15/14
                        Q1008 TEMPO 8000 RA BKN009=
201104152330 METAR LMML NIL=
201104152315 METAR LMML 152315Z 18008KT 150V210 9999 SCT009 BKN013 BKN028
                        15/14 Q1009 TEMPO 8000 RA=
201104152300 METAR LMML NIL=
201104152245 METAR LMML 152245Z 18007KT 140V220 9999 BKN009 SCT012 BKN090
                        15/14 Q1009 TEMPO 8000 RA=
201104152230 METAR LMML NIL=
201104152215 METAR LMML 152215Z 17006KT 140V220 9999 BKN009 SCT015 BKN090
                        15/14 Q1009 TEMPO 8000 RA BKN013=
201104152200 METAR LMML NIL=
201104152145 METAR LMML 152145Z 16007KT 9999 SCT010 BKN017 BKN120 15/14
                        Q1009 TEMPO 8000 RA SCT007 BKN013=
201104152130 METAR LMML NIL=
201104152115 METAR LMML 152115Z 16009KT 9999 FEW010 BKN017 BKN120 15/14
                        Q1008 TEMPO 8000 RA SCT007 BKN013=
201104152100 METAR LMML NIL=
201104152045 METAR LMML 152045Z 16009KT 9999 FEW009 SCT017 BKN120 15/14
                        Q1009 TEMPO 8000 RA SCT007 BKN013=
201104152030 METAR LMML NIL=
201104152015 METAR LMML 152015Z 16009KT 130V210 9999 FEW013 SCT090 15/14
                        Q1009 TEMPO 8000 RA SCT007 BKN013=
201104152000 METAR LMML NIL=
201104151945 METAR LMML 151945Z 15010KT 9999 FEW015 SCT090 15/13 Q1009
                        TEMPO 8000 RA SCT007 BKN013=
201104151930 METAR LMML NIL=
201104151915 METAR LMML 151915Z 14009KT 110V170 9999 BKN015 SCT130 15/13
                        Q1009 TEMPO 8000 RA SCT007 BKN013=
201104151900 METAR LMML NIL=
201104151845 METAR LMML 151845Z 13006KT 9999 BKN012 BKN100 15/14 Q1009
                        TEMPO BKN013=
201104151830 METAR LMML NIL=
201104151815 METAR LMML 151815Z 13005KT 080V190 9999 SCT013 BKN100 15/14
                        Q1009 TEMPO BKN013=
201104151800 METAR LMML NIL=
201104151745 METAR LMML 151745Z 15010KT 120V180 9999 SCT013 BKN100 15/13
                        Q1008 TEMPO BKN013=
201104151730 METAR LMML NIL=
201104151715 METAR LMML 151715Z 15010KT 120V180 9999 SCT014 BKN100 16/13
                        Q1008 TEMPO BKN013=
201104151700 METAR LMML NIL=
201104151645 METAR LMML 151645Z 16011KT 130V190 9999 BKN013 BKN110 16/13
                        Q1008 NOSIG=
201104151630 METAR LMML NIL=
201104151615 METAR LMML 151615Z 16011KT 120V200 9999 SCT014 BKN110 OVC150
                        16/13 Q1008 NOSIG=
201104151600 METAR LMML NIL=
201104151545 METAR LMML 151545Z 16012KT 130V190 9999 SCT014 BKN110 16/13
                        Q1008 NOSIG=
201104151530 METAR LMML NIL=
201104151515 METAR LMML 151515Z 15013KT 130V190 9999 SCT013 BKN110 16/13
                        Q1008 NOSIG=
201104151500 METAR LMML NIL=
201104151445 METAR LMML 151445Z 16014KT 110V180 9999 SCT015 BKN110 16/13
                        Q1008 NOSIG=
201104151430 METAR LMML NIL=
201104151415 METAR LMML 151415Z 16014KT 130V210 9999 FEW015 BKN110 18/13
                        Q1008 NOSIG=
201104151400 METAR LMML NIL=
201104151345 METAR LMML 151345Z 16015KT 9999 SCT016 BKN100 17/13 Q1008
                        NOSIG=
201104151330 METAR LMML NIL=
201104151315 METAR LMML 151315Z 16014KT 130V190 9999 SCT017 BKN100 17/13
                        Q1009 TEMPO BKN015=
201104151300 METAR LMML NIL=
201104151245 METAR LMML 151245Z 16015KT 130V190 9999 SCT016 OVC090 16/13
                        Q1009 TEMPO BKN015=
201104151230 METAR LMML NIL=
201104151215 METAR LMML 151215Z 14012KT 110V170 9999 SCT015 OVC080 16/12
                        Q1009 TEMPO BKN015=
201104151200 METAR LMML NIL=
201104151145 METAR LMML 151145Z 15015KT 9999 -SHRA FEW015 OVC080 16/13
                        Q1009 TEMPO BKN015=
201104151130 METAR LMML NIL=
201104151115 METAR LMML 151115Z 15015KT 9999 SCT016 BKN080 17/13 Q1009
                        TEMPO BKN015=
201104151100 METAR LMML NIL=
201104151045 METAR LMML 151045Z 16016KT 130V200 9999 SCT016 BKN080 16/13
                        Q1010 TEMPO BKN015=
201104151030 METAR LMML NIL=
201104151015 METAR LMML 151015Z 16013KT 130V200 9999 SCT015 BKN080 16/13
                        Q1010 TEMPO BKN015=
201104151000 METAR LMML NIL=
201104150945 METAR LMML 150945Z 16013KT 9999 SCT015 BKN080 16/12 Q1011
                        TEMPO BKN015=
201104150930 METAR LMML NIL=
201104150915 METAR LMML 150915Z 15014KT 120V180 9999 SCT015 BKN080 16/13
                        Q1010 NOSIG=
201104150900 METAR LMML NIL=
201104150845 METAR LMML 150845Z 16013KT 9999 FEW015 BKN080 15/12 Q1010
                        NOSIG=
201104150830 METAR LMML NIL=
201104150815 METAR LMML 150815Z 16013KT 9999 FEW016 BKN080 15/12 Q1010
                        NOSIG=
201104150800 METAR LMML NIL=
201104150745 METAR LMML 150745Z 16012KT 130V190 9999 FEW015 OVC080 16/12
                        Q1010 TEMPO 9000 TSRA BKN060CB=
201104150730 METAR LMML NIL=
201104150715 METAR LMML 150715Z 15008KT 9999 FEW015 BKN080 15/12 Q1011
                        TEMPO 9000 TSRA BKN060CB=
201104150700 METAR LMML NIL=
201104150645 METAR LMML 150645Z 16007KT 130V200 9999 FEW017 BKN080 15/12
                        Q1011 TEMPO 9000 TSRA BKN060CB=
201104150630 METAR LMML NIL=
201104150615 METAR LMML 150615Z 16009KT 120V180 9999 FEW016 BKN070 15/12
                        Q1011 NOSIG=
201104150545 METAR LMML 150545Z 15008KT 120V180 9999 FEW014 SCT021 15/12
                        Q1010 NOSIG=
201104150530 METAR LMML NIL=
201104150515 METAR LMML 150515Z 16007KT 130V190 9999 BKN015 14/12 Q1010
                        BECMG BKN016=
201104150500 METAR LMML NIL=
201104150445 METAR LMML 150445Z 15007KT 120V180 9999 BKN015 14/12 Q1010
                        BECMG BKN016=
201104150430 METAR LMML NIL=
201104150415 METAR LMML 150415Z 15006KT 120V180 9999 BKN015 14/12 Q1010
                        NOSIG=
201104150400 METAR LMML NIL=
201104150345 METAR LMML 150345Z 16008KT 9999 SCT016 14/12 Q1010 NOSIG=
201104150330 METAR LMML NIL=
201104150315 METAR LMML 150315Z 16007KT 130V190 9999 SCT013 14/12 Q1010
                        NOSIG=
201104150300 METAR LMML NIL=
201104150245 METAR LMML 150245Z 16006KT 130V200 9999 SCT013 14/12 Q1011
                        NOSIG=
201104150215 METAR LMML 150215Z 17005KT 130V210 9999 SCT013 14/12 Q1011
                        NOSIG=
201104150200 METAR LMML NIL=
201104150145 METAR LMML 150145Z 16007KT 130V190 9999 SCT019 14/11 Q1011
                        NOSIG=
201104150115 METAR LMML 150115Z 18007KT 150V210 9999 BKN014 14/12 Q1011
                        NOSIG=
201104150100 METAR LMML NIL=
201104150045 METAR LMML 150045Z 17008KT 140V200 9999 BKN013 14/12 Q1012
                        NOSIG=
201104150030 METAR LMML NIL=
201104150015 METAR LMML 150015Z 16007KT 130V190 9999 BKN014 14/12 Q1012
                        NOSIG=
201104150000 METAR LMML NIL=
201104142345 METAR LMML 142345Z 16008KT 9999 SCT015 14/12 Q1012 NOSIG=
201104142330 METAR LMML NIL=
201104142315 METAR LMML 142315Z 16008KT 9999 BKN015 14/12 Q1013 NOSIG=
201104142300 METAR LMML NIL=
201104142245 METAR LMML 142245Z 16008KT 130V190 9999 SCT014 14/12 Q1013
                        NOSIG=
201104142230 METAR LMML NIL=
201104142215 METAR LMML 142215Z 16008KT 130V190 9999 SCT015 14/12 Q1013
                        NOSIG=
201104142145 METAR LMML 142145Z 16008KT 9999 FEW015 14/12 Q1013 NOSIG=
201104142115 METAR LMML 142115Z 16008KT 9999 BKN016 14/11 Q1013 NOSIG=
201104142100 METAR LMML NIL=
201104142045 METAR LMML 142045Z 15008KT 120V190 9999 BKN017 14/11 Q1014
                        NOSIG=
201104142015 METAR LMML 142015Z 15008KT 120V180 9999 BKN018 14/11 Q1014
                        NOSIG=
201104141945 METAR LMML 141945Z 15008KT 9999 SCT017 14/11 Q1014 NOSIG=
201104141930 METAR LMML NIL=
201104141915 METAR LMML 141915Z 15008KT 130V190 9999 BKN018 14/11 Q1014
                        NOSIG=
201104141900 METAR LMML NIL=
201104141845 METAR LMML 141845Z 14008KT 9999 BKN018 14/11 Q1014 NOSIG=
201104141815 METAR LMML 141815Z 14007KT 9999 BKN019 14/11 Q1014 NOSIG=
201104141800 METAR LMML NIL=
201104141745 METAR LMML 141745Z 14008KT 9999 SCT017 14/11 Q1014 NOSIG=
201104141730 METAR LMML NIL=
201104141715 METAR LMML 141715Z 14009KT 9999 FEW019 14/10 Q1013 NOSIG=
201104141700 METAR LMML NIL=
201104141645 METAR LMML 141645Z 13009KT 100V170 9999 FEW021 15/10 Q1013
                        NOSIG=
201104141630 METAR LMML NIL=
201104141615 METAR LMML 141615Z 14009KT 110V170 9999 FEW020 15/10 Q1014
                        NOSIG=
201104141545 METAR LMML 141545Z 13010KT 9999 FEW018 16/11 Q1014 NOSIG=
201104141530 METAR LMML NIL=
201104141515 METAR LMML 141515Z 13009KT 9999 SCT021 16/11 Q1014 NOSIG=
201104141500 METAR LMML NIL=
201104141445 METAR LMML 141445Z 13008KT 100V170 9999 SCT022 16/11 Q1014
                        NOSIG=
201104141430 METAR LMML NIL=
201104141415 METAR LMML 141415Z 14009KT 100V170 9999 SCT021 16/10 Q1014
                        NOSIG=
201104141345 METAR LMML 141345Z 11010KT 9999 SCT022 16/10 Q1014 NOSIG=
201104141330 METAR LMML NIL=
201104141315 METAR LMML 141315Z 12009KT 090V150 9999 SCT025 17/11 Q1015
                        NOSIG=
201104141300 METAR LMML NIL=
201104141245 METAR LMML 141245Z 11009KT 080V150 9999 SCT023 16/10 Q1015
                        NOSIG=
201104141230 METAR LMML NIL=
201104141215 METAR LMML 141215Z 12011KT 9999 SCT020 16/11 Q1015 NOSIG=
201104141200 METAR LMML NIL=
201104141145 METAR LMML 141145Z 13010KT 080V160 9999 BKN020 17/11 Q1015
                        NOSIG=
201104141130 METAR LMML NIL=
201104141115 METAR LMML 141115Z 12009KT 070V150 9999 BKN022 17/11 Q1015
                        NOSIG=
201104141100 METAR LMML NIL=
201104141045 METAR LMML 141045Z 12010KT 100V160 9999 BKN018 17/11 Q1016
                        NOSIG=
201104141030 METAR LMML NIL=
201104141015 METAR LMML 141015Z 12008KT 080V160 9999 SCT017 16/11 Q1016
                        NOSIG=
201104141000 METAR LMML NIL=
201104140945 METAR LMML 140945Z 12010KT 090V150 9999 FEW015 SCT018 16/11
                        Q1016 NOSIG=
201104140930 METAR LMML NIL=
201104140915 METAR LMML 140915Z 12010KT 070V140 9999 FEW016 BKN018 16/11
                        Q1016 NOSIG=
201104140900 METAR LMML NIL=
201104140845 METAR LMML 140845Z 11010KT 070V130 9999 SCT017 16/12 Q1016
                        NOSIG=
201104140830 METAR LMML NIL=
201104140815 METAR LMML 140815Z 11010KT 9999 FEW013 BKN018 16/12 Q1016
                        NOSIG=
201104140800 METAR LMML NIL=
201104140745 METAR LMML 140745Z 10008KT 060V120 9999 BKN014 16/12 Q1016
                        BECMG BKN017=
201104140730 METAR LMML NIL=
201104140715 METAR LMML 140715Z 09009KT 060V130 9999 BKN013 15/12 Q1016
                        NOSIG=
201104140645 METAR LMML 140645Z 08009KT 9999 SCT013 16/12 Q1015 NOSIG=
201104140615 METAR LMML 140615Z 07009KT 040V100 9999 SCT014 15/12 Q1015
                        NOSIG=
201104140600 METAR LMML NIL=
201104140545 METAR LMML 140545Z 05007KT 020V090 9999 FEW010 SCT015 15/13
                        Q1015 NOSIG=
201104140530 METAR LMML NIL=
201104140515 METAR LMML 140515Z 03004KT 300V090 9999 SCT010 SCT014 14/12
                        Q1015 NOSIG=
201104140500 METAR LMML NIL=
201104140445 METAR LMML 140445Z 29003KT 9999 BKN014 13/10 Q1015 NOSIG=
201104140430 SPECI LMML 140430Z 30003KT 9999 BKN015 13/09 Q1015 NOSIG=
201104140430 METAR LMML NIL=
201104140415 METAR LMML 140415Z 34004KT 310V010 9999 BKN018 12/09 Q1014
                        TEMPO BKN015=
201104140400 METAR LMML NIL=
201104140345 METAR LMML 140345Z 31006KT 9999 FEW020 12/09 Q1014 NOSIG=
201104140330 METAR LMML NIL=
201104140315 METAR LMML 140315Z 32006KT 280V340 9999 FEW020 12/09 Q1014
                        NOSIG=
201104140300 METAR LMML NIL=
201104140245 METAR LMML 140245Z 32008KT CAVOK 11/09 Q1014 NOSIG=
201104140230 METAR LMML NIL=
201104140215 METAR LMML 140215Z 27004KT 220V320 CAVOK 13/09 Q1014 NOSIG=
201104140200 METAR LMML NIL=
201104140145 METAR LMML 140145Z 32006KT 290V360 CAVOK 13/09 Q1014 NOSIG=
201104140130 METAR LMML NIL=
201104140115 METAR LMML 140115Z 32009KT CAVOK 13/11 Q1014 NOSIG=
201104140100 METAR LMML NIL=
201104140045 METAR LMML 140045Z 30008KT 9999 FEW015 13/11 Q1014 NOSIG=
201104140030 METAR LMML NIL=
201104140015 METAR LMML 140015Z 30009KT 9999 FEW015 13/12 Q1015 NOSIG=
201104132345 METAR LMML 132345Z 31014KT 9999 FEW011 14/12 Q1015 TEMPO
                        CAVOK=
201104132330 METAR LMML NIL=
201104132315 METAR LMML 132315Z 31013KT 280V340 9999 FEW011 14/12 Q1015
                        TEMPO CAVOK=
201104132300 METAR LMML NIL=
201104132245 METAR LMML 132245Z 30015KT 9999 FEW011 14/13 Q1015 TEMPO
                        CAVOK=
201104132230 METAR LMML NIL=
201104132215 METAR LMML 132215Z 30014KT 260V320 9999 FEW011 14/13 Q1015
                        NOSIG=
201104132200 METAR LMML NIL=
201104132145 METAR LMML 132145Z 30013KT 9999 FEW012 14/13 Q1015 NOSIG=
201104132130 METAR LMML NIL=
201104132115 METAR LMML 132115Z 30015KT 9999 FEW014 14/12 Q1015 NOSIG=
201104132100 METAR LMML NIL=
201104132045 METAR LMML 132045Z 30014KT CAVOK 14/12 Q1014 NOSIG=
201104132030 METAR LMML NIL=
201104132015 METAR LMML 132015Z 31020KT CAVOK 14/12 Q1014 NOSIG=
201104132000 METAR LMML NIL=
201104131945 METAR LMML 131945Z 31019KT CAVOK 14/12 Q1014 NOSIG=
201104131930 METAR LMML NIL=
201104131915 METAR LMML 131915Z 31018KT CAVOK 14/12 Q1014 NOSIG=
201104131900 METAR LMML NIL=
201104131845 METAR LMML 131845Z 30020KT 270V330 CAVOK 14/11 Q1013 NOSIG=
201104131830 METAR LMML NIL=
201104131815 METAR LMML 131815Z 30021G32KT 9999 FEW022 14/10 Q1013 NOSIG=
201104131800 METAR LMML NIL=
201104131745 METAR LMML 131745Z 29016KT 9999 FEW022 14/10 Q1012 NOSIG=
201104131730 METAR LMML NIL=
201104131715 METAR LMML 131715Z 29018KT 260V320 9999 SCT022 15/10 Q1013
                        NOSIG=
201104131700 METAR LMML NIL=
201104131645 METAR LMML 131645Z 29019KT 240V310 9999 FEW028 16/10 Q1013
                        NOSIG=
201104131630 METAR LMML NIL=
201104131615 METAR LMML 131615Z 29021KT 250V320 9999 FEW028 16/10 Q1013
                        NOSIG=
201104131600 METAR LMML NIL=
201104131545 METAR LMML 131545Z 28020KT 9999 FEW025 17/09 Q1013 NOSIG=
201104131530 METAR LMML NIL=
201104131515 METAR LMML 131515Z 29018KT 260V320 9999 SCT024 18/10 Q1013
                        NOSIG=
201104131500 METAR LMML NIL=
201104131445 METAR LMML 131445Z 27019KT 240V300 9999 SCT024 17/11 Q1013
                        NOSIG=
201104131430 METAR LMML NIL=
201104131415 METAR LMML 131415Z 27019KT 230V300 9999 SCT025 18/12 Q1013
                        NOSIG=
201104131345 METAR LMML 131345Z 27017KT 230V300 9999 SCT024 18/12 Q1014
                        NOSIG=
201104131330 METAR LMML NIL=
201104131315 METAR LMML 131315Z 26019KT 230V300 9999 SCT024 18/12 Q1014
                        NOSIG=
201104131300 METAR LMML NIL=
201104131245 METAR LMML 131245Z 27020KT 240V300 9999 SCT026 18/11 Q1015
                        NOSIG=
201104131230 METAR LMML NIL=
201104131215 METAR LMML 131215Z 28019KT 230V310 9999 SCT020 18/11 Q1015
                        NOSIG=
201104131200 METAR LMML NIL=
201104131145 METAR LMML 131145Z 28021KT 240V300 9999 BKN021 18/12 Q1015
                        NOSIG=
201104131130 METAR LMML NIL=
201104131115 METAR LMML 131115Z 27021KT 230V300 9999 BKN019 18/12 Q1015
                        NOSIG=
201104131045 METAR LMML 131045Z 27020KT 240V310 9999 BKN020 18/12 Q1016
                        NOSIG=
201104131015 METAR LMML 131015Z 26017KT 220V300 9999 BKN018 17/12 Q1016
                        NOSIG=
201104131000 METAR LMML NIL=
201104130945 METAR LMML 130945Z 25017KT 210V280 9999 SCT018 18/13 Q1016
                        NOSIG=
201104130930 METAR LMML NIL=
201104130915 METAR LMML 130915Z 26017KT 210V300 9999 SCT017 18/13 Q1016
                        NOSIG=
201104130900 METAR LMML NIL=
201104130845 METAR LMML 130845Z 25016KT 200V290 9999 SCT019 18/13 Q1016
                        NOSIG=
201104130830 METAR LMML NIL=
201104130815 METAR LMML 130815Z 27017KT 240V300 9999 SCT018 BKN033 18/13
                        Q1016 NOSIG=
201104130745 METAR LMML 130745Z 27015KT 230V300 9999 SCT013 BKN032 17/13
                        Q1016 TEMPO BKN015=
201104130730 METAR LMML NIL=
201104130715 METAR LMML 130715Z 27013KT 220V300 9999 SCT014 17/13 Q1016
                        TEMPO BKN012=
201104130700 METAR LMML NIL=
201104130645 METAR LMML 130645Z 27011KT 230V300 9000 SCT013 16/14 Q1016
                        TEMPO BKN012=
201104130630 METAR LMML NIL=
201104130615 METAR LMML 130615Z 26010KT 220V290 9000 SCT013 BKN033 16/14
                        Q1016 TEMPO BKN012=
201104130545 METAR LMML 130545Z 26008KT 230V290 9000 SCT014 BKN032 15/13
                        Q1016 TEMPO BKN015=
201104130530 METAR LMML NIL=
201104130515 METAR LMML 130515Z 27006KT 230V290 7000 FEW009 SCT023 14/13
                        Q1016 TEMPO BKN009=
201104130500 METAR LMML NIL=
201104130445 METAR LMML 130445Z 27006KT 230V290 7000 FEW009 14/12 Q1016
                        TEMPO BKN009=
201104130430 METAR LMML NIL=
201104130415 METAR LMML 130415Z 26006KT 7000 FEW014 14/13 Q1015 TEMPO
                        BKN010=
201104130400 METAR LMML NIL=
201104130345 METAR LMML 130345Z 27007KT 250V310 9999 FEW014 14/13 Q1015
                        TEMPO BKN010=
201104130330 METAR LMML NIL=
201104130315 METAR LMML 130315Z 29011KT 260V320 9999 FEW014 15/13 Q1016
                        TEMPO 9999 SCT008=
201104130245 METAR LMML 130245Z 28010KT 240V300 9999 SCT014 15/13 Q1016
                        TEMPO 9999 SCT008=
201104130230 METAR LMML NIL=
201104130215 METAR LMML 130215Z 25009KT 220V280 9999 FEW009 14/13 Q1016
                        TEMPO 9999 SCT008=
201104130200 METAR LMML NIL=
201104130145 METAR LMML 130145Z 25008KT 220V280 CAVOK 14/13 Q1016 NOSIG=
201104130130 METAR LMML NIL=
201104130115 METAR LMML 130115Z 25006KT 210V280 CAVOK 14/12 Q1016 NOSIG=
201104130100 METAR LMML NIL=
201104130045 METAR LMML 130045Z 24007KT 210V280 CAVOK 14/12 Q1016 NOSIG=
201104130030 METAR LMML NIL=
201104130015 METAR LMML 130015Z 24006KT 210V270 CAVOK 14/12 Q1017 NOSIG=
201104130000 METAR LMML NIL=
201104122345 METAR LMML 122345Z 24006KT 210V280 CAVOK 14/12 Q1017 NOSIG=
201104122330 METAR LMML NIL=
201104122315 METAR LMML 122315Z 23005KT 200V270 CAVOK 14/11 Q1017 NOSIG=
201104122300 METAR LMML NIL=
201104122245 METAR LMML 122245Z 23007KT 200V270 CAVOK 14/11 Q1017 NOSIG=
201104122230 METAR LMML NIL=
201104122215 METAR LMML 122215Z 23007KT 200V280 CAVOK 14/11 Q1018 NOSIG=
201104122200 METAR LMML NIL=
201104122145 METAR LMML 122145Z 23007KT 190V270 CAVOK 14/11 Q1018 NOSIG=
201104122130 METAR LMML NIL=
201104122115 METAR LMML 122115Z 23006KT 200V270 CAVOK 14/11 Q1018 NOSIG=
201104122100 METAR LMML NIL=
201104122045 METAR LMML 122045Z 23006KT 200V260 CAVOK 14/11 Q1018 NOSIG=
201104122030 METAR LMML NIL=
201104122015 METAR LMML 122015Z 23004KT 200V280 CAVOK 14/11 Q1018 NOSIG=
201104122000 METAR LMML NIL=
201104121945 METAR LMML 121945Z 25003KT CAVOK 14/10 Q1018 NOSIG=
201104121930 METAR LMML NIL=
201104121915 METAR LMML 121915Z 24003KT CAVOK 14/09 Q1018 NOSIG=
201104121900 METAR LMML NIL=
201104121845 METAR LMML 121845Z 25004KT 220V280 CAVOK 15/09 Q1018 NOSIG=
201104121830 METAR LMML NIL=
201104121815 METAR LMML 121815Z 26004KT 230V290 CAVOK 15/09 Q1018 NOSIG=
201104121800 METAR LMML NIL=
201104121745 METAR LMML 121745Z 28004KT 250V310 CAVOK 16/08 Q1018 NOSIG=
201104121730 METAR LMML NIL=
201104121715 METAR LMML 121715Z 28005KT CAVOK 17/08 Q1018 NOSIG=
201104121700 METAR LMML NIL=
201104121645 METAR LMML 121645Z 29007KT CAVOK 17/08 Q1018 NOSIG=
201104121615 METAR LMML 121615Z 27006KT 240V310 CAVOK 19/06 Q1018 NOSIG=
201104121600 METAR LMML NIL=
201104121545 METAR LMML 121545Z 24007KT 200V280 CAVOK 19/05 Q1018 NOSIG=
201104121530 METAR LMML NIL=
201104121515 METAR LMML 121515Z 24007KT 200V290 CAVOK 20/05 Q1018 NOSIG=
201104121500 METAR LMML NIL=
201104121445 METAR LMML 121445Z 24007KT 190V290 CAVOK 20/06 Q1018 NOSIG=
201104121430 METAR LMML NIL=
201104121415 METAR LMML 121415Z 22008KT 190V260 CAVOK 20/05 Q1018 NOSIG=
201104121400 METAR LMML NIL=
201104121345 METAR LMML 121345Z 22008KT 190V250 CAVOK 20/06 Q1018 TEMPO
                        9999 FEW025=
201104121330 METAR LMML NIL=
201104121315 METAR LMML 121315Z 21007KT 170V270 CAVOK 20/06 Q1019 TEMPO
                        9999 FEW025=
201104121300 METAR LMML NIL=
201104121245 METAR LMML 121245Z 22007KT 180V260 9999 FEW025 20/05 Q1019
                        NOSIG=
201104121230 METAR LMML NIL=
201104121215 METAR LMML 121215Z 22005KT 160V270 9999 FEW025 20/06 Q1020
                        NOSIG=
201104121200 METAR LMML NIL=
201104121145 METAR LMML 121145Z 19005KT 130V250 9999 FEW020 20/05 Q1020
                        NOSIG=
201104121130 METAR LMML NIL=
201104121115 METAR LMML 121115Z 20005KT 140V240 9999 FEW020 20/06 Q1020
                        NOSIG=
201104121100 METAR LMML NIL=
201104121045 METAR LMML 121045Z 20006KT 160V250 9999 FEW020 20/04 Q1020
                        NOSIG=
201104121030 METAR LMML NIL=
201104121015 METAR LMML 121015Z 19006KT 160V250 9999 FEW020 20/04 Q1020
                        NOSIG=
201104121000 METAR LMML NIL=
201104120945 METAR LMML 120945Z 18004KT 140V220 9999 FEW020 20/04 Q1020
                        NOSIG=
201104120930 METAR LMML NIL=
201104120915 METAR LMML 120915Z 17003KT 9999 FEW020 20/05 Q1020 NOSIG=
201104120900 METAR LMML NIL=
201104120845 METAR LMML 120845Z 21003KT 9999 FEW020 20/06 Q1020 NOSIG=
201104120830 METAR LMML NIL=
201104120815 METAR LMML 120815Z VRB01KT CAVOK 19/08 Q1020 NOSIG=
201104120800 METAR LMML NIL=
201104120745 METAR LMML 120745Z VRB02KT CAVOK 18/10 Q1020 NOSIG=
201104120730 METAR LMML NIL=
201104120715 METAR LMML 120715Z 33003KT CAVOK 17/11 Q1020 NOSIG=
201104120700 METAR LMML NIL=
201104120645 METAR LMML 120645Z 31003KT CAVOK 16/13 Q1019 NOSIG=
201104120615 METAR LMML 120615Z VRB02KT CAVOK 15/12 Q1019 NOSIG=
201104120600 METAR LMML NIL=
201104120545 METAR LMML 120545Z VRB02KT CAVOK 13/11 Q1019 NOSIG=
201104120530 METAR LMML NIL=
201104120515 METAR LMML 120515Z 31003KT CAVOK 11/10 Q1019 NOSIG=
201104120500 METAR LMML NIL=
201104120445 METAR LMML 120445Z 31003KT CAVOK 11/09 Q1019 NOSIG=
201104120430 METAR LMML NIL=
201104120415 METAR LMML 120415Z 32003KT CAVOK 11/10 Q1018 TEMPO 8000=
201104120345 METAR LMML 120345Z 31003KT CAVOK 11/10 Q1018 TEMPO 8000=
201104120330 METAR LMML NIL=
201104120315 METAR LMML 120315Z 30003KT CAVOK 11/10 Q1018 TEMPO 8000=
201104120300 METAR LMML NIL=
201104120245 METAR LMML 120245Z VRB02KT CAVOK 11/10 Q1018 TEMPO 8000=
201104120230 METAR LMML NIL=
201104120215 METAR LMML 120215Z VRB01KT CAVOK 11/10 Q1018 TEMPO 8000=
201104120200 METAR LMML NIL=
201104120145 METAR LMML 120145Z VRB01KT CAVOK 12/10 Q1018 TEMPO 8000=
201104120130 METAR LMML NIL=
201104120115 METAR LMML 120115Z VRB01KT CAVOK 12/10 Q1018 TEMPO 8000=
201104120100 METAR LMML NIL=
201104120045 METAR LMML 120045Z 05003KT CAVOK 12/10 Q1018 TEMPO 8000=
201104120030 METAR LMML NIL=
201104120015 METAR LMML 120015Z 05003KT CAVOK 14/10 Q1018 NOSIG=
201104120000 METAR LMML NIL=
201104112345 METAR LMML 112345Z 07003KT CAVOK 13/10 Q1018 NOSIG=
201104112330 METAR LMML NIL=
201104112315 METAR LMML 112315Z 08004KT 040V110 CAVOK 14/10 Q1019 NOSIG=
201104112300 METAR LMML NIL=
201104112245 METAR LMML 112245Z 08004KT CAVOK 14/10 Q1019 NOSIG=
201104112230 METAR LMML NIL=
201104112215 METAR LMML 112215Z 08004KT CAVOK 14/10 Q1018 NOSIG=
201104112200 METAR LMML NIL=
201104112145 METAR LMML 112145Z 07003KT CAVOK 14/10 Q1018 NOSIG=
201104112130 METAR LMML NIL=
201104112115 METAR LMML 112115Z 07004KT CAVOK 15/10 Q1018 NOSIG=
201104112100 METAR LMML NIL=
201104112045 METAR LMML 112045Z 08004KT CAVOK 14/10 Q1018 NOSIG=
201104112030 METAR LMML NIL=
201104112015 METAR LMML 112015Z 09005KT CAVOK 15/10 Q1018 NOSIG=
201104112000 METAR LMML NIL=
201104111945 METAR LMML 111945Z 08004KT CAVOK 15/10 Q1018 NOSIG=
201104111930 METAR LMML NIL=
201104111915 METAR LMML 111915Z 08005KT CAVOK 15/10 Q1018 NOSIG=
201104111900 METAR LMML NIL=
201104111845 METAR LMML 111845Z 08005KT CAVOK 15/10 Q1017 NOSIG=
201104111830 METAR LMML NIL=
201104111815 METAR LMML 111815Z 09005KT CAVOK 15/10 Q1017 NOSIG=
201104111800 METAR LMML NIL=
201104111745 METAR LMML 111745Z 09006KT 060V120 CAVOK 15/10 Q1017 NOSIG=
201104111730 METAR LMML NIL=
201104111715 METAR LMML 111715Z 10010KT CAVOK 16/08 Q1016 NOSIG=
201104111645 METAR LMML 111645Z 09009KT 060V120 CAVOK 17/09 Q1016 NOSIG=
201104111630 METAR LMML NIL=
201104111615 METAR LMML 111615Z 09009KT 050V120 CAVOK 18/09 Q1016 NOSIG=
201104111600 METAR LMML NIL=
201104111545 METAR LMML 111545Z 08010KT 060V140 CAVOK 18/08 Q1016 NOSIG=
201104111530 METAR LMML NIL=
201104111515 METAR LMML 111515Z 09010KT 020V120 CAVOK 18/09 Q1016 NOSIG=
201104111500 METAR LMML NIL=
201104111445 METAR LMML 111445Z 09012KT CAVOK 19/08 Q1016 NOSIG=
201104111430 METAR LMML NIL=
201104111415 METAR LMML 111415Z 09013KT 060V120 CAVOK 19/09 Q1016 NOSIG=
201104111400 METAR LMML NIL=
201104111345 METAR LMML 111345Z 09012KT 060V130 CAVOK 19/09 Q1016 NOSIG=
201104111330 METAR LMML NIL=
201104111315 METAR LMML 111315Z 10011KT 060V150 CAVOK 20/09 Q1016 NOSIG=
201104111300 METAR LMML NIL=
201104111245 METAR LMML 111245Z 11012KT 060V140 CAVOK 20/10 Q1016 NOSIG=
201104111230 METAR LMML NIL=
201104111215 METAR LMML 111215Z 09013KT 040V130 CAVOK 20/10 Q1017 NOSIG=
201104111200 METAR LMML NIL=
201104111145 METAR LMML 111145Z 09014KT 050V120 CAVOK 20/10 Q1016 NOSIG=
201104111130 METAR LMML NIL=
201104111115 METAR LMML 111115Z 10014KT 050V140 CAVOK 20/10 Q1016 NOSIG=
201104111100 METAR LMML NIL=
201104111045 METAR LMML 111045Z 10015KT 060V130 CAVOK 19/09 Q1016 NOSIG=
201104111030 METAR LMML NIL=
201104111015 METAR LMML 111015Z 10014G24KT 060V130 CAVOK 19/10 Q1016 NOSIG=
201104111000 METAR LMML NIL=
201104110945 METAR LMML 110945Z 08013KT 040V110 9999 FEW010 19/10 Q1016
                        NOSIG=
201104110915 METAR LMML 110915Z 07011KT 040V100 9999 SCT009 18/14 Q1016
                        NOSIG=
201104110900 METAR LMML NIL=
201104110845 METAR LMML 110845Z 03008KT 360V070 9999 SCT009 19/14 Q1016
                        NOSIG=
201104110815 METAR LMML 110815Z 06006KT 020V100 9999 FEW020 19/15 Q1016
                        NOSIG=
201104110800 METAR LMML NIL=
201104110745 METAR LMML 110745Z 07005KT 010V120 9000 NSC 18/14 Q1015 BECMG
                        CAVOK=
201104110730 METAR LMML NIL=
201104110715 METAR LMML 110715Z 08003KT 9000 NSC 18/13 Q1015 BECMG 9999=
201104110645 METAR LMML 110645Z 02003KT 9000 FEW010 17/13 Q1015 BECMG
                        9999=
201104110630 METAR LMML NIL=
201104110615 METAR LMML 110615Z 36003KT 9000 FEW010 16/13 Q1015 BECMG
                        9999=
201104110600 METAR LMML NIL=
201104110545 METAR LMML 110545Z 35003KT 9000 SCT010 15/13 Q1015 BECMG
                        9999=
201104110530 METAR LMML NIL=
201104110515 METAR LMML 110515Z 35006KT 8000 BKN010 14/13 Q1015 BECMG
                        9999 SCT010=
201104110500 METAR LMML NIL=
201104110445 METAR LMML 110445Z 35008KT 8000 OVC010 14/13 Q1014 BECMG
                        9999 SCT010=
201104110430 METAR LMML NIL=
201104110415 METAR LMML 110415Z 36007KT 330V030 8000 OVC008 14/13 Q1014
                        BECMG 9999 SCT009=
201104110345 METAR LMML 110345Z 32006KT 280V350 8000 OVC007 14/13 Q1014
                        NOSIG=
201104110315 METAR LMML 110315Z 32007KT 6000 OVC006 14/13 Q1014 NOSIG=
201104110300 METAR LMML NIL=
201104110245 METAR LMML 110245Z 31007KT 270V360 6000 OVC005 14/14 Q1014
                        NOSIG=
201104110230 METAR LMML NIL=
201104110215 METAR LMML 110215Z 32006KT 280V340 5000 BR OVC005 14/14 Q1014
                        BECMG 8000=
201104110200 METAR LMML NIL=
201104110145 METAR LMML 110145Z 29004KT 250V330 5000 BR BKN005 14/13 Q1014
                        BECMG 8000=
201104110130 METAR LMML NIL=
201104110115 METAR LMML 110115Z 29003KT 5000 BR BKN004 13/13 Q1014 BECMG
                        8000=
201104110100 METAR LMML NIL=
201104110045 METAR LMML 110045Z 28004KT 5000 BR SCT004 11/11 Q1014 BECMG
                        BKN001=
201104110030 METAR LMML NIL=
201104110015 METAR LMML 110015Z VRB02KT 3000 R13/0642VP1500U BR SCT001
                        12/12 Q1014 BECMG BKN001=
201104110000 METAR LMML NIL=
201104102345 METAR LMML 102345Z 32004KT 0900 R13/0364V0525D FG FEW001
                        13/12 Q1014 BECMG BKN001=
201104102315 METAR LMML 102315Z VRB01KT 9999 FEW012 13/12 Q1014 NOSIG=
201104102245 METAR LMML 102245Z VRB02KT 9999 FEW012 13/12 Q1014 NOSIG=
201104102230 METAR LMML NIL=
201104102215 METAR LMML 102215Z VRB02KT 9999 FEW012 14/12 Q1014 NOSIG=
201104102145 METAR LMML 102145Z VRB01KT 9999 FEW012 14/12 Q1014 NOSIG=
201104102115 METAR LMML 102115Z VRB01KT 9999 FEW012 14/11 Q1014 NOSIG=
201104102100 METAR LMML NIL=
201104102045 METAR LMML 102045Z VRB01KT 9999 FEW012 14/11 Q1014 NOSIG=
201104102030 METAR LMML NIL=
201104102015 METAR LMML 102015Z VRB01KT 9999 FEW012 14/12 Q1014 NOSIG=
201104101945 METAR LMML 101945Z VRB01KT 9999 FEW012 15/13 Q1014 NOSIG=
201104101915 METAR LMML 101915Z VRB01KT 9999 FEW012 15/13 Q1014 NOSIG=
201104101900 METAR LMML NIL=
201104101845 METAR LMML 101845Z VRB02KT 9999 FEW012 15/13 Q1014 NOSIG=
201104101830 METAR LMML NIL=
201104101815 METAR LMML 101815Z VRB02KT 9999 FEW012 16/13 Q1014 NOSIG=
201104101800 METAR LMML NIL=
201104101745 METAR LMML 101745Z VRB02KT 9999 FEW012 16/14 Q1013 NOSIG=
201104101730 METAR LMML NIL=
201104101715 METAR LMML 101715Z 13003KT 9999 FEW012 18/14 Q1013 NOSIG=
201104101645 METAR LMML 101645Z 10003KT CAVOK 20/15 Q1013 NOSIG=
201104101630 METAR LMML NIL=
201104101615 METAR LMML 101615Z 08004KT CAVOK 21/15 Q1013 NOSIG=
201104101545 METAR LMML 101545Z 33004KT CAVOK 23/15 Q1013 NOSIG=
201104101530 METAR LMML NIL=
201104101515 METAR LMML 101515Z 23003KT CAVOK 23/12 Q1013 NOSIG=
201104101500 METAR LMML NIL=
201104101445 METAR LMML 101445Z 23003KT CAVOK 23/12 Q1013 NOSIG=
201104101430 METAR LMML NIL=
201104101415 METAR LMML 101415Z 22004KT 180V300 CAVOK 23/12 Q1014 NOSIG=
201104101400 METAR LMML NIL=
201104101345 METAR LMML 101345Z 21005KT 170V250 CAVOK 22/12 Q1014 NOSIG=
201104101330 METAR LMML NIL=
201104101315 METAR LMML 101315Z 20004KT 110V290 9999 FEW025 23/13 Q1014
                        NOSIG=
201104101300 METAR LMML NIL=
201104101245 METAR LMML 101245Z 20004KT 140V260 9999 FEW025 22/14 Q1014
                        NOSIG=
201104101230 METAR LMML NIL=
201104101215 METAR LMML 101215Z 09004KT 020V230 9999 FEW025 23/14 Q1014
                        NOSIG=
201104101145 METAR LMML 101145Z 07003KT 9999 FEW000 23/13 Q1015 NOSIG=
201104101130 METAR LMML NIL=
201104101115 METAR LMML 101115Z VRB02KT CAVOK 23/13 Q1015 NOSIG=
201104101100 METAR LMML NIL=
201104101045 METAR LMML 101045Z 04004KT 360V100 CAVOK 23/13 Q1015 NOSIG=
201104101030 METAR LMML NIL=
201104101015 METAR LMML 101015Z 05004KT 350V100 CAVOK 23/12 Q1015 NOSIG=
201104101000 METAR LMML NIL=
201104100945 METAR LMML 100945Z 04004KT 310V080 CAVOK 23/12 Q1015 NOSIG=
201104100930 METAR LMML NIL=
201104100915 METAR LMML 100915Z VRB02KT CAVOK 23/12 Q1015 NOSIG=
201104100900 METAR LMML NIL=
201104100845 METAR LMML 100845Z VRB02KT CAVOK 22/10 Q1015 NOSIG=
201104100830 METAR LMML NIL=
201104100815 METAR LMML 100815Z VRB02KT CAVOK 21/11 Q1015 NOSIG=
201104100800 METAR LMML NIL=
201104100745 METAR LMML 100745Z 33003KT CAVOK 20/12 Q1015 NOSIG=
201104100730 METAR LMML NIL=
201104100715 METAR LMML 100715Z 33003KT CAVOK 18/12 Q1014 NOSIG=
201104100645 METAR LMML 100645Z 32006KT CAVOK 17/12 Q1014 NOSIG=
201104100630 METAR LMML NIL=
201104100615 METAR LMML 100615Z 32005KT CAVOK 16/13 Q1014 NOSIG=
201104100600 METAR LMML NIL=
201104100545 METAR LMML 100545Z 32005KT CAVOK 15/14 Q1014 NOSIG=
201104100530 METAR LMML NIL=
201104100515 METAR LMML 100515Z 32006KT CAVOK 14/13 Q1014 NOSIG=
201104100500 METAR LMML NIL=
201104100445 METAR LMML 100445Z 31005KT CAVOK 13/12 Q1013 NOSIG=
201104100430 METAR LMML NIL=
201104100415 METAR LMML 100415Z 32005KT CAVOK 13/12 Q1013 NOSIG=
201104100400 METAR LMML NIL=
201104100345 METAR LMML 100345Z 29005KT CAVOK 13/12 Q1013 NOSIG=
201104100330 METAR LMML NIL=
201104100315 METAR LMML 100315Z 27005KT CAVOK 14/12 Q1013 NOSIG=
201104100300 METAR LMML NIL=
201104100245 METAR LMML 100245Z 28005KT CAVOK 14/12 Q1013 NOSIG=
201104100230 METAR LMML NIL=
201104100215 METAR LMML 100215Z 29006KT 260V320 CAVOK 14/12 Q1013 NOSIG=
201104100200 METAR LMML NIL=
201104100145 METAR LMML 100145Z 30007KT CAVOK 14/12 Q1013 NOSIG=
201104100130 METAR LMML NIL=
201104100115 METAR LMML 100115Z 30006KT 270V340 CAVOK 14/11 Q1013 NOSIG=
201104100045 METAR LMML 100045Z 36005KT 310V060 CAVOK 15/11 Q1013 NOSIG=
201104100030 METAR LMML NIL=
201104100015 METAR LMML 100015Z 31007KT CAVOK 15/11 Q1013 NOSIG=
201104100000 METAR LMML NIL=
201104092345 METAR LMML 092345Z 29003KT CAVOK 15/11 Q1014 NOSIG=
201104092330 METAR LMML NIL=
201104092315 METAR LMML 092315Z 30008KT CAVOK 16/12 Q1014 NOSIG=
201104092300 METAR LMML NIL=
201104092245 METAR LMML 092245Z 31010KT CAVOK 16/12 Q1014 NOSIG=
201104092230 METAR LMML NIL=
201104092215 METAR LMML 092215Z 32012KT CAVOK 16/12 Q1014 NOSIG=
201104092145 METAR LMML 092145Z 31011KT CAVOK 16/12 Q1014 NOSIG=
201104092130 METAR LMML NIL=
201104092115 METAR LMML 092115Z 30011KT CAVOK 17/11 Q1014 NOSIG=
201104092100 METAR LMML NIL=
201104092045 METAR LMML 092045Z 30012KT CAVOK 17/11 Q1014 NOSIG=
201104092030 METAR LMML NIL=
201104092015 METAR LMML 092015Z 29013KT CAVOK 17/11 Q1014 NOSIG=
201104092000 METAR LMML NIL=
201104091945 METAR LMML 091945Z 29013KT CAVOK 17/11 Q1014 NOSIG=
201104091930 METAR LMML NIL=
201104091915 METAR LMML 091915Z 28018KT CAVOK 16/11 Q1013 NOSIG=
201104091900 METAR LMML NIL=
201104091845 METAR LMML 091845Z 29015KT 260V320 CAVOK 16/11 Q1013 NOSIG=
201104091830 METAR LMML NIL=
201104091815 METAR LMML 091815Z 28014KT 250V310 CAVOK 16/11 Q1013 NOSIG=
201104091800 METAR LMML NIL=
201104091745 METAR LMML 091745Z 28015KT 230V300 CAVOK 16/11 Q1013 NOSIG=
201104091730 METAR LMML NIL=
201104091715 METAR LMML 091715Z 28015KT CAVOK 17/10 Q1013 NOSIG=
201104091700 METAR LMML NIL=
201104091645 METAR LMML 091645Z 28015KT 250V320 CAVOK 17/09 Q1013 NOSIG=
201104091630 METAR LMML NIL=
201104091615 METAR LMML 091615Z 29015KT CAVOK 18/08 Q1014 NOSIG=
201104091600 METAR LMML NIL=
201104091545 METAR LMML 091545Z 28016KT CAVOK 19/08 Q1014 NOSIG=
201104091530 METAR LMML NIL=
201104091515 METAR LMML 091515Z 29016KT 260V320 CAVOK 20/07 Q1014 NOSIG=
201104091500 METAR LMML NIL=
201104091445 METAR LMML 091445Z 29015KT 250V320 CAVOK 21/05 Q1014 NOSIG=
201104091430 METAR LMML NIL=
201104091415 METAR LMML 091415Z 28014KT 250V320 CAVOK 21/04 Q1014 NOSIG=
201104091400 METAR LMML NIL=
201104091345 METAR LMML 091345Z 29016KT 260V320 CAVOK 22/04 Q1015 NOSIG=
201104091330 METAR LMML NIL=
201104091315 METAR LMML 091315Z 28016KT 240V310 CAVOK 22/04 Q1015 NOSIG=
201104091300 METAR LMML NIL=
201104091245 METAR LMML 091245Z 28018KT 250V320 CAVOK 22/05 Q1015 NOSIG=
201104091230 METAR LMML NIL=
201104091215 METAR LMML 091215Z 29015KT 250V320 CAVOK 22/05 Q1016 NOSIG=
201104091200 METAR LMML NIL=
201104091145 METAR LMML 091145Z 28017KT CAVOK 22/05 Q1016 NOSIG=
201104091115 METAR LMML 091115Z 29017G28KT 260V330 CAVOK 22/05 Q1016 NOSIG=
201104091045 METAR LMML 091045Z 29017KT CAVOK 22/05 Q1017 NOSIG=
201104091030 METAR LMML NIL=
201104091015 METAR LMML 091015Z 29016KT 240V320 CAVOK 22/06 Q1017 NOSIG=
201104091000 METAR LMML NIL=
201104090945 METAR LMML 090945Z 29018KT 260V320 CAVOK 22/05 Q1017 NOSIG=
201104090930 METAR LMML NIL=
201104090915 METAR LMML 090915Z 29019KT CAVOK 21/07 Q1017 NOSIG=
201104090900 METAR LMML NIL=
201104090845 METAR LMML 090845Z 29017KT CAVOK 21/05 Q1017 NOSIG=
201104090815 METAR LMML 090815Z 29016KT 240V320 CAVOK 21/05 Q1017 NOSIG=
201104090800 METAR LMML NIL=
201104090745 METAR LMML 090745Z 29014KT 250V320 CAVOK 20/05 Q1017 NOSIG=
201104090730 METAR LMML NIL=
201104090715 METAR LMML 090715Z 29014KT 250V320 CAVOK 19/06 Q1017 NOSIG=
201104090700 METAR LMML NIL=
201104090645 METAR LMML 090645Z 28013KT 230V320 CAVOK 19/07 Q1017 NOSIG=
201104090630 METAR LMML NIL=
201104090615 METAR LMML 090615Z 28011KT 250V310 CAVOK 18/08 Q1017 NOSIG=
201104090600 METAR LMML NIL=
201104090545 METAR LMML 090545Z 28012KT 250V320 CAVOK 17/07 Q1017 NOSIG=
201104090530 METAR LMML NIL=
201104090515 METAR LMML 090515Z 29016KT CAVOK 17/07 Q1017 NOSIG=
201104090500 METAR LMML NIL=
201104090445 METAR LMML 090445Z 28018KT CAVOK 15/09 Q1017 NOSIG=
201104090430 METAR LMML NIL=
201104090415 METAR LMML 090415Z 27012KT 240V310 CAVOK 15/10 Q1017 NOSIG=
201104090400 METAR LMML NIL=
201104090345 METAR LMML 090345Z 27013KT 230V300 CAVOK 15/10 Q1017 NOSIG=
201104090330 METAR LMML NIL=
201104090315 METAR LMML 090315Z 28012KT 250V310 CAVOK 15/10 Q1017 NOSIG=
201104090245 METAR LMML 090245Z 28016KT CAVOK 15/11 Q1017 NOSIG=
201104090230 METAR LMML NIL=
201104090215 METAR LMML 090215Z 28013KT 250V310 CAVOK 15/12 Q1017 NOSIG=
201104090200 METAR LMML NIL=
201104090145 METAR LMML 090145Z 28010KT 230V310 CAVOK 15/12 Q1017 NOSIG=
201104090130 METAR LMML NIL=
201104090115 METAR LMML 090115Z 28014KT CAVOK 15/12 Q1018 NOSIG=
201104090100 METAR LMML NIL=
201104090045 METAR LMML 090045Z 28011KT 240V300 CAVOK 15/12 Q1018 NOSIG=
201104090030 METAR LMML NIL=
201104090015 METAR LMML 090015Z 27010KT CAVOK 15/13 Q1018 NOSIG=
201104082345 METAR LMML 082345Z 28011KT CAVOK 15/13 Q1018 NOSIG=
201104082330 METAR LMML NIL=
201104082315 METAR LMML 082315Z 27011KT CAVOK 15/13 Q1019 NOSIG=
201104082300 METAR LMML NIL=
201104082245 METAR LMML 082245Z 27010KT 240V310 CAVOK 15/13 Q1019 NOSIG=
201104082215 METAR LMML 082215Z 28013KT CAVOK 15/12 Q1019 NOSIG=
201104082200 METAR LMML NIL=
201104082145 METAR LMML 082145Z 28015KT 250V310 CAVOK 15/12 Q1019 NOSIG=
201104082130 METAR LMML NIL=
201104082115 METAR LMML 082115Z 29010KT 260V320 CAVOK 16/11 Q1019 NOSIG=
201104082045 METAR LMML 082045Z 28011KT 250V320 CAVOK 16/11 Q1019 NOSIG=
201104082030 METAR LMML NIL=
201104082015 METAR LMML 082015Z 28015KT CAVOK 16/10 Q1019 NOSIG=
201104082000 METAR LMML NIL=
201104081945 METAR LMML 081945Z 28014KT CAVOK 16/10 Q1019 NOSIG=
201104081930 METAR LMML NIL=
201104081915 METAR LMML 081915Z 28010KT 240V310 CAVOK 16/10 Q1019 NOSIG=
201104081900 METAR LMML NIL=
201104081845 METAR LMML 081845Z 27010KT 230V300 CAVOK 16/10 Q1019 NOSIG=
201104081830 METAR LMML NIL=
201104081815 METAR LMML 081815Z 27011KT 250V320 CAVOK 16/11 Q1018 NOSIG=
201104081800 METAR LMML NIL=
201104081745 METAR LMML 081745Z 27011KT 230V300 CAVOK 16/10 Q1018 NOSIG=
201104081730 METAR LMML NIL=
201104081715 METAR LMML 081715Z 28012KT 240V310 CAVOK 17/10 Q1018 NOSIG=
201104081700 METAR LMML NIL=
201104081645 METAR LMML 081645Z 28012KT 250V310 CAVOK 18/10 Q1018 NOSIG=
201104081630 METAR LMML NIL=
201104081615 METAR LMML 081615Z 28012KT 250V310 CAVOK 19/10 Q1018 NOSIG=
201104081600 METAR LMML NIL=
201104081545 METAR LMML 081545Z 28014KT CAVOK 19/09 Q1019 NOSIG=
201104081530 METAR LMML NIL=
201104081515 METAR LMML 081515Z 29015KT CAVOK 20/07 Q1019 NOSIG=
201104081500 METAR LMML NIL=
201104081445 METAR LMML 081445Z 29013KT CAVOK 20/07 Q1019 NOSIG=
201104081430 METAR LMML NIL=
201104081415 METAR LMML 081415Z 29011KT 250V320 CAVOK 21/08 Q1019 NOSIG=
201104081400 METAR LMML NIL=
201104081345 METAR LMML 081345Z 29010KT 240V320 CAVOK 21/09 Q1019 NOSIG=
201104081315 METAR LMML 081315Z 30011KT 260V340 CAVOK 21/09 Q1020 NOSIG=
201104081300 METAR LMML NIL=
201104081245 METAR LMML 081245Z 30012KT 270V330 CAVOK 21/09 Q1020 NOSIG=
201104081230 METAR LMML NIL=
201104081215 METAR LMML 081215Z 29009KT 240V330 CAVOK 22/08 Q1020 NOSIG=
201104081200 METAR LMML NIL=
201104081145 METAR LMML 081145Z 28010KT 250V330 CAVOK 21/08 Q1020 NOSIG=
201104081130 METAR LMML NIL=
201104081115 METAR LMML 081115Z 29008KT 250V330 CAVOK 21/09 Q1020 NOSIG=
201104081100 METAR LMML NIL=
201104081045 METAR LMML 081045Z 30008KT 260V330 CAVOK 21/10 Q1020 NOSIG=
201104081030 METAR LMML NIL=
201104081015 METAR LMML 081015Z 32007KT 270V340 CAVOK 21/09 Q1020 NOSIG=
201104080945 METAR LMML 080945Z 30007KT 270V010 CAVOK 21/10 Q1021 NOSIG=
201104080930 METAR LMML NIL=
201104080915 METAR LMML 080915Z 33006KT 280V360 CAVOK 21/10 Q1021 NOSIG=
201104080900 METAR LMML NIL=
201104080845 METAR LMML 080845Z 34007KT CAVOK 20/10 Q1021 NOSIG=
201104080830 METAR LMML NIL=
201104080815 METAR LMML 080815Z 33005KT 300V360 CAVOK 19/12 Q1021 NOSIG=
201104080800 METAR LMML NIL=
201104080745 METAR LMML 080745Z 32005KT 280V350 CAVOK 19/12 Q1020 NOSIG=
201104080730 METAR LMML NIL=
201104080715 METAR LMML 080715Z VRB02KT CAVOK 18/13 Q1020 NOSIG=
201104080700 METAR LMML NIL=
201104080645 METAR LMML 080645Z 23003KT CAVOK 17/12 Q1020 NOSIG=
201104080630 METAR LMML NIL=
201104080615 METAR LMML 080615Z VRB01KT CAVOK 16/12 Q1020 NOSIG RMK SMOKE
                        TO NORTH=
201104080545 METAR LMML 080545Z VRB01KT CAVOK 14/12 Q1020 NOSIG RMK SMOKE
                        TO NORTH=
201104080530 METAR LMML NIL=
201104080515 METAR LMML 080515Z VRB01KT CAVOK 12/11 Q1020 NOSIG=
201104080500 METAR LMML NIL=
201104080445 METAR LMML 080445Z VRB01KT CAVOK 12/11 Q1020 NOSIG=
201104080430 METAR LMML NIL=
201104080415 METAR LMML 080415Z 35004KT CAVOK 12/11 Q1020 NOSIG=
201104080400 METAR LMML NIL=
201104080345 METAR LMML 080345Z 29004KT 250V320 CAVOK 13/10 Q1020 NOSIG=
201104080315 METAR LMML 080315Z 28006KT 240V310 CAVOK 13/11 Q1020 NOSIG=
201104080300 METAR LMML NIL=
201104080245 METAR LMML 080245Z 26004KT 230V300 CAVOK 13/12 Q1020 NOSIG=
201104080230 METAR LMML NIL=
201104080215 METAR LMML 080215Z 23004KT 190V270 CAVOK 13/12 Q1020 NOSIG=
201104080200 METAR LMML NIL=
201104080145 METAR LMML 080145Z 22005KT 190V260 CAVOK 14/12 Q1020 NOSIG=
201104080130 METAR LMML NIL=
201104080115 METAR LMML 080115Z 22005KT 190V260 CAVOK 13/12 Q1020 NOSIG=
201104080100 METAR LMML NIL=
201104080045 METAR LMML 080045Z 21005KT 180V240 CAVOK 13/12 Q1020 NOSIG=
201104080030 METAR LMML NIL=
201104080015 METAR LMML 080015Z 20004KT 170V230 CAVOK 13/12 Q1021 NOSIG=
201104080000 METAR LMML NIL=
201104072345 METAR LMML 072345Z 21004KT CAVOK 13/12 Q1021 NOSIG=
201104072330 METAR LMML NIL=
201104072315 METAR LMML 072315Z 18004KT CAVOK 14/10 Q1021 NOSIG=
201104072300 METAR LMML NIL=
201104072245 METAR LMML 072245Z 18004KT CAVOK 13/08 Q1022 NOSIG=
201104072230 METAR LMML NIL=
201104072215 METAR LMML 072215Z 15003KT CAVOK 14/08 Q1022 NOSIG=
201104072200 METAR LMML NIL=
201104072145 METAR LMML 072145Z 15004KT 120V180 CAVOK 14/09 Q1022 NOSIG=
201104072130 METAR LMML NIL=
201104072115 METAR LMML 072115Z VRB02KT CAVOK 13/09 Q1022 NOSIG=
201104072100 METAR LMML NIL=
201104072045 METAR LMML 072045Z VRB01KT CAVOK 13/08 Q1022 NOSIG=
201104072030 METAR LMML NIL=
201104072015 METAR LMML 072015Z VRB02KT CAVOK 14/08 Q1022 NOSIG=
201104072000 METAR LMML NIL=
201104071945 METAR LMML 071945Z 07003KT CAVOK 15/09 Q1022 NOSIG=
201104071930 METAR LMML NIL=
201104071915 METAR LMML 071915Z 03003KT CAVOK 15/10 Q1022 NOSIG=
201104071900 METAR LMML NIL=
201104071845 METAR LMML 071845Z VRB02KT CAVOK 15/08 Q1022 NOSIG=
201104071830 METAR LMML NIL=
201104071815 METAR LMML 071815Z VRB02KT CAVOK 16/08 Q1022 NOSIG=
201104071800 METAR LMML NIL=
201104071745 METAR LMML 071745Z 33004KT 310V010 CAVOK 15/08 Q1022 NOSIG=
201104071730 METAR LMML NIL=
201104071715 METAR LMML 071715Z 32006KT CAVOK 16/07 Q1021 NOSIG=
201104071700 METAR LMML NIL=
201104071645 METAR LMML 071645Z 33008KT CAVOK 17/04 Q1021 NOSIG=
201104071630 METAR LMML NIL=
201104071615 METAR LMML 071615Z 35008KT CAVOK 18/04 Q1021 NOSIG=
201104071600 METAR LMML NIL=
201104071545 METAR LMML 071545Z 33006KT 310V010 9999 FEW030 19/05 Q1021
                        NOSIG=
201104071530 METAR LMML NIL=
201104071515 METAR LMML 071515Z 34007KT 320V030 9999 FEW030 19/07 Q1021
                        NOSIG=
201104071500 METAR LMML NIL=
201104071445 METAR LMML 071445Z 01006KT 9999 FEW030 20/05 Q1021 NOSIG=
201104071430 METAR LMML NIL=
201104071415 METAR LMML 071415Z 02007KT 340V050 CAVOK 21/06 Q1022 NOSIG=
201104071345 METAR LMML 071345Z 35007KT 310V020 9999 FEW030 20/05 Q1022
                        NOSIG=
201104071330 METAR LMML NIL=
201104071315 METAR LMML 071315Z 35008KT 310V030 CAVOK 20/05 Q1022 NOSIG=
201104071300 METAR LMML NIL=
201104071245 METAR LMML 071245Z 35008KT CAVOK 20/04 Q1022 NOSIG=
201104071230 METAR LMML NIL=
201104071215 METAR LMML 071215Z 34008KT 320V020 CAVOK 20/07 Q1022 NOSIG=
201104071200 METAR LMML NIL=
201104071145 METAR LMML 071145Z 35008KT 310V020 CAVOK 20/04 Q1022 NOSIG=
201104071130 METAR LMML NIL=
201104071115 METAR LMML 071115Z 35009KT CAVOK 20/05 Q1023 NOSIG=
201104071100 METAR LMML NIL=
201104071045 METAR LMML 071045Z 35010KT CAVOK 19/10 Q1023 NOSIG=
201104071030 METAR LMML NIL=
201104071015 METAR LMML 071015Z 35010KT 320V020 CAVOK 19/09 Q1023 NOSIG=
201104071000 METAR LMML NIL=
201104070945 METAR LMML 070945Z 35011KT 310V020 CAVOK 19/10 Q1023 NOSIG=
201104070930 METAR LMML NIL=
201104070915 METAR LMML 070915Z 34008KT 280V010 CAVOK 18/08 Q1023 NOSIG=
201104070900 METAR LMML NIL=
201104070845 METAR LMML 070845Z 33009KT CAVOK 18/10 Q1023 NOSIG=
201104070830 METAR LMML NIL=
201104070815 METAR LMML 070815Z 33011KT 300V360 CAVOK 17/07 Q1023 NOSIG=
201104070800 METAR LMML NIL=
201104070745 METAR LMML 070745Z 34012KT CAVOK 17/08 Q1023 NOSIG=
201104070730 METAR LMML NIL=
201104070715 METAR LMML 070715Z 34008KT 310V010 CAVOK 16/08 Q1023 NOSIG=
201104070700 METAR LMML NIL=
201104070645 METAR LMML 070645Z 32006KT 290V350 CAVOK 16/11 Q1022 NOSIG=
201104070630 METAR LMML NIL=
201104070615 METAR LMML 070615Z 31007KT CAVOK 15/12 Q1022 NOSIG=
201104070600 METAR LMML NIL=
201104070545 METAR LMML 070545Z 29006KT 260V320 CAVOK 13/11 Q1022 NOSIG=
201104070530 METAR LMML NIL=
201104070515 METAR LMML 070515Z 33005KT 270V350 CAVOK 12/09 Q1022 NOSIG=
201104070500 METAR LMML NIL=
201104070445 METAR LMML 070445Z 32004KT 9999 FEW040 12/08 Q1022 NOSIG=
201104070430 METAR LMML NIL=
201104070415 METAR LMML 070415Z 31004KT 9999 FEW040 12/08 Q1022 NOSIG=
201104070400 METAR LMML NIL=
201104070345 METAR LMML 070345Z 32003KT 9999 FEW030 12/08 Q1021 NOSIG=
201104070330 METAR LMML NIL=
201104070315 METAR LMML 070315Z VRB02KT 9999 FEW030 12/09 Q1021 NOSIG=
201104070300 METAR LMML NIL=
201104070245 METAR LMML 070245Z VRB01KT 9999 FEW030 13/09 Q1021 NOSIG=
201104070230 METAR LMML NIL=
201104070215 METAR LMML 070215Z VRB01KT 9999 FEW030 BKN050 13/09 Q1021
                        NOSIG=
201104070200 METAR LMML NIL=
201104070145 METAR LMML 070145Z VRB02KT 9999 FEW030 BKN050 13/10 Q1021
                        NOSIG=
201104070130 METAR LMML NIL=
201104070115 METAR LMML 070115Z VRB02KT 9999 FEW030 BKN050 15/10 Q1022
                        NOSIG=
201104070045 METAR LMML 070045Z VRB02KT 9999 FEW030 BKN050 14/11 Q1022
                        NOSIG=
201104070030 METAR LMML NIL=
201104070015 METAR LMML 070015Z VRB02KT 9999 FEW035 BKN050 14/11 Q1022
                        NOSIG=
201104070000 METAR LMML NIL=
201104062345 METAR LMML 062345Z 13003KT 9999 FEW035 BKN050 15/11 Q1022
                        NOSIG=
201104062315 METAR LMML 062315Z 13004KT 9999 FEW035 BKN050 15/11 Q1022
                        NOSIG=
201104062300 METAR LMML NIL=
201104062245 METAR LMML 062245Z 14004KT CAVOK 15/11 Q1022 NOSIG=
201104062230 METAR LMML NIL=
201104062215 METAR LMML 062215Z 14004KT CAVOK 15/11 Q1022 NOSIG=
201104062200 METAR LMML NIL=
201104062145 METAR LMML 062145Z 13003KT 9999 FEW030 BKN050 15/12 Q1022
                        NOSIG=
201104062115 METAR LMML 062115Z 14004KT 9999 FEW030 BKN050 15/11 Q1022
                        NOSIG=
201104062045 METAR LMML 062045Z 12004KT 080V140 9999 FEW030 BKN050 16/11
                        Q1022 NOSIG=
201104062030 METAR LMML NIL=
201104062015 METAR LMML 062015Z VRB01KT 9999 FEW034 BKN050 16/11 Q1021
                        NOSIG=
201104062000 METAR LMML NIL=
201104061945 METAR LMML 061945Z VRB01KT 9999 FEW034 BKN050 16/11 Q1021
                        NOSIG=
201104061930 METAR LMML NIL=
201104061915 METAR LMML 061915Z 31003KT 9999 FEW034 BKN070 16/12 Q1021
                        NOSIG=
201104061900 METAR LMML NIL=
201104061845 METAR LMML 061845Z 30004KT 9999 FEW034 BKN070 16/12 Q1021
                        NOSIG=
201104061830 METAR LMML NIL=
201104061815 METAR LMML 061815Z 32003KT 9999 FEW034 BKN070 16/11 Q1021
                        NOSIG=
201104061800 METAR LMML NIL=
201104061745 METAR LMML 061745Z 31005KT 280V340 9999 FEW034 BKN070 16/12
                        Q1021 NOSIG=
201104061730 METAR LMML NIL=
201104061715 METAR LMML 061715Z 31005KT 9999 FEW034 SCT070 16/11 Q1020
                        NOSIG=
201104061700 METAR LMML NIL=
201104061645 METAR LMML 061645Z 31006KT CAVOK 17/11 Q1020 NOSIG=
201104061630 METAR LMML NIL=
201104061615 METAR LMML 061615Z 30005KT 260V330 CAVOK 17/10 Q1020 NOSIG=
201104061600 METAR LMML NIL=
201104061545 METAR LMML 061545Z 02004KT 340V070 CAVOK 19/06 Q1020 NOSIG=
201104061530 METAR LMML NIL=
201104061515 METAR LMML 061515Z 36007KT 320V050 9999 FEW030 SCT060 18/06
                        Q1020 NOSIG=
201104061500 METAR LMML NIL=
201104061445 METAR LMML 061445Z 33006KT 300V010 9999 FEW034 19/07 Q1020
                        NOSIG=
201104061430 METAR LMML NIL=
201104061415 METAR LMML 061415Z 01005KT 330V050 9999 FEW034 19/08 Q1020
                        NOSIG=
201104061400 METAR LMML NIL=
201104061345 METAR LMML 061345Z 36008KT 330V060 9999 FEW034 19/10 Q1020
                        NOSIG=
201104061330 METAR LMML NIL=
201104061315 METAR LMML 061315Z 36007KT 320V050 9999 FEW035 19/10 Q1020
                        NOSIG=
201104061300 METAR LMML NIL=
201104061245 METAR LMML 061245Z 34006KT 290V020 9999 FEW025 19/11 Q1020
                        NOSIG=
201104061230 METAR LMML NIL=
201104061215 METAR LMML 061215Z 34007KT 270V040 9999 FEW026 SCT060 19/11
                        Q1020 NOSIG=
201104061200 METAR LMML NIL=
201104061145 METAR LMML 061145Z 35007KT 310V010 9999 FEW026 SCT049 18/12
                        Q1020 NOSIG=
201104061130 METAR LMML NIL=
201104061115 METAR LMML 061115Z 36005KT 330V040 9999 FEW025 SCT050 19/12
                        Q1020 NOSIG=
201104061100 METAR LMML NIL=
201104061045 METAR LMML 061045Z 36008KT 9999 FEW028 BKN046 18/10 Q1020
                        NOSIG=
201104061030 METAR LMML NIL=
201104061015 METAR LMML 061015Z 03007KT 360V080 9999 SCT022 SCT043 18/12
                        Q1020 NOSIG=
201104061000 METAR LMML NIL=
201104060945 METAR LMML 060945Z 02007KT 300V070 9999 SCT020 SCT040 18/12
                        Q1020 NOSIG=
201104060930 METAR LMML NIL=
201104060915 METAR LMML 060915Z 02007KT 340V050 9999 SCT021 SCT040 18/12
                        Q1019 NOSIG=
201104060900 METAR LMML NIL=
201104060845 METAR LMML 060845Z 05010KT 020V080 9999 BKN018 17/12 Q1020
                        NOSIG=
201104060830 METAR LMML NIL=
201104060815 METAR LMML 060815Z 06009KT 020V090 9999 BKN016 16/12 Q1019
                        NOSIG=
201104060800 METAR LMML NIL=
201104060745 METAR LMML 060745Z 04007KT 010V070 9999 FEW019 17/12 Q1019
                        NOSIG=
201104060730 METAR LMML NIL=
201104060715 METAR LMML 060715Z 03007KT 010V080 9999 FEW009 SCT012 16/13
                        Q1018 NOSIG=
201104060700 METAR LMML NIL=
201104060645 METAR LMML 060645Z 05009KT 020V090 9999 FEW009 15/13 Q1018
                        NOSIG=
201104060630 METAR LMML NIL=
201104060615 METAR LMML 060615Z 04012KT 360V080 9999 FEW012 SCT016 15/12
                        Q1018 NOSIG=
201104060600 METAR LMML NIL=
201104060545 METAR LMML 060545Z 36013KT 9999 FEW014 15/12 Q1018 NOSIG=
201104060530 METAR LMML NIL=
201104060515 METAR LMML 060515Z 34010KT 9999 FEW010 14/12 Q1018 NOSIG=
201104060500 METAR LMML NIL=
201104060445 METAR LMML 060445Z 33011KT 9999 FEW010 14/13 Q1017 NOSIG=
201104060430 METAR LMML NIL=
201104060415 METAR LMML 060415Z 32011KT 9999 FEW010 13/12 Q1017 NOSIG=
201104060400 METAR LMML NIL=
201104060345 METAR LMML 060345Z 32013KT 9999 FEW015 13/12 Q1017 NOSIG=
201104060330 METAR LMML NIL=
201104060315 METAR LMML 060315Z 32013KT 9999 FEW015 13/12 Q1016 NOSIG=
201104060300 METAR LMML NIL=
201104060245 METAR LMML 060245Z 31012KT 290V350 CAVOK 13/12 Q1016 TEMPO
                        9999 FEW015=
201104060230 METAR LMML NIL=
201104060215 METAR LMML 060215Z 31012KT CAVOK 13/12 Q1016 TEMPO 9999 FEW015=
201104060200 METAR LMML NIL=
201104060145 METAR LMML 060145Z 31011KT CAVOK 13/12 Q1017 TEMPO 9999 FEW015=
201104060130 METAR LMML NIL=
201104060115 METAR LMML 060115Z 30011KT 280V340 CAVOK 14/12 Q1017 TEMPO
                        9999 FEW015=
201104060100 METAR LMML NIL=
201104060045 METAR LMML 060045Z 30014KT CAVOK 14/12 Q1017 TEMPO 9999 FEW015=
201104060030 METAR LMML NIL=
201104060015 METAR LMML 060015Z 32014KT CAVOK 14/12 Q1017 NOSIG=
201104060000 METAR LMML NIL=
201104052345 METAR LMML 052345Z 30010KT CAVOK 14/12 Q1017 NOSIG=
201104052330 METAR LMML NIL=
201104052315 METAR LMML 052315Z 30010KT 270V330 CAVOK 14/12 Q1017 NOSIG=
201104052300 METAR LMML NIL=
201104052245 METAR LMML 052245Z 31011KT CAVOK 14/12 Q1017 NOSIG=
201104052230 METAR LMML NIL=
201104052215 METAR LMML 052215Z 32013KT CAVOK 14/12 Q1017 NOSIG=
201104052200 METAR LMML NIL=
201104052145 METAR LMML 052145Z 31015KT CAVOK 14/12 Q1017 NOSIG=
201104052130 METAR LMML NIL=
201104052115 METAR LMML 052115Z 31018KT CAVOK 14/12 Q1017 NOSIG=
201104052100 METAR LMML NIL=
201104052045 METAR LMML 052045Z 30014KT 270V330 CAVOK 15/13 Q1016 NOSIG=
201104052030 METAR LMML NIL=
201104052015 METAR LMML 052015Z 30019G30KT 260V320 CAVOK 15/12 Q1016 NOSIG=
201104052000 METAR LMML NIL=
201104051945 METAR LMML 051945Z 29014KT 260V320 CAVOK 15/13 Q1016 NOSIG=
201104051930 METAR LMML NIL=
201104051915 METAR LMML 051915Z 29017KT CAVOK 15/13 Q1016 NOSIG=
201104051900 METAR LMML NIL=
201104051845 METAR LMML 051845Z 29013KT 260V320 CAVOK 15/12 Q1016 NOSIG=
201104051830 METAR LMML NIL=
201104051815 METAR LMML 051815Z 30012KT 270V340 CAVOK 15/11 Q1016 NOSIG=
201104051800 METAR LMML NIL=
201104051745 METAR LMML 051745Z 30018KT CAVOK 16/11 Q1017 NOSIG=
201104051730 METAR LMML NIL=
201104051715 METAR LMML 051715Z 30015KT 260V330 CAVOK 16/11 Q1016 NOSIG=
201104051700 METAR LMML NIL=
201104051645 METAR LMML 051645Z 30015KT 270V330 CAVOK 17/12 Q1016 NOSIG=
201104051630 METAR LMML NIL=
201104051615 METAR LMML 051615Z 30016KT 270V340 CAVOK 17/13 Q1017 NOSIG=
201104051600 METAR LMML NIL=
201104051545 METAR LMML 051545Z 30017KT 260V320 CAVOK 18/13 Q1017 NOSIG=
201104051530 METAR LMML NIL=
201104051515 METAR LMML 051515Z 30015KT CAVOK 19/13 Q1017 NOSIG=
201104051500 METAR LMML NIL=
201104051445 METAR LMML 051445Z 29016KT 260V320 CAVOK 19/12 Q1017 NOSIG=
201104051430 METAR LMML NIL=
201104051415 METAR LMML 051415Z 29016KT CAVOK 20/12 Q1017 NOSIG=
201104051400 METAR LMML NIL=
201104051345 METAR LMML 051345Z 28014KT 250V310 CAVOK 20/13 Q1017 NOSIG=
201104051330 METAR LMML NIL=
201104051315 METAR LMML 051315Z 29013KT CAVOK 21/13 Q1017 NOSIG=
201104051300 METAR LMML NIL=
201104051245 METAR LMML 051245Z 30012KT 260V330 CAVOK 22/12 Q1018 NOSIG=
201104051215 METAR LMML 051215Z 29014KT 260V320 CAVOK 22/10 Q1018 NOSIG=
201104051200 METAR LMML NIL=
201104051145 METAR LMML 051145Z 29015KT 260V320 CAVOK 22/08 Q1018 NOSIG=
201104051130 METAR LMML NIL=
201104051115 METAR LMML 051115Z 29014KT 250V320 CAVOK 23/07 Q1019 NOSIG=
201104051100 METAR LMML NIL=
201104051045 METAR LMML 051045Z 29014KT CAVOK 23/05 Q1019 NOSIG=
201104051030 METAR LMML NIL=
201104051015 METAR LMML 051015Z 29016KT CAVOK 22/07 Q1019 NOSIG=
201104051000 METAR LMML NIL=
201104050945 METAR LMML 050945Z 29016KT 260V320 CAVOK 22/08 Q1019 NOSIG=
201104050930 METAR LMML NIL=
201104050915 METAR LMML 050915Z 29015KT 250V320 CAVOK 22/10 Q1019 NOSIG=
201104050845 METAR LMML 050845Z 28012KT 250V310 CAVOK 22/08 Q1019 NOSIG=
201104050830 METAR LMML NIL=
201104050815 METAR LMML 050815Z 29011KT 260V320 CAVOK 21/07 Q1019 NOSIG=
201104050745 METAR LMML 050745Z 28011KT 260V320 CAVOK 20/07 Q1019 NOSIG=
201104050730 METAR LMML NIL=
201104050715 METAR LMML 050715Z 28013KT CAVOK 19/08 Q1019 NOSIG=
201104050700 METAR LMML NIL=
201104050645 METAR LMML 050645Z 28014KT CAVOK 18/08 Q1018 NOSIG=
201104050630 METAR LMML NIL=
201104050615 METAR LMML 050615Z 29009KT 270V330 CAVOK 17/08 Q1018 NOSIG=
201104050545 METAR LMML 050545Z 29011KT CAVOK 16/07 Q1018 NOSIG=
201104050530 METAR LMML NIL=
201104050515 METAR LMML 050515Z 29009KT 260V320 CAVOK 16/06 Q1018 NOSIG=
201104050500 METAR LMML NIL=
201104050445 METAR LMML 050445Z 29008KT CAVOK 16/06 Q1018 NOSIG=
201104050430 METAR LMML NIL=
201104050415 METAR LMML 050415Z 29008KT 270V330 CAVOK 16/06 Q1018 NOSIG=
201104050345 METAR LMML 050345Z 30010KT 270V330 CAVOK 16/06 Q1018 NOSIG=
201104050330 METAR LMML NIL=
201104050315 METAR LMML 050315Z 30010KT CAVOK 16/06 Q1018 NOSIG=
201104050300 METAR LMML NIL=
201104050245 METAR LMML 050245Z 30007KT 260V010 CAVOK 16/06 Q1018 NOSIG=
201104050230 METAR LMML NIL=
201104050215 METAR LMML 050215Z 28007KT 240V310 CAVOK 16/06 Q1018 NOSIG=
201104050200 METAR LMML NIL=
201104050145 METAR LMML 050145Z 28005KT 240V310 CAVOK 16/05 Q1018 NOSIG=
201104050130 METAR LMML NIL=
201104050115 METAR LMML 050115Z 29006KT CAVOK 16/05 Q1018 NOSIG=
201104050100 METAR LMML NIL=
201104050045 METAR LMML 050045Z 29007KT 260V320 CAVOK 16/07 Q1018 NOSIG=
201104050030 METAR LMML NIL=
201104050015 METAR LMML 050015Z 28011KT CAVOK 16/08 Q1019 NOSIG=
201104050000 METAR LMML NIL=
201104042345 METAR LMML 042345Z 27010KT 240V300 CAVOK 16/06 Q1019 NOSIG=
201104042330 METAR LMML NIL=
201104042315 METAR LMML 042315Z 27010KT 240V300 CAVOK 16/07 Q1019 NOSIG=
201104042300 METAR LMML NIL=
201104042245 METAR LMML 042245Z 27011KT CAVOK 16/09 Q1019 NOSIG=
201104042230 METAR LMML NIL=
201104042215 METAR LMML 042215Z 27010KT 240V300 CAVOK 16/07 Q1019 NOSIG=
201104042200 METAR LMML NIL=
201104042145 METAR LMML 042145Z 27011KT CAVOK 16/08 Q1019 NOSIG=
201104042115 METAR LMML 042115Z 27009KT 230V300 CAVOK 16/08 Q1019 NOSIG=
201104042100 METAR LMML NIL=
201104042045 METAR LMML 042045Z 27009KT 230V300 CAVOK 16/08 Q1019 NOSIG=
201104042030 METAR LMML NIL=
201104042015 METAR LMML 042015Z 27008KT 230V300 CAVOK 16/08 Q1019 NOSIG=
201104042000 METAR LMML NIL=
201104041945 METAR LMML 041945Z 26008KT 230V290 CAVOK 16/08 Q1019 NOSIG=
201104041930 METAR LMML NIL=
201104041915 METAR LMML 041915Z 27008KT 250V310 CAVOK 16/07 Q1018 NOSIG=
201104041900 METAR LMML NIL=
201104041845 METAR LMML 041845Z 28009KT 260V320 CAVOK 16/06 Q1018 NOSIG=
201104041830 METAR LMML NIL=
201104041815 METAR LMML 041815Z 29008KT CAVOK 16/07 Q1018 NOSIG=
201104041800 METAR LMML NIL=
201104041745 METAR LMML 041745Z 29008KT CAVOK 17/07 Q1018 NOSIG=
201104041715 METAR LMML 041715Z 29011KT CAVOK 18/06 Q1018 NOSIG=
201104041700 METAR LMML NIL=
201104041645 METAR LMML 041645Z 29011KT CAVOK 19/04 Q1017 NOSIG=
201104041630 METAR LMML NIL=
201104041615 METAR LMML 041615Z 28010KT 250V310 CAVOK 20/04 Q1017 NOSIG=
201104041600 METAR LMML NIL=
201104041545 METAR LMML 041545Z 28011KT 260V320 CAVOK 21/03 Q1017 NOSIG=
201104041530 METAR LMML NIL=
201104041515 METAR LMML 041515Z 28009KT 240V310 CAVOK 21/02 Q1017 NOSIG=
201104041500 METAR LMML NIL=
201104041445 METAR LMML 041445Z 29010KT 260V320 CAVOK 22/02 Q1017 NOSIG=
201104041415 METAR LMML 041415Z 30012KT CAVOK 22/03 Q1018 NOSIG=
201104041400 METAR LMML NIL=
201104041345 METAR LMML 041345Z 30011KT 270V330 CAVOK 22/03 Q1018 NOSIG=
201104041330 METAR LMML NIL=
201104041315 METAR LMML 041315Z 30010KT 250V320 CAVOK 23/04 Q1018 NOSIG=
201104041300 METAR LMML NIL=
201104041245 METAR LMML 041245Z 30010KT 270V340 CAVOK 23/04 Q1018 NOSIG=
201104041215 METAR LMML 041215Z 31011KT 270V330 CAVOK 23/03 Q1018 NOSIG=
201104041200 METAR LMML NIL=
201104041145 METAR LMML 041145Z 30011KT 270V330 CAVOK 23/06 Q1018 NOSIG=
201104041130 METAR LMML NIL=
201104041115 METAR LMML 041115Z 30011KT CAVOK 22/06 Q1019 NOSIG=
201104041100 METAR LMML NIL=
201104041045 METAR LMML 041045Z 32011KT CAVOK 22/07 Q1019 NOSIG=
201104041030 METAR LMML NIL=
201104041015 METAR LMML 041015Z 33010KT CAVOK 22/09 Q1019 NOSIG=
201104041000 METAR LMML NIL=
201104040945 METAR LMML 040945Z 30009KT 270V330 CAVOK 22/07 Q1019 NOSIG=
201104040930 METAR LMML NIL=
201104040915 METAR LMML 040915Z 29008KT 270V330 CAVOK 21/08 Q1019 NOSIG=
201104040845 METAR LMML 040845Z 30009KT CAVOK 20/10 Q1019 NOSIG=
201104040830 METAR LMML NIL=
201104040815 METAR LMML 040815Z 30007KT 250V330 CAVOK 20/09 Q1018 NOSIG=
201104040800 METAR LMML NIL=
201104040745 METAR LMML 040745Z 31008KT CAVOK 19/09 Q1018 NOSIG=
201104040730 METAR LMML NIL=
201104040715 METAR LMML 040715Z 31006KT CAVOK 19/09 Q1018 NOSIG=
201104040645 METAR LMML 040645Z 32004KT CAVOK 18/09 Q1017 NOSIG=
201104040630 METAR LMML NIL=
201104040615 METAR LMML 040615Z 29005KT CAVOK 16/09 Q1017 NOSIG=
201104040600 METAR LMML NIL=
201104040545 METAR LMML 040545Z 30005KT CAVOK 14/10 Q1017 NOSIG=
201104040530 METAR LMML NIL=
201104040515 METAR LMML 040515Z 30005KT CAVOK 12/09 Q1017 NOSIG=
201104040500 METAR LMML NIL=
201104040445 METAR LMML 040445Z 30006KT CAVOK 12/09 Q1016 NOSIG=
201104040430 METAR LMML NIL=
201104040415 METAR LMML 040415Z 29005KT CAVOK 13/09 Q1016 NOSIG=
201104040400 METAR LMML NIL=
201104040345 METAR LMML 040345Z 29004KT CAVOK 14/08 Q1016 NOSIG=
201104040330 METAR LMML NIL=
201104040315 METAR LMML 040315Z 28005KT 240V310 CAVOK 14/09 Q1016 NOSIG=
201104040300 METAR LMML NIL=
201104040245 METAR LMML 040245Z 29006KT 260V320 CAVOK 14/08 Q1016 NOSIG=
201104040230 METAR LMML NIL=
201104040215 METAR LMML 040215Z 27004KT 240V310 CAVOK 14/08 Q1016 NOSIG=
201104040200 METAR LMML NIL=
201104040145 METAR LMML 040145Z 28007KT CAVOK 14/07 Q1016 NOSIG=
201104040130 METAR LMML NIL=
201104040115 METAR LMML 040115Z 29006KT CAVOK 14/06 Q1016 NOSIG=
201104040100 METAR LMML NIL=
201104040045 METAR LMML 040045Z 29006KT 250V310 CAVOK 14/05 Q1017 NOSIG=
201104040030 METAR LMML NIL=
201104040015 METAR LMML 040015Z 27004KT 230V320 CAVOK 14/05 Q1017 NOSIG=
201104040000 METAR LMML NIL=
201104032345 METAR LMML 032345Z 27004KT 230V330 CAVOK 14/05 Q1017 NOSIG=
201104032330 METAR LMML NIL=
201104032315 METAR LMML 032315Z 28007KT 250V310 CAVOK 15/05 Q1017 NOSIG=
201104032300 METAR LMML NIL=
201104032245 METAR LMML 032245Z 28009KT 240V300 CAVOK 15/05 Q1017 NOSIG=
201104032230 METAR LMML NIL=
201104032215 METAR LMML 032215Z 27006KT 240V310 CAVOK 14/07 Q1017 NOSIG=
201104032200 METAR LMML NIL=
201104032145 METAR LMML 032145Z 27005KT 240V300 CAVOK 14/06 Q1017 NOSIG=
201104032130 METAR LMML NIL=
201104032115 METAR LMML 032115Z 29005KT 250V310 CAVOK 14/05 Q1017 NOSIG=
201104032100 METAR LMML NIL=
201104032045 METAR LMML 032045Z 27003KT CAVOK 14/05 Q1017 NOSIG=
201104032030 METAR LMML NIL=
201104032015 METAR LMML 032015Z 29003KT CAVOK 15/05 Q1017 NOSIG=
201104032000 METAR LMML NIL=
201104031945 METAR LMML 031945Z VRB02KT CAVOK 15/04 Q1017 NOSIG=
201104031930 METAR LMML NIL=
201104031915 METAR LMML 031915Z 28003KT CAVOK 15/04 Q1017 NOSIG=
201104031900 METAR LMML NIL=
201104031845 METAR LMML 031845Z 28003KT CAVOK 15/07 Q1016 NOSIG=
201104031830 METAR LMML NIL=
201104031815 METAR LMML 031815Z 29007KT CAVOK 15/08 Q1016 NOSIG=
201104031800 METAR LMML NIL=
201104031745 METAR LMML 031745Z 29008KT CAVOK 16/08 Q1016 NOSIG=
201104031730 METAR LMML NIL=
201104031715 METAR LMML 031715Z 28007KT 240V310 CAVOK 17/07 Q1016 NOSIG=
201104031700 METAR LMML NIL=
201104031645 METAR LMML 031645Z 26006KT 230V300 CAVOK 18/10 Q1016 NOSIG=
201104031630 METAR LMML NIL=
201104031615 METAR LMML 031615Z 28007KT 230V300 CAVOK 19/09 Q1016 NOSIG=
201104031600 METAR LMML NIL=
201104031545 METAR LMML 031545Z 28008KT 250V310 CAVOK 20/04 Q1016 NOSIG=
201104031530 METAR LMML NIL=
201104031515 METAR LMML 031515Z 29007KT 260V320 CAVOK 21/05 Q1016 NOSIG=
201104031500 METAR LMML NIL=
201104031445 METAR LMML 031445Z 30008KT CAVOK 21/03 Q1016 NOSIG=
201104031430 METAR LMML NIL=
201104031415 METAR LMML 031415Z 30008KT 260V340 CAVOK 21/06 Q1016 NOSIG=
201104031400 METAR LMML NIL=
201104031345 METAR LMML 031345Z 30008KT 250V330 CAVOK 21/06 Q1016 NOSIG=
201104031315 METAR LMML 031315Z 30008KT 270V340 CAVOK 21/05 Q1016 NOSIG=
201104031300 METAR LMML NIL=
201104031245 METAR LMML 031245Z 31010KT 270V340 CAVOK 21/04 Q1016 NOSIG=
201104031230 METAR LMML NIL=
201104031215 METAR LMML 031215Z 28008KT 240V320 CAVOK 21/06 Q1017 NOSIG=
201104031145 METAR LMML 031145Z 29005KT 240V020 CAVOK 22/05 Q1017 NOSIG=
201104031130 METAR LMML NIL=
201104031115 METAR LMML 031115Z 28005KT 210V330 CAVOK 22/04 Q1017 NOSIG=
201104031100 METAR LMML NIL=
201104031045 METAR LMML 031045Z 28005KT 240V330 CAVOK 21/06 Q1017 NOSIG=
201104031030 METAR LMML NIL=
201104031015 METAR LMML 031015Z 23006KT 200V280 CAVOK 21/06 Q1017 NOSIG=
201104031000 METAR LMML NIL=
201104030945 METAR LMML 030945Z 23006KT 200V290 CAVOK 20/05 Q1018 NOSIG=
201104030930 METAR LMML NIL=
201104030915 METAR LMML 030915Z 24006KT 200V270 CAVOK 20/05 Q1018 NOSIG=
201104030845 METAR LMML 030845Z 23004KT 200V280 CAVOK 20/07 Q1018 NOSIG=
201104030830 METAR LMML NIL=
201104030815 METAR LMML 030815Z VRB02KT CAVOK 19/08 Q1017 NOSIG=
201104030800 METAR LMML NIL=
201104030745 METAR LMML 030745Z VRB02KT CAVOK 18/11 Q1017 NOSIG=
201104030730 METAR LMML NIL=
201104030715 METAR LMML 030715Z 31003KT CAVOK 16/14 Q1017 NOSIG=
201104030700 METAR LMML NIL=
201104030645 METAR LMML 030645Z 30003KT 9000 NSC 14/14 Q1017 BECMG CAVOK=
201104030615 METAR LMML 030615Z 28004KT 1100 R13/0913VP1500U BR FEW005
                        13/13 Q1017 BECMG CAVOK=
201104030600 METAR LMML NIL=
201104030545 METAR LMML 030545Z 30004KT 0200 R13/1100N FG FEW001 12/12
                        Q1017 BECMG CAVOK=
201104030530 METAR LMML NIL=
201104030515 METAR LMML 030515Z 32003KT 0600 R13/0150N FG FEW001 11/11
                        Q1017 BECMG CAVOK=
201104030445 METAR LMML 030445Z 33003KT 0500 R13/0190V0391N FG SCT001
                        11/11 Q1016 BECMG 7000 FEW003=
201104030437 SPECI LMML 030437Z 33004KT 0500 R13/0190V0304N FG BKN001
                        11/11 Q1016 BECMG 7000 FEW003=
201104030430 METAR LMML NIL=
201104030415 METAR LMML 030415Z 31004KT 2000 R13/0750N BR BKN001 11/11
                        Q1016 BECMG 7000 FEW003=
201104030400 METAR LMML NIL=
201104030345 METAR LMML 030345Z 32004KT 2000 R13/0419VP1500D SCT004 11/11
                        Q1016 NOSIG=
201104030315 METAR LMML 030315Z 31003KT 5000 FEW004 12/12 Q1016 NOSIG=
201104030245 METAR LMML 030245Z 33004KT 6000 FEW003 12/11 Q1016 NOSIG=
201104030230 METAR LMML NIL=
201104030215 METAR LMML 030215Z 32004KT 6000 FEW003 12/12 Q1016 NOSIG=
201104030200 METAR LMML NIL=
201104030145 METAR LMML 030145Z 30004KT 9999 FEW003 12/12 Q1017 NOSIG=
201104030130 METAR LMML NIL=
201104030115 METAR LMML 030115Z 30003KT 9999 FEW003 12/11 Q1017 NOSIG=
201104030100 METAR LMML NIL=
201104030045 METAR LMML 030045Z 32004KT CAVOK 12/11 Q1017 NOSIG=
201104030030 METAR LMML NIL=
201104030015 METAR LMML 030015Z 31006KT CAVOK 12/10 Q1017 NOSIG=
201104030000 METAR LMML NIL=
201104022345 METAR LMML 022345Z 28005KT 250V310 CAVOK 13/10 Q1017 NOSIG=
201104022315 METAR LMML 022315Z 29004KT 250V330 CAVOK 13/09 Q1018 NOSIG=
201104022245 METAR LMML 022245Z VRB02KT CAVOK 12/09 Q1018 NOSIG=
201104022215 METAR LMML 022215Z 33005KT 280V340 CAVOK 14/09 Q1018 NOSIG=
201104022200 METAR LMML NIL=
201104022145 METAR LMML 022145Z VRB02KT CAVOK 13/10 Q1018 NOSIG=
201104022130 METAR LMML NIL=
201104022115 METAR LMML 022115Z 17003KT CAVOK 13/10 Q1018 NOSIG=
201104022045 METAR LMML 022045Z 33006KT CAVOK 14/10 Q1018 NOSIG=
201104022030 METAR LMML NIL=
201104022015 METAR LMML 022015Z 31003KT CAVOK 13/10 Q1018 NOSIG=
201104022000 METAR LMML NIL=
201104021945 METAR LMML 021945Z 31004KT 280V350 CAVOK 14/11 Q1018 NOSIG=
201104021915 METAR LMML 021915Z 32004KT 280V350 CAVOK 14/11 Q1018 NOSIG=
201104021900 METAR LMML NIL=
201104021845 METAR LMML 021845Z 30004KT CAVOK 14/11 Q1018 NOSIG=
201104021830 METAR LMML NIL=
201104021815 METAR LMML 021815Z 30006KT CAVOK 14/12 Q1018 NOSIG=
201104021800 METAR LMML NIL=
201104021745 METAR LMML 021745Z 30005KT CAVOK 14/11 Q1018 NOSIG=
201104021715 METAR LMML 021715Z 32006KT CAVOK 15/11 Q1018 NOSIG=
201104021700 METAR LMML NIL=
201104021645 METAR LMML 021645Z 31005KT 280V350 CAVOK 16/11 Q1018 NOSIG=
201104021630 METAR LMML NIL=
201104021615 METAR LMML 021615Z 31006KT 290V360 CAVOK 17/11 Q1017 NOSIG=
201104021600 METAR LMML NIL=
201104021545 METAR LMML 021545Z 30007KT 270V340 CAVOK 18/11 Q1017 NOSIG=
201104021530 METAR LMML NIL=
201104021515 METAR LMML 021515Z 32009KT 290V350 CAVOK 18/11 Q1017 NOSIG=
201104021500 METAR LMML NIL=
201104021445 METAR LMML 021445Z 30010KT CAVOK 19/10 1017 NOSIG=
201104021430 METAR LMML NIL=
201104021415 METAR LMML 021415Z 33011KT 290V010 CAVOK 19/08 Q1017 NOSIG=
201104021400 METAR LMML NIL=
201104021345 METAR LMML 021345Z 33011KT 290V360 CAVOK 19/08 Q1017 NOSIG=
201104021330 METAR LMML NIL=
201104021315 METAR LMML 021315Z 34011KT 300V010 CAVOK 19/08 Q1018 NOSIG=
201104021300 METAR LMML NIL=
201104021245 METAR LMML 021245Z 34012KT CAVOK 20/08 Q1018 NOSIG=
201104021230 METAR LMML NIL=
201104021215 METAR LMML 021215Z 34014KT CAVOK 20/07 Q1018 NOSIG=
201104021200 METAR LMML NIL=
201104021145 METAR LMML 021145Z 33013KT 290V360 CAVOK 19/07 Q1018 NOSIG=
201104021130 METAR LMML NIL=
201104021115 METAR LMML 021115Z 34012KT 300V010 CAVOK 20/08 Q1019 NOSIG=
201104021100 METAR LMML NIL=
201104021045 METAR LMML 021045Z 33014KT CAVOK 19/07 Q1019 NOSIG=
201104021030 METAR LMML NIL=
201104021015 METAR LMML 021015Z 31015KT CAVOK 19/09 Q1019 NOSIG=
201104021000 METAR LMML NIL=
201104020945 METAR LMML 020945Z 33015KT CAVOK 19/04 Q1019 NOSIG=
201104020930 METAR LMML NIL=
201104020915 METAR LMML 020915Z 33014KT CAVOK 18/04 Q1019 NOSIG=
201104020900 METAR LMML NIL=
201104020845 METAR LMML 020845Z 33011KT CAVOK 18/07 Q1019 NOSIG=
201104020830 METAR LMML NIL=
201104020815 METAR LMML 020815Z 33009KT 290V360 CAVOK 18/07 Q1019 NOSIG=
201104020800 METAR LMML NIL=
201104020745 METAR LMML 020745Z 31009KT CAVOK 17/08 Q1019 NOSIG=
201104020730 METAR LMML NIL=
201104020715 METAR LMML 020715Z 31010KT CAVOK 16/07 Q1018 NOSIG=
201104020700 METAR LMML NIL=
201104020645 METAR LMML 020645Z 30007KT 270V330 CAVOK 15/08 Q1018 NOSIG=
201104020630 METAR LMML NIL=
201104020615 METAR LMML 020615Z 33006KT 290V360 CAVOK 13/09 Q1018 NOSIG=
201104020600 METAR LMML NIL=
201104020545 METAR LMML 020545Z 32005KT CAVOK 12/08 Q1018 NOSIG=
201104020530 METAR LMML NIL=
201104020515 METAR LMML 020515Z 31007KT 9999 FEW040 11/07 Q1018 NOSIG=
201104020500 METAR LMML NIL=
201104020445 METAR LMML 020445Z 31006KT 9999 FEW040 11/09 Q1018 NOSIG=
201104020415 METAR LMML 020415Z 31005KT CAVOK 11/10 Q1018 NOSIG=
201104020400 METAR LMML NIL=
201104020345 METAR LMML 020345Z 32004KT CAVOK 11/10 Q1018 NOSIG=
201104020330 METAR LMML NIL=
201104020315 METAR LMML 020315Z 31005KT CAVOK 11/09 Q1018 NOSIG=
201104020300 METAR LMML NIL=
201104020245 METAR LMML 020245Z 29004KT CAVOK 11/09 Q1018 NOSIG=
201104020215 METAR LMML 020215Z 25003KT CAVOK 11/09 Q1018 NOSIG=
201104020145 METAR LMML 020145Z VRB02KT CAVOK 10/09 Q1018 NOSIG=
201104020130 METAR LMML NIL=
201104020115 METAR LMML 020115Z VRB02KT CAVOK 11/10 Q1018 NOSIG=
201104020100 METAR LMML NIL=
201104020045 METAR LMML 020045Z VRB02KT CAVOK 11/09 Q1019 NOSIG=
201104020030 METAR LMML NIL=
201104020015 METAR LMML 020015Z VRB01KT CAVOK 12/09 Q1019 NOSIG=
201104020000 METAR LMML NIL=
201104012345 METAR LMML 012345Z 28003KT CAVOK 13/09 Q1019 NOSIG=
201104012330 METAR LMML NIL=
201104012315 METAR LMML 012315Z 31005KT CAVOK 12/10 Q1019 NOSIG=
201104012300 METAR LMML NIL=
201104012245 METAR LMML 012245Z 30006KT CAVOK 13/10 Q1019 NOSIG=
201104012230 METAR LMML NIL=
201104012215 METAR LMML 012215Z 33004KT 300V020 CAVOK 13/11 Q1019 NOSIG=
201104012200 METAR LMML NIL=
201104012145 METAR LMML 012145Z VRB02KT CAVOK 13/12 Q1019 NOSIG=
201104012130 METAR LMML NIL=
201104012115 METAR LMML 012115Z 30007KT 270V330 CAVOK 14/12 Q1019 NOSIG=
201104012100 METAR LMML NIL=
201104012045 METAR LMML 012045Z 32007KT CAVOK 13/12 Q1020 NOSIG=
201104012030 METAR LMML NIL=
201104012015 METAR LMML 012015Z 30009KT CAVOK 14/12 Q1020 NOSIG=
201104012000 METAR LMML NIL=
201104011945 METAR LMML 011945Z 30009KT 270V330 CAVOK 14/12 Q1020 NOSIG=
201104011930 METAR LMML NIL=
201104011915 METAR LMML 011915Z 31011KT CAVOK 14/12 Q1020 NOSIG=
201104011900 METAR LMML NIL=
201104011845 METAR LMML 011845Z 30012KT CAVOK 14/12 Q1019 NOSIG=
201104011830 METAR LMML NIL=
201104011815 METAR LMML 011815Z 30011KT CAVOK 14/12 Q1019 NOSIG=
201104011800 METAR LMML NIL=
201104011745 METAR LMML 011745Z 30010KT CAVOK 15/12 Q1019 NOSIG=
201104011730 METAR LMML NIL=
201104011715 METAR LMML 011715Z 29009KT 260V320 CAVOK 16/11 Q1018 NOSIG=
201104011700 METAR LMML NIL=
201104011645 METAR LMML 011645Z 31010KT CAVOK 16/11 Q1018 NOSIG=
201104011630 METAR LMML NIL=
201104011615 METAR LMML 011615Z 31014KT CAVOK 17/12 Q1018 NOSIG=
201104011600 METAR LMML NIL=
201104011545 METAR LMML 011545Z 31015KT CAVOK 17/11 Q1018 NOSIG=
201104011515 METAR LMML 011515Z 31014KT 270V330 CAVOK 18/11 Q1018 NOSIG=
201104011500 METAR LMML NIL=
201104011445 METAR LMML 011445Z 31013KT CAVOK 18/11 Q1018 NOSIG=
201104011430 METAR LMML NIL=
201104011415 METAR LMML 011415Z 30014KT CAVOK 18/11 Q1018 NOSIG=
201104011400 METAR LMML NIL=
201104011345 METAR LMML 011345Z 31013KT CAVOK 18/11 Q1018 NOSIG=
201104011330 METAR LMML NIL=
201104011315 METAR LMML 011315Z 31012KT 270V340 9999 FEW030 19/08 Q1018
                        NOSIG=
201104011300 METAR LMML NIL=
201104011245 METAR LMML 011245Z 30011KT 260V340 9999 FEW030 19/08 Q1019
                        NOSIG=
201104011215 METAR LMML 011215Z 33010KT 290V030 CAVOK 19/08 Q1019 NOSIG=
201104011200 METAR LMML NIL=
201104011145 METAR LMML 011145Z 32009KT 290V010 CAVOK 19/08 Q1019 NOSIG=
201104011130 METAR LMML NIL=
201104011115 METAR LMML 011115Z 31011KT 270V340 CAVOK 18/09 Q1020 NOSIG=
201104011100 METAR LMML NIL=
201104011045 METAR LMML 011045Z 32011KT 290V360 CAVOK 18/10 Q1020 NOSIG=
201104011030 METAR LMML NIL=
201104011015 METAR LMML 011015Z 33011KT 300V360 CAVOK 18/09 Q1020 NOSIG=
201104011000 METAR LMML NIL=
201104010945 METAR LMML 010945Z 34012KT 300V360 CAVOK 17/09 Q1020 NOSIG=
201104010930 METAR LMML NIL=
201104010915 METAR LMML 010915Z 33011KT CAVOK 17/08 Q1020 NOSIG=
201104010900 METAR LMML NIL=
201104010845 METAR LMML 010845Z 33013KT CAVOK 17/09 Q1020 NOSIG=
201104010830 METAR LMML NIL=
201104010815 METAR LMML 010815Z 32015KT CAVOK 16/08 Q1020 NOSIG=
201104010800 METAR LMML NIL=
201104010745 METAR LMML 010745Z 32012KT CAVOK 16/09 Q1020 NOSIG=
201104010730 METAR LMML NIL=
201104010715 METAR LMML 010715Z 32012KT CAVOK 15/09 Q1020 NOSIG=
201104010700 METAR LMML NIL=
201104010645 METAR LMML 010645Z 33009KT CAVOK 15/09 Q1020 NOSIG=
201104010630 METAR LMML NIL=
201104010615 METAR LMML 010615Z 32006KT CAVOK 14/10 Q1019 NOSIG=
201104010600 METAR LMML NIL=
201104010545 METAR LMML 010545Z 31006KT 280V350 CAVOK 13/09 Q1019 NOSIG=
201104010530 METAR LMML NIL=
201104010515 METAR LMML 010515Z 31005KT CAVOK 11/09 Q1019 NOSIG=
201104010500 METAR LMML NIL=
201104010445 METAR LMML 010445Z 30004KT CAVOK 11/09 Q1019 NOSIG=
201104010430 METAR LMML NIL=
201104010415 METAR LMML 010415Z 29005KT 240V330 CAVOK 12/10 Q1019 NOSIG=
201104010400 METAR LMML NIL=
201104010345 METAR LMML 010345Z 33006KT CAVOK 12/10 Q1018 NOSIG=
201104010330 METAR LMML NIL=
201104010315 METAR LMML 010315Z 33007KT CAVOK 12/10 Q1018 NOSIG=
201104010300 METAR LMML NIL=
201104010245 METAR LMML 010245Z 31006KT CAVOK 12/10 Q1018 NOSIG=
201104010230 METAR LMML NIL=
201104010215 METAR LMML 010215Z 32007KT 290V350 CAVOK 12/10 Q1019 NOSIG=
201104010200 METAR LMML NIL=
201104010145 METAR LMML 010145Z 32008KT CAVOK 13/10 Q1019 NOSIG=
201104010130 METAR LMML NIL=
201104010115 METAR LMML 010115Z 33007KT CAVOK 12/10 Q1019 NOSIG=
201104010100 METAR LMML NIL=
201104010045 METAR LMML 010045Z 32007KT CAVOK 12/11 Q1019 NOSIG=
201104010030 METAR LMML NIL=
201104010015 METAR LMML 010015Z 31005KT CAVOK 12/11 Q1019 NOSIG=
201104010000 METAR LMML NIL=

###################################
#  short TAF from LMML
###################################
201105012300 TAF LMML 012300Z 0200/0209 VRB03KT CAVOK
                      PROB40 TEMPO 0202/0206 5000 BR BKN003
                      BECMG 0206/0209 15012KT=
201105012000 TAF LMML 012000Z 0121/0206 27006KT CAVOK
                      PROB40 TEMPO 0202/0206 5000 BR BKN003=
201105011700 TAF LMML 011700Z 0118/0203 27010KT CAVOK
                      PROB30 TEMPO 0121/0203 9000 SCT005=
201105011400 TAF LMML 011400Z 0115/0124 27015KT 9999 FEW020
                      TEMPO 0115/0117 27015G25KT
                      TEMPO 0121/0124 BKN014=
201105011100 TAF LMML 011100Z 0112/0121 28020G30KT 9999 FEW020
                      BECMG 0113/0116 28015KT
                      TEMPO 0118/0121 BKN015=
201105010800 TAF LMML 010800Z 0109/0118 28015KT 9999 FEW018=
201105010500 TAF COR LMML 010500Z 0106/0115 28016KT CAVOK
                      TEMPO 0106/0115 9999 FEW015
                      PROB40 TEMPO 0106/0109 9000 NSC=
201105010200 TAF LMML 010200Z 0103/0112 27014KT CAVOK
                      PROB40 TEMPO 0103/0108 8000 NSC
                      TEMPO 0103/0112 9999 FEW015=
201104302300 TAF LMML 302300Z 0100/0109 27010KT CAVOK
                      PROB40 TEMPO 0100/0109 9000 FEW015=
201104302000 TAF LMML 302000Z 3021/0106 18010KT 9000 NSC
                      BECMG 3021/3024 2712KT CAV0K
                      PROB40 TEMPO 0100/0106 9999 FEW015=
201104301700 TAF LMML 301700Z 3018/0103 18013KT 8000 DU
                      BECMG 0100/0103 24009KT BKN005=
201104301400 TAF LMML 301400Z 3015/3024 18015KT 8000 DU
                      BECMG 3021/3024 24007KT 9999 SCT005=
201104301100 TAF LMML 301100Z 3012/3021 18015KT 9000 DU=
201104300800 TAF COR LMML 300800Z 3009/3018 18016KT 9000 NSC
                      TEMPO 3009/3014 8000 RA FEW008 BKN100
                      PROB30 TEMPO 3009/3011 TSRA SCT008 BKN060CB=
201104300500 TAF LMML 300500Z 3006/3015 14018KT 9999 FEW015 BKN100
                      TEMPO 3006/3012 15020G30KT 8000 RA BKN013
                       BKN080
                      PROB30 TEMPO 3006/3012 16025G35KT 5000 TSRA
                       BKN010 BKN060CB=
201104300200 TAF LMML 300200Z 3003/3012 14017KT 9999 FEW015 SCT120
                      TEMPO 3003/3012 15018G28KT 8000 RA BKN013
                       BKN100
                      PROB30 TEMPO 3003/3009 16025G35KT 5000 TSRA
                       BKN010 BKN060CB=
201104292300 TAF LMML 292300Z 3000/3009 14015KT CAVOK
                      TEMPO 3000/3009 9999 FEW012
                      PROB30 TEMPO 3000/3003 15015G25KT 8000 BKN010
                       BECMG 3003/3006 16025KT
                      TEMPO 3003/3009 8000 RA SCT010 BKN080
                      PROB30 TEMPO 3003/3009 16025G35KT 5000 TSRA
                       BKN010 BKN060CB=
201104292000 TAF LMML 292000Z 2921/3006 14013KT 9999 FEW015
                      TEMPO 2921/3006 9000 NSC
                      PROB30 TEMPO 2921/3003 5000 BR BKN005
                      BECMG 3003/3006 16023KT
                      PROB30 TEMPO 3003/3006 16023G33KT 5000 TSRA
                       BKN005 BKN060CB=
201104291700 TAF LMML 291700Z 2918/3003 13015KT CAVOK
                      PROB30 TEMPO 3000/3003 9999 FEW015=
201104291400 TAF LMML 291400Z 2915/2924 13010KT CAVOK
                      PROB40 TEMPO 2912/2915 9999 FEW015=
201104291100 TAF LMML 291100Z 2912/2921 14010KT CAVOK
                      PROB40 TEMPO 2909/2915 9999 FEW015=
201104290800 TAF LMML 290800Z 2909/2918 VRB05KT CAVOK
                      PROB40 TEMPO 2909/2915 9999 FEW020
                      BECMG 2913/2916 12010KT=
201104290500 TAF LMML 290500Z 2906/2915 28006KT CAVOK
                      TEMPO 2906/2915 9999 FEW015
                      BECMG 2912/2915 15012KT=
201104290200 TAF LMML 290200Z 2903/2912 25005KT 7000 NSC
                      PROB40 TEMPO 2903/2906 5000 BR BKN005=
201104282300 TAF LMML 282300Z 2900/2909 VRB03KT 9000 NSC
                      PROB40 TEMPO 2900/2906 5000 BR BKN005=
201104282000 TAF LMML 282000Z 2821/2906 VRB03KT 9000 FEW013
                      PROB40 TEMPO 2900/2906 5000 BR BKN005=
201104281700 TAF LMML 281700Z 2818/2903 28008KT 9999 FEW015
                      TEMPO 2818/2903 CAVOK
                      PROB30 TEMPO 2821/2903 9000=
201104281400 TAF LMML 281400Z 2815/2824 29015KT 9999 FEW020
                      PROB30 TEMPO 2815/2817 28015G25KT
                      TEMPO 2817/2824 CAVOK
                      BECMG 2820/2823 28005KT=
201104281100 TAF LMML 281100Z 2812/2821 30015KT 9999 SCT020
                      PROB30 TEMPO 2812/2818 30015G25KT=
201104280800 TAF LMML 280800Z 2809/2818 30014KT 9999 SCT015 SCT050=
201104280500 TAF LMML 280500Z 2806/2815 30010KT 9999 FEW015 SCT040=
201104280200 TAF LMML 280200Z 2803/2812 30010KT 9999 FEW012 SCT040
                      PROB40 TEMPO 2803/2808 9000 SHRA BKN012
                      PROB30 TEMPO 2803/2805 6000 BKN008=
201104272300 TAF LMML 272300Z 2800/2809 30005KT 9999 SCT012 BKN040
                      PROB40 TEMPO 2800/2808 9000 SHRA BKN012
                      PROB30 TEMPO 2800/2805 6000 BKN008=
201104272000 TAF LMML 272000Z 2721/2806 30005KT 9999 SCT012
                      PROB40 TEMPO 2721/2806 9000 SHRA BKN012
                      PROB30 TEMPO 2721/2806 BKN008=
201104271700 TAF LMML 271700Z 2718/2803 31005KT 9999 SCT012 BKN080
                      TEMPO 2718/2803 5000 SHRA SCT008 BKN015TCU
                       PROB30
                      TEMPO 2721/2803 3000 TSRA BKN005 BKN015CB=
201104271455 TAF COR LMML 271455Z 2715/2724 30013KT 9999 SCT015 BKN022
                      PROB40 TEMPO 2718/2724 5000 TSRA BKN006 BKN015CB=
201104271450 TAF COR LMML 271450Z 2715/2724 30013KT 9999 SCT015 BKN022
                      PROB40 TEMPO 2718/2724 5000 TSRA BKN006 BKN015CB=
201104271400 TAF LMML 271400Z 2715/2724 30013KT 9999 SCT015 BKN022
                      PROB49 TEMPO 2718/2724 5000 TSRA BKN006 BKN015CB=
201104271100 TAF LMML 271100Z 2712/2721 30016KT 9999 SCT015 BKN080
                      PROB40 TEMPO 2712/2721 5000 SHRA SCT008 BKN015TCU=
201104270800 TAF LMML 270800Z 2709/2718 30015KT 9999 SCT010 SCT018 BKN080
                      TEMPO 2709/2718 5000 RA BKN008 BKN015TCU=
201104270500 TAF LMML 270500Z 2706/2715 30014KT 9999 BKN008 BKN012
                      TEMPO 2706/2715 5000 SHRA BKN005 BKN015TCU
                       PROB30
                      TEMPO 2706/2715 2000 TSRA BKN015CB=
201104270200 TAF LMML 270200Z 2703/2712 31013KT 9999 BKN004 BKN010
                      TEMPO 2703/2712 5000 SHRA BKN003
                      PROB40 TEMPO 2703/2712 2000 TSRA BKN015CB=
201104262300 TAF LMML 262300Z 2700/2709 31013KT 9999 BKN004 BKN010
                      TEMPO 2700/2709 5000 RA BKN003
                      PROB40 TEMPO 2700/2709 2000 TSRA BKN015CB=
201104262000 TAF LMML 262000Z 2621/2706 30010KT 8000 SCT003 BKN008
                      TEMPO 2621/2706 3000 RA BKN003
                      PROB40 TEMPO 2621/2706 1000 TSRA BKN020CB=
201104261700 TAF LMML 261700Z 2618/2703 08010KT 8000 SCT005 SCT013 BKN080
                      TEMPO 2618/2703 3000 RA BKN004 BKN012
                      PROB30 TEMPO 2621/2703 TSRA BKN020CB
                      BECMG 2618/2621 31010KT=
201104261400 TAF LMML 261400Z 2615/2624 24005KT 9999 SCT020 BKN100
                      TEMPO 2618/2624 7000 RA BKN010=
201104261100 TAF LMML 261100Z 2612/2621 09005KT 6000 RA SCT005 BKN100
                      TEMPO 2612/2621 4000 BKN005
                      PROB30 TEMPO 2612/2621 TSRA BKN020CB=
201104260800 TAF LMML 260800Z 2609/2618 08005KT 6000 RA SCT005 SCT012 BKN100
                       TEMPO 2609/2618 4000 BKN005 BKN010
                      PROB30 TEMPO 2609/2615 TSRA BKN020CB=
201104260500 TAF LMML 260500Z 2606/2615 10010KT 5000 BR BKN005
                      BECMG 2606/2609 9999 SCT012 SCT080
                      TEMPO 2606/2615 8000 RA BKN012 BKN070
                      PROB30 2606/2615 5000 TSRA BKN010 BKN060CB
                       BECMG 2612/2615 19006KT=
201104260200 TAF LMML 260200Z 2603/2612 10008KT 5000 BR BKN005
                      TEMPO 2603/2606 3000 BR BKN003
                      PROB30 TEMPO 2603/2606 0100 FG BKN001
                      BECMG 2606/2609 9999 SCT013 BKN060
                      TEMPO 2606/2612 8000 RA BKN012 BKN050
                      PROB40 TEMPO 2606/2612 3000 TSRA BKN010 BKN050CB
                       BECMG 2609/2612 20010KT=
201104252300 TAF LMML 252300Z 2600/2609 10012KT 7000 SCT010
                      TEMPO 2600/2606 5000 BR BKN005
                      PROB40 TEMPO 2600/2606 0100 FG BKN001
                      PROB30 TEMPO 2600/2609 3000 TSRA BKN005 BKN060CB
                       BECMG 2605/2608 16006KT 9999=
201104252000 TAF LMML 252000Z 2521/2606 10010KT 8000 FEW010
                      TEMPO 2521/2606 5000 BR BKN005
                      PROB40 TEMPO 2522/2606 0100 FG BKN001
                      PROB30 TEMPO 2523/2606 3000 TSRA BKN005 BKN060CB=
201104251700 TAF LMML 251700Z 2518/2603 10018KT 9999 FEW011
                      TEMPO 2518/2603 7000
                      PROB40 TEMPO 2521/2603 5000 BR BKN003
                      BECMG 2522/2601 10008KT
                      PROB30 TEMPO 2522/2603 TSRA BKN050CB=
201104251400 TAF LMML 251400Z 2515/2524 11015KT CAVOK
                      TEMPO 2515/2524 9999 FEW012
                      PROB40 TEMPO 2518/2524 8000 BKN008
                      PROB30 TEMPO 2521/2524 TSRA BKN005 BKN060CB=
201104251100 TAF LMML 251100Z 2512/2521 11018KT CAVOK
                      PROB40 TEMPO 2512/2515 9000 NSC
                      PROB30 TEMPO 2512/2515 11018G28KT
                      TEMPO 2515/2521 9999 FEW012
                      PROB30 TEMPO 2518/2521 BKN008=
201104250800 TAF LMML 250800Z 2509/2518 11022G32KT CAVOK
                      BECMG 2515/2518 10018KT
                      PROB30 TEMPO 2515/2518 9999 FEW012=
201104250500 TAF LMML 250500Z 2506/2515 10022G33KT 9999 FEW015
                      BECMG 2509/2512 11018KT=
201104250200 TAF LMML 250200Z 2503/2512 10023G33KT 9999 SCT015 SCT120
                      PROB30 TEMPO 2503/2506 7000 RA BKN012=
201104242300 TAF LMML 242300Z 2500/2509 10020G32KT 9999 SCT015 BKN120
                      PROB30 TEMPO 2500/2506 6000 TSRA BKN050CB=
201104242000 TAF LMML 242000Z 2421/2506 09015KT 9999 SCT015 BKN100
                      PROB30 TEMPO 2421/2506 6000 TSRA BKN050CB
                       BECMG 2501/2504 08025G35KT=
201104241700 TAF LMML 241700Z 2418/2503 10020KT 9999 FEW015
                      TEMPO 2418/2503 10022G32KT
                      PROB30 TEMPO 2421/2503 9000 BKN012=
201104241400 TAF LMML 241400Z 2415/2424 10018KT CAVOK
                      TEMPO 2415/2424 10020G30KT 9999 FEW015
                      PROB30 TEMPO 2421/2424 9000 BKN012=
201104241100 TAF LMML 241100Z 2412/2421 10018KT 9999 FEW015
                      TEMPO 2412/2421 10020G30KT=
201104240800 TAF LMML 240800Z 2409/2418 10017KT 9999 FEW015=
201104240500 TAF LMML 240500Z 2406/2415 11015KT 9999 BKN009
                      BECMG 2407/2410 FEW018=
201104240200 TAF LMML 240200Z 2403/2412 11015KT 9999 BKN010
                      TEMPO 2408/2412 BKN015=
201104232300 TAF LMML 232300Z 2400/2409 11013KT 9999 FEW015
                      PROB30 TEMPO 2403/2407 BKN015=
201104232000 TAF LMML 232000Z 2321/2406 11010KT 9999 FEW018
                      PROB30 TEMPO 2400/2406 BKN013=
201104231700 TAF LMML 231700Z 2318/2403 11013KT 9999 FEW016
                      PROB30 TEMPO 2320/2403 BKN012=
201104231400 TAF LMML 231400Z 2315/2324 12014KT 9999 FEW018 SCT200
                      TEMPO 2318/2324 BKN013=
201104231100 TAF LMML 231100Z 2312/2321 12012KT 9999 SCT015
                      TEMPO 2318/2321 BKN013=
201104230800 TAF LMML 230800Z 2309/2318 12012KT 9999 SCT013 BKN080
                      TEMPO 2309/2318 9000 BKN013=
201104230500 TAF LMML 230500Z 2306/2315 12012KT 9999 FEW015=
201104230200 TAF LMML 230200Z 2303/2312 11014KT 9999 FEW015
                      PROB40 TEMPO 2303/2309 BKN015=
201104222300 TAF LMML 222300Z 2300/2309 12013KT 9999 FEW013
                      PROB40 TEMPO 2300/2309 BKN013=
201104222000 TAF LMML 222000Z 2221/2306 12012KT 9999 FEW011
                      TEMPO 2221/2306 BKN013
                      PROB30 TEMPO 2221/2306 9000 BKN009=
201104221700 TAF LMML 221700Z 2218/2303 12010KT 9999 FEW015 SCT080
                      PROB30 TEMPO 2220/2303 BKN015=
201104221400 TAF LMML 221400Z 2215/2224 12012KT 9999 FEW030 SCT100=
201104221100 TAF LMML 221100Z 2212/2221 13013KT 9999 FEW030 SCT100=
201104220800 TAF LMML 220800Z 2209/2218 14013KT 9999 FEW020 SCT100 BKN150
                      TEMPO 2209/2215 8000 RA SCT015 BKN080=
201104220500 TAF LMML 220500Z 2206/2215 14013KT 9999 SCT020 BKN100
                      TEMPO 2206/2215 8000 RA BKN015 BKN080
                      PROB30 TEMPO 2206/2212 5000 TSRA BKN015 BKN060CB=
201104220200 TAF LMML 220200Z 2203/2212 14010KT 9999 FEW015 BKN120
                      TEMPO 2203/2212 8000 RA BKN015 BKN100
                      PROB30 TEMPO 2203/2212 5000 TSRA BKN010 BKN060CB=
201104212300 TAF LMML 212300Z 2200/2209 14010KT 9999 FEW015 BKN120
                      TEMPO 2200/2209 8000 RA BKN015 BKN100
                      PROB30 TEMPO 2200/2209 5000 TSRA BKN010 BKN060CB=
201104212000 TAF LMML 212000Z 2121/2206 14010KT 9999 SCT015 BKN120
                      TEMPO 2121/2206 8000 RA BKN015 BKN100
                      PROB30 TEMPO 2200/2206 5000 TSRA BKN010 BKN060CB=
201104211700 TAF LMML 211700Z 2118/2203 12010KT 9999 SCT017
                      PROB30 TEMPO 2121/2203 8000 BKN015=
201104211400 TAF LMML 211400Z 2115/2124 12010KT 9999 SCT019
                      PROB30 TEMPO 2121/2124 BKN015=
201104211100 TAF LMML 211100Z 2112/2121 12010KT 9999 SCT019=
201104210800 TAF LMML 210800Z 2109/2118 10010KT 9999 SCT018=
201104210500 TAF LMML 210500Z 2106/2115 04005KT 9999 FEW014 BKN250
                      BECMG 2106/2109 10010KT=
201104210200 TAF LMML 210200Z 2103/2112 04004KT 7000 NSC
                      TEMPO 2103/2106 5000 BR
                      PROB30 TEMPO 2103/2105 2000 MIFG
                      BECMG 2106/2107 9999 FEW016=
201104202300 TAF LMML 202300Z 2100/2109 VRB03KT 8000 NSC
                      TEMPO 2100/2106 5000 BR
                      PROB30 TEMPO 2102/2105 2000 MIFG
                      BECMG 2106/2107 9999 FEW016=
201104202000 TAF LMML 202000Z 2021/2106 09004KT CAVOK
                      TEMPO 2100/2106 8000 SCT012=
201104201700 TAF LMML 201700Z 2018/2103 10008KT CAVOK
                      TEMPO 2018/2103 9999 FEW015
                      PROB30 TEMPO 2021/2103 9999 SCT012=
201104201400 TAF LMML 201400Z 2015/2024 09012KT 9999 SCT020
                      PROB30 TEMPO 2018/2024 9000 BKN015=
201104201100 TAF LMML 201100Z 2012/2021 09012KT 9999 SCT020
                      PROB30 TEMPO 2018/2021 9000 BKN15=
201104200800 TAF LMML 200800Z 2009/2018 08010KT 9999 SCT020 SCT120
                      PROB30 TEMPO 2009/2012 9000 BKN015 BKN100=
201104200500 TAF LMML 200500Z 2006/2015 12006KT 9999 FEW018 SCT100=
201104200200 TAF LMML 200200Z 2003/2012 12004KT 9999 FEW018 SCT100
                      PROB30 TEMPO 2003/2006 8000 RA SCT015 BKN080=
201104192300 TAF LMML 192300Z 2000/2009 12004KT 9999 FEW018 SCT100
                      PROB30 TEMPO 2003/2006 8000 RA SCT015 BKN080=
201104192000 TAF LMML 192000Z 1921/2006 12004KT 9999 FEW018 SCT100=
201104191700 TAF LMML 191700Z 1918/2003 17005KT 9999 SCT020 SCT250=
201104191400 TAF LMML 191400Z 1915/1924 23006KT 9999 SCT023 SCT250=
201104191100 TAF LMML 191100Z 1912/1921 09008KT 9999 FEW023=
201104190800 TAF LMML 190800Z 1909/1918 28005KT 9999 FEW018 SCT250=
201104190500 TAF LMML 190500Z 1906/1915 VRB05KT 9999 FEW020=
201104190200 TAF LMML 190200Z 1903/1912 27004KT 9999 FEW020
                      TEMPO 1903/1907 CAVOK=
201104182300 TAF LMML 182300Z 1900/1909 27004KT CAVOK
                      TEMPO 1900/1909 9999 FEW020=
201104182000 TAF LMML 182000Z 1821/1906 29007KT 9999 FEW020
                      TEMPO 1821/1906 CAVOK=
201104181700 TAF LMML 181700Z 1818/1903 27005KT 9999 FEW020=
201104181400 TAF LMML 181400Z 1815/1824 30006KT 9999 FEW030=
201104181100 TAF LMML 181100Z 1812/1821 33008KT 9999 FEW030=
201104180800 TAF LMML 180800Z 1809/1818 33010KT 9999 FEW035=
201104180500 TAF LMML 180500Z 1806/1815 34012KT 9999 SCT025 SCT060
                      PROB30 TEMPO 1806/1810 8000 SHRA BKN015 BKN050
                       BECMG 1811/1814 28008KT CAVOK=
201104180200 TAF LMML 180200Z 1803/1812 30008KT 9999 SCT025
                      TEMPO 1803/1809 8000 SHRA BKN015TCU
                      PROB30 TEMPO 1803/1807 3000 TSRA BKN015CB=
201104172300 TAF LMML 172300Z 1800/1809 32008KT CAVOK
                      BECMG 1800/1802 9999 SCT020
                      TEMPO 1800/1809 8000 SHRA BKN015TCU
                      PROB30 TEMPO 1803/1807 5000 TSRA BKN015CB=
201104172000 TAF LMML 172000Z 1721/1806 31012KT CAVOK
                      BECMG 1721/1724 9999 SCT020
                      TEMPO 1800/1806 8000 SHRA BKN015TCU
                      PROB30 TEMPO 1803/1806 5000 TSRA BKN015CB=
201104171700 TAF LMML 171700Z 1718/1803 32012KT 9999 FEW020=
201104171400 TAF LMML 171400Z 1715/1724 31012KT 9999 FEW020=
201104171100 TAF LMML 171100Z 1712/1721 31012KT 9999 FEW020=
201104170800 TAF LMML 170800Z 1709/1718 31012KT 9999 SCT020=
201104170500 TAF LMML 170500Z 1706/1715 33013KT 9999 FEW018
                      TEMPO 1706/1709 BKN013=
201104170200 TAF LMML 170200Z 1703/1712 33010KT 9999 SCT020
                      PROB30 TEMPO 1703/1709 8000 SHRA BKN015TCU=
201104162300 TAF LMML 162300Z 1700/1709 32010KT 9999 FEW020 SCT030
                      PROB40 TEMPO 1700/1709 8000 SHRA BKN015TCU
                       PROB30
                      TEMPO 1700/1706 TSRA BKN015CB=
201104162000 TAF LMML 162000Z 1621/1706 32010KT 9999 FEW015
                      TEMPO 1621/1706 BKN015
                      PROB30 TEMPO 1700/1706 8000 SHRA BKN018TCU=
201104161700 TAF LMML 161700Z 1618/1703 28013KT 9999 FEW015
                      PROB30 TEMPO 1620/1703 BKN015
                      BECMG 1700/1703 34008KT=
201104161400 TAF LMML 161400Z 1615/1624 28013KT 9999 FEW020
                      PROB30 TEMPO 1617/1624 BKN015
                      PROB30 TEMPO 1620/1624 8000 SHRA=
201104161100 TAF LMML 161100Z 1612/1621 30012KT 9999 SCT020 SCT100
                      PROB30 TEMPO 1612/1614 8000 RA BKN015 BKN080
                       PROB40
                      TEMPO 1617/1621 BKN015=
201104160800 TAF LMML 160800Z 1609/1618 31012KT 9999 FEW012 SCT040 BKN100
                      TEMPO 1609/1614 8000 RA BKN010 BKN030 BKN080
                       PROB30
                      TEMPO 1609/1612 5000 TSRA BKN010 BKN020 BKN060CB=
201104160500 TAF LMML 160500Z 1606/1615 21008KT 9999 SCT008 BKN080
                      TEMPO 1606/1610 8000 RA SCT008 BKN080
                      PROB30 TEMPO 1606/1610 TSRA SCT008 BKN060CB
                       BECMG 1606/1609 30015KT=
201104160200 TAF LMML 160200Z 1603/1612 21008KT 9999 SCT007 BKN013 BKN100
                      TEMPO 1603/1612 8000 RA SCT008 BKN080
                      PROB30 TEMPO 1603/1610 TSRA SCT008 BKN060CB
                       BECMG 1603/1606 30010KT=
201104152300 TAF LMML 152300Z 1600/1609 21008KT 9999 SCT006 BKN013 BKN100
                      TEMPO 1600/1606 8000 RA BKN006
                      PROB30 TEMPO 1600/1606 TSRA BKN060CB
                      BECMG 1606/1609 30010KT=
201104152000 TAF LMML 152000Z 1521/1606 16009KT 9999 BKN015 BKN100
                      TEMPO 1521/1606 8000 RA BKN007
                      PROB30 TEMPO 1521/1606 TSRA BKN060CB=
201104151700 TAF LMML 151700Z 1518/1603 18010KT 9999 BKN012
                      TEMPO 1518/1603 BKN010
                      PROB30 TEMPO 1518/1603 8000 TSRA BKN060CB
                       BECMG 1600/1603 27010KT=
201104151400 TAF LMML 151400Z 1515/1524 17010KT 9999 SCT015
                      TEMPO 1515/1524 BKN012
                      PROB30 TEMPO 1515/1524 8000 TSRA BKN060CB=
201104151100 TAF LMML 151100Z 1512/1521 16015KT 9999 SCT015
                      PROB40 TEMPO 1512/1521 BKN014
                      PROB30 TEMPO 1512/1521 8000 TSRA BKN070CB=
201104150800 TAF LMML 150800Z 1509/1518 17015KT 9999 SCT015
                      PROB30 TEMPO 1509/1518 8000 TSRA BKN015 BKN070CB=
201104150500 TAF LMML 150500Z 1506/1515 16015KT 9999 SCT015
                      PROB30 TEMPO 1506/1508 BKN015
                      PROB30 TEMPO 1506/1512 8000 TSRA BKN070CB=
201104150200 TAF LMML 150200Z 1503/1512 16015KT 9999 SCT020
                      PROB40 TEMPO 1503/1507 BKN014
                      PROB30 TEMPO 1503/1512 8000 TSRA BKN050CB=
201104142300 TAF LMML 142300Z 1500/1509 16012KT 9999 BKN018
                      PROB40 TEMPO 1500/1507 BKN014
                      PROB30 TEMPO 1503/1509 8000 TSRA BKN050CB=
201104142000 TAF LMML 142000Z 1421/1506 16012KT 9999 SCT018
                      PROB30 TEMPO 1421/1506 BKN015
                      PROB30 TEMPO 1503/1506 9000 TSRA BKN050CB=
201104141700 TAF LMML 141700Z 1418/1503 16009KT 9999 SCT018
                      PROB30 TEMPO 1418/1503 BKN015=
201104141400 TAF LMML 141400Z 1415/1424 15009KT 9999 SCT018 BKN030
                      PROB30 TEMPO 1416/1424 BKN014=
201104141100 TAF LMML 141100Z 1412/1421 13009KT 9999 SCT016 BKN030
                      PROB30 TEMPO 1416/1421 BKN015=
201104140800 TAF LMML 140800Z 1409/1418 11008KT 9999 SCT015 BKN030=
201104140500 TAF LMML 140500Z 1406/1415 34007KT 9999 SCT018
                      TEMPO 1406/1415 BKN014
                      BECMG 1406/1409 08010KT=
201104140200 TAF LMML 140200Z 1403/1412 34012KT CAVOK
                      TEMPO 1403/1406 9999 FEW015
                      PROB30 TEMPO 1403/1406 9000 BKN010
                      BECMG 1403/1406 04008KT 9999 SCT015 PRO40
                       TEMPO 1406/1412 BKN015
                      BECMG 1409/1412 10010KT=
201104132300 TAF LMML 132300Z 1400/1409 31014KT 9999 FEW012
                      PROB30 TEMPO 1400/1409 9000 BKN010
                      BECMG 1403/1406 04008KT=
201104132000 TAF LMML 132000Z 1321/1406 31017KT CAVOK
                      TEMPO 1321/1324 32017G27KT 9999 FEW015
                      PROB30 TEMPO 1400/1406 9000 BKN010
                      BECMG 1403/1406 06008KT 9999 SCT015=
201104131700 TAF LMML 131700Z 1318/1403 30018KT 9999 SCT018
                      PROB30 TEMPO 1318/1321 30020G30KT=
201104131400 TAF LMML 131400Z 1315/1324 26020KT 9999 SCT020
                      PROB40 TEMPO 1315/1321 29022G32KT
                      BECMG 1315/1318 30022KT=
201104131100 TAF LMML 131100Z 1312/1321 29020KT 9999 SCT022
                      TEMPO 1312/1321 29022G35KT=
201104130800 TAF LMML 130800Z 1309/1318 27017KT 9999 SCT018
                      TEMPO 1309/1318 29020G30KT=
201104130500 TAF LMML 130500Z 1306/1315 27015KT 9999 SCT015
                      TEMPO 1306/1309 9000 BKN010
                      BECMG 1310/1313 27018G28KT=
201104130200 TAF LMML 130200Z 1303/1312 27012KT 9999 SCT008
                      TEMPO 1303/1309 9000 BKN008
                      PROB30 TEMPO 1303/1306 1000 BCFG BKN005
                      BECMG 1309/1312 27018G28KT=
201104122300 TAF LMML 122300Z 1300/1309 27010KT CAVOK
                      TEMPO 1300/1309 9999 SCT009
                      PROB40 TEMPO 1300/1309 9000 BKN006=
201104122000 TAF LMML 122000Z 1221/1306 27010KT CAVOK
                      PROB30 TEMPO 1300/1306 9000 SCT008
                      TEMPO 1303/1306 9999 FEW020=
201104121700 TAF LMML 121700Z 1218/1303 28008KT CAVOK
                      TEMPO 1218/1303 9999 FEW012
                      PROB30 TEMPO 1300/1303 5000 BR BKN005=
201104121400 TAF LMML 121400Z 1215/1224 24008KT CAVOK
                      PROB30 TEMPO 1215/1218 9999 FEW025=
201104121100 TAF LMML 121100Z 1212/1221 20008KT 9999 FEW020
                      PROB30 TEMPO 1212/1221 CAVOK
                      BECMG 1218/1221 26010KT=
201104120800 TAF LMML 120800Z 1209/1218 30007KT CAVOK
                      PROB30 TEMPO 1209/1218 9999 FEW040=
201104120500 TAF LMML 120500Z 1206/1215 VRB03KT CAVOK
                      PROB30 TEMPO 1206/1215 9999 FEW045
                      BECMG 27010KT=
201104120200 TAF LMML 120200Z 1203/1212 VRB03KT CAVOK
                      TEMPO 1203/1206 5000 BR
                      PROB30 TEMPO 1203/1206 3000 MIFG=
201104112300 TAF LMML 112300Z 1200/1209 08004KT CAVOK
                      TEMPO 1200/1206 5000 BR
                      PROB30 TEMPO 1203/1206 2000 MIFG=
201104112000 TAF LMML 112000Z 1121/1206 09004KT CAVOK
                      TEMPO 1200/1206 5000 BR
                      PROB30 TEMPO 1203/1206 2000 MIFG=
201104111700 TAF LMML 111700Z 1118/1203 08005KT CAVOK
                      PROB30 TEMPO 1123/1203 9000 FEW009=
201104111400 TAF LMML 111400Z 1115/1124 09010KT CAVOK=
201104111100 TAF LMML 111100Z 1112/1121 09010KT CAVOK
                      PROB30 TEMPO 1112/1115 09012G22KT=
201104110800 TAF LMML 110800Z 1109/1118 09010KT CAVOK
                      PROB40 TEMPO 1109/1112 9999 FEW010=
201104110500 TAF LMML 110500Z 1106/1115 06008KT 9999 SCT008 PROPB30
                      TEMPO 1106/1110 9000 BKN008=
201104110200 TAF LMML 110200Z 1103/1112 06008KT 9999 SCT006
                      TEMPO 1103/1107 7000 BKN003
                      TEMPO 1103/1105 1500 BCFG BKN002=
201104102300 TAF LMML 102300Z 1100/1109 05006KT 9999 SCT006
                      TEMPO 1100/1107 7000 BKN006
                      PROB40 TEMPO 1100/1106 4000 BR BKN005
                      PROB30 TEMPO 1100/1105 1500 BCFG BKN002=
201104102000 TAF LMML 102000Z 1021/1106 VRB05KT 9999 FEW006
                      PROB40 TEMPO 1023/1106 6000 BKN006
                      PROB30 TEMPO 1023/1106 3000 BR BKN003
                      BECMG 1103/1106 09010KT=
201104101700 TAF LMML 101700Z 1018/1103 VRB03KT CAVOK
                      TEMPO 1021/1103 6000 SCT005=
201104101400 TAF LMML 101400Z 1015/1024 VRB04KT CAVOK=
201104101100 TAF LMML 101100Z 1012/1021 30005KT CAVOK=
201104100800 TAF LMML 100800Z 1009/1018 30008KT CAVOK=
201104100500 TAF LMML 100500Z 1006/1015 31008KT CAVOK
                      PROB30 TEMPO 1009/1015 9999 FEW025=
201104100200 TAF LMML 100200Z 1003/1012 30007KT CAVOK
                      TEMPO 1003/1006 9999 FEW010
                      PROB30 TEMPO 1003/1006 5000 BR SCT005=
201104092300 TAF LMML 092300Z 1000/1009 31010KT CAVOK
                      TEMPO 1000/1006 9999 FEW010
                      PROB30 TEMPO 1000/1006 5000 BR SCT005=
201104092000 TAF LMML 092000Z 0921/1006 29015KT CAVOK
                      TEMPO 0921/1006 9999 FEW010
                      PROB30 TEMPO 1000/1006 5000 BR SCT005
                      BECMG 1003/1006 31005KT=
201104091700 TAF LMML 091700Z 0918/1003 30010KT CAVOK
                      TEMPO 0921/1003 9999 FEW010
                      PROB30 TEMPO 0923/1003 5000 BR BKN005=
201104091400 TAF LMML 091400Z 0915/0924 30015KT CAVOK
                      PROB30 TEMPO 0918/0924 9999 FEW020=
201104091100 TAF LMML 091100Z 0912/0921 30016KT CAVOK
                      PROB30 TEMPO 0918/0921 9999 FEW020=
201104090800 TAF LMML 090800Z 0909/0918 29016KT CAVOK=
201104090500 TAF LMML 090500Z 0906/0915 28016KT CAVOK=
201104090200 TAF LMML 090200Z 0903/0912 28015KT CAVOK=
201104082300 TAF LMML 082300Z 0900/0909 28013KT CAVOK=
201104082000 TAF LMML 082000Z 0821/0906 27013KT CAVOK=
201104081700 TAF LMML 081700Z 0818/0903 28010KT CAVOK
                      PROB30 TEMPO 0822/0903 9999 FEW012=
201104081400 TAF LMML 081400Z 0815/0824 30013KT CAVOK
                      PROB30 TEMPO 0815/0818 9999 FEW030=
201104081100 TAF LMML 081100Z 0812/0821 30012KT CAVOK
                      PROB30 TEMPO 0812/0818 9999 FEW030=
201104080800 TAF LMML 080800Z 0809/0818 30008KT CAVOK
                      PROB30 TEMPO 0809/0818 9999 FEW030=
201104080500 TAF LMML 080500Z 0806/0815 30010KT CAVOK
                      PROB30 TEMPO 0806/0815 9999 FEW040=
201104080200 TAF LMML 080200Z 0803/0812 23005KT CAVOK
                      PROB30 TEMPO 0803/0806 5000 BR
                      BECMG 0809/0812 30010KT=
201104072300 TAF LMML 072300Z 0800/0809 27005KT CAVOK
                      PROB30 TEMPO 0804/0806 6000 NSC=
201104072000 TAF LMML 072000Z 0721/0806 VRB03KT CAVOK
                      PROB30 TEMPO 0804/0806 6000 NSC=
201104071700 TAF LMML 071700Z 0718/0803 VRB03KT CAVOK
                      TEMPO 0718/0803 9999 FEW035=
201104071400 TAF LMML 071400Z 0715/0724 36008KT CAVOK
                      BECMG 0716/0719 VRB03KT=
201104071100 TAF LMML 071100Z 0712/0721 36008KT CAVOK
                      BECMG 0716/0719 VRB03KT=
201104070800 TAF LMML 070800Z 0709/0718 33010KT CAVOK
                      BECMG 0715/0718 06005KT=
201104070500 TAF LMML 070500Z 0706/0715 34008KT 9999 FEW030
                      TEMPO 0706/0715 CAVOK=
201104070200 TAF LMML 070200Z 0703/0712 34008KT 9999 FEW030
                      TEMPO 0703/0712 CAVOK=
201104062300 TAF LMML 062300Z 0700/0709 VRB05KT 9999 FEW030
                      PROB40 TEMPO 0700/0709 CAVOK
                      BECMG 0703/0706 34008KT=
201104062000 TAF LMML 062000Z 0621/0706 VRB05KT 9999 FEW030
                      PROB40 CAVOK
                      BECMG 0703/0706 34008KT=
201104061700 TAF LMML 061700Z 0618/0703 VRB03KT CAVOK
                      PROB30 TEMPO 0618/0703 SCT012 BKN070=
201104061400 TAF LMML 061400Z 0615/0624 36008KT 9999 SCT025
                      PROB30 TEMPO 0618/0624 BKN015=
201104061100 TAF LMML 061100Z 0612/0621 03010KT 9999 SCT020 BKN040
                      PROB30 TEMPO 0617/0621 BKN015=
201104060800 TAF LMML 060800Z 0609/0618 03010KT 9999 SCT015
                      TEMPO 0609/0618 BKN015=
201104060500 TAF LMML 060500Z 0606/0615 33015KT 9999 SCT015 SCT040
                      PROB30 TEMPO 0608/0613 8000 SHRA BKN015 BKN040
                       BECMG 0612/0615 03010KT=
201104060200 TAF LMML 060200Z 0603/0612 31013KT CAVOK
                      BECMG 0603/0606 9999 SCT015
                      PROB30 TEMPO 0603/0606 9000 BKN010
                      BECMG 0605/0608 01013KT=
201104052300 TAF LMML 052300Z 0600/0609 31014KT CAVOK
                      BECMG 0600/0603 9999 SCT015
                      PROB30 TEMPO 0600/0604 32015G25KT 9000 BKN010
                       BECMG 0604/0607 01013KT=
201104052000 TAF LMML 052000Z 0521/0606 29015KT CAVOK
                      BECMG 0521/0524 9999 SCT015
                      TEMPO 0521/0603 30015G25KT
                      PROB30 TEMPO 0522/0604 9000 BKN008
                      BECMG 0602/0605 35013KT=
201104051700 TAF LMML 051700Z 0518/0603 30015KT CAVOK
                      TEMPO 0521/0603 9999 SCT015=
201104051400 TAF LMML 051400Z 0515/0524 30015KT CAVOK
                      PROB40 TEMPO 0521/0524 9999 FEW015=
201104051100 TAF LMML 051100Z 0512/0521 30010KT CAVOK
                      TEMPO 1518/1521 9999 FEW020=
201104050800 TAF LMML 050800Z 0509/0518 28012KT CAVOK=
201104050500 TAF COR LMML 050500Z 0506/0515 28014KT CAVOK=
201104050200 TAF LMML 050200Z 0503/0512 27013KT CAVOK=
201104042300 TAF LMML 042300Z 0500/0509 27011KT CAVOK=
201104042000 TAF LMML 042000Z 0421/0506 27008KT CAVOK
                      PROB30 TEMPO 0502/0506 9000 NSC=
201104041700 TAF LMML 041700Z 0418/0503 28008KT CAVOK
                      PROB30 TEMPO 0500/0503 9000 NSC=
201104041400 TAF LMML 041400Z 0415/0424 30010KT CAVOK=
201104041100 TAF LMML 041100Z 0412/0421 31010KT CAVOK=
201104040800 TAF LMML 040800Z 0409/0418 29009KT CAVOK=
201104040500 TAF LMML 040500Z 0406/0415 28008KT CAVOK=
201104040200 TAF LMML 040200Z 0403/0412 28008KT CAVOK
                      PROB30 TEMPO 0403/0406 5000 BR
                      PROB30 TEMPO 0403/0405 MIFG=
201104032300 TAF LMML 032300Z 0400/0409 28006KT CAVOK
                      TEMPO 0403/0406 5000 BR
                      PROB30 TEMPO 0403/0405 0800 BCFG SCT003=
201104032000 TAF LMML 032000Z 0321/0406 28005KT CAVOK
                      TEMPO 0402/0406 5000 BR
                      PROB30 TEMPO 0403/0405 0800 BCFG SCT003=
201104031700 TAF LMML 031700Z 0318/0403 27005KT CAVOK
                      TEMPO 0400/0403 5000 BR FEW002
                      PROB30 TEMPO 0400/0403 0100 FG BKN001=
201104031400 TAF LMML 031400Z 0315/0324 27005KT CAVOK=
201104031100 TAF LMML 031100Z 0312/0321 27008KT CAVOK=
201104030800 TAF LMML 030800Z 0309/0318 28005KT CAVOK=
201104030500 TAF LMML 030500Z 0306/0315 30005KT CAVOK
                      TEMPO 0306/0309 8000 SCT005=
201104030200 TAF LMML 030200Z 0303/0312 30008KT 5000 BR SCT003
                      TEMPO 0303/0306 1500 BR BKN003
                      BECMG 0306/0309 CAVOK=
201104022300 TAF LMML 022300Z 0300/0309 30005KT CAVOK=
201104022000 TAF LMML 022000Z 0221/0306 30005KT CAVOK=
201104021700 TAF LMML 021700Z 0218/0303 30005KT CAVOK=
201104021400 TAF LMML 021400Z 0215/0224 31008KT CAVOK=
201104021100 TAF LMML 021100Z 0212/0221 31013KT CAVOK
                      PROB30 TEMPO 0212/0221 9999 FEW040=
201104020800 TAF LMML 020800Z 0209/0218 31010KT CAVOK
                      PROB40 TEMPO 0209/0218 9999 FEW035=
201104020500 TAF LMML 020500Z 0206/0215 33010KT CAVOK
                      PROB30 TEMPO 0206/0207 9000 FEW012=
201104020200 TAF LMML 020200Z 0203/0212 28006KT CAVOK
                      TEMPO 0203/0206 9000 NSC
                      PROB30 TEMPO 0203/0206 5000 BR SCT005=
201104012300 TAF LMML 012300Z 0200/0209 33008KT CAVOK
                      PROB30 TEMPO 0200/0206 9999 FEW012=
201104012000 TAF LMML 012000Z 0121/0206 33010KT CAVOK
                      PROB30 TEMPO 0200/0206 9999 FEW015=
201104011700 TAF LMML 011700Z 0118/0203 30010KT CAVOK=
201104011400 TAF LMML 011400Z 0115/0124 30010KT CAVOK=
201104011100 TAF LMML 011100Z 0112/0121 33012KT CAVOK=
201104010800 TAF LMML 010800Z 0109/0118 33012KT CAVOK=
201104010500 TAF LMML 010500Z 0106/0115 33012KT CAVOK
                      TEMPO 0107/0115 9999 FEW025=
201104010200 TAF LMML 010200Z 0103/0112 33010KT CAVOK
                      TEMPO 0103/0106 9999 FEW010
                      BECMG 0104/0108 9999 FEW020=

###################################
#  large TAF from LMML
###################################
201105012300 TAF LMML NIL=
201105011700 TAF LMML NIL=
201105011100 TAF LMML NIL=
201105010500 TAF LMML NIL=
201104302300 TAF LMML NIL=
201104301700 TAF LMML NIL=
201104301100 TAF LMML NIL=
201104300500 TAF LMML NIL=
201104292300 TAF LMML NIL=
201104291700 TAF LMML NIL=
201104291100 TAF LMML NIL=
201104290500 TAF LMML NIL=
201104282300 TAF LMML NIL=
201104281700 TAF LMML NIL=
201104281100 TAF LMML NIL=
201104280500 TAF LMML NIL=
201104272300 TAF LMML NIL=
201104271700 TAF LMML NIL=
201104271100 TAF LMML NIL=
201104270500 TAF LMML NIL=
201104262300 TAF LMML NIL=
201104261700 TAF LMML NIL=
201104261100 TAF LMML NIL=
201104260500 TAF LMML NIL=
201104252300 TAF LMML NIL=
201104251700 TAF LMML NIL=
201104251100 TAF LMML NIL=
201104250500 TAF LMML NIL=
201104242300 TAF LMML NIL=
201104241700 TAF LMML NIL=
201104241100 TAF LMML NIL=
201104240500 TAF LMML NIL=
201104232300 TAF LMML NIL=
201104231700 TAF LMML NIL=
201104231100 TAF LMML NIL=
201104230500 TAF LMML NIL=
201104222300 TAF LMML NIL=
201104221700 TAF LMML NIL=
201104221100 TAF LMML NIL=
201104220500 TAF LMML NIL=
201104212300 TAF LMML NIL=
201104211700 TAF LMML NIL=
201104211100 TAF LMML NIL=
201104210500 TAF LMML NIL=
201104202300 TAF LMML NIL=
201104201700 TAF LMML NIL=
201104201100 TAF LMML NIL=
201104200500 TAF LMML NIL=
201104192300 TAF LMML NIL=
201104191700 TAF LMML NIL=
201104191100 TAF LMML NIL=
201104190500 TAF LMML NIL=
201104182300 TAF LMML NIL=
201104181700 TAF LMML NIL=
201104181100 TAF LMML NIL=
201104180500 TAF LMML NIL=
201104172300 TAF LMML NIL=
201104171700 TAF LMML NIL=
201104171100 TAF LMML NIL=
201104170500 TAF LMML NIL=
201104162300 TAF LMML NIL=
201104161700 TAF LMML NIL=
201104161100 TAF LMML NIL=
201104160500 TAF LMML NIL=
201104152300 TAF LMML NIL=
201104151700 TAF LMML NIL=
201104151100 TAF LMML NIL=
201104150500 TAF LMML NIL=
201104142300 TAF LMML NIL=
201104141700 TAF LMML NIL=
201104141100 TAF LMML NIL=
201104140500 TAF LMML NIL=
201104132300 TAF LMML NIL=
201104131700 TAF LMML NIL=
201104131100 TAF LMML NIL=
201104130500 TAF LMML NIL=
201104122300 TAF LMML NIL=
201104121700 TAF LMML NIL=
201104121100 TAF LMML NIL=
201104120500 TAF LMML NIL=
201104112300 TAF LMML NIL=
201104111700 TAF LMML NIL=
201104111100 TAF LMML NIL=
201104110500 TAF LMML NIL=
201104102300 TAF LMML NIL=
201104101700 TAF LMML NIL=
201104101100 TAF LMML NIL=
201104100500 TAF LMML NIL=
201104092300 TAF LMML NIL=
201104091700 TAF LMML NIL=
201104091100 TAF LMML NIL=
201104090500 TAF LMML NIL=
201104082300 TAF LMML NIL=
201104081700 TAF LMML NIL=
201104081100 TAF LMML NIL=
201104080500 TAF LMML NIL=
201104072300 TAF LMML NIL=
201104071700 TAF LMML NIL=
201104071100 TAF LMML NIL=
201104070500 TAF LMML NIL=
201104062300 TAF LMML NIL=
201104061700 TAF LMML NIL=
201104061100 TAF LMML NIL=
201104060500 TAF LMML NIL=
201104052300 TAF LMML NIL=
201104051700 TAF LMML NIL=
201104051100 TAF LMML NIL=
201104050500 TAF LMML NIL=
201104042300 TAF LMML NIL=
201104041700 TAF LMML NIL=
201104041100 TAF LMML NIL=
201104040500 TAF LMML NIL=
201104032300 TAF LMML NIL=
201104031700 TAF LMML NIL=
201104031100 TAF LMML NIL=
201104030500 TAF LMML NIL=
201104022300 TAF LMML NIL=
201104021700 TAF LMML NIL=
201104021100 TAF LMML NIL=
201104020500 TAF LMML NIL=
201104012300 TAF LMML NIL=
201104011700 TAF LMML NIL=
201104011100 TAF LMML NIL=
201104010500 TAF LMML NIL=
