##########################################################
# Query made at 01/18/2013 16:07:33 UTC
# Time interval: from 04/01/2009 00:00  to 05/01/2009 23:59  UTC
##########################################################

##########################################################
# LMML, Luqa (Malta)
# WMO index: 16597
# Latitude 35-51N. Longitude 014-29E. Altitude 91 m.
##########################################################

###################################
#  METAR/SPECI from LMML
###################################
200904302345 METAR LMML 302345Z 28009KT 250V310 CAVOK 13/10 Q1015 NOSIG=
200904302330 METAR LMML NIL=
200904302315 METAR LMML 302315Z 30008KT CAVOK 14/10 Q1015 NOSIG=
200904302300 METAR LMML NIL=
200904302245 METAR LMML 302245Z 30009KT CAVOK 14/09 Q1015 NOSIG=
200904302230 METAR LMML NIL=
200904302215 METAR LMML 302215Z 29009KT CAVOK 14/10 Q1015 NOSIG=
200904302200 METAR LMML NIL=
200904302145 METAR LMML 302145Z 29008KT CAVOK 14/10 Q1015 NOSIG=
200904302130 METAR LMML NIL=
200904302115 METAR LMML 302115Z 28009KT CAVOK 14/11 Q1015 NOSIG=
200904302100 METAR LMML NIL=
200904302045 METAR LMML 302045Z 29011KT CAVOK 14/11 Q1015 NOSIG=
200904302030 METAR LMML NIL=
200904302015 METAR LMML 302015Z 29011KT CAVOK 14/10 Q1016 NOSIG=
200904302000 METAR LMML NIL=
200904301945 METAR LMML 301945Z 29014KT CAVOK 15/10 Q1015 NOSIG=
200904301930 METAR LMML NIL=
200904301915 METAR LMML 301915Z 29012KT CAVOK 15/10 Q1015 NOSIG=
200904301900 METAR LMML NIL=
200904301845 METAR LMML 301845Z 29014KT CAVOK 15/11 Q1015 NOSIG=
200904301830 METAR LMML NIL=
200904301815 METAR LMML 301815Z 29014KT 260V320 CAVOK 15/11 Q1014 NOSIG=
200904301800 METAR LMML NIL=
200904301745 METAR LMML 301745Z 29015KT 260V320 9999 FEW020 15/11 Q1014
                        NOSIG=
200904301730 METAR LMML NIL=
200904301715 METAR LMML 301715Z 31017KT 9999 FEW020 16/11 Q1014 NOSIG=
200904301700 METAR LMML NIL=
200904301645 METAR LMML 301645Z 30016KT 9999 FEW019 16/11 Q1014 NOSIG=
200904301630 METAR LMML NIL=
200904301615 METAR LMML 301615Z 30014KT 9999 FEW019 17/10 Q1014 NOSIG=
200904301600 METAR LMML NIL=
200904301545 METAR LMML 301545Z 30018KT 9999 FEW019 17/09 Q1014 NOSIG=
200904301530 METAR LMML NIL=
200904301515 LMML 301515Z 30016KT 260V340 9999 FEW019 18/10 Q1014 NOSIG=
200904301500 METAR LMML NIL=
200904301445 METAR LMML 301445Z 30018KT 9999 FEW019 18/10 Q1015 NOSIG=
200904301430 METAR LMML NIL=
200904301415 METAR LMML 301415Z 29015KT 260V320 9999 FEW019 19/11 Q1015
                        NOSIG=
200904301400 METAR LMML NIL=
200904301345 METAR LMML 301345Z 29015KT 250V320 9999 FEW019 19/12 Q1015
                        NOSIG=
200904301330 METAR LMML NIL=
200904301315 METAR LMML 301315Z 29015KT 250V310 9999 FEW019 19/12 Q1015
                        NOSIG=
200904301300 METAR LMML NIL=
200904301245 METAR LMML 301245Z 28014KT 250V320 9999 FEW019 18/13 Q1016
                        NOSIG=
200904301230 METAR LMML NIL=
200904301215 METAR LMML 301215Z 29014KT 260V330 9999 FEW025 19/12 Q1016
                        NOSIG=
200904301200 METAR LMML NIL=
200904301145 METAR LMML 301145Z 30015KT 260V330 9999 FEW025 19/12 Q1016
                        NOSIG=
200904301130 METAR LMML NIL=
200904301115 METAR LMML 301115Z 28015KT 250V310 9999 FEW025 19/11 Q1016
                        NOSIG=
200904301100 METAR LMML NIL=
200904301045 METAR LMML 301045Z 29016KT 260V320 9999 FEW025 19/12 Q1016
                        NOSIG=
200904301030 METAR LMML NIL=
200904301015 METAR LMML 301015Z 29016KT 260V330 9999 FEW024 19/11 Q1016
                        NOSIG=
200904301000 METAR LMML NIL=
200904300945 METAR LMML 300945Z 28014KT 9999 FEW020 19/12 Q1016 NOSIG=
200904300930 METAR LMML NIL=
200904300915 METAR LMML 300915Z 30014KT 270V360 9999 FEW020 18/12 Q1017
                        NOSIG=
200904300900 METAR LMML NIL=
200904300845 METAR LMML 300845Z 29013KT 250V320 9999 SCT020 18/12 Q1017
                        NOSIG=
200904300830 METAR LMML NIL=
200904300815 METAR LMML 300815Z 28016KT 9999 SCT018 17/11 Q1017 NOSIG=
200904300800 METAR LMML NIL=
200904300745 METAR LMML 300745Z 29013KT 260V330 9999 FEW018 17/12 Q1016
                        NOSIG=
200904300730 METAR LMML NIL=
200904300715 METAR LMML 300715Z 31016KT 270V330 9999 FEW017 17/12 Q1016
                        NOSIG=
200904300700 METAR LMML NIL=
200904300645 METAR LMML 300645Z 30015KT 9999 FEW015 16/12 Q1016 NOSIG=
200904300630 METAR LMML NIL=
200904300615 METAR LMML 300615Z 30011KT 9999 FEW014 15/13 Q1016 NOSIG=
200904300600 METAR LMML NIL=
200904300545 METAR LMML 300545Z 30009KT 270V330 9000 SCT014 15/13 Q1016
                        BECMG 9999=
200904300530 METAR LMML NIL=
200904300515 METAR LMML 300515Z 29012KT 9000 FEW013 14/13 Q1016 NOSIG=
200904300500 METAR LMML NIL=
200904300445 METAR LMML 300445Z 28009KT 250V310 9000 FEW012 13/12 Q1016
                        NOSIG=
200904300430 METAR LMML NIL=
200904300415 METAR LMML 300415Z 28009KT 9000 FEW012 13/12 Q1016 NOSIG=
200904300400 METAR LMML NIL=
200904300345 METAR LMML 300345Z 28008KT 250V310 9999 FEW015 13/12 Q1016
                        NOSIG=
200904300315 METAR LMML 300315Z 28006KT 240V310 CAVOK 13/12 Q1016 NOSIG=
200904300300 METAR LMML NIL=
200904300245 METAR LMML 300245Z 27006KT CAVOK 13/12 Q1016 NOSIG=
200904300230 METAR LMML NIL=
200904300215 METAR LMML 300215Z 27007KT 240V300 CAVOK 13/12 Q1016 NOSIG=
200904300200 METAR LMML NIL=
200904300145 METAR LMML 300145Z 27006KT 240V300 CAVOK 13/12 Q1016 NOSIG=
200904300130 METAR LMML NIL=
200904300115 METAR LMML 300115Z 28008KT 250V310 CAVOK 13/12 Q1016 NOSIG=
200904300100 METAR LMML NIL=
200904300045 METAR LMML 300045Z 28008KT 250V310 CAVOK 13/12 Q1016 NOSIG=
200904300030 METAR LMML NIL=
200904300015 METAR LMML 300015Z 27007KT 240V310 CAVOK 13/11 Q1017 NOSIG=
200904300000 METAR LMML NIL=
200904292345 METAR LMML 292345Z 29009KT CAVOK 13/11 Q1017 NOSIG=
200904292330 METAR LMML NIL=
200904292315 METAR LMML 292315Z 29008KT CAVOK 13/11 Q1017 NOSIG=
200904292300 METAR LMML NIL=
200904292245 METAR LMML 292245Z 28009KT CAVOK 14/12 Q1017 NOSIG=
200904292230 METAR LMML NIL=
200904292215 METAR LMML 292215Z 28007KT CAVOK 14/12 Q1017 NOSIG=
200904292200 METAR LMML NIL=
200904292145 METAR LMML 292145Z 28008KT 250V310 CAVOK 14/12 Q1017 NOSIG=
200904292130 METAR LMML NIL=
200904292115 METAR LMML 292115Z 29005KT CAVOK 14/12 Q1017 NOSIG=
200904292100 METAR LMML NIL=
200904292045 METAR LMML 292045Z 30005KT CAVOK 14/12 Q1017 NOSIG=
200904292030 METAR LMML NIL=
200904292015 METAR LMML 292015Z 30006KT 270V340 CAVOK 14/12 Q1017 NOSIG=
200904292000 METAR LMML NIL=
200904291945 METAR LMML 291945Z 29007KT 270V330 CAVOK 14/12 Q1017 NOSIG=
200904291930 METAR LMML NIL=
200904291915 METAR LMML 291915Z 29006KT 270V330 CAVOK 14/12 Q1017 NOSIG=
200904291900 METAR LMML NIL=
200904291845 METAR LMML 291845Z 30006KT 270V330 9999 FEW012 15/12 Q1017
                        NOSIG=
200904291830 METAR LMML NIL=
200904291815 METAR LMML 291815Z 30008KT 9999 FEW012 15/12 Q1017 NOSIG=
200904291800 METAR LMML NIL=
200904291745 METAR LMML 291745Z 30008KT 260V330 9999 FEW012 16/11 Q1016
                        NOSIG=
200904291715 METAR LMML 291715Z 30009KT CAVOK 17/11 Q1016 NOSIG=
200904291700 METAR LMML NIL=
200904291645 METAR LMML 291645Z 31007KT CAVOK 18/11 Q1016 NOSIG=
200904291630 METAR LMML NIL=
200904291615 METAR LMML 291615Z 32009KT 280V340 CAVOK 18/11 Q1016 NOSIG=
200904291600 METAR LMML NIL=
200904291545 METAR LMML 291545Z 30008KT 270V350 CAVOK 19/11 Q1016 NOSIG=
200904291515 METAR LMML 291515Z 31011KT 290V350 CAVOK 19/08 Q1016 NOSIG=
200904291500 METAR LMML NIL=
200904291445 METAR LMML 291445Z 28009KT 250V310 CAVOK 20/09 Q1016 NOSIG=
200904291430 METAR LMML NIL=
200904291415 METAR LMML 291415Z 29011KT CAVOK 20/09 Q1016 NOSIG=
200904291400 METAR LMML NIL=
200904291345 METAR LMML 291345Z 29011KT CAVOK 20/09 Q1016 NOSIG=
200904291330 METAR LMML NIL=
200904291315 METAR LMML 291315Z 28010KT 250V320 9999 FEW025 20/10 Q1017
                        NOSIG=
200904291300 METAR LMML NIL=
200904291245 METAR LMML 291245Z 30011KT 260V340 9999 FEW025 20/11 Q1017
                        NOSIG=
200904291230 METAR LMML NIL=
200904291215 METAR LMML 291215Z 29012KT 250V320 9999 FEW025 20/09 Q1017
                        NOSIG=
200904291200 METAR LMML NIL=
200904291145 METAR LMML 291145Z 30010KT 260V350 9999 FEW025 20/10 Q1017
                        NOSIG=
200904291130 METAR LMML NIL=
200904291115 METAR LMML 291115Z 30011KT 260V340 9999 FEW025 20/11 Q1017
                        NOSIG=
200904291100 METAR LMML NIL=
200904291045 METAR LMML 291045Z 30011KT 260V320 9999 FEW025 20/12 Q1017
                        NOSIG=
200904291030 METAR LMML NIL=
200904291015 METAR LMML 291015Z 30013KT 260V320 9999 FEW025 20/12 Q1017
                        NOSIG=
200904291000 METAR LMML NIL=
200904290945 METAR LMML 290945Z 29016KT 250V310 9999 FEW025 20/12 Q1017
                        NOSIG=
200904290930 METAR LMML NIL=
200904290915 METAR LMML 290915Z 28016KT 230V320 CAVOK 20/11 Q1017 NOSIG=
200904290900 METAR LMML NIL=
200904290845 METAR LMML 290845Z 27013KT 240V310 CAVOK 20/09 Q1017 NOSIG=
200904290830 METAR LMML NIL=
200904290815 METAR LMML 290815Z 28013KT 250V320 CAVOK 20/10 Q1016 NOSIG=
200904290800 METAR LMML NIL=
200904290745 METAR LMML 290745Z 28010KT 230V320 CAVOK 19/09 Q1016 NOSIG=
200904290730 METAR LMML NIL=
200904290715 METAR LMML 290715Z 27011KT 240V300 CAVOK 18/10 Q1016 NOSIG=
200904290700 METAR LMML NIL=
200904290645 METAR LMML 290645Z 28010KT 230V310 CAVOK 17/10 Q1016 NOSIG=
200904290630 METAR LMML NIL=
200904290615 METAR LMML 290615Z 27009KT 240V310 CAVOK 16/10 Q1016 NOSIG=
200904290600 METAR LMML NIL=
200904290545 METAR LMML 290545Z 28008KT 250V310 CAVOK 15/13 Q1016 NOSIG=
200904290530 METAR LMML NIL=
200904290515 METAR LMML 290515Z 27006KT 240V310 CAVOK 15/11 Q1016 NOSIG=
200904290500 METAR LMML NIL=
200904290445 METAR LMML 290445Z 25007KT 220V280 CAVOK 14/08 Q1015 NOSIG=
200904290430 METAR LMML NIL=
200904290415 METAR LMML 290415Z 24007KT 9999 FEW030 13/07 Q1015 NOSIG=
200904290400 METAR LMML NIL=
200904290345 METAR LMML 290345Z 25006KT 210V280 CAVOK 13/07 Q1015 NOSIG=
200904290330 METAR LMML NIL=
200904290315 METAR LMML 290315Z 24005KT CAVOK 12/07 Q1015 NOSIG=
200904290300 METAR LMML NIL=
200904290245 METAR LMML 290245Z 26006KT CAVOK 13/08 Q1015 NOSIG=
200904290230 METAR LMML NIL=
200904290215 METAR LMML 290215Z 27005KT 240V300 CAVOK 12/07 Q1015 NOSIG=
200904290200 METAR LMML NIL=
200904290145 METAR LMML 290145Z VRB02KT CAVOK 12/08 Q1015 NOSIG=
200904290130 METAR LMML NIL=
200904290115 METAR LMML 290115Z VRB01KT CAVOK 13/09 Q1015 NOSIG=
200904290100 METAR LMML NIL=
200904290045 METAR LMML 290045Z 26004KT 210V290 CAVOK 13/08 Q1015 NOSIG=
200904290015 METAR LMML 290015Z 25007KT 200V290 CAVOK 13/11 Q1015 NOSIG=
200904290000 METAR LMML NIL=
200904282345 METAR LMML 282345Z 22004KT 180V270 CAVOK 13/12 Q1015 NOSIG=
200904282330 METAR LMML NIL=
200904282315 METAR LMML 282315Z VRB03KT CAVOK 14/12 Q1015 NOSIG=
200904282300 METAR LMML NIL=
200904282245 METAR LMML 282245Z 22005KT 180V240 CAVOK 14/12 Q1016 NOSIG=
200904282230 METAR LMML NIL=
200904282215 METAR LMML 282215Z 23006KT CAVOK 14/12 Q1016 NOSIG=
200904282200 METAR LMML NIL=
200904282145 METAR LMML 282145Z 23006KT 200V270 CAVOK 14/11 Q1015 NOSIG=
200904282130 METAR LMML NIL=
200904282115 METAR LMML 282115Z 24006KT CAVOK 14/11 Q1016 NOSIG=
200904282100 METAR LMML NIL=
200904282045 METAR LMML 282045Z 24006KT 210V280 CAVOK 14/11 Q1016 NOSIG=
200904282030 METAR LMML NIL=
200904282015 METAR LMML 282015Z 24008KT 220V290 CAVOK 14/11 Q1015 NOSIG=
200904282000 METAR LMML NIL=
200904281945 METAR LMML 281945Z 24007KT 200V270 CAVOK 14/10 Q1015 NOSIG=
200904281930 METAR LMML NIL=
200904281915 METAR LMML 281915Z 24007KT 210V290 CAVOK 14/10 Q1015 NOSIG=
200904281900 METAR LMML NIL=
200904281845 METAR LMML 281845Z 24007KT CAVOK 14/10 Q1014 NOSIG=
200904281830 METAR LMML NIL=
200904281815 METAR LMML 281815Z 26007KT 220V290 CAVOK 14/09 Q1014 NOSIG=
200904281800 METAR LMML NIL=
200904281745 METAR LMML 281745Z 26006KT 230V320 CAVOK 14/10 Q1014 NOSIG=
200904281730 METAR LMML NIL=
200904281715 METAR LMML 281715Z 29011KT 9999 FEW025 15/10 Q1014 NOSIG=
200904281700 METAR LMML NIL=
200904281645 METAR LMML 281645Z 28009KT 250V320 9999 FEW025 16/09 Q1014
                        NOSIG=
200904281630 METAR LMML NIL=
200904281615 METAR LMML 281615Z 28013KT 250V310 9999 FEW025 16/09 Q1014
                        NOSIG=
200904281600 METAR LMML NIL=
200904281545 METAR LMML 281545Z 28012KT 240V310 9999 FEW025 17/10 Q1014
                        NOSIG=
200904281530 METAR LMML NIL=
200904281515 METAR LMML 281515Z 27013KT 240V300 9999 FEW025 17/09 Q1013
                        NOSIG=
200904281500 METAR LMML NIL=
200904281445 METAR LMML 281445Z 26014KT 220V310 9999 FEW024 17/11 Q1013
                        NOSIG=
200904281430 METAR LMML NIL=
200904281415 METAR LMML 281415Z 26015KT 210V300 9999 FEW024 17/10 Q1014
                        NOSIG=
200904281400 METAR LMML NIL=
200904281345 METAR LMML 281345Z 27016KT 220V300 9999 FEW024 16/10 Q1014
                        NOSIG=
200904281315 METAR LMML 281315Z 27014KT 230V310 9999 SCT023 17/11 Q1014
                        NOSIG=
200904281300 METAR LMML NIL=
200904281245 METAR LMML 281245Z 27014KT 230V300 9999 BKN023 17/10 Q1014
                        NOSIG=
200904281230 METAR LMML NIL=
200904281215 METAR LMML 281215Z 27013KT 230V310 9999 BKN022 17/10 Q1014
                        NOSIG=
200904281200 METAR LMML NIL=
200904281145 METAR LMML 281145Z 27015KT 240V310 9999 BKN024 17/10 Q1014
                        NOSIG=
200904281130 METAR LMML NIL=
200904281115 METAR LMML 281115Z 28013KT 240V300 9999 BKN023 17/11 Q1014
                        NOSIG=
200904281100 METAR LMML NIL=
200904281045 METAR LMML 281045Z 28014KT 220V310 9999 BKN023 17/11 Q1014
                        NOSIG=
200904281030 METAR LMML NIL=
200904281015 METAR LMML 281015Z 29014KT 250V330 9999 BKN024 18/10 Q1014
                        NOSIG=
200904281000 METAR LMML NIL=
200904280945 METAR LMML 280945Z 29015KT 260V320 9999 SCT024 18/10 Q1014
                        NOSIG=
200904280930 METAR LMML NIL=
200904280915 METAR LMML 280915Z 29014KT 9999 SCT024 17/10 Q1014 NOSIG=
200904280900 METAR LMML NIL=
200904280845 METAR LMML 280845Z 30016KT 270V330 9999 FEW025 17/10 Q1013
                        NOSIG=
200904280830 METAR LMML NIL=
200904280815 METAR LMML 280815Z 29016KT 260V330 9999 FEW022 16/10 Q1013
                        NOSIG=
200904280800 METAR LMML NIL=
200904280745 METAR LMML 280745Z 30017KT 9999 FEW023 16/10 Q1013 NOSIG=
200904280730 METAR LMML NIL=
200904280715 METAR LMML 280715Z 30012KT 270V340 9999 FEW023 15/10 Q1013
                        NOSIG=
200904280700 METAR LMML NIL=
200904280645 METAR LMML 280645Z 31014KT 280V350 9999 FEW022 15/10 Q1013
                        NOSIG=
200904280630 METAR LMML NIL=
200904280615 METAR LMML 280615Z 32011KT 9999 FEW020 15/10 Q1013 NOSIG=
200904280600 METAR LMML NIL=
200904280545 METAR LMML 280545Z 31010KT 9999 FEW020 14/10 Q1013 NOSIG=
200904280530 METAR LMML NIL=
200904280515 METAR LMML 280515Z 31010KT 9999 FEW020 13/10 Q1013 NOSIG=
200904280500 METAR LMML NIL=
200904280445 METAR LMML 280445Z 31011KT 9999 FEW020 13/10 Q1012 NOSIG=
200904280430 METAR LMML NIL=
200904280415 METAR LMML 280415Z 31011KT 9999 FEW020 13/10 Q1012 NOSIG=
200904280400 METAR LMML NIL=
200904280345 METAR LMML 280345Z 30016KT 9999 FEW020 13/10 Q1012 NOSIG=
200904280330 METAR LMML NIL=
200904280315 METAR LMML 280315Z 32012KT 9999 FEW020 13/11 Q1011 NOSIG=
200904280300 METAR LMML NIL=
200904280245 METAR LMML 280245Z 32014KT 9999 FEW019 13/11 Q1011 NOSIG=
200904280230 METAR LMML NIL=
200904280215 METAR LMML 280215Z 32015KT 9999 FEW020 13/11 Q1011 NOSIG=
200904280200 METAR LMML NIL=
200904280145 METAR LMML 280145Z 31017KT CAVOK 13/10 Q1011 NOSIG=
200904280130 METAR LMML NIL=
200904280115 METAR LMML 280115Z 32017KT CAVOK 13/10 Q1011 NOSIG=
200904280100 METAR LMML NIL=
200904280045 METAR LMML 280045Z 31018KT CAVOK 13/10 Q1011 NOSIG=
200904280030 METAR LMML NIL=
200904280015 METAR LMML 280015Z 31018KT CAVOK 13/11 Q1011 NOSIG=
200904280000 METAR LMML NIL=
200904272345 METAR LMML 272345Z 31019KT CAVOK 14/11 Q1011 NOSIG=
200904272330 METAR LMML NIL=
200904272315 METAR LMML 272315Z 31019KT CAVOK 14/11 Q1012 NOSIG=
200904272300 METAR LMML NIL=
200904272245 METAR LMML 272245Z 31018KT CAVOK 14/11 Q1012 NOSIG=
200904272230 METAR LMML NIL=
200904272215 METAR LMML 272215Z 31017KT CAVOK 14/11 Q1012 NOSIG=
200904272200 METAR LMML NIL=
200904272145 METAR LMML 272145Z 31013KT CAVOK 14/10 Q1012 NOSIG=
200904272130 METAR LMML NIL=
200904272115 METAR LMML 272115Z 31014KT CAVOK 14/10 Q1012 NOSIG=
200904272100 METAR LMML NIL=
200904272045 METAR LMML 272045Z 31013KT CAVOK 14/10 Q1011 NOSIG=
200904272030 METAR LMML NIL=
200904272015 METAR LMML 272015Z 32013KT CAVOK 14/10 Q1011 NOSIG=
200904272000 METAR LMML NIL=
200904271945 METAR LMML 271945Z 33012KT 310V010 CAVOK 14/10 Q1011 NOSIG=
200904271930 METAR LMML NIL=
200904271915 METAR LMML 271915Z 33012KT 310V010 CAVOK 14/10 Q1010 NOSIG=
200904271900 METAR LMML NIL=
200904271845 METAR LMML 271845Z 33014KT CAVOK 15/10 Q1010 NOSIG=
200904271830 METAR LMML NIL=
200904271815 METAR LMML 271815Z 32016KT 290V350 CAVOK 15/11 Q1009 NOSIG=
200904271800 METAR LMML NIL=
200904271745 METAR LMML 271745Z 32017KT 290V350 CAVOK 15/11 Q1009 NOSIG=
200904271730 METAR LMML NIL=
200904271715 METAR LMML 271715Z 33014KT 300V010 9999 FEW019 16/12 Q1008
                        NOSIG=
200904271700 METAR LMML NIL=
200904271645 METAR LMML 271645Z 32018KT 9999 FEW010 SCT250 16/12 Q1008
                        NOSIG RMK LEARJET60 REPORTS +VE WINDSHEAR
                        +10KTS ON FINALS RWY31 AT 1615Z=
200904271630 METAR LMML NIL=
200904271615 METAR LMML 271615Z 31020KT 280V340 7000 BKN009 16/14 Q1008
                        NOSIG=
200904271600 METAR LMML NIL=
200904271545 METAR LMML 271545Z 20013KT 160V250 7000 HZ NSC 19/14 Q1006
                        NOSIG=
200904271530 METAR LMML NIL=
200904271515 METAR LMML 271515Z 19017KT 160V230 CAVOK 19/14 Q1005 NOSIG=
200904271500 METAR LMML NIL=
200904271445 METAR LMML 271445Z 18015KT CAVOK 19/13 Q1006 NOSIG=
200904271430 METAR LMML NIL=
200904271415 METAR LMML 271415Z 17015KT 130V200 CAVOK 20/13 Q1005 NOSIG=
200904271400 METAR LMML NIL=
200904271345 METAR LMML 271345Z 15015KT CAVOK 19/13 Q1005 NOSIG=
200904271330 METAR LMML NIL=
200904271315 METAR LMML 271315Z 16015KT 110V190 CAVOK 20/12 Q1005 NOSIG=
200904271300 METAR LMML NIL=
200904271245 METAR LMML 271245Z 16014KT 130V190 CAVOK 20/12 Q1005 NOSIG=
200904271230 METAR LMML NIL=
200904271200 METAR LMML NIL=
200904271145 METAR LMML 271145Z 14023KT CAVOK 19/13 Q1004 NOSIG=
200904271130 METAR LMML NIL=
200904271115 METAR LMML 271115Z 13023KT CAVOK 20/14 Q1005 NOSIG=
200904271100 METAR LMML NIL=
200904271045 METAR LMML 271045Z 14020KT 110V180 CAVOK 19/13 Q1006 NOSIG=
200904271030 METAR LMML NIL=
200904271015 METAR LMML 271015Z 14022KT CAVOK 19/13 Q1006 NOSIG=
200904271000 METAR LMML NIL=
200904270945 METAR LMML 270945Z 13024KT CAVOK 19/13 Q1006 NOSIG=
200904270930 METAR LMML NIL=
200904270915 METAR LMML 270915Z 14020KT 110V180 CAVOK 19/13 Q1007 NOSIG=
200904270900 METAR LMML NIL=
200904270845 METAR LMML 270845Z 13019KT 100V160 CAVOK 18/13 Q1008 NOSIG=
200904270830 METAR LMML NIL=
200904270815 METAR LMML 270815Z 13019KT 100V160 CAVOK 18/13 Q1008 NOSIG=
200904270800 METAR LMML NIL=
200904270745 METAR LMML 270745Z 14019KT CAVOK 18/13 Q1008 NOSIG=
200904270730 METAR LMML NIL=
200904270715 METAR LMML 270715Z 14015KT CAVOK 18/12 Q1009 NOSIG=
200904270700 METAR LMML NIL=
200904270645 METAR LMML 270645Z 13014KT CAVOK 18/13 Q1009 NOSIG=
200904270630 METAR LMML NIL=
200904270615 METAR LMML 270615Z 14016KT CAVOK 18/12 Q1009 NOSIG=
200904270600 METAR LMML NIL=
200904270545 METAR LMML 270545Z 14014KT CAVOK 17/12 Q1009 NOSIG=
200904270530 METAR LMML NIL=
200904270515 METAR LMML 270515Z 14014KT CAVOK 17/12 Q1010 NOSIG=
200904270500 METAR LMML NIL=
200904270445 METAR LMML 270445Z 15019KT 110V170 CAVOK 18/12 Q1009 NOSIG=
200904270430 METAR LMML NIL=
200904270415 METAR LMML 270415Z 14012KT CAVOK 17/12 Q1010 NOSIG=
200904270400 METAR LMML NIL=
200904270345 METAR LMML 270345Z 14013KT CAVOK 17/12 Q1010 NOSIG=
200904270330 METAR LMML NIL=
200904270315 METAR LMML 270315Z 14012KT CAVOK 17/12 Q1010 NOSIG=
200904270300 METAR LMML NIL=
200904270245 METAR LMML 270245Z 14011KT CAVOK 17/12 Q1010 NOSIG=
200904270230 METAR LMML NIL=
200904270215 METAR LMML 270215Z 14011KT CAVOK 17/12 Q1010 NOSIG=
200904270200 METAR LMML NIL=
200904270145 METAR LMML 270145Z 13010KT CAVOK 16/12 Q1011 NOSIG=
200904270130 METAR LMML NIL=
200904270115 METAR LMML 270115Z 14010KT CAVOK 16/13 Q1011 NOSIG=
200904270045 METAR LMML 270045Z 14011KT CAVOK 16/13 Q1011 NOSIG=
200904270030 METAR LMML NIL=
200904270015 METAR LMML 270015Z 14011KT CAVOK 16/13 Q1012 NOSIG=
200904270000 METAR LMML NIL=
200904262345 METAR LMML 262345Z 14011KT CAVOK 16/13 Q1012 NOSIG=
200904262330 METAR LMML NIL=
200904262315 METAR LMML 262315Z 14013KT CAVOK 17/13 Q1013 NOSIG=
200904262300 METAR LMML NIL=
200904262245 METAR LMML 262245Z 14012KT CAVOK 16/13 Q1013 NOSIG=
200904262230 METAR LMML NIL=
200904262215 METAR LMML 262215Z 14012KT CAVOK 16/13 Q1013 NOSIG=
200904262200 METAR LMML NIL=
200904262145 METAR LMML 262145Z 14013KT CAVOK 16/14 Q1014 NOSIG=
200904262130 METAR LMML NIL=
200904262115 METAR LMML 262115Z 13012KT CAVOK 16/14 Q1014 NOSIG=
200904262100 METAR LMML NIL=
200904262045 METAR LMML 262045Z 13012KT CAVOK 16/14 Q1014 NOSIG=
200904262030 METAR LMML NIL=
200904262015 METAR LMML 262015Z 13011KT CAVOK 16/14 Q1014 NOSIG=
200904262000 METAR LMML NIL=
200904261945 METAR LMML 261945Z 13010KT CAVOK 16/14 Q1014 NOSIG=
200904261930 METAR LMML NIL=
200904261915 METAR LMML 261915Z 12008KT CAVOK 16/14 Q1014 NOSIG=
200904261900 METAR LMML NIL=
200904261845 METAR LMML 261845Z 13008KT CAVOK 16/14 Q1014 NOSIG=
200904261830 METAR LMML NIL=
200904261815 METAR LMML 261815Z 12008KT CAVOK 16/14 Q1015 NOSIG=
200904261800 METAR LMML NIL=
200904261745 METAR LMML 261745Z 13008KT CAVOK 16/14 Q1015 NOSIG=
200904261730 METAR LMML NIL=
200904261715 METAR LMML 261715Z 12009KT CAVOK 16/14 Q1014 NOSIG=
200904261700 METAR LMML NIL=
200904261645 METAR LMML 261645Z 13011KT 100V160 CAVOK 17/14 Q1015 NOSIG=
200904261630 METAR LMML NIL=
200904261615 METAR LMML 261615Z 14011KT CAVOK 17/15 Q1015 NOSIG=
200904261600 METAR LMML NIL=
200904261545 METAR LMML 261545Z 14011KT 110V170 CAVOK 18/15 Q1015 NOSIG=
200904261530 METAR LMML NIL=
200904261515 METAR LMML 261515Z 14012KT 110V180 CAVOK 18/15 Q1015 NOSIG=
200904261500 METAR LMML NIL=
200904261445 METAR LMML 261445Z 14013KT 110V170 CAVOK 18/14 Q1015 NOSIG=
200904261430 METAR LMML NIL=
200904261415 METAR LMML 261415Z 14013KT 100V170 CAVOK 19/15 Q1015 NOSIG=
200904261400 METAR LMML NIL=
200904261345 METAR LMML 261345Z 15013KT CAVOK 18/15 Q1016 NOSIG=
200904261330 METAR LMML NIL=
200904261315 METAR LMML 261315Z 14014KT CAVOK 18/15 Q1016 NOSIG=
200904261300 METAR LMML NIL=
200904261245 METAR LMML 261245Z 14012KT 100V170 CAVOK 18/15 Q1016 NOSIG=
200904261230 METAR LMML NIL=
200904261215 METAR LMML 261215Z 14015KT 110V170 CAVOK 19/15 Q1017 NOSIG=
200904261200 METAR LMML NIL=
200904261145 METAR LMML 261145Z 14014KT 110V180 CAVOK 19/15 Q1016 NOSIG=
200904261130 METAR LMML NIL=
200904261115 METAR LMML 261115Z 14015KT CAVOK 18/15 Q1017 NOSIG=
200904261100 METAR LMML NIL=
200904261045 METAR LMML 261045Z 14016KT CAVOK 18/14 Q1017 NOSIG=
200904261030 METAR LMML NIL=
200904261015 METAR LMML 261015Z 14015KT CAVOK 18/14 Q1017 NOSIG=
200904261000 METAR LMML NIL=
200904260945 METAR LMML 260945Z 13014KT 100V160 CAVOK 18/15 Q1018 NOSIG=
200904260930 METAR LMML NIL=
200904260915 METAR LMML 260915Z 13015KT CAVOK 18/15 Q1018 NOSIG=
200904260900 METAR LMML NIL=
200904260845 METAR LMML 260845Z 12014KT CAVOK 18/14 Q1018 NOSIG=
200904260830 METAR LMML NIL=
200904260815 METAR LMML 260815Z 12011KT CAVOK 17/15 Q1018 NOSIG=
200904260800 METAR LMML NIL=
200904260745 METAR LMML 260745Z 11012KT CAVOK 17/14 Q1018 NOSIG=
200904260730 METAR LMML NIL=
200904260715 METAR LMML 260715Z 12010KT 090V150 CAVOK 17/14 Q1018 NOSIG=
200904260700 METAR LMML NIL=
200904260645 METAR LMML 260645Z 11009KT CAVOK 16/15 Q1018 NOSIG=
200904260630 METAR LMML NIL=
200904260615 METAR LMML 260615Z 12008KT CAVOK 16/14 Q1018 NOSIG=
200904260600 METAR LMML NIL=
200904260545 METAR LMML 260545Z 14009KT CAVOK 15/14 Q1018 NOSIG=
200904260530 METAR LMML NIL=
200904260515 METAR LMML 260515Z 14009KT CAVOK 15/14 Q1017 NOSIG=
200904260500 METAR LMML NIL=
200904260445 METAR LMML 260445Z 14010KT CAVOK 15/14 Q1017 NOSIG=
200904260430 METAR LMML NIL=
200904260415 METAR LMML 260415Z 14009KT CAVOK 15/14 Q1017 NOSIG=
200904260400 METAR LMML NIL=
200904260345 METAR LMML 260345Z 14009KT CAVOK 15/14 Q1017 NOSIG=
200904260330 METAR LMML NIL=
200904260315 METAR LMML 260315Z 15009KT CAVOK 15/14 Q1017 NOSIG=
200904260300 METAR LMML NIL=
200904260245 METAR LMML 260245Z 15008KT CAVOK 15/14 Q1017 NOSIG=
200904260230 METAR LMML NIL=
200904260215 METAR LMML 260215Z 14008KT CAVOK 15/14 Q1017 NOSIG=
200904260200 METAR LMML NIL=
200904260145 METAR LMML 260145Z 15009KT CAVOK 15/14 Q1017 NOSIG=
200904260130 METAR LMML NIL=
200904260115 METAR LMML 260115Z 14009KT 120V180 CAVOK 15/14 Q1017 NOSIG=
200904260100 METAR LMML NIL=
200904260045 METAR LMML 260045Z 14008KT CAVOK 15/13 Q1018 NOSIG=
200904260015 METAR LMML 260015Z 16010KT CAVOK 15/14 Q1018 NOSIG=
200904260000 METAR LMML NIL=
200904252345 METAR LMML 252345Z 15009KT CAVOK 15/13 Q1018 NOSIG=
200904252330 METAR LMML NIL=
200904252315 METAR LMML 252315Z 15010KT CAVOK 15/14 Q1019 NOSIG=
200904252300 METAR LMML NIL=
200904252245 METAR LMML 252245Z 14010KT CAVOK 15/14 Q1019 NOSIG=
200904252230 METAR LMML NIL=
200904252215 METAR LMML 252215Z 14009KT CAVOK 14/14 Q1019 NOSIG=
200904252200 METAR LMML NIL=
200904252145 METAR LMML 252145Z 14009KT CAVOK 14/14 Q1019 NOSIG=
200904252130 METAR LMML NIL=
200904252115 METAR LMML 252115Z 14007KT CAVOK 15/14 Q1020 NOSIG=
200904252045 METAR LMML 252045Z 14008KT CAVOK 15/14 Q1020 NOSIG=
200904252030 METAR LMML NIL=
200904252015 METAR LMML 252015Z 13007KT CAVOK 15/14 Q1020 NOSIG=
200904252000 METAR LMML NIL=
200904251945 METAR LMML 251945Z 13008KT CAVOK 15/14 Q1019 NOSIG=
200904251930 METAR LMML NIL=
200904251915 METAR LMML 251915Z 13009KT CAVOK 15/14 Q1019 NOSIG=
200904251900 METAR LMML NIL=
200904251845 METAR LMML 251845Z 14008KT CAVOK 16/14 Q1019 NOSIG=
200904251830 METAR LMML NIL=
200904251815 METAR LMML 251815Z 14007KT CAVOK 16/14 Q1019 NOSIG=
200904251800 METAR LMML NIL=
200904251745 METAR LMML 251745Z 14007KT 120V180 CAVOK 17/13 Q1019 NOSIG=
200904251730 METAR LMML NIL=
200904251715 METAR LMML 251715Z 16008KT CAVOK 18/13 Q1019 NOSIG=
200904251700 METAR LMML NIL=
200904251645 METAR LMML 251645Z 16008KT 130V190 CAVOK 18/12 Q1019 NOSIG=
200904251630 METAR LMML NIL=
200904251615 METAR LMML 251615Z 15010KT 120V180 CAVOK 18/13 Q1019 NOSIG=
200904251600 METAR LMML NIL=
200904251545 METAR LMML 251545Z 16010KT CAVOK 18/12 Q1019 NOSIG=
200904251530 METAR LMML NIL=
200904251515 METAR LMML 251515Z 16010KT 120V200 CAVOK 20/12 Q1019 NOSIG=
200904251500 METAR LMML NIL=
200904251445 METAR LMML 251445Z 16009KT CAVOK 20/10 Q1019 NOSIG=
200904251430 METAR LMML NIL=
200904251415 METAR LMML 251415Z 17008KT 150V230 CAVOK 21/07 Q1019 NOSIG=
200904251400 METAR LMML NIL=
200904251345 METAR LMML 251345Z 18007KT 140V230 CAVOK 22/07 Q1019 NOSIG=
200904251330 METAR LMML NIL=
200904251315 METAR LMML 251315Z 17007KT 140V210 CAVOK 21/07 Q1019 NOSIG=
200904251300 METAR LMML NIL=
200904251245 METAR LMML 251245Z 16008KT 130V200 CAVOK 21/09 Q1019 NOSIG=
200904251230 METAR LMML NIL=
200904251215 METAR LMML 251215Z 17007KT 140V220 CAVOK 22/10 Q1020 NOSIG=
200904251200 METAR LMML NIL=
200904251145 METAR LMML 251145Z 18006KT 130V230 CAVOK 21/09 Q1020 NOSIG=
200904251130 METAR LMML NIL=
200904251115 METAR LMML 251115Z 18005KT 130V240 CAVOK 21/12 Q1020 NOSIG=
200904251100 METAR LMML NIL=
200904251045 METAR LMML 251045Z 19005KT 110V230 CAVOK 20/12 Q1020 NOSIG=
200904251030 METAR LMML NIL=
200904251015 METAR LMML 251015Z 20007KT 160V250 CAVOK 20/11 Q1020 NOSIG=
200904251000 METAR LMML NIL=
200904250945 METAR LMML 250945Z 20006KT 150V270 CAVOK 20/12 Q1021 NOSIG=
200904250930 METAR LMML NIL=
200904250915 METAR LMML 250915Z 22006KT 190V260 CAVOK 20/11 Q1021 NOSIG=
200904250900 METAR LMML NIL=
200904250845 METAR LMML 250845Z 22006KT 160V270 CAVOK 19/11 Q1021 NOSIG=
200904250830 METAR LMML NIL=
200904250815 METAR LMML 250815Z 22007KT 190V280 CAVOK 19/11 Q1021 NOSIG=
200904250800 METAR LMML NIL=
200904250745 METAR LMML 250745Z 22007KT 190V270 CAVOK 18/11 Q1020 NOSIG=
200904250730 METAR LMML NIL=
200904250715 METAR LMML 250715Z 23008KT 190V270 CAVOK 18/10 Q1020 NOSIG=
200904250700 METAR LMML NIL=
200904250645 METAR LMML 250645Z 22008KT 180V260 CAVOK 17/11 Q1020 NOSIG=
200904250630 METAR LMML NIL=
200904250615 METAR LMML 250615Z 20005KT 170V250 CAVOK 16/12 Q1020 NOSIG=
200904250600 METAR LMML NIL=
200904250545 METAR LMML 250545Z 21005KT 170V260 CAVOK 15/11 Q1019 NOSIG=
200904250530 METAR LMML NIL=
200904250515 METAR LMML 250515Z 21005KT CAVOK 15/09 Q1019 NOSIG=
200904250500 METAR LMML NIL=
200904250445 METAR LMML 250445Z 21005KT CAVOK 14/08 Q1019 NOSIG=
200904250430 LMML NIL=
200904250415 METAR LMML 250415Z 21005KT CAVOK 13/08 Q1018 NOSIG=
200904250400 METAR LMML NIL=
200904250345 METAR LMML 250345Z VRB02KT CAVOK 12/08 Q1018 NOSIG=
200904250330 METAR LMML NIL=
200904250315 METAR LMML 250315Z 24004KT CAVOK 13/08 Q1018 NOSIG=
200904250300 METAR LMML NIL=
200904250245 METAR LMML 250245Z 22004KT 200V260 CAVOK 13/10 Q1018 NOSIG=
200904250230 LMML NIL=
200904250215 METAR LMML 250215Z 23005KT 200V270 CAVOK 13/11 Q1018 NOSIG=
200904250200 METAR LMML NIL=
200904250145 METAR LMML 250145Z 22005KT CAVOK 13/12 Q1018 NOSIG=
200904250130 LMML NIL=
200904250100 METAR LMML NIL=
200904250045 METAR LMML 250045Z VRB03KT CAVOK 12/11 Q1019 NOSIG=
200904250030 METAR LMML NIL=
200904250015 METAR LMML 250015Z VRB01KT CAVOK 13/12 Q1019 NOSIG=
200904250000 METAR LMML NIL=
200904242345 METAR LMML 242345Z 23004KT 200V260 CAVOK 13/12 Q1019 NOSIG=
200904242330 METAR LMML NIL=
200904242315 METAR LMML 242315Z 23005KT 210V280 CAVOK 14/13 Q1019 NOSIG=
200904242300 METAR LMML NIL=
200904242245 METAR LMML 242245Z 21004KT 180V240 CAVOK 13/12 Q1019 NOSIG=
200904242230 METAR LMML NIL=
200904242215 METAR LMML 242215Z 23004KT 190V270 CAVOK 13/12 Q1019 NOSIG=
200904242200 METAR LMML NIL=
200904242145 METAR LMML 242145Z VRB03KT CAVOK 13/12 Q1019 NOSIG=
200904242130 METAR LMML NIL=
200904242115 METAR LMML 242115Z VRB01KT CAVOK 13/12 Q1019 NOSIG=
200904242100 METAR LMML NIL=
200904242045 METAR LMML 242045Z VRB03KT CAVOK 14/12 Q1019 NOSIG=
200904242030 METAR LMML NIL=
200904242015 METAR LMML 242015Z 25005KT CAVOK 14/12 Q1019 NOSIG=
200904242000 METAR LMML NIL=
200904241945 METAR LMML 241945Z VRB03KT CAVOK 13/11 Q1019 NOSIG=
200904241930 METAR LMML NIL=
200904241915 METAR LMML 241915Z VRB02KT CAVOK 14/11 Q1019 NOSIG=
200904241845 METAR LMML 241845Z VRB03KT CAVOK 14/10 Q1019 NOSIG=
200904241830 METAR LMML NIL=
200904241815 METAR LMML 241815Z 27004KT CAVOK 15/10 Q1019 NOSIG=
200904241800 METAR LMML NIL=
200904241745 METAR LMML 241745Z 28007KT CAVOK 15/10 Q1018 NOSIG=
200904241730 METAR LMML NIL=
200904241715 METAR LMML 241715Z 29008KT CAVOK 16/09 Q1018 NOSIG=
200904241700 METAR LMML NIL=
200904241645 METAR LMML 241645Z 28009KT CAVOK 17/09 Q1018 NOSIG=
200904241630 METAR LMML NIL=
200904241615 METAR LMML 241615Z 28010KT 230V310 CAVOK 17/10 Q1018 NOSIG=
200904241600 METAR LMML NIL=
200904241545 METAR LMML 241545Z 28010KT 240V310 CAVOK 18/11 Q1018 NOSIG=
200904241530 METAR LMML NIL=
200904241515 METAR LMML 241515Z 29012KT CAVOK 18/10 Q1018 NOSIG=
200904241500 METAR LMML NIL=
200904241445 METAR LMML 241445Z 28011KT 240V310 9999 FEW026 18/11 Q1018
                        NOSIG=
200904241430 METAR LMML NIL=
200904241415 METAR LMML 241415Z 28012KT 250V310 9999 FEW026 18/09 Q1018
                        NOSIG=
200904241400 METAR LMML NIL=
200904241345 METAR LMML 241345Z 27012KT 220V310 9999 FEW026 18/10 Q1018
                        NOSIG=
200904241330 METAR LMML NIL=
200904241315 METAR LMML 241315Z 28013KT 220V310 9999 FEW025 18/10 Q1018
                        NOSIG=
200904241300 METAR LMML NIL=
200904241245 METAR LMML 241245Z 27012KT 210V310 9999 FEW025 18/10 Q1018
                        NOSIG=
200904241230 METAR LMML NIL=
200904241215 METAR LMML 241215Z 28013KT 240V310 9999 FEW026 18/10 Q1019
                        NOSIG=
200904241200 METAR LMML NIL=
200904241145 METAR LMML 241145Z 27010KT 230V320 9999 FEW024 18/12 Q1019
                        NOSIG=
200904241130 METAR LMML NIL=
200904241115 METAR LMML 241115Z 28011KT 230V320 9999 SCT023 18/12 Q1019
                        NOSIG=
200904241100 METAR LMML NIL=
200904241045 METAR LMML 241045Z 27010KT 240V310 9999 SCT021 18/12 Q1018
                        NOSIG=
200904241030 METAR LMML NIL=
200904241015 METAR LMML 241015Z 30011KT 260V330 9999 BKN020 17/12 Q1019
                        NOSIG=
200904241000 METAR LMML NIL=
200904240945 METAR LMML 240945Z 30008KT 250V330 9999 BKN021 17/12 Q1019
                        NOSIG=
200904240930 METAR LMML NIL=
200904240915 METAR LMML 240915Z 29011KT 240V330 9999 BKN018 17/12 Q1019
                        NOSIG=
200904240900 METAR LMML NIL=
200904240845 METAR LMML 240845Z 30012KT 250V330 9999 BKN017 17/13 Q1018
                        NOSIG=
200904240830 METAR LMML NIL=
200904240815 METAR LMML 240815Z 30011KT 260V320 9000 BKN017 17/13 Q1018
                        BECMG 9999 BKN015=
200904240800 METAR LMML NIL=
200904240745 METAR LMML 240745Z 30011KT 9000 BKN015 16/13 Q1018 BECMG
                        9999 BKN015=
200904240730 METAR LMML NIL=
200904240715 METAR LMML 240715Z 31010KT 260V350 9000 BKN016 16/12 Q1018
                        BECMG 9999 BKN015=
200904240700 METAR LMML NIL=
200904240645 METAR LMML 240645Z 30012KT 9000 BKN012 15/13 Q1017 BECMG
                        9999 FEW012=
200904240630 METAR LMML NIL=
200904240615 METAR LMML 240615Z 31011KT 9000 FEW011 15/13 Q1017 BECMG
                        9999 FEW012=
200904240600 METAR LMML NIL=
200904240545 METAR LMML 240545Z 30010KT 7000 FEW011 14/13 Q1017 BECMG
                        9999 FEW012=
200904240515 METAR LMML 240515Z 29008KT 7000 FEW011 13/12 Q1016 BECMG
                        9999 FEW012=
200904240500 METAR LMML NIL=
200904240445 METAR LMML 240445Z 28006KT 9000 FEW012 13/12 Q1016 TEMPO
                        BKN010=
200904240430 METAR LMML NIL=
200904240415 METAR LMML 240415Z 29006KT 270V330 9000 FEW015 13/12 Q1016
                        TEMPO BKN010=
200904240400 METAR LMML NIL=
200904240345 METAR LMML 240345Z 29009KT 9000 SCT012 13/12 Q1016 TEMPO
                        BKN010=
200904240330 METAR LMML NIL=
200904240315 METAR LMML 240315Z 29008KT 9000 SCT012 13/12 Q1016 TEMPO
                        BKN010=
200904240300 METAR LMML NIL=
200904240245 METAR LMML 240245Z 29007KT 260V330 9000 SCT011 13/12 Q1016
                        TEMPO BKN010=
200904240230 METAR LMML NIL=
200904240215 METAR LMML 240215Z 29008KT 9999 SCT011 13/12 Q1016 TEMPO
                        8000 BKN010=
200904240200 METAR LMML NIL=
200904240145 METAR LMML 240145Z 29006KT 260V330 9999 FEW012 13/12 Q1016
                        TEMPO 8000 BKN010=
200904240130 METAR LMML NIL=
200904240115 METAR LMML 240115Z 29010KT 9999 FEW012 14/12 Q1016 TEMPO
                        8000 BKN010=
200904240100 METAR LMML NIL=
200904240045 METAR LMML 240045Z 28008KT 250V310 9999 FEW015 13/12 Q1016
                        TEMPO 8000 BKN010=
200904240030 METAR LMML NIL=
200904240015 METAR LMML 240015Z 27007KT 9999 FEW015 14/13 Q1016 TEMPO
                        8000 BKN010=
200904240000 METAR LMML NIL=
200904232345 METAR LMML 232345Z 26009KT 230V290 9999 SCT005 14/13 Q1016
                        TEMPO 6000 BKN005=
200904232330 METAR LMML NIL=
200904232315 METAR LMML 232315Z 24006KT 210V270 9999 SCT005 13/13 Q1016
                        TEMPO 6000 BKN005=
200904232300 METAR LMML NIL=
200904232245 METAR LMML 232245Z VRB03KT 9999 FEW015 13/12 Q1016 TEMPO
                        8000 BKN012=
200904232230 METAR LMML NIL=
200904232215 METAR LMML 232215Z 24004KT 9999 FEW020 13/12 Q1016 NOSIG=
200904232200 METAR LMML NIL=
200904232145 METAR LMML 232145Z VRB03KT 9999 FEW020 13/12 Q1016 NOSIG=
200904232130 METAR LMML NIL=
200904232115 METAR LMML 232115Z VRB02KT 9999 FEW020 13/13 Q1016 TEMPO
                        BKN012=
200904232100 METAR LMML NIL=
200904232045 METAR LMML 232045Z VRB03KT CAVOK 13/12 Q1015 TEMPO BKN012=
200904232030 METAR LMML NIL=
200904232015 METAR LMML 232015Z 28004KT 210V320 9999 FEW018 14/13 Q1015
                        TEMPO BKN012=
200904232000 METAR LMML NIL=
200904231945 METAR LMML 231945Z 29005KT 260V330 CAVOK 14/13 Q1015 TEMPO
                        BKN012=
200904231930 METAR LMML NIL=
200904231915 METAR LMML 231915Z 28007KT 240V310 9999 FEW018 14/13 Q1015
                        TEMPO BKN012=
200904231900 METAR LMML NIL=
200904231845 METAR LMML 231845Z 28004KT 250V310 9999 FEW018 14/12 Q1015
                        NOSIG=
200904231830 METAR LMML NIL=
200904231815 METAR LMML 231815Z 29005KT 250V310 9999 FEW018 14/11 Q1014
                        NOSIG=
200904231800 METAR LMML NIL=
200904231745 METAR LMML 231745Z 30004KT 9999 FEW018 14/12 Q1014 NOSIG=
200904231730 METAR LMML NIL=
200904231715 METAR LMML 231715Z 32006KT 290V350 9999 FEW018 15/12 Q1014
                        NOSIG=
200904231700 METAR LMML NIL=
200904231645 METAR LMML 231645Z 33006KT 9999 FEW018 SCT250 16/11 Q1013
                        NOSIG=
200904231630 METAR LMML NIL=
200904231615 METAR LMML 231615Z 34007KT 310V020 9999 FEW018 SCT250 16/11
                        Q1013 NOSIG=
200904231600 METAR LMML NIL=
200904231545 METAR LMML 231545Z 34009KT 9999 FEW018 SCT250 16/12 Q1013
                        NOSIG=
200904231530 METAR LMML NIL=
200904231515 METAR LMML 231515Z 33010KT 300V360 9999 FEW018 SCT250 17/12
                        Q1013 NOSIG=
200904231500 METAR LMML NIL=
200904231445 METAR LMML 231445Z 35009KT 9999 FEW019 SCT250 17/12 Q1013
                        NOSIG=
200904231430 METAR LMML NIL=
200904231415 METAR LMML 231415Z 33008KT 300V010 9999 SCT015 17/13 Q1013
                        NOSIG=
200904231400 LMML NIL=
200904231330 METAR LMML NIL=
200904231315 METAR LMML 231315Z 01008KT 330V040 9999 SCT014 SCT080 17/13
                        Q1013 BECMG SCT016=
200904231300 METAR LMML NIL=
200904231245 METAR LMML 231245Z 35009KT 330V030 9999 BKN014 17/14 Q1013
                        BECMG SCT016=
200904231230 METAR LMML NIL=
200904231215 METAR LMML 231215Z 36009KT 9999 BKN011 16/13 Q1013 NOSIG=
200904231200 METAR LMML NIL=
200904231145 METAR LMML 231145Z 36008KT 310V030 9999 FEW011 BKN016 16/14
                        Q1013 NOSIG=
200904231130 METAR LMML NIL=
200904231115 METAR LMML 231115Z 01007KT 9999 FEW009 SCT013 15/13 Q1012
                        NOSIG=
200904231045 METAR LMML 231045Z 01009KT 9000 FEW010 BKN016 15/13 Q1012
                        BECMG 9999=
200904231030 METAR LMML NIL=
200904231015 METAR LMML 231015Z 02007KT 9999 FEW012 BKN017 16/13 Q1012
                        TEMPO 8000 SHRA BKN015=
200904231000 METAR LMML NIL=
200904230945 METAR LMML 230945Z 03006KT 010V070 9999 -RA FEW014 SCT022
                        17/14 Q1012 TEMPO 8000 SHRA=
200904230930 METAR LMML NIL=
200904230915 METAR LMML 230915Z 03006KT 350V090 9999 FEW010 BKN016 16/15
                        Q1012 TEMPO 8000 SHRA=
200904230900 METAR LMML NIL=
200904230845 METAR LMML 230845Z 05005KT 360V120 9999 FEW006 SCT012TCU
                        16/15 Q1011 TEMPO 8000 SHRA=
200904230830 METAR LMML NIL=
200904230815 METAR LMML 230815Z 08004KT 040V130 7000 FEW003 FEW020TCU
                        SCT120 15/15 Q1011 RERA BECMG 9999=
200904230800 METAR LMML NIL=
200904230745 METAR LMML 230745Z VRB03KT 6000 -RA SCT004 FEW020CB BKN100
                        14/13 Q1011 RERA TEMPO BKN006=
200904230730 METAR LMML NIL=
200904230715 METAR LMML 230715Z 11004KT 060V130 5000 RA FEW010 SCT020CB
                        BKN100 13/12 Q1010 RETS BECMG 9000=
200904230700 METAR LMML NIL=
200904230645 METAR LMML 230645Z VRB03KT 5000 RA FEW010 SCT020CB BKN100
                        13/12 Q1010 RETS BECMG 9000=
200904230630 METAR LMML NIL=
200904230615 METAR LMML 230615Z 14004KT 5000 -TSRA FEW010 SCT020CB BKN100
                        13/12 Q1010 BECMG 7000 SHRA=
200904230600 METAR LMML NIL=
200904230545 METAR LMML 230545Z VRB01KT 5000 TSRA FEW010 SCT015CB BKN100
                        13/13 Q1010 BECMG 7000 SHRA=
200904230530 METAR LMML NIL=
200904230515 METAR LMML 230515Z 23004KT 200V270 7000 -RA FEW017 SCT034
                        BKN070 14/13 Q1010 TEMPO 5000 TSRA
                        BKN006 BKN012CB=
200904230500 METAR LMML NIL=
200904230445 METAR LMML 230445Z VRB03KT 7000 FEW009 SCT018TCU BKN070 13/12
                        Q1010 TEMPO 5000 TSRA BKN006 BKN012CB
                        RMK SHOWERS TO WEST=
200904230430 METAR LMML NIL=
200904230415 METAR LMML 230415Z 23005KT 9999 FEW018 BKN080 BKN250 13/12
                        Q1010 TEMPO 8000 SHRA BKN013=
200904230400 METAR LMML NIL=
200904230345 METAR LMML 230345Z 24004KT 200V270 9999 FEW013 BKN060 13/12
                        Q1010 TEMPO 8000 SHRA BKN013=
200904230330 METAR LMML NIL=
200904230315 METAR LMML 230315Z VRB03KT 9999 SCT009 13/12 Q1010 TEMPO
                        8000 SHRA BKN013=
200904230300 METAR LMML NIL=
200904230245 METAR LMML 230245Z 25004KT 200V290 9999 SCT010 SCT040 13/12
                        Q1010 TEMPO 8000 SHRA BKN013=
200904230230 METAR LMML NIL=
200904230215 METAR LMML 230215Z 24005KT 210V290 9999 SCT009 SCT120 13/12
                        Q1010 TEMPO 8000 SHRA BKN013=
200904230200 METAR LMML NIL=
200904230145 METAR LMML 230145Z 25005KT 190V290 9999 SCT010 SCT120 13/12
                        Q1010 TEMPO BKN013=
200904230130 METAR LMML NIL=
200904230115 METAR LMML 230115Z 24005KT 200V280 9999 FEW012 SCT024 13/12
                        Q1010 TEMPO BKN013=
200904230100 METAR LMML NIL=
200904230045 METAR LMML 230045Z 24005KT 200V290 9999 FEW020 SCT120 13/12
                        Q1010 TEMPO BKN013=
200904230030 METAR LMML NIL=
200904230015 METAR LMML 230015Z 25006KT 210V290 9999 FEW012 SCT060 13/12
                        Q1010 TEMPO BKN013=
200904230000 METAR LMML NIL=
200904222345 METAR LMML 222345Z 25006KT 210V280 9999 FEW010 SCT049 13/12
                        Q1010 TEMPO BKN013=
200904222330 METAR LMML NIL=
200904222315 METAR LMML 222315Z 25004KT 210V290 9999 SCT010 BKN049 13/12
                        Q1011 RESH TEMPO BKN013=
200904222300 METAR LMML NIL=
200904222245 METAR LMML 222245Z VRB03KT 9999 SCT020 BKN049 13/12 Q1011
                        RESH TEMPO 5000 TSRA BKN013CB=
200904222230 METAR LMML NIL=
200904222215 METAR LMML 222215Z 25008KT 200V280 9999 SHRA BKN010 SCT060
                        13/12 Q1011 TEMPO 5000 TSRA BKN013CB=
200904222200 METAR LMML NIL=
200904222145 METAR LMML 222145Z VRB02KT 9999 SCT011 BKN060 14/12 Q1011
                        TEMPO 5000 TSRA BKN013CB=
200904222130 METAR LMML NIL=
200904222115 METAR LMML 222115Z VRB03KT 9999 SCT012 BKN060 14/12 Q1011
                        TEMPO 7000 SHRA BKN013TCU=
200904222100 METAR LMML NIL=
200904222045 METAR LMML 222045Z 24004KT 200V280 9999 SCT011 BKN060 14/12
                        Q1011 TEMPO BKN013=
200904222030 METAR LMML NIL=
200904222015 METAR LMML 222015Z 24005KT 200V290 9999 FEW016 BKN060 14/12
                        Q1011 TEMPO BKN013=
200904222000 METAR LMML NIL=
200904221945 METAR LMML 221945Z VRB02KT 9999 FEW026 BKN060 13/11 Q1011
                        TEMPO BKN013=
200904221930 METAR LMML NIL=
200904221915 METAR LMML 221915Z 27005KT 230V300 9999 FEW013 SCT060 13/11
                        Q1010 TEMPO BKN013=
200904221900 METAR LMML NIL=
200904221845 METAR LMML 221845Z 26008KT 210V300 9999 SCT013 14/12 Q1010
                        NOSIG=
200904221830 METAR LMML NIL=
200904221815 METAR LMML 221815Z 26008KT 220V300 9999 BKN014 14/12 Q1010
                        NOSIG=
200904221800 METAR LMML NIL=
200904221745 METAR LMML 221745Z 26009KT 220V300 9999 BKN014 14/12 Q1010
                        NOSIG=
200904221730 METAR LMML NIL=
200904221715 METAR LMML 221715Z 25008KT 210V290 9999 BKN013 14/12 Q1009
                        NOSIG=
200904221700 METAR LMML NIL=
200904221645 METAR LMML 221645Z 25010KT 210V300 9999 BKN015 SCT250 15/12
                        Q1009 NOSIG=
200904221630 METAR LMML NIL=
200904221615 METAR LMML 221615Z 25011KT 210V290 9999 BKN015 SCT250 15/12
                        Q1009 NOSIG=
200904221600 METAR LMML NIL=
200904221545 METAR LMML 221545Z 25010KT 210V280 9999 BKN014 SCT250 15/12
                        Q1009 NOSIG=
200904221530 METAR LMML NIL=
200904221515 METAR LMML 221515Z 25011KT 210V280 9999 BKN013 15/12 Q1009
                        NOSIG=
200904221500 METAR LMML NIL=
200904221445 METAR LMML 221445Z 25011KT 210V300 9999 BKN013 16/13 Q1009
                        NOSIG=
200904221430 METAR LMML NIL=
200904221415 METAR LMML 221415Z 26016KT 230V290 9999 SCT014 16/12 Q1009
                        TEMPO BKN014=
200904221400 METAR LMML NIL=
200904221345 METAR LMML 221345Z 26014KT 210V300 9999 SCT014 16/13 Q1009
                        NOSIG=
200904221330 METAR LMML NIL=
200904221315 METAR LMML 221315Z 26013KT 210V290 9999 BKN014 16/13 Q1009
                        NOSIG=
200904221300 METAR LMML NIL=
200904221230 METAR LMML NIL=
200904221215 METAR LMML 221215Z 26016KT 200V300 9999 BKN014 16/13 Q1009
                        NOSIG=
200904221200 METAR LMML NIL=
200904221145 METAR LMML 221145Z 26016KT 220V290 9999 BKN014 17/13 Q1010
                        NOSIG=
200904221130 METAR LMML NIL=
200904221115 METAR LMML 221115Z 26015KT 200V300 9999 BKN014 16/13 Q1010
                        NOSIG=
200904221100 METAR LMML NIL=
200904221045 METAR LMML 221045Z 26014KT 220V310 9999 BKN013 16/13 Q1010
                        TEMPO 8000 SHRA=
200904221030 METAR LMML NIL=
200904221015 METAR LMML 221015Z 27015KT 220V320 9000 BKN014 SCT080 16/13
                        Q1010 NOSIG=
200904221000 METAR LMML NIL=
200904220945 METAR LMML 220945Z 27015KT 220V300 9000 FEW010 BKN014 15/14
                        Q1010 NOSIG=
200904220930 LMML NIL=
200904220915 METAR LMML 220915Z 27016KT 9000 -SHRA FEW009 BKN014 15/13
                        Q1010 NOSIG=
200904220900 METAR LMML NIL=
200904220845 METAR LMML 220845Z 26016KT 230V300 9000 FEW009 BKN013 15/13
                        Q1010 NOSIG=
200904220830 METAR LMML NIL=
200904220815 METAR LMML 220815Z 26016KT 210V290 9000 BKN012 15/13 Q1009
                        NOSIG=
200904220800 METAR LMML NIL=
200904220745 METAR LMML 220745Z 26016KT 210V310 9000 BKN011 15/13 Q1009
                        NOSIG=
200904220730 METAR LMML NIL=
200904220715 METAR LMML 220715Z 26012KT 220V290 9000 FEW009 BKN013 14/13
                        Q1009 TEMPO 9999=
200904220700 METAR LMML NIL=
200904220645 METAR LMML 220645Z 26014KT 220V290 7000 BKN012 BKN050 14/12
                        Q1009 TEMPO 9999=
200904220630 METAR LMML NIL=
200904220615 METAR LMML 220615Z 27014KT 230V310 9000 BKN014 SCT050 14/13
                        Q1009 TEMPO BKN010=
200904220600 METAR LMML NIL=
200904220545 METAR LMML 220545Z 25010KT 220V300 9999 SCT011 BKN017 BKN050
                        13/12 Q1009 TEMPO 7000 SHRA BKN010
                        BKN015=
200904220532 SPECI LMML 220532Z 25010KT 210V280 9999 SCT010 BKN017 BKN060
                        13/12 Q1009 TEMPO 8000 SHRA BKN014=
200904220530 METAR LMML NIL=
200904220515 METAR LMML 220515Z 25014KT 210V290 5000 -SHRA SCT011 BKN016
                        13/11 Q1009 TEMPO 8000 SHRA BKN014=
200904220500 METAR LMML NIL=
200904220445 METAR LMML 220445Z 25013KT 210V280 9999 BKN017 BKN070 14/11
                        Q1009 NOSIG=
200904220430 METAR LMML NIL=
200904220415 METAR LMML 220415Z 26013KT 220V290 9999 BKN018 BKN025 14/11
                        Q1009 NOSIG=
200904220400 METAR LMML NIL=
200904220345 METAR LMML 220345Z 25010KT 220V290 9999 BKN018 14/11 Q1009
                        NOSIG=
200904220330 METAR LMML NIL=
200904220315 METAR LMML 220315Z 26014KT 220V290 9999 BKN017 14/11 Q1009
                        NOSIG=
200904220300 METAR LMML NIL=
200904220245 METAR LMML 220245Z 27012KT 240V300 9999 BKN017 14/11 Q1009
                        NOSIG=
200904220230 METAR LMML NIL=
200904220215 METAR LMML 220215Z 26013KT 230V290 9999 BKN018 13/11 Q1009
                        NOSIG=
200904220200 METAR LMML NIL=
200904220145 METAR LMML 220145Z 27013KT 9999 BKN018 13/11 Q1009 NOSIG=
200904220130 METAR LMML NIL=
200904220115 METAR LMML 220115Z 27014KT 230V300 9999 BKN018 13/11 Q1010
                        NOSIG=
200904220100 LMML NIL=
200904220045 METAR LMML 220045Z 26011KT 230V310 9999 BKN016 13/11 Q1010
                        NOSIG=
200904220030 METAR LMML NIL=
200904220015 METAR LMML 220015Z 27011KT 240V300 9999 BKN018 13/11 Q1010
                        NOSIG=
200904220000 METAR LMML NIL=
200904212345 METAR LMML 212345Z 27011KT 230V300 9999 BKN019 13/11 Q1011
                        NOSIG=
200904212330 METAR LMML NIL=
200904212315 METAR LMML 212315Z 26012KT 230V290 9999 FEW016 14/11 Q1011
                        NOSIG=
200904212245 METAR LMML 212245Z 27013KT 220V310 9999 SCT019 14/11 Q1011
                        NOSIG=
200904212230 METAR LMML NIL=
200904212215 METAR LMML 212215Z 27012KT 230V300 9999 SCT019 SCT070 13/11
                        Q1011 NOSIG=
200904212200 METAR LMML NIL=
200904212145 METAR LMML 212145Z 27013KT 230V300 9999 FEW024 SCT070 14/11
                        Q1011 NOSIG=
200904212130 METAR LMML NIL=
200904212115 METAR LMML 212115Z 26013KT 230V290 9999 FEW020 BKN027 14/11
                        Q1011 TEMPO 8000 SHRA=
200904212100 METAR LMML NIL=
200904212045 METAR LMML 212045Z 25010KT 200V280 9999 FEW028 BKN034 14/11
                        Q1012 TEMPO 8000 SHRA=
200904212030 METAR LMML NIL=
200904212015 METAR LMML 212015Z 26012KT 230V290 9999 SCT039 14/11 Q1012
                        NOSIG=
200904212000 METAR LMML NIL=
200904211945 METAR LMML 211945Z 26013G23KT 210V290 9999 FEW033 SCT060
                        BKN070 14/11 Q1012 NOSIG=
200904211930 METAR LMML NIL=
200904211915 METAR LMML 211915Z 25013KT 220V290 9999 FEW032 BKN060 BKN070
                        13/11 Q1012 RESHRA NOSIG=
200904211900 METAR LMML NIL=
200904211845 METAR LMML 211845Z 26010KT 230V290 9999 FEW033 SCT050 BKN070
                        13/11 Q1012 RESHRA NOSIG=
200904211830 METAR LMML NIL=
200904211815 METAR LMML 211815Z 27014G26KT 220V300 9999 SHRA FEW016 SCT050
                        BKN070 12/10 Q1012 NOSIG=
200904211800 METAR LMML NIL=
200904211745 METAR LMML 211745Z 25011KT 210V300 9999 FEW024 BKN049 BKN073
                        14/11 Q1011 TEMPO 5000 TSRA SCT015CB=
200904211730 METAR LMML NIL=
200904211715 METAR LMML 211715Z 26014KT 9999 FEW027 BKN045 BKN070 14/11
                        Q1011 TEMPO 8000 SHRA=
200904211700 METAR LMML NIL=
200904211645 METAR LMML 211645Z 26015KT 230V310 9999 FEW025 BKN080 15/10
                        Q1011 TEMPO 8000 SHRA=
200904211630 METAR LMML NIL=
200904211615 METAR LMML 211615Z 26016KT 230V290 9999 FEW022 SCT070 15/11
                        Q1011 NOSIG=
200904211600 METAR LMML NIL=
200904211545 METAR LMML 211545Z 27016KT 220V300 9999 SCT024 15/11 Q1011
                        NOSIG=
200904211530 METAR LMML NIL=
200904211515 METAR LMML 211515Z 27018KT 240V310 9999 SCT021 15/11 Q1011
                        NOSIG=
200904211500 METAR LMML NIL=
200904211445 METAR LMML 211445Z 26017KT 210V300 9999 SCT019 SCT250 15/11
                        Q1011 NOSIG=
200904211430 METAR LMML NIL=
200904211415 METAR LMML 211415Z 27017KT 220V300 9999 SCT020 SCT250 15/11
                        Q1011 NOSIG=
200904211400 METAR LMML NIL=
200904211345 METAR LMML 211345Z 28019KT 230V310 9999 SCT019 BKN250 15/11
                        Q1012 NOSIG=
200904211330 METAR LMML NIL=
200904211315 METAR LMML 211315Z 28019KT 240V310 9999 SCT019 SCT250 16/11
                        Q1012 NOSIG=
200904211300 METAR LMML NIL=
200904211245 METAR LMML 211245Z 27020KT 220V300 9999 BKN018 16/11 Q1012
                        NOSIG=
200904211230 METAR LMML NIL=
200904211215 METAR LMML 211215Z 28018G30KT 240V330 9999 BKN022 16/11 Q1012
                        NOSIG=
200904211200 METAR LMML NIL=
200904211145 METAR LMML 211145Z 29022KT 260V320 9999 BKN024 16/11 Q1012
                        NOSIG=
200904211130 METAR LMML NIL=
200904211115 METAR LMML 211115Z 29019KT 260V320 9999 BKN018 16/11 Q1012
                        NOSIG=
200904211100 METAR LMML NIL=
200904211045 METAR LMML 211045Z 29021KT 220V320 9999 BKN018 16/12 Q1012
                        NOSIG=
200904211030 METAR LMML NIL=
200904211015 METAR LMML 211015Z 28012KT 240V310 9999 FEW018 SCT060 14/12
                        Q1012 NOSIG=
200904211000 METAR LMML NIL=
200904210945 METAR LMML 210945Z 27010KT 240V300 9999 -SHRA BKN018 BKN050
                        13/10 Q1012 TEMPO 8000 SHRA=
200904210930 METAR LMML NIL=
200904210915 METAR LMML 210915Z 28015KT 250V310 9999 -SHRA BKN017 BKN070
                        15/11 Q1013 TEMPO 8000 SHRA=
200904210900 METAR LMML NIL=
200904210845 METAR LMML 210845Z 27012KT 230V310 9999 FEW019 BKN080 16/12
                        Q1012 NOSIG=
200904210830 METAR LMML NIL=
200904210815 METAR LMML 210815Z 28011KT 240V320 9999 FEW019 BKN070 14/11
                        Q1012 NOSIG=
200904210800 METAR LMML NIL=
200904210745 METAR LMML 210745Z 28011KT 250V310 9999 FEW019 BKN070 13/10
                        Q1012 NOSIG=
200904210730 METAR LMML NIL=
200904210715 METAR LMML 210715Z 28010KT 250V310 9999 FEW019 BKN060 13/10
                        Q1013 NOSIG=
200904210700 METAR LMML NIL=
200904210645 METAR LMML 210645Z 29012KT 9999 -RA SCT019 BKN070 12/09 Q1013
                        TEMPO 8000 RA=
200904210630 METAR LMML NIL=
200904210615 METAR LMML 210615Z 27010KT 220V310 9999 SCT020 14/11 Q1012
                        TEMPO 8000 SHRA SCT030TCU=
200904210600 METAR LMML NIL=
200904210545 METAR LMML 210545Z 27008KT 230V300 9999 FEW015 13/11 Q1012
                        TEMPO 8000 SHRA SCT030TCU=
200904210530 METAR LMML NIL=
200904210515 METAR LMML 210515Z 27006KT 230V290 9999 FEW015 13/11 Q1012
                        NOSIG=
200904210500 METAR LMML NIL=
200904210445 METAR LMML 210445Z 27005KT 240V300 9999 FEW020 12/10 Q1012
                        NOSIG=
200904210430 LMML NIL=
200904210400 METAR LMML NIL=
200904210345 METAR LMML 210345Z 27007KT 240V300 9999 FEW020 SCT080 12/09
                        Q1012 NOSIG=
200904210330 METAR LMML NIL=
200904210315 METAR LMML 210315Z 28008KT 250V310 9999 FEW020 SCT080 12/10
                        Q1012 NOSIG=
200904210300 METAR LMML NIL=
200904210245 METAR LMML 210245Z 29009KT 250V310 9999 FEW020 BKN080 13/10
                        Q1012 NOSIG=
200904210230 METAR LMML NIL=
200904210215 METAR LMML 210215Z 29008KT 9999 FEW020 BKN070 13/10 Q1012
                        NOSIG=
200904210200 METAR LMML NIL=
200904210145 METAR LMML 210145Z 29008KT 9999 FEW021 BKN070 13/10 Q1013
                        NOSIG=
200904210130 METAR LMML NIL=
200904210115 METAR LMML 210115Z 29009KT 9999 FEW020 BKN070 13/10 Q1013
                        NOSIG=
200904210100 METAR LMML NIL=
200904210045 METAR LMML 210045Z 29006KT 260V320 9999 FEW020 SCT070 BKN120
                        12/10 Q1013 NOSIG=
200904210030 METAR LMML NIL=
200904210015 METAR LMML 210015Z 29007KT 260V320 9999 FEW012 SCT060 BKN070
                        12/10 Q1013 NOSIG=
200904210000 METAR LMML NIL=
200904202345 METAR LMML 202345Z 29007KT 260V330 CAVOK 12/11 Q1014 NOSIG=
200904202330 METAR LMML NIL=
200904202315 METAR LMML 202315Z 30008KT 9999 FEW026 SCT050 BKN070 13/11
                        Q1014 NOSIG=
200904202245 METAR LMML 202245Z 30006KT 9999 FEW026 SCT050 BKN070 12/11
                        Q1014 NOSIG=
200904202230 METAR LMML NIL=
200904202215 METAR LMML 202215Z 27004KT 230V300 9999 FEW026 SCT044 BKN060
                        12/12 Q1014 NOSIG=
200904202200 METAR LMML NIL=
200904202145 METAR LMML 202145Z VRB03KT 9999 FEW029 SCT038 BKN070 12/11
                        Q1014 NOSIG=
200904202130 METAR LMML NIL=
200904202115 METAR LMML 202115Z 28005KT 250V310 9999 -RA SCT029 SCT050
                        BKN070 12/11 Q1014 NOSIG=
200904202100 METAR LMML NIL=
200904202045 METAR LMML 202045Z 28008KT 9999 -RA FEW008 SCT018 BKN024
                        12/11 Q1014 NOSIG=
200904202030 METAR LMML NIL=
200904202015 METAR LMML 202015Z 28005KT 250V310 9999 -RA BKN014 12/11
                        Q1014 NOSIG=
200904202000 METAR LMML NIL=
200904201945 METAR LMML 201945Z 29006KT 9999 BKN013 13/12 Q1014 NOSIG=
200904201930 METAR LMML NIL=
200904201915 METAR LMML 201915Z 23004KT 180V290 9999 -RA BKN014 13/12
                        Q1014 NOSIG=
200904201900 METAR LMML NIL=
200904201845 METAR LMML 201845Z VRB02KT 9999 SCT017 BKN031 13/12 Q1014
                        NOSIG=
200904201830 METAR LMML NIL=
200904201815 METAR LMML 201815Z VRB01KT 9999 RA SCT022 BKN050 13/12 Q1013
                        NOSIG=
200904201800 METAR LMML NIL=
200904201745 METAR LMML 201745Z VRB01KT 9999 SCT036 BKN045 13/12 Q1013
                        NOSIG=
200904201730 METAR LMML NIL=
200904201715 METAR LMML 201715Z 18004KT 9999 SCT029 BKN045 13/12 Q1013
                        NOSIG=
200904201645 METAR LMML 201645Z 14006KT 120V180 9999 FEW006 BKN031 BKN050
                        13/12 Q1012 NOSIG=
200904201630 METAR LMML NIL=
200904201615 METAR LMML 201615Z 14005KT 9999 -RA FEW036 SCT050 SCT080
                        14/12 Q1012 NOSIG=
200904201600 METAR LMML NIL=
200904201545 METAR LMML 201545Z 15005KT 110V180 9999 FEW020 BKN070 14/13
                        Q1012 NOSIG=
200904201530 METAR LMML NIL=
200904201515 METAR LMML 201515Z 12006KT 090V150 9999 FEW010 BKN080 14/13
                        Q1012 NOSIG=
200904201500 METAR LMML NIL=
200904201445 METAR LMML 201445Z 14005KT 110V170 9999 FEW020 SCT080 BKN120
                        14/13 Q1012 RERA NOSIG=
200904201430 METAR LMML NIL=
200904201415 METAR LMML 201415Z 12007KT 090V150 9999 FEW004 SCT080 BKN120
                        13/12 Q1012 RERA TEMPO 8000 SCT010
                        BKN012=
200904201400 METAR LMML NIL=
200904201345 METAR LMML 201345Z VRB02KT 6000 RA FEW004 OVC050 12/12 Q1013
                        TEMPO 8000 SCT010 BKN012=
200904201330 METAR LMML NIL=
200904201315 METAR LMML 201315Z VRB01KT 7000 RA FEW004 OVC060 12/12 Q1013
                        TEMPO 8000 SCT010 BKN012=
200904201300 METAR LMML NIL=
200904201245 METAR LMML 201245Z VRB02KT 7000 RA FEW004 OVC060 12/11 Q1015
                        TEMPO 8000 SCT010 BKN012=
200904201230 METAR LMML NIL=
200904201215 METAR LMML 201215Z 30004KT 270V330 7000 RA FEW004 OVC080
                        12/11 Q1015 TEMPO 8000 SCT010 BKN012=
200904201200 METAR LMML NIL=
200904201145 METAR LMML 201145Z 31006KT 6000 -RA FEW009 SCT050 OVC130
                        12/11 Q1015 TEMPO 8000 SCT008 BKN015=
200904201130 METAR LMML NIL=
200904201115 METAR LMML 201115Z 30006KT 6000 -RA FEW009 BKN060 OVC130
                        12/11 Q1015 TEMPO 8000 SCT008 BKN015=
200904201101 SPECI LMML 201101Z 31006KT 9999 -RA FEW012 BKN070 BKN130
                        12/11 Q1015 RERA TEMPO 8000 SCT008
                        BKN015=
200904201100 METAR LMML NIL=
200904201045 METAR LMML 201045Z 30005KT 250V330 6000 -RA FEW012 BKN070
                        OVC130 12/10 Q1015 RERA TEMPO 8000
                        SCT008 BKN015=
200904201030 METAR LMML NIL=
200904201015 METAR LMML 201015Z 30010KT 9000 RA NSC 12/10 Q1016 TEMPO
                        8000 SCT008 BKN015=
200904201000 METAR LMML NIL=
200904200945 METAR LMML 200945Z 29009KT 9999 -RA FEW011 BKN065 OVC130
                        12/10 Q1016 TEMPO 8000 SCT008 BKN015=
200904200930 METAR LMML NIL=
200904200915 METAR LMML 200915Z 27010KT 220V300 9999 -RA FEW012 BKN070
                        OVC130 13/10 Q1016 TEMPO 8000 SCT008
                        BKN015=
200904200900 METAR LMML NIL=
200904200845 METAR LMML 200845Z 24008KT 200V290 9999 -RA FEW010 BKN070
                        14/12 Q1016 TEMPO 8000 SCT008 BKN015=
200904200830 METAR LMML NIL=
200904200815 METAR LMML 200815Z 26007KT 230V300 9999 -RA FEW008 BKN080
                        14/13 Q1016 TEMPO 8000 SCT008 BKN015=
200904200800 METAR LMML NIL=
200904200745 METAR LMML 200745Z VRB03KT 9999 FEW012 BKN080 14/13 Q1015
                        NOSIG=
200904200730 METAR LMML NIL=
200904200715 METAR LMML 200715Z 26004KT 200V290 9999 FEW008 BKN090 14/13
                        Q1015 TEMPO 5000 BKN008=
200904200700 METAR LMML NIL=
200904200645 METAR LMML 200645Z 24004KT 200V290 9000 -RA SCT008 BKN090
                        14/13 Q1015 TEMPO 5000 BKN008=
200904200630 METAR LMML NIL=
200904200615 METAR LMML 200615Z VRB03KT 9000 FEW012 BKN110 14/13 Q1014
                        NOSIG=
200904200600 METAR LMML NIL=
200904200545 METAR LMML 200545Z VRB02KT 9999 FEW020 BKN110 13/12 Q1014
                        NOSIG=
200904200530 METAR LMML NIL=
200904200515 METAR LMML 200515Z VRB02KT CAVOK 12/12 Q1014 NOSIG=
200904200500 METAR LMML NIL=
200904200445 METAR LMML 200445Z 21004KT CAVOK 12/11 Q1013 NOSIG=
200904200430 METAR LMML NIL=
200904200415 METAR LMML 200415Z VRB02KT CAVOK 12/11 Q1013 NOSIG=
200904200400 METAR LMML NIL=
200904200345 METAR LMML 200345Z 22004KT 9999 FEW012 BKN130 BKN250 11/11
                        Q1013 NOSIG=
200904200330 METAR LMML NIL=
200904200315 METAR LMML 200315Z 29004KT 260V320 9999 FEW012 BKN250 11/11
                        Q1013 NOSIG=
200904200300 METAR LMML NIL=
200904200245 METAR LMML 200245Z VRB03KT 9999 FEW012 BKN250 12/11 Q1014
                        NOSIG=
200904200230 METAR LMML NIL=
200904200215 METAR LMML 200215Z 23004KT 9999 FEW012 BKN250 11/11 Q1014
                        NOSIG=
200904200200 METAR LMML NIL=
200904200145 METAR LMML 200145Z 24004KT 9999 FEW012 SCT250 11/10 Q1014
                        NOSIG=
200904200130 METAR LMML NIL=
200904200115 METAR LMML 200115Z 28004KT 9999 FEW012 SCT250 12/11 Q1014
                        NOSIG=
200904200100 METAR LMML NIL=
200904200045 METAR LMML 200045Z VRB03KT 9999 FEW015 SCT120 12/11 Q1014
                        NOSIG=
200904200030 METAR LMML NIL=
200904200015 METAR LMML 200015Z VRB03KT 9999 FEW015 SCT120 12/11 Q1014
                        NOSIG=
200904200000 METAR LMML NIL=
200904192345 METAR LMML 192345Z VRB03KT 9999 FEW015 SCT120 12/11 Q1015
                        NOSIG=
200904192330 METAR LMML NIL=
200904192315 METAR LMML 192315Z 29004KT 250V310 9999 FEW015 SCT120 12/11
                        Q1015 NOSIG=
200904192300 METAR LMML NIL=
200904192245 METAR LMML 192245Z 28004KT 250V320 9999 FEW015 SCT250 12/11
                        Q1015 NOSIG=
200904192230 METAR LMML NIL=
200904192215 METAR LMML 192215Z 29004KT 9999 FEW015 SCT250 13/11 Q1015
                        NOSIG=
200904192200 METAR LMML NIL=
200904192145 METAR LMML 192145Z 32004KT 9999 FEW015 SCT250 13/11 Q1015
                        NOSIG=
200904192130 METAR LMML NIL=
200904192115 METAR LMML 192115Z VRB03KT 9999 FEW015 SCT250 13/11 Q1016
                        NOSIG=
200904192100 METAR LMML NIL=
200904192045 METAR LMML 192045Z 31004KT 9999 FEW015 SCT250 13/11 Q1016
                        NOSIG=
200904192030 METAR LMML NIL=
200904192015 METAR LMML 192015Z 30006KT 9999 FEW015 SCT250 13/12 Q1016
                        NOSIG=
200904192000 METAR LMML NIL=
200904191945 METAR LMML 191945Z 29007KT 9999 FEW015 SCT250 14/12 Q1016
                        NOSIG=
200904191930 METAR LMML NIL=
200904191915 METAR LMML 191915Z 29008KT 260V320 9999 FEW015 BKN250 14/12
                        Q1015 NOSIG=
200904191900 METAR LMML NIL=
200904191845 METAR LMML 191845Z 29011KT 9999 FEW015 SCT250 14/11 Q1015
                        NOSIG=
200904191830 METAR LMML NIL=
200904191815 METAR LMML 191815Z 29010KT 250V320 9999 FEW015 BKN250 14/11
                        Q1015 NOSIG=
200904191800 METAR LMML NIL=
200904191745 METAR LMML 191745Z 29010KT 9999 FEW015 BKN250 14/11 Q1015
                        NOSIG=
200904191730 METAR LMML NIL=
200904191715 METAR LMML 191715Z 29009KT 250V330 9999 FEW016 BKN250 15/12
                        Q1014 NOSIG=
200904191700 METAR LMML NIL=
200904191645 METAR LMML 191645Z 30011KT 9999 FEW015 BKN250 16/13 Q1014
                        NOSIG=
200904191630 METAR LMML NIL=
200904191615 METAR LMML 191615Z 32009KT 290V350 9999 FEW020 BKN250 17/13
                        Q1014 NOSIG=
200904191600 METAR LMML NIL=
200904191545 METAR LMML 191545Z 31010KT 9999 FEW020 BKN250 17/13 Q1013
                        NOSIG=
200904191530 METAR LMML NIL=
200904191515 METAR LMML 191515Z 30013KT 9999 FEW020 BKN250 16/13 Q1013
                        NOSIG=
200904191500 METAR LMML NIL=
200904191445 METAR LMML 191445Z 31014KT 9999 FEW020 BKN250 17/13 Q1013
                        NOSIG=
200904191430 METAR LMML NIL=
200904191415 METAR LMML 191415Z 29012KT 240V330 9999 FEW020 BKN250 17/13
                        Q1013 NOSIG=
200904191400 METAR LMML NIL=
200904191345 METAR LMML 191345Z 29012KT 240V330 9999 FEW022 BKN250 19/13
                        Q1013 NOSIG=
200904191330 METAR LMML NIL=
200904191315 METAR LMML 191315Z 30011KT 250V340 9000 FEW020 BKN250 19/13
                        Q1013 NOSIG=
200904191245 METAR LMML 191245Z 29012KT 250V320 9000 SCT018 BKN250 19/13
                        Q1013 NOSIG=
200904191215 METAR LMML 191215Z 30012KT 260V330 9000 SCT018 SCT250 19/14
                        Q1013 NOSIG=
200904191200 METAR LMML NIL=
200904191145 METAR LMML 191145Z 30011KT 270V330 7000 SCT016 19/14 Q1013
                        NOSIG=
200904191130 METAR LMML NIL=
200904191115 METAR LMML 191115Z 29009KT 250V330 7000 BKN016 19/14 Q1012
                        BECMG 9000=
200904191100 METAR LMML NIL=
200904191045 METAR LMML 191045Z 31009KT 270V350 7000 BKN017 19/15 Q1012
                        BECMG 9000=
200904191030 METAR LMML NIL=
200904191015 METAR LMML 191015Z 32008KT 280V360 7000 BKN017 19/14 Q1013
                        BECMG 9000=
200904191000 METAR LMML NIL=
200904190945 METAR LMML 190945Z 33008KT 270V360 7000 BKN014 18/15 Q1012
                        BECMG 9000=
200904190930 METAR LMML NIL=
200904190915 METAR LMML 190915Z 32007KT 280V340 7000 BKN012 17/14 Q1012
                        BECMG 9000=
200904190900 METAR LMML NIL=
200904190845 METAR LMML 190845Z 33006KT 300V010 6000 SCT013 BKN020 18/15
                        Q1012 BECMG 9000=
200904190830 METAR LMML NIL=
200904190815 METAR LMML 190815Z 33005KT 290V010 6000 SCT013 BKN250 17/16
                        Q1012 BECMG 9000=
200904190800 METAR LMML NIL=
200904190745 METAR LMML 190745Z 33004KT 280V010 4000 BR BKN009 BKN250
                        17/16 Q1012 BECMG 7000 FEW010=
200904190730 METAR LMML NIL=
200904190715 METAR LMML 190715Z 33004KT 290V010 4000 BR FEW009 BKN250
                        16/16 Q1011 BECMG 5000=
200904190700 METAR LMML NIL=
200904190645 METAR LMML 190645Z VRB03KT 3500 BR FEW003 FEW250 15/15 Q1011
                        BECMG 5000=
200904190615 METAR LMML 190615Z 31005KT 3000 BR FEW002 SCT250 15/15 Q1011
                        BECMG 5000=
200904190545 METAR LMML 190545Z VRB03KT 3000 BR FEW005 14/14 Q1011 BECMG
                        5000=
200904190515 METAR LMML 190515Z VRB03KT 2000 BR BKN007 14/14 Q1011 BECMG
                        5000=
200904190500 METAR LMML NIL=
200904190445 METAR LMML 190445Z VRB01KT 2000 BR SCT007 SCT033 14/13 Q1011
                        TEMPO 1500 BR BKN003=
200904190430 METAR LMML NIL=
200904190415 METAR LMML 190415Z VRB02KT 2000 BR BKN004 14/14 Q1011 TEMPO
                        1500 BR BKN003=
200904190400 METAR LMML NIL=
200904190345 METAR LMML 190345Z 31004KT 2000 BR BKN003 SCT120 13/13 Q1010
                        TEMPO 1500 BR BKN003=
200904190330 METAR LMML NIL=
200904190315 METAR LMML 190315Z VRB01KT 2000 BR NSC 13/13 Q1010 TEMPO
                        1500 BR=
200904190300 METAR LMML NIL=
200904190245 METAR LMML 190245Z VRB01KT 4000 BR NSC 14/13 Q1010 NOSIG=
200904190230 METAR LMML NIL=
200904190215 METAR LMML 190215Z VRB02KT 5000 BR FEW006 SCT120 BKN250 14/13
                        Q1011 TEMPO 4000 BR BKN005=
200904190200 METAR LMML NIL=
200904190145 METAR LMML 190145Z 06004KT 020V090 5000 BR FEW006 SCT120
                        BKN250 14/14 Q1011 TEMPO 4000 BR
                        BKN005=
200904190130 METAR LMML NIL=
200904190115 METAR LMML 190115Z 07006KT 020V100 5000 BR NSC 15/14 Q1011
                        TEMPO 4000 BR BKN005=
200904190100 METAR LMML NIL=
200904190045 METAR LMML 190045Z VRB03KT 5000 BR FEW006 SCT120 BKN250 14/14
                        Q1011 TEMPO 4000 BR BKN005=
200904190030 METAR LMML NIL=
200904190015 METAR LMML 190015Z VRB02KT 5000 BR FEW005 BKN250 14/14 Q1011
                        TEMPO 4000 BR BKN005=
200904190000 METAR LMML NIL=
200904182345 METAR LMML 182345Z 06004KT 6000 SCT005 SCT120 BKN250 15/14
                        Q1011 TEMPO 5000 BR BKN005=
200904182330 METAR LMML NIL=
200904182315 METAR LMML 182315Z VRB03KT 6000 SCT005 SCT120 BKN250 15/14
                        Q1011 TEMPO 5000 BR BKN005=
200904182300 METAR LMML NIL=
200904182245 METAR LMML 182245Z 08007KT 050V130 6000 SCT006 BKN120 15/14
                        Q1012 TEMPO 5000 BR BKN005=
200904182230 METAR LMML NIL=
200904182215 METAR LMML 182215Z 09008KT 050V120 6000 FEW006 BKN120 15/14
                        Q1012 TEMPO 5000 BR BKN005=
200904182200 METAR LMML NIL=
200904182145 METAR LMML 182145Z 08008KT 050V110 7000 FEW006 15/14 Q1011
                        TEMPO 5000 BR BKN005=
200904182130 METAR LMML NIL=
200904182115 METAR LMML 182115Z 07011KT 030V110 6000 BKN006 15/14 Q1011
                        TEMPO 5000 BR BKN005=
200904182100 METAR LMML NIL=
200904182045 METAR LMML 182045Z 07012KT 050V120 6000 BKN006 SCT120 15/14
                        Q1011 TEMPO 5000 BR BKN005=
200904182030 METAR LMML NIL=
200904182015 METAR LMML 182015Z 06013KT 020V110 6000 BKN006 SCT120 15/14
                        Q1011 TEMPO BKN005=
200904182000 LMML NIL=
200904181945 METAR LMML 181945Z 05016KT 020V080 6000 BKN007 BKN120 15/14
                        Q1010 NOSIG=
200904181930 METAR LMML NIL=
200904181915 METAR LMML 181915Z 05013KT 020V080 6000 BKN006 BKN120 15/14
                        Q1010 BECMG 5000 RA BKN005=
200904181900 METAR LMML NIL=
200904181845 METAR LMML 181845Z 05013KT 020V080 6000 BKN006 BKN110 15/14
                        Q1011 BECMG 5000 RA BKN005=
200904181830 METAR LMML NIL=
200904181815 METAR LMML 181815Z 04009G19KT 360V080 6000 FEW006 BKN110
                        15/14 Q1010 BECMG 5000 RA BKN005=
200904181800 METAR LMML NIL=
200904181745 METAR LMML 181745Z 06011KT 030V100 6000 FEW007 BKN110 15/14
                        Q1010 BECMG 5000 BR=
200904181730 METAR LMML NIL=
200904181715 METAR LMML 181715Z 07012KT 030V100 7000 FEW009 BKN110 15/14
                        Q1010 BECMG 5000 BR=
200904181700 METAR LMML NIL=
200904181645 METAR LMML 181645Z 07010KT 030V110 9000 FEW009 BKN110 15/14
                        Q1010 NOSIG=
200904181630 METAR LMML NIL=
200904181615 METAR LMML 181615Z 05009KT 010V100 9000 FEW009 BKN110 16/14
                        Q1010 NOSIG=
200904181600 METAR LMML NIL=
200904181545 METAR LMML 181545Z 04009KT 010V070 9000 FEW009 BKN110 16/14
                        Q1011 NOSIG=
200904181530 METAR LMML NIL=
200904181515 METAR LMML 181515Z 06009KT 020V090 9000 FEW009 BKN120 17/14
                        Q1011 NOSIG=
200904181500 METAR LMML NIL=
200904181445 METAR LMML 181445Z 06009KT 020V090 9000 FEW010 BKN120 17/14
                        Q1011 NOSIG=
200904181430 METAR LMML NIL=
200904181415 METAR LMML 181415Z 05009KT 020V090 9000 FEW010 BKN120 17/14
                        Q1011 NOSIG=
200904181400 METAR LMML NIL=
200904181345 METAR LMML 181345Z 07008KT 040V120 9000 FEW011 BKN120 17/14
                        Q1011 NOSIG=
200904181330 METAR LMML NIL=
200904181315 METAR LMML 181315Z 10008KT 070V140 9000 SCT010 BKN100 17/14
                        Q1011 TEMPO BKN009=
200904181300 METAR LMML NIL=
200904181245 METAR LMML 181245Z 11010KT 070V140 9000 SCT012 BKN100 16/14
                        Q1012 TEMPO BKN012=
200904181230 METAR LMML NIL=
200904181215 METAR LMML 181215Z 13009KT 100V160 9000 -SHRA SCT013 SCT120
                        BKN250 16/14 Q1012 NOSIG=
200904181200 METAR LMML NIL=
200904181145 METAR LMML 181145Z VRB02KT 9000 SCT012 SCT100 BKN250 16/13
                        Q1012 NOSIG=
200904181130 METAR LMML NIL=
200904181115 METAR LMML 181115Z 07009KT 020V110 9999 SCT013 SCT120 BKN250
                        16/14 Q1011 NOSIG=
200904181100 METAR LMML NIL=
200904181045 METAR LMML 181045Z 10018KT 9999 FEW012 SCT120 BKN250 15/13
                        Q1010 NOSIG=
200904181030 METAR LMML NIL=
200904181015 METAR LMML 181015Z 11018KT 9999 FEW011 SCT100 BKN250 16/13
                        Q1011 NOSIG=
200904181000 METAR LMML NIL=
200904180945 METAR LMML 180945Z 11016KT 080V150 9999 FEW012 SCT100 BKN250
                        16/13 Q1012 NOSIG=
200904180930 METAR LMML NIL=
200904180915 METAR LMML 180915Z 11017KT 070V130 9999 FEW020 SCT120 BKN250
                        16/13 Q1011 NOSIG=
200904180900 METAR LMML NIL=
200904180845 METAR LMML 180845Z 12017KT 090V150 9999 FEW020 BKN110 BKN250
                        16/13 Q1012 NOSIG=
200904180830 METAR LMML NIL=
200904180815 METAR LMML 180815Z 12014KT 090V150 CAVOK 16/13 Q1012 NOSIG=
200904180800 METAR LMML NIL=
200904180745 METAR LMML 180745Z 10013KT 060V140 CAVOK 15/13 Q1011 NOSIG=
200904180730 METAR LMML NIL=
200904180715 METAR LMML 180715Z 10015KT 060V130 CAVOK 15/13 Q1010 NOSIG=
200904180700 METAR LMML NIL=
200904180645 METAR LMML 180645Z 09014KT 060V120 CAVOK 15/13 Q1010 NOSIG=
200904180630 METAR LMML NIL=
200904180615 METAR LMML 180615Z 08013KT CAVOK 14/13 Q1011 NOSIG=
200904180600 METAR LMML NIL=
200904180545 METAR LMML 180545Z 06005KT 020V080 CAVOK 14/13 Q1012 NOSIG=
200904180530 METAR LMML NIL=
200904180515 METAR LMML 180515Z 12005KT 080V170 CAVOK 14/13 Q1013 NOSIG=
200904180500 METAR LMML NIL=
200904180445 METAR LMML 180445Z 08008KT CAVOK 14/12 Q1011 NOSIG=
200904180430 METAR LMML NIL=
200904180415 METAR LMML 180415Z 07007KT 040V100 CAVOK 14/12 Q1011 NOSIG=
200904180400 METAR LMML NIL=
200904180345 METAR LMML 180345Z 06005KT CAVOK 13/12 Q1012 NOSIG=
200904180330 METAR LMML NIL=
200904180315 METAR LMML 180315Z 05005KT 020V080 CAVOK 13/12 Q1012 NOSIG=
200904180300 METAR LMML NIL=
200904180245 METAR LMML 180245Z VRB01KT CAVOK 12/11 Q1012 NOSIG=
200904180230 METAR LMML NIL=
200904180215 METAR LMML 180215Z VRB02KT CAVOK 12/11 Q1012 NOSIG=
200904180200 METAR LMML NIL=
200904180145 METAR LMML 180145Z VRB03KT CAVOK 12/11 Q1012 NOSIG=
200904180130 METAR LMML NIL=
200904180115 METAR LMML 180115Z 00000KT CAVOK 13/11 Q1013 NOSIG=
200904180100 METAR LMML NIL=
200904180045 METAR LMML 180045Z VRB03KT CAVOK 14/12 Q1013 NOSIG=
200904180030 METAR LMML NIL=
200904180015 METAR LMML 180015Z VRB02KT CAVOK 14/12 Q1013 NOSIG=
200904180000 METAR LMML NIL=
200904172345 METAR LMML 172345Z 08010KT CAVOK 14/12 Q1012 NOSIG=
200904172330 METAR LMML NIL=
200904172315 METAR LMML 172315Z 10004KT 070V130 CAVOK 14/12 Q1013 NOSIG=
200904172300 METAR LMML NIL=
200904172245 METAR LMML 172245Z 13005KT CAVOK 14/12 Q1013 NOSIG=
200904172230 METAR LMML NIL=
200904172215 METAR LMML 172215Z 10007KT 070V140 CAVOK 15/12 Q1013 NOSIG=
200904172200 METAR LMML NIL=
200904172145 METAR LMML 172145Z 10011KT 070V130 CAVOK 15/12 Q1013 NOSIG=
200904172130 METAR LMML NIL=
200904172115 METAR LMML 172115Z 12014KT 090V150 CAVOK 15/12 Q1013 NOSIG=
200904172100 METAR LMML NIL=
200904172045 METAR LMML 172045Z 11015KT CAVOK 15/13 Q1012 NOSIG=
200904172030 METAR LMML NIL=
200904172015 METAR LMML 172015Z 12012KT CAVOK 15/13 Q1013 NOSIG=
200904172000 METAR LMML NIL=
200904171945 METAR LMML 171945Z 11013KT CAVOK 15/13 Q1013 NOSIG=
200904171930 METAR LMML NIL=
200904171915 METAR LMML 171915Z 10011KT 070V140 CAVOK 15/13 Q1013 NOSIG=
200904171900 METAR LMML NIL=
200904171845 METAR LMML 171845Z 11011KT CAVOK 15/12 Q1013 NOSIG=
200904171830 METAR LMML NIL=
200904171815 METAR LMML 171815Z 10009KT CAVOK 15/12 Q1013 NOSIG=
200904171800 METAR LMML NIL=
200904171745 METAR LMML 171745Z 10012KT 070V140 CAVOK 16/12 Q1012 NOSIG=
200904171730 METAR LMML NIL=
200904171715 METAR LMML 171715Z 10009KT CAVOK 16/12 Q1013 NOSIG=
200904171700 METAR LMML NIL=
200904171645 METAR LMML 171645Z 10010KT 060V130 CAVOK 16/12 Q1013 NOSIG=
200904171630 METAR LMML NIL=
200904171615 METAR LMML 171615Z 10009KT 060V130 CAVOK 16/12 Q1013 NOSIG=
200904171600 METAR LMML NIL=
200904171545 METAR LMML 171545Z 09009KT CAVOK 17/12 Q1014 NOSIG=
200904171530 METAR LMML NIL=
200904171515 METAR LMML 171515Z 09011KT CAVOK 18/12 Q1014 NOSIG=
200904171500 METAR LMML NIL=
200904171445 METAR LMML 171445Z 08011KT CAVOK 18/12 Q1014 NOSIG=
200904171430 METAR LMML NIL=
200904171415 METAR LMML 171415Z 11011KT 060V130 9999 FEW030 SCT250 18/10
                        Q1014 NOSIG=
200904171400 METAR LMML NIL=
200904171345 METAR LMML 171345Z 11010KT 080V150 9999 FEW030 SCT250 18/10
                        Q1014 NOSIG=
200904171330 METAR LMML NIL=
200904171315 METAR LMML 171315Z 12008KT 080V160 9999 FEW030 SCT250 19/09
                        Q1015 NOSIG=
200904171300 METAR LMML NIL=
200904171245 METAR LMML 171245Z 12008KT 080V150 9999 FEW030 19/11 Q1015
                        NOSIG=
200904171230 METAR LMML NIL=
200904171215 METAR LMML 171215Z 13008KT 090V190 9999 FEW020 19/12 Q1016
                        NOSIG=
200904171200 METAR LMML NIL=
200904171145 METAR LMML 171145Z 13008KT 100V180 9999 FEW020 20/11 Q1016
                        NOSIG=
200904171130 METAR LMML NIL=
200904171115 METAR LMML 171115Z 14006KT 050V240 9999 FEW020 19/11 Q1016
                        NOSIG=
200904171100 METAR LMML NIL=
200904171045 METAR LMML 171045Z 16005KT 100V240 9999 FEW020 19/11 Q1017
                        NOSIG=
200904171030 METAR LMML NIL=
200904171015 METAR LMML 171015Z 13006KT 090V220 9999 FEW020 19/10 Q1017
                        NOSIG=
200904171000 METAR LMML NIL=
200904170945 METAR LMML 170945Z 12006KT 060V150 9999 FEW020 19/10 Q1017
                        NOSIG=
200904170930 METAR LMML NIL=
200904170915 METAR LMML 170915Z 04004KT 350V120 9999 FEW019 19/14 Q1017
                        NOSIG=
200904170900 METAR LMML NIL=
200904170845 METAR LMML 170845Z 03004KT 350V070 9999 FEW011 19/16 Q1017
                        NOSIG=
200904170830 METAR LMML NIL=
200904170815 METAR LMML 170815Z VRB03KT 9999 FEW011 17/16 Q1017 NOSIG=
200904170800 METAR LMML NIL=
200904170745 METAR LMML 170745Z VRB03KT 9999 FEW005 17/16 Q1017 NOSIG=
200904170730 METAR LMML NIL=
200904170715 METAR LMML 170715Z VRB02KT 6000 FEW005 16/16 Q1016 BECMG
                        9999=
200904170700 METAR LMML NIL=
200904170645 METAR LMML 170645Z VRB02KT 4500 BR FEW002 15/15 Q1016 BECMG
                        7000=
200904170635 LMML 170635Z VRB03KT 4000 BR SCT002 15/15 Q1016 BECMG 7000=
200904170630 METAR LMML NIL=
200904170615 METAR LMML 170615Z VRB02KT 7000 2500NW BR SCT002 14/14 Q1016
                        BECMG 5000=
200904170605 SPECI LMML 170605Z VRB02KT 2000 BR SCT002 14/14 Q1016 BECMG
                        5000=
200904170600 METAR LMML NIL=
200904170545 METAR LMML 170545Z VRB01KT 1200 R13/P1500U BR FEW001 13/12
                        Q1016 BECMG 5000 SCT001=
200904170530 METAR LMML NIL=
200904170515 METAR LMML 170515Z VRB01KT 0400 R13/0389V1157U FG FEW001
                        11/11 Q1016 BECMG 1000 SCT001=
200904170500 METAR LMML NIL=
200904170445 METAR LMML 170445Z VRB02KT 0050 R13/0250N FG FEW001 10/10
                        Q1015 TEMPO BKN001=
200904170430 METAR LMML NIL=
200904170415 METAR LMML 170415Z VRB02KT 0100 R13/0409V0543N FG FEW001
                        10/10 Q1015 TEMPO BKN001=
200904170400 METAR LMML NIL=
200904170345 METAR LMML 170345Z VRB01KT 0100 R13/0275N FG FEW001 11/10
                        Q1015 TEMPO BKN001=
200904170330 METAR LMML NIL=
200904170315 METAR LMML 170315Z VRB01KT 0100 R13/0382V0571N FG FEW001
                        12/11 Q1015 TEMPO BKN001=
200904170300 METAR LMML NIL=
200904170245 METAR LMML 170245Z 13004KT 0100 R13/0300N FG FEW001 12/11
                        Q1015 TEMPO BKN001=
200904170230 METAR LMML NIL=
200904170215 METAR LMML 170215Z 14004KT 0100 R13/0355V0592N FG FEW001
                        12/12 Q1016 TEMPO BKN001=
200904170205 SPECI LMML 170205Z 14004KT 0200 R13/0355V0625D FG NSC 12/12
                        Q1016 NOSIG=
200904170200 METAR LMML NIL=
200904170145 METAR LMML 170145Z VRB03KT 7000 MIFG NSC 13/13 Q1016 NOSIG=
200904170130 METAR LMML NIL=
200904170115 METAR LMML 170115Z VRB03KT 9000 NSC 13/13 Q1016 NOSIG=
200904170100 METAR LMML NIL=
200904170045 METAR LMML 170045Z 16004KT CAVOK 14/13 Q1016 NOSIG=
200904170030 METAR LMML NIL=
200904170015 METAR LMML 170015Z 16005KT CAVOK 14/13 Q1016 NOSIG=
200904170000 METAR LMML NIL=
200904162345 METAR LMML 162345Z 16005KT CAVOK 14/13 Q1016 NOSIG=
200904162330 METAR LMML NIL=
200904162315 METAR LMML 162315Z 16005KT CAVOK 14/13 Q1016 NOSIG=
200904162245 METAR LMML 162245Z 16005KT CAVOK 14/13 Q1016 NOSIG=
200904162230 METAR LMML NIL=
200904162215 METAR LMML 162215Z 15007KT CAVOK 14/13 Q1016 NOSIG=
200904162145 METAR LMML 162145Z 16004KT 120V190 CAVOK 14/13 Q1016 NOSIG=
200904162130 METAR LMML NIL=
200904162115 METAR LMML 162115Z 15006KT CAVOK 14/13 Q1016 NOSIG=
200904162045 METAR LMML 162045Z 14005KT CAVOK 13/12 Q1017 NOSIG=
200904162030 METAR LMML NIL=
200904162015 METAR LMML 162015Z 14005KT CAVOK 14/12 Q1017 NOSIG=
200904162000 METAR LMML NIL=
200904161945 METAR LMML 161945Z 14006KT CAVOK 14/12 Q1017 NOSIG=
200904161930 METAR LMML NIL=
200904161915 METAR LMML 161915Z VRB03KT CAVOK 15/12 Q1017 NOSIG=
200904161900 METAR LMML NIL=
200904161845 METAR LMML 161845Z VRB03KT CAVOK 15/12 Q1017 NOSIG=
200904161830 METAR LMML NIL=
200904161815 METAR LMML 161815Z VRB03KT CAVOK 15/12 Q1017 NOSIG=
200904161800 METAR LMML NIL=
200904161745 METAR LMML 161745Z 14004KT CAVOK 15/12 Q1017 NOSIG=
200904161730 METAR LMML NIL=
200904161715 METAR LMML 161715Z 14005KT CAVOK 16/12 Q1017 NOSIG=
200904161700 METAR LMML NIL=
200904161645 METAR LMML 161645Z 13005KT CAVOK 17/11 Q1017 NOSIG=
200904161630 METAR LMML NIL=
200904161615 METAR LMML 161615Z 14006KT 110V170 CAVOK 18/10 Q1017 NOSIG=
200904161600 METAR LMML NIL=
200904161545 METAR LMML 161545Z 16006KT 110V200 CAVOK 19/09 Q1017 NOSIG=
200904161530 METAR LMML NIL=
200904161515 METAR LMML 161515Z 16004KT 100V290 CAVOK 20/07 Q1017 NOSIG=
200904161500 METAR LMML NIL=
200904161445 METAR LMML 161445Z 18004KT 120V220 CAVOK 20/07 Q1017 NOSIG=
200904161430 METAR LMML NIL=
200904161415 METAR LMML 161415Z 18005KT 130V220 CAVOK 20/07 Q1017 NOSIG=
200904161400 METAR LMML NIL=
200904161345 METAR LMML 161345Z 21005KT 160V260 9999 FEW020 21/07 Q1017
                        NOSIG=
200904161330 METAR LMML NIL=
200904161315 METAR LMML 161315Z 18005KT 140V210 9999 FEW020 20/08 Q1017
                        NOSIG=
200904161300 METAR LMML NIL=
200904161245 METAR LMML 161245Z 17006KT 140V230 9999 FEW020 21/07 Q1018
                        NOSIG=
200904161230 METAR LMML NIL=
200904161215 METAR LMML 161215Z 18006KT 160V220 CAVOK 20/07 Q1018 NOSIG=
200904161200 METAR LMML NIL=
200904161145 METAR LMML 161145Z 20004KT 130V250 CAVOK 21/07 Q1018 NOSIG=
200904161130 METAR LMML NIL=
200904161115 METAR LMML 161115Z 15005KT 100V210 CAVOK 20/09 Q1018 NOSIG=
200904161100 METAR LMML NIL=
200904161030 METAR LMML NIL=
200904161015 METAR LMML 161015Z 14005KT 090V210 CAVOK 20/11 Q1018 NOSIG=
200904161000 METAR LMML NIL=
200904160945 METAR LMML 160945Z 15006KT 090V200 CAVOK 19/11 Q1018 NOSIG=
200904160930 METAR LMML NIL=
200904160915 METAR LMML 160915Z 14007KT 100V170 CAVOK 19/10 Q1017 NOSIG=
200904160900 METAR LMML NIL=
200904160845 METAR LMML 160845Z 14007KT 100V180 CAVOK 18/12 Q1017 NOSIG=
200904160830 METAR LMML NIL=
200904160815 METAR LMML 160815Z 16005KT 120V230 CAVOK 17/12 Q1017 NOSIG=
200904160800 METAR LMML NIL=
200904160745 METAR LMML 160745Z 18005KT 140V220 CAVOK 17/12 Q1017 NOSIG=
200904160730 METAR LMML NIL=
200904160715 METAR LMML 160715Z 17004KT 130V220 CAVOK 17/13 Q1017 NOSIG=
200904160700 METAR LMML NIL=
200904160645 METAR LMML 160645Z 13004KT 100V180 9000 NSC 16/13 Q1017 NOSIG=
200904160630 METAR LMML NIL=
200904160615 METAR LMML 160615Z VRB03KT 9000 NSC 15/13 Q1017 NOSIG=
200904160600 METAR LMML NIL=
200904160545 METAR LMML 160545Z VRB03KT CAVOK 14/11 Q1017 NOSIG=
200904160530 METAR LMML NIL=
200904160515 METAR LMML 160515Z VRB02KT CAVOK 11/09 Q1017 NOSIG=
200904160500 METAR LMML NIL=
200904160445 METAR LMML 160445Z VRB01KT CAVOK 11/08 Q1016 NOSIG=
200904160430 METAR LMML NIL=
200904160415 METAR LMML 160415Z VRB01KT CAVOK 11/09 Q1016 NOSIG=
200904160400 METAR LMML NIL=
200904160345 METAR LMML 160345Z VRB01KT CAVOK 10/08 Q1016 NOSIG=
200904160330 METAR LMML NIL=
200904160315 METAR LMML 160315Z VRB01KT CAVOK 10/08 Q1016 NOSIG=
200904160245 METAR LMML 160245Z VRB01KT CAVOK 11/09 Q1016 NOSIG=
200904160230 METAR LMML NIL=
200904160215 METAR LMML 160215Z VRB01KT CAVOK 11/09 Q1016 NOSIG=
200904160200 METAR LMML NIL=
200904160145 METAR LMML 160145Z VRB02KT CAVOK 11/09 Q1016 NOSIG=
200904160130 METAR LMML NIL=
200904160115 METAR LMML 160115Z VRB01KT CAVOK 11/09 Q1016 NOSIG=
200904160100 METAR LMML NIL=
200904160045 METAR LMML 160045Z VRB01KT CAVOK 11/10 Q1016 NOSIG=
200904160030 METAR LMML NIL=
200904160015 METAR LMML 160015Z VRB01KT CAVOK 12/10 Q1017 NOSIG=
200904160000 METAR LMML NIL=
200904152345 METAR LMML 152345Z VRB03KT CAVOK 12/11 Q1017 NOSIG=
200904152330 METAR LMML NIL=
200904152315 METAR LMML 152315Z VRB03KT CAVOK 13/11 Q1017 NOSIG=
200904152300 METAR LMML NIL=
200904152245 METAR LMML 152245Z VRB02KT CAVOK 13/10 Q1017 NOSIG=
200904152230 METAR LMML NIL=
200904152215 METAR LMML 152215Z VRB03KT CAVOK 13/10 Q1017 NOSIG=
200904152200 METAR LMML NIL=
200904152145 METAR LMML 152145Z VRB03KT CAVOK 12/10 Q1017 NOSIG=
200904152130 METAR LMML NIL=
200904152115 METAR LMML 152115Z VRB02KT CAVOK 13/10 Q1017 NOSIG=
200904152100 METAR LMML NIL=
200904152045 METAR LMML 152045Z VRB02KT CAVOK 13/10 Q1017 NOSIG=
200904152030 METAR LMML NIL=
200904152015 METAR LMML 152015Z VRB02KT CAVOK 13/10 Q1017 NOSIG=
200904152000 METAR LMML NIL=
200904151945 METAR LMML 151945Z VRB02KT CAVOK 14/10 Q1017 NOSIG=
200904151930 METAR LMML NIL=
200904151915 METAR LMML 151915Z VRB01KT CAVOK 14/10 Q1016 NOSIG=
200904151900 METAR LMML NIL=
200904151845 METAR LMML 151845Z VRB03KT CAVOK 14/10 Q1016 NOSIG=
200904151830 METAR LMML NIL=
200904151815 METAR LMML 151815Z VRB02KT CAVOK 15/10 Q1016 NOSIG=
200904151800 METAR LMML NIL=
200904151745 METAR LMML 151745Z VRB02KT CAVOK 16/10 Q1015 NOSIG=
200904151730 METAR LMML NIL=
200904151715 METAR LMML 151715Z 29006KT CAVOK 16/10 Q1015 NOSIG=
200904151700 METAR LMML NIL=
200904151645 METAR LMML 151645Z 28006KT 240V310 CAVOK 18/09 Q1015 NOSIG=
200904151630 METAR LMML NIL=
200904151615 METAR LMML 151615Z 29007KT 260V320 CAVOK 18/09 Q1015 NOSIG=
200904151600 METAR LMML NIL=
200904151545 METAR LMML 151545Z 29006KT 260V320 CAVOK 19/09 Q1015 NOSIG=
200904151530 METAR LMML NIL=
200904151515 METAR LMML 151515Z 30008KT 250V330 CAVOK 19/09 Q1015 NOSIG=
200904151500 METAR LMML NIL=
200904151445 LMML 151445Z 29008KT 270V340 CAVOK 19/10 Q1015 NOSIG=
200904151430 METAR LMML NIL=
200904151415 METAR LMML 151415Z 30009KT 230V330 CAVOK 19/10 Q1015 NOSIG=
200904151400 METAR LMML NIL=
200904151345 METAR LMML 151345Z 29008KT 260V330 CAVOK 19/10 Q1015 NOSIG=
200904151339 SPECI LMML 151339Z 28008KT 260V330 CAVOK 19/10 Q1015 NOSIG=
200904151330 METAR LMML NIL=
200904151300 METAR LMML NIL=
200904151245 METAR LMML 151245Z 29009KT 240V320 CAVOK 20/11 Q1015 NOSIG=
200904151230 METAR LMML NIL=
200904151215 METAR LMML 151215Z 28008KT 220V330 CAVOK 20/11 Q1015 NOSIG=
200904151200 METAR LMML NIL=
200904151145 METAR LMML 151145Z 28009KT 250V310 CAVOK 19/11 Q1015 NOSIG=
200904151115 METAR LMML 151115Z 26009KT 220V300 CAVOK 19/12 Q1015 NOSIG=
200904151100 METAR LMML NIL=
200904151045 METAR LMML 151045Z 27009KT 230V310 9999 FEW015 19/13 Q1015
                        NOSIG=
200904151015 METAR LMML 151015Z 31011KT 260V330 9999 FEW015 19/12 Q1016
                        NOSIG=
200904150945 METAR LMML 150945Z 31008KT 260V340 9999 FEW015 19/12 Q1015
                        NOSIG=
200904150930 METAR LMML NIL=
200904150915 METAR LMML 150915Z 30009KT 9999 FEW012 19/12 Q1015 NOSIG=
200904150900 METAR LMML NIL=
200904150845 METAR LMML 150845Z 32008KT 290V350 9999 FEW012 18/12 Q1015
                        NOSIG=
200904150830 METAR LMML NIL=
200904150815 METAR LMML 150815Z 31011KT 290V350 9999 FEW012 17/13 Q1015
                        NOSIG=
200904150800 METAR LMML NIL=
200904150745 METAR LMML 150745Z 32010KT 9999 FEW012 16/13 Q1015 NOSIG=
200904150730 METAR LMML NIL=
200904150715 METAR LMML 150715Z 33008KT 9999 FEW012 16/13 Q1015 NOSIG=
200904150700 METAR LMML NIL=
200904150645 METAR LMML 150645Z 32011KT 280V340 9999 FEW020 15/13 Q1014
                        NOSIG=
200904150630 METAR LMML NIL=
200904150615 METAR LMML 150615Z 31009KT 9999 FEW020 14/13 Q1014 NOSIG=
200904150600 METAR LMML NIL=
200904150545 METAR LMML 150545Z 31010KT CAVOK 13/12 Q1014 NOSIG=
200904150530 METAR LMML NIL=
200904150515 METAR LMML 150515Z 30007KT 270V340 CAVOK 13/11 Q1014 NOSIG=
200904150500 METAR LMML NIL=
200904150445 METAR LMML 150445Z 30009KT 9999 FEW012 12/11 Q1013 NOSIG=
200904150430 METAR LMML NIL=
200904150415 METAR LMML 150415Z 29009KT 260V320 CAVOK 13/11 Q1013 NOSIG=
200904150400 METAR LMML NIL=
200904150345 METAR LMML 150345Z 29009KT 270V330 9999 FEW008 13/11 Q1013
                        NOSIG=
200904150330 METAR LMML NIL=
200904150315 METAR LMML 150315Z 28008KT 250V310 9999 FEW008 13/11 Q1013
                        TEMPO BKN008=
200904150300 METAR LMML NIL=
200904150245 METAR LMML 150245Z 29008KT 250V330 9999 FEW008 13/12 Q1013
                        TEMPO BKN008=
200904150230 METAR LMML NIL=
200904150215 METAR LMML 150215Z 27008KT 230V310 9999 FEW008 13/12 Q1013
                        TEMPO BKN008=
200904150200 METAR LMML NIL=
200904150145 METAR LMML 150145Z 29010KT 250V320 9999 FEW008 13/12 Q1013
                        TEMPO BKN008=
200904150130 METAR LMML NIL=
200904150115 METAR LMML 150115Z 27009KT 240V310 9999 FEW008 13/12 Q1013
                        TEMPO BKN008=
200904150100 METAR LMML NIL=
200904150045 METAR LMML 150045Z 28010KT 9999 FEW008 13/12 Q1013 TEMPO
                        BKN008=
200904150030 METAR LMML NIL=
200904150015 METAR LMML 150015Z 29012KT 9999 FEW008 13/12 Q1013 TEMPO
                        BKN008=
200904150000 METAR LMML NIL=
200904142345 METAR LMML 142345Z 29010KT 9999 FEW008 13/12 Q1014 TEMPO
                        BKN008=
200904142330 METAR LMML NIL=
200904142315 METAR LMML 142315Z 28008KT 240V310 9999 SCT008 13/12 Q1014
                        TEMPO BKN008=
200904142300 METAR LMML NIL=
200904142245 METAR LMML 142245Z 27007KT 230V300 9000 SCT007 13/12 Q1014
                        TEMPO BKN008=
200904142230 METAR LMML NIL=
200904142215 METAR LMML 142215Z 31008KT 280V350 9000 SCT007 13/12 Q1014
                        TEMPO BKN008=
200904142200 METAR LMML NIL=
200904142145 METAR LMML 142145Z 28013KT 240V310 9000 SCT008 13/12 Q1013
                        TEMPO BKN008=
200904142130 METAR LMML NIL=
200904142115 METAR LMML 142115Z 27012KT 230V310 9000 FEW009 13/12 Q1013
                        NOSIG=
200904142100 METAR LMML NIL=
200904142045 METAR LMML 142045Z 27013KT 230V310 9000 FEW009 13/12 Q1013
                        NOSIG=
200904142030 METAR LMML NIL=
200904142015 METAR LMML 142015Z 29011KT 260V320 9000 SCT009 13/12 Q1013
                        NOSIG=
200904142000 METAR LMML NIL=
200904141945 METAR LMML 141945Z 27010KT 230V300 9000 FEW009 13/12 Q1013
                        NOSIG=
200904141915 METAR LMML 141915Z 28012KT 250V310 9999 FEW012 13/12 Q1012
                        NOSIG=
200904141900 METAR LMML NIL=
200904141845 METAR LMML 141845Z 30013KT 9999 FEW012 13/12 Q1012 NOSIG=
200904141830 METAR LMML NIL=
200904141815 METAR LMML 141815Z 30011KT 270V330 8000 FEW010 14/12 Q1012
                        BECMG BKN010=
200904141800 METAR LMML NIL=
200904141745 METAR LMML 141745Z 29010KT 250V330 8000 SCT011 14/12 Q1012
                        BECMG BKN010=
200904141730 METAR LMML NIL=
200904141715 LMML 141715Z 29014KT 260V320 8000 BKN011 14/12 Q1012 BECMG
                        BKN010=
200904141700 METAR LMML NIL=
200904141645 METAR LMML 141645Z 28016KT 250V320 8000 BKN011 15/12 Q1012
                        BECMG BKN010=
200904141630 METAR LMML NIL=
200904141615 METAR LMML 141615Z 28015KT 250V310 8000 BKN011 15/12 Q1011
                        BECMG BKN010=
200904141600 METAR LMML NIL=
200904141545 METAR LMML 141545Z 29014KT 8000 BKN012 15/12 Q1011 NOSIG=
200904141530 METAR LMML NIL=
200904141515 METAR LMML 141515Z 29019KT 260V320 6000 BKN012 16/12 Q1011
                        NOSIG=
200904141500 METAR LMML NIL=
200904141445 METAR LMML 141445Z 29019KT 250V310 6000 BKN013 15/12 Q1011
                        NOSIG=
200904141430 METAR LMML NIL=
200904141415 METAR LMML 141415Z 28016KT 6000 BKN013 15/12 Q1011 NOSIG=
200904141400 METAR LMML NIL=
200904141345 METAR LMML 141345Z 28017KT 250V320 6000 BKN013 16/12 Q1011
                        NOSIG=
200904141330 METAR LMML NIL=
200904141315 METAR LMML 141315Z 29017KT 250V310 6000 BKN013 16/13 Q1011
                        NOSIG=
200904141300 METAR LMML NIL=
200904141245 METAR LMML 141245Z 29017KT 250V320 6000 BKN014 17/13 Q1010
                        NOSIG=
200904141230 METAR LMML NIL=
200904141215 METAR LMML 141215Z 29017KT 260V320 6000 SCT013 BKN020 16/12
                        Q1011 TEMPO BKN013=
200904141200 METAR LMML NIL=
200904141145 METAR LMML 141145Z 28016KT 250V310 6000 SCT015 BKN020 16/13
                        Q1010 NOSIG=
200904141130 METAR LMML NIL=
200904141115 METAR LMML 141115Z 28017KT 6000 SCT013 BKN020 16/13 Q1010
                        NOSIG=
200904141100 METAR LMML NIL=
200904141045 METAR LMML 141045Z 28015KT 6000 SCT012 BKN020 16/13 Q1010
                        NOSIG=
200904141030 METAR LMML NIL=
200904141015 METAR LMML 141015Z 28016KT 250V310 6000 SCT012 BKN021 16/13
                        Q1010 NOSIG=
200904141000 METAR LMML NIL=
200904140945 METAR LMML 140945Z 28017KT 6000 SCT012 BKN023 16/13 Q1010
                        BECMG 9999=
200904140930 METAR LMML NIL=
200904140915 METAR LMML 140915Z 28016KT 250V310 6000 SCT012 SCT026 16/13
                        Q1010 BECMG 9999=
200904140900 METAR LMML NIL=
200904140845 METAR LMML 140845Z 29017KT 6000 BKN012 BKN030 16/13 Q1010
                        NOSIG=
200904140830 METAR LMML NIL=
200904140815 METAR LMML 140815Z 28015KT 6000 BKN013 BKN031 15/13 Q1010
                        NOSIG=
200904140800 METAR LMML NIL=
200904140745 METAR LMML 140745Z 28014KT 240V310 6000 BKN011 BKN025 15/13
                        Q1009 NOSIG=
200904140730 METAR LMML NIL=
200904140715 METAR LMML 140715Z 28013KT 250V320 6000 BKN010 BKN028 15/12
                        Q1009 NOSIG=
200904140700 METAR LMML NIL=
200904140645 METAR LMML 140645Z 28015KT 260V320 6000 BKN011 BKN027 15/13
                        Q1009 NOSIG=
200904140630 METAR LMML NIL=
200904140615 METAR LMML 140615Z 29013KT 250V320 6000 BKN011 BKN023 14/13
                        Q1008 NOSIG=
200904140600 METAR LMML NIL=
200904140545 METAR LMML 140545Z 28013KT 250V310 6000 BKN012 14/12 Q1008
                        NOSIG=
200904140530 METAR LMML NIL=
200904140515 METAR LMML 140515Z 28013KT 250V310 6000 BKN011 14/12 Q1008
                        NOSIG=
200904140500 METAR LMML NIL=
200904140445 METAR LMML 140445Z 28013KT 250V320 8000 FEW011 SCT070 13/12
                        Q1008 NOSIG=
200904140415 METAR LMML 140415Z 29014KT 9000 SCT012 BKN100 14/12 Q1007
                        NOSIG=
200904140400 METAR LMML NIL=
200904140345 METAR LMML 140345Z 28013KT 9999 SCT013 14/12 Q1007 NOSIG=
200904140330 METAR LMML NIL=
200904140315 METAR LMML 140315Z 28013KT 250V310 9999 SCT012 BKN100 14/12
                        Q1007 NOSIG=
200904140300 METAR LMML NIL=
200904140245 METAR LMML 140245Z 29013KT 250V310 9999 SCT014 BKN100 14/12
                        Q1007 NOSIG=
200904140230 METAR LMML NIL=
200904140215 METAR LMML 140215Z 29013KT 260V320 9999 BKN012 BKN100 14/12
                        Q1007 NOSIG=
200904140200 METAR LMML NIL=
200904140145 METAR LMML 140145Z 28013KT 9999 BKN012 BKN090 14/12 Q1007
                        NOSIG=
200904140130 METAR LMML NIL=
200904140115 METAR LMML 140115Z 29013KT 250V310 9999 BKN011 14/12 Q1007
                        NOSIG=
200904140100 METAR LMML NIL=
200904140045 METAR LMML 140045Z 29013KT 9999 BKN012 14/12 Q1007 NOSIG=
200904140030 METAR LMML NIL=
200904140015 METAR LMML 140015Z 28012KT 250V310 9999 FEW012 SCT090 14/12
                        Q1007 NOSIG=
200904140000 METAR LMML NIL=
200904132345 METAR LMML 132345Z 28013KT 240V310 9999 BKN012 14/12 Q1007
                        NOSIG=
200904132330 METAR LMML NIL=
200904132315 METAR LMML 132315Z 28012KT 240V310 9999 BKN012 SCT090 14/12
                        Q1007 NOSIG=
200904132300 METAR LMML NIL=
200904132245 METAR LMML 132245Z 28012KT 240V310 9999 BKN011 14/12 Q1007
                        NOSIG=
200904132230 METAR LMML NIL=
200904132215 METAR LMML 132215Z 27014KT 250V310 9999 BKN014 14/12 Q1007
                        NOSIG=
200904132200 METAR LMML NIL=
200904132145 METAR LMML 132145Z 27014KT 240V300 9999 FEW014 BKN019 14/12
                        Q1007 NOSIG=
200904132130 METAR LMML NIL=
200904132115 METAR LMML 132115Z 28013KT 9999 FEW020 14/12 Q1006 NOSIG=
200904132100 METAR LMML NIL=
200904132045 METAR LMML 132045Z 27013KT 250V320 9999 FEW020 14/12 Q1007
                        NOSIG=
200904132030 METAR LMML NIL=
200904132015 METAR LMML 132015Z 27015KT 210V300 9999 FEW014 14/12 Q1007
                        NOSIG=
200904132000 METAR LMML NIL=
200904131945 METAR LMML 131945Z 27014KT 240V310 9999 FEW020 SCT070 14/12
                        Q1006 NOSIG=
200904131930 METAR LMML NIL=
200904131915 METAR LMML 131915Z 27015KT 240V300 9999 SCT016 BKN070 14/12
                        Q1006 NOSIG=
200904131900 METAR LMML NIL=
200904131845 METAR LMML 131845Z 26014G25KT 230V300 9999 SCT019 BKN070
                        14/12 Q1006 NOSIG=
200904131830 METAR LMML NIL=
200904131815 METAR LMML 131815Z 26013KT 220V290 9999 FEW020 SCT029 BKN080
                        14/12 Q1005 NOSIG=
200904131800 METAR LMML NIL=
200904131745 METAR LMML 131745Z 25014KT 220V280 9999 FEW021 SCT027 BKN080
                        14/12 Q1005 NOSIG=
200904131730 METAR LMML NIL=
200904131715 METAR LMML 131715Z 25014KT 210V290 9999 SCT020 BKN060 14/11
                        Q1005 NOSIG=
200904131700 METAR LMML NIL=
200904131645 METAR LMML 131645Z 25015KT 210V290 9999 BKN020 BKN050 14/11
                        Q1005 NOSIG=
200904131630 METAR LMML NIL=
200904131615 METAR LMML 131615Z 25014KT 210V300 9999 FEW018 BKN046 14/11
                        Q1004 NOSIG=
200904131600 METAR LMML NIL=
200904131545 METAR LMML 131545Z 25016KT 200V290 9999 SCT019 BKN046 14/11
                        Q1004 NOSIG=
200904131530 METAR LMML NIL=
200904131515 METAR LMML 131515Z 25016KT 220V290 9999 SCT019 SCT048 BKN060
                        14/11 Q1004 NOSIG=
200904131500 METAR LMML NIL=
200904131445 METAR LMML 131445Z 26017KT 220V300 9999 SCT017 BKN023 BKN029
                        14/11 Q1004 NOSIG=
200904131430 METAR LMML NIL=
200904131415 METAR LMML 131415Z 25018KT 200V280 9999 BKN014 BKN022 14/11
                        Q1004 TEMPO SCT008 BKN015=
200904131400 METAR LMML NIL=
200904131345 METAR LMML 131345Z 25018G29KT 220V290 9999 SCT009 BKN013
                        13/12 Q1004 TEMPO BKN008 BKN015=
200904131330 METAR LMML NIL=
200904131315 METAR LMML 131315Z 25018KT 200V290 9999 SCT006 BKN009 BKN015
                        13/12 Q1004 BECMG 9000 SCT008 BKN015=
200904131300 METAR LMML NIL=
200904131245 METAR LMML 131245Z 26016KT 210V290 8000 -RA SCT006 BKN009
                        BKN015 13/12 Q1004 BECMG 9000 SCT008
                        BKN015=
200904131230 METAR LMML NIL=
200904131215 METAR LMML 131215Z 26018G28KT 220V300 4000 -RA BKN009 OVC013
                        13/12 Q1004 TEMPO 8000 RA BKN008
                        BKN013=
200904131200 METAR LMML NIL=
200904131145 METAR LMML 131145Z 26015KT 210V290 4000 -RA BKN009 BKN014
                        14/12 Q1003 TEMPO 8000 RA BKN008
                        BKN013=
200904131130 METAR LMML NIL=
200904131115 METAR LMML 131115Z 26020KT 230V290 7000 -RA BKN009 SCT015
                        BKN019 13/12 Q1003 TEMPO 8000 RA
                        BKN008 BKN013=
200904131100 METAR LMML NIL=
200904131045 METAR LMML 131045Z 26015KT 220V290 7000 BKN009 SCT013 BKN020
                        13/12 Q1003 TEMPO 8000 RA BKN013=
200904131030 METAR LMML NIL=
200904131015 METAR LMML 131015Z 26019KT 220V300 4000 -RA BKN008 OVC014
                        13/12 Q1003 TEMPO 3000 RA SCT008
                        BKN012=
200904131000 METAR LMML NIL=
200904130945 METAR LMML 130945Z 25017KT 220V290 3000 -RA BKN008 OVC016
                        13/12 Q1002 TEMPO 3000 RA SCT008
                        BKN012=
200904130930 METAR LMML NIL=
200904130915 METAR LMML 130915Z 25015G25KT 210V290 2500 -RA BKN009 OVC016
                        13/12 Q1002 TEMPO 3000 RA SCT008
                        BKN012=
200904130900 METAR LMML NIL=
200904130845 METAR LMML 130845Z 25018KT 210V290 7000 -RA SCT011 BKN014
                        BKN025 13/11 Q1002 TEMPO 8000 RA
                        BKN018=
200904130830 METAR LMML NIL=
200904130815 METAR LMML 130815Z 25017KT 200V290 8000 -RA SCT015 BKN021
                        13/11 Q1001 TEMPO 8000 RA BKN018=
200904130800 METAR LMML NIL=
200904130745 METAR LMML 130745Z 25019G31KT 200V300 8000 -RA BKN020 13/10
                        Q1001 TEMPO 8000 RA BKN018=
200904130730 METAR LMML NIL=
200904130715 METAR LMML 130715Z 24021KT 210V290 9000 -RA SCT019 BKN028
                        13/10 Q1001 TEMPO 8000 RA BKN018=
200904130700 METAR LMML NIL=
200904130645 METAR LMML 130645Z 24021KT 210V270 9999 SCT025 BKN030 14/09
                        Q1000 TEMPO 8000 RA BKN018=
200904130630 METAR LMML NIL=
200904130615 METAR LMML 130615Z 24020G34KT 200V280 9999 BKN028 14/09 Q1000
                        BECMG 7000 RA=
200904130600 METAR LMML NIL=
200904130545 METAR LMML 130545Z 24020G34KT 200V290 9999 BKN030 14/08 Q1000
                        BECMG 7000 RA=
200904130530 METAR LMML NIL=
200904130515 METAR LMML 130515Z 24021G31KT 200V280 9999 BKN031 14/08 Q1000
                        BECMG 7000 RA=
200904130500 METAR LMML NIL=
200904130445 METAR LMML 130445Z 24020G32KT 190V280 9999 BKN032 14/08 Q0999
                        BECMG 7000 RA=
200904130430 METAR LMML NIL=
200904130415 METAR LMML 130415Z 24020G32KT 200V280 9999 BKN033 14/07 Q0999
                        NOSIG=
200904130400 METAR LMML NIL=
200904130345 METAR LMML 130345Z 24017G27KT 200V270 9999 FEW034 BKN041
                        14/08 Q0999 NOSIG=
200904130330 METAR LMML NIL=
200904130315 METAR LMML 130315Z 24019KT 190V290 9999 BKN033 14/08 Q0999
                        NOSIG=
200904130300 LMML NIL=
200904130245 METAR LMML 130245Z 24018KT 210V280 9999 SCT035 13/07 Q1000
                        NOSIG=
200904130230 METAR LMML NIL=
200904130215 METAR LMML 130215Z 23015KT 200V280 9999 SCT030 13/08 Q1000
                        NOSIG=
200904130200 METAR LMML NIL=
200904130145 LMML 130145Z 24013KT 200V290 9999 FEW019 SCT031 BKN120 13/10
                        Q1000 NOSIG=
200904130130 METAR LMML NIL=
200904130115 METAR LMML 130115Z 24013KT 210V290 9999 SCT041 13/10 Q1001
                        NOSIG=
200904130100 METAR LMML NIL=
200904130045 METAR LMML 130045Z 25013KT 210V290 9999 SCT024 SCT048 13/09
                        Q1001 NOSIG=
200904130030 METAR LMML NIL=
200904130015 METAR LMML 130015Z 25018G29KT 200V290 9999 SCT020 SCT050
                        14/10 Q1001 NOSIG=
200904122345 METAR LMML 122345Z 23018G30KT 200V270 9999 SCT035 SCT048
                        14/08 Q1001 NOSIG=
200904122330 METAR LMML NIL=
200904122315 METAR LMML 122315Z 22014KT 200V270 9999 SCT029 SCT044 14/10
                        Q1001 NOSIG=
200904122300 METAR LMML NIL=
200904122245 METAR LMML 122245Z 23013KT 190V290 9999 SCT025 SCT045 14/09
                        Q1001 NOSIG=
200904122215 LMML 122215Z 23015KT 200V290 9999 SCT029 SCT050 14/09 Q1001
                        NOSIG=
200904122200 METAR LMML NIL=
200904122145 METAR LMML 122145Z 24017KT 200V290 9999 SCT028 14/08 Q1002
                        NOSIG=
200904122115 METAR LMML 122115Z 24016G27KT 210V280 9999 SCT031 13/08 Q1001
                        NOSIG=
200904122045 METAR LMML 122045Z 24017G27KT 200V290 9999 SCT029 SCT035
                        13/08 Q1001 NOSIG=
200904122030 METAR LMML NIL=
200904122015 METAR LMML 122015Z 24018KT 210V280 9999 SCT031 SCT049 13/08
                        Q1002 NOSIG=
200904122000 METAR LMML NIL=
200904121945 METAR LMML 121945Z 24021G32KT 210V280 9999 SCT026 BKN047
                        13/08 Q1001 NOSIG=
200904121930 METAR LMML NIL=
200904121915 METAR LMML 121915Z 24021G32KT 200V270 9999 BKN024 BKN047
                        13/08 Q1001 NOSIG=
200904121900 METAR LMML NIL=
200904121845 LMML 121845Z 24016KT 200V280 9999 BKN021 BKN060 13/09 Q1001
                        NOSIG=
200904121830 METAR LMML NIL=
200904121815 METAR LMML 121815Z 24016G27KT 210V280 9999 SCT019 BKN031
                        13/09 Q1000 NOSIG=
200904121800 METAR LMML NIL=
200904121745 LMML 121745Z 23017KT 210V280 9999 SHRA SCT018 BKN050 12/10
                        Q1000 NOSIG=
200904121730 METAR LMML NIL=
200904121715 LMML 121715Z 23021G32KT 200V300 9999 SCT019 BKN050 13/09
                        Q1000 NOSIG=
200904121700 METAR LMML NIL=
200904121645 METAR LMML 121645Z 23018KT 200V290 9999 SCT018 BKN050 13/09
                        Q1000 NOSIG=
200904121630 METAR LMML NIL=
200904121615 METAR LMML 121615Z 23022G32KT 210V280 9999 SCT017 BKN036
                        13/10 Q0999 NOSIG=
200904121600 METAR LMML NIL=
200904121545 METAR LMML 121545Z 23021G32KT 200V270 9999 -SHRA SCT020 BKN036
                        13/09 Q0999 NOSIG=
200904121530 METAR LMML NIL=
200904121515 METAR LMML 121515Z 23024G34KT 190V270 9999 SCT019 BKN035
                        13/09 Q0998 NOSIG=
200904121500 METAR LMML NIL=
200904121445 METAR LMML 121445Z 22019G31KT 190V280 9999 SCT019 BKN038
                        13/09 Q0999 NOSIG=
200904121430 METAR LMML NIL=
200904121415 METAR LMML 121415Z 21018G29KT 170V250 9999 SCT019 SCT027
                        BKN039 13/10 Q0999 NOSIG=
200904121400 METAR LMML NIL=
200904121345 METAR LMML 121345Z 21017G29KT 160V270 9999 FEW018 SCT023
                        BKN041 14/10 Q0999 NOSIG=
200904121330 METAR LMML NIL=
200904121315 METAR LMML 121315Z 20017KT 170V250 9999 SCT022 SCT027 BKN034
                        15/11 Q0999 NOSIG=
200904121300 METAR LMML NIL=
200904121245 METAR LMML 121245Z 20017KT 160V250 9999 BKN023 15/10 Q0999
                        NOSIG=
200904121230 METAR LMML NIL=
200904121215 METAR LMML 121215Z 20016KT 160V250 9000 FEW025 16/10 Q0999
                        NOSIG=
200904121200 METAR LMML NIL=
200904121145 METAR LMML 121145Z 21015KT 160V250 7000 FEW025 16/11 Q1000
                        NOSIG=
200904121130 METAR LMML NIL=
200904121115 METAR LMML 121115Z 20017KT 170V240 7000 BKN029 16/11 Q1000
                        NOSIG=
200904121100 METAR LMML NIL=
200904121045 METAR LMML 121045Z 19014KT 150V250 6000 FEW007 BKN016 BKN130
                        15/13 Q1000 TEMPO 3000 SHRA SCT012TCU=
200904121030 METAR LMML NIL=
200904121015 METAR LMML 121015Z 14016KT 4000 -RA BKN007 OVC130 15/14 Q1000
                        NOSIG=
200904121000 METAR LMML NIL=
200904120945 METAR LMML 120945Z 13019KT 6000 BKN009 OVC130 16/14 Q1000
                        NOSIG=
200904120930 METAR LMML NIL=
200904120915 METAR LMML 120915Z 13020KT 6000 SCT009 BKN039 16/14 Q1001
                        NOSIG=
200904120900 METAR LMML NIL=
200904120845 METAR LMML 120845Z 13019KT 100V160 6000 SCT009 SCT030 BKN130
                        16/14 Q1001 NOSIG RMK DUST HAZE=
200904120830 METAR LMML NIL=
200904120815 METAR LMML 120815Z 13019KT 6000 BKN009 BKN030 16/14 Q1002
                        NOSIG RMK DUST HAZE=
200904120800 METAR LMML NIL=
200904120745 METAR LMML 120745Z 13017KT 6000 BKN009 BKN015 16/14 Q1002
                        NOSIG=
200904120730 METAR LMML NIL=
200904120715 METAR LMML 120715Z 14017KT 6000 BKN009 BKN015 15/14 Q1002
                        NOSIG=
200904120700 METAR LMML NIL=
200904120645 METAR LMML 120645Z 12020KT 6000 BKN009 BKN015 15/14 Q1002
                        NOSIG=
200904120630 METAR LMML NIL=
200904120615 METAR LMML 120615Z 11018KT 6000 BKN009 BKN015 15/14 Q1001
                        NOSIG=
200904120600 METAR LMML NIL=
200904120545 METAR LMML 120545Z 11020KT 7000 BKN010 BKN015 15/14 Q1002
                        NOSIG=
200904120530 METAR LMML NIL=
200904120515 METAR LMML 120515Z 11018KT 080V140 7000 BKN010 BKN015 15/14
                        Q1002 NOSIG=
200904120500 METAR LMML NIL=
200904120445 METAR LMML 120445Z 10020KT 7000 -RA BKN011 BKN015 15/13 Q1001
                        NOSIG=
200904120430 METAR LMML NIL=
200904120415 METAR LMML 120415Z 09017KT 060V120 7000 -RA BKN009 BKN015
                        BKN120 15/14 Q1002 NOSIG=
200904120400 METAR LMML NIL=
200904120345 METAR LMML 120345Z 12019KT 7000 BKN009 BKN015 BKN120 15/14
                        Q1003 NOSIG=
200904120330 METAR LMML NIL=
200904120315 METAR LMML 120315Z 10020KT 7000 BKN009 BKN014 15/14 Q1002
                        NOSIG=
200904120300 METAR LMML NIL=
200904120245 METAR LMML 120245Z 11019KT 7000 BKN007 BKN011 15/14 Q1003
                        NOSIG=
200904120230 METAR LMML NIL=
200904120215 METAR LMML 120215Z 11020KT 070V140 7000 BKN007 15/14 Q1003
                        TEMPO BKN005=
200904120200 METAR LMML NIL=
200904120145 METAR LMML 120145Z 10019KT 7000 BKN007 15/14 Q1004 TEMPO
                        BKN005=
200904120130 METAR LMML NIL=
200904120115 METAR LMML 120115Z 10017KT 070V130 7000 BKN006 15/14 Q1004
                        TEMPO BKN005=
200904120100 METAR LMML NIL=
200904120045 METAR LMML 120045Z 09017KT 7000 BKN006 15/14 Q1004 NOSIG=
200904120030 METAR LMML NIL=
200904120015 METAR LMML 120015Z 09013KT 060V120 7000 BKN006 15/14 Q1005
                        NOSIG=
200904120000 METAR LMML NIL=
200904112345 METAR LMML 112345Z 09013KT 060V120 7000 OVC005 15/14 Q1006
                        NOSIG=
200904112330 METAR LMML NIL=
200904112315 METAR LMML 112315Z 08015KT 060V120 7000 OVC005 15/14 Q1006
                        NOSIG=
200904112300 METAR LMML NIL=
200904112245 METAR LMML 112245Z 08014KT 050V110 7000 OVC005 15/14 Q1006
                        NOSIG=
200904112230 METAR LMML NIL=
200904112215 METAR LMML 112215Z 08015KT 030V110 7000 OVC005 15/14 Q1007
                        NOSIG=
200904112200 METAR LMML NIL=
200904112145 METAR LMML 112145Z 07014KT 040V100 7000 OVC005 15/14 Q1007
                        NOSIG=
200904112130 METAR LMML NIL=
200904112115 METAR LMML 112115Z 08014KT 050V110 7000 OVC005 15/14 Q1008
                        NOSIG=
200904112100 METAR LMML NIL=
200904112045 METAR LMML 112045Z 08013KT 040V110 7000 OVC005 15/14 Q1009
                        NOSIG=
200904112030 METAR LMML NIL=
200904112015 METAR LMML 112015Z 09011KT 060V120 7000 OVC005 15/14 Q1010
                        NOSIG=
200904112000 METAR LMML NIL=
200904111945 METAR LMML 111945Z 09008KT 050V120 7000 -RA BKN005 BKN011
                        15/14 Q1010 NOSIG=
200904111930 METAR LMML NIL=
200904111915 METAR LMML 111915Z 07009KT 030V110 7000 BKN006 BKN011 15/14
                        Q1010 TEMPO SCT006=
200904111900 METAR LMML NIL=
200904111845 METAR LMML 111845Z 09007KT 060V130 7000 BKN006 BKN011 15/14
                        Q1011 NOSIG=
200904111830 METAR LMML NIL=
200904111815 METAR LMML 111815Z 10007KT 070V140 7000 BKN005 BKN011 15/14
                        Q1011 NOSIG=
200904111800 METAR LMML NIL=
200904111745 METAR LMML 111745Z 08008KT 050V110 7000 BKN005 15/14 Q1010
                        NOSIG=
200904111730 METAR LMML NIL=
200904111715 METAR LMML 111715Z 07008KT 040V100 7000 BKN007 15/14 Q1010
                        BECMG BKN007=
200904111700 METAR LMML NIL=
200904111645 METAR LMML 111645Z 08007KT 040V120 9000 SCT007 BKN013 16/13
                        Q1010 BECMG BKN007=
200904111630 METAR LMML NIL=
200904111615 METAR LMML 111615Z 07008KT 040V120 9000 SCT008 BKN011 16/14
                        Q1010 BECMG BKN008=
200904111600 METAR LMML NIL=
200904111545 METAR LMML 111545Z 06007KT 030V100 9000 SCT008 BKN012 17/14
                        Q1010 BECMG BKN008=
200904111530 METAR LMML NIL=
200904111515 METAR LMML 111515Z 06007KT 010V090 9000 FEW009 BKN011 17/14
                        Q1010 BECMG BKN008=
200904111500 METAR LMML NIL=
200904111445 METAR LMML 111445Z 04006KT 340V160 9000 BKN012 17/14 Q1010
                        NOSIG=
200904111430 METAR LMML NIL=
200904111415 METAR LMML 111415Z 06007KT 020V130 9000 BKN013 17/14 Q1010
                        NOSIG=
200904111400 METAR LMML NIL=
200904111345 METAR LMML 111345Z 08006KT 030V110 9999 BKN014 17/13 Q1010
                        NOSIG=
200904111330 METAR LMML NIL=
200904111315 METAR LMML 111315Z 07009KT 040V100 9999 BKN014 18/14 Q1010
                        NOSIG=
200904111300 METAR LMML NIL=
200904111245 METAR LMML 111245Z 08007KT 040V120 9999 BKN017 18/13 Q1011
                        NOSIG=
200904111230 METAR LMML NIL=
200904111215 METAR LMML 111215Z 10006KT 050V140 9999 BKN011 17/13 Q1011
                        NOSIG=
200904111200 METAR LMML NIL=
200904111145 METAR LMML 111145Z 09007KT 060V130 9999 BKN011 17/13 Q1011
                        NOSIG=
200904111130 METAR LMML NIL=
200904111115 METAR LMML 111115Z 09007KT 040V150 9999 BKN011 18/13 Q1011
                        NOSIG=
200904111100 METAR LMML NIL=
200904111045 METAR LMML 111045Z 08008KT 040V130 9999 BKN011 17/14 Q1011
                        NOSIG=
200904111030 METAR LMML NIL=
200904111015 METAR LMML 111015Z 09010KT 9999 BKN011 17/14 Q1010 NOSIG=
200904111000 METAR LMML NIL=
200904110945 METAR LMML 110945Z 06008KT 030V110 9999 BKN011 18/14 Q1010
                        NOSIG=
200904110930 METAR LMML NIL=
200904110915 METAR LMML 110915Z 07008KT 9999 BKN012 17/14 Q1011 BECMG
                        SCT012=
200904110900 METAR LMML NIL=
200904110845 LMML 110845Z 06007KT 020V100 9999 BKN011 17/14 Q1010 BECMG
                        SCT012=
200904110830 METAR LMML NIL=
200904110815 METAR LMML 110815Z 06008KT 030V090 9999 BKN010 16/15 Q1010
                        BECMG SCT012=
200904110800 METAR LMML NIL=
200904110745 METAR LMML 110745Z 06008KT 030V090 9000 BKN008 16/15 Q1009
                        BECMG 9999 SCT009=
200904110732 SPECI LMML 110732Z 05008KT 020V080 9000 BKN007 15/15 Q1009
                        BECMG SCT009=
200904110730 METAR LMML NIL=
200904110715 METAR LMML 110715Z 04008KT 010V080 6000 BKN006 15/15 Q1009
                        BECMG 9999=
200904110700 METAR LMML NIL=
200904110645 METAR LMML 110645Z 04006KT 4000 BR BKN006 15/15 Q1009 BECMG
                        6000 SCT008=
200904110630 METAR LMML NIL=
200904110615 METAR LMML 110615Z VRB03KT 3000 BR BKN004 15/14 Q1009 BECMG
                        6000 SCT008=
200904110600 METAR LMML NIL=
200904110545 METAR LMML 110545Z 36004KT 4000 BR SCT005 13/13 Q1009 BECMG
                        5000=
200904110530 METAR LMML NIL=
200904110515 METAR LMML 110515Z VRB03KT 4000 BR FEW007 12/12 Q1009 BECMG
                        5000=
200904110500 METAR LMML NIL=
200904110445 METAR LMML 110445Z 35004KT 4000 BR FEW009 SCT250 12/12 Q1009
                        BECMG 5000=
200904110430 METAR LMML NIL=
200904110415 METAR LMML 110415Z 31004KT 4000 BR FEW009 BKN250 13/12 Q1009
                        BECMG 5000=
200904110400 METAR LMML NIL=
200904110345 METAR LMML 110345Z VRB03KT 4000 BR SCT009 13/13 Q1009 TEMPO
                        3000 BR BKN003=
200904110330 METAR LMML NIL=
200904110315 METAR LMML 110315Z 26005KT 230V290 4000 BR BKN008 13/12 Q1009
                        TEMPO 3000 BR BKN003=
200904110300 METAR LMML NIL=
200904110245 METAR LMML 110245Z 26004KT 230V300 4000 BR SCT003 BKN009
                        13/12 Q1009 TEMPO 3000 BR BKN003=
200904110230 METAR LMML NIL=
200904110215 METAR LMML 110215Z 31004KT 4000 BR SCT004 12/12 Q1009 TEMPO
                        3000 BR BKN003=
200904110200 METAR LMML NIL=
200904110145 METAR LMML 110145Z VRB03KT 4000 BR BKN004 13/12 Q1009 TEMPO
                        3000 BR BKN003=
200904110130 METAR LMML NIL=
200904110115 METAR LMML 110115Z 32004KT 4000 BR BKN004 13/12 Q1009 TEMPO
                        3000 BR BKN003=
200904110100 METAR LMML NIL=
200904110045 METAR LMML 110045Z 32006KT 300V360 6000 BKN005 13/12 Q1009
                        TEMPO 5000 BR BKN004=
200904110030 METAR LMML NIL=
200904110030 SPECI LMML 110030Z 32007KT 6000 BKN005 13/12 Q1009 TEMPO
                        5000 BR BKN005=
200904110015 METAR LMML 110015Z 29006KT 270V330 6000 FEW010 13/12 Q1009
                        BECMG 5000 BR=
200904110000 METAR LMML NIL=
200904102345 METAR LMML 102345Z 28007KT 6000 NSC 13/12 Q1010 BECMG 5000
                        BR=
200904102330 METAR LMML NIL=
200904102315 METAR LMML 102315Z 28004KT 6000 FEW010 13/12 Q1010 BECMG
                        5000 BR=
200904102300 METAR LMML NIL=
200904102245 METAR LMML 102245Z 29005KT 6000 FEW010 13/12 Q1010 BECMG
                        5000 BR=
200904102230 METAR LMML NIL=
200904102215 METAR LMML 102215Z 30005KT 6000 FEW010 13/12 Q1010 BECMG
                        5000 BR=
200904102200 METAR LMML NIL=
200904102145 METAR LMML 102145Z 29004KT 6000 FEW010 13/12 Q1010 BECMG
                        5000 BR=
200904102130 METAR LMML NIL=
200904102115 METAR LMML 102115Z VRB03KT 7000 FEW010 13/12 Q1010 NOSIG=
200904102100 METAR LMML NIL=
200904102045 METAR LMML 102045Z VRB03KT 7000 FEW010 13/12 Q1010 NOSIG=
200904102030 METAR LMML NIL=
200904102015 METAR LMML 102015Z 28004KT 9000 SCT010 14/13 Q1009 NOSIG=
200904102000 METAR LMML NIL=
200904101945 METAR LMML 101945Z 28004KT 250V310 9000 FEW010 14/13 Q1009
                        NOSIG=
200904101930 METAR LMML NIL=
200904101915 METAR LMML 101915Z 30004KT 9000 FEW008 14/12 Q1009 NOSIG=
200904101900 METAR LMML NIL=
200904101845 METAR LMML 101845Z 30005KT 9000 FEW008 14/13 Q1009 NOSIG=
200904101830 METAR LMML NIL=
200904101815 METAR LMML 101815Z 29006KT 9000 FEW008 14/13 Q1009 NOSIG=
200904101800 METAR LMML NIL=
200904101745 METAR LMML 101745Z 30006KT 9000 SCT009 15/13 Q1008 NOSIG=
200904101730 METAR LMML NIL=
200904101715 METAR LMML 101715Z 29007KT 9000 FEW014 15/13 Q1008 TEMPO
                        BKN014=
200904101700 METAR LMML NIL=
200904101645 METAR LMML 101645Z 28007KT 250V310 9000 SCT014 16/13 Q1008
                        TEMPO BKN015=
200904101630 METAR LMML NIL=
200904101615 METAR LMML 101615Z 28007KT 230V330 9000 SCT015 18/14 Q1008
                        TEMPO BKN015=
200904101600 METAR LMML NIL=
200904101545 METAR LMML 101545Z 24007KT 200V290 9000 SCT019 17/14 Q1008
                        NOSIG=
200904101530 METAR LMML NIL=
200904101515 METAR LMML 101515Z 23006KT 190V280 9000 SCT018 17/13 Q1008
                        NOSIG=
200904101500 METAR LMML NIL=
200904101445 METAR LMML 101445Z 21004KT 150V280 9000 SCT018 18/13 Q1008
                        NOSIG=
200904101430 METAR LMML NIL=
200904101415 METAR LMML 101415Z 20005KT 150V260 9000 SCT016 18/14 Q1008
                        NOSIG=
200904101400 METAR LMML NIL=
200904101345 METAR LMML 101345Z 22005KT 160V270 9000 SCT019 SCT028 18/14
                        Q1009 NOSIG=
200904101330 METAR LMML NIL=
200904101315 METAR LMML 101315Z 17004KT 100V250 9000 SCT017 SCT028 18/13
                        Q1009 NOSIG=
200904101300 METAR LMML NIL=
200904101245 METAR LMML 101245Z 17004KT 120V230 9000 SCT017 SCT030 17/13
                        Q1009 NOSIG=
200904101230 METAR LMML NIL=
200904101215 METAR LMML 101215Z 16005KT 120V200 9000 SCT016 BKN030 18/13
                        Q1009 NOSIG=
200904101200 METAR LMML NIL=
200904101145 METAR LMML 101145Z 14006KT 100V210 9000 SCT015 BKN027 17/13
                        Q1010 NOSIG=
200904101130 METAR LMML NIL=
200904101115 METAR LMML 101115Z 12008KT 090V180 9000 SCT014 BKN028 18/14
                        Q1010 NOSIG=
200904101100 METAR LMML NIL=
200904101045 METAR LMML 101045Z 10007KT 060V140 9000 SCT012 BKN027 16/13
                        Q1010 TEMPO BKN012=
200904101030 METAR LMML NIL=
200904101015 METAR LMML 101015Z 13008KT 090V150 9000 SCT012 BKN027 17/14
                        Q1010 TEMPO BKN015=
200904101000 METAR LMML NIL=
200904100945 LMML 100945Z 13008KT 090V160 9000 SCT015 BKN030 17/13 Q1011
                        TEMPO BKN015=
200904100930 METAR LMML NIL=
200904100915 METAR LMML 100915Z 10010KT 9000 SCT017 18/14 Q1011 NOSIG=
200904100900 METAR LMML NIL=
200904100845 METAR LMML 100845Z 11011KT 9000 FEW017 18/13 Q1010 NOSIG=
200904100815 METAR LMML 100815Z 10009KT 080V150 9000 FEW019 18/13 Q1011
                        NOSIG=
200904100800 METAR LMML NIL=
200904100745 METAR LMML 100745Z 11009KT 9000 NSC 17/13 Q1011 NOSIG=
200904100730 METAR LMML NIL=
200904100715 METAR LMML 100715Z 10009KT 080V140 9000 NSC 17/13 Q1011 NOSIG=
200904100700 METAR LMML NIL=
200904100645 METAR LMML 100645Z 11009KT 9000 NSC 16/13 Q1011 NOSIG=
200904100630 METAR LMML NIL=
200904100615 METAR LMML 100615Z 11008KT 080V300 9000 NSC 16/14 Q1011 BECMG
                        CAVOK=
200904100600 METAR LMML NIL=
200904100545 METAR LMML 100545Z 12006KT 9000 NSC 15/14 Q1011 BECMG CAVOK=
200904100530 METAR LMML NIL=
200904100515 METAR LMML 100515Z 11006KT 9000 NSC 13/13 Q1011 BECMG CAVOK=
200904100500 METAR LMML NIL=
200904100445 METAR LMML 100445Z 12005KT 9000 NSC 12/12 Q1011 NOSIG=
200904100430 METAR LMML NIL=
200904100415 METAR LMML 100415Z 14005KT CAVOK 14/13 Q1011 NOSIG=
200904100400 METAR LMML NIL=
200904100345 METAR LMML 100345Z 13005KT CAVOK 14/13 Q1010 NOSIG=
200904100330 METAR LMML NIL=
200904100315 METAR LMML 100315Z 14005KT CAVOK 14/13 Q1010 NOSIG=
200904100300 METAR LMML NIL=
200904100245 METAR LMML 100245Z 14006KT CAVOK 14/13 Q1011 NOSIG=
200904100230 METAR LMML NIL=
200904100215 METAR LMML 100215Z 15006KT 120V180 CAVOK 14/13 Q1011 NOSIG=
200904100200 METAR LMML NIL=
200904100145 METAR LMML 100145Z 15007KT 120V180 CAVOK 14/13 Q1011 NOSIG=
200904100130 METAR LMML NIL=
200904100115 METAR LMML 100115Z 14009KT CAVOK 14/13 Q1011 NOSIG=
200904100100 METAR LMML NIL=
200904100045 METAR LMML 100045Z 14010KT 120V180 CAVOK 14/13 Q1011 NOSIG=
200904100030 METAR LMML NIL=
200904100015 METAR LMML 100015Z 14011KT CAVOK 14/13 Q1011 NOSIG=
200904100000 METAR LMML NIL=
200904092345 METAR LMML 092345Z 14012KT CAVOK 14/13 Q1012 NOSIG=
200904092330 METAR LMML NIL=
200904092315 METAR LMML 092315Z 13011KT 100V160 CAVOK 14/13 Q1012 NOSIG=
200904092300 METAR LMML NIL=
200904092245 METAR LMML 092245Z 12013KT CAVOK 14/13 Q1012 NOSIG=
200904092230 METAR LMML NIL=
200904092215 METAR LMML 092215Z 13012KT CAVOK 14/13 Q1012 NOSIG=
200904092200 METAR LMML NIL=
200904092145 METAR LMML 092145Z 12011KT 100V160 CAVOK 14/13 Q1012 NOSIG=
200904092130 METAR LMML NIL=
200904092115 METAR LMML 092115Z 12012KT 9000 FEW010 14/13 Q1012 TEMPO
                        BKN009=
200904092100 METAR LMML NIL=
200904092045 METAR LMML 092045Z 11012KT 9000 FEW010 14/13 Q1012 TEMPO
                        BKN009=
200904092030 METAR LMML NIL=
200904092015 METAR LMML 092015Z 11012KT 9000 FEW010 15/13 Q1012 TEMPO
                        BKN009=
200904092000 METAR LMML NIL=
200904091945 METAR LMML 091945Z 11013KT 9000 FEW010 15/13 Q1012 TEMPO
                        BKN009=
200904091930 METAR LMML NIL=
200904091915 METAR LMML 091915Z 11013KT 9000 FEW009 15/13 Q1012 TEMPO
                        BKN009=
200904091900 METAR LMML NIL=
200904091845 METAR LMML 091845Z 10014KT 070V130 9000 FEW009 15/13 Q1012
                        TEMPO BKN010=
200904091830 METAR LMML NIL=
200904091815 METAR LMML 091815Z 10013KT 9000 SCT010 15/13 Q1011 NOSIG=
200904091800 METAR LMML NIL=
200904091745 METAR LMML 091745Z 09014KT 9000 FEW010 15/13 Q1011 NOSIG=
200904091730 METAR LMML NIL=
200904091715 METAR LMML 091715Z 09015KT 9999 FEW012 15/13 Q1011 NOSIG=
200904091700 METAR LMML NIL=
200904091645 METAR LMML 091645Z 09014KT 060V120 9999 FEW013 16/13 Q1011
                        NOSIG=
200904091630 METAR LMML NIL=
200904091615 METAR LMML 091615Z 09016KT 060V120 9999 FEW014 16/13 Q1012
                        NOSIG=
200904091600 METAR LMML NIL=
200904091545 METAR LMML 091545Z 09016KT 060V120 9999 FEW017 16/13 Q1012
                        NOSIG=
200904091530 METAR LMML NIL=
200904091515 METAR LMML 091515Z 09017KT 070V130 9999 FEW017 17/13 Q1012
                        NOSIG=
200904091500 METAR LMML NIL=
200904091445 METAR LMML 091445Z 09018KT 060V120 9999 FEW018 17/13 Q1012
                        NOSIG=
200904091430 METAR LMML NIL=
200904091415 METAR LMML 091415Z 09017KT 060V120 9999 FEW019 SCT250 17/13
                        Q1012 NOSIG=
200904091400 METAR LMML NIL=
200904091345 METAR LMML 091345Z 09017KT 060V130 9999 FEW019 BKN250 18/13
                        Q1012 NOSIG=
200904091330 METAR LMML NIL=
200904091315 METAR LMML 091315Z 10016KT 070V130 9999 FEW019 BKN250 18/13
                        Q1013 NOSIG=
200904091300 METAR LMML NIL=
200904091245 METAR LMML 091245Z 10018KT 060V130 9999 FEW019 BKN250 18/13
                        Q1013 NOSIG=
200904091230 METAR LMML NIL=
200904091215 METAR LMML 091215Z 09016KT 060V120 9999 FEW019 18/13 Q1013
                        NOSIG=
200904091200 METAR LMML NIL=
200904091145 METAR LMML 091145Z 09016KT 060V130 9999 FEW019 SCT250 18/13
                        Q1014 NOSIG=
200904091115 METAR LMML 091115Z 10015KT 050V140 9999 FEW019 SCT250 18/13
                        Q1014 NOSIG=
200904091100 METAR LMML NIL=
200904091045 METAR LMML 091045Z 09017KT 9999 FEW019 18/13 Q1014 NOSIG=
200904091030 METAR LMML NIL=
200904091015 METAR LMML 091015Z 10018KT 9999 FEW019 18/12 Q1015 NOSIG=
200904091000 METAR LMML NIL=
200904090945 METAR LMML 090945Z 09014KT 060V120 9999 FEW020 18/13 Q1015
                        NOSIG=
200904090930 METAR LMML NIL=
200904090915 METAR LMML 090915Z 08013KT 050V120 9999 FEW020 17/13 Q1015
                        NOSIG=
200904090900 METAR LMML NIL=
200904090845 METAR LMML 090845Z 09013KT 060V120 9999 FEW020 16/13 Q1015
                        NOSIG=
200904090830 METAR LMML NIL=
200904090815 METAR LMML 090815Z 09013KT 050V110 9999 FEW020 SCT120 16/12
                        Q1015 NOSIG=
200904090800 METAR LMML NIL=
200904090745 LMML 090745Z 08013KT 050V110 9999 FEW020 16/13 Q1015 NOSIG=
200904090730 METAR LMML NIL=
200904090715 METAR LMML 090715Z 08012KT 040V110 CAVOK 15/12 Q1015 NOSIG=
200904090700 METAR LMML NIL=
200904090645 METAR LMML 090645Z 08014KT 050V110 CAVOK 15/12 Q1014 NOSIG=
200904090630 METAR LMML NIL=
200904090615 METAR LMML 090615Z 07012KT 040V110 CAVOK 15/12 Q1014 NOSIG=
200904090600 METAR LMML NIL=
200904090545 METAR LMML 090545Z 06013KT 030V090 CAVOK 14/12 Q1014 NOSIG=
200904090530 METAR LMML NIL=
200904090515 METAR LMML 090515Z 06013KT 030V090 CAVOK 14/12 Q1014 NOSIG=
200904090500 METAR LMML NIL=
200904090445 LMML 090445Z 06012KT 030V090 9999 FEW035 BKN120 14/12 Q1014
                        NOSIG=
200904090415 METAR LMML 090415Z 05010KT 020V080 9999 FEW037 BKN080 14/12
                        Q1015 NOSIG=
200904090400 METAR LMML NIL=
200904090345 LMML 090345Z 04009KT 9999 -RA FEW039 BKN080 14/12 Q1015 NOSIG=
200904090330 METAR LMML NIL=
200904090315 LMML 090315Z 01007KT 9999 -RA FEW034 BKN080 14/12 Q1016 NOSIG=
200904090300 METAR LMML NIL=
200904090245 LMML 090245Z 01008KT 9999 -RA FEW040 BKN080 15/13 Q1016 NOSIG=
200904090230 METAR LMML NIL=
200904090215 METAR LMML 090215Z 04006KT 010V070 9999 -RA FEW035 14/11
                        Q1015 NOSIG=
200904090200 METAR LMML NIL=
200904090145 METAR LMML 090145Z 07006KT 9999 -RA FEW030 14/11 Q1015 NOSIG=
200904090130 METAR LMML NIL=
200904090115 METAR LMML 090115Z 08005KT 9999 -RA FEW030 14/11 Q1016 NOSIG=
200904090100 METAR LMML NIL=
200904090045 METAR LMML 090045Z 13005KT 110V170 9999 -RA FEW034 14/11
                        Q1016 NOSIG=
200904090030 METAR LMML NIL=
200904090015 METAR LMML 090015Z VRB02KT 9999 FEW032 15/12 Q1017 NOSIG=
200904090000 METAR LMML NIL=
200904082345 METAR LMML 082345Z 10004KT 070V150 9999 FEW035 15/12 Q1017
                        NOSIG=
200904082330 METAR LMML NIL=
200904082315 METAR LMML 082315Z 13005KT 100V180 9999 FEW020 15/13 Q1017
                        NOSIG=
200904082300 METAR LMML NIL=
200904082245 METAR LMML 082245Z 20006KT 150V240 9999 FEW020 15/13 Q1017
                        NOSIG=
200904082230 METAR LMML NIL=
200904082215 METAR LMML 082215Z 12011KT 100V160 9999 FEW020 15/13 Q1015
                        NOSIG=
200904082200 METAR LMML NIL=
200904082145 METAR LMML 082145Z 12013KT 9999 FEW020 15/13 Q1015 NOSIG=
200904082130 METAR LMML NIL=
200904082115 METAR LMML 082115Z 12014KT 9999 FEW020 15/13 Q1015 NOSIG=
200904082100 METAR LMML NIL=
200904082045 METAR LMML 082045Z 11015KT 9999 FEW020 15/14 Q1015 NOSIG=
200904082030 METAR LMML NIL=
200904082015 METAR LMML 082015Z 12012KT 9999 FEW020 15/14 Q1015 NOSIG=
200904082000 METAR LMML NIL=
200904081945 METAR LMML 081945Z 11013KT 070V160 9999 FEW020 15/14 Q1015
                        NOSIG=
200904081930 METAR LMML NIL=
200904081915 METAR LMML 081915Z 11012KT 9999 FEW020 15/13 Q1015 NOSIG=
200904081900 METAR LMML NIL=
200904081845 METAR LMML 081845Z 11011KT 9999 FEW020 15/13 Q1015 NOSIG=
200904081830 METAR LMML NIL=
200904081815 METAR LMML 081815Z 11009KT 080V140 9999 FEW020 15/13 Q1015
                        NOSIG=
200904081800 METAR LMML NIL=
200904081745 METAR LMML 081745Z 11009KT 9999 FEW020 15/13 Q1015 NOSIG=
200904081730 METAR LMML NIL=
200904081715 METAR LMML 081715Z 11009KT 080V140 9999 FEW020 16/13 Q1015
                        NOSIG=
200904081700 METAR LMML NIL=
200904081645 METAR LMML 081645Z 11010KT 9999 FEW020 16/13 Q1015 NOSIG=
200904081630 METAR LMML NIL=
200904081615 METAR LMML 081615Z 10011KT CAVOK 17/13 Q1015 NOSIG=
200904081600 METAR LMML NIL=
200904081545 METAR LMML 081545Z 11009KT 070V140 CAVOK 18/13 Q1015 NOSIG=
200904081530 METAR LMML NIL=
200904081515 METAR LMML 081515Z 11010KT 080V140 CAVOK 18/12 Q1016 NOSIG=
200904081500 METAR LMML NIL=
200904081445 METAR LMML 081445Z 12010KT CAVOK 19/11 Q1016 NOSIG=
200904081430 METAR LMML NIL=
200904081415 METAR LMML 081415Z 13009KT 090V160 CAVOK 19/11 Q1016 NOSIG=
200904081400 METAR LMML NIL=
200904081345 METAR LMML 081345Z 14009KT 110V190 CAVOK 19/13 Q1016 NOSIG=
200904081330 METAR LMML NIL=
200904081315 METAR LMML 081315Z 16009KT 130V190 CAVOK 20/10 Q1016 NOSIG=
200904081300 METAR LMML NIL=
200904081245 METAR LMML 081245Z 16008KT 130V220 CAVOK 20/10 Q1017 NOSIG=
200904081230 METAR LMML NIL=
200904081215 METAR LMML 081215Z 17009KT 140V210 CAVOK 18/11 Q1017 NOSIG=
200904081200 METAR LMML NIL=
200904081145 METAR LMML 081145Z 18011KT 150V220 CAVOK 19/11 Q1017 NOSIG=
200904081130 METAR LMML NIL=
200904081115 METAR LMML 081115Z 18011KT 150V210 CAVOK 19/12 Q1017 NOSIG=
200904081100 METAR LMML NIL=
200904081045 METAR LMML 081045Z 19012KT 160V220 CAVOK 19/12 Q1018 NOSIG=
200904081030 METAR LMML NIL=
200904081015 METAR LMML 081015Z 18011KT CAVOK 18/12 Q1018 NOSIG=
200904081000 METAR LMML NIL=
200904080945 METAR LMML 080945Z 18012KT CAVOK 18/12 Q1018 NOSIG=
200904080930 METAR LMML NIL=
200904080915 METAR LMML 080915Z 18012KT 150V220 CAVOK 18/12 Q1018 NOSIG=
200904080900 METAR LMML NIL=
200904080845 METAR LMML 080845Z 18010KT 150V210 CAVOK 18/11 Q1018 NOSIG=
200904080830 METAR LMML NIL=
200904080815 METAR LMML 080815Z 19010KT 160V220 CAVOK 18/11 Q1018 NOSIG=
200904080800 METAR LMML NIL=
200904080745 METAR LMML 080745Z 18010KT 150V220 CAVOK 17/11 Q1017 NOSIG=
200904080730 METAR LMML NIL=
200904080715 METAR LMML 080715Z 18009KT 150V210 CAVOK 17/12 Q1017 NOSIG=
200904080700 METAR LMML NIL=
200904080645 METAR LMML 080645Z 18007KT 140V210 CAVOK 16/12 Q1017 NOSIG=
200904080630 METAR LMML NIL=
200904080615 METAR LMML 080615Z 17005KT 140V200 CAVOK 16/13 Q1017 NOSIG=
200904080600 METAR LMML NIL=
200904080545 METAR LMML 080545Z 17004KT 130V210 CAVOK 15/13 Q1017 NOSIG=
200904080530 METAR LMML NIL=
200904080515 METAR LMML 080515Z 17004KT 120V200 CAVOK 14/12 Q1017 NOSIG=
200904080500 METAR LMML NIL=
200904080445 METAR LMML 080445Z 16004KT CAVOK 14/11 Q1016 NOSIG=
200904080430 METAR LMML NIL=
200904080415 METAR LMML 080415Z 17004KT CAVOK 14/11 Q1016 NOSIG=
200904080400 METAR LMML NIL=
200904080345 METAR LMML 080345Z 16006KT CAVOK 14/12 Q1016 NOSIG=
200904080330 METAR LMML NIL=
200904080315 METAR LMML 080315Z 17005KT CAVOK 14/12 Q1016 NOSIG=
200904080300 METAR LMML NIL=
200904080245 METAR LMML 080245Z 17005KT CAVOK 14/12 Q1016 NOSIG=
200904080230 METAR LMML NIL=
200904080215 METAR LMML 080215Z 17005KT CAVOK 14/12 Q1016 NOSIG=
200904080200 METAR LMML NIL=
200904080145 METAR LMML 080145Z 17005KT CAVOK 14/12 Q1016 NOSIG=
200904080130 METAR LMML NIL=
200904080115 METAR LMML 080115Z 17005KT CAVOK 14/12 Q1016 NOSIG=
200904080100 METAR LMML NIL=
200904080045 METAR LMML 080045Z 17004KT CAVOK 14/12 Q1016 NOSIG=
200904080030 METAR LMML NIL=
200904080015 METAR LMML 080015Z 16005KT CAVOK 14/12 Q1017 NOSIG=
200904080000 METAR LMML NIL=
200904072345 METAR LMML 072345Z 16004KT CAVOK 13/12 Q1017 NOSIG=
200904072330 METAR LMML NIL=
200904072315 METAR LMML 072315Z VRB03KT CAVOK 14/13 Q1017 NOSIG=
200904072300 METAR LMML NIL=
200904072245 METAR LMML 072245Z VRB03KT CAVOK 14/13 Q1017 NOSIG=
200904072230 METAR LMML NIL=
200904072215 METAR LMML 072215Z 16004KT CAVOK 14/13 Q1017 NOSIG=
200904072200 METAR LMML NIL=
200904072145 METAR LMML 072145Z 15004KT CAVOK 14/13 Q1017 NOSIG=
200904072130 METAR LMML NIL=
200904072115 METAR LMML 072115Z 16006KT CAVOK 14/13 Q1018 NOSIG=
200904072100 METAR LMML NIL=
200904072045 METAR LMML 072045Z 17004KT CAVOK 14/13 Q1018 NOSIG=
200904072030 METAR LMML NIL=
200904072015 METAR LMML 072015Z 17004KT CAVOK 14/13 Q1018 NOSIG=
200904072000 METAR LMML NIL=
200904071945 METAR LMML 071945Z 17005KT CAVOK 15/13 Q1018 NOSIG=
200904071930 METAR LMML NIL=
200904071915 METAR LMML 071915Z 18006KT CAVOK 15/13 Q1017 NOSIG=
200904071900 METAR LMML NIL=
200904071845 METAR LMML 071845Z 19006KT CAVOK 15/13 Q1017 NOSIG=
200904071830 METAR LMML NIL=
200904071815 METAR LMML 071815Z 18007KT CAVOK 15/13 Q1017 NOSIG=
200904071800 METAR LMML NIL=
200904071745 METAR LMML 071745Z 18006KT CAVOK 15/13 Q1017 NOSIG=
200904071730 METAR LMML NIL=
200904071715 METAR LMML 071715Z 18005KT CAVOK 16/12 Q1016 NOSIG=
200904071700 METAR LMML NIL=
200904071645 METAR LMML 071645Z 18006KT 150V210 CAVOK 16/12 Q1016 NOSIG=
200904071630 METAR LMML NIL=
200904071615 METAR LMML 071615Z 19006KT 150V230 CAVOK 17/12 Q1016 NOSIG=
200904071600 METAR LMML NIL=
200904071545 METAR LMML 071545Z 20007KT 170V230 CAVOK 17/11 Q1016 NOSIG=
200904071530 METAR LMML NIL=
200904071515 METAR LMML 071515Z 21007KT 170V250 CAVOK 18/10 Q1016 NOSIG=
200904071500 METAR LMML NIL=
200904071445 METAR LMML 071445Z 22007KT 180V290 CAVOK 18/09 Q1016 NOSIG=
200904071430 METAR LMML NIL=
200904071415 METAR LMML 071415Z 21007KT 180V260 CAVOK 18/08 Q1016 NOSIG=
200904071400 METAR LMML NIL=
200904071345 METAR LMML 071345Z 22008KT 180V260 CAVOK 18/08 Q1017 NOSIG=
200904071330 METAR LMML NIL=
200904071315 METAR LMML 071315Z 22008KT 170V260 CAVOK 18/09 Q1017 NOSIG=
200904071300 METAR LMML NIL=
200904071245 METAR LMML 071245Z 21008KT 170V270 CAVOK 18/10 Q1017 NOSIG=
200904071230 METAR LMML NIL=
200904071215 METAR LMML 071215Z 23008KT 190V280 CAVOK 18/12 Q1017 NOSIG=
200904071200 METAR LMML NIL=
200904071145 METAR LMML 071145Z 22010KT 190V270 CAVOK 18/09 Q1018 NOSIG=
200904071130 METAR LMML NIL=
200904071115 METAR LMML 071115Z 22008KT 190V270 CAVOK 18/10 Q1018 NOSIG=
200904071100 METAR LMML NIL=
200904071045 METAR LMML 071045Z 23007KT 170V290 CAVOK 18/11 Q1018 NOSIG=
200904071030 METAR LMML NIL=
200904071015 METAR LMML 071015Z 25007KT 210V280 9999 FEW020 18/11 Q1018
                        NOSIG=
200904071000 METAR LMML NIL=
200904070945 METAR LMML 070945Z 23009KT 200V270 9999 FEW020 18/12 Q1018
                        NOSIG=
200904070930 METAR LMML NIL=
200904070915 METAR LMML 070915Z 23005KT 200V300 9999 FEW020 17/13 Q1018
                        NOSIG=
200904070900 METAR LMML NIL=
200904070845 METAR LMML 070845Z 25006KT 200V310 9999 FEW020 18/12 Q1018
                        NOSIG=
200904070830 METAR LMML NIL=
200904070815 LMML 070815Z 27007KT 240V310 CAVOK 17/11 Q1018 NOSIG=
200904070800 METAR LMML NIL=
200904070745 METAR LMML 070745Z 27008KT 220V310 9999 FEW020 16/11 Q1018
                        NOSIG=
200904070730 METAR LMML NIL=
200904070715 METAR LMML 070715Z 27008KT 230V300 CAVOK 15/12 Q1017 NOSIG=
200904070700 METAR LMML NIL=
200904070645 METAR LMML 070645Z 26007KT 210V290 9999 FEW015 14/12 Q1017
                        BECMG CAVOK=
200904070630 METAR LMML NIL=
200904070615 METAR LMML 070615Z 26007KT 220V300 CAVOK 14/12 Q1017 NOSIG=
200904070600 METAR LMML NIL=
200904070545 METAR LMML 070545Z 25006KT 200V290 CAVOK 13/11 Q1017 NOSIG=
200904070515 METAR LMML 070515Z 26006KT 230V290 9000 NSC 12/11 Q1017 NOSIG=
200904070500 METAR LMML NIL=
200904070445 METAR LMML 070445Z 26005KT 9000 NSC 11/10 Q1017 NOSIG=
200904070430 METAR LMML NIL=
200904070415 METAR LMML 070415Z 25005KT 220V290 9000 NSC 12/10 Q1016 NOSIG=
200904070400 METAR LMML NIL=
200904070345 METAR LMML 070345Z 26006KT 9000 FEW011 12/10 Q1016 NOSIG=
200904070330 METAR LMML NIL=
200904070315 METAR LMML 070315Z 26007KT 210V290 9000 FEW011 12/11 Q1016
                        NOSIG=
200904070300 METAR LMML NIL=
200904070245 METAR LMML 070245Z 27008KT 240V300 9000 FEW011 12/11 Q1017
                        NOSIG=
200904070230 METAR LMML NIL=
200904070215 METAR LMML 070215Z 28007KT 250V310 9000 FEW011 12/11 Q1017
                        NOSIG=
200904070200 METAR LMML NIL=
200904070145 METAR LMML 070145Z 28006KT 250V330 9000 FEW011 12/11 Q1017
                        NOSIG=
200904070130 METAR LMML NIL=
200904070115 METAR LMML 070115Z 28007KT 240V320 9000 FEW011 12/11 Q1017
                        NOSIG=
200904070100 METAR LMML NIL=
200904070045 METAR LMML 070045Z 27007KT 220V290 9000 FEW011 12/11 Q1017
                        NOSIG=
200904070030 METAR LMML NIL=
200904070015 METAR LMML 070015Z 27007KT 9000 FEW011 12/11 Q1017 NOSIG=
200904070000 METAR LMML NIL=
200904062345 METAR LMML 062345Z 28008KT 9000 FEW011 12/11 Q1017 NOSIG=
200904062330 METAR LMML NIL=
200904062315 METAR LMML 062315Z 28009KT 250V310 9000 FEW011 13/11 Q1018
                        NOSIG=
200904062300 METAR LMML NIL=
200904062245 METAR LMML 062245Z 28009KT 250V310 9000 FEW011 13/11 Q1018
                        NOSIG=
200904062230 METAR LMML NIL=
200904062215 METAR LMML 062215Z 28009KT 250V310 9000 FEW011 13/11 Q1018
                        NOSIG=
200904062200 METAR LMML NIL=
200904062145 METAR LMML 062145Z 28008KT 250V320 9000 FEW011 13/11 Q1018
                        NOSIG=
200904062130 METAR LMML NIL=
200904062115 METAR LMML 062115Z 28008KT 240V310 9000 FEW011 13/11 Q1018
                        NOSIG=
200904062100 METAR LMML NIL=
200904062045 METAR LMML 062045Z 28009KT 250V310 9000 FEW011 13/11 Q1018
                        NOSIG=
200904062030 METAR LMML NIL=
200904062015 METAR LMML 062015Z 28011KT 250V320 9000 FEW011 13/11 Q1018
                        NOSIG=
200904062000 METAR LMML NIL=
200904061945 METAR LMML 061945Z 28011KT 9000 FEW011 13/11 Q1017 NOSIG=
200904061930 METAR LMML NIL=
200904061915 METAR LMML 061915Z 28010KT 250V310 9000 FEW011 13/11 Q1017
                        NOSIG=
200904061900 METAR LMML NIL=
200904061845 METAR LMML 061845Z 28012KT 250V310 9000 FEW011 13/11 Q1017
                        NOSIG=
200904061830 METAR LMML NIL=
200904061815 METAR LMML 061815Z 28013KT 250V310 7000 SCT011 13/11 Q1017
                        NOSIG=
200904061800 METAR LMML NIL=
200904061745 METAR LMML 061745Z 28012KT 240V300 7000 SCT012 13/11 Q1017
                        NOSIG=
200904061730 METAR LMML NIL=
200904061715 METAR LMML 061715Z 29014KT 9000 SCT012 14/11 Q1017 NOSIG=
200904061700 METAR LMML NIL=
200904061645 METAR LMML 061645Z 28015KT 250V310 9999 FEW012 14/11 Q1017
                        NOSIG=
200904061630 METAR LMML NIL=
200904061615 METAR LMML 061615Z 28016KT 250V310 9999 FEW013 15/11 Q1017
                        NOSIG=
200904061600 METAR LMML NIL=
200904061545 METAR LMML 061545Z 29017KT 250V320 9999 FEW014 15/11 Q1016
                        NOSIG=
200904061530 METAR LMML NIL=
200904061515 METAR LMML 061515Z 29018KT 240V320 9999 FEW015 15/11 Q1016
                        NOSIG=
200904061500 METAR LMML NIL=
200904061445 METAR LMML 061445Z 29017KT 250V310 9999 FEW016 16/11 Q1016
                        NOSIG=
200904061430 METAR LMML NIL=
200904061415 METAR LMML 061415Z 28017KT 250V310 9999 FEW018 16/12 Q1017
                        NOSIG=
200904061400 METAR LMML NIL=
200904061345 METAR LMML 061345Z 30018KT 9999 SCT018 16/11 Q1017 NOSIG=
200904061330 METAR LMML NIL=
200904061315 METAR LMML 061315Z 29018KT 270V330 9999 SCT018 16/11 Q1017
                        NOSIG=
200904061300 METAR LMML NIL=
200904061245 METAR LMML 061245Z 29020KT 9999 SCT019 16/11 Q1017 NOSIG=
200904061230 METAR LMML NIL=
200904061215 METAR LMML 061215Z 29018KT 9999 FEW018 17/11 Q1017 NOSIG=
200904061200 METAR LMML NIL=
200904061145 METAR LMML 061145Z 29017KT 260V330 9999 SCT019 17/11 Q1017
                        NOSIG=
200904061130 METAR LMML NIL=
200904061115 METAR LMML 061115Z 29018KT 250V320 9999 SCT019 17/11 Q1018
                        NOSIG=
200904061100 METAR LMML NIL=
200904061045 METAR LMML 061045Z 29017KT 250V320 9999 SCT019 17/11 Q1018
                        NOSIG=
200904061030 METAR LMML NIL=
200904061015 METAR LMML 061015Z 30016KT 260V330 9999 SCT019 17/11 Q1018
                        NOSIG=
200904061000 METAR LMML NIL=
200904060945 METAR LMML 060945Z 30018KT 270V330 9999 SCT019 16/10 Q1019
                        NOSIG=
200904060930 METAR LMML NIL=
200904060915 METAR LMML 060915Z 31017KT 270V340 9999 BKN019 15/10 Q1019
                        NOSIG=
200904060900 METAR LMML NIL=
200904060845 METAR LMML 060845Z 30016KT 270V330 9999 BKN019 15/10 Q1019
                        NOSIG=
200904060830 METAR LMML NIL=
200904060815 METAR LMML 060815Z 30015KT 270V330 9999 SCT018 15/11 Q1018
                        NOSIG=
200904060800 LMML NIL=
200904060745 METAR LMML 060745Z 30013KT 270V330 9999 SCT016 SCT250 14/11
                        Q1018 TEMPO BKN015=
200904060730 METAR LMML NIL=
200904060715 METAR LMML 060715Z 31014KT 9999 SCT015 14/11 Q1018 TEMPO
                        BKN015=
200904060700 METAR LMML NIL=
200904060645 METAR LMML 060645Z 30013KT 270V330 9999 SCT014 13/11 Q1018
                        TEMPO BKN014=
200904060630 METAR LMML NIL=
200904060615 METAR LMML 060615Z 31011KT 270V330 9999 FEW015 SCT250 14/11
                        Q1018 NOSIG=
200904060600 METAR LMML NIL=
200904060545 METAR LMML 060545Z 29012KT 260V320 9999 FEW020 13/11 Q1017
                        NOSIG=
200904060530 METAR LMML NIL=
200904060515 METAR LMML 060515Z 30009KT 9999 FEW020 12/11 Q1017 NOSIG=
200904060445 METAR LMML 060445Z 30008KT 270V330 9999 FEW020 12/11 Q1017
                        NOSIG=
200904060430 METAR LMML NIL=
200904060415 METAR LMML 060415Z 30009KT 9999 FEW020 12/11 Q1017 NOSIG=
200904060400 METAR LMML NIL=
200904060345 METAR LMML 060345Z 30008KT CAVOK 12/11 Q1017 NOSIG=
200904060330 METAR LMML NIL=
200904060315 METAR LMML 060315Z 31010KT CAVOK 12/11 Q1017 NOSIG=
200904060300 METAR LMML NIL=
200904060245 METAR LMML 060245Z 30008KT 270V330 CAVOK 12/11 Q1017 NOSIG=
200904060230 METAR LMML NIL=
200904060215 METAR LMML 060215Z 30009KT CAVOK 12/11 Q1017 NOSIG=
200904060200 METAR LMML NIL=
200904060145 METAR LMML 060145Z 30009KT CAVOK 13/11 Q1017 NOSIG=
200904060130 METAR LMML NIL=
200904060115 METAR LMML 060115Z 30009KT CAVOK 13/11 Q1017 NOSIG=
200904060100 METAR LMML NIL=
200904060045 METAR LMML 060045Z 30009KT CAVOK 13/11 Q1017 NOSIG=
200904060030 METAR LMML NIL=
200904060015 METAR LMML 060015Z 30008KT CAVOK 13/12 Q1017 NOSIG=
200904060000 METAR LMML NIL=
200904052345 METAR LMML 052345Z 30009KT CAVOK 13/12 Q1017 NOSIG=
200904052330 METAR LMML NIL=
200904052315 METAR LMML 052315Z 29011KT CAVOK 13/12 Q1017 NOSIG=
200904052300 METAR LMML NIL=
200904052245 METAR LMML 052245Z 29012KT CAVOK 13/12 Q1017 NOSIG=
200904052230 METAR LMML NIL=
200904052215 METAR LMML 052215Z 29012KT 9999 FEW012 13/12 Q1017 NOSIG=
200904052200 METAR LMML NIL=
200904052145 METAR LMML 052145Z 29013KT 9999 FEW012 13/11 Q1017 NOSIG=
200904052130 METAR LMML NIL=
200904052115 METAR LMML 052115Z 29012KT 9999 FEW012 13/11 Q1018 NOSIG=
200904052100 METAR LMML NIL=
200904052045 METAR LMML 052045Z 29010KT 250V320 9999 FEW020 13/11 Q1018
                        NOSIG=
200904052030 METAR LMML NIL=
200904052015 METAR LMML 052015Z 28010KT 9999 FEW020 13/11 Q1018 NOSIG=
200904052000 METAR LMML NIL=
200904051945 METAR LMML 051945Z 28010KT 9999 FEW020 13/11 Q1018 NOSIG=
200904051930 METAR LMML NIL=
200904051915 METAR LMML 051915Z 29012KT 9999 FEW020 13/11 Q1018 NOSIG=
200904051900 METAR LMML NIL=
200904051845 METAR LMML 051845Z 30007KT 250V320 9999 FEW020 13/11 Q1017
                        NOSIG=
200904051830 METAR LMML NIL=
200904051815 METAR LMML 051815Z 30008KT 9999 FEW020 13/11 Q1017 NOSIG=
200904051800 METAR LMML NIL=
200904051745 METAR LMML 051745Z 30010KT 260V330 9999 FEW020 13/11 Q1017
                        NOSIG=
200904051730 METAR LMML NIL=
200904051715 METAR LMML 051715Z 30011KT 270V350 9999 FEW020 14/11 Q1017
                        NOSIG=
200904051700 METAR LMML NIL=
200904051645 METAR LMML 051645Z 29012KT 260V330 9999 FEW020 15/11 Q1017
                        NOSIG=
200904051630 METAR LMML NIL=
200904051615 METAR LMML 051615Z 30011KT 270V330 9999 FEW020 15/11 Q1017
                        NOSIG=
200904051600 METAR LMML NIL=
200904051545 METAR LMML 051545Z 29014KT 260V320 9999 FEW020 16/10 Q1017
                        NOSIG=
200904051530 METAR LMML NIL=
200904051515 METAR LMML 051515Z 30013KT 270V340 9999 FEW020 16/11 Q1017
                        NOSIG=
200904051500 METAR LMML NIL=
200904051445 METAR LMML 051445Z 30014KT 270V340 9999 FEW030 16/11 Q1017
                        NOSIG=
200904051430 METAR LMML NIL=
200904051415 METAR LMML 051415Z 30015KT 9999 FEW030 17/11 Q1017 NOSIG=
200904051400 METAR LMML NIL=
200904051345 METAR LMML 051345Z 30012KT 9999 FEW030 17/11 Q1017 NOSIG=
200904051330 METAR LMML NIL=
200904051315 METAR LMML 051315Z 30013KT 270V330 9999 FEW030 17/11 Q1017
                        NOSIG=
200904051300 METAR LMML NIL=
200904051245 METAR LMML 051245Z 29011KT 250V330 9999 FEW030 18/11 Q1017
                        NOSIG=
200904051230 METAR LMML NIL=
200904051215 METAR LMML 051215Z 29011KT 270V330 9999 FEW030 18/09 Q1017
                        NOSIG=
200904051200 METAR LMML NIL=
200904051145 METAR LMML 051145Z 30010KT 270V340 9999 FEW030 18/09 Q1018
                        NOSIG=
200904051130 METAR LMML NIL=
200904051115 METAR LMML 051115Z 31009KT 260V350 9999 FEW036 18/10 Q1018
                        NOSIG=
200904051100 METAR LMML NIL=
200904051045 METAR LMML 051045Z 32007KT 260V340 9999 FEW028 18/09 Q1018
                        NOSIG=
200904051030 METAR LMML NIL=
200904051015 METAR LMML 051015Z 32006KT 270V010 9999 FEW027 18/11 Q1018
                        NOSIG=
200904051000 METAR LMML NIL=
200904050945 METAR LMML 050945Z 35005KT 310V030 9999 FEW030 18/10 Q1019
                        NOSIG=
200904050930 METAR LMML NIL=
200904050915 METAR LMML 050915Z 33006KT 290V010 9999 FEW020 17/11 Q1019
                        NOSIG=
200904050900 METAR LMML NIL=
200904050845 METAR LMML 050845Z 33006KT 290V010 9999 SCT019 16/11 Q1019
                        TEMPO BKN013=
200904050830 METAR LMML NIL=
200904050815 METAR LMML 050815Z 33006KT 280V010 9999 SCT016 16/11 Q1019
                        TEMPO BKN013=
200904050800 METAR LMML NIL=
200904050745 METAR LMML 050745Z 34008KT 9999 FEW014 15/12 Q1018 TEMPO
                        BKN013=
200904050730 METAR LMML NIL=
200904050715 METAR LMML 050715Z 34009KT 9999 FEW012 15/13 Q1018 TEMPO
                        BKN013=
200904050700 METAR LMML NIL=
200904050645 METAR LMML 050645Z 35007KT 320V020 9000 FEW012 14/13 Q1018
                        BECMG 9999=
200904050630 METAR LMML NIL=
200904050615 METAR LMML 050615Z 34006KT 7000 FEW010 13/13 Q1018 BECMG
                        9999=
200904050600 METAR LMML NIL=
200904050545 METAR LMML 050545Z VRB03KT 7000 FEW008 12/11 Q1017 BECMG
                        9999=
200904050530 METAR LMML NIL=
200904050515 METAR LMML 050515Z VRB03KT 7000 FEW008 12/11 Q1017 BECMG
                        9999=
200904050500 METAR LMML NIL=
200904050445 METAR LMML 050445Z 27004KT 7000 FEW020 11/11 Q1017 BECMG
                        9999=
200904050415 METAR LMML 050415Z 27004KT CAVOK 11/11 Q1017 NOSIG=
200904050345 METAR LMML 050345Z VRB03KT 9999 FEW020 11/10 Q1017 NOSIG=
200904050330 METAR LMML NIL=
200904050315 METAR LMML 050315Z VRB03KT 9999 FEW020 11/10 Q1017 NOSIG=
200904050300 METAR LMML NIL=
200904050245 METAR LMML 050245Z 29004KT 9999 FEW020 12/11 Q1017 NOSIG=
200904050230 METAR LMML NIL=
200904050215 METAR LMML 050215Z 30004KT 9999 FEW020 11/11 Q1017 NOSIG=
200904050200 METAR LMML NIL=
200904050145 METAR LMML 050145Z 30004KT 9999 FEW020 11/10 Q1017 NOSIG=
200904050130 METAR LMML NIL=
200904050115 METAR LMML 050115Z VRB02KT 9999 FEW020 12/11 Q1017 NOSIG=
200904050100 METAR LMML NIL=
200904050045 METAR LMML 050045Z 25004KT 210V290 9999 FEW020 12/11 Q1017
                        NOSIG=
200904050030 METAR LMML NIL=
200904050015 METAR LMML 050015Z 25004KT 9999 FEW020 12/11 Q1017 NOSIG=
200904050000 METAR LMML NIL=
200904042345 METAR LMML 042345Z VRB03KT 9999 FEW020 12/11 Q1018 NOSIG=
200904042330 METAR LMML NIL=
200904042315 METAR LMML 042315Z 24004KT 9999 FEW020 12/11 Q1018 NOSIG=
200904042300 METAR LMML NIL=
200904042245 METAR LMML 042245Z VRB03KT CAVOK 12/11 Q1018 NOSIG=
200904042215 METAR LMML 042215Z VRB03KT CAVOK 12/11 Q1018 NOSIG=
200904042145 METAR LMML 042145Z 29004KT CAVOK 12/11 Q1018 NOSIG=
200904042130 METAR LMML NIL=
200904042115 METAR LMML 042115Z 31005KT CAVOK 12/11 Q1018 NOSIG=
200904042100 METAR LMML NIL=
200904042045 METAR LMML 042045Z 31005KT CAVOK 13/11 Q1018 NOSIG=
200904042030 METAR LMML NIL=
200904042015 METAR LMML 042015Z 30005KT CAVOK 13/11 Q1018 NOSIG=
200904042000 METAR LMML NIL=
200904041945 METAR LMML 041945Z 30005KT CAVOK 13/11 Q1018 NOSIG=
200904041930 METAR LMML NIL=
200904041915 METAR LMML 041915Z 31005KT 280V340 CAVOK 13/11 Q1018 NOSIG=
200904041900 METAR LMML NIL=
200904041845 METAR LMML 041845Z 30005KT 9999 FEW020 SCT120 14/11 Q1018
                        NOSIG=
200904041830 METAR LMML NIL=
200904041815 METAR LMML 041815Z 30005KT 9999 FEW020 BKN120 14/11 Q1017
                        NOSIG=
200904041800 METAR LMML NIL=
200904041745 METAR LMML 041745Z 30005KT 9999 FEW020 14/11 Q1017 NOSIG=
200904041730 METAR LMML NIL=
200904041715 METAR LMML 041715Z 30008KT 9999 FEW026 15/11 Q1017 NOSIG=
200904041700 METAR LMML NIL=
200904041645 METAR LMML 041645Z 31009KT 9999 FEW026 16/11 Q1017 NOSIG=
200904041630 METAR LMML NIL=
200904041615 METAR LMML 041615Z 30008KT 9999 FEW026 16/10 Q1016 NOSIG=
200904041600 METAR LMML NIL=
200904041545 METAR LMML 041545Z 29010KT 9999 FEW027 17/08 Q1016 NOSIG=
200904041530 METAR LMML NIL=
200904041515 METAR LMML 041515Z 31008KT 9999 FEW024 18/08 Q1016 NOSIG=
200904041500 METAR LMML NIL=
200904041445 METAR LMML 041445Z VRB02KT 9999 FEW024 18/09 Q1016 NOSIG=
200904041430 METAR LMML NIL=
200904041415 METAR LMML 041415Z 07008KT 280V110 9999 FEW033 17/12 Q1016
                        NOSIG=
200904041400 METAR LMML NIL=
200904041345 METAR LMML 041345Z 07007KT 040V110 9999 FEW035 18/10 Q1016
                        NOSIG=
200904041330 METAR LMML NIL=
200904041315 METAR LMML 041315Z 07007KT 030V110 9999 FEW035 18/10 Q1016
                        NOSIG=
200904041300 METAR LMML NIL=
200904041245 METAR LMML 041245Z 05006KT 010V100 9999 FEW035 SCT120 18/11
                        Q1017 NOSIG=
200904041215 METAR LMML 041215Z 05006KT 010V080 9999 FEW038 SCT120 18/11
                        Q1017 NOSIG=
200904041200 METAR LMML NIL=
200904041145 METAR LMML 041145Z VRB02KT 9999 FEW036 20/10 Q1017 NOSIG=
200904041130 METAR LMML NIL=
200904041115 METAR LMML 041115Z 22006KT 170V260 9999 FEW037 19/09 Q1017
                        NOSIG=
200904041100 METAR LMML NIL=
200904041045 METAR LMML 041045Z 22005KT 170V270 9999 FEW037 19/11 Q1017
                        NOSIG=
200904041030 METAR LMML NIL=
200904041015 METAR LMML 041015Z 22005KT 170V320 9999 FEW030 18/11 Q1017
                        NOSIG=
200904041000 METAR LMML NIL=
200904040945 METAR LMML 040945Z 21005KT 160V280 CAVOK 18/11 Q1017 NOSIG=
200904040930 METAR LMML NIL=
200904040915 METAR LMML 040915Z VRB02KT CAVOK 19/08 Q1017 NOSIG=
200904040900 METAR LMML NIL=
200904040845 METAR LMML 040845Z VRB03KT CAVOK 18/09 Q1017 NOSIG=
200904040830 METAR LMML NIL=
200904040815 METAR LMML 040815Z VRB02KT CAVOK 18/07 Q1017 NOSIG=
200904040800 METAR LMML NIL=
200904040745 METAR LMML 040745Z VRB01KT 9000 SCT090 SCT250 16/11 Q1017
                        BECMG CAVOK=
200904040730 METAR LMML NIL=
200904040715 METAR LMML 040715Z VRB02KT 9000 SCT090 SCT250 15/13 Q1017
                        BECMG CAVOK=
200904040700 METAR LMML NIL=
200904040645 METAR LMML 040645Z VRB02KT 7000 FEW120 14/13 Q1016 BECMG
                        CAVOK=
200904040630 METAR LMML NIL=
200904040615 METAR LMML 040615Z VRB01KT 6000 FEW120 12/12 Q1016 BECMG
                        CAVOK=
200904040600 METAR LMML NIL=
200904040545 METAR LMML 040545Z VRB02KT 6000 FEW120 11/10 Q1016 BECMG
                        CAVOK=
200904040530 METAR LMML NIL=
200904040515 METAR LMML 040515Z VRB01KT 6000 MIFG SCT120 10/09 Q1016 BECMG
                        CAVOK=
200904040500 METAR LMML NIL=
200904040445 METAR LMML 040445Z VRB02KT 9000 MIFG FEW110 10/10 Q1016 NOSIG=
200904040430 METAR LMML NIL=
200904040415 METAR LMML 040415Z VRB01KT 9000 SCT110 10/10 Q1016 NOSIG=
200904040400 METAR LMML NIL=
200904040345 METAR LMML 040345Z VRB01KT 9000 SCT110 11/10 Q1016 NOSIG=
200904040330 METAR LMML NIL=
200904040315 METAR LMML 040315Z VRB03KT 9000 SKC 11/10 Q1016 NOSIG=
200904040300 METAR LMML NIL=
200904040245 METAR LMML 040245Z 32004KT CAVOK 11/10 Q1016 NOSIG=
200904040230 METAR LMML NIL=
200904040215 METAR LMML 040215Z 31005KT CAVOK 11/10 Q1016 NOSIG=
200904040200 METAR LMML NIL=
200904040145 METAR LMML 040145Z VRB03KT CAVOK 11/10 Q1016 NOSIG=
200904040130 METAR LMML NIL=
200904040115 METAR LMML 040115Z VRB03KT CAVOK 11/10 Q1016 NOSIG=
200904040100 METAR LMML NIL=
200904040045 METAR LMML 040045Z VRB03KT CAVOK 11/10 Q1017 NOSIG=
200904040030 METAR LMML NIL=
200904040015 METAR LMML 040015Z VRB03KT CAVOK 11/10 Q1017 NOSIG=
200904040000 METAR LMML NIL=
200904032345 METAR LMML 032345Z VRB02KT CAVOK 11/10 Q1017 NOSIG=
200904032330 METAR LMML NIL=
200904032315 METAR LMML 032315Z VRB02KT CAVOK 11/10 Q1017 NOSIG=
200904032300 METAR LMML NIL=
200904032245 METAR LMML 032245Z VRB02KT CAVOK 11/10 Q1017 NOSIG=
200904032230 METAR LMML NIL=
200904032215 METAR LMML 032215Z VRB03KT CAVOK 13/11 Q1018 NOSIG=
200904032200 METAR LMML NIL=
200904032145 METAR LMML 032145Z VRB02KT CAVOK 13/11 Q1018 NOSIG=
200904032130 METAR LMML NIL=
200904032115 METAR LMML 032115Z VRB03KT CAVOK 13/10 Q1018 NOSIG=
200904032100 METAR LMML NIL=
200904032045 METAR LMML 032045Z VRB02KT CAVOK 13/11 Q1018 NOSIG=
200904032030 METAR LMML NIL=
200904032015 METAR LMML 032015Z 04004KT 010V070 CAVOK 13/11 Q1018 NOSIG=
200904032000 METAR LMML NIL=
200904031945 METAR LMML 031945Z VRB03KT CAVOK 14/11 Q1018 NOSIG=
200904031930 METAR LMML NIL=
200904031915 METAR LMML 031915Z VRB03KT CAVOK 14/11 Q1018 NOSIG=
200904031900 METAR LMML NIL=
200904031845 METAR LMML 031845Z VRB02KT CAVOK 14/10 Q1017 NOSIG=
200904031830 METAR LMML NIL=
200904031815 METAR LMML 031815Z VRB03KT CAVOK 15/10 Q1017 NOSIG=
200904031800 METAR LMML NIL=
200904031745 METAR LMML 031745Z VRB03KT CAVOK 15/10 Q1016 NOSIG=
200904031730 METAR LMML NIL=
200904031715 METAR LMML 031715Z 01004KT CAVOK 16/10 Q1016 NOSIG=
200904031700 METAR LMML NIL=
200904031645 METAR LMML 031645Z 36006KT CAVOK 17/10 Q1016 NOSIG=
200904031630 METAR LMML NIL=
200904031615 METAR LMML 031615Z 35005KT 320V040 9999 FEW025 18/12 Q1016
                        NOSIG=
200904031600 METAR LMML NIL=
200904031545 METAR LMML 031545Z VRB03KT 9999 FEW025 18/10 Q1016 NOSIG=
200904031530 METAR LMML NIL=
200904031515 METAR LMML 031515Z 22005KT 190V280 9999 FEW025 18/13 Q1016
                        NOSIG=
200904031500 METAR LMML NIL=
200904031445 METAR LMML 031445Z 21006KT 170V250 9999 FEW025 18/13 Q1016
                        NOSIG=
200904031430 LMML NIL=
200904031400 METAR LMML NIL=
200904031345 METAR LMML 031345Z 19004KT 130V240 9999 FEW025 18/12 Q1017
                        NOSIG=
200904031330 METAR LMML NIL=
200904031315 METAR LMML 031315Z VRB03KT 9999 FEW020 18/12 Q1017 NOSIG=
200904031300 METAR LMML NIL=
200904031245 METAR LMML 031245Z 18004KT 120V260 9999 FEW024 17/12 Q1017
                        NOSIG=
200904031230 METAR LMML NIL=
200904031215 METAR LMML 031215Z 15004KT 060V200 9999 FEW019 18/11 Q1017
                        NOSIG=
200904031200 METAR LMML NIL=
200904031145 METAR LMML 031145Z 18005KT 150V250 9999 FEW020 18/12 Q1018
                        NOSIG=
200904031130 METAR LMML NIL=
200904031115 METAR LMML 031115Z VRB02KT 9999 FEW027 18/10 Q1018 NOSIG=
200904031100 METAR LMML NIL=
200904031045 METAR LMML 031045Z VRB03KT 9999 FEW020 19/11 Q1018 NOSIG=
200904031030 METAR LMML NIL=
200904031015 METAR LMML 031015Z 01004KT 320V080 9999 FEW020 19/12 Q1018
                        NOSIG=
200904031000 METAR LMML NIL=
200904030945 METAR LMML 030945Z 36004KT 9999 FEW023 18/12 Q1018 NOSIG=
200904030930 METAR LMML NIL=
200904030915 METAR LMML 030915Z 05004KT 010V090 9999 FEW023 18/12 Q1018
                        NOSIG=
200904030900 METAR LMML NIL=
200904030845 METAR LMML 030845Z VRB03KT 9999 FEW025 17/12 Q1018 NOSIG=
200904030830 METAR LMML NIL=
200904030815 METAR LMML 030815Z 33005KT 290V020 9999 FEW025 16/12 Q1018
                        NOSIG=
200904030800 METAR LMML NIL=
200904030745 METAR LMML 030745Z 34004KT 300V010 9999 FEW025 16/12 Q1018
                        NOSIG=
200904030730 METAR LMML NIL=
200904030715 METAR LMML 030715Z 34004KT 310V010 9999 FEW025 15/11 Q1017
                        NOSIG=
200904030700 METAR LMML NIL=
200904030645 METAR LMML 030645Z VRB03KT CAVOK 14/10 Q1017 NOSIG=
200904030630 LMML NIL=
200904030615 LMML 030615Z 35004KT 310V030 CAVOK 14/10 Q1017 NOSIG=
200904030600 METAR LMML NIL=
200904030545 METAR LMML 030545Z VRB02KT CAVOK 12/07 Q1017 NOSIG=
200904030530 METAR LMML NIL=
200904030515 METAR LMML 030515Z 29004KT CAVOK 11/06 Q1017 NOSIG=
200904030500 METAR LMML NIL=
200904030445 METAR LMML 030445Z VRB03KT CAVOK 11/07 Q1016 NOSIG=
200904030430 METAR LMML NIL=
200904030415 METAR LMML 030415Z VRB03KT CAVOK 11/06 Q1016 NOSIG=
200904030400 METAR LMML NIL=
200904030345 METAR LMML 030345Z VRB03KT CAVOK 11/06 Q1016 NOSIG=
200904030330 METAR LMML NIL=
200904030315 METAR LMML 030315Z VRB03KT CAVOK 11/05 Q1016 NOSIG=
200904030300 METAR LMML NIL=
200904030245 METAR LMML 030245Z 27004KT CAVOK 11/05 Q1016 NOSIG=
200904030230 METAR LMML NIL=
200904030215 METAR LMML 030215Z 26005KT CAVOK 11/03 Q1016 NOSIG=
200904030200 METAR LMML NIL=
200904030145 METAR LMML 030145Z 27004KT CAVOK 11/05 Q1016 NOSIG=
200904030130 METAR LMML NIL=
200904030115 METAR LMML 030115Z VRB02KT CAVOK 10/04 Q1016 NOSIG=
200904030100 METAR LMML NIL=
200904030045 METAR LMML 030045Z 28004KT CAVOK 11/03 Q1016 NOSIG=
200904030030 METAR LMML NIL=
200904030015 METAR LMML 030015Z 25005KT CAVOK 10/05 Q1017 NOSIG=
200904030000 METAR LMML NIL=
200904022345 METAR LMML 022345Z 25004KT CAVOK 10/06 Q1017 NOSIG=
200904022330 METAR LMML NIL=
200904022315 METAR LMML 022315Z 27004KT CAVOK 10/08 Q1017 NOSIG=
200904022300 METAR LMML NIL=
200904022245 METAR LMML 022245Z 27004KT CAVOK 10/09 Q1017 NOSIG=
200904022230 METAR LMML NIL=
200904022215 METAR LMML 022215Z VRB03KT CAVOK 10/09 Q1017 NOSIG=
200904022200 METAR LMML NIL=
200904022145 METAR LMML 022145Z 28004KT CAVOK 10/09 Q1017 NOSIG=
200904022130 METAR LMML NIL=
200904022115 METAR LMML 022115Z VRB02KT CAVOK 11/09 Q1017 NOSIG=
200904022100 METAR LMML NIL=
200904022045 METAR LMML 022045Z VRB01KT CAVOK 11/09 Q1017 NOSIG=
200904022030 METAR LMML NIL=
200904022015 METAR LMML 022015Z VRB01KT CAVOK 11/09 Q1017 NOSIG=
200904022000 METAR LMML NIL=
200904021945 METAR LMML 021945Z VRB03KT CAVOK 12/09 Q1017 NOSIG=
200904021930 METAR LMML NIL=
200904021915 METAR LMML 021915Z VRB02KT CAVOK 12/09 Q1017 NOSIG=
200904021900 METAR LMML NIL=
200904021845 METAR LMML 021845Z VRB02KT CAVOK 13/09 Q1017 NOSIG=
200904021830 METAR LMML NIL=
200904021815 METAR LMML 021815Z VRB01KT CAVOK 13/08 Q1016 NOSIG=
200904021800 METAR LMML NIL=
200904021745 METAR LMML 021745Z 30004KT CAVOK 13/08 Q1016 NOSIG=
200904021730 METAR LMML NIL=
200904021715 METAR LMML 021715Z VRB03KT CAVOK 15/08 Q1016 NOSIG=
200904021700 METAR LMML NIL=
200904021645 METAR LMML 021645Z 33006KT 9999 FEW030 15/07 Q1015 NOSIG=
200904021630 METAR LMML NIL=
200904021615 METAR LMML 021615Z 33006KT 9999 FEW030 SCT250 16/07 Q1015
                        NOSIG=
200904021600 METAR LMML NIL=
200904021545 METAR LMML 021545Z 29008KT 260V320 9999 FEW030 SCT250 17/06
                        Q1015 NOSIG=
200904021530 METAR LMML NIL=
200904021515 METAR LMML 021515Z 29009KT 260V320 9999 FEW030 SCT250 17/06
                        Q1015 NOSIG=
200904021500 METAR LMML NIL=
200904021445 METAR LMML 021445Z 30010KT 270V330 9999 FEW030 SCT250 17/08
                        Q1015 NOSIG=
200904021430 METAR LMML NIL=
200904021415 METAR LMML 021415Z 29011KT 230V320 9999 FEW030 BKN250 17/10
                        Q1015 NOSIG=
200904021400 METAR LMML NIL=
200904021345 METAR LMML 021345Z 29011KT 9999 FEW030 BKN250 16/08 Q1016
                        NOSIG=
200904021330 METAR LMML NIL=
200904021315 LMML 021315Z 28011KT 9999 FEW030 BKN250 16/10 Q1016 NOSIG=
200904021300 METAR LMML NIL=
200904021245 METAR LMML 021245Z 28010KT 250V320 9999 FEW030 BKN250 17/09
                        Q1016 NOSIG=
200904021230 METAR LMML NIL=
200904021215 METAR LMML 021215Z 29009KT 250V320 9999 FEW030 BKN250 17/08
                        Q1016 NOSIG=
200904021200 METAR LMML NIL=
200904021145 METAR LMML 021145Z 31009KT 9999 FEW030 BKN250 17/10 Q1016
                        NOSIG=
200904021130 METAR LMML NIL=
200904021115 METAR LMML 021115Z 31010KT 9999 FEW030 BKN250 16/10 Q1016
                        NOSIG=
200904021100 METAR LMML NIL=
200904021045 METAR LMML 021045Z 31008KT 270V340 9999 FEW030 BKN250 17/09
                        Q1016 NOSIG=
200904021030 METAR LMML NIL=
200904021015 METAR LMML 021015Z 31007KT 250V350 9999 FEW030 BKN250 17/11
                        Q1016 NOSIG=
200904021000 METAR LMML NIL=
200904020945 METAR LMML 020945Z 30006KT 260V360 9999 FEW030 BKN250 17/12
                        Q1016 NOSIG=
200904020930 METAR LMML NIL=
200904020915 METAR LMML 020915Z 34006KT 310V030 9999 FEW030 BKN250 16/11
                        Q1016 NOSIG=
200904020900 METAR LMML NIL=
200904020845 METAR LMML 020845Z 34005KT 300V030 9999 FEW030 15/11 Q1016
                        NOSIG=
200904020830 METAR LMML NIL=
200904020815 METAR LMML 020815Z 33008KT 300V360 CAVOK 14/11 Q1015 NOSIG=
200904020800 METAR LMML NIL=
200904020745 METAR LMML 020745Z 33008KT CAVOK 14/10 Q1015 NOSIG=
200904020730 METAR LMML NIL=
200904020715 METAR LMML 020715Z 33006KT CAVOK 14/11 Q1015 NOSIG=
200904020700 METAR LMML NIL=
200904020645 METAR LMML 020645Z 32008KT CAVOK 13/11 Q1015 NOSIG=
200904020630 METAR LMML NIL=
200904020615 METAR LMML 020615Z 31004KT CAVOK 13/11 Q1015 NOSIG=
200904020600 METAR LMML NIL=
200904020545 METAR LMML 020545Z 30006KT 270V330 CAVOK 12/10 Q1014 NOSIG=
200904020530 METAR LMML NIL=
200904020515 METAR LMML 020515Z 30005KT CAVOK 11/10 Q1014 NOSIG=
200904020500 METAR LMML NIL=
200904020445 METAR LMML 020445Z 29007KT CAVOK 11/10 Q1014 NOSIG=
200904020430 METAR LMML NIL=
200904020415 METAR LMML 020415Z 30007KT CAVOK 11/10 Q1014 NOSIG=
200904020400 METAR LMML NIL=
200904020345 METAR LMML 020345Z 30006KT CAVOK 11/10 Q1014 NOSIG=
200904020330 METAR LMML NIL=
200904020315 METAR LMML 020315Z 30007KT CAVOK 12/10 Q1014 NOSIG=
200904020300 METAR LMML NIL=
200904020245 METAR LMML 020245Z 29007KT CAVOK 12/10 Q1014 NOSIG=
200904020230 METAR LMML NIL=
200904020215 METAR LMML 020215Z 28006KT 250V310 CAVOK 12/10 Q1014 NOSIG=
200904020200 METAR LMML NIL=
200904020145 METAR LMML 020145Z 29005KT 260V320 CAVOK 12/10 Q1014 NOSIG=
200904020130 METAR LMML NIL=
200904020115 METAR LMML 020115Z 29006KT CAVOK 12/10 Q1014 NOSIG=
200904020100 METAR LMML NIL=
200904020045 METAR LMML 020045Z 30004KT 270V330 CAVOK 12/10 Q1014 NOSIG=
200904020030 METAR LMML NIL=
200904020015 METAR LMML 020015Z 30006KT CAVOK 12/10 Q1014 NOSIG=
200904020000 METAR LMML NIL=
200904012345 METAR LMML 012345Z 30006KT CAVOK 12/10 Q1013 NOSIG=
200904012330 METAR LMML NIL=
200904012315 METAR LMML 012315Z 29006KT CAVOK 12/10 Q1014 NOSIG=
200904012300 METAR LMML NIL=
200904012245 METAR LMML 012245Z 30007KT CAVOK 12/10 Q1014 NOSIG=
200904012230 METAR LMML NIL=
200904012215 METAR LMML 012215Z 29007KT CAVOK 12/10 Q1014 NOSIG=
200904012200 METAR LMML NIL=
200904012145 METAR LMML 012145Z 30008KT CAVOK 12/10 Q1014 NOSIG=
200904012130 METAR LMML NIL=
200904012115 METAR LMML 012115Z 31008KT CAVOK 12/10 Q1014 NOSIG=
200904012100 METAR LMML NIL=
200904012045 METAR LMML 012045Z 32007KT CAVOK 12/11 Q1014 NOSIG=
200904012030 METAR LMML NIL=
200904012015 METAR LMML 012015Z 32009KT CAVOK 12/11 Q1013 NOSIG=
200904012000 METAR LMML NIL=
200904011945 METAR LMML 011945Z 31008KT CAVOK 12/11 Q1013 NOSIG=
200904011930 METAR LMML NIL=
200904011915 METAR LMML 011915Z 32009KT CAVOK 12/11 Q1013 NOSIG=
200904011900 METAR LMML NIL=
200904011845 METAR LMML 011845Z 32008KT CAVOK 13/11 Q1013 NOSIG=
200904011830 METAR LMML NIL=
200904011815 METAR LMML 011815Z 32010KT 9999 FEW011 13/11 Q1012 NOSIG=
200904011800 METAR LMML NIL=
200904011745 METAR LMML 011745Z 31010KT 9999 FEW011 13/11 Q1012 TEMPO
                        BKN010=
200904011730 METAR LMML NIL=
200904011715 METAR LMML 011715Z 31010KT 9999 FEW011 14/11 Q1012 TEMPO
                        BKN010=
200904011645 METAR LMML 011645Z 31014KT 9999 FEW011 14/11 Q1011 TEMPO
                        BKN010=
200904011630 METAR LMML NIL=
200904011615 METAR LMML 011615Z 30014KT 260V330 9999 BKN010 15/12 Q1011
                        TEMPO BKN010=
200904011600 METAR LMML NIL=
200904011545 METAR LMML 011545Z 30014KT 260V330 9999 BKN010 15/12 Q1011
                        TEMPO BKN010=
200904011530 METAR LMML NIL=
200904011515 METAR LMML 011515Z 30015KT 260V320 7000 BKN011 16/13 Q1010
                        TEMPO BKN010=
200904011500 METAR LMML NIL=
200904011445 METAR LMML 011445Z 30017KT 260V330 9000 SCT009 16/13 Q1010
                        BECMG 7000 BKN010=
200904011430 METAR LMML NIL=
200904011415 METAR LMML 011415Z 30017KT 9000 SCT010 17/14 Q1010 BECMG
                        8000=
200904011400 METAR LMML NIL=
200904011345 METAR LMML 011345Z 30018KT 270V330 9999 FEW016 18/13 Q1010
                        NOSIG=
200904011330 METAR LMML NIL=
200904011315 METAR LMML 011315Z 30014KT 260V330 9999 FEW016 18/14 Q1009
                        NOSIG=
200904011300 METAR LMML NIL=
200904011245 METAR LMML 011245Z 30015KT 270V330 9999 FEW016 18/14 Q1010
                        NOSIG=
200904011230 METAR LMML NIL=
200904011215 METAR LMML 011215Z 30014KT 260V320 9999 FEW016 19/14 Q1009
                        NOSIG=
200904011200 METAR LMML NIL=
200904011145 METAR LMML 011145Z 29013KT 260V330 9999 FEW017 18/14 Q1010
                        NOSIG=
200904011130 METAR LMML NIL=
200904011115 METAR LMML 011115Z 29009KT 250V330 9999 FEW010 SCT100 18/15
                        Q1009 TEMPO TSRA BKN060CB=
200904011100 METAR LMML NIL=
200904011045 METAR LMML 011045Z 28009KT 250V310 9000 FEW010 BKN120 17/14
                        Q1009 TEMPO TSRA BKN060CB=
200904011030 METAR LMML NIL=
200904011015 METAR LMML 011015Z 28010KT 220V310 9000 FEW020 BKN090 18/14
                        Q1009 TEMPO 6000 TSRA BKN030CB=
200904010945 METAR LMML 010945Z 29007KT 240V320 9000 FEW020 BKN090 19/14
                        Q1009 TEMPO 6000 TSRA BKN030CB=
200904010930 METAR LMML NIL=
200904010915 METAR LMML 010915Z 31006KT 280V340 CAVOK 18/14 Q1008 TEMPO
                        6000 TSRA BKN030CB=
200904010900 METAR LMML NIL=
200904010845 METAR LMML 010845Z 32006KT 260V350 CAVOK 19/14 Q1008 TEMPO
                        6000 TSRA BKN030CB=
200904010830 METAR LMML NIL=
200904010815 METAR LMML 010815Z 29006KT 260V320 9000 BKN110 18/14 Q1008
                        TEMPO 6000 TSRA BKN030CB=
200904010800 METAR LMML NIL=
200904010745 METAR LMML 010745Z VRB03KT 7000 BKN100 18/14 Q1008 TEMPO
                        6000 TSRA BKN030CB RMK CB TOP TO
                        NORTH=
200904010730 METAR LMML NIL=
200904010715 METAR LMML 010715Z VRB01KT 7000 BKN100 17/14 Q1008 TEMPO
                        6000 TSRA BKN030CB=
200904010700 METAR LMML NIL=
200904010645 METAR LMML 010645Z 30004KT 8000 BKN110 15/13 Q1007 TEMPO
                        6000 TSRA BKN030CB=
200904010630 METAR LMML NIL=
200904010615 METAR LMML 010615Z VRB03KT 9000 BKN120 15/13 Q1007 NOSIG=
200904010600 METAR LMML NIL=
200904010545 METAR LMML 010545Z VRB02KT CAVOK 14/12 Q1007 NOSIG=
200904010530 METAR LMML NIL=
200904010515 METAR LMML 010515Z VRB01KT CAVOK 14/11 Q1007 NOSIG=
200904010500 METAR LMML NIL=
200904010445 METAR LMML 010445Z VRB02KT CAVOK 14/12 Q1007 NOSIG=
200904010430 METAR LMML NIL=
200904010415 METAR LMML 010415Z VRB03KT CAVOK 14/11 Q1007 NOSIG=
200904010400 METAR LMML NIL=
200904010345 METAR LMML 010345Z 14006KT CAVOK 15/12 Q1007 NOSIG=
200904010315 METAR LMML 010315Z 17004KT 120V270 CAVOK 15/12 Q1008 NOSIG=
200904010300 METAR LMML NIL=
200904010245 METAR LMML 010245Z VRB03KT CAVOK 15/12 Q1008 NOSIG=
200904010230 METAR LMML NIL=
200904010215 METAR LMML 010215Z 19007KT 140V300 CAVOK 16/12 Q1008 NOSIG=
200904010200 METAR LMML NIL=
200904010145 METAR LMML 010145Z 20004KT 120V280 CAVOK 16/11 Q1008 NOSIG=
200904010130 METAR LMML NIL=
200904010115 METAR LMML 010115Z VRB03KT CAVOK 15/12 Q1008 NOSIG=
200904010100 METAR LMML NIL=
200904010045 METAR LMML 010045Z 12008KT 090V150 CAVOK 15/12 Q1008 NOSIG=
200904010030 METAR LMML NIL=
200904010015 METAR LMML 010015Z 16006KT 120V240 9999 -RA BKN120 15/13
                        Q1009 NOSIG=
200904010000 METAR LMML NIL=

###################################
#  short TAF from LMML
###################################
200905012300 TAF LMML 012300Z 0200/0209 30006KT CAVOK
                      BECMG 0200/0203 9999 FEW015
                      PROB30 TEMPO 0200/0206 8000
                      BECMG 0206/0209 07010KT=
200905012000 TAF LMML 012000Z 0121/0206 30007KT CAVOK
                      BECMG 0121/0124 9999 FEW015
                      PROB30 TEMPO 0121/0206 9000=
200905011700 TAF LMML 011700Z 0118/0203 30007KT 9999 FEW020
                      PROB30 TEMPO 0123/0203 7000=
200905011400 TAF LMML 011400Z 0115/0124 30010KT 9999 FEW020=
200905011100 TAF LMML 011100Z 0112/0121 30012KT 9999 FEW020=
200905010800 TAF LMML 010800Z 0109/0118 30012KT 9999 SCT018=
200905010500 TAF LMML 010500Z 0106/0115 29011KT 9999 SCT015 SCT200=
200905010200 TAF LMML 010200Z 0103/0112 29008KT 9999 FEW015=
200904302300 TAF LMML 302300Z 0100/0109 29009KT CAVOK
                      BECMG 0100/0103 9999 FEW015=
200904302000 TAF LMML 302000Z 3021/0106 29010KT CAVOK
                      BECMG 0100/0103 9999 SCT015=
200904301700 TAF LMML 301700Z 3018/0103 29015KT 9999 FEW015
                      BECMG 3018/3021 CAVOK
                      BECMG 0100/0103 9999 SCT015=
200904301400 TAF LMML 301400Z 3015/3024 29015KT 9999 FEW020
                      PROB30 TEMPO 3015/3018 29015G25KT=
200904301100 TAF LMML 301100Z 3012/3021 29015KT 9999 SCT020
                      PROB30 TEMPO 3012/3018 29015G25KT=
200904300800 TAF LMML 300800Z 3009/3018 30015KT 9999 SCT018
                      PROB30 TEMPO 3009/3018 30015G25KT=
200904300500 TAF LMML 300500Z 3006/3015 29012KT 9999 FEW020=
200904300200 TAF LMML 300200Z 3003/3012 29010KT CAVOK
                      PROB40 TEMPO 3009/3012 SCT025=
200904292300 TAF LMML 292300Z 3000/3009 28006KT CAVOK
                      PROB30 TEMPO 3006/3009 FEW025=
200904292000 TAF LMML 292000Z 2921/3006 30005KT CAVOK
                      PROB40 TEMPO 2921/3006 FEW012=
200904291700 TAF LMML 291700Z 2918/3003 31008KT CAVOK=
200904291400 TAF LMML 291400Z 2915/2924 29012KT 9999 FEW025
                      BECMG 2917/2920 CAVOK=
200904291100 TAF LMML 291100Z 2912/2921 28012KT 9999 FEW025 SCT080=
200904290800 TAF LMML 290800Z 2909/2918 27011KT CAVOK=
200904290500 TAF LMML 290500Z 2906/2915 28012KT CAVOK
                      PROB30 TEMPO 2906/2915 FEW040=
200904290200 TAF LMML 290200Z 2903/2912 26010KT CAVOK
                      PROB30 TEMPO 2903/2912 FEW040=
200904282300 TAF LMML 282300Z 2900/2909 25005KT CAVOK
                      PROB30 TEMPO 2903/2909 FEW040=
200904282000 TAF LMML 282000Z 2821/2906 25005KT CAVOK
                      PROB30 TEMPO 2821/2906 FEW040=
200904281700 TAF LMML 281700Z 2818/2903 26008KT 9999 FEW020
                      BECMG 2818/2821 CAVOK=
200904281400 TAF LMML 281400Z 2815/2824 27013KT 9999 FEW020=
200904281100 TAF LMML 281100Z 2812/2821 29015KT 9999 SCT025=
200904280800 TAF LMML 280800Z 2809/2818 29016KT 9999 FEW023=
200904280500 TAF LMML 280500Z 2806/2815 29015KT 9999 FEW018
                      TEMPO 2806/2815 CAVOK=
200904280200 TAF LMML 280200Z 2803/2812 30017KT 9999 SCT015
                      TEMPO 2803/2812 CAVOK
                      PROB30 TEMPO 2803/2812 BKN012=
200904272300 TAF LMML 272300Z 2800/2809 30018KT 9999 SCT015
                      TEMPO 2800/2803 CAVOK
                      PROB30 TEMPO 2803/2809 BKN012=
200904272000 TAF LMML 272000Z 2721/2806 32018KT CAVOK
                      TEMPO 2800/2806 9999 SCT015=
200904271700 TAF LMML 271700Z 2718/2803 30020KT 8000 BKN008
                      BECMG 2718/2721 9999 SCT015
                      PROB30 TEMPO 2718/2724 30020G30KT=
200904271400 TAF LMML 271400Z 2715/2724 20013KT CAVOK
                      BECMG 2715/2718 29020KT 9999 SCT015
                      PROB30 TEMPO 2715/2721 30020G30KT=
200904271100 TAF LMML 271100Z 2712/2721 14020KT CAVOK
                      TEMPO 2712/2715 15023G33KT
                      BECMG 2712/2715 22013KT 9999 SCT015
                      BECMG 2715/2718 28018KT
                      PROB30 TEMPO 2715/2721 29018G28KT=
200904270800 TAF LMML 270800Z 2709/2718 14018KT CAVOK
                      TEMPO 2709/2713 15022G32KT
                      BECMG 2712/2715 22014KT 9999 SCT015
                      BECMG 2715/2718 29018KT
                      PROB30 TEMPO 2715/2718 28018G28KT=
200904270500 TAF LMML 270500Z 2706/2715 14020KT CAVOK
                      TEMPO 2706/2712 14020G30KT
                      BECMG 2712/2715 26015KT=
200904270200 TAF LMML 270200Z 2703/2712 13015KT CAVOK
                      BECMG 2703/2706 13020G30KT=
200904262300 TAF LMML 262300Z 2700/2709 12015KT CAVOK
                      BECMG 2703/2706 12020G30KT=
200904262000 TAF LMML 262000Z 2621/2706 12015KT CAVOK
                      BECMG 2603/2706 12020G30KT=
200904261700 TAF LMML 261700Z 2618/2703 14017KT CAVOK
                      PROB40 TEMPO 2618/2703 13017G27KT=
200904261400 TAF LMML 261400Z 2615/2624 15017KT CAVOK
                      TEMPO 2615/2624 14018G28KT=
200904261100 TAF LMML 261100Z 2612/2621 15017KT CAVOK
                      TEMPO 2612/2621 16018G28KT=
200904260800 TAF LMML 260800Z 2609/2618 14017KT CAVOK
                      TEMPO 15018G28KT=
200904260500 TAF LMML 260500Z 2606/2615 14015KT CAVOK=
200904260200 LMML 260200Z 2603/2612 14015KT CAVOK=
200904252300 TAF LMML 252300Z 2603/2612 14015KT CAVOK=
200904252000 TAF LMML 252000Z 2521/2606 14010KT CAVOK=
200904251700 TAF LMML 251700Z 2518/2603 15010KT CAVOK=
200904251400 TAF LMML 251400Z 2515/2524 17010KT CAVOK=
200904251100 TAF LMML 251100Z 2512/2521 17008KT CAVOK=
200904250800 TAF LMML 250800Z 2509/2518 18010KT CAVOK=
200904250500 TAF LMML 250500Z 2506/2515 20005KT CAVOK=
200904250200 TAF LMML 250200Z 2503/2512 20007KT CAVOK
                      PROB30 TEMPO 2503/2505 9000=
200904242300 TAF LMML 242300Z 2500/2509 21005KT CAVOK
                      PROB30 TEMPO 2501/2505 9000=
200904242000 TAF LMML 242000Z 2421/2506 24005KT CAVOK
                      PROB30 TEMPO 2501/2505 9000=
200904241700 TAF LMML 241700Z 2418/2503 26010KT CAVOK
                      BECMG 2421/2424 20003KT=
200904241400 TAF LMML 241400Z 2415/2424 26008KT 9999 FEW025
                      BECMG 2418/2421 20003KT
                      PROB30 TEMPO 2415/2424 CAVOK=
200904241100 TAF LMML 241100Z 2412/2421 27010KT 9999 SCT020
                      BECMG 2418/2421 21003KT=
200904240800 TAF LMML 240800Z 2409/2418 28013KT 9999 SCT018
                      PROB40 TEMPO 2413/2418 CAVOK=
200904240500 TAF LMML 240500Z 2406/2415 28009KT 9999 FEW012
                      TEMPO 2406/2410 9000
                      PROB40 TEMPO 2406/2409 BKN010
                      PROB30 TEMPO 2412/2415 CAVOK=
200904240200 TAF LMML 240200Z 2403/2412 29009KT 9999 FEW012
                      TEMPO 2400/2409 9000 BKN012
                      PROB30 TEMPO 2400/2406 5000 BKN005
                      TEMPO 2406/2412 CAVOK=
200904232300 TAF LMML 232300Z 2400/2409 29006KT 9999 FEW020
                      PROB40 TEMPO 2400/2409 9000 BKN012
                      PROB30 TEMPO 2400/2407 5000 BKN006=
200904232000 TAF LMML 232000Z 2321/2406 30006KT 9999 FEW018
                      PROB40 TEMPO 2321/2406 BKN012
                      PROB30 TEMPO 2321/2406 6000 BKN006=
200904231700 TAF LMML 231700Z 2318/2403 29008KT 9999 FEW020=
200904231400 TAF LMML 231400Z 2315/2324 34008KT 9999 SCT018=
200904231100 TAF LMML 231100Z 2312/2321 35007KT 9999 SCT020
                      PROB40 TEMPO 2312/2315 7000 SHRA BKN012=
200904230800 TAF LMML 230800Z 2309/2318 04005KT 9999 SCT020
                      PROB40 TEMPO 2309/2313 7000 SHRA BKN015
                      PROB30 TEMPO 2309/2311 5000 TSRA BKN012CB=
200904230500 TAF LMML 230500Z 2306/2315 25006KT 9999 SCT015 BKN080
                      TEMPO 2306/2315 8000 SHRA BKN012 BKN080
                      PROB30 TEMPO 2306/2312 5000 TSRA BKN012CB
                       BKN080=
200904230200 TAF LMML 230200Z 2303/2312 26005KT 9999 SCT013 BKN060
                      TEMPO 2303/2312 8000 SHRA BKN012
                      PROB30 TEMPO 2303/2306 5000 TSRA BKN005 BKN012CB=
200904222300 TAF LMML 222300Z 2300/2309 25006KT 9999 SCT012 BKN080
                      TEMPO 2300/2309 8000 SHRA BKN008 BKN080
                      PROB30 TEMPO 2300/2309 5000 TSRA BKN005 BKN012CB=
200904222000 TAF LMML 222000Z 2221/2306 25006KT 9999 SCT013 SCT060
                      PROB30 TEMPO 2221/2306 5000 TSRA BKN005 BKN012CB=
200904221700 TAF LMML 221700Z 2218/2303 26010KT 9999 SCT015
                      TEMPO 2218/2303 7000 SHRA BKN013
                      PROB30 TEMPO 2218/2303 3000 TSRA BKN008 BKN013CB=
200904221400 TAF LMML 221400Z 2215/2224 26015KT 9999 SCT014
                      TEMPO 2215/2224 8000 SHRA BKN010
                      PROB30 TEMPO 2215/2224 3000 TSRA BKN008 BKN014CB=
200904221100 TAF LMML 221100Z 2212/2221 26016KT 9000 SCT014 SCT070
                      BECMG 2212/2215 9999
                      TEMPO 2212/2221 7000 SHRA BKN010 BKN060
                      PROB30 TEMPO 2212/2221 27016G26KT 3000 TSRA
                       BKN010 BKN015CB BKN060=
200904220800 TAF LMML 220800Z 2209/2218 26015KT 9999 SCT013 SCT050
                      TEMPO 2209/2218 7000 SHRA BKN010 BKN050
                      PROB30 TEMPO 2209/2218 27017G27KT 3000 TSRA
                       BKN008 BKN015CB BKN040=
200904220500 TAF LMML 220500Z 2206/2215 27015KT 9999 SCT018 SCT025
                      TEMPO 2206/2215 8000 SHRA BKN015
                      PROB30 TEMPO 2212/2215 TSRA BKN015CB=
200904220200 TAF LMML 220200Z 2203/2212 25016KT 9999 SCT018 SCT040
                      TEMPO 2203/2212 8000 SHRA BKN015
                      PROB30 TEMPO 2203/2212 5000 TSRA BKN015CB=
200904212300 TAF LMML 212300Z 2200/2209 25012KT 9999 SCT020
                      TEMPO 2200/2209 8000 SHRA BKN018
                      PROB30 TEMPO 2203/2209 TSRA BKN015CB=
200904212000 TAF LMML 212000Z 2121/2206 25013KT 9999 SCT020 SCT050
                      TEMPO 2121/2206 8000 SHRA SCT015
                      PROB30 TEMPO 2200/2206 TSRA BKN012CB=
200904211700 TAF LMML 211700Z 2118/2203 27017KT 9999 SCT020 SCT050
                      TEMPO 2118/2203 8000 SHRA SCT018TCU=
200904211400 TAF LMML 211400Z 2115/2124 27018KT 9999 SCT018
                      PROB30 TEMPO 2118/2124 8000 SHRA SCT015TCU=
200904211100 TAF LMML 211100Z 2112/2121 27016KT 9999 SCT020
                      TEMPO 2112/2118 27018G28KT=
200904210800 TAF LMML 210800Z 2109/2118 28015KT 9999 SCT020 SCT040
                      PROB30 TEMPO 2109/2115 SHRA SCT025TCU
                      TEMPO 2112/2116 27015G25KT=
200904210500 TAF LMML 210500Z 2106/2115 28015KT 9999 SCT020 SCT040
                      TEMPO 2112/2115 28017G27KT=
200904210200 TAF LMML 210200Z 2103/2112 28016KT 9999 SCT025 SCT040
                      PROB30 BKN015=
200904202300 TAF LMML 202300Z 2100/2109 28013KT 9999 SCT025 BKN040
                      TEMPO 2100/2109 9000 SHRA BKN015=
200904202000 TAF LMML 202000Z 2021/2106 28013KT 9999 BKN014
                      TEMPO 2021/2106 SCT014=
200904201700 TAF LMML 201700Z 2018/2103 28005KT 9999 FEW015 SCT050
                      PROB40 TEMPO 2018/2103 8000 SHRA BKN015=
200904201400 TAF LMML 201400Z 2015/2024 29006KT 9999 FEW012 BKN060
                      TEMPO 2015/2018 8000 RA SCT008 BKN060
                      PROB40 TEMPO 2018/2024 8000 SHRA BKN015=
200904201100 TAF LMML 201100Z 2012/2021 29010KT 9999 FEW012
                      TEMPO 2012/2021 8000 RA FEW008 BKN012 BKN060=
200904200800 TAF LMML 200800Z 2009/2018 27008KT 9999 FEW012
                      TEMPO 2009/2018 6000 RA SCT008 BKN012 BKN025=
200904200500 TAF LMML 200500Z 2006/2015 23007KT 9999 SCT015 BKN100
                      PROB40 TEMPO 2006/2015 7000 SHRA BKN015 BKN060
                       BECMG 2011/2014 29010KT=
200904200200 TAF LMML 200200Z 2003/2012 26005KT 9999 FEW012 SCT100
                      TEMPO 2003/2006 9000
                      PROB30 TEMPO 2003/2006 5000 BR BKN005 BKN070
                       PROB40
                      TEMPO 2006/2012 8000 RA BKN015 BKN050=
200904192300 TAF LMML 192300Z 2000/2009 27006KT 9999 FEW015 SCT100
                      TEMPO 2000/2006 9000
                      PROB30 TEMPO 2000/2006 5000 BR BKN005 BKN070
                       PROB40
                      TEMPO 2006/2009 8000 RA BKN012 BKN050=
200904192000 TAF LMML 192000Z 1921/2006 28007KT 9999 FEW015
                      TEMPO 1921/2006 9000
                      PROB30 TEMPO 1923/2006 5000 BR BKN005=
200904191700 TAF LMML 191700Z 1918/2003 29005KT 9999 FEW020
                      PROB40 TEMPO 1922/2003 5000 BR
                      PROB30 TEMPO 1923/2003 1000 FG BKN005=
200904191400 TAF LMML 191400Z 1915/1924 29008KT 9000 FEW020=
200904191100 TAF LMML 191100Z 1912/1921 31012KT 9000 SCT018
                      PROB30 TEMPO 1912/1914 7000=
200904190800 TAF LMML 190800Z 1909/1918 31008KT 9999 FEW015
                      TEMPO 1909/1912 6000=
200904190500 TAF LMML 190500Z 1906/1915 33006KT 6000 SCT006 SCT012
                      BECMG 1906/1909 9999 SCT015
                      TEMPO 1906/1915 BKN015=
200904190318 TAF LMML 1900310Z 1903/1912 05004KT 3000 SCT005 BKN090
                      TEMPO 1903/1906 1500 BR BKN005 SCT090
                      PROB30 TEMPO 1903/1906 0600 BCFG
                      BECMG 1905/1908 31010KT 9999 SCT012=
200904190317 TAF LMML 1900310Z 1903/1912 05004KT 3000 SCT005 BKN090
                      TEMPO 1903/1906 1500 BR BKN005 SCT090
                      PROB30 TEMPO 1903/1906 0600 BCFG
                      BECMG 1905/1908 31010KT 9999 SCT012=
200904190315 LMML 1900310Z 1903/1912 05004KT 3000 SCT005 BKN090
                      TEMPO 1903/1906 1500 BR BKN005 SCT090
                      PROB30 TEMPO 1903/1906 0600 BCFG
                      BECMG 1905/1908 31010KT 9999 SCT012=
200904190310 TAF LMML 190310Z 1903/1912 05004KT 3000 SCT005 BKN090
                      TEMPO 1903/1906 1500 BR BKN005 SCT090
                      PROB30 TEMPO 1903/1906 0600 BCFG
                      BECMG 1905/1908 31010KT 9999 SCT012=
200904190200 LMML 1900310Z 1903/1912 05004KT 3000 SCT005 BKN090
                      TEMPO 1903/1906 1500 BR BKN005 SCT090
                      PROB30 TEMPO 1903/1906 0600 BCFG
                      BECMG 1905/1908 31010KT 9999 SCT012=
200904182300 TAF LMML 182300Z 1900/1909 07010KT 7000 SCT005 SCT090
                      PROB30 TEMPO 1900/1906 5000 BR BKN005
                      BECMG 1903/1906 34010KT 9999 SCT012=
200904182000 TAF LMML 182000Z 1821/1906 05013KT 9999 SCT005 BKN090
                      TEMPO 1821/1906 5000 BR BKN004 SCT090=
200904181700 TAF LMML 181700Z 1818/1903 07011KT 9000 FEW011 SCT100
                      TEMPO 1818/1903 BKN008 BKN090
                      PROB30 TEMPO 1818/1903 5000 SHRA BKN005 BKN080=
200904181400 TAF LMML 181400Z 1815/1824 08011KT 9000 SCT012 SCT100
                      TEMPO 1815/1824 BKN010 BKN080
                      PROB30 TEMPO 1815/1824 5000 SHRA BKN005 BKN080=
200904181100 TAF LMML 181100Z 1812/1821 10016KT 9999 FEW013 SCT100
                      PROB30 TEMPO 1812/1818 09016G26KT 8000 TSRA
                       BKN010 BKN070CB
                      BECMG 1818/1821 09006KT=
200904180800 TAF LMML 180800Z 1809/1818 09015KT 9999 FEW015 SCT100
                      PROB30 TEMPO 1809/1818 8000 TSRA SCT012 BKN070CB=
200904180500 TAF LMML 180500Z 1806/1815 08005KT CAVOK
                      BECMG 1806/1809 09015KT FEW015=
200904180200 TAF LMML 180200Z 1803/1812 VRB03KT CAVOK
                      PROB40 TEMPO 1803/1806 5000 BR BKN005
                      BECMG 1806/1809 10015KT FEW015=
200904172300 TAF LMML 172300Z 1800/1809 09010KT CAVOK
                      PROB40 TEMPO 1800/1806 5000 BR BKN003
                      BECMG 1806/1809 SCT012=
200904172000 TAF LMML 172000Z 1721/1806 09007KT 9999 FEW011
                      PROB40 TEMPO 1721/1806 5000 BR BKN003=
200904171700 TAF LMML 171700Z 1718/1803 08010KT 9999 FEW011 SCT100
                      TEMPO 1721/1803 6000 BKN004=
200904171400 TAF LMML 171400Z 1715/1724 13010KT 9999 FEW011 SCT200
                      TEMPO 1718/1724 7000 BKN005
                      BECMG 1721/1724 03010KT=
200904171100 TAF LMML 171100Z 1712/1721 12008KT 9999 FEW012
                      TEMPO 1718/1721 7000 BKN005=
200904170800 TAF LMML 170800Z 1709/1718 06004KT 9999 FEW012 SCT200
                      BECMG 1715/1718 07014KT=
200904170500 TAF LMML 170500Z 1706/1715 13005KT CAVOK
                      PROB40 TEMPO 1706/1708 9000 FEW005
                      PROB30 TEMPO 1706/1707 5000 BR BKN005=
200904170200 LMML 170200Z 1703/1712 13005KT 0500 FG BKN001
                      TEMPO 1703/1709 7000 BKN010
                      BECMG 1705/1708 CAVOK=
200904162300 TAF LMML 162300Z 1700/1709 13005KT CAVOK
                      PROB30 TEMPO 1702/1706 8000 SCT010=
200904162000 TAF LMML 162000Z 1621/1706 13005KT CAVOK
                      PROB30 TEMPO 1700/1706 8000 SCT010=
200904161700 TAF LMML 161700Z 1618/1703 VRB03KT CAVOK
                      TEMPO 1621/1703 8000 SCT008
                      PROB40 TEMPO 1621/1703 5000 BKN005
                      PROB30 TEMPO 1623/1703 3000 BR BKN002=
200904161400 TAF LMML 161400Z 1615/1624 16005KT CAVOK
                      PROB40 TEMPO 1618/1624 9999 SCT015
                      PROB30 TEMPO 1621/1624 8000 BKN008=
200904161100 TAF LMML 161100Z 1612/1621 VRB03KT CAVOK
                      PROB30 TEMPO 1618/1621 9000 SCT010=
200904160800 TAF LMML 160800Z 1609/1618 VRB03KT CAVOK=
200904160500 TAF LMML 160500Z 1606/1615 VRB03KT CAVOK
                      BECMG 1606/1609 14007KT=
200904160200 TAF LMML 160200Z 1603/1612 VRB03KT CAVOK
                      PROB30 TEMPO 1603/1606 8000 NSC
                      BECMG 1606/1609 15007KT=
200904152300 TAF LMML 152300Z 1600/1609 VRB04KT CAVOK=
200904152000 TAF LMML 152000Z 1521/1606 VRB03KT CAVOK=
200904151700 TAF LMML 151700Z 1518/1603 25005KT CAVOK=
200904151400 TAF LMML 151400Z 1515/1524 27005KT CAVOK=
200904151100 TAF LMML 151100Z 1512/1521 27006KT CAVOK
                      PROB40 TEMPO 1512/1516 9999 FEW012=
200904150800 TAF LMML 150800Z 1509/1518 31008KT CAVOK
                      TEMPO 1509/1512 9999 FEW012=
200904150500 TAF LMML 150500Z 1506/1515 27010KT CAVOK
                      PROB30 TEMPO 1506/1507 FEW008=
200904150200 TAF LMML 150200Z 1503/1512 27008KT 0000 FEW009
                      BECMG 1506/1509 CAVOK=
200904142300 TAF LMML 142300Z 1500/1509 27010KT 8000 SCT007
                      BECMG 1506/1509 CAVOK=
200904142000 TAF LMML 142000Z 1421/1506 28008KT 9999 FEW012
                      PROB40 TEMPO 1421/1505 8000 SCT008=
200904141700 TAF LMML 141700Z 1418/1503 28014KT 8000 SCT013
                      TEMPO 1418/1503 BKN010
                      PROB30 TEMPO 1421/1424 5000 BKN007
                      BECMG 1500/1503 9999=
200904141400 TAF LMML 141400Z 1415/1424 28017KT 8000 SCT015
                      TEMPO 1415/1418 BKN012
                      PROB30 TEMPO 1415/1421 5000 BKN010
                      BECMG 1421/1424 28007KT 9999=
200904141100 TAF LMML 141100Z 1412/1421 28017KT 8000 SCT015 SCT025
                      TEMPO 1412/1415 BKN010 BKN020
                      PROB30 TEMPO 1412/1415 28017G27KT
                      BECMG 1413/1416 9999=
200904140800 TAF LMML 140800Z 1409/1418 28014KT 8000 SCT015 SCT030
                      TEMPO 1409/1415 SHRA BKN010 BKN025
                      PROB30 TEMPO 1409/1415 28015G25KT
                      BECMG 1410/1413 9999=
200904140500 TAF LMML 140500Z 1406/1418 29017KT 9999 SCT015 BKN025
                      TEMPO 1406/1418 8000 BKN014
                      PROB40 TEMPO 1406/1409 SHRA BKN012TCU=
200904140200 TAF LMML 140200Z 1403/1412 28016KT 9999 BKN013
                      TEMPO 1403/1412 SCT015
                      PROB30 TEMPO 1403/1409 8000 BKN008
                      PROB30 TEMPO 1403/1408 RA=
200904132300 TAF LMML 132300Z 1400/1409 28016KT 9999 BKN013
                      PROB40 TEMPO 1400/1409 8000 BKN008
                      PROB30 TEMPO 1400/1408 RA SCT020
                      PROB30 TEMPO 1400/1408 5000 BKN005=
200904132000 TAF LMML 132000Z 1321/1406 27016KT 9999 SCT015 BKN025
                      PROB40 TEMPO 1321/1406 BKN012
                      PROB30 TEMPO 1312/1406 8000 RA BKN008=
200904131700 TAF LMML 131700Z 1318/1403 26015KT 9999 SCT025
                      PROB30 TEMPO 1318/1403 8000 RA SCT008 BKN015=
200904131400 TAF LMML 131400Z 1315/1324 26018KT 9999 BKN015
                      PROB30 TEMPO 1315/1324 8000 SCT008 BKN012=
200904131100 TAF LMML 131100Z 1312/1321 26025KT 9999 BKN018
                      TEMPO 1312/1321 5000 RA BKN014
                      PROB30 TEMPO 1312/1318 3000 TSRA BKN008 BKN015CB=
200904130800 TAF LMML 130800Z 1309/1318 25025G35KT 9999 BKN025
                      TEMPO 1309/1318 8000 RA BKN015
                      PROB40 TEMPO 1310/1318 5000 TSRA BKN015CB=
200904130500 TAF LMML 130500Z 1306/1315 24023G36KT 9999 BKN030
                      TEMPO 1306/1315 7000 RA
                      PROB40 TEMPO 1306/1315 4000 RA BKN015=
200904130200 TAF LMML 130200Z 1303/1312 25023G36KT 9999 SCT025
                      TEMPO 1303/1312 7000 SHRA
                      PROB30 TEMPO 1303/1312 5000 TSRA BKN018CB=
200904122300 TAF LMML 122300Z 1300/1309 24018G30KT 9999 SCT025
                      PROB40 TEMPO 1300/1309 8000 SHRA
                      PROB30 TEMPO 1304/1309 5000 TSRA BKN018CB=
200904122000 TAF LMML 122000Z 1221/1306 24020G35KT 9999 BKN018
                      PROB30 TEMPO 1221/1306 8000 SHRA BKN015=
200904121700 TAF LMML 121700Z 1218/1303 25026G36KT 9999 SCT014 BKN030
                      PROB40 TEMPO 1218/1303 8000 SHRA BKN012
                      PROB30 TEMPO 1221/1303 4000 TSRA SCT020CB=
200904121400 TAF LMML 121400Z 1215/1224 22022KT 9999 SCT020 BKN035
                      BECMG 1215/1218 25025G35KT
                      TEMPO 1215/1224 8000 SHRA BKN015
                      PROB30 TEMPO 1218/1224 4000 TSRA SCT020CB=
200904121100 TAF LMML 121100Z 1212/1221 19022KT 8000 BKN009
                      BECMG 1212/1215 BKN012
                      TEMPO 1212/1221 4000 SHRA SCT012TCU
                      BECMG 1214/1217 25025G35KT=
200904120800 LMML 120800Z 1209/1218 14022KT 8000 BKN009
                      BECMG 1209/1212 19022KT BKN012
                      PROB30 TEMPO 1209/1212 SHRA
                      BECMG 1214/1217 25025G35KT 9999 SCT015=
200904120500 TAF LMML 120500Z 1206/1215 10020KT 9000 BKN010 SCT100
                      BECMG 1206/1209 9999 SCT015
                      TEMPO 1206/1210 13022G32KT
                      BECMG 1210/1212 16020KT
                      BECMG 1212/1215 22020G30KT=
200904120200 TAF LMML 120200Z 1203/1212 10017KT 8000 BKN005
                      TEMPO 1203/1206 5000 BR
                      PROB30 TEMPO 1203/1206 10018G28KT SCT008
                       BECMG 1206/1209 9999 SCT015 SCT050
                      TEMPO 1206/1212 8000 SHRA BKN013 BKN040
                      BECMG 1209/1212 17018KT=
200904112300 TAF LMML 112300Z 1200/1209 07015KT 8000 BKN005 SCT100
                      TEMPO 1200/1206 5000 BR BKN002 SCT100
                      PROB30 TEMPO 1200/1206 09015G25KT SCT007
                       BKN080
                      BECMG 1206/1209 13020KT 9999 SCT015
                      PROB30 TEMPO 1206/1209 12020G30KT 8000 BKN013=
200904112000 TAF LMML 112000Z 1121/1206 08007KT 9000 SCT008 SCT100
                      TEMPO 1121/1206 5000 BR BKN005 SCT100
                      PROB30 TEMPO 1121/1206 3000 BR BKN002 BKN080
                       BECMG 1121/1124 09017KT
                      PROB30 TEMPO 1200/1206 09017G27KT=
200904111700 TAF LMML 111700Z 1118/1203 09015KT 9000 SCT008 BKN012
                      BECMG 1118/1121 BKN007
                      PROB40 TEMPO 1112/1203 5000 BR BKN005=
200904111400 TAF LMML 111400Z 1115/1124 09015KT 9999 BKN013
                      BECMG 1116/1119 BKN010
                      PROB40 TEMPO 1118/1121 7000 BKN005=
200904111100 TAF LMML 111100Z 1112/1121 09012KT 9999 BKN013
                      TEMPO 1112/1116 SCT015
                      PROB40 TEMPO 1116/1121 9000 BKN008=
200904110800 TAF LMML 110800Z 1109/1118 07007KT 9999 SCT015=
200904110500 TAF LMML 110500Z 1106/1115 36005KT 9999 SCT011 SCT250=
200904110200 TAF LMML 110200Z 1103/1112 31007KT 7000 SCT005
                      TEMPO 1103/1106 3000 BR BKN003=
200904102300 TAF LMML 102300Z 1100/1109 30005KT 7000 FEW005
                      PROB30 TEMPO 1100/1106 4000 BR BKN004=
200904102000 TAF LMML 102000Z 1021/1106 30005KT 8000 FEW007
                      PROB30 TEMPO 1021/1106 5000 BR BKN005=
200904101700 TAF LMML 101700Z 1018/1103 28007KT 9000 SCT015
                      TEMPO 1018/1103 BKN012
                      PROB30 TEMPO 1020/1103 5000 BR BKN007=
200904101400 TAF LMML 101400Z 1015/1024 21008KT 9000 SCT015 SCT080
                      BECMG 1015/1018 28010KT 9999
                      TEMPO 1015/1024 8000 SHRA BKN015 BKN070
                      PROB30 TEMPO 1015/1018 6000 TSRA BKN015 BKN060CB=
200904100800 TAF LMML 100800Z 1009/1018 10010KT 9999 FEW015 SCT080
                      PROB30 TEMPO 1009/1015 9000 RA BKN015 BKN060
                       BECMG 1011/1014 25008KT=
200904100500 TAF LMML 100500Z 1006/1015 13008KT CAVOK
                      BECMG 1012/1015 27010KT
                      PROB30 TEMPO 1010/1015 BKN015=
200904100200 TAF LMML 100200Z 1003/1012 12013KT CAVOK
                      PROB40 TEMPO 1003/1005 SCT012=
200904092300 TAF LMML 092300Z 1000/1009 11010KT CAVOK
                      PROB40 TEMPO 1000/1005 8000 SCT008=
200904092000 TAF LMML 092000Z 0921/1006 10010KT 9000 FEW009
                      PROB30 TEMPO 0921/1003 6000 BKN008=
200904091700 TAF LMML 091700Z 0918/1003 09015KT 9999 SCT011
                      PROB30 TEMPO 0922/1003 7000 BKN006=
200904091400 TAF LMML 091400Z 0915/0924 09015KT 9999 FEW015 SCT130
                      PROB30 TEMPO 0919/0924 8000 BKN011=
200904091100 TAF LMML 091100Z 0912/0921 09018KT 9999 FEW015 SCT130=
200904090800 TAF LMML 090800Z 0909/0918 07016KT 9999 FEW015 SCT120=
200904090500 TAF LMML 090500Z 0906/0915 12015KT 9999 FEW020=
200904090200 TAF LMML 090200Z 0903/0912 12015KT 9999 FEW015
                      PROB40 TEMPO 0903/0909 7000 SHRA
                      PROB30 TEMPO 0903/0909 6000 TSRA BKN060CB=
200904082300 TAF LMML 082300Z 0900/0909 11015KT 9999 FEW015
                      PROB40 TEMPO 0900/0909 7000 SHRA
                      PROB30 TEMPO 0900/0909 6000 TSRA BKN060CB=
200904082000 TAF LMML 082000Z 0821/0906 11013KT 9999 FEW015
                      PROB40 TEMPO 0823/0906 8000 TSRA BKN060CB=
200904081700 TAF LMML 081700Z 0818/0903 11011KT CAVOK
                      TEMPO 0818/0903 9999 SCT012
                      PROB40 TEMPO 0821/0903 7000 RA BKN010 SCT080
                       PROB30
                      TEMPO 0900/0903 11015G25KT 4000 TSRA BKN005
                       SCT080CB=
200904081400 TAF LMML 081400Z 0815/0824 12012KT CAVOK
                      TEMPO 0815/0824 9999 SCT012
                      PROB30 TEMPO 0821/0824 7000 RA BKN010=
200904081100 TAF LMML 081100Z 0812/0821 17011KT CAVOK
                      TEMPO 0815/0821 9999 SCT012
                      BECMG 0815/0818 11013KT=
200904080800 TAF LMML 080800Z 0809/0818 16008KT CAVOK
                      PROB40 TEMPO 0812/0818 9999 SCT012
                      BECMG 0815/0818 10012KT=
200904080500 TAF LMML 080500Z 0806/0815 16007KT CAVOK
                      TEMPO 0806/0815 9999 FEW015
                      BECMG 0812/0815 10011KT=
200904080200 TAF LMML 080200Z 0803/0812 15006KT CAVOK
                      TEMPO 0803/0806 9000 NSC
                      PROB30 TEMPO 0803/0806 5000 BR FEW010=
200904072300 TAF LMML 072300Z 0800/0809 15005KT CAVOK
                      TEMPO 0800/0806 9000 NSC
                      PROB30 TEMPO 0800/0806 5000 BR FEW010=
200904072000 TAF LMML 072000Z 0721/0806 17005KT CAVOK
                      PROB30 TEMPO 0800/0806 9000 FEW011=
200904071700 TAF LMML 071700Z 0718/0803 17007KT CAVOK=
200904071400 TAF LMML 071400Z 0715/0724 19007KT CAVOK=
200904071100 TAF LMML 071100Z 0712/0721 19005KT 9999 FEW025
                      TEMPO 0712/0721 CAVOK=
200904070800 TAF LMML 070800Z 0709/0718 24005KT CAVOK=
200904070500 TAF LMML 070500Z 0706/0715 25010KT 9999 FEW025
                      BECMG 0712/0715 18005KT CAVOK=
200904070200 TAF LMML 070200Z 0703/0712 25005KT 9000 SCT012
                      BECMG 0708/0711 CAVOK=
200904062300 TAF LMML 062300Z 0700/0709 27006KT 9000 FEW012
                      BECMG 0706/0709CAVOK=
200904062000 TAF LMML 062000Z 0621/0706 28010KT 9000 FEW012
                      PROB30 TEMPO 0621/0705 5000 BKN008=
200904061700 TAF LMML 061700Z 0618/0703 28014KT 9999 SCT014
                      TEMPO 0618/0703 BKN010
                      PROB30 TEMPO 0700/0703 8000 BKN005=
200904061400 TAF LMML 061400Z 0615/0624 29016KT 9999 SCT018
                      TEMPO 0615/0618 29017G27KT
                      TEMPO 0615/0624 BKN015
                      PROB30 TEMPO 0618/0624 9000 BKN010=
200904061100 TAF LMML 061100Z 0612/0621 29016KT 9999 SCT020
                      TEMPO 0612/0618 28016G26KT
                      PROB30 TEMPO 0616/0621 BKN015=
200904060800 TAF LMML 060800Z 0609/0618 30015KT 9999 SCT015
                      TEMPO 0609/0618 29016G26KT
                      PROB30 TEMPO 0609/0612 BKN015=
200904060500 TAF LMML 060500Z 0606/0615 30014KT 9999 SCT018=
200904060200 TAF LMML 060200Z 0603/0612 29010KT 9999 SCT015
                      PROB30 TEMPO 0603/0606 8000 BKN007=
200904052300 TAF LMML 052300Z 0600/0609 28013KT 9999 FEW011
                      PROB30 TEMPO 0600/0606 8000 BKN007=
200904052000 LMML 052000Z 0521/0606 28010KT 9999 FEW015
                      PROB30 TEMPO 0521/0606 BKN015=
200904051700 TAF LMML 051700Z 0518/0603 29010KT 9999 FEW020
                      PROB30 TEMPO 0521/0603 BKN015=
200904051400 TAF LMML 051400Z 0515/0524 30008KT 9999 FEW025=
200904051100 TAF LMML 051100Z 0512/0521 31008KT 9999 FEW028=
200904050800 TAF LMML 050800Z 0509/0518 32010KT 9999 FEW012
                      PROB30 TEMPO 0509/0518 BKN015=
200904050500 TAF LMML 050500Z 0506/0515 31007KT 9999 FEW025=
200904050200 TAF LMML 050200Z 0503/0512 30006KT CAVOK
                      TEMPO 0503/0512 9999 FEW025
                      PROB30 TEMPO 0503/0506 8000=
200904042300 TAF LMML 042300Z 0500/0509 30004KT CAVOK
                      TEMPO 0500/0509 9999 FEW020
                      PROB30 TEMPO 0500/0506 8000=
200904042000 TAF LMML 042000Z 0421/0506 30006KT CAVOK
                      TEMPO 0421/0506 9999 FEW020
                      PROB30 TEMPO 0500/0506 8000=
200904041700 TAF LMML 041700Z 0418/0503 30006KT 9999 FEW025 SCT120=
200904041400 TAF LMML 041400Z 0415/0424 06008KT 9999 FEW020 SCT100
                      PROB30 TEMPO 0415/0424 8000 TSRA BKN070CB=
200904041100 TAF LMML 041100Z 0412/0421 18004KT 9999 FEW015 SCT120
                      PROB30 TEMPO 0412/0421 8000 TSRA BKN070CB=
200904040800 TAF LMML 040800Z 0409/0418 34005KT 9999 FEW015 BKN100
                      PROB30 TEMPO 0412/0418 8000 TSRA BKN070CB=
200904040500 TAF LMML 040500Z 0406/0415 32006KT 9999 FEW015 SCT110
                      PROB30 TEMPO 0410/0414 8000 TSRA FEW015 BKN070CB=
200904040200 TAF LMML 040200Z 0403/0412 33005KT CAVOK
                      TEMPO 0403/0406 9999 FEW012
                      PROB30 TEMPO 0403/0406 5000 BR BKN005
                      BECMG 0406/0409 9999 FEW015 SCT100=
200904032300 TAF LMML 032300Z 0400/0409 VRB04KT CAVOK
                      TEMPO 0400/0406 9999 FEW012
                      PROB30 TEMPO 0400/0406 5000 BR BKN005
                      BECMG 0406/0409 9999 FEW020=
200904032000 TAF LMML 032000Z 0321/0406 03004KT CAVOK
                      TEMPO 0321/0406 9999 FEW012
                      PROB30 TEMPO 0321/0406 5000 BR BKN005=
200904031700 TAF LMML 031700Z 0318/0403 VRB03KT CAVOK
                      TEMPO 0318/0403 FEW015
                      PROB30 TEMPO 0322/0403 5000 BR BKN007=
200904031400 LMML 031400Z 0315/0324 VRB03KT CAVOK
                      TEMPO 0315/0324 9999 FEW025=
200904031100 TAF LMML 031100Z 0312/0321 VRB03KT CAVOK
                      PROB30 TEMPO 0312/0321 9999 FEW025=
200904030800 TAF LMML 030800Z 0309/0318 VRB03KT CAVOK
                      TEMPO 0309/0318 FEW025=
200904030500 TAF LMML 030500Z 0306/0315 30005KT CAVOK=
200904030200 TAF LMML 030200Z 0303/0312 27004KT CAVOK
                      TEMPO 0303/0306 6000 FEW010
                      BECMG 0609 9999 FEW012=
200904022300 TAF LMML 022300Z 0300/0309 28004KT CAVOK
                      TEMPO 0300/0306 6000 FEW010=
200904022000 TAF LMML 022000Z 0221/0306 32004KT CAVOK
                      TEMPO 0300/0306 8000 FEW011=
200904021700 TAF LMML 021700Z 0218/0303 34005KT 9999 FEW025
                      BECMG 0218/0221 CAVOK
                      PROB30 TEMPO 0300/0303 9000 FEW015=
200904021400 TAF LMML 021400Z 0215/0224 28010KT 9999 FEW025
                      BECMG 0215/0218 CAVOK
                      PROB30 TEMPO 0218/0224 9999 FEW015
                      BECMG 0222/0224 34005KT=
200904021100 TAF LMML 021100Z 0212/0221 32008KT 9999 FEW030
                      BECMG 0214/0217 CAVOK
                      PROB30 TEMPO 0218/0221 9999 FEW015=
200904020500 TAF LMML 020500Z 0206/0215 32006KT CAVOK=
200904020200 TAF LMML 020200Z 0203/0212 33006KT CAVOK=
200904012300 TAF LMML 012300Z 0200/0209 32007KT CAVOK=
200904012000 TAF LMML 012000Z 0121/0206 32010KT CAVOK
                      PROB30 TEMPO 0121/0203 9000 SCT010=
200904011700 TAF LMML 011700Z 0118/0203 29010KT SCT012
                      TEMPO 0118/0203 6000 SCT004 BKN010=
200904011400 TAF LMML 011400Z 0115/0124 29015KT 9999 SCT015
                      PROB30 TEMPO 0115/0124 8000 BKN010=
200904011100 TAF LMML 011100Z 0112/0121 29013KT 9999 SCT011 SCT100
                      PROB30 TEMPO 0112/0121 8000 BKN010=
200904010800 TAF LMML 010800Z 0109/0118 29011KT 8000 BKN100
                      TEMPO 0109/0112 7000 SHRA
                      BECMG 0112/0115 9999 SCT020=
200904010500 TAF LMML 010500Z 0106/0115 12005KT CAVOK
                      BECMG 0108/0111 30015KT 9999 SCT007
                      PROB40 TEMPO 0108/0115 BKN005=
200904010200 TAF LMML 010200Z 0103/0112 08007KT CAVOK
                      TEMPO 0103/0105 9000 FEW005
                      PROB30 TEMPO 0103/0105 5000 BR BKN005
                      BECMG 0106/0109 9000 FEW010=

###################################
#  large TAF from LMML
###################################
200905012300 LMML NIL=
200905011700 LMML NIL=
200905011100 LMML NIL=
200905010500 LMML NIL=
200904302300 LMML NIL=
200904301700 LMML NIL=
200904301100 LMML NIL=
200904300500 LMML NIL=
200904292300 LMML NIL=
200904291700 LMML NIL=
200904291100 LMML NIL=
200904290500 LMML NIL=
200904282300 LMML NIL=
200904281700 LMML NIL=
200904281100 LMML NIL=
200904280500 LMML NIL=
200904272300 LMML NIL=
200904271700 LMML NIL=
200904271100 LMML NIL=
200904270500 LMML NIL=
200904262300 LMML NIL=
200904261700 LMML NIL=
200904261100 LMML NIL=
200904260500 LMML NIL=
200904252300 LMML NIL=
200904251700 LMML NIL=
200904251100 LMML NIL=
200904250500 LMML NIL=
200904242300 LMML NIL=
200904241700 LMML NIL=
200904241100 LMML NIL=
200904240500 LMML NIL=
200904232300 LMML NIL=
200904231700 LMML NIL=
200904231100 LMML NIL=
200904230500 LMML NIL=
200904222300 LMML NIL=
200904221700 LMML NIL=
200904221100 LMML NIL=
200904220500 LMML NIL=
200904212300 LMML NIL=
200904211700 LMML NIL=
200904211100 LMML NIL=
200904210500 LMML NIL=
200904202300 LMML NIL=
200904201700 LMML NIL=
200904201100 LMML NIL=
200904200500 LMML NIL=
200904192300 LMML NIL=
200904191700 LMML NIL=
200904191100 LMML NIL=
200904190500 LMML NIL=
200904182300 LMML NIL=
200904181700 LMML NIL=
200904181100 LMML NIL=
200904180500 LMML NIL=
200904172300 LMML NIL=
200904171700 LMML NIL=
200904171100 LMML NIL=
200904170500 LMML NIL=
200904162300 LMML NIL=
200904161700 LMML NIL=
200904161100 LMML NIL=
200904160500 LMML NIL=
200904152300 LMML NIL=
200904151700 LMML NIL=
200904151100 LMML NIL=
200904150500 LMML NIL=
200904142300 LMML NIL=
200904141700 LMML NIL=
200904141100 LMML NIL=
200904140500 LMML NIL=
200904132300 LMML NIL=
200904131700 LMML NIL=
200904131100 LMML NIL=
200904130500 LMML NIL=
200904122300 LMML NIL=
200904121700 LMML NIL=
200904121100 LMML NIL=
200904120500 LMML NIL=
200904112300 LMML NIL=
200904111700 LMML NIL=
200904111100 LMML NIL=
200904110500 LMML NIL=
200904102300 LMML NIL=
200904101700 LMML NIL=
200904100500 LMML NIL=
200904092300 LMML NIL=
200904091700 LMML NIL=
200904091100 LMML NIL=
200904090500 LMML NIL=
200904082300 LMML NIL=
200904081700 LMML NIL=
200904081100 LMML NIL=
200904080500 LMML NIL=
200904072300 LMML NIL=
200904071700 LMML NIL=
200904071100 LMML NIL=
200904070500 LMML NIL=
200904062300 LMML NIL=
200904061700 LMML NIL=
200904061100 LMML NIL=
200904060500 LMML 060500Z 0606/0615 30014KT 9999 SCT018=
200904052300 LMML 052300Z 0600/0609 28013KT 9999 FEW011
                      PROB30 TEMPO 0600/0606 8000 BKN007=
200904051700 LMML 051700Z 0518/0603 29010KT 9999 FEW020
                      PROB30 TEMPO 0521/0603 BKN015=
200904051100 LMML NIL=
200904050500 LMML NIL=
200904042300 LMML NIL=
200904041700 LMML 041700Z 0418/0503 30006KT 9999 FEW025 SCT120=
200904041100 LMML NIL=
200904040500 LMML NIL=
200904032300 LMML NIL=
200904031700 LMML NIL=
200904031100 LMML NIL=
200904030500 LMML NIL=
200904022300 LMML NIL=
200904021700 LMML NIL=
200904021100 LMML NIL=
200904020500 LMML NIL=
200904012300 LMML NIL=
200904011700 LMML NIL=
200904011100 LMML NIL=
200904010500 LMML NIL=
