##########################################################
# Query made at 12/28/2012 16:24:03 UTC
# Time interval: from 04/01/2012 00:00  to 05/01/2012 23:59  UTC
##########################################################

##########################################################
# LMML, Luqa (Malta)
# WMO index: 16597
# Latitude 35-51N. Longitude 014-29E. Altitude 91 m.
##########################################################

###################################
#  METAR/SPECI from LMML
###################################
201204302345 METAR LMML 302345Z 11006KT 9000 FEW004 SCT120 16/15 Q1014
                        TEMPO BKN004=
201204302330 METAR LMML NIL=
201204302315 METAR LMML 302315Z 12008KT 9000 FEW004 SCT120 16/16 Q1015
                        TEMPO BKN004=
201204302300 METAR LMML NIL=
201204302245 METAR LMML 302245Z 13007KT 110V170 9000 SCT004 SCT120 17/16
                        Q1015 NOSIG=
201204302230 METAR LMML NIL=
201204302215 METAR LMML 302215Z 13011KT 100V160 9000 BKN004 SCT120 17/16
                        Q1014 NOSIG=
201204302200 METAR LMML NIL=
201204302145 METAR LMML 302145Z 11008KT 9000 SCT004 SCT120 17/16 Q1015
                        NOSIG=
201204302130 METAR LMML NIL=
201204302115 METAR LMML 302115Z 11005KT 060V150 9000 FEW005 BKN110 17/16
                        Q1015 NOSIG=
201204302100 METAR LMML NIL=
201204302045 METAR LMML 302045Z 12004KT 090V150 9000 -RA SCT004 BKN090
                        17/15 Q1016 NOSIG=
201204302030 METAR LMML NIL=
201204302015 METAR LMML 302015Z 10009KT 9000 BKN004 BKN120 17/16 Q1015
                        NOSIG=
201204302000 METAR LMML NIL=
201204301945 METAR LMML 301945Z 11007KT 9999 SCT006 SCT120 17/16 Q1015
                        NOSIG=
201204301930 METAR LMML NIL=
201204301915 METAR LMML 301915Z 12008KT 9999 FEW006 SCT120 17/16 Q1015
                        NOSIG=
201204301900 METAR LMML NIL=
201204301845 METAR LMML 301845Z 14007KT 9999 FEW006 17/16 Q1015 NOSIG=
201204301830 METAR LMML NIL=
201204301815 METAR LMML 301815Z 13007KT 9999 FEW006 17/16 Q1015 NOSIG=
201204301800 METAR LMML NIL=
201204301745 METAR LMML 301745Z 14008KT 9999 SCT007 18/16 Q1015 NOSIG=
201204301730 METAR LMML NIL=
201204301715 METAR LMML 301715Z 13009KT 9999 SCT007 SCT120 18/16 Q1015
                        NOSIG=
201204301700 METAR LMML NIL=
201204301645 METAR LMML 301645Z 12010KT 090V150 9999 FEW007 19/16 Q1015
                        NOSIG=
201204301630 METAR LMML NIL=
201204301615 METAR LMML 301615Z 11009KT 9999 FEW006 20/16 Q1014 NOSIG=
201204301600 METAR LMML NIL=
201204301545 METAR LMML 301545Z 11008KT 9999 FEW007 21/15 Q1014 NOSIG=
201204301530 METAR LMML NIL=
201204301515 METAR LMML 301515Z 10008KT 070V130 9999 FEW009 21/15 Q1014
                        NOSIG=
201204301500 METAR LMML NIL=
201204301445 METAR LMML 301445Z 10009KT 9999 FEW012 22/15 Q1014 NOSIG=
201204301430 METAR LMML NIL=
201204301415 METAR LMML 301415Z 12008KT 090V150 9999 FEW012 22/16 Q1015
                        NOSIG=
201204301400 METAR LMML NIL=
201204301345 METAR LMML 301345Z 12007KT 080V160 CAVOK 22/15 Q1015 NOSIG=
201204301330 METAR LMML NIL=
201204301315 METAR LMML 301315Z 12008KT CAVOK 23/15 Q1015 NOSIG=
201204301300 METAR LMML NIL=
201204301245 METAR LMML 301245Z 11007KT 080V170 CAVOK 23/15 Q1016 NOSIG=
201204301230 METAR LMML NIL=
201204301215 METAR LMML 301215Z 16007KT 120V230 9999 FEW012 22/15 Q1016
                        NOSIG=
201204301200 METAR LMML NIL=
201204301145 METAR LMML 301145Z 17010KT 130V240 9999 FEW012 21/15 Q1017
                        NOSIG=
201204301130 METAR LMML NIL=
201204301115 METAR LMML 301115Z 16009KT 130V200 CAVOK 23/14 Q1017 NOSIG=
201204301100 METAR LMML NIL=
201204301045 METAR LMML 301045Z 14008KT 120V190 CAVOK 22/13 Q1017 NOSIG=
201204301030 METAR LMML NIL=
201204301015 METAR LMML 301015Z 15010KT CAVOK 22/12 Q1017 NOSIG=
201204301000 METAR LMML NIL=
201204300945 METAR LMML 300945Z 12008KT 100V160 CAVOK 23/13 Q1017 NOSIG=
201204300930 METAR LMML NIL=
201204300915 METAR LMML 300915Z 13011KT 090V160 CAVOK 22/12 Q1016 NOSIG=
201204300900 METAR LMML NIL=
201204300845 METAR LMML 300845Z 12009KT CAVOK 22/12 Q1017 NOSIG=
201204300830 METAR LMML NIL=
201204300815 METAR LMML 300815Z 13009KT 100V170 CAVOK 22/10 Q1016 NOSIG=
201204300800 METAR LMML NIL=
201204300745 METAR LMML 300745Z 13010KT CAVOK 22/10 Q1016 NOSIG=
201204300730 METAR LMML NIL=
201204300715 METAR LMML 300715Z 12009KT CAVOK 21/10 Q1016 NOSIG=
201204300700 METAR LMML NIL=
201204300645 METAR LMML 300645Z 11009KT CAVOK 20/10 Q1016 NOSIG=
201204300630 METAR LMML NIL=
201204300615 METAR LMML 300615Z 12006KT CAVOK 18/12 Q1016 NOSIG=
201204300600 METAR LMML NIL=
201204300545 METAR LMML 300545Z 10004KT CAVOK 18/10 Q1016 NOSIG=
201204300530 METAR LMML NIL=
201204300515 METAR LMML 300515Z 12005KT 070V140 CAVOK 17/12 Q1016 NOSIG=
201204300500 METAR LMML NIL=
201204300445 METAR LMML 300445Z 08003KT CAVOK 17/12 Q1016 NOSIG=
201204300430 METAR LMML NIL=
201204300415 METAR LMML 300415Z VRB02KT CAVOK 16/11 Q1016 NOSIG=
201204300400 METAR LMML NIL=
201204300345 METAR LMML 300345Z VRB02KT CAVOK 16/12 Q1015 NOSIG=
201204300330 METAR LMML NIL=
201204300315 METAR LMML 300315Z VRB01KT CAVOK 16/13 Q1015 NOSIG=
201204300300 METAR LMML NIL=
201204300245 METAR LMML 300245Z VRB01KT 9999 FEW008 BKN120 16/12 Q1016
                        NOSIG=
201204300230 METAR LMML NIL=
201204300215 METAR LMML 300215Z VRB01KT 9999 FEW008 BKN120 16/13 Q1016
                        NOSIG=
201204300200 METAR LMML NIL=
201204300145 METAR LMML 300145Z VRB01KT 9999 FEW008 BKN120 16/12 Q1016
                        NOSIG=
201204300130 METAR LMML NIL=
201204300115 METAR LMML 300115Z VRB02KT 9999 FEW008 BKN120 17/12 Q1016
                        NOSIG=
201204300100 METAR LMML NIL=
201204300045 METAR LMML 300045Z 12003KT 9999 FEW008 BKN120 16/13 Q1016
                        NOSIG=
201204300030 METAR LMML NIL=
201204300015 METAR LMML 300015Z VRB01KT 9999 FEW008 BKN120 16/13 Q1016
                        NOSIG=
201204300000 METAR LMML NIL=
201204292345 METAR LMML 292345Z 00000KT 9999 FEW008 SCT120 16/13 Q1016
                        NOSIG=
201204292330 METAR LMML NIL=
201204292315 METAR LMML 292315Z VRB01KT 9999 FEW008 SCT250 16/13 Q1017
                        NOSIG=
201204292300 METAR LMML NIL=
201204292245 METAR LMML 292245Z VRB02KT 9999 FEW008 BKN250 17/13 Q1017
                        NOSIG=
201204292230 METAR LMML NIL=
201204292215 METAR LMML 292215Z 08005KT 9999 FEW008 BKN250 17/13 Q1017
                        NOSIG=
201204292200 METAR LMML NIL=
201204292145 METAR LMML 292145Z 08005KT 9999 FEW008 BKN250 17/13 Q1017
                        NOSIG=
201204292130 METAR LMML NIL=
201204292115 METAR LMML 292115Z 08003KT 9999 FEW008 BKN250 17/13 Q1017
                        NOSIG=
201204292100 METAR LMML NIL=
201204292045 METAR LMML 292045Z VRB02KT 9999 FEW008 BKN250 17/14 Q1017
                        NOSIG=
201204292030 METAR LMML NIL=
201204292015 METAR LMML 292015Z 04003KT 9999 FEW008 SCT120 BKN250 17/13
                        Q1018 NOSIG=
201204292000 METAR LMML NIL=
201204291945 METAR LMML 291945Z VRB01KT CAVOK 17/14 Q1018 NOSIG=
201204291930 METAR LMML NIL=
201204291915 METAR LMML 291915Z 03003KT CAVOK 18/14 Q1018 NOSIG=
201204291900 METAR LMML NIL=
201204291845 METAR LMML 291845Z 07003KT CAVOK 18/14 Q1018 NOSIG=
201204291830 METAR LMML NIL=
201204291815 METAR LMML 291815Z 07003KT CAVOK 19/15 Q1018 NOSIG=
201204291800 METAR LMML NIL=
201204291745 METAR LMML 291745Z VRB02KT 9999 FEW040 BKN120 BKN250 19/12
                        Q1018 NOSIG=
201204291730 METAR LMML NIL=
201204291715 METAR LMML 291715Z VRB02KT 9999 FEW040 BKN120 OVC150 19/13
                        Q1018 NOSIG=
201204291700 METAR LMML NIL=
201204291645 METAR LMML 291645Z 32004KT 290V350 9999 FEW040 OVC150 19/13
                        Q1018 NOSIG=
201204291630 METAR LMML NIL=
201204291615 METAR LMML 291615Z 29003KT 9999 FEW011 OVC150 20/10 Q1018
                        NOSIG=
201204291600 METAR LMML NIL=
201204291545 METAR LMML 291545Z 29008KT 9999 FEW011 OVC150 19/13 Q1019
                        NOSIG=
201204291530 METAR LMML NIL=
201204291515 METAR LMML 291515Z 25008KT 210V280 9999 FEW011 SCT120 BKN250
                        20/13 Q1019 NOSIG=
201204291500 METAR LMML NIL=
201204291445 METAR LMML 291445Z 20003KT 9999 FEW011 SCT120 BKN250 22/11
                        Q1019 NOSIG=
201204291430 METAR LMML NIL=
201204291415 METAR LMML 291415Z 02003KT 9999 FEW020 SCT120 BKN250 22/13
                        Q1019 NOSIG=
201204291400 METAR LMML NIL=
201204291345 METAR LMML 291345Z 03003KT 9999 FEW020 SCT120 BKN250 22/14
                        Q1019 NOSIG=
201204291330 METAR LMML NIL=
201204291315 METAR LMML 291315Z 08006KT 030V140 CAVOK 23/11 Q1019 NOSIG=
201204291300 METAR LMML NIL=
201204291245 METAR LMML 291245Z 09005KT 060V130 CAVOK 23/12 Q1019 NOSIG=
201204291215 METAR LMML 291215Z 09006KT 010V130 CAVOK 23/14 Q1019 NOSIG=
201204291145 METAR LMML 291145Z 09006KT 060V150 CAVOK 22/12 Q1020 NOSIG=
201204291130 METAR LMML NIL=
201204291115 METAR LMML 291115Z 09006KT 030V120 CAVOK 23/12 Q1020 NOSIG=
201204291045 METAR LMML 291045Z 09007KT 050V140 CAVOK 23/12 Q1020 NOSIG=
201204291015 METAR LMML 291015Z 08009KT 050V130 CAVOK 23/13 Q1020 NOSIG=
201204291000 METAR LMML NIL=
201204290945 METAR LMML 290945Z 08010KT 050V120 9999 FEW012 SCT120 22/12
                        Q1019 NOSIG=
201204290930 METAR LMML NIL=
201204290915 METAR LMML 290915Z 08007KT 020V120 9999 FEW012 SCT120 22/13
                        Q1019 NOSIG=
201204290900 METAR LMML NIL=
201204290845 METAR LMML 290845Z 08009KT 040V110 9999 FEW011 BKN250 21/14
                        Q1019 NOSIG=
201204290830 METAR LMML NIL=
201204290815 METAR LMML 290815Z 08011KT 040V110 9999 SCT010 BKN250 20/15
                        Q1019 NOSIG=
201204290800 METAR LMML NIL=
201204290745 METAR LMML 290745Z 07010KT 020V120 9999 FEW010 BKN250 20/14
                        Q1018 NOSIG=
201204290730 METAR LMML NIL=
201204290715 METAR LMML 290715Z 08011KT 030V110 9999 SCT008 SCT250 19/15
                        Q1018 NOSIG=
201204290700 METAR LMML NIL=
201204290645 METAR LMML 290645Z 08011KT 050V110 9999 BKN009 SCT250 18/15
                        Q1018 BECMG SCT012=
201204290630 METAR LMML NIL=
201204290615 METAR LMML 290615Z 08010KT 050V110 9999 BKN009 17/15 Q1017
                        BECMG SCT012=
201204290600 METAR LMML NIL=
201204290545 METAR LMML 290545Z 07010KT 9999 BKN008 17/14 Q1018 NOSIG=
201204290530 METAR LMML NIL=
201204290515 METAR LMML 290515Z 07010KT 030V100 9999 BKN007 16/15 Q1017
                        NOSIG=
201204290500 METAR LMML NIL=
201204290445 METAR LMML 290445Z 07010KT 9999 BKN008 16/14 Q1017 NOSIG=
201204290430 METAR LMML NIL=
201204290415 METAR LMML 290415Z 07010KT 040V100 9999 BKN008 16/14 Q1016
                        NOSIG=
201204290400 METAR LMML NIL=
201204290345 METAR LMML 290345Z 07010KT 040V100 9999 BKN009 16/14 Q1016
                        NOSIG=
201204290330 METAR LMML NIL=
201204290315 METAR LMML 290315Z 06012KT 030V090 9999 BKN008 16/14 Q1016
                        NOSIG=
201204290300 METAR LMML NIL=
201204290245 METAR LMML 290245Z 07010KT 040V100 9999 BKN008 16/15 Q1016
                        NOSIG=
201204290230 METAR LMML NIL=
201204290215 METAR LMML 290215Z 07011KT 040V100 9999 BKN009 16/14 Q1017
                        NOSIG=
201204290200 METAR LMML NIL=
201204290145 METAR LMML 290145Z 07008KT 030V100 9999 BKN009 16/14 Q1017
                        NOSIG=
201204290130 METAR LMML NIL=
201204290115 METAR LMML 290115Z 07011KT 9999 BKN009 16/15 Q1017 NOSIG=
201204290100 METAR LMML NIL=
201204290045 METAR LMML 290045Z 07011KT 030V100 9999 BKN009 16/14 Q1017
                        NOSIG=
201204290030 METAR LMML NIL=
201204290015 METAR LMML 290015Z 05010KT 010V090 9999 BKN008 16/14 Q1017
                        NOSIG=
201204290000 METAR LMML NIL=
201204282345 METAR LMML 282345Z 05010KT 020V080 9999 BKN008 16/14 Q1017
                        NOSIG=
201204282315 METAR LMML 282315Z 05011KT 020V090 9999 BKN007 17/15 Q1017
                        NOSIG=
201204282300 METAR LMML NIL=
201204282245 METAR LMML 282245Z 05010KT 9999 BKN007 17/15 Q1018 NOSIG=
201204282215 METAR LMML 282215Z 04009KT 010V090 9999 BKN006 17/15 Q1018
                        NOSIG=
201204282200 METAR LMML NIL=
201204282145 METAR LMML 282145Z 04009KT 010V080 CAVOK 17/15 Q1018 NOSIG=
201204282130 METAR LMML NIL=
201204282115 METAR LMML 282115Z 03008KT 360V060 CAVOK 18/14 Q1018 NOSIG=
201204282045 METAR LMML 282045Z 03005KT 010V070 CAVOK 18/13 Q1018 NOSIG=
201204282030 METAR LMML NIL=
201204282015 METAR LMML 282015Z 02005KT CAVOK 18/13 Q1018 NOSIG=
201204282000 METAR LMML NIL=
201204281945 METAR LMML 281945Z 05005KT 010V100 CAVOK 19/13 Q1018 NOSIG=
201204281930 METAR LMML NIL=
201204281915 METAR LMML 281915Z 04004KT 010V070 CAVOK 19/12 Q1018 NOSIG=
201204281900 METAR LMML NIL=
201204281845 METAR LMML 281845Z 07004KT CAVOK 18/12 Q1017 NOSIG=
201204281830 METAR LMML NIL=
201204281815 METAR LMML 281815Z 08005KT CAVOK 18/11 Q1017 NOSIG=
201204281800 METAR LMML NIL=
201204281745 METAR LMML 281745Z 09005KT 060V150 CAVOK 19/11 Q1017 NOSIG=
201204281730 METAR LMML NIL=
201204281715 METAR LMML 281715Z 05003KT CAVOK 22/08 Q1016 NOSIG=
201204281700 METAR LMML NIL=
201204281645 METAR LMML 281645Z 01006KT CAVOK 22/07 Q1016 NOSIG=
201204281630 METAR LMML NIL=
201204281615 METAR LMML 281615Z 02005KT 350V080 CAVOK 25/06 Q1016 NOSIG=
201204281600 METAR LMML NIL=
201204281545 METAR LMML 281545Z 03008KT CAVOK 25/05 Q1016 NOSIG=
201204281530 METAR LMML NIL=
201204281515 METAR LMML 281515Z 17003KT CAVOK 26/06 Q1016 NOSIG=
201204281500 METAR LMML NIL=
201204281445 METAR LMML 281445Z 20003KT CAVOK 26/03 Q1017 NOSIG=
201204281430 METAR LMML NIL=
201204281415 METAR LMML 281415Z 09003KT CAVOK 27/04 Q1017 NOSIG=
201204281400 METAR LMML NIL=
201204281345 METAR LMML 281345Z 17003KT CAVOK 26/04 Q1017 NOSIG=
201204281330 METAR LMML NIL=
201204281315 METAR LMML 281315Z 20004KT 160V250 CAVOK 26/04 Q1017 NOSIG=
201204281300 METAR LMML NIL=
201204281245 METAR LMML 281245Z 20004KT 160V260 CAVOK 25/03 Q1017 NOSIG=
201204281215 METAR LMML 281215Z 19006KT 150V250 CAVOK 25/05 Q1017 NOSIG=
201204281200 METAR LMML NIL=
201204281145 METAR LMML 281145Z 20006KT 150V250 CAVOK 26/03 Q1017 NOSIG=
201204281130 METAR LMML NIL=
201204281115 METAR LMML 281115Z 13004KT 050V210 CAVOK 27/03 Q1017 NOSIG=
201204281100 METAR LMML NIL=
201204281045 METAR LMML 281045Z 11004KT 040V210 CAVOK 27/M01 Q1017 NOSIG=
201204281030 METAR LMML NIL=
201204281015 METAR LMML 281015Z 11004KT 060V160 CAVOK 26/00 Q1017 NOSIG=
201204281000 METAR LMML NIL=
201204280945 METAR LMML 280945Z 09003KT CAVOK 26/03 Q1017 NOSIG=
201204280930 METAR LMML NIL=
201204280915 METAR LMML 280915Z 07003KT CAVOK 26/M01 Q1017 NOSIG=
201204280900 METAR LMML NIL=
201204280845 METAR LMML 280845Z 05003KT CAVOK 26/05 Q1017 NOSIG=
201204280830 METAR LMML NIL=
201204280815 METAR LMML 280815Z 06004KT 010V100 CAVOK 24/05 Q1017 NOSIG=
201204280800 METAR LMML NIL=
201204280745 METAR LMML 280745Z 05003KT CAVOK 24/06 Q1017 NOSIG=
201204280730 METAR LMML NIL=
201204280715 METAR LMML 280715Z 02003KT CAVOK 23/08 Q1017 NOSIG=
201204280700 METAR LMML NIL=
201204280645 METAR LMML 280645Z 04003KT CAVOK 22/10 Q1017 NOSIG=
201204280630 METAR LMML NIL=
201204280615 METAR LMML 280615Z VRB01KT CAVOK 20/10 Q1017 NOSIG=
201204280600 METAR LMML NIL=
201204280545 METAR LMML 280545Z VRB01KT CAVOK 18/10 Q1017 NOSIG=
201204280530 METAR LMML NIL=
201204280515 METAR LMML 280515Z VRB02KT CAVOK 15/11 Q1017 NOSIG=
201204280500 METAR LMML NIL=
201204280445 METAR LMML 280445Z VRB02KT 9000 NSC 13/11 Q1017 BECMG CAVOK=
201204280430 METAR LMML NIL=
201204280415 METAR LMML 280415Z 30003KT 7000 NSC 12/11 Q1017 NOSIG=
201204280400 METAR LMML NIL=
201204280345 METAR LMML 280345Z VRB02KT 7000 NSC 12/12 Q1017 TEMPO 5000
                        BR FEW005=
201204280330 METAR LMML NIL=
201204280315 METAR LMML 280315Z VRB02KT 5000 MIFG FEW001 12/12 Q1017 TEMPO
                        3000 BR=
201204280300 METAR LMML NIL=
201204280245 METAR LMML 280245Z 25004KT 0050 R13/0370V0766N FG BKN001
                        13/13 Q1017 NOSIG=
201204280230 METAR LMML NIL=
201204280215 METAR LMML 280215Z 27003KT 2000 R13/0175N BR SCT001 13/13
                        Q1017 TEMPO 0800 BCFG BKN001=
201204280200 METAR LMML NIL=
201204280145 METAR LMML 280145Z VRB02KT 3000 MIFG SCT002 13/13 Q1017 TEMPO
                        0800 BCFG BKN001=
201204280130 METAR LMML NIL=
201204280115 METAR LMML 280115Z 03003KT 3000 BR FEW002 14/14 Q1016 TEMPO
                        2000 BR=
201204280100 METAR LMML NIL=
201204280045 METAR LMML 280045Z VRB02KT 3000 BR FEW002 13/13 Q1017 TEMPO
                        2000 BR=
201204280030 METAR LMML NIL=
201204280015 METAR LMML 280015Z VRB01KT 3500 BR FEW003 14/14 Q1017 TEMPO
                        2000 BR=
201204280000 METAR LMML NIL=
201204272345 METAR LMML 272345Z VRB01KT 3500 BR FEW003 14/14 Q1017 TEMPO
                        2000 BR=
201204272330 METAR LMML NIL=
201204272315 METAR LMML 272315Z VRB01KT 3500 BR FEW003 14/14 Q1018 TEMPO
                        2000 BR=
201204272300 METAR LMML NIL=
201204272245 METAR LMML 272245Z VRB01KT 3500 BR FEW003 15/15 Q1018 TEMPO
                        2000 BR BKN002=
201204272230 METAR LMML NIL=
201204272215 METAR LMML 272215Z VRB02KT 3500 BR BKN003 15/15 Q1018 TEMPO
                        2000 BR BKN002=
201204272200 METAR LMML NIL=
201204272145 METAR LMML 272145Z 02004KT 260V070 4000 BR FEW005 16/15 Q1018
                        TEMPO 3000 BR=
201204272130 METAR LMML NIL=
201204272115 METAR LMML 272115Z 02005KT 360V060 4000 BR FEW005 16/15 Q1018
                        TEMPO 3000 BR=
201204272100 METAR LMML NIL=
201204272045 METAR LMML 272045Z 02004KT 360V080 5000 BR FEW008 16/15 Q1018
                        NOSIG=
201204272030 METAR LMML NIL=
201204272015 METAR LMML 272015Z 08003KT 8000 FEW012 16/15 Q1018 NOSIG=
201204272000 METAR LMML NIL=
201204271945 METAR LMML 271945Z 07004KT 030V090 CAVOK 17/15 Q1018 NOSIG=
201204271930 METAR LMML NIL=
201204271915 METAR LMML 271915Z 07003KT CAVOK 17/15 Q1017 NOSIG=
201204271900 METAR LMML NIL=
201204271845 METAR LMML 271845Z 08004KT CAVOK 17/14 Q1017 NOSIG=
201204271830 METAR LMML NIL=
201204271815 METAR LMML 271815Z 07005KT 040V100 CAVOK 18/11 Q1017 NOSIG=
201204271800 METAR LMML NIL=
201204271745 METAR LMML 271745Z 10003KT CAVOK 18/10 Q1017 NOSIG=
201204271730 METAR LMML NIL=
201204271715 METAR LMML 271715Z 08005KT 050V110 CAVOK 20/10 Q1017 NOSIG=
201204271700 METAR LMML NIL=
201204271645 METAR LMML 271645Z 08006KT CAVOK 21/10 Q1017 NOSIG=
201204271630 METAR LMML NIL=
201204271615 METAR LMML 271615Z 10005KT CAVOK 22/09 Q1017 NOSIG=
201204271600 METAR LMML NIL=
201204271545 METAR LMML 271545Z 09006KT 060V130 CAVOK 23/10 Q1017 NOSIG=
201204271530 METAR LMML NIL=
201204271515 METAR LMML 271515Z 08006KT 020V130 CAVOK 23/11 Q1017 NOSIG=
201204271500 METAR LMML NIL=
201204271445 METAR LMML 271445Z 09009KT CAVOK 23/10 Q1017 NOSIG=
201204271430 METAR LMML NIL=
201204271415 METAR LMML 271415Z 07009KT 030V110 CAVOK 24/12 Q1017 NOSIG=
201204271400 METAR LMML NIL=
201204271345 METAR LMML 271345Z 08008KT 040V110 CAVOK 24/12 Q1017 NOSIG=
201204271330 METAR LMML NIL=
201204271315 METAR LMML 271315Z 08008KT 030V130 CAVOK 24/13 Q1018 NOSIG=
201204271300 METAR LMML NIL=
201204271245 METAR LMML 271245Z 03007KT 350V090 CAVOK 26/14 Q1018 NOSIG=
201204271230 METAR LMML NIL=
201204271215 METAR LMML 271215Z 07008KT 020V110 CAVOK 25/12 Q1018 NOSIG=
201204271200 METAR LMML NIL=
201204271145 METAR LMML 271145Z 07008KT 020V100 CAVOK 25/10 Q1018 NOSIG=
201204271130 METAR LMML NIL=
201204271115 METAR LMML 271115Z 07006KT 030V110 CAVOK 25/11 Q1018 NOSIG=
201204271100 METAR LMML NIL=
201204271045 METAR LMML 271045Z 06006KT 020V110 CAVOK 24/10 Q1019 NOSIG=
201204271015 METAR LMML 271015Z 07008KT 010V100 CAVOK 24/12 Q1019 NOSIG=
201204271000 METAR LMML NIL=
201204270945 METAR LMML 270945Z 07008KT 030V100 CAVOK 23/12 Q1019 NOSIG=
201204270930 METAR LMML NIL=
201204270915 METAR LMML 270915Z 09009KT 050V120 CAVOK 23/12 Q1019 NOSIG=
201204270900 METAR LMML NIL=
201204270845 METAR LMML 270845Z 08009KT CAVOK 23/11 Q1019 NOSIG=
201204270830 METAR LMML NIL=
201204270815 METAR LMML 270815Z 08007KT 040V120 CAVOK 22/11 Q1019 NOSIG=
201204270800 METAR LMML NIL=
201204270745 METAR LMML 270745Z 07007G17KT 020V120 CAVOK 23/11 Q1019 NOSIG=
201204270730 METAR LMML NIL=
201204270715 METAR LMML 270715Z 03005KT CAVOK 23/09 Q1019 NOSIG=
201204270700 METAR LMML NIL=
201204270645 METAR LMML 270645Z VRB02KT CAVOK 23/09 Q1019 NOSIG=
201204270630 METAR LMML NIL=
201204270615 METAR LMML 270615Z VRB01KT CAVOK 21/10 Q1019 NOSIG RMK SMOKE
                        LAYERS TO WEST OF AIRFIELD=
201204270600 METAR LMML NIL=
201204270545 METAR LMML 270545Z VRB02KT CAVOK 19/10 Q1019 NOSIG=
201204270530 METAR LMML NIL=
201204270515 METAR LMML 270515Z 26003KT CAVOK 16/10 Q1019 NOSIG=
201204270500 METAR LMML NIL=
201204270445 METAR LMML 270445Z VRB01KT CAVOK 15/09 Q1019 TEMPO 5000 FEW004=
201204270430 METAR LMML NIL=
201204270415 METAR LMML 270415Z VRB02KT CAVOK 14/09 Q1018 TEMPO 5000 FEW004=
201204270400 METAR LMML NIL=
201204270345 METAR LMML 270345Z 32003KT CAVOK 13/10 Q1018 TEMPO 5000 FEW004=
201204270330 METAR LMML NIL=
201204270315 METAR LMML 270315Z VRB02KT CAVOK 14/11 Q1018 TEMPO 5000 FEW004=
201204270245 METAR LMML 270245Z VRB02KT CAVOK 15/11 Q1018 TEMPO 5000 FEW004=
201204270230 METAR LMML NIL=
201204270215 METAR LMML 270215Z 34004KT 9000 NSC 14/11 Q1018 NOSIG=
201204270200 METAR LMML NIL=
201204270145 METAR LMML 270145Z 33003KT CAVOK 14/11 Q1018 NOSIG=
201204270130 METAR LMML NIL=
201204270115 METAR LMML 270115Z VRB02KT CAVOK 15/13 Q1019 NOSIG=
201204270100 METAR LMML NIL=
201204270045 METAR LMML 270045Z 03004KT CAVOK 15/13 Q1019 NOSIG=
201204270030 METAR LMML NIL=
201204270015 METAR LMML 270015Z 02004KT CAVOK 15/12 Q1019 NOSIG=
201204270000 METAR LMML NIL=
201204262345 METAR LMML 262345Z 02005KT CAVOK 15/12 Q1019 NOSIG=
201204262330 METAR LMML NIL=
201204262315 METAR LMML 262315Z 02003KT CAVOK 15/10 Q1019 NOSIG=
201204262300 METAR LMML NIL=
201204262245 METAR LMML 262245Z VRB02KT CAVOK 16/09 Q1019 NOSIG=
201204262230 METAR LMML NIL=
201204262215 METAR LMML 262215Z VRB01KT CAVOK 15/09 Q1019 NOSIG=
201204262200 METAR LMML NIL=
201204262145 METAR LMML 262145Z VRB01KT CAVOK 16/10 Q1019 NOSIG=
201204262130 METAR LMML NIL=
201204262115 METAR LMML 262115Z VRB01KT CAVOK 15/10 Q1019 NOSIG=
201204262100 METAR LMML NIL=
201204262045 METAR LMML 262045Z VRB01KT CAVOK 16/10 Q1020 NOSIG=
201204262030 METAR LMML NIL=
201204262015 METAR LMML 262015Z VRB02KT CAVOK 17/10 Q1020 NOSIG=
201204262000 METAR LMML NIL=
201204261945 METAR LMML 261945Z 12003KT CAVOK 17/11 Q1020 NOSIG=
201204261930 METAR LMML NIL=
201204261915 METAR LMML 261915Z 13004KT CAVOK 17/11 Q1020 NOSIG=
201204261900 METAR LMML NIL=
201204261845 METAR LMML 261845Z 14005KT CAVOK 18/09 Q1020 NOSIG=
201204261830 METAR LMML NIL=
201204261815 METAR LMML 261815Z 15003KT CAVOK 18/10 Q1020 NOSIG=
201204261800 METAR LMML NIL=
201204261745 METAR LMML 261745Z 14005KT CAVOK 19/11 Q1020 NOSIG=
201204261730 METAR LMML NIL=
201204261715 METAR LMML 261715Z 13004KT CAVOK 20/10 Q1020 NOSIG=
201204261700 METAR LMML NIL=
201204261645 METAR LMML 261645Z 13005KT CAVOK 21/10 Q1020 NOSIG=
201204261630 METAR LMML NIL=
201204261615 METAR LMML 261615Z 13006KT 110V170 CAVOK 22/09 Q1020 NOSIG=
201204261600 METAR LMML NIL=
201204261545 METAR LMML 261545Z 13006KT 110V170 CAVOK 23/08 Q1020 NOSIG=
201204261530 METAR LMML NIL=
201204261515 METAR LMML 261515Z 13006KT 090V160 CAVOK 23/07 Q1020 NOSIG=
201204261500 METAR LMML NIL=
201204261445 METAR LMML 261445Z 15006KT 120V190 CAVOK 23/07 Q1020 NOSIG=
201204261430 METAR LMML NIL=
201204261415 METAR LMML 261415Z 13005KT 100V180 CAVOK 24/08 Q1020 NOSIG=
201204261400 METAR LMML NIL=
201204261345 METAR LMML 261345Z 13006KT 090V170 CAVOK 23/08 Q1020 NOSIG=
201204261330 METAR LMML NIL=
201204261315 METAR LMML 261315Z 11006KT 080V190 CAVOK 22/08 Q1020 NOSIG=
201204261300 METAR LMML NIL=
201204261245 METAR LMML 261245Z 12007KT 090V190 CAVOK 22/07 Q1020 NOSIG=
201204261230 METAR LMML NIL=
201204261215 METAR LMML 261215Z 15007KT 100V190 CAVOK 22/07 Q1021 NOSIG=
201204261200 METAR LMML NIL=
201204261145 METAR LMML 261145Z 15008KT 110V180 CAVOK 22/08 Q1021 NOSIG=
201204261130 METAR LMML NIL=
201204261115 METAR LMML 261115Z 15008KT 110V190 CAVOK 22/08 Q1021 NOSIG=
201204261100 METAR LMML NIL=
201204261045 METAR LMML 261045Z 14008KT 100V180 CAVOK 21/09 Q1021 NOSIG=
201204261030 METAR LMML NIL=
201204261015 METAR LMML 261015Z 14007KT 100V180 CAVOK 20/11 Q1021 NOSIG=
201204261000 METAR LMML NIL=
201204260945 METAR LMML 260945Z 16008KT 120V190 CAVOK 20/12 Q1021 NOSIG=
201204260930 METAR LMML NIL=
201204260915 METAR LMML 260915Z 15009KT 120V180 CAVOK 20/12 Q1021 NOSIG=
201204260900 METAR LMML NIL=
201204260845 METAR LMML 260845Z 13008KT 090V160 CAVOK 20/11 Q1021 NOSIG=
201204260830 METAR LMML NIL=
201204260815 METAR LMML 260815Z 12008KT CAVOK 19/10 Q1021 NOSIG=
201204260800 METAR LMML NIL=
201204260745 METAR LMML 260745Z 12006KT 090V150 CAVOK 20/11 Q1020 NOSIG=
201204260730 METAR LMML NIL=
201204260715 METAR LMML 260715Z 10005KT 060V140 CAVOK 19/12 Q1020 NOSIG=
201204260700 METAR LMML NIL=
201204260645 METAR LMML 260645Z 10003KT CAVOK 18/11 Q1020 NOSIG=
201204260630 METAR LMML NIL=
201204260615 METAR LMML 260615Z 10004KT CAVOK 17/12 Q1020 NOSIG=
201204260600 METAR LMML NIL=
201204260545 METAR LMML 260545Z 10003KT 9000 NSC 15/15 Q1019 BECMG CAVOK=
201204260530 METAR LMML NIL=
201204260515 METAR LMML 260515Z VRB02KT 5000 BR FEW005 15/15 Q1019 BECMG
                        8000=
201204260500 METAR LMML NIL=
201204260445 METAR LMML 260445Z 00000KT 5000 BR FEW005 13/13 Q1019 TEMPO
                        5000 BR FEW005=
201204260430 METAR LMML NIL=
201204260415 METAR LMML 260415Z VRB01KT 4000 MIFG FEW002 12/12 Q1019 TEMPO
                        5000 BR FEW005=
201204260400 METAR LMML NIL=
201204260345 METAR LMML 260345Z VRB01KT 0500 R13/P1500N FG BKN001 12/12
                        Q1018 NOSIG=
201204260330 METAR LMML NIL=
201204260315 METAR LMML 260315Z VRB01KT 0100 R13/0900N FG OVC001 12/12
                        Q1018 NOSIG=
201204260300 METAR LMML NIL=
201204260245 METAR LMML 260245Z 00000KT 0100 R13/0300N FG OVC001 13/13
                        Q1018 NOSIG=
201204260230 METAR LMML NIL=
201204260215 METAR LMML 260215Z VRB01KT 0100 R13/0500N FG OVC001 14/14
                        Q1018 NOSIG=
201204260200 METAR LMML NIL=
201204260145 METAR LMML 260145Z VRB02KT 0100 R13/0470V0732N FG OVC001
                        14/14 Q1018 NOSIG=
201204260130 METAR LMML NIL=
201204260115 METAR LMML 260115Z VRB02KT 0100 R13/0700N FG OVC001 14/14
                        Q1018 NOSIG=
201204260100 METAR LMML NIL=
201204260045 METAR LMML 260045Z VRB01KT 0100 R13/0350N FG OVC001 14/14
                        Q1018 NOSIG=
201204260030 METAR LMML NIL=
201204260015 METAR LMML 260015Z VRB02KT 0100 R13/0275N FG BKN001 14/14
                        Q1018 NOSIG=
201204260000 METAR LMML NIL=
201204252345 METAR LMML 252345Z 05003KT CAVOK 15/13 Q1018 NOSIG=
201204252330 METAR LMML NIL=
201204252315 METAR LMML 252315Z VRB01KT CAVOK 14/12 Q1019 NOSIG=
201204252300 METAR LMML NIL=
201204252245 METAR LMML 252245Z 00000KT CAVOK 14/12 Q1019 NOSIG=
201204252230 METAR LMML NIL=
201204252215 METAR LMML 252215Z VRB01KT CAVOK 15/12 Q1019 NOSIG=
201204252200 METAR LMML NIL=
201204252145 METAR LMML 252145Z VRB02KT CAVOK 15/12 Q1019 NOSIG=
201204252130 METAR LMML NIL=
201204252115 METAR LMML 252115Z 17003KT CAVOK 15/12 Q1019 NOSIG=
201204252100 METAR LMML NIL=
201204252045 METAR LMML 252045Z 15003KT CAVOK 15/12 Q1019 NOSIG=
201204252030 METAR LMML NIL=
201204252015 METAR LMML 252015Z VRB02KT CAVOK 16/11 Q1019 NOSIG=
201204252000 METAR LMML NIL=
201204251945 METAR LMML 251945Z VRB01KT CAVOK 16/12 Q1018 NOSIG=
201204251930 METAR LMML NIL=
201204251915 METAR LMML 251915Z VRB01KT CAVOK 17/12 Q1018 NOSIG=
201204251900 METAR LMML NIL=
201204251845 METAR LMML 251845Z VRB01KT CAVOK 17/12 Q1018 NOSIG=
201204251830 METAR LMML NIL=
201204251815 METAR LMML 251815Z VRB02KT CAVOK 17/12 Q1018 NOSIG=
201204251800 METAR LMML NIL=
201204251745 METAR LMML 251745Z VRB02KT CAVOK 18/12 Q1017 NOSIG=
201204251730 METAR LMML NIL=
201204251715 METAR LMML 251715Z 02003KT CAVOK 20/13 Q1018 NOSIG=
201204251700 METAR LMML NIL=
201204251645 METAR LMML 251645Z VRB02KT CAVOK 21/13 Q1018 NOSIG=
201204251630 METAR LMML NIL=
201204251615 METAR LMML 251615Z VRB02KT CAVOK 21/12 Q1018 NOSIG=
201204251545 METAR LMML 251545Z 20004KT 140V260 CAVOK 21/12 Q1018 NOSIG=
201204251530 METAR LMML NIL=
201204251515 METAR LMML 251515Z 16004KT 100V240 CAVOK 21/12 Q1018 NOSIG=
201204251500 METAR LMML NIL=
201204251445 METAR LMML 251445Z 07003KT CAVOK 22/12 Q1018 NOSIG=
201204251430 METAR LMML NIL=
201204251415 METAR LMML 251415Z 10005KT 020V150 9999 FEW035 22/13 Q1018
                        NOSIG=
201204251400 METAR LMML NIL=
201204251345 METAR LMML 251345Z 30003KT 9999 FEW035 22/11 Q1018 NOSIG=
201204251330 METAR LMML NIL=
201204251315 METAR LMML 251315Z 08005KT 030V120 9999 FEW037 22/13 Q1018
                        NOSIG=
201204251300 METAR LMML NIL=
201204251245 METAR LMML 251245Z 12004KT 060V190 CAVOK 22/13 Q1018 NOSIG=
201204251230 METAR LMML NIL=
201204251215 METAR LMML 251215Z 09005KT 020V140 CAVOK 22/12 Q1018 NOSIG=
201204251200 METAR LMML NIL=
201204251145 METAR LMML 251145Z 05006KT 030V090 CAVOK 22/13 Q1018 NOSIG=
201204251130 METAR LMML NIL=
201204251115 METAR LMML 251115Z 06007KT 020V090 CAVOK 22/12 Q1018 NOSIG=
201204251100 METAR LMML NIL=
201204251045 METAR LMML 251045Z 03005KT 320V080 CAVOK 23/11 Q1018 NOSIG=
201204251030 METAR LMML NIL=
201204251015 METAR LMML 251015Z 36006KT 320V050 CAVOK 22/09 Q1018 NOSIG=
201204251000 METAR LMML NIL=
201204250945 METAR LMML 250945Z 36007KT 320V040 CAVOK 22/09 Q1018 NOSIG=
201204250930 METAR LMML NIL=
201204250915 METAR LMML 250915Z 32005KT 270V030 CAVOK 21/12 Q1018 NOSIG=
201204250900 METAR LMML NIL=
201204250845 METAR LMML 250845Z 30007KT 280V360 CAVOK 20/12 Q1017 NOSIG=
201204250815 METAR LMML 250815Z 32007KT 290V360 CAVOK 19/12 Q1017 NOSIG=
201204250800 METAR LMML NIL=
201204250745 METAR LMML 250745Z 31009KT 9999 FEW020 19/12 Q1017 NOSIG=
201204250730 METAR LMML NIL=
201204250715 METAR LMML 250715Z 31009KT 9999 FEW020 18/13 Q1017 NOSIG=
201204250700 METAR LMML NIL=
201204250645 METAR LMML 250645Z 31008KT 280V340 9999 FEW020 17/13 Q1016
                        NOSIG=
201204250630 METAR LMML NIL=
201204250615 METAR LMML 250615Z 30009KT 9999 FEW020 16/13 Q1016 NOSIG=
201204250545 METAR LMML 250545Z 31008KT CAVOK 15/13 Q1016 NOSIG=
201204250530 METAR LMML NIL=
201204250515 METAR LMML 250515Z 30010KT CAVOK 15/13 Q1016 NOSIG=
201204250500 METAR LMML NIL=
201204250445 METAR LMML 250445Z 31009KT CAVOK 14/12 Q1015 NOSIG=
201204250430 METAR LMML NIL=
201204250415 METAR LMML 250415Z 32008KT CAVOK 14/12 Q1015 NOSIG=
201204250400 METAR LMML NIL=
201204250345 METAR LMML 250345Z 33008KT CAVOK 14/11 Q1015 NOSIG=
201204250330 METAR LMML NIL=
201204250315 METAR LMML 250315Z 32007KT CAVOK 14/10 Q1014 NOSIG=
201204250300 METAR LMML NIL=
201204250245 METAR LMML 250245Z 32009KT CAVOK 15/09 Q1014 NOSIG=
201204250230 METAR LMML NIL=
201204250215 METAR LMML 250215Z 31009KT CAVOK 15/09 Q1014 NOSIG=
201204250200 METAR LMML NIL=
201204250145 METAR LMML 250145Z 31009KT CAVOK 15/09 Q1014 NOSIG=
201204250130 METAR LMML NIL=
201204250115 METAR LMML 250115Z 31006KT CAVOK 14/10 Q1014 NOSIG=
201204250045 METAR LMML 250045Z 32006KT CAVOK 15/10 Q1014 NOSIG=
201204250030 METAR LMML NIL=
201204250015 METAR LMML 250015Z 31006KT CAVOK 15/10 Q1014 NOSIG=
201204250000 METAR LMML NIL=
201204242345 METAR LMML 242345Z 30008KT CAVOK 16/09 Q1014 NOSIG=
201204242330 METAR LMML NIL=
201204242315 METAR LMML 242315Z 31007KT CAVOK 15/08 Q1014 NOSIG=
201204242300 METAR LMML NIL=
201204242245 METAR LMML 242245Z 32007KT CAVOK 15/09 Q1014 NOSIG=
201204242230 METAR LMML NIL=
201204242215 METAR LMML 242215Z 31009KT CAVOK 16/09 Q1014 NOSIG=
201204242200 METAR LMML NIL=
201204242145 METAR LMML 242145Z 32009KT CAVOK 16/09 Q1014 NOSIG=
201204242130 METAR LMML NIL=
201204242115 METAR LMML 242115Z 32010KT CAVOK 16/09 Q1013 NOSIG=
201204242100 METAR LMML NIL=
201204242045 METAR LMML 242045Z 32011KT CAVOK 16/09 Q1013 NOSIG=
201204242030 METAR LMML NIL=
201204242015 METAR LMML 242015Z 31009KT CAVOK 15/09 Q1013 NOSIG=
201204242000 METAR LMML NIL=
201204241945 METAR LMML 241945Z 31008KT CAVOK 15/11 Q1013 NOSIG=
201204241930 METAR LMML NIL=
201204241915 METAR LMML 241915Z 31009KT CAVOK 15/11 Q1013 NOSIG=
201204241845 METAR LMML 241845Z 31009KT CAVOK 15/12 Q1013 NOSIG=
201204241830 METAR LMML NIL=
201204241815 METAR LMML 241815Z 31011KT CAVOK 15/12 Q1012 NOSIG=
201204241800 METAR LMML NIL=
201204241745 METAR LMML 241745Z 30011KT CAVOK 15/12 Q1012 NOSIG=
201204241730 METAR LMML NIL=
201204241715 METAR LMML 241715Z 30011KT 9999 FEW020 16/12 Q1012 NOSIG=
201204241700 METAR LMML NIL=
201204241645 METAR LMML 241645Z 30013KT 9999 FEW020 17/11 Q1012 NOSIG=
201204241630 METAR LMML NIL=
201204241615 METAR LMML 241615Z 29011KT 9999 FEW020 18/11 Q1011 NOSIG=
201204241600 METAR LMML NIL=
201204241545 METAR LMML 241545Z 30015KT 9999 FEW020 19/10 Q1011 NOSIG=
201204241530 METAR LMML NIL=
201204241515 METAR LMML 241515Z 30013KT 9999 FEW020 19/11 Q1011 NOSIG=
201204241500 METAR LMML NIL=
201204241445 METAR LMML 241445Z 30014KT 9999 FEW020 20/11 Q1011 NOSIG=
201204241430 METAR LMML NIL=
201204241415 METAR LMML 241415Z 31014KT 9999 FEW025 20/11 Q1011 NOSIG=
201204241400 METAR LMML NIL=
201204241345 METAR LMML 241345Z 30010KT 260V340 9999 FEW028 20/12 Q1011
                        NOSIG=
201204241330 METAR LMML NIL=
201204241315 METAR LMML 241315Z 33007KT 260V020 9999 FEW026 20/13 Q1011
                        NOSIG=
201204241300 METAR LMML NIL=
201204241245 METAR LMML 241245Z 32010KT 290V360 9999 FEW027 20/12 Q1011
                        NOSIG=
201204241230 METAR LMML NIL=
201204241215 METAR LMML 241215Z 34009KT 290V020 9999 FEW026 20/12 Q1011
                        NOSIG=
201204241200 METAR LMML NIL=
201204241145 METAR LMML 241145Z 35010KT 300V090 9999 FEW020 20/13 Q1011
                        NOSIG=
201204241130 METAR LMML NIL=
201204241115 METAR LMML 241115Z 02011KT 9999 FEW015 20/13 Q1011 NOSIG=
201204241100 METAR LMML NIL=
201204241045 METAR LMML 241045Z 02011KT 350V050 9999 FEW014 20/13 Q1011
                        NOSIG=
201204241030 METAR LMML NIL=
201204241015 METAR LMML 241015Z 01012KT 340V040 9999 FEW014 19/13 Q1010
                        NOSIG=
201204241000 METAR LMML NIL=
201204240945 METAR LMML 240945Z 01012KT 340V050 9999 FEW014 19/14 Q1011
                        BECMG 33015KT=
201204240930 METAR LMML NIL=
201204240915 METAR LMML 240915Z 01014KT 9999 SCT014 19/13 Q1011 BECMG
                        33015KT=
201204240900 METAR LMML NIL=
201204240845 METAR LMML 240845Z 02014KT 9999 SCT011 18/14 Q1010 BECMG
                        33015KT=
201204240830 METAR LMML NIL=
201204240815 METAR LMML 240815Z 01012KT 350V050 9999 SCT011 18/14 Q1010
                        NOSIG=
201204240800 METAR LMML NIL=
201204240745 METAR LMML 240745Z 01010KT 9999 SCT010 18/14 Q1010 NOSIG=
201204240730 METAR LMML NIL=
201204240715 METAR LMML 240715Z 02011KT 9999 SCT010 18/14 Q1009 NOSIG=
201204240700 METAR LMML NIL=
201204240645 METAR LMML 240645Z 03009KT 360V070 9999 SCT010 17/14 Q1009
                        NOSIG=
201204240630 METAR LMML NIL=
201204240615 METAR LMML 240615Z 02007KT 350V050 9999 SCT010 17/14 Q1009
                        NOSIG=
201204240600 METAR LMML NIL=
201204240545 METAR LMML 240545Z 03005KT 010V070 CAVOK 16/14 Q1009 NOSIG=
201204240530 METAR LMML NIL=
201204240515 METAR LMML 240515Z 03005KT 360V070 CAVOK 15/14 Q1009 NOSIG=
201204240500 METAR LMML NIL=
201204240445 METAR LMML 240445Z 03006KT 360V070 CAVOK 15/13 Q1008 NOSIG=
201204240430 METAR LMML NIL=
201204240415 METAR LMML 240415Z 05006KT 020V080 CAVOK 15/13 Q1008 NOSIG=
201204240400 METAR LMML NIL=
201204240345 METAR LMML 240345Z 05006KT 010V080 CAVOK 15/13 Q1008 NOSIG=
201204240330 METAR LMML NIL=
201204240315 METAR LMML 240315Z 07008KT 030V100 CAVOK 15/13 Q1008 NOSIG=
201204240300 METAR LMML NIL=
201204240245 METAR LMML 240245Z 07007KT 040V100 CAVOK 15/13 Q1008 NOSIG=
201204240230 METAR LMML NIL=
201204240215 METAR LMML 240215Z 07008KT 020V100 CAVOK 15/13 Q1008 NOSIG=
201204240200 METAR LMML NIL=
201204240145 METAR LMML 240145Z 07007KT 040V100 CAVOK 15/13 Q1008 NOSIG=
201204240130 METAR LMML NIL=
201204240115 METAR LMML 240115Z 07007KT 030V100 CAVOK 15/13 Q1009 NOSIG=
201204240100 METAR LMML NIL=
201204240045 METAR LMML 240045Z 06004KT 020V100 CAVOK 15/13 Q1009 NOSIG=
201204240030 METAR LMML NIL=
201204240015 METAR LMML 240015Z 02004KT 360V080 CAVOK 15/13 Q1009 NOSIG=
201204240000 METAR LMML NIL=
201204232345 METAR LMML 232345Z 03003KT CAVOK 16/12 Q1009 NOSIG=
201204232330 METAR LMML NIL=
201204232315 METAR LMML 232315Z 07005KT 010V100 CAVOK 16/13 Q1009 NOSIG=
201204232300 METAR LMML NIL=
201204232245 METAR LMML 232245Z 09012KT CAVOK 16/13 Q1010 NOSIG=
201204232230 METAR LMML NIL=
201204232215 METAR LMML 232215Z 06008KT 030V090 CAVOK 16/13 Q1011 TEMPO
                        8000 SHRA SCT040=
201204232200 METAR LMML NIL=
201204232145 METAR LMML 232145Z 03009KT 350V080 CAVOK 16/13 Q1011 TEMPO
                        8000 SHRA SCT040=
201204232130 METAR LMML NIL=
201204232115 METAR LMML 232115Z 06008KT 010V090 CAVOK 16/13 Q1011 NOSIG=
201204232100 METAR LMML NIL=
201204232045 METAR LMML 232045Z 07007KT 030V110 CAVOK 16/13 Q1011 NOSIG=
201204232030 METAR LMML NIL=
201204232015 METAR LMML 232015Z 04008KT 010V110 9999 FEW025 BKN120 BKN250
                        16/13 Q1010 NOSIG=
201204232000 METAR LMML NIL=
201204231945 METAR LMML 231945Z 04010KT 010V070 9999 FEW025 BKN120 BKN250
                        16/13 Q1010 NOSIG=
201204231930 METAR LMML NIL=
201204231915 METAR LMML 231915Z 08011KT 020V110 9999 FEW040 BKN130 BKN250
                        16/13 Q1010 NOSIG=
201204231900 METAR LMML NIL=
201204231845 METAR LMML 231845Z 08011KT 050V110 CAVOK 17/13 Q1009 NOSIG=
201204231830 METAR LMML NIL=
201204231815 METAR LMML 231815Z 11011KT CAVOK 17/13 Q1009 NOSIG=
201204231800 METAR LMML NIL=
201204231745 METAR LMML 231745Z 09008KT 040V110 CAVOK 17/13 Q1010 NOSIG=
201204231730 METAR LMML NIL=
201204231715 METAR LMML 231715Z 13007KT 060V170 CAVOK 17/13 Q1010 NOSIG=
201204231700 METAR LMML NIL=
201204231645 METAR LMML 231645Z 12012KT 090V160 CAVOK 17/13 Q1009 NOSIG=
201204231630 METAR LMML NIL=
201204231615 METAR LMML 231615Z 12015KT CAVOK 17/13 Q1009 NOSIG=
201204231600 METAR LMML NIL=
201204231545 METAR LMML 231545Z 13016KT 100V160 CAVOK 17/13 Q1009 NOSIG=
201204231530 METAR LMML NIL=
201204231515 METAR LMML 231515Z 12016KT CAVOK 18/14 Q1009 NOSIG=
201204231500 METAR LMML NIL=
201204231445 METAR LMML 231445Z 13014KT 080V150 CAVOK 17/13 Q1010 NOSIG=
201204231430 METAR LMML NIL=
201204231415 METAR LMML 231415Z 12015KT CAVOK 18/13 Q1010 NOSIG=
201204231400 METAR LMML NIL=
201204231345 METAR LMML 231345Z 11011KT 080V140 CAVOK 19/13 Q1010 NOSIG=
201204231330 METAR LMML NIL=
201204231300 METAR LMML NIL=
201204231245 METAR LMML 231245Z 13016KT CAVOK 18/13 Q1012 NOSIG=
201204231230 METAR LMML NIL=
201204231215 METAR LMML 231215Z 12020KT CAVOK 18/14 Q1011 NOSIG=
201204231200 METAR LMML NIL=
201204231145 METAR LMML 231145Z 11016KT CAVOK 20/14 Q1011 NOSIG=
201204231130 METAR LMML NIL=
201204231115 METAR LMML 231115Z 11011KT 080V140 CAVOK 19/14 Q1012 NOSIG=
201204231100 METAR LMML NIL=
201204231045 METAR LMML 231045Z 11011KT 080V140 CAVOK 19/14 Q1013 NOSIG=
201204231030 METAR LMML NIL=
201204231015 METAR LMML 231015Z 11013KT CAVOK 19/14 Q1013 NOSIG=
201204230945 METAR LMML 230945Z 11013KT CAVOK 19/14 Q1013 NOSIG=
201204230930 METAR LMML NIL=
201204230915 METAR LMML 230915Z 11011KT 070V140 CAVOK 19/14 Q1014 NOSIG=
201204230900 METAR LMML NIL=
201204230845 METAR LMML 230845Z 11010KT 070V140 CAVOK 19/14 Q1014 NOSIG=
201204230830 METAR LMML NIL=
201204230815 METAR LMML 230815Z 11009KT 9999 FEW004 SCT250 18/14 Q1014
                        BECMG CAVOK=
201204230800 METAR LMML NIL=
201204230745 METAR LMML 230745Z 10007KT 060V120 9999 FEW004 SCT250 18/15
                        Q1014 BECMG CAVOK=
201204230730 METAR LMML NIL=
201204230715 METAR LMML 230715Z 08006KT 050V120 9999 FEW003 SCT250 17/16
                        Q1015 BECMG CAVOK=
201204230700 METAR LMML NIL=
201204230645 METAR LMML 230645Z 07006KT 020V230 9999 FEW004 SCT250 16/16
                        Q1015 BECMG CAVOK=
201204230630 METAR LMML NIL=
201204230615 METAR LMML 230615Z 08006KT 050V110 7000 FEW003 SCT250 16/16
                        Q1015 BECMG 9999=
201204230600 METAR LMML NIL=
201204230545 METAR LMML 230545Z 07004KT 040V110 6000 FEW002 SCT250 15/15
                        Q1015 BECMG 7000=
201204230530 METAR LMML NIL=
201204230515 METAR LMML 230515Z 07003KT 3000 BR SCT001 14/14 Q1015 BECMG
                        7000=
201204230430 METAR LMML NIL=
201204230415 METAR LMML 230415Z 34003KT 4000 BR SCT001 BKN250 13/13 Q1015
                        TEMPO 2000 BR=
201204230400 METAR LMML NIL=
201204230345 METAR LMML 230345Z VRB02KT 4000 BR SCT001 BKN250 13/13 Q1015
                        TEMPO 2000 BR=
201204230330 METAR LMML NIL=
201204230315 METAR LMML 230315Z VRB02KT 4000 BR FEW002 14/14 Q1015 TEMPO
                        2000 BR=
201204230300 METAR LMML NIL=
201204230245 METAR LMML 230245Z 02003KT 7000 FEW002 SCT250 14/14 Q1015
                        TEMPO 5000 BR=
201204230230 METAR LMML NIL=
201204230215 METAR LMML 230215Z 03003KT 7000 FEW002 SCT250 14/14 Q1015
                        TEMPO 5000 BR=
201204230200 METAR LMML NIL=
201204230145 METAR LMML 230145Z 01003KT 7000 FEW002 SCT250 14/14 Q1015
                        TEMPO 5000 BR=
201204230130 METAR LMML NIL=
201204230115 METAR LMML 230115Z VRB01KT 7000 FEW002 SCT250 14/14 Q1014
                        TEMPO 5000 BR=
201204230045 METAR LMML 230045Z 13003KT 7000 FEW002 14/14 Q1014 TEMPO
                        5000 BR=
201204230030 METAR LMML NIL=
201204230015 METAR LMML 230015Z 15007KT 7000 FEW002 SCT250 15/15 Q1015
                        TEMPO 5000 BR=
201204230000 METAR LMML NIL=
201204222345 METAR LMML 222345Z 14006KT 5000 BR SCT002 15/15 Q1015 TEMPO
                        3000 BR BKN002=
201204222330 METAR LMML NIL=
201204222315 METAR LMML 222315Z 14005KT 110V170 5000 BR BKN002 15/15 Q1016
                        TEMPO 3000 BR BKN001=
201204222300 METAR LMML NIL=
201204222245 METAR LMML 222245Z 14005KT 120V180 5000 BR BKN002 15/15 Q1016
                        TEMPO 3000 BR BKN001=
201204222230 METAR LMML NIL=
201204222215 METAR LMML 222215Z 14006KT 5000 BR BKN002 15/15 Q1016 TEMPO
                        3000 BR BKN001=
201204222200 METAR LMML NIL=
201204222145 METAR LMML 222145Z 15005KT 120V190 5000 BR SCT001 BKN002
                        15/15 Q1016 TEMPO 3000 BR BKN001=
201204222130 METAR LMML NIL=
201204222115 METAR LMML 222115Z 15008KT 5000 BR SCT001 BKN002 15/15 Q1016
                        TEMPO 3000 BR BKN001=
201204222100 METAR LMML NIL=
201204222045 METAR LMML 222045Z 15009KT 5000 BR BKN002 15/15 Q1017 TEMPO
                        3000 BR BKN001=
201204222030 METAR LMML NIL=
201204222015 METAR LMML 222015Z 15008KT 6000 BKN002 15/15 Q1017 BECMG
                        5000 BR BKN001=
201204222000 METAR LMML NIL=
201204221945 METAR LMML 221945Z 15006KT 120V180 9000 SCT003 15/15 Q1017
                        TEMPO BKN003=
201204221930 METAR LMML NIL=
201204221915 METAR LMML 221915Z 16008KT 9000 SCT003 15/15 Q1017 TEMPO
                        BKN003=
201204221900 METAR LMML NIL=
201204221845 METAR LMML 221845Z 15006KT 9000 FEW003 15/15 Q1017 TEMPO
                        BKN003=
201204221830 METAR LMML NIL=
201204221815 METAR LMML 221815Z 16007KT 120V190 9000 FEW003 15/15 Q1016
                        TEMPO BKN003=
201204221800 METAR LMML NIL=
201204221745 METAR LMML 221745Z 16008KT 9999 FEW004 16/15 Q1016 TEMPO
                        BKN003=
201204221730 METAR LMML NIL=
201204221715 METAR LMML 221715Z 15010KT 9999 FEW006 16/15 Q1016 NOSIG=
201204221700 METAR LMML NIL=
201204221645 METAR LMML 221645Z 15008KT 9999 FEW006 17/14 Q1016 NOSIG=
201204221615 METAR LMML 221615Z 16008KT 140V210 9999 FEW008 17/14 Q1016
                        NOSIG=
201204221600 METAR LMML NIL=
201204221545 METAR LMML 221545Z 16007KT 9999 FEW012 18/14 Q1017 NOSIG=
201204221530 METAR LMML NIL=
201204221515 METAR LMML 221515Z 16007KT 130V220 9999 FEW012 SCT250 18/14
                        Q1017 NOSIG=
201204221500 METAR LMML NIL=
201204221445 METAR LMML 221445Z 16008KT 120V200 9999 FEW012 SCT250 18/15
                        Q1017 NOSIG=
201204221430 METAR LMML NIL=
201204221415 METAR LMML 221415Z 18012KT 160V240 9999 FEW012 SCT250 18/14
                        Q1017 NOSIG=
201204221400 METAR LMML NIL=
201204221345 METAR LMML 221345Z 18013KT 150V220 9999 FEW012 SCT250 18/14
                        Q1017 NOSIG=
201204221330 METAR LMML NIL=
201204221315 METAR LMML 221315Z 17013KT 140V200 9999 FEW009 SCT250 18/14
                        Q1017 NOSIG=
201204221300 METAR LMML NIL=
201204221245 METAR LMML 221245Z 18013KT 130V230 CAVOK 18/14 Q1018=
201204221230 METAR LMML NIL=
201204221215 METAR LMML 221215Z 18012KT 140V230 9999 FEW009 18/14 Q1018
                        NOSIG=
201204221200 METAR LMML NIL=
201204221145 METAR LMML 221145Z 17011KT 130V220 9999 FEW009 18/14 Q1018
                        NOSIG=
201204221130 METAR LMML NIL=
201204221115 METAR LMML 221115Z 18011KT 160V230 9999 FEW009 18/13 Q1018
                        NOSIG=
201204221100 METAR LMML NIL=
201204221045 METAR LMML 221045Z 17009KT 130V220 9999 FEW008 18/13 Q1019
                        NOSIG=
201204221030 METAR LMML NIL=
201204221015 METAR LMML 221015Z 18008KT 150V230 9999 FEW008 19/13 Q1019
                        NOSIG=
201204221000 METAR LMML NIL=
201204220945 METAR LMML 220945Z 17009KT 130V220 9999 FEW011 19/12 Q1019
                        NOSIG=
201204220930 METAR LMML NIL=
201204220915 METAR LMML 220915Z 16009KT 130V210 9999 FEW011 19/12 Q1019
                        NOSIG=
201204220900 METAR LMML NIL=
201204220845 METAR LMML 220845Z 16008KT 130V200 CAVOK 18/11 Q1019 NOSIG=
201204220830 METAR LMML NIL=
201204220815 METAR LMML 220815Z 17006KT 140V230 9999 FEW010 19/11 Q1019
                        NOSIG=
201204220800 METAR LMML NIL=
201204220745 METAR LMML 220745Z 16005KT 130V210 9999 FEW008 18/11 Q1019
                        NOSIG=
201204220730 METAR LMML NIL=
201204220715 METAR LMML 220715Z 13004KT 080V190 9999 FEW006 17/15 Q1019
                        NOSIG=
201204220700 METAR LMML NIL=
201204220645 METAR LMML 220645Z 14003KT 9999 FEW006 16/16 Q1019 NOSIG=
201204220630 METAR LMML NIL=
201204220615 METAR LMML 220615Z VRB02KT 8000 SCT003 15/15 Q1019 BECMG
                        9999=
201204220600 METAR LMML NIL=
201204220545 METAR LMML 220545Z VRB02KT 1500 R13/0352V0508D BR SCT001
                        14/14 Q1019 BECMG 3000 BR=
201204220530 METAR LMML NIL=
201204220515 METAR LMML 220515Z VRB01KT 2500 0400SE R13/0805VP1500U PRFG
                        SCT002 13/13 Q1019 TEMPO BKN001=
201204220500 METAR LMML NIL=
201204220445 METAR LMML 220445Z VRB01KT 6000 R13/0350N MIFG FEW004 12/12
                        Q1018 BECMG CAVOK=
201204220430 METAR LMML NIL=
201204220415 METAR LMML 220415Z 20003KT 5000 MIFG FEW004 12/12 Q1018 TEMPO
                        3000 BCFG=
201204220400 METAR LMML NIL=
201204220345 METAR LMML 220345Z VRB02KT 6000 FEW004 12/12 Q1018 NOSIG=
201204220330 METAR LMML NIL=
201204220315 METAR LMML 220315Z 19004KT 160V240 8000 SCT004 13/13 Q1018
                        NOSIG=
201204220300 METAR LMML NIL=
201204220245 METAR LMML 220245Z 19004KT 160V230 8000 SCT004 13/13 Q1018
                        NOSIG=
201204220230 METAR LMML NIL=
201204220215 METAR LMML 220215Z 20004KT 170V240 8000 SCT004 13/13 Q1018
                        NOSIG=
201204220200 METAR LMML NIL=
201204220145 METAR LMML 220145Z 20004KT 170V250 9000 FEW008 12/12 Q1019
                        NOSIG=
201204220130 METAR LMML NIL=
201204220115 METAR LMML 220115Z 18004KT 9000 FEW008 12/12 Q1019 NOSIG=
201204220100 METAR LMML NIL=
201204220045 METAR LMML 220045Z VRB02KT 9999 FEW008 11/11 Q1019 NOSIG=
201204220030 METAR LMML NIL=
201204220015 METAR LMML 220015Z VRB01KT 9999 FEW008 12/11 Q1019 NOSIG=
201204212345 METAR LMML 212345Z VRB02KT CAVOK 12/10 Q1019 NOSIG=
201204212315 METAR LMML 212315Z VRB02KT CAVOK 12/10 Q1019 NOSIG=
201204212300 METAR LMML NIL=
201204212245 METAR LMML 212245Z VRB02KT CAVOK 12/11 Q1019 NOSIG=
201204212230 METAR LMML NIL=
201204212215 METAR LMML 212215Z VRB02KT CAVOK 12/11 Q1019 NOSIG=
201204212200 METAR LMML NIL=
201204212145 METAR LMML 212145Z VRB02KT CAVOK 13/11 Q1019 NOSIG=
201204212130 METAR LMML NIL=
201204212115 METAR LMML 212115Z VRB01KT CAVOK 13/11 Q1020 NOSIG=
201204212100 METAR LMML NIL=
201204212045 METAR LMML 212045Z VRB01KT CAVOK 13/11 Q1020 NOSIG=
201204212030 METAR LMML NIL=
201204212015 METAR LMML 212015Z VRB01KT CAVOK 13/11 Q1020 NOSIG=
201204212000 METAR LMML NIL=
201204211945 METAR LMML 211945Z VRB01KT CAVOK 14/11 Q1020 NOSIG=
201204211930 METAR LMML NIL=
201204211915 METAR LMML 211915Z 26003KT CAVOK 14/12 Q1019 NOSIG=
201204211900 METAR LMML NIL=
201204211845 METAR LMML 211845Z 26003KT CAVOK 14/12 Q1019 NOSIG=
201204211830 METAR LMML NIL=
201204211815 METAR LMML 211815Z 25004KT CAVOK 14/12 Q1019 NOSIG=
201204211800 METAR LMML NIL=
201204211745 METAR LMML 211745Z 25006KT 220V280 CAVOK 15/12 Q1019 NOSIG=
201204211730 METAR LMML NIL=
201204211715 METAR LMML 211715Z 25007KT CAVOK 15/11 Q1018 NOSIG=
201204211700 METAR LMML NIL=
201204211645 METAR LMML 211645Z 24008KT 210V270 CAVOK 16/11 Q1018 NOSIG=
201204211630 METAR LMML NIL=
201204211615 METAR LMML 211615Z 24008KT 210V270 9999 FEW025 16/10 Q1018
                        NOSIG=
201204211600 METAR LMML NIL=
201204211545 METAR LMML 211545Z 23006KT 200V280 9999 FEW025 17/11 Q1018
                        NOSIG=
201204211530 METAR LMML NIL=
201204211515 METAR LMML 211515Z 24007KT 210V280 9999 FEW025 18/10 Q1018
                        NOSIG=
201204211500 METAR LMML NIL=
201204211445 METAR LMML 211445Z 24006KT 160V290 9999 FEW025 18/11 Q1018
                        NOSIG=
201204211430 METAR LMML NIL=
201204211415 METAR LMML 211415Z 25008KT 210V280 9999 FEW027 18/11 Q1018
                        NOSIG=
201204211400 METAR LMML NIL=
201204211345 METAR LMML 211345Z 25007KT 210V300 9999 FEW027 19/11 Q1019
                        NOSIG=
201204211315 METAR LMML 211315Z 28007KT 230V340 9999 FEW025 19/10 Q1019
                        NOSIG=
201204211300 METAR LMML NIL=
201204211245 METAR LMML 211245Z 25008KT 220V290 9999 FEW025 18/11 Q1019
                        NOSIG=
201204211230 METAR LMML NIL=
201204211215 METAR LMML 211215Z 27009KT 230V300 9999 FEW025 18/11 Q1019
                        NOSIG=
201204211200 METAR LMML NIL=
201204211145 METAR LMML 211145Z 28009KT 220V320 9999 SCT025 18/11 Q1019
                        NOSIG=
201204211130 METAR LMML NIL=
201204211115 METAR LMML 211115Z 28009KT 250V330 9999 SCT026 18/10 Q1019
                        NOSIG=
201204211045 METAR LMML 211045Z 30009KT 250V320 9999 SCT027 18/11 Q1019
                        NOSIG=
201204211030 METAR LMML NIL=
201204211015 METAR LMML 211015Z 30009KT 280V350 9999 FEW020 18/10 Q1018
                        NOSIG=
201204211000 METAR LMML NIL=
201204210945 METAR LMML 210945Z 28009KT 240V300 9999 FEW020 18/10 Q1018
                        NOSIG=
201204210930 METAR LMML NIL=
201204210915 METAR LMML 210915Z 30010KT 270V340 9999 FEW021 18/11 Q1018
                        NOSIG=
201204210900 METAR LMML NIL=
201204210845 METAR LMML 210845Z 30011KT 260V330 9999 FEW020 18/11 Q1018
                        NOSIG=
201204210830 METAR LMML NIL=
201204210815 METAR LMML 210815Z 28010KT 240V320 9999 SCT021 17/11 Q1017
                        NOSIG=
201204210745 METAR LMML 210745Z 29011KT 9999 SCT020 17/11 Q1017 NOSIG=
201204210730 METAR LMML NIL=
201204210715 METAR LMML 210715Z 29009KT 260V330 9999 SCT019 16/11 Q1017
                        NOSIG=
201204210700 METAR LMML NIL=
201204210645 METAR LMML 210645Z 29009KT 250V320 9999 FEW018 16/11 Q1016
                        NOSIG=
201204210630 METAR LMML NIL=
201204210615 METAR LMML 210615Z 28010KT 9999 FEW020 15/11 Q1016 NOSIG=
201204210545 METAR LMML 210545Z 28007KT 9999 FEW020 14/11 Q1016 NOSIG=
201204210530 METAR LMML NIL=
201204210515 METAR LMML 210515Z 27007KT 240V300 9999 FEW020 14/11 Q1015
                        NOSIG=
201204210500 METAR LMML NIL=
201204210445 METAR LMML 210445Z 28006KT 250V310 9999 FEW020 13/11 Q1015
                        NOSIG=
201204210430 METAR LMML NIL=
201204210415 METAR LMML 210415Z 29007KT 9999 FEW020 13/11 Q1015 NOSIG=
201204210400 METAR LMML NIL=
201204210345 METAR LMML 210345Z 28006KT 9999 FEW020 13/11 Q1014 NOSIG=
201204210330 METAR LMML NIL=
201204210315 METAR LMML 210315Z 26006KT 230V290 CAVOK 13/11 Q1015 NOSIG=
201204210300 METAR LMML NIL=
201204210245 METAR LMML 210245Z 24008KT 210V280 CAVOK 13/11 Q1014 NOSIG=
201204210230 METAR LMML NIL=
201204210215 METAR LMML 210215Z 24007KT 210V270 CAVOK 13/12 Q1014 NOSIG=
201204210200 METAR LMML NIL=
201204210145 METAR LMML 210145Z 24006KT 210V270 CAVOK 14/11 Q1014 NOSIG=
201204210130 METAR LMML NIL=
201204210115 METAR LMML 210115Z 24007KT CAVOK 14/11 Q1015 NOSIG=
201204210100 METAR LMML NIL=
201204210045 METAR LMML 210045Z 23007KT 200V260 CAVOK 14/12 Q1014 NOSIG=
201204210030 METAR LMML NIL=
201204210015 METAR LMML 210015Z 24007KT 9999 FEW020 13/12 Q1014 NOSIG=
201204210000 METAR LMML NIL=
201204202345 METAR LMML 202345Z 24007KT 210V270 9999 FEW020 13/11 Q1014
                        NOSIG=
201204202330 METAR LMML NIL=
201204202315 METAR LMML 202315Z 24006KT 200V270 9999 FEW020 13/11 Q1015
                        NOSIG=
201204202300 METAR LMML NIL=
201204202245 METAR LMML 202245Z 24006KT 220V280 9999 FEW020 13/11 Q1014
                        NOSIG=
201204202230 METAR LMML NIL=
201204202215 METAR LMML 202215Z 24007KT 9999 FEW020 13/11 Q1014 NOSIG=
201204202145 METAR LMML 202145Z 25005KT 9999 FEW020 13/11 Q1014 NOSIG=
201204202130 METAR LMML NIL=
201204202115 METAR LMML 202115Z 23005KT 220V300 9999 FEW020 13/10 Q1014
                        NOSIG=
201204202045 METAR LMML 202045Z 27004KT 240V300 CAVOK 13/10 Q1014 NOSIG=
201204202030 METAR LMML NIL=
201204202015 METAR LMML 202015Z 26004KT 9999 FEW020 13/09 Q1014 NOSIG=
201204202000 METAR LMML NIL=
201204201945 METAR LMML 201945Z 25004KT 9999 FEW020 13/09 Q1013 NOSIG=
201204201915 METAR LMML 201915Z 28005KT CAVOK 14/09 Q1013 NOSIG=
201204201900 METAR LMML NIL=
201204201845 METAR LMML 201845Z 27004KT 240V300 9999 FEW021 BKN090 14/09
                        Q1013 NOSIG=
201204201830 METAR LMML NIL=
201204201815 METAR LMML 201815Z 31006KT 9999 FEW021 BKN080 14/10 Q1012
                        NOSIG=
201204201800 METAR LMML NIL=
201204201745 METAR LMML 201745Z 32012KT 9999 FEW019 BKN090 14/10 Q1012
                        NOSIG=
201204201730 METAR LMML NIL=
201204201715 METAR LMML 201715Z 27006KT 240V300 9999 SCT025 16/10 Q1012
                        NOSIG=
201204201700 METAR LMML NIL=
201204201645 METAR LMML 201645Z 25008KT 220V280 9999 FEW025 SCT070 16/10
                        Q1011 NOSIG=
201204201630 METAR LMML NIL=
201204201615 METAR LMML 201615Z 27010KT 230V290 9999 FEW025 17/09 Q1011
                        NOSIG=
201204201600 METAR LMML NIL=
201204201545 METAR LMML 201545Z 26007KT 220V310 CAVOK 18/09 Q1010 NOSIG=
201204201530 METAR LMML NIL=
201204201515 METAR LMML 201515Z 26010KT 220V280 CAVOK 18/08 Q1010 NOSIG=
201204201500 METAR LMML NIL=
201204201445 METAR LMML 201445Z 26007KT 230V300 CAVOK 18/09 Q1010 NOSIG=
201204201430 METAR LMML NIL=
201204201415 METAR LMML 201415Z 26009KT 200V300 9999 FEW025 18/09 Q1010
                        NOSIG=
201204201345 METAR LMML 201345Z 25007KT 180V290 CAVOK 19/10 Q1010 NOSIG=
201204201315 METAR LMML 201315Z 24008KT 200V290 9999 FEW020 18/10 Q1011
                        NOSIG=
201204201300 METAR LMML NIL=
201204201245 METAR LMML 201245Z 24009KT 210V280 CAVOK 18/10 Q1010 NOSIG=
201204201230 METAR LMML NIL=
201204201215 METAR LMML 201215Z 24009KT 200V290 9999 FEW020 18/10 Q1010
                        NOSIG=
201204201200 METAR LMML NIL=
201204201145 METAR LMML 201145Z 25008KT 210V310 9999 FEW020 18/10 Q1010
                        NOSIG=
201204201130 METAR LMML NIL=
201204201115 METAR LMML 201115Z 24009KT 180V290 9999 FEW020 18/10 Q1010
                        NOSIG=
201204201045 METAR LMML 201045Z 27008KT 220V330 CAVOK 19/08 Q1010 NOSIG=
201204201030 METAR LMML NIL=
201204201015 METAR LMML 201015Z 27009KT 230V310 CAVOK 19/08 Q1010 NOSIG=
201204201000 METAR LMML NIL=
201204200945 METAR LMML 200945Z 29008KT 240V320 9999 FEW020 18/09 Q1010
                        NOSIG=
201204200930 METAR LMML NIL=
201204200915 METAR LMML 200915Z 26007KT 220V310 9999 FEW020 17/09 Q1010
                        NOSIG=
201204200900 METAR LMML NIL=
201204200845 METAR LMML 200845Z 26007KT 220V310 9999 FEW020 17/09 Q1010
                        NOSIG=
201204200830 METAR LMML NIL=
201204200815 METAR LMML 200815Z 27007KT 230V320 9999 FEW020 17/10 Q1010
                        NOSIG=
201204200800 METAR LMML NIL=
201204200745 METAR LMML 200745Z 27008KT 240V300 9999 FEW020 16/09 Q1009
                        NOSIG=
201204200730 METAR LMML NIL=
201204200715 METAR LMML 200715Z 28008KT 240V310 9999 FEW020 16/09 Q1009
                        NOSIG=
201204200700 METAR LMML NIL=
201204200645 METAR LMML 200645Z 26007KT 230V300 CAVOK 16/10 Q1009 NOSIG=
201204200630 METAR LMML NIL=
201204200615 METAR LMML 200615Z 26005KT 220V290 CAVOK 15/10 Q1008 NOSIG=
201204200600 METAR LMML NIL=
201204200545 METAR LMML 200545Z VRB02KT CAVOK 14/10 Q1008 NOSIG=
201204200530 METAR LMML NIL=
201204200515 METAR LMML 200515Z 25003KT CAVOK 13/09 Q1008 NOSIG=
201204200500 METAR LMML NIL=
201204200445 METAR LMML 200445Z 22003KT CAVOK 12/08 Q1008 NOSIG=
201204200430 METAR LMML NIL=
201204200415 METAR LMML 200415Z 23003KT CAVOK 11/08 Q1007 NOSIG=
201204200400 METAR LMML NIL=
201204200345 METAR LMML 200345Z 24004KT CAVOK 11/08 Q1007 NOSIG=
201204200330 METAR LMML NIL=
201204200315 METAR LMML 200315Z 26004KT 230V290 CAVOK 12/07 Q1007 NOSIG=
201204200300 METAR LMML NIL=
201204200245 METAR LMML 200245Z 27004KT 240V300 CAVOK 12/08 Q1007 NOSIG=
201204200230 METAR LMML NIL=
201204200215 METAR LMML 200215Z 30005KT CAVOK 12/08 Q1007 NOSIG=
201204200200 METAR LMML NIL=
201204200145 METAR LMML 200145Z 30006KT CAVOK 12/08 Q1007 NOSIG=
201204200130 METAR LMML NIL=
201204200115 METAR LMML 200115Z 30005KT CAVOK 12/09 Q1007 NOSIG=
201204200100 METAR LMML NIL=
201204200045 METAR LMML 200045Z 32007KT CAVOK 13/09 Q1008 NOSIG=
201204200030 METAR LMML NIL=
201204200015 METAR LMML 200015Z 32007KT CAVOK 13/10 Q1008 NOSIG=
201204200000 METAR LMML NIL=
201204192345 METAR LMML 192345Z 32007KT CAVOK 14/10 Q1008 NOSIG=
201204192330 METAR LMML NIL=
201204192315 METAR LMML 192315Z 32007KT CAVOK 14/09 Q1008 NOSIG=
201204192300 METAR LMML NIL=
201204192245 METAR LMML 192245Z 32008KT CAVOK 14/09 Q1008 NOSIG=
201204192230 METAR LMML NIL=
201204192215 METAR LMML 192215Z 32007KT CAVOK 14/09 Q1008 NOSIG=
201204192200 METAR LMML NIL=
201204192145 METAR LMML 192145Z 32007KT CAVOK 14/10 Q1008 NOSIG=
201204192130 METAR LMML NIL=
201204192115 METAR LMML 192115Z 33011KT CAVOK 15/11 Q1008 NOSIG=
201204192100 METAR LMML NIL=
201204192045 METAR LMML 192045Z 32007KT 290V350 CAVOK 14/11 Q1007 NOSIG=
201204192030 METAR LMML NIL=
201204192015 METAR LMML 192015Z 31005KT CAVOK 14/11 Q1007 NOSIG=
201204192000 METAR LMML NIL=
201204191945 METAR LMML 191945Z 30004KT CAVOK 14/12 Q1006 NOSIG=
201204191930 METAR LMML NIL=
201204191915 METAR LMML 191915Z VRB02KT CAVOK 14/12 Q1006 NOSIG=
201204191900 METAR LMML NIL=
201204191845 METAR LMML 191845Z 27003KT CAVOK 15/11 Q1005 NOSIG=
201204191830 METAR LMML NIL=
201204191815 METAR LMML 191815Z 30004KT 280V340 CAVOK 15/12 Q1005 NOSIG=
201204191800 METAR LMML NIL=
201204191745 METAR LMML 191745Z 24007KT 190V270 CAVOK 15/11 Q1005 NOSIG=
201204191730 METAR LMML NIL=
201204191715 METAR LMML 191715Z 24007KT 180V280 CAVOK 16/11 Q1004 NOSIG=
201204191700 METAR LMML NIL=
201204191645 METAR LMML 191645Z 24011KT 210V270 CAVOK 17/11 Q1004 NOSIG=
201204191630 METAR LMML NIL=
201204191615 METAR LMML 191615Z 24011KT 200V280 CAVOK 17/11 Q1005 NOSIG=
201204191600 METAR LMML NIL=
201204191545 METAR LMML 191545Z 23013KT 190V270 CAVOK 18/11 Q1004 NOSIG=
201204191530 METAR LMML NIL=
201204191515 METAR LMML 191515Z 22015KT 190V260 CAVOK 18/11 Q1004 NOSIG=
201204191500 METAR LMML NIL=
201204191445 METAR LMML 191445Z 22016KT 180V250 CAVOK 18/11 Q1004 NOSIG=
201204191430 METAR LMML NIL=
201204191415 METAR LMML 191415Z 22017KT 170V260 CAVOK 18/10 Q1004 NOSIG=
201204191400 METAR LMML NIL=
201204191345 METAR LMML 191345Z 22018KT 170V260 CAVOK 18/10 Q1004 NOSIG=
201204191330 METAR LMML NIL=
201204191315 METAR LMML 191315Z 22015G26KT 170V250 CAVOK 19/11 Q1005 NOSIG=
201204191300 METAR LMML NIL=
201204191245 METAR LMML 191245Z 21016KT 160V250 CAVOK 19/11 Q1005 NOSIG=
201204191230 METAR LMML NIL=
201204191215 METAR LMML 191215Z 21013KT 140V250 CAVOK 19/11 Q1005 NOSIG=
201204191200 METAR LMML NIL=
201204191145 METAR LMML 191145Z 20014G24KT 150V250 CAVOK 19/12 Q1006 NOSIG=
201204191130 METAR LMML NIL=
201204191115 METAR LMML 191115Z 20016KT 160V250 CAVOK 18/11 Q1006 NOSIG=
201204191100 METAR LMML NIL=
201204191045 METAR LMML 191045Z 19015KT 140V240 CAVOK 18/11 Q1006 NOSIG=
201204191030 METAR LMML NIL=
201204191015 METAR LMML 191015Z 20012KT 150V260 CAVOK 19/11 Q1006 NOSIG=
201204191000 METAR LMML NIL=
201204190945 METAR LMML 190945Z 20014KT 140V240 CAVOK 18/11 Q1007 NOSIG=
201204190930 METAR LMML NIL=
201204190915 METAR LMML 190915Z 20013KT 150V250 CAVOK 18/11 Q1007 NOSIG=
201204190900 METAR LMML NIL=
201204190845 METAR LMML 190845Z 19011KT 140V240 CAVOK 18/12 Q1007 NOSIG=
201204190830 METAR LMML NIL=
201204190815 METAR LMML 190815Z 19013KT 160V230 CAVOK 17/11 Q1007 NOSIG=
201204190800 METAR LMML NIL=
201204190745 METAR LMML 190745Z 19011KT 150V240 CAVOK 17/12 Q1007 NOSIG=
201204190730 METAR LMML NIL=
201204190715 METAR LMML 190715Z 18013KT 160V230 CAVOK 16/12 Q1007 NOSIG=
201204190700 METAR LMML NIL=
201204190645 METAR LMML 190645Z 19012KT 150V230 CAVOK 16/12 Q1007 NOSIG=
201204190630 METAR LMML NIL=
201204190615 METAR LMML 190615Z 19011KT 160V240 CAVOK 15/12 Q1007 NOSIG=
201204190600 METAR LMML NIL=
201204190545 METAR LMML 190545Z 19010KT 160V230 CAVOK 15/11 Q1007 NOSIG=
201204190530 METAR LMML NIL=
201204190515 METAR LMML 190515Z 19010KT 160V240 CAVOK 14/12 Q1007 NOSIG=
201204190500 METAR LMML NIL=
201204190445 METAR LMML 190445Z 19011KT 160V220 CAVOK 14/11 Q1007 NOSIG=
201204190430 METAR LMML NIL=
201204190415 METAR LMML 190415Z 21010KT 170V250 CAVOK 14/11 Q1007 NOSIG=
201204190400 METAR LMML NIL=
201204190345 METAR LMML 190345Z 21010KT 160V260 CAVOK 14/11 Q1007 NOSIG=
201204190330 METAR LMML NIL=
201204190315 METAR LMML 190315Z 21009KT 160V240 CAVOK 14/11 Q1007 NOSIG=
201204190300 METAR LMML NIL=
201204190245 METAR LMML 190245Z 21008KT 160V250 CAVOK 13/11 Q1008 NOSIG=
201204190230 METAR LMML NIL=
201204190215 METAR LMML 190215Z 20008KT 170V240 CAVOK 13/11 Q1008 NOSIG=
201204190200 METAR LMML NIL=
201204190145 METAR LMML 190145Z 20008KT 160V260 CAVOK 13/12 Q1008 NOSIG=
201204190130 METAR LMML NIL=
201204190115 METAR LMML 190115Z 20007KT 160V240 CAVOK 13/11 Q1008 NOSIG=
201204190100 METAR LMML NIL=
201204190045 METAR LMML 190045Z 20009KT 160V240 CAVOK 13/11 Q1008 NOSIG=
201204190030 METAR LMML NIL=
201204190015 METAR LMML 190015Z 21008KT 160V250 CAVOK 13/11 Q1008 NOSIG=
201204190000 METAR LMML NIL=
201204182345 METAR LMML 182345Z 21007KT 150V260 CAVOK 13/11 Q1009 NOSIG=
201204182330 METAR LMML NIL=
201204182315 METAR LMML 182315Z 21007KT 170V270 CAVOK 13/11 Q1009 NOSIG=
201204182300 METAR LMML NIL=
201204182245 METAR LMML 182245Z 21008KT 170V250 CAVOK 13/10 Q1010 NOSIG=
201204182230 METAR LMML NIL=
201204182215 METAR LMML 182215Z 21006KT 160V240 CAVOK 13/10 Q1010 NOSIG=
201204182200 METAR LMML NIL=
201204182145 METAR LMML 182145Z 21006KT 170V250 CAVOK 13/09 Q1010 NOSIG=
201204182130 METAR LMML NIL=
201204182115 METAR LMML 182115Z 22007KT 180V250 CAVOK 13/09 Q1010 NOSIG=
201204182100 METAR LMML NIL=
201204182045 METAR LMML 182045Z 21006KT 170V250 CAVOK 13/09 Q1010 NOSIG=
201204182030 METAR LMML NIL=
201204182015 METAR LMML 182015Z 23005KT 190V260 CAVOK 13/08 Q1010 NOSIG=
201204182000 METAR LMML NIL=
201204181945 METAR LMML 181945Z 22006KT 190V250 CAVOK 13/08 Q1010 NOSIG=
201204181930 METAR LMML NIL=
201204181915 METAR LMML 181915Z 23006KT CAVOK 12/07 Q1010 NOSIG=
201204181900 METAR LMML NIL=
201204181845 METAR LMML 181845Z 24007KT CAVOK 13/07 Q1010 NOSIG=
201204181830 METAR LMML NIL=
201204181815 METAR LMML 181815Z 25006KT 220V280 CAVOK 13/05 Q1009 NOSIG=
201204181800 METAR LMML NIL=
201204181745 METAR LMML 181745Z 25008KT 230V290 CAVOK 13/05 Q1010 NOSIG=
201204181730 METAR LMML NIL=
201204181715 METAR LMML 181715Z 26011KT 230V290 9999 FEW030 14/05 Q1010
                        NOSIG=
201204181700 METAR LMML NIL=
201204181645 METAR LMML 181645Z 27013KT 230V300 9999 FEW032 14/06 Q1010
                        NOSIG=
201204181630 METAR LMML NIL=
201204181615 METAR LMML 181615Z 26014KT 230V290 9999 FEW032 14/06 Q1010
                        NOSIG=
201204181600 METAR LMML NIL=
201204181545 METAR LMML 181545Z 26015KT 230V290 9999 FEW032 15/06 Q1009
                        NOSIG=
201204181530 METAR LMML NIL=
201204181515 METAR LMML 181515Z 26017KT 240V300 9999 FEW032 15/06 Q1009
                        NOSIG=
201204181500 METAR LMML NIL=
201204181445 METAR LMML 181445Z 26017KT 230V290 9999 SCT033 15/07 Q1010
                        NOSIG=
201204181430 METAR LMML NIL=
201204181415 METAR LMML 181415Z 26017KT 220V290 9999 SCT029 15/07 Q1010
                        NOSIG=
201204181400 METAR LMML NIL=
201204181345 METAR LMML 181345Z 26017KT 230V310 9999 SCT029 15/08 Q1010
                        NOSIG=
201204181330 METAR LMML NIL=
201204181315 METAR LMML 181315Z 26018KT 220V290 9999 SCT029 15/08 Q1010
                        NOSIG=
201204181300 METAR LMML NIL=
201204181245 METAR LMML 181245Z 27017KT 230V290 9999 SCT029 15/07 Q1010
                        NOSIG=
201204181230 METAR LMML NIL=
201204181215 METAR LMML 181215Z 27018KT 230V300 9999 SCT028 15/07 Q1010
                        NOSIG=
201204181200 METAR LMML NIL=
201204181145 METAR LMML 181145Z 27017KT 230V300 9999 SCT023 15/09 Q1010
                        NOSIG=
201204181130 METAR LMML NIL=
201204181115 METAR LMML 181115Z 28018KT 240V320 9999 SCT029 15/08 Q1011
                        NOSIG=
201204181100 METAR LMML NIL=
201204181045 METAR LMML 181045Z 27018KT 230V310 9999 SCT025 15/08 Q1011
                        NOSIG=
201204181030 METAR LMML NIL=
201204181015 METAR LMML 181015Z 27018KT 240V300 9999 FEW025 FEW035 SCT045
                        15/09 Q1011=
201204181000 METAR LMML NIL=
201204180945 METAR LMML 180945Z 29021KT 9999 FEW036 15/06 Q1011 NOSIG=
201204180930 METAR LMML NIL=
201204180915 METAR LMML 180915Z 29021KT 260V330 9999 FEW037 15/06 Q1011
                        NOSIG=
201204180900 METAR LMML NIL=
201204180845 METAR LMML 180845Z 29021KT 9999 FEW034 15/06 Q1011 NOSIG=
201204180830 METAR LMML NIL=
201204180815 METAR LMML 180815Z 29021KT 260V320 9999 FEW030 15/06 Q1010
                        NOSIG=
201204180800 METAR LMML NIL=
201204180745 METAR LMML 180745Z 29016G27KT 260V320 9999 SCT032 14/07 Q1010
                        NOSIG=
201204180730 METAR LMML NIL=
201204180715 METAR LMML 180715Z 30021KT 9999 SCT035 14/06 Q1010 NOSIG=
201204180700 METAR LMML NIL=
201204180645 METAR LMML 180645Z 29019G30KT 260V330 9999 SCT038 13/06 Q1009
                        NOSIG=
201204180630 METAR LMML NIL=
201204180615 METAR LMML 180615Z 30017KT 270V330 9999 SCT025 13/07 Q1009
                        NOSIG=
201204180600 METAR LMML NIL=
201204180545 METAR LMML 180545Z 29016KT 9999 SCT024 13/08 Q1008 NOSIG=
201204180530 METAR LMML NIL=
201204180515 METAR LMML 180515Z 29015KT 9999 SCT023 12/07 Q1008 NOSIG=
201204180500 METAR LMML NIL=
201204180445 METAR LMML 180445Z 29015KT 260V320 9999 FEW025 SCT033 12/08
                        Q1008 NOSIG=
201204180430 METAR LMML NIL=
201204180415 METAR LMML 180415Z 29018KT 9999 FEW023 12/08 Q1008 NOSIG=
201204180400 METAR LMML NIL=
201204180345 METAR LMML 180345Z 28016KT 250V310 9999 SCT021 12/08 Q1008
                        NOSIG=
201204180330 METAR LMML NIL=
201204180315 METAR LMML 180315Z 29020KT 9999 SCT019 13/08 Q1007 NOSIG=
201204180300 METAR LMML NIL=
201204180245 METAR LMML 180245Z 29019KT 9999 SCT018 12/09 Q1007 NOSIG=
201204180230 METAR LMML NIL=
201204180215 METAR LMML 180215Z 28021KT 250V310 9999 SCT019 13/09 Q1007
                        NOSIG=
201204180200 METAR LMML NIL=
201204180145 METAR LMML 180145Z 28020KT 9999 FEW019 13/09 Q1007 NOSIG=
201204180130 METAR LMML NIL=
201204180115 METAR LMML 180115Z 29018G28KT 260V320 9999 FEW020 SCT065
                        13/09 Q1007 NOSIG=
201204180100 METAR LMML NIL=
201204180045 METAR LMML 180045Z 29020KT 260V320 9999 FEW019 13/09 Q1007
                        NOSIG=
201204180030 METAR LMML NIL=
201204180015 METAR LMML 180015Z 29018KT 9999 FEW021 13/09 Q1007 NOSIG=
201204180000 METAR LMML NIL=
201204172345 METAR LMML 172345Z 29016KT 9999 FEW021 13/09 Q1007 NOSIG=
201204172330 METAR LMML NIL=
201204172315 METAR LMML 172315Z 29015KT 9999 SCT021 13/09 Q1007 NOSIG=
201204172300 METAR LMML NIL=
201204172245 METAR LMML 172245Z 29014KT 9999 SCT023 13/09 Q1007 NOSIG=
201204172230 METAR LMML NIL=
201204172215 METAR LMML 172215Z 30018KT 9999 SCT025 13/09 Q1007 NOSIG=
201204172200 METAR LMML NIL=
201204172145 METAR LMML 172145Z 30016KT 9999 FEW019 13/10 Q1007 NOSIG=
201204172130 METAR LMML NIL=
201204172115 METAR LMML 172115Z 30015KT 9999 FEW021 SCT250 13/10 Q1007
                        NOSIG=
201204172100 METAR LMML NIL=
201204172045 METAR LMML 172045Z 30014KT 270V330 9999 FEW018 SCT250 13/10
                        Q1007 NOSIG=
201204172030 METAR LMML NIL=
201204172015 METAR LMML 172015Z 30014KT 270V330 9999 FEW018 SCT250 13/10
                        Q1007 NOSIG=
201204172000 METAR LMML NIL=
201204171945 METAR LMML 171945Z 29014KT 9999 FEW018 SCT250 13/10 Q1007
                        NOSIG=
201204171930 METAR LMML NIL=
201204171915 METAR LMML 171915Z 30013KT 9999 FEW019 BKN250 13/10 Q1007
                        NOSIG=
201204171900 METAR LMML NIL=
201204171845 METAR LMML 171845Z 29012KT 9999 SCT018 13/10 Q1007 NOSIG=
201204171830 METAR LMML NIL=
201204171815 METAR LMML 171815Z 29012KT 260V320 9999 FEW021 BKN250 13/09
                        Q1006 NOSIG=
201204171800 METAR LMML NIL=
201204171745 METAR LMML 171745Z 29014KT 260V320 9999 FEW020 BKN250 13/09
                        Q1006 TEMPO 5000 SHRA BKN015TCU=
201204171730 METAR LMML NIL=
201204171715 METAR LMML 171715Z 29014KT 9999 SCT022 BKN250 13/09 Q1006
                        TEMPO 5000 SHRA BKN015TCU=
201204171700 METAR LMML NIL=
201204171645 METAR LMML 171645Z 29016KT 9999 SCT018 BKN250 13/10 Q1006
                        TEMPO 5000 SHRA BKN015TCU=
201204171630 METAR LMML NIL=
201204171615 METAR LMML 171615Z 29015KT 250V330 9999 SCT018 BKN250 13/10
                        Q1006 TEMPO 5000 SHRA BKN015TCU=
201204171600 METAR LMML NIL=
201204171545 METAR LMML 171545Z 29013KT 260V320 9999 SCT017 OVC150 13/10
                        Q1006 TEMPO 5000 SHRA BKN015TCU=
201204171530 METAR LMML NIL=
201204171515 METAR LMML 171515Z 29014KT 260V320 9999 SCT018 BKN100 13/10
                        Q1005 TEMPO 5000 SHRA BKN015TCU=
201204171500 METAR LMML NIL=
201204171445 METAR LMML 171445Z 28011KT 260V320 9999 SCT019 SCT060 BKN100
                        13/10 Q1005 TEMPO 5000 SHRA BKN015TCU=
201204171415 METAR LMML 171415Z 29014KT 7000 -SHRA SCT016 SCT060 BKN100
                        13/10 Q1005 TEMPO 5000 SHRA BKN015TCU=
201204171345 METAR LMML 171345Z 29012KT 7000 NSC 13/10 Q1005 TEMPO 5000
                        SHRA BKN015TCU=
201204171330 METAR LMML NIL=
201204171315 METAR LMML 171315Z 31015G25KT 280V340 7000 -SHRA BKN019 BKN100
                        12/10 Q1006 TEMPO 5000 SHRA BKN015TCU=
201204171245 METAR LMML 171245Z 30010KT 9999 SCT020 BKN100 13/11 Q1006
                        TEMPO 5000 SHRA BKN015TCU=
201204171215 METAR LMML 171215Z 30013KT 9999 SCT017 BKN100 14/10 Q1006
                        TEMPO 5000 SHRA BKN015TCU=
201204171200 METAR LMML NIL=
201204171145 METAR LMML 171145Z 29011KT 9999 SCT020 BKN100 13/10 Q1007
                        TEMPO 5000 SHRA BKN015TCU=
201204171130 METAR LMML NIL=
201204171115 METAR LMML 171115Z 33004KT 290V360 9999 SCT018 BKN100 13/11
                        Q1006 TEMPO 5000 SHRA BKN015TCU=
201204171100 METAR LMML NIL=
201204171045 METAR LMML 171045Z 35005KT 300V020 7000 BKN018TCU SCT120
                        13/09 Q1007 RESHRA TEMPO 5000 SHRA
                        BKN015TCU=
201204171030 METAR LMML NIL=
201204171015 METAR LMML 171015Z 26003KT 7000 -SHRA BKN029TCU BKN120 12/10
                        Q1007 RESHRA TEMPO 5000 SHRA BKN015TCU=
201204171000 METAR LMML NIL=
201204170945 METAR LMML 170945Z 28007KT 240V310 6000 SHRA BKN022TCU BKN120
                        11/08 Q1007 TEMPO 5000 SHRA BKN015TCU=
201204170930 METAR LMML NIL=
201204170915 METAR LMML 170915Z 26004KT 230V320 7000 -SHRA SCT018 BKN250
                        12/10 Q1007 RESHRA TEMPO 5000 SHRA
                        BKN015TCU=
201204170900 METAR LMML NIL=
201204170845 METAR LMML 170845Z VRB01KT 9999 SCT018TCU BKN250 12/09 Q1008
                        RESHRA TEMPO 5000 SHRA BKN015TCU=
201204170830 METAR LMML NIL=
201204170815 METAR LMML 170815Z 33005KT 290V040 9999 SCT016TCU BKN250
                        14/09 Q1008 TEMPO 7000 SHRA BKN015TCU=
201204170800 METAR LMML NIL=
201204170745 METAR LMML 170745Z 33005KT 270V020 9999 FEW025TCU BKN250
                        14/10 Q1008 TEMPO 7000 SHRA BKN015TCU=
201204170730 METAR LMML NIL=
201204170715 METAR LMML 170715Z 27004KT 230V310 9000 -SHRA SCT024TCU BKN250
                        13/09 Q1008 TEMPO 6000 TSRA BKN015CB=
201204170700 METAR LMML NIL=
201204170645 METAR LMML 170645Z 30008KT 9999 SCT026TCU BKN250 14/09 Q1008
                        TEMPO 6000 TSRA BKN015CB=
201204170630 METAR LMML NIL=
201204170615 METAR LMML 170615Z 28004KT 250V310 9999 SCT024TCU BKN250
                        13/09 Q1007 TEMPO 6000 TSRA BKN015CB=
201204170600 METAR LMML NIL=
201204170545 METAR LMML 170545Z 27003KT 9999 SCT024TCU BKN250 12/09 Q1007
                        NOSIG=
201204170530 METAR LMML NIL=
201204170515 METAR LMML 170515Z 29004KT 9999 FEW023 SCT090 BKN250 12/08
                        Q1007 NOSIG=
201204170500 METAR LMML NIL=
201204170445 METAR LMML 170445Z 29005KT 9999 FEW023 SCT120 12/08 Q1007
                        NOSIG=
201204170430 METAR LMML NIL=
201204170415 METAR LMML 170415Z 29005KT 9999 FEW023 SCT120 11/08 Q1007
                        NOSIG=
201204170345 METAR LMML 170345Z 30006KT 9999 FEW023 11/08 Q1006 NOSIG=
201204170330 METAR LMML NIL=
201204170315 METAR LMML 170315Z 30006KT 9999 FEW023 11/08 Q1006 NOSIG=
201204170300 METAR LMML NIL=
201204170245 METAR LMML 170245Z 31007KT 9999 FEW023 SCT120 11/08 Q1006
                        NOSIG=
201204170230 METAR LMML NIL=
201204170215 METAR LMML 170215Z 31007KT 9999 FEW023 BKN120 12/08 Q1006
                        NOSIG=
201204170200 METAR LMML NIL=
201204170145 METAR LMML 170145Z 30007KT 9999 FEW023 BKN120 12/08 Q1007
                        NOSIG=
201204170130 METAR LMML NIL=
201204170115 METAR LMML 170115Z 31005KT 9999 FEW020 BKN120 12/08 Q1006
                        NOSIG=
201204170100 METAR LMML NIL=
201204170045 METAR LMML 170045Z 31008KT 9999 FEW020 SCT120 12/08 Q1007
                        NOSIG=
201204170030 METAR LMML NIL=
201204170015 METAR LMML 170015Z 32007KT 9999 FEW020 BKN120 12/08 Q1007
                        NOSIG=
201204170000 METAR LMML NIL=
201204162345 METAR LMML 162345Z 31006KT 9999 FEW020 BKN120 12/08 Q1008
                        NOSIG=
201204162330 METAR LMML NIL=
201204162315 METAR LMML 162315Z 31007KT 9999 FEW020 BKN120 12/08 Q1008
                        NOSIG=
201204162300 METAR LMML NIL=
201204162245 METAR LMML 162245Z 31007KT 280V340 9999 FEW020 BKN120 12/09
                        Q1008 NOSIG=
201204162215 METAR LMML 162215Z 30006KT 9999 FEW020 BKN120 13/09 Q1008
                        NOSIG=
201204162200 METAR LMML NIL=
201204162145 METAR LMML 162145Z 31008KT 9999 FEW022 BKN120 13/08 Q1008
                        NOSIG=
201204162130 METAR LMML NIL=
201204162115 METAR LMML 162115Z 29006KT 260V330 9999 FEW022 BKN120 13/08
                        Q1008 NOSIG=
201204162100 METAR LMML NIL=
201204162045 METAR LMML 162045Z 29007KT 260V320 9999 FEW022 BKN120 13/09
                        Q1008 NOSIG=
201204162015 METAR LMML 162015Z 28009KT 9999 FEW023 SCT120 13/09 Q1008
                        NOSIG=
201204162000 METAR LMML NIL=
201204161945 METAR LMML 161945Z 29007KT 9999 FEW023 13/08 Q1008 NOSIG=
201204161930 METAR LMML NIL=
201204161915 METAR LMML 161915Z 29008KT 260V320 9999 FEW023 13/09 Q1008
                        NOSIG=
201204161900 METAR LMML NIL=
201204161845 METAR LMML 161845Z 28007KT 9999 FEW024 13/09 Q1007 NOSIG=
201204161830 METAR LMML NIL=
201204161815 METAR LMML 161815Z 28007KT 250V310 9999 FEW023 13/08 Q1007
                        NOSIG=
201204161800 METAR LMML NIL=
201204161745 METAR LMML 161745Z 29008KT 9999 FEW023 13/09 Q1006 NOSIG=
201204161730 METAR LMML NIL=
201204161715 METAR LMML 161715Z 29010KT 260V320 9999 FEW023 14/09 Q1006
                        NOSIG=
201204161700 METAR LMML NIL=
201204161645 METAR LMML 161645Z 29010KT 9999 FEW024 14/08 Q1006 NOSIG=
201204161630 METAR LMML NIL=
201204161615 METAR LMML 161615Z 27012KT 230V300 9999 SCT024 14/09 Q1006
                        NOSIG=
201204161600 METAR LMML NIL=
201204161545 METAR LMML 161545Z 28011KT 240V310 9999 SCT025 16/09 Q1005
                        NOSIG=
201204161530 METAR LMML NIL=
201204161515 METAR LMML 161515Z 27011KT 240V310 9999 SCT025 16/08 Q1006
                        NOSIG=
201204161500 METAR LMML NIL=
201204161445 METAR LMML 161445Z 27014KT 230V300 9999 SCT025 15/09 Q1005
                        NOSIG=
201204161430 METAR LMML NIL=
201204161415 METAR LMML 161415Z 26013KT 220V290 9999 SCT024 16/08 Q1005
                        NOSIG=
201204161400 METAR LMML NIL=
201204161345 METAR LMML 161345Z 27014KT 230V300 9999 SCT027 16/09 Q1005
                        NOSIG=
201204161330 METAR LMML NIL=
201204161315 METAR LMML 161315Z 27014KT 220V300 9999 SCT025 16/09 Q1005
                        NOSIG=
201204161300 METAR LMML NIL=
201204161245 METAR LMML 161245Z 25015KT 220V290 9999 FEW025 17/09 Q1005
                        NOSIG=
201204161230 METAR LMML NIL=
201204161215 METAR LMML 161215Z 27013KT 230V310 9999 SCT024 16/09 Q1005
                        NOSIG=
201204161200 METAR LMML NIL=
201204161145 METAR LMML 161145Z 26015KT 210V300 9999 SCT025 16/09 Q1005
                        NOSIG=
201204161130 METAR LMML NIL=
201204161115 METAR LMML 161115Z 27016KT 230V310 9999 FEW024 16/09 Q1004
                        NOSIG=
201204161100 METAR LMML NIL=
201204161045 METAR LMML 161045Z 27017KT 9999 FEW023 16/09 Q1004 NOSIG=
201204161030 METAR LMML NIL=
201204161015 METAR LMML 161015Z 29018KT 270V330 9999 FEW022 16/09 Q1003
                        NOSIG=
201204161000 METAR LMML NIL=
201204160945 METAR LMML 160945Z 29017KT 260V320 9999 FEW022 16/09 Q1003
                        NOSIG=
201204160930 METAR LMML NIL=
201204160915 METAR LMML 160915Z 29017KT 250V320 9999 SCT022 16/09 Q1004
                        NOSIG=
201204160900 METAR LMML NIL=
201204160845 METAR LMML 160845Z 30018KT 9999 SCT017 15/10 Q1004 NOSIG=
201204160830 METAR LMML NIL=
201204160815 METAR LMML 160815Z 30015KT 250V330 9999 SCT019 15/10 Q1003
                        NOSIG=
201204160800 METAR LMML NIL=
201204160745 METAR LMML 160745Z 29017KT 9999 SCT017 16/11 Q1003 NOSIG=
201204160730 METAR LMML NIL=
201204160715 METAR LMML 160715Z 29013KT 250V320 9999 SCT016 16/11 Q1002
                        NOSIG=
201204160700 METAR LMML NIL=
201204160645 METAR LMML 160645Z 24008KT 210V280 9999 FEW020TCU 16/12 Q1002
                        NOSIG=
201204160630 METAR LMML NIL=
201204160615 METAR LMML 160615Z 23008KT 180V270 9999 FEW030 16/11 Q1002
                        NOSIG=
201204160600 METAR LMML NIL=
201204160545 METAR LMML 160545Z 24003KT 9999 FEW030 SCT100 15/11 Q1002
                        NOSIG=
201204160530 METAR LMML NIL=
201204160515 METAR LMML 160515Z VRB02KT 9999 -SHRA FEW030 SCT060 14/10
                        Q1002 NOSIG=
201204160500 METAR LMML NIL=
201204160445 METAR LMML 160445Z VRB02KT CAVOK 14/09 Q1001 NOSIG=
201204160415 METAR LMML 160415Z VRB02KT 9999 FEW035 BKN110 BKN250 14/09
                        Q1001 TEMPO 9000=
201204160400 METAR LMML NIL=
201204160345 METAR LMML 160345Z 19003KT 9999 -RA FEW035 BKN080 BKN250
                        14/10 Q1001 TEMPO 9000 -RA=
201204160330 METAR LMML NIL=
201204160315 METAR LMML 160315Z 13005KT 9999 FEW035 SCT100 BKN250 14/09
                        Q1000 NOSIG=
201204160300 METAR LMML NIL=
201204160245 METAR LMML 160245Z 13008KT 9999 FEW035 SCT120 BKN250 14/09
                        Q1001 NOSIG=
201204160230 METAR LMML NIL=
201204160215 METAR LMML 160215Z 12006KT CAVOK 14/09 Q1001 NOSIG=
201204160200 METAR LMML NIL=
201204160145 METAR LMML 160145Z VRB02KT CAVOK 15/08 Q1002 NOSIG=
201204160130 METAR LMML NIL=
201204160115 METAR LMML 160115Z 28005KT 9999 FEW035 BKN090 15/08 Q1003
                        NOSIG=
201204160100 METAR LMML NIL=
201204160045 METAR LMML 160045Z 25007KT 200V290 9999 FEW035 BKN090 15/08
                        Q1003 TEMPO 9000 -RA=
201204160030 METAR LMML NIL=
201204160015 METAR LMML 160015Z 26004KT 230V300 9999 FEW035 BKN090 14/08
                        Q1003 TEMPO 9000 -RA=
201204160000 METAR LMML NIL=
201204152345 METAR LMML 152345Z 26007KT 220V300 9999 -RA SCT032 BKN080
                        14/09 Q1004 TEMPO 9000 -RA=
201204152330 METAR LMML NIL=
201204152315 METAR LMML 152315Z 28009KT 240V310 9999 FEW033 BKN090 15/08
                        Q1005 TEMPO 9000 -RA=
201204152300 METAR LMML NIL=
201204152245 METAR LMML 152245Z 23006KT 200V260 9999 FEW033 BKN090 16/09
                        Q1005 TEMPO 9000 -RA=
201204152230 METAR LMML NIL=
201204152215 METAR LMML 152215Z 23012KT 190V250 9999 FEW033 BKN100 16/09
                        Q1006 TEMPO 9000 -RA=
201204152200 METAR LMML NIL=
201204152145 METAR LMML 152145Z 21010KT 160V260 9000 -RA SCT033 BKN070
                        16/10 Q1006 NOSIG=
201204152130 METAR LMML NIL=
201204152115 METAR LMML 152115Z 18009KT 160V230 9000 -RA SCT040 BKN070
                        16/13 Q1006 NOSIG=
201204152100 METAR LMML NIL=
201204152045 METAR LMML 152045Z 18007KT 140V230 CAVOK 16/12 Q1005 NOSIG=
201204152030 METAR LMML NIL=
201204152015 METAR LMML 152015Z 17006KT 140V210 CAVOK 16/11 Q1005 NOSIG=
201204152000 METAR LMML NIL=
201204151945 METAR LMML 151945Z 22006KT 160V270 CAVOK 16/09 Q1005 NOSIG=
201204151930 METAR LMML NIL=
201204151915 METAR LMML 151915Z 20004KT 160V240 CAVOK 15/11 Q1005 NOSIG=
201204151900 METAR LMML NIL=
201204151845 METAR LMML 151845Z 19006KT 150V240 CAVOK 15/12 Q1005 NOSIG=
201204151830 METAR LMML NIL=
201204151815 METAR LMML 151815Z 19007KT 160V220 CAVOK 16/12 Q1005 TEMPO
                        9000 -RA FEW012=
201204151800 METAR LMML NIL=
201204151745 METAR LMML 151745Z 22005KT 180V250 CAVOK 16/11 Q1004 TEMPO
                        9000 -RA FEW012=
201204151730 METAR LMML NIL=
201204151715 METAR LMML 151715Z 23005KT 180V310 CAVOK 16/11 Q1004 TEMPO
                        9000 -RA FEW012=
201204151700 METAR LMML NIL=
201204151645 METAR LMML 151645Z 23007KT 190V260 CAVOK 16/11 Q1004 TEMPO
                        9000 RA=
201204151630 METAR LMML NIL=
201204151615 METAR LMML 151615Z 22010KT 180V260 CAVOK 16/11 Q1004 TEMPO
                        9000 RA=
201204151600 METAR LMML NIL=
201204151545 METAR LMML 151545Z 22008KT 180V250 CAVOK 17/11 Q1004 TEMPO
                        9000 RA=
201204151515 METAR LMML 151515Z 21010KT 160V260 CAVOK 17/12 Q1004 TEMPO
                        9000 RA=
201204151500 METAR LMML NIL=
201204151445 METAR LMML 151445Z 22011KT 160V250 CAVOK 18/11 Q1004 TEMPO
                        9000 NSC=
201204151430 METAR LMML NIL=
201204151415 METAR LMML 151415Z 21013KT 150V260 CAVOK 18/11 Q1004 TEMPO
                        9000 NSC=
201204151400 METAR LMML NIL=
201204151345 METAR LMML 151345Z 21013KT 160V260 CAVOK 17/11 Q1004 TEMPO
                        9000 NSC=
201204151315 METAR LMML 151315Z 22012KT 170V270 CAVOK 18/11 Q1004 TEMPO
                        9000 NSC=
201204151300 METAR LMML NIL=
201204151245 METAR LMML 151245Z 23012KT 180V270 CAVOK 18/12 Q1004 TEMPO
                        9000 NSC=
201204151230 METAR LMML NIL=
201204151215 METAR LMML 151215Z 23016KT CAVOK 18/12 Q1004 TEMPO 9000 NSC=
201204151200 METAR LMML NIL=
201204151145 METAR LMML 151145Z 24014G24KT 200V280 CAVOK 18/13 Q1005 TEMPO
                        9000 NSC=
201204151130 METAR LMML NIL=
201204151115 METAR LMML 151115Z 24013KT 180V280 CAVOK 18/12 Q1005 TEMPO
                        9000 NSC=
201204151100 METAR LMML NIL=
201204151045 METAR LMML 151045Z 23018KT 200V260 CAVOK 18/12 Q1005 BECMG
                        CAVOK=
201204151030 METAR LMML NIL=
201204151015 METAR LMML 151015Z 24016KT 210V280 9999 FEW020 18/13 Q1005
                        NOSIG=
201204151000 METAR LMML NIL=
201204150945 METAR LMML 150945Z 23014G24KT 150V280 CAVOK 18/12 Q1005 NOSIG=
201204150930 METAR LMML NIL=
201204150915 METAR LMML 150915Z 23012KT 190V280 CAVOK 18/13 Q1005 NOSIG=
201204150900 METAR LMML NIL=
201204150845 METAR LMML 150845Z 24014KT 200V270 CAVOK 17/12 Q1005 NOSIG=
201204150830 METAR LMML NIL=
201204150815 METAR LMML 150815Z 23010KT 170V280 CAVOK 17/12 Q1005 TEMPO
                        9999 SCT020=
201204150800 METAR LMML NIL=
201204150745 METAR LMML 150745Z 22012KT 180V260 CAVOK 17/12 Q1005 NOSIG=
201204150730 METAR LMML NIL=
201204150715 METAR LMML 150715Z 23011KT 180V260 9999 FEW015 16/13 Q1005
                        NOSIG=
201204150700 METAR LMML NIL=
201204150645 METAR LMML 150645Z 23009KT 190V270 9999 FEW015 16/13 Q1005
                        NOSIG=
201204150630 METAR LMML NIL=
201204150615 METAR LMML 150615Z 23010KT 190V260 9999 FEW012 15/13 Q1005
                        NOSIG=
201204150600 METAR LMML NIL=
201204150545 METAR LMML 150545Z 23006KT 180V280 9999 FEW012 15/13 Q1005
                        NOSIG=
201204150530 METAR LMML NIL=
201204150515 METAR LMML 150515Z 23007KT 200V260 CAVOK 14/13 Q1005 NOSIG=
201204150445 METAR LMML 150445Z 23005KT 9999 FEW036 13/12 Q1005 NOSIG=
201204150430 METAR LMML NIL=
201204150415 METAR LMML 150415Z 22004KT 9999 FEW036 13/12 Q1005 NOSIG=
201204150400 METAR LMML NIL=
201204150345 METAR LMML 150345Z 21004KT 180V250 CAVOK 13/12 Q1005 NOSIG=
201204150330 METAR LMML NIL=
201204150315 METAR LMML 150315Z 21005KT 160V240 9999 FEW036 SCT120 13/12
                        Q1005 NOSIG=
201204150300 METAR LMML NIL=
201204150245 METAR LMML 150245Z 21006KT 180V270 9999 FEW036 14/12 Q1005
                        NOSIG=
201204150230 METAR LMML NIL=
201204150215 METAR LMML 150215Z 22006KT 160V250 9999 SCT036 14/12 Q1005
                        NOSIG=
201204150145 METAR LMML 150145Z 22008KT 180V260 9999 FEW037 SCT110 14/12
                        Q1006 NOSIG=
201204150130 METAR LMML NIL=
201204150115 METAR LMML 150115Z 23007KT 200V260 CAVOK 14/12 Q1006 NOSIG=
201204150100 METAR LMML NIL=
201204150045 METAR LMML 150045Z 23007KT 160V260 CAVOK 14/12 Q1006 NOSIG=
201204150030 METAR LMML NIL=
201204150015 METAR LMML 150015Z 23008KT 180V270 CAVOK 14/11 Q1006 NOSIG=
201204150000 METAR LMML NIL=
201204142345 METAR LMML 142345Z 23007KT CAVOK 14/11 Q1007 NOSIG=
201204142330 METAR LMML NIL=
201204142315 METAR LMML 142315Z 23006KT 210V270 CAVOK 13/11 Q1007 NOSIG=
201204142300 METAR LMML NIL=
201204142245 METAR LMML 142245Z 24007KT 200V270 CAVOK 14/11 Q1007 NOSIG=
201204142230 METAR LMML NIL=
201204142215 METAR LMML 142215Z 24008KT 210V280 CAVOK 14/11 Q1007 NOSIG=
201204142200 METAR LMML NIL=
201204142145 METAR LMML 142145Z 24008KT 200V280 CAVOK 14/10 Q1007 NOSIG=
201204142130 METAR LMML NIL=
201204142115 METAR LMML 142115Z 24009KT 210V280 CAVOK 14/10 Q1007 NOSIG=
201204142100 METAR LMML NIL=
201204142045 METAR LMML 142045Z 24009KT 200V270 CAVOK 14/11 Q1007 NOSIG=
201204142015 METAR LMML 142015Z 25010KT 210V280 CAVOK 14/10 Q1007 NOSIG=
201204142000 METAR LMML NIL=
201204141945 METAR LMML 141945Z 25009KT 210V280 CAVOK 14/10 Q1007 NOSIG=
201204141930 METAR LMML NIL=
201204141915 METAR LMML 141915Z 25009KT CAVOK 14/09 Q1007 NOSIG=
201204141900 METAR LMML NIL=
201204141845 METAR LMML 141845Z 26009KT 220V290 CAVOK 14/09 Q1006 NOSIG=
201204141830 METAR LMML NIL=
201204141815 METAR LMML 141815Z 26011KT 220V290 CAVOK 14/09 Q1006 NOSIG=
201204141800 METAR LMML NIL=
201204141745 METAR LMML 141745Z 26011KT 220V290 CAVOK 14/09 Q1006 NOSIG=
201204141730 METAR LMML NIL=
201204141715 METAR LMML 141715Z 26013KT 230V290 9999 FEW025 14/08 Q1005
                        NOSIG=
201204141700 METAR LMML NIL=
201204141645 METAR LMML 141645Z 26016KT 230V290 9999 FEW025 15/08 Q1005
                        NOSIG=
201204141630 METAR LMML NIL=
201204141615 METAR LMML 141615Z 26017KT 220V280 9999 FEW025 15/08 Q1006
                        NOSIG=
201204141600 METAR LMML NIL=
201204141545 METAR LMML 141545Z 26018KT 220V290 9999 FEW025 15/09 Q1005
                        NOSIG=
201204141530 METAR LMML NIL=
201204141515 METAR LMML 141515Z 26018G29KT 230V290 9999 FEW029 16/09 Q1005
                        NOSIG=
201204141500 METAR LMML NIL=
201204141445 METAR LMML 141445Z 27020G30KT 240V300 9999 FEW029 16/09 Q1005
                        NOSIG=
201204141430 METAR LMML NIL=
201204141415 METAR LMML 141415Z 27021KT 230V300 9999 FEW029 16/08 Q1005
                        NOSIG=
201204141400 METAR LMML NIL=
201204141345 METAR LMML 141345Z 27022G35KT 230V330 9999 SCT029 15/09 Q1005
                        NOSIG=
201204141330 METAR LMML NIL=
201204141315 METAR LMML 141315Z 27021G32KT 250V310 9999 SCT028 16/09 Q1005
                        NOSIG=
201204141300 METAR LMML NIL=
201204141245 METAR LMML 141245Z 28023G33KT 240V300 9999 SHRA FEW022 FEW028
                        SCT038 15/09 Q1005 NOSIG=
201204141230 METAR LMML NIL=
201204141215 METAR LMML 141215Z 28019KT 250V310 9999 SCT023 SCT047 14/11
                        Q1005 NOSIG=
201204141200 METAR LMML NIL=
201204141145 METAR LMML 141145Z 29024KT 260V320 9999 SCT033 17/08 Q1004
                        NOSIG=
201204141130 METAR LMML NIL=
201204141115 METAR LMML 141115Z 28024KT 260V320 9999 SCT029 17/08 Q1004
                        NOSIG=
201204141100 METAR LMML NIL=
201204141045 METAR LMML 141045Z 28022KT 250V310 9999 SCT030TCU SCT250
                        17/09 Q1004 NOSIG=
201204141030 METAR LMML NIL=
201204141015 METAR LMML 141015Z 29022KT 250V320 9999 FEW032 17/08 Q1004
                        NOSIG=
201204141000 METAR LMML NIL=
201204140945 METAR LMML 140945Z 29020KT 250V320 9999 FEW031 17/08 Q1004
                        NOSIG=
201204140930 METAR LMML NIL=
201204140915 METAR LMML 140915Z 28021G32KT 240V320 9999 SCT029 16/08 Q1003
                        NOSIG=
201204140900 METAR LMML NIL=
201204140845 METAR LMML 140845Z 28022G33KT 9999 SCT024 16/08 Q1003 NOSIG=
201204140830 METAR LMML NIL=
201204140815 METAR LMML 140815Z 28022KT 9999 BKN023 16/10 Q1003 NOSIG=
201204140800 METAR LMML NIL=
201204140745 METAR LMML 140745Z 28021KT 250V310 9999 BKN022TCU SCT050
                        15/10 Q1002 TEMPO 8000 SHRA=
201204140730 METAR LMML NIL=
201204140715 METAR LMML 140715Z 28018KT 9999 BKN020 SCT030 15/10 Q1002
                        TEMPO 8000 SHRA=
201204140700 METAR LMML NIL=
201204140645 METAR LMML 140645Z 28017KT 250V310 9999 BKN020TCU SCT045
                        15/10 Q1001 TEMPO 8000 SHRA=
201204140630 METAR LMML NIL=
201204140615 METAR LMML 140615Z 27019G29KT 240V310 9999 BKN023TCU SCT033
                        14/10 Q1001 TEMPO 8000 SHRA=
201204140600 METAR LMML NIL=
201204140545 METAR LMML 140545Z 27013KT 240V300 9999 SCT023 14/10 Q1001
                        TEMPO 8000 SHRA=
201204140530 METAR LMML NIL=
201204140515 METAR LMML 140515Z 27016G26KT 230V290 9999 BKN021 SCT250
                        14/10 Q1000 TEMPO 8000 SHRA RMK CB
                        TO SOUTH=
201204140500 METAR LMML NIL=
201204140445 METAR LMML 140445Z 27014KT 9999 BKN020 BKN250 14/10 Q1000
                        TEMPO 8000 SHRA=
201204140430 METAR LMML NIL=
201204140415 METAR LMML 140415Z 27012KT 240V320 9999 FEW021 BKN250 13/09
                        Q1000 TEMPO 8000 SHRA=
201204140400 METAR LMML NIL=
201204140345 METAR LMML 140345Z 28014KT 9999 FEW023 BKN090 13/09 Q1000
                        TEMPO 5000 TSRA BKN015CB=
201204140330 METAR LMML NIL=
201204140315 METAR LMML 140315Z 27013KT 240V300 9999 FEW021 BKN090 14/10
                        Q1000 TEMPO 5000 TSRA BKN015CB=
201204140300 METAR LMML NIL=
201204140245 METAR LMML 140245Z 26010KT 220V310 9999 FEW023 BKN060 14/10
                        Q1000 TEMPO 5000 TSRA BKN015CB=
201204140230 METAR LMML NIL=
201204140215 METAR LMML 140215Z 27011KT 230V310 9999 FEW024 BKN060 14/10
                        Q1000 TEMPO 5000 TSRA BKN015CB=
201204140200 METAR LMML NIL=
201204140145 METAR LMML 140145Z 27014KT 240V300 9999 FEW024 BKN060 14/09
                        Q1000 TEMPO 5000 TSRA BKN015CB=
201204140130 METAR LMML NIL=
201204140115 METAR LMML 140115Z 27013KT 230V300 9999 SCT021 BKN060 14/10
                        Q1000 TEMPO 5000 TSRA BKN015CB=
201204140100 METAR LMML NIL=
201204140045 METAR LMML 140045Z 26010KT 230V300 9999 SCT020 SCT250 14/11
                        Q0999 TEMPO 5000 TSRA BKN015CB=
201204140030 METAR LMML NIL=
201204140015 METAR LMML 140015Z 26011KT 230V290 9999 SCT020 SCT120 14/12
                        Q0999 TEMPO 5000 TSRA BKN015CB=
201204140000 METAR LMML NIL=
201204132345 METAR LMML 132345Z 25012KT 210V290 9999 FEW020 SCT120 BKN250
                        14/12 Q0999 TEMPO 5000 TSRA BKN015CB=
201204132330 METAR LMML NIL=
201204132315 METAR LMML 132315Z 25012KT 220V290 9999 FEW008 SCT120 BKN250
                        14/13 Q0999 TEMPO 5000 TSRA BKN015CB=
201204132300 METAR LMML NIL=
201204132245 METAR LMML 132245Z 24015KT 200V270 9999 SCT007 BKN050 14/13
                        Q0999 TEMPO 5000 TSRA BKN015CB=
201204132230 METAR LMML NIL=
201204132215 METAR LMML 132215Z 26014KT 210V290 9999 SCT046 BKN060 15/11
                        Q0999 TEMPO 5000 TSRA BKN015CB=
201204132200 METAR LMML NIL=
201204132145 METAR LMML 132145Z 26012KT 230V290 9999 FEW007 SCT040 BKN060
                        15/14 Q0999 TEMPO 5000 TSRA BKN015CB=
201204132130 METAR LMML NIL=
201204132115 METAR LMML 132115Z 26012KT 230V290 9999 FEW009 SCT050 15/14
                        Q0999 TEMPO 5000 TSRA BKN015CB=
201204132100 METAR LMML NIL=
201204132045 METAR LMML 132045Z 25011KT 220V280 9999 FEW009 SCT050 15/14
                        Q0999 TEMPO 5000 TSRA BKN015CB=
201204132030 METAR LMML NIL=
201204132015 METAR LMML 132015Z 23009KT 190V260 9000 -RA SCT049 SCT070
                        BKN110 15/14 Q0999 TEMPO 5000 TSRA
                        BKN015CB RMK LIGHTNING TO SE=
201204132000 METAR LMML NIL=
201204131945 METAR LMML 131945Z 23010KT 190V270 9999 FEW014 SCT110 SCT250
                        15/14 Q0999 TEMPO 5000 TSRA BKN015CB=
201204131930 METAR LMML NIL=
201204131915 METAR LMML 131915Z 24011KT 200V270 9999 FEW014 SCT070 BKN110
                        15/13 Q0999 TEMPO 5000 TSRA BKN015CB=
201204131900 METAR LMML NIL=
201204131845 METAR LMML 131845Z 24011KT 210V270 9999 FEW014 SCT110 15/13
                        Q0998 NOSIG=
201204131830 METAR LMML NIL=
201204131815 METAR LMML 131815Z 24012KT 210V270 9999 FEW014 SCT060 15/13
                        Q0998 NOSIG=
201204131800 METAR LMML NIL=
201204131745 METAR LMML 131745Z 25012KT 200V280 9999 FEW014 SCT100 15/13
                        Q0998 NOSIG=
201204131730 METAR LMML NIL=
201204131715 METAR LMML 131715Z 25013KT 9999 FEW014 15/13 Q0997=
201204131700 METAR LMML NIL=
201204131645 METAR LMML 131645Z 24017KT 210V290 9999 FEW014 16/13 Q0997
                        NOSIG=
201204131630 METAR LMML NIL=
201204131615 METAR LMML 131615Z 24018KT 210V270 9999 FEW015 SCT060 15/12
                        Q0997 NOSIG=
201204131600 METAR LMML NIL=
201204131545 METAR LMML 131545Z 24018G28KT 210V270 9999 FEW015 SCT050
                        16/12 Q0997 NOSIG=
201204131530 METAR LMML NIL=
201204131515 METAR LMML 131515Z 23018KT 210V280 9999 SCT016 SCT022 17/12
                        Q0997 NOSIG=
201204131500 METAR LMML NIL=
201204131445 METAR LMML 131445Z 23019KT 190V260 9999 SCT012 SCT018 17/14
                        Q0997 NOSIG=
201204131430 METAR LMML NIL=
201204131415 METAR LMML 131415Z 22016KT 200V260 9999 FEW015 SCT050 18/14
                        Q0996 NOSIG=
201204131400 METAR LMML NIL=
201204131345 METAR LMML 131345Z 22016KT 180V250 9999 FEW015 BKN050 17/14
                        Q0997 NOSIG=
201204131330 METAR LMML NIL=
201204131315 METAR LMML 131315Z 22016KT 180V260 9999 FEW015 18/14 Q0997
                        NOSIG=
201204131300 METAR LMML NIL=
201204131245 METAR LMML 131245Z 23017KT 190V260 9999 FEW035 18/14 Q0997
                        NOSIG=
201204131230 METAR LMML NIL=
201204131215 METAR LMML 131215Z 23015KT 180V270 9999 FEW015 SCT034 18/14
                        Q0997 NOSIG=
201204131145 METAR LMML 131145Z 22016KT 180V260 9999 FEW011 18/14 Q0997
                        NOSIG=
201204131130 METAR LMML NIL=
201204131115 METAR LMML 131115Z 22015KT 180V260 9999 FEW030 18/14 Q0997
                        NOSIG=
201204131100 METAR LMML NIL=
201204131030 METAR LMML NIL=
201204131015 METAR LMML 131015Z 18016KT 150V230 9999 FEW030 17/14 Q0998
                        NOSIG=
201204131000 METAR LMML NIL=
201204130945 METAR LMML 130945Z 17014KT 140V210 9999 FEW030 17/14 Q0998
                        NOSIG=
201204130930 METAR LMML NIL=
201204130915 METAR LMML 130915Z 16014KT 120V200 9999 FEW030 17/14 Q0999
                        NOSIG=
201204130845 METAR LMML 130845Z 16011KT 130V200 9000 FEW040 BKN080 16/12
                        Q0999 NOSIG=
201204130815 METAR LMML 130815Z 14012KT 120V180 7000 FEW025 BKN070 16/13
                        Q0999 NOSIG=
201204130800 METAR LMML NIL=
201204130745 METAR LMML 130745Z 15006KT 120V210 6000 -RA FEW025 BKN080
                        15/13 Q1000 NOSIG=
201204130730 METAR LMML NIL=
201204130715 METAR LMML 130715Z 16006KT 130V230 7000 FEW040 BKN080 15/12
                        Q1000 NOSIG=
201204130700 METAR LMML NIL=
201204130645 METAR LMML 130645Z 14009KT 110V170 7000 FEW040 BKN090 15/12
                        Q1000 NOSIG=
201204130630 METAR LMML NIL=
201204130615 METAR LMML 130615Z 13010KT 7000 SCT040 BKN090 14/12 Q0999
                        NOSIG=
201204130545 METAR LMML 130545Z 12015KT 7000 -RA SCT040 BKN090 14/12 Q0999
                        NOSIG=
201204130530 METAR LMML NIL=
201204130515 METAR LMML 130515Z 12016KT 7000 -RA SCT040 BKN090 14/13 Q0999
                        NOSIG=
201204130445 METAR LMML 130445Z 10010KT 7000 FEW034 BKN090 BKN250 14/12
                        Q0998 NOSIG=
201204130430 METAR LMML NIL=
201204130415 METAR LMML 130415Z 11014KT 6000 -RA SCT034 BKN090 BKN250
                        14/13 Q0999 NOSIG=
201204130400 METAR LMML NIL=
201204130345 METAR LMML 130345Z 11011KT 080V140 7000 -RA SCT011 BKN080
                        BKN250 14/13 Q1000 NOSIG=
201204130330 METAR LMML NIL=
201204130315 METAR LMML 130315Z 13015KT 9000 FEW020 BKN090 BKN250 14/13
                        Q1002 NOSIG=
201204130300 METAR LMML NIL=
201204130245 METAR LMML 130245Z 12011KT 9000 FEW044 SCT090 BKN250 14/13
                        Q1003 NOSIG=
201204130230 METAR LMML NIL=
201204130215 METAR LMML 130215Z 12009KT 9000 FEW034 BKN080 BKN250 14/12
                        Q1003 NOSIG=
201204130200 METAR LMML NIL=
201204130145 METAR LMML 130145Z 12015KT 090V150 9000 -RA SCT034 BKN080
                        BKN250 13/12 Q1002 NOSIG=
201204130130 METAR LMML NIL=
201204130115 METAR LMML 130115Z 14003KT 9999 SCT034 SCT100 BKN250 14/11
                        Q1006 NOSIG=
201204130100 METAR LMML NIL=
201204130045 METAR LMML 130045Z 12010KT CAVOK 14/11 Q1003 NOSIG=
201204130030 METAR LMML NIL=
201204130015 METAR LMML 130015Z 12015KT CAVOK 14/11 Q1002 NOSIG=
201204130000 METAR LMML NIL=
201204122345 METAR LMML 122345Z 12016KT CAVOK 13/12 Q1003 NOSIG=
201204122330 METAR LMML NIL=
201204122315 METAR LMML 122315Z 12015KT 9999 FEW007 BKN120 14/12 Q1004
                        NOSIG=
201204122300 METAR LMML NIL=
201204122245 METAR LMML 122245Z 12011KT 9999 FEW007 BKN120 14/13 Q1005
                        NOSIG=
201204122230 METAR LMML NIL=
201204122215 METAR LMML 122215Z 10007KT CAVOK 13/12 Q1005 NOSIG=
201204122200 METAR LMML NIL=
201204122145 METAR LMML 122145Z 11004KT CAVOK 14/12 Q1007 NOSIG=
201204122130 METAR LMML NIL=
201204122115 METAR LMML 122115Z 11005KT 9999 FEW038 SCT120 13/11 Q1006
                        NOSIG=
201204122100 METAR LMML NIL=
201204122045 METAR LMML 122045Z 10004KT CAVOK 14/11 Q1007 NOSIG=
201204122030 METAR LMML NIL=
201204122015 METAR LMML 122015Z 13004KT CAVOK 13/11 Q1008 NOSIG=
201204122000 METAR LMML NIL=
201204121945 METAR LMML 121945Z 13004KT CAVOK 13/10 Q1008 NOSIG=
201204121930 METAR LMML NIL=
201204121915 METAR LMML 121915Z 10004KT 070V160 CAVOK 14/10 Q1008 NOSIG=
201204121900 METAR LMML NIL=
201204121845 METAR LMML 121845Z VRB02KT CAVOK 14/10 Q1009 NOSIG=
201204121830 METAR LMML NIL=
201204121815 METAR LMML 121815Z VRB02KT CAVOK 14/10 Q1008 NOSIG=
201204121800 METAR LMML NIL=
201204121745 METAR LMML 121745Z 24003KT CAVOK 14/10 Q1009 NOSIG=
201204121730 METAR LMML NIL=
201204121715 METAR LMML 121715Z 24004KT 210V270 CAVOK 14/10 Q1008 NOSIG=
201204121700 METAR LMML NIL=
201204121645 METAR LMML 121645Z 24005KT 190V290 CAVOK 15/09 Q1009 NOSIG=
201204121630 METAR LMML NIL=
201204121615 METAR LMML 121615Z 23006KT CAVOK 16/04 Q1009 NOSIG=
201204121600 METAR LMML NIL=
201204121545 METAR LMML 121545Z 25004KT 220V280 CAVOK 17/06 Q1009 NOSIG=
201204121530 METAR LMML NIL=
201204121515 METAR LMML 121515Z 16004KT 050V260 CAVOK 17/07 Q1009 NOSIG=
201204121500 METAR LMML NIL=
201204121445 METAR LMML 121445Z 11006KT 080V140 CAVOK 17/11 Q1009 NOSIG=
201204121430 METAR LMML NIL=
201204121415 METAR LMML 121415Z 14006KT 090V200 CAVOK 17/11 Q1009 NOSIG=
201204121400 METAR LMML NIL=
201204121345 METAR LMML 121345Z 28005KT 240V320 CAVOK 18/10 Q1009 NOSIG=
201204121330 METAR LMML NIL=
201204121315 METAR LMML 121315Z 28005KT 220V310 CAVOK 17/10 Q1009 NOSIG=
201204121300 METAR LMML NIL=
201204121245 METAR LMML 121245Z VRB02KT CAVOK 19/08 Q1010 NOSIG=
201204121230 METAR LMML NIL=
201204121215 METAR LMML 121215Z 34003KT CAVOK 19/08 Q1010 NOSIG=
201204121200 METAR LMML NIL=
201204121145 METAR LMML 121145Z 32005KT 280V010 9999 FEW025 BKN250 18/09
                        Q1010 NOSIG=
201204121130 METAR LMML NIL=
201204121115 METAR LMML 121115Z 29006KT 250V330 CAVOK 18/09 Q1010 NOSIG=
201204121100 METAR LMML NIL=
201204121045 METAR LMML 121045Z 30005KT 230V340 9999 FEW025 BKN250 17/09
                        Q1011 NOSIG=
201204121030 METAR LMML NIL=
201204121015 METAR LMML 121015Z 32006KT 300V360 CAVOK 17/09 Q1011 NOSIG=
201204121000 METAR LMML NIL=
201204120945 METAR LMML 120945Z 30006KT 260V320 CAVOK 17/09 Q1011 NOSIG=
201204120930 METAR LMML NIL=
201204120915 METAR LMML 120915Z 32007KT 9999 FEW025 BKN250 18/07 Q1011
                        NOSIG=
201204120900 METAR LMML NIL=
201204120845 METAR LMML 120845Z 33009KT 300V010 9999 FEW025 BKN250 17/06
                        Q1011 NOSIG=
201204120830 METAR LMML NIL=
201204120815 METAR LMML 120815Z 34009KT 300V020 9999 FEW025 BKN250 17/06
                        Q1011 NOSIG=
201204120800 METAR LMML NIL=
201204120745 METAR LMML 120745Z 31008KT 290V350 CAVOK 16/09 Q1010 NOSIG=
201204120730 METAR LMML NIL=
201204120715 METAR LMML 120715Z 30006KT 280V340 CAVOK 15/10 Q1010 NOSIG=
201204120700 METAR LMML NIL=
201204120645 METAR LMML 120645Z 31008KT 270V340 CAVOK 15/11 Q1010 NOSIG=
201204120630 METAR LMML NIL=
201204120615 METAR LMML 120615Z 29009KT 260V330 CAVOK 13/11 Q1010 NOSIG=
201204120600 METAR LMML NIL=
201204120545 METAR LMML 120545Z 31006KT CAVOK 13/11 Q1010 NOSIG=
201204120530 METAR LMML NIL=
201204120515 METAR LMML 120515Z 30006KT CAVOK 12/10 Q1010 NOSIG=
201204120500 METAR LMML NIL=
201204120445 METAR LMML 120445Z 30007KT CAVOK 12/10 Q1010 NOSIG=
201204120430 METAR LMML NIL=
201204120415 METAR LMML 120415Z 31009KT CAVOK 12/10 Q1009 NOSIG=
201204120400 METAR LMML NIL=
201204120345 METAR LMML 120345Z 31006KT 270V340 CAVOK 11/10 Q1009 NOSIG=
201204120330 METAR LMML NIL=
201204120315 METAR LMML 120315Z 30007KT 270V330 CAVOK 12/10 Q1009 NOSIG=
201204120300 METAR LMML NIL=
201204120245 METAR LMML 120245Z 26006KT 220V300 CAVOK 12/10 Q1010 NOSIG=
201204120230 METAR LMML NIL=
201204120215 METAR LMML 120215Z 31009KT CAVOK 12/11 Q1010 NOSIG=
201204120200 METAR LMML NIL=
201204120145 METAR LMML 120145Z 32008KT 290V350 CAVOK 12/11 Q1009 NOSIG=
201204120130 METAR LMML NIL=
201204120115 METAR LMML 120115Z 31007KT CAVOK 12/10 Q1009 NOSIG=
201204120100 METAR LMML NIL=
201204120045 METAR LMML 120045Z 33009KT 290V350 CAVOK 13/11 Q1010 NOSIG=
201204120030 METAR LMML NIL=
201204120015 METAR LMML 120015Z 30014KT CAVOK 13/11 Q1010 NOSIG=
201204120000 METAR LMML NIL=
201204112345 METAR LMML 112345Z 29008KT CAVOK 13/11 Q1010 NOSIG=
201204112330 METAR LMML NIL=
201204112315 METAR LMML 112315Z 30011KT CAVOK 13/12 Q1010 NOSIG=
201204112300 METAR LMML NIL=
201204112245 METAR LMML 112245Z 31009KT 270V330 CAVOK 13/12 Q1010 NOSIG=
201204112230 METAR LMML NIL=
201204112215 METAR LMML 112215Z 32009KT CAVOK 13/12 Q1010 NOSIG=
201204112200 METAR LMML NIL=
201204112145 METAR LMML 112145Z 30010KT CAVOK 13/13 Q1010 NOSIG=
201204112130 METAR LMML NIL=
201204112115 METAR LMML 112115Z 31009KT 9000 FEW005 13/12 Q1010 NOSIG=
201204112100 METAR LMML NIL=
201204112045 METAR LMML 112045Z 30006KT 9000 FEW005 13/13 Q1010 TEMPO
                        BKN005=
201204112030 METAR LMML NIL=
201204112015 METAR LMML 112015Z 32006KT 9000 BKN006 13/13 Q1009 TEMPO
                        BKN005=
201204112000 METAR LMML NIL=
201204111945 METAR LMML 111945Z 33007KT 9000 FEW007 14/13 Q1009 NOSIG=
201204111930 METAR LMML NIL=
201204111915 METAR LMML 111915Z 33005KT 9000 FEW007 14/13 Q1009 NOSIG=
201204111900 METAR LMML NIL=
201204111845 METAR LMML 111845Z 35006KT 9000 FEW007 14/13 Q1009 NOSIG=
201204111830 METAR LMML NIL=
201204111815 METAR LMML 111815Z 33006KT 9000 BKN007 14/13 Q1008 NOSIG=
201204111745 METAR LMML 111745Z 34005KT 310V020 9999 SCT011 15/13 Q1008
                        TEMPO 9000 BKN010=
201204111730 METAR LMML NIL=
201204111715 METAR LMML 111715Z 36004KT 9999 FEW009 15/13 Q1007 NOSIG=
201204111700 METAR LMML NIL=
201204111645 METAR LMML 111645Z 01005KT 350V070 9999 FEW010 SCT015 16/13
                        Q1007 NOSIG=
201204111615 METAR LMML 111615Z 03003KT 9999 FEW009 BKN013 16/13 Q1007
                        NOSIG=
201204111600 METAR LMML NIL=
201204111545 METAR LMML 111545Z 07005KT 030V110 9999 FEW010 SCT017 16/13
                        Q1007 BECMG 32010KT BKN008=
201204111530 METAR LMML NIL=
201204111515 METAR LMML 111515Z 09003KT 9999 FEW009 BKN019 17/13 Q1006
                        BECMG 32010KT BKN008=
201204111500 METAR LMML NIL=
201204111445 METAR LMML 111445Z 11005KT 060V140 9999 FEW010 SCT014 17/14
                        Q1006 BECMG 32010KT BKN008=
201204111430 METAR LMML NIL=
201204111415 METAR LMML 111415Z 11005KT 060V150 9999 BKN014 SCT080 17/14
                        Q1007 BECMG 32010KT BKN008=
201204111400 METAR LMML NIL=
201204111345 METAR LMML 111345Z 12006KT 080V180 9999 FEW010 SCT020 BKN120
                        17/14 Q1007 BECMG 32013KT BKN008=
201204111330 METAR LMML NIL=
201204111315 METAR LMML 111315Z 10004KT 9999 -SHRA BKN018 BKN120 16/13
                        Q1008 BECMG 32013KT BKN008=
201204111300 METAR LMML NIL=
201204111245 METAR LMML 111245Z 10005KT 060V120 9999 SCT016 BKN022 BKN026
                        16/13 Q1008 BECMG 32013KT BKN008=
201204111230 METAR LMML NIL=
201204111215 METAR LMML 111215Z 14003KT 9999 BKN014 BKN120 16/12 Q1009
                        BECMG 32013KT BKN008=
201204111200 METAR LMML NIL=
201204111145 METAR LMML 111145Z 03005KT 280V160 9999 BKN014 SCT120 BKN250
                        16/13 Q1009 BECMG 32013KT BKN008=
201204111130 METAR LMML NIL=
201204111115 METAR LMML 111115Z 15016KT 120V180 9999 FEW010 SCT120 BKN250
                        16/13 Q1008 NOSIG=
201204111100 METAR LMML NIL=
201204111045 METAR LMML 111045Z 14013KT 100V160 9999 FEW012 BKN250 16/13
                        Q1008 NOSIG=
201204111030 METAR LMML NIL=
201204111015 METAR LMML 111015Z 15010G20KT 090V210 9999 SCT012 BKN250
                        16/13 Q1010 NOSIG=
201204111000 METAR LMML NIL=
201204110945 METAR LMML 110945Z 14014KT 100V170 9999 FEW013 SCT140 BKN250
                        17/13 Q1008 NOSIG=
201204110930 METAR LMML NIL=
201204110915 METAR LMML 110915Z 14016KT 110V170 9999 FEW013 BKN250 17/13
                        Q1008 NOSIG=
201204110900 METAR LMML NIL=
201204110845 METAR LMML 110845Z 14016KT 9999 FEW013 BKN250 16/12 Q1009
                        NOSIG=
201204110830 METAR LMML NIL=
201204110815 METAR LMML 110815Z 14013KT 9999 FEW013 SCT130 BKN250 16/12
                        Q1010 NOSIG=
201204110800 METAR LMML NIL=
201204110745 METAR LMML 110745Z 14011KT 110V170 9999 FEW013 BKN250 16/12
                        Q1010 NOSIG=
201204110730 METAR LMML NIL=
201204110715 METAR LMML 110715Z 14009KT 100V170 9999 FEW012 BKN250 15/12
                        Q1010 NOSIG=
201204110700 METAR LMML NIL=
201204110645 METAR LMML 110645Z 14010KT 110V200 9999 FEW012 SCT120 BKN250
                        15/12 Q1010 NOSIG=
201204110630 METAR LMML NIL=
201204110615 METAR LMML 110615Z 16010KT 130V190 9999 FEW012 SCT120 BKN250
                        14/12 Q1010 NOSIG=
201204110600 METAR LMML NIL=
201204110545 METAR LMML 110545Z 15012KT 120V180 9999 FEW012 BKN120 BKN250
                        14/11 Q1010 NOSIG=
201204110530 METAR LMML NIL=
201204110515 METAR LMML 110515Z 14011KT 9999 FEW015 BKN120 BKN250 14/11
                        Q1009 NOSIG=
201204110500 METAR LMML NIL=
201204110445 METAR LMML 110445Z 15012KT CAVOK 14/11 Q1010 NOSIG=
201204110430 METAR LMML NIL=
201204110415 METAR LMML 110415Z 16012KT CAVOK 13/10 Q1010 NOSIG=
201204110400 METAR LMML NIL=
201204110345 METAR LMML 110345Z 15010KT 9999 FEW020 BKN250 13/10 Q1010
                        NOSIG=
201204110330 METAR LMML NIL=
201204110315 METAR LMML 110315Z 14008KT 9999 FEW020 SCT130 BKN250 13/10
                        Q1011 NOSIG=
201204110300 METAR LMML NIL=
201204110245 METAR LMML 110245Z 15007KT 120V180 9999 FEW020 BKN250 13/10
                        Q1012 NOSIG=
201204110230 METAR LMML NIL=
201204110215 METAR LMML 110215Z 15006KT 120V190 9999 FEW020 BKN250 13/10
                        Q1012 NOSIG=
201204110200 METAR LMML NIL=
201204110145 METAR LMML 110145Z 15007KT CAVOK 13/10 Q1012 NOSIG=
201204110130 METAR LMML NIL=
201204110115 METAR LMML 110115Z 14007KT CAVOK 13/10 Q1012 NOSIG=
201204110045 METAR LMML 110045Z 14008KT CAVOK 13/10 Q1012 NOSIG=
201204110030 METAR LMML NIL=
201204110015 METAR LMML 110015Z 14008KT CAVOK 13/10 Q1012 NOSIG=
201204110000 METAR LMML NIL=
201204102345 METAR LMML 102345Z 13007KT CAVOK 13/10 Q1012 NOSIG=
201204102330 METAR LMML NIL=
201204102315 METAR LMML 102315Z 16006KT 130V210 CAVOK 13/09 Q1013 NOSIG=
201204102300 METAR LMML NIL=
201204102245 METAR LMML 102245Z 15009KT 120V190 CAVOK 13/09 Q1013 NOSIG=
201204102230 METAR LMML NIL=
201204102215 METAR LMML 102215Z 14008KT CAVOK 13/09 Q1012 NOSIG=
201204102200 METAR LMML NIL=
201204102145 METAR LMML 102145Z 15007KT CAVOK 13/09 Q1013 NOSIG=
201204102130 METAR LMML NIL=
201204102115 METAR LMML 102115Z 16007KT CAVOK 13/09 Q1013 NOSIG=
201204102100 METAR LMML NIL=
201204102045 METAR LMML 102045Z 16007KT 9999 FEW025 BKN250 13/09 Q1014
                        NOSIG=
201204102030 METAR LMML NIL=
201204102015 METAR LMML 102015Z 16006KT 9999 FEW025 BKN250 13/09 Q1014
                        NOSIG=
201204102000 METAR LMML NIL=
201204101945 METAR LMML 101945Z 15006KT 120V180 9999 FEW025 SCT250 13/09
                        Q1014 NOSIG=
201204101930 METAR LMML NIL=
201204101915 METAR LMML 101915Z 16005KT 130V190 9999 FEW025 BKN250 13/09
                        Q1013 NOSIG=
201204101900 METAR LMML NIL=
201204101845 METAR LMML 101845Z 14006KT 120V180 9999 FEW025 SCT250 13/09
                        Q1013 NOSIG=
201204101830 METAR LMML NIL=
201204101815 METAR LMML 101815Z 17003KT 9999 FEW025 SCT250 13/09 Q1013
                        NOSIG=
201204101800 METAR LMML NIL=
201204101745 METAR LMML 101745Z 17004KT 140V200 9999 FEW025 SCT250 13/09
                        Q1013 NOSIG=
201204101730 METAR LMML NIL=
201204101715 METAR LMML 101715Z 18005KT 160V230 9999 FEW025 14/09 Q1013
                        NOSIG=
201204101700 METAR LMML NIL=
201204101645 METAR LMML 101645Z 17006KT 140V220 9999 FEW025 14/09 Q1013
                        NOSIG=
201204101630 METAR LMML NIL=
201204101615 METAR LMML 101615Z 17006KT 130V260 9999 FEW025 15/09 Q1013
                        NOSIG=
201204101600 METAR LMML NIL=
201204101545 METAR LMML 101545Z 17005KT 140V240 9999 FEW025 15/09 Q1013
                        NOSIG=
201204101530 METAR LMML NIL=
201204101515 METAR LMML 101515Z 18005KT 130V220 9999 FEW028 16/09 Q1013
                        NOSIG=
201204101500 METAR LMML NIL=
201204101445 METAR LMML 101445Z 18005KT 130V240 9999 FEW026 16/09 Q1013
                        NOSIG=
201204101430 METAR LMML NIL=
201204101415 METAR LMML 101415Z 14006KT 080V210 9999 FEW031 16/10 Q1014
                        NOSIG=
201204101400 METAR LMML NIL=
201204101345 METAR LMML 101345Z 11006KT 070V150 9999 FEW030 17/10 Q1014
                        NOSIG=
201204101330 METAR LMML NIL=
201204101315 METAR LMML 101315Z 11005KT 9999 BKN029 BKN034 16/10 Q1014=
201204101300 METAR LMML NIL=
201204101245 METAR LMML 101245Z 11006KT 050V170 9999 FEW031 16/09 Q1014
                        NOSIG=
201204101215 METAR LMML 101215Z 03006KT 330V080 9999 FEW031 17/09 Q1014
                        NOSIG=
201204101200 METAR LMML NIL=
201204101145 METAR LMML 101145Z 34005KT 270V050 9999 FEW031 18/09 Q1014
                        NOSIG=
201204101130 METAR LMML NIL=
201204101115 METAR LMML 101115Z 36004KT 270V160 9999 FEW029 17/09 Q1014
                        NOSIG=
201204101100 METAR LMML NIL=
201204101045 METAR LMML 101045Z 34006KT 270V050 9999 FEW027 17/09 Q1014
                        NOSIG=
201204101030 METAR LMML NIL=
201204101015 METAR LMML 101015Z 31005KT 250V050 9999 FEW027 16/10 Q1014
                        NOSIG=
201204101000 METAR LMML NIL=
201204100945 METAR LMML 100945Z 33006KT 280V010 9999 FEW028 16/10 Q1015
                        NOSIG=
201204100930 METAR LMML NIL=
201204100915 METAR LMML 100915Z 32004KT 220V020 9999 SCT026 16/10 Q1015
                        NOSIG=
201204100900 METAR LMML NIL=
201204100845 METAR LMML 100845Z 32006KT 290V360 9999 SCT025 16/09 Q1015
                        NOSIG=
201204100830 METAR LMML NIL=
201204100815 METAR LMML 100815Z 33006KT 260V010 9999 FEW024 16/09 Q1014
                        NOSIG=
201204100800 METAR LMML NIL=
201204100745 METAR LMML 100745Z 31007KT 280V350 9999 FEW023 15/09 Q1014
                        NOSIG=
201204100730 METAR LMML NIL=
201204100715 METAR LMML 100715Z 33008KT 290V360 9999 FEW019 14/09 Q1014
                        NOSIG=
201204100700 METAR LMML NIL=
201204100645 METAR LMML 100645Z 32008KT 290V350 9999 FEW018 14/10 Q1014
                        NOSIG=
201204100630 METAR LMML NIL=
201204100615 METAR LMML 100615Z 30004KT 260V350 9999 FEW020 13/09 Q1014
                        NOSIG=
201204100600 METAR LMML NIL=
201204100545 METAR LMML 100545Z 28004KT 250V320 9999 FEW020 12/08 Q1013
                        NOSIG=
201204100530 METAR LMML NIL=
201204100515 METAR LMML 100515Z 24003KT 9999 FEW020 10/08 Q1013 NOSIG=
201204100500 METAR LMML NIL=
201204100445 METAR LMML 100445Z 28003KT 9999 FEW030 10/07 Q1013 NOSIG=
201204100430 METAR LMML NIL=
201204100415 METAR LMML 100415Z 29006KT 9999 FEW030 10/07 Q1013 NOSIG=
201204100400 METAR LMML NIL=
201204100345 METAR LMML 100345Z 29007KT CAVOK 10/07 Q1013 NOSIG=
201204100330 METAR LMML NIL=
201204100315 METAR LMML 100315Z 30006KT CAVOK 10/07 Q1013 NOSIG=
201204100300 METAR LMML NIL=
201204100245 METAR LMML 100245Z 29008KT CAVOK 10/06 Q1013 NOSIG=
201204100230 METAR LMML NIL=
201204100215 METAR LMML 100215Z 31009KT CAVOK 10/06 Q1013 NOSIG=
201204100200 METAR LMML NIL=
201204100145 METAR LMML 100145Z 30009KT CAVOK 10/06 Q1013 NOSIG=
201204100115 METAR LMML 100115Z 30008KT CAVOK 10/06 Q1013 NOSIG=
201204100100 METAR LMML NIL=
201204100045 METAR LMML 100045Z 30010KT CAVOK 10/05 Q1013 NOSIG=
201204100030 METAR LMML NIL=
201204100015 METAR LMML 100015Z 30008KT CAVOK 10/04 Q1013 NOSIG=
201204100000 METAR LMML NIL=
201204092345 METAR LMML 092345Z 30008KT CAVOK 10/03 Q1013 NOSIG=
201204092330 METAR LMML NIL=
201204092315 METAR LMML 092315Z 31009KT CAVOK 09/04 Q1013 NOSIG=
201204092300 METAR LMML NIL=
201204092245 METAR LMML 092245Z 32004KT 290V350 CAVOK 10/04 Q1013 NOSIG=
201204092230 METAR LMML NIL=
201204092215 METAR LMML 092215Z 30011KT CAVOK 11/04 Q1013 NOSIG=
201204092200 METAR LMML NIL=
201204092145 METAR LMML 092145Z 30008KT 270V330 CAVOK 11/04 Q1013 NOSIG=
201204092130 METAR LMML NIL=
201204092115 METAR LMML 092115Z 30008KT CAVOK 11/04 Q1013 NOSIG=
201204092100 METAR LMML NIL=
201204092045 METAR LMML 092045Z 30010KT CAVOK 11/05 Q1013 NOSIG=
201204092030 METAR LMML NIL=
201204092015 METAR LMML 092015Z 31008KT CAVOK 11/05 Q1013 NOSIG=
201204092000 METAR LMML NIL=
201204091945 METAR LMML 091945Z 30010KT CAVOK 12/05 Q1012 NOSIG=
201204091930 METAR LMML NIL=
201204091915 METAR LMML 091915Z 31010KT 280V340 CAVOK 12/05 Q1012 NOSIG=
201204091900 METAR LMML NIL=
201204091845 METAR LMML 091845Z 31008KT CAVOK 12/05 Q1012 NOSIG=
201204091830 METAR LMML NIL=
201204091815 METAR LMML 091815Z 30011KT CAVOK 12/04 Q1012 NOSIG=
201204091800 METAR LMML NIL=
201204091745 METAR LMML 091745Z 31009KT 260V350 CAVOK 13/03 Q1011 NOSIG=
201204091730 METAR LMML NIL=
201204091715 METAR LMML 091715Z 30017KT CAVOK 14/02 Q1011 NOSIG=
201204091700 METAR LMML NIL=
201204091645 METAR LMML 091645Z 31018KT CAVOK 14/01 Q1011 NOSIG=
201204091630 METAR LMML NIL=
201204091615 METAR LMML 091615Z 30022KT CAVOK 15/02 Q1010 NOSIG=
201204091600 METAR LMML NIL=
201204091545 METAR LMML 091545Z 31022KT CAVOK 15/03 Q1011 NOSIG=
201204091530 METAR LMML NIL=
201204091515 METAR LMML 091515Z 30021KT 9999 FEW030 16/04 Q1010 NOSIG=
201204091500 METAR LMML NIL=
201204091445 METAR LMML 091445Z 30020G30KT 270V330 9999 FEW030 16/04 Q1010
                        NOSIG=
201204091430 METAR LMML NIL=
201204091415 METAR LMML 091415Z 30020KT 9999 FEW030 16/03 Q1010 NOSIG=
201204091400 METAR LMML NIL=
201204091345 METAR LMML 091345Z 31025KT 9999 FEW030 16/03 Q1010 NOSIG=
201204091330 METAR LMML NIL=
201204091315 METAR LMML 091315Z 31023KT 280V340 9999 FEW040 16/04 Q1010
                        NOSIG=
201204091300 METAR LMML NIL=
201204091245 METAR LMML 091245Z 30022G34KT 270V340 9999 FEW040 17/03 Q1010
                        NOSIG=
201204091230 METAR LMML NIL=
201204091215 METAR LMML 091215Z 31025KT 9999 FEW040 17/04 Q1010 NOSIG=
201204091200 METAR LMML NIL=
201204091145 METAR LMML 091145Z 30023KT 250V320 9999 FEW040 16/06 Q1010
                        NOSIG=
201204091130 METAR LMML NIL=
201204091115 METAR LMML 091115Z 31024KT 9999 SCT037 16/05 Q1010 NOSIG=
201204091100 METAR LMML NIL=
201204091045 METAR LMML 091045Z 31021KT 270V330 9999 SCT037 16/07 Q1010
                        NOSIG=
201204091030 METAR LMML NIL=
201204091015 METAR LMML 091015Z 30023KT 9999 SCT034 16/07 Q1010 NOSIG=
201204091000 METAR LMML NIL=
201204090945 METAR LMML 090945Z 31022KT 270V330 9999 BKN032 16/08 Q1010
                        NOSIG=
201204090930 METAR LMML NIL=
201204090915 METAR LMML 090915Z 29021KT 9999 SCT030 15/08 Q1010 NOSIG=
201204090900 METAR LMML NIL=
201204090845 METAR LMML 090845Z 30021KT 270V330 9999 BKN028 15/08 Q1010
                        NOSIG=
201204090830 METAR LMML NIL=
201204090815 METAR LMML 090815Z 29022KT 260V320 9999 SCT029 15/09 Q1009
                        NOSIG=
201204090745 METAR LMML 090745Z 29021KT 260V320 9999 FEW021 SCT060 14/10
                        Q1009 NOSIG=
201204090730 METAR LMML NIL=
201204090715 METAR LMML 090715Z 30019G29KT 270V330 9999 SCT026 SCT060
                        14/10 Q1008 NOSIG=
201204090700 METAR LMML NIL=
201204090645 METAR LMML 090645Z 30021KT 9999 SCT031 SCT060 13/09 Q1008
                        NOSIG=
201204090630 METAR LMML NIL=
201204090615 METAR LMML 090615Z 30017KT 8000 SCT021 SCT060 13/10 Q1008
                        BECMG 9999=
201204090600 METAR LMML NIL=
201204090545 METAR LMML 090545Z 30017KT 8000 -SHRA SCT023 BKN060 13/09
                        Q1008 BECMG 9999=
201204090530 METAR LMML NIL=
201204090515 METAR LMML 090515Z 29021KT 260V320 9000 FEW027 SCT060 13/08
                        Q1008 NOSIG=
201204090500 METAR LMML NIL=
201204090445 METAR LMML 090445Z 29022G32KT 260V320 9000 FEW028 BKN060
                        13/08 Q1008 TEMPO SHRA=
201204090430 METAR LMML NIL=
201204090415 METAR LMML 090415Z 29020KT 9000 FEW020 13/09 Q1008 TEMPO
                        SHRA=
201204090400 METAR LMML NIL=
201204090345 METAR LMML 090345Z 30016KT 9000 FEW025 SCT048 12/09 Q1008
                        TEMPO SHRA=
201204090330 METAR LMML NIL=
201204090315 METAR LMML 090315Z 30019KT 6000 SHRA SCT033 BKN060 13/08
                        Q1008 BECMG 9999 NSW=
201204090245 METAR LMML 090245Z 31024KT 9999 FEW022 BKN060 12/08 Q1008
                        NOSIG=
201204090230 METAR LMML NIL=
201204090215 METAR LMML 090215Z 29024G34KT 9999 FEW031 BKN060 14/08 Q1008
                        NOSIG=
201204090200 METAR LMML NIL=
201204090145 METAR LMML 090145Z 29027G40KT 9999 FEW031 14/07 Q1008 NOSIG=
201204090130 METAR LMML NIL=
201204090115 METAR LMML 090115Z 29025G36KT 9999 FEW034 SCT060 14/07 Q1008
                        NOSIG=
201204090100 METAR LMML NIL=
201204090045 METAR LMML 090045Z 29025G35KT 9999 FEW035 SCT060 14/07 Q1008
                        NOSIG=
201204090030 METAR LMML NIL=
201204090015 METAR LMML 090015Z 29021KT 9999 FEW029 SCT048 14/08 Q1008
                        NOSIG=
201204090000 METAR LMML NIL=
201204082345 METAR LMML 082345Z 28027KT 260V320 9999 FEW030 SCT060 14/08
                        Q1009 NOSIG=
201204082315 METAR LMML 082315Z 28029G39KT 250V320 9999 FEW039 SCT060
                        14/08 Q1008 NOSIG=
201204082300 METAR LMML NIL=
201204082245 METAR LMML 082245Z 29031G47KT 9999 -RA FEW031 SCT070 14/04
                        Q1009 NOSIG=
201204082230 METAR LMML NIL=
201204082215 METAR LMML 082215Z 28026KT 9999 FEW025 14/07 Q1009 NOSIG=
201204082200 METAR LMML NIL=
201204082145 METAR LMML 082145Z 28020KT 240V300 9999 FEW025 14/08 Q1009
                        NOSIG=
201204082130 METAR LMML NIL=
201204082115 METAR LMML 082115Z 28018G28KT 250V310 9999 FEW025 14/09 Q1009
                        NOSIG=
201204082100 METAR LMML NIL=
201204082045 METAR LMML 082045Z 28017KT 9999 FEW025 14/09 Q1009 NOSIG=
201204082015 METAR LMML 082015Z 29019G29KT 9999 FEW025 14/09 Q1009 NOSIG=
201204082000 METAR LMML NIL=
201204081945 METAR LMML 081945Z 28019KT 250V310 9999 FEW025 14/08 Q1009
                        NOSIG=
201204081930 METAR LMML NIL=
201204081915 METAR LMML 081915Z 28018KT 250V310 9999 FEW025 14/08 Q1009
                        NOSIG=
201204081900 METAR LMML NIL=
201204081845 METAR LMML 081845Z 29017KT 9999 FEW025 14/08 Q1009 NOSIG=
201204081830 METAR LMML NIL=
201204081815 METAR LMML 081815Z 29020G31KT 9999 FEW025 14/08 Q1009 NOSIG=
201204081800 METAR LMML NIL=
201204081745 METAR LMML 081745Z 28019KT 9999 FEW025 14/09 Q1009 NOSIG=
201204081730 METAR LMML NIL=
201204081715 METAR LMML 081715Z 29021G35KT 9999 FEW026 14/09 Q1009 NOSIG=
201204081700 METAR LMML NIL=
201204081645 METAR LMML 081645Z 28020KT 9999 FEW024 15/09 Q1009 NOSIG=
201204081630 METAR LMML NIL=
201204081615 METAR LMML 081615Z 27017KT 240V310 9999 FEW025 15/08 Q1009
                        NOSIG=
201204081600 METAR LMML NIL=
201204081545 METAR LMML 081545Z 28020G30KT 250V310 9999 FEW025 15/08 Q1009
                        NOSIG=
201204081530 METAR LMML NIL=
201204081515 METAR LMML 081515Z 28020KT 250V310 9999 FEW025 SCT060 16/08
                        Q1009 NOSIG=
201204081500 METAR LMML NIL=
201204081445 METAR LMML 081445Z 28017KT 240V300 9999 FEW025 SCT070 15/09
                        Q1009 NOSIG=
201204081430 METAR LMML NIL=
201204081415 METAR LMML 081415Z 28020KT 9999 FEW025 SCT050 16/08 Q1010
                        NOSIG=
201204081400 METAR LMML NIL=
201204081345 METAR LMML 081345Z 28019KT 250V310 9999 FEW025 17/07 Q1010
                        NOSIG=
201204081330 METAR LMML NIL=
201204081315 METAR LMML 081315Z 28019KT 240V300 9999 FEW025 16/08 Q1010
                        NOSIG=
201204081300 METAR LMML NIL=
201204081245 METAR LMML 081245Z 28016KT 240V330 9999 SCT026 17/11 Q1010
                        NOSIG=
201204081230 METAR LMML NIL=
201204081215 METAR LMML 081215Z 26013KT 230V290 9999 SCT027 17/10 Q1010
                        NOSIG=
201204081200 METAR LMML NIL=
201204081145 METAR LMML 081145Z 26013KT 220V290 9999 FEW025 16/10 Q1010
                        NOSIG=
201204081130 METAR LMML NIL=
201204081115 METAR LMML 081115Z 27015KT 230V310 9999 FEW024 16/10 Q1011
                        NOSIG=
201204081100 METAR LMML NIL=
201204081045 METAR LMML 081045Z 26013KT 220V300 9999 FEW025 SCT070 15/11
                        Q1011 NOSIG=
201204081030 METAR LMML NIL=
201204081015 METAR LMML 081015Z 26011KT 220V290 9999 FEW034 SCT060 13/11
                        Q1012 NOSIG=
201204081000 METAR LMML NIL=
201204080945 METAR LMML 080945Z 27013KT 230V300 9999 -RA SCT034 BKN060
                        12/10 Q1012 RESHRA NOSIG=
201204080930 METAR LMML NIL=
201204080915 METAR LMML 080915Z 28019KT 4000 SHRA FEW011 SCT016 BKN050
                        12/10 Q1012 BECMG 9999 NSW=
201204080900 METAR LMML NIL=
201204080845 METAR LMML 080845Z 30018KT 270V330 4000 SHRA SCT016 BKN038
                        BKN047 13/09 Q1012 BECMG 9999 NSW=
201204080830 METAR LMML NIL=
201204080815 METAR LMML 080815Z 30014KT 270V330 9999 FEW024 BKN047 BKN120
                        13/09 Q1012 TEMPO 8000 SHRA=
201204080800 METAR LMML NIL=
201204080745 METAR LMML 080745Z 30016KT 9999 FEW024 BKN050 BKN120 14/09
                        Q1011 TEMPO 8000 SHRA=
201204080730 METAR LMML NIL=
201204080715 METAR LMML 080715Z 28012KT 9999 SCT026 SCT050 BKN120 15/10
                        Q1011 TEMPO 8000 SHRA=
201204080700 METAR LMML NIL=
201204080645 METAR LMML 080645Z 27009KT 9999 FEW020 SCT050 BKN120 15/10
                        Q1010 TEMPO 8000 SHRA=
201204080630 METAR LMML NIL=
201204080615 METAR LMML 080615Z 26007KT 9999 FEW020 SCT070 BKN120 14/11
                        Q1010 NOSIG=
201204080600 METAR LMML NIL=
201204080545 METAR LMML 080545Z 27005KT 240V300 9999 FEW020 SCT070 BKN120
                        14/10 Q1010 NOSIG=
201204080530 METAR LMML NIL=
201204080515 METAR LMML 080515Z 26006KT 220V290 9999 FEW020 SCT050 BKN070
                        14/11 Q1010 NOSIG=
201204080500 METAR LMML NIL=
201204080445 METAR LMML 080445Z 25004KT 220V280 9999 FEW020 BKN060 13/11
                        Q1010 NOSIG=
201204080430 METAR LMML NIL=
201204080415 METAR LMML 080415Z 25004KT 220V280 9999 FEW020 BKN060 12/10
                        Q1010 NOSIG=
201204080400 METAR LMML NIL=
201204080345 METAR LMML 080345Z 24003KT CAVOK 13/09 Q1011 NOSIG=
201204080330 METAR LMML NIL=
201204080315 METAR LMML 080315Z 27003KT CAVOK 13/09 Q1011 NOSIG=
201204080300 METAR LMML NIL=
201204080245 METAR LMML 080245Z 26004KT CAVOK 12/09 Q1011 NOSIG=
201204080230 METAR LMML NIL=
201204080215 METAR LMML 080215Z 26003KT CAVOK 11/09 Q1011 NOSIG=
201204080200 METAR LMML NIL=
201204080145 METAR LMML 080145Z 27005KT CAVOK 12/09 Q1011 NOSIG=
201204080130 METAR LMML NIL=
201204080115 METAR LMML 080115Z 26004KT CAVOK 12/08 Q1011 NOSIG=
201204080100 METAR LMML NIL=
201204080045 METAR LMML 080045Z 27004KT CAVOK 12/08 Q1012 NOSIG=
201204080030 METAR LMML NIL=
201204080015 METAR LMML 080015Z 28007KT CAVOK 12/08 Q1012 NOSIG=
201204080000 METAR LMML NIL=
201204072345 METAR LMML 072345Z 30007KT CAVOK 12/08 Q1012 NOSIG=
201204072330 METAR LMML NIL=
201204072315 METAR LMML 072315Z 27003KT CAVOK 12/09 Q1013 NOSIG=
201204072300 METAR LMML NIL=
201204072245 METAR LMML 072245Z 30008KT CAVOK 12/09 Q1012 NOSIG=
201204072230 METAR LMML NIL=
201204072215 METAR LMML 072215Z 28008KT CAVOK 12/08 Q1012 NOSIG=
201204072145 METAR LMML 072145Z 30008KT CAVOK 12/09 Q1012 NOSIG=
201204072130 METAR LMML NIL=
201204072115 METAR LMML 072115Z 30011KT CAVOK 13/09 Q1012 NOSIG=
201204072100 METAR LMML NIL=
201204072045 METAR LMML 072045Z 30012KT CAVOK 13/10 Q1012 NOSIG=
201204072030 METAR LMML NIL=
201204072015 METAR LMML 072015Z 30013KT CAVOK 14/10 Q1012 NOSIG=
201204072000 METAR LMML NIL=
201204071945 METAR LMML 071945Z 30016KT 9999 FEW020 14/10 Q1012 NOSIG=
201204071930 METAR LMML NIL=
201204071915 METAR LMML 071915Z 30014KT 9999 FEW020 14/11 Q1012 NOSIG=
201204071900 METAR LMML NIL=
201204071845 METAR LMML 071845Z 29013KT 9999 FEW020 14/11 Q1011 NOSIG=
201204071830 METAR LMML NIL=
201204071815 METAR LMML 071815Z 29014KT 260V320 9999 FEW020 14/11 Q1011
                        NOSIG=
201204071800 METAR LMML NIL=
201204071745 METAR LMML 071745Z 30016KT 9999 FEW020 15/11 Q1011 NOSIG=
201204071730 METAR LMML NIL=
201204071715 METAR LMML 071715Z 30014KT 260V320 9999 FEW020 15/11 Q1011
                        NOSIG=
201204071700 METAR LMML NIL=
201204071645 METAR LMML 071645Z 30017KT 270V330 9999 FEW020 16/11 Q1010
                        NOSIG=
201204071630 METAR LMML NIL=
201204071615 METAR LMML 071615Z 29019KT 9999 FEW020 16/10 Q1010 NOSIG=
201204071600 METAR LMML NIL=
201204071545 METAR LMML 071545Z 30019KT 9999 FEW019 16/11 Q1010 NOSIG=
201204071530 METAR LMML NIL=
201204071515 METAR LMML 071515Z 30019KT 270V330 9999 FEW019 17/11 Q1010
                        NOSIG=
201204071500 METAR LMML NIL=
201204071445 METAR LMML 071445Z 30018KT 9999 FEW021 17/11 Q1010 NOSIG=
201204071430 METAR LMML NIL=
201204071415 METAR LMML 071415Z 31018KT 280V340 9999 FEW019 18/12 Q1010
                        NOSIG=
201204071400 METAR LMML NIL=
201204071345 METAR LMML 071345Z 30019KT 9999 FEW016 18/12 Q1010 NOSIG=
201204071330 METAR LMML NIL=
201204071315 METAR LMML 071315Z 31019KT 270V330 9999 FEW017 18/12 Q1010
                        NOSIG=
201204071300 METAR LMML NIL=
201204071245 METAR LMML 071245Z 31021KT 9999 FEW017 18/13 Q1010 NOSIG=
201204071230 METAR LMML NIL=
201204071215 METAR LMML 071215Z 31020KT 9999 FEW017 19/13 Q1010 NOSIG=
201204071200 METAR LMML NIL=
201204071145 METAR LMML 071145Z 30019KT 9999 FEW017 19/13 Q1010 NOSIG=
201204071130 METAR LMML NIL=
201204071115 METAR LMML 071115Z 31016KT 270V340 9999 FEW014 19/13 Q1010
                        NOSIG=
201204071100 METAR LMML NIL=
201204071045 METAR LMML 071045Z 30018KT 9999 FEW015 19/14 Q1010 NOSIG=
201204071015 METAR LMML 071015Z 31019KT 280V340 9999 FEW017 19/14 Q1010
                        NOSIG=
201204071000 METAR LMML NIL=
201204070945 METAR LMML 070945Z 31015KT 9999 FEW017 19/14 Q1010 NOSIG=
201204070930 METAR LMML NIL=
201204070915 METAR LMML 070915Z 30016KT 9999 FEW017 18/13 Q1010 NOSIG=
201204070900 METAR LMML NIL=
201204070845 METAR LMML 070845Z 30012KT 270V330 9000 FEW018 18/14 Q1009
                        NOSIG=
201204070830 METAR LMML NIL=
201204070815 METAR LMML 070815Z 31012KT 270V340 9000 FEW015 18/14 Q1009
                        NOSIG=
201204070800 METAR LMML NIL=
201204070745 METAR LMML 070745Z 30008KT 270V340 8000 SCT014 18/14 Q1008
                        BECMG 9999=
201204070730 METAR LMML NIL=
201204070715 METAR LMML 070715Z 30011KT 8000 BKN010 17/14 Q1008 BECMG
                        9999 SCT015=
201204070645 METAR LMML 070645Z 29010KT 260V330 8000 BKN009 16/14 Q1008
                        BECMG 9999 SCT015=
201204070630 METAR LMML NIL=
201204070615 METAR LMML 070615Z 27007KT 240V310 8000 BKN006 16/15 Q1008
                        NOSIG=
201204070545 METAR LMML 070545Z 29003KT 8000 BKN007 15/15 Q1007 NOSIG=
201204070530 METAR LMML NIL=
201204070515 METAR LMML 070515Z 22004KT 140V350 8000 NSC 15/14 Q1007 NOSIG=
201204070500 METAR LMML NIL=
201204070445 METAR LMML 070445Z 20009KT 150V250 8000 NSC 15/14 Q1007 NOSIG=
201204070430 METAR LMML NIL=
201204070415 METAR LMML 070415Z 18010KT 150V240 8000 NSC 15/13 Q1007 NOSIG=
201204070400 METAR LMML NIL=
201204070345 METAR LMML 070345Z 18007KT 140V230 8000 NSC 15/14 Q1007 TEMPO
                        5000 BR BKN005=
201204070330 METAR LMML NIL=
201204070315 METAR LMML 070315Z 17008KT 140V240 8000 NSC 15/14 Q1007 TEMPO
                        5000 BR BKN005=
201204070300 METAR LMML NIL=
201204070245 METAR LMML 070245Z 17007KT 130V220 8000 NSC 15/14 Q1007 TEMPO
                        5000 BR BKN005=
201204070230 METAR LMML NIL=
201204070215 METAR LMML 070215Z 16007KT 140V200 8000 NSC 15/13 Q1007 TEMPO
                        5000 BR BKN005=
201204070200 METAR LMML NIL=
201204070145 METAR LMML 070145Z 16008KT 140V200 8000 NSC 15/13 Q1007 TEMPO
                        5000 BR BKN005=
201204070130 METAR LMML NIL=
201204070115 METAR LMML 070115Z 16008KT 8000 FEW003 15/14 Q1008 TEMPO
                        5000 BR BKN005=
201204070100 METAR LMML NIL=
201204070045 METAR LMML 070045Z 13005KT 8000 FEW003 14/14 Q1008 TEMPO
                        5000 BR BKN005=
201204070030 METAR LMML NIL=
201204070015 METAR LMML 070015Z 12005KT 8000 FEW003 14/14 Q1009 TEMPO
                        5000 BR BKN005=
201204070000 METAR LMML NIL=
201204062345 METAR LMML 062345Z 13005KT 8000 FEW003 15/15 Q1009 TEMPO
                        5000 BR BKN005=
201204062330 METAR LMML NIL=
201204062315 METAR LMML 062315Z 13005KT 090V170 8000 FEW003 BKN130 15/15
                        Q1009 TEMPO 5000 BR BKN005=
201204062300 METAR LMML NIL=
201204062245 METAR LMML 062245Z 12005KT 090V160 8000 FEW002 BKN120 15/15
                        Q1010 TEMPO 5000 BR BKN005=
201204062230 METAR LMML NIL=
201204062215 METAR LMML 062215Z 13006KT 8000 SCT003 SCT120 15/15 Q1009
                        TEMPO 5000 BKN005=
201204062200 METAR LMML NIL=
201204062145 METAR LMML 062145Z 12008KT CAVOK 15/15 Q1009 NOSIG=
201204062130 METAR LMML NIL=
201204062115 METAR LMML 062115Z 12008KT CAVOK 15/15 Q1009 NOSIG=
201204062100 METAR LMML NIL=
201204062045 METAR LMML 062045Z 11005KT CAVOK 15/14 Q1010 NOSIG=
201204062030 METAR LMML NIL=
201204062015 METAR LMML 062015Z 10005KT 080V140 CAVOK 15/14 Q1010 NOSIG=
201204062000 METAR LMML NIL=
201204061945 METAR LMML 061945Z 10004KT CAVOK 15/14 Q1010 NOSIG=
201204061930 METAR LMML NIL=
201204061915 METAR LMML 061915Z 11005KT CAVOK 15/13 Q1010 NOSIG=
201204061900 METAR LMML NIL=
201204061845 METAR LMML 061845Z 10005KT 060V120 CAVOK 16/13 Q1009 NOSIG=
201204061830 METAR LMML NIL=
201204061815 METAR LMML 061815Z 10004KT CAVOK 16/12 Q1009 NOSIG=
201204061800 METAR LMML NIL=
201204061745 METAR LMML 061745Z 11005KT 060V130 CAVOK 16/12 Q1009 NOSIG=
201204061730 METAR LMML NIL=
201204061715 METAR LMML 061715Z 11006KT CAVOK 17/12 Q1009 NOSIG=
201204061700 METAR LMML NIL=
201204061645 METAR LMML 061645Z 12009KT CAVOK 17/11 Q1009 NOSIG=
201204061630 METAR LMML NIL=
201204061615 METAR LMML 061615Z 12007KT CAVOK 18/11 Q1010 NOSIG=
201204061600 METAR LMML NIL=
201204061545 METAR LMML 061545Z 13008KT CAVOK 19/12 Q1010 NOSIG=
201204061530 METAR LMML NIL=
201204061515 METAR LMML 061515Z 11007KT 090V150 CAVOK 20/11 Q1010 NOSIG=
201204061500 METAR LMML NIL=
201204061445 METAR LMML 061445Z 13007KT CAVOK 20/11 Q1010 NOSIG=
201204061430 METAR LMML NIL=
201204061415 METAR LMML 061415Z 12008KT CAVOK 20/11 Q1010 NOSIG=
201204061400 METAR LMML NIL=
201204061345 METAR LMML 061345Z 10006KT 070V140 CAVOK 21/11 Q1010 NOSIG=
201204061330 METAR LMML NIL=
201204061315 METAR LMML 061315Z 07006KT 020V120 CAVOK 21/12 Q1011 NOSIG=
201204061300 METAR LMML NIL=
201204061245 METAR LMML 061245Z 06006KT 340V170 CAVOK 22/13 Q1011 NOSIG=
201204061230 METAR LMML NIL=
201204061215 METAR LMML 061215Z 07006KT 020V120 CAVOK 22/12 Q1011 NOSIG=
201204061200 METAR LMML NIL=
201204061145 METAR LMML 061145Z 04006KT 360V110 CAVOK 22/12 Q1011 NOSIG=
201204061130 METAR LMML NIL=
201204061115 METAR LMML 061115Z 03006KT 360V070 CAVOK 22/11 Q1012 NOSIG=
201204061100 METAR LMML NIL=
201204061045 METAR LMML 061045Z 02006KT 350V070 CAVOK 22/11 Q1012 NOSIG=
201204061030 METAR LMML NIL=
201204061015 METAR LMML 061015Z 03005KT 350V060 CAVOK 21/11 Q1012 NOSIG=
201204061000 METAR LMML NIL=
201204060945 METAR LMML 060945Z 03005KT 360V060 CAVOK 21/12 Q1012 NOSIG=
201204060930 METAR LMML NIL=
201204060915 METAR LMML 060915Z 02005KT 340V050 CAVOK 21/12 Q1012 NOSIG=
201204060900 METAR LMML NIL=
201204060845 METAR LMML 060845Z 05004KT 010V100 CAVOK 21/12 Q1012 NOSIG=
201204060830 METAR LMML NIL=
201204060815 METAR LMML 060815Z 03004KT 360V080 CAVOK 20/11 Q1012 NOSIG=
201204060800 METAR LMML NIL=
201204060745 METAR LMML 060745Z VRB02KT CAVOK 19/12 Q1012 NOSIG=
201204060730 METAR LMML NIL=
201204060715 METAR LMML 060715Z VRB01KT CAVOK 18/12 Q1011 NOSIG=
201204060700 METAR LMML NIL=
201204060645 METAR LMML 060645Z VRB02KT CAVOK 16/12 Q1011 NOSIG=
201204060630 METAR LMML NIL=
201204060615 METAR LMML 060615Z 31003KT CAVOK 15/12 Q1011 NOSIG=
201204060600 METAR LMML NIL=
201204060545 METAR LMML 060545Z VRB02KT CAVOK 14/13 Q1011 NOSIG=
201204060530 METAR LMML NIL=
201204060515 METAR LMML 060515Z 33003KT CAVOK 13/12 Q1011 NOSIG=
201204060500 METAR LMML NIL=
201204060445 METAR LMML 060445Z 28003KT 9000 NSC 12/12 Q1011 NOSIG=
201204060430 METAR LMML NIL=
201204060415 METAR LMML 060415Z 31003KT CAVOK 13/11 Q1011 NOSIG=
201204060400 METAR LMML NIL=
201204060345 METAR LMML 060345Z VRB01KT CAVOK 12/11 Q1011 NOSIG=
201204060330 METAR LMML NIL=
201204060315 METAR LMML 060315Z 30003KT CAVOK 12/10 Q1011 NOSIG=
201204060300 METAR LMML NIL=
201204060245 METAR LMML 060245Z VRB01KT CAVOK 13/11 Q1011 NOSIG=
201204060230 METAR LMML NIL=
201204060215 METAR LMML 060215Z VRB01KT CAVOK 13/11 Q1011 NOSIG=
201204060200 METAR LMML NIL=
201204060145 METAR LMML 060145Z 29004KT CAVOK 14/11 Q1011 NOSIG=
201204060130 METAR LMML NIL=
201204060115 METAR LMML 060115Z 30004KT CAVOK 14/10 Q1011 NOSIG=
201204060100 METAR LMML NIL=
201204060045 METAR LMML 060045Z 30003KT CAVOK 14/10 Q1011 NOSIG=
201204060030 METAR LMML NIL=
201204060015 METAR LMML 060015Z 26003KT CAVOK 13/11 Q1011 NOSIG=
201204060000 METAR LMML NIL=
201204052345 METAR LMML 052345Z 31003KT CAVOK 14/11 Q1011 NOSIG=
201204052330 METAR LMML NIL=
201204052315 METAR LMML 052315Z 27003KT CAVOK 14/11 Q1011 NOSIG=
201204052300 METAR LMML NIL=
201204052245 METAR LMML 052245Z 31003KT CAVOK 14/11 Q1011 NOSIG=
201204052230 METAR LMML NIL=
201204052215 METAR LMML 052215Z VRB02KT CAVOK 14/12 Q1011 NOSIG=
201204052200 METAR LMML NIL=
201204052145 METAR LMML 052145Z VRB02KT CAVOK 14/11 Q1011 NOSIG=
201204052130 METAR LMML NIL=
201204052115 METAR LMML 052115Z VRB01KT CAVOK 15/12 Q1011 NOSIG=
201204052100 METAR LMML NIL=
201204052045 METAR LMML 052045Z VRB01KT CAVOK 15/12 Q1011 NOSIG=
201204052030 METAR LMML NIL=
201204052015 METAR LMML 052015Z VRB01KT CAVOK 15/12 Q1010 NOSIG=
201204052000 METAR LMML NIL=
201204051945 METAR LMML 051945Z VRB02KT CAVOK 15/13 Q1011 NOSIG=
201204051930 METAR LMML NIL=
201204051915 METAR LMML 051915Z VRB01KT CAVOK 15/13 Q1010 NOSIG=
201204051900 METAR LMML NIL=
201204051845 METAR LMML 051845Z VRB01KT CAVOK 16/12 Q1010 NOSIG=
201204051830 METAR LMML NIL=
201204051815 METAR LMML 051815Z VRB02KT CAVOK 16/12 Q1010 NOSIG=
201204051745 METAR LMML 051745Z VRB02KT CAVOK 16/12 Q1009 NOSIG=
201204051730 METAR LMML NIL=
201204051715 METAR LMML 051715Z 01004KT CAVOK 17/13 Q1009 NOSIG=
201204051700 METAR LMML NIL=
201204051645 METAR LMML 051645Z 01004KT CAVOK 18/13 Q1009 NOSIG=
201204051630 METAR LMML NIL=
201204051615 METAR LMML 051615Z 01005KT 330V050 CAVOK 19/13 Q1009 NOSIG=
201204051600 METAR LMML NIL=
201204051545 METAR LMML 051545Z 01005KT 340V050 CAVOK 20/13 Q1009 NOSIG=
201204051530 METAR LMML NIL=
201204051515 METAR LMML 051515Z 35005KT 320V060 9999 FEW018 20/14 Q1009
                        NOSIG=
201204051500 METAR LMML NIL=
201204051445 METAR LMML 051445Z 01005KT 270V050 9999 FEW018 20/13 Q1009
                        NOSIG=
201204051430 METAR LMML NIL=
201204051415 METAR LMML 051415Z 01005KT 320V080 9999 FEW018 21/14 Q1009
                        NOSIG=
201204051400 METAR LMML NIL=
201204051345 METAR LMML 051345Z 05005KT 360V090 9999 FEW018 21/14 Q1009
                        NOSIG=
201204051330 METAR LMML NIL=
201204051315 METAR LMML 051315Z 05005KT 360V120 9999 FEW018 21/14 Q1009
                        NOSIG=
201204051300 METAR LMML NIL=
201204051245 METAR LMML 051245Z 12003KT 9999 FEW024 21/15 Q1009 NOSIG=
201204051230 METAR LMML NIL=
201204051215 METAR LMML 051215Z 22003KT 9999 FEW016 20/14 Q1010 NOSIG=
201204051200 METAR LMML NIL=
201204051145 METAR LMML 051145Z 22006KT 160V290 9999 SCT020 19/15 Q1010
                        NOSIG=
201204051130 METAR LMML NIL=
201204051115 METAR LMML 051115Z VRB01KT 9999 FEW018 21/12 Q1010 NOSIG=
201204051100 METAR LMML NIL=
201204051045 METAR LMML 051045Z 06003KT 9999 FEW018 20/13 Q1010 NOSIG=
201204051030 METAR LMML NIL=
201204051015 METAR LMML 051015Z 09007KT 060V120 CAVOK 19/13 Q1010 NOSIG=
201204051000 METAR LMML NIL=
201204050945 METAR LMML 050945Z 09006KT 020V130 CAVOK 19/14 Q1010 NOSIG=
201204050930 METAR LMML NIL=
201204050915 METAR LMML 050915Z 08009KT CAVOK 18/14 Q1009 NOSIG=
201204050900 METAR LMML NIL=
201204050845 METAR LMML 050845Z 08009KT CAVOK 18/13 Q1009 NOSIG=
201204050830 METAR LMML NIL=
201204050815 METAR LMML 050815Z 07008KT 040V100 CAVOK 18/14 Q1009 NOSIG=
201204050800 METAR LMML NIL=
201204050745 METAR LMML 050745Z 09006KT 050V130 CAVOK 18/13 Q1008 NOSIG=
201204050730 METAR LMML NIL=
201204050715 METAR LMML 050715Z 08006KT CAVOK 17/14 Q1008 TEMPO 9999 FEW008=
201204050645 METAR LMML 050645Z 04005KT 010V090 CAVOK 17/13 Q1008 TEMPO
                        9999 FEW008=
201204050630 METAR LMML NIL=
201204050615 METAR LMML 050615Z 05004KT 010V080 CAVOK 16/13 Q1007 TEMPO
                        9999 FEW008=
201204050600 METAR LMML NIL=
201204050545 METAR LMML 050545Z 03004KT CAVOK 15/14 Q1007 NOSIG=
201204050530 METAR LMML NIL=
201204050515 METAR LMML 050515Z 03004KT CAVOK 14/13 Q1007 NOSIG=
201204050500 METAR LMML NIL=
201204050445 METAR LMML 050445Z 04004KT 010V070 CAVOK 14/13 Q1007 NOSIG=
201204050430 METAR LMML NIL=
201204050415 METAR LMML 050415Z 03007KT 9999 FEW040 15/13 Q1007 NOSIG=
201204050400 METAR LMML NIL=
201204050345 METAR LMML 050345Z 05008KT 020V080 CAVOK 15/13 Q1007 TEMPO
                        8000=
201204050330 METAR LMML NIL=
201204050315 METAR LMML 050315Z 03009KT 360V070 CAVOK 15/13 Q1008 TEMPO
                        8000=
201204050300 METAR LMML NIL=
201204050245 METAR LMML 050245Z 04010KT 360V070 CAVOK 15/13 Q1007 TEMPO
                        8000=
201204050230 METAR LMML NIL=
201204050215 METAR LMML 050215Z 04009KT CAVOK 15/13 Q1008 TEMPO 8000=
201204050200 METAR LMML NIL=
201204050145 METAR LMML 050145Z 04009KT 010V080 CAVOK 16/13 Q1008 TEMPO
                        8000=
201204050130 METAR LMML NIL=
201204050115 METAR LMML 050115Z 04009KT 010V070 9999 FEW040 16/13 Q1008
                        NOSIG=
201204050100 METAR LMML NIL=
201204050045 METAR LMML 050045Z 03009KT 360V060 9999 SCT040 BKN100 15/13
                        Q1009 NOSIG=
201204050030 METAR LMML NIL=
201204050015 METAR LMML 050015Z 02010KT 9999 SCT042 BKN100 16/13 Q1009
                        NOSIG=
201204050000 METAR LMML NIL=
201204042345 METAR LMML 042345Z 04010KT 360V070 8000 RA FEW004 BKN090
                        16/14 Q1009 TEMPO 5000 DU=
201204042330 METAR LMML NIL=
201204042315 METAR LMML 042315Z 04011KT 290V060 8000 FEW004 BKN090 16/14
                        Q1010 TEMPO 5000 DU=
201204042245 METAR LMML 042245Z 05009KT 020V080 8000 -RA FEW004 BKN090
                        16/15 Q1011 TEMPO 5000 DU=
201204042230 METAR LMML NIL=
201204042215 METAR LMML 042215Z 03008KT 360V060 8000 FEW004 BKN110 16/16
                        Q1011 TEMPO 5000 TSRA BKN004 FEW080CB=
201204042200 METAR LMML NIL=
201204042145 METAR LMML 042145Z 04009KT 340V080 6000 FEW004 BKN110 15/15
                        Q1010 TEMPO 5000 TSRA BKN004 FEW080CB=
201204042130 METAR LMML NIL=
201204042115 METAR LMML 042115Z 04009KT 010V070 5000 SCT003 BKN120 15/15
                        Q1009 RERA TEMPO 3000 TSRA BKN003
                        BKN080CB=
201204042045 METAR LMML 042045Z 03009KT 360V060 5000 RA BKN003 SCT080CB
                        BKN120 15/15 Q1010 NOSIG=
201204042030 METAR LMML NIL=
201204042015 METAR LMML 042015Z 04009KT 360V080 2000 -TSRA BKN003 SCT080CB
                        BKN130 15/15 Q1009 NOSIG=
201204041945 METAR LMML 041945Z 06008KT 030V090 2000 TSRA BKN004 BKN080CB
                        15/15 Q1010 TEMPO BKN003=
201204041930 METAR LMML NIL=
201204041915 METAR LMML 041915Z 04006KT 360V090 2000 TSRA BKN004 BKN080CB
                        15/15 Q1010 TEMPO BKN003=
201204041900 METAR LMML NIL=
201204041845 METAR LMML 041845Z 07010KT 020V130 3000 TSRA BKN005 SCT080CB
                        BKN120 15/15 Q1008 TEMPO 2000 BKN003=
201204041830 METAR LMML NIL=
201204041815 METAR LMML 041815Z 08009KT 030V120 3000 BKN003 BKN120 15/15
                        Q1008 TEMPO 2000 TSRA BKN080CB=
201204041800 METAR LMML NIL=
201204041745 METAR LMML 041745Z 05010KT 020V080 3000 SCT005 SCT080CB BKN120
                        16/15 Q1007 RETSRA TEMPO 2000 TSRA
                        BKN003=
201204041730 METAR LMML NIL=
201204041715 METAR LMML 041715Z 05009KT 020V090 3000 -RA BKN004 BKN100
                        16/15 Q1007 TEMPO 2000 TSRA BKN003
                        BKN060CB=
201204041700 METAR LMML NIL=
201204041645 METAR LMML 041645Z 08009KT 3000 DU BKN005 BKN120 16/15 Q1007
                        TEMPO 2000 RA BKN003=
201204041630 METAR LMML NIL=
201204041615 METAR LMML 041615Z 07007KT 040V100 3000 DU BKN005 BKN120
                        16/15 Q1006 TEMPO 2000 BKN003=
201204041600 METAR LMML NIL=
201204041545 METAR LMML 041545Z 06009KT 020V090 3500 HZ BKN005 BKN120
                        16/15 Q1007 TEMPO BKN003=
201204041530 METAR LMML NIL=
201204041515 METAR LMML 041515Z 08010KT 040V110 4000 HZ SCT005 BKN120
                        17/15 Q1006 NOSIG=
201204041500 METAR LMML NIL=
201204041445 METAR LMML 041445Z 07010KT 050V110 4000 DU SCT005 BKN120
                        16/15 Q1006 TEMPO 5000 SCT003=
201204041430 METAR LMML NIL=
201204041415 METAR LMML 041415Z 07010KT 040V100 4500 DU SCT005 BKN120
                        BKN250 18/15 Q1007 TEMPO SCT003=
201204041400 METAR LMML NIL=
201204041345 METAR LMML 041345Z 08012KT 3500 DU BKN005 SCT120 BKN250 17/15
                        Q1007 TEMPO 2000 SHRA SCT003=
201204041330 METAR LMML NIL=
201204041315 METAR LMML 041315Z 08008KT 050V120 4000 DU FEW006 SCT120
                        BKN250 17/15 Q1008 TEMPO 5000 SHRA
                        SCT005=
201204041300 METAR LMML NIL=
201204041245 METAR LMML 041245Z 07008KT 360V100 3500 DU NSC 18/15 Q1008
                        TEMPO 5000=
201204041230 METAR LMML NIL=
201204041215 METAR LMML 041215Z 07008KT 030V100 3500 DU NSC 17/15 Q1008
                        TEMPO 5000=
201204041200 METAR LMML NIL=
201204041145 METAR LMML 041145Z 08006KT 3500 DU NSC 18/15 Q1009 TEMPO
                        5000=
201204041115 METAR LMML 041115Z 08007KT 040V120 3500 DU NSC 19/15 Q1009
                        TEMPO 5000=
201204041045 METAR LMML 041045Z 12007KT 090V160 3500 DU NSC 19/14 Q1009
                        TEMPO 5000=
201204041030 METAR LMML NIL=
201204041015 METAR LMML 041015Z 13007KT 080V160 4500 HZ FEW006 BKN250
                        19/15 Q1010 TEMPO 5000=
201204041000 METAR LMML NIL=
201204040945 METAR LMML 040945Z 09006KT 050V150 5000 HZ FEW006 BKN250
                        19/16 Q1010 NOSIG=
201204040930 METAR LMML NIL=
201204040915 METAR LMML 040915Z 08008KT 050V110 6000 FEW005 SCT250 18/15
                        Q1009 NOSIG=
201204040900 METAR LMML NIL=
201204040845 METAR LMML 040845Z 11007KT 050V140 6000 SCT005 18/16 Q1009
                        NOSIG=
201204040830 METAR LMML NIL=
201204040815 METAR LMML 040815Z 10006KT 080V150 5000 BR BKN005 17/16 Q1010
                        NOSIG=
201204040800 METAR LMML NIL=
201204040745 METAR LMML 040745Z 08007KT 050V110 4000 BR BKN004 17/17 Q1009
                        BECMG 5000 BKN005=
201204040730 METAR LMML NIL=
201204040715 METAR LMML 040715Z 09006KT 050V120 3000 BR BKN004 16/16 Q1009
                        BECMG BKN005=
201204040700 METAR LMML NIL=
201204040645 METAR LMML 040645Z 09008KT 2000 BR BKN003 15/15 Q1009 BECMG
                        3000 BKN005=
201204040630 METAR LMML NIL=
201204040615 METAR LMML 040615Z 08008KT 050V110 2000 BR BKN003 15/15 Q1009
                        BECMG 3000 BKN005=
201204040600 METAR LMML NIL=
201204040545 METAR LMML 040545Z 08009KT 030V100 2000 BR OVC003 15/15 Q1009
                        NOSIG=
201204040530 METAR LMML NIL=
201204040515 METAR LMML 040515Z 08009KT 050V110 2000 BR OVC003 15/15 Q1009
                        TEMPO BKN002=
201204040500 METAR LMML NIL=
201204040445 METAR LMML 040445Z 07006KT 050V110 4000 BR BKN003 15/15 Q1009
                        TEMPO 3000 BR BKN002=
201204040430 METAR LMML NIL=
201204040415 METAR LMML 040415Z 04007KT 020V080 4000 BR SCT002 15/15 Q1008
                        TEMPO 3000 BR BKN002=
201204040345 METAR LMML 040345Z 07005KT 040V100 4000 BR BKN003 15/15 Q1008
                        TEMPO 3000 BR BKN002=
201204040330 METAR LMML NIL=
201204040315 METAR LMML 040315Z 05005KT 020V080 4000 BR SCT002 14/14 Q1008
                        TEMPO 3000 BR BKN002=
201204040300 METAR LMML NIL=
201204040245 METAR LMML 040245Z 03003KT 6000 FEW006 14/14 Q1008 BECMG
                        5000 BR=
201204040230 METAR LMML NIL=
201204040215 METAR LMML 040215Z 04003KT 6000 FEW006 14/14 Q1009 BECMG
                        5000 BR=
201204040200 METAR LMML NIL=
201204040145 METAR LMML 040145Z 06003KT 6000 FEW006 14/14 Q1009 BECMG
                        5000 BR=
201204040130 METAR LMML NIL=
201204040115 METAR LMML 040115Z VRB01KT 6000 FEW006 14/14 Q1009 BECMG
                        5000 BR=
201204040045 METAR LMML 040045Z VRB02KT 6000 FEW006 14/14 Q1010 NOSIG=
201204040030 METAR LMML NIL=
201204040015 METAR LMML 040015Z 09005KT 060V120 6000 FEW006 15/14 Q1009
                        NOSIG=
201204040000 METAR LMML NIL=
201204032345 METAR LMML 032345Z 09005KT 6000 FEW006 15/14 Q1009 NOSIG=
201204032330 METAR LMML NIL=
201204032315 METAR LMML 032315Z 10004KT 6000 FEW006 SCT250 15/15 Q1009
                        NOSIG=
201204032245 METAR LMML 032245Z 10004KT 6000 FEW006 SCT130 15/15 Q1009
                        NOSIG=
201204032230 METAR LMML NIL=
201204032215 METAR LMML 032215Z 09007KT 6000 FEW006 BKN130 15/15 Q1009
                        NOSIG=
201204032200 METAR LMML NIL=
201204032145 METAR LMML 032145Z 09005KT 060V120 6000 FEW006 BKN130 15/15
                        Q1009 NOSIG=
201204032115 METAR LMML 032115Z 10005KT 6000 FEW006 BKN130 15/15 Q1009
                        NOSIG=
201204032100 METAR LMML NIL=
201204032045 METAR LMML 032045Z 09006KT 6000 FEW006 BKN120 15/15 Q1009
                        NOSIG=
201204032030 METAR LMML NIL=
201204032015 METAR LMML 032015Z 10006KT 060V160 6000 FEW006 BKN120 BKN250
                        15/15 Q1009 NOSIG=
201204032000 METAR LMML NIL=
201204031945 METAR LMML 031945Z 09006KT 060V120 7000 FEW006 BKN250 15/15
                        Q1009 NOSIG=
201204031930 METAR LMML NIL=
201204031915 METAR LMML 031915Z 09006KT 7000 FEW006 BKN250 16/15 Q1009
                        NOSIG=
201204031900 METAR LMML NIL=
201204031845 METAR LMML 031845Z 08007KT 050V110 7000 FEW006 BKN250 15/15
                        Q1009 TEMPO 5000 DU=
201204031830 METAR LMML NIL=
201204031815 METAR LMML 031815Z 08008KT 7000 FEW006 BKN250 15/15 Q1008
                        TEMPO 5000 DU=
201204031800 METAR LMML NIL=
201204031745 METAR LMML 031745Z 07009KT 5000 DU FEW006 BKN250 16/15 Q1008
                        NOSIG=
201204031730 METAR LMML NIL=
201204031715 METAR LMML 031715Z 07006KT 040V100 5000 HZ FEW006 BKN250
                        16/15 Q1008 NOSIG=
201204031645 METAR LMML 031645Z 08007KT 5000 HZ NSC 17/14 Q1008 NOSIG=
201204031630 METAR LMML NIL=
201204031615 METAR LMML 031615Z 09006KT 5000 HZ NSC 18/14 Q1008 NOSIG=
201204031600 METAR LMML NIL=
201204031545 METAR LMML 031545Z 12007KT 090V150 5000 HZ NSC 18/14 Q1008
                        NOSIG=
201204031530 METAR LMML NIL=
201204031515 METAR LMML 031515Z 12009KT 5000 HZ NSC 19/14 Q1008 NOSIG=
201204031500 METAR LMML NIL=
201204031445 METAR LMML 031445Z 13009KT 100V160 5000 HZ NSC 19/14 Q1008
                        NOSIG=
201204031430 METAR LMML NIL=
201204031415 METAR LMML 031415Z 13010KT 5000 HZ NSC 19/14 Q1008 NOSIG=
201204031400 METAR LMML NIL=
201204031345 METAR LMML 031345Z 13010KT 5000 HZ NSC 20/14 Q1008 NOSIG=
201204031330 METAR LMML NIL=
201204031315 METAR LMML 031315Z 13011KT 100V160 5000 HZ NSC 20/14 Q1008
                        NOSIG=
201204031300 METAR LMML NIL=
201204031245 METAR LMML 031245Z 13012KT 100V160 5000 HZ NSC 20/14 Q1008
                        NOSIG=
201204031230 METAR LMML NIL=
201204031215 METAR LMML 031215Z 13011KT 100V170 5000 HZ NSC 20/14 Q1008
                        NOSIG=
201204031200 METAR LMML NIL=
201204031145 METAR LMML 031145Z 14012KT 5000 HZ NSC 20/14 Q1009 NOSIG=
201204031130 METAR LMML NIL=
201204031115 METAR LMML 031115Z 14011KT 120V180 5000 HZ NSC 20/14 Q1009
                        NOSIG=
201204031100 METAR LMML NIL=
201204031045 METAR LMML 031045Z 14011KT 100V170 5000 HZ NSC 20/14 Q1009
                        NOSIG=
201204031015 METAR LMML 031015Z 13008KT 100V160 5000 HZ NSC 20/14 Q1009
                        NOSIG=
201204030945 METAR LMML 030945Z 13009KT 090V170 7000 FEW008 20/15 Q1009
                        TEMPO 5000 DU=
201204030930 METAR LMML NIL=
201204030915 METAR LMML 030915Z 11009KT 9000 FEW008 19/15 Q1009 NOSIG=
201204030900 METAR LMML NIL=
201204030845 METAR LMML 030845Z 11008KT 080V150 9000 FEW008 18/15 Q1009
                        NOSIG=
201204030830 METAR LMML NIL=
201204030815 METAR LMML 030815Z 11007KT 080V140 9000 FEW008 18/15 Q1009
                        NOSIG=
201204030800 METAR LMML NIL=
201204030745 METAR LMML 030745Z 10008KT 070V130 9000 FEW008 18/14 Q1009
                        NOSIG=
201204030730 METAR LMML NIL=
201204030715 METAR LMML 030715Z 10008KT 8000 FEW008 17/15 Q1008 NOSIG=
201204030700 METAR LMML NIL=
201204030645 METAR LMML 030645Z 11008KT 8000 FEW008 16/15 Q1008 NOSIG=
201204030630 METAR LMML NIL=
201204030615 METAR LMML 030615Z 10006KT 070V130 6000 FEW008 16/15 Q1008
                        NOSIG=
201204030600 METAR LMML NIL=
201204030545 METAR LMML 030545Z 10007KT 070V130 6000 FEW008 15/15 Q1008
                        NOSIG=
201204030530 METAR LMML NIL=
201204030515 METAR LMML 030515Z 10007KT 6000 SCT008 15/15 Q1008 NOSIG=
201204030445 METAR LMML 030445Z 09008KT 060V120 6000 FEW008 15/14 Q1008
                        TEMPO 5000 BR BKN007=
201204030430 METAR LMML NIL=
201204030415 METAR LMML 030415Z 09008KT 7000 FEW010 15/14 Q1008 TEMPO
                        5000 BR BKN007=
201204030400 METAR LMML NIL=
201204030345 METAR LMML 030345Z 10009KT 7000 FEW010 15/14 Q1008 TEMPO
                        5000 BR BKN007=
201204030330 METAR LMML NIL=
201204030315 METAR LMML 030315Z 09009KT 7000 FEW010 15/14 Q1008 TEMPO
                        5000 BR BKN007=
201204030300 METAR LMML NIL=
201204030245 METAR LMML 030245Z 10009KT 9000 FEW010 15/14 Q1008 TEMPO
                        7000 BKN007=
201204030230 METAR LMML NIL=
201204030215 METAR LMML 030215Z 09010KT 9000 FEW010 15/13 Q1008 TEMPO
                        7000 BKN007=
201204030200 METAR LMML NIL=
201204030145 METAR LMML 030145Z 09010KT 060V120 9000 FEW010 15/14 Q1008
                        TEMPO 7000 BKN007=
201204030130 METAR LMML NIL=
201204030115 METAR LMML 030115Z 09010KT 060V120 9000 FEW010 14/14 Q1008
                        TEMPO 7000 BKN007=
201204030100 METAR LMML NIL=
201204030045 METAR LMML 030045Z 10010KT 9999 FEW010 15/14 Q1009 TEMP0
                        7000 BKN007=
201204030030 METAR LMML NIL=
201204030015 METAR LMML 030015Z 10011KT 070V130 9999 FEW010 15/14 Q1009
                        TEMP0 7000 BKN007=
201204030000 METAR LMML NIL=
201204022345 METAR LMML 022345Z 09011KT 9999 FEW008 15/14 Q1009 TEMP0
                        7000 BKN007=
201204022330 METAR LMML NIL=
201204022315 METAR LMML 022315Z 09009KT 060V130 9999 FEW010 15/14 Q1010
                        TEMP0 7000 BKN007=
201204022300 METAR LMML NIL=
201204022245 METAR LMML 022245Z 09010KT 9999 FEW015 15/14 Q1010 TEMPO
                        SCT010=
201204022230 METAR LMML NIL=
201204022215 METAR LMML 022215Z 10010KT 060V120 9999 FEW015 15/13 Q1010
                        TEMPO SCT010=
201204022200 METAR LMML NIL=
201204022145 METAR LMML 022145Z 10010KT CAVOK 15/13 Q1010 NOSIG=
201204022130 METAR LMML NIL=
201204022115 METAR LMML 022115Z 10011KT CAVOK 15/13 Q1010 NOSIG=
201204022100 METAR LMML NIL=
201204022045 METAR LMML 022045Z 10012KT CAVOK 15/13 Q1010 NOSIG=
201204022030 METAR LMML NIL=
201204022015 METAR LMML 022015Z 09012KT 060V120 CAVOK 15/13 Q1010 NOSIG=
201204022000 METAR LMML NIL=
201204021945 METAR LMML 021945Z 10012KT CAVOK 15/12 Q1011 NOSIG=
201204021930 METAR LMML NIL=
201204021915 METAR LMML 021915Z 09012KT CAVOK 15/12 Q1010 NOSIG=
201204021900 METAR LMML NIL=
201204021845 METAR LMML 021845Z 09012KT CAVOK 15/12 Q1010 NOSIG=
201204021830 METAR LMML NIL=
201204021815 METAR LMML 021815Z 09012KT CAVOK 15/12 Q1010 NOSIG=
201204021800 METAR LMML NIL=
201204021745 METAR LMML 021745Z 08011KT CAVOK 15/12 Q1010 NOSIG=
201204021715 METAR LMML 021715Z 09013KT CAVOK 15/11 Q1009 NOSIG=
201204021700 METAR LMML NIL=
201204021645 METAR LMML 021645Z 09013KT CAVOK 16/11 Q1010 NOSIG=
201204021630 METAR LMML NIL=
201204021615 METAR LMML 021615Z 09013KT CAVOK 16/12 Q1010 NOSIG=
201204021600 METAR LMML NIL=
201204021545 METAR LMML 021545Z 09012KT CAVOK 17/12 Q1010 NOSIG=
201204021530 METAR LMML NIL=
201204021515 METAR LMML 021515Z 09013KT 060V120 CAVOK 17/12 Q1010 NOSIG=
201204021500 METAR LMML NIL=
201204021445 METAR LMML 021445Z 09016KT 050V120 9999 FEW011 17/12 Q1010
                        NOSIG=
201204021430 METAR LMML NIL=
201204021415 METAR LMML 021415Z 09013KT 9999 FEW011 SCT250 17/12 Q1010
                        NOSIG=
201204021400 METAR LMML NIL=
201204021345 METAR LMML 021345Z 09016KT 9999 FEW011 SCT250 17/12 Q1011
                        NOSIG=
201204021330 METAR LMML NIL=
201204021315 METAR LMML 021315Z 09014KT 9999 FEW009 SCT250 18/12 Q1011
                        NOSIG=
201204021300 METAR LMML NIL=
201204021245 METAR LMML 021245Z 09014KT 060V120 9999 FEW009 SCT250 18/12
                        Q1011 NOSIG=
201204021230 METAR LMML NIL=
201204021215 METAR LMML 021215Z 10013KT 060V120 9999 FEW009 SCT250 18/09
                        Q1012 NOSIG=
201204021200 METAR LMML NIL=
201204021145 METAR LMML 021145Z 09014KT 060V130 9999 FEW009 SCT250 18/13
                        Q1012 NOSIG=
201204021130 METAR LMML NIL=
201204021115 METAR LMML 021115Z 08012KT 040V120 9999 FEW010 SCT250 18/12
                        Q1012 NOSIG=
201204021100 METAR LMML NIL=
201204021045 METAR LMML 021045Z 07013KT 9999 FEW009 FEW250 18/12 Q1012
                        NOSIG=
201204021030 METAR LMML NIL=
201204021015 METAR LMML 021015Z 08011KT 9999 FEW009 SCT110 18/13 Q1012
                        NOSIG=
201204021000 METAR LMML NIL=
201204020945 METAR LMML 020945Z 07010KT 040V100 9999 FEW009 SCT110 18/13
                        Q1013 NOSIG=
201204020930 METAR LMML NIL=
201204020915 METAR LMML 020915Z 09010KT 060V120 9999 FEW007 SCT110 17/11
                        Q1013 NOSIG=
201204020900 METAR LMML NIL=
201204020845 METAR LMML 020845Z 09008KT 9999 FEW007 SCT120 18/12 Q1013
                        NOSIG=
201204020830 METAR LMML NIL=
201204020815 METAR LMML 020815Z 10008KT 9999 FEW007 SCT080 17/13 Q1013
                        NOSIG=
201204020800 METAR LMML NIL=
201204020745 METAR LMML 020745Z 08006KT 050V130 9999 FEW015 BKN250 17/14
                        Q1012 NOSIG=
201204020730 METAR LMML NIL=
201204020715 METAR LMML 020715Z 08004KT 9000 FEW011 BKN250 16/14 Q1012
                        BECMG 9999=
201204020700 METAR LMML NIL=
201204020645 METAR LMML 020645Z 06004KT 030V090 7000 FEW020 BKN250 15/15
                        Q1012 BECMG 9999=
201204020630 METAR LMML NIL=
201204020615 METAR LMML 020615Z 12003KT 9000 FEW020 BKN250 14/14 Q1012
                        BECMG 9999=
201204020600 METAR LMML NIL=
201204020545 METAR LMML 020545Z 16004KT 130V190 8000 FEW020 BKN250 13/13
                        Q1013 BECMG 9999=
201204020530 METAR LMML NIL=
201204020515 METAR LMML 020515Z 16003KT 8000 NSC 13/13 Q1012 BECMG CAVOK=
201204020500 METAR LMML NIL=
201204020445 METAR LMML 020445Z 13004KT 8000 NSC 12/12 Q1012 NOSIG=
201204020430 METAR LMML NIL=
201204020415 METAR LMML 020415Z 14003KT CAVOK 12/11 Q1012 NOSIG=
201204020400 METAR LMML NIL=
201204020345 METAR LMML 020345Z VRB01KT CAVOK 11/10 Q1011 NOSIG=
201204020330 METAR LMML NIL=
201204020315 METAR LMML 020315Z VRB02KT CAVOK 11/10 Q1011 NOSIG=
201204020300 METAR LMML NIL=
201204020245 METAR LMML 020245Z VRB01KT CAVOK 11/09 Q1011 NOSIG=
201204020230 METAR LMML NIL=
201204020215 METAR LMML 020215Z VRB02KT CAVOK 12/10 Q1012 NOSIG=
201204020200 METAR LMML NIL=
201204020145 METAR LMML 020145Z VRB02KT CAVOK 12/10 Q1012 NOSIG=
201204020130 METAR LMML NIL=
201204020115 METAR LMML 020115Z VRB02KT CAVOK 12/11 Q1012 NOSIG=
201204020100 METAR LMML NIL=
201204020045 METAR LMML 020045Z 20004KT 160V240 CAVOK 12/12 Q1011 NOSIG=
201204020030 METAR LMML NIL=
201204020015 METAR LMML 020015Z 20004KT 170V230 CAVOK 12/12 Q1011 NOSIG=
201204020000 METAR LMML NIL=
201204012345 METAR LMML 012345Z 20005KT 170V240 CAVOK 13/13 Q1011 NOSIG=
201204012330 METAR LMML NIL=
201204012315 METAR LMML 012315Z 20004KT 170V230 CAVOK 13/13 Q1011 NOSIG=
201204012300 METAR LMML NIL=
201204012245 METAR LMML 012245Z 18003KT CAVOK 13/13 Q1011 NOSIG=
201204012230 METAR LMML NIL=
201204012215 METAR LMML 012215Z 19004KT CAVOK 13/13 Q1011 NOSIG=
201204012200 METAR LMML NIL=
201204012145 METAR LMML 012145Z 21004KT CAVOK 13/13 Q1012 NOSIG=
201204012130 METAR LMML NIL=
201204012115 METAR LMML 012115Z 21003KT CAVOK 13/13 Q1012 NOSIG=
201204012100 METAR LMML NIL=
201204012045 METAR LMML 012045Z 21005KT 180V240 CAVOK 13/13 Q1012 NOSIG=
201204012030 METAR LMML NIL=
201204012015 METAR LMML 012015Z 20003KT CAVOK 14/12 Q1012 NOSIG=
201204012000 METAR LMML NIL=
201204011945 METAR LMML 011945Z VRB01KT CAVOK 14/12 Q1012 NOSIG=
201204011930 METAR LMML NIL=
201204011915 METAR LMML 011915Z 21006KT 170V240 CAVOK 14/12 Q1011 NOSIG=
201204011900 METAR LMML NIL=
201204011845 METAR LMML 011845Z 22005KT 170V250 9999 FEW012 BKN250 14/12
                        Q1011 NOSIG=
201204011830 METAR LMML NIL=
201204011815 METAR LMML 011815Z 22006KT CAVOK 14/12 Q1010 NOSIG=
201204011745 METAR LMML 011745Z 21006KT 170V250 CAVOK 14/13 Q1010 NOSIG=
201204011730 METAR LMML NIL=
201204011715 METAR LMML 011715Z 19003KT CAVOK 15/12 Q1010 NOSIG=
201204011700 METAR LMML NIL=
201204011645 METAR LMML 011645Z 22005KT 170V270 CAVOK 16/12 Q1010 NOSIG=
201204011630 METAR LMML NIL=
201204011615 METAR LMML 011615Z 23008KT 180V280 CAVOK 16/12 Q1010 NOSIG=
201204011600 METAR LMML NIL=
201204011545 METAR LMML 011545Z 24010KT 190V280 9999 FEW020 BKN250 17/11
                        Q1010 NOSIG=
201204011515 METAR LMML 011515Z 24009KT 220V290 CAVOK 17/10 Q1010 NOSIG=
201204011500 METAR LMML NIL=
201204011445 METAR LMML 011445Z 24011KT 200V270 9999 FEW020 BKN250 17/12
                        Q1010 NOSIG=
201204011430 METAR LMML NIL=
201204011415 METAR LMML 011415Z 24012KT 210V280 9999 FEW025 BKN250 17/12
                        Q1010 NOSIG=
201204011400 METAR LMML NIL=
201204011345 METAR LMML 011345Z 24011KT 200V280 9999 FEW025 SCT250 17/12
                        Q1010 NOSIG=
201204011315 METAR LMML 011315Z 24012KT 210V280 9999 FEW025 SCT250 17/12
                        Q1011 NOSIG=
201204011300 METAR LMML NIL=
201204011245 METAR LMML 011245Z 23011KT 190V260 9999 FEW025 SCT250 18/12
                        Q1011 NOSIG=
201204011230 METAR LMML NIL=
201204011215 METAR LMML 011215Z 23010KT 200V270 9999 FEW025 SCT250 18/12
                        Q1011 NOSIG=
201204011200 METAR LMML NIL=
201204011145 METAR LMML 011145Z 23011KT 190V280 9999 FEW025 FEW250 17/13
                        Q1011 NOSIG=
201204011130 METAR LMML NIL=
201204011115 METAR LMML 011115Z 24010KT 200V280 9999 FEW025 18/13 Q1011
                        NOSIG=
201204011100 METAR LMML NIL=
201204011045 METAR LMML 011045Z 24010KT 210V280 9999 FEW025 18/12 Q1012
                        NOSIG=
201204011030 METAR LMML NIL=
201204011015 METAR LMML 011015Z 24010KT 160V280 9999 FEW025 18/13 Q1012
                        NOSIG=
201204011000 METAR LMML NIL=
201204010945 METAR LMML 010945Z 24010KT 190V280 9999 FEW025 17/12 Q1012
                        NOSIG=
201204010930 METAR LMML NIL=
201204010915 METAR LMML 010915Z 24009KT 190V280 9999 FEW025 18/11 Q1012
                        NOSIG=
201204010845 METAR LMML 010845Z 25007KT 210V290 9999 FEW020 18/08 Q1012
                        NOSIG=
201204010830 METAR LMML NIL=
201204010815 METAR LMML 010815Z 24008KT 200V270 CAVOK 17/11 Q1011 NOSIG=
201204010800 METAR LMML NIL=
201204010745 METAR LMML 010745Z 24008KT 200V270 CAVOK 16/12 Q1011 NOSIG=
201204010730 METAR LMML NIL=
201204010715 METAR LMML 010715Z 24007KT 200V270 9999 FEW012 16/12 Q1011
                        NOSIG=
201204010700 METAR LMML NIL=
201204010645 METAR LMML 010645Z 24007KT 210V270 9999 FEW012 15/13 Q1011
                        NOSIG=
201204010630 METAR LMML NIL=
201204010615 METAR LMML 010615Z 23006KT 200V280 9999 FEW012 14/13 Q1011
                        NOSIG=
201204010600 METAR LMML NIL=
201204010545 METAR LMML 010545Z 23004KT 200V270 9999 FEW012 13/12 Q1011
                        NOSIG=
201204010530 METAR LMML NIL=
201204010515 METAR LMML 010515Z 25005KT 220V280 9999 FEW012 13/12 Q1011
                        NOSIG=
201204010445 METAR LMML 010445Z 25007KT 220V280 9999 FEW014 12/12 Q1010
                        NOSIG RMK DISTANT VA CLOUD TO N-NE=
201204010430 METAR LMML NIL=
201204010415 METAR LMML 010415Z 25006KT 220V280 9999 FEW014 12/11 Q1010
                        NOSIG=
201204010400 METAR LMML NIL=
201204010345 METAR LMML 010345Z 25005KT 230V290 9999 FEW014 12/11 Q1010
                        NOSIG=
201204010330 METAR LMML NIL=
201204010315 METAR LMML 010315Z 25006KT 9999 FEW014 12/11 Q1010 NOSIG=
201204010245 METAR LMML 010245Z 25006KT 220V280 9999 FEW014 12/11 Q1010
                        NOSIG=
201204010230 METAR LMML NIL=
201204010215 METAR LMML 010215Z 25007KT 9999 FEW014 12/10 Q1010 NOSIG=
201204010200 METAR LMML NIL=
201204010145 METAR LMML 010145Z 26006KT 9999 FEW014 12/09 Q1011 NOSIG=
201204010130 METAR LMML NIL=
201204010115 METAR LMML 010115Z 27006KT 9999 FEW014 12/10 Q1011 NOSIG=
201204010100 METAR LMML NIL=
201204010045 METAR LMML 010045Z 26007KT 9999 FEW014 12/10 Q1011 NOSIG=
201204010030 METAR LMML NIL=
201204010015 METAR LMML 010015Z 25006KT 9999 FEW014 12/10 Q1011 NOSIG=
