##########################################################
# Query made at 01/18/2013 15:56:54 UTC
# Time interval: from 04/01/2010 00:00  to 05/01/2010 23:59  UTC
##########################################################

##########################################################
# LMML, Luqa (Malta)
# WMO index: 16597
# Latitude 35-51N. Longitude 014-29E. Altitude 91 m.
##########################################################

###################################
#  METAR/SPECI from LMML
###################################
201004302345 METAR LMML 302345Z VRB02KT CAVOK 14/11 Q1018 NOSIG=
201004302330 METAR LMML NIL=
201004302315 METAR LMML 302315Z VRB02KT CAVOK 14/11 Q1019 NOSIG=
201004302300 METAR LMML NIL=
201004302245 METAR LMML 302245Z VRB02KT CAVOK 14/11 Q1019 NOSIG=
201004302230 METAR LMML NIL=
201004302215 METAR LMML 302215Z VRB02KT CAVOK 15/11 Q1019 NOSIG=
201004302200 METAR LMML NIL=
201004302145 METAR LMML 302145Z VRB02KT CAVOK 15/11 Q1019 NOSIG=
201004302130 METAR LMML NIL=
201004302115 METAR LMML 302115Z VRB03KT CAVOK 15/11 Q1019 NOSIG=
201004302100 METAR LMML NIL=
201004302045 METAR LMML 302045Z VRB03KT CAVOK 15/11 Q1019 NOSIG=
201004302030 METAR LMML NIL=
201004302015 METAR LMML 302015Z VRB03KT CAVOK 16/11 Q1019 NOSIG=
201004302000 METAR LMML NIL=
201004301945 METAR LMML 301945Z VRB03KT CAVOK 16/12 Q1019 NOSIG=
201004301930 METAR LMML NIL=
201004301915 METAR LMML 301915Z VRB02KT CAVOK 16/12 Q1019 NOSIG=
201004301900 METAR LMML NIL=
201004301845 METAR LMML 301845Z VRB02KT CAVOK 17/12 Q1019 NOSIG=
201004301830 METAR LMML NIL=
201004301815 METAR LMML 301815Z VRB03KT CAVOK 17/12 Q1018 NOSIG=
201004301800 METAR LMML NIL=
201004301745 METAR LMML 301745Z 21004KT 9999 FEW030 17/12 Q1018 NOSIG=
201004301730 METAR LMML NIL=
201004301715 METAR LMML 301715Z 19004KT 160V250 CAVOK 18/11 Q1018 NOSIG=
201004301700 METAR LMML NIL=
201004301645 METAR LMML 301645Z VRB03KT 9999 FEW036 19/12 Q1018 NOSIG=
201004301630 METAR LMML NIL=
201004301615 METAR LMML 301615Z VRB02KT 9999 FEW040 20/11 Q1018 NOSIG=
201004301600 METAR LMML NIL=
201004301545 METAR LMML 301545Z VRB02KT 9999 FEW040 20/11 Q1018 NOSIG=
201004301530 METAR LMML NIL=
201004301515 METAR LMML 301515Z 19006KT 170V250 9999 FEW040 20/11 Q1018
                        NOSIG=
201004301500 METAR LMML NIL=
201004301445 METAR LMML 301445Z 19004KT 140V280 9999 FEW041 20/11 Q1018
                        NOSIG=
201004301430 METAR LMML NIL=
201004301415 METAR LMML 301415Z 17005KT 100V250 9999 FEW041 21/11 Q1019
                        NOSIG=
201004301345 METAR LMML 301345Z VRB03KT 9999 FEW036 20/11 Q1019 NOSIG=
201004301315 METAR LMML 301315Z 27006KT 9999 FEW037 21/11 Q1019 NOSIG=
201004301300 METAR LMML NIL=
201004301245 METAR LMML 301245Z 15006KT 020V210 9999 FEW038 21/11 Q1019
                        NOSIG=
201004301230 METAR LMML NIL=
201004301215 METAR LMML 301215Z 11006KT 020V220 9999 FEW036 21/11 Q1020
                        NOSIG=
201004301200 METAR LMML NIL=
201004301145 METAR LMML 301145Z 10007KT 050V160 9999 FEW032 21/11 Q1020
                        NOSIG=
201004301130 METAR LMML NIL=
201004301115 METAR LMML 301115Z VRB03KT 9999 FEW032 21/11 Q1020 NOSIG=
201004301100 METAR LMML NIL=
201004301045 METAR LMML 301045Z 13006KT 080V190 9999 FEW034 20/11 Q1020
                        NOSIG=
201004301015 METAR LMML 301015Z 13008KT 070V180 9999 FEW025 20/12 Q1020
                        NOSIG=
201004301000 METAR LMML NIL=
201004300945 METAR LMML 300945Z 08006KT 020V130 9999 FEW025 20/10 Q1020
                        NOSIG=
201004300915 METAR LMML 300915Z 11005KT 050V160 9999 FEW025 20/11 Q1020
                        NOSIG=
201004300845 METAR LMML 300845Z 13007KT 090V170 9999 FEW025 19/12 Q1020
                        NOSIG=
201004300830 METAR LMML NIL=
201004300815 METAR LMML 300815Z 08006KT 030V120 9999 FEW025 19/12 Q1020
                        NOSIG=
201004300800 METAR LMML NIL=
201004300745 METAR LMML 300745Z 09007KT 040V140 9999 FEW020 19/12 Q1019
                        NOSIG=
201004300730 METAR LMML NIL=
201004300715 METAR LMML 300715Z 09007KT 040V140 9999 FEW020 18/12 Q1019
                        NOSIG=
201004300700 METAR LMML NIL=
201004300645 METAR LMML 300645Z 07006KT 030V120 9999 FEW020 18/12 Q1019
                        NOSIG=
201004300630 METAR LMML NIL=
201004300615 METAR LMML 300615Z 06006KT 020V090 9999 FEW015 17/13 Q1019
                        NOSIG=
201004300600 METAR LMML NIL=
201004300545 METAR LMML 300545Z 04004KT 010V080 9999 FEW015 16/13 Q1019
                        NOSIG=
201004300530 METAR LMML NIL=
201004300515 METAR LMML 300515Z VRB03KT 9999 FEW015 14/13 Q1019 NOSIG=
201004300500 METAR LMML NIL=
201004300445 METAR LMML 300445Z VRB01KT 9999 FEW013 13/12 Q1018 NOSIG=
201004300430 METAR LMML NIL=
201004300415 METAR LMML 300415Z VRB02KT 9999 FEW013 13/12 Q1018 NOSIG=
201004300400 METAR LMML NIL=
201004300345 METAR LMML 300345Z VRB01KT 9999 FEW013 13/12 Q1018 NOSIG=
201004300330 METAR LMML NIL=
201004300315 METAR LMML 300315Z VRB01KT 9999 FEW015 13/12 Q1018 NOSIG=
201004300300 METAR LMML NIL=
201004300245 METAR LMML 300245Z VRB02KT 9999 FEW014 13/12 Q1018 NOSIG=
201004300215 METAR LMML 300215Z VRB01KT 9999 FEW014 13/12 Q1018 NOSIG=
201004300200 METAR LMML NIL=
201004300145 METAR LMML 300145Z VRB02KT 9999 FEW014 14/12 Q1018 NOSIG=
201004300130 METAR LMML NIL=
201004300115 METAR LMML 300115Z VRB03KT 9999 FEW013 14/13 Q1018 NOSIG=
201004300100 METAR LMML NIL=
201004300045 METAR LMML 300045Z VRB02KT 9999 FEW011 14/13 Q1018 NOSIG=
201004300030 METAR LMML NIL=
201004300015 METAR LMML 300015Z VRB03KT 9999 FEW013 14/13 Q1018 NOSIG=
201004300000 METAR LMML NIL=
201004292345 METAR LMML 292345Z VRB01KT 9999 FEW012 SCT120 14/13 Q1019
                        NOSIG=
201004292315 METAR LMML 292315Z VRB02KT 9999 FEW012 SCT120 15/13 Q1019
                        NOSIG=
201004292300 METAR LMML NIL=
201004292245 METAR LMML 292245Z VRB01KT 9999 FEW012 SCT120 15/13 Q1019
                        NOSIG=
201004292230 METAR LMML NIL=
201004292215 METAR LMML 292215Z VRB02KT 9999 FEW012 SCT120 15/13 Q1019
                        NOSIG=
201004292200 METAR LMML NIL=
201004292145 METAR LMML 292145Z VRB03KT 9999 FEW012 SCT120 15/13 Q1019
                        NOSIG=
201004292130 METAR LMML NIL=
201004292115 METAR LMML 292115Z 11005KT 9999 FEW012 BKN120 15/13 Q1019
                        NOSIG=
201004292100 METAR LMML NIL=
201004292045 METAR LMML 292045Z 14004KT 120V180 9999 FEW012 BKN080 16/14
                        Q1018 NOSIG=
201004292030 METAR LMML NIL=
201004292015 METAR COR LMML 292015Z 09005KT 070V140 9999 FEW010 BKN080
                        16/14 Q1019 NOSIG=
201004292000 METAR LMML NIL=
201004291945 METAR LMML 291945Z 05008KT 020V090 9999 FEW011 BKN090 17/14
                        Q1019 TEMPO 9000 BKN009=
201004291930 METAR LMML NIL=
201004291915 METAR LMML 291915Z 04007KT 010V070 9999 SCT009 BKN100 17/15
                        Q1019 TEMPO 9000 BKN009=
201004291900 METAR LMML NIL=
201004291845 METAR LMML 291845Z 02006KT 9999 SCT011 BKN110 17/14 Q1018
                        TEMPO 9000 SHRA SCT011TCU=
201004291830 METAR LMML NIL=
201004291815 METAR LMML 291815Z 36005KT 310V030 9999 SCT011 BKN100 17/14
                        Q1018 TEMPO 9000 SHRA SCT011TCU=
201004291800 METAR LMML NIL=
201004291745 METAR LMML 291745Z 36006KT 330V030 9999 SCT014 BKN110 18/14
                        Q1018 NOSIG=
201004291730 METAR LMML NIL=
201004291715 METAR LMML 291715Z 35007KT 9999 SCT018 BKN110 18/14 Q1018
                        NOSIG=
201004291700 METAR LMML NIL=
201004291645 METAR LMML 291645Z 28006KT 240V310 9999 FEW020 BKN110 18/14
                        Q1018 NOSIG=
201004291630 METAR LMML NIL=
201004291615 METAR LMML 291615Z 28008KT 240V310 9999 FEW025 BKN120 19/14
                        Q1018 NOSIG=
201004291600 METAR LMML NIL=
201004291545 METAR LMML 291545Z 27006KT 210V320 9999 FEW025 BKN120 21/13
                        Q1018 NOSIG=
201004291530 METAR LMML NIL=
201004291515 METAR LMML 291515Z 26005KT 190V320 9999 FEW025 SCT120 21/13
                        Q1018 NOSIG=
201004291500 METAR LMML NIL=
201004291445 METAR LMML 291445Z 23005KT 200V300 9999 FEW027 21/13 Q1018
                        NOSIG=
201004291430 METAR LMML NIL=
201004291415 METAR LMML 291415Z 23006KT 180V280 9999 FEW027 21/13 Q1018
                        NOSIG=
201004291345 METAR LMML 291345Z 22006KT 170V270 9999 FEW023 20/13 Q1018
                        NOSIG=
201004291330 METAR LMML NIL=
201004291315 METAR LMML 291315Z 05006KT 360V110 9999 FEW024 21/15 Q1019
                        NOSIG=
201004291300 METAR LMML NIL=
201004291245 METAR LMML 291245Z 05004KT 010V090 9999 FEW026 20/14 Q1019
                        NOSIG=
201004291230 METAR LMML NIL=
201004291215 METAR LMML 291215Z 04006KT 360V090 9999 FEW024 22/15 Q1019
                        NOSIG=
201004291200 METAR LMML NIL=
201004291145 METAR LMML 291145Z 04004KT 350V080 9999 SCT025 21/14 Q1019
                        NOSIG=
201004291130 METAR LMML NIL=
201004291115 METAR LMML 291115Z 04007KT 360V080 9999 SCT024 20/14 Q1020
                        NOSIG=
201004291100 METAR LMML NIL=
201004291045 METAR LMML 291045Z VRB03KT 9999 SCT024 21/14 Q1020 NOSIG=
201004291030 METAR LMML NIL=
201004291015 METAR LMML 291015Z 24004KT 9999 SCT027 21/13 Q1020 NOSIG=
201004291000 METAR LMML NIL=
201004290945 METAR LMML 290945Z VRB03KT 9999 SCT021 21/14 Q1020 NOSIG=
201004290915 METAR LMML 290915Z 03004KT 350V130 9999 SCT021 22/14 Q1020
                        NOSIG=
201004290900 METAR LMML NIL=
201004290845 METAR LMML 290845Z 05005KT 010V100 9999 SCT024 21/14 Q1020
                        NOSIG=
201004290830 METAR LMML NIL=
201004290815 METAR LMML 290815Z VRB03KT 9999 FEW025 20/13 Q1020=
201004290800 METAR LMML NIL=
201004290745 METAR LMML 290745Z 35004KT 270V030 9999 FEW017 20/14 Q1020
                        NOSIG=
201004290730 METAR LMML NIL=
201004290715 METAR LMML 290715Z 33004KT 300V030 9999 SCT015 18/14 Q1020
                        NOSIG=
201004290700 METAR LMML NIL=
201004290645 METAR LMML 290645Z 31004KT 260V350 9000 SCT012 17/14 Q1020
                        NOSIG=
201004290630 METAR LMML NIL=
201004290615 METAR LMML 290615Z 30006KT 6000 FEW010 16/15 Q1020 BECMG
                        9000=
201004290600 METAR LMML NIL=
201004290545 METAR LMML 290545Z 31004KT 4000 BR FEW010 16/15 Q1020 BECMG
                        7000=
201004290530 METAR LMML NIL=
201004290515 METAR LMML 290515Z 30004KT 3000 BR FEW010 15/14 Q1020 BECMG
                        5000=
201004290500 METAR LMML NIL=
201004290445 METAR LMML 290445Z VRB03KT 3000 BR BKN010 15/14 Q1019 TEMPO
                        2000 MIFG=
201004290438 SPECI LMML 290438Z VRB03KT 3000 BR BKN010 14/14 Q1019 TEMPO
                        2000 MIFG=
201004290430 METAR LMML NIL=
201004290415 METAR LMML 290415Z 29004KT 3000 BR SCT010 14/13 Q1019 TEMPO
                        2000 MIFG=
201004290400 METAR LMML NIL=
201004290345 METAR LMML 290345Z VRB03KT 5000 BR SCT009 14/13 Q1019 TEMPO
                        3000=
201004290330 METAR LMML NIL=
201004290315 METAR LMML 290315Z 28004KT 5000 BR BKN009 14/13 Q1019 TEMPO
                        3000=
201004290300 METAR LMML NIL=
201004290245 METAR LMML 290245Z 29004KT 5000 BR FEW016 14/13 Q1019 TEMPO
                        3000 BKN010=
201004290230 METAR LMML NIL=
201004290215 METAR LMML 290215Z VRB03KT 6000 FEW016 14/13 Q1020 TEMPO
                        5000 BKN010=
201004290200 METAR LMML NIL=
201004290145 METAR LMML 290145Z 29004KT 6000 FEW000 14/13 Q1020 TEMPO
                        5000 BKN010=
201004290130 METAR LMML NIL=
201004290115 METAR LMML 290115Z VRB03KT 7000 FEW016 SCT250 14/13 Q1020
                        TEMPO 5000 BKN010=
201004290100 METAR LMML NIL=
201004290045 METAR LMML 290045Z VRB03KT 9000 FEW016 SCT250 14/13 Q1020
                        TEMPO 5000 BKN010=
201004290030 METAR LMML NIL=
201004290015 METAR LMML 290015Z 32004KT 9000 FEW016 BKN250 14/12 Q1020
                        TEMPO 5000 BKN010=
201004290000 METAR LMML NIL=
201004282345 METAR LMML 282345Z VRB03KT 9000 FEW016 BKN250 14/13 Q1020
                        NOSIG=
201004282330 METAR LMML NIL=
201004282315 METAR LMML 282315Z VRB02KT 9000 FEW016 SCT250 14/13 Q1021
                        NOSIG=
201004282300 METAR LMML NIL=
201004282245 METAR LMML 282245Z VRB01KT 9000 FEW016 SCT250 15/13 Q1021
                        NOSIG=
201004282230 METAR LMML NIL=
201004282215 METAR LMML 282215Z VRB02KT 9000 FEW016 SCT250 15/13 Q1021
                        NOSIG=
201004282200 METAR LMML NIL=
201004282145 METAR LMML 282145Z VRB03KT 9000 FEW016 BKN250 15/13 Q1021
                        NOSIG=
201004282130 METAR LMML NIL=
201004282115 METAR LMML 282115Z 30004KT 9999 SCT018 BKN250 16/14 Q1021
                        NOSIG=
201004282100 METAR LMML NIL=
201004282045 METAR LMML 282045Z 33005KT 270V010 9999 BKN014 BKN250 16/14
                        Q1021 NOSIG=
201004282030 METAR LMML NIL=
201004282015 METAR LMML 282015Z 33005KT 310V010 9999 BKN013 BKN250 17/14
                        Q1021 NOSIG=
201004282000 METAR LMML NIL=
201004281945 METAR LMML 281945Z VRB02KT 9999 SCT013 BKN250 17/14 Q1021
                        TEMPO BKN013=
201004281930 METAR LMML NIL=
201004281915 METAR LMML 281915Z VRB03KT 9999 SCT014 BKN250 17/14 Q1020
                        TEMPO BKN013=
201004281900 METAR LMML NIL=
201004281845 METAR LMML 281845Z VRB03KT 9999 BKN016 BKN250 17/14 Q1020
                        NOSIG=
201004281830 METAR LMML NIL=
201004281815 METAR LMML 281815Z 05004KT 020V100 9999 BKN016 17/14 Q1020
                        NOSIG=
201004281800 METAR LMML NIL=
201004281745 METAR LMML 281745Z 01005KT 340V040 9999 BKN015 BKN250 18/14
                        Q1020 NOSIG=
201004281730 METAR LMML NIL=
201004281715 METAR LMML 281715Z 01006KT 9999 SCT017 BKN250 18/14 Q1020
                        NOSIG=
201004281700 METAR LMML NIL=
201004281645 METAR LMML 281645Z 01005KT 340V040 9999 SCT018 BKN250 18/14
                        Q1020 NOSIG=
201004281630 METAR LMML NIL=
201004281615 METAR LMML 281615Z 25005KT 200V320 9999 SCT020 SCT250 18/14
                        Q1020 NOSIG=
201004281545 METAR LMML 281545Z 21007KT 160V240 9999 SCT020 19/14 Q1019
                        NOSIG=
201004281530 METAR LMML NIL=
201004281515 METAR LMML 281515Z 22005KT 170V290 9999 SCT021 19/14 Q1019
                        NOSIG=
201004281500 METAR LMML NIL=
201004281445 METAR LMML 281445Z 20004KT 140V270 9999 BKN017 20/15 Q1020
                        NOSIG=
201004281430 METAR LMML NIL=
201004281415 METAR LMML 281415Z 20005KT 160V260 9999 BKN018 20/14 Q1020
                        NOSIG=
201004281400 METAR LMML NIL=
201004281345 METAR LMML 281345Z 18004KT 140V260 9999 BKN017 19/15 Q1020
                        TEMPO BKN014=
201004281330 METAR LMML NIL=
201004281315 METAR LMML 281315Z 17004KT 110V230 9999 SCT014 BKN019 19/14
                        Q1020 TEMPO BKN014=
201004281245 METAR LMML 281245Z 12005KT 060V170 9999 SCT014 BKN017 19/14
                        Q1020 TEMPO BKN014=
201004281230 METAR LMML NIL=
201004281215 METAR LMML 281215Z 15005KT 100V190 9999 SCT014 BKN017 19/14
                        Q1021 TEMPO BKN014=
201004281200 METAR LMML NIL=
201004281145 METAR LMML 281145Z VRB03KT 9999 BKN016 20/14 Q1021 NOSIG=
201004281130 METAR LMML NIL=
201004281115 METAR LMML 281115Z 04005KT 360V130 9999 BKN016 19/14 Q1021
                        NOSIG=
201004281100 METAR LMML NIL=
201004281045 METAR LMML 281045Z 02004KT 340V080 9999 BKN017 20/14 Q1021
                        NOSIG=
201004281030 METAR LMML NIL=
201004281015 METAR LMML 281015Z 10004KT 040V160 9999 BKN018 19/14 Q1021
                        NOSIG=
201004281000 METAR LMML NIL=
201004280945 METAR LMML 280945Z VRB03KT 9999 BKN019 19/14 Q1021 NOSIG=
201004280930 METAR LMML NIL=
201004280915 METAR LMML 280915Z 07004KT 330V130 9999 BKN018 19/14 Q1021
                        NOSIG=
201004280845 METAR LMML 280845Z VRB03KT 9999 BKN019 19/14 Q1021 NOSIG=
201004280830 METAR LMML NIL=
201004280815 METAR LMML 280815Z VRB02KT 9999 BKN018 19/13 Q1021 TEMPO
                        BKN015=
201004280745 METAR LMML 280745Z VRB02KT 9999 BKN020 19/13 Q1021 TEMPO
                        BKN015=
201004280730 METAR LMML NIL=
201004280715 METAR LMML 280715Z VRB03KT 9000 SCT015 18/14 Q1021 TEMPO
                        BKN015=
201004280700 METAR LMML NIL=
201004280645 METAR LMML 280645Z 34006KT 7000 SCT012 17/14 Q1021 TEMPO
                        BKN011=
201004280630 METAR LMML NIL=
201004280615 METAR LMML 280615Z VRB03KT 5000 BR FEW012 SCT250 16/15 Q1020
                        TEMPO BKN010=
201004280600 METAR LMML NIL=
201004280545 METAR LMML 280545Z VRB02KT 5000 BR FEW011 SCT250 15/14 Q1020
                        TEMPO BKN010=
201004280530 METAR LMML NIL=
201004280515 METAR LMML 280515Z VRB03KT 5000 BR FEW011 SCT250 14/14 Q1020
                        TEMPO BKN010=
201004280500 METAR LMML NIL=
201004280445 METAR LMML 280445Z VRB02KT 5000 BR FEW009 SCT250 13/13 Q1020
                        TEMPO BKN008=
201004280430 METAR LMML NIL=
201004280415 METAR LMML 280415Z VRB02KT 5000 BR FEW008 SCT250 14/13 Q1019
                        TEMPO BKN008=
201004280400 METAR LMML NIL=
201004280345 METAR LMML 280345Z VRB01KT 9000 FEW012 SCT250 14/13 Q1019
                        TEMPO BKN008=
201004280330 METAR LMML NIL=
201004280315 METAR LMML 280315Z VRB02KT 9000 FEW012 SCT250 14/13 Q1019
                        TEMPO BKN008=
201004280300 METAR LMML NIL=
201004280245 METAR LMML 280245Z VRB02KT 9000 FEW012 SCT250 14/13 Q1019
                        NOSIG=
201004280230 METAR LMML NIL=
201004280215 METAR LMML 280215Z VRB01KT 9000 FEW012 SCT250 14/13 Q1019
                        NOSIG=
201004280200 METAR LMML NIL=
201004280145 METAR LMML 280145Z VRB01KT 9000 FEW012 SCT250 14/13 Q1020
                        NOSIG=
201004280130 METAR LMML NIL=
201004280115 METAR LMML 280115Z VRB03KT 9000 FEW012 14/13 Q1020 NOSIG=
201004280100 METAR LMML NIL=
201004280045 METAR LMML 280045Z VRB03KT 9999 FEW012 14/13 Q1020 NOSIG=
201004280030 METAR LMML NIL=
201004280015 METAR LMML 280015Z VRB03KT 9999 FEW012 SCT250 15/13 Q1020
                        NOSIG=
201004280000 METAR LMML NIL=
201004272345 METAR LMML 272345Z VRB03KT 9999 FEW012 SCT250 15/13 Q1020
                        NOSIG=
201004272330 METAR LMML NIL=
201004272315 METAR LMML 272315Z 25004KT 220V290 9999 FEW010 SCT250 15/13
                        Q1021 NOSIG=
201004272245 METAR LMML 272245Z 26004KT 9999 FEW010 SCT250 15/13 Q1021
                        NOSIG=
201004272215 METAR LMML 272215Z VRB03KT 9999 FEW010 15/13 Q1021 NOSIG=
201004272145 METAR LMML 272145Z 28004KT 9999 FEW010 15/13 Q1021 NOSIG=
201004272115 METAR LMML 272115Z VRB03KT 9999 FEW010 15/13 Q1021 NOSIG=
201004272045 METAR LMML 272045Z 31005KT 9999 BKN010 16/14 Q1021 NOSIG=
201004272015 METAR LMML 272015Z 33005KT 9999 FEW010 16/14 Q1021 NOSIG=
201004272000 METAR LMML NIL=
201004271945 METAR LMML 271945Z 33004KT 300V020 CAVOK 16/14 Q1020 NOSIG=
201004271930 METAR LMML NIL=
201004271915 METAR LMML 271915Z VRB03KT 9999 FEW012 SCT250 16/14 Q1020
                        NOSIG=
201004271845 METAR LMML 271845Z 30005KT 9999 FEW012 SCT250 16/14 Q1020
                        NOSIG=
201004271830 METAR LMML NIL=
201004271815 METAR LMML 271815Z 30004KT CAVOK 17/14 Q1020 NOSIG=
201004271800 METAR LMML NIL=
201004271745 METAR LMML 271745Z 34004KT 310V010 CAVOK 17/14 Q1020 NOSIG=
201004271730 METAR LMML NIL=
201004271715 METAR LMML 271715Z 33006KT CAVOK 18/14 Q1019 NOSIG=
201004271700 METAR LMML NIL=
201004271645 METAR LMML 271645Z 01004KT 320V050 CAVOK 20/14 Q1019 NOSIG=
201004271630 METAR LMML NIL=
201004271615 METAR LMML 271615Z 01004KT 340V040 CAVOK 21/14 Q1019 NOSIG=
201004271600 METAR LMML NIL=
201004271545 METAR LMML 271545Z 01006KT 330V040 CAVOK 21/14 Q1019 NOSIG=
201004271530 METAR LMML NIL=
201004271515 METAR LMML 271515Z 33006KT 290V010 CAVOK 21/14 Q1019 NOSIG=
201004271500 METAR LMML NIL=
201004271445 METAR LMML 271445Z 33007KT 290V010 CAVOK 21/14 Q1019 NOSIG=
201004271430 METAR LMML NIL=
201004271415 METAR LMML 271415Z 34007KT 300V010 9999 FEW025 21/14 Q1019
                        NOSIG=
201004271400 METAR LMML NIL=
201004271345 METAR LMML 271345Z 34008KT 290V080 9999 FEW025 22/15 Q1020
                        NOSIG RMK SMOKE ON APP TO RWY31=
201004271330 METAR LMML NIL=
201004271315 METAR LMML 271315Z 34008KT 310V020 9999 FEW025 22/14 Q1020
                        NOSIG=
201004271300 METAR LMML NIL=
201004271245 METAR LMML 271245Z 34008KT 310V020 9999 FEW025 22/14 Q1020
                        NOSIG=
201004271230 METAR LMML NIL=
201004271215 METAR LMML 271215Z 35009KT 320V030 9999 FEW025 22/14 Q1020
                        NOSIG=
201004271200 METAR LMML NIL=
201004271145 METAR LMML 271145Z 34008KT 300V030 9999 FEW025 22/14 Q1020
                        NOSIG=
201004271130 METAR LMML NIL=
201004271115 METAR LMML 271115Z 35008KT 310V030 9999 FEW025 22/15 Q1021
                        NOSIG=
201004271100 METAR LMML NIL=
201004271045 METAR LMML 271045Z 36007KT 310V050 9999 FEW025 22/14 Q1021
                        NOSIG=
201004271015 METAR LMML 271015Z 36007KT 320V040 9999 FEW020 23/14 Q1021
                        NOSIG=
201004270945 METAR LMML 270945Z 35006KT 300V040 9999 FEW020 22/14 Q1021
                        NOSIG=
201004270930 METAR LMML NIL=
201004270915 METAR LMML 270915Z 01005KT 300V050 9999 FEW020 23/14 Q1021
                        NOSIG=
201004270900 METAR LMML NIL=
201004270845 METAR LMML 270845Z 34005KT 290V030 9999 FEW015 21/13 Q1021
                        NOSIG=
201004270830 METAR LMML NIL=
201004270815 METAR LMML 270815Z 34004KT 280V040 9999 FEW012 21/14 Q1020
                        NOSIG=
201004270800 METAR LMML NIL=
201004270745 METAR LMML 270745Z 35004KT 310V030 9999 FEW010 20/14 Q1020
                        NOSIG=
201004270715 METAR LMML 270715Z VRB03KT 9000 FEW009 19/17 Q1020 NOSIG=
201004270700 METAR LMML NIL=
201004270645 METAR LMML 270645Z VRB02KT 7000 FEW004 17/17 Q1020 NOSIG=
201004270630 METAR LMML NIL=
201004270615 METAR LMML 270615Z VRB03KT 5000 FEW002 16/16 Q1020 NOSIG=
201004270600 METAR LMML NIL=
201004270545 METAR LMML 270545Z VRB02KT 1000 R13/0773VP1500U BR SCT001
                        15/15 Q1020 BECMG 5000=
201004270539 SPECI LMML 270539Z VRB02KT 1000 R13/0773V1044U BR SCT001
                        15/15 Q1020 TEMPO 5000 BR=
201004270530 METAR LMML NIL=
201004270515 METAR LMML 270515Z VRB02KT 0150 R13/0450N FG BKN001 15/14
                        Q1019 TEMPO 0500 FG BKN001=
201004270501 SPECI LMML 270501Z VRB03KT 0150 R13/0350N FG BKN001 15/14
                        Q1019 TEMPO 0500 FG BKN001=
201004270500 METAR LMML NIL=
201004270445 METAR LMML 270445Z VRB02KT 4000 BR FEW002 14/14 Q1019 BECMG
                        7000=
201004270430 METAR LMML NIL=
201004270415 METAR LMML 270415Z VRB03KT 5000 BR FEW003 15/14 Q1019 BECMG
                        7000=
201004270400 METAR LMML NIL=
201004270345 METAR COR LMML 270345Z VRB03KT 9000 FEW004 15/14 Q1019 NOSIG=
201004270330 METAR LMML NIL=
201004270315 METAR LMML 270315Z VRB01KT 9999 FEW004 15/14 Q1019 NOSIG=
201004270300 METAR LMML NIL=
201004270245 METAR LMML 270245Z VRB03KT 9999 FEW004 15/14 Q1019 NOSIG=
201004270230 METAR LMML NIL=
201004270215 METAR LMML 270215Z VRB02KT CAVOK 15/14 Q1019 NOSIG=
201004270200 METAR LMML NIL=
201004270145 METAR LMML 270145Z VRB01KT CAVOK 15/14 Q1019 NOSIG=
201004270130 METAR LMML NIL=
201004270115 METAR LMML 270115Z 26004KT 230V290 CAVOK 15/14 Q1019 NOSIG=
201004270100 METAR LMML NIL=
201004270045 METAR LMML 270045Z VRB03KT CAVOK 15/14 Q1019 NOSIG=
201004270030 METAR LMML NIL=
201004270015 METAR LMML 270015Z 26004KT 230V290 CAVOK 15/14 Q1020 NOSIG=
201004270000 METAR LMML NIL=
201004262345 METAR LMML 262345Z VRB03KT CAVOK 15/13 Q1020 NOSIG=
201004262330 METAR LMML NIL=
201004262315 METAR LMML 262315Z 27004KT 230V300 CAVOK 16/13 Q1020 NOSIG=
201004262300 METAR LMML NIL=
201004262245 METAR LMML 262245Z 31004KT CAVOK 16/13 Q1020 NOSIG=
201004262230 METAR LMML NIL=
201004262215 METAR LMML 262215Z 28005KT CAVOK 16/14 Q1020 NOSIG=
201004262200 METAR LMML NIL=
201004262145 METAR LMML 262145Z 28004KT 250V310 CAVOK 16/13 Q1020 NOSIG=
201004262130 METAR LMML NIL=
201004262115 METAR LMML 262115Z 31004KT CAVOK 16/13 Q1020 NOSIG=
201004262100 METAR LMML NIL=
201004262045 METAR LMML 262045Z VRB03KT CAVOK 17/13 Q1020 NOSIG=
201004262030 METAR LMML NIL=
201004262015 METAR LMML 262015Z VRB03KT CAVOK 17/13 Q1021 NOSIG=
201004262000 METAR LMML NIL=
201004261945 METAR LMML 261945Z VRB03KT CAVOK 17/13 Q1020 NOSIG=
201004261930 METAR LMML NIL=
201004261915 METAR LMML 261915Z VRB03KT CAVOK 17/13 Q1020 NOSIG=
201004261900 METAR LMML NIL=
201004261845 METAR LMML 261845Z VRB03KT CAVOK 17/13 Q1020 NOSIG=
201004261830 METAR LMML NIL=
201004261815 METAR LMML 261815Z 32004KT CAVOK 18/13 Q1020 NOSIG=
201004261800 METAR LMML NIL=
201004261745 METAR LMML 261745Z 31005KT CAVOK 18/13 Q1019 NOSIG=
201004261730 METAR LMML NIL=
201004261715 METAR LMML 261715Z 32008KT 290V350 CAVOK 19/14 Q1019 NOSIG=
201004261700 METAR LMML NIL=
201004261645 METAR LMML 261645Z 31009KT CAVOK 21/08 Q1019 NOSIG=
201004261630 METAR LMML NIL=
201004261615 METAR LMML 261615Z 31007KT 270V350 CAVOK 22/09 Q1019 NOSIG=
201004261600 METAR LMML NIL=
201004261545 METAR LMML 261545Z 33007KT CAVOK 22/09 Q1019 NOSIG=
201004261530 METAR LMML NIL=
201004261515 METAR LMML 261515Z 32007KT 290V360 CAVOK 22/09 Q1019 NOSIG=
201004261500 METAR LMML NIL=
201004261445 METAR LMML 261445Z 30007KT 240V340 CAVOK 22/09 Q1019 NOSIG=
201004261415 METAR LMML 261415Z 29007KT 240V330 CAVOK 23/09 Q1019 NOSIG=
201004261345 METAR LMML 261345Z 34004KT 290V060 CAVOK 24/08 Q1019 NOSIG=
201004261330 METAR LMML NIL=
201004261315 METAR LMML 261315Z 32006KT 240V030 CAVOK 23/08 Q1019 NOSIG=
201004261245 METAR LMML 261245Z 31005KT 180V010 CAVOK 23/09 Q1019 NOSIG=
201004261230 METAR LMML NIL=
201004261215 METAR LMML 261215Z 34005KT 280V070 CAVOK 23/09 Q1019 NOSIG=
201004261145 METAR LMML 261145Z 36006KT 310V050 CAVOK 23/09 Q1019 NOSIG=
201004261115 METAR LMML 261115Z 02006KT 340V080 CAVOK 24/09 Q1019 NOSIG=
201004261045 METAR LMML 261045Z 02006KT 340V130 CAVOK 23/10 Q1020 NOSIG=
201004261030 METAR LMML NIL=
201004261015 METAR LMML 261015Z 01005KT 300V080 CAVOK 23/10 Q1020 NOSIG=
201004261000 METAR LMML NIL=
201004260945 METAR LMML 260945Z VRB03KT 9999 FEW030 22/11 Q1020 NOSIG=
201004260930 METAR LMML NIL=
201004260915 METAR LMML 260915Z 01004KT 310V080 CAVOK 22/11 Q1020 NOSIG=
201004260900 METAR LMML NIL=
201004260845 METAR LMML 260845Z 02005KT 330V070 CAVOK 22/11 Q1020 NOSIG=
201004260830 METAR LMML NIL=
201004260815 METAR LMML 260815Z 36006KT 290V050 CAVOK 21/11 Q1020 NOSIG=
201004260745 METAR LMML 260745Z 36004KT 320V030 CAVOK 20/11 Q1020 NOSIG=
201004260730 METAR LMML NIL=
201004260715 METAR LMML 260715Z 36006KT 320V030 CAVOK 19/11 Q1019 NOSIG=
201004260700 METAR LMML NIL=
201004260645 METAR LMML 260645Z 34005KT 300V010 CAVOK 18/14 Q1019 NOSIG=
201004260630 METAR LMML NIL=
201004260615 METAR LMML 260615Z 31006KT 280V340 CAVOK 17/15 Q1019 NOSIG=
201004260545 METAR LMML 260545Z 32004KT CAVOK 16/14 Q1019 NOSIG=
201004260530 METAR LMML NIL=
201004260515 METAR LMML 260515Z 34005KT CAVOK 15/13 Q1019 NOSIG=
201004260500 METAR LMML NIL=
201004260445 METAR LMML 260445Z 32005KT CAVOK 14/12 Q1018 NOSIG=
201004260430 METAR LMML NIL=
201004260415 METAR LMML 260415Z 30004KT 280V340 CAVOK 14/13 Q1018 NOSIG=
201004260400 METAR LMML NIL=
201004260345 METAR LMML 260345Z 29006KT CAVOK 15/13 Q1018 NOSIG=
201004260330 METAR LMML NIL=
201004260315 METAR LMML 260315Z 30004KT CAVOK 14/13 Q1018 NOSIG=
201004260245 METAR LMML 260245Z VRB03KT CAVOK 14/13 Q1018 NOSIG=
201004260230 METAR LMML NIL=
201004260215 METAR LMML 260215Z VRB02KT CAVOK 14/12 Q1018 NOSIG=
201004260200 METAR LMML NIL=
201004260145 METAR LMML 260145Z 29004KT CAVOK 14/12 Q1018 NOSIG=
201004260130 METAR LMML NIL=
201004260115 METAR LMML 260115Z 30004KT CAVOK 14/11 Q1018 NOSIG=
201004260100 METAR LMML NIL=
201004260045 METAR LMML 260045Z VRB03KT 9999 FEW048 SCT070 15/11 Q1018
                        NOSIG=
201004260030 METAR LMML NIL=
201004260015 METAR LMML 260015Z VRB03KT 9999 SCT048 15/10 Q1018 NOSIG=
201004260000 METAR LMML NIL=
201004252345 METAR LMML 252345Z VRB03KT 9999 FEW049 14/10 Q1018 NOSIG=
201004252330 METAR LMML NIL=
201004252315 METAR LMML 252315Z VRB03KT 9999 FEW040 14/10 Q1018 NOSIG=
201004252300 METAR LMML NIL=
201004252245 METAR LMML 252245Z VRB03KT 9999 FEW040 15/10 Q1018 NOSIG=
201004252230 METAR LMML NIL=
201004252215 METAR LMML 252215Z 29004KT 9999 FEW040 15/11 Q1018 NOSIG=
201004252200 METAR LMML NIL=
201004252145 METAR LMML 252145Z 28004KT 9999 FEW040 SCT120 15/11 Q1018
                        NOSIG=
201004252130 METAR LMML NIL=
201004252115 METAR LMML 252115Z VRB02KT 9999 FEW040 SCT100 15/11 Q1018
                        NOSIG=
201004252100 METAR LMML NIL=
201004252045 METAR LMML 252045Z VRB01KT 9999 FEW040 16/11 Q1018 NOSIG=
201004252030 METAR LMML NIL=
201004252015 METAR LMML 252015Z VRB02KT 9999 FEW040 16/11 Q1018 NOSIG=
201004252000 METAR LMML NIL=
201004251945 METAR LMML 251945Z VRB03KT 9999 FEW039 16/11 Q1018 NOSIG=
201004251930 METAR LMML NIL=
201004251915 METAR LMML 251915Z 02005KT 180V060 9999 FEW039 SCT070 16/12
                        Q1018 NOSIG=
201004251900 METAR LMML NIL=
201004251845 METAR LMML 251845Z 01004KT 9999 FEW039 BKN070 17/12 Q1017
                        NOSIG=
201004251830 METAR LMML NIL=
201004251815 METAR LMML 251815Z 01007G18KT 9999 SCT046 BKN080 17/12 Q1017
                        NOSIG=
201004251800 METAR LMML NIL=
201004251745 METAR LMML 251745Z 02007KT 350V050 9999 SCT049 BKN080 17/12
                        Q1017 NOSIG=
201004251730 METAR LMML NIL=
201004251715 METAR LMML 251715Z 02007KT 9999 FEW016 BKN048 17/12 Q1017
                        NOSIG=
201004251700 METAR LMML NIL=
201004251645 METAR LMML 251645Z 03009KT 360V060 9999 BKN046 17/12 Q1017
                        NOSIG=
201004251630 METAR LMML NIL=
201004251615 METAR LMML 251615Z 03010KT 360V060 9999 FEW016 BKN045 17/12
                        Q1017 NOSIG=
201004251545 METAR LMML 251545Z 03009KT 360V070 9999 FEW016 BKN045 18/13
                        Q1017 NOSIG=
201004251515 METAR LMML 251515Z 03010KT 9999 SCT016 SCT034 BKN080 18/13
                        Q1016 NOSIG=
201004251500 METAR LMML NIL=
201004251445 METAR LMML 251445Z 01008KT 340V040 9999 SCT015 BKN040 19/14
                        Q1016 NOSIG=
201004251430 METAR LMML NIL=
201004251415 METAR LMML 251415Z 01009KT 350V050 9999 FEW015 BKN039 20/14
                        Q1016 NOSIG=
201004251345 METAR LMML 251345Z 36009KT 340V040 9999 FEW016 BKN035 20/14
                        Q1016 NOSIG=
201004251330 METAR LMML NIL=
201004251315 METAR LMML 251315Z 01008KT 330V040 9999 FEW014 BKN050 21/15
                        Q1016 NOSIG=
201004251300 METAR LMML NIL=
201004251245 METAR LMML 251245Z 01009KT 330V050 9999 FEW021 BKN050 21/14
                        Q1016 NOSIG=
201004251215 METAR LMML 251215Z 34011KT 9999 FEW020 21/14 Q1015 NOSIG=
201004251145 METAR LMML 251145Z 33010KT 9999 SCT017 SCT050 20/14 Q1015
                        NOSIG=
201004251130 METAR LMML NIL=
201004251115 METAR LMML 251115Z 32010KT 280V350 9999 SCT014 SCT032 19/14
                        Q1015 NOSIG=
201004251100 METAR LMML NIL=
201004251045 METAR LMML 251045Z 31011KT 280V340 9999 -SHRA BKN014 SCT032
                        18/15 Q1015 TEMPO SCT015=
201004251030 METAR LMML NIL=
201004251015 METAR LMML 251015Z 30012KT 9999 SCT012 BKN024 18/14 Q1016
                        NOSIG=
201004251000 METAR LMML NIL=
201004250945 METAR LMML 250945Z 29012KT 260V320 9999 SCT011 BKN030 17/14
                        Q1016 TEMPO BKN010=
201004250930 METAR LMML NIL=
201004250915 METAR LMML 250915Z 29011KT 240V310 9999 -RA SCT012 SCT019
                        OVC037 16/14 Q1016 NOSIG=
201004250900 METAR LMML NIL=
201004250845 METAR LMML 250845Z 29014KT 9999 BKN013 OVC039 17/14 Q1016
                        TEMPO SCT015=
201004250830 METAR LMML NIL=
201004250815 METAR LMML 250815Z 29012KT 250V310 9999 -RA BKN013 OVC041
                        17/14 Q1016 NOSIG=
201004250800 METAR LMML NIL=
201004250745 METAR LMML 250745Z 29012KT 250V320 9999 FEW014 BKN041 17/14
                        Q1015 NOSIG=
201004250730 METAR LMML NIL=
201004250715 METAR LMML 250715Z 29013KT 240V320 9000 -RA SCT013 BKN031
                        16/14 Q1015 TEMPO BKN013=
201004250700 METAR LMML NIL=
201004250645 METAR LMML 250645Z 28012KT 9000 SCT014 SCT019 BKN039 17/14
                        Q1015 TEMPO BKN014=
201004250630 METAR LMML NIL=
201004250615 METAR LMML 250615Z 29011KT 9999 FEW014 SCT019 BKN045 16/13
                        Q1015 NOSIG=
201004250600 METAR LMML NIL=
201004250545 METAR LMML 250545Z 29012KT 250V330 9999 FEW013 SCT020 16/14
                        Q1015 NOSIG=
201004250530 METAR LMML NIL=
201004250515 METAR LMML 250515Z 29012KT 260V320 9999 FEW012 BKN038 16/14
                        Q1014 NOSIG=
201004250500 METAR LMML NIL=
201004250445 METAR LMML 250445Z 29012KT 9999 SCT011 BKN040 16/14 Q1014
                        NOSIG=
201004250430 METAR LMML NIL=
201004250415 METAR LMML 250415Z 29013KT 9999 SCT011 BKN037 16/14 Q1014
                        NOSIG=
201004250400 METAR LMML NIL=
201004250345 METAR LMML 250345Z 29009KT 250V310 9999 SCT012 BKN030 16/14
                        Q1014 NOSIG=
201004250330 METAR LMML NIL=
201004250315 METAR LMML 250315Z 29009KT 9999 SCT014 SCT031 16/14 Q1014
                        NOSIG=
201004250300 METAR LMML NIL=
201004250245 METAR LMML 250245Z 29009KT 240V310 9999 SCT012 SCT030 16/14
                        Q1013 NOSIG=
201004250230 METAR LMML NIL=
201004250215 METAR LMML 250215Z 28011KT 9999 SCT013 BKN050 16/14 Q1014
                        NOSIG=
201004250200 METAR LMML NIL=
201004250145 METAR LMML 250145Z 28012KT 9999 SCT012 BKN050 16/14 Q1014
                        NOSIG=
201004250130 METAR LMML NIL=
201004250115 METAR LMML 250115Z 28012KT 9999 SCT012 BKN050 16/14 Q1014
                        NOSIG=
201004250100 METAR LMML NIL=
201004250045 METAR LMML 250045Z 28010KT 9999 BKN012 BKN050 16/14 Q1014
                        NOSIG=
201004250030 METAR LMML NIL=
201004250015 METAR LMML 250015Z 28013KT 250V310 9999 FEW012 BKN050 16/14
                        Q1014 NOSIG=
201004250000 METAR LMML NIL=
201004242345 METAR LMML 242345Z 29013KT 250V310 9999 BKN011 16/14 Q1015
                        NOSIG=
201004242330 METAR LMML NIL=
201004242315 METAR LMML 242315Z 29013KT 250V320 9999 -SHRA BKN012 16/14
                        Q1015 NOSIG=
201004242300 METAR LMML NIL=
201004242245 METAR LMML 242245Z 29012KT 250V320 9999 BKN012 16/14 Q1015
                        NOSIG=
201004242230 METAR LMML NIL=
201004242215 METAR LMML 242215Z 28013KT 9999 BKN012 16/14 Q1015 NOSIG=
201004242200 METAR LMML NIL=
201004242145 METAR LMML 242145Z 29012KT 260V320 9999 BKN013 16/14 Q1015
                        NOSIG=
201004242130 METAR LMML NIL=
201004242115 METAR LMML 242115Z 29014KT 260V320 9999 BKN013 16/14 Q1015
                        NOSIG=
201004242100 METAR LMML NIL=
201004242045 METAR LMML 242045Z 29016KT 9999 BKN013 17/14 Q1015 NOSIG=
201004242030 METAR LMML NIL=
201004242015 METAR LMML 242015Z 28015KT 9999 BKN016 17/14 Q1015 TEMPO
                        BKN014=
201004242000 METAR LMML NIL=
201004241945 METAR LMML 241945Z 28010KT 250V310 9999 SCT017 SCT024 17/14
                        Q1015 TEMPO BKN014=
201004241930 METAR LMML NIL=
201004241915 METAR LMML 241915Z 27009KT 240V300 9999 FEW016 SCT028 16/14
                        Q1015 NOSIG=
201004241900 METAR LMML NIL=
201004241845 METAR LMML 241845Z 28009KT 240V310 9999 FEW020 16/13 Q1014
                        NOSIG=
201004241830 METAR LMML NIL=
201004241815 METAR LMML 241815Z 29010KT 9999 FEW020 16/13 Q1014 NOSIG=
201004241800 METAR LMML NIL=
201004241745 METAR LMML 241745Z 29012KT 9999 FEW018 16/13 Q1014 NOSIG=
201004241730 METAR LMML NIL=
201004241715 METAR LMML 241715Z 29014KT 270V330 9999 FEW018 SCT250 17/13
                        Q1014 NOSIG=
201004241700 METAR LMML NIL=
201004241645 METAR LMML 241645Z 29014KT 9999 FEW018 18/13 Q1013 NOSIG=
201004241630 METAR LMML NIL=
201004241615 METAR LMML 241615Z 29017KT 260V320 9999 FEW018 SCT070 18/13
                        Q1014 NOSIG=
201004241600 METAR LMML NIL=
201004241545 METAR LMML 241545Z 30020KT 9999 FEW017 18/13 Q1013 NOSIG=
201004241530 METAR LMML NIL=
201004241515 METAR LMML 241515Z 29019KT 260V320 9999 SCT016 SCT030 19/14
                        Q1013 NOSIG=
201004241500 METAR LMML NIL=
201004241445 METAR LMML 241445Z 29018KT 250V320 9999 SCT020 BKN030 19/13
                        Q1013 NOSIG=
201004241430 METAR LMML NIL=
201004241415 METAR LMML 241415Z 29018KT 260V320 9999 SCT021 BKN029 19/12
                        Q1014 NOSIG=
201004241400 METAR LMML NIL=
201004241345 METAR LMML 241345Z 29016KT 240V340 9999 BKN024 SCT060 20/13
                        Q1013 NOSIG=
201004241330 METAR LMML NIL=
201004241315 METAR LMML 241315Z 29016KT 260V320 9999 BKN023 19/13 Q1013
                        NOSIG=
201004241300 METAR LMML NIL=
201004241245 METAR LMML 241245Z 29019KT 260V320 9999 SCT023 20/12 Q1013
                        NOSIG=
201004241230 METAR LMML NIL=
201004241215 METAR LMML 241215Z 28017KT 240V320 9999 SCT021 20/12 Q1013
                        NOSIG=
201004241200 METAR LMML NIL=
201004241145 METAR LMML 241145Z 29019KT 9999 SCT022 19/13 Q1013 NOSIG=
201004241130 METAR LMML NIL=
201004241115 METAR LMML 241115Z 29020KT 250V310 9999 SCT024 21/13 Q1013
                        NOSIG=
201004241100 METAR LMML NIL=
201004241045 METAR LMML 241045Z 30017KT 260V340 9999 FEW027 20/13 Q1013
                        NOSIG=
201004241030 METAR LMML NIL=
201004241015 METAR LMML 241015Z 30022KT 9999 FEW029 20/11 Q1013 NOSIG=
201004241000 METAR LMML NIL=
201004240945 METAR LMML 240945Z 30018KT 270V330 9999 FEW028 20/12 Q1013
                        NOSIG=
201004240930 METAR LMML NIL=
201004240915 METAR LMML 240915Z 30021KT 9999 FEW027 20/11 Q1013 NOSIG=
201004240900 METAR LMML NIL=
201004240845 METAR LMML 240845Z 30018KT 270V330 9999 SCT026 19/12 Q1013
                        NOSIG=
201004240830 METAR LMML NIL=
201004240815 METAR LMML 240815Z 31018KT 9999 SCT026 19/12 Q1013 NOSIG=
201004240800 METAR LMML NIL=
201004240745 METAR LMML 240745Z 31017KT 9999 SCT026 18/12 Q1013 NOSIG=
201004240730 METAR LMML NIL=
201004240715 METAR LMML 240715Z 31015KT 280V340 9999 FEW025 18/12 Q1013
                        NOSIG=
201004240700 METAR LMML NIL=
201004240645 METAR LMML 240645Z 31013KT 280V340 9999 FEW025 18/13 Q1013
                        NOSIG=
201004240630 METAR LMML NIL=
201004240615 METAR LMML 240615Z 32012KT 9999 FEW025 17/13 Q1012 NOSIG=
201004240545 METAR LMML 240545Z 30011KT CAVOK 16/14 Q1012 NOSIG=
201004240530 METAR LMML NIL=
201004240515 METAR LMML 240515Z 30009KT 9999 FEW012 15/14 Q1012 NOSIG=
201004240445 METAR LMML 240445Z 30007KT 280V340 9999 FEW012 15/14 Q1012
                        NOSIG=
201004240430 METAR LMML NIL=
201004240415 METAR LMML 240415Z 30005KT 8000 NSC 14/14 Q1011 NOSIG=
201004240400 METAR LMML NIL=
201004240345 METAR LMML 240345Z 30008KT 8000 NSC 15/14 Q1011 NOSIG=
201004240330 METAR LMML NIL=
201004240315 METAR LMML 240315Z 31008KT 7000 FEW012 15/14 Q1011 NOSIG=
201004240300 METAR LMML NIL=
201004240245 METAR LMML 240245Z 31009KT 7000 FEW012 15/14 Q1011 NOSIG=
201004240230 METAR LMML NIL=
201004240215 METAR LMML 240215Z 31009KT 7000 FEW012 15/14 Q1011 BECMG
                        9999=
201004240200 METAR LMML NIL=
201004240145 METAR LMML 240145Z 32007KT 9000 NSC 15/14 Q1011 BECMG 9999
                        FEW016=
201004240130 METAR LMML NIL=
201004240115 METAR LMML 240115Z 32006KT 9000 NSC 15/14 Q1010 BECMG 9999
                        FEW016=
201004240100 METAR LMML NIL=
201004240045 METAR LMML 240045Z 32007KT 9000 NSC 15/14 Q1010 BECMG 9999
                        FEW016=
201004240030 METAR LMML NIL=
201004240015 METAR LMML 240015Z 33006KT 9000 NSC 15/14 Q1010 BECMG 9999
                        FEW016=
201004240000 METAR LMML NIL=
201004232345 METAR LMML 232345Z 34006KT 9000 NSC 16/14 Q1010 BECMG 9999
                        FEW016=
201004232315 METAR LMML 232315Z 34006KT 9000 NSC 16/14 Q1010 BECMG 9999
                        FEW016=
201004232245 METAR LMML 232245Z 36006KT 330V030 9000 NSC 16/14 Q1010 BECMG
                        9999 FEW016=
201004232215 METAR LMML 232215Z 34006KT 9000 NSC 16/14 Q1010 BECMG 9999
                        FEW016=
201004232145 METAR LMML 232145Z 35007KT 9000 NSC 16/15 Q1010 NOSIG=
201004232115 METAR LMML 232115Z 34004KT 9000 NSC 16/14 Q1010 NOSIG=
201004232100 METAR LMML NIL=
201004232045 METAR LMML 232045Z 33004KT 9000 NSC 16/14 Q1010 NOSIG=
201004232030 METAR LMML NIL=
201004232015 METAR LMML 232015Z VRB03KT 9000 NSC 16/14 Q1010 NOSIG=
201004232000 METAR LMML NIL=
201004231945 METAR LMML 231945Z VRB01KT 9000 NSC 17/14 Q1009 NOSIG=
201004231930 METAR LMML NIL=
201004231915 METAR LMML 231915Z 12005KT 9000 NSC 17/14 Q1009 NOSIG=
201004231900 METAR LMML NIL=
201004231845 METAR LMML 231845Z 13008KT 9000 NSC 17/14 Q1008 NOSIG=
201004231830 METAR LMML NIL=
201004231815 METAR LMML 231815Z 13010KT 110V170 9000 NSC 17/14 Q1008 NOSIG=
201004231800 METAR LMML NIL=
201004231745 METAR LMML 231745Z 14011KT CAVOK 17/14 Q1007=
201004231730 METAR LMML NIL=
201004231715 METAR LMML 231715Z 12015KT 9000 NSC 18/14 Q1007 NOSIG=
201004231700 METAR LMML NIL=
201004231645 METAR LMML 231645Z 12014KT 9000 NSC 18/14 Q1007 NOSIG=
201004231630 METAR LMML NIL=
201004231615 METAR LMML 231615Z 12015KT CAVOK 19/14 Q1007 NOSIG=
201004231600 METAR LMML NIL=
201004231545 METAR LMML 231545Z 12016KT CAVOK 19/14 Q1007 NOSIG=
201004231530 METAR LMML NIL=
201004231515 METAR LMML 231515Z 12018KT CAVOK 19/14 Q1007 NOSIG=
201004231500 METAR LMML NIL=
201004231445 METAR LMML 231445Z 12019KT CAVOK 20/14 Q1007 NOSIG=
201004231430 METAR LMML NIL=
201004231415 METAR LMML 231415Z 12021KT CAVOK 20/14 Q1007 NOSIG=
201004231400 METAR LMML NIL=
201004231345 METAR LMML 231345Z 12022KT CAVOK 20/14 Q1007 NOSIG=
201004231330 METAR LMML NIL=
201004231315 METAR LMML 231315Z 11020KT CAVOK 21/14 Q1007 NOSIG=
201004231300 METAR LMML NIL=
201004231245 METAR LMML 231245Z 12021KT CAVOK 20/14 Q1008 NOSIG=
201004231230 METAR LMML NIL=
201004231215 METAR LMML 231215Z 12021KT CAVOK 21/15 Q1007 NOSIG=
201004231200 METAR LMML NIL=
201004231145 METAR LMML 231145Z 12022KT CAVOK 20/14 Q1008 NOSIG=
201004231130 METAR LMML NIL=
201004231115 METAR LMML 231115Z 11022KT CAVOK 20/15 Q1008 NOSIG=
201004231100 METAR LMML NIL=
201004231045 METAR LMML 231045Z 12022KT 9000 NSC 20/14 Q1008 NOSIG=
201004231030 METAR LMML NIL=
201004231015 METAR LMML 231015Z 12020KT 100V160 9000 FEW040 BKN130 20/14
                        Q1008 NOSIG=
201004231000 METAR LMML NIL=
201004230945 METAR LMML 230945Z 11019KT 080V140 9000 FEW040 BKN130 17/15
                        Q1008 NOSIG=
201004230930 METAR LMML NIL=
201004230915 METAR LMML 230915Z 12018KT 9000 -RA SCT040 BKN100 17/15 Q1009
                        NOSIG=
201004230900 METAR LMML NIL=
201004230845 METAR LMML 230845Z 13014KT 100V160 9000 SCT040 BKN100 17/14
                        Q1010 NOSIG=
201004230830 METAR LMML NIL=
201004230815 METAR LMML 230815Z 14014KT 9000 SCT032 BKN100 17/14 Q1011
                        NOSIG=
201004230745 METAR LMML 230745Z 15015KT 120V180 9000 SCT038 BKN100 17/14
                        Q1011 NOSIG=
201004230730 METAR LMML NIL=
201004230715 METAR LMML 230715Z 14013KT 120V180 9000 NSC 17/14 Q1010 NOSIG=
201004230700 METAR LMML NIL=
201004230645 METAR LMML 230645Z 15012KT 9000 -SHRA NSC 18/14 Q1010 NOSIG=
201004230630 METAR LMML NIL=
201004230615 METAR LMML 230615Z 16011KT 130V190 9000 -SHRA NSC 17/14 Q1011
                        NOSIG=
201004230600 METAR LMML NIL=
201004230545 METAR LMML 230545Z 15011KT 120V180 9000 -SHRA NSC 17/14 Q1010
                        NOSIG=
201004230515 METAR LMML 230515Z 14013KT 9000 NSC 17/14 Q1009 NOSIG=
201004230500 METAR LMML NIL=
201004230445 METAR LMML 230445Z 13015KT 9000 -SHRA NSC 17/14 Q1009 NOSIG=
201004230430 METAR LMML NIL=
201004230415 METAR LMML 230415Z 14012KT 9000 NSC 17/14 Q1009 NOSIG=
201004230400 METAR LMML NIL=
201004230345 METAR LMML 230345Z 13015KT CAVOK 17/14 Q1009 NOSIG=
201004230330 METAR LMML NIL=
201004230315 METAR LMML 230315Z 13014KT CAVOK 16/14 Q1009 NOSIG=
201004230300 METAR LMML NIL=
201004230245 METAR LMML 230245Z 14013KT CAVOK 17/14 Q1010 NOSIG=
201004230230 METAR LMML NIL=
201004230215 METAR LMML 230215Z 14014KT CAVOK 17/14 Q1010 NOSIG=
201004230200 METAR LMML NIL=
201004230145 METAR LMML 230145Z 14013KT CAVOK 16/14 Q1010 NOSIG=
201004230115 METAR LMML 230115Z 14012KT CAVOK 17/14 Q1011 NOSIG=
201004230100 METAR LMML NIL=
201004230045 METAR LMML 230045Z 14013KT CAVOK 17/14 Q1011 NOSIG=
201004230030 METAR LMML NIL=
201004230015 METAR LMML 230015Z 14015KT CAVOK 16/14 Q1012 NOSIG=
201004230000 METAR LMML NIL=
201004222345 METAR LMML 222345Z 14013KT CAVOK 16/14 Q1012 NOSIG=
201004222330 METAR LMML NIL=
201004222315 METAR LMML 222315Z 14013KT CAVOK 16/14 Q1012 NOSIG=
201004222300 METAR LMML NIL=
201004222245 METAR LMML 222245Z 13013KT CAVOK 16/14 Q1013 NOSIG=
201004222230 METAR LMML NIL=
201004222215 METAR LMML 222215Z 13013KT CAVOK 16/14 Q1013 NOSIG=
201004222200 METAR LMML NIL=
201004222145 METAR LMML 222145Z 13013KT 9999 FEW008 BKN120 16/14 Q1013
                        NOSIG=
201004222130 METAR LMML NIL=
201004222115 METAR LMML 222115Z 14011KT 9999 FEW008 BKN120 17/14 Q1014
                        NOSIG=
201004222100 METAR LMML NIL=
201004222045 METAR LMML 222045Z 13012KT 9999 FEW008 BKN120 17/14 Q1014
                        NOSIG=
201004222030 METAR LMML NIL=
201004222015 METAR LMML 222015Z 14011KT 9999 FEW008 BKN120 17/15 Q1014
                        NOSIG=
201004222000 METAR LMML NIL=
201004221945 METAR LMML 221945Z 14010KT 110V170 9999 FEW008 BKN120 17/15
                        Q1014 NOSIG=
201004221930 METAR LMML NIL=
201004221915 METAR LMML 221915Z 14010KT 9999 FEW008 BKN120 17/15 Q1014
                        NOSIG=
201004221900 METAR LMML NIL=
201004221845 METAR LMML 221845Z 14009KT 9999 FEW008 SCT120 BKN250 17/15
                        Q1014 NOSIG=
201004221830 METAR LMML NIL=
201004221815 METAR LMML 221815Z 14010KT 9999 FEW008 SCT120 BKN250 17/15
                        Q1013 NOSIG=
201004221800 METAR LMML NIL=
201004221745 METAR LMML 221745Z 14010KT 120V180 9999 FEW008 BKN250 17/15
                        Q1013 NOSIG=
201004221730 METAR LMML NIL=
201004221715 METAR LMML 221715Z 14009KT 9999 FEW008 17/15 Q1014 NOSIG=
201004221645 METAR LMML 221645Z 14011KT 9999 FEW009 SCT120 BKN250 17/15
                        Q1013 NOSIG=
201004221630 METAR LMML NIL=
201004221615 METAR LMML 221615Z 14012KT 9999 FEW009 SCT120 BKN250 17/15
                        Q1013 NOSIG=
201004221600 METAR LMML NIL=
201004221545 METAR LMML 221545Z 14012KT 110V170 9999 FEW009 SCT120 BKN250
                        18/15 Q1013 NOSIG=
201004221530 METAR LMML NIL=
201004221515 METAR LMML 221515Z 14012KT 120V180 9999 FEW009 BKN120 BKN250
                        18/15 Q1013 NOSIG=
201004221500 METAR LMML NIL=
201004221445 METAR LMML 221445Z 15012KT 9999 FEW009 BKN120 OVC250 18/15
                        Q1014 NOSIG=
201004221430 METAR LMML NIL=
201004221415 METAR LMML 221415Z 15014KT 9999 FEW007 BKN120 OVC250 18/15
                        Q1014 NOSIG=
201004221400 METAR LMML NIL=
201004221345 METAR LMML 221345Z 15012KT 9999 FEW009 BKN120 OVC250 18/15
                        Q1014 NOSIG=
201004221330 METAR LMML NIL=
201004221315 METAR LMML 221315Z 15014KT 9999 FEW009 SCT130 OVC250 18/15
                        Q1014 NOSIG=
201004221300 METAR LMML NIL=
201004221245 METAR LMML 221245Z 15012KT 9999 FEW009 SCT130 OVC250 18/15
                        Q1015 NOSIG=
201004221215 METAR LMML 221215Z 16012KT 130V200 9999 FEW010 BKN250 19/15
                        Q1015 NOSIG=
201004221200 METAR LMML NIL=
201004221145 METAR LMML 221145Z 16012KT 120V190 9999 SCT010 BKN250 18/15
                        Q1015 NOSIG=
201004221115 METAR LMML 221115Z 16011KT 120V190 9999 SCT010 BKN250 19/15
                        Q1016 NOSIG=
201004221045 METAR LMML 221045Z 16014KT 9999 FEW010 BKN250 19/15 Q1016
                        NOSIG=
201004221030 METAR LMML NIL=
201004221015 METAR LMML 221015Z 16013KT 130V200 9999 FEW012 BKN250 19/15
                        Q1016 NOSIG=
201004221000 METAR LMML NIL=
201004220945 METAR LMML 220945Z 17014KT 130V200 9999 FEW012 BKN250 19/15
                        Q1016 NOSIG=
201004220930 METAR LMML NIL=
201004220915 METAR LMML 220915Z 15014KT 9999 FEW012 BKN250 19/15 Q1016
                        NOSIG=
201004220900 METAR LMML NIL=
201004220845 METAR LMML 220845Z 16012KT 9999 FEW009 BKN250 18/15 Q1016
                        NOSIG=
201004220830 METAR LMML NIL=
201004220815 METAR LMML 220815Z 15013KT CAVOK 18/14 Q1016 NOSIG=
201004220800 METAR LMML NIL=
201004220745 METAR LMML 220745Z 16012KT 130V190 CAVOK 18/14 Q1016 NOSIG=
201004220730 METAR LMML NIL=
201004220715 METAR LMML 220715Z 16011KT 140V210 CAVOK 17/14 Q1016 NOSIG=
201004220700 METAR LMML NIL=
201004220645 METAR LMML 220645Z 17010KT 140V200 CAVOK 17/14 Q1016 NOSIG=
201004220630 METAR LMML NIL=
201004220615 METAR LMML 220615Z 17009KT 140V210 CAVOK 17/14 Q1017 NOSIG=
201004220600 METAR LMML NIL=
201004220545 METAR LMML 220545Z 16008KT 130V190 CAVOK 16/14 Q1016 NOSIG=
201004220515 METAR LMML 220515Z 15006KT 110V180 CAVOK 16/14 Q1016 NOSIG=
201004220500 METAR LMML NIL=
201004220445 METAR LMML 220445Z 14006KT CAVOK 15/13 Q1016 NOSIG=
201004220430 METAR LMML NIL=
201004220415 METAR LMML 220415Z 14007KT CAVOK 15/13 Q1016 NOSIG=
201004220345 METAR LMML 220345Z 16005KT 130V190 CAVOK 15/14 Q1016 NOSIG=
201004220330 METAR LMML NIL=
201004220315 METAR LMML 220315Z 16004KT CAVOK 15/13 Q1016 NOSIG=
201004220245 METAR LMML 220245Z 17004KT CAVOK 15/13 Q1016 NOSIG=
201004220230 METAR LMML NIL=
201004220215 METAR LMML 220215Z 17004KT CAVOK 15/13 Q1016 NOSIG=
201004220200 METAR LMML NIL=
201004220145 METAR LMML 220145Z 17004KT CAVOK 15/13 Q1016 NOSIG=
201004220130 METAR LMML NIL=
201004220115 METAR LMML 220115Z VRB03KT CAVOK 14/12 Q1016 NOSIG=
201004220045 METAR LMML 220045Z VRB02KT CAVOK 14/13 Q1017 NOSIG=
201004220030 METAR LMML NIL=
201004220015 METAR LMML 220015Z 18004KT CAVOK 15/13 Q1017 NOSIG=
201004220000 METAR LMML NIL=
201004212345 METAR LMML 212345Z 19004KT CAVOK 14/12 Q1018 NOSIG=
201004212330 METAR LMML NIL=
201004212315 METAR LMML 212315Z 17004KT 120V190 CAVOK 15/13 Q1018 NOSIG=
201004212245 METAR LMML 212245Z 19004KT CAVOK 15/13 Q1018 NOSIG=
201004212230 METAR LMML NIL=
201004212215 METAR LMML 212215Z VRB03KT CAVOK 15/13 Q1018 NOSIG=
201004212200 METAR LMML NIL=
201004212145 METAR LMML 212145Z 17004KT CAVOK 15/13 Q1018 NOSIG=
201004212130 METAR LMML NIL=
201004212115 METAR LMML 212115Z 19004KT CAVOK 15/13 Q1018 NOSIG=
201004212100 METAR LMML NIL=
201004212045 METAR LMML 212045Z VRB03KT CAVOK 15/13 Q1018 NOSIG=
201004212030 METAR LMML NIL=
201004212015 METAR LMML 212015Z 21004KT 180V240 CAVOK 15/13 Q1018 NOSIG=
201004212000 METAR LMML NIL=
201004211945 METAR LMML 211945Z 20004KT 170V240 CAVOK 15/13 Q1018 NOSIG=
201004211930 METAR LMML NIL=
201004211915 METAR LMML 211915Z 22004KT 180V280 CAVOK 15/13 Q1018 NOSIG=
201004211900 METAR LMML NIL=
201004211845 METAR LMML 211845Z VRB03KT CAVOK 16/13 Q1018 NOSIG=
201004211830 METAR LMML NIL=
201004211815 METAR LMML 211815Z 23005KT 190V270 CAVOK 16/13 Q1018 NOSIG=
201004211800 METAR LMML NIL=
201004211745 METAR LMML 211745Z 22004KT CAVOK 16/12 Q1018 NOSIG=
201004211730 METAR LMML NIL=
201004211715 METAR LMML 211715Z 22005KT 190V250 CAVOK 18/06 Q1018 NOSIG=
201004211700 METAR LMML NIL=
201004211645 METAR LMML 211645Z 21004KT 180V240 CAVOK 19/03 Q1018 NOSIG=
201004211630 METAR LMML NIL=
201004211615 METAR LMML 211615Z 22005KT 190V250 CAVOK 20/03 Q1018 NOSIG=
201004211600 METAR LMML NIL=
201004211545 METAR LMML 211545Z VRB03KT CAVOK 21/04 Q1018 NOSIG=
201004211530 METAR LMML NIL=
201004211515 METAR LMML 211515Z 21004KT 130V280 9999 FEW040 21/05 Q1018
                        NOSIG=
201004211500 METAR LMML NIL=
201004211445 METAR LMML 211445Z 21004KT 140V270 9999 FEW040 22/05 Q1018
                        NOSIG=
201004211430 METAR LMML NIL=
201004211415 METAR LMML 211415Z 20004KT 130V300 9999 FEW043 22/06 Q1018
                        NOSIG=
201004211400 METAR LMML NIL=
201004211345 METAR LMML 211345Z 03004KT 340V060 9999 FEW043 23/10 Q1018
                        NOSIG=
201004211330 METAR LMML NIL=
201004211315 METAR LMML 211315Z 21005KT 150V280 9999 FEW043 22/10 Q1019
                        NOSIG=
201004211300 METAR LMML NIL=
201004211245 METAR LMML 211245Z 16005KT 070V220 9999 FEW040 21/11 Q1019
                        NOSIG=
201004211230 METAR LMML NIL=
201004211215 METAR LMML 211215Z 08006KT 040V120 9999 FEW025 21/12 Q1019
                        NOSIG=
201004211200 METAR LMML NIL=
201004211145 METAR LMML 211145Z 03004KT 340V110 9999 FEW025 23/10 Q1019
                        NOSIG=
201004211130 METAR LMML NIL=
201004211115 METAR LMML 211115Z 02004KT 330V070 9999 FEW025 23/10 Q1019
                        NOSIG=
201004211100 METAR LMML NIL=
201004211045 METAR LMML 211045Z 03005KT 350V100 9999 FEW025 22/10 Q1019
                        NOSIG=
201004211030 METAR LMML NIL=
201004211015 METAR LMML 211015Z 02005KT 300V110 9999 FEW025 22/11 Q1019
                        NOSIG=
201004211000 METAR LMML NIL=
201004210945 METAR LMML 210945Z 33004KT 220V080 CAVOK 21/10 Q1019 NOSIG=
201004210915 METAR LMML 210915Z 34006KT 300V040 CAVOK 20/10 Q1019 NOSIG=
201004210900 METAR LMML NIL=
201004210845 METAR LMML 210845Z 32007KT 260V360 CAVOK 20/09 Q1019 NOSIG=
201004210830 METAR LMML NIL=
201004210815 METAR LMML 210815Z 29007KT 270V340 9999 FEW020 19/10 Q1019
                        NOSIG=
201004210800 METAR LMML NIL=
201004210745 METAR LMML 210745Z 30006KT 260V350 9999 FEW020 18/11 Q1019
                        NOSIG=
201004210730 METAR LMML NIL=
201004210715 METAR LMML 210715Z 31004KT 270V340 9999 FEW020 17/11 Q1019
                        NOSIG=
201004210700 METAR LMML NIL=
201004210645 METAR LMML 210645Z VRB03KT 9999 FEW015 16/11 Q1019 NOSIG=
201004210630 METAR LMML NIL=
201004210615 METAR LMML 210615Z 31004KT 270V350 9999 FEW015 16/11 Q1019
                        NOSIG=
201004210600 METAR LMML NIL=
201004210545 METAR LMML 210545Z 32006KT 290V350 9999 FEW015 15/12 Q1018
                        NOSIG=
201004210530 METAR LMML NIL=
201004210515 METAR LMML 210515Z 32006KT 9999 FEW015 13/11 Q1018 NOSIG=
201004210500 METAR LMML NIL=
201004210445 METAR LMML 210445Z 32009KT CAVOK 13/11 Q1018 NOSIG=
201004210430 METAR LMML NIL=
201004210415 METAR LMML 210415Z 32008KT CAVOK 13/11 Q1018 NOSIG=
201004210400 METAR LMML NIL=
201004210345 METAR LMML 210345Z 31007KT 280V340 CAVOK 13/11 Q1018 NOSIG=
201004210330 METAR LMML NIL=
201004210315 METAR LMML 210315Z 31007KT CAVOK 13/12 Q1018 NOSIG=
201004210300 METAR LMML NIL=
201004210245 METAR LMML 210245Z 32007KT CAVOK 13/12 Q1018 NOSIG=
201004210230 METAR LMML NIL=
201004210215 METAR LMML 210215Z 32007KT CAVOK 13/12 Q1018 NOSIG=
201004210200 METAR LMML NIL=
201004210145 METAR LMML 210145Z 31009KT CAVOK 14/12 Q1018 NOSIG=
201004210130 METAR LMML NIL=
201004210115 METAR LMML 210115Z 31008KT CAVOK 14/12 Q1018 NOSIG=
201004210100 METAR LMML NIL=
201004210045 METAR LMML 210045Z 30008KT CAVOK 14/12 Q1018 NOSIG=
201004210015 METAR LMML 210015Z 30009KT CAVOK 14/12 Q1018 NOSIG=
201004210000 METAR LMML NIL=
201004202345 METAR LMML 202345Z 30009KT CAVOK 14/12 Q1018 NOSIG=
201004202330 METAR LMML NIL=
201004202315 METAR LMML 202315Z 30011KT CAVOK 14/13 Q1018 NOSIG=
201004202300 METAR LMML NIL=
201004202245 METAR LMML 202245Z 31011KT CAVOK 14/12 Q1018 NOSIG=
201004202230 METAR LMML NIL=
201004202215 METAR LMML 202215Z 30011KT CAVOK 15/12 Q1018 NOSIG=
201004202200 METAR LMML NIL=
201004202145 METAR LMML 202145Z 29011KT 270V330 CAVOK 15/12 Q1018 NOSIG=
201004202115 METAR LMML 202115Z 29010KT CAVOK 15/12 Q1018 NOSIG=
201004202100 METAR LMML NIL=
201004202045 METAR LMML 202045Z 29010KT CAVOK 15/12 Q1018 NOSIG=
201004202015 METAR LMML 202015Z 30011KT CAVOK 15/12 Q1018 NOSIG=
201004202000 METAR LMML NIL=
201004201945 METAR LMML 201945Z 29012KT CAVOK 15/12 Q1018 NOSIG=
201004201930 METAR LMML NIL=
201004201915 METAR LMML 201915Z 29013KT 9999 FEW020 SCT250 15/12 Q1018
                        NOSIG=
201004201900 METAR LMML NIL=
201004201845 METAR LMML 201845Z 28013KT 9999 FEW020 SCT250 15/12 Q1018
                        NOSIG=
201004201830 METAR LMML NIL=
201004201815 METAR LMML 201815Z 29016KT 9999 FEW020 BKN250 15/12 Q1018
                        NOSIG=
201004201800 METAR LMML NIL=
201004201745 METAR LMML 201745Z 28014KT 240V300 9999 FEW020 BKN250 15/12
                        Q1017 NOSIG=
201004201730 METAR LMML NIL=
201004201715 METAR LMML 201715Z 27015KT 230V310 9999 FEW025 BKN250 16/12
                        Q1017 NOSIG=
201004201700 METAR LMML NIL=
201004201645 METAR LMML 201645Z 27014KT 230V300 9999 FEW025 BKN250 16/12
                        Q1017 NOSIG=
201004201615 METAR LMML 201615Z 27016KT 240V300 9999 FEW025 BKN250 17/12
                        Q1017 NOSIG=
201004201600 METAR LMML NIL=
201004201545 METAR LMML 201545Z 27014KT 230V320 9999 FEW025 SCT250 17/12
                        Q1017 NOSIG=
201004201530 METAR LMML NIL=
201004201515 METAR LMML 201515Z 28014KT 250V310 9999 FEW025 SCT250 18/12
                        Q1017 NOSIG=
201004201500 METAR LMML NIL=
201004201445 METAR LMML 201445Z 28015KT 250V320 9999 FEW024 18/11 Q1017
                        NOSIG=
201004201430 METAR LMML NIL=
201004201415 METAR LMML 201415Z 27015KT 240V300 9999 FEW024 19/11 Q1017
                        NOSIG=
201004201400 METAR LMML NIL=
201004201345 METAR LMML 201345Z 28014KT 240V310 9999 FEW024 19/11 Q1018
                        NOSIG=
201004201330 METAR LMML NIL=
201004201315 METAR LMML 201315Z 28014KT 240V310 9999 FEW025 19/11 Q1018
                        NOSIG=
201004201300 METAR LMML NIL=
201004201245 METAR LMML 201245Z 29014KT 250V320 9999 FEW025 19/11 Q1018
                        NOSIG=
201004201230 METAR LMML NIL=
201004201215 METAR LMML 201215Z 30015KT 260V320 9999 FEW025 20/11 Q1018
                        NOSIG=
201004201200 METAR LMML NIL=
201004201145 METAR LMML 201145Z 28013KT 260V320 9999 FEW025 19/11 Q1018
                        NOSIG=
201004201130 METAR LMML NIL=
201004201115 METAR LMML 201115Z 31014KT 280V340 9999 FEW025 20/10 Q1018
                        NOSIG=
201004201100 METAR LMML NIL=
201004201045 METAR LMML 201045Z 31014KT 9999 FEW024 20/11 Q1019 NOSIG=
201004201030 METAR LMML NIL=
201004201015 METAR LMML 201015Z 31012KT 250V340 9999 FEW024 19/11 Q1019
                        NOSIG=
201004201000 METAR LMML NIL=
201004200945 METAR LMML 200945Z 30011KT 270V330 9999 FEW020 19/12 Q1019
                        NOSIG=
201004200930 METAR LMML NIL=
201004200915 METAR LMML 200915Z 28012KT 250V320 9999 FEW020 19/11 Q1019
                        NOSIG=
201004200900 METAR LMML NIL=
201004200845 METAR LMML 200845Z 30012KT 270V340 9999 FEW019 19/11 Q1019
                        NOSIG=
201004200830 METAR LMML NIL=
201004200815 METAR LMML 200815Z 31011KT 270V340 9999 FEW019 18/12 Q1019
                        NOSIG=
201004200800 METAR LMML NIL=
201004200745 METAR LMML 200745Z 29012KT 260V320 9999 FEW019 18/12 Q1019
                        NOSIG=
201004200730 METAR LMML NIL=
201004200715 METAR LMML 200715Z 30011KT 270V330 9999 FEW020 17/12 Q1018
                        NOSIG=
201004200700 METAR LMML NIL=
201004200645 METAR LMML 200645Z 30012KT 9999 FEW020 16/11 Q1018 NOSIG=
201004200630 METAR LMML NIL=
201004200615 METAR LMML 200615Z 31009KT CAVOK 15/12 Q1018 NOSIG=
201004200600 METAR LMML NIL=
201004200545 METAR LMML 200545Z 31009KT CAVOK 15/12 Q1018 NOSIG=
201004200530 METAR LMML NIL=
201004200515 METAR LMML 200515Z 30007KT 9999 FEW011 14/12 Q1017 NOSIG=
201004200500 METAR LMML NIL=
201004200445 METAR LMML 200445Z 30008KT 9999 FEW011 13/11 Q1017 NOSIG=
201004200430 METAR LMML NIL=
201004200415 METAR LMML 200415Z 30008KT 9999 FEW011 13/11 Q1017 NOSIG=
201004200400 METAR LMML NIL=
201004200345 METAR LMML 200345Z 31008KT 9999 FEW011 13/11 Q1017 NOSIG=
201004200330 METAR LMML NIL=
201004200315 METAR LMML 200315Z 31009KT 9999 FEW011 13/12 Q1017 NOSIG=
201004200300 METAR LMML NIL=
201004200245 METAR LMML 200245Z 33007KT 9999 FEW011 13/12 Q1017 NOSIG=
201004200230 METAR LMML NIL=
201004200215 METAR LMML 200215Z 32009KT 9999 FEW016 13/12 Q1017 NOSIG=
201004200200 METAR LMML NIL=
201004200145 METAR LMML 200145Z 31011KT 9999 FEW016 14/12 Q1016 NOSIG=
201004200130 METAR LMML NIL=
201004200115 METAR LMML 200115Z 31011KT 9999 FEW016 14/12 Q1016 NOSIG=
201004200100 METAR LMML NIL=
201004200045 METAR LMML 200045Z 30009KT 9999 FEW016 14/12 Q1016 NOSIG=
201004200030 METAR LMML NIL=
201004200015 METAR LMML 200015Z 30008KT 9999 FEW016 14/12 Q1016 NOSIG=
201004200000 METAR LMML NIL=
201004192345 METAR LMML 192345Z 31008KT 9999 FEW016 14/12 Q1016 NOSIG=
201004192330 METAR LMML NIL=
201004192315 METAR LMML 192315Z 31009KT 280V340 9999 FEW016 14/12 Q1017
                        NOSIG=
201004192300 METAR LMML NIL=
201004192245 METAR LMML 192245Z 32008KT 300V360 9999 FEW016 14/12 Q1017
                        NOSIG=
201004192215 METAR LMML 192215Z 32009KT 9999 FEW016 14/12 Q1016 NOSIG=
201004192145 METAR LMML 192145Z 31010KT 9999 FEW016 14/11 Q1017 NOSIG=
201004192115 METAR LMML 192115Z 29008KT 240V320 9999 FEW016 14/11 Q1017
                        NOSIG=
201004192045 METAR LMML 192045Z 30015KT 270V330 9999 FEW016 15/11 Q1016
                        NOSIG=
201004192030 METAR LMML NIL=
201004192015 METAR LMML 192015Z 29012KT 9999 FEW015 15/11 Q1016 NOSIG=
201004191945 METAR LMML 191945Z 29011KT 260V330 9999 FEW020 SCT250 15/11
                        Q1016 NOSIG=
201004191930 METAR LMML NIL=
201004191915 METAR LMML 191915Z 30010KT 260V330 9999 FEW020 15/11 Q1016
                        NOSIG=
201004191845 METAR LMML 191845Z 29011KT 260V320 9999 FEW020 15/11 Q1015
                        NOSIG=
201004191830 METAR LMML NIL=
201004191815 METAR LMML 191815Z 30011KT 270V330 9999 FEW020 15/11 Q1015
                        NOSIG=
201004191800 METAR LMML NIL=
201004191745 METAR LMML 191745Z 30012KT 260V330 9999 FEW020 15/11 Q1015
                        NOSIG=
201004191715 METAR LMML 191715Z 29014KT 9999 FEW022 16/11 Q1015 NOSIG=
201004191700 METAR LMML NIL=
201004191645 METAR LMML 191645Z 30014KT 9999 FEW022 17/11 Q1014 NOSIG
                        RMK CB TOPS TO NNE=
201004191630 METAR LMML NIL=
201004191615 METAR LMML 191615Z 30015KT 260V330 9999 FEW022 17/11 Q1015
                        NOSIG RMK CB TOPS TO NNE=
201004191600 METAR LMML NIL=
201004191545 METAR LMML 191545Z 29017KT 260V320 9999 FEW022 18/11 Q1014
                        NOSIG RMK CB TOPS TO NNE=
201004191530 METAR LMML NIL=
201004191515 METAR LMML 191515Z 29017KT 270V330 9999 FEW022 18/12 Q1015
                        NOSIG RMK CB TOPS TO NNE=
201004191500 METAR LMML NIL=
201004191445 METAR LMML 191445Z 29017KT 9999 FEW022 19/11 Q1014 NOSIG
                        RMK CB TOPS TO NE=
201004191430 METAR LMML NIL=
201004191415 METAR LMML 191415Z 29017KT 250V320 9999 FEW022 19/11 Q1015
                        NOSIG=
201004191400 METAR LMML NIL=
201004191345 METAR LMML 191345Z 28018KT 250V310 9999 FEW022 19/12 Q1014
                        NOSIG=
201004191330 METAR LMML NIL=
201004191315 METAR LMML 191315Z 30019KT 9999 FEW022 19/11 Q1015 NOSIG=
201004191300 METAR LMML NIL=
201004191245 METAR LMML 191245Z 30018KT 9999 FEW022 19/11 Q1015 NOSIG=
201004191230 METAR LMML NIL=
201004191215 METAR LMML 191215Z 29017KT 260V320 9999 FEW022 20/12 Q1015
                        NOSIG RMK CB TOP TO NE=
201004191200 METAR LMML NIL=
201004191145 METAR LMML 191145Z 29014KT 250V320 9999 FEW022 20/13 Q1015
                        NOSIG=
201004191130 METAR LMML NIL=
201004191115 METAR LMML 191115Z 29016KT 260V340 9999 FEW020 20/13 Q1015
                        NOSIG=
201004191100 METAR LMML NIL=
201004191045 METAR LMML 191045Z 29016KT 260V330 9999 FEW019 20/13 Q1015
                        NOSIG=
201004191030 METAR LMML NIL=
201004191015 METAR LMML 191015Z 30018KT 9999 FEW025 20/13 Q1015 NOSIG=
201004191000 METAR LMML NIL=
201004190945 METAR LMML 190945Z 30017KT 260V340 9999 FEW023 20/13 Q1014
                        NOSIG=
201004190930 METAR LMML NIL=
201004190915 METAR LMML 190915Z 30018KT 9999 FEW019 19/14 Q1014 NOSIG=
201004190900 METAR LMML NIL=
201004190845 METAR LMML 190845Z 30016KT 270V330 9999 FEW015 19/13 Q1014
                        NOSIG=
201004190830 METAR LMML NIL=
201004190815 METAR LMML 190815Z 30016KT 270V330 9999 FEW014 19/13 Q1014
                        NOSIG=
201004190800 METAR LMML NIL=
201004190745 METAR LMML 190745Z 29016KT 250V320 9999 FEW014 18/13 Q1013
                        NOSIG=
201004190730 METAR LMML NIL=
201004190715 METAR LMML 190715Z 29017KT 260V320 9999 SCT012 18/13 Q1013
                        NOSIG=
201004190700 METAR LMML NIL=
201004190645 METAR LMML 190645Z 29016G26KT 9999 BKN012 17/14 Q1013 NOSIG=
201004190630 METAR LMML NIL=
201004190615 METAR LMML 190615Z 29012KT 240V320 9999 BKN015 16/14 Q1013
                        NOSIG=
201004190600 METAR LMML NIL=
201004190545 METAR LMML 190545Z 29011KT 260V320 9999 FEW010 BKN022 16/14
                        Q1013 NOSIG=
201004190530 METAR LMML NIL=
201004190515 METAR LMML 190515Z 30011KT 9999 FEW009 BKN026 16/14 Q1013
                        NOSIG=
201004190500 METAR LMML NIL=
201004190445 METAR LMML 190445Z 29010KT 9000 FEW008 BKN026 16/14 Q1012
                        BECMG 9999=
201004190430 METAR LMML NIL=
201004190415 METAR LMML 190415Z 29011KT 260V320 9000 FEW012 BKN027 16/14
                        Q1012 BECMG 9999=
201004190400 METAR LMML NIL=
201004190345 METAR LMML 190345Z 29010KT 9000 FEW012 BKN029 16/14 Q1012
                        NOSIG=
201004190330 METAR LMML NIL=
201004190315 METAR LMML 190315Z 27007KT 240V300 7000 FEW012 BKN028 16/15
                        Q1012 NOSIG=
201004190300 METAR LMML NIL=
201004190245 METAR LMML 190245Z 28006KT 240V320 7000 FEW021 BKN027 16/15
                        Q1012 NOSIG=
201004190230 METAR LMML NIL=
201004190215 METAR LMML 190215Z 27007KT 240V300 7000 FEW012 BKN020 16/15
                        Q1012 NOSIG=
201004190200 METAR LMML NIL=
201004190145 METAR LMML 190145Z 28006KT 7000 BKN018 16/15 Q1012 NOSIG=
201004190130 METAR LMML NIL=
201004190115 METAR LMML 190115Z VRB02KT 7000 FEW008 BKN016 16/15 Q1012
                        NOSIG=
201004190100 METAR LMML NIL=
201004190045 METAR LMML 190045Z VRB02KT 7000 SCT008 BKN017 16/15 Q1012
                        NOSIG=
201004190030 METAR LMML NIL=
201004190015 METAR LMML 190015Z VRB02KT 5000 BR BKN008 16/15 Q1012 BEC
                        SCT 008=
201004190000 METAR LMML NIL=
201004182345 METAR LMML 182345Z VRB02KT 5000 BR BKN007 16/15 Q1012 NOSIG=
201004182330 METAR LMML NIL=
201004182315 METAR LMML 182315Z 32004KT 290V360 5000 BR OVC006 16/15 Q1012
                        NOSIG=
201004182300 METAR LMML NIL=
201004182245 METAR LMML 182245Z VRB03KT 5000 BR OVC006 16/15 Q1012 NOSIG=
201004182230 METAR LMML NIL=
201004182215 METAR LMML 182215Z 02005KT 360V080 5000 BR OVC006 16/15 Q1011
                        NOSIG=
201004182200 METAR LMML NIL=
201004182145 METAR LMML 182145Z 03005KT 360V060 5000 BR BKN004 17/15 Q1011
                        BECMG BKN006=
201004182130 METAR LMML NIL=
201004182115 METAR LMML 182115Z 04005KT 010V080 5000 BR BKN004 17/15 Q1012
                        TEMPO BKN005=
201004182100 METAR LMML NIL=
201004182045 METAR LMML 182045Z 07006KT 020V110 5000 BR BKN004 17/15 Q1011
                        TEMPO 3000 BR BKN003=
201004182030 METAR LMML NIL=
201004182015 METAR LMML 182015Z 06006KT 020V090 5000 BR BKN004 17/16 Q1011
                        TEMPO 3000 BR BKN003=
201004182000 METAR LMML NIL=
201004181945 METAR LMML 181945Z 03008KT 5000 BR BKN003 17/16 Q1011 TEMPO
                        3000 BR BKN002=
201004181930 METAR LMML NIL=
201004181915 METAR LMML 181915Z 02007KT 5000 BR BKN003 17/16 Q1011 TEMPO
                        3000 BR BKN002=
201004181900 METAR LMML NIL=
201004181845 METAR LMML 181845Z 03007KT 7000 BKN005 17/16 Q1011 TEMPO
                        5000 BR BKN003=
201004181830 METAR LMML NIL=
201004181815 METAR LMML 181815Z VRB02KT 7000 BKN006 17/16 Q1011 TEMPO
                        5000 BR BKN003=
201004181745 METAR LMML 181745Z VRB03KT 7000 BKN005 17/16 Q1011 TEMPO
                        3000 TSRA BKN003 BKN015CB=
201004181730 METAR LMML NIL=
201004181715 METAR LMML 181715Z 06005KT 030V090 7000 BKN005 17/16 Q1011
                        TEMPO 3000 TSRA BKN003 BKN015CB=
201004181700 METAR LMML NIL=
201004181645 METAR LMML 181645Z 07005KT 010V100 7000 BKN008 BKN035 18/16
                        Q1011 BECMG BKN005=
201004181630 METAR LMML NIL=
201004181615 METAR LMML 181615Z 07006KT 040V100 8000 BKN006 BKN022 18/16
                        Q1010 BECMG BKN005=
201004181600 METAR LMML NIL=
201004181545 METAR LMML 181545Z 10005KT 050V150 8000 BKN009 BKN022 18/15
                        Q1010 BECMG BKN005=
201004181530 METAR LMML NIL=
201004181515 METAR LMML 181515Z 11009KT 080V150 8000 SCT008 BKN250 18/16
                        Q1011 NOSIG=
201004181500 METAR LMML NIL=
201004181445 METAR LMML 181445Z 11012KT 8000 FEW007 SCT250 19/16 Q1010
                        NOSIG=
201004181430 METAR LMML NIL=
201004181415 METAR LMML 181415Z 11013KT 8000 SCT007 SCT120 19/16 Q1010
                        BECMG BKN005=
201004181400 METAR LMML NIL=
201004181345 METAR LMML 181345Z 12016KT 8000 SCT006 BKN018 19/15 Q1010
                        BECMG BKN005=
201004181330 METAR LMML NIL=
201004181315 METAR LMML 181315Z 12016KT 8000 FEW006 BKN017 19/15 Q1011
                        NOSIG=
201004181300 METAR LMML NIL=
201004181245 METAR LMML 181245Z 11014KT 080V140 8000 FEW008 BKN017 20/16
                        Q1011 NOSIG=
201004181215 METAR LMML 181215Z 11010KT 070V140 8000 FEW010 SCT014 BKN100
                        19/15 Q1012 NOSIG=
201004181200 METAR LMML NIL=
201004181145 METAR LMML 181145Z 11008KT 050V150 8000 SCT011 BKN100 20/16
                        Q1013 NOSIG=
201004181130 METAR LMML NIL=
201004181115 METAR LMML 181115Z 11007KT 080V150 8000 SCT010 BKN100 18/15
                        Q1014 BECMG 5000 SHRA BKN005=
201004181100 METAR LMML NIL=
201004181045 METAR LMML 181045Z 13009KT 100V160 8000 BKN009 BKN100 19/15
                        Q1014 BECMG 5000 SHRA BKN005=
201004181030 METAR LMML NIL=
201004181015 METAR LMML 181015Z 12012KT 100V160 8000 BKN009 SCT120 19/15
                        Q1013 NOSIG=
201004181000 METAR LMML NIL=
201004180945 METAR LMML 180945Z 12015KT 090V150 8000 BKN008 SCT120 19/15
                        Q1013 NOSIG=
201004180930 METAR LMML NIL=
201004180915 METAR LMML 180915Z 12015KT 7000 BKN008 SCT120 17/15 Q1013
                        NOSIG=
201004180900 METAR LMML NIL=
201004180845 METAR LMML 180845Z 11015KT 080V140 5000 SCT006 BKN012 18/15
                        Q1013 BECMG 7000 BKN006=
201004180830 METAR LMML NIL=
201004180815 METAR LMML 180815Z 11017KT 5000 SCT008 BKN012 17/16 Q1012
                        BECMG 7000=
201004180800 METAR LMML NIL=
201004180745 METAR LMML 180745Z 11014KT 5000 SCT006 BKN011 17/16 Q1012
                        BECMG 7000=
201004180715 METAR LMML 180715Z 11015KT 5000 SCT005 SCT100 16/15 Q1012
                        NOSIG=
201004180700 METAR LMML NIL=
201004180645 METAR LMML 180645Z 11012KT 5000 -RA SCT006 SCT015 BKN100
                        16/15 Q1013 NOSIG=
201004180615 METAR LMML 180615Z 11007KT 090V150 5000 -RA SCT006 SCT016
                        BKN100 16/15 Q1014 NOSIG=
201004180600 METAR LMML NIL=
201004180545 METAR LMML 180545Z 11008KT 5000 -RA SCT008 BKN018 BKN100
                        16/15 Q1014 NOSIG=
201004180530 METAR LMML NIL=
201004180515 METAR LMML 180515Z 12009KT 6000 -RA SCT009 BKN016 BKN150
                        16/14 Q1014 NOSIG=
201004180500 METAR LMML NIL=
201004180445 METAR LMML 180445Z 10009KT 080V140 8000 SCT009 SCT013 OVC250
                        16/14 Q1014 NOSIG=
201004180415 METAR LMML 180415Z 08010KT 060V120 9000 SCT008 SCT012 OVC250
                        16/14 Q1013 TEMPO 4000 BR=
201004180400 METAR LMML NIL=
201004180345 METAR LMML 180345Z 10010KT 080V140 9000 SCT008 SCT012 OVC250
                        16/14 Q1013 TEMPO 4000 BR=
201004180330 METAR LMML NIL=
201004180315 METAR LMML 180315Z 11011KT 9000 SCT008 SCT011 OVC250 16/14
                        Q1013 TEMPO 4000 BR=
201004180300 METAR LMML NIL=
201004180245 METAR LMML 180245Z 11011KT 9000 BKN008 SCT012 16/14 Q1013
                        TEMPO 4000 BR=
201004180230 METAR LMML NIL=
201004180215 METAR LMML 180215Z 10011KT 070V130 9000 BKN011 16/14 Q1013
                        TEMPO 4000 BR=
201004180200 METAR LMML NIL=
201004180145 METAR LMML 180145Z 10010KT 070V130 9000 BKN007 16/14 Q1013
                        TEMPO 4000 BR=
201004180130 METAR LMML NIL=
201004180115 METAR LMML 180115Z 10009KT 9000 BKN007 15/14 Q1013 TEMPO
                        4000 BR=
201004180100 METAR LMML NIL=
201004180045 METAR LMML 180045Z 09009KT 060V120 7000 BKN006 16/15 Q1014
                        TEMPO 4000 BR=
201004180030 METAR LMML NIL=
201004180015 METAR LMML 180015Z 12009KT 7000 BKN005 16/15 Q1014 TEMPO
                        4000 BR=
201004180000 METAR LMML NIL=
201004172345 METAR LMML 172345Z 11009KT 090V150 7000 BKN005 16/15 Q1015
                        TEMPO 4000 BR=
201004172330 METAR LMML NIL=
201004172315 METAR LMML 172315Z 10008KT 9000 BKN006 16/15 Q1015 TEMPO
                        6000 BKN005=
201004172245 METAR LMML 172245Z 10009KT 070V140 9000 BKN006 16/15 Q1015
                        TEMPO 6000 BKN005=
201004172230 METAR LMML NIL=
201004172215 METAR LMML 172215Z 11007KT 9000 BKN006 16/15 Q1015 TEMPO
                        6000 BKN005=
201004172200 METAR LMML NIL=
201004172145 METAR LMML 172145Z 10008KT 9000 BKN006 16/15 Q1015 TEMPO
                        6000 BKN005=
201004172130 METAR LMML NIL=
201004172115 METAR LMML 172115Z 10009KT 9000 BKN006 16/15 Q1015 TEMPO
                        6000 BKN005=
201004172100 METAR LMML NIL=
201004172045 METAR LMML 172045Z 09007KT 060V120 9000 BKN006 16/14 Q1015
                        TEMPO 6000 BKN005=
201004172030 METAR LMML NIL=
201004172015 METAR LMML 172015Z 09006KT 060V120 9000 FEW007 16/14 Q1015
                        TEMPO 9000 BKN008=
201004172000 METAR LMML NIL=
201004171945 METAR LMML 171945Z 10009KT 9999 FEW008 16/14 Q1015 TEMPO
                        9000 BKN008=
201004171915 METAR LMML 171915Z 10008KT 9999 FEW007 16/14 Q1015 TEMPO
                        9000 BKN008=
201004171900 METAR LMML NIL=
201004171845 METAR LMML 171845Z 10007KT 9999 SCT007 16/14 Q1014 TEMPO
                        9000 BKN008=
201004171830 METAR LMML NIL=
201004171815 METAR LMML 171815Z 09008KT 060V120 9999 SCT009 16/14 Q1014
                        TEMPO 9000 BKN008=
201004171800 METAR LMML NIL=
201004171745 METAR LMML 171745Z 09009KT 9999 SCT009 SCT130 16/14 Q1014
                        TEMPO 9000 BKN008=
201004171730 METAR LMML NIL=
201004171715 METAR LMML 171715Z 09007KT 060V120 9999 SCT008 SCT250 17/14
                        Q1014 TEMPO 9000 BKN008=
201004171700 METAR LMML NIL=
201004171645 METAR LMML 171645Z 09009KT 050V120 9999 SCT008 SCT250 17/14
                        Q1014 TEMPO 9000 BKN008=
201004171630 METAR LMML NIL=
201004171615 METAR LMML 171615Z 10009KT 070V130 9999 SCT009 SCT250 18/14
                        Q1014 TEMPO 9000 BKN008=
201004171600 METAR LMML NIL=
201004171545 METAR LMML 171545Z 09010KT 050V120 9999 FEW011 BKN250 18/14
                        Q1013 NOSIG=
201004171530 METAR LMML NIL=
201004171515 METAR LMML 171515Z 09010KT 060V120 9999 FEW012 BKN250 18/14
                        Q1014 NOSIG=
201004171500 METAR LMML NIL=
201004171445 METAR LMML 171445Z 09010KT 060V120 9999 FEW013 BKN250 18/14
                        Q1013 NOSIG=
201004171430 METAR LMML NIL=
201004171415 METAR LMML 171415Z 10011KT 060V130 9999 FEW012 BKN250 18/14
                        Q1014 NOSIG=
201004171400 METAR LMML NIL=
201004171345 METAR LMML 171345Z 10010KT 060V150 9999 FEW008 SCT130 BKN250
                        19/14 Q1014 NOSIG=
201004171330 METAR LMML NIL=
201004171315 METAR LMML 171315Z 11012KT 080V140 9999 FEW008 BKN250 19/13
                        Q1014 NOSIG=
201004171300 METAR LMML NIL=
201004171245 METAR LMML 171245Z 12010KT 080V150 9999 FEW008 BKN250 20/13
                        Q1014 NOSIG=
201004171230 METAR LMML NIL=
201004171215 METAR LMML 171215Z 12011KT 080V160 CAVOK 20/13 Q1014 NOSIG=
201004171200 METAR LMML NIL=
201004171145 METAR LMML 171145Z 12010KT 090V160 CAVOK 20/13 Q1014 NOSIG=
201004171130 METAR LMML NIL=
201004171115 METAR LMML 171115Z 13013KT CAVOK 20/13 Q1014 NOSIG=
201004171045 METAR LMML 171045Z 12013KT CAVOK 20/12 Q1014 NOSIG=
201004171030 METAR LMML NIL=
201004171015 METAR LMML 171015Z 12014KT 100V160 CAVOK 20/12 Q1014 NOSIG=
201004171000 METAR LMML NIL=
201004170945 METAR LMML 170945Z 12013KT CAVOK 20/13 Q1014 NOSIG=
201004170930 METAR LMML NIL=
201004170915 METAR LMML 170915Z 09008KT 040V120 9000 FEW008 20/13 Q1014
                        NOSIG=
201004170900 METAR LMML NIL=
201004170845 METAR LMML 170845Z 05008KT 010V080 9000 FEW008 SCT130 20/14
                        Q1014 NOSIG=
201004170830 METAR LMML NIL=
201004170815 METAR LMML 170815Z 06007KT 020V130 9000 FEW008 SCT130 20/14
                        Q1013 NOSIG=
201004170800 METAR LMML NIL=
201004170745 METAR LMML 170745Z 06006KT 360V110 9000 NSC 19/13 Q1014 NOSIG=
201004170730 METAR LMML NIL=
201004170715 METAR LMML 170715Z 08005KT 050V110 7000 NSC 18/14 Q1013 NOSIG=
201004170700 METAR LMML NIL=
201004170645 METAR LMML 170645Z 10004KT 060V150 7000 NSC 16/15 Q1013 NOSIG=
201004170630 METAR LMML NIL=
201004170615 METAR LMML 170615Z VRB02KT 7000 NSC 15/15 Q1013 NOSIG=
201004170600 METAR LMML NIL=
201004170545 METAR LMML 170545Z VRB02KT 6000 NSC 15/14 Q1013 NOSIG=
201004170530 METAR LMML NIL=
201004170515 METAR LMML 170515Z VRB02KT 6000 NSC 14/14 Q1013 NOSIG=
201004170500 METAR LMML NIL=
201004170445 METAR LMML 170445Z VRB01KT 6000 NSC 13/13 Q1013 NOSIG=
201004170430 METAR LMML NIL=
201004170415 METAR LMML 170415Z VRB01KT 6000 NSC 13/13 Q1013 NOSIG=
201004170400 METAR LMML NIL=
201004170345 METAR LMML 170345Z VRB03KT 6000 NSC 14/13 Q1013 NOSIG=
201004170330 METAR LMML NIL=
201004170315 METAR LMML 170315Z 00000KT 6000 NSC 14/13 Q1012 NOSIG=
201004170245 METAR LMML 170245Z VRB01KT 6000 NSC 14/13 Q1012 NOSIG=
201004170230 METAR LMML NIL=
201004170215 METAR LMML 170215Z VRB02KT 6000 NSC 14/13 Q1013 NOSIG=
201004170200 METAR LMML NIL=
201004170145 METAR LMML 170145Z VRB02KT 7000 NSC 14/14 Q1013 NOSIG=
201004170130 METAR LMML NIL=
201004170115 METAR LMML 170115Z 23004KT 7000 NSC 14/14 Q1013 NOSIG=
201004170100 METAR LMML NIL=
201004170045 METAR LMML 170045Z VRB01KT 7000 NSC 14/13 Q1012 NOSIG=
201004170030 METAR LMML NIL=
201004170015 METAR LMML 170015Z 00000KT 6000 NSC 14/14 Q1013 NOSIG=
201004170000 METAR LMML NIL=
201004162345 METAR LMML 162345Z VRB01KT 6000 NSC 15/14 Q1013 NOSIG=
201004162330 METAR LMML NIL=
201004162315 METAR LMML 162315Z VRB02KT 6000 NSC 14/14 Q1012 NOSIG=
201004162300 METAR LMML NIL=
201004162245 METAR LMML 162245Z VRB03KT 6000 NSC 15/14 Q1012 NOSIG=
201004162230 METAR LMML NIL=
201004162215 METAR LMML 162215Z 00000KT 8000 FEW009 15/14 Q1012 NOSIG=
201004162200 METAR LMML NIL=
201004162145 METAR LMML 162145Z VRB01KT 8000 FEW009 15/14 Q1012 NOSIG=
201004162130 METAR LMML NIL=
201004162115 METAR LMML 162115Z VRB01KT 9000 FEW009 15/14 Q1012 NOSIG=
201004162045 METAR LMML 162045Z VRB01KT 9000 FEW009 16/14 Q1012 NOSIG=
201004162030 METAR LMML NIL=
201004162015 METAR LMML 162015Z VRB01KT 9000 FEW015 15/14 Q1012 NOSIG=
201004162000 METAR LMML NIL=
201004161945 METAR LMML 161945Z VRB01KT 9000 FEW018 16/14 Q1012 NOSIG=
201004161930 METAR LMML NIL=
201004161915 METAR LMML 161915Z VRB02KT 9000 FEW018 16/14 Q1012 NOSIG=
201004161900 METAR LMML NIL=
201004161845 METAR LMML 161845Z VRB02KT 9000 FEW018 17/14 Q1011 NOSIG=
201004161830 METAR LMML NIL=
201004161815 METAR LMML 161815Z 30004KT 9000 FEW018 17/14 Q1011 NOSIG=
201004161800 METAR LMML NIL=
201004161745 METAR LMML 161745Z 30005KT 7000 SCT019 17/14 Q1011 NOSIG=
201004161730 METAR LMML NIL=
201004161715 METAR LMML 161715Z 30006KT 7000 FEW018 18/14 Q1010 NOSIG=
201004161700 METAR LMML NIL=
201004161645 METAR LMML 161645Z 34005KT 300V010 7000 FEW022 SCT120 19/14
                        Q1010 NOSIG=
201004161630 METAR LMML NIL=
201004161615 METAR LMML 161615Z 34006KT 300V020 7000 FEW015 19/14 Q1010
                        NOSIG=
201004161600 METAR LMML NIL=
201004161545 METAR LMML 161545Z 34007KT 300V010 7000 FEW015 20/14 Q1010
                        NOSIG=
201004161530 METAR LMML NIL=
201004161515 METAR LMML 161515Z 34008KT 270V020 7000 FEW015 20/14 Q1010
                        NOSIG=
201004161500 METAR LMML NIL=
201004161445 METAR LMML 161445Z 34009KT 310V010 7000 FEW015 20/14 Q1010
                        NOSIG=
201004161415 METAR LMML 161415Z 34009KT 7000 FEW015 20/14 Q1010 NOSIG=
201004161400 METAR LMML NIL=
201004161345 METAR LMML 161345Z 34009KT 290V020 7000 FEW015 21/14 Q1010
                        NOSIG=
201004161330 METAR LMML NIL=
201004161315 METAR LMML 161315Z 36009KT 320V030 7000 FEW015 21/14 Q1010
                        NOSIG=
201004161300 METAR LMML NIL=
201004161245 METAR LMML 161245Z 36009KT 330V030 7000 FEW018 21/13 Q1010
                        NOSIG=
201004161230 METAR LMML NIL=
201004161215 METAR LMML 161215Z 34008KT 310V020 7000 FEW018 20/14 Q1010
                        NOSIG=
201004161200 METAR LMML NIL=
201004161145 METAR LMML 161145Z 36008KT 330V040 7000 FEW015 20/14 Q1010
                        NOSIG=
201004161130 METAR LMML NIL=
201004161115 METAR LMML 161115Z 01011KT 7000 FEW015 20/14 Q1010 NOSIG=
201004161100 METAR LMML NIL=
201004161045 METAR LMML 161045Z 03011KT 010V070 7000 FEW011 20/14 Q1010
                        NOSIG=
201004161030 METAR LMML NIL=
201004161015 METAR LMML 161015Z 03009KT 360V070 7000 FEW011 20/14 Q1010
                        NOSIG=
201004161000 METAR LMML NIL=
201004160945 METAR LMML 160945Z 02010KT 360V070 7000 FEW009 19/14 Q1009
                        NOSIG=
201004160930 METAR LMML NIL=
201004160915 METAR LMML 160915Z 03013KT 7000 FEW009 19/14 Q1009 TEMPO
                        BKN008=
201004160900 METAR LMML NIL=
201004160845 METAR LMML 160845Z 01010KT 7000 SCT008 SCT130 20/15 Q1009
                        TEMPO BKN008=
201004160830 METAR LMML NIL=
201004160815 METAR LMML 160815Z 02010KT 360V060 6000 BKN008 SCT130 18/15
                        Q1010 TEMPO SCT008=
201004160800 METAR LMML NIL=
201004160745 METAR LMML 160745Z 03008KT 350V070 6000 HZ BKN008 SCT130
                        18/15 Q1009 TEMPO SCT008=
201004160730 METAR LMML NIL=
201004160715 METAR LMML 160715Z 04009KT 020V080 5000 HZ SCT007 SCT130
                        17/15 Q1009 BECMG 8000=
201004160700 METAR LMML NIL=
201004160645 METAR LMML 160645Z 03006KT 350V080 5000 BR SCT006 BKN130
                        17/15 Q1009 BECMG 8000=
201004160630 METAR LMML NIL=
201004160615 METAR LMML 160615Z 03007KT 360V080 4000 BR BKN005 BKN130
                        16/15 Q1009 BECMG 5000 BR SCT007=
201004160600 METAR LMML NIL=
201004160545 METAR LMML 160545Z 03009KT 010V070 4000 BR BKN005 BKN130
                        16/15 Q1008 BECMG 5000 BR SCT007=
201004160530 METAR LMML NIL=
201004160515 METAR LMML 160515Z 04007KT 010V070 4000 BR BKN006 SCT130
                        16/15 Q1009 BECMG SCT007=
201004160500 METAR LMML NIL=
201004160445 METAR LMML 160445Z 03006KT 3000 BR BKN007 SCT130 16/15 Q1008
                        BECMG SCT007=
201004160430 METAR LMML NIL=
201004160415 METAR LMML 160415Z VRB03KT 4000 BR BKN005 SCT130 16/15 Q1009
                        BECMG 5000=
201004160400 METAR LMML NIL=
201004160345 METAR LMML 160345Z 03008KT 4000 BR BKN006 SCT011 16/15 Q1007
                        BECMG 5000=
201004160330 METAR LMML NIL=
201004160315 METAR LMML 160315Z 03008KT 360V060 4000 BR BKN006 BKN011
                        16/15 Q1007 BECMG 5000=
201004160300 METAR LMML NIL=
201004160245 METAR LMML 160245Z 04008KT 010V070 3000 BR OVC006 16/15 Q1007
                        NOSIG=
201004160215 METAR LMML 160215Z 03008KT 360V060 2000 BR OVC005 16/15 Q1007
                        NOSIG=
201004160200 METAR LMML NIL=
201004160145 METAR LMML 160145Z 03008KT 2000 BR OVC004 16/15 Q1007 NOSIG=
201004160130 METAR LMML NIL=
201004160115 METAR LMML 160115Z 05007KT 020V080 2000 BR OVC004 16/15 Q1007
                        NOSIG=
201004160100 METAR LMML NIL=
201004160045 METAR LMML 160045Z 04008KT 010V080 2000 BR OVC002 15/15 Q1007
                        NOSIG=
201004160015 METAR LMML 160015Z 04008KT 010V080 2000 BR OVC001 15/15 Q1007
                        NOSIG=
201004160000 METAR LMML NIL=
201004152345 METAR LMML 152345Z 03007KT 2000 BR OVC001 15/15 Q1007 NOSIG=
201004152315 METAR LMML 152315Z 02008KT 360V060 2000 BR OVC001 16/15 Q1007
                        NOSIG=
201004152300 METAR LMML NIL=
201004152245 METAR LMML 152245Z 03006KT 350V060 2000 BR OVC002 16/15 Q1007
                        NOSIG=
201004152230 METAR LMML NIL=
201004152215 METAR LMML 152215Z 03005KT 350V070 2000 BR BKN001 16/15 Q1007
                        NOSIG=
201004152200 METAR LMML NIL=
201004152145 METAR LMML 152145Z 03007KT 360V060 3000 BR BKN001 16/16 Q1006
                        NOSIG=
201004152130 METAR LMML NIL=
201004152115 METAR LMML 152115Z 05008KT 020V090 3000 BR BKN002 16/15 Q1006
                        NOSIG=
201004152100 METAR LMML NIL=
201004152045 METAR LMML 152045Z 03004KT 360V070 3000 BR BKN002 16/16 Q1007
                        NOSIG=
201004152030 METAR LMML NIL=
201004152015 METAR LMML 152015Z VRB03KT 3000 BR BKN003 16/16 Q1008 NOSIG=
201004152000 METAR LMML NIL=
201004151945 METAR LMML 151945Z 05005KT 020V080 3000 BR OVC003 16/16 Q1007
                        NOSIG=
201004151930 METAR LMML NIL=
201004151915 METAR LMML 151915Z 07004KT 4000 BR BKN003 16/15 Q1007 NOSIG=
201004151900 METAR LMML NIL=
201004151845 METAR LMML 151845Z 08004KT 050V110 4000 BR BKN004 16/15 Q1006
                        NOSIG=
201004151830 METAR LMML NIL=
201004151815 METAR LMML 151815Z 07006KT 040V100 4000 BR FEW004 16/15 Q1006
                        BECMG BKN004=
201004151800 METAR LMML NIL=
201004151745 METAR LMML 151745Z 07006KT 030V090 4000 BR SCT004 17/15 Q1005
                        BECMG BKN004=
201004151730 METAR LMML NIL=
201004151715 METAR LMML 151715Z 08006KT 050V120 5000 FEW005 17/15 Q1005
                        NOSIG=
201004151645 METAR LMML 151645Z 10007KT 060V130 6000 FEW006 18/16 Q1005
                        NOSIG=
201004151615 METAR LMML 151615Z 11008KT 070V130 8000 NSC 19/16 Q1005 NOSIG=
201004151600 METAR LMML NIL=
201004151545 METAR LMML 151545Z 11008KT 080V150 8000 FEW008 19/16 Q1005
                        NOSIG=
201004151530 METAR LMML NIL=
201004151515 METAR LMML 151515Z 11009KT 080V140 8000 FEW008 20/16 Q1005
                        NOSIG=
201004151500 METAR LMML NIL=
201004151445 METAR LMML 151445Z 11009KT 080V150 8000 FEW008 19/15 Q1006
                        NOSIG=
201004151430 METAR LMML NIL=
201004151415 METAR LMML 151415Z 10010KT 070V140 8000 SCT009 20/16 Q1006
                        NOSIG=
201004151400 METAR LMML NIL=
201004151345 METAR LMML 151345Z 11010KT 8000 FEW009 20/15 Q1006 NOSIG=
201004151330 METAR LMML NIL=
201004151315 METAR LMML 151315Z 09011KT 060V120 8000 FEW009 20/15 Q1007
                        NOSIG=
201004151300 METAR LMML NIL=
201004151245 METAR LMML 151245Z 11012KT 080V140 8000 FEW009 20/15 Q1007
                        NOSIG=
201004151230 METAR LMML NIL=
201004151215 METAR LMML 151215Z 11010KT 070V160 8000 FEW009 21/15 Q1007
                        NOSIG=
201004151200 METAR LMML NIL=
201004151145 METAR LMML 151145Z 09013KT 060V120 8000 FEW009 20/15 Q1007
                        NOSIG=
201004151130 METAR LMML NIL=
201004151115 METAR LMML 151115Z 09014KT 7000 FEW009 20/15 Q1008 TEMPO
                        8000=
201004151100 METAR LMML NIL=
201004151045 METAR LMML 151045Z 09014KT 7000 FEW009 20/15 Q1008 TEMPO
                        8000=
201004151030 METAR LMML NIL=
201004151015 METAR LMML 151015Z 08015KT 7000 FEW009 19/15 Q1008 TEMPO
                        8000=
201004151000 METAR LMML NIL=
201004150945 METAR LMML 150945Z 07013KT 030V130 7000 FEW009 20/15 Q1009
                        TEMPO 8000=
201004150915 METAR LMML 150915Z 08014KT 050V110 7000 FEW009 19/14 Q1009
                        TEMPO 8000=
201004150900 METAR LMML NIL=
201004150845 METAR LMML 150845Z 08013KT 040V110 6000 FEW009 18/14 Q1009
                        TEMPO 8000=
201004150830 METAR LMML NIL=
201004150815 METAR LMML 150815Z 07012KT 040V110 5000 FEW006 18/14 Q1008
                        TEMPO 8000=
201004150800 METAR LMML NIL=
201004150745 METAR LMML 150745Z 07010KT 030V100 4500 SCT006 17/15 Q1009
                        TEMPO 5000=
201004150736 SPECI LMML 150736Z 07010KT 030V100 4000 SCT006 17/15 Q1009
                        TEMPO 5000=
201004150730 METAR LMML NIL=
201004150715 METAR LMML 150715Z 05011KT 030V090 4000 BR BKN006 17/15 Q1009
                        TEMPO 5000=
201004150700 METAR LMML NIL=
201004150645 METAR LMML 150645Z 06010KT 030V090 4000 BR BKN005 16/15 Q1009
                        TEMPO 5000=
201004150630 METAR LMML NIL=
201004150615 METAR LMML 150615Z 05008KT 020V100 4000 BR BKN004 SCT100
                        15/15 Q1009 TEMPO 5000 BKN005=
201004150600 METAR LMML NIL=
201004150545 METAR COR LMML 150545Z 05006KT 010V090 4000 BR BKN003 SCT100
                        15/15 Q1009 TEMPO 5000=
201004150530 METAR LMML NIL=
201004150515 METAR LMML 150515Z 07007KT 020V110 3000 BR BKN002 SCT100
                        15/14 Q1009 TEMPO 4000=
201004150500 METAR LMML NIL=
201004150445 METAR LMML 150445Z 08007KT 040V110 3000 BR BKN002 14/14 Q1009
                        NOSIG=
201004150430 METAR LMML NIL=
201004150415 METAR LMML 150415Z 07008KT 040V100 4000 BKN001 14/14 Q1009
                        NOSIG=
201004150400 METAR LMML NIL=
201004150345 METAR LMML 150345Z 07007KT 040V110 4000 BKN002 14/14 Q1009
                        NOSIG=
201004150330 METAR LMML NIL=
201004150315 METAR LMML 150315Z 08006KT 030V140 4000 BKN002 14/14 Q1009
                        NOSIG=
201004150300 METAR LMML NIL=
201004150245 METAR LMML 150245Z 06007KT 030V100 4000 BKN002 14/14 Q1009
                        NOSIG=
201004150230 METAR LMML NIL=
201004150215 METAR LMML 150215Z 08006KT 050V120 4000 BKN002 14/14 Q1009
                        NOSIG=
201004150200 METAR LMML NIL=
201004150145 METAR LMML 150145Z 07007KT 040V100 4000 BKN002 14/14 Q1009
                        NOSIG=
201004150130 METAR LMML NIL=
201004150115 METAR LMML 150115Z 07008KT 040V100 4000 BKN002 14/14 Q1009
                        NOSIG=
201004150100 METAR LMML NIL=
201004150045 METAR LMML 150045Z 10011KT 070V130 1000 R13/P1500N BKN001
                        14/14 Q1009 NOSIG=
201004150030 METAR LMML NIL=
201004150015 METAR LMML 150015Z 09009KT 1000 R13/P1500N OVC001 14/14 Q1010
                        NOSIG=
201004150000 METAR LMML NIL=
201004142345 METAR LMML 142345Z 08009KT 050V120 1000 R13/P1500N OVC001
                        14/14 Q1010 NOSIG=
201004142330 METAR LMML NIL=
201004142315 METAR LMML 142315Z 08009KT 050V110 1000 R13/P1500N OVC001
                        14/14 Q1010 NOSIG=
201004142300 METAR LMML NIL=
201004142245 METAR LMML 142245Z 08009KT 030V120 1000 R13/P1500N OVC001
                        14/14 Q1010 TEMPO 0800=
201004142230 METAR LMML NIL=
201004142215 METAR LMML 142215Z 08010KT 1000 R13/P1500N OVC001 14/14 Q1010
                        TEMPO 0800=
201004142200 METAR LMML NIL=
201004142145 METAR LMML 142145Z 09010KT 060V120 1000 R13/P1500N OVC001
                        14/14 Q1010 TEMPO 0800=
201004142130 METAR LMML NIL=
201004142115 METAR LMML 142115Z 08010KT 050V110 1000 R13/P1500N OVC001
                        14/14 Q1011 TEMPO 0800=
201004142100 METAR LMML NIL=
201004142045 METAR LMML 142045Z 07010KT 040V100 1000 R13/P1500N OVC001
                        14/14 Q1011 NOSIG=
201004142030 METAR LMML NIL=
201004142015 METAR LMML 142015Z 08008KT 050V110 2500 OVC001 14/14 Q1011
                        TEMPO 1500=
201004142000 METAR LMML NIL=
201004141945 METAR LMML 141945Z 09008KT 060V130 2500 BKN001 14/14 Q1011
                        NOSIG=
201004141930 METAR LMML NIL=
201004141915 METAR LMML 141915Z 09009KT 3500 BKN002 14/14 Q1011 BECMG
                        2000 OVC001=
201004141900 METAR LMML NIL=
201004141845 METAR LMML 141845Z 11009KT 3500 BKN002 15/14 Q1011 BECMG
                        2000 OVC001=
201004141830 METAR LMML NIL=
201004141815 METAR LMML 141815Z 08007KT 050V120 4000 BKN003 15/14 Q1011
                        BECMG OVC002=
201004141800 METAR LMML NIL=
201004141745 METAR LMML 141745Z 08008KT 050V130 4000 BKN004 15/14 Q1011
                        NO SIG=
201004141730 METAR LMML NIL=
201004141715 METAR LMML 141715Z 07007KT 040V100 6000 BKN005 15/14 Q1011
                        BECMG 5000=
201004141700 METAR LMML NIL=
201004141645 METAR LMML 141645Z 06007KT 030V090 7000 BKN005 16/14 Q1011
                        BECMG 5000=
201004141630 METAR LMML NIL=
201004141615 METAR LMML 141615Z 06006KT 350V100 7000 BKN006 17/14 Q1011
                        BECMG BKN005=
201004141600 METAR LMML NIL=
201004141545 METAR LMML 141545Z 05006KT 360V090 8000 FEW007 18/14 Q1011
                        BECMG BKN006=
201004141530 METAR LMML NIL=
201004141515 METAR LMML 141515Z 04006KT 010V080 8000 FEW007 19/14 Q1011
                        BECMG BKN006=
201004141500 METAR LMML NIL=
201004141445 METAR LMML 141445Z 02006KT 340V070 8000 FEW007 20/14 Q1011
                        BECMG BKN006=
201004141430 METAR LMML NIL=
201004141415 METAR LMML 141415Z 06006KT 350V100 8000 FEW007 SCT250 20/14
                        Q1011 BECMG BKN006=
201004141400 METAR LMML NIL=
201004141345 METAR LMML 141345Z 06006KT 020V120 8000 FEW007 BKN250 20/14
                        Q1011 NOSIG=
201004141330 METAR LMML NIL=
201004141315 METAR LMML 141315Z 05006KT 330V130 8000 FEW007 BKN250 21/14
                        Q1011 NOSIG=
201004141300 METAR LMML NIL=
201004141245 METAR LMML 141245Z 03006KT 350V070 8000 FEW007 BKN250 20/15
                        Q1012 NOSIG=
201004141230 METAR LMML NIL=
201004141215 METAR LMML 141215Z 05006KT 360V110 8000 FEW007 BKN250 20/15
                        Q1012 NOSIG=
201004141200 METAR LMML NIL=
201004141145 METAR LMML 141145Z 07006KT 020V190 8000 FEW007 BKN250 19/15
                        Q1012 NOSIG=
201004141115 METAR LMML 141115Z 08008KT 040V140 7000 BKN006 SCT250 19/14
                        Q1012 NOSIG=
201004141100 METAR LMML NIL=
201004141045 METAR LMML 141045Z 09007KT 050V130 6000 BKN006 18/14 Q1012
                        NOSIG=
201004141030 METAR LMML NIL=
201004141015 METAR LMML 141015Z 08009KT 040V110 6000 BKN006 SCT250 18/14
                        Q1011 NOSIG=
201004141000 METAR LMML NIL=
201004140945 METAR LMML 140945Z 08009KT 050V120 6000 BKN005 18/14 Q1011
                        BECMG 5000 BKN005=
201004140930 METAR LMML NIL=
201004140915 METAR LMML 140915Z 08009KT 050V120 6000 BKN004 17/14 Q1011
                        BECMG BKN005=
201004140900 METAR LMML NIL=
201004140845 METAR LMML 140845Z 08008KT 040V130 4000 BR BKN004 16/14 Q1012
                        BECMG 5000 BKN005=
201004140830 METAR LMML NIL=
201004140815 METAR LMML 140815Z 08007KT 050V110 3000 BR BKN002 SCT003
                        16/15 Q1011 NOSIG=
201004140800 METAR LMML NIL=
201004140745 METAR LMML 140745Z 05006KT 020V080 2000 BR BKN002 SCT003
                        15/14 Q1011 NOSIG=
201004140715 METAR LMML 140715Z 04006KT 010V080 2000 BR OVC002 15/14 Q1011
                        NOSIG=
201004140700 METAR LMML NIL=
201004140645 METAR LMML 140645Z 03005KT 010V070 2000 BR SCT001 OVC002
                        15/14 Q1011 NOSIG=
201004140630 METAR LMML NIL=
201004140615 METAR LMML 140615Z 03005KT 360V070 2000 BR OVC002 15/14 Q1011
                        NOSIG=
201004140545 METAR LMML 140545Z 04006KT 010V070 3000 BR OVC003 15/14 Q1011
                        BECMG 5000=
201004140530 METAR LMML NIL=
201004140515 METAR LMML 140515Z 04007KT 010V080 3000 BR BKN004 15/14 Q1011
                        NOSIG=
201004140500 METAR LMML NIL=
201004140445 METAR LMML 140445Z 05005KT 3000 BR BKN004 15/14 Q1011 TEMPO
                        3000=
201004140430 METAR LMML NIL=
201004140415 METAR LMML 140415Z 04005KT 010V070 4000 BR BKN005 15/14 Q1011
                        TEMPO 3000=
201004140345 METAR LMML 140345Z 02004KT 4000 BR BKN004 15/14 Q1011 TEMPO
                        3000=
201004140330 METAR LMML NIL=
201004140315 METAR LMML 140315Z 03006KT 010V070 6000 BKN004 15/14 Q1011
                        TEMPO 5000=
201004140300 METAR LMML NIL=
201004140245 METAR LMML 140245Z 03004KT 350V080 6000 BKN005 15/14 Q1011
                        TEMPO 5000=
201004140230 METAR LMML NIL=
201004140215 METAR LMML 140215Z 03005KT 360V070 6000 BKN005 15/14 Q1011
                        TEMPO 5000=
201004140200 METAR LMML NIL=
201004140145 METAR LMML 140145Z 03005KT 350V070 6000 BKN006 15/14 Q1011
                        TEMPO 5000 BKN005=
201004140130 METAR LMML NIL=
201004140115 METAR LMML 140115Z 03004KT 360V060 6000 BKN006 15/14 Q1011
                        TEMPO 5000 BKN005=
201004140045 METAR LMML 140045Z 03005KT 360V060 7000 BKN005 15/14 Q1011
                        TEMPO 5000 BKN005=
201004140030 METAR LMML NIL=
201004140015 METAR LMML 140015Z 02005KT 7000 BKN005 15/14 Q1012 TEMPO
                        5000 BKN005=
201004140000 METAR LMML NIL=
201004132345 METAR LMML 132345Z 02005KT 360V060 7000 BKN006 15/14 Q1012
                        TEMPO 5000 BKN005=
201004132330 METAR LMML NIL=
201004132315 METAR LMML 132315Z 02007KT 350V060 7000 BKN006 15/14 Q1012
                        TEMPO 5000 BKN005=
201004132300 METAR LMML NIL=
201004132245 METAR LMML 132245Z 02005KT 360V060 7000 SCT006 15/14 Q1012
                        TEMPO 5000 BKN005=
201004132230 METAR LMML NIL=
201004132215 METAR LMML 132215Z 01005KT 340V040 7000 FEW007 15/14 Q1012
                        TEMPO 5000 BKN005=
201004132200 METAR LMML NIL=
201004132145 METAR LMML 132145Z 04006KT 360V080 7000 FEW006 15/14 Q1011
                        TEMPO 5000 BKN005=
201004132130 METAR LMML NIL=
201004132115 METAR LMML 132115Z 03005KT 360V070 7000 FEW006 15/14 Q1011
                        TEMPO 5000 BKN005=
201004132100 METAR LMML NIL=
201004132045 METAR LMML 132045Z 02004KT 350V050 7000 FEW005 15/14 Q1012
                        TEMPO 5000 BKN005=
201004132030 METAR LMML NIL=
201004132015 METAR LMML 132015Z 02005KT 7000 SCT005 15/14 Q1011 TEMPO
                        5000 BKN005=
201004132000 METAR LMML NIL=
201004131945 METAR LMML 131945Z 02005KT 350V060 7000 SCT005 15/14 Q1011
                        TEMPO 5000 BKN005=
201004131930 METAR LMML NIL=
201004131915 METAR LMML 131915Z 03006KT 350V060 7000 SCT005 16/14 Q1011
                        TEMPO 5000 BKN005=
201004131900 METAR LMML NIL=
201004131845 METAR LMML 131845Z 03006KT 010V070 7000 SCT005 16/14 Q1010
                        TEMPO 5000 BKN005=
201004131830 METAR LMML NIL=
201004131815 METAR LMML 131815Z 02006KT 350V050 7000 SCT005 16/14 Q1010
                        TEMPO 5000 BKN005=
201004131745 METAR LMML 131745Z 02006KT 9000 SCT005 16/14 Q1009 NOSIG=
201004131715 METAR LMML 131715Z 02008KT 340V070 9000 FEW006 17/15 Q1009
                        NOSIG=
201004131700 METAR LMML NIL=
201004131645 METAR LMML 131645Z 02006KT 9000 NSC 18/15 Q1009 NOSIG=
201004131630 METAR LMML NIL=
201004131615 METAR LMML 131615Z 01006KT 340V040 9000 NSC 19/15 Q1008 NOSIG=
201004131545 METAR LMML 131545Z 02005KT 9000 NSC 20/15 Q1008 NOSIG=
201004131530 METAR LMML NIL=
201004131515 METAR LMML 131515Z 02006KT 350V060 9000 NSC 20/15 Q1008 NOSIG=
201004131500 METAR LMML NIL=
201004131445 METAR LMML 131445Z 03006KT 360V060 9000 NSC 21/15 Q1008 NOSIG=
201004131430 METAR LMML NIL=
201004131415 METAR LMML 131415Z 03007KT 300V090 9000 NSC 21/16 Q1007 NOSIG=
201004131400 METAR LMML NIL=
201004131345 METAR LMML 131345Z 03006KT 350V060 9000 NSC 22/15 Q1008 NOSIG=
201004131330 METAR LMML NIL=
201004131315 METAR LMML 131315Z 03007KT 350V080 9000 NSC 22/16 Q1007 NOSIG=
201004131300 METAR LMML NIL=
201004131245 METAR LMML 131245Z 02007KT 350V060 9000 NSC 23/16 Q1007 NOSIG=
201004131230 METAR LMML NIL=
201004131215 METAR LMML 131215Z 04007KT 020V100 9000 NSC 23/15 Q1007 NOSIG=
201004131200 METAR LMML NIL=
201004131145 METAR LMML 131145Z 05005KT 350V110 9000 NSC 22/15 Q1007 NOSIG=
201004131130 METAR LMML NIL=
201004131115 METAR LMML 131115Z 11005KT 050V160 9000 NSC 21/15 Q1007 NOSIG=
201004131100 METAR LMML NIL=
201004131045 METAR LMML 131045Z 09007KT 060V120 9000 NSC 20/15 Q1007 NOSIG=
201004131030 METAR LMML NIL=
201004131015 METAR LMML 131015Z 11008KT 070V150 7000 NSC 20/15 Q1007 NOSIG=
201004130945 METAR LMML 130945Z 08007KT 050V140 7000 NSC 20/15 Q1007 NOSIG=
201004130930 METAR LMML NIL=
201004130915 METAR LMML 130915Z 11008KT 7000 NSC 18/16 Q1007 NOSIG=
201004130900 METAR LMML NIL=
201004130845 METAR LMML 130845Z 12007KT 090V160 7000 NSC 17/15 Q1008 NOSIG
                        RMK DUST=
201004130830 METAR LMML NIL=
201004130815 METAR LMML 130815Z 12010KT 7000 NSC 17/15 Q1007 NOSIG RMK
                        DUST HAZE=
201004130800 METAR LMML NIL=
201004130745 METAR LMML 130745Z 12009KT 6000 NSC 17/15 Q1007 NOSIG RMK
                        DUST HAZE=
201004130730 METAR LMML NIL=
201004130715 METAR LMML 130715Z 12010KT 6000 FEW030 SCT100 BKN250 17/15
                        Q1007 NOSIG RMK DUST HAZE=
201004130700 METAR LMML NIL=
201004130645 METAR LMML 130645Z 12010KT 080V150 6000 FEW030 SCT120 BKN250
                        17/15 Q1007 NOSIG RMK DUST HAZE=
201004130630 METAR LMML NIL=
201004130615 METAR LMML 130615Z 12009KT 6000 FEW030 BKN110 16/15 Q1007
                        NOSIG=
201004130600 METAR LMML NIL=
201004130545 METAR LMML 130545Z 13008KT 100V160 7000 FEW030 BKN100 15/14
                        Q1007 NOSIG=
201004130530 METAR LMML NIL=
201004130515 METAR LMML 130515Z 12009KT 7000 NSC 15/14 Q1007 NOSIG=
201004130500 METAR LMML NIL=
201004130445 METAR LMML 130445Z 12008KT 7000 NSC 15/13 Q1007 NOSIG=
201004130430 METAR LMML NIL=
201004130415 METAR LMML 130415Z 12010KT 9000 NSC 15/13 Q1006 NOSIG=
201004130400 METAR LMML NIL=
201004130345 METAR LMML 130345Z 12010KT 9000 NSC 15/13 Q1006 NOSIG=
201004130330 METAR LMML NIL=
201004130315 METAR LMML 130315Z 12010KT CAVOK 15/13 Q1006 NOSIG=
201004130300 METAR LMML NIL=
201004130245 METAR LMML 130245Z 12010KT CAVOK 15/13 Q1006 NOSIG=
201004130230 METAR LMML NIL=
201004130215 METAR LMML 130215Z 12010KT CAVOK 15/13 Q1006 NOSIG=
201004130200 METAR LMML NIL=
201004130145 METAR LMML 130145Z 12009KT CAVOK 15/13 Q1006 NOSIG=
201004130130 METAR LMML NIL=
201004130115 METAR LMML 130115Z 12008KT CAVOK 15/13 Q1007 NOSIG=
201004130100 METAR LMML NIL=
201004130045 METAR LMML 130045Z 12008KT CAVOK 15/13 Q1007 NOSIG=
201004130030 METAR LMML NIL=
201004130015 METAR COR LMML 130015Z 12009KT CAVOK 15/13 Q1007 NOSIG=
201004130000 METAR LMML NIL=
201004122345 METAR LMML 122345Z 13008KT CAVOK 15/13 Q1007 NOSIG=
201004122330 METAR LMML NIL=
201004122315 METAR LMML 122315Z 13009KT CAVOK 15/13 Q1008 NOSIG=
201004122300 METAR LMML NIL=
201004122245 METAR LMML 122245Z 12008KT CAVOK 15/13 Q1008 NOSIG=
201004122230 METAR LMML NIL=
201004122215 METAR LMML 122215Z 11007KT CAVOK 15/13 Q1008 NOSIG=
201004122200 METAR LMML NIL=
201004122145 METAR LMML 122145Z 10005KT CAVOK 15/13 Q1009 NOSIG=
201004122130 METAR LMML NIL=
201004122115 METAR LMML 122115Z 12006KT CAVOK 15/13 Q1009 NOSIG=
201004122100 METAR LMML NIL=
201004122045 METAR LMML 122045Z 12006KT CAVOK 15/13 Q1009 NOSIG=
201004122030 METAR LMML NIL=
201004122015 METAR LMML 122015Z 11005KT 050V160 CAVOK 16/13 Q1009 NOSIG=
201004122000 METAR LMML NIL=
201004121945 METAR LMML 121945Z 10004KT 060V130 CAVOK 16/14 Q1009 NOSIG=
201004121930 METAR LMML NIL=
201004121915 METAR LMML 121915Z 14005KT 110V170 CAVOK 16/14 Q1009 NOSIG=
201004121900 METAR LMML NIL=
201004121845 METAR LMML 121845Z 16005KT 120V190 9999 -RA NSC 16/14 Q1009
                        NOSIG=
201004121830 METAR LMML NIL=
201004121815 METAR LMML 121815Z 16008KT CAVOK 16/14 Q1008 NOSIG=
201004121800 METAR LMML NIL=
201004121745 METAR LMML 121745Z 15008KT 130V190 CAVOK 16/14 Q1008 NOSIG=
201004121730 METAR LMML NIL=
201004121715 METAR LMML 121715Z 15006KT 100V190 CAVOK 16/14 Q1008 NOSIG=
201004121700 METAR LMML NIL=
201004121645 METAR LMML 121645Z 16009KT 130V200 CAVOK 16/14 Q1008 NOSIG=
201004121630 METAR LMML NIL=
201004121615 METAR LMML 121615Z 16010KT 120V190 CAVOK 17/14 Q1008 NOSIG=
201004121600 METAR LMML NIL=
201004121545 METAR LMML 121545Z 16011KT 120V180 9000 NSC 18/14 Q1008 NOSIG=
201004121515 METAR LMML 121515Z 18011KT 120V230 9000 FEW012 BKN100 18/14
                        Q1008 NOSIG=
201004121500 METAR LMML NIL=
201004121445 METAR LMML 121445Z 18009KT 140V210 8000 NSC 18/14 Q1008 NOSIG=
201004121430 METAR LMML NIL=
201004121415 METAR LMML 121415Z 18010KT 150V220 8000 NSC 17/14 Q1008 NOSIG=
201004121400 METAR LMML NIL=
201004121345 METAR LMML 121345Z 19010KT 160V230 8000 NSC 17/14 Q1009 NOSIG=
201004121330 METAR LMML NIL=
201004121315 METAR LMML 121315Z 18010KT 150V220 8000 NSC 17/14 Q1009 NOSIG=
201004121300 METAR LMML NIL=
201004121245 METAR LMML 121245Z 19009KT 160V230 9000 NSC 18/14 Q1009 NOSIG=
201004121230 METAR LMML NIL=
201004121215 METAR LMML 121215Z 19008KT 160V250 9000 NSC 18/14 Q1010 NOSIG=
201004121200 METAR LMML NIL=
201004121145 METAR LMML 121145Z 19008KT 160V230 8000 FEW011 BKN120 BKN250
                        17/14 Q1010 NOSIG=
201004121130 METAR LMML NIL=
201004121115 METAR LMML 121115Z 19010KT 150V230 8000 FEW011 BKN120 BKN250
                        17/14 Q1010 TEMPO 5000 HZ RMK DUST
                        HAZE=
201004121100 METAR LMML NIL=
201004121045 METAR LMML 121045Z 21009KT 170V260 7000 FEW011 BKN120 BKN250
                        18/14 Q1010 TEMPO 5000 HZ RMK DUST
                        HAZE=
201004121030 METAR LMML NIL=
201004121015 METAR LMML 121015Z 20009KT 160V240 7000 FEW011 BKN120 BKN250
                        18/15 Q1010 TEMPO 5000 HZ RMK DUST
                        HAZE=
201004121000 METAR LMML NIL=
201004120945 METAR LMML 120945Z 20011KT 160V260 7000 FEW011 BKN120 BKN250
                        18/15 Q1010 TEMPO 5000 HZ RMK DUST
                        HAZE=
201004120930 METAR LMML NIL=
201004120915 METAR LMML 120915Z 20010KT 170V240 7000 FEW010 BKN120 BKN250
                        17/14 Q1010 TEMPO 5000 HZ RMK DUST
                        HAZE=
201004120900 METAR LMML NIL=
201004120845 METAR LMML 120845Z 19009KT 150V220 8000 FEW010 SCT120 BKN250
                        17/14 Q1010 NOSIG=
201004120830 METAR LMML NIL=
201004120815 METAR LMML 120815Z 18009KT 140V230 8000 FEW010 SCT090 BKN250
                        17/14 Q1010 NOSIG=
201004120745 METAR LMML 120745Z 19008KT 150V260 9000 FEW010 SCT090 BKN250
                        17/14 Q1009 NOSIG=
201004120730 METAR LMML NIL=
201004120715 METAR LMML 120715Z 17007KT 130V210 9000 FEW011 SCT090 BKN250
                        17/14 Q1009 NOSIG=
201004120700 METAR LMML NIL=
201004120645 METAR LMML 120645Z 18008KT 140V210 9999 FEW011 SCT110 BKN250
                        16/14 Q1009 NOSIG=
201004120630 METAR LMML NIL=
201004120615 METAR LMML 120615Z 18009KT 150V240 CAVOK 16/14 Q1009 NOSIG=
201004120600 METAR LMML NIL=
201004120545 METAR LMML 120545Z 19009KT 160V220 CAVOK 16/14 Q1009 NOSIG=
201004120530 METAR LMML NIL=
201004120515 METAR LMML 120515Z 19010KT 160V220 CAVOK 15/13 Q1009 NOSIG=
201004120500 METAR LMML NIL=
201004120445 METAR LMML 120445Z 19011KT 160V240 CAVOK 15/13 Q1009 NOSIG=
201004120430 METAR LMML NIL=
201004120415 METAR LMML 120415Z 19013KT 160V220 CAVOK 15/13 Q1009 NOSIG=
201004120400 METAR LMML NIL=
201004120345 METAR LMML 120345Z 19011KT 150V220 CAVOK 15/13 Q1009 NOSIG=
201004120330 METAR LMML NIL=
201004120315 METAR LMML 120315Z 19011KT 160V220 CAVOK 15/13 Q1009 NOSIG=
201004120300 METAR LMML NIL=
201004120245 METAR LMML 120245Z 19012KT 160V220 CAVOK 15/12 Q1009 NOSIG=
201004120230 METAR LMML NIL=
201004120215 METAR LMML 120215Z 18012KT CAVOK 15/12 Q1010 NOSIG=
201004120200 METAR LMML NIL=
201004120145 METAR LMML 120145Z 18010KT CAVOK 15/12 Q1010 NOSIG=
201004120115 METAR LMML 120115Z 17008KT 140V210 CAVOK 15/12 Q1010 NOSIG=
201004120100 METAR LMML NIL=
201004120045 METAR LMML 120045Z 17009KT 140V200 CAVOK 15/11 Q1010 NOSIG=
201004120030 METAR LMML NIL=
201004120015 METAR LMML 120015Z 17009KT 140V200 CAVOK 15/11 Q1011 NOSIG=
201004120000 METAR LMML NIL=
201004112345 METAR LMML 112345Z 17007KT 130V210 CAVOK 15/11 Q1011 NOSIG=
201004112315 METAR LMML 112315Z 18007KT 140V210 CAVOK 15/11 Q1011 NOSIG=
201004112245 METAR LMML 112245Z 18009KT 150V220 CAVOK 15/11 Q1011 NOSIG=
201004112230 METAR LMML NIL=
201004112215 METAR LMML 112215Z 18008KT 140V210 CAVOK 14/11 Q1012 NOSIG=
201004112200 METAR LMML NIL=
201004112145 METAR LMML 112145Z 17004KT 130V220 CAVOK 14/11 Q1012 NOSIG=
201004112130 METAR LMML NIL=
201004112115 METAR LMML 112115Z 18005KT 140V210 CAVOK 14/11 Q1012 NOSIG=
201004112045 METAR LMML 112045Z 19007KT 160V220 9999 FEW015 14/11 Q1012
                        NOSIG=
201004112030 METAR LMML NIL=
201004112015 METAR LMML 112015Z 20007KT 150V240 9999 FEW016 14/11 Q1012
                        NOSIG=
201004111945 METAR LMML 111945Z 20006KT 170V230 9999 FEW016 14/11 Q1012
                        NOSIG=
201004111930 METAR LMML NIL=
201004111915 METAR LMML 111915Z 20007KT 160V230 9999 FEW016 14/11 Q1012
                        NOSIG=
201004111845 METAR LMML 111845Z 21004KT 160V260 9999 FEW016 14/11 Q1012
                        NOSIG=
201004111830 METAR LMML NIL=
201004111815 METAR LMML 111815Z VRB03KT 9999 FEW016 15/11 Q1012 NOSIG=
201004111745 METAR LMML 111745Z 20004KT 140V240 9999 FEW017 15/11 Q1012
                        NOSIG=
201004111730 METAR LMML NIL=
201004111715 METAR LMML 111715Z 22005KT 190V280 9999 FEW018 15/11 Q1012
                        NOSIG=
201004111700 METAR LMML NIL=
201004111645 METAR LMML 111645Z 24006KT 200V290 9999 FEW019 16/11 Q1012
                        NOSIG=
201004111630 METAR LMML NIL=
201004111615 METAR LMML 111615Z 23006KT 180V280 9999 FEW019 16/11 Q1012
                        NOSIG=
201004111600 METAR LMML NIL=
201004111545 METAR LMML 111545Z 25009KT 220V300 9999 FEW019 16/11 Q1013
                        NOSIG=
201004111530 METAR LMML NIL=
201004111515 METAR LMML 111515Z 25009KT 200V290 9999 SCT019 17/12 Q1013
                        NOSIG=
201004111500 METAR LMML NIL=
201004111445 METAR LMML 111445Z 23009KT 190V280 9999 SCT019 17/11 Q1013
                        NOSIG=
201004111430 METAR LMML NIL=
201004111415 METAR LMML 111415Z 24009KT 200V280 9999 FEW023 17/11 Q1013
                        NOSIG=
201004111400 METAR LMML NIL=
201004111345 METAR LMML 111345Z 23009KT 200V300 9999 FEW025 17/11 Q1013
                        NOSIG=
201004111330 METAR LMML NIL=
201004111315 METAR LMML 111315Z 27010KT 220V300 9999 FEW020 17/10 Q1013
                        NOSIG=
201004111300 METAR LMML NIL=
201004111245 METAR LMML 111245Z 26009KT 200V310 9999 FEW020 17/10 Q1014
                        NOSIG=
201004111230 METAR LMML NIL=
201004111215 METAR LMML 111215Z 26010KT 220V290 9999 FEW021 17/10 Q1014
                        NOSIG=
201004111145 METAR LMML 111145Z 26012KT 230V290 9999 FEW023 17/10 Q1014
                        NOSIG=
201004111115 METAR LMML 111115Z 26011KT 230V300 9999 FEW022 17/10 Q1014
                        NOSIG=
201004111100 METAR LMML NIL=
201004111045 METAR LMML 111045Z 25010KT 200V300 9999 FEW025 18/09 Q1014
                        NOSIG=
201004111030 METAR LMML NIL=
201004111015 METAR LMML 111015Z 28009KT 230V310 9999 FEW025 19/08 Q1014
                        NOSIG=
201004110945 METAR LMML 110945Z 28009KT CAVOK 19/07 Q1015 TEMPO 9999 FEW025=
201004110915 METAR LMML 110915Z 29010KT 250V330 CAVOK 18/08 Q1015 TEMPO
                        9999 FEW025=
201004110900 METAR LMML NIL=
201004110845 METAR LMML 110845Z 28010KT 240V320 9999 FEW025 18/08 Q1015
                        TEMPO CAVOK=
201004110830 METAR LMML NIL=
201004110815 METAR LMML 110815Z 30011KT 250V330 CAVOK 17/08 Q1015 NOSIG=
201004110800 METAR LMML NIL=
201004110745 METAR LMML 110745Z 29011KT 260V320 CAVOK 17/09 Q1015 NOSIG=
201004110730 METAR LMML NIL=
201004110715 METAR LMML 110715Z 29010KT 240V320 CAVOK 16/10 Q1015 NOSIG=
201004110700 METAR LMML NIL=
201004110645 METAR LMML 110645Z 30008KT 250V340 CAVOK 15/11 Q1015 NOSIG=
201004110630 METAR LMML NIL=
201004110615 METAR LMML 110615Z 29005KT 260V330 CAVOK 14/12 Q1015 NOSIG=
201004110600 METAR LMML NIL=
201004110545 METAR LMML 110545Z 28005KT 240V310 CAVOK 13/12 Q1015 NOSIG=
201004110530 METAR LMML NIL=
201004110515 METAR LMML 110515Z 30004KT 270V340 9999 FEW015 12/11 Q1014
                        NOSIG=
201004110500 METAR LMML NIL=
201004110445 METAR LMML 110445Z 29005KT 260V320 CAVOK 12/11 Q1014 NOSIG=
201004110430 METAR LMML NIL=
201004110415 METAR LMML 110415Z 27004KT 250V310 CAVOK 13/11 Q1014 NOSIG=
201004110400 METAR LMML NIL=
201004110345 METAR LMML 110345Z 29007KT CAVOK 13/12 Q1014 NOSIG=
201004110330 METAR LMML NIL=
201004110315 METAR LMML 110315Z 28006KT 240V310 CAVOK 13/11 Q1014 NOSIG=
201004110300 METAR LMML NIL=
201004110245 METAR LMML 110245Z 28005KT 250V310 CAVOK 13/11 Q1015 NOSIG=
201004110215 METAR LMML 110215Z 29007KT CAVOK 13/12 Q1015 NOSIG=
201004110145 METAR LMML 110145Z 29007KT CAVOK 13/12 Q1015 NOSIG=
201004110130 METAR LMML NIL=
201004110115 METAR LMML 110115Z 29008KT CAVOK 13/12 Q1015 NOSIG=
201004110100 METAR LMML NIL=
201004110045 METAR LMML 110045Z 28008KT 250V310 CAVOK 13/12 Q1015 NOSIG=
201004110030 METAR LMML NIL=
201004110015 METAR LMML 110015Z 28007KT CAVOK 13/11 Q1016 NOSIG=
201004110000 METAR LMML NIL=
201004102345 METAR LMML 102345Z 27005KT 230V300 CAVOK 13/11 Q1016 NOSIG=
201004102330 METAR LMML NIL=
201004102315 METAR LMML 102315Z 26004KT 220V300 CAVOK 13/11 Q1016 NOSIG=
201004102300 METAR LMML NIL=
201004102245 METAR LMML 102245Z 27005KT 240V310 CAVOK 13/11 Q1017 NOSIG=
201004102230 METAR LMML NIL=
201004102215 METAR LMML 102215Z 28005KT 240V310 CAVOK 13/11 Q1017 NOSIG=
201004102200 METAR LMML NIL=
201004102145 METAR LMML 102145Z 27004KT 230V290 CAVOK 13/10 Q1017 NOSIG=
201004102130 METAR LMML NIL=
201004102115 METAR LMML 102115Z 29004KT 260V320 CAVOK 14/10 Q1017 NOSIG=
201004102100 METAR LMML NIL=
201004102045 METAR LMML 102045Z 28004KT 240V300 CAVOK 14/10 Q1017 NOSIG=
201004102030 METAR LMML NIL=
201004102015 METAR LMML 102015Z 29005KT CAVOK 14/10 Q1017 NOSIG=
201004102000 METAR LMML NIL=
201004101945 METAR LMML 101945Z 29005KT CAVOK 14/09 Q1017 NOSIG=
201004101930 METAR LMML NIL=
201004101915 METAR LMML 101915Z 31006KT CAVOK 14/09 Q1017 NOSIG=
201004101900 METAR LMML NIL=
201004101845 METAR LMML 101845Z 31008KT CAVOK 14/09 Q1017 NOSIG=
201004101830 METAR LMML NIL=
201004101815 METAR LMML 101815Z 32009KT CAVOK 15/09 Q1017 NOSIG=
201004101800 METAR LMML NIL=
201004101745 METAR LMML 101745Z 32010KT CAVOK 15/07 Q1017 NOSIG=
201004101730 METAR LMML NIL=
201004101715 METAR LMML 101715Z 32010KT CAVOK 16/05 Q1017 NOSIG=
201004101700 METAR LMML NIL=
201004101645 METAR LMML 101645Z 33011KT CAVOK 17/05 Q1017 NOSIG=
201004101630 METAR LMML NIL=
201004101615 METAR LMML 101615Z 33012KT CAVOK 17/06 Q1017 NOSIG=
201004101600 METAR LMML NIL=
201004101545 METAR LMML 101545Z 32014KT CAVOK 17/08 Q1017 NOSIG=
201004101530 METAR LMML NIL=
201004101515 METAR LMML 101515Z 33013KT CAVOK 17/07 Q1017 NOSIG=
201004101500 METAR LMML NIL=
201004101445 METAR LMML 101445Z 33012KT 290V010 CAVOK 18/06 Q1017 NOSIG=
201004101430 METAR LMML NIL=
201004101415 METAR LMML 101415Z 33012KT CAVOK 18/08 Q1017 NOSIG=
201004101400 METAR LMML NIL=
201004101345 METAR LMML 101345Z 36011KT 9999 FEW040 20/07 Q1017 NOSIG=
201004101330 METAR LMML NIL=
201004101315 METAR LMML 101315Z 34009KT 310V030 9999 FEW040 19/09 Q1017
                        NOSIG=
201004101300 METAR LMML NIL=
201004101245 METAR LMML 101245Z 02009KT 350V060 CAVOK 20/06 Q1017 NOSIG=
201004101230 METAR LMML NIL=
201004101215 METAR LMML 101215Z 02009KT 340V070 CAVOK 20/07 Q1018 NOSIG=
201004101200 METAR LMML NIL=
201004101145 METAR LMML 101145Z 02010KT 340V080 CAVOK 20/07 Q1018 NOSIG=
201004101115 METAR LMML 101115Z 01011KT 340V050 CAVOK 19/08 Q1018 NOSIG=
201004101100 METAR LMML NIL=
201004101045 METAR LMML 101045Z 03012KT 350V050 CAVOK 19/08 Q1018 NOSIG=
201004101030 METAR LMML NIL=
201004101015 METAR LMML 101015Z 03012KT 350V050 CAVOK 19/08 Q1018 NOSIG=
201004101000 METAR LMML NIL=
201004100945 METAR LMML 100945Z 02009KT 330V070 CAVOK 19/09 Q1019 NOSIG=
201004100930 METAR LMML NIL=
201004100915 METAR LMML 100915Z 03011KT 360V070 CAVOK 19/08 Q1019 NOSIG=
201004100900 METAR LMML NIL=
201004100845 METAR LMML 100845Z 03011KT 360V060 CAVOK 18/08 Q1018 NOSIG=
201004100815 METAR LMML 100815Z 03010KT 350V070 CAVOK 18/09 Q1019 NOSIG=
201004100800 METAR LMML NIL=
201004100745 METAR LMML 100745Z 03010KT CAVOK 17/09 Q1019 NOSIG=
201004100730 METAR LMML NIL=
201004100715 METAR LMML 100715Z 02010KT CAVOK 17/09 Q1018 NOSIG=
201004100700 METAR LMML NIL=
201004100645 METAR LMML 100645Z 02008KT CAVOK 16/09 Q1018 NOSIG=
201004100615 METAR LMML 100615Z 03009KT CAVOK 16/09 Q1018 NOSIG=
201004100600 METAR LMML NIL=
201004100545 METAR LMML 100545Z 04008KT CAVOK 15/08 Q1018 NOSIG=
201004100530 METAR LMML NIL=
201004100515 METAR LMML 100515Z 04010KT 010V070 9999 FEW015 15/07 Q1018
                        NOSIG=
201004100500 METAR LMML NIL=
201004100445 METAR LMML 100445Z 04010KT 360V070 9999 FEW015 14/07 Q1018
                        NOSIG=
201004100430 METAR LMML NIL=
201004100415 METAR LMML 100415Z 04011KT 010V070 9999 FEW015 14/07 Q1018
                        NOSIG=
201004100400 METAR LMML NIL=
201004100345 METAR LMML 100345Z 04012KT 360V070 9000 NSC 14/07 Q1018 NOSIG=
201004100330 METAR LMML NIL=
201004100315 METAR LMML 100315Z 04012KT 020V080 9000 NSC 14/08 Q1018 NOSIG=
201004100300 METAR LMML NIL=
201004100245 METAR LMML 100245Z 05010KT 010V080 9000 NSC 14/09 Q1018 NOSIG=
201004100230 METAR LMML NIL=
201004100215 METAR LMML 100215Z 05010KT 020V080 9000 FEW012 SCT110 14/11
                        Q1018 NOSIG=
201004100200 METAR LMML NIL=
201004100145 METAR LMML 100145Z 05009KT 020V080 9000 FEW012 BKN120 14/11
                        Q1018 NOSIG=
201004100130 METAR LMML NIL=
201004100115 METAR LMML 100115Z 05010KT 020V080 9000 FEW012 BKN110 14/12
                        Q1018 TEMPO BKN008=
201004100100 METAR LMML NIL=
201004100045 METAR LMML 100045Z 05011KT 010V090 9000 SCT012 BKN100 14/11
                        Q1018 TEMPO BKN008=
201004100030 METAR LMML NIL=
201004100015 METAR LMML 100015Z 06012KT 030V090 9000 SCT012 BKN100 14/12
                        Q1018 TEMPO BKN008=
201004100000 METAR LMML NIL=
201004092345 METAR LMML 092345Z 05012KT 020V100 9000 FEW009 SCT012 BKN110
                        15/12 Q1018 TEMPO BKN008=
201004092330 METAR LMML NIL=
201004092315 METAR LMML 092315Z 05012KT 010V090 9000 SCT009 SCT014 BKN080
                        15/12 Q1018 TEMPO BKN008=
201004092300 METAR LMML NIL=
201004092245 METAR LMML 092245Z 05014KT 020V080 9000 SCT009 SCT012 BKN080
                        15/13 Q1019 TEMPO BKN008=
201004092230 METAR LMML NIL=
201004092215 METAR LMML 092215Z 05014KT 010V070 9000 SCT010 SCT013 BKN080
                        15/13 Q1019 TEMPO BKN010=
201004092200 METAR LMML NIL=
201004092145 METAR LMML 092145Z 03013KT 010V070 9999 SCT010 BKN080 15/13
                        Q1019 TEMPO BKN010=
201004092130 METAR LMML NIL=
201004092115 METAR LMML 092115Z 04012KT 010V080 9999 SCT013 BKN100 15/12
                        Q1019 TEMPO BKN012=
201004092100 METAR LMML NIL=
201004092045 METAR LMML 092045Z 04013KT 360V080 9999 SCT013 SCT022 BKN100
                        15/12 Q1019 TEMPO BKN012=
201004092030 METAR LMML NIL=
201004092015 METAR LMML 092015Z 04012G22KT 010V080 9999 SCT013 SCT040
                        BKN110 15/12 Q1019 NOSIG=
201004092000 METAR LMML NIL=
201004091945 METAR LMML 091945Z 05012KT 020V090 9999 FEW015 SCT049 BKN100
                        15/12 Q1019 NOSIG=
201004091930 METAR LMML NIL=
201004091915 METAR LMML 091915Z 04013KT 010V090 9999 FEW017 SCT050 BKN080
                        15/12 Q1018 NOSIG=
201004091900 METAR LMML NIL=
201004091845 METAR LMML 091845Z 04013KT 010V070 9999 FEW014 SCT050 BKN120
                        15/12 Q1018 NOSIG=
201004091830 METAR LMML NIL=
201004091815 METAR LMML 091815Z 05013KT 020V080 9999 FEW014 SCT040 BKN110
                        15/12 Q1018 NOSIG=
201004091800 METAR LMML NIL=
201004091745 METAR LMML 091745Z 05011KT 010V090 9999 SCT015 SCT040 BKN120
                        15/12 Q1018 TEMPO BKN012=
201004091730 METAR LMML NIL=
201004091715 METAR LMML 091715Z 05011KT 360V080 9999 SCT014 SCT040 BKN120
                        15/12 Q1017 TEMPO BKN012=
201004091700 METAR LMML NIL=
201004091645 METAR LMML 091645Z 05011KT 020V090 9999 SCT013 BKN030 BKN120
                        16/12 Q1017 NOSIG=
201004091630 METAR LMML NIL=
201004091615 METAR LMML 091615Z 06014KT 030V090 9999 SCT013 BKN042 BKN100
                        16/12 Q1017 NOSIG=
201004091600 METAR LMML NIL=
201004091545 METAR LMML 091545Z 06013KT 030V100 9999 SCT014 BKN029 16/12
                        Q1017 NOSIG=
201004091530 METAR LMML NIL=
201004091515 METAR LMML 091515Z 06014KT 030V110 9000 SCT016 BKN028 16/12
                        Q1017 NOSIG=
201004091500 METAR LMML NIL=
201004091445 METAR LMML 091445Z 07017KT 040V100 9000 SCT016 BKN034 16/12
                        Q1016 NOSIG=
201004091430 METAR LMML NIL=
201004091415 METAR LMML 091415Z 07016KT 030V110 9000 SCT019 SCT040 17/12
                        Q1016 NOSIG=
201004091400 METAR LMML NIL=
201004091345 METAR LMML 091345Z 07017KT 030V110 9999 BKN027 17/11 Q1016
                        NOSIG=
201004091315 METAR LMML 091315Z 07016KT 040V110 9999 BKN026 17/11 Q1016
                        NOSIG=
201004091300 METAR LMML NIL=
201004091245 METAR LMML 091245Z 07016KT 030V110 9999 BKN029 17/11 Q1017
                        NOSIG=
201004091230 METAR LMML NIL=
201004091215 METAR LMML 091215Z 07016KT 040V110 9999 FEW020 BKN033 18/12
                        Q1017 NOSIG=
201004091200 METAR LMML NIL=
201004091145 METAR LMML 091145Z 07014KT 030V100 9999 FEW030 18/12 Q1017
                        NOSIG=
201004091115 METAR LMML 091115Z 06015KT 030V100 9999 FEW020 BKN090 18/12
                        Q1017 NOSIG=
201004091100 METAR LMML NIL=
201004091045 METAR LMML 091045Z 07014KT 020V100 9999 FEW020 BKN090 18/11
                        Q1018 NOSIG=
201004091030 METAR LMML NIL=
201004091015 METAR LMML 091015Z 07014KT 030V090 9999 FEW020 BKN090 17/12
                        Q1018 NOSIG=
201004091000 METAR LMML NIL=
201004090945 METAR LMML 090945Z 06014KT 020V100 9999 FEW020 BKN090 18/12
                        Q1018 NOSIG=
201004090930 METAR LMML NIL=
201004090915 METAR LMML 090915Z 06014KT 020V090 9999 FEW020 BKN090 18/12
                        Q1018 NOSIG=
201004090900 METAR LMML NIL=
201004090845 METAR LMML 090845Z 05012KT 020V090 9999 FEW013 BKN090 17/13
                        Q1018 NOSIG=
201004090830 METAR LMML NIL=
201004090815 METAR LMML 090815Z 05012KT 010V090 9999 FEW013 BKN090 16/12
                        Q1018 NOSIG=
201004090800 METAR LMML NIL=
201004090745 METAR LMML 090745Z 06013KT 030V100 9999 FEW013 BKN080 16/12
                        Q1017 NOSIG=
201004090730 METAR LMML NIL=
201004090715 METAR LMML 090715Z 06013KT 030V100 9999 FEW013 BKN080 16/12
                        Q1017 NOSIG=
201004090700 METAR LMML NIL=
201004090645 METAR LMML 090645Z 06011KT 030V100 9999 FEW013 BKN080 16/12
                        Q1017 NOSIG=
201004090630 METAR LMML NIL=
201004090615 METAR LMML 090615Z 06011KT 020V100 9999 FEW014 SCT080 BKN250
                        15/13 Q1017 NOSIG=
201004090600 METAR LMML NIL=
201004090545 METAR LMML 090545Z 07012KT 020V090 9999 BKN013 15/12 Q1017
                        TEMPO BKN012=
201004090530 METAR LMML NIL=
201004090515 METAR LMML 090515Z 06014KT 020V090 9999 BKN014 15/12 Q1017
                        TEMPO BKN012=
201004090500 METAR LMML NIL=
201004090445 METAR LMML 090445Z 06012KT 020V080 9999 BKN014 15/12 Q1016
                        TEMPO BKN012=
201004090430 METAR LMML NIL=
201004090415 METAR LMML 090415Z 05009KT 020V090 9999 BKN013 14/12 Q1016
                        TEMPO BKN012=
201004090400 METAR LMML NIL=
201004090345 METAR LMML 090345Z 05012KT 020V090 9999 BKN012 15/12 Q1016
                        TEMPO BKN012=
201004090330 METAR LMML NIL=
201004090315 METAR LMML 090315Z 06012KT 020V100 9999 BKN014 14/12 Q1016
                        TEMPO BKN012=
201004090300 METAR LMML NIL=
201004090245 METAR LMML 090245Z 06011KT 020V100 9999 BKN014 14/12 Q1016
                        TEMPO BKN012=
201004090230 METAR LMML NIL=
201004090215 METAR LMML 090215Z 06014KT 020V090 9999 BKN014 14/11 Q1016
                        TEMPO BKN011=
201004090200 METAR LMML NIL=
201004090145 METAR LMML 090145Z 05010KT 020V090 9999 BKN013 14/12 Q1016
                        TEMPO BKN011=
201004090130 METAR LMML NIL=
201004090115 METAR LMML 090115Z 05011KT 010V080 9999 BKN012 14/12 Q1016
                        TEMPO BKN012=
201004090100 METAR LMML NIL=
201004090045 METAR LMML 090045Z 05012KT 010V080 9999 SCT013 14/12 Q1016
                        TEMPO BKN012=
201004090030 METAR LMML NIL=
201004090015 METAR LMML 090015Z 05012KT 010V090 9999 SCT013 14/12 Q1016
                        TEMPO BKN012=
201004090000 METAR LMML NIL=
201004082345 METAR LMML 082345Z 05010KT 010V080 9999 SCT014 14/12 Q1017
                        TEMPO BKN012=
201004082330 METAR LMML NIL=
201004082315 METAR LMML 082315Z 05011KT 360V090 9999 BKN014 15/12 Q1017
                        TEMPO BKN012=
201004082300 METAR LMML NIL=
201004082245 METAR LMML 082245Z 05010KT 310V090 9999 BKN014 15/12 Q1017
                        TEMPO BKN012=
201004082230 METAR LMML NIL=
201004082215 METAR LMML 082215Z 05010KT 020V090 9999 BKN014 15/12 Q1017
                        TEMPO BKN012=
201004082145 METAR LMML 082145Z 05012KT 020V090 9999 BKN015 15/11 Q1017
                        TEMPO BKN012=
201004082130 METAR LMML NIL=
201004082115 METAR LMML 082115Z 06012KT 020V090 9999 BKN015 15/11 Q1017
                        TEMPO BKN012=
201004082100 METAR LMML NIL=
201004082045 METAR LMML 082045Z 06012KT 020V090 9999 BKN016 15/12 Q1017
                        TEMPO BKN015=
201004082030 METAR LMML NIL=
201004082015 METAR LMML 082015Z 05012KT 010V090 9999 BKN016 15/11 Q1017
                        TEMPO BKN015=
201004082000 METAR LMML NIL=
201004081945 METAR LMML 081945Z 07011KT 020V100 9999 BKN016 15/12 Q1017
                        TEMPO BKN015=
201004081930 METAR LMML NIL=
201004081915 METAR LMML 081915Z 06011KT 020V100 9999 BKN016 15/11 Q1017
                        TEMPO BKN015=
201004081845 METAR LMML 081845Z 06013KT 030V100 9999 BKN016 15/11 Q1017
                        TEMPO BKN015=
201004081830 METAR LMML NIL=
201004081815 METAR LMML 081815Z 06011KT 030V100 9999 BKN016 15/11 Q1016
                        TEMPO BKN015=
201004081807 SPECI LMML 081807Z 06011KT 030V100 9999 BKN016 15/11 Q1016
                        TEMPO BKN015=
201004081800 METAR LMML NIL=
201004081745 METAR LMML 081745Z 07010KT 010V100 9999 BKN016 15/11 Q1016
                        TEMPO BKN015=
201004081730 METAR LMML NIL=
201004081715 METAR LMML 081715Z 07014KT 040V120 9999 SCT016 15/11 Q1016
                        NOSIG=
201004081645 METAR LMML 081645Z 07014KT 040V100 9999 SCT016 15/12 Q1016
                        NOSIG=
201004081630 METAR LMML NIL=
201004081615 METAR LMML 081615Z 07014KT 040V100 9999 BKN016 15/11 Q1016
                        NOSIG=
201004081600 METAR LMML NIL=
201004081545 METAR LMML 081545Z 08015KT 040V120 9999 BKN017 16/11 Q1016
                        NOSIG=
201004081530 METAR LMML NIL=
201004081515 METAR LMML 081515Z 08014KT 040V110 9999 SCT016 SCT130 16/12
                        Q1016 NOSIG=
201004081500 METAR LMML NIL=
201004081445 METAR LMML 081445Z 08015KT 040V110 9999 SCT017 SCT130 16/11
                        Q1015 NOSIG=
201004081430 METAR LMML NIL=
201004081415 METAR LMML 081415Z 07016KT 030V100 9999 SCT017 SCT120 17/11
                        Q1015 NOSIG=
201004081400 METAR LMML NIL=
201004081345 METAR LMML 081345Z 08017KT 050V110 9999 BKN017 SCT120 16/12
                        Q1015 NOSIG=
201004081330 METAR LMML NIL=
201004081315 METAR LMML 081315Z 09016KT 050V120 9999 BKN017 SCT120 17/12
                        Q1015 NOSIG=
201004081300 METAR LMML NIL=
201004081245 METAR LMML 081245Z 09019KT 060V130 9999 SCT017 17/11 Q1016
                        NOSIG=
201004081230 METAR LMML NIL=
201004081215 METAR LMML 081215Z 09018KT 060V120 9999 SCT018 17/11 Q1016
                        NOSIG=
201004081200 METAR LMML NIL=
201004081145 METAR LMML 081145Z 09017KT 050V130 9999 FEW017 17/11 Q1016
                        NOSIG=
201004081130 METAR LMML NIL=
201004081115 METAR LMML 081115Z 10016KT 070V140 9999 FEW020 17/11 Q1016
                        NOSIG=
201004081100 METAR LMML NIL=
201004081045 METAR LMML 081045Z 11018KT 9999 FEW020 17/11 Q1017 NOSIG=
201004081030 METAR LMML NIL=
201004081015 METAR LMML 081015Z 09017KT 060V130 9999 FEW020 17/11 Q1017
                        NOSIG=
201004081000 METAR LMML NIL=
201004080945 METAR LMML 080945Z 09018KT 060V120 9999 FEW020 17/11 Q1017
                        NOSIG=
201004080915 METAR LMML 080915Z 08019KT 050V110 CAVOK 17/10 Q1016 NOSIG=
201004080900 METAR LMML NIL=
201004080845 METAR LMML 080845Z 09017KT 050V110 CAVOK 17/10 Q1017 NOSIG=
201004080830 METAR LMML NIL=
201004080815 METAR LMML 080815Z 09016KT 050V120 CAVOK 16/09 Q1017 NOSIG=
201004080800 METAR LMML NIL=
201004080745 METAR LMML 080745Z 09016KT 060V120 CAVOK 16/09 Q1017 NOSIG=
201004080730 METAR LMML NIL=
201004080700 METAR LMML NIL=
201004080630 METAR LMML NIL=
201004080615 METAR LMML 080615Z 09014KT 060V120 CAVOK 15/09 Q1017 NOSIG=
201004080600 METAR LMML NIL=
201004080545 METAR LMML 080545Z 08014KT CAVOK 14/10 Q1016 NOSIG=
201004080515 METAR LMML 080515Z 08012KT 060V120 CAVOK 14/10 Q1016 NOSIG=
201004080445 METAR LMML 080445Z 08012KT 040V110 CAVOK 14/10 Q1016 NOSIG=
201004080430 METAR LMML NIL=
201004080415 METAR LMML 080415Z 09013KT 9999 FEW016 14/10 Q1016 NOSIG=
201004080400 METAR LMML NIL=
201004080345 METAR LMML 080345Z 09012KT 9999 FEW016 SCT250 14/09 Q1016
                        NOSIG=
201004080330 METAR LMML NIL=
201004080315 METAR LMML 080315Z 09013KT 9999 FEW016 BKN250 14/10 Q1016
                        NOSIG=
201004080245 METAR LMML 080245Z 09012KT 9999 SCT016 BKN250 14/11 Q1016
                        NOSIG=
201004080215 METAR LMML 080215Z 09013KT 9999 SCT013 BKN250 14/11 Q1016
                        NOSIG=
201004080200 METAR LMML NIL=
201004080145 METAR LMML 080145Z 09014KT 9999 SCT013 BKN250 14/12 Q1016
                        NOSIG=
201004080130 METAR LMML NIL=
201004080115 METAR LMML 080115Z 09011KT 060V120 9999 SCT015 BKN250 14/11
                        Q1016 NOSIG=
201004080100 METAR LMML NIL=
201004080045 METAR LMML 080045Z 09011KT 060V120 9999 SCT015 BKN250 14/11
                        Q1017 NOSIG=
201004080030 METAR LMML NIL=
201004080015 METAR LMML 080015Z 10013KT 9999 SCT015 BKN250 14/11 Q1017
                        NOSIG=
201004080000 METAR LMML NIL=
201004072345 METAR LMML 072345Z 10011KT 070V140 9999 SCT014 SCT120 BKN250
                        14/11 Q1017 NOSIG=
201004072315 METAR LMML 072315Z 11013KT 070V140 9999 SCT014 BKN250 14/12
                        Q1017 NOSIG=
201004072245 METAR LMML 072245Z 10011KT 080V140 9999 SCT015 SCT120 BKN250
                        14/11 Q1018 NOSIG=
201004072230 METAR LMML NIL=
201004072215 METAR LMML 072215Z 10009KT 060V130 9999 FEW016 BKN250 14/11
                        Q1018 NOSIG=
201004072200 METAR LMML NIL=
201004072145 METAR LMML 072145Z 10009KT 070V150 9999 FEW015 SCT120 BKN250
                        14/11 Q1018 NOSIG=
201004072115 METAR LMML 072115Z 10011KT 070V130 9999 FEW015 BKN250 14/11
                        Q1018 NOSIG=
201004072045 METAR LMML 072045Z 11010KT 070V130 9999 FEW016 SCT120 BKN250
                        14/11 Q1018 NOSIG=
201004072030 METAR LMML NIL=
201004072015 METAR LMML 072015Z 09008KT 050V120 9999 FEW016 BKN250 14/11
                        Q1018 NOSIG=
201004072000 METAR LMML NIL=
201004071945 METAR LMML 071945Z 09011KT 060V120 9999 FEW021 BKN250 14/11
                        Q1017 NOSIG=
201004071930 METAR LMML NIL=
201004071915 METAR LMML 071915Z 10010KT 9999 FEW021 SCT120 BKN250 14/10
                        Q1018 NOSIG=
201004071845 METAR LMML 071845Z 10008KT 060V120 9999 SCT021 SCT120 BKN250
                        15/10 Q1018 NOSIG=
201004071830 METAR LMML NIL=
201004071815 METAR LMML 071815Z 11012KT 9999 SCT019 SCT120 BKN250 14/11
                        Q1017 NOSIG=
201004071800 METAR LMML NIL=
201004071745 METAR LMML 071745Z 11013KT 9999 SCT018 BKN250 14/11 Q1017
                        NOSIG=
201004071730 METAR LMML NIL=
201004071715 METAR LMML 071715Z 11014KT 9999 BKN017 BKN250 15/11 Q1017
                        TEMPO BKN015=
201004071700 METAR LMML NIL=
201004071645 METAR LMML 071645Z 11014KT 9999 SCT016 BKN250 15/11 Q1016
                        TEMPO BKN015=
201004071630 METAR LMML NIL=
201004071615 METAR LMML 071615Z 12013KT 090V150 9999 BKN016 BKN250 15/12
                        Q1017 TEMPO BKN015=
201004071600 METAR LMML NIL=
201004071545 METAR LMML 071545Z 12013KT 9999 SCT016 BKN250 15/12 Q1017
                        NOSIG=
201004071530 METAR LMML NIL=
201004071515 METAR LMML 071515Z 12015KT 9999 SCT016 BKN250 15/11 Q1017
                        NOSIG=
201004071500 METAR LMML NIL=
201004071445 METAR LMML 071445Z 11015KT 080V140 9999 SCT017 16/11 Q1017
                        NOSIG=
201004071430 METAR LMML NIL=
201004071415 METAR LMML 071415Z 11015KT 080V150 9999 SCT017 17/11 Q1017
                        NOSIG=
201004071400 METAR LMML NIL=
201004071345 METAR LMML 071345Z 11015KT 080V140 9999 SCT018 SCT250 16/11
                        Q1017 NOSIG=
201004071330 METAR LMML NIL=
201004071315 METAR LMML 071315Z 11015KT 080V150 9999 BKN017 16/11 Q1018
                        NOSIG=
201004071300 METAR LMML NIL=
201004071245 METAR LMML 071245Z 13014KT 9999 FEW016 BKN250 16/11 Q1018
                        NOSIG=
201004071230 METAR LMML NIL=
201004071215 METAR LMML 071215Z 12014KT 9999 FEW016 BKN250 16/11 Q1018
                        NOSIG=
201004071200 METAR LMML NIL=
201004071145 METAR LMML 071145Z 11013KT 080V140 9999 FEW016 SCT120 BKN250
                        16/11 Q1019 NOSIG=
201004071130 METAR LMML NIL=
201004071115 METAR LMML 071115Z 13013KT 090V160 9999 FEW019 SCT120 BKN250
                        16/10 Q1019 NOSIG=
201004071100 METAR LMML NIL=
201004071045 METAR COR LMML 071045Z 13014KT 9999 FEW025 SCT120 BKN250
                        16/11 Q1020 NOSIG=
201004071030 METAR LMML NIL=
201004071015 METAR LMML 071015Z 13012KT 100V160 9999 FEW025 SCT120 BKN250
                        16/11 Q1020 NOSIG=
201004071000 METAR LMML NIL=
201004070945 METAR LMML 070945Z 12012KT 9999 FEW025 SCT120 BKN250 15/10
                        Q1020 NOSIG=
201004070930 METAR LMML NIL=
201004070915 METAR LMML 070915Z 11011KT 9999 FEW025 SCT120 BKN250 15/11
                        Q1021 NOSIG=
201004070900 METAR LMML NIL=
201004070845 METAR LMML 070845Z 10011KT 070V140 9999 FEW025 SCT120 BKN250
                        15/10 Q1020 NOSIG=
201004070830 METAR LMML NIL=
201004070815 METAR LMML 070815Z 11010KT 080V140 9999 FEW025 SCT120 BKN250
                        15/11 Q1021 NOSIG=
201004070800 METAR LMML NIL=
201004070745 METAR LMML 070745Z 11008KT 080V160 9999 FEW025 SCT120 BKN250
                        15/10 Q1021 NOSIG=
201004070730 METAR LMML NIL=
201004070715 METAR LMML 070715Z 08007KT 010V140 CAVOK 15/10 Q1021 NOSIG=
201004070700 METAR LMML NIL=
201004070645 METAR LMML 070645Z 11006KT 070V140 CAVOK 15/10 Q1020 NOSIG=
201004070630 METAR LMML NIL=
201004070615 METAR LMML 070615Z 11006KT CAVOK 14/10 Q1020 NOSIG=
201004070600 METAR LMML NIL=
201004070545 METAR LMML 070545Z 10005KT 080V150 9999 FEW019 OVC130 14/10
                        Q1019 NOSIG=
201004070530 METAR LMML NIL=
201004070515 METAR LMML 070515Z 10004KT 9999 FEW020 OVC130 13/10 Q1019
                        NOSIG=
201004070500 METAR LMML NIL=
201004070445 METAR LMML 070445Z 09004KT CAVOK 13/10 Q1019 NOSIG=
201004070430 METAR LMML NIL=
201004070415 METAR LMML 070415Z 08004KT CAVOK 13/10 Q1019 NOSIG=
201004070400 METAR LMML NIL=
201004070345 METAR LMML 070345Z VRB02KT CAVOK 13/10 Q1019 NOSIG=
201004070330 METAR LMML NIL=
201004070315 METAR LMML 070315Z VRB02KT CAVOK 13/09 Q1020 NOSIG=
201004070300 METAR LMML NIL=
201004070245 METAR LMML 070245Z 00000KT CAVOK 13/09 Q1020 NOSIG=
201004070230 METAR LMML NIL=
201004070215 METAR LMML 070215Z VRB02KT CAVOK 14/09 Q1020 NOSIG=
201004070200 METAR LMML NIL=
201004070145 METAR LMML 070145Z VRB03KT CAVOK 13/09 Q1020 NOSIG=
201004070130 METAR LMML NIL=
201004070115 METAR LMML 070115Z 17004KT 140V200 CAVOK 14/09 Q1020 NOSIG=
201004070045 METAR LMML 070045Z 17005KT 130V210 CAVOK 14/08 Q1020 NOSIG=
201004070030 METAR LMML NIL=
201004070015 METAR LMML 070015Z 17005KT 130V210 CAVOK 14/08 Q1021 NOSIG=
201004070000 METAR LMML NIL=
201004062345 METAR LMML 062345Z 17004KT CAVOK 13/08 Q1021 NOSIG=
201004062330 METAR LMML NIL=
201004062315 METAR LMML 062315Z 17004KT 140V200 CAVOK 13/08 Q1021 NOSIG=
201004062300 METAR LMML NIL=
201004062245 METAR LMML 062245Z VRB03KT CAVOK 13/09 Q1021 NOSIG=
201004062230 METAR LMML NIL=
201004062215 METAR LMML 062215Z VRB03KT CAVOK 13/09 Q1021 NOSIG=
201004062200 METAR LMML NIL=
201004062145 METAR LMML 062145Z VRB02KT CAVOK 14/09 Q1022 NOSIG=
201004062130 METAR LMML NIL=
201004062115 METAR LMML 062115Z VRB02KT CAVOK 13/09 Q1022 NOSIG=
201004062100 METAR LMML NIL=
201004062045 METAR LMML 062045Z VRB02KT CAVOK 13/09 Q1022 NOSIG=
201004062030 METAR LMML NIL=
201004062015 METAR LMML 062015Z VRB02KT CAVOK 13/08 Q1023 NOSIG=
201004062000 METAR LMML NIL=
201004061945 METAR LMML 061945Z VRB02KT CAVOK 13/08 Q1023 NOSIG=
201004061930 METAR LMML NIL=
201004061915 METAR LMML 061915Z VRB02KT CAVOK 13/08 Q1022 NOSIG=
201004061900 METAR LMML NIL=
201004061845 METAR LMML 061845Z VRB01KT CAVOK 13/08 Q1022 NOSIG=
201004061830 METAR LMML NIL=
201004061815 METAR LMML 061815Z VRB03KT CAVOK 14/08 Q1022 NOSIG=
201004061800 METAR LMML NIL=
201004061745 METAR LMML 061745Z VRB03KT CAVOK 14/07 Q1022 NOSIG=
201004061730 METAR LMML NIL=
201004061715 METAR LMML 061715Z 22004KT 190V270 CAVOK 14/07 Q1022 NOSIG=
201004061700 METAR LMML NIL=
201004061645 METAR LMML 061645Z 22005KT 180V270 CAVOK 15/07 Q1022 NOSIG=
201004061630 METAR LMML NIL=
201004061615 METAR LMML 061615Z 22005KT 190V280 9999 FEW020 SCT120 BKN250
                        15/07 Q1022 NOSIG=
201004061600 METAR LMML NIL=
201004061545 METAR LMML 061545Z 21007KT 180V240 9999 FEW020 SCT120 BKN250
                        15/06 Q1022 NOSIG=
201004061530 METAR LMML NIL=
201004061515 METAR LMML 061515Z VRB02KT 9999 FEW020 SCT120 BKN250 17/08
                        Q1022 NOSIG=
201004061500 METAR LMML NIL=
201004061445 METAR LMML 061445Z VRB03KT CAVOK 18/09 Q1022 NOSIG=
201004061430 METAR LMML NIL=
201004061415 METAR LMML 061415Z 01004KT 310V070 CAVOK 17/09 Q1022 NOSIG=
201004061400 METAR LMML NIL=
201004061345 METAR LMML 061345Z 01005KT 290V070 CAVOK 17/09 Q1022 NOSIG=
201004061330 METAR LMML NIL=
201004061315 METAR LMML 061315Z 21008KT 160V260 9999 FEW035 BKN250 17/08
                        Q1023 NOSIG=
201004061300 METAR LMML NIL=
201004061245 METAR LMML 061245Z 23005KT 160V290 9999 FEW035 BKN250 18/08
                        Q1023 NOSIG=
201004061230 METAR LMML NIL=
201004061215 METAR LMML 061215Z 21005KT 170V270 9999 FEW031 BKN250 18/08
                        Q1023 NOSIG=
201004061200 METAR LMML NIL=
201004061145 METAR LMML 061145Z 19005KT 140V250 9999 FEW031 BKN250 17/09
                        Q1024 NOSIG=
201004061130 METAR LMML NIL=
201004061115 METAR LMML 061115Z 20006KT 150V300 9999 FEW028 SCT250 17/09
                        Q1024 NOSIG=
201004061100 METAR LMML NIL=
201004061045 METAR LMML 061045Z 19006KT 120V240 9999 FEW025 SCT250 16/09
                        Q1024 NOSIG=
201004061030 METAR LMML NIL=
201004061015 METAR LMML 061015Z VRB03KT 9999 FEW025 SCT250 19/09 Q1024
                        NOSIG=
201004061000 METAR LMML NIL=
201004060945 METAR LMML 060945Z 04004KT 310V100 9999 FEW020 SCT250 18/09
                        Q1024 NOSIG=
201004060930 METAR LMML NIL=
201004060915 METAR LMML 060915Z 07004KT 350V190 9999 FEW020 SCT250 17/08
                        Q1024 NOSIG=
201004060900 METAR LMML NIL=
201004060845 METAR LMML 060845Z 36004KT 290V080 CAVOK 17/08 Q1024 NOSIG=
201004060830 METAR LMML NIL=
201004060815 METAR LMML 060815Z 01007KT 340V050 CAVOK 16/08 Q1024 NOSIG=
201004060800 METAR LMML NIL=
201004060745 METAR LMML 060745Z 35009KT CAVOK 15/08 Q1024 NOSIG=
201004060730 METAR LMML NIL=
201004060715 METAR LMML 060715Z 36009KT 340V040 CAVOK 14/07 Q1024 NOSIG=
201004060700 METAR LMML NIL=
201004060645 METAR LMML 060645Z 36008KT 330V030 CAVOK 15/07 Q1024 NOSIG=
201004060615 METAR LMML 060615Z 35010KT CAVOK 14/07 Q1023 NOSIG=
201004060600 METAR LMML NIL=
201004060545 METAR LMML 060545Z 35008KT CAVOK 13/07 Q1023 NOSIG=
201004060515 METAR LMML 060515Z 34008KT CAVOK 12/07 Q1023 NOSIG=
201004060500 METAR LMML NIL=
201004060445 METAR LMML 060445Z 34009KT CAVOK 12/06 Q1022 NOSIG=
201004060430 METAR LMML NIL=
201004060415 METAR LMML 060415Z 35009KT CAVOK 12/06 Q1022 NOSIG=
201004060400 METAR LMML NIL=
201004060345 METAR LMML 060345Z 34008KT CAVOK 12/06 Q1022 NOSIG=
201004060330 METAR LMML NIL=
201004060315 METAR LMML 060315Z 34011KT CAVOK 12/07 Q1022 NOSIG=
201004060300 METAR LMML NIL=
201004060245 METAR LMML 060245Z 34011KT 320V020 CAVOK 13/08 Q1023 NOSIG=
201004060230 METAR LMML NIL=
201004060215 METAR LMML 060215Z 34012KT CAVOK 13/08 Q1023 NOSIG=
201004060200 METAR LMML NIL=
201004060145 METAR LMML 060145Z 33011KT CAVOK 12/08 Q1023 NOSIG=
201004060130 METAR LMML NIL=
201004060115 METAR LMML 060115Z 33013KT CAVOK 13/08 Q1023 NOSIG=
201004060100 METAR LMML NIL=
201004060045 METAR LMML 060045Z 33013KT CAVOK 13/08 Q1023 NOSIG=
201004060030 METAR LMML NIL=
201004060015 METAR LMML 060015Z 34010KT CAVOK 13/08 Q1023 NOSIG=
201004060000 METAR LMML NIL=
201004052345 METAR LMML 052345Z 33013KT 300V360 CAVOK 13/08 Q1024 NOSIG=
201004052330 METAR LMML NIL=
201004052315 METAR LMML 052315Z 33015KT CAVOK 13/08 Q1024 NOSIG=
201004052300 METAR LMML NIL=
201004052245 METAR LMML 052245Z 33013KT 300V360 CAVOK 13/09 Q1024 NOSIG=
201004052230 METAR LMML NIL=
201004052215 METAR LMML 052215Z 32012KT 9999 FEW020 12/08 Q1024 NOSIG=
201004052200 METAR LMML NIL=
201004052145 METAR LMML 052145Z 32013KT CAVOK 13/08 Q1024 NOSIG=
201004052130 METAR LMML NIL=
201004052115 METAR LMML 052115Z 32012KT CAVOK 13/08 Q1024 NOSIG=
201004052100 METAR LMML NIL=
201004052045 METAR LMML 052045Z 31017KT CAVOK 13/08 Q1024 NOSIG=
201004052030 METAR LMML NIL=
201004052015 METAR LMML 052015Z 31015KT CAVOK 13/08 Q1024 NOSIG=
201004052000 METAR LMML NIL=
201004051945 METAR LMML 051945Z 30012KT 270V330 CAVOK 13/08 Q1024 NOSIG=
201004051930 METAR LMML NIL=
201004051915 METAR LMML 051915Z 31015KT CAVOK 13/08 Q1024 NOSIG=
201004051900 METAR LMML NIL=
201004051845 METAR LMML 051845Z 31017KT CAVOK 13/08 Q1023 NOSIG=
201004051830 METAR LMML NIL=
201004051815 METAR LMML 051815Z 31017KT CAVOK 14/08 Q1023 NOSIG=
201004051800 METAR LMML NIL=
201004051745 METAR LMML 051745Z 31015KT CAVOK 14/08 Q1023 NOSIG=
201004051730 METAR LMML NIL=
201004051715 METAR LMML 051715Z 31015KT 280V340 CAVOK 14/08 Q1023 NOSIG=
201004051700 METAR LMML NIL=
201004051645 METAR LMML 051645Z 31017KT 270V330 CAVOK 15/09 Q1023 NOSIG=
201004051630 METAR LMML NIL=
201004051615 METAR LMML 051615Z 31019KT 280V340 CAVOK 16/09 Q1023 NOSIG=
201004051600 METAR LMML NIL=
201004051545 METAR LMML 051545Z 30018KT CAVOK 16/10 Q1023 NOSIG=
201004051530 METAR LMML NIL=
201004051515 METAR LMML 051515Z 30016KT 270V330 CAVOK 17/08 Q1023 NOSIG=
201004051500 METAR LMML NIL=
201004051430 METAR LMML NIL=
201004051415 METAR LMML 051415Z 30018KT CAVOK 18/09 Q1023 NOSIG=
201004051400 METAR LMML NIL=
201004051345 METAR LMML 051345Z 30018KT CAVOK 17/09 Q1023 NOSIG=
201004051330 METAR LMML NIL=
201004051315 METAR LMML 051315Z 30015KT CAVOK 18/09 Q1023 NOSIG=
201004051300 METAR LMML NIL=
201004051245 METAR LMML 051245Z 31015KT CAVOK 19/09 Q1023 NOSIG=
201004051215 METAR LMML 051215Z 31015KT CAVOK 18/09 Q1024 NOSIG=
201004051200 METAR LMML NIL=
201004051145 METAR LMML 051145Z 29016KT CAVOK 18/09 Q1024 NOSIG=
201004051130 METAR LMML NIL=
201004051115 METAR LMML 051115Z 30014G25KT 260V330 CAVOK 18/09 Q1024 NOSIG=
201004051100 METAR LMML NIL=
201004051045 METAR LMML 051045Z 31018KT CAVOK 18/08 Q1024 NOSIG=
201004051030 METAR LMML NIL=
201004051015 METAR LMML 051015Z 32014KT 280V350 CAVOK 19/10 Q1024 NOSIG=
201004051000 METAR LMML NIL=
201004050945 METAR LMML 050945Z 32015KT 9999 FEW020 18/12 Q1024 NOSIG=
201004050930 METAR LMML NIL=
201004050915 METAR LMML 050915Z 33013KT 9999 FEW020 18/12 Q1024 NOSIG=
201004050900 METAR LMML NIL=
201004050845 METAR LMML 050845Z 33012KT 9999 FEW015 17/12 Q1024 NOSIG=
201004050830 METAR LMML NIL=
201004050815 METAR LMML 050815Z 33014KT 300V360 9999 SCT013 16/12 Q1024
                        NOSIG=
201004050800 METAR LMML NIL=
201004050745 METAR LMML 050745Z 33012KT 9000 BKN013 16/13 Q1023 NOSIG=
201004050730 METAR LMML NIL=
201004050715 METAR LMML 050715Z 33012KT 9000 BKN012 15/14 Q1023 BECMG
                        9999=
201004050700 METAR LMML NIL=
201004050645 METAR LMML 050645Z 33009KT 8000 BKN010 15/15 Q1023 BECMG
                        9999=
201004050630 METAR LMML NIL=
201004050615 METAR COR LMML 050615Z 33005KT 8000 BKN009 14/14 Q1023 BECMG
                        9999=
201004050600 METAR LMML NIL=
201004050545 METAR LMML 050545Z 33005KT 9000 FEW015 14/13 Q1023 BECMG
                        9999=
201004050530 METAR LMML NIL=
201004050515 METAR LMML 050515Z 33005KT 5000 BR FEW015 12/12 Q1022 BECMG
                        9999=
201004050500 METAR LMML NIL=
201004050445 METAR LMML 050445Z 33005KT 4000 BR FEW015 12/12 Q1022 NOSIG=
201004050430 METAR LMML NIL=
201004050415 METAR LMML 050415Z 32005KT 6000 FEW015 12/12 Q1022 TEMPO
                        5000 BR=
201004050400 METAR LMML NIL=
201004050345 METAR LMML 050345Z VRB03KT 6000 FEW015 12/12 Q1022 NOSIG=
201004050315 METAR LMML 050315Z VRB02KT 7000 FEW015 13/12 Q1022 NOSIG=
201004050300 METAR LMML NIL=
201004050245 METAR LMML 050245Z VRB03KT 9000 FEW015 13/12 Q1022 NOSIG=
201004050230 METAR LMML NIL=
201004050215 METAR LMML 050215Z VRB03KT 9999 FEW015 SCT250 13/12 Q1022
                        NOSIG=
201004050200 METAR LMML NIL=
201004050145 METAR LMML 050145Z 31005KT 9999 FEW015 SCT250 13/12 Q1022
                        NOSIG=
201004050130 METAR LMML NIL=
201004050115 METAR LMML 050115Z 29006KT 9999 FEW015 SCT250 13/12 Q1022
                        NOSIG=
201004050100 METAR LMML NIL=
201004050045 METAR LMML 050045Z 30005KT 9999 FEW015 13/12 Q1022 NOSIG=
201004050030 METAR LMML NIL=
201004050015 METAR LMML 050015Z VRB03KT CAVOK 14/12 Q1021 NOSIG=
201004050000 METAR LMML NIL=
201004042345 METAR LMML 042345Z VRB01KT CAVOK 14/13 Q1022 NOSIG=
201004042330 METAR LMML NIL=
201004042315 METAR LMML 042315Z 08004KT CAVOK 14/13 Q1022 NOSIG=
201004042300 METAR LMML NIL=
201004042245 METAR LMML 042245Z 08006KT 050V120 CAVOK 15/13 Q1021 NOSIG=
201004042230 METAR LMML NIL=
201004042215 METAR LMML 042215Z 09007KT 050V120 CAVOK 14/13 Q1021 NOSIG=
201004042200 METAR LMML NIL=
201004042145 METAR LMML 042145Z 09007KT CAVOK 14/13 Q1020 NOSIG=
201004042130 METAR LMML NIL=
201004042115 METAR LMML 042115Z 09006KT CAVOK 15/13 Q1021 NOSIG=
201004042100 METAR LMML NIL=
201004042045 METAR LMML 042045Z 09006KT 060V120 CAVOK 15/13 Q1021 NOSIG=
201004042030 METAR LMML NIL=
201004042015 METAR LMML 042015Z 10006KT 060V120 CAVOK 15/13 Q1021 NOSIG=
201004042000 METAR LMML NIL=
201004041945 METAR LMML 041945Z 11007KT CAVOK 15/13 Q1021 NOSIG=
201004041930 METAR LMML NIL=
201004041915 METAR LMML 041915Z 13008KT CAVOK 15/13 Q1020 NOSIG=
201004041900 METAR LMML NIL=
201004041845 METAR LMML 041845Z 14009KT 110V170 CAVOK 15/13 Q1019 NOSIG=
201004041830 METAR LMML NIL=
201004041815 METAR LMML 041815Z 13012KT CAVOK 15/13 Q1019 NOSIG=
201004041800 METAR LMML NIL=
201004041745 METAR LMML 041745Z 13013KT CAVOK 15/13 Q1019 NOSIG=
201004041730 METAR LMML NIL=
201004041715 METAR COR LMML 041715Z 13014KT CAVOK 15/13 Q1019 NOSIG=
201004041700 METAR LMML NIL=
201004041645 METAR LMML 041645Z 13012KT CAVOK 16/13 Q1019 NOSIG=
201004041630 METAR LMML NIL=
201004041615 METAR LMML 041615Z 12014KT 090V150 9999 FEW012 SCT250 17/13
                        Q1019 NOSIG=
201004041600 METAR LMML NIL=
201004041545 METAR LMML 041545Z 13013KT CAVOK 17/13 Q1019 NOSIG=
201004041530 METAR LMML NIL=
201004041515 METAR LMML 041515Z 13014KT 100V160 CAVOK 18/13 Q1019 NOSIG=
201004041500 METAR LMML NIL=
201004041445 METAR LMML 041445Z 13014KT 100V170 CAVOK 18/13 Q1019 NOSIG=
201004041415 METAR LMML 041415Z 13015KT CAVOK 18/13 Q1020 NOSIG=
201004041400 METAR LMML NIL=
201004041345 METAR LMML 041345Z 13014KT 100V160 CAVOK 19/13 Q1020 NOSIG=
201004041330 METAR LMML NIL=
201004041315 METAR LMML 041315Z 14013KT 110V170 CAVOK 19/12 Q1020 NOSIG=
201004041300 METAR LMML NIL=
201004041245 METAR LMML 041245Z 14013KT 110V170 CAVOK 19/12 Q1021 NOSIG=
201004041230 METAR LMML NIL=
201004041215 METAR LMML 041215Z 14012KT 090V180 CAVOK 19/12 Q1021 NOSIG=
201004041200 METAR LMML NIL=
201004041145 METAR LMML 041145Z 13013KT 100V170 9999 FEW011 BKN250 19/13
                        Q1021 NOSIG=
201004041130 METAR LMML NIL=
201004041115 METAR LMML 041115Z 13013KT 100V160 9999 FEW011 19/13 Q1021
                        NOSIG=
201004041100 METAR LMML NIL=
201004041045 METAR LMML 041045Z 14014KT 110V180 9999 FEW011 18/13 Q1021
                        NOSIG=
201004041030 METAR LMML NIL=
201004041015 METAR LMML 041015Z 13015KT 110V170 9999 FEW020 18/13 Q1021
                        NOSIG=
201004041000 METAR LMML NIL=
201004040945 METAR LMML 040945Z 13015KT 9999 FEW020 18/13 Q1021 NOSIG=
201004040930 METAR LMML NIL=
201004040915 METAR LMML 040915Z 14014KT 100V170 9999 FEW020 SCT250 18/12
                        Q1021 NOSIG=
201004040900 METAR LMML NIL=
201004040845 METAR LMML 040845Z 13013KT 9999 FEW020 SCT250 17/12 Q1021
                        NOSIG=
201004040830 METAR LMML NIL=
201004040815 METAR LMML 040815Z 13013KT CAVOK 17/12 Q1021 NOSIG=
201004040745 METAR LMML 040745Z 13012KT CAVOK 17/12 Q1021 NOSIG=
201004040730 METAR LMML NIL=
201004040715 METAR LMML 040715Z 13013KT CAVOK 16/12 Q1021 NOSIG=
201004040700 METAR LMML NIL=
201004040645 METAR LMML 040645Z 12010KT CAVOK 15/12 Q1021 NOSIG=
201004040630 METAR LMML NIL=
201004040615 METAR LMML 040615Z 12010KT CAVOK 15/13 Q1021 NOSIG=
201004040600 METAR LMML NIL=
201004040545 METAR LMML 040545Z 13007KT CAVOK 13/12 Q1021 NOSIG=
201004040530 METAR LMML NIL=
201004040515 METAR LMML 040515Z 13006KT CAVOK 12/11 Q1021 NOSIG=
201004040500 METAR LMML NIL=
201004040445 METAR LMML 040445Z 13005KT CAVOK 11/11 Q1020 NOSIG=
201004040430 METAR LMML NIL=
201004040415 METAR LMML 040415Z 11005KT CAVOK 12/11 Q1020 NOSIG=
201004040400 METAR LMML NIL=
201004040345 METAR LMML 040345Z 12005KT CAVOK 12/10 Q1021 NOSIG=
201004040330 METAR LMML NIL=
201004040315 METAR LMML 040315Z 13006KT CAVOK 12/11 Q1020 NOSIG=
201004040245 METAR LMML 040245Z 11005KT CAVOK 11/11 Q1020 NOSIG=
201004040215 METAR LMML 040215Z VRB03KT CAVOK 12/11 Q1020 NOSIG=
201004040145 METAR LMML 040145Z 13004KT CAVOK 12/11 Q1021 NOSIG=
201004040130 METAR LMML NIL=
201004040115 METAR LMML 040115Z 11004KT CAVOK 12/11 Q1021 NOSIG=
201004040100 METAR LMML NIL=
201004040045 METAR LMML 040045Z 10004KT CAVOK 12/11 Q1021 NOSIG=
201004040030 METAR LMML NIL=
201004040015 METAR LMML 040015Z VRB03KT CAVOK 12/11 Q1021 NOSIG=
201004032345 METAR LMML 032345Z 11004KT CAVOK 12/11 Q1022 NOSIG=
201004032315 METAR LMML 032315Z VRB03KT CAVOK 13/12 Q1022 NOSIG=
201004032300 METAR LMML NIL=
201004032245 METAR LMML 032245Z VRB02KT CAVOK 13/12 Q1022 NOSIG=
201004032215 METAR LMML 032215Z VRB02KT CAVOK 13/12 Q1022 NOSIG=
201004032145 METAR LMML 032145Z VRB03KT CAVOK 13/12 Q1022 NOSIG=
201004032130 METAR LMML NIL=
201004032115 METAR LMML 032115Z VRB03KT CAVOK 13/11 Q1022 NOSIG=
201004032100 METAR LMML NIL=
201004032045 METAR LMML 032045Z VRB03KT CAVOK 13/11 Q1022 NOSIG=
201004032030 METAR LMML NIL=
201004032015 METAR LMML 032015Z VRB03KT CAVOK 14/11 Q1022 NOSIG=
201004032000 METAR LMML NIL=
201004031945 METAR LMML 031945Z VRB03KT CAVOK 14/11 Q1022 NOSIG=
201004031915 METAR LMML 031915Z VRB03KT CAVOK 14/11 Q1022 NOSIG=
201004031900 METAR LMML NIL=
201004031845 METAR LMML 031845Z VRB02KT CAVOK 14/11 Q1021 NOSIG=
201004031830 METAR LMML NIL=
201004031815 METAR LMML 031815Z VRB03KT CAVOK 15/11 Q1021 NOSIG=
201004031800 METAR LMML NIL=
201004031745 METAR LMML 031745Z VRB03KT CAVOK 15/11 Q1021 NOSIG=
201004031715 METAR LMML 031715Z VRB03KT 9999 FEW017 15/11 Q1021 NOSIG=
201004031700 METAR LMML NIL=
201004031645 METAR LMML 031645Z VRB03KT 9999 FEW017 16/10 Q1021 NOSIG=
201004031630 METAR LMML NIL=
201004031615 METAR LMML 031615Z 22004KT 180V280 9999 FEW017 17/10 Q1021
                        NOSIG=
201004031600 METAR LMML NIL=
201004031545 METAR LMML 031545Z 20004KT 160V270 9999 FEW019 17/11 Q1021
                        NOSIG=
201004031530 METAR LMML NIL=
201004031515 METAR LMML 031515Z VRB03KT 9999 FEW019 17/12 Q1021 NOSIG=
201004031500 METAR LMML NIL=
201004031445 METAR LMML 031445Z VRB02KT 9999 FEW019 17/11 Q1021 NOSIG=
201004031430 METAR LMML NIL=
201004031415 METAR LMML 031415Z 13004KT 060V220 9999 FEW020 17/12 Q1021
                        NOSIG=
201004031400 METAR LMML NIL=
201004031345 METAR LMML 031345Z 09004KT 010V140 9999 FEW021 18/12 Q1021
                        NOSIG=
201004031330 METAR LMML NIL=
201004031315 METAR LMML 031315Z VRB03KT 9999 FEW023 19/11 Q1022 NOSIG=
201004031300 METAR LMML NIL=
201004031245 METAR LMML 031245Z 19004KT 130V290 9999 FEW025 19/11 Q1022
                        NOSIG=
201004031230 METAR LMML NIL=
201004031215 METAR LMML 031215Z 19006KT 150V230 9999 FEW024 19/10 Q1022
                        NOSIG=
201004031200 METAR LMML NIL=
201004031145 METAR LMML 031145Z 17005KT 130V220 9999 FEW025 19/11 Q1022
                        NOSIG=
201004031130 METAR LMML NIL=
201004031115 METAR LMML 031115Z 04006KT 010V070 9999 FEW014 20/11 Q1022
                        NOSIG=
201004031100 METAR LMML NIL=
201004031045 METAR LMML 031045Z VRB03KT 9999 FEW014 SCT250 20/08 Q1022
                        NOSIG=
201004031030 METAR LMML NIL=
201004031015 METAR LMML 031015Z VRB03KT 9999 FEW014 SCT250 19/10 Q1022
                        NOSIG=
201004031000 METAR LMML NIL=
201004030945 METAR LMML 030945Z 01004KT 320V050 9999 FEW014 BKN250 19/10
                        Q1022 NOSIG=
201004030930 METAR LMML NIL=
201004030915 METAR LMML 030915Z VRB03KT 9999 FEW014 BKN250 18/11 Q1022
                        NOSIG=
201004030900 METAR LMML NIL=
201004030845 METAR LMML 030845Z VRB03KT 9999 FEW014 BKN250 17/11 Q1022
                        NOSIG=
201004030830 METAR LMML NIL=
201004030815 METAR LMML 030815Z 34005KT 310V010 9999 FEW014 BKN250 16/11
                        Q1022 NOSIG=
201004030745 METAR LMML 030745Z VRB03KT 9999 FEW014 BKN250 16/12 Q1022
                        NOSIG=
201004030730 METAR LMML NIL=
201004030715 METAR LMML 030715Z 34005KT 9999 FEW015 BKN250 15/12 Q1022
                        NOSIG=
201004030700 METAR LMML NIL=
201004030645 METAR LMML 030645Z 34005KT 300V010 9999 FEW015 BKN250 15/13
                        Q1021 NOSIG=
201004030630 METAR LMML NIL=
201004030615 METAR LMML 030615Z 33006KT 9999 FEW015 BKN250 14/12 Q1021
                        NOSIG=
201004030545 METAR LMML 030545Z 33005KT 9999 FEW015 BKN250 13/12 Q1021
                        NOSIG=
201004030515 METAR LMML 030515Z 33004KT 9999 FEW015 BKN250 12/11 Q1021
                        NOSIG=
201004030500 METAR LMML NIL=
201004030445 METAR LMML 030445Z 32005KT 9999 FEW015 12/11 Q1020 NOSIG=
201004030430 METAR LMML NIL=
201004030415 METAR LMML 030415Z 31007KT 9999 FEW015 12/11 Q1020 NOSIG=
201004030400 METAR LMML NIL=
201004030345 METAR LMML 030345Z 30007KT CAVOK 13/11 Q1020 NOSIG=
201004030330 METAR LMML NIL=
201004030315 METAR LMML 030315Z 30007KT CAVOK 13/11 Q1020 NOSIG=
201004030300 METAR LMML NIL=
201004030245 METAR LMML 030245Z 30005KT 270V330 CAVOK 13/11 Q1020 NOSIG=
201004030230 METAR LMML NIL=
201004030215 METAR LMML 030215Z 30005KT 270V340 CAVOK 13/11 Q1020 NOSIG=
201004030200 METAR LMML NIL=
201004030145 METAR LMML 030145Z 29006KT CAVOK 13/11 Q1020 NOSIG=
201004030130 METAR LMML NIL=
201004030115 METAR LMML 030115Z 30005KT 270V330 CAVOK 13/10 Q1020 NOSIG=
201004030100 METAR LMML NIL=
201004030045 METAR LMML 030045Z 31006KT CAVOK 13/10 Q1020 NOSIG=
201004030030 METAR LMML NIL=
201004030015 METAR LMML 030015Z 29009KT CAVOK 13/11 Q1020 NOSIG=
201004030000 METAR LMML NIL=
201004022345 METAR LMML 022345Z 28004KT 230V350 CAVOK 13/10 Q1020 NOSIG=
201004022330 METAR LMML NIL=
201004022315 METAR LMML 022315Z VRB01KT CAVOK 13/10 Q1020 NOSIG=
201004022300 METAR LMML NIL=
201004022245 METAR LMML 022245Z VRB01KT CAVOK 13/10 Q1020 NOSIG=
201004022230 METAR LMML NIL=
201004022215 METAR LMML 022215Z 29004KT 250V340 CAVOK 13/10 Q1020 NOSIG=
201004022200 METAR LMML NIL=
201004022145 METAR LMML 022145Z 29007KT CAVOK 13/10 Q1020 NOSIG=
201004022130 METAR LMML NIL=
201004022115 METAR LMML 022115Z 29008KT CAVOK 14/11 Q1020 NOSIG=
201004022100 METAR LMML NIL=
201004022045 METAR LMML 022045Z 31006KT CAVOK 13/11 Q1020 NOSIG=
201004022030 METAR LMML NIL=
201004022015 METAR LMML 022015Z VRB03KT CAVOK 13/11 Q1020 NOSIG=
201004022000 METAR LMML NIL=
201004021945 METAR LMML 021945Z 29004KT 230V340 CAVOK 14/11 Q1020 NOSIG=
201004021930 METAR LMML NIL=
201004021915 METAR LMML 021915Z 29008KT 260V320 CAVOK 14/11 Q1020 NOSIG=
201004021900 METAR LMML NIL=
201004021845 METAR LMML 021845Z 31007KT 270V340 CAVOK 14/11 Q1020 NOSIG=
201004021830 METAR LMML NIL=
201004021815 METAR LMML 021815Z 29008KT 260V320 CAVOK 14/11 Q1020 NOSIG=
201004021800 METAR LMML NIL=
201004021745 METAR LMML 021745Z 29007KT 250V320 CAVOK 15/10 Q1019 NOSIG=
201004021730 METAR LMML NIL=
201004021715 METAR LMML 021715Z 29006KT CAVOK 15/10 Q1019 NOSIG=
201004021700 METAR LMML NIL=
201004021645 METAR LMML 021645Z 30009KT 270V330 9999 FEW015 16/09 Q1019
                        NOSIG=
201004021630 METAR LMML NIL=
201004021615 METAR LMML 021615Z 29009KT 9999 FEW015 17/09 Q1019 NOSIG=
201004021600 METAR LMML NIL=
201004021545 METAR LMML 021545Z 29010KT 260V320 9999 FEW015 18/09 Q1019
                        NOSIG=
201004021530 METAR LMML NIL=
201004021515 METAR LMML 021515Z 29010KT 250V310 CAVOK 18/10 Q1019 NOSIG=
201004021500 METAR LMML NIL=
201004021445 METAR LMML 021445Z 30010KT 270V330 CAVOK 19/09 Q1019 NOSIG=
201004021430 METAR LMML NIL=
201004021415 METAR LMML 021415Z 29010KT CAVOK 19/06 Q1019 NOSIG=
201004021400 METAR LMML NIL=
201004021345 METAR LMML 021345Z 28011KT 250V320 CAVOK 20/09 Q1019 NOSIG=
201004021330 METAR LMML NIL=
201004021315 METAR LMML 021315Z 34010KT CAVOK 20/08 Q1019 NOSIG=
201004021300 METAR LMML NIL=
201004021245 METAR LMML 021245Z 33008KT 290V020 CAVOK 20/08 Q1019 NOSIG=
201004021230 METAR LMML NIL=
201004021215 METAR LMML 021215Z 34011KT 320V020 CAVOK 20/08 Q1019 NOSIG=
201004021200 METAR LMML NIL=
201004021145 METAR LMML 021145Z 33011KT 9999 FEW025 21/08 Q1019 NOSIG=
201004021130 METAR LMML NIL=
201004021115 METAR LMML 021115Z 35009KT 300V020 9999 FEW025 21/08 Q1019
                        NOSIG=
201004021100 METAR LMML NIL=
201004021045 METAR LMML 021045Z 33008KT 300V020 9999 FEW025 21/08 Q1019
                        NOSIG=
201004021030 METAR LMML NIL=
201004021015 METAR LMML 021015Z 32008KT 290V010 9999 FEW025 20/11 Q1019
                        NOSIG=
201004021000 METAR LMML NIL=
201004020945 METAR LMML 020945Z 35007KT 310V030 9999 FEW015 21/09 Q1019
                        NOSIG=
201004020930 METAR LMML NIL=
201004020915 METAR LMML 020915Z 34006KT 290V020 9999 FEW020 20/10 Q1019
                        NOSIG=
201004020845 METAR LMML 020845Z 33007KT 300V360 9999 FEW012 19/11 Q1019
                        NOSIG=
201004020815 METAR LMML 020815Z 35006KT 320V020 9999 FEW012 18/12 Q1018
                        NOSIG=
201004020800 METAR LMML NIL=
201004020745 METAR LMML 020745Z 34007KT 9999 FEW012 18/11 Q1018 NOSIG=
201004020730 METAR LMML NIL=
201004020715 METAR LMML 020715Z 32004KT 9999 FEW012 17/11 Q1018 NOSIG=
201004020645 METAR LMML 020645Z 31004KT CAVOK 16/13 Q1018 NOSIG=
201004020615 METAR LMML 020615Z VRB03KT 9999 FEW020 14/13 Q1017 NOSIG=
201004020600 METAR LMML NIL=
201004020545 METAR LMML 020545Z 34004KT 300V360 9999 FEW020 14/13 Q1017
                        NOSIG=
201004020530 METAR LMML NIL=
201004020515 METAR LMML 020515Z 34005KT 310V030 9999 FEW020 13/12 Q1017
                        NOSIG=
201004020500 METAR LMML NIL=
201004020445 METAR LMML 020445Z 33004KT CAVOK 12/11 Q1017 NOSIG=
201004020430 METAR LMML NIL=
201004020415 METAR LMML 020415Z 34005KT CAVOK 12/11 Q1016 NOSIG=
201004020400 METAR LMML NIL=
201004020345 METAR LMML 020345Z VRB02KT 9999 FEW015 SCT080 13/11 Q1017
                        NOSIG=
201004020330 METAR LMML NIL=
201004020315 METAR LMML 020315Z 34006KT 9999 FEW015 SCT080 14/12 Q1017
                        NOSIG=
201004020300 METAR LMML NIL=
201004020245 METAR LMML 020245Z 34006KT 9999 FEW015 SCT080 14/12 Q1017
                        NOSIG=
201004020230 METAR LMML NIL=
201004020215 METAR LMML 020215Z 34005KT CAVOK 14/12 Q1017 NOSIG=
201004020200 METAR LMML NIL=
201004020145 METAR LMML 020145Z 34006KT 310V010 CAVOK 14/11 Q1017 NOSIG=
201004020130 METAR LMML NIL=
201004020115 METAR LMML 020115Z 34005KT CAVOK 14/11 Q1017 NOSIG=
201004020100 METAR LMML NIL=
201004020045 METAR LMML 020045Z 35005KT CAVOK 14/11 Q1017 NOSIG=
201004020030 METAR LMML NIL=
201004020015 METAR LMML 020015Z 01004KT 330V100 CAVOK 14/11 Q1017 NOSIG=
201004020000 METAR LMML NIL=
201004012345 METAR LMML 012345Z VRB03KT CAVOK 14/11 Q1017 NOSIG=
201004012330 METAR LMML NIL=
201004012315 METAR LMML 012315Z VRB03KT CAVOK 14/11 Q1017 NOSIG=
201004012300 METAR LMML NIL=
201004012245 METAR LMML 012245Z 02004KT 360V060 CAVOK 14/11 Q1017 NOSIG=
201004012230 METAR LMML NIL=
201004012215 METAR LMML 012215Z 02004KT CAVOK 14/11 Q1017 NOSIG=
201004012200 METAR LMML NIL=
201004012145 METAR LMML 012145Z 02004KT CAVOK 14/11 Q1017 NOSIG=
201004012130 METAR LMML NIL=
201004012115 METAR LMML 012115Z 03005KT CAVOK 15/12 Q1017 NOSIG=
201004012100 METAR LMML NIL=
201004012045 METAR LMML 012045Z 02004KT CAVOK 14/11 Q1017 NOSIG=
201004012030 METAR LMML NIL=
201004012015 METAR LMML 012015Z 04004KT 010V070 CAVOK 15/11 Q1016 NOSIG=
201004012000 METAR LMML NIL=
201004011945 METAR LMML 011945Z 04005KT CAVOK 15/10 Q1016 NOSIG=
201004011930 METAR LMML NIL=
201004011915 METAR LMML 011915Z 05005KT 020V080 CAVOK 15/10 Q1016 NOSIG=
201004011900 METAR LMML NIL=
201004011845 METAR LMML 011845Z 05005KT 020V080 CAVOK 15/09 Q1016 NOSIG=
201004011830 METAR LMML NIL=
201004011815 METAR LMML 011815Z 06005KT 030V090 CAVOK 15/10 Q1016 NOSIG=
201004011800 METAR LMML NIL=
201004011745 METAR LMML 011745Z 07005KT 020V110 CAVOK 15/10 Q1016 NOSIG=
201004011730 METAR LMML NIL=
201004011715 METAR LMML 011715Z 07005KT 040V100 CAVOK 16/09 Q1016 NOSIG=
201004011700 METAR LMML NIL=
201004011645 METAR LMML 011645Z 07007KT CAVOK 16/09 Q1016 NOSIG=
201004011630 METAR LMML NIL=
201004011615 METAR LMML 011615Z 08008KT 050V110 CAVOK 16/08 Q1016 NOSIG=
201004011600 METAR LMML NIL=
201004011545 METAR LMML 011545Z 07008KT 040V100 CAVOK 17/08 Q1016 NOSIG=
201004011530 METAR LMML NIL=
201004011515 METAR LMML 011515Z 07008KT 040V110 CAVOK 18/08 Q1016 NOSIG=
201004011500 METAR LMML NIL=
201004011445 METAR LMML 011445Z 08009KT 020V120 CAVOK 18/09 Q1016 NOSIG=
201004011430 METAR LMML NIL=
201004011415 METAR LMML 011415Z 08010KT 030V110 CAVOK 19/09 Q1016 NOSIG=
201004011400 METAR LMML NIL=
201004011345 METAR LMML 011345Z 06009KT 030V110 CAVOK 19/10 Q1017 NOSIG=
201004011330 METAR LMML NIL=
201004011315 METAR LMML 011315Z 08009KT 050V120 CAVOK 18/10 Q1017 NOSIG=
201004011300 METAR LMML NIL=
201004011245 METAR LMML 011245Z 09010KT 360V170 CAVOK 18/08 Q1017 NOSIG=
201004011215 METAR LMML 011215Z 10010KT 060V140 CAVOK 19/09 Q1017 NOSIG=
201004011200 METAR LMML NIL=
201004011145 METAR LMML 011145Z 09008KT 360V140 CAVOK 19/08 Q1018 NOSIG=
201004011130 METAR LMML NIL=
201004011115 METAR LMML 011115Z 10008KT 050V120 CAVOK 19/08 Q1018 NOSIG=
201004011100 METAR LMML NIL=
201004011045 METAR LMML 011045Z 08007KT 020V110 CAVOK 19/09 Q1018 NOSIG=
201004011030 METAR LMML NIL=
201004011015 METAR LMML 011015Z 10008KT 070V130 CAVOK 19/08 Q1018 NOSIG=
201004011000 METAR LMML NIL=
201004010945 METAR LMML 010945Z 08006KT 030V120 CAVOK 19/09 Q1018 NOSIG=
201004010930 METAR LMML NIL=
201004010915 METAR LMML 010915Z 09006KT 060V140 CAVOK 18/10 Q1018 NOSIG=
201004010900 METAR LMML NIL=
201004010845 METAR LMML 010845Z VRB03KT CAVOK 18/11 Q1018 NOSIG=
201004010815 METAR LMML 010815Z 07004KT 020V110 CAVOK 17/11 Q1018 NOSIG=
201004010800 METAR LMML NIL=
201004010745 METAR LMML 010745Z 09005KT 050V170 9000 FEW005 BKN250 15/13
                        Q1017 NOSIG=
201004010730 METAR LMML NIL=
201004010715 METAR LMML 010715Z VRB03KT 6000 FEW004 BKN250 15/14 Q1017
                        NOSIG=
201004010700 METAR LMML NIL=
201004010645 METAR LMML 010645Z VRB02KT 6000 FEW004 SCT130 BKN250 14/14
                        Q1017 NOSIG=
201004010630 METAR LMML NIL=
201004010615 METAR LMML 010615Z VRB01KT 6000 FEW004 SCT130 BKN250 14/13
                        Q1017 NOSIG=
201004010600 METAR LMML NIL=
201004010545 METAR LMML 010545Z VRB01KT 7000 FEW004 BKN250 13/12 Q1017
                        NOSIG=
201004010530 METAR LMML NIL=
201004010515 METAR LMML 010515Z VRB01KT 7000 SCT004 BKN250 12/11 Q1017
                        NOSIG=
201004010500 METAR LMML NIL=
201004010445 METAR LMML 010445Z VRB02KT 9000 NSC 12/11 Q1017 NOSIG=
201004010430 METAR LMML NIL=
201004010415 METAR LMML 010415Z VRB03KT CAVOK 13/12 Q1017 NOSIG=
201004010400 METAR LMML NIL=
201004010345 METAR LMML 010345Z 32004KT CAVOK 12/11 Q1017 NOSIG=
201004010330 METAR LMML NIL=
201004010315 METAR LMML 010315Z 32005KT CAVOK 13/12 Q1016 NOSIG=
201004010300 METAR LMML NIL=
201004010245 METAR LMML 010245Z 32006KT CAVOK 12/11 Q1016 NOSIG=
201004010230 METAR LMML NIL=
201004010215 METAR LMML 010215Z 31004KT CAVOK 12/11 Q1016 NOSIG=
201004010200 METAR LMML NIL=
201004010145 METAR LMML 010145Z 32006KT CAVOK 12/11 Q1016 NOSIG=
201004010130 METAR LMML NIL=
201004010115 METAR LMML 010115Z VRB03KT CAVOK 13/11 Q1017 NOSIG=
201004010100 METAR LMML NIL=
201004010045 METAR LMML 010045Z VRB03KT CAVOK 13/10 Q1017 NOSIG=
201004010030 METAR LMML NIL=
201004010015 METAR LMML 010015Z VRB02KT CAVOK 13/09 Q1017 NOSIG=
201004010000 METAR LMML NIL=

###################################
#  short TAF from LMML
###################################
201005012300 TAF LMML 012300Z 0200/0209 14007KT 9999 FEW015=
201005012000 TAF LMML 012000Z 0121/0206 14007KT 9999 FEW018=
201005011700 TAF LMML 011700Z 0118/0203 16005KT 9999 FEW015=
201005011400 TAF LMML 011400Z 0115/0124 18005KT 9999 FEW020
                      TEMPO 0115/0124 CAVOK=
201005011100 TAF LMML 011100Z 0112/0121 18006KT 9999 FEW020
                      TEMPO 0112/0121 CAVOK=
201005010800 TAF LMML 010800Z 0109/0118 18007KT 9999 FEW018
                      TEMPO 0110/0118 CAVOK=
201005010500 TAF LMML 010500Z 0106/0115 18005KT CAVOK
                      TEMPO 0106/0115 9999 FEW015=
201005010200 TAF LMML 010200Z 0103/0112 18005KT CAVOK
                      TEMPO 0103/0112 9999 FEW015=
201004302300 TAF LMML 302300Z 0100/0109 VRB04KT CAVOK
                      TEMPO 0100/0109 9999 FEW015=
201004302000 TAF LMML 302000Z 3021/0106 VRB03KT CAVOK
                      TEMPO 0100/0106 9999 FEW012=
201004301700 TAF LMML 301700Z 3018/0103 VRB03KT 9999 FEW020
                      TEMPO 3018/0103 CAVOK=
201004301400 TAF LMML 301400Z 3015/3024 VRB03KT 9999 FEW025
                      TEMPO 3015/3024 CAVOK=
201004301100 TAF LMML 301100Z 3012/3021 15005KT 9999 FEW025
                      TEMPO 3015/3021 CAVOK=
201004300800 TAF LMML 300800Z 3009/3015 10006KT 9999 FEW025
                      TEMPO 3013/315 CAVOK=
201004300500 TAF LMML 300500Z 3006/3015 VRB03KT 9999 FEW015=
201004300200 TAF LMML 300200Z 3003/3012 VRB04KT 9999 FEW015
                      PROB40 TEMPO 3003/3007 9000 NKN012
                      PROB30 TEMPO 3003/3007 5000 BR=
201004292300 TAF LMML 292300Z 3000/3009 VRB03KT 9999 FEW012
                      PROB40 TEMPO 3000/3007 9000 BKN012
                      PROB30 TEMPO 3000/3007 5000 BR=
201004292000 TAF LMML 292000Z 2921/3006 VRB05KT 9999 SCT010
                      PROB40 TEMPO 2921/3006 9000 BKN009
                      PROB30 TEMPO 2921/3006 5000 BR BKN005=
201004291700 TAF LMML 291700Z 2918/3003 VRB05KT 9999 SCT023
                      PROB30 TEMPO 2921/3003 5000 BR BKN015=
201004291400 TAF LMML 291400Z 2915/2924 VRB05KT 9999 SCT020
                      PROB30 TEMPO 2921/2924 6000 BKN015=
201004291100 TAF LMML 291100Z 2912/2921 VRB05KT 9999 FEW015
                      PROB30 TEMPO 2918/2921 9000 BKN010=
201004290800 TAF LMML 290800Z 2909/2918 VRB05KT 9999 SCT015=
201004290500 TAF LMML 290500Z 2906/2915 27005KT 5000 BR BKN010
                      BECMG 2906/2908 9999 SCT015
                      TEMPO 2909/2915 BKN015=
201004290200 TAF LMML 290200Z 2903/2912 26004KT 9999 SCT015
                      TEMPO 2903/2908 8000 BKN012
                      PROB30 TEMPO 2903/2905 0100 BCFG BKN004=
201004282300 TAF LMML 282300Z 2900/2909 VRB03KT 8000 SCT012
                      TEMPO 2900/2908 BKN010
                      PROB30 TEMPO 2902/2905 0800 BCFG BKN004=
201004282000 TAF LMML 282000Z 2821/2906 VRB03KT 9999 SCT012
                      TEMPO 2821/2906 7000 BKN008
                      PROB30 TEMPO 2802/2905 0800 BCFG BKN004=
201004281700 TAF LMML 281700Z 2818/2903 VRB03KT 9999 SCT012
                      TEMPO 2818/2903 BKN012
                      PROB40 TEMPO 2818/2903 6000 BKN006
                      PROB30 TEMPO 2820/2903 2000 BR BKN002=
201004281400 TAF LMML 281400Z 2815/2824 VRB03KT 9999 SCT013
                      TEMPO 2815/2824 BKN013
                      PROB40 TEMPO 2817/2824 8000 BKN008
                      PROB30 TEMPO 2820/2824 3000 BR BKN003=
201004281100 TAF LMML 281100Z 2812/2821 VRB03KT 9999 SCT015
                      TEMPO 2812/2821 BKN015
                      PROB40 TEMPO 2815/2821 8000 BKN008=
201004280800 TAF LMML 280800Z 2809/2818 VRB03KT 9999 SCT015
                      TEMPO 2809/2818 BKN015
                      PROB30 TEMPO 2815/2818 9000 BKN008=
201004280500 TAF LMML 280500Z 2806/2815 VRB03KT 9999 FEW010
                      PROB30 TEMPO 2806/2810 7000 BKN008=
201004280200 TAF LMML 280200Z 2803/2812 VRB03KT 9999 FEW010
                      TEMPO 2803/2806 7000
                      PROB30 TEMPO 2803/2805 2000 BR BKN005=
201004272300 TAF LMML 272300Z 2800/2809 VRB03KT 9999 FEW010
                      TEMPO 2800/2806 7000
                      PROB30 TEMPO 2800/2805 2000 BR BKN005=
201004272000 TAF LMML 272000Z 2721/2806 VRB03KT 9999 FEW012
                      TEMPO 2721/2806 7000
                      PROB30 TEMPO 2800/2805 2000 BR BKN005=
201004271700 TAF LMML 271700Z 2718/2803 02004KT CAVOK
                      TEMPO 2718/2803 8000 FEW008
                      PROB30 2721/2803 5000 BKN005=
201004271400 TAF LMML 271400Z 2715/2724 34006KT 9999 FEW025=
201004271100 TAF LMML 271100Z 2712/2721 31006KT 9999 FEW020=
201004270800 TAF LMML 270800Z 2709/2718 32007KT 9000 FEW012
                      TEMPO 2712/2718 CAVOK=
201004270500 TAF LMML 270500Z 2706/2715 30005KT 8000 FEW008
                      BECMG 2706/2708 CAVOK
                      TEMPO 2706/2715 9999 FEW020=
201004270200 TAF LMML 270200Z 2703/2712 28004KT CAVOK
                      TEMPO 2703/2712 9999 FEW015
                      PROB30 TEMPO 2703/2706 5000 BR NSC=
201004262300 TAF LMML 262300Z 2700/2709 29005KT CAVOK
                      TEMPO 2700/2709 9999 FEW015
                      PROB30 TEMPO 2700/2706 9000 NSC=
201004262000 TAF LMML 262000Z 2621/2706 30004KT CAVOK
                      TEMPO 2621/2706 9999 FEW015
                      PROB30 TEMPO 2700/2706 9000 NSC=
201004261700 TAF LMML 261700Z 2618/2703 34006KT CAVOK=
201004261400 TAF LMML 261400Z 2615/2624 VRB05KT CAVOK=
201004261100 TAF LMML 261100Z 2612/2621 03005KT CAVOK
                      TEMPO 2612/2616 9999 FEW025=
201004260800 TAF LMML 260800Z 2609/2618 34005KT CAVOK
                      PROB30 TEMPO 2609/2612 9999 FEW025=
201004260500 TAF LMML 260500Z 2606/2615 32008KT CAVOK
                      PROB40 TEMPO 2606/2615 9999 FEW030=
201004260200 TAF LMML 260200Z 2603/2612 32005KT CAVOK
                      PROB 40
                      TEMPO 2605/2612 FEW015 SCT040=
201004252300 TAF LMML 252300Z 2600/2609 30005KT 9999 FEW015 SCT040=
201004252000 TAF LMML 252000Z 2521/2606 35008KT 9999 SCT015 SCT040=
201004251700 TAF LMML 251700Z 2518/2603 02010KT 9999 SCT015 BKN040
                      BECMG 2600/2603 31008KT=
201004251400 TAF LMML 251400Z 2515/2524 35008KT 9999 SCT015 SCT040
                      PROB30 TEMPO 2515/2524 9000 BKN010 BKN040=
201004251100 TAF LMML 251100Z 2512/2521 31010KT 9999 SCT015 SCT030
                      PROB30 TEMPO 2512/2516 9000 BKN015 BKN030
                       BECMG 2518/2521 01008KT=
201004250800 TAF LMML 250800Z 2509/2518 28014KT 9999 SCT015 BKN030
                      TEMPO 2509/2518 8000 SHRA BKN013 BKN025
                      BECMG 2512/2515 34008KT=
201004250500 TAF LMML 250500Z 2506/2515 30012KT 9999 SCT012 BKN020
                      TEMPO 2506/2515 BKN014
                      PROB30 TEMPO 2506/2515 9000 SHRA
                      BECMG 2511/2514 36005KT=
201004250200 TAF LMML 250200Z 2503/2512 30010KT 9999 BKN012 BKN020
                      TEMPO 2503/2506 9000 BKN008
                      PROB30 TEMPO 2503/2512 9000 SHRA SCT012TCU=
201004242300 TAF LMML 242300Z 2500/2509 29012KT 9999 BKN012 BKN020
                      PROB40 TEMPO 2500/2506 9000 BKN008
                      PROB30 TEMPO 2500/2509 SHRA=
201004242000 TAF LMML 242000Z 2421/2506 29012KT 9999 BKN014 BKN025
                      PROB40 TEMPO 2421/2506 9000 BKN008
                      PROB30 TEMPO 2500/2506 SHRA=
201004241700 TAF LMML 241700Z 2418/2503 29012KT 9999 SCT015 SCT040
                      PROB30 TEMPO 2422/2503 8000 BKN008=
201004241400 TAF LMML 241400Z 2415/2424 29017KT 9999 SCT020=
201004241100 TAF LMML 241100Z 2412/2421 28017KT 9999 SCT025=
201004240800 TAF LMML 240800Z 2409/2418 29012KT 9999 SCT020=
201004240500 TAF LMML 240500Z 2406/2415 31015KT 9999 FEW015=
201004240200 TAF LMML 240200Z 2403/2412 31016KT 9999 FEW012=
201004232300 TAF LMML 232300Z 2400/2409 31016KT 9999 FEW018=
201004232000 TAF LMML 232000Z 2321/2406 16005KT 9000 NSC
                      BECMG 2321/2400 30016KT 9999 FEW018=
201004231700 TAF LMML 231700Z 2318/2403 18010KT 9000 NSC
                      TEMPO 2318/2403 CAVOK
                      PROB40 TEMPO 2318/2403 9999 FEW015
                      BECMG 2320/2323 31015KT=
201004231400 TAF LMML 231400Z 2315/2324 15017KT CAVOK
                      PROB40 TEMPO 2315/2324 9000 NSC
                      BECMG 2316/2319 16005KT
                      BECMG 2319/2322 30010KT=
201004231100 TAF LMML 231100Z 2312/2321 14018KT 9000 NSC
                      TEMPO 2312/2321 9999 FEW040
                      BECMG 2315/2318 16007KT
                      BECMG 2318/2321 30010KT=
201004230800 TAF LMML 230800Z 2309/2318 13017KT 9000 FEW035
                      PROB40 TEMPO 2309/2318 CAVOK
                      PROB30 TEMPO 2309/2313 TSRA BKN080CB=
201004230500 TAF LMML 230500Z 2306/2315 14015KT CAVOK
                      TEMPO 2306/2315 9999 FEW015 BKN120
                      PROB40 TEMPO 2306/2312 8000 SHRA SCT010 BKN100
                       PROB30
                      TEMPO 2306/2310 5000 TSRA BKN010 BKN060CB=
201004230200 TAF LMML 230200Z 2303/2312 14015KT CAVOK
                      TEMPO 2303/2312 9999 FEW010 BKN120
                      PROB40 TEMPO 2303/2312 8000 SHRA SCT010 BKN100
                       PROB30
                      TEMPO 2303/2310 5000 TSRA BKN010 BKN060CB=
201004222300 TAF LMML 222300Z 2300/2309 14015KT CAVOK
                      TEMPO 2300/2309 9999 FEW010 BKN120
                      PROB30 TEMPO 2300/2309 8000 SHRA BKN010 BKN100=
201004222000 TAF LMML 222000Z 2221/2306 14014KT 9999 FEW008 SCT120
                      TEMPO 2221/2306 CAVOK
                      PROB30 TEMPO 2221/2306 8000 SHRA BKN005 BKN100=
201004221700 TAF LMML 221700Z 2218/2303 13010KT 9999 FEW009 BKN120=
201004221400 TAF LMML 221400Z 2215/2224 15012KT 9999 FEW009 BKN200=
201004221100 TAF LMML 221100Z 2212/2221 15015KT CAVOK
                      TEMPO 2212/2221 9999 FEW012=
201004220800 TAF LMML 220800Z 2209/2218 15015KT CAVOK=
201004220500 TAF LMML 220500Z 2206/2215 16012KT CAVOK=
201004220200 TAF LMML 220200Z 2203/2212 16010KT CAVOK=
201004212300 TAF LMML 212300Z 2200/2209 16008KT CAVOK=
201004212000 TAF LMML 212000Z 2118/2206 17007KT CAVOK=
201004211700 TAF LMML 211700Z 2118/2203 18005KT 9999 FEW020=
201004211400 TAF LMML 211400Z 2115/2124 16005KT 9999 FEW025=
201004211100 TAF LMML 211100Z 2112/2121 08005KT 9999 FEW020=
201004210800 TAF LMML 210800Z 2109/2118 32005KT 9999 FEW020=
201004210500 TAF LMML 210500Z 2106/2115 32006KT CAVOK
                      TEMPO 2112/1215 21005 9999 FEW020=
201004210200 TAF LMML 210200Z 2103/2112 32006KT CAVOK
                      PROB30 TEMPO 2103/2112 9999 FEW018=
201004202300 TAF LMML 202300Z 2100/2109 29005KT CAVOK
                      PROB30 TEMPO 2103/2109 9999 FEW018=
201004202000 TAF LMML 202000Z 2021/2106 31010KT 9999 FEW018=
201004201700 TAF LMML 201700Z 2018/2103 31012KT 9999 FEW015
                      PROB30 TEMPO 2021/2103 BKN008=
201004201400 TAF LMML 201400Z 2015/2024 30012KT 9999 FEW015
                      PROB30 TEMPO 2017/2024 BKN008=
201004201100 TAF LMML 201100Z 2012/2021 29014KT 9999 FEW018
                      PROB30 TEMPO 2016/2021 BKN008=
201004200800 TAF LMML 200800Z 2009/2018 29015KT 9999 FEW018
                      PROB30 TEMPO 2015/2018 BKN009=
201004200500 TAF LMML 200500Z 2006/2015 30015KT 9999 FEW020=
201004200200 TAF LMML 200200Z 2003/2012 30012KT 9999 FEW020=
201004192300 TAF LMML 192300Z 2000/2009 30010KT 9999 FEW015=
201004192000 TAF LMML 192000Z 1921/2006 30010KT 9999 FEW020=
201004191700 TAF LMML 191700Z 1918/2003 30012KT 9999 FEW018=
201004191400 TAF LMML 191400Z 1915/1924 30018KT 9999 FEW020=
201004191100 TAF LMML 191100Z 1912/1921 30018KT 9999 FEW020=
201004190800 TAF LMML 190800Z 1909/1918 30018KT 9999 SCT020=
201004190500 TAF LMML 190500Z 1906/1915 29014KT 9999 SCT025
                      PROB30 TEMPO 1909/1915 28015G25KT=
201004190200 TAF LMML 190200Z 1903/1912 28010KT 8000 SCT015
                      TEMPO 1903/1906 BKN015
                      BECMG 1903/1906 9999=
201004182300 TAF LMML 182300Z 1900/1909 34007KT 7000 BKN007
                      TEMPO 1900/1906 5000 BR BKN005
                      PROB30 TEMPO 1900/1903 3000 BR BKN003
                      BECMG 1901/1904 28010KT
                      BECMG 1903/1906 9999 SCT015=
201004182000 TAF LMML 182000Z 1821/1906 01008KT 7000 BKN007 BKN015
                      TEMPO 1821/1906 5000 BR BKN003 BKN015
                      PROB40 TEMPO 1821/1906 0800 BCFG BKN001 BKN012
                       BECMG 1902/1905 28010KT=
201004181700 TAF LMML 181700Z 1818/1903 07005KT 8000 BKN009 BKN015
                      TEMPO 1818/1903 5000 BKN005
                      BECMG 1900/1903 30010KT=
201004181400 TAF LMML 181400Z 1815/1824 09008KT 9000 SCT007 SCT015
                      TEMPO 1815/1824 5000 RA BKN005 BKN012
                      BECMG 1818/1821 33010KT=
201004181100 TAF LMML 181100Z 1812/1821 09015KT 9000 SCT007 SCT015
                      TEMPO 1812/1821 6000 RA BKN005 BKN012
                      PROB30 TEMPO 1812/1816 09015G25KT 4000 TSRA
                       BKN070CB=
201004180800 TAF LMML 180800Z 1809/1818 09015KT 9000 SCT007 SCT015
                      TEMPO 1809/1818 5000 RA BKN005 BKN015=
201004180500 TAF LMML 180500Z 1806/1815 10012KT 9000 SCT008 BKN100 OVC200
                      TEMPO 1806/1815 5000 RA BKN006=
201004180200 TAF LMML 180200Z 1803/1812 29012KT 8000 SCT007 BKN100 OVC200
                      TEMPO 1803/1806 4000 BR BKN004
                      TEMPO 1806/1812 5000 RA BKN005=
201004172300 TAF LMML 172300Z 1800/1809 09010KT 8000 SCT007 BKN200
                      TEMPO 1800/1806 5000 BR BKN004=
201004172000 TAF LMML 172000Z 1721/1806 09010KT 9000 SCT007
                      TEMPO 1721/1806 5000 BR BKN004=
201004171700 TAF LMML 171700Z 1718/1803 09010KT 8000 SCT007
                      TEMPO 1718/1803 4000 BR BKN004
                      PROB40 TEMPO 1720/1803 1500 OVC001=
201004171400 TAF LMML 171400Z 1715/1724 09010KT 9999 FEW008
                      TEMPO 1715/1724 8000
                      TEMPO 1717/1724 4000 BR BKN004
                      PROB30 TEMPO 1718/1724 2000 OVC001=
201004171100 TAF LMML 171100Z 1712/1721 09010KT CAVOK
                      TEMPO 1714/1721 9000 SCT008
                      PROB30 TEMPO 1717/1721 BKN005=
201004170800 TAF LMML 170800Z 1709/1718 09009KT 7000 NSC
                      TEMPO 1709/1718 SCT008
                      PROB30 TEMPO 1715/1718 BKN005=
201004170500 TAF LMML 170500Z 1706/1715 08005KT 8000 NSC
                      PROB30 TEMPO 1706/1715 FEW008 BKN100
                      PROB30 TEMPO 1706/1712 SHRA=
201004170200 TAF LMML 170200Z 1703/1712 09007KT 8000 FEW012 BKN100
                      PROB30 TEMPO 1703/1706 5000 BR BKN005=
201004162300 TAF LMML 162300Z 1700/1709 06005KT 7000 FEW008 BKN100
                      TEMPO 1700/1706 5000 BR BKN005
                      TEMPO 1706/1709 9000 BKN015 BKN100=
201004162000 TAF LMML 162000Z 1621/1706 VRB03KT 7000 FEW015
                      TEMPO 1621/1706 3000 BR BKN003
                      TEMPO 1702/1706 06005KT=
201004161700 TAF LMML 161700Z 1618/1703 32007KT 7000 FEW012
                      TEMPO 1618/1703 5000 BR BKN008
                      PROB30 TEMPO 1621/1703 3000 BR BKN005=
201004161400 TAF LMML 161400Z 1615/1624 35010KT 7000 FEW015
                      BECMG 1615/1618 28005KT 9999
                      TEMPO 1616/1624 8000 BKN010
                      PROB30 TEMPO 1618/1624 5000 BR BKN005=
201004161100 TAF LMML 161100Z 1612/1621 01010KT 9999 FEW013
                      BECMG 1612/1615 31008KT
                      TEMPO 1612/1616 9999
                      PROB30 TEMPO 1616/1621 5000 BR BKN005=
201004160800 TAF LMML 160800Z 1609/1618 04010KT 8000 SCT010
                      TEMPO 1609/1618 9999
                      BECMG 1615/1618 31007KT=
201004160500 TAF LMML 160500Z 1606/1615 04007KT 5000 BR BKN007
                      BECMG 1606/1608 7000
                      TEMPO 1608/1615 9000 SCT010=
201004160200 TAF LMML 160200Z 1603/1612 07008KT 4000 BR BKN004
                      TEMPO 1603/1606 1500 BKN001
                      TEMPO 1606/1612 7000 SCT007=
201004152300 TAF LMML 152300Z 1600/1609 07008KT 4000 BR BKN004
                      TEMPO 1600/1606 2500 BKN001
                      TEMPO 1606/1609 6000=
201004152000 TAF LMML 152000Z 1521/1606 07008KT 4000 BR BKN004
                      TEMPO 1521/1606 2000 BKN002=
201004151700 TAF LMML 151700Z 1518/1603 12005KT 8000 FEW009
                      TEMPO 1521/1603 5000 BR BKN005=
201004151400 TAF LMML 151400Z 1515/1524 12010KT 8000 // FEW009
                      TEMPO 1518/1524 5000 BR BKN005=
201004151100 TAF LMML 151100Z 1512/1521 12012KT 9000 FEW009
                      TEMPO 1516/1521 5000 BR BKN005=
201004150800 TAF LMML 150800Z 1509/1518 08012KT 8000 SCT008
                      TEMPO 1509/1518 5000 BR BKN005=
201004150500 TAF LMML 150500Z 1506/1515 09015KT 4000 BKN002
                      BECMG 1506/1509 6000 SCT005
                      TEMPO 1506/1515 BKN005=
201004150200 TAF LMML 150200Z 1503/1512 09015KT 1000 BKN001
                      BECMG 1504/1507 5000 BR BKN004
                      BECMG 1507/1510 8000 SCT006=
201004142300 TAF LMML 142300Z 1500/1509 09012KT 1000 OVC001
                      PROB30 TEMPO 1500/1506 0800 BCFG
                      BECMG 1504/1507 5000 BKN004=
201004142000 TAF LMML 142000Z 1421/1506 12010KT 3000 BKN001
                      TEMPO 1421/1506 1500 BCFG OVC001=
201004141700 TAF LMML 141700Z 1418/1503 09010KT 7000 BKN007
                      TEMPO 1418/1503 4000 BR BKN003
                      PROB30 TEMPO 1418/1503 SCT007=
201004141400 TAF LMML 141400Z 1415/1424 09010KT 7000 SCT007
                      BECMG 1416/1419 5000 BR BKN007
                      PROB30 TEMPO 1418/1424 3000 BKN003=
201004141100 TAF LMML 141100Z 1412/1421 08010KT 6000 BKN006
                      PROB30 TEMPO 1412/1418 9000 SCT010
                      PROB40 TEMPO 1417/1421 3000 BKN003=
201004140800 TAF LMML 140800Z 1409/1418 06008KT 5000 BR BKN005
                      PROB40 TEMPO 1409/1412 2000 BR BKN003
                      PROB30 TEMPO 1415/1418 8000 SCT010=
201004140500 TAF LMML 140500Z 1406/1415 16008KT 6000 BKN005
                      BECMG 1406/1409 9000 FEW012=
201004140200 TAF LMML 140200Z 1403/1412 04006KT 8000 SCT025
                      TEMPO 1403/1406 5000 BR BKN005
                      PROB30 TEMPO 1403/1406 0800 FG BKN002=
201004132300 TAF LMML 132300Z 1400/1409 03005KT 8000 SCT005
                      TEMPO 1400/1408 5000 BR BKN005
                      PROB30 TEMPO 1400/1406 0800 BCFG BKN002=
201004132000 TAF LMML 132000Z 1321/1406 03006KT 8000 SCT005
                      TEMPO 1321/1406 5000 BR BKN005
                      PROB30 TEMPO 1400/1406 0800 BCFG BKN002=
201004131700 TAF LMML 131700Z 1318/1403 04005KT 9000 NSC
                      BECMG 1318/1321 SCT006
                      TEMPO 1319/1403 5000 BR BKN004
                      PROB30 TEMPO 1321/1403 1000 MIFG BKN002=
201004131400 TAF LMML 131400Z 1315/1324 05005KT 9000 NSC
                      BECMG 1315/1318 9999 SCT006
                      TEMPO 1318/1324 5000 BKN004
                      PROB40 TEMPO 1317/1321 3000 BR BKN002=
201004131100 TAF LMML 131100Z 1312/1321 06006KT 8000 NSC
                      BECMG 1312/1315 9999 SCT006
                      TEMPO 1315/1321 6000 BKN004
                      PROB40 TEMPO 1317/1321 4000 BR BKN002=
201004130800 TAF LMML 130800Z 1309/1318 08008KT 8000 FEW014
                      TEMPO 1309/1318 9999
                      PROB40 TEMPO 1309/1318 BKN008
                      PROB30 TEMPO 1315/1318 BKN003=
201004130500 TAF LMML 130500Z 1306/1315 13010KT CAVOK
                      PROB30 TEMPO 1306/1315 9999 FEW018=
201004130200 TAF LMML 130200Z 1303/1312 12007KT CAVOK
                      PROB30 TEMPO 1304/1312 9999 FEW015=
201004122300 TAF LMML 122300Z 1300/1309 11010KT CAVOK
                      TEMPO 1300/1309 9999 FEW015 SCT120
                      PROB30 TEMPO 1300/1306 8000 BKN008 BKN100=
201004122000 TAF LMML 122000Z 1221/1306 12008KT CAVOK
                      TEMPO 1221/1306 9999 FEW012 SCT050 SCT080
                       PROB30
                      TEMPO 1221/1306 8000 BKN008 SCT050 BKN080=
201004121700 TAF LMML 121700Z 1218/1303 14008KT 9999 SCT011 BKN100
                      PROB30 TEMPO 1218/1303 7000 BKN007=
201004121400 TAF LMML 121400Z 1215/1224 18008KT 8000 SCT012 SCT100
                      PROB30 TEMPO 1216/1224 5000 HZ BKN008=
201004121100 TAF LMML 121100Z 1212/1221 18008KT 8000 SCT012 BKN100
                      PROB30 TEMPO 1216/1221 5000 HZ BKN010=
201004120800 TAF LMML 120800Z 1209/1218 18012KT 9999 SCT012 BKN100=
201004120500 TAF LMML 120500Z 1206/1215 17015KT CAVOK
                      PROB30 TEMPO 1206/1215 FEW015=
201004120200 TAF LMML 120200Z 1203/1212 17015KT CAVOK
                      PROB30 TEMPO 1203/1212 FEW015=
201004112300 TAF LMML 112300Z 1200/1209 17013KT CAVOK
                      PROB30 TEMPO 1200/1209 FEW012=
201004112000 TAF LMML 112000Z 1121/1206 19013KT CAVOK
                      PROB30 TEMPO 1121/1206 FEW012=
201004111700 TAF LMML 111700Z 1118/1203 23006KT 9999 FEW015
                      BECMG 1118/1121 CAVOK
                      PROB30 TEMPO 1121/1203 9000 SCT008
                      BECMG 1122/1201 16016KT=
201004111400 TAF LMML 111400Z 1115/1124 25010KT 9999 FEW020
                      BECMG 1118/1121 17013KT=
201004111100 TAF LMML 111100Z 1112/1121 24010KT 9999 FEW025
                      TEMPO 1112/1121 CAVOK
                      BECMG 1117/1120 17012KT=
201004110800 TAF LMML 110800Z 1109/1118 29011KT CAVOK
                      TEMPO 1109/1118 9999 FEW020
                      BECMG 1114/1117 23008KT=
201004110500 TAF LMML 110500Z 1106/1115 28009KT CAVOK=
201004110200 TAF LMML 110200Z 1103/1112 28008KT CAVOK=
201004102300 TAF LMML 102300Z 1100/1109 28007KT CAVOK=
201004102000 TAF LMML 102000Z 1021/1106 28006KT CAVOK=
201004101700 TAF LMML 101700Z 1018/1103 30007KT CAVOK=
201004101400 TAF LMML 101400Z 1015/1024 33007KT CAVOK
                      PROB30 TEMPO 1015/1018 9999 FEW030=
201004101100 TAF LMML 101100Z 1012/1021 36008KT CAVOK
                      PROB30 TEMPO 1012/1017 9999 FEW030=
201004100800 TAF LMML 100800Z 1009/1018 02008KT CAVOK
                      PROB30 TEMPO 1009/1018 9999 FEW030=
201004100500 TAF LMML 100500Z 1006/1015 04013KT 9999 FEW015 SCT100
                      BECMG 1012/1015 34008KT=
201004100200 TAF LMML 100200Z 1003/1012 04012KT 9999 FEW015 SCT120
                      PROB30 TEMPO 1003/1006 9000 BKN010 BKN100=
201004092300 TAF LMML 092300Z 1000/1009 05014KT 9999 SCT013 SCT020 BKN100
                      TEMPO 1000/1006 8000 BKN008 BKN015 BKN080=
201004092000 TAF LMML 092000Z 0921/1006 05013KT 9999 SCT015 SCT040 BKN100
                      PROB30 TEMPO 0921/1006 8000 RA BKN010 SCT040
                       BKN080=
201004091700 TAF LMML 091700Z 0918/1003 07015KT 9999 SCT013 BKN025
                      TEMPO 0918/1003 BKN011 OVC020
                      PROB30 TEMPO 0918/1003 9000 RA BKN008=
201004091400 TAF LMML 091400Z 0915/0924 08016KT 9999 BKN018
                      PROB40 TEMPO 0915/0924 9000 RA BKN013=
201004091100 TAF LMML 091100Z 0912/0921 08016KT 9999 SCT018
                      PROB40 TEMPO 0914/0921 9000 RA BKN015=
201004090800 TAF LMML 090800Z 0909/0918 08016KT 9999 SCT018
                      PROB40 TEMPO 0914/0918 8000 RA BKN015=
201004090500 TAF LMML 090500Z 0906/0915 06013KT 9999 SCT015 BKN020=
201004090200 TAF LMML 090200Z 0903/0912 06012KT 9999 BKN012
                      PROB30 TEMPO 0903/0906 8000 BKN011
                      BECMG 0909/0912 SCT018=
201004082300 TAF LMML 082300Z 0900/0909 06010KT 9999 BKN013
                      PROB30 TEMPO 0900/0906 8000 BKN011=
201004082000 TAF LMML 082000Z 0821/0906 05010KT 9999 SCT015
                      PROB30 TEMPO 0902/0906 8000 BKN011=
201004081700 TAF LMML 081700Z 0818/0903 06015KT 9999 SCT015 SCT120
                      TEMPO 0818/0903 8000 BKN011=
201004081400 TAF LMML 081400Z 0815/0824 09018KT 9999 FEW015 SCT120
                      TEMPO 0818/0824 BKN015=
201004081100 TAF LMML 081100Z 0812/0821 09016KT 9999 FEW020=
201004080800 TAF LMML 080800Z 0809/0818 09015KT 9999 FEW020 SCT120=
201004080500 TAF LMML 080500Z 0806/0815 09017KT 9999 FEW020=
201004080200 TAF LMML 080200Z 0803/0812 09016KT 9999 FEW020
                      PROB30 TEMPO 0803/0806 BKN015=
201004072300 TAF LMML 072300Z 0800/0809 09013KT 9999 FEW016
                      PROB30 TEMPO 0800/0806 BKN015=
201004072000 TAF LMML 072000Z 0721/0806 09015KT 9999 SCT018
                      PROB30 TEMPO 0721/0806 BKN015=
201004071700 TAF LMML 071700Z 0718/0803 10012KT 9999 SCT015 BKN250=
201004071400 TAF LMML 071400Z 0715/0724 10013KT 9999 FEW018 BKN200=
201004071100 TAF LMML 071100Z 0712/0721 11013KT 9999 FEW025=
201004070800 TAF LMML 070800Z 0709/0718 13012KT CAVOK
                      TEMPO 0709/0718 FEW020=
201004070500 TAF LMML 070500Z 0706/0715 10005KT CAVOK
                      BECMG 0706/0709 9999 SCT015 BKN100
                      BECMG 0710/0713 09015KT=
201004070200 TAF LMML 070200Z 0703/0712 16004KT CAVOK
                      PROB30 TEMPO 0703/0712 9999 SCT015 BKN120
                       BECMG 0708/0711 10014KT=
201004062300 TAF LMML 062300Z 0700/0709 14006KT CAVOK
                      TEMPO 0700/0709 9999 FEW015 SCT120=
201004062000 TAF LMML 062000Z 0621/0706 20004KT CAVOK
                      TEMPO 0621/0706 9999 FEW015 SCT120
                      BECMG 0703/0706 13010KT=
201004061700 TAF LMML 061700Z 0618/0703 15005KT CAVOK
                      TEMPO 0618/0703 9999 FEW020=
201004061400 TAF LMML 061400Z 0615/0624 15006KT CAVOK
                      TEMPO 0615/0620 9999 FEW020=
201004061100 TAF LMML 061100Z 0612/0621 VRB05KT 9999 FEW020
                      TEMPO 0612/0621 CAVOK=
201004060800 TAF LMML 060800Z 0609/0618 VRB05KT CAVOK
                      PROB30 TEMPO 0609/0618 999 FEW020=
201004060500 TAF LMML 060500Z 0606/0615 36008KT CAVOK
                      BECMG 0607/0610 9999 FEW020=
201004060200 TAF LMML 060200Z 0603/0612 35008KT CAVOK
                      BECMG 0606/0609 9999 FEW020=
201004052300 TAF LMML 052300Z 0600/0609 33010KT CAVOK
                      PROB30 TEMPO 0603/0609 9999 FEW012=
201004052000 TAF LMML 052000Z 0521/0606 32010KT CAVOK
                      TEMPO 0521/0606 9999 SCT012=
201004051700 TAF LMML 051700Z 0518/0603 33016KT CAVOK
                      TEMPO 0518/0603 9999 FEW009=
201004051400 TAF LMML 051400Z 0515/0524 31018KT CAVOK
                      PROB30 TEMPO 0518/0524 9999 FEW010=
201004051100 TAF LMML 051100Z 0512/0521 31018KT CAVOK
                      PROB30 TEMPO 0516/0521 9999 FEW010=
201004050800 TAF LMML 050800Z 0509/0518 32018KT 9999 FEW015
                      PROB40 TEMPO 0509/0512 BKN015
                      TEMPO 0512/0518 CAVOK=
201004050500 TAF LMML 050500Z 0506/0515 33010KT 9999 FEW015
                      TEMPO 0509/0515 CAVOK
                      BECMG 0510/0515 32018KT=
201004050200 TAF LMML 050200Z 0503/0512 33010KT 9999 FEW015
                      PROB30 TEMPO 0503/0505 6000 SCT005=
201004042300 TAF LMML 042300Z 0500/0509 10006KT 9999 FEW008
                      BECMG 0501/0504 33008KT
                      PROB30 TEMPO 0501/0506 6000 BKN005=
201004042000 TAF LMML 042000Z 0421/0506 15008KT CAVOK
                      BECMG 0501/0504 33008KT 9999 FEW008
                      PROB30 TEMPO 0502/0506 6000 BKN005=
201004041700 TAF LMML 041700Z 0418/0503 13010KT CAVOK
                      BECMG 0418/0421 9999 FEW007
                      PROB30 TEMPO 0421/0503 6000 BKN005=
201004041400 TAF LMML 041400Z 0415/0424 12012KT CAVOK
                      TEMPO 0417/0424 9999 SCT008
                      PROB30 TEMPO 0421/0424 7000 BKN005=
201004041100 TAF LMML 041100Z 0412/0421 15014KT 9999 FEW012
                      PROB30 TEMPO 0417/0421 8000 BKN010=
201004040800 TAF LMML 040800Z 0409/0418 12014KT CAVOK=
201004040500 TAF LMML 040500Z 0406/0415 12010KT CAVOK
                      PROB30 0406/0415 9999 FEW020=
201004040200 TAF LMML 040200Z 0403/0412 12010KT CAVOK
                      PROB30 TEMPO 0403/0412 9999 FEW020=
201004032300 TAF LMML 032300Z 0400/0409 12010KT CAVOK
                      PROB30 TEMPO 0404/0409 9999 FEW020=
201004032000 TAF LMML 032000Z 0321/0406 12010KT CAVOK=
201004031700 TAF LMML 031700Z 0318/0403 10005KT 9999 FEW018
                      PROB40 TEMPO 0318/0403 CAVOK=
201004031400 TAF LMML 031400Z 0315/0324 VRB05KT 9999 FEW025
                      TEMPO 0315/0324 CAVOK=
201004031100 TAF LMML 031100Z 0312/0321 VRB05KT CAVOK
                      TEMPO 0312/0321 CAVOK=
201004030800 TAF LMML 030800Z 0309/0312 35005KT 9999 FEW018
                      TEMPO 0312/0318 CAVOK=
201004030500 TAF LMML 030500Z 0306/0315 VRB04KT CAVOK
                      TEMPO 0309/0315 9999 FEW045=
201004030200 TAF LMML 030200Z 0303/0312 VRB05KT CAVOK
                      PROB30 TEMPO 0309/0312 FEW011 SCT035=
201004022300 TAF LMML 022300Z 0300/0309 VRB05KT CAVOK=
201004022000 TAF LMML 022000Z 0221/0306 31005KT CAVOK=
201004021700 TAF LMML 021700Z 0218/0303 30010KT CAVOK=
201004021400 TAF LMML 021400Z 0215/0224 31010KT CAVOK
                      PROB30 TEMPO 0215/0218 9999 FEW020=
201004021100 TAF LMML 021100Z 0212/0221 31010KT 9999 FEW020
                      PROB40 TEMPO 0215/0221 CAVOK=
201004020800 TAF LMML 020800Z 0209/0218 31010KT CAVOK
                      PROB30 TEMPO 0209/0218 9999 FEW015=
201004020500 TAF LMML 020500Z 0206/0215 33010KT 9999 FEW015=
201004020200 TAF LMML 020200Z 0203/0212 34005KT CAVOK
                      PROB30 TEMPO 0203/0206 7000 SCT004
                      BECMG 0209/0212 31015KT=
201004012300 TAF LMML 012300Z 0200/0209 35005KT CAVOK
                      PROB30 TEMPO 0200/0206 7000 SCT004=
201004012000 TAF LMML 012000Z 0121/0206 04005KT CAVOK
                      PROB30 TEMPO 0121/0206 7000 SCT004=
201004011700 TAF LMML 011700Z 0118/0203 VRB05KT CAVOK=
201004011400 TAF LMML 011400Z 0115/0124 09008KT CAVOK=
201004011100 TAF LMML 011100Z 0112/0121 09008KT CAVOK
                      PROB30 TEMPO 0112/0121 9000 FEW005=
201004010800 TAF LMML 010800Z 0109/0118 08006KT CAVOK
                      TEMPO 0109/0112 6000 FEW005=
201004010500 TAF LMML 010500Z 0105/0115 VRB03KT CAVOK=
201004010200 TAF LMML 010200Z 0103/0112 VRB03KT CAVOK=

###################################
#  large TAF from LMML
###################################
201005012300 TAF LMML NIL=
201005011700 TAF LMML NIL=
201005011100 TAF LMML NIL=
201005010500 TAF LMML NIL=
201004302300 TAF LMML NIL=
201004301700 TAF LMML NIL=
201004301100 TAF LMML NIL=
201004300500 TAF LMML NIL=
201004292300 TAF LMML NIL=
201004291700 TAF LMML NIL=
201004291100 TAF LMML NIL=
201004290500 TAF LMML NIL=
201004282300 TAF LMML NIL=
201004281700 TAF LMML NIL=
201004281100 TAF LMML NIL=
201004280500 TAF LMML NIL=
201004272300 TAF LMML NIL=
201004271700 TAF LMML NIL=
201004271100 TAF LMML NIL=
201004270500 TAF LMML NIL=
201004262300 TAF LMML NIL=
201004261700 TAF LMML NIL=
201004261100 TAF LMML NIL=
201004260500 TAF LMML NIL=
201004252300 TAF LMML NIL=
201004251700 TAF LMML NIL=
201004251100 TAF LMML NIL=
201004250500 TAF LMML NIL=
201004242300 TAF LMML NIL=
201004241700 TAF LMML NIL=
201004241100 TAF LMML NIL=
201004240500 TAF LMML NIL=
201004232300 TAF LMML NIL=
201004231700 TAF LMML NIL=
201004231100 TAF LMML NIL=
201004230500 TAF LMML NIL=
201004222300 TAF LMML NIL=
201004221700 TAF LMML NIL=
201004221100 TAF LMML NIL=
201004220500 TAF LMML NIL=
201004212300 TAF LMML NIL=
201004212000 TAF LMML 212000Z 2118/2206 17007KT CAVOK=
201004211700 TAF LMML NIL=
201004211100 TAF LMML NIL=
201004210500 TAF LMML NIL=
201004202300 TAF LMML NIL=
201004201700 TAF LMML NIL=
201004201100 TAF LMML NIL=
201004200500 TAF LMML NIL=
201004192300 TAF LMML NIL=
201004191700 TAF LMML NIL=
201004191100 TAF LMML NIL=
201004190500 TAF LMML NIL=
201004182300 TAF LMML NIL=
201004181700 TAF LMML NIL=
201004181100 TAF LMML NIL=
201004180500 TAF LMML NIL=
201004172300 TAF LMML NIL=
201004171700 TAF LMML NIL=
201004171100 TAF LMML NIL=
201004170500 TAF LMML NIL=
201004162300 TAF LMML NIL=
201004161700 TAF LMML NIL=
201004161100 TAF LMML NIL=
201004160500 TAF LMML NIL=
201004152300 TAF LMML NIL=
201004151700 TAF LMML NIL=
201004151100 TAF LMML NIL=
201004150500 TAF LMML NIL=
201004142300 TAF LMML NIL=
201004141700 TAF LMML NIL=
201004141100 TAF LMML NIL=
201004140500 TAF LMML NIL=
201004132300 TAF LMML NIL=
201004131700 TAF LMML NIL=
201004131100 TAF LMML NIL=
201004130500 TAF LMML NIL=
201004122300 TAF LMML NIL=
201004121700 TAF LMML NIL=
201004121100 TAF LMML NIL=
201004120500 TAF LMML NIL=
201004112300 TAF LMML NIL=
201004111700 TAF LMML NIL=
201004111100 TAF LMML NIL=
201004110500 TAF LMML NIL=
201004102300 TAF LMML NIL=
201004101700 TAF LMML NIL=
201004101100 TAF LMML NIL=
201004100500 TAF LMML NIL=
201004092300 TAF LMML NIL=
201004091700 TAF LMML NIL=
201004091100 TAF LMML NIL=
201004090500 TAF LMML NIL=
201004082300 TAF LMML NIL=
201004081700 TAF LMML NIL=
201004081100 TAF LMML NIL=
201004080500 TAF LMML NIL=
201004072300 TAF LMML NIL=
201004071700 TAF LMML NIL=
201004071100 TAF LMML NIL=
201004070500 TAF LMML NIL=
201004062300 TAF LMML NIL=
201004061700 TAF LMML NIL=
201004061100 TAF LMML NIL=
201004060500 TAF LMML NIL=
201004052300 TAF LMML NIL=
201004051700 TAF LMML NIL=
201004051100 TAF LMML NIL=
201004050500 TAF LMML NIL=
201004042300 TAF LMML NIL=
201004041700 TAF LMML NIL=
201004041100 TAF LMML NIL=
201004040500 TAF LMML NIL=
201004032300 TAF LMML NIL=
201004031700 TAF LMML NIL=
201004031100 TAF LMML NIL=
201004030500 TAF LMML NIL=
201004022300 TAF LMML NIL=
201004021700 TAF LMML NIL=
201004021100 TAF LMML NIL=
201004020500 TAF LMML NIL=
201004012300 TAF LMML NIL=
201004011700 TAF LMML NIL=
201004011100 TAF LMML NIL=
201004010500 TAF LMML NIL=
