##########################################################
# Query made at 01/18/2013 16:11:31 UTC
# Time interval: from 08/01/2009 00:00  to 08/31/2009 23:59  UTC
##########################################################

##########################################################
# LMML, Luqa (Malta)
# WMO index: 16597
# Latitude 35-51N. Longitude 014-29E. Altitude 91 m.
##########################################################

###################################
#  METAR/SPECI from LMML
###################################
200908312345 METAR LMML 312345Z VRB03KT 9999 FEW023 24/20 Q1019 NOSIG=
200908312330 METAR LMML NIL=
200908312315 METAR LMML 312315Z VRB01KT 9999 FEW023 24/20 Q1019 NOSIG=
200908312300 METAR LMML NIL=
200908312245 METAR LMML 312245Z VRB01KT 9999 FEW023 25/20 Q1019 NOSIG=
200908312230 METAR LMML NIL=
200908312215 METAR LMML 312215Z VRB01KT 9999 FEW023 25/20 Q1019 NOSIG=
200908312200 METAR LMML NIL=
200908312145 METAR LMML 312145Z VRB01KT 9999 SCT025 SCT250 25/20 Q1019
                        NOSIG=
200908312130 METAR LMML NIL=
200908312115 METAR LMML 312115Z VRB01KT 9999 FEW025 SCT250 25/20 Q1018
                        NOSIG=
200908312100 METAR LMML NIL=
200908312045 METAR LMML 312045Z VRB02KT 9999 FEW020 SCT250 26/21 Q1018
                        NOSIG=
200908312015 METAR LMML 312015Z VRB01KT 9999 FEW020 25/20 Q1018 NOSIG=
200908312000 METAR LMML NIL=
200908311945 METAR LMML 311945Z VRB02KT 9999 FEW022 25/20 Q1018 NOSIG=
200908311915 METAR LMML 311915Z VRB02KT 9999 FEW022 26/21 Q1018 NOSIG=
200908311900 METAR LMML NIL=
200908311845 METAR LMML 311845Z VRB03KT 9999 SCT022 26/21 Q1018 NOSIG=
200908311830 METAR LMML NIL=
200908311815 METAR LMML 311815Z VRB02KT 9999 FEW025 26/21 Q1018 NOSIG=
200908311800 METAR LMML NIL=
200908311745 METAR LMML 311745Z 00000KT 9999 SCT026 27/21 Q1018 NOSIG=
200908311715 METAR LMML 311715Z VRB02KT 9999 FEW030 27/21 Q1018 NOSIG=
200908311700 METAR LMML NIL=
200908311645 METAR LMML 311645Z 21004KT 140V280 9999 FEW030 27/21 Q1017
                        NOSIG=
200908311630 METAR LMML NIL=
200908311615 METAR LMML 311615Z 21005KT 150V290 9999 FEW030 28/21 Q1017
                        NOSIG=
200908311600 METAR LMML NIL=
200908311545 METAR LMML 311545Z 20005KT 150V270 9999 FEW030 28/20 Q1017
                        NOSIG=
200908311530 METAR LMML NIL=
200908311515 METAR LMML 311515Z 22006KT 170V260 9999 FEW030 28/21 Q1018
                        NOSIG=
200908311500 METAR LMML NIL=
200908311445 METAR LMML 311445Z 21005KT 160V330 9999 FEW034 29/20 Q1018
                        NOSIG=
200908311430 METAR LMML NIL=
200908311415 METAR LMML 311415Z 20006KT 160V250 9999 FEW033 29/20 Q1018
                        NOSIG=
200908311400 METAR LMML NIL=
200908311345 METAR LMML 311345Z 21006KT 150V280 9999 FEW032 29/21 Q1018
                        NOSIG=
200908311330 METAR LMML NIL=
200908311315 METAR LMML 311315Z 22006KT 140V280 9999 FEW032 30/20 Q1018
                        NOSIG=
200908311300 METAR LMML NIL=
200908311245 METAR LMML 311245Z 21007KT 160V270 9999 FEW031 29/20 Q1018
                        NOSIG=
200908311230 METAR LMML NIL=
200908311215 METAR LMML 311215Z 22007KT 160V280 9999 FEW030 29/20 Q1018
                        NOSIG=
200908311200 METAR LMML NIL=
200908311145 METAR LMML 311145Z 22006KT 160V280 9999 FEW029 30/20 Q1018
                        NOSIG=
200908311130 METAR LMML NIL=
200908311115 METAR LMML 311115Z VRB03KT 9999 FEW027 30/21 Q1018 NOSIG=
200908311100 METAR LMML NIL=
200908311045 METAR LMML 311045Z VRB03KT 9999 FEW035 30/19 Q1019 NOSIG=
200908311015 METAR LMML 311015Z 19004KT 100V270 9999 FEW031 30/19 Q1019
                        NOSIG=
200908311000 METAR LMML NIL=
200908310945 METAR LMML 310945Z VRB03KT 9999 FEW034 29/21 Q1019 NOSIG=
200908310930 METAR LMML NIL=
200908310915 METAR LMML 310915Z VRB02KT 9999 FEW031 29/21 Q1019 NOSIG=
200908310900 METAR LMML NIL=
200908310845 METAR LMML 310845Z VRB03KT 9999 FEW031 29/18 Q1019 NOSIG=
200908310830 METAR LMML NIL=
200908310815 METAR LMML 310815Z VRB01KT 9999 FEW030 28/19 Q1018 NOSIG=
200908310800 METAR LMML NIL=
200908310745 METAR LMML 310745Z VRB02KT 9999 FEW025 29/20 Q1018 NOSIG=
200908310730 METAR LMML NIL=
200908310715 METAR LMML 310715Z 30004KT 240V030 9999 FEW025 27/20 Q1018
                        NOSIG=
200908310700 METAR LMML NIL=
200908310645 METAR LMML 310645Z VRB03KT CAVOK 26/20 Q1018 NOSIG=
200908310630 METAR LMML NIL=
200908310615 METAR LMML 310615Z VRB01KT 9999 FEW020 25/21 Q1018 NOSIG=
200908310545 METAR LMML 310545Z VRB01KT 9999 FEW020 24/21 Q1018 NOSIG=
200908310515 METAR LMML 310515Z VRB02KT 9999 FEW020 23/20 Q1017 NOSIG=
200908310500 METAR LMML NIL=
200908310445 METAR LMML 310445Z VRB03KT 9999 FEW020 23/20 Q1017 NOSIG=
200908310415 METAR LMML 310415Z VRB03KT 9999 FEW020 23/21 Q1017 NOSIG=
200908310400 METAR LMML NIL=
200908310345 METAR LMML 310345Z VRB02KT 9999 FEW020 23/21 Q1017 NOSIG=
200908310315 METAR LMML 310315Z VRB02KT 9999 FEW020 23/21 Q1017 NOSIG=
200908310300 METAR LMML NIL=
200908310245 METAR LMML 310245Z VRB01KT 9999 FEW015 23/21 Q1016 NOSIG=
200908310230 METAR LMML NIL=
200908310215 METAR LMML 310215Z VRB03KT 9999 FEW015 23/21 Q1016 NOSIG=
200908310200 METAR LMML NIL=
200908310100 METAR LMML NIL=
200908310045 METAR LMML 310045Z VRB03KT CAVOK 23/20 Q1017 NOSIG=
200908310015 METAR LMML 310015Z VRB02KT CAVOK 23/21 Q1016 NOSIG=
200908310000 METAR LMML NIL=
200908302345 METAR LMML 302345Z VRB02KT CAVOK 24/21 Q1016 NOSIG=
200908302330 METAR LMML NIL=
200908302315 METAR LMML 302315Z VRB03KT CAVOK 24/21 Q1017 NOSIG=
200908302245 METAR LMML 302245Z VRB02KT 9999 FEW020 24/21 Q1017 NOSIG=
200908302215 METAR LMML 302215Z VRB02KT 9999 FEW020 24/21 Q1016 NOSIG=
200908302145 METAR LMML 302145Z VRB02KT 9999 FEW020 24/21 Q1016 NOSIG=
200908302130 METAR LMML NIL=
200908302115 METAR LMML 302115Z VRB03KT 9999 FEW020 24/21 Q1016 NOSIG=
200908302045 METAR LMML 302045Z 32004KT 9999 FEW020 25/21 Q1016 NOSIG=
200908302030 METAR LMML NIL=
200908302015 METAR LMML 302015Z VRB03KT 9999 FEW020 25/21 Q1016 NOSIG=
200908301945 METAR LMML 301945Z 31004KT 280V340 9999 FEW020 25/21 Q1016
                        NOSIG=
200908301930 METAR LMML NIL=
200908301915 METAR LMML 301915Z 31005KT CAVOK 25/21 Q1016 NOSIG=
200908301900 METAR LMML NIL=
200908301845 METAR LMML 301845Z 31006KT 9999 FEW020 26/21 Q1016 NOSIG=
200908301830 METAR LMML NIL=
200908301815 METAR LMML 301815Z 30007KT 9999 FEW020 26/22 Q1016 NOSIG=
200908301800 METAR LMML NIL=
200908301745 METAR LMML 301745Z 28007KT 250V310 9999 FEW021 26/22 Q1015
                        NOSIG=
200908301730 METAR LMML NIL=
200908301715 METAR LMML 301715Z 30007KT 270V330 9999 FEW021 27/22 Q1015
                        NOSIG=
200908301700 METAR LMML NIL=
200908301645 METAR LMML 301645Z 28006KT 240V320 9999 FEW025 28/21 Q1015
                        NOSIG=
200908301630 METAR LMML NIL=
200908301615 METAR LMML 301615Z 29008KT 9999 FEW031 28/21 Q1015 NOSIG=
200908301600 METAR LMML NIL=
200908301545 METAR LMML 301545Z 30008KT 260V340 9999 FEW030 29/19 Q1015
                        NOSIG=
200908301530 METAR LMML NIL=
200908301515 METAR LMML 301515Z 30005KT 240V340 9999 FEW030 30/17 Q1015=
200908301500 METAR LMML NIL=
200908301445 METAR LMML 301445Z 29005KT 220V020 9999 FEW030 30/19 Q1015
                        NOSIG=
200908301430 METAR LMML NIL=
200908301415 METAR LMML 301415Z VRB03KT 9999 FEW026 30/19 Q1015 NOSIG
                        RMK CB TOP TO NORTH=
200908301400 METAR LMML NIL=
200908301345 METAR LMML 301345Z 09004KT 320V120 9999 FEW026 28/22 Q1015
                        NOSIG=
200908301330 METAR LMML NIL=
200908301315 METAR LMML 301315Z VRB03KT 9999 SCT026 28/22 Q1015 NOSIG=
200908301300 METAR LMML NIL=
200908301245 METAR LMML 301245Z 35006KT 310V090 9999 -SHRA SCT028 28/22
                        Q1015 NOSIG=
200908301230 METAR LMML NIL=
200908301200 METAR LMML NIL=
200908301145 METAR LMML 301145Z 10006KT 070V140 9999 SCT026 28/22 Q1016
                        NOSIG RMK CB TOPS TO W=
200908301130 METAR LMML NIL=
200908301115 METAR LMML 301115Z 06005KT 030V100 9999 SCT026 28/21 Q1016
                        NOSIG RMK CB TOPS TO W=
200908301045 METAR LMML 301045Z 33005KT 9999 SCT026 30/21 Q1016 NOSIG
                        RMK CB TOPS TO W=
200908301030 METAR LMML NIL=
200908301015 METAR LMML 301015Z VRB01KT 9999 SCT036 30/20 Q1016 NOSIG
                        RMK CB TOPS TO W=
200908301000 METAR LMML NIL=
200908300945 METAR LMML 300945Z 27004KT 180V010 9999 FEW040 30/18 Q1016
                        NOSIG RMK CB TOPS TO W=
200908300930 METAR LMML NIL=
200908300915 METAR LMML 300915Z 27004KT 200V010 9999 FEW034 29/19 Q1016
                        NOSIG=
200908300900 METAR LMML NIL=
200908300845 METAR LMML 300845Z 26004KT 190V010 9999 SCT031 29/20 Q1016
                        NOSIG=
200908300830 METAR LMML NIL=
200908300815 METAR LMML 300815Z 28006KT 220V340 9999 FEW029 29/20 Q1016
                        NOSIG RMK CB TOP TO SW=
200908300800 METAR LMML NIL=
200908300745 METAR LMML 300745Z 29007KT 230V320 9999 FEW026TCU 28/20 Q1016
                        NOSIG=
200908300730 METAR LMML NIL=
200908300715 METAR LMML 300715Z 27007KT 230V300 9999 SCT022TCU 27/21 Q1016
                        NOSIG=
200908300700 METAR LMML NIL=
200908300645 METAR LMML 300645Z 28005KT 240V320 9999 SCT022TCU 27/21 Q1015
                        NOSIG=
200908300630 METAR LMML NIL=
200908300615 METAR LMML 300615Z VRB02KT 9999 FEW020TCU 26/21 Q1015 NOSIG
                        RMK CB TOP TO EAST=
200908300600 METAR LMML NIL=
200908300545 METAR LMML 300545Z VRB02KT 9999 FEW015CB FEW017TCU 25/21
                        Q1015 NOSIG=
200908300530 METAR LMML NIL=
200908300515 METAR LMML 300515Z VRB03KT 9999 FEW017TCU 24/21 Q1015 NOSIG=
200908300500 METAR LMML NIL=
200908300445 METAR LMML 300445Z VRB03KT 9999 FEW018 23/21 Q1014 NOSIG=
200908300430 METAR LMML NIL=
200908300415 METAR LMML 300415Z VRB03KT 9999 FEW018 23/21 Q1014 NOSIG=
200908300400 METAR LMML NIL=
200908300345 METAR LMML 300345Z VRB02KT 9999 FEW018 24/21 Q1014 NOSIG=
200908300330 METAR LMML NIL=
200908300315 METAR LMML 300315Z VRB03KT 9999 FEW025 24/21 Q1014 NOSIG=
200908300300 METAR LMML NIL=
200908300245 METAR LMML 300245Z VRB03KT 9999 FEW025 24/21 Q1014 NOSIG=
200908300230 METAR LMML NIL=
200908300215 METAR LMML 300215Z VRB03KT 9999 FEW025 24/21 Q1014 NOSIG=
200908300200 METAR LMML NIL=
200908300145 METAR LMML 300145Z VRB03KT 9999 FEW025 24/21 Q1014 NOSIG=
200908300130 METAR LMML NIL=
200908300115 METAR LMML 300115Z VRB03KT 9999 FEW025 24/21 Q1014 NOSIG=
200908300100 METAR LMML NIL=
200908300045 METAR LMML 300045Z VRB02KT 9999 FEW025 24/21 Q1014 NOSIG=
200908300030 METAR LMML NIL=
200908300015 METAR LMML 300015Z VRB02KT 9999 FEW025 24/21 Q1014 NOSIG=
200908292345 METAR LMML 292345Z VRB03KT 9999 FEW025 24/21 Q1014 NOSIG=
200908292330 METAR LMML NIL=
200908292315 METAR LMML 292315Z VRB03KT 9999 FEW025 24/21 Q1014 NOSIG=
200908292300 METAR LMML NIL=
200908292245 METAR LMML 292245Z VRB03KT 9999 FEW025 24/21 Q1014 NOSIG=
200908292230 METAR LMML NIL=
200908292215 METAR LMML 292215Z VRB02KT 9999 FEW025 25/21 Q1014 NOSIG=
200908292200 METAR LMML NIL=
200908292130 METAR LMML NIL=
200908292115 METAR LMML 292115Z VRB02KT 9999 FEW025 25/21 Q1015 NOSIG=
200908292045 METAR LMML 292045Z VRB02KT 9999 FEW025 25/21 Q1015 NOSIG=
200908292030 METAR LMML NIL=
200908292015 METAR LMML 292015Z VRB01KT 9999 FEW025 25/21 Q1014 NOSIG=
200908292000 METAR LMML NIL=
200908291945 METAR LMML 291945Z VRB01KT 9999 FEW025 25/20 Q1014 NOSIG=
200908291930 METAR LMML NIL=
200908291915 METAR LMML 291915Z VRB03KT 9999 FEW023 SCT250 26/20 Q1014
                        NOSIG=
200908291900 METAR LMML NIL=
200908291845 METAR LMML 291845Z VRB03KT 9999 FEW023 SCT250 26/20 Q1014
                        NOSIG=
200908291830 METAR LMML NIL=
200908291815 METAR LMML 291815Z 28005KT 240V310 9999 FEW023 SCT250 26/21
                        Q1014 NOSIG=
200908291800 METAR LMML NIL=
200908291745 METAR LMML 291745Z 26004KT 220V290 9999 FEW026 SCT250 27/20
                        Q1013 NOSIG=
200908291730 METAR LMML NIL=
200908291715 METAR LMML 291715Z 26005KT 210V290 9999 FEW026 SCT250 27/20
                        Q1014 NOSIG=
200908291700 METAR LMML NIL=
200908291645 METAR LMML 291645Z 26006KT 210V300 9999 FEW026 SCT250 28/21
                        Q1014 NOSIG=
200908291630 METAR LMML NIL=
200908291615 METAR COR LMML 291615Z 26008KT 200V310 9999 FEW026 SCT250
                        28/20 Q1014 NOSIG=
200908291600 METAR LMML NIL=
200908291545 METAR LMML 291545Z 24008KT 200V300 9999 FEW026 29/20 Q1014
                        NOSIG=
200908291530 METAR LMML NIL=
200908291515 METAR LMML 291515Z 23008KT 200V270 9999 FEW026 29/20 Q1013
                        NOSIG=
200908291500 METAR LMML NIL=
200908291445 METAR LMML 291445Z 23006KT 200V290 9999 FEW026 30/20 Q1013
                        NOSIG=
200908291430 METAR LMML NIL=
200908291415 METAR LMML 291415Z 24004KT 130V050 9999 FEW026 SCT250 28/21
                        Q1013 NOSIG=
200908291400 METAR LMML NIL=
200908291345 METAR LMML 291345Z VRB01KT 9999 FEW025 SCT250 27/21 Q1013
                        NOSIG=
200908291315 METAR LMML 291315Z 24007KT 200V300 9999 TS FEW022CB SCT031
                        29/20 Q1014 BECMG FEW020=
200908291300 METAR LMML NIL=
200908291245 METAR LMML 291245Z 21005KT 150V260 9999 SCT020 30/21 Q1014
                        NOSIG=
200908291215 METAR LMML 291215Z VRB01KT 9999 TS FEW020CB 27/21 Q1014 BECMG
                        FEW020=
200908291200 METAR LMML NIL=
200908291145 METAR LMML 291145Z VRB03KT 9999 TS SCT025CB 27/21 Q1015 NOSIG=
200908291115 METAR LMML 291115Z 10004KT 340V210 9999 SCT027CB 28/21 Q1014
                        NOSIG=
200908291100 METAR LMML NIL=
200908291045 METAR LMML 291045Z 22007KT 160V260 9999 FEW029 29/22 Q1014
                        NOSIG=
200908291030 METAR LMML NIL=
200908291015 METAR LMML 291015Z VRB03KT 9999 FEW027 30/21 Q1014 NOSIG=
200908290945 METAR LMML 290945Z 24004KT 160V020 9999 FEW025 SCT120 29/21
                        Q1014 NOSIG=
200908290930 METAR LMML NIL=
200908290915 METAR LMML 290915Z 22005KT 150V310 9999 FEW024 28/21 Q1014
                        NOSIG=
200908290900 METAR LMML NIL=
200908290845 METAR LMML 290845Z 22005KT 190V260 9999 FEW023 28/21 Q1014
                        NOSIG=
200908290815 METAR LMML 290815Z 21005KT 150V280 9999 FEW022 29/21 Q1014
                        NOSIG=
200908290800 METAR LMML NIL=
200908290745 METAR LMML 290745Z 24004KT 150V320 9999 FEW023 28/21 Q1014
                        NOSIG=
200908290730 METAR LMML NIL=
200908290715 METAR LMML 290715Z VRB03KT 9999 FEW025 28/21 Q1014 NOSIG=
200908290700 METAR LMML NIL=
200908290645 METAR LMML 290645Z 22004KT 180V260 9999 FEW020CB 27/21 Q1014
                        NOSIG RMK CB TO W AND S=
200908290630 METAR LMML NIL=
200908290615 METAR COR LMML 290615Z 23004KT 200V260 9999 FEW020CB 26/21
                        Q1014 NOSIG RMK CB TO WEST=
200908290600 METAR LMML NIL=
200908290545 METAR LMML 290545Z VRB02KT 9999 FEW020CB 25/22 Q1014 NOSIG
                        RMK CB TO SW OF AIRFIELD=
200908290530 METAR LMML NIL=
200908290515 METAR LMML 290515Z VRB02KT 9999 FEW017 24/21 Q1013 NOSIG=
200908290500 METAR LMML NIL=
200908290445 METAR LMML 290445Z VRB03KT 9999 FEW017 23/21 Q1013 NOSIG=
200908290430 METAR LMML NIL=
200908290415 METAR LMML 290415Z VRB02KT 9999 FEW017 23/21 Q1013 NOSIG=
200908290400 METAR LMML NIL=
200908290345 METAR LMML 290345Z VRB02KT 9999 FEW017 24/21 Q1013 NOSIG=
200908290330 METAR LMML NIL=
200908290315 METAR LMML 290315Z VRB02KT 9999 FEW017 24/21 Q1013 NOSIG=
200908290300 METAR LMML NIL=
200908290245 METAR LMML 290245Z VRB01KT 9999 FEW017 24/21 Q1013 NOSIG=
200908290230 METAR LMML NIL=
200908290215 METAR LMML 290215Z VRB02KT 9999 FEW017 24/21 Q1013 NOSIG=
200908290200 METAR LMML NIL=
200908290145 METAR LMML 290145Z VRB02KT 9999 FEW018 SCT250 24/21 Q1013
                        NOSIG=
200908290130 METAR LMML NIL=
200908290115 METAR LMML 290115Z VRB02KT 9999 FEW020 24/21 Q1013 NOSIG=
200908290045 METAR LMML 290045Z VRB03KT CAVOK 24/21 Q1013 NOSIG=
200908290030 METAR LMML NIL=
200908290015 METAR LMML 290015Z VRB02KT 9999 FEW020 SCT250 25/21 Q1013
                        NOSIG=
200908290000 METAR LMML NIL=
200908282345 METAR LMML 282345Z VRB02KT 9999 FEW020 SCT120 25/21 Q1014
                        NOSIG=
200908282330 METAR LMML NIL=
200908282315 METAR LMML 282315Z VRB02KT 9999 FEW020 BKN120 25/22 Q1014
                        NOSIG=
200908282245 METAR LMML 282245Z VRB03KT 9999 FEW020 BKN120 25/22 Q1014
                        NOSIG=
200908282230 METAR LMML NIL=
200908282145 METAR LMML 282145Z VRB03KT 9999 FEW020 BKN120 25/22 Q1014
                        NOSIG=
200908282130 METAR LMML NIL=
200908282115 METAR LMML 282115Z VRB03KT 9999 FEW015 SCT120 26/22 Q1014
                        NOSIG=
200908282100 METAR LMML NIL=
200908282045 METAR LMML 282045Z VRB02KT 9999 FEW015 SCT120 25/22 Q1014
                        NOSIG=
200908282030 METAR LMML NIL=
200908282015 METAR LMML 282015Z VRB02KT 9999 FEW015 SCT120 26/22 Q1014
                        NOSIG=
200908282000 METAR LMML NIL=
200908281945 METAR LMML 281945Z VRB02KT 9999 FEW015 BKN120 26/22 Q1014
                        NOSIG=
200908281930 METAR LMML NIL=
200908281915 METAR LMML 281915Z VRB02KT 9999 FEW015 BKN120 26/22 Q1014
                        NOSIG=
200908281900 METAR LMML NIL=
200908281845 METAR LMML 281845Z VRB03KT CAVOK 27/22 Q1014 NOSIG=
200908281830 METAR LMML NIL=
200908281815 METAR LMML 281815Z VRB02KT CAVOK 27/21 Q1013 NOSIG=
200908281800 METAR LMML NIL=
200908281745 METAR LMML 281745Z VRB02KT 9999 FEW020 BKN120 27/22 Q1013
                        NOSIG=
200908281730 METAR LMML NIL=
200908281715 METAR LMML 281715Z VRB03KT 9999 FEW020 BKN120 27/22 Q1013
                        NOSIG=
200908281700 METAR LMML NIL=
200908281645 METAR LMML 281645Z 21004KT 170V260 9999 FEW020 BKN120 27/22
                        Q1013 NOSIG=
200908281615 METAR LMML 281615Z 22004KT 180V260 CAVOK 28/22 Q1013 NOSIG=
200908281600 METAR LMML NIL=
200908281545 METAR LMML 281545Z 20005KT 170V240 CAVOK 28/22 Q1013 NOSIG=
200908281530 METAR LMML NIL=
200908281515 METAR LMML 281515Z VRB03KT CAVOK 29/21 Q1013 NOSIG=
200908281500 METAR LMML NIL=
200908281445 METAR LMML 281445Z VRB03KT 9999 FEW020 BKN120 28/20 Q1014
                        NOSIG=
200908281430 METAR LMML NIL=
200908281415 METAR LMML 281415Z VRB03KT 9999 FEW020 BKN120 28/21 Q1014
                        NOSIG=
200908281400 METAR LMML NIL=
200908281345 METAR LMML 281345Z 23006KT 190V280 9999 FEW020 BKN120 29/17
                        Q1014 NOSIG=
200908281330 METAR LMML NIL=
200908281315 METAR LMML 281315Z 23006KT 140V280 9999 -SHRA FEW021 BKN120
                        28/22 Q1014 NOSIG=
200908281300 METAR LMML NIL=
200908281245 METAR LMML 281245Z 23005KT 170V300 9999 FEW019 BKN120 28/22
                        Q1014 NOSIG=
200908281230 METAR LMML NIL=
200908281215 METAR LMML 281215Z 23007KT 150V280 9999 FEW020 BKN120 28/22
                        Q1015 NOSIG=
200908281200 METAR LMML NIL=
200908281145 METAR LMML 281145Z 22007KT 180V280 9999 FEW020 BKN120 28/21
                        Q1015 NOSIG=
200908281130 METAR LMML NIL=
200908281115 METAR LMML 281115Z 21008KT 170V270 9999 FEW020 BKN120 28/22
                        Q1015 NOSIG=
200908281100 METAR LMML NIL=
200908281045 METAR LMML 281045Z 22009KT 180V270 9999 FEW020 BKN120 29/21
                        Q1015 NOSIG=
200908281030 METAR LMML NIL=
200908281015 METAR LMML 281015Z 20008KT 160V260 9999 FEW020 BKN120 30/20
                        Q1015 NOSIG=
200908281000 METAR LMML NIL=
200908280945 METAR LMML 280945Z 21007KT 160V270 9999 FEW020 BKN120 29/22
                        Q1015 NOSIG=
200908280930 METAR LMML NIL=
200908280915 METAR LMML 280915Z 20006KT 160V270 9999 FEW015 BKN120 28/22
                        Q1015 NOSIG=
200908280900 METAR LMML NIL=
200908280845 METAR LMML 280845Z 20006KT 130V290 9999 FEW015 BKN120 29/22
                        Q1015 NOSIG=
200908280830 METAR LMML NIL=
200908280815 METAR LMML 280815Z 19007KT 150V260 9999 FEW017 28/22 Q1015
                        NOSIG=
200908280800 METAR LMML NIL=
200908280745 METAR LMML 280745Z 21006KT 160V260 9999 FEW017 28/22 Q1015
                        NOSIG=
200908280730 METAR LMML NIL=
200908280715 METAR LMML 280715Z 20007KT 180V260 9999 FEW017 27/21 Q1014
                        NOSIG=
200908280700 METAR LMML NIL=
200908280645 METAR LMML 280645Z 20005KT 170V230 CAVOK 27/22 Q1014 NOSIG=
200908280630 METAR LMML NIL=
200908280615 METAR LMML 280615Z 20004KT 170V260 CAVOK 26/22 Q1015 NOSIG=
200908280600 METAR LMML NIL=
200908280545 METAR LMML 280545Z VRB02KT CAVOK 24/23 Q1014 NOSIG=
200908280530 METAR LMML NIL=
200908280515 METAR LMML 280515Z 23004KT 9000 NSC 23/23 Q1014 BECMG CAVOK=
200908280500 METAR LMML NIL=
200908280445 METAR LMML 280445Z 11004KT 9000 NSC 23/22 Q1014 NOSIG=
200908280430 METAR LMML NIL=
200908280415 METAR LMML 280415Z VRB02KT 9000 NSC 23/22 Q1014 NOSIG=
200908280400 METAR LMML NIL=
200908280345 METAR LMML 280345Z VRB03KT 9999 FEW015 22/22 Q1014 NOSIG=
200908280330 METAR LMML NIL=
200908280315 METAR LMML 280315Z VRB01KT 9999 FEW015 23/22 Q1014 NOSIG=
200908280300 METAR LMML NIL=
200908280245 METAR LMML 280245Z VRB02KT 9999 FEW015 23/22 Q1014 NOSIG=
200908280230 METAR LMML NIL=
200908280215 METAR LMML 280215Z VRB02KT 9999 FEW015 23/22 Q1015 NOSIG=
200908280200 METAR LMML NIL=
200908280145 METAR LMML 280145Z VRB01KT 9999 FEW015 23/22 Q1015 NOSIG=
200908280130 METAR LMML NIL=
200908280115 METAR LMML 280115Z VRB02KT 9999 FEW015 23/22 Q1016 NOSIG=
200908280100 METAR LMML NIL=
200908280030 METAR LMML NIL=
200908280015 METAR LMML 280015Z VRB01KT CAVOK 24/22 Q1016 NOSIG=
200908280000 METAR LMML NIL=
200908272345 METAR LMML 272345Z VRB03KT CAVOK 24/22 Q1016 NOSIG=
200908272330 METAR LMML NIL=
200908272315 METAR LMML 272315Z VRB03KT CAVOK 24/22 Q1016 NOSIG=
200908272300 METAR LMML NIL=
200908272245 METAR LMML 272245Z VRB02KT CAVOK 24/22 Q1016 NOSIG=
200908272230 METAR LMML NIL=
200908272215 METAR LMML 272215Z VRB02KT CAVOK 24/22 Q1016 NOSIG=
200908272145 METAR LMML 272145Z VRB02KT CAVOK 24/22 Q1016 NOSIG=
200908272130 METAR LMML NIL=
200908272115 METAR LMML 272115Z VRB01KT CAVOK 24/22 Q1017 NOSIG=
200908272100 METAR LMML NIL=
200908272045 METAR LMML 272045Z VRB01KT CAVOK 25/22 Q1016 NOSIG=
200908272030 METAR LMML NIL=
200908272015 METAR LMML 272015Z VRB01KT CAVOK 25/22 Q1016 NOSIG=
200908272000 METAR LMML NIL=
200908271945 METAR LMML 271945Z VRB01KT 9999 FEW018 26/22 Q1016 NOSIG=
200908271930 METAR LMML NIL=
200908271915 METAR LMML 271915Z VRB01KT 9999 FEW018 26/22 Q1016 NOSIG=
200908271900 METAR LMML NIL=
200908271845 METAR LMML 271845Z VRB01KT CAVOK 26/22 Q1016 NOSIG=
200908271830 METAR LMML NIL=
200908271815 METAR LMML 271815Z VRB03KT CAVOK 26/22 Q1016 NOSIG=
200908271800 METAR LMML NIL=
200908271745 METAR LMML 271745Z 23005KT 200V260 CAVOK 27/21 Q1016 NOSIG=
200908271715 METAR LMML 271715Z 22005KT 170V260 CAVOK 28/21 Q1016 NOSIG=
200908271700 METAR LMML NIL=
200908271645 METAR LMML 271645Z 23005KT 190V270 CAVOK 28/20 Q1016 NOSIG=
200908271630 METAR LMML NIL=
200908271615 METAR LMML 271615Z 22006KT 190V250 CAVOK 29/20 Q1016 NOSIG=
200908271600 METAR LMML NIL=
200908271545 METAR LMML 271545Z 21005KT 180V270 CAVOK 29/20 Q1016 NOSIG=
200908271530 METAR LMML NIL=
200908271515 METAR LMML 271515Z 20006KT 150V240 CAVOK 29/20 Q1017 NOSIG=
200908271500 METAR LMML NIL=
200908271445 METAR LMML 271445Z 20006KT 150V240 CAVOK 30/19 Q1017 NOSIG=
200908271430 METAR LMML NIL=
200908271415 METAR LMML 271415Z 20006KT 160V280 CAVOK 30/18 Q1017 NOSIG=
200908271400 METAR LMML NIL=
200908271345 METAR LMML 271345Z 20006KT 140V240 CAVOK 30/21 Q1017 NOSIG=
200908271330 METAR LMML NIL=
200908271315 METAR LMML 271315Z 22008KT 170V260 CAVOK 30/20 Q1018 NOSIG=
200908271300 METAR LMML NIL=
200908271245 METAR LMML 271245Z 20007KT 160V240 CAVOK 30/21 Q1018 NOSIG=
200908271230 METAR LMML NIL=
200908271215 METAR LMML 271215Z 19006KT 140V290 CAVOK 30/19 Q1018 NOSIG=
200908271200 METAR LMML NIL=
200908271145 METAR LMML 271145Z 17006KT 130V230 CAVOK 30/20 Q1018 NOSIG=
200908271130 METAR LMML NIL=
200908271115 METAR LMML 271115Z 19006KT 140V240 9999 FEW035 30/19 Q1018
                        NOSIG=
200908271045 METAR LMML 271045Z 18007KT 150V220 9999 FEW035 29/17 Q1018
                        NOSIG=
200908271030 METAR LMML NIL=
200908271015 METAR LMML 271015Z 19006KT 130V240 9999 FEW035 30/19 Q1018
                        NOSIG=
200908271000 METAR LMML NIL=
200908270945 METAR LMML 270945Z 18007KT 140V220 9999 FEW035 30/20 Q1018
                        NOSIG=
200908270915 METAR LMML 270915Z 16006KT 110V220 9999 FEW035 30/20 Q1019
                        NOSIG=
200908270900 METAR LMML NIL=
200908270845 METAR LMML 270845Z 19006KT 120V240 CAVOK 29/21 Q1019 NOSIG=
200908270830 METAR LMML NIL=
200908270815 METAR LMML 270815Z 16005KT 130V190 9999 FEW020 29/21 Q1019
                        NOSIG=
200908270800 METAR LMML NIL=
200908270745 METAR LMML 270745Z 18005KT 120V220 CAVOK 29/21 Q1018 NOSIG=
200908270730 METAR LMML NIL=
200908270715 METAR LMML 270715Z 17006KT 110V220 CAVOK 28/22 Q1018 NOSIG=
200908270700 METAR LMML NIL=
200908270645 METAR LMML 270645Z 18006KT 130V230 CAVOK 27/22 Q1018 NOSIG=
200908270630 METAR LMML NIL=
200908270615 METAR LMML 270615Z 18005KT 150V220 CAVOK 27/22 Q1018 NOSIG=
200908270600 METAR LMML NIL=
200908270545 METAR LMML 270545Z VRB03KT CAVOK 26/23 Q1018 NOSIG=
200908270530 METAR LMML NIL=
200908270515 METAR LMML 270515Z VRB03KT CAVOK 24/22 Q1018 NOSIG=
200908270500 METAR LMML NIL=
200908270445 METAR LMML 270445Z VRB02KT CAVOK 24/22 Q1018 NOSIG=
200908270430 METAR LMML NIL=
200908270415 METAR LMML 270415Z VRB02KT CAVOK 23/22 Q1017 NOSIG=
200908270400 METAR LMML NIL=
200908270345 METAR LMML 270345Z VRB03KT CAVOK 24/22 Q1017 NOSIG=
200908270330 METAR LMML NIL=
200908270315 METAR LMML 270315Z VRB03KT CAVOK 24/22 Q1017 NOSIG=
200908270300 METAR LMML NIL=
200908270245 METAR LMML 270245Z VRB02KT CAVOK 24/22 Q1017 NOSIG=
200908270230 METAR LMML NIL=
200908270215 METAR LMML 270215Z VRB02KT CAVOK 24/22 Q1017 NOSIG=
200908270200 METAR LMML NIL=
200908270145 METAR LMML 270145Z VRB02KT CAVOK 25/22 Q1017 NOSIG=
200908270130 METAR LMML NIL=
200908270115 METAR LMML 270115Z VRB02KT CAVOK 25/22 Q1018 NOSIG=
200908270045 METAR LMML 270045Z VRB02KT CAVOK 25/22 Q1018 NOSIG=
200908270030 METAR LMML NIL=
200908270015 METAR LMML 270015Z VRB02KT CAVOK 25/22 Q1018 NOSIG=
200908270000 METAR LMML NIL=
200908262345 METAR LMML 262345Z VRB03KT CAVOK 26/22 Q1018 NOSIG=
200908262315 METAR LMML 262315Z VRB03KT CAVOK 26/22 Q1018 NOSIG=
200908262300 METAR LMML NIL=
200908262245 METAR LMML 262245Z VRB03KT CAVOK 26/22 Q1018 NOSIG=
200908262215 METAR LMML 262215Z VRB03KT CAVOK 26/23 Q1018 NOSIG=
200908262200 METAR LMML NIL=
200908262145 METAR LMML 262145Z 17004KT 140V200 CAVOK 26/23 Q1018 NOSIG=
200908262130 METAR LMML NIL=
200908262115 METAR LMML 262115Z 17004KT 140V210 CAVOK 26/23 Q1018 NOSIG=
200908262100 METAR LMML NIL=
200908262045 METAR LMML 262045Z 17004KT 130V210 CAVOK 26/23 Q1018 NOSIG=
200908262030 METAR LMML NIL=
200908262015 METAR LMML 262015Z 16006KT CAVOK 26/23 Q1018 NOSIG=
200908262000 METAR LMML NIL=
200908261945 METAR LMML 261945Z 16007KT CAVOK 27/22 Q1017 NOSIG=
200908261930 METAR LMML NIL=
200908261915 METAR LMML 261915Z 16007KT CAVOK 27/22 Q1017 NOSIG=
200908261900 METAR LMML NIL=
200908261845 METAR LMML 261845Z 16006KT 140V200 CAVOK 27/22 Q1017 NOSIG=
200908261830 METAR LMML NIL=
200908261815 METAR LMML 261815Z 16008KT CAVOK 27/22 Q1016 NOSIG=
200908261800 METAR LMML NIL=
200908261745 METAR LMML 261745Z 16008KT 130V200 CAVOK 27/22 Q1016 NOSIG=
200908261730 METAR LMML NIL=
200908261715 METAR LMML 261715Z 16007KT 120V190 CAVOK 28/22 Q1016 NOSIG=
200908261700 METAR LMML NIL=
200908261645 METAR LMML 261645Z 16008KT 120V200 CAVOK 28/22 Q1016 NOSIG=
200908261630 METAR LMML NIL=
200908261615 METAR LMML 261615Z 15009KT 120V180 CAVOK 29/22 Q1016 NOSIG=
200908261600 METAR LMML NIL=
200908261545 METAR LMML 261545Z 16009KT 120V190 CAVOK 29/22 Q1016 NOSIG=
200908261530 METAR LMML NIL=
200908261515 METAR LMML 261515Z 15010KT 130V190 9999 FEW030 29/22 Q1017
                        NOSIG=
200908261500 METAR LMML NIL=
200908261445 METAR LMML 261445Z 17007KT 130V220 CAVOK 30/22 Q1017 NOSIG=
200908261430 METAR LMML NIL=
200908261415 METAR LMML 261415Z 16008KT 120V210 CAVOK 30/22 Q1017 NOSIG=
200908261400 METAR LMML NIL=
200908261345 METAR LMML 261345Z 15008KT 120V200 CAVOK 30/22 Q1017 NOSIG=
200908261330 METAR LMML NIL=
200908261315 METAR LMML 261315Z 16009KT 130V190 CAVOK 30/22 Q1017 NOSIG=
200908261245 METAR LMML 261245Z 17008KT 140V220 CAVOK 30/22 Q1017 NOSIG=
200908261215 METAR LMML 261215Z 17008KT 120V220 CAVOK 31/21 Q1017 NOSIG=
200908261200 METAR LMML NIL=
200908261145 METAR LMML 261145Z 18008KT 140V220 CAVOK 30/22 Q1017 NOSIG=
200908261130 METAR LMML NIL=
200908261115 METAR LMML 261115Z 17009KT 140V200 CAVOK 30/22 Q1017 NOSIG=
200908261100 METAR LMML NIL=
200908261045 METAR LMML 261045Z 18009KT 140V240 CAVOK 30/23 Q1017 NOSIG=
200908261015 METAR LMML 261015Z 19010KT 150V220 CAVOK 30/22 Q1017 NOSIG=
200908260945 METAR LMML 260945Z 18009KT CAVOK 29/22 Q1017 NOSIG=
200908260930 METAR LMML NIL=
200908260915 METAR LMML 260915Z 19009KT 150V240 CAVOK 29/23 Q1017 NOSIG=
200908260900 METAR LMML NIL=
200908260845 METAR LMML 260845Z 17007KT 130V220 CAVOK 29/23 Q1017 NOSIG=
200908260815 METAR LMML 260815Z 17009KT 140V210 CAVOK 29/23 Q1017 NOSIG=
200908260800 METAR LMML NIL=
200908260745 METAR LMML 260745Z 17008KT 130V210 CAVOK 29/22 Q1017 NOSIG=
200908260715 METAR LMML 260715Z 18008KT 150V220 CAVOK 28/22 Q1016 NOSIG=
200908260645 METAR LMML 260645Z 19007KT 150V230 CAVOK 28/23 Q1016 NOSIG=
200908260630 METAR LMML NIL=
200908260615 METAR LMML 260615Z 18007KT 160V220 CAVOK 27/23 Q1016 NOSIG=
200908260545 METAR LMML 260545Z 18006KT CAVOK 27/23 Q1016 NOSIG=
200908260530 METAR LMML NIL=
200908260515 METAR LMML 260515Z 18007KT 9999 FEW011 26/23 Q1016 NOSIG=
200908260500 METAR LMML NIL=
200908260445 METAR LMML 260445Z 18007KT 140V210 9000 FEW011 26/24 Q1015
                        BECMG 9999=
200908260430 METAR LMML NIL=
200908260415 METAR LMML 260415Z 18007KT 140V210 9999 FEW012 26/24 Q1015
                        NOSIG=
200908260400 METAR LMML NIL=
200908260345 METAR LMML 260345Z 17006KT 140V210 CAVOK 26/24 Q1015 NOSIG=
200908260330 METAR LMML NIL=
200908260315 METAR LMML 260315Z 16007KT CAVOK 26/24 Q1015 NOSIG=
200908260300 METAR LMML NIL=
200908260245 METAR LMML 260245Z 16008KT 140V200 CAVOK 26/23 Q1014 NOSIG=
200908260230 METAR LMML NIL=
200908260215 METAR LMML 260215Z 16007KT 130V190 CAVOK 26/24 Q1014 NOSIG=
200908260200 METAR LMML NIL=
200908260145 METAR LMML 260145Z 16008KT 120V180 CAVOK 26/24 Q1014 NOSIG=
200908260130 METAR LMML NIL=
200908260115 METAR LMML 260115Z 14008KT CAVOK 26/23 Q1014 NOSIG=
200908260100 METAR LMML NIL=
200908260045 METAR LMML 260045Z 15007KT 120V180 CAVOK 26/23 Q1014 NOSIG=
200908260030 METAR LMML NIL=
200908260015 METAR LMML 260015Z 16007KT 130V200 CAVOK 26/23 Q1015 NOSIG=
200908260000 METAR LMML NIL=
200908252345 METAR LMML 252345Z 15006KT 120V180 CAVOK 26/23 Q1015 NOSIG=
200908252330 METAR LMML NIL=
200908252315 METAR LMML 252315Z 15006KT 110V170 CAVOK 26/23 Q1015 NOSIG=
200908252300 METAR LMML NIL=
200908252245 METAR LMML 252245Z 16006KT 120V190 CAVOK 26/23 Q1015 NOSIG=
200908252230 METAR LMML NIL=
200908252215 METAR LMML 252215Z 17007KT 140V200 CAVOK 27/23 Q1015 NOSIG=
200908252200 METAR LMML NIL=
200908252145 METAR LMML 252145Z 16006KT CAVOK 27/23 Q1015 NOSIG=
200908252130 METAR LMML NIL=
200908252115 METAR LMML 252115Z 15006KT 120V180 CAVOK 27/23 Q1015 NOSIG=
200908252100 METAR LMML NIL=
200908252045 METAR LMML 252045Z 16006KT CAVOK 27/23 Q1015 NOSIG=
200908252030 METAR LMML NIL=
200908252015 METAR LMML 252015Z 15006KT 110V180 CAVOK 27/23 Q1015 NOSIG=
200908252000 METAR LMML NIL=
200908251945 METAR LMML 251945Z 16007KT CAVOK 27/23 Q1015 NOSIG=
200908251930 METAR LMML NIL=
200908251915 METAR LMML 251915Z 16006KT 130V190 CAVOK 27/23 Q1014 NOSIG=
200908251900 METAR LMML NIL=
200908251845 METAR LMML 251845Z 14007KT CAVOK 27/23 Q1014 NOSIG=
200908251830 METAR LMML NIL=
200908251815 METAR LMML 251815Z 17006KT 140V200 CAVOK 27/23 Q1014 NOSIG=
200908251800 METAR LMML NIL=
200908251745 METAR LMML 251745Z 17007KT 140V210 CAVOK 27/22 Q1014 NOSIG=
200908251730 METAR LMML NIL=
200908251715 METAR LMML 251715Z 16008KT 130V220 CAVOK 28/22 Q1014 NOSIG=
200908251700 METAR LMML NIL=
200908251645 METAR LMML 251645Z 17008KT 130V200 CAVOK 28/22 Q1013 NOSIG=
200908251630 METAR LMML NIL=
200908251615 METAR LMML 251615Z 16009KT 130V220 CAVOK 29/22 Q1014 NOSIG=
200908251600 METAR LMML NIL=
200908251545 METAR LMML 251545Z 16009KT 130V210 CAVOK 29/22 Q1014 NOSIG=
200908251530 METAR LMML NIL=
200908251515 METAR LMML 251515Z 16009KT 130V190 CAVOK 29/22 Q1014 NOSIG=
200908251500 METAR LMML NIL=
200908251445 METAR LMML 251445Z 17009KT 140V210 CAVOK 30/22 Q1014 NOSIG=
200908251430 METAR LMML NIL=
200908251415 METAR LMML 251415Z 17008KT 120V220 CAVOK 30/22 Q1014 NOSIG=
200908251400 METAR LMML NIL=
200908251345 METAR LMML 251345Z 18007KT 130V220 CAVOK 30/21 Q1014 NOSIG=
200908251330 METAR LMML NIL=
200908251315 METAR LMML 251315Z 19007KT 130V240 CAVOK 30/21 Q1014 NOSIG=
200908251300 METAR LMML NIL=
200908251245 METAR LMML 251245Z 19007KT 150V240 9999 FEW020 30/22 Q1014
                        NOSIG=
200908251230 METAR LMML NIL=
200908251215 METAR LMML 251215Z 20008KT 160V240 9999 FEW020 30/22 Q1014
                        NOSIG=
200908251145 METAR LMML 251145Z 19009KT 160V230 9999 FEW020 29/23 Q1015
                        NOSIG=
200908251130 METAR LMML NIL=
200908251115 METAR LMML 251115Z 18008KT 140V210 9999 FEW020 29/22 Q1015
                        NOSIG=
200908251100 METAR LMML NIL=
200908251045 METAR LMML 251045Z 20008KT 150V280 9999 FEW020 29/23 Q1015
                        NOSIG=
200908251015 METAR LMML 251015Z 20006KT 130V270 9999 FEW020 29/23 Q1015
                        NOSIG=
200908251000 METAR LMML NIL=
200908250945 METAR LMML 250945Z 20008KT 150V240 9999 FEW020 29/23 Q1015
                        NOSIG=
200908250930 METAR LMML NIL=
200908250915 METAR LMML 250915Z 19008KT 160V250 9999 FEW020 28/22 Q1015
                        NOSIG=
200908250900 METAR LMML NIL=
200908250845 METAR LMML 250845Z 19007KT 140V230 9999 FEW020 28/23 Q1014
                        NOSIG=
200908250830 METAR LMML NIL=
200908250815 METAR LMML 250815Z 20008KT 160V240 9999 FEW020 28/23 Q1014
                        NOSIG=
200908250800 METAR LMML NIL=
200908250745 METAR LMML 250745Z 19007KT 160V240 9999 FEW015 28/22 Q1014
                        NOSIG=
200908250730 METAR LMML NIL=
200908250715 METAR LMML 250715Z 18006KT 140V230 9999 FEW014 27/22 Q1014
                        NOSIG=
200908250700 METAR LMML NIL=
200908250645 METAR LMML 250645Z 18006KT 140V230 9999 FEW012 26/22 Q1014
                        NOSIG=
200908250615 METAR LMML 250615Z 17005KT 140V210 9999 SCT012 26/23 Q1014
                        NOSIG=
200908250600 METAR LMML NIL=
200908250545 METAR LMML 250545Z 18004KT 160V230 9000 SCT012 25/23 Q1013
                        NOSIG=
200908250530 METAR LMML NIL=
200908250500 METAR LMML NIL=
200908250445 METAR LMML 250445Z VRB03KT 9000 FEW010 24/23 Q1013 NOSIG=
200908250430 METAR LMML NIL=
200908250415 METAR LMML 250415Z 14004KT 9000 FEW013 23/23 Q1012 TEMPO
                        6000=
200908250345 METAR LMML 250345Z VRB03KT 9000 FEW009 23/22 Q1012 TEMPO
                        6000=
200908250330 METAR LMML NIL=
200908250315 METAR LMML 250315Z VRB02KT 9000 FEW009 24/23 Q1012 TEMPO
                        6000=
200908250300 METAR LMML NIL=
200908250245 METAR LMML 250245Z VRB01KT 9000 FEW009 24/23 Q1012 TEMPO
                        6000=
200908250230 METAR LMML NIL=
200908250215 METAR LMML 250215Z VRB01KT 9000 FEW009 24/23 Q1012 TEMPO
                        6000=
200908250200 METAR LMML NIL=
200908250145 METAR LMML 250145Z VRB03KT 9000 FEW009 24/23 Q1012 TEMPO
                        6000=
200908250130 METAR LMML NIL=
200908250115 METAR LMML 250115Z VRB03KT 9000 FEW009 24/23 Q1012 TEMPO
                        6000=
200908250100 METAR LMML NIL=
200908250045 METAR LMML 250045Z VRB02KT 9000 NSC 24/23 Q1013 TEMPO 6000=
200908250030 METAR LMML NIL=
200908250015 METAR LMML 250015Z VRB02KT 9000 FEW009 25/24 Q1013 TEMPO
                        6000=
200908250000 METAR LMML NIL=
200908242345 METAR LMML 242345Z VRB02KT 9000 FEW009 25/23 Q1013 NOSIG=
200908242330 METAR LMML NIL=
200908242315 METAR LMML 242315Z VRB01KT 9000 FEW012 25/23 Q1013 NOSIG=
200908242300 METAR LMML NIL=
200908242245 METAR LMML 242245Z VRB01KT 9000 FEW012 25/23 Q1013 NOSIG=
200908242230 METAR LMML NIL=
200908242215 METAR LMML 242215Z 00000KT 9000 FEW012 25/23 Q1013 NOSIG=
200908242200 METAR LMML NIL=
200908242145 METAR LMML 242145Z VRB02KT 9000 FEW015 26/23 Q1013 NOSIG=
200908242130 METAR LMML NIL=
200908242115 METAR LMML 242115Z VRB02KT 9000 FEW015 26/23 Q1013 NOSIG=
200908242045 METAR LMML 242045Z VRB02KT 9999 FEW014 26/23 Q1013 NOSIG=
200908242030 METAR LMML NIL=
200908242015 METAR LMML 242015Z VRB03KT 9999 FEW014 26/23 Q1013 NOSIG=
200908242000 METAR LMML NIL=
200908241945 METAR LMML 241945Z VRB01KT 9999 FEW014 26/23 Q1013 NOSIG=
200908241930 METAR LMML NIL=
200908241915 METAR LMML 241915Z VRB01KT 9999 SCT016 26/23 Q1013 NOSIG=
200908241900 METAR LMML NIL=
200908241845 METAR LMML 241845Z VRB02KT 9999 FEW016 27/24 Q1013 NOSIG=
200908241830 METAR LMML NIL=
200908241815 METAR LMML 241815Z VRB03KT 9999 FEW017 27/24 Q1013 NOSIG=
200908241800 METAR LMML NIL=
200908241745 METAR LMML 241745Z VRB01KT 9999 FEW020 27/23 Q1012 NOSIG=
200908241715 METAR LMML 241715Z VRB03KT 9999 FEW020 28/23 Q1012 NOSIG=
200908241700 METAR LMML NIL=
200908241645 METAR LMML 241645Z 20006KT 160V240 9999 FEW020 28/23 Q1012
                        NOSIG=
200908241630 METAR LMML NIL=
200908241615 METAR LMML 241615Z 19004KT 150V230 9999 FEW020 28/23 Q1012
                        NOSIG=
200908241600 METAR LMML NIL=
200908241545 METAR LMML 241545Z 19004KT 150V240 9999 FEW020 29/22 Q1012
                        NOSIG=
200908241530 METAR LMML NIL=
200908241515 METAR LMML 241515Z 19005KT 150V240 9999 FEW019 29/23 Q1012
                        NOSIG=
200908241500 METAR LMML NIL=
200908241445 METAR LMML 241445Z 17005KT 100V230 9999 FEW020 30/22 Q1012
                        NOSIG=
200908241430 METAR LMML NIL=
200908241415 METAR LMML 241415Z 16005KT 100V230 9999 FEW020 30/22 Q1012
                        NOSIG=
200908241400 METAR LMML NIL=
200908241345 METAR LMML 241345Z 16005KT 060V240 9999 FEW020 30/22 Q1012
                        NOSIG=
200908241330 METAR LMML NIL=
200908241315 METAR LMML 241315Z 18006KT 080V240 9999 FEW020 30/23 Q1013
                        NOSIG=
200908241300 METAR LMML NIL=
200908241245 METAR LMML 241245Z 16007KT 120V230 9999 FEW021 30/22 Q1013
                        NOSIG RMK CB TOP TO NORTH=
200908241230 METAR LMML NIL=
200908241215 METAR LMML 241215Z 16006KT 090V200 9999 FEW020 30/22 Q1013
                        NOSIG=
200908241200 METAR LMML NIL=
200908241145 METAR LMML 241145Z 13007KT 060V180 9999 FEW019 29/22 Q1013
                        NOSIG=
200908241115 METAR LMML 241115Z 14007KT 090V190 9999 FEW019 30/22 Q1013
                        NOSIG=
200908241100 METAR LMML NIL=
200908241045 METAR LMML 241045Z 12007KT 060V170 9999 FEW019 29/22 Q1013
                        NOSIG=
200908241030 METAR LMML NIL=
200908241015 METAR LMML 241015Z 11007KT 070V160 9999 SCT019 30/22 Q1013
                        NOSIG=
200908241000 METAR LMML NIL=
200908240945 METAR LMML 240945Z 12007KT 060V190 9999 FEW018 29/22 Q1013
                        NOSIG=
200908240915 METAR LMML 240915Z 12005KT 060V160 CAVOK 30/21 Q1013 NOSIG=
200908240900 METAR LMML NIL=
200908240845 METAR LMML 240845Z 13005KT 360V190 9999 FEW018 30/22 Q1013
                        NOSIG=
200908240830 METAR LMML NIL=
200908240815 METAR LMML 240815Z 12004KT 060V190 9999 SCT016 30/22 Q1013
                        NOSIG=
200908240800 METAR LMML NIL=
200908240745 METAR LMML 240745Z VRB03KT 9999 FEW018 29/22 Q1013 NOSIG=
200908240730 METAR LMML NIL=
200908240715 METAR LMML 240715Z VRB01KT 9999 SCT016 28/23 Q1013 NOSIG=
200908240700 METAR LMML NIL=
200908240645 METAR LMML 240645Z VRB02KT 9999 SCT015 27/23 Q1012 NOSIG=
200908240630 METAR LMML NIL=
200908240615 METAR LMML 240615Z VRB01KT 9999 FEW020 27/23 Q1012 NOSIG=
200908240600 METAR LMML NIL=
200908240545 METAR LMML 240545Z VRB01KT 9999 FEW020 26/23 Q1012 NOSIG=
200908240530 METAR LMML NIL=
200908240500 METAR LMML NIL=
200908240445 METAR LMML 240445Z VRB02KT 9999 FEW015 24/22 Q1012 NOSIG=
200908240430 METAR LMML NIL=
200908240415 METAR LMML 240415Z VRB02KT 9999 FEW018 23/22 Q1012 NOSIG=
200908240400 METAR LMML NIL=
200908240345 METAR LMML 240345Z VRB02KT CAVOK 24/22 Q1011 NOSIG=
200908240330 METAR LMML NIL=
200908240315 METAR LMML 240315Z VRB02KT CAVOK 24/22 Q1011 NOSIG=
200908240300 METAR LMML NIL=
200908240245 METAR LMML 240245Z VRB02KT CAVOK 24/22 Q1011 NOSIG=
200908240230 METAR LMML NIL=
200908240215 METAR LMML 240215Z VRB02KT CAVOK 25/22 Q1011 NOSIG=
200908240200 METAR LMML NIL=
200908240145 METAR LMML 240145Z VRB02KT CAVOK 25/23 Q1012 NOSIG=
200908240130 METAR LMML NIL=
200908240115 METAR LMML 240115Z 23004KT 200V280 CAVOK 25/23 Q1012 NOSIG=
200908240100 METAR LMML NIL=
200908240045 METAR LMML 240045Z VRB02KT CAVOK 25/22 Q1012 NOSIG=
200908240030 METAR LMML NIL=
200908240015 METAR LMML 240015Z VRB01KT CAVOK 25/21 Q1012 NOSIG=
200908240000 METAR LMML NIL=
200908232330 METAR LMML NIL=
200908232315 METAR LMML 232315Z VRB03KT CAVOK 25/21 Q1012 NOSIG=
200908232245 METAR LMML 232245Z VRB03KT CAVOK 25/20 Q1013 NOSIG=
200908232230 METAR LMML NIL=
200908232215 METAR LMML 232215Z VRB02KT CAVOK 25/20 Q1013 NOSIG=
200908232200 METAR LMML NIL=
200908232145 METAR LMML 232145Z VRB03KT CAVOK 25/20 Q1013 NOSIG=
200908232130 METAR LMML NIL=
200908232115 METAR LMML 232115Z VRB02KT CAVOK 26/21 Q1013 NOSIG=
200908232045 METAR LMML 232045Z VRB03KT CAVOK 26/21 Q1013 NOSIG=
200908232030 METAR LMML NIL=
200908232015 METAR LMML 232015Z VRB03KT CAVOK 27/22 Q1013 NOSIG=
200908231945 METAR LMML 231945Z VRB03KT CAVOK 27/21 Q1013 NOSIG=
200908231915 METAR LMML 231915Z VRB03KT CAVOK 27/21 Q1013 NOSIG=
200908231845 METAR LMML 231845Z 33005KT CAVOK 27/20 Q1013 NOSIG=
200908231830 METAR LMML NIL=
200908231815 METAR LMML 231815Z 34007KT CAVOK 27/21 Q1013 NOSIG=
200908231800 METAR LMML NIL=
200908231745 METAR LMML 231745Z 34006KT CAVOK 28/20 Q1012 NOSIG=
200908231730 METAR LMML NIL=
200908231715 METAR LMML 231715Z 33007KT CAVOK 29/20 Q1012 NOSIG=
200908231700 METAR LMML NIL=
200908231645 METAR LMML 231645Z 31008KT 270V360 CAVOK 29/20 Q1012 NOSIG
                        RMK CB TOPS TO E=
200908231630 METAR LMML NIL=
200908231615 METAR LMML 231615Z 30008KT 280V340 CAVOK 30/18 Q1012 NOSIG
                        RMK CB TOPS TO NNE=
200908231600 METAR LMML NIL=
200908231545 METAR LMML 231545Z 30007KT CAVOK 31/16 Q1012 NOSIG RMK CB
                        TOPS TO NNE=
200908231530 METAR LMML NIL=
200908231515 METAR LMML 231515Z 29006KT 220V340 9999 FEW040 32/17 Q1012
                        NOSIG RMK CB TOPS TO NNE=
200908231500 METAR LMML NIL=
200908231445 METAR LMML 231445Z 04004KT 260V120 9999 FEW040 32/20 Q1012
                        NOSIG RMK CB TOPS TO NNE=
200908231430 METAR LMML NIL=
200908231415 METAR LMML 231415Z 05004KT 260V140 9999 FEW040 32/21 Q1012
                        NOSIG=
200908231400 METAR LMML NIL=
200908231345 METAR LMML 231345Z 22007KT 190V290 9999 FEW025 31/18 Q1013
                        NOSIG=
200908231330 METAR LMML NIL=
200908231315 METAR LMML 231315Z 23006KT 180V300 9999 FEW025 31/20 Q1013
                        NOSIG=
200908231300 METAR LMML NIL=
200908231245 METAR LMML 231245Z 24007KT 190V290 9999 FEW025 31/19 Q1013
                        NOSIG=
200908231230 METAR LMML NIL=
200908231215 METAR LMML 231215Z 24007KT 180V300 9999 FEW025 31/21 Q1013
                        NOSIG=
200908231200 METAR LMML NIL=
200908231145 METAR LMML 231145Z 20006KT 160V240 9999 FEW021 31/20 Q1013
                        NOSIG=
200908231130 METAR LMML NIL=
200908231115 METAR LMML 231115Z 20005KT 130V260 9999 FEW021 30/22 Q1013
                        NOSIG=
200908231100 METAR LMML NIL=
200908231045 METAR LMML 231045Z VRB03KT 9999 FEW021 31/23 Q1014 NOSIG=
200908231030 METAR LMML NIL=
200908231015 METAR LMML 231015Z 02004KT 340V090 9999 FEW027 30/22 Q1014
                        NOSIG=
200908231000 METAR LMML NIL=
200908230945 METAR LMML 230945Z 12005KT 060V180 9999 FEW027 30/22 Q1014
                        NOSIG=
200908230930 METAR LMML NIL=
200908230915 METAR LMML 230915Z 08004KT 280V190 9999 FEW020 32/21 Q1014
                        NOSIG=
200908230900 METAR LMML NIL=
200908230845 METAR LMML 230845Z VRB03KT CAVOK 31/18 Q1014 NOSIG=
200908230830 METAR LMML NIL=
200908230815 METAR LMML 230815Z VRB02KT CAVOK 30/19 Q1014 NOSIG=
200908230800 METAR LMML NIL=
200908230745 METAR LMML 230745Z VRB03KT CAVOK 29/21 Q1014 NOSIG=
200908230730 METAR LMML NIL=
200908230715 METAR LMML 230715Z 32004KT 290V010 9999 FEW012 28/22 Q1014
                        NOSIG=
200908230700 METAR LMML NIL=
200908230645 METAR LMML 230645Z 33005KT 300V360 9000 FEW009 27/23 Q1014
                        NOSIG=
200908230615 METAR LMML 230615Z VRB02KT 9000 FEW015 25/24 Q1013 BECMG
                        9999=
200908230600 METAR LMML NIL=
200908230545 METAR LMML 230545Z VRB02KT 7000 FEW015 24/24 Q1013 BECMG
                        9999=
200908230530 METAR LMML NIL=
200908230515 METAR LMML 230515Z 31004KT 7000 FEW015 23/23 Q1013 BECMG
                        9999=
200908230500 METAR LMML NIL=
200908230445 METAR LMML 230445Z VRB02KT 9000 FEW020 23/23 Q1013 NOSIG=
200908230430 METAR LMML NIL=
200908230400 METAR LMML NIL=
200908230345 METAR LMML 230345Z VRB01KT 9999 FEW020 22/22 Q1013 NOSIG=
200908230330 METAR LMML NIL=
200908230315 METAR COR LMML 230315Z 00000KT 9999 FEW020 22/22 Q1013 NOSIG=
200908230245 METAR LMML 230245Z 00000KT 9999 FEW020 23/22 Q1013 NOSIG=
200908230230 METAR LMML NIL=
200908230215 METAR LMML 230215Z 00000KT 9999 FEW020 23/23 Q1013 NOSIG=
200908230200 METAR LMML NIL=
200908230145 METAR LMML 230145Z VRB01KT CAVOK 23/22 Q1013 NOSIG=
200908230130 METAR LMML NIL=
200908230115 METAR LMML 230115Z VRB02KT CAVOK 24/22 Q1014 NOSIG=
200908230100 METAR LMML NIL=
200908230045 METAR LMML 230045Z VRB03KT CAVOK 24/22 Q1014 NOSIG=
200908230030 METAR LMML NIL=
200908230015 METAR LMML 230015Z VRB03KT CAVOK 24/21 Q1014 NOSIG=
200908230000 METAR LMML NIL=
200908222345 METAR LMML 222345Z 25004KT CAVOK 24/19 Q1014 NOSIG=
200908222330 METAR LMML NIL=
200908222315 METAR LMML 222315Z VRB03KT CAVOK 24/18 Q1014 NOSIG=
200908222245 METAR LMML 222245Z VRB03KT CAVOK 24/19 Q1014 NOSIG=
200908222215 METAR LMML 222215Z VRB02KT CAVOK 24/21 Q1015 NOSIG RMK SMOKE
                        TO SW OF AIRFIELD=
200908222200 METAR LMML NIL=
200908222145 METAR LMML 222145Z VRB02KT CAVOK 24/21 Q1015 NOSIG RMK SMOKE
                        TO SW OF AIRFIELD=
200908222130 METAR LMML NIL=
200908222115 METAR LMML 222115Z VRB02KT CAVOK 25/21 Q1015 NOSIG RMK SMOKE
                        TO SW OF AIRFIELD=
200908222100 METAR LMML NIL=
200908222045 METAR LMML 222045Z VRB03KT CAVOK 26/21 Q1015 NOSIG RMK SMOKE
                        TO SW OF AIRFIELD=
200908222015 METAR LMML 222015Z 33005KT CAVOK 26/21 Q1015 SMOKE TO SW
                        OF AIRFIELD=
200908222000 METAR LMML NIL=
200908221945 METAR LMML 221945Z 35004KT 320V020 CAVOK 26/21 Q1015 NOSIG
                        RMK SMOKE TO SW OF AIRFIELD=
200908221930 METAR LMML NIL=
200908221915 METAR LMML 221915Z 34007KT CAVOK 26/22 Q1014 NOSIG=
200908221900 METAR LMML NIL=
200908221845 METAR LMML 221845Z 33007KT CAVOK 27/21 Q1014 NOSIG=
200908221830 METAR LMML NIL=
200908221815 METAR LMML 221815Z 33008KT CAVOK 27/22 Q1014 NOSIG=
200908221800 METAR LMML NIL=
200908221745 METAR LMML 221745Z 31008KT CAVOK 27/20 Q1014 NOSIG=
200908221730 METAR LMML NIL=
200908221715 METAR LMML 221715Z 30010KT CAVOK 28/21 Q1014 NOSIG=
200908221700 METAR LMML NIL=
200908221645 METAR LMML 221645Z 32006KT 290V360 CAVOK 30/21 Q1014 NOSIG=
200908221630 METAR LMML NIL=
200908221615 METAR LMML 221615Z 02005KT 350V060 CAVOK 31/22 Q1014 NOSIG
                        RMK SMOKE ON AIRFIELD=
200908221600 METAR LMML NIL=
200908221545 METAR LMML 221545Z 03005KT 360V060 9999 FEW030 31/21 Q1014
                        NOSIG=
200908221530 METAR LMML NIL=
200908221515 METAR LMML 221515Z VRB03KT 9999 FEW039 30/21 Q1014 NOSIG=
200908221500 METAR LMML NIL=
200908221445 METAR LMML 221445Z VRB03KT 9999 FEW034 31/21 Q1014 NOSIG=
200908221430 METAR LMML NIL=
200908221415 METAR LMML 221415Z VRB02KT 9999 FEW034 32/21 Q1014 NOSIG=
200908221345 METAR LMML 221345Z VRB03KT 9999 FEW032 31/21 Q1015 NOSIG=
200908221330 METAR LMML NIL=
200908221315 METAR LMML 221315Z VRB02KT 9999 FEW031 31/22 Q1015 NOSIG=
200908221245 METAR LMML 221245Z 31004KT 9999 FEW032 29/22 Q1015 NOSIG=
200908221230 METAR LMML NIL=
200908221200 METAR LMML NIL=
200908221145 METAR LMML 221145Z 04004KT 320V100 9999 FEW030 31/22 Q1015
                        NOSIG=
200908221115 METAR LMML 221115Z 03006KT 310V100 9999 FEW029 32/21 Q1015
                        NOSIG=
200908221100 METAR LMML NIL=
200908221045 METAR LMML 221045Z 04005KT 010V080 9999 FEW029 30/22 Q1015
                        NOSIG=
200908221030 METAR LMML NIL=
200908221015 METAR LMML 221015Z VRB03KT 9999 SCT025 29/22 Q1016 NOSIG=
200908221000 METAR LMML NIL=
200908220945 METAR LMML 220945Z 10006KT 020V170 9999 SCT025 30/23 Q1016
                        NOSIG=
200908220930 METAR LMML NIL=
200908220915 METAR LMML 220915Z VRB03KT 9999 FEW030 31/22 Q1016 NOSIG=
200908220845 METAR LMML 220845Z 01005KT 340V050 9999 FEW030 31/21 Q1016
                        NOSIG=
200908220830 METAR LMML NIL=
200908220815 METAR LMML 220815Z VRB03KT 9999 FEW030 31/19 Q1016 NOSIG=
200908220800 METAR LMML NIL=
200908220745 METAR LMML 220745Z VRB02KT CAVOK 30/19 Q1015 NOSIG=
200908220715 METAR LMML 220715Z VRB02KT CAVOK 28/21 Q1015 NOSIG=
200908220700 METAR LMML NIL=
200908220645 METAR LMML 220645Z VRB02KT CAVOK 27/22 Q1015 NOSIG=
200908220630 METAR LMML NIL=
200908220615 METAR LMML 220615Z VRB03KT 9000 FEW012 26/22 Q1015 BECMG
                        9999=
200908220600 METAR LMML NIL=
200908220545 METAR LMML 220545Z VRB03KT 6000 NSC 25/23 Q1015 BECMG 9999=
200908220515 METAR LMML 220515Z VRB03KT 6000 NSC 24/23 Q1015 BECMG 9999=
200908220445 METAR LMML 220445Z VRB02KT 6000 NSC 24/22 Q1015 TEMPO 5000
                        BR=
200908220430 METAR LMML NIL=
200908220415 METAR LMML 220415Z VRB03KT 6000 NSC 24/22 Q1015 TEMPO 5000
                        BR=
200908220400 METAR LMML NIL=
200908220345 METAR LMML 220345Z VRB03KT CAVOK 24/22 Q1015 NOSIG=
200908220330 METAR LMML NIL=
200908220315 METAR LMML 220315Z VRB02KT CAVOK 25/22 Q1015 NOSIG=
200908220300 METAR LMML NIL=
200908220245 METAR LMML 220245Z VRB03KT CAVOK 25/22 Q1015 NOSIG=
200908220230 METAR LMML NIL=
200908220215 METAR LMML 220215Z VRB03KT CAVOK 25/22 Q1015 NOSIG=
200908220200 METAR LMML NIL=
200908220145 METAR LMML 220145Z 32004KT CAVOK 25/22 Q1015 NOSIG=
200908220130 METAR LMML NIL=
200908220115 METAR LMML 220115Z 31004KT CAVOK 25/22 Q1015 TEMPO 9000 NSC=
200908220100 METAR LMML NIL=
200908220045 METAR LMML 220045Z VRB03KT CAVOK 25/22 Q1016 TEMPO 9000 NSC=
200908220030 METAR LMML NIL=
200908220015 METAR LMML 220015Z 31004KT CAVOK 26/22 Q1016 TEMPO 9000 NSC=
200908220000 METAR LMML NIL=
200908212345 METAR LMML 212345Z VRB03KT CAVOK 26/22 Q1016 TEMPO 9000 NSC=
200908212330 METAR LMML NIL=
200908212315 METAR LMML 212315Z VRB03KT CAVOK 25/22 Q1016 TEMPO 9000 NSC=
200908212300 METAR LMML NIL=
200908212245 METAR LMML 212245Z VRB03KT CAVOK 25/22 Q1016 TEMPO 9000 NSC=
200908212230 METAR LMML NIL=
200908212215 METAR LMML 212215Z VRB02KT CAVOK 25/22 Q1016 NOSIG=
200908212200 METAR LMML NIL=
200908212145 METAR LMML 212145Z VRB03KT CAVOK 26/22 Q1016 NOSIG=
200908212130 METAR LMML NIL=
200908212115 METAR LMML 212115Z VRB01KT CAVOK 26/22 Q1016 NOSIG=
200908212100 METAR LMML NIL=
200908212045 METAR LMML 212045Z VRB03KT CAVOK 26/23 Q1016 NOSIG=
200908212030 METAR LMML NIL=
200908212015 METAR LMML 212015Z 34005KT 310V030 CAVOK 27/23 Q1017 NOSIG=
200908212000 METAR LMML NIL=
200908211945 METAR LMML 211945Z 34004KT 310V030 CAVOK 27/23 Q1017 NOSIG=
200908211930 METAR LMML NIL=
200908211915 METAR LMML 211915Z 34007KT CAVOK 27/22 Q1017 NOSIG=
200908211900 METAR LMML NIL=
200908211845 METAR LMML 211845Z 34007KT CAVOK 27/21 Q1017 NOSIG=
200908211830 METAR LMML NIL=
200908211815 METAR LMML 211815Z 34006KT CAVOK 27/19 Q1016 NOSIG=
200908211800 METAR LMML NIL=
200908211745 METAR LMML 211745Z 34008KT 320V030 CAVOK 28/19 Q1016 NOSIG=
200908211730 METAR LMML NIL=
200908211715 METAR LMML 211715Z 34006KT 310V010 CAVOK 29/20 Q1016 NOSIG=
200908211700 METAR LMML NIL=
200908211645 METAR LMML 211645Z 01006KT 290V040 CAVOK 30/21 Q1016 NOSIG=
200908211630 METAR LMML NIL=
200908211615 METAR LMML 211615Z 02005KT 360V070 9999 FEW031 30/20 Q1016
                        NOSIG=
200908211600 METAR LMML NIL=
200908211545 METAR LMML 211545Z 02005KT 9999 FEW030 31/19 Q1016 NOSIG=
200908211530 METAR LMML NIL=
200908211515 METAR LMML 211515Z VRB03KT 9999 FEW033 31/21 Q1016 NOSIG=
200908211500 METAR LMML NIL=
200908211445 METAR LMML 211445Z 19005KT 120V250 9999 FEW040 30/22 Q1017
                        NOSIG=
200908211430 METAR LMML NIL=
200908211415 METAR LMML 211415Z 04006KT 360V080 9999 FEW037 32/19 Q1017
                        NOSIG=
200908211400 METAR LMML NIL=
200908211345 METAR LMML 211345Z VRB03KT 9999 FEW039 33/19 Q1017 NOSIG=
200908211330 METAR LMML NIL=
200908211315 METAR LMML 211315Z 01005KT 340V040 9999 FEW044 33/19 Q1017
                        NOSIG=
200908211300 METAR LMML NIL=
200908211245 METAR LMML 211245Z 01005KT 320V050 9999 FEW040 33/19 Q1017
                        NOSIG=
200908211230 METAR LMML NIL=
200908211215 METAR LMML 211215Z 02005KT 300V080 CAVOK 33/18 Q1017 NOSIG=
200908211200 METAR LMML NIL=
200908211145 METAR LMML 211145Z VRB03KT CAVOK 32/18 Q1018 NOSIG=
200908211115 METAR LMML 211115Z 04004KT 340V110 CAVOK 32/20 Q1018 NOSIG=
200908211100 METAR LMML NIL=
200908211045 METAR LMML 211045Z 05006KT 010V090 CAVOK 31/20 Q1018 NOSIG=
200908211030 METAR LMML NIL=
200908211015 METAR LMML 211015Z 01006KT 310V070 CAVOK 31/19 Q1018 NOSIG=
200908211000 METAR LMML NIL=
200908210945 METAR LMML 210945Z 36007KT 330V030 CAVOK 31/20 Q1018 NOSIG=
200908210930 METAR LMML NIL=
200908210915 METAR LMML 210915Z 03006KT 340V060 CAVOK 31/19 Q1018 NOSIG=
200908210900 METAR LMML NIL=
200908210845 METAR LMML 210845Z 03007KT 340V080 CAVOK 31/20 Q1018 NOSIG=
200908210830 METAR LMML NIL=
200908210815 METAR LMML 210815Z 05008KT 010V080 CAVOK 30/19 Q1018 NOSIG=
200908210800 METAR LMML NIL=
200908210745 METAR LMML 210745Z 03006KT 350V060 CAVOK 30/19 Q1018 NOSIG=
200908210715 METAR LMML 210715Z 03007KT 360V070 CAVOK 29/19 Q1018 NOSIG=
200908210700 METAR LMML NIL=
200908210645 METAR LMML 210645Z 03006KT 010V070 CAVOK 28/20 Q1017 NOSIG=
200908210630 METAR LMML NIL=
200908210615 METAR LMML 210615Z 02004KT 360V060 CAVOK 28/21 Q1017 NOSIG=
200908210600 METAR LMML NIL=
200908210545 METAR LMML 210545Z VRB03KT CAVOK 26/22 Q1017 NOSIG=
200908210515 METAR LMML 210515Z 35004KT CAVOK 25/21 Q1017 NOSIG=
200908210500 METAR LMML NIL=
200908210445 METAR LMML 210445Z 35004KT CAVOK 24/20 Q1017 NOSIG=
200908210430 METAR LMML NIL=
200908210415 METAR LMML 210415Z 34004KT CAVOK 24/20 Q1017 NOSIG=
200908210400 METAR LMML NIL=
200908210345 METAR LMML 210345Z 34004KT CAVOK 24/20 Q1017 NOSIG=
200908210330 METAR LMML NIL=
200908210315 METAR LMML 210315Z VRB03KT CAVOK 24/20 Q1017 NOSIG=
200908210300 METAR LMML NIL=
200908210245 METAR LMML 210245Z VRB03KT CAVOK 24/20 Q1017 NOSIG=
200908210230 METAR LMML NIL=
200908210215 METAR LMML 210215Z 32004KT CAVOK 24/20 Q1017 NOSIG=
200908210200 METAR LMML NIL=
200908210145 METAR LMML 210145Z 32005KT CAVOK 24/21 Q1017 NOSIG=
200908210130 METAR LMML NIL=
200908210115 METAR LMML 210115Z 32004KT CAVOK 24/21 Q1017 NOSIG=
200908210100 METAR LMML NIL=
200908210045 METAR LMML 210045Z 32004KT CAVOK 24/21 Q1017 NOSIG=
200908210030 METAR LMML NIL=
200908210015 METAR LMML 210015Z 31006KT CAVOK 25/22 Q1018 NOSIG=
200908210000 METAR LMML NIL=
200908202345 METAR LMML 202345Z 30004KT CAVOK 25/21 Q1018 NOSIG=
200908202315 METAR LMML 202315Z VRB03KT CAVOK 25/21 Q1018 NOSIG=
200908202300 METAR LMML NIL=
200908202245 METAR LMML 202245Z VRB03KT CAVOK 25/21 Q1018 NOSIG=
200908202230 METAR LMML NIL=
200908202215 METAR LMML 202215Z 34004KT CAVOK 26/22 Q1018 NOSIG=
200908202200 METAR LMML NIL=
200908202145 METAR LMML 202145Z 36007KT CAVOK 26/22 Q1018 NOSIG=
200908202130 METAR LMML NIL=
200908202115 METAR LMML 202115Z 35006KT CAVOK 26/22 Q1018 NOSIG=
200908202100 METAR LMML NIL=
200908202045 METAR LMML 202045Z 36008KT CAVOK 26/22 Q1018 NOSIG=
200908202015 METAR LMML 202015Z 36006KT 320V050 CAVOK 26/22 Q1018 NOSIG=
200908202000 METAR LMML NIL=
200908201945 METAR LMML 201945Z 35007KT CAVOK 26/22 Q1018 NOSIG=
200908201930 METAR LMML NIL=
200908201915 METAR LMML 201915Z 36006KT CAVOK 27/22 Q1018 NOSIG=
200908201900 METAR LMML NIL=
200908201845 METAR LMML 201845Z 36006KT CAVOK 27/21 Q1018 NOSIG=
200908201830 METAR LMML NIL=
200908201815 METAR LMML 201815Z 36005KT 320V050 CAVOK 27/21 Q1018 NOSIG=
200908201800 METAR LMML NIL=
200908201745 METAR LMML 201745Z 36004KT 330V030 CAVOK 28/21 Q1018 NOSIG=
200908201715 METAR LMML 201715Z 02004KT 350V050 CAVOK 29/21 Q1017 NOSIG=
200908201645 METAR LMML 201645Z 02005KT 340V070 CAVOK 30/21 Q1017 NOSIG=
200908201630 METAR LMML NIL=
200908201615 METAR LMML 201615Z 36006KT 340V050 CAVOK 30/21 Q1017 NOSIG=
200908201600 METAR LMML NIL=
200908201545 METAR LMML 201545Z 02005KT 340V060 9999 FEW035 30/21 Q1017
                        NOSIG=
200908201530 METAR LMML NIL=
200908201515 METAR LMML 201515Z 03005KT 360V070 9999 FEW035 31/22 Q1017
                        NOSIG=
200908201445 METAR LMML 201445Z 02004KT 330V080 9999 FEW035 31/22 Q1018
                        NOSIG=
200908201430 METAR LMML NIL=
200908201415 METAR LMML 201415Z 01005KT 320V060 9999 FEW035 31/21 Q1018
                        NOSIG=
200908201400 METAR LMML NIL=
200908201345 METAR LMML 201345Z 36004KT 300V060 9999 FEW035 32/21 Q1018
                        NOSIG=
200908201330 METAR LMML NIL=
200908201315 METAR LMML 201315Z 02004KT 300V120 CAVOK 32/21 Q1018 NOSIG=
200908201300 METAR LMML NIL=
200908201245 METAR LMML 201245Z 03006KT 350V100 9999 FEW035 32/21 Q1018
                        NOSIG=
200908201230 METAR LMML NIL=
200908201215 METAR LMML 201215Z 02005KT 340V070 9999 FEW035 32/21 Q1019
                        NOSIG=
200908201200 METAR LMML NIL=
200908201145 METAR LMML 201145Z 03005KT 340V060 9999 FEW035 32/20 Q1019
                        NOSIG=
200908201130 METAR LMML NIL=
200908201115 METAR LMML 201115Z 04005KT 320V110 9999 FEW035 32/19 Q1019
                        NOSIG=
200908201100 METAR LMML NIL=
200908201045 METAR LMML 201045Z 02005KT 310V110 9999 FEW033 31/19 Q1019
                        NOSIG=
200908201030 METAR LMML NIL=
200908201015 METAR LMML 201015Z 04005KT 350V070 9999 FEW033 31/20 Q1019
                        NOSIG=
200908201000 METAR LMML NIL=
200908200945 METAR LMML 200945Z 03006KT 350V100 CAVOK 31/20 Q1019 NOSIG=
200908200930 METAR LMML NIL=
200908200915 METAR LMML 200915Z 05007KT 020V090 CAVOK 30/19 Q1019 NOSIG=
200908200900 METAR LMML NIL=
200908200845 METAR LMML 200845Z 01007KT 350V060 CAVOK 31/19 Q1019 NOSIG=
200908200830 METAR LMML NIL=
200908200815 METAR LMML 200815Z 01006KT 330V040 9999 FEW025 31/19 Q1019
                        NOSIG=
200908200800 METAR LMML NIL=
200908200745 METAR LMML 200745Z 03005KT 350V100 CAVOK 30/19 Q1019 NOSIG=
200908200715 METAR LMML 200715Z 04005KT 360V080 CAVOK 29/19 Q1018 NOSIG=
200908200700 METAR LMML NIL=
200908200645 METAR LMML 200645Z 04006KT 020V080 CAVOK 29/19 Q1018 NOSIG=
200908200630 METAR LMML NIL=
200908200615 METAR LMML 200615Z 05005KT 010V080 CAVOK 28/21 Q1018 NOSIG=
200908200600 METAR LMML NIL=
200908200545 METAR LMML 200545Z VRB02KT CAVOK 26/21 Q1018 NOSIG=
200908200530 METAR LMML NIL=
200908200515 METAR LMML 200515Z VRB01KT CAVOK 24/22 Q1018 NOSIG=
200908200500 METAR LMML NIL=
200908200445 METAR LMML 200445Z VRB01KT CAVOK 23/21 Q1018 NOSIG=
200908200430 METAR LMML NIL=
200908200415 METAR LMML 200415Z VRB01KT CAVOK 24/21 Q1017 NOSIG=
200908200400 METAR LMML NIL=
200908200345 METAR LMML 200345Z VRB03KT CAVOK 24/22 Q1017 NOSIG=
200908200330 METAR LMML NIL=
200908200315 METAR LMML 200315Z VRB03KT CAVOK 24/22 Q1017 NOSIG=
200908200300 METAR LMML NIL=
200908200245 METAR LMML 200245Z VRB03KT CAVOK 24/21 Q1017 NOSIG=
200908200230 METAR LMML NIL=
200908200215 METAR LMML 200215Z VRB02KT CAVOK 24/21 Q1017 NOSIG=
200908200200 METAR LMML NIL=
200908200145 METAR LMML 200145Z VRB02KT CAVOK 25/21 Q1018 NOSIG=
200908200130 METAR LMML NIL=
200908200115 METAR LMML 200115Z VRB02KT CAVOK 25/21 Q1018 NOSIG=
200908200100 METAR LMML NIL=
200908200045 METAR LMML 200045Z VRB03KT CAVOK 24/20 Q1018 NOSIG=
200908200030 METAR LMML NIL=
200908200015 METAR LMML 200015Z VRB01KT CAVOK 24/21 Q1018 NOSIG=
200908200000 METAR LMML NIL=
200908192345 METAR LMML 192345Z VRB01KT CAVOK 24/21 Q1018 NOSIG=
200908192330 METAR LMML NIL=
200908192315 METAR LMML 192315Z VRB01KT CAVOK 24/21 Q1018 NOSIG=
200908192245 METAR LMML 192245Z VRB02KT CAVOK 24/20 Q1019 NOSIG=
200908192230 METAR LMML NIL=
200908192215 METAR LMML 192215Z VRB02KT CAVOK 25/22 Q1019 NOSIG=
200908192200 METAR LMML NIL=
200908192145 METAR LMML 192145Z VRB02KT CAVOK 25/21 Q1019 NOSIG=
200908192130 METAR LMML NIL=
200908192115 METAR LMML 192115Z VRB01KT CAVOK 26/22 Q1019 NOSIG=
200908192100 METAR LMML NIL=
200908192045 METAR LMML 192045Z VRB02KT CAVOK 26/22 Q1019 NOSIG=
200908192030 METAR LMML NIL=
200908192015 METAR LMML 192015Z VRB01KT CAVOK 26/22 Q1019 NOSIG=
200908192000 METAR LMML NIL=
200908191945 METAR LMML 191945Z VRB02KT CAVOK 26/21 Q1018 NOSIG=
200908191930 METAR LMML NIL=
200908191915 METAR LMML 191915Z VRB03KT CAVOK 27/21 Q1018 NOSIG=
200908191900 METAR LMML NIL=
200908191845 METAR LMML 191845Z 08004KT CAVOK 27/20 Q1018 NOSIG=
200908191830 METAR LMML NIL=
200908191815 METAR LMML 191815Z VRB02KT CAVOK 27/20 Q1018 NOSIG=
200908191800 METAR LMML NIL=
200908191745 METAR LMML 191745Z VRB03KT CAVOK 28/19 Q1017 NOSIG=
200908191715 METAR LMML 191715Z 12004KT 9999 FEW034 FEW250 28/21 Q1017
                        NOSIG=
200908191700 METAR LMML NIL=
200908191645 METAR LMML 191645Z VRB03KT 9999 FEW034 29/21 Q1017 NOSIG=
200908191630 METAR LMML NIL=
200908191615 METAR LMML 191615Z 17004KT 130V230 9999 FEW034 29/21 Q1017
                        NOSIG=
200908191600 METAR LMML NIL=
200908191545 METAR LMML 191545Z 17004KT 100V250 9999 FEW036 30/21 Q1017
                        NOSIG=
200908191530 METAR LMML NIL=
200908191515 METAR LMML 191515Z 13005KT 070V160 9999 FEW037 30/21 Q1018
                        NOSIG=
200908191500 METAR LMML NIL=
200908191445 METAR LMML 191445Z 13005KT 9999 FEW036 29/21 Q1018 NOSIG=
200908191430 METAR LMML NIL=
200908191415 METAR LMML 191415Z 20004KT 100V310 9999 FEW035 31/20 Q1018
                        NOSIG=
200908191400 METAR LMML NIL=
200908191345 METAR LMML 191345Z 11004KT 360V260 9999 FEW035 31/19 Q1018
                        NOSIG=
200908191330 METAR LMML NIL=
200908191315 METAR LMML 191315Z 09005KT 010V180 9999 FEW035 31/19 Q1018
                        NOSIG=
200908191300 METAR LMML NIL=
200908191245 METAR LMML 191245Z 26004KT 9999 FEW035 32/17 Q1018 NOSIG=
200908191230 METAR LMML NIL=
200908191215 METAR LMML 191215Z 18004KT 130V230 9999 FEW035 31/20 Q1018
                        NOSIG=
200908191200 METAR LMML NIL=
200908191145 METAR LMML 191145Z 20004KT 140V250 9999 FEW030 31/21 Q1018
                        NOSIG=
200908191130 METAR LMML NIL=
200908191115 METAR LMML 191115Z VRB03KT 9999 FEW030 33/16 Q1018 NOSIG=
200908191045 METAR LMML 191045Z 05005KT 290V120 9999 FEW030 32/17 Q1018
                        NOSIG=
200908191030 METAR LMML NIL=
200908191015 METAR LMML 191015Z 02005KT 340V070 9999 FEW030 33/18 Q1018
                        NOSIG=
200908191000 METAR LMML NIL=
200908190945 METAR LMML 190945Z 03005KT 350V070 9999 FEW030 32/20 Q1018
                        NOSIG=
200908190930 METAR LMML NIL=
200908190915 METAR LMML 190915Z 04004KT 310V110 CAVOK 33/17 Q1018 NOSIG=
200908190900 METAR LMML NIL=
200908190845 METAR LMML 190845Z VRB03KT CAVOK 31/17 Q1018 NOSIG=
200908190830 METAR LMML NIL=
200908190815 METAR LMML 190815Z 04004KT 320V090 CAVOK 31/17 Q1018 NOSIG=
200908190800 METAR LMML NIL=
200908190745 METAR LMML 190745Z VRB02KT CAVOK 30/19 Q1018 NOSIG=
200908190715 METAR LMML 190715Z VRB02KT CAVOK 30/19 Q1018 NOSIG=
200908190700 METAR LMML NIL=
200908190645 METAR LMML 190645Z VRB03KT CAVOK 28/18 Q1018 NOSIG=
200908190630 METAR LMML NIL=
200908190615 METAR LMML 190615Z VRB02KT CAVOK 27/19 Q1017 NOSIG=
200908190545 METAR LMML 190545Z VRB02KT CAVOK 26/19 Q1017 NOSIG=
200908190530 METAR LMML NIL=
200908190515 METAR LMML 190515Z VRB02KT CAVOK 24/19 Q1017 NOSIG=
200908190500 METAR LMML NIL=
200908190445 METAR LMML 190445Z VRB03KT CAVOK 24/20 Q1017 NOSIG=
200908190430 METAR LMML NIL=
200908190415 METAR LMML 190415Z VRB03KT CAVOK 23/19 Q1017 NOSIG=
200908190400 METAR LMML NIL=
200908190345 METAR LMML 190345Z VRB02KT CAVOK 23/18 Q1017 NOSIG=
200908190330 METAR LMML NIL=
200908190315 METAR LMML 190315Z VRB02KT CAVOK 23/20 Q1016 NOSIG=
200908190300 METAR LMML NIL=
200908190245 METAR LMML 190245Z VRB02KT CAVOK 23/20 Q1017 NOSIG=
200908190230 METAR LMML NIL=
200908190215 METAR LMML 190215Z VRB01KT CAVOK 24/19 Q1017 NOSIG=
200908190200 METAR LMML NIL=
200908190145 METAR LMML 190145Z VRB03KT CAVOK 24/20 Q1017 NOSIG=
200908190130 METAR LMML NIL=
200908190115 METAR LMML 190115Z VRB02KT CAVOK 24/20 Q1017 NOSIG=
200908190100 METAR LMML NIL=
200908190045 METAR LMML 190045Z VRB02KT CAVOK 24/20 Q1017 NOSIG=
200908190030 METAR LMML NIL=
200908190015 METAR LMML 190015Z VRB01KT CAVOK 25/21 Q1017 NOSIG=
200908182345 METAR LMML 182345Z VRB03KT CAVOK 25/21 Q1017 NOSIG=
200908182330 METAR LMML NIL=
200908182315 METAR LMML 182315Z VRB03KT CAVOK 25/21 Q1017 NOSIG=
200908182300 METAR LMML NIL=
200908182245 METAR LMML 182245Z VRB02KT CAVOK 25/21 Q1018 NOSIG=
200908182230 METAR LMML NIL=
200908182215 METAR LMML 182215Z VRB03KT CAVOK 25/21 Q1018 NOSIG=
200908182200 METAR LMML NIL=
200908182145 METAR LMML 182145Z VRB02KT CAVOK 25/21 Q1018 NOSIG=
200908182130 METAR LMML NIL=
200908182115 METAR LMML 182115Z VRB02KT CAVOK 26/21 Q1018 NOSIG=
200908182100 METAR LMML NIL=
200908182045 METAR LMML 182045Z VRB03KT CAVOK 26/21 Q1017 NOSIG=
200908182030 METAR LMML NIL=
200908182015 METAR LMML 182015Z VRB03KT CAVOK 26/21 Q1017 NOSIG=
200908182000 METAR LMML NIL=
200908181945 METAR LMML 181945Z VRB03KT CAVOK 27/21 Q1017 NOSIG=
200908181915 METAR LMML 181915Z VRB03KT CAVOK 27/20 Q1017 NOSIG=
200908181900 METAR LMML NIL=
200908181845 METAR LMML 181845Z VRB03KT CAVOK 27/20 Q1017 NOSIG=
200908181830 METAR LMML NIL=
200908181815 METAR LMML 181815Z VRB03KT CAVOK 27/20 Q1016 NOSIG=
200908181800 METAR LMML NIL=
200908181745 METAR LMML 181745Z 02005KT 350V060 9999 FEW038 28/21 Q1016
                        NOSIG=
200908181730 METAR LMML NIL=
200908181715 METAR LMML 181715Z 01006KT 9999 FEW038 29/20 Q1016 NOSIG=
200908181700 METAR LMML NIL=
200908181645 METAR LMML 181645Z VRB03KT 9999 FEW038 29/20 Q1016 NOSIG=
200908181630 METAR LMML NIL=
200908181615 METAR LMML 181615Z 23004KT 190V270 9999 FEW038 29/20 Q1015
                        NOSIG=
200908181600 METAR LMML NIL=
200908181545 METAR LMML 181545Z VRB03KT 9999 FEW038 30/20 Q1015 NOSIG=
200908181530 METAR LMML NIL=
200908181515 METAR LMML 181515Z 18004KT 080V310 9999 FEW038 30/21 Q1016
                        NOSIG=
200908181500 METAR LMML NIL=
200908181445 METAR LMML 181445Z 20004KT 100V300 9999 FEW038 30/20 Q1016
                        NOSIG=
200908181415 METAR LMML 181415Z 21005KT 140V280 9999 FEW040 31/20 Q1016
                        NOSIG=
200908181400 METAR LMML NIL=
200908181345 METAR LMML 181345Z 14004KT 060V220 9999 FEW030 31/20 Q1016
                        NOSIG=
200908181330 METAR LMML NIL=
200908181315 METAR LMML 181315Z VRB03KT 9999 FEW030 32/20 Q1016 NOSIG=
200908181300 METAR LMML NIL=
200908181245 METAR LMML 181245Z 04004KT 220V160 9999 FEW030 32/18 Q1016
                        NOSIG=
200908181230 METAR LMML NIL=
200908181215 METAR LMML 181215Z VRB02KT 9999 FEW030 32/18 Q1016 NOSIG=
200908181145 METAR LMML 181145Z 20005KT 090V300 9999 FEW030 30/20 Q1016
                        NOSIG=
200908181115 METAR LMML 181115Z 03004KT 350V080 9999 FEW030 32/16 Q1016
                        NOSIG=
200908181100 METAR LMML NIL=
200908181045 METAR LMML 181045Z 03005KT 330V090 9999 FEW030 32/17 Q1016
                        NOSIG=
200908181030 METAR LMML NIL=
200908181015 METAR LMML 181015Z 05006KT 340V120 9999 FEW030 33/17 Q1016
                        NOSIG=
200908181000 METAR LMML NIL=
200908180945 METAR LMML 180945Z 03005KT 9999 FEW030 32/18 Q1016 NOSIG=
200908180930 METAR LMML NIL=
200908180915 METAR LMML 180915Z 04004KT 350V140 9999 FEW030 32/19 Q1016
                        NOSIG=
200908180900 METAR LMML NIL=
200908180845 METAR LMML 180845Z 03005KT 350V100 9999 FEW030 31/20 Q1016
                        NOSIG=
200908180830 METAR LMML NIL=
200908180815 METAR LMML 180815Z 12004KT 040V180 CAVOK 30/19 Q1016 NOSIG=
200908180800 METAR LMML NIL=
200908180745 METAR LMML 180745Z VRB03KT CAVOK 29/19 Q1016 NOSIG=
200908180730 METAR LMML NIL=
200908180715 METAR LMML 180715Z VRB03KT CAVOK 29/20 Q1016 NOSIG=
200908180645 METAR LMML 180645Z VRB03KT CAVOK 27/22 Q1015 NOSIG=
200908180615 METAR LMML 180615Z VRB03KT CAVOK 26/22 Q1015 NOSIG=
200908180600 METAR LMML NIL=
200908180545 METAR LMML 180545Z VRB02KT CAVOK 25/22 Q1015 NOSIG=
200908180530 METAR LMML NIL=
200908180515 METAR LMML 180515Z VRB03KT CAVOK 24/21 Q1015 NOSIG=
200908180500 METAR LMML NIL=
200908180445 METAR LMML 180445Z VRB03KT CAVOK 23/21 Q1015 NOSIG=
200908180430 METAR LMML NIL=
200908180415 METAR LMML 180415Z VRB03KT CAVOK 23/21 Q1015 NOSIG=
200908180400 METAR LMML NIL=
200908180345 METAR LMML 180345Z VRB03KT CAVOK 23/21 Q1014 NOSIG=
200908180330 METAR LMML NIL=
200908180315 METAR LMML 180315Z VRB03KT CAVOK 23/21 Q1014 NOSIG=
200908180300 METAR LMML NIL=
200908180245 METAR LMML 180245Z 32004KT CAVOK 23/21 Q1014 NOSIG=
200908180230 METAR LMML NIL=
200908180215 METAR LMML 180215Z 31005KT CAVOK 23/21 Q1014 NOSIG=
200908180200 METAR LMML NIL=
200908180145 METAR LMML 180145Z 32005KT CAVOK 23/21 Q1014 NOSIG=
200908180130 METAR LMML NIL=
200908180115 METAR LMML 180115Z 31004KT CAVOK 24/21 Q1014 NOSIG=
200908180100 METAR LMML NIL=
200908180045 METAR LMML 180045Z 31005KT CAVOK 24/21 Q1015 NOSIG=
200908180030 METAR LMML NIL=
200908180015 METAR LMML 180015Z 31005KT CAVOK 24/21 Q1015 NOSIG=
200908180000 METAR LMML NIL=
200908172345 METAR LMML 172345Z VRB03KT CAVOK 24/21 Q1015 NOSIG=
200908172330 METAR LMML NIL=
200908172315 METAR LMML 172315Z VRB02KT CAVOK 25/21 Q1015 NOSIG=
200908172300 METAR LMML NIL=
200908172245 METAR LMML 172245Z VRB03KT CAVOK 25/21 Q1015 NOSIG=
200908172230 METAR LMML NIL=
200908172215 METAR LMML 172215Z 30004KT CAVOK 25/21 Q1015 NOSIG=
200908172200 METAR LMML NIL=
200908172145 METAR LMML 172145Z 31005KT CAVOK 25/21 Q1015 NOSIG=
200908172130 METAR LMML NIL=
200908172115 METAR LMML 172115Z 31005KT CAVOK 25/22 Q1015 NOSIG=
200908172100 METAR LMML NIL=
200908172045 METAR LMML 172045Z 31004KT CAVOK 26/22 Q1015 NOSIG=
200908172030 METAR LMML NIL=
200908172015 METAR LMML 172015Z VRB03KT CAVOK 26/22 Q1015 NOSIG=
200908172000 METAR LMML NIL=
200908171945 METAR LMML 171945Z 29004KT 260V340 CAVOK 26/22 Q1015 NOSIG=
200908171930 METAR LMML NIL=
200908171915 METAR LMML 171915Z 28005KT 250V320 CAVOK 26/22 Q1014 NOSIG=
200908171900 METAR LMML NIL=
200908171845 METAR LMML 171845Z 27004KT 230V300 CAVOK 26/22 Q1014 NOSIG=
200908171830 METAR LMML NIL=
200908171815 METAR LMML 171815Z 25005KT 200V280 CAVOK 27/21 Q1014 NOSIG=
200908171800 METAR LMML NIL=
200908171745 METAR LMML 171745Z 25005KT 220V290 CAVOK 27/21 Q1014 NOSIG=
200908171730 METAR LMML NIL=
200908171715 METAR LMML 171715Z 23007KT 200V270 CAVOK 28/20 Q1013 NOSIG=
200908171700 METAR LMML NIL=
200908171645 METAR LMML 171645Z 23007KT 210V270 CAVOK 28/19 Q1013 NOSIG=
200908171630 METAR LMML NIL=
200908171615 METAR LMML 171615Z 24007KT 210V280 9999 FEW040 30/18 Q1013
                        NOSIG=
200908171600 METAR LMML NIL=
200908171545 METAR LMML 171545Z 22006KT 200V260 9999 FEW040 30/15 Q1014
                        NOSIG=
200908171530 METAR LMML NIL=
200908171515 METAR LMML 171515Z 23005KT 200V290 9999 FEW040 30/18 Q1014
                        NOSIG=
200908171500 METAR LMML NIL=
200908171445 METAR LMML 171445Z 21006KT 170V260 9999 FEW040 30/18 Q1014
                        NOSIG=
200908171430 METAR LMML NIL=
200908171415 METAR LMML 171415Z 23007KT 200V280 9999 FEW040 31/14 Q1014
                        NOSIG=
200908171400 METAR LMML NIL=
200908171345 METAR LMML 171345Z VRB03KT 9999 FEW045 32/14 Q1014 NOSIG=
200908171330 METAR LMML NIL=
200908171315 METAR LMML 171315Z 11005KT 030V160 9999 FEW045 32/14 Q1014
                        NOSIG=
200908171245 METAR LMML 171245Z 10005KT 010V180 9999 FEW045 32/15 Q1014
                        NOSIG=
200908171230 METAR LMML NIL=
200908171215 METAR LMML 171215Z 13005KT 070V210 9999 FEW045 SCT250 32/15
                        Q1015 NOSIG=
200908171200 METAR LMML NIL=
200908171145 METAR LMML 171145Z 13005KT 040V220 9999 FEW049 31/17 Q1015
                        NOSIG=
200908171115 METAR LMML 171115Z 19005KT 160V250 9999 FEW041 SCT250 30/19
                        Q1015 NOSIG=
200908171045 METAR LMML 171045Z 23006KT 190V300 9999 FEW045 29/20 Q1015
                        NOSIG=
200908171030 METAR LMML NIL=
200908171015 METAR LMML 171015Z VRB03KT 9999 FEW041 31/18 Q1015 NOSIG=
200908171000 METAR LMML NIL=
200908170945 METAR LMML 170945Z VRB03KT 9999 FEW030 SCT250 31/19 Q1015
                        NOSIG=
200908170930 METAR LMML NIL=
200908170915 METAR LMML 170915Z 06005KT 350V120 CAVOK 31/18 Q1015 NOSIG=
200908170900 METAR LMML NIL=
200908170845 METAR LMML 170845Z 03006KT 360V070 CAVOK 31/20 Q1015 NOSIG=
200908170830 METAR LMML NIL=
200908170815 METAR LMML 170815Z 02004KT 360V060 CAVOK 30/21 Q1015 NOSIG=
200908170745 METAR LMML 170745Z VRB03KT CAVOK 30/19 Q1015 NOSIG=
200908170730 METAR LMML NIL=
200908170715 METAR LMML 170715Z 05004KT 350V100 CAVOK 29/19 Q1015 NOSIG=
200908170700 METAR LMML NIL=
200908170645 METAR LMML 170645Z VRB02KT CAVOK 28/21 Q1015 NOSIG=
200908170630 METAR LMML NIL=
200908170615 METAR LMML 170615Z VRB02KT CAVOK 26/22 Q1015 NOSIG=
200908170545 METAR LMML 170545Z VRB02KT CAVOK 25/22 Q1015 NOSIG=
200908170530 METAR LMML NIL=
200908170515 METAR LMML 170515Z VRB03KT CAVOK 24/22 Q1015 TEMPO 8000 NSC=
200908170500 METAR LMML NIL=
200908170445 METAR LMML 170445Z VRB03KT CAVOK 23/21 Q1015 TEMPO 8000 NSC=
200908170430 METAR LMML NIL=
200908170415 METAR LMML 170415Z VRB03KT CAVOK 23/21 Q1014 TEMPO 8000 NSC=
200908170400 METAR LMML NIL=
200908170345 METAR LMML 170345Z VRB02KT CAVOK 23/21 Q1014 TEMPO 8000 NSC=
200908170315 METAR LMML 170315Z VRB02KT CAVOK 23/21 Q1014 TEMPO 8000 NSC=
200908170245 METAR LMML 170245Z VRB01KT CAVOK 23/21 Q1014 TEMPO 8000 NSC=
200908170230 METAR LMML NIL=
200908170215 METAR LMML 170215Z VRB01KT CAVOK 23/21 Q1014 TEMPO 8000 NSC=
200908170200 METAR LMML NIL=
200908170145 METAR LMML 170145Z VRB02KT CAVOK 24/22 Q1014 TEMPO 8000 NSC=
200908170130 METAR LMML NIL=
200908170115 METAR LMML 170115Z VRB03KT CAVOK 24/22 Q1014 NOSIG=
200908170100 METAR LMML NIL=
200908170045 METAR LMML 170045Z VRB02KT CAVOK 24/22 Q1014 NOSIG=
200908170015 METAR LMML 170015Z VRB01KT CAVOK 24/22 Q1015 NOSIG=
200908170000 METAR LMML NIL=
200908162345 METAR LMML 162345Z VRB03KT CAVOK 25/22 Q1015 NOSIG=
200908162330 METAR LMML NIL=
200908162315 METAR LMML 162315Z VRB03KT CAVOK 25/22 Q1016 NOSIG=
200908162245 METAR LMML 162245Z VRB03KT CAVOK 25/22 Q1016 NOSIG=
200908162230 METAR LMML NIL=
200908162215 METAR LMML 162215Z VRB02KT CAVOK 25/22 Q1016 NOSIG=
200908162145 METAR LMML 162145Z VRB03KT CAVOK 25/22 Q1016 NOSIG=
200908162130 METAR LMML NIL=
200908162115 METAR LMML 162115Z 08004KT CAVOK 25/22 Q1016 NOSIG=
200908162100 METAR LMML NIL=
200908162045 METAR LMML 162045Z VRB03KT CAVOK 25/22 Q1016 NOSIG=
200908162030 METAR LMML NIL=
200908162015 METAR LMML 162015Z VRB03KT CAVOK 25/22 Q1016 NOSIG=
200908162000 METAR LMML NIL=
200908161945 METAR LMML 161945Z 13004KT CAVOK 25/22 Q1016 NOSIG=
200908161930 METAR LMML NIL=
200908161915 METAR LMML 161915Z 13004KT CAVOK 25/22 Q1015 NOSIG=
200908161900 METAR LMML NIL=
200908161845 METAR LMML 161845Z 13005KT CAVOK 25/22 Q1015 NOSIG=
200908161830 METAR LMML NIL=
200908161815 METAR LMML 161815Z 14005KT CAVOK 26/22 Q1015 NOSIG=
200908161800 METAR LMML NIL=
200908161745 METAR LMML 161745Z 13005KT CAVOK 26/22 Q1015 NOSIG=
200908161730 METAR LMML NIL=
200908161715 METAR LMML 161715Z 13006KT CAVOK 27/21 Q1015 NOSIG=
200908161700 METAR LMML NIL=
200908161645 METAR LMML 161645Z 14006KT 120V180 CAVOK 28/21 Q1015 NOSIG=
200908161630 METAR LMML NIL=
200908161615 METAR LMML 161615Z 13006KT 100V160 CAVOK 28/21 Q1015 NOSIG=
200908161545 METAR LMML 161545Z 14006KT 100V180 CAVOK 29/20 Q1015 NOSIG=
200908161530 METAR LMML NIL=
200908161515 METAR LMML 161515Z 12007KT 090V170 CAVOK 29/21 Q1015 NOSIG=
200908161500 METAR LMML NIL=
200908161445 METAR LMML 161445Z 14007KT 100V180 CAVOK 29/21 Q1015 NOSIG=
200908161430 METAR LMML NIL=
200908161415 METAR LMML 161415Z 13006KT 080V180 CAVOK 30/20 Q1015 NOSIG=
200908161400 METAR LMML NIL=
200908161345 METAR LMML 161345Z 14007KT 080V200 CAVOK 29/21 Q1016 NOSIG=
200908161330 METAR LMML NIL=
200908161315 METAR LMML 161315Z 14008KT 080V180 9999 FEW015 29/21 Q1016
                        NOSIG=
200908161300 METAR LMML NIL=
200908161245 METAR LMML 161245Z 12007KT 070V150 9999 FEW015 29/21 Q1016
                        NOSIG=
200908161215 METAR LMML 161215Z 12008KT 080V160 9999 FEW015 29/21 Q1016
                        NOSIG=
200908161200 METAR LMML NIL=
200908161145 METAR LMML 161145Z 13007KT 100V170 9999 FEW015 29/19 Q1016
                        NOSIG=
200908161115 METAR LMML 161115Z 13008KT 080V160 9999 FEW015 30/21 Q1016
                        NOSIG=
200908161100 METAR LMML NIL=
200908161045 METAR LMML 161045Z 12007KT 080V170 9999 FEW015 30/19 Q1017
                        NOSIG=
200908161030 METAR LMML NIL=
200908161015 METAR LMML 161015Z 10007KT 050V130 9999 FEW015 29/20 Q1017
                        NOSIG=
200908161000 METAR LMML NIL=
200908160945 METAR LMML 160945Z 12007KT 080V170 9999 FEW015 29/21 Q1017
                        NOSIG=
200908160930 METAR LMML NIL=
200908160915 METAR LMML 160915Z 13005KT 080V180 9999 FEW015 29/22 Q1018
                        NOSIG=
200908160900 METAR LMML NIL=
200908160845 METAR LMML 160845Z 11007KT 060V150 9999 FEW014 29/22 Q1017
                        NOSIG=
200908160830 METAR LMML NIL=
200908160815 METAR LMML 160815Z 12006KT 080V160 9999 FEW015 28/21 Q1017
                        NOSIG=
200908160800 METAR LMML NIL=
200908160745 METAR LMML 160745Z 12006KT 070V150 9999 FEW015 28/21 Q1017
                        NOSIG=
200908160730 METAR LMML NIL=
200908160715 METAR LMML 160715Z 09006KT 030V120 9999 FEW015 27/22 Q1017
                        NOSIG=
200908160700 METAR LMML NIL=
200908160645 METAR LMML 160645Z 09005KT 9999 FEW012 27/22 Q1017 NOSIG=
200908160630 METAR LMML NIL=
200908160615 METAR LMML 160615Z 10006KT 060V130 9999 FEW012 26/22 Q1017
                        NOSIG=
200908160600 METAR LMML NIL=
200908160545 METAR LMML 160545Z 10005KT 9999 FEW011 25/23 Q1017 NOSIG=
200908160515 METAR LMML 160515Z 09004KT 030V120 9999 FEW011 24/22 Q1017
                        TEMPO 8000 BKN008=
200908160500 METAR LMML NIL=
200908160445 METAR LMML 160445Z 08004KT 9999 FEW011 24/22 Q1016 TEMPO
                        8000 BKN008=
200908160430 METAR LMML NIL=
200908160415 METAR LMML 160415Z 09004KT 9999 FEW011 24/22 Q1016 TEMPO
                        8000 BKN008=
200908160400 METAR LMML NIL=
200908160345 METAR LMML 160345Z 09004KT 9999 SCT011 24/22 Q1016 TEMPO
                        8000 BKN008=
200908160330 METAR LMML NIL=
200908160315 METAR LMML 160315Z VRB03KT 9999 FEW011 24/22 Q1016 TEMPO
                        8000 BKN008=
200908160300 METAR LMML NIL=
200908160245 METAR LMML 160245Z VRB03KT 9999 FEW009 24/22 Q1016 TEMPO
                        8000 BKN008=
200908160230 METAR LMML NIL=
200908160215 METAR LMML 160215Z VRB03KT 9999 SCT009 24/22 Q1016 TEMPO
                        8000 BKN008=
200908160200 METAR LMML NIL=
200908160145 METAR LMML 160145Z VRB03KT 9999 SCT009 24/22 Q1016 TEMPO
                        8000 BKN008=
200908160130 METAR LMML NIL=
200908160115 METAR LMML 160115Z 09004KT 060V130 9999 FEW010 24/22 Q1016
                        TEMPO 8000 BKN008=
200908160100 METAR LMML NIL=
200908160045 METAR LMML 160045Z 10004KT 9999 FEW010 24/22 Q1016 TEMPO
                        8000 BKN008=
200908160030 METAR LMML NIL=
200908160015 METAR LMML 160015Z 09005KT 060V120 9999 FEW010 25/22 Q1016
                        TEMPO 8000 BKN008=
200908152345 METAR LMML 152345Z 09005KT 9999 FEW010 25/22 Q1017 TEMPO
                        8000 BKN008=
200908152330 METAR LMML NIL=
200908152315 METAR LMML 152315Z 10005KT 9999 FEW010 25/23 Q1017 TEMPO
                        8000 BKN008=
200908152300 METAR LMML NIL=
200908152245 METAR LMML 152245Z 09004KT 060V120 9999 FEW010 25/23 Q1018
                        TEMPO 8000 BKN008=
200908152230 METAR LMML NIL=
200908152215 METAR LMML 152215Z 10004KT 9999 FEW010 25/22 Q1018 TEMPO
                        8000=
200908152200 METAR LMML NIL=
200908152145 METAR LMML 152145Z 11005KT 9999 FEW010 25/22 Q1018 TEMPO
                        8000=
200908152130 METAR LMML NIL=
200908152115 METAR LMML 152115Z 10006KT 9999 FEW010 25/22 Q1018 TEMPO
                        8000=
200908152100 METAR LMML NIL=
200908152045 METAR LMML 152045Z 11005KT 070V130 9999 FEW010 25/23 Q1018
                        TEMPO 8000=
200908152030 METAR LMML NIL=
200908152015 METAR LMML 152015Z 11006KT 9999 FEW014 25/23 Q1018 TEMPO
                        8000=
200908152000 METAR LMML NIL=
200908151945 METAR LMML 151945Z 11006KT 9999 FEW014 25/23 Q1017 TEMPO
                        8000=
200908151930 METAR LMML NIL=
200908151915 METAR LMML 151915Z 10007KT 9999 FEW014 26/23 Q1017 TEMPO
                        8000=
200908151900 METAR LMML NIL=
200908151845 METAR LMML 151845Z 11007KT 080V140 9999 FEW014 26/22 Q1017
                        TEMPO 8000=
200908151830 METAR LMML NIL=
200908151815 METAR LMML 151815Z 09008KT 070V140 9999 FEW014 26/22 Q1016
                        TEMPO 8000=
200908151800 METAR LMML NIL=
200908151745 METAR LMML 151745Z 11009KT 9999 FEW011 26/22 Q1016 TEMPO
                        BKN011=
200908151730 METAR LMML NIL=
200908151715 METAR LMML 151715Z 11008KT 080V140 9999 FEW011 27/23 Q1016
                        TEMPO BKN011=
200908151700 METAR LMML NIL=
200908151645 METAR LMML 151645Z 10009KT 060V130 9999 SCT011 27/23 Q1016
                        TEMPO BKN011 RMK CB TOP TO NORTH=
200908151630 METAR LMML NIL=
200908151615 METAR LMML 151615Z 11008KT 080V140 9999 SCT011 28/23 Q1016
                        TEMPO BKN011=
200908151600 METAR LMML NIL=
200908151545 METAR LMML 151545Z 12008KT 090V170 9999 SCT011 28/23 Q1016
                        NOSIG=
200908151530 METAR LMML NIL=
200908151515 METAR LMML 151515Z 10008KT 060V150 9999 FEW011 28/22 Q1016
                        NOSIG=
200908151500 METAR LMML NIL=
200908151445 METAR LMML 151445Z 11008KT 060V160 9999 FEW011 29/23 Q1016
                        NOSIG=
200908151430 METAR LMML NIL=
200908151415 METAR LMML 151415Z 10008KT 060V140 9999 SCT011 29/22 Q1016
                        NOSIG=
200908151345 METAR COR LMML 151345Z 10008KT 070V140 9999 SCT012 29/23
                        Q1016 NOSIG=
200908151315 METAR LMML 151315Z 12008KT 080V150 9999 FEW012 SCT120 28/22
                        Q1017 NOSIG=
200908151245 METAR LMML 151245Z 11007KT 070V170 9999 FEW014 BKN120 29/21
                        Q1017 NOSIG=
200908151230 METAR LMML NIL=
200908151215 METAR LMML 151215Z 13007KT 090V160 9999 FEW015 BKN120 29/21
                        Q1017 NOSIG=
200908151200 METAR LMML NIL=
200908151145 METAR LMML 151145Z 17007KT 130V210 9999 FEW016 SCT120 30/21
                        Q1017 NOSIG=
200908151130 METAR LMML NIL=
200908151115 METAR LMML 151115Z 17006KT 120V220 9999 FEW016 30/22 Q1017
                        NOSIG=
200908151100 METAR LMML NIL=
200908151045 METAR LMML 151045Z 13008KT 070V170 9999 FEW013 30/21 Q1017
                        NOSIG=
200908151030 METAR LMML NIL=
200908151015 METAR LMML 151015Z 13009KT 100V160 9999 FEW011 30/22 Q1016
                        NOSIG=
200908151000 METAR LMML NIL=
200908150945 METAR LMML 150945Z 12011KT 9999 FEW011 29/22 Q1016 NOSIG=
200908150930 METAR LMML NIL=
200908150915 METAR LMML 150915Z 12010KT 090V160 9999 FEW011 29/21 Q1017
                        NOSIG=
200908150900 METAR LMML NIL=
200908150845 METAR LMML 150845Z 10009KT 060V140 9999 FEW011 29/22 Q1017
                        NOSIG=
200908150830 METAR LMML NIL=
200908150815 METAR LMML 150815Z 12007KT 080V150 9999 FEW012 SCT250 28/22
                        Q1017 NOSIG=
200908150800 METAR LMML NIL=
200908150745 METAR LMML 150745Z 12006KT 080V150 9999 FEW012 BKN250 28/22
                        Q1017 NOSIG=
200908150730 METAR LMML NIL=
200908150715 METAR LMML 150715Z 13004KT 020V180 9999 FEW013 SCT250 28/22
                        Q1017 NOSIG=
200908150700 METAR LMML NIL=
200908150645 METAR LMML 150645Z 14004KT 100V180 9999 SCT009 27/23 Q1017
                        NOSIG=
200908150630 METAR LMML NIL=
200908150615 METAR LMML 150615Z 10004KT 080V140 9999 SCT008 26/24 Q1017
                        NOSIG=
200908150600 METAR LMML NIL=
200908150545 METAR LMML 150545Z 09004KT 060V120 7000 FEW006 25/25 Q1016
                        BECMG 9999=
200908150530 METAR LMML NIL=
200908150515 METAR LMML 150515Z 21004KT 5000 BR FEW006 25/25 Q1016 BECMG
                        9000=
200908150500 METAR LMML NIL=
200908150445 METAR LMML 150445Z VRB03KT 5000 BR SCT003 24/24 Q1016 NOSIG=
200908150430 METAR LMML NIL=
200908150415 METAR LMML 150415Z 10004KT 5000 BR SCT003 24/24 Q1015 NOSIG=
200908150400 METAR LMML NIL=
200908150345 METAR LMML 150345Z VRB03KT 7000 SCT003 24/24 Q1015 BECMG
                        5000 BR BKN003=
200908150330 METAR LMML NIL=
200908150315 METAR LMML 150315Z VRB02KT 9000 FEW005 24/24 Q1015 NOSIG=
200908150300 METAR LMML NIL=
200908150245 METAR LMML 150245Z 14004KT 9999 FEW005 25/24 Q1015 NOSIG=
200908150230 METAR LMML NIL=
200908150215 METAR LMML 150215Z VRB02KT 9999 SCT005 25/24 Q1016 NOSIG=
200908150200 METAR LMML NIL=
200908150145 METAR LMML 150145Z VRB03KT 9999 BKN005 25/24 Q1016 NOSIG=
200908150130 METAR LMML NIL=
200908150115 METAR LMML 150115Z VRB03KT 9999 BKN005 25/24 Q1015 NOSIG=
200908150100 METAR LMML NIL=
200908150045 METAR LMML 150045Z 13004KT 9999 SCT005 25/24 Q1015 NOSIG=
200908150030 METAR LMML NIL=
200908150015 METAR LMML 150015Z 12004KT 080V140 9999 FEW005 25/24 Q1015
                        NOSIG=
200908150000 METAR LMML NIL=
200908142345 METAR LMML 142345Z 13004KT 9999 FEW004 25/24 Q1015 NOSIG=
200908142315 METAR LMML 142315Z 12004KT 9999 FEW005 25/23 Q1015 NOSIG=
200908142245 METAR LMML 142245Z VRB03KT 9999 FEW000 25/23 Q1016 NOSIG=
200908142230 METAR LMML NIL=
200908142215 METAR LMML 142215Z VRB03KT 9999 FEW007 25/23 Q1016 NOSIG=
200908142200 METAR LMML NIL=
200908142145 METAR LMML 142145Z 07004KT 020V110 9999 FEW007 26/24 Q1016
                        NOSIG RMK SMOKE LYRS IN ALL SECTORS=
200908142130 METAR LMML NIL=
200908142115 METAR LMML 142115Z VRB02KT CAVOK 26/24 Q1016 NOSIG RMK SMOKE
                        LYRS IN ALL SECTORS=
200908142045 METAR LMML 142045Z VRB02KT CAVOK 26/24 Q1016 NOSIG RMK SMOKE
                        LYRS IN ALL SECTORS=
200908142015 METAR LMML 142015Z VRB03KT CAVOK 26/23 Q1015 NOSIG RMK SMOKE
                        LYRS TO W AND N=
200908142000 METAR LMML NIL=
200908141945 METAR LMML 141945Z VRB02KT CAVOK 26/23 Q1015 NOSIG RMK SMOKE
                        LAYERS TO NE AND SE=
200908141930 METAR LMML NIL=
200908141915 METAR LMML 141915Z 00000KT CAVOK 26/23 Q1015 NOSIG=
200908141900 METAR LMML NIL=
200908141845 METAR LMML 141845Z VRB01KT CAVOK 26/23 Q1015 NOSIG=
200908141830 METAR LMML NIL=
200908141815 METAR LMML 141815Z VRB02KT CAVOK 27/23 Q1014 NOSIG=
200908141800 METAR LMML NIL=
200908141745 METAR LMML 141745Z VRB03KT CAVOK 27/22 Q1014 NOSIG=
200908141730 METAR LMML NIL=
200908141715 METAR LMML 141715Z 21004KT 160V270 CAVOK 28/22 Q1014 NOSIG=
200908141700 METAR LMML NIL=
200908141645 METAR LMML 141645Z 20005KT 160V260 CAVOK 28/22 Q1014 NOSIG=
200908141630 METAR LMML NIL=
200908141615 METAR LMML 141615Z 21005KT 170V280 CAVOK 29/21 Q1014 NOSIG=
200908141600 METAR LMML NIL=
200908141545 METAR LMML 141545Z 20006KT 140V240 9999 FEW020 29/20 Q1014
                        NOSIG=
200908141515 METAR LMML 141515Z 21007KT 170V260 9999 FEW020 30/18 Q1014
                        NOSIG RMK CB TOPS TO NE=
200908141500 METAR LMML NIL=
200908141445 METAR LMML 141445Z 21007KT 170V260 9999 FEW020 30/19 Q1014
                        NOSIG=
200908141430 METAR LMML NIL=
200908141415 METAR LMML 141415Z 21006KT 140V250 CAVOK 31/19 Q1014 NOSIG=
200908141400 METAR LMML NIL=
200908141345 METAR LMML 141345Z 19007KT 160V240 CAVOK 30/19 Q1014 NOSIG=
200908141300 METAR LMML NIL=
200908141245 METAR LMML 141245Z 19008KT 160V230 CAVOK 30/19 Q1014 NOSIG=
200908141215 METAR LMML 141215Z 20007KT 150V280 CAVOK 30/18 Q1015 NOSIG=
200908141200 METAR LMML NIL=
200908141145 METAR LMML 141145Z 20008KT 160V240 CAVOK 30/20 Q1015 NOSIG=
200908141115 METAR LMML 141115Z 19006KT 140V230 9999 FEW024 29/20 Q1015
                        NOSIG RMK CB TOPS TO NE=
200908141100 METAR LMML NIL=
200908141045 METAR LMML 141045Z 19006KT 140V240 9999 FEW024 SCT120 27/21
                        Q1015 NOSIG=
200908141015 METAR LMML 141015Z 20006KT 160V270 9999 FEW013 BKN120 28/22
                        Q1015 TEMPO 8000 SHRA=
200908141000 METAR LMML NIL=
200908140945 METAR LMML 140945Z 21005KT 150V270 9999 SCT013 BKN120 28/23
                        Q1015 TEMPO 8000 SHRA=
200908140915 METAR LMML 140915Z 15005KT 120V200 9999 SCT013 BKN120 28/23
                        Q1015 TEMPO 8000 SHRA=
200908140900 METAR LMML NIL=
200908140845 METAR LMML 140845Z 13004KT 070V210 9999 FEW008 BKN120 28/23
                        Q1015 TEMPO 8000 SHRA=
200908140830 METAR LMML NIL=
200908140815 METAR LMML 140815Z VRB02KT 9999 FEW008 BKN120 26/23 Q1015
                        RETS TEMPO 8000 SHRA=
200908140800 METAR LMML NIL=
200908140745 METAR LMML 140745Z 13008KT 100V160 9999 -SHRA FEW011 BKN120
                        26/24 Q1014 RETS TEMPO 5000 TSRA
                        BKN030CB=
200908140730 METAR LMML NIL=
200908140715 METAR LMML 140715Z VRB03KT 9999 TS FEW011 FEW050CB BKN120
                        BKN250 26/23 Q1015 NOSIG=
200908140700 METAR LMML NIL=
200908140645 METAR LMML 140645Z 22005KT 180V270 9999 -SHRA FEW011 BKN120
                        BKN250 26/23 Q1015 TEMPO 8000 TSRA
                        SCT012CB=
200908140630 METAR LMML NIL=
200908140615 METAR LMML 140615Z 20007KT 160V240 9999 FEW011 SCT120 BKN250
                        26/23 Q1014 TEMPO 8000 TSRA SCT012CB=
200908140600 METAR LMML NIL=
200908140545 METAR LMML 140545Z 20006KT 160V250 9999 FEW011 SCT110 BKN250
                        26/23 Q1014 TEMPO 8000 TSRA SCT012CB=
200908140530 METAR LMML NIL=
200908140515 METAR LMML 140515Z 20005KT 160V240 9999 FEW013 SCT110 BKN250
                        26/23 Q1015 TEMPO 8000 TSRA SCT012CB=
200908140445 METAR LMML 140445Z 20005KT 160V260 9999 FEW013 SCT110 BKN250
                        26/23 Q1014 TEMPO 8000 TSRA SCT012CB=
200908140415 METAR LMML 140415Z 20005KT 160V240 9999 FEW013 SCT120 BKN250
                        25/23 Q1014 TEMPO 8000 TSRA SCT012CB=
200908140400 METAR LMML NIL=
200908140345 METAR LMML 140345Z 20006KT 160V250 9999 SCT013 BKN120 25/23
                        Q1014 TEMPO 8000 TSRA SCT012CB=
200908140330 METAR LMML NIL=
200908140315 METAR LMML 140315Z 18004KT 130V210 9999 SCT013 BKN120 25/22
                        Q1013 NOSIG=
200908140300 METAR LMML NIL=
200908140245 METAR LMML 140245Z 17006KT 140V200 9999 SCT013 SCT120 25/22
                        Q1013 NOSIG=
200908140230 METAR LMML NIL=
200908140215 METAR LMML 140215Z 18004KT 150V210 9999 SCT013 SCT120 25/22
                        Q1014 NOSIG=
200908140200 METAR LMML NIL=
200908140145 METAR LMML 140145Z 19005KT 140V240 9999 FEW013 SCT120 26/22
                        Q1013 NOSIG=
200908140130 METAR LMML NIL=
200908140115 METAR LMML 140115Z 19006KT 160V220 9999 SCT014 SCT120 25/22
                        Q1014 NOSIG=
200908140100 METAR LMML NIL=
200908140045 METAR LMML 140045Z 24004KT 200V270 9999 SCT014 25/22 Q1015
                        NOSIG=
200908140030 METAR LMML NIL=
200908140015 METAR LMML 140015Z 22005KT 180V270 9999 SCT014 26/22 Q1015
                        NOSIG=
200908140000 METAR LMML NIL=
200908132345 METAR LMML 132345Z 20004KT 160V240 9999 SCT014 26/22 Q1015
                        NOSIG=
200908132330 METAR LMML NIL=
200908132315 METAR LMML 132315Z 19006KT 140V230 9999 FEW014 26/22 Q1015
                        NOSIG=
200908132300 METAR LMML NIL=
200908132245 METAR LMML 132245Z 20004KT 170V240 9999 FEW015 25/22 Q1016
                        NOSIG=
200908132230 METAR LMML NIL=
200908132215 METAR LMML 132215Z 18005KT 150V220 9999 FEW013 26/22 Q1015
                        NOSIG=
200908132200 METAR LMML NIL=
200908132145 METAR LMML 132145Z 19004KT 140V220 9999 FEW013 26/22 Q1015
                        NOSIG=
200908132130 METAR LMML NIL=
200908132115 METAR LMML 132115Z 19005KT 160V230 9999 SCT015 26/22 Q1016
                        NOSIG=
200908132100 METAR LMML NIL=
200908132045 METAR LMML 132045Z 20004KT 170V240 9999 FEW015 26/22 Q1016
                        NOSIG=
200908132030 METAR LMML NIL=
200908132015 METAR LMML 132015Z VRB03KT 9999 FEW015 26/22 Q1016 NOSIG=
200908132000 METAR LMML NIL=
200908131945 METAR LMML 131945Z VRB03KT 9999 FEW016 26/22 Q1016 NOSIG=
200908131930 METAR LMML NIL=
200908131915 METAR LMML 131915Z 21004KT 170V260 9999 FEW015 26/22 Q1015
                        NOSIG=
200908131900 METAR LMML NIL=
200908131845 METAR LMML 131845Z VRB03KT 9999 FEW016 26/22 Q1015 NOSIG=
200908131830 METAR LMML NIL=
200908131815 METAR LMML 131815Z 21004KT 170V260 9999 FEW015 26/22 Q1015
                        NOSIG=
200908131800 METAR LMML NIL=
200908131745 METAR LMML 131745Z 20005KT 150V240 9999 FEW015 26/22 Q1014
                        NOSIG=
200908131730 METAR LMML NIL=
200908131715 METAR LMML 131715Z 19004KT 150V260 9999 FEW015 27/22 Q1014
                        NOSIG=
200908131700 METAR LMML NIL=
200908131645 METAR LMML 131645Z 19004KT 140V230 9999 FEW018 27/22 Q1014
                        NOSIG=
200908131630 METAR LMML NIL=
200908131615 METAR LMML 131615Z 20006KT 150V270 9999 FEW018 28/22 Q1014
                        NOSIG=
200908131600 METAR LMML NIL=
200908131545 METAR LMML 131545Z 22008KT 190V280 9999 FEW017 28/22 Q1015
                        NOSIG=
200908131530 METAR LMML NIL=
200908131515 METAR LMML 131515Z 21006KT 160V270 9999 FEW016 28/22 Q1015
                        NOSIG=
200908131500 METAR LMML NIL=
200908131445 METAR LMML 131445Z 22007KT 160V270 9999 FEW017 29/21 Q1015
                        NOSIG RMK SMOKE TO SOUTH=
200908131430 METAR LMML NIL=
200908131415 METAR LMML 131415Z 20008KT 170V250 9999 FEW016 28/22 Q1015
                        NOSIG=
200908131400 METAR LMML NIL=
200908131345 METAR LMML 131345Z 20007KT 150V240 9999 FEW017 29/22 Q1015
                        NOSIG=
200908131330 METAR LMML NIL=
200908131315 METAR LMML 131315Z 20006KT 160V270 9999 FEW019 29/21 Q1015
                        NOSIG=
200908131300 METAR LMML NIL=
200908131245 METAR LMML 131245Z 20007KT 150V280 9999 FEW019 29/21 Q1016
                        NOSIG=
200908131230 METAR LMML NIL=
200908131215 METAR LMML 131215Z 22007KT 180V270 9999 FEW019 29/21 Q1016
                        NOSIG=
200908131145 METAR LMML 131145Z 22008KT 180V280 9999 FEW015 29/19 Q1017
                        NOSIG=
200908131115 METAR LMML 131115Z 23007KT 170V290 9999 FEW015 29/21 Q1017
                        NOSIG=
200908131100 METAR LMML NIL=
200908131045 METAR LMML 131045Z 20008KT 160V240 9999 FEW015 29/21 Q1016
                        NOSIG=
200908131030 METAR LMML NIL=
200908131015 METAR LMML 131015Z 20009KT 170V230 9999 FEW015 28/22 Q1017
                        NOSIG=
200908130945 METAR LMML 130945Z 20008KT 160V260 9999 FEW015 28/22 Q1016
                        NOSIG=
200908130930 METAR LMML NIL=
200908130915 METAR LMML 130915Z 19008KT 150V240 9999 FEW015 28/22 Q1016
                        NOSIG=
200908130845 METAR LMML 130845Z 18007KT 140V230 9999 FEW015 27/21 Q1016
                        NOSIG=
200908130815 METAR LMML 130815Z 18005KT 140V240 9999 FEW015 27/21 Q1016
                        NOSIG=
200908130800 METAR LMML NIL=
200908130745 METAR LMML 130745Z 17006KT 130V220 9999 SCT012 27/21 Q1016
                        NOSIG=
200908130715 METAR LMML 130715Z 16006KT 130V210 9999 SCT012 26/21 Q1015
                        NOSIG=
200908130700 METAR LMML NIL=
200908130645 METAR LMML 130645Z 15007KT 120V190 9999 SCT011 26/21 Q1015
                        NOSIG=
200908130630 METAR LMML NIL=
200908130615 METAR LMML 130615Z 13008KT 100V160 9999 SCT009 SCT250 25/22
                        Q1015 NOSIG=
200908130600 METAR LMML NIL=
200908130545 METAR LMML 130545Z 12005KT 9999 FEW015 SCT250 24/22 Q1015
                        NOSIG=
200908130530 METAR LMML NIL=
200908130500 METAR LMML NIL=
200908130445 METAR LMML 130445Z VRB01KT 9999 FEW013 BKN200 23/22 Q1016
                        NOSIG=
200908130430 METAR LMML NIL=
200908130415 METAR LMML 130415Z VRB03KT 9999 FEW013 BKN200 23/22 Q1016
                        NOSIG=
200908130400 METAR LMML NIL=
200908130345 METAR LMML 130345Z VRB03KT 9999 FEW011 SCT200 23/22 Q1016
                        NOSIG=
200908130330 METAR LMML NIL=
200908130315 METAR LMML 130315Z VRB02KT 9999 FEW011 23/21 Q1016 NOSIG=
200908130300 METAR LMML NIL=
200908130245 METAR LMML 130245Z VRB01KT 9999 FEW011 23/22 Q1015 NOSIG=
200908130230 METAR LMML NIL=
200908130215 METAR LMML 130215Z VRB02KT 9999 FEW011 23/22 Q1015 NOSIG=
200908130200 METAR LMML NIL=
200908130145 METAR LMML 130145Z VRB02KT 9999 FEW011 24/22 Q1015 NOSIG=
200908130130 METAR LMML NIL=
200908130115 METAR LMML 130115Z VRB02KT 9999 FEW011 24/22 Q1016 NOSIG=
200908130100 METAR LMML NIL=
200908130045 METAR LMML 130045Z VRB01KT 9999 FEW011 24/22 Q1016 NOSIG=
200908130030 METAR LMML NIL=
200908130015 METAR LMML 130015Z VRB03KT 9999 FEW010 24/22 Q1015 NOSIG=
200908130000 METAR LMML NIL=
200908122345 METAR LMML 122345Z VRB01KT CAVOK 24/22 Q1016 NOSIG=
200908122330 METAR LMML NIL=
200908122315 METAR LMML 122315Z 14004KT CAVOK 24/22 Q1016 NOSIG=
200908122300 METAR LMML NIL=
200908122245 METAR LMML 122245Z 14004KT CAVOK 24/22 Q1016 NOSIG=
200908122230 METAR LMML NIL=
200908122215 METAR LMML 122215Z 13004KT CAVOK 24/22 Q1016 NOSIG=
200908122200 METAR LMML NIL=
200908122130 METAR LMML NIL=
200908122115 METAR LMML 122115Z 13004KT CAVOK 24/22 Q1016 NOSIG=
200908122100 METAR LMML NIL=
200908122045 METAR LMML 122045Z 13005KT CAVOK 25/22 Q1016 NOSIG=
200908122030 METAR LMML NIL=
200908122015 METAR LMML 122015Z VRB03KT CAVOK 25/22 Q1016 NOSIG=
200908122000 METAR LMML NIL=
200908121945 METAR LMML 121945Z 14005KT 110V190 CAVOK 25/22 Q1016 NOSIG=
200908121930 METAR LMML NIL=
200908121915 METAR LMML 121915Z 14004KT 110V180 CAVOK 25/22 Q1016 NOSIG=
200908121900 METAR LMML NIL=
200908121845 METAR LMML 121845Z 14005KT CAVOK 25/21 Q1015 NOSIG=
200908121830 METAR LMML NIL=
200908121815 METAR LMML 121815Z 12005KT 100V160 CAVOK 26/22 Q1015 NOSIG=
200908121800 METAR LMML NIL=
200908121745 METAR LMML 121745Z 12006KT CAVOK 26/20 Q1015 NOSIG=
200908121730 METAR LMML NIL=
200908121715 METAR LMML 121715Z 13005KT 110V170 CAVOK 27/19 Q1015 NOSIG=
200908121700 METAR LMML NIL=
200908121645 METAR LMML 121645Z 14004KT 080V190 CAVOK 28/19 Q1015 NOSIG=
200908121630 METAR LMML NIL=
200908121615 METAR LMML 121615Z 15005KT 110V190 CAVOK 29/18 Q1015 NOSIG=
200908121600 METAR LMML NIL=
200908121545 METAR LMML 121545Z 12006KT 070V160 CAVOK 29/19 Q1016 NOSIG=
200908121530 METAR LMML NIL=
200908121515 METAR LMML 121515Z 14007KT 100V180 9999 FEW020 29/18 Q1016
                        NOSIG=
200908121445 METAR LMML 121445Z 12008KT 070V150 9999 FEW020 29/19 Q1016
                        NOSIG=
200908121430 METAR LMML NIL=
200908121415 METAR LMML 121415Z 09007KT 050V130 9999 FEW020 30/18 Q1016
                        NOSIG=
200908121345 METAR LMML 121345Z 10006KT 010V150 9999 FEW020 31/18 Q1016
                        NOSIG=
200908121315 METAR LMML 121315Z 06007KT 020V110 CAVOK 31/19 Q1016 NOSIG=
200908121245 METAR LMML 121245Z 03007KT 340V110 CAVOK 32/19 Q1016 NOSIG=
200908121215 METAR LMML 121215Z 04006KT 320V090 CAVOK 32/17 Q1016 NOSIG=
200908121200 METAR LMML NIL=
200908121145 METAR LMML 121145Z 02006KT 340V070 CAVOK 31/18 Q1016 NOSIG=
200908121130 METAR LMML NIL=
200908121115 METAR LMML 121115Z 04006KT 360V080 CAVOK 31/17 Q1016 NOSIG=
200908121100 METAR LMML NIL=
200908121045 METAR LMML 121045Z 04006KT 360V120 CAVOK 32/17 Q1016 NOSIG=
200908121030 METAR LMML NIL=
200908121015 METAR LMML 121015Z 05006KT 010V140 CAVOK 31/17 Q1017 NOSIG=
200908121000 METAR LMML NIL=
200908120945 METAR LMML 120945Z 05008KT 010V090 CAVOK 31/16 Q1017 NOSIG=
200908120930 METAR LMML NIL=
200908120915 METAR LMML 120915Z 05008KT 020V080 CAVOK 31/17 Q1017 NOSIG=
200908120845 METAR LMML 120845Z 07007KT 020V130 CAVOK 30/17 Q1017 NOSIG=
200908120830 METAR LMML NIL=
200908120815 METAR LMML 120815Z 07006KT 020V110 CAVOK 30/17 Q1017 NOSIG=
200908120800 METAR LMML NIL=
200908120745 METAR LMML 120745Z 08007KT 020V130 CAVOK 29/18 Q1017 NOSIG=
200908120730 METAR LMML NIL=
200908120715 METAR LMML 120715Z 07006KT 040V110 CAVOK 29/17 Q1016 NOSIG=
200908120700 METAR LMML NIL=
200908120645 METAR LMML 120645Z 08004KT 030V140 CAVOK 28/19 Q1016 NOSIG=
200908120630 METAR LMML NIL=
200908120615 METAR LMML 120615Z VRB01KT CAVOK 26/22 Q1016 NOSIG=
200908120600 METAR LMML NIL=
200908120545 METAR LMML 120545Z VRB01KT CAVOK 25/23 Q1016 NOSIG=
200908120530 METAR LMML NIL=
200908120500 METAR LMML NIL=
200908120445 METAR LMML 120445Z VRB03KT CAVOK 23/21 Q1016 NOSIG=
200908120430 METAR LMML NIL=
200908120415 METAR LMML 120415Z VRB02KT CAVOK 24/21 Q1015 NOSIG=
200908120345 METAR LMML 120345Z 34004KT 310V020 CAVOK 24/21 Q1015 NOSIG=
200908120330 METAR LMML NIL=
200908120315 METAR LMML 120315Z 36004KT CAVOK 24/21 Q1015 NOSIG=
200908120300 METAR LMML NIL=
200908120245 METAR LMML 120245Z 34004KT CAVOK 24/21 Q1015 NOSIG=
200908120230 METAR LMML NIL=
200908120215 METAR LMML 120215Z 31004KT CAVOK 24/21 Q1015 NOSIG=
200908120200 METAR LMML NIL=
200908120145 METAR LMML 120145Z 35004KT CAVOK 25/21 Q1015 NOSIG=
200908120130 METAR LMML NIL=
200908120115 METAR LMML 120115Z 32004KT CAVOK 25/21 Q1015 NOSIG=
200908120100 METAR LMML NIL=
200908120045 METAR LMML 120045Z 32004KT 300V360 CAVOK 25/20 Q1015 NOSIG=
200908120015 METAR LMML 120015Z 32009KT 290V350 CAVOK 26/20 Q1015 NOSIG=
200908120000 METAR LMML NIL=
200908112345 METAR LMML 112345Z 30010KT CAVOK 26/17 Q1015 NOSIG=
200908112315 METAR LMML 112315Z 29011KT CAVOK 27/15 Q1015 NOSIG=
200908112245 METAR LMML 112245Z 29010KT 260V320 CAVOK 27/16 Q1016 NOSIG=
200908112230 METAR LMML NIL=
200908112215 METAR LMML 112215Z 28012KT 250V310 CAVOK 26/19 Q1016 NOSIG=
200908112145 METAR LMML 112145Z 30013KT CAVOK 26/21 Q1016 NOSIG=
200908112130 METAR LMML NIL=
200908112115 METAR LMML 112115Z 29011KT CAVOK 26/20 Q1016 NOSIG=
200908112100 METAR LMML NIL=
200908112045 METAR LMML 112045Z 30010KT 270V330 CAVOK 26/21 Q1016 NOSIG=
200908112030 METAR LMML NIL=
200908112015 METAR LMML 112015Z 28015KT CAVOK 26/22 Q1016 NOSIG=
200908112000 METAR LMML NIL=
200908111945 METAR LMML 111945Z 28014KT 250V310 CAVOK 26/23 Q1016 NOSIG=
200908111930 METAR LMML NIL=
200908111915 METAR LMML 111915Z 28012KT 240V310 CAVOK 26/23 Q1016 NOSIG=
200908111900 METAR LMML NIL=
200908111845 METAR LMML 111845Z 27012KT 230V290 9000 FEW009 26/23 Q1016
                        NOSIG=
200908111830 METAR LMML NIL=
200908111815 METAR LMML 111815Z 27008KT 230V300 7000 FEW009 27/22 Q1015
                        NOSIG=
200908111800 METAR LMML NIL=
200908111745 METAR LMML 111745Z 27012KT 230V310 CAVOK 27/19 Q1015 NOSIG=
200908111730 METAR LMML NIL=
200908111715 METAR LMML 111715Z 26012KT 210V300 CAVOK 28/19 Q1015 NOSIG=
200908111700 METAR LMML NIL=
200908111645 METAR LMML 111645Z 27011KT 220V300 9999 FEW010 29/20 Q1015
                        NOSIG=
200908111630 METAR LMML NIL=
200908111615 METAR LMML 111615Z 27012KT 230V310 9999 FEW010 29/22 Q1016
                        NOSIG=
200908111600 METAR LMML NIL=
200908111545 METAR LMML 111545Z 26012KT 220V300 CAVOK 29/23 Q1016 NOSIG=
200908111530 METAR LMML NIL=
200908111515 METAR LMML 111515Z 27013KT 230V300 9999 FEW011 29/23 Q1016
                        NOSIG=
200908111500 METAR LMML NIL=
200908111445 METAR LMML 111445Z 25016KT 220V300 9999 FEW011 29/23 Q1016
                        NOSIG=
200908111430 METAR LMML NIL=
200908111415 METAR LMML 111415Z 24014KT 200V280 9999 FEW013 29/24 Q1016
                        NOSIG=
200908111400 METAR LMML NIL=
200908111345 METAR LMML 111345Z 24013KT 200V280 9999 FEW013 29/24 Q1017
                        NOSIG=
200908111330 METAR LMML NIL=
200908111315 METAR LMML 111315Z 25013KT 200V290 9999 FEW013 29/24 Q1017
                        NOSIG=
200908111300 METAR LMML NIL=
200908111245 METAR LMML 111245Z 24013KT 190V280 9999 FEW013 29/23 Q1017
                        NOSIG=
200908111230 METAR LMML NIL=
200908111215 METAR LMML 111215Z 25010KT 200V280 9999 FEW013 30/23 Q1017
                        NOSIG=
200908111200 METAR LMML NIL=
200908111145 METAR LMML 111145Z 24012KT 210V280 CAVOK 29/23 Q1017 NOSIG=
200908111130 METAR LMML NIL=
200908111115 METAR LMML 111115Z 24012KT 200V270 9999 FEW013 29/23 Q1017
                        NOSIG=
200908111100 METAR LMML NIL=
200908111045 METAR LMML 111045Z 26011KT 200V300 9999 FEW013 30/23 Q1018
                        NOSIG=
200908111030 METAR LMML NIL=
200908111015 METAR LMML 111015Z 25012KT 210V310 9999 FEW013 29/22 Q1018
                        NOSIG=
200908111000 METAR LMML NIL=
200908110945 METAR LMML 110945Z 26012KT 230V300 9999 FEW015 29/23 Q1018
                        NOSIG=
200908110930 METAR LMML NIL=
200908110915 METAR LMML 110915Z 23011KT 200V280 9999 FEW015 29/22 Q1018
                        NOSIG=
200908110900 METAR LMML NIL=
200908110845 METAR LMML 110845Z 25011KT 200V300 9999 FEW015 28/22 Q1018
                        NOSIG=
200908110815 METAR LMML 110815Z 24009KT 200V290 9999 FEW015 28/22 Q1018
                        NOSIG=
200908110800 METAR LMML NIL=
200908110745 METAR LMML 110745Z 24008KT 200V290 9999 FEW015 28/22 Q1018
                        NOSIG=
200908110730 METAR LMML NIL=
200908110715 METAR LMML 110715Z 23005KT 190V280 9999 FEW015 28/22 Q1018
                        NOSIG=
200908110700 METAR LMML NIL=
200908110645 METAR LMML 110645Z 24006KT 200V280 9999 FEW015 27/23 Q1017
                        NOSIG=
200908110630 METAR LMML NIL=
200908110615 METAR LMML 110615Z 23005KT 200V280 9999 FEW015 26/24 Q1017
                        NOSIG=
200908110545 METAR LMML 110545Z 23005KT 200V270 9999 FEW020 25/24 Q1017
                        NOSIG=
200908110530 METAR LMML NIL=
200908110515 METAR LMML 110515Z VRB03KT 9999 FEW020 25/24 Q1017 NOSIG=
200908110445 METAR LMML 110445Z VRB02KT 9999 FEW020 24/23 Q1017 NOSIG=
200908110430 METAR LMML NIL=
200908110415 METAR LMML 110415Z VRB03KT 9999 FEW020 24/22 Q1017 NOSIG=
200908110345 METAR LMML 110345Z 24004KT 210V280 CAVOK 24/22 Q1017 NOSIG=
200908110330 METAR LMML NIL=
200908110315 METAR LMML 110315Z 24005KT 210V270 CAVOK 25/23 Q1017 NOSIG=
200908110300 METAR LMML NIL=
200908110245 METAR LMML 110245Z 24007KT 210V270 CAVOK 25/22 Q1017 NOSIG=
200908110230 METAR LMML NIL=
200908110215 METAR LMML 110215Z 25007KT 210V280 CAVOK 25/22 Q1017 NOSIG=
200908110200 METAR LMML NIL=
200908110130 METAR LMML NIL=
200908110115 METAR LMML 110115Z VRB03KT CAVOK 24/23 Q1017 NOSIG=
200908110100 METAR LMML NIL=
200908110045 METAR LMML 110045Z 23004KT CAVOK 25/23 Q1017 NOSIG=
200908110030 METAR LMML NIL=
200908110015 METAR LMML 110015Z 23005KT 200V260 CAVOK 25/23 Q1017 NOSIG=
200908110000 METAR LMML NIL=
200908102345 METAR LMML 102345Z 23005KT 200V270 CAVOK 25/23 Q1018 NOSIG=
200908102330 METAR LMML NIL=
200908102315 METAR LMML 102315Z 23006KT 200V270 CAVOK 25/23 Q1018 NOSIG=
200908102300 METAR LMML NIL=
200908102245 METAR LMML 102245Z 23005KT 210V270 CAVOK 25/23 Q1018 NOSIG=
200908102230 METAR LMML NIL=
200908102215 METAR LMML 102215Z 23005KT 200V270 CAVOK 25/23 Q1018 NOSIG=
200908102200 METAR LMML NIL=
200908102145 METAR LMML 102145Z VRB03KT CAVOK 25/23 Q1018 NOSIG=
200908102130 METAR LMML NIL=
200908102115 METAR LMML 102115Z 22004KT 190V260 CAVOK 25/23 Q1018 NOSIG=
200908102100 METAR LMML NIL=
200908102045 METAR LMML 102045Z VRB03KT CAVOK 25/23 Q1018 NOSIG=
200908102030 METAR LMML NIL=
200908102015 METAR LMML 102015Z VRB03KT CAVOK 25/23 Q1018 NOSIG=
200908102000 METAR LMML NIL=
200908101945 METAR LMML 101945Z 23004KT 190V280 CAVOK 26/23 Q1018 NOSIG=
200908101930 METAR LMML NIL=
200908101915 METAR LMML 101915Z 22005KT 180V280 CAVOK 26/23 Q1018 NOSIG=
200908101900 METAR LMML NIL=
200908101845 METAR LMML 101845Z VRB03KT CAVOK 26/23 Q1017 NOSIG=
200908101830 METAR LMML NIL=
200908101815 METAR LMML 101815Z 24005KT 210V280 CAVOK 26/22 Q1017 NOSIG=
200908101745 METAR LMML 101745Z 24006KT 210V270 CAVOK 27/22 Q1017 NOSIG=
200908101730 METAR LMML NIL=
200908101715 METAR LMML 101715Z 23005KT 200V270 CAVOK 28/21 Q1017 NOSIG=
200908101700 METAR LMML NIL=
200908101645 METAR LMML 101645Z 22004KT 190V280 CAVOK 29/20 Q1017 NOSIG=
200908101630 METAR LMML NIL=
200908101615 METAR LMML 101615Z 25005KT 180V300 CAVOK 29/19 Q1017 NOSIG=
200908101600 METAR LMML NIL=
200908101545 METAR LMML 101545Z 26007KT 200V300 CAVOK 29/21 Q1017 NOSIG=
200908101530 METAR LMML NIL=
200908101515 METAR LMML 101515Z 22007KT 200V260 CAVOK 29/20 Q1017 NOSIG=
200908101500 METAR LMML NIL=
200908101445 METAR LMML 101445Z 23006KT 180V290 CAVOK 30/21 Q1017 NOSIG=
200908101430 METAR LMML NIL=
200908101415 METAR LMML 101415Z 24008KT 200V280 9999 FEW025 30/19 Q1018
                        NOSIG=
200908101400 METAR LMML NIL=
200908101345 METAR LMML 101345Z 24009KT 200V300 CAVOK 30/19 Q1018 NOSIG=
200908101330 METAR LMML NIL=
200908101315 METAR LMML 101315Z 24007KT 190V300 CAVOK 31/18 Q1018 NOSIG=
200908101300 METAR LMML NIL=
200908101245 METAR LMML 101245Z 24008KT 190V300 9999 FEW025 30/20 Q1018
                        NOSIG=
200908101230 METAR LMML NIL=
200908101215 METAR LMML 101215Z 21008KT 170V250 9999 FEW025 30/21 Q1018
                        NOSIG=
200908101200 METAR LMML NIL=
200908101145 METAR LMML 101145Z 22008KT 170V290 9999 FEW020 30/20 Q1018
                        NOSIG=
200908101130 METAR LMML NIL=
200908101115 METAR LMML 101115Z 23009KT 180V260 9999 FEW020 29/20 Q1018
                        NOSIG=
200908101100 METAR LMML NIL=
200908101045 METAR LMML 101045Z 22008KT 190V270 9999 FEW020 29/21 Q1018
                        NOSIG=
200908101030 METAR LMML NIL=
200908101015 METAR LMML 101015Z 23008KT 170V270 CAVOK 30/21 Q1018 NOSIG=
200908101000 METAR LMML NIL=
200908100945 METAR LMML 100945Z 21007KT 170V270 9999 FEW020 30/20 Q1018
                        NOSIG=
200908100930 METAR LMML NIL=
200908100915 METAR LMML 100915Z 22007KT 180V270 CAVOK 29/20 Q1018 NOSIG=
200908100900 METAR LMML NIL=
200908100845 METAR LMML 100845Z 22006KT 180V270 CAVOK 30/17 Q1018 NOSIG=
200908100830 METAR LMML NIL=
200908100815 METAR LMML 100815Z VRB03KT CAVOK 30/18 Q1018 NOSIG=
200908100800 METAR LMML NIL=
200908100745 METAR LMML 100745Z 21004KT 170V260 CAVOK 28/20 Q1018 NOSIG=
200908100730 METAR LMML NIL=
200908100715 METAR LMML 100715Z 24004KT 200V280 CAVOK 27/21 Q1018 NOSIG=
200908100700 METAR LMML NIL=
200908100645 METAR LMML 100645Z 20004KT 160V250 9999 FEW015 26/22 Q1018
                        NOSIG=
200908100630 METAR LMML NIL=
200908100615 METAR LMML 100615Z VRB03KT 9999 FEW015 26/23 Q1018 NOSIG=
200908100600 METAR LMML NIL=
200908100545 METAR LMML 100545Z VRB03KT 9999 FEW015 25/24 Q1017 NOSIG=
200908100530 METAR LMML NIL=
200908100515 METAR LMML 100515Z VRB03KT CAVOK 24/23 Q1017 NOSIG=
200908100500 METAR LMML NIL=
200908100445 METAR LMML 100445Z VRB03KT CAVOK 23/22 Q1017 NOSIG=
200908100430 METAR LMML NIL=
200908100415 METAR LMML 100415Z VRB02KT CAVOK 22/22 Q1017 NOSIG=
200908100345 METAR LMML 100345Z VRB03KT CAVOK 23/22 Q1016 NOSIG=
200908100330 METAR LMML NIL=
200908100315 METAR LMML 100315Z VRB03KT CAVOK 22/21 Q1016 NOSIG=
200908100300 METAR LMML NIL=
200908100245 METAR LMML 100245Z VRB01KT CAVOK 22/21 Q1016 NOSIG=
200908100230 METAR LMML NIL=
200908100215 METAR LMML 100215Z VRB01KT CAVOK 22/21 Q1016 NOSIG=
200908100200 METAR LMML NIL=
200908100145 METAR LMML 100145Z VRB01KT CAVOK 23/21 Q1016 NOSIG=
200908100130 METAR LMML NIL=
200908100115 METAR LMML 100115Z VRB01KT CAVOK 23/22 Q1016 NOSIG=
200908100100 METAR LMML NIL=
200908100045 METAR LMML 100045Z VRB03KT CAVOK 23/21 Q1016 NOSIG=
200908100030 METAR LMML NIL=
200908100015 METAR LMML 100015Z VRB01KT CAVOK 23/21 Q1016 NOSIG=
200908100000 METAR LMML NIL=
200908092345 METAR LMML 092345Z VRB01KT CAVOK 23/22 Q1016 NOSIG=
200908092330 METAR LMML NIL=
200908092315 METAR LMML 092315Z VRB01KT CAVOK 23/21 Q1016 NOSIG=
200908092245 METAR LMML 092245Z VRB01KT CAVOK 24/22 Q1016 NOSIG=
200908092230 METAR LMML NIL=
200908092215 METAR LMML 092215Z VRB01KT CAVOK 24/22 Q1016 NOSIG=
200908092200 METAR LMML NIL=
200908092145 METAR LMML 092145Z 00000KT CAVOK 24/22 Q1016 NOSIG=
200908092130 METAR LMML NIL=
200908092115 METAR LMML 092115Z VRB02KT CAVOK 25/22 Q1016 NOSIG=
200908092100 METAR LMML NIL=
200908092045 METAR LMML 092045Z 00000KT CAVOK 25/22 Q1016 NOSIG=
200908092030 METAR LMML NIL=
200908092015 METAR LMML 092015Z VRB01KT CAVOK 25/22 Q1016 NOSIG=
200908092000 METAR LMML NIL=
200908091945 METAR LMML 091945Z VRB03KT CAVOK 25/22 Q1016 NOSIG=
200908091930 METAR LMML NIL=
200908091915 METAR LMML 091915Z VRB03KT CAVOK 25/22 Q1015 NOSIG=
200908091900 METAR LMML NIL=
200908091845 METAR LMML 091845Z 20004KT 170V240 CAVOK 26/21 Q1015 NOSIG=
200908091830 METAR LMML NIL=
200908091815 METAR LMML 091815Z VRB03KT CAVOK 26/20 Q1015 NOSIG=
200908091800 METAR LMML NIL=
200908091745 METAR LMML 091745Z VRB03KT CAVOK 27/20 Q1015 NOSIG=
200908091715 METAR LMML 091715Z 22004KT 180V260 CAVOK 27/20 Q1015 NOSIG=
200908091700 METAR LMML NIL=
200908091645 METAR LMML 091645Z 24005KT 180V280 CAVOK 28/18 Q1015 NOSIG=
200908091630 METAR LMML NIL=
200908091615 METAR LMML 091615Z 24005KT 190V290 CAVOK 28/18 Q1015 NOSIG=
200908091600 METAR LMML NIL=
200908091545 METAR LMML 091545Z 22006KT 180V260 CAVOK 29/17 Q1015 NOSIG=
200908091530 METAR LMML NIL=
200908091515 METAR LMML 091515Z 21007KT 170V260 CAVOK 29/16 Q1015 NOSIG=
200908091500 METAR LMML NIL=
200908091445 METAR LMML 091445Z 22005KT 170V260 CAVOK 30/15 Q1015 NOSIG=
200908091415 METAR LMML 091415Z 23005KT 190V280 CAVOK 31/14 Q1015 NOSIG=
200908091400 METAR LMML NIL=
200908091345 METAR LMML 091345Z 23006KT 180V270 CAVOK 31/15 Q1015 NOSIG=
200908091330 METAR LMML NIL=
200908091315 METAR LMML 091315Z 22006KT 160V280 CAVOK 30/16 Q1015 NOSIG=
200908091300 METAR LMML NIL=
200908091245 METAR LMML 091245Z 23006KT 190V330 CAVOK 31/17 Q1015 NOSIG=
200908091230 METAR LMML NIL=
200908091215 METAR LMML 091215Z 22006KT 170V310 9999 FEW040 30/19 Q1015
                        NOSIG=
200908091200 METAR LMML NIL=
200908091145 METAR LMML 091145Z 23008KT 190V290 9999 FEW020 29/19 Q1015
                        NOSIG=
200908091130 METAR LMML NIL=
200908091115 METAR LMML 091115Z 23007KT 180V270 CAVOK 30/19 Q1015 NOSIG=
200908091100 METAR LMML NIL=
200908091045 METAR LMML 091045Z 20006KT 160V260 CAVOK 30/19 Q1015 NOSIG=
200908091030 METAR LMML NIL=
200908091015 METAR LMML 091015Z 19005KT 140V240 CAVOK 30/19 Q1015 NOSIG=
200908091000 METAR LMML NIL=
200908090930 METAR LMML NIL=
200908090915 METAR LMML 090915Z 22005KT 180V280 CAVOK 29/20 Q1015 NOSIG=
200908090900 METAR LMML NIL=
200908090845 METAR LMML 090845Z 22006KT 190V270 CAVOK 29/20 Q1015 NOSIG=
200908090830 METAR LMML NIL=
200908090815 METAR LMML 090815Z 22004KT 170V290 CAVOK 29/20 Q1015 NOSIG=
200908090800 METAR LMML NIL=
200908090745 METAR LMML 090745Z VRB02KT CAVOK 29/17 Q1015 NOSIG=
200908090715 METAR LMML 090715Z VRB01KT CAVOK 28/16 Q1015 NOSIG=
200908090700 METAR LMML NIL=
200908090645 METAR LMML 090645Z VRB01KT CAVOK 27/18 Q1015 NOSIG=
200908090630 METAR LMML NIL=
200908090615 METAR LMML 090615Z VRB01KT CAVOK 26/20 Q1015 NOSIG=
200908090600 METAR LMML NIL=
200908090545 METAR LMML 090545Z VRB01KT 9000 NSC 24/20 Q1015 BECMG CAVOK=
200908090530 METAR LMML NIL=
200908090500 METAR LMML NIL=
200908090445 METAR LMML 090445Z VRB03KT 7000 NSC 22/19 Q1014 BECMG 9999=
200908090430 METAR LMML NIL=
200908090415 METAR LMML 090415Z VRB01KT CAVOK 21/19 Q1014 NOSIG=
200908090400 METAR LMML NIL=
200908090345 METAR LMML 090345Z 00000KT CAVOK 22/19 Q1014 NOSIG=
200908090330 METAR LMML NIL=
200908090315 METAR LMML 090315Z VRB01KT CAVOK 22/19 Q1014 NOSIG=
200908090245 METAR LMML 090245Z VRB01KT CAVOK 22/19 Q1014 NOSIG=
200908090230 METAR LMML NIL=
200908090215 METAR LMML 090215Z 00000KT CAVOK 22/19 Q1014 NOSIG=
200908090200 METAR LMML NIL=
200908090145 METAR LMML 090145Z VRB01KT CAVOK 22/19 Q1014 NOSIG=
200908090130 METAR LMML NIL=
200908090115 METAR LMML 090115Z VRB01KT CAVOK 23/19 Q1014 NOSIG=
200908090100 METAR LMML NIL=
200908090045 METAR LMML 090045Z VRB02KT CAVOK 23/19 Q1014 NOSIG=
200908090030 METAR LMML NIL=
200908090015 METAR LMML 090015Z VRB01KT CAVOK 23/20 Q1014 NOSIG=
200908090000 METAR LMML NIL=
200908082345 METAR LMML 082345Z VRB02KT CAVOK 23/19 Q1015 NOSIG=
200908082330 METAR LMML NIL=
200908082315 METAR LMML 082315Z VRB02KT CAVOK 23/19 Q1015 NOSIG=
200908082245 METAR LMML 082245Z VRB02KT CAVOK 23/19 Q1015 NOSIG=
200908082230 METAR LMML NIL=
200908082215 METAR LMML 082215Z VRB02KT CAVOK 24/19 Q1015 NOSIG=
200908082200 METAR LMML NIL=
200908082145 METAR LMML 082145Z VRB02KT CAVOK 24/19 Q1015 NOSIG=
200908082130 METAR LMML NIL=
200908082115 METAR LMML 082115Z VRB02KT CAVOK 24/19 Q1015 NOSIG=
200908082100 METAR LMML NIL=
200908082045 METAR LMML 082045Z VRB03KT CAVOK 24/19 Q1015 NOSIG=
200908082030 METAR LMML NIL=
200908082015 METAR LMML 082015Z VRB03KT CAVOK 25/19 Q1015 NOSIG=
200908082000 METAR LMML NIL=
200908081945 METAR LMML 081945Z 32004KT CAVOK 25/19 Q1014 NOSIG=
200908081930 METAR LMML NIL=
200908081915 METAR LMML 081915Z VRB01KT CAVOK 25/19 Q1014 NOSIG=
200908081900 METAR LMML NIL=
200908081845 METAR LMML 081845Z VRB02KT CAVOK 26/18 Q1014 NOSIG=
200908081830 METAR LMML NIL=
200908081815 METAR LMML 081815Z 02004KT 340V100 CAVOK 26/20 Q1014 NOSIG=
200908081800 METAR LMML NIL=
200908081730 METAR LMML NIL=
200908081715 METAR LMML 081715Z 01004KT 330V050 CAVOK 28/20 Q1013 NOSIG=
200908081700 METAR LMML NIL=
200908081645 METAR LMML 081645Z 36007KT 330V030 CAVOK 28/19 Q1013 NOSIG=
200908081630 METAR LMML NIL=
200908081615 METAR LMML 081615Z 20004KT 160V260 9999 FEW025 29/18 Q1013
                        NOSIG=
200908081600 METAR LMML NIL=
200908081545 METAR LMML 081545Z 20005KT 160V240 9999 FEW025 29/17 Q1013
                        NOSIG=
200908081530 METAR LMML NIL=
200908081515 METAR LMML 081515Z 19005KT 140V260 9999 FEW025 29/16 Q1013
                        NOSIG=
200908081445 METAR LMML 081445Z 18005KT 140V220 9999 FEW025 29/17 Q1013
                        NOSIG=
200908081430 METAR LMML NIL=
200908081415 METAR LMML 081415Z 21006KT 160V270 9999 FEW025 29/20 Q1013
                        NOSIG=
200908081400 METAR LMML NIL=
200908081345 METAR LMML 081345Z 19004KT 140V260 9999 SCT024 29/20 Q1013
                        NOSIG=
200908081330 METAR LMML NIL=
200908081315 METAR LMML 081315Z VRB03KT 9999 SCT021 28/21 Q1014 NOSIG=
200908081245 METAR LMML 081245Z VRB02KT 9999 SCT021 28/21 Q1014 NOSIG=
200908081215 METAR LMML 081215Z 12004KT 070V180 9999 SCT020 28/21 Q1014
                        NOSIG=
200908081200 METAR LMML NIL=
200908081145 METAR LMML 081145Z VRB03KT 9999 SCT020 27/21 Q1014 NOSIG=
200908081130 METAR LMML NIL=
200908081115 METAR LMML 081115Z 19004KT 140V330 9999 SCT025 28/21 Q1014
                        NOSIG=
200908081100 METAR LMML NIL=
200908081045 METAR LMML 081045Z VRB03KT 9999 SCT024 27/21 Q1014 NOSIG=
200908081015 METAR LMML 081015Z VRB03KT 9999 SCT024 28/21 Q1014 NOSIG=
200908080945 METAR LMML 080945Z 18004KT 120V250 9999 SCT025 28/21 Q1014
                        NOSIG=
200908080930 METAR LMML NIL=
200908080915 METAR LMML 080915Z 10004KT 9999 FEW031 29/21 Q1014 NOSIG=
200908080900 METAR LMML NIL=
200908080845 METAR LMML 080845Z 04004KT 340V090 9999 FEW020 30/19 Q1014
                        NOSIG=
200908080830 METAR LMML NIL=
200908080815 METAR LMML 080815Z VRB02KT 9999 FEW020 29/19 Q1013 NOSIG=
200908080800 METAR LMML NIL=
200908080745 METAR LMML 080745Z VRB03KT 9999 FEW015 28/19 Q1013 NOSIG=
200908080730 METAR LMML NIL=
200908080715 METAR LMML 080715Z VRB02KT 9999 FEW015 28/20 Q1013 NOSIG=
200908080700 METAR LMML NIL=
200908080645 METAR LMML 080645Z 08004KT 9999 FEW015 27/21 Q1013 NOSIG=
200908080630 METAR LMML NIL=
200908080615 METAR LMML 080615Z VRB03KT 9999 FEW015 26/21 Q1013 NOSIG=
200908080600 METAR LMML NIL=
200908080545 METAR LMML 080545Z VRB02KT 9999 FEW012 25/21 Q1013 NOSIG=
200908080530 METAR LMML NIL=
200908080515 METAR LMML 080515Z VRB01KT 9999 FEW010 23/21 Q1013 NOSIG=
200908080445 METAR LMML 080445Z 00000KT 9999 FEW010 22/20 Q1013 NOSIG=
200908080430 METAR LMML NIL=
200908080400 METAR LMML NIL=
200908080345 METAR LMML 080345Z VRB03KT 9999 FEW020 23/20 Q1012 NOSIG=
200908080330 METAR LMML NIL=
200908080315 METAR LMML 080315Z VRB02KT CAVOK 22/20 Q1012 NOSIG=
200908080300 METAR LMML NIL=
200908080245 METAR LMML 080245Z VRB01KT CAVOK 22/20 Q1012 NOSIG=
200908080230 METAR LMML NIL=
200908080215 METAR LMML 080215Z VRB01KT CAVOK 22/20 Q1012 NOSIG=
200908080200 METAR LMML NIL=
200908080145 METAR LMML 080145Z VRB01KT CAVOK 23/21 Q1012 NOSIG=
200908080130 METAR LMML NIL=
200908080115 METAR LMML 080115Z VRB01KT CAVOK 23/20 Q1013 NOSIG=
200908080100 METAR LMML NIL=
200908080045 METAR LMML 080045Z VRB02KT CAVOK 23/20 Q1013 NOSIG=
200908080030 METAR LMML NIL=
200908080015 METAR LMML 080015Z VRB01KT CAVOK 23/19 Q1013 NOSIG=
200908080000 METAR LMML NIL=
200908072345 METAR LMML 072345Z VRB02KT CAVOK 23/18 Q1013 NOSIG=
200908072330 METAR LMML NIL=
200908072315 METAR LMML 072315Z VRB01KT CAVOK 23/17 Q1014 NOSIG=
200908072300 METAR LMML NIL=
200908072245 METAR LMML 072245Z VRB02KT CAVOK 23/17 Q1014 NOSIG=
200908072230 METAR LMML NIL=
200908072215 METAR LMML 072215Z VRB02KT CAVOK 24/17 Q1014 NOSIG=
200908072200 METAR LMML NIL=
200908072145 METAR LMML 072145Z VRB02KT CAVOK 24/17 Q1014 NOSIG=
200908072115 METAR LMML 072115Z VRB02KT CAVOK 24/18 Q1014 NOSIG=
200908072100 METAR LMML NIL=
200908072045 METAR LMML 072045Z VRB02KT CAVOK 24/18 Q1014 NOSIG=
200908072030 METAR LMML NIL=
200908072015 METAR LMML 072015Z 31004KT CAVOK 24/19 Q1014 NOSIG=
200908072000 METAR LMML NIL=
200908071945 METAR LMML 071945Z 32005KT CAVOK 25/18 Q1013 NOSIG=
200908071930 METAR LMML NIL=
200908071915 METAR LMML 071915Z 32005KT CAVOK 25/18 Q1013 NOSIG=
200908071900 METAR LMML NIL=
200908071845 METAR LMML 071845Z 32006KT CAVOK 25/17 Q1013 NOSIG=
200908071830 METAR LMML NIL=
200908071815 METAR LMML 071815Z 33006KT 300V360 9999 FEW025 25/18 Q1013
                        NOSIG=
200908071800 METAR LMML NIL=
200908071745 METAR LMML 071745Z 34008KT 9999 FEW025 26/20 Q1013 NOSIG=
200908071730 METAR LMML NIL=
200908071715 METAR LMML 071715Z 34006KT 9999 FEW025 26/20 Q1013 NOSIG=
200908071700 METAR LMML NIL=
200908071645 METAR LMML 071645Z 36006KT 330V040 9999 FEW025 28/21 Q1012
                        NOSIG=
200908071615 METAR COR LMML 071615Z 03005KT 350V060 9999 FEW025 29/21
                        Q1012 NOSIG=
200908071600 METAR LMML NIL=
200908071545 METAR LMML 071545Z 02005KT 340V080 9999 FEW025 30/19 Q1012
                        NOSIG=
200908071530 METAR LMML NIL=
200908071515 METAR LMML 071515Z 03005KT 350V100 9999 FEW025 31/18 Q1012
                        NOSIG=
200908071500 METAR LMML NIL=
200908071445 METAR LMML 071445Z 03005KT 340V080 9999 FEW025 31/18 Q1012
                        NOSIG=
200908071415 METAR LMML 071415Z 03005KT 340V110 9999 FEW025 31/19 Q1012
                        NOSIG=
200908071400 METAR LMML NIL=
200908071345 METAR LMML 071345Z VRB03KT 9999 FEW023 31/18 Q1012 NOSIG=
200908071315 METAR LMML 071315Z 22004KT 9999 SCT023 30/20 Q1012 NOSIG=
200908071300 METAR LMML NIL=
200908071245 METAR LMML 071245Z 11004KT 030V280 9999 SCT021 28/20 Q1013
                        NOSIG=
200908071230 METAR LMML NIL=
200908071215 METAR LMML 071215Z 11005KT 040V200 9999 SCT025 28/21 Q1013
                        NOSIG=
200908071145 METAR LMML 071145Z 12005KT 060V200 9999 SCT025 27/20 Q1013
                        NOSIG=
200908071130 METAR LMML NIL=
200908071115 METAR LMML 071115Z 02005KT 320V080 9999 FEW027 29/20 Q1013
                        NOSIG=
200908071100 METAR LMML NIL=
200908071045 METAR LMML 071045Z VRB03KT 9999 SCT025 30/17 Q1013 NOSIG=
200908071030 METAR LMML NIL=
200908071015 METAR LMML 071015Z 05005KT 360V130 9999 SCT020 29/19 Q1013
                        NOSIG=
200908071000 METAR LMML NIL=
200908070945 METAR LMML 070945Z 36004KT 180V100 9999 SCT025 27/20 Q1013
                        NOSIG=
200908070930 METAR LMML NIL=
200908070915 METAR LMML 070915Z VRB03KT 9999 SCT025 29/20 Q1013 NOSIG=
200908070900 METAR LMML NIL=
200908070845 METAR LMML 070845Z 34004KT 280V050 9999 SCT025 28/20 Q1013
                        NOSIG=
200908070830 METAR LMML NIL=
200908070815 METAR LMML 070815Z VRB03KT 9999 FEW023 28/20 Q1013 NOSIG=
200908070745 METAR LMML 070745Z 01004KT 290V060 9999 FEW022 28/20 Q1013
                        NOSIG=
200908070730 METAR LMML NIL=
200908070715 METAR LMML 070715Z 34006KT 310V020 9999 FEW020 26/19 Q1013
                        NOSIG=
200908070645 METAR LMML 070645Z 33006KT 300V020 9999 FEW020 26/19 Q1013
                        NOSIG=
200908070630 METAR LMML NIL=
200908070615 METAR LMML 070615Z 32005KT 280V350 9999 FEW020 25/20 Q1012
                        NOSIG=
200908070600 METAR LMML NIL=
200908070545 METAR LMML 070545Z 32006KT 9999 FEW020 24/20 Q1012 NOSIG=
200908070530 METAR LMML NIL=
200908070500 METAR LMML NIL=
200908070445 METAR LMML 070445Z 30006KT 9999 FEW020 23/19 Q1012 NOSIG=
200908070430 METAR LMML NIL=
200908070415 METAR LMML 070415Z 31008KT 9999 FEW020 23/19 Q1012 NOSIG=
200908070400 METAR LMML NIL=
200908070345 METAR LMML 070345Z 31010KT 9999 FEW020 23/20 Q1012 NOSIG=
200908070330 METAR LMML NIL=
200908070315 METAR LMML 070315Z 31009KT 9999 FEW020 23/20 Q1012 NOSIG=
200908070300 METAR LMML NIL=
200908070200 METAR LMML NIL=
200908070145 METAR LMML 070145Z 29005KT CAVOK 24/20 Q1012 NOSIG=
200908070130 METAR LMML NIL=
200908070115 METAR LMML 070115Z 28007KT CAVOK 24/21 Q1012 NOSIG=
200908070100 METAR LMML NIL=
200908070045 METAR LMML 070045Z 27005KT 240V300 CAVOK 24/21 Q1012 NOSIG=
200908070030 METAR LMML NIL=
200908070015 METAR LMML 070015Z 24005KT 210V290 CAVOK 24/21 Q1012 NOSIG=
200908070000 METAR LMML NIL=
200908062345 METAR LMML 062345Z 24007KT 200V280 CAVOK 24/21 Q1013 NOSIG=
200908062315 METAR LMML 062315Z 24006KT 200V280 CAVOK 24/21 Q1013 NOSIG=
200908062245 METAR LMML 062245Z 23007KT 200V280 CAVOK 24/21 Q1013 NOSIG=
200908062215 METAR LMML 062215Z 24007KT 210V280 CAVOK 24/20 Q1013 NOSIG=
200908062200 METAR LMML NIL=
200908062145 METAR LMML 062145Z 23005KT 200V280 CAVOK 24/20 Q1013 NOSIG=
200908062130 METAR LMML NIL=
200908062115 METAR LMML 062115Z 22005KT 190V260 CAVOK 25/19 Q1013 NOSIG=
200908062100 METAR LMML NIL=
200908062045 METAR LMML 062045Z VRB03KT CAVOK 25/18 Q1014 NOSIG=
200908062015 METAR LMML 062015Z 27005KT 230V310 CAVOK 25/19 Q1014 NOSIG=
200908062000 METAR LMML NIL=
200908061945 METAR LMML 061945Z 28006KT 250V310 9999 FEW020 25/19 Q1014
                        NOSIG=
200908061930 METAR LMML NIL=
200908061915 METAR LMML 061915Z 29005KT 260V340 9999 FEW020 25/19 Q1014
                        NOSIG=
200908061900 METAR LMML NIL=
200908061845 METAR LMML 061845Z 29004KT 260V330 9999 FEW020 25/19 Q1014
                        NOSIG=
200908061815 METAR LMML 061815Z 31006KT 9999 FEW020 26/18 Q1014 NOSIG=
200908061745 METAR LMML 061745Z 30007KT 9999 FEW030 26/16 Q1013 NOSIG=
200908061730 METAR LMML NIL=
200908061715 METAR LMML 061715Z 30009KT 270V340 9999 FEW030 27/16 Q1014
                        NOSIG=
200908061700 METAR LMML NIL=
200908061645 METAR LMML 061645Z 29009KT 240V330 9999 FEW040 28/16 Q1013
                        NOSIG=
200908061630 METAR LMML NIL=
200908061615 METAR LMML 061615Z 30010KT 260V330 9999 FEW038 28/18 Q1013
                        NOSIG=
200908061600 METAR LMML NIL=
200908061545 METAR LMML 061545Z 36007KT 320V040 9999 FEW038 29/18 Q1013
                        NOSIG=
200908061530 METAR LMML NIL=
200908061515 METAR LMML 061515Z 02006KT 330V070 9999 FEW041 30/18 Q1013
                        NOSIG=
200908061500 METAR LMML NIL=
200908061445 METAR LMML 061445Z 01004KT 300V060 9999 FEW030 30/17 Q1013
                        NOSIG=
200908061430 METAR LMML NIL=
200908061415 METAR LMML 061415Z 36004KT 290V130 9999 FEW025 30/17 Q1013
                        NOSIG=
200908061345 METAR LMML 061345Z 03004KT 330V080 9999 FEW025 30/18 Q1013
                        NOSIG=
200908061330 METAR LMML NIL=
200908061315 METAR LMML 061315Z 36006KT 270V070 9999 FEW025 30/17 Q1014
                        NOSIG=
200908061300 METAR LMML NIL=
200908061245 METAR LMML 061245Z 02006KT 350V070 9999 FEW025 30/18 Q1014
                        NOSIG=
200908061230 METAR LMML NIL=
200908061215 METAR LMML 061215Z 02007KT 340V070 9999 FEW025 30/19 Q1014
                        NOSIG=
200908061200 METAR LMML NIL=
200908061145 METAR LMML 061145Z 02007KT 330V060 9999 FEW026 30/20 Q1014
                        NOSIG=
200908061130 METAR LMML NIL=
200908061115 METAR LMML 061115Z 01008KT 330V060 9999 FEW023 29/20 Q1014
                        NOSIG=
200908061100 METAR LMML NIL=
200908061030 METAR LMML NIL=
200908061015 METAR LMML 061015Z 02008KT 340V060 9999 SCT022 29/20 Q1014
                        NOSIG=
200908061000 METAR LMML NIL=
200908060945 METAR LMML 060945Z 03009KT 010V070 9999 SCT019 29/20 Q1014
                        NOSIG=
200908060930 METAR LMML NIL=
200908060915 METAR LMML 060915Z 03009KT 360V080 9999 SCT016 28/21 Q1014
                        NOSIG=
200908060900 METAR LMML NIL=
200908060845 METAR LMML 060845Z 03009KT 360V060 9999 BKN017 28/21 Q1014
                        NOSIG=
200908060830 METAR LMML NIL=
200908060815 METAR LMML 060815Z 03008KT 360V060 9999 SCT017 28/21 Q1014
                        NOSIG=
200908060730 METAR LMML NIL=
200908060700 METAR LMML NIL=
200908060645 METAR LMML 060645Z 03007KT 360V060 9999 FEW015 27/19 Q1013
                        NOSIG=
200908060630 METAR LMML NIL=
200908060615 METAR LMML 060615Z 04007KT 360V100 9999 FEW015 27/19 Q1013
                        NOSIG=
200908060600 METAR LMML NIL=
200908060545 METAR LMML 060545Z 05005KT 010V090 9999 FEW015 26/20 Q1013
                        NOSIG=
200908060530 METAR LMML NIL=
200908060515 METAR LMML 060515Z 06004KT 030V090 9999 FEW015 25/21 Q1012
                        NOSIG=
200908060500 METAR LMML NIL=
200908060445 METAR LMML 060445Z 06005KT 040V100 9999 FEW015 24/21 Q1012
                        NOSIG=
200908060430 METAR LMML NIL=
200908060415 METAR LMML 060415Z 08005KT 030V100 9999 FEW013 24/21 Q1012
                        NOSIG=
200908060400 METAR LMML NIL=
200908060345 METAR LMML 060345Z 07004KT 9999 FEW013 24/21 Q1012 NOSIG=
200908060330 METAR LMML NIL=
200908060315 METAR LMML 060315Z VRB03KT 9999 SCT011 24/21 Q1012 NOSIG=
200908060300 METAR LMML NIL=
200908060245 METAR LMML 060245Z VRB01KT 9999 BKN006 23/21 Q1012 NOSIG=
200908060230 METAR LMML NIL=
200908060215 METAR LMML 060215Z VRB01KT 9999 FEW005 23/21 Q1012 NOSIG=
200908060200 METAR LMML NIL=
200908060145 METAR LMML 060145Z VRB02KT CAVOK 23/21 Q1012 NOSIG=
200908060130 METAR LMML NIL=
200908060115 METAR LMML 060115Z VRB03KT CAVOK 23/21 Q1012 NOSIG=
200908060100 METAR LMML NIL=
200908060045 METAR LMML 060045Z VRB02KT CAVOK 23/20 Q1012 NOSIG=
200908060030 METAR LMML NIL=
200908060015 METAR LMML 060015Z 31005KT CAVOK 24/20 Q1012 NOSIG=
200908060000 METAR LMML NIL=
200908052345 METAR LMML 052345Z 31004KT CAVOK 24/19 Q1012 NOSIG=
200908052330 METAR LMML NIL=
200908052315 METAR LMML 052315Z 33006KT CAVOK 24/19 Q1013 NOSIG=
200908052300 METAR LMML NIL=
200908052245 METAR LMML 052245Z VRB03KT CAVOK 24/20 Q1013 NOSIG=
200908052230 METAR LMML NIL=
200908052215 METAR LMML 052215Z 32004KT 280V350 CAVOK 24/20 Q1013 NOSIG=
200908052200 METAR LMML NIL=
200908052145 METAR LMML 052145Z 30008KT CAVOK 24/20 Q1013 NOSIG=
200908052130 METAR LMML NIL=
200908052115 METAR LMML 052115Z 29006KT 240V350 CAVOK 24/20 Q1013 NOSIG=
200908052100 METAR LMML NIL=
200908052045 METAR LMML 052045Z 29007KT CAVOK 24/20 Q1013 NOSIG=
200908052030 METAR LMML NIL=
200908052015 METAR LMML 052015Z 30007KT 270V330 CAVOK 24/20 Q1013 NOSIG=
200908052000 METAR LMML NIL=
200908051945 METAR LMML 051945Z 29006KT 270V330 CAVOK 24/20 Q1013 NOSIG=
200908051930 METAR LMML NIL=
200908051915 METAR LMML 051915Z 31010KT CAVOK 24/20 Q1013 NOSIG=
200908051900 METAR LMML NIL=
200908051845 METAR LMML 051845Z 32011KT CAVOK 24/20 Q1013 NOSIG=
200908051830 METAR LMML NIL=
200908051815 METAR LMML 051815Z 31012KT CAVOK 25/19 Q1013 NOSIG=
200908051800 METAR LMML NIL=
200908051745 METAR LMML 051745Z 31012KT CAVOK 26/18 Q1013 NOSIG=
200908051730 METAR LMML NIL=
200908051715 METAR LMML 051715Z 30014KT 260V320 CAVOK 26/18 Q1013 NOSIG=
200908051700 METAR LMML NIL=
200908051645 METAR LMML 051645Z 30013KT CAVOK 27/18 Q1013 NOSIG=
200908051630 METAR LMML NIL=
200908051615 METAR LMML 051615Z 30012KT CAVOK 28/17 Q1013 NOSIG=
200908051600 METAR LMML NIL=
200908051545 METAR LMML 051545Z 30012KT 270V340 CAVOK 28/16 Q1013 NOSIG=
200908051530 METAR LMML NIL=
200908051515 METAR LMML 051515Z 30012KT CAVOK 29/14 Q1013 NOSIG=
200908051500 METAR LMML NIL=
200908051445 METAR LMML 051445Z 29011KT 260V330 9999 FEW030 29/14 Q1013
                        NOSIG=
200908051430 METAR LMML NIL=
200908051415 METAR LMML 051415Z 30011KT 250V330 9999 FEW030 30/12 Q1013
                        NOSIG=
200908051400 METAR LMML NIL=
200908051345 METAR LMML 051345Z 30010KT 240V330 9999 FEW030 30/14 Q1013
                        NOSIG=
200908051330 METAR LMML NIL=
200908051315 METAR LMML 051315Z 32008KT 260V350 9999 FEW030 30/13 Q1013
                        NOSIG=
200908051300 METAR LMML NIL=
200908051245 METAR LMML 051245Z 28009KT 210V320 9999 FEW030 30/15 Q1013
                        NOSIG=
200908051215 METAR LMML 051215Z 36007KT 9999 FEW030 32/13 Q1013 NOSIG=
200908051200 METAR LMML NIL=
200908051145 METAR LMML 051145Z 34006KT 280V060 9999 FEW030 31/12 Q1013
                        NOSIG=
200908051130 METAR LMML NIL=
200908051115 METAR LMML 051115Z 33006KT 250V030 9999 FEW030 30/13 Q1014
                        NOSIG=
200908051045 METAR LMML 051045Z 34007KT 300V040 9999 FEW030 29/14 Q1014
                        NOSIG=
200908051030 METAR LMML NIL=
200908051015 METAR LMML 051015Z 35006KT 290V050 9999 FEW030 30/15 Q1014
                        NOSIG=
200908051000 METAR LMML NIL=
200908050945 METAR LMML 050945Z 34008KT 290V040 9999 FEW030 29/15 Q1014
                        NOSIG=
200908050930 METAR LMML NIL=
200908050915 METAR LMML 050915Z 33009KT 300V010 9999 FEW020 29/15 Q1014
                        NOSIG=
200908050900 METAR LMML NIL=
200908050845 METAR LMML 050845Z 36008KT 330V030 9999 FEW020 29/16 Q1014
                        NOSIG=
200908050830 METAR LMML NIL=
200908050815 METAR LMML 050815Z 34011KT 300V010 9999 FEW020 28/17 Q1014
                        NOSIG=
200908050800 METAR LMML NIL=
200908050745 METAR LMML 050745Z 34011KT 300V010 CAVOK 28/17 Q1013 NOSIG=
200908050730 METAR LMML NIL=
200908050715 METAR LMML 050715Z 33011KT 300V010 CAVOK 27/17 Q1013 NOSIG=
200908050700 METAR LMML NIL=
200908050645 METAR LMML 050645Z 33011KT CAVOK 26/18 Q1013 NOSIG=
200908050630 METAR LMML NIL=
200908050615 METAR LMML 050615Z 32008KT 280V350 CAVOK 26/18 Q1013 NOSIG=
200908050600 METAR LMML NIL=
200908050545 METAR LMML 050545Z 32007KT 290V350 CAVOK 25/19 Q1012 NOSIG=
200908050530 METAR LMML NIL=
200908050515 METAR LMML 050515Z 31008KT CAVOK 24/20 Q1012 NOSIG=
200908050500 METAR LMML NIL=
200908050445 METAR LMML 050445Z 30009KT CAVOK 23/20 Q1012 NOSIG=
200908050430 METAR LMML NIL=
200908050415 METAR LMML 050415Z 30008KT CAVOK 23/20 Q1012 NOSIG=
200908050400 METAR LMML NIL=
200908050345 METAR LMML 050345Z 30008KT CAVOK 23/20 Q1012 NOSIG=
200908050330 METAR LMML NIL=
200908050315 METAR LMML 050315Z 30007KT CAVOK 23/19 Q1012 NOSIG=
200908050300 METAR LMML NIL=
200908050245 METAR LMML 050245Z 30005KT CAVOK 23/19 Q1012 NOSIG=
200908050230 METAR LMML NIL=
200908050215 METAR LMML 050215Z 31005KT 280V340 CAVOK 23/20 Q1012 NOSIG=
200908050200 METAR LMML NIL=
200908050145 METAR LMML 050145Z 30006KT CAVOK 24/20 Q1012 NOSIG=
200908050130 METAR LMML NIL=
200908050115 METAR LMML 050115Z 29007KT 240V320 CAVOK 24/20 Q1012 NOSIG=
200908050100 METAR LMML NIL=
200908050045 METAR LMML 050045Z 26006KT 220V300 CAVOK 24/20 Q1012 NOSIG=
200908050030 METAR LMML NIL=
200908050015 METAR LMML 050015Z 28008KT 240V300 CAVOK 24/19 Q1013 NOSIG=
200908050000 METAR LMML NIL=
200908042345 METAR LMML 042345Z 28006KT 250V310 CAVOK 24/18 Q1013 NOSIG=
200908042315 METAR LMML 042315Z 27006KT 240V300 CAVOK 24/18 Q1013 NOSIG=
200908042300 METAR LMML NIL=
200908042245 METAR LMML 042245Z 29009KT CAVOK 25/17 Q1013 NOSIG=
200908042230 METAR LMML NIL=
200908042215 METAR LMML 042215Z 29007KT 9999 FEW014 25/19 Q1013 NOSIG=
200908042200 METAR LMML NIL=
200908042145 METAR LMML 042145Z 30006KT 9999 FEW014 25/20 Q1013 NOSIG=
200908042130 METAR LMML NIL=
200908042115 METAR LMML 042115Z 31008KT 270V330 9999 FEW014 25/20 Q1013
                        NOSIG=
200908042100 METAR LMML NIL=
200908042045 METAR LMML 042045Z 29008KT 250V330 9999 FEW014 25/20 Q1013
                        NOSIG=
200908042030 METAR LMML NIL=
200908042015 METAR LMML 042015Z 32005KT 270V360 9999 FEW014 25/21 Q1013
                        NOSIG=
200908042000 METAR LMML NIL=
200908041945 METAR LMML 041945Z 32006KT 290V360 9999 FEW014 25/21 Q1013
                        NOSIG=
200908041930 METAR LMML NIL=
200908041915 METAR LMML 041915Z 31006KT 270V340 9999 FEW014 25/22 Q1013
                        NOSIG=
200908041900 METAR LMML NIL=
200908041845 METAR LMML 041845Z 30005KT 250V350 9000 FEW014 25/22 Q1012
                        NOSIG=
200908041830 METAR LMML NIL=
200908041815 METAR LMML 041815Z 30008KT 260V330 9000 FEW014 26/22 Q1012
                        NOSIG=
200908041800 METAR LMML NIL=
200908041745 METAR LMML 041745Z 29010KT 9999 FEW014 26/22 Q1013 NOSIG=
200908041730 METAR LMML NIL=
200908041715 METAR LMML 041715Z 28010KT 250V320 9999 FEW016 27/22 Q1012
                        NOSIG=
200908041700 METAR LMML NIL=
200908041645 METAR LMML 041645Z 29009KT 260V320 9999 FEW016 28/22 Q1012
                        NOSIG=
200908041630 METAR LMML NIL=
200908041615 METAR LMML 041615Z 28009KT 230V320 9999 FEW016 28/23 Q1012
                        NOSIG=
200908041600 METAR LMML NIL=
200908041545 METAR LMML 041545Z 26008KT 190V290 9999 FEW018 29/23 Q1012
                        NOSIG=
200908041530 METAR LMML NIL=
200908041515 METAR LMML 041515Z 25010KT 190V290 9999 FEW019 29/22 Q1013
                        NOSIG=
200908041500 METAR LMML NIL=
200908041445 METAR LMML 041445Z 24009KT 190V310 9999 FEW030 30/21 Q1013
                        NOSIG=
200908041430 METAR LMML NIL=
200908041415 METAR LMML 041415Z 23008KT 200V300 CAVOK 30/22 Q1013 NOSIG=
200908041400 METAR LMML NIL=
200908041345 METAR LMML 041345Z 22010KT 190V280 CAVOK 30/20 Q1013 NOSIG=
200908041330 METAR LMML NIL=
200908041315 METAR LMML 041315Z 22012KT 200V260 CAVOK 29/21 Q1013 NOSIG=
200908041300 METAR LMML NIL=
200908041245 METAR LMML 041245Z 22010KT 170V270 CAVOK 30/21 Q1013 NOSIG=
200908041230 METAR LMML NIL=
200908041215 METAR LMML 041215Z 20011KT 150V260 CAVOK 30/21 Q1013 NOSIG=
200908041200 METAR LMML NIL=
200908041145 METAR LMML 041145Z 22010KT 170V280 CAVOK 30/22 Q1014 NOSIG=
200908041115 METAR LMML 041115Z 22010KT 180V280 CAVOK 30/22 Q1014 NOSIG=
200908041100 METAR LMML NIL=
200908041045 METAR LMML 041045Z 21009KT 150V250 CAVOK 30/22 Q1014 NOSIG=
200908041030 METAR LMML NIL=
200908041015 METAR LMML 041015Z 23010KT 180V280 CAVOK 30/22 Q1014 NOSIG=
200908041000 METAR LMML NIL=
200908040945 METAR LMML 040945Z 23012KT 190V280 CAVOK 29/22 Q1014 NOSIG=
200908040930 METAR LMML NIL=
200908040915 METAR LMML 040915Z 22010KT 180V270 CAVOK 29/22 Q1014 NOSIG=
200908040900 METAR LMML NIL=
200908040845 METAR LMML 040845Z 23008KT 170V280 CAVOK 29/22 Q1015 NOSIG=
200908040830 METAR LMML NIL=
200908040815 METAR LMML 040815Z 22008KT 160V290 CAVOK 29/21 Q1014 NOSIG=
200908040800 METAR LMML NIL=
200908040745 METAR LMML 040745Z 21008KT 170V280 CAVOK 28/22 Q1014 NOSIG=
200908040730 METAR LMML NIL=
200908040715 METAR LMML 040715Z 20007KT 150V250 CAVOK 28/22 Q1014 NOSIG=
200908040700 METAR LMML NIL=
200908040645 METAR LMML 040645Z 19006KT 150V220 CAVOK 27/22 Q1014 NOSIG=
200908040630 METAR LMML NIL=
200908040615 METAR LMML 040615Z 20005KT 160V230 CAVOK 27/22 Q1014 NOSIG=
200908040600 METAR LMML NIL=
200908040545 METAR LMML 040545Z 17006KT 130V210 CAVOK 26/22 Q1013 NOSIG=
200908040530 METAR LMML NIL=
200908040515 METAR LMML 040515Z 15004KT 110V190 CAVOK 25/23 Q1013 NOSIG=
200908040500 METAR LMML NIL=
200908040445 METAR LMML 040445Z 16005KT CAVOK 24/23 Q1013 NOSIG=
200908040430 METAR LMML NIL=
200908040415 METAR LMML 040415Z VRB03KT CAVOK 24/22 Q1013 NOSIG=
200908040400 METAR LMML NIL=
200908040345 METAR LMML 040345Z 15004KT CAVOK 24/22 Q1013 NOSIG=
200908040330 METAR LMML NIL=
200908040315 METAR LMML 040315Z VRB03KT CAVOK 24/22 Q1013 NOSIG=
200908040300 METAR LMML NIL=
200908040245 METAR LMML 040245Z VRB03KT CAVOK 24/22 Q1013 NOSIG=
200908040230 METAR LMML NIL=
200908040215 METAR LMML 040215Z VRB01KT CAVOK 24/21 Q1014 NOSIG=
200908040200 METAR LMML NIL=
200908040145 METAR LMML 040145Z 00000KT CAVOK 24/21 Q1014 NOSIG=
200908040130 METAR LMML NIL=
200908040115 METAR LMML 040115Z VRB01KT CAVOK 24/22 Q1014 NOSIG=
200908040100 METAR LMML NIL=
200908040045 METAR LMML 040045Z VRB02KT CAVOK 25/21 Q1014 NOSIG=
200908040030 METAR LMML NIL=
200908040015 METAR LMML 040015Z VRB03KT CAVOK 25/22 Q1014 NOSIG=
200908040000 METAR LMML NIL=
200908032345 METAR LMML 032345Z VRB03KT CAVOK 26/22 Q1014 NOSIG=
200908032315 METAR LMML 032315Z 18006KT 140V220 CAVOK 26/22 Q1014 NOSIG=
200908032300 METAR LMML NIL=
200908032245 METAR LMML 032245Z 17006KT 140V200 CAVOK 26/22 Q1014 NOSIG=
200908032215 METAR LMML 032215Z 17007KT 130V190 CAVOK 26/22 Q1014 NOSIG=
200908032145 METAR LMML 032145Z 17006KT 140V200 CAVOK 26/22 Q1014 NOSIG=
200908032130 METAR LMML NIL=
200908032115 METAR LMML 032115Z 18004KT 140V210 CAVOK 26/22 Q1015 NOSIG=
200908032100 METAR LMML NIL=
200908032045 METAR LMML 032045Z 18004KT CAVOK 26/22 Q1015 NOSIG=
200908032030 METAR LMML NIL=
200908032015 METAR LMML 032015Z 18004KT CAVOK 26/21 Q1015 NOSIG=
200908032000 METAR LMML NIL=
200908031945 METAR LMML 031945Z 19004KT 160V230 CAVOK 26/21 Q1015 NOSIG=
200908031930 METAR LMML NIL=
200908031915 METAR LMML 031915Z 19004KT 160V230 CAVOK 26/21 Q1015 NOSIG=
200908031900 METAR LMML NIL=
200908031845 METAR LMML 031845Z VRB03KT CAVOK 27/21 Q1015 NOSIG=
200908031830 METAR LMML NIL=
200908031815 METAR LMML 031815Z VRB03KT CAVOK 27/20 Q1015 NOSIG=
200908031800 METAR LMML NIL=
200908031745 METAR LMML 031745Z 24004KT 210V290 CAVOK 28/19 Q1015 NOSIG=
200908031730 METAR LMML NIL=
200908031715 METAR LMML 031715Z 24004KT 190V290 CAVOK 29/17 Q1015 NOSIG=
200908031700 METAR LMML NIL=
200908031645 METAR LMML 031645Z 22006KT 190V250 CAVOK 30/17 Q1015 NOSIG=
200908031630 METAR LMML NIL=
200908031615 METAR LMML 031615Z 23006KT 190V280 CAVOK 30/16 Q1015 NOSIG=
200908031600 METAR LMML NIL=
200908031545 METAR LMML 031545Z 24006KT 190V300 CAVOK 31/16 Q1015 NOSIG=
200908031530 METAR LMML NIL=
200908031515 METAR LMML 031515Z 23006KT 180V290 CAVOK 31/15 Q1015 NOSIG=
200908031500 METAR LMML NIL=
200908031445 METAR LMML 031445Z 22007KT 180V260 CAVOK 32/15 Q1015 NOSIG=
200908031430 METAR LMML NIL=
200908031415 METAR LMML 031415Z 22006KT 190V270 CAVOK 32/14 Q1015 NOSIG=
200908031345 METAR LMML 031345Z 23007KT 190V280 CAVOK 32/14 Q1016 NOSIG=
200908031315 METAR LMML 031315Z 22008KT 180V280 CAVOK 32/13 Q1016 NOSIG=
200908031300 METAR LMML NIL=
200908031245 METAR LMML 031245Z 22008KT 180V270 CAVOK 32/14 Q1016 NOSIG=
200908031230 METAR LMML NIL=
200908031215 METAR LMML 031215Z 23008KT 200V300 CAVOK 33/12 Q1016 NOSIG=
200908031145 METAR LMML 031145Z 22007KT 190V250 CAVOK 32/14 Q1016 NOSIG=
200908031130 METAR LMML NIL=
200908031115 METAR LMML 031115Z 22007KT 170V290 CAVOK 32/14 Q1017 NOSIG=
200908031100 METAR LMML NIL=
200908031045 METAR LMML 031045Z 24006KT 190V290 CAVOK 31/15 Q1017 NOSIG=
200908031030 METAR LMML NIL=
200908031015 METAR LMML 031015Z 23006KT 180V310 CAVOK 32/15 Q1017 NOSIG=
200908031000 METAR LMML NIL=
200908030945 METAR LMML 030945Z 22007KT 180V260 CAVOK 32/13 Q1016 NOSIG=
200908030930 METAR LMML NIL=
200908030915 METAR LMML 030915Z 25005KT 190V290 CAVOK 32/13 Q1016 NOSIG=
200908030900 METAR LMML NIL=
200908030845 METAR LMML 030845Z 24005KT 190V280 CAVOK 31/12 Q1016 NOSIG=
200908030830 METAR LMML NIL=
200908030815 METAR LMML 030815Z 25006KT 200V300 CAVOK 31/13 Q1016 NOSIG=
200908030800 METAR LMML NIL=
200908030745 METAR LMML 030745Z 23005KT 200V270 CAVOK 31/13 Q1016 NOSIG=
200908030715 METAR LMML 030715Z 26005KT 190V300 CAVOK 30/12 Q1016 NOSIG=
200908030700 METAR LMML NIL=
200908030645 METAR LMML 030645Z 26005KT 230V300 CAVOK 29/15 Q1016 NOSIG=
200908030630 METAR LMML NIL=
200908030615 METAR LMML 030615Z 26005KT 220V300 CAVOK 28/17 Q1016 NOSIG=
200908030600 METAR LMML NIL=
200908030545 METAR LMML 030545Z 27005KT 230V300 CAVOK 25/21 Q1016 NOSIG=
200908030530 METAR LMML NIL=
200908030515 METAR LMML 030515Z 25004KT 210V300 CAVOK 25/23 Q1016 NOSIG=
200908030500 METAR LMML NIL=
200908030445 METAR LMML 030445Z VRB03KT CAVOK 23/22 Q1015 NOSIG=
200908030430 METAR LMML NIL=
200908030415 METAR LMML 030415Z VRB03KT CAVOK 22/20 Q1015 NOSIG=
200908030400 METAR LMML NIL=
200908030345 METAR LMML 030345Z VRB03KT CAVOK 22/20 Q1015 NOSIG=
200908030330 METAR LMML NIL=
200908030315 METAR LMML 030315Z VRB02KT CAVOK 23/21 Q1015 NOSIG=
200908030300 METAR LMML NIL=
200908030245 METAR LMML 030245Z VRB03KT CAVOK 24/22 Q1015 NOSIG=
200908030230 METAR LMML NIL=
200908030215 METAR LMML 030215Z 21004KT CAVOK 24/22 Q1015 NOSIG=
200908030200 METAR LMML NIL=
200908030145 METAR LMML 030145Z VRB03KT CAVOK 24/22 Q1015 NOSIG=
200908030130 METAR LMML NIL=
200908030115 METAR LMML 030115Z VRB03KT CAVOK 24/22 Q1016 NOSIG=
200908030100 METAR LMML NIL=
200908030045 METAR LMML 030045Z VRB03KT CAVOK 24/22 Q1016 NOSIG=
200908030030 METAR LMML NIL=
200908030015 METAR LMML 030015Z 23004KT CAVOK 24/20 Q1016 NOSIG=
200908030000 METAR LMML NIL=
200908022345 METAR LMML 022345Z 21004KT CAVOK 25/21 Q1016 NOSIG=
200908022330 METAR LMML NIL=
200908022315 METAR LMML 022315Z 21004KT CAVOK 25/22 Q1016 NOSIG=
200908022245 METAR LMML 022245Z VRB03KT CAVOK 25/22 Q1016 NOSIG=
200908022215 METAR LMML 022215Z VRB02KT CAVOK 24/21 Q1016 NOSIG=
200908022200 METAR LMML NIL=
200908022145 METAR LMML 022145Z VRB02KT CAVOK 24/20 Q1016 NOSIG=
200908022130 METAR LMML NIL=
200908022115 METAR LMML 022115Z VRB02KT CAVOK 25/19 Q1016 NOSIG=
200908022100 METAR LMML NIL=
200908022045 METAR LMML 022045Z VRB03KT CAVOK 25/17 Q1016 NOSIG=
200908022030 METAR LMML NIL=
200908022015 METAR LMML 022015Z VRB02KT CAVOK 26/18 Q1016 NOSIG=
200908022000 METAR LMML NIL=
200908021945 METAR LMML 021945Z VRB03KT CAVOK 26/21 Q1016 NOSIG=
200908021915 METAR LMML 021915Z VRB02KT CAVOK 26/18 Q1015 NOSIG=
200908021845 METAR LMML 021845Z VRB03KT CAVOK 27/15 Q1015 NOSIG=
200908021830 METAR LMML NIL=
200908021815 METAR LMML 021815Z VRB03KT CAVOK 29/15 Q1015 NOSIG=
200908021800 METAR LMML NIL=
200908021745 METAR LMML 021745Z 28004KT 240V300 CAVOK 31/09 Q1015 NOSIG=
200908021730 METAR LMML NIL=
200908021715 METAR LMML 021715Z 27004KT 220V300 CAVOK 32/10 Q1015 NOSIG=
200908021645 METAR LMML 021645Z 26005KT 190V290 CAVOK 32/10 Q1015 NOSIG=
200908021630 METAR LMML NIL=
200908021615 METAR LMML 021615Z 27005KT 240V320 CAVOK 33/10 Q1015 NOSIG=
200908021600 METAR LMML NIL=
200908021545 METAR LMML 021545Z 34004KT 280V060 CAVOK 33/16 Q1015 NOSIG=
200908021530 METAR LMML NIL=
200908021515 METAR LMML 021515Z 14004KT CAVOK 34/16 Q1015 NOSIG=
200908021500 METAR LMML NIL=
200908021445 METAR LMML 021445Z 35004KT 250V070 CAVOK 33/16 Q1015 NOSIG=
200908021430 METAR LMML NIL=
200908021415 METAR LMML 021415Z 24005KT 200V290 CAVOK 33/11 Q1015 NOSIG=
200908021400 METAR LMML NIL=
200908021345 METAR LMML 021345Z VRB03KT CAVOK 34/16 Q1015 NOSIG=
200908021330 METAR LMML NIL=
200908021315 METAR LMML 021315Z 21005KT CAVOK 34/16 Q1016 NOSIG=
200908021245 METAR LMML 021245Z VRB03KT CAVOK 34/17 Q1016 NOSIG=
200908021230 METAR LMML NIL=
200908021215 METAR LMML 021215Z VRB03KT CAVOK 33/17 Q1016 NOSIG=
200908021200 METAR LMML NIL=
200908021145 METAR LMML 021145Z VRB02KT CAVOK 35/16 Q1016 NOSIG=
200908021130 METAR LMML NIL=
200908021115 METAR LMML 021115Z 26004KT 130V330 CAVOK 33/10 Q1016 NOSIG=
200908021045 METAR LMML 021045Z 26004KT 160V330 CAVOK 33/11 Q1016 NOSIG=
200908021030 METAR LMML NIL=
200908021015 METAR LMML 021015Z 29006KT 240V350 CAVOK 32/11 Q1016 NOSIG=
200908021000 METAR LMML NIL=
200908020945 METAR LMML 020945Z VRB02KT CAVOK 33/11 Q1016 NOSIG=
200908020930 METAR LMML NIL=
200908020915 METAR LMML 020915Z 25004KT 180V340 CAVOK 32/12 Q1016 NOSIG=
200908020900 METAR LMML NIL=
200908020845 METAR LMML 020845Z 32006KT 270V360 CAVOK 32/12 Q1016 NOSIG=
200908020830 METAR LMML NIL=
200908020815 METAR LMML 020815Z 35006KT 330V030 CAVOK 32/13 Q1016 NOSIG=
200908020800 METAR LMML NIL=
200908020745 METAR LMML 020745Z VRB02KT CAVOK 31/12 Q1016 NOSIG=
200908020730 METAR LMML NIL=
200908020715 METAR LMML 020715Z VRB02KT CAVOK 30/09 Q1016 NOSIG=
200908020700 METAR LMML NIL=
200908020645 METAR LMML 020645Z VRB01KT CAVOK 29/07 Q1016 NOSIG=
200908020630 METAR LMML NIL=
200908020615 METAR LMML 020615Z VRB01KT CAVOK 28/05 Q1016 NOSIG=
200908020600 METAR LMML NIL=
200908020545 METAR LMML 020545Z VRB02KT CAVOK 26/05 Q1015 NOSIG=
200908020530 METAR LMML NIL=
200908020515 METAR LMML 020515Z VRB03KT CAVOK 24/05 Q1015 NOSIG=
200908020500 METAR LMML NIL=
200908020445 METAR LMML 020445Z VRB02KT CAVOK 24/05 Q1015 NOSIG=
200908020430 METAR LMML NIL=
200908020415 METAR LMML 020415Z VRB03KT CAVOK 23/05 Q1015 NOSIG=
200908020345 METAR LMML 020345Z 24004KT CAVOK 23/07 Q1015 NOSIG=
200908020330 METAR LMML NIL=
200908020315 METAR LMML 020315Z 26004KT CAVOK 24/06 Q1015 NOSIG=
200908020300 METAR LMML NIL=
200908020245 METAR LMML 020245Z VRB03KT CAVOK 23/07 Q1015 NOSIG=
200908020230 METAR LMML NIL=
200908020215 METAR LMML 020215Z VRB02KT CAVOK 23/09 Q1015 NOSIG=
200908020200 METAR LMML NIL=
200908020145 METAR LMML 020145Z VRB01KT CAVOK 23/10 Q1015 NOSIG=
200908020130 METAR LMML NIL=
200908020115 METAR LMML 020115Z VRB02KT CAVOK 23/08 Q1015 NOSIG=
200908020100 METAR LMML NIL=
200908020045 METAR LMML 020045Z VRB01KT CAVOK 23/12 Q1015 NOSIG=
200908020030 METAR LMML NIL=
200908020015 METAR LMML 020015Z VRB02KT CAVOK 23/12 Q1015 NOSIG=
200908020000 METAR LMML NIL=
200908012345 METAR LMML 012345Z VRB01KT CAVOK 23/15 Q1015 NOSIG=
200908012315 METAR LMML 012315Z VRB03KT CAVOK 24/15 Q1015 NOSIG=
200908012300 METAR LMML NIL=
200908012245 METAR LMML 012245Z VRB02KT CAVOK 24/15 Q1015 NOSIG=
200908012230 METAR LMML NIL=
200908012215 METAR LMML 012215Z VRB01KT CAVOK 24/15 Q1016 NOSIG=
200908012200 METAR LMML NIL=
200908012145 METAR LMML 012145Z VRB01KT CAVOK 24/16 Q1016 NOSIG=
200908012130 METAR LMML NIL=
200908012115 METAR LMML 012115Z VRB02KT CAVOK 25/16 Q1016 NOSIG=
200908012100 METAR LMML NIL=
200908012045 METAR LMML 012045Z 26005KT 230V290 CAVOK 25/17 Q1015 NOSIG=
200908012030 METAR LMML NIL=
200908012015 METAR LMML 012015Z 27005KT CAVOK 25/19 Q1016 NOSIG=
200908012000 METAR LMML NIL=
200908011945 METAR LMML 011945Z 30004KT CAVOK 25/19 Q1016 NOSIG=
200908011930 METAR LMML NIL=
200908011915 METAR LMML 011915Z 27004KT 230V300 CAVOK 26/17 Q1015 NOSIG=
200908011900 METAR LMML NIL=
200908011845 METAR LMML 011845Z VRB03KT CAVOK 26/19 Q1015 NOSIG=
200908011830 METAR LMML NIL=
200908011815 METAR LMML 011815Z VRB02KT CAVOK 26/20 Q1015 NOSIG=
200908011800 METAR LMML NIL=
200908011745 METAR LMML 011745Z 24005KT 210V270 CAVOK 27/19 Q1015 NOSIG=
200908011730 METAR LMML NIL=
200908011715 METAR LMML 011715Z 24005KT 200V280 CAVOK 29/18 Q1015 NOSIG=
200908011700 METAR LMML NIL=
200908011645 METAR LMML 011645Z 28005KT 250V320 CAVOK 32/11 Q1014 NOSIG=
200908011630 METAR LMML NIL=
200908011615 METAR LMML 011615Z 28006KT 250V320 CAVOK 33/11 Q1014 NOSIG=
200908011600 METAR LMML NIL=
200908011545 METAR LMML 011545Z 30006KT 270V340 CAVOK 34/09 Q1015 NOSIG=
200908011515 METAR LMML 011515Z 29006KT 250V330 CAVOK 33/10 Q1015 NOSIG=
200908011500 METAR LMML NIL=
200908011445 METAR LMML 011445Z 32008KT 280V350 CAVOK 34/10 Q1015 NOSIG=
200908011430 METAR LMML NIL=
200908011415 METAR LMML 011415Z 32008KT 290V360 CAVOK 34/10 Q1015 NOSIG=
200908011400 METAR LMML NIL=
200908011345 METAR LMML 011345Z 30006KT 240V350 CAVOK 35/12 Q1015 NOSIG=
200908011330 METAR LMML NIL=
200908011315 METAR LMML 011315Z 31006G16KT 250V010 CAVOK 34/12 Q1015 NOSIG=
200908011300 METAR LMML NIL=
200908011245 METAR LMML 011245Z 28006KT 240V330 CAVOK 34/13 Q1015 NOSIG=
200908011230 METAR LMML NIL=
200908011215 METAR LMML 011215Z 27007KT 200V330 CAVOK 34/13 Q1015 NOSIG=
200908011200 METAR LMML NIL=
200908011145 METAR LMML 011145Z 26006KT 210V310 CAVOK 33/12 Q1016 NOSIG=
200908011130 METAR LMML NIL=
200908011115 METAR LMML 011115Z 31005KT 260V010 CAVOK 33/13 Q1016 NOSIG=
200908011100 METAR LMML NIL=
200908011045 METAR LMML 011045Z 30007KT 210V020 9999 FEW036 33/11 Q1016
                        NOSIG=
200908011030 METAR LMML NIL=
200908011015 METAR LMML 011015Z 28007KT 240V320 9999 FEW036 33/11 Q1016
                        NOSIG=
200908011000 METAR LMML NIL=
200908010945 METAR LMML 010945Z 12004KT 010V270 9999 FEW015 32/18 Q1016
                        NOSIG=
200908010930 METAR LMML NIL=
200908010915 METAR LMML 010915Z 08004KT 280V220 9999 FEW015 31/21 Q1016
                        NOSIG=
200908010900 METAR LMML NIL=
200908010845 METAR LMML 010845Z 10005KT 050V170 9999 FEW015 30/20 Q1016
                        NOSIG=
200908010830 METAR LMML NIL=
200908010815 METAR LMML 010815Z 09005KT 320V140 9999 FEW015 31/18 Q1016
                        NOSIG=
200908010800 METAR LMML NIL=
200908010745 METAR LMML 010745Z VRB03KT 9999 FEW015 31/16 Q1016 NOSIG=
200908010730 METAR LMML NIL=
200908010715 METAR LMML 010715Z VRB01KT CAVOK 30/15 Q1016 NOSIG=
200908010700 METAR LMML NIL=
200908010645 METAR LMML 010645Z VRB02KT CAVOK 29/14 Q1016 NOSIG=
200908010630 METAR LMML NIL=
200908010615 METAR LMML 010615Z VRB02KT CAVOK 28/17 Q1016 NOSIG=
200908010545 METAR LMML 010545Z VRB03KT CAVOK 26/18 Q1015 NOSIG=
200908010530 METAR LMML NIL=
200908010515 METAR LMML 010515Z VRB02KT CAVOK 24/19 Q1015 NOSIG=
200908010500 METAR LMML NIL=
200908010445 METAR LMML 010445Z 23004KT CAVOK 24/19 Q1015 NOSIG=
200908010415 METAR LMML 010415Z VRB02KT CAVOK 23/20 Q1015 NOSIG=
200908010400 METAR LMML NIL=
200908010345 METAR LMML 010345Z VRB03KT CAVOK 24/20 Q1015 NOSIG=
200908010330 METAR LMML NIL=
200908010315 METAR LMML 010315Z VRB03KT CAVOK 24/19 Q1015 NOSIG=
200908010300 METAR LMML NIL=
200908010245 METAR LMML 010245Z VRB03KT CAVOK 23/19 Q1015 NOSIG=
200908010230 METAR LMML NIL=
200908010215 METAR LMML 010215Z VRB01KT CAVOK 24/17 Q1015 TEMPO 7000 SCT004=
200908010200 METAR LMML NIL=
200908010145 METAR LMML 010145Z VRB03KT CAVOK 24/18 Q1015 TEMPO 7000 SCT004=
200908010115 METAR LMML 010115Z VRB03KT CAVOK 24/18 Q1015 TEMPO 7000 SCT004=
200908010100 METAR LMML NIL=
200908010045 METAR LMML 010045Z VRB02KT CAVOK 24/17 Q1015 TEMPO 7000 SCT004=
200908010030 METAR LMML NIL=
200908010015 METAR LMML 010015Z VRB02KT CAVOK 24/18 Q1016 TEMPO 7000 SCT004=

###################################
#  short TAF from LMML
###################################
200908312300 TAF LMML 312300Z 0100/0109 12004KT 9999 FEW020
                      PROB40 TEMPO 0100/0106 9000 BKN012=
200908312000 TAF LMML 312000Z 3121/0106 VRB03KT 9999 FEW020
                      PROB40 010/0106 9000 BKN012=
200908311700 TAF LMML 311700Z 3118/0103 VRB03KT 9999 FEW018
                      TEMPO 3121/0103 9000 BKN011=
200908311400 TAF LMML 311400Z 3118/0103 VRB05KT 9999 FEW025=
200908311100 TAF LMML 311100Z 3112/3121 VRB04KT 9999 SCT025=
200908310800 TAF LMML 310800Z 3109/3118 VRB04KT 9999 SCT025=
200908310500 TAF LMML 310500Z 3106/3115 27005KT 9999 FEW025=
200908310200 TAF LMML 310200Z 3103/3112 27005KT 9999 FEW025
                      PROB40 TEMPO 3103/3105 CAVOK=
200908302300 TAF LMML 302300Z 3100/3109 27005KT 9999 FEW020
                      PROB40 TEMPO 3100/3105 CAVOK=
200908302000 TAF LMML 302000Z 3021/3106 27005KT 9999 FEW020
                      TEMPO 3021/3105 CAVOK=
200908301700 TAF LMML 301700Z 3018/3103 VRB03KT 9999 FEW025=
200908301400 TAF LMML 301400Z 3015/3024 VRB03KT 9999 FEW025
                      PROB30 TEMPO 3015/3024 8000 SHRA BKN018=
200908301100 TAF LMML 301100Z 3012/3021 VRB05KT 9999 FEW025
                      PROB30 TEMPO 3012/3021 8000 SHRA BKN018=
200908300800 TAF LMML 300800Z 3009/3018 28007KT 9999 FEW020
                      PROB30 TEMPO 3009/3018 8000 TSRA SCT015CB=
200908300500 TAF LMML 300500Z 3006/3015 28006KT 9999 SCT020
                      PROB30 TEMPO 3006/3012 7000 SHRA BKN015TCU=
200908300200 TAF LMML 300200Z 3003/3012 27005KT 9999 FEW020
                      PROB30 TEMPO 3003/3012 7000 SHRA BKN015=
200908292300 TAF LMML 292300Z 3000/3009 28004KT 9999 FEW015=
200908292000 TAF LMML 292000Z 2921/3006 28004KT 9999 FEW020=
200908291700 TAF LMML 291700Z 2918/3003 27005KT 9999 FEW020=
200908291400 TAF LMML 291400Z 2915/2924 28005KT 9999 FEW020
                      PROB30 TEMPO 2915/2917 7000 SHRA BKN015TCU=
200908291100 TAF LMML 291100Z 2912/2921 25005KT 9999 FEW020
                      PROB30 TEMPO 2912/2917 7000 SHRA BKN015TCU=
200908290800 TAF LMML 290800Z 2909/2918 24005KT 9999 FEW020
                      PROB30 TEMPO 2909/2918 5000 TSRA BKN015CB=
200908290500 TAF LMML 290500Z 2906/2915 24005KT 9999 SCT015 BKN100
                      PROB30 TEMPO 2908/2915 7000 SHRA BKN012TCU=
200908290200 TAF LMML 290200Z 2903/2912 24005KT 9999 FEW012 SCT150
                      PROB30 TEMPO 2903/2906 7000=
200908282300 TAF LMML 282300Z 2900/2909 VRB03KT 9999 FEW013 BKN120
                      PROB30 TEMPO 2903/2906 7000=
200908282000 TAF LMML 282000Z 2821/2906 24004KT 9999 SCT013 BKN120=
200908281700 TAF LMML 281700Z 2818/2903 24005KT 9999 FEW015 SCT120
                      PROB30 TEMPO 2821/2903 8000 BKN008 BKN100=
200908281400 TAF LMML 281400Z 2815/2824 24007KT 9999 FEW015 BKN120
                      PROB30 TEMPO 2818/2824 8000 BKN008 BKN100=
200908281100 TAF LMML 281100Z 2812/2821 23008KT 9999 FEW020 SCT120=
200908280800 TAF LMML 280800Z 2809/2818 23007KT 9999 FEW020 SCT120=
200908280500 TAF LMML 280500Z 2806/2815 20005KT 9999 FEW015 SCT120=
200908280200 TAF LMML 280200Z 2803/2812 VRB03KT 9999 FEW015
                      PROB30 TEMPO 2803/2806 8000 BKN008=
200908272300 TAF LMML 272300Z 2800/2809 VRB03KT CAVOK
                      TEMPO 2800/2806 9000 SCT012 SCT120=
200908272000 TAF LMML 272000Z 2721/2806 VRB03KT 9000 SCT012 BKN120=
200908271700 TAF LMML 271700Z 2718/2803 20004KT CAVOK
                      TEMPO 2721/2803 9999 FEW011 SCT200=
200908271400 TAF LMML 271400Z 2715/2724 18008KT 9999 FEW015=
200908271100 TAF LMML 271100Z 2712/2721 18006KT 9999 FEW030=
200908270800 TAF LMML 270800Z 2709/2718 16007KT 9999 SCT015=
200908270500 TAF LMML 270500Z 2706/2715 16006KT CAVOK
                      PROB30 TEMPO 2706/2715 FEW020=
200908270200 TAF LMML 270200Z 2703/2712 17006KT CAVOK
                      PROB30 TEMPO 2703/2706 9000 FEW012=
200908262300 TAF LMML 262300Z 2700/2709 16006KT CAVOK PRPB30
                      TEMPO 2700/2706 9000 FEW010=
200908262000 TAF LMML 262000Z 2621/2706 16007KT CAVOK
                      PROB30 TEMPO 2624/2706 9000 FEW010=
200908261700 TAF LMML 261700Z 2618/2703 15005KT CAVOK
                      PROB30 TEMPO 2618/2703 9999 FEW020=
200908261400 TAF LMML 261400Z 2615/2624 17007KT CAVOK
                      PROB30 TEMPO 2615/2624 9999 FEW018=
200908261100 TAF LMML 261100Z 2612/2621 17010KT CAVOK
                      PROB30 TEMPO 2612/2621 9999 FEW020=
200908260800 TAF LMML 260800Z 2609/2618 15011KT CAVOK
                      PROB40 TEMPO 2609/2618 9999 EW020=
200908260500 TAF LMML 260500Z 2606/2615 16009KT 9999 SCT013
                      PROB30 TEMPO 2610/2615 CAVOK=
200908260200 TAF LMML 260200Z 2603/2612 15007KT CAVOK
                      TEMPO 2603/2612 9999 FEW011
                      PROB30 TEMPO 2603/2606 8000 BKN007=
200908252300 TAF LMML 252300Z 2600/2609 16007KT CAVOK
                      TEMPO 2600/2609 9999 FEW011
                      PROB30 TEMPO 2600/2606 8000 BKN007=
200908252000 TAF LMML 252000Z 2521/2606 16007KT CAVOK
                      TEMPO 2521/2606 9999 FEW011
                      PROB30 TEMPO 2521/2606 8000 BKN007=
200908251700 TAF LMML 251700Z 2518/2603 16010KT CAVOK
                      TEMPO 2518/2603 9999 FEW012
                      PROB30 TEMPO 2522/2603 9000 BKN007=
200908251400 TAF LMML 251400Z 2515/2524 16010KT 9999 FEW015
                      PROB30 TEMPO 2522/2524 9000 BKN007=
200908251100 TAF LMML 251100Z 2512/2521 16010KT 9999 FEW018=
200908250800 TAF LMML 250800Z 2509/2518 16008KT 9999 FEW018=
200908250500 TAF LMML 250500Z 2506/2515 16008KT 9999 FEW014=
200908250200 TAF LMML 250200Z 2503/2512 18005KT 9999 SCT012
                      PROB30 TEMPO 2503/2506 5000 BR=
200908242300 TAF LMML 242300Z 2500/2509 VRB03KT 9999 FEW006
                      TEMPO 2500/2506 5000 BR
                      PROB30 TEMPO 2502/2505 1500 MIFG=
200908242000 TAF LMML 242000Z 2421/2506 VRB03KT 9999 FEW011
                      TEMPO 2500/2506 6000 BKN005=
200908241700 TAF LMML 241700Z 2418/2503 17005KT 9999 FEW015
                      PROB30 TEMPO 2421/2503 8000 BKN007=
200908241400 TAF LMML 241400Z 2415/2424 16006KT 9999 FEW015
                      PROB30 TEMPO 2421/2424 8000 BKN007=
200908241100 TAF LMML 241100Z 2412/2421 12006KT 9999 SCT020=
200908240800 TAF LMML 240800Z 2409/2418 VRB05KT 9999 SCT020=
200908240500 TAF LMML 240500Z 2406/2415 30004KT 9999 FEW025
                      PROB30 TEMPO 2406/2415 CAVOK=
200908240200 TAF LMML 240200Z 2403/2412 VRB03KT CAVOK
                      PROB40 TEMPO 2403/2406 9000 SCT012
                      BECMG 2406/2409 9999 EW025=
200908232300 TAF LMML 232300Z 2400/2409 VRB03KT CAVOK
                      PROB40 TEMPO 2400/2406 9000 SCT012
                      BECMG 2406/2409 9999 FEW025=
200908232000 TAF LMML 232000Z 2321/2406 VRB03KT CAVOK
                      PROB40 TEMPO 2401/2406 9000 SCT012=
200908231700 TAF LMML 231700Z 2318/2403 33005KT CAVOK
                      TEMPO 2322/2403 8000 SCT005=
200908231400 TAF LMML 231400Z 2315/2324 VRB05KT 9999 FEW025=
200908231100 TAF LMML 231100Z 2312/2321 VRB05KT 9999 SCT030=
200908230800 TAF LMML 230800Z 2309/2318 32005KT 9999 SCT025=
200908230500 TAF LMML 230500Z 2306/2315 30005KT CAVOK
                      TEMPO 2308/2315 9999 FEW020=
200908230200 TAF LMML 230200Z 2303/2312 VRB03KT CAVOK
                      TEMPO 2307/2312 9999 FEW030=
200908222300 TAF LMML 222300Z 2300/2309 VRB05KT CAVOK=
200908222000 TAF LMML 222000Z 2221/2306 33005KT CAVOK=
200908221700 TAF LMML 221700Z 2218/2303 VRB03KT 9999 FEW030
                      TEMPO 2218/2203 CAVOK=
200908221400 TAF LMML 221400Z 2215/2224 VRB04KT 9999 FEW030
                      TEMPO 2221/2224 CAVOK=
200908221100 TAF LMML 221100Z 2212/2221 VRB06KT 9999 FEW030=
200908220800 TAF LMML 220800Z 2209/2218 VRB06KT 9999 FEW030=
200908220500 TAF LMML 220500Z 2206/2215 30007KT 8000 NSC
                      BECMG 2206/2209 9999 FEW025=
200908220200 TAF LMML 220200Z 2203/2212 30005KT CAVOK
                      TEMPO 2203/2212 9999 FEW012
                      PROB30 TEMPO 2203/2206 8000 SCT008=
200908212300 TAF LMML 212300Z 2200/2209 VRB04KT CAVOK
                      TEMPO 2200/2206 9000 FEW011
                      PROB30 TEMPO 2200/2206 5000 BR BKN005
                      BECMG 2206/2209 9999 FEW020=
200908212000 TAF LMML 212000Z 2121/2206 33006KT 9999 FEW011 SCT100
                      BECMG 2121/2124 CAVOK
                      PROB30 TEMPO 2200/2206 8000 SCT008=
200908211700 TAF LMML 211700Z 2118/2203 34005KT CAVOK=
200908211400 TAF LMML 211400Z 2115/2124 36005KT CAVOK
                      TEMPO 2115/2118 9999 FEW030=
200908211100 TAF LMML 211100Z 2112/2121 02007KT CAVOK
                      PROB40 TEMPO 2112/2118 9999 FEW030=
200908210800 TAF LMML NIL=
200908210500 TAF LMML 210500Z 2106/2115 34005KT CAVOK
                      BECMG 2107/2110 9999 SCT030=
200908210200 TAF LMML 210200Z 2103/2112 33005KT CAVOK
                      TEMPO 2103/2112 9999 FEW013=
200908202300 TAF LMML 202300Z 2100/2109 33004KT CAVOK
                      TEMPO 2100/2109 9999 FEW011=
200908202000 TAF LMML 202000Z 2021/2106 36005KT CAVOK
                      TEMPO 2021/2106 9999 FEW012=
200908201700 TAF LMML 201700Z 2018/2103 01005KT CAVOK
                      TEMPO 2018/2103 9999 FEW012
                      PROB30 TEMPO 2021/2103 8000 SCT007=
200908201400 TAF LMML 201400Z 2015/2024 04006KT CAVOK
                      PROB30 TEMPO 2015/2024 9999 FEW020=
200908201100 TAF LMML 201100Z 2012/2021 04007KT 9999 FEW025
                      TEMPO 2012/2021 CAVOK=
200908200800 TAF LMML 200800Z 2009/2018 04008KT CAVOK
                      PROB30 TEMPO 2009/2018 9999 FEW020=
200908200500 TAF LMML 200500Z 2006/2015 03004KT 9999 FEW018
                      TEMPO 206/2009 CAVOK=
200908200200 TAF LMML 200200Z 2003/2012 VRB05KT CAVOK
                      PROB30 TEMPO 2003/2006 9000 FEW008=
200908192300 TAF LMML 192300Z 2000/2009 VRB03KT CAVOK
                      PROB30 TEMPO 2003/2006 8000 FEW008=
200908192000 TAF LMML 192000Z 1921/2006 VRB03KT CAVOK
                      PROB30 TEMPO 2003/2006 8000 FEW008=
200908191700 TAF LMML 191700Z 1918/2003 VRB03KT CAVOK
                      TEMPO 1921/2003 9999 FEW011=
200908191400 TAF LMML 191400Z 1915/1924 09005KT 9999 FEW035
                      BECMG 1917/1920 CAVOK=
200908191100 TAF LMML 191100Z 1912/1921 05005KT 9999 FEW030
                      BECMG 1917/1920 CAVOK=
200908190800 TAF LMML 190800Z 1909/1918 VRB05KT CAVOK
                      TEMPO 1910/1916 9999 FEW030=
200908190500 TAF LMML 190500Z 1906/1915 VRB05KT CAVOK
                      TEMPO 1908/1915 9999 FEW030=
200908190200 TAF LMML 190200Z 1903/1912 VRB03KT CAVOK
                      TEMPO 1909/1912 9999 FEW030=
200908182300 TAF LMML 182300Z 1900/1909 VRB03KT CAVOK=
200908182000 TAF LMML 182000Z 1821/1906 VRB03KT CAVOK=
200908181700 TAF LMML 181700Z 1818/1903 VRB03KT 9999 FEW030
                      BECMG 1819/1822 CAVOK=
200908181400 TAF LMML 181400Z 1815/1824 VRB04KT 9999 FEW030
                      TEMPO 1815/1824 CAVOK=
200908181100 TAF LMML 181100Z 1812/1821 VRB06KT 9999 FEW030
                      TEMPO 1814/1821 CAVOK=
200908180800 TAF LMML 180800Z 1809/1818 VRB05KT CAVOK
                      PROB30 TEMPO 1809/1813 9999 FEW030=
200908180500 TAF LMML 180500Z 1806/1815 34006KT CAVOK=
200908180200 TAF LMML 180200Z 1803/1812 31005KT CAVOK
                      PROB30 TEMPO 1803/1806 9000 FEW008=
200908172300 TAF LMML 172300Z 1800/1809 30004KT CAVOK
                      PROB30 TEMPO 1800/1806 9000 FEW008=
200908172000 TAF LMML 172000Z 1721/1806 30004KT CAVOK
                      PROB30 TEMPO 1721/1806 9000 FEW008=
200908171700 TAF LMML 171700Z 1718/1803 VRB05KT CAVOK=
200908171400 TAF LMML 171400Z 1715/1724 VRB05KT CAVOK
                      TEMPO 1715/1718 9999 FEW040=
200908171100 TAF LMML 171100Z 1712/1721 VRB05KT CAVOK
                      TEMPO 1712/1718 9999 FEW040=
200908170800 TAF LMML 170800Z 1709/1718 VRB05KT CAVOK=
200908170500 TAF LMML 170500Z 1706/1715 VRB05KT CAVOK=
200908170200 TAF LMML 170200Z 1703/1712 07004KT CAVOK
                      PROB30 TEMPO 1703/1705 5000 BR FEW004=
200908162300 TAF LMML 162300Z 1700/1709 VRB03KT CAVOK
                      PROB30 TEMPO 1700/1706 4000 BR SCT004=
200908162000 TAF LMML 162000Z 1621/1706 13004KT CAVOK
                      PROB30 TEMPO 1621/1706 7000 SCT005=
200908161700 TAF LMML 161700Z 1618/1703 12006KT CAVOK
                      TEMPO 1618/1703 9999 FEW012
                      PROB30 TEMPO 1620/1703 9000 SCT008=
200908161400 TAF LMML 161400Z 1615/1624 12007KT 9999 FEW015
                      PROB30 TEMPO 1618/1624 9000 SCT008=
200908161100 TAF LMML 161100Z 1612/1621 10008KT 9999 FEW015=
200908160800 TAF LMML 160800Z 1609/1618 10007KT 9999 FEW015
                      TEMPO 1609/1618 CAVOK=
200908160500 TAF LMML 160500Z 1606/1615 12008KT 9999 FEW018=
200908160200 TAF LMML 160200Z 1603/1612 10005KT 9999 FEW015
                      PROB30 TEMPO 1603/1606 8000 BKN008=
200908152300 TAF LMML 152300Z 1600/1609 09004KT 9999 FEW010
                      PROB30 TEMPO 1602/1606 7000 BKN008=
200908152000 TAF LMML 152000Z 1521/1606 09005KT 9999 FEW011
                      PROB40 TEMPO 1521/1606 7000 BKN008
                      PROB30 TEMPO 1602/1606 5000 BKN005=
200908151700 TAF LMML 151700Z 1518/1603 09008KT 9999 SCT011
                      TEMPO 1518/1603 7000 BKN010
                      PROB30 TEMPO 1518/1603 5000 BKN004=
200908151400 TAF LMML 151400Z 1515/1524 12008KT 9999 FEW012 SCT120
                      TEMPO 1518/1524 9000 SCT008=
200908151100 TAF LMML 151100Z 1512/1521 12009KT 9999 FEW012 SCT120=
200908150800 TAF LMML 150800Z 1509/1518 11007KT 9999 FEW015 SCT120=
200908150500 TAF LMML 150500Z 1506/1515 12007KT 9999 FEW015=
200908150200 TAF LMML 150200Z 1503/1512 14007KT 9999 FEW008
                      PROB40 TEMPO 1503/1508 8000 BKN005=
200908142300 TAF LMML 142300Z 1500/1509 14005KT 9999 FEW007
                      TEMPO 1500/1506 CAVOK
                      PROB30 TEMPO 1500/1506 8000 BKN005=
200908142000 TAF LMML 142000Z 1421/1506 14004KT CAVOK
                      PROB30 TEMPO 1421/1506 9000 FEW010=
200908141700 TAF LMML 141700Z 1418/1503 19006KT CAVOK
                      TEMPO 1418/1503 9999 FEW012
                      PROB30 TEMPO 1420/1503 8000 SCT008=
200908141400 TAF LMML 141400Z 1415/1424 20007KT CAVOK
                      TEMPO 1418/1424 9999 FEW015
                      PROB30 TEMPO 1421/1424 8000 SCT008=
200908141100 TAF LMML 141100Z 1412/1421 16008KT 9999 SCT015 SCT120
                      PROB30 TEMPO 1412/1415 8000 SHRA=
200908140800 TAF LMML 140800Z 1409/1418 15008KT 9999 FEW015 SCT100
                      TEMPO 1409/1412 8000 SHRA
                      PROB30 TEMPO 1409/1412 5000 TSRA SCT013 BKN040CB
                       BKN100=
200908140500 TAF LMML 140500Z 1406/1415 18008KT 9999 FEW013 SCT120
                      PROB30 TEMPO 1406/1409 8000 TSRA SCT012CB=
200908140200 TAF LMML 140200Z 1403/1412 16007KT 9999 SCT014 BKN120
                      PROB30 TEMPO 1403/1408 8000 TSRA SCT040CB
                       TEMPO 1408/1412 CAVOK=
200908132300 TAF LMML 132300Z 1400/1409 19006KT 9999 FEW014
                      PROB30 TEMPO 1400/1407 8000 BKN008
                      PROB30 TEMPO 1400/1407 TSRA SCT040CB=
200908132000 TAF LMML 132000Z 1321/1406 20006KT 9999 FEW015
                      PROB30 TEMPO 1323/1406 9000 BKN008
                      PROB30 TEMPO 1323/1406 5000 TSRA SCT015CB=
200908131700 TAF LMML 131700Z 1318/1403 19006KT 9999 FEW015
                      PROB30 TEMPO 1321/1403 9000 BKN008=
200908131400 TAF LMML 131400Z 1315/1324 18006KT 9999 FEW015
                      PROB30 TEMPO 1321/1324 9000 BKN008=
200908131100 TAF LMML 131100Z 1312/1321 18006KT 9999 FEW015=
200908130800 TAF LMML 130800Z 1309/1318 18006KT 9999 FEW015=
200908130500 TAF LMML 130500Z 1306/1315 14006KT 9999 FEW014 SCT100 BKN200=
200908130200 TAF LMML 130200Z 1303/1312 14005KT 9999 FEW009 SCT100 SCT200=
200908122300 TAF LMML 122300Z 1300/1309 13005KT CAVOK
                      PROB30 TEMPO 1300/1306 8000 FEW011=
200908122000 TAF LMML 122000Z 1221/1306 14005KT CAVOK
                      TEMPO 1221/1306 8000 FEW011=
200908121700 TAF LMML 121700Z 1218/1303 VRB05KT CAVOK
                      TEMPO 1218/1303 9999 FEW012=
200908121400 TAF LMML 121400Z 1215/1224 12005KT CAVOK
                      PROB30 TEMPO 1221/1224 9999 FEW012=
200908121100 TAF LMML 121100Z 1212/1221 10006KT CAVOK=
200908120800 TAF LMML 120800Z 1209/1218 10009KT CAVOK=
200908120500 TAF LMML 120500Z 1206/1215 01007KT CAVOK
                      PROB30 TEMPO 1206/1212 9999 FEW020=
200908120200 TAF LMML 120200Z 1203/1212 35007KT CAVOK
                      PROB30 TEMPO 1203/1212 9999 FEW015 SCT090=
200908112300 TAF LMML 112300Z 1200/1209 30010KT CAVOK
                      PROB30 TEMPO 1200/1209 9999 FEW011
                      BECMG 1203/1206 02005KT=
200908112000 TAF LMML 112000Z 1121/1206 29013KT CAVOK
                      TEMPO 1121/1206 9999 FEW011
                      PROB30 TEMPO 1121/1206 7000 SCT008
                      BECMG 1201/1204 35004KT=
200908111700 TAF LMML 111700Z 1118/1203 29010KT 9999 FEW011=
200908111400 TAF LMML 111400Z 1115/1124 24015KT 9999 FEW015
                      BECMG 1121/1124 30008KT=
200908111100 TAF LMML 111100Z 1112/1121 26012KT 9999 FEW015=
200908110800 TAF LMML 110800Z 1109/1118 25011KT 9999 FEW015=
200908110500 TAF LMML 110500Z 1106/1115 27012KT CAVOK
                      TEMPO 1106/1110 9999 FEW015=
200908110200 TAF LMML 110200Z 1103/1112 24008KT CAVOK
                      PROB30 TEMPO 1103/1105 8000 FEW012=
200908102300 TAF LMML 102300Z 1100/1109 24005KT CAVOK
                      PROB30 TEMPO 1100/1105 8000 FEW012=
200908102000 TAF LMML 102000Z 1021/1106 24005KT CAVOK
                      PROB30 TEMPO 1100/1105 8000 FEW012=
200908101700 TAF LMML 101700Z 1018/1103 27005KT CAVOK
                      PROB30 TEMPO 1023/1103 8000 FEW010=
200908101400 TAF LMML 101400Z 1015/1024 25005KT CAVOK
                      PROB30 TEMPO 1015/1024 9999 FEW025=
200908101100 TAF LMML 101100Z 1012/1021 24006KT CAVOK
                      PROB30 TEMPO 1012/1021 9999 FEW020=
200908100830 TAF LMML 100830Z 1009/1018 23005KT CAVOK
                      PROB30 TEMPO 1009/1018 9999 FEW020=
200908100800 TAF LMML 100800Z 1009/1018 23005KT CAVOK
                      PROB30 TEMPO 0909/0918 9999 FEW020=
200908100500 TAF LMML 100500Z 1006/1015 23006KT CAVOK
                      TEMPO 1006/1015 9999 FEW020=
200908100200 TAF LMML 100200Z 1003/1012 24004KT CAVOK
                      TEMPO 1003/1012 9999 FEW011
                      PROB30 TEMPO 1003/1006 5000 BR BKN005=
200908092300 TAF LMML 092300Z 1000/1009 23004KT CAVOK
                      TEMPO 1000/1009 9999 FEW010
                      PROB30 TEMPO 1000/1006 5000 BR BKN005=
200908092000 TAF LMML 092000Z 0921/1006 22004KT CAVOK
                      PROB30 TEMPO 1000/1006 7000 FEW008=
200908091700 TAF LMML 091700Z 0918/1003 22005KT CAVOK
                      PROB30 TEMPO 1001/1003 8000 FEW012=
200908091400 TAF LMML 091400Z 0915/0924 24005KT CAVOK
                      PROB30 TEMPO 0915/0917 9999 FEW020=
200908091100 TAF LMML 091100Z 0912/0921 24005KT CAVOK
                      PROB30 TEMPO 0912/0918 9999 FEW020=
200908090800 TAF LMML 090800Z 0909/0918 24005KT CAVOK
                      PROB30 TEMPO 0909/0918 9999 FEW020=
200908090500 TAF LMML 090500Z 0906/0915 24005KT CAVOK=
200908090200 TAF LMML 090200Z 0903/0912 24004KT CAVOK
                      PROB30 TEMPO 0903/0906 7000 FEW005=
200908082300 TAF LMML 082300Z 0900/0909 VRB03KT CAVOK
                      PROB30 TEMPO 0903/0906 7000 FEW005=
200908082229 TAF LMML 082229Z 0821/0906 VRB03KT CAVOK
                      PROB30 TEMPO 0903/0906 7000 FEW005=
200908082000 TAF LMML 082000Z 0821/0906 VRB03KT CAVOK
                      PROB30 TEMPO 0803/0806 7000 FEW005=
200908081700 TAF LMML 081700Z 0818/0903 VRB03KT 9999 FEW018
                      TEMPO 0819/0903 CAVOK=
200908081400 TAF LMML 081400Z 0815/0824 VRB03KT 9999 FEW018
                      PROB30 TEMPO 0820/0824 CAVOK=
200908081100 TAF LMML 081100Z 0812/0821 VRB06KT 9999 FEW030
                      PROB40 TEMPO 0812/0821 CAVOK=
200908080800 TAF LMML 080800Z 0809/0818 VRB06KT 9999 FEW020
                      TEMPO 0809/0818 CAVOK=
200908080500 TAF LMML 080500Z 0806/0818 VRB05KT 9999 FEW020
                      TEMPO 0811/0818 CAVOK=
200908080200 TAF LMML 080200Z 0803/0812 VRB03KT CAVOK
                      TEMPO 0803/0812 9999 FEW020=
200908072300 TAF LMML 072300Z 0800/0809 VRB03KT CAVOK
                      TEMPO 0802/0809 9999 FEW015=
200908072000 TAF LMML 072000Z 0721/0806 26005KT CAVOK
                      TEMPO 0801/0806 9999 FEW015=
200908071700 TAF LMML 071700Z 0718/0803 VRB07KT 9999 FEW020
                      BECMG 0718/0721 CAVOK=
200908071400 TAF LMML 071400Z 0715/0724 VRB06KT 9999 SCT020
                      BECMG 0718/0721 CAVOK=
200908071100 TAF LMML 071100Z 0712/0721 VRB06KT 9999 SCT020
                      BECMG 0718/0721 CAVOK=
200908070800 TAF LMML 070800Z 0709/0718 33008KT 9999 FEW020=
200908070500 TAF LMML 070500Z 0706/0715 32008KT 9999 FEW023=
200908070200 TAF LMML 070200Z 0703/0712 27008KT CAVOK
                      TEMPO 0704/0712 9999 FEW020=
200908062300 TAF LMML 062300Z 0700/0709 27008KT CAVOK
                      TEMPO 0704/0709 9999 FEW020=
200908062000 TAF LMML 062000Z 0621/0706 29008KT 9999 FEW020
                      TEMPO 0621/0705 CAVOK=
200908061700 TAF LMML 061700Z 0618/0703 29008KT 9999 FEW020
                      TEMPO 0618/0703 CAVOK=
200908061400 TAF LMML 061400Z 0615/0624 28006KT 9999 FEW025
                      TEMPO 0615/0624 CAVOK=
200908061100 TAF LMML 061100Z 0612/0621 36010KT 9999 FEW023
                      TEMPO 0612/0621 CAVOK
                      BECMG 0612/0615 30008KT=
200908060800 LMML 060800Z 0609/0618 36010KT 9999 FEW020
                      TEMPO 0609/0618 CAVOK
                      BECMG 0611/0614 30008KT=
200908060500 TAF LMML 060500Z 0606/0615 03007KT 9999 FEW020
                      TEMPO 0606/0615 CAVOK
                      BECMG 0612/0615 31010KT=
200908060200 COR LMML 060200Z 0603/0612 33005KT 9999 FEW015
                      TEMPO 0603/0606 BKN006
                      PROB30 TEMPO 0603/0606 5000 BR BKN003=
200908052300 TAF LMML 052300Z 0600/0609 34007KT CAVOK
                      TEMPO 0600/0609 9999 FEW020=
200908052000 TAF LMML 052000Z 0521/0606 29010KT CAVOK
                      TEMPO 0521/0606 9999 FEW020
                      BECMG 0523/0602 01007KT=
200908051700 TAF LMML 051700Z 0518/0603 30010KT CAVOK
                      TEMPO 0521/0603 9999 FEW023=
200908051400 TAF LMML 051400Z 0515/0524 30010KT 9999 FEW023
                      PROB30 TEMPO 0515/0524 CAVOK=
200908051100 TAF LMML 051100Z 0512/0521 33010KT 9999 FEW023
                      PROB30 TEMPO 0515/0521 CAVOK=
200908050800 TAF LMML 050800Z 0509/0518 32010KT CAVOK
                      PROB30 TEMPO 0509/0518 9999 FEW025=
200908050500 TAF LMML 050500Z 0506/0515 31010KT CAVOK=
200908050200 TAF LMML 050200Z 0503/0512 29009KT 9999 FEW012=
200908042300 TAF LMML 042300Z 0500/0509 30009KT 9999 FEW011=
200908042000 TAF LMML 042000Z 0421/0506 32009KT 9999 FEW011=
200908041700 TAF LMML 041700Z 0418/0503 29013KT 9999 SCT012
                      PROB30 TEMPO 0418/0423 8000 BKN008
                      BECMG 0422/0501 CAVOK=
200908041400 TAF LMML 041400Z 0415/0424 24012KT CAVOK
                      TEMPO 0415/0424 9999 FEW015
                      BECMG 0415/0418 30013KT
                      PROB30 TEMPO 0417/0424 9000 SCT008=
200908041100 TAF LMML 041100Z 0412/0421 23011KT CAVOK
                      PROB30 TEMPO 0412/0418 9999 FEW020
                      BECMG 0413/0416 30013KT=
200908040800 TAF LMML 040800Z 0409/0418 22010KT CAVOK
                      PROB30 TEMPO 0409/0418 9999 FEW020
                      BECMG 0413/0416 28010KT=
200908040500 TAF LMML 040500Z 0406/0415 18008KT CAVOK
                      BECMG 0411/0414 24010KT=
200908040200 TAF LMML 040200Z 0403/0412 23007KT CAVOK=
200908032300 TAF LMML 032300Z 0400/0409 21007KT CAVOK
                      PROB30 TEMPO 0400/0406 9999 FEW009=
200908032000 TAF LMML 032000Z 0321/0406 19005KT CAVOK
                      PROB30 TEMPO 0323/0406 9999 FEW009=
200908031700 TAF LMML 031700Z 0318/0403 19005KT CAVOK
                      PROB30 TEMPO 0400/0403 9999 FEW005=
200908031400 TAF LMML 031400Z 0315/0324 22007KT CAVOK=
200908031100 TAF LMML 031100Z 0312/0321 23005KT CAVOK=
200908030800 TAF LMML 030800Z 0309/0318 23005KT CAVOK=
200908030500 TAF LMML 030500Z 0306/0315 25005KT CAVOK=
200908030200 TAF LMML 030200Z 0303/0312 25005KT CAVOK
                      PROB30 TEMPO 0303/0306 9000 FEW010=
200908022300 TAF LMML 022300Z 0300/0309 25004KT CAVOK
                      PROB30 TEMPO 0300/0306 9000 FEW010=
200908022000 TAF LMML 022000Z 0221/0306 25004KT CAVOK
                      PROB30 TEMPO 0222/0306 9000 FEW010=
200908021700 TAF LMML 021700Z 0218/0303 VRB03KT CAVOK
                      TEMPO 0221/0303 9999 FEW010
                      PROB40 TEMPO 0221/0303 7000 BKN007
                      PROB30 TEMPO 0300/0303 4000 BR BKN004=
200908021400 TAF LMML 021400Z 0215/0224 VRB05KT CAVOK
                      PROB30 TEMPO 0221/0224 9999 FEW010=
200908021100 TAF LMML 021100Z 0212/0221 VRB05KT CAVOK=
200908020800 TAF LMML 020800Z 0209/0218 VRB05KT CAVOK
                      PROB40 TEMPO 0209/0218 9999 FEW020=
200908020500 TAF LMML 020500Z 0206/0215 28006KT CAVOK
                      PROB30 TEMPO 0206/0215 9999 FEW020=
200908020200 TAF LMML 020200Z 0203/0212 28004KT CAVOK
                      PROB30 TEMPO 0206/0212 9999 FEW015=
200908012300 TAF LMML 012300Z 0200/0209 28004KT CAVOK
                      PROB30 TEMPO 0200/0206 9000 FEW008
                      TEMPO 0206/0209 9999 FEW015=
200908012000 TAF LMML 012000Z 0121/0206 28004KT CAVOK
                      TEMPO 0121/0206 9999 FEW010
                      PROB30 TEMPO 0200/0206 8000 SCT007=
200908011700 TAF LMML 011700Z 0118/0203 27004KT CAVOK
                      PROB30 TEMPO 0200/0203 9999 FEW010=
200908011400 TAF LMML 011400Z 0115/0124 VRB05KT CAVOK
                      PROB30 TEMPO 0115/0118 9999 FEW020=
200908011100 TAF LMML 011100Z 0112/0121 VRB05KT 9999 FEW025
                      TEMPO 0112/0121 CAVOK=
200908010800 TAF LMML 010800Z 0109/0118 VRB05KT CAVOK=
200908010500 TAF LMML 010500Z 0106/0115 VRB05KT CAVOK=
200908010200 TAF LMML 010200Z 0103/0112 26004KT CAVOK
                      PROB30 TEMPO 0103/0106 6000 SCT004=

###################################
#  large TAF from LMML
###################################
200908312300 TAF LMML NIL=
200908311700 TAF LMML NIL=
200908311100 TAF LMML NIL=
200908310500 TAF LMML NIL=
200908302300 TAF LMML NIL=
200908301700 TAF LMML NIL=
200908301100 TAF LMML NIL=
200908300500 TAF LMML NIL=
200908292300 TAF LMML NIL=
200908291700 TAF LMML NIL=
200908291100 TAF LMML NIL=
200908290500 TAF LMML NIL=
200908282300 TAF LMML NIL=
200908281700 TAF LMML NIL=
200908281100 TAF LMML NIL=
200908280500 TAF LMML NIL=
200908272300 TAF LMML NIL=
200908271700 TAF LMML NIL=
200908271100 TAF LMML NIL=
200908270500 TAF LMML NIL=
200908262300 TAF LMML NIL=
200908261700 TAF LMML NIL=
200908261100 TAF LMML NIL=
200908260500 TAF LMML NIL=
200908252300 TAF LMML NIL=
200908251700 TAF LMML NIL=
200908251100 TAF LMML NIL=
200908250500 TAF LMML NIL=
200908242300 TAF LMML NIL=
200908241700 TAF LMML NIL=
200908241100 TAF LMML NIL=
200908240500 TAF LMML NIL=
200908232300 TAF LMML NIL=
200908231700 TAF LMML NIL=
200908231100 TAF LMML NIL=
200908230500 TAF LMML NIL=
200908222300 TAF LMML NIL=
200908221700 TAF LMML NIL=
200908221100 TAF LMML NIL=
200908220500 TAF LMML NIL=
200908212300 TAF LMML NIL=
200908211700 TAF LMML NIL=
200908211100 TAF LMML NIL=
200908210500 TAF LMML NIL=
200908202300 TAF LMML NIL=
200908201700 TAF LMML NIL=
200908201100 TAF LMML NIL=
200908200500 TAF LMML NIL=
200908192300 TAF LMML NIL=
200908191700 TAF LMML NIL=
200908191100 TAF LMML NIL=
200908190500 TAF LMML NIL=
200908182300 TAF LMML NIL=
200908181700 TAF LMML NIL=
200908181100 TAF LMML NIL=
200908180500 TAF LMML NIL=
200908172300 TAF LMML NIL=
200908171700 TAF LMML NIL=
200908171100 TAF LMML NIL=
200908170500 TAF LMML NIL=
200908162300 TAF LMML NIL=
200908161700 TAF LMML NIL=
200908161100 TAF LMML NIL=
200908160500 TAF LMML NIL=
200908152300 TAF LMML NIL=
200908151700 TAF LMML NIL=
200908151100 TAF LMML NIL=
200908150500 TAF LMML NIL=
200908142300 TAF LMML NIL=
200908141700 TAF LMML NIL=
200908141100 TAF LMML NIL=
200908140500 TAF LMML NIL=
200908132300 TAF LMML NIL=
200908131700 TAF LMML NIL=
200908131100 TAF LMML NIL=
200908130500 TAF LMML NIL=
200908122300 TAF LMML NIL=
200908121700 TAF LMML NIL=
200908121100 TAF LMML NIL=
200908120500 TAF LMML NIL=
200908112300 TAF LMML NIL=
200908111700 TAF LMML NIL=
200908111100 TAF LMML NIL=
200908110500 TAF LMML NIL=
200908102300 TAF LMML NIL=
200908101700 TAF LMML NIL=
200908101100 TAF LMML NIL=
200908100500 TAF LMML NIL=
200908092300 TAF LMML NIL=
200908091700 TAF LMML NIL=
200908091100 TAF LMML NIL=
200908090500 TAF LMML NIL=
200908082300 TAF LMML NIL=
200908081700 TAF LMML NIL=
200908081100 TAF LMML NIL=
200908080500 TAF LMML 080500Z 0806/0818 VRB05KT 9999 FEW020
                      TEMPO 0811/0818 CAVOK=
200908072300 TAF LMML NIL=
200908071700 TAF LMML NIL=
200908071100 TAF LMML NIL=
200908070500 TAF LMML NIL=
200908062300 TAF LMML NIL=
200908061700 TAF LMML NIL=
200908061100 TAF LMML NIL=
200908060500 TAF LMML NIL=
200908052300 TAF LMML NIL=
200908051700 TAF LMML NIL=
200908051100 TAF LMML NIL=
200908050500 TAF LMML NIL=
200908042300 TAF LMML NIL=
200908041700 TAF LMML NIL=
200908041100 TAF LMML NIL=
200908040500 TAF LMML NIL=
200908032300 TAF LMML NIL=
200908031700 TAF LMML NIL=
200908031100 TAF LMML NIL=
200908030500 TAF LMML NIL=
200908022300 TAF LMML NIL=
200908021700 TAF LMML NIL=
200908021100 TAF LMML NIL=
200908020500 TAF LMML NIL=
200908012300 TAF LMML NIL=
200908011700 TAF LMML NIL=
200908011100 TAF LMML NIL=
200908010500 TAF LMML NIL=
