##########################################################
# Query made at 01/18/2013 15:59:46 UTC
# Time interval: from 08/01/2010 00:00  to 08/31/2010 23:59  UTC
##########################################################

##########################################################
# LMML, Luqa (Malta)
# WMO index: 16597
# Latitude 35-51N. Longitude 014-29E. Altitude 91 m.
##########################################################

###################################
#  METAR/SPECI from LMML
###################################
201008312345 METAR LMML 312345Z 33007KT 9999 FEW034 23/15 Q1011 NOSIG=
201008312330 METAR LMML NIL=
201008312315 METAR LMML 312315Z 33008KT 9999 FEW035 23/14 Q1011 NOSIG=
201008312300 METAR LMML NIL=
201008312245 METAR LMML 312245Z 33010KT 9999 FEW030 23/14 Q1011 NOSIG=
201008312230 METAR LMML NIL=
201008312215 METAR LMML 312215Z 32010KT 9999 FEW030 23/15 Q1011 NOSIG=
201008312200 METAR LMML NIL=
201008312145 METAR LMML 312145Z 32014KT CAVOK 23/15 Q1011 NOSIG=
201008312130 METAR LMML NIL=
201008312115 METAR LMML 312115Z 32015KT CAVOK 23/15 Q1011 NOSIG=
201008312100 METAR LMML NIL=
201008312045 METAR LMML 312045Z 32016KT CAVOK 24/14 Q1011 NOSIG=
201008312030 METAR LMML NIL=
201008312015 METAR LMML 312015Z 32017KT CAVOK 24/14 Q1011 NOSIG=
201008311945 METAR LMML 311945Z 31018KT CAVOK 24/15 Q1010 NOSIG=
201008311915 METAR LMML 311915Z 31016KT 9999 FEW030 24/15 Q1011 NOSIG=
201008311900 METAR LMML NIL=
201008311845 METAR LMML 311845Z 31016KT 9999 FEW030 24/16 Q1010 NOSIG=
201008311830 METAR LMML NIL=
201008311815 METAR LMML 311815Z 30017KT 9999 FEW030 24/17 Q1010 NOSIG=
201008311800 METAR LMML NIL=
201008311745 METAR LMML 311745Z 30018KT 9999 FEW030 24/18 Q1010 NOSIG=
201008311730 METAR LMML NIL=
201008311715 METAR LMML 311715Z 30017KT 9999 FEW030 24/17 Q1009 NOSIG=
201008311700 METAR LMML NIL=
201008311645 METAR LMML 311645Z 30018KT 9999 FEW030 24/17 Q1009 NOSIG=
201008311630 METAR LMML NIL=
201008311615 METAR LMML 311615Z 31022KT 9999 FEW030 24/17 Q1010 NOSIG=
201008311600 METAR LMML NIL=
201008311545 METAR LMML 311545Z 31021KT 270V340 9999 FEW030 25/16 Q1009
                        NOSIG=
201008311530 METAR LMML NIL=
201008311515 METAR LMML 311515Z 30022KT 260V320 9999 FEW030 25/16 Q1009
                        NOSIG=
201008311500 METAR LMML NIL=
201008311445 METAR LMML 311445Z 29020KT 260V320 9999 FEW030 25/16 Q1009
                        NOSIG=
201008311430 METAR LMML NIL=
201008311415 METAR LMML 311415Z 29017KT 260V320 9999 FEW030 26/15 Q1010
                        NOSIG=
201008311400 METAR LMML NIL=
201008311345 METAR LMML 311345Z 28022KT CAVOK 26/16 Q1010 NOSIG=
201008311330 METAR LMML NIL=
201008311315 METAR LMML 311315Z 30021KT 260V330 CAVOK 26/15 Q1010 NOSIG=
201008311300 METAR LMML NIL=
201008311245 METAR LMML 311245Z 29022KT 250V310 9999 FEW032 26/12 Q1010
                        NOSIG=
201008311230 METAR LMML NIL=
201008311215 METAR LMML 311215Z 31025KT 9999 FEW032 26/15 Q1010 NOSIG=
201008311200 METAR LMML NIL=
201008311145 METAR LMML 311145Z 30024KT 9999 FEW032 26/15 Q1010 NOSIG=
201008311130 METAR LMML NIL=
201008311115 METAR LMML 311115Z 30023KT 240V320 9999 FEW032 26/15 Q1010
                        NOSIG=
201008311100 METAR LMML NIL=
201008311045 METAR LMML 311045Z 30021KT 9999 FEW032 26/16 Q1010 NOSIG=
201008311030 METAR LMML NIL=
201008311015 METAR LMML 311015Z 30022KT 9999 FEW032 26/16 Q1010 NOSIG=
201008311000 METAR LMML NIL=
201008310945 METAR LMML 310945Z 31020KT 270V340 9999 FEW032 26/16 Q1011
                        NOSIG=
201008310930 METAR LMML NIL=
201008310915 METAR LMML 310915Z 30020KT 270V330 9999 FEW032 26/15 Q1011
                        NOSIG=
201008310900 METAR LMML NIL=
201008310845 METAR LMML 310845Z 30017KT 260V330 9999 FEW031 26/16 Q1011
                        NOSIG=
201008310830 METAR LMML NIL=
201008310815 METAR LMML 310815Z 30017KT 260V320 9999 FEW030 25/16 Q1011
                        NOSIG=
201008310800 METAR LMML NIL=
201008310745 METAR LMML 310745Z 30018KT 240V330 9999 FEW029 25/16 Q1011
                        NOSIG=
201008310730 METAR LMML NIL=
201008310715 METAR LMML 310715Z 29015KT 250V320 9999 FEW029 24/16 Q1010
                        NOSIG=
201008310700 METAR LMML NIL=
201008310645 METAR LMML 310645Z 30016KT 9999 FEW028 24/17 Q1010 NOSIG=
201008310630 METAR LMML NIL=
201008310615 METAR LMML 310615Z 29012KT 260V320 9999 FEW026 24/17 Q1010
                        NOSIG=
201008310600 METAR LMML NIL=
201008310545 METAR LMML 310545Z 31010KT 280V340 9999 FEW028 24/17 Q1010
                        NOSIG=
201008310530 METAR LMML NIL=
201008310515 METAR LMML 310515Z 30010KT 9999 FEW026 23/17 Q1010 NOSIG=
201008310500 METAR LMML NIL=
201008310445 METAR LMML 310445Z 30009KT 9999 FEW026 23/17 Q1009 NOSIG=
201008310430 METAR LMML NIL=
201008310415 METAR LMML 310415Z 31009KT 280V340 9999 FEW026 23/17 Q1009
                        NOSIG=
201008310400 METAR LMML NIL=
201008310345 METAR LMML 310345Z 31007KT 9999 FEW025 22/17 Q1009 NOSIG=
201008310330 METAR LMML NIL=
201008310315 METAR LMML 310315Z 30007KT 9999 FEW020 23/17 Q1009 NOSIG=
201008310300 METAR LMML NIL=
201008310245 METAR LMML 310245Z 31011KT 9999 FEW020 23/18 Q1009 NOSIG=
201008310230 METAR LMML NIL=
201008310215 METAR LMML 310215Z 31010KT 9999 FEW020 23/18 Q1009 NOSIG=
201008310200 METAR LMML NIL=
201008310145 METAR LMML 310145Z 31011KT CAVOK 23/17 Q1009 NOSIG=
201008310130 METAR LMML NIL=
201008310115 METAR LMML 310115Z 32011KT CAVOK 23/17 Q1009 NOSIG=
201008310100 METAR LMML NIL=
201008310045 METAR LMML 310045Z 32013KT 280V340 CAVOK 23/17 Q1009 NOSIG=
201008310030 METAR LMML NIL=
201008310015 METAR LMML 310015Z 31012KT CAVOK 23/18 Q1009 NOSIG=
201008310000 METAR LMML NIL=
201008302345 METAR LMML 302345Z 31011KT 280V340 CAVOK 23/18 Q1009 NOSIG=
201008302330 METAR LMML NIL=
201008302315 METAR LMML 302315Z 30012KT CAVOK 23/18 Q1009 NOSIG=
201008302245 METAR LMML 302245Z 30011KT CAVOK 23/18 Q1010 NOSIG=
201008302230 METAR LMML NIL=
201008302215 METAR LMML 302215Z 31014KT CAVOK 23/17 Q1010 NOSIG=
201008302200 METAR LMML NIL=
201008302145 METAR LMML 302145Z 30015KT CAVOK 23/17 Q1010 NOSIG=
201008302130 METAR LMML NIL=
201008302115 METAR LMML 302115Z 30016KT CAVOK 23/17 Q1010 NOSIG=
201008302100 METAR LMML NIL=
201008302045 METAR LMML 302045Z 30014KT CAVOK 23/17 Q1010 NOSIG=
201008302030 METAR LMML NIL=
201008302015 METAR LMML 302015Z 30015KT CAVOK 23/17 Q1010 NOSIG=
201008302000 METAR LMML NIL=
201008301945 METAR LMML 301945Z 30015KT CAVOK 24/17 Q1010 NOSIG=
201008301930 METAR LMML NIL=
201008301915 METAR LMML 301915Z 30014KT CAVOK 24/17 Q1010 NOSIG=
201008301900 METAR LMML NIL=
201008301845 METAR LMML 301845Z 30014KT CAVOK 24/17 Q1010 NOSIG=
201008301830 METAR LMML NIL=
201008301815 METAR LMML 301815Z 29014KT CAVOK 24/17 Q1009 NOSIG=
201008301800 METAR LMML NIL=
201008301745 METAR LMML 301745Z 30016KT CAVOK 24/18 Q1009 NOSIG=
201008301730 METAR LMML NIL=
201008301715 METAR LMML 301715Z 29016KT 260V320 9999 FEW025 24/18 Q1009
                        NOSIG=
201008301700 METAR LMML NIL=
201008301645 METAR LMML 301645Z 30017KT 260V330 CAVOK 25/18 Q1009 NOSIG=
201008301630 METAR LMML NIL=
201008301615 METAR LMML 301615Z 29015KT 260V330 9999 FEW025 25/18 Q1010
                        NOSIG=
201008301600 METAR LMML NIL=
201008301545 METAR LMML 301545Z 29019KT 260V320 9999 FEW025 26/18 Q1010
                        NOSIG=
201008301530 METAR LMML NIL=
201008301515 METAR LMML 301515Z 29018KT 260V320 9999 FEW025 26/18 Q1010
                        NOSIG=
201008301500 METAR LMML NIL=
201008301445 METAR LMML 301445Z 29018KT 250V320 9999 FEW025 26/18 Q1010
                        NOSIG=
201008301430 METAR LMML NIL=
201008301415 METAR LMML 301415Z 30018KT 270V330 9999 FEW025 26/17 Q1011
                        NOSIG=
201008301400 METAR LMML NIL=
201008301345 METAR LMML 301345Z 29020KT 260V320 9999 FEW025 26/18 Q1011
                        NOSIG=
201008301330 METAR LMML NIL=
201008301315 METAR LMML 301315Z 29018KT 260V320 9999 FEW025 27/18 Q1011
                        NOSIG=
201008301300 METAR LMML NIL=
201008301245 METAR LMML 301245Z 29017KT 9999 FEW025 27/17 Q1011 NOSIG=
201008301230 METAR LMML NIL=
201008301215 METAR LMML 301215Z 29020KT 250V320 9999 FEW025 27/17 Q1012
                        NOSIG=
201008301200 METAR LMML NIL=
201008301145 METAR LMML 301145Z 29018KT 9999 FEW025 27/18 Q1012 NOSIG=
201008301130 METAR LMML NIL=
201008301115 METAR LMML 301115Z 29019KT 9999 FEW025 27/18 Q1012 NOSIG=
201008301100 METAR LMML NIL=
201008301045 METAR LMML 301045Z 30017KT 250V330 9999 FEW025 27/17 Q1012
                        NOSIG=
201008301030 METAR LMML NIL=
201008301015 METAR LMML 301015Z 30020KT 9999 FEW025 27/17 Q1012 NOSIG=
201008301000 METAR LMML NIL=
201008300945 METAR LMML 300945Z 30018KT 9999 FEW022 27/17 Q1012 NOSIG=
201008300930 METAR LMML NIL=
201008300915 METAR LMML 300915Z 30016KT 270V330 9999 FEW022 26/18 Q1012
                        NOSIG=
201008300900 METAR LMML NIL=
201008300845 METAR LMML 300845Z 30017KT 260V320 9999 FEW022 26/18 Q1012
                        NOSIG=
201008300830 METAR LMML NIL=
201008300815 METAR LMML 300815Z 30015KT 260V320 9999 FEW022 26/19 Q1012
                        NOSIG=
201008300800 METAR LMML NIL=
201008300745 METAR LMML 300745Z 30013KT 260V330 9999 FEW022 26/18 Q1012
                        NOSIG=
201008300730 METAR LMML NIL=
201008300715 METAR LMML 300715Z 29012KT 260V320 9999 FEW019 25/19 Q1012
                        NOSIG=
201008300645 METAR LMML 300645Z 30012KT 260V330 9999 FEW019 25/19 Q1012
                        NOSIG=
201008300615 METAR LMML 300615Z 32010KT 280V350 9999 FEW018 24/19 Q1011
                        NOSIG=
201008300600 METAR LMML NIL=
201008300545 METAR LMML 300545Z 32007KT 290V350 9999 FEW016 23/20 Q1012
                        NOSIG=
201008300530 METAR LMML NIL=
201008300515 METAR LMML 300515Z 31006KT 9999 FEW016 22/20 Q1011 NOSIG=
201008300500 METAR LMML NIL=
201008300445 METAR LMML 300445Z 31007KT 9999 FEW016 22/20 Q1011 NOSIG=
201008300430 METAR LMML NIL=
201008300415 METAR LMML 300415Z 31007KT 9999 FEW016 22/19 Q1011 NOSIG=
201008300400 METAR LMML NIL=
201008300345 METAR LMML 300345Z 32009KT 9999 FEW016 22/20 Q1011 NOSIG=
201008300330 METAR LMML NIL=
201008300315 METAR LMML 300315Z 32010KT 9999 FEW016 22/20 Q1011 NOSIG=
201008300300 METAR LMML NIL=
201008300245 METAR LMML 300245Z 32011KT 9999 FEW016 23/20 Q1011 NOSIG=
201008300230 METAR LMML NIL=
201008300215 METAR LMML 300215Z 32011KT 9999 FEW016 23/20 Q1011 NOSIG=
201008300200 METAR LMML NIL=
201008300145 METAR LMML 300145Z 31011KT 9999 FEW016 23/20 Q1011 NOSIG=
201008300130 METAR LMML NIL=
201008300115 METAR LMML 300115Z 31013KT 9999 FEW016 23/20 Q1012 NOSIG=
201008300100 METAR LMML NIL=
201008300045 METAR LMML 300045Z 30015KT 9999 FEW015 23/20 Q1012 NOSIG=
201008300030 METAR LMML NIL=
201008300015 METAR LMML 300015Z 31011KT 9999 FEW014 23/20 Q1012 NOSIG=
201008292345 METAR LMML 292345Z 32008KT 9999 FEW014 23/20 Q1012 NOSIG=
201008292315 METAR LMML 292315Z 31011KT CAVOK 23/20 Q1012 NOSIG=
201008292300 METAR LMML NIL=
201008292245 METAR LMML 292245Z 30011KT 270V330 CAVOK 24/21 Q1012 NOSIG=
201008292230 METAR LMML NIL=
201008292215 METAR LMML 292215Z 30010KT CAVOK 24/21 Q1012 NOSIG=
201008292200 METAR LMML NIL=
201008292145 METAR LMML 292145Z 29009KT 230V320 CAVOK 24/20 Q1012 NOSIG=
201008292130 METAR LMML NIL=
201008292115 METAR LMML 292115Z 31009KT CAVOK 23/20 Q1012 NOSIG=
201008292045 METAR LMML 292045Z 31009KT 9999 FEW020 23/20 Q1012 NOSIG=
201008292030 METAR LMML NIL=
201008292015 METAR LMML 292015Z 31010KT 280V340 9999 FEW020 24/20 Q1012
                        NOSIG=
201008292000 METAR LMML NIL=
201008291945 METAR LMML 291945Z 30011KT 9999 FEW020 24/20 Q1012 NOSIG=
201008291930 METAR LMML NIL=
201008291915 METAR LMML 291915Z 31011KT 9999 FEW020 24/19 Q1012 NOSIG=
201008291900 METAR LMML NIL=
201008291845 METAR LMML 291845Z 31010KT 280V340 9999 FEW020 24/19 Q1012
                        NOSIG=
201008291830 METAR LMML NIL=
201008291815 METAR LMML 291815Z 31011KT 9999 FEW020 24/20 Q1011 NOSIG=
201008291800 METAR LMML NIL=
201008291745 METAR LMML 291745Z 30013KT 260V330 9999 FEW030 24/20 Q1011
                        NOSIG=
201008291715 METAR LMML 291715Z 29017KT 9999 FEW030 25/20 Q1011 NOSIG=
201008291700 METAR LMML NIL=
201008291645 METAR LMML 291645Z 29016KT 240V320 9999 FEW030 25/19 Q1011
                        NOSIG=
201008291630 METAR LMML NIL=
201008291615 METAR LMML 291615Z 29017KT 260V320 9999 FEW030 26/19 Q1011
                        NOSIG=
201008291600 METAR LMML NIL=
201008291545 METAR LMML 291545Z 29018KT 9999 FEW030 27/19 Q1011 NOSIG=
201008291530 METAR LMML NIL=
201008291515 METAR LMML 291515Z 31020KT 9999 FEW030 27/19 Q1011 NOSIG=
201008291500 METAR LMML NIL=
201008291445 METAR LMML 291445Z 30020KT 270V330 CAVOK 28/18 Q1011 NOSIG=
201008291430 METAR LMML NIL=
201008291415 METAR LMML 291415Z 29017KT 270V330 CAVOK 28/18 Q1011 NOSIG=
201008291400 METAR LMML NIL=
201008291345 METAR LMML 291345Z 30019KT CAVOK 29/18 Q1011 NOSIG=
201008291315 METAR LMML 291315Z 29021KT 260V320 CAVOK 28/19 Q1011 NOSIG=
201008291245 METAR LMML 291245Z 30020KT 260V330 CAVOK 29/18 Q1011 NOSIG=
201008291230 METAR LMML NIL=
201008291215 METAR LMML 291215Z 29019KT 260V320 CAVOK 29/18 Q1011 NOSIG=
201008291145 METAR LMML 291145Z 31018KT 270V330 CAVOK 30/20 Q1011 NOSIG=
201008291130 METAR LMML NIL=
201008291115 METAR LMML 291115Z 31021KT 9999 FEW025 29/19 Q1012 NOSIG=
201008291100 METAR LMML NIL=
201008291045 METAR LMML 291045Z 30019KT 270V330 CAVOK 29/19 Q1012 NOSIG=
201008291030 METAR LMML NIL=
201008291015 METAR LMML 291015Z 30019KT CAVOK 29/19 Q1012 NOSIG=
201008291000 METAR LMML NIL=
201008290945 METAR LMML 290945Z 30020KT 260V330 CAVOK 28/20 Q1012 NOSIG=
201008290930 METAR LMML NIL=
201008290915 METAR LMML 290915Z 31021KT CAVOK 29/18 Q1011 NOSIG=
201008290900 METAR LMML NIL=
201008290845 METAR LMML 290845Z 31019KT CAVOK 29/19 Q1011 NOSIG=
201008290830 METAR LMML NIL=
201008290815 METAR LMML 290815Z 31020KT CAVOK 29/19 Q1011 NOSIG=
201008290800 METAR LMML NIL=
201008290745 METAR LMML 290745Z 31018KT CAVOK 28/20 Q1011 NOSIG=
201008290730 METAR LMML NIL=
201008290715 METAR LMML 290715Z 31018KT 9999 FEW030 27/20 Q1011 NOSIG=
201008290700 METAR LMML NIL=
201008290645 METAR LMML 290645Z 31016KT 9999 FEW025 27/20 Q1010 NOSIG=
201008290630 METAR LMML NIL=
201008290615 METAR LMML 290615Z 31014KT 280V340 9999 FEW025 27/21 Q1010
                        NOSIG=
201008290600 METAR LMML NIL=
201008290545 METAR LMML 290545Z 33012KT CAVOK 26/20 Q1010 NOSIG=
201008290530 METAR LMML NIL=
201008290515 METAR LMML 290515Z 32010KT CAVOK 25/21 Q1010 NOSIG=
201008290500 METAR LMML NIL=
201008290445 METAR LMML 290445Z 32011KT CAVOK 25/22 Q1009 NOSIG=
201008290430 METAR LMML NIL=
201008290415 METAR LMML 290415Z 31012KT CAVOK 25/22 Q1009 NOSIG=
201008290345 METAR LMML 290345Z 31012KT CAVOK 25/22 Q1009 NOSIG=
201008290330 METAR LMML NIL=
201008290315 METAR LMML 290315Z 32011KT CAVOK 25/23 Q1009 NOSIG=
201008290300 METAR LMML NIL=
201008290245 METAR LMML 290245Z 30013KT 270V330 CAVOK 25/23 Q1009 NOSIG=
201008290230 METAR LMML NIL=
201008290215 METAR LMML 290215Z 30010KT 260V320 9999 FEW012 25/23 Q1009
                        NOSIG=
201008290200 METAR LMML NIL=
201008290145 METAR LMML 290145Z 30010KT 270V330 CAVOK 25/23 Q1009 NOSIG=
201008290130 METAR LMML NIL=
201008290115 METAR LMML 290115Z 30008KT 260V340 CAVOK 26/22 Q1009 NOSIG=
201008290100 METAR LMML NIL=
201008290045 METAR LMML 290045Z 29008KT 250V330 CAVOK 26/22 Q1009 NOSIG=
201008290030 METAR LMML NIL=
201008290015 METAR LMML 290015Z 29006KT 230V340 CAVOK 26/22 Q1009 NOSIG=
201008290000 METAR LMML NIL=
201008282345 METAR LMML 282345Z 28011KT 250V320 CAVOK 26/21 Q1009 NOSIG=
201008282330 METAR LMML NIL=
201008282315 METAR LMML 282315Z 28010KT 250V320 CAVOK 26/21 Q1009 NOSIG=
201008282300 METAR LMML NIL=
201008282245 METAR LMML 282245Z 28007KT 230V340 CAVOK 26/20 Q1009 NOSIG=
201008282230 METAR LMML NIL=
201008282215 METAR LMML 282215Z 24005KT 200V300 CAVOK 26/20 Q1010 NOSIG=
201008282200 METAR LMML NIL=
201008282145 METAR LMML 282145Z 23004KT 160V340 CAVOK 27/18 Q1009 NOSIG=
201008282130 METAR LMML NIL=
201008282115 METAR LMML 282115Z 24004KT 130V300 CAVOK 27/17 Q1009 NOSIG=
201008282100 METAR LMML NIL=
201008282045 METAR LMML 282045Z 26008KT 220V300 CAVOK 27/19 Q1009 NOSIG=
201008282030 METAR LMML NIL=
201008282015 METAR LMML 282015Z 26004KT 210V330 CAVOK 27/17 Q1009 NOSIG=
201008282000 METAR LMML NIL=
201008281945 METAR LMML 281945Z 25004KT 200V290 CAVOK 27/19 Q1010 NOSIG=
201008281930 METAR LMML NIL=
201008281915 METAR LMML 281915Z 25005KT 180V310 CAVOK 27/19 Q1009 NOSIG=
201008281900 METAR LMML NIL=
201008281845 METAR LMML 281845Z 27007KT 220V310 CAVOK 27/18 Q1009 NOSIG=
201008281830 METAR LMML NIL=
201008281815 METAR LMML 281815Z 27004KT 210V330 CAVOK 27/20 Q1009 NOSIG=
201008281800 METAR LMML NIL=
201008281745 METAR LMML 281745Z 28007KT 230V310 CAVOK 27/21 Q1009 NOSIG=
201008281730 METAR LMML NIL=
201008281715 METAR LMML 281715Z 27009KT 210V310 CAVOK 28/21 Q1009 NOSIG=
201008281700 METAR LMML NIL=
201008281645 METAR LMML 281645Z 26008KT 220V290 CAVOK 28/21 Q1009 NOSIG=
201008281630 METAR LMML NIL=
201008281615 METAR LMML 281615Z 28012KT 220V350 CAVOK 30/21 Q1009 NOSIG=
201008281600 METAR LMML NIL=
201008281545 METAR LMML 281545Z 28015KT CAVOK 29/20 Q1010 NOSIG=
201008281530 METAR LMML NIL=
201008281515 METAR LMML 281515Z 27017KT CAVOK 31/21 Q1010 NOSIG=
201008281500 METAR LMML NIL=
201008281445 METAR LMML 281445Z 27013KT 230V300 CAVOK 31/19 Q1010 NOSIG=
201008281430 METAR LMML NIL=
201008281415 METAR LMML 281415Z 29016KT 250V310 CAVOK 31/20 Q1010 NOSIG=
201008281400 METAR LMML NIL=
201008281345 METAR LMML 281345Z 28016KT 260V320 CAVOK 31/20 Q1010 NOSIG=
201008281330 METAR LMML NIL=
201008281315 METAR LMML 281315Z 28015KT 240V310 CAVOK 32/19 Q1010 NOSIG=
201008281300 METAR LMML NIL=
201008281245 METAR LMML 281245Z 27014KT 230V310 CAVOK 32/18 Q1011 NOSIG=
201008281230 METAR LMML NIL=
201008281215 METAR LMML 281215Z 28016KT 250V310 CAVOK 32/17 Q1011 NOSIG=
201008281200 METAR LMML NIL=
201008281145 METAR LMML 281145Z 28016KT CAVOK 32/17 Q1011 NOSIG=
201008281130 METAR LMML NIL=
201008281115 METAR LMML 281115Z 28013KT 240V300 CAVOK 32/16 Q1011 NOSIG=
201008281100 METAR LMML NIL=
201008281045 METAR LMML 281045Z 28012KT 240V300 CAVOK 32/16 Q1011 NOSIG=
201008281030 METAR LMML NIL=
201008281015 METAR LMML 281015Z 26012KT 180V310 CAVOK 31/18 Q1012 NOSIG=
201008281000 METAR LMML NIL=
201008280945 METAR LMML 280945Z 28014KT 230V300 CAVOK 31/18 Q1012 NOSIG=
201008280930 METAR LMML NIL=
201008280915 METAR LMML 280915Z 27012KT 230V300 CAVOK 31/20 Q1012 NOSIG=
201008280900 METAR LMML NIL=
201008280845 METAR LMML 280845Z 29013KT 250V320 CAVOK 31/18 Q1012 NOSIG=
201008280830 METAR LMML NIL=
201008280815 METAR LMML 280815Z 29014KT CAVOK 29/17 Q1012 NOSIG=
201008280800 METAR LMML NIL=
201008280745 METAR LMML 280745Z 28013KT 240V310 CAVOK 29/18 Q1012 NOSIG=
201008280730 METAR LMML NIL=
201008280715 METAR LMML 280715Z 28012KT CAVOK 29/19 Q1011 NOSIG=
201008280700 METAR LMML NIL=
201008280645 METAR LMML 280645Z 28011KT 240V300 CAVOK 28/20 Q1011 NOSIG=
201008280630 METAR LMML NIL=
201008280615 METAR LMML 280615Z 28010KT 240V310 CAVOK 27/21 Q1011 NOSIG=
201008280600 METAR LMML NIL=
201008280545 METAR LMML 280545Z 27009KT 240V310 CAVOK 26/21 Q1011 NOSIG=
201008280515 METAR LMML 280515Z 27007KT 230V300 CAVOK 25/21 Q1011 NOSIG=
201008280500 METAR LMML NIL=
201008280445 METAR LMML 280445Z 28008KT 240V310 CAVOK 25/21 Q1011 NOSIG=
201008280430 METAR LMML NIL=
201008280415 METAR LMML 280415Z 29008KT 260V320 CAVOK 25/21 Q1011 NOSIG=
201008280400 METAR LMML NIL=
201008280345 METAR LMML 280345Z 27005KT 230V310 CAVOK 24/21 Q1011 NOSIG=
201008280330 METAR LMML NIL=
201008280315 METAR LMML 280315Z 27006KT 250V310 CAVOK 25/21 Q1011 NOSIG=
201008280300 METAR LMML NIL=
201008280245 METAR LMML 280245Z 28006KT CAVOK 25/22 Q1011 NOSIG=
201008280230 METAR LMML NIL=
201008280215 METAR LMML 280215Z 28009KT CAVOK 25/22 Q1011 NOSIG=
201008280200 METAR LMML NIL=
201008280145 METAR LMML 280145Z 28009KT CAVOK 25/22 Q1011 NOSIG=
201008280130 METAR LMML NIL=
201008280115 METAR LMML 280115Z 27005KT 230V300 CAVOK 25/22 Q1012 NOSIG=
201008280045 METAR LMML 280045Z 27004KT 240V300 CAVOK 25/22 Q1012 NOSIG=
201008280030 METAR LMML NIL=
201008280015 METAR LMML 280015Z 28004KT 240V310 CAVOK 25/21 Q1012 NOSIG=
201008280000 METAR LMML NIL=
201008272345 METAR LMML 272345Z 27005KT CAVOK 26/20 Q1012 NOSIG=
201008272330 METAR LMML NIL=
201008272315 METAR LMML 272315Z 28004KT 250V310 CAVOK 26/18 Q1012 NOSIG=
201008272300 METAR LMML NIL=
201008272245 METAR LMML 272245Z VRB03KT CAVOK 26/18 Q1013 NOSIG=
201008272230 METAR LMML NIL=
201008272215 METAR LMML 272215Z 26004KT CAVOK 25/19 Q1013 NOSIG=
201008272200 METAR LMML NIL=
201008272145 METAR LMML 272145Z 29004KT 260V320 CAVOK 25/21 Q1013 NOSIG=
201008272130 METAR LMML NIL=
201008272115 METAR LMML 272115Z 28005KT CAVOK 25/21 Q1013 NOSIG=
201008272100 METAR LMML NIL=
201008272045 METAR LMML 272045Z 29004KT CAVOK 26/21 Q1013 NOSIG=
201008272030 METAR LMML NIL=
201008272015 METAR LMML 272015Z 28005KT 250V320 CAVOK 26/22 Q1013 NOSIG=
201008271945 METAR LMML 271945Z 29006KT CAVOK 27/22 Q1013 NOSIG=
201008271930 METAR LMML NIL=
201008271915 METAR LMML 271915Z 26005KT 220V290 CAVOK 27/21 Q1013 NOSIG=
201008271900 METAR LMML NIL=
201008271845 METAR LMML 271845Z 29004KT 260V320 CAVOK 27/21 Q1013 NOSIG=
201008271830 METAR LMML NIL=
201008271815 METAR LMML 271815Z 27005KT 240V300 9999 FEW012 28/21 Q1012
                        NOSIG=
201008271800 METAR LMML NIL=
201008271745 METAR LMML 271745Z VRB03KT 9999 FEW012 29/20 Q1012 NOSIG=
201008271730 METAR LMML NIL=
201008271715 METAR LMML 271715Z 25006KT 210V290 9999 FEW012 30/20 Q1012
                        NOSIG=
201008271700 METAR LMML NIL=
201008271645 METAR LMML 271645Z 23005KT 180V280 9999 FEW020 31/20 Q1012
                        NOSIG=
201008271630 METAR LMML NIL=
201008271615 METAR LMML 271615Z 22005KT 180V260 9999 FEW020 30/19 Q1012
                        NOSIG=
201008271545 METAR LMML 271545Z 24006KT 200V280 9999 FEW020 31/18 Q1013
                        NOSIG=
201008271530 METAR LMML NIL=
201008271515 METAR LMML 271515Z 24007KT 210V300 9999 FEW020 31/18 Q1013
                        NOSIG=
201008271500 METAR LMML NIL=
201008271445 METAR LMML 271445Z 23006KT 190V280 9999 FEW020 32/18 Q1013
                        TEMPO CAVOK=
201008271430 METAR LMML NIL=
201008271415 METAR LMML 271415Z 24006KT 200V300 9999 FEW020 33/18 Q1013
                        TEMPO CAVOK=
201008271345 METAR LMML 271345Z 23009KT 200V270 9999 FEW020 33/16 Q1013
                        TEMPO CAVOK=
201008271330 METAR LMML NIL=
201008271315 METAR LMML 271315Z 24007KT 200V300 CAVOK 34/12 Q1013 NOSIG=
201008271300 METAR LMML NIL=
201008271245 METAR LMML 271245Z 25008KT 200V300 CAVOK 35/12 Q1013 NOSIG=
201008271230 METAR LMML NIL=
201008271215 METAR LMML 271215Z 22009KT 200V260 CAVOK 34/13 Q1013 NOSIG=
201008271200 METAR LMML NIL=
201008271145 METAR LMML 271145Z 22007KT 180V270 CAVOK 33/16 Q1014 NOSIG=
201008271130 METAR LMML NIL=
201008271115 METAR LMML 271115Z 19007KT 160V230 CAVOK 33/16 Q1014 NOSIG=
201008271100 METAR LMML NIL=
201008271045 METAR LMML 271045Z 22006KT 170V270 9999 FEW020 32/20 Q1014
                        NOSIG=
201008271030 METAR LMML NIL=
201008271015 METAR LMML 271015Z 22006KT 160V260 9999 FEW020 32/19 Q1014
                        NOSIG=
201008271000 METAR LMML NIL=
201008270945 METAR LMML 270945Z 17005KT 140V200 CAVOK 32/19 Q1014 NOSIG=
201008270930 METAR LMML NIL=
201008270915 METAR LMML 270915Z 17005KT 110V250 CAVOK 32/20 Q1015 NOSIG=
201008270900 METAR LMML NIL=
201008270845 METAR LMML 270845Z VRB02KT CAVOK 34/16 Q1015 NOSIG=
201008270830 METAR LMML NIL=
201008270815 METAR LMML 270815Z VRB02KT CAVOK 32/17 Q1014 NOSIG=
201008270745 METAR LMML 270745Z VRB02KT CAVOK 32/18 Q1014 NOSIG=
201008270730 METAR LMML NIL=
201008270715 METAR LMML 270715Z VRB01KT CAVOK 30/18 Q1014 NOSIG=
201008270700 METAR LMML NIL=
201008270645 METAR LMML 270645Z VRB03KT CAVOK 28/20 Q1014 NOSIG=
201008270630 METAR LMML NIL=
201008270615 METAR LMML 270615Z VRB02KT CAVOK 28/16 Q1014 NOSIG=
201008270600 METAR LMML NIL=
201008270545 METAR LMML 270545Z VRB01KT CAVOK 27/13 Q1014 NOSIG=
201008270530 METAR LMML NIL=
201008270515 METAR LMML 270515Z VRB02KT CAVOK 25/14 Q1014 NOSIG=
201008270500 METAR LMML NIL=
201008270445 METAR LMML 270445Z VRB01KT CAVOK 24/13 Q1013 NOSIG=
201008270430 METAR LMML NIL=
201008270415 METAR LMML 270415Z VRB01KT CAVOK 25/14 Q1013 NOSIG=
201008270400 METAR LMML NIL=
201008270345 METAR LMML 270345Z VRB02KT CAVOK 25/14 Q1013 NOSIG=
201008270330 METAR LMML NIL=
201008270315 METAR LMML 270315Z VRB02KT CAVOK 25/14 Q1013 NOSIG=
201008270300 METAR LMML NIL=
201008270245 METAR LMML 270245Z VRB03KT CAVOK 25/14 Q1013 NOSIG=
201008270215 METAR LMML 270215Z VRB03KT CAVOK 25/18 Q1014 NOSIG=
201008270200 METAR LMML NIL=
201008270145 METAR LMML 270145Z VRB03KT CAVOK 26/15 Q1014 NOSIG=
201008270130 METAR LMML NIL=
201008270115 METAR LMML 270115Z VRB03KT CAVOK 25/15 Q1014 NOSIG=
201008270100 METAR LMML NIL=
201008270045 METAR LMML 270045Z VRB02KT CAVOK 25/18 Q1014 NOSIG=
201008270030 METAR LMML NIL=
201008270015 METAR LMML 270015Z VRB02KT CAVOK 25/19 Q1014 NOSIG=
201008270000 METAR LMML NIL=
201008262345 METAR LMML 262345Z VRB01KT CAVOK 25/20 Q1015 NOSIG=
201008262315 METAR LMML 262315Z VRB03KT CAVOK 26/20 Q1015 NOSIG=
201008262245 METAR LMML 262245Z VRB02KT CAVOK 26/20 Q1015 NOSIG=
201008262230 METAR LMML NIL=
201008262215 METAR LMML 262215Z VRB02KT CAVOK 26/21 Q1015 NOSIG=
201008262200 METAR LMML NIL=
201008262145 METAR LMML 262145Z VRB01KT CAVOK 27/22 Q1015 NOSIG=
201008262130 METAR LMML NIL=
201008262115 METAR LMML 262115Z VRB03KT CAVOK 27/22 Q1015 NOSIG=
201008262100 METAR LMML NIL=
201008262045 METAR LMML 262045Z VRB02KT CAVOK 27/21 Q1015 NOSIG=
201008262030 METAR LMML NIL=
201008262015 METAR LMML 262015Z VRB03KT CAVOK 27/21 Q1015 NOSIG=
201008262000 METAR LMML NIL=
201008261945 METAR LMML 261945Z VRB02KT CAVOK 28/22 Q1015 NOSIG=
201008261930 METAR LMML NIL=
201008261915 METAR LMML 261915Z VRB03KT CAVOK 28/21 Q1015 NOSIG=
201008261900 METAR LMML NIL=
201008261845 METAR LMML 261845Z VRB03KT CAVOK 28/20 Q1015 NOSIG=
201008261830 METAR LMML NIL=
201008261815 METAR LMML 261815Z VRB03KT CAVOK 29/18 Q1014 NOSIG=
201008261800 METAR LMML NIL=
201008261745 METAR LMML 261745Z VRB01KT CAVOK 30/19 Q1014 NOSIG=
201008261730 METAR LMML NIL=
201008261715 METAR LMML 261715Z VRB01KT CAVOK 31/18 Q1014 NOSIG=
201008261700 METAR LMML NIL=
201008261645 METAR LMML 261645Z VRB03KT CAVOK 31/18 Q1014 NOSIG=
201008261630 METAR LMML NIL=
201008261615 METAR LMML 261615Z VRB03KT CAVOK 32/19 Q1014 NOSIG=
201008261600 METAR LMML NIL=
201008261545 METAR LMML 261545Z VRB03KT CAVOK 33/17 Q1014 NOSIG=
201008261530 METAR LMML NIL=
201008261515 METAR LMML 261515Z VRB02KT CAVOK 33/18 Q1014 NOSIG=
201008261500 METAR LMML NIL=
201008261445 METAR LMML 261445Z VRB03KT CAVOK 33/21 Q1015 NOSIG=
201008261430 METAR LMML NIL=
201008261415 METAR LMML 261415Z 03004KT 350V090 9999 FEW020 33/21 Q1015
                        NOSIG=
201008261400 METAR LMML NIL=
201008261345 METAR LMML 261345Z 03005KT 340V060 9999 FEW020 34/21 Q1015
                        NOSIG=
201008261330 METAR LMML NIL=
201008261315 METAR LMML 261315Z 03004KT 350V070 9999 FEW020 34/21 Q1015
                        NOSIG=
201008261245 METAR LMML 261245Z 03005KT 310V110 CAVOK 34/22 Q1015 NOSIG=
201008261230 METAR LMML NIL=
201008261215 METAR LMML 261215Z VRB03KT 9999 FEW030 34/21 Q1015 NOSIG=
201008261200 METAR LMML NIL=
201008261145 METAR LMML 261145Z 03004KT 320V120 9999 FEW030 33/22 Q1015
                        NOSIG=
201008261130 METAR LMML NIL=
201008261115 METAR LMML 261115Z 02004KT 330V080 9999 FEW030 34/24 Q1015
                        NOSIG=
201008261100 METAR LMML NIL=
201008261045 METAR LMML 261045Z 04004KT 360V130 9999 FEW030 33/22 Q1016
                        NOSIG=
201008261030 METAR LMML NIL=
201008261015 METAR LMML 261015Z 04007KT 010V070 CAVOK 34/22 Q1015 NOSIG=
201008261000 METAR LMML NIL=
201008260945 METAR LMML 260945Z VRB03KT CAVOK 35/17 Q1015 NOSIG=
201008260930 METAR LMML NIL=
201008260915 METAR LMML 260915Z 24004KT 180V300 CAVOK 33/19 Q1016 NOSIG=
201008260900 METAR LMML NIL=
201008260845 METAR LMML 260845Z VRB03KT CAVOK 33/16 Q1015 NOSIG=
201008260830 METAR LMML NIL=
201008260815 METAR LMML 260815Z VRB03KT CAVOK 32/17 Q1015 NOSIG=
201008260800 METAR LMML NIL=
201008260745 METAR LMML 260745Z VRB02KT CAVOK 32/18 Q1015 NOSIG=
201008260730 METAR LMML NIL=
201008260715 METAR LMML 260715Z VRB02KT CAVOK 31/18 Q1015 NOSIG=
201008260700 METAR LMML NIL=
201008260645 METAR LMML 260645Z VRB02KT CAVOK 29/21 Q1015 NOSIG=
201008260630 METAR LMML NIL=
201008260615 METAR LMML 260615Z VRB03KT CAVOK 27/23 Q1015 NOSIG=
201008260545 METAR LMML 260545Z VRB02KT 9000 FEW012 25/23 Q1015 NOSIG=
201008260530 METAR LMML NIL=
201008260515 METAR LMML 260515Z VRB02KT 9000 FEW012 25/23 Q1015 NOSIG=
201008260500 METAR LMML NIL=
201008260445 METAR LMML 260445Z VRB03KT 9000 FEW012 24/22 Q1015 NOSIG=
201008260430 METAR LMML NIL=
201008260415 METAR LMML 260415Z VRB03KT 9000 FEW012 24/22 Q1014 NOSIG=
201008260400 METAR LMML NIL=
201008260345 METAR LMML 260345Z VRB03KT CAVOK 24/22 Q1014 NOSIG=
201008260330 METAR LMML NIL=
201008260315 METAR LMML 260315Z VRB02KT CAVOK 24/22 Q1014 NOSIG=
201008260300 METAR LMML NIL=
201008260245 METAR LMML 260245Z VRB03KT CAVOK 24/22 Q1014 NOSIG=
201008260230 METAR LMML NIL=
201008260215 METAR LMML 260215Z VRB03KT CAVOK 24/22 Q1015 NOSIG=
201008260145 METAR LMML 260145Z VRB03KT CAVOK 24/22 Q1015 NOSIG=
201008260130 METAR LMML NIL=
201008260115 METAR LMML 260115Z 28004KT CAVOK 24/22 Q1015 NOSIG=
201008260100 METAR LMML NIL=
201008260045 METAR LMML 260045Z 29004KT CAVOK 24/22 Q1015 NOSIG=
201008260030 METAR LMML NIL=
201008260015 METAR LMML 260015Z VRB02KT CAVOK 24/23 Q1015 NOSIG=
201008260000 METAR LMML NIL=
201008252345 METAR LMML 252345Z VRB03KT CAVOK 24/23 Q1016 NOSIG=
201008252330 METAR LMML NIL=
201008252315 METAR LMML 252315Z 32005KT CAVOK 25/23 Q1016 NOSIG=
201008252300 METAR LMML NIL=
201008252245 METAR LMML 252245Z 32005KT CAVOK 25/23 Q1016 NOSIG=
201008252230 METAR LMML NIL=
201008252215 METAR LMML 252215Z 32005KT CAVOK 25/22 Q1016 NOSIG=
201008252200 METAR LMML NIL=
201008252145 METAR LMML 252145Z 30005KT 260V330 CAVOK 25/22 Q1016 NOSIG=
201008252130 METAR LMML NIL=
201008252115 METAR LMML 252115Z 31004KT CAVOK 25/22 Q1016 NOSIG=
201008252100 METAR LMML NIL=
201008252045 METAR LMML 252045Z 32005KT CAVOK 25/22 Q1016 NOSIG=
201008252030 METAR LMML NIL=
201008252015 METAR LMML 252015Z 31006KT CAVOK 25/23 Q1016 NOSIG=
201008252000 METAR LMML NIL=
201008251945 METAR LMML 251945Z 31005KT 280V350 CAVOK 25/23 Q1016 NOSIG=
201008251930 METAR LMML NIL=
201008251915 METAR LMML 251915Z 31007KT 9999 FEW020 26/23 Q1016 NOSIG=
201008251900 METAR LMML NIL=
201008251845 METAR LMML 251845Z 30006KT 280V340 9999 FEW020 26/23 Q1016
                        NOSIG=
201008251830 METAR LMML NIL=
201008251815 METAR LMML 251815Z 30009KT 9999 FEW020 26/23 Q1015 NOSIG=
201008251800 METAR LMML NIL=
201008251745 METAR LMML 251745Z 31009KT 270V330 9999 FEW020 26/22 Q1015
                        NOSIG=
201008251730 METAR LMML NIL=
201008251715 METAR LMML 251715Z 30008KT 260V330 9999 FEW025 27/22 Q1015
                        NOSIG=
201008251700 METAR LMML NIL=
201008251645 METAR LMML 251645Z 28008KT 250V320 9999 FEW025 28/22 Q1015
                        NOSIG=
201008251630 METAR LMML NIL=
201008251615 METAR LMML 251615Z 27009KT 230V300 9999 FEW025 28/21 Q1015
                        NOSIG=
201008251600 METAR LMML NIL=
201008251545 METAR LMML 251545Z 27009KT 230V310 9999 FEW025 29/21 Q1015
                        NOSIG=
201008251530 METAR LMML NIL=
201008251515 METAR LMML 251515Z 28009KT 230V310 9999 FEW025 31/21 Q1015
                        NOSIG=
201008251500 METAR LMML NIL=
201008251445 METAR LMML 251445Z 27010KT 210V310 9999 FEW025 30/21 Q1015
                        NOSIG=
201008251430 METAR LMML NIL=
201008251415 METAR LMML 251415Z 28011KT 200V310 9999 FEW025 31/22 Q1015
                        NOSIG=
201008251400 METAR LMML NIL=
201008251345 METAR LMML 251345Z 28009KT 230V320 9999 FEW025 31/21 Q1015
                        NOSIG=
201008251330 METAR LMML NIL=
201008251315 METAR LMML 251315Z 27009KT 230V320 9999 FEW025 32/20 Q1015
                        NOSIG=
201008251300 METAR LMML NIL=
201008251245 METAR LMML 251245Z 31007KT 250V010 9999 FEW025 33/16 Q1015
                        NOSIG=
201008251230 METAR LMML NIL=
201008251215 METAR LMML 251215Z 29008KT 220V340 CAVOK 33/16 Q1015 NOSIG=
201008251200 METAR LMML NIL=
201008251145 METAR LMML 251145Z 29008KT 230V340 CAVOK 33/15 Q1016 NOSIG=
201008251115 METAR LMML 251115Z 29009KT 250V330 9999 FEW025 32/20 Q1016
                        NOSIG=
201008251100 METAR LMML NIL=
201008251045 METAR LMML 251045Z 29010KT 240V330 9999 FEW025 31/20 Q1016
                        NOSIG=
201008251030 METAR LMML NIL=
201008251015 METAR LMML 251015Z 28011KT 260V320 9999 FEW025 31/20 Q1016
                        NOSIG=
201008251000 METAR LMML NIL=
201008250945 METAR LMML 250945Z 29011KT 250V320 9999 FEW025 31/20 Q1016
                        NOSIG=
201008250930 METAR LMML NIL=
201008250915 METAR LMML 250915Z 28011KT 9999 FEW025 31/17 Q1016 NOSIG=
201008250900 METAR LMML NIL=
201008250845 METAR LMML 250845Z 30011KT 9999 FEW025 31/18 Q1016 NOSIG=
201008250830 METAR LMML NIL=
201008250815 METAR LMML 250815Z 29009KT 9999 FEW025 30/19 Q1015 NOSIG=
201008250800 METAR LMML NIL=
201008250745 METAR LMML 250745Z 31011KT 9999 FEW025 29/20 Q1015 NOSIG=
201008250730 METAR LMML NIL=
201008250715 METAR LMML 250715Z 29009KT 9999 FEW020 28/21 Q1015 NOSIG=
201008250700 METAR LMML NIL=
201008250645 METAR LMML 250645Z 29009KT 9999 FEW020 27/21 Q1015 NOSIG=
201008250630 METAR LMML NIL=
201008250615 METAR LMML 250615Z 30007KT 9999 FEW020 27/22 Q1015 NOSIG=
201008250600 METAR LMML NIL=
201008250545 METAR LMML 250545Z 30005KT 270V330 CAVOK 25/23 Q1015 NOSIG=
201008250530 METAR LMML NIL=
201008250515 METAR LMML 250515Z 30005KT CAVOK 25/23 Q1015 NOSIG=
201008250500 METAR LMML NIL=
201008250445 METAR LMML 250445Z 29007KT CAVOK 24/23 Q1015 NOSIG=
201008250430 METAR LMML NIL=
201008250415 METAR LMML 250415Z 28005KT 240V310 CAVOK 24/22 Q1015 NOSIG=
201008250400 METAR LMML NIL=
201008250345 METAR LMML 250345Z 28005KT 250V310 CAVOK 24/23 Q1015 NOSIG=
201008250330 METAR LMML NIL=
201008250315 METAR LMML 250315Z 28006KT 250V310 CAVOK 24/23 Q1015 NOSIG=
201008250300 METAR LMML NIL=
201008250245 METAR LMML 250245Z 27005KT CAVOK 25/23 Q1015 NOSIG=
201008250230 METAR LMML NIL=
201008250215 METAR LMML 250215Z 26004KT 230V300 CAVOK 25/23 Q1015 NOSIG=
201008250200 METAR LMML NIL=
201008250145 METAR LMML 250145Z 26004KT CAVOK 25/22 Q1015 NOSIG=
201008250130 METAR LMML NIL=
201008250115 METAR LMML 250115Z 27004KT CAVOK 25/22 Q1015 NOSIG=
201008250100 METAR LMML NIL=
201008250045 METAR LMML 250045Z VRB02KT CAVOK 25/21 Q1015 NOSIG=
201008250030 METAR LMML NIL=
201008250015 METAR LMML 250015Z VRB02KT CAVOK 25/20 Q1015 NOSIG=
201008250000 METAR LMML NIL=
201008242345 METAR LMML 242345Z VRB02KT CAVOK 25/19 Q1015 NOSIG=
201008242330 METAR LMML NIL=
201008242315 METAR LMML 242315Z VRB03KT CAVOK 25/19 Q1015 NOSIG=
201008242300 METAR LMML NIL=
201008242245 METAR LMML 242245Z VRB01KT CAVOK 26/18 Q1015 NOSIG=
201008242230 METAR LMML NIL=
201008242215 METAR LMML 242215Z VRB03KT CAVOK 26/17 Q1015 NOSIG=
201008242200 METAR LMML NIL=
201008242145 METAR LMML 242145Z VRB03KT CAVOK 26/17 Q1015 NOSIG=
201008242130 METAR LMML NIL=
201008242115 METAR LMML 242115Z 27004KT 240V300 CAVOK 26/19 Q1015 NOSIG=
201008242100 METAR LMML NIL=
201008242045 METAR LMML 242045Z 26004KT 230V300 CAVOK 27/17 Q1015 NOSIG=
201008242030 METAR LMML NIL=
201008242015 METAR LMML 242015Z 24004KT 220V280 CAVOK 27/16 Q1015 NOSIG=
201008242000 METAR LMML NIL=
201008241945 METAR LMML 241945Z VRB02KT CAVOK 27/16 Q1015 NOSIG=
201008241930 METAR LMML NIL=
201008241915 METAR LMML 241915Z 27004KT 240V310 CAVOK 28/15 Q1015 NOSIG=
201008241900 METAR LMML NIL=
201008241845 METAR LMML 241845Z 26006KT 230V300 CAVOK 28/13 Q1014 NOSIG=
201008241830 METAR LMML NIL=
201008241815 METAR LMML 241815Z 27005KT 230V300 CAVOK 28/15 Q1014 NOSIG=
201008241800 METAR LMML NIL=
201008241745 METAR LMML 241745Z 26005KT 200V290 CAVOK 28/17 Q1014 NOSIG=
201008241730 METAR LMML NIL=
201008241715 METAR LMML 241715Z 27006KT 230V310 CAVOK 29/17 Q1014 NOSIG=
201008241700 METAR LMML NIL=
201008241645 METAR LMML 241645Z 29008KT 9999 FEW020 29/19 Q1014 NOSIG=
201008241630 METAR LMML NIL=
201008241615 METAR LMML 241615Z 28006KT 230V310 9999 FEW020 31/20 Q1014
                        NOSIG=
201008241600 METAR LMML NIL=
201008241545 METAR LMML 241545Z 29006KT 220V330 9999 FEW020 31/20 Q1014
                        NOSIG=
201008241530 METAR LMML NIL=
201008241515 METAR LMML 241515Z 27005KT 230V320 9999 FEW020 30/20 Q1014
                        NOSIG=
201008241500 METAR LMML NIL=
201008241445 METAR LMML 241445Z 25006KT 210V280 9999 FEW020 31/21 Q1015
                        NOSIG=
201008241430 METAR LMML NIL=
201008241415 METAR LMML 241415Z 22007KT 200V270 9999 FEW020 32/20 Q1014
                        NOSIG=
201008241400 METAR LMML NIL=
201008241345 METAR LMML 241345Z 23005KT 170V290 9999 FEW015 32/20 Q1014
                        NOSIG=
201008241330 METAR LMML NIL=
201008241315 METAR LMML 241315Z 25006KT 200V320 9999 FEW020 32/21 Q1014
                        NOSIG=
201008241300 METAR LMML NIL=
201008241245 METAR LMML 241245Z 23006KT 190V290 9999 FEW020 32/20 Q1015
                        NOSIG=
201008241230 METAR LMML NIL=
201008241215 METAR LMML 241215Z 29006KT 210V350 9999 FEW020 32/19 Q1015
                        NOSIG=
201008241200 METAR LMML NIL=
201008241145 METAR LMML 241145Z 28007KT 220V330 9999 FEW020 32/20 Q1015
                        NOSIG=
201008241130 METAR LMML NIL=
201008241115 METAR LMML 241115Z 28007KT 240V320 9999 FEW015 32/20 Q1015
                        NOSIG=
201008241100 METAR LMML NIL=
201008241045 METAR LMML 241045Z 31009KT 270V340 9999 FEW020 32/20 Q1015
                        NOSIG=
201008241030 METAR LMML NIL=
201008241015 METAR LMML 241015Z 29007KT 230V330 9999 FEW015 32/18 Q1015
                        NOSIG=
201008241000 METAR LMML NIL=
201008240945 METAR LMML 240945Z 27005KT 200V320 9999 FEW015 32/19 Q1015
                        NOSIG=
201008240930 METAR LMML NIL=
201008240915 METAR LMML 240915Z 28005KT 230V340 9999 FEW015 31/20 Q1015
                        NOSIG=
201008240900 METAR LMML NIL=
201008240845 METAR LMML 240845Z 28006KT 200V320 9999 FEW015 31/20 Q1015
                        NOSIG=
201008240830 METAR LMML NIL=
201008240815 METAR LMML 240815Z 28006KT 230V330 9999 FEW015 29/21 Q1015
                        NOSIG=
201008240800 METAR LMML NIL=
201008240745 METAR LMML 240745Z 22005KT 190V280 9999 FEW015 29/24 Q1015
                        NOSIG=
201008240730 METAR LMML NIL=
201008240715 METAR COR LMML 240715Z 22004KT 170V290 9999 FEW015 28/24
                        Q1015 NOSIG=
201008240700 METAR LMML NIL=
201008240645 METAR LMML 240645Z VRB03KT CAVOK 27/24 Q1014 BECMG 9999 FEW012=
201008240630 METAR LMML NIL=
201008240615 METAR LMML 240615Z VRB03KT 9000 NSC 26/24 Q1014 BECMG 9999
                        FEW012=
201008240600 METAR LMML NIL=
201008240545 METAR LMML 240545Z VRB01KT 6000 NSC 25/24 Q1014 BECMG 9999
                        FEW012=
201008240530 METAR LMML NIL=
201008240515 METAR LMML 240515Z VRB01KT 6000 NSC 24/23 Q1014 NOSIG=
201008240500 METAR LMML NIL=
201008240445 METAR LMML 240445Z VRB02KT 6000 NSC 24/22 Q1014 NOSIG=
201008240430 METAR LMML NIL=
201008240415 METAR LMML 240415Z VRB02KT 6000 NSC 24/22 Q1013 NOSIG=
201008240400 METAR LMML NIL=
201008240345 METAR LMML 240345Z VRB02KT 7000 NSC 24/23 Q1013 TEMPO 5000
                        FEW006=
201008240315 METAR LMML 240315Z VRB02KT 9000 NSC 24/22 Q1013 TEMPO 6000
                        FEW006=
201008240245 METAR LMML 240245Z VRB02KT CAVOK 24/22 Q1013 NOSIG=
201008240230 METAR LMML NIL=
201008240215 METAR LMML 240215Z VRB02KT CAVOK 25/22 Q1013 NOSIG=
201008240145 METAR LMML 240145Z 30004KT CAVOK 25/23 Q1014 NOSIG=
201008240130 METAR LMML NIL=
201008240115 METAR LMML 240115Z 30004KT CAVOK 25/23 Q1014 NOSIG=
201008240100 METAR LMML NIL=
201008240045 METAR LMML 240045Z VRB02KT CAVOK 25/23 Q1014 NOSIG=
201008240030 METAR LMML NIL=
201008240015 METAR LMML 240015Z VRB01KT CAVOK 25/22 Q1014 NOSIG=
201008240000 METAR LMML NIL=
201008232345 METAR LMML 232345Z VRB02KT CAVOK 25/23 Q1014 NOSIG=
201008232330 METAR LMML NIL=
201008232315 METAR LMML 232315Z VRB03KT CAVOK 25/23 Q1014 NOSIG=
201008232300 METAR LMML NIL=
201008232245 METAR LMML 232245Z VRB02KT CAVOK 26/23 Q1014 NOSIG=
201008232230 METAR LMML NIL=
201008232215 METAR LMML 232215Z VRB02KT CAVOK 26/23 Q1014 NOSIG=
201008232200 METAR LMML NIL=
201008232145 METAR LMML 232145Z VRB02KT CAVOK 26/22 Q1014 NOSIG=
201008232130 METAR LMML NIL=
201008232115 METAR LMML 232115Z VRB01KT CAVOK 26/22 Q1014 NOSIG=
201008232100 METAR LMML NIL=
201008232045 METAR LMML 232045Z VRB01KT CAVOK 26/22 Q1014 NOSIG=
201008232030 METAR LMML NIL=
201008232015 METAR LMML 232015Z VRB01KT CAVOK 27/22 Q1014 NOSIG=
201008232000 METAR LMML NIL=
201008231945 METAR LMML 231945Z VRB02KT CAVOK 27/22 Q1014 NOSIG=
201008231930 METAR LMML NIL=
201008231915 METAR LMML 231915Z VRB01KT 9999 FEW020 26/22 Q1014 NOSIG=
201008231900 METAR LMML NIL=
201008231845 METAR LMML 231845Z VRB02KT 9999 FEW020 27/22 Q1014 NOSIG=
201008231830 METAR LMML NIL=
201008231815 METAR LMML 231815Z VRB02KT 9999 FEW020 27/22 Q1013 NOSIG=
201008231800 METAR LMML NIL=
201008231745 METAR LMML 231745Z VRB03KT 9999 FEW025 27/22 Q1013 NOSIG=
201008231730 METAR LMML NIL=
201008231715 METAR LMML 231715Z VRB03KT 9999 FEW025 28/22 Q1013 NOSIG=
201008231700 METAR LMML NIL=
201008231645 METAR LMML 231645Z VRB03KT 9999 FEW027 29/22 Q1013 NOSIG=
201008231630 METAR LMML NIL=
201008231615 METAR LMML 231615Z VRB03KT 9999 FEW027 29/22 Q1013 NOSIG=
201008231600 METAR LMML NIL=
201008231545 METAR LMML 231545Z VRB02KT 9999 FEW024 30/22 Q1013 NOSIG=
201008231530 METAR LMML NIL=
201008231515 METAR LMML 231515Z 04004KT 350V170 9999 FEW024 31/22 Q1013
                        NOSIG=
201008231500 METAR LMML NIL=
201008231445 METAR LMML 231445Z 03005KT 360V070 9999 FEW024 32/22 Q1013
                        NOSIG=
201008231430 METAR LMML NIL=
201008231415 METAR LMML 231415Z 02004KT 340V070 9999 FEW024 32/22 Q1013
                        NOSIG=
201008231400 METAR LMML NIL=
201008231345 METAR LMML 231345Z 02005KT 340V070 9999 FEW024 31/22 Q1013
                        NOSIG=
201008231330 METAR LMML NIL=
201008231315 METAR LMML 231315Z 02005KT 330V090 9999 FEW024 32/21 Q1013
                        NOSIG=
201008231300 METAR LMML NIL=
201008231245 METAR LMML 231245Z 02006KT 310V080 9999 FEW024 31/22 Q1014
                        NOSIG=
201008231230 METAR LMML NIL=
201008231215 METAR LMML 231215Z 03006KT 330V090 9999 FEW024 31/22 Q1014
                        NOSIG=
201008231200 METAR LMML NIL=
201008231145 METAR LMML 231145Z 02005KT 330V090 9999 FEW024 31/21 Q1014
                        NOSIG=
201008231130 METAR LMML NIL=
201008231115 METAR LMML 231115Z 04006KT 340V110 9999 FEW024 30/22 Q1014
                        NOSIG=
201008231100 METAR LMML NIL=
201008231045 METAR LMML 231045Z 01005KT 340V070 9999 FEW021 31/23 Q1014
                        NOSIG=
201008231030 METAR LMML NIL=
201008231015 METAR LMML 231015Z 04006KT 360V080 9999 FEW020 31/23 Q1014
                        NOSIG=
201008231000 METAR LMML NIL=
201008230945 METAR LMML 230945Z 07008KT 030V110 9999 FEW021 30/22 Q1014
                        NOSIG=
201008230930 METAR LMML NIL=
201008230915 METAR LMML 230915Z 03005KT 350V080 9999 FEW018 30/22 Q1014
                        NOSIG=
201008230900 METAR LMML NIL=
201008230845 METAR LMML 230845Z 03005KT 360V090 9999 FEW019 28/22 Q1014
                        NOSIG=
201008230830 METAR LMML NIL=
201008230815 METAR LMML 230815Z 04006KT 350V110 9999 FEW016 28/22 Q1014
                        NOSIG=
201008230800 METAR LMML NIL=
201008230745 METAR LMML 230745Z 06006KT 360V120 9999 FEW020 28/22 Q1014
                        NOSIG=
201008230730 METAR LMML NIL=
201008230715 METAR COR LMML 230715Z 04005KT 350V090 9999 FEW020 28/22
                        Q1014 NOSIG=
201008230700 METAR LMML NIL=
201008230645 METAR LMML 230645Z 03004KT 260V070 CAVOK 27/22 Q1014 NOSIG=
201008230630 METAR LMML NIL=
201008230615 METAR LMML 230615Z VRB03KT 9000 NSC 25/23 Q1014 BECMG CAVOK=
201008230600 METAR LMML NIL=
201008230545 METAR LMML 230545Z VRB02KT 9000 NSC 25/23 Q1013 BECMG CAVOK=
201008230530 METAR LMML NIL=
201008230515 METAR LMML 230515Z VRB01KT 9000 FEW012 23/22 Q1013 NOSIG=
201008230445 METAR LMML 230445Z VRB02KT 7000 FEW012 23/22 Q1013 NOSIG=
201008230430 METAR LMML NIL=
201008230415 METAR LMML 230415Z VRB02KT 7000 FEW012 23/22 Q1013 NOSIG=
201008230400 METAR LMML NIL=
201008230345 METAR LMML 230345Z VRB02KT 9999 FEW012 23/22 Q1013 NOSIG=
201008230330 METAR LMML NIL=
201008230315 METAR LMML 230315Z VRB03KT 9999 FEW012 24/22 Q1013 NOSIG=
201008230300 METAR LMML NIL=
201008230245 METAR LMML 230245Z VRB03KT 9999 FEW012 24/22 Q1013 NOSIG=
201008230215 METAR LMML 230215Z VRB03KT 9999 FEW012 24/22 Q1013 NOSIG=
201008230200 METAR LMML NIL=
201008230145 METAR LMML 230145Z VRB03KT 9999 FEW012 24/23 Q1013 NOSIG=
201008230130 METAR LMML NIL=
201008230115 METAR LMML 230115Z 30004KT 9999 FEW012 24/23 Q1013 NOSIG=
201008230100 METAR LMML NIL=
201008230045 METAR LMML 230045Z 30004KT 9999 FEW012 24/23 Q1013 NOSIG=
201008230030 METAR LMML NIL=
201008230015 METAR LMML 230015Z 30004KT 9999 FEW012 24/23 Q1014 NOSIG=
201008230000 METAR LMML NIL=
201008222345 METAR LMML 222345Z 29004KT 9999 FEW012 24/23 Q1014 NOSIG=
201008222330 METAR LMML NIL=
201008222315 METAR LMML 222315Z VRB03KT 9999 FEW012 25/23 Q1014 NOSIG=
201008222245 METAR LMML 222245Z VRB03KT 9999 FEW012 25/23 Q1014 NOSIG=
201008222230 METAR LMML NIL=
201008222215 METAR LMML 222215Z 32004KT 9999 FEW012 25/23 Q1014 NOSIG=
201008222145 METAR LMML 222145Z VRB03KT 9999 FEW012 25/23 Q1014 NOSIG=
201008222130 METAR LMML NIL=
201008222115 METAR LMML 222115Z 32005KT 280V020 9999 FEW012 25/23 Q1015
                        NOSIG=
201008222100 METAR LMML NIL=
201008222045 METAR LMML 222045Z 34005KT 9999 FEW012 25/23 Q1015 NOSIG=
201008222030 METAR LMML NIL=
201008222015 METAR LMML 222015Z 33006KT 9999 FEW012 25/23 Q1015 NOSIG=
201008222000 METAR LMML NIL=
201008221945 METAR LMML 221945Z 33006KT 9999 FEW012 25/22 Q1015 NOSIG=
201008221930 METAR LMML NIL=
201008221915 METAR LMML 221915Z 33007KT 9999 SCT012 26/23 Q1015 NOSIG=
201008221845 METAR LMML 221845Z 34007KT 320V020 9999 SCT013 26/22 Q1014
                        NOSIG=
201008221830 METAR LMML NIL=
201008221815 METAR LMML 221815Z 34009KT 9999 FEW015 26/22 Q1014 NOSIG=
201008221800 METAR LMML NIL=
201008221745 METAR LMML 221745Z 34008KT 9999 FEW015 26/22 Q1014 NOSIG=
201008221730 METAR LMML NIL=
201008221715 METAR LMML 221715Z 33010KT 9999 FEW015 27/22 Q1014 NOSIG=
201008221700 METAR LMML NIL=
201008221645 METAR LMML 221645Z 35009KT 9999 FEW020 28/22 Q1014 NOSIG=
201008221630 METAR LMML NIL=
201008221615 METAR LMML 221615Z 36007KT 9999 FEW020 29/21 Q1014 NOSIG=
201008221600 METAR LMML NIL=
201008221545 METAR LMML 221545Z 36007KT 330V030 9999 FEW020 31/22 Q1014
                        NOSIG=
201008221530 METAR LMML NIL=
201008221515 METAR LMML 221515Z 35008KT 310V020 9999 FEW020 30/23 Q1014
                        NOSIG=
201008221500 METAR LMML NIL=
201008221445 METAR LMML 221445Z 36009KT 320V030 9999 FEW021 31/23 Q1014
                        NOSIG=
201008221430 METAR LMML NIL=
201008221415 METAR LMML 221415Z 35008KT 320V030 9999 FEW021 31/23 Q1014
                        NOSIG=
201008221400 METAR LMML NIL=
201008221345 METAR LMML 221345Z 36009KT 330V030 9999 FEW023 31/22 Q1014
                        NOSIG=
201008221330 METAR LMML NIL=
201008221315 METAR LMML 221315Z 36007KT 320V040 9999 FEW020 31/21 Q1014
                        NOSIG=
201008221300 METAR LMML NIL=
201008221245 METAR LMML 221245Z 36010KT 330V040 9999 FEW020 31/20 Q1015
                        NOSIG=
201008221230 METAR LMML NIL=
201008221215 METAR LMML 221215Z 36008KT 320V030 9999 FEW020 32/20 Q1015
                        NOSIG=
201008221200 METAR LMML NIL=
201008221145 METAR LMML 221145Z 35007KT 310V040 9999 FEW018 32/20 Q1015
                        NOSIG=
201008221130 METAR LMML NIL=
201008221115 METAR LMML 221115Z 01006KT 330V040 9999 FEW018 32/21 Q1015
                        NOSIG=
201008221100 METAR LMML NIL=
201008221045 METAR LMML 221045Z 03006KT 300V080 9999 FEW018 32/21 Q1015
                        NOSIG=
201008221030 METAR LMML NIL=
201008221015 METAR LMML 221015Z 03007KT 340V080 CAVOK 31/19 Q1015 NOSIG=
201008220945 METAR LMML 220945Z 36007KT 320V060 9999 FEW015 31/21 Q1015
                        NOSIG=
201008220930 METAR LMML NIL=
201008220915 METAR LMML 220915Z 02007KT 340V040 9999 FEW015 31/20 Q1015
                        NOSIG=
201008220845 METAR LMML 220845Z 34008KT 310V020 9999 FEW015 29/20 Q1015
                        NOSIG=
201008220830 METAR LMML NIL=
201008220815 METAR LMML 220815Z 33009KT 300V360 9999 FEW015 30/24 Q1015
                        NOSIG=
201008220800 METAR LMML NIL=
201008220745 METAR LMML 220745Z 33009KT 300V010 9999 FEW015 29/24 Q1015
                        NOSIG=
201008220730 METAR LMML NIL=
201008220715 METAR LMML 220715Z 32010KT 9999 FEW015 28/23 Q1015 NOSIG=
201008220700 METAR LMML NIL=
201008220645 METAR LMML 220645Z 30011KT 9999 FEW015 27/23 Q1015 NOSIG=
201008220630 METAR LMML NIL=
201008220615 METAR LMML 220615Z 30008KT 9999 FEW012 27/23 Q1015 NOSIG=
201008220600 METAR LMML NIL=
201008220545 METAR LMML 220545Z 28007KT 9999 FEW012 26/23 Q1015 NOSIG=
201008220530 METAR LMML NIL=
201008220515 METAR LMML 220515Z 30006KT 9999 FEW012 25/23 Q1015 NOSIG=
201008220500 METAR LMML NIL=
201008220445 METAR LMML 220445Z 30007KT 9999 FEW012 25/23 Q1015 NOSIG=
201008220430 METAR LMML NIL=
201008220415 METAR LMML 220415Z 31008KT 9999 FEW009 25/23 Q1015 NOSIG=
201008220400 METAR LMML NIL=
201008220345 METAR LMML 220345Z 32008KT 9999 FEW009 25/23 Q1015 NOSIG=
201008220330 METAR LMML NIL=
201008220315 METAR LMML 220315Z 30007KT 9999 FEW009 25/23 Q1015 NOSIG=
201008220300 METAR LMML NIL=
201008220245 METAR LMML 220245Z 29005KT 260V330 9999 FEW009 25/23 Q1015
                        NOSIG=
201008220230 METAR LMML NIL=
201008220215 METAR LMML 220215Z 29006KT 250V320 9999 FEW009 25/23 Q1015
                        TEMPO BKN009=
201008220200 METAR LMML NIL=
201008220145 METAR LMML 220145Z 30008KT 9999 SCT009 25/23 Q1016 NOSIG=
201008220130 METAR LMML NIL=
201008220115 METAR LMML 220115Z 30009KT 9999 BKN009 26/23 Q1016 NOSIG=
201008220100 METAR LMML NIL=
201008220045 METAR LMML 220045Z 31010KT 9999 BKN010 26/24 Q1016 TEMPO
                        BKN010=
201008220030 METAR LMML NIL=
201008220015 METAR LMML 220015Z 31007KT 9999 FEW010 26/24 Q1017 TEMPO
                        BKN010=
201008212345 METAR LMML 212345Z 27005KT 230V290 CAVOK 26/23 Q1017 BECMG
                        9999 SCT008=
201008212330 METAR LMML NIL=
201008212315 METAR LMML 212315Z 29009KT CAVOK 27/23 Q1017 BECMG 9999 SCT008=
201008212300 METAR LMML NIL=
201008212245 METAR LMML 212245Z 28010KT CAVOK 27/24 Q1017 BECMG 9999 SCT008=
201008212230 METAR LMML NIL=
201008212215 METAR LMML 212215Z 27008KT 240V300 CAVOK 27/24 Q1018 BECMG
                        9999 SCT008=
201008212200 METAR LMML NIL=
201008212145 METAR LMML 212145Z 26007KT 230V290 CAVOK 27/24 Q1018 BECMG
                        9999 SCT008=
201008212130 METAR LMML NIL=
201008212115 METAR LMML 212115Z 26006KT 230V290 CAVOK 27/24 Q1018 NOSIG=
201008212045 METAR LMML 212045Z 27004KT 210V330 CAVOK 27/24 Q1018 NOSIG=
201008212030 METAR LMML NIL=
201008212015 METAR LMML 212015Z 23005KT 200V260 CAVOK 27/24 Q1018 NOSIG=
201008212000 METAR LMML NIL=
201008211945 METAR LMML 211945Z 25005KT 200V290 CAVOK 28/23 Q1018 NOSIG=
201008211915 METAR LMML 211915Z 24006KT 210V280 CAVOK 28/22 Q1018 NOSIG=
201008211900 METAR LMML NIL=
201008211845 METAR LMML 211845Z 26006KT CAVOK 29/19 Q1018 NOSIG=
201008211830 METAR LMML NIL=
201008211815 METAR LMML 211815Z 28006KT 240V300 CAVOK 29/17 Q1018 NOSIG=
201008211800 METAR LMML NIL=
201008211745 METAR LMML 211745Z 28006KT 230V320 CAVOK 31/17 Q1018 NOSIG=
201008211730 METAR LMML NIL=
201008211715 METAR LMML 211715Z 27005KT 230V300 CAVOK 30/19 Q1018 NOSIG=
201008211645 METAR LMML 211645Z 27005KT 230V300 CAVOK 32/19 Q1018 NOSIG=
201008211615 METAR LMML 211615Z 25005KT 190V300 CAVOK 33/13 Q1018 NOSIG=
201008211545 METAR LMML 211545Z 29004KT 210V360 CAVOK 34/18 Q1018 NOSIG=
201008211530 METAR LMML NIL=
201008211515 METAR LMML 211515Z 26004KT 200V320 CAVOK 34/18 Q1018 NOSIG=
201008211500 METAR LMML NIL=
201008211445 METAR LMML 211445Z 27004KT 200V300 CAVOK 34/16 Q1018 NOSIG=
201008211430 METAR LMML NIL=
201008211415 METAR LMML 211415Z 29006KT 200V020 CAVOK 35/17 Q1019 NOSIG=
201008211400 METAR LMML NIL=
201008211345 METAR LMML 211345Z VRB03KT CAVOK 36/19 Q1019 NOSIG=
201008211330 METAR LMML NIL=
201008211315 METAR LMML 211315Z 09004KT 020V170 CAVOK 34/21 Q1019 NOSIG=
201008211300 METAR LMML NIL=
201008211245 METAR LMML 211245Z 11005KT 050V170 CAVOK 34/21 Q1019 NOSIG=
201008211230 METAR LMML NIL=
201008211215 METAR LMML 211215Z 28004KT 190V340 CAVOK 35/15 Q1020 NOSIG=
201008211200 METAR LMML NIL=
201008211145 METAR LMML 211145Z 30006KT 270V340 CAVOK 35/14 Q1020 NOSIG=
201008211115 METAR LMML 211115Z 33004KT 250V060 CAVOK 35/16 Q1020 NOSIG=
201008211045 METAR LMML 211045Z 06005KT 010V100 CAVOK 34/22 Q1020 NOSIG=
201008211030 METAR LMML NIL=
201008211015 METAR LMML 211015Z 05005KT 020V100 CAVOK 34/20 Q1021 NOSIG=
201008211000 METAR LMML NIL=
201008210945 METAR LMML 210945Z 05004KT 010V100 CAVOK 34/20 Q1021 NOSIG=
201008210930 METAR LMML NIL=
201008210915 METAR LMML 210915Z VRB03KT CAVOK 33/21 Q1021 NOSIG=
201008210900 METAR LMML NIL=
201008210845 METAR LMML 210845Z VRB02KT CAVOK 32/20 Q1021 NOSIG=
201008210830 METAR LMML NIL=
201008210815 METAR LMML 210815Z VRB02KT CAVOK 31/20 Q1021 NOSIG=
201008210800 METAR LMML NIL=
201008210745 METAR LMML 210745Z VRB03KT CAVOK 30/22 Q1021 NOSIG=
201008210730 METAR LMML NIL=
201008210715 METAR LMML 210715Z VRB03KT 9999 FEW015 28/22 Q1021 NOSIG=
201008210700 METAR LMML NIL=
201008210645 METAR LMML 210645Z VRB03KT 9999 FEW015 28/24 Q1021 NOSIG=
201008210630 METAR LMML NIL=
201008210615 METAR LMML 210615Z VRB03KT CAVOK 27/24 Q1020 NOSIG=
201008210600 METAR LMML NIL=
201008210545 METAR LMML 210545Z VRB03KT CAVOK 26/24 Q1020 NOSIG=
201008210530 METAR LMML NIL=
201008210515 METAR LMML 210515Z VRB03KT CAVOK 26/23 Q1020 NOSIG=
201008210500 METAR LMML NIL=
201008210445 METAR LMML 210445Z 29004KT CAVOK 25/22 Q1020 NOSIG=
201008210430 METAR LMML NIL=
201008210415 METAR LMML 210415Z 27004KT CAVOK 26/22 Q1019 NOSIG=
201008210400 METAR LMML NIL=
201008210345 METAR LMML 210345Z VRB03KT CAVOK 26/21 Q1019 NOSIG=
201008210330 METAR LMML NIL=
201008210315 METAR LMML 210315Z VRB03KT CAVOK 25/18 Q1019 NOSIG=
201008210300 METAR LMML NIL=
201008210245 METAR LMML 210245Z VRB02KT CAVOK 25/17 Q1019 NOSIG=
201008210230 METAR LMML NIL=
201008210215 METAR LMML 210215Z 00000KT CAVOK 26/15 Q1019 NOSIG=
201008210200 METAR LMML NIL=
201008210145 METAR LMML 210145Z VRB02KT CAVOK 25/15 Q1019 SMOKE LYR TO
                        EAST OF AIRFIELD=
201008210130 METAR LMML NIL=
201008210115 METAR LMML 210115Z VRB02KT CAVOK 25/16 Q1019 NOSIG=
201008210100 METAR LMML NIL=
201008210045 METAR LMML 210045Z VRB02KT CAVOK 26/16 Q1020 NOSIG=
201008210030 METAR LMML NIL=
201008210015 METAR LMML 210015Z VRB03KT CAVOK 26/16 Q1019 NOSIG=
201008210000 METAR LMML NIL=
201008202345 METAR LMML 202345Z VRB01KT CAVOK 26/13 Q1020 NOSIG=
201008202330 METAR LMML NIL=
201008202315 METAR LMML 202315Z 23004KT CAVOK 26/12 Q1020 NOSIG=
201008202300 METAR LMML NIL=
201008202245 METAR LMML 202245Z VRB03KT CAVOK 26/11 Q1020 NOSIG=
201008202230 METAR LMML NIL=
201008202215 METAR LMML 202215Z 00000KT CAVOK 27/11 Q1020 NOSIG=
201008202200 METAR LMML NIL=
201008202145 METAR LMML 202145Z VRB01KT CAVOK 27/12 Q1020 NOSIG=
201008202130 METAR LMML NIL=
201008202115 METAR LMML 202115Z VRB02KT CAVOK 28/13 Q1021 NOSIG=
201008202100 METAR LMML NIL=
201008202045 METAR LMML 202045Z VRB02KT CAVOK 29/13 Q1021 NOSIG=
201008202030 METAR LMML NIL=
201008202015 METAR LMML 202015Z VRB02KT CAVOK 28/09 Q1021 NOSIG=
201008202000 METAR LMML NIL=
201008201945 METAR LMML 201945Z VRB01KT CAVOK 29/08 Q1020 NOSIG=
201008201930 METAR LMML NIL=
201008201915 METAR LMML 201915Z VRB02KT CAVOK 30/08 Q1020 NOSIG=
201008201900 METAR LMML NIL=
201008201845 METAR LMML 201845Z VRB01KT CAVOK 29/08 Q1020 NOSIG=
201008201830 METAR LMML NIL=
201008201815 METAR LMML 201815Z 33004KT 300V010 CAVOK 30/09 Q1019 NOSIG=
201008201800 METAR LMML NIL=
201008201745 METAR LMML 201745Z 32004KT CAVOK 31/11 Q1019 NOSIG=
201008201715 METAR LMML 201715Z VRB01KT CAVOK 32/16 Q1019 NOSIG=
201008201700 METAR LMML NIL=
201008201645 METAR LMML 201645Z VRB02KT CAVOK 33/15 Q1019 NOSIG=
201008201630 METAR LMML NIL=
201008201615 METAR LMML 201615Z 04004KT 010V070 CAVOK 34/13 Q1019 NOSIG=
201008201600 METAR LMML NIL=
201008201545 METAR LMML 201545Z VRB03KT CAVOK 34/14 Q1019 NOSIG=
201008201515 METAR LMML 201515Z 02005KT 360V100 CAVOK 34/15 Q1019 NOSIG=
201008201445 METAR LMML 201445Z 19004KT 020V280 CAVOK 34/14 Q1019 NOSIG=
201008201430 METAR LMML NIL=
201008201415 METAR LMML 201415Z VRB03KT CAVOK 35/16 Q1019 NOSIG=
201008201400 METAR LMML NIL=
201008201345 METAR LMML 201345Z VRB03KT CAVOK 35/10 Q1019 NOSIG=
201008201330 METAR LMML NIL=
201008201315 METAR LMML 201315Z 02004KT 330V080 CAVOK 35/12 Q1020 NOSIG=
201008201300 METAR LMML NIL=
201008201245 METAR LMML 201245Z 03005KT 340V080 CAVOK 35/15 Q1020 NOSIG=
201008201230 METAR LMML NIL=
201008201215 METAR LMML 201215Z 02004KT 320V150 CAVOK 34/15 Q1020 NOSIG=
201008201200 METAR LMML NIL=
201008201145 METAR LMML 201145Z 02005KT 340V080 CAVOK 34/16 Q1020 NOSIG=
201008201130 METAR LMML NIL=
201008201115 METAR LMML 201115Z 03005KT 320V080 CAVOK 34/15 Q1020 NOSIG=
201008201100 METAR LMML NIL=
201008201045 METAR LMML 201045Z 04005KT 010V100 CAVOK 33/16 Q1020 NOSIG=
201008201015 METAR LMML 201015Z 03005KT 350V080 CAVOK 34/18 Q1020 NOSIG=
201008201000 METAR LMML NIL=
201008200945 METAR LMML 200945Z 03006KT 360V080 CAVOK 33/18 Q1020 NOSIG=
201008200930 METAR LMML NIL=
201008200915 METAR LMML 200915Z 02004KT 330V060 CAVOK 33/16 Q1020 NOSIG=
201008200900 METAR LMML NIL=
201008200845 METAR LMML 200845Z VRB03KT CAVOK 32/14 Q1020 NOSIG=
201008200830 METAR LMML NIL=
201008200815 METAR LMML 200815Z VRB02KT CAVOK 32/16 Q1019 NOSIG=
201008200745 METAR LMML 200745Z VRB02KT CAVOK 31/14 Q1019 NOSIG=
201008200730 METAR LMML NIL=
201008200715 METAR LMML 200715Z VRB03KT CAVOK 31/18 Q1019 NOSIG=
201008200645 METAR LMML 200645Z VRB03KT CAVOK 28/19 Q1019 NOSIG=
201008200630 METAR LMML NIL=
201008200615 METAR LMML 200615Z VRB01KT CAVOK 26/20 Q1019 NOSIG RMK SMOKE
                        LAYER TO NW=
201008200600 METAR LMML NIL=
201008200545 METAR LMML 200545Z VRB01KT CAVOK 24/22 Q1018 NOSIG=
201008200530 METAR LMML NIL=
201008200515 METAR LMML 200515Z VRB02KT CAVOK 24/23 Q1018 BECMG 9000 NSC=
201008200500 METAR LMML NIL=
201008200445 METAR LMML 200445Z VRB01KT 6000 NSC 23/22 Q1018 BECMG 8000
                        NSC=
201008200430 METAR LMML NIL=
201008200415 METAR LMML 200415Z VRB01KT 4000 MIFG NSC 23/22 Q1018 BECMG
                        7000=
201008200400 METAR LMML NIL=
201008200345 METAR LMML 200345Z 00000KT CAVOK 23/22 Q1018 NOSIG=
201008200330 METAR LMML NIL=
201008200315 METAR LMML 200315Z VRB01KT CAVOK 23/22 Q1017 NOSIG=
201008200300 METAR LMML NIL=
201008200245 METAR LMML 200245Z VRB01KT CAVOK 23/22 Q1017 NOSIG=
201008200230 METAR LMML NIL=
201008200215 METAR LMML 200215Z VRB01KT CAVOK 24/22 Q1017 NOSIG=
201008200200 METAR LMML NIL=
201008200145 METAR LMML 200145Z VRB02KT CAVOK 25/23 Q1017 NOSIG=
201008200130 METAR LMML NIL=
201008200115 METAR LMML 200115Z VRB02KT CAVOK 25/23 Q1018 NOSIG=
201008200100 METAR LMML NIL=
201008200045 METAR LMML 200045Z VRB01KT CAVOK 25/23 Q1018 NOSIG=
201008200030 METAR LMML NIL=
201008200015 METAR LMML 200015Z VRB02KT CAVOK 25/23 Q1018 NOSIG=
201008200000 METAR LMML NIL=
201008192345 METAR LMML 192345Z VRB01KT CAVOK 25/22 Q1018 NOSIG=
201008192330 METAR LMML NIL=
201008192315 METAR LMML 192315Z VRB02KT CAVOK 25/23 Q1018 NOSIG=
201008192245 METAR LMML 192245Z VRB02KT CAVOK 25/23 Q1018 NOSIG=
201008192230 METAR LMML NIL=
201008192215 METAR LMML 192215Z VRB02KT CAVOK 25/23 Q1018 NOSIG=
201008192200 METAR LMML NIL=
201008192145 METAR LMML 192145Z VRB03KT CAVOK 26/23 Q1017 NOSIG=
201008192130 METAR LMML NIL=
201008192115 METAR LMML 192115Z VRB02KT CAVOK 26/22 Q1017 NOSIG=
201008192100 METAR LMML NIL=
201008192045 METAR LMML 192045Z VRB02KT CAVOK 26/22 Q1017 NOSIG=
201008192030 METAR LMML NIL=
201008192015 METAR LMML 192015Z VRB03KT CAVOK 27/21 Q1017 NOSIG=
201008192000 METAR LMML NIL=
201008191945 METAR LMML 191945Z VRB03KT CAVOK 27/21 Q1017 NOSIG=
201008191930 METAR LMML NIL=
201008191915 METAR LMML 191915Z VRB03KT CAVOK 27/21 Q1017 NOSIG=
201008191900 METAR LMML NIL=
201008191845 METAR LMML 191845Z VRB03KT CAVOK 27/21 Q1017 NOSIG=
201008191830 METAR LMML NIL=
201008191815 METAR LMML 191815Z VRB03KT CAVOK 27/20 Q1017 NOSIG=
201008191800 METAR LMML NIL=
201008191745 METAR LMML 191745Z 08004KT CAVOK 28/20 Q1017 NOSIG=
201008191730 METAR LMML NIL=
201008191715 METAR LMML 191715Z VRB02KT CAVOK 29/17 Q1017 NOSIG=
201008191700 METAR LMML NIL=
201008191645 METAR LMML 191645Z VRB02KT CAVOK 31/16 Q1016 NOSIG=
201008191630 METAR LMML NIL=
201008191615 METAR LMML 191615Z 08005KT 040V140 CAVOK 30/14 Q1016 NOSIG=
201008191600 METAR LMML NIL=
201008191545 METAR LMML 191545Z 08006KT 020V120 CAVOK 29/14 Q1016 NOSIG=
201008191530 METAR LMML NIL=
201008191515 METAR LMML 191515Z 08006KT 040V120 CAVOK 31/18 Q1016 NOSIG=
201008191500 METAR LMML NIL=
201008191445 METAR LMML 191445Z 08006KT 030V140 CAVOK 31/16 Q1016 NOSIG=
201008191430 METAR LMML NIL=
201008191415 METAR LMML 191415Z 04006KT 010V080 CAVOK 32/14 Q1016 NOSIG=
201008191400 METAR LMML NIL=
201008191345 METAR LMML 191345Z 07007KT 030V110 CAVOK 32/16 Q1016 NOSIG=
201008191315 METAR LMML 191315Z 05006KT 010V100 CAVOK 32/18 Q1016 NOSIG=
201008191300 METAR LMML NIL=
201008191245 METAR LMML 191245Z 04007KT 010V090 CAVOK 32/16 Q1016 NOSIG=
201008191230 METAR LMML NIL=
201008191215 METAR LMML 191215Z 04007KT 340V120 CAVOK 32/18 Q1016 NOSIG=
201008191145 METAR LMML 191145Z 04008KT 010V080 CAVOK 32/17 Q1016 NOSIG=
201008191130 METAR LMML NIL=
201008191115 METAR LMML 191115Z 04007KT 340V080 CAVOK 33/14 Q1016 NOSIG=
201008191100 METAR LMML NIL=
201008191045 METAR LMML 191045Z 06009KT 020V100 CAVOK 32/15 Q1016 NOSIG=
201008191030 METAR LMML NIL=
201008191015 METAR LMML 191015Z 05009KT 020V090 9999 FEW014 31/15 Q1016
                        NOSIG=
201008191000 METAR LMML NIL=
201008190945 METAR LMML 190945Z 04008KT 360V070 9999 FEW014 29/22 Q1016
                        NOSIG=
201008190930 METAR LMML NIL=
201008190915 METAR LMML 190915Z 04008KT 340V080 9999 FEW014 29/22 Q1016
                        NOSIG=
201008190900 METAR LMML NIL=
201008190845 METAR LMML 190845Z 04006KT 360V080 9999 FEW018 31/23 Q1016
                        NOSIG=
201008190830 METAR LMML NIL=
201008190815 METAR LMML 190815Z 02005KT 350V070 9999 FEW018 30/22 Q1016
                        NOSIG=
201008190745 METAR LMML 190745Z 02006KT 340V070 9999 FEW018 30/22 Q1015
                        NOSIG=
201008190730 METAR LMML NIL=
201008190715 METAR LMML 190715Z 36006KT 340V060 9999 FEW016 28/22 Q1015
                        NOSIG=
201008190700 METAR LMML NIL=
201008190645 METAR LMML 190645Z 36006KT 330V030 9999 FEW016 28/23 Q1015
                        NOSIG=
201008190630 METAR LMML NIL=
201008190615 METAR LMML 190615Z VRB03KT CAVOK 28/21 Q1015 NOSIG=
201008190600 METAR LMML NIL=
201008190545 METAR LMML 190545Z 34004KT CAVOK 27/21 Q1014 NOSIG=
201008190530 METAR LMML NIL=
201008190515 METAR LMML 190515Z VRB03KT CAVOK 26/22 Q1014 NOSIG=
201008190500 METAR LMML NIL=
201008190445 METAR LMML 190445Z 32004KT CAVOK 25/22 Q1014 NOSIG=
201008190430 METAR LMML NIL=
201008190415 METAR LMML 190415Z 31004KT 280V340 CAVOK 25/20 Q1013 NOSIG=
201008190400 METAR LMML NIL=
201008190345 METAR LMML 190345Z VRB02KT CAVOK 26/16 Q1013 NOSIG=
201008190330 METAR LMML NIL=
201008190315 METAR LMML 190315Z VRB02KT CAVOK 25/14 Q1013 NOSIG=
201008190300 METAR LMML NIL=
201008190245 METAR LMML 190245Z VRB02KT CAVOK 25/18 Q1013 NOSIG=
201008190215 METAR LMML 190215Z VRB03KT CAVOK 25/18 Q1013 NOSIG=
201008190200 METAR LMML NIL=
201008190145 METAR LMML 190145Z VRB02KT CAVOK 25/19 Q1013 NOSIG=
201008190130 METAR LMML NIL=
201008190115 METAR LMML 190115Z VRB03KT CAVOK 25/22 Q1013 NOSIG=
201008190100 METAR LMML NIL=
201008190045 METAR LMML 190045Z 25004KT CAVOK 25/23 Q1013 NOSIG=
201008190030 METAR LMML NIL=
201008190015 METAR LMML 190015Z VRB03KT CAVOK 25/23 Q1013 NOSIG=
201008190000 METAR LMML NIL=
201008182345 METAR LMML 182345Z VRB02KT CAVOK 25/23 Q1013 NOSIG=
201008182315 METAR LMML 182315Z VRB02KT CAVOK 25/23 Q1014 NOSIG=
201008182300 METAR LMML NIL=
201008182245 METAR LMML 182245Z VRB03KT CAVOK 26/23 Q1014 NOSIG=
201008182230 METAR LMML NIL=
201008182215 METAR LMML 182215Z VRB02KT CAVOK 26/24 Q1014 NOSIG=
201008182200 METAR LMML NIL=
201008182145 METAR LMML 182145Z VRB03KT CAVOK 26/24 Q1014 NOSIG=
201008182130 METAR LMML NIL=
201008182115 METAR LMML 182115Z VRB03KT CAVOK 26/24 Q1014 NOSIG=
201008182100 METAR LMML NIL=
201008182045 METAR LMML 182045Z VRB03KT CAVOK 26/24 Q1014 NOSIG=
201008182030 METAR LMML NIL=
201008182015 METAR LMML 182015Z VRB03KT CAVOK 26/23 Q1014 NOSIG=
201008182000 METAR LMML NIL=
201008181945 METAR LMML 181945Z VRB01KT CAVOK 27/23 Q1014 NOSIG=
201008181930 METAR LMML NIL=
201008181915 METAR LMML 181915Z VRB03KT CAVOK 28/23 Q1014 NOSIG=
201008181900 METAR LMML NIL=
201008181845 METAR LMML 181845Z VRB02KT CAVOK 27/22 Q1013 NOSIG=
201008181830 METAR LMML NIL=
201008181815 METAR LMML 181815Z VRB03KT CAVOK 27/22 Q1013 NOSIG=
201008181800 METAR LMML NIL=
201008181745 METAR LMML 181745Z 24005KT 200V280 CAVOK 28/23 Q1013 NOSIG=
201008181730 METAR LMML NIL=
201008181715 METAR LMML 181715Z 21004KT 170V250 CAVOK 28/24 Q1013 NOSIG=
201008181700 METAR LMML NIL=
201008181645 METAR LMML 181645Z 21005KT 170V260 CAVOK 28/23 Q1013 NOSIG=
201008181630 METAR LMML NIL=
201008181615 METAR LMML 181615Z 22005KT 170V260 CAVOK 29/23 Q1013 NOSIG=
201008181600 METAR LMML NIL=
201008181545 METAR LMML 181545Z 19006KT 150V230 CAVOK 28/23 Q1013 NOSIG=
201008181530 METAR LMML NIL=
201008181515 METAR LMML 181515Z 19006KT 160V240 CAVOK 29/23 Q1013 NOSIG=
201008181500 METAR LMML NIL=
201008181445 METAR LMML 181445Z 18006KT 140V230 9999 FEW020 29/23 Q1013
                        NOSIG=
201008181415 METAR LMML 181415Z 18005KT 150V230 9999 FEW020 29/22 Q1014
                        NOSIG=
201008181345 METAR LMML 181345Z 17007KT 140V200 9999 FEW020 29/22 Q1014
                        NOSIG=
201008181330 METAR LMML NIL=
201008181315 METAR LMML 181315Z 18005KT 120V240 9999 FEW020 31/23 Q1014
                        NOSIG=
201008181300 METAR LMML NIL=
201008181245 METAR LMML 181245Z 15006KT 120V200 9999 FEW020 30/22 Q1014
                        NOSIG=
201008181230 METAR LMML NIL=
201008181215 METAR LMML 181215Z 13008KT 090V180 9999 FEW020 29/24 Q1014
                        NOSIG=
201008181200 METAR LMML NIL=
201008181145 METAR LMML 181145Z 11007KT 060V220 9999 FEW020 31/23 Q1014
                        NOSIG=
201008181130 METAR LMML NIL=
201008181115 METAR LMML 181115Z 13007KT 060V170 9999 FEW020 31/23 Q1014
                        NOSIG=
201008181100 METAR LMML NIL=
201008181045 METAR LMML 181045Z 12008KT 070V170 9999 FEW015 29/22 Q1014
                        NOSIG=
201008181030 METAR LMML NIL=
201008181015 METAR LMML 181015Z 10008KT 010V140 9999 FEW012 30/23 Q1014
                        NOSIG=
201008180945 METAR LMML 180945Z 09006KT 020V140 9999 FEW012 29/22 Q1015
                        NOSIG=
201008180930 METAR LMML NIL=
201008180915 METAR LMML 180915Z 07005KT 020V110 9999 FEW000 30/22 Q1015
                        NOSIG=
201008180900 METAR LMML NIL=
201008180845 METAR LMML 180845Z 08005KT 020V160 9999 FEW012 29/23 Q1014
                        NOSIG=
201008180830 METAR LMML NIL=
201008180815 METAR LMML 180815Z 09006KT 040V120 9999 FEW012 28/22 Q1014
                        NOSIG=
201008180800 METAR LMML NIL=
201008180745 METAR LMML 180745Z 06005KT 360V110 9999 FEW018 29/23 Q1014
                        NOSIG=
201008180730 METAR LMML NIL=
201008180715 METAR LMML 180715Z 03004KT 360V060 9999 FEW016 28/23 Q1014
                        NOSIG=
201008180645 METAR LMML 180645Z 03005KT 350V060 9999 SCT015 28/23 Q1014
                        NOSIG=
201008180630 METAR LMML NIL=
201008180615 METAR LMML 180615Z VRB03KT 9999 FEW015 27/22 Q1014 NOSIG=
201008180600 METAR LMML NIL=
201008180545 METAR LMML 180545Z VRB02KT 9999 FEW015 25/21 Q1014 NOSIG=
201008180530 METAR LMML NIL=
201008180515 METAR LMML 180515Z VRB01KT 9999 FEW015 24/20 Q1014 NOSIG=
201008180500 METAR LMML NIL=
201008180445 METAR LMML 180445Z VRB01KT CAVOK 24/20 Q1014 NOSIG=
201008180415 METAR LMML 180415Z VRB03KT CAVOK 24/20 Q1013 NOSIG=
201008180400 METAR LMML NIL=
201008180345 METAR LMML 180345Z VRB01KT CAVOK 24/20 Q1013 NOSIG=
201008180330 METAR LMML NIL=
201008180315 METAR LMML 180315Z VRB02KT CAVOK 24/20 Q1013 NOSIG=
201008180245 METAR LMML 180245Z VRB02KT CAVOK 25/20 Q1013 NOSIG=
201008180230 METAR LMML NIL=
201008180215 METAR LMML 180215Z VRB03KT CAVOK 25/19 Q1013 NOSIG=
201008180145 METAR LMML 180145Z VRB03KT CAVOK 25/17 Q1013 NOSIG=
201008180130 METAR LMML NIL=
201008180115 METAR LMML 180115Z VRB02KT CAVOK 25/17 Q1014 NOSIG=
201008180100 METAR LMML NIL=
201008180045 METAR LMML 180045Z VRB02KT CAVOK 25/19 Q1014 NOSIG=
201008180030 METAR LMML NIL=
201008180015 METAR LMML 180015Z VRB01KT CAVOK 25/20 Q1014 NOSIG=
201008180000 METAR LMML NIL=
201008172345 METAR LMML 172345Z VRB03KT CAVOK 25/21 Q1014 NOSIG=
201008172330 METAR LMML NIL=
201008172315 METAR LMML 172315Z VRB01KT CAVOK 25/22 Q1014 NOSIG=
201008172245 METAR LMML 172245Z VRB03KT CAVOK 25/23 Q1014 NOSIG=
201008172215 METAR LMML 172215Z VRB03KT CAVOK 25/23 Q1014 NOSIG=
201008172145 METAR LMML 172145Z 33005KT 310V020 CAVOK 26/24 Q1015 NOSIG=
201008172115 METAR LMML 172115Z 31004KT CAVOK 26/24 Q1015 NOSIG=
201008172100 METAR LMML NIL=
201008172045 METAR LMML 172045Z 34004KT CAVOK 26/23 Q1015 NOSIG=
201008172030 METAR LMML NIL=
201008172015 METAR LMML 172015Z 32004KT CAVOK 26/23 Q1015 NOSIG=
201008172000 METAR LMML NIL=
201008171945 METAR LMML 171945Z 31005KT CAVOK 27/23 Q1015 NOSIG=
201008171915 METAR LMML 171915Z 32005KT CAVOK 27/23 Q1015 NOSIG=
201008171845 METAR LMML 171845Z 28004KT CAVOK 27/23 Q1015 NOSIG=
201008171815 METAR LMML 171815Z 28005KT CAVOK 27/23 Q1014 NOSIG=
201008171800 METAR LMML NIL=
201008171745 METAR LMML 171745Z 25004KT 210V300 CAVOK 28/22 Q1014 NOSIG=
201008171730 METAR LMML NIL=
201008171715 METAR LMML 171715Z 23004KT 200V280 CAVOK 28/22 Q1014 NOSIG=
201008171700 METAR LMML NIL=
201008171645 METAR LMML 171645Z 23005KT 190V280 CAVOK 28/22 Q1014 NOSIG=
201008171630 METAR LMML NIL=
201008171615 METAR LMML 171615Z 22006KT 170V250 CAVOK 29/23 Q1014 NOSIG=
201008171600 METAR LMML NIL=
201008171545 METAR LMML 171545Z 22005KT 170V280 CAVOK 29/23 Q1015 NOSIG=
201008171530 METAR LMML NIL=
201008171515 METAR LMML 171515Z 20005KT 160V250 CAVOK 31/22 Q1015 NOSIG=
201008171500 METAR LMML NIL=
201008171445 METAR LMML 171445Z 23004KT 180V280 CAVOK 31/21 Q1015 NOSIG=
201008171430 METAR LMML NIL=
201008171415 METAR LMML 171415Z VRB02KT CAVOK 33/21 Q1015 NOSIG=
201008171400 METAR LMML NIL=
201008171345 METAR LMML 171345Z 02004KT 320V070 CAVOK 33/22 Q1015 NOSIG=
201008171330 METAR LMML NIL=
201008171315 METAR LMML 171315Z 06005KT 350V130 CAVOK 32/22 Q1015 NOSIG=
201008171300 METAR LMML NIL=
201008171245 METAR LMML 171245Z 07006KT 010V150 CAVOK 32/22 Q1016 NOSIG=
201008171230 METAR LMML NIL=
201008171215 METAR LMML 171215Z 03004KT 320V100 CAVOK 32/21 Q1016 NOSIG=
201008171200 METAR LMML NIL=
201008171145 METAR LMML 171145Z 06006KT 010V130 CAVOK 32/21 Q1016 NOSIG=
201008171130 METAR LMML NIL=
201008171115 METAR LMML 171115Z 07006KT 030V110 CAVOK 31/21 Q1016 NOSIG=
201008171100 METAR LMML NIL=
201008171045 METAR LMML 171045Z 06006KT 330V100 CAVOK 31/21 Q1017 NOSIG=
201008171030 METAR LMML NIL=
201008171015 METAR LMML 171015Z 04008KT 010V070 CAVOK 31/22 Q1017 NOSIG=
201008171000 METAR LMML NIL=
201008170945 METAR LMML 170945Z 06006KT 020V110 CAVOK 31/22 Q1017 NOSIG=
201008170930 METAR LMML NIL=
201008170915 METAR LMML 170915Z 06006KT 010V120 CAVOK 31/22 Q1017 NOSIG=
201008170900 METAR LMML NIL=
201008170845 METAR LMML 170845Z 05006KT 020V120 CAVOK 31/22 Q1017 NOSIG=
201008170830 METAR LMML NIL=
201008170815 METAR LMML 170815Z 06006KT 020V090 9999 FEW020 29/20 Q1017
                        NOSIG=
201008170800 METAR LMML NIL=
201008170745 METAR LMML 170745Z 06005KT 350V110 CAVOK 30/22 Q1017 NOSIG=
201008170730 METAR LMML NIL=
201008170715 METAR LMML 170715Z 07005KT 010V120 CAVOK 29/23 Q1016 NOSIG=
201008170700 METAR LMML NIL=
201008170645 METAR LMML 170645Z 04004KT 360V090 CAVOK 29/23 Q1016 NOSIG=
201008170630 METAR LMML NIL=
201008170615 METAR LMML 170615Z 04004KT 350V090 CAVOK 28/22 Q1016 NOSIG=
201008170600 METAR LMML NIL=
201008170545 METAR LMML 170545Z VRB03KT CAVOK 27/21 Q1015 NOSIG=
201008170530 METAR LMML NIL=
201008170515 METAR LMML 170515Z VRB03KT CAVOK 27/20 Q1016 NOSIG=
201008170500 METAR LMML NIL=
201008170445 METAR LMML 170445Z VRB01KT CAVOK 26/15 Q1016 NOSIG=
201008170430 METAR LMML NIL=
201008170415 METAR LMML 170415Z VRB01KT CAVOK 26/14 Q1015 NOSIG=
201008170400 METAR LMML NIL=
201008170345 METAR LMML 170345Z VRB03KT CAVOK 27/12 Q1015 NOSIG=
201008170330 METAR LMML NIL=
201008170315 METAR LMML 170315Z 28005KT CAVOK 26/14 Q1015 NOSIG=
201008170300 METAR LMML NIL=
201008170245 METAR LMML 170245Z 00000KT CAVOK 25/16 Q1014 NOSIG=
201008170230 METAR LMML NIL=
201008170215 METAR LMML 170215Z 00000KT CAVOK 26/16 Q1014 NOSIG=
201008170200 METAR LMML NIL=
201008170145 METAR LMML 170145Z VRB03KT CAVOK 27/16 Q1014 NOSIG=
201008170130 METAR LMML NIL=
201008170115 METAR LMML 170115Z VRB03KT CAVOK 27/15 Q1015 NOSIG=
201008170100 METAR LMML NIL=
201008170045 METAR LMML 170045Z 31004KT CAVOK 27/16 Q1015 NOSIG=
201008170030 METAR LMML NIL=
201008170015 METAR LMML 170015Z 30006KT CAVOK 27/17 Q1015 NOSIG=
201008170000 METAR LMML NIL=
201008162345 METAR LMML 162345Z 29005KT CAVOK 27/18 Q1016 NOSIG=
201008162330 METAR LMML NIL=
201008162315 METAR LMML 162315Z 28004KT CAVOK 27/18 Q1016 NOSIG=
201008162300 METAR LMML NIL=
201008162245 METAR LMML 162245Z VRB03KT CAVOK 26/19 Q1016 NOSIG=
201008162230 METAR LMML NIL=
201008162215 METAR LMML 162215Z VRB02KT CAVOK 26/20 Q1016 NOSIG=
201008162200 METAR LMML NIL=
201008162145 METAR LMML 162145Z VRB03KT CAVOK 27/19 Q1016 NOSIG=
201008162130 METAR LMML NIL=
201008162115 METAR LMML 162115Z VRB03KT CAVOK 27/19 Q1016 NOSIG=
201008162100 METAR LMML NIL=
201008162045 METAR LMML 162045Z VRB02KT CAVOK 27/20 Q1016 NOSIG=
201008162030 METAR LMML NIL=
201008162015 METAR LMML 162015Z VRB03KT CAVOK 27/20 Q1017 NOSIG=
201008162000 METAR LMML NIL=
201008161945 METAR LMML 161945Z 32006KT CAVOK 27/21 Q1016 NOSIG=
201008161930 METAR LMML NIL=
201008161915 METAR LMML 161915Z 32007KT 290V350 CAVOK 27/19 Q1016 NOSIG=
201008161900 METAR LMML NIL=
201008161845 METAR LMML 161845Z 34005KT CAVOK 28/20 Q1016 NOSIG=
201008161830 METAR LMML NIL=
201008161815 METAR LMML 161815Z 34004KT CAVOK 28/20 Q1015 NOSIG=
201008161800 METAR LMML NIL=
201008161745 METAR LMML 161745Z VRB03KT CAVOK 30/20 Q1015 NOSIG=
201008161730 METAR LMML NIL=
201008161715 METAR LMML 161715Z 28006KT 250V320 CAVOK 29/18 Q1015 NOSIG=
201008161700 METAR LMML NIL=
201008161645 METAR LMML 161645Z VRB02KT CAVOK 32/13 Q1014 NOSIG=
201008161630 METAR LMML NIL=
201008161615 METAR LMML 161615Z 23004KT 190V280 CAVOK 32/17 Q1015 NOSIG=
201008161545 METAR LMML 161545Z 22006KT 200V270 CAVOK 32/18 Q1015 NOSIG=
201008161530 METAR LMML NIL=
201008161515 METAR LMML 161515Z 22005KT 190V260 CAVOK 32/20 Q1015 NOSIG=
201008161500 METAR LMML NIL=
201008161445 METAR LMML 161445Z 26004KT 210V320 CAVOK 33/19 Q1015 NOSIG=
201008161430 METAR LMML NIL=
201008161415 METAR LMML 161415Z 27005KT 200V010 CAVOK 33/20 Q1015 NOSIG=
201008161400 METAR LMML NIL=
201008161345 METAR LMML 161345Z 22008KT 180V250 9999 FEW015 31/20 Q1015
                        NOSIG=
201008161330 METAR LMML NIL=
201008161315 METAR LMML 161315Z 21006KT 160V280 CAVOK 31/21 Q1015 NOSIG=
201008161245 METAR LMML 161245Z 21006KT 160V290 CAVOK 32/21 Q1015 NOSIG=
201008161215 METAR LMML 161215Z 23006KT 170V300 CAVOK 32/21 Q1016 NOSIG=
201008161200 METAR LMML NIL=
201008161145 METAR LMML 161145Z 21007KT 170V260 CAVOK 31/22 Q1016 NOSIG=
201008161130 METAR LMML NIL=
201008161115 METAR LMML 161115Z VRB03KT CAVOK 32/21 Q1016 NOSIG=
201008161100 METAR LMML NIL=
201008161045 METAR LMML 161045Z VRB03KT CAVOK 32/22 Q1016 NOSIG=
201008161030 METAR LMML NIL=
201008161015 METAR LMML 161015Z 21005KT 170V310 CAVOK 32/21 Q1016 NOSIG=
201008161000 METAR LMML NIL=
201008160945 METAR LMML 160945Z VRB02KT CAVOK 33/20 Q1016 NOSIG=
201008160930 METAR LMML NIL=
201008160915 METAR LMML 160915Z 21006KT 180V260 CAVOK 32/19 Q1016 NOSIG=
201008160900 METAR LMML NIL=
201008160845 METAR LMML 160845Z 21005KT 160V270 CAVOK 32/17 Q1016 NOSIG=
201008160830 METAR LMML NIL=
201008160815 METAR LMML 160815Z 22005KT 200V270 CAVOK 32/13 Q1016 NOSIG=
201008160800 METAR LMML NIL=
201008160745 METAR LMML 160745Z VRB03KT CAVOK 32/13 Q1016 NOSIG=
201008160730 METAR LMML NIL=
201008160715 METAR LMML 160715Z VRB01KT CAVOK 30/13 Q1016 NOSIG=
201008160645 METAR LMML 160645Z VRB03KT CAVOK 29/15 Q1016 NOSIG=
201008160630 METAR LMML NIL=
201008160615 METAR LMML 160615Z VRB02KT CAVOK 28/16 Q1016 NOSIG=
201008160600 METAR LMML NIL=
201008160545 METAR LMML 160545Z VRB02KT CAVOK 25/18 Q1016 NOSIG=
201008160530 METAR LMML NIL=
201008160515 METAR LMML 160515Z VRB01KT CAVOK 23/19 Q1016 NOSIG=
201008160500 METAR LMML NIL=
201008160445 METAR LMML 160445Z VRB02KT CAVOK 23/20 Q1015 NOSIG=
201008160430 METAR LMML NIL=
201008160415 METAR LMML 160415Z VRB02KT CAVOK 23/20 Q1015 TEMPO 7000 NSC=
201008160400 METAR LMML NIL=
201008160345 METAR LMML 160345Z VRB02KT CAVOK 23/20 Q1015 TEMPO 7000 NSC=
201008160330 METAR LMML NIL=
201008160315 METAR LMML 160315Z 00000KT CAVOK 23/20 Q1015 TEMPO 7000 NSC=
201008160300 METAR LMML NIL=
201008160245 METAR LMML 160245Z VRB02KT CAVOK 23/20 Q1015 TEMPO 7000=
201008160230 METAR LMML NIL=
201008160215 METAR LMML 160215Z VRB01KT CAVOK 23/20 Q1015 NOSIG=
201008160200 METAR LMML NIL=
201008160145 METAR LMML 160145Z VRB01KT CAVOK 23/20 Q1015 NOSIG=
201008160130 METAR LMML NIL=
201008160115 METAR LMML 160115Z VRB01KT CAVOK 24/20 Q1015 NOSIG=
201008160100 METAR LMML NIL=
201008160045 METAR LMML 160045Z 00000KT CAVOK 24/19 Q1015 NOSIG=
201008160030 METAR LMML NIL=
201008160015 METAR LMML 160015Z VRB01KT CAVOK 24/19 Q1016 NOSIG=
201008160000 METAR LMML NIL=
201008152345 METAR LMML 152345Z VRB01KT CAVOK 24/19 Q1016 NOSIG=
201008152315 METAR LMML 152315Z 00000KT CAVOK 24/19 Q1016 NOSIG=
201008152300 METAR LMML NIL=
201008152245 METAR LMML 152245Z VRB01KT CAVOK 24/19 Q1016 NOSIG=
201008152230 METAR LMML NIL=
201008152215 METAR LMML 152215Z VRB01KT CAVOK 25/19 Q1016 NOSIG=
201008152200 METAR LMML NIL=
201008152145 METAR LMML 152145Z VRB01KT CAVOK 25/20 Q1016 NOSIG=
201008152130 METAR LMML NIL=
201008152115 METAR LMML 152115Z VRB01KT CAVOK 26/20 Q1016 NOSIG=
201008152100 METAR LMML NIL=
201008152045 METAR LMML 152045Z VRB01KT CAVOK 26/20 Q1016 NOSIG=
201008152030 METAR LMML NIL=
201008152015 METAR LMML 152015Z VRB01KT CAVOK 26/21 Q1016 NOSIG=
201008152000 METAR LMML NIL=
201008151945 METAR LMML 151945Z VRB03KT CAVOK 27/21 Q1016 NOSIG=
201008151930 METAR LMML NIL=
201008151915 METAR LMML 151915Z 16007KT CAVOK 27/22 Q1015 NOSIG=
201008151900 METAR LMML NIL=
201008151845 METAR LMML 151845Z 16007KT CAVOK 27/21 Q1015 NOSIG=
201008151830 METAR LMML NIL=
201008151800 METAR LMML NIL=
201008151745 METAR LMML 151745Z 14008KT CAVOK 27/21 Q1015 NOSIG=
201008151730 METAR LMML NIL=
201008151715 METAR LMML 151715Z 13009KT CAVOK 28/20 Q1015 NOSIG=
201008151700 METAR LMML NIL=
201008151645 METAR LMML 151645Z 13008KT CAVOK 29/20 Q1015 NOSIG=
201008151630 METAR LMML NIL=
201008151615 METAR LMML 151615Z 13009KT CAVOK 30/22 Q1015 NOSIG=
201008151600 METAR LMML NIL=
201008151545 METAR LMML 151545Z 12008KT CAVOK 29/20 Q1015 NOSIG=
201008151530 METAR LMML NIL=
201008151515 METAR LMML 151515Z 12010KT CAVOK 30/20 Q1015 NOSIG=
201008151445 METAR LMML 151445Z 12009KT CAVOK 31/22 Q1015 NOSIG=
201008151430 METAR LMML NIL=
201008151415 METAR LMML 151415Z 12011KT 090V150 CAVOK 31/21 Q1015 NOSIG=
201008151400 METAR LMML NIL=
201008151345 METAR LMML 151345Z 13010KT 100V160 CAVOK 31/22 Q1015 NOSIG=
201008151330 METAR LMML NIL=
201008151315 METAR LMML 151315Z 13008KT 100V180 CAVOK 31/21 Q1016 NOSIG=
201008151300 METAR LMML NIL=
201008151245 METAR LMML 151245Z 14008KT 110V200 CAVOK 31/20 Q1016 NOSIG=
201008151230 METAR LMML NIL=
201008151215 METAR LMML 151215Z 12009KT 100V160 CAVOK 30/20 Q1016 NOSIG=
201008151200 METAR LMML NIL=
201008151145 METAR LMML 151145Z 12008KT 080V160 CAVOK 31/21 Q1016 NOSIG=
201008151130 METAR LMML NIL=
201008151115 METAR LMML 151115Z 17006KT 110V210 CAVOK 32/18 Q1016 NOSIG=
201008151100 METAR LMML NIL=
201008151045 METAR LMML 151045Z 17007KT 110V230 CAVOK 32/12 Q1017 NOSIG=
201008151030 METAR LMML NIL=
201008151015 METAR LMML 151015Z 18005KT 120V230 CAVOK 32/15 Q1017 NOSIG=
201008151000 METAR LMML NIL=
201008150945 METAR LMML 150945Z 20006KT 160V240 CAVOK 32/10 Q1017 NOSIG=
201008150930 METAR LMML NIL=
201008150915 METAR LMML 150915Z 19004KT 140V260 CAVOK 31/15 Q1017 NOSIG=
201008150900 METAR LMML NIL=
201008150845 METAR LMML 150845Z 21004KT 140V270 CAVOK 31/17 Q1017 NOSIG=
201008150830 METAR LMML NIL=
201008150815 METAR LMML 150815Z 19004KT 140V230 CAVOK 29/18 Q1016 NOSIG=
201008150800 METAR LMML NIL=
201008150745 METAR LMML 150745Z 16004KT 120V220 CAVOK 29/21 Q1016 NOSIG=
201008150730 METAR LMML NIL=
201008150715 METAR LMML 150715Z 17006KT 130V210 CAVOK 28/21 Q1016 NOSIG=
201008150700 METAR LMML NIL=
201008150645 METAR LMML 150645Z VRB03KT CAVOK 28/21 Q1016 NOSIG=
201008150630 METAR LMML NIL=
201008150615 METAR LMML 150615Z VRB02KT CAVOK 27/23 Q1015 NOSIG=
201008150600 METAR LMML NIL=
201008150545 METAR LMML 150545Z VRB03KT CAVOK 26/23 Q1015 NOSIG=
201008150530 METAR LMML NIL=
201008150515 METAR LMML 150515Z VRB03KT CAVOK 25/22 Q1015 NOSIG=
201008150500 METAR LMML NIL=
201008150445 METAR LMML 150445Z VRB02KT CAVOK 25/22 Q1015 NOSIG=
201008150430 METAR LMML NIL=
201008150415 METAR LMML 150415Z VRB03KT CAVOK 25/22 Q1015 NOSIG=
201008150400 METAR LMML NIL=
201008150345 METAR LMML 150345Z 18004KT 140V210 CAVOK 25/22 Q1015 NOSIG=
201008150330 METAR LMML NIL=
201008150315 METAR LMML 150315Z 14006KT CAVOK 25/22 Q1014 NOSIG=
201008150300 METAR LMML NIL=
201008150245 METAR LMML 150245Z 14007KT CAVOK 25/22 Q1014 NOSIG=
201008150230 METAR LMML NIL=
201008150215 METAR LMML 150215Z 14006KT CAVOK 25/22 Q1014 NOSIG=
201008150200 METAR LMML NIL=
201008150145 METAR LMML 150145Z 14006KT 110V170 CAVOK 25/22 Q1014 NOSIG=
201008150130 METAR LMML NIL=
201008150115 METAR LMML 150115Z 14006KT 110V170 CAVOK 25/22 Q1014 NOSIG=
201008150100 METAR LMML NIL=
201008150045 METAR LMML 150045Z 15005KT 120V180 CAVOK 26/22 Q1014 NOSIG=
201008150030 METAR LMML NIL=
201008150015 METAR LMML 150015Z 15007KT 120V180 CAVOK 26/21 Q1014 NOSIG=
201008150000 METAR LMML NIL=
201008142345 METAR LMML 142345Z 16008KT CAVOK 26/21 Q1014 NOSIG=
201008142330 METAR LMML NIL=
201008142315 METAR LMML 142315Z 15007KT 120V180 CAVOK 26/21 Q1015 NOSIG=
201008142300 METAR LMML NIL=
201008142245 METAR LMML 142245Z 14008KT 110V180 CAVOK 26/21 Q1015 NOSIG=
201008142215 METAR LMML 142215Z 14009KT CAVOK 26/21 Q1015 NOSIG=
201008142200 METAR LMML NIL=
201008142145 METAR LMML 142145Z 14009KT CAVOK 26/21 Q1014 NOSIG=
201008142115 METAR LMML 142115Z 14006KT 120V180 CAVOK 26/22 Q1015 NOSIG=
201008142100 METAR LMML NIL=
201008142045 METAR LMML 142045Z 16006KT CAVOK 26/23 Q1015 NOSIG=
201008142030 METAR LMML NIL=
201008142015 METAR LMML 142015Z 14006KT 120V180 CAVOK 26/24 Q1015 NOSIG=
201008142000 METAR LMML NIL=
201008141945 METAR LMML 141945Z 14007KT CAVOK 26/24 Q1015 NOSIG=
201008141930 METAR LMML NIL=
201008141915 METAR LMML 141915Z 14007KT CAVOK 26/23 Q1015 NOSIG=
201008141845 METAR LMML 141845Z 13008KT CAVOK 26/23 Q1014 NOSIG=
201008141830 METAR LMML NIL=
201008141815 METAR LMML 141815Z 14008KT CAVOK 27/23 Q1014 NOSIG=
201008141800 METAR LMML NIL=
201008141745 METAR LMML 141745Z 14006KT CAVOK 27/22 Q1014 NOSIG=
201008141730 METAR LMML NIL=
201008141715 METAR LMML 141715Z 13007KT CAVOK 28/22 Q1014 NOSIG=
201008141700 METAR LMML NIL=
201008141645 METAR LMML 141645Z 17005KT 140V200 CAVOK 31/20 Q1015 NOSIG=
201008141630 METAR LMML NIL=
201008141615 METAR LMML 141615Z 18005KT 150V210 CAVOK 31/18 Q1015 NOSIG=
201008141600 METAR LMML NIL=
201008141545 METAR LMML 141545Z 17005KT 140V230 CAVOK 31/16 Q1015 NOSIG=
201008141530 METAR LMML NIL=
201008141515 METAR LMML 141515Z 18005KT 150V210 CAVOK 32/14 Q1015 NOSIG=
201008141500 METAR LMML NIL=
201008141445 METAR LMML 141445Z 18005KT 100V270 CAVOK 32/17 Q1015 NOSIG=
201008141430 METAR LMML NIL=
201008141415 METAR LMML 141415Z 19007KT 150V220 CAVOK 32/15 Q1015 NOSIG=
201008141400 METAR LMML NIL=
201008141345 METAR LMML 141345Z 19006KT 140V220 CAVOK 32/14 Q1015 NOSIG=
201008141330 METAR LMML NIL=
201008141315 METAR LMML 141315Z 18006KT 150V230 CAVOK 32/14 Q1015 NOSIG=
201008141300 METAR LMML NIL=
201008141245 METAR LMML 141245Z 17007KT 140V210 CAVOK 32/17 Q1015 NOSIG=
201008141230 METAR LMML NIL=
201008141215 METAR LMML 141215Z 18006KT 140V230 CAVOK 33/16 Q1015 NOSIG=
201008141200 METAR LMML NIL=
201008141145 METAR LMML 141145Z 19006KT 150V240 CAVOK 32/16 Q1016 NOSIG=
201008141130 METAR LMML NIL=
201008141115 METAR LMML 141115Z 18007KT 150V230 CAVOK 32/16 Q1016 NOSIG=
201008141100 METAR LMML NIL=
201008141045 METAR LMML 141045Z 18008KT 140V210 CAVOK 31/18 Q1016 NOSIG=
201008141030 METAR LMML NIL=
201008141015 METAR LMML 141015Z 19007KT 140V260 CAVOK 31/18 Q1016 NOSIG=
201008141000 METAR LMML NIL=
201008140945 METAR LMML 140945Z 18008KT 150V220 CAVOK 31/19 Q1016 NOSIG=
201008140930 METAR LMML NIL=
201008140915 METAR LMML 140915Z 17008KT 130V230 CAVOK 30/19 Q1015 NOSIG=
201008140900 METAR LMML NIL=
201008140845 METAR LMML 140845Z 16009KT 130V190 CAVOK 29/19 Q1015 NOSIG=
201008140830 METAR LMML NIL=
201008140815 METAR LMML 140815Z 17008KT CAVOK 29/18 Q1015 NOSIG=
201008140800 METAR LMML NIL=
201008140745 METAR LMML 140745Z 17007KT 140V200 CAVOK 29/19 Q1015 NOSIG=
201008140730 METAR LMML NIL=
201008140715 METAR LMML 140715Z 16006KT 120V200 9999 FEW025 28/21 Q1015
                        NOSIG=
201008140700 METAR LMML NIL=
201008140645 METAR LMML 140645Z 15005KT 120V190 CAVOK 28/22 Q1015 NOSIG=
201008140630 METAR LMML NIL=
201008140615 METAR LMML 140615Z VRB03KT CAVOK 26/24 Q1015 NOSIG=
201008140600 METAR LMML NIL=
201008140545 METAR LMML 140545Z 16005KT CAVOK 25/24 Q1015 NOSIG=
201008140530 METAR LMML NIL=
201008140515 METAR LMML 140515Z 16004KT 130V200 CAVOK 24/23 Q1014 NOSIG=
201008140500 METAR LMML NIL=
201008140445 METAR LMML 140445Z VRB03KT CAVOK 24/22 Q1014 NOSIG=
201008140430 METAR LMML NIL=
201008140415 METAR LMML 140415Z 18005KT CAVOK 25/23 Q1014 NOSIG=
201008140400 METAR LMML NIL=
201008140345 METAR LMML 140345Z 18004KT CAVOK 24/23 Q1014 NOSIG=
201008140330 METAR LMML NIL=
201008140315 METAR LMML 140315Z VRB03KT CAVOK 24/23 Q1014 NOSIG=
201008140245 METAR LMML 140245Z 18004KT CAVOK 25/23 Q1014 NOSIG=
201008140230 METAR LMML NIL=
201008140215 METAR LMML 140215Z 17004KT CAVOK 24/23 Q1014 NOSIG=
201008140200 METAR LMML NIL=
201008140145 METAR LMML 140145Z 16005KT CAVOK 24/23 Q1014 NOSIG=
201008140130 METAR LMML NIL=
201008140115 METAR LMML 140115Z 15004KT CAVOK 24/23 Q1014 NOSIG=
201008140100 METAR LMML NIL=
201008140045 METAR LMML 140045Z 00000KT CAVOK 25/23 Q1014 NOSIG=
201008140030 METAR LMML NIL=
201008140015 METAR LMML 140015Z 19004KT 150V230 CAVOK 25/23 Q1014 NOSIG=
201008140000 METAR LMML NIL=
201008132345 METAR LMML 132345Z 18006KT CAVOK 25/23 Q1014 NOSIG=
201008132330 METAR LMML NIL=
201008132315 METAR LMML 132315Z 17005KT CAVOK 25/22 Q1014 NOSIG=
201008132245 METAR LMML 132245Z 17006KT CAVOK 25/22 Q1014 NOSIG=
201008132230 METAR LMML NIL=
201008132215 METAR LMML 132215Z 18004KT CAVOK 25/22 Q1014 NOSIG=
201008132200 METAR LMML NIL=
201008132145 METAR LMML 132145Z 17004KT CAVOK 25/22 Q1014 NOSIG=
201008132130 METAR LMML NIL=
201008132115 METAR LMML 132115Z 16004KT CAVOK 26/22 Q1014 NOSIG=
201008132045 METAR LMML 132045Z 17004KT CAVOK 26/22 Q1014 NOSIG=
201008132030 METAR LMML NIL=
201008132015 METAR LMML 132015Z 18004KT CAVOK 26/22 Q1014 NOSIG=
201008132000 METAR LMML NIL=
201008131945 METAR LMML 131945Z 18004KT 150V230 CAVOK 26/22 Q1014 NOSIG=
201008131930 METAR LMML NIL=
201008131915 METAR LMML 131915Z VRB03KT CAVOK 26/21 Q1014 NOSIG=
201008131900 METAR LMML NIL=
201008131845 METAR LMML 131845Z 18004KT 150V220 CAVOK 27/22 Q1014 NOSIG=
201008131830 METAR LMML NIL=
201008131815 METAR LMML 131815Z 17005KT CAVOK 27/21 Q1014 NOSIG=
201008131800 METAR LMML NIL=
201008131745 METAR LMML 131745Z 18004KT 150V210 CAVOK 28/19 Q1014 NOSIG=
201008131730 METAR LMML NIL=
201008131715 METAR LMML 131715Z 20005KT 170V230 CAVOK 28/16 Q1014 NOSIG=
201008131700 METAR LMML NIL=
201008131645 METAR LMML 131645Z 20004KT 170V280 CAVOK 31/13 Q1014 NOSIG=
201008131630 METAR LMML NIL=
201008131615 METAR LMML 131615Z VRB03KT CAVOK 31/12 Q1014 NOSIG=
201008131600 METAR LMML NIL=
201008131545 METAR LMML 131545Z VRB03KT CAVOK 32/12 Q1014 NOSIG=
201008131530 METAR LMML NIL=
201008131515 METAR LMML 131515Z 15004KT CAVOK 33/10 Q1014 NOSIG=
201008131500 METAR LMML NIL=
201008131445 METAR LMML 131445Z 20005KT 160V240 CAVOK 33/11 Q1014 NOSIG=
201008131430 METAR LMML NIL=
201008131415 METAR LMML 131415Z 21005KT 170V260 CAVOK 32/14 Q1014 NOSIG=
201008131400 METAR LMML NIL=
201008131345 METAR LMML 131345Z 22006KT 150V300 CAVOK 32/15 Q1014 NOSIG=
201008131330 METAR LMML NIL=
201008131315 METAR LMML 131315Z 21005KT 160V280 9999 FEW020 33/15 Q1014
                        NOSIG=
201008131300 METAR LMML NIL=
201008131245 METAR LMML 131245Z 22004KT 150V280 CAVOK 34/10 Q1014 NOSIG=
201008131230 METAR LMML NIL=
201008131215 METAR LMML 131215Z 21005KT 170V270 CAVOK 33/11 Q1014 NOSIG=
201008131200 METAR LMML NIL=
201008131145 METAR LMML 131145Z 24005KT 190V290 CAVOK 33/09 Q1014 NOSIG=
201008131130 METAR LMML NIL=
201008131115 METAR LMML 131115Z 23006KT 190V290 CAVOK 32/14 Q1014 NOSIG=
201008131100 METAR LMML NIL=
201008131045 METAR LMML 131045Z 21005KT 160V280 CAVOK 31/16 Q1014 NOSIG=
201008131030 METAR LMML NIL=
201008131015 METAR LMML 131015Z 22004KT 160V270 CAVOK 31/12 Q1015 NOSIG=
201008131000 METAR LMML NIL=
201008130945 METAR LMML 130945Z 25004KT 160V310 CAVOK 31/15 Q1015 NOSIG=
201008130930 METAR LMML NIL=
201008130915 METAR LMML 130915Z 23005KT 200V270 CAVOK 31/14 Q1015 NOSIG=
201008130900 METAR LMML NIL=
201008130845 METAR LMML 130845Z 22006KT 160V270 CAVOK 30/17 Q1015 NOSIG=
201008130830 METAR LMML NIL=
201008130815 METAR LMML 130815Z 23005KT 190V280 CAVOK 28/17 Q1015 NOSIG=
201008130800 METAR LMML NIL=
201008130745 METAR LMML 130745Z 22006KT 200V260 CAVOK 27/18 Q1015 NOSIG=
201008130730 METAR LMML NIL=
201008130715 METAR LMML 130715Z 23006KT 200V260 CAVOK 27/19 Q1015 NOSIG=
201008130700 METAR LMML NIL=
201008130645 METAR LMML 130645Z 22005KT 180V260 9999 FEW025 26/20 Q1014
                        NOSIG RMK SMOKE TO NORTH=
201008130630 METAR LMML NIL=
201008130615 METAR LMML 130615Z 20004KT 170V250 9999 FEW020 25/20 Q1014
                        NOSIG=
201008130600 METAR LMML NIL=
201008130545 METAR LMML 130545Z VRB03KT CAVOK 25/20 Q1014 NOSIG=
201008130530 METAR LMML NIL=
201008130515 METAR LMML 130515Z VRB03KT CAVOK 23/19 Q1014 NOSIG=
201008130500 METAR LMML NIL=
201008130445 METAR LMML 130445Z VRB02KT CAVOK 22/20 Q1014 NOSIG=
201008130415 METAR LMML 130415Z VRB01KT CAVOK 23/20 Q1013 NOSIG=
201008130400 METAR LMML NIL=
201008130345 METAR LMML 130345Z 24004KT CAVOK 23/20 Q1013 NOSIG=
201008130330 METAR LMML NIL=
201008130315 METAR LMML 130315Z 23004KT CAVOK 23/20 Q1013 NOSIG=
201008130300 METAR LMML NIL=
201008130245 METAR LMML 130245Z 23004KT CAVOK 24/19 Q1013 NOSIG=
201008130230 METAR LMML NIL=
201008130215 METAR LMML 130215Z VRB03KT CAVOK 23/19 Q1013 NOSIG=
201008130200 METAR LMML NIL=
201008130145 METAR LMML 130145Z VRB02KT CAVOK 23/18 Q1013 NOSIG=
201008130130 METAR LMML NIL=
201008130115 METAR LMML 130115Z VRB03KT CAVOK 24/18 Q1013 NOSIG=
201008130100 METAR LMML NIL=
201008130045 METAR LMML 130045Z VRB03KT CAVOK 23/17 Q1014 NOSIG=
201008130030 METAR LMML NIL=
201008130015 METAR LMML 130015Z VRB03KT CAVOK 23/16 Q1014 NOSIG=
201008130000 METAR LMML NIL=
201008122345 METAR LMML 122345Z VRB03KT CAVOK 24/16 Q1014 NOSIG=
201008122330 METAR LMML NIL=
201008122315 METAR LMML 122315Z VRB03KT CAVOK 23/17 Q1014 NOSIG=
201008122300 METAR LMML NIL=
201008122245 METAR LMML 122245Z VRB01KT CAVOK 24/18 Q1014 NOSIG=
201008122230 METAR LMML NIL=
201008122215 METAR LMML 122215Z VRB01KT CAVOK 24/18 Q1014 NOSIG=
201008122200 METAR LMML NIL=
201008122145 METAR LMML 122145Z VRB01KT CAVOK 24/18 Q1014 NOSIG=
201008122130 METAR LMML NIL=
201008122115 METAR LMML 122115Z VRB01KT CAVOK 24/18 Q1014 NOSIG=
201008122100 METAR LMML NIL=
201008122045 METAR LMML 122045Z VRB02KT CAVOK 25/18 Q1014 NOSIG=
201008122030 METAR LMML NIL=
201008122015 METAR LMML 122015Z VRB02KT CAVOK 25/18 Q1015 NOSIG=
201008122000 METAR LMML NIL=
201008121945 METAR LMML 121945Z VRB03KT CAVOK 25/18 Q1015 NOSIG=
201008121930 METAR LMML NIL=
201008121915 METAR LMML 121915Z VRB03KT CAVOK 25/16 Q1014 NOSIG=
201008121900 METAR LMML NIL=
201008121845 METAR LMML 121845Z VRB03KT CAVOK 26/16 Q1014 NOSIG=
201008121830 METAR LMML NIL=
201008121815 METAR LMML 121815Z VRB03KT 9999 FEW020 26/17 Q1014 TEMPO
                        CAVOK=
201008121800 METAR LMML NIL=
201008121745 METAR LMML 121745Z 30004KT 260V330 9999 FEW020 27/18 Q1014
                        TEMPO CAVOK=
201008121730 METAR LMML NIL=
201008121715 METAR LMML 121715Z 28005KT 240V320 9999 FEW020 27/20 Q1013
                        NOSIG=
201008121700 METAR LMML NIL=
201008121645 METAR LMML 121645Z 27006KT 220V300 9999 FEW020 28/20 Q1013
                        NOSIG=
201008121630 METAR LMML NIL=
201008121615 METAR LMML 121615Z 28006KT 230V310 9999 FEW020 28/18 Q1013
                        NOSIG=
201008121600 METAR LMML NIL=
201008121545 METAR LMML 121545Z 26005KT 190V320 9999 FEW020 29/18 Q1013
                        NOSIG=
201008121530 METAR LMML NIL=
201008121515 METAR LMML 121515Z 27006KT 210V310 CAVOK 30/20 Q1014 NOSIG=
201008121445 METAR LMML 121445Z 24007KT 200V280 9999 FEW015 29/20 Q1014
                        NOSIG=
201008121430 METAR LMML NIL=
201008121415 METAR LMML 121415Z 24007KT 200V270 9999 FEW015 29/19 Q1014
                        NOSIG=
201008121400 METAR LMML NIL=
201008121345 METAR LMML 121345Z 25007KT 210V290 9999 FEW015 29/19 Q1014
                        NOSIG=
201008121330 METAR LMML NIL=
201008121315 METAR LMML 121315Z 24009KT 210V290 9999 FEW015 30/21 Q1014
                        NOSIG=
201008121300 METAR LMML NIL=
201008121245 METAR LMML 121245Z 23007KT 200V270 9999 FEW015 31/20 Q1014
                        NOSIG=
201008121230 METAR LMML NIL=
201008121215 METAR LMML 121215Z 25007KT 200V290 9999 FEW015 31/20 Q1014
                        NOSIG=
201008121200 METAR LMML NIL=
201008121145 METAR LMML 121145Z 28008KT 230V330 9999 FEW015 31/18 Q1014
                        NOSIG=
201008121130 METAR LMML NIL=
201008121115 METAR LMML 121115Z 27007KT 220V320 9999 FEW015 31/18 Q1014
                        NOSIG=
201008121100 METAR LMML NIL=
201008121045 METAR LMML 121045Z 28006KT 220V320 9999 FEW015 31/18 Q1014
                        NOSIG=
201008121030 METAR LMML NIL=
201008121015 METAR LMML 121015Z 28006KT 220V310 CAVOK 31/18 Q1014 NOSIG=
201008121000 METAR LMML NIL=
201008120945 METAR LMML 120945Z 28006KT 220V320 9999 FEW015 29/18 Q1015
                        NOSIG=
201008120930 METAR LMML NIL=
201008120915 METAR LMML 120915Z 29006KT 220V330 9999 FEW015 30/18 Q1015
                        NOSIG=
201008120900 METAR LMML NIL=
201008120845 METAR LMML 120845Z 25005KT 190V310 9999 FEW015 29/18 Q1015
                        NOSIG=
201008120830 METAR LMML NIL=
201008120815 METAR LMML 120815Z 26005KT 210V320 9999 FEW015 29/20 Q1015
                        NOSIG=
201008120800 METAR LMML NIL=
201008120745 METAR LMML 120745Z 26005KT 200V320 9999 FEW015 28/20 Q1014
                        NOSIG=
201008120730 METAR LMML NIL=
201008120715 METAR LMML 120715Z 26008KT 230V310 9999 FEW015 26/20 Q1014
                        NOSIG=
201008120645 METAR LMML 120645Z 26007KT 220V300 9999 FEW015 26/21 Q1014
                        NOSIG=
201008120615 METAR LMML 120615Z 28007KT 230V320 9999 FEW015 25/21 Q1014
                        NOSIG=
201008120600 METAR LMML NIL=
201008120545 METAR LMML 120545Z 28006KT 240V320 9999 FEW015 24/22 Q1014
                        NOSIG=
201008120530 METAR LMML NIL=
201008120515 METAR LMML 120515Z 28005KT 230V310 9999 FEW015 24/21 Q1014
                        NOSIG=
201008120445 METAR LMML 120445Z 26004KT 210V300 CAVOK 23/21 Q1014 NOSIG=
201008120430 METAR LMML NIL=
201008120415 METAR LMML 120415Z 28004KT CAVOK 23/20 Q1014 NOSIG=
201008120400 METAR LMML NIL=
201008120345 METAR LMML 120345Z 27006KT 240V310 CAVOK 23/20 Q1013 NOSIG=
201008120330 METAR LMML NIL=
201008120315 METAR LMML 120315Z VRB03KT CAVOK 24/20 Q1013 NOSIG=
201008120300 METAR LMML NIL=
201008120245 METAR LMML 120245Z VRB03KT CAVOK 24/19 Q1013 NOSIG=
201008120230 METAR LMML NIL=
201008120215 METAR LMML 120215Z VRB02KT CAVOK 24/17 Q1014 NOSIG=
201008120200 METAR LMML NIL=
201008120145 METAR LMML 120145Z VRB03KT CAVOK 24/13 Q1014 NOSIG=
201008120130 METAR LMML NIL=
201008120115 METAR LMML 120115Z VRB02KT CAVOK 24/11 Q1014 NOSIG=
201008120100 METAR LMML NIL=
201008120045 METAR LMML 120045Z VRB02KT CAVOK 24/11 Q1014 NOSIG=
201008120030 METAR LMML NIL=
201008120015 METAR LMML 120015Z 27004KT 240V300 CAVOK 24/12 Q1014 NOSIG=
201008120000 METAR LMML NIL=
201008112345 METAR LMML 112345Z 30004KT CAVOK 24/13 Q1014 NOSIG=
201008112330 METAR LMML NIL=
201008112315 METAR LMML 112315Z 30004KT 260V330 CAVOK 25/12 Q1015 NOSIG=
201008112300 METAR LMML NIL=
201008112245 METAR LMML 112245Z 27004KT CAVOK 26/07 Q1015 NOSIG=
201008112215 METAR LMML 112215Z 26004KT 230V290 CAVOK 25/09 Q1015 NOSIG=
201008112145 METAR LMML 112145Z VRB03KT CAVOK 26/06 Q1015 NOSIG=
201008112130 METAR LMML NIL=
201008112115 METAR LMML 112115Z VRB03KT CAVOK 25/10 Q1015 NOSIG=
201008112100 METAR LMML NIL=
201008112045 METAR LMML 112045Z VRB03KT CAVOK 26/11 Q1015 NOSIG=
201008112030 METAR LMML NIL=
201008112015 METAR LMML 112015Z VRB02KT CAVOK 26/11 Q1015 NOSIG=
201008112000 METAR LMML NIL=
201008111945 METAR LMML 111945Z VRB01KT CAVOK 26/12 Q1015 NOSIG=
201008111915 METAR LMML 111915Z VRB03KT CAVOK 27/12 Q1015 NOSIG=
201008111900 METAR LMML NIL=
201008111845 METAR LMML 111845Z VRB02KT CAVOK 27/11 Q1015 NOSIG=
201008111830 METAR LMML NIL=
201008111815 METAR LMML 111815Z 29004KT 260V320 CAVOK 28/10 Q1015 NOSIG=
201008111800 METAR LMML NIL=
201008111745 METAR LMML 111745Z VRB03KT CAVOK 28/15 Q1014 NOSIG=
201008111715 METAR LMML 111715Z 23006KT 200V270 CAVOK 29/10 Q1014 NOSIG=
201008111700 METAR LMML NIL=
201008111645 METAR LMML 111645Z 23005KT 200V280 CAVOK 29/08 Q1014 NOSIG=
201008111630 METAR LMML NIL=
201008111615 METAR LMML 111615Z 23006KT 200V270 CAVOK 31/10 Q1014 NOSIG=
201008111545 METAR LMML 111545Z 23007KT 200V280 CAVOK 29/09 Q1014 NOSIG=
201008111515 METAR LMML 111515Z 23007KT 190V280 CAVOK 30/11 Q1015 NOSIG=
201008111500 METAR LMML NIL=
201008111445 METAR LMML 111445Z 20006KT 170V270 CAVOK 31/13 Q1015 NOSIG=
201008111430 METAR LMML NIL=
201008111415 METAR LMML 111415Z 19006KT 150V230 CAVOK 32/13 Q1015 NOSIG=
201008111400 METAR LMML NIL=
201008111345 METAR LMML 111345Z 19006KT 150V260 9999 FEW030 32/13 Q1015
                        NOSIG=
201008111330 METAR LMML NIL=
201008111315 METAR LMML 111315Z 20005KT 150V270 9999 FEW030 31/14 Q1015
                        TEMPO CAVOK=
201008111300 METAR LMML NIL=
201008111245 METAR LMML 111245Z 19004KT 140V240 9999 FEW030 31/13 Q1015
                        TEMPO CAVOK=
201008111215 METAR LMML 111215Z 22006KT 180V280 9999 FEW030 31/15 Q1015
                        TEMPO CAVOK=
201008111200 METAR LMML NIL=
201008111145 METAR LMML 111145Z 23006KT 190V280 9999 FEW030 31/14 Q1015
                        NOSIG=
201008111130 METAR LMML NIL=
201008111115 METAR LMML 111115Z 22005KT 170V280 CAVOK 31/14 Q1016 NOSIG=
201008111100 METAR LMML NIL=
201008111045 METAR LMML 111045Z 20006KT 160V250 CAVOK 30/15 Q1016 NOSIG=
201008111030 METAR LMML NIL=
201008111015 METAR LMML 111015Z 19006KT 160V220 CAVOK 31/15 Q1016 NOSIG=
201008110945 METAR LMML 110945Z 19005KT 160V220 CAVOK 30/13 Q1016 NOSIG=
201008110930 METAR LMML NIL=
201008110915 METAR LMML 110915Z 13004KT 040V180 CAVOK 31/14 Q1016 NOSIG=
201008110900 METAR LMML NIL=
201008110845 METAR LMML 110845Z VRB03KT CAVOK 31/17 Q1016 NOSIG=
201008110830 METAR LMML NIL=
201008110815 METAR LMML 110815Z 05004KT CAVOK 29/14 Q1016 NOSIG=
201008110800 METAR LMML NIL=
201008110745 METAR LMML 110745Z VRB01KT CAVOK 29/12 Q1015 NOSIG=
201008110730 METAR LMML NIL=
201008110715 METAR LMML 110715Z VRB02KT CAVOK 29/12 Q1015 NOSIG=
201008110700 METAR LMML NIL=
201008110645 METAR LMML 110645Z VRB01KT CAVOK 27/13 Q1015 NOSIG=
201008110630 METAR LMML NIL=
201008110615 METAR LMML 110615Z VRB02KT CAVOK 25/18 Q1015 NOSIG=
201008110600 METAR LMML NIL=
201008110545 METAR LMML 110545Z VRB02KT CAVOK 24/17 Q1015 NOSIG=
201008110530 METAR LMML NIL=
201008110515 METAR LMML 110515Z VRB03KT CAVOK 22/18 Q1015 NOSIG=
201008110500 METAR LMML NIL=
201008110445 METAR LMML 110445Z VRB03KT CAVOK 21/18 Q1015 NOSIG=
201008110430 METAR LMML NIL=
201008110415 METAR LMML 110415Z VRB02KT CAVOK 21/17 Q1015 NOSIG=
201008110400 METAR LMML NIL=
201008110345 METAR LMML 110345Z VRB03KT CAVOK 20/18 Q1014 NOSIG=
201008110330 METAR LMML NIL=
201008110315 METAR LMML 110315Z VRB02KT 9999 FEW015 20/19 Q1014 NOSIG=
201008110300 METAR LMML NIL=
201008110245 METAR LMML 110245Z VRB01KT 9999 FEW015 21/20 Q1014 TEMPO
                        5000 BR=
201008110230 METAR LMML NIL=
201008110215 METAR LMML 110215Z VRB01KT 9999 FEW015 22/20 Q1014 TEMPO
                        5000 BR=
201008110200 METAR LMML NIL=
201008110145 METAR LMML 110145Z VRB03KT 9999 FEW015 22/21 Q1014 NOSIG=
201008110130 METAR LMML NIL=
201008110115 METAR LMML 110115Z VRB02KT 9999 FEW015 22/21 Q1014 NOSIG=
201008110100 METAR LMML NIL=
201008110045 METAR LMML 110045Z VRB03KT 9999 FEW020 23/21 Q1014 NOSIG=
201008110030 METAR LMML NIL=
201008110015 METAR LMML 110015Z VRB03KT 9999 FEW020 22/21 Q1014 NOSIG=
201008110000 METAR LMML NIL=
201008102345 METAR LMML 102345Z VRB01KT 9999 FEW020 23/21 Q1015 NOSIG=
201008102330 METAR LMML NIL=
201008102315 METAR LMML 102315Z VRB03KT 9999 FEW020 23/21 Q1015 NOSIG=
201008102300 METAR LMML NIL=
201008102245 METAR LMML 102245Z VRB03KT 9999 FEW020 23/21 Q1015 NOSIG=
201008102230 METAR LMML NIL=
201008102215 METAR LMML 102215Z VRB03KT 9999 FEW020 23/20 Q1015 NOSIG=
201008102145 METAR LMML 102145Z VRB01KT 9999 FEW020 23/20 Q1015 NOSIG=
201008102130 METAR LMML NIL=
201008102115 METAR LMML 102115Z VRB01KT 9999 FEW020 23/20 Q1015 NOSIG=
201008102100 METAR LMML NIL=
201008102045 METAR LMML 102045Z VRB01KT 9999 FEW020 24/20 Q1015 NOSIG=
201008102030 METAR LMML NIL=
201008102015 METAR LMML 102015Z VRB01KT 9999 FEW020 23/20 Q1015 NOSIG=
201008102000 METAR LMML NIL=
201008101945 METAR LMML 101945Z VRB02KT 9999 FEW020 24/21 Q1015 NOSIG=
201008101930 METAR LMML NIL=
201008101915 METAR LMML 101915Z VRB01KT 9999 FEW020 24/21 Q1015 NOSIG=
201008101900 METAR LMML NIL=
201008101845 METAR LMML 101845Z VRB03KT 9999 FEW020 24/21 Q1014 NOSIG=
201008101815 METAR LMML 101815Z 24004KT 210V270 9999 FEW020 25/21 Q1014
                        NOSIG=
201008101800 METAR LMML NIL=
201008101745 METAR LMML 101745Z 23005KT 200V280 9999 FEW020 25/20 Q1014
                        NOSIG=
201008101730 METAR LMML NIL=
201008101715 METAR LMML 101715Z 21005KT 170V260 CAVOK 26/20 Q1014 NOSIG=
201008101700 METAR LMML NIL=
201008101645 METAR LMML 101645Z 22004KT 190V260 CAVOK 28/18 Q1014 NOSIG=
201008101630 METAR LMML NIL=
201008101615 METAR LMML 101615Z 23004KT 180V300 9999 FEW025 29/16 Q1014
                        NOSIG=
201008101600 METAR LMML NIL=
201008101545 METAR LMML 101545Z 24005KT 190V280 9999 FEW025 28/18 Q1014
                        NOSIG=
201008101530 METAR LMML NIL=
201008101515 METAR LMML 101515Z 23006KT 200V280 9999 FEW025 28/19 Q1014
                        NOSIG=
201008101500 METAR LMML NIL=
201008101445 METAR LMML 101445Z 22009KT 200V260 9999 FEW025 28/19 Q1014
                        NOSIG=
201008101415 METAR LMML 101415Z 21006KT 150V280 9999 FEW030 29/19 Q1014
                        NOSIG=
201008101345 METAR LMML 101345Z 22006KT 170V270 9999 FEW030 29/19 Q1015
                        NOSIG=
201008101330 METAR LMML NIL=
201008101315 METAR LMML 101315Z 23009KT 210V270 9999 FEW030 30/14 Q1015
                        NOSIG=
201008101245 METAR LMML 101245Z 22009KT 190V260 CAVOK 29/14 Q1015 NOSIG=
201008101230 METAR LMML NIL=
201008101215 METAR LMML 101215Z 21008KT 180V260 CAVOK 29/14 Q1015 NOSIG=
201008101200 METAR LMML NIL=
201008101145 METAR LMML 101145Z 21008KT 160V250 9999 FEW030 30/15 Q1015
                        NOSIG=
201008101115 METAR LMML 101115Z 20006KT 170V260 CAVOK 30/13 Q1015 NOSIG=
201008101100 METAR LMML NIL=
201008101045 METAR LMML 101045Z 20006KT 170V260 CAVOK 31/14 Q1015 NOSIG=
201008101030 METAR LMML NIL=
201008101015 METAR LMML 101015Z 20005KT 150V260 CAVOK 29/13 Q1016 NOSIG=
201008101000 METAR LMML NIL=
201008100945 METAR LMML 100945Z 05005KT 010V140 CAVOK 31/20 Q1016 NOSIG=
201008100930 METAR LMML NIL=
201008100915 METAR LMML 100915Z VRB03KT CAVOK 31/14 Q1016 NOSIG=
201008100900 METAR LMML NIL=
201008100845 METAR LMML 100845Z VRB03KT CAVOK 30/14 Q1016 NOSIG=
201008100830 METAR LMML NIL=
201008100815 METAR LMML 100815Z VRB03KT 9999 FEW025 29/14 Q1015 NOSIG=
201008100800 METAR LMML NIL=
201008100745 METAR LMML 100745Z VRB03KT CAVOK 28/14 Q1015 NOSIG=
201008100730 METAR LMML NIL=
201008100715 METAR LMML 100715Z VRB02KT CAVOK 28/13 Q1015 NOSIG=
201008100700 METAR LMML NIL=
201008100645 METAR LMML 100645Z VRB02KT CAVOK 27/11 Q1015 NOSIG=
201008100630 METAR LMML NIL=
201008100615 METAR LMML 100615Z VRB01KT CAVOK 26/11 Q1015 NOSIG=
201008100600 METAR LMML NIL=
201008100545 METAR LMML 100545Z VRB02KT CAVOK 25/11 Q1015 NOSIG=
201008100530 METAR LMML NIL=
201008100515 METAR LMML 100515Z VRB02KT CAVOK 22/13 Q1015 NOSIG=
201008100500 METAR LMML NIL=
201008100445 METAR LMML 100445Z 00000KT CAVOK 21/15 Q1015 NOSIG=
201008100430 METAR LMML NIL=
201008100415 METAR LMML 100415Z VRB01KT CAVOK 21/16 Q1014 NOSIG=
201008100400 METAR LMML NIL=
201008100345 METAR LMML 100345Z VRB01KT CAVOK 21/16 Q1014 NOSIG=
201008100330 METAR LMML NIL=
201008100315 METAR LMML 100315Z VRB02KT CAVOK 21/15 Q1014 NOSIG=
201008100300 METAR LMML NIL=
201008100245 METAR LMML 100245Z VRB03KT CAVOK 22/16 Q1014 NOSIG=
201008100230 METAR LMML NIL=
201008100215 METAR LMML 100215Z VRB01KT CAVOK 22/13 Q1014 NOSIG=
201008100200 METAR LMML NIL=
201008100145 METAR LMML 100145Z VRB01KT CAVOK 22/13 Q1014 NOSIG=
201008100130 METAR LMML NIL=
201008100115 METAR LMML 100115Z VRB01KT CAVOK 22/14 Q1014 NOSIG=
201008100100 METAR LMML NIL=
201008100045 METAR LMML 100045Z VRB02KT CAVOK 22/14 Q1015 NOSIG=
201008100030 METAR LMML NIL=
201008100015 METAR LMML 100015Z VRB03KT CAVOK 23/14 Q1015 NOSIG=
201008100000 METAR LMML NIL=
201008092345 METAR LMML 092345Z VRB03KT CAVOK 23/14 Q1015 NOSIG=
201008092330 METAR LMML NIL=
201008092315 METAR LMML 092315Z VRB03KT CAVOK 23/13 Q1015 NOSIG=
201008092300 METAR LMML NIL=
201008092245 METAR LMML 092245Z VRB03KT CAVOK 23/14 Q1015 NOSIG=
201008092230 METAR LMML NIL=
201008092215 METAR LMML 092215Z 27004KT 240V300 CAVOK 23/14 Q1015 NOSIG=
201008092200 METAR LMML NIL=
201008092145 METAR LMML 092145Z VRB03KT CAVOK 22/18 Q1015 NOSIG=
201008092130 METAR LMML NIL=
201008092115 METAR LMML 092115Z VRB03KT CAVOK 23/18 Q1016 NOSIG=
201008092045 METAR LMML 092045Z 31005KT CAVOK 23/19 Q1016 NOSIG=
201008092030 METAR LMML NIL=
201008092015 METAR LMML 092015Z 31004KT CAVOK 23/19 Q1016 NOSIG=
201008092000 METAR LMML NIL=
201008091945 METAR LMML 091945Z 31004KT CAVOK 24/19 Q1016 NOSIG=
201008091930 METAR LMML NIL=
201008091915 METAR LMML 091915Z 29004KT 260V320 CAVOK 24/18 Q1015 NOSIG=
201008091900 METAR LMML NIL=
201008091845 METAR LMML 091845Z 31004KT CAVOK 24/18 Q1015 NOSIG=
201008091830 METAR LMML NIL=
201008091815 METAR LMML 091815Z 34005KT 310V010 CAVOK 25/19 Q1015 NOSIG=
201008091800 METAR LMML NIL=
201008091745 METAR LMML 091745Z 32006KT 290V350 CAVOK 26/17 Q1015 NOSIG=
201008091730 METAR LMML NIL=
201008091715 METAR LMML 091715Z 32004KT 280V010 CAVOK 27/17 Q1015 NOSIG=
201008091700 METAR LMML NIL=
201008091645 METAR LMML 091645Z 33006KT 280V360 CAVOK 28/17 Q1015 NOSIG=
201008091630 METAR LMML NIL=
201008091615 METAR LMML 091615Z 32005KT 270V020 CAVOK 28/16 Q1015 NOSIG=
201008091600 METAR LMML NIL=
201008091545 METAR LMML 091545Z 32006KT 260V360 CAVOK 29/15 Q1015 NOSIG=
201008091530 METAR LMML NIL=
201008091515 METAR LMML 091515Z 32007KT 280V340 9999 FEW030 30/15 Q1015
                        NOSIG=
201008091500 METAR LMML NIL=
201008091445 METAR LMML 091445Z 34006KT 290V050 9999 FEW030 29/14 Q1015
                        NOSIG=
201008091430 METAR LMML NIL=
201008091415 METAR LMML 091415Z 34007KT 250V010 9999 FEW030 30/16 Q1015
                        NOSIG=
201008091400 METAR LMML NIL=
201008091345 METAR LMML 091345Z 11005KT 9999 FEW030 29/17 Q1015 NOSIG=
201008091330 METAR LMML NIL=
201008091315 METAR LMML 091315Z 29004KT 180V020 9999 FEW030 29/17 Q1016
                        NOSIG=
201008091300 METAR LMML NIL=
201008091245 METAR LMML 091245Z 26004KT 160V340 9999 FEW030 29/16 Q1016
                        NOSIG=
201008091230 METAR LMML NIL=
201008091215 METAR LMML 091215Z 05007KT 020V120 9999 FEW030 29/20 Q1016
                        NOSIG=
201008091200 METAR LMML NIL=
201008091145 METAR LMML 091145Z 04008KT 010V090 9999 FEW030 29/20 Q1016
                        NOSIG=
201008091130 METAR LMML NIL=
201008091115 METAR LMML 091115Z 04008KT 010V080 9999 FEW030 30/20 Q1016
                        NOSIG=
201008091100 METAR LMML NIL=
201008091045 METAR LMML 091045Z 04005KT 360V090 9999 SCT031 28/19 Q1016
                        NOSIG=
201008091030 METAR LMML NIL=
201008091015 METAR LMML 091015Z 14005KT 330V220 9999 FEW033 28/19 Q1017
                        NOSIG=
201008090945 METAR LMML 090945Z 23005KT 170V320 9999 FEW034 28/17 Q1017
                        NOSIG=
201008090930 METAR LMML NIL=
201008090915 METAR LMML 090915Z 21007KT 170V270 9999 FEW025 28/18 Q1017
                        NOSIG=
201008090900 METAR LMML NIL=
201008090845 METAR LMML 090845Z 19004KT 150V260 9999 FEW025 27/18 Q1017
                        NOSIG=
201008090815 METAR LMML 090815Z VRB03KT 9999 FEW025 28/13 Q1017 NOSIG=
201008090745 METAR LMML 090745Z VRB02KT CAVOK 27/14 Q1017 NOSIG=
201008090730 METAR LMML NIL=
201008090715 METAR LMML 090715Z VRB02KT CAVOK 27/13 Q1017 NOSIG=
201008090700 METAR LMML NIL=
201008090645 METAR LMML 090645Z VRB02KT CAVOK 25/14 Q1016 NOSIG=
201008090615 METAR LMML 090615Z VRB02KT CAVOK 25/17 Q1017 NOSIG=
201008090600 METAR LMML NIL=
201008090545 METAR LMML 090545Z VRB02KT CAVOK 23/16 Q1017 NOSIG=
201008090530 METAR LMML NIL=
201008090515 METAR LMML 090515Z VRB03KT CAVOK 21/16 Q1016 NOSIG=
201008090445 METAR LMML 090445Z VRB02KT CAVOK 21/15 Q1016 NOSIG=
201008090430 METAR LMML NIL=
201008090415 METAR LMML 090415Z VRB03KT CAVOK 20/16 Q1016 NOSIG=
201008090400 METAR LMML NIL=
201008090345 METAR LMML 090345Z VRB03KT CAVOK 20/18 Q1016 NOSIG=
201008090330 METAR LMML NIL=
201008090315 METAR LMML 090315Z VRB03KT 9000 NSC 21/20 Q1016 NOSIG=
201008090300 METAR LMML NIL=
201008090245 METAR LMML 090245Z VRB02KT 9000 NSC 21/20 Q1015 NOSIG=
201008090230 METAR LMML NIL=
201008090215 METAR LMML 090215Z VRB02KT 9000 NSC 21/19 Q1015 NOSIG=
201008090200 METAR LMML NIL=
201008090145 METAR LMML 090145Z VRB03KT CAVOK 21/20 Q1016 NOSIG=
201008090130 METAR LMML NIL=
201008090115 METAR LMML 090115Z VRB02KT CAVOK 22/20 Q1016 NOSIG=
201008090100 METAR LMML NIL=
201008090045 METAR LMML 090045Z VRB02KT 9999 FEW010 22/20 Q1016 NOSIG=
201008090030 METAR LMML NIL=
201008090015 METAR LMML 090015Z VRB03KT 9999 FEW010 22/20 Q1016 NOSIG=
201008090000 METAR LMML NIL=
201008082345 METAR LMML 082345Z 33004KT 310V010 9999 FEW010 22/20 Q1016
                        NOSIG=
201008082315 METAR LMML 082315Z 34005KT 290V010 9999 FEW010 23/21 Q1016
                        NOSIG=
201008082245 METAR LMML 082245Z 34005KT 320V020 9999 FEW010 23/21 Q1017
                        NOSIG=
201008082230 METAR LMML NIL=
201008082215 METAR LMML 082215Z VRB03KT CAVOK 23/20 Q1017 NOSIG=
201008082200 METAR LMML NIL=
201008082145 METAR LMML 082145Z VRB03KT CAVOK 23/19 Q1017 NOSIG=
201008082130 METAR LMML NIL=
201008082115 METAR LMML 082115Z 36004KT 330V030 CAVOK 23/19 Q1017 NOSIG=
201008082100 METAR LMML NIL=
201008082045 METAR LMML 082045Z 36004KT 330V070 9999 FEW012 24/19 Q1017
                        NOSIG=
201008082030 METAR LMML NIL=
201008082015 METAR LMML 082015Z VRB03KT 9999 FEW012 24/19 Q1017 NOSIG=
201008082000 METAR LMML NIL=
201008081945 METAR LMML 081945Z VRB03KT 9999 FEW012 24/18 Q1017 NOSIG=
201008081930 METAR LMML NIL=
201008081915 METAR LMML 081915Z 05004KT 360V080 CAVOK 24/18 Q1016 NOSIG=
201008081900 METAR LMML NIL=
201008081845 METAR LMML 081845Z VRB02KT CAVOK 24/19 Q1016 NOSIG=
201008081830 METAR LMML NIL=
201008081815 METAR LMML 081815Z VRB03KT CAVOK 25/19 Q1016 NOSIG=
201008081800 METAR LMML NIL=
201008081745 METAR LMML 081745Z VRB03KT CAVOK 25/18 Q1016 NOSIG=
201008081730 METAR LMML NIL=
201008081715 METAR LMML 081715Z VRB02KT 9999 FEW035 26/18 Q1016 NOSIG=
201008081700 METAR LMML NIL=
201008081645 METAR LMML 081645Z VRB03KT 9999 FEW035 26/18 Q1016 NOSIG=
201008081630 METAR LMML NIL=
201008081615 METAR LMML 081615Z VRB03KT 9999 FEW035 26/18 Q1016 NOSIG=
201008081600 METAR LMML NIL=
201008081545 METAR LMML 081545Z 18005KT 120V240 9999 FEW035 26/18 Q1016
                        NOSIG=
201008081530 METAR LMML NIL=
201008081515 METAR LMML 081515Z 14005KT 060V270 9999 FEW035 27/18 Q1016
                        NOSIG=
201008081500 METAR LMML NIL=
201008081445 METAR LMML 081445Z 18005KT 140V230 9999 FEW035 27/18 Q1016
                        NOSIG=
201008081430 METAR LMML NIL=
201008081415 METAR LMML 081415Z 19004KT 140V310 9999 FEW033 27/18 Q1016
                        NOSIG=
201008081400 METAR LMML NIL=
201008081345 METAR LMML 081345Z 20005KT 140V260 9999 FEW034 27/18 Q1016
                        NOSIG=
201008081330 METAR LMML NIL=
201008081315 METAR LMML 081315Z 23004KT 160V340 9999 FEW034 28/19 Q1016
                        NOSIG=
201008081300 METAR LMML NIL=
201008081245 METAR LMML 081245Z 15006KT 080V190 9999 FEW030 28/17 Q1017
                        NOSIG=
201008081230 METAR LMML NIL=
201008081215 METAR LMML 081215Z 13005KT 020V190 9999 FEW038 28/15 Q1017
                        NOSIG=
201008081200 METAR LMML NIL=
201008081145 METAR LMML 081145Z 11006KT 360V180 9999 FEW035 28/17 Q1017
                        NOSIG=
201008081130 METAR LMML NIL=
201008081115 METAR LMML 081115Z 09008KT 360V140 9999 FEW033 28/17 Q1017
                        NOSIG=
201008081100 METAR LMML NIL=
201008081045 METAR LMML 081045Z 11008KT 070V170 9999 FEW035 28/16 Q1017
                        NOSIG=
201008081030 METAR LMML NIL=
201008081015 METAR LMML 081015Z 09007KT 050V130 9999 SCT028 28/17 Q1017
                        NOSIG=
201008081000 METAR LMML NIL=
201008080945 METAR LMML 080945Z 12006KT 060V160 9999 SCT025 27/18 Q1017
                        NOSIG=
201008080930 METAR LMML NIL=
201008080915 METAR LMML 080915Z 07006KT 010V120 9999 FEW026 27/19 Q1017
                        NOSIG=
201008080900 METAR LMML NIL=
201008080845 METAR LMML 080845Z VRB03KT 9999 FEW027 26/18 Q1017 NOSIG=
201008080830 METAR LMML NIL=
201008080815 METAR LMML 080815Z 08005KT 030V140 9999 FEW022 26/19 Q1017
                        NOSIG=
201008080800 METAR LMML NIL=
201008080745 METAR LMML 080745Z VRB03KT 9999 FEW020 25/19 Q1017 NOSIG=
201008080730 METAR LMML NIL=
201008080715 METAR LMML 080715Z VRB03KT 9999 FEW018 24/19 Q1017 NOSIG=
201008080700 METAR LMML NIL=
201008080645 METAR LMML 080645Z 31004KT 280V350 9999 FEW012 23/19 Q1017
                        NOSIG=
201008080630 METAR LMML NIL=
201008080615 METAR LMML 080615Z 32005KT 9999 FEW012 22/19 Q1017 NOSIG=
201008080545 METAR LMML 080545Z 31004KT 280V340 9999 FEW012 21/20 Q1016
                        NOSIG=
201008080530 METAR LMML NIL=
201008080515 METAR LMML 080515Z 29004KT 9999 FEW012 21/19 Q1016 NOSIG=
201008080500 METAR LMML NIL=
201008080445 METAR LMML 080445Z 30004KT 9999 FEW012 20/18 Q1016 NOSIG=
201008080430 METAR LMML NIL=
201008080415 METAR LMML 080415Z 30005KT 9999 FEW012 20/18 Q1016 NOSIG=
201008080400 METAR LMML NIL=
201008080345 METAR LMML 080345Z 31005KT CAVOK 20/18 Q1016 NOSIG=
201008080330 METAR LMML NIL=
201008080315 METAR LMML 080315Z 32005KT CAVOK 20/18 Q1016 NOSIG=
201008080300 METAR LMML NIL=
201008080245 METAR LMML 080245Z 33005KT CAVOK 20/17 Q1016 NOSIG=
201008080230 METAR LMML NIL=
201008080215 METAR LMML 080215Z 32006KT CAVOK 20/17 Q1016 NOSIG=
201008080200 METAR LMML NIL=
201008080145 METAR LMML 080145Z 31007KT CAVOK 20/17 Q1016 NOSIG=
201008080130 METAR LMML NIL=
201008080115 METAR LMML 080115Z 32007KT CAVOK 20/17 Q1016 NOSIG=
201008080100 METAR LMML NIL=
201008080045 METAR LMML 080045Z 31008KT CAVOK 20/17 Q1016 NOSIG=
201008080030 METAR LMML NIL=
201008080015 METAR LMML 080015Z 31007KT CAVOK 20/17 Q1016 NOSIG=
201008080000 METAR LMML NIL=
201008072345 METAR LMML 072345Z 30004KT 260V340 CAVOK 20/17 Q1017 NOSIG=
201008072330 METAR LMML NIL=
201008072315 METAR LMML 072315Z 31006KT CAVOK 21/17 Q1017 NOSIG=
201008072300 METAR LMML NIL=
201008072245 METAR LMML 072245Z 29007KT CAVOK 21/17 Q1017 NOSIG=
201008072230 METAR LMML NIL=
201008072215 METAR LMML 072215Z 29004KT 240V330 CAVOK 21/17 Q1017 NOSIG=
201008072200 METAR LMML NIL=
201008072145 METAR LMML 072145Z 29005KT CAVOK 21/17 Q1017 NOSIG=
201008072130 METAR LMML NIL=
201008072115 METAR LMML 072115Z 30005KT CAVOK 21/17 Q1017 NOSIG=
201008072100 METAR LMML NIL=
201008072045 METAR LMML 072045Z 29004KT 260V320 CAVOK 21/17 Q1017 NOSIG=
201008072030 METAR LMML NIL=
201008072015 METAR LMML 072015Z 28005KT CAVOK 21/17 Q1018 NOSIG=
201008072000 METAR LMML NIL=
201008071945 METAR LMML 071945Z 30004KT CAVOK 22/17 Q1017 NOSIG=
201008071930 METAR LMML NIL=
201008071915 METAR LMML 071915Z 31007KT CAVOK 22/17 Q1017 NOSIG=
201008071900 METAR LMML NIL=
201008071845 METAR LMML 071845Z 31011KT CAVOK 22/16 Q1017 NOSIG=
201008071830 METAR LMML NIL=
201008071815 METAR LMML 071815Z 30009KT 260V340 CAVOK 22/16 Q1017 NOSIG=
201008071800 METAR LMML NIL=
201008071745 METAR LMML 071745Z 29010KT 260V320 CAVOK 23/17 Q1016 NOSIG=
201008071730 METAR LMML NIL=
201008071715 METAR LMML 071715Z 29012KT 230V320 CAVOK 24/17 Q1016 NOSIG=
201008071700 METAR LMML NIL=
201008071645 METAR LMML 071645Z 29014KT 260V340 CAVOK 24/16 Q1016 NOSIG=
201008071630 METAR LMML NIL=
201008071615 METAR LMML 071615Z 28011KT 240V310 CAVOK 25/17 Q1016 NOSIG=
201008071600 METAR LMML NIL=
201008071545 METAR LMML 071545Z 28012KT 250V320 CAVOK 25/17 Q1016 NOSIG=
201008071530 METAR LMML NIL=
201008071515 METAR LMML 071515Z 28014KT CAVOK 25/16 Q1016 NOSIG=
201008071500 METAR LMML NIL=
201008071445 METAR LMML 071445Z 29015KT 260V320 CAVOK 26/17 Q1017 NOSIG=
201008071430 METAR LMML NIL=
201008071415 METAR LMML 071415Z 30013KT 270V340 CAVOK 27/16 Q1017 NOSIG=
201008071400 METAR LMML NIL=
201008071345 METAR LMML 071345Z 31017KT CAVOK 27/15 Q1017 NOSIG=
201008071330 METAR LMML NIL=
201008071315 METAR LMML 071315Z 30018KT 270V330 CAVOK 27/15 Q1017 NOSIG=
201008071300 METAR LMML NIL=
201008071245 METAR LMML 071245Z 30017KT 240V330 CAVOK 27/15 Q1017 NOSIG=
201008071230 METAR LMML NIL=
201008071215 METAR LMML 071215Z 29018KT 260V320 CAVOK 27/15 Q1017 NOSIG=
201008071200 METAR LMML NIL=
201008071145 METAR LMML 071145Z 30016KT 260V330 CAVOK 27/15 Q1017 NOSIG=
201008071130 METAR LMML NIL=
201008071115 METAR LMML 071115Z 31018KT CAVOK 27/12 Q1017 NOSIG=
201008071100 METAR LMML NIL=
201008071045 METAR LMML 071045Z 30016KT 270V330 CAVOK 27/12 Q1018 NOSIG=
201008071030 METAR LMML NIL=
201008071015 METAR LMML 071015Z 28011KT 240V320 CAVOK 27/16 Q1017 NOSIG=
201008071000 METAR LMML NIL=
201008070945 METAR LMML 070945Z 29013KT 240V330 9999 FEW025 26/16 Q1017
                        NOSIG=
201008070930 METAR LMML NIL=
201008070915 METAR LMML 070915Z 29011KT 250V340 9999 FEW025 26/17 Q1017
                        NOSIG=
201008070900 METAR LMML NIL=
201008070845 METAR LMML 070845Z 30012KT 260V350 9999 FEW025 26/17 Q1017
                        NOSIG=
201008070830 METAR LMML NIL=
201008070815 METAR LMML 070815Z 29011KT 250V330 9999 FEW025 26/17 Q1017
                        NOSIG=
201008070800 METAR LMML NIL=
201008070745 METAR LMML 070745Z 31011KT 9999 FEW025 25/16 Q1017 NOSIG=
201008070730 METAR LMML NIL=
201008070715 METAR LMML 070715Z 32009KT CAVOK 25/16 Q1017 NOSIG=
201008070700 METAR LMML NIL=
201008070645 METAR LMML 070645Z 32011KT CAVOK 24/16 Q1017 NOSIG=
201008070630 METAR LMML NIL=
201008070615 METAR LMML 070615Z 30011KT 9999 FEW020 23/17 Q1017 NOSIG=
201008070600 METAR LMML NIL=
201008070545 METAR LMML 070545Z 31011KT 280V340 9999 FEW020 22/18 Q1016
                        NOSIG=
201008070530 METAR LMML NIL=
201008070515 METAR LMML 070515Z 31010KT 9999 FEW020 22/18 Q1016 NOSIG=
201008070500 METAR LMML NIL=
201008070445 METAR LMML 070445Z 30009KT 9999 FEW020 21/17 Q1016 NOSIG=
201008070430 METAR LMML NIL=
201008070415 METAR LMML 070415Z 31008KT 9999 FEW020 21/17 Q1016 NOSIG=
201008070400 METAR LMML NIL=
201008070345 METAR LMML 070345Z 30008KT 260V330 9999 FEW020 21/17 Q1015
                        NOSIG=
201008070330 METAR LMML NIL=
201008070315 METAR LMML 070315Z 29010KT CAVOK 21/17 Q1015 NOSIG=
201008070300 METAR LMML NIL=
201008070245 METAR LMML 070245Z 29010KT 260V320 CAVOK 21/17 Q1015 NOSIG=
201008070230 METAR LMML NIL=
201008070215 METAR LMML 070215Z 29013KT CAVOK 21/17 Q1015 NOSIG=
201008070200 METAR LMML NIL=
201008070145 METAR LMML 070145Z 29011KT 260V320 CAVOK 21/17 Q1015 NOSIG=
201008070130 METAR LMML NIL=
201008070115 METAR LMML 070115Z 29013KT CAVOK 21/17 Q1015 NOSIG=
201008070100 METAR LMML NIL=
201008070045 METAR LMML 070045Z 29011KT CAVOK 21/17 Q1015 NOSIG=
201008070030 METAR LMML NIL=
201008070015 METAR LMML 070015Z 29010KT 260V320 CAVOK 22/17 Q1015 NOSIG=
201008070000 METAR LMML NIL=
201008062345 METAR LMML 062345Z 29011KT CAVOK 22/17 Q1015 NOSIG=
201008062330 METAR LMML NIL=
201008062315 METAR LMML 062315Z 29011KT CAVOK 22/16 Q1015 NOSIG=
201008062300 METAR LMML NIL=
201008062245 METAR LMML 062245Z 30011KT CAVOK 22/16 Q1015 NOSIG=
201008062230 METAR LMML NIL=
201008062215 METAR LMML 062215Z 31010KT 280V340 CAVOK 22/17 Q1015 NOSIG=
201008062200 METAR LMML NIL=
201008062145 METAR LMML 062145Z 30011KT CAVOK 22/17 Q1015 NOSIG=
201008062130 METAR LMML NIL=
201008062115 METAR LMML 062115Z 30012KT CAVOK 22/16 Q1015 NOSIG=
201008062100 METAR LMML NIL=
201008062045 METAR LMML 062045Z 30012KT CAVOK 22/16 Q1015 NOSIG=
201008062030 METAR LMML NIL=
201008062015 METAR LMML 062015Z 30013KT CAVOK 23/15 Q1015 NOSIG=
201008062000 METAR LMML NIL=
201008061945 METAR LMML 061945Z 31014KT CAVOK 23/15 Q1015 NOSIG=
201008061930 METAR LMML NIL=
201008061915 METAR LMML 061915Z 30015KT CAVOK 23/16 Q1015 NOSIG=
201008061900 METAR LMML NIL=
201008061845 METAR LMML 061845Z 30016KT CAVOK 23/16 Q1014 NOSIG=
201008061830 METAR LMML NIL=
201008061815 METAR LMML 061815Z 30015KT CAVOK 23/16 Q1014 NOSIG=
201008061800 METAR LMML NIL=
201008061745 METAR LMML 061745Z 30015KT 270V330 CAVOK 24/14 Q1014 NOSIG=
201008061730 METAR LMML NIL=
201008061715 METAR LMML 061715Z 31016KT CAVOK 25/15 Q1014 NOSIG=
201008061700 METAR LMML NIL=
201008061645 METAR LMML 061645Z 30019KT CAVOK 25/15 Q1014 NOSIG=
201008061630 METAR LMML NIL=
201008061615 METAR LMML 061615Z 31020KT CAVOK 26/15 Q1013 NOSIG=
201008061600 METAR LMML NIL=
201008061545 METAR LMML 061545Z 31019KT CAVOK 27/13 Q1013 NOSIG=
201008061530 METAR LMML NIL=
201008061515 METAR LMML 061515Z 30017KT CAVOK 27/14 Q1013 NOSIG=
201008061500 METAR LMML NIL=
201008061445 METAR LMML 061445Z 30018KT CAVOK 27/14 Q1013 NOSIG=
201008061430 METAR LMML NIL=
201008061415 METAR LMML 061415Z 31015KT 280V340 CAVOK 28/15 Q1013 NOSIG=
201008061400 METAR LMML NIL=
201008061345 METAR LMML 061345Z 30017KT CAVOK 28/13 Q1013 NOSIG=
201008061330 METAR LMML NIL=
201008061315 METAR LMML 061315Z 30017KT 260V330 CAVOK 29/12 Q1013 NOSIG=
201008061300 METAR LMML NIL=
201008061245 METAR LMML 061245Z 31017KT CAVOK 29/12 Q1013 NOSIG=
201008061215 METAR LMML 061215Z 31018KT CAVOK 29/12 Q1013 NOSIG=
201008061200 METAR LMML NIL=
201008061145 METAR LMML 061145Z 33016KT 270V350 CAVOK 29/11 Q1013 NOSIG=
201008061130 METAR LMML NIL=
201008061115 METAR LMML 061115Z 32017KT CAVOK 30/09 Q1013 NOSIG=
201008061100 METAR LMML NIL=
201008061045 METAR LMML 061045Z 33015KT 310V010 CAVOK 30/09 Q1013 NOSIG=
201008061030 METAR LMML NIL=
201008061015 METAR LMML 061015Z 33013KT CAVOK 29/13 Q1013 NOSIG=
201008061000 METAR LMML NIL=
201008060945 METAR LMML 060945Z 33015KT CAVOK 28/16 Q1013 NOSIG=
201008060930 METAR LMML NIL=
201008060915 METAR LMML 060915Z 34015KT CAVOK 28/17 Q1013 NOSIG=
201008060900 METAR LMML NIL=
201008060845 METAR LMML 060845Z 32013KT CAVOK 27/18 Q1012 NOSIG=
201008060830 METAR LMML NIL=
201008060815 METAR LMML 060815Z 34011KT 300V010 CAVOK 27/18 Q1012 NOSIG=
201008060800 METAR LMML NIL=
201008060745 METAR LMML 060745Z 33013KT 9999 FEW020 26/19 Q1012 NOSIG=
201008060730 METAR LMML NIL=
201008060715 METAR LMML 060715Z 33012KT 300V360 9999 FEW020 26/20 Q1012
                        NOSIG=
201008060700 METAR LMML NIL=
201008060645 METAR LMML 060645Z 32010KT 9999 FEW020 26/20 Q1011 NOSIG=
201008060630 METAR LMML NIL=
201008060615 METAR LMML 060615Z 32011KT 9999 FEW018 24/20 Q1011 NOSIG=
201008060600 METAR LMML NIL=
201008060545 METAR LMML 060545Z 33008KT 300V360 9999 FEW018 23/21 Q1011
                        NOSIG=
201008060530 METAR LMML NIL=
201008060515 METAR LMML 060515Z 32009KT 9999 FEW018 22/21 Q1010 NOSIG=
201008060500 METAR LMML NIL=
201008060445 METAR LMML 060445Z 32009KT 9999 FEW015 22/21 Q1010 NOSIG=
201008060430 METAR LMML NIL=
201008060415 METAR LMML 060415Z 32009KT 9999 FEW015 22/20 Q1010 NOSIG=
201008060400 METAR LMML NIL=
201008060345 METAR LMML 060345Z 31008KT CAVOK 22/20 Q1009 NOSIG=
201008060330 METAR LMML NIL=
201008060315 METAR LMML 060315Z 31008KT CAVOK 22/20 Q1009 NOSIG=
201008060245 METAR LMML 060245Z 32008KT CAVOK 22/20 Q1009 NOSIG=
201008060230 METAR LMML NIL=
201008060215 METAR LMML 060215Z 31008KT CAVOK 22/20 Q1009 NOSIG=
201008060200 METAR LMML NIL=
201008060145 METAR LMML 060145Z 31010KT CAVOK 22/20 Q1009 NOSIG=
201008060130 METAR LMML NIL=
201008060115 METAR LMML 060115Z 31009KT 280V340 CAVOK 22/20 Q1009 NOSIG=
201008060100 METAR LMML NIL=
201008060045 METAR LMML 060045Z 30010KT CAVOK 22/20 Q1009 NOSIG=
201008060030 METAR LMML NIL=
201008060015 METAR LMML 060015Z 29007KT CAVOK 22/20 Q1009 NOSIG=
201008060000 METAR LMML NIL=
201008052345 METAR LMML 052345Z 30009KT 270V330 CAVOK 22/20 Q1009 NOSIG=
201008052330 METAR LMML NIL=
201008052315 METAR LMML 052315Z 30010KT CAVOK 22/20 Q1009 NOSIG=
201008052300 METAR LMML NIL=
201008052245 METAR LMML 052245Z 30008KT CAVOK 22/20 Q1009 NOSIG=
201008052230 METAR LMML NIL=
201008052215 METAR LMML 052215Z 30009KT CAVOK 22/20 Q1009 NOSIG=
201008052200 METAR LMML NIL=
201008052145 METAR LMML 052145Z 30009KT 270V330 9999 FEW015 22/20 Q1009
                        NOSIG=
201008052130 METAR LMML NIL=
201008052115 METAR LMML 052115Z 30011KT 270V330 9999 FEW015 22/20 Q1009
                        NOSIG=
201008052100 METAR LMML NIL=
201008052045 METAR LMML 052045Z 30011KT 270V330 9999 FEW015 23/19 Q1009
                        NOSIG=
201008052030 METAR LMML NIL=
201008052015 METAR LMML 052015Z 30011KT 9999 FEW015 23/19 Q1009 NOSIG=
201008052000 METAR LMML NIL=
201008051945 METAR LMML 051945Z 30011KT 9999 FEW015 23/19 Q1009 NOSIG=
201008051930 METAR LMML NIL=
201008051915 METAR LMML 051915Z 30012KT 9999 FEW015 23/19 Q1009 NOSIG=
201008051900 METAR LMML NIL=
201008051845 METAR LMML 051845Z 32012KT 9999 FEW020 23/19 Q1009 NOSIG=
201008051815 METAR LMML 051815Z 31014KT 9999 FEW020 24/19 Q1008 NOSIG=
201008051800 METAR LMML NIL=
201008051745 METAR LMML 051745Z 32009KT 9999 FEW020 25/17 Q1008 NOSIG=
201008051715 METAR LMML 051715Z 33012KT 9999 FEW015 25/17 Q1008 NOSIG=
201008051700 METAR LMML NIL=
201008051645 METAR LMML 051645Z 33014KT 9999 FEW015 25/19 Q1008 NOSIG=
201008051615 METAR LMML 051615Z 31015KT 280V340 9999 SCT022 27/19 Q1008
                        NOSIG=
201008051545 METAR LMML 051545Z 29016KT 260V330 9999 SCT020 26/20 Q1008
                        NOSIG=
201008051530 METAR LMML NIL=
201008051515 METAR LMML 051515Z 32011KT 280V350 9999 SCT020 27/20 Q1007
                        NOSIG=
201008051500 METAR LMML NIL=
201008051445 METAR LMML 051445Z 32010KT 9999 SCT023 27/20 Q1007 NOSIG=
201008051430 METAR LMML NIL=
201008051415 METAR LMML 051415Z 34009KT 300V010 9999 SCT026 28/20 Q1007
                        NOSIG=
201008051400 METAR LMML NIL=
201008051345 METAR LMML 051345Z 30010KT 270V330 9999 SCT026 28/19 Q1007
                        NOSIG=
201008051330 METAR LMML NIL=
201008051315 METAR LMML 051315Z 33010KT 290V360 9999 SCT027 28/20 Q1007
                        NOSIG=
201008051300 METAR LMML NIL=
201008051245 METAR LMML 051245Z 32010KT 280V360 9999 SCT024 28/20 Q1007
                        NOSIG=
201008051230 METAR LMML NIL=
201008051215 METAR LMML 051215Z 31009KT 280V350 9999 SCT025 27/20 Q1007
                        NOSIG=
201008051200 METAR LMML NIL=
201008051145 METAR LMML 051145Z 30010KT 250V340 9999 SCT025 27/20 Q1007
                        NOSIG=
201008051130 METAR LMML NIL=
201008051115 METAR LMML 051115Z 31012KT 270V340 9999 SCT022 27/20 Q1007
                        NOSIG=
201008051100 METAR LMML NIL=
201008051045 METAR LMML 051045Z 29010KT 250V330 9999 SCT023 27/20 Q1007
                        NOSIG=
201008051030 METAR LMML NIL=
201008051015 METAR LMML 051015Z 30010KT 270V330 9999 SCT022 27/20 Q1007
                        NOSIG=
201008051000 METAR LMML NIL=
201008050945 METAR LMML 050945Z 30009KT 260V330 9999 SCT022 26/20 Q1007
                        NOSIG=
201008050930 METAR LMML NIL=
201008050915 METAR LMML 050915Z 30008KT 250V340 9999 BKN019 26/20 Q1007
                        NOSIG=
201008050900 METAR LMML NIL=
201008050845 METAR LMML 050845Z 29009KT 250V320 9999 BKN017 25/20 Q1008
                        NOSIG=
201008050830 METAR LMML NIL=
201008050815 METAR LMML 050815Z 28010KT 9999 BKN016 25/20 Q1007 NOSIG=
201008050800 METAR LMML NIL=
201008050745 METAR LMML 050745Z 30010KT 240V330 9999 SCT016 25/20 Q1007
                        TEMPO BKN014=
201008050730 METAR LMML NIL=
201008050715 METAR LMML 050715Z 29009KT 260V330 9999 FEW014 25/20 Q1007
                        TEMPO BKN014=
201008050700 METAR LMML NIL=
201008050645 METAR LMML 050645Z 29011KT 260V330 9999 FEW014 24/20 Q1007
                        TEMPO BKN014=
201008050630 METAR LMML NIL=
201008050615 METAR LMML 050615Z 29008KT 260V320 9999 SCT024 24/20 Q1007
                        NOSIG=
201008050600 METAR LMML NIL=
201008050545 METAR LMML 050545Z 28009KT 250V310 9999 FEW025 23/20 Q1007
                        NOSIG=
201008050530 METAR LMML NIL=
201008050515 METAR LMML 050515Z 28009KT 9999 FEW015 22/20 Q1006 NOSIG=
201008050500 METAR LMML NIL=
201008050445 METAR LMML 050445Z 29007KT 260V320 9999 FEW015 22/20 Q1006
                        NOSIG=
201008050430 METAR LMML NIL=
201008050415 METAR LMML 050415Z 30008KT 270V330 9999 FEW015 22/20 Q1006
                        NOSIG=
201008050400 METAR LMML NIL=
201008050345 METAR LMML 050345Z 30010KT 9999 FEW015 22/20 Q1006 NOSIG=
201008050330 METAR LMML NIL=
201008050315 METAR LMML 050315Z 29009KT 9999 FEW015 22/20 Q1006 NOSIG=
201008050300 METAR LMML NIL=
201008050245 METAR LMML 050245Z 30008KT 9999 SCT015 22/20 Q1006 NOSIG=
201008050230 METAR LMML NIL=
201008050215 METAR LMML 050215Z 30009KT 270V330 9999 SCT012 22/20 Q1006
                        NOSIG=
201008050200 METAR LMML NIL=
201008050145 METAR LMML 050145Z 31012KT 9999 FEW012 22/20 Q1006 NOSIG=
201008050130 METAR LMML NIL=
201008050115 METAR LMML 050115Z 32010KT 9999 FEW012 22/19 Q1007 NOSIG=
201008050100 METAR LMML NIL=
201008050045 METAR LMML 050045Z 30012KT CAVOK 22/19 Q1007 NOSIG=
201008050030 METAR LMML NIL=
201008050015 METAR LMML 050015Z 30012KT CAVOK 22/19 Q1007 NOSIG=
201008050000 METAR LMML NIL=
201008042345 METAR LMML 042345Z 30012KT CAVOK 22/19 Q1007 NOSIG=
201008042330 METAR LMML NIL=
201008042315 METAR LMML 042315Z 30011KT CAVOK 22/19 Q1007 NOSIG=
201008042300 METAR LMML NIL=
201008042245 METAR LMML 042245Z 30013KT CAVOK 22/19 Q1007 NOSIG=
201008042230 METAR LMML NIL=
201008042215 METAR LMML 042215Z 30011KT 250V320 CAVOK 22/19 Q1007 NOSIG=
201008042200 METAR LMML NIL=
201008042145 METAR LMML 042145Z 31011KT 280V340 CAVOK 22/19 Q1007 NOSIG=
201008042130 METAR LMML NIL=
201008042115 METAR LMML 042115Z 31012KT CAVOK 23/19 Q1007 NOSIG=
201008042100 METAR LMML NIL=
201008042045 METAR LMML 042045Z 31011KT CAVOK 23/19 Q1008 NOSIG=
201008042030 METAR LMML NIL=
201008042015 METAR LMML 042015Z 30012KT 270V330 CAVOK 23/18 Q1007 NOSIG=
201008041945 METAR LMML 041945Z 29016KT 260V320 CAVOK 23/18 Q1007 NOSIG=
201008041915 METAR LMML 041915Z 29015KT CAVOK 23/19 Q1007 NOSIG=
201008041900 METAR LMML NIL=
201008041845 METAR LMML 041845Z 29013KT 260V320 CAVOK 23/18 Q1007 NOSIG=
201008041830 METAR LMML NIL=
201008041815 METAR LMML 041815Z 29014KT 260V320 CAVOK 24/18 Q1007 NOSIG=
201008041800 METAR LMML NIL=
201008041745 METAR LMML 041745Z 30017KT CAVOK 24/18 Q1007 NOSIG=
201008041730 METAR LMML NIL=
201008041715 METAR LMML 041715Z 31018KT CAVOK 25/18 Q1007 NOSIG=
201008041645 METAR LMML 041645Z 30019KT CAVOK 25/18 Q1007 NOSIG=
201008041630 METAR LMML NIL=
201008041615 METAR LMML 041615Z 30016KT 260V330 CAVOK 26/19 Q1007 NOSIG=
201008041600 METAR LMML NIL=
201008041545 METAR LMML 041545Z 29017KT CAVOK 27/19 Q1007 NOSIG=
201008041530 METAR LMML NIL=
201008041515 METAR LMML 041515Z 30019KT CAVOK 27/18 Q1007 NOSIG=
201008041500 METAR LMML NIL=
201008041445 METAR LMML 041445Z 30019KT 9999 FEW020 27/19 Q1008 NOSIG=
201008041430 METAR LMML NIL=
201008041415 METAR LMML 041415Z 29018KT 260V320 9999 FEW020 27/20 Q1008
                        NOSIG=
201008041400 METAR LMML NIL=
201008041345 METAR LMML 041345Z 30018KT 9999 FEW020 28/19 Q1008 NOSIG=
201008041330 METAR LMML NIL=
201008041315 METAR LMML 041315Z 29016KT 260V320 9999 FEW020 28/19 Q1008
                        NOSIG=
201008041245 METAR LMML 041245Z 30017KT 9999 FEW020 28/18 Q1008 NOSIG=
201008041215 METAR LMML 041215Z 30016KT 9999 FEW020 29/19 Q1008 NOSIG=
201008041145 METAR LMML 041145Z 31014KT 9999 FEW020 30/20 Q1008 NOSIG=
201008041115 METAR LMML 041115Z 31014KT 9999 FEW020 30/20 Q1008 NOSIG=
201008041100 METAR LMML NIL=
201008041045 METAR LMML 041045Z 31014KT 280V340 9999 FEW020 29/20 Q1008
                        NOSIG=
201008041030 METAR LMML NIL=
201008041015 METAR LMML 041015Z 31014KT 9999 FEW020 28/21 Q1009 NOSIG=
201008041000 METAR LMML NIL=
201008040945 METAR LMML 040945Z 30013KT 260V330 9999 FEW020 29/20 Q1009
                        NOSIG=
201008040930 METAR LMML NIL=
201008040915 METAR LMML 040915Z 31010KT 270V340 9999 FEW020 28/20 Q1009
                        NOSIG=
201008040900 METAR LMML NIL=
201008040845 METAR LMML 040845Z 33010KT 290V360 9999 FEW015 28/20 Q1008
                        NOSIG=
201008040830 METAR LMML NIL=
201008040815 METAR LMML 040815Z 33010KT 290V360 9999 FEW015 27/20 Q1008
                        NOSIG=
201008040745 METAR LMML 040745Z 33008KT 270V010 9999 FEW019 27/20 Q1008
                        NOSIG=
201008040730 METAR LMML NIL=
201008040715 METAR LMML 040715Z 32009KT 280V340 9999 FEW016 26/20 Q1008
                        NOSIG=
201008040645 METAR LMML 040645Z 31011KT 280V340 9999 FEW016 25/20 Q1008
                        NOSIG=
201008040615 METAR LMML 040615Z 31008KT 280V340 9999 FEW020 25/20 Q1008
                        NOSIG=
201008040545 METAR LMML 040545Z 31008KT 9999 FEW020 24/20 Q1008 NOSIG=
201008040530 METAR LMML NIL=
201008040515 METAR LMML 040515Z 31007KT 9999 FEW020 23/20 Q1008 NOSIG=
201008040500 METAR LMML NIL=
201008040445 METAR LMML 040445Z 31006KT 9999 FEW020 23/20 Q1008 NOSIG=
201008040430 METAR LMML NIL=
201008040415 METAR LMML 040415Z 32007KT 9999 FEW020 23/20 Q1007 NOSIG=
201008040400 METAR LMML NIL=
201008040345 METAR LMML 040345Z 32008KT 9999 FEW020 23/20 Q1007 NOSIG=
201008040330 METAR LMML NIL=
201008040315 METAR LMML 040315Z 32006KT CAVOK 23/20 Q1007 NOSIG=
201008040300 METAR LMML NIL=
201008040245 METAR LMML 040245Z 31010KT CAVOK 23/20 Q1007 NOSIG=
201008040230 METAR LMML NIL=
201008040215 METAR LMML 040215Z 30009KT CAVOK 23/19 Q1007 NOSIG=
201008040200 METAR LMML NIL=
201008040145 METAR LMML 040145Z 29009KT CAVOK 23/20 Q1007 NOSIG=
201008040130 METAR LMML NIL=
201008040115 METAR LMML 040115Z 29009KT CAVOK 23/19 Q1008 NOSIG=
201008040100 METAR LMML NIL=
201008040045 METAR LMML 040045Z 28009KT 250V310 CAVOK 23/19 Q1008 NOSIG=
201008040015 METAR LMML 040015Z 26004KT 210V310 CAVOK 23/19 Q1009 NOSIG=
201008040000 METAR LMML NIL=
201008032345 METAR LMML 032345Z 25005KT 200V300 CAVOK 23/18 Q1009 NOSIG=
201008032330 METAR LMML NIL=
201008032315 METAR LMML 032315Z 27007KT 240V300 CAVOK 23/19 Q1009 NOSIG=
201008032300 METAR LMML NIL=
201008032245 METAR LMML 032245Z 27007KT CAVOK 23/21 Q1009 NOSIG=
201008032215 METAR LMML 032215Z 26007KT 230V290 CAVOK 24/21 Q1009 NOSIG=
201008032200 METAR LMML NIL=
201008032145 METAR LMML 032145Z 26006KT 210V290 CAVOK 24/21 Q1009 NOSIG=
201008032130 METAR LMML NIL=
201008032115 METAR LMML 032115Z 26006KT CAVOK 24/21 Q1010 NOSIG=
201008032100 METAR LMML NIL=
201008032045 METAR LMML 032045Z 24004KT 220V280 9999 FEW020 24/21 Q1010
                        NOSIG=
201008032030 METAR LMML NIL=
201008032015 METAR LMML 032015Z 26005KT 230V300 9999 FEW020 24/21 Q1010
                        NOSIG=
201008032000 METAR LMML NIL=
201008031945 METAR LMML 031945Z 27004KT 230V300 9999 FEW020 24/21 Q1010
                        NOSIG=
201008031930 METAR LMML NIL=
201008031915 METAR LMML 031915Z 27004KT 240V310 9999 FEW020 24/21 Q1010
                        NOSIG=
201008031900 METAR LMML NIL=
201008031845 METAR LMML 031845Z 28007KT 9999 FEW020 24/20 Q1010 NOSIG=
201008031830 METAR LMML NIL=
201008031815 METAR LMML 031815Z 28007KT 240V300 9999 FEW020 25/20 Q1010
                        NOSIG=
201008031800 METAR LMML NIL=
201008031745 METAR LMML 031745Z 29008KT 260V320 9999 FEW020 25/19 Q1010
                        NOSIG=
201008031730 METAR LMML NIL=
201008031715 METAR LMML 031715Z 28009KT 260V330 9999 FEW020 26/20 Q1010
                        NOSIG=
201008031700 METAR LMML NIL=
201008031645 METAR LMML 031645Z 30010KT 9999 FEW020 27/19 Q1009 NOSIG=
201008031630 METAR LMML NIL=
201008031615 METAR LMML 031615Z 29009KT 260V320 9999 FEW020 27/19 Q1010
                        NOSIG=
201008031600 METAR LMML NIL=
201008031545 METAR LMML 031545Z 28009KT 240V320 9999 FEW025 27/20 Q1010
                        NOSIG=
201008031530 METAR LMML NIL=
201008031515 METAR LMML 031515Z 28010KT 240V310 9999 FEW025 28/20 Q1010
                        NOSIG=
201008031500 METAR LMML NIL=
201008031445 METAR LMML 031445Z 27009KT 230V310 9999 FEW025 28/19 Q1010
                        NOSIG=
201008031430 METAR LMML NIL=
201008031415 METAR LMML 031415Z 26008KT 210V290 9999 FEW025 28/19 Q1010
                        NOSIG=
201008031400 METAR LMML NIL=
201008031345 METAR LMML 031345Z 26009KT 180V310 9999 FEW025 28/19 Q1010
                        NOSIG=
201008031330 METAR LMML NIL=
201008031315 METAR LMML 031315Z 26008KT 200V320 9999 FEW025 28/19 Q1011
                        NOSIG=
201008031300 METAR LMML NIL=
201008031245 METAR LMML 031245Z 24008KT 190V290 9999 FEW025 28/18 Q1011
                        NOSIG=
201008031230 METAR LMML NIL=
201008031215 METAR LMML 031215Z 24006KT 180V320 9999 FEW025 30/20 Q1011
                        NOSIG=
201008031200 METAR LMML NIL=
201008031145 METAR LMML 031145Z 29008KT 250V330 9999 FEW025 30/18 Q1011
                        NOSIG=
201008031130 METAR LMML NIL=
201008031115 METAR LMML 031115Z 27005KT 210V330 9999 FEW025 29/17 Q1011
                        NOSIG=
201008031100 METAR LMML NIL=
201008031045 METAR LMML 031045Z 26007KT 230V330 9999 FEW025 29/14 Q1011
                        NOSIG=
201008031030 METAR LMML NIL=
201008031015 METAR LMML 031015Z 27007KT 220V320 9999 FEW025 29/14 Q1012
                        NOSIG=
201008031000 METAR LMML NIL=
201008030945 METAR LMML 030945Z 28008KT 240V320 9999 FEW020 29/16 Q1012
                        NOSIG=
201008030930 METAR LMML NIL=
201008030915 METAR LMML 030915Z 29007KT 250V320 9999 FEW020 30/16 Q1012
                        NOSIG=
201008030900 METAR LMML NIL=
201008030845 METAR LMML 030845Z 34005KT 9999 FEW020 28/19 Q1012 NOSIG=
201008030830 METAR LMML NIL=
201008030815 METAR LMML 030815Z 20004KT 140V280 9999 FEW020 27/20 Q1012
                        NOSIG=
201008030800 METAR LMML NIL=
201008030745 METAR LMML 030745Z VRB03KT 9999 FEW015 27/17 Q1012 NOSIG=
201008030730 METAR LMML NIL=
201008030715 METAR LMML 030715Z VRB02KT 9999 FEW015 26/19 Q1012 NOSIG=
201008030700 METAR LMML NIL=
201008030645 METAR LMML 030645Z VRB02KT 9999 FEW015 25/20 Q1012 NOSIG=
201008030630 METAR LMML NIL=
201008030615 METAR LMML 030615Z VRB01KT 9999 FEW015 24/21 Q1011 NOSIG=
201008030600 METAR LMML NIL=
201008030545 METAR LMML 030545Z VRB02KT 9999 FEW015 23/21 Q1012 NOSIG=
201008030530 METAR LMML NIL=
201008030515 METAR LMML 030515Z VRB03KT 9999 FEW015 22/21 Q1012 NOSIG=
201008030500 METAR LMML NIL=
201008030445 METAR LMML 030445Z VRB03KT 9999 FEW015 22/20 Q1012 NOSIG=
201008030430 METAR LMML NIL=
201008030415 METAR LMML 030415Z 28004KT 240V310 9999 FEW015 22/20 Q1012
                        NOSIG=
201008030400 METAR LMML NIL=
201008030345 METAR LMML 030345Z VRB03KT 9999 FEW020 22/20 Q1012 NOSIG=
201008030330 METAR LMML NIL=
201008030315 METAR LMML 030315Z VRB03KT 9999 FEW020 22/21 Q1012 NOSIG=
201008030300 METAR LMML NIL=
201008030245 METAR LMML 030245Z VRB02KT 9999 FEW020 22/20 Q1012 NOSIG=
201008030230 METAR LMML NIL=
201008030215 METAR LMML 030215Z VRB03KT 9999 FEW020 22/21 Q1012 NOSIG=
201008030200 METAR LMML NIL=
201008030145 METAR LMML 030145Z VRB03KT 9999 FEW020 22/21 Q1012 NOSIG=
201008030130 METAR LMML NIL=
201008030115 METAR LMML 030115Z 28004KT 250V310 CAVOK 22/20 Q1013 NOSIG=
201008030100 METAR LMML NIL=
201008030045 METAR LMML 030045Z 28005KT CAVOK 22/20 Q1013 NOSIG=
201008030030 METAR LMML NIL=
201008030015 METAR LMML 030015Z VRB03KT CAVOK 22/20 Q1013 NOSIG=
201008030000 METAR LMML NIL=
201008022345 METAR LMML 022345Z VRB03KT CAVOK 22/20 Q1013 NOSIG=
201008022330 METAR LMML NIL=
201008022315 METAR LMML 022315Z VRB03KT 9999 FEW030 22/20 Q1014 NOSIG=
201008022300 METAR LMML NIL=
201008022245 METAR LMML 022245Z VRB03KT 9999 FEW030 23/20 Q1014 NOSIG=
201008022230 METAR LMML NIL=
201008022215 METAR LMML 022215Z VRB03KT 9999 FEW030 23/20 Q1014 NOSIG=
201008022200 METAR LMML NIL=
201008022145 METAR LMML 022145Z VRB03KT CAVOK 23/20 Q1014 NOSIG=
201008022130 METAR LMML NIL=
201008022115 METAR LMML 022115Z VRB03KT CAVOK 23/20 Q1014 NOSIG=
201008022100 METAR LMML NIL=
201008022045 METAR LMML 022045Z VRB02KT CAVOK 23/21 Q1014 NOSIG=
201008022030 METAR LMML NIL=
201008022015 METAR LMML 022015Z VRB03KT 9999 FEW020 23/20 Q1014 NOSIG=
201008022000 METAR LMML NIL=
201008021945 METAR LMML 021945Z 29004KT CAVOK 24/20 Q1014 NOSIG=
201008021930 METAR LMML NIL=
201008021915 METAR LMML 021915Z 28004KT CAVOK 24/20 Q1014 NOSIG=
201008021900 METAR LMML NIL=
201008021845 METAR LMML 021845Z 28006KT CAVOK 24/20 Q1014 NOSIG=
201008021830 METAR LMML NIL=
201008021815 METAR LMML 021815Z 28005KT CAVOK 25/19 Q1014 NOSIG=
201008021800 METAR LMML NIL=
201008021745 METAR LMML 021745Z 28005KT CAVOK 26/17 Q1013 NOSIG=
201008021730 METAR LMML NIL=
201008021715 METAR LMML 021715Z 27004KT 220V300 CAVOK 27/16 Q1013 NOSIG=
201008021700 METAR LMML NIL=
201008021645 METAR LMML 021645Z 28005KT 240V310 CAVOK 28/17 Q1013 NOSIG=
201008021630 METAR LMML NIL=
201008021615 METAR LMML 021615Z 25005KT 200V300 9999 FEW025 29/17 Q1013
                        NOSIG=
201008021600 METAR LMML NIL=
201008021545 METAR LMML 021545Z 22006KT 170V290 9999 FEW025 29/17 Q1014
                        NOSIG=
201008021530 METAR LMML NIL=
201008021515 METAR LMML 021515Z 08006KT 350V200 9999 FEW031 29/17 Q1014
                        NOSIG=
201008021500 METAR LMML NIL=
201008021445 METAR LMML 021445Z VRB02KT 9999 FEW031 30/21 Q1014 NOSIG=
201008021430 METAR LMML NIL=
201008021415 METAR LMML 021415Z 07005KT 9999 FEW031 30/21 Q1014 NOSIG=
201008021400 METAR LMML NIL=
201008021345 METAR LMML 021345Z VRB03KT 9999 FEW031 30/21 Q1015 NOSIG=
201008021330 METAR LMML NIL=
201008021315 METAR LMML 021315Z 03004KT 340V110 9999 FEW031 29/20 Q1015
                        NOSIG=
201008021300 METAR LMML NIL=
201008021245 METAR LMML 021245Z 02004KT 310V080 9999 FEW028 28/20 Q1015
                        NOSIG=
201008021230 METAR LMML NIL=
201008021215 METAR LMML 021215Z 03004KT 360V100 9999 FEW026 29/21 Q1015
                        NOSIG=
201008021145 METAR LMML 021145Z 04007KT 360V070 9999 FEW029 28/20 Q1015
                        NOSIG=
201008021130 METAR LMML NIL=
201008021115 METAR LMML 021115Z 05006KT 360V120 9999 FEW030 29/20 Q1016
                        NOSIG=
201008021100 METAR LMML NIL=
201008021045 METAR LMML 021045Z 03007KT 010V080 9999 FEW029 28/19 Q1016
                        NOSIG=
201008021015 METAR LMML 021015Z 04004KT 360V110 9999 FEW034 28/20 Q1016
                        NOSIG=
201008021000 METAR LMML NIL=
201008020945 METAR LMML 020945Z 23006KT 190V280 9999 FEW033 27/16 Q1016
                        NOSIG=
201008020930 METAR LMML NIL=
201008020915 METAR LMML 020915Z 23005KT 180V270 9999 FEW025 27/17 Q1016
                        NOSIG=
201008020900 METAR LMML NIL=
201008020845 METAR LMML 020845Z 21005KT 180V270 CAVOK 27/17 Q1017 NOSIG=
201008020830 METAR LMML NIL=
201008020815 METAR LMML 020815Z 21004KT 090V290 9999 FEW025 27/18 Q1017
                        NOSIG=
201008020800 METAR LMML NIL=
201008020745 METAR LMML 020745Z VRB03KT 9999 FEW025 27/17 Q1017 NOSIG=
201008020730 METAR LMML NIL=
201008020715 METAR LMML 020715Z VRB02KT 9999 FEW025 26/18 Q1017 NOSIG=
201008020700 METAR LMML NIL=
201008020645 METAR LMML 020645Z VRB03KT 9999 FEW015 25/18 Q1017 NOSIG=
201008020630 METAR LMML NIL=
201008020615 METAR LMML 020615Z VRB03KT 9999 FEW015 24/18 Q1017 NOSIG=
201008020600 METAR LMML NIL=
201008020545 METAR LMML 020545Z VRB01KT CAVOK 23/19 Q1017 NOSIG=
201008020530 METAR LMML NIL=
201008020515 METAR LMML 020515Z VRB02KT CAVOK 22/19 Q1016 NOSIG=
201008020500 METAR LMML NIL=
201008020445 METAR LMML 020445Z VRB02KT CAVOK 21/18 Q1016 NOSIG=
201008020430 METAR LMML NIL=
201008020415 METAR LMML 020415Z VRB01KT CAVOK 21/18 Q1016 NOSIG=
201008020400 METAR LMML NIL=
201008020345 METAR LMML 020345Z VRB02KT CAVOK 21/18 Q1016 NOSIG=
201008020330 METAR LMML NIL=
201008020315 METAR LMML 020315Z VRB03KT CAVOK 21/19 Q1016 NOSIG=
201008020300 METAR LMML NIL=
201008020245 METAR LMML 020245Z VRB02KT CAVOK 21/19 Q1016 NOSIG=
201008020230 METAR LMML NIL=
201008020215 METAR LMML 020215Z VRB02KT CAVOK 22/19 Q1016 NOSIG=
201008020145 METAR LMML 020145Z VRB01KT CAVOK 22/19 Q1016 NOSIG=
201008020130 METAR LMML NIL=
201008020115 METAR LMML 020115Z VRB02KT CAVOK 22/19 Q1016 NOSIG=
201008020100 METAR LMML NIL=
201008020045 METAR LMML 020045Z VRB01KT CAVOK 22/19 Q1016 NOSIG=
201008020030 METAR LMML NIL=
201008020015 METAR LMML 020015Z VRB01KT CAVOK 22/19 Q1016 NOSIG=
201008020000 METAR LMML NIL=
201008012345 METAR LMML 012345Z VRB02KT 9999 FEW020 22/19 Q1017 NOSIG=
201008012315 METAR LMML 012315Z VRB02KT 9999 FEW020 23/19 Q1017 NOSIG=
201008012300 METAR LMML NIL=
201008012245 METAR LMML 012245Z VRB02KT 9999 FEW020 23/19 Q1017 NOSIG=
201008012230 METAR LMML NIL=
201008012215 METAR LMML 012215Z VRB02KT 9999 FEW020 23/20 Q1017 NOSIG=
201008012200 METAR LMML NIL=
201008012145 METAR LMML 012145Z VRB02KT 9999 FEW020 23/20 Q1017 NOSIG=
201008012115 METAR LMML 012115Z VRB01KT 9999 FEW020 24/19 Q1017 NOSIG=
201008012100 METAR LMML NIL=
201008012045 METAR LMML 012045Z VRB01KT 9999 FEW020 24/19 Q1017 NOSIG=
201008012030 METAR LMML NIL=
201008012015 METAR LMML 012015Z VRB02KT 9999 FEW025 24/19 Q1017 NOSIG=
201008011945 METAR LMML 011945Z VRB02KT 9999 FEW026 24/19 Q1017 NOSIG=
201008011930 METAR LMML NIL=
201008011915 METAR LMML 011915Z VRB03KT 9999 FEW028 24/19 Q1017 NOSIG=
201008011900 METAR LMML NIL=
201008011845 METAR LMML 011845Z VRB03KT 9999 FEW028 25/19 Q1016 NOSIG=
201008011830 METAR LMML NIL=
201008011815 METAR LMML 011815Z VRB03KT 9999 FEW028 25/19 Q1016 NOSIG=
201008011800 METAR LMML NIL=
201008011745 METAR LMML 011745Z 12004KT 060V160 9999 FEW030 26/19 Q1016
                        NOSIG=
201008011730 METAR LMML NIL=
201008011715 METAR LMML 011715Z 10004KT 030V150 9999 FEW030 26/19 Q1016
                        NOSIG=
201008011700 METAR LMML NIL=
201008011645 METAR LMML 011645Z 06004KT 010V120 9999 FEW030 28/18 Q1016
                        NOSIG=
201008011630 METAR LMML NIL=
201008011615 METAR LMML 011615Z 02004KT 300V110 9999 FEW030 29/19 Q1016
                        NOSIG=
201008011545 METAR LMML 011545Z 03005KT 360V090 9999 FEW030 29/17 Q1016
                        NOSIG=
201008011530 METAR LMML NIL=
201008011515 METAR LMML 011515Z 03005KT 310V120 9999 FEW035 30/16 Q1016
                        NOSIG=
201008011500 METAR LMML NIL=
201008011445 METAR LMML 011445Z 21006KT 9999 FEW035 29/16 Q1016 NOSIG=
201008011430 METAR LMML NIL=
201008011415 METAR LMML 011415Z 06004KT 340V210 9999 FEW035 30/16 Q1016
                        NOSIG=
201008011400 METAR LMML NIL=
201008011345 METAR LMML 011345Z 04006KT 350V090 9999 FEW035 31/17 Q1017
                        NOSIG=
201008011330 METAR LMML NIL=
201008011315 METAR LMML 011315Z 04007KT 360V080 9999 FEW038 29/16 Q1017
                        NOSIG=
201008011300 METAR LMML NIL=
201008011245 METAR LMML 011245Z 04006KT 350V170 9999 FEW038 28/17 Q1017
                        NOSIG=
201008011230 METAR LMML NIL=
201008011215 METAR LMML 011215Z 04007KT 340V100 9999 FEW000 30/17 Q1017
                        NOSIG=
201008011200 METAR LMML NIL=
201008011145 METAR LMML 011145Z 05007KT 360V100 9999 FEW033 29/17 Q1017
                        NOSIG=
201008011130 METAR LMML NIL=
201008011115 METAR LMML 011115Z 02007KT 350V080 9999 FEW029 28/18 Q1017
                        NOSIG=
201008011100 METAR LMML NIL=
201008011045 METAR LMML 011045Z 02007KT 350V050 9999 FEW029 28/19 Q1017
                        NOSIG=
201008011030 METAR LMML NIL=
201008011015 METAR LMML 011015Z 03007KT 360V070 9999 FEW025 28/19 Q1017
                        NOSIG=
201008011000 METAR LMML NIL=
201008010945 METAR LMML 010945Z 03008KT 360V060 9999 FEW025 28/19 Q1017
                        NOSIG=
201008010930 METAR LMML NIL=
201008010915 METAR LMML 010915Z 03008KT 360V060 9999 FEW025 28/19 Q1017
                        NOSIG=
201008010900 METAR LMML NIL=
201008010845 METAR LMML 010845Z 03008KT 360V080 CAVOK 27/19 Q1017 NOSIG=
201008010830 METAR LMML NIL=
201008010815 METAR LMML 010815Z 02008KT CAVOK 27/18 Q1017 NOSIG=
201008010800 METAR LMML NIL=
201008010745 METAR LMML 010745Z 03009KT CAVOK 26/19 Q1017 NOSIG=
201008010730 METAR LMML NIL=
201008010715 METAR LMML 010715Z 02009KT 360V060 9999 FEW020 26/19 Q1017
                        NOSIG=
201008010700 METAR LMML NIL=
201008010645 METAR LMML 010645Z 03009KT 9999 FEW020 26/19 Q1017 NOSIG=
201008010630 METAR LMML NIL=
201008010615 METAR LMML 010615Z 02007KT 360V060 9999 FEW020 25/20 Q1016
                        NOSIG=
201008010600 METAR LMML NIL=
201008010545 METAR LMML 010545Z 05008KT 020V080 9999 FEW018 25/19 Q1016
                        NOSIG=
201008010530 METAR LMML NIL=
201008010515 METAR LMML 010515Z 04007KT 010V080 9999 FEW015 24/19 Q1016
                        NOSIG=
201008010500 METAR LMML NIL=
201008010445 METAR LMML 010445Z 04005KT 010V100 9999 FEW012 24/20 Q1016
                        NOSIG=
201008010430 METAR LMML NIL=
201008010415 METAR LMML 010415Z 04005KT 020V080 9999 FEW012 23/19 Q1015
                        NOSIG=
201008010400 METAR LMML NIL=
201008010345 METAR LMML 010345Z 05005KT 010V080 CAVOK 23/19 Q1015 NOSIG=
201008010330 METAR LMML NIL=
201008010315 METAR LMML 010315Z 04005KT 360V080 CAVOK 23/19 Q1015 NOSIG=
201008010300 METAR LMML NIL=
201008010245 METAR LMML 010245Z 05006KT 020V090 CAVOK 23/20 Q1015 NOSIG=
201008010215 METAR LMML 010215Z 03007KT CAVOK 23/20 Q1015 NOSIG=
201008010145 METAR LMML 010145Z 03004KT 340V060 CAVOK 23/20 Q1015 NOSIG=
201008010130 METAR LMML NIL=
201008010115 METAR LMML 010115Z 03005KT 360V070 CAVOK 23/19 Q1015 NOSIG=
201008010100 METAR LMML NIL=
201008010045 METAR LMML 010045Z 03004KT 010V070 CAVOK 24/19 Q1015 NOSIG=
201008010030 METAR LMML NIL=
201008010015 METAR LMML 010015Z 04005KT 010V090 CAVOK 24/19 Q1015 NOSIG=

###################################
#  short TAF from LMML
###################################
201008312300 TAF LMML 312300Z 0100/0109 36010KT 9999 FEW030
                      TEMPO 0100/0109 CAVOK
                      BECMG 0105/0108 06005KT=
201008312000 TAF LMML 312000Z 3121/0106 35015KT 9999 FEW025
                      TEMPO 3121/0106 CAVOK
                      BECMG 0103/0106 36005KT=
201008311700 TAF LMML 311700Z 3118/0103 32020KT 9999 FEW030
                      BECMG 3123/0102 33010KT=
201008311400 TAF LMML 311400Z 3115/3124 31019G30KT 9999 FEW030
                      BECMG 3116/3119 32015KT=
201008311100 TAF LMML 311100Z 3112/3121 30026KT 9999 FEW030
                      PROB30 TEMPO 3112/3116 32026G36KT=
201008310800 TAF LMML 310800Z 3109/3118 36018KT 9999 FEW030=
201008310500 TAF LMML 310500Z 3106/3115 30018KT 9999 FEW025=
201008310200 TAF LMML 310200Z 3103/3112 30015KT 9999 FEW020
                      TEMPO 3103/3112 CAVOK=
201008302300 TAF LMML 302300Z 3100/3109 29015KT CAVOK
                      TEMPO 3102/3109 9999 FEW018=
201008302000 TAF LMML 302000Z 3021/3106 29015KT 9999 FEW018
                      TEMPO 3021/3106 CAVOK=
201008301700 TAF LMML 301700Z 3018/3103 31018KT 9999 FEW015
                      TEMPO 3018/3103 CAVOK=
201008301400 TAF LMML 301400Z 3015/3024 30018KT 9999 FEW015
                      TEMPO 3015/3024 CAVOK=
201008301100 TAF LMML 301100Z 3012/3021 29018KT 9999 FEW018=
201008300800 TAF LMML 300800Z 3009/3018 29018KT 9999 FEW018=
201008300500 TAF LMML 300500Z 3006/3015 31015KT 9999 FEW015=
201008300200 TAF LMML 300200Z 3003/3012 30012KT CAVOK
                      TEMPO 3003/3012 9999 FEW015=
201008292300 TAF LMML 292300Z 3000/3009 30012KT CAVOK
                      TEMPO 3000/3009 9999 FEW015=
201008292000 TAF LMML 292000Z 2921/3006 30012KT 9999 FEW015
                      TEMPO 2921/3005 CAVOK=
201008291700 TAF LMML 291700Z 2918/3003 30013KT CAVOK
                      TEMPO 2922/3003 8000 SCT015=
201008291400 TAF LMML 291400Z 2915/2924 30018KT 9999 FEW025
                      TEMPO 2915/2924 CAVOK=
201008291100 TAF LMML 291100Z 2912/2921 30018KT 9999 FEW025
                      TEMPO 2912/2921 CAVOK=
201008290800 TAF LMML 290800Z 2909/2918 32018KT 9999 FEW025=
201008290500 TAF LMML 290500Z 2906/2915 32015KT 9999 FEW015
                      PROB3O TEMPO 2911/2917 32015G25KT=
201008290200 TAF LMML 290200Z 2903/2912 28010KT CAVOK
                      BECMG 2906/2909 30020KT 9999 SCT012=
201008282300 TAF LMML 282300Z 2900/2909 27007KT CAVOK
                      BECMG 2903/2906 30017KT 9999 SCT012=
201008282000 TAF LMML 282000Z 2821/2906 27007KT CAVOK
                      BECMG 2900/2903 30017KT 9999 SCT012=
201008281700 TAF LMML 281700Z 2818/2903 29013KT CAVOK=
201008281400 TAF LMML 281400Z 2815/2824 29013KT CAVOK=
201008281100 TAF LMML 281100Z 2812/2821 29013KT CAVOK=
201008280800 TAF LMML 280800Z 2809/2818 28013KT CAVOK=
201008280500 TAF LMML 280500Z 2806/2815 28010KT CAVOK=
201008280200 TAF LMML 280200Z 2803/2812 27008KT CAVOK=
201008272300 TAF LMML 272300Z 2800/2809 27006KT CAVOK=
201008272000 TAF LMML 272000Z 2721/2806 27008KT CAVOK=
201008271700 TAF LMML 271700Z 2718/2803 26006KT 9999 FEW015
                      BECMG 2718/2721 CAVOK
                      PROB30 TEMPO 2800/2803 9000 FEW012=
201008271400 TAF LMML 271400Z 2715/2724 27008KT CAVOK
                      TEMPO 2715/2724 9999 FEW020=
201008271100 TAF LMML 271100Z 2712/2721 24007KT 9999 FEW020
                      TEMPO 2712/2721 CAVOK=
201008270800 TAF LMML 270800Z 2709/2718 27006KT CAVOK
                      PROB30 TEMPO 2709/2718 9999 FEW020=
201008270500 TAF LMML 270500Z 2706/2715 25005KT CAVOK
                      PROB30 TEMPO 2706/2715 9999 FEW020=
201008270200 TAF LMML 270200Z 2703/2712 25005KT CAVOK
                      PROB30 TEMPO 2703/2705 8000 FEW008=
201008262300 TAF LMML 262300Z 2700/2709 VRB03KT CAVOK
                      PROB30 TEMPO 2702/2705 8000 FEW008=
201008262000 TAF LMML 262000Z 2621/2706 VRB03KT CAVOK
                      PROB30 TEMPO 2702/2705 8000 FEW008=
201008261700 TAF LMML 261700Z 2618/2703 VRB03KT CAVOK
                      PROB30 TEMPO 2700/2703 8000 FEW005=
201008261400 TAF LMML 261400Z 2615/2624 VRB05KT 9999 FEW025
                      BECMG 2615/2618 CAVOK=
201008261100 TAF LMML 261100Z 2612/2621 VRB05KT CAVOK=
201008260800 TAF LMML 260800Z 2609/2618 VRB05KT CAVOK=
201008260500 TAF LMML 260500Z 2606/2615 VRB05KT 9999 FEW015=
201008260200 TAF LMML 260200Z 2603/2612 29005KT CAVOK
                      TEMPO 2603/2612 9999 FEW015
                      PROB30 TEMPO 2603/2606 8000 BKN010=
201008252300 TAF LMML 252300Z 2600/2609 29005KT CAVOK
                      TEMPO 2600/2609 9999 FEW015
                      PROB30 TEMPO 2600/2606 8000 BKN010=
201008252000 TAF LMML 252000Z 2521/2606 29005KT 9999 FEW015
                      PROB30 TEMPO 2600/2606 8000 BKN010=
201008251700 TAF LMML 251700Z 2518/2603 28005KT 9999 FEW018
                      TEMPO 2518/2603 CAVOK=
201008251623 TAF LMML 251623Z 2515/2524 30010KT 9999 FEW025
                      TEMPO 2515/2524 CAVOK=
201008251400 TAF LMML 251400Z 2512/2524 30010KT 9999 FEW025
                      TEMPO 2515/2524 CAVOK=
201008251100 TAF LMML 251100Z 2512/2521 30012KT 9999 FEW025
                      TEMPO 2512/2521 CAVOK=
201008250800 TAF LMML 250800Z 2509/2518 30012KT CAVOK
                      PROB30 TEMPO 2509/2518 9999 FEW025=
201008250500 TAF LMML 250500Z 2506/2515 28010KT CAVOK
                      TEMPO 2506/2515 9999 FEW020=
201008250200 TAF LMML 250200Z 2503/2512 28006KT CAVOK
                      TEMPO 2503/2512 9999 FEW015
                      PROB30 TEMPO 2503/2506 8000 SCT008=
201008242300 TAF LMML 242300Z 2500/2509 28006KT CAVOK
                      PROB30 TEMPO 2500/2509 9999 FEW015=
201008242000 TAF LMML 242000Z 2421/2506 28006KT CAVOK
                      PROB30 TEMPO 2500/2506 9999 FEW015=
201008241700 TAF LMML 241700Z 2418/2503 28008KT 9999 FEW015
                      TEMPO 2418/2503 CAVOK=
201008241400 TAF LMML 241400Z 2415/2424 27008KT 9999 FEW015
                      TEMPO 2415/2424 CAVOK=
201008241100 TAF LMML 241100Z 2412/2421 27008KT 9999 FEW015
                      PROB40 TEMPO 2412/2421 CAVOK=
201008240800 TAF LMML 240800Z 2409/2418 27006KT 9999 FEW015
                      PROB40 TEMPO 2409/2418 CAVOK=
201008240500 TAF LMML 240500Z 2406/2415 27006KT CAVOK
                      TEMPO 2408/2415 9999 FEW015=
201008240200 TAF LMML 240200Z 2403/2412 27005KT 9999 FEW012
                      TEMPO 2403/2406 5000 BR=
201008232300 TAF LMML 232300Z 2400/2409 VRB03KT CAVOK
                      TEMPO 2403/2406 5000 BR FEW008=
201008232000 TAF LMML 232000Z 2321/2406 VRB03KT 9999 FEW011
                      PROB30 TEMPO 2403/2406 5000 BR=
201008231700 TAF LMML 231700Z 2318/2403 08006KT 9999 FEW020
                      TEMPO 2318/2403 CAVOK=
201008231400 TAF LMML 231400Z 2315/2324 04008KT 9999 FEW020
                      TEMPO 2315/2324 CAVOK=
201008231100 TAF LMML 231100Z 2312/2321 05008KT 9999 FEW020
                      TEMPO 2315/2321 CAVOK=
201008230800 TAF LMML 230800Z 2309/2318 06008KT 9999 FEW020
                      TEMPO 2309/2318 CAVOK=
201008230500 TAF LMML 230500Z 2306/2315 04005KT 9999 FEW018
                      TEMPO 2306/2315 CAVOK=
201008230200 TAF LMML 230200Z 2303/2312 03004KT 9999 FEW012=
201008222300 TAF LMML 222300Z 2300/2309 03004KT 9999 FEW012
                      PROB30 TEMPO 2300/2305 BKN008=
201008222000 TAF LMML 222000Z 2221/2306 35005KT 9999 FEW012
                      PROB30 TEMPO 2221/2305 BKN008=
201008221700 TAF LMML 221700Z 2218/2303 36005KT 9999 FEW012
                      TEMPO 2218/2303 CAVOK
                      PROB30 TEMPO 2223/2303 8000 BKN005=
201008221400 TAF LMML 221400Z 2215/2224 36005KT 9999 FEW015
                      PROB30 TEMPO 2221/2224 BKN008=
201008221100 TAF LMML 221100Z 2212/2221 36005KT CAVOK
                      TEMPO 2212/2221 9999 FEW015=
201008220800 TAF LMML 220800Z 2209/2218 35010KT 9999 FEW015=
201008220500 TAF LMML 220500Z 2206/2215 31012KT 9999 FEW015=
201008220200 TAF LMML 220200Z 2203/2212 30015KT 9999 SCT012
                      PROB30 TEMPO 2203/2206 BKN005=
201008212300 TAF LMML 212300Z 2200/2209 29010KT 9999 SCT010
                      PROB30 TEMPO 2200/2206 BKN005=
201008212000 TAF LMML 212000Z 2121/2206 29010KT CAVOK
                      BECMG 2121/2200 9999 SCT010
                      PROB30 TEMPO 2200/2206 8000 BKN005=
201008211700 TAF LMML 211700Z 2118/2203 VRB03KT CAVOK
                      PROB30 TEMPO 2201/2203 8000 SCT003=
201008211400 TAF LMML 211400Z 2115/2124 VRB05KT CAVOK
                      PROB30 TEMPO 2121/2124 8000 SCT005=
201008211100 TAF LMML 211100Z 2112/2124 VRB05KT CAVOK
                      PROB30 TEMPO 2121/2124 8000 SCT005=
201008210800 TAF LMML 210800Z 2109/2118 28006KT CAVOK=
201008210500 TAF LMML 210500Z 2106/2115 28007KT CAVOK=
201008210200 TAF LMML 210200Z 2103/2112 29004KT CAVOK
                      PROB30 TEMPO 2103/2106 9999 FEW015=
201008202300 TAF LMML 202300Z 2100/2109 VRB03KT CAVOK=
201008202000 TAF LMML 202000Z 2021/2106 VRB03KT CAVOK=
201008201700 TAF LMML 201700Z 2018/2103 VRB05KT CAVOK
                      PROB30 TEMPO 2101/2103 8000=
201008201400 TAF LMML 201400Z 2015/2024 VRB05KT CAVOK=
201008201100 TAF LMML 201100Z 2012/2021 VRB05KT CAVOK=
201008200800 TAF LMML 200800Z 2009/2018 VRB05KT CAVOK=
201008200500 TAF LMML 200500Z 2006/2015 VRB05KT CAVOK
                      TEMPO 2006/2007 7000 NSC=
201008200200 TAF LMML 200200Z 2003/2012 VRB03KT CAVOK
                      PROB30 TEMPO 2003/2006 8000 FEW007=
201008192300 TAF LMML 192300Z 2000/2009 VRB03KT CAVOK
                      PROB30 TEMPO 2000/2006 9000 FEW008=
201008192000 TAF LMML 192000Z 1921/2006 05004KT CAVOK
                      PROB30 TEMPO 2000/2006 9000 FEW008=
201008191700 TAF LMML 191700Z 1918/2003 07004KT CAVOK
                      PROB30 TEMPO 2000/2003 9999 FEW015=
201008191400 TAF LMML 191400Z 1915/1924 08008KT CAVOK
                      PROB30 TEMPO 1915/1924 9999 FEW015=
201008191100 TAF LMML 191100Z 1912/1921 08009KT 9999 FEW015
                      BECMG 1912/1915 CAVOK=
201008190800 TAF LMML 190800Z 1909/1918 04007KT 9999 FEW015
                      TEMPO 1909/1918 CAVOK=
201008190500 TAF LMML 190500Z 1906/1915 VRB05KT CAVOK=
201008190200 TAF LMML 190200Z 1903/1912 VRB05KT CAVOK=
201008182300 TAF LMML 182300Z 1900/1909 VRB03KT CAVOK
                      PROB30 TEMPO 1900/1905 9000 SCT007=
201008182000 TAF LMML 182000Z 1821/1906 VRB03KT CAVOK
                      PROB30 TEMPO 1821/1906 9000 SCT007=
201008181700 TAF LMML 181700Z 1818/1903 20004KT CAVOK
                      PROB30 TEMPO 1821/1903 9000 SCT007=
201008181400 TAF LMML 181400Z 1815/1824 15005KT 9999 FEW012
                      PROB30 TEMPO 1821/1824 7000 BKN007=
201008181100 TAF LMML 181100Z 1812/1821 12005KT 9999 FEW012=
201008180800 TAF LMML 180800Z 1809/1818 05005KT 9999 FEW020=
201008180500 TAF LMML 180500Z 1806/1815 VRB05KT CAVOK=
201008180200 TAF LMML 180200Z 1803/1812 VRB05KT CAVOK=
201008172300 TAF LMML 172300Z 1800/1809 VRB05KT CAVOK=
201008172000 TAF LMML 172000Z 1721/1806 30005KT CAVOK=
201008171700 TAF LMML 171700Z 1718/1803 29004KT CAVOK=
201008171400 TAF LMML 171400Z 1715/1724 07004KT CAVOK=
201008171100 TAF LMML 171100Z 1712/1721 06006KT CAVOK=
201008170800 TAF LMML 170800Z 1709/1718 07006KT CAVOK=
201008170500 TAF LMML 170500Z 1706/1715 07006KT CAVOK
                      PROB30 TEMPO 1706/1715 9999 FEW015 SCT100=
201008170200 TAF LMML 170200Z 1703/1712 33006KT CAVOK
                      TEMPO 1703/1712 9999 FEW015 SCT080
                      BECMG 1703/1706 06010KT=
201008162300 TAF LMML 162300Z 1700/1709 28005KT CAVOK
                      PROB30 TEMPO 1700/1709 9999 FEW015=
201008162000 TAF LMML 162000Z 1621/1706 31006KT CAVOK
                      PROB30 TEMPO 1700/1706 9999 FEW015=
201008161700 TAF LMML 161700Z 1618/1703 VRB05KT CAVOK=
201008161400 TAF LMML 161400Z 1615/1624 VRB05KT CAVOK=
201008161100 TAF LMML 161100Z 1612/1621 VRB05KT CAVOK=
201008160800 TAF LMML 160800Z 1609/1618 30005KT CAVOK=
201008160500 TAF LMML 160500Z 1606/1615 VRB04KT CAVOK=
201008160200 TAF LMML 160200Z 1603/1612 VRB03KT CAVOK
                      PROB30 TEMPO 1603/1606 7000 NSC=
201008152300 TAF LMML 152300Z 1600/1609 VRB03KT CAVOK
                      PROB30 TEMPO 1603/1606 7000 NSC=
201008152000 TAF LMML 152000Z 1521/1606 20004KT CAVOK=
201008151700 TAF LMML 151700Z 1518/1603 VRB04KT CAVOK=
201008151400 TAF LMML 151400Z 1515/1524 12005KT CAVOK=
201008151100 TAF LMML 151100Z 1512/1521 12005KT CAVOK=
201008150800 TAF LMML 150800Z 1509/1518 12006KT CAVOK=
201008150715 TAF LMML 150715Z 1506/1515 13008KT CAVOK=
201008150500 TAF LMML NIL=
201008150200 TAF LMML 150200Z 1503/1512 13008KT CAVOK=
201008142300 TAF LMML 142300Z 1500/1509 15006KT CAVOK=
201008142000 TAF LMML 142000Z 1421/1506 14005KT CAVOK=
201008141700 TAF LMML 141700Z 1418/1503 17007KT CAVOK=
201008141400 TAF LMML 141400Z 1415/1424 16008KT CAVOK=
201008141100 TAF LMML 141100Z 1412/1421 15010KT CAVOK=
201008140800 TAF LMML 140800Z 1409/1418 16010KT CAVOK
                      PROB30 TEMPO 1409/1412 9999 FEW025=
201008140500 TAF LMML 140500Z 1406/1415 16006KT CAVOK=
201008140200 TAF LMML 140200Z 1403/1412 16005KT CAVOK=
201008132300 TAF LMML 132300Z 1400/1409 16009KT CAVOK=
201008132000 TAF LMML NIL=
201008131700 TAF LMML 131700Z 1318/1403 18004KT CAVOK=
201008131400 TAF LMML 131400Z 1315/1324 19005KT CAVOK=
201008131100 TAF LMML 131100Z 1312/1321 20007KT CAVOK=
201008130800 TAF LMML 130800Z 1309/1318 23007KT CAVOK=
201008130500 TAF LMML 130500Z 1306/1315 23006KT CAVOK
                      PROB30 TEMPO 1306/1315 9999 FEW020=
201008130200 TAF LMML 130200Z 1303/1312 23005KT CAVOK
                      PROB30 TEMPO 1303/1312 9999 FEW015=
201008122300 TAF LMML 122300Z 1300/1309 26004KT CAVOK
                      PROB30 TEMPO 1300/1309 9999 FEW015=
201008122000 TAF LMML 122000Z 1221/1306 31005KT CAVOK
                      PROB30 TEMPO 1221/1306 9999 FEW015=
201008121700 TAF LMML 121700Z 1218/1303 27005KT CAVOK
                      PROB30 TEMPO 1218/1221 9999 FEW015=
201008121400 TAF LMML 121400Z 1215/1224 27005KT CAVOK
                      PROB30 TEMPO 1215/1221 9999 FEW015=
201008121100 TAF LMML 121100Z 1212/1221 27005KT CAVOK
                      PROB30 TEMPO 1212/1221 9999 FEW015=
201008120800 TAF LMML 120800Z 1209/1218 27005KT CAVOK
                      PROB30 TEMPO 1209/1218 9999 FEW015=
201008120500 TAF LMML 120500Z 1206/1215 27005KT CAVOK=
201008120200 TAF LMML 120200Z 1203/1212 29005KT CAVOK=
201008112300 TAF LMML 112300Z 1200/1209 29005KT CAVOK
                      PROB30 TEMPO 1203/1206 9000 FEW005=
201008112000 TAF LMML 112000Z 1121/1206 27005KT CAVOK
                      PROB30 1203/1206 9000 FEW005=
201008111700 TAF LMML 111700Z 1118/1203 26005KT CAVOK
                      PROB30 TEMPO 1118/1203 9999 FEW015=
201008111400 TAF LMML 111400Z 1115/1124 23007KT 9999 FEW025
                      TEMPO 1115/1124 CAVOK=
201008111100 TAF LMML 111100Z 1112/1121 VRB07KT CAVOK
                      TEMPO 1112/1118 9999 FEW025=
201008110800 TAF LMML 110800Z 1109/1118 VRB06KT CAVOK
                      TEMPO 1109/1118 9999 FEW030=
201008110500 TAF LMML 110500Z 1106/1115 27006KT 9999 FEW030
                      TEMPO 1106/1115 CAVOK=
201008110200 TAF LMML 110200Z 1103/1112 VRB03KT 9999 FEW015
                      PROB30 TEMPO 1103/1112 CAVOK=
201008102300 TAF LMML 102300Z 1100/1109 VRB03KT 9999 FEW020
                      PROB30 TEMPO 1100/1109 CAVOK=
201008102000 TAF LMML 102000Z 1021/1106 VRB03KT 9999 FEW018
                      TEMPO 1021/1106 CAVOK=
201008101700 TAF LMML 101700Z 1018/1103 VRB03KT CAVOK
                      PROB30 TEMPO 1018/1021 9999 FEW020=
201008101400 TAF LMML 101400Z 1015/1024 VRB04KT CAVOK
                      PROB30 TEMPO 1015/1018 9999 FEW020=
201008101100 TAF LMML 101100Z 1012/1021 VRB05KT CAVOK=
201008100800 TAF LMML 100800Z 1009/1018 VRB05KT CAVOK
                      PROB30 TEMPO 1009/1012 9999 FEW030=
201008100500 TAF LMML 100500Z 1006/1015 VRB05KT CAVOK=
201008100200 TAF LMML 100200Z 1003/1012 VRB05KT CAVOK=
201008092300 TAF LMML 092300Z 1000/1009 VRB03KT CAVOK=
201008092000 TAF LMML 092000Z 0921/1006 VRB05KT CAVOK=
201008091700 TAF LMML 091700Z 0918/1003 VRB03KT CAVOK=
201008091400 TAF LMML 091400Z 0915/0924 VRB03KT 9999 FEW030
                      PROB30 TEMPO 0915/0924 CAVOK=
201008091100 TAF LMML 091100Z 0912/0921 28005KT 9999 FEW035
                      PROB30 TEMPO 0912/0921 CAVOK=
201008090800 TAF LMML 090800Z 0909/0918 28005KT CAVOK=
201008090500 TAF LMML 090500Z 0906/0915 VRB05KT CAVOK
                      PROB30 TEMPO 0906/0909 9999 FEW014=
201008090200 TAF LMML 090200Z 0903/0912 VRB05KT CAVOK
                      TEMPO 0903/0912 9999 FEW020=
201008082300 TAF LMML 082300Z 0900/0909 VRB04KT CAVOK
                      TEMPO 0900/0909 9999 FEW012=
201008082000 TAF LMML 082000Z 0821/0906 VRB03KT CAVOK
                      TEMPO 0900/0906 9999 FEW012=
201008081700 TAF LMML 081700Z 0818/0903 VRB05KT 9999 FEW020
                      TEMPO 0820/0903 CAVOK=
201008081400 TAF LMML 081400Z 0815/0824 VRB05KT 9999 FEW020=
201008081100 TAF LMML 081100Z 0812/0821 VRB05KT 9999 FEW020=
201008080800 TAF LMML 080800Z 0809/0818 VRB03KT 9999 FEW020=
201008080500 TAF LMML 080500Z 0806/0815 31005KT 9999 FEW015=
201008080200 TAF LMML 080200Z 0803/0812 32007KT 9999 FEW012=
201008072300 TAF LMML 072300Z 0800/0809 30005KT CAVOK
                      TEMPO 0800/0809 9999 FEW012=
201008072000 TAF LMML 072000Z 0721/0806 32004KT CAVOK
                      TEMPO 0800/0806 9999 FEW012=
201008071700 TAF LMML 071700Z 0718/0803 31010KT CAVOK
                      PROB40 TEMPO 0721/0803 9999 FEW013=
201008071400 TAF LMML 071400Z 0715/0724 31013KT CAVOK
                      PROB30 TEMPO 0721/0724 9999 FEW013=
201008071100 TAF LMML 071100Z 0712/0721 30015KT CAVOK
                      TEMPO 0712/0721 9999 FEW025=
201008070800 TAF LMML 070800Z 0709/0718 30014KT CAVOK
                      PROB30 TEMPO 0709/0718 9999 FEW020=
201008070500 TAF LMML 070500Z 0706/0715 30013KT CAVOK
                      TEMPO 0706/0708 9999 FEW030=
201008070200 TAF LMML 070200Z 0703/0712 30010KT CAVOK
                      PROB30 TEMPO 0703/0705 9999 FEW025=
201008062300 TAF LMML 062300Z 0700/0709 30010KT CAVOK
                      PROB30 TEMPO 0702/0706 9999 FEW025=
201008062000 TAF LMML 062000Z 0621/0706 30010KT CAVOK
                      PROB30 TEMPO 0702/0706 9999 FEW025=
201008061700 TAF LMML 061700Z 0618/0703 31019KT CAVOK
                      BECMG 0621/0624 30009KT=
201008061400 TAF LMML 061400Z 0615/0624 31016KT CAVOK
                      PROB30 TEMPO 0615/0618 31016G26KT=
201008061100 TAF LMML 061100Z 0612/0621 33017KT CAVOK
                      PROB30 TEMPO 0615/0618 33017G27KT=
201008060800 TAF LMML 060800Z 0609/0618 32016KT 9999 FEW025=
201008060500 TAF LMML 060500Z 0606/0615 32016KT 9999 FEW015
                      TEMPO 0606/0615 CAVOK=
201008060200 TAF LMML 060200Z 0603/0612 32015KT 9999 FEW015
                      TEMPO 0603/0612 CAVOK=
201008052300 TAF LMML 052300Z 0600/0609 32013KT 9999 FEW012
                      TEMPO 0600/0609 CAVOK=
201008052000 TAF LMML 052000Z 0521/0606 31012KT 9999 SCT012=
201008051700 TAF LMML 051700Z 0518/0603 30015KT 9999 SCT020=
201008051400 TAF LMML 051400Z 0515/0524 30015KT 9999 SCT025=
201008051100 TAF LMML 051100Z 0512/0521 30015KT 9999 SCT025=
201008050800 TAF LMML 050800Z 0509/0518 30015KT 9999 SCT025
                      PROB30 TEMPO 0509/0512 BKN015=
201008050500 TAF LMML 050500Z 0506/0515 30014KT 9999 SCT020=
201008050200 TAF LMML 050200Z 0503/0512 30014KT 9999 SCT020
                      PROB40 TEMPO 0503/0506 CAVOK=
201008042300 TAF LMML 042300Z 0500/0509 30014KT CAVOK
                      TEMPO 0500/0509 9999 SCT015=
201008042000 TAF LMML 042000Z 0421/0506 30014KT CAVOK
                      TEMPO 0423/0506 9999 SCT013=
201008041700 TAF LMML 041700Z 0418/0503 30015KT CAVOK
                      TEMPO 0421/0503 9999 FEW013=
201008041400 TAF LMML 041400Z 0415/0424 30018KT 9999 FEW015
                      TEMPO 0415/0424 CAVOK=
201008041100 TAF LMML 041100Z 0412/0421 29018KT 9999 FEW015
                      TEMPO 0412/0421 CAVOK=
201008040800 TAF LMML 040800Z 0409/0418 30015KT 9999 FEW018=
201008040500 TAF LMML 040500Z 0406/0415 32012KT 9999 FEW015=
201008040200 TAF LMML 040200Z 0403/0412 28008KT 9999 FEW012=
201008032300 TAF LMML 032300Z 0400/0409 28008KT 9999 FEW012=
201008032000 TAF LMML 032000Z 0321/0406 28006KT 9999 SCT012=
201008031700 TAF LMML 031700Z 0318/0403 30010KT 9999 FEW025=
201008031400 TAF LMML 031400Z 0315/0324 26010KT 9999 FEW025=
201008031100 TAF LMML 031100Z 0312/0321 26008KT 9999 FEW025=
201008030800 TAF LMML 030800Z 0309/0318 26007KT 9999 FEW025=
201008030500 TAF LMML 030500Z 0306/0315 27007KT 9999 FEW025=
201008030200 TAF LMML 030200Z 0303/0312 VRB03KT CAVOK
                      PROB30 TEMPO 0303/0305 8000 FEW008
                      TEMPO 0306/0312 9999 FEW025=
201008022300 TAF LMML 022300Z 0300/0309 VRB03KT 9999 FEW030=
201008022000 TAF LMML 022000Z 0221/0306 VRB03KT CAVOK
                      PROB30 TEMPO 0223/0305 8000 FEW008=
201008021700 TAF LMML 021700Z 0218/0303 25005KT CAVOK
                      TEMPO 0222/0303 8000 SCT007=
201008021400 TAF LMML 021400Z 0215/0224 VRB05KT 9999 FEW025=
201008021100 TAF LMML 021100Z 0212/0221 VRB04KT 9999 FEW025=
201008020800 TAF LMML 020800Z 0209/0218 26005KT 9999 FEW025=
201008020500 TAF LMML 020500Z 0206/0215 25005KT CAVOK
                      PROB40 TEMPO 0206/0215 9999 FEW025=
201008020200 TAF LMML 020200Z 0203/0212 VRB03KT 9999 FEW020
                      TEMPO 0203/0206 CAVOK=
201008012300 TAF LMML 012300Z 0200/0209 VRB03KT 9999 FEW020
                      TEMPO 0200/0206 CAVOK=
201008012000 TAF LMML 012000Z 0121/0206 VRB03KT 9999 FEW030
                      TEMPO 0121/0206 CAVOK=
201008011700 TAF LMML 011700Z 0118/0203 VRB03KT 9999 FEW030
                      TEMPO 0118/0203 CAVOK=
201008011445 TAF LMML 011445Z 0115/0124 03005KT 9999 FEW035
                      TEMPO 0115/0124 CAVOK=
201008011400 TAF LMML 011400Z 0115/0124 03005KT 9999 FEW035
                      TEMPO 0115/0124 CAVOK=
201008011100 TAF LMML 011100Z 0112/0121 03006KT 9999 FEW025
                      TEMPO 0112/0121 CAVOK=
201008010800 TAF LMML 010800Z 0109/0118 03008KT 9999 FEW020
                      TEMPO 0109/0118 CAVOK=
201008010500 TAF LMML 010500Z 0106/0115 04007KT 9999 FEW018
                      TEMPO 0106/0115 CAVOK=
201008010200 TAF LMML 010200Z 0103/0112 VRB05KT 9999 FEW016
                      TEMPO 0103/0112 CAVOK=

###################################
#  large TAF from LMML
###################################
201008312300 TAF LMML NIL=
201008311700 TAF LMML NIL=
201008311100 TAF LMML NIL=
201008310500 TAF LMML NIL=
201008302300 TAF LMML NIL=
201008301700 TAF LMML NIL=
201008301100 TAF LMML NIL=
201008300500 TAF LMML NIL=
201008292300 TAF LMML NIL=
201008291700 TAF LMML NIL=
201008291100 TAF LMML NIL=
201008290500 TAF LMML NIL=
201008282300 TAF LMML NIL=
201008281700 TAF LMML NIL=
201008281100 TAF LMML NIL=
201008280500 TAF LMML NIL=
201008272300 TAF LMML NIL=
201008271700 TAF LMML NIL=
201008271100 TAF LMML NIL=
201008270500 TAF LMML NIL=
201008262300 TAF LMML NIL=
201008261700 TAF LMML NIL=
201008261100 TAF LMML NIL=
201008260500 TAF LMML NIL=
201008252300 TAF LMML NIL=
201008251700 TAF LMML NIL=
201008251400 TAF LMML 251400Z 2512/2524 30010KT 9999 FEW025
                      TEMPO 2515/2524 CAVOK=
201008251100 TAF LMML NIL=
201008250500 TAF LMML NIL=
201008242300 TAF LMML NIL=
201008241700 TAF LMML NIL=
201008241100 TAF LMML NIL=
201008240500 TAF LMML NIL=
201008232300 TAF LMML NIL=
201008231700 TAF LMML NIL=
201008231100 TAF LMML NIL=
201008230500 TAF LMML NIL=
201008222300 TAF LMML NIL=
201008221700 TAF LMML NIL=
201008221100 TAF LMML NIL=
201008220500 TAF LMML NIL=
201008212300 TAF LMML NIL=
201008211700 TAF LMML NIL=
201008211100 TAF LMML 211100Z 2112/2124 VRB05KT CAVOK
                      PROB30 TEMPO 2121/2124 8000 SCT005=
201008210500 TAF LMML NIL=
201008202300 TAF LMML NIL=
201008201700 TAF LMML NIL=
201008201100 TAF LMML NIL=
201008200500 TAF LMML NIL=
201008192300 TAF LMML NIL=
201008191700 TAF LMML NIL=
201008191100 TAF LMML NIL=
201008190500 TAF LMML NIL=
201008182300 TAF LMML NIL=
201008181700 TAF LMML NIL=
201008181100 TAF LMML NIL=
201008180500 TAF LMML NIL=
201008171700 TAF LMML NIL=
201008171100 TAF LMML NIL=
201008170500 TAF LMML NIL=
201008162300 TAF LMML NIL=
201008161700 TAF LMML NIL=
201008161100 TAF LMML NIL=
201008160500 TAF LMML NIL=
201008152300 TAF LMML NIL=
201008151700 TAF LMML NIL=
201008151100 TAF LMML NIL=
201008142300 TAF LMML NIL=
201008141700 TAF LMML NIL=
201008141100 TAF LMML NIL=
201008140500 TAF LMML NIL=
201008132300 TAF LMML NIL=
201008131700 TAF LMML NIL=
201008131100 TAF LMML NIL=
201008130500 TAF LMML NIL=
201008122300 TAF LMML NIL=
201008121700 TAF LMML NIL=
201008121100 TAF LMML NIL=
201008120500 TAF LMML NIL=
201008112300 TAF LMML NIL=
201008111700 TAF LMML NIL=
201008111100 TAF LMML NIL=
201008110500 TAF LMML NIL=
201008102300 TAF LMML NIL=
201008101700 TAF LMML NIL=
201008101100 TAF LMML NIL=
201008100500 TAF LMML NIL=
201008092300 TAF LMML NIL=
201008091700 TAF LMML NIL=
201008091100 TAF LMML NIL=
201008090500 TAF LMML NIL=
201008082300 TAF LMML NIL=
201008081700 TAF LMML NIL=
201008081100 TAF LMML NIL=
201008080500 TAF LMML NIL=
201008072300 TAF LMML NIL=
201008071700 TAF LMML NIL=
201008071100 TAF LMML NIL=
201008070500 TAF LMML NIL=
201008062300 TAF LMML NIL=
201008061700 TAF LMML NIL=
201008061100 TAF LMML NIL=
201008060500 TAF LMML NIL=
201008052300 TAF LMML NIL=
201008051700 TAF LMML NIL=
201008051100 TAF LMML NIL=
201008050500 TAF LMML NIL=
201008042300 TAF LMML NIL=
201008041700 TAF LMML NIL=
201008041100 TAF LMML NIL=
201008040500 TAF LMML NIL=
201008032300 TAF LMML NIL=
201008031700 TAF LMML NIL=
201008031100 TAF LMML NIL=
201008030500 TAF LMML NIL=
201008022300 TAF LMML NIL=
201008021700 TAF LMML NIL=
201008021100 TAF LMML NIL=
201008020500 TAF LMML NIL=
201008012300 TAF LMML NIL=
201008011700 TAF LMML NIL=
201008011100 TAF LMML NIL=
201008010500 TAF LMML NIL=
