##########################################################
# Query made at 01/18/2013 15:39:28 UTC
# Time interval: from 08/01/2011 00:00  to 08/31/2011 23:59  UTC
##########################################################

##########################################################
# LMML, Luqa (Malta)
# WMO index: 16597
# Latitude 35-51N. Longitude 014-29E. Altitude 91 m.
##########################################################

###################################
#  METAR/SPECI from LMML
###################################
201108312345 METAR LMML 312345Z VRB02KT 9999 FEW008 23/21 Q1015 NOSIG=
201108312330 METAR LMML NIL=
201108312315 METAR LMML 312315Z 35004KT 9999 FEW008 23/22 Q1015 NOSIG=
201108312300 METAR LMML NIL=
201108312245 METAR LMML 312245Z 34004KT 320V020 9999 FEW017 23/21 Q1015
                        NOSIG=
201108312230 METAR LMML NIL=
201108312215 METAR LMML 312215Z 32003KT CAVOK 23/20 Q1015 NOSIG=
201108312145 METAR LMML 312145Z 34005KT CAVOK 24/21 Q1015 NOSIG=
201108312130 METAR LMML NIL=
201108312115 METAR LMML 312115Z 35003KT CAVOK 23/20 Q1015 NOSIG=
201108312100 METAR LMML NIL=
201108312045 METAR LMML 312045Z 34003KT CAVOK 24/20 Q1015 NOSIG=
201108312030 METAR LMML NIL=
201108312015 METAR LMML 312015Z 32003KT CAVOK 24/20 Q1015 NOSIG=
201108312000 METAR LMML NIL=
201108311945 METAR LMML 311945Z 32003KT CAVOK 24/20 Q1015 NOSIG=
201108311930 METAR LMML NIL=
201108311915 METAR LMML 311915Z 32005KT 280V350 CAVOK 24/20 Q1015 NOSIG=
201108311900 METAR LMML NIL=
201108311845 METAR LMML 311845Z 32003KT 9999 FEW025 24/19 Q1014 NOSIG=
201108311830 METAR LMML NIL=
201108311815 METAR LMML 311815Z 26005KT 210V320 9999 SCT025 25/19 Q1014
                        NOSIG=
201108311800 METAR LMML NIL=
201108311745 METAR LMML 311745Z 27006KT 230V300 9999 FEW025 25/19 Q1014
                        NOSIG=
201108311730 METAR LMML NIL=
201108311715 METAR LMML 311715Z 25006KT 210V290 CAVOK 26/18 Q1014 NOSIG=
201108311700 METAR LMML NIL=
201108311645 METAR LMML 311645Z 25006KT 210V290 CAVOK 27/18 Q1014 NOSIG=
201108311630 METAR LMML NIL=
201108311615 METAR LMML 311615Z 24008KT 200V280 CAVOK 27/17 Q1014 NOSIG=
201108311600 METAR LMML NIL=
201108311545 METAR LMML 311545Z 24007KT 200V300 CAVOK 28/17 Q1014 NOSIG=
201108311530 METAR LMML NIL=
201108311515 METAR LMML 311515Z 24007KT 190V280 CAVOK 29/15 Q1014 NOSIG=
201108311500 METAR LMML NIL=
201108311445 METAR LMML 311445Z 23007KT 200V290 CAVOK 29/16 Q1014 NOSIG=
201108311430 METAR LMML NIL=
201108311415 METAR LMML 311415Z 24008KT 210V280 9999 FEW030 29/15 Q1014
                        NOSIG=
201108311400 METAR LMML NIL=
201108311345 METAR LMML 311345Z 23006KT 180V280 9999 FEW030 31/12 Q1014
                        NOSIG=
201108311330 METAR LMML NIL=
201108311315 METAR LMML 311315Z 23006KT 180V260 9999 FEW030 30/12 Q1014
                        NOSIG=
201108311300 METAR LMML NIL=
201108311245 METAR LMML 311245Z 22007KT 150V270 9999 FEW030 29/16 Q1014
                        NOSIG=
201108311230 METAR LMML NIL=
201108311215 METAR LMML 311215Z 22009KT 180V260 9999 FEW030 29/15 Q1014
                        NOSIG=
201108311200 METAR LMML NIL=
201108311145 METAR LMML 311145Z 22007KT 150V280 9999 FEW030 30/14 Q1014
                        NOSIG=
201108311130 METAR LMML NIL=
201108311115 METAR LMML 311115Z 22008KT 190V270 9999 FEW020 30/12 Q1014
                        NOSIG=
201108311100 METAR LMML NIL=
201108311045 METAR LMML 311045Z 23008KT 180V280 9999 FEW020 31/17 Q1014
                        NOSIG=
201108311030 METAR LMML NIL=
201108311015 METAR LMML 311015Z 22007KT 180V280 9999 FEW020 29/18 Q1014
                        NOSIG=
201108311000 METAR LMML NIL=
201108310945 METAR LMML 310945Z 22007KT 200V270 9999 FEW020 28/20 Q1015
                        NOSIG=
201108310930 METAR LMML NIL=
201108310915 METAR LMML 310915Z 22006KT 180V270 9999 FEW020 28/20 Q1015
                        NOSIG=
201108310845 METAR LMML 310845Z 20005KT 170V260 CAVOK 28/20 Q1015 NOSIG=
201108310830 METAR LMML NIL=
201108310815 METAR LMML 310815Z 17003KT CAVOK 27/19 Q1014 NOSIG=
201108310800 METAR LMML NIL=
201108310745 METAR LMML 310745Z 22004KT 160V280 CAVOK 27/19 Q1014 NOSIG=
201108310730 METAR LMML NIL=
201108310715 METAR LMML 310715Z 23003KT CAVOK 26/19 Q1014 NOSIG=
201108310645 METAR LMML 310645Z 21003KT 9999 FEW020 25/20 Q1014 NOSIG=
201108310630 METAR LMML NIL=
201108310615 METAR LMML 310615Z 21003KT 9999 FEW020 25/20 Q1014 NOSIG=
201108310600 METAR LMML NIL=
201108310545 METAR LMML 310545Z 24004KT 210V280 CAVOK 24/20 Q1013 NOSIG=
201108310515 METAR LMML 310515Z 24003KT CAVOK 22/20 Q1013 NOSIG=
201108310500 METAR LMML NIL=
201108310445 METAR LMML 310445Z VRB02KT CAVOK 21/19 Q1013 NOSIG=
201108310415 METAR LMML 310415Z VRB02KT CAVOK 21/18 Q1013 NOSIG=
201108310400 METAR LMML NIL=
201108310345 METAR LMML 310345Z VRB02KT CAVOK 22/19 Q1013 NOSIG=
201108310330 METAR LMML NIL=
201108310315 METAR LMML 310315Z 30003KT CAVOK 22/18 Q1013 NOSIG=
201108310300 METAR LMML NIL=
201108310245 METAR LMML 310245Z VRB01KT CAVOK 22/18 Q1013 NOSIG=
201108310230 METAR LMML NIL=
201108310215 METAR LMML 310215Z VRB02KT CAVOK 22/18 Q1013 NOSIG=
201108310200 METAR LMML NIL=
201108310145 METAR LMML 310145Z 33004KT CAVOK 22/18 Q1013 NOSIG=
201108310130 METAR LMML NIL=
201108310115 METAR LMML 310115Z 34004KT 320V020 CAVOK 22/19 Q1013 NOSIG=
201108310100 METAR LMML NIL=
201108310045 METAR LMML 310045Z 36004KT 270V060 CAVOK 23/19 Q1013 NOSIG=
201108310030 METAR LMML NIL=
201108310015 METAR LMML 310015Z 32003KT CAVOK 23/19 Q1013 NOSIG=
201108310000 METAR LMML NIL=
201108302345 METAR LMML 302345Z 32004KT CAVOK 23/19 Q1013 NOSIG=
201108302330 METAR LMML NIL=
201108302315 METAR LMML 302315Z 28009KT CAVOK 23/19 Q1013 NOSIG=
201108302300 METAR LMML NIL=
201108302245 METAR LMML 302245Z 29004KT 250V320 CAVOK 23/18 Q1013 NOSIG=
201108302230 METAR LMML NIL=
201108302215 METAR LMML 302215Z 33004KT 290V010 CAVOK 24/18 Q1013 NOSIG=
201108302200 METAR LMML NIL=
201108302145 METAR LMML 302145Z 32005KT 280V360 CAVOK 23/19 Q1013 NOSIG=
201108302130 METAR LMML NIL=
201108302115 METAR LMML 302115Z 31008KT CAVOK 24/20 Q1013 NOSIG=
201108302100 METAR LMML NIL=
201108302045 METAR LMML 302045Z 32007KT CAVOK 24/19 Q1013 NOSIG=
201108302030 METAR LMML NIL=
201108302015 METAR LMML 302015Z 31006KT CAVOK 24/19 Q1014 NOSIG=
201108302000 METAR LMML NIL=
201108301945 METAR LMML 301945Z 30005KT 270V330 CAVOK 24/19 Q1014 NOSIG=
201108301915 METAR LMML 301915Z 28008KT 250V310 CAVOK 24/19 Q1014 NOSIG=
201108301900 METAR LMML NIL=
201108301845 METAR LMML 301845Z 29008KT 260V320 CAVOK 24/19 Q1013 NOSIG=
201108301830 METAR LMML NIL=
201108301815 METAR LMML 301815Z 28012KT 250V330 CAVOK 24/19 Q1013 NOSIG=
201108301800 METAR LMML NIL=
201108301745 METAR LMML 301745Z 29010KT 260V330 CAVOK 24/19 Q1012 NOSIG=
201108301730 METAR LMML NIL=
201108301715 METAR LMML 301715Z 29011KT 260V330 CAVOK 25/18 Q1012 NOSIG=
201108301700 METAR LMML NIL=
201108301645 METAR LMML 301645Z 29012KT 260V320 CAVOK 25/18 Q1012 NOSIG=
201108301630 METAR LMML NIL=
201108301615 METAR LMML 301615Z 29014KT 9999 FEW020 26/18 Q1012 NOSIG=
201108301545 METAR LMML 301545Z 30015KT 270V330 CAVOK 27/15 Q1013 NOSIG=
201108301530 METAR LMML NIL=
201108301515 METAR LMML 301515Z 29014KT 250V320 CAVOK 27/15 Q1013 NOSIG=
201108301445 METAR LMML 301445Z 29014KT 260V330 CAVOK 28/16 Q1013 NOSIG=
201108301430 METAR LMML NIL=
201108301415 METAR LMML 301415Z 30014KT 9999 FEW028 28/14 Q1013 NOSIG=
201108301400 METAR LMML NIL=
201108301345 METAR LMML 301345Z 29012KT 240V320 9999 FEW028 28/14 Q1013
                        NOSIG=
201108301330 METAR LMML NIL=
201108301315 METAR LMML 301315Z 29012KT 260V320 9999 FEW028 28/14 Q1013
                        NOSIG=
201108301245 METAR LMML 301245Z 28010KT 220V320 CAVOK 29/15 Q1013 NOSIG=
201108301215 METAR LMML 301215Z 28010KT 240V310 9999 FEW028 28/18 Q1014
                        NOSIG=
201108301200 METAR LMML NIL=
201108301145 METAR LMML 301145Z 31011KT 280V340 9999 FEW027 28/19 Q1014
                        WS RWY31 NOSIG=
201108301130 METAR LMML NIL=
201108301115 METAR LMML 301115Z 33008KT 280V360 9999 FEW032 29/18 Q1014
                        WS RWY31 NOSIG=
201108301100 METAR LMML NIL=
201108301045 METAR LMML 301045Z 33006KT 280V070 9999 FEW030 SCT250 29/18
                        Q1014 NOSIG=
201108301030 METAR LMML NIL=
201108301015 METAR LMML 301015Z 35006KT 280V100 9999 FEW031 SCT250 28/18
                        Q1014 NOSIG=
201108301000 METAR LMML NIL=
201108300945 METAR LMML 300945Z 31006KT 240V360 9999 FEW025 SCT250 28/14
                        Q1014 NOSIG=
201108300930 METAR LMML NIL=
201108300915 METAR LMML 300915Z 29009KT 250V320 9999 FEW020 SCT250 27/17
                        Q1014 NOSIG=
201108300900 METAR LMML NIL=
201108300845 METAR LMML 300845Z 28008KT 240V320 9999 FEW020 SCT250 27/16
                        Q1014 NOSIG=
201108300830 METAR LMML NIL=
201108300815 METAR LMML 300815Z 29010KT 250V320 9999 FEW020 BKN250 26/17
                        Q1014 NOSIG=
201108300800 METAR LMML NIL=
201108300745 METAR LMML 300745Z 31010KT 280V350 9999 FEW020 SCT250 27/17
                        Q1014 NOSIG=
201108300730 METAR LMML NIL=
201108300715 METAR LMML 300715Z 30009KT 280V340 9999 FEW020 SCT250 26/18
                        Q1014 NOSIG=
201108300700 METAR LMML NIL=
201108300645 METAR LMML 300645Z 31011KT 9999 FEW020 25/17 Q1014 NOSIG=
201108300630 METAR LMML NIL=
201108300615 METAR LMML 300615Z 30010KT 9999 FEW020 24/18 Q1013 NOSIG=
201108300545 METAR LMML 300545Z 30007KT 9999 FEW020 23/18 Q1013 NOSIG=
201108300530 METAR LMML NIL=
201108300515 METAR LMML 300515Z 29008KT 9999 FEW020 22/18 Q1013 NOSIG=
201108300500 METAR LMML NIL=
201108300445 METAR LMML 300445Z 29008KT 9999 FEW020 21/18 Q1013 NOSIG=
201108300430 METAR LMML NIL=
201108300415 METAR LMML 300415Z 29012KT 9999 FEW020 22/18 Q1013 NOSIG=
201108300400 METAR LMML NIL=
201108300345 METAR LMML 300345Z 27005KT 220V310 CAVOK 21/18 Q1013 NOSIG=
201108300330 METAR LMML NIL=
201108300315 METAR LMML 300315Z VRB02KT CAVOK 21/18 Q1013 NOSIG=
201108300245 METAR LMML 300245Z 28003KT CAVOK 21/19 Q1013 NOSIG=
201108300230 METAR LMML NIL=
201108300215 METAR LMML 300215Z VRB02KT CAVOK 21/19 Q1013 NOSIG=
201108300145 METAR LMML 300145Z 28003KT CAVOK 21/19 Q1013 NOSIG=
201108300130 METAR LMML NIL=
201108300115 METAR LMML 300115Z 28003KT CAVOK 22/19 Q1013 NOSIG=
201108300100 METAR LMML NIL=
201108300045 METAR LMML 300045Z 28006KT 240V300 CAVOK 21/19 Q1013 NOSIG=
201108300030 METAR LMML NIL=
201108300015 METAR LMML 300015Z 29005KT CAVOK 22/19 Q1014 NOSIG=
201108300000 METAR LMML NIL=
201108292345 METAR LMML 292345Z 30004KT CAVOK 21/19 Q1014 NOSIG=
201108292315 METAR LMML 292315Z 32003KT CAVOK 22/19 Q1014 NOSIG=
201108292300 METAR LMML NIL=
201108292245 METAR LMML 292245Z 31005KT CAVOK 22/18 Q1014 NOSIG=
201108292230 METAR LMML NIL=
201108292215 METAR LMML 292215Z 30006KT 270V330 CAVOK 22/19 Q1014 NOSIG=
201108292200 METAR LMML NIL=
201108292145 METAR LMML 292145Z 30007KT CAVOK 22/19 Q1014 NOSIG=
201108292130 METAR LMML NIL=
201108292115 METAR LMML 292115Z 30006KT CAVOK 22/19 Q1014 NOSIG=
201108292100 METAR LMML NIL=
201108292045 METAR LMML 292045Z 31009KT CAVOK 23/19 Q1014 NOSIG=
201108292030 METAR LMML NIL=
201108292015 METAR LMML 292015Z 32007KT CAVOK 23/19 Q1014 NOSIG=
201108292000 METAR LMML NIL=
201108291945 METAR LMML 291945Z 31005KT CAVOK 23/18 Q1014 NOSIG=
201108291930 METAR LMML NIL=
201108291915 METAR LMML 291915Z 32006KT CAVOK 23/19 Q1014 NOSIG=
201108291900 METAR LMML NIL=
201108291845 METAR LMML 291845Z 33006KT CAVOK 23/19 Q1013 NOSIG=
201108291830 METAR LMML NIL=
201108291815 METAR LMML 291815Z 33007KT CAVOK 24/19 Q1013 NOSIG=
201108291800 METAR LMML NIL=
201108291745 METAR LMML 291745Z 34009KT 9999 FEW020 24/19 Q1013 NOSIG=
201108291730 METAR LMML NIL=
201108291715 METAR LMML 291715Z 35010KT 9999 FEW020 25/20 Q1013 NOSIG=
201108291645 METAR LMML 291645Z 33009KT 9999 FEW020 25/20 Q1013 NOSIG=
201108291630 METAR LMML NIL=
201108291615 METAR LMML 291615Z 32008KT 290V350 9999 SCT021 26/20 Q1013
                        NOSIG=
201108291600 METAR LMML NIL=
201108291545 METAR LMML 291545Z 31008KT 290V350 9999 SCT021 27/20 Q1013
                        NOSIG=
201108291530 METAR LMML NIL=
201108291515 METAR LMML 291515Z 32006KT 280V360 9999 SCT021 28/20 Q1013
                        NOSIG=
201108291500 METAR LMML NIL=
201108291445 METAR LMML 291445Z 36007KT 9999 SCT021 27/20 Q1013 NOSIG=
201108291430 METAR LMML NIL=
201108291415 METAR LMML 291415Z 34005KT 290V030 9999 SCT022 27/20 Q1013
                        NOSIG=
201108291400 METAR LMML NIL=
201108291345 METAR LMML 291345Z 02004KT 310V070 9999 BKN020 28/21 Q1013
                        NOSIG=
201108291330 METAR LMML NIL=
201108291315 METAR LMML 291315Z 02003KT 9999 BKN020 28/21 Q1014 NOSIG=
201108291300 METAR LMML NIL=
201108291245 METAR LMML 291245Z 36005KT 320V070 9999 BKN020 28/21 Q1014
                        NOSIG=
201108291230 METAR LMML NIL=
201108291215 METAR LMML 291215Z 08005KT 040V120 9999 BKN021 29/21 Q1014
                        NOSIG=
201108291200 METAR LMML NIL=
201108291145 METAR LMML 291145Z 05005KT 350V100 9999 BKN022 28/21 Q1014
                        NOSIG=
201108291130 METAR LMML NIL=
201108291115 METAR LMML 291115Z 02004KT 330V090 9999 SCT022 BKN027 29/21
                        Q1014 NOSIG=
201108291100 METAR LMML NIL=
201108291045 METAR LMML 291045Z 01004KT 9999 SCT022 28/21 Q1014 NOSIG=
201108291030 METAR LMML NIL=
201108291015 METAR LMML 291015Z 01005KT 340V060 9999 SCT021 27/21 Q1014
                        NOSIG=
201108291000 METAR LMML NIL=
201108290945 METAR LMML 290945Z 27003KT 9999 SCT021 27/21 Q1014 NOSIG=
201108290930 METAR LMML NIL=
201108290915 METAR LMML 290915Z 05004KT 310V140 9999 BKN022 27/21 Q1014
                        NOSIG=
201108290900 METAR LMML NIL=
201108290845 METAR LMML 290845Z 05006KT 010V100 9999 BKN019 27/21 Q1014
                        NOSIG=
201108290830 METAR LMML NIL=
201108290815 METAR LMML 290815Z 02004KT 320V070 9999 BKN020 29/21 Q1014
                        NOSIG=
201108290800 METAR LMML NIL=
201108290745 METAR LMML 290745Z VRB02KT 9999 BKN019 27/21 Q1013 NOSIG=
201108290730 METAR LMML NIL=
201108290715 METAR LMML 290715Z VRB01KT 9999 SCT016 27/21 Q1013 NOSIG=
201108290700 METAR LMML NIL=
201108290645 METAR LMML 290645Z 27003KT 9999 SCT015 26/21 Q1013 NOSIG=
201108290615 METAR LMML 290615Z 27003KT 9999 FEW020 24/21 Q1013 NOSIG=
201108290600 METAR LMML NIL=
201108290545 METAR LMML 290545Z 26003KT 9999 SCT018 23/21 Q1013 NOSIG=
201108290530 METAR LMML NIL=
201108290515 METAR LMML 290515Z 27004KT 230V300 9999 SCT013 23/20 Q1013
                        NOSIG=
201108290445 METAR LMML 290445Z 26003KT 9999 FEW020 22/19 Q1013 NOSIG=
201108290430 METAR LMML NIL=
201108290415 METAR LMML 290415Z 28003KT 9999 FEW020 22/19 Q1013 NOSIG=
201108290400 METAR LMML NIL=
201108290345 METAR LMML 290345Z 27003KT CAVOK 22/20 Q1013 NOSIG=
201108290330 METAR LMML NIL=
201108290315 METAR LMML 290315Z 27003KT CAVOK 22/20 Q1013 NOSIG=
201108290300 METAR LMML NIL=
201108290245 METAR LMML 290245Z 28003KT CAVOK 22/20 Q1013 NOSIG=
201108290215 METAR LMML 290215Z 30003KT CAVOK 22/20 Q1013 NOSIG=
201108290145 METAR LMML 290145Z 32005KT 290V350 CAVOK 22/20 Q1013 NOSIG=
201108290130 METAR LMML NIL=
201108290115 METAR LMML 290115Z 29005KT CAVOK 23/20 Q1013 NOSIG=
201108290100 METAR LMML NIL=
201108290045 METAR LMML 290045Z 29004KT CAVOK 23/20 Q1014 NOSIG=
201108290030 METAR LMML NIL=
201108290015 METAR LMML 290015Z 30004KT CAVOK 23/20 Q1014 NOSIG=
201108290000 METAR LMML NIL=
201108282345 METAR LMML 282345Z 30004KT CAVOK 23/19 Q1014 NOSIG=
201108282315 METAR LMML 282315Z 32005KT CAVOK 22/19 Q1014 NOSIG=
201108282300 METAR LMML NIL=
201108282245 METAR LMML 282245Z 32007KT CAVOK 23/19 Q1014 NOSIG=
201108282215 METAR LMML 282215Z 31007KT CAVOK 23/19 Q1014 NOSIG=
201108282145 METAR LMML 282145Z 32007KT CAVOK 23/19 Q1015 NOSIG=
201108282115 METAR LMML 282115Z 32007KT CAVOK 23/18 Q1015 NOSIG=
201108282045 METAR LMML 282045Z 32009KT CAVOK 23/18 Q1015 NOSIG=
201108282015 METAR LMML 282015Z 31008KT CAVOK 24/18 Q1015 NOSIG=
201108282000 METAR LMML NIL=
201108281945 METAR LMML 281945Z 31010KT 9999 FEW020 24/18 Q1015 NOSIG=
201108281930 METAR LMML NIL=
201108281915 METAR LMML 281915Z 31009KT 9999 FEW020 24/19 Q1015 NOSIG=
201108281845 METAR LMML 281845Z 31012KT 9999 FEW020 24/18 Q1014 NOSIG=
201108281830 METAR LMML NIL=
201108281815 METAR LMML 281815Z 31011KT 9999 FEW020 24/18 Q1014 NOSIG=
201108281800 METAR LMML NIL=
201108281745 METAR LMML 281745Z 31012KT 9999 FEW020 25/19 Q1014 NOSIG=
201108281730 METAR LMML NIL=
201108281715 METAR LMML 281715Z 31011KT 280V340 9999 FEW020 25/19 Q1014
                        NOSIG=
201108281645 METAR LMML 281645Z 30014KT 9999 FEW020 26/18 Q1014 NOSIG=
201108281630 METAR LMML NIL=
201108281615 METAR LMML 281615Z 30015KT 9999 FEW025 27/17 Q1014 NOSIG=
201108281545 METAR LMML 281545Z 30015KT 270V330 CAVOK 27/14 Q1014 NOSIG=
201108281530 METAR LMML NIL=
201108281515 METAR LMML 281515Z 30016KT CAVOK 28/13 Q1014 NOSIG=
201108281500 METAR LMML NIL=
201108281445 METAR LMML 281445Z 30016KT 270V330 CAVOK 28/14 Q1014 NOSIG=
201108281430 METAR LMML NIL=
201108281415 METAR LMML 281415Z 31016KT 270V330 CAVOK 29/15 Q1014 NOSIG=
201108281400 METAR LMML NIL=
201108281345 METAR LMML 281345Z 30016KT 270V330 CAVOK 28/18 Q1014 NOSIG=
201108281330 METAR LMML NIL=
201108281315 METAR LMML 281315Z 29017KT 250V340 CAVOK 29/18 Q1014 NOSIG=
201108281300 METAR LMML NIL=
201108281245 METAR LMML 281245Z 29017KT 250V320 CAVOK 29/18 Q1015 NOSIG=
201108281230 METAR LMML NIL=
201108281215 METAR LMML 281215Z 29017KT CAVOK 29/18 Q1015 NOSIG=
201108281200 METAR LMML NIL=
201108281145 METAR LMML 281145Z 30017KT 9999 FEW025 29/18 Q1015 NOSIG=
201108281115 METAR LMML 281115Z 30017G27KT 250V330 9999 FEW025 30/19 Q1015
                        NOSIG=
201108281045 METAR LMML 281045Z 30017KT 270V340 CAVOK 30/18 Q1015 NOSIG=
201108281030 METAR LMML NIL=
201108281015 METAR LMML 281015Z 30017KT 270V330 CAVOK 30/16 Q1015 NOSIG=
201108281000 METAR LMML NIL=
201108280945 METAR LMML 280945Z 30017KT CAVOK 29/15 Q1015 NOSIG=
201108280930 METAR LMML NIL=
201108280915 METAR LMML 280915Z 33016KT CAVOK 30/14 Q1015 NOSIG=
201108280900 METAR LMML NIL=
201108280845 METAR LMML 280845Z 32017KT CAVOK 30/13 Q1016 NOSIG=
201108280830 METAR LMML NIL=
201108280815 METAR LMML 280815Z 31016KT CAVOK 30/14 Q1015 NOSIG=
201108280800 METAR LMML NIL=
201108280745 METAR LMML 280745Z 31015KT 280V340 CAVOK 29/15 Q1015 NOSIG=
201108280730 METAR LMML NIL=
201108280715 METAR LMML 280715Z 31014KT CAVOK 28/16 Q1014 NOSIG=
201108280700 METAR LMML NIL=
201108280645 METAR LMML 280645Z 32014KT CAVOK 27/16 Q1014 NOSIG=
201108280630 METAR LMML NIL=
201108280615 METAR LMML 280615Z 32010KT CAVOK 27/17 Q1014 NOSIG=
201108280600 METAR LMML NIL=
201108280545 METAR LMML 280545Z 31009KT CAVOK 26/17 Q1014 NOSIG=
201108280515 METAR LMML 280515Z 33009KT CAVOK 25/16 Q1014 NOSIG=
201108280445 METAR LMML 280445Z 32011KT CAVOK 24/18 Q1014 NOSIG=
201108280430 METAR LMML NIL=
201108280415 METAR LMML 280415Z 32009KT CAVOK 24/19 Q1013 NOSIG=
201108280400 METAR LMML NIL=
201108280345 METAR LMML 280345Z 32010KT CAVOK 24/20 Q1013 NOSIG=
201108280330 METAR LMML NIL=
201108280315 METAR LMML 280315Z 32009KT CAVOK 24/21 Q1013 NOSIG=
201108280300 METAR LMML NIL=
201108280245 METAR LMML 280245Z 32010KT CAVOK 25/21 Q1013 NOSIG=
201108280230 METAR LMML NIL=
201108280215 METAR LMML 280215Z 32011KT CAVOK 25/21 Q1013 NOSIG=
201108280200 METAR LMML NIL=
201108280145 METAR LMML 280145Z 32009KT CAVOK 25/21 Q1013 NOSIG=
201108280130 METAR LMML NIL=
201108280115 METAR LMML 280115Z 32010KT CAVOK 25/22 Q1013 NOSIG=
201108280100 METAR LMML NIL=
201108280045 METAR LMML 280045Z 31010KT CAVOK 25/21 Q1013 NOSIG=
201108280030 METAR LMML NIL=
201108280015 METAR LMML 280015Z 32010KT CAVOK 25/21 Q1013 NOSIG=
201108280000 METAR LMML NIL=
201108272345 METAR LMML 272345Z 31010KT CAVOK 25/22 Q1013 NOSIG=
201108272315 METAR LMML 272315Z 30012KT CAVOK 26/22 Q1014 NOSIG=
201108272300 METAR LMML NIL=
201108272245 METAR LMML 272245Z 29013KT 250V310 CAVOK 25/23 Q1014 NOSIG=
201108272230 METAR LMML NIL=
201108272215 METAR LMML 272215Z 29013KT CAVOK 25/23 Q1014 NOSIG=
201108272200 METAR LMML NIL=
201108272145 METAR LMML 272145Z 28009KT 240V310 CAVOK 25/23 Q1014 NOSIG=
201108272130 METAR LMML NIL=
201108272115 METAR LMML 272115Z 27008KT 240V310 CAVOK 25/22 Q1014 NOSIG=
201108272100 METAR LMML NIL=
201108272045 METAR LMML 272045Z 27008KT 230V300 CAVOK 25/22 Q1014 NOSIG=
201108272030 METAR LMML NIL=
201108272015 METAR LMML 272015Z 28007KT 230V320 CAVOK 25/23 Q1014 NOSIG=
201108271945 METAR LMML 271945Z 27004KT 210V320 CAVOK 25/23 Q1014 NOSIG=
201108271930 METAR LMML NIL=
201108271915 METAR LMML 271915Z 28006KT 240V310 CAVOK 26/22 Q1014 NOSIG=
201108271900 METAR LMML NIL=
201108271845 METAR LMML 271845Z 30006KT 260V330 9999 FEW020 26/22 Q1014
                        NOSIG=
201108271830 METAR LMML NIL=
201108271815 METAR LMML 271815Z 30009KT 9999 FEW020 26/23 Q1014 NOSIG=
201108271800 METAR LMML NIL=
201108271745 METAR LMML 271745Z 30010KT 9999 FEW020 27/22 Q1013 NOSIG=
201108271730 METAR LMML NIL=
201108271715 METAR LMML 271715Z 30010KT 9999 FEW020 28/20 Q1013 NOSIG=
201108271700 METAR LMML NIL=
201108271645 METAR LMML 271645Z 31012KT 270V330 CAVOK 28/21 Q1013 NOSIG=
201108271630 METAR LMML NIL=
201108271615 METAR LMML 271615Z 28009KT 250V320 CAVOK 30/20 Q1013 NOSIG=
201108271600 METAR LMML NIL=
201108271545 METAR LMML 271545Z 30010KT 260V330 CAVOK 31/20 Q1013 NOSIG=
201108271530 METAR LMML NIL=
201108271515 METAR LMML 271515Z 28010KT 240V320 CAVOK 31/20 Q1013 NOSIG=
201108271445 METAR LMML 271445Z 29010KT 250V320 CAVOK 32/19 Q1013 NOSIG=
201108271415 METAR LMML 271415Z 29011KT 250V320 CAVOK 32/15 Q1014 NOSIG=
201108271400 METAR LMML NIL=
201108271345 METAR LMML 271345Z 29011KT 260V330 CAVOK 34/12 Q1014 NOSIG=
201108271330 METAR LMML NIL=
201108271315 METAR LMML 271315Z 30009KT 250V350 CAVOK 34/12 Q1014 NOSIG=
201108271300 METAR LMML NIL=
201108271245 METAR LMML 271245Z 30011KT 270V330 CAVOK 34/13 Q1014 NOSIG=
201108271230 METAR LMML NIL=
201108271215 METAR LMML 271215Z 30006KT 250V020 CAVOK 34/15 Q1014 NOSIG=
201108271200 METAR LMML NIL=
201108271145 METAR LMML 271145Z 31008KT 260V340 CAVOK 34/13 Q1014 NOSIG=
201108271130 METAR LMML NIL=
201108271115 METAR LMML 271115Z 31009KT 250V360 CAVOK 33/15 Q1014 NOSIG=
201108271100 METAR LMML NIL=
201108271045 METAR LMML 271045Z 33008KT 280V030 CAVOK 33/15 Q1014 NOSIG=
201108271030 METAR LMML NIL=
201108271015 METAR LMML 271015Z 36007KT 320V030 CAVOK 34/12 Q1014 NOSIG=
201108271000 METAR LMML NIL=
201108270945 METAR LMML 270945Z 34007KT 310V020 CAVOK 33/14 Q1015 NOSIG=
201108270930 METAR LMML NIL=
201108270915 METAR LMML 270915Z 35007KT 320V020 CAVOK 33/14 Q1015 NOSIG=
201108270900 METAR LMML NIL=
201108270845 METAR LMML 270845Z 35005KT 310V020 CAVOK 33/15 Q1015 NOSIG=
201108270815 METAR LMML 270815Z 34003KT CAVOK 31/19 Q1014 NOSIG=
201108270800 METAR LMML NIL=
201108270745 METAR LMML 270745Z 32004KT 280V020 CAVOK 30/18 Q1014 NOSIG=
201108270730 METAR LMML NIL=
201108270715 METAR LMML 270715Z 32006KT 280V350 CAVOK 29/18 Q1014 NOSIG=
201108270645 METAR LMML 270645Z 33005KT 290V360 CAVOK 28/21 Q1014 NOSIG=
201108270615 METAR LMML 270615Z 31004KT CAVOK 27/19 Q1014 NOSIG=
201108270600 METAR LMML NIL=
201108270545 METAR LMML 270545Z 31003KT CAVOK 26/19 Q1013 NOSIG=
201108270530 METAR LMML NIL=
201108270515 METAR LMML 270515Z 27003KT CAVOK 24/18 Q1013 NOSIG=
201108270445 METAR LMML 270445Z VRB01KT CAVOK 24/20 Q1013 NOSIG=
201108270430 METAR LMML NIL=
201108270415 METAR LMML 270415Z VRB01KT CAVOK 24/20 Q1013 NOSIG=
201108270345 METAR LMML 270345Z 34004KT CAVOK 24/20 Q1012 NOSIG=
201108270330 METAR LMML NIL=
201108270315 METAR LMML 270315Z 31003KT CAVOK 24/18 Q1012 NOSIG=
201108270300 METAR LMML NIL=
201108270245 METAR LMML 270245Z 31004KT CAVOK 25/17 Q1012 NOSIG=
201108270230 METAR LMML NIL=
201108270215 METAR LMML 270215Z 32004KT CAVOK 25/16 Q1012 NOSIG=
201108270145 METAR LMML 270145Z 31003KT CAVOK 25/15 Q1012 NOSIG=
201108270130 METAR LMML NIL=
201108270115 METAR LMML 270115Z 31005KT CAVOK 26/15 Q1012 NOSIG=
201108270100 METAR LMML NIL=
201108270045 METAR LMML 270045Z 29005KT CAVOK 26/14 Q1012 NOSIG=
201108270030 METAR LMML NIL=
201108270015 METAR LMML 270015Z 30003KT CAVOK 26/14 Q1013 NOSIG=
201108262345 METAR LMML 262345Z 30004KT 270V330 CAVOK 26/14 Q1013 NOSIG=
201108262330 METAR LMML NIL=
201108262315 METAR LMML 262315Z VRB01KT CAVOK 26/15 Q1013 NOSIG=
201108262300 METAR LMML NIL=
201108262245 METAR LMML 262245Z 31003KT CAVOK 26/15 Q1013 NOSIG=
201108262230 METAR LMML NIL=
201108262215 METAR LMML 262215Z VRB02KT CAVOK 26/15 Q1013 NOSIG=
201108262200 METAR LMML NIL=
201108262145 METAR LMML 262145Z 31003KT CAVOK 26/16 Q1013 NOSIG=
201108262130 METAR LMML NIL=
201108262115 METAR LMML 262115Z 31004KT CAVOK 26/17 Q1013 NOSIG=
201108262100 METAR LMML NIL=
201108262045 METAR LMML 262045Z 30003KT CAVOK 26/17 Q1013 NOSIG=
201108262030 METAR LMML NIL=
201108262015 METAR LMML 262015Z 32003KT CAVOK 26/18 Q1013 NOSIG=
201108262000 METAR LMML NIL=
201108261945 METAR LMML 261945Z 32005KT CAVOK 26/19 Q1013 NOSIG=
201108261930 METAR LMML NIL=
201108261915 METAR LMML 261915Z 33005KT CAVOK 27/19 Q1013 NOSIG=
201108261900 METAR LMML NIL=
201108261845 METAR LMML 261845Z 33006KT CAVOK 27/18 Q1013 NOSIG=
201108261815 METAR LMML 261815Z 33006KT CAVOK 27/20 Q1013 NOSIG=
201108261800 METAR LMML NIL=
201108261745 METAR LMML 261745Z 34006KT CAVOK 28/19 Q1013 NOSIG=
201108261730 METAR LMML NIL=
201108261715 METAR LMML 261715Z 34006KT 290V030 CAVOK 29/19 Q1012 NOSIG=
201108261700 METAR LMML NIL=
201108261645 METAR LMML 261645Z 35003KT CAVOK 30/17 Q1012 NOSIG=
201108261630 METAR LMML NIL=
201108261615 METAR LMML 261615Z 32006KT 290V360 CAVOK 31/18 Q1012 NOSIG=
201108261600 METAR LMML NIL=
201108261545 METAR LMML 261545Z 03005KT 360V070 CAVOK 32/19 Q1012 NOSIG=
201108261530 METAR LMML NIL=
201108261515 METAR LMML 261515Z 03006KT 350V060 CAVOK 33/17 Q1012 NOSIG=
201108261500 METAR LMML NIL=
201108261445 METAR LMML 261445Z 19006KT 140V240 CAVOK 31/18 Q1012 NOSIG=
201108261430 METAR LMML NIL=
201108261415 METAR LMML 261415Z 20007KT 170V250 CAVOK 32/17 Q1012 NOSIG=
201108261345 METAR LMML 261345Z 20006KT 140V260 CAVOK 32/19 Q1012 NOSIG=
201108261315 METAR LMML 261315Z 24005KT 170V310 CAVOK 32/18 Q1013 NOSIG=
201108261300 METAR LMML NIL=
201108261245 METAR LMML 261245Z 18004KT 110V260 CAVOK 32/19 Q1013 NOSIG=
201108261230 METAR LMML NIL=
201108261215 METAR LMML 261215Z 22006KT 180V270 CAVOK 31/18 Q1013 NOSIG=
201108261200 METAR LMML NIL=
201108261145 METAR LMML 261145Z 19005KT 150V260 CAVOK 31/19 Q1013 NOSIG=
201108261130 METAR LMML NIL=
201108261115 METAR LMML 261115Z 20005KT 160V280 CAVOK 32/19 Q1013 NOSIG=
201108261100 METAR LMML NIL=
201108261045 METAR LMML 261045Z 36003KT CAVOK 34/12 Q1013 NOSIG=
201108261030 METAR LMML NIL=
201108261015 METAR LMML 261015Z 04005KT 240V090 CAVOK 34/11 Q1013 NOSIG=
201108261000 METAR LMML NIL=
201108260945 METAR LMML 260945Z 02004KT 330V080 CAVOK 33/13 Q1013 NOSIG=
201108260930 METAR LMML NIL=
201108260915 METAR LMML 260915Z 03004KT 360V070 CAVOK 33/13 Q1013 NOSIG=
201108260900 METAR LMML NIL=
201108260845 METAR LMML 260845Z 03004KT 350V060 CAVOK 33/14 Q1014 NOSIG=
201108260815 METAR LMML 260815Z 02003KT CAVOK 32/15 Q1013 NOSIG=
201108260745 METAR LMML 260745Z 03003KT CAVOK 31/16 Q1013 NOSIG=
201108260730 METAR LMML NIL=
201108260715 METAR LMML 260715Z 03004KT 010V070 CAVOK 30/18 Q1013 NOSIG=
201108260645 METAR LMML 260645Z 03003KT 9000 NSC 29/19 Q1013 BECMG CAVOK=
201108260630 METAR LMML NIL=
201108260615 METAR LMML 260615Z 04003KT 9000 NSC 27/21 Q1013 BECMG CAVOK=
201108260600 METAR LMML NIL=
201108260545 METAR LMML 260545Z VRB02KT 6000 NSC 25/22 Q1013 BECMG CAVOK=
201108260530 METAR LMML NIL=
201108260515 METAR LMML 260515Z VRB02KT 6000 NSC 23/21 Q1013 BECMG CAVOK=
201108260445 METAR LMML 260445Z VRB02KT 6000 NSC 23/21 Q1013 NOSIG=
201108260430 METAR LMML NIL=
201108260415 METAR LMML 260415Z VRB02KT 7000 NSC 22/20 Q1013 NOSIG=
201108260400 METAR LMML NIL=
201108260345 METAR LMML 260345Z VRB02KT 9000 NSC 23/21 Q1013 NOSIG=
201108260330 METAR LMML NIL=
201108260315 METAR LMML 260315Z VRB02KT CAVOK 23/21 Q1013 NOSIG=
201108260300 METAR LMML NIL=
201108260245 METAR LMML 260245Z VRB02KT CAVOK 23/20 Q1013 NOSIG=
201108260230 METAR LMML NIL=
201108260215 METAR LMML 260215Z VRB02KT CAVOK 23/21 Q1013 NOSIG=
201108260200 METAR LMML NIL=
201108260145 METAR LMML 260145Z VRB01KT CAVOK 24/21 Q1013 NOSIG=
201108260130 METAR LMML NIL=
201108260115 METAR LMML 260115Z VRB01KT CAVOK 24/21 Q1013 NOSIG=
201108260100 METAR LMML NIL=
201108260045 METAR LMML 260045Z 04003KT CAVOK 25/21 Q1013 NOSIG=
201108260030 METAR LMML NIL=
201108260015 METAR LMML 260015Z 04003KT CAVOK 25/21 Q1013 NOSIG=
201108252345 METAR LMML 252345Z 03004KT CAVOK 25/22 Q1013 NOSIG=
201108252315 METAR LMML 252315Z 01004KT CAVOK 25/22 Q1013 NOSIG=
201108252300 METAR LMML NIL=
201108252245 METAR LMML 252245Z 36004KT 330V050 CAVOK 25/22 Q1014 NOSIG=
201108252215 METAR LMML 252215Z 01004KT CAVOK 25/22 Q1014 NOSIG=
201108252145 METAR LMML 252145Z 36004KT CAVOK 25/22 Q1014 NOSIG=
201108252115 METAR LMML 252115Z 01004KT 9999 FEW012 25/22 Q1014 NOSIG=
201108252100 METAR LMML NIL=
201108252045 METAR LMML 252045Z 36006KT 9999 FEW012 26/23 Q1014 NOSIG=
201108252030 METAR LMML NIL=
201108252015 METAR LMML 252015Z 35005KT 9999 FEW012 26/23 Q1014 NOSIG=
201108252000 METAR LMML NIL=
201108251945 METAR LMML 251945Z 34005KT 9999 FEW012 26/22 Q1014 NOSIG=
201108251915 METAR LMML 251915Z 35006KT 9999 FEW012 26/22 Q1014 NOSIG=
201108251900 METAR LMML NIL=
201108251845 METAR LMML 251845Z 36007KT 9999 FEW012 27/22 Q1014 NOSIG=
201108251815 METAR LMML 251815Z 02005KT 9999 FEW012 27/22 Q1013 NOSIG=
201108251800 METAR LMML NIL=
201108251745 METAR LMML 251745Z 04005KT 010V080 9999 FEW012 28/23 Q1013
                        NOSIG=
201108251730 METAR LMML NIL=
201108251715 METAR LMML 251715Z 02004KT 350V120 9999 FEW015 29/21 Q1013
                        NOSIG=
201108251645 METAR LMML 251645Z 03004KT 360V080 CAVOK 30/21 Q1013 NOSIG=
201108251615 METAR LMML 251615Z 03007KT 360V060 CAVOK 31/20 Q1013 NOSIG=
201108251545 METAR LMML 251545Z 03003KT CAVOK 33/17 Q1013 NOSIG=
201108251515 METAR LMML 251515Z 06005KT 010V110 CAVOK 32/18 Q1013 NOSIG=
201108251500 METAR LMML NIL=
201108251445 METAR LMML 251445Z 03004KT 340V110 9999 FEW025 33/18 Q1013
                        NOSIG=
201108251415 METAR LMML 251415Z 04005KT 340V110 9999 FEW025 33/19 Q1013
                        NOSIG=
201108251345 METAR LMML 251345Z 04004KT 010V130 9999 FEW025 33/19 Q1013
                        NOSIG=
201108251315 METAR LMML 251315Z 06003KT 9999 FEW025 32/21 Q1014 NOSIG=
201108251245 METAR LMML 251245Z 13005KT 030V230 CAVOK 32/21 Q1014 NOSIG=
201108251215 METAR LMML 251215Z 05005KT 350V150 9999 FEW025 33/18 Q1014
                        NOSIG=
201108251145 METAR LMML 251145Z 04005KT 010V100 9999 FEW025 33/17 Q1014
                        NOSIG=
201108251115 METAR LMML 251115Z 10006KT 030V170 CAVOK 32/21 Q1014 NOSIG=
201108251045 METAR LMML 251045Z 08006KT 020V160 9999 FEW025 33/18 Q1014
                        NOSIG=
201108251015 METAR LMML 251015Z 07006KT 020V140 9999 FEW025 32/20 Q1014
                        NOSIG=
201108250945 METAR LMML 250945Z 33005KT 250V030 9999 FEW025 32/17 Q1014
                        NOSIG=
201108250915 METAR LMML 250915Z 01003KT CAVOK 32/17 Q1014 NOSIG=
201108250845 METAR LMML 250845Z 33004KT 260V020 CAVOK 32/16 Q1014 NOSIG=
201108250815 METAR LMML 250815Z 32004KT 270V360 CAVOK 30/18 Q1014 NOSIG=
201108250745 METAR LMML 250745Z 31006KT 280V340 CAVOK 29/19 Q1014 NOSIG=
201108250730 METAR LMML NIL=
201108250715 METAR LMML 250715Z 32005KT 290V360 CAVOK 28/20 Q1014 NOSIG=
201108250700 METAR LMML NIL=
201108250645 METAR LMML 250645Z 32006KT 280V350 CAVOK 27/21 Q1014 NOSIG=
201108250630 METAR LMML NIL=
201108250615 METAR LMML 250615Z 32005KT CAVOK 25/22 Q1014 NOSIG=
201108250600 METAR LMML NIL=
201108250545 METAR LMML 250545Z 30003KT CAVOK 24/22 Q1014 NOSIG=
201108250515 METAR LMML 250515Z VRB02KT CAVOK 23/22 Q1014 NOSIG=
201108250445 METAR LMML 250445Z 30003KT CAVOK 23/22 Q1014 NOSIG=
201108250430 METAR LMML NIL=
201108250415 METAR LMML 250415Z 28004KT CAVOK 23/21 Q1014 NOSIG=
201108250400 METAR LMML NIL=
201108250345 METAR LMML 250345Z 27003KT CAVOK 22/21 Q1014 NOSIG=
201108250330 METAR LMML NIL=
201108250315 METAR LMML 250315Z 29003KT CAVOK 23/21 Q1014 NOSIG=
201108250245 METAR LMML 250245Z 27003KT CAVOK 22/20 Q1014 NOSIG=
201108250230 METAR LMML NIL=
201108250215 METAR LMML 250215Z 28003KT CAVOK 23/20 Q1014 NOSIG=
201108250200 METAR LMML NIL=
201108250145 METAR LMML 250145Z VRB02KT CAVOK 22/20 Q1014 NOSIG=
201108250130 METAR LMML NIL=
201108250115 METAR LMML 250115Z VRB02KT CAVOK 22/20 Q1014 NOSIG=
201108250045 METAR LMML 250045Z VRB02KT CAVOK 23/19 Q1014 NOSIG=
201108250030 METAR LMML NIL=
201108250015 METAR LMML 250015Z VRB02KT CAVOK 23/19 Q1014 NOSIG=
201108250000 METAR LMML NIL=
201108242345 METAR LMML 242345Z VRB02KT CAVOK 23/19 Q1015 NOSIG=
201108242330 METAR LMML NIL=
201108242315 METAR LMML 242315Z VRB02KT CAVOK 23/20 Q1015 NOSIG=
201108242300 METAR LMML NIL=
201108242245 METAR LMML 242245Z VRB02KT CAVOK 23/20 Q1015 NOSIG=
201108242230 METAR LMML NIL=
201108242215 METAR LMML 242215Z VRB02KT CAVOK 24/20 Q1015 NOSIG=
201108242145 METAR LMML 242145Z VRB02KT CAVOK 24/20 Q1015 NOSIG=
201108242115 METAR LMML 242115Z 27003KT CAVOK 24/20 Q1015 NOSIG=
201108242100 METAR LMML NIL=
201108242045 METAR LMML 242045Z 27003KT CAVOK 25/21 Q1015 NOSIG=
201108242030 METAR LMML NIL=
201108242015 METAR LMML 242015Z 29003KT CAVOK 25/21 Q1015 NOSIG=
201108242000 METAR LMML NIL=
201108241945 METAR LMML 241945Z 30003KT CAVOK 25/21 Q1015 NOSIG=
201108241930 METAR LMML NIL=
201108241915 METAR LMML 241915Z 30003KT CAVOK 25/21 Q1015 NOSIG=
201108241900 METAR LMML NIL=
201108241845 METAR LMML 241845Z 30003KT CAVOK 26/20 Q1015 NOSIG=
201108241830 METAR LMML NIL=
201108241815 METAR LMML 241815Z 29005KT 260V320 CAVOK 26/19 Q1015 NOSIG=
201108241800 METAR LMML NIL=
201108241745 METAR LMML 241745Z 30006KT 260V320 CAVOK 27/20 Q1015 NOSIG=
201108241730 METAR LMML NIL=
201108241715 METAR LMML 241715Z 36005KT CAVOK 29/20 Q1015 NOSIG=
201108241645 METAR LMML 241645Z 02005KT CAVOK 30/19 Q1015 NOSIG=
201108241630 METAR LMML NIL=
201108241615 METAR LMML 241615Z 35005KT 300V020 CAVOK 30/19 Q1014 NOSIG=
201108241600 METAR LMML NIL=
201108241545 METAR LMML 241545Z 36005KT 280V080 CAVOK 31/19 Q1015 NOSIG=
201108241530 METAR LMML NIL=
201108241515 METAR LMML 241515Z 32006KT 280V020 9999 FEW030 31/17 Q1015
                        NOSIG=
201108241500 METAR LMML NIL=
201108241445 METAR LMML 241445Z 01005KT 300V070 9999 FEW030 32/17 Q1015
                        NOSIG=
201108241430 METAR LMML NIL=
201108241415 METAR LMML 241415Z 01006KT 320V070 9999 FEW030 32/19 Q1015
                        NOSIG=
201108241400 METAR LMML NIL=
201108241345 METAR LMML 241345Z 28005KT 200V360 9999 FEW030 32/17 Q1015
                        NOSIG=
201108241330 METAR LMML NIL=
201108241315 METAR LMML 241315Z 26005KT 200V330 9999 FEW030 32/17 Q1015
                        NOSIG=
201108241300 METAR LMML NIL=
201108241245 METAR LMML 241245Z 32008KT 270V010 9999 FEW025 32/17 Q1015
                        NOSIG=
201108241230 METAR LMML NIL=
201108241215 METAR LMML 241215Z 34007KT 300V030 9999 FEW025 32/19 Q1016
                        NOSIG=
201108241200 METAR LMML NIL=
201108241145 METAR LMML 241145Z 36009KT 310V040 9999 FEW025 32/20 Q1016
                        NOSIG=
201108241130 METAR LMML NIL=
201108241115 METAR LMML 241115Z 36008KT 290V040 9999 FEW025 32/19 Q1016
                        NOSIG=
201108241100 METAR LMML NIL=
201108241045 METAR LMML 241045Z 33006KT 260V040 9999 FEW025 31/19 Q1016
                        NOSIG=
201108241030 METAR LMML NIL=
201108241015 METAR LMML 241015Z 36007KT 320V040 CAVOK 31/19 Q1016 NOSIG=
201108241000 METAR LMML NIL=
201108240945 METAR LMML 240945Z 01006KT 340V050 9999 FEW025 32/19 Q1017
                        NOSIG=
201108240930 METAR LMML NIL=
201108240915 METAR LMML 240915Z 33006KT 300V020 9999 FEW025 31/18 Q1017
                        NOSIG=
201108240900 METAR LMML NIL=
201108240845 METAR LMML 240845Z 32006KT 290V360 CAVOK 30/15 Q1017 NOSIG=
201108240830 METAR LMML NIL=
201108240815 METAR LMML 240815Z 32005KT 270V010 9999 FEW020 30/17 Q1017
                        NOSIG=
201108240800 METAR LMML NIL=
201108240745 METAR LMML 240745Z 34003KT 9999 FEW020 29/17 Q1017 NOSIG=
201108240730 METAR LMML NIL=
201108240715 METAR LMML 240715Z VRB02KT CAVOK 29/18 Q1017 NOSIG=
201108240700 METAR LMML NIL=
201108240645 METAR LMML 240645Z 32005KT CAVOK 27/19 Q1016 NOSIG=
201108240630 METAR LMML NIL=
201108240615 METAR LMML 240615Z 32005KT CAVOK 26/21 Q1016 NOSIG=
201108240600 METAR LMML NIL=
201108240545 METAR LMML 240545Z 31003KT CAVOK 25/19 Q1016 NOSIG=
201108240530 METAR LMML NIL=
201108240515 METAR LMML 240515Z 32003KT CAVOK 23/17 Q1016 NOSIG=
201108240500 METAR LMML NIL=
201108240445 METAR LMML 240445Z 31004KT CAVOK 23/17 Q1016 NOSIG=
201108240430 METAR LMML NIL=
201108240415 METAR LMML 240415Z 29003KT CAVOK 22/18 Q1016 NOSIG=
201108240400 METAR LMML NIL=
201108240345 METAR LMML 240345Z 30004KT CAVOK 23/19 Q1015 NOSIG=
201108240330 METAR LMML NIL=
201108240315 METAR LMML 240315Z 30003KT CAVOK 22/19 Q1016 NOSIG=
201108240300 METAR LMML NIL=
201108240245 METAR LMML 240245Z 28003KT CAVOK 23/19 Q1016 NOSIG=
201108240230 METAR LMML NIL=
201108240215 METAR LMML 240215Z 29003KT CAVOK 23/20 Q1016 NOSIG=
201108240200 METAR LMML NIL=
201108240145 METAR LMML 240145Z 30003KT CAVOK 23/20 Q1016 NOSIG=
201108240130 METAR LMML NIL=
201108240115 METAR LMML 240115Z VRB02KT CAVOK 23/19 Q1016 NOSIG=
201108240100 METAR LMML NIL=
201108240045 METAR LMML 240045Z VRB02KT CAVOK 23/19 Q1016 NOSIG=
201108240030 METAR LMML NIL=
201108240015 METAR LMML 240015Z VRB02KT CAVOK 24/20 Q1016 NOSIG=
201108240000 METAR LMML NIL=
201108232345 METAR LMML 232345Z VRB02KT CAVOK 24/21 Q1016 NOSIG=
201108232330 METAR LMML NIL=
201108232315 METAR LMML 232315Z 27003KT CAVOK 24/21 Q1017 NOSIG=
201108232300 METAR LMML NIL=
201108232245 METAR LMML 232245Z 28004KT CAVOK 24/22 Q1017 NOSIG=
201108232230 METAR LMML NIL=
201108232215 METAR LMML 232215Z VRB02KT CAVOK 25/22 Q1017 NOSIG=
201108232200 METAR LMML NIL=
201108232145 METAR LMML 232145Z 31003KT CAVOK 25/22 Q1017 NOSIG=
201108232130 METAR LMML NIL=
201108232115 METAR LMML 232115Z 34003KT CAVOK 25/23 Q1017 NOSIG=
201108232100 METAR LMML NIL=
201108232045 METAR LMML 232045Z VRB02KT 9999 FEW015 25/23 Q1017 NOSIG=
201108232015 METAR LMML 232015Z 34004KT CAVOK 25/23 Q1017 NOSIG=
201108232000 METAR LMML NIL=
201108231945 METAR LMML 231945Z 35004KT CAVOK 26/22 Q1017 NOSIG=
201108231930 METAR LMML NIL=
201108231915 METAR LMML 231915Z 35004KT CAVOK 26/22 Q1017 NOSIG=
201108231900 METAR LMML NIL=
201108231845 METAR LMML 231845Z 36005KT CAVOK 26/22 Q1017 NOSIG=
201108231830 METAR LMML NIL=
201108231815 METAR LMML 231815Z 03004KT 360V080 CAVOK 26/22 Q1016 NOSIG=
201108231800 METAR LMML NIL=
201108231745 METAR LMML 231745Z 03004KT 320V060 CAVOK 27/22 Q1016 NOSIG=
201108231730 METAR LMML NIL=
201108231715 METAR LMML 231715Z 04004KT 010V080 CAVOK 28/22 Q1016 NOSIG=
201108231700 METAR LMML NIL=
201108231645 METAR LMML 231645Z 04004KT 010V090 9999 FEW025 29/22 Q1016
                        NOSIG=
201108231630 METAR LMML NIL=
201108231615 METAR LMML 231615Z 08003KT 9999 FEW025 29/22 Q1016 NOSIG=
201108231600 METAR LMML NIL=
201108231545 METAR LMML 231545Z 05005KT 010V110 9999 FEW025 30/21 Q1016
                        NOSIG=
201108231530 METAR LMML NIL=
201108231515 METAR LMML 231515Z 03005KT 310V080 9999 FEW025 31/21 Q1016
                        NOSIG=
201108231500 METAR LMML NIL=
201108231445 METAR LMML 231445Z 02003KT 9999 FEW025 32/20 Q1016 NOSIG=
201108231430 METAR LMML NIL=
201108231415 METAR LMML 231415Z 26003KT 9999 FEW025 31/20 Q1016 NOSIG=
201108231400 METAR LMML NIL=
201108231345 METAR LMML 231345Z 23006KT 170V290 9999 FEW025 31/20 Q1016
                        NOSIG=
201108231315 METAR LMML 231315Z 22008KT 160V280 9999 FEW025 30/19 Q1017
                        NOSIG=
201108231300 METAR LMML NIL=
201108231245 METAR LMML 231245Z 21007KT 170V250 CAVOK 30/19 Q1017 NOSIG=
201108231230 METAR LMML NIL=
201108231215 METAR LMML 231215Z 20006KT 160V260 9999 FEW020 31/15 Q1017
                        NOSIG=
201108231145 METAR LMML 231145Z 17005KT 120V220 9999 FEW015 31/17 Q1017
                        NOSIG=
201108231130 METAR LMML NIL=
201108231115 METAR LMML 231115Z 18005KT 140V230 9999 FEW015 31/15 Q1017
                        NOSIG=
201108231045 METAR LMML 231045Z 14005KT 080V210 9999 FEW015 31/17 Q1017
                        NOSIG=
201108231030 METAR LMML NIL=
201108231015 METAR LMML 231015Z 11005KT 050V150 9999 FEW015 31/20 Q1017
                        NOSIG=
201108231000 METAR LMML NIL=
201108230945 METAR LMML 230945Z 13004KT 080V240 9999 FEW012 30/19 Q1018
                        NOSIG=
201108230930 METAR LMML NIL=
201108230915 METAR LMML 230915Z 11005KT 020V190 9999 FEW012 29/21 Q1018
                        NOSIG=
201108230900 METAR LMML NIL=
201108230845 METAR LMML 230845Z 11005KT 030V180 9999 FEW012 29/21 Q1017
                        NOSIG=
201108230830 METAR LMML NIL=
201108230815 METAR LMML 230815Z 12007KT 080V170 9999 FEW010 28/22 Q1017
                        NOSIG=
201108230745 METAR LMML 230745Z 11007KT 070V140 9999 FEW015 29/20 Q1017
                        NOSIG=
201108230730 METAR LMML NIL=
201108230715 METAR LMML 230715Z 09005KT 030V140 9999 FEW015 28/19 Q1017
                        NOSIG=
201108230700 METAR LMML NIL=
201108230645 METAR LMML 230645Z 08005KT 050V120 CAVOK 27/21 Q1017 NOSIG=
201108230630 METAR LMML NIL=
201108230615 METAR LMML 230615Z 07004KT 6000 FEW006 26/23 Q1017 BECMG
                        9999=
201108230600 METAR LMML NIL=
201108230545 METAR LMML 230545Z 08004KT 030V240 6000 FEW006 25/23 Q1016
                        BECMG 9999=
201108230530 METAR LMML NIL=
201108230515 METAR LMML 230515Z 07003KT 6000 FEW008 25/23 Q1016 BECMG
                        9999=
201108230500 METAR LMML NIL=
201108230445 METAR LMML 230445Z VRB02KT 6000 FEW007 24/23 Q1016 BECMG
                        9999=
201108230430 METAR LMML NIL=
201108230415 METAR LMML 230415Z VRB02KT 7000 FEW007 23/23 Q1016 NOSIG=
201108230400 METAR LMML NIL=
201108230345 METAR LMML 230345Z VRB02KT 9000 FEW007 24/23 Q1016 TEMPO
                        BKN007=
201108230330 METAR LMML NIL=
201108230315 METAR LMML 230315Z VRB01KT 9999 FEW007 23/22 Q1016 TEMPO
                        8000 BKN007=
201108230300 METAR LMML NIL=
201108230245 METAR LMML 230245Z 04003KT 9999 FEW007 24/23 Q1016 TEMPO
                        8000 BKN007=
201108230230 METAR LMML NIL=
201108230215 METAR LMML 230215Z 03003KT 9999 FEW007 24/23 Q1016 TEMPO
                        8000 BKN007=
201108230200 METAR LMML NIL=
201108230145 METAR LMML 230145Z VRB02KT 9999 FEW007 24/23 Q1016 TEMPO
                        8000 BKN007=
201108230130 METAR LMML NIL=
201108230115 METAR LMML 230115Z 03003KT 9999 FEW007 24/23 Q1016 TEMPO
                        8000 BKN007=
201108230100 METAR LMML NIL=
201108230045 METAR LMML 230045Z 02004KT 350V070 9999 FEW007 24/23 Q1016
                        TEMPO 8000 BKN007=
201108230030 METAR LMML NIL=
201108230015 METAR LMML 230015Z 03004KT 9999 FEW012 25/23 Q1016 TEMPO
                        9999 FEW007=
201108230000 METAR LMML NIL=
201108222345 METAR LMML 222345Z 04003KT 9999 FEW012 25/23 Q1016 TEMPO
                        9999 FEW007=
201108222330 METAR LMML NIL=
201108222315 METAR LMML 222315Z 03004KT 280V080 CAVOK 25/22 Q1016 NOSIG=
201108222300 METAR LMML NIL=
201108222245 METAR LMML 222245Z 04005KT 360V100 CAVOK 25/22 Q1016 NOSIG=
201108222230 METAR LMML NIL=
201108222215 METAR LMML 222215Z 07006KT CAVOK 25/22 Q1016 NOSIG=
201108222200 METAR LMML NIL=
201108222145 METAR LMML 222145Z 06005KT 010V100 CAVOK 25/22 Q1016 NOSIG=
201108222130 METAR LMML NIL=
201108222115 METAR LMML 222115Z 06007KT 020V100 CAVOK 26/21 Q1016 NOSIG=
201108222100 METAR LMML NIL=
201108222045 METAR LMML 222045Z 04004KT 010V170 CAVOK 26/21 Q1016 NOSIG=
201108222030 METAR LMML NIL=
201108222015 METAR LMML 222015Z 03005KT 010V070 CAVOK 26/21 Q1016 NOSIG=
201108222000 METAR LMML NIL=
201108221945 METAR LMML 221945Z 04006KT 010V080 CAVOK 26/20 Q1016 NOSIG=
201108221930 METAR LMML NIL=
201108221915 METAR LMML 221915Z 01004KT CAVOK 26/19 Q1016 NOSIG=
201108221900 METAR LMML NIL=
201108221845 METAR LMML 221845Z 01003KT CAVOK 27/18 Q1015 NOSIG=
201108221830 METAR LMML NIL=
201108221815 METAR LMML 221815Z 01005KT CAVOK 27/17 Q1015 NOSIG=
201108221800 METAR LMML NIL=
201108221745 METAR LMML 221745Z 02004KT CAVOK 28/17 Q1015 NOSIG=
201108221730 METAR LMML NIL=
201108221715 METAR LMML 221715Z 05005KT 010V080 CAVOK 29/16 Q1015 NOSIG=
201108221700 METAR LMML NIL=
201108221645 METAR LMML 221645Z 06006KT 010V090 CAVOK 30/15 Q1015 NOSIG=
201108221630 METAR LMML NIL=
201108221615 METAR LMML 221615Z 05007KT 010V090 CAVOK 31/14 Q1015 NOSIG=
201108221600 METAR LMML NIL=
201108221545 METAR LMML 221545Z 06009KT 020V090 CAVOK 32/13 Q1015 NOSIG=
201108221530 METAR LMML NIL=
201108221515 METAR LMML 221515Z 06009KT 020V100 CAVOK 32/14 Q1015 NOSIG=
201108221500 METAR LMML NIL=
201108221445 METAR LMML 221445Z 08008KT 050V120 CAVOK 32/13 Q1015 NOSIG=
201108221430 METAR LMML NIL=
201108221415 METAR LMML 221415Z 08008KT 050V110 CAVOK 32/13 Q1015 NOSIG=
201108221400 METAR LMML NIL=
201108221345 METAR LMML 221345Z 08008KT 020V130 CAVOK 32/14 Q1015 NOSIG=
201108221330 METAR LMML NIL=
201108221315 METAR LMML 221315Z 09008KT 060V120 CAVOK 32/13 Q1015 NOSIG=
201108221300 METAR LMML NIL=
201108221245 METAR LMML 221245Z 08009KT 050V120 CAVOK 32/13 Q1015 NOSIG=
201108221230 METAR LMML NIL=
201108221215 METAR LMML 221215Z 09009KT 050V120 CAVOK 32/14 Q1015 NOSIG=
201108221200 METAR LMML NIL=
201108221145 METAR LMML 221145Z 06009KT 010V140 CAVOK 33/15 Q1016 NOSIG=
201108221115 METAR LMML 221115Z 06008KT 020V120 CAVOK 33/15 Q1016 NOSIG=
201108221100 METAR LMML NIL=
201108221045 METAR LMML 221045Z 05008KT 020V100 CAVOK 33/15 Q1016 NOSIG=
201108221030 METAR LMML NIL=
201108221015 METAR LMML 221015Z 06008KT 020V120 CAVOK 32/17 Q1016 NOSIG=
201108221000 METAR LMML NIL=
201108220945 METAR LMML 220945Z 05010KT 020V090 CAVOK 32/17 Q1016 NOSIG=
201108220930 METAR LMML NIL=
201108220915 METAR LMML 220915Z 07010KT 010V120 CAVOK 32/17 Q1016 NOSIG=
201108220900 METAR LMML NIL=
201108220845 METAR LMML 220845Z 06010KT 020V100 CAVOK 31/17 Q1016 NOSIG=
201108220815 METAR LMML 220815Z 06009KT 020V090 CAVOK 31/18 Q1016 NOSIG=
201108220800 METAR LMML NIL=
201108220745 METAR LMML 220745Z 04007KT 360V080 CAVOK 30/20 Q1016 NOSIG=
201108220730 METAR LMML NIL=
201108220715 METAR LMML 220715Z 04007KT 010V080 CAVOK 29/21 Q1016 NOSIG=
201108220700 METAR LMML NIL=
201108220645 METAR LMML 220645Z 03008KT CAVOK 29/21 Q1015 NOSIG=
201108220630 METAR LMML NIL=
201108220615 METAR LMML 220615Z 04006KT 010V080 CAVOK 28/20 Q1015 NOSIG=
201108220600 METAR LMML NIL=
201108220545 METAR LMML 220545Z 04006KT 360V070 CAVOK 27/21 Q1015 NOSIG=
201108220530 METAR LMML NIL=
201108220515 METAR LMML 220515Z 03005KT CAVOK 26/21 Q1015 NOSIG=
201108220500 METAR LMML NIL=
201108220445 METAR LMML 220445Z 02004KT 360V060 CAVOK 25/20 Q1015 NOSIG=
201108220430 METAR LMML NIL=
201108220415 METAR LMML 220415Z 03004KT CAVOK 25/20 Q1015 NOSIG=
201108220400 METAR LMML NIL=
201108220345 METAR LMML 220345Z 01004KT CAVOK 24/20 Q1015 NOSIG=
201108220330 METAR LMML NIL=
201108220315 METAR LMML 220315Z 35003KT CAVOK 24/20 Q1015 NOSIG=
201108220300 METAR LMML NIL=
201108220245 METAR LMML 220245Z 34003KT CAVOK 24/19 Q1015 NOSIG=
201108220230 METAR LMML NIL=
201108220215 METAR LMML 220215Z 34004KT CAVOK 24/19 Q1015 NOSIG=
201108220200 METAR LMML NIL=
201108220145 METAR LMML 220145Z 33003KT CAVOK 24/20 Q1015 NOSIG=
201108220130 METAR LMML NIL=
201108220115 METAR LMML 220115Z 34004KT CAVOK 24/20 Q1015 NOSIG=
201108220100 METAR LMML NIL=
201108220045 METAR LMML 220045Z 33003KT CAVOK 25/20 Q1015 NOSIG=
201108220030 METAR LMML NIL=
201108220015 METAR LMML 220015Z 32003KT CAVOK 25/20 Q1015 NOSIG=
201108212345 METAR LMML 212345Z 32003KT CAVOK 25/21 Q1015 NOSIG=
201108212315 METAR LMML 212315Z VRB02KT CAVOK 25/21 Q1016 NOSIG=
201108212300 METAR LMML NIL=
201108212245 METAR LMML 212245Z 31004KT CAVOK 25/20 Q1016 NOSIG=
201108212230 METAR LMML NIL=
201108212215 METAR LMML 212215Z 29003KT CAVOK 26/20 Q1016 NOSIG=
201108212200 METAR LMML NIL=
201108212145 METAR LMML 212145Z 31004KT CAVOK 26/20 Q1016 NOSIG=
201108212130 METAR LMML NIL=
201108212115 METAR LMML 212115Z 32003KT CAVOK 26/20 Q1016 NOSIG=
201108212100 METAR LMML NIL=
201108212045 METAR LMML 212045Z 32003KT CAVOK 27/19 Q1016 NOSIG=
201108212030 METAR LMML NIL=
201108212015 METAR LMML 212015Z 33003KT CAVOK 27/19 Q1016 NOSIG=
201108212000 METAR LMML NIL=
201108211945 METAR LMML 211945Z VRB02KT CAVOK 28/18 Q1016 NOSIG=
201108211930 METAR LMML NIL=
201108211915 METAR LMML 211915Z 00000KT CAVOK 28/16 Q1016 NOSIG=
201108211900 METAR LMML NIL=
201108211845 METAR LMML 211845Z VRB02KT CAVOK 28/17 Q1016 NOSIG=
201108211830 METAR LMML NIL=
201108211815 METAR LMML 211815Z VRB02KT CAVOK 28/17 Q1016 NOSIG=
201108211800 METAR LMML NIL=
201108211745 METAR LMML 211745Z 00000KT CAVOK 29/16 Q1016 NOSIG=
201108211730 METAR LMML NIL=
201108211715 METAR LMML 211715Z 18003KT CAVOK 29/17 Q1015 NOSIG=
201108211700 METAR LMML NIL=
201108211645 METAR LMML 211645Z 16006KT CAVOK 30/16 Q1015 NOSIG=
201108211630 METAR LMML NIL=
201108211615 METAR LMML 211615Z 15006KT 070V210 CAVOK 31/16 Q1015 NOSIG=
201108211600 METAR LMML NIL=
201108211545 METAR LMML 211545Z 15006KT 120V190 CAVOK 32/14 Q1015 NOSIG=
201108211530 METAR LMML NIL=
201108211515 METAR LMML 211515Z 15006KT 120V210 CAVOK 32/13 Q1015 NOSIG=
201108211500 METAR LMML NIL=
201108211445 METAR LMML 211445Z 13007KT 090V160 CAVOK 33/14 Q1016 NOSIG=
201108211430 METAR LMML NIL=
201108211415 METAR LMML 211415Z 12006KT 090V150 CAVOK 33/14 Q1016 NOSIG=
201108211400 METAR LMML NIL=
201108211345 METAR LMML 211345Z 09005KT 050V140 CAVOK 34/13 Q1016 NOSIG=
201108211330 METAR LMML NIL=
201108211315 METAR LMML 211315Z 08007KT 020V140 CAVOK 34/14 Q1016 NOSIG=
201108211300 METAR LMML NIL=
201108211245 METAR LMML 211245Z 09007KT 050V130 CAVOK 34/13 Q1016 NOSIG=
201108211230 METAR LMML NIL=
201108211215 METAR LMML 211215Z 05006KT 360V090 CAVOK 34/15 Q1016 NOSIG=
201108211200 METAR LMML NIL=
201108211145 METAR LMML 211145Z 07005KT 020V120 CAVOK 34/16 Q1016 NOSIG=
201108211130 METAR LMML NIL=
201108211115 METAR LMML 211115Z 06006KT 010V110 CAVOK 34/16 Q1016 NOSIG=
201108211100 METAR LMML NIL=
201108211045 METAR LMML 211045Z 04004KT 360V100 CAVOK 34/16 Q1016 NOSIG=
201108211030 METAR LMML NIL=
201108211015 METAR LMML 211015Z 05005KT 360V110 CAVOK 34/16 Q1017 NOSIG=
201108211000 METAR LMML NIL=
201108210945 METAR LMML 210945Z 06007KT 010V100 CAVOK 33/18 Q1017 NOSIG=
201108210930 METAR LMML NIL=
201108210915 METAR LMML 210915Z 04007KT 010V070 CAVOK 33/17 Q1017 NOSIG=
201108210845 METAR LMML 210845Z 04006KT 010V080 CAVOK 33/15 Q1016 NOSIG=
201108210830 METAR LMML NIL=
201108210815 METAR LMML 210815Z 04005KT 360V080 CAVOK 33/12 Q1016 NOSIG=
201108210800 METAR LMML NIL=
201108210745 METAR LMML 210745Z 06005KT 010V100 CAVOK 32/11 Q1016 NOSIG=
201108210730 METAR LMML NIL=
201108210715 METAR COR LMML 210715Z VRB02KT CAVOK 30/16 Q1016 NOSIG=
201108210700 METAR LMML NIL=
201108210645 METAR LMML 210645Z 34003KT CAVOK 28/17 Q1016 BECMG CAVOK=
201108210630 METAR LMML NIL=
201108210615 METAR LMML 210615Z VRB02KT CAVOK 27/21 Q1016 BECMG CAVOK=
201108210600 METAR LMML NIL=
201108210545 METAR LMML 210545Z VRB02KT 8000 NSC 25/22 Q1016 BECMG CAVOK=
201108210530 METAR LMML NIL=
201108210515 METAR LMML 210515Z 30003KT 8000 NSC 24/23 Q1016 BECMG CAVOK=
201108210445 METAR LMML 210445Z VRB02KT 6000 NSC 23/22 Q1016 BECMG CAVOK=
201108210430 METAR LMML NIL=
201108210415 METAR LMML 210415Z 31004KT CAVOK 23/21 Q1015 NOSIG=
201108210345 METAR LMML 210345Z 33003KT CAVOK 23/20 Q1015 NOSIG=
201108210315 METAR LMML 210315Z 33004KT CAVOK 23/19 Q1015 NOSIG=
201108210300 METAR LMML NIL=
201108210245 METAR LMML 210245Z 32006KT CAVOK 24/16 Q1015 NOSIG=
201108210230 METAR LMML NIL=
201108210215 METAR LMML 210215Z 34003KT CAVOK 24/08 Q1015 NOSIG=
201108210200 METAR LMML NIL=
201108210145 METAR LMML 210145Z VRB02KT CAVOK 25/08 Q1015 NOSIG=
201108210130 METAR LMML NIL=
201108210115 METAR LMML 210115Z VRB02KT CAVOK 26/07 Q1015 NOSIG=
201108210100 METAR LMML NIL=
201108210045 METAR LMML 210045Z 27003KT CAVOK 26/07 Q1016 NOSIG=
201108210030 METAR LMML NIL=
201108210015 METAR LMML 210015Z 26003KT CAVOK 26/07 Q1016 NOSIG=
201108210000 METAR LMML NIL=
201108202345 METAR LMML 202345Z 28004KT CAVOK 27/07 Q1016 NOSIG=
201108202330 METAR LMML NIL=
201108202315 METAR LMML 202315Z 28006KT CAVOK 27/07 Q1016 NOSIG=
201108202245 METAR LMML 202245Z 29004KT CAVOK 27/07 Q1016 NOSIG=
201108202230 METAR LMML NIL=
201108202215 METAR LMML 202215Z 29003KT CAVOK 27/08 Q1017 NOSIG=
201108202200 METAR LMML NIL=
201108202145 METAR LMML 202145Z 27003KT CAVOK 26/11 Q1017 NOSIG=
201108202115 METAR LMML 202115Z VRB02KT CAVOK 26/16 Q1017 NOSIG=
201108202100 METAR LMML NIL=
201108202045 METAR LMML 202045Z 26003KT CAVOK 26/16 Q1017 NOSIG=
201108202030 METAR LMML NIL=
201108202015 METAR LMML 202015Z VRB02KT CAVOK 26/17 Q1017 NOSIG=
201108202000 METAR LMML NIL=
201108201945 METAR LMML 201945Z 32004KT CAVOK 27/13 Q1017 NOSIG=
201108201915 METAR LMML 201915Z 32003KT CAVOK 27/11 Q1017 NOSIG=
201108201900 METAR LMML NIL=
201108201845 METAR LMML 201845Z 33004KT CAVOK 27/13 Q1017 NOSIG=
201108201830 METAR LMML NIL=
201108201815 METAR LMML 201815Z VRB02KT CAVOK 28/18 Q1017 NOSIG=
201108201800 METAR LMML NIL=
201108201745 METAR LMML 201745Z 02003KT CAVOK 29/15 Q1016 NOSIG=
201108201730 METAR LMML NIL=
201108201715 METAR LMML 201715Z 04005KT 360V160 CAVOK 31/17 Q1016 NOSIG=
201108201700 METAR LMML NIL=
201108201645 METAR LMML 201645Z 05003KT CAVOK 32/16 Q1016 NOSIG=
201108201630 METAR LMML NIL=
201108201615 METAR LMML 201615Z VRB01KT CAVOK 34/15 Q1016 NOSIG=
201108201600 METAR LMML NIL=
201108201545 METAR LMML 201545Z VRB02KT CAVOK 35/11 Q1016 NOSIG=
201108201530 METAR LMML NIL=
201108201515 METAR LMML 201515Z 02003KT CAVOK 35/10 Q1017 NOSIG=
201108201500 METAR LMML NIL=
201108201445 METAR LMML 201445Z 04004KT 300V190 CAVOK 35/12 Q1017 NOSIG
                        RMK SMOKE TO WEST=
201108201430 METAR LMML NIL=
201108201415 METAR LMML 201415Z 09003KT CAVOK 35/16 Q1017 NOSIG RMK SMOKE
                        TO WEST=
201108201400 METAR LMML NIL=
201108201345 METAR LMML 201345Z 05004KT 340V110 CAVOK 35/10 Q1017 NOSIG=
201108201330 METAR LMML NIL=
201108201315 METAR LMML 201315Z 05003KT CAVOK 35/10 Q1017 NOSIG=
201108201300 METAR LMML NIL=
201108201245 METAR LMML 201245Z 03004KT 320V100 CAVOK 35/14 Q1017 NOSIG=
201108201230 METAR LMML NIL=
201108201215 METAR LMML 201215Z 02005KT 340V070 CAVOK 35/14 Q1017 NOSIG=
201108201200 METAR LMML NIL=
201108201145 METAR LMML 201145Z 05005KT 350V130 CAVOK 35/13 Q1018 NOSIG=
201108201130 METAR LMML NIL=
201108201115 METAR LMML 201115Z 03004KT 330V120 CAVOK 35/11 Q1018 NOSIG=
201108201100 METAR LMML NIL=
201108201045 METAR LMML 201045Z 32003KT CAVOK 34/15 Q1018 NOSIG=
201108201030 METAR LMML NIL=
201108201015 METAR LMML 201015Z 01005KT 270V070 CAVOK 33/19 Q1018 NOSIG=
201108201000 METAR LMML NIL=
201108200945 METAR LMML 200945Z 36005KT CAVOK 31/21 Q1018 NOSIG=
201108200930 METAR LMML NIL=
201108200915 METAR LMML 200915Z 05004KT 010V160 CAVOK 32/20 Q1018 NOSIG=
201108200900 METAR LMML NIL=
201108200845 METAR LMML 200845Z 06004KT 020V140 CAVOK 32/19 Q1018 NOSIG=
201108200830 METAR LMML NIL=
201108200815 METAR LMML 200815Z VRB02KT CAVOK 32/17 Q1018 NOSIG=
201108200800 METAR LMML NIL=
201108200745 METAR LMML 200745Z VRB02KT CAVOK 31/17 Q1017 NOSIG=
201108200730 METAR LMML NIL=
201108200715 METAR LMML 200715Z VRB02KT CAVOK 29/17 Q1017 NOSIG=
201108200700 METAR LMML NIL=
201108200645 METAR LMML 200645Z 22003KT CAVOK 28/19 Q1017 NOSIG=
201108200630 METAR LMML NIL=
201108200615 METAR LMML 200615Z 31004KT CAVOK 27/19 Q1017 NOSIG=
201108200545 METAR LMML 200545Z 32005KT CAVOK 26/18 Q1017 NOSIG=
201108200530 METAR LMML NIL=
201108200515 METAR LMML 200515Z 34004KT CAVOK 26/16 Q1017 NOSIG=
201108200445 METAR LMML 200445Z VRB02KT CAVOK 25/14 Q1017 NOSIG=
201108200430 METAR LMML NIL=
201108200415 METAR LMML 200415Z 31004KT CAVOK 25/13 Q1016 NOSIG=
201108200400 METAR LMML NIL=
201108200345 METAR LMML 200345Z 33004KT CAVOK 25/13 Q1016 NOSIG=
201108200330 METAR LMML NIL=
201108200315 METAR LMML 200315Z 28007KT CAVOK 25/13 Q1016 NOSIG=
201108200300 METAR LMML NIL=
201108200245 METAR LMML 200245Z 28004KT CAVOK 25/13 Q1016 NOSIG=
201108200230 METAR LMML NIL=
201108200215 METAR LMML 200215Z 27004KT 230V300 CAVOK 25/14 Q1016 NOSIG=
201108200200 METAR LMML NIL=
201108200145 METAR LMML 200145Z 25004KT CAVOK 25/13 Q1016 NOSIG=
201108200130 METAR LMML NIL=
201108200115 METAR LMML 200115Z VRB02KT CAVOK 24/14 Q1017 NOSIG=
201108200100 METAR LMML NIL=
201108200045 METAR LMML 200045Z 26003KT CAVOK 24/14 Q1017 NOSIG=
201108200015 METAR LMML 200015Z 28004KT CAVOK 25/13 Q1017 NOSIG=
201108200000 METAR LMML NIL=
201108192345 METAR LMML 192345Z 29004KT CAVOK 25/14 Q1017 NOSIG=
201108192330 METAR LMML NIL=
201108192315 METAR LMML 192315Z 28004KT CAVOK 25/16 Q1017 NOSIG=
201108192300 METAR LMML NIL=
201108192245 METAR LMML 192245Z 29003KT CAVOK 24/20 Q1018 NOSIG=
201108192230 METAR LMML NIL=
201108192215 METAR LMML 192215Z 29003KT CAVOK 24/20 Q1018 NOSIG=
201108192200 METAR LMML NIL=
201108192145 METAR LMML 192145Z 31004KT CAVOK 24/20 Q1018 NOSIG=
201108192130 METAR LMML NIL=
201108192115 METAR LMML 192115Z 34003KT CAVOK 25/20 Q1018 NOSIG=
201108192100 METAR LMML NIL=
201108192045 METAR LMML 192045Z 33004KT CAVOK 25/19 Q1018 NOSIG=
201108192030 METAR LMML NIL=
201108192015 METAR LMML 192015Z 34005KT CAVOK 26/19 Q1018 NOSIG=
201108192000 METAR LMML NIL=
201108191945 METAR LMML 191945Z 33004KT CAVOK 25/18 Q1018 NOSIG=
201108191930 METAR LMML NIL=
201108191915 METAR LMML 191915Z 34004KT CAVOK 26/18 Q1018 NOSIG=
201108191900 METAR LMML NIL=
201108191845 METAR LMML 191845Z 31004KT 280V340 CAVOK 27/17 Q1018 NOSIG=
201108191830 METAR LMML NIL=
201108191815 METAR LMML 191815Z 02003KT CAVOK 27/21 Q1017 NOSIG=
201108191800 METAR LMML NIL=
201108191745 METAR LMML 191745Z 06004KT 020V110 CAVOK 28/19 Q1017 NOSIG=
201108191730 METAR LMML NIL=
201108191715 METAR LMML 191715Z 12005KT CAVOK 29/18 Q1017 NOSIG=
201108191645 METAR LMML 191645Z 12004KT 070V160 CAVOK 31/18 Q1017 NOSIG=
201108191630 METAR LMML NIL=
201108191615 METAR LMML 191615Z 05003KT CAVOK 32/17 Q1017 NOSIG=
201108191600 METAR LMML NIL=
201108191545 METAR LMML 191545Z 06003KT CAVOK 33/18 Q1017 NOSIG=
201108191530 METAR LMML NIL=
201108191515 METAR LMML 191515Z 06004KT 020V100 CAVOK 32/18 Q1017 NOSIG=
201108191500 METAR LMML NIL=
201108191445 METAR LMML 191445Z 03004KT 340V070 CAVOK 33/19 Q1018 NOSIG=
201108191430 METAR LMML NIL=
201108191415 METAR LMML 191415Z 04005KT 010V110 CAVOK 33/18 Q1018 NOSIG=
201108191345 METAR LMML 191345Z 03005KT 360V060 CAVOK 34/18 Q1018 NOSIG=
201108191330 METAR LMML NIL=
201108191315 METAR LMML 191315Z 21004KT 130V310 CAVOK 33/14 Q1018 NOSIG=
201108191245 METAR LMML 191245Z 20004KT 150V250 CAVOK 33/14 Q1018 NOSIG=
201108191230 METAR LMML NIL=
201108191215 METAR LMML 191215Z 19006KT 150V260 CAVOK 33/14 Q1018 NOSIG=
201108191145 METAR LMML 191145Z 23003KT CAVOK 34/15 Q1018 NOSIG=
201108191130 METAR LMML NIL=
201108191115 METAR LMML 191115Z 21005KT 160V310 CAVOK 33/15 Q1019 NOSIG=
201108191100 METAR LMML NIL=
201108191045 METAR LMML 191045Z 16004KT 060V240 CAVOK 33/15 Q1019 NOSIG=
201108191030 METAR LMML NIL=
201108191015 METAR LMML 191015Z 09004KT 340V240 CAVOK 34/13 Q1019 NOSIG=
201108191000 METAR LMML NIL=
201108190945 METAR LMML 190945Z 01003KT CAVOK 34/14 Q1019 NOSIG=
201108190930 METAR LMML NIL=
201108190915 METAR LMML 190915Z 05004KT 350V110 CAVOK 33/14 Q1019 NOSIG=
201108190845 METAR LMML 190845Z 09003KT CAVOK 33/14 Q1019 NOSIG=
201108190830 METAR LMML NIL=
201108190815 METAR LMML 190815Z 02003KT CAVOK 32/14 Q1019 NOSIG=
201108190800 METAR LMML NIL=
201108190745 METAR LMML 190745Z 04003KT CAVOK 32/14 Q1018 NOSIG=
201108190730 METAR LMML NIL=
201108190715 METAR LMML 190715Z 02003KT CAVOK 31/15 Q1018 NOSIG=
201108190700 METAR LMML NIL=
201108190645 METAR LMML 190645Z VRB02KT CAVOK 30/16 Q1018 NOSIG=
201108190630 METAR LMML NIL=
201108190615 METAR LMML 190615Z VRB02KT CAVOK 27/17 Q1018 NOSIG=
201108190545 METAR LMML 190545Z VRB02KT CAVOK 25/18 Q1017 NOSIG RMK SMOKE
                        LYR TO W-SW=
201108190530 METAR LMML NIL=
201108190515 METAR LMML 190515Z VRB01KT CAVOK 23/18 Q1017 NOSIG=
201108190500 METAR LMML NIL=
201108190445 METAR LMML 190445Z VRB02KT CAVOK 22/18 Q1017 NOSIG=
201108190415 METAR LMML 190415Z 31003KT CAVOK 22/18 Q1017 NOSIG=
201108190400 METAR LMML NIL=
201108190345 METAR LMML 190345Z VRB02KT CAVOK 22/18 Q1017 NOSIG=
201108190330 METAR LMML NIL=
201108190315 METAR LMML 190315Z 33003KT 9000 NSC 23/19 Q1017 NOSIG=
201108190300 METAR LMML NIL=
201108190245 METAR LMML 190245Z 32004KT 9000 NSC 22/19 Q1017 NOSIG=
201108190230 METAR LMML NIL=
201108190215 METAR LMML 190215Z VRB02KT 9000 NSC 22/20 Q1016 NOSIG=
201108190200 METAR LMML NIL=
201108190145 METAR LMML 190145Z VRB02KT 9000 NSC 23/21 Q1016 NOSIG=
201108190130 METAR LMML NIL=
201108190115 METAR LMML 190115Z VRB02KT 9000 NSC 24/22 Q1017 NOSIG=
201108190100 METAR LMML NIL=
201108190045 METAR LMML 190045Z 33003KT 9000 NSC 24/22 Q1017 NOSIG=
201108190030 METAR LMML NIL=
201108190015 METAR LMML 190015Z 33003KT 9000 NSC 24/22 Q1017 NOSIG=
201108190000 METAR LMML NIL=
201108182345 METAR LMML 182345Z 34003KT CAVOK 24/22 Q1017 NOSIG=
201108182330 METAR LMML NIL=
201108182315 METAR LMML 182315Z VRB02KT CAVOK 24/22 Q1017 NOSIG=
201108182300 METAR LMML NIL=
201108182245 METAR LMML 182245Z 36004KT CAVOK 25/22 Q1017 NOSIG=
201108182230 METAR LMML NIL=
201108182215 METAR LMML 182215Z 36004KT CAVOK 25/22 Q1017 NOSIG=
201108182200 METAR LMML NIL=
201108182145 METAR LMML 182145Z 02003KT CAVOK 25/22 Q1017 NOSIG=
201108182130 METAR LMML NIL=
201108182115 METAR LMML 182115Z VRB02KT CAVOK 25/21 Q1017 NOSIG=
201108182100 METAR LMML NIL=
201108182045 METAR LMML 182045Z VRB02KT CAVOK 25/21 Q1017 NOSIG=
201108182030 METAR LMML NIL=
201108182015 METAR LMML 182015Z 36003KT CAVOK 25/20 Q1017 NOSIG=
201108182000 METAR LMML NIL=
201108181945 METAR LMML 181945Z VRB02KT CAVOK 26/21 Q1017 NOSIG=
201108181930 METAR LMML NIL=
201108181915 METAR LMML 181915Z 03003KT CAVOK 26/20 Q1017 NOSIG=
201108181900 METAR LMML NIL=
201108181845 METAR LMML 181845Z 06003KT CAVOK 26/20 Q1016 NOSIG=
201108181830 METAR LMML NIL=
201108181815 METAR LMML 181815Z VRB02KT CAVOK 27/20 Q1016 NOSIG=
201108181800 METAR LMML NIL=
201108181745 METAR LMML 181745Z 10003KT CAVOK 27/20 Q1016 NOSIG=
201108181730 METAR LMML NIL=
201108181715 METAR LMML 181715Z 14004KT CAVOK 28/19 Q1016 NOSIG=
201108181700 METAR LMML NIL=
201108181645 METAR LMML 181645Z 12004KT 090V150 CAVOK 29/18 Q1016 NOSIG=
201108181630 METAR LMML NIL=
201108181615 METAR LMML 181615Z 13004KT 060V200 CAVOK 30/17 Q1016 NOSIG=
201108181545 METAR LMML 181545Z 12004KT 070V180 CAVOK 31/17 Q1016 NOSIG=
201108181530 METAR LMML NIL=
201108181515 METAR LMML 181515Z 20003KT 9999 FEW025 30/20 Q1016 BECMG
                        CAVOK=
201108181500 METAR LMML NIL=
201108181445 METAR LMML 181445Z 15005KT 090V210 9999 FEW025 31/20 Q1016
                        NOSIG=
201108181415 METAR LMML 181415Z 09005KT 040V180 9999 FEW025 31/17 Q1016
                        NOSIG=
201108181400 METAR LMML NIL=
201108181345 METAR LMML 181345Z 11005KT 030V190 9999 FEW025 31/19 Q1016
                        NOSIG=
201108181330 METAR LMML NIL=
201108181315 METAR LMML 181315Z 14005KT 060V190 9999 FEW030 31/19 Q1016
                        NOSIG=
201108181300 METAR LMML NIL=
201108181245 METAR LMML 181245Z 15005KT 070V190 CAVOK 31/20 Q1017 NOSIG=
201108181230 METAR LMML NIL=
201108181215 METAR LMML 181215Z 15005KT 060V220 CAVOK 30/20 Q1017 NOSIG=
201108181200 METAR LMML NIL=
201108181145 METAR LMML 181145Z 17007KT 110V210 CAVOK 30/19 Q1017 NOSIG=
201108181130 METAR LMML NIL=
201108181115 METAR LMML 181115Z 13007KT 060V190 CAVOK 30/19 Q1017 NOSIG=
201108181100 METAR LMML NIL=
201108181045 METAR LMML 181045Z 13009KT 090V180 CAVOK 30/16 Q1017 NOSIG=
201108181030 METAR LMML NIL=
201108181015 METAR LMML 181015Z 12008KT 070V160 CAVOK 30/18 Q1017 NOSIG=
201108181000 METAR LMML NIL=
201108180945 METAR LMML 180945Z 13007KT 080V170 CAVOK 30/19 Q1017 NOSIG=
201108180930 METAR LMML NIL=
201108180915 METAR LMML 180915Z 11007KT 070V180 CAVOK 30/19 Q1017 NOSIG=
201108180900 METAR LMML NIL=
201108180845 METAR LMML 180845Z 10007KT 060V170 CAVOK 30/19 Q1017 NOSIG=
201108180830 METAR LMML NIL=
201108180815 METAR LMML 180815Z 12007KT 080V140 CAVOK 29/19 Q1016 NOSIG=
201108180800 METAR LMML NIL=
201108180745 METAR LMML 180745Z 11007KT 080V140 CAVOK 29/19 Q1016 NOSIG=
201108180730 METAR LMML NIL=
201108180715 METAR LMML 180715Z 10006KT 060V150 CAVOK 28/19 Q1016 NOSIG=
201108180700 METAR LMML NIL=
201108180645 METAR LMML 180645Z 09006KT 060V140 CAVOK 27/19 Q1016 NOSIG=
201108180630 METAR LMML NIL=
201108180615 METAR LMML 180615Z 08004KT 050V110 CAVOK 26/21 Q1016 NOSIG=
201108180600 METAR LMML NIL=
201108180545 METAR LMML 180545Z 04003G14KT CAVOK 26/21 Q1015 NOSIG=
201108180530 METAR LMML NIL=
201108180515 METAR LMML 180515Z VRB01KT CAVOK 24/20 Q1015 NOSIG=
201108180500 METAR LMML NIL=
201108180445 METAR LMML 180445Z VRB02KT 8000 NSC 22/19 Q1015 NOSIG=
201108180430 METAR LMML NIL=
201108180415 METAR LMML 180415Z 35003KT 8000 NSC 22/20 Q1015 NOSIG=
201108180400 METAR LMML NIL=
201108180345 METAR LMML 180345Z 34003KT 8000 FEW008 22/20 Q1015 NOSIG=
201108180330 METAR LMML NIL=
201108180315 METAR LMML 180315Z 33003KT 8000 FEW008 23/20 Q1015 NOSIG=
201108180300 METAR LMML NIL=
201108180245 METAR LMML 180245Z 34004KT 8000 FEW008 23/20 Q1015 NOSIG=
201108180230 METAR LMML NIL=
201108180215 METAR LMML 180215Z 34003KT 8000 FEW008 23/21 Q1015 TEMPO
                        5000 BKN005=
201108180200 METAR LMML NIL=
201108180145 METAR LMML 180145Z 34003KT 8000 FEW008 23/21 Q1015 TEMPO
                        5000 BKN005=
201108180130 METAR LMML NIL=
201108180115 METAR LMML 180115Z 35004KT 8000 FEW008 23/22 Q1015 TEMPO
                        5000 BKN005=
201108180100 METAR LMML NIL=
201108180045 METAR LMML 180045Z 36005KT 8000 FEW008 24/22 Q1015 TEMPO
                        5000 BKN005=
201108180030 METAR LMML NIL=
201108180015 METAR LMML 180015Z 36006KT 8000 FEW008 24/22 Q1015 TEMPO
                        BKN005=
201108180000 METAR LMML NIL=
201108172345 METAR LMML 172345Z 35005KT 8000 FEW008 24/22 Q1015 TEMPO
                        BKN005=
201108172330 METAR LMML NIL=
201108172315 METAR LMML 172315Z 34005KT 8000 SCT008 24/22 Q1015 TEMPO
                        BKN005=
201108172300 METAR LMML NIL=
201108172245 METAR LMML 172245Z 34004KT 9999 FEW008 24/20 Q1015 TEMPO
                        7000 SCT005=
201108172230 METAR LMML NIL=
201108172215 METAR LMML 172215Z 34003KT CAVOK 24/20 Q1015 NOSIG=
201108172200 METAR LMML NIL=
201108172145 METAR LMML 172145Z 36003KT CAVOK 24/21 Q1015 NOSIG=
201108172130 METAR LMML NIL=
201108172115 METAR LMML 172115Z 35003KT CAVOK 24/20 Q1015 NOSIG=
201108172100 METAR LMML NIL=
201108172045 METAR LMML 172045Z 36004KT CAVOK 24/20 Q1015 NOSIG=
201108172030 METAR LMML NIL=
201108172015 METAR LMML 172015Z 01003KT CAVOK 25/21 Q1015 NOSIG=
201108172000 METAR LMML NIL=
201108171945 METAR LMML 171945Z VRB02KT CAVOK 25/21 Q1015 NOSIG=
201108171930 METAR LMML NIL=
201108171915 METAR LMML 171915Z 02003KT CAVOK 25/20 Q1015 NOSIG=
201108171900 METAR LMML NIL=
201108171845 METAR LMML 171845Z 03004KT CAVOK 26/20 Q1015 NOSIG=
201108171830 METAR LMML NIL=
201108171815 METAR LMML 171815Z 04004KT 310V130 CAVOK 26/21 Q1015 NOSIG=
201108171800 METAR LMML NIL=
201108171745 METAR LMML 171745Z 22003KT CAVOK 27/20 Q1014 NOSIG=
201108171730 METAR LMML NIL=
201108171715 METAR LMML 171715Z 20003KT 9999 FEW025 27/20 Q1014 NOSIG=
201108171700 METAR LMML NIL=
201108171645 METAR LMML 171645Z VRB02KT 9999 FEW030 29/20 Q1014 NOSIG=
201108171630 METAR LMML NIL=
201108171615 METAR LMML 171615Z 06004KT 340V110 9999 FEW030 30/17 Q1014
                        NOSIG=
201108171600 METAR LMML NIL=
201108171545 METAR LMML 171545Z 09004KT 020V140 9999 FEW030 29/17 Q1014
                        NOSIG=
201108171530 METAR LMML NIL=
201108171515 METAR LMML 171515Z 06004KT 010V140 9999 FEW030 31/16 Q1014
                        NOSIG=
201108171500 METAR LMML NIL=
201108171445 METAR LMML 171445Z 27004KT 9999 FEW030 31/18 Q1015 NOSIG=
201108171430 METAR LMML NIL=
201108171415 METAR COR LMML 171415Z 08005KT 360V150 9999 FEW030 31/17
                        Q1015 NOSIG=
201108171400 METAR LMML NIL=
201108171345 METAR LMML 171345Z 03005KT 320V060 9999 FEW030 32/16 Q1015
                        NOSIG=
201108171330 METAR LMML NIL=
201108171315 METAR LMML 171315Z 07007KT 010V100 CAVOK 31/18 Q1015 NOSIG=
201108171300 METAR LMML NIL=
201108171245 METAR LMML 171245Z 05006KT 010V100 CAVOK 32/17 Q1015 NOSIG=
201108171230 METAR LMML NIL=
201108171215 METAR LMML 171215Z 04005KT 310V090 CAVOK 32/18 Q1015 NOSIG=
201108171200 METAR LMML NIL=
201108171145 METAR LMML 171145Z 04006KT 330V100 CAVOK 32/16 Q1015 NOSIG=
201108171130 METAR LMML NIL=
201108171115 METAR LMML 171115Z 04006KT 310V100 CAVOK 31/17 Q1015 NOSIG=
201108171100 METAR LMML NIL=
201108171045 METAR LMML 171045Z 05005KT 320V160 9999 FEW030 31/17 Q1015
                        NOSIG=
201108171030 METAR LMML NIL=
201108171015 METAR LMML 171015Z 03005KT 350V070 9999 FEW030 31/17 Q1015
                        NOSIG=
201108171000 METAR LMML NIL=
201108170945 METAR LMML 170945Z 06004KT 360V130 CAVOK 31/19 Q1015 NOSIG=
201108170930 METAR LMML NIL=
201108170915 METAR LMML 170915Z 08005KT 340V120 CAVOK 30/19 Q1015 NOSIG=
201108170900 METAR LMML NIL=
201108170845 METAR LMML 170845Z 06005KT 010V160 CAVOK 30/19 Q1015 NOSIG=
201108170830 METAR LMML NIL=
201108170815 METAR LMML 170815Z 06004KT 350V140 CAVOK 29/20 Q1015 NOSIG=
201108170800 METAR LMML NIL=
201108170745 METAR LMML 170745Z 03003KT 9999 FEW030 29/20 Q1015 BECMG
                        CAVOK=
201108170730 METAR LMML NIL=
201108170715 METAR LMML 170715Z VRB02KT 9000 FEW030 28/21 Q1015 BECMG
                        9999=
201108170700 METAR LMML NIL=
201108170645 METAR LMML 170645Z VRB02KT 9000 FEW030 26/21 Q1015 BECMG
                        9999=
201108170630 METAR LMML NIL=
201108170615 METAR LMML 170615Z VRB02KT 9000 NSC 25/22 Q1014 BECMG 9999
                        RMK SMOKE TO THE NW SECTOR=
201108170600 METAR LMML NIL=
201108170545 METAR LMML 170545Z VRB02KT 6000 NSC 24/22 Q1014 NOSIG RMK
                        SMOKE TO THE NW SECTOR=
201108170530 METAR LMML NIL=
201108170515 METAR LMML 170515Z VRB02KT 6000 NSC 23/22 Q1014 NOSIG RMK
                        SMOKE TO THE NW SECTOR=
201108170445 METAR LMML 170445Z VRB02KT 6000 NSC 22/22 Q1014 NOSIG RMK
                        SMOKE FROM ENE COVERING NORTHERN
                        SECTOR=
201108170430 METAR LMML NIL=
201108170415 METAR LMML 170415Z VRB01KT 6000 NSC 22/21 Q1014 NOSIG RMK
                        SMOKE TO ENE=
201108170400 METAR LMML NIL=
201108170345 METAR LMML 170345Z VRB02KT 6000 NSC 22/21 Q1014 NOSIG=
201108170330 METAR LMML NIL=
201108170315 METAR LMML 170315Z VRB02KT 9000 NSC 22/21 Q1014 NOSIG=
201108170300 METAR LMML NIL=
201108170245 METAR LMML 170245Z 32003KT 9000 NSC 22/21 Q1014 NOSIG=
201108170230 METAR LMML NIL=
201108170215 METAR LMML 170215Z 32003KT 9000 NSC 23/21 Q1014 NOSIG=
201108170200 METAR LMML NIL=
201108170145 METAR LMML 170145Z 34003KT 9000 NSC 22/21 Q1014 NOSIG=
201108170115 METAR LMML 170115Z 34004KT CAVOK 22/20 Q1014 NOSIG=
201108170100 METAR LMML NIL=
201108170045 METAR LMML 170045Z 34003KT CAVOK 23/20 Q1014 NOSIG=
201108170030 METAR LMML NIL=
201108170015 METAR LMML 170015Z 35004KT CAVOK 23/21 Q1014 NOSIG=
201108170000 METAR LMML NIL=
201108162345 METAR LMML 162345Z 34003KT CAVOK 23/20 Q1014 NOSIG=
201108162315 METAR LMML 162315Z 35003KT CAVOK 23/20 Q1014 NOSIG=
201108162300 METAR LMML NIL=
201108162245 METAR LMML 162245Z 35003KT CAVOK 24/20 Q1015 NOSIG=
201108162215 METAR LMML 162215Z VRB02KT CAVOK 24/20 Q1015 NOSIG=
201108162200 METAR LMML NIL=
201108162145 METAR LMML 162145Z 34003KT CAVOK 24/20 Q1015 NOSIG=
201108162115 METAR LMML 162115Z 35004KT 310V020 CAVOK 24/20 Q1015 NOSIG=
201108162100 METAR LMML NIL=
201108162045 METAR LMML 162045Z 34004KT 310V010 CAVOK 24/20 Q1015 NOSIG=
201108162015 METAR LMML 162015Z 01004KT CAVOK 24/20 Q1015 NOSIG=
201108162000 METAR LMML NIL=
201108161945 METAR LMML 161945Z 36004KT 340V040 CAVOK 25/20 Q1015 NOSIG=
201108161930 METAR LMML NIL=
201108161915 METAR LMML 161915Z 03004KT CAVOK 25/19 Q1014 NOSIG=
201108161900 METAR LMML NIL=
201108161845 METAR LMML 161845Z 03005KT CAVOK 26/18 Q1014 NOSIG=
201108161830 METAR LMML NIL=
201108161815 METAR LMML 161815Z 02005KT 350V100 CAVOK 26/17 Q1014 NOSIG=
201108161800 METAR LMML NIL=
201108161745 METAR LMML 161745Z VRB02KT CAVOK 27/17 Q1013 NOSIG=
201108161730 METAR LMML NIL=
201108161715 METAR LMML 161715Z 19003KT CAVOK 28/18 Q1013 NOSIG=
201108161645 METAR LMML 161645Z 20004KT 180V240 CAVOK 28/18 Q1013 NOSIG=
201108161630 METAR LMML NIL=
201108161615 METAR LMML 161615Z 17003KT CAVOK 28/18 Q1013 NOSIG=
201108161600 METAR LMML NIL=
201108161545 METAR LMML 161545Z 21004KT 140V250 9999 FEW030 29/19 Q1013
                        NOSIG=
201108161530 METAR LMML NIL=
201108161515 METAR LMML 161515Z 19004KT 140V250 9999 FEW030 29/19 Q1013
                        NOSIG=
201108161500 METAR LMML NIL=
201108161445 METAR LMML 161445Z 20006KT 160V270 9999 FEW030 29/20 Q1013
                        NOSIG=
201108161430 METAR LMML NIL=
201108161415 METAR LMML 161415Z 19006KT 160V240 9999 FEW030 29/19 Q1013
                        NOSIG=
201108161400 METAR LMML NIL=
201108161345 METAR LMML 161345Z 16006KT 070V220 9999 FEW030 30/16 Q1014
                        NOSIG=
201108161330 METAR LMML NIL=
201108161315 METAR LMML 161315Z 15005KT 080V270 9999 FEW030 30/16 Q1014
                        NOSIG=
201108161300 METAR LMML NIL=
201108161245 METAR LMML 161245Z 13005KT CAVOK 30/17 Q1014 NOSIG=
201108161230 METAR LMML NIL=
201108161215 METAR LMML 161215Z 16006KT 090V200 9999 FEW030 30/15 Q1014
                        NOSIG=
201108161200 METAR LMML NIL=
201108161145 METAR LMML 161145Z 12008KT 060V180 9999 FEW030 31/13 Q1014
                        NOSIG=
201108161130 METAR LMML NIL=
201108161115 METAR LMML 161115Z 11007KT 060V160 9999 FEW030 31/14 Q1014
                        NOSIG=
201108161100 METAR LMML NIL=
201108161045 METAR LMML 161045Z 14005KT 060V210 9999 FEW030 30/16 Q1014
                        NOSIG=
201108161030 METAR LMML NIL=
201108161015 METAR LMML 161015Z 21004KT 120V290 9999 FEW025 29/19 Q1014
                        NOSIG=
201108161000 METAR LMML NIL=
201108160945 METAR LMML 160945Z 19003KT 9999 FEW025 29/21 Q1014 NOSIG=
201108160930 METAR LMML NIL=
201108160915 METAR LMML 160915Z 20003KT 9999 FEW023 28/20 Q1014 NOSIG=
201108160900 METAR LMML NIL=
201108160845 METAR LMML 160845Z 15004KT 090V190 9999 FEW017 28/21 Q1014
                        NOSIG=
201108160830 METAR LMML NIL=
201108160815 METAR LMML 160815Z 18003KT 9999 FEW016 28/20 Q1014 NOSIG=
201108160800 METAR LMML NIL=
201108160745 METAR LMML 160745Z 10003KT 9999 FEW017 28/20 Q1014 NOSIG=
201108160730 METAR LMML NIL=
201108160715 METAR LMML 160715Z VRB02KT 9999 SCT014 27/20 Q1014 NOSIG=
201108160700 METAR LMML NIL=
201108160645 METAR LMML 160645Z VRB02KT 9999 BKN013 26/21 Q1014 TEMPO
                        BKN010=
201108160630 METAR LMML NIL=
201108160615 METAR LMML 160615Z VRB02KT 9000 SCT011 BKN015 24/21 Q1014
                        TEMPO BKN010=
201108160602 SPECI LMML 160602Z VRB02KT 9000 FEW010 BKN014 24/21 Q1014
                        TEMPO BKN010=
201108160600 METAR LMML NIL=
201108160545 METAR LMML 160545Z VRB02KT 9000 SCT013 24/21 Q1014 BECMG
                        9999=
201108160530 METAR LMML NIL=
201108160515 METAR LMML 160515Z VRB01KT 9000 FEW012 23/21 Q1013 BECMG
                        9999=
201108160500 METAR LMML NIL=
201108160445 METAR LMML 160445Z 27003KT 9000 FEW012 22/20 Q1013 BECMG
                        9999=
201108160430 METAR LMML NIL=
201108160415 METAR LMML 160415Z 27003KT 9999 FEW012 22/20 Q1013 NOSIG=
201108160400 METAR LMML NIL=
201108160345 METAR LMML 160345Z 28004KT 240V300 9999 FEW012 22/20 Q1013
                        NOSIG=
201108160330 METAR LMML NIL=
201108160315 METAR LMML 160315Z 26004KT 220V290 9999 FEW012 22/20 Q1013
                        NOSIG=
201108160300 METAR LMML NIL=
201108160245 METAR LMML 160245Z 26004KT 230V290 CAVOK 23/20 Q1013 NOSIG=
201108160230 METAR LMML NIL=
201108160215 METAR LMML 160215Z 25004KT 230V290 CAVOK 22/19 Q1013 NOSIG=
201108160200 METAR LMML NIL=
201108160145 METAR LMML 160145Z 25004KT 210V280 CAVOK 22/19 Q1013 NOSIG=
201108160130 METAR LMML NIL=
201108160115 METAR LMML 160115Z 24005KT 210V270 CAVOK 22/19 Q1013 NOSIG=
201108160100 METAR LMML NIL=
201108160045 METAR LMML 160045Z 24004KT 210V270 CAVOK 22/19 Q1013 NOSIG=
201108160030 METAR LMML NIL=
201108160015 METAR LMML 160015Z 25003KT CAVOK 22/18 Q1014 NOSIG=
201108160000 METAR LMML NIL=
201108152345 METAR LMML 152345Z VRB02KT CAVOK 22/18 Q1014 NOSIG=
201108152330 METAR LMML NIL=
201108152315 METAR LMML 152315Z 28003KT CAVOK 23/18 Q1014 NOSIG=
201108152300 METAR LMML NIL=
201108152245 METAR LMML 152245Z VRB02KT CAVOK 22/18 Q1014 NOSIG=
201108152230 METAR LMML NIL=
201108152215 METAR LMML 152215Z 27003KT CAVOK 23/18 Q1014 NOSIG=
201108152200 METAR LMML NIL=
201108152145 METAR LMML 152145Z 28003KT CAVOK 23/19 Q1014 NOSIG=
201108152130 METAR LMML NIL=
201108152115 METAR LMML 152115Z 29003KT CAVOK 23/18 Q1014 NOSIG=
201108152100 METAR LMML NIL=
201108152045 METAR LMML 152045Z 28004KT CAVOK 23/19 Q1014 NOSIG=
201108152030 METAR LMML NIL=
201108152015 METAR LMML 152015Z VRB01KT CAVOK 24/19 Q1014 NOSIG=
201108152000 METAR LMML NIL=
201108151945 METAR LMML 151945Z VRB02KT CAVOK 24/19 Q1014 NOSIG=
201108151930 METAR LMML NIL=
201108151915 METAR LMML 151915Z 25003KT CAVOK 24/19 Q1014 NOSIG=
201108151900 METAR LMML NIL=
201108151845 METAR LMML 151845Z 25003KT CAVOK 24/18 Q1014 NOSIG=
201108151830 METAR LMML NIL=
201108151815 METAR LMML 151815Z 25005KT 210V290 CAVOK 25/18 Q1013 NOSIG=
201108151800 METAR LMML NIL=
201108151745 METAR LMML 151745Z 23005KT 190V280 CAVOK 25/17 Q1013 NOSIG=
201108151730 METAR LMML NIL=
201108151715 METAR LMML 151715Z 24007KT 210V280 CAVOK 26/15 Q1013 NOSIG=
201108151700 METAR LMML NIL=
201108151645 METAR LMML 151645Z 22006KT 190V260 CAVOK 27/15 Q1013 NOSIG=
201108151630 METAR LMML NIL=
201108151615 METAR LMML 151615Z 23005KT 180V270 CAVOK 28/17 Q1013 NOSIG=
201108151600 METAR LMML NIL=
201108151545 METAR LMML 151545Z 24007KT CAVOK 28/16 Q1013 NOSIG=
201108151530 METAR LMML NIL=
201108151515 METAR LMML 151515Z 24006KT 190V290 CAVOK 28/16 Q1013 NOSIG=
201108151500 METAR LMML NIL=
201108151445 METAR LMML 151445Z 21006KT 180V270 9999 FEW030 29/16 Q1013
                        TEMPO CAVOK=
201108151430 METAR LMML NIL=
201108151415 METAR LMML 151415Z 22007KT 170V280 9999 FEW030 28/15 Q1013
                        TEMPO CAVOK=
201108151345 METAR LMML 151345Z 22008KT 190V260 CAVOK 28/15 Q1013 TEMPO
                        9999 FEW025=
201108151330 METAR LMML NIL=
201108151315 METAR LMML 151315Z 21008KT 170V260 9999 FEW030 28/17 Q1014
                        NOSIG=
201108151245 METAR LMML 151245Z 23007KT 180V290 9999 FEW030 29/16 Q1014
                        NOSIG=
201108151230 METAR LMML NIL=
201108151215 METAR LMML 151215Z 21007KT 170V260 9999 FEW030 28/17 Q1014
                        NOSIG=
201108151145 METAR LMML 151145Z 22008KT 180V280 CAVOK 28/18 Q1014 NOSIG=
201108151115 METAR LMML 151115Z 22008KT 180V280 9999 FEW030 28/17 Q1014
                        NOSIG=
201108151045 METAR LMML 151045Z 21007KT 160V250 CAVOK 28/17 Q1014 NOSIG=
201108151030 METAR LMML NIL=
201108151015 METAR LMML 151015Z 22007KT 160V270 CAVOK 28/17 Q1014 NOSIG=
201108151000 METAR LMML NIL=
201108150945 METAR LMML 150945Z 23005KT 180V300 CAVOK 28/16 Q1014 NOSIG=
201108150930 METAR LMML NIL=
201108150915 METAR LMML 150915Z 25005KT 190V300 CAVOK 28/16 Q1014 NOSIG=
201108150900 METAR LMML NIL=
201108150845 METAR LMML 150845Z 21005KT 140V290 CAVOK 27/17 Q1014 NOSIG=
201108150830 METAR LMML NIL=
201108150815 METAR LMML 150815Z 22003KT CAVOK 27/17 Q1014 NOSIG=
201108150745 METAR LMML 150745Z 22003KT CAVOK 26/17 Q1013 NOSIG=
201108150730 METAR LMML NIL=
201108150715 METAR LMML 150715Z 23004KT 190V290 CAVOK 26/17 Q1013 NOSIG=
201108150700 METAR LMML NIL=
201108150645 METAR LMML 150645Z 21004KT 160V250 CAVOK 26/18 Q1013 NOSIG=
201108150615 METAR LMML 150615Z VRB02KT CAVOK 25/18 Q1013 NOSIG=
201108150600 METAR LMML NIL=
201108150545 METAR LMML 150545Z VRB01KT 9999 FEW015 23/18 Q1013 NOSIG=
201108150530 METAR LMML NIL=
201108150515 METAR LMML 150515Z VRB02KT 9999 FEW015 21/18 Q1013 NOSIG=
201108150500 METAR LMML NIL=
201108150445 METAR LMML 150445Z VRB02KT CAVOK 20/17 Q1013 NOSIG=
201108150430 METAR LMML NIL=
201108150415 METAR LMML 150415Z VRB01KT CAVOK 19/17 Q1012 NOSIG=
201108150400 METAR LMML NIL=
201108150345 METAR LMML 150345Z VRB02KT CAVOK 20/17 Q1012 NOSIG=
201108150330 METAR LMML NIL=
201108150315 METAR LMML 150315Z VRB02KT CAVOK 20/17 Q1012 NOSIG=
201108150300 METAR LMML NIL=
201108150245 METAR LMML 150245Z 25003KT CAVOK 21/17 Q1012 NOSIG=
201108150230 METAR LMML NIL=
201108150215 METAR LMML 150215Z 27003KT CAVOK 21/17 Q1012 NOSIG=
201108150200 METAR LMML NIL=
201108150145 METAR LMML 150145Z 26003KT CAVOK 21/17 Q1012 NOSIG=
201108150130 METAR LMML NIL=
201108150115 METAR LMML 150115Z VRB01KT CAVOK 21/17 Q1012 NOSIG=
201108150100 METAR LMML NIL=
201108150045 METAR LMML 150045Z 24003KT CAVOK 21/16 Q1013 NOSIG=
201108150030 METAR LMML NIL=
201108150015 METAR LMML 150015Z VRB02KT CAVOK 21/17 Q1012 NOSIG=
201108150000 METAR LMML NIL=
201108142345 METAR LMML 142345Z VRB02KT CAVOK 22/17 Q1013 NOSIG=
201108142330 METAR LMML NIL=
201108142315 METAR LMML 142315Z 23003KT CAVOK 22/17 Q1013 NOSIG=
201108142300 METAR LMML NIL=
201108142245 METAR LMML 142245Z 25003KT CAVOK 22/17 Q1013 NOSIG RMK SMOKE
                        TO WEST=
201108142230 METAR LMML NIL=
201108142215 METAR LMML 142215Z VRB02KT CAVOK 22/17 Q1013 NOSIG=
201108142145 METAR LMML 142145Z VRB02KT CAVOK 22/17 Q1013 NOSIG=
201108142130 METAR LMML NIL=
201108142115 METAR LMML 142115Z VRB02KT CAVOK 22/17 Q1013 NOSIG=
201108142100 METAR LMML NIL=
201108142045 METAR LMML 142045Z 25004KT CAVOK 22/17 Q1013 NOSIG RMK SMOKE=
201108142030 METAR LMML NIL=
201108142015 METAR LMML 142015Z 26003KT CAVOK 23/17 Q1013 NOSIG=
201108142000 METAR LMML NIL=
201108141945 METAR LMML 141945Z VRB02KT CAVOK 23/17 Q1013 NOSIG=
201108141930 METAR LMML NIL=
201108141915 METAR LMML 141915Z 25004KT CAVOK 23/17 Q1012 NOSIG=
201108141900 METAR LMML NIL=
201108141845 METAR LMML 141845Z 24004KT CAVOK 24/17 Q1012 NOSIG=
201108141830 METAR LMML NIL=
201108141815 METAR LMML 141815Z 24003KT CAVOK 24/18 Q1012 NOSIG=
201108141800 METAR LMML NIL=
201108141745 METAR LMML 141745Z 24004KT 200V280 CAVOK 25/18 Q1012 NOSIG=
201108141730 METAR LMML NIL=
201108141715 METAR LMML 141715Z 24004KT 200V290 CAVOK 26/17 Q1012 NOSIG=
201108141700 METAR LMML NIL=
201108141645 METAR LMML 141645Z 24007KT 200V290 9999 FEW020 26/17 Q1012
                        NOSIG=
201108141630 METAR LMML NIL=
201108141615 METAR LMML 141615Z 24007KT 200V280 9999 FEW020 27/17 Q1012
                        NOSIG=
201108141600 METAR LMML NIL=
201108141545 METAR LMML 141545Z 23006KT 190V280 9999 FEW020 27/17 Q1012
                        NOSIG=
201108141530 METAR LMML NIL=
201108141515 METAR LMML 141515Z 23007KT 190V280 9999 FEW020 28/16 Q1012
                        NOSIG=
201108141500 METAR LMML NIL=
201108141445 METAR LMML 141445Z 22008KT 190V260 CAVOK 28/17 Q1012 NOSIG=
201108141430 METAR LMML NIL=
201108141415 METAR LMML 141415Z 23007KT 200V280 CAVOK 28/16 Q1012 NOSIG=
201108141400 METAR LMML NIL=
201108141345 METAR LMML 141345Z 23007KT 190V270 CAVOK 29/15 Q1012 NOSIG=
201108141330 METAR LMML NIL=
201108141315 METAR LMML 141315Z 22008KT 200V290 CAVOK 28/16 Q1012 NOSIG=
201108141245 METAR LMML 141245Z 23007KT 190V290 CAVOK 29/14 Q1012 NOSIG=
201108141230 METAR LMML NIL=
201108141215 METAR LMML 141215Z 23007KT 170V270 9999 FEW020 29/15 Q1012
                        TEMPO CAVOK=
201108141200 METAR LMML NIL=
201108141145 METAR LMML 141145Z 23007KT 170V290 9999 FEW020 28/18 Q1012
                        NOSIG=
201108141130 METAR LMML NIL=
201108141115 METAR LMML 141115Z 24007KT 190V320 9999 FEW020 28/18 Q1012
                        NOSIG=
201108141100 METAR LMML NIL=
201108141045 METAR LMML 141045Z 23009KT 190V280 9999 FEW020 28/18 Q1012
                        NOSIG=
201108141030 METAR LMML NIL=
201108141015 METAR LMML 141015Z 27009KT 200V300 9999 FEW020 27/17 Q1012
                        NOSIG=
201108141000 METAR LMML NIL=
201108140945 METAR LMML 140945Z 23008KT 190V280 9999 FEW020 28/18 Q1012
                        NOSIG=
201108140930 METAR LMML NIL=
201108140915 METAR LMML 140915Z 22008KT 190V290 9999 FEW020 27/16 Q1012
                        NOSIG=
201108140900 METAR LMML NIL=
201108140845 METAR LMML 140845Z 23006KT 180V290 CAVOK 27/17 Q1012 NOSIG=
201108140830 METAR LMML NIL=
201108140815 METAR LMML 140815Z 23004KT 190V280 9999 FEW020 27/18 Q1012
                        NOSIG=
201108140800 METAR LMML NIL=
201108140745 METAR LMML 140745Z 25005KT 200V290 CAVOK 26/19 Q1012 NOSIG=
201108140730 METAR LMML NIL=
201108140715 METAR LMML 140715Z 26007KT 200V290 CAVOK 26/19 Q1012 NOSIG=
201108140700 METAR LMML NIL=
201108140645 METAR LMML 140645Z 27006KT 210V300 9999 FEW020 25/19 Q1011
                        NOSIG=
201108140630 METAR LMML NIL=
201108140615 METAR LMML 140615Z 27005KT 210V300 9999 FEW020 25/19 Q1011
                        NOSIG=
201108140600 METAR LMML NIL=
201108140545 METAR LMML 140545Z 27003KT 9999 FEW020 24/19 Q1011 NOSIG=
201108140530 METAR LMML NIL=
201108140515 METAR LMML 140515Z 25004KT 220V280 9999 FEW020 22/19 Q1011
                        NOSIG=
201108140500 METAR LMML NIL=
201108140445 METAR LMML 140445Z 24003KT CAVOK 21/18 Q1011 NOSIG=
201108140430 METAR LMML NIL=
201108140415 METAR LMML 140415Z 24003KT CAVOK 21/18 Q1011 NOSIG=
201108140400 METAR LMML NIL=
201108140345 METAR LMML 140345Z 25003KT CAVOK 21/18 Q1011 NOSIG=
201108140330 METAR LMML NIL=
201108140315 METAR LMML 140315Z 22003KT CAVOK 20/17 Q1011 NOSIG=
201108140300 METAR LMML NIL=
201108140245 METAR LMML 140245Z 23003KT CAVOK 21/18 Q1011 NOSIG=
201108140230 METAR LMML NIL=
201108140215 METAR LMML 140215Z 22004KT CAVOK 20/17 Q1011 NOSIG=
201108140200 METAR LMML NIL=
201108140145 METAR LMML 140145Z 23003KT CAVOK 20/16 Q1011 NOSIG=
201108140130 METAR LMML NIL=
201108140115 METAR LMML 140115Z 21003KT CAVOK 20/16 Q1011 NOSIG=
201108140100 METAR LMML NIL=
201108140045 METAR LMML 140045Z VRB02KT CAVOK 21/16 Q1011 NOSIG=
201108140030 METAR LMML NIL=
201108140015 METAR LMML 140015Z 19003KT CAVOK 21/15 Q1011 NOSIG=
201108140000 METAR LMML NIL=
201108132345 METAR LMML 132345Z 21003KT CAVOK 21/15 Q1011 NOSIG=
201108132330 METAR LMML NIL=
201108132315 METAR LMML 132315Z 21003KT CAVOK 21/14 Q1012 NOSIG=
201108132300 METAR LMML NIL=
201108132245 METAR LMML 132245Z 20003KT CAVOK 20/17 Q1011 NOSIG=
201108132230 METAR LMML NIL=
201108132215 METAR LMML 132215Z VRB02KT CAVOK 21/17 Q1012 NOSIG=
201108132200 METAR LMML NIL=
201108132145 METAR LMML 132145Z VRB02KT CAVOK 21/17 Q1012 NOSIG=
201108132130 METAR LMML NIL=
201108132115 METAR LMML 132115Z VRB02KT CAVOK 21/17 Q1012 NOSIG=
201108132100 METAR LMML NIL=
201108132045 METAR LMML 132045Z 32003KT CAVOK 22/17 Q1012 NOSIG RMK SMOKE
                        LAYER TO SOUTHEAST=
201108132030 METAR LMML NIL=
201108132015 METAR LMML 132015Z 32004KT CAVOK 22/17 Q1012 NOSIG=
201108132000 METAR LMML NIL=
201108131945 METAR LMML 131945Z 32005KT CAVOK 22/18 Q1012 NOSIG=
201108131930 METAR LMML NIL=
201108131915 METAR LMML 131915Z 32005KT 280V010 CAVOK 23/19 Q1011 NOSIG=
201108131900 METAR LMML NIL=
201108131845 METAR LMML 131845Z 30005KT CAVOK 23/19 Q1011 NOSIG=
201108131830 METAR LMML NIL=
201108131815 METAR LMML 131815Z 31006KT CAVOK 23/18 Q1011 NOSIG=
201108131800 METAR LMML NIL=
201108131745 METAR LMML 131745Z 31009KT CAVOK 24/18 Q1011 NOSIG=
201108131730 METAR LMML NIL=
201108131715 METAR LMML 131715Z 31008KT 9999 FEW020 26/18 Q1011 NOSIG=
201108131700 METAR LMML NIL=
201108131645 METAR LMML 131645Z 27005KT 200V320 9999 FEW020 28/14 Q1011
                        NOSIG=
201108131630 METAR LMML NIL=
201108131615 METAR LMML 131615Z 01005KT 340V050 9999 FEW020 29/19 Q1011
                        NOSIG=
201108131600 METAR LMML NIL=
201108131545 METAR LMML 131545Z 22003KT 9999 FEW025 30/11 Q1011 NOSIG=
201108131530 METAR LMML NIL=
201108131515 METAR LMML 131515Z 22005KT 180V260 CAVOK 29/13 Q1011 NOSIG=
201108131500 METAR LMML NIL=
201108131445 METAR LMML 131445Z VRB02KT CAVOK 30/11 Q1011 NOSIG=
201108131430 METAR LMML NIL=
201108131415 METAR LMML 131415Z 21005KT 130V270 9999 FEW025 29/13 Q1011
                        NOSIG=
201108131400 METAR LMML NIL=
201108131345 METAR LMML 131345Z 24007KT 200V280 9999 FEW025 29/15 Q1011
                        NOSIG=
201108131330 METAR LMML NIL=
201108131315 METAR LMML 131315Z 22007KT 150V270 9999 FEW025 29/15 Q1011
                        NOSIG=
201108131300 METAR LMML NIL=
201108131245 METAR LMML 131245Z 22008KT 190V260 CAVOK 29/13 Q1011 NOSIG=
201108131230 METAR LMML NIL=
201108131215 METAR LMML 131215Z 21007KT 160V250 9999 FEW025 28/14 Q1011
                        NOSIG=
201108131200 METAR LMML NIL=
201108131145 METAR LMML 131145Z 21005KT 150V280 9999 FEW025 29/14 Q1012
                        NOSIG=
201108131115 METAR LMML 131115Z 23006KT 160V280 9999 FEW025 29/15 Q1012
                        NOSIG=
201108131045 METAR LMML 131045Z 22006KT 170V270 9999 FEW025 28/15 Q1012
                        NOSIG=
201108131030 METAR LMML NIL=
201108131015 METAR LMML 131015Z 18006KT 140V220 9999 FEW025 27/16 Q1012
                        NOSIG=
201108131000 METAR LMML NIL=
201108130945 METAR LMML 130945Z 21004KT 150V290 9999 FEW020 28/17 Q1012
                        NOSIG=
201108130930 METAR LMML NIL=
201108130915 METAR LMML 130915Z 13005KT 080V230 CAVOK 27/17 Q1012 NOSIG=
201108130900 METAR LMML NIL=
201108130845 METAR LMML 130845Z 09005KT 360V180 CAVOK 28/17 Q1012 NOSIG=
201108130830 METAR LMML NIL=
201108130815 METAR LMML 130815Z 09003KT CAVOK 28/16 Q1012 NOSIG=
201108130800 METAR LMML NIL=
201108130745 METAR LMML 130745Z VRB02KT CAVOK 28/16 Q1012 NOSIG=
201108130730 METAR LMML NIL=
201108130715 METAR LMML 130715Z 28003KT 9999 FEW020 26/16 Q1012 NOSIG=
201108130700 METAR LMML NIL=
201108130645 METAR LMML 130645Z 28005KT 250V320 9999 FEW020 25/17 Q1012
                        NOSIG=
201108130630 METAR LMML NIL=
201108130615 METAR LMML 130615Z 29005KT 240V320 9999 FEW020 24/18 Q1012
                        NOSIG=
201108130600 METAR LMML NIL=
201108130545 METAR LMML 130545Z 29006KT 9999 FEW020 23/18 Q1012 NOSIG=
201108130530 METAR LMML NIL=
201108130515 METAR LMML 130515Z 27005KT CAVOK 22/18 Q1012 NOSIG=
201108130500 METAR LMML NIL=
201108130445 METAR LMML 130445Z 27005KT 230V310 9999 FEW020 21/18 Q1012
                        NOSIG=
201108130430 METAR LMML NIL=
201108130415 METAR LMML 130415Z 26006KT 230V290 CAVOK 21/18 Q1012 NOSIG=
201108130345 METAR LMML 130345Z 26007KT CAVOK 21/18 Q1012 NOSIG=
201108130315 METAR LMML 130315Z 25006KT CAVOK 21/18 Q1011 NOSIG=
201108130245 METAR LMML 130245Z 26004KT 230V290 CAVOK 21/17 Q1012 NOSIG=
201108130230 METAR LMML NIL=
201108130215 METAR LMML 130215Z 25003KT CAVOK 20/17 Q1012 NOSIG=
201108130200 METAR LMML NIL=
201108130145 METAR LMML 130145Z 23003KT CAVOK 20/17 Q1012 NOSIG=
201108130130 METAR LMML NIL=
201108130115 METAR LMML 130115Z VRB02KT CAVOK 20/17 Q1012 NOSIG=
201108130100 METAR LMML NIL=
201108130045 METAR LMML 130045Z 25003KT CAVOK 20/17 Q1012 NOSIG=
201108130015 METAR LMML 130015Z 27003KT CAVOK 21/17 Q1012 NOSIG=
201108130000 METAR LMML NIL=
201108122345 METAR LMML 122345Z VRB02KT CAVOK 21/17 Q1013 NOSIG=
201108122330 METAR LMML NIL=
201108122315 METAR LMML 122315Z VRB02KT CAVOK 20/17 Q1013 NOSIG=
201108122245 METAR LMML 122245Z VRB02KT CAVOK 20/16 Q1013 NOSIG=
201108122230 METAR LMML NIL=
201108122215 METAR LMML 122215Z VRB02KT CAVOK 21/16 Q1013 NOSIG=
201108122200 METAR LMML NIL=
201108122145 METAR LMML 122145Z VRB02KT CAVOK 21/16 Q1013 NOSIG=
201108122130 METAR LMML NIL=
201108122115 METAR LMML 122115Z 26004KT 220V280 CAVOK 21/15 Q1013 NOSIG=
201108122100 METAR LMML NIL=
201108122045 METAR LMML 122045Z 25003KT CAVOK 21/15 Q1013 NOSIG=
201108122030 METAR LMML NIL=
201108122015 METAR LMML 122015Z 28004KT CAVOK 22/15 Q1014 NOSIG=
201108121945 METAR LMML 121945Z 27004KT CAVOK 22/15 Q1014 NOSIG=
201108121930 METAR LMML NIL=
201108121915 METAR LMML 121915Z 30005KT 250V320 CAVOK 22/15 Q1013 NOSIG=
201108121845 METAR LMML 121845Z 31007KT CAVOK 23/16 Q1013 NOSIG=
201108121830 METAR LMML NIL=
201108121815 METAR LMML 121815Z 30008KT CAVOK 23/16 Q1013 NOSIG=
201108121800 METAR LMML NIL=
201108121745 METAR LMML 121745Z 31008KT CAVOK 24/15 Q1013 NOSIG=
201108121730 METAR LMML NIL=
201108121715 METAR LMML 121715Z 31008KT CAVOK 25/12 Q1013 NOSIG=
201108121700 METAR LMML NIL=
201108121645 METAR LMML 121645Z 30009KT 240V330 CAVOK 26/11 Q1013 NOSIG=
201108121630 METAR LMML NIL=
201108121615 METAR LMML 121615Z 30009KT 260V330 CAVOK 27/12 Q1013 NOSIG=
201108121545 METAR LMML 121545Z 28009KT 210V310 CAVOK 27/10 Q1013 NOSIG=
201108121530 METAR LMML NIL=
201108121515 METAR LMML 121515Z 30009KT 270V330 CAVOK 28/12 Q1013 NOSIG=
201108121500 METAR LMML NIL=
201108121445 METAR LMML 121445Z 28009KT 250V320 CAVOK 28/12 Q1013 NOSIG=
201108121430 METAR LMML NIL=
201108121415 METAR LMML 121415Z 30010KT 210V020 CAVOK 29/11 Q1014 NOSIG=
201108121400 METAR LMML NIL=
201108121345 METAR LMML 121345Z 29011KT 250V320 CAVOK 29/10 Q1014 NOSIG=
201108121330 METAR LMML NIL=
201108121315 METAR LMML 121315Z 30010KT 250V330 CAVOK 29/11 Q1014 NOSIG=
201108121300 METAR LMML NIL=
201108121245 METAR LMML 121245Z 28011KT 240V310 CAVOK 29/07 Q1014 NOSIG=
201108121230 METAR LMML NIL=
201108121215 METAR LMML 121215Z 28011KT 250V330 CAVOK 30/07 Q1014 NOSIG=
201108121200 METAR LMML NIL=
201108121145 METAR LMML 121145Z 30012KT CAVOK 29/05 Q1014 NOSIG=
201108121130 METAR LMML NIL=
201108121115 METAR LMML 121115Z 30014KT 270V330 CAVOK 29/01 Q1015 NOSIG=
201108121045 METAR LMML 121045Z 28012KT 250V320 CAVOK 30/06 Q1015 NOSIG=
201108121030 METAR LMML NIL=
201108121015 METAR LMML 121015Z 29011KT 250V320 CAVOK 29/08 Q1015 NOSIG=
201108121000 METAR LMML NIL=
201108120945 METAR LMML 120945Z 29012KT 250V330 CAVOK 29/10 Q1015 NOSIG=
201108120930 METAR LMML NIL=
201108120915 METAR LMML 120915Z 29011KT 260V330 CAVOK 28/14 Q1015 NOSIG=
201108120900 METAR LMML NIL=
201108120845 METAR LMML 120845Z 29011KT 260V320 CAVOK 28/14 Q1015 NOSIG=
201108120830 METAR LMML NIL=
201108120815 METAR LMML 120815Z 29011KT 260V320 9999 FEW020 28/14 Q1015
                        NOSIG=
201108120800 METAR LMML NIL=
201108120745 METAR LMML 120745Z 30010KT 9999 FEW020 26/17 Q1015 NOSIG=
201108120730 METAR LMML NIL=
201108120715 METAR LMML 120715Z 28010KT 250V310 9999 FEW020 26/18 Q1015
                        NOSIG=
201108120700 METAR LMML NIL=
201108120645 METAR LMML 120645Z 27009KT 240V310 9999 FEW020 25/19 Q1014
                        NOSIG=
201108120630 METAR LMML NIL=
201108120615 METAR LMML 120615Z 26008KT 200V300 9999 FEW020 25/20 Q1014
                        NOSIG=
201108120600 METAR LMML NIL=
201108120545 METAR LMML 120545Z 25006KT 200V280 9999 FEW020 24/20 Q1014
                        NOSIG=
201108120515 METAR LMML 120515Z 24007KT 210V270 9999 FEW020 23/20 Q1014
                        NOSIG=
201108120445 METAR LMML 120445Z 24003KT 9999 FEW020 22/20 Q1014 NOSIG=
201108120430 METAR LMML NIL=
201108120415 METAR LMML 120415Z 24003KT 9999 FEW020 22/19 Q1014 NOSIG=
201108120400 METAR LMML NIL=
201108120345 METAR LMML 120345Z 25005KT 200V290 CAVOK 22/19 Q1014 NOSIG=
201108120330 METAR LMML NIL=
201108120315 METAR LMML 120315Z 24006KT 200V270 CAVOK 22/19 Q1014 NOSIG=
201108120300 METAR LMML NIL=
201108120245 METAR LMML 120245Z 24006KT 210V270 CAVOK 23/18 Q1014 NOSIG=
201108120230 METAR LMML NIL=
201108120215 METAR LMML 120215Z 24006KT 200V270 CAVOK 23/18 Q1014 NOSIG=
201108120200 METAR LMML NIL=
201108120145 METAR LMML 120145Z 22005KT CAVOK 23/17 Q1014 NOSIG=
201108120130 METAR LMML NIL=
201108120115 METAR LMML 120115Z 23005KT 210V270 CAVOK 23/17 Q1015 NOSIG=
201108120100 METAR LMML NIL=
201108120045 METAR LMML 120045Z 23005KT CAVOK 22/18 Q1015 NOSIG=
201108120030 METAR LMML NIL=
201108120015 METAR LMML 120015Z 22004KT CAVOK 22/18 Q1015 NOSIG=
201108120000 METAR LMML NIL=
201108112345 METAR LMML 112345Z 23003KT CAVOK 22/18 Q1015 NOSIG=
201108112330 METAR LMML NIL=
201108112315 METAR LMML 112315Z 24003KT CAVOK 22/18 Q1016 NOSIG=
201108112300 METAR LMML NIL=
201108112245 METAR LMML 112245Z VRB02KT CAVOK 22/16 Q1016 NOSIG=
201108112230 METAR LMML NIL=
201108112215 METAR LMML 112215Z 25003KT CAVOK 22/16 Q1016 NOSIG=
201108112200 METAR LMML NIL=
201108112145 METAR LMML 112145Z VRB02KT CAVOK 22/16 Q1016 NOSIG=
201108112130 METAR LMML NIL=
201108112115 METAR LMML 112115Z 28003KT CAVOK 23/17 Q1016 NOSIG=
201108112100 METAR LMML NIL=
201108112045 METAR LMML 112045Z 28003KT CAVOK 23/17 Q1016 NOSIG=
201108112030 METAR LMML NIL=
201108112015 METAR LMML 112015Z VRB02KT 9999 FEW024 23/18 Q1016 NOSIG=
201108112000 METAR LMML NIL=
201108111945 METAR LMML 111945Z 31003KT CAVOK 23/18 Q1016 NOSIG=
201108111930 METAR LMML NIL=
201108111915 METAR LMML 111915Z 34003KT 9999 FEW024 23/19 Q1016 NOSIG=
201108111900 METAR LMML NIL=
201108111845 METAR LMML 111845Z 36005KT 9999 FEW024 24/19 Q1016 NOSIG=
201108111830 METAR LMML NIL=
201108111815 METAR LMML 111815Z 33007KT 290V360 9999 FEW024 24/19 Q1016
                        NOSIG=
201108111800 METAR LMML NIL=
201108111745 METAR LMML 111745Z 30008KT 270V330 9999 FEW024 25/19 Q1016
                        NOSIG=
201108111730 METAR LMML NIL=
201108111715 METAR LMML 111715Z 29004KT 200V030 9999 SCT026 27/18 Q1016
                        NOSIG=
201108111700 METAR LMML NIL=
201108111645 METAR LMML 111645Z 04004KT 350V090 9999 SCT032 28/20 Q1015
                        NOSIG=
201108111630 METAR LMML NIL=
201108111615 METAR LMML 111615Z 28003KT 9999 SCT032 27/18 Q1015 NOSIG=
201108111600 METAR LMML NIL=
201108111545 METAR LMML 111545Z 24007KT 210V280 9999 FEW037 27/18 Q1015
                        NOSIG=
201108111530 METAR LMML NIL=
201108111515 METAR LMML 111515Z 24007KT 200V280 9999 FEW039 28/17 Q1015
                        NOSIG=
201108111500 METAR LMML NIL=
201108111445 METAR LMML 111445Z 25007KT 210V290 9999 FEW041 29/15 Q1016
                        NOSIG=
201108111430 METAR LMML NIL=
201108111415 METAR LMML 111415Z 22006KT 160V280 9999 SCT042 29/17 Q1016
                        NOSIG=
201108111400 METAR LMML NIL=
201108111345 METAR LMML 111345Z 20005KT 150V250 9999 FEW035 28/16 Q1016
                        NOSIG=
201108111315 METAR LMML 111315Z 23005KT 170V330 9999 FEW037 28/17 Q1016
                        NOSIG=
201108111300 METAR LMML NIL=
201108111245 METAR LMML 111245Z 23008KT 190V290 9999 FEW039 29/17 Q1016
                        NOSIG=
201108111215 METAR LMML 111215Z 04005KT 310V090 9999 FEW036 31/09 Q1017
                        NOSIG=
201108111145 METAR LMML 111145Z 01006KT 300V070 9999 FEW035 31/13 Q1017
                        NOSIG=
201108111115 METAR LMML 111115Z 03006KT 330V080 9999 FEW035 31/13 Q1017
                        NOSIG=
201108111100 METAR LMML NIL=
201108111045 METAR LMML 111045Z 10006KT 050V160 9999 FEW035 30/11 Q1017
                        NOSIG=
201108111030 METAR LMML NIL=
201108111015 METAR LMML 111015Z 06008KT 350V110 9999 FEW035 29/17 Q1017
                        NOSIG=
201108111000 METAR LMML NIL=
201108110945 METAR LMML 110945Z 08006KT 020V150 9999 FEW035 29/18 Q1017
                        NOSIG=
201108110930 METAR LMML NIL=
201108110915 METAR LMML 110915Z 06006KT 360V100 9999 FEW032 28/17 Q1017
                        NOSIG=
201108110845 METAR LMML 110845Z 06007KT 010V100 9999 SCT029 27/17 Q1017
                        NOSIG=
201108110830 METAR LMML NIL=
201108110815 METAR LMML 110815Z 05009KT 020V090 9999 SCT029 27/18 Q1017
                        NOSIG=
201108110800 METAR LMML NIL=
201108110745 METAR LMML 110745Z 06009KT 040V100 9999 SCT020 27/19 Q1017
                        NOSIG=
201108110730 METAR LMML NIL=
201108110715 METAR LMML 110715Z 03006KT 330V070 9999 SCT018 26/20 Q1017
                        NOSIG=
201108110700 METAR LMML NIL=
201108110645 METAR LMML 110645Z 01007KT 300V070 9999 SCT020 26/20 Q1017
                        NOSIG=
201108110630 METAR LMML NIL=
201108110615 METAR LMML 110615Z 01006KT 340V040 9999 SCT019 26/20 Q1016
                        NOSIG=
201108110600 METAR LMML NIL=
201108110545 METAR LMML 110545Z 01005KT 9999 SCT019 25/20 Q1016 NOSIG=
201108110530 METAR LMML NIL=
201108110515 METAR LMML 110515Z 01005KT 340V070 9999 FEW020 24/20 Q1016
                        NOSIG=
201108110500 METAR LMML NIL=
201108110445 METAR LMML 110445Z 03005KT 9999 FEW020 24/20 Q1016 NOSIG=
201108110430 METAR LMML NIL=
201108110415 METAR LMML 110415Z 03007KT 010V070 9999 FEW020 24/20 Q1015
                        NOSIG=
201108110400 METAR LMML NIL=
201108110345 METAR LMML 110345Z 03009KT 9999 FEW020 24/19 Q1015 NOSIG=
201108110330 METAR LMML NIL=
201108110315 METAR LMML 110315Z 04009KT CAVOK 24/19 Q1015 NOSIG=
201108110300 METAR LMML NIL=
201108110245 METAR LMML 110245Z 03009KT 010V070 CAVOK 24/20 Q1015 NOSIG=
201108110230 METAR LMML NIL=
201108110215 METAR LMML 110215Z 03008KT 350V070 CAVOK 24/20 Q1015 NOSIG=
201108110200 METAR LMML NIL=
201108110145 METAR LMML 110145Z 03005KT 360V070 CAVOK 24/20 Q1015 NOSIG=
201108110130 METAR LMML NIL=
201108110115 METAR LMML 110115Z 02003KT CAVOK 23/20 Q1015 NOSIG=
201108110100 METAR LMML NIL=
201108110045 METAR LMML 110045Z 03003KT CAVOK 23/19 Q1015 NOSIG=
201108110030 METAR LMML NIL=
201108110015 METAR LMML 110015Z VRB02KT CAVOK 23/19 Q1015 NOSIG=
201108110000 METAR LMML NIL=
201108102345 METAR LMML 102345Z VRB02KT CAVOK 23/19 Q1015 NOSIG=
201108102330 METAR LMML NIL=
201108102315 METAR LMML 102315Z VRB02KT CAVOK 23/19 Q1016 NOSIG=
201108102300 METAR LMML NIL=
201108102245 METAR LMML 102245Z VRB02KT CAVOK 22/20 Q1016 NOSIG=
201108102230 METAR LMML NIL=
201108102215 METAR LMML 102215Z 08004KT CAVOK 23/20 Q1015 NOSIG=
201108102200 METAR LMML NIL=
201108102145 METAR LMML 102145Z 10003KT CAVOK 23/18 Q1015 NOSIG=
201108102130 METAR LMML NIL=
201108102115 METAR LMML 102115Z 09003KT CAVOK 23/18 Q1015 NOSIG=
201108102100 METAR LMML NIL=
201108102045 METAR LMML 102045Z VRB01KT CAVOK 23/18 Q1015 NOSIG=
201108102030 METAR LMML NIL=
201108102015 METAR LMML 102015Z VRB01KT CAVOK 23/18 Q1015 NOSIG=
201108102000 METAR LMML NIL=
201108101945 METAR LMML 101945Z 31004KT CAVOK 23/18 Q1015 NOSIG=
201108101930 METAR LMML NIL=
201108101915 METAR LMML 101915Z 32005KT CAVOK 24/18 Q1015 NOSIG=
201108101900 METAR LMML NIL=
201108101845 METAR LMML 101845Z 32006KT CAVOK 24/17 Q1014 NOSIG=
201108101830 METAR LMML NIL=
201108101815 METAR LMML 101815Z 34005KT CAVOK 24/18 Q1014 NOSIG=
201108101800 METAR LMML NIL=
201108101745 METAR LMML 101745Z 34009KT CAVOK 24/18 Q1014 NOSIG=
201108101730 METAR LMML NIL=
201108101715 METAR LMML 101715Z 33010KT CAVOK 25/18 Q1014 NOSIG=
201108101700 METAR LMML NIL=
201108101645 METAR LMML 101645Z 34013KT CAVOK 26/18 Q1014 NOSIG=
201108101630 METAR LMML NIL=
201108101615 METAR LMML 101615Z 33013KT CAVOK 27/18 Q1014 NOSIG=
201108101600 METAR LMML NIL=
201108101545 METAR LMML 101545Z 33011KT 300V360 CAVOK 28/17 Q1014 NOSIG=
201108101530 METAR LMML NIL=
201108101515 METAR LMML 101515Z 33011KT 9999 FEW035 28/16 Q1014 BECMG
                        CAVOK=
201108101500 METAR LMML NIL=
201108101445 METAR LMML 101445Z 34012KT 310V010 9999 FEW035 28/16 Q1014
                        BECMG CAVOK=
201108101430 METAR LMML NIL=
201108101415 METAR LMML 101415Z 34012KT 9999 FEW035 29/15 Q1014 BECMG
                        CAVOK=
201108101400 METAR LMML NIL=
201108101345 METAR LMML 101345Z 33012KT 9999 FEW035 29/15 Q1014 NOSIG=
201108101330 METAR LMML NIL=
201108101315 METAR LMML 101315Z 34015KT CAVOK 28/13 Q1014=
201108101245 METAR LMML 101245Z 34012KT 310V010 9999 FEW035 29/14 Q1014
                        NOSIG=
201108101230 METAR LMML NIL=
201108101215 METAR LMML 101215Z 34013KT 9999 FEW035 28/14 Q1014 NOSIG=
201108101200 METAR LMML NIL=
201108101145 METAR LMML 101145Z 34012KT 300V010 9999 FEW035 29/15 Q1014
                        NOSIG=
201108101115 METAR LMML 101115Z 34010KT 300V010 9999 FEW035 29/15 Q1014
                        NOSIG=
201108101100 METAR LMML NIL=
201108101045 METAR LMML 101045Z 33011KT 290V010 9999 FEW035 28/16 Q1014
                        NOSIG=
201108101030 METAR LMML NIL=
201108101015 METAR LMML 101015Z 33013KT CAVOK 28/15 Q1014 NOSIG=
201108101000 METAR LMML NIL=
201108100945 METAR LMML 100945Z 33014KT CAVOK 27/15 Q1014 NOSIG=
201108100930 METAR LMML NIL=
201108100915 METAR LMML 100915Z 33014KT CAVOK 27/16 Q1014 NOSIG=
201108100900 METAR LMML NIL=
201108100845 METAR LMML 100845Z 33016KT 300V360 CAVOK 27/15 Q1014 NOSIG=
201108100830 METAR LMML NIL=
201108100815 METAR LMML 100815Z 33014KT CAVOK 27/15 Q1014 NOSIG=
201108100800 METAR LMML NIL=
201108100745 METAR LMML 100745Z 32012KT 300V360 CAVOK 27/16 Q1013 NOSIG=
201108100715 METAR LMML 100715Z 34011KT 310V010 CAVOK 26/16 Q1013 NOSIG=
201108100700 METAR LMML NIL=
201108100645 METAR LMML 100645Z 33011KT CAVOK 26/17 Q1013 NOSIG=
201108100630 METAR LMML NIL=
201108100615 METAR LMML 100615Z 33010KT CAVOK 25/17 Q1013 NOSIG=
201108100545 METAR LMML 100545Z 32009KT CAVOK 24/17 Q1013 NOSIG=
201108100530 METAR LMML NIL=
201108100515 METAR LMML 100515Z 32010KT CAVOK 23/18 Q1012 NOSIG=
201108100500 METAR LMML NIL=
201108100445 METAR LMML 100445Z 32009KT 9999 FEW038 22/18 Q1012 NOSIG=
201108100430 METAR LMML NIL=
201108100415 METAR LMML 100415Z 32009KT 9999 FEW038 22/18 Q1012 NOSIG=
201108100400 METAR LMML NIL=
201108100345 METAR LMML 100345Z 32009KT 9999 FEW038 22/18 Q1012 NOSIG=
201108100330 METAR LMML NIL=
201108100315 METAR LMML 100315Z 32011KT CAVOK 22/18 Q1012 NOSIG=
201108100300 METAR LMML NIL=
201108100245 METAR LMML 100245Z 32010KT CAVOK 22/18 Q1011 NOSIG=
201108100230 METAR LMML NIL=
201108100215 METAR LMML 100215Z 32011KT CAVOK 22/18 Q1012 NOSIG=
201108100200 METAR LMML NIL=
201108100145 METAR LMML 100145Z 32013KT CAVOK 23/19 Q1012 NOSIG=
201108100130 METAR LMML NIL=
201108100115 METAR LMML 100115Z 32013KT CAVOK 23/19 Q1012 NOSIG=
201108100100 METAR LMML NIL=
201108100045 METAR LMML 100045Z 32014KT CAVOK 23/19 Q1012 NOSIG=
201108100030 METAR LMML NIL=
201108100015 METAR LMML 100015Z 32014KT CAVOK 23/19 Q1012 NOSIG=
201108100000 METAR LMML NIL=
201108092345 METAR LMML 092345Z 32013KT CAVOK 23/19 Q1012 NOSIG=
201108092330 METAR LMML NIL=
201108092315 METAR LMML 092315Z 32013KT CAVOK 23/19 Q1012 NOSIG=
201108092300 METAR LMML NIL=
201108092245 METAR LMML 092245Z 31014KT CAVOK 23/19 Q1012 NOSIG=
201108092230 METAR LMML NIL=
201108092215 METAR LMML 092215Z 31017KT CAVOK 23/19 Q1012 NOSIG=
201108092200 METAR LMML NIL=
201108092145 METAR LMML 092145Z 31020KT CAVOK 24/19 Q1012 NOSIG=
201108092130 METAR LMML NIL=
201108092115 METAR LMML 092115Z 30020KT CAVOK 24/19 Q1012 NOSIG=
201108092100 METAR LMML NIL=
201108092045 METAR LMML 092045Z 30020KT CAVOK 24/19 Q1012 NOSIG=
201108092030 METAR LMML NIL=
201108092015 METAR LMML 092015Z 31019KT 280V340 CAVOK 24/19 Q1013 NOSIG=
201108092000 METAR LMML NIL=
201108091945 METAR LMML 091945Z 31019KT CAVOK 24/19 Q1012 NOSIG=
201108091930 METAR LMML NIL=
201108091915 METAR LMML 091915Z 31017KT CAVOK 25/19 Q1012 NOSIG=
201108091900 METAR LMML NIL=
201108091845 METAR LMML 091845Z 31015G25KT CAVOK 25/20 Q1012 NOSIG=
201108091830 METAR LMML NIL=
201108091815 METAR LMML 091815Z 31017KT CAVOK 25/20 Q1012 NOSIG=
201108091800 METAR LMML NIL=
201108091745 METAR LMML 091745Z 30018KT CAVOK 25/20 Q1012 NOSIG=
201108091730 METAR LMML NIL=
201108091715 METAR LMML 091715Z 30018KT 9999 FEW017 26/21 Q1012 NOSIG=
201108091700 METAR LMML NIL=
201108091645 METAR LMML 091645Z 30019KT 9999 FEW017 27/21 Q1012 NOSIG=
201108091630 METAR LMML NIL=
201108091615 METAR LMML 091615Z 30018KT 9999 FEW017 27/22 Q1012 NOSIG=
201108091600 METAR LMML NIL=
201108091545 METAR LMML 091545Z 30015KT 270V330 9999 FEW017 28/22 Q1012
                        NOSIG=
201108091530 METAR LMML NIL=
201108091515 METAR LMML 091515Z 30017KT 260V320 9999 FEW017 28/22 Q1012
                        NOSIG=
201108091500 METAR LMML NIL=
201108091445 METAR LMML 091445Z 30017KT 9999 FEW017 29/22 Q1013 NOSIG=
201108091430 METAR LMML NIL=
201108091415 METAR LMML 091415Z 30016KT 270V330 9999 FEW017 29/22 Q1013
                        NOSIG=
201108091400 METAR LMML NIL=
201108091345 METAR LMML 091345Z 30018KT 9999 FEW015 29/21 Q1013 NOSIG=
201108091330 METAR LMML NIL=
201108091315 METAR LMML 091315Z 30017KT 270V330 9999 FEW015 29/21 Q1013
                        NOSIG=
201108091300 METAR LMML NIL=
201108091245 METAR LMML 091245Z 31016KT 9999 FEW015 30/21 Q1013 NOSIG=
201108091230 METAR LMML NIL=
201108091215 METAR LMML 091215Z 30013KT 240V330 9999 FEW015 30/21 Q1013
                        NOSIG=
201108091200 METAR LMML NIL=
201108091145 METAR LMML 091145Z 29014KT 260V320 9999 FEW015 30/21 Q1013
                        NOSIG=
201108091130 METAR LMML NIL=
201108091115 METAR LMML 091115Z 30013KT 250V330 CAVOK 30/21 Q1014 NOSIG=
201108091100 METAR LMML NIL=
201108091045 METAR LMML 091045Z 30013KT 270V330 9999 FEW012 30/20 Q1014
                        NOSIG=
201108091030 METAR LMML NIL=
201108091015 METAR LMML 091015Z 30012KT 250V340 9999 FEW012 29/21 Q1014
                        NOSIG=
201108091000 METAR LMML NIL=
201108090945 METAR LMML 090945Z 29010KT 260V320 9999 FEW012 30/20 Q1014
                        NOSIG=
201108090915 METAR LMML 090915Z 30010KT 9999 FEW012 30/19 Q1014 NOSIG=
201108090900 METAR LMML NIL=
201108090845 METAR LMML 090845Z 29009KT 240V340 9999 FEW012 31/16 Q1014
                        NOSIG=
201108090830 METAR LMML NIL=
201108090815 METAR LMML 090815Z 28010KT 250V310 9999 FEW012 30/17 Q1014
                        NOSIG=
201108090800 METAR LMML NIL=
201108090745 METAR LMML 090745Z 31009KT 9999 FEW012 29/18 Q1014 NOSIG=
201108090715 METAR LMML 090715Z 28005KT 220V330 9999 FEW012 29/21 Q1014
                        NOSIG=
201108090645 METAR LMML 090645Z 28007KT 240V310 9999 FEW012 27/21 Q1014
                        NOSIG=
201108090630 METAR LMML NIL=
201108090615 METAR LMML 090615Z 28005KT 240V320 9999 FEW010 26/22 Q1014
                        NOSIG=
201108090545 METAR LMML 090545Z 27003KT 9999 FEW010 25/23 Q1014 NOSIG=
201108090530 METAR LMML NIL=
201108090515 METAR LMML 090515Z 27003KT 9999 FEW006 25/23 Q1013 NOSIG=
201108090500 METAR LMML NIL=
201108090445 METAR LMML 090445Z 27003KT 9000 FEW006 24/23 Q1013 NOSIG=
201108090415 METAR LMML 090415Z VRB02KT 9000 FEW006 23/23 Q1013 NOSIG=
201108090400 METAR LMML NIL=
201108090345 METAR LMML 090345Z 28003KT 9999 FEW006 24/23 Q1013 NOSIG=
201108090330 METAR LMML NIL=
201108090315 METAR LMML 090315Z VRB02KT 9999 FEW006 23/23 Q1013 NOSIG=
201108090300 METAR LMML NIL=
201108090245 METAR LMML 090245Z 29004KT 9999 FEW006 23/23 Q1013 NOSIG=
201108090230 METAR LMML NIL=
201108090215 METAR LMML 090215Z VRB01KT 9999 FEW006 23/23 Q1013 TEMPO
                        8000 BKN005=
201108090200 METAR LMML NIL=
201108090145 METAR LMML 090145Z VRB01KT 9999 FEW006 24/23 Q1013 TEMPO
                        8000 BKN005=
201108090130 METAR LMML NIL=
201108090115 METAR LMML 090115Z VRB01KT 9999 FEW006 24/23 Q1013 TEMPO
                        8000 BKN005=
201108090100 METAR LMML NIL=
201108090045 METAR LMML 090045Z 26003KT 9999 FEW006 24/23 Q1013 TEMPO
                        8000 BKN005=
201108090030 METAR LMML NIL=
201108090015 METAR LMML 090015Z 25003KT 9999 FEW006 24/23 Q1013 TEMPO
                        8000 BKN005=
201108090000 METAR LMML NIL=
201108082345 METAR LMML 082345Z 22004KT 190V260 9999 FEW006 25/23 Q1013
                        TEMPO 8000 BKN005=
201108082315 METAR LMML 082315Z 21003KT 9999 BKN006 25/23 Q1014 BECMG
                        8000 BKN005=
201108082245 METAR LMML 082245Z 20003KT 9999 BKN006 25/23 Q1014 BECMG
                        8000 BKN005=
201108082215 METAR LMML 082215Z 20003KT 9999 SCT006 25/23 Q1014 BECMG
                        8000=
201108082200 METAR LMML NIL=
201108082145 METAR LMML 082145Z 20003KT 9999 FEW006 25/23 Q1014 BECMG
                        8000=
201108082115 METAR LMML 082115Z 21003KT CAVOK 25/23 Q1014 NOSIG=
201108082045 METAR LMML 082045Z 18005KT 160V220 CAVOK 25/23 Q1014 NOSIG=
201108082015 METAR LMML 082015Z 17005KT 140V210 CAVOK 25/23 Q1014 NOSIG=
201108082000 METAR LMML NIL=
201108081945 METAR LMML 081945Z 17005KT 150V210 CAVOK 25/23 Q1013 NOSIG=
201108081915 METAR LMML 081915Z 18006KT 150V210 CAVOK 26/23 Q1013 NOSIG=
201108081900 METAR LMML NIL=
201108081845 METAR LMML 081845Z 18005KT 150V210 CAVOK 26/23 Q1013 NOSIG=
201108081830 METAR LMML NIL=
201108081815 METAR LMML 081815Z 16007KT 140V200 CAVOK 26/23 Q1013 NOSIG=
201108081800 METAR LMML NIL=
201108081745 METAR LMML 081745Z 17006KT 140V200 CAVOK 27/22 Q1013 NOSIG=
201108081730 METAR LMML NIL=
201108081715 METAR LMML 081715Z 16006KT 130V190 CAVOK 28/21 Q1013 NOSIG=
201108081700 METAR LMML NIL=
201108081645 METAR LMML 081645Z 16005KT 130V240 CAVOK 28/21 Q1013 NOSIG=
201108081630 METAR LMML NIL=
201108081615 METAR LMML 081615Z 17005KT 120V210 CAVOK 29/21 Q1013 NOSIG=
201108081600 METAR LMML NIL=
201108081545 METAR LMML 081545Z 18006KT 150V210 CAVOK 29/21 Q1013 NOSIG=
201108081530 METAR LMML NIL=
201108081515 METAR LMML 081515Z 16006KT 120V190 9999 FEW015 30/22 Q1013
                        NOSIG=
201108081500 METAR LMML NIL=
201108081445 METAR LMML 081445Z 17006KT 140V200 9999 FEW015 30/22 Q1013
                        NOSIG=
201108081430 METAR LMML NIL=
201108081415 METAR LMML 081415Z 18005KT 110V230 9999 FEW015 30/22 Q1013
                        NOSIG=
201108081400 METAR LMML NIL=
201108081345 METAR LMML 081345Z 17006KT 130V230 9999 FEW015 30/21 Q1013
                        NOSIG=
201108081330 METAR LMML NIL=
201108081315 METAR LMML 081315Z 18006KT 130V250 CAVOK 30/21 Q1013 NOSIG=
201108081300 METAR LMML NIL=
201108081245 METAR LMML 081245Z 16007KT 120V210 CAVOK 30/21 Q1014 NOSIG=
201108081230 METAR LMML NIL=
201108081215 METAR LMML 081215Z 16007KT 100V200 9999 FEW020 31/21 Q1014
                        NOSIG=
201108081200 METAR LMML NIL=
201108081145 METAR LMML 081145Z 18005KT 120V230 CAVOK 31/20 Q1014 NOSIG=
201108081130 METAR LMML NIL=
201108081115 METAR LMML 081115Z 17006KT 130V220 CAVOK 31/20 Q1014 NOSIG=
201108081100 METAR LMML NIL=
201108081045 METAR LMML 081045Z 18005KT 150V230 CAVOK 31/16 Q1014 NOSIG=
201108081030 METAR LMML NIL=
201108081015 METAR LMML 081015Z 17004KT 110V240 CAVOK 32/17 Q1014 NOSIG=
201108081000 METAR LMML NIL=
201108080945 METAR LMML 080945Z 18003KT CAVOK 31/18 Q1014 NOSIG=
201108080930 METAR LMML NIL=
201108080915 METAR LMML 080915Z 20003KT CAVOK 30/20 Q1014 NOSIG=
201108080900 METAR LMML NIL=
201108080845 METAR LMML 080845Z 17004KT 130V200 9999 FEW012 29/21 Q1014
                        NOSIG=
201108080830 METAR LMML NIL=
201108080815 METAR LMML 080815Z 19004KT 130V230 9999 FEW010 29/21 Q1014
                        NOSIG=
201108080800 METAR LMML NIL=
201108080745 METAR LMML 080745Z 16004KT 110V220 9999 FEW011 28/22 Q1014
                        NOSIG=
201108080730 METAR LMML NIL=
201108080715 METAR LMML 080715Z 17003KT 9999 FEW012 28/21 Q1014 NOSIG=
201108080700 METAR LMML NIL=
201108080645 METAR LMML 080645Z VRB02KT 9999 FEW010 27/21 Q1014 NOSIG=
201108080630 METAR LMML NIL=
201108080615 METAR LMML 080615Z VRB01KT 8000 SCT008 27/22 Q1014 NOSIG=
201108080545 METAR LMML 080545Z 00000KT 8000 SCT008 26/23 Q1014 NOSIG=
201108080530 METAR LMML NIL=
201108080515 METAR LMML 080515Z VRB01KT 8000 FEW008 24/23 Q1013 NOSIG=
201108080445 METAR LMML 080445Z VRB01KT 7000 FEW008 23/22 Q1013 NOSIG=
201108080430 METAR LMML NIL=
201108080415 METAR LMML 080415Z VRB01KT 7000 SCT009 24/23 Q1013 TEMPO
                        BKN009=
201108080400 METAR LMML NIL=
201108080345 METAR LMML 080345Z VRB02KT 9999 FEW010 24/23 Q1013 TEMPO
                        8000 BKN007=
201108080330 METAR LMML NIL=
201108080315 METAR LMML 080315Z VRB02KT 9999 FEW010 24/23 Q1013 TEMPO
                        8000 BKN007=
201108080300 METAR LMML NIL=
201108080245 METAR LMML 080245Z VRB02KT 9999 FEW010 24/23 Q1013 TEMPO
                        8000 BKN010=
201108080230 METAR LMML NIL=
201108080215 METAR LMML 080215Z 19003KT 9999 FEW010 24/23 Q1013 TEMPO
                        8000 BKN010=
201108080200 METAR LMML NIL=
201108080145 METAR LMML 080145Z 18003KT 9999 FEW010 25/22 Q1013 TEMPO
                        8000 BKN010=
201108080130 METAR LMML NIL=
201108080115 METAR LMML 080115Z 17004KT 150V210 9999 FEW010 25/22 Q1013
                        TEMPO 8000 BKN010=
201108080100 METAR LMML NIL=
201108080045 METAR LMML 080045Z 17004KT 140V200 CAVOK 25/22 Q1013 TEMPO
                        8000 SCT007=
201108080030 METAR LMML NIL=
201108080015 METAR LMML 080015Z 17004KT 140V200 CAVOK 25/22 Q1013 NOSIG=
201108080000 METAR LMML NIL=
201108072345 METAR LMML 072345Z 17004KT 140V210 CAVOK 25/22 Q1013 NOSIG=
201108072330 METAR LMML NIL=
201108072315 METAR LMML 072315Z 17004KT CAVOK 25/22 Q1014 NOSIG=
201108072300 METAR LMML NIL=
201108072245 METAR LMML 072245Z 17004KT 130V220 CAVOK 25/21 Q1014 NOSIG=
201108072230 METAR LMML NIL=
201108072215 METAR LMML 072215Z 16005KT CAVOK 25/21 Q1014 NOSIG=
201108072200 METAR LMML NIL=
201108072145 METAR LMML 072145Z 16005KT 130V190 CAVOK 25/21 Q1014 NOSIG=
201108072115 METAR LMML 072115Z 17005KT CAVOK 25/21 Q1014 NOSIG=
201108072100 METAR LMML NIL=
201108072045 METAR LMML 072045Z 14005KT 110V180 CAVOK 25/21 Q1014 NOSIG=
201108072030 METAR LMML NIL=
201108072015 METAR LMML 072015Z 14005KT CAVOK 25/21 Q1013 NOSIG=
201108072000 METAR LMML NIL=
201108071945 METAR LMML 071945Z 13004KT CAVOK 25/20 Q1013 NOSIG=
201108071930 METAR LMML NIL=
201108071915 METAR LMML 071915Z 16004KT 110V200 CAVOK 26/20 Q1013 NOSIG=
201108071900 METAR LMML NIL=
201108071845 METAR LMML 071845Z 16004KT 120V200 CAVOK 26/20 Q1013 NOSIG=
201108071830 METAR LMML NIL=
201108071815 METAR LMML 071815Z 16004KT 120V200 CAVOK 26/21 Q1013 NOSIG=
201108071800 METAR LMML NIL=
201108071745 METAR LMML 071745Z 16004KT CAVOK 26/20 Q1013 NOSIG=
201108071730 METAR LMML NIL=
201108071715 METAR LMML 071715Z 18003KT CAVOK 27/20 Q1013 NOSIG=
201108071700 METAR LMML NIL=
201108071645 METAR LMML 071645Z 18004KT 140V220 CAVOK 28/20 Q1013 NOSIG=
201108071630 METAR LMML NIL=
201108071615 METAR LMML 071615Z 16004KT 130V210 CAVOK 29/21 Q1013 NOSIG=
201108071600 METAR LMML NIL=
201108071545 METAR LMML 071545Z 16005KT 130V210 CAVOK 29/20 Q1013 NOSIG=
201108071530 METAR LMML NIL=
201108071515 METAR LMML 071515Z 22005KT 180V270 CAVOK 30/21 Q1013 NOSIG=
201108071500 METAR LMML NIL=
201108071445 METAR LMML 071445Z 19006KT 160V240 CAVOK 29/21 Q1013 NOSIG=
201108071430 METAR LMML NIL=
201108071415 METAR LMML 071415Z 21006KT 160V270 9999 FEW018 30/21 Q1013
                        NOSIG=
201108071400 METAR LMML NIL=
201108071345 METAR LMML 071345Z 20007KT 170V260 9999 FEW018 30/21 Q1013
                        NOSIG=
201108071330 METAR LMML NIL=
201108071315 METAR LMML 071315Z 21007KT 160V270 CAVOK 30/21 Q1013 NOSIG=
201108071300 METAR LMML NIL=
201108071245 METAR LMML 071245Z 20006KT 140V270 CAVOK 31/20 Q1013 NOSIG=
201108071230 METAR LMML NIL=
201108071215 METAR LMML 071215Z 21005KT 140V260 CAVOK 30/20 Q1014 NOSIG=
201108071200 METAR LMML NIL=
201108071145 METAR LMML 071145Z 21006KT 160V260 9999 FEW017 30/20 Q1014
                        NOSIG=
201108071130 METAR LMML NIL=
201108071115 METAR LMML 071115Z 21007KT 150V270 9999 FEW017 29/20 Q1014
                        NOSIG=
201108071100 METAR LMML NIL=
201108071045 METAR LMML 071045Z 18007KT 130V220 9999 FEW017 29/20 Q1014
                        NOSIG=
201108071030 METAR LMML NIL=
201108071015 METAR LMML 071015Z 18006KT 150V240 9999 FEW015 29/21 Q1014
                        NOSIG=
201108071000 METAR LMML NIL=
201108070945 METAR LMML 070945Z 16006KT 120V210 9999 FEW015 29/20 Q1014
                        NOSIG=
201108070915 METAR LMML 070915Z 18005KT 150V240 9999 FEW015 29/21 Q1014
                        NOSIG=
201108070900 METAR LMML NIL=
201108070845 METAR LMML 070845Z 18004KT 130V220 9999 FEW015 28/20 Q1014
                        NOSIG=
201108070815 METAR LMML 070815Z 18004KT 080V270 9999 FEW016 28/20 Q1014
                        NOSIG=
201108070800 METAR LMML NIL=
201108070745 METAR LMML 070745Z 16004KT 110V200 9999 FEW016 28/21 Q1014
                        NOSIG=
201108070730 METAR LMML NIL=
201108070715 METAR LMML 070715Z 19004KT 130V240 9999 FEW014 27/21 Q1014
                        NOSIG=
201108070700 METAR LMML NIL=
201108070645 METAR LMML 070645Z 18004KT 140V210 9999 SCT013 26/21 Q1014
                        NOSIG=
201108070615 METAR LMML 070615Z 17004KT 140V220 9999 SCT011 26/21 Q1014
                        NOSIG=
201108070600 METAR LMML NIL=
201108070545 METAR LMML 070545Z 17003KT 9000 SCT011 25/21 Q1013 NOSIG=
201108070530 METAR LMML NIL=
201108070515 METAR LMML 070515Z VRB01KT 7000 FEW009 24/21 Q1013 BECMG
                        9999=
201108070500 METAR LMML NIL=
201108070445 METAR LMML 070445Z VRB02KT 7000 FEW009 22/21 Q1013 BECMG
                        9999=
201108070415 METAR LMML 070415Z VRB02KT 7000 SCT009 22/20 Q1012 NOSIG=
201108070400 METAR LMML NIL=
201108070345 METAR LMML 070345Z VRB02KT 9999 SCT009 22/21 Q1012 NOSIG=
201108070330 METAR LMML NIL=
201108070315 METAR LMML 070315Z VRB01KT 9999 BKN008 22/20 Q1012 NOSIG=
201108070300 METAR LMML NIL=
201108070245 METAR LMML 070245Z VRB01KT 9999 BKN008 22/19 Q1012 NOSIG=
201108070215 METAR LMML 070215Z VRB01KT CAVOK 22/19 Q1012 NOSIG=
201108070200 METAR LMML NIL=
201108070145 METAR LMML 070145Z VRB01KT CAVOK 22/19 Q1012 NOSIG=
201108070130 METAR LMML NIL=
201108070115 METAR LMML 070115Z VRB01KT CAVOK 22/19 Q1012 NOSIG=
201108070100 METAR LMML NIL=
201108070045 METAR LMML 070045Z VRB01KT CAVOK 22/18 Q1012 NOSIG=
201108070030 METAR LMML NIL=
201108070015 METAR LMML 070015Z VRB01KT CAVOK 22/18 Q1012 NOSIG=
201108070000 METAR LMML NIL=
201108062345 METAR LMML 062345Z VRB01KT CAVOK 23/19 Q1012 NOSIG=
201108062330 METAR LMML NIL=
201108062315 METAR LMML 062315Z VRB01KT CAVOK 23/19 Q1012 NOSIG=
201108062300 METAR LMML NIL=
201108062245 METAR LMML 062245Z VRB02KT CAVOK 23/19 Q1013 NOSIG=
201108062230 METAR LMML NIL=
201108062215 METAR LMML 062215Z VRB01KT CAVOK 23/19 Q1013 NOSIG=
201108062200 METAR LMML NIL=
201108062145 METAR LMML 062145Z VRB01KT CAVOK 24/19 Q1013 NOSIG=
201108062130 METAR LMML NIL=
201108062115 METAR LMML 062115Z 21003KT CAVOK 25/18 Q1013 NOSIG=
201108062100 METAR LMML NIL=
201108062045 METAR LMML 062045Z VRB02KT CAVOK 25/19 Q1013 NOSIG=
201108062030 METAR LMML NIL=
201108062015 METAR LMML 062015Z VRB02KT CAVOK 25/19 Q1013 NOSIG=
201108062000 METAR LMML NIL=
201108061945 METAR LMML 061945Z VRB02KT CAVOK 25/19 Q1013 NOSIG=
201108061930 METAR LMML NIL=
201108061915 METAR LMML 061915Z VRB02KT CAVOK 25/19 Q1012 NOSIG=
201108061900 METAR LMML NIL=
201108061845 METAR LMML 061845Z 18003KT CAVOK 26/19 Q1012 NOSIG=
201108061830 METAR LMML NIL=
201108061815 METAR LMML 061815Z 15004KT 120V190 CAVOK 26/20 Q1012 NOSIG=
201108061800 METAR LMML NIL=
201108061745 METAR LMML 061745Z 18003KT CAVOK 27/20 Q1012 NOSIG=
201108061730 METAR LMML NIL=
201108061715 METAR LMML 061715Z 19004KT 150V230 CAVOK 28/20 Q1012 NOSIG=
201108061700 METAR LMML NIL=
201108061645 METAR LMML 061645Z 20005KT 150V250 9999 FEW017 28/20 Q1012
                        NOSIG=
201108061630 METAR LMML NIL=
201108061615 METAR LMML 061615Z 18004KT 140V230 9999 FEW017 28/20 Q1012
                        NOSIG=
201108061600 METAR LMML NIL=
201108061545 METAR LMML 061545Z 19004KT 140V240 9999 FEW017 29/21 Q1012
                        NOSIG=
201108061530 METAR LMML NIL=
201108061515 METAR LMML 061515Z 19005KT 140V230 9999 FEW017 29/21 Q1012
                        NOSIG=
201108061500 METAR LMML NIL=
201108061445 METAR LMML 061445Z 20005KT 160V260 9999 FEW017 30/21 Q1012
                        NOSIG=
201108061430 METAR LMML NIL=
201108061415 METAR LMML 061415Z 19005KT 150V250 9999 FEW017 30/21 Q1012
                        NOSIG=
201108061400 METAR LMML NIL=
201108061345 METAR LMML 061345Z 21005KT 170V250 9999 FEW017 30/21 Q1012
                        NOSIG=
201108061330 METAR LMML NIL=
201108061315 METAR LMML 061315Z 17006KT 130V210 9999 FEW017 29/21 Q1013
                        NOSIG=
201108061300 METAR LMML NIL=
201108061245 METAR LMML 061245Z 18006KT 150V250 9999 FEW017 29/21 Q1013
                        NOSIG=
201108061230 METAR LMML NIL=
201108061215 METAR LMML 061215Z 20006KT 160V260 9999 FEW017 30/21 Q1013
                        NOSIG=
201108061200 METAR LMML NIL=
201108061145 METAR LMML 061145Z 18005KT 120V260 9999 FEW017 30/21 Q1013
                        NOSIG=
201108061130 METAR LMML NIL=
201108061115 METAR LMML 061115Z 18005KT 110V240 CAVOK 30/21 Q1013 NOSIG=
201108061100 METAR LMML NIL=
201108061045 METAR LMML 061045Z 17005KT 120V250 9999 FEW017 30/20 Q1013
                        NOSIG=
201108061030 METAR LMML NIL=
201108061015 METAR LMML 061015Z 13005KT 040V200 9999 FEW017 29/21 Q1013
                        NOSIG=
201108061000 METAR LMML NIL=
201108060945 METAR LMML 060945Z 13005KT 070V190 9999 FEW017 29/21 Q1013
                        NOSIG=
201108060930 METAR LMML NIL=
201108060915 METAR LMML 060915Z 11006KT 060V160 9999 FEW018 29/21 Q1013
                        NOSIG=
201108060845 METAR LMML 060845Z 13005KT 080V180 9999 FEW020 29/20 Q1013
                        NOSIG=
201108060830 METAR LMML NIL=
201108060815 METAR LMML 060815Z 10005KT 050V150 9999 FEW020 28/20 Q1013
                        NOSIG=
201108060800 METAR LMML NIL=
201108060745 METAR LMML 060745Z 12004KT 070V160 9999 FEW020 28/20 Q1013
                        NOSIG=
201108060730 METAR LMML NIL=
201108060715 METAR LMML 060715Z 30004KT 9999 FEW020 27/20 Q1013 NOSIG=
201108060700 METAR LMML NIL=
201108060645 METAR LMML 060645Z 09003KT 9999 FEW020 27/20 Q1013 NOSIG=
201108060630 METAR LMML NIL=
201108060615 METAR LMML 060615Z VRB01KT CAVOK 26/20 Q1013 NOSIG=
201108060600 METAR LMML NIL=
201108060545 METAR LMML 060545Z VRB01KT CAVOK 25/20 Q1013 NOSIG=
201108060530 METAR LMML NIL=
201108060515 METAR LMML 060515Z VRB01KT 9999 FEW020 23/19 Q1013 NOSIG=
201108060500 METAR LMML NIL=
201108060445 METAR LMML 060445Z 00000KT CAVOK 21/17 Q1013 NOSIG=
201108060430 METAR LMML NIL=
201108060415 METAR LMML 060415Z VRB01KT CAVOK 22/18 Q1012 NOSIG=
201108060400 METAR LMML NIL=
201108060345 METAR LMML 060345Z VRB02KT CAVOK 22/18 Q1012 NOSIG=
201108060330 METAR LMML NIL=
201108060315 METAR LMML 060315Z VRB02KT CAVOK 23/17 Q1012 NOSIG=
201108060300 METAR LMML NIL=
201108060245 METAR LMML 060245Z VRB02KT CAVOK 22/17 Q1012 NOSIG=
201108060230 METAR LMML NIL=
201108060215 METAR LMML 060215Z VRB01KT CAVOK 22/17 Q1011 NOSIG=
201108060200 METAR LMML NIL=
201108060145 METAR LMML 060145Z 23003KT CAVOK 23/17 Q1011 NOSIG=
201108060130 METAR LMML NIL=
201108060115 METAR LMML 060115Z 23003KT CAVOK 23/17 Q1011 NOSIG=
201108060100 METAR LMML NIL=
201108060045 METAR LMML 060045Z 24003KT CAVOK 23/18 Q1012 NOSIG=
201108060030 METAR LMML NIL=
201108060015 METAR LMML 060015Z 28003KT CAVOK 23/19 Q1012 NOSIG=
201108060000 METAR LMML NIL=
201108052345 METAR LMML 052345Z 28003KT CAVOK 23/20 Q1012 NOSIG=
201108052330 METAR LMML NIL=
201108052315 METAR LMML 052315Z 27003KT CAVOK 23/20 Q1012 NOSIG=
201108052300 METAR LMML NIL=
201108052245 METAR LMML 052245Z 28003KT CAVOK 23/20 Q1013 NOSIG=
201108052230 METAR LMML NIL=
201108052215 METAR LMML 052215Z VRB02KT 9999 FEW015 24/20 Q1013 NOSIG=
201108052200 METAR LMML NIL=
201108052145 METAR LMML 052145Z VRB02KT 9999 FEW015 23/20 Q1013 NOSIG=
201108052130 METAR LMML NIL=
201108052115 METAR LMML 052115Z VRB02KT 9999 FEW015 24/20 Q1013 NOSIG=
201108052100 METAR LMML NIL=
201108052045 METAR LMML 052045Z VRB01KT 9999 FEW015 24/20 Q1013 NOSIG=
201108052030 METAR LMML NIL=
201108052015 METAR LMML 052015Z 31004KT 9999 FEW015 24/20 Q1013 NOSIG=
201108052000 METAR LMML NIL=
201108051945 METAR LMML 051945Z 31003KT 9999 FEW015 24/21 Q1013 NOSIG=
201108051930 METAR LMML NIL=
201108051915 METAR LMML 051915Z 29007KT 9999 FEW015 24/21 Q1012 NOSIG=
201108051900 METAR LMML NIL=
201108051845 METAR LMML 051845Z 29005KT 260V320 9999 FEW015 24/20 Q1012
                        NOSIG=
201108051830 METAR LMML NIL=
201108051815 METAR LMML 051815Z 29005KT 250V310 9999 FEW015 25/19 Q1012
                        NOSIG=
201108051800 METAR LMML NIL=
201108051745 METAR LMML 051745Z 30007KT 9999 FEW015 26/19 Q1012 NOSIG=
201108051730 METAR LMML NIL=
201108051715 METAR LMML 051715Z 29007KT 270V340 9999 FEW015 27/19 Q1012
                        NOSIG=
201108051700 METAR LMML NIL=
201108051645 METAR LMML 051645Z 31010KT 9999 FEW015 27/19 Q1012 NOSIG=
201108051630 METAR LMML NIL=
201108051615 METAR LMML 051615Z 30011KT 9999 FEW020 28/18 Q1012 NOSIG=
201108051600 METAR LMML NIL=
201108051545 METAR LMML 051545Z 29009KT 260V320 9999 FEW020 28/20 Q1012
                        NOSIG=
201108051515 METAR LMML 051515Z 28009KT 230V310 9999 FEW020 29/18 Q1012
                        NOSIG=
201108051500 METAR LMML NIL=
201108051445 METAR LMML 051445Z 27009KT 220V310 9999 FEW020 29/18 Q1012
                        NOSIG=
201108051430 METAR LMML NIL=
201108051415 METAR LMML 051415Z 28008KT 230V330 CAVOK 30/19 Q1012 NOSIG=
201108051400 METAR LMML NIL=
201108051345 METAR LMML 051345Z 26009KT 210V310 CAVOK 29/19 Q1012 NOSIG=
201108051330 METAR LMML NIL=
201108051315 METAR LMML 051315Z 27006KT 210V340 9999 FEW020 30/19 Q1012
                        NOSIG=
201108051300 METAR LMML NIL=
201108051245 METAR LMML 051245Z 26007KT 210V310 9999 FEW020 29/20 Q1013
                        NOSIG=
201108051230 METAR LMML NIL=
201108051215 METAR LMML 051215Z 25008KT 190V290 9999 FEW020 29/20 Q1013
                        NOSIG=
201108051200 METAR LMML NIL=
201108051145 METAR LMML 051145Z 27009KT 220V310 9999 FEW020 30/19 Q1013
                        NOSIG=
201108051130 METAR LMML NIL=
201108051115 METAR LMML 051115Z 28009KT 230V320 9999 FEW020 31/18 Q1013
                        NOSIG=
201108051100 METAR LMML NIL=
201108051045 METAR LMML 051045Z 28008KT 230V310 9999 FEW020 30/19 Q1013
                        NOSIG=
201108051030 METAR LMML NIL=
201108051015 METAR LMML 051015Z 31006KT 230V350 9999 FEW020 29/19 Q1013
                        NOSIG=
201108051000 METAR LMML NIL=
201108050945 METAR LMML 050945Z 29007KT 220V330 9999 FEW020 29/20 Q1013
                        NOSIG=
201108050930 METAR LMML NIL=
201108050915 METAR LMML 050915Z 29005KT 210V350 9999 FEW015 30/19 Q1013
                        NOSIG=
201108050900 METAR LMML NIL=
201108050845 METAR LMML 050845Z 29007KT 250V350 9999 FEW015 29/20 Q1013
                        NOSIG=
201108050830 METAR LMML NIL=
201108050815 METAR LMML 050815Z 32007KT 280V360 9999 FEW015 28/19 Q1013
                        NOSIG=
201108050800 METAR LMML NIL=
201108050745 METAR LMML 050745Z 30007KT 260V340 9999 FEW015 28/20 Q1013
                        TEMPO BKN015=
201108050730 METAR LMML NIL=
201108050715 METAR LMML 050715Z 30009KT 270V330 9999 FEW012 27/19 Q1013
                        TEMPO BKN012=
201108050700 METAR LMML NIL=
201108050645 METAR LMML 050645Z 30008KT 260V320 9999 FEW008 26/19 Q1013
                        NOSIG=
201108050630 METAR LMML NIL=
201108050615 METAR LMML 050615Z 30008KT 280V340 9999 FEW008 25/20 Q1013
                        NOSIG=
201108050600 METAR LMML NIL=
201108050545 METAR LMML 050545Z 32006KT 9999 FEW008 24/21 Q1013 NOSIG=
201108050530 METAR LMML NIL=
201108050515 METAR LMML 050515Z 32005KT 290V350 9999 FEW008 23/21 Q1013
                        NOSIG=
201108050500 METAR LMML NIL=
201108050445 METAR LMML 050445Z 32006KT 300V360 9000 FEW008 23/21 Q1013
                        NOSIG=
201108050430 METAR LMML NIL=
201108050415 METAR LMML 050415Z 32005KT 290V010 9000 SCT008 23/21 Q1013
                        BECMG BKN009=
201108050400 METAR LMML NIL=
201108050345 METAR LMML 050345Z 30005KT 270V340 9000 BKN009 23/21 Q1013
                        NOSIG=
201108050330 METAR LMML NIL=
201108050315 METAR LMML 050315Z 31007KT 9000 BKN009 23/22 Q1013 NOSIG=
201108050300 METAR LMML NIL=
201108050245 METAR LMML 050245Z 29006KT 260V320 9999 BKN010 24/22 Q1013
                        NOSIG=
201108050230 METAR LMML NIL=
201108050215 METAR LMML 050215Z 27005KT 240V320 9999 FEW011 24/22 Q1013
                        NOSIG=
201108050145 METAR LMML 050145Z 27004KT 250V310 9999 FEW011 23/22 Q1013
                        NOSIG=
201108050130 METAR LMML NIL=
201108050115 METAR LMML 050115Z 24003KT CAVOK 24/22 Q1013 NOSIG=
201108050100 METAR LMML NIL=
201108050045 METAR LMML 050045Z VRB02KT 9999 FEW009 24/22 Q1013 NOSIG=
201108050030 METAR LMML NIL=
201108050015 METAR LMML 050015Z VRB02KT 9999 FEW009 24/22 Q1014 NOSIG=
201108050000 METAR LMML NIL=
201108042345 METAR LMML 042345Z 26004KT 220V280 CAVOK 24/22 Q1014 NOSIG=
201108042330 METAR LMML NIL=
201108042315 METAR LMML 042315Z 24004KT 210V290 CAVOK 24/22 Q1014 NOSIG=
201108042300 METAR LMML NIL=
201108042245 METAR LMML 042245Z 25007KT 210V280 CAVOK 24/22 Q1015 NOSIG=
201108042230 METAR LMML NIL=
201108042215 METAR LMML 042215Z 25007KT 220V290 CAVOK 24/22 Q1015 NOSIG=
201108042145 METAR LMML 042145Z 25006KT 220V290 CAVOK 24/22 Q1015 NOSIG=
201108042115 METAR LMML 042115Z 24005KT 200V280 CAVOK 24/22 Q1014 NOSIG=
201108042045 METAR LMML 042045Z 24006KT 210V270 CAVOK 24/21 Q1014 NOSIG=
201108042030 METAR LMML NIL=
201108042015 METAR LMML 042015Z 23006KT 200V280 CAVOK 24/21 Q1014 NOSIG=
201108042000 METAR LMML NIL=
201108041945 METAR LMML 041945Z 23006KT 200V260 CAVOK 24/21 Q1014 NOSIG=
201108041930 METAR LMML NIL=
201108041915 METAR LMML 041915Z 22006KT 190V260 CAVOK 25/20 Q1014 NOSIG=
201108041845 METAR LMML 041845Z 23005KT 190V280 CAVOK 25/21 Q1014 NOSIG=
201108041830 METAR LMML NIL=
201108041815 METAR LMML 041815Z 24006KT 200V290 CAVOK 25/21 Q1014 NOSIG=
201108041800 METAR LMML NIL=
201108041745 METAR LMML 041745Z 23006KT 210V270 CAVOK 26/20 Q1014 NOSIG=
201108041715 METAR LMML 041715Z 25008KT 210V280 CAVOK 27/16 Q1014 NOSIG=
201108041645 METAR LMML 041645Z 24007KT 200V280 CAVOK 27/16 Q1014 NOSIG=
201108041630 METAR LMML NIL=
201108041615 METAR LMML 041615Z 25008KT 200V290 CAVOK 28/18 Q1015 NOSIG=
201108041600 METAR LMML NIL=
201108041545 METAR LMML 041545Z 23011KT 200V280 CAVOK 28/17 Q1015 NOSIG=
201108041515 METAR LMML 041515Z 23009KT 200V280 CAVOK 29/17 Q1015 NOSIG=
201108041500 METAR LMML NIL=
201108041445 METAR LMML 041445Z 24009KT 200V290 CAVOK 29/17 Q1015 NOSIG=
201108041430 METAR LMML NIL=
201108041415 METAR LMML 041415Z 25011KT 200V280 CAVOK 29/17 Q1015 NOSIG=
201108041400 METAR LMML NIL=
201108041345 METAR LMML 041345Z 23010KT 190V270 CAVOK 29/16 Q1015 NOSIG=
201108041330 METAR LMML NIL=
201108041315 METAR LMML 041315Z 23010KT 190V280 CAVOK 30/14 Q1015 NOSIG=
201108041300 METAR LMML NIL=
201108041245 METAR LMML 041245Z 24008KT 190V310 CAVOK 31/12 Q1016 NOSIG=
201108041230 METAR LMML NIL=
201108041215 METAR LMML 041215Z 26009KT 200V300 CAVOK 31/12 Q1016 NOSIG=
201108041200 METAR LMML NIL=
201108041145 METAR LMML 041145Z 23010KT 200V270 CAVOK 31/13 Q1016 NOSIG=
201108041130 METAR LMML NIL=
201108041115 METAR LMML 041115Z 23008KT 190V290 CAVOK 31/12 Q1016 NOSIG=
201108041100 METAR LMML NIL=
201108041045 METAR LMML 041045Z 25007KT 210V290 CAVOK 31/10 Q1016 NOSIG=
201108041030 METAR LMML NIL=
201108041015 METAR LMML 041015Z 22008KT 190V270 CAVOK 31/11 Q1016 NOSIG=
201108041000 METAR LMML NIL=
201108040945 METAR LMML 040945Z 23007KT 190V270 CAVOK 31/11 Q1016 NOSIG=
201108040930 METAR LMML NIL=
201108040915 METAR LMML 040915Z 23005KT 180V300 CAVOK 31/12 Q1016 NOSIG=
201108040900 METAR LMML NIL=
201108040845 METAR LMML 040845Z 22004KT 170V290 CAVOK 29/16 Q1016 NOSIG=
201108040815 METAR LMML 040815Z 25006KT 200V290 CAVOK 29/16 Q1017 NOSIG=
201108040800 METAR LMML NIL=
201108040745 METAR LMML 040745Z 28005KT 230V330 CAVOK 30/12 Q1017 NOSIG=
201108040730 METAR LMML NIL=
201108040715 METAR LMML 040715Z 30007KT 260V330 CAVOK 30/10 Q1017 NOSIG=
201108040700 METAR LMML NIL=
201108040645 METAR LMML 040645Z 32003KT CAVOK 28/11 Q1017 NOSIG=
201108040630 METAR LMML NIL=
201108040615 METAR LMML 040615Z 24004KT 200V290 CAVOK 26/20 Q1017 NOSIG=
201108040600 METAR LMML NIL=
201108040545 METAR LMML 040545Z 22004KT 190V250 CAVOK 24/21 Q1016 NOSIG=
201108040530 METAR LMML NIL=
201108040515 METAR LMML 040515Z 22003KT CAVOK 23/20 Q1016 NOSIG=
201108040500 METAR LMML NIL=
201108040445 METAR LMML 040445Z 21003KT CAVOK 22/19 Q1016 NOSIG=
201108040430 METAR LMML NIL=
201108040415 METAR LMML 040415Z 19003KT CAVOK 22/19 Q1016 NOSIG=
201108040400 METAR LMML NIL=
201108040345 METAR LMML 040345Z 24003KT CAVOK 22/17 Q1017 NOSIG=
201108040330 METAR LMML NIL=
201108040315 METAR LMML 040315Z 26004KT CAVOK 22/18 Q1017 NOSIG=
201108040300 METAR LMML NIL=
201108040245 METAR LMML 040245Z VRB02KT CAVOK 23/18 Q1017 NOSIG=
201108040230 METAR LMML NIL=
201108040215 METAR LMML 040215Z 28003KT CAVOK 23/19 Q1017 NOSIG=
201108040200 METAR LMML NIL=
201108040145 METAR LMML 040145Z 28004KT 230V320 CAVOK 23/20 Q1018 NOSIG=
201108040130 METAR LMML NIL=
201108040115 METAR LMML 040115Z VRB02KT CAVOK 23/19 Q1018 NOSIG=
201108040100 METAR LMML NIL=
201108040045 METAR LMML 040045Z 30005KT CAVOK 23/19 Q1018 NOSIG=
201108040030 METAR LMML NIL=
201108040015 METAR LMML 040015Z 31004KT CAVOK 23/19 Q1018 NOSIG=
201108040000 METAR LMML NIL=
201108032345 METAR LMML 032345Z 30005KT CAVOK 23/19 Q1018 NOSIG=
201108032330 METAR LMML NIL=
201108032315 METAR LMML 032315Z 30005KT CAVOK 23/20 Q1019 NOSIG=
201108032300 METAR LMML NIL=
201108032245 METAR LMML 032245Z 28003KT CAVOK 23/20 Q1019 NOSIG=
201108032215 METAR LMML 032215Z VRB02KT CAVOK 23/19 Q1019 NOSIG=
201108032200 METAR LMML NIL=
201108032145 METAR LMML 032145Z 29004KT CAVOK 24/19 Q1019 NOSIG=
201108032130 METAR LMML NIL=
201108032115 METAR LMML 032115Z 29004KT CAVOK 24/17 Q1019 NOSIG=
201108032100 METAR LMML NIL=
201108032045 METAR LMML 032045Z 30003KT CAVOK 24/17 Q1019 NOSIG=
201108032030 METAR LMML NIL=
201108032015 METAR LMML 032015Z VRB02KT CAVOK 25/14 Q1019 NOSIG=
201108032000 METAR LMML NIL=
201108031945 METAR LMML 031945Z VRB01KT CAVOK 25/14 Q1018 NOSIG=
201108031930 METAR LMML NIL=
201108031915 METAR LMML 031915Z VRB02KT CAVOK 25/17 Q1018 NOSIG=
201108031900 METAR LMML NIL=
201108031845 METAR LMML 031845Z VRB02KT CAVOK 26/19 Q1018 NOSIG=
201108031830 METAR LMML NIL=
201108031815 METAR LMML 031815Z VRB02KT CAVOK 26/18 Q1018 NOSIG=
201108031800 METAR LMML NIL=
201108031745 METAR LMML 031745Z VRB02KT CAVOK 27/18 Q1018 NOSIG=
201108031730 METAR LMML NIL=
201108031715 METAR LMML 031715Z 20003KT 9999 FEW020 28/14 Q1018 NOSIG=
201108031700 METAR LMML NIL=
201108031645 METAR LMML 031645Z 22005KT 190V250 CAVOK 28/15 Q1018 NOSIG=
201108031630 METAR LMML NIL=
201108031615 METAR LMML 031615Z 35003KT CAVOK 30/16 Q1018 NOSIG=
201108031600 METAR LMML NIL=
201108031545 METAR LMML 031545Z 02004KT 340V060 CAVOK 31/18 Q1018 NOSIG=
201108031530 METAR LMML NIL=
201108031515 METAR LMML 031515Z 14005KT CAVOK 31/17 Q1018 NOSIG=
201108031500 METAR LMML NIL=
201108031445 METAR LMML 031445Z 22007KT 200V290 CAVOK 30/15 Q1018 NOSIG=
201108031430 METAR LMML NIL=
201108031415 METAR LMML 031415Z 21007KT 160V290 CAVOK 31/15 Q1018 NOSIG=
201108031400 METAR LMML NIL=
201108031345 METAR LMML 031345Z 04005KT 340V110 CAVOK 32/14 Q1018 NOSIG=
201108031330 METAR LMML NIL=
201108031315 METAR LMML 031315Z 03006KT 330V080 CAVOK 32/14 Q1018 NOSIG=
201108031300 METAR LMML NIL=
201108031245 METAR LMML 031245Z 03004G14KT 300V130 CAVOK 32/15 Q1018 NOSIG=
201108031230 METAR LMML NIL=
201108031215 METAR LMML 031215Z 20006KT 140V250 CAVOK 31/16 Q1019 NOSIG=
201108031145 METAR LMML 031145Z 20007KT 150V250 CAVOK 30/17 Q1019 NOSIG=
201108031130 METAR LMML NIL=
201108031115 METAR LMML 031115Z 34004KT CAVOK 31/16 Q1019 NOSIG=
201108031045 METAR LMML 031045Z 03004KT 330V080 CAVOK 32/14 Q1019 NOSIG=
201108031030 METAR LMML NIL=
201108031015 METAR LMML 031015Z 01005KT 310V070 CAVOK 32/14 Q1019 NOSIG=
201108031000 METAR LMML NIL=
201108030945 METAR LMML 030945Z 08003KT CAVOK 32/14 Q1019 NOSIG=
201108030930 METAR LMML NIL=
201108030915 METAR LMML 030915Z 02003KT CAVOK 31/12 Q1019 NOSIG=
201108030900 METAR LMML NIL=
201108030845 METAR LMML 030845Z 02003KT CAVOK 31/13 Q1019 NOSIG=
201108030830 METAR LMML NIL=
201108030815 METAR LMML 030815Z 02003KT CAVOK 30/12 Q1019 NOSIG=
201108030800 METAR LMML NIL=
201108030745 METAR LMML 030745Z VRB02KT CAVOK 29/13 Q1019 NOSIG=
201108030730 METAR LMML NIL=
201108030715 METAR LMML 030715Z 36004KT 310V040 CAVOK 28/14 Q1019 NOSIG=
201108030645 METAR LMML 030645Z 36003KT CAVOK 26/18 Q1019 NOSIG=
201108030630 METAR LMML NIL=
201108030615 METAR LMML 030615Z 33004KT CAVOK 24/20 Q1019 NOSIG=
201108030600 METAR LMML NIL=
201108030545 METAR LMML 030545Z 30003KT CAVOK 23/20 Q1018 BECMG CAVOK=
201108030530 METAR LMML NIL=
201108030515 METAR LMML 030515Z 31003KT 9000 NSC 22/20 Q1018 BECMG CAVOK=
201108030500 METAR LMML NIL=
201108030445 METAR LMML 030445Z 29003KT 9000 NSC 21/20 Q1017 BECMG CAVOK=
201108030430 METAR LMML NIL=
201108030415 METAR LMML 030415Z 30004KT 7000 NSC 21/20 Q1017 BECMG CAVOK=
201108030400 METAR LMML NIL=
201108030345 METAR LMML 030345Z 29003KT 9000 NSC 21/20 Q1017 NOSIG=
201108030330 METAR LMML NIL=
201108030315 METAR LMML 030315Z 29003KT CAVOK 21/19 Q1017 NOSIG=
201108030300 METAR LMML NIL=
201108030245 METAR LMML 030245Z 30003KT CAVOK 21/19 Q1017 NOSIG=
201108030230 METAR LMML NIL=
201108030215 METAR LMML 030215Z 30003KT CAVOK 21/19 Q1017 NOSIG=
201108030200 METAR LMML NIL=
201108030145 METAR LMML 030145Z 33003KT CAVOK 21/19 Q1017 NOSIG=
201108030130 METAR LMML NIL=
201108030115 METAR LMML 030115Z VRB02KT CAVOK 21/19 Q1017 NOSIG=
201108030100 METAR LMML NIL=
201108030045 METAR LMML 030045Z VRB02KT CAVOK 21/19 Q1017 NOSIG=
201108030030 METAR LMML NIL=
201108030015 METAR LMML 030015Z VRB02KT CAVOK 21/19 Q1017 NOSIG=
201108030000 METAR LMML NIL=
201108022345 METAR LMML 022345Z VRB02KT CAVOK 21/19 Q1017 NOSIG=
201108022330 METAR LMML NIL=
201108022315 METAR LMML 022315Z 01003KT CAVOK 22/19 Q1017 NOSIG=
201108022300 METAR LMML NIL=
201108022245 METAR LMML 022245Z VRB02KT CAVOK 22/19 Q1017 NOSIG=
201108022215 METAR LMML 022215Z 31003KT CAVOK 22/19 Q1017 NOSIG=
201108022200 METAR LMML NIL=
201108022145 METAR LMML 022145Z 35004KT CAVOK 22/19 Q1017 NOSIG=
201108022130 METAR LMML NIL=
201108022115 METAR LMML 022115Z 35004KT CAVOK 22/19 Q1017 NOSIG=
201108022100 METAR LMML NIL=
201108022045 METAR LMML 022045Z 34004KT CAVOK 23/19 Q1017 NOSIG=
201108022030 METAR LMML NIL=
201108022015 METAR LMML 022015Z 34004KT CAVOK 23/18 Q1017 NOSIG=
201108021945 METAR LMML 021945Z 31004KT CAVOK 23/18 Q1017 NOSIG=
201108021930 METAR LMML NIL=
201108021915 METAR LMML 021915Z 32005KT CAVOK 23/18 Q1017 NOSIG=
201108021900 METAR LMML NIL=
201108021845 METAR LMML 021845Z 32006KT CAVOK 23/16 Q1016 NOSIG=
201108021830 METAR LMML NIL=
201108021815 METAR LMML 021815Z 33007KT 290V020 CAVOK 24/17 Q1016 NOSIG=
201108021800 METAR LMML NIL=
201108021745 METAR LMML 021745Z 33006KT 9999 FEW034 25/17 Q1016 NOSIG=
201108021730 METAR LMML NIL=
201108021715 METAR LMML 021715Z 34006KT 300V360 9999 FEW034 25/17 Q1016
                        NOSIG=
201108021700 METAR LMML NIL=
201108021645 METAR LMML 021645Z 34007KT 310V020 9999 FEW034 27/17 Q1016
                        NOSIG=
201108021630 METAR LMML NIL=
201108021615 METAR LMML 021615Z 35007KT 300V040 9999 FEW034 28/17 Q1015
                        NOSIG=
201108021600 METAR LMML NIL=
201108021545 METAR LMML 021545Z 34005KT 310V020 CAVOK 28/16 Q1015 NOSIG=
201108021530 METAR LMML NIL=
201108021515 METAR LMML 021515Z 33007KT 280V030 9999 FEW034 29/17 Q1015
                        NOSIG=
201108021500 METAR LMML NIL=
201108021445 METAR LMML 021445Z 33007KT 280V020 CAVOK 29/15 Q1015 NOSIG=
201108021430 METAR LMML NIL=
201108021415 METAR LMML 021415Z 34006KT 280V050 9999 FEW034 29/17 Q1015
                        NOSIG=
201108021400 METAR LMML NIL=
201108021345 METAR LMML 021345Z 33006KT 290V020 9999 FEW030 29/16 Q1016
                        NOSIG=
201108021330 METAR LMML NIL=
201108021315 METAR LMML 021315Z 34006KT 290V050 9999 FEW030 28/17 Q1016
                        NOSIG=
201108021300 METAR LMML NIL=
201108021245 METAR LMML 021245Z 34007KT 290V050 CAVOK 29/16 Q1016 NOSIG=
201108021230 METAR LMML NIL=
201108021215 METAR LMML 021215Z 33008KT 290V020 CAVOK 29/18 Q1016 NOSIG=
201108021200 METAR LMML NIL=
201108021145 METAR LMML 021145Z 35010KT 310V020 CAVOK 29/18 Q1016 NOSIG=
201108021130 METAR LMML NIL=
201108021115 METAR LMML 021115Z 32008KT 270V010 CAVOK 29/18 Q1016 NOSIG=
201108021100 METAR LMML NIL=
201108021045 METAR LMML 021045Z 31009KT 270V340 CAVOK 29/10 Q1016 NOSIG=
201108021030 METAR LMML NIL=
201108021015 METAR LMML 021015Z 29011KT 260V320 CAVOK 29/07 Q1016 NOSIG=
201108021000 METAR LMML NIL=
201108020945 METAR LMML 020945Z 30012KT 270V350 CAVOK 29/06 Q1016 NOSIG=
201108020930 METAR LMML NIL=
201108020915 METAR LMML 020915Z 29012KT 250V330 CAVOK 29/09 Q1016 NOSIG=
201108020900 METAR LMML NIL=
201108020845 METAR LMML 020845Z 30011KT 280V340 CAVOK 29/08 Q1016 NOSIG=
201108020830 METAR LMML NIL=
201108020815 METAR LMML 020815Z 31011KT CAVOK 28/10 Q1016 NOSIG=
201108020800 METAR LMML NIL=
201108020745 METAR LMML 020745Z 29011KT 240V320 CAVOK 28/10 Q1016 NOSIG=
201108020730 METAR LMML NIL=
201108020715 METAR LMML 020715Z 29011KT 260V320 CAVOK 26/11 Q1015 NOSIG=
201108020645 METAR LMML 020645Z 29006KT 250V320 CAVOK 26/14 Q1015 NOSIG=
201108020630 METAR LMML NIL=
201108020615 METAR LMML 020615Z 31006KT 280V340 CAVOK 24/17 Q1015 NOSIG=
201108020545 METAR LMML 020545Z 30004KT 260V330 CAVOK 23/18 Q1015 NOSIG=
201108020530 METAR LMML NIL=
201108020515 METAR LMML 020515Z 27004KT 240V300 CAVOK 22/17 Q1015 NOSIG=
201108020500 METAR LMML NIL=
201108020445 METAR LMML 020445Z 27004KT 240V300 9999 FEW020 21/17 Q1015
                        NOSIG=
201108020430 METAR LMML NIL=
201108020415 METAR LMML 020415Z 27003KT 9999 FEW020 21/17 Q1014 NOSIG=
201108020400 METAR LMML NIL=
201108020345 METAR LMML 020345Z VRB02KT 9999 FEW020 20/16 Q1014 NOSIG=
201108020330 METAR LMML NIL=
201108020315 METAR LMML 020315Z 26003KT CAVOK 21/16 Q1014 NOSIG=
201108020245 METAR LMML 020245Z 30005KT CAVOK 21/16 Q1014 NOSIG=
201108020230 METAR LMML NIL=
201108020215 METAR LMML 020215Z 30005KT CAVOK 21/17 Q1014 NOSIG=
201108020200 METAR LMML NIL=
201108020145 METAR LMML 020145Z 29004KT CAVOK 21/18 Q1014 NOSIG=
201108020130 METAR LMML NIL=
201108020115 METAR LMML 020115Z 30003KT CAVOK 21/17 Q1014 NOSIG=
201108020100 METAR LMML NIL=
201108020045 METAR LMML 020045Z 26004KT CAVOK 22/17 Q1014 NOSIG=
201108020030 METAR LMML NIL=
201108020015 METAR LMML 020015Z 27003KT CAVOK 21/16 Q1014 NOSIG=
201108020000 METAR LMML NIL=
201108012345 METAR LMML 012345Z VRB02KT CAVOK 21/15 Q1014 NOSIG=
201108012330 METAR LMML NIL=
201108012315 METAR LMML 012315Z VRB01KT CAVOK 22/16 Q1014 NOSIG=
201108012300 METAR LMML NIL=
201108012245 METAR LMML 012245Z 24003KT CAVOK 22/16 Q1014 NOSIG=
201108012230 METAR LMML NIL=
201108012215 METAR LMML 012215Z 28004KT CAVOK 22/17 Q1014 NOSIG=
201108012200 METAR LMML NIL=
201108012145 METAR LMML 012145Z 29003KT CAVOK 22/18 Q1014 NOSIG=
201108012130 METAR LMML NIL=
201108012115 METAR LMML 012115Z VRB02KT CAVOK 22/17 Q1014 NOSIG=
201108012100 METAR LMML NIL=
201108012045 METAR LMML 012045Z 30004KT CAVOK 23/18 Q1014 NOSIG=
201108012030 METAR LMML NIL=
201108012015 METAR LMML 012015Z 29004KT 260V320 CAVOK 23/17 Q1014 NOSIG=
201108012000 METAR LMML NIL=
201108011945 METAR LMML 011945Z 28004KT 250V310 CAVOK 23/17 Q1014 NOSIG=
201108011930 METAR LMML NIL=
201108011915 METAR LMML 011915Z 28004KT CAVOK 24/17 Q1013 NOSIG=
201108011900 METAR LMML NIL=
201108011845 METAR LMML 011845Z 30003KT CAVOK 24/16 Q1013 NOSIG=
201108011830 METAR LMML NIL=
201108011815 METAR LMML 011815Z 31007KT CAVOK 24/16 Q1013 NOSIG=
201108011800 METAR LMML NIL=
201108011745 METAR LMML 011745Z 30006KT 270V330 CAVOK 25/15 Q1013 NOSIG=
201108011730 METAR LMML NIL=
201108011715 METAR LMML 011715Z 31008KT CAVOK 26/14 Q1012 NOSIG=
201108011700 METAR LMML NIL=
201108011645 METAR LMML 011645Z 30009KT 250V330 CAVOK 27/14 Q1012 NOSIG=
201108011630 METAR LMML NIL=
201108011615 METAR LMML 011615Z 29008KT 250V310 CAVOK 27/14 Q1012 NOSIG=
201108011600 METAR LMML NIL=
201108011545 METAR LMML 011545Z 29009KT 250V330 CAVOK 28/13 Q1012 NOSIG=
201108011530 METAR LMML NIL=
201108011515 METAR LMML 011515Z 31010KT 270V350 CAVOK 29/11 Q1012 NOSIG=
201108011445 METAR LMML 011445Z 29010KT 250V320 CAVOK 28/11 Q1012 NOSIG=
201108011415 METAR LMML 011415Z 30010KT 270V340 9999 FEW037 29/11 Q1012
                        NOSIG=
201108011400 METAR LMML NIL=
201108011345 METAR LMML 011345Z 29010KT 220V330 CAVOK 29/13 Q1012 NOSIG=
201108011330 METAR LMML NIL=
201108011315 METAR LMML 011315Z 31009KT 250V350 9999 FEW037 29/16 Q1013
                        NOSIG=
201108011300 METAR LMML NIL=
201108011245 METAR LMML 011245Z 30010KT 250V360 9999 FEW037 28/16 Q1013
                        NOSIG=
201108011230 METAR LMML NIL=
201108011215 METAR LMML 011215Z 34009KT 310V020 9999 FEW036 28/17 Q1013
                        NOSIG=
201108011200 METAR LMML NIL=
201108011145 METAR LMML 011145Z 33010KT 290V010 9999 FEW042 29/13 Q1013
                        NOSIG=
201108011130 METAR LMML NIL=
201108011115 METAR LMML 011115Z 35009KT 290V030 9999 FEW030 28/17 Q1013
                        NOSIG=
201108011100 METAR LMML NIL=
201108011045 METAR LMML 011045Z 03008KT 350V060 9999 FEW027 29/18 Q1012
                        NOSIG=
201108011030 METAR LMML NIL=
201108011015 METAR LMML 011015Z 02006KT 330V090 9999 FEW024 27/19 Q1013
                        NOSIG=
201108011000 METAR LMML NIL=
201108010945 METAR LMML 010945Z 01006KT 280V060 9999 FEW020 27/19 Q1013
                        NOSIG=
201108010930 METAR LMML NIL=
201108010915 METAR LMML 010915Z 03007KT 340V070 9999 FEW018 27/19 Q1012
                        NOSIG=
201108010900 METAR LMML NIL=
201108010845 METAR LMML 010845Z 01007KT 340V060 9999 SCT018 27/19 Q1012
                        NOSIG=
201108010815 METAR LMML 010815Z 01008KT 340V050 9999 SCT018 25/19 Q1012
                        NOSIG=
201108010800 METAR LMML NIL=
201108010745 METAR LMML 010745Z 36008KT 330V050 9999 SCT018 26/19 Q1012
                        NOSIG=
201108010730 METAR LMML NIL=
201108010715 METAR LMML 010715Z 01009KT 340V050 9999 SCT016 25/19 Q1012
                        NOSIG=
201108010700 METAR LMML NIL=
201108010645 METAR LMML 010645Z 36008KT 330V040 9999 SCT015 24/19 Q1012
                        NOSIG=
201108010630 METAR LMML NIL=
201108010615 METAR LMML 010615Z 36007KT 9999 FEW020 24/19 Q1012 NOSIG=
201108010545 METAR LMML 010545Z 33005KT 280V010 9999 FEW020 23/19 Q1011
                        NOSIG=
201108010530 METAR LMML NIL=
201108010515 METAR LMML 010515Z 31004KT 280V350 9999 FEW020 22/19 Q1011
                        NOSIG=
201108010500 METAR LMML NIL=
201108010445 METAR LMML 010445Z 33003KT 9999 FEW020 21/18 Q1011 NOSIG=
201108010415 METAR LMML 010415Z 32003KT 9999 FEW020 20/18 Q1011 NOSIG=
201108010400 METAR LMML NIL=
201108010345 METAR LMML 010345Z 30006KT 270V330 9999 FEW020 21/18 Q1011
                        NOSIG=
201108010315 METAR LMML 010315Z 30008KT 9999 FEW020 21/18 Q1011 NOSIG=
201108010300 METAR LMML NIL=
201108010245 METAR LMML 010245Z 31007KT CAVOK 21/18 Q1011 NOSIG=
201108010230 METAR LMML NIL=
201108010215 METAR LMML 010215Z 30008KT CAVOK 21/18 Q1011 NOSIG=
201108010200 METAR LMML NIL=
201108010145 METAR LMML 010145Z 30006KT CAVOK 21/18 Q1011 NOSIG=
201108010130 METAR LMML NIL=
201108010115 METAR LMML 010115Z 29007KT CAVOK 22/18 Q1011 NOSIG=
201108010100 METAR LMML NIL=
201108010045 METAR LMML 010045Z 29007KT 250V320 CAVOK 22/17 Q1011 NOSIG=
201108010030 METAR LMML NIL=
201108010015 METAR LMML 010015Z 29007KT 260V320 CAVOK 22/18 Q1011 NOSIG=
201108010000 METAR LMML NIL=

###################################
#  short TAF from LMML
###################################
201108312300 TAF LMML 312300Z 0100/0109 VRB05KT CAVOK
                      TEMPO 0100/0109 9999 FEW012
                      PROB30 TEMPO 0100/0106 8000 SCT008=
201108312000 TAF COR LMML 312000Z 3121/0106 VRB05KT CAVOK
                      PROB30 TEMPO 0100/0106 9000 FEW008=
201108311700 TAF LMML 311700Z 3118/0103 VRB05KT CAVOK
                      TEMPO 3118/3122 9999 FEW020=
201108311400 TAF LMML 311400Z 3115/3124 26010KT 9999 FEW018
                      BECMG 3117/3120 CAVOK=
201108311100 TAF LMML 311100Z 3112/3121 26010KT 9999 FEW018
                      PROB30 TEMPO 3112/3121 CAVOK=
201108310800 TAF LMML 310800Z 3109/3118 26005KT CAVOK
                      TEMPO 3109/3118 9999 FEW020=
201108310500 TAF LMML 310500Z 3106/3115 28005KT CAVOK
                      TEMPO 3109/3115 9999 FEW015=
201108310200 TAF LMML 310200Z 3103/3112 28004KT CAVOK
                      PROB30 TEMPO 3103/3105 7000 NSC=
201108302300 TAF LMML 302300Z 3100/3109 29005KT CAVOK=
201108302000 TAF LMML 302000Z 3021/3106 29005KT CAVOK
                      TEMPO 3100/3106 9999 SCT012=
201108301700 TAF LMML 301700Z 3018/3103 30012KT 9999 FEW020
                      TEMPO 3018/3103 CAVOK=
201108301400 TAF LMML 301400Z 3015/3024 30013KT 9999 FEW025
                      TEMPO 3015/3024 CAVOK=
201108301100 TAF LMML 301100Z 3012/3021 31010KT 9999 FEW030
                      TEMPO 3012/3021 CAVOK=
201108300800 TAF LMML 300800Z 3009/3018 30012KT 9999 FEW020
                      TEMPO 3009/3018 CAVOK=
201108300500 TAF LMML 300500Z 3006/3015 31010KT 9999 FEW020
                      PROB40 TEMPO 3006/3015 CAVOK=
201108300200 TAF LMML 300200Z 3003/3012 32005KT CAVOK
                      TEMPO 3003/3012 9999 FEW020=
201108292300 TAF LMML 292300Z 3000/3009 31005KT 9999 FEW018
                      TEMPO 3000/3009 CAVOK=
201108292000 TAF LMML 292000Z 2921/3006 31005KT 9999 FEW015
                      TEMPO 2921/3006 CAVOK=
201108291700 TAF LMML 291700Z 2918/3003 31007KT 9999 SCT018=
201108291400 TAF LMML 291400Z 2915/2924 30005KT 9999 SCT017
                      PROB30 TEMPO 2917/2924 BKN013=
201108291100 TAF LMML 291100Z 2912/2921 VRB05KT 9999 SCT018=
201108290800 TAF LMML 290800Z 2909/2918 30005KT 9999 SCT018=
201108290500 TAF LMML 290500Z 2906/2915 29008KT 9999 SCT020=
201108290200 TAF LMML 290200Z 2903/2912 31010KT 9999 SCT020
                      PROB30 TEMPO 2903/2909 BKN015=
201108282300 TAF LMML 282300Z 2900/2909 31010KT 9999 FEW020
                      TEMPO 2900/2903 CAVOK
                      PROB30 TEMPO 2903/2909 BKN015=
201108282000 TAF LMML 282000Z 2821/2906 31010KT 9999 FEW020
                      PROB30 TEMPO 2821/2824 CAVOK
                      PROB30 TEMPO 2900/2906 BKN015=
201108281700 TAF LMML 281700Z 2818/2903 31012KT CAVOK
                      PROB30 TEMPO 2818/2903 9999 FEW020=
201108281400 TAF LMML 281400Z 2815/2824 31015G25KT CAVOK
                      PROB30 TEMPO 2815/2824 9999 FEW025=
201108281100 TAF LMML 281100Z 2812/2821 31015G25KT CAVOK
                      PROB30 TEMPO 2812/2821 9999 FEW025=
201108280800 TAF LMML 280800Z 2809/2818 31015G25KT CAVOK
                      PROB40 TEMPO 2809/2818 9999 FEW025=
201108280500 TAF LMML 280500Z 2806/2815 31015KT CAVOK
                      TEMPO 2806/2815 9999 FEW020=
201108280200 TAF LMML 280200Z 2803/2812 31015KT CAVOK
                      PROB30 TEMPO 2803/2812 9999 FEW015=
201108272300 TAF LMML 272300Z 2800/2809 30015KT CAVOK
                      TEMPO 2800/2809 9999 FEW015
                      PROB30 TEMPO 2800/2806 31015G25KT 9000 SCT010=
201108272000 TAF LMML 272000Z 2721/2806 29013KT CAVOK
                      TEMPO 2721/2806 9999 FEW015
                      PROB30 TEMPO 2723/2806 31015G25KT 9000 SCT010=
201108271700 TAF LMML 271700Z 2718/2803 31015KT CAVOK
                      TEMPO 2718/2803 9999 FEW012=
201108271400 TAF LMML 271400Z 2715/2724 31015KT CAVOK
                      PROB40 TEMPO 2718/2724 9999 FEW015=
201108271100 TAF LMML 271100Z 2712/2721 30012KT CAVOK
                      PROB40 TEMPO 2718/2721 9999 FEW015=
201108270800 TAF LMML 270800Z 2709/2718 30010KT CAVOK=
201108270500 TAF LMML 270500Z 2706/2715 30008KT CAVOK
                      PROB30 TEMPO 2711/2715 9999 FEW040=
201108270200 TAF LMML 270200Z 2703/2712 29005KT CAVOK
                      PROB30 TEMPO 2703/2706 9999 FEW008=
201108262300 TAF LMML 262300Z 2700/2709 29004KT CAVOK
                      PROB30 TEMPO 2700/2706 9999 FEW008=
201108262000 TAF LMML 262000Z 2621/2706 31006KT CAVOK
                      PROB30 TEMPO 2621/2706 8000 SCT007=
201108261700 TAF LMML 261700Z 2618/2703 VRB05KT CAVOK
                      TEMPO 2621/2703 9999 FEW012
                      PROB30 TEMPO 2700/2703 9000 SCT008=
201108261400 TAF LMML 261400Z 2615/2624 25007KT CAVOK
                      PROB30 TEMPO 2621/2624 9999 FEW012=
201108261100 TAF LMML 261100Z 2612/2621 34007KT CAVOK
                      PROB30 TEMPO 2612/2618 9999 FEW025=
201108260800 TAF LMML 260800Z 2609/2618 01007KT CAVOK
                      TEMPO 2609/2618 9999 FEW025=
201108260500 TAF LMML 260500Z 2606/2615 04005KT CAVOK=
201108260200 TAF LMML 260200Z 2603/2612 03004KT CAVOK
                      TEMPO 2603/2606 9000 FEW008=
201108252300 TAF LMML 252300Z 2600/2609 03004KT CAVOK
                      TEMPO 2600/2607 9000 FEW008=
201108252000 TAF LMML 252000Z 2521/2606 03004KT 9999 FEW012
                      PROB30 TEMPO 2523/2605 5000 BR BKN008=
201108251700 TAF LMML 251700Z 2518/2603 VRB04KT CAVOK
                      PROB30 TEMPO 2521/2603 9999 SCT007=
201108251400 TAF LMML 251400Z 2515/2524 VRB04KT 9999 FEW030
                      BECMG 2515/2517 CAVOK
                      PROB30 TEMPO 2521/2524 9999 SCT007=
201108251100 TAF COR LMML 251100Z 2512/2521 VRB06KT 9999 FEW030
                      BECMG 2515/2517 CAVOK=
201108250800 TAF LMML 250800Z 2509/2518 30008KT CAVOK
                      TEMPO 2512/2515 9999 FEW030=
201108250500 TAF LMML 250500Z 2506/2515 29005KT CAVOK=
201108250200 TAF LMML 250200Z 2503/2512 29005KT CAVOK
                      PROB30 TEMPO 2503/2506 9000 FEW010=
201108242300 TAF LMML 242300Z 2500/2509 28005KT CAVOK
                      PROB30 TEMPO 2500/2506 9000 FEW010=
201108242000 TAF LMML 242000Z 2421/2506 28005KT CAVOK
                      PROB30 TEMPO 2421/2506 9000 FEW010=
201108241700 TAF LMML 241700Z 2418/2503 VRB03KT CAVOK
                      PROB3 TEMPO 24023/2503 9000 FEW008=
201108241400 TAF LMML 241400Z 2415/2424 31006KT 9999 FEW030
                      TEMPO 2415/2424 CAVOK=
201108241100 TAF LMML 241100Z 2412/2421 31006KT 9999 FEW020
                      TEMPO 2412/2421 CAVOK=
201108240800 TAF LMML 240800Z 2409/2418 30006KT CAVOK
                      PROB40 TEMPO 2410/2418 9999 FEW018=
201108240500 TAF LMML 240500Z 2406/2415 31007KT CAVOK
                      PROB30 TEMPO 2406/2415 9999 FEW020=
201108240200 TAF LMML 240200Z 2403/2412 30006KT CAVOK
                      TEMPO 2403/2412 9999 FEW015
                      PROB30 TEMPO 2403/2406 9000 SCT008=
201108232300 TAF LMML 232300Z 2400/2409 28004KT CAVOK
                      TEMPO 2400/2409 9999 FEW011
                      PROB40 TEMPO 2400/2406 9000 SCT008
                      PROB30 TEMPO 2400/2406 5000 BR BKN005=
201108232000 TAF LMML 232000Z 2321/2406 32005KT CAVOK
                      TEMPO 2321/2406 9999 FEW011
                      PROB40 TEMPO 2321/2406 9000 SCT008
                      PROB30 TEMPO 2400/2406 5000 BR BKN005=
201108231700 TAF LMML 231700Z 2318/2403 VRB05KT 9999 FEW015
                      PROB40 TEMPO 2318/0403 CAVOK=
201108231400 TAF LMML 231400Z 2315/2324 VRB05KT 9999 FEW015
                      PROB30 TEMPO 2315/2324 CAVOK=
201108231100 TAF LMML 231100Z 2312/2321 VRB05KT CAVOK
                      TEMPO 2312/2321 9999 FEW1017=
201108230800 TAF LMML 230800Z 2309/2318 VRB05KT 9999 FEW020
                      TEMPO 2309/2318 CAVOK=
201108230500 TAF LMML 230500Z 2306/2315 04004KT 9999 FEW015
                      BECMG 2306/2309 CAVOK=
201108230200 TAF LMML 230200Z 2303/2312 05005KT 9999 SCT006
                      PROB30 TEMPO 2303/2305 6000 BKN005
                      BECMG 2306/2309 CAVOK=
201108222300 TAF LMML 222300Z 2300/2309 06004KT 9999 FEW006
                      PROB30 TEMPO 2300/2306 6000 BKN005=
201108222000 TAF LMML 222000Z 2221/2306 04004KT CAVOK
                      TEMPO 2222/2306 9999 SCT008
                      PROB30 TEMPO 2303/2306 6000 BKN005=
201108221700 TAF LMML 221700Z 2218/2303 07007KT CAVOK
                      TEMPO 2221/2303 9999 FEW012
                      PROB30 TEMPO 2300/2303 9000 SCT008=
201108221400 TAF LMML 221400Z 2215/2224 09008KT CAVOK
                      TEMPO 2218/2224 9999 FEW012
                      PROB30 TEMPO 2221/2224 9000 SCT010=
201108221100 TAF LMML 221100Z 2212/2221 08010KT CAVOK
                      PROB30 TEMPO 2218/2221 9999 FEW012=
201108220800 TAF LMML 220800Z 2209/2218 07008KT CAVOK=
201108220500 TAF LMML 220500Z 2206/2215 06005KT CAVOK=
201108220200 TAF LMML 220200Z 2203/2212 VRB05KT CAVOK=
201108212300 TAF LMML 212300Z 2200/2209 VRB03KT CAVOK=
201108212000 TAF LMML 212000Z 2121/2206 VRB03KT CAVOK=
201108211800 TAF LMML 211800Z 2118/2203 VRB05KT CAVOK=
201108211700 TAF LMML 211700Z 2121/2203 VRB05KT CAVOK=
201108211400 TAF LMML 211400Z 2115/2124 15004KT CAVOK=
201108211100 TAF LMML 211100Z 2112/2121 VRB05KT CAVOK=
201108210800 TAF LMML 210800Z 2109/2118 VRB05KT CAVOK=
201108210500 TAF LMML 210500Z 2106/2115 VRB05KT CAVOK=
201108210200 TAF LMML 210200Z 2103/2112 VRB05KT CAVOK
                      PROB30 TEMPO 2106/2112 9999 FEW015=
201108202300 TAF LMML 202300Z 2100/2109 VRB05KT CAVOK
                      PROB30 TEMPO 2106/2109 9999 FEW015=
201108202000 TAF LMML 202000Z 2021/2106 VRB03KT CAVOK=
201108201700 TAF LMML 201700Z 2018/2103 VRB03KT CAVOK=
201108201400 TAF LMML 201400Z 2015/2024 VRB05KT CAVOK=
201108201100 TAF LMML 201100Z 2012/2021 VRB05KT CAVOK=
201108200800 TAF LMML 200800Z 2009/2018 31007KT CAVOK=
201108200500 TAF LMML 200500Z 2006/2015 32007KT CAVOK=
201108200200 TAF LMML 200200Z 2003/2012 27005KT CAVOK=
201108192300 TAF LMML 192300Z 2000/2009 30005KT CAVOK
                      PROB30 TEMPO 2000/2006 9000 NSC=
201108192000 TAF LMML 192000Z 1921/2006 33005KT CAVOK
                      PROB30 TEMPO 2000/2006 9000 NSC=
201108191700 TAF LMML 191700Z 1918/2003 VRB05KT CAVOK=
201108191400 TAF LMML 191400Z 1915/1924 VRB05KT CAVOK=
201108191100 TAF LMML 191100Z 1912/1921 VRB05KT CAVOK=
201108190800 TAF LMML 190800Z 1909/1918 01005KT CAVOK=
201108190500 TAF LMML 190500Z 1906/1915 07007KT CAVOK=
201108190200 TAF LMML 190200Z 1903/1912 07005KT CAVOK
                      PROB30 TEMPO 1903/1906 5000 BR FEW008=
201108182300 TAF LMML 182300Z 1900/1909 06004KT CAVOK
                      PROB30 TEMPO 1900/1906 5000 BR FEW008=
201108182000 TAF LMML 182000Z 1821/1906 VRB03KT CAVOK
                      PROB30 TEMPO 1901/1906 6000 FEW012=
201108181700 TAF LMML 181700Z 1818/1903 07006KT CAVOK
                      TEMPO 1818/1903 9999 FEW015
                      PROB30 TEMPO 1900/1903 9000 SCT010=
201108181400 TAF LMML 181400Z 1815/1824 12008KT 9999 FEW025
                      TEMPO 1815/1824 CAVOK=
201108181100 TAF LMML 181100Z 1812/1821 10008KT CAVOK
                      PROB30 TEMPO 1812/1821 9999 FEW020=
201108180800 TAF LMML 180800Z 1809/1818 09007KT CAVOK
                      PROB30 TEMPO 1809/1818 9999 FEW020=
201108180500 TAF LMML 180500Z 1806/1815 01005KT CAVOK=
201108180200 TAF LMML 180200Z 1803/1812 36004KT CAVOK
                      TEMPO 1803/1806 6000 FEW005=
201108172300 TAF AMD LMML 172300Z 1800/1809 VRB03KT CAVOK
                      PROB30 TEMPO 1800/1805 6000 BK005=
201108172000 TAF LMML 172000Z 1721/1806 VRB03KT CAVOK
                      PROB30 TEMPO 1800/1805 8000 SCT005=
201108171700 TAF LMML 171700Z 1718/1803 03005KT CAVOK=
201108171400 TAF LMML 171400Z 1715/1724 VRB05KT CAVOK
                      TEMPO 1715/1718 9999 FEW020=
201108171100 TAF LMML 171100Z 1712/1721 VRB05KT CAVOK
                      TEMPO 1712/1718 9999 FEW020=
201108170800 TAF LMML 170800Z 1709/1718 VRB05KT CAVOK
                      PROB30 TEMPO 1709/1718 9999 FEW015=
201108170500 TAF LMML 170500Z 1706/1715 VRB05KT 9000 NSC
                      BECMG 1706/1709 CAVOK
                      TEMPO 1706/1715 9999 FEW015=
201108170200 TAF LMML 170200Z 1703/1712 VRB05KT CAVOK
                      TEMPO 1703/1712 9999 FEW015
                      TEMPO 1703/1707 9000 NSC=
201108162300 TAF LMML 162300Z 1700/1709 VRB03KT CAVOK
                      TEMPO 1700/1709 9999 FEW012
                      TEMPO 1700/1707 9000 NSC=
201108162000 TAF LMML 162000Z 1621/1706 VRB05KT CAVOK
                      TEMPO 1700/1706 9999 FEW012
                      PROB30 TEMPO 1703/1706 9000=
201108161700 TAF LMML 161700Z 1618/1703 VRB03KT 9999 FEW025
                      PROB30 TEMPO 1618/1703 CAVOK=
201108161400 TAF LMML 161400Z 1615/1624 VRB05KT 9999 FEW025
                      PROB30 TEMPO 1615/1624 CAVOK=
201108161100 TAF LMML 161100Z 1612/1621 VRB05KT 9999 FEW025
                      TEMPO 1612/1621 CAVOK=
201108160800 TAF LMML 160800Z 1609/1618 35005KT 9999 FEW014
                      TEMPO 1612/1618 CAVOK=
201108160500 TAF LMML 160500Z 1606/1615 30005KT 9999 FEW015
                      TEMPO 1606/1615 CAVOK=
201108160200 TAF LMML 160200Z 1603/1612 29005KT CAVOK
                      TEMPO 1603/1612 9999 FEW015
                      PROB30 TEMPO 1603/1606 8000 BKN008=
201108152300 TAF LMML 152300Z 1600/1609 29005KT CAVOK
                      TEMPO 1600/1609 9999 FEW010
                      PROB30 TEMPO 1600/1606 8000 BKN008=
201108152000 TAF LMML 152000Z 1521/1606 26005KT CAVOK
                      TEMPO 1600/1606 9999 FEW010
                      PROB30 TEMPO 1600/1606 8000 BKN008=
201108151700 TAF LMML 151700Z 1518/1603 26006KT CAVOK
                      TEMPO 1518/1603 9999 FEW015
                      PROB30 TEMPO 1600/1603 9000 SCT010=
201108151400 TAF LMML 151400Z 1515/1524 25007KT 9999 FEW025
                      TEMPO 1515/1524 CAVOK=
201108151100 TAF LMML 151100Z 1512/1521 24008KT CAVOK
                      PROB30 TEMPO 1512/1521 9999 FEW020=
201108150800 TAF LMML 150800Z 1509/1518 26007KT CAVOK
                      PROB30 TEMPO 1509/1518 9999 FEW020=
201108150500 TAF LMML 150500Z 1506/1515 25004KT CAVOK=
201108150200 TAF LMML 150200Z 1503/1512 24004KT CAVOK
                      TEMPO 1503/1512 9999 FEW012 BKN100
                      PROB30 TEMPO 1503/1509 9000 TSRA BKN080CB=
201108142300 TAF LMML 142300Z 1500/1509 VRB03KT CAVOK
                      TEMPO 1500/1509 9999 FEW012 BKN120=
201108142000 TAF LMML 142000Z 1421/1506 VRB03KT CAVOK
                      TEMPO 1421/1506 9999 FEW012 BKN120=
201108141700 TAF LMML 141700Z 1418/1503 24006KT 9999 FEW020
                      TEMPO 1418/1503 CAVOK=
201108141400 TAF LMML 141400Z 1415/1424 24008KT CAVOK
                      TEMPO 1415/1418 9999 FEW020=
201108141100 TAF LMML 141100Z 1412/1421 24009KT 9999 FEW020
                      TEMPO 1412/1421 CAVOK=
201108140800 TAF LMML 140800Z 1409/1418 25008KT 9999 FEW025=
201108140500 TAF LMML 140500Z 1406/1415 24006KT CAVOK
                      PROB30 TEMPO 1406/1415 9999 FEW025=
201108140200 TAF LMML 140200Z 1403/1412 28005KT CAVOK
                      PROB40 TEMPO 1403/1412 9999 FEW025=
201108132300 TAF LMML 132300Z 1400/1409 VRB03KT CAVOK
                      PROB40 TEMPO 1400/1409 9999 FEW020=
201108132000 TAF LMML 132000Z 1321/1406 28004KT CAVOK
                      PROB40 TEMPO 1321/1406 9999 FEW020=
201108131700 TAF LMML 131700Z 1318/1403 VRB03KT 9999 FEW020=
201108131400 TAF LMML 131400Z 1315/1324 VRB05KT 9999 FEW020=
201108131100 TAF LMML 131100Z 1312/1321 VRB05KT 9999 FEW025=
201108130800 TAF LMML 130800Z 1309/1318 VRB04KT 9999 FEW025=
201108130500 TAF LMML 130500Z 1306/1315 27008KT 9999 FEW015
                      TEMPO 1306/1315 CAVOK=
201108130200 TAF LMML 130200Z 1303/1312 27008KT 9999 FEW015
                      TEMPO 1303/1312 CAVOK=
201108122300 TAF LMML 122300Z 1300/1309 27005KT CAVOK
                      TEMPO 1300/1309 9999 FEW015=
201108122000 TAF LMML 122000Z 1221/1306 27005KT CAVOK
                      PROB40 TEMPO 1300/1306 9999 FEW015=
201108121700 TAF LMML 121700Z 1218/1303 30006KT CAVOK
                      PROB30 TEMPO 1219/1303 9999 FEW015=
201108121400 TAF LMML 121400Z 1215/1224 30010KT CAVOK
                      PROB30 TEMPO 1215/1224 9999 FEW030=
201108121100 TAF LMML 121100Z 1212/1221 29012KT CAVOK
                      TEMPO 1212/1221 9999 FEW030=
201108120800 TAF LMML 120800Z 1209/1218 29010KT 9999 FEW030
                      PROB30 TEMPO 1209/1218 CAVOK=
201108120500 TAF LMML 120500Z 1206/1215 27008KT 9999 SCT020
                      PROB30 TEMPO 1209/1215 CAVOK=
201108120200 TAF LMML 120200Z 1203/1212 24006KT CAVOK
                      TEMPO 1203/1212 9999 FEW015
                      BECMG 1206/1209 30010KT=
201108112300 TAF LMML 112300Z 1200/1209 25005KT CAVOK
                      PROB30 TEMPO 1200/1209 9999 FEW015
                      BECMG 1206/1209 31010KT=
201108112000 TAF LMML 112000Z 1121/1206 31005KT 9999 FEW020
                      TEMPO 1121/1206 CAVOK
                      BECMG 1121/1124 25010KT=
201108111700 TAF LMML 111700Z 1118/1203 27005KT 9999 FEW015
                      TEMPO 1118/1203 CAVOK=
201108111400 TAF LMML 111400Z 1115/1124 27005KT 9999 FEW020
                      TEMPO 1115/1124 CAVOK=
201108111100 TAF LMML 111100Z 1112/1121 VRB06KT 9999 FEW025
                      PROB30 TEMPO 1115/1121 CAVOK=
201108110800 TAF LMML 110800Z 1109/1118 VRB08KT 9999 FEW020
                      PROB30 TEMPO 1115/1118 CAVOK=
201108110500 TAF LMML 110500Z 1106/1115 04007KT 9999 SCT020=
201108110200 TAF LMML 110200Z 1103/1112 07006KT CAVOK
                      TEMPO 1103/1112 9999 FEW020=
201108102300 TAF LMML 102300Z 1100/1109 05005KT CAVOK
                      PROB30 TEMPO 1100/1109 9999 SCT020=
201108102000 TAF LMML 102000Z 1021/1106 33006KT CAVOK
                      TEMPO 1021/1106 9999 SCT020
                      BECMG 1021/1024 06010KT=
201108101700 TAF LMML 101700Z 1018/1103 33013KT CAVOK
                      TEMPO 1018/1103 9999 FEW020
                      BECMG 1020/1023 05007KT=
201108101400 TAF LMML 101400Z 1015/1024 32013KT 9999 FEW030
                      TEMPO 1015/1024 CAVOK
                      BECMG 1019/1022 04010KT=
201108101100 TAF LMML 101100Z 1012/1021 33013KT CAVOK
                      PROB30 TEMPO 1012/1016 32015G25KT 9999 FEW025=
201108100800 TAF LMML 100800Z 1009/1018 33015KT CAVOK
                      TEMPO 1009/1015 32015G25KT 9999 FEW025=
201108100500 TAF LMML 100500Z 1006/1015 32015G25KT 9999 FEW030
                      TEMPO 1006/1015 CAVOK=
201108100200 TAF LMML 100200Z 1003/1012 30015G25KT CAVOK
                      PROB30 TEMPO 1003/1008 9999 BKN015=
201108092300 TAF LMML 092300Z 1000/1009 30015G25KT CAVOK
                      PROB30 TEMPO 1000/1009 9999 FEW015=
201108092000 TAF LMML 092000Z 0921/1006 30015G25KT 9999 FEW015
                      TEMPO 0921/1002 CAVOK
                      PROB30 TEMPO 1003/1006 BKN015=
201108091700 TAF LMML 091700Z 0918/1003 30016G26KT 9999 SCT015
                      PROB30 TEMPO 0918/1003 8000 BKN012
                      BECMG 0921/0924 30015KT=
201108091400 TAF LMML 091400Z 0915/0924 30016KT 9999 SCT015
                      TEMPO 0915/0921 31016G26KT
                      PROB30 TEMPO 0917/0924 BKN012=
201108091100 TAF LMML 091100Z 0912/0921 31015KT 9999 SCT013
                      PROB30 TEMPO 0915/0921 31015G25KT=
201108090800 TAF LMML 090800Z 0909/0918 31015KT 9999 SCT015=
201108090500 TAF LMML 090500Z 0906/0915 28007KT 9999 SCT015
                      PROB40 TEMPO 0906/0912 BKN011
                      BECMG 0912/0915 30017KT=
201108090200 TAF LMML 090200Z 0903/0912 28010KT 9999 SCT012
                      TEMPO 0903/0908 8000 BKN008
                      PROB40 TEMPO 0903/0906 5000 BR BKN005=
201108082300 TAF LMML 082300Z 0900/0909 VRB03KT 8000 SCT007
                      TEMPO 0900/0907 BKN005
                      PROB40 TEMPO 0900/0906 5000 BR
                      BECMG 0902/0905 28010KT
                      BECMG 0906/0909 9999=
201108082000 TAF LMML 082000Z 0821/0906 VRB05KT CAVOK
                      TEMPO 0821/0906 7000 SCT005
                      PROB30 TEMPO 0900/0906 5000 BR BKN005
                      BECMG 0902/0905 28010KT=
201108081700 TAF LMML 081700Z 0818/0903 16004KT CAVOK
                      PROB30 TEMPO 0821/0903 29005KT 8000 FEW005=
201108081400 TAF LMML 081400Z 0815/0824 16006KT CAVOK
                      PROB30 TEMPO 0815/0824 9999 FEW015=
201108081100 TAF LMML 081100Z 0812/0821 16007KT CAVOK=
201108080800 TAF COR LMML 080800Z 0809/0818 16005KT 9999 FEW014
                      TEMPO 0810/0818 CAVOK=
201108080500 TAF LMML 080500Z 0806/0815 17005KT 9999 SCT012
                      BECMG 0809/0812 CAVOK=
201108080200 TAF LMML 080200Z 0803/0812 17005KT 9999 FEW012
                      PROB30 TEMPO 1803/1806 5000 BR BKN005=
201108072300 TAF LMML 072300Z 0800/0809 16004KT CAVOK
                      TEMPO 0800/0806 8000 SCT007
                      PROB30 TEMPO 0800/0806 5000 BR BKN005=
201108072000 TAF LMML 072000Z 0721/0806 16004KT CAVOK
                      TEMPO 0721/0806 7000 SCT006
                      PROB30 TEMPO 0800/0806 5000 BR BKN005=
201108071700 TAF LMML 071700Z 0718/0803 16005KT CAVOK
                      PROB30 TEMPO 0721/0803 9999 FEW010=
201108071400 TAF LMML 071400Z 0715/0724 18005KT CAVOK
                      PROB30 TEMPO 0721/0724 9999 FEW015=
201108071100 TAF LMML 071100Z 0712/0721 18005KT 9999 FEW017
                      PROB30 TEMPO 0712/0721 CAVOK=
201108070800 TAF LMML 070800Z 0709/0718 16005KT 9999 FEW015
                      PROB30 TEMPO 0709/0718 CAVOK=
201108070500 TAF LMML 070500Z 0706/0715 18005KT 9999 FEW015
                      PROB30 TEMPO 0706/0715 CAVOK=
201108070200 TAF LMML 070200Z 0703/0712 VRB03KT 9999 FEW015
                      PROB40 TEMPO 0703/0707 8000 BKN008=
201108062300 TAF LMML 062300Z 0700/0709 VRB03KT CAVOK
                      TEMPO 0700/0709 9999 FEW012
                      PROB40 TEMPO 0700/0707 8000 BKN005=
201108062000 TAF LMML 062000Z 0621/0706 VRB03KT CAVOK
                      TEMPO 0700/0706 8000 FEW005=
201108061700 TAF LMML 061700Z 0618/0703 VRB03KT CAVOK
                      TEMPO 0621/0703 8000 FEW005=
201108061400 TAF LMML 061400Z 0615/0624 18005KT 9999 FEW015
                      PROB30 TEMPO 0619/0624 8000 BKN010=
201108061100 TAF LMML 061100Z 0612/0621 13005KT 9999 FEW018=
201108060800 TAF LMML 060800Z 0609/0618 VRB05KT CAVOK=
201108060500 TAF LMML 060500Z 0606/0615 VRB05KT CAVOK=
201108060200 TAF LMML NIL=
201108052300 TAF LMML 052300Z 0600/0609 VRB03KT 9999 FEW015
                      TEMPO 0600/0609 CAVOK
                      PROB30 TEMPO 0603/0606 8000 SCT005=
201108052000 TAF LMML 052000Z 0521/0606 VRB03KT 9999 FEW015
                      TEMPO 0521/0606 CAVOK
                      PROB30 TEMPO 0603/0606 8000 FEW005=
201108051700 TAF LMML 051700Z 0518/0603 30005KT 9999 FEW012
                      PROB40 TEMPO 0520/0603 9000 BKN005
                      PROB30 TEMPO 0600/0603 5000 BR BKN003=
201108051400 TAF LMML 051400Z 0515/0524 30005KT 9999 FEW015
                      PROB30 TEMPO 0518/0524 BKN008=
201108051100 TAF LMML 051100Z 0512/0521 30008KT 9999 FEW015
                      PROB30 TEMPO 0514/0521 CAVOK=
201108050800 TAF LMML 050800Z 0509/0521 28010KT 9999 FEW015
                      PROB40 TEMPO 0509/0512 BKN015=
201108050500 TAF LMML 050500Z 0506/0515 28008KT 9999 FEW015
                      PROB30 TEMPO 0506/0508 9999 BKN010=
201108050255 TAF COR LMML 050255Z 0503/0512 28008KT 9999 FEW010
                      TEMPO 0503/0506 9000 BKN008=
201108050200 AMD TAF LMML 050200Z 0503/0512 28008KT 9999 FEW010
                      TEMPO 0503/0506 9000 BKN008=
201108042300 TAF LMML 042300Z 0500/0509 27005KT CAVOK
                      PROB40 TEMPO 0500/0506 9000 FEW010=
201108042000 TAF LMML 042000Z 0421/0506 26005KT CAVOK
                      PROB30 TEMPO 0501/0505 9000 FEW010=
201108041700 TAF LMML 041700Z 0418/0503 28005KT CAVOK=
201108041400 TAF LMML 041400Z 0415/0424 28006KT CAVOK=
201108041100 TAF LMML 041100Z 0412/0421 28008KT CAVOK=
201108040800 TAF LMML 040800Z 0409/0418 26008KT CAVOK=
201108040500 TAF LMML 040500Z 0406/0415 24008KT CAVOK=
201108040200 TAF LMML 040200Z 0403/0412 27006KT CAVOK
                      PROB30 TEMPO 0403/0405 8000 FEW012=
201108032300 TAF LMML 032300Z 0400/0409 30004KT CAVOK
                      PROB30 TEMPO 0400/0405 8000 FEW015=
201108032000 TAF LMML 032000Z 0321/0406 27004KT CAVOK
                      PROB30 TEMPO 0400/0406 8000 FEW012=
201108031700 TAF LMML 031700Z 0318/0403 27004KT CAVOK=
201108031400 TAF LMML 031400Z 0315/0324 VRB05KT CAVOK=
201108031100 TAF LMML 031100Z 0312/0321 VRB05KT CAVOK=
201108030800 TAF LMML 030800Z 0309/0318 34005KT CAVOK=
201108030500 TAF LMML 030500Z 0306/0315 VRB05KT CAVOK=
201108030200 TAF LMML 030200Z 0303/0312 VRB05KT CAVOK
                      PROB30 TEMPO 0303/0306 9999 FEW012=
201108022300 TAF LMML 022300Z 0300/0309 VRB03KT CAVOK
                      PROB30 TEMPO 0300/0306 9999 FEW012=
201108022000 TAF LMML 022000Z 0221/0306 33005KT CAVOK
                      PROB30 TEMPO 0300/0306 9999 FEW012=
201108021700 TAF LMML 021700Z 0218/0303 36005KT CAVOK
                      PROB30 TEMPO 0221/0303 9999 FEW012=
201108021400 TAF LMML 021400Z 0215/0224 34006KT CAVOK=
201108021100 TAF LMML 021100Z 0212/0221 32008KT CAVOK=
201108020800 TAF LMML 020800Z 0209/0218 30008KT CAVOK=
201108020500 TAF LMML 020500Z 0206/0215 30006KT CAVOK
                      PROB30 TEMPO 0206/0208 9999 FEW020=
201108020200 TAF LMML 020200Z 0203/0212 31005KT CAVOK
                      PROB30 TEMPO 0203/0206 9999 FEW015=
201108012300 TAF LMML 012300Z 0200/0209 VRB03KT CAVOK
                      PROB40 TEMPO 0203/0206 9999 FEW012=
201108012000 TAF LMML 012000Z 0121/0206 VRB03KT CAVOK
                      PROB40 TEMPO 0202/0206 9999 FEW010=
201108011700 TAF LMML 011700Z 0118/0203 30005KT CAVOK
                      PROB30 TEMPO 0200/0203 9999 FEW011=
201108011400 TAF LMML 011400Z 0115/0124 30005KT CAVOK
                      PROB40 TEMPO 0115/0124 9999 FEW015=
201108011100 TAF LMML 011100Z 0112/0121 32006KT CAVOK
                      PROB40 TEMPO 0112/0121 9999 FEW020=
201108010800 TAF LMML 010800Z 0109/0118 33008KT CAVOK
                      TEMPO 0109/0118 9999 FEW020=
201108010500 TAF LMML 010500Z 0106/0115 33007KT CAVOK
                      PROB40 TEMPO 0106/0115 9999 FEW015=
201108010200 TAF LMML 010200Z 0103/0112 33005KT CAVOK
                      PROB40 0103/0112 9999 FEW015=

###################################
#  large TAF from LMML
###################################
201108312300 TAF LMML NIL=
201108312000 TAF LMML 312000Z 3118/0106 VRB05KT CAVOK
                      PROB30 TEMPO 0100/0106 9000 FEW008=
201108311700 TAF LMML NIL=
201108311100 TAF LMML NIL=
201108310500 TAF LMML NIL=
201108302300 TAF LMML NIL=
201108301700 TAF LMML NIL=
201108301100 TAF LMML NIL=
201108300500 TAF LMML NIL=
201108292300 TAF LMML NIL=
201108291700 TAF LMML NIL=
201108291100 TAF LMML NIL=
201108290500 TAF LMML NIL=
201108282300 TAF LMML NIL=
201108281700 TAF LMML NIL=
201108281100 TAF LMML NIL=
201108280500 TAF LMML NIL=
201108272300 TAF LMML NIL=
201108271700 TAF LMML NIL=
201108271100 TAF LMML NIL=
201108270500 TAF LMML NIL=
201108262300 TAF LMML NIL=
201108261700 TAF LMML NIL=
201108261100 TAF LMML NIL=
201108260500 TAF LMML NIL=
201108252300 TAF LMML NIL=
201108251700 TAF LMML NIL=
201108251100 TAF LMML NIL=
201108250500 TAF LMML NIL=
201108242300 TAF LMML NIL=
201108241700 TAF LMML NIL=
201108241100 TAF LMML NIL=
201108240500 TAF LMML NIL=
201108232300 TAF LMML NIL=
201108231700 TAF LMML NIL=
201108231100 TAF LMML NIL=
201108230500 TAF LMML NIL=
201108222300 TAF LMML NIL=
201108221700 TAF LMML NIL=
201108221100 TAF LMML NIL=
201108220500 TAF LMML NIL=
201108212300 TAF LMML NIL=
201108211700 TAF LMML NIL=
201108211100 TAF LMML NIL=
201108210500 TAF LMML NIL=
201108202300 TAF LMML NIL=
201108201700 TAF LMML NIL=
201108201100 TAF LMML NIL=
201108200500 TAF LMML NIL=
201108192300 TAF LMML NIL=
201108191700 TAF LMML NIL=
201108191100 TAF LMML NIL=
201108190500 TAF LMML NIL=
201108182300 TAF LMML NIL=
201108181700 TAF LMML NIL=
201108181100 TAF LMML NIL=
201108180500 TAF LMML NIL=
201108172300 TAF LMML NIL=
201108171700 TAF LMML NIL=
201108171100 TAF LMML NIL=
201108170500 TAF LMML NIL=
201108162300 TAF LMML NIL=
201108161700 TAF LMML NIL=
201108161100 TAF LMML NIL=
201108160500 TAF LMML NIL=
201108152300 TAF LMML NIL=
201108151700 TAF LMML NIL=
201108151100 TAF LMML NIL=
201108150500 TAF LMML NIL=
201108142300 TAF LMML NIL=
201108141700 TAF LMML NIL=
201108141100 TAF LMML NIL=
201108140500 TAF LMML NIL=
201108132300 TAF LMML NIL=
201108131700 TAF LMML NIL=
201108131100 TAF LMML NIL=
201108130500 TAF LMML NIL=
201108122300 TAF LMML NIL=
201108121700 TAF LMML NIL=
201108121100 TAF LMML NIL=
201108120500 TAF LMML NIL=
201108112300 TAF LMML NIL=
201108111700 TAF LMML NIL=
201108111100 TAF LMML NIL=
201108110500 TAF LMML NIL=
201108102300 TAF LMML NIL=
201108101700 TAF LMML NIL=
201108101100 TAF LMML NIL=
201108100500 TAF LMML NIL=
201108092300 TAF LMML NIL=
201108091700 TAF LMML NIL=
201108091100 TAF LMML NIL=
201108090500 TAF LMML NIL=
201108082300 TAF LMML NIL=
201108081700 TAF LMML NIL=
201108081100 TAF LMML NIL=
201108080500 TAF LMML NIL=
201108072300 TAF LMML NIL=
201108071700 TAF LMML NIL=
201108071100 TAF LMML NIL=
201108070500 TAF LMML NIL=
201108062300 TAF LMML NIL=
201108061700 TAF LMML NIL=
201108061100 TAF LMML NIL=
201108060500 TAF LMML NIL=
201108052300 TAF LMML NIL=
201108051700 TAF LMML NIL=
201108051100 TAF LMML NIL=
201108050800 TAF LMML 050800Z 0509/0521 28010KT 9999 FEW015
                      PROB40 TEMPO 0509/0512 BKN015=
201108050500 TAF LMML NIL=
201108042300 TAF LMML NIL=
201108041700 TAF LMML NIL=
201108041100 TAF LMML NIL=
201108040500 TAF LMML NIL=
201108032300 TAF LMML NIL=
201108031700 TAF LMML NIL=
201108031100 TAF LMML NIL=
201108030500 TAF LMML NIL=
201108022300 TAF LMML NIL=
201108021700 TAF LMML NIL=
201108021100 TAF LMML NIL=
201108020500 TAF LMML NIL=
201108012300 TAF LMML NIL=
201108011700 TAF LMML NIL=
201108011100 TAF LMML NIL=
201108010500 TAF LMML NIL=
