##########################################################
# Query made at 12/28/2012 16:27:34 UTC
# Time interval: from 08/01/2012 00:00  to 08/31/2012 23:59  UTC
##########################################################

##########################################################
# LMML, Luqa (Malta)
# WMO index: 16597
# Latitude 35-51N. Longitude 014-29E. Altitude 91 m.
##########################################################

###################################
#  METAR/SPECI from LMML
###################################
201208312345 METAR LMML 312345Z 31008KT 9999 FEW017 25/22 Q1014 NOSIG=
201208312330 METAR LMML NIL=
201208312315 METAR LMML 312315Z 28006KT 9999 FEW018 25/22 Q1015 NOSIG=
201208312300 METAR LMML NIL=
201208312245 METAR LMML 312245Z 28006KT 9999 SCT020 26/22 Q1015 NOSIG=
201208312230 METAR LMML NIL=
201208312215 METAR LMML 312215Z 28007KT 250V310 9999 FEW020 26/22 Q1015
                        NOSIG=
201208312200 METAR LMML NIL=
201208312145 METAR LMML 312145Z 28006KT 9999 FEW020 25/22 Q1015 NOSIG=
201208312130 METAR LMML NIL=
201208312115 METAR LMML 312115Z 27005KT 250V310 9999 FEW020 25/21 Q1016
                        NOSIG=
201208312100 METAR LMML NIL=
201208312045 METAR LMML 312045Z 27006KT CAVOK 25/22 Q1015 NOSIG=
201208312030 METAR LMML NIL=
201208312015 METAR LMML 312015Z 27005KT 240V300 CAVOK 26/21 Q1015 NOSIG=
201208312000 METAR LMML NIL=
201208311945 METAR LMML 311945Z 28005KT 240V310 9999 FEW018 26/22 Q1015
                        NOSIG=
201208311930 METAR LMML NIL=
201208311915 METAR LMML 311915Z 27005KT 240V300 9999 FEW020 26/22 Q1015
                        NOSIG=
201208311900 METAR LMML NIL=
201208311845 METAR LMML 311845Z 27005KT 9999 FEW020 26/22 Q1015 NOSIG=
201208311830 METAR LMML NIL=
201208311815 METAR LMML 311815Z 27005KT 250V310 CAVOK 26/21 Q1014 NOSIG=
201208311800 METAR LMML NIL=
201208311745 METAR LMML 311745Z 28006KT 9999 FEW025 26/21 Q1014 NOSIG=
201208311730 METAR LMML NIL=
201208311715 METAR LMML 311715Z 27007KT 250V310 9999 FEW025 27/21 Q1014
                        NOSIG=
201208311700 METAR LMML NIL=
201208311645 METAR LMML 311645Z 26006KT 230V290 9999 FEW025 28/21 Q1014
                        NOSIG=
201208311630 METAR LMML NIL=
201208311615 METAR LMML 311615Z 25006KT 210V300 9999 FEW025 29/22 Q1014
                        NOSIG=
201208311600 METAR LMML NIL=
201208311545 METAR LMML 311545Z 25006KT 210V280 9999 FEW030 30/22 Q1014
                        NOSIG=
201208311530 METAR LMML NIL=
201208311515 METAR LMML 311515Z 24007KT 200V290 9999 FEW030 30/20 Q1014
                        NOSIG=
201208311500 METAR LMML NIL=
201208311445 METAR COR LMML 311445Z 27005KT 230V310 9999 FEW030 31/18
                        Q1014 NOSIG=
201208311430 METAR LMML NIL=
201208311415 METAR LMML 311415Z 25006KT 190V320 9999 FEW030 31/18 Q1014
                        NOSIG=
201208311400 METAR LMML NIL=
201208311345 METAR LMML 311345Z 24005KT 200V300 9999 FEW030 32/16 Q1014
                        NOSIG=
201208311330 METAR LMML NIL=
201208311315 METAR LMML 311315Z 21007KT 150V250 9999 FEW030 32/17 Q1015
                        NOSIG=
201208311300 METAR LMML NIL=
201208311245 METAR LMML 311245Z 21008KT 160V270 CAVOK 32/19 Q1015 NOSIG=
201208311230 METAR LMML NIL=
201208311215 METAR LMML 311215Z 25003KT 9999 FEW035 32/19 Q1015 NOSIG=
201208311200 METAR LMML NIL=
201208311145 METAR LMML 311145Z 28006KT 200V350 9999 FEW035 31/18 Q1015
                        NOSIG=
201208311130 METAR LMML NIL=
201208311115 METAR LMML 311115Z 28007KT 220V340 9999 FEW036 31/19 Q1016
                        NOSIG=
201208311100 METAR LMML NIL=
201208311045 METAR LMML 311045Z 28008KT 240V340 9999 FEW030 31/19 Q1016
                        NOSIG=
201208311030 METAR LMML NIL=
201208311015 METAR LMML 311015Z 30006KT 260V350 9999 FEW030 30/19 Q1016
                        NOSIG=
201208311000 METAR LMML NIL=
201208310945 METAR LMML 310945Z 29007KT 250V340 9999 FEW030 30/20 Q1016
                        NOSIG=
201208310930 METAR LMML NIL=
201208310915 METAR LMML 310915Z 28006KT 230V340 9999 FEW027 29/20 Q1016
                        NOSIG=
201208310900 METAR LMML NIL=
201208310845 METAR LMML 310845Z 30009KT 260V350 9999 FEW025 29/20 Q1016
                        NOSIG=
201208310830 METAR LMML NIL=
201208310815 METAR LMML 310815Z AUTO 32008KT 280V350 9999NDV FEW025///
                        29/21 Q1016=
201208310800 METAR LMML NIL=
201208310745 METAR LMML 310745Z AUTO 31008KT 280V350 CAVOK 29/21 Q1016=
201208310730 METAR LMML NIL=
201208310715 METAR LMML 310715Z 28006KT 250V320 9999 FEW020 28/20 Q1016
                        NOSIG=
201208310700 METAR LMML NIL=
201208310645 METAR LMML 310645Z 28006KT 240V300 CAVOK 27/21 Q1016 NOSIG=
201208310630 METAR LMML NIL=
201208310615 METAR LMML 310615Z 28004KT 240V300 CAVOK 25/21 Q1016 NOSIG=
201208310600 METAR LMML NIL=
201208310545 METAR LMML 310545Z VRB02KT CAVOK 24/21 Q1016 NOSIG=
201208310530 METAR LMML NIL=
201208310515 METAR LMML 310515Z VRB02KT CAVOK 22/21 Q1016 NOSIG=
201208310500 METAR LMML NIL=
201208310445 METAR LMML 310445Z VRB02KT CAVOK 22/21 Q1016 NOSIG=
201208310430 METAR LMML NIL=
201208310415 METAR LMML 310415Z VRB02KT CAVOK 22/21 Q1015 NOSIG=
201208310400 METAR LMML NIL=
201208310345 METAR LMML 310345Z VRB02KT CAVOK 22/21 Q1015 NOSIG=
201208310330 METAR LMML NIL=
201208310315 METAR LMML 310315Z VRB02KT CAVOK 22/21 Q1015 NOSIG=
201208310300 METAR LMML NIL=
201208310245 METAR LMML 310245Z 28003KT CAVOK 22/21 Q1015 NOSIG=
201208310230 METAR LMML NIL=
201208310215 METAR LMML 310215Z 26003KT CAVOK 22/21 Q1015 NOSIG=
201208310145 METAR LMML 310145Z VRB02KT CAVOK 23/21 Q1015 NOSIG=
201208310115 METAR LMML 310115Z 22003KT CAVOK 22/20 Q1016 NOSIG=
201208310100 METAR LMML NIL=
201208310045 METAR LMML 310045Z 23003KT CAVOK 22/20 Q1016 NOSIG=
201208310030 METAR LMML NIL=
201208310015 METAR LMML 310015Z VRB02KT CAVOK 23/21 Q1016 NOSIG=
201208310000 METAR LMML NIL=
201208302345 METAR LMML 302345Z 23003KT CAVOK 23/20 Q1016 NOSIG=
201208302330 METAR LMML NIL=
201208302315 METAR LMML 302315Z VRB01KT CAVOK 23/20 Q1016 NOSIG=
201208302300 METAR LMML NIL=
201208302245 METAR LMML 302245Z VRB01KT CAVOK 23/20 Q1017 NOSIG=
201208302215 METAR LMML 302215Z VRB02KT CAVOK 23/20 Q1017 NOSIG=
201208302145 METAR LMML 302145Z VRB01KT CAVOK 23/20 Q1017 NOSIG=
201208302130 METAR LMML NIL=
201208302115 METAR LMML 302115Z VRB01KT CAVOK 24/20 Q1017 NOSIG=
201208302100 METAR LMML NIL=
201208302045 METAR LMML 302045Z VRB01KT CAVOK 24/20 Q1017 NOSIG=
201208302015 METAR LMML 302015Z VRB02KT CAVOK 24/20 Q1017 NOSIG=
201208302000 METAR LMML NIL=
201208301945 METAR LMML 301945Z VRB02KT CAVOK 25/20 Q1017 NOSIG=
201208301930 METAR LMML NIL=
201208301915 METAR LMML 301915Z 30003KT CAVOK 25/20 Q1017 NOSIG=
201208301900 METAR LMML NIL=
201208301845 METAR LMML 301845Z 28003KT CAVOK 26/19 Q1017 NOSIG=
201208301830 METAR LMML NIL=
201208301815 METAR LMML 301815Z 00000KT CAVOK 26/20 Q1017 NOSIG=
201208301800 METAR LMML NIL=
201208301745 METAR LMML 301745Z VRB01KT 9999 FEW030 27/19 Q1016 NOSIG=
201208301730 METAR LMML NIL=
201208301715 METAR LMML 301715Z VRB02KT 9999 FEW030 28/18 Q1016 NOSIG=
201208301700 METAR LMML NIL=
201208301645 METAR LMML 301645Z VRB01KT 9999 FEW030 30/21 Q1016 NOSIG=
201208301630 METAR LMML NIL=
201208301615 METAR LMML 301615Z 22003KT 9999 FEW031 30/19 Q1017 NOSIG=
201208301600 METAR LMML NIL=
201208301545 METAR LMML 301545Z 13004KT 040V250 9999 FEW026 30/19 Q1017
                        NOSIG=
201208301530 METAR LMML NIL=
201208301515 METAR LMML 301515Z 04003KT CAVOK 30/22 Q1017 NOSIG=
201208301500 METAR LMML NIL=
201208301445 METAR LMML 301445Z 04006KT 360V110 9999 FEW026 30/21 Q1017
                        NOSIG=
201208301430 METAR LMML NIL=
201208301415 METAR LMML 301415Z 03006KT 360V060 9999 SCT026 31/22 Q1017
                        NOSIG=
201208301400 METAR LMML NIL=
201208301345 METAR LMML 301345Z 03006KT 350V070 9999 SCT027 31/22 Q1017
                        NOSIG=
201208301330 METAR LMML NIL=
201208301315 METAR LMML 301315Z 03006KT 350V090 9999 SCT027 31/22 Q1017
                        NOSIG=
201208301300 METAR LMML NIL=
201208301245 METAR LMML 301245Z 02006KT 340V080 9999 SCT027 31/22 Q1017
                        NOSIG=
201208301230 METAR LMML NIL=
201208301215 METAR LMML 301215Z 02005KT 320V070 9999 SCT029 30/20 Q1017
                        NOSIG=
201208301200 METAR LMML NIL=
201208301145 METAR LMML 301145Z 01005KT 340V070 9999 SCT030 29/21 Q1017
                        NOSIG=
201208301130 METAR LMML NIL=
201208301115 METAR LMML 301115Z 05004KT 360V110 9999 BKN030 31/21 Q1018
                        NOSIG=
201208301100 METAR LMML NIL=
201208301045 METAR LMML 301045Z 03005KT 340V120 9999 BKN027 29/21 Q1018
                        NOSIG=
201208301030 METAR LMML NIL=
201208301015 METAR LMML 301015Z 02006KT 340V070 9999 SCT029 29/21 Q1018
                        NOSIG=
201208301000 METAR LMML NIL=
201208300945 METAR LMML 300945Z 06005KT 330V130 9999 SCT025 31/21 Q1018
                        NOSIG=
201208300930 METAR LMML NIL=
201208300915 METAR LMML 300915Z 36004KT 310V050 9999 FEW025 30/21 Q1018
                        NOSIG=
201208300900 METAR LMML NIL=
201208300845 METAR LMML 300845Z VRB02KT 9999 FEW020 30/18 Q1018 NOSIG=
201208300830 METAR LMML NIL=
201208300815 METAR LMML 300815Z 20003KT 9999 FEW020 29/19 Q1018 NOSIG=
201208300800 METAR LMML NIL=
201208300745 METAR LMML 300745Z 34003KT 9999 FEW020 28/19 Q1018 NOSIG=
201208300730 METAR LMML NIL=
201208300715 METAR LMML 300715Z 33004KT 280V010 9999 FEW015 28/20 Q1018
                        NOSIG=
201208300700 METAR LMML NIL=
201208300645 METAR LMML 300645Z 30004KT 260V330 9999 FEW015 27/21 Q1017
                        NOSIG=
201208300630 METAR LMML NIL=
201208300615 METAR LMML 300615Z VRB02KT 9999 FEW015 25/22 Q1017 NOSIG=
201208300600 METAR LMML NIL=
201208300545 METAR LMML 300545Z 30003KT 9999 FEW015 24/22 Q1018 NOSIG=
201208300530 METAR LMML NIL=
201208300515 METAR LMML 300515Z VRB02KT 9999 FEW015 23/21 Q1018 NOSIG=
201208300500 METAR LMML NIL=
201208300445 METAR LMML 300445Z VRB02KT 9999 FEW015 22/21 Q1017 NOSIG=
201208300430 METAR LMML NIL=
201208300415 METAR LMML 300415Z VRB02KT CAVOK 22/20 Q1017 NOSIG=
201208300400 METAR LMML NIL=
201208300345 METAR LMML 300345Z 28003KT CAVOK 23/21 Q1017 NOSIG=
201208300330 METAR LMML NIL=
201208300315 METAR LMML 300315Z 26003KT CAVOK 23/20 Q1017 NOSIG=
201208300300 METAR LMML NIL=
201208300245 METAR LMML 300245Z 27003KT CAVOK 23/20 Q1017 NOSIG=
201208300230 METAR LMML NIL=
201208300215 METAR LMML 300215Z 27003KT CAVOK 23/20 Q1017 NOSIG=
201208300200 METAR LMML NIL=
201208300145 METAR LMML 300145Z VRB02KT CAVOK 23/20 Q1018 NOSIG=
201208300130 METAR LMML NIL=
201208300115 METAR LMML 300115Z 27003KT CAVOK 23/21 Q1018 NOSIG=
201208300100 METAR LMML NIL=
201208300045 METAR LMML 300045Z VRB02KT CAVOK 23/21 Q1018 NOSIG=
201208300030 METAR LMML NIL=
201208300015 METAR LMML 300015Z 26003KT CAVOK 23/20 Q1018 NOSIG=
201208300000 METAR LMML NIL=
201208292345 METAR LMML 292345Z 24003KT CAVOK 23/20 Q1018 NOSIG=
201208292330 METAR LMML NIL=
201208292315 METAR LMML 292315Z VRB02KT CAVOK 23/20 Q1018 NOSIG=
201208292300 METAR LMML NIL=
201208292245 METAR LMML 292245Z VRB02KT CAVOK 23/20 Q1018 NOSIG=
201208292230 METAR LMML NIL=
201208292215 METAR LMML 292215Z VRB02KT CAVOK 23/21 Q1019 NOSIG=
201208292200 METAR LMML NIL=
201208292145 METAR LMML 292145Z VRB02KT CAVOK 24/21 Q1019 NOSIG=
201208292130 METAR LMML NIL=
201208292115 METAR LMML 292115Z VRB02KT CAVOK 24/21 Q1019 NOSIG=
201208292100 METAR LMML NIL=
201208292045 METAR LMML 292045Z 28003KT CAVOK 24/21 Q1019 NOSIG=
201208292030 METAR LMML NIL=
201208292015 METAR LMML 292015Z VRB01KT CAVOK 24/21 Q1019 NOSIG=
201208292000 METAR LMML NIL=
201208291945 METAR LMML 291945Z VRB02KT 9999 FEW020 25/21 Q1019 TEMPO
                        CAVOK=
201208291930 METAR LMML NIL=
201208291915 METAR LMML 291915Z VRB01KT 9999 FEW020 25/21 Q1018 TEMPO
                        CAVOK=
201208291900 METAR LMML NIL=
201208291845 METAR LMML 291845Z 27003KT 9999 FEW020 26/21 Q1018 NOSIG=
201208291830 METAR LMML NIL=
201208291815 METAR LMML 291815Z 26003KT 9999 FEW023 26/21 Q1018 NOSIG=
201208291800 METAR LMML NIL=
201208291745 METAR LMML 291745Z 25003KT 9999 FEW023 27/22 Q1018 NOSIG=
201208291730 METAR LMML NIL=
201208291715 METAR LMML 291715Z 13004KT 100V180 9999 FEW032 28/22 Q1018
                        NOSIG=
201208291700 METAR LMML NIL=
201208291645 METAR LMML 291645Z 29005KT 260V320 9999 SCT032 29/21 Q1018
                        NOSIG=
201208291630 METAR LMML NIL=
201208291615 METAR LMML 291615Z 03005KT 360V080 9999 SCT029 30/23 Q1018
                        NOSIG=
201208291600 METAR LMML NIL=
201208291545 METAR LMML 291545Z 02005KT 340V060 9999 SCT029 28/22 Q1018
                        NOSIG=
201208291530 METAR LMML NIL=
201208291515 METAR LMML 291515Z 04005KT 360V070 9999 SCT031 28/22 Q1018
                        NOSIG=
201208291500 METAR LMML NIL=
201208291445 METAR LMML 291445Z 04005KT 350V090 9999 SCT023 28/22 Q1018
                        NOSIG=
201208291430 METAR LMML NIL=
201208291415 METAR LMML 291415Z 03004KT 300V080 9999 BKN024 FEW031 28/22
                        Q1018 NOSIG=
201208291400 METAR LMML NIL=
201208291345 METAR LMML 291345Z 02004KT 340V080 9999 BKN024 28/22 Q1019
                        NOSIG=
201208291330 METAR LMML NIL=
201208291315 METAR LMML 291315Z 02004KT 330V100 9999 BKN024 28/22 Q1019
                        NOSIG=
201208291245 METAR LMML 291245Z 23009KT 180V270 9999 BKN025 28/22 Q1019
                        NOSIG=
201208291230 METAR LMML NIL=
201208291215 METAR LMML 291215Z 31005KT 240V030 9999 BKN027 28/21 Q1019
                        NOSIG=
201208291200 METAR LMML NIL=
201208291145 METAR LMML 291145Z 28007KT 220V330 9999 BKN027 28/21 Q1019
                        NOSIG=
201208291130 METAR LMML NIL=
201208291115 METAR LMML 291115Z 23009KT 150V260 9999 BKN028 29/21 Q1019
                        NOSIG=
201208291100 METAR LMML NIL=
201208291045 METAR LMML 291045Z 16008KT 130V200 9999 SCT033 29/21 Q1019
                        NOSIG=
201208291030 METAR LMML NIL=
201208291015 METAR LMML 291015Z 35004KT 9999 SCT035 29/19 Q1020 NOSIG=
201208291000 METAR LMML NIL=
201208290945 METAR LMML 290945Z 26005KT 170V330 9999 SCT028 28/22 Q1020
                        NOSIG=
201208290930 METAR LMML NIL=
201208290915 METAR LMML 290915Z 24006KT 200V280 9999 SCT025 28/22 Q1020
                        NOSIG=
201208290900 METAR LMML NIL=
201208290845 METAR LMML 290845Z 25005KT 220V300 9999 SCT026 28/21 Q1020
                        NOSIG=
201208290830 METAR LMML NIL=
201208290815 METAR LMML 290815Z 24004KT 200V290 9999 SCT026 28/21 Q1020
                        NOSIG=
201208290800 METAR LMML NIL=
201208290745 METAR LMML 290745Z 25003KT 9999 SCT027 29/21 Q1019 NOSIG=
201208290715 METAR LMML 290715Z 27003KT 9999 SCT023 28/21 Q1019 NOSIG=
201208290700 METAR LMML NIL=
201208290645 METAR LMML 290645Z 28004KT 240V310 9999 SCT024 27/21 Q1019
                        NOSIG=
201208290630 METAR LMML NIL=
201208290615 METAR LMML 290615Z 28003KT 9999 SCT025 26/21 Q1019 NOSIG=
201208290600 METAR LMML NIL=
201208290545 METAR LMML 290545Z 27003KT 9999 SCT022 25/22 Q1019 NOSIG=
201208290530 METAR LMML NIL=
201208290515 METAR LMML 290515Z VRB02KT 9999 FEW018 24/21 Q1019 NOSIG=
201208290500 METAR LMML NIL=
201208290445 METAR LMML 290445Z VRB02KT 9999 FEW017 23/21 Q1018 NOSIG=
201208290430 METAR LMML NIL=
201208290415 METAR LMML 290415Z VRB02KT 9999 FEW017 23/21 Q1018 NOSIG=
201208290400 METAR LMML NIL=
201208290345 METAR LMML 290345Z VRB02KT CAVOK 23/21 Q1018 NOSIG=
201208290330 METAR LMML NIL=
201208290315 METAR LMML 290315Z VRB02KT CAVOK 23/21 Q1018 NOSIG=
201208290300 METAR LMML NIL=
201208290245 METAR LMML 290245Z 28003KT CAVOK 24/21 Q1018 NOSIG=
201208290230 METAR LMML NIL=
201208290215 METAR LMML 290215Z 27003KT CAVOK 24/21 Q1018 NOSIG=
201208290200 METAR LMML NIL=
201208290145 METAR LMML 290145Z VRB02KT CAVOK 24/21 Q1018 NOSIG=
201208290130 METAR LMML NIL=
201208290115 METAR LMML 290115Z VRB02KT CAVOK 24/21 Q1018 NOSIG=
201208290100 METAR LMML NIL=
201208290045 METAR LMML 290045Z VRB02KT 9999 FEW020 24/21 Q1018 NOSIG=
201208290030 METAR LMML NIL=
201208290015 METAR LMML 290015Z VRB02KT 9999 FEW020 24/21 Q1018 NOSIG=
201208290000 METAR LMML NIL=
201208282345 METAR LMML 282345Z VRB02KT 9999 FEW025 24/21 Q1018 NOSIG=
201208282330 METAR LMML NIL=
201208282315 METAR LMML 282315Z VRB02KT 9999 FEW025 24/20 Q1019 NOSIG=
201208282300 METAR LMML NIL=
201208282245 METAR LMML 282245Z VRB02KT 9999 FEW025 25/20 Q1019 NOSIG=
201208282230 METAR LMML NIL=
201208282215 METAR LMML 282215Z VRB01KT 9999 FEW025 25/20 Q1019 NOSIG=
201208282200 METAR LMML NIL=
201208282145 METAR LMML 282145Z VRB02KT 9999 FEW025 25/20 Q1019 NOSIG=
201208282130 METAR LMML NIL=
201208282115 METAR LMML 282115Z VRB01KT 9999 FEW025 25/20 Q1019 NOSIG=
201208282100 METAR LMML NIL=
201208282045 METAR LMML 282045Z VRB01KT 9999 FEW025 26/20 Q1019 NOSIG=
201208282030 METAR LMML NIL=
201208282015 METAR LMML 282015Z VRB02KT 9999 FEW025 26/20 Q1019 NOSIG=
201208282000 METAR LMML NIL=
201208281945 METAR LMML 281945Z 00000KT 9999 FEW025 26/20 Q1019 NOSIG=
201208281930 METAR LMML NIL=
201208281915 METAR LMML 281915Z VRB01KT 9999 FEW025 26/20 Q1019 NOSIG=
201208281900 METAR LMML NIL=
201208281845 METAR LMML 281845Z VRB02KT 9999 FEW025 26/20 Q1018 NOSIG=
201208281830 METAR LMML NIL=
201208281815 METAR LMML 281815Z VRB02KT 9999 FEW025 27/20 Q1018 NOSIG=
201208281800 METAR LMML NIL=
201208281745 METAR LMML 281745Z VRB02KT 9999 FEW030 27/20 Q1018 NOSIG=
201208281730 METAR LMML NIL=
201208281715 METAR LMML 281715Z 18004KT 140V220 9999 FEW035 27/20 Q1018
                        NOSIG=
201208281700 METAR LMML NIL=
201208281645 METAR LMML 281645Z 18003KT 9999 FEW040 28/20 Q1018 NOSIG=
201208281630 METAR LMML NIL=
201208281615 METAR LMML 281615Z 16005KT 110V230 9999 SCT039 29/20 Q1018
                        NOSIG=
201208281600 METAR LMML NIL=
201208281545 METAR LMML 281545Z 18005KT 140V230 9999 SCT036 28/20 Q1018
                        NOSIG=
201208281530 METAR LMML NIL=
201208281515 METAR LMML 281515Z 14006KT 080V190 9999 SCT032 30/21 Q1018
                        NOSIG=
201208281500 METAR LMML NIL=
201208281445 METAR LMML 281445Z 15005KT 090V230 9999 SCT033 30/21 Q1018
                        NOSIG=
201208281430 METAR LMML NIL=
201208281415 METAR LMML 281415Z 13006KT 100V210 9999 SCT034 29/21 Q1018
                        NOSIG=
201208281400 METAR LMML NIL=
201208281345 METAR LMML 281345Z 14005KT 110V210 9999 SCT032 30/20 Q1018
                        NOSIG=
201208281330 METAR LMML NIL=
201208281315 METAR LMML 281315Z 12006KT 070V170 9999 BKN031 BKN053 29/21
                        Q1018=
201208281300 METAR LMML NIL=
201208281245 METAR LMML 281245Z 12007KT 080V160 9999 SCT029 31/21 Q1018
                        NOSIG=
201208281230 METAR LMML NIL=
201208281215 METAR LMML 281215Z 11007KT 060V160 9999 SCT028 29/21 Q1018
                        NOSIG=
201208281200 METAR LMML NIL=
201208281145 METAR LMML 281145Z 10007KT 9999 SCT027 30/20 Q1018 NOSIG=
201208281130 METAR LMML NIL=
201208281115 METAR LMML 281115Z 12008KT 090V160 9999 SCT038 30/20 Q1019
                        NOSIG=
201208281100 METAR LMML NIL=
201208281045 METAR LMML 281045Z 09006KT 050V150 9999 SCT038 29/19 Q1019
                        NOSIG=
201208281030 METAR LMML NIL=
201208281015 METAR LMML 281015Z 09007KT 020V130 9999 SCT038 29/18 Q1018
                        NOSIG=
201208281000 METAR LMML NIL=
201208280945 METAR LMML 280945Z 10006KT 030V140 9999 SCT033 30/19 Q1019
                        NOSIG=
201208280930 METAR LMML NIL=
201208280915 METAR LMML 280915Z 08006KT 030V140 9999 SCT037 31/19 Q1018
                        NOSIG=
201208280900 METAR LMML NIL=
201208280845 METAR LMML 280845Z 09007KT 060V120 9999 SCT034 30/20 Q1018
                        NOSIG=
201208280830 METAR LMML NIL=
201208280815 METAR LMML 280815Z 10006KT 050V140 9999 SCT031 31/20 Q1018
                        NOSIG=
201208280800 METAR LMML NIL=
201208280745 METAR LMML 280745Z 09006KT 070V140 9999 SCT028 28/19 Q1018
                        NOSIG=
201208280730 METAR LMML NIL=
201208280715 METAR LMML 280715Z 10005KT 070V130 9999 SCT027 29/21 Q1018
                        NOSIG=
201208280700 METAR LMML NIL=
201208280645 METAR LMML 280645Z 08008KT 050V130 9999 FEW024 28/21 Q1017
                        NOSIG=
201208280630 METAR LMML NIL=
201208280615 METAR LMML 280615Z 10006KT 9999 FEW021 28/21 Q1017 NOSIG=
201208280600 METAR LMML NIL=
201208280545 METAR LMML 280545Z 10005KT 070V140 9999 FEW020 27/22 Q1017
                        NOSIG=
201208280530 METAR LMML NIL=
201208280515 METAR LMML 280515Z 10005KT 9999 SCT020 26/22 Q1017 NOSIG=
201208280500 METAR LMML NIL=
201208280445 METAR LMML 280445Z 10004KT 9999 SCT022 25/22 Q1017 NOSIG=
201208280430 METAR LMML NIL=
201208280415 METAR LMML 280415Z 10004KT 9999 FEW019 25/22 Q1016 NOSIG=
201208280400 METAR LMML NIL=
201208280345 METAR LMML 280345Z 11004KT 9999 FEW019 25/22 Q1016 NOSIG=
201208280330 METAR LMML NIL=
201208280315 METAR LMML 280315Z 10003KT 9999 FEW019 25/22 Q1016 NOSIG=
201208280300 METAR LMML NIL=
201208280245 METAR LMML 280245Z 10003KT 9999 FEW019 25/22 Q1016 NOSIG=
201208280230 METAR LMML NIL=
201208280215 METAR LMML 280215Z 10003KT 9999 FEW018 25/22 Q1016 NOSIG=
201208280200 METAR LMML NIL=
201208280145 METAR LMML 280145Z 08003KT 9999 FEW018 25/22 Q1016 NOSIG=
201208280130 METAR LMML NIL=
201208280115 METAR LMML 280115Z VRB02KT CAVOK 25/22 Q1016 NOSIG=
201208280100 METAR LMML NIL=
201208280045 METAR LMML 280045Z VRB01KT CAVOK 24/21 Q1016 NOSIG=
201208280030 METAR LMML NIL=
201208280015 METAR LMML 280015Z 13003KT CAVOK 25/21 Q1016 NOSIG=
201208280000 METAR LMML NIL=
201208272345 METAR LMML 272345Z VRB02KT CAVOK 25/21 Q1016 NOSIG=
201208272315 METAR LMML 272315Z VRB02KT CAVOK 25/21 Q1016 NOSIG=
201208272300 METAR LMML NIL=
201208272245 METAR LMML 272245Z VRB01KT CAVOK 25/21 Q1016 NOSIG=
201208272230 METAR LMML NIL=
201208272215 METAR LMML 272215Z 00000KT CAVOK 25/21 Q1016 NOSIG=
201208272200 METAR LMML NIL=
201208272145 METAR LMML 272145Z VRB01KT CAVOK 25/21 Q1016 NOSIG=
201208272130 METAR LMML NIL=
201208272115 METAR LMML 272115Z 31003KT CAVOK 26/21 Q1016 NOSIG=
201208272045 METAR LMML 272045Z 31004KT CAVOK 26/21 Q1016 NOSIG=
201208272030 METAR LMML NIL=
201208272015 METAR LMML 272015Z 30004KT CAVOK 26/21 Q1016 NOSIG=
201208272000 METAR LMML NIL=
201208271945 METAR LMML 271945Z 30004KT CAVOK 27/21 Q1016 NOSIG=
201208271930 METAR LMML NIL=
201208271915 METAR LMML 271915Z 32003KT CAVOK 27/21 Q1016 NOSIG=
201208271900 METAR LMML NIL=
201208271845 METAR LMML 271845Z 34004KT 300V040 9999 FEW020 27/20 Q1016
                        NOSIG=
201208271830 METAR LMML NIL=
201208271815 METAR LMML 271815Z 33004KT 9999 FEW020 27/21 Q1015 NOSIG=
201208271745 METAR LMML 271745Z 33005KT 290V020 9999 FEW020 27/22 Q1015
                        NOSIG=
201208271730 METAR LMML NIL=
201208271715 METAR LMML 271715Z 33005KT 300V010 9999 FEW029 28/21 Q1015
                        NOSIG=
201208271700 METAR LMML NIL=
201208271645 METAR LMML 271645Z 35006KT 290V030 9999 FEW029 29/22 Q1015
                        NOSIG=
201208271630 METAR LMML NIL=
201208271615 METAR LMML 271615Z 35006KT 320V060 9999 FEW029 29/21 Q1015
                        NOSIG=
201208271600 METAR LMML NIL=
201208271545 METAR LMML 271545Z 36005KT 330V060 9999 FEW036 30/21 Q1015
                        NOSIG=
201208271530 METAR LMML NIL=
201208271515 METAR LMML 271515Z 36005KT 280V090 9999 FEW034 32/20 Q1015
                        NOSIG=
201208271500 METAR LMML NIL=
201208271445 METAR LMML 271445Z 04004KT 320V080 9999 FEW034 32/20 Q1015
                        NOSIG=
201208271430 METAR LMML NIL=
201208271415 METAR LMML 271415Z 15005KT 9999 FEW034 32/20 Q1015 NOSIG=
201208271400 METAR LMML NIL=
201208271345 METAR LMML 271345Z 03007KT 350V060 9999 FEW034 32/20 Q1014
                        NOSIG=
201208271330 METAR LMML NIL=
201208271315 METAR LMML 271315Z 35009KT 280V030 9999 FEW034 32/20 Q1015
                        NOSIG=
201208271300 METAR LMML NIL=
201208271245 METAR LMML 271245Z 35008KT 310V030 9999 FEW033 31/21 Q1015
                        NOSIG=
201208271230 METAR LMML NIL=
201208271215 METAR LMML 271215Z 33008KT 300V020 9999 FEW029 31/21 Q1015
                        NOSIG=
201208271200 METAR LMML NIL=
201208271145 METAR LMML 271145Z 34009KT 310V020 9999 FEW028 31/20 Q1015
                        NOSIG=
201208271130 METAR LMML NIL=
201208271115 METAR LMML 271115Z 34011KT 310V010 9999 FEW029 31/22 Q1015
                        NOSIG=
201208271100 METAR LMML NIL=
201208271045 METAR LMML 271045Z 34009KT 290V010 9999 FEW029 31/20 Q1015
                        NOSIG=
201208271015 METAR LMML 271015Z 34012KT 310V010 9999 FEW030 31/19 Q1015
                        NOSIG=
201208271000 METAR LMML NIL=
201208270945 METAR LMML 270945Z 34012KT 300V010 9999 FEW030 31/19 Q1015
                        NOSIG=
201208270930 METAR LMML NIL=
201208270915 METAR LMML 270915Z 33012KT 310V010 9999 FEW030 31/21 Q1015
                        NOSIG=
201208270900 METAR LMML NIL=
201208270845 METAR LMML 270845Z 33011KT 300V360 9999 FEW030 30/19 Q1015
                        NOSIG=
201208270830 METAR LMML NIL=
201208270815 METAR LMML 270815Z 33011KT 9999 FEW030 31/22 Q1015 NOSIG=
201208270800 METAR LMML NIL=
201208270745 METAR LMML 270745Z 34012KT 9999 FEW030 29/21 Q1015 NOSIG=
201208270730 METAR LMML NIL=
201208270715 METAR LMML 270715Z 33013KT CAVOK 29/21 Q1015 NOSIG=
201208270700 METAR LMML NIL=
201208270645 METAR LMML 270645Z 33014KT CAVOK 28/22 Q1014 NOSIG=
201208270630 METAR LMML NIL=
201208270615 METAR LMML 270615Z 33011KT CAVOK 28/22 Q1014 NOSIG=
201208270600 METAR LMML NIL=
201208270545 METAR LMML 270545Z 32009KT 290V350 CAVOK 27/22 Q1014 NOSIG=
201208270530 METAR LMML NIL=
201208270515 METAR LMML 270515Z 30006KT 270V340 CAVOK 26/22 Q1014 NOSIG=
201208270500 METAR LMML NIL=
201208270445 METAR LMML 270445Z 32007KT CAVOK 25/22 Q1013 NOSIG=
201208270430 METAR LMML NIL=
201208270415 METAR LMML 270415Z 32008KT CAVOK 25/22 Q1013 NOSIG=
201208270400 METAR LMML NIL=
201208270345 METAR LMML 270345Z 31008KT CAVOK 25/23 Q1013 NOSIG=
201208270330 METAR LMML NIL=
201208270315 METAR LMML 270315Z 31008KT CAVOK 25/23 Q1013 NOSIG=
201208270300 METAR LMML NIL=
201208270245 METAR LMML 270245Z 30007KT CAVOK 26/23 Q1013 NOSIG=
201208270230 METAR LMML NIL=
201208270215 METAR LMML 270215Z 31006KT 280V340 CAVOK 26/23 Q1013 NOSIG=
201208270200 METAR LMML NIL=
201208270145 METAR LMML 270145Z 31007KT CAVOK 26/23 Q1013 NOSIG=
201208270130 METAR LMML NIL=
201208270115 METAR LMML 270115Z 31010KT CAVOK 26/23 Q1013 NOSIG=
201208270100 METAR LMML NIL=
201208270045 METAR LMML 270045Z 32011KT 9999 FEW015 26/23 Q1013 NOSIG=
201208270030 METAR LMML NIL=
201208270015 METAR LMML 270015Z 31011KT 9999 FEW015 26/23 Q1013 NOSIG=
201208270000 METAR LMML NIL=
201208262345 METAR LMML 262345Z 31011KT 9999 FEW015 26/23 Q1013 NOSIG=
201208262330 METAR LMML NIL=
201208262315 METAR LMML 262315Z 32011KT 9999 FEW015 26/23 Q1013 NOSIG=
201208262300 METAR LMML NIL=
201208262245 METAR LMML 262245Z 31012KT 9999 FEW015 26/24 Q1013 NOSIG=
201208262215 METAR LMML 262215Z 30014KT 270V330 9999 FEW015 26/24 Q1013
                        NOSIG=
201208262200 METAR LMML NIL=
201208262145 METAR LMML 262145Z 30014KT 270V330 9999 FEW015 26/24 Q1013
                        NOSIG=
201208262130 METAR LMML NIL=
201208262115 METAR LMML 262115Z 29016KT 9999 FEW015 26/23 Q1013 NOSIG=
201208262100 METAR LMML NIL=
201208262045 METAR LMML 262045Z 29015KT 9999 FEW015 26/23 Q1013 NOSIG=
201208262030 METAR LMML NIL=
201208262015 METAR LMML 262015Z 29014KT 9999 FEW015 26/23 Q1013 NOSIG=
201208261945 METAR LMML 261945Z 29013KT 9999 FEW015 26/23 Q1013 NOSIG=
201208261915 METAR LMML 261915Z 29013KT 270V330 9999 FEW015 27/23 Q1013
                        NOSIG=
201208261845 METAR LMML 261845Z 29012KT 9999 FEW015 27/23 Q1013 NOSIG=
201208261830 METAR LMML NIL=
201208261815 METAR LMML 261815Z 30012KT 9999 FEW015 27/23 Q1013 NOSIG=
201208261800 METAR LMML NIL=
201208261745 METAR LMML 261745Z 30012KT 270V330 9999 FEW015 27/23 Q1012
                        NOSIG=
201208261730 METAR LMML NIL=
201208261715 METAR LMML 261715Z 30014KT 9999 FEW015 28/24 Q1013 NOSIG=
201208261700 METAR LMML NIL=
201208261645 METAR LMML 261645Z 30011KT 9999 FEW018 29/23 Q1012 NOSIG=
201208261630 METAR LMML NIL=
201208261615 METAR LMML 261615Z 30013KT 9999 FEW020 29/22 Q1012 NOSIG=
201208261600 METAR LMML NIL=
201208261545 METAR LMML 261545Z 29012KT 260V320 9999 FEW020 31/23 Q1012
                        NOSIG=
201208261530 METAR LMML NIL=
201208261515 METAR LMML 261515Z 29012KT 250V320 9999 FEW020 32/22 Q1012
                        NOSIG=
201208261500 METAR LMML NIL=
201208261445 METAR LMML 261445Z 30011KT 270V330 9999 FEW020 32/22 Q1012
                        NOSIG=
201208261430 METAR LMML NIL=
201208261415 METAR LMML 261415Z 30012KT 260V330 9999 FEW020 33/21 Q1012
                        NOSIG=
201208261400 METAR LMML NIL=
201208261345 METAR LMML 261345Z 30010KT 270V330 CAVOK 34/18 Q1013 NOSIG=
201208261330 METAR LMML NIL=
201208261315 METAR LMML 261315Z 30010KT 260V340 CAVOK 34/19 Q1013 NOSIG=
201208261300 METAR LMML NIL=
201208261245 METAR LMML 261245Z 30010KT CAVOK 35/15 Q1013 NOSIG=
201208261230 METAR LMML NIL=
201208261215 METAR LMML 261215Z 31010KT 280V340 CAVOK 35/13 Q1013 NOSIG=
201208261200 METAR LMML NIL=
201208261145 METAR LMML 261145Z 30010KT 260V330 CAVOK 35/12 Q1013 NOSIG=
201208261130 METAR LMML NIL=
201208261115 METAR LMML 261115Z 29011KT 250V320 CAVOK 34/13 Q1014 NOSIG=
201208261100 METAR LMML NIL=
201208261045 METAR LMML 261045Z 29009KT 240V340 CAVOK 35/13 Q1014 NOSIG=
201208261030 METAR LMML NIL=
201208261015 METAR LMML 261015Z 28009KT 250V320 CAVOK 34/13 Q1014 NOSIG=
201208261000 METAR LMML NIL=
201208260945 METAR LMML 260945Z 29008KT 250V340 9999 FEW015 33/19 Q1014
                        NOSIG=
201208260930 METAR LMML NIL=
201208260915 METAR LMML 260915Z 29009KT 240V330 9999 FEW015 33/21 Q1014
                        NOSIG=
201208260900 METAR LMML NIL=
201208260845 METAR LMML 260845Z 28008KT 250V330 9999 FEW015 32/19 Q1014
                        NOSIG=
201208260830 METAR LMML NIL=
201208260815 METAR LMML 260815Z 26008KT 220V300 9999 FEW015 29/22 Q1014
                        NOSIG=
201208260800 METAR LMML NIL=
201208260745 METAR LMML 260745Z 26007KT 210V290 9999 FEW015 30/23 Q1014
                        NOSIG=
201208260730 METAR LMML NIL=
201208260715 METAR LMML 260715Z 24006KT 210V300 CAVOK 30/23 Q1014 NOSIG=
201208260700 METAR LMML NIL=
201208260645 METAR LMML 260645Z 24005KT 200V290 CAVOK 28/23 Q1013 NOSIG=
201208260630 METAR LMML NIL=
201208260615 METAR LMML 260615Z 24005KT 190V270 9999 FEW012 28/24 Q1013
                        NOSIG=
201208260600 METAR LMML NIL=
201208260545 METAR LMML 260545Z 24004KT 200V270 CAVOK 26/24 Q1013 NOSIG=
201208260530 METAR LMML NIL=
201208260515 METAR LMML 260515Z 23003KT CAVOK 25/24 Q1013 NOSIG=
201208260500 METAR LMML NIL=
201208260445 METAR LMML 260445Z VRB02KT CAVOK 24/23 Q1013 NOSIG=
201208260430 METAR LMML NIL=
201208260415 METAR LMML 260415Z VRB02KT CAVOK 24/23 Q1013 NOSIG=
201208260400 METAR LMML NIL=
201208260345 METAR LMML 260345Z 20003KT CAVOK 24/23 Q1013 NOSIG=
201208260330 METAR LMML NIL=
201208260315 METAR LMML 260315Z 27003KT CAVOK 24/22 Q1013 NOSIG=
201208260300 METAR LMML NIL=
201208260245 METAR LMML 260245Z 28003KT CAVOK 24/23 Q1013 NOSIG=
201208260230 METAR LMML NIL=
201208260215 METAR LMML 260215Z VRB01KT CAVOK 25/22 Q1013 NOSIG=
201208260200 METAR LMML NIL=
201208260145 METAR LMML 260145Z VRB02KT CAVOK 25/23 Q1013 NOSIG=
201208260130 METAR LMML NIL=
201208260115 METAR LMML 260115Z VRB02KT CAVOK 25/23 Q1013 NOSIG=
201208260100 METAR LMML NIL=
201208260045 METAR LMML 260045Z VRB01KT CAVOK 26/23 Q1013 NOSIG=
201208260030 METAR LMML NIL=
201208260015 METAR LMML 260015Z 25003KT CAVOK 25/23 Q1014 NOSIG=
201208260000 METAR LMML NIL=
201208252345 METAR LMML 252345Z 24003KT CAVOK 26/23 Q1014 NOSIG=
201208252330 METAR LMML NIL=
201208252315 METAR LMML 252315Z 22003KT CAVOK 26/23 Q1014 NOSIG=
201208252300 METAR LMML NIL=
201208252245 METAR LMML 252245Z 21003KT CAVOK 26/22 Q1014 NOSIG=
201208252230 METAR LMML NIL=
201208252215 METAR LMML 252215Z VRB02KT CAVOK 26/22 Q1014 NOSIG=
201208252200 METAR LMML NIL=
201208252145 METAR LMML 252145Z VRB02KT CAVOK 26/22 Q1014 NOSIG=
201208252130 METAR LMML NIL=
201208252115 METAR LMML 252115Z 21004KT 170V240 CAVOK 27/22 Q1014 NOSIG=
201208252100 METAR LMML NIL=
201208252045 METAR LMML 252045Z VRB02KT CAVOK 27/22 Q1014 NOSIG=
201208252030 METAR LMML NIL=
201208252015 METAR LMML 252015Z VRB02KT CAVOK 27/22 Q1014 NOSIG=
201208252000 METAR LMML NIL=
201208251945 METAR LMML 251945Z VRB02KT CAVOK 27/22 Q1014 NOSIG=
201208251930 METAR LMML NIL=
201208251915 METAR LMML 251915Z 23006KT 200V260 CAVOK 27/22 Q1014 NOSIG=
201208251900 METAR LMML NIL=
201208251845 METAR LMML 251845Z 22004KT 150V280 CAVOK 27/22 Q1014 NOSIG=
201208251830 METAR LMML NIL=
201208251815 METAR LMML 251815Z 21004KT 160V250 CAVOK 27/22 Q1014 NOSIG=
201208251800 METAR LMML NIL=
201208251745 METAR LMML 251745Z 21005KT 160V250 CAVOK 28/22 Q1014 NOSIG=
201208251730 METAR LMML NIL=
201208251715 METAR LMML 251715Z 22005KT 160V260 CAVOK 29/22 Q1014 NOSIG=
201208251700 METAR LMML NIL=
201208251645 METAR LMML 251645Z 20005KT 160V250 CAVOK 30/21 Q1014 NOSIG=
201208251630 METAR LMML NIL=
201208251615 METAR LMML 251615Z 23005KT 200V260 CAVOK 30/18 Q1014 NOSIG=
201208251600 METAR LMML NIL=
201208251545 METAR LMML 251545Z 23005KT 160V270 CAVOK 31/18 Q1014 NOSIG=
201208251530 METAR LMML NIL=
201208251515 METAR LMML 251515Z 23006KT 200V260 CAVOK 31/18 Q1014 NOSIG=
201208251445 METAR LMML 251445Z 24006KT 210V280 CAVOK 31/19 Q1014 NOSIG=
201208251430 METAR LMML NIL=
201208251415 METAR LMML 251415Z 22007KT 160V280 CAVOK 32/18 Q1014 NOSIG=
201208251400 METAR LMML NIL=
201208251345 METAR LMML 251345Z 21008KT 170V260 CAVOK 32/13 Q1014 NOSIG=
201208251330 METAR LMML NIL=
201208251315 METAR LMML 251315Z 22008KT 160V280 CAVOK 32/17 Q1015 NOSIG=
201208251300 METAR LMML NIL=
201208251245 METAR LMML 251245Z 24008KT 200V280 CAVOK 32/14 Q1015 NOSIG=
201208251215 METAR LMML 251215Z 22008KT 170V260 CAVOK 32/17 Q1015 NOSIG=
201208251200 METAR LMML NIL=
201208251145 METAR LMML 251145Z 22009KT 170V260 CAVOK 32/19 Q1015 NOSIG=
201208251130 METAR LMML NIL=
201208251115 METAR LMML 251115Z 23006KT 150V290 CAVOK 31/19 Q1015 NOSIG=
201208251100 METAR LMML NIL=
201208251045 METAR LMML 251045Z 22007KT 160V280 CAVOK 31/20 Q1016 NOSIG=
201208251030 METAR LMML NIL=
201208251015 METAR LMML 251015Z 21008KT 160V270 CAVOK 30/19 Q1016 NOSIG=
201208251000 METAR LMML NIL=
201208250945 METAR LMML 250945Z 19006KT 150V240 CAVOK 31/21 Q1016 NOSIG=
201208250930 METAR LMML NIL=
201208250915 METAR LMML 250915Z 18006KT 140V240 CAVOK 31/19 Q1016 NOSIG=
201208250845 METAR LMML 250845Z 20006KT 150V250 CAVOK 29/19 Q1016 NOSIG=
201208250830 METAR LMML NIL=
201208250815 METAR LMML 250815Z 18004KT 130V240 CAVOK 30/21 Q1016 NOSIG=
201208250800 METAR LMML NIL=
201208250745 METAR LMML 250745Z 21004KT 170V250 CAVOK 29/22 Q1016 NOSIG=
201208250730 METAR LMML NIL=
201208250715 METAR LMML 250715Z 19004KT 120V230 CAVOK 28/23 Q1016 NOSIG=
201208250700 METAR LMML NIL=
201208250645 METAR LMML 250645Z 19003KT CAVOK 27/22 Q1016 NOSIG=
201208250630 METAR LMML NIL=
201208250615 METAR LMML 250615Z VRB01KT CAVOK 27/22 Q1015 NOSIG=
201208250545 METAR LMML 250545Z 09003KT CAVOK 25/21 Q1015 NOSIG=
201208250530 METAR LMML NIL=
201208250515 METAR LMML 250515Z VRB01KT CAVOK 23/20 Q1015 NOSIG=
201208250500 METAR LMML NIL=
201208250445 METAR LMML 250445Z VRB01KT CAVOK 22/20 Q1015 NOSIG=
201208250430 METAR LMML NIL=
201208250415 METAR LMML 250415Z 27003KT CAVOK 22/20 Q1015 NOSIG=
201208250400 METAR LMML NIL=
201208250345 METAR LMML 250345Z VRB01KT CAVOK 23/20 Q1015 NOSIG=
201208250330 METAR LMML NIL=
201208250315 METAR LMML 250315Z VRB02KT CAVOK 22/20 Q1015 NOSIG=
201208250300 METAR LMML NIL=
201208250245 METAR LMML 250245Z VRB01KT CAVOK 22/20 Q1014 NOSIG=
201208250230 METAR LMML NIL=
201208250215 METAR LMML 250215Z 00000KT CAVOK 23/19 Q1015 NOSIG=
201208250200 METAR LMML NIL=
201208250145 METAR LMML 250145Z VRB01KT CAVOK 23/19 Q1015 NOSIG=
201208250130 METAR LMML NIL=
201208250115 METAR LMML 250115Z VRB02KT CAVOK 23/18 Q1015 NOSIG=
201208250100 METAR LMML NIL=
201208250045 METAR LMML 250045Z VRB01KT CAVOK 24/18 Q1015 NOSIG=
201208250030 METAR LMML NIL=
201208250015 METAR LMML 250015Z VRB01KT CAVOK 24/17 Q1015 NOSIG=
201208250000 METAR LMML NIL=
201208242345 METAR LMML 242345Z VRB02KT CAVOK 24/17 Q1015 NOSIG=
201208242330 METAR LMML NIL=
201208242315 METAR LMML 242315Z VRB01KT CAVOK 24/19 Q1015 NOSIG=
201208242300 METAR LMML NIL=
201208242245 METAR LMML 242245Z 00000KT CAVOK 24/19 Q1015 NOSIG=
201208242230 METAR LMML NIL=
201208242215 METAR LMML 242215Z VRB02KT CAVOK 24/19 Q1015 NOSIG=
201208242200 METAR LMML NIL=
201208242145 METAR LMML 242145Z VRB02KT CAVOK 25/20 Q1015 NOSIG=
201208242130 METAR LMML NIL=
201208242115 METAR LMML 242115Z VRB01KT CAVOK 25/20 Q1015 NOSIG=
201208242100 METAR LMML NIL=
201208242045 METAR LMML 242045Z VRB01KT CAVOK 26/20 Q1015 NOSIG=
201208242030 METAR LMML NIL=
201208242015 METAR LMML 242015Z VRB01KT CAVOK 26/20 Q1015 NOSIG=
201208242000 METAR LMML NIL=
201208241945 METAR LMML 241945Z 00000KT CAVOK 26/20 Q1015 NOSIG=
201208241930 METAR LMML NIL=
201208241915 METAR LMML 241915Z VRB02KT CAVOK 27/20 Q1015 NOSIG=
201208241900 METAR LMML NIL=
201208241845 METAR LMML 241845Z VRB02KT CAVOK 27/20 Q1015 NOSIG=
201208241830 METAR LMML NIL=
201208241815 METAR LMML 241815Z VRB02KT CAVOK 28/20 Q1014 NOSIG=
201208241745 METAR LMML 241745Z 23003KT CAVOK 28/19 Q1014 NOSIG=
201208241730 METAR LMML NIL=
201208241715 METAR LMML 241715Z 23003KT CAVOK 29/19 Q1014 NOSIG=
201208241700 METAR LMML NIL=
201208241645 METAR LMML 241645Z 23004KT 190V260 CAVOK 31/20 Q1014 NOSIG=
201208241630 METAR LMML NIL=
201208241615 METAR LMML 241615Z 21004KT 140V250 CAVOK 31/19 Q1015 NOSIG=
201208241600 METAR LMML NIL=
201208241545 METAR LMML 241545Z 23004KT 160V280 9999 FEW035 31/19 Q1015
                        NOSIG=
201208241530 METAR LMML NIL=
201208241515 METAR LMML 241515Z 23006KT 180V280 9999 FEW035 31/20 Q1015
                        NOSIG=
201208241500 METAR LMML NIL=
201208241445 METAR LMML 241445Z 23007KT 150V270 9999 FEW035 31/20 Q1015
                        NOSIG=
201208241430 METAR LMML NIL=
201208241415 METAR LMML 241415Z 22006KT 150V270 9999 FEW035 31/20 Q1015
                        NOSIG=
201208241400 METAR LMML NIL=
201208241345 METAR LMML 241345Z 21007KT 160V250 9999 FEW035 31/20 Q1015
                        NOSIG=
201208241330 METAR LMML NIL=
201208241315 METAR LMML 241315Z 22006KT 150V270 9999 FEW035 32/20 Q1015
                        NOSIG=
201208241300 METAR LMML NIL=
201208241245 METAR LMML 241245Z 18006KT 140V260 9999 FEW035 31/19 Q1015
                        NOSIG=
201208241230 METAR LMML NIL=
201208241215 METAR LMML 241215Z 19006KT 140V250 9999 FEW035 32/20 Q1016
                        NOSIG=
201208241200 METAR LMML NIL=
201208241145 METAR LMML 241145Z 20005KT 120V280 9999 FEW034 32/21 Q1016
                        NOSIG=
201208241130 METAR LMML NIL=
201208241115 METAR LMML 241115Z 10003KT 9999 FEW025 32/21 Q1016 NOSIG=
201208241100 METAR LMML NIL=
201208241045 METAR LMML 241045Z 21005KT 120V270 CAVOK 32/21 Q1016 NOSIG=
201208241030 METAR LMML NIL=
201208241015 METAR LMML 241015Z 18004KT 110V270 CAVOK 32/21 Q1016 NOSIG=
201208241000 METAR LMML NIL=
201208240945 METAR LMML 240945Z 17004KT 120V220 CAVOK 31/21 Q1016 NOSIG=
201208240930 METAR LMML NIL=
201208240915 METAR LMML 240915Z 14004KT CAVOK 32/20 Q1016 NOSIG=
201208240900 METAR LMML NIL=
201208240845 METAR LMML 240845Z 08003KT CAVOK 32/16 Q1016 NOSIG=
201208240830 METAR LMML NIL=
201208240815 METAR LMML 240815Z 01003KT CAVOK 32/17 Q1016 NOSIG=
201208240800 METAR LMML NIL=
201208240745 METAR LMML 240745Z VRB02KT CAVOK 31/17 Q1015 NOSIG=
201208240730 METAR LMML NIL=
201208240715 METAR LMML 240715Z 36003KT CAVOK 29/18 Q1015 NOSIG=
201208240700 METAR LMML NIL=
201208240645 METAR LMML 240645Z 33003KT CAVOK 28/20 Q1015 NOSIG=
201208240630 METAR LMML NIL=
201208240615 METAR LMML 240615Z 24003KT CAVOK 27/22 Q1015 NOSIG=
201208240600 METAR LMML NIL=
201208240545 METAR LMML 240545Z 23003KT CAVOK 25/23 Q1015 NOSIG=
201208240530 METAR LMML NIL=
201208240515 METAR LMML 240515Z 24003KT 9000 NSC 24/24 Q1015 NOSIG=
201208240500 METAR LMML NIL=
201208240445 METAR LMML 240445Z 23003KT 9000 NSC 24/24 Q1015 BECMG 9999=
201208240430 METAR LMML NIL=
201208240415 METAR LMML 240415Z 23004KT 7000 NSC 24/24 Q1014 BECMG 9999=
201208240400 METAR LMML NIL=
201208240345 METAR LMML 240345Z 23004KT 7000 NSC 23/23 Q1014 NOSIG=
201208240330 METAR LMML NIL=
201208240315 METAR LMML 240315Z 24004KT 7000 NSC 23/23 Q1014 NOSIG=
201208240300 METAR LMML NIL=
201208240245 METAR LMML 240245Z 24004KT 9000 NSC 23/22 Q1014 NOSIG=
201208240230 METAR LMML NIL=
201208240215 METAR LMML 240215Z 24003KT 9000 NSC 23/22 Q1014 NOSIG=
201208240200 METAR LMML NIL=
201208240145 METAR LMML 240145Z VRB02KT 9000 NSC 24/22 Q1014 NOSIG=
201208240130 METAR LMML NIL=
201208240115 METAR LMML 240115Z 24003KT 9000 NSC 23/22 Q1014 NOSIG=
201208240100 METAR LMML NIL=
201208240045 METAR LMML 240045Z VRB02KT 9000 NSC 23/22 Q1015 NOSIG=
201208240030 METAR LMML NIL=
201208240015 METAR LMML 240015Z VRB01KT 9000 NSC 23/22 Q1015 NOSIG=
201208240000 METAR LMML NIL=
201208232345 METAR LMML 232345Z 00000KT 9000 NSC 24/22 Q1015 NOSIG=
201208232330 METAR LMML NIL=
201208232315 METAR LMML 232315Z 00000KT CAVOK 24/22 Q1015 NOSIG=
201208232300 METAR LMML NIL=
201208232245 METAR LMML 232245Z VRB01KT CAVOK 24/22 Q1015 NOSIG=
201208232230 METAR LMML NIL=
201208232215 METAR LMML 232215Z VRB01KT CAVOK 25/22 Q1016 NOSIG=
201208232200 METAR LMML NIL=
201208232145 METAR LMML 232145Z VRB02KT CAVOK 25/22 Q1016 NOSIG=
201208232130 METAR LMML NIL=
201208232115 METAR LMML 232115Z 13003KT CAVOK 26/22 Q1016 NOSIG=
201208232100 METAR LMML NIL=
201208232045 METAR LMML 232045Z VRB01KT CAVOK 26/22 Q1016 NOSIG=
201208232030 METAR LMML NIL=
201208232015 METAR LMML 232015Z VRB01KT CAVOK 26/23 Q1016 NOSIG=
201208232000 METAR LMML NIL=
201208231945 METAR LMML 231945Z VRB02KT CAVOK 27/23 Q1016 NOSIG=
201208231930 METAR LMML NIL=
201208231915 METAR LMML 231915Z VRB01KT CAVOK 27/23 Q1016 NOSIG=
201208231900 METAR LMML NIL=
201208231845 METAR LMML 231845Z VRB01KT CAVOK 27/23 Q1015 NOSIG=
201208231830 METAR LMML NIL=
201208231815 METAR LMML 231815Z 11003KT CAVOK 27/23 Q1015 NOSIG=
201208231800 METAR LMML NIL=
201208231745 METAR LMML 231745Z 12003KT CAVOK 28/23 Q1015 NOSIG=
201208231730 METAR LMML NIL=
201208231715 METAR LMML 231715Z 05003KT CAVOK 29/23 Q1015 NOSIG=
201208231700 METAR LMML NIL=
201208231645 METAR LMML 231645Z 05004KT 020V080 CAVOK 31/24 Q1015 NOSIG=
201208231630 METAR LMML NIL=
201208231615 METAR LMML 231615Z 05004KT 360V080 9999 FEW025 31/23 Q1015
                        TEMPO CAVOK=
201208231600 METAR LMML NIL=
201208231545 METAR LMML 231545Z 05004KT 010V100 9999 FEW023 31/23 Q1015
                        NOSIG=
201208231530 METAR LMML NIL=
201208231515 METAR LMML 231515Z 04005KT 350V080 9999 FEW023 31/23 Q1015
                        NOSIG=
201208231500 METAR LMML NIL=
201208231445 METAR LMML 231445Z 01005KT 9999 FEW023 31/23 Q1015 NOSIG=
201208231430 METAR LMML NIL=
201208231415 METAR LMML 231415Z 07007KT 360V160 CAVOK 31/23 Q1016=
201208231400 METAR LMML NIL=
201208231345 METAR LMML 231345Z 07006KT 010V120 9999 FEW025 31/24 Q1016
                        NOSIG=
201208231330 METAR LMML NIL=
201208231315 METAR LMML 231315Z 04007KT 360V100 9999 FEW025 32/24 Q1016
                        NOSIG=
201208231300 METAR LMML NIL=
201208231245 METAR LMML 231245Z 02007KT 350V050 9999 FEW025 32/23 Q1016
                        NOSIG=
201208231230 METAR LMML NIL=
201208231215 METAR LMML 231215Z 05005KT 010V110 9999 FEW023 31/24 Q1016
                        NOSIG=
201208231200 METAR LMML NIL=
201208231145 METAR LMML 231145Z 03006KT 360V080 9999 FEW023 32/24 Q1016
                        NOSIG=
201208231130 METAR LMML NIL=
201208231115 METAR LMML 231115Z 04005KT 330V100 9999 FEW023 32/23 Q1016
                        NOSIG=
201208231100 METAR LMML NIL=
201208231045 METAR LMML 231045Z 03006KT 360V070 9999 FEW023 32/23 Q1017
                        NOSIG=
201208231030 METAR LMML NIL=
201208231015 METAR LMML 231015Z 04004KT 350V110 9999 SCT024 31/23 Q1017
                        NOSIG=
201208231000 METAR LMML NIL=
201208230945 METAR LMML 230945Z 09004KT 030V160 9999 SCT025 31/24 Q1017
                        NOSIG=
201208230930 METAR LMML NIL=
201208230915 METAR LMML 230915Z 16005KT 130V230 9999 SCT022 30/22 Q1017
                        NOSIG=
201208230900 METAR LMML NIL=
201208230845 METAR LMML 230845Z 15005KT 070V230 9999 SCT020 29/22 Q1017
                        NOSIG=
201208230830 METAR LMML NIL=
201208230815 METAR LMML 230815Z VRB02KT 9999 FEW015 31/22 Q1017 NOSIG=
201208230800 METAR LMML NIL=
201208230745 METAR LMML 230745Z 34003KT 9999 FEW015 29/22 Q1017 NOSIG=
201208230730 METAR LMML NIL=
201208230715 METAR LMML 230715Z VRB02KT 9000 FEW015 28/22 Q1016 BECMG
                        9999=
201208230700 METAR LMML NIL=
201208230645 METAR LMML 230645Z VRB02KT 9000 FEW012 27/23 Q1016 BECMG
                        9999=
201208230630 METAR LMML NIL=
201208230615 METAR LMML 230615Z VRB02KT 7000 FEW012 26/24 Q1016 BECMG
                        9999 RMK MIST=
201208230600 METAR LMML NIL=
201208230545 METAR LMML 230545Z VRB01KT 7000 FEW012 25/24 Q1016 BECMG
                        9999 RMK MIST=
201208230530 METAR LMML NIL=
201208230515 METAR LMML 230515Z VRB02KT 7000 FEW012 24/23 Q1016 BECMG
                        9999 RMK MIST=
201208230500 METAR LMML NIL=
201208230445 METAR LMML 230445Z VRB02KT 7000 FEW012 23/22 Q1016 BECMG
                        9999=
201208230430 METAR LMML NIL=
201208230415 METAR LMML 230415Z VRB02KT 7000 FEW012 23/22 Q1016 BECMG
                        9999=
201208230400 METAR LMML NIL=
201208230345 METAR LMML 230345Z VRB02KT 9999 FEW012 23/22 Q1016 NOSIG=
201208230330 METAR LMML NIL=
201208230315 METAR LMML 230315Z VRB02KT 9999 FEW012 24/22 Q1016 NOSIG=
201208230300 METAR LMML NIL=
201208230245 METAR LMML 230245Z VRB01KT CAVOK 23/22 Q1016 NOSIG=
201208230230 METAR LMML NIL=
201208230215 METAR LMML 230215Z VRB01KT CAVOK 24/22 Q1016 NOSIG=
201208230200 METAR LMML NIL=
201208230145 METAR LMML 230145Z VRB01KT CAVOK 24/22 Q1016 NOSIG=
201208230130 METAR LMML NIL=
201208230115 METAR LMML 230115Z VRB01KT CAVOK 24/21 Q1016 NOSIG=
201208230045 METAR LMML 230045Z VRB01KT CAVOK 24/21 Q1016 NOSIG=
201208230030 METAR LMML NIL=
201208230015 METAR LMML 230015Z 25003KT CAVOK 25/22 Q1016 NOSIG=
201208230000 METAR LMML NIL=
201208222345 METAR LMML 222345Z VRB02KT CAVOK 25/22 Q1016 NOSIG=
201208222330 METAR LMML NIL=
201208222315 METAR LMML 222315Z 25003KT CAVOK 25/22 Q1017 NOSIG=
201208222300 METAR LMML NIL=
201208222245 METAR LMML 222245Z 22003KT CAVOK 25/22 Q1017 NOSIG=
201208222230 METAR LMML NIL=
201208222215 METAR LMML 222215Z VRB02KT CAVOK 25/22 Q1017 NOSIG=
201208222145 METAR LMML 222145Z VRB02KT CAVOK 25/22 Q1017 NOSIG=
201208222130 METAR LMML NIL=
201208222115 METAR LMML 222115Z VRB02KT CAVOK 26/22 Q1017 NOSIG=
201208222100 METAR LMML NIL=
201208222045 METAR LMML 222045Z VRB01KT CAVOK 26/22 Q1017 NOSIG=
201208222030 METAR LMML NIL=
201208222015 METAR LMML 222015Z 31003KT CAVOK 26/22 Q1017 NOSIG=
201208222000 METAR LMML NIL=
201208221945 METAR LMML 221945Z VRB02KT CAVOK 26/23 Q1017 NOSIG=
201208221930 METAR LMML NIL=
201208221915 METAR LMML 221915Z 30003KT CAVOK 27/22 Q1017 NOSIG=
201208221900 METAR LMML NIL=
201208221845 METAR LMML 221845Z 27003KT CAVOK 27/22 Q1017 NOSIG=
201208221830 METAR LMML NIL=
201208221815 METAR LMML 221815Z 28004KT CAVOK 27/22 Q1017 NOSIG=
201208221800 METAR LMML NIL=
201208221745 METAR LMML 221745Z VRB02KT CAVOK 28/22 Q1016 NOSIG=
201208221730 METAR LMML NIL=
201208221715 METAR LMML 221715Z VRB01KT CAVOK 30/22 Q1016 NOSIG=
201208221700 METAR LMML NIL=
201208221645 METAR LMML 221645Z 27003KT CAVOK 30/21 Q1016 NOSIG=
201208221630 METAR LMML NIL=
201208221615 METAR LMML 221615Z 29005KT 240V330 CAVOK 31/20 Q1016 NOSIG=
201208221600 METAR LMML NIL=
201208221545 METAR LMML 221545Z 28006KT 240V320 CAVOK 31/19 Q1016 NOSIG=
201208221530 METAR LMML NIL=
201208221515 METAR LMML 221515Z 28006KT 230V320 9999 FEW036 32/19 Q1016
                        NOSIG=
201208221500 METAR LMML NIL=
201208221445 METAR LMML 221445Z 12005KT 9999 FEW036 32/23 Q1016 NOSIG=
201208221430 METAR LMML NIL=
201208221415 METAR LMML 221415Z 06005KT 350V140 9999 SCT033 33/23 Q1017
                        NOSIG=
201208221400 METAR LMML NIL=
201208221345 METAR LMML 221345Z 10006KT 050V140 9999 SCT030 31/23 Q1017
                        NOSIG=
201208221330 METAR LMML NIL=
201208221315 METAR LMML 221315Z 09005KT 040V140 9999 SCT036 31/23 Q1017
                        NOSIG=
201208221300 METAR LMML NIL=
201208221245 METAR LMML 221245Z 11005KT 070V180 9999 SCT033 31/23 Q1017
                        NOSIG=
201208221230 METAR LMML NIL=
201208221215 METAR LMML 221215Z 11006KT 070V160 9999 SCT033 31/24 Q1017
                        NOSIG=
201208221200 METAR LMML NIL=
201208221145 METAR LMML 221145Z 07006KT 030V110 9999 SCT027 31/24 Q1017
                        NOSIG=
201208221130 METAR LMML NIL=
201208221115 METAR LMML 221115Z 08008KT 050V130 9999 SCT031 32/23 Q1017
                        NOSIG=
201208221100 METAR LMML NIL=
201208221045 METAR LMML 221045Z 10006KT 060V160 9999 FEW035 31/22 Q1017
                        NOSIG=
201208221030 METAR LMML NIL=
201208221015 METAR LMML 221015Z 31004KT 210V040 9999 FEW034 31/22 Q1017
                        NOSIG=
201208221000 METAR LMML NIL=
201208220945 METAR LMML 220945Z 35006KT 300V030 9999 FEW035 33/21 Q1017
                        NOSIG=
201208220930 METAR LMML NIL=
201208220915 METAR LMML 220915Z 33005KT 270V010 9999 FEW036 33/18 Q1018
                        NOSIG=
201208220900 METAR LMML NIL=
201208220845 METAR LMML 220845Z 35003KT CAVOK 32/19 Q1017 NOSIG=
201208220830 METAR LMML NIL=
201208220815 METAR LMML 220815Z 32004KT 260V040 CAVOK 30/20 Q1017 NOSIG=
201208220800 METAR LMML NIL=
201208220745 METAR LMML 220745Z 34005KT 290V020 CAVOK 30/22 Q1017 NOSIG=
201208220730 METAR LMML NIL=
201208220715 METAR LMML 220715Z 32005KT 280V350 CAVOK 29/21 Q1017 NOSIG=
201208220700 METAR LMML NIL=
201208220645 METAR LMML 220645Z 30004KT 260V340 CAVOK 28/22 Q1017 NOSIG=
201208220630 METAR LMML NIL=
201208220615 METAR LMML 220615Z VRB02KT CAVOK 27/23 Q1017 NOSIG=
201208220600 METAR LMML NIL=
201208220545 METAR LMML 220545Z 29003KT CAVOK 26/23 Q1017 NOSIG=
201208220530 METAR LMML NIL=
201208220515 METAR LMML 220515Z 28004KT CAVOK 25/23 Q1017 NOSIG=
201208220500 METAR LMML NIL=
201208220445 METAR LMML 220445Z 27003KT CAVOK 24/23 Q1016 NOSIG=
201208220430 METAR LMML NIL=
201208220415 METAR LMML 220415Z 27003KT CAVOK 24/22 Q1016 NOSIG=
201208220400 METAR LMML NIL=
201208220345 METAR LMML 220345Z 27003KT CAVOK 24/22 Q1016 NOSIG=
201208220330 METAR LMML NIL=
201208220315 METAR LMML 220315Z 27003KT CAVOK 24/23 Q1016 NOSIG=
201208220245 METAR LMML 220245Z VRB02KT CAVOK 24/22 Q1016 NOSIG=
201208220230 METAR LMML NIL=
201208220215 METAR LMML 220215Z VRB02KT CAVOK 24/22 Q1016 NOSIG=
201208220200 METAR LMML NIL=
201208220145 METAR LMML 220145Z 28003KT CAVOK 25/22 Q1016 NOSIG=
201208220130 METAR LMML NIL=
201208220115 METAR LMML 220115Z 28003KT CAVOK 25/22 Q1017 NOSIG=
201208220100 METAR LMML NIL=
201208220045 METAR LMML 220045Z 27003KT CAVOK 25/22 Q1016 NOSIG=
201208220030 METAR LMML NIL=
201208220015 METAR LMML 220015Z 29004KT CAVOK 25/22 Q1017 NOSIG=
201208220000 METAR LMML NIL=
201208212345 METAR LMML 212345Z 27003KT CAVOK 25/22 Q1017 NOSIG=
201208212330 METAR LMML NIL=
201208212315 METAR LMML 212315Z 25003KT CAVOK 25/21 Q1017 NOSIG=
201208212300 METAR LMML NIL=
201208212245 METAR LMML 212245Z VRB02KT CAVOK 25/21 Q1017 NOSIG=
201208212230 METAR LMML NIL=
201208212215 METAR LMML 212215Z VRB02KT CAVOK 26/21 Q1017 NOSIG=
201208212200 METAR LMML NIL=
201208212145 METAR LMML 212145Z VRB02KT CAVOK 26/22 Q1017 NOSIG=
201208212130 METAR LMML NIL=
201208212115 METAR LMML 212115Z 28003KT 9999 FEW020 26/22 Q1017 NOSIG=
201208212100 METAR LMML NIL=
201208212045 METAR LMML 212045Z 29003KT 9999 FEW020 27/22 Q1017 NOSIG=
201208212030 METAR LMML NIL=
201208212015 METAR LMML 212015Z 30003KT 9999 FEW020 27/22 Q1017 NOSIG=
201208212000 METAR LMML NIL=
201208211945 METAR LMML 211945Z 33004KT CAVOK 27/23 Q1017 NOSIG=
201208211930 METAR LMML NIL=
201208211915 METAR LMML 211915Z 31004KT CAVOK 27/22 Q1017 NOSIG=
201208211900 METAR LMML NIL=
201208211845 METAR LMML 211845Z 30005KT CAVOK 27/23 Q1017 NOSIG=
201208211830 METAR LMML NIL=
201208211815 METAR LMML 211815Z 32003KT CAVOK 28/22 Q1016 NOSIG=
201208211800 METAR LMML NIL=
201208211745 METAR LMML 211745Z 34004KT 9999 FEW025 28/22 Q1016 NOSIG=
201208211730 METAR LMML NIL=
201208211715 METAR LMML 211715Z 35005KT 300V050 9999 FEW025 30/22 Q1016
                        NOSIG=
201208211645 METAR LMML 211645Z 24005KT 190V310 9999 FEW032 29/22 Q1016
                        NOSIG=
201208211630 METAR LMML NIL=
201208211615 METAR LMML 211615Z 21006KT 160V280 9999 FEW035 29/23 Q1016
                        NOSIG=
201208211600 METAR LMML NIL=
201208211545 METAR LMML 211545Z 22008KT 180V250 9999 FEW035 29/22 Q1016
                        NOSIG=
201208211530 METAR LMML NIL=
201208211515 METAR LMML 211515Z 21007KT 150V270 9999 FEW032 30/22 Q1016
                        NOSIG=
201208211500 METAR LMML NIL=
201208211445 METAR LMML 211445Z 17007KT 140V220 9999 FEW033 30/22 Q1017
                        NOSIG=
201208211430 METAR LMML NIL=
201208211415 METAR LMML 211415Z 16005KT 120V230 9999 SCT034 30/22 Q1017
                        NOSIG=
201208211400 METAR LMML NIL=
201208211345 METAR LMML 211345Z 21004KT 150V280 9999 SCT029 30/21 Q1017
                        NOSIG=
201208211330 METAR LMML NIL=
201208211315 METAR LMML 211315Z 26003KT 9999 SCT035 31/22 Q1017 NOSIG=
201208211300 METAR LMML NIL=
201208211245 METAR LMML 211245Z 18004KT 070V280 9999 SCT035 31/21 Q1018
                        NOSIG=
201208211230 METAR LMML NIL=
201208211215 METAR LMML 211215Z 19005KT 130V250 9999 SCT036 31/22 Q1018
                        NOSIG=
201208211200 METAR LMML NIL=
201208211145 METAR LMML 211145Z 17005KT 100V250 9999 SCT037 31/22 Q1018
                        NOSIG=
201208211115 METAR LMML 211115Z 15006KT 070V210 9999 SCT028 30/21 Q1018
                        NOSIG=
201208211100 METAR LMML NIL=
201208211045 METAR LMML 211045Z 18007KT 140V270 9999 SCT026 30/21 Q1018
                        NOSIG=
201208211030 METAR LMML NIL=
201208211015 METAR LMML 211015Z 23003KT 9999 FEW028 29/22 Q1018 NOSIG=
201208210945 METAR LMML 210945Z 02004KT 280V070 9999 FEW025 32/22 Q1018
                        NOSIG=
201208210915 METAR LMML 210915Z 05004KT 020V100 9999 FEW020 32/20 Q1018
                        NOSIG=
201208210900 METAR LMML NIL=
201208210845 METAR LMML 210845Z 04004KT 320V140 9999 FEW020 31/20 Q1018
                        NOSIG=
201208210830 METAR LMML NIL=
201208210815 METAR LMML 210815Z 03004KT 310V090 9999 FEW020 31/21 Q1018
                        NOSIG=
201208210745 METAR LMML 210745Z 02004KT 350V070 9999 FEW020 29/21 Q1018
                        NOSIG=
201208210730 METAR LMML NIL=
201208210715 METAR LMML 210715Z 05004KT 010V090 9999 FEW020 30/23 Q1018
                        NOSIG=
201208210700 METAR LMML NIL=
201208210645 METAR LMML 210645Z 01003KT 9999 FEW015 28/23 Q1018 BECMG
                        CAVOK=
201208210630 METAR LMML NIL=
201208210615 METAR LMML 210615Z VRB02KT 8000 NSC 28/24 Q1018 BECMG CAVOK=
201208210600 METAR LMML NIL=
201208210545 METAR LMML 210545Z 01004KT 280V090 6000 FEW012 27/24 Q1018
                        BECMG CAVOK=
201208210530 METAR LMML NIL=
201208210515 METAR LMML 210515Z 36004KT 6000 FEW012 26/24 Q1017 BECMG
                        CAVOK=
201208210445 METAR LMML 210445Z 36005KT 7000 FEW009 25/24 Q1017 BECMG
                        CAVOK=
201208210430 METAR LMML NIL=
201208210415 METAR LMML 210415Z 36004KT 9000 NSC 25/23 Q1017 BECMG CAVOK=
201208210400 METAR LMML NIL=
201208210345 METAR LMML 210345Z 02004KT 9999 FEW011 25/23 Q1017 NOSIG=
201208210330 METAR LMML NIL=
201208210315 METAR LMML 210315Z 01004KT 9999 FEW011 25/23 Q1017 NOSIG=
201208210300 METAR LMML NIL=
201208210245 METAR LMML 210245Z 01004KT CAVOK 25/23 Q1017 NOSIG=
201208210230 METAR LMML NIL=
201208210215 METAR LMML 210215Z 01005KT CAVOK 25/23 Q1018 NOSIG=
201208210200 METAR LMML NIL=
201208210145 METAR LMML 210145Z 01005KT CAVOK 25/23 Q1018 NOSIG=
201208210130 METAR LMML NIL=
201208210115 METAR LMML 210115Z 01004KT CAVOK 25/23 Q1018 NOSIG=
201208210100 METAR LMML NIL=
201208210045 METAR LMML 210045Z 36005KT CAVOK 26/23 Q1018 NOSIG=
201208210030 METAR LMML NIL=
201208210015 METAR LMML 210015Z 01005KT 350V060 CAVOK 26/23 Q1018 NOSIG=
201208210000 METAR LMML NIL=
201208202345 METAR LMML 202345Z 01006KT CAVOK 26/23 Q1018 NOSIG=
201208202330 METAR LMML NIL=
201208202315 METAR LMML 202315Z 01005KT CAVOK 26/23 Q1019 NOSIG=
201208202300 METAR LMML NIL=
201208202245 METAR LMML 202245Z 01005KT CAVOK 26/23 Q1019 NOSIG=
201208202230 METAR LMML NIL=
201208202215 METAR LMML 202215Z 36005KT CAVOK 26/23 Q1019 TEMPO 9999 FEW012=
201208202200 METAR LMML NIL=
201208202145 METAR LMML 202145Z 35005KT 310V030 CAVOK 26/23 Q1019 TEMPO
                        9999 FEW012=
201208202130 METAR LMML NIL=
201208202115 METAR LMML 202115Z 34004KT CAVOK 26/22 Q1019 TEMPO 9999 FEW012=
201208202100 METAR LMML NIL=
201208202045 METAR LMML 202045Z 36005KT CAVOK 27/22 Q1019 TEMPO 9999 FEW012=
201208202030 METAR LMML NIL=
201208202015 METAR LMML 202015Z 36005KT 270V070 CAVOK 27/21 Q1019 TEMPO
                        9999 FEW012=
201208202000 METAR LMML NIL=
201208201945 METAR LMML 201945Z 36003KT CAVOK 27/23 Q1019 TEMPO 9999 FEW012=
201208201930 METAR LMML NIL=
201208201915 METAR LMML 201915Z 02003KT CAVOK 27/23 Q1019 NOSIG=
201208201900 METAR LMML NIL=
201208201845 METAR LMML 201845Z 01003KT CAVOK 28/22 Q1018 NOSIG=
201208201830 METAR LMML NIL=
201208201815 METAR LMML 201815Z 04003KT CAVOK 28/21 Q1018 NOSIG=
201208201800 METAR LMML NIL=
201208201745 METAR LMML 201745Z 06003KT CAVOK 28/22 Q1018 NOSIG=
201208201730 METAR LMML NIL=
201208201715 METAR LMML 201715Z 11003KT 9999 FEW026 29/23 Q1018 NOSIG=
201208201700 METAR LMML NIL=
201208201645 METAR LMML 201645Z 12003KT 9999 FEW023 29/22 Q1018 NOSIG=
201208201630 METAR LMML NIL=
201208201615 METAR LMML 201615Z 09003KT 9999 FEW027 30/23 Q1018 NOSIG=
201208201600 METAR LMML NIL=
201208201545 METAR LMML 201545Z 09004KT 030V150 9999 SCT025 31/23 Q1018
                        NOSIG=
201208201530 METAR LMML NIL=
201208201515 METAR LMML 201515Z 19004KT 130V250 9999 BKN029 31/22 Q1018=
201208201500 METAR LMML NIL=
201208201445 METAR LMML 201445Z VRB02KT 9999 SCT028 30/22 Q1018 NOSIG=
201208201430 METAR LMML NIL=
201208201415 METAR LMML 201415Z 25004KT 170V330 9999 FEW030 31/22 Q1018
                        NOSIG=
201208201400 METAR LMML NIL=
201208201345 METAR LMML 201345Z 20005KT 140V260 9999 FEW032 31/22 Q1018
                        NOSIG=
201208201330 METAR LMML NIL=
201208201315 METAR LMML 201315Z 19007KT 160V260 9999 SCT032 31/22 Q1019
                        NOSIG=
201208201300 METAR LMML NIL=
201208201245 METAR LMML 201245Z 27005KT 210V010 9999 SCT034 32/22 Q1019
                        NOSIG=
201208201230 METAR LMML NIL=
201208201215 METAR LMML 201215Z 04004KT 330V130 9999 FEW020 32/20 Q1019
                        NOSIG=
201208201200 METAR LMML NIL=
201208201145 METAR LMML 201145Z 02006KT 340V110 9999 FEW020 32/19 Q1019
                        NOSIG=
201208201130 METAR LMML NIL=
201208201115 METAR LMML 201115Z 02006KT 340V070 9999 FEW020 33/19 Q1019
                        NOSIG=
201208201100 METAR LMML NIL=
201208201045 METAR LMML 201045Z 04007KT 360V090 9999 FEW025 33/20 Q1019
                        NOSIG=
201208201030 METAR LMML NIL=
201208201015 METAR LMML 201015Z 07003KT CAVOK 33/18 Q1020 NOSIG=
201208201000 METAR LMML NIL=
201208200945 METAR LMML 200945Z 02005KT 320V110 9999 FEW020 31/20 Q1020
                        TEMPO CAVOK=
201208200930 METAR LMML NIL=
201208200915 METAR LMML 200915Z 03005KT 290V090 9999 FEW020 30/21 Q1020
                        TEMPO CAVOK=
201208200900 METAR LMML NIL=
201208200845 METAR LMML 200845Z 03006KT 360V070 9999 FEW020 31/21 Q1020
                        TEMPO CAVOK=
201208200830 METAR LMML NIL=
201208200815 METAR LMML 200815Z 03006KT 350V070 9999 FEW020 31/20 Q1020
                        TEMPO CAVOK=
201208200800 METAR LMML NIL=
201208200745 METAR LMML 200745Z 02005KT 340V070 9999 FEW020 31/22 Q1020
                        NOSIG=
201208200730 METAR LMML NIL=
201208200715 METAR LMML 200715Z 01004KT 310V070 9000 FEW020 29/22 Q1020
                        BECMG 9999=
201208200700 METAR LMML NIL=
201208200645 METAR LMML 200645Z 34004KT 310V020 7000 NSC 28/23 Q1019 BECMG
                        CAVOK=
201208200630 METAR LMML NIL=
201208200615 METAR LMML 200615Z 32003KT 5000 BR NSC 26/24 Q1019 BECMG
                        8000=
201208200600 METAR LMML NIL=
201208200545 METAR LMML 200545Z 30003KT 5000 BR NSC 25/24 Q1019 BECMG
                        8000=
201208200515 METAR LMML 200515Z VRB02KT 4000 BR FEW015 24/24 Q1019 BECMG
                        6000=
201208200500 METAR LMML NIL=
201208200445 METAR LMML 200445Z 28003KT 2500 BR FEW015 24/24 Q1019 BECMG
                        5000=
201208200430 METAR LMML NIL=
201208200415 METAR LMML 200415Z VRB02KT 2500 BR FEW015 24/24 Q1018 BECMG
                        5000=
201208200400 METAR LMML NIL=
201208200345 METAR LMML 200345Z VRB02KT 5000 BR FEW015 24/24 Q1018 TEMPO
                        3000=
201208200330 METAR LMML NIL=
201208200315 METAR LMML 200315Z VRB01KT 5000 BR FEW015 24/23 Q1018 TEMPO
                        3000=
201208200300 METAR LMML NIL=
201208200245 METAR LMML 200245Z VRB02KT 6000 FEW015 24/23 Q1019 NOSIG=
201208200230 METAR LMML NIL=
201208200215 METAR LMML 200215Z VRB02KT 7000 FEW015 25/24 Q1019 NOSIG=
201208200200 METAR LMML NIL=
201208200145 METAR LMML 200145Z VRB02KT 7000 FEW015 25/23 Q1019 NOSIG=
201208200130 METAR LMML NIL=
201208200115 METAR LMML 200115Z 30003KT 7000 FEW015 25/23 Q1019 NOSIG=
201208200100 METAR LMML NIL=
201208200045 METAR LMML 200045Z VRB02KT 7000 FEW015 25/24 Q1019 NOSIG=
201208200030 METAR LMML NIL=
201208200015 METAR LMML 200015Z VRB02KT 7000 FEW015 25/23 Q1019 NOSIG=
201208200000 METAR LMML NIL=
201208192345 METAR LMML 192345Z VRB02KT 9000 FEW015 25/23 Q1019 NOSIG=
201208192330 METAR LMML NIL=
201208192315 METAR LMML 192315Z VRB02KT 9999 FEW015 25/23 Q1019 NOSIG=
201208192245 METAR LMML 192245Z 30003KT 9999 FEW015 26/23 Q1019 NOSIG=
201208192230 METAR LMML NIL=
201208192215 METAR LMML 192215Z 31003KT 9999 FEW015 26/23 Q1019 NOSIG=
201208192200 METAR LMML NIL=
201208192145 METAR LMML 192145Z VRB02KT 9999 FEW015 26/23 Q1019 NOSIG=
201208192130 METAR LMML NIL=
201208192115 METAR LMML 192115Z VRB02KT 9999 FEW015 27/23 Q1019 NOSIG=
201208192100 METAR LMML NIL=
201208192045 METAR LMML 192045Z VRB02KT 9999 FEW015 27/23 Q1019 NOSIG=
201208192030 METAR LMML NIL=
201208192015 METAR LMML 192015Z VRB02KT 9999 FEW015 26/23 Q1019 NOSIG=
201208192000 METAR LMML NIL=
201208191945 METAR LMML 191945Z 08003KT 9999 FEW015 27/23 Q1019 NOSIG=
201208191930 METAR LMML NIL=
201208191915 METAR LMML 191915Z VRB02KT 9999 FEW015 27/23 Q1019 NOSIG=
201208191900 METAR LMML NIL=
201208191845 METAR LMML 191845Z 08003KT 9999 FEW016 27/23 Q1019 NOSIG=
201208191830 METAR LMML NIL=
201208191815 METAR LMML 191815Z 08003KT 9999 FEW020 27/23 Q1019 NOSIG=
201208191800 METAR LMML NIL=
201208191745 METAR LMML 191745Z 10003KT 9999 FEW020 27/23 Q1018 NOSIG
                        RMK SMOKE TO SW OF AIRFIELD=
201208191715 METAR LMML 191715Z 11004KT 070V130 9999 FEW020 28/23 Q1018
                        NOSIG=
201208191700 METAR LMML NIL=
201208191645 METAR LMML 191645Z 07004KT 350V130 9999 FEW020 29/23 Q1018
                        NOSIG=
201208191630 METAR LMML NIL=
201208191615 METAR LMML 191615Z 08005KT 040V120 9999 FEW020 30/23 Q1018
                        NOSIG=
201208191600 METAR LMML NIL=
201208191545 METAR LMML 191545Z 07006KT 360V130 9999 FEW020 30/22 Q1018
                        NOSIG=
201208191530 METAR LMML NIL=
201208191515 METAR LMML 191515Z 08005KT 020V140 9999 FEW020 31/24 Q1018
                        NOSIG=
201208191500 METAR LMML NIL=
201208191445 METAR LMML 191445Z 07006KT 350V110 9999 FEW019 31/23 Q1018
                        NOSIG=
201208191430 METAR LMML NIL=
201208191415 METAR LMML 191415Z 07005KT 010V120 9999 FEW022 31/23 Q1018
                        NOSIG=
201208191400 METAR LMML NIL=
201208191345 METAR LMML 191345Z 06006KT 020V120 9999 FEW020 31/23 Q1019
                        NOSIG=
201208191330 METAR LMML NIL=
201208191315 METAR LMML 191315Z 07007KT 360V120 9999 FEW020 31/22 Q1019
                        NOSIG=
201208191245 METAR LMML 191245Z 07007KT 020V140 9999 FEW020 31/23 Q1019
                        NOSIG=
201208191230 METAR LMML NIL=
201208191215 METAR LMML 191215Z 07007G17KT 350V110 9999 FEW020 32/22 Q1019
                        NOSIG=
201208191200 METAR LMML NIL=
201208191145 METAR LMML 191145Z 07007KT 010V120 9999 FEW020 31/22 Q1019
                        NOSIG=
201208191130 METAR LMML NIL=
201208191115 METAR LMML 191115Z 07009KT 020V110 CAVOK 31/22 Q1019 NOSIG=
201208191100 METAR LMML NIL=
201208191045 METAR LMML 191045Z 06009KT 020V100 9999 FEW020 32/22 Q1019
                        NOSIG=
201208191030 METAR LMML NIL=
201208191015 METAR LMML 191015Z 05009KT 020V100 9999 FEW022 31/22 Q1019
                        NOSIG=
201208191000 METAR LMML NIL=
201208190945 METAR LMML 190945Z 07011KT 030V110 9999 FEW020 31/23 Q1019
                        NOSIG=
201208190930 METAR LMML NIL=
201208190915 METAR LMML 190915Z 06010KT 030V100 9999 FEW020 31/22 Q1019
                        NOSIG=
201208190900 METAR LMML NIL=
201208190845 METAR LMML 190845Z 06009KT 350V100 CAVOK 31/23 Q1019 NOSIG=
201208190830 METAR LMML NIL=
201208190815 METAR LMML 190815Z 06009KT 020V090 CAVOK 30/21 Q1019 NOSIG=
201208190800 METAR LMML NIL=
201208190745 METAR LMML 190745Z 06010KT 030V090 CAVOK 31/23 Q1019 NOSIG=
201208190730 METAR LMML NIL=
201208190715 METAR LMML 190715Z 06008KT 030V100 CAVOK 30/22 Q1018 NOSIG=
201208190700 METAR LMML NIL=
201208190645 METAR LMML 190645Z 05008KT 360V090 CAVOK 29/21 Q1018 NOSIG=
201208190630 METAR LMML NIL=
201208190615 METAR LMML 190615Z 04006KT 010V080 CAVOK 29/21 Q1018 NOSIG=
201208190600 METAR LMML NIL=
201208190545 METAR LMML 190545Z 03005KT CAVOK 27/22 Q1018 NOSIG=
201208190530 METAR LMML NIL=
201208190515 METAR LMML 190515Z 01004KT CAVOK 26/23 Q1018 NOSIG=
201208190500 METAR LMML NIL=
201208190445 METAR LMML 190445Z 01004KT CAVOK 25/23 Q1018 NOSIG=
201208190430 METAR LMML NIL=
201208190415 METAR LMML 190415Z 36003KT CAVOK 25/23 Q1017 NOSIG=
201208190400 METAR LMML NIL=
201208190345 METAR LMML 190345Z 36005KT 330V060 9999 FEW008 25/23 Q1017
                        NOSIG=
201208190330 METAR LMML NIL=
201208190315 METAR LMML 190315Z 36004KT 9999 FEW008 25/24 Q1017 NOSIG=
201208190300 METAR LMML NIL=
201208190245 METAR LMML 190245Z 36004KT 9999 FEW008 26/24 Q1017 NOSIG=
201208190230 METAR LMML NIL=
201208190215 METAR LMML 190215Z 35004KT 9999 FEW012 26/24 Q1017 NOSIG=
201208190200 METAR LMML NIL=
201208190145 METAR LMML 190145Z 35005KT 9999 FEW012 26/23 Q1017 NOSIG=
201208190115 METAR LMML 190115Z 36006KT CAVOK 26/23 Q1017 NOSIG=
201208190045 METAR LMML 190045Z 36005KT CAVOK 26/23 Q1017 NOSIG=
201208190030 METAR LMML NIL=
201208190015 METAR LMML 190015Z 36004KT CAVOK 26/23 Q1017 NOSIG=
201208190000 METAR LMML NIL=
201208182345 METAR LMML 182345Z 36005KT CAVOK 26/23 Q1017 NOSIG=
201208182330 METAR LMML NIL=
201208182315 METAR LMML 182315Z 01005KT CAVOK 26/23 Q1017 NOSIG=
201208182300 METAR LMML NIL=
201208182245 METAR LMML 182245Z 01006KT 9999 FEW012 26/24 Q1018 NOSIG=
201208182230 METAR LMML NIL=
201208182215 METAR LMML 182215Z 36006KT 9999 FEW012 27/24 Q1018 NOSIG=
201208182200 METAR LMML NIL=
201208182145 METAR LMML 182145Z 01005KT 350V080 9999 FEW012 27/23 Q1018
                        NOSIG=
201208182130 METAR LMML NIL=
201208182115 METAR LMML 182115Z 02004KT CAVOK 27/23 Q1017 NOSIG=
201208182100 METAR LMML NIL=
201208182045 METAR LMML 182045Z 02005KT 360V060 CAVOK 27/23 Q1017 NOSIG=
201208182030 METAR LMML NIL=
201208182015 METAR LMML 182015Z 03004KT 360V060 CAVOK 27/22 Q1017 NOSIG=
201208182000 METAR LMML NIL=
201208181945 METAR LMML 181945Z 04004KT 010V080 CAVOK 28/22 Q1017 NOSIG=
201208181930 METAR LMML NIL=
201208181915 METAR LMML 181915Z 04004KT CAVOK 28/22 Q1017 NOSIG=
201208181900 METAR LMML NIL=
201208181845 METAR LMML 181845Z 04004KT 340V110 CAVOK 28/22 Q1017 NOSIG=
201208181830 METAR LMML NIL=
201208181815 METAR LMML 181815Z 04004KT 330V150 CAVOK 28/22 Q1016 NOSIG=
201208181800 METAR LMML NIL=
201208181745 METAR LMML 181745Z 05004KT 360V090 CAVOK 29/22 Q1016 NOSIG=
201208181730 METAR LMML NIL=
201208181715 METAR LMML 181715Z 08005KT 040V110 CAVOK 30/21 Q1016 NOSIG=
201208181700 METAR LMML NIL=
201208181645 METAR LMML 181645Z 07005KT 030V100 CAVOK 29/20 Q1016 NOSIG=
201208181630 METAR LMML NIL=
201208181615 METAR LMML 181615Z 08004KT 020V110 CAVOK 31/21 Q1015 NOSIG=
201208181600 METAR LMML NIL=
201208181545 METAR LMML 181545Z 07005KT 030V130 CAVOK 31/22 Q1015 NOSIG=
201208181530 METAR LMML NIL=
201208181515 METAR LMML 181515Z 08006KT 020V120 CAVOK 32/21 Q1015 NOSIG=
201208181500 METAR LMML NIL=
201208181445 METAR LMML 181445Z 10006KT 050V170 CAVOK 32/20 Q1015 NOSIG=
201208181430 METAR LMML NIL=
201208181415 METAR LMML 181415Z 10006KT 050V140 CAVOK 32/20 Q1015 NOSIG=
201208181400 METAR LMML NIL=
201208181345 METAR LMML 181345Z 09007KT 060V130 CAVOK 32/19 Q1016 NOSIG=
201208181330 METAR LMML NIL=
201208181315 METAR LMML 181315Z 08007KT 050V120 CAVOK 32/20 Q1016 NOSIG=
201208181300 METAR LMML NIL=
201208181245 METAR LMML 181245Z 09007KT 060V140 9999 FEW025 32/20 Q1016
                        NOSIG=
201208181230 METAR LMML NIL=
201208181215 METAR LMML 181215Z 06007KT 360V130 9999 FEW025 33/21 Q1016
                        NOSIG=
201208181200 METAR LMML NIL=
201208181145 METAR LMML 181145Z 08006KT 020V130 9999 FEW025 32/22 Q1016
                        NOSIG=
201208181130 METAR LMML NIL=
201208181115 METAR LMML 181115Z 09008KT 050V210 CAVOK 32/20 Q1016 NOSIG=
201208181100 METAR LMML NIL=
201208181045 METAR LMML 181045Z 07008KT 020V120 CAVOK 32/20 Q1016 NOSIG=
201208181030 METAR LMML NIL=
201208181015 METAR LMML 181015Z 09009KT 060V130 9999 FEW015 32/18 Q1016
                        NOSIG=
201208181000 METAR LMML NIL=
201208180945 METAR LMML 180945Z 09009KT 040V130 9999 FEW014 31/20 Q1016
                        NOSIG=
201208180930 METAR LMML NIL=
201208180915 METAR LMML 180915Z 07009KT 050V110 9999 FEW014 31/22 Q1016
                        NOSIG=
201208180900 METAR LMML NIL=
201208180845 METAR LMML 180845Z 09008KT 060V120 9999 FEW014 30/22 Q1016
                        NOSIG=
201208180830 METAR LMML NIL=
201208180815 METAR LMML 180815Z 09009KT 040V120 9999 FEW014 29/22 Q1016
                        NOSIG=
201208180800 METAR LMML NIL=
201208180745 METAR LMML 180745Z 10008KT 060V120 9999 FEW011 29/22 Q1016
                        NOSIG=
201208180730 METAR LMML NIL=
201208180715 METAR LMML 180715Z 08008KT 020V120 9999 FEW011 29/23 Q1015
                        NOSIG=
201208180700 METAR LMML NIL=
201208180645 METAR LMML 180645Z 08008KT 040V120 9999 FEW011 28/23 Q1015
                        NOSIG=
201208180630 METAR LMML NIL=
201208180615 METAR LMML 180615Z 09008KT 9999 FEW011 27/24 Q1015 NOSIG=
201208180600 METAR LMML NIL=
201208180545 METAR LMML 180545Z 08007KT 030V110 9999 FEW009 27/24 Q1015
                        NOSIG=
201208180530 METAR LMML NIL=
201208180515 METAR LMML 180515Z 07006KT 040V110 9999 SCT009 26/24 Q1014
                        NOSIG=
201208180500 METAR LMML NIL=
201208180445 METAR LMML 180445Z 07007KT 040V100 9999 SCT009 26/24 Q1014
                        NOSIG=
201208180430 METAR LMML NIL=
201208180415 METAR LMML 180415Z 07006KT 040V100 9999 SCT008 26/24 Q1014
                        NOSIG=
201208180400 METAR LMML NIL=
201208180345 METAR LMML 180345Z 07005KT 9999 FEW012 25/23 Q1014 NOSIG=
201208180330 METAR LMML NIL=
201208180315 METAR LMML 180315Z 06005KT 9999 FEW012 25/24 Q1014 NOSIG=
201208180300 METAR LMML NIL=
201208180245 METAR LMML 180245Z 07006KT 9999 FEW011 26/24 Q1014 NOSIG=
201208180230 METAR LMML NIL=
201208180215 METAR LMML 180215Z 07006KT 9999 FEW011 26/23 Q1014 NOSIG=
201208180200 METAR LMML NIL=
201208180145 METAR LMML 180145Z 07006KT 020V090 9999 FEW011 26/23 Q1014
                        NOSIG=
201208180130 METAR LMML NIL=
201208180115 METAR LMML 180115Z 07007KT 040V110 9999 SCT011 26/23 Q1014
                        TEMPO BKN010=
201208180100 METAR LMML NIL=
201208180045 METAR LMML 180045Z 07007KT 030V100 9999 SCT012 26/24 Q1014
                        TEMPO BKN011=
201208180030 METAR LMML NIL=
201208180015 METAR LMML 180015Z 06008KT 040V100 9999 BKN012 26/24 Q1014
                        NOSIG=
201208180000 METAR LMML NIL=
201208172345 METAR LMML 172345Z 05007KT 010V090 9999 SCT012 27/24 Q1014
                        TEMPO BKN011=
201208172330 METAR LMML NIL=
201208172315 METAR LMML 172315Z 05007KT 020V080 9999 SCT012 27/23 Q1014
                        TEMPO BKN011=
201208172300 METAR LMML NIL=
201208172245 METAR LMML 172245Z 03006KT 010V070 CAVOK 27/23 Q1015 NOSIG=
201208172230 METAR LMML NIL=
201208172215 METAR LMML 172215Z 04006KT 010V070 CAVOK 27/23 Q1015 NOSIG=
201208172200 METAR LMML NIL=
201208172145 METAR LMML 172145Z 04007KT 010V080 CAVOK 27/22 Q1015 NOSIG=
201208172130 METAR LMML NIL=
201208172115 METAR LMML 172115Z 04005KT 360V070 CAVOK 27/21 Q1015 NOSIG=
201208172100 METAR LMML NIL=
201208172045 METAR LMML 172045Z 04004KT 020V080 CAVOK 27/22 Q1015 NOSIG=
201208172030 METAR LMML NIL=
201208172015 METAR LMML 172015Z 04004KT 010V070 CAVOK 27/21 Q1015 NOSIG=
201208172000 METAR LMML NIL=
201208171945 METAR LMML 171945Z 02003KT CAVOK 27/20 Q1015 NOSIG=
201208171930 METAR LMML NIL=
201208171915 METAR LMML 171915Z 05003KT CAVOK 28/19 Q1014 NOSIG=
201208171900 METAR LMML NIL=
201208171845 METAR LMML 171845Z 02004KT CAVOK 28/19 Q1014 NOSIG=
201208171830 METAR LMML NIL=
201208171815 METAR LMML 171815Z 03006KT 360V080 CAVOK 29/19 Q1014 NOSIG=
201208171800 METAR LMML NIL=
201208171745 METAR LMML 171745Z 27004KT 240V300 CAVOK 29/20 Q1014 NOSIG=
201208171730 METAR LMML NIL=
201208171715 METAR LMML 171715Z 25003KT CAVOK 31/21 Q1014 NOSIG=
201208171700 METAR LMML NIL=
201208171645 METAR LMML 171645Z VRB02KT CAVOK 31/19 Q1013 NOSIG=
201208171630 METAR LMML NIL=
201208171615 METAR LMML 171615Z 22004KT 150V290 CAVOK 31/19 Q1013 NOSIG=
201208171600 METAR LMML NIL=
201208171545 METAR LMML 171545Z 19005KT 110V300 CAVOK 31/20 Q1013 NOSIG=
201208171530 METAR LMML NIL=
201208171515 METAR LMML 171515Z 15004KT 110V230 CAVOK 32/19 Q1014 NOSIG=
201208171500 METAR LMML NIL=
201208171445 METAR LMML 171445Z 19005KT 120V240 CAVOK 32/19 Q1014 NOSIG=
201208171430 METAR LMML NIL=
201208171415 METAR LMML 171415Z VRB02KT CAVOK 32/19 Q1014 NOSIG=
201208171400 METAR LMML NIL=
201208171345 METAR LMML 171345Z 16005KT 070V240 CAVOK 33/19 Q1014 NOSIG=
201208171330 METAR LMML NIL=
201208171315 METAR LMML 171315Z 22004KT 140V310 CAVOK 33/18 Q1014 NOSIG=
201208171300 METAR LMML NIL=
201208171245 METAR LMML 171245Z 18006KT 130V260 CAVOK 33/20 Q1014 NOSIG=
201208171230 METAR LMML NIL=
201208171215 METAR LMML 171215Z 10004KT 360V160 CAVOK 33/16 Q1014 NOSIG=
201208171200 METAR LMML NIL=
201208171145 METAR LMML 171145Z 08005KT 030V150 CAVOK 33/17 Q1014 NOSIG=
201208171130 METAR LMML NIL=
201208171115 METAR LMML 171115Z 08006KT 050V180 CAVOK 34/16 Q1014 NOSIG=
201208171100 METAR LMML NIL=
201208171045 METAR LMML 171045Z 23005KT CAVOK 34/13 Q1014 NOSIG=
201208171015 METAR LMML 171015Z 07005KT 010V120 CAVOK 34/15 Q1014 NOSIG=
201208171000 METAR LMML NIL=
201208170945 METAR LMML 170945Z 03004KT 310V100 CAVOK 34/16 Q1014 NOSIG=
201208170930 METAR LMML NIL=
201208170915 METAR LMML 170915Z 05004KT 350V100 CAVOK 33/15 Q1014 NOSIG=
201208170900 METAR LMML NIL=
201208170845 METAR LMML 170845Z 03005KT 350V070 CAVOK 33/17 Q1014 NOSIG=
201208170830 METAR LMML NIL=
201208170815 METAR LMML 170815Z 02003KT CAVOK 32/21 Q1014 NOSIG=
201208170745 METAR LMML 170745Z 35005KT 300V030 CAVOK 31/22 Q1014 NOSIG=
201208170730 METAR LMML NIL=
201208170715 METAR LMML 170715Z 32005KT 250V040 CAVOK 30/23 Q1014 NOSIG=
201208170700 METAR LMML NIL=
201208170645 METAR LMML 170645Z 34005KT 310V060 CAVOK 28/22 Q1014 NOSIG=
201208170630 METAR LMML NIL=
201208170615 METAR LMML 170615Z 33007KT CAVOK 27/23 Q1014 NOSIG=
201208170600 METAR LMML NIL=
201208170545 METAR LMML 170545Z 32004KT 9999 FEW015 26/23 Q1014 NOSIG=
201208170530 METAR LMML NIL=
201208170515 METAR LMML 170515Z 31004KT 9999 FEW015 25/23 Q1014 NOSIG=
201208170445 METAR LMML 170445Z 31003KT 9999 FEW020 25/22 Q1013 NOSIG=
201208170430 METAR LMML NIL=
201208170415 METAR LMML 170415Z 30003KT CAVOK 25/22 Q1013 NOSIG=
201208170400 METAR LMML NIL=
201208170345 METAR LMML 170345Z 32005KT CAVOK 25/22 Q1013 NOSIG=
201208170330 METAR LMML NIL=
201208170315 METAR LMML 170315Z VRB02KT CAVOK 25/22 Q1013 NOSIG=
201208170300 METAR LMML NIL=
201208170245 METAR LMML 170245Z 27003KT CAVOK 25/22 Q1014 NOSIG=
201208170230 METAR LMML NIL=
201208170215 METAR LMML 170215Z 27003KT CAVOK 26/22 Q1014 NOSIG=
201208170200 METAR LMML NIL=
201208170145 METAR LMML 170145Z 24003KT CAVOK 25/23 Q1014 NOSIG=
201208170130 METAR LMML NIL=
201208170115 METAR LMML 170115Z 24004KT 210V290 CAVOK 26/23 Q1014 NOSIG=
201208170100 METAR LMML NIL=
201208170045 METAR LMML 170045Z 25005KT 220V290 CAVOK 25/23 Q1014 NOSIG=
201208170030 METAR LMML NIL=
201208170015 METAR LMML 170015Z 25004KT 9999 FEW020 26/23 Q1015 NOSIG=
201208170000 METAR LMML NIL=
201208162345 METAR LMML 162345Z 24003KT 9999 FEW020 26/22 Q1015 NOSIG=
201208162315 METAR LMML 162315Z 24007KT 9999 FEW020 26/22 Q1015 NOSIG=
201208162300 METAR LMML NIL=
201208162245 METAR LMML 162245Z 23006KT 9999 FEW020 26/23 Q1015 NOSIG=
201208162230 METAR LMML NIL=
201208162215 METAR LMML 162215Z 23004KT 9999 FEW020 25/23 Q1015 NOSIG=
201208162200 METAR LMML NIL=
201208162145 METAR LMML 162145Z 24004KT 9999 FEW020 25/23 Q1015 NOSIG=
201208162130 METAR LMML NIL=
201208162115 METAR LMML 162115Z 25004KT 9999 FEW000 25/23 Q1015 NOSIG=
201208162100 METAR LMML NIL=
201208162045 METAR LMML 162045Z 25004KT 220V290 9999 FEW020 26/23 Q1015
                        NOSIG=
201208162030 METAR LMML NIL=
201208162015 METAR LMML 162015Z 25003KT 9999 FEW020 26/23 Q1015 NOSIG=
201208161945 METAR LMML 161945Z 26004KT 9999 FEW020 26/23 Q1015 NOSIG=
201208161930 METAR LMML NIL=
201208161915 METAR LMML 161915Z VRB02KT 9999 FEW020 26/23 Q1015 NOSIG=
201208161900 METAR LMML NIL=
201208161845 METAR LMML 161845Z 28004KT 9999 FEW020 26/23 Q1015 NOSIG=
201208161830 METAR LMML NIL=
201208161815 METAR LMML 161815Z 26004KT 230V300 9999 FEW020 27/23 Q1015
                        NOSIG=
201208161800 METAR LMML NIL=
201208161745 METAR LMML 161745Z 27006KT 240V300 9999 FEW020 27/23 Q1015
                        NOSIG=
201208161730 METAR LMML NIL=
201208161715 METAR LMML 161715Z 26007KT 230V290 9999 FEW020 28/23 Q1015
                        NOSIG=
201208161700 METAR LMML NIL=
201208161645 METAR LMML 161645Z 25008KT 220V280 9999 FEW030 28/23 Q1015
                        NOSIG=
201208161630 METAR LMML NIL=
201208161615 METAR LMML 161615Z 25007KT 210V280 9999 FEW030 29/22 Q1015
                        NOSIG=
201208161600 METAR LMML NIL=
201208161545 METAR LMML 161545Z 25007KT 220V300 9999 FEW030 30/20 Q1015
                        NOSIG=
201208161530 METAR LMML NIL=
201208161515 METAR LMML 161515Z 25008KT 220V290 9999 FEW030 31/23 Q1015
                        NOSIG=
201208161500 METAR LMML NIL=
201208161445 METAR LMML 161445Z 25007KT 180V280 9999 FEW030 31/23 Q1015
                        NOSIG=
201208161430 METAR LMML NIL=
201208161415 METAR LMML 161415Z 24009KT 210V290 9999 FEW030 32/21 Q1015
                        NOSIG=
201208161400 METAR LMML NIL=
201208161345 METAR LMML 161345Z 22009KT 180V260 9999 FEW033 31/21 Q1016
                        NOSIG=
201208161330 METAR LMML NIL=
201208161315 METAR LMML 161315Z 23010KT 160V270 9999 FEW031 31/21 Q1016
                        NOSIG=
201208161300 METAR LMML NIL=
201208161245 METAR LMML 161245Z 22009KT 190V260 9999 FEW030 31/21 Q1016
                        NOSIG=
201208161230 METAR LMML NIL=
201208161215 METAR LMML 161215Z 22007KT 140V260 9999 FEW030 31/21 Q1016
                        NOSIG=
201208161200 METAR LMML NIL=
201208161145 METAR LMML 161145Z 21007KT 150V280 9999 FEW030 31/19 Q1016
                        NOSIG=
201208161130 METAR LMML NIL=
201208161115 METAR LMML 161115Z 18007KT 140V250 9999 SCT030 31/21 Q1016
                        NOSIG=
201208161100 METAR LMML NIL=
201208161045 METAR LMML 161045Z 18006KT 130V230 9999 SCT029 31/22 Q1016=
201208161030 METAR LMML NIL=
201208161015 METAR LMML 161015Z 19005KT 110V260 9999 SCT026 32/23 Q1016
                        NOSIG=
201208161000 METAR LMML NIL=
201208160945 METAR LMML 160945Z VRB02KT 9999 FEW026 31/23 Q1016 NOSIG=
201208160930 METAR LMML NIL=
201208160915 METAR LMML 160915Z 05006KT 010V100 9999 FEW023 32/23 Q1017
                        NOSIG=
201208160900 METAR LMML NIL=
201208160845 METAR LMML 160845Z 36003KT 9999 FEW023 31/21 Q1016 NOSIG=
201208160830 METAR LMML NIL=
201208160815 METAR LMML 160815Z 34003KT 9999 FEW012 30/22 Q1016 NOSIG=
201208160800 METAR LMML NIL=
201208160745 METAR LMML 160745Z 32003KT 9999 FEW012 29/22 Q1016 NOSIG=
201208160730 METAR LMML NIL=
201208160715 METAR LMML 160715Z 35004KT 300V040 9999 FEW012 28/23 Q1016
                        NOSIG=
201208160700 METAR LMML NIL=
201208160645 METAR LMML 160645Z 31004KT 270V010 9999 FEW011 27/23 Q1016
                        NOSIG=
201208160630 METAR LMML NIL=
201208160615 METAR LMML 160615Z 32003KT 9999 FEW010 26/24 Q1016 NOSIG=
201208160600 METAR LMML NIL=
201208160545 METAR LMML 160545Z 31003KT 7000 FEW010 26/24 Q1016 BECMG
                        9999=
201208160530 METAR LMML NIL=
201208160515 METAR LMML 160515Z 31003KT 7000 FEW008 25/24 Q1016 BECMG
                        9999=
201208160500 METAR LMML NIL=
201208160445 METAR LMML 160445Z 30004KT 7000 FEW008 24/24 Q1015 BECMG
                        9999=
201208160430 METAR LMML NIL=
201208160415 METAR COR LMML 160415Z 30003KT 8000 FEW009 24/23 Q1015 NOSIG=
201208160400 METAR LMML NIL=
201208160345 METAR LMML 160345Z 30004KT 9000 SCT009 25/23 Q1015 NOSIG=
201208160330 METAR LMML NIL=
201208160315 METAR LMML 160315Z 29003KT 9999 FEW012 25/23 Q1015 NOSIG=
201208160300 METAR LMML NIL=
201208160245 METAR LMML 160245Z VRB02KT 9999 FEW012 25/23 Q1015 NOSIG=
201208160230 METAR LMML NIL=
201208160215 METAR LMML 160215Z VRB02KT 9999 FEW012 25/23 Q1015 NOSIG=
201208160200 METAR LMML NIL=
201208160145 METAR LMML 160145Z 35003KT 9999 FEW012 25/24 Q1015 NOSIG=
201208160130 METAR LMML NIL=
201208160115 METAR LMML 160115Z 01003KT 9999 FEW012 26/24 Q1015 NOSIG=
201208160045 METAR LMML 160045Z 03003KT 9999 FEW013 26/24 Q1015 NOSIG=
201208160030 METAR LMML NIL=
201208160015 METAR LMML 160015Z 01003KT 9999 FEW013 26/23 Q1015 NOSIG=
201208160000 METAR LMML NIL=
201208152345 METAR LMML 152345Z 02003KT 9999 FEW015 26/23 Q1015 NOSIG=
201208152330 METAR LMML NIL=
201208152315 METAR LMML 152315Z 03003KT 9999 FEW013 26/24 Q1015 NOSIG=
201208152300 METAR LMML NIL=
201208152245 METAR LMML 152245Z 05004KT 020V080 9999 FEW015 27/24 Q1015
                        NOSIG=
201208152230 METAR LMML NIL=
201208152215 METAR LMML 152215Z 05004KT 020V080 9999 FEW015 27/24 Q1015
                        NOSIG=
201208152200 METAR LMML NIL=
201208152145 METAR LMML 152145Z 05004KT 010V070 9999 FEW015 27/23 Q1015
                        NOSIG=
201208152130 METAR LMML NIL=
201208152115 METAR LMML 152115Z 07003KT 9999 FEW015 27/23 Q1015 NOSIG=
201208152100 METAR LMML NIL=
201208152045 METAR LMML 152045Z 05003KT 9999 FEW015 27/23 Q1015 NOSIG=
201208152030 METAR LMML NIL=
201208152015 METAR LMML 152015Z 05005KT 9999 FEW016 27/23 Q1015 NOSIG=
201208152000 METAR LMML NIL=
201208151945 METAR LMML 151945Z 04006KT 360V080 9999 FEW016 27/23 Q1014
                        NOSIG=
201208151930 METAR LMML NIL=
201208151915 METAR LMML 151915Z 05005KT 010V090 9999 SCT016 27/23 Q1014
                        NOSIG=
201208151900 METAR LMML NIL=
201208151845 METAR LMML 151845Z 08005KT 040V100 9999 SCT017 27/23 Q1014
                        NOSIG=
201208151830 METAR LMML NIL=
201208151815 METAR LMML 151815Z 09005KT 9999 SCT018 27/23 Q1014 NOSIG=
201208151800 METAR LMML NIL=
201208151745 METAR LMML 151745Z 06005KT 020V110 9999 SCT019 28/23 Q1014
                        NOSIG=
201208151730 METAR LMML NIL=
201208151715 METAR LMML 151715Z 07005KT 020V100 9999 SCT021 28/23 Q1013
                        NOSIG=
201208151700 METAR LMML NIL=
201208151645 METAR LMML 151645Z 06007KT 020V100 9999 SCT022 30/23 Q1013
                        NOSIG=
201208151630 METAR LMML NIL=
201208151615 METAR LMML 151615Z 06007KT 010V090 9999 SCT025 30/23 Q1013
                        NOSIG=
201208151600 METAR LMML NIL=
201208151545 METAR LMML 151545Z 07007KT 030V100 9999 SCT025 30/23 Q1013
                        NOSIG=
201208151530 METAR LMML NIL=
201208151515 METAR LMML 151515Z 06007KT 030V110 9999 SCT024 30/22 Q1013
                        NOSIG=
201208151500 METAR LMML NIL=
201208151445 METAR LMML 151445Z 06006KT 020V120 9999 SCT023 30/23 Q1013
                        NOSIG=
201208151430 METAR LMML NIL=
201208151415 METAR LMML 151415Z 07006KT 020V120 9999 SCT024 30/22 Q1013
                        NOSIG=
201208151345 METAR LMML 151345Z 08006KT 020V120 9999 SCT024 31/24 Q1013
                        NOSIG=
201208151315 METAR LMML 151315Z 04007KT 340V090 9999 SCT023 32/23 Q1013
                        NOSIG=
201208151300 METAR LMML NIL=
201208151245 METAR LMML 151245Z 03008KT 360V100 9999 SCT022 31/23 Q1013
                        NOSIG=
201208151230 METAR LMML NIL=
201208151215 METAR LMML 151215Z 03007KT 340V080 9999 SCT024 32/23 Q1013
                        NOSIG=
201208151200 METAR LMML NIL=
201208151145 METAR LMML 151145Z 03006KT 340V100 9999 SCT026 32/23 Q1013
                        NOSIG=
201208151130 METAR LMML NIL=
201208151115 METAR LMML 151115Z 03007KT 360V070 9999 SCT022 32/23 Q1013
                        NOSIG=
201208151100 METAR LMML NIL=
201208151045 METAR LMML 151045Z 03006KT 330V100 9999 BKN021 31/23 Q1013
                        NOSIG=
201208151030 METAR LMML NIL=
201208151015 METAR LMML 151015Z 02008KT 330V060 CAVOK 31/23 Q1013=
201208151000 METAR LMML NIL=
201208150945 METAR LMML 150945Z 03006KT 350V090 9999 BKN019 30/22 Q1013
                        NOSIG=
201208150930 METAR LMML NIL=
201208150915 METAR LMML 150915Z 06006KT 360V090 9999 BKN018 31/24 Q1013
                        NOSIG=
201208150900 METAR LMML NIL=
201208150845 METAR LMML 150845Z 04006KT 9999 BKN017 31/23 Q1013 NOSIG=
201208150830 METAR LMML NIL=
201208150815 METAR LMML 150815Z 04006KT 350V070 9999 SCT018 30/23 Q1013
                        NOSIG=
201208150800 METAR LMML NIL=
201208150745 METAR LMML 150745Z 03006KT 360V090 9999 SCT017 29/23 Q1013
                        NOSIG=
201208150730 METAR LMML NIL=
201208150715 METAR LMML 150715Z 03006KT 9999 SCT015 28/23 Q1013 NOSIG=
201208150700 METAR LMML NIL=
201208150645 METAR LMML 150645Z 02005KT 350V050 9999 SCT013 28/23 Q1013
                        NOSIG=
201208150630 METAR LMML NIL=
201208150615 METAR LMML 150615Z 04005KT 7000 SCT013 28/24 Q1013 BECMG
                        9999 RMK HAZE=
201208150600 METAR LMML NIL=
201208150545 METAR LMML 150545Z 03003KT 7000 SCT012 26/24 Q1012 BECMG
                        9999=
201208150530 METAR LMML NIL=
201208150515 METAR LMML 150515Z VRB01KT 7000 SCT015 25/24 Q1012 BECMG
                        9999=
201208150500 METAR LMML NIL=
201208150445 METAR LMML 150445Z VRB02KT 7000 SCT013 24/24 Q1012 TEMPO
                        5000 BR BKN008=
201208150430 METAR LMML NIL=
201208150415 METAR LMML 150415Z 29003KT 6000 SCT011 25/24 Q1012 TEMPO
                        5000 BR=
201208150400 METAR LMML NIL=
201208150345 METAR LMML 150345Z 29003KT 6000 SCT009 25/24 Q1012 TEMPO
                        5000 BR=
201208150330 METAR LMML NIL=
201208150315 METAR LMML 150315Z 30003KT 6000 BKN007 25/24 Q1012 TEMPO
                        5000 BR=
201208150300 METAR LMML NIL=
201208150245 METAR LMML 150245Z VRB01KT 9000 SCT007 25/24 Q1012 BECMG
                        BKN005=
201208150230 METAR LMML NIL=
201208150215 METAR LMML 150215Z VRB01KT 9000 FEW008 25/24 Q1011 BECMG
                        BKN005=
201208150200 METAR LMML NIL=
201208150145 METAR LMML 150145Z 36003KT 9000 SCT007 26/25 Q1012 BECMG
                        BKN005=
201208150130 METAR LMML NIL=
201208150115 METAR LMML 150115Z 01003KT 9000 BKN006 26/25 Q1012 BECMG
                        BKN005=
201208150100 METAR LMML NIL=
201208150045 METAR LMML 150045Z 36004KT 9000 SCT006 26/25 Q1012 BECMG
                        BKN005=
201208150030 METAR LMML NIL=
201208150015 METAR LMML 150015Z 01004KT 9000 BKN006 26/25 Q1012 BECMG
                        BKN005=
201208150000 METAR LMML NIL=
201208142345 METAR LMML 142345Z 01005KT 320V040 9999 SCT008 26/25 Q1012
                        BECMG BKN005=
201208142315 METAR LMML 142315Z 36005KT 9999 SCT007 26/25 Q1012 BECMG
                        BKN005=
201208142300 METAR LMML NIL=
201208142245 METAR LMML 142245Z 35007KT 9999 SCT007 26/25 Q1013 BECMG
                        BKN005=
201208142215 METAR LMML 142215Z 35005KT 9999 SCT007 27/25 Q1013 BECMG
                        BKN005=
201208142200 METAR LMML NIL=
201208142145 METAR LMML 142145Z 34005KT 9999 FEW007 27/25 Q1013 NOSIG=
201208142130 METAR LMML NIL=
201208142115 METAR LMML 142115Z 34006KT 9999 FEW012 27/25 Q1013 NOSIG=
201208142100 METAR LMML NIL=
201208142045 METAR LMML 142045Z 34006KT 9999 FEW012 27/25 Q1013 NOSIG=
201208142030 METAR LMML NIL=
201208142015 METAR LMML 142015Z 31005KT 9999 FEW012 27/25 Q1013 NOSIG=
201208142000 METAR LMML NIL=
201208141945 METAR LMML 141945Z 32005KT CAVOK 27/24 Q1012 NOSIG=
201208141930 METAR LMML NIL=
201208141915 METAR LMML 141915Z 32004KT CAVOK 28/24 Q1012 NOSIG=
201208141900 METAR LMML NIL=
201208141845 METAR LMML 141845Z VRB02KT CAVOK 28/25 Q1012 NOSIG=
201208141815 METAR LMML 141815Z 07003KT CAVOK 28/25 Q1012 NOSIG=
201208141800 METAR LMML NIL=
201208141745 METAR LMML 141745Z 05004KT CAVOK 29/24 Q1011 NOSIG=
201208141730 METAR LMML NIL=
201208141715 METAR LMML 141715Z VRB02KT CAVOK 30/21 Q1011 NOSIG=
201208141700 METAR LMML NIL=
201208141645 METAR LMML 141645Z VRB02KT CAVOK 31/22 Q1011 NOSIG=
201208141630 METAR LMML NIL=
201208141615 METAR LMML 141615Z 18003KT CAVOK 32/22 Q1011 NOSIG=
201208141600 METAR LMML NIL=
201208141545 METAR LMML 141545Z 17005KT 130V250 CAVOK 32/21 Q1011 NOSIG=
201208141530 METAR LMML NIL=
201208141515 METAR LMML 141515Z 18006KT 140V230 CAVOK 32/21 Q1011 NOSIG=
201208141500 METAR LMML NIL=
201208141445 METAR LMML 141445Z 18005KT 080V240 CAVOK 32/22 Q1011 NOSIG=
201208141430 METAR LMML NIL=
201208141415 METAR LMML 141415Z 17007KT 140V220 CAVOK 32/22 Q1011 NOSIG=
201208141400 METAR LMML NIL=
201208141345 METAR LMML 141345Z 17006KT 140V230 CAVOK 32/22 Q1011 NOSIG=
201208141330 METAR LMML NIL=
201208141315 METAR LMML 141315Z 16006KT 130V190 CAVOK 32/23 Q1011 NOSIG=
201208141300 METAR LMML NIL=
201208141245 METAR LMML 141245Z 17005KT 120V260 CAVOK 32/23 Q1011 NOSIG=
201208141230 METAR LMML NIL=
201208141215 METAR LMML 141215Z 17005KT 120V250 CAVOK 32/23 Q1012 NOSIG=
201208141200 METAR LMML NIL=
201208141145 METAR LMML 141145Z 19006KT 140V250 9999 FEW015 31/24 Q1012
                        NOSIG=
201208141130 METAR LMML NIL=
201208141115 METAR LMML 141115Z 18006KT 130V260 9999 FEW015 32/24 Q1012
                        NOSIG=
201208141100 METAR LMML NIL=
201208141045 METAR LMML 141045Z 19006KT 140V250 9999 FEW015 31/24 Q1012
                        NOSIG=
201208141030 METAR LMML NIL=
201208141015 METAR LMML 141015Z 18005KT 130V240 9999 FEW015 31/24 Q1012
                        BECMG CAVOK=
201208141000 METAR LMML NIL=
201208140945 METAR LMML 140945Z 19006KT 120V240 9999 FEW015 31/24 Q1012
                        BECMG CAVOK=
201208140930 METAR LMML NIL=
201208140915 METAR LMML 140915Z 20005KT 150V250 9999 FEW012 31/23 Q1013
                        BECMG CAVOK=
201208140900 METAR LMML NIL=
201208140845 METAR LMML 140845Z 19004KT 130V270 9999 FEW012 31/24 Q1012
                        BECMG CAVOK=
201208140830 METAR LMML NIL=
201208140815 METAR LMML 140815Z VRB02KT 9999 FEW012 31/23 Q1012 BECMG
                        CAVOK=
201208140800 METAR LMML NIL=
201208140745 METAR LMML 140745Z VRB02KT 9999 FEW010 29/23 Q1012 BECMG
                        CAVOK=
201208140730 METAR LMML NIL=
201208140715 METAR LMML 140715Z VRB02KT 9999 FEW008 28/24 Q1012 BECMG
                        CAVOK=
201208140700 METAR LMML NIL=
201208140645 METAR LMML 140645Z 23004KT 9999 SCT008 28/25 Q1012 NOSIG=
201208140630 METAR LMML NIL=
201208140615 METAR LMML 140615Z VRB02KT 9000 SCT006 27/25 Q1012 BECMG
                        9999=
201208140600 METAR LMML NIL=
201208140545 METAR LMML 140545Z 24006KT 210V270 9000 BKN005 26/26 Q1012
                        BECMG 9999 BKN009=
201208140530 METAR LMML NIL=
201208140515 METAR LMML 140515Z 22003KT 7000 BKN004 26/26 Q1012 BECMG
                        BKN006=
201208140500 METAR LMML NIL=
201208140445 METAR LMML 140445Z VRB02KT 7000 BKN004 26/26 Q1012 TEMPO
                        5000 BR=
201208140430 METAR LMML NIL=
201208140415 METAR LMML 140415Z 21003KT 7000 BKN005 26/25 Q1012 TEMPO
                        5000 BR=
201208140400 METAR LMML NIL=
201208140345 METAR LMML 140345Z 20005KT 160V230 9999 BKN006 26/25 Q1012
                        TEMPO 9000 BKN005=
201208140330 METAR LMML NIL=
201208140315 METAR LMML 140315Z 21005KT 170V250 9999 FEW007 26/25 Q1012
                        NOSIG=
201208140300 METAR LMML NIL=
201208140245 METAR LMML 140245Z 21003KT 9999 FEW012 26/24 Q1012 NOSIG=
201208140230 METAR LMML NIL=
201208140215 METAR LMML 140215Z 21004KT 140V250 CAVOK 26/24 Q1012 NOSIG=
201208140200 METAR LMML NIL=
201208140145 METAR LMML 140145Z 20004KT 150V240 CAVOK 26/24 Q1012 NOSIG=
201208140130 METAR LMML NIL=
201208140115 METAR LMML 140115Z 21006KT 170V250 CAVOK 26/24 Q1012 NOSIG=
201208140100 METAR LMML NIL=
201208140045 METAR LMML 140045Z 20005KT 160V240 CAVOK 26/24 Q1012 NOSIG=
201208140030 METAR LMML NIL=
201208140015 METAR LMML 140015Z 19007KT 160V240 CAVOK 26/23 Q1013 NOSIG=
201208140000 METAR LMML NIL=
201208132345 METAR LMML 132345Z 19006KT 160V230 CAVOK 26/23 Q1013 NOSIG=
201208132330 METAR LMML NIL=
201208132315 METAR LMML 132315Z 17005KT 150V230 CAVOK 26/24 Q1013 NOSIG=
201208132300 METAR LMML NIL=
201208132245 METAR LMML 132245Z 17004KT 140V240 CAVOK 26/24 Q1013 NOSIG=
201208132230 METAR LMML NIL=
201208132215 METAR LMML 132215Z 17007KT 140V220 CAVOK 26/23 Q1013 NOSIG=
201208132200 METAR LMML NIL=
201208132145 METAR LMML 132145Z 17008KT CAVOK 26/23 Q1013 NOSIG=
201208132130 METAR LMML NIL=
201208132115 METAR LMML 132115Z 18010KT CAVOK 26/24 Q1013 NOSIG=
201208132100 METAR LMML NIL=
201208132045 METAR LMML 132045Z 17007KT 140V210 CAVOK 26/24 Q1013 NOSIG=
201208132030 METAR LMML NIL=
201208132015 METAR LMML 132015Z 17007KT 150V210 CAVOK 26/23 Q1013 NOSIG=
201208132000 METAR LMML NIL=
201208131945 METAR LMML 131945Z 17007KT 140V220 CAVOK 26/23 Q1013 NOSIG=
201208131930 METAR LMML NIL=
201208131915 METAR LMML 131915Z 18007KT 150V220 CAVOK 27/23 Q1013 NOSIG=
201208131900 METAR LMML NIL=
201208131845 METAR LMML 131845Z 18009KT 150V220 9999 FEW015 27/23 Q1012
                        NOSIG=
201208131830 METAR LMML NIL=
201208131815 METAR LMML 131815Z 18009KT 150V220 9999 FEW015 27/23 Q1012
                        NOSIG=
201208131800 METAR LMML NIL=
201208131745 METAR LMML 131745Z 18011KT 160V220 9999 FEW015 27/23 Q1012
                        NOSIG=
201208131730 METAR LMML NIL=
201208131715 METAR LMML 131715Z 19009KT 160V240 9999 FEW015 27/23 Q1012
                        NOSIG=
201208131700 METAR LMML NIL=
201208131645 METAR LMML 131645Z 20011KT 160V250 9999 FEW015 28/23 Q1012
                        NOSIG=
201208131630 METAR LMML NIL=
201208131615 METAR LMML 131615Z 19010KT 140V260 9999 FEW015 28/23 Q1012
                        NOSIG=
201208131600 METAR LMML NIL=
201208131545 METAR LMML 131545Z 19012KT 150V260 9999 FEW015 28/23 Q1013
                        NOSIG=
201208131530 METAR LMML NIL=
201208131515 METAR LMML 131515Z 20011KT 160V250 9999 FEW015 29/24 Q1013
                        NOSIG=
201208131500 METAR LMML NIL=
201208131445 METAR LMML 131445Z 20012KT 150V250 9999 FEW014 28/23 Q1013
                        NOSIG=
201208131430 METAR LMML NIL=
201208131415 METAR LMML 131415Z 20014KT 160V250 9999 FEW014 28/23 Q1013
                        NOSIG=
201208131400 METAR LMML NIL=
201208131345 METAR LMML 131345Z 20015KT 150V240 9999 FEW014 29/23 Q1013
                        NOSIG=
201208131330 METAR LMML NIL=
201208131315 METAR LMML 131315Z 19016KT 150V240 9999 FEW014 28/23 Q1013
                        NOSIG=
201208131245 METAR LMML 131245Z 20013KT 150V250 CAVOK 29/23 Q1014 NOSIG=
201208131230 METAR LMML NIL=
201208131215 METAR LMML 131215Z 20013KT 150V250 9999 FEW017 30/24 Q1014
                        NOSIG=
201208131200 METAR LMML NIL=
201208131145 METAR LMML 131145Z 19014KT 150V260 9999 FEW017 29/23 Q1014
                        NOSIG=
201208131130 METAR LMML NIL=
201208131115 METAR LMML 131115Z 20013KT 140V260 9999 FEW017 29/23 Q1014
                        NOSIG=
201208131100 METAR LMML NIL=
201208131045 METAR LMML 131045Z 21012KT 140V250 9999 FEW017 29/23 Q1015
                        NOSIG=
201208131030 METAR LMML NIL=
201208131015 METAR LMML 131015Z 20013KT 150V260 9999 FEW025 29/22 Q1015
                        NOSIG=
201208131000 METAR LMML NIL=
201208130945 METAR LMML 130945Z 19012KT 130V240 9999 FEW025 29/23 Q1014
                        NOSIG=
201208130930 METAR LMML NIL=
201208130915 METAR LMML 130915Z 17012KT 140V230 9999 FEW025 28/22 Q1014
                        NOSIG=
201208130900 METAR LMML NIL=
201208130845 METAR LMML 130845Z 17010KT 140V220 9999 FEW025 28/22 Q1014
                        NOSIG=
201208130830 METAR LMML NIL=
201208130815 METAR LMML 130815Z 18010KT 140V230 9999 FEW020 28/22 Q1015
                        NOSIG=
201208130800 METAR LMML NIL=
201208130745 METAR LMML 130745Z 19010KT 160V250 9999 FEW020 28/22 Q1015
                        NOSIG=
201208130730 METAR LMML NIL=
201208130715 METAR LMML 130715Z 19009KT 150V240 9999 FEW015 28/22 Q1015
                        NOSIG=
201208130700 METAR LMML NIL=
201208130645 METAR LMML 130645Z 18007KT 150V250 9999 FEW015 27/22 Q1015
                        NOSIG=
201208130630 METAR LMML NIL=
201208130615 METAR LMML 130615Z 17007KT 140V240 9999 FEW014 27/22 Q1015
                        NOSIG=
201208130545 METAR LMML 130545Z 18005KT 140V220 9999 FEW013 26/23 Q1015
                        NOSIG=
201208130530 METAR LMML NIL=
201208130515 METAR LMML 130515Z 18006KT 9000 FEW013 26/23 Q1015 NOSIG=
201208130445 METAR LMML 130445Z 18006KT 150V210 9000 FEW020 25/22 Q1014
                        NOSIG=
201208130430 METAR LMML NIL=
201208130415 METAR LMML 130415Z 18007KT CAVOK 25/22 Q1014 NOSIG=
201208130400 METAR LMML NIL=
201208130345 METAR LMML 130345Z 18005KT 150V210 CAVOK 25/21 Q1014 NOSIG=
201208130330 METAR LMML NIL=
201208130315 METAR LMML 130315Z 17005KT CAVOK 25/21 Q1014 NOSIG=
201208130300 METAR LMML NIL=
201208130245 METAR LMML 130245Z 17005KT CAVOK 25/21 Q1014 NOSIG=
201208130230 METAR LMML NIL=
201208130215 METAR LMML 130215Z 16005KT CAVOK 25/21 Q1014 NOSIG=
201208130200 METAR LMML NIL=
201208130145 METAR LMML 130145Z 16004KT CAVOK 25/21 Q1014 NOSIG=
201208130130 METAR LMML NIL=
201208130115 METAR LMML 130115Z 14005KT CAVOK 24/21 Q1014 NOSIG=
201208130100 METAR LMML NIL=
201208130045 METAR LMML 130045Z 12004KT CAVOK 24/21 Q1014 NOSIG=
201208130030 METAR LMML NIL=
201208130015 METAR LMML 130015Z VRB02KT CAVOK 24/21 Q1014 NOSIG=
201208130000 METAR LMML NIL=
201208122345 METAR LMML 122345Z VRB01KT CAVOK 24/21 Q1015 NOSIG=
201208122330 METAR LMML NIL=
201208122315 METAR LMML 122315Z VRB01KT CAVOK 24/21 Q1015 NOSIG=
201208122245 METAR LMML 122245Z VRB01KT CAVOK 25/21 Q1015 NOSIG=
201208122230 METAR LMML NIL=
201208122215 METAR LMML 122215Z VRB01KT CAVOK 25/21 Q1015 NOSIG=
201208122200 METAR LMML NIL=
201208122145 METAR LMML 122145Z 22003KT 9999 FEW015 25/21 Q1015 NOSIG=
201208122130 METAR LMML NIL=
201208122115 METAR LMML 122115Z VRB02KT 9999 FEW015 25/21 Q1015 NOSIG=
201208122100 METAR LMML NIL=
201208122045 METAR LMML 122045Z VRB02KT 9999 FEW015 26/22 Q1015 NOSIG=
201208122030 METAR LMML NIL=
201208122015 METAR LMML 122015Z 02003KT 9999 FEW015 26/22 Q1015 NOSIG=
201208122000 METAR LMML NIL=
201208121945 METAR LMML 121945Z 03004KT 360V070 CAVOK 27/22 Q1015 NOSIG=
201208121930 METAR LMML NIL=
201208121915 METAR LMML 121915Z 02005KT CAVOK 26/22 Q1015 NOSIG=
201208121845 METAR LMML 121845Z 35005KT 330V040 9999 FEW030 27/21 Q1014
                        NOSIG=
201208121830 METAR LMML NIL=
201208121815 METAR LMML 121815Z 36005KT 320V020 9999 FEW030 27/21 Q1014
                        NOSIG=
201208121800 METAR LMML NIL=
201208121745 METAR LMML 121745Z 36006KT 330V030 9999 FEW030 28/21 Q1014
                        NOSIG=
201208121730 METAR LMML NIL=
201208121715 METAR LMML 121715Z 02007KT 9999 FEW030 28/20 Q1014 NOSIG=
201208121700 METAR LMML NIL=
201208121645 METAR LMML 121645Z 01007KT 340V040 9999 FEW031 29/20 Q1014
                        NOSIG=
201208121630 METAR LMML NIL=
201208121615 METAR LMML 121615Z 28003KT 9999 FEW031 29/20 Q1014 NOSIG
                        RMK CB TOP TO NNE=
201208121600 METAR LMML NIL=
201208121545 METAR LMML 121545Z 18004KT 110V250 9999 SCT030 28/20 Q1014
                        NOSIG=
201208121530 METAR LMML NIL=
201208121515 METAR LMML 121515Z 17004KT 110V230 9999 SCT034 30/22 Q1014
                        NOSIG=
201208121500 METAR LMML NIL=
201208121445 METAR LMML 121445Z 25004KT 9999 SCT032 30/21 Q1014 NOSIG=
201208121430 METAR LMML NIL=
201208121415 METAR LMML 121415Z 14005KT 070V250 9999 SCT026 29/21 Q1014
                        NOSIG=
201208121400 METAR LMML NIL=
201208121345 METAR LMML 121345Z 13008KT 090V170 9999 SCT025 29/22 Q1014
                        NOSIG=
201208121330 METAR LMML NIL=
201208121315 METAR LMML 121315Z 07004KT 360V120 9999 BKN025 29/22 Q1014
                        NOSIG=
201208121300 METAR LMML NIL=
201208121245 METAR LMML 121245Z 22006KT 170V280 9999 BKN022 30/23 Q1014
                        NOSIG=
201208121230 METAR LMML NIL=
201208121215 METAR LMML 121215Z 19006KT 110V240 9999 BKN021 28/21 Q1014
                        NOSIG=
201208121200 METAR LMML NIL=
201208121145 METAR LMML 121145Z 15005KT 050V220 9999 BKN022 28/21 Q1014
                        NOSIG=
201208121130 METAR LMML NIL=
201208121115 METAR LMML 121115Z VRB02KT 9999 BKN020 28/22 Q1014 NOSIG=
201208121100 METAR LMML NIL=
201208121045 METAR LMML 121045Z 20004KT 130V360 9999 BKN021 28/22 Q1014
                        NOSIG=
201208121015 METAR LMML 121015Z 23006KT 200V290 9999 BKN019 BKN023 BKN038
                        29/22 Q1014=
201208121000 METAR LMML NIL=
201208120945 METAR LMML 120945Z 19003KT 9999 SCT018 27/22 Q1014 NOSIG=
201208120930 METAR LMML NIL=
201208120915 METAR LMML 120915Z 35003KT 9999 SCT026 29/21 Q1014 NOSIG=
201208120900 METAR LMML NIL=
201208120845 METAR LMML 120845Z 03005KT 310V100 9999 SCT023 30/20 Q1014
                        NOSIG=
201208120830 METAR LMML NIL=
201208120815 METAR LMML 120815Z 04004G15KT 360V080 9999 SCT022 29/20 Q1014
                        NOSIG=
201208120800 METAR LMML NIL=
201208120745 METAR LMML 120745Z 05004KT 320V120 9999 SCT018 30/22 Q1014
                        NOSIG=
201208120730 METAR LMML NIL=
201208120715 METAR LMML 120715Z 04004KT 320V090 9999 SCT017 28/22 Q1013
                        NOSIG=
201208120700 METAR LMML NIL=
201208120645 METAR LMML 120645Z 36003KT 9999 FEW016 27/22 Q1013 NOSIG=
201208120630 METAR LMML NIL=
201208120615 METAR LMML 120615Z VRB01KT 9999 FEW020 27/22 Q1013 NOSIG=
201208120600 METAR LMML NIL=
201208120545 METAR LMML 120545Z VRB02KT 9999 FEW020 25/22 Q1013 NOSIG=
201208120530 METAR LMML NIL=
201208120515 METAR LMML 120515Z 29003KT 9999 FEW020 24/22 Q1013 NOSIG=
201208120500 METAR LMML NIL=
201208120445 METAR LMML 120445Z VRB01KT 9999 FEW020 23/21 Q1013 NOSIG=
201208120430 METAR LMML NIL=
201208120415 METAR LMML 120415Z VRB01KT 9999 SCT020 23/21 Q1013 NOSIG=
201208120400 METAR LMML NIL=
201208120345 METAR LMML 120345Z VRB02KT 9999 FEW015 23/21 Q1012 NOSIG=
201208120330 METAR LMML NIL=
201208120315 METAR LMML 120315Z VRB02KT CAVOK 23/21 Q1012 NOSIG=
201208120300 METAR LMML NIL=
201208120245 METAR LMML 120245Z VRB01KT 9999 FEW012 23/21 Q1012 NOSIG=
201208120230 METAR LMML NIL=
201208120215 METAR LMML 120215Z VRB01KT CAVOK 24/21 Q1012 NOSIG=
201208120200 METAR LMML NIL=
201208120145 METAR LMML 120145Z VRB01KT CAVOK 24/21 Q1012 NOSIG=
201208120130 METAR LMML NIL=
201208120115 METAR LMML 120115Z VRB01KT CAVOK 24/21 Q1012 NOSIG=
201208120100 METAR LMML NIL=
201208120045 METAR LMML 120045Z VRB02KT 9999 FEW012 24/22 Q1012 NOSIG=
201208120030 METAR LMML NIL=
201208120015 METAR LMML 120015Z VRB01KT 9999 FEW012 24/22 Q1012 NOSIG=
201208120000 METAR LMML NIL=
201208112345 METAR LMML 112345Z 00000KT 9999 FEW015 25/22 Q1012 NOSIG=
201208112330 METAR LMML NIL=
201208112315 METAR LMML 112315Z VRB02KT 9999 FEW015 25/22 Q1012 NOSIG=
201208112300 METAR LMML NIL=
201208112245 METAR LMML 112245Z 24003KT 9999 FEW015 25/22 Q1012 NOSIG=
201208112230 METAR LMML NIL=
201208112215 METAR LMML 112215Z VRB02KT CAVOK 25/22 Q1012 NOSIG=
201208112200 METAR LMML NIL=
201208112145 METAR LMML 112145Z VRB02KT CAVOK 26/22 Q1012 NOSIG=
201208112130 METAR LMML NIL=
201208112115 METAR LMML 112115Z 22003KT CAVOK 25/22 Q1012 NOSIG=
201208112100 METAR LMML NIL=
201208112045 METAR LMML 112045Z VRB01KT 9999 FEW020 26/22 Q1012 NOSIG=
201208112030 METAR LMML NIL=
201208112015 METAR LMML 112015Z VRB02KT 9999 FEW020 26/23 Q1012 NOSIG=
201208112000 METAR LMML NIL=
201208111945 METAR LMML 111945Z 31003KT 9999 FEW020 26/23 Q1012 NOSIG=
201208111930 METAR LMML NIL=
201208111915 METAR LMML 111915Z 35006KT 310V020 9999 SCT021 27/22 Q1012
                        NOSIG=
201208111900 METAR LMML NIL=
201208111845 METAR LMML 111845Z 01007KT 9999 SCT021 27/22 Q1012 NOSIG=
201208111830 METAR LMML NIL=
201208111815 METAR LMML 111815Z 34007KT 310V020 9999 SCT022 27/22 Q1012
                        NOSIG=
201208111800 METAR LMML NIL=
201208111745 METAR LMML 111745Z 02006KT 330V050 9999 FEW034 28/21 Q1011
                        NOSIG=
201208111730 METAR LMML NIL=
201208111715 METAR LMML 111715Z VRB02KT 9999 SCT026 28/21 Q1011 NOSIG=
201208111700 METAR LMML NIL=
201208111645 METAR LMML 111645Z 22003KT 9999 FEW029 30/22 Q1011 NOSIG=
201208111630 METAR LMML NIL=
201208111615 METAR LMML 111615Z 23003KT 9999 FEW030 30/22 Q1011 NOSIG
                        RMK CB TO NORTHEAST=
201208111600 METAR LMML NIL=
201208111545 METAR LMML 111545Z 23006KT 190V270 9999 FEW030 29/20 Q1011
                        NOSIG RMK CB TO NORTH=
201208111530 METAR LMML NIL=
201208111515 METAR LMML 111515Z VRB02KT 9999 FEW030 30/20 Q1011 NOSIG
                        RMK CB TOP TO NORTH=
201208111445 METAR LMML 111445Z 02005KT 340V100 9999 FEW035 31/20 Q1011
                        NOSIG=
201208111430 METAR LMML NIL=
201208111415 METAR LMML 111415Z 02006KT 330V060 9999 FEW035 32/20 Q1011
                        NOSIG=
201208111400 METAR LMML NIL=
201208111345 METAR LMML 111345Z 06006KT 020V110 9999 FEW035 31/20 Q1011
                        NOSIG=
201208111330 METAR LMML NIL=
201208111315 METAR LMML 111315Z 06008KT 340V130 9999 FEW035 31/21 Q1011
                        NOSIG RMK CB TOP TO NORTH=
201208111300 METAR LMML NIL=
201208111245 METAR LMML 111245Z 06006KT 350V140 9999 FEW030 31/21 Q1011
                        NOSIG=
201208111230 METAR LMML NIL=
201208111215 METAR LMML 111215Z 09008KT 040V110 9999 FEW031 30/20 Q1011
                        NOSIG RMK CB TOP TO NORTHEAST=
201208111200 METAR LMML NIL=
201208111145 METAR LMML 111145Z 10006KT 050V140 9999 FEW020 31/20 Q1011
                        NOSIG=
201208111130 METAR LMML NIL=
201208111115 METAR LMML 111115Z 10005KT 020V170 CAVOK 30/18 Q1011=
201208111045 METAR LMML 111045Z 10006KT 040V180 9999 FEW020 31/18 Q1012
                        NOSIG=
201208111015 METAR LMML 111015Z 10006KT 040V150 9999 FEW020 31/19 Q1012
                        NOSIG=
201208111000 METAR LMML NIL=
201208110945 METAR LMML 110945Z 09008KT 040V130 9999 FEW020 30/18 Q1012
                        NOSIG=
201208110930 METAR LMML NIL=
201208110915 METAR LMML 110915Z 08008KT 010V140 9999 FEW015 29/18 Q1012
                        NOSIG=
201208110900 METAR LMML NIL=
201208110845 METAR LMML 110845Z 07008KT 020V110 9999 FEW015 30/21 Q1011
                        NOSIG=
201208110830 METAR LMML NIL=
201208110815 METAR LMML 110815Z 08009KT 040V110 9999 FEW015 29/19 Q1011
                        NOSIG=
201208110800 METAR LMML NIL=
201208110745 METAR LMML 110745Z 08009KT 050V110 9999 FEW015 28/20 Q1011
                        TEMPO CAVOK=
201208110730 METAR LMML NIL=
201208110715 METAR LMML 110715Z 08008KT 9999 FEW015 28/20 Q1011 TEMPO
                        CAVOK=
201208110700 METAR LMML NIL=
201208110645 METAR LMML 110645Z 08007KT 040V140 9999 FEW015 28/20 Q1011
                        NOSIG=
201208110630 METAR LMML NIL=
201208110615 METAR LMML 110615Z 08006KT 050V160 9999 FEW015 27/22 Q1011
                        NOSIG=
201208110600 METAR LMML NIL=
201208110545 METAR LMML 110545Z 09005KT 030V140 9999 FEW015 26/22 Q1011
                        NOSIG=
201208110530 METAR LMML NIL=
201208110515 METAR LMML 110515Z 08004KT 9999 FEW015 25/22 Q1011 NOSIG=
201208110500 METAR LMML NIL=
201208110445 METAR LMML 110445Z 07003KT 9999 FEW015 25/21 Q1011 NOSIG=
201208110430 METAR LMML NIL=
201208110415 METAR LMML 110415Z VRB02KT CAVOK 24/21 Q1010 NOSIG=
201208110400 METAR LMML NIL=
201208110345 METAR LMML 110345Z 06004KT CAVOK 24/22 Q1010 NOSIG=
201208110330 METAR LMML NIL=
201208110315 METAR LMML 110315Z VRB01KT CAVOK 24/22 Q1010 NOSIG=
201208110245 METAR LMML 110245Z 33003KT CAVOK 24/22 Q1011 NOSIG=
201208110230 METAR LMML NIL=
201208110215 METAR LMML 110215Z 35003KT CAVOK 24/21 Q1011 NOSIG=
201208110200 METAR LMML NIL=
201208110145 METAR LMML 110145Z VRB02KT CAVOK 24/21 Q1011 NOSIG=
201208110130 METAR LMML NIL=
201208110115 METAR LMML 110115Z VRB02KT CAVOK 24/21 Q1011 NOSIG=
201208110100 METAR LMML NIL=
201208110045 METAR LMML 110045Z VRB02KT CAVOK 24/20 Q1011 NOSIG=
201208110030 METAR LMML NIL=
201208110015 METAR LMML 110015Z VRB02KT CAVOK 25/20 Q1011 NOSIG=
201208110000 METAR LMML NIL=
201208102345 METAR LMML 102345Z 24004KT 210V270 CAVOK 25/19 Q1011 NOSIG=
201208102330 METAR LMML NIL=
201208102315 METAR LMML 102315Z 22003KT CAVOK 25/19 Q1012 NOSIG=
201208102245 METAR LMML 102245Z 23003KT CAVOK 25/19 Q1012 NOSIG=
201208102230 METAR LMML NIL=
201208102215 METAR LMML 102215Z VRB01KT CAVOK 25/19 Q1012 NOSIG=
201208102200 METAR LMML NIL=
201208102145 METAR LMML 102145Z VRB01KT CAVOK 25/19 Q1012 NOSIG=
201208102130 METAR LMML NIL=
201208102115 METAR LMML 102115Z VRB02KT CAVOK 25/19 Q1012 NOSIG=
201208102045 METAR LMML 102045Z VRB02KT CAVOK 25/20 Q1013 NOSIG=
201208102030 METAR LMML NIL=
201208102015 METAR LMML 102015Z VRB01KT CAVOK 25/20 Q1012 NOSIG=
201208101945 METAR LMML 101945Z VRB02KT CAVOK 26/20 Q1013 NOSIG=
201208101930 METAR LMML NIL=
201208101915 METAR LMML 101915Z 26004KT 230V290 9999 FEW008 26/20 Q1013
                        NOSIG=
201208101900 METAR LMML NIL=
201208101845 METAR LMML 101845Z 28004KT 240V320 CAVOK 26/20 Q1012 NOSIG=
201208101830 METAR LMML NIL=
201208101815 METAR LMML 101815Z 30005KT 250V320 CAVOK 27/21 Q1012 NOSIG=
201208101800 METAR LMML NIL=
201208101745 METAR LMML 101745Z 32006KT 300V360 CAVOK 28/20 Q1012 NOSIG=
201208101730 METAR LMML NIL=
201208101715 METAR LMML 101715Z 34008KT 310V010 CAVOK 28/20 Q1012 NOSIG=
201208101700 METAR LMML NIL=
201208101645 METAR LMML 101645Z 33008KT 300V360 CAVOK 29/21 Q1012 NOSIG=
201208101615 METAR LMML 101615Z 35008KT 320V020 CAVOK 31/20 Q1012 NOSIG=
201208101600 METAR LMML NIL=
201208101545 METAR LMML 101545Z 33006KT 280V050 CAVOK 31/20 Q1012 NOSIG=
201208101530 METAR LMML NIL=
201208101515 METAR LMML 101515Z 30006KT 240V360 CAVOK 32/17 Q1013 NOSIG=
201208101500 METAR LMML NIL=
201208101445 METAR LMML 101445Z 33008KT 270V010 CAVOK 32/13 Q1013 NOSIG=
201208101430 METAR LMML NIL=
201208101415 METAR LMML 101415Z 29008KT 250V360 CAVOK 32/17 Q1013 NOSIG=
201208101400 METAR LMML NIL=
201208101345 METAR LMML 101345Z 27006KT 190V030 CAVOK 32/18 Q1013 NOSIG=
201208101330 METAR LMML NIL=
201208101315 METAR LMML 101315Z 36006KT 310V070 CAVOK 33/21 Q1013 NOSIG=
201208101300 METAR LMML NIL=
201208101245 METAR LMML 101245Z 27004KT CAVOK 34/20 Q1013 NOSIG=
201208101230 METAR LMML NIL=
201208101215 METAR LMML 101215Z 23004KT CAVOK 33/21 Q1013 NOSIG=
201208101200 METAR LMML NIL=
201208101145 METAR LMML 101145Z 22009KT 190V260 9999 FEW020 32/16 Q1014
                        NOSIG=
201208101130 METAR LMML NIL=
201208101115 METAR LMML 101115Z 23007KT 170V310 CAVOK 32/19 Q1014 NOSIG=
201208101100 METAR LMML NIL=
201208101045 METAR LMML 101045Z 20008KT 150V250 CAVOK 32/15 Q1014 NOSIG=
201208101030 METAR LMML NIL=
201208101015 METAR LMML 101015Z 22007KT 140V270 CAVOK 32/15 Q1014 NOSIG=
201208101000 METAR LMML NIL=
201208100945 METAR LMML 100945Z 21005KT 160V270 CAVOK 32/15 Q1014 NOSIG=
201208100915 METAR LMML 100915Z 19006KT 120V260 CAVOK 32/16 Q1015 NOSIG=
201208100900 METAR LMML NIL=
201208100845 METAR LMML 100845Z VRB02KT CAVOK 32/15 Q1015 NOSIG=
201208100830 METAR LMML NIL=
201208100815 METAR LMML 100815Z 27003KT CAVOK 30/17 Q1015 NOSIG=
201208100800 METAR LMML NIL=
201208100745 METAR LMML 100745Z 29004KT 220V360 CAVOK 30/21 Q1015 NOSIG=
201208100730 METAR LMML NIL=
201208100715 METAR LMML 100715Z 32004KT 280V010 9999 FEW015 29/21 Q1015
                        NOSIG=
201208100700 METAR LMML NIL=
201208100645 METAR LMML 100645Z 30005KT 280V340 9999 FEW011 28/22 Q1015
                        NOSIG=
201208100630 METAR LMML NIL=
201208100615 METAR LMML 100615Z 31005KT 9999 FEW012 27/23 Q1015 NOSIG=
201208100600 METAR LMML NIL=
201208100545 METAR LMML 100545Z 30004KT 270V350 9999 FEW012 26/23 Q1015
                        NOSIG=
201208100530 METAR LMML NIL=
201208100515 METAR LMML 100515Z 30003KT 9999 FEW012 25/23 Q1014 NOSIG=
201208100500 METAR LMML NIL=
201208100445 METAR LMML 100445Z 29003KT CAVOK 25/23 Q1014 NOSIG=
201208100430 METAR LMML NIL=
201208100415 METAR LMML 100415Z 31003KT CAVOK 25/23 Q1014 NOSIG=
201208100400 METAR LMML NIL=
201208100345 METAR LMML 100345Z 34004KT CAVOK 25/23 Q1014 NOSIG=
201208100330 METAR LMML NIL=
201208100315 METAR LMML 100315Z 34005KT 9999 FEW011 25/24 Q1014 NOSIG=
201208100300 METAR LMML NIL=
201208100245 METAR LMML 100245Z 35006KT 9999 FEW012 26/24 Q1014 NOSIG=
201208100230 METAR LMML NIL=
201208100215 METAR LMML 100215Z 35003KT 9999 FEW010 25/23 Q1014 NOSIG=
201208100200 METAR LMML NIL=
201208100145 METAR LMML 100145Z 01004KT 9999 FEW010 25/24 Q1014 TEMPO
                        9000=
201208100130 METAR LMML NIL=
201208100115 METAR LMML 100115Z 01004KT 7000 SCT009 26/24 Q1014 TEMPO
                        BKN008=
201208100100 METAR LMML NIL=
201208100045 METAR LMML 100045Z 02004KT 7000 SCT007 26/25 Q1014 TEMPO
                        BKN006=
201208100030 METAR LMML NIL=
201208100015 METAR LMML 100015Z 04004KT 010V070 7000 SCT007 26/25 Q1014
                        TEMPO BKN006=
201208100000 METAR LMML NIL=
201208092345 METAR LMML 092345Z 04004KT 010V070 7000 FEW009 26/24 Q1014
                        NOSIG=
201208092330 METAR LMML NIL=
201208092315 METAR LMML 092315Z 05003KT 7000 FEW009 27/24 Q1014 NOSIG=
201208092300 METAR LMML NIL=
201208092245 METAR LMML 092245Z 03004KT 010V070 7000 SCT009 27/25 Q1014
                        NOSIG RMK MIST=
201208092230 METAR LMML NIL=
201208092215 METAR LMML 092215Z 02003KT 6000 FEW009 27/24 Q1014 NOSIG
                        RMK MIST=
201208092200 METAR LMML NIL=
201208092145 METAR LMML 092145Z VRB02KT 7000 SCT009 27/25 Q1015 NOSIG=
201208092130 METAR LMML NIL=
201208092115 METAR LMML 092115Z VRB02KT 7000 BKN009 27/25 Q1015 NOSIG=
201208092100 METAR LMML NIL=
201208092045 METAR LMML 092045Z 01004KT 5000 BR SCT008 27/25 Q1015 NOSIG=
201208092030 METAR LMML NIL=
201208092015 METAR LMML 092015Z 02004KT 9999 SCT011 27/25 Q1014 NOSIG=
201208092000 METAR LMML NIL=
201208091945 METAR LMML 091945Z 36005KT 9999 FEW015 27/25 Q1015 NOSIG=
201208091930 METAR LMML NIL=
201208091915 METAR LMML 091915Z 34007KT 9999 FEW015 27/25 Q1014 NOSIG=
201208091900 METAR LMML NIL=
201208091845 METAR LMML 091845Z 34006KT 9999 FEW015 27/25 Q1014 NOSIG=
201208091830 METAR LMML NIL=
201208091815 METAR LMML 091815Z 35007KT 9999 FEW015 28/24 Q1014 NOSIG=
201208091800 METAR LMML NIL=
201208091745 METAR LMML 091745Z 35007KT CAVOK 29/22 Q1014 NOSIG=
201208091730 METAR LMML NIL=
201208091715 METAR LMML 091715Z 34006KT 280V010 CAVOK 28/23 Q1014 NOSIG=
201208091700 METAR LMML NIL=
201208091645 METAR LMML 091645Z 35008KT 320V030 CAVOK 31/24 Q1014 NOSIG=
201208091615 METAR LMML 091615Z 32011KT CAVOK 29/22 Q1014 NOSIG=
201208091600 METAR LMML NIL=
201208091545 METAR LMML 091545Z 35011KT 310V010 CAVOK 32/20 Q1014 NOSIG=
201208091530 METAR LMML NIL=
201208091515 METAR LMML 091515Z 33011KT 300V010 CAVOK 33/19 Q1014 NOSIG=
201208091500 METAR LMML NIL=
201208091445 METAR LMML 091445Z 33011KT CAVOK 33/22 Q1014 NOSIG=
201208091430 METAR LMML NIL=
201208091415 METAR LMML 091415Z 31010KT 280V360 CAVOK 34/21 Q1014 NOSIG=
201208091400 METAR LMML NIL=
201208091345 METAR LMML 091345Z 31010KT 280V350 CAVOK 35/22 Q1014 NOSIG=
201208091330 METAR LMML NIL=
201208091315 METAR LMML 091315Z 33008KT 290V010 CAVOK 34/22 Q1014 NOSIG=
201208091300 METAR LMML NIL=
201208091245 METAR LMML 091245Z 34009KT 300V020 9999 FEW015 34/23 Q1014
                        NOSIG=
201208091230 METAR LMML NIL=
201208091215 METAR LMML 091215Z 33007KT 290V040 9999 FEW015 34/24 Q1015
                        NOSIG=
201208091200 METAR LMML NIL=
201208091145 METAR LMML 091145Z 32007KT 270V010 9999 FEW015 33/24 Q1015
                        NOSIG=
201208091130 METAR LMML NIL=
201208091115 METAR LMML 091115Z 32008KT 270V020 9999 FEW015 34/25 Q1015
                        NOSIG=
201208091100 METAR LMML NIL=
201208091045 METAR LMML 091045Z 33011KT 290V360 9999 FEW015 34/24 Q1015
                        NOSIG=
201208091015 METAR LMML 091015Z 05007KT 020V100 9999 FEW015 33/25 Q1015
                        NOSIG=
201208091000 METAR LMML NIL=
201208090945 METAR LMML 090945Z 06005KT 360V090 9999 FEW015 33/25 Q1015
                        NOSIG=
201208090930 METAR LMML NIL=
201208090915 METAR LMML 090915Z 04007KT 360V080 CAVOK 34/25 Q1015 NOSIG=
201208090900 METAR LMML NIL=
201208090845 METAR LMML 090845Z 36004KT 270V060 CAVOK 37/18 Q1015 NOSIG=
201208090830 METAR LMML NIL=
201208090815 METAR LMML 090815Z 30003KT CAVOK 35/19 Q1015 NOSIG=
201208090800 METAR LMML NIL=
201208090745 METAR LMML 090745Z 32003KT CAVOK 33/21 Q1015 NOSIG=
201208090730 METAR LMML NIL=
201208090715 METAR LMML 090715Z VRB02KT CAVOK 31/22 Q1015 NOSIG=
201208090700 METAR LMML NIL=
201208090645 METAR LMML 090645Z VRB02KT CAVOK 29/23 Q1015 NOSIG=
201208090630 METAR LMML NIL=
201208090615 METAR LMML 090615Z VRB02KT CAVOK 29/24 Q1015 NOSIG=
201208090600 METAR LMML NIL=
201208090545 METAR LMML 090545Z VRB02KT CAVOK 28/23 Q1015 NOSIG=
201208090530 METAR LMML NIL=
201208090515 METAR LMML 090515Z VRB01KT CAVOK 27/20 Q1015 NOSIG=
201208090500 METAR LMML NIL=
201208090445 METAR LMML 090445Z 14003KT CAVOK 26/19 Q1014 NOSIG=
201208090430 METAR LMML NIL=
201208090415 METAR LMML 090415Z VRB02KT 9999 FEW008 26/19 Q1014 NOSIG=
201208090400 METAR LMML NIL=
201208090345 METAR LMML 090345Z 33003KT CAVOK 27/18 Q1014 NOSIG=
201208090330 METAR LMML NIL=
201208090315 METAR LMML 090315Z 34004KT 310V020 CAVOK 27/15 Q1014 NOSIG=
201208090300 METAR LMML NIL=
201208090245 METAR LMML 090245Z 24006KT 210V280 CAVOK 28/16 Q1014 NOSIG=
201208090230 METAR LMML NIL=
201208090215 METAR LMML 090215Z 24005KT 200V270 CAVOK 27/22 Q1014 NOSIG=
201208090200 METAR LMML NIL=
201208090145 METAR LMML 090145Z 24007KT 200V280 CAVOK 27/23 Q1014 NOSIG=
201208090130 METAR LMML NIL=
201208090115 METAR LMML 090115Z 23008KT 200V260 9999 FEW006 27/24 Q1014
                        TEMPO 5000 BR BKN005=
201208090100 METAR LMML NIL=
201208090045 METAR LMML 090045Z 22005KT 180V240 9000 NSC 27/23 Q1015 TEMPO
                        5000 BR BKN005=
201208090030 METAR LMML NIL=
201208090015 METAR LMML 090015Z 23004KT 9000 FEW001 26/24 Q1015 TEMPO
                        5000 BR BKN005=
201208090000 METAR LMML NIL=
201208082345 METAR LMML 082345Z 21004KT 180V240 7000 FEW001 26/26 Q1015
                        TEMPO 5000 BR BKN005=
201208082330 METAR LMML NIL=
201208082315 METAR LMML 082315Z 20006KT 170V240 7000 FEW001 27/26 Q1015
                        TEMPO 5000 BR BKN005=
201208082300 METAR LMML NIL=
201208082245 METAR LMML 082245Z 21005KT 160V250 8000 FEW006 27/26 Q1015
                        TEMPO 5000 BR BKN005=
201208082230 METAR LMML NIL=
201208082215 METAR LMML 082215Z 19004KT 160V220 9000 FEW006 27/26 Q1016
                        TEMPO 5000 BR BKN005=
201208082200 METAR LMML NIL=
201208082145 METAR LMML 082145Z VRB01KT 9000 FEW006 27/26 Q1016 TEMPO
                        5000 BR BKN005=
201208082130 METAR LMML NIL=
201208082115 METAR LMML 082115Z 20003KT 9000 FEW006 27/26 Q1016 TEMPO
                        5000 BR BKN005=
201208082100 METAR LMML NIL=
201208082045 METAR LMML 082045Z 19005KT 150V250 CAVOK 28/26 Q1016 NOSIG=
201208082030 METAR LMML NIL=
201208082015 METAR LMML 082015Z 16003KT CAVOK 30/22 Q1016 NOSIG=
201208082000 METAR LMML NIL=
201208081945 METAR LMML 081945Z 15003KT CAVOK 29/22 Q1016 NOSIG=
201208081930 METAR LMML NIL=
201208081915 METAR LMML 081915Z VRB01KT CAVOK 30/15 Q1016 NOSIG=
201208081900 METAR LMML NIL=
201208081845 METAR LMML 081845Z VRB01KT CAVOK 32/10 Q1015 NOSIG=
201208081830 METAR LMML NIL=
201208081815 METAR LMML 081815Z VRB02KT CAVOK 32/10 Q1015 NOSIG=
201208081800 METAR LMML NIL=
201208081745 METAR LMML 081745Z 29004KT CAVOK 33/09 Q1015 NOSIG=
201208081730 METAR LMML NIL=
201208081715 METAR LMML 081715Z 03003KT CAVOK 33/23 Q1015 NOSIG=
201208081700 METAR LMML NIL=
201208081645 METAR LMML 081645Z VRB01KT CAVOK 35/08 Q1015 NOSIG=
201208081630 METAR LMML NIL=
201208081615 METAR LMML 081615Z 22005KT 180V260 CAVOK 35/09 Q1015 NOSIG=
201208081600 METAR LMML NIL=
201208081545 METAR LMML 081545Z 22005KT 180V250 CAVOK 36/09 Q1015 NOSIG=
201208081530 METAR LMML NIL=
201208081515 METAR LMML 081515Z 22005KT 160V270 CAVOK 36/10 Q1015 NOSIG=
201208081500 METAR LMML NIL=
201208081445 METAR LMML 081445Z 23004KT 190V270 CAVOK 36/13 Q1015 NOSIG=
201208081430 METAR LMML NIL=
201208081415 METAR LMML 081415Z 23006KT 170V260 CAVOK 36/14 Q1015 NOSIG=
201208081400 METAR LMML NIL=
201208081345 METAR LMML 081345Z 03005KT 350V090 CAVOK 38/18 Q1016 NOSIG=
201208081330 METAR LMML NIL=
201208081315 METAR LMML 081315Z 20006KT 150V250 CAVOK 36/19 Q1016 NOSIG=
201208081300 METAR LMML NIL=
201208081245 METAR LMML 081245Z 20007KT 150V250 CAVOK 35/19 Q1016 NOSIG=
201208081230 METAR LMML NIL=
201208081215 METAR LMML 081215Z 22006KT 150V260 CAVOK 38/14 Q1016 NOSIG=
201208081200 METAR LMML NIL=
201208081145 METAR LMML 081145Z 19005KT 130V260 CAVOK 39/13 Q1016 NOSIG=
201208081130 METAR LMML NIL=
201208081115 METAR LMML 081115Z 13006KT 080V170 CAVOK 39/14 Q1016 NOSIG=
201208081100 METAR LMML NIL=
201208081045 METAR LMML 081045Z 12004KT 080V170 CAVOK 39/10 Q1016 NOSIG=
201208081030 METAR LMML NIL=
201208081015 METAR LMML 081015Z 01003KT CAVOK 40/10 Q1016 NOSIG=
201208081000 METAR LMML NIL=
201208080945 METAR LMML 080945Z 24003KT CAVOK 40/03 Q1016 NOSIG=
201208080930 METAR LMML NIL=
201208080915 METAR LMML 080915Z 07003KT CAVOK 39/09 Q1016 NOSIG=
201208080900 METAR LMML NIL=
201208080845 METAR LMML 080845Z 06003KT CAVOK 37/13 Q1016 NOSIG=
201208080830 METAR LMML NIL=
201208080815 METAR LMML 080815Z 34003KT CAVOK 35/16 Q1016 NOSIG=
201208080800 METAR LMML NIL=
201208080745 METAR LMML 080745Z 34004KT 300V020 CAVOK 34/18 Q1016 NOSIG=
201208080730 METAR LMML NIL=
201208080715 METAR LMML 080715Z 34004KT 310V010 CAVOK 32/19 Q1016 NOSIG=
201208080700 METAR LMML NIL=
201208080645 METAR LMML 080645Z 32004KT 290V350 CAVOK 31/19 Q1016 NOSIG=
201208080630 METAR LMML NIL=
201208080615 METAR LMML 080615Z 32004KT 280V350 CAVOK 30/20 Q1016 NOSIG=
201208080600 METAR LMML NIL=
201208080545 METAR LMML 080545Z 33003KT CAVOK 28/16 Q1016 NOSIG=
201208080530 METAR LMML NIL=
201208080515 METAR LMML 080515Z 27003KT CAVOK 27/16 Q1015 NOSIG=
201208080500 METAR LMML NIL=
201208080445 METAR LMML 080445Z VRB02KT CAVOK 26/14 Q1015 NOSIG=
201208080430 METAR LMML NIL=
201208080415 METAR LMML 080415Z VRB01KT CAVOK 26/13 Q1015 NOSIG=
201208080400 METAR LMML NIL=
201208080345 METAR LMML 080345Z 00000KT CAVOK 27/13 Q1015 NOSIG=
201208080330 METAR LMML NIL=
201208080315 METAR LMML 080315Z VRB01KT CAVOK 29/11 Q1015 NOSIG=
201208080300 METAR LMML NIL=
201208080245 METAR LMML 080245Z 27005KT CAVOK 29/11 Q1015 NOSIG=
201208080230 METAR LMML NIL=
201208080215 METAR LMML 080215Z 26004KT CAVOK 28/10 Q1015 NOSIG=
201208080200 METAR LMML NIL=
201208080145 METAR LMML 080145Z 28003KT CAVOK 28/10 Q1015 NOSIG=
201208080130 METAR LMML NIL=
201208080115 METAR LMML 080115Z 28003KT CAVOK 29/09 Q1015 NOSIG=
201208080100 METAR LMML NIL=
201208080045 METAR LMML 080045Z 28003KT CAVOK 28/09 Q1015 NOSIG=
201208080030 METAR LMML NIL=
201208080015 METAR LMML 080015Z 29003KT CAVOK 29/10 Q1016 NOSIG=
201208080000 METAR LMML NIL=
201208072345 METAR LMML 072345Z 29003KT CAVOK 28/11 Q1016 NOSIG=
201208072330 METAR LMML NIL=
201208072315 METAR LMML 072315Z 28003KT CAVOK 28/14 Q1016 NOSIG=
201208072300 METAR LMML NIL=
201208072245 METAR LMML 072245Z 26003KT CAVOK 27/17 Q1016 NOSIG=
201208072230 METAR LMML NIL=
201208072215 METAR LMML 072215Z 28003KT CAVOK 27/21 Q1016 NOSIG=
201208072200 METAR LMML NIL=
201208072145 METAR LMML 072145Z 31004KT CAVOK 28/21 Q1017 NOSIG=
201208072130 METAR LMML NIL=
201208072115 METAR LMML 072115Z 31004KT 240V360 CAVOK 27/22 Q1017 NOSIG=
201208072100 METAR LMML NIL=
201208072045 METAR LMML 072045Z 32005KT CAVOK 27/23 Q1017 NOSIG=
201208072030 METAR LMML NIL=
201208072015 METAR LMML 072015Z 30004KT CAVOK 28/24 Q1017 NOSIG=
201208072000 METAR LMML NIL=
201208071945 METAR LMML 071945Z 32004KT CAVOK 28/23 Q1017 NOSIG=
201208071930 METAR LMML NIL=
201208071915 METAR LMML 071915Z 33006KT CAVOK 29/22 Q1016 NOSIG=
201208071900 METAR LMML NIL=
201208071845 METAR LMML 071845Z 34004KT 310V030 CAVOK 29/18 Q1016 NOSIG=
201208071830 METAR LMML NIL=
201208071815 METAR LMML 071815Z 36005KT 280V040 CAVOK 31/17 Q1016 NOSIG=
201208071800 METAR LMML NIL=
201208071745 METAR LMML 071745Z 01005KT CAVOK 31/17 Q1016 NOSIG=
201208071730 METAR LMML NIL=
201208071715 METAR LMML 071715Z 02004KT 340V060 CAVOK 32/22 Q1015 NOSIG=
201208071700 METAR LMML NIL=
201208071645 METAR LMML 071645Z 04004KT 010V070 CAVOK 33/19 Q1015 NOSIG=
201208071630 METAR LMML NIL=
201208071615 METAR LMML 071615Z 03005KT CAVOK 34/21 Q1015 NOSIG=
201208071600 METAR LMML NIL=
201208071545 METAR LMML 071545Z VRB02KT CAVOK 34/19 Q1015 NOSIG=
201208071530 METAR LMML NIL=
201208071515 METAR LMML 071515Z 03006KT 360V070 CAVOK 36/19 Q1015 NOSIG=
201208071500 METAR LMML NIL=
201208071445 METAR LMML 071445Z 23006KT CAVOK 37/17 Q1016 NOSIG=
201208071430 METAR LMML NIL=
201208071415 METAR LMML 071415Z 06003KT CAVOK 37/16 Q1015 NOSIG=
201208071400 METAR LMML NIL=
201208071345 METAR LMML 071345Z 05004KT 320V110 CAVOK 36/14 Q1016 NOSIG=
201208071315 METAR LMML 071315Z 04007KT 360V090 CAVOK 37/14 Q1016 NOSIG=
201208071300 METAR LMML NIL=
201208071245 METAR LMML 071245Z 05006KT 010V100 CAVOK 38/11 Q1016 NOSIG=
201208071230 METAR LMML NIL=
201208071215 METAR LMML 071215Z 03004KT 310V140 CAVOK 38/12 Q1016 NOSIG=
201208071200 METAR LMML NIL=
201208071145 METAR LMML 071145Z 07005KT 350V110 CAVOK 37/10 Q1016 NOSIG=
201208071130 METAR LMML NIL=
201208071115 METAR LMML 071115Z 02006KT 350V090 CAVOK 38/16 Q1016 NOSIG=
201208071100 METAR LMML NIL=
201208071045 METAR LMML 071045Z 08006KT 340V150 CAVOK 37/15 Q1016 NOSIG=
201208071030 METAR LMML NIL=
201208071015 METAR LMML 071015Z 13005KT 080V170 CAVOK 36/15 Q1016 NOSIG=
201208071000 METAR LMML NIL=
201208070945 METAR LMML 070945Z 11004KT 040V230 CAVOK 36/20 Q1017 NOSIG=
201208070930 METAR LMML NIL=
201208070915 METAR LMML 070915Z 11005KT 060V150 CAVOK 37/12 Q1016 NOSIG=
201208070900 METAR LMML NIL=
201208070845 METAR LMML 070845Z 06004KT 340V100 CAVOK 36/13 Q1016 NOSIG=
201208070830 METAR LMML NIL=
201208070815 METAR LMML 070815Z 03003KT CAVOK 35/14 Q1016 NOSIG=
201208070800 METAR LMML NIL=
201208070745 METAR LMML 070745Z 01005KT 340V060 CAVOK 34/15 Q1016 NOSIG=
201208070730 METAR LMML NIL=
201208070715 METAR LMML 070715Z 36005KT 290V040 CAVOK 33/15 Q1016 NOSIG=
201208070700 METAR LMML NIL=
201208070645 METAR LMML 070645Z 35003KT CAVOK 31/16 Q1016 NOSIG=
201208070630 METAR LMML NIL=
201208070615 METAR LMML 070615Z 31004KT CAVOK 29/18 Q1016 NOSIG=
201208070600 METAR LMML NIL=
201208070545 METAR LMML 070545Z 32004KT 300V030 CAVOK 29/16 Q1016 NOSIG=
201208070530 METAR LMML NIL=
201208070515 METAR LMML 070515Z 33005KT CAVOK 28/16 Q1016 NOSIG=
201208070500 METAR LMML NIL=
201208070445 METAR LMML 070445Z 34005KT CAVOK 27/16 Q1015 NOSIG=
201208070430 METAR LMML NIL=
201208070415 METAR LMML 070415Z 32004KT CAVOK 26/15 Q1015 NOSIG=
201208070400 METAR LMML NIL=
201208070345 METAR LMML 070345Z 31004KT CAVOK 26/16 Q1015 NOSIG=
201208070330 METAR LMML NIL=
201208070315 METAR LMML 070315Z 33005KT CAVOK 27/17 Q1015 NOSIG=
201208070300 METAR LMML NIL=
201208070245 METAR LMML 070245Z 31004KT CAVOK 27/18 Q1015 NOSIG=
201208070230 METAR LMML NIL=
201208070215 METAR LMML 070215Z 31004KT CAVOK 27/19 Q1015 NOSIG=
201208070200 METAR LMML NIL=
201208070145 METAR LMML 070145Z 31005KT CAVOK 27/18 Q1015 NOSIG=
201208070130 METAR LMML NIL=
201208070115 METAR LMML 070115Z 30004KT CAVOK 27/16 Q1016 NOSIG=
201208070100 METAR LMML NIL=
201208070045 METAR LMML 070045Z 32005KT CAVOK 27/16 Q1016 NOSIG=
201208070030 METAR LMML NIL=
201208070015 METAR LMML 070015Z 31005KT CAVOK 28/16 Q1016 NOSIG=
201208070000 METAR LMML NIL=
201208062345 METAR LMML 062345Z 29006KT CAVOK 28/13 Q1016 NOSIG=
201208062330 METAR LMML NIL=
201208062315 METAR LMML 062315Z 27004KT CAVOK 28/11 Q1016 NOSIG=
201208062300 METAR LMML NIL=
201208062245 METAR LMML 062245Z 29004KT CAVOK 28/11 Q1016 NOSIG=
201208062230 METAR LMML NIL=
201208062215 METAR LMML 062215Z 30005KT CAVOK 28/14 Q1016 NOSIG=
201208062200 METAR LMML NIL=
201208062145 METAR LMML 062145Z 29006KT CAVOK 28/13 Q1016 NOSIG=
201208062130 METAR LMML NIL=
201208062115 METAR LMML 062115Z 29004KT CAVOK 28/10 Q1016 NOSIG=
201208062045 METAR LMML 062045Z VRB02KT CAVOK 27/14 Q1016 NOSIG=
201208062030 METAR LMML NIL=
201208062015 METAR LMML 062015Z 26003KT CAVOK 28/17 Q1016 NOSIG=
201208062000 METAR LMML NIL=
201208061945 METAR LMML 061945Z 23004KT 190V260 CAVOK 28/19 Q1016 NOSIG=
201208061930 METAR LMML NIL=
201208061915 METAR LMML 061915Z 23005KT CAVOK 28/19 Q1016 NOSIG=
201208061900 METAR LMML NIL=
201208061845 METAR LMML 061845Z 24005KT 220V280 CAVOK 28/21 Q1016 NOSIG=
201208061830 METAR LMML NIL=
201208061815 METAR LMML 061815Z 24005KT 210V270 CAVOK 28/22 Q1016 NOSIG=
201208061800 METAR LMML NIL=
201208061745 METAR LMML 061745Z 24004KT CAVOK 29/22 Q1016 NOSIG=
201208061730 METAR LMML NIL=
201208061715 METAR LMML 061715Z 22006KT 180V260 CAVOK 29/18 Q1016 NOSIG=
201208061700 METAR LMML NIL=
201208061645 METAR LMML 061645Z 23006KT CAVOK 31/19 Q1016 NOSIG=
201208061630 METAR LMML NIL=
201208061615 METAR LMML 061615Z 25006KT 220V300 CAVOK 31/18 Q1016 NOSIG=
201208061600 METAR LMML NIL=
201208061545 METAR LMML 061545Z 24007KT 200V280 CAVOK 31/21 Q1016 NOSIG=
201208061530 METAR LMML NIL=
201208061515 METAR LMML 061515Z 24007KT 190V290 CAVOK 32/20 Q1016 NOSIG=
201208061500 METAR LMML NIL=
201208061445 METAR LMML 061445Z 22009KT 170V260 CAVOK 32/20 Q1016 NOSIG=
201208061430 METAR LMML NIL=
201208061415 METAR LMML 061415Z 22009KT 180V260 CAVOK 32/19 Q1016 NOSIG=
201208061400 METAR LMML NIL=
201208061345 METAR LMML 061345Z 22010KT 200V260 CAVOK 32/20 Q1016 NOSIG=
201208061330 METAR LMML NIL=
201208061315 METAR LMML 061315Z 23008KT 200V280 CAVOK 33/19 Q1016 NOSIG=
201208061300 METAR LMML NIL=
201208061245 METAR LMML 061245Z 23010KT 210V270 CAVOK 33/18 Q1016 NOSIG=
201208061230 METAR LMML NIL=
201208061215 METAR LMML 061215Z 23008KT 200V260 CAVOK 33/17 Q1017 NOSIG=
201208061200 METAR LMML NIL=
201208061145 METAR LMML 061145Z 23008KT 190V270 CAVOK 33/19 Q1017 NOSIG=
201208061130 METAR LMML NIL=
201208061115 METAR LMML 061115Z 23006KT 110V290 CAVOK 33/20 Q1017 NOSIG=
201208061100 METAR LMML NIL=
201208061045 METAR LMML 061045Z 23008KT 200V260 CAVOK 32/19 Q1017 NOSIG=
201208061030 METAR LMML NIL=
201208061015 METAR LMML 061015Z 20007KT 150V250 CAVOK 32/20 Q1017 NOSIG=
201208061000 METAR LMML NIL=
201208060945 METAR LMML 060945Z 23007KT 190V270 CAVOK 32/20 Q1017 NOSIG=
201208060930 METAR LMML NIL=
201208060915 METAR LMML 060915Z 20006KT 160V240 CAVOK 31/21 Q1017 NOSIG=
201208060900 METAR LMML NIL=
201208060845 METAR LMML 060845Z 21005KT 140V270 CAVOK 30/21 Q1017 NOSIG=
201208060830 METAR LMML NIL=
201208060815 METAR LMML 060815Z 20007KT 100V320 CAVOK 30/24 Q1017 NOSIG=
201208060800 METAR LMML NIL=
201208060745 METAR LMML 060745Z 17006KT 140V240 CAVOK 29/22 Q1017 NOSIG=
201208060730 METAR LMML NIL=
201208060715 METAR LMML 060715Z 17005KT 130V230 CAVOK 29/23 Q1016 NOSIG=
201208060700 METAR LMML NIL=
201208060645 METAR LMML 060645Z 17005KT 130V220 CAVOK 28/24 Q1016 NOSIG=
201208060630 METAR LMML NIL=
201208060615 METAR LMML 060615Z 14004KT 110V180 8000 NSC 27/24 Q1016 NOSIG=
201208060600 METAR LMML NIL=
201208060545 METAR LMML 060545Z VRB02KT 9000 FEW008 26/23 Q1016 BECMG
                        CAVOK=
201208060530 METAR LMML NIL=
201208060515 METAR LMML 060515Z VRB01KT 9000 FEW008 25/23 Q1016 BECMG
                        CAVOK=
201208060500 METAR LMML NIL=
201208060445 METAR LMML 060445Z VRB01KT 9999 FEW012 24/22 Q1016 NOSIG=
201208060430 METAR LMML NIL=
201208060415 METAR LMML 060415Z VRB01KT 9999 FEW012 24/22 Q1016 NOSIG=
201208060400 METAR LMML NIL=
201208060345 METAR LMML 060345Z VRB01KT CAVOK 24/23 Q1016 NOSIG=
201208060330 METAR LMML NIL=
201208060315 METAR LMML 060315Z VRB02KT CAVOK 24/23 Q1015 NOSIG=
201208060300 METAR LMML NIL=
201208060245 METAR LMML 060245Z 21003KT CAVOK 25/23 Q1015 NOSIG=
201208060230 METAR LMML NIL=
201208060215 METAR LMML 060215Z VRB02KT 9000 NSC 25/22 Q1015 TEMPO CAVOK=
201208060200 METAR LMML NIL=
201208060145 METAR LMML 060145Z 17003KT 9000 NSC 26/22 Q1015 TEMPO CAVOK=
201208060130 METAR LMML NIL=
201208060115 METAR LMML 060115Z 17003KT 7000 NSC 26/22 Q1015 NOSIG=
201208060100 METAR LMML NIL=
201208060045 METAR LMML 060045Z 16004KT 7000 NSC 25/23 Q1015 NOSIG=
201208060030 METAR LMML NIL=
201208060015 METAR LMML 060015Z 16004KT 7000 NSC 26/24 Q1015 NOSIG=
201208060000 METAR LMML NIL=
201208052345 METAR LMML 052345Z 16004KT 140V200 7000 NSC 26/24 Q1016 NOSIG=
201208052330 METAR LMML NIL=
201208052315 METAR LMML 052315Z 16005KT 8000 NSC 26/24 Q1016 NOSIG=
201208052300 METAR LMML NIL=
201208052245 METAR LMML 052245Z 17004KT 8000 NSC 26/24 Q1016 NOSIG=
201208052230 METAR LMML NIL=
201208052215 METAR LMML 052215Z 16004KT 8000 NSC 26/24 Q1016 NOSIG=
201208052200 METAR LMML NIL=
201208052145 METAR LMML 052145Z 16004KT 9000 NSC 26/24 Q1016 NOSIG=
201208052130 METAR LMML NIL=
201208052115 METAR LMML 052115Z VRB02KT CAVOK 26/24 Q1016 BECMG 9000 NSC=
201208052100 METAR LMML NIL=
201208052045 METAR LMML 052045Z 17004KT 140V200 CAVOK 26/24 Q1015 NOSIG=
201208052030 METAR LMML NIL=
201208052015 METAR LMML 052015Z 17005KT CAVOK 26/24 Q1015 NOSIG=
201208052000 METAR LMML NIL=
201208051945 METAR LMML 051945Z 17004KT CAVOK 26/24 Q1015 NOSIG=
201208051930 METAR LMML NIL=
201208051915 METAR LMML 051915Z VRB02KT CAVOK 27/24 Q1015 NOSIG=
201208051900 METAR LMML NIL=
201208051845 METAR LMML 051845Z 18005KT 150V220 CAVOK 27/23 Q1015 NOSIG=
201208051830 METAR LMML NIL=
201208051815 METAR LMML 051815Z 18005KT 150V230 CAVOK 27/24 Q1015 NOSIG=
201208051800 METAR LMML NIL=
201208051745 METAR LMML 051745Z 18007KT 140V240 CAVOK 28/23 Q1014 NOSIG=
201208051730 METAR LMML NIL=
201208051715 METAR LMML 051715Z 18009KT 150V210 CAVOK 28/22 Q1014 NOSIG=
201208051700 METAR LMML NIL=
201208051645 METAR LMML 051645Z 20008KT 160V250 CAVOK 28/22 Q1015 NOSIG=
201208051630 METAR LMML NIL=
201208051615 METAR LMML 051615Z 19007KT 140V260 CAVOK 31/23 Q1015 NOSIG=
201208051600 METAR LMML NIL=
201208051545 METAR LMML 051545Z 21006KT 120V280 CAVOK 31/21 Q1015 NOSIG=
201208051530 METAR LMML NIL=
201208051515 METAR LMML 051515Z 20009KT 150V240 CAVOK 31/21 Q1015 NOSIG=
201208051500 METAR LMML NIL=
201208051445 METAR LMML 051445Z 20010KT 160V250 CAVOK 31/20 Q1015 NOSIG=
201208051430 METAR LMML NIL=
201208051415 METAR LMML 051415Z 20011KT 150V250 CAVOK 31/20 Q1015 NOSIG=
201208051400 METAR LMML NIL=
201208051345 METAR LMML 051345Z 20009KT 130V260 CAVOK 31/21 Q1015 NOSIG=
201208051330 METAR LMML NIL=
201208051315 METAR LMML 051315Z 20010KT 150V260 CAVOK 32/20 Q1015 NOSIG=
201208051300 METAR LMML NIL=
201208051245 METAR LMML 051245Z 20011KT 140V250 CAVOK 31/21 Q1015 NOSIG=
201208051230 METAR LMML NIL=
201208051215 METAR LMML 051215Z 20011KT 150V260 CAVOK 31/21 Q1015 NOSIG=
201208051200 METAR LMML NIL=
201208051145 METAR LMML 051145Z 21009KT 150V270 CAVOK 31/20 Q1016 NOSIG=
201208051130 METAR LMML NIL=
201208051115 METAR LMML 051115Z 19011KT 150V260 CAVOK 30/21 Q1016 NOSIG=
201208051045 METAR LMML 051045Z 20010KT 110V270 CAVOK 31/21 Q1016 NOSIG=
201208051030 METAR LMML NIL=
201208051015 METAR LMML 051015Z 19010KT 160V240 CAVOK 31/19 Q1016 NOSIG=
201208051000 METAR LMML NIL=
201208050945 METAR LMML 050945Z 19011KT 150V230 CAVOK 31/18 Q1015 NOSIG=
201208050930 METAR LMML NIL=
201208050915 METAR LMML 050915Z 18010KT 140V230 CAVOK 30/20 Q1016 NOSIG=
201208050900 METAR LMML NIL=
201208050845 METAR LMML 050845Z 18011KT 130V220 CAVOK 31/20 Q1016 NOSIG=
201208050830 METAR LMML NIL=
201208050815 METAR LMML 050815Z 18009KT 140V220 CAVOK 29/22 Q1015 NOSIG=
201208050800 METAR LMML NIL=
201208050745 METAR LMML 050745Z 18007KT 140V250 CAVOK 29/22 Q1015 NOSIG=
201208050730 METAR LMML NIL=
201208050715 METAR LMML 050715Z 18007KT 150V230 CAVOK 28/23 Q1015 NOSIG=
201208050700 METAR LMML NIL=
201208050645 METAR LMML 050645Z 19006KT 150V260 CAVOK 28/24 Q1015 NOSIG=
201208050630 METAR LMML NIL=
201208050615 METAR LMML 050615Z 18006KT 140V230 CAVOK 27/25 Q1015 NOSIG=
201208050600 METAR LMML NIL=
201208050545 METAR LMML 050545Z 19004KT 130V250 CAVOK 26/25 Q1015 NOSIG=
201208050530 METAR LMML NIL=
201208050515 METAR LMML 050515Z 20004KT 150V270 9000 NSC 26/25 Q1015 BECMG
                        CAVOK=
201208050445 METAR LMML 050445Z 19005KT 150V240 7000 NSC 25/25 Q1014 TEMPO
                        5000 FEW004=
201208050430 METAR LMML NIL=
201208050415 METAR LMML 050415Z 18006KT 140V230 6000 NSC 25/25 Q1014 TEMPO
                        5000 FEW004=
201208050400 METAR LMML NIL=
201208050345 METAR LMML 050345Z 18005KT 140V220 6000 NSC 25/25 Q1014 TEMPO
                        5000 FEW004=
201208050315 METAR LMML 050315Z 18004KT 130V240 7000 NSC 25/25 Q1014 TEMPO
                        5000 FEW004=
201208050300 METAR LMML NIL=
201208050245 METAR LMML 050245Z 18005KT 140V240 7000 NSC 25/25 Q1014 TEMPO
                        5000 FEW004=
201208050230 METAR LMML NIL=
201208050215 METAR LMML 050215Z 19005KT 150V230 7000 NSC 25/25 Q1014 TEMPO
                        5000 FEW004=
201208050200 METAR LMML NIL=
201208050145 METAR LMML 050145Z 20005KT 170V250 7000 NSC 25/25 Q1014 TEMPO
                        5000 FEW004=
201208050130 METAR LMML NIL=
201208050115 METAR LMML 050115Z 20007KT 160V240 7000 NSC 25/25 Q1014 TEMPO
                        5000 FEW004=
201208050100 METAR LMML NIL=
201208050045 METAR LMML 050045Z 19005KT 150V240 7000 NSC 25/25 Q1014 TEMPO
                        5000 FEW004=
201208050030 METAR LMML NIL=
201208050015 METAR LMML 050015Z 19005KT 150V230 7000 NSC 26/25 Q1014 TEMPO
                        5000 FEW004=
201208050000 METAR LMML NIL=
201208042345 METAR LMML 042345Z 18004KT 150V230 7000 NSC 26/24 Q1014 TEMPO
                        5000 FEW004=
201208042330 METAR LMML NIL=
201208042315 METAR LMML 042315Z 17003KT 7000 NSC 26/24 Q1014 TEMPO 5000
                        FEW004=
201208042300 METAR LMML NIL=
201208042245 METAR LMML 042245Z 18004KT 160V220 9000 NSC 26/24 Q1014 TEMPO
                        7000 NSC=
201208042230 METAR LMML NIL=
201208042215 METAR LMML 042215Z 20005KT 160V240 CAVOK 26/24 Q1015 NOSIG=
201208042200 METAR LMML NIL=
201208042145 METAR LMML 042145Z 20006KT 160V240 CAVOK 26/24 Q1015 NOSIG=
201208042130 METAR LMML NIL=
201208042115 METAR LMML 042115Z 20005KT 170V250 CAVOK 26/24 Q1014 NOSIG=
201208042100 METAR LMML NIL=
201208042045 METAR LMML 042045Z 20005KT 160V240 CAVOK 26/24 Q1014 NOSIG=
201208042030 METAR LMML NIL=
201208042015 METAR LMML 042015Z 20005KT 170V240 CAVOK 26/23 Q1015 NOSIG=
201208042000 METAR LMML NIL=
201208041945 METAR LMML 041945Z 20004KT 150V250 CAVOK 26/23 Q1014 NOSIG=
201208041930 METAR LMML NIL=
201208041915 METAR LMML 041915Z 20003KT CAVOK 27/23 Q1014 NOSIG=
201208041900 METAR LMML NIL=
201208041845 METAR LMML 041845Z 22003KT CAVOK 27/23 Q1014 NOSIG=
201208041830 METAR LMML NIL=
201208041815 METAR LMML 041815Z 23004KT 200V260 CAVOK 27/21 Q1014 NOSIG=
201208041800 METAR LMML NIL=
201208041745 METAR LMML 041745Z 24003KT CAVOK 28/21 Q1014 NOSIG=
201208041730 METAR LMML NIL=
201208041715 METAR LMML 041715Z 24006KT 200V270 CAVOK 29/18 Q1014 NOSIG=
201208041700 METAR LMML NIL=
201208041645 METAR LMML 041645Z 23006KT 200V270 CAVOK 31/19 Q1014 NOSIG=
201208041615 METAR LMML 041615Z 23007KT 190V270 CAVOK 31/18 Q1014 NOSIG=
201208041600 METAR LMML NIL=
201208041545 METAR LMML 041545Z 23007KT 200V260 CAVOK 31/17 Q1014 NOSIG=
201208041530 METAR LMML NIL=
201208041515 METAR LMML 041515Z 25007KT 200V290 CAVOK 32/13 Q1014 NOSIG=
201208041500 METAR LMML NIL=
201208041445 METAR LMML 041445Z 25006KT 200V300 CAVOK 32/20 Q1015 NOSIG=
201208041430 METAR LMML NIL=
201208041415 METAR LMML 041415Z 25007KT 210V290 CAVOK 32/18 Q1015 NOSIG=
201208041400 METAR LMML NIL=
201208041345 METAR LMML 041345Z 23007KT 190V280 CAVOK 32/19 Q1015 NOSIG=
201208041330 METAR LMML NIL=
201208041315 METAR LMML 041315Z 25008KT 210V290 CAVOK 32/14 Q1015 NOSIG=
201208041300 METAR LMML NIL=
201208041245 METAR LMML 041245Z 25008KT 200V300 CAVOK 32/20 Q1015 NOSIG=
201208041230 METAR LMML NIL=
201208041215 METAR LMML 041215Z 24008KT 200V290 CAVOK 32/21 Q1015 NOSIG=
201208041200 METAR LMML NIL=
201208041145 METAR LMML 041145Z 24009KT 200V290 CAVOK 31/20 Q1015 NOSIG=
201208041130 METAR LMML NIL=
201208041115 METAR LMML 041115Z 23010KT 160V270 CAVOK 31/16 Q1016 NOSIG=
201208041100 METAR LMML NIL=
201208041045 METAR LMML 041045Z 21008KT 160V260 CAVOK 32/17 Q1016 NOSIG=
201208041030 METAR LMML NIL=
201208041015 METAR LMML 041015Z 21008KT 140V290 CAVOK 31/19 Q1016 NOSIG=
201208041000 METAR LMML NIL=
201208040945 METAR LMML 040945Z 21007KT 170V270 CAVOK 31/19 Q1016 NOSIG=
201208040930 METAR LMML NIL=
201208040915 METAR LMML 040915Z 22008KT 190V270 CAVOK 31/20 Q1015 NOSIG=
201208040900 METAR LMML NIL=
201208040845 METAR LMML 040845Z 23006KT 200V260 CAVOK 29/19 Q1015 NOSIG=
201208040830 METAR LMML NIL=
201208040815 METAR LMML 040815Z 23006KT 180V250 CAVOK 29/20 Q1015 NOSIG=
201208040800 METAR LMML NIL=
201208040745 METAR LMML 040745Z 22005KT 170V270 CAVOK 30/22 Q1015 NOSIG=
201208040730 METAR LMML NIL=
201208040715 METAR LMML 040715Z 22007KT 190V250 CAVOK 28/23 Q1015 NOSIG=
201208040700 METAR LMML NIL=
201208040645 METAR LMML 040645Z 21006KT 150V280 CAVOK 27/24 Q1015 NOSIG=
201208040630 METAR LMML NIL=
201208040615 METAR LMML 040615Z 21005KT 130V250 CAVOK 27/24 Q1015 NOSIG=
201208040600 METAR LMML NIL=
201208040545 METAR LMML 040545Z 21004KT 180V240 CAVOK 26/24 Q1014 NOSIG=
201208040530 METAR LMML NIL=
201208040515 METAR LMML 040515Z 22006KT 180V240 CAVOK 25/24 Q1014 NOSIG=
201208040500 METAR LMML NIL=
201208040445 METAR LMML 040445Z 21004KT 170V240 CAVOK 25/24 Q1014 NOSIG=
201208040430 METAR LMML NIL=
201208040415 METAR LMML 040415Z 22003KT 9000 NSC 24/24 Q1014 NOSIG=
201208040400 METAR LMML NIL=
201208040345 METAR LMML 040345Z 21003KT 9000 NSC 24/24 Q1014 NOSIG=
201208040330 METAR LMML NIL=
201208040315 METAR LMML 040315Z 22003KT 9000 NSC 24/23 Q1014 NOSIG=
201208040300 METAR LMML NIL=
201208040245 METAR LMML 040245Z VRB02KT 9000 NSC 24/23 Q1014 NOSIG=
201208040230 METAR LMML NIL=
201208040215 METAR LMML 040215Z VRB02KT CAVOK 24/23 Q1014 NOSIG=
201208040200 METAR LMML NIL=
201208040145 METAR LMML 040145Z 23003KT CAVOK 24/23 Q1014 NOSIG=
201208040130 METAR LMML NIL=
201208040115 METAR LMML 040115Z 24004KT CAVOK 25/23 Q1015 NOSIG=
201208040100 METAR LMML NIL=
201208040045 METAR LMML 040045Z 23004KT CAVOK 25/23 Q1015 NOSIG=
201208040030 METAR LMML NIL=
201208040015 METAR LMML 040015Z 23005KT CAVOK 25/23 Q1015 NOSIG=
201208040000 METAR LMML NIL=
201208032345 METAR LMML 032345Z 23004KT 210V270 CAVOK 25/23 Q1015 NOSIG=
201208032330 METAR LMML NIL=
201208032315 METAR LMML 032315Z 22003KT CAVOK 25/23 Q1015 NOSIG=
201208032300 METAR LMML NIL=
201208032245 METAR LMML 032245Z 20003KT CAVOK 25/24 Q1015 NOSIG=
201208032230 METAR LMML NIL=
201208032215 METAR LMML 032215Z 21003KT CAVOK 25/23 Q1015 NOSIG=
201208032200 METAR LMML NIL=
201208032145 METAR LMML 032145Z VRB02KT CAVOK 25/23 Q1015 NOSIG=
201208032130 METAR LMML NIL=
201208032115 METAR LMML 032115Z VRB01KT CAVOK 26/23 Q1016 NOSIG=
201208032100 METAR LMML NIL=
201208032045 METAR LMML 032045Z VRB02KT CAVOK 26/23 Q1016 NOSIG=
201208032030 METAR LMML NIL=
201208032015 METAR LMML 032015Z VRB02KT CAVOK 26/23 Q1015 NOSIG=
201208032000 METAR LMML NIL=
201208031945 METAR LMML 031945Z VRB02KT CAVOK 26/23 Q1015 NOSIG=
201208031930 METAR LMML NIL=
201208031915 METAR LMML 031915Z 24003KT CAVOK 27/23 Q1015 NOSIG=
201208031900 METAR LMML NIL=
201208031845 METAR LMML 031845Z 23003KT CAVOK 27/23 Q1015 NOSIG=
201208031830 METAR LMML NIL=
201208031815 METAR LMML 031815Z 23003KT CAVOK 27/23 Q1015 NOSIG=
201208031800 METAR LMML NIL=
201208031745 METAR LMML 031745Z 20003KT CAVOK 28/22 Q1014 NOSIG=
201208031730 METAR LMML NIL=
201208031715 METAR LMML 031715Z 21004KT 170V260 CAVOK 29/22 Q1014 NOSIG=
201208031700 METAR LMML NIL=
201208031645 METAR LMML 031645Z 22005KT 160V260 CAVOK 31/22 Q1014 NOSIG=
201208031630 METAR LMML NIL=
201208031615 METAR LMML 031615Z 22005KT 140V280 CAVOK 31/20 Q1014 NOSIG=
201208031600 METAR LMML NIL=
201208031545 METAR LMML 031545Z 22006KT 120V260 CAVOK 31/20 Q1014 NOSIG=
201208031530 METAR LMML NIL=
201208031515 METAR LMML 031515Z 21006KT 160V250 CAVOK 31/20 Q1014 NOSIG=
201208031500 METAR LMML NIL=
201208031445 METAR LMML 031445Z 22006KT 160V270 CAVOK 32/19 Q1015 NOSIG=
201208031430 METAR LMML NIL=
201208031415 METAR LMML 031415Z 21006KT 150V270 9999 FEW020 31/20 Q1015
                        TEMPO CAVOK=
201208031400 METAR LMML NIL=
201208031345 METAR LMML 031345Z 22006KT 170V260 9999 FEW015 32/22 Q1015
                        TEMPO CAVOK=
201208031330 METAR LMML NIL=
201208031315 METAR LMML 031315Z 22006KT 160V260 CAVOK 32/22 Q1015=
201208031300 METAR LMML NIL=
201208031245 METAR LMML 031245Z 20006KT 130V270 9999 FEW015 31/22 Q1015
                        TEMPO CAVOK=
201208031230 METAR LMML NIL=
201208031215 METAR LMML 031215Z 19006KT 150V240 9999 FEW015 31/22 Q1015
                        TEMPO CAVOK=
201208031200 METAR LMML NIL=
201208031145 METAR LMML 031145Z 20006KT 160V260 9999 FEW015 30/22 Q1016
                        TEMPO CAVOK=
201208031130 METAR LMML NIL=
201208031115 METAR LMML 031115Z 19006KT 130V260 9999 FEW015 30/22 Q1016
                        NOSIG=
201208031045 METAR LMML 031045Z 19006KT 150V250 9999 FEW015 30/23 Q1016
                        NOSIG=
201208031030 METAR LMML NIL=
201208031015 METAR LMML 031015Z 21006KT 150V260 9999 FEW012 31/23 Q1016
                        NOSIG=
201208031000 METAR LMML NIL=
201208030945 METAR LMML 030945Z 20006KT 130V250 9999 FEW012 30/24 Q1016
                        NOSIG=
201208030930 METAR LMML NIL=
201208030915 METAR LMML 030915Z 03004KT 310V110 CAVOK 32/18 Q1016 NOSIG=
201208030900 METAR LMML NIL=
201208030845 METAR LMML 030845Z 05006KT 020V100 CAVOK 32/19 Q1016 NOSIG=
201208030830 METAR LMML NIL=
201208030815 METAR LMML 030815Z 02003KT CAVOK 32/17 Q1016 NOSIG=
201208030800 METAR LMML NIL=
201208030745 METAR LMML 030745Z VRB02KT CAVOK 31/17 Q1015 NOSIG=
201208030730 METAR LMML NIL=
201208030715 METAR LMML 030715Z VRB01KT 9000 NSC 29/20 Q1015 BECMG CAVOK=
201208030700 METAR LMML NIL=
201208030645 METAR LMML 030645Z VRB01KT 9000 NSC 28/22 Q1015 BECMG CAVOK=
201208030630 METAR LMML NIL=
201208030615 METAR LMML 030615Z VRB01KT 6000 NSC 26/24 Q1015 BECMG CAVOK
                        RMK SMOKE=
201208030600 METAR LMML NIL=
201208030545 METAR LMML 030545Z VRB01KT 5000 BR FEW003 25/24 Q1015 BECMG
                        8000 RMK SMOKE TO SOUTHWEST=
201208030530 METAR LMML NIL=
201208030515 METAR LMML 030515Z VRB02KT 3000 BR FEW003 23/23 Q1015 BECMG
                        6000 RMK SMOKE TO SOUTHWEST=
201208030500 METAR LMML NIL=
201208030445 METAR LMML 030445Z VRB01KT 2500 BR FEW003 22/22 Q1015 TEMPO
                        2000 MIFG=
201208030430 METAR LMML NIL=
201208030415 METAR LMML 030415Z 27003KT 3000 BR FEW003 22/22 Q1015 TEMPO
                        2000 MIFG=
201208030400 METAR LMML NIL=
201208030345 METAR LMML 030345Z VRB01KT 4000 BR FEW003 23/23 Q1014 TEMPO
                        2000=
201208030330 METAR LMML NIL=
201208030315 METAR LMML 030315Z VRB01KT 6000 NSC 23/23 Q1014 NOSIG=
201208030300 METAR LMML NIL=
201208030245 METAR LMML 030245Z VRB01KT 6000 FEW003 23/23 Q1014 NOSIG=
201208030230 METAR LMML NIL=
201208030215 METAR LMML 030215Z 32004KT 280V050 6000 FEW003 23/23 Q1015
                        NOSIG=
201208030200 METAR LMML NIL=
201208030145 METAR LMML 030145Z VRB02KT 6000 FEW004 23/23 Q1015 NOSIG=
201208030130 METAR LMML NIL=
201208030115 METAR LMML 030115Z VRB01KT 6000 SCT004 24/23 Q1015 NOSIG=
201208030100 METAR LMML NIL=
201208030045 METAR LMML 030045Z VRB02KT 6000 SCT004 24/23 Q1015 NOSIG=
201208030030 METAR LMML NIL=
201208030015 METAR LMML 030015Z 21003KT 6000 SCT004 24/24 Q1015 NOSIG=
201208030000 METAR LMML NIL=
201208022345 METAR LMML 022345Z 20003KT 6000 SCT004 24/24 Q1015 NOSIG=
201208022330 METAR LMML NIL=
201208022315 METAR LMML 022315Z VRB01KT 8000 FEW004 24/23 Q1015 NOSIG=
201208022300 METAR LMML NIL=
201208022245 METAR LMML 022245Z VRB01KT 9000 NSC 24/23 Q1015 NOSIG=
201208022230 METAR LMML NIL=
201208022215 METAR LMML 022215Z VRB01KT CAVOK 25/23 Q1015 NOSIG=
201208022200 METAR LMML NIL=
201208022145 METAR LMML 022145Z VRB02KT CAVOK 25/23 Q1015 NOSIG=
201208022130 METAR LMML NIL=
201208022115 METAR LMML 022115Z 16003KT CAVOK 25/23 Q1015 NOSIG=
201208022100 METAR LMML NIL=
201208022045 METAR LMML 022045Z VRB02KT CAVOK 25/23 Q1015 NOSIG=
201208022030 METAR LMML NIL=
201208022015 METAR LMML 022015Z VRB02KT CAVOK 26/23 Q1015 NOSIG=
201208022000 METAR LMML NIL=
201208021945 METAR LMML 021945Z VRB01KT CAVOK 26/23 Q1015 NOSIG=
201208021930 METAR LMML NIL=
201208021915 METAR LMML 021915Z VRB02KT CAVOK 26/23 Q1015 NOSIG=
201208021900 METAR LMML NIL=
201208021845 METAR LMML 021845Z 21003KT CAVOK 26/23 Q1015 NOSIG=
201208021830 METAR LMML NIL=
201208021815 METAR LMML 021815Z 18003KT CAVOK 27/22 Q1014 NOSIG=
201208021800 METAR LMML NIL=
201208021745 METAR LMML 021745Z VRB02KT CAVOK 28/20 Q1014 NOSIG=
201208021730 METAR LMML NIL=
201208021715 METAR LMML 021715Z 17004KT 140V220 CAVOK 29/20 Q1014 NOSIG=
201208021700 METAR LMML NIL=
201208021645 METAR LMML 021645Z 17006KT CAVOK 29/20 Q1014 NOSIG=
201208021630 METAR LMML NIL=
201208021615 METAR LMML 021615Z 16005KT 110V240 CAVOK 30/22 Q1014 NOSIG=
201208021545 METAR LMML 021545Z 13005KT 100V170 CAVOK 30/20 Q1014 NOSIG=
201208021530 METAR LMML NIL=
201208021515 METAR LMML 021515Z 15005KT 080V200 CAVOK 30/22 Q1014 NOSIG=
201208021500 METAR LMML NIL=
201208021445 METAR LMML 021445Z 14005KT 080V210 CAVOK 31/22 Q1014 NOSIG=
201208021430 METAR LMML NIL=
201208021415 METAR LMML 021415Z 12006KT 090V170 CAVOK 30/20 Q1014 NOSIG=
201208021400 METAR LMML NIL=
201208021345 METAR LMML 021345Z 13007KT 100V170 CAVOK 31/21 Q1014 NOSIG=
201208021330 METAR LMML NIL=
201208021315 METAR LMML 021315Z 12006KT 090V150 CAVOK 31/22 Q1014 NOSIG=
201208021300 METAR LMML NIL=
201208021245 METAR LMML 021245Z 11005KT 020V170 9999 FEW015 31/20 Q1014
                        NOSIG=
201208021230 METAR LMML NIL=
201208021215 METAR LMML 021215Z 05005KT 9999 FEW015 30/21 Q1015 NOSIG=
201208021200 METAR LMML NIL=
201208021145 METAR LMML 021145Z 18005KT 130V250 9999 FEW015 29/21 Q1015
                        NOSIG=
201208021130 METAR LMML NIL=
201208021115 METAR LMML 021115Z 18007KT 140V240 9999 FEW015 30/23 Q1015
                        NOSIG=
201208021100 METAR LMML NIL=
201208021045 METAR LMML 021045Z 16006KT 110V200 9999 FEW015 31/21 Q1015
                        NOSIG=
201208021030 METAR LMML NIL=
201208021015 METAR LMML 021015Z 16005KT 110V200 CAVOK 31/19 Q1015 NOSIG=
201208021000 METAR LMML NIL=
201208020945 METAR LMML 020945Z 14006KT 050V240 CAVOK 31/21 Q1015 NOSIG=
201208020930 METAR LMML NIL=
201208020915 METAR LMML 020915Z 10005KT 050V140 CAVOK 31/21 Q1015 NOSIG=
201208020900 METAR LMML NIL=
201208020845 METAR LMML 020845Z 12004KT 060V210 CAVOK 31/21 Q1014 NOSIG=
201208020830 METAR LMML NIL=
201208020815 METAR LMML 020815Z 13003KT CAVOK 29/20 Q1014 NOSIG=
201208020800 METAR LMML NIL=
201208020745 METAR LMML 020745Z 15003KT CAVOK 29/21 Q1014 NOSIG=
201208020730 METAR LMML NIL=
201208020715 METAR LMML 020715Z VRB02KT CAVOK 28/22 Q1014 NOSIG=
201208020700 METAR LMML NIL=
201208020645 METAR LMML 020645Z VRB02KT CAVOK 28/22 Q1014 NOSIG=
201208020630 METAR LMML NIL=
201208020615 METAR LMML 020615Z VRB01KT 9999 FEW015 27/22 Q1014 BECMG
                        CAVOK=
201208020600 METAR LMML NIL=
201208020545 METAR LMML 020545Z 20003KT 9000 FEW015 25/23 Q1014 BECMG
                        9999=
201208020530 METAR LMML NIL=
201208020515 METAR LMML 020515Z VRB02KT 9000 FEW015 24/23 Q1014 BECMG
                        9999=
201208020500 METAR LMML NIL=
201208020445 METAR LMML 020445Z 00000KT 9000 FEW015 23/22 Q1013 BECMG
                        9999=
201208020430 METAR LMML NIL=
201208020415 METAR LMML 020415Z VRB01KT 9000 NSC 23/22 Q1013 NOSIG=
201208020400 METAR LMML NIL=
201208020345 METAR LMML 020345Z 23003KT 9000 NSC 24/22 Q1013 NOSIG=
201208020330 METAR LMML NIL=
201208020315 METAR LMML 020315Z 23004KT 9000 NSC 24/22 Q1013 NOSIG=
201208020300 METAR LMML NIL=
201208020245 METAR LMML 020245Z 23004KT 200V260 CAVOK 24/22 Q1013 NOSIG=
201208020230 METAR LMML NIL=
201208020215 METAR LMML 020215Z 23004KT CAVOK 24/22 Q1013 NOSIG=
201208020200 METAR LMML NIL=
201208020145 METAR LMML 020145Z 24003KT CAVOK 24/22 Q1013 NOSIG=
201208020130 METAR LMML NIL=
201208020115 METAR LMML 020115Z 23003KT CAVOK 24/22 Q1013 NOSIG=
201208020100 METAR LMML NIL=
201208020045 METAR LMML 020045Z 23004KT 200V270 CAVOK 24/23 Q1013 NOSIG=
201208020030 METAR LMML NIL=
201208020015 METAR LMML 020015Z 22004KT 170V260 CAVOK 25/23 Q1013 NOSIG=
201208020000 METAR LMML NIL=
201208012345 METAR LMML 012345Z 24004KT CAVOK 25/22 Q1013 NOSIG=
201208012315 METAR LMML 012315Z 25005KT 220V280 CAVOK 25/23 Q1013 NOSIG=
201208012300 METAR LMML NIL=
201208012245 METAR LMML 012245Z 22005KT 160V250 CAVOK 25/22 Q1013 NOSIG=
201208012230 METAR LMML NIL=
201208012215 METAR LMML 012215Z 20004KT 160V240 CAVOK 25/22 Q1013 NOSIG=
201208012200 METAR LMML NIL=
201208012145 METAR LMML 012145Z 20005KT 170V240 CAVOK 26/20 Q1013 NOSIG=
201208012130 METAR LMML NIL=
201208012115 METAR LMML 012115Z 27003KT CAVOK 27/15 Q1013 NOSIG=
201208012100 METAR LMML NIL=
201208012045 METAR LMML 012045Z 29003KT CAVOK 27/13 Q1013 NOSIG=
201208012030 METAR LMML NIL=
201208012015 METAR LMML 012015Z 29003KT CAVOK 28/10 Q1013 NOSIG=
201208012000 METAR LMML NIL=
201208011945 METAR LMML 011945Z VRB02KT CAVOK 28/10 Q1013 NOSIG=
201208011930 METAR LMML NIL=
201208011915 METAR LMML 011915Z VRB01KT CAVOK 27/13 Q1013 NOSIG=
201208011900 METAR LMML NIL=
201208011845 METAR LMML 011845Z VRB02KT CAVOK 28/14 Q1013 NOSIG=
201208011830 METAR LMML NIL=
201208011815 METAR LMML 011815Z 29005KT 260V320 CAVOK 28/15 Q1013 NOSIG=
201208011800 METAR LMML NIL=
201208011745 METAR LMML 011745Z 30007KT CAVOK 29/11 Q1012 NOSIG=
201208011730 METAR LMML NIL=
201208011715 METAR LMML 011715Z 31007KT CAVOK 31/13 Q1012 NOSIG=
201208011700 METAR LMML NIL=
201208011645 METAR LMML 011645Z 35006KT 320V040 CAVOK 31/18 Q1012 NOSIG=
201208011630 METAR LMML NIL=
201208011615 METAR LMML 011615Z 02004KT 340V080 CAVOK 33/17 Q1012 NOSIG=
201208011600 METAR LMML NIL=
201208011545 METAR LMML 011545Z 05005KT 010V130 CAVOK 33/15 Q1012 NOSIG=
201208011530 METAR LMML NIL=
201208011515 METAR LMML 011515Z 02009KT 350V050 CAVOK 33/17 Q1012 NOSIG=
201208011500 METAR LMML NIL=
201208011445 METAR LMML 011445Z 02008KT 340V050 CAVOK 33/17 Q1012 NOSIG=
201208011430 METAR LMML NIL=
201208011415 METAR LMML 011415Z 21007KT 150V260 CAVOK 33/15 Q1012 NOSIG=
201208011400 METAR LMML NIL=
201208011345 METAR LMML 011345Z 20009KT 160V250 CAVOK 33/15 Q1012 NOSIG=
201208011330 METAR LMML NIL=
201208011315 METAR LMML 011315Z 21005KT 160V280 CAVOK 32/16 Q1013 NOSIG=
201208011245 METAR LMML 011245Z 16006KT 110V270 CAVOK 32/16 Q1013 NOSIG=
201208011230 METAR LMML NIL=
201208011215 METAR LMML 011215Z 18004KT 090V280 CAVOK 32/16 Q1013 NOSIG=
201208011200 METAR LMML NIL=
201208011145 METAR LMML 011145Z 10005KT 040V150 CAVOK 33/15 Q1013 NOSIG=
201208011130 METAR LMML NIL=
201208011115 METAR LMML 011115Z 05004KT CAVOK 33/14 Q1013 NOSIG=
201208011045 METAR LMML 011045Z VRB02KT CAVOK 33/13 Q1013 NOSIG=
201208011030 METAR LMML NIL=
201208011015 METAR LMML 011015Z 05005KT 020V090 CAVOK 33/13 Q1014 NOSIG=
201208011000 METAR LMML NIL=
201208010945 METAR LMML 010945Z 08006KT 010V210 CAVOK 32/11 Q1013 NOSIG=
201208010930 METAR LMML NIL=
201208010915 METAR LMML 010915Z 06005KT 020V110 CAVOK 33/12 Q1013 NOSIG=
201208010900 METAR LMML NIL=
201208010845 METAR LMML 010845Z 05005KT 330V100 CAVOK 33/13 Q1013 NOSIG=
201208010830 METAR LMML NIL=
201208010815 METAR LMML 010815Z 01004KT 270V060 CAVOK 32/13 Q1013 NOSIG=
201208010800 METAR LMML NIL=
201208010745 METAR LMML 010745Z 32004KT 280V030 CAVOK 30/14 Q1013 NOSIG=
201208010730 METAR LMML NIL=
201208010715 METAR LMML 010715Z 36004KT 300V040 CAVOK 31/18 Q1013 NOSIG=
201208010700 METAR LMML NIL=
201208010645 METAR LMML 010645Z 33004KT 290V020 CAVOK 29/18 Q1013 NOSIG=
201208010630 METAR LMML NIL=
201208010615 METAR LMML 010615Z VRB02KT CAVOK 27/19 Q1013 NOSIG=
201208010600 METAR LMML NIL=
201208010545 METAR LMML 010545Z 30003KT CAVOK 26/20 Q1013 NOSIG=
201208010530 METAR LMML NIL=
201208010515 METAR LMML 010515Z 35003KT CAVOK 25/21 Q1013 NOSIG=
201208010500 METAR LMML NIL=
201208010445 METAR LMML 010445Z VRB02KT CAVOK 24/20 Q1012 NOSIG=
201208010430 METAR LMML NIL=
201208010415 METAR LMML 010415Z VRB02KT CAVOK 24/20 Q1012 NOSIG=
201208010400 METAR LMML NIL=
201208010345 METAR LMML 010345Z 02003KT CAVOK 24/21 Q1012 NOSIG=
201208010330 METAR LMML NIL=
201208010315 METAR LMML 010315Z 03003KT CAVOK 24/21 Q1012 NOSIG=
201208010300 METAR LMML NIL=
201208010245 METAR LMML 010245Z 03004KT 360V060 CAVOK 24/22 Q1012 NOSIG=
201208010230 METAR LMML NIL=
201208010215 METAR LMML 010215Z 02004KT CAVOK 24/22 Q1012 NOSIG=
201208010200 METAR LMML NIL=
201208010145 METAR LMML 010145Z 02006KT CAVOK 25/22 Q1012 NOSIG=
201208010130 METAR LMML NIL=
201208010115 METAR LMML 010115Z 03004KT CAVOK 25/22 Q1012 NOSIG=
201208010100 METAR LMML NIL=
201208010045 METAR LMML 010045Z 01004KT CAVOK 25/22 Q1012 NOSIG=
201208010030 METAR LMML NIL=
201208010015 METAR LMML 010015Z 01004KT CAVOK 25/22 Q1012 NOSIG=
201208010000 METAR LMML NIL=
