##########################################################
# Query made at 01/18/2013 17:01:12 UTC
# Time interval: from 08/01/2008 00:00  to 08/31/2008 23:59  UTC
##########################################################

##########################################################
# LMML, Luqa (Malta)
# WMO index: 16597
# Latitude 35-51N. Longitude 014-29E. Altitude 91 m.
##########################################################

###################################
#  METAR/SPECI from LMML
###################################
200808312345 METAR LMML 312345Z VRB02KT CAVOK 23/23 Q1017 NOSIG=
200808312315 METAR LMML 312315Z VRB01KT CAVOK 23/22 Q1017 NOSIG=
200808312300 METAR LMML NIL=
200808312245 METAR LMML 312245Z VRB02KT CAVOK 23/22 Q1017 NOSIG=
200808312230 METAR LMML NIL=
200808312215 METAR LMML 312215Z VRB02KT CAVOK 23/21 Q1017 NOSIG=
200808312200 METAR LMML NIL=
200808312145 METAR LMML 312145Z VRB02KT CAVOK 24/21 Q1017 NOSIG=
200808312115 METAR LMML 312115Z VRB02KT CAVOK 23/21 Q1017 NOSIG=
200808312100 METAR LMML NIL=
200808312045 METAR LMML 312045Z VRB02KT CAVOK 24/21 Q1017 NOSIG=
200808312030 METAR LMML NIL=
200808312015 METAR LMML 312015Z VRB02KT CAVOK 24/20 Q1017 NOSIG RMK SMOKE
                        TO S AND SE OF AIRFIELD=
200808312000 METAR LMML NIL=
200808311945 METAR LMML 311945Z VRB03KT CAVOK 25/20 Q1017 NOSIG=
200808311930 METAR LMML NIL=
200808311915 METAR LMML 311915Z VRB03KT CAVOK 25/20 Q1017 NOSIG=
200808311900 METAR LMML NIL=
200808311845 METAR LMML 311845Z VRB03KT CAVOK 25/19 Q1016 NOSIG=
200808311830 METAR LMML NIL=
200808311815 METAR LMML 311815Z VRB03KT CAVOK 25/21 Q1016 NOSIG=
200808311800 METAR LMML NIL=
200808311745 METAR LMML 311745Z 24005KT 210V280 CAVOK 26/21 Q1016 NOSIG=
200808311730 METAR LMML NIL=
200808311715 METAR LMML 311715Z 25006KT CAVOK 27/19 Q1016 NOSIG=
200808311700 METAR LMML NIL=
200808311645 METAR LMML 311645Z 26006KT 230V290 CAVOK 28/17 Q1016 NOSIG=
200808311630 METAR LMML NIL=
200808311615 METAR LMML 311615Z 25007KT 210V290 CAVOK 28/14 Q1016 NOSIG=
200808311600 METAR LMML NIL=
200808311545 METAR LMML 311545Z 27005KT 220V330 CAVOK 29/12 Q1016 NOSIG=
200808311530 METAR LMML NIL=
200808311515 METAR LMML 311515Z 01004KT 320V080 9999 FEW045 30/16 Q1016
                        NOSIG=
200808311500 METAR LMML NIL=
200808311445 METAR LMML 311445Z 26006KT 190V360 9999 FEW044 30/14 Q1016
                        NOSIG RMK CB TOPS TO NNE=
200808311430 METAR LMML NIL=
200808311415 METAR LMML 311415Z VRB03KT 9999 FEW044 30/17 Q1016 NOSIG
                        RMK CB TOPS TO NNE=
200808311400 METAR LMML NIL=
200808311345 METAR LMML 311345Z VRB03KT 9999 FEW043 30/17 Q1016 NOSIG=
200808311330 METAR LMML NIL=
200808311315 METAR LMML 311315Z 31004KT 200V050 9999 FEW046 30/15 Q1016
                        NOSIG=
200808311300 METAR LMML NIL=
200808311245 METAR LMML 311245Z 24008KT 200V290 9999 FEW040 29/15 Q1016
                        NOSIG=
200808311230 METAR LMML NIL=
200808311215 METAR LMML 311215Z 23006KT 190V290 9999 FEW040 29/15 Q1017
                        NOSIG=
200808311200 METAR LMML NIL=
200808311145 METAR LMML 311145Z 22006KT 170V270 9999 FEW040 29/14 Q1017
                        NOSIG=
200808311130 METAR LMML NIL=
200808311115 METAR LMML 311115Z 21007KT 160V270 9999 FEW040 29/14 Q1017
                        NOSIG=
200808311100 METAR LMML NIL=
200808311045 METAR LMML 311045Z 21007KT 170V270 9999 FEW040 29/14 Q1017
                        NOSIG=
200808311030 METAR LMML NIL=
200808311015 METAR LMML 311015Z 23007KT 190V280 9999 FEW040 29/13 Q1017
                        NOSIG=
200808311000 METAR LMML NIL=
200808310945 METAR LMML 310945Z 22004KT 160V290 9999 FEW030 29/14 Q1017
                        NOSIG=
200808310930 METAR LMML NIL=
200808310915 METAR LMML 310915Z 22005KT 180V270 9999 FEW030 28/16 Q1017
                        NOSIG=
200808310900 METAR LMML NIL=
200808310845 METAR LMML 310845Z 23005KT 190V280 9999 FEW030 28/17 Q1017
                        NOSIG=
200808310830 METAR LMML NIL=
200808310815 METAR LMML 310815Z 22006KT 190V270 CAVOK 28/17 Q1017 NOSIG=
200808310800 METAR LMML NIL=
200808310745 METAR LMML 310745Z VRB02KT CAVOK 28/16 Q1016 NOSIG=
200808310730 METAR LMML NIL=
200808310715 METAR LMML 310715Z VRB02KT CAVOK 27/18 Q1016 NOSIG=
200808310700 METAR LMML NIL=
200808310645 METAR LMML 310645Z VRB03KT CAVOK 26/19 Q1016 NOSIG=
200808310630 METAR LMML NIL=
200808310615 METAR LMML 310615Z VRB02KT CAVOK 25/19 Q1016 NOSIG=
200808310600 METAR LMML NIL=
200808310545 METAR LMML 310545Z VRB02KT CAVOK 24/19 Q1016 NOSIG=
200808310530 METAR LMML NIL=
200808310515 METAR LMML 310515Z VRB02KT CAVOK 23/19 Q1015 NOSIG=
200808310500 METAR LMML NIL=
200808310445 METAR LMML 310445Z VRB02KT CAVOK 22/18 Q1015 NOSIG=
200808310430 METAR LMML NIL=
200808310415 METAR LMML 310415Z VRB03KT CAVOK 23/19 Q1015 NOSIG=
200808310400 METAR LMML NIL=
200808310345 METAR LMML 310345Z VRB03KT CAVOK 22/17 Q1014 NOSIG=
200808310330 METAR LMML NIL=
200808310315 METAR LMML 310315Z VRB03KT CAVOK 23/16 Q1014 NOSIG=
200808310300 METAR LMML NIL=
200808310245 METAR LMML 310245Z VRB03KT CAVOK 23/16 Q1014 NOSIG=
200808310230 METAR LMML NIL=
200808310215 METAR LMML 310215Z VRB03KT CAVOK 22/16 Q1014 NOSIG=
200808310200 METAR LMML NIL=
200808310145 METAR LMML 310145Z VRB02KT CAVOK 22/18 Q1015 NOSIG=
200808310130 METAR LMML NIL=
200808310115 METAR LMML 310115Z VRB02KT CAVOK 22/20 Q1015 NOSIG=
200808310100 METAR LMML NIL=
200808310045 METAR LMML 310045Z VRB02KT CAVOK 23/20 Q1015 NOSIG=
200808310030 METAR LMML NIL=
200808310015 METAR LMML 310015Z VRB03KT CAVOK 23/20 Q1015 NOSIG=
200808310000 METAR LMML NIL=
200808302345 METAR LMML 302345Z VRB03KT CAVOK 23/20 Q1015 NOSIG=
200808302330 METAR LMML NIL=
200808302315 METAR LMML 302315Z 30004KT CAVOK 23/20 Q1015 NOSIG=
200808302300 LMML NIL=
200808302230 METAR LMML NIL=
200808302215 METAR LMML 302215Z 33004KT CAVOK 24/21 Q1016 NOSIG=
200808302200 METAR LMML NIL=
200808302145 METAR LMML 302145Z 33004KT 310V010 CAVOK 24/21 Q1016 TEMPO
                        9999 FEW020=
200808302130 METAR LMML NIL=
200808302115 METAR LMML 302115Z 34005KT CAVOK 24/20 Q1016 NOSIG=
200808302100 METAR LMML NIL=
200808302045 METAR LMML 302045Z 34006KT 9999 FEW022 24/21 Q1016 NOSIG=
200808302030 METAR LMML NIL=
200808302015 METAR LMML 302015Z 34006KT 9999 FEW022 24/21 Q1016 NOSIG=
200808302000 METAR LMML NIL=
200808301945 METAR LMML 301945Z 34007KT 9999 FEW022 25/21 Q1016 NOSIG=
200808301930 METAR LMML NIL=
200808301915 METAR LMML 301915Z 34007KT 9999 FEW022 25/21 Q1015 NOSIG=
200808301900 METAR LMML NIL=
200808301845 METAR LMML 301845Z 33006KT 290V010 9999 FEW022 25/20 Q1015
                        NOSIG=
200808301830 METAR LMML NIL=
200808301815 METAR LMML 301815Z 30006KT 220V030 9999 FEW030 25/21 Q1015
                        NOSIG=
200808301800 METAR LMML NIL=
200808301745 METAR LMML 301745Z VRB03KT 9999 FEW030 25/20 Q1014 NOSIG=
200808301730 METAR LMML NIL=
200808301715 METAR LMML 301715Z VRB03KT 9999 FEW030 26/20 Q1014 NOSIG=
200808301700 LMML NIL=
200808301630 METAR LMML NIL=
200808301615 METAR LMML 301615Z VRB03KT 9999 FEW031 27/16 Q1014 NOSIG=
200808301600 METAR LMML NIL=
200808301545 METAR LMML 301545Z VRB02KT 9999 FEW031 29/15 Q1014 NOSIG=
200808301530 METAR LMML NIL=
200808301515 METAR LMML 301515Z 01006KT 320V060 9999 FEW031 29/16 Q1014
                        NOSIG=
200808301500 METAR LMML NIL=
200808301445 METAR LMML 301445Z 04005KT 350V130 9999 FEW031 29/17 Q1014
                        NOSIG=
200808301430 METAR LMML NIL=
200808301415 METAR LMML 301415Z 06005KT 010V140 9999 FEW033 29/17 Q1014
                        NOSIG=
200808301400 METAR LMML NIL=
200808301345 METAR LMML 301345Z 06005KT 350V130 9999 FEW030 29/17 Q1015
                        NOSIG=
200808301330 METAR LMML NIL=
200808301315 METAR LMML 301315Z 07006KT 020V150 9999 FEW034 28/18 Q1015
                        NOSIG=
200808301300 METAR LMML NIL=
200808301245 METAR LMML 301245Z 03005KT 310V110 9999 FEW029 29/17 Q1015
                        NOSIG=
200808301230 METAR LMML NIL=
200808301215 METAR LMML 301215Z 05007KT 360V120 9999 SCT033 29/16 Q1015
                        NOSIG=
200808301200 METAR LMML NIL=
200808301145 METAR LMML 301145Z 06007KT 010V110 9999 SCT028 29/18 Q1016
                        NOSIG=
200808301130 METAR LMML NIL=
200808301115 METAR LMML 301115Z 04007KT 350V100 9999 FEW027 29/19 Q1015
                        NOSIG=
200808301100 METAR LMML NIL=
200808301045 METAR LMML 301045Z 05007KT 360V100 9999 FEW027 28/19 Q1015
                        NOSIG=
200808301030 METAR LMML NIL=
200808301015 METAR LMML 301015Z 03007KT 340V080 9999 FEW029 29/18 Q1015
                        NOSIG=
200808301000 METAR LMML NIL=
200808300945 METAR LMML 300945Z 04007KT 330V080 9999 FEW025 29/19 Q1016
                        NOSIG=
200808300930 METAR LMML NIL=
200808300915 METAR LMML 300915Z 03006KT 350V070 9999 SCT024 28/20 Q1015
                        NOSIG=
200808300900 METAR LMML NIL=
200808300845 METAR LMML 300845Z 02006KT 340V070 9999 FEW029 28/20 Q1015
                        NOSIG=
200808300830 METAR LMML NIL=
200808300815 METAR LMML 300815Z 35006KT 310V030 9999 FEW024 27/18 Q1015
                        NOSIG=
200808300800 METAR LMML NIL=
200808300745 METAR LMML 300745Z 31005KT 270V010 9999 FEW024 27/19 Q1015
                        NOSIG=
200808300730 METAR LMML NIL=
200808300715 METAR LMML 300715Z 31006KT 280V340 9999 FEW020 26/18 Q1015
                        NOSIG=
200808300700 METAR LMML NIL=
200808300645 METAR LMML 300645Z 32006KT 9999 FEW020 26/21 Q1015 NOSIG=
200808300630 METAR LMML NIL=
200808300615 METAR LMML 300615Z 31006KT 9999 FEW020 24/23 Q1015 NOSIG=
200808300600 METAR LMML NIL=
200808300545 METAR LMML 300545Z VRB02KT 9999 FEW020 23/23 Q1015 NOSIG=
200808300530 METAR LMML NIL=
200808300515 METAR LMML 300515Z VRB03KT 9999 FEW020 22/22 Q1015 NOSIG=
200808300500 METAR LMML NIL=
200808300445 METAR LMML 300445Z VRB02KT 9999 FEW020 22/21 Q1015 NOSIG=
200808300430 METAR LMML NIL=
200808300415 METAR LMML 300415Z VRB02KT 9999 FEW020 22/21 Q1014 NOSIG=
200808300400 METAR LMML NIL=
200808300345 METAR LMML 300345Z VRB03KT CAVOK 22/21 Q1014 NOSIG=
200808300330 METAR LMML NIL=
200808300315 METAR LMML 300315Z VRB03KT CAVOK 23/21 Q1014 NOSIG=
200808300300 METAR LMML NIL=
200808300245 METAR LMML 300245Z VRB02KT CAVOK 22/21 Q1014 NOSIG=
200808300230 METAR LMML NIL=
200808300215 METAR LMML 300215Z VRB03KT CAVOK 22/20 Q1014 NOSIG=
200808300200 METAR LMML NIL=
200808300145 METAR LMML 300145Z VRB03KT CAVOK 23/21 Q1014 NOSIG=
200808300130 METAR LMML NIL=
200808300115 METAR LMML 300115Z VRB03KT CAVOK 22/21 Q1014 NOSIG=
200808300100 METAR LMML NIL=
200808300045 METAR LMML 300045Z VRB02KT CAVOK 23/21 Q1014 NOSIG=
200808300030 METAR LMML NIL=
200808300015 METAR LMML 300015Z VRB03KT CAVOK 23/21 Q1015 NOSIG=
200808300000 METAR LMML NIL=
200808292345 METAR LMML 292345Z VRB02KT CAVOK 23/21 Q1015 NOSIG=
200808292330 METAR LMML NIL=
200808292315 METAR LMML 292315Z VRB01KT CAVOK 23/21 Q1015 NOSIG=
200808292300 METAR LMML NIL=
200808292245 METAR LMML 292245Z VRB01KT CAVOK 23/20 Q1015 NOSIG=
200808292230 METAR LMML NIL=
200808292215 METAR LMML 292215Z VRB01KT CAVOK 23/20 Q1016 NOSIG=
200808292145 METAR LMML 292145Z VRB02KT CAVOK 23/21 Q1015 NOSIG=
200808292130 METAR LMML NIL=
200808292115 METAR LMML 292115Z VRB03KT CAVOK 24/20 Q1015 NOSIG=
200808292100 METAR LMML NIL=
200808292045 METAR LMML 292045Z 31004KT CAVOK 24/20 Q1015 NOSIG=
200808292030 METAR LMML NIL=
200808292015 METAR LMML 292015Z VRB03KT CAVOK 24/20 Q1015 NOSIG=
200808292000 METAR LMML NIL=
200808291945 METAR LMML 291945Z 30004KT CAVOK 24/20 Q1015 NOSIG=
200808291930 METAR LMML NIL=
200808291915 METAR LMML 291915Z 32006KT CAVOK 24/20 Q1015 NOSIG=
200808291900 METAR LMML NIL=
200808291845 METAR LMML 291845Z 32007KT CAVOK 24/21 Q1015 NOSIG=
200808291830 METAR LMML NIL=
200808291815 METAR LMML 291815Z 30007KT 9999 FEW025 25/21 Q1014 NOSIG=
200808291800 METAR LMML NIL=
200808291745 METAR LMML 291745Z 30008KT 9999 FEW025 25/20 Q1014 NOSIG=
200808291730 METAR LMML NIL=
200808291715 METAR LMML 291715Z 31009KT 280V340 9999 FEW025 25/19 Q1014
                        NOSIG=
200808291700 METAR LMML NIL=
200808291645 METAR LMML 291645Z 30010KT 9999 FEW025 26/17 Q1014 NOSIG=
200808291630 METAR LMML NIL=
200808291615 METAR LMML 291615Z 30011KT 9999 FEW025 26/17 Q1014 NOSIG=
200808291600 METAR LMML NIL=
200808291545 METAR LMML 291545Z 30010KT 270V330 9999 FEW025 27/17 Q1014
                        NOSIG=
200808291515 METAR LMML 291515Z 28009KT 240V320 9999 FEW025 27/16 Q1014
                        NOSIG=
200808291500 METAR LMML NIL=
200808291445 METAR LMML 291445Z 28009KT 230V310 9999 FEW025 28/15 Q1014
                        NOSIG=
200808291430 METAR LMML NIL=
200808291415 METAR LMML 291415Z 29010KT 270V330 9999 FEW025 28/18 Q1014
                        NOSIG=
200808291400 METAR LMML NIL=
200808291345 METAR LMML 291345Z 29009G19KT 240V340 9999 FEW025 28/16 Q1014
                        NOSIG RMK TCU TOP TO NE=
200808291330 METAR LMML NIL=
200808291315 METAR LMML 291315Z 29010KT 260V320 9999 FEW025 28/15 Q1015
                        NOSIG RMK CB TOP TO NE=
200808291300 METAR LMML NIL=
200808291245 METAR LMML 291245Z 29011KT 230V320 9999 FEW025 27/16 Q1015
                        NOSIG RMK TCU TOP TO NE=
200808291230 METAR LMML NIL=
200808291215 METAR LMML 291215Z 28011KT 240V310 9999 FEW025 27/17 Q1015
                        NOSIG=
200808291200 METAR LMML NIL=
200808291145 METAR LMML 291145Z 27011KT 210V310 9999 FEW020 28/18 Q1016
                        NOSIG=
200808291130 METAR LMML NIL=
200808291115 METAR LMML 291115Z 26011KT 210V310 9999 FEW020 27/17 Q1016
                        NOSIG=
200808291100 METAR LMML NIL=
200808291045 METAR LMML 291045Z 28012KT 230V320 9999 FEW020 27/18 Q1016
                        NOSIG=
200808291030 METAR LMML NIL=
200808291015 METAR LMML 291015Z 28010KT 210V310 9999 FEW020 27/17 Q1016
                        NOSIG=
200808291000 METAR LMML NIL=
200808290945 METAR LMML 290945Z 29010KT 250V320 9999 FEW020 27/18 Q1016
                        NOSIG=
200808290930 METAR LMML NIL=
200808290915 METAR LMML 290915Z 28010KT 240V310 9999 FEW020 27/18 Q1016
                        NOSIG=
200808290900 METAR LMML NIL=
200808290845 METAR LMML 290845Z 29009KT 240V320 9999 FEW020 27/18 Q1016
                        NOSIG=
200808290830 METAR LMML NIL=
200808290815 METAR LMML 290815Z 28009KT 240V320 9999 FEW020 27/17 Q1016
                        NOSIG=
200808290800 METAR LMML NIL=
200808290745 METAR LMML 290745Z 30009KT 260V330 9999 FEW020 26/19 Q1016
                        NOSIG=
200808290730 METAR LMML NIL=
200808290715 METAR LMML 290715Z 28009KT 230V310 9999 FEW020 26/19 Q1016
                        NOSIG=
200808290700 METAR LMML NIL=
200808290645 METAR LMML 290645Z 28008KT 240V320 9999 FEW020 25/20 Q1016
                        NOSIG=
200808290630 METAR LMML NIL=
200808290615 METAR LMML 290615Z 29006KT 250V320 9999 FEW020 24/21 Q1016
                        NOSIG=
200808290600 METAR LMML NIL=
200808290545 METAR LMML 290545Z 27007KT 240V300 9999 FEW020 24/21 Q1015
                        NOSIG=
200808290530 METAR LMML NIL=
200808290515 METAR LMML 290515Z 28004KT 250V310 9999 FEW020 23/21 Q1015
                        NOSIG=
200808290500 METAR LMML NIL=
200808290445 METAR LMML 290445Z 25004KT 210V280 9999 FEW020 23/20 Q1015
                        NOSIG=
200808290430 METAR LMML NIL=
200808290415 METAR LMML 290415Z VRB03KT 9999 FEW020 22/21 Q1015 NOSIG=
200808290400 METAR LMML NIL=
200808290345 METAR LMML 290345Z 24005KT CAVOK 23/21 Q1015 NOSIG=
200808290330 METAR LMML NIL=
200808290315 METAR LMML 290315Z 24004KT 200V270 CAVOK 23/21 Q1015 NOSIG=
200808290300 METAR LMML NIL=
200808290245 METAR LMML 290245Z 24004KT CAVOK 23/21 Q1014 NOSIG=
200808290230 METAR LMML NIL=
200808290215 METAR LMML 290215Z 22005KT CAVOK 23/20 Q1015 NOSIG=
200808290200 METAR LMML NIL=
200808290145 METAR LMML 290145Z VRB03KT CAVOK 22/19 Q1015 NOSIG=
200808290130 METAR LMML NIL=
200808290115 METAR LMML 290115Z VRB02KT CAVOK 22/19 Q1015 NOSIG=
200808290100 METAR LMML NIL=
200808290045 METAR LMML 290045Z VRB03KT CAVOK 23/18 Q1015 NOSIG=
200808290030 METAR LMML NIL=
200808290015 METAR LMML 290015Z VRB02KT CAVOK 22/19 Q1015 NOSIG=
200808290000 METAR LMML NIL=
200808282345 METAR LMML 282345Z 30004KT CAVOK 22/20 Q1015 NOSIG=
200808282330 METAR LMML NIL=
200808282315 METAR LMML 282315Z VRB03KT CAVOK 22/20 Q1015 NOSIG=
200808282300 METAR LMML NIL=
200808282245 METAR LMML 282245Z 30004KT CAVOK 22/19 Q1015 NOSIG=
200808282230 METAR LMML NIL=
200808282215 METAR LMML 282215Z 29004KT CAVOK 23/20 Q1015 NOSIG=
200808282200 METAR LMML NIL=
200808282145 METAR LMML 282145Z VRB02KT CAVOK 23/20 Q1016 NOSIG=
200808282130 METAR LMML NIL=
200808282115 METAR LMML 282115Z VRB03KT CAVOK 23/20 Q1016 NOSIG=
200808282100 METAR LMML NIL=
200808282045 METAR LMML 282045Z VRB03KT CAVOK 24/19 Q1016 NOSIG=
200808282030 METAR LMML NIL=
200808282015 METAR LMML 282015Z 28004KT 250V310 CAVOK 24/19 Q1016 NOSIG=
200808282000 METAR LMML NIL=
200808281945 METAR LMML 281945Z VRB03KT 9999 FEW020 24/19 Q1016 NOSIG=
200808281930 METAR LMML NIL=
200808281915 METAR LMML 281915Z 29004KT CAVOK 24/19 Q1015 NOSIG=
200808281845 METAR LMML 281845Z 29006KT CAVOK 25/19 Q1015 NOSIG=
200808281830 METAR LMML NIL=
200808281815 METAR LMML 281815Z 27006KT 240V300 9999 FEW035 25/19 Q1015
                        NOSIG=
200808281800 METAR LMML NIL=
200808281745 METAR LMML 281745Z 28007KT 250V310 9999 FEW035 25/18 Q1015
                        NOSIG=
200808281730 METAR LMML NIL=
200808281715 METAR LMML 281715Z 28007KT 250V320 9999 FEW035 26/18 Q1014
                        NOSIG=
200808281700 METAR LMML NIL=
200808281645 METAR LMML 281645Z 28008KT 250V320 9999 FEW035 27/17 Q1015
                        NOSIG=
200808281630 METAR LMML NIL=
200808281615 METAR LMML 281615Z 27008KT 200V300 9999 FEW035 27/17 Q1015
                        NOSIG=
200808281600 METAR LMML NIL=
200808281545 METAR LMML 281545Z 27007KT 220V300 9999 FEW035 28/16 Q1015
                        NOSIG=
200808281530 METAR LMML NIL=
200808281515 METAR LMML 281515Z 28008KT 210V320 9999 FEW035 28/16 Q1015
                        NOSIG=
200808281500 METAR LMML NIL=
200808281445 METAR LMML 281445Z VRB03KT 9999 FEW039 29/19 Q1015 NOSIG=
200808281430 METAR LMML NIL=
200808281415 METAR LMML 281415Z 05005KT 010V100 9999 FEW039 29/19 Q1015
                        NOSIG RMK CB TOP TO NE=
200808281400 METAR LMML NIL=
200808281345 METAR LMML 281345Z 04005KT 360V100 9999 FEW035 29/18 Q1015
                        NOSIG=
200808281330 METAR LMML NIL=
200808281315 METAR LMML 281315Z VRB03KT 9999 FEW033 29/19 Q1015 NOSIG=
200808281300 METAR LMML NIL=
200808281230 METAR LMML NIL=
200808281215 METAR LMML 281215Z 35005KT 200V070 9999 FEW032 28/20 Q1015
                        NOSIG=
200808281200 METAR LMML NIL=
200808281145 METAR LMML 281145Z 22004KT 120V010 9999 SCT035 27/20 Q1015
                        NOSIG=
200808281130 METAR LMML NIL=
200808281115 METAR LMML 281115Z 04006KT 350V110 9999 FEW029 29/19 Q1016
                        NOSIG=
200808281100 METAR LMML NIL=
200808281045 METAR LMML 281045Z 01006KT 300V070 9999 FEW032 29/19 Q1016
                        NOSIG=
200808281030 METAR LMML NIL=
200808281015 METAR LMML 281015Z 36006KT 310V070 9999 FEW031 29/19 Q1016
                        NOSIG=
200808281000 METAR LMML NIL=
200808280945 METAR LMML 280945Z 04006KT 310V090 9999 FEW031 29/19 Q1016
                        NOSIG=
200808280930 METAR LMML NIL=
200808280915 METAR LMML 280915Z VRB03KT 9999 FEW030 28/19 Q1016 NOSIG=
200808280900 METAR LMML NIL=
200808280845 METAR LMML 280845Z 31004KT 240V360 9999 SCT028 27/19 Q1016
                        NOSIG=
200808280830 METAR LMML NIL=
200808280815 METAR LMML 280815Z 35005KT 210V060 9999 SCT027 28/19 Q1016
                        NOSIG=
200808280800 METAR LMML NIL=
200808280745 METAR LMML 280745Z 36005KT 300V060 9999 FEW025 27/19 Q1016
                        NOSIG=
200808280730 METAR LMML NIL=
200808280715 METAR LMML 280715Z VRB03KT 9999 FEW021 26/20 Q1016 NOSIG=
200808280700 METAR LMML NIL=
200808280645 METAR LMML 280645Z 33004KT 290V360 9999 FEW020 25/21 Q1016
                        NOSIG=
200808280630 METAR LMML NIL=
200808280615 METAR LMML 280615Z VRB03KT 9000 FEW020 24/22 Q1016 NOSIG=
200808280600 METAR LMML NIL=
200808280545 METAR LMML 280545Z VRB03KT 9000 FEW020 23/22 Q1016 NOSIG=
200808280530 METAR LMML NIL=
200808280515 METAR LMML 280515Z 32004KT 9999 FEW021 22/21 Q1015 NOSIG=
200808280500 METAR LMML NIL=
200808280445 METAR LMML 280445Z VRB03KT 9999 FEW021 22/21 Q1015 NOSIG=
200808280430 METAR LMML NIL=
200808280415 METAR LMML 280415Z VRB03KT 9999 FEW021 23/21 Q1015 NOSIG=
200808280400 METAR LMML NIL=
200808280345 METAR LMML 280345Z VRB03KT 9999 FEW021 23/21 Q1015 NOSIG=
200808280330 METAR LMML NIL=
200808280315 METAR LMML 280315Z VRB03KT 9999 FEW021 23/21 Q1015 NOSIG=
200808280300 METAR LMML NIL=
200808280245 METAR LMML 280245Z VRB03KT 9999 FEW021 23/21 Q1015 NOSIG=
200808280230 METAR LMML NIL=
200808280215 METAR LMML 280215Z VRB02KT 9999 FEW021 22/20 Q1015 NOSIG=
200808280200 METAR LMML NIL=
200808280145 METAR LMML 280145Z VRB02KT 9999 FEW021 23/21 Q1015 NOSIG=
200808280130 METAR LMML NIL=
200808280115 METAR LMML 280115Z VRB02KT 9999 FEW020 23/21 Q1015 NOSIG=
200808280100 METAR LMML NIL=
200808280045 METAR LMML 280045Z VRB01KT 9999 FEW019 23/21 Q1015 NOSIG=
200808280030 METAR LMML NIL=
200808280015 METAR LMML 280015Z VRB01KT 9999 FEW022 23/21 Q1015 NOSIG=
200808280000 METAR LMML NIL=
200808272345 METAR LMML 272345Z VRB01KT 9999 FEW024 23/21 Q1015 NOSIG=
200808272330 METAR LMML NIL=
200808272315 METAR LMML 272315Z VRB01KT 9999 FEW024 23/20 Q1016 NOSIG=
200808272300 METAR LMML NIL=
200808272245 METAR LMML 272245Z VRB01KT 9999 FEW025 23/20 Q1016 NOSIG=
200808272215 METAR LMML 272215Z VRB01KT 9999 FEW025 24/21 Q1016 NOSIG=
200808272145 METAR LMML 272145Z VRB02KT 9999 FEW025 24/21 Q1016 NOSIG=
200808272130 METAR LMML NIL=
200808272115 METAR LMML 272115Z VRB01KT 9999 FEW025 24/20 Q1016 NOSIG=
200808272100 METAR LMML NIL=
200808272045 METAR LMML 272045Z VRB01KT 9999 FEW025 24/20 Q1016 NOSIG=
200808272030 METAR LMML NIL=
200808272015 METAR LMML 272015Z VRB01KT 9999 FEW026 25/20 Q1016 NOSIG=
200808272000 METAR LMML NIL=
200808271945 METAR LMML 271945Z VRB02KT 9999 FEW026 25/20 Q1016 NOSIG=
200808271930 METAR LMML NIL=
200808271915 METAR LMML 271915Z VRB03KT 9999 FEW026 25/20 Q1016 NOSIG=
200808271900 METAR LMML NIL=
200808271845 METAR LMML 271845Z VRB03KT 9999 FEW026 26/20 Q1016 NOSIG=
200808271830 METAR LMML NIL=
200808271815 METAR LMML 271815Z VRB03KT 9999 SCT026 26/20 Q1016 NOSIG=
200808271800 METAR LMML NIL=
200808271745 METAR LMML 271745Z 20004KT 090V360 9999 SCT027 26/20 Q1016
                        NOSIG=
200808271730 METAR LMML NIL=
200808271715 METAR LMML 271715Z VRB03KT 9999 SCT029 26/20 Q1016 NOSIG=
200808271700 METAR LMML NIL=
200808271645 METAR LMML 271645Z VRB03KT 9999 SCT030 26/20 Q1016 NOSIG=
200808271630 METAR LMML NIL=
200808271615 METAR LMML 271615Z 19004KT 140V240 9999 SCT029 27/20 Q1016
                        NOSIG=
200808271600 METAR LMML NIL=
200808271545 METAR LMML 271545Z 19005KT 110V240 9999 FEW033 27/19 Q1016
                        NOSIG=
200808271530 METAR LMML NIL=
200808271515 METAR LMML 271515Z 22004KT 150V310 9999 FEW024 28/19 Q1016
                        NOSIG=
200808271445 METAR LMML 271445Z 20004KT 110V260 9999 FEW026 28/18 Q1016
                        NOSIG=
200808271430 METAR LMML NIL=
200808271415 METAR LMML 271415Z 19005KT 120V290 9999 SCT029 28/19 Q1016
                        NOSIG=
200808271400 METAR LMML NIL=
200808271345 METAR LMML 271345Z 18005KT 140V250 9999 SCT026 28/19 Q1016
                        NOSIG=
200808271330 METAR LMML NIL=
200808271315 METAR LMML 271315Z 17006KT 130V210 9999 SCT026 28/20 Q1017
                        NOSIG=
200808271245 METAR LMML 271245Z 15007KT 070V210 9999 BKN026 28/20 Q1017
                        NOSIG=
200808271230 METAR LMML NIL=
200808271215 METAR LMML 271215Z 17005KT 080V240 9999 SCT024 28/19 Q1017
                        NOSIG=
200808271200 METAR LMML NIL=
200808271145 METAR LMML 271145Z 13007KT 060V220 9999 SCT035 29/19 Q1017
                        NOSIG=
200808271115 METAR LMML 271115Z 14006KT 070V210 9999 SCT031 29/18 Q1017
                        NOSIG=
200808271100 METAR LMML NIL=
200808271045 METAR LMML 271045Z 12008KT 050V170 9999 SCT030 29/19 Q1017
                        NOSIG=
200808271030 METAR LMML NIL=
200808271015 METAR LMML 271015Z 13008KT 090V170 9999 SCT029 29/19 Q1017
                        NOSIG=
200808271000 METAR LMML NIL=
200808270945 METAR LMML 270945Z 11008KT 060V160 9999 SCT025 29/18 Q1018
                        NOSIG=
200808270930 METAR LMML NIL=
200808270915 METAR LMML 270915Z 11007KT 070V160 9999 SCT033 28/19 Q1018
                        NOSIG=
200808270900 METAR LMML NIL=
200808270845 METAR LMML 270845Z 11007KT 040V140 9999 SCT029 28/19 Q1017
                        NOSIG=
200808270815 METAR LMML 270815Z 09006KT 020V120 9999 SCT022 28/20 Q1017
                        NOSIG=
200808270800 METAR LMML NIL=
200808270745 METAR LMML 270745Z 09006KT 040V110 9999 FEW028 27/20 Q1017
                        NOSIG=
200808270730 METAR LMML NIL=
200808270715 METAR LMML 270715Z VRB03KT 9999 FEW025 26/20 Q1017 NOSIG=
200808270700 METAR LMML NIL=
200808270645 METAR LMML 270645Z VRB03KT 9999 SCT020 26/21 Q1017 NOSIG=
200808270630 METAR LMML NIL=
200808270615 METAR LMML 270615Z VRB01KT 9999 FEW020 25/23 Q1017 NOSIG=
200808270600 METAR LMML NIL=
200808270545 METAR LMML 270545Z VRB02KT 9999 FEW020 24/23 Q1017 NOSIG=
200808270530 METAR LMML NIL=
200808270515 METAR LMML 270515Z VRB02KT 9999 FEW019 23/22 Q1017 NOSIG=
200808270500 METAR LMML NIL=
200808270445 METAR LMML 270445Z VRB03KT 9999 FEW019 22/22 Q1016 NOSIG=
200808270430 METAR LMML NIL=
200808270415 METAR LMML 270415Z VRB02KT 9999 FEW019 22/22 Q1016 NOSIG=
200808270400 METAR LMML NIL=
200808270345 METAR LMML 270345Z VRB02KT 9999 FEW020 23/22 Q1016 NOSIG=
200808270330 METAR LMML NIL=
200808270315 METAR LMML 270315Z VRB02KT 9999 FEW018 22/22 Q1016 NOSIG=
200808270300 METAR LMML NIL=
200808270245 METAR LMML 270245Z VRB01KT 9999 FEW018 22/22 Q1015 NOSIG=
200808270230 METAR LMML NIL=
200808270215 METAR LMML 270215Z VRB02KT 9999 FEW020 22/22 Q1015 NOSIG=
200808270200 METAR LMML NIL=
200808270145 METAR LMML 270145Z VRB02KT 9999 FEW020 23/22 Q1016 NOSIG=
200808270130 METAR LMML NIL=
200808270115 METAR LMML 270115Z VRB02KT 9999 FEW021 23/21 Q1016 NOSIG=
200808270100 METAR LMML NIL=
200808270045 METAR LMML 270045Z VRB01KT 9999 FEW021 23/22 Q1016 NOSIG=
200808270030 METAR LMML NIL=
200808270015 METAR LMML 270015Z VRB02KT 9999 FEW021 23/21 Q1016 NOSIG=
200808270000 METAR LMML NIL=
200808262345 METAR LMML 262345Z VRB02KT 9999 FEW020 23/21 Q1017 NOSIG=
200808262330 METAR LMML NIL=
200808262315 METAR LMML 262315Z VRB01KT 9999 FEW020 24/21 Q1017 NOSIG=
200808262300 METAR LMML NIL=
200808262245 METAR LMML 262245Z VRB02KT CAVOK 24/21 Q1017 NOSIG=
200808262230 METAR LMML NIL=
200808262215 METAR LMML 262215Z 00000KT CAVOK 24/21 Q1017 NOSIG=
200808262200 METAR LMML NIL=
200808262145 METAR LMML 262145Z VRB01KT CAVOK 24/21 Q1017 NOSIG=
200808262130 METAR LMML NIL=
200808262115 METAR LMML 262115Z VRB02KT CAVOK 24/21 Q1017 NOSIG=
200808262100 METAR LMML NIL=
200808262045 METAR LMML 262045Z VRB01KT CAVOK 25/21 Q1017 NOSIG=
200808262030 METAR LMML NIL=
200808262015 METAR LMML 262015Z 00000KT 9999 FEW028 25/21 Q1017 NOSIG=
200808262000 METAR LMML NIL=
200808261945 METAR LMML 261945Z VRB01KT 9999 FEW028 25/21 Q1017 NOSIG=
200808261930 METAR LMML NIL=
200808261915 METAR LMML 261915Z VRB03KT 9999 FEW029 25/20 Q1017 NOSIG=
200808261900 METAR LMML NIL=
200808261845 METAR LMML 261845Z VRB03KT 9999 FEW027 25/20 Q1017 NOSIG=
200808261830 METAR LMML NIL=
200808261815 METAR LMML 261815Z 18004KT 9999 SCT026 26/20 Q1016 NOSIG=
200808261800 METAR LMML NIL=
200808261745 METAR LMML 261745Z 30004KT 250V340 9999 SCT026 26/19 Q1016
                        NOSIG=
200808261730 METAR LMML NIL=
200808261715 METAR LMML 261715Z 23004KT 200V290 9999 FEW025 27/19 Q1016
                        NOSIG=
200808261700 METAR LMML NIL=
200808261645 METAR LMML 261645Z 23004KT 210V280 9999 FEW023 27/18 Q1016
                        NOSIG=
200808261630 METAR LMML NIL=
200808261615 METAR LMML 261615Z 23005KT 200V290 9999 FEW022 28/17 Q1016
                        NOSIG=
200808261600 METAR LMML NIL=
200808261545 METAR LMML 261545Z VRB02KT 9999 FEW023 29/22 Q1016 NOSIG=
200808261530 METAR LMML NIL=
200808261515 METAR LMML 261515Z 23004KT 170V300 9999 FEW024 29/20 Q1016
                        NOSIG=
200808261500 METAR LMML NIL=
200808261445 METAR LMML 261445Z 21005KT 160V270 9999 FEW020 28/20 Q1016
                        NOSIG=
200808261430 METAR LMML NIL=
200808261415 METAR LMML 261415Z 21005KT 140V260 9999 FEW020 29/20 Q1016
                        NOSIG=
200808261400 METAR LMML NIL=
200808261345 METAR LMML 261345Z 19005KT 160V260 9999 FEW020 28/20 Q1016
                        NOSIG=
200808261330 METAR LMML NIL=
200808261315 METAR LMML 261315Z 21007KT 150V260 9999 FEW018 28/21 Q1016
                        NOSIG=
200808261300 METAR LMML NIL=
200808261245 METAR LMML 261245Z 19007KT 160V230 9999 SCT018 28/21 Q1016
                        NOSIG=
200808261230 METAR LMML NIL=
200808261215 METAR LMML 261215Z 20006KT 170V250 9999 SCT017 28/21 Q1017
                        NOSIG=
200808261145 METAR LMML 261145Z 18007KT 160V230 9999 SCT020 28/21 Q1017
                        NOSIG=
200808261130 METAR LMML NIL=
200808261115 METAR LMML 261115Z 20006KT 140V250 9999 SCT020 28/22 Q1017
                        NOSIG=
200808261100 METAR LMML NIL=
200808261045 METAR LMML 261045Z 18006KT 060V230 9999 FEW021 28/22 Q1017
                        NOSIG=
200808261015 METAR LMML 261015Z 17007KT 120V220 9999 FEW017 28/21 Q1017
                        NOSIG=
200808260945 METAR LMML 260945Z 18007KT 160V220 9999 FEW022 28/22 Q1017
                        NOSIG=
200808260930 METAR LMML NIL=
200808260915 METAR LMML 260915Z 14005KT 080V200 9999 FEW022 28/22 Q1017
                        NOSIG=
200808260900 METAR LMML NIL=
200808260845 METAR LMML 260845Z 10006KT 070V160 9999 FEW015 28/21 Q1017
                        NOSIG=
200808260830 METAR LMML NIL=
200808260815 METAR LMML 260815Z 10006KT 060V130 9999 FEW015 27/21 Q1017
                        NOSIG=
200808260745 METAR LMML 260745Z 11004KT 040V160 9999 FEW015 27/21 Q1017
                        NOSIG=
200808260715 METAR LMML 260715Z VRB03KT 9999 FEW020 SCT110 27/22 Q1016
                        NOSIG=
200808260700 METAR LMML NIL=
200808260645 METAR LMML 260645Z 00000KT 9999 FEW020 SCT120 25/23 Q1016
                        NOSIG=
200808260630 METAR LMML NIL=
200808260615 METAR LMML 260615Z VRB01KT 9999 FEW015 SCT120 24/24 Q1016
                        NOSIG=
200808260600 METAR LMML NIL=
200808260545 METAR LMML 260545Z VRB01KT 9999 FEW015 24/24 Q1016 NOSIG=
200808260530 METAR LMML NIL=
200808260515 METAR LMML 260515Z VRB01KT 9999 FEW015 SCT120 23/23 Q1016
                        NOSIG=
200808260500 METAR LMML NIL=
200808260445 METAR LMML 260445Z VRB02KT 9999 FEW015 23/23 Q1015 NOSIG=
200808260430 METAR LMML NIL=
200808260415 METAR LMML 260415Z VRB01KT 9999 FEW015 23/23 Q1015 NOSIG=
200808260400 METAR LMML NIL=
200808260345 METAR LMML 260345Z VRB02KT 9999 FEW020 23/23 Q1015 NOSIG=
200808260330 METAR LMML NIL=
200808260315 METAR LMML 260315Z VRB03KT CAVOK 23/23 Q1015 TEMPO 8000 FEW005=
200808260300 METAR LMML NIL=
200808260245 METAR LMML 260245Z VRB03KT CAVOK 23/23 Q1015 TEMPO 8000 FEW005=
200808260230 METAR LMML NIL=
200808260215 METAR LMML 260215Z 31004KT CAVOK 23/22 Q1015 TEMPO 8000 FEW005=
200808260145 METAR LMML 260145Z 33005KT CAVOK 23/22 Q1015 TEMPO 8000 FEW005=
200808260130 METAR LMML NIL=
200808260115 METAR LMML 260115Z 34004KT CAVOK 24/22 Q1015 TEMPO 8000 FEW005=
200808260100 METAR LMML NIL=
200808260045 METAR LMML 260045Z 32004KT CAVOK 24/22 Q1015 TEMPO 8000 FEW005=
200808260030 METAR LMML NIL=
200808260015 METAR LMML 260015Z 32005KT CAVOK 24/22 Q1015 TEMPO 8000 FEW005=
200808260000 METAR LMML NIL=
200808252345 METAR LMML 252345Z 32004KT CAVOK 24/22 Q1015 NOSIG=
200808252330 METAR LMML NIL=
200808252315 METAR LMML 252315Z 31004KT 9999 FEW012 SCT120 24/23 Q1015
                        NOSIG=
200808252300 METAR LMML NIL=
200808252245 METAR LMML 252245Z 32006KT 9999 FEW012 BKN120 24/23 Q1016
                        NOSIG=
200808252230 METAR LMML NIL=
200808252215 METAR LMML 252215Z 32006KT 9999 FEW012 BKN120 25/23 Q1016
                        NOSIG=
200808252200 METAR LMML NIL=
200808252145 METAR LMML 252145Z 33006KT 9999 FEW012 BKN120 25/23 Q1016
                        NOSIG=
200808252130 METAR LMML NIL=
200808252115 METAR LMML 252115Z 32005KT 9999 FEW012 BKN120 25/23 Q1016
                        NOSIG=
200808252100 METAR LMML NIL=
200808252045 METAR LMML 252045Z 31006KT 9999 FEW012 SCT120 25/23 Q1015
                        NOSIG=
200808252030 METAR LMML NIL=
200808252015 METAR LMML 252015Z VRB03KT 9999 FEW012 25/23 Q1015 NOSIG=
200808252000 METAR LMML NIL=
200808251945 METAR LMML 251945Z 33005KT 9999 FEW012 SCT120 25/23 Q1015
                        NOSIG=
200808251930 METAR LMML NIL=
200808251915 METAR LMML 251915Z 33004KT 9999 FEW012 25/23 Q1015 NOSIG=
200808251900 METAR LMML NIL=
200808251845 METAR LMML 251845Z 33005KT 320V020 9999 FEW012 SCT120 26/23
                        Q1015 NOSIG=
200808251830 METAR LMML NIL=
200808251815 METAR LMML 251815Z 34007KT 9999 FEW012 SCT120 26/24 Q1014
                        NOSIG=
200808251800 METAR LMML NIL=
200808251745 METAR LMML 251745Z 35007KT 320V020 9999 FEW014 SCT120 26/23
                        Q1014 NOSIG=
200808251730 METAR LMML NIL=
200808251715 METAR LMML 251715Z 36007KT 9999 FEW019 SCT120 27/23 Q1014
                        NOSIG=
200808251700 METAR LMML NIL=
200808251645 METAR LMML 251645Z 01004KT 340V050 9999 FEW017 28/23 Q1014
                        NOSIG=
200808251630 METAR LMML NIL=
200808251615 METAR LMML 251615Z 36004KT 320V030 9999 FEW017 28/22 Q1014
                        NOSIG=
200808251600 METAR LMML NIL=
200808251545 METAR LMML 251545Z 02004KT 330V070 9999 FEW017 29/23 Q1014
                        NOSIG=
200808251530 METAR LMML NIL=
200808251515 METAR LMML 251515Z 02005KT 340V060 9999 SCT016 30/23 Q1014
                        NOSIG=
200808251500 METAR LMML NIL=
200808251445 METAR LMML 251445Z 10005KT 030V150 9999 SCT018 28/23 Q1014
                        NOSIG=
200808251430 METAR LMML NIL=
200808251415 METAR LMML 251415Z VRB03KT 9999 SCT019 29/23 Q1014 NOSIG=
200808251400 METAR LMML NIL=
200808251345 METAR LMML 251345Z 15004KT 100V220 9999 FEW025 29/23 Q1014
                        NOSIG RMK CB TOP TO NE=
200808251330 METAR LMML NIL=
200808251315 METAR LMML 251315Z 26004KT 9999 SCT023 30/22 Q1014 NOSIG=
200808251300 METAR LMML NIL=
200808251245 METAR LMML 251245Z 02005KT 320V090 9999 SCT023 31/22 Q1014
                        NOSIG=
200808251230 METAR LMML NIL=
200808251215 METAR LMML 251215Z 04005KT 340V100 9999 FEW030 30/22 Q1014
                        NOSIG=
200808251200 METAR LMML NIL=
200808251145 METAR LMML 251145Z 04004KT 330V080 9999 FEW030 30/21 Q1014
                        NOSIG=
200808251130 METAR LMML NIL=
200808251115 METAR LMML 251115Z 04004KT 310V120 9999 FEW030 30/20 Q1014
                        NOSIG=
200808251100 METAR LMML NIL=
200808251045 METAR LMML 251045Z 26005KT CAVOK 30/20 Q1014 NOSIG=
200808251030 METAR LMML NIL=
200808251015 METAR LMML 251015Z 03006KT 280V080 CAVOK 30/19 Q1014 NOSIG=
200808251000 METAR LMML NIL=
200808250945 METAR LMML 250945Z 05007KT 010V080 CAVOK 30/18 Q1014 NOSIG=
200808250930 METAR LMML NIL=
200808250915 METAR LMML 250915Z 04008KT 300V070 CAVOK 29/18 Q1014 NOSIG=
200808250900 METAR LMML NIL=
200808250845 METAR LMML 250845Z 04007KT 360V070 CAVOK 29/21 Q1014 NOSIG=
200808250830 METAR LMML NIL=
200808250815 METAR LMML 250815Z 02006KT 360V080 CAVOK 29/19 Q1014 NOSIG=
200808250800 METAR LMML NIL=
200808250745 METAR LMML 250745Z 04006KT 360V100 CAVOK 29/20 Q1014 NOSIG=
200808250730 METAR LMML NIL=
200808250715 METAR LMML 250715Z 04005KT 340V100 CAVOK 28/21 Q1014 NOSIG=
200808250700 METAR LMML NIL=
200808250645 METAR LMML 250645Z 04005KT 010V070 CAVOK 27/22 Q1013 NOSIG=
200808250630 METAR LMML NIL=
200808250615 METAR LMML 250615Z VRB03KT CAVOK 26/24 Q1013 NOSIG=
200808250600 METAR LMML NIL=
200808250545 METAR LMML 250545Z 32004KT 290V350 9000 FEW130 25/25 Q1013
                        BECMG 9999=
200808250530 METAR LMML NIL=
200808250515 METAR LMML 250515Z 35004KT 280V040 9000 FEW012 24/24 Q1012
                        NOSIG=
200808250500 METAR LMML NIL=
200808250445 METAR LMML 250445Z 35005KT 330V030 9999 FEW015 24/24 Q1012
                        NOSIG=
200808250430 METAR LMML NIL=
200808250415 METAR LMML 250415Z 34005KT 9999 FEW015 24/23 Q1012 NOSIG=
200808250400 METAR LMML NIL=
200808250345 METAR LMML 250345Z 33005KT CAVOK 24/23 Q1012 NOSIG=
200808250330 METAR LMML NIL=
200808250315 METAR LMML 250315Z 32006KT CAVOK 24/23 Q1011 NOSIG=
200808250300 METAR LMML NIL=
200808250245 METAR LMML 250245Z 31005KT 290V350 CAVOK 24/22 Q1011 NOSIG=
200808250230 METAR LMML NIL=
200808250215 METAR LMML 250215Z 32004KT 290V350 CAVOK 24/22 Q1011 NOSIG=
200808250200 METAR LMML NIL=
200808250145 METAR LMML 250145Z 31005KT 270V340 CAVOK 24/23 Q1011 NOSIG=
200808250130 METAR LMML NIL=
200808250115 METAR LMML 250115Z 32004KT 290V350 CAVOK 24/23 Q1011 NOSIG=
200808250100 METAR LMML NIL=
200808250045 METAR LMML 250045Z 31004KT 270V340 CAVOK 24/23 Q1012 NOSIG=
200808250030 METAR LMML NIL=
200808250015 METAR LMML 250015Z 30004KT CAVOK 25/22 Q1012 NOSIG=
200808250000 METAR LMML NIL=
200808242345 METAR LMML 242345Z 30005KT 270V340 CAVOK 25/21 Q1012 NOSIG=
200808242330 METAR LMML NIL=
200808242315 METAR LMML 242315Z 30005KT CAVOK 25/22 Q1012 NOSIG=
200808242300 METAR LMML NIL=
200808242245 METAR LMML 242245Z 30008KT CAVOK 25/22 Q1013 NOSIG=
200808242230 METAR LMML NIL=
200808242215 METAR LMML 242215Z 30005KT 270V330 CAVOK 25/22 Q1013 NOSIG=
200808242200 METAR LMML NIL=
200808242145 METAR LMML 242145Z 30009KT CAVOK 25/22 Q1013 NOSIG=
200808242130 METAR LMML NIL=
200808242115 METAR LMML 242115Z 29004KT CAVOK 25/20 Q1013 NOSIG=
200808242100 METAR LMML NIL=
200808242045 METAR LMML 242045Z VRB02KT CAVOK 25/21 Q1013 NOSIG=
200808242030 METAR LMML NIL=
200808242015 METAR LMML 242015Z 31007KT CAVOK 25/22 Q1012 NOSIG=
200808242000 METAR LMML NIL=
200808241945 METAR LMML 241945Z 32007KT CAVOK 25/22 Q1013 NOSIG=
200808241930 METAR LMML NIL=
200808241915 METAR LMML 241915Z 32007KT CAVOK 25/22 Q1012 NOSIG=
200808241900 METAR LMML NIL=
200808241845 METAR LMML 241845Z 30009KT CAVOK 26/22 Q1012 NOSIG=
200808241830 METAR LMML NIL=
200808241815 METAR LMML 241815Z 30007KT CAVOK 26/21 Q1012 NOSIG=
200808241800 METAR LMML NIL=
200808241745 METAR LMML 241745Z 31008KT CAVOK 27/19 Q1011 NOSIG=
200808241730 METAR LMML NIL=
200808241715 METAR LMML 241715Z 30009KT 270V330 CAVOK 27/18 Q1012 NOSIG=
200808241700 METAR LMML NIL=
200808241645 METAR LMML 241645Z 30008KT CAVOK 28/14 Q1011 NOSIG=
200808241630 METAR LMML NIL=
200808241615 METAR LMML 241615Z 30011KT CAVOK 29/13 Q1012 NOSIG=
200808241600 METAR LMML NIL=
200808241545 METAR LMML 241545Z 30010KT CAVOK 29/13 Q1012 NOSIG=
200808241530 METAR LMML NIL=
200808241515 METAR LMML 241515Z 30009KT 260V330 CAVOK 30/11 Q1012 NOSIG=
200808241500 METAR LMML NIL=
200808241445 METAR LMML 241445Z 31011KT CAVOK 30/13 Q1012 NOSIG=
200808241430 METAR LMML NIL=
200808241415 METAR LMML 241415Z 30011KT CAVOK 31/14 Q1011 NOSIG=
200808241400 METAR LMML NIL=
200808241345 METAR LMML 241345Z 28009KT 240V310 CAVOK 32/13 Q1011 NOSIG=
200808241330 METAR LMML NIL=
200808241315 METAR LMML 241315Z 30007KT 280V340 CAVOK 33/09 Q1011 NOSIG=
200808241300 METAR LMML NIL=
200808241245 METAR LMML 241245Z 29009KT 250V330 CAVOK 33/11 Q1011 NOSIG=
200808241230 METAR LMML NIL=
200808241215 METAR LMML 241215Z 30008KT 240V340 CAVOK 34/10 Q1011 NOSIG=
200808241200 METAR LMML NIL=
200808241145 METAR LMML 241145Z 30009KT 260V330 CAVOK 33/06 Q1011 NOSIG=
200808241130 METAR LMML NIL=
200808241115 METAR LMML 241115Z 31010KT 280V340 CAVOK 33/09 Q1011 NOSIG=
200808241100 METAR LMML NIL=
200808241045 METAR LMML 241045Z 30010KT 270V330 CAVOK 32/08 Q1011 NOSIG=
200808241030 METAR LMML NIL=
200808241015 METAR LMML 241015Z 31011KT CAVOK 32/08 Q1012 NOSIG=
200808241000 METAR LMML NIL=
200808240945 METAR LMML 240945Z 30011KT 270V340 CAVOK 32/09 Q1012 NOSIG=
200808240930 METAR LMML NIL=
200808240915 METAR LMML 240915Z 29013KT CAVOK 31/09 Q1012 NOSIG=
200808240900 METAR LMML NIL=
200808240845 METAR LMML 240845Z 30009KT 250V330 CAVOK 30/12 Q1012 NOSIG=
200808240830 METAR LMML NIL=
200808240815 METAR LMML 240815Z 30010KT 270V330 CAVOK 30/11 Q1012 NOSIG=
200808240800 METAR LMML NIL=
200808240745 METAR LMML 240745Z 30011KT CAVOK 29/11 Q1012 NOSIG=
200808240730 METAR LMML NIL=
200808240715 METAR LMML 240715Z 30011KT 270V330 CAVOK 28/12 Q1012 NOSIG=
200808240700 METAR LMML NIL=
200808240645 METAR LMML 240645Z 29009KT 260V320 CAVOK 28/14 Q1012 NOSIG=
200808240630 METAR LMML NIL=
200808240615 METAR LMML 240615Z 30009KT 270V330 CAVOK 27/16 Q1011 NOSIG=
200808240600 METAR LMML NIL=
200808240545 METAR LMML 240545Z 29009KT 270V330 CAVOK 25/21 Q1011 NOSIG=
200808240530 METAR LMML NIL=
200808240515 METAR LMML 240515Z 29009KT CAVOK 24/21 Q1011 NOSIG=
200808240500 METAR LMML NIL=
200808240445 METAR LMML 240445Z 28009KT CAVOK 24/21 Q1010 NOSIG=
200808240430 METAR LMML NIL=
200808240415 METAR LMML 240415Z 28007KT CAVOK 24/21 Q1010 NOSIG=
200808240400 METAR LMML NIL=
200808240345 METAR LMML 240345Z 28005KT 250V310 CAVOK 24/20 Q1010 NOSIG=
200808240330 METAR LMML NIL=
200808240315 METAR LMML 240315Z 28007KT 250V310 CAVOK 25/20 Q1010 NOSIG=
200808240300 METAR LMML NIL=
200808240245 METAR LMML 240245Z 28008KT 250V310 CAVOK 25/19 Q1010 NOSIG=
200808240230 METAR LMML NIL=
200808240215 METAR LMML 240215Z 27007KT 230V310 CAVOK 25/18 Q1010 NOSIG=
200808240200 METAR LMML NIL=
200808240145 METAR LMML 240145Z 26006KT CAVOK 25/16 Q1010 NOSIG=
200808240130 METAR LMML NIL=
200808240115 METAR LMML 240115Z 27008KT CAVOK 25/15 Q1010 NOSIG=
200808240100 METAR LMML NIL=
200808240045 METAR LMML 240045Z 26005KT 230V290 CAVOK 25/17 Q1010 NOSIG=
200808240015 METAR LMML 240015Z 24005KT 210V280 CAVOK 25/17 Q1011 NOSIG=
200808240000 METAR LMML NIL=
200808232345 METAR LMML 232345Z 24005KT 180V280 CAVOK 25/17 Q1011 NOSIG=
200808232330 METAR LMML NIL=
200808232315 METAR LMML 232315Z 25004KT 210V280 CAVOK 25/18 Q1011 NOSIG=
200808232245 METAR LMML 232245Z 26005KT 210V280 CAVOK 25/18 Q1011 NOSIG=
200808232215 METAR LMML 232215Z 25004KT 210V280 CAVOK 25/19 Q1011 NOSIG=
200808232145 METAR LMML 232145Z VRB03KT CAVOK 25/18 Q1011 NOSIG=
200808232115 METAR LMML 232115Z VRB03KT CAVOK 25/17 Q1012 NOSIG=
200808232045 METAR LMML 232045Z VRB03KT CAVOK 25/18 Q1011 NOSIG=
200808232030 METAR LMML NIL=
200808232015 METAR LMML 232015Z 28005KT CAVOK 25/17 Q1011 NOSIG=
200808232000 METAR LMML NIL=
200808231945 METAR LMML 231945Z VRB03KT CAVOK 26/15 Q1011 NOSIG=
200808231930 METAR LMML NIL=
200808231915 METAR LMML 231915Z 30004KT CAVOK 26/15 Q1011 NOSIG=
200808231845 METAR LMML 231845Z 30004KT CAVOK 26/15 Q1011 NOSIG=
200808231830 METAR LMML NIL=
200808231815 METAR LMML 231815Z 29004KT 270V330 CAVOK 27/14 Q1011 NOSIG=
200808231800 METAR LMML NIL=
200808231745 METAR LMML 231745Z VRB03KT CAVOK 28/13 Q1011 NOSIG=
200808231730 METAR LMML NIL=
200808231715 METAR LMML 231715Z 30004KT CAVOK 28/14 Q1011 NOSIG=
200808231700 METAR LMML NIL=
200808231645 METAR LMML 231645Z 28006KT 250V310 CAVOK 29/15 Q1011 NOSIG=
200808231630 METAR LMML NIL=
200808231615 METAR LMML 231615Z 30008KT 260V320 CAVOK 30/13 Q1011 NOSIG=
200808231600 METAR LMML NIL=
200808231545 METAR LMML 231545Z 28007KT 240V310 CAVOK 30/15 Q1011 NOSIG=
200808231530 METAR LMML NIL=
200808231515 METAR LMML 231515Z 28007KT 240V310 CAVOK 30/16 Q1012 NOSIG=
200808231445 METAR LMML 231445Z 27006KT 210V310 CAVOK 31/14 Q1012 NOSIG=
200808231415 METAR LMML 231415Z 27006KT 200V310 CAVOK 31/14 Q1012 NOSIG=
200808231400 METAR LMML NIL=
200808231345 METAR LMML 231345Z 27008KT 200V310 CAVOK 31/17 Q1012 NOSIG=
200808231330 METAR LMML NIL=
200808231315 METAR LMML 231315Z 28008KT 220V310 CAVOK 32/16 Q1012 NOSIG=
200808231300 METAR LMML NIL=
200808231245 METAR LMML 231245Z 27007KT 220V310 CAVOK 32/15 Q1012 NOSIG=
200808231230 METAR LMML NIL=
200808231215 METAR LMML 231215Z 25007KT 200V310 CAVOK 32/18 Q1012 NOSIG=
200808231200 METAR LMML NIL=
200808231145 METAR LMML 231145Z 23006KT 170V280 CAVOK 32/17 Q1012 NOSIG=
200808231130 METAR LMML NIL=
200808231115 METAR LMML 231115Z 28005KT 180V330 CAVOK 32/13 Q1012 NOSIG=
200808231100 METAR LMML NIL=
200808231045 METAR LMML 231045Z 29005KT 220V340 CAVOK 31/13 Q1013 NOSIG=
200808231030 METAR LMML NIL=
200808231015 METAR LMML 231015Z 28007KT 220V320 CAVOK 31/13 Q1013 NOSIG=
200808231000 METAR LMML NIL=
200808230945 METAR LMML 230945Z 29006KT 250V330 CAVOK 31/14 Q1013 NOSIG=
200808230930 METAR LMML NIL=
200808230915 METAR LMML 230915Z 29006KT 190V330 9999 FEW020 29/16 Q1014
                        NOSIG=
200808230900 METAR LMML NIL=
200808230845 METAR LMML 230845Z 30006KT 240V350 9999 FEW020 29/18 Q1014
                        NOSIG=
200808230830 METAR LMML NIL=
200808230815 METAR LMML 230815Z 28007KT 240V320 9999 FEW020 28/20 Q1014
                        NOSIG=
200808230800 METAR LMML NIL=
200808230745 METAR LMML 230745Z 28007KT 240V320 9999 FEW020 28/19 Q1014
                        NOSIG=
200808230730 METAR LMML NIL=
200808230715 METAR LMML 230715Z 28007KT 230V320 9999 FEW020 27/20 Q1013
                        NOSIG=
200808230700 METAR LMML NIL=
200808230645 METAR LMML 230645Z 26007KT 230V290 9999 FEW015 26/19 Q1013
                        NOSIG=
200808230630 METAR LMML NIL=
200808230615 METAR LMML 230615Z 27007KT 230V310 9999 FEW012 25/22 Q1013
                        NOSIG=
200808230600 METAR LMML NIL=
200808230545 METAR LMML 230545Z 26005KT 210V290 9999 FEW012 25/23 Q1013
                        NOSIG=
200808230530 METAR LMML NIL=
200808230515 METAR LMML 230515Z 24004KT 210V270 9999 FEW012 24/23 Q1013
                        NOSIG=
200808230500 METAR LMML NIL=
200808230445 METAR LMML 230445Z 22004KT CAVOK 24/22 Q1012 NOSIG=
200808230430 METAR LMML NIL=
200808230415 METAR LMML 230415Z 22004KT CAVOK 24/22 Q1012 NOSIG=
200808230400 METAR LMML NIL=
200808230345 METAR LMML 230345Z 22004KT CAVOK 24/21 Q1012 NOSIG=
200808230315 METAR LMML 230315Z VRB03KT CAVOK 23/21 Q1013 NOSIG=
200808230300 METAR LMML NIL=
200808230245 METAR LMML 230245Z VRB03KT CAVOK 24/20 Q1013 NOSIG=
200808230230 METAR LMML NIL=
200808230215 METAR LMML 230215Z VRB03KT CAVOK 24/19 Q1013 NOSIG=
200808230200 METAR LMML NIL=
200808230145 METAR LMML 230145Z 23004KT CAVOK 24/15 Q1013 NOSIG=
200808230130 METAR LMML NIL=
200808230115 METAR LMML 230115Z 24004KT CAVOK 23/16 Q1013 NOSIG=
200808230100 METAR LMML NIL=
200808230045 METAR LMML 230045Z VRB03KT CAVOK 23/18 Q1013 NOSIG=
200808230030 METAR LMML NIL=
200808230015 METAR LMML 230015Z 28004KT CAVOK 23/22 Q1013 NOSIG=
200808230000 METAR LMML NIL=
200808222345 METAR LMML 222345Z VRB02KT CAVOK 23/22 Q1014 NOSIG=
200808222330 METAR LMML NIL=
200808222315 METAR LMML 222315Z VRB01KT CAVOK 23/22 Q1014 NOSIG=
200808222300 METAR LMML NIL=
200808222245 METAR LMML 222245Z VRB01KT CAVOK 24/22 Q1014 NOSIG=
200808222230 METAR LMML NIL=
200808222215 METAR LMML 222215Z VRB03KT CAVOK 24/22 Q1014 NOSIG=
200808222200 METAR LMML NIL=
200808222145 METAR LMML 222145Z VRB03KT CAVOK 24/22 Q1014 NOSIG=
200808222130 METAR LMML NIL=
200808222100 METAR LMML NIL=
200808222045 METAR LMML 222045Z VRB03KT CAVOK 25/21 Q1014 NOSIG=
200808222030 METAR LMML NIL=
200808222015 METAR LMML 222015Z VRB02KT CAVOK 25/21 Q1014 NOSIG=
200808222000 METAR LMML NIL=
200808221945 METAR LMML 221945Z VRB02KT CAVOK 26/21 Q1014 NOSIG=
200808221930 METAR LMML NIL=
200808221915 METAR LMML 221915Z VRB03KT CAVOK 26/21 Q1014 NOSIG=
200808221900 METAR LMML NIL=
200808221845 METAR LMML 221845Z VRB03KT CAVOK 26/19 Q1014 NOSIG=
200808221830 METAR LMML NIL=
200808221815 METAR LMML 221815Z 13004KT CAVOK 26/21 Q1014 NOSIG=
200808221800 METAR LMML NIL=
200808221745 METAR LMML 221745Z 13005KT CAVOK 27/21 Q1014 NOSIG=
200808221730 METAR LMML NIL=
200808221715 METAR LMML 221715Z 14005KT 110V170 CAVOK 28/21 Q1014 NOSIG=
200808221700 METAR LMML NIL=
200808221645 METAR LMML 221645Z 16004KT 120V190 CAVOK 29/18 Q1013 NOSIG=
200808221630 METAR LMML NIL=
200808221615 METAR LMML 221615Z VRB03KT CAVOK 29/18 Q1013 NOSIG=
200808221600 METAR LMML NIL=
200808221545 METAR LMML 221545Z 21005KT 170V250 CAVOK 30/18 Q1013 NOSIG=
200808221530 METAR LMML NIL=
200808221515 METAR LMML 221515Z VRB03KT CAVOK 30/17 Q1014 NOSIG=
200808221500 METAR LMML NIL=
200808221445 METAR LMML 221445Z 24004KT 200V310 CAVOK 30/17 Q1014 NOSIG=
200808221430 METAR LMML NIL=
200808221415 METAR LMML 221415Z VRB03KT CAVOK 30/20 Q1014 NOSIG=
200808221400 METAR LMML NIL=
200808221345 METAR LMML 221345Z 03005KT 350V080 CAVOK 31/19 Q1014 NOSIG=
200808221330 METAR LMML NIL=
200808221315 METAR LMML 221315Z 03004KT 330V140 CAVOK 31/19 Q1014 NOSIG=
200808221300 METAR LMML NIL=
200808221245 METAR LMML 221245Z 23005KT 160V310 CAVOK 30/19 Q1015 NOSIG=
200808221230 METAR LMML NIL=
200808221215 METAR LMML 221215Z 20006KT 170V250 CAVOK 30/18 Q1015 NOSIG=
200808221200 METAR LMML NIL=
200808221145 METAR LMML 221145Z 23004KT 160V330 CAVOK 30/18 Q1015 NOSIG=
200808221130 METAR LMML NIL=
200808221115 METAR LMML 221115Z 22005KT 160V280 CAVOK 30/17 Q1015 NOSIG=
200808221045 METAR LMML 221045Z 20005KT 150V250 9999 FEW040 30/18 Q1015
                        NOSIG=
200808221030 METAR LMML NIL=
200808221015 METAR LMML 221015Z VRB03KT CAVOK 31/17 Q1015 NOSIG=
200808221000 METAR LMML NIL=
200808220945 METAR LMML 220945Z VRB03KT CAVOK 30/17 Q1015 NOSIG=
200808220930 METAR LMML NIL=
200808220915 METAR LMML 220915Z VRB03KT CAVOK 30/17 Q1015 NOSIG=
200808220900 METAR LMML NIL=
200808220845 METAR LMML 220845Z VRB03KT CAVOK 29/16 Q1015 NOSIG=
200808220830 METAR LMML NIL=
200808220815 METAR LMML 220815Z VRB02KT CAVOK 30/13 Q1015 NOSIG=
200808220800 METAR LMML NIL=
200808220745 METAR LMML 220745Z VRB02KT CAVOK 30/13 Q1015 NOSIG=
200808220730 METAR LMML NIL=
200808220715 METAR LMML 220715Z VRB02KT CAVOK 28/14 Q1015 NOSIG=
200808220700 METAR LMML NIL=
200808220645 METAR LMML 220645Z VRB02KT CAVOK 27/15 Q1015 NOSIG=
200808220630 METAR LMML NIL=
200808220615 METAR LMML 220615Z VRB01KT CAVOK 26/15 Q1015 NOSIG=
200808220600 METAR LMML NIL=
200808220545 METAR LMML 220545Z VRB01KT CAVOK 24/15 Q1015 NOSIG=
200808220530 METAR LMML NIL=
200808220515 METAR LMML 220515Z VRB01KT CAVOK 23/15 Q1015 NOSIG=
200808220500 METAR LMML NIL=
200808220445 METAR LMML 220445Z 00000KT CAVOK 22/15 Q1014 NOSIG=
200808220430 METAR LMML NIL=
200808220415 METAR LMML 220415Z 00000KT CAVOK 22/15 Q1014 NOSIG=
200808220400 METAR LMML NIL=
200808220345 METAR LMML 220345Z VRB01KT CAVOK 22/16 Q1014 NOSIG=
200808220330 METAR LMML NIL=
200808220315 METAR LMML 220315Z 00000KT CAVOK 23/14 Q1014 TEMPO 8000=
200808220300 METAR LMML NIL=
200808220245 METAR LMML 220245Z VRB01KT CAVOK 23/16 Q1014 NOSIG=
200808220230 METAR LMML NIL=
200808220215 METAR LMML 220215Z VRB02KT CAVOK 22/16 Q1014 NOSIG=
200808220145 METAR LMML 220145Z VRB02KT CAVOK 22/16 Q1014 NOSIG=
200808220130 METAR LMML NIL=
200808220115 METAR LMML 220115Z VRB02KT CAVOK 22/17 Q1015 NOSIG=
200808220100 METAR LMML NIL=
200808220045 METAR LMML 220045Z VRB02KT CAVOK 23/21 Q1015 NOSIG=
200808220030 METAR LMML NIL=
200808220015 METAR LMML 220015Z VRB02KT CAVOK 23/21 Q1015 NOSIG=
200808220000 METAR LMML NIL=
200808212345 METAR LMML 212345Z VRB03KT CAVOK 23/21 Q1015 NOSIG=
200808212330 METAR LMML NIL=
200808212315 METAR LMML 212315Z VRB03KT CAVOK 23/21 Q1015 NOSIG=
200808212300 METAR LMML NIL=
200808212245 METAR LMML 212245Z VRB02KT CAVOK 23/20 Q1015 NOSIG=
200808212230 METAR LMML NIL=
200808212215 METAR LMML 212215Z VRB02KT CAVOK 24/20 Q1015 NOSIG=
200808212200 METAR LMML NIL=
200808212145 METAR LMML 212145Z VRB02KT CAVOK 24/20 Q1015 NOSIG=
200808212130 METAR LMML NIL=
200808212115 METAR LMML 212115Z 33004KT CAVOK 24/20 Q1015 NOSIG=
200808212100 METAR LMML NIL=
200808212045 METAR LMML 212045Z VRB03KT CAVOK 24/19 Q1015 NOSIG=
200808212030 METAR LMML NIL=
200808212015 METAR LMML 212015Z VRB02KT CAVOK 25/19 Q1015 NOSIG=
200808212000 METAR LMML NIL=
200808211945 METAR LMML 211945Z VRB03KT CAVOK 25/20 Q1015 NOSIG=
200808211930 METAR LMML NIL=
200808211915 METAR LMML 211915Z VRB03KT CAVOK 25/21 Q1015 NOSIG=
200808211900 METAR LMML NIL=
200808211845 METAR LMML 211845Z VRB03KT CAVOK 25/21 Q1015 NOSIG=
200808211830 METAR LMML NIL=
200808211815 METAR LMML 211815Z VRB03KT CAVOK 26/21 Q1014 NOSIG=
200808211800 METAR LMML NIL=
200808211745 METAR LMML 211745Z VRB02KT CAVOK 27/21 Q1014 NOSIG=
200808211730 LMML NIL=
200808211715 METAR LMML 211715Z VRB03KT CAVOK 27/21 Q1014 NOSIG=
200808211700 METAR LMML NIL=
200808211645 METAR LMML 211645Z VRB03KT CAVOK 28/21 Q1014 NOSIG=
200808211630 METAR LMML NIL=
200808211615 METAR LMML 211615Z VRB03KT CAVOK 28/21 Q1014 NOSIG=
200808211600 METAR LMML NIL=
200808211545 METAR LMML 211545Z 02004KT 300V070 9999 FEW030 29/21 Q1014
                        NOSIG=
200808211515 METAR LMML 211515Z 03005KT 360V070 9999 FEW030 29/21 Q1014
                        NOSIG=
200808211500 METAR LMML NIL=
200808211445 METAR LMML 211445Z 04006KT 360V080 9999 FEW030 29/21 Q1014
                        NOSIG=
200808211430 METAR LMML NIL=
200808211415 METAR LMML 211415Z 04006KT 010V070 9999 FEW030 30/20 Q1014
                        NOSIG=
200808211400 METAR LMML NIL=
200808211345 METAR LMML 211345Z 03007KT 010V070 9999 FEW030 30/20 Q1014
                        NOSIG=
200808211330 METAR LMML NIL=
200808211300 METAR LMML NIL=
200808211245 METAR LMML 211245Z 23006KT 180V280 9999 FEW034 30/13 Q1015
                        NOSIG=
200808211230 METAR LMML NIL=
200808211215 METAR LMML 211215Z 23007KT 200V300 9999 FEW034 30/14 Q1015
                        NOSIG=
200808211200 METAR LMML NIL=
200808211145 METAR LMML 211145Z 22006KT 160V270 9999 FEW034 29/17 Q1015
                        NOSIG=
200808211130 METAR LMML NIL=
200808211115 METAR LMML 211115Z 23006KT 170V280 9999 FEW034 30/18 Q1015
                        NOSIG=
200808211100 METAR LMML NIL=
200808211045 METAR LMML 211045Z 22005KT 130V320 9999 FEW020 30/20 Q1015
                        NOSIG=
200808211030 METAR LMML NIL=
200808211015 METAR LMML 211015Z 12004KT 050V280 9999 FEW020 29/20 Q1015
                        NOSIG=
200808211000 METAR LMML NIL=
200808210945 METAR LMML 210945Z 01004KT 320V090 CAVOK 30/20 Q1016 NOSIG=
200808210915 METAR LMML 210915Z 04005KT 320V130 CAVOK 30/20 Q1015 NOSIG=
200808210900 METAR LMML NIL=
200808210845 METAR LMML 210845Z VRB03KT CAVOK 29/15 Q1015 NOSIG=
200808210815 METAR LMML 210815Z VRB03KT 9999 FEW020 28/16 Q1015 NOSIG=
200808210800 METAR LMML NIL=
200808210745 METAR LMML 210745Z 30005KT 260V360 9999 FEW020 28/18 Q1015
                        NOSIG=
200808210730 METAR LMML NIL=
200808210715 METAR LMML 210715Z 31005KT 280V350 9999 FEW020 26/18 Q1015
                        NOSIG=
200808210700 METAR LMML NIL=
200808210645 METAR LMML 210645Z 29005KT 9999 FEW020 26/20 Q1015 NOSIG=
200808210630 METAR LMML NIL=
200808210615 METAR LMML 210615Z 31005KT 280V340 9999 FEW020 25/22 Q1015
                        NOSIG=
200808210600 METAR LMML NIL=
200808210545 METAR LMML 210545Z 32005KT 290V360 9999 FEW020 24/23 Q1015
                        NOSIG=
200808210530 METAR LMML NIL=
200808210515 METAR LMML 210515Z 32005KT 9999 FEW015 23/23 Q1015 NOSIG=
200808210500 METAR LMML NIL=
200808210445 METAR LMML 210445Z 32007KT 9999 FEW015 23/22 Q1014 NOSIG=
200808210430 METAR LMML NIL=
200808210415 METAR LMML 210415Z 32004KT 290V010 9999 FEW015 23/21 Q1014
                        NOSIG=
200808210400 METAR LMML NIL=
200808210345 METAR LMML 210345Z 33005KT 270V020 9999 FEW015 24/22 Q1014
                        NOSIG=
200808210330 METAR LMML NIL=
200808210315 METAR LMML 210315Z 33007KT CAVOK 24/22 Q1014 NOSIG=
200808210300 METAR LMML NIL=
200808210245 METAR LMML 210245Z 33006KT CAVOK 23/21 Q1014 NOSIG=
200808210230 METAR LMML NIL=
200808210215 METAR LMML 210215Z 32007KT CAVOK 23/22 Q1014 NOSIG=
200808210200 METAR LMML NIL=
200808210145 METAR LMML 210145Z 30005KT 280V340 CAVOK 24/21 Q1014 NOSIG=
200808210130 METAR LMML NIL=
200808210115 METAR LMML 210115Z 31008KT CAVOK 24/21 Q1014 NOSIG=
200808210100 METAR LMML NIL=
200808210045 METAR LMML 210045Z 30005KT CAVOK 24/20 Q1014 NOSIG=
200808210030 METAR LMML NIL=
200808210015 METAR LMML 210015Z 29005KT 260V320 CAVOK 24/19 Q1015 NOSIG=
200808210000 METAR LMML NIL=
200808202345 METAR LMML 202345Z 30004KT CAVOK 23/20 Q1015 NOSIG=
200808202330 METAR LMML NIL=
200808202315 METAR LMML 202315Z 29004KT 260V320 CAVOK 24/20 Q1015 NOSIG=
200808202300 METAR LMML NIL=
200808202245 METAR LMML 202245Z 30005KT CAVOK 24/20 Q1015 NOSIG=
200808202230 METAR LMML NIL=
200808202215 METAR LMML 202215Z 30006KT CAVOK 24/19 Q1015 NOSIG=
200808202200 METAR LMML NIL=
200808202145 METAR LMML 202145Z 27004KT 220V290 CAVOK 24/18 Q1015 NOSIG=
200808202130 METAR LMML NIL=
200808202115 METAR LMML 202115Z 29005KT CAVOK 24/19 Q1015 NOSIG=
200808202100 METAR LMML NIL=
200808202045 METAR LMML 202045Z 30004KT CAVOK 24/20 Q1015 NOSIG=
200808202030 METAR LMML NIL=
200808202015 METAR LMML 202015Z 31007KT CAVOK 25/21 Q1015 NOSIG=
200808202000 METAR LMML NIL=
200808201945 METAR LMML 201945Z VRB03KT CAVOK 25/19 Q1015 NOSIG=
200808201930 METAR LMML NIL=
200808201915 METAR LMML 201915Z 31006KT CAVOK 25/18 Q1015 NOSIG=
200808201900 METAR LMML NIL=
200808201845 METAR LMML 201845Z 30006KT 270V330 CAVOK 25/17 Q1015 NOSIG=
200808201830 METAR LMML NIL=
200808201815 METAR LMML 201815Z 30007KT CAVOK 26/16 Q1014 NOSIG=
200808201800 METAR LMML NIL=
200808201745 METAR LMML 201745Z 31007KT CAVOK 27/12 Q1014 NOSIG=
200808201730 METAR LMML NIL=
200808201715 METAR LMML 201715Z 28006KT 250V320 CAVOK 27/14 Q1014 NOSIG=
200808201700 METAR LMML NIL=
200808201645 METAR LMML 201645Z 30007KT CAVOK 29/12 Q1014 NOSIG=
200808201630 METAR LMML NIL=
200808201615 METAR LMML 201615Z 29005KT 240V320 CAVOK 29/11 Q1014 NOSIG=
200808201600 METAR LMML NIL=
200808201545 METAR LMML 201545Z 28007KT 240V310 CAVOK 30/12 Q1014 NOSIG=
200808201530 METAR LMML NIL=
200808201515 METAR LMML 201515Z 35004KT 170V110 CAVOK 30/16 Q1014 NOSIG=
200808201500 METAR LMML NIL=
200808201445 METAR LMML 201445Z VRB03KT CAVOK 31/16 Q1014 NOSIG=
200808201430 METAR LMML NIL=
200808201415 METAR LMML 201415Z 24007KT 190V310 CAVOK 30/13 Q1014 NOSIG=
200808201400 METAR LMML NIL=
200808201345 METAR LMML 201345Z 21007KT 170V260 CAVOK 29/15 Q1014 NOSIG=
200808201330 METAR LMML NIL=
200808201315 METAR LMML 201315Z 20006KT 150V270 CAVOK 29/15 Q1014 NOSIG=
200808201300 METAR LMML NIL=
200808201245 METAR LMML 201245Z 20006KT 150V280 CAVOK 30/15 Q1014 NOSIG=
200808201230 METAR LMML NIL=
200808201215 METAR LMML 201215Z 20007KT 160V240 CAVOK 30/17 Q1014 NOSIG=
200808201200 METAR LMML NIL=
200808201145 METAR LMML 201145Z VRB03KT CAVOK 31/14 Q1014 NOSIG=
200808201130 METAR LMML NIL=
200808201115 METAR LMML 201115Z VRB02KT CAVOK 31/13 Q1015 NOSIG=
200808201100 METAR LMML NIL=
200808201045 METAR LMML 201045Z 03005KT 320V090 CAVOK 30/14 Q1014 NOSIG=
200808201030 METAR LMML NIL=
200808201015 METAR LMML 201015Z 36004KT 290V100 CAVOK 30/13 Q1015 NOSIG=
200808201000 METAR LMML NIL=
200808200945 METAR LMML 200945Z 02006KT 330V090 CAVOK 30/14 Q1015 NOSIG=
200808200930 METAR LMML NIL=
200808200915 METAR LMML 200915Z 01004KT 320V060 CAVOK 30/13 Q1015 NOSIG=
200808200900 METAR LMML NIL=
200808200845 METAR LMML 200845Z 03005KT 330V110 CAVOK 30/08 Q1014 NOSIG=
200808200830 METAR LMML NIL=
200808200815 METAR LMML 200815Z 02004KT 210V070 CAVOK 30/09 Q1014 NOSIG=
200808200800 METAR LMML NIL=
200808200745 METAR LMML 200745Z VRB03KT CAVOK 29/11 Q1014 NOSIG=
200808200730 METAR LMML NIL=
200808200715 METAR LMML 200715Z VRB03KT CAVOK 27/16 Q1014 NOSIG=
200808200700 METAR LMML NIL=
200808200645 METAR LMML 200645Z VRB03KT CAVOK 26/18 Q1014 NOSIG=
200808200630 METAR LMML NIL=
200808200615 METAR LMML 200615Z 33005KT 9999 FEW025 24/21 Q1014 NOSIG=
200808200600 METAR LMML NIL=
200808200545 METAR LMML 200545Z 30005KT CAVOK 23/21 Q1013 NOSIG=
200808200530 METAR LMML NIL=
200808200515 METAR LMML 200515Z 30004KT CAVOK 22/19 Q1013 NOSIG=
200808200500 METAR LMML NIL=
200808200445 METAR LMML 200445Z 29004KT 9999 FEW015 22/17 Q1013 NOSIG=
200808200430 METAR LMML NIL=
200808200415 METAR LMML 200415Z 31004KT CAVOK 21/16 Q1013 NOSIG=
200808200400 METAR LMML NIL=
200808200345 METAR LMML 200345Z VRB03KT CAVOK 21/15 Q1013 NOSIG=
200808200330 METAR LMML NIL=
200808200315 METAR LMML 200315Z VRB02KT CAVOK 22/16 Q1013 NOSIG=
200808200300 METAR LMML NIL=
200808200245 METAR LMML 200245Z VRB02KT CAVOK 21/17 Q1013 NOSIG=
200808200230 METAR LMML NIL=
200808200215 METAR LMML 200215Z 31006KT CAVOK 22/20 Q1013 NOSIG=
200808200200 METAR LMML NIL=
200808200145 METAR LMML 200145Z 30004KT CAVOK 22/20 Q1013 NOSIG=
200808200130 METAR LMML NIL=
200808200115 METAR LMML 200115Z 29004KT CAVOK 22/20 Q1013 NOSIG=
200808200100 METAR LMML NIL=
200808200045 METAR LMML 200045Z VRB03KT CAVOK 22/20 Q1013 NOSIG=
200808200030 METAR LMML NIL=
200808200015 METAR LMML 200015Z VRB03KT CAVOK 23/21 Q1013 NOSIG=
200808200000 METAR LMML NIL=
200808192345 METAR LMML 192345Z VRB02KT CAVOK 22/20 Q1014 NOSIG=
200808192330 METAR LMML NIL=
200808192315 METAR LMML 192315Z VRB02KT CAVOK 22/19 Q1014 NOSIG=
200808192245 METAR LMML 192245Z VRB02KT CAVOK 23/20 Q1014 NOSIG=
200808192230 METAR LMML NIL=
200808192215 METAR LMML 192215Z VRB03KT CAVOK 23/19 Q1014 NOSIG=
200808192200 METAR LMML NIL=
200808192145 METAR LMML 192145Z VRB03KT CAVOK 24/19 Q1014 NOSIG=
200808192115 METAR LMML 192115Z 32004KT 300V030 CAVOK 24/20 Q1014 NOSIG=
200808192100 METAR LMML NIL=
200808192045 METAR LMML 192045Z 32004KT CAVOK 24/19 Q1014 NOSIG=
200808192015 METAR LMML 192015Z 31004KT 290V350 CAVOK 24/19 Q1014 NOSIG=
200808192000 METAR LMML NIL=
200808191945 METAR LMML 191945Z 32005KT CAVOK 24/19 Q1014 NOSIG=
200808191930 METAR LMML NIL=
200808191915 METAR LMML 191915Z 32005KT CAVOK 25/18 Q1014 NOSIG=
200808191900 METAR LMML NIL=
200808191845 METAR LMML 191845Z VRB03KT CAVOK 25/18 Q1014 NOSIG=
200808191830 METAR LMML NIL=
200808191815 METAR LMML 191815Z 03004KT 360V080 CAVOK 26/19 Q1013 NOSIG=
200808191800 METAR LMML NIL=
200808191745 METAR LMML 191745Z 05005KT 360V100 CAVOK 26/19 Q1013 NOSIG=
200808191730 METAR LMML NIL=
200808191715 METAR LMML 191715Z 04004KT 360V090 9999 FEW036 27/19 Q1013
                        NOSIG=
200808191700 METAR LMML NIL=
200808191645 METAR LMML 191645Z 03004KT 350V070 9999 FEW036 28/19 Q1013
                        NOSIG=
200808191630 METAR LMML NIL=
200808191615 METAR LMML 191615Z 03006KT 350V060 9999 FEW036 28/19 Q1013
                        NOSIG=
200808191600 METAR LMML NIL=
200808191545 METAR LMML 191545Z VRB03KT 9999 FEW036 29/18 Q1013 NOSIG=
200808191530 METAR LMML NIL=
200808191515 METAR LMML 191515Z 24005KT 190V300 9999 FEW040 29/15 Q1014
                        NOSIG=
200808191500 METAR LMML NIL=
200808191445 METAR LMML 191445Z 21005KT 170V270 9999 FEW040 28/15 Q1014
                        NOSIG=
200808191430 METAR LMML NIL=
200808191415 METAR LMML 191415Z 21006KT 150V320 9999 FEW040 29/14 Q1014
                        NOSIG=
200808191400 METAR LMML NIL=
200808191345 METAR LMML 191345Z 20005KT 160V270 9999 FEW040 28/14 Q1014
                        NOSIG=
200808191330 METAR LMML NIL=
200808191315 METAR LMML 191315Z 22006KT 180V270 9999 FEW040 28/15 Q1014
                        NOSIG=
200808191300 METAR LMML NIL=
200808191245 METAR LMML 191245Z 20006KT 150V250 9999 FEW040 29/15 Q1015
                        NOSIG=
200808191230 METAR LMML NIL=
200808191215 METAR LMML 191215Z 20005KT 130V280 9999 FEW035 29/15 Q1015
                        NOSIG=
200808191200 METAR LMML NIL=
200808191145 METAR LMML 191145Z 19006KT 140V260 9999 FEW025 29/14 Q1015
                        NOSIG=
200808191130 METAR LMML NIL=
200808191115 METAR LMML 191115Z 19005KT 140V270 9999 FEW025 29/13 Q1015
                        NOSIG=
200808191100 METAR LMML NIL=
200808191045 METAR LMML 191045Z 19004KT 130V310 9999 FEW025 29/11 Q1015
                        NOSIG=
200808191030 METAR LMML NIL=
200808191015 METAR LMML 191015Z 14004KT 070V190 9999 FEW025 29/11 Q1015
                        NOSIG=
200808191000 METAR LMML NIL=
200808190945 METAR LMML 190945Z 08004KT 360V140 9999 FEW025 30/13 Q1015
                        NOSIG=
200808190930 METAR LMML NIL=
200808190915 METAR LMML 190915Z 14005KT 070V210 9999 FEW025 29/13 Q1016
                        NOSIG=
200808190900 METAR LMML NIL=
200808190845 METAR LMML 190845Z 11004KT 020V170 9999 FEW025 28/13 Q1016
                        NOSIG=
200808190830 METAR LMML NIL=
200808190815 METAR LMML 190815Z VRB03KT CAVOK 28/15 Q1015 NOSIG=
200808190745 METAR LMML 190745Z 09004KT 010V130 CAVOK 28/15 Q1015 NOSIG=
200808190715 METAR LMML 190715Z 09004KT 030V130 CAVOK 27/17 Q1015 NOSIG=
200808190700 METAR LMML NIL=
200808190645 METAR LMML 190645Z VRB03KT CAVOK 26/19 Q1015 NOSIG=
200808190630 METAR LMML NIL=
200808190615 METAR LMML 190615Z VRB02KT CAVOK 25/21 Q1015 NOSIG=
200808190600 METAR LMML NIL=
200808190545 METAR LMML 190545Z VRB01KT CAVOK 24/22 Q1015 NOSIG=
200808190530 METAR LMML NIL=
200808190515 METAR LMML 190515Z VRB01KT CAVOK 22/21 Q1015 NOSIG=
200808190445 METAR LMML 190445Z VRB02KT CAVOK 22/21 Q1015 NOSIG=
200808190430 METAR LMML NIL=
200808190415 METAR LMML 190415Z VRB03KT CAVOK 22/20 Q1015 NOSIG=
200808190400 METAR LMML NIL=
200808190345 METAR LMML 190345Z VRB03KT CAVOK 22/21 Q1015 NOSIG=
200808190330 METAR LMML NIL=
200808190315 METAR LMML 190315Z VRB03KT CAVOK 22/20 Q1015 NOSIG=
200808190300 METAR LMML NIL=
200808190245 METAR LMML 190245Z VRB03KT CAVOK 22/20 Q1015 NOSIG=
200808190230 METAR LMML NIL=
200808190215 METAR LMML 190215Z VRB03KT CAVOK 22/20 Q1015 NOSIG=
200808190200 METAR LMML NIL=
200808190145 METAR LMML 190145Z VRB03KT CAVOK 22/20 Q1015 NOSIG=
200808190130 METAR LMML NIL=
200808190115 METAR LMML 190115Z VRB03KT CAVOK 22/19 Q1016 NOSIG=
200808190100 METAR LMML NIL=
200808190045 METAR LMML 190045Z VRB02KT CAVOK 22/19 Q1016 NOSIG=
200808190030 METAR LMML NIL=
200808190015 METAR LMML 190015Z VRB02KT CAVOK 22/19 Q1016 NOSIG=
200808190000 METAR LMML NIL=
200808182345 METAR LMML 182345Z VRB01KT CAVOK 22/19 Q1016 NOSIG=
200808182330 METAR LMML NIL=
200808182315 METAR LMML 182315Z VRB01KT CAVOK 22/20 Q1016 NOSIG=
200808182300 METAR LMML NIL=
200808182245 METAR LMML 182245Z VRB02KT CAVOK 22/19 Q1016 NOSIG=
200808182230 METAR LMML NIL=
200808182215 METAR LMML 182215Z VRB02KT CAVOK 23/19 Q1016 NOSIG=
200808182200 METAR LMML NIL=
200808182145 METAR LMML 182145Z VRB03KT CAVOK 23/20 Q1016 NOSIG=
200808182130 METAR LMML NIL=
200808182115 METAR LMML 182115Z 00000KT CAVOK 24/20 Q1016 NOSIG=
200808182100 METAR LMML NIL=
200808182045 METAR LMML 182045Z VRB02KT CAVOK 24/20 Q1016 NOSIG=
200808182030 METAR LMML NIL=
200808182015 METAR LMML 182015Z VRB03KT CAVOK 25/20 Q1016 NOSIG=
200808182000 METAR LMML NIL=
200808181945 METAR LMML 181945Z VRB03KT CAVOK 25/20 Q1016 NOSIG=
200808181930 METAR LMML NIL=
200808181915 METAR LMML 181915Z 08004KT CAVOK 25/20 Q1016 NOSIG=
200808181900 METAR LMML NIL=
200808181845 METAR LMML 181845Z VRB03KT CAVOK 25/18 Q1016 NOSIG=
200808181830 METAR LMML NIL=
200808181815 METAR LMML 181815Z VRB03KT CAVOK 26/18 Q1015 NOSIG=
200808181800 METAR LMML NIL=
200808181745 METAR LMML 181745Z 10004KT 050V130 CAVOK 25/18 Q1015 NOSIG=
200808181730 METAR LMML NIL=
200808181715 METAR LMML 181715Z 11004KT 080V140 CAVOK 26/18 Q1015 NOSIG=
200808181700 METAR LMML NIL=
200808181645 METAR LMML 181645Z 13005KT 090V170 CAVOK 26/18 Q1015 NOSIG=
200808181630 METAR LMML NIL=
200808181615 METAR LMML 181615Z 13005KT 090V170 CAVOK 27/18 Q1015 NOSIG=
200808181600 METAR LMML NIL=
200808181545 METAR LMML 181545Z 14004KT 070V210 CAVOK 27/17 Q1015 NOSIG=
200808181530 METAR LMML NIL=
200808181515 METAR LMML 181515Z 12006KT 070V180 9999 FEW030 28/17 Q1016
                        NOSIG=
200808181500 METAR LMML NIL=
200808181445 METAR LMML 181445Z VRB03KT 9999 FEW030 29/17 Q1016 NOSIG=
200808181430 METAR LMML NIL=
200808181415 METAR LMML 181415Z 10004KT 010V230 9999 FEW030 28/17 Q1016
                        NOSIG=
200808181400 METAR LMML NIL=
200808181345 METAR LMML 181345Z 09005KT 9999 FEW030 29/18 Q1016 NOSIG=
200808181330 METAR LMML NIL=
200808181315 METAR LMML 181315Z 14004KT 040V210 9999 FEW034 28/18 Q1016
                        NOSIG=
200808181300 METAR LMML NIL=
200808181245 METAR LMML 181245Z 11006KT 030V180 9999 FEW034 28/18 Q1016
                        NOSIG=
200808181230 METAR LMML NIL=
200808181215 METAR LMML 181215Z 13005KT 050V210 9999 FEW025 28/19 Q1017
                        NOSIG=
200808181200 METAR LMML NIL=
200808181145 METAR LMML 181145Z 10006KT 020V210 9999 FEW020 28/19 Q1017
                        NOSIG=
200808181130 METAR LMML NIL=
200808181115 METAR LMML 181115Z 10006KT 030V160 9999 FEW020 28/18 Q1017
                        NOSIG=
200808181100 METAR LMML NIL=
200808181045 METAR LMML 181045Z 09006KT 010V160 9999 FEW000 28/18 Q1017
                        NOSIG=
200808181030 METAR LMML NIL=
200808181015 METAR LMML 181015Z 09006KT 030V160 9999 FEW020 28/18 Q1017
                        NOSIG=
200808181000 METAR LMML NIL=
200808180945 METAR LMML 180945Z 08006KT 020V130 9999 FEW020 28/19 Q1017
                        NOSIG=
200808180930 METAR LMML NIL=
200808180915 METAR LMML 180915Z 11007KT 030V210 9999 FEW020 28/19 Q1017
                        NOSIG=
200808180900 METAR LMML NIL=
200808180845 METAR LMML 180845Z 14006KT 060V190 9999 FEW020 27/19 Q1017
                        NOSIG=
200808180830 METAR LMML NIL=
200808180815 METAR LMML 180815Z VRB03KT 9999 FEW020 27/19 Q1017 NOSIG=
200808180800 METAR LMML NIL=
200808180745 METAR LMML 180745Z VRB02KT 9999 FEW015 27/19 Q1016 NOSIG=
200808180730 METAR LMML NIL=
200808180715 METAR LMML 180715Z VRB02KT 9999 FEW015 26/20 Q1016 NOSIG=
200808180700 METAR LMML NIL=
200808180645 METAR LMML 180645Z VRB03KT 9999 FEW016 25/20 Q1016 NOSIG=
200808180630 METAR LMML NIL=
200808180615 METAR LMML 180615Z VRB01KT 9999 FEW018 24/22 Q1016 NOSIG=
200808180600 METAR LMML NIL=
200808180545 METAR LMML 180545Z 00000KT 9999 FEW018 23/22 Q1015 NOSIG=
200808180530 METAR LMML NIL=
200808180515 METAR LMML 180515Z 00000KT 9999 FEW018 22/21 Q1015 NOSIG=
200808180500 METAR LMML NIL=
200808180445 METAR LMML 180445Z 00000KT 9999 FEW018 21/20 Q1015 NOSIG=
200808180430 METAR LMML NIL=
200808180415 METAR LMML 180415Z VRB01KT 9999 FEW018 21/20 Q1014 NOSIG=
200808180400 METAR LMML NIL=
200808180345 METAR LMML 180345Z VRB01KT 9999 FEW018 21/19 Q1014 NOSIG=
200808180330 METAR LMML NIL=
200808180315 METAR LMML 180315Z VRB01KT CAVOK 21/19 Q1014 NOSIG=
200808180300 METAR LMML NIL=
200808180245 METAR LMML 180245Z 00000KT CAVOK 21/19 Q1014 NOSIG=
200808180230 METAR LMML NIL=
200808180215 METAR LMML 180215Z VRB01KT CAVOK 21/19 Q1014 NOSIG=
200808180200 METAR LMML NIL=
200808180145 METAR LMML 180145Z VRB01KT CAVOK 21/19 Q1014 NOSIG=
200808180130 METAR LMML NIL=
200808180115 METAR LMML 180115Z 00000KT CAVOK 22/19 Q1014 NOSIG=
200808180100 METAR LMML NIL=
200808180045 METAR LMML 180045Z VRB02KT CAVOK 21/18 Q1014 NOSIG=
200808180030 METAR LMML NIL=
200808180015 METAR LMML 180015Z VRB01KT CAVOK 22/18 Q1014 NOSIG=
200808180000 METAR LMML NIL=
200808172345 METAR LMML 172345Z VRB01KT CAVOK 22/19 Q1014 NOSIG=
200808172330 METAR LMML NIL=
200808172315 METAR LMML 172315Z VRB02KT CAVOK 23/19 Q1014 NOSIG=
200808172300 METAR LMML NIL=
200808172245 METAR LMML 172245Z VRB03KT CAVOK 23/19 Q1014 NOSIG=
200808172230 METAR LMML NIL=
200808172215 METAR LMML 172215Z VRB03KT CAVOK 23/19 Q1014 NOSIG=
200808172200 METAR LMML NIL=
200808172145 METAR LMML 172145Z 36005KT CAVOK 24/19 Q1014 NOSIG=
200808172130 METAR LMML NIL=
200808172115 METAR LMML 172115Z 01005KT 350V050 CAVOK 24/18 Q1014 NOSIG=
200808172100 METAR LMML NIL=
200808172045 METAR LMML 172045Z 34004KT CAVOK 23/18 Q1015 NOSIG=
200808172030 METAR LMML NIL=
200808172015 METAR LMML 172015Z 35005KT CAVOK 24/17 Q1014 NOSIG=
200808172000 METAR LMML NIL=
200808171945 METAR LMML 171945Z 34006KT 320V030 CAVOK 24/17 Q1014 NOSIG=
200808171930 METAR LMML NIL=
200808171915 METAR LMML 171915Z 33006KT 300V360 CAVOK 24/17 Q1014 NOSIG=
200808171900 METAR LMML NIL=
200808171845 METAR LMML 171845Z 32006KT 290V350 CAVOK 24/17 Q1014 NOSIG=
200808171830 METAR LMML NIL=
200808171815 METAR LMML 171815Z 30006KT CAVOK 25/16 Q1013 NOSIG=
200808171800 METAR LMML NIL=
200808171745 METAR LMML 171745Z 30007KT 260V330 CAVOK 25/16 Q1013 NOSIG=
200808171730 METAR LMML NIL=
200808171715 METAR LMML 171715Z 26006KT 220V300 CAVOK 26/16 Q1013 NOSIG=
200808171700 METAR LMML NIL=
200808171645 METAR LMML 171645Z 23006KT 190V280 CAVOK 26/17 Q1013 NOSIG=
200808171630 METAR LMML NIL=
200808171615 METAR LMML 171615Z 23007KT 180V280 CAVOK 26/16 Q1012 NOSIG=
200808171600 METAR LMML NIL=
200808171545 METAR LMML 171545Z 23006KT 170V270 CAVOK 27/16 Q1013 NOSIG=
200808171530 METAR LMML NIL=
200808171515 METAR LMML 171515Z 21006KT 160V280 CAVOK 27/16 Q1013 NOSIG=
200808171500 METAR LMML NIL=
200808171445 METAR LMML 171445Z 22006KT 180V270 9999 FEW036 27/16 Q1013
                        NOSIG=
200808171430 METAR LMML NIL=
200808171415 METAR LMML 171415Z 19005KT 140V270 9999 FEW036 27/16 Q1013
                        NOSIG=
200808171400 METAR LMML NIL=
200808171345 METAR LMML 171345Z 18006KT 150V220 9999 FEW036 27/17 Q1013
                        NOSIG=
200808171330 METAR LMML NIL=
200808171315 METAR LMML 171315Z 21005KT 140V290 9999 FEW036 27/16 Q1013
                        NOSIG=
200808171300 METAR LMML NIL=
200808171245 METAR LMML 171245Z 19006KT 150V260 CAVOK 28/17 Q1013 NOSIG=
200808171230 METAR LMML NIL=
200808171215 METAR LMML 171215Z 19007KT 130V240 9999 FEW038 28/16 Q1013
                        NOSIG=
200808171200 METAR LMML NIL=
200808171145 METAR LMML 171145Z 21006KT 150V270 9999 FEW038 28/17 Q1013
                        NOSIG=
200808171130 METAR LMML NIL=
200808171115 METAR LMML 171115Z 20005KT 110V270 9999 FEW030 27/17 Q1013
                        NOSIG=
200808171100 METAR LMML NIL=
200808171045 METAR LMML 171045Z 19006KT 150V250 9999 FEW030 28/18 Q1013
                        NOSIG=
200808171030 METAR LMML NIL=
200808171015 METAR LMML 171015Z 20005KT 140V270 CAVOK 28/17 Q1013 NOSIG=
200808171000 METAR LMML NIL=
200808170945 METAR LMML 170945Z VRB02KT CAVOK 29/15 Q1013 NOSIG=
200808170930 METAR LMML NIL=
200808170915 METAR LMML 170915Z VRB02KT CAVOK 27/16 Q1013 NOSIG=
200808170900 METAR LMML NIL=
200808170845 METAR LMML 170845Z 02004KT 300V110 CAVOK 27/16 Q1013 NOSIG=
200808170830 METAR LMML NIL=
200808170815 METAR LMML 170815Z 35008KT 280V020 CAVOK 27/15 Q1013 NOSIG=
200808170800 METAR LMML NIL=
200808170745 METAR LMML 170745Z 36007KT 320V030 CAVOK 27/16 Q1012 NOSIG=
200808170730 METAR LMML NIL=
200808170715 METAR LMML 170715Z 34008KT CAVOK 25/17 Q1012 NOSIG=
200808170700 METAR LMML NIL=
200808170645 METAR LMML 170645Z 35009KT CAVOK 25/18 Q1011 NOSIG=
200808170630 METAR LMML NIL=
200808170615 METAR LMML 170615Z 34004KT 300V010 CAVOK 24/19 Q1012 NOSIG=
200808170600 METAR LMML NIL=
200808170530 METAR LMML NIL=
200808170500 METAR LMML NIL=
200808170445 METAR LMML 170445Z 31006KT CAVOK 21/19 Q1011 NOSIG=
200808170430 METAR LMML NIL=
200808170415 METAR LMML 170415Z 30006KT 9999 FEW020 21/19 Q1011 NOSIG=
200808170400 METAR LMML NIL=
200808170345 METAR LMML 170345Z 29008KT 250V310 CAVOK 22/18 Q1011 NOSIG=
200808170330 METAR LMML NIL=
200808170315 METAR LMML 170315Z 29007KT CAVOK 21/18 Q1010 NOSIG=
200808170300 METAR LMML NIL=
200808170245 METAR LMML 170245Z 29009KT CAVOK 22/18 Q1010 NOSIG=
200808170230 METAR LMML NIL=
200808170215 METAR LMML 170215Z 29008KT CAVOK 22/19 Q1010 NOSIG=
200808170200 METAR LMML NIL=
200808170145 METAR LMML 170145Z 28007KT CAVOK 22/19 Q1010 NOSIG=
200808170130 METAR LMML NIL=
200808170115 METAR LMML 170115Z 30005KT CAVOK 21/19 Q1011 NOSIG=
200808170100 METAR LMML NIL=
200808170045 METAR LMML 170045Z 29004KT 260V330 CAVOK 22/19 Q1011 NOSIG=
200808170030 METAR LMML NIL=
200808170015 METAR LMML 170015Z VRB03KT CAVOK 22/18 Q1011 NOSIG=
200808170000 METAR LMML NIL=
200808162345 METAR LMML 162345Z VRB03KT CAVOK 22/18 Q1011 NOSIG=
200808162315 METAR LMML 162315Z 30004KT 270V340 CAVOK 22/18 Q1011 NOSIG=
200808162245 METAR LMML 162245Z 30005KT CAVOK 22/18 Q1011 NOSIG=
200808162230 METAR LMML NIL=
200808162215 METAR LMML 162215Z 31005KT CAVOK 22/18 Q1011 NOSIG=
200808162145 METAR LMML 162145Z 32008KT CAVOK 22/18 Q1011 NOSIG=
200808162130 METAR LMML NIL=
200808162115 METAR LMML 162115Z 32008KT CAVOK 22/18 Q1011 NOSIG=
200808162100 METAR LMML NIL=
200808162045 METAR LMML 162045Z 31010KT CAVOK 23/18 Q1011 NOSIG=
200808162030 METAR LMML NIL=
200808162015 METAR LMML 162015Z 31011KT 270V340 CAVOK 23/18 Q1011 NOSIG=
200808162000 METAR LMML NIL=
200808161945 METAR LMML 161945Z 32012KT CAVOK 23/17 Q1011 NOSIG=
200808161930 METAR LMML NIL=
200808161915 METAR LMML 161915Z 31012KT CAVOK 23/17 Q1011 NOSIG=
200808161900 METAR LMML NIL=
200808161845 METAR LMML 161845Z 30011KT 270V330 CAVOK 23/17 Q1010 NOSIG=
200808161830 METAR LMML NIL=
200808161815 METAR LMML 161815Z 30011KT 270V330 CAVOK 24/17 Q1010 NOSIG=
200808161800 METAR LMML NIL=
200808161745 METAR LMML 161745Z 31011KT CAVOK 24/17 Q1010 NOSIG=
200808161730 METAR LMML NIL=
200808161715 METAR LMML 161715Z 30013KT CAVOK 25/17 Q1010 NOSIG=
200808161700 METAR LMML NIL=
200808161645 METAR LMML 161645Z 31013KT CAVOK 26/17 Q1009 NOSIG=
200808161630 METAR LMML NIL=
200808161615 METAR LMML 161615Z 30015KT CAVOK 26/17 Q1009 NOSIG=
200808161600 METAR LMML NIL=
200808161545 METAR LMML 161545Z 30014KT CAVOK 26/17 Q1009 NOSIG=
200808161530 METAR LMML NIL=
200808161515 METAR LMML 161515Z 31016KT CAVOK 27/17 Q1010 NOSIG=
200808161500 METAR LMML NIL=
200808161445 METAR LMML 161445Z 31016KT CAVOK 27/17 Q1009 NOSIG=
200808161430 METAR LMML NIL=
200808161415 METAR LMML 161415Z 30016KT 270V330 CAVOK 27/16 Q1010 NOSIG=
200808161345 METAR LMML 161345Z 31014KT CAVOK 28/16 Q1010 NOSIG=
200808161330 METAR LMML NIL=
200808161315 METAR LMML 161315Z 30015KT 270V330 CAVOK 28/15 Q1010 NOSIG=
200808161300 METAR LMML NIL=
200808161245 METAR LMML 161245Z 30014KT 260V330 CAVOK 28/16 Q1010 NOSIG=
200808161230 METAR LMML NIL=
200808161215 METAR LMML 161215Z 31015KT 260V340 CAVOK 28/15 Q1010 NOSIG=
200808161200 METAR LMML NIL=
200808161145 METAR LMML 161145Z 31016KT 280V340 CAVOK 29/14 Q1011 NOSIG=
200808161130 METAR LMML NIL=
200808161115 METAR LMML 161115Z 32015KT CAVOK 29/13 Q1010 NOSIG=
200808161100 METAR LMML NIL=
200808161045 METAR LMML 161045Z 31015KT 280V340 CAVOK 29/12 Q1010 NOSIG=
200808161030 METAR LMML NIL=
200808161015 METAR LMML 161015Z 31017KT CAVOK 28/13 Q1011 NOSIG=
200808161000 METAR LMML NIL=
200808160945 METAR LMML 160945Z 32016KT 290V350 CAVOK 28/14 Q1010 NOSIG=
200808160930 METAR LMML NIL=
200808160915 METAR LMML 160915Z 30019KT CAVOK 27/14 Q1011 NOSIG=
200808160900 METAR LMML NIL=
200808160845 METAR LMML 160845Z 31018KT 280V340 CAVOK 27/14 Q1011 NOSIG=
200808160830 METAR LMML NIL=
200808160815 METAR LMML 160815Z 32017KT 290V350 CAVOK 27/16 Q1010 NOSIG=
200808160800 METAR LMML NIL=
200808160745 METAR LMML 160745Z 31019KT CAVOK 26/17 Q1010 NOSIG=
200808160730 METAR LMML NIL=
200808160715 METAR LMML 160715Z 31017KT 270V330 CAVOK 26/19 Q1010 NOSIG=
200808160700 METAR LMML NIL=
200808160645 METAR LMML 160645Z 31022KT CAVOK 25/18 Q1009 NOSIG=
200808160630 METAR LMML NIL=
200808160615 METAR LMML 160615Z 31021KT CAVOK 25/18 Q1009 NOSIG=
200808160600 METAR LMML NIL=
200808160545 METAR LMML 160545Z 31019KT CAVOK 24/19 Q1009 NOSIG=
200808160530 METAR LMML NIL=
200808160515 METAR LMML 160515Z 32015KT CAVOK 24/20 Q1009 NOSIG=
200808160500 METAR LMML NIL=
200808160445 METAR LMML 160445Z 31015KT 9999 FEW012 24/21 Q1009 NOSIG=
200808160430 METAR LMML NIL=
200808160415 METAR LMML 160415Z 32014KT 9999 FEW012 24/21 Q1008 NOSIG=
200808160400 METAR LMML NIL=
200808160345 METAR LMML 160345Z 32012KT 9999 FEW012 24/20 Q1008 NOSIG=
200808160330 METAR LMML NIL=
200808160315 METAR LMML 160315Z 32013KT 9999 FEW012 25/21 Q1008 NOSIG=
200808160300 METAR LMML NIL=
200808160245 METAR LMML 160245Z 32018KT 9999 FEW012 25/20 Q1008 NOSIG=
200808160230 METAR LMML NIL=
200808160215 METAR LMML 160215Z 32018KT 9999 FEW012 25/21 Q1008 NOSIG=
200808160200 METAR LMML NIL=
200808160145 METAR LMML 160145Z 32017KT 9999 FEW012 25/21 Q1008 NOSIG=
200808160130 METAR LMML NIL=
200808160115 METAR LMML 160115Z 31016KT 9999 FEW012 25/20 Q1009 NOSIG=
200808160100 METAR LMML NIL=
200808160045 METAR LMML 160045Z 31020KT 9999 FEW012 25/20 Q1009 NOSIG=
200808160030 METAR LMML NIL=
200808160015 METAR LMML 160015Z 32017KT 9999 FEW012 25/21 Q1009 TEMPO
                        30015G25KT=
200808160000 METAR LMML NIL=
200808152345 METAR LMML 152345Z 31015KT 9999 FEW012 25/21 Q1009 TEMPO
                        30015G25KT=
200808152330 METAR LMML NIL=
200808152315 METAR LMML 152315Z 32015KT 290V350 9999 FEW012 25/21 Q1010
                        TEMPO 30015G25KT=
200808152300 METAR LMML NIL=
200808152245 METAR LMML 152245Z 31013KT 9999 FEW012 25/22 Q1010 TEMPO
                        30015G25KT=
200808152230 METAR LMML NIL=
200808152215 METAR LMML 152215Z 31013KT 280V340 9999 FEW012 25/23 Q1010
                        TEMPO 30015G25KT=
200808152200 METAR LMML NIL=
200808152145 METAR LMML 152145Z 32012KT 9999 FEW012 SCT120 25/22 Q1011
                        TEMPO 30015G25KT=
200808152130 METAR LMML NIL=
200808152115 METAR LMML 152115Z 31013KT 9999 FEW014 25/23 Q1011 TEMPO
                        BKN011 30015G25KT=
200808152100 METAR LMML NIL=
200808152045 METAR LMML 152045Z 31014KT 9999 FEW014 25/23 Q1011 TEMPO
                        BKN011 30015G25KT=
200808152030 METAR LMML NIL=
200808152015 METAR LMML 152015Z 30018KT 9999 SCT014 26/23 Q1011 TEMPO
                        BKN011 30015G25KT=
200808152000 METAR LMML NIL=
200808151945 METAR LMML 151945Z 30015KT 9999 BKN012 26/24 Q1011 TEMPO
                        30015G25KT=
200808151930 METAR LMML NIL=
200808151915 METAR LMML 151915Z 31014KT 9999 SCT011 26/24 Q1011 NOSIG=
200808151900 METAR LMML NIL=
200808151845 METAR LMML 151845Z 30013KT 9999 SCT011 26/24 Q1011 NOSIG=
200808151830 METAR LMML NIL=
200808151815 METAR LMML 151815Z 28010KT 210V320 9999 FEW011 27/25 Q1010
                        NOSIG=
200808151800 METAR LMML NIL=
200808151745 METAR LMML 151745Z 28011KT 240V300 9999 FEW012 27/25 Q1010
                        NOSIG=
200808151730 METAR LMML NIL=
200808151715 METAR LMML 151715Z 28012KT 9999 FEW012 27/24 Q1010 NOSIG=
200808151700 METAR LMML NIL=
200808151645 METAR LMML 151645Z 28011KT 230V310 9999 FEW012 28/22 Q1010
                        NOSIG=
200808151630 METAR LMML NIL=
200808151615 METAR LMML 151615Z 28010KT 240V310 9999 FEW015 29/18 Q1010
                        NOSIG=
200808151600 METAR LMML NIL=
200808151545 METAR LMML 151545Z 26009KT 210V310 CAVOK 29/18 Q1010 NOSIG=
200808151515 METAR LMML 151515Z 25009KT 200V290 9999 FEW015 29/23 Q1010
                        NOSIG=
200808151500 METAR LMML NIL=
200808151445 METAR LMML 151445Z 24007KT 200V280 CAVOK 30/21 Q1010 NOSIG=
200808151430 METAR LMML NIL=
200808151415 METAR LMML 151415Z 23008KT 200V270 CAVOK 30/21 Q1010 NOSIG=
200808151400 METAR LMML NIL=
200808151345 METAR LMML 151345Z 24008KT 190V310 CAVOK 30/20 Q1010 NOSIG=
200808151315 METAR LMML 151315Z 23007KT 200V300 CAVOK 30/20 Q1010 NOSIG=
200808151300 METAR LMML NIL=
200808151245 METAR LMML 151245Z 23007KT 190V290 CAVOK 30/19 Q1011 NOSIG=
200808151230 METAR LMML NIL=
200808151215 METAR LMML 151215Z 23008KT 200V280 CAVOK 30/17 Q1011 NOSIG=
200808151200 METAR LMML NIL=
200808151145 METAR LMML 151145Z 23008KT 200V290 CAVOK 30/18 Q1011 NOSIG=
200808151130 METAR LMML NIL=
200808151115 METAR LMML 151115Z 23008KT 200V280 9999 FEW015 30/19 Q1011
                        NOSIG=
200808151100 METAR LMML NIL=
200808151045 METAR LMML 151045Z 23009KT 200V270 9999 FEW015 29/20 Q1012
                        NOSIG=
200808151015 METAR LMML 151015Z 25009KT 190V300 9999 FEW015 29/21 Q1012
                        NOSIG=
200808151000 METAR LMML NIL=
200808150945 METAR LMML 150945Z 25009KT 200V300 9999 FEW015 29/21 Q1012
                        NOSIG=
200808150930 METAR LMML NIL=
200808150915 METAR LMML 150915Z 24008KT 200V290 9999 FEW015 29/22 Q1012
                        NOSIG=
200808150900 METAR LMML NIL=
200808150845 METAR LMML 150845Z 24007KT 190V280 9999 FEW015 28/22 Q1011
                        NOSIG=
200808150830 METAR LMML NIL=
200808150815 METAR LMML 150815Z 23008KT 180V280 CAVOK 28/23 Q1011 NOSIG=
200808150745 METAR LMML 150745Z 21008KT 170V270 CAVOK 27/23 Q1011 NOSIG=
200808150715 METAR LMML 150715Z 22006KT 170V270 CAVOK 27/24 Q1011 NOSIG=
200808150700 METAR LMML NIL=
200808150645 METAR LMML 150645Z 23006KT 200V290 9999 FEW015 26/25 Q1011
                        NOSIG=
200808150630 METAR LMML NIL=
200808150615 METAR LMML 150615Z VRB03KT 9999 FEW015 26/24 Q1011 NOSIG=
200808150600 METAR LMML NIL=
200808150545 METAR LMML 150545Z 22004KT 190V280 9999 FEW012 25/24 Q1011
                        NOSIG=
200808150530 METAR LMML NIL=
200808150515 METAR LMML 150515Z 21004KT 160V260 CAVOK 24/24 Q1011 NOSIG=
200808150500 METAR LMML NIL=
200808150445 METAR LMML 150445Z 17004KT CAVOK 23/23 Q1011 NOSIG=
200808150430 METAR LMML NIL=
200808150415 METAR LMML 150415Z VRB03KT CAVOK 23/23 Q1011 TEMPO 8000 FEW015=
200808150400 METAR LMML NIL=
200808150345 METAR LMML 150345Z VRB01KT CAVOK 24/24 Q1011 TEMPO 8000 FEW015=
200808150330 METAR LMML NIL=
200808150315 METAR LMML 150315Z VRB02KT CAVOK 24/24 Q1011 NOSIG=
200808150300 METAR LMML NIL=
200808150245 METAR LMML 150245Z VRB03KT CAVOK 24/24 Q1011 NOSIG=
200808150230 METAR LMML NIL=
200808150215 METAR LMML 150215Z VRB01KT CAVOK 23/23 Q1012 NOSIG=
200808150200 METAR LMML NIL=
200808150145 METAR LMML 150145Z 00000KT CAVOK 24/23 Q1012 NOSIG=
200808150130 METAR LMML NIL=
200808150115 METAR LMML 150115Z 28004KT CAVOK 24/24 Q1012 NOSIG=
200808150100 METAR LMML NIL=
200808150045 METAR LMML 150045Z 30004KT CAVOK 24/24 Q1013 NOSIG=
200808150030 METAR LMML NIL=
200808150015 METAR LMML 150015Z 29004KT CAVOK 24/24 Q1013 NOSIG=
200808150000 METAR LMML NIL=
200808142345 METAR LMML 142345Z 30004KT CAVOK 24/24 Q1013 NOSIG=
200808142330 METAR LMML NIL=
200808142315 METAR LMML 142315Z VRB03KT CAVOK 25/24 Q1013 NOSIG=
200808142300 METAR LMML NIL=
200808142245 METAR LMML 142245Z 29004KT CAVOK 25/24 Q1014 NOSIG=
200808142230 METAR LMML NIL=
200808142215 METAR LMML 142215Z 29005KT CAVOK 25/24 Q1014 NOSIG=
200808142200 METAR LMML NIL=
200808142145 METAR LMML 142145Z 29005KT 9999 FEW004 25/24 Q1014 NOSIG
                        RMK SMOKE IN ALL DIRECTIONS=
200808142130 METAR LMML NIL=
200808142115 METAR LMML 142115Z 28004KT 9999 FEW007 25/24 Q1014 NOSIG
                        RMK SMOKE IN ALL DIRECTIONS=
200808142100 METAR LMML NIL=
200808142045 METAR LMML 142045Z 28004KT CAVOK 25/24 Q1014 NOSIG=
200808142030 METAR LMML NIL=
200808142015 METAR LMML 142015Z VRB03KT CAVOK 25/24 Q1014 NOSIG=
200808142000 METAR LMML NIL=
200808141945 METAR LMML 141945Z 29004KT 230V310 9999 FEW012 25/24 Q1014
                        NOSIG=
200808141930 METAR LMML NIL=
200808141915 METAR LMML 141915Z VRB03KT 9999 FEW012 26/23 Q1014 NOSIG=
200808141900 METAR LMML NIL=
200808141845 METAR LMML 141845Z 28004KT 9999 FEW012 26/23 Q1013 NOSIG=
200808141830 METAR LMML NIL=
200808141815 METAR LMML 141815Z 28004KT 250V310 9999 FEW012 26/23 Q1013
                        NOSIG=
200808141800 METAR LMML NIL=
200808141745 METAR LMML 141745Z 29006KT 9999 FEW012 27/23 Q1013 NOSIG=
200808141730 METAR LMML NIL=
200808141715 METAR LMML 141715Z 28007KT 250V310 9999 FEW012 28/22 Q1013
                        NOSIG=
200808141700 METAR LMML NIL=
200808141645 METAR LMML 141645Z VRB03KT 9999 FEW012 29/21 Q1013 NOSIG=
200808141630 METAR LMML NIL=
200808141615 METAR LMML 141615Z VRB03KT 9999 FEW012 30/21 Q1013 NOSIG=
200808141600 METAR LMML NIL=
200808141545 METAR LMML 141545Z 08005KT 020V120 9999 FEW012 30/22 Q1013
                        NOSIG=
200808141530 METAR LMML NIL=
200808141515 METAR LMML 141515Z 07007KT 040V140 CAVOK 30/22 Q1013 NOSIG=
200808141500 METAR LMML NIL=
200808141445 METAR LMML 141445Z 10006KT 020V150 9999 FEW012 30/22 Q1013
                        NOSIG=
200808141430 METAR LMML NIL=
200808141415 METAR LMML 141415Z 12006KT 080V190 9999 FEW012 31/22 Q1014
                        NOSIG=
200808141400 METAR LMML NIL=
200808141345 METAR LMML 141345Z 10004KT 030V160 CAVOK 31/20 Q1014 NOSIG=
200808141330 METAR LMML NIL=
200808141315 METAR LMML 141315Z VRB03KT 9999 FEW025 32/19 Q1014 NOSIG=
200808141300 METAR LMML NIL=
200808141245 METAR LMML 141245Z 03006KT 360V080 9999 FEW025 32/20 Q1014
                        NOSIG=
200808141230 METAR LMML NIL=
200808141215 METAR LMML 141215Z 03005KT 350V070 9999 FEW025 32/22 Q1014
                        NOSIG=
200808141200 METAR LMML NIL=
200808141145 METAR LMML 141145Z 07006KT 020V120 9999 FEW025 31/22 Q1014
                        NOSIG=
200808141130 METAR LMML NIL=
200808141115 METAR LMML 141115Z VRB03KT 9999 FEW025 31/22 Q1015 NOSIG=
200808141100 METAR LMML NIL=
200808141045 METAR LMML 141045Z 09004KT 020V160 9999 FEW025 30/22 Q1015
                        NOSIG=
200808141030 METAR LMML NIL=
200808141015 METAR LMML 141015Z 03004KT 280V100 9999 FEW020 31/21 Q1015
                        NOSIG=
200808141000 METAR LMML NIL=
200808140945 METAR LMML 140945Z 04004KT 320V170 9999 FEW020 30/20 Q1015
                        NOSIG=
200808140930 METAR LMML NIL=
200808140915 METAR LMML 140915Z 35004KT 300V050 9999 FEW020 30/21 Q1015
                        NOSIG=
200808140900 METAR LMML NIL=
200808140845 METAR LMML 140845Z 36004KT 320V070 9999 FEW020 29/21 Q1015
                        NOSIG=
200808140830 METAR LMML NIL=
200808140815 METAR LMML 140815Z VRB03KT 9999 FEW015 28/22 Q1015 NOSIG=
200808140800 METAR LMML NIL=
200808140745 METAR LMML 140745Z VRB03KT 9999 FEW015 28/22 Q1015 NOSIG=
200808140730 METAR LMML NIL=
200808140715 METAR LMML 140715Z 33005KT 300V010 9999 FEW014 27/22 Q1015
                        NOSIG=
200808140700 METAR LMML NIL=
200808140645 METAR LMML 140645Z 33006KT 9999 FEW012 26/23 Q1015 NOSIG=
200808140630 METAR LMML NIL=
200808140615 METAR LMML 140615Z 31007KT 9999 FEW011 25/24 Q1015 NOSIG=
200808140600 METAR LMML NIL=
200808140545 METAR LMML 140545Z 31006KT 9999 FEW012 24/24 Q1015 NOSIG=
200808140530 METAR LMML NIL=
200808140515 METAR LMML 140515Z 32005KT 9999 FEW008 24/24 Q1015 NOSIG=
200808140500 METAR LMML NIL=
200808140445 METAR LMML 140445Z VRB03KT 9999 FEW008 23/23 Q1015 NOSIG=
200808140430 METAR LMML NIL=
200808140415 METAR LMML 140415Z VRB03KT 9999 FEW012 23/23 Q1014 TEMPO
                        8000 FEW011=
200808140345 METAR LMML 140345Z 31004KT 9999 FEW012 23/23 Q1014 TEMPO
                        8000=
200808140330 METAR LMML NIL=
200808140315 METAR LMML 140315Z 31004KT CAVOK 23/23 Q1014 TEMPO 8000=
200808140245 METAR LMML 140245Z VRB03KT CAVOK 24/24 Q1014 TEMPO 8000=
200808140230 METAR LMML NIL=
200808140215 METAR LMML 140215Z 29004KT CAVOK 24/23 Q1014 TEMPO 8000=
200808140200 METAR LMML NIL=
200808140145 METAR LMML 140145Z 28004KT CAVOK 24/23 Q1014 TEMPO 8000=
200808140130 METAR LMML NIL=
200808140115 METAR LMML 140115Z VRB03KT CAVOK 24/22 Q1014 TEMPO 8000=
200808140100 METAR LMML NIL=
200808140045 METAR LMML 140045Z 28004KT CAVOK 24/22 Q1014 TEMPO 8000=
200808140030 METAR LMML NIL=
200808140015 METAR LMML 140015Z VRB03KT CAVOK 24/22 Q1014 NOSIG=
200808140000 METAR LMML NIL=
200808132345 METAR LMML 132345Z VRB03KT CAVOK 24/22 Q1014 NOSIG=
200808132315 METAR LMML 132315Z VRB03KT CAVOK 24/21 Q1014 NOSIG=
200808132300 METAR LMML NIL=
200808132245 METAR LMML 132245Z VRB03KT CAVOK 24/22 Q1015 NOSIG=
200808132230 METAR LMML NIL=
200808132215 METAR LMML 132215Z VRB03KT CAVOK 24/21 Q1015 NOSIG=
200808132200 METAR LMML NIL=
200808132145 METAR LMML 132145Z VRB02KT CAVOK 24/22 Q1015 NOSIG=
200808132130 METAR LMML NIL=
200808132115 METAR LMML 132115Z VRB02KT CAVOK 25/21 Q1015 NOSIG=
200808132100 METAR LMML NIL=
200808132045 METAR LMML 132045Z VRB01KT CAVOK 25/21 Q1015 NOSIG=
200808132030 METAR LMML NIL=
200808132015 METAR LMML 132015Z VRB02KT CAVOK 25/21 Q1015 NOSIG=
200808132000 METAR LMML NIL=
200808131945 METAR LMML 131945Z VRB02KT CAVOK 25/22 Q1014 NOSIG=
200808131930 METAR LMML NIL=
200808131915 METAR LMML 131915Z VRB02KT CAVOK 25/22 Q1014 NOSIG=
200808131900 METAR LMML NIL=
200808131845 METAR LMML 131845Z VRB03KT CAVOK 26/21 Q1014 NOSIG=
200808131830 METAR LMML NIL=
200808131815 METAR LMML 131815Z 24005KT 200V280 CAVOK 26/21 Q1014 NOSIG=
200808131800 METAR LMML NIL=
200808131745 METAR LMML 131745Z 24004KT 200V290 CAVOK 26/21 Q1014 NOSIG=
200808131730 METAR LMML NIL=
200808131715 METAR LMML 131715Z 21005KT 170V260 9999 FEW025 27/21 Q1013
                        NOSIG=
200808131700 METAR LMML NIL=
200808131645 METAR LMML 131645Z 23006KT 190V280 9999 FEW025 28/20 Q1013
                        NOSIG=
200808131630 METAR LMML NIL=
200808131615 METAR LMML 131615Z 22006KT 180V270 9999 FEW025 28/20 Q1013
                        NOSIG=
200808131600 METAR LMML NIL=
200808131545 METAR LMML 131545Z 21005KT 150V280 9999 FEW025 28/20 Q1014
                        NOSIG=
200808131530 METAR LMML NIL=
200808131515 METAR LMML 131515Z 22006KT 160V270 9999 FEW025 28/20 Q1014
                        NOSIG=
200808131500 METAR LMML NIL=
200808131445 METAR LMML 131445Z 20005KT 150V290 9999 FEW025 29/20 Q1014
                        NOSIG=
200808131430 METAR LMML NIL=
200808131415 METAR LMML 131415Z 21006KT 160V260 9999 FEW025 29/20 Q1014
                        NOSIG=
200808131400 METAR LMML NIL=
200808131345 METAR LMML 131345Z 19006KT 140V240 9999 FEW025 29/20 Q1014
                        NOSIG=
200808131330 METAR LMML NIL=
200808131315 METAR LMML 131315Z 22006KT 170V300 9999 FEW025 29/20 Q1014
                        NOSIG=
200808131300 METAR LMML NIL=
200808131245 METAR LMML 131245Z 20006KT 140V260 9999 FEW025 29/20 Q1014
                        NOSIG=
200808131230 METAR LMML NIL=
200808131215 METAR LMML 131215Z 21007KT 170V270 9999 FEW025 28/20 Q1014
                        NOSIG=
200808131200 METAR LMML NIL=
200808131145 METAR LMML 131145Z 22006KT 150V290 9999 FEW025 29/20 Q1014
                        NOSIG=
200808131130 METAR LMML NIL=
200808131115 METAR LMML 131115Z 20007KT 160V250 9999 FEW025 29/20 Q1014
                        NOSIG=
200808131100 METAR LMML NIL=
200808131045 METAR LMML 131045Z 20006KT 150V260 9999 FEW025 28/20 Q1014
                        NOSIG=
200808131030 METAR LMML NIL=
200808131015 METAR LMML 131015Z 19006KT 140V250 9999 FEW025 29/20 Q1014
                        NOSIG=
200808131000 METAR LMML NIL=
200808130945 METAR LMML 130945Z 20005KT 140V300 9999 FEW025 29/20 Q1014
                        NOSIG=
200808130930 METAR LMML NIL=
200808130915 METAR LMML 130915Z 20005KT 150V250 9999 FEW025 28/20 Q1014
                        NOSIG=
200808130900 METAR LMML NIL=
200808130845 METAR LMML 130845Z 20006KT 150V260 9999 FEW022 28/20 Q1014
                        NOSIG=
200808130830 METAR LMML NIL=
200808130815 METAR LMML 130815Z 22004KT 170V290 9999 FEW022 27/21 Q1014
                        NOSIG=
200808130800 LMML NIL=
200808130730 METAR LMML NIL=
200808130715 METAR LMML 130715Z VRB03KT 9999 SCT021 26/21 Q1014 NOSIG=
200808130700 METAR LMML NIL=
200808130645 METAR LMML 130645Z 20004KT 150V260 9999 FEW022 26/21 Q1013
                        NOSIG=
200808130630 METAR LMML NIL=
200808130615 METAR LMML 130615Z VRB03KT 9999 FEW022 26/21 Q1013 NOSIG=
200808130600 METAR LMML NIL=
200808130545 METAR LMML 130545Z VRB01KT 9999 FEW022 26/21 Q1013 NOSIG=
200808130515 METAR LMML 130515Z VRB01KT 9999 FEW022 24/21 Q1013 NOSIG=
200808130500 METAR LMML NIL=
200808130445 METAR LMML 130445Z VRB01KT 9999 SCT022 24/20 Q1013 NOSIG=
200808130430 METAR LMML NIL=
200808130415 METAR LMML 130415Z VRB01KT 9999 FEW022 24/21 Q1013 NOSIG=
200808130400 METAR LMML NIL=
200808130345 METAR LMML 130345Z VRB02KT 9999 FEW021 24/21 Q1012 NOSIG=
200808130330 METAR LMML NIL=
200808130315 METAR LMML 130315Z VRB03KT 9999 FEW021 24/21 Q1012 NOSIG=
200808130300 METAR LMML NIL=
200808130245 METAR LMML 130245Z VRB02KT 9999 FEW021 24/21 Q1012 NOSIG=
200808130230 METAR LMML NIL=
200808130215 METAR LMML 130215Z VRB02KT 9999 FEW021 24/21 Q1012 NOSIG=
200808130200 METAR LMML NIL=
200808130145 METAR LMML 130145Z VRB03KT CAVOK 24/21 Q1012 NOSIG=
200808130115 METAR LMML 130115Z VRB03KT CAVOK 24/21 Q1012 NOSIG=
200808130100 METAR LMML NIL=
200808130045 METAR LMML 130045Z VRB03KT CAVOK 24/21 Q1012 NOSIG=
200808130030 METAR LMML NIL=
200808130015 METAR LMML 130015Z VRB02KT CAVOK 24/21 Q1012 NOSIG=
200808130000 METAR LMML NIL=
200808122345 METAR LMML 122345Z 14004KT CAVOK 24/21 Q1012 NOSIG=
200808122330 METAR LMML NIL=
200808122315 METAR LMML 122315Z VRB03KT CAVOK 24/21 Q1012 NOSIG=
200808122300 METAR LMML NIL=
200808122245 METAR LMML 122245Z VRB02KT CAVOK 25/21 Q1013 NOSIG=
200808122230 METAR LMML NIL=
200808122215 METAR LMML 122215Z VRB02KT 9999 FEW021 25/21 Q1013 NOSIG=
200808122200 METAR LMML NIL=
200808122145 METAR LMML 122145Z VRB03KT 9999 FEW021 25/21 Q1013 NOSIG=
200808122130 METAR LMML NIL=
200808122115 METAR LMML 122115Z VRB03KT 9999 FEW021 25/21 Q1013 NOSIG=
200808122100 METAR LMML NIL=
200808122045 METAR LMML 122045Z VRB03KT 9999 FEW021 25/21 Q1013 NOSIG=
200808122030 METAR LMML NIL=
200808122015 METAR LMML 122015Z VRB03KT 9999 FEW021 26/21 Q1013 NOSIG=
200808122000 METAR LMML NIL=
200808121945 METAR LMML 121945Z 16004KT 110V180 9999 FEW022 26/21 Q1013
                        NOSIG=
200808121930 METAR LMML NIL=
200808121915 METAR LMML 121915Z 16004KT 9999 SCT022 26/21 Q1013 NOSIG=
200808121900 METAR LMML NIL=
200808121845 METAR LMML 121845Z 18004KT 160V220 9999 FEW021 26/21 Q1012
                        NOSIG=
200808121830 METAR LMML NIL=
200808121815 METAR LMML 121815Z VRB03KT 9999 FEW025 26/21 Q1012 NOSIG=
200808121800 METAR LMML NIL=
200808121745 METAR LMML 121745Z 17004KT 140V240 9999 FEW022 26/21 Q1012
                        NOSIG=
200808121730 METAR LMML NIL=
200808121715 METAR LMML 121715Z 20004KT 130V250 9999 FEW025 27/21 Q1012
                        NOSIG=
200808121700 METAR LMML NIL=
200808121645 METAR LMML 121645Z 18005KT 150V250 9999 FEW025 27/21 Q1012
                        NOSIG=
200808121630 METAR LMML NIL=
200808121615 METAR LMML 121615Z 19006KT 150V230 9999 FEW027 27/21 Q1011
                        NOSIG=
200808121600 METAR LMML NIL=
200808121545 METAR LMML 121545Z 19006KT 140V250 9999 FEW027 28/20 Q1011
                        NOSIG=
200808121530 METAR LMML NIL=
200808121515 METAR LMML 121515Z 17007KT 130V210 9999 FEW026 28/21 Q1011
                        NOSIG=
200808121500 METAR LMML NIL=
200808121445 METAR LMML 121445Z 19007KT 150V240 9999 FEW026 28/21 Q1011
                        NOSIG=
200808121430 METAR LMML NIL=
200808121415 METAR LMML 121415Z 21006KT 180V270 9999 FEW029 28/20 Q1012
                        NOSIG=
200808121400 METAR LMML NIL=
200808121345 METAR LMML 121345Z 19007KT 130V260 9999 SCT029 28/20 Q1012
                        NOSIG=
200808121330 METAR LMML NIL=
200808121315 METAR LMML 121315Z 19006KT 140V260 9999 SCT029 28/20 Q1012
                        NOSIG=
200808121300 METAR LMML NIL=
200808121245 METAR LMML 121245Z 19006KT 120V270 9999 SCT028 28/20 Q1012
                        NOSIG=
200808121230 METAR LMML NIL=
200808121215 METAR LMML 121215Z 19006KT 140V250 9999 SCT028 28/20 Q1012
                        NOSIG=
200808121200 METAR LMML NIL=
200808121145 METAR LMML 121145Z 18007KT 100V230 9999 SCT025 29/19 Q1012
                        NOSIG=
200808121130 METAR LMML NIL=
200808121115 METAR LMML 121115Z 19007KT 130V250 9999 SCT023 29/20 Q1012
                        NOSIG=
200808121100 METAR LMML NIL=
200808121045 METAR LMML 121045Z 20007KT 150V250 9999 SCT027 28/21 Q1012
                        NOSIG=
200808121030 METAR LMML NIL=
200808121015 METAR LMML 121015Z 17007KT 120V220 9999 SCT025 28/20 Q1012
                        NOSIG=
200808121000 METAR LMML NIL=
200808120945 METAR LMML 120945Z 19007KT 130V250 9999 SCT024 28/20 Q1013
                        NOSIG=
200808120930 METAR LMML NIL=
200808120915 METAR LMML 120915Z 18006KT 140V260 9999 SCT026 28/20 Q1013
                        NOSIG=
200808120900 METAR LMML NIL=
200808120845 METAR LMML 120845Z 19006KT 140V270 9999 SCT026 28/20 Q1012
                        NOSIG=
200808120830 METAR LMML NIL=
200808120815 METAR LMML 120815Z 18006KT 140V230 9999 SCT025 28/20 Q1012
                        NOSIG=
200808120800 METAR LMML NIL=
200808120745 METAR LMML 120745Z 16005KT 110V200 9999 SCT025 27/20 Q1012
                        NOSIG=
200808120730 METAR LMML NIL=
200808120715 METAR LMML 120715Z 16007KT 130V230 9999 FEW026 27/20 Q1012
                        NOSIG=
200808120700 METAR LMML NIL=
200808120645 METAR LMML 120645Z 19005KT 140V220 9999 FEW025 26/20 Q1011
                        NOSIG=
200808120630 METAR LMML NIL=
200808120615 METAR LMML 120615Z VRB01KT 9999 FEW025 25/21 Q1011 NOSIG=
200808120600 METAR LMML NIL=
200808120545 METAR LMML 120545Z VRB01KT 9999 FEW025 24/21 Q1011 NOSIG=
200808120530 METAR LMML NIL=
200808120515 METAR LMML 120515Z VRB01KT 9999 FEW020 23/21 Q1011 NOSIG=
200808120500 METAR LMML NIL=
200808120445 METAR LMML 120445Z 00000KT 9999 FEW022 22/20 Q1011 NOSIG=
200808120430 METAR LMML NIL=
200808120415 METAR LMML 120415Z VRB01KT 9999 FEW022 22/20 Q1011 NOSIG=
200808120400 METAR LMML NIL=
200808120345 METAR LMML 120345Z VRB01KT 9999 FEW022 23/20 Q1010 NOSIG=
200808120330 METAR LMML NIL=
200808120315 METAR LMML 120315Z VRB02KT 9999 SCT025 23/20 Q1010 NOSIG=
200808120300 METAR LMML NIL=
200808120245 METAR LMML 120245Z VRB01KT 9999 SCT024 23/20 Q1010 NOSIG=
200808120230 METAR LMML NIL=
200808120215 METAR LMML 120215Z VRB01KT 9999 SCT024 23/20 Q1010 NOSIG=
200808120200 METAR LMML NIL=
200808120145 METAR LMML 120145Z VRB02KT 9999 FEW022 24/21 Q1010 NOSIG=
200808120130 METAR LMML NIL=
200808120115 METAR LMML 120115Z VRB01KT 9999 SCT022 24/21 Q1010 NOSIG=
200808120100 METAR LMML NIL=
200808120045 METAR LMML 120045Z VRB02KT 9999 SCT020 24/21 Q1010 NOSIG=
200808120030 METAR LMML NIL=
200808120015 METAR LMML 120015Z VRB02KT 9999 FEW020 24/21 Q1010 NOSIG=
200808120000 METAR LMML NIL=
200808112345 METAR LMML 112345Z VRB03KT 9999 SCT019 24/21 Q1010 NOSIG=
200808112330 METAR LMML NIL=
200808112315 METAR LMML 112315Z VRB03KT 9999 FEW018 24/21 Q1011 NOSIG=
200808112300 METAR LMML NIL=
200808112245 METAR LMML 112245Z VRB02KT 9999 FEW017 24/21 Q1011 NOSIG=
200808112215 METAR LMML 112215Z VRB02KT 9999 FEW018 24/21 Q1011 NOSIG=
200808112200 METAR LMML NIL=
200808112145 METAR LMML 112145Z VRB02KT 9999 FEW017 24/21 Q1011 NOSIG=
200808112130 METAR LMML NIL=
200808112115 METAR LMML 112115Z VRB03KT 9999 FEW030 24/21 Q1011 NOSIG=
200808112100 METAR LMML NIL=
200808112045 METAR LMML 112045Z VRB02KT 9999 FEW030 24/20 Q1011 NOSIG=
200808112030 METAR LMML NIL=
200808112015 METAR LMML 112015Z VRB03KT 9999 FEW030 24/20 Q1011 NOSIG=
200808112000 METAR LMML NIL=
200808111945 METAR LMML 111945Z VRB03KT 9999 FEW030 25/20 Q1011 NOSIG=
200808111930 METAR LMML NIL=
200808111915 METAR LMML 111915Z VRB02KT 9999 FEW030 25/20 Q1011 NOSIG=
200808111900 LMML NIL=
200808111845 METAR LMML 111845Z VRB03KT 9999 FEW030 25/20 Q1010 NOSIG=
200808111830 METAR LMML NIL=
200808111815 METAR LMML 111815Z 23004KT 200V280 9999 FEW030 25/20 Q1010
                        NOSIG=
200808111800 METAR LMML NIL=
200808111745 METAR LMML 111745Z 22004KT 180V270 9999 FEW030 26/20 Q1010
                        NOSIG=
200808111730 METAR LMML NIL=
200808111715 METAR LMML 111715Z 21004KT 160V290 9999 FEW018 26/20 Q1010
                        NOSIG=
200808111700 METAR LMML NIL=
200808111645 METAR LMML 111645Z 23005KT 190V280 9999 FEW018 27/19 Q1010
                        NOSIG=
200808111630 METAR LMML NIL=
200808111615 METAR LMML 111615Z 23006KT 200V290 9999 FEW018 27/20 Q1010
                        NOSIG=
200808111600 METAR LMML NIL=
200808111545 METAR LMML 111545Z 23006KT 170V280 9999 FEW018 28/19 Q1010
                        NOSIG=
200808111530 METAR LMML NIL=
200808111515 METAR LMML 111515Z 22007KT 190V280 9999 FEW018 27/19 Q1010
                        NOSIG=
200808111500 METAR LMML NIL=
200808111445 METAR LMML 111445Z 22008KT 180V250 9999 FEW018 27/19 Q1010
                        NOSIG=
200808111430 METAR LMML NIL=
200808111415 LMML 111415Z 22006KT 170V290 9999 FEW018 28/19 Q1010 NOSIG=
200808111400 METAR LMML NIL=
200808111345 METAR LMML 111345Z 21007KT 170V270 9999 FEW018 28/20 Q1010
                        NOSIG=
200808111330 METAR LMML NIL=
200808111315 METAR LMML 111315Z 22007KT 160V290 9999 FEW018 28/17 Q1010
                        NOSIG=
200808111300 METAR LMML NIL=
200808111245 METAR LMML 111245Z 21007KT 150V270 9999 FEW018 28/20 Q1011
                        NOSIG=
200808111230 METAR LMML NIL=
200808111215 METAR LMML 111215Z 20007KT 160V240 9999 FEW015 28/21 Q1011
                        NOSIG=
200808111200 METAR LMML NIL=
200808111145 METAR LMML 111145Z 20007KT 160V260 9999 FEW014 28/20 Q1011
                        NOSIG=
200808111130 LMML NIL=
200808111115 METAR LMML 111115Z 19007KT 160V270 9999 FEW014 28/20 Q1011
                        NOSIG=
200808111100 METAR LMML NIL=
200808111045 METAR LMML 111045Z 19006KT 150V240 9999 FEW014 28/21 Q1011
                        NOSIG=
200808111030 METAR LMML NIL=
200808111015 METAR LMML 111015Z 20006KT 150V240 9999 FEW014 28/20 Q1011
                        NOSIG=
200808111000 LMML NIL=
200808110945 LMML 110945Z 19007KT 140V230 9999 FEW013 28/21 Q1011 NOSIG=
200808110915 METAR LMML 110915Z 19006KT 170V250 9999 FEW025 28/21 Q1011
                        NOSIG=
200808110900 METAR LMML NIL=
200808110845 METAR LMML 110845Z 21005KT 160V280 9999 FEW025 28/20 Q1011
                        NOSIG=
200808110830 METAR LMML NIL=
200808110815 METAR LMML 110815Z 22005KT 150V290 9999 FEW025 28/19 Q1011
                        NOSIG=
200808110800 METAR LMML NIL=
200808110745 METAR LMML 110745Z 21004KT 160V270 9999 FEW020 28/19 Q1011
                        NOSIG=
200808110715 METAR LMML 110715Z 20004KT 150V250 9999 FEW020 27/22 Q1011
                        NOSIG=
200808110700 METAR LMML NIL=
200808110645 METAR LMML 110645Z 20004KT 160V250 9999 FEW015 26/22 Q1011
                        NOSIG=
200808110630 METAR LMML NIL=
200808110615 METAR LMML 110615Z VRB03KT 9999 FEW015 25/22 Q1011 NOSIG=
200808110600 METAR LMML NIL=
200808110545 METAR LMML 110545Z VRB03KT 9999 FEW012 25/23 Q1010 NOSIG=
200808110530 METAR LMML NIL=
200808110515 METAR LMML 110515Z VRB03KT 9999 FEW012 24/24 Q1010 NOSIG=
200808110500 METAR LMML NIL=
200808110445 METAR LMML 110445Z VRB03KT 9999 FEW012 24/23 Q1010 NOSIG=
200808110430 METAR LMML NIL=
200808110415 METAR LMML 110415Z 21004KT 170V240 9999 FEW020 24/23 Q1010
                        NOSIG=
200808110400 METAR LMML NIL=
200808110345 METAR LMML 110345Z 21004KT 9999 FEW020 24/23 Q1010 NOSIG=
200808110315 METAR LMML 110315Z 21005KT 180V250 9999 FEW020 24/23 Q1010
                        NOSIG=
200808110300 METAR LMML NIL=
200808110245 METAR LMML 110245Z 20004KT 170V230 9999 FEW020 24/23 Q1010
                        NOSIG=
200808110230 METAR LMML NIL=
200808110215 METAR LMML 110215Z 20005KT 170V240 CAVOK 24/23 Q1010 NOSIG=
200808110200 METAR LMML NIL=
200808110145 METAR LMML 110145Z 19004KT 150V250 CAVOK 24/23 Q1010 NOSIG=
200808110130 METAR LMML NIL=
200808110115 METAR LMML 110115Z 20005KT 170V230 CAVOK 24/23 Q1010 NOSIG=
200808110100 METAR LMML NIL=
200808110045 METAR LMML 110045Z 19006KT CAVOK 24/23 Q1010 NOSIG=
200808110015 METAR LMML 110015Z 19004KT CAVOK 24/23 Q1010 NOSIG=
200808110000 METAR LMML NIL=
200808102345 METAR LMML 102345Z 20004KT CAVOK 24/22 Q1010 NOSIG=
200808102330 METAR LMML NIL=
200808102315 METAR LMML 102315Z VRB03KT CAVOK 24/22 Q1011 NOSIG=
200808102300 METAR LMML NIL=
200808102245 METAR LMML 102245Z VRB03KT CAVOK 24/22 Q1011 NOSIG=
200808102230 METAR LMML NIL=
200808102215 METAR LMML 102215Z VRB01KT CAVOK 24/21 Q1011 NOSIG=
200808102200 METAR LMML NIL=
200808102145 METAR LMML 102145Z VRB03KT CAVOK 24/22 Q1011 NOSIG=
200808102130 METAR LMML NIL=
200808102115 METAR LMML 102115Z VRB03KT CAVOK 24/22 Q1011 NOSIG=
200808102100 METAR LMML NIL=
200808102045 METAR LMML 102045Z 31006KT CAVOK 24/21 Q1011 NOSIG=
200808102030 METAR LMML NIL=
200808102015 METAR LMML 102015Z 30004KT 270V330 CAVOK 24/21 Q1011 NOSIG=
200808102000 METAR LMML NIL=
200808101945 METAR LMML 101945Z 28004KT 250V320 CAVOK 25/21 Q1011 NOSIG=
200808101930 METAR LMML NIL=
200808101915 METAR LMML 101915Z 29005KT CAVOK 25/21 Q1011 NOSIG=
200808101900 METAR LMML NIL=
200808101845 METAR LMML 101845Z 31006KT 9999 FEW024 25/20 Q1011 NOSIG=
200808101830 METAR LMML NIL=
200808101815 METAR LMML 101815Z 32007KT 9999 FEW024 25/20 Q1011 NOSIG=
200808101800 METAR LMML NIL=
200808101745 METAR LMML 101745Z 32010KT 9999 FEW024 26/20 Q1010 NOSIG=
200808101730 METAR LMML NIL=
200808101715 METAR LMML 101715Z 31010KT 9999 FEW024 26/20 Q1010 NOSIG=
200808101700 METAR LMML NIL=
200808101645 METAR LMML 101645Z 31012KT 270V340 9999 FEW026 27/20 Q1010
                        NOSIG=
200808101615 METAR LMML 101615Z 32011KT 280V350 9999 FEW029 28/19 Q1010
                        NOSIG=
200808101600 METAR LMML NIL=
200808101545 METAR LMML 101545Z 31011KT 290V350 9999 FEW030 28/19 Q1010
                        NOSIG=
200808101530 METAR LMML NIL=
200808101515 METAR LMML 101515Z 29011KT 250V330 9999 FEW032 28/19 Q1010
                        NOSIG=
200808101500 METAR LMML NIL=
200808101445 METAR LMML 101445Z 29011KT 250V320 9999 FEW035 28/18 Q1011
                        NOSIG=
200808101430 METAR LMML NIL=
200808101415 METAR LMML 101415Z 32010KT 280V340 9999 FEW035 28/18 Q1011
                        NOSIG=
200808101400 METAR LMML NIL=
200808101345 METAR LMML 101345Z 31010KT 280V010 9999 FEW035 29/18 Q1011
                        NOSIG=
200808101330 METAR LMML NIL=
200808101315 METAR LMML 101315Z 28010KT 230V320 9999 FEW000 29/18 Q1011
                        NOSIG=
200808101300 METAR LMML NIL=
200808101245 METAR LMML 101245Z 29009KT 240V330 9999 FEW035 29/17 Q1011
                        NOSIG=
200808101230 METAR LMML NIL=
200808101215 METAR LMML 101215Z 31010KT 270V340 9999 FEW039 29/17 Q1011
                        NOSIG=
200808101200 METAR LMML NIL=
200808101145 METAR LMML 101145Z 30009KT 250V010 9999 FEW035 29/18 Q1011
                        NOSIG=
200808101130 METAR LMML NIL=
200808101115 METAR LMML 101115Z 34011KT 300V010 9999 FEW035 29/17 Q1011
                        NOSIG=
200808101100 METAR LMML NIL=
200808101045 METAR LMML 101045Z 30011KT 250V350 9999 FEW035 29/18 Q1011
                        NOSIG=
200808101030 METAR LMML NIL=
200808101015 METAR LMML 101015Z 34012KT 320V020 9999 FEW030 29/17 Q1012
                        NOSIG=
200808101000 METAR LMML NIL=
200808100945 METAR LMML 100945Z 34013KT 9999 FEW030 29/17 Q1012 NOSIG=
200808100930 METAR LMML NIL=
200808100915 METAR LMML 100915Z 32012KT 290V010 9999 FEW029 29/18 Q1012
                        NOSIG=
200808100900 METAR LMML NIL=
200808100845 METAR LMML 100845Z 30012KT 270V350 9999 FEW024 28/19 Q1011
                        NOSIG=
200808100830 METAR LMML NIL=
200808100815 METAR LMML 100815Z 33013KT 290V360 9999 FEW019 28/18 Q1011
                        NOSIG=
200808100800 METAR LMML NIL=
200808100745 METAR LMML 100745Z 31012KT 9999 FEW019 27/19 Q1011 NOSIG=
200808100730 METAR LMML NIL=
200808100715 METAR LMML 100715Z 31014KT 9999 FEW019 26/20 Q1011 NOSIG=
200808100700 METAR LMML NIL=
200808100645 METAR LMML 100645Z 31014KT 270V340 9999 FEW019 26/20 Q1011
                        NOSIG=
200808100630 METAR LMML NIL=
200808100615 METAR LMML 100615Z 30014KT 270V330 9999 FEW020 25/20 Q1011
                        NOSIG=
200808100600 METAR LMML NIL=
200808100545 METAR LMML 100545Z 30014KT 9999 FEW030 25/20 Q1011 NOSIG=
200808100530 METAR LMML NIL=
200808100515 METAR LMML 100515Z 30010KT 9999 FEW030 24/20 Q1011 NOSIG=
200808100500 METAR LMML NIL=
200808100445 METAR LMML 100445Z 30010KT 270V330 9999 FEW030 24/20 Q1010
                        NOSIG=
200808100430 METAR LMML NIL=
200808100415 METAR LMML 100415Z 30014KT 9999 FEW030 23/20 Q1010 NOSIG=
200808100400 METAR LMML NIL=
200808100345 METAR LMML 100345Z 31014KT CAVOK 23/20 Q1010 NOSIG=
200808100315 METAR LMML 100315Z 31012KT CAVOK 23/20 Q1010 NOSIG=
200808100300 METAR LMML NIL=
200808100245 METAR LMML 100245Z 31011KT CAVOK 24/19 Q1010 NOSIG=
200808100215 METAR LMML 100215Z 31012KT CAVOK 24/19 Q1010 NOSIG=
200808100200 METAR LMML NIL=
200808100145 METAR LMML 100145Z 32012KT CAVOK 24/20 Q1010 NOSIG=
200808100130 METAR LMML NIL=
200808100115 METAR LMML 100115Z 31013KT CAVOK 24/20 Q1010 NOSIG=
200808100100 METAR LMML NIL=
200808100045 METAR LMML 100045Z 30012KT CAVOK 24/20 Q1010 NOSIG=
200808100030 METAR LMML NIL=
200808100015 METAR LMML 100015Z 30016KT CAVOK 24/20 Q1011 NOSIG=
200808100000 METAR LMML NIL=
200808092345 METAR LMML 092345Z 30015KT CAVOK 24/20 Q1011 NOSIG=
200808092330 METAR LMML NIL=
200808092315 METAR LMML 092315Z 30016KT CAVOK 24/20 Q1011 NOSIG=
200808092300 METAR LMML NIL=
200808092245 METAR LMML 092245Z 31015KT CAVOK 24/21 Q1011 NOSIG=
200808092230 METAR LMML NIL=
200808092215 METAR LMML 092215Z 31015KT CAVOK 25/21 Q1011 NOSIG=
200808092145 METAR LMML 092145Z 31014G25KT 270V340 CAVOK 25/21 Q1011 NOSIG=
200808092130 METAR LMML NIL=
200808092115 METAR LMML 092115Z 31017KT CAVOK 25/21 Q1011 NOSIG=
200808092100 METAR LMML NIL=
200808092045 METAR LMML 092045Z 31014G24KT 270V340 CAVOK 25/21 Q1011 NOSIG=
200808092030 METAR LMML NIL=
200808092015 METAR LMML 092015Z 30010KT 270V340 CAVOK 25/20 Q1011 NOSIG=
200808092000 METAR LMML NIL=
200808091945 METAR LMML 091945Z 30011KT 270V330 CAVOK 25/20 Q1011 NOSIG=
200808091930 METAR LMML NIL=
200808091915 METAR LMML 091915Z 31009KT CAVOK 25/20 Q1011 NOSIG=
200808091900 METAR LMML NIL=
200808091845 METAR LMML 091845Z 30009KT 260V330 CAVOK 26/21 Q1011 NOSIG=
200808091830 LMML NIL=
200808091815 METAR LMML 091815Z 30007KT 270V340 CAVOK 26/21 Q1011 NOSIG=
200808091800 METAR LMML NIL=
200808091745 METAR LMML 091745Z 29010KT 250V330 9999 FEW015 26/22 Q1011
                        NOSIG=
200808091715 METAR LMML 091715Z 30010KT 260V340 CAVOK 27/20 Q1011 NOSIG=
200808091700 METAR LMML NIL=
200808091645 METAR LMML 091645Z 29008KT 250V320 CAVOK 28/20 Q1011 NOSIG=
200808091615 METAR LMML 091615Z 30014KT CAVOK 28/20 Q1011 NOSIG=
200808091600 METAR LMML NIL=
200808091545 METAR LMML 091545Z 30014KT 270V330 CAVOK 28/21 Q1011 NOSIG=
200808091530 METAR LMML NIL=
200808091515 METAR LMML 091515Z 30012KT 270V330 CAVOK 29/21 Q1011 NOSIG=
200808091500 METAR LMML NIL=
200808091445 METAR LMML 091445Z 30012KT 260V330 CAVOK 30/21 Q1011 NOSIG=
200808091430 METAR LMML NIL=
200808091415 METAR LMML 091415Z 29011KT 250V310 9999 FEW015 30/20 Q1011
                        NOSIG=
200808091400 METAR LMML NIL=
200808091345 METAR LMML 091345Z 29012KT 250V330 9999 FEW015 30/20 Q1011
                        NOSIG=
200808091330 METAR LMML NIL=
200808091315 METAR LMML 091315Z 29015KT 9999 FEW015 30/20 Q1012 NOSIG=
200808091300 METAR LMML NIL=
200808091245 METAR LMML 091245Z 29013KT 250V320 9999 FEW015 30/20 Q1012
                        NOSIG=
200808091230 METAR LMML NIL=
200808091215 METAR LMML 091215Z 29013KT 260V320 9999 FEW015 30/20 Q1012
                        NOSIG=
200808091200 METAR LMML NIL=
200808091145 METAR LMML 091145Z 30013KT 9999 FEW012 30/20 Q1012 NOSIG=
200808091130 LMML NIL=
200808091115 METAR LMML 091115Z 29013KT 250V320 9999 FEW012 30/20 Q1012
                        NOSIG=
200808091045 METAR LMML 091045Z 29013KT 8000 FEW012 30/20 Q1012 BECMG
                        9999=
200808091030 METAR LMML NIL=
200808091015 METAR LMML 091015Z 29013KT 260V320 8000 FEW012 30/21 Q1012
                        BECMG 9999=
200808091000 METAR LMML NIL=
200808090945 METAR LMML 090945Z 28011KT 250V310 8000 FEW012 30/22 Q1012
                        NOSIG=
200808090930 METAR LMML NIL=
200808090915 METAR LMML 090915Z 29011KT 250V330 8000 FEW012 29/22 Q1012
                        NOSIG=
200808090845 METAR LMML 090845Z 29011KT 240V320 8000 FEW012 28/22 Q1012
                        BECMG 9000=
200808090830 METAR LMML NIL=
200808090815 METAR LMML 090815Z 30013KT 8000 FEW012 29/21 Q1012 BECMG
                        9000=
200808090745 METAR LMML 090745Z 30012KT 260V330 8000 FEW012 28/22 Q1012
                        BECMG 9000=
200808090730 METAR LMML NIL=
200808090715 METAR LMML 090715Z 30012KT 8000 FEW012 28/22 Q1012 BECMG
                        9000=
200808090700 METAR LMML NIL=
200808090645 METAR LMML 090645Z 29010KT 8000 FEW012 28/21 Q1011 BECMG
                        9000=
200808090630 METAR LMML NIL=
200808090615 METAR LMML 090615Z 29011KT 8000 FEW012 27/22 Q1011 BECMG
                        9000=
200808090545 METAR LMML 090545Z 29012KT 6000 FEW008 26/24 Q1011 BECMG
                        9000=
200808090530 METAR LMML NIL=
200808090515 METAR LMML 090515Z 29011KT 6000 SCT008 25/25 Q1011 BECMG
                        9000=
200808090500 METAR LMML NIL=
200808090445 METAR LMML 090445Z 28005KT 6000 FEW012 25/24 Q1011 TEMPO
                        5000 BR FEW010=
200808090431 LMML 090431Z 28004KT 250V320 6000 FEW012 25/24 Q1011 TEMPO
                        6000 FEW010=
200808090430 METAR LMML NIL=
200808090415 METAR LMML 090415Z 27004KT 220V300 8000 FEW150 25/23 Q1011
                        NOSIG=
200808090345 METAR LMML 090345Z 27007KT 240V300 CAVOK 25/22 Q1010 NOSIG=
200808090330 METAR LMML NIL=
200808090315 METAR LMML 090315Z 27006KT 240V300 CAVOK 25/21 Q1010 NOSIG=
200808090300 METAR LMML NIL=
200808090245 METAR LMML 090245Z 28007KT CAVOK 26/19 Q1010 NOSIG=
200808090230 METAR LMML NIL=
200808090215 METAR LMML 090215Z 26005KT 220V290 CAVOK 25/22 Q1010 NOSIG=
200808090200 METAR LMML NIL=
200808090145 METAR LMML 090145Z 29004KT 250V320 CAVOK 26/24 Q1010 NOSIG=
200808090130 METAR LMML NIL=
200808090115 METAR LMML 090115Z 29005KT 250V320 CAVOK 26/23 Q1011 NOSIG=
200808090100 METAR LMML NIL=
200808090045 METAR LMML 090045Z 26006KT 220V300 CAVOK 26/22 Q1010 NOSIG=
200808090030 METAR LMML NIL=
200808090015 METAR LMML 090015Z 25004KT 210V290 CAVOK 27/20 Q1011 NOSIG=
200808090000 METAR LMML NIL=
200808082345 METAR LMML 082345Z VRB03KT CAVOK 27/11 Q1011 NOSIG=
200808082330 METAR LMML NIL=
200808082315 METAR LMML 082315Z VRB03KT CAVOK 26/13 Q1011 NOSIG=
200808082300 METAR LMML NIL=
200808082245 METAR LMML 082245Z VRB02KT CAVOK 26/20 Q1011 NOSIG=
200808082230 METAR LMML NIL=
200808082215 METAR LMML 082215Z 29007KT 260V320 CAVOK 27/15 Q1012 NOSIG=
200808082200 METAR LMML NIL=
200808082145 METAR LMML 082145Z 28006KT 240V320 CAVOK 27/20 Q1012 NOSIG=
200808082130 METAR LMML NIL=
200808082115 METAR LMML 082115Z 28008KT CAVOK 27/17 Q1012 NOSIG=
200808082100 METAR LMML NIL=
200808082045 METAR LMML 082045Z 27009KT 230V310 CAVOK 28/13 Q1012 NOSIG=
200808082030 METAR LMML NIL=
200808082015 METAR LMML 082015Z 26007KT 230V300 CAVOK 28/11 Q1012 NOSIG=
200808082000 METAR LMML NIL=
200808081945 METAR LMML 081945Z 26004KT 220V300 CAVOK 28/07 Q1012 NOSIG=
200808081930 METAR LMML NIL=
200808081915 METAR LMML 081915Z VRB03KT CAVOK 28/09 Q1011 NOSIG=
200808081900 METAR LMML NIL=
200808081845 METAR LMML 081845Z VRB03KT CAVOK 28/09 Q1011 NOSIG=
200808081830 METAR LMML NIL=
200808081815 METAR LMML 081815Z VRB03KT CAVOK 28/12 Q1011 NOSIG=
200808081800 METAR LMML NIL=
200808081745 METAR LMML 081745Z 21004KT 170V250 CAVOK 29/13 Q1011 NOSIG=
200808081730 METAR LMML NIL=
200808081715 METAR LMML 081715Z 22004KT CAVOK 29/17 Q1010 NOSIG=
200808081700 METAR LMML NIL=
200808081645 METAR LMML 081645Z 24007KT 200V280 CAVOK 30/13 Q1010 NOSIG=
200808081630 METAR LMML NIL=
200808081615 METAR LMML 081615Z 22006KT 150V280 CAVOK 30/16 Q1010 NOSIG=
200808081600 METAR LMML NIL=
200808081545 METAR LMML 081545Z 22007KT CAVOK 31/15 Q1010 NOSIG=
200808081530 METAR LMML NIL=
200808081515 METAR LMML 081515Z 23006KT 170V260 CAVOK 32/13 Q1010 NOSIG=
200808081500 METAR LMML NIL=
200808081445 METAR LMML 081445Z 24006KT 190V290 CAVOK 33/14 Q1011 NOSIG=
200808081430 METAR LMML NIL=
200808081415 METAR LMML 081415Z 25006KT 180V310 CAVOK 33/12 Q1011 NOSIG=
200808081400 METAR LMML NIL=
200808081345 METAR LMML 081345Z 27006KT 220V330 CAVOK 34/13 Q1011 NOSIG=
200808081330 METAR LMML NIL=
200808081315 METAR LMML 081315Z 28008KT 230V330 CAVOK 34/12 Q1011 NOSIG=
200808081300 METAR LMML NIL=
200808081245 METAR LMML 081245Z 19004KT CAVOK 35/17 Q1011 NOSIG=
200808081230 METAR LMML NIL=
200808081215 METAR LMML 081215Z 05004KT 360V120 CAVOK 34/17 Q1011 NOSIG=
200808081200 METAR LMML NIL=
200808081145 METAR LMML 081145Z 27005KT 210V330 CAVOK 35/08 Q1011 NOSIG=
200808081130 METAR LMML NIL=
200808081115 METAR LMML 081115Z 28004KT 160V030 CAVOK 35/14 Q1012 NOSIG=
200808081100 METAR LMML NIL=
200808081045 METAR LMML 081045Z VRB03KT CAVOK 33/19 Q1012 NOSIG=
200808081030 METAR LMML NIL=
200808081015 METAR LMML 081015Z 04005KT 350V080 CAVOK 33/20 Q1012 NOSIG=
200808081000 METAR LMML NIL=
200808080945 METAR LMML 080945Z 06006KT 020V130 CAVOK 33/20 Q1012 NOSIG=
200808080915 METAR LMML 080915Z VRB02KT CAVOK 34/12 Q1012 NOSIG=
200808080900 METAR LMML NIL=
200808080845 METAR LMML 080845Z VRB03KT CAVOK 33/13 Q1012 NOSIG=
200808080830 METAR LMML NIL=
200808080815 METAR LMML 080815Z VRB03KT CAVOK 32/15 Q1012 NOSIG=
200808080800 METAR LMML NIL=
200808080745 METAR LMML 080745Z VRB02KT CAVOK 31/17 Q1011 NOSIG=
200808080730 METAR LMML NIL=
200808080715 METAR LMML 080715Z VRB03KT CAVOK 30/17 Q1011 NOSIG=
200808080700 METAR LMML NIL=
200808080645 METAR LMML 080645Z 32004KT 290V350 CAVOK 28/20 Q1011 NOSIG=
200808080630 METAR LMML NIL=
200808080615 METAR LMML 080615Z VRB02KT CAVOK 26/23 Q1011 NOSIG=
200808080600 METAR LMML NIL=
200808080545 METAR LMML 080545Z VRB03KT 8000 SKC 25/24 Q1011 BECMG 9999=
200808080530 METAR LMML NIL=
200808080515 METAR LMML 080515Z VRB02KT 8000 FEW015 24/23 Q1011 BECMG
                        9999=
200808080500 METAR LMML NIL=
200808080445 METAR LMML 080445Z VRB02KT 8000 FEW015 23/23 Q1011 BECMG
                        9999 FEW015=
200808080415 METAR LMML 080415Z 23005KT 210V270 9000 FEW015 24/24 Q1011
                        BECMG 9999 FEW015=
200808080400 METAR LMML NIL=
200808080345 METAR LMML 080345Z 21004KT CAVOK 24/23 Q1011 NOSIG=
200808080330 METAR LMML NIL=
200808080315 METAR LMML 080315Z VRB02KT CAVOK 23/23 Q1010 NOSIG=
200808080300 METAR LMML NIL=
200808080245 METAR LMML 080245Z VRB03KT CAVOK 23/23 Q1010 NOSIG=
200808080230 METAR LMML NIL=
200808080215 METAR LMML 080215Z VRB01KT CAVOK 23/22 Q1011 NOSIG=
200808080200 METAR LMML NIL=
200808080145 METAR LMML 080145Z VRB01KT CAVOK 24/23 Q1011 NOSIG=
200808080130 METAR LMML NIL=
200808080115 METAR LMML 080115Z VRB01KT CAVOK 24/22 Q1011 NOSIG=
200808080100 METAR LMML NIL=
200808080045 METAR LMML 080045Z VRB03KT CAVOK 24/21 Q1011 NOSIG=
200808080030 METAR LMML NIL=
200808080015 METAR LMML 080015Z VRB02KT CAVOK 24/21 Q1011 NOSIG=
200808080000 METAR LMML NIL=
200808072345 METAR LMML 072345Z VRB02KT CAVOK 24/21 Q1011 NOSIG=
200808072330 METAR LMML NIL=
200808072315 METAR LMML 072315Z VRB01KT CAVOK 24/21 Q1012 NOSIG=
200808072245 METAR LMML 072245Z VRB01KT 9999 FEW009 25/22 Q1012 NOSIG=
200808072230 METAR LMML NIL=
200808072215 METAR LMML 072215Z 00000KT CAVOK 25/21 Q1012 NOSIG=
200808072200 METAR LMML NIL=
200808072145 METAR LMML 072145Z VRB01KT CAVOK 25/22 Q1012 NOSIG=
200808072130 METAR LMML NIL=
200808072115 METAR LMML 072115Z VRB01KT CAVOK 25/22 Q1012 NOSIG=
200808072100 METAR LMML NIL=
200808072045 METAR LMML 072045Z VRB01KT CAVOK 25/22 Q1012 NOSIG=
200808072015 METAR LMML 072015Z VRB01KT CAVOK 25/22 Q1012 NOSIG=
200808072000 METAR LMML NIL=
200808071945 METAR LMML 071945Z VRB02KT CAVOK 26/22 Q1012 NOSIG=
200808071930 METAR LMML NIL=
200808071915 METAR LMML 071915Z VRB03KT CAVOK 26/22 Q1012 NOSIG=
200808071900 METAR LMML NIL=
200808071845 METAR LMML 071845Z VRB03KT 9999 FEW020 26/22 Q1011 NOSIG=
200808071830 METAR LMML NIL=
200808071815 METAR LMML 071815Z 29004KT 260V320 9999 FEW020 27/21 Q1011
                        NOSIG=
200808071800 METAR LMML NIL=
200808071745 METAR LMML 071745Z 27004KT 240V300 9999 FEW020 28/20 Q1011
                        NOSIG=
200808071730 METAR LMML NIL=
200808071715 METAR LMML 071715Z 27004KT 210V300 9999 FEW020 29/18 Q1011
                        NOSIG=
200808071700 METAR LMML NIL=
200808071645 METAR LMML 071645Z 24005KT 200V290 9999 FEW020 29/19 Q1011
                        NOSIG=
200808071630 METAR LMML NIL=
200808071615 METAR LMML 071615Z 23006KT 200V280 9999 FEW020 29/21 Q1011
                        NOSIG=
200808071600 METAR LMML NIL=
200808071545 METAR LMML 071545Z 23007KT 200V280 9999 FEW020 30/20 Q1011
                        NOSIG=
200808071530 METAR LMML NIL=
200808071515 METAR LMML 071515Z 23007KT 190V270 9999 FEW020 30/18 Q1011
                        NOSIG=
200808071500 METAR LMML NIL=
200808071445 METAR LMML 071445Z 23007KT 190V280 CAVOK 31/15 Q1011 NOSIG=
200808071430 METAR LMML NIL=
200808071415 METAR LMML 071415Z 23007KT 200V280 CAVOK 32/13 Q1011 NOSIG=
200808071400 METAR LMML NIL=
200808071345 METAR LMML 071345Z 22009KT 180V270 CAVOK 32/12 Q1011 NOSIG=
200808071330 METAR LMML NIL=
200808071315 METAR LMML 071315Z 23007KT 200V260 CAVOK 32/09 Q1012 NOSIG=
200808071300 METAR LMML NIL=
200808071245 METAR LMML 071245Z 18004KT 9999 FEW025 33/09 Q1012 NOSIG=
200808071230 METAR LMML NIL=
200808071215 METAR LMML 071215Z 04004KT 340V130 9999 FEW020 32/21 Q1012
                        NOSIG=
200808071200 METAR LMML NIL=
200808071145 METAR LMML 071145Z VRB03KT 9999 FEW020 33/11 Q1012 NOSIG=
200808071130 METAR LMML NIL=
200808071115 METAR LMML 071115Z 27006KT 200V010 9999 FEW020 32/12 Q1012
                        NOSIG=
200808071100 METAR LMML NIL=
200808071045 METAR LMML 071045Z 23005KT 180V280 9999 FEW020 31/14 Q1013
                        NOSIG=
200808071030 METAR LMML NIL=
200808071015 METAR LMML 071015Z 23007KT 190V280 9999 FEW020 32/10 Q1013
                        NOSIG=
200808071000 METAR LMML NIL=
200808070945 METAR LMML 070945Z 22006KT 190V270 9999 FEW020 31/14 Q1013
                        NOSIG=
200808070930 METAR LMML NIL=
200808070915 METAR LMML 070915Z 22006KT 170V280 9999 FEW020 31/12 Q1013
                        NOSIG=
200808070900 METAR LMML NIL=
200808070845 METAR LMML 070845Z 23006KT 200V270 9999 FEW020 30/14 Q1012
                        NOSIG=
200808070830 METAR LMML NIL=
200808070815 METAR LMML 070815Z 22004KT 170V310 CAVOK 31/14 Q1012 NOSIG=
200808070800 METAR LMML NIL=
200808070745 METAR LMML 070745Z 23004KT 190V290 CAVOK 30/15 Q1012 NOSIG=
200808070730 METAR LMML NIL=
200808070715 METAR LMML 070715Z 22004KT 160V270 CAVOK 30/12 Q1012 NOSIG=
200808070700 METAR LMML NIL=
200808070645 METAR LMML 070645Z 24004KT 200V280 CAVOK 29/14 Q1012 NOSIG=
200808070630 METAR LMML NIL=
200808070615 METAR LMML 070615Z 24004KT 210V280 CAVOK 28/14 Q1012 NOSIG=
200808070600 METAR LMML NIL=
200808070545 METAR LMML 070545Z VRB02KT CAVOK 27/18 Q1012 NOSIG=
200808070530 METAR LMML NIL=
200808070515 METAR LMML 070515Z 24004KT 200V260 CAVOK 26/18 Q1012 NOSIG=
200808070500 METAR LMML NIL=
200808070445 METAR LMML 070445Z 24005KT CAVOK 26/15 Q1012 NOSIG=
200808070430 LMML NIL=
200808070415 METAR LMML 070415Z 23004KT CAVOK 25/14 Q1012 NOSIG=
200808070400 METAR LMML NIL=
200808070345 METAR LMML 070345Z VRB03KT CAVOK 26/14 Q1011 NOSIG=
200808070330 METAR LMML NIL=
200808070315 METAR LMML 070315Z VRB03KT CAVOK 25/14 Q1011 NOSIG=
200808070300 METAR LMML NIL=
200808070245 METAR LMML 070245Z 21004KT CAVOK 25/16 Q1011 NOSIG=
200808070230 METAR LMML NIL=
200808070215 METAR LMML 070215Z 21004KT CAVOK 26/16 Q1012 NOSIG=
200808070200 METAR LMML NIL=
200808070145 METAR LMML 070145Z VRB03KT CAVOK 25/17 Q1012 NOSIG=
200808070130 METAR LMML NIL=
200808070115 METAR LMML 070115Z 21004KT CAVOK 26/18 Q1012 NOSIG=
200808070100 METAR LMML NIL=
200808070045 METAR LMML 070045Z VRB02KT CAVOK 25/16 Q1012 NOSIG=
200808070030 METAR LMML NIL=
200808070015 METAR LMML 070015Z VRB03KT CAVOK 26/16 Q1012 NOSIG=
200808070000 METAR LMML NIL=
200808062345 METAR LMML 062345Z 20004KT CAVOK 27/15 Q1012 NOSIG=
200808062330 METAR LMML NIL=
200808062315 METAR LMML 062315Z VRB03KT CAVOK 26/15 Q1012 NOSIG=
200808062300 METAR LMML NIL=
200808062245 METAR LMML 062245Z VRB02KT CAVOK 26/16 Q1013 NOSIG=
200808062230 METAR LMML NIL=
200808062215 METAR LMML 062215Z VRB01KT CAVOK 25/17 Q1013 NOSIG=
200808062200 METAR LMML NIL=
200808062145 METAR LMML 062145Z VRB01KT CAVOK 26/17 Q1013 NOSIG=
200808062130 METAR LMML NIL=
200808062115 METAR LMML 062115Z VRB02KT CAVOK 26/18 Q1013 NOSIG=
200808062100 METAR LMML NIL=
200808062045 METAR LMML 062045Z VRB02KT CAVOK 26/18 Q1013 NOSIG=
200808062030 METAR LMML NIL=
200808062015 METAR LMML 062015Z VRB02KT CAVOK 26/17 Q1013 NOSIG=
200808062000 METAR LMML NIL=
200808061945 METAR LMML 061945Z VRB02KT CAVOK 27/16 Q1013 NOSIG=
200808061930 METAR LMML NIL=
200808061915 METAR LMML 061915Z VRB03KT CAVOK 28/16 Q1012 NOSIG=
200808061900 METAR LMML NIL=
200808061845 METAR LMML 061845Z VRB02KT CAVOK 28/16 Q1012 NOSIG=
200808061830 METAR LMML NIL=
200808061815 METAR LMML 061815Z 36004KT 340V050 CAVOK 28/17 Q1012 NOSIG=
200808061800 METAR LMML NIL=
200808061745 METAR LMML 061745Z 01004KT CAVOK 29/17 Q1012 NOSIG=
200808061730 METAR LMML NIL=
200808061715 METAR LMML 061715Z 01005KT 340V040 CAVOK 30/16 Q1012 NOSIG=
200808061700 METAR LMML NIL=
200808061645 METAR LMML 061645Z 03006KT 350V060 CAVOK 32/12 Q1012 NOSIG=
200808061630 METAR LMML NIL=
200808061615 METAR LMML 061615Z 02004KT 340V060 CAVOK 32/11 Q1012 NOSIG=
200808061600 METAR LMML NIL=
200808061545 METAR LMML 061545Z VRB02KT CAVOK 31/16 Q1012 NOSIG=
200808061530 METAR LMML NIL=
200808061515 METAR LMML 061515Z VRB03KT CAVOK 32/16 Q1012 NOSIG=
200808061500 METAR LMML NIL=
200808061445 METAR LMML 061445Z VRB03KT CAVOK 32/16 Q1012 NOSIG=
200808061430 METAR LMML NIL=
200808061415 METAR LMML 061415Z VRB03KT CAVOK 33/09 Q1012 NOSIG=
200808061400 METAR LMML NIL=
200808061345 METAR LMML 061345Z 06004KT 320V140 CAVOK 34/09 Q1012 NOSIG=
200808061315 METAR LMML 061315Z 05005KT 320V120 CAVOK 34/10 Q1012 NOSIG=
200808061300 METAR LMML NIL=
200808061245 METAR LMML 061245Z 03006KT 350V080 CAVOK 34/11 Q1012 NOSIG=
200808061230 METAR LMML NIL=
200808061215 METAR LMML 061215Z 03007KT 350V070 CAVOK 34/12 Q1013 NOSIG=
200808061200 METAR LMML NIL=
200808061130 METAR LMML NIL=
200808061100 METAR LMML NIL=
200808061030 METAR LMML NIL=
200808061000 METAR LMML NIL=
200808060930 METAR LMML NIL=
200808060900 METAR LMML NIL=
200808060830 METAR LMML NIL=
200808060800 METAR LMML NIL=
200808060730 METAR LMML NIL=
200808060715 METAR LMML 060715Z VRB03KT CAVOK 29/20 Q1013 NOSIG=
200808060700 METAR LMML NIL=
200808060645 METAR LMML 060645Z VRB03KT CAVOK 28/22 Q1012 NOSIG=
200808060630 METAR LMML NIL=
200808060615 METAR LMML 060615Z 05004KT 010V090 CAVOK 27/22 Q1012 NOSIG=
200808060600 METAR LMML NIL=
200808060545 METAR LMML 060545Z VRB02KT CAVOK 25/23 Q1012 NOSIG=
200808060530 METAR LMML NIL=
200808060515 METAR LMML 060515Z VRB01KT CAVOK 24/23 Q1012 NOSIG=
200808060500 METAR LMML NIL=
200808060445 METAR LMML 060445Z VRB01KT CAVOK 23/22 Q1012 NOSIG=
200808060430 METAR LMML NIL=
200808060415 METAR LMML 060415Z VRB01KT CAVOK 23/23 Q1012 NOSIG=
200808060400 METAR LMML NIL=
200808060345 METAR LMML 060345Z VRB02KT CAVOK 24/23 Q1012 NOSIG=
200808060330 METAR LMML NIL=
200808060315 METAR LMML 060315Z VRB02KT CAVOK 24/23 Q1012 NOSIG=
200808060300 METAR LMML NIL=
200808060245 METAR LMML 060245Z 22005KT CAVOK 25/23 Q1012 NOSIG=
200808060230 METAR LMML NIL=
200808060215 METAR LMML 060215Z 23004KT 210V270 CAVOK 24/23 Q1012 NOSIG=
200808060200 METAR LMML NIL=
200808060145 METAR LMML 060145Z VRB03KT CAVOK 24/23 Q1012 NOSIG=
200808060130 METAR LMML NIL=
200808060115 METAR LMML 060115Z 23004KT CAVOK 24/22 Q1012 NOSIG=
200808060100 METAR LMML NIL=
200808060045 METAR LMML 060045Z VRB03KT CAVOK 24/23 Q1012 NOSIG=
200808060030 METAR LMML NIL=
200808060015 METAR LMML 060015Z 22004KT CAVOK 24/23 Q1012 NOSIG=
200808060000 METAR LMML NIL=
200808052345 METAR LMML 052345Z 22004KT 190V250 CAVOK 25/23 Q1013 NOSIG=
200808052330 METAR LMML NIL=
200808052315 METAR LMML 052315Z 22004KT CAVOK 25/22 Q1013 NOSIG=
200808052300 METAR LMML NIL=
200808052245 METAR LMML 052245Z 22005KT 200V270 CAVOK 25/22 Q1013 NOSIG=
200808052230 METAR LMML NIL=
200808052215 METAR LMML 052215Z 21005KT CAVOK 26/21 Q1013 NOSIG=
200808052200 METAR LMML NIL=
200808052145 METAR LMML 052145Z VRB03KT CAVOK 26/15 Q1013 NOSIG=
200808052130 METAR LMML NIL=
200808052115 METAR LMML 052115Z VRB02KT CAVOK 26/12 Q1013 NOSIG=
200808052100 METAR LMML NIL=
200808052045 METAR LMML 052045Z VRB02KT CAVOK 26/13 Q1013 NOSIG=
200808052030 METAR LMML NIL=
200808052015 METAR LMML 052015Z VRB01KT CAVOK 27/14 Q1013 NOSIG=
200808052000 METAR LMML NIL=
200808051945 METAR LMML 051945Z VRB01KT CAVOK 27/17 Q1013 NOSIG=
200808051930 METAR LMML NIL=
200808051915 METAR LMML 051915Z VRB01KT CAVOK 27/17 Q1013 NOSIG=
200808051900 METAR LMML NIL=
200808051845 METAR LMML 051845Z VRB03KT CAVOK 28/16 Q1013 NOSIG=
200808051830 METAR LMML NIL=
200808051815 METAR LMML 051815Z 33004KT CAVOK 28/17 Q1013 NOSIG=
200808051800 METAR LMML NIL=
200808051745 METAR LMML 051745Z 32005KT CAVOK 30/13 Q1013 NOSIG RMK SMOKE
                        TO SOUTHEAST=
200808051730 METAR LMML NIL=
200808051715 METAR LMML 051715Z 33005KT CAVOK 31/10 Q1013 NOSIG=
200808051700 METAR LMML NIL=
200808051645 METAR LMML 051645Z 33006KT CAVOK 32/10 Q1013 NOSIG=
200808051630 METAR LMML NIL=
200808051615 METAR LMML 051615Z 32006KT 290V350 CAVOK 32/10 Q1013 NOSIG=
200808051600 METAR LMML NIL=
200808051545 METAR LMML 051545Z 33005KT 290V020 CAVOK 33/10 Q1013 NOSIG=
200808051530 METAR LMML NIL=
200808051515 METAR LMML 051515Z 34006KT 240V020 CAVOK 33/13 Q1013 NOSIG=
200808051445 METAR LMML 051445Z 32006KT CAVOK 33/13 Q1013 NOSIG=
200808051430 METAR LMML NIL=
200808051415 METAR LMML 051415Z 33007KT 290V010 CAVOK 34/14 Q1013 NOSIG=
200808051400 METAR LMML NIL=
200808051345 METAR LMML 051345Z 32006KT 290V350 9999 FEW012 33/16 Q1013
                        NOSIG=
200808051330 METAR LMML NIL=
200808051315 METAR LMML 051315Z 07004KT 9999 FEW012 33/16 Q1014 NOSIG=
200808051300 LMML NIL=
200808051245 LMML 051245Z 11007KT 070V160 9999 FEW012 32/23 Q1014 NOSIG=
200808051230 METAR LMML NIL=
200808051215 METAR LMML 051215Z 09005KT 030V200 9999 FEW012 33/22 Q1014
                        NOSIG=
200808051200 METAR LMML NIL=
200808051145 METAR LMML 051145Z 08005KT 020V140 9999 FEW012 33/21 Q1014
                        NOSIG=
200808051130 METAR LMML NIL=
200808051115 METAR LMML 051115Z 08006KT 030V140 9999 FEW012 32/22 Q1014
                        NOSIG=
200808051100 METAR LMML NIL=
200808051045 METAR LMML 051045Z 11007KT 060V150 CAVOK 32/21 Q1014 NOSIG=
200808051015 METAR LMML 051015Z 11005KT 060V170 CAVOK 32/20 Q1014 NOSIG=
200808051000 METAR LMML NIL=
200808050945 METAR LMML 050945Z 12004KT 050V170 CAVOK 32/20 Q1014 NOSIG=
200808050930 METAR LMML NIL=
200808050915 METAR LMML 050915Z VRB03KT CAVOK 33/16 Q1014 NOSIG=
200808050900 METAR LMML NIL=
200808050845 METAR LMML 050845Z 20004KT 9999 FEW008 33/15 Q1014 NOSIG=
200808050830 METAR LMML NIL=
200808050815 METAR LMML 050815Z VRB03KT 9999 FEW008 32/10 Q1014 NOSIG=
200808050800 METAR LMML NIL=
200808050745 METAR LMML 050745Z VRB03KT 9999 FEW008 31/11 Q1014 NOSIG=
200808050730 METAR LMML NIL=
200808050715 METAR LMML 050715Z 29004KT 270V340 9999 FEW008 30/13 Q1014
                        NOSIG=
200808050700 METAR LMML NIL=
200808050645 METAR LMML 050645Z VRB03KT 9999 FEW008 28/16 Q1014 NOSIG=
200808050630 METAR LMML NIL=
200808050615 METAR LMML 050615Z 27004KT 210V320 9999 FEW008 27/17 Q1013
                        NOSIG=
200808050600 METAR LMML NIL=
200808050545 METAR LMML 050545Z 27004KT 220V310 9999 FEW008 25/21 Q1013
                        NOSIG=
200808050530 METAR LMML NIL=
200808050515 METAR LMML 050515Z 29004KT 9999 FEW008 25/22 Q1013 NOSIG=
200808050500 METAR LMML NIL=
200808050445 METAR LMML 050445Z VRB02KT 9999 FEW008 24/17 Q1013 TEMPO
                        SCT008=
200808050430 METAR LMML NIL=
200808050415 METAR LMML 050415Z VRB03KT 9999 FEW008 24/15 Q1013 TEMPO
                        SCT008=
200808050400 METAR LMML NIL=
200808050345 METAR LMML 050345Z 24004KT 9999 FEW008 24/14 Q1013 NOSIG=
200808050330 METAR LMML NIL=
200808050315 METAR LMML 050315Z VRB03KT CAVOK 24/13 Q1013 NOSIG=
200808050300 METAR LMML NIL=
200808050245 METAR LMML 050245Z VRB02KT CAVOK 24/13 Q1013 NOSIG=
200808050230 METAR LMML NIL=
200808050215 METAR LMML 050215Z VRB03KT CAVOK 24/12 Q1013 NOSIG=
200808050200 METAR LMML NIL=
200808050145 METAR LMML 050145Z VRB03KT CAVOK 24/12 Q1014 NOSIG=
200808050130 METAR LMML NIL=
200808050115 METAR LMML 050115Z 27004KT CAVOK 25/11 Q1014 NOSIG=
200808050100 METAR LMML NIL=
200808050045 METAR LMML 050045Z 29004KT CAVOK 25/11 Q1014 NOSIG=
200808050030 METAR LMML NIL=
200808050015 METAR LMML 050015Z 28004KT CAVOK 25/11 Q1014 NOSIG=
200808050000 METAR LMML NIL=
200808042345 METAR LMML 042345Z VRB03KT CAVOK 25/11 Q1014 NOSIG=
200808042315 METAR LMML 042315Z VRB03KT CAVOK 25/14 Q1014 NOSIG=
200808042245 METAR LMML 042245Z VRB03KT CAVOK 25/17 Q1015 NOSIG=
200808042215 METAR LMML 042215Z VRB02KT CAVOK 24/21 Q1015 NOSIG=
200808042200 METAR LMML NIL=
200808042145 METAR LMML 042145Z VRB03KT CAVOK 25/21 Q1015 NOSIG=
200808042130 METAR LMML NIL=
200808042115 METAR LMML 042115Z 30005KT CAVOK 25/22 Q1015 NOSIG=
200808042045 METAR LMML 042045Z 32007KT CAVOK 25/22 Q1015 NOSIG=
200808042015 METAR LMML 042015Z 32007KT CAVOK 25/21 Q1015 NOSIG=
200808042000 METAR LMML NIL=
200808041945 METAR LMML 041945Z 31005KT CAVOK 26/18 Q1015 NOSIG=
200808041930 METAR LMML NIL=
200808041915 METAR LMML 041915Z 30004KT CAVOK 27/14 Q1014 NOSIG=
200808041900 METAR LMML NIL=
200808041845 METAR LMML 041845Z 00000KT CAVOK 27/22 Q1014 NOSIG=
200808041830 METAR LMML NIL=
200808041815 METAR LMML 041815Z VRB02KT CAVOK 28/22 Q1014 NOSIG=
200808041800 METAR LMML NIL=
200808041745 METAR LMML 041745Z VRB01KT CAVOK 29/17 Q1014 NOSIG=
200808041730 METAR LMML NIL=
200808041715 METAR LMML 041715Z VRB02KT CAVOK 30/18 Q1014 NOSIG=
200808041700 METAR LMML NIL=
200808041645 METAR LMML 041645Z 02004KT 320V070 CAVOK 30/19 Q1014 NOSIG=
200808041630 METAR LMML NIL=
200808041615 METAR LMML 041615Z 05004KT 010V090 CAVOK 31/21 Q1014 NOSIG=
200808041600 METAR LMML NIL=
200808041545 METAR LMML 041545Z 04004KT 360V080 CAVOK 31/22 Q1014 NOSIG=
200808041530 METAR LMML NIL=
200808041515 METAR LMML 041515Z 04005KT 360V090 9999 FEW030 31/23 Q1014
                        NOSIG=
200808041500 METAR LMML NIL=
200808041445 METAR LMML 041445Z 05005KT 010V120 9999 FEW031 32/23 Q1014
                        NOSIG=
200808041430 METAR LMML NIL=
200808041415 METAR LMML 041415Z VRB03KT 9999 FEW028 31/23 Q1014 NOSIG=
200808041400 METAR LMML NIL=
200808041345 METAR LMML 041345Z 13005KT 070V210 9999 FEW025 32/23 Q1014
                        NOSIG=
200808041330 METAR LMML NIL=
200808041315 METAR LMML 041315Z VRB03KT 9000 FEW020 32/22 Q1015 NOSIG=
200808041300 METAR LMML NIL=
200808041245 METAR LMML 041245Z VRB03KT 9000 FEW018 31/23 Q1015 NOSIG=
200808041230 METAR LMML NIL=
200808041215 METAR LMML 041215Z 02004KT 310V090 9000 FEW018 32/23 Q1015
                        NOSIG=
200808041200 METAR LMML NIL=
200808041145 METAR LMML 041145Z 03005KT 330V090 9999 FEW020 32/23 Q1015
                        NOSIG=
200808041130 METAR LMML NIL=
200808041115 METAR LMML 041115Z 06005KT 360V110 9999 FEW020 31/23 Q1015
                        NOSIG=
200808041100 METAR LMML NIL=
200808041045 METAR LMML 041045Z 05005KT 350V120 CAVOK 31/23 Q1015 NOSIG=
200808041030 METAR LMML NIL=
200808041015 METAR LMML 041015Z 04005KT 340V110 CAVOK 32/22 Q1015 NOSIG=
200808041000 LMML NIL=
200808040945 LMML 040945Z 35006KT CAVOK 32/22 Q1015 NOSIG=
200808040930 METAR LMML NIL=
200808040915 METAR LMML 040915Z 11006KT 050V150 CAVOK 31/22 Q1015 NOSIG=
200808040900 METAR LMML NIL=
200808040845 METAR LMML 040845Z VRB02KT CAVOK 31/19 Q1015 NOSIG=
200808040830 METAR LMML NIL=
200808040815 METAR LMML 040815Z VRB02KT CAVOK 31/19 Q1015 NOSIG=
200808040800 METAR LMML NIL=
200808040745 METAR LMML 040745Z VRB02KT CAVOK 30/21 Q1015 NOSIG=
200808040730 METAR LMML NIL=
200808040715 METAR LMML 040715Z VRB02KT CAVOK 28/21 Q1015 NOSIG=
200808040645 METAR LMML 040645Z VRB03KT CAVOK 28/21 Q1015 NOSIG=
200808040630 METAR LMML NIL=
200808040615 METAR LMML 040615Z VRB03KT 8000 FEW011 26/22 Q1015 BECMG
                        9999=
200808040600 METAR LMML NIL=
200808040545 METAR LMML 040545Z VRB03KT 7000 FEW011 25/24 Q1015 BECMG
                        9999=
200808040530 METAR LMML NIL=
200808040515 METAR LMML 040515Z 25004KT 200V300 7000 FEW011 25/24 Q1014
                        BECMG 9999=
200808040500 METAR LMML NIL=
200808040445 METAR LMML 040445Z 24004KT 200V280 CAVOK 24/23 Q1014 NOSIG=
200808040430 METAR LMML NIL=
200808040415 METAR LMML 040415Z VRB03KT CAVOK 24/22 Q1014 NOSIG=
200808040400 METAR LMML NIL=
200808040345 METAR LMML 040345Z VRB03KT CAVOK 24/19 Q1014 NOSIG=
200808040315 METAR LMML 040315Z VRB03KT CAVOK 23/20 Q1014 NOSIG=
200808040300 METAR LMML NIL=
200808040245 METAR LMML 040245Z VRB01KT CAVOK 23/20 Q1014 NOSIG=
200808040230 METAR LMML NIL=
200808040215 METAR LMML 040215Z VRB01KT CAVOK 23/21 Q1014 NOSIG=
200808040200 METAR LMML NIL=
200808040145 METAR LMML 040145Z VRB02KT CAVOK 23/20 Q1015 NOSIG=
200808040115 METAR LMML 040115Z VRB01KT CAVOK 24/19 Q1015 NOSIG=
200808040100 METAR LMML NIL=
200808040045 METAR LMML 040045Z VRB01KT CAVOK 24/20 Q1015 NOSIG=
200808040015 METAR LMML 040015Z VRB01KT CAVOK 24/19 Q1015 NOSIG=
200808040000 METAR LMML NIL=
200808032345 METAR LMML 032345Z VRB03KT CAVOK 25/19 Q1015 NOSIG=
200808032330 METAR LMML NIL=
200808032315 METAR LMML 032315Z VRB03KT CAVOK 25/18 Q1015 NOSIG=
200808032300 METAR LMML NIL=
200808032245 METAR LMML 032245Z VRB03KT CAVOK 25/19 Q1015 NOSIG=
200808032230 METAR LMML NIL=
200808032215 METAR LMML 032215Z VRB03KT CAVOK 26/19 Q1016 NOSIG=
200808032200 METAR LMML NIL=
200808032145 METAR LMML 032145Z VRB01KT CAVOK 25/19 Q1016 NOSIG=
200808032130 METAR LMML NIL=
200808032115 METAR LMML 032115Z VRB02KT CAVOK 26/18 Q1016 NOSIG=
200808032100 METAR LMML NIL=
200808032045 METAR LMML 032045Z VRB03KT CAVOK 26/17 Q1016 NOSIG=
200808032030 METAR LMML NIL=
200808032015 METAR LMML 032015Z VRB02KT CAVOK 26/14 Q1016 NOSIG=
200808032000 METAR LMML NIL=
200808031945 METAR LMML 031945Z VRB02KT CAVOK 26/17 Q1015 NOSIG=
200808031930 METAR LMML NIL=
200808031915 METAR LMML 031915Z VRB02KT CAVOK 27/17 Q1015 NOSIG=
200808031900 METAR LMML NIL=
200808031845 METAR LMML 031845Z VRB03KT CAVOK 27/18 Q1015 NOSIG=
200808031830 METAR LMML NIL=
200808031815 METAR LMML 031815Z 33004KT CAVOK 27/20 Q1015 NOSIG=
200808031800 METAR LMML NIL=
200808031745 METAR LMML 031745Z 34005KT 310V010 CAVOK 28/20 Q1015 NOSIG=
200808031730 METAR LMML NIL=
200808031715 METAR LMML 031715Z 02004KT 350V070 CAVOK 29/20 Q1015 NOSIG=
200808031700 METAR LMML NIL=
200808031645 METAR LMML 031645Z 01006KT CAVOK 30/21 Q1015 NOSIG=
200808031630 METAR LMML NIL=
200808031615 METAR LMML 031615Z VRB02KT CAVOK 31/19 Q1015 NOSIG=
200808031600 METAR LMML NIL=
200808031545 METAR LMML 031545Z 02004KT 330V070 CAVOK 31/19 Q1015 NOSIG=
200808031530 METAR LMML NIL=
200808031515 METAR LMML 031515Z 11004KT CAVOK 31/18 Q1015 NOSIG=
200808031500 METAR LMML NIL=
200808031445 METAR LMML 031445Z 22004KT 150V280 9999 FEW035 30/18 Q1015
                        NOSIG=
200808031430 METAR LMML NIL=
200808031415 METAR LMML 031415Z 21005KT 180V250 CAVOK 30/19 Q1015 NOSIG=
200808031400 METAR LMML NIL=
200808031345 METAR LMML 031345Z 19005KT 050V260 CAVOK 31/20 Q1015 NOSIG=
200808031330 METAR LMML NIL=
200808031315 METAR LMML 031315Z 07005KT 330V230 9999 FEW035 33/15 Q1015
                        NOSIG=
200808031300 METAR LMML NIL=
200808031245 METAR LMML 031245Z 09004KT 020V160 9999 FEW020 32/16 Q1015
                        NOSIG=
200808031230 METAR LMML NIL=
200808031215 METAR LMML 031215Z 08005KT 030V150 CAVOK 32/16 Q1016 NOSIG=
200808031200 METAR LMML NIL=
200808031145 METAR LMML 031145Z 07004KT 310V230 CAVOK 31/17 Q1016 NOSIG=
200808031130 METAR LMML NIL=
200808031115 METAR LMML 031115Z 05006KT 340V120 CAVOK 31/17 Q1016 NOSIG=
200808031100 METAR LMML NIL=
200808031045 METAR LMML 031045Z 04004KT 350V090 CAVOK 31/19 Q1016 NOSIG=
200808031030 METAR LMML NIL=
200808031015 METAR LMML 031015Z 05006KT 360V090 CAVOK 31/18 Q1016 NOSIG=
200808031000 METAR LMML NIL=
200808030945 METAR LMML 030945Z 03006KT 360V070 CAVOK 30/21 Q1016 NOSIG=
200808030930 METAR LMML NIL=
200808030915 METAR LMML 030915Z 02007KT 350V100 9999 FEW018 30/20 Q1016
                        NOSIG=
200808030900 METAR LMML NIL=
200808030845 METAR LMML 030845Z 03006KT 350V080 9999 FEW016 29/22 Q1016
                        NOSIG=
200808030830 METAR LMML NIL=
200808030815 METAR LMML 030815Z 04006KT 360V100 9999 FEW015 29/20 Q1016
                        NOSIG=
200808030800 METAR LMML NIL=
200808030745 METAR LMML 030745Z 06006KT 020V150 9999 FEW015 29/22 Q1015
                        NOSIG=
200808030730 METAR LMML NIL=
200808030715 METAR LMML 030715Z 04004KT 010V090 9999 FEW010 29/21 Q1015
                        NOSIG=
200808030700 METAR LMML NIL=
200808030645 METAR LMML 030645Z VRB01KT 9999 FEW010 28/21 Q1015 NOSIG=
200808030630 METAR LMML NIL=
200808030615 METAR LMML 030615Z VRB01KT 9999 FEW010 27/21 Q1015 NOSIG=
200808030545 METAR LMML 030545Z VRB02KT CAVOK 26/23 Q1015 NOSIG=
200808030515 METAR LMML 030515Z VRB03KT CAVOK 25/24 Q1015 NOSIG=
200808030500 METAR LMML NIL=
200808030445 METAR LMML 030445Z VRB02KT CAVOK 24/24 Q1014 NOSIG=
200808030430 METAR LMML NIL=
200808030415 METAR LMML 030415Z 00000KT CAVOK 24/23 Q1014 NOSIG=
200808030345 METAR LMML 030345Z VRB02KT CAVOK 24/23 Q1014 NOSIG=
200808030330 METAR LMML NIL=
200808030315 METAR LMML 030315Z VRB03KT CAVOK 24/23 Q1014 NOSIG=
200808030300 METAR LMML NIL=
200808030245 METAR LMML 030245Z VRB01KT CAVOK 24/22 Q1014 NOSIG=
200808030230 METAR LMML NIL=
200808030215 METAR LMML 030215Z VRB03KT CAVOK 24/21 Q1015 NOSIG=
200808030200 METAR LMML NIL=
200808030145 METAR LMML 030145Z VRB03KT CAVOK 24/21 Q1015 NOSIG=
200808030130 METAR LMML NIL=
200808030115 METAR LMML 030115Z VRB03KT CAVOK 24/22 Q1015 NOSIG=
200808030100 METAR LMML NIL=
200808030045 METAR LMML 030045Z 23004KT 200V280 CAVOK 25/24 Q1015 NOSIG=
200808030030 METAR LMML NIL=
200808030015 METAR LMML 030015Z 22004KT 190V260 CAVOK 25/23 Q1015 NOSIG=
200808030000 METAR LMML NIL=
200808022345 METAR LMML 022345Z VRB03KT CAVOK 25/22 Q1015 NOSIG=
200808022330 METAR LMML NIL=
200808022315 METAR LMML 022315Z 22005KT 200V260 CAVOK 25/23 Q1015 NOSIG=
200808022300 METAR LMML NIL=
200808022245 METAR LMML 022245Z 21004KT 170V240 CAVOK 26/21 Q1015 NOSIG=
200808022215 METAR LMML 022215Z VRB02KT CAVOK 25/18 Q1016 NOSIG=
200808022200 METAR LMML NIL=
200808022145 METAR LMML 022145Z VRB02KT CAVOK 25/19 Q1016 NOSIG=
200808022130 METAR LMML NIL=
200808022115 METAR LMML 022115Z VRB01KT CAVOK 25/20 Q1016 NOSIG=
200808022100 METAR LMML NIL=
200808022045 METAR LMML 022045Z 00000KT CAVOK 25/22 Q1016 NOSIG=
200808022030 METAR LMML NIL=
200808022015 METAR LMML 022015Z 00000KT CAVOK 26/21 Q1016 NOSIG=
200808022000 METAR LMML NIL=
200808021945 METAR LMML 021945Z VRB01KT CAVOK 26/20 Q1016 NOSIG=
200808021930 METAR LMML NIL=
200808021915 METAR LMML 021915Z VRB02KT CAVOK 27/20 Q1016 NOSIG=
200808021900 METAR LMML NIL=
200808021845 METAR LMML 021845Z VRB03KT CAVOK 27/19 Q1016 NOSIG=
200808021830 METAR LMML NIL=
200808021815 METAR LMML 021815Z 32006KT 300V360 CAVOK 27/20 Q1016 NOSIG=
200808021800 METAR LMML NIL=
200808021745 METAR LMML 021745Z 32004KT 280V020 CAVOK 28/19 Q1015 NOSIG=
200808021730 METAR LMML NIL=
200808021715 METAR LMML 021715Z 28004KT 220V320 CAVOK 29/19 Q1015 NOSIG=
200808021700 METAR LMML NIL=
200808021645 METAR LMML 021645Z 25004KT 190V300 CAVOK 28/22 Q1015 NOSIG=
200808021630 METAR LMML NIL=
200808021615 METAR LMML 021615Z 25008KT 210V290 CAVOK 28/21 Q1015 NOSIG=
200808021600 METAR LMML NIL=
200808021545 METAR LMML 021545Z 25007KT 200V290 CAVOK 29/20 Q1015 NOSIG=
200808021530 METAR LMML NIL=
200808021515 METAR LMML 021515Z VRB03KT CAVOK 32/14 Q1015 NOSIG=
200808021500 METAR LMML NIL=
200808021445 METAR LMML 021445Z 29006KT 260V330 CAVOK 32/15 Q1016 NOSIG=
200808021430 METAR LMML NIL=
200808021415 METAR LMML 021415Z VRB03KT CAVOK 32/20 Q1016 NOSIG=
200808021400 METAR LMML NIL=
200808021345 METAR LMML 021345Z 05004KT 010V220 9999 FEW020 32/21 Q1016
                        NOSIG=
200808021330 METAR LMML NIL=
200808021315 METAR LMML 021315Z 04005KT 280V090 CAVOK 32/21 Q1016 NOSIG=
200808021300 METAR LMML NIL=
200808021245 METAR LMML 021245Z 03005KT 360V070 CAVOK 32/20 Q1017 NOSIG=
200808021215 METAR LMML 021215Z 04005KT 350V120 CAVOK 32/20 Q1017 NOSIG=
200808021145 METAR LMML 021145Z 04005KT 340V110 CAVOK 32/20 Q1017 NOSIG=
200808021130 METAR LMML NIL=
200808021115 METAR LMML 021115Z 25005KT CAVOK 31/21 Q1017 NOSIG=
200808021045 METAR LMML 021045Z 06006KT 020V100 CAVOK 31/21 Q1017 NOSIG=
200808021030 METAR LMML NIL=
200808021015 METAR LMML 021015Z 06004KT 280V130 CAVOK 32/21 Q1017 NOSIG=
200808021000 METAR LMML NIL=
200808020945 METAR LMML 020945Z 04006KT 350V070 CAVOK 31/21 Q1017 NOSIG=
200808020930 METAR LMML NIL=
200808020915 METAR LMML 020915Z 03005KT 310V120 CAVOK 31/20 Q1017 NOSIG=
200808020845 METAR LMML 020845Z VRB01KT CAVOK 30/16 Q1017 NOSIG=
200808020830 METAR LMML NIL=
200808020815 METAR LMML 020815Z VRB02KT CAVOK 30/19 Q1017 NOSIG=
200808020800 METAR LMML NIL=
200808020745 METAR LMML 020745Z VRB02KT CAVOK 29/17 Q1017 NOSIG=
200808020730 METAR LMML NIL=
200808020715 METAR LMML 020715Z VRB02KT CAVOK 28/20 Q1017 NOSIG=
200808020700 METAR LMML NIL=
200808020645 METAR LMML 020645Z 36004KT 340V060 CAVOK 27/20 Q1017 NOSIG=
200808020630 METAR LMML NIL=
200808020615 METAR LMML 020615Z 33005KT 300V360 CAVOK 26/21 Q1016 NOSIG=
200808020600 METAR LMML NIL=
200808020545 METAR LMML 020545Z VRB03KT CAVOK 25/20 Q1016 NOSIG=
200808020530 METAR LMML NIL=
200808020515 METAR LMML 020515Z VRB02KT CAVOK 24/16 Q1016 NOSIG=
200808020500 METAR LMML NIL=
200808020445 METAR LMML 020445Z VRB02KT CAVOK 23/14 Q1015 NOSIG=
200808020430 METAR LMML NIL=
200808020415 METAR LMML 020415Z VRB03KT CAVOK 23/15 Q1015 NOSIG=
200808020400 METAR LMML NIL=
200808020345 METAR LMML 020345Z VRB03KT CAVOK 23/16 Q1015 TEMPO 7000 NSC=
200808020330 METAR LMML NIL=
200808020315 METAR LMML 020315Z 30004KT CAVOK 24/17 Q1015 TEMPO 7000 NSC=
200808020300 METAR LMML NIL=
200808020245 METAR LMML 020245Z 31005KT CAVOK 23/18 Q1015 TEMPO 7000 NSC=
200808020230 METAR LMML NIL=
200808020215 METAR LMML 020215Z 31004KT 9000 SKC 23/18 Q1015 TEMPO 7000
                        NSC=
200808020200 METAR LMML NIL=
200808020145 METAR LMML 020145Z 31005KT 9000 SKC 23/20 Q1015 TEMPO 7000
                        NSC=
200808020130 METAR LMML NIL=
200808020115 METAR LMML 020115Z 30004KT 9000 SKC 24/21 Q1016 TEMPO 7000
                        NSC=
200808020100 METAR LMML NIL=
200808020045 METAR LMML 020045Z VRB03KT 9000 SKC 23/21 Q1016 TEMPO 7000
                        NSC=
200808020030 METAR LMML NIL=
200808020015 METAR LMML 020015Z VRB02KT 9000 SKC 23/22 Q1016 TEMPO 7000
                        NSC=
200808020000 METAR LMML NIL=
200808012345 METAR LMML 012345Z VRB03KT 9000 SKC 24/22 Q1016 TEMPO 7000
                        NSC=
200808012330 METAR LMML NIL=
200808012315 METAR LMML 012315Z VRB03KT CAVOK 24/22 Q1016 TEMPO 7000 NSC=
200808012300 METAR LMML NIL=
200808012245 METAR LMML 012245Z VRB03KT CAVOK 24/22 Q1016 NOSIG=
200808012230 METAR LMML NIL=
200808012215 METAR LMML 012215Z 32004KT CAVOK 24/22 Q1016 NOSIG=
200808012200 METAR LMML NIL=
200808012145 METAR LMML 012145Z 31004KT CAVOK 24/22 Q1016 NOSIG=
200808012130 METAR LMML NIL=
200808012115 METAR LMML 012115Z 32005KT CAVOK 24/22 Q1016 NOSIG=
200808012100 METAR LMML NIL=
200808012045 METAR LMML 012045Z 31006KT CAVOK 25/22 Q1016 NOSIG=
200808012030 METAR LMML NIL=
200808012015 METAR LMML 012015Z 32005KT CAVOK 25/22 Q1016 NOSIG=
200808012000 METAR LMML NIL=
200808011945 METAR LMML 011945Z 30005KT CAVOK 25/21 Q1016 NOSIG=
200808011930 METAR LMML NIL=
200808011915 METAR LMML 011915Z 32006KT CAVOK 25/21 Q1016 NOSIG=
200808011900 METAR LMML NIL=
200808011845 METAR LMML 011845Z 31005KT CAVOK 26/20 Q1015 NOSIG=
200808011830 METAR LMML NIL=
200808011815 METAR LMML 011815Z 31009KT CAVOK 26/18 Q1015 NOSIG=
200808011800 METAR LMML NIL=
200808011745 METAR LMML 011745Z 29005KT 260V330 CAVOK 27/17 Q1015 NOSIG=
200808011730 METAR LMML NIL=
200808011715 METAR LMML 011715Z 29007KT CAVOK 28/15 Q1015 NOSIG=
200808011700 METAR LMML NIL=
200808011645 METAR LMML 011645Z 29006KT 230V320 CAVOK 29/13 Q1015 NOSIG=
200808011630 METAR LMML NIL=
200808011615 METAR LMML 011615Z 31009KT 270V330 CAVOK 30/13 Q1015 NOSIG=
200808011600 METAR LMML NIL=
200808011545 METAR LMML 011545Z 28007KT 220V320 CAVOK 31/12 Q1015 NOSIG=
200808011530 METAR LMML NIL=
200808011515 METAR LMML 011515Z 28006KT 210V330 CAVOK 32/11 Q1015 NOSIG=
200808011500 METAR LMML NIL=
200808011445 METAR LMML 011445Z 25006KT 190V320 CAVOK 32/13 Q1015 NOSIG=
200808011430 METAR LMML NIL=
200808011415 METAR LMML 011415Z 30006KT 260V350 CAVOK 32/13 Q1015 NOSIG=
200808011400 METAR LMML NIL=
200808011345 METAR LMML 011345Z 02004KT 310V050 9999 FEW044 33/16 Q1015
                        NOSIG=
200808011330 METAR LMML NIL=
200808011315 METAR LMML 011315Z 03004KT 250V180 9999 FEW044 32/17 Q1016
                        NOSIG=
200808011300 METAR LMML NIL=
200808011245 METAR LMML 011245Z 27005KT 9999 FEW043 32/18 Q1016 NOSIG=
200808011230 METAR LMML NIL=
200808011215 METAR LMML 011215Z 04005KT 260V120 9999 FEW043 32/18 Q1016
                        NOSIG=
200808011200 METAR LMML NIL=
200808011145 METAR LMML 011145Z 02005KT 330V070 9999 FEW043 32/18 Q1016
                        NOSIG=
200808011130 METAR LMML NIL=
200808011115 METAR LMML 011115Z 04005KT 360V140 9999 FEW043 32/19 Q1016
                        NOSIG=
200808011100 METAR LMML NIL=
200808011045 METAR LMML 011045Z 03004KT 350V090 9999 FEW035 31/18 Q1017
                        NOSIG=
200808011030 METAR LMML NIL=
200808011015 METAR LMML 011015Z 01005KT 320V080 9999 FEW035 31/17 Q1017
                        NOSIG=
200808011000 METAR LMML NIL=
200808010945 METAR LMML 010945Z 02005KT 320V110 CAVOK 31/18 Q1017 NOSIG=
200808010930 METAR LMML NIL=
200808010915 METAR LMML 010915Z 36005KT 310V080 CAVOK 30/18 Q1017 NOSIG=
200808010900 METAR LMML NIL=
200808010845 METAR LMML 010845Z 35006KT 310V070 CAVOK 30/16 Q1017 NOSIG=
200808010830 METAR LMML NIL=
200808010815 METAR LMML 010815Z 34005KT 290V030 CAVOK 29/17 Q1017 NOSIG=
200808010800 METAR LMML NIL=
200808010745 METAR LMML 010745Z VRB03KT CAVOK 29/18 Q1017 NOSIG=
200808010730 METAR LMML NIL=
200808010715 METAR LMML 010715Z VRB03KT CAVOK 28/18 Q1016 NOSIG=
200808010700 METAR LMML NIL=
200808010645 METAR LMML 010645Z 32004KT 290V080 CAVOK 27/20 Q1016 NOSIG=
200808010630 METAR LMML NIL=
200808010615 METAR LMML 010615Z 30004KT 280V340 CAVOK 26/21 Q1016 NOSIG=
200808010600 METAR LMML NIL=
200808010545 METAR LMML 010545Z VRB03KT CAVOK 25/20 Q1016 NOSIG=
200808010530 METAR LMML NIL=
200808010515 METAR LMML 010515Z VRB03KT CAVOK 23/18 Q1016 NOSIG=
200808010500 METAR LMML NIL=
200808010445 METAR LMML 010445Z VRB03KT CAVOK 23/19 Q1016 NOSIG=
200808010430 METAR LMML NIL=
200808010415 METAR LMML 010415Z VRB03KT CAVOK 22/19 Q1015 NOSIG=
200808010400 METAR LMML NIL=
200808010345 METAR LMML 010345Z VRB01KT CAVOK 22/19 Q1015 NOSIG=
200808010330 METAR LMML NIL=
200808010315 METAR LMML 010315Z VRB01KT CAVOK 23/19 Q1015 NOSIG=
200808010245 METAR LMML 010245Z 32004KT CAVOK 23/17 Q1015 NOSIG=
200808010230 METAR LMML NIL=
200808010215 METAR LMML 010215Z VRB02KT CAVOK 23/15 Q1015 NOSIG=
200808010200 METAR LMML NIL=
200808010145 METAR LMML 010145Z VRB02KT CAVOK 23/16 Q1015 NOSIG=
200808010130 METAR LMML NIL=
200808010115 METAR LMML 010115Z VRB02KT CAVOK 23/15 Q1016 NOSIG=
200808010100 METAR LMML NIL=
200808010045 METAR LMML 010045Z VRB03KT CAVOK 24/16 Q1016 NOSIG=
200808010030 METAR LMML NIL=
200808010015 METAR LMML 010015Z VRB02KT CAVOK 23/18 Q1016 NOSIG=

###################################
#  short TAF from LMML
###################################
200808312300 TAF LMML 312300Z 010009 VRB02KT CAVOK
                      PROB30 TEMPO 0306 FEW015=
200808312000 TAF LMML 312000Z 312106 VRB03KT CAVOK
                      PROB30 TEMPO 0306 FEW015=
200808311700 TAF LMML 311700Z 311803 24005KT CAVOK=
200808311400 TAF LMML 311400Z 311524 23005KT 9999 FEW030=
200808311100 TAF LMML 311100Z 311221 22005KT 9999 FEW030=
200808310800 TAF LMML 310800Z 310918 28005KT 9999 FEW030=
200808310500 TAF LMML 310500Z 310615 31007KT CAVOK
                      BECMG 0609 9999 FEW020=
200808310200 TAF LMML 310200Z 310312 30005KT CAVOK
                      PROB30 TEMPO 0306 9000 FEW011
                      BECMG 0609 9999 SCT020=
200808302300 TAF LMML 302300Z 310009 32005KT CAVOK
                      PROB30 TEMPO 0006 9999 FEW011
                      BECMG 0609 9999 SCT020=
200808302000 TAF LMML 302000Z 302106 34007KT 9999 FEW020
                      PROB30 TEMPO 2103 BKN015=
200808301700 TAF LMML 301700Z 301803 VRB03KT 9999 FEW020=
200808301400 TAF LMML 301400Z 301524 12005KT 9999 FEW025=
200808301100 TAF LMML 301100Z 301221 04005KT 9999 FEW025=
200808300800 TAF LMML 300800Z 300918 35005KT 9999 FEW025=
200808300500 TAF LMML 300500Z 300615 33006KT 9999 FEW025=
200808300200 TAF LMML 300200Z 300312 30005KT CAVOK
                      TEMPO 0305 8000
                      BECMG 0406 9999 FEW025=
200808292300 TAF LMML 292300Z 300009 VRB03KT CAVOK
                      TEMPO 0205 8000
                      BECMG 0406 9999 FEW025=
200808292000 TAF LMML 292000Z 292106 30004KT 9999 FEW020=
200808291700 TAF LMML 291700Z 291803 29010KT 9999 FEW020
                      BECMG 2023 35006KT CAVOK
                      PROB30 TEMPO 2303 9999 FEW020=
200808291400 TAF LMML 291400Z 291524 29010KT 9999 FEW025
                      BECMG 1821 CAVOK
                      TEMPO 2124 9999 FEW020
                      BECMG 2124 35005KT=
200808291100 TAF LMML 291100Z 291221 28010KT 9999 FEW020=
200808290800 TAF LMML 290800Z 290918 29009KT 9999 FEW020=
200808290500 TAF LMML 290500Z 290615 30008KT 9999 FEW020=
200808290200 TAF LMML 290200Z 290312 28006KT 9999 FEW020
                      PROB30 TEMPO 0306 8000=
200808282300 TAF LMML 282300Z 290009 28005KT 9999 FEW020
                      PROB30 TEMPO 0306 8000=
200808282000 TAF LMML 282000Z 282106 30005KT 9999 FEW020
                      PROB30 TEMPO 0306 8000=
200808281700 TAF LMML 281700Z 281803 29007KT 9999 FEW020=
200808281400 TAF LMML 281400Z 281524 35008KT 9999 FEW020=
200808281100 TAF LMML 281100Z 281221 30008KT 9999 FEW020=
200808280800 TAF LMML 280800Z 280918 03005KT 9999 FEW020=
200808280500 TAF LMML 280500Z 280615 29005KT 9999 FEW025=
200808280200 TAF LMML 280200Z 280312 VRB03KT 9999 FEW025=
200808272300 TAF LMML 272300Z 280009 VRB03KT 9999 FEW020=
200808272000 TAF LMML 272000Z 272106 VRB03KT 9999 FEW020=
200808271700 TAF LMML 271700Z 271803 VRB03KT 9999 SCT018=
200808271400 TAF LMML 271400Z 271524 24006KT 9999 SCT020=
200808271100 TAF LMML 271100Z 271221 16008KT 9999 SCT025
                      PROB30 TEMPO 1214 8000 SHRA BKN015
                      BECMG 1821 CAVOK=
200808270800 TAF LMML 270800Z 270918 12008KT 9999 SCT025=
200808270500 TAF LMML 270500Z 270615 02005KT 9999 SCT020=
200808270200 TAF LMML 270200Z 270312 03005KT 9999 FEW018
                      PROB30 TEMPO 0306 8000 BKN010=
200808262300 TAF LMML 262300Z 270009 VRB03KT CAVOK
                      TEMPO 0006 9999 FEW011
                      PROB30 TEMPO 0006 8000 BKN010
                      BECMG 0609 9999 SCT015=
200808262000 TAF LMML 262000Z 262106 06004KT 9999 FEW018
                      PROB30 TEMPO 2106 9000 BKN010=
200808261700 TAF LMML 261700Z 261803 VRB03KT 9999 FEW020=
200808261400 TAF LMML 261400Z 261524 VRB03KT 9999 SCT015=
200808261100 TAF LMML 261100Z 261221 12005KT 9999 FEW020=
200808260800 TAF LMML 260800Z 260918 VRB03KT 9999 FEW020 SCT120=
200808260500 TAF LMML 260500Z 260615 32005KT 9999 SCT015 SCT120=
200808260200 TAF LMML 260200Z 260312 30005KT 9999 FEW015
                      PROB30 TEMPO 0306 6000 BKN006=
200808252300 TAF LMML 252300Z 260009 32005KT 9999 SCT011 SCT120
                      PROB30 TEMPO 0006 6000 BKN006=
200808252000 TAF LMML 252000Z 252106 32004KT 9999 FEW011 BKN120
                      PROB30 TEMPO 2106 6000 BKN005=
200808251700 TAF LMML 251700Z 251803 34006KT 9999 FEW015
                      BECMG 2124 CAVOK
                      PROB30 TEMPO 0003 9000 FEW011=
200808251400 TAF LMML 251400Z 251524 09005KT 9999 SCT015 SCT100=
200808251100 TAF LMML 251100Z 251221 03006KT CAVOK
                      TEMPO 1221 9999 FEW020=
200808250800 TAF LMML 250800Z 250918 36005KT CAVOK
                      BECMG 0912 9999 SCT015 SCT100=
200808250500 TAF LMML 250500Z 250615 03005KT 9999 FEW020=
200808250200 TAF LMML 250200Z 250312 31005KT CAVOK
                      PROB30 TEMPO 0306 8000 FEW010
                      PROB30 TEMPO 0612 9999 FEW020 SCT100=
200808242300 TAF LMML 242300Z 250009 32008KT CAVOK
                      PROB30 TEMPO 0106 8000 TSRA SCT008 BKN050CB=
200808242000 TAF LMML 242000Z 242106 32008KT CAVOK
                      PROB30 TEMPO 0206 8000 TSRA SCT008 BKN050CB=
200808241700 TAF LMML 241700Z 241803 30009KT CAVOK=
200808241400 TAF LMML 241400Z 241524 29008KT CAVOK=
200808241100 TAF LMML 241100Z 241221 30010KT CAVOK=
200808240800 TAF LMML 240800Z 240918 30010KT CAVOK
                      TEMPO 1115 9999 FEW030=
200808240500 TAF LMML 240500Z 240615 29010KT CAVOK
                      PROB40 TEMPO 9999 FEW020=
200808240200 TAF LMML 240200Z 240312 28010KT CAVOK
                      PROB30 TEMPO 0306 9000 FEW012
                      TEMPO 0612 FEW020=
200808232300 TAF LMML 232300Z 240009 27006KT CAVOK
                      PROB30 TEMPO 0206 9000 FEW011
                      TEMPO 0609 FEW020=
200808232000 TAF LMML 232000Z 232106 27005KT CAVOK
                      PROB30 TEMPO 0206 9000 FEW010=
200808231700 LMML NIL=
200808231400 TAF LMML 231400Z 231524 27010KT CAVOK=
200808231100 TAF LMML 231100Z 231221 30010KT CAVOK=
200808230800 TAF LMML 230800Z 230918 30010KT 9999 FEW020=
200808230500 TAF LMML 230500Z 230615 27007KT CAVOK
                      PROB30 TEMPO 0615 9999 FEW015=
200808230200 TAF LMML 230200Z 230312 28006KT CAVOK
                      PROB30 TEMPO 0305 9000 FEW011
                      BECMG 0507 9999 FEW015=
200808222300 TAF LMML 222300Z 230009 30006KT CAVOK
                      PROB30 TEMPO 0205 8000 FEW011
                      BECMG 0507 9999 FEW015=
200808222000 TAF LMML 222000Z 222106 28005KT CAVOK
                      PROB30 TEMPO 0206 9000 FEW011=
200808221700 TAF LMML 221700Z 221803 27005KT CAVOK
                      PROB30 TEMPO 0103 9999 FEW015=
200808221400 TAF LMML 221400Z 221524 VRB03KT CAVOK=
200808221100 TAF LMML 221100Z 221221 30005KT CAVOK=
200808220800 TAF LMML 220800Z 220918 33005KT CAVOK=
200808220500 TAF LMML 220500Z 220615 28006KT CAVOK=
200808220200 TAF LMML 220200Z 220312 28006KT CAVOK
                      PROB30 TEMPO 0305 7000 FEW005=
200808212300 TAF LMML 212300Z 220009 27004KT CAVOK
                      PROB30 TEMPO 0005 6000 FEW005=
200808212000 TAF LMML 212000Z 212106 27004KT CAVOK
                      PROB30 TEMPO 0005 6000 FEW005=
200808211700 TAF LMML 211700Z 211803 30005KT CAVOK
                      PROB30 TEMPO 0003 9000 FEW012=
200808211400 TAF LMML 211400Z 211524 03010KT 9999 FEW030
                      BECMG 1518 28005KT CAVOK=
200808211100 TAF LMML 211100Z 211221 17008KT CAVOK
                      TEMPO 1215 9999 FEW020=
200808210800 TAF LMML 210800Z 210918 33005KT 9999 FEW020
                      BECMG 0912 CAVOK=
200808210500 TAF LMML 210500Z 210615 33008KT CAVOK
                      TEMPO 0608 FEW018=
200808210200 TAF LMML 210200Z 210312 31006KT CAVOK
                      PROB30 TEMPO 0305 FEW010=
200808202300 TAF LMML 202300Z 210009 31004KT CAVOK
                      PROB30 TEMPO 0305 9999 FEW010=
200808202000 TAF LMML 202000Z 202106 31006KT CAVOK
                      PROB30 TEMPO 0006 9999 FEW010=
200808201700 TAF LMML 201700Z 201803 30006KT CAVOK
                      PROB30 TEMPO 2103 9999 FEW010=
200808201400 TAF LMML 201400Z 201524 30008KT CAVOK=
200808201100 TAF LMML 201100Z 201221 30005KT CAVOK=
200808200800 TAF LMML 200800Z 200918 03005KT CAVOK=
200808200500 TAF LMML 200500Z 200615 31006KT CAVOK
                      PROB30 TEMPO 0609 9999 FEW015=
200808200200 TAF LMML 200200Z 200312 30005KT CAVOK
                      PROB30 TEMPO 0309 9999 FEW015=
200808192300 TAF LMML 192300Z 200009 29004KT CAVOK
                      PROB30 TEMPO 0309 9999 FEW015=
200808192000 TAF LMML 192000Z 192106 29004KT CAVOK
                      PROB30 TEMPO 0306 9000 FEW015=
200808191700 TAF LMML 191700Z 191803 33005KT CAVOK=
200808191400 TAF LMML 191400Z 191524 22006KT 9999 FEW020=
200808191100 TAF LMML 191100Z 191221 15006KT 9999 FEW025=
200808190800 TAF LMML 190800Z 190918 09006KT CAVOK
                      TEMPO 0915 9999 FEW020=
200808190500 TAF LMML 190500Z 190615 30005KT CAVOK
                      BECMG 0609 9999 FEW020=
200808190200 TAF LMML 190200Z 190312 30004KT CAVOK
                      PROB30 TEMPO 0305 8000 FEW011
                      BECMG 0508 9999 FEW020=
200808182300 TAF LMML 182300Z 190009 30004KT CAVOK
                      PROB30 TEMPO 0005 8000 FEW011
                      BECMG 0508 9999 FEW020=
200808182000 TAF LMML 182000Z 182106 07004KT CAVOK
                      PROB30 TEMPO 0005 9000 FEW011=
200808181700 TAF LMML 181700Z 181803 VRB03KT CAVOK=
200808181400 TAF LMML 181400Z 181524 VRB03KT CAVOK
                      TEMPO 1519 9999 FEW020=
200808181100 TAF LMML 181100Z 181221 12005KT 9999 FEW020
                      PROB30 TEMPO 1221 CAVOK=
200808180800 TAF LMML 180800Z 180918 VRB03KT 9999 FEW018
                      TEMPO 0918 CAVOK=
200808180500 TAF LMML 180500Z 180615 10005KT CAVOK
                      BECMG 0811 9999 FEW018=
200808180200 TAF LMML 180200Z 180312 02004KT CAVOK
                      TEMPO 0305 8000 NSC=
200808172300 TAF LMML 172300Z 180009 03004KT CAVOK
                      TEMPO 0205 8000 NSC=
200808172000 TAF LMML 172000Z 172106 33004KT CAVOK
                      TEMPO 0205 8000=
200808171700 TAF LMML 171700Z 171803 27006KT CAVOK
                      PROB30 TEMPO 0003 9000 FEW011=
200808171400 TAF LMML 171400Z 171524 17007KT 9999 FEW030
                      BECMG 1518 CAVOK=
200808171100 TAF LMML 171100Z 171221 16007KT CAVOK
                      TEMPO 1216 9999 FEW025=
200808170800 TAF LMML 170800Z 170918 33008KT CAVOK
                      TEMPO 0915 9999 FEW020=
200808170600 LMML 170600Z 170615 31008KT CAVOK=
200808170500 LMML NIL=
200808170200 TAF LMML 170200Z 170312 31008KT CAVOK=
200808162300 TAF LMML 162300Z 170009 31008KT CAVOK=
200808162000 TAF LMML 162000Z 162106 31012KT CAVOK=
200808161700 TAF LMML 161700Z 161803 31014KT CAVOK=
200808161400 TAF LMML 161400Z 161524 31016KT CAVOK=
200808161100 TAF LMML 161100Z 161221 31017KT CAVOK=
200808160800 TAF LMML 160800Z 160918 31018KT CAVOK=
200808160500 TAF LMML 160500Z 160615 32018KT 9999 FEW020=
200808160200 TAF LMML 160200Z 160312 31018KT 9999 FEW015=
200808152300 TAF LMML 152300Z 160009 30015KT 9999 FEW014
                      PROB40 TEMPO 0006 9000 32015G25KT=
200808152000 TAF LMML 152000Z 152106 29015KT 9999 FEW010
                      PROB30 TEMPO 1803 8000 BKN008
                      BECMG 2124 31015G25KT=
200808151700 TAF LMML 151700Z 151803 30015KT 9999 FEW015
                      PROB30 TEMPO 1803 BKN008
                      BECMG 2124 31017G27KT=
200808151400 TAF LMML 151400Z 151524 24012KT 9999 FEW015 BECMG1518 31015KT
                      BECMG 2124 31015G25KT
                      PROB30 TEMPO 1824 8000 BKN008=
200808151100 TAF LMML 151100Z 151221 27012KT 9999 FEW015 BRCMG 1518 31015G25KT=
200808150800 TAF LMML 150800Z 150918 24010KT CAVOK
                      TEMPO 0918 FEW015
                      BECMG 1518 31015KT=
200808150500 TAF LMML 150500Z 150615 28007KT CAVOK
                      TEMPO 0615 FEW015=
200808150200 TAF LMML 150200Z 150312 28007KT 9999 FEW015
                      TEMPO 0006 CAVOK=
200808142300 TAF LMML 142300Z 150009 27005KT CAVOK
                      TEMPO 0009 8000 FEW010=
200808142100 TAF LMML 142100Z 142106 27005KT CAVOK
                      PROB30 TEMPO 2106 8000 FEW010=
200808142000 LMML 142000Z 152106 27005KT CAVOK
                      PROB30 TEMPO 2106 8000 FEW010=
200808141700 TAF LMML 141700Z 141803 25005KT 9999 FEW011
                      BECMG 1922 CAVOK
                      PROB30 TEMPO 2103 8000 FEW006=
200808141400 TAF LMML 141400Z 141524 06007KT 9999 FEW025
                      BECMG 1821 CAVOK=
200808141100 TAF LMML 141100Z 141221 12007KT 9999 FEW020
                      BECMG 1821 CAVOK=
200808140800 TAF LMML 140800Z 140918 30006KT 9999 FEW020=
200808140500 TAF LMML 140500Z 140615 30005KT 9999 FEW012
                      BECMG 0810 CAVOK=
200808140200 TAF LMML 140200Z 140312 28005KT CAVOK
                      TEMPO 0306 8000 FEW008=
200808132300 TAF LMML 132300Z 140009 24004KT CAVOK
                      PROB30 TEMPO 0206 8000 FEW008=
200808132000 TAF LMML 132000Z 132106 25004KT CAVOK
                      PROB30 TEMPO 0206 8000 FEW015=
200808131700 TAF LMML 131700Z 131803 25005KT 9999 FEW015
                      TEMPO 2003 CAVOK
                      PROB30 TEMPO 0103 8000=
200808131400 TAF LMML 131400Z 131524 18005KT 9999 FEW022=
200808131100 TAF LMML 131100Z 131221 18005KT 9999 FEW025=
200808130800 TAF LMML 130800Z 130918 18005KT 9999 FEW020=
200808130500 TAF LMML 130500Z 130615 18005KT 9999 FEW025=
200808130200 TAF LMML 130200Z 130312 16005KT CAVOK
                      PROB30 TEMPO 0306 8000=
200808122300 TAF LMML 122300Z 130009 16005KT 9999 FEW018
                      PROB30 TEMPO 0306 8000=
200808122000 TAF LMML 122000Z 122106 VRB03KT 9999 SCT018
                      PROB30 TEMPO 0306 8000=
200808121700 TAF LMML 121700Z 121803 18005KT 9999 SCT012=
200808121400 TAF LMML 121400Z 121524 17005KT 9999 SCT020=
200808121100 TAF LMML 121100Z 121221 16008KT 9999 SCT024
                      BECMG 1719 CAVOK=
200808120800 TAF LMML 120800Z 120918 16008KT 9999 FEW025=
200808120500 TAF LMML 120500Z 120615 20005KT 9999 FEW025=
200808120200 TAF LMML 120200Z 120312 18005KT 9999 SCT018
                      PROB30 TEMPO 0306 8000 BKN010=
200808112300 TAF LMML 112300Z 120009 19004KT 9999 FEW015
                      PROB30 TEMPO 0206 8000 BKN010=
200808112000 TAF LMML 112000Z 112106 19004KT 9999 FEW020
                      PROB30 TEMPO 0006 8000 BKN010=
200808111700 TAF LMML 111700Z 111803 23004KT 9999 FEW012=
200808111400 TAF LMML 111400Z 111524 22006KT 9999 FEW015=
200808111100 TAF LMML 111100Z 111221 22008KT 9999 FEW015=
200808110800 TAF LMML 110800Z 110918 VRB03KT 9999 FEW018=
200808110500 TAF LMML 110500Z 110615 VRB03KT 9999 FEW015=
200808110200 TAF LMML 110200Z 110312 VRB03KT 9999 FEW015
                      PROB30 TEMPO 0306 BKN015=
200808102300 TAF LMML 102300Z 110009 VRB03KT CAVOK
                      TEMPO 0009 FEW015
                      PROB30 TEMPO 0206 BKN012=
200808102000 TAF LMML 102000Z 102106 30005KT 9999 FEW015
                      PROB30 TEMPO 0006 BKN012=
200808101700 TAF LMML 101700Z 101803 30010KT 9999 FEW015
                      PROB30 TEMPO 0003 8000 BKN008=
200808101400 TAF LMML 101400Z 101524 31010KT 9999 FEW020=
200808101100 TAF LMML 101100Z 101221 32012KT 9999 FEW030=
200808100800 TAF LMML 100800Z 100918 30015KT 9999 FEW020=
200808100500 TAF LMML 100500Z 100615 30015KT 9999 FEW020
                      BECMG 0609 CAVOK=
200808100200 TAF LMML 100200Z 100312 32012KT CAVOK
                      PROB30 TEMPO 0306 FEW010=
200808092300 TAF LMML 092300Z 100009 31015KT CAVOK
                      TEMPO 0004 31015G25KT
                      PROB30 TEMPO 0306 FEW010=
200808092000 TAF LMML 092000Z 092106 31012KT CAVOK
                      PROB30 TEMPO 9999 FEW010=
200808091700 TAF LMML 091700Z 091803 30015G25KT 9999 FEW015
                      TEMPO 1800 CAVOK
                      BECMG 0003 30015KT=
200808091400 TAF LMML 091400Z 091524 30015G25KT 9999 FEW015=
200808091100 TAF LMML 091100Z 091221 30016G26KT 9999 FEW012=
200808090800 TAF LMML 090800Z 090918 30013G23KT 9999 FEW012
                      PROB30 TEMPO 0911 9000=
200808090500 TAF LMML 090500Z 090615 30016KT CAVOK
                      TEMPO 0612 8000 FEW012 SCT100
                      PROB40 TEMPO 0608 FEW008=
200808090200 TAF LMML 090200Z 090312 31015KT CAVOK
                      PROB40 TEMPO 0312 9000 FEW012
                      PROB30 TEMPO 0306 5000 FEW006=
200808082300 TAF LMML 082300Z 090009 29006KT CAVOK
                      PROB40 TEMPO 0009 5000 BR SCT003
                      BECMG 0609 32016KT=
200808082000 TAF LMML 082000Z 082106 27008KT CAVOK
                      PROB40 TEMPO 0006 5000 BR SCT003=
200808081700 TAF LMML 081700Z 081803 23005KT CAVOK
                      BECMG 2124 30012KT 9999 FEW004=
200808081400 TAF LMML 081400Z 081524 27008KT CAVOK=
200808081100 TAF LMML 081100Z 081221 06005KT CAVOK
                      BECMG 1518 27010KT=
200808080800 TAF LMML 080800Z 080918 24008KT CAVOK=
200808080500 TAF LMML 080500Z 080615 28006KT CAVOK
                      PROB30 TEMPO 0609 FEW015=
200808080200 TAF LMML 080200Z 080312 20006KT CAVOK
                      PROB30 TEMPO 0306 8000 FEW008=
200808072302 LMML 072302Z 080009 VRB03KT
                      PROB40 TEMPO 0006 8000 FEW008
                      PROB30 TEMPO 0205 6000 BKN006=
200808072300 LMML 072300Z 090009 VRB03KT CAVOK
                      PROB40 TEMPO 0009 8000 FEW008
                      PROB30 TEMPO 0006 6000 BKN003=
200808072000 TAF LMML 072000Z 072106 27004KT CAVOK
                      PROB30 TEMPO 2206 7000 FEW008=
200808071700 TAF LMML 071700Z 071803 VRB03KT CAVOK
                      PROB30 TEMPO 1803 8000 FEW008=
200808071400 TAF LMML 071400Z 071524 25005KT CAVOK
                      PROB30 TEMPO 1524 9999 FEW018=
200808071100 TAF LMML 071100Z 071221 25005KT CAVOK
                      TEMPO 1221 9999 FEW020=
200808070800 TAF LMML 070800Z 070918 25005KT CAVOK
                      PROB30 TEMPO 0912 9999 FEW015=
200808070500 TAF LMML 070500Z 070615 24005KT CAVOK=
200808070200 TAF LMML 070200Z 070312 26005KT CAVOK
                      PROB30 TEMPO 0205 8000 FEW003=
200808062300 TAF LMML 062300Z 070009 VRB03KT CAVOK
                      PROB30 TEMPO 0205 8000 NSC=
200808062000 TAF LMML 062000Z 062106 28004KT CAVOK
                      PROB30 TEMPO 0205 8000=
200808061700 TAF LMML 061700Z 061803 33004KT CAVOK=
200808061400 TAF LMML 061400Z 061524 12006KT CAVOK=
200808060500 TAF LMML 060500Z 060615 30008KT CAVOK=
200808060200 TAF LMML 060200Z 060312 25006KT CAVOK
                      PROB30 TEMPO 0305 8000 FEW010=
200808052300 TAF LMML 052300Z 060009 24005KT CAVOK
                      TEMPO 0006 8000 FEW011=
200808052000 TAF LMML 052000Z 052106 28005KT CAVOK
                      TEMPO 2106 8000 FEW011=
200808051700 TAF LMML 051700Z 051803 30004KT CAVOK
                      BECMG 0003 7000 FEW003=
200808051400 TAF LMML 051400Z 051524 30006KT 9999 FEW012
                      PROB30 TEMPO 1924 8000=
200808051100 TAF LMML 051100Z 051221 30005KT CAVOK=
200808050800 TAF LMML 050800Z 050918 30005KT CAVOK=
200808050500 TAF LMML 050500Z 050615 30008KT CAVOK=
200808050200 TAF LMML 050200Z 050312 28004KT CAVOK
                      PROB30 TEMPO 0306 9999 FEW012=
200808042300 TAF LMML 042300Z 050009 31007KT CAVOK
                      PROB40 TEMPO 0307 5000 BR SCT008=
200808042000 TAF LMML 042000Z 042106 VRB03KT CAVOK
                      PROB40 TEMPO 0206 5000 BR SCT008=
200808041700 TAF LMML 041700Z 041803 28006KT CAVOK
                      TEMPO 1803 8000 FEW011
                      PROB30 TEMPO 0003 5000 BR SCT008=
200808041400 TAF LMML 041400Z 041524 20005KT 9000 FEW015
                      PROB30 TEMPO 2124 5000 BR=
200808041100 TAF LMML 041100Z 041221 10006KT CAVOK
                      TEMPO 1216 9999 FEW035
                      PROB30 TEMPO 1821 9000 FEW009=
200808040800 TAF LMML 040800Z 040918 32006KT CAVOK
                      PROB30 TEMPO 1216 9999 FEW035=
200808040500 TAF LMML 040500Z 040615 31007KT 9999 FEW013
                      BECMG 0609 CAVOK=
200808040200 TAF LMML 040200Z 040312 31005KT CAVOK
                      PROB30 TEMPO 0305 9000=
200808032300 LMML NIL=
200808032000 TAF LMML 032000Z 032106 30004KT CAVOK
                      PROB30 TEMPO 0006 9000 FEW010=
200808031700 TAF LMML 031700Z 031803 VRB03KT CAVOK
                      PROB30 TEMPO 2103 9999 FEW012=
200808031400 TAF LMML 031400Z 031524 32005KT CAVOK
                      PROB30 TEMPO 1524 9999 FEW012=
200808031100 TAF LMML 031100Z 031221 04010KT CAVOK=
200808030800 TAF LMML 030800Z 030918 03005KT CAVOK
                      TEMPO 0912 9999 FEW010=
200808030500 TAF LMML 030500Z 030615 30005KT CAVOK
                      TEMPO 1015 9999 FEW035=
200808030200 TAF LMML 030200Z 030312 30004KT CAVOK
                      PROB30 TEMPO 0305 9000 NSC
                      TEMPO 0912 9999 FEW035=
200808022300 TAF LMML 022300Z 030009 25004KT CAVOK
                      PROB30 TEMPO 0005 9000 NSC=
200808022000 TAF LMML 022000Z 022106 28004KT CAVOK
                      PROB30 TEMPO 0005 8000 NSC=
200808021700 TAF LMML 021700Z 021803 30005KT CAVOK
                      PROB30 TEMPO 2203 8000 FEW010=
200808021400 TAF LMML 021400Z 021524 31005KT CAVOK
                      PROB30 TEMPO 2224 8000 FEW010=
200808021100 TAF LMML 021100Z 021221 VRB03KT CAVOK=
200808020800 TAF LMML 020800Z 020918 31007KT CAVOK=
200808020500 TAF LMML 020500Z 020615 30008KT CAVOK
                      BECMG 0911 FEW030=
200808020200 TAF LMML 020200Z 020312 30005KT 8000 NSC
                      BECMG 0508 9999 FEW025=
200808012300 TAF LMML 012300Z 020009 32004KT CAVOK
                      TEMPO 0005 7000 FEW004
                      PROB 30
                      TEMPO 0205 5000 BR=
200808012000 TAF LMML 012000Z 012106 30004KT CAVOK
                      PROB30 TEMPO 0005 7000 FEW004=
200808011700 TAF LMML 011700Z 011803 30006KT CAVOK
                      PROB30 TEMPO 0003 8000 NSC=
200808011400 TAF LMML 011400Z 011524 35006KT 9999 FEW035
                      BECMG 1619 CAVOK=
200808011100 TAF LMML 011100Z 011221 35007KT CAVOK
                      TEMPO 1216 9999 FEW035=
200808010800 TAF LMML 010800Z 010918 33006KT CAVOK
                      TEMPO 0916 9999 FEW030=
200808010500 TAF LMML 010500Z 010615 31006KT CAVOK
                      PROB30 TEMPO 0615 9999 FEW040=
200808010200 TAF LMML 010200Z 010312 30005KT CAVOK
                      PROB30 TEMOP 0306 8000 FEW006
                      PROB30 TEMPO 0912 9999 FEW035=

###################################
#  large TAF from LMML
###################################
200808312300 TAF LMML 312300Z 010606 27005KT CAVOK
                      PROB30 TEMPO 0306 FEW008=
200808311700 TAF LMML 311700Z 010024 24006KT CAVOK
                      BECMG 0609 9999 FEW025=
200808311100 TAF LMML 311100Z 311818 26005KT 9999 FEW020=
200808310500 TAF LMML 310500Z 311212 28007KT 9999 FEW025
                      BECMG 1821 CAVOK
                      PROB30 TEMPO 2106 9999 FEW011
                      BECMG 0609 9999 FEW020=
200808302300 TAF LMML 302300Z 310606 28006KT CAVOK
                      BECMG 0609 9999 SCT020
                      BECMG 1821 CAVOK
                      TEMPO 2106 9999 FEW012
                      PROB30 TEMPO 0206 9000 SCT010=
200808301700 TAF LMML 301700Z 310024 27005KT 9999 FEW025=
200808301100 TAF LMML 301100Z 301818 VRB03KT 9999 FEW020=
200808300500 TAF LMML 300500Z 301212 02005KT 9999 FEW025=
200808292300 TAF LMML 292300Z 300606 30005KT 9999 FEW025=
200808291700 TAF LMML 291700Z 300024 35005KT CAVOK
                      PROB30 TEMPO 0006 9999 FEW020
                      BECMG 0609 9999 FEW025
                      BECMG 2124 CAVOK=
200808291100 TAF LMML 291100Z 291818 29010KT 9999 FEW020
                      BECMG 2124 35005KT CAVOK
                      PROB30 TEMPO 0006 9000 SCT012
                      BECMG 0609 9999 FEW025=
200808290500 TAF LMML 290500Z 291212 31010KT 9999 FEW020
                      BECMG 2124 04010KT
                      PROB30 TEMPO 0006 8000 BKN010=
200808282300 TAF LMML 282300Z 290606 31008KT 9999 FEW025
                      PROB30 TEMPO 0006 8000 BKN010=
200808281700 TAF LMML 281700Z 290024 31008KT 9999 FEW020
                      PROB30 TEMPO 0306 8000=
200808281100 TAF LMML 281100Z 281818 30008KT 9999 FEW020
                      PROB30 TEMPO 0406 9000=
200808280500 TAF LMML 280500Z 281212 30006KT 9999 FEW030=
200808272300 TAF LMML 272300Z 280606 VRB03KT 9999 FEW030=
200808271700 TAF LMML 271700Z 280024 VRB03KT 9999 SCT018
                      PROB30 TEMPO 0306 BKN010=
200808271100 TAF LMML 271100Z 271818 27006KT CAVOK
                      PROB30 TEMPO 0005 9999 FEW011
                      BECMG 0507 9999 FEW025=
200808270500 TAF LMML 270500Z 271212 03007KT 9999 FEW025
                      BECMG 1821 CAVOK
                      PROB30 TEMPO 0006 9999 FEW011
                      BECMG 0609 9999 FEW020=
200808262300 TAF LMML 262300Z 270606 03005KT 9999 SCT015
                      BECMG 1518 CAVOK
                      TEMPO 0006 9999 FEW013=
200808261700 TAF LMML 261700Z 270024 VRB03KT 9999 FEW018
                      PROB30 TEMPO 0306 8000 BKN010=
200808261100 TAF LMML 261100Z 261818 VRB03KT 9999 SCT012
                      PROB30 TEMPO 0306 8000 BKN008=
200808260500 TAF LMML 260500Z 261212 03005KT 9999 SCT015
                      PROB30 TEMPO 0006 8000 BKN015=
200808252300 TAF LMML 252300Z 260606 30005KT 9999 FEW012 SCT120
                      PROB30 TEMPO 1806 BKN012=
200808251700 TAF LMML 251700Z 260024 30005KT CAVOK
                      PROB30 TEMPO 0006 8000 FEW011
                      BECMG 0609 9999 FEW020=
200808251100 TAF LMML 251100Z 251818 35006KT 9999 FEW015
                      PROB30 TEMPO 0004 9000=
200808250500 TAF LMML 250500Z 251212 06006KT 9999 FEW020
                      PROB30 TEMPO 0306 BKN012=
200808242300 TAF LMML 242300Z 250606 32010KT 9999 FEW020=
200808241700 TAF LMML 241700Z 250024 30006KT CAVOK
                      PROB30 TEMPO 0306 9000 TSRA BKN090CB
                      BECMG 0912 9999 FEW020=
200808241100 TAF LMML 241100Z 241818 30007KT CAVOK
                      TEMPO 0915 9999 FEW030=
200808240500 TAF LMML 240500Z 241212 29010KT CAVOK
                      TEMPO 1212 FEW015=
200808232300 TAF LMML 232300Z 240606 29010KT CAVOK
                      TEMPO 0606 9999 FEW015
                      PROB30 TEMPO 0206 9000 BKN008=
200808231700 LMML 231700Z 231813 28008KT CAVOK=
200808231100 TAF LMML 231100Z 231818 27010KT CAVOK
                      PROB30 TEMPO 0206 9000 FEW011
                      BECMG 0609 9999 FEW017=
200808230500 TAF LMML 230500Z 231212 28009KT 9999 FEW020
                      BECMG 1517 CAVOK
                      PROB30 TEMPO 0206 9000 FEW011
                      BECMG 0608 9999 FEW015=
200808222300 TAF LMML 222300Z 230606 30008KT 9999 FEW015
                      BECMG 1214 CAVOK
                      PROB30 TEMPO 0206 9000 FEW011=
200808221700 TAF LMML 221700Z 230024 29010KT CAVOK
                      PROB30 TEMPO 0307 9000 FEW015=
200808221100 TAF LMML 221100Z 221818 30006KT CAVOK=
200808220500 TAF LMML 220500Z 221212 27005KT CAVOK
                      PROB30 TEMPO 0105 8000 NSC=
200808212300 TAF LMML 212300Z 220606 27006KT CAVOK
                      BECMG 1821 9999 FEW010=
200808211700 TAF LMML 211700Z 220024 30005KT CAVOK
                      PROB30 TEMPO 0004 9000 FEW012
                      TEMPO 0915 9999 FEW025=
200808211100 TAF LMML 211100Z 211818 VRB03KT CAVOK
                      TEMPO 0205 9000 NSC=
200808210500 TAF LMML 210500Z 211212 34008KT CAVOK
                      PROB30 TEMPO 0306 8000 FEW012=
200808202300 TAF LMML 202300Z 210606 32008KT CAVOK=
200808201700 TAF LMML 201700Z 210024 30007KT CAVOK
                      TEMPO 0006 9999 FEW010=
200808201100 TAF LMML 201100Z 201818 30008KT CAVOK=
200808200500 TAF LMML 200500Z 201212 30008KT CAVOK=
200808192300 TAF LMML 192300Z 200606 30007KT CAVOK
                      PROB30 TEMPO 0609 9999 FEW015
                      PROB30 TEMPO 1506 9999 FEW010=
200808191700 TAF LMML 191700Z 200024 33005KT CAVOK
                      PROB30 TEMPO 0305 8000 FEW008=
200808191100 TAF LMML 191100Z 191818 VRB03KT CAVOK
                      PROB30 TEMPO 0005 8000 FEW008=
200808190500 TAF LMML 190500Z 191212 31007KT 9999 FEW025
                      BECMG 1821 CAVOK
                      PROB30 TEMPO 0005 9000 FEW011=
200808182300 TAF LMML 182300Z 190606 30006KT CAVOK
                      BECMG 0608 9999 FEW020
                      BECMG 1821 CAVOK
                      PROB30 TEMPO 0006 9000 FEW011=
200808181700 TAF LMML 181700Z 190024 VRB03KT 9999 FEW020
                      TEMPO 0004 CAVOK
                      TEMPO 1524 CAVOK=
200808181100 TAF LMML 181100Z 181818 VRB03KT CAVOK
                      PROB30 TEMPO 1821 9999 FEW012
                      TEMPO 0418 9999 FEW020=
200808180500 TAF LMML 180500Z 181212 10005KT 9999 FEW018
                      TEMPO 0205 8000=
200808172300 TAF LMML 172300Z 180606 10005KT CAVOK
                      TEMPO 0915 9999 FEW020
                      TEMPO 0205 8000 NSC=
200808171700 TAF LMML 171700Z 180024 33005KT CAVOK
                      PROB30 TEMPO 0005 9000 FEW011
                      BECMG 0609 9999 FEW025
                      BECMG 1821 CAVOK=
200808171100 TAF LMML 171100Z 171818 31006KT CAVOK
                      PROB30 TEMPO 2105 9000 FEW011
                      BECMG 0811 9999 FEW020=
200808170648 LMML 170648Z 171212 35008KT CAVOK
                      PROB30 TEMPO 0306 8000 NSC=
200808170600 LMML 170600Z 171212 35008KT CAVOK
                      PROB30 TEMPO 0306 8000 NSC=
200808170500 LMML 170500Z 171615 31008KT CAVOK=
200808162300 LMML 162300Z 171616 32010KT CAVOK
                      BECMG 0306 24010KT=
200808161700 TAF LMML 161700Z 170024 31008KT CAVOK=
200808161100 TAF LMML 161100Z 161818 30013KT CAVOK=
200808160500 TAF LMML 160500Z 161212 32016KT CAVOK
                      PROB30 TEMPO 1212 9999 FEW020
                      BECMG 0003 32006KT=
200808152300 TAF LMML 152300Z 160606 32018KT 9999 FEW020
                      BECMG 1821 31006KT=
200808151700 TAF LMML 151700Z 160024 31017G27KT 9999 FEW012
                      PROB30 TEMPO 0006 BKN008
                      BECMG 0306 31020KT=
200808151100 TAF LMML 151100Z 151818 31015G25KT 9999 FEW012
                      BECMG 0306 31020KT CAVOK=
200808150500 TAF LMML 150500Z 151212 28007KT CAVOK
                      TEMPO 1218 FEW015
                      BECMG 1720 30017G27KT FEW012
                      PROB30 TEMPO 1501 BKN007=
200808142300 TAF LMML 142300Z 150606 27005KT 9999 FEW015
                      BECMG 1720 30015G25KT
                      PROB30 TEMPO 1806 BKN007=
200808141700 TAF LMML 141700Z 150024 25005KT CAVOK
                      PROB30 TEMPO 0006 8000 FEW006
                      BECMG 0609 9999 FEW015
                      BECMG 1619 31013KT=
200808141100 TAF LMML 141100Z 141818 25005KT CAVOK
                      PROB40 TEMPO 0006 8000 FEW006
                      BECMG 0609 9999 FEW015
                      BECMG 1518 31011KT=
200808140500 TAF LMML 140500Z 141212 26008KT CAVOK
                      PROB30 TEMPO 0206 7000 FEW004=
200808132300 TAF LMML 132300Z 140606 26005KT 9000 SCT010
                      BECMG 0609 CAVOK
                      TEMPO 0206 7000 FEW003=
200808131700 TAF LMML 131700Z 140024 27007KT CAVOK
                      TEMPO 0010 FEW020
                      PROB30 TEMPO 0106 8000=
200808131100 TAF LMML 131100Z 131818 27005KT 9999 FEW020
                      PROB30 TEMPO 0106 8000=
200808130500 TAF LMML 130500Z 131212 20006KT 9999 FEW020
                      PROB30 TEMPO 0306 8000=
200808122300 TAF LMML 122300Z 130606 18008KT 9999 FEW025
                      PROB30 TEMPO 0306 8000=
200808121700 TAF LMML 121700Z 130024 18004KT 9999 SCT011
                      TEMPO 0205 8000=
200808121100 TAF LMML 121100Z 121818 16008KT CAVOK
                      PROB30 TEMPO 0006 SCT010
                      BECMG 0608 9999 SCT020=
200808120500 TAF LMML 120500Z 121212 18005KT 9999 FEW030
                      PROB30 TEMPO 0306 8000 BKN010=
200808112300 TAF LMML 112300Z 120606 18005KT 9999 FEW025
                      PROB30 TEMPO 0206 8000 BKN010=
200808111700 TAF LMML 111700Z 120024 VRB03KT 9999 FEW015
                      PROB30 TEMPO 0306 8000 SCT008=
200808111100 TAF LMML 111100Z 111818 VRB03KT 9999 FEW012=
200808110500 TAF LMML 110500Z 111212 18005KT 9999 FEW015=
200808102300 LMML 102300Z 111212 VRB03KT 9999 FEW015=
200808101700 TAF LMML 101700Z 110024 27005KT 9999 FEW015
                      PROB30 TEMPO 0005 8000 BKN008=
200808101100 TAF LMML 101100Z 101818 28010KT 9999 FEW015
                      BECMG 0811 24010KT=
200808100500 TAF LMML 100500Z 101212 30010KT CAVOK
                      BECMG 2022 9999 FEW020
                      BECMG 0609 24008KT=
200808092300 TAF LMML 092300Z 100606 30010KT 9999 FEW010
                      BECMG 0709 CAVOK
                      PROB30 TEMPO 0006 FEW010=
200808091700 TAF LMML 091700Z 100024 30015KT 9999 FEW020
                      BECMG 1821 25005KT=
200808091100 TAF LMML 091100Z 091818 30016G26KT 9999 FEW012
                      BECMG 0003 30015KT=
200808090500 TAF LMML 090500Z 091212 32018KT CAVOK
                      PROB30 TEMPO 0006 8000 FEW012=
200808082300 TAF LMML 082300Z 090606 32016KT CAVOK
                      PROB40 TEMPO 0614 9000 FEW012
                      PROB30 TEMPO 2306 6000 SCT006=
200808081700 TAF LMML 081700Z 090024 30010KT CAVOK
                      PROB30 TEMPO 0006 9999 FEW007
                      TEMPO 1218 30015G25KT=
200808081100 TAF LMML 081100Z 081818 30015KT CAVOK
                      PROB30 TEMPO 0309 9999 FEW010=
200808080500 TAF LMML 080500Z 081212 30006KT CAVOK
                      BECMG 0003 30015G25KT FEW015
                      PROB30 TEMPO 2007 7000 BKN006=
200808072300 TAF LMML 072300Z 080606 27006KT CAVOK
                      PROB40 TEMPO 0609 FEW012
                      BECMG 2201 30015G25KT 9999 FEW008
                      PROB30 TEMPO 0006 7000 BKN007=
200808071700 TAF LMML 071700Z 080024 24008KT CAVOK
                      PROB30 TEMPO 0006 8000 FEW003=
200808071100 TAF LMML 071100Z 071818 27004KT CAVOK
                      PROB30 TEMPO 0005 8000 FEW003=
200808070500 TAF LMML 070500Z 071212 27005KT CAVOK
                      PROB30 TEMPO 0105 7000 FEW003=
200808062300 TAF LMML 062300Z 070606 26005KT CAVOK
                      PROB30 TEMPO 0205 7000 FEW003=
200808061700 TAF LMML 061700Z 070024 33005KT CAVOK
                      PROB30 TEMPO 0305 8000 FEW010=
200808060500 TAF LMML 060500Z 061212 34008KT CAVOK
                      PROB30 TEMPO 0005 8000 FEW010=
200808052300 TAF LMML 052300Z 060606 30008KT 9000 FEW015
                      BECMG 0608 CAVOK
                      PROB30 TEMPO 0005 8000 FEW010=
200808051700 TAF LMML 051700Z 060024 30004KT 8000 FEW004
                      PROB30 TEMPO 0305 5000 BR
                      BECMG 0609 CAVOK=
200808051100 TAF LMML 051100Z 051818 28004KT CAVOK
                      BECMG 1821 9999 FEW004
                      PROB30 TEMPO 0005 6000=
200808050500 TAF LMML 050500Z 051212 30008KT CAVOK
                      PROB30 TEMPO 0306 9999 FEW008=
200808042300 TAF LMML 042300Z 050606 31010KT CAVOK
                      TEMPO 0618 9999 FEW025
                      PROB30 TEMPO 2306 8000 FEW010
                      BECMG 0306 01003KT=
200808041700 TAF LMML 041700Z 050024 28005KT CAVOK
                      TEMPO 0006 8000 FEW011
                      PROB30 TEMPO 0005 5000 BR SCT008
                      BECMG 0912 9999 FEW015
                      BECMG 2124 CAVOK=
200808041100 TAF LMML 041100Z 041818 28005KT CAVOK
                      PROB30 TEMPO 1805 8000 SCT008
                      BECMG 0912 9999 FEW020
                      BECMG 1518 CAVOK=
200808040500 TAF LMML 040500Z 041212 30007KT CAVOK
                      PROB40 TEMPO 0305 9000 FEW010=
200808031700 TAF LMML 031700Z 040024 VRB03KT CAVOK
                      PROB30 TEMPO 0006 9000 SCT008=
200808031100 TAF LMML 031100Z 031818 32007KT CAVOK
                      PROB30 TEMPO 2309 8000 FEW008=
200808030500 TAF LMML 030500Z 031212 32007KT CAVOK
                      TEMPO 1215 9999 FEW035
                      PROB30 TEMPO 0005 8000 NSC=
200808022300 TAF LMML 022300Z 030606 30005KT CAVOK
                      TEMPO 1015 9999 FEW035
                      PROB30 TEMPO 0005 8000 NSC=
200808021700 TAF LMML 021700Z 030024 30005KT CAVOK
                      PROB30 TEMPO 0004 8000 FEW010=
200808021100 TAF LMML 021100Z 021818 VRB03KT CAVOK
                      PROB30 TEMPO 2204 8000 FEW010=
200808020500 TAF LMML 020500Z 021212 30008KT 9999 FEW030
                      BECMG 1416 CAVOK
                      PROB30 TEMPO 0205 7000 FEW004=
200808012300 TAF LMML 012300Z 020606 31005KT CAVOK
                      BECMG 0811 9999 FEW025
                      BECMG 1316 CAVOK
                      PROB30 TEMPO 0006 7000 FEW004=
200808011700 TAF LMML 011700Z 020024 31005KT CAVOK
                      PROB30 TEMPO 0005 8000 NSC
                      BECMG 0710 9999 FEW035
                      BECMG 1417 CAVOK=
200808011100 TAF LMML 011100Z 011818 29005KT CAVOK
                      PROB30 TEMPO 0005 8000 NSC
                      BECMG 0710 9999 FEW030=
200808010500 TAF LMML 010500Z 011212 31008KT CAVOK
                      PROB30 TEMPO 0306 8000 NSC=
