##########################################################
# Query made at 01/18/2013 15:43:49 UTC
# Time interval: from 12/01/2011 00:00  to 12/31/2011 23:59  UTC
##########################################################

##########################################################
# LMML, Luqa (Malta)
# WMO index: 16597
# Latitude 35-51N. Longitude 014-29E. Altitude 91 m.
##########################################################

###################################
#  METAR/SPECI from LMML
###################################
201112312345 METAR LMML 312345Z 30004KT 9999 FEW038 09/05 Q1021 NOSIG=
201112312330 METAR LMML NIL=
201112312315 METAR LMML 312315Z 30006KT 9999 FEW038 09/05 Q1021 NOSIG=
201112312300 METAR LMML NIL=
201112312245 METAR LMML 312245Z 26003KT 9999 FEW038 09/05 Q1021 NOSIG=
201112312230 METAR LMML NIL=
201112312215 METAR LMML 312215Z 30006KT 9999 FEW038 09/05 Q1021 NOSIG=
201112312200 METAR LMML NIL=
201112312145 METAR LMML 312145Z 25003KT 9999 FEW039 10/04 Q1021 NOSIG=
201112312130 METAR LMML NIL=
201112312115 METAR LMML 312115Z 33009KT 9999 FEW039 10/05 Q1020 NOSIG=
201112312100 METAR LMML NIL=
201112312045 METAR LMML 312045Z 32008KT 9999 FEW043 10/04 Q1020 NOSIG=
201112312030 METAR LMML NIL=
201112312015 METAR LMML 312015Z VRB01KT 9999 FEW045 10/04 Q1020 NOSIG=
201112312000 METAR LMML NIL=
201112311945 METAR LMML 311945Z 29008KT 270V330 9999 FEW045 11/03 Q1019
                        NOSIG=
201112311930 METAR LMML NIL=
201112311915 METAR LMML 311915Z 29009KT 9999 FEW040 11/03 Q1020 NOSIG=
201112311900 METAR LMML NIL=
201112311845 METAR LMML 311845Z 29005KT 260V340 9999 FEW030 11/03 Q1019
                        NOSIG=
201112311830 METAR LMML NIL=
201112311815 METAR LMML 311815Z 31005KT 280V340 9999 FEW040 10/03 Q1019
                        NOSIG=
201112311800 METAR LMML NIL=
201112311745 METAR LMML 311745Z 30007KT 270V330 9999 FEW040 11/03 Q1019
                        NOSIG=
201112311730 METAR LMML NIL=
201112311715 METAR LMML 311715Z 30009KT 9999 FEW040 11/03 Q1019 NOSIG=
201112311700 METAR LMML NIL=
201112311645 METAR LMML 311645Z 30011KT 9999 FEW040 11/03 Q1018 NOSIG=
201112311615 METAR LMML 311615Z 30010KT 9999 FEW040 11/02 Q1018 NOSIG=
201112311545 METAR LMML 311545Z 31010KT 9999 FEW040 12/02 Q1018 NOSIG=
201112311530 METAR LMML NIL=
201112311515 METAR LMML 311515Z 31010KT 9999 FEW040 12/03 Q1018 NOSIG=
201112311445 METAR LMML 311445Z 31012KT 9999 FEW040 13/03 Q1018 NOSIG=
201112311430 METAR LMML NIL=
201112311415 METAR LMML 311415Z 31014KT 280V340 9999 FEW040 13/03 Q1017
                        NOSIG=
201112311345 METAR LMML 311345Z 31013KT 9999 FEW040 13/03 Q1017 NOSIG=
201112311330 METAR LMML NIL=
201112311315 METAR LMML 311315Z 32021G32KT 9999 FEW040 13/03 Q1017 NOSIG=
201112311300 METAR LMML NIL=
201112311245 METAR LMML 311245Z 33021KT CAVOK 13/03 Q1017 NOSIG=
201112311215 METAR LMML 311215Z 33025G36KT 9999 FEW040 13/02 Q1016 NOSIG=
201112311200 METAR LMML NIL=
201112311145 METAR LMML 311145Z 33026KT 9999 FEW040 13/01 Q1017 NOSIG=
201112311130 METAR LMML NIL=
201112311115 METAR LMML 311115Z 33023G34KT 9999 FEW040 13/02 Q1016 NOSIG=
201112311100 METAR LMML NIL=
201112311045 METAR LMML 311045Z 33025KT 9999 FEW040 13/01 Q1016 NOSIG=
201112311030 METAR LMML NIL=
201112311015 METAR LMML 311015Z 31026G37KT 9999 FEW040 13/01 Q1016 NOSIG=
201112311000 METAR LMML NIL=
201112310945 METAR LMML 310945Z 32024KT 280V350 9999 FEW040 13/01 Q1016
                        NOSIG=
201112310930 METAR LMML NIL=
201112310915 METAR LMML 310915Z 32019G29KT 9999 FEW040 13/01 Q1016 NOSIG=
201112310900 METAR LMML NIL=
201112310845 METAR LMML 310845Z 32018G31KT 9999 FEW040 13/04 Q1016 NOSIG=
201112310830 METAR LMML NIL=
201112310815 METAR LMML 310815Z 33021KT 9999 FEW040 12/02 Q1015 NOSIG=
201112310800 METAR LMML NIL=
201112310745 METAR LMML 310745Z 32022KT 9999 FEW040 12/03 Q1014 NOSIG=
201112310730 METAR LMML NIL=
201112310715 METAR LMML 310715Z 32025G40KT 9999 SCT043 12/02 Q1014 NOSIG=
201112310700 METAR LMML NIL=
201112310645 METAR LMML 310645Z 32023G38KT 290V350 9999 SCT043 12/03 Q1014
                        NOSIG=
201112310630 METAR LMML NIL=
201112310615 METAR LMML 310615Z 32022KT 9999 SCT030 11/04 Q1013 NOSIG=
201112310600 METAR LMML NIL=
201112310545 METAR LMML 310545Z 32019KT 290V350 9999 FEW031 12/05 Q1012
                        NOSIG=
201112310515 METAR LMML 310515Z 31019G30KT 9999 SCT031 12/07 Q1012 NOSIG=
201112310500 METAR LMML NIL=
201112310445 METAR LMML 310445Z 31017KT 9999 -RA SCT035 SCT060 BKN090
                        12/07 Q1011 NOSIG=
201112310415 METAR LMML 310415Z 31014KT 9999 SCT029 SCT050 11/07 Q1010
                        NOSIG=
201112310345 METAR LMML 310345Z 31015KT 9999 FEW029 SCT048 11/08 Q1010
                        NOSIG=
201112310315 METAR LMML 310315Z 31019KT 9999 FEW029 10/07 Q1010 NOSIG=
201112310300 METAR LMML NIL=
201112310245 METAR LMML 310245Z 31014KT 9000 FEW029 SCT090 10/07 Q1010
                        NOSIG=
201112310230 METAR LMML NIL=
201112310215 METAR LMML 310215Z 32013G27KT 280V340 9000 -SHRA SCT029 BKN050
                        10/08 Q1011 NOSIG=
201112310200 METAR LMML NIL=
201112310145 METAR LMML 310145Z 30014KT 9999 SCT033 SCT060 10/07 Q1011
                        NOSIG=
201112310130 METAR LMML NIL=
201112310115 METAR LMML 310115Z 31013G23KT 280V340 9999 SCT024 BKN060
                        10/08 Q1011 RERA NOSIG=
201112310045 METAR LMML 310045Z 31011KT 9999 SCT020 BKN050 10/08 Q1011
                        NOSIG=
201112310015 METAR LMML 310015Z 32010KT 9999 RA SCT032 BKN050 10/08 Q1011
                        NOSIG=
201112302345 METAR LMML 302345Z 31011KT 9999 RA FEW026 BKN060 10/08 Q1011
                        NOSIG=
201112302315 METAR LMML 302315Z 31010KT 270V010 9999 FEW020 BKN040 11/08
                        Q1011 RERA NOSIG=
201112302245 METAR LMML 302245Z 30011KT 9999 FEW038 SCT050 11/07 Q1011
                        RERA NOSIG=
201112302230 METAR LMML NIL=
201112302215 METAR LMML 302215Z 29015G26KT 260V320 9999 RA FEW036 SCT040
                        11/08 Q1012 NOSIG=
201112302145 METAR LMML 302145Z 28017KT 240V310 9999 FEW028 SCT040 11/07
                        Q1012 RERA NOSIG=
201112302115 METAR LMML 302115Z 29015G27KT 260V320 9999 RA SCT032 BKN050
                        12/08 Q1013 NOSIG=
201112302100 METAR LMML NIL=
201112302045 METAR LMML 302045Z 29012KT 250V320 9999 SCT025 BKN060 10/07
                        Q1013 RETSRA NOSIG=
201112302015 METAR LMML 302015Z 29015G28KT 250V320 9999 TSRA SCT020CB
                        BKN050 10/08 Q1013 BECMG SCT025=
201112302000 SPECI LMML 302000Z 28011KT 240V300 9999 TSRA SCT020 BKN046
                        11/08 Q1013 NOSIG=
201112301945 METAR LMML 301945Z 30012KT 9999 SCT040 BKN060 11/07 Q1013
                        NOSIG=
201112301915 METAR LMML 301915Z 31018KT 9999 SCT040 BKN060 11/07 Q1014
                        NOSIG=
201112301900 METAR LMML NIL=
201112301845 METAR LMML 301845Z 29016KT 260V320 9999 SCT040 FEW120 11/07
                        Q1013 RERA NOSIG=
201112301830 METAR LMML NIL=
201112301815 METAR LMML 301815Z 30014KT 280V340 9999 SCT039 SCT120 11/08
                        Q1013 NOSIG=
201112301745 METAR LMML 301745Z 31017KT 9999 -SHRA SCT038 11/08 Q1013
                        NOSIG=
201112301730 METAR LMML NIL=
201112301715 METAR LMML 301715Z 30017KT 270V330 9999 SCT029 SCT060 11/07
                        Q1013 NOSIG=
201112301700 METAR LMML NIL=
201112301645 METAR LMML 301645Z 31016G26KT 9999 SCT027 12/09 Q1013 NOSIG=
201112301630 METAR LMML NIL=
201112301615 METAR LMML 301615Z 31012KT 9999 SCT030 12/08 Q1012 NOSIG=
201112301600 METAR LMML NIL=
201112301545 METAR LMML 301545Z 31011KT 9999 SCT030 12/08 Q1012 NOSIG=
201112301530 METAR LMML NIL=
201112301515 METAR LMML 301515Z 30009KT 9999 SCT029 12/08 Q1012 NOSIG=
201112301500 METAR LMML NIL=
201112301445 METAR LMML 301445Z 30011KT 9999 SCT029 13/08 Q1012 NOSIG=
201112301430 METAR LMML NIL=
201112301415 METAR LMML 301415Z 30014KT 9999 FEW033 SCT060 13/07 Q1012
                        NOSIG=
201112301400 METAR LMML NIL=
201112301345 METAR LMML 301345Z 30014KT 270V330 9999 FEW033 SCT060 13/06
                        Q1012 NOSIG=
201112301330 METAR LMML NIL=
201112301315 METAR LMML 301315Z 30014KT 9999 FEW039 BKN060 13/08 Q1012
                        NOSIG=
201112301300 METAR LMML NIL=
201112301245 METAR LMML 301245Z 30013KT 270V330 9999 FEW023 BKN066 13/08
                        Q1012 NOSIG=
201112301230 METAR LMML NIL=
201112301215 METAR LMML 301215Z 30013KT 9999 FEW024 SCT060 14/09 Q1012
                        NOSIG=
201112301200 METAR LMML NIL=
201112301145 METAR LMML 301145Z 28012KT 250V310 9999 FEW023 BKN060 13/10
                        Q1013 NOSIG=
201112301130 METAR LMML NIL=
201112301115 METAR LMML 301115Z 27013KT 230V300 9999 FEW023 SCT050 BKN090
                        13/09 Q1013 NOSIG=
201112301100 METAR LMML NIL=
201112301045 METAR LMML 301045Z 26013KT 230V300 9999 FEW023 BKN050 12/09
                        Q1014 NOSIG=
201112301030 METAR LMML NIL=
201112301015 METAR LMML 301015Z 27014KT 220V300 9999 FEW023 BKN060 11/09
                        Q1014 NOSIG=
201112301000 METAR LMML NIL=
201112300945 METAR LMML 300945Z 28015KT 9999 FEW030 SCT050 12/08 Q1015
                        NOSIG=
201112300930 METAR LMML NIL=
201112300915 METAR LMML 300915Z 28013KT 240V310 9999 SCT026 13/09 Q1015
                        NOSIG=
201112300900 METAR LMML NIL=
201112300845 METAR LMML 300845Z 28010KT 240V300 9999 SCT034 FEW074 12/08
                        Q1016 NOSIG=
201112300830 METAR LMML NIL=
201112300815 METAR LMML 300815Z 30009KT 9999 SCT030 BKN050 11/09 Q1015
                        TEMPO SHRA BKN015=
201112300800 METAR LMML NIL=
201112300745 METAR LMML 300745Z 28012KT 250V310 9999 SHRA SCT027 BKN045
                        11/08 Q1015 TEMPO BKN015=
201112300730 METAR LMML NIL=
201112300715 METAR LMML 300715Z 30008KT 9999 FEW030 OVC048 11/07 Q1015
                        TEMPO SHRA BKN015=
201112300700 METAR LMML NIL=
201112300645 METAR LMML 300645Z 31014KT 9999 SCT030 BKN060 11/08 Q1015
                        NOSIG=
201112300630 METAR LMML NIL=
201112300615 METAR LMML 300615Z 29013KT 260V320 9999 SCT027TCU SCT060
                        11/08 Q1015 NOSIG=
201112300600 METAR LMML NIL=
201112300545 METAR LMML 300545Z 29012KT 260V320 9999 SCT021 SCT040 BKN100
                        11/08 Q1015 NOSIG=
201112300530 METAR LMML NIL=
201112300515 METAR LMML 300515Z 29011KT 9999 FEW027 SCT050 11/08 Q1015
                        NOSIG=
201112300500 METAR LMML NIL=
201112300445 METAR LMML 300445Z 27006KT 220V290 9999 FEW030 SCT050 10/08
                        Q1015 NOSIG=
201112300430 METAR LMML NIL=
201112300415 METAR LMML 300415Z 29009KT 260V320 9999 SCT021 BKN040 11/08
                        Q1015 NOSIG=
201112300400 METAR LMML NIL=
201112300345 METAR LMML 300345Z 28007KT 250V310 7000 -SHRA BKN022 BKN050
                        11/08 Q1015 BECMG 9999=
201112300330 METAR LMML NIL=
201112300315 METAR LMML 300315Z 27005KT 9999 FEW032 BKN050 BKN080 10/08
                        Q1015 RESHRA NOSIG=
201112300300 METAR LMML NIL=
201112300245 METAR LMML 300245Z VRB02KT 9999 SCT030 BKN050 BKN100 10/07
                        Q1016 RESHRA NOSIG=
201112300230 METAR LMML NIL=
201112300215 METAR LMML 300215Z 29013KT 270V330 7000 SHRA BKN022 BKN060
                        BKN100 10/08 Q1016 NOSIG=
201112300200 METAR LMML NIL=
201112300145 METAR LMML 300145Z 26005KT 9999 FEW025 BKN110 10/08 Q1016
                        NOSIG=
201112300130 METAR LMML NIL=
201112300115 METAR LMML 300115Z 27006KT 9999 FEW025 SCT120 10/08 Q1016
                        NOSIG=
201112300100 METAR LMML NIL=
201112300045 METAR LMML 300045Z 27004KT 9999 FEW025 SCT060 09/07 Q1016
                        NOSIG=
201112300030 METAR LMML NIL=
201112300015 METAR LMML 300015Z 26003KT 9999 FEW025 09/07 Q1016 NOSIG=
201112300000 METAR LMML NIL=
201112292345 METAR LMML 292345Z 27005KT 240V300 9999 -RA FEW025 SCT050
                        10/08 Q1017 NOSIG=
201112292330 METAR LMML NIL=
201112292315 METAR LMML 292315Z 29006KT 9999 FEW024 SCT060 BKN120 11/08
                        Q1017 NOSIG=
201112292300 METAR LMML NIL=
201112292245 METAR LMML 292245Z 28006KT 9999 FEW025 10/07 Q1017 NOSIG=
201112292230 METAR LMML NIL=
201112292215 METAR LMML 292215Z 29005KT 9999 FEW025 10/07 Q1017 NOSIG=
201112292200 METAR LMML NIL=
201112292145 METAR LMML 292145Z 29006KT 9999 FEW024 11/07 Q1017 NOSIG=
201112292130 METAR LMML NIL=
201112292115 METAR LMML 292115Z 29005KT 9999 FEW024 11/07 Q1017 NOSIG=
201112292100 METAR LMML NIL=
201112292045 METAR LMML 292045Z 29006KT 9999 FEW024 11/07 Q1018 NOSIG=
201112292030 METAR LMML NIL=
201112292015 METAR LMML 292015Z 29006KT 9999 FEW024 10/08 Q1018 NOSIG=
201112292000 METAR LMML NIL=
201112291945 METAR LMML 291945Z 30005KT 9999 FEW024 10/08 Q1018 NOSIG=
201112291930 METAR LMML NIL=
201112291915 METAR LMML 291915Z 31005KT 9999 FEW027 11/09 Q1018 NOSIG=
201112291900 METAR LMML NIL=
201112291845 METAR LMML 291845Z 31004KT 9999 SCT024 11/09 Q1018 NOSIG=
201112291830 METAR LMML NIL=
201112291815 METAR LMML 291815Z 30005KT 9999 SCT024 11/09 Q1018 NOSIG=
201112291800 METAR LMML NIL=
201112291745 METAR LMML 291745Z 31006KT 9999 SCT022 SCT100 11/09 Q1018
                        NOSIG=
201112291730 METAR LMML NIL=
201112291715 METAR LMML 291715Z 33004KT 290V360 9999 SCT020 SCT070 12/09
                        Q1018 NOSIG=
201112291700 METAR LMML NIL=
201112291645 METAR LMML 291645Z 33006KT 9999 SCT021 SCT060 12/09 Q1018
                        NOSIG=
201112291630 METAR LMML NIL=
201112291615 METAR LMML 291615Z 36006KT 9999 SCT020 SCT080 12/10 Q1017
                        NOSIG=
201112291600 METAR LMML NIL=
201112291545 METAR LMML 291545Z 01007KT 9999 SCT019 SCT080 13/10 Q1017
                        NOSIG=
201112291530 METAR LMML NIL=
201112291515 METAR LMML 291515Z 01007KT 350V050 9999 SCT021 SCT080 BKN250
                        13/10 Q1018 RETS NOSIG=
201112291500 METAR LMML NIL=
201112291445 METAR LMML 291445Z 36009KT 9999 SCT016 SCT080 BKN250 13/11
                        Q1017 RETS NOSIG=
201112291430 METAR LMML NIL=
201112291415 METAR LMML 291415Z 01008KT 340V040 9999 TS SCT012CB SCT019
                        13/11 Q1018 BECMG SCT013=
201112291401 SPECI LMML 291401Z 36008KT 9999 -TSRA SCT012CB SCT022 13/11
                        Q1018 NOSIG=
201112291345 METAR LMML 291345Z 35008KT 9999 SCT016TCU SCT060 13/10 Q1018
                        NOSIG=
201112291330 METAR LMML NIL=
201112291315 METAR LMML 291315Z 36011KT 9000 -SHRA BKN015TCU SCT060 14/11
                        Q1018 NOSIG=
201112291300 METAR LMML NIL=
201112291245 METAR LMML 291245Z 35008KT 9999 FEW014 FEW029 SCT036 14/12
                        Q1018 NOSIG=
201112291215 METAR LMML 291215Z 36005KT 340V050 9999 BKN016TCU SCT070
                        14/11 Q1018 RESHRA NOSIG=
201112291200 METAR LMML NIL=
201112291145 METAR LMML 291145Z 34006KT 260V010 9999 -SHRA FEW009 BKN016TCU
                        SCT250 13/11 Q1019 NOSIG=
201112291130 METAR LMML NIL=
201112291115 METAR LMML 291115Z 04007KT 010V120 9999 BKN016TCU SCT250
                        15/10 Q1019 NOSIG=
201112291100 METAR LMML NIL=
201112291045 METAR LMML 291045Z 04007KT 9999 BKN016TCU SCT250 15/11 Q1019
                        NOSIG=
201112291030 METAR LMML NIL=
201112291015 METAR LMML 291015Z 36006KT 9999 BKN015 SCT250 16/12 Q1020
                        NOSIG=
201112290945 METAR LMML 290945Z 01006KT 340V040 9999 BKN015 SCT250 15/12
                        Q1020 BECMG SCT015=
201112290930 METAR LMML NIL=
201112290915 METAR LMML 290915Z 02006KT 360V070 9999 SCT014TCU SCT050
                        BKN250 14/11 Q1021 NOSIG=
201112290845 METAR LMML 290845Z 03006KT 010V070 9999 SCT015TCU BKN250
                        15/12 Q1021 NOSIG=
201112290830 METAR LMML NIL=
201112290815 METAR LMML 290815Z 06007KT 030V090 9999 SCT015TCU SCT090
                        BKN250 14/11 Q1021 NOSIG=
201112290745 METAR LMML 290745Z 04005KT 9999 SCT016 SCT090 BKN250 13/11
                        Q1020 NOSIG=
201112290730 METAR LMML NIL=
201112290715 METAR LMML 290715Z 05004KT 020V090 9999 FEW011 SCT020 BKN250
                        13/10 Q1021 NOSIG=
201112290645 METAR LMML 290645Z 03008KT 360V070 9999 SCT011 BKN018 13/11
                        Q1021 NOSIG=
201112290630 METAR LMML NIL=
201112290615 METAR LMML 290615Z 04008KT 010V070 9999 BKN014 SCT250 13/10
                        Q1020 NOSIG=
201112290600 METAR LMML NIL=
201112290545 METAR LMML 290545Z 05008KT 010V080 9999 SCT013 SCT080 12/10
                        Q1021 TEMPO BKN015=
201112290530 METAR LMML NIL=
201112290515 METAR LMML 290515Z 03008KT 9999 SCT012 SCT080 12/11 Q1021
                        TEMPO BKN015=
201112290500 METAR LMML NIL=
201112290445 METAR LMML 290445Z 02008KT 9999 SCT011 SCT080 13/11 Q1021
                        TEMPO BKN015=
201112290430 METAR LMML NIL=
201112290415 METAR LMML 290415Z 03009KT 360V060 9999 SCT011 SCT020 12/11
                        Q1021 TEMPO BKN015=
201112290400 METAR LMML NIL=
201112290345 METAR LMML 290345Z 03008KT 360V060 9999 SCT012 SCT019 12/10
                        Q1021 TEMPO BKN015=
201112290330 METAR LMML NIL=
201112290315 METAR LMML 290315Z 02009KT 9999 SCT012 SCT023 13/11 Q1021
                        TEMPO BKN015=
201112290300 METAR LMML NIL=
201112290245 METAR LMML 290245Z 02008KT 360V060 9999 SCT014 SCT025 13/10
                        Q1022 TEMPO BKN015=
201112290230 METAR LMML NIL=
201112290215 METAR LMML 290215Z 02008KT 360V070 9999 SCT014 SCT022 13/10
                        Q1022 TEMPO BKN015=
201112290200 METAR LMML NIL=
201112290145 METAR LMML 290145Z 03010KT 9999 SCT013 SCT031 12/10 Q1022
                        TEMPO BKN015=
201112290130 METAR LMML NIL=
201112290115 METAR LMML 290115Z 03010KT 9999 SCT014 BKN029 13/10 Q1022
                        TEMPO BKN015=
201112290100 METAR LMML NIL=
201112290045 METAR LMML 290045Z 03009KT 360V070 9999 SCT016 BKN029 13/10
                        Q1023 TEMPO BKN015=
201112290030 METAR LMML NIL=
201112290015 METAR LMML 290015Z 03008KT 350V070 9999 BKN016 BKN026 13/10
                        Q1023 TEMPO BKN015=
201112290000 METAR LMML NIL=
201112282345 METAR LMML 282345Z 03008KT 360V090 9999 BKN016 BKN024 13/10
                        Q1023 TEMPO BKN015=
201112282330 METAR LMML NIL=
201112282315 METAR LMML 282315Z 04009KT 010V070 9999 BKN016 BKN023 13/10
                        Q1023 TEMPO BKN015=
201112282300 METAR LMML NIL=
201112282245 METAR LMML 282245Z 04008KT 010V070 9999 BKN015 BKN033 13/10
                        Q1024 TEMPO BKN015=
201112282230 METAR LMML NIL=
201112282215 METAR LMML 282215Z 04008KT 360V080 9999 BKN015 BKN027 13/10
                        Q1024 TEMPO BKN015=
201112282200 METAR LMML NIL=
201112282145 METAR LMML 282145Z 04009KT 010V080 9999 SCT016 BKN027 13/10
                        Q1024 TEMPO BKN015=
201112282130 METAR LMML NIL=
201112282115 METAR LMML 282115Z 05008KT 360V080 9999 SCT015 BKN027 13/10
                        Q1024 TEMPO BKN015=
201112282100 METAR LMML NIL=
201112282045 METAR LMML 282045Z 04011KT 360V070 9999 SCT015 SCT027 13/10
                        Q1024 TEMPO BKN015=
201112282030 METAR LMML NIL=
201112282015 METAR LMML 282015Z 05010KT 020V080 9999 FEW014 SCT019 13/10
                        Q1024 TEMPO BKN015=
201112282000 METAR LMML NIL=
201112281945 METAR LMML 281945Z 05011KT 020V090 9999 FEW014 SCT019 13/10
                        Q1024 TEMPO BKN015=
201112281930 METAR LMML NIL=
201112281915 METAR LMML 281915Z 05009KT 010V090 9999 SCT014 BKN030 13/10
                        Q1025 TEMPO BKN015=
201112281900 METAR LMML NIL=
201112281845 METAR LMML 281845Z 05009KT 020V090 9999 SCT016 BKN041 13/10
                        Q1025 TEMPO BKN015=
201112281830 METAR LMML NIL=
201112281815 METAR LMML 281815Z 05011KT 020V080 9999 SCT015 BKN030 13/10
                        Q1025 TEMPO BKN015=
201112281800 METAR LMML NIL=
201112281745 METAR LMML 281745Z 05011KT 020V080 9999 SCT015 BKN030 13/10
                        Q1025 TEMPO BKN015=
201112281730 METAR LMML NIL=
201112281715 METAR LMML 281715Z 05008KT 020V090 9999 SCT015 13/10 Q1025
                        TEMPO BKN015=
201112281700 METAR LMML NIL=
201112281645 METAR LMML 281645Z 05009KT 020V090 9999 SCT017 13/10 Q1025
                        TEMPO BKN015=
201112281630 METAR LMML NIL=
201112281615 METAR COR LMML 281615Z 06011KT 010V090 9999 SCT018 BKN040
                        13/10 Q1025 TEMPO BKN015=
201112281600 METAR LMML NIL=
201112281545 METAR LMML 281545Z 06012KT 020V090 9999 SCT017 BKN040 13/10
                        Q1025 NOSIG=
201112281530 METAR LMML NIL=
201112281515 METAR LMML 281515Z 07010KT 030V100 9999 BKN018 BKN250 13/10
                        Q1025 NOSIG=
201112281500 METAR LMML NIL=
201112281445 METAR LMML 281445Z 06011KT 020V110 9999 BKN017 BKN045 14/10
                        Q1025 TEMPO BKN015=
201112281430 METAR LMML NIL=
201112281415 METAR LMML 281415Z 07011KT 030V100 9999 BKN017 BKN036 14/10
                        Q1025 NOSIG=
201112281400 METAR LMML NIL=
201112281345 METAR LMML 281345Z 06012KT 030V090 9999 BKN014 BKN023 14/10
                        Q1025 NOSIG=
201112281330 METAR LMML NIL=
201112281315 METAR LMML 281315Z 07011KT 020V100 9999 SCT013 BKN100 13/10
                        Q1025 TEMPO 8000 SHRA BKN013=
201112281300 METAR LMML NIL=
201112281245 METAR LMML 281245Z 07011KT 040V110 9999 -SHRA BKN013 BKN100
                        14/10 Q1025 TEMPO 3000 TSRA BKN013CB=
201112281230 METAR LMML NIL=
201112281215 METAR LMML 281215Z 07013KT 040V110 9999 SCT013 BKN100 13/10
                        Q1025 TEMPO 3000 TSRA BKN013CB=
201112281200 METAR LMML NIL=
201112281145 METAR LMML 281145Z 07012KT 030V100 9999 SCT014 SCT120 14/10
                        Q1025 TEMPO 3000 TSRA BKN013CB=
201112281130 METAR LMML NIL=
201112281115 METAR LMML 281115Z 06014KT CAVOK 14/11 Q1025=
201112281100 METAR LMML NIL=
201112281045 METAR LMML 281045Z 07013KT 030V100 9999 SCT016 SCT250 14/10
                        Q1026 NOSIG=
201112281030 METAR LMML NIL=
201112281015 METAR LMML 281015Z 06012KT 020V110 9999 FEW012 SCT017 14/10
                        Q1026 NOSIG=
201112281000 METAR LMML NIL=
201112280945 METAR LMML 280945Z 06012KT 360V090 9999 SCT011 SCT016 14/12
                        Q1027 NOSIG=
201112280930 METAR LMML NIL=
201112280915 METAR LMML 280915Z 05012KT 010V080 9999 SCT011 SCT016 BKN090
                        13/11 Q1027 NOSIG=
201112280900 METAR LMML NIL=
201112280845 METAR LMML 280845Z 05012KT 020V080 9999 SCT011 SCT016 BKN090
                        13/11 Q1027 NOSIG=
201112280830 METAR LMML NIL=
201112280815 METAR LMML 280815Z 06012KT 030V090 9999 BKN010 BKN016 13/11
                        Q1027 TEMPO SCT010=
201112280800 METAR LMML NIL=
201112280745 METAR LMML 280745Z 05012KT 020V080 9999 SCT009 BKN016 13/11
                        Q1027 TEMPO BKN009=
201112280730 METAR LMML NIL=
201112280715 METAR LMML 280715Z 06009KT 020V100 9999 SCT010 BKN014 13/11
                        Q1027 NOSIG=
201112280700 METAR LMML NIL=
201112280645 METAR LMML 280645Z 05013KT 020V090 9999 FEW010 SCT015 BKN033
                        12/11 Q1027 NOSIG=
201112280630 METAR LMML NIL=
201112280615 METAR LMML 280615Z 05010KT 020V090 9000 -SHRA SCT010 SCT015
                        BKN070 12/11 Q1027 NOSIG=
201112280600 METAR LMML NIL=
201112280545 METAR LMML 280545Z 06010KT 030V090 9000 -SHRA FEW013 BKN080
                        12/11 Q1027 NOSIG=
201112280530 METAR LMML NIL=
201112280515 METAR LMML 280515Z 07011KT 040V110 9000 -RA FEW009 BKN080
                        12/10 Q1026 NOSIG=
201112280500 METAR LMML NIL=
201112280445 METAR LMML 280445Z 06012KT 030V100 9000 FEW009 SCT018 BKN100
                        12/11 Q1027 TEMPO SHRA=
201112280430 METAR LMML NIL=
201112280415 METAR LMML 280415Z 08010KT 9999 SCT009 SCT017 12/11 Q1027
                        TEMPO 9000 SHRA BKN008=
201112280400 METAR LMML NIL=
201112280345 METAR LMML 280345Z 07010KT 9999 -SHRA SCT009 SCT019 12/11
                        Q1026 NOSIG=
201112280330 METAR LMML NIL=
201112280315 METAR LMML 280315Z 09007KT 050V130 9999 SCT011 SCT018 13/11
                        Q1026 NOSIG=
201112280300 METAR LMML NIL=
201112280245 METAR LMML 280245Z 09004KT 360V220 9999 SCT016 13/10 Q1027
                        NOSIG=
201112280230 METAR LMML NIL=
201112280215 METAR LMML 280215Z 09006KT 050V120 9999 SCT017 13/10 Q1027
                        NOSIG=
201112280200 METAR LMML NIL=
201112280145 METAR LMML 280145Z 12007KT 080V160 9999 BKN017 12/11 Q1027
                        NOSIG=
201112280130 METAR LMML NIL=
201112280115 METAR LMML 280115Z VRB02KT 9999 SCT018 12/10 Q1027 NOSIG
                        RMK LIGHTNING TO NW=
201112280100 METAR LMML NIL=
201112280045 METAR LMML 280045Z VRB02KT 9999 SCT018 12/10 Q1027 NOSIG
                        RMK LIGHTNING TO NW=
201112280030 METAR LMML NIL=
201112280015 METAR LMML 280015Z 11005KT 9999 SCT016 12/10 Q1027 NOSIG
                        RMK LIGHTNING TO NORTH=
201112280000 METAR LMML NIL=
201112272345 METAR LMML 272345Z 10007KT 9999 SCT016 13/11 Q1027 NOSIG=
201112272330 METAR LMML NIL=
201112272315 METAR LMML 272315Z 10007KT 9999 SCT015 13/11 Q1027 NOSIG=
201112272300 METAR LMML NIL=
201112272245 METAR LMML 272245Z 11008KT 9999 SCT015 13/11 Q1027 NOSIG=
201112272230 METAR LMML NIL=
201112272215 METAR LMML 272215Z 10008KT 9999 SCT016 13/11 Q1027 NOSIG=
201112272200 METAR LMML NIL=
201112272145 METAR LMML 272145Z 10008KT 9999 SCT017 13/11 Q1027 NOSIG=
201112272130 METAR LMML NIL=
201112272115 METAR LMML 272115Z 11008KT 9999 SCT015 13/11 Q1027 NOSIG=
201112272100 METAR LMML NIL=
201112272045 METAR LMML 272045Z 12006KT 9999 SCT019 12/10 Q1027 TEMPO
                        8000 SHRA=
201112272030 METAR LMML NIL=
201112272015 METAR LMML 272015Z 13007KT 9999 SCT019 13/10 Q1027 TEMPO
                        8000 SHRA=
201112272000 METAR LMML NIL=
201112271945 METAR LMML 271945Z 13008KT 9999 SCT016 13/11 Q1027 TEMPO
                        8000 SHRA=
201112271930 METAR LMML NIL=
201112271915 METAR LMML 271915Z 13008KT 9999 SCT016 13/11 Q1027 TEMPO
                        8000 SHRA=
201112271900 METAR LMML NIL=
201112271845 METAR LMML 271845Z 12008KT 9999 SCT017 13/11 Q1027 TEMPO
                        8000 SHRA BKN015TCU=
201112271830 METAR LMML NIL=
201112271815 METAR LMML 271815Z 13006KT 9999 SCT019 13/11 Q1027 TEMPO
                        8000 SHRA BKN015TCU=
201112271800 METAR LMML NIL=
201112271745 METAR LMML 271745Z 13006KT 100V160 9999 SCT018 12/10 Q1026
                        TEMPO 8000 SHRA BKN015TCU RMK LIGHTNING
                        TO NORTHEAST=
201112271730 METAR LMML NIL=
201112271715 METAR LMML 271715Z 13005KT 9999 SCT019 13/10 Q1026 NOSIG=
201112271700 METAR LMML NIL=
201112271645 METAR LMML 271645Z 14007KT 9999 SCT019 13/10 Q1026 NOSIG=
201112271630 METAR LMML NIL=
201112271615 METAR LMML 271615Z 14007KT 9999 SCT017TCU SCT250 13/11 Q1026
                        NOSIG=
201112271600 METAR LMML NIL=
201112271545 METAR LMML 271545Z 13007KT 9999 FEW018TCU SCT250 13/11 Q1025
                        NOSIG=
201112271530 METAR LMML NIL=
201112271515 METAR LMML 271515Z 13008KT 9999 SCT019TCU SCT250 14/11 Q1025
                        NOSIG=
201112271500 METAR LMML NIL=
201112271445 METAR LMML 271445Z 13008KT 100V160 9999 SCT017TCU SCT250
                        15/11 Q1025 NOSIG=
201112271430 METAR LMML NIL=
201112271415 METAR LMML 271415Z 12009KT 090V150 9999 FEW019 SCT024 BKN043
                        15/11 Q1025 NOSIG=
201112271400 METAR LMML NIL=
201112271345 METAR LMML 271345Z 13008KT 9999 BKN020 14/11 Q1025 TEMPO
                        SHRA BKN012=
201112271330 METAR LMML NIL=
201112271315 METAR LMML 271315Z 13009KT 9999 SCT020 14/11 Q1024 TEMPO
                        SHRA BKN012=
201112271245 METAR LMML 271245Z 13011KT 9999 SCT019 16/11 Q1024 TEMPO
                        SHRA BKN012=
201112271230 METAR LMML NIL=
201112271215 METAR LMML 271215Z 15008KT 110V210 9999 SCT016 16/12 Q1024
                        TEMPO SHRA BKN012=
201112271145 METAR LMML 271145Z 15008KT 120V190 9999 FEW017 15/12 Q1024
                        TEMPO SHRA BKN012=
201112271115 METAR LMML 271115Z 13011KT 9999 BKN016 15/12 Q1024 RESH TEMPO
                        SHRA BKN012=
201112271100 METAR LMML NIL=
201112271045 METAR LMML 271045Z 11010KT 080V140 9000 SCT011 BKN040 15/13
                        Q1025 RESH TEMPO SHRA BKN012=
201112271030 METAR LMML NIL=
201112271015 METAR LMML 271015Z 11016KT 4500 SHRA SCT009 BKN016 BKN060
                        14/12 Q1025 TEMPO SHRA BKN012=
201112271000 METAR LMML NIL=
201112270945 METAR LMML 270945Z 11013KT 6000 SHRA FEW008 SCT015 BKN060
                        14/12 Q1025 TEMPO SHRA BKN012=
201112270930 METAR LMML NIL=
201112270915 METAR LMML 270915Z 11010KT 070V140 6000 -SHRA SCT016 BKN060
                        14/11 Q1025 TEMPO SHRA BKN012=
201112270900 METAR LMML NIL=
201112270845 METAR LMML 270845Z 11010KT 9000 -SHRA SCT016 BKN060 14/12
                        Q1025 TEMPO SHRA BKN012=
201112270830 METAR LMML NIL=
201112270815 METAR LMML 270815Z 10012KT 080V140 9999 SCT017 BKN060 14/11
                        Q1024 TEMPO SHRA BKN012=
201112270800 METAR LMML NIL=
201112270745 METAR LMML 270745Z 10013KT 060V120 9999 SCT019 BKN060 14/11
                        Q1024 TEMPO SHRA BKN012=
201112270730 METAR LMML NIL=
201112270715 METAR LMML 270715Z 08012KT 050V110 9000 SCT019 BKN060 13/11
                        Q1024 TEMPO SHRA BKN012=
201112270700 METAR LMML NIL=
201112270645 METAR LMML 270645Z 07012KT 040V100 7000 SCT012 BKN060 13/11
                        Q1024 TEMPO SHRA BKN012=
201112270630 METAR LMML NIL=
201112270615 METAR LMML 270615Z 08014KT 7000 -SHRA BKN017 BKN060 13/10
                        Q1024 NOSIG=
201112270600 METAR LMML NIL=
201112270545 METAR LMML 270545Z 08013KT 050V110 9999 BKN015 BKN070 13/11
                        Q1023 NOSIG=
201112270530 METAR LMML NIL=
201112270515 METAR LMML 270515Z 06003KT 9999 BKN015 13/11 Q1023 NOSIG=
201112270500 METAR LMML NIL=
201112270445 METAR LMML 270445Z 04005KT 010V070 9999 BKN016 13/11 Q1023
                        NOSIG=
201112270430 METAR LMML NIL=
201112270415 METAR LMML 270415Z 03009KT 360V060 9999 BKN013 13/11 Q1023
                        BECMG SCT010=
201112270400 METAR LMML NIL=
201112270345 METAR LMML 270345Z 04011KT 010V070 9999 BKN009 SCT070 12/11
                        Q1023 BECMG SCT010=
201112270330 METAR LMML NIL=
201112270315 METAR LMML 270315Z 04014KT 010V070 9999 BKN009 BKN070 12/11
                        Q1023 BECMG SCT010=
201112270245 METAR LMML 270245Z 02014G27KT 360V060 9999 -RA BKN009 BKN070
                        12/10 Q1023 NOSIG=
201112270230 METAR LMML NIL=
201112270215 METAR LMML 270215Z 03015G27KT 360V060 9999 BKN011 12/10 Q1023
                        NOSIG=
201112270200 METAR LMML NIL=
201112270145 METAR LMML 270145Z 03018G29KT 360V060 9999 BKN011 12/10 Q1024
                        NOSIG=
201112270115 METAR LMML 270115Z 03021G32KT 360V070 9999 BKN013 12/09 Q1023
                        NOSIG=
201112270100 METAR LMML NIL=
201112270045 METAR LMML 270045Z 03021G32KT 360V060 9999 -SHRA BKN014 12/09
                        Q1023 NOSIG=
201112270030 METAR LMML NIL=
201112270015 METAR LMML 270015Z 03020G32KT 350V060 9999 BKN015 12/09 Q1024
                        NOSIG=
201112270000 METAR LMML NIL=
201112262345 METAR LMML 262345Z 03021G34KT 360V060 9999 SCT020 BKN028
                        12/08 Q1024 NOSIG=
201112262330 METAR LMML NIL=
201112262315 METAR LMML 262315Z 03020G30KT 360V070 9999 SCT017 BKN028
                        12/08 Q1024 NOSIG=
201112262300 METAR LMML NIL=
201112262245 METAR LMML 262245Z 03023G35KT 360V070 9999 -SHRA BKN024 12/08
                        Q1024 NOSIG=
201112262230 METAR LMML NIL=
201112262215 METAR LMML 262215Z 03020G33KT 360V070 9999 SCT021 BKN030
                        12/08 Q1024 NOSIG=
201112262200 METAR LMML NIL=
201112262145 METAR LMML 262145Z 03021G33KT 360V060 9999 SCT020 BKN030
                        12/08 Q1025 NOSIG=
201112262130 METAR LMML NIL=
201112262115 METAR LMML 262115Z 03018G31KT 360V060 9999 SHRA SCT023 BKN040
                        12/08 Q1025 NOSIG=
201112262045 METAR LMML 262045Z 03019G29KT 350V060 9999 SCT016 BKN032
                        12/09 Q1025 TEMPO BKN014=
201112262030 METAR LMML NIL=
201112262015 METAR LMML 262015Z 02017G29KT 9999 SCT016 BKN043 12/09 Q1025
                        TEMPO BKN014=
201112261945 METAR LMML 261945Z 02019G31KT 350V050 9999 SCT014 BKN042
                        11/09 Q1025 TEMPO BKN014=
201112261930 METAR LMML NIL=
201112261915 METAR LMML 261915Z 01016G33KT 9999 SCT013 BKN040 11/09 Q1025
                        NOSIG=
201112261900 METAR LMML NIL=
201112261845 METAR LMML 261845Z 02019G33KT 360V060 9999 SCT017 BKN050
                        11/09 Q1025 TEMPO 5000 SHRA BKN015=
201112261830 METAR LMML NIL=
201112261815 METAR LMML 261815Z 02014G26KT 9999 SCT016 BKN049 12/09 Q1025
                        TEMPO 5000 SHRA BKN015=
201112261800 METAR LMML NIL=
201112261745 METAR LMML 261745Z 02019G32KT 350V050 9000 -SHRA BKN016 BKN050
                        11/09 Q1025 TEMPO 5000 SHRA BKN015=
201112261715 METAR LMML 261715Z 02015G28KT 350V050 9999 SCT020 BKN040
                        12/09 Q1025 TEMPO 5000 SHRA BKN015=
201112261700 METAR LMML NIL=
201112261645 METAR LMML 261645Z 01015G26KT 9999 SCT022 BKN040 12/09 Q1025
                        RESHRA TEMPO 5000 SHRA BKN015=
201112261630 METAR LMML NIL=
201112261615 METAR LMML 261615Z 01014G26KT 340V040 8000 -SHRA SCT010 BKN018
                        BKN050 11/10 Q1024 RESHRA TEMPO 5000=
201112261600 METAR LMML NIL=
201112261545 METAR LMML 261545Z 36013G23KT 330V040 8000 FEW010 SCT015
                        BKN050 11/09 Q1025 TEMPO 02018G28KT
                        5000 SHRA BKN015=
201112261530 METAR LMML NIL=
201112261515 METAR LMML 261515Z 36012KT 9000 -SHRA SCT016 BKN050 11/09
                        Q1025 TEMPO 03018G28KT=
201112261500 METAR LMML NIL=
201112261445 METAR LMML 261445Z 01016G27KT 9999 BKN019 BKN047 12/09 Q1025
                        TEMPO 9000 SHRA=
201112261430 METAR LMML NIL=
201112261415 METAR LMML 261415Z 01016KT 330V040 9999 SCT019 SCT040 BKN120
                        12/08 Q1025 TEMPO 03018G28KT 9000
                        SHRA=
201112261400 METAR LMML NIL=
201112261345 METAR LMML 261345Z 36015G26KT 340V040 9999 -SHRA SCT022 BKN050
                        12/09 Q1024 TEMPO 9000 SHRA=
201112261330 METAR LMML NIL=
201112261315 METAR LMML 261315Z 36013KT 9999 -SHRA SCT025 BKN050 12/08
                        Q1025 TEMPO 9000 SHRA=
201112261300 METAR LMML NIL=
201112261245 METAR LMML 261245Z 01012KT 340V040 9999 BKN027 BKN038 13/08
                        Q1025 TEMPO 9000 SHRA=
201112261230 METAR LMML NIL=
201112261215 METAR LMML 261215Z 01011KT 9999 SCT028 BKN047 13/07 Q1025
                        TEMPO 9000 SHRA=
201112261200 METAR LMML NIL=
201112261145 METAR LMML 261145Z 01009KT 340V040 9999 SCT032 BKN050 13/08
                        Q1025 TEMPO 9000 SHRA=
201112261130 METAR LMML NIL=
201112261115 METAR LMML 261115Z 01011KT 9999 BKN033 BKN050 13/07 Q1025
                        TEMPO 9000 SHRA=
201112261100 METAR LMML NIL=
201112261045 METAR LMML 261045Z 36011KT 320V030 9999 FEW030 BKN040 13/07
                        Q1025 NOSIG=
201112261030 METAR LMML NIL=
201112261015 METAR LMML 261015Z 01009KT 9999 FEW031 BKN040 14/07 Q1025
                        NOSIG=
201112261000 METAR LMML NIL=
201112260945 METAR LMML 260945Z 01008KT 350V050 9999 FEW031 15/08 Q1025
                        NOSIG=
201112260930 METAR LMML NIL=
201112260915 METAR LMML 260915Z 02007KT 350V050 9999 FEW031 14/07 Q1025
                        NOSIG=
201112260900 METAR LMML NIL=
201112260845 METAR LMML 260845Z 01008KT 350V050 9999 FEW031 14/06 Q1025
                        NOSIG=
201112260830 METAR LMML NIL=
201112260815 METAR LMML 260815Z 01009KT 350V050 9999 FEW031 13/07 Q1025
                        NOSIG=
201112260800 METAR LMML NIL=
201112260745 METAR LMML 260745Z 01008KT 9999 FEW032 13/07 Q1025 NOSIG=
201112260730 METAR LMML NIL=
201112260715 METAR LMML 260715Z 01007KT 9999 FEW032 12/07 Q1025 NOSIG=
201112260700 METAR LMML NIL=
201112260645 METAR LMML 260645Z 01006KT 9999 SCT034 10/06 Q1024 NOSIG=
201112260630 METAR LMML NIL=
201112260615 METAR LMML 260615Z 36006KT 340V040 9999 SCT033 10/06 Q1024
                        NOSIG=
201112260600 METAR LMML NIL=
201112260545 METAR LMML 260545Z 01005KT 9999 SCT036 10/06 Q1024 NOSIG=
201112260530 METAR LMML NIL=
201112260515 METAR LMML 260515Z 01004KT 9999 SCT036 SCT100 10/05 Q1023
                        NOSIG=
201112260500 METAR LMML NIL=
201112260445 METAR LMML 260445Z 01004KT 9999 FEW023 SCT100 10/05 Q1023
                        NOSIG=
201112260430 METAR LMML NIL=
201112260415 METAR LMML 260415Z 35005KT 9999 FEW023 SCT100 11/05 Q1023
                        NOSIG=
201112260345 METAR LMML 260345Z 36007KT 9999 FEW023 SCT100 10/05 Q1023
                        NOSIG=
201112260330 METAR LMML NIL=
201112260315 METAR LMML 260315Z 35007KT 9999 FEW023 11/05 Q1022 NOSIG=
201112260300 METAR LMML NIL=
201112260245 METAR LMML 260245Z 35005KT 9999 FEW032 11/05 Q1022 NOSIG=
201112260230 METAR LMML NIL=
201112260215 METAR LMML 260215Z 35005KT 9999 FEW032 11/05 Q1023 NOSIG=
201112260200 METAR LMML NIL=
201112260145 METAR LMML 260145Z 01008KT 9999 FEW032 11/05 Q1023 NOSIG=
201112260130 METAR LMML NIL=
201112260115 METAR LMML 260115Z 36009KT 9999 FEW032 BKN090 11/06 Q1023
                        NOSIG=
201112260100 METAR LMML NIL=
201112260045 METAR LMML 260045Z 01008KT 330V030 9999 FEW032 BKN082 12/07
                        Q1022 NOSIG=
201112260030 METAR LMML NIL=
201112260015 METAR LMML 260015Z 36009KT 9999 FEW026 BKN070 12/08 Q1022
                        NOSIG=
201112260000 METAR LMML NIL=
201112252345 METAR LMML 252345Z 01007KT 9999 SCT024 11/08 Q1022 NOSIG=
201112252330 METAR LMML NIL=
201112252315 METAR LMML 252315Z 01005KT 9999 SCT021 11/08 Q1022 NOSIG=
201112252300 METAR LMML NIL=
201112252245 METAR LMML 252245Z 02007KT 9999 FEW023 12/08 Q1022 NOSIG=
201112252230 METAR LMML NIL=
201112252215 METAR LMML 252215Z 03010KT 9999 FEW019 12/08 Q1022 NOSIG=
201112252200 METAR LMML NIL=
201112252145 METAR LMML 252145Z 04011KT 010V090 9999 SCT017 BKN070 12/09
                        Q1021 NOSIG=
201112252130 METAR LMML NIL=
201112252115 METAR LMML 252115Z 04013KT 010V080 9999 FEW015 SCT023 BKN080
                        12/10 Q1021 NOSIG=
201112252100 METAR LMML NIL=
201112252045 METAR LMML 252045Z 05008KT 010V090 9999 SCT017 BKN070 12/10
                        Q1020 RESHRA NOSIG=
201112252030 METAR LMML NIL=
201112252015 METAR LMML 252015Z 06010KT 030V100 9999 SHRA SCT016 BKN070
                        13/10 Q1020 NOSIG=
201112251945 METAR LMML 251945Z 35007KT 9999 SCT029 BKN070 13/09 Q1020
                        NOSIG=
201112251930 METAR LMML NIL=
201112251915 METAR COR LMML 251915Z 33010KT 9999 SCT028 BKN060 13/08 Q1019
                        NOSIG=
201112251900 METAR LMML NIL=
201112251845 METAR LMML 251845Z 32007KT 280V350 9999 SCT028 SCT060 12/09
                        Q1019 NOSIG=
201112251830 METAR LMML NIL=
201112251815 METAR LMML 251815Z 31010KT 9999 FEW025 12/09 Q1019 NOSIG=
201112251800 METAR LMML NIL=
201112251745 METAR LMML 251745Z 31009KT 9999 FEW025 SCT050 12/09 Q1019
                        NOSIG=
201112251715 METAR LMML 251715Z 30012KT 9999 SCT025 BKN050 12/08 Q1018
                        NOSIG=
201112251700 METAR LMML NIL=
201112251645 METAR LMML 251645Z 30015KT 9999 FEW025 BKN050 13/09 Q1018
                        NOSIG=
201112251630 METAR LMML NIL=
201112251615 METAR LMML 251615Z 31014KT 9999 SCT025 SCT050 13/09 Q1018
                        NOSIG=
201112251600 METAR LMML NIL=
201112251545 METAR LMML 251545Z 30018KT 9999 BKN026 13/08 Q1017 NOSIG=
201112251530 METAR LMML NIL=
201112251515 METAR LMML 251515Z 30016KT 270V330 9999 SCT026 13/09 Q1018
                        NOSIG=
201112251445 METAR LMML 251445Z 30017KT 9999 SCT028 14/09 Q1018 NOSIG=
201112251430 METAR LMML NIL=
201112251415 METAR LMML 251415Z 30017KT 9999 SCT027 14/09 Q1017 NOSIG=
201112251400 METAR LMML NIL=
201112251345 METAR LMML 251345Z 29015KT 260V320 9999 SCT025 SCT060 14/09
                        Q1017 NOSIG=
201112251315 METAR LMML 251315Z 28013KT 250V320 9999 SCT021 SCT060 13/09
                        Q1017 NOSIG=
201112251300 METAR LMML NIL=
201112251245 METAR LMML 251245Z 28018KT 250V310 9999 SCT025 14/09 Q1017
                        NOSIG=
201112251230 METAR LMML NIL=
201112251215 METAR LMML 251215Z 29017KT 260V320 9999 SCT024 13/09 Q1017
                        NOSIG=
201112251200 METAR LMML NIL=
201112251145 METAR LMML 251145Z 29017KT 260V330 9999 BKN028 SCT060 14/08
                        Q1017 NOSIG=
201112251130 METAR LMML NIL=
201112251115 METAR LMML 251115Z 28016G26KT 240V300 9999 SCT029 SCT060
                        14/08 Q1018 NOSIG=
201112251045 METAR LMML 251045Z 28018KT 9999 SCT029 14/08 Q1018 NOSIG=
201112251015 METAR LMML 251015Z 29019KT 260V320 9999 SCT025 13/07 Q1019
                        NOSIG=
201112250945 METAR LMML 250945Z 29016KT 270V330 9999 SCT038 14/07 Q1019
                        NOSIG=
201112250930 METAR LMML NIL=
201112250915 METAR COR LMML 250915Z 28015KT 250V320 9999 FEW033 SCT060
                        14/08 Q1019 NOSIG=
201112250900 METAR LMML NIL=
201112250845 METAR LMML 250845Z 29016KT 9999 SCT034 SCT050 13/07 Q1019
                        NOSIG=
201112250830 METAR LMML NIL=
201112250815 METAR LMML 250815Z 29014KT 260V320 9999 SCT035 13/06 Q1018
                        NOSIG=
201112250800 METAR LMML NIL=
201112250745 METAR LMML 250745Z 29015KT 9999 SCT035 13/07 Q1018 NOSIG=
201112250715 METAR LMML 250715Z 29015KT 250V310 9999 SCT035 12/06 Q1018
                        NOSIG=
201112250700 METAR LMML NIL=
201112250645 METAR LMML 250645Z 29014KT 260V320 9999 SCT034 12/06 Q1018
                        NOSIG=
201112250630 METAR LMML NIL=
201112250615 METAR LMML 250615Z 29007KT 250V310 9999 FEW033 BKN050 11/08
                        Q1018 NOSIG=
201112250600 METAR LMML NIL=
201112250545 METAR LMML 250545Z 30015KT 9999 -RA FEW036 BKN050 11/07 Q1018
                        NOSIG=
201112250530 METAR LMML NIL=
201112250515 METAR LMML 250515Z 29015KT 260V320 9000 FEW033 BKN050 SCT080
                        12/07 Q1018 NOSIG=
201112250445 METAR LMML 250445Z 29015KT 260V320 9000 -RA SCT032 BKN050
                        11/08 Q1018 NOSIG=
201112250430 METAR LMML NIL=
201112250415 METAR LMML 250415Z 28016KT 9999 -RA FEW025 BKN050 11/07 Q1018
                        NOSIG=
201112250345 METAR LMML 250345Z 29017KT 270V330 9999 -RA SCT034 BKN050
                        11/08 Q1018 NOSIG=
201112250315 METAR LMML 250315Z 29015KT 250V310 9999 SCT033 BKN060 13/06
                        Q1017 NOSIG=
201112250245 METAR LMML 250245Z 28015KT 260V320 7000 FEW037 BKN060 12/06
                        Q1018 NOSIG=
201112250230 METAR LMML NIL=
201112250215 METAR LMML 250215Z 29015KT 260V320 7000 FEW034 BKN060 12/07
                        Q1018 NOSIG=
201112250200 METAR LMML NIL=
201112250145 METAR LMML 250145Z 28017G31KT 240V310 7000 -RA FEW031 BKN060
                        12/08 Q1018 NOSIG=
201112250130 METAR LMML NIL=
201112250115 METAR LMML 250115Z 29017G27KT 9999 FEW033 BKN050 13/06 Q1018
                        NOSIG=
201112250045 METAR LMML 250045Z 28021KT 250V310 9999 FEW025 BKN050 13/05
                        Q1018 NOSIG=
201112250030 METAR LMML NIL=
201112250015 METAR LMML 250015Z 29017KT 9999 FEW027 BKN050 13/06 Q1018
                        NOSIG=
201112250000 METAR LMML NIL=
201112242345 METAR LMML 242345Z 29017G27KT 260V320 9999 SCT026 BKN040
                        12/08 Q1019 NOSIG=
201112242330 METAR LMML NIL=
201112242315 METAR LMML 242315Z 29014KT 7000 -SHRA SCT031 SCT060 14/08
                        Q1019 NOSIG=
201112242300 METAR LMML NIL=
201112242245 METAR LMML 242245Z 29018KT 9999 FEW035 SCT060 14/07 Q1019
                        NOSIG=
201112242230 METAR LMML NIL=
201112242215 METAR LMML 242215Z 29017KT 250V320 9999 FEW030 SCT060 14/07
                        Q1019 NOSIG=
201112242200 METAR LMML NIL=
201112242145 METAR LMML 242145Z 29014KT 260V330 9999 BKN034 14/08 Q1019
                        NOSIG=
201112242130 METAR LMML NIL=
201112242115 METAR LMML 242115Z 30020KT 9999 SCT034 14/07 Q1019 NOSIG=
201112242100 METAR LMML NIL=
201112242045 METAR LMML 242045Z 29017KT 9999 FEW033 14/08 Q1019 NOSIG=
201112242030 METAR LMML NIL=
201112242015 METAR LMML 242015Z 29013KT 9999 FEW027 14/09 Q1019 NOSIG=
201112242000 METAR LMML NIL=
201112241945 METAR LMML 241945Z 29014KT 9999 FEW020 BKN060 14/09 Q1019
                        NOSIG=
201112241930 METAR LMML NIL=
201112241915 METAR LMML 241915Z 29015KT 9999 FEW020 SCT060 14/10 Q1019
                        NOSIG=
201112241900 METAR LMML NIL=
201112241845 METAR LMML 241845Z 29013KT 260V320 9999 FEW021 BKN060 14/11
                        Q1019 NOSIG=
201112241815 METAR LMML 241815Z 28009KT 250V330 9999 FEW022 14/10 Q1019
                        NOSIG=
201112241800 METAR LMML NIL=
201112241745 METAR LMML 241745Z 28010KT 9999 FEW023 14/10 Q1019 NOSIG=
201112241730 METAR LMML NIL=
201112241715 METAR LMML 241715Z 28008KT 9999 SCT024 14/10 Q1019 NOSIG=
201112241700 METAR LMML NIL=
201112241645 METAR LMML 241645Z 29009KT 9999 SCT024 14/10 Q1019 NOSIG=
201112241630 METAR LMML NIL=
201112241615 METAR LMML 241615Z 30010KT 9999 SCT022 14/09 Q1019 NOSIG=
201112241545 METAR LMML 241545Z 27006KT 9999 BKN024 13/09 Q1019 NOSIG=
201112241530 METAR LMML NIL=
201112241515 METAR LMML 241515Z 28007KT 250V310 9999 SCT031 14/09 Q1019
                        NOSIG=
201112241500 METAR LMML NIL=
201112241445 METAR LMML 241445Z 29007KT 9999 BKN034 14/08 Q1020 NOSIG=
201112241430 METAR LMML NIL=
201112241415 METAR LMML 241415Z 29010KT 250V320 9999 FEW033 15/08 Q1020
                        NOSIG=
201112241345 METAR LMML 241345Z 29012KT 9999 FEW034 15/07 Q1020 NOSIG=
201112241330 METAR LMML NIL=
201112241315 METAR LMML 241315Z 30013KT 260V330 9999 FEW034 15/07 Q1020
                        NOSIG=
201112241300 METAR LMML NIL=
201112241245 METAR LMML 241245Z 32010KT 9999 FEW033 15/08 Q1020 NOSIG=
201112241230 METAR LMML NIL=
201112241215 METAR LMML 241215Z 32010KT 280V350 9999 SCT033 13/07 Q1021
                        NOSIG=
201112241200 METAR LMML NIL=
201112241145 METAR LMML 241145Z 31011KT 280V340 9999 SCT035 15/07 Q1021
                        NOSIG=
201112241130 METAR LMML NIL=
201112241115 METAR LMML 241115Z 31009KT 9999 FEW034 15/08 Q1021 NOSIG=
201112241100 METAR LMML NIL=
201112241045 METAR LMML 241045Z 32010KT 9999 SCT037 14/07 Q1021 NOSIG=
201112241030 METAR LMML NIL=
201112241015 METAR LMML 241015Z 31008KT 280V350 9999 FEW035 14/07 Q1022
                        NOSIG=
201112241000 METAR LMML NIL=
201112240945 METAR LMML 240945Z 31007KT 9999 BKN034 14/07 Q1022 NOSIG=
201112240930 METAR LMML NIL=
201112240915 METAR LMML 240915Z 30007KT 9999 SCT036 14/06 Q1022 NOSIG=
201112240900 METAR LMML NIL=
201112240845 METAR LMML 240845Z 31004KT 280V350 9999 SCT036 13/06 Q1022
                        NOSIG=
201112240830 METAR LMML NIL=
201112240815 METAR LMML 240815Z 29004KT 260V320 9999 FEW037 12/06 Q1022
                        NOSIG=
201112240800 METAR LMML NIL=
201112240745 METAR LMML 240745Z 28006KT 250V320 9999 FEW030 11/05 Q1021
                        NOSIG=
201112240730 METAR LMML NIL=
201112240715 METAR LMML 240715Z 28005KT 9999 FEW030 09/04 Q1021 NOSIG=
201112240700 METAR LMML NIL=
201112240645 METAR LMML 240645Z 29005KT 9999 FEW030 09/03 Q1021 NOSIG=
201112240630 METAR LMML NIL=
201112240615 METAR LMML 240615Z 28005KT 250V310 9999 FEW030 08/02 Q1021
                        NOSIG=
201112240600 METAR LMML NIL=
201112240545 METAR LMML 240545Z 30005KT CAVOK 08/02 Q1021 NOSIG=
201112240530 METAR LMML NIL=
201112240515 METAR LMML 240515Z 30005KT 270V330 CAVOK 08/02 Q1021 NOSIG=
201112240500 METAR LMML NIL=
201112240445 METAR LMML 240445Z 30005KT CAVOK 07/02 Q1021 NOSIG=
201112240430 METAR LMML NIL=
201112240415 METAR LMML 240415Z 30006KT CAVOK 07/02 Q1021 NOSIG=
201112240400 METAR LMML NIL=
201112240345 METAR LMML 240345Z 29005KT CAVOK 08/02 Q1020 NOSIG=
201112240330 METAR LMML NIL=
201112240315 METAR LMML 240315Z 31006KT CAVOK 07/03 Q1020 NOSIG=
201112240300 METAR LMML NIL=
201112240245 METAR LMML 240245Z 31006KT CAVOK 07/03 Q1020 NOSIG=
201112240230 METAR LMML NIL=
201112240215 METAR LMML 240215Z 32004KT CAVOK 07/02 Q1020 NOSIG=
201112240200 METAR LMML NIL=
201112240145 METAR LMML 240145Z 31006KT CAVOK 07/02 Q1020 NOSIG=
201112240130 METAR LMML NIL=
201112240115 METAR LMML 240115Z 33003KT CAVOK 08/02 Q1020 NOSIG=
201112240100 METAR LMML NIL=
201112240045 METAR LMML 240045Z 29005KT CAVOK 08/02 Q1021 NOSIG=
201112240030 METAR LMML NIL=
201112240015 METAR LMML 240015Z 30006KT CAVOK 08/02 Q1020 NOSIG=
201112240000 METAR LMML NIL=
201112232345 METAR LMML 232345Z 31008KT CAVOK 08/03 Q1020 NOSIG=
201112232330 METAR LMML NIL=
201112232315 METAR LMML 232315Z 31007KT CAVOK 08/03 Q1020 NOSIG=
201112232300 METAR LMML NIL=
201112232245 METAR LMML 232245Z 32007KT CAVOK 08/03 Q1020 NOSIG=
201112232230 METAR LMML NIL=
201112232215 METAR LMML 232215Z 31007KT CAVOK 08/03 Q1021 NOSIG=
201112232200 METAR LMML NIL=
201112232145 METAR LMML 232145Z 31004KT CAVOK 09/03 Q1021 NOSIG=
201112232130 METAR LMML NIL=
201112232115 METAR LMML 232115Z 31006KT CAVOK 09/03 Q1020 NOSIG=
201112232100 METAR LMML NIL=
201112232045 METAR LMML 232045Z 30004KT 9999 FEW047 09/03 Q1020 NOSIG=
201112232030 METAR LMML NIL=
201112232015 METAR LMML 232015Z 29004KT CAVOK 09/02 Q1020 NOSIG=
201112231945 METAR LMML 231945Z 28003KT 9999 FEW049 09/03 Q1020 NOSIG=
201112231915 METAR LMML 231915Z 27003KT CAVOK 09/03 Q1020 NOSIG=
201112231900 METAR LMML NIL=
201112231845 METAR LMML 231845Z 27003KT CAVOK 09/03 Q1019 NOSIG=
201112231830 METAR LMML NIL=
201112231815 METAR LMML 231815Z VRB01KT CAVOK 08/04 Q1019 NOSIG=
201112231745 METAR LMML 231745Z VRB01KT CAVOK 09/03 Q1019 NOSIG=
201112231730 METAR LMML NIL=
201112231715 METAR LMML 231715Z 28003KT CAVOK 09/03 Q1019 NOSIG=
201112231700 METAR LMML NIL=
201112231645 METAR LMML 231645Z VRB01KT CAVOK 09/03 Q1018 NOSIG=
201112231615 METAR LMML 231615Z 34003KT CAVOK 10/02 Q1018 NOSIG=
201112231600 METAR LMML NIL=
201112231545 METAR LMML 231545Z 35003KT CAVOK 11/03 Q1018 NOSIG=
201112231515 METAR LMML 231515Z 35005KT CAVOK 11/03 Q1018 NOSIG=
201112231500 METAR LMML NIL=
201112231445 METAR LMML 231445Z 35005KT 320V050 CAVOK 12/02 Q1018 NOSIG=
201112231430 METAR LMML NIL=
201112231415 METAR LMML 231415Z 34007KT CAVOK 12/03 Q1018 NOSIG=
201112231400 METAR LMML NIL=
201112231345 METAR LMML 231345Z 34008KT 310V020 CAVOK 12/02 Q1018 NOSIG=
201112231330 METAR LMML NIL=
201112231315 METAR LMML 231315Z 34008KT CAVOK 13/03 Q1017 NOSIG=
201112231300 METAR LMML NIL=
201112231245 METAR LMML 231245Z 35010KT 310V010 CAVOK 12/02 Q1017 NOSIG=
201112231230 METAR LMML NIL=
201112231215 METAR LMML 231215Z 35012KT CAVOK 12/02 Q1017 NOSIG=
201112231145 METAR LMML 231145Z 35014KT 320V020 CAVOK 12/02 Q1017 NOSIG=
201112231115 METAR LMML 231115Z 34015KT 310V010 9999 FEW040 13/01 Q1017
                        NOSIG=
201112231045 METAR LMML 231045Z 34014G24KT 9999 FEW040 13/00 Q1017 NOSIG=
201112231030 METAR LMML NIL=
201112231015 METAR LMML 231015Z 33012KT 300V010 9999 FEW040 13/02 Q1018
                        NOSIG=
201112231000 METAR LMML NIL=
201112230945 METAR LMML 230945Z 34014G24KT 9999 FEW040 13/02 Q1018 NOSIG=
201112230930 METAR LMML NIL=
201112230915 METAR LMML 230915Z 35012KT 320V020 9999 FEW040 13/02 Q1018
                        NOSIG=
201112230900 METAR LMML NIL=
201112230845 METAR LMML 230845Z 35013KT 310V020 9999 FEW035 12/02 Q1018
                        NOSIG=
201112230830 METAR LMML NIL=
201112230815 METAR LMML 230815Z 34014KT 9999 FEW035 12/02 Q1017 NOSIG=
201112230800 METAR LMML NIL=
201112230745 METAR LMML 230745Z 34012KT 9999 FEW035 11/01 Q1017 NOSIG=
201112230730 METAR LMML NIL=
201112230715 METAR LMML 230715Z 34013KT 9999 FEW035 10/01 Q1016 NOSIG=
201112230700 METAR LMML NIL=
201112230645 METAR LMML 230645Z 34013KT 9999 FEW035 10/00 Q1016 NOSIG=
201112230615 METAR LMML 230615Z 33015KT 9999 FEW035 10/M01 Q1017 TEMPO
                        9999 FEW045=
201112230545 METAR LMML 230545Z 34014KT CAVOK 10/M00 Q1016 NOSIG=
201112230530 METAR LMML NIL=
201112230515 METAR LMML 230515Z 34018KT CAVOK 10/M00 Q1016 NOSIG=
201112230445 METAR LMML 230445Z 34014G25KT 9999 FEW047 10/M00 Q1016 NOSIG=
201112230430 METAR LMML NIL=
201112230415 METAR LMML 230415Z 34015KT 9999 FEW047 10/M00 Q1015 NOSIG=
201112230345 METAR LMML 230345Z 33015KT 9999 FEW047 10/M01 Q1016 NOSIG=
201112230315 METAR LMML 230315Z 33015KT 310V010 9999 FEW048 10/01 Q1015
                        NOSIG=
201112230245 METAR LMML 230245Z 34015KT CAVOK 10/00 Q1015 NOSIG=
201112230230 METAR LMML NIL=
201112230215 METAR LMML 230215Z 34014KT CAVOK 10/00 Q1015 NOSIG=
201112230200 METAR LMML NIL=
201112230145 METAR LMML 230145Z 33015KT 300V360 CAVOK 10/00 Q1016 NOSIG=
201112230130 METAR LMML NIL=
201112230115 METAR LMML 230115Z 33019KT 310V010 CAVOK 10/M00 Q1016 NOSIG=
201112230100 METAR LMML NIL=
201112230045 METAR LMML 230045Z 33016G26KT CAVOK 10/01 Q1016 NOSIG=
201112230030 METAR LMML NIL=
201112230015 METAR LMML 230015Z 33016KT CAVOK 10/01 Q1015 NOSIG=
201112222345 METAR LMML 222345Z 33016KT CAVOK 10/01 Q1015 NOSIG=
201112222315 METAR LMML 222315Z 33017KT 9999 FEW045 10/00 Q1015 NOSIG=
201112222245 METAR LMML 222245Z 33015KT 9999 FEW045 10/M00 Q1016 NOSIG=
201112222230 METAR LMML NIL=
201112222215 METAR LMML 222215Z 33016G26KT 9999 FEW045 10/00 Q1015 NOSIG=
201112222145 METAR LMML 222145Z 33020KT 9999 FEW045 10/M01 Q1016 NOSIG=
201112222130 METAR LMML NIL=
201112222115 METAR LMML 222115Z 33019KT 290V360 9999 FEW045 10/M00 Q1015
                        NOSIG=
201112222100 METAR LMML NIL=
201112222045 METAR LMML 222045Z 33019G29KT 290V360 9999 FEW045 10/M01
                        Q1015 NOSIG=
201112222030 METAR LMML NIL=
201112222015 METAR LMML 222015Z 33023G34KT 290V350 9999 FEW045 10/M00
                        Q1015 NOSIG=
201112222000 METAR LMML NIL=
201112221945 METAR LMML 221945Z 33022G34KT 300V360 9999 FEW049 10/01 Q1015
                        NOSIG=
201112221915 METAR LMML 221915Z 33023G37KT 9999 FEW048 10/00 Q1015 NOSIG=
201112221900 METAR LMML NIL=
201112221845 METAR LMML 221845Z 33023G34KT 9999 FEW048 10/00 Q1015 NOSIG=
201112221830 METAR LMML NIL=
201112221815 METAR LMML 221815Z 33024G35KT 9999 FEW045 SCT100 10/M00 Q1014
                        NOSIG=
201112221800 METAR LMML NIL=
201112221745 METAR LMML 221745Z 33023KT 9999 FEW045 SCT100 10/M00 Q1014
                        NOSIG=
201112221730 METAR LMML NIL=
201112221715 METAR LMML 221715Z 32024KT 9999 FEW045 10/M01 Q1014 NOSIG=
201112221645 METAR LMML 221645Z 31015KT 9999 FEW045 10/02 Q1013 NOSIG=
201112221630 METAR LMML NIL=
201112221615 METAR LMML 221615Z 33018KT 9999 FEW040 11/02 Q1013 NOSIG=
201112221600 METAR LMML NIL=
201112221545 METAR LMML 221545Z 33019KT 300V360 9999 FEW040 11/01 Q1012
                        NOSIG=
201112221530 METAR LMML NIL=
201112221515 METAR LMML 221515Z 33018KT 9999 FEW040 10/02 Q1012 NOSIG=
201112221500 METAR LMML NIL=
201112221445 METAR LMML 221445Z 34020KT 9999 FEW041 11/04 Q1012 NOSIG=
201112221430 METAR LMML NIL=
201112221415 METAR LMML 221415Z 34020G30KT 9999 FEW043 FEW079 12/01 Q1012
                        NOSIG=
201112221400 METAR LMML NIL=
201112221345 METAR LMML 221345Z 33023G33KT 9999 FEW043 12/02 Q1012 NOSIG=
201112221330 METAR LMML NIL=
201112221315 METAR LMML 221315Z 32014KT 290V350 9999 FEW043 12/04 Q1011
                        NOSIG=
201112221300 METAR LMML NIL=
201112221245 METAR LMML 221245Z 33020KT 300V360 9999 FEW040 BKN100 12/04
                        Q1012 NOSIG=
201112221230 METAR LMML NIL=
201112221215 METAR LMML 221215Z 33021G33KT 9999 FEW042 SCT090 12/04 Q1012
                        NOSIG=
201112221200 METAR LMML NIL=
201112221145 METAR LMML 221145Z 33021KT 9999 FEW042 12/03 Q1012 NOSIG=
201112221130 METAR LMML NIL=
201112221115 METAR LMML 221115Z 33018G28KT 300V360 9999 FEW040 12/04 Q1012
                        NOSIG=
201112221100 METAR LMML NIL=
201112221045 METAR LMML 221045Z 32020G30KT CAVOK 13/02 Q1012 NOSIG=
201112221030 METAR LMML NIL=
201112221015 METAR LMML 221015Z 32018G30KT CAVOK 13/01 Q1012 NOSIG=
201112221000 METAR LMML NIL=
201112220945 METAR LMML 220945Z 32014KT 280V360 CAVOK 13/02 Q1013 NOSIG=
201112220930 METAR LMML NIL=
201112220915 METAR LMML 220915Z 32013KT 290V350 9999 FEW048 13/04 Q1013
                        NOSIG=
201112220900 METAR LMML NIL=
201112220845 METAR LMML 220845Z 32013KT 290V350 CAVOK 13/03 Q1012 NOSIG=
201112220830 METAR LMML NIL=
201112220815 METAR LMML 220815Z 32014KT 9999 FEW047 12/04 Q1012 NOSIG=
201112220800 METAR LMML NIL=
201112220745 METAR LMML 220745Z 31012KT 9999 FEW047 11/04 Q1012 NOSIG=
201112220715 METAR LMML 220715Z 30012KT 9999 SCT040 11/04 Q1012 NOSIG=
201112220700 METAR LMML NIL=
201112220645 METAR LMML 220645Z 30012KT 9999 SCT042 SCT120 10/03 Q1012
                        NOSIG=
201112220630 METAR LMML NIL=
201112220615 METAR LMML 220615Z 31013KT 9999 SCT042 10/03 Q1011 NOSIG=
201112220600 METAR LMML NIL=
201112220545 METAR LMML 220545Z 31012KT 9999 FEW042 10/03 Q1011 NOSIG=
201112220530 METAR LMML NIL=
201112220515 METAR LMML 220515Z 31011KT 9999 FEW042 09/03 Q1011 NOSIG=
201112220500 METAR LMML NIL=
201112220445 METAR LMML 220445Z 30010KT 9999 FEW042 09/04 Q1011 NOSIG=
201112220430 METAR LMML NIL=
201112220415 METAR LMML 220415Z 31012KT 9999 FEW042 09/03 Q1011 NOSIG=
201112220400 METAR LMML NIL=
201112220345 METAR LMML 220345Z 30011KT 9999 FEW042 09/03 Q1011 NOSIG=
201112220330 METAR LMML NIL=
201112220315 METAR LMML 220315Z 30012KT 9999 FEW042 09/03 Q1011 NOSIG=
201112220300 METAR LMML NIL=
201112220245 METAR LMML 220245Z 30011KT 9999 FEW044 10/03 Q1011 NOSIG=
201112220230 METAR LMML NIL=
201112220215 METAR LMML 220215Z 30010KT 9999 FEW042 10/04 Q1011 NOSIG=
201112220200 METAR LMML NIL=
201112220145 METAR LMML 220145Z 31015KT 9999 SCT043 10/03 Q1012 NOSIG=
201112220130 METAR LMML NIL=
201112220115 METAR LMML 220115Z 31012KT 9999 FEW045 10/03 Q1012 NOSIG=
201112220100 METAR LMML NIL=
201112220045 METAR LMML 220045Z 31013KT 280V350 9999 FEW045 10/03 Q1011
                        NOSIG=
201112220030 METAR LMML NIL=
201112220015 METAR LMML 220015Z 31011KT 280V340 9999 FEW044 10/03 Q1011
                        NOSIG=
201112220000 METAR LMML NIL=
201112212345 METAR LMML 212345Z 31015KT 9999 FEW043 10/03 Q1011 NOSIG=
201112212330 METAR LMML NIL=
201112212315 METAR LMML 212315Z 31015KT 9999 SCT043 10/03 Q1012 NOSIG=
201112212300 METAR LMML NIL=
201112212245 METAR LMML 212245Z 31016KT 9999 FEW042 10/03 Q1012 NOSIG=
201112212230 METAR LMML NIL=
201112212215 METAR LMML 212215Z 31017KT 9999 FEW044 11/02 Q1012 NOSIG=
201112212200 METAR LMML NIL=
201112212145 METAR LMML 212145Z 32015KT 9999 FEW043 10/03 Q1011 NOSIG=
201112212130 METAR LMML NIL=
201112212115 METAR LMML 212115Z 32013KT 290V350 9999 SCT043 10/03 Q1011
                        NOSIG=
201112212045 METAR LMML 212045Z 33018KT 9999 SCT043 11/03 Q1011 NOSIG=
201112212030 METAR LMML NIL=
201112212015 METAR LMML 212015Z 32018KT 290V350 9999 SCT042 SCT050 11/03
                        Q1011 NOSIG=
201112212000 METAR LMML NIL=
201112211945 METAR LMML 211945Z 32017G29KT 9999 SCT043 11/03 Q1011 NOSIG=
201112211930 METAR LMML NIL=
201112211915 METAR LMML 211915Z 32020G31KT 290V350 9999 BKN042 11/03 Q1011
                        NOSIG=
201112211900 METAR LMML NIL=
201112211845 METAR LMML 211845Z 32018G28KT 9999 BKN043 11/03 Q1010 NOSIG=
201112211830 METAR LMML NIL=
201112211815 METAR LMML 211815Z 32019G32KT 9999 BKN042 11/03 Q1010 NOSIG=
201112211800 METAR LMML NIL=
201112211745 METAR LMML 211745Z 32018KT 9999 SCT038 11/04 Q1009 NOSIG=
201112211730 METAR LMML NIL=
201112211715 METAR LMML 211715Z 31021G32KT 9999 SCT039 11/04 Q1009 NOSIG=
201112211700 METAR LMML NIL=
201112211645 METAR LMML 211645Z 31022KT 9999 SCT037 11/05 Q1008 NOSIG=
201112211630 METAR LMML NIL=
201112211615 METAR LMML 211615Z 31018KT 9999 SCT032 11/05 Q1008 NOSIG=
201112211600 METAR LMML NIL=
201112211545 METAR LMML 211545Z 31023KT 9999 SCT032 SCT250 11/06 Q1008
                        NOSIG=
201112211530 METAR LMML NIL=
201112211515 METAR LMML 211515Z 30023G36KT 260V320 9999 SCT033 SCT140
                        12/05 Q1007 NOSIG=
201112211500 METAR LMML NIL=
201112211445 METAR LMML 211445Z 29022G34KT 260V320 9999 SCT029 12/06 Q1008
                        NOSIG=
201112211430 METAR LMML NIL=
201112211415 METAR LMML 211415Z 30023KT 9999 SCT035 12/06 Q1008 NOSIG=
201112211400 METAR LMML NIL=
201112211345 METAR COR LMML 211345Z 30024KT 9999 SCT032 12/06 Q1007 NOSIG=
201112211330 METAR LMML NIL=
201112211315 METAR LMML 211315Z 29025KT 9999 SCT031 13/07 Q1007 NOSIG=
201112211300 METAR LMML NIL=
201112211245 METAR LMML 211245Z 29024KT 260V320 9999 SCT031 12/07 Q1007
                        NOSIG=
201112211230 METAR LMML NIL=
201112211215 METAR LMML 211215Z 28024KT 9999 SCT031 SCT140 12/07 Q1008
                        NOSIG=
201112211200 METAR LMML NIL=
201112211145 METAR COR LMML 211145Z 28022G32KT 9999 SCT033 BKN100 12/07
                        Q1008 NOSIG=
201112211130 METAR LMML NIL=
201112211115 METAR LMML 211115Z 25016KT 200V280 9999 BKN024TCU SCT050
                        11/08 Q1008 NOSIG=
201112211045 METAR LMML 211045Z 28018KT 240V310 7000 SHRA BKN027TCU BKN050
                        11/08 Q1009 TEMPO 5000 BKN015TCU=
201112211030 METAR LMML NIL=
201112211015 METAR LMML 211015Z 24013KT 200V280 7000 SHRA BKN022 BKN100
                        11/09 Q1008 TEMPO 5000 SHRA BKN015TCU=
201112211000 METAR LMML NIL=
201112210945 METAR LMML 210945Z 24014KT 210V280 6000 FEW009 BKN029 09/08
                        Q1009 TEMPO 5000 SHRA BKN015TCU=
201112210931 SPECI LMML 210931Z 26013G24KT 220V290 8000 FEW007 BKN016
                        09/07 Q1009 TEMPO 2000 TSRA BKN005
                        BKN015CB=
201112210915 METAR LMML 210915Z 29026G36KT 250V320 2500 SHRA BKN022 10/08
                        Q1010 TEMPO 2000 TSRA BKN005 BKN015CB=
201112210900 METAR LMML NIL=
201112210900 SPECI LMML 210900Z 25026G38KT 210V290 4000 BKN022 BKN029
                        13/09 Q1010 TEMPO 2000 TSRA BKN005
                        BKN015CB=
201112210845 METAR LMML 210845Z 24025G40KT 200V280 9999 BKN022 BKN100
                        13/09 Q1009 TEMPO 2000 TSRA BKN005
                        BKN015CB=
201112210830 METAR LMML NIL=
201112210815 METAR LMML 210815Z 24025G41KT 200V280 9999 BKN025 BKN100
                        13/08 Q1009 TEMPO 5000 SHRA BKN005
                        BKN015TCU=
201112210800 METAR LMML NIL=
201112210745 METAR LMML 210745Z 25020KT 210V280 9999 BKN021 BKN100 12/08
                        Q1009 TEMPO 5000 SHRA BKN005 BKN015TCU=
201112210730 METAR LMML NIL=
201112210715 METAR LMML 210715Z 24021G31KT 200V280 9999 SCT017 BKN022
                        BKN100 12/09 Q1010 NOSIG=
201112210700 METAR LMML NIL=
201112210645 METAR LMML 210645Z 27013G24KT 250V310 6000 SHRA SCT007 BKN020
                        BKN050 10/09 Q1010 NOSIG=
201112210630 SPECI LMML 210630Z 28013G24KT 220V320 2500 SHRA SCT013 BKN035
                        BKN050 10/09 Q1011 NOSIG=
201112210615 METAR LMML 210615Z 28023G38KT 210V300 6000 SHRA FEW013 BKN035
                        BKN050 10/08 Q1011 NOSIG=
201112210545 METAR LMML 210545Z 24023KT 210V280 9999 SCT029 BKN050 13/08
                        Q1011 TEMPO 5000 SHRA BKN015TCU=
201112210530 METAR LMML NIL=
201112210515 METAR LMML 210515Z 24024G34KT 210V270 9999 SCT034 BKN060
                        13/07 Q1010 TEMPO 5000 SHRA BKN015TCU=
201112210445 METAR LMML 210445Z 24025KT 200V280 9999 FEW033 SCT060 BKN120
                        13/07 Q1011 TEMPO 5000 SHRA BKN015TCU=
201112210430 METAR LMML NIL=
201112210415 METAR LMML 210415Z 24021G32KT 210V270 9999 FEW028 SCT060
                        BKN120 13/07 Q1011 TEMPO 5000 SHRA
                        BKN015TCU=
201112210400 METAR LMML NIL=
201112210345 METAR LMML 210345Z 24017G27KT 200V280 9999 -SHRA SCT024 SCT050
                        BKN120 12/09 Q1012 RESHRA TEMPO 5000
                        SHRA BKN015TCU=
201112210330 METAR LMML NIL=
201112210315 METAR LMML 210315Z 26022G35KT 210V300 9999 SCT021 SCT060
                        BKN120 12/08 Q1013 RESHRA TEMPO 5000
                        SHRA BKN015TCU=
201112210300 METAR LMML NIL=
201112210245 METAR LMML 210245Z 25023G37KT 210V290 9000 SHRA SCT018 SCT060
                        BKN120 12/09 Q1013 TEMPO 5000 SHRA
                        BKN015TCU=
201112210230 METAR LMML NIL=
201112210215 METAR LMML 210215Z 24019G30KT 200V280 9999 FEW033 SCT060
                        BKN120 13/07 Q1013 TEMPO 5000 SHRA
                        BKN015TCU=
201112210200 METAR LMML NIL=
201112210145 METAR LMML 210145Z 24016KT 200V290 9999 FEW031 SCT050 13/07
                        Q1014 TEMPO 5000 SHRA BKN015TCU=
201112210130 METAR LMML NIL=
201112210115 METAR LMML 210115Z 25018KT 210V300 9999 SCT030 BKN050 13/07
                        Q1015 TEMPO 5000 SHRA BKN015TCU=
201112210100 METAR LMML NIL=
201112210045 METAR LMML 210045Z 23010G23KT 190V280 9999 SCT018 BKN050
                        12/09 Q1015 RESH TEMPO 5000 SHRA
                        BKN015TCU=
201112210030 METAR LMML NIL=
201112210015 METAR LMML 210015Z 22006KT 180V260 7000 SHRA BKN017 BKN050
                        11/09 Q1016 TEMPO 5000 SHRA BKN015=
201112210000 METAR LMML NIL=
201112202345 METAR LMML 202345Z 21007KT 180V260 9999 -SHRA SCT019 SCT050
                        10/08 Q1016 TEMPO 6000 SHRA BKN015=
201112202330 METAR LMML NIL=
201112202315 METAR LMML 202315Z 25011KT 200V280 9000 -SHRA SCT015 BKN050
                        11/08 Q1017 TEMPO 6000 SHRA BKN015=
201112202300 METAR LMML NIL=
201112202245 METAR LMML 202245Z 27008KT 230V300 9999 SCT025 11/05 Q1017
                        NOSIG=
201112202230 METAR LMML NIL=
201112202215 METAR LMML 202215Z 25004KT 210V280 9999 FEW036 09/05 Q1018
                        NOSIG=
201112202200 METAR LMML NIL=
201112202145 METAR LMML 202145Z 27005KT 9999 SCT040 09/05 Q1018 NOSIG=
201112202130 METAR LMML NIL=
201112202115 METAR LMML 202115Z 29005KT 250V320 9999 FEW040 SCT060 09/05
                        Q1018 NOSIG=
201112202100 METAR LMML NIL=
201112202045 METAR LMML 202045Z 28004KT 230V320 9999 FEW040 SCT060 09/05
                        Q1019 NOSIG=
201112202030 METAR LMML NIL=
201112202015 METAR LMML 202015Z 29004KT 9999 FEW035 SCT060 09/05 Q1019
                        NOSIG=
201112201945 METAR LMML 201945Z 31007KT 9999 FEW035 SCT060 09/05 Q1019
                        NOSIG=
201112201930 METAR LMML NIL=
201112201915 METAR LMML 201915Z 29009KT 260V330 9999 FEW035 SCT060 11/04
                        Q1019 NOSIG=
201112201900 METAR LMML NIL=
201112201845 METAR LMML 201845Z 29005KT 9999 FEW035 SCT060 10/04 Q1019
                        NOSIG=
201112201830 METAR LMML NIL=
201112201815 METAR LMML 201815Z 31008KT 9999 -RA FEW038 BKN060 10/05 Q1019
                        NOSIG=
201112201800 METAR LMML NIL=
201112201745 METAR LMML 201745Z 30007KT 9999 FEW035 BKN060 BKN250 10/04
                        Q1019 NOSIG=
201112201730 METAR LMML NIL=
201112201715 METAR LMML 201715Z 30007KT 9999 FEW040 SCT060 BKN250 10/04
                        Q1018 NOSIG=
201112201700 METAR LMML NIL=
201112201645 METAR LMML 201645Z 32009KT 9999 FEW040 SCT060 BKN250 10/05
                        Q1018 NOSIG=
201112201630 METAR LMML NIL=
201112201615 METAR LMML 201615Z 30009KT 260V320 9999 SCT040 BKN250 11/04
                        Q1018 NOSIG=
201112201600 METAR LMML NIL=
201112201545 METAR LMML 201545Z 31009KT 9999 SCT040 SCT060 BKN250 10/05
                        Q1018 NOSIG=
201112201530 METAR LMML NIL=
201112201515 METAR LMML 201515Z 31008KT 9999 FEW038 SCT050 BKN250 10/05
                        Q1018 NOSIG=
201112201445 METAR LMML 201445Z 32008KT 290V350 9999 FEW034 BKN050 11/06
                        Q1018 NOSIG=
201112201430 METAR LMML NIL=
201112201415 METAR LMML 201415Z 31013KT 9999 FEW035 BKN050 11/05 Q1018
                        NOSIG=
201112201400 METAR LMML NIL=
201112201345 METAR LMML 201345Z 30009KT 270V330 9999 FEW035 BKN060 11/06
                        Q1018 NOSIG=
201112201330 METAR LMML NIL=
201112201315 METAR LMML 201315Z 32010KT 290V350 9999 FEW035 SCT060 12/06
                        Q1018 NOSIG=
201112201300 METAR LMML NIL=
201112201245 METAR LMML 201245Z 29015KT 9999 FEW042 SCT051 SCT067 12/05
                        Q1018=
201112201230 METAR LMML NIL=
201112201215 METAR LMML 201215Z 30015G25KT 9999 BKN040 BKN060 12/05 Q1018
                        NOSIG=
201112201200 METAR LMML NIL=
201112201145 METAR LMML 201145Z 30012KT 270V340 9999 BKN038 BKN060 12/05
                        Q1018 NOSIG=
201112201115 METAR LMML 201115Z 31016KT 260V330 9999 FEW038 SCT060 12/05
                        Q1018 NOSIG=
201112201100 METAR LMML NIL=
201112201045 METAR LMML 201045Z 31014KT 290V350 9999 FEW036 12/06 Q1018
                        NOSIG=
201112201030 METAR LMML NIL=
201112201015 METAR LMML 201015Z 32014KT 290V350 9999 FEW030 11/06 Q1018
                        NOSIG=
201112201000 METAR LMML NIL=
201112200945 METAR LMML 200945Z 32012KT 9999 FEW047 11/06 Q1019 NOSIG=
201112200930 METAR LMML NIL=
201112200915 METAR LMML 200915Z 30014KT 260V360 9999 BKN036 12/06 Q1019
                        TEMPO 8000 SHRA=
201112200900 METAR LMML NIL=
201112200845 METAR LMML 200845Z 30009KT 9999 BKN030 11/07 Q1018 TEMPO
                        8000 SHRA=
201112200830 METAR LMML NIL=
201112200815 METAR LMML 200815Z 28008KT 250V320 9999 SCT030 10/07 Q1018
                        TEMPO 8000 SHRA=
201112200800 METAR LMML NIL=
201112200730 METAR LMML NIL=
201112200715 METAR LMML 200715Z 31016KT 270V330 9999 BKN024 09/05 Q1018
                        TEMPO 8000 SHRA=
201112200700 METAR LMML NIL=
201112200645 METAR LMML 200645Z 28013KT 240V310 9000 -SHRA BKN032 11/06
                        Q1017 TEMPO 9999=
201112200630 METAR LMML NIL=
201112200615 METAR LMML 200615Z 28017G28KT 250V320 9999 SCT030 10/06 Q1017
                        TEMPO 8000 SHRA=
201112200600 METAR LMML NIL=
201112200545 METAR LMML 200545Z 33006KT 290V010 9999 -SHRA BKN025 SCT048
                        08/06 Q1017 BECMG 7000 SHRA=
201112200530 METAR LMML NIL=
201112200515 METAR LMML 200515Z 28014KT 250V310 9999 FEW034 SCT110 10/05
                        Q1017 NOSIG=
201112200500 METAR LMML NIL=
201112200445 METAR LMML 200445Z 30007KT 250V320 9999 FEW034 SCT110 08/06
                        Q1016 NOSIG=
201112200430 METAR LMML NIL=
201112200415 METAR LMML 200415Z 33005KT 280V350 9999 FEW035 SCT049 08/06
                        Q1016 NOSIG=
201112200400 METAR LMML NIL=
201112200345 METAR LMML 200345Z 32006KT 9999 FEW023 SCT050 08/06 Q1016
                        NOSIG=
201112200330 METAR LMML NIL=
201112200315 METAR LMML 200315Z 31013KT 9999 FEW033 08/05 Q1016 NOSIG=
201112200300 METAR LMML NIL=
201112200245 METAR LMML 200245Z 27014KT 220V310 9000 -SHRA FEW037 SCT080
                        09/05 Q1017 NOSIG=
201112200230 METAR LMML NIL=
201112200215 METAR LMML 200215Z 30008KT 9999 FEW037 09/04 Q1016 NOSIG=
201112200200 METAR LMML NIL=
201112200145 METAR LMML 200145Z 29012KT 260V320 9999 -SHRA FEW037 SCT045
                        10/04 Q1017 NOSIG=
201112200130 METAR LMML NIL=
201112200115 METAR LMML 200115Z 29010KT 260V320 9999 FEW025 09/04 Q1017
                        NOSIG=
201112200100 METAR LMML NIL=
201112200045 METAR LMML 200045Z 30006KT 9999 FEW030 08/04 Q1017 NOSIG=
201112200030 METAR LMML NIL=
201112200015 METAR LMML 200015Z 30005KT 9999 FEW035 07/04 Q1017 NOSIG=
201112200000 METAR LMML NIL=
201112192345 METAR LMML 192345Z 32011KT 9999 FEW037 08/05 Q1017 NOSIG=
201112192330 METAR LMML NIL=
201112192315 METAR COR LMML 192315Z 29012KT 9999 FEW040 09/03 Q1017 NOSIG=
201112192300 METAR LMML NIL=
201112192245 METAR LMML 192245Z 30010KT 9999 FEW037 09/04 Q1017 RESHRA
                        NOSIG=
201112192230 METAR LMML NIL=
201112192215 METAR LMML 192215Z 29011KT 9999 SCT025 SCT080 09/05 Q1017
                        RESHRA NOSIG=
201112192200 METAR LMML NIL=
201112192145 METAR LMML 192145Z 30013KT 260V330 8000 SHRA BKN025 07/05
                        Q1017 BECMG 9999=
201112192130 METAR LMML NIL=
201112192115 METAR LMML 192115Z 29010KT 260V320 9999 FEW034 09/04 Q1016
                        NOSIG=
201112192100 METAR LMML NIL=
201112192045 METAR LMML 192045Z 28010KT 240V310 9999 FEW024 09/04 Q1016
                        NOSIG=
201112192030 METAR LMML NIL=
201112192015 METAR LMML 192015Z 28008KT 250V310 9999 FEW024 08/05 Q1016
                        NOSIG=
201112191945 METAR LMML 191945Z 30010KT 9999 BKN024 08/05 Q1016 RESHRA
                        NOSIG=
201112191930 METAR LMML NIL=
201112191915 METAR LMML 191915Z 31020G30KT 9000 SHRA BKN024 08/05 Q1016
                        RESHRA NOSIG=
201112191902 SPECI LMML 191902Z 29013G39KT 240V330 5000 SHRA BKN024 08/05
                        Q1017 NOSIG=
201112191900 METAR LMML NIL=
201112191845 METAR LMML 191845Z 31011KT 9999 SCT024 08/05 Q1016 TEMPO
                        6000 SHRA=
201112191830 METAR LMML NIL=
201112191815 METAR LMML 191815Z 31010KT 9999 BKN028 09/06 Q1016 TEMPO
                        6000 SHRA=
201112191800 METAR LMML NIL=
201112191745 METAR LMML 191745Z 30008KT 9999 SCT027 08/06 Q1015 RESH TEMPO
                        6000 SHRA=
201112191730 METAR LMML NIL=
201112191715 METAR LMML 191715Z 29012G24KT 6000 SHRA BKN028 08/05 Q1015
                        BECMG 9999 NSW=
201112191700 METAR LMML NIL=
201112191645 METAR LMML 191645Z 27014KT 230V300 9999 BKN038 11/03 Q1014
                        TEMPO 6000 SHRA BKN015TCU=
201112191630 METAR LMML NIL=
201112191615 METAR LMML 191615Z 28010KT 9999 -SHRA BKN031 10/05 Q1014
                        TEMPO 6000 SHRA BKN015TCU=
201112191600 METAR LMML NIL=
201112191545 METAR LMML 191545Z 28014KT 9999 SCT037 11/04 Q1014 NOSIG=
201112191530 METAR LMML NIL=
201112191515 METAR LMML 191515Z 28013KT 250V310 9999 SCT036 11/04 Q1014
                        NOSIG=
201112191445 METAR LMML 191445Z 27012KT 230V330 9999 SCT038 11/04 Q1014
                        NOSIG=
201112191430 METAR LMML NIL=
201112191415 METAR LMML 191415Z 28016KT 9999 SCT035 11/04 Q1014 NOSIG=
201112191345 METAR LMML 191345Z 28015KT 240V310 9999 FEW041 FEW047 FEW051
                        12/05 Q1014 TEMPO 5000 SHRA BKN018TCU=
201112191330 METAR LMML NIL=
201112191315 METAR LMML 191315Z 28020KT 250V310 9999 SCT035 12/05 Q1014
                        TEMPO 5000 SHRA BKN018TCU=
201112191300 METAR LMML NIL=
201112191245 METAR LMML 191245Z 28013KT 250V310 9999 SCT035TCU SCT250
                        12/06 Q1014 TEMPO 5000 SHRA BKN018TCU=
201112191230 METAR LMML NIL=
201112191215 METAR LMML 191215Z 28014KT 230V310 9999 SCT035 SCT250 13/06
                        Q1014 TEMPO 5000 SHRA BKN018TCU=
201112191145 METAR LMML 191145Z 24007KT 200V280 9999 BKN035 SCT250 10/06
                        Q1014 TEMPO 5000 SHRA BKN018TCU=
201112191115 METAR LMML 191115Z 29009KT 9999 SCT032 BKN250 11/06 Q1014
                        TEMPO 5000 SHRA BKN018TCU=
201112191100 METAR LMML NIL=
201112191045 METAR LMML 191045Z 29014KT 260V320 9999 -SHRA SCT030 BKN250
                        12/06 Q1015 TEMPO 5000 SHRA BKN018TCU=
201112191030 METAR LMML NIL=
201112191015 METAR LMML 191015Z 31009KT 9999 SCT021 BKN250 12/08 Q1015
                        TEMPO 5000 SHRA BKN018TCU=
201112191000 METAR LMML NIL=
201112190945 METAR LMML 190945Z 32012KT 9000 -SHRA SCT022 SCT120 BKN250
                        11/08 Q1016 TEMPO 5000 SHRA BKN018TCU=
201112190930 METAR LMML NIL=
201112190915 METAR LMML 190915Z 31014KT 9999 SCT020 BKN250 11/07 Q1015
                        TEMPO 5000 SHRA BKN018TCU RMK CB
                        TO NORTHWEST=
201112190845 METAR LMML 190845Z 30005KT 270V330 9999 FEW035 SCT070 BKN120
                        12/07 Q1015 TEMPO 5000 SHRA BKN018TCU=
201112190815 METAR LMML 190815Z 28008KT 9999 SCT025 BKN250 12/06 Q1015
                        TEMPO 5000 SHRA BKN018TCU=
201112190800 METAR LMML NIL=
201112190745 METAR LMML 190745Z 29003KT 9999 SCT025 BKN250 11/08 Q1015
                        TEMPO 5000 SHRA BKN018TCU=
201112190730 METAR LMML NIL=
201112190715 METAR LMML 190715Z 31006KT 9999 FEW025 SCT070 10/07 Q1015
                        RESH TEMPO 5000 SHRA BKN018TCU=
201112190645 METAR LMML 190645Z 27010KT 230V290 7000 -SHRA SCT027 BKN070
                        10/07 Q1015 RESH TEMPO 5000 SHRA
                        BKN018TCU=
201112190630 METAR LMML NIL=
201112190615 METAR LMML 190615Z 26004KT 9999 SCT025 BKN070 09/06 Q1014
                        TEMPO 9000 SHRA=
201112190545 METAR LMML 190545Z 28005KT 9999 FEW025 SCT070 BKN250 09/06
                        Q1014 TEMPO 9000 SHRA=
201112190530 METAR LMML NIL=
201112190515 METAR COR LMML 190515Z 24003KT 9999 SCT030 09/07 Q1014 TEMPO
                        9000 SHRA=
201112190500 METAR LMML NIL=
201112190445 METAR LMML 190445Z 29004KT 230V310 9999 SCT036 09/07 Q1014
                        TEMPO 9000 SHRA=
201112190430 METAR LMML NIL=
201112190415 METAR LMML 190415Z 22005KT 200V270 9999 SHRA BKN025 SCT050
                        10/08 Q1014 NOSIG=
201112190400 METAR LMML NIL=
201112190345 METAR LMML 190345Z 25003KT 9999 SCT035 SCT070 10/07 Q1013
                        NOSIG=
201112190330 METAR LMML NIL=
201112190315 METAR LMML 190315Z 31003KT 9999 SCT039 SCT070 10/07 Q1013
                        NOSIG=
201112190300 METAR LMML NIL=
201112190245 METAR LMML 190245Z 30005KT 9999 SCT036 09/06 Q1014 NOSIG=
201112190230 METAR LMML NIL=
201112190215 METAR LMML 190215Z 28005KT 250V310 9999 SCT035 10/05 Q1013
                        NOSIG=
201112190200 METAR LMML NIL=
201112190145 METAR LMML 190145Z 28007KT 9999 FEW037 SCT050 10/07 Q1014
                        NOSIG=
201112190130 METAR LMML NIL=
201112190115 METAR LMML 190115Z 29006KT 9999 FEW033 SCT050 10/06 Q1013
                        NOSIG=
201112190100 METAR LMML NIL=
201112190045 METAR LMML 190045Z 27006KT 230V300 9999 FEW039 10/06 Q1013
                        NOSIG=
201112190030 METAR LMML NIL=
201112190015 METAR LMML 190015Z 27006KT 9999 FEW030 10/06 Q1013 NOSIG=
201112182345 METAR LMML 182345Z 27006KT 9999 FEW030 10/06 Q1013 NOSIG=
201112182330 METAR LMML NIL=
201112182315 METAR LMML 182315Z 27006KT 240V300 9999 FEW030 10/06 Q1014
                        NOSIG=
201112182300 METAR LMML NIL=
201112182245 METAR LMML 182245Z 28007KT 9999 FEW030 10/06 Q1014 RERA NOSIG=
201112182215 METAR LMML 182215Z 28003KT 9999 FEW033 10/07 Q1014 RERA NOSIG=
201112182145 METAR LMML 182145Z 27006KT 240V300 9999 FEW033 10/07 Q1014
                        NOSIG=
201112182130 METAR LMML NIL=
201112182115 METAR LMML 182115Z 26004KT 230V290 9999 FEW038 09/07 Q1014
                        NOSIG=
201112182100 METAR LMML NIL=
201112182045 METAR LMML 182045Z 29003KT 9999 FEW038 10/07 Q1013 NOSIG=
201112182030 METAR LMML NIL=
201112182015 METAR LMML 182015Z 29006KT 9999 FEW038 SCT060 10/07 Q1014
                        TEMPO 8000 SHRA=
201112182000 METAR LMML NIL=
201112181945 METAR LMML 181945Z 29005KT 9999 FEW040 SCT060 10/08 Q1014
                        TEMPO 8000 SHRA=
201112181930 METAR LMML NIL=
201112181915 METAR LMML 181915Z 33005KT 9999 FEW040 SCT060 10/08 Q1013
                        NOSIG=
201112181900 METAR LMML NIL=
201112181845 METAR LMML 181845Z 32009KT 9999 FEW041 SCT060 10/08 Q1013
                        NOSIG=
201112181830 METAR LMML NIL=
201112181815 METAR LMML 181815Z 29007KT 250V320 9999 FEW020 11/07 Q1013
                        NOSIG=
201112181745 METAR LMML 181745Z 26004KT 230V290 9999 FEW020 10/07 Q1012
                        NOSIG=
201112181730 METAR LMML NIL=
201112181715 METAR LMML 181715Z 22003KT 9999 FEW026 11/08 Q1012 TEMPO
                        SHRA=
201112181700 METAR LMML NIL=
201112181645 METAR LMML 181645Z 31003KT 9999 SCT026 11/07 Q1012 TEMPO
                        SHRA=
201112181630 METAR LMML NIL=
201112181615 METAR LMML 181615Z 26003KT 9999 SCT026 11/08 Q1012 RESHRA
                        TEMPO SHRA=
201112181600 METAR LMML NIL=
201112181545 METAR LMML 181545Z VRB01KT 9999 BKN026TCU 11/08 Q1012 RESHRA
                        TEMPO SHRA=
201112181530 METAR LMML NIL=
201112181515 METAR LMML 181515Z VRB02KT 9999 SCT030 13/08 Q1011 TEMPO
                        SHRA=
201112181500 METAR LMML NIL=
201112181445 METAR LMML 181445Z 31003KT 9999 SCT025 13/08 Q1011 NOSIG=
201112181430 METAR LMML NIL=
201112181415 METAR LMML 181415Z 33004KT 300V360 9999 FEW025TCU 14/08 Q1011
                        NOSIG=
201112181400 METAR LMML NIL=
201112181345 METAR LMML 181345Z 35006KT 9999 FEW025 SCT120 14/08 Q1011
                        NOSIG=
201112181330 METAR LMML NIL=
201112181315 METAR LMML 181315Z 33007KT 9999 FEW025TCU BKN120 13/08 Q1011
                        NOSIG=
201112181300 METAR LMML NIL=
201112181245 METAR LMML 181245Z 33008KT 9999 FEW025 SCT041 BKN120 13/09
                        Q1012 NOSIG=
201112181230 METAR LMML NIL=
201112181215 METAR LMML 181215Z 32010KT 9999 FEW024 SCT042 BKN120 13/08
                        Q1012 NOSIG=
201112181200 METAR LMML NIL=
201112181145 METAR LMML 181145Z 32010KT 9999 FEW024 BKN120 13/08 Q1012
                        NOSIG=
201112181130 METAR LMML NIL=
201112181115 METAR LMML 181115Z 33008KT 9999 FEW024 OVC120 13/08 Q1012
                        TEMPO SHRA=
201112181100 METAR LMML NIL=
201112181045 METAR LMML 181045Z 31008KT 270V340 9999 -SHRA SCT024 SCT070
                        BKN120 13/09 Q1012 TEMPO SHRA=
201112181030 METAR LMML NIL=
201112181015 METAR LMML 181015Z 33003KT 9999 FEW025 SCT070 BKN120 14/09
                        Q1012 TEMPO SHRA=
201112181000 METAR LMML NIL=
201112180945 METAR LMML 180945Z 36005KT 9999 FEW025 SCT070 BKN120 13/09
                        Q1012 TEMPO SHRA=
201112180930 METAR LMML NIL=
201112180915 METAR LMML 180915Z 36005KT 9999 FEW025 SCT070 BKN120 13/10
                        Q1012 TEMPO SHRA=
201112180900 METAR LMML NIL=
201112180845 METAR LMML 180845Z 32008KT 9999 FEW025 SCT070 BKN120 13/09
                        Q1013 TEMPO SHRA=
201112180830 METAR LMML NIL=
201112180815 METAR LMML 180815Z 31004KT 270V350 9999 SCT025 SCT060 BKN120
                        13/09 Q1012 TEMPO SHRA=
201112180800 METAR LMML NIL=
201112180745 METAR LMML 180745Z VRB02KT 9999 SCT030 BKN060 BKN120 13/10
                        Q1012 TEMPO SHRA=
201112180730 METAR LMML NIL=
201112180715 METAR LMML 180715Z VRB02KT 9999 FEW030 BKN060 BKN080 12/09
                        Q1012 NOSIG=
201112180700 METAR LMML NIL=
201112180645 METAR LMML 180645Z VRB02KT 9999 FEW030 BKN050 BKN080 11/09
                        Q1012 NOSIG=
201112180630 METAR LMML NIL=
201112180615 METAR LMML 180615Z VRB02KT 9999 FEW035 SCT060 11/09 Q1011
                        NOSIG=
201112180600 METAR LMML NIL=
201112180545 METAR LMML 180545Z 23003KT 9999 SCT048 BKN120 BKN250 11/09
                        Q1011 NOSIG=
201112180530 METAR LMML NIL=
201112180515 METAR LMML 180515Z VRB01KT 9999 FEW048 BKN120 BKN250 11/09
                        Q1011 NOSIG=
201112180500 METAR LMML NIL=
201112180445 METAR LMML 180445Z VRB01KT 9999 SCT048 BKN120 12/09 Q1011
                        NOSIG=
201112180430 METAR LMML NIL=
201112180415 METAR LMML 180415Z VRB02KT 9999 BKN048 12/09 Q1011 NOSIG=
201112180400 METAR LMML NIL=
201112180345 METAR LMML 180345Z 33004KT 9999 BKN045 12/09 Q1011 NOSIG=
201112180330 METAR LMML NIL=
201112180315 METAR LMML 180315Z 31005KT 9999 SCT036 BKN050 12/09 Q1011
                        NOSIG=
201112180245 METAR LMML 180245Z 33006KT 9999 -RA SCT022 BKN050 12/09 Q1011
                        TEMPO 8000 RA=
201112180230 METAR LMML NIL=
201112180215 METAR LMML 180215Z 34006KT 9999 -RA SCT034 BKN050 13/10 Q1011
                        TEMPO 8000 RA=
201112180200 METAR LMML NIL=
201112180145 METAR LMML 180145Z 29003KT 9999 FEW030 BKN050 BKN100 13/09
                        Q1012 TEMPO 8000 RA=
201112180130 METAR LMML NIL=
201112180115 METAR LMML 180115Z 30006KT 9999 -RA FEW038 BKN060 13/09 Q1012
                        NOSIG=
201112180100 METAR LMML NIL=
201112180045 METAR LMML 180045Z 32008KT 9999 FEW030 BKN070 14/09 Q1012
                        NOSIG=
201112180030 METAR LMML NIL=
201112180015 METAR LMML 180015Z 29008KT 9999 FEW035 BKN070 14/07 Q1011
                        NOSIG=
201112180000 METAR LMML NIL=
201112172345 METAR LMML 172345Z 29006KT 9999 FEW040 BKN080 BKN110 14/08
                        Q1012 NOSIG=
201112172330 METAR LMML NIL=
201112172315 METAR LMML 172315Z 29006KT 9999 FEW040 BKN080 BKN110 14/07
                        Q1012 NOSIG=
201112172245 METAR LMML 172245Z 30005KT 9999 FEW040 BKN080 BKN110 14/07
                        Q1012 NOSIG=
201112172230 METAR LMML NIL=
201112172215 METAR LMML 172215Z 29007KT 9999 FEW040 BKN080 BKN250 14/07
                        Q1012 NOSIG=
201112172200 METAR LMML NIL=
201112172145 METAR LMML 172145Z 29007KT 9999 FEW040 BKN080 BKN100 14/07
                        Q1012 NOSIG=
201112172130 METAR LMML NIL=
201112172115 METAR LMML 172115Z 29007KT 260V320 9999 FEW040 SCT080 BKN100
                        14/06 Q1012 NOSIG=
201112172100 METAR LMML NIL=
201112172045 METAR LMML 172045Z 28007KT 9999 FEW040 SCT080 BKN100 14/07
                        Q1012 NOSIG=
201112172030 METAR LMML NIL=
201112172015 METAR LMML 172015Z 29006KT 9999 FEW040 BKN080 BKN250 14/06
                        Q1012 NOSIG=
201112171945 METAR LMML 171945Z 30007KT CAVOK 14/06 Q1012 NOSIG=
201112171930 METAR LMML NIL=
201112171915 METAR LMML 171915Z 30009KT CAVOK 14/07 Q1012 NOSIG=
201112171900 METAR LMML NIL=
201112171845 METAR LMML 171845Z 29010KT 9999 FEW030 SCT080 BKN250 14/07
                        Q1012 NOSIG=
201112171830 METAR LMML NIL=
201112171815 METAR LMML 171815Z 30011KT 9999 FEW030 BKN080 14/07 Q1011
                        NOSIG=
201112171800 METAR LMML NIL=
201112171745 METAR LMML 171745Z 30010KT 9999 FEW030 BKN090 14/07 Q1012
                        NOSIG=
201112171715 METAR LMML 171715Z 30010KT 280V340 9999 FEW035 BKN080 15/07
                        Q1012 NOSIG=
201112171645 METAR LMML 171645Z 29012KT 260V330 9999 FEW030 BKN110 15/07
                        Q1011 NOSIG=
201112171630 METAR LMML NIL=
201112171615 METAR LMML 171615Z 29013KT 9999 FEW031 BKN110 15/08 Q1011
                        NOSIG=
201112171600 METAR LMML NIL=
201112171545 METAR LMML 171545Z 30009KT 270V330 9999 FEW035 SCT110 15/09
                        Q1011 NOSIG=
201112171530 METAR LMML NIL=
201112171515 METAR LMML 171515Z 28009KT 250V310 9999 FEW037 BKN070 15/09
                        Q1011 NOSIG=
201112171500 METAR LMML NIL=
201112171445 METAR LMML 171445Z 30015KT 9999 FEW020 BKN070 15/06 Q1011
                        NOSIG=
201112171430 METAR LMML NIL=
201112171415 METAR LMML 171415Z 29014KT 250V310 9999 FEW020 BKN070 16/09
                        Q1011 NOSIG=
201112171400 METAR LMML NIL=
201112171345 METAR LMML 171345Z 29013KT 260V320 9999 FEW020 BKN080 16/10
                        Q1010 NOSIG=
201112171330 METAR LMML NIL=
201112171315 METAR LMML 171315Z 29015KT 9999 FEW020 BKN070 16/10 Q1010
                        NOSIG=
201112171300 METAR LMML NIL=
201112171245 METAR LMML 171245Z 29016KT 260V320 9999 FEW018 FEW025 SCT071
                        16/12 Q1010 NOSIG=
201112171230 METAR LMML NIL=
201112171215 METAR LMML 171215Z 28016KT 250V310 9999 FEW018 BKN070 16/12
                        Q1010 NOSIG=
201112171200 METAR LMML NIL=
201112171145 METAR LMML 171145Z 28017KT 9999 FEW021 BKN070 16/12 Q1010
                        NOSIG=
201112171130 METAR LMML NIL=
201112171115 METAR LMML 171115Z 28015KT 250V310 9999 FEW022 BKN060 17/12
                        Q1010 NOSIG=
201112171100 METAR LMML NIL=
201112171045 METAR LMML 171045Z 27016KT 230V300 9999 FEW031 BKN060 17/11
                        Q1011 NOSIG=
201112171030 METAR LMML NIL=
201112171015 METAR LMML 171015Z 28018KT 9999 FEW028 BKN060 17/11 Q1011
                        NOSIG=
201112171000 METAR LMML NIL=
201112170945 METAR LMML 170945Z 28016KT 240V310 9999 FEW028 SCT070 17/11
                        Q1011 NOSIG=
201112170930 METAR LMML NIL=
201112170915 METAR LMML 170915Z 27015KT 230V310 9999 FEW029 BKN250 17/11
                        Q1011 NOSIG=
201112170900 METAR LMML NIL=
201112170845 METAR LMML 170845Z 28015G25KT 240V300 9999 FEW029 BKN250
                        17/11 Q1011 NOSIG=
201112170830 METAR LMML NIL=
201112170815 METAR LMML 170815Z 28016KT 9999 FEW025 BKN250 16/11 Q1011
                        NOSIG=
201112170800 METAR LMML NIL=
201112170745 METAR LMML 170745Z 28015KT 9999 FEW025 BKN250 16/11 Q1011
                        NOSIG=
201112170730 METAR LMML NIL=
201112170715 METAR LMML 170715Z 27011KT 240V310 9999 FEW025 BKN250 16/12
                        Q1011 NOSIG=
201112170700 METAR LMML NIL=
201112170645 METAR LMML 170645Z 27008KT 240V310 9999 FEW025 BKN250 15/11
                        Q1011 NOSIG=
201112170630 METAR LMML NIL=
201112170615 METAR LMML 170615Z 26012KT 230V290 9999 FEW025 BKN250 15/11
                        Q1011 NOSIG=
201112170600 METAR LMML NIL=
201112170545 METAR LMML 170545Z 26011KT 220V290 9999 FEW025 BKN250 15/11
                        Q1011 NOSIG=
201112170530 METAR LMML NIL=
201112170515 METAR LMML 170515Z 25012KT 220V310 9999 FEW025 BKN250 15/11
                        Q1011 NOSIG=
201112170445 METAR LMML 170445Z 25012KT 200V280 9999 FEW025 SCT250 15/11
                        Q1010 NOSIG=
201112170430 METAR LMML NIL=
201112170415 METAR LMML 170415Z 24013KT 200V280 9999 FEW025 BKN250 15/11
                        Q1010 NOSIG=
201112170400 METAR LMML NIL=
201112170345 METAR LMML 170345Z 24017KT 200V280 9999 FEW025 BKN250 16/10
                        Q1010 NOSIG=
201112170330 METAR LMML NIL=
201112170315 METAR LMML 170315Z 24017KT 200V280 9999 FEW025 BKN250 16/10
                        Q1011 NOSIG=
201112170245 METAR LMML 170245Z 23016KT 190V280 9999 FEW025 BKN250 16/11
                        Q1011 NOSIG=
201112170230 METAR LMML NIL=
201112170215 METAR LMML 170215Z 23016KT 190V280 CAVOK 16/10 Q1011 NOSIG=
201112170200 METAR LMML NIL=
201112170145 METAR LMML 170145Z 23018KT 200V270 9999 FEW025 BKN250 16/10
                        Q1012 NOSIG=
201112170130 METAR LMML NIL=
201112170115 METAR LMML 170115Z 23017KT 200V260 9999 FEW025 BKN250 16/11
                        Q1012 NOSIG=
201112170100 METAR LMML NIL=
201112170045 METAR LMML 170045Z 23016KT 190V280 9999 FEW025 SCT120 16/12
                        Q1013 NOSIG=
201112170030 METAR LMML NIL=
201112170015 METAR LMML 170015Z 23017KT 200V270 9999 FEW021 SCT250 16/12
                        Q1013 NOSIG=
201112170000 METAR LMML NIL=
201112162345 METAR LMML 162345Z 23018KT 200V270 9999 SCT020 SCT250 16/12
                        Q1014 NOSIG=
201112162330 METAR LMML NIL=
201112162315 METAR LMML 162315Z 23017KT 200V270 9999 FEW022 SCT250 16/12
                        Q1014 NOSIG=
201112162300 METAR LMML NIL=
201112162245 METAR LMML 162245Z 23015KT 200V270 9999 FEW026 SCT250 16/11
                        Q1015 NOSIG=
201112162230 METAR LMML NIL=
201112162215 METAR LMML 162215Z 24017KT 200V290 9999 FEW021 SCT250 16/11
                        Q1015 NOSIG=
201112162200 METAR LMML NIL=
201112162145 METAR LMML 162145Z 23013G23KT 190V290 9999 FEW021 SCT250
                        15/11 Q1016 NOSIG=
201112162130 METAR LMML NIL=
201112162115 METAR LMML 162115Z 23014KT 200V290 9999 SCT021 SCT250 15/11
                        Q1016 NOSIG=
201112162045 METAR LMML 162045Z 23012KT 190V280 9999 SCT023 SCT250 15/11
                        Q1017 NOSIG=
201112162030 METAR LMML NIL=
201112162015 METAR LMML 162015Z 23013KT 190V280 9999 SCT022 SCT250 15/10
                        Q1017 NOSIG=
201112162000 METAR LMML NIL=
201112161945 METAR LMML 161945Z 23011G21KT 190V280 9999 SCT025 SCT250
                        15/10 Q1017 NOSIG=
201112161930 METAR LMML NIL=
201112161915 METAR LMML 161915Z 23011KT 190V280 9999 FEW027 SCT250 15/09
                        Q1017 NOSIG=
201112161900 METAR LMML NIL=
201112161845 METAR LMML 161845Z 24011KT 210V280 9999 FEW027 SCT250 15/09
                        Q1018 NOSIG=
201112161830 METAR LMML NIL=
201112161815 METAR LMML 161815Z 24011KT 200V280 9999 FEW025 SCT250 14/09
                        Q1018 NOSIG=
201112161800 METAR LMML NIL=
201112161745 METAR LMML 161745Z 24010KT 210V290 9999 FEW025 SCT250 14/09
                        Q1018 NOSIG=
201112161730 METAR LMML NIL=
201112161715 METAR LMML 161715Z 24012KT 210V270 9999 FEW025 SCT250 14/08
                        Q1018 NOSIG=
201112161700 METAR LMML NIL=
201112161645 METAR LMML 161645Z 25010KT 210V280 9999 FEW026 SCT250 14/09
                        Q1019 NOSIG=
201112161630 METAR LMML NIL=
201112161615 METAR LMML 161615Z 26012KT 220V300 9999 FEW025 SCT250 15/09
                        Q1019 NOSIG=
201112161600 METAR LMML NIL=
201112161545 METAR LMML 161545Z 25010KT 200V290 9999 FEW028 SCT250 15/10
                        Q1019 NOSIG=
201112161530 METAR LMML NIL=
201112161515 METAR LMML 161515Z 26009KT 210V290 9999 FEW030 15/09 Q1020
                        NOSIG=
201112161500 METAR LMML NIL=
201112161445 METAR LMML 161445Z 26012KT 220V300 9999 FEW030 16/09 Q1020
                        NOSIG=
201112161430 METAR LMML NIL=
201112161415 METAR LMML 161415Z 27010KT 230V310 9999 FEW030 16/08 Q1020
                        NOSIG=
201112161400 METAR LMML NIL=
201112161345 METAR LMML 161345Z 28011KT 230V310 9999 FEW030 16/09 Q1020
                        NOSIG=
201112161330 METAR LMML NIL=
201112161315 METAR LMML 161315Z 28012KT 250V310 9999 FEW031 16/10 Q1020
                        NOSIG=
201112161300 METAR LMML NIL=
201112161245 METAR LMML 161245Z 28011KT 250V310 9999 FEW032 SCT250 17/09
                        Q1021 NOSIG=
201112161230 METAR LMML NIL=
201112161215 METAR LMML 161215Z 29014KT 250V310 9999 FEW029 BKN250 17/10
                        Q1022 NOSIG=
201112161200 METAR LMML NIL=
201112161145 METAR LMML 161145Z 29012KT 260V320 CAVOK 17/10 Q1022=
201112161130 METAR LMML NIL=
201112161115 METAR LMML 161115Z 29010KT 250V320 9999 FEW031 BKN250 17/09
                        Q1023 NOSIG=
201112161100 METAR LMML NIL=
201112161045 METAR LMML 161045Z 29012KT 9999 FEW032 BKN250 17/10 Q1023
                        NOSIG=
201112161030 METAR LMML NIL=
201112161015 METAR LMML 161015Z 29011KT 250V320 9999 FEW032 BKN250 17/09
                        Q1023 NOSIG=
201112161000 METAR LMML NIL=
201112160945 METAR LMML 160945Z 30009KT 270V340 9999 FEW032 17/10 Q1024
                        NOSIG=
201112160930 METAR LMML NIL=
201112160915 METAR LMML 160915Z 31011KT 9999 FEW031 17/10 Q1024 NOSIG=
201112160900 METAR LMML NIL=
201112160845 METAR LMML 160845Z 29010KT 260V320 9999 FEW031 16/10 Q1024
                        NOSIG=
201112160830 METAR LMML NIL=
201112160815 METAR LMML 160815Z 30010KT 9999 FEW031 16/10 Q1024 NOSIG=
201112160800 METAR LMML NIL=
201112160745 METAR COR LMML 160745Z 29006KT 260V320 9999 FEW031 15/10
                        Q1024 NOSIG=
201112160730 METAR LMML NIL=
201112160715 METAR LMML 160715Z 30004KT 270V340 9999 FEW031 14/10 Q1024
                        NOSIG=
201112160645 METAR LMML 160645Z 30007KT 9999 FEW030 13/09 Q1024 NOSIG=
201112160630 METAR LMML NIL=
201112160615 METAR LMML 160615Z 28007KT 9999 FEW028 14/10 Q1023 NOSIG=
201112160600 METAR LMML NIL=
201112160545 METAR LMML 160545Z 29006KT 9999 FEW030 14/10 Q1023 NOSIG=
201112160530 METAR LMML NIL=
201112160515 METAR LMML 160515Z 28005KT 230V310 9999 FEW030 14/10 Q1023
                        NOSIG=
201112160500 METAR LMML NIL=
201112160445 METAR LMML 160445Z 29006KT 250V310 9999 FEW030 14/09 Q1023
                        NOSIG=
201112160430 METAR LMML NIL=
201112160415 METAR LMML 160415Z 28008KT 260V320 9999 FEW030 14/09 Q1023
                        NOSIG=
201112160400 METAR LMML NIL=
201112160345 METAR LMML 160345Z 29007KT 260V320 9999 FEW030 14/10 Q1023
                        NOSIG=
201112160330 METAR LMML NIL=
201112160315 METAR LMML 160315Z 30010KT 9999 FEW034 14/09 Q1023 NOSIG=
201112160300 METAR LMML NIL=
201112160245 METAR LMML 160245Z 30011KT 9999 FEW034 15/10 Q1024 NOSIG=
201112160230 METAR LMML NIL=
201112160215 METAR LMML 160215Z 29008KT 260V320 9999 FEW030 SCT050 15/10
                        Q1024 NOSIG=
201112160200 METAR LMML NIL=
201112160145 METAR LMML 160145Z 30009KT 270V330 9999 FEW023 14/10 Q1024
                        NOSIG=
201112160130 METAR LMML NIL=
201112160115 METAR LMML 160115Z 30009KT 9999 FEW023 15/11 Q1024 NOSIG=
201112160100 METAR LMML NIL=
201112160045 METAR LMML 160045Z 30011KT 9999 FEW023 15/11 Q1024 NOSIG=
201112160030 METAR LMML NIL=
201112160015 METAR LMML 160015Z 29010KT 9999 SCT023 15/11 Q1024 NOSIG=
201112160000 METAR LMML NIL=
201112152345 METAR LMML 152345Z 28009KT 250V320 9999 SCT025 15/11 Q1024
                        NOSIG=
201112152330 METAR LMML NIL=
201112152315 METAR LMML 152315Z 29013KT 9999 FEW023 15/11 Q1024 NOSIG=
201112152300 METAR LMML NIL=
201112152245 METAR LMML 152245Z 28009KT 240V300 9999 FEW023 15/11 Q1024
                        NOSIG=
201112152230 METAR LMML NIL=
201112152215 METAR LMML 152215Z 28009KT 9999 FEW043 15/12 Q1024 NOSIG=
201112152200 METAR LMML NIL=
201112152145 METAR LMML 152145Z 28010KT 9999 FEW020 15/12 Q1025 NOSIG=
201112152130 METAR LMML NIL=
201112152115 METAR LMML 152115Z 28008KT 250V310 9999 FEW020 15/12 Q1025
                        NOSIG=
201112152100 METAR LMML NIL=
201112152045 METAR LMML 152045Z 28008KT 250V310 9999 FEW023 14/11 Q1025
                        NOSIG=
201112152030 METAR LMML NIL=
201112152015 METAR LMML 152015Z 28007KT 250V310 9999 FEW023 14/11 Q1024
                        NOSIG=
201112152000 METAR LMML NIL=
201112151945 METAR LMML 151945Z 28008KT 250V320 9999 FEW023 14/11 Q1025
                        NOSIG=
201112151915 METAR LMML 151915Z 27006KT 9999 FEW023 14/12 Q1025 NOSIG=
201112151900 METAR LMML NIL=
201112151845 METAR LMML 151845Z 26006KT 9999 FEW023 14/11 Q1024 NOSIG=
201112151830 METAR LMML NIL=
201112151815 METAR LMML 151815Z 27006KT 9999 FEW023 14/11 Q1025 NOSIG=
201112151800 METAR LMML NIL=
201112151745 METAR LMML 151745Z 27006KT 9999 FEW023 SCT250 14/10 Q1024
                        NOSIG=
201112151715 METAR LMML 151715Z 26007KT 230V290 9999 FEW023 SCT250 14/10
                        Q1024 NOSIG=
201112151700 METAR LMML NIL=
201112151645 METAR LMML 151645Z 25006KT 220V280 9999 FEW023 SCT250 14/10
                        Q1024 NOSIG=
201112151615 METAR LMML 151615Z 26009KT 210V310 9999 FEW023 SCT250 15/10
                        Q1024 NOSIG=
201112151545 METAR LMML 151545Z 26012KT 230V300 9999 SCT021 BKN250 16/11
                        Q1024 NOSIG=
201112151515 METAR LMML 151515Z 26009KT 230V300 9999 SCT022 BKN250 16/12
                        Q1024 NOSIG=
201112151445 METAR LMML 151445Z 26011KT 220V290 9999 SCT023 BKN250 16/12
                        Q1024 NOSIG=
201112151415 METAR LMML 151415Z 25010KT 210V290 9999 FEW024 16/11 Q1024
                        NOSIG=
201112151345 METAR LMML 151345Z 24010KT 190V290 9999 FEW025 BKN250 17/11
                        Q1024 NOSIG=
201112151315 METAR LMML 151315Z 24010KT 200V300 9999 SCT025 BKN250 17/12
                        Q1024 NOSIG=
201112151245 METAR LMML 151245Z 25011KT 220V290 9999 SCT025 BKN250 17/11
                        Q1024 NOSIG=
201112151215 METAR LMML 151215Z 25011KT 210V280 9999 SCT025 BKN250 18/12
                        Q1024 NOSIG=
201112151145 METAR LMML 151145Z 26011KT 230V290 9999 SCT024 BKN250 18/12
                        Q1025 NOSIG=
201112151115 METAR LMML 151115Z 25011KT 210V290 9999 SCT025 SCT250 17/12
                        Q1025 NOSIG=
201112151045 METAR LMML 151045Z 24010KT 200V280 9999 SCT025 SCT250 18/12
                        Q1025 NOSIG=
201112151015 METAR LMML 151015Z 24011KT 210V280 9999 SCT023 SCT250 17/12
                        Q1026 NOSIG=
201112150945 METAR LMML 150945Z 24009KT 190V290 9999 SCT022 BKN250 17/12
                        Q1026 NOSIG=
201112150915 METAR LMML 150915Z 24007KT 210V280 9999 SCT021 BKN250 17/12
                        Q1026 NOSIG=
201112150845 METAR LMML 150845Z 24006KT 190V290 9999 SCT021 BKN250 17/12
                        Q1026 NOSIG=
201112150815 METAR LMML 150815Z 24007KT 210V280 9999 SCT020 SCT250 16/12
                        Q1025 NOSIG=
201112150745 METAR LMML 150745Z 23006KT 140V280 9999 SCT020 16/12 Q1025
                        NOSIG=
201112150715 METAR LMML 150715Z 25006KT 200V280 9999 FEW021 15/12 Q1025
                        NOSIG=
201112150645 METAR LMML 150645Z 24007KT 220V280 9999 FEW025 15/11 Q1025
                        NOSIG=
201112150615 METAR LMML 150615Z 23007KT 200V270 9999 FEW025 15/11 Q1025
                        NOSIG=
201112150545 METAR LMML 150545Z 24008KT 210V270 9999 FEW024 14/11 Q1025
                        NOSIG=
201112150515 METAR LMML 150515Z 25007KT 220V280 9999 FEW024 14/10 Q1025
                        NOSIG=
201112150445 METAR LMML 150445Z 25007KT 220V280 9999 FEW024 14/10 Q1025
                        NOSIG=
201112150430 METAR LMML NIL=
201112150415 METAR LMML 150415Z 25008KT 210V280 9999 FEW024 15/10 Q1024
                        NOSIG=
201112150400 METAR LMML NIL=
201112150345 METAR LMML 150345Z 25008KT 220V280 9999 FEW024 15/10 Q1024
                        NOSIG=
201112150330 METAR LMML NIL=
201112150315 METAR LMML 150315Z 25008KT 220V280 CAVOK 15/10 Q1024 NOSIG=
201112150300 METAR LMML NIL=
201112150245 METAR LMML 150245Z 26009KT 230V290 9999 FEW024 15/11 Q1025
                        NOSIG=
201112150230 METAR LMML NIL=
201112150215 METAR LMML 150215Z 25009KT 220V280 9999 FEW025 15/11 Q1025
                        NOSIG=
201112150200 METAR LMML NIL=
201112150145 METAR LMML 150145Z 25010KT 210V300 9999 FEW024 15/11 Q1025
                        NOSIG=
201112150130 METAR LMML NIL=
201112150115 METAR LMML 150115Z 25007KT 200V290 9999 FEW023 FEW028 15/11
                        Q1025 NOSIG=
201112150100 METAR LMML NIL=
201112150045 METAR LMML 150045Z 25008KT 200V290 9999 SCT025 15/11 Q1025
                        NOSIG=
201112150030 METAR LMML NIL=
201112150015 METAR LMML 150015Z 25008KT 210V280 9999 SCT024 15/11 Q1025
                        NOSIG=
201112142345 METAR LMML 142345Z 25005KT 190V280 9999 FEW023 15/11 Q1025
                        NOSIG=
201112142330 METAR LMML NIL=
201112142315 METAR LMML 142315Z 24008KT 210V280 9999 FEW022 15/11 Q1025
                        NOSIG=
201112142245 METAR LMML 142245Z 24007KT 200V280 9999 FEW022 15/11 Q1025
                        NOSIG=
201112142215 METAR LMML 142215Z 24007KT 210V280 9999 FEW023 15/11 Q1025
                        NOSIG=
201112142200 METAR LMML NIL=
201112142145 METAR LMML 142145Z 24007KT 200V270 9999 FEW023 15/11 Q1025
                        NOSIG=
201112142130 METAR LMML NIL=
201112142115 METAR LMML 142115Z 24008KT 200V280 9999 FEW023 15/11 Q1025
                        NOSIG=
201112142100 METAR LMML NIL=
201112142045 METAR LMML 142045Z 24008KT 190V280 9999 FEW024 15/11 Q1025
                        NOSIG=
201112142030 METAR LMML NIL=
201112142015 METAR LMML 142015Z 24007KT 210V280 9999 FEW022 15/11 Q1025
                        NOSIG=
201112142000 METAR LMML NIL=
201112141945 METAR LMML 141945Z 24006KT 200V270 9999 FEW022 15/11 Q1025
                        NOSIG=
201112141930 METAR LMML NIL=
201112141915 METAR LMML 141915Z 23007KT 200V280 9999 FEW022 15/11 Q1025
                        NOSIG=
201112141900 METAR LMML NIL=
201112141845 METAR LMML 141845Z 24006KT 200V280 9999 FEW021 15/12 Q1025
                        NOSIG=
201112141815 METAR LMML 141815Z 24005KT 200V280 9999 FEW023 15/11 Q1025
                        NOSIG=
201112141745 METAR LMML 141745Z 24005KT 220V280 9999 FEW023 15/11 Q1025
                        NOSIG=
201112141715 METAR LMML 141715Z 25005KT 200V280 9999 FEW023 15/11 Q1025
                        NOSIG=
201112141645 METAR LMML 141645Z 24006KT 200V280 9999 FEW022 15/11 Q1025
                        NOSIG=
201112141630 METAR LMML NIL=
201112141615 METAR LMML 141615Z 24006KT 210V280 9999 FEW022 15/11 Q1024
                        NOSIG=
201112141600 METAR LMML NIL=
201112141545 METAR LMML 141545Z 25007KT 210V290 9999 FEW023 16/11 Q1024
                        NOSIG=
201112141530 METAR LMML NIL=
201112141515 METAR LMML 141515Z 25007KT 200V280 9999 FEW024 16/11 Q1024
                        NOSIG=
201112141500 METAR LMML NIL=
201112141445 METAR LMML 141445Z 26006KT 210V290 9999 FEW024 17/11 Q1024
                        NOSIG=
201112141430 METAR LMML NIL=
201112141415 METAR LMML 141415Z 26009KT 230V290 9999 FEW024 17/11 Q1024
                        NOSIG=
201112141400 METAR LMML NIL=
201112141345 METAR LMML 141345Z 26010KT 220V280 9999 FEW024 17/10 Q1024
                        NOSIG=
201112141330 METAR LMML NIL=
201112141315 METAR LMML 141315Z 26009KT 210V290 9999 FEW024 17/11 Q1024
                        NOSIG=
201112141300 METAR LMML NIL=
201112141245 METAR LMML 141245Z 27009KT 240V310 9999 FEW024 17/11 Q1025
                        NOSIG=
201112141230 METAR LMML NIL=
201112141215 METAR LMML 141215Z 26010KT 230V310 CAVOK 18/11 Q1025 NOSIG=
201112141200 METAR LMML NIL=
201112141145 METAR LMML 141145Z 28010KT 230V310 9999 FEW028 17/11 Q1025
                        NOSIG=
201112141115 METAR LMML 141115Z 29012KT 260V320 9999 FEW028 17/10 Q1025
                        NOSIG=
201112141100 METAR LMML NIL=
201112141045 METAR LMML 141045Z 29010KT 240V340 9999 FEW028 17/10 Q1026
                        NOSIG=
201112141030 METAR LMML NIL=
201112141015 METAR LMML 141015Z 29011KT 260V320 9999 FEW027 SCT050 17/11
                        Q1026 NOSIG=
201112141000 METAR LMML NIL=
201112140945 METAR LMML 140945Z 28007KT 9999 FEW027 SCT050 16/11 Q1026
                        NOSIG=
201112140930 METAR LMML NIL=
201112140915 METAR LMML 140915Z 29005KT 9999 FEW027 SCT060 16/12 Q1026
                        NOSIG=
201112140900 METAR LMML NIL=
201112140845 METAR LMML 140845Z 28006KT 9999 FEW037 SCT060 16/11 Q1026
                        NOSIG=
201112140830 METAR LMML NIL=
201112140815 METAR LMML 140815Z 28004KT 210V330 9999 FEW024 16/11 Q1026
                        NOSIG=
201112140800 METAR LMML NIL=
201112140745 METAR LMML 140745Z 27003KT 9999 FEW025 15/11 Q1026 NOSIG=
201112140730 METAR LMML NIL=
201112140715 METAR LMML 140715Z 27003KT 9999 FEW025 14/11 Q1025 NOSIG=
201112140700 METAR LMML NIL=
201112140645 METAR LMML 140645Z 27003KT 9999 FEW025 12/10 Q1025 NOSIG=
201112140630 METAR LMML NIL=
201112140615 METAR LMML 140615Z 27004KT 240V300 9999 FEW025 12/10 Q1025
                        NOSIG=
201112140600 METAR LMML NIL=
201112140545 METAR LMML 140545Z VRB02KT 9999 FEW029 SCT060 12/10 Q1025
                        NOSIG=
201112140530 METAR LMML NIL=
201112140515 METAR LMML 140515Z 31004KT 9999 FEW029 BKN060 13/10 Q1024
                        NOSIG=
201112140500 METAR LMML NIL=
201112140445 METAR LMML 140445Z 27004KT 240V300 9999 FEW030 BKN060 13/10
                        Q1024 NOSIG=
201112140430 METAR LMML NIL=
201112140415 METAR LMML 140415Z 25005KT 220V280 9999 FEW036 SCT060 13/10
                        Q1024 NOSIG=
201112140400 METAR LMML NIL=
201112140345 METAR LMML 140345Z 26005KT 9999 FEW029 SCT060 13/10 Q1024
                        NOSIG=
201112140330 METAR LMML NIL=
201112140315 METAR LMML 140315Z 27004KT 9999 FEW036 BKN060 13/09 Q1024
                        NOSIG=
201112140300 METAR LMML NIL=
201112140245 METAR LMML 140245Z 27006KT 9999 FEW037 BKN060 13/09 Q1024
                        NOSIG=
201112140230 METAR LMML NIL=
201112140215 METAR LMML 140215Z 29004KT 9999 FEW036 BKN060 13/09 Q1024
                        NOSIG=
201112140200 METAR LMML NIL=
201112140145 METAR LMML 140145Z 30003KT 9999 FEW038 BKN065 13/09 Q1024
                        NOSIG=
201112140130 METAR LMML NIL=
201112140115 METAR LMML 140115Z 28004KT 9999 FEW041 BKN061 13/09 Q1024
                        NOSIG=
201112140100 METAR LMML NIL=
201112140045 METAR LMML 140045Z 30004KT 9999 FEW043 BKN060 13/08 Q1024
                        NOSIG=
201112140030 METAR LMML NIL=
201112140015 METAR LMML 140015Z 29006KT 9999 FEW025 13/08 Q1024 NOSIG=
201112140000 METAR LMML NIL=
201112132345 METAR LMML 132345Z 28004KT 9999 FEW025 12/07 Q1024 NOSIG=
201112132330 METAR LMML NIL=
201112132315 METAR LMML 132315Z 29005KT CAVOK 13/08 Q1024 BECMG 9999 FEW025=
201112132245 METAR LMML 132245Z 30004KT CAVOK 12/07 Q1024 BECMG 9999 FEW025=
201112132230 METAR LMML NIL=
201112132215 METAR LMML 132215Z 31004KT 280V340 CAVOK 13/07 Q1024 NOSIG=
201112132200 METAR LMML NIL=
201112132145 METAR LMML 132145Z 32004KT 9999 FEW035 13/07 Q1024 NOSIG=
201112132130 METAR LMML NIL=
201112132115 METAR LMML 132115Z 33007KT 9999 FEW035 13/07 Q1024 NOSIG=
201112132100 METAR LMML NIL=
201112132045 METAR LMML 132045Z 31009KT 9999 FEW037 13/09 Q1024 NOSIG=
201112132030 METAR LMML NIL=
201112132015 METAR LMML 132015Z 31007KT 9999 FEW037 13/09 Q1023 NOSIG=
201112132000 METAR LMML NIL=
201112131945 METAR LMML 131945Z 31008KT 9999 FEW031 13/10 Q1023 NOSIG=
201112131930 METAR LMML NIL=
201112131915 METAR LMML 131915Z 31006KT 9999 FEW025 13/09 Q1023 NOSIG=
201112131900 METAR LMML NIL=
201112131845 METAR LMML 131845Z 32007KT 9999 FEW025 13/09 Q1023 NOSIG=
201112131830 METAR LMML NIL=
201112131815 METAR LMML 131815Z 31007KT 9999 FEW025 14/09 Q1023 NOSIG=
201112131800 METAR LMML NIL=
201112131745 METAR LMML 131745Z 30010KT 9999 FEW025 14/09 Q1022 NOSIG=
201112131730 METAR LMML NIL=
201112131715 METAR LMML 131715Z 31011KT 9999 FEW025 14/09 Q1022 NOSIG=
201112131700 METAR LMML NIL=
201112131645 METAR LMML 131645Z 30014KT 9999 FEW025 15/09 Q1022 NOSIG=
201112131630 METAR LMML NIL=
201112131615 METAR LMML 131615Z 31012KT 9999 FEW025 14/09 Q1022 NOSIG=
201112131545 METAR LMML 131545Z 31013KT 9999 FEW025 15/09 Q1022 NOSIG=
201112131530 METAR LMML NIL=
201112131515 METAR LMML 131515Z 31014KT 9999 FEW025 15/09 Q1022 NOSIG=
201112131500 METAR LMML NIL=
201112131445 METAR LMML 131445Z 31015KT 9999 FEW027 16/08 Q1021 NOSIG=
201112131430 METAR LMML NIL=
201112131415 METAR LMML 131415Z 31016KT 9999 FEW027 16/09 Q1021 NOSIG=
201112131400 METAR LMML NIL=
201112131345 METAR LMML 131345Z 31014KT 9999 FEW027 17/10 Q1021 NOSIG=
201112131330 METAR LMML NIL=
201112131315 METAR LMML 131315Z 30014KT 270V330 9999 FEW027 17/10 Q1021
                        NOSIG=
201112131300 METAR LMML NIL=
201112131245 METAR LMML 131245Z 30015KT 270V330 9999 FEW027 17/10 Q1021
                        NOSIG=
201112131230 METAR LMML NIL=
201112131215 METAR LMML 131215Z 30014KT 260V330 9999 FEW027 17/11 Q1021
                        NOSIG=
201112131145 METAR LMML 131145Z 30015KT 9999 SCT025 17/11 Q1021 NOSIG=
201112131130 METAR LMML NIL=
201112131115 METAR LMML 131115Z 30015KT 260V340 9999 SCT025 17/12 Q1021
                        NOSIG=
201112131100 METAR LMML NIL=
201112131045 METAR LMML 131045Z 29014KT 260V320 9999 FEW027 17/11 Q1021
                        NOSIG=
201112131030 METAR LMML NIL=
201112131015 METAR LMML 131015Z 30015KT 9999 FEW027 17/11 Q1022 NOSIG=
201112131000 METAR LMML NIL=
201112130945 METAR LMML 130945Z 30013KT 9999 FEW028 17/11 Q1022 NOSIG=
201112130915 METAR LMML 130915Z 29010KT 9999 FEW030 SCT080 16/11 Q1022
                        NOSIG=
201112130900 METAR LMML NIL=
201112130845 METAR LMML 130845Z 30009KT 280V340 9999 FEW033 SCT070 16/12
                        Q1022 NOSIG=
201112130830 METAR LMML NIL=
201112130815 METAR LMML 130815Z 31009KT 9999 FEW023 SCT060 16/12 Q1022
                        NOSIG=
201112130745 METAR LMML 130745Z 20004KT 9999 FEW023 15/12 Q1021 NOSIG=
201112130730 METAR LMML NIL=
201112130715 METAR LMML 130715Z 27008KT 240V300 9999 FEW023 15/12 Q1021
                        NOSIG=
201112130700 METAR LMML NIL=
201112130645 METAR LMML 130645Z 29007KT 270V330 9999 FEW023TCU 14/11 Q1021
                        TEMPO 8000 SHRA BKN015TCU=
201112130630 METAR LMML NIL=
201112130615 METAR LMML 130615Z 26005KT 230V300 9999 FEW023TCU 13/11 Q1020
                        TEMPO 8000 SHRA BKN015TCU=
201112130600 METAR LMML NIL=
201112130545 METAR LMML 130545Z 28007KT 9999 FEW022 14/11 Q1021 TEMPO
                        8000 SHRA BKN015TCU=
201112130515 METAR LMML 130515Z 29006KT 260V320 9999 FEW022 14/11 Q1020
                        TEMPO 8000 SHRA BKN015TCU=
201112130445 METAR LMML 130445Z 29006KT 9999 FEW022 SCT080 14/12 Q1020
                        TEMPO 8000 SHRA BKN015TCU=
201112130430 METAR LMML NIL=
201112130415 METAR LMML 130415Z 29008KT 260V320 9999 FEW022 SCT070 14/12
                        Q1020 TEMPO 8000 SHRA BKN015TCU=
201112130400 METAR LMML NIL=
201112130345 METAR LMML 130345Z 28006KT 9999 FEW023 14/11 Q1020 TEMPO
                        8000 SHRA BKN015TCU=
201112130330 METAR LMML NIL=
201112130315 METAR LMML 130315Z 27005KT 240V300 9999 FEW023 14/11 Q1020
                        NOSIG=
201112130300 METAR LMML NIL=
201112130245 METAR LMML 130245Z 28006KT 9999 FEW023 14/11 Q1020 NOSIG=
201112130230 METAR LMML NIL=
201112130215 METAR LMML 130215Z 28006KT 9999 FEW023 14/11 Q1020 NOSIG=
201112130200 METAR LMML NIL=
201112130145 METAR LMML 130145Z 29005KT 9999 FEW023 14/11 Q1020 NOSIG=
201112130130 METAR LMML NIL=
201112130115 METAR LMML 130115Z 30006KT 9999 FEW020 13/11 Q1021 NOSIG=
201112130100 METAR LMML NIL=
201112130045 METAR LMML 130045Z VRB02KT 9999 FEW020 13/10 Q1021 NOSIG=
201112130030 METAR LMML NIL=
201112130015 METAR LMML 130015Z 28003KT 9999 FEW020 13/10 Q1021 NOSIG=
201112130000 METAR LMML NIL=
201112122345 METAR LMML 122345Z 29005KT 260V320 9999 FEW020 13/11 Q1021
                        NOSIG=
201112122330 METAR LMML NIL=
201112122315 METAR LMML 122315Z 28005KT 9999 FEW020 13/11 Q1021 NOSIG=
201112122300 METAR LMML NIL=
201112122245 METAR LMML 122245Z 29006KT 250V310 9999 FEW020 14/12 Q1021
                        NOSIG=
201112122230 METAR LMML NIL=
201112122215 METAR LMML 122215Z 28005KT 250V310 9999 FEW020 14/12 Q1021
                        NOSIG=
201112122200 METAR LMML NIL=
201112122145 METAR LMML 122145Z 27005KT 240V300 9999 FEW018 14/13 Q1021
                        NOSIG=
201112122115 METAR LMML 122115Z 25003KT 9999 FEW018 14/13 Q1020 NOSIG=
201112122100 METAR LMML NIL=
201112122045 METAR LMML 122045Z 26004KT 9999 FEW018 14/13 Q1021 NOSIG=
201112122030 METAR LMML NIL=
201112122015 METAR LMML 122015Z 24003KT 9999 FEW018 14/13 Q1021 NOSIG=
201112122000 METAR LMML NIL=
201112121945 METAR LMML 121945Z 26003KT 9999 FEW018 14/13 Q1021 NOSIG=
201112121930 METAR LMML NIL=
201112121915 METAR LMML 121915Z 26003KT 9999 FEW018 15/13 Q1021 NOSIG=
201112121900 METAR LMML NIL=
201112121845 METAR LMML 121845Z 26004KT 9999 FEW018 15/13 Q1021 NOSIG=
201112121830 METAR LMML NIL=
201112121815 METAR LMML 121815Z 23003KT 9999 FEW016 16/13 Q1020 NOSIG=
201112121800 METAR LMML NIL=
201112121745 METAR LMML 121745Z 23004KT 200V270 9999 FEW017 16/13 Q1020
                        NOSIG=
201112121730 METAR LMML NIL=
201112121715 METAR LMML 121715Z 23004KT 190V260 9999 FEW019 16/13 Q1020
                        NOSIG=
201112121645 METAR LMML 121645Z 23004KT 200V260 9999 FEW018 16/13 Q1020
                        NOSIG=
201112121630 METAR LMML NIL=
201112121615 METAR LMML 121615Z 23004KT 200V270 9999 FEW016 16/13 Q1020
                        NOSIG=
201112121600 METAR LMML NIL=
201112121545 METAR LMML 121545Z 22006KT 190V250 9999 FEW016 17/13 Q1020
                        NOSIG=
201112121530 METAR LMML NIL=
201112121515 METAR LMML 121515Z 21005KT 120V240 9999 FEW016 18/14 Q1019
                        NOSIG=
201112121500 METAR LMML NIL=
201112121445 METAR LMML 121445Z 23006KT 190V270 9999 FEW016 18/14 Q1020
                        NOSIG=
201112121430 METAR LMML NIL=
201112121415 METAR LMML 121415Z 23007KT 180V270 9999 FEW018 18/14 Q1020
                        NOSIG=
201112121400 METAR LMML NIL=
201112121345 METAR LMML 121345Z 22007KT 180V300 9999 FEW018 19/14 Q1020
                        NOSIG=
201112121330 METAR LMML NIL=
201112121315 METAR LMML 121315Z 22008KT 190V260 9999 FEW016 19/14 Q1020
                        NOSIG=
201112121245 METAR LMML 121245Z 23008KT 180V270 9999 FEW020 19/14 Q1020
                        NOSIG=
201112121230 METAR LMML NIL=
201112121215 METAR LMML 121215Z 22007KT 190V260 9999 FEW020 19/14 Q1020
                        NOSIG=
201112121200 METAR LMML NIL=
201112121145 METAR LMML 121145Z 22007KT 190V280 9999 FEW020 19/14 Q1020
                        NOSIG=
201112121115 METAR LMML 121115Z 23007KT 190V270 CAVOK 19/14 Q1021 NOSIG=
201112121045 METAR LMML 121045Z 22006KT 180V280 CAVOK 19/14 Q1021 NOSIG=
201112121030 METAR LMML NIL=
201112121015 METAR LMML 121015Z 22005KT 180V280 CAVOK 19/14 Q1021 NOSIG=
201112121000 METAR LMML NIL=
201112120945 METAR LMML 120945Z 21005KT 170V240 9999 FEW020 19/15 Q1021
                        NOSIG=
201112120915 METAR LMML 120915Z 20006KT 170V240 9999 FEW020 19/15 Q1022
                        NOSIG=
201112120845 METAR LMML 120845Z 20005KT 160V240 CAVOK 19/15 Q1022 NOSIG=
201112120830 METAR LMML NIL=
201112120815 METAR LMML 120815Z 20004KT 160V260 CAVOK 18/15 Q1021 NOSIG=
201112120745 METAR LMML 120745Z 18003KT CAVOK 18/15 Q1021 NOSIG=
201112120715 METAR LMML 120715Z VRB02KT CAVOK 17/14 Q1021 NOSIG=
201112120645 METAR LMML 120645Z 19003KT CAVOK 16/14 Q1021 NOSIG=
201112120630 METAR LMML NIL=
201112120615 METAR LMML 120615Z 19004KT 160V220 CAVOK 15/13 Q1021 NOSIG=
201112120545 METAR LMML 120545Z 19004KT 150V220 CAVOK 15/13 Q1021 NOSIG=
201112120515 METAR LMML 120515Z 19003KT CAVOK 15/13 Q1021 NOSIG=
201112120445 METAR LMML 120445Z 20004KT 170V230 CAVOK 15/13 Q1021 NOSIG=
201112120430 METAR LMML NIL=
201112120415 METAR LMML 120415Z 19005KT CAVOK 16/13 Q1021 NOSIG=
201112120400 METAR LMML NIL=
201112120345 METAR LMML 120345Z 19005KT 150V240 CAVOK 15/14 Q1021 NOSIG=
201112120330 METAR LMML NIL=
201112120315 METAR LMML 120315Z 20004KT CAVOK 15/14 Q1021 NOSIG=
201112120300 METAR LMML NIL=
201112120245 METAR LMML 120245Z 19005KT 170V240 CAVOK 15/13 Q1021 NOSIG=
201112120215 METAR LMML 120215Z 19004KT CAVOK 15/13 Q1022 NOSIG=
201112120200 METAR LMML NIL=
201112120145 METAR LMML 120145Z 20004KT CAVOK 15/13 Q1022 NOSIG=
201112120130 METAR LMML NIL=
201112120115 METAR LMML 120115Z 20005KT 160V230 CAVOK 15/13 Q1022 NOSIG=
201112120100 METAR LMML NIL=
201112120045 METAR LMML 120045Z 20006KT 160V240 CAVOK 16/14 Q1022 NOSIG=
201112120030 METAR LMML NIL=
201112120015 METAR LMML 120015Z 20008KT 9999 FEW009 16/15 Q1022 NOSIG=
201112120000 METAR LMML NIL=
201112112345 METAR LMML 112345Z 20005KT 170V230 CAVOK 16/14 Q1022 NOSIG=
201112112330 METAR LMML NIL=
201112112315 METAR LMML 112315Z 21006KT 180V240 CAVOK 16/13 Q1022 NOSIG=
201112112245 METAR LMML 112245Z 21007KT 180V250 CAVOK 16/13 Q1022 NOSIG=
201112112230 METAR LMML NIL=
201112112215 METAR LMML 112215Z 21008KT 180V240 CAVOK 16/13 Q1022 NOSIG=
201112112200 METAR LMML NIL=
201112112145 METAR LMML 112145Z 21007KT 170V240 CAVOK 16/14 Q1022 NOSIG=
201112112130 METAR LMML NIL=
201112112115 METAR LMML 112115Z 21007KT 180V240 CAVOK 16/14 Q1022 NOSIG=
201112112100 METAR LMML NIL=
201112112045 METAR LMML 112045Z 21007KT 180V240 CAVOK 16/14 Q1022 NOSIG=
201112112030 METAR LMML NIL=
201112112015 METAR LMML 112015Z 21006KT 180V260 CAVOK 16/14 Q1022 NOSIG=
201112112000 METAR LMML NIL=
201112111945 METAR LMML 111945Z 21003KT CAVOK 16/14 Q1022 NOSIG=
201112111930 METAR LMML NIL=
201112111915 METAR LMML 111915Z 19004KT 150V260 CAVOK 16/14 Q1022 NOSIG=
201112111900 METAR LMML NIL=
201112111845 METAR LMML 111845Z VRB02KT CAVOK 16/14 Q1022 NOSIG=
201112111830 METAR LMML NIL=
201112111815 METAR LMML 111815Z VRB01KT CAVOK 16/13 Q1022 NOSIG=
201112111745 METAR LMML 111745Z VRB02KT CAVOK 16/14 Q1022 NOSIG=
201112111730 METAR LMML NIL=
201112111715 METAR LMML 111715Z 20004KT 150V250 CAVOK 16/13 Q1022 NOSIG=
201112111645 METAR LMML 111645Z 22004KT 180V260 CAVOK 16/14 Q1022 NOSIG=
201112111615 METAR LMML 111615Z 22005KT 190V250 CAVOK 17/14 Q1022 NOSIG=
201112111545 METAR LMML 111545Z 22007KT CAVOK 17/14 Q1022 NOSIG=
201112111530 METAR LMML NIL=
201112111515 METAR LMML 111515Z 21007KT 180V270 CAVOK 17/14 Q1022 NOSIG=
201112111445 METAR LMML 111445Z 21006KT 180V270 CAVOK 17/14 Q1021 NOSIG=
201112111430 METAR LMML NIL=
201112111415 METAR LMML 111415Z 20008KT 160V250 CAVOK 17/14 Q1021 NOSIG=
201112111345 METAR LMML 111345Z 20008KT 170V240 CAVOK 17/14 Q1021 NOSIG=
201112111330 METAR LMML NIL=
201112111315 METAR LMML 111315Z 20008KT 170V260 CAVOK 18/15 Q1022 NOSIG=
201112111245 METAR LMML 111245Z 20008KT 160V240 CAVOK 18/15 Q1022 NOSIG=
201112111230 METAR LMML NIL=
201112111215 METAR LMML 111215Z 21005KT 160V270 CAVOK 18/15 Q1022 NOSIG=
201112111145 METAR LMML 111145Z 21008KT 170V260 CAVOK 18/15 Q1022 NOSIG=
201112111115 METAR LMML 111115Z 20008KT 160V240 CAVOK 18/15 Q1023 NOSIG=
201112111045 METAR LMML 111045Z 20008KT 160V240 CAVOK 19/15 Q1023 NOSIG=
201112111030 METAR LMML NIL=
201112111015 METAR LMML 111015Z 21007KT 160V270 CAVOK 19/15 Q1023 NOSIG=
201112110945 METAR LMML 110945Z 20009KT 140V240 CAVOK 18/15 Q1024 NOSIG=
201112110930 METAR LMML NIL=
201112110915 METAR LMML 110915Z 20010KT 170V260 CAVOK 18/15 Q1023 NOSIG=
201112110845 METAR LMML 110845Z 20008KT 170V250 CAVOK 18/15 Q1023 NOSIG=
201112110830 METAR LMML NIL=
201112110815 METAR LMML 110815Z 20008KT 170V250 CAVOK 18/14 Q1023 NOSIG=
201112110800 METAR LMML NIL=
201112110745 METAR LMML 110745Z 20006KT 160V240 CAVOK 18/14 Q1023 NOSIG=
201112110730 METAR LMML NIL=
201112110715 METAR LMML 110715Z 20006KT 160V250 CAVOK 17/14 Q1023 NOSIG=
201112110700 METAR LMML NIL=
201112110645 METAR LMML 110645Z 20006KT 170V250 CAVOK 17/14 Q1023 NOSIG=
201112110630 METAR LMML NIL=
201112110615 METAR LMML 110615Z 20006KT 160V230 CAVOK 17/14 Q1022 NOSIG=
201112110545 METAR LMML 110545Z 20005KT 160V240 CAVOK 17/14 Q1022 NOSIG=
201112110515 METAR LMML 110515Z 19006KT 170V240 CAVOK 17/14 Q1022 NOSIG=
201112110445 METAR LMML 110445Z 20006KT 160V260 CAVOK 17/14 Q1022 NOSIG=
201112110430 METAR LMML NIL=
201112110415 METAR LMML 110415Z 20006KT 160V250 CAVOK 17/14 Q1022 NOSIG=
201112110400 METAR LMML NIL=
201112110345 METAR LMML 110345Z 20007KT 160V250 CAVOK 17/14 Q1022 NOSIG=
201112110330 METAR LMML NIL=
201112110315 METAR LMML 110315Z 20006KT 160V240 CAVOK 16/13 Q1022 NOSIG=
201112110300 METAR LMML NIL=
201112110245 METAR LMML 110245Z 21005KT 170V250 CAVOK 16/14 Q1022 NOSIG=
201112110230 METAR LMML NIL=
201112110215 METAR LMML 110215Z 21006KT 170V250 CAVOK 16/14 Q1023 NOSIG=
201112110200 METAR LMML NIL=
201112110145 METAR LMML 110145Z 20007KT 160V240 CAVOK 16/14 Q1023 NOSIG=
201112110130 METAR LMML NIL=
201112110115 METAR LMML 110115Z 20006KT 170V240 CAVOK 16/13 Q1023 NOSIG=
201112110100 METAR LMML NIL=
201112110045 METAR LMML 110045Z 21006KT 170V250 CAVOK 16/13 Q1023 NOSIG=
201112110030 METAR LMML NIL=
201112110015 METAR LMML 110015Z 21007KT 170V250 CAVOK 16/13 Q1023 NOSIG=
201112110000 METAR LMML NIL=
201112102345 METAR LMML 102345Z 20007KT 170V260 CAVOK 16/13 Q1023 NOSIG=
201112102330 METAR LMML NIL=
201112102315 METAR LMML 102315Z 21007KT 160V240 CAVOK 16/13 Q1023 NOSIG=
201112102245 METAR LMML 102245Z 21008KT 160V250 CAVOK 16/13 Q1023 NOSIG=
201112102230 METAR LMML NIL=
201112102215 METAR LMML 102215Z 20009KT 170V240 CAVOK 16/13 Q1023 NOSIG=
201112102145 METAR LMML 102145Z 20008KT 170V260 CAVOK 16/13 Q1023 NOSIG=
201112102130 METAR LMML NIL=
201112102115 METAR LMML 102115Z 21008KT 180V260 CAVOK 16/14 Q1023 NOSIG=
201112102045 METAR LMML 102045Z 21009KT 170V260 CAVOK 16/13 Q1023 NOSIG=
201112102030 METAR LMML NIL=
201112102015 METAR LMML 102015Z 21007KT 170V270 CAVOK 16/14 Q1023 NOSIG=
201112101945 METAR LMML 101945Z 20008KT 170V250 CAVOK 16/13 Q1023 NOSIG=
201112101930 METAR LMML NIL=
201112101915 METAR LMML 101915Z 21008KT 180V250 CAVOK 16/13 Q1023 NOSIG=
201112101845 METAR LMML 101845Z 21009KT 180V250 CAVOK 16/13 Q1023 NOSIG=
201112101830 METAR LMML NIL=
201112101815 METAR LMML 101815Z 21009KT 180V260 CAVOK 16/13 Q1023 NOSIG=
201112101800 METAR LMML NIL=
201112101745 METAR LMML 101745Z 21008KT 170V270 CAVOK 16/13 Q1023 NOSIG=
201112101730 METAR LMML NIL=
201112101715 METAR LMML 101715Z 21009KT 170V260 CAVOK 16/13 Q1023 NOSIG=
201112101645 METAR LMML 101645Z 20009KT 170V250 CAVOK 16/13 Q1023 NOSIG=
201112101630 METAR LMML NIL=
201112101615 METAR LMML 101615Z 20009KT 170V240 CAVOK 17/14 Q1023 NOSIG=
201112101600 METAR LMML NIL=
201112101545 METAR LMML 101545Z 20008KT 180V250 CAVOK 17/13 Q1023 NOSIG=
201112101530 METAR LMML NIL=
201112101515 METAR LMML 101515Z 21009KT 170V250 CAVOK 17/13 Q1023 NOSIG=
201112101500 METAR LMML NIL=
201112101445 METAR LMML 101445Z 20008KT 150V260 CAVOK 17/13 Q1023 NOSIG=
201112101430 METAR LMML NIL=
201112101415 METAR LMML 101415Z 20008KT 140V240 9999 FEW014 BKN250 17/13
                        Q1023 NOSIG=
201112101400 METAR LMML NIL=
201112101345 METAR LMML 101345Z 20009KT 140V260 9999 FEW014 BKN250 18/14
                        Q1023 NOSIG=
201112101330 METAR LMML NIL=
201112101315 METAR LMML 101315Z 20010KT 160V240 9999 FEW018 BKN250 18/14
                        Q1023 NOSIG=
201112101300 METAR LMML NIL=
201112101245 METAR LMML 101245Z 20009KT 150V330 9999 FEW018 18/13 Q1023
                        NOSIG=
201112101230 METAR LMML NIL=
201112101215 METAR LMML 101215Z 20010KT 160V270 9999 FEW017 BKN250 19/14
                        Q1024 NOSIG=
201112101145 METAR LMML 101145Z 20011KT 160V230 9999 FEW019 BKN250 18/13
                        Q1024 NOSIG=
201112101130 METAR LMML NIL=
201112101115 METAR LMML 101115Z 20010KT 170V240 9999 FEW022 BKN250 19/13
                        Q1024 NOSIG=
201112101100 METAR LMML NIL=
201112101045 METAR LMML 101045Z 20011KT 170V230 9999 FEW022 BKN250 18/12
                        Q1024 NOSIG=
201112101030 METAR LMML NIL=
201112101015 METAR LMML 101015Z 20010KT 170V240 9999 FEW022 BKN250 18/13
                        Q1025 NOSIG=
201112101000 METAR LMML NIL=
201112100945 METAR LMML 100945Z 20010KT 160V250 9999 FEW021 BKN250 18/13
                        Q1025 NOSIG=
201112100930 METAR LMML NIL=
201112100915 METAR LMML 100915Z 20008KT 140V250 9999 FEW022 SCT250 18/13
                        Q1025 NOSIG=
201112100845 METAR LMML 100845Z 20007KT 140V270 9999 FEW022 SCT250 18/12
                        Q1025 NOSIG=
201112100830 METAR LMML NIL=
201112100815 METAR LMML 100815Z 20007KT 170V260 9999 FEW022 SCT250 18/13
                        Q1025 NOSIG=
201112100800 METAR LMML NIL=
201112100745 METAR LMML 100745Z 20007KT 160V260 9999 SCT021 17/12 Q1025
                        NOSIG=
201112100730 METAR LMML NIL=
201112100715 METAR LMML 100715Z 20005KT 160V270 9999 SCT021 SCT250 16/12
                        Q1025 NOSIG=
201112100700 METAR LMML NIL=
201112100645 METAR LMML 100645Z 21005KT 180V250 9999 SCT021 SCT250 16/12
                        Q1025 NOSIG=
201112100630 METAR LMML NIL=
201112100615 METAR LMML 100615Z 21005KT 180V250 9999 SCT023 SCT250 15/11
                        Q1025 NOSIG=
201112100545 METAR LMML 100545Z 21004KT 170V260 9999 FEW023 15/11 Q1025
                        NOSIG=
201112100530 METAR LMML NIL=
201112100515 METAR LMML 100515Z 21005KT 150V250 9999 FEW023 15/11 Q1025
                        NOSIG=
201112100445 METAR LMML 100445Z 21005KT 170V240 9999 SCT023 15/11 Q1024
                        NOSIG=
201112100430 METAR LMML NIL=
201112100415 METAR LMML 100415Z 20005KT 160V250 9999 SCT020 15/11 Q1024
                        NOSIG=
201112100345 METAR LMML 100345Z 21004KT 170V270 9999 SCT019 15/12 Q1025
                        NOSIG=
201112100330 METAR LMML NIL=
201112100315 METAR LMML 100315Z 20004KT 170V250 9999 SCT021 15/11 Q1025
                        NOSIG=
201112100300 METAR LMML NIL=
201112100245 METAR LMML 100245Z 20003KT 9999 FEW022 14/11 Q1025 NOSIG=
201112100230 METAR LMML NIL=
201112100215 METAR LMML 100215Z 20004KT 160V240 9999 FEW022 15/11 Q1025
                        NOSIG=
201112100200 METAR LMML NIL=
201112100145 METAR LMML 100145Z 20004KT 170V250 9999 SCT022 15/11 Q1025
                        NOSIG=
201112100130 METAR LMML NIL=
201112100115 METAR LMML 100115Z 20005KT 160V240 9999 SCT022 15/11 Q1026
                        NOSIG=
201112100045 METAR LMML 100045Z 21004KT 180V250 9999 SCT023 14/11 Q1026
                        NOSIG=
201112100030 METAR LMML NIL=
201112100015 METAR LMML 100015Z 21003KT 9999 SCT024 14/11 Q1026 NOSIG=
201112100000 METAR LMML NIL=
201112092345 METAR LMML 092345Z 21003KT 9999 SCT024 14/11 Q1026 NOSIG=
201112092330 METAR LMML NIL=
201112092315 METAR LMML 092315Z 21003KT 9999 FEW024 14/10 Q1026 NOSIG=
201112092245 METAR LMML 092245Z 22003KT 9999 FEW024 14/10 Q1026 NOSIG=
201112092230 METAR LMML NIL=
201112092215 METAR LMML 092215Z 22003KT 9999 FEW024 13/11 Q1026 NOSIG=
201112092200 METAR LMML NIL=
201112092145 METAR LMML 092145Z 23003KT 9999 FEW024 13/10 Q1026 NOSIG=
201112092130 METAR LMML NIL=
201112092115 METAR LMML 092115Z 23003KT 9999 FEW023 13/11 Q1026 NOSIG=
201112092045 METAR LMML 092045Z VRB02KT 9999 FEW023 13/11 Q1027 NOSIG=
201112092030 METAR LMML NIL=
201112092015 METAR LMML 092015Z VRB02KT 9999 FEW023 13/11 Q1026 NOSIG=
201112092000 METAR LMML NIL=
201112091945 METAR LMML 091945Z 23003KT 9999 FEW023 13/11 Q1026 NOSIG=
201112091930 METAR LMML NIL=
201112091915 METAR LMML 091915Z 22003KT 9999 FEW025 13/11 Q1027 NOSIG=
201112091900 METAR LMML NIL=
201112091845 METAR LMML 091845Z VRB02KT 9999 FEW025 14/12 Q1027 NOSIG=
201112091830 METAR LMML NIL=
201112091815 METAR LMML 091815Z VRB01KT 9999 FEW025 15/12 Q1026 NOSIG=
201112091745 METAR LMML 091745Z VRB02KT 9999 FEW025 BKN050 15/12 Q1026
                        NOSIG=
201112091715 METAR LMML 091715Z VRB02KT 9999 FEW025 BKN050 15/12 Q1026
                        NOSIG=
201112091700 METAR LMML NIL=
201112091645 METAR LMML 091645Z VRB02KT 9999 FEW025 BKN050 16/12 Q1026
                        NOSIG=
201112091630 METAR LMML NIL=
201112091615 METAR LMML 091615Z 28003KT 9999 FEW025 BKN050 16/12 Q1026
                        NOSIG=
201112091600 METAR LMML NIL=
201112091545 METAR LMML 091545Z 28004KT 240V310 9999 FEW025 BKN050 16/12
                        Q1026 NOSIG=
201112091530 METAR LMML NIL=
201112091515 METAR LMML 091515Z 25004KT 200V290 9999 FEW025 SCT050 16/12
                        Q1026 NOSIG=
201112091445 METAR LMML 091445Z 24004KT 220V280 9999 FEW025 16/11 Q1026
                        NOSIG=
201112091430 METAR LMML NIL=
201112091415 METAR LMML 091415Z 24005KT 200V280 9999 FEW025 17/11 Q1026
                        NOSIG=
201112091345 METAR LMML 091345Z 25004KT 210V290 9999 FEW025 18/12 Q1026
                        NOSIG=
201112091330 METAR LMML NIL=
201112091315 METAR LMML 091315Z 24004KT 200V280 9999 FEW025 17/12 Q1026
                        NOSIG=
201112091245 METAR LMML 091245Z 23005KT 190V280 9999 FEW025 17/12 Q1026
                        NOSIG=
201112091230 METAR LMML NIL=
201112091215 METAR LMML 091215Z 23005KT 180V270 9999 FEW023 18/12 Q1026
                        NOSIG=
201112091145 METAR LMML 091145Z 22005KT 180V270 9999 FEW030 19/12 Q1027
                        NOSIG=
201112091130 METAR LMML NIL=
201112091115 METAR LMML 091115Z 21005KT 160V270 9999 FEW035 18/12 Q1027
                        NOSIG=
201112091100 METAR LMML NIL=
201112091045 METAR LMML 091045Z 23004KT 180V270 9999 FEW025 18/12 Q1027
                        NOSIG=
201112091030 METAR LMML NIL=
201112091015 METAR LMML 091015Z 22004KT 160V280 9999 FEW026 18/12 Q1027
                        NOSIG=
201112091000 METAR LMML NIL=
201112090945 METAR LMML 090945Z 24004KT 190V280 9999 FEW026 18/12 Q1027
                        NOSIG=
201112090930 METAR LMML NIL=
201112090915 METAR LMML 090915Z 23004KT 200V270 9999 FEW026 18/12 Q1028
                        NOSIG=
201112090900 METAR LMML NIL=
201112090845 METAR LMML 090845Z VRB02KT 9999 FEW020 18/12 Q1028 NOSIG=
201112090815 METAR LMML 090815Z VRB01KT 9999 FEW020 17/12 Q1027 NOSIG=
201112090800 METAR LMML NIL=
201112090745 METAR LMML 090745Z VRB01KT 9999 FEW020 16/12 Q1027 NOSIG=
201112090730 METAR LMML NIL=
201112090715 METAR LMML 090715Z 26004KT 220V280 9999 FEW020 14/11 Q1027
                        NOSIG=
201112090700 METAR LMML NIL=
201112090645 METAR LMML 090645Z 27004KT 190V290 9999 FEW020 13/11 Q1027
                        NOSIG=
201112090630 METAR LMML NIL=
201112090615 METAR LMML 090615Z 23003KT 9999 FEW020 12/10 Q1027 NOSIG=
201112090600 METAR LMML NIL=
201112090545 METAR LMML 090545Z 28003KT 9999 FEW020 12/10 Q1026 NOSIG=
201112090515 METAR LMML 090515Z VRB02KT CAVOK 12/10 Q1026 NOSIG=
201112090500 METAR LMML NIL=
201112090445 METAR LMML 090445Z VRB02KT CAVOK 12/10 Q1026 NOSIG=
201112090430 METAR LMML NIL=
201112090415 METAR LMML 090415Z 31003KT CAVOK 12/10 Q1026 NOSIG=
201112090400 METAR LMML NIL=
201112090345 METAR LMML 090345Z 30004KT CAVOK 13/10 Q1026 NOSIG=
201112090330 METAR LMML NIL=
201112090315 METAR LMML 090315Z 29004KT CAVOK 13/11 Q1026 NOSIG=
201112090300 METAR LMML NIL=
201112090245 METAR LMML 090245Z 28004KT 250V310 CAVOK 14/11 Q1026 NOSIG=
201112090230 METAR LMML NIL=
201112090215 METAR LMML 090215Z 28003KT CAVOK 13/10 Q1026 NOSIG=
201112090145 METAR LMML 090145Z 31006KT CAVOK 13/10 Q1026 NOSIG=
201112090115 METAR LMML 090115Z 32003KT CAVOK 13/10 Q1026 NOSIG=
201112090100 METAR LMML NIL=
201112090045 METAR LMML 090045Z 32004KT CAVOK 13/10 Q1026 NOSIG=
201112090030 METAR LMML NIL=
201112090015 METAR LMML 090015Z 31006KT 9999 FEW025 13/10 Q1026 NOSIG=
201112090000 METAR LMML NIL=
201112082345 METAR LMML 082345Z 30004KT 9999 FEW025 14/11 Q1026 NOSIG=
201112082330 METAR LMML NIL=
201112082315 METAR LMML 082315Z 30007KT 9999 FEW025 14/12 Q1026 NOSIG=
201112082245 METAR LMML 082245Z 30007KT 9999 FEW025 15/12 Q1026 NOSIG=
201112082215 METAR LMML 082215Z 31008KT 9999 FEW025 14/12 Q1026 NOSIG=
201112082200 METAR LMML NIL=
201112082145 METAR LMML 082145Z 32006KT 9999 FEW025 14/12 Q1026 NOSIG=
201112082130 METAR LMML NIL=
201112082115 METAR LMML 082115Z 31008KT 9999 SCT026 15/12 Q1025 NOSIG=
201112082100 METAR LMML NIL=
201112082045 METAR LMML 082045Z 29006KT 270V340 9999 FEW022 15/12 Q1025
                        NOSIG=
201112082030 METAR LMML NIL=
201112082015 METAR LMML 082015Z 30008KT 9999 FEW020 15/12 Q1025 NOSIG=
201112082000 METAR LMML NIL=
201112081945 METAR LMML 081945Z 30010KT 9999 FEW024 15/12 Q1025 NOSIG=
201112081930 METAR LMML NIL=
201112081915 METAR LMML 081915Z 31009KT 9999 FEW024 15/12 Q1025 NOSIG=
201112081900 METAR LMML NIL=
201112081845 METAR LMML 081845Z 31013KT 9999 FEW024 15/11 Q1025 NOSIG=
201112081830 METAR LMML NIL=
201112081815 METAR LMML 081815Z 30011KT 9999 FEW024 15/12 Q1025 NOSIG=
201112081745 METAR LMML 081745Z 30011KT 9999 FEW023 15/12 Q1025 NOSIG=
201112081730 METAR LMML NIL=
201112081715 METAR LMML 081715Z 30011KT 270V330 9999 FEW024 15/11 Q1024
                        NOSIG=
201112081700 METAR LMML NIL=
201112081645 METAR LMML 081645Z 30011KT 9999 FEW024 16/12 Q1024 NOSIG=
201112081630 METAR LMML NIL=
201112081615 METAR LMML 081615Z 31012KT 9999 FEW024 16/12 Q1024 NOSIG=
201112081545 METAR LMML 081545Z 30013KT 9999 FEW024 16/12 Q1024 NOSIG=
201112081530 METAR LMML NIL=
201112081515 METAR LMML 081515Z 31015KT 9999 SCT025 16/12 Q1024 NOSIG=
201112081500 METAR LMML NIL=
201112081445 METAR LMML 081445Z 31017KT 9999 SCT023 17/12 Q1024 NOSIG=
201112081430 METAR LMML NIL=
201112081415 METAR LMML 081415Z 30018KT 9999 SCT022 17/12 Q1024 NOSIG=
201112081400 METAR LMML NIL=
201112081345 METAR LMML 081345Z 30015KT 270V330 9999 SCT023 17/12 Q1024
                        NOSIG=
201112081330 METAR LMML NIL=
201112081315 METAR LMML 081315Z 30016KT 270V330 9999 SCT024 17/12 Q1024
                        NOSIG=
201112081245 METAR LMML 081245Z 30018KT 270V330 9999 BKN024 18/12 Q1024
                        NOSIG=
201112081230 METAR LMML NIL=
201112081215 METAR LMML 081215Z 30020G30KT 9999 BKN019 18/13 Q1024 NOSIG=
201112081200 METAR LMML NIL=
201112081145 METAR LMML 081145Z 29018KT 260V320 9999 BKN021 18/14 Q1024
                        NOSIG=
201112081130 METAR LMML NIL=
201112081115 METAR LMML 081115Z 29018KT 250V320 9999 BKN020 18/13 Q1024
                        NOSIG=
201112081045 METAR LMML 081045Z 29017KT 260V330 9999 SCT020 18/13 Q1025
                        NOSIG=
201112081030 METAR LMML NIL=
201112081015 METAR LMML 081015Z 29016KT 260V320 9999 BKN018 17/13 Q1025
                        NOSIG=
201112081000 METAR LMML NIL=
201112080945 METAR LMML 080945Z 29017KT 9999 BKN018 17/13 Q1025 NOSIG=
201112080930 METAR LMML NIL=
201112080915 METAR LMML 080915Z 29016KT 9999 SCT020 17/13 Q1025 NOSIG=
201112080900 METAR LMML NIL=
201112080845 METAR LMML 080845Z 29013KT 260V320 9999 SCT021 17/13 Q1025
                        NOSIG=
201112080830 METAR LMML NIL=
201112080815 METAR LMML 080815Z 29014KT 9999 -SHRA SCT022 17/13 Q1025
                        NOSIG=
201112080745 METAR LMML 080745Z 29016KT 260V320 9999 SCT024 16/12 Q1025
                        NOSIG=
201112080730 METAR LMML NIL=
201112080715 METAR LMML 080715Z 29014KT 260V320 9999 SCT020 16/12 Q1025
                        NOSIG=
201112080700 METAR LMML NIL=
201112080645 METAR LMML 080645Z 29012KT 9999 SCT023 16/11 Q1025 NOSIG=
201112080630 METAR LMML NIL=
201112080615 METAR LMML 080615Z 29010KT 9999 -SHRA SCT023 SCT050 15/12
                        Q1024 NOSIG=
201112080600 METAR LMML NIL=
201112080545 METAR LMML 080545Z 30011KT 9999 FEW031 SCT050 15/11 Q1024
                        NOSIG=
201112080515 METAR LMML 080515Z 29009KT 260V320 9999 FEW024 SCT050 15/11
                        Q1024 NOSIG=
201112080500 METAR LMML NIL=
201112080445 METAR LMML 080445Z 29011KT 9999 FEW025 SCT050 15/11 Q1024
                        NOSIG=
201112080430 METAR LMML NIL=
201112080415 METAR LMML 080415Z 30011KT 9999 FEW026 SCT045 15/11 Q1024
                        NOSIG=
201112080400 METAR LMML NIL=
201112080345 METAR LMML 080345Z 30007KT 260V330 9999 FEW028 SCT045 15/10
                        Q1024 NOSIG=
201112080330 METAR LMML NIL=
201112080315 METAR LMML 080315Z 29009KT 9999 FEW025 15/10 Q1024 NOSIG=
201112080300 METAR LMML NIL=
201112080245 METAR LMML 080245Z 29012KT 9999 FEW025 15/10 Q1024 NOSIG=
201112080215 METAR LMML 080215Z 30010KT 9999 FEW025 15/10 Q1024 NOSIG=
201112080200 METAR LMML NIL=
201112080145 METAR LMML 080145Z 30012KT 9999 FEW027 15/10 Q1024 NOSIG=
201112080130 METAR LMML NIL=
201112080115 METAR LMML 080115Z 30012KT 9999 FEW026 15/10 Q1024 NOSIG=
201112080100 METAR LMML NIL=
201112080045 METAR LMML 080045Z 29010KT 9999 FEW026 15/11 Q1024 NOSIG=
201112080030 METAR LMML NIL=
201112080015 METAR LMML 080015Z 29009KT 260V320 9999 FEW027 15/11 Q1025
                        NOSIG=
201112080000 METAR LMML NIL=
201112072345 METAR LMML 072345Z 30012KT 9999 SCT027 15/11 Q1025 NOSIG=
201112072330 METAR LMML NIL=
201112072315 METAR LMML 072315Z 30009KT 9999 SCT027 SCT050 15/11 Q1025
                        NOSIG=
201112072300 METAR LMML NIL=
201112072245 METAR LMML 072245Z 31006KT 9999 FEW031 SCT050 14/11 Q1025
                        NOSIG=
201112072230 METAR LMML NIL=
201112072215 METAR LMML 072215Z 31012KT 9999 SCT031 SCT050 15/11 Q1025
                        NOSIG=
201112072200 METAR LMML NIL=
201112072145 METAR LMML 072145Z 30007KT 9999 SCT031 14/10 Q1025 NOSIG=
201112072130 METAR LMML NIL=
201112072115 METAR LMML 072115Z 30007KT 260V320 9999 FEW031 14/09 Q1025
                        NOSIG=
201112072100 METAR LMML NIL=
201112072045 METAR LMML 072045Z 30007KT 270V330 9999 FEW025 14/10 Q1025
                        NOSIG=
201112072030 METAR LMML NIL=
201112072015 METAR LMML 072015Z 30010KT 9999 FEW025 14/09 Q1025 NOSIG=
201112072000 METAR LMML NIL=
201112071945 METAR LMML 071945Z 30007KT 270V330 9999 FEW025 14/09 Q1025
                        NOSIG=
201112071915 METAR LMML 071915Z 31011KT 9999 FEW025 14/10 Q1024 NOSIG=
201112071900 METAR LMML NIL=
201112071845 METAR LMML 071845Z 30013KT 9999 FEW025 15/10 Q1024 NOSIG=
201112071830 METAR LMML NIL=
201112071815 METAR LMML 071815Z 30016KT 9999 FEW025 15/10 Q1024 NOSIG=
201112071800 METAR LMML NIL=
201112071745 METAR LMML 071745Z 31014KT 9999 FEW030 15/10 Q1024 NOSIG=
201112071730 METAR LMML NIL=
201112071715 METAR LMML 071715Z 30014KT 9999 FEW030 15/10 Q1023 NOSIG=
201112071645 METAR LMML 071645Z 30013KT 9999 FEW030 15/10 Q1023 NOSIG=
201112071630 METAR LMML NIL=
201112071615 METAR LMML 071615Z 30014KT 9999 FEW030 15/10 Q1023 NOSIG=
201112071600 METAR LMML NIL=
201112071545 METAR LMML 071545Z 30016KT 9999 FEW030 16/09 Q1023 NOSIG=
201112071530 METAR LMML NIL=
201112071515 METAR LMML 071515Z 30017KT 9999 SCT030 16/10 Q1023 NOSIG=
201112071500 METAR LMML NIL=
201112071445 METAR LMML 071445Z 30018KT 270V330 9999 SCT032 17/10 Q1023
                        NOSIG=
201112071430 METAR LMML NIL=
201112071415 METAR LMML 071415Z 30016KT 270V330 9999 FEW032 FEW039 17/11
                        Q1023 NOSIG=
201112071400 METAR LMML NIL=
201112071345 METAR LMML 071345Z 29019G29KT 260V320 9999 SCT031 17/11 Q1023
                        NOSIG=
201112071330 METAR LMML NIL=
201112071315 METAR LMML 071315Z 29020KT 270V330 9999 -SHRA SCT028 17/12
                        Q1022 NOSIG=
201112071300 METAR LMML NIL=
201112071245 METAR LMML 071245Z 30019KT 260V330 9999 SCT029 18/11 Q1023
                        NOSIG=
201112071230 METAR LMML NIL=
201112071215 METAR LMML 071215Z 29019KT 9999 BKN027 17/11 Q1022 NOSIG=
201112071200 METAR LMML NIL=
201112071145 METAR LMML 071145Z 29018KT 9999 SCT028 17/11 Q1023 NOSIG=
201112071130 METAR LMML NIL=
201112071115 METAR LMML 071115Z 29016KT 9999 SCT027 17/12 Q1023 NOSIG=
201112071100 METAR LMML NIL=
201112071045 METAR LMML 071045Z 29016KT 250V320 9999 SCT028 17/11 Q1023
                        NOSIG=
201112071030 METAR LMML NIL=
201112071015 METAR LMML 071015Z 30016KT 9999 SCT024 17/11 Q1023 NOSIG=
201112071000 METAR LMML NIL=
201112070945 METAR LMML 070945Z 29015KT 250V320 9999 SCT025 18/12 Q1023
                        NOSIG=
201112070930 METAR LMML NIL=
201112070915 METAR LMML 070915Z 28016KT 250V310 9999 FEW024 SCT250 17/12
                        Q1023 NOSIG=
201112070900 METAR LMML NIL=
201112070845 METAR LMML 070845Z 28015KT 9999 FEW024 SCT250 17/12 Q1023
                        NOSIG=
201112070830 METAR LMML NIL=
201112070815 METAR LMML 070815Z 28013KT 9999 SCT025 SCT250 17/11 Q1023
                        NOSIG=
201112070800 METAR LMML NIL=
201112070745 METAR LMML 070745Z 28014KT 250V310 9999 SCT025 BKN070 16/12
                        Q1022 NOSIG=
201112070730 METAR LMML NIL=
201112070715 METAR LMML 070715Z 28011KT 9999 SCT025 BKN070 16/12 Q1022
                        NOSIG=
201112070700 METAR LMML NIL=
201112070645 METAR LMML 070645Z 28011KT 250V320 9999 SCT024 BKN070 16/11
                        Q1022 NOSIG=
201112070630 METAR LMML NIL=
201112070615 METAR LMML 070615Z 28009KT 9999 SCT024 15/11 Q1022 NOSIG=
201112070600 METAR LMML NIL=
201112070545 METAR LMML 070545Z 28008KT 240V310 9999 FEW027 15/11 Q1022
                        NOSIG=
201112070530 METAR LMML NIL=
201112070515 METAR LMML 070515Z 28011KT 250V310 9999 FEW034 15/10 Q1021
                        NOSIG=
201112070500 METAR LMML NIL=
201112070445 METAR LMML 070445Z 29009KT 9999 FEW033 15/10 Q1021 NOSIG=
201112070430 METAR LMML NIL=
201112070415 METAR LMML 070415Z 30010KT 9999 FEW031 15/10 Q1021 NOSIG=
201112070400 METAR LMML NIL=
201112070345 METAR LMML 070345Z 29010KT 260V320 9999 FEW029 15/10 Q1021
                        NOSIG=
201112070330 METAR LMML NIL=
201112070315 METAR LMML 070315Z 29011KT 9999 FEW034 15/10 Q1021 NOSIG=
201112070300 METAR LMML NIL=
201112070245 METAR LMML 070245Z 29011KT 260V320 9999 FEW026 15/10 Q1021
                        NOSIG=
201112070230 METAR LMML NIL=
201112070215 METAR LMML 070215Z 29009KT 9999 FEW026 15/10 Q1021 NOSIG=
201112070200 METAR LMML NIL=
201112070145 METAR LMML 070145Z 29011KT 9999 FEW026 15/10 Q1021 NOSIG=
201112070130 METAR LMML NIL=
201112070115 METAR LMML 070115Z 29011KT 9999 FEW026 15/10 Q1021 NOSIG=
201112070100 METAR LMML NIL=
201112070045 METAR LMML 070045Z 29011KT 260V320 9999 FEW028 SCT080 15/10
                        Q1021 NOSIG=
201112070030 METAR LMML NIL=
201112070015 METAR LMML 070015Z 29011KT 240V320 9999 FEW026 SCT048 BKN070
                        15/11 Q1021 NOSIG=
201112070000 METAR LMML NIL=
201112062345 METAR LMML 062345Z 29010KT 260V320 9999 SCT022 SCT060 16/12
                        Q1021 NOSIG=
201112062330 METAR LMML NIL=
201112062315 METAR LMML 062315Z 30011KT 260V320 9999 SCT022 15/12 Q1021
                        NOSIG=
201112062300 METAR LMML NIL=
201112062245 METAR LMML 062245Z 27008KT 240V300 9999 SCT022 15/12 Q1021
                        NOSIG=
201112062230 METAR LMML NIL=
201112062215 METAR LMML 062215Z 28010KT 250V310 9999 FEW022 SCT060 15/11
                        Q1021 NOSIG=
201112062200 METAR LMML NIL=
201112062145 METAR LMML 062145Z 28009KT 240V300 9999 FEW020 SCT060 16/12
                        Q1021 NOSIG=
201112062130 METAR LMML NIL=
201112062115 METAR LMML 062115Z 28010KT 9999 FEW020 SCT100 15/12 Q1021
                        NOSIG=
201112062100 METAR LMML NIL=
201112062045 METAR LMML 062045Z 28009KT 9999 FEW020 15/12 Q1021 NOSIG=
201112062030 METAR LMML NIL=
201112062015 METAR LMML 062015Z 27009KT 240V300 9999 FEW020 15/12 Q1021
                        NOSIG=
201112062000 METAR LMML NIL=
201112061945 METAR LMML 061945Z 28010KT 9999 FEW020 15/12 Q1021 NOSIG=
201112061930 METAR LMML NIL=
201112061915 METAR LMML 061915Z 27007KT 240V300 9999 FEW020 15/12 Q1020
                        NOSIG=
201112061900 METAR LMML NIL=
201112061845 METAR LMML 061845Z 28007KT 240V310 9999 FEW020 SCT060 15/12
                        Q1020 NOSIG=
201112061830 METAR LMML NIL=
201112061815 METAR LMML 061815Z 28008KT 9999 FEW020 SCT060 15/12 Q1020
                        NOSIG=
201112061745 METAR LMML 061745Z 28007KT 9999 FEW020 SCT060 16/13 Q1020
                        NOSIG=
201112061730 METAR LMML NIL=
201112061715 METAR LMML 061715Z 28008KT 240V310 9999 FEW020 SCT080 16/12
                        Q1020 NOSIG=
201112061700 METAR LMML NIL=
201112061645 METAR LMML 061645Z 28010KT 9999 FEW020 SCT080 15/12 Q1020
                        NOSIG=
201112061630 METAR LMML NIL=
201112061615 METAR LMML 061615Z 27010KT 230V300 9999 FEW023 SCT050 16/12
                        Q1020 NOSIG=
201112061600 METAR LMML NIL=
201112061545 METAR LMML 061545Z 27010KT 240V300 9999 FEW023 16/12 Q1019
                        NOSIG=
201112061530 METAR LMML NIL=
201112061515 METAR LMML 061515Z 28012KT 250V310 9999 FEW025 16/12 Q1019
                        NOSIG=
201112061500 METAR LMML NIL=
201112061445 METAR LMML 061445Z 28012KT 240V310 9999 FEW025 17/11 Q1019
                        NOSIG=
201112061430 METAR LMML NIL=
201112061415 METAR LMML 061415Z 28013KT 250V310 9999 FEW029 17/11 Q1019
                        NOSIG=
201112061400 METAR LMML NIL=
201112061345 METAR LMML 061345Z 27011KT 240V320 9999 SCT022 18/12 Q1019
                        NOSIG=
201112061330 METAR LMML NIL=
201112061315 METAR LMML 061315Z 28012KT 9999 FEW029 FEW036 18/12 Q1019
                        NOSIG=
201112061245 METAR LMML 061245Z 28013KT 240V310 9999 SCT022 18/12 Q1019
                        NOSIG=
201112061230 METAR LMML NIL=
201112061215 METAR LMML 061215Z 28010KT 250V310 9999 FEW020 18/12 Q1019
                        NOSIG=
201112061200 METAR LMML NIL=
201112061145 METAR LMML 061145Z 27011KT 220V310 9999 FEW020 18/11 Q1019
                        NOSIG=
201112061130 METAR LMML NIL=
201112061115 METAR LMML 061115Z 27014KT 230V300 9999 FEW019 18/13 Q1020
                        NOSIG=
201112061100 METAR LMML NIL=
201112061045 METAR LMML 061045Z 27014KT 230V300 9999 SCT020 18/14 Q1020
                        NOSIG=
201112061030 METAR LMML NIL=
201112061015 METAR LMML 061015Z 24013KT 190V280 9999 BKN018 18/14 Q1020
                        NOSIG=
201112061000 METAR LMML NIL=
201112060945 METAR LMML 060945Z 23012KT 180V270 9999 BKN019 19/14 Q1021
                        NOSIG=
201112060930 METAR LMML NIL=
201112060915 METAR LMML 060915Z 24012KT 200V290 9999 BKN020 18/13 Q1021
                        NOSIG=
201112060900 METAR LMML NIL=
201112060845 METAR LMML 060845Z 24011KT 200V260 9999 FEW021 18/13 Q1021
                        NOSIG=
201112060830 METAR LMML NIL=
201112060815 METAR LMML 060815Z 24008KT 200V280 9999 FEW023 18/13 Q1021
                        NOSIG=
201112060800 METAR LMML NIL=
201112060745 METAR LMML 060745Z 23008KT 190V270 9999 FEW023 16/12 Q1020
                        NOSIG=
201112060730 METAR LMML NIL=
201112060715 METAR LMML 060715Z 23008KT 190V260 9999 FEW023 16/13 Q1020
                        NOSIG=
201112060700 METAR LMML NIL=
201112060645 METAR LMML 060645Z 23008KT 210V280 9999 FEW023 16/12 Q1021
                        NOSIG=
201112060630 METAR LMML NIL=
201112060615 METAR LMML 060615Z 23008KT 200V280 9999 FEW021 16/12 Q1020
                        NOSIG=
201112060545 METAR LMML 060545Z 24007KT 210V270 9999 FEW024 15/12 Q1020
                        NOSIG=
201112060530 METAR LMML NIL=
201112060515 METAR LMML 060515Z 24007KT 210V270 9999 FEW024 SCT120 15/12
                        Q1020 NOSIG=
201112060500 METAR LMML NIL=
201112060445 METAR LMML 060445Z 24008KT 210V280 9999 FEW024 15/12 Q1020
                        NOSIG=
201112060430 METAR LMML NIL=
201112060415 METAR LMML 060415Z 25007KT 220V280 9999 FEW024 15/12 Q1020
                        NOSIG=
201112060345 METAR LMML 060345Z 24007KT 200V270 9999 FEW024 16/12 Q1020
                        NOSIG=
201112060330 METAR LMML NIL=
201112060315 METAR LMML 060315Z 24008KT 210V280 9999 FEW027 16/11 Q1020
                        NOSIG=
201112060300 METAR LMML NIL=
201112060245 METAR LMML 060245Z 24008KT 210V270 9999 FEW025 16/12 Q1020
                        NOSIG=
201112060230 METAR LMML NIL=
201112060215 METAR LMML 060215Z 25008KT 220V280 9999 FEW021 16/11 Q1020
                        NOSIG=
201112060200 METAR LMML NIL=
201112060145 METAR LMML 060145Z 25008KT 220V280 9999 FEW021 16/11 Q1021
                        NOSIG=
201112060130 METAR LMML NIL=
201112060115 METAR LMML 060115Z 25007KT 210V290 9999 FEW021 16/12 Q1021
                        NOSIG=
201112060100 METAR LMML NIL=
201112060045 METAR LMML 060045Z 24008KT 200V280 9999 FEW023 16/12 Q1021
                        NOSIG=
201112060030 METAR LMML NIL=
201112060015 METAR LMML 060015Z 24008KT 210V280 9999 FEW024 16/12 Q1021
                        NOSIG=
201112060000 METAR LMML NIL=
201112052345 METAR LMML 052345Z 24008KT 200V280 9999 FEW026 16/11 Q1021
                        NOSIG=
201112052330 METAR LMML NIL=
201112052315 METAR LMML 052315Z 23007KT 200V270 9999 FEW025 15/11 Q1021
                        NOSIG=
201112052300 METAR LMML NIL=
201112052245 METAR LMML 052245Z 24009KT 200V270 9999 FEW025 16/11 Q1021
                        NOSIG=
201112052230 METAR LMML NIL=
201112052215 METAR LMML 052215Z 23008KT 200V270 9999 FEW023 16/11 Q1021
                        NOSIG=
201112052200 METAR LMML NIL=
201112052145 METAR LMML 052145Z 23009KT 200V270 9999 FEW023 16/11 Q1021
                        NOSIG=
201112052130 METAR LMML NIL=
201112052115 METAR LMML 052115Z 23008KT 200V270 9999 FEW023 16/12 Q1022
                        NOSIG=
201112052100 METAR LMML NIL=
201112052045 METAR LMML 052045Z 23008KT 200V270 9999 FEW023 16/12 Q1022
                        NOSIG=
201112052030 METAR LMML NIL=
201112052015 METAR LMML 052015Z 23007KT 190V270 9999 FEW023 16/12 Q1022
                        NOSIG=
201112052000 METAR LMML NIL=
201112051945 METAR LMML 051945Z 23007KT 200V280 9999 FEW024 16/12 Q1022
                        NOSIG=
201112051930 METAR LMML NIL=
201112051915 METAR LMML 051915Z 24006KT 200V270 9999 FEW025 15/12 Q1022
                        NOSIG=
201112051900 METAR LMML NIL=
201112051845 METAR LMML 051845Z 24006KT 200V270 9999 FEW024 15/12 Q1022
                        NOSIG=
201112051830 METAR LMML NIL=
201112051815 METAR LMML 051815Z 24007KT 200V280 9999 FEW024 15/12 Q1022
                        NOSIG=
201112051800 METAR LMML NIL=
201112051745 METAR LMML 051745Z 24006KT 200V280 9999 FEW023 15/12 Q1021
                        NOSIG=
201112051730 METAR LMML NIL=
201112051715 METAR LMML 051715Z 24006KT 9999 FEW023 15/12 Q1021 NOSIG=
201112051700 METAR LMML NIL=
201112051645 METAR LMML 051645Z 24005KT 200V280 9999 FEW020 15/11 Q1021
                        NOSIG=
201112051630 METAR LMML NIL=
201112051615 METAR LMML 051615Z 24005KT 200V280 9999 FEW020 15/11 Q1021
                        NOSIG=
201112051600 METAR LMML NIL=
201112051545 METAR LMML 051545Z 24006KT 200V290 9999 FEW020 16/11 Q1021
                        NOSIG=
201112051530 METAR LMML NIL=
201112051515 METAR LMML 051515Z 24006KT 200V290 9999 FEW020 16/12 Q1021
                        NOSIG=
201112051445 METAR LMML 051445Z 24007KT 200V280 9999 FEW020 17/12 Q1021
                        NOSIG=
201112051415 METAR LMML 051415Z 25008KT 200V280 9999 FEW020 17/12 Q1021
                        NOSIG=
201112051400 METAR LMML NIL=
201112051345 METAR LMML 051345Z 25008KT 210V290 9999 FEW020 17/12 Q1021
                        NOSIG=
201112051330 METAR LMML NIL=
201112051315 METAR LMML 051315Z 24008KT 200V280 9999 FEW019 17/13 Q1021
                        NOSIG=
201112051300 METAR LMML NIL=
201112051245 METAR LMML 051245Z 24008KT 200V280 9999 FEW021 17/12 Q1021
                        NOSIG=
201112051230 METAR LMML NIL=
201112051215 METAR LMML 051215Z 24010KT 200V280 9999 FEW019 17/12 Q1021
                        NOSIG=
201112051200 METAR LMML NIL=
201112051145 METAR COR LMML 051145Z 24008KT 200V290 9999 FEW019 18/12
                        Q1022 NOSIG=
201112051130 METAR LMML NIL=
201112051115 METAR LMML 051115Z 24009KT 200V270 9999 FEW019 17/12 Q1022
                        NOSIG=
201112051100 METAR LMML NIL=
201112051045 METAR LMML 051045Z 23006KT 200V270 9999 FEW020 18/13 Q1022
                        NOSIG=
201112051030 METAR LMML NIL=
201112051015 METAR LMML 051015Z 24007KT 200V290 9999 FEW020 17/12 Q1023
                        NOSIG=
201112051000 METAR LMML NIL=
201112050945 METAR LMML 050945Z 23007KT 200V290 9999 FEW020 17/12 Q1023
                        NOSIG=
201112050930 METAR LMML NIL=
201112050915 METAR LMML 050915Z 24007KT 210V290 9999 FEW020 17/12 Q1024
                        NOSIG=
201112050900 METAR LMML NIL=
201112050845 METAR LMML 050845Z 24006KT 180V280 9999 FEW020 17/12 Q1024
                        NOSIG=
201112050830 METAR LMML NIL=
201112050815 METAR LMML 050815Z 24005KT 190V300 9999 FEW020 16/12 Q1024
                        NOSIG=
201112050800 METAR LMML NIL=
201112050745 METAR LMML 050745Z 23005KT 200V280 9999 FEW020 16/12 Q1023
                        NOSIG=
201112050730 METAR LMML NIL=
201112050715 METAR LMML 050715Z 23005KT 210V270 9999 SCT020 15/12 Q1023
                        NOSIG=
201112050700 METAR LMML NIL=
201112050645 METAR LMML 050645Z 24004KT 9999 SCT020 14/11 Q1023 NOSIG=
201112050630 METAR LMML NIL=
201112050615 METAR LMML 050615Z 24005KT 9999 SCT020 14/11 Q1023 NOSIG=
201112050600 METAR LMML NIL=
201112050545 METAR LMML 050545Z 23005KT 9999 SCT019 14/11 Q1023 NOSIG=
201112050515 METAR LMML 050515Z 23005KT 9999 SCT019 14/11 Q1023 NOSIG=
201112050445 METAR LMML 050445Z 23005KT 200V260 9999 FEW020 14/11 Q1023
                        NOSIG=
201112050430 METAR LMML NIL=
201112050415 METAR LMML 050415Z 23005KT 9999 FEW018 14/11 Q1022 NOSIG=
201112050400 METAR LMML NIL=
201112050345 METAR LMML 050345Z 24004KT CAVOK 14/11 Q1022 NOSIG=
201112050315 METAR LMML 050315Z 23004KT CAVOK 13/11 Q1022 NOSIG=
201112050300 METAR LMML NIL=
201112050245 METAR LMML 050245Z 24004KT CAVOK 13/11 Q1023 NOSIG=
201112050230 METAR LMML NIL=
201112050215 METAR LMML 050215Z 23004KT CAVOK 13/11 Q1023 NOSIG=
201112050200 METAR LMML NIL=
201112050145 METAR LMML 050145Z 24005KT 9999 FEW020 13/11 Q1023 NOSIG=
201112050115 METAR LMML 050115Z 25005KT 9999 FEW020 13/11 Q1023 NOSIG=
201112050100 METAR LMML NIL=
201112050045 METAR LMML 050045Z 24005KT 9999 FEW020 13/11 Q1023 NOSIG=
201112050030 METAR LMML NIL=
201112050015 METAR LMML 050015Z 24004KT 9999 FEW020 13/11 Q1023 NOSIG=
201112050000 METAR LMML NIL=
201112042345 METAR LMML 042345Z 24003KT 9999 FEW020 13/11 Q1023 NOSIG=
201112042330 METAR LMML NIL=
201112042315 METAR LMML 042315Z 24003KT 9999 FEW020 13/11 Q1024 NOSIG=
201112042300 METAR LMML NIL=
201112042245 METAR LMML 042245Z 24004KT 9999 FEW020 14/12 Q1024 NOSIG=
201112042230 METAR LMML NIL=
201112042215 METAR LMML 042215Z 24004KT 9999 FEW020 13/12 Q1024 NOSIG=
201112042200 METAR LMML NIL=
201112042145 METAR LMML 042145Z 23004KT CAVOK 13/11 Q1024 NOSIG=
201112042130 METAR LMML NIL=
201112042115 METAR LMML 042115Z 23003KT CAVOK 13/11 Q1024 NOSIG=
201112042100 METAR LMML NIL=
201112042045 METAR LMML 042045Z 24003KT CAVOK 13/11 Q1024 NOSIG=
201112042030 METAR LMML NIL=
201112042015 METAR LMML 042015Z 24003KT CAVOK 13/11 Q1024 NOSIG=
201112042000 METAR LMML NIL=
201112041945 METAR LMML 041945Z 25003KT CAVOK 13/11 Q1024 NOSIG=
201112041930 METAR LMML NIL=
201112041915 METAR LMML 041915Z 25003KT CAVOK 13/11 Q1024 NOSIG=
201112041900 METAR LMML NIL=
201112041845 METAR LMML 041845Z 27004KT CAVOK 14/12 Q1024 NOSIG=
201112041830 METAR LMML NIL=
201112041815 METAR LMML 041815Z 26003KT 9999 FEW025 14/12 Q1024 NOSIG=
201112041800 METAR LMML NIL=
201112041745 METAR LMML 041745Z 25003KT 9999 FEW025 14/12 Q1023 NOSIG=
201112041730 METAR LMML NIL=
201112041715 METAR LMML 041715Z 26004KT 9999 FEW025 15/11 Q1023 NOSIG=
201112041700 METAR LMML NIL=
201112041645 METAR LMML 041645Z 25003KT 9999 FEW025 15/12 Q1023 NOSIG=
201112041630 METAR LMML NIL=
201112041615 METAR LMML 041615Z 26003KT 9999 FEW025 15/12 Q1023 NOSIG=
201112041600 METAR LMML NIL=
201112041545 METAR LMML 041545Z 27003KT 9999 FEW025 16/12 Q1023 NOSIG=
201112041530 METAR LMML NIL=
201112041515 METAR LMML 041515Z 26005KT 210V290 9999 FEW025 17/12 Q1023
                        NOSIG=
201112041500 METAR LMML NIL=
201112041445 METAR LMML 041445Z 25005KT 220V290 9999 FEW025TCU 18/12 Q1023
                        NOSIG=
201112041430 METAR LMML NIL=
201112041415 METAR LMML 041415Z 27006KT 240V300 9999 FEW025TCU 18/11 Q1023
                        NOSIG=
201112041400 METAR LMML NIL=
201112041345 METAR LMML 041345Z 26006KT 190V300 9999 SCT025TCU 18/12 Q1023
                        TEMPO 8000 SHRA BKN020TCU=
201112041330 METAR LMML NIL=
201112041315 METAR LMML 041315Z 25006KT 210V280 9999 SCT025TCU 18/12 Q1023
                        TEMPO 8000 SHRA BKN020TCU=
201112041300 METAR LMML NIL=
201112041245 METAR LMML 041245Z 24007KT 200V300 9999 SCT024TCU 18/13 Q1023
                        NOSIG=
201112041230 METAR LMML NIL=
201112041215 METAR LMML 041215Z 26006KT 210V300 9999 FEW023TCU SCT025
                        18/12 Q1023 NOSIG=
201112041200 METAR LMML NIL=
201112041145 METAR LMML 041145Z 24007KT 200V290 9999 SCT025 18/12 Q1023
                        NOSIG=
201112041130 METAR LMML NIL=
201112041115 METAR LMML 041115Z 24006KT 190V290 9999 SCT025 18/12 Q1023
                        NOSIG=
201112041100 METAR LMML NIL=
201112041045 METAR LMML 041045Z 24006KT 190V290 9999 SCT025 18/12 Q1024
                        NOSIG=
201112041030 METAR LMML NIL=
201112041015 METAR LMML 041015Z 23007KT 170V280 9999 SCT025 18/12 Q1024
                        NOSIG=
201112041000 METAR LMML NIL=
201112040945 METAR LMML 040945Z 22006KT 190V260 9999 SCT027 18/12 Q1024
                        NOSIG=
201112040930 METAR LMML NIL=
201112040915 METAR LMML 040915Z 22005KT 190V050 9999 SCT027 18/12 Q1024
                        NOSIG=
201112040900 METAR LMML NIL=
201112040845 METAR LMML 040845Z 22005KT 190V260 9999 SCT025 18/12 Q1024
                        NOSIG=
201112040830 METAR LMML NIL=
201112040815 METAR LMML 040815Z 22004KT 190V270 9999 FEW025 17/12 Q1024
                        NOSIG=
201112040800 METAR LMML NIL=
201112040745 METAR LMML 040745Z 22004KT 190V250 9999 FEW025 16/12 Q1024
                        NOSIG=
201112040730 METAR LMML NIL=
201112040715 METAR LMML 040715Z 23004KT 180V260 9999 FEW025 16/12 Q1023
                        NOSIG RMK CB TOPS TO NNE=
201112040700 METAR LMML NIL=
201112040645 METAR LMML 040645Z 23003KT 9999 FEW024 15/12 Q1023 NOSIG
                        RMK CB TOPS TO NNE=
201112040630 METAR LMML NIL=
201112040615 METAR LMML 040615Z 21003KT 9999 FEW022TCU SCT080 14/12 Q1023
                        NOSIG RMK CB TOPS TO N/NNE AND NE=
201112040600 METAR LMML NIL=
201112040545 METAR LMML 040545Z 23003KT 9999 FEW021 FEW080 15/12 Q1023
                        NOSIG=
201112040530 METAR LMML NIL=
201112040515 METAR LMML 040515Z 21004KT 9999 FEW021 SCT080 15/12 Q1023
                        NOSIG=
201112040500 METAR LMML NIL=
201112040445 METAR LMML 040445Z 21003KT 9999 FEW022 BKN080 15/12 Q1023
                        TEMPO SHRA BKN015=
201112040430 METAR LMML NIL=
201112040415 METAR LMML 040415Z 21003KT 9999 FEW022 BKN090 15/12 Q1023
                        TEMPO SHRA BKN015=
201112040400 METAR LMML NIL=
201112040345 METAR LMML 040345Z 21004KT 9999 FEW021 SCT080 15/12 Q1022
                        TEMPO SHRA BKN015=
201112040330 METAR LMML NIL=
201112040315 METAR LMML 040315Z 21004KT 9999 FEW020 14/12 Q1023 TEMPO
                        SHRA BKN015=
201112040300 METAR LMML NIL=
201112040245 METAR LMML 040245Z 21004KT 9999 FEW020 14/12 Q1023 NOSIG=
201112040230 METAR LMML NIL=
201112040215 METAR LMML 040215Z 20004KT 9999 FEW020 14/12 Q1023 NOSIG=
201112040200 METAR LMML NIL=
201112040145 METAR LMML 040145Z 19003KT 9999 SCT020 14/12 Q1023 NOSIG=
201112040130 METAR LMML NIL=
201112040115 METAR LMML 040115Z 20004KT 9999 FEW020 14/12 Q1023 NOSIG=
201112040100 METAR LMML NIL=
201112040045 METAR LMML 040045Z 20003KT 9999 FEW019 15/12 Q1023 NOSIG=
201112040030 METAR LMML NIL=
201112040015 METAR LMML 040015Z 20003KT 9999 FEW018 15/12 Q1023 NOSIG
                        RMK LIGHTNING TO NORTH=
201112040000 METAR LMML NIL=
201112032345 METAR LMML 032345Z 21003KT 9999 FEW019 14/12 Q1024 NOSIG=
201112032330 METAR LMML NIL=
201112032315 METAR LMML 032315Z 20003KT 9999 FEW021 15/12 Q1024 NOSIG=
201112032300 METAR LMML NIL=
201112032245 METAR LMML 032245Z 19004KT 9999 FEW019 15/12 Q1024 NOSIG=
201112032230 METAR LMML NIL=
201112032215 METAR LMML 032215Z 20003KT 9999 FEW019 15/12 Q1024 NOSIG=
201112032200 METAR LMML NIL=
201112032145 METAR LMML 032145Z 20003KT 9999 FEW019 15/12 Q1024 NOSIG=
201112032130 METAR LMML NIL=
201112032115 METAR LMML 032115Z 19004KT 9999 FEW019 15/12 Q1024 NOSIG=
201112032100 METAR LMML NIL=
201112032045 METAR LMML 032045Z 19003KT 9999 FEW019 15/12 Q1024 NOSIG=
201112032030 METAR LMML NIL=
201112032015 METAR LMML 032015Z 19003KT 9999 FEW019 15/12 Q1024 NOSIG=
201112032000 METAR LMML NIL=
201112031945 METAR LMML 031945Z 19003KT 9999 FEW019 15/12 Q1024 NOSIG=
201112031930 METAR LMML NIL=
201112031915 METAR LMML 031915Z 19003KT 9999 FEW020 14/11 Q1024 NOSIG=
201112031900 METAR LMML NIL=
201112031845 METAR LMML 031845Z VRB02KT 9999 FEW021 SCT070 14/11 Q1024
                        NOSIG=
201112031830 METAR LMML NIL=
201112031815 METAR LMML 031815Z VRB01KT 9999 SCT020 SCT070 14/11 Q1024
                        TEMPO 7000 SHRA BKN015TCU=
201112031745 METAR LMML 031745Z 25005KT 200V280 9999 SCT020 15/11 Q1024
                        TEMPO 7000 SHRA BKN015TCU=
201112031730 METAR LMML NIL=
201112031715 METAR LMML 031715Z 22005KT 180V260 9999 SCT021 16/11 Q1024
                        TEMPO 7000 SHRA BKN015TCU=
201112031700 METAR LMML NIL=
201112031645 METAR LMML 031645Z 19003KT 9999 FEW035 16/12 Q1023 TEMPO
                        7000 SHRA BKN015TCU=
201112031630 METAR LMML NIL=
201112031615 METAR LMML 031615Z VRB02KT 9999 SCT033 SCT090 16/12 Q1023
                        TEMPO 7000 SHRA BKN015TCU RMK CB
                        TO NORTHWEST=
201112031600 METAR LMML NIL=
201112031545 METAR LMML 031545Z 18003KT 9999 FEW020 16/12 Q1023 NOSIG
                        RMK CB TO WEST=
201112031530 METAR LMML NIL=
201112031515 METAR LMML 031515Z 18005KT 9999 FEW021 SCT090 17/12 Q1023
                        NOSIG=
201112031500 METAR LMML NIL=
201112031445 METAR LMML 031445Z 18005KT 150V210 9999 FEW023 SCT100 17/12
                        Q1023 NOSIG RMK CB TO NORTH=
201112031430 METAR LMML NIL=
201112031415 METAR LMML 031415Z 18006KT 150V220 9999 FEW020TCU 17/11 Q1023
                        NOSIG=
201112031400 METAR LMML NIL=
201112031345 METAR LMML 031345Z 19007KT 150V220 9999 FEW020 18/12 Q1023
                        NOSIG=
201112031330 METAR LMML NIL=
201112031315 METAR LMML 031315Z 19007KT 150V220 CAVOK 18/12 Q1023 TEMPO
                        7000 SHRA BKN015TCU=
201112031300 METAR LMML NIL=
201112031245 METAR LMML 031245Z 18006KT 140V210 9999 FEW020 18/12 Q1023
                        TEMPO 7000 SHRA BKN015TCU=
201112031230 METAR LMML NIL=
201112031215 METAR LMML 031215Z 17007KT 140V230 9999 FEW018 18/13 Q1024
                        TEMPO 7000 SHRA BKN015TCU=
201112031200 METAR LMML NIL=
201112031145 METAR LMML 031145Z 17007KT 130V200 9999 FEW018TCU 18/13 Q1024
                        RESH TEMPO 7000 SHRA BKN015TCU=
201112031130 METAR LMML NIL=
201112031115 METAR LMML 031115Z 18007KT 140V220 9999 SCT018TCU 18/13 Q1024
                        RESH TEMPO 7000 SHRA BKN015TCU=
201112031100 METAR LMML NIL=
201112031045 METAR LMML 031045Z 17009KT 140V200 9000 SHRA SCT018TCU SCT120
                        16/12 Q1025 TEMPO 7000 SHRA BKN015TCU=
201112031030 METAR LMML NIL=
201112031015 METAR LMML 031015Z 16006KT 120V200 9999 SCT022TCU 18/12 Q1025
                        NOSIG=
201112031000 METAR LMML NIL=
201112030945 METAR LMML 030945Z 15006KT 120V190 9999 FEW020TCU 18/12 Q1025
                        NOSIG RMK CB TOP TO SOUTH=
201112030930 METAR LMML NIL=
201112030915 METAR LMML 030915Z 14006KT 9999 FEW020 17/12 Q1025 NOSIG
                        RMK CB TOP TO SOUTH=
201112030900 METAR LMML NIL=
201112030845 METAR LMML 030845Z 14005KT 120V190 9999 FEW017 17/13 Q1025
                        NOSIG=
201112030830 METAR LMML NIL=
201112030815 METAR LMML 030815Z 16003KT 9999 FEW017 17/13 Q1025 NOSIG=
201112030800 METAR LMML NIL=
201112030745 METAR LMML 030745Z VRB02KT 9999 FEW017 16/13 Q1025 NOSIG=
201112030730 METAR LMML NIL=
201112030715 METAR LMML 030715Z 14003KT 9999 FEW017 14/13 Q1024 NOSIG=
201112030700 METAR LMML NIL=
201112030645 METAR LMML 030645Z VRB02KT 9999 FEW017 12/12 Q1024 NOSIG=
201112030630 METAR LMML NIL=
201112030615 METAR LMML 030615Z VRB02KT 9999 FEW017 11/11 Q1024 NOSIG=
201112030545 METAR LMML 030545Z 15003KT 9999 FEW017 11/11 Q1024 NOSIG=
201112030530 METAR LMML NIL=
201112030515 METAR LMML 030515Z 13003KT 9999 FEW017 11/11 Q1024 NOSIG=
201112030500 METAR LMML NIL=
201112030445 METAR LMML 030445Z VRB01KT CAVOK 12/12 Q1024 NOSIG=
201112030430 METAR LMML NIL=
201112030415 METAR LMML 030415Z VRB01KT CAVOK 11/11 Q1024 NOSIG=
201112030400 METAR LMML NIL=
201112030345 METAR LMML 030345Z VRB01KT 9999 FEW017 12/11 Q1024 NOSIG=
201112030330 METAR LMML NIL=
201112030315 METAR LMML 030315Z VRB02KT 9999 FEW017 12/11 Q1024 NOSIG=
201112030300 METAR LMML NIL=
201112030245 METAR LMML 030245Z 18003KT 9999 FEW019 13/12 Q1024 NOSIG=
201112030230 METAR LMML NIL=
201112030215 METAR LMML 030215Z 18004KT 9999 FEW019 14/12 Q1024 NOSIG=
201112030200 METAR LMML NIL=
201112030145 METAR LMML 030145Z 20003KT 9999 FEW020 13/12 Q1024 NOSIG=
201112030130 METAR LMML NIL=
201112030115 METAR LMML 030115Z 20003KT 9999 FEW019 13/13 Q1024 NOSIG=
201112030100 METAR LMML NIL=
201112030045 METAR LMML 030045Z 20003KT 9999 FEW020 12/12 Q1024 NOSIG=
201112030030 METAR LMML NIL=
201112030015 METAR LMML 030015Z 20003KT 9999 FEW020 12/12 Q1024 NOSIG=
201112030000 METAR LMML NIL=
201112022345 METAR LMML 022345Z VRB02KT 9999 FEW019 12/12 Q1024 NOSIG=
201112022330 METAR LMML NIL=
201112022315 METAR LMML 022315Z VRB01KT 9999 FEW030 12/11 Q1025 NOSIG=
201112022300 METAR LMML NIL=
201112022245 METAR LMML 022245Z VRB01KT 9999 FEW019 12/12 Q1025 NOSIG=
201112022230 METAR LMML NIL=
201112022215 METAR LMML 022215Z VRB01KT 9999 FEW021 12/11 Q1025 NOSIG=
201112022200 METAR LMML NIL=
201112022145 METAR LMML 022145Z VRB01KT 9999 FEW022 12/11 Q1025 NOSIG=
201112022130 METAR LMML NIL=
201112022115 METAR LMML 022115Z VRB01KT 9999 FEW020 12/11 Q1025 NOSIG=
201112022100 METAR LMML NIL=
201112022045 METAR LMML 022045Z VRB01KT 9999 FEW020 12/11 Q1025 NOSIG=
201112022015 METAR LMML 022015Z VRB02KT 9999 FEW020 13/11 Q1025 NOSIG=
201112021945 METAR LMML 021945Z VRB01KT 9999 FEW020 13/11 Q1025 NOSIG=
201112021915 METAR LMML 021915Z VRB01KT 9999 FEW020 13/11 Q1025 NOSIG=
201112021845 METAR LMML 021845Z VRB02KT 9999 FEW020 14/11 Q1025 NOSIG=
201112021830 METAR LMML NIL=
201112021815 METAR LMML 021815Z 26003KT 9999 FEW020 14/11 Q1025 NOSIG=
201112021800 METAR LMML NIL=
201112021745 METAR LMML 021745Z VRB02KT 9999 FEW021 14/11 Q1025 NOSIG=
201112021715 METAR LMML 021715Z VRB02KT 9999 FEW021 14/11 Q1025 NOSIG=
201112021645 METAR LMML 021645Z VRB02KT 9999 FEW020 15/12 Q1024 NOSIG=
201112021630 METAR LMML NIL=
201112021615 METAR LMML 021615Z VRB02KT 9999 FEW020 15/12 Q1024 NOSIG=
201112021600 METAR LMML NIL=
201112021545 METAR LMML 021545Z VRB02KT 9999 FEW024 16/12 Q1024 NOSIG=
201112021530 METAR LMML NIL=
201112021515 METAR LMML 021515Z 25003KT 9999 FEW024 17/12 Q1024 NOSIG=
201112021500 METAR LMML NIL=
201112021445 METAR LMML 021445Z 23004KT 200V260 9999 FEW027 17/12 Q1024
                        NOSIG=
201112021430 METAR LMML NIL=
201112021415 METAR LMML 021415Z 26005KT 200V290 9999 SCT028 17/11 Q1024
                        NOSIG=
201112021400 METAR LMML NIL=
201112021345 METAR LMML 021345Z 24005KT 200V280 9999 SCT027 18/12 Q1024
                        NOSIG=
201112021330 METAR LMML NIL=
201112021315 METAR LMML 021315Z 23006KT 190V280 9999 SCT030 18/12 Q1024
                        NOSIG=
201112021300 METAR LMML NIL=
201112021245 METAR LMML 021245Z 23006KT 190V290 9999 SCT025 BKN032 18/12
                        Q1025 NOSIG=
201112021230 METAR LMML NIL=
201112021215 METAR LMML 021215Z 23005KT 190V280 9999 SCT027 18/12 Q1025
                        NOSIG=
201112021145 METAR LMML 021145Z 24006KT 200V300 9999 SCT027 18/11 Q1025
                        NOSIG=
201112021130 METAR LMML NIL=
201112021115 METAR LMML 021115Z 23005KT 200V270 9999 FEW026 18/11 Q1026
                        NOSIG=
201112021100 METAR LMML NIL=
201112021045 METAR LMML 021045Z 24004KT 190V280 9999 FEW029 18/11 Q1026
                        NOSIG=
201112021030 METAR LMML NIL=
201112021015 METAR LMML 021015Z 22004KT 180V300 9999 FEW026 18/12 Q1026
                        NOSIG=
201112021000 METAR LMML NIL=
201112020945 METAR LMML 020945Z 28003KT 9999 FEW022 18/12 Q1027 NOSIG=
201112020930 METAR LMML NIL=
201112020915 METAR LMML 020915Z 28003KT 9999 FEW022 18/12 Q1027 NOSIG=
201112020900 METAR LMML NIL=
201112020845 METAR LMML 020845Z 28003KT 9999 FEW022 17/12 Q1027 NOSIG=
201112020830 METAR LMML NIL=
201112020815 METAR LMML 020815Z VRB01KT 9999 FEW022 17/13 Q1027 NOSIG=
201112020800 METAR LMML NIL=
201112020745 METAR LMML 020745Z VRB02KT 9999 FEW022 16/12 Q1027 NOSIG=
201112020730 METAR LMML NIL=
201112020715 METAR LMML 020715Z 24003KT 9999 FEW022 15/12 Q1027 NOSIG=
201112020700 METAR LMML NIL=
201112020645 METAR LMML 020645Z 25004KT 9999 FEW022 14/12 Q1027 NOSIG=
201112020630 METAR LMML NIL=
201112020615 METAR LMML 020615Z 26004KT 9999 FEW022 13/11 Q1027 NOSIG=
201112020600 METAR LMML NIL=
201112020545 METAR LMML 020545Z 24003KT 9999 FEW023 12/11 Q1027 NOSIG=
201112020530 METAR LMML NIL=
201112020515 METAR LMML 020515Z 25003KT 9999 FEW020 12/11 Q1026 NOSIG=
201112020500 METAR LMML NIL=
201112020445 METAR LMML 020445Z 26003KT 9999 FEW020 12/12 Q1026 NOSIG=
201112020430 METAR LMML NIL=
201112020415 METAR LMML 020415Z 25003KT 9999 FEW021 12/12 Q1026 NOSIG=
201112020400 METAR LMML NIL=
201112020345 METAR LMML 020345Z 25003KT 9999 FEW021 12/12 Q1026 NOSIG=
201112020330 METAR LMML NIL=
201112020315 METAR LMML 020315Z VRB02KT 9999 FEW020 13/13 Q1027 NOSIG=
201112020300 METAR LMML NIL=
201112020245 METAR LMML 020245Z VRB02KT 9999 FEW022 13/12 Q1027 NOSIG=
201112020230 METAR LMML NIL=
201112020215 METAR LMML 020215Z VRB02KT 9999 FEW012 13/13 Q1027 NOSIG=
201112020200 METAR LMML NIL=
201112020145 METAR LMML 020145Z VRB02KT 9999 FEW012 13/13 Q1027 NOSIG=
201112020130 METAR LMML NIL=
201112020115 METAR LMML 020115Z 26003KT 9999 FEW012 12/12 Q1027 NOSIG=
201112020100 METAR LMML NIL=
201112020045 METAR LMML 020045Z VRB02KT 9999 FEW015 12/12 Q1027 NOSIG=
201112020030 METAR LMML NIL=
201112020015 METAR LMML 020015Z VRB01KT 9999 FEW015 13/12 Q1027 NOSIG=
201112020000 METAR LMML NIL=
201112012345 METAR LMML 012345Z VRB01KT 9999 FEW015 13/12 Q1027 NOSIG=
201112012330 METAR LMML NIL=
201112012315 METAR LMML 012315Z VRB01KT 9999 FEW024 13/12 Q1027 NOSIG=
201112012300 METAR LMML NIL=
201112012245 METAR LMML 012245Z VRB01KT 9999 FEW024 13/11 Q1028 NOSIG=
201112012230 METAR LMML NIL=
201112012215 METAR LMML 012215Z VRB02KT 9999 FEW024 14/12 Q1028 NOSIG=
201112012200 METAR LMML NIL=
201112012145 METAR LMML 012145Z 00000KT 9999 FEW023 SCT037 14/13 Q1028
                        NOSIG=
201112012130 METAR LMML NIL=
201112012115 METAR LMML 012115Z VRB01KT 9999 FEW022 SCT034 14/12 Q1028
                        NOSIG=
201112012100 METAR LMML NIL=
201112012045 METAR LMML 012045Z VRB01KT 9999 FEW022 BKN035 14/13 Q1028
                        NOSIG=
201112012030 METAR LMML NIL=
201112012015 METAR LMML 012015Z VRB01KT 9999 FEW021 BKN034 14/13 Q1028
                        NOSIG=
201112012000 METAR LMML NIL=
201112011945 METAR LMML 011945Z VRB02KT 9999 FEW020 BKN036 14/13 Q1028
                        NOSIG=
201112011930 METAR LMML NIL=
201112011915 METAR LMML 011915Z VRB01KT 9999 FEW020 BKN039 14/12 Q1028
                        NOSIG=
201112011900 METAR LMML NIL=
201112011845 METAR LMML 011845Z VRB02KT 9999 FEW021 14/12 Q1028 NOSIG=
201112011830 METAR LMML NIL=
201112011815 METAR LMML 011815Z VRB02KT 9999 FEW021 SCT046 14/12 Q1028
                        NOSIG=
201112011800 METAR LMML NIL=
201112011745 METAR LMML 011745Z VRB02KT 9999 SCT025 14/12 Q1028 NOSIG=
201112011730 METAR LMML NIL=
201112011715 METAR LMML 011715Z VRB01KT 9999 SCT025 14/12 Q1027 NOSIG=
201112011700 METAR LMML NIL=
201112011645 METAR LMML 011645Z VRB01KT 9999 SCT025 15/12 Q1027 NOSIG=
201112011630 METAR LMML NIL=
201112011615 METAR LMML 011615Z VRB02KT 9999 FEW027 15/12 Q1027 NOSIG=
201112011600 METAR LMML NIL=
201112011545 METAR LMML 011545Z VRB01KT 9999 FEW028 16/12 Q1027 NOSIG=
201112011530 METAR LMML NIL=
201112011515 METAR LMML 011515Z 32003KT 9999 FEW025 SCT050 16/12 Q1027
                        NOSIG=
201112011500 METAR LMML NIL=
201112011445 METAR LMML 011445Z VRB02KT 9999 FEW025 17/12 Q1027 NOSIG=
201112011430 METAR LMML NIL=
201112011415 METAR LMML 011415Z VRB02KT 9999 SCT025 17/12 Q1027 NOSIG=
201112011400 METAR LMML NIL=
201112011345 METAR LMML 011345Z 01003KT 9999 SCT025 18/13 Q1027 NOSIG=
201112011330 METAR LMML NIL=
201112011315 METAR LMML 011315Z 35003KT 9999 SCT024 17/12 Q1027 NOSIG=
201112011300 METAR LMML NIL=
201112011245 METAR LMML 011245Z 02003KT 9999 SCT023 18/13 Q1027 NOSIG=
201112011230 METAR LMML NIL=
201112011215 METAR LMML 011215Z 01004KT 340V040 9999 SCT022 17/13 Q1027
                        NOSIG=
201112011200 METAR LMML NIL=
201112011145 METAR LMML 011145Z 02003KT 9999 SCT022 20/14 Q1028 NOSIG=
201112011115 METAR LMML 011115Z 01003KT 9999 SCT020 20/14 Q1028 NOSIG=
201112011045 METAR LMML 011045Z 02003KT 9999 SCT023 18/14 Q1028 NOSIG=
201112011030 METAR LMML NIL=
201112011015 METAR LMML 011015Z 35004KT 9999 SCT021 18/13 Q1029 NOSIG=
201112011000 METAR LMML NIL=
201112010945 METAR LMML 010945Z 01005KT 330V040 9999 SCT022 19/14 Q1029
                        NOSIG=
201112010930 METAR LMML NIL=
201112010915 METAR LMML 010915Z 03003KT 9999 SCT019 19/14 Q1029 NOSIG=
201112010900 METAR LMML NIL=
201112010845 METAR LMML 010845Z VRB02KT 9999 SCT017 19/14 Q1029 NOSIG=
201112010830 METAR LMML NIL=
201112010815 METAR LMML 010815Z VRB02KT 9999 FEW019 18/14 Q1029 NOSIG=
201112010800 METAR LMML NIL=
201112010745 METAR LMML 010745Z VRB02KT 9999 FEW019 16/14 Q1028 NOSIG=
201112010730 METAR LMML NIL=
201112010715 METAR LMML 010715Z VRB02KT 9999 FEW017 14/13 Q1028 NOSIG=
201112010700 METAR LMML NIL=
201112010645 METAR LMML 010645Z VRB02KT 9999 FEW016 SCT060 14/12 Q1028
                        NOSIG=
201112010630 METAR LMML NIL=
201112010615 METAR LMML 010615Z 35003KT 9999 FEW018 SCT060 13/12 Q1028
                        NOSIG=
201112010600 METAR LMML NIL=
201112010545 METAR LMML 010545Z VRB02KT 9999 FEW015 13/12 Q1028 NOSIG=
201112010530 METAR LMML NIL=
201112010515 METAR LMML 010515Z 35003KT 9999 FEW020 13/12 Q1027 NOSIG=
201112010500 METAR LMML NIL=
201112010445 METAR LMML 010445Z VRB02KT 9999 FEW020 SCT070 13/12 Q1027
                        NOSIG=
201112010430 METAR LMML NIL=
201112010415 METAR LMML 010415Z VRB01KT 9999 FEW020 SCT070 13/12 Q1027
                        NOSIG=
201112010400 METAR LMML NIL=
201112010345 METAR LMML 010345Z VRB01KT 9999 SCT020 13/12 Q1027 NOSIG=
201112010330 METAR LMML NIL=
201112010315 METAR LMML 010315Z 35003KT 9999 FEW020 SCT070 13/12 Q1027
                        TEMPO 5000 TSRA BKN015CB=
201112010300 METAR LMML NIL=
201112010245 METAR LMML 010245Z VRB02KT 9999 FEW020 SCT070 13/12 Q1027
                        TEMPO 5000 TSRA BKN015CB=
201112010230 METAR LMML NIL=
201112010215 METAR LMML 010215Z 35003KT 9999 FEW020 SCT090 13/12 Q1027
                        TEMPO 5000 TSRA BKN015CB=
201112010200 METAR LMML NIL=
201112010145 METAR LMML 010145Z VRB02KT 9999 FEW020 13/13 Q1027 TEMPO
                        5000 TSRA BKN015CB=
201112010130 METAR LMML NIL=
201112010115 METAR LMML 010115Z VRB02KT 9999 FEW019 13/12 Q1027 TEMPO
                        5000 TSRA BKN015CB=
201112010045 METAR LMML 010045Z VRB02KT 9999 FEW018 13/12 Q1027 NOSIG=
201112010030 METAR LMML NIL=
201112010015 METAR LMML 010015Z VRB01KT 9999 FEW018 BKN065 13/12 Q1027
                        NOSIG=
201112010000 METAR LMML NIL=

###################################
#  short TAF from LMML
###################################
201112312300 TAF LMML 312300Z 0100/0109 30005KT 9999 BKN035
                      PROB30 TEMPO 0100/0103 CAVOK=
201112312000 TAF LMML 312000Z 3121/0106 33010KT 9999 FEW040
                      PROB30 TEMPO 3121/0106 CAVOK=
201112311700 TAF LMML 311700Z 3118/0103 31012KT 9999 FEW040=
201112311400 TAF LMML 311400Z 3115/3124 33020G30KT 9999 SCT040
                      BECMG 3215/1318 32018KT=
201112311100 TAF LMML 311100Z 3112/3121 33025G35KT 9999 SCT040
                      BECMG 1315/1318 32018KT=
201112310800 TAF LMML 310800Z 3109/3118 32025G40KT 9999 FEW025 SCT040
                      BECMG 3109/3112 32020G30KT
                      BECMG 3114/3117 32018KT=
201112310500 TAF LMML 310500Z 3106/3115 30020G30KT 9999 SCT025
                      PROB40 TEMPO 3106/3109 32025G40KT 7000 SHRA=
201112310200 TAF LMML 310200Z 3103/3112 31020G30KT 9999 SCT025
                      PROB40 TEMPO 3103/3109 32025G40KT 7000 SHRA
                       PROB30
                      TEMPO 3103/3106 4000 TSRA BKN015CB=
201112302300 TAF LMML 302300Z 3100/3109 30020G30KT 9999 SCT025
                      PROB40 TEMPO 3100/3109 32025G40KT 7000 SHRA
                       PROB30
                      TEMPO 3100/3106 4000 TSRA BKN015CB=
201112302000 TAF LMML 302000Z 3021/3106 30020G30KT 9999 SCT025
                      PROB40 TEMPO 3021/3106 32025G40KT 7000 SHRA
                       BKN015
                      PROB30 TEMPO 3021/3106 4000 TSRA BKN015CB=
201112301700 TAF LMML 301700Z 3018/3103 30015G25KT 9999 SCT025
                      PROB30 TEMPO 3018/3103 30020G30KT 8000 SHRA
                       BKN015=
201112301400 TAF LMML 301400Z 3015/3024 29018G28KT 9999 FEW025 SCT060
                      PROB30 TEMPO 3018/3024 30025G35KT 8000 SHRA
                       BKN018=
201112301100 TAF LMML 301100Z 3012/3021 28013KT 9999 FEW020 SCT050
                      TEMPO 3012/3015 8000 SHRA SCT020 BKN030
                      TEMPO 3015/3021 29020G30KT=
201112300800 TAF LMML 300800Z 3009/3018 30012KT 9999 SCT020 SCT035
                      TEMPO 3009/3013 SHRA BKN015 BKN030
                      TEMPO 3015/3018 30020G30KT
                      PROB30 TEMPO 3009/3014 3000 TSRA BKN015CB=
201112300500 TAF LMML 300500Z 3006/3015 29013KT 9999 SCT020 SCT060
                      TEMPO 3006/3015 8000 SHRA BKN015 BKN050
                      PROB30 TEMPO 3006/3009 28015G25KT 3000 TSRA
                       BKN015CB BKN040=
201112300200 TAF LMML 300200Z 3003/3012 28012KT 9999 SCT020 SCT070
                      PROB40 TEMPO 3003/3012 8000 SHRA BKN015 BKN050
                       PROB30
                      TEMPO 3003/3006 28015G25KT 3000 TSRA BKN015CB
                       BKN040
                      BECMG 3006/3009 29015G25KT=
201112292300 TAF LMML 292300Z 3000/3009 29012KT 9999 SCT020 SCT070
                      PROB40 TEMPO 3000/3009 8000 SHRA BKN015TCU
                       BKN050
                      PROB30 TEMPO 3000/3006 28015G25KT 3000 TSRA
                       BKN015CB BKN040=
201112292000 TAF LMML 292000Z 2921/3006 30012KT 9999 SCT020
                      TEMPO 2921/3006 8000 SHRA BKN015TCU
                      PROB30 TEMPO 2921/3003 3000 TSRA BKN015CB=
201112291700 TAF LMML 291700Z 2918/3003 33012KT 9999 SCT018
                      PROB40 TEMPO 2918/3003 7000 SHRA BKN015TCU
                       PROB30
                      TEMPO 2918/3003 5000 TSRA BKN013CB=
201112291400 TAF LMML 291400Z 2915/2924 35008KT 9999 SCT018
                      TEMPO 2915/2924 7000 SHRA BKN015TCU
                      PROB30 TEMPO 2915/2924 5000 TSRA BKN013CB=
201112291100 TAF LMML 291100Z 2912/2921 01006KT 9999 SCT018
                      TEMPO 2912/2921 7000 SHRA BKN015TCU
                      PROB30 TEMPO 2912/2921 5000 TSRA BKN013CB=
201112290800 TAF LMML 290800Z 2909/2918 04008KT 9999 SCT020
                      TEMPO 2909/2918 7000 SHRA BKN015
                      PROB30 TEMPO 2909/2918 5000 TSRA BKN015CB=
201112290500 TAF LMML 290500Z 2906/2915 02008KT 9999 SCT015
                      TEMPO 2906/2915 7000 SHRA BKN015TCU
                      PROB40 TEMPO 2906/2915 4000 TSRA BKN015CB=
201112290200 TAF LMML 290200Z 2903/2912 05008KT 9999 SCT015
                      TEMPO 2903/2912 7000 SHRA BKN015TCU
                      PROB40 TEMPO 2903/2912 4000 TSRA BKN012CB=
201112282300 TAF LMML 282300Z 2900/2909 05008KT 9999 SCT015
                      TEMPO 2900/2909 7000 SHRA BKN013TCU
                      PROB40 TEMPO 2900/2909 4000 TSRA BKN012CB=
201112282000 TAF LMML 282000Z 2821/2906 06010KT 9999 SCT015 BKN030
                      TEMPO 2821/2906 7000 SHRA BKN013TCU
                      PROB30 TEMPO 2821/2906 5000 TSRA BKN012CB=
201112281700 TAF LMML 281700Z 2818/2903 08012KT 9999 SCT015
                      TEMPO 2818/2903 9000 BKN010
                      PROB40 TEMPO 2818/2903 7000 SHRA BKN008 BKN014TCU
                       PROB30
                      TEMPO 2818/2903 3000 TSRA BKN005 BKN013CB
                       BECMG 2822/2901 14008KT=
201112281400 TAF LMML 281400Z 2815/2824 08014KT 9999 SCT015
                      TEMPO 2815/2824 9000 BKN010
                      PROB40 TEMPO 2815/2824 7000 SHRA BKN008 BKN014TCU
                       PROB30
                      TEMPO 2815/2824 3000 TSRA BKN005 BKN013CB=
201112281100 COR LMML 281100Z 2812/2821 08014KT 9999 SCT015
                      TEMPO 2812/2821 8000 SHRA BKN010 BKN015TCU
                       PROB30
                      TEMPO 2812/2821 3000 TSRA BKN005 BKN013CB=
201112280800 TAF LMML 280800Z 2809/2818 08014KT 9999 SCT010 SCT015
                      TEMPO 2809/2818 8000 SHRA BKN010 BKN015TCU
                       PROB30
                      TEMPO 2809/2818 3000 TSRA BKN005 BKN013CB=
201112280500 TAF LMML 280500Z 2806/2815 09014KT 9999 SCT018
                      PROB40 TEMPO 2806/2815 8000 SHRA BKN015TCU
                       PROB30
                      TEMPO 2806/2815 TSRA BKN015CB=
201112280200 TAF LMML 280200Z 2803/2812 09008KT 9999 SCT018
                      PROB40 TEMPO 2803/2812 8000 SHRA BKN015
                      PROB30 TEMPO 2803/2812 5000 TSRA BKN015CB=
201112272300 TAF LMML 272300Z 2800/2809 09006KT 9999 SCT015
                      PROB40 TEMPO 2800/2809 8000 SHRA BKN015
                      PROB30 TEMPO 2800/2809 5000 TSRA BKN015CB=
201112272000 TAF LMML 272000Z 2721/2806 VRB06KT 9999 SCT015
                      TEMPO 2721/2806 7000 SHRA BKN015
                      PROB30 TEMPO 2721/2806 5000 TSRA BKN015CB=
201112271700 TAF LMML 271700Z 2718/2803 13008KT 9999 SCT016
                      TEMPO 2718/2803 7000 SHRA SCT015TCU
                      PROB30 TEMPO 2722/2803 5000 TSRA BKN015CB=
201112271400 TAF LMML 271400Z 2715/2724 13010KT 9999 SCT016
                      TEMPO 2715/2724 7000 SHRA
                      PROB30 TEMPO 2721/2724 5000 TSRA BKN015CB=
201112271100 TAF LMML 271100Z 2712/2721 12012KT 9999 SCT015 BKN050
                      TEMPO 2712/2721 5000 SHRA BKN012TCU=
201112270800 TAF LMML 270800Z 2709/2718 08014KT 9999 SCT015 BKN040 BKN100
                      TEMPO 2709/2718 6000 SHRA BKN015=
201112270500 TAF LMML 270500Z 2706/2715 07016KT 9999 SCT013
                      PROB40 TEMPO 2706/2715 7000 SHRA BKN008 BKN015
                       BECMG 2708/2711 16012KT=
201112270200 TAF LMML 270200Z 2703/2712 07020KT 9999 SCT013
                      PROB40 TEMPO 07020G35KT 7000 SHRA BKN008
                       BKN012=
201112262300 TAF LMML 262300Z 2700/2709 07020KT 9999 SCT013 BKN035
                      PROB40 07020G35KT 7000 SHRA BKN012=
201112262000 TAF LMML 262000Z 2621/2706 05020G35KT 9999 SCT013 BKN035
                      PROB40 TEMPO 5000 SHRA BKN008 BKN013=
201112261700 TAF LMML 261700Z 2618/2703 05022G32KT 9999 SCT014 BKN030
                      TEMPO 2618/2703 5000 SHRA BKN013
                      PROB30 TEMPO 2618/2703 3000 SHRA BKN008 BKN015CB=
201112261400 TAF LMML 261400Z 2615/2624 03018KT 9999 SCT020 BKN040
                      BECMG 2615/2618 05022G32KT
                      TEMPO 2615/2624 7000 SHRA BKN015
                      PROB30 TEMPO 2615/2624 3000 TSRA BKN015CB=
201112261100 TAF LMML 261100Z 2612/2621 02018KT 9999 SCT020
                      TEMPO 2612/2621 7000 SHRA BKN015TCU
                      PROB30 TEMPO 2612/2621 3000 TSRA BKN015CB
                       BECMG 2614/2617 05025G35KT=
201112260800 TAF LMML 260800Z 2609/2618 02018KT 9999 SCT020
                      TEMPO 2609/2618 7000 SHRA BKN015TCU
                      BECMG 2611/2614 05025G35KT
                      PROB30 TEMPO 2611/2618 3000 TSRA BKN015CB=
201112260500 TAF LMML 260500Z 2606/2615 35012KT 9999 SCT020
                      TEMPO 2606/2615 8000 SHRA BKN015
                      BECMG 2608/2611 02020KT
                      TEMPO 2609/2612 03020G30KT
                      BECMG 2612/2615 04025G35KT
                      PROB30 TEMPO 2612/2615 3000 TSRA BKN015CB=
201112260200 TAF LMML 260200Z 2603/2612 01011KT 9999 SCT025
                      PROB30 TEMPO 2603/2612 8000 SHRA BKN015
                      BECMG 2605/2608 34020KT
                      PROB40 TEMPO 2606/2612 35022G32KT=
201112252300 TAF LMML 252300Z 2600/2609 01012KT 9999 SCT020
                      PROB30 TEMPO 2600/2609 8000 SHRA BKN015
                      BECMG 2605/2608 34020KT
                      PROB40 TEMPO 2606/2609 35020G30KT=
201112252000 TAF LMML 252000Z 2521/2606 35012KT 9999 SCT025 SCT060
                      PROB30 TEMPO 2521/2606 8000 SHRA=
201112251700 TAF LMML 251700Z 2518/2603 31012KT 9999 SCT025=
201112251400 TAF LMML 251400Z 2515/2524 30018KT 9999 SCT030
                      PROB30 TEMPO 2515/2521 30018G28KT=
201112251100 TAF LMML 251100Z 2512/2521 30020KT 9999 SCT030
                      PROB40 TEMPO 2512/2521 31020G30KT=
201112250800 TAF LMML 250800Z 2509/2518 29022G32KT 9999 SCT025 BKN050
                      PROB30 TEMPO 2509/2518 9000 SHRA
                      BECMG 2515/2518 34017KT=
201112250500 TAF LMML 250500Z 2506/2515 29018G30KT 9999 SCT025 BKN050
                      TEMPO 2506/2515 7000 SHRA=
201112250200 TAF LMML 250200Z 2503/2512 29020G30KT 9999 FEW025 BKN050
                      TEMPO 2503/2512 7000 SHRA=
201112242300 TAF LMML 242300Z 2500/2509 29018KT 9999 FEW025 SCT050
                      TEMPO 2500/2509 30018G28KT 8000 SHRA BKN015=
201112242000 TAF LMML 242000Z 2421/2506 30015KT 9999 FEW020 SCT050
                      TEMPO 2421/2506 30015G25KT 8000 SHRA BKN015=
201112241700 TAF LMML 241700Z 2418/2503 30013KT 9999 SCT025
                      PROB30 TEMPO 2418/2503 8000 SHRA BKN015 BKN050
                       BECMG 2420/2423 27020KT
                      TEMPO 2421/2503 28020G30KT=
201112241400 TAF LMML 241400Z 2415/2424 30014KT 9999 SCT030
                      PROB30 TEMPO 2418/2424 8000 SHRA BKN015 BKN050
                       BECMG 2420/2423 27020KT
                      TEMPO 2421/2424 28020G30KT=
201112241100 TAF LMML 241100Z 2412/2421 31012KT 9999 FEW035=
201112240800 TAF LMML 240800Z 2409/2418 30008KT 9999 FEW030=
201112240500 TAF LMML 240500Z 2406/2415 33008KT CAVOK
                      TEMPO 2406/2415 9999 FEW035=
201112240200 TAF LMML 240200Z 2403/2412 34008KT CAVOK
                      TEMPO 2403/2412 9999 FEW040=
201112232300 TAF LMML 232300Z 2400/2409 35006KT CAVOK
                      TEMPO 2400/2409 9999 FEW040=
201112232000 TAF LMML 232000Z 2321/2406 35005KT CAVOK
                      TEMPO 2321/2406 9999 FEW042=
201112231700 TAF LMML 231700Z 2318/2403 34005KT CAVOK=
201112231400 TAF LMML 231400Z 2315/2324 34012KT 9999 SCT035=
201112231100 TAF LMML 231100Z 2312/2321 34013KT 9999 SCT035=
201112230800 TAF LMML 230800Z 2309/2318 34012KT 9999 SCT035=
201112230500 TAF LMML 230500Z 2306/2315 35016KT 9999 FEW045
                      TEMPO 2306/2315 CAVOK
                      PROB30 TEMPO 2306/2309 35015G25KT=
201112230200 TAF LMML 230200Z 2303/2312 35016KT 9999 FEW045
                      TEMPO 2303/2312 CAVOK
                      PROB40 TEMPO 2303/2309 35015G25KT=
201112222300 TAF LMML 222300Z 2300/2309 35020KT 9999 FEW045
                      TEMPO 2300/2309 34015G25KT
                      TEMPO 2300/2309 CAVOK=
201112222000 TAF LMML 222000Z 2221/2306 33022KT 9999 FEW045
                      TEMPO 2221/2306 33020G30KT
                      PROB40 TEMPO 2221/2306 CAVOK=
201112221700 TAF LMML 221700Z 2218/2303 33020KT 9999 FEW045
                      PROB40 TEMPO 2218/2303 33020G30KT=
201112221400 TAF LMML 221400Z 2215/2224 33020KT 9999 FEW045
                      PROB40 TEMPO 2215/2224 33020G30KT=
201112221100 TAF LMML 221100Z 2212/2221 33018KT 9999 FEW045
                      PROB40 TEMPO 2212/2221 33018G28KT=
201112220800 TAF LMML 220800Z 2209/2218 31015KT 9999 FEW040
                      PROB40 TEMPO 2209/2218 32017G27KT=
201112220500 TAF LMML 220500Z 2206/2215 31015KT 9999 FEW040
                      PROB30 TEMPO 2206/2215 32017G27KT=
201112220200 TAF LMML 220200Z 2203/2212 31015KT 9999 FEW040
                      PROB30 TEMPO 2206/2212 30015G25KT=
201112212300 TAF LMML 212300Z 2200/2209 32017KT 9999 SCT035
                      PROB30 TEMPO 2200/2203 31017G27KT=
201112212000 TAF LMML 212000Z 2121/2206 32020KT 9999 SCT035
                      TEMPO 2121/2124 31022G32KT
                      PROB30 TEMPO 2121/2124 8000 SHRA=
201112211700 TAF LMML 211700Z 2118/2203 33023G33KT 9999 SCT030
                      PROB30 TEMPO 2118/2121 8000 SHRA
                      BECMG 2120/2123 33020KT=
201112211400 TAF LMML 211400Z 2115/2124 33025G35KT 9999 SCT025
                      PROB40 TEMPO 2115/2121 8000 SHRA
                      PROB30 TEMPO 2115/2121 5000 TSRA BKN020CB
                       BECMG 2120/2123 33020KT=
201112211100 TAF LMML 211100Z 2112/2121 27026G36KT 9999 SCT020
                      TEMPO 2112/2121 8000 SHRA BKN015
                      PROB30 TEMPO 2112/2121 3000 TSRA BKN020CB
                       BECMG 2114/2117 33025G35KT=
201112210800 TAF LMML 210800Z 2109/2118 26028G38KT 9999 SCT020
                      TEMPO 2109/2118 5000 SHRA BKN005 BKN015TCU
                       PROB30
                      TEMPO 2109/2118 2000 TSGR BKN015CB
                      BECMG 2113/2116 32026G36KT=
201112210500 TAF LMML 210500Z 2106/2115 24025G35KT 9999 SCT025 BKN080
                      TEMPO 2106/2115 6000 SHRA BKN015TCU
                      PROB30 TEMPO 2106/2115 4000 TSGR BKN013CB
                       PROB30
                      TEMPO 2110/2113 27030G40KT
                      BECMG 2112/2115 32026G36KT=
201112210200 TAF LMML 210200Z 2103/2112 23015G25KT 9999 SCT020
                      TEMPO 2103/2112 5000 SHRA BKN015TCU
                      PROB30 TEMPO 2103/2112 4000 TSGR BKN013CB
                       BECMG 2103/2106 23022G35KT=
201112202300 TAF LMML 202300Z 2100/2109 24015G25KT 9999 SCT030 BKN180
                      BECMG 2100/2103 24027G37KT 7000 SHRA
                      PROB40 TEMPO 2100/2109 4000 TSGR BKN015CB=
201112202000 TAF LMML 202000Z 2021/2106 28010KT 9999 SCT030
                      TEMPO 2021/2106 7000 SHRA
                      PROB40 TEMPO 2100/2106 4000 TSGR BKN015CB
                       BECMG 2100/2103 23025G35KT=
201112201700 TAF LMML 201700Z 2018/2103 30013KT 9999 SCT025 SCT060
                      TEMPO 2018/2103 8000 SHRA
                      BECMG 2021/2024 24017KT
                      PROB30 TEMPO 2021/2103 25022G35KT 3000 TSRA
                       BKN020CB BKN050=
201112201400 TAF LMML 201400Z 2015/2024 30014KT 9999 SCT035 SCT060
                      PROB30 TEMPO 2015/2021 29015G25KT 8000 SHRA
                       BECMG 2021/2024 24014KT
                      PROB40 TEMPO 2021/2024 25015G25KT 3000 TSRA
                       BKN020CB BKN050=
201112201100 TAF LMML 201100Z 2012/2021 31015KT 9999 SCT025
                      PROB30 TEMPO 2012/2021 29015G25KT 8000 SHRA=
201112200800 TAF LMML 200800Z 2009/2018 29017KT 9999 SCT025
                      TEMPO 2009/2018 7000 SHRA
                      PROB30 TEMPO 2009/2015 30018G28KT=
201112200500 TAF LMML 200500Z 2006/2015 29018G28KT 9999 SCT025
                      TEMPO 2006/2015 7000 SHRA=
201112200200 TAF LMML 200200Z 2003/2012 29018G28KT 9999 SCT025
                      TEMPO 2003/2012 7000 SHRA
                      PROB30 TEMPO 2003/2006 4000 TSRA BKN015CB=
201112192300 TAF LMML 192300Z 2000/2009 29017KT 9999 SCT020 SCT045
                      TEMPO 2000/2009 SHRA
                      PROB30 TEMPO 2000/2006 29020G30KT 4000 TSRA
                       BKN015CB=
201112192000 TAF LMML 192000Z 1921/2006 29017KT 9999 SCT020 SCT045
                      TEMPO 1921/2006 6000 SHRA BKN015
                      PROB30 TEMPO 1921/2006 29020G30KT 4000 TSRA
                       BKN015CB=
201112191700 TAF LMML 191700Z 1918/2003 28015KT 9999 SCT022 BKN040
                      PROB30 TEMPO 1918/2003 28015G25KT 6000 SHRA
                       BKN015TCU=
201112191400 TAF LMML 191400Z 1915/1924 28020G30KT 9999 SCT022
                      PROB30 TEMPO 1915/1924 6000 SHRA BKN015TCU
                       BECMG 1917/1920 28020KT=
201112191100 TAF LMML 191100Z 1912/1921 30016KT 9999 SCT022
                      TEMPO 1912/1921 29020G30KT 5000 SHRA BKN015TCU=
201112190800 TAF LMML 190800Z 1909/1918 29010KT 9999 SCT022
                      TEMPO 1909/1918 5000 SHRA BKN015TCU
                      BECMG 1910/1913 29020KT
                      TEMPO 1913/1918 29020G30KT=
201112190500 TAF LMML 190500Z 1906/1915 28015KT 9999 SCT020
                      PROB40 TEMPO 1906/1915 8000 SHRA BKN015TCU
                       BECMG 1911/1914 28016G26KT=
201112190200 TAF LMML 190200Z 1903/1912 28015KT 9999 SCT020
                      PROB40 TEMPO 1903/1912 8000 SHRA BKN015TCU
                       PROB30
                      TEMPO 1903/1912 TSRA BKN015TCU=
201112182300 TAF LMML 182300Z 1900/1909 28012KT 9999 FEW025
                      PROB40 TEMPO 1900/1909 8000 SHRA BKN015TCU
                       PROB30
                      TEMPO 1900/1909 TSRA BKN015CB=
201112182000 TAF LMML 182000Z 1821/1906 29012KT 9999 FEW040
                      TEMPO 1821/1906 CAVOK
                      TEMPO 1821/1906 8000 SHRA BKN015=
201112181700 TAF LMML 181700Z 1818/1903 29010KT 9999 SCT025
                      PROB30 TEMPO 1818/1903 SHRA BKN015=
201112181400 TAF LMML 181400Z 1815/1824 32008KT 9999 FEW025 SCT040=
201112181100 TAF LMML 181100Z 1812/1821 32010KT 9999 SCT025 SCT070
                      TEMPO 1812/1821 5000 SHRA BKN015TCU=
201112181015 TAF LMML 181015Z 1809/1818 31010KT 9999 SCT030 SCT050
                      TEMPO 1809/1818 SHRA BKN025
                      PROB30 TEMPO 1809/1818 TSRA BKN018CB=
201112180800 TAF LMML 180800Z 1806/1818 31010KT 9999 SCT030 SCT050
                      TEMPO 1809/1818 SHRA BKN025
                      PROB30 TEMPO 1809/18/18 TSRA BKN018CB=
201112180500 TAF LMML 180500Z 1806/1815 30007KT 9999 SCT030 BKN050
                      TEMPO 1806/1815 8000 SHRA
                      PROB30 TEMPO 1806/1815 3000 TSRA BKN020CB
                       BKN040=
201112180200 TAF LMML 180200Z 1803/1812 29006KT 9999 SCT035 BKN060
                      TEMPO 1803/1812 8000 RA
                      PROB30 TEMPO 1803/1812 3000 TSRA BKN020CB
                       BKN050=
201112172300 TAF LMML 172300Z 1800/1809 29007KT 9999 FEW040 BKN080
                      PROB40 TEMPO 1800/1809 8000 RA
                      PROB30 TEMPO 1800/1809 3000 TSRA BKN020CB
                       BKN060=
201112172000 TAF LMML 172000Z 1721/1806 30008KT CAVOK
                      BECMG 1721/1724 9999 SCT025 SCT080
                      TEMPO 1721/1806 9000 RA
                      PROB30 TEMPO 1800/1806 3000 TSRA BKN020CB
                       BKN060=
201112171700 TAF LMML 171700Z 1718/1803 29010KT 9999 FEW035 BKN060
                      PROB40 TEMPO 1718/1803 CAVOK
                      PROB30 TEMPO 1800/1803 9000 RA=
201112171400 TAF LMML 171400Z 1715/1724 29015KT 9999 FEW025
                      PROB40 TEMPO 1715/1718 28015G25KT
                      TEMPO 1715/1724 CAVOK=
201112171100 TAF LMML 171100Z 1712/1721 28017KT 9999 FEW030 SCT048
                      PROB40 TEMPO 1712/1718 28017G27KT
                      PROB30 TEMPO 1712/1715 9000 SHRA
                      TEMPO 1715/1721 CAVOK=
201112170800 TAF LMML 170800Z 1709/1718 28018KT 9999 SCT025
                      PROB40 TEMPO 1709/1718 28018G28KT
                      PROB30 TEMPO 1709/1718 9000 SHRA=
201112170500 TAF LMML 170500Z 1706/1715 27017KT 9999 SCT020
                      PROB40 TEMPO 1706/1715 27017G27KT
                      PROB30 TEMPO 1709/1715 9000 SHRA=
201112170200 TAF LMML 170200Z 1703/1712 27017KT 9999 SCT020
                      PROB40 TEMPO 1703/1712 27017G27KT
                      PROB30 TEMPO 1709/1712 9000 SHRA=
201112162300 TAF LMML 162300Z 1700/1709 25017KT 9999 FEW020
                      PROB40 TEMPO 1700/1709 25020G30KT=
201112162000 TAF LMML 162000Z 1621/1706 24017KT 9999 FEW025
                      PROB40 TEMPO 1621/1703 24022G35KT=
201112161700 TAF LMML 161700Z 1618/1703 25015KT 9999 SCT020
                      PROB30 TEMPO 1621/1703 23020G30KT=
201112161400 TAF LMML 161400Z 1615/1624 28014KT 9999 SCT025
                      BECMG 1618/1621 22017KT
                      PROB30 TEMPO 1621/1624 24018G28KT=
201112161100 TAF LMML 161100Z 1612/1621 30013KT 9999 SCT030
                      BECMG 1618/1621 24015KT=
201112160800 TAF LMML 160800Z 1609/1618 29012KT 9999 SCT025
                      BECMG 1615/1618 23015KT=
201112160500 TAF LMML 160500Z 1606/1615 30013KT 9999 SCT025=
201112160200 TAF LMML 160200Z 1603/1612 30015KT 9999 SCT025=
201112152300 TAF LMML 152300Z 1600/1609 30015KT 9999 FEW020 SCT040=
201112152000 TAF LMML 152000Z 1521/1606 29012KT 9999 SCT020=
201112151700 TAF LMML 151700Z 1518/1603 27010KT 9999 FEW018 BKN200=
201112151400 TAF LMML 151400Z 1515/1524 27012KT 9999 SCT020 BKN250=
201112151100 TAF LMML 151100Z 1512/1521 27014KT 9999 SCT020 BKN250=
201112150800 TAF LMML 150800Z 1509/1518 26011KT 9999 FEW020 BKN250=
201112150500 TAF LMML 150500Z 1506/1515 27013KT 9999 FEW027
                      PROB30 TEMPO 1506/1515 CAVOK=
201112150200 TAF LMML 150200Z 1503/1512 27012KT 9999 FEW027
                      PROB30 TEMPO 1503/1509 CAVOK=
201112142300 TAF LMML 142300Z 1500/1509 26010KT 9999 FEW025
                      PROB30 TEMPO 1500/1509 CAVOK=
201112142000 TAF LMML 142000Z 1421/1506 26008KT 9999 FEW022
                      TEMPO 1421/1506 CAVOK=
201112141700 TAF LMML 141700Z 1418/1503 25007KT 9999 FEW022=
201112141400 TAF LMML 141400Z 1415/1424 26010KT 9999 FEW027=
201112141100 TAF LMML 141100Z 1412/1421 28010KT 9999 FEW027=
201112140800 TAF LMML 140800Z 1409/1418 29010KT 9999 FEW030 SCT045=
201112140500 TAF LMML 140500Z 1406/1415 27008KT 9999 SCT030=
201112140200 TAF LMML 140200Z 1403/1412 29007KT 9999 FEW025 SCT060=
201112132300 TAF LMML 132300Z 1400/1409 31008KT 9999 SCT025=
201112132000 TAF LMML 132000Z 1321/1406 30010KT 9999 SCT020=
201112131700 TAF LMML 131700Z 1318/1403 30015KT 9999 FEW022=
201112131400 TAF LMML 131400Z 1315/1324 30015KT 9999 FEW025=
201112131100 TAF LMML 131100Z 1312/1321 30015KT 9999 FEW025=
201112130800 TAF LMML 130800Z 1309/1318 30015KT 9999 SCT018=
201112130500 TAF LMML 130500Z 1306/1315 30010KT 9999 FEW018
                      PROB30 TEMPO 1306/1309 8000 SHRA BKN015=
201112130200 TAF LMML 130200Z 1303/1312 30008KT 9999 FEW018
                      PROB30 TEMPO 1303/1309 8000 SHRA BKN015=
201112122300 TAF LMML 122300Z 1300/1309 30010KT 9999 FEW018
                      PROB30 TEMPO 1300/1309 8000 SHRA BKN015=
201112122000 TAF LMML 122000Z 1221/1306 29008KT 9999 FEW015
                      PROB30 TEMPO 1221/1306 8000 SHRA BKN012=
201112121700 TAF LMML 121700Z 1218/1303 28010KT 9999 FEW015
                      PROB30 TEMPO 1218/1303 9000 BKN010=
201112121400 TAF LMML 121400Z 1215/1224 24008KT 9999 FEW015
                      BECMG 1215/1218 30010KT
                      PROB30 TEMPO 1218/1224 9000 BKN012=
201112121100 TAF LMML 121100Z 1212/1221 23008KT CAVOK
                      BECMG 1212/1215 29010KT 9999 SCT015=
201112120800 TAF LMML 120800Z 1209/1218 21008KT CAVOK
                      TEMPO 1209/1212 9999 FEW020
                      BECMG 1212/1215 28010KT 9999 SCT015=
201112120500 TAF LMML 120500Z 1206/1215 20008KT CAVOK
                      TEMPO 1206/1215 FEW025
                      PROB40 TEMPO 1212/1212 29010KT SCT008=
201112120200 TAF LMML 120200Z 1203/1212 30008KT CAVOK
                      TEMPO 1203/1212 FEW025
                      PROB30 TEMPO 1203/1206 FEW010=
201112112300 TAF LMML 112300Z 1200/1209 20006KT CAVOK
                      TEMPO 1200/1209 FEW025
                      PROB30 TEMPO 1200/1205 FEW010=
201112112000 TAF LMML 112000Z 1121/1206 20005KT CAVOK
                      TEMPO 1200/1206 FEW025
                      PROB30 TEMPO 1123/1205 FEW010=
201112111700 TAF LMML 111700Z 1118/1203 20005KT CAVOK=
201112111400 TAF LMML 111400Z 1115/1124 20008KT CAVOK=
201112111100 TAF LMML 111100Z 1112/1121 20010KT 9999 FEW020 BKN200=
201112110800 TAF LMML 110800Z 1109/1118 19012KT 9999 FEW018 BKN200=
201112110500 TAF LMML 110500Z 1106/1115 23013KT CAVOK
                      PROB30 TEMPO 1106/1115 9999 FEW025=
201112110200 TAF LMML 110200Z 1103/1112 23013KT CAVOK
                      TEMPO 1103/1112 9999 FEW025=
201112102300 TAF LMML 102300Z 1100/1109 23012KT CAVOK
                      TEMPO 1100/1109 9999 FEW020=
201112102000 TAF LMML 102000Z 1021/1106 23012KT CAVOK
                      TEMPO 1021/1106 9999 FEW018=
201112101700 TAF LMML 101700Z 1018/1103 21010KT 9999 FEW018
                      TEMPO 1018/1103 CAVOK=
201112101400 TAF LMML 101400Z 1015/1024 21010KT 9999 FEW018=
201112101100 TAF LMML 101100Z 1012/1021 21010KT 9999 FEW020=
201112100800 TAF LMML 100800Z 1009/1018 21010KT 9999 SCT020=
201112100500 TAF LMML 100500Z 1006/1015 20010KT 9999 SCT020=
201112100200 TAF LMML 100200Z 1003/1012 20008KT 9999 SCT020=
201112092300 TAF LMML 092300Z 1000/1009 21006KT 9999 FEW020
                      PROB30 TEMPO 1000/1006 CAVOK=
201112092000 TAF LMML 092000Z 0921/1006 22005KT 9999 FEW020
                      TEMPO 0921/1006 CAVOK=
201112091700 TAF LMML 091700Z 0918/1003 24006KT 9999 FEW022
                      PROB30 TEMPO 0920/1003 CAVOK=
201112091400 TAF LMML 091400Z 0915/0924 25005KT 9999 FEW025=
201112091100 TAF LMML 091100Z 0912/0921 24005KT 9999 FEW027=
201112090800 TAF LMML 090800Z 0909/0918 VRB05KT 9999 SCT025=
201112090500 TAF LMML 090500Z 0906/0915 31005KT 9999 FEW023=
201112090200 TAF LMML 090200Z 0903/0912 31005KT 9999 FEW025=
201112082300 TAF LMML 082300Z 0900/0909 33005KT 9999 FEW025=
201112082000 TAF LMML 082000Z 0821/0906 33008KT 9999 FEW025=
201112081700 TAF LMML 081700Z 0818/0903 33010KT 9999 FEW025=
201112081400 TAF LMML 081400Z 0815/0824 31018KT 9999 SCT020
                      PROB40 TEMPO 0815/0818 30018G28KT
                      BECMG 0820/0823 33008KT=
201112081100 TAF LMML 081100Z 0812/0821 31018KT 9999 SCT020
                      PROB40 TEMPO 0812/0818 30018G28KT=
201112080800 TAF LMML 080800Z 0809/0818 29018KT 9999 SCT020 SCT050
                      PROB30 TEMPO 0809/0818 30020G30KT=
201112080500 TAF LMML 080500Z 0806/0815 31015G25KT 9999 SCT035=
201112080200 TAF LMML 080200Z 0803/0812 31015G25KT 9999 FEW030=
201112072300 TAF LMML 072300Z 0800/0809 31015G25KT 9999 SCT035=
201112072000 TAF LMML 072000Z 0721/0806 30015KT 9999 FEW020=
201112071700 TAF LMML 071700Z 0718/0803 30015KT 9999 SCT030=
201112071400 TAF LMML 071400Z 0715/0724 30018KT 9999 SCT030
                      PROB40 TEMPO 0715/0720 30018G30KT=
201112071100 TAF LMML 071100Z 0712/0721 30018KT 9999 SCT030
                      PROB40 TEMPO 0712/0720 300018G30KT=
201112070800 TAF LMML 070800Z 0709/0718 30018KT 9999 FEW030
                      PROB40 TEMPO 0709/0718 30018G30KT=
201112070500 TAF LMML 070500Z 0706/0715 30018KT 9999 FEW032
                      PROB30 TEMPO 0710/0715 30015G25KT=
201112070200 TAF LMML 070200Z 0703/0712 30017KT 9999 FEW025 SCT045
                      PROB30 TEMPO 0703/0709 9000 SHRA=
201112062300 TAF LMML 062300Z 0700/0709 30016KT 9999 FEW025 SCT045
                      PROB30 TEMPO 0700/0709 9000 SHRA=
201112062000 TAF LMML 062000Z 0621/0706 30015KT 9999 SCT020
                      PROB30 TEMPO 0621/0706 8000 SHRA BKN015=
201112061700 TAF LMML 061700Z 0618/0703 28012KT 9999 SCT020
                      PROB30 TEMPO 0618/0703 8000 SHRA BKN015 BKN040=
201112061400 TAF LMML 061400Z 0615/0624 28015KT 9999 SCT020
                      TEMPO 0615/0624 8000 SHRA BKN015=
201112061100 TAF LMML 061100Z 0612/0621 25015KT 9999 SCT020
                      TEMPO 0612/0621 8000 SHRA BKN015
                      BECMG 0618/0621 31015KT=
201112060800 TAF LMML 060800Z 0609/0618 24011KT 9999 SCT020
                      TEMPO 0612/0618 8000 SHRA BKN015 BKN060=
201112060500 TAF LMML 060500Z 0606/0615 26011KT 9999 FEW025
                      PROB30 TEMPO 0612/0615 8000 SHRA BKN015 BKN070=
201112060200 TAF LMML 060200Z 0603/0612 25010KT 9999 FEW020=
201112052300 TAF LMML 052300Z 0600/0609 24010KT 9999 FEW020=
201112052000 TAF LMML 052000Z 0521/0606 24009KT 9999 FEW020=
201112051700 TAF LMML 051700Z 0518/0603 24010KT 9999 FEW020=
201112051400 TAF LMML 051400Z 0515/0524 24010KT 9999 FEW020=
201112051100 TAF LMML 051100Z 0512/0521 24010KT 9999 FEW028=
201112050800 TAF LMML 050800Z 0509/0518 25008KT 9999 FEW028=
201112050500 TAF LMML 050500Z 0506/0515 24008KT 9999 FEW020=
201112050200 TAF LMML 050200Z 0503/0512 24006KT 9999 FEW025
                      TEMPO 0503/0506 7000=
201112042300 TAF LMML 042300Z 0500/0509 24005KT 9999 FEW025
                      TEMPO 0500/0506 7000=
201112042000 TAF LMML 042000Z 0421/0506 VRB03KT 9999 FEW025
                      PROB30 TEMPO 0503/0506 5000 BR=
201112041700 TAF LMML 041700Z 0418/0503 26006KT 9999 FEW020=
201112041400 TAF LMML 041400Z 0415/0424 25008KT 9999 SCT025=
201112041100 TAF LMML 041100Z 0412/0421 25008KT 9999 SCT025=
201112040800 TAF LMML 040800Z 0409/0418 25007KT 9999 SCT020
                      PROB30 TEMPO 0409/0412 8000 SHRA BKN015TCU=
201112040500 TAF LMML 040500Z 0406/0415 26008KT 9999 SCT020
                      PROB30 TEMPO 0406/0412 8000 SHRA BKN015TCU=
201112040200 TAF LMML 040200Z 0403/0412 23007KT 9999 FEW020
                      PROB40 TEMPO 0403/0409 8000 SHRA BKN015TCU=
201112032300 TAF LMML 032300Z 0400/0409 22007KT 9999 FEW020
                      PROB40 TEMPO 0400/0409 8000 SHRA
                      PROB30 TEMPO 0400/0406 5000 TSRA BKN015CB=
201112032000 TAF LMML 032000Z 0321/0406 20007KT 9999 FEW020
                      PROB40 TEMPO 0321/0406 SHRA
                      PROB30 TEMPO 0321/0406 5000 TSRA BKN015CB=
201112031700 TAF LMML 031700Z 0318/0403 19005KT 9999 SCT020
                      PROB30 TEMPO 0318/0403 7000 SHRA BKN015=
201112031400 TAF LMML 031400Z 0315/0324 17007KT 9999 SCT020
                      PROB30 TEMPO 0315/0324 7000 SHRA BKN015=
201112031100 TAF LMML 031100Z 0312/0321 16007KT 9999 SCT020
                      PROB30 TEMPO 0312/0321 7000 SHRA BKN015=
201112030800 TAF LMML 030800Z 0309/0318 15006KT 9999 SCT020
                      PROB30 TEMPO 0309/0318 7000 SHRA BKN015=
201112030500 TAF LMML 030500Z 0306/0315 19005KT 9999 SCT020=
201112030200 TAF LMML 030200Z 0303/0312 VRB03KT 9999 SCT018=
201112022300 TAF LMML NIL=
201112022000 TAF LMML 022000Z 0221/0306 VRB03KT 9999 SCT015=
201112021700 TAF LMML 021700Z 0218/0303 23005KT 9999 SCT022=
201112021400 TAF LMML 021400Z 0215/0224 25005KT 9999 SCT022=
201112021100 TAF LMML 021100Z 0212/0221 27004KT 9999 FEW023=
201112020800 TAF LMML 020800Z 0209/0218 27004KT 9999 SCT023=
201112020500 TAF LMML 020500Z 0206/0215 24006KT CAVOK
                      PROB30 TEMPO 0206/0207 9000 NSC
                      BECMG 0206/0209 9999 SCT020=
201112020200 TAF LMML 020200Z 0203/0212 27004KT 9999 FEW012
                      TEMPO 0203/0206 7000 NSC
                      PROB30 TEMPO 0203/0206 3000 MIFG SCT006=
201112012300 TAF LMML 012300Z 0200/0209 VRB03KT 9999 FEW020 SCT035
                      PROB30 TEMPO 0200/0206 9000=
201112012000 TAF LMML 012000Z 0121/0206 VRB03KT 9999 FEW020 SCT040
                      PROB30 TEMPO 0200/0206 9000=
201112011700 TAF LMML 011700Z 0118/0203 03005KT 9999 FEW020=
201112011400 TAF LMML 011400Z 0115/0124 03005KT 9999 FEW020=
201112011100 TAF LMML 011100Z 0109/0118 03005KT 9999 SCT025=
201112010800 TAF LMML 010800Z 0106/0115 03005KT 9999 SCT020=
201112010500 TAF LMML 010500Z 0106/0115 04005KT 9999 SCT015
                      PROB30 TEMPO 0106/0112 8000 SHRA BKN015=
201112010200 TAF LMML 010200Z 0103/0112 06005KT 9999 FEW015
                      TEMPO 0103/0109 7000 SHRA
                      PROB30 TEMPO 0103/0106 5000 TSRA BKN015CB=

###################################
#  large TAF from LMML
###################################
201112312300 TAF LMML NIL=
201112311700 TAF LMML NIL=
201112311100 TAF LMML NIL=
201112310500 TAF LMML NIL=
201112302300 TAF LMML NIL=
201112301700 TAF LMML NIL=
201112301100 TAF LMML NIL=
201112300500 TAF LMML NIL=
201112292300 TAF LMML NIL=
201112291700 TAF LMML NIL=
201112291100 TAF LMML NIL=
201112290500 TAF LMML NIL=
201112282300 TAF LMML NIL=
201112281700 TAF LMML NIL=
201112281100 TAF LMML NIL=
201112280500 TAF LMML NIL=
201112272300 TAF LMML NIL=
201112271700 TAF LMML NIL=
201112271100 TAF LMML NIL=
201112270500 TAF LMML NIL=
201112261700 TAF LMML NIL=
201112261100 TAF LMML NIL=
201112260500 TAF LMML NIL=
201112252300 TAF LMML NIL=
201112251700 TAF LMML NIL=
201112251100 TAF LMML NIL=
201112250500 TAF LMML NIL=
201112242300 TAF LMML NIL=
201112241700 TAF LMML NIL=
201112241100 TAF LMML NIL=
201112240500 TAF LMML NIL=
201112232300 TAF LMML NIL=
201112231700 TAF LMML NIL=
201112231100 TAF LMML NIL=
201112230500 TAF LMML NIL=
201112222300 TAF LMML NIL=
201112221700 TAF LMML NIL=
201112221100 TAF LMML NIL=
201112220500 TAF LMML NIL=
201112212300 TAF LMML NIL=
201112211700 TAF LMML NIL=
201112211100 TAF LMML NIL=
201112210500 TAF LMML NIL=
201112202300 TAF LMML NIL=
201112201700 TAF LMML NIL=
201112201100 TAF LMML NIL=
201112200500 TAF LMML NIL=
201112192300 TAF LMML NIL=
201112191700 TAF LMML NIL=
201112191100 TAF LMML NIL=
201112190500 TAF LMML NIL=
201112182300 TAF LMML NIL=
201112181700 TAF LMML NIL=
201112181100 TAF LMML NIL=
201112180800 TAF LMML 180800Z 1806/1818 31010KT 9999 SCT030 SCT050
                      TEMPO 1809/1818 SHRA BKN025
                      PROB30 TEMPO 1809/18/18 TSRA BKN018CB=
201112180500 TAF LMML NIL=
201112172300 TAF LMML NIL=
201112171700 TAF LMML NIL=
201112171100 TAF LMML NIL=
201112170500 TAF LMML NIL=
201112162300 TAF LMML NIL=
201112161700 TAF LMML NIL=
201112161100 TAF LMML NIL=
201112160500 TAF LMML NIL=
201112152300 TAF LMML NIL=
201112151700 TAF LMML NIL=
201112151100 TAF LMML NIL=
201112150500 TAF LMML NIL=
201112142300 TAF LMML NIL=
201112141700 TAF LMML NIL=
201112141100 TAF LMML NIL=
201112140500 TAF LMML NIL=
201112132300 TAF LMML NIL=
201112131700 TAF LMML NIL=
201112131100 TAF LMML NIL=
201112130500 TAF LMML NIL=
201112122300 TAF LMML NIL=
201112121700 TAF LMML NIL=
201112121100 TAF LMML NIL=
201112120500 TAF LMML NIL=
201112112300 TAF LMML NIL=
201112111700 TAF LMML NIL=
201112111100 TAF LMML NIL=
201112110500 TAF LMML NIL=
201112102300 TAF LMML NIL=
201112101700 TAF LMML NIL=
201112101100 TAF LMML NIL=
201112100500 TAF LMML NIL=
201112092300 TAF LMML NIL=
201112091700 TAF LMML NIL=
201112091100 TAF LMML NIL=
201112090500 TAF LMML NIL=
201112082300 TAF LMML NIL=
201112081700 TAF LMML NIL=
201112081100 TAF LMML NIL=
201112080500 TAF LMML NIL=
201112072300 TAF LMML NIL=
201112071700 TAF LMML NIL=
201112071100 TAF LMML NIL=
201112070500 TAF LMML NIL=
201112062300 TAF LMML NIL=
201112061700 TAF LMML NIL=
201112061100 TAF LMML NIL=
201112060500 TAF LMML NIL=
201112052300 TAF LMML NIL=
201112051700 TAF LMML NIL=
201112051100 TAF LMML NIL=
201112050500 TAF LMML NIL=
201112042300 TAF LMML NIL=
201112041700 TAF LMML NIL=
201112041100 TAF LMML NIL=
201112040500 TAF LMML NIL=
201112032300 TAF LMML NIL=
201112031700 TAF LMML NIL=
201112031100 TAF LMML NIL=
201112030500 TAF LMML NIL=
201112022300 TAF LMML 022300Z 0300/0909 VRB02KT 9999 SCT015=
201112021700 TAF LMML NIL=
201112021100 TAF LMML NIL=
201112020500 TAF LMML NIL=
201112012300 TAF LMML NIL=
201112011700 TAF LMML NIL=
201112011100 TAF LMML NIL=
201112010500 TAF LMML NIL=
