##########################################################
# Query made at 01/18/2013 16:02:21 UTC
# Time interval: from 12/01/2010 00:00  to 12/31/2010 23:59  UTC
##########################################################

##########################################################
# LMML, Luqa (Malta)
# WMO index: 16597
# Latitude 35-51N. Longitude 014-29E. Altitude 91 m.
##########################################################

###################################
#  METAR/SPECI from LMML
###################################
201012312345 METAR LMML 312345Z 10005KT 9999 SCT037 13/12 Q1017 NOSIG=
201012312330 METAR LMML NIL=
201012312315 METAR LMML 312315Z 10005KT 070V130 9999 FEW036 13/12 Q1017
                        NOSIG=
201012312300 METAR LMML NIL=
201012312245 METAR LMML 312245Z 11007KT 9999 FEW038 13/12 Q1017 NOSIG=
201012312215 METAR LMML 312215Z 10007KT 9999 FEW038 13/12 Q1017 NOSIG=
201012312200 METAR LMML NIL=
201012312145 METAR LMML 312145Z 11007KT 9999 FEW038 13/12 Q1017 NOSIG=
201012312115 METAR LMML 312115Z 10007KT 9999 FEW012 13/12 Q1017 NOSIG=
201012312100 METAR LMML NIL=
201012312045 METAR LMML 312045Z 11007KT 9999 FEW012 13/12 Q1017 NOSIG=
201012312030 METAR LMML NIL=
201012312015 METAR LMML 312015Z 10005KT 060V130 9999 FEW040 13/12 Q1017
                        NOSIG=
201012312000 METAR LMML NIL=
201012311945 METAR LMML 311945Z 10006KT 9999 FEW040 13/12 Q1017 NOSIG=
201012311930 METAR LMML NIL=
201012311915 METAR LMML 311915Z 11008KT 9999 FEW040 13/12 Q1017 NOSIG=
201012311900 METAR LMML NIL=
201012311845 METAR LMML 311845Z 11008KT 9999 FEW042 13/12 Q1017 NOSIG=
201012311830 METAR LMML NIL=
201012311815 METAR LMML 311815Z 11007KT 9999 FEW042 13/11 Q1017 NOSIG=
201012311800 METAR LMML NIL=
201012311745 METAR LMML 311745Z 11007KT 9999 FEW042 13/11 Q1017 NOSIG=
201012311730 METAR LMML NIL=
201012311715 METAR LMML 311715Z 10008KT 9999 FEW043 13/11 Q1017 NOSIG=
201012311645 METAR LMML 311645Z 10007KT 9999 FEW025 14/11 Q1017 NOSIG=
201012311630 METAR LMML NIL=
201012311615 METAR LMML 311615Z 11008KT 9999 FEW025 14/11 Q1017 NOSIG=
201012311600 METAR LMML NIL=
201012311545 METAR LMML 311545Z 11008KT 9999 FEW025 SCT042 14/11 Q1017
                        NOSIG=
201012311530 METAR LMML NIL=
201012311515 METAR LMML 311515Z 12009KT 9999 FEW025 SCT250 15/11 Q1017
                        NOSIG=
201012311500 METAR LMML NIL=
201012311445 METAR LMML 311445Z 11011KT 9999 FEW025 SCT250 15/11 Q1017
                        NOSIG=
201012311430 METAR LMML NIL=
201012311415 METAR LMML 311415Z 12010KT 9999 FEW025 SCT250 16/11 Q1018
                        NOSIG=
201012311400 METAR LMML NIL=
201012311345 METAR LMML 311345Z 13007KT 090V170 9999 FEW030 SCT250 16/11
                        Q1017 NOSIG=
201012311330 METAR LMML NIL=
201012311315 METAR LMML 311315Z 12008KT 100V160 9999 FEW030 SCT250 17/09
                        Q1017 NOSIG=
201012311300 METAR LMML NIL=
201012311245 METAR LMML 311245Z 13008KT 9999 FEW036 SCT250 17/09 Q1018
                        NOSIG=
201012311230 METAR LMML NIL=
201012311215 METAR LMML 311215Z 14008KT 110V180 9999 FEW036 SCT250 17/10
                        Q1018 NOSIG=
201012311200 METAR LMML NIL=
201012311145 METAR LMML 311145Z 14009KT 9999 FEW036 BKN250 16/09 Q1018
                        NOSIG=
201012311130 METAR LMML NIL=
201012311115 METAR LMML 311115Z 15009KT 110V170 9999 FEW036 BKN250 16/09
                        Q1019 NOSIG=
201012311100 METAR LMML NIL=
201012311045 METAR LMML 311045Z 16007KT 140V200 9999 FEW036 BKN250 17/07
                        Q1020 NOSIG=
201012311030 METAR LMML NIL=
201012311015 METAR LMML 311015Z 18005KT 120V210 9999 FEW036 BKN250 17/08
                        Q1020 NOSIG=
201012310945 METAR LMML 310945Z 17006KT 130V200 9999 FEW036 BKN250 15/07
                        Q1020 NOSIG=
201012310930 METAR LMML NIL=
201012310915 METAR LMML 310915Z 18005KT 120V230 9999 FEW032 BKN250 16/07
                        Q1021 NOSIG=
201012310900 METAR LMML NIL=
201012310845 METAR LMML 310845Z 17006KT 130V210 9999 FEW032 BKN250 15/08
                        Q1020 NOSIG=
201012310830 METAR LMML NIL=
201012310815 METAR LMML 310815Z 16006KT 130V200 9999 FEW032 BKN250 15/08
                        Q1020 NOSIG=
201012310800 METAR LMML NIL=
201012310745 METAR LMML 310745Z 16006KT 140V200 9999 FEW032 BKN250 14/08
                        Q1020 NOSIG=
201012310730 METAR LMML NIL=
201012310715 METAR LMML 310715Z 16005KT 140V200 9999 SCT032 BKN250 14/08
                        Q1020 NOSIG=
201012310700 METAR LMML NIL=
201012310645 METAR LMML 310645Z 17005KT 150V220 9999 SCT033 BKN250 13/08
                        Q1020 NOSIG=
201012310630 METAR LMML NIL=
201012310615 METAR LMML 310615Z 17005KT 140V200 9999 SCT031 BKN250 13/08
                        Q1020 NOSIG=
201012310600 METAR LMML NIL=
201012310545 METAR LMML 310545Z 17004KT 140V200 9999 SCT031 SCT250 13/08
                        Q1020 NOSIG=
201012310515 METAR LMML 310515Z 17005KT 9999 SCT030 SCT250 13/08 Q1020
                        NOSIG=
201012310500 METAR LMML NIL=
201012310445 METAR LMML 310445Z 17005KT 9999 SCT031 SCT250 13/08 Q1020
                        NOSIG=
201012310430 METAR LMML NIL=
201012310415 METAR LMML 310415Z 17005KT 130V190 9999 SCT029 SCT250 13/08
                        Q1020 NOSIG=
201012310400 METAR LMML NIL=
201012310345 METAR LMML 310345Z 17005KT 9999 SCT029 13/08 Q1020 NOSIG=
201012310330 METAR LMML NIL=
201012310315 METAR LMML 310315Z 17005KT 9999 SCT028 13/08 Q1020 NOSIG=
201012310300 METAR LMML NIL=
201012310245 METAR LMML 310245Z 17004KT 9999 SCT029 13/08 Q1020 NOSIG=
201012310230 METAR LMML NIL=
201012310215 METAR LMML 310215Z 17006KT 9999 SCT029 13/08 Q1020 NOSIG=
201012310200 METAR LMML NIL=
201012310145 METAR LMML 310145Z 18005KT 150V210 9999 SCT029 13/08 Q1020
                        NOSIG=
201012310130 METAR LMML NIL=
201012310115 METAR LMML 310115Z 18005KT 140V210 9999 SCT029 13/08 Q1020
                        NOSIG=
201012310100 METAR LMML NIL=
201012310045 METAR LMML 310045Z 17006KT 9999 SCT029 13/08 Q1021 NOSIG=
201012310030 METAR LMML NIL=
201012310015 METAR LMML 310015Z 18006KT 140V210 9999 FEW030 13/08 Q1021
                        NOSIG=
201012310000 METAR LMML NIL=
201012302345 METAR LMML 302345Z 17006KT 9999 FEW029 13/08 Q1020 NOSIG=
201012302330 METAR LMML NIL=
201012302315 METAR LMML 302315Z 15006KT 120V180 9999 SCT030 13/08 Q1021
                        NOSIG=
201012302300 METAR LMML NIL=
201012302245 METAR LMML 302245Z 15005KT 9999 SCT029 13/08 Q1021 NOSIG=
201012302230 METAR LMML NIL=
201012302215 METAR LMML 302215Z 15006KT 9999 SCT031 13/08 Q1021 NOSIG=
201012302200 METAR LMML NIL=
201012302145 METAR LMML 302145Z 16005KT 100V200 9999 SCT027 13/08 Q1021
                        NOSIG=
201012302130 METAR LMML NIL=
201012302115 METAR COR LMML 302115Z 17004KT 140V200 9999 FEW034 13/07
                        Q1021 NOSIG=
201012302100 METAR LMML NIL=
201012302045 METAR LMML 302045Z 17005KT 130V210 9999 FEW034 SCT120 13/07
                        Q1021 NOSIG=
201012302030 METAR LMML NIL=
201012302015 METAR LMML 302015Z 17004KT 150V220 9999 FEW033 13/07 Q1021
                        NOSIG=
201012302000 METAR LMML NIL=
201012301945 METAR LMML 301945Z 14006KT 9999 FEW034 12/08 Q1021 NOSIG=
201012301930 METAR LMML NIL=
201012301915 METAR LMML 301915Z 14005KT 9999 FEW035 12/07 Q1021 NOSIG=
201012301900 METAR LMML NIL=
201012301845 METAR LMML 301845Z 15004KT 9999 SCT037 12/08 Q1021 NOSIG=
201012301830 METAR LMML NIL=
201012301815 METAR LMML 301815Z 12004KT 9999 BKN036 12/08 Q1021 NOSIG=
201012301800 METAR LMML NIL=
201012301745 METAR LMML 301745Z 12004KT 9999 SCT037 12/08 Q1021 NOSIG=
201012301730 METAR LMML NIL=
201012301715 METAR LMML 301715Z 13003KT 9999 FEW038 SCT120 12/07 Q1021
                        NOSIG=
201012301700 METAR LMML NIL=
201012301645 METAR LMML 301645Z 12003KT 9999 FEW037 SCT120 12/07 Q1021
                        NOSIG=
201012301630 METAR LMML NIL=
201012301615 METAR LMML 301615Z VRB02KT 9999 FEW037 SCT120 14/07 Q1021
                        NOSIG=
201012301600 METAR LMML NIL=
201012301545 METAR LMML 301545Z VRB02KT 9999 FEW030 SCT120 14/07 Q1021
                        NOSIG=
201012301530 METAR LMML NIL=
201012301515 METAR LMML 301515Z 19004KT 160V220 9999 FEW034 SCT250 14/07
                        Q1021 NOSIG=
201012301500 METAR LMML NIL=
201012301445 METAR LMML 301445Z 19004KT 170V250 9999 FEW034 SCT120 15/07
                        Q1021 NOSIG=
201012301430 METAR LMML NIL=
201012301415 METAR LMML 301415Z 19005KT 140V270 9999 SCT037 16/07 Q1021
                        NOSIG=
201012301345 METAR LMML 301345Z 19005KT 140V270 9999 SCT037 16/08 Q1021
                        NOSIG=
201012301315 METAR LMML 301315Z 22006KT 160V260 9999 SCT032 16/08 Q1021
                        NOSIG=
201012301300 METAR LMML NIL=
201012301245 METAR LMML 301245Z 21005KT 160V260 9999 SCT034 SCT120 15/08
                        Q1021 NOSIG=
201012301230 METAR LMML NIL=
201012301215 METAR LMML 301215Z 21005KT 160V260 9999 SCT031 SCT150 17/09
                        Q1021 NOSIG=
201012301200 METAR LMML NIL=
201012301145 METAR LMML 301145Z 21005KT 170V260 9999 SCT031 SCT150 15/08
                        Q1022 NOSIG=
201012301115 METAR LMML 301115Z 23004KT 190V290 9999 SCT037 SCT150 15/09
                        Q1022 NOSIG=
201012301100 METAR LMML NIL=
201012301045 METAR LMML 301045Z 21004KT 160V280 9999 SCT033 SCT150 15/08
                        Q1022 NOSIG=
201012301030 METAR LMML NIL=
201012301015 METAR LMML 301015Z 21005KT 170V250 9999 SCT034 BKN150 16/08
                        Q1022 NOSIG=
201012301000 METAR LMML NIL=
201012300945 METAR LMML 300945Z 21005KT 150V280 9999 SCT032 BKN150 16/09
                        Q1022 NOSIG=
201012300930 METAR LMML NIL=
201012300915 METAR LMML 300915Z VRB02KT 9999 FEW030 SCT150 15/08 Q1023
                        NOSIG=
201012300845 METAR LMML 300845Z 20003KT 9999 FEW028 SCT150 14/09 Q1023
                        NOSIG=
201012300830 METAR LMML NIL=
201012300815 METAR LMML 300815Z 19003KT 9999 FEW037 BKN250 14/09 Q1022
                        NOSIG=
201012300800 METAR LMML NIL=
201012300745 METAR LMML 300745Z 19003KT 9999 FEW026 BKN250 13/09 Q1022
                        NOSIG=
201012300730 METAR LMML NIL=
201012300715 METAR LMML 300715Z 21004KT 9999 SCT037 SCT250 12/09 Q1022
                        NOSIG=
201012300700 METAR LMML NIL=
201012300645 METAR LMML 300645Z 20003KT 9999 FEW027 SCT250 11/08 Q1022
                        NOSIG=
201012300630 METAR LMML NIL=
201012300615 METAR LMML 300615Z 20003KT 9999 FEW029 11/09 Q1022 NOSIG=
201012300600 METAR LMML NIL=
201012300545 METAR LMML 300545Z 15003KT 9999 FEW027 SCT250 11/10 Q1022
                        NOSIG=
201012300530 METAR LMML NIL=
201012300515 METAR LMML 300515Z 13005KT 9999 FEW020 BKN037 11/10 Q1022
                        NOSIG=
201012300500 METAR LMML NIL=
201012300445 METAR LMML 300445Z 14005KT 9999 FEW020 BKN036 12/10 Q1022
                        NOSIG=
201012300430 METAR LMML NIL=
201012300415 METAR LMML 300415Z 14004KT 110V170 9999 BKN020 11/10 Q1021
                        NOSIG=
201012300400 METAR LMML NIL=
201012300345 METAR LMML 300345Z 12003KT 9999 BKN020 10/09 Q1021 NOSIG=
201012300330 METAR LMML NIL=
201012300315 METAR LMML 300315Z VRB01KT 9999 BKN020 10/09 Q1021 NOSIG=
201012300300 METAR LMML NIL=
201012300245 METAR LMML 300245Z VRB02KT 9999 BKN025 09/08 Q1022 NOSIG=
201012300230 METAR LMML NIL=
201012300215 METAR LMML 300215Z VRB01KT 9999 BKN022 09/08 Q1022 NOSIG=
201012300200 METAR LMML NIL=
201012300145 METAR LMML 300145Z VRB01KT 9999 BKN024 08/07 Q1022 NOSIG=
201012300130 METAR LMML NIL=
201012300115 METAR LMML 300115Z VRB01KT 9999 BKN024 09/07 Q1022 NOSIG=
201012300100 METAR LMML NIL=
201012300045 METAR LMML 300045Z VRB01KT 9999 SCT024 08/07 Q1022 NOSIG=
201012300030 METAR LMML NIL=
201012300015 METAR LMML 300015Z VRB01KT 9999 FEW024 08/07 Q1022 NOSIG=
201012300000 METAR LMML NIL=
201012292345 METAR LMML 292345Z 00000KT 9999 FEW030 08/07 Q1022 NOSIG=
201012292330 METAR LMML NIL=
201012292315 METAR LMML 292315Z VRB01KT 9999 FEW030 08/07 Q1022 NOSIG=
201012292300 METAR LMML NIL=
201012292245 METAR LMML 292245Z 00000KT 9999 FEW033 09/07 Q1022 NOSIG=
201012292230 METAR LMML NIL=
201012292215 METAR LMML 292215Z 00000KT 9999 FEW031 09/07 Q1022 NOSIG=
201012292200 METAR LMML NIL=
201012292145 METAR LMML 292145Z 00000KT 9999 FEW030 08/07 Q1022 NOSIG=
201012292130 METAR LMML NIL=
201012292115 METAR LMML 292115Z 00000KT 9999 FEW030 09/07 Q1022 NOSIG=
201012292100 METAR LMML NIL=
201012292045 METAR LMML 292045Z 00000KT 9999 FEW030 SCT120 09/07 Q1022
                        NOSIG=
201012292030 METAR LMML NIL=
201012292015 METAR LMML 292015Z 00000KT 9999 FEW030 09/07 Q1022 NOSIG=
201012292000 METAR LMML NIL=
201012291945 METAR LMML 291945Z VRB01KT 9999 FEW030 09/07 Q1022 NOSIG=
201012291930 METAR LMML NIL=
201012291915 METAR LMML 291915Z VRB02KT 9999 FEW030 09/07 Q1022 NOSIG=
201012291900 METAR LMML NIL=
201012291845 METAR LMML 291845Z VRB01KT 9999 FEW030 09/08 Q1022 NOSIG=
201012291830 METAR LMML NIL=
201012291815 METAR LMML 291815Z VRB02KT 9999 SCT030 10/07 Q1022 NOSIG=
201012291800 METAR LMML NIL=
201012291745 METAR LMML 291745Z VRB01KT 9999 FEW030 10/07 Q1022 NOSIG=
201012291730 METAR LMML NIL=
201012291715 METAR LMML 291715Z VRB02KT 9999 FEW030 10/07 Q1021 NOSIG=
201012291700 METAR LMML NIL=
201012291645 METAR LMML 291645Z VRB02KT 9999 FEW034 SCT250 11/07 Q1021
                        NOSIG=
201012291630 METAR LMML NIL=
201012291615 METAR LMML 291615Z 30003KT 9999 FEW034 SCT250 11/07 Q1021
                        NOSIG=
201012291600 METAR LMML NIL=
201012291545 METAR LMML 291545Z 32004KT 280V010 9999 FEW034 12/07 Q1021
                        NOSIG=
201012291530 METAR LMML NIL=
201012291515 METAR LMML 291515Z 31003KT 9999 FEW034 13/07 Q1021 NOSIG=
201012291500 METAR LMML NIL=
201012291445 METAR LMML 291445Z 31006KT 9999 SCT033 13/07 Q1021 NOSIG=
201012291430 METAR LMML NIL=
201012291415 METAR LMML 291415Z 29006KT 250V330 9999 SCT033 14/07 Q1021
                        NOSIG=
201012291400 METAR LMML NIL=
201012291345 METAR LMML 291345Z 29005KT 250V330 9999 SCT032 14/07 Q1021
                        NOSIG=
201012291330 METAR LMML NIL=
201012291315 METAR LMML 291315Z 30008KT 260V320 9999 SCT032 14/07 Q1021
                        NOSIG=
201012291300 METAR LMML NIL=
201012291245 METAR LMML 291245Z 29007KT 250V330 9999 SCT034 14/07 Q1021
                        NOSIG=
201012291230 METAR LMML NIL=
201012291215 METAR LMML 291215Z 30008KT 280V340 9999 SCT035 13/06 Q1021
                        NOSIG=
201012291200 METAR LMML NIL=
201012291145 METAR LMML 291145Z 29006KT 260V320 9999 SCT035 14/07 Q1022
                        NOSIG=
201012291130 METAR LMML NIL=
201012291115 METAR LMML 291115Z 31009KT 280V350 9999 SCT035 14/06 Q1022
                        NOSIG=
201012291100 METAR LMML NIL=
201012291045 METAR LMML 291045Z 32006KT 270V360 9999 BKN034 14/07 Q1022
                        NOSIG=
201012291030 METAR LMML NIL=
201012291015 METAR LMML 291015Z 29007KT 250V320 9999 SCT034 14/07 Q1022
                        NOSIG=
201012291000 METAR LMML NIL=
201012290945 METAR LMML 290945Z 31009KT 9999 SCT030 14/07 Q1023 NOSIG=
201012290930 METAR LMML NIL=
201012290915 METAR LMML 290915Z 31008KT 270V340 9999 FEW030 13/07 Q1023
                        NOSIG=
201012290900 METAR LMML NIL=
201012290845 METAR LMML 290845Z 31007KT 9999 FEW035 13/07 Q1022 NOSIG=
201012290830 METAR LMML NIL=
201012290815 METAR LMML 290815Z 32005KT 9999 FEW035 12/07 Q1022 NOSIG=
201012290800 METAR LMML NIL=
201012290745 METAR LMML 290745Z 29004KT 260V320 9999 FEW035 11/06 Q1022
                        NOSIG=
201012290730 METAR LMML NIL=
201012290715 METAR LMML 290715Z 28004KT 230V320 9999 FEW040 10/06 Q1022
                        NOSIG=
201012290700 METAR LMML NIL=
201012290645 METAR LMML 290645Z 29005KT 250V320 9999 FEW040 10/05 Q1021
                        NOSIG=
201012290630 METAR LMML NIL=
201012290615 METAR LMML 290615Z 29005KT 250V320 9999 FEW040 09/05 Q1021
                        NOSIG=
201012290600 METAR LMML NIL=
201012290545 METAR LMML 290545Z 30005KT 9999 FEW040 09/05 Q1021 NOSIG=
201012290530 METAR LMML NIL=
201012290515 METAR LMML 290515Z 30007KT 9999 FEW025 08/05 Q1021 NOSIG=
201012290500 METAR LMML NIL=
201012290445 METAR LMML 290445Z 31007KT 9999 FEW025 08/05 Q1021 NOSIG=
201012290430 METAR LMML NIL=
201012290415 METAR LMML 290415Z 30005KT 9999 FEW025 08/05 Q1021 NOSIG=
201012290400 METAR LMML NIL=
201012290345 METAR LMML 290345Z 30006KT CAVOK 09/05 Q1021 NOSIG=
201012290330 METAR LMML NIL=
201012290315 METAR LMML 290315Z 29006KT 260V320 CAVOK 09/05 Q1021 NOSIG=
201012290300 METAR LMML NIL=
201012290245 METAR LMML 290245Z 29007KT 260V320 CAVOK 09/04 Q1021 NOSIG=
201012290230 METAR LMML NIL=
201012290215 METAR LMML 290215Z 29007KT CAVOK 09/05 Q1021 NOSIG=
201012290200 METAR LMML NIL=
201012290145 METAR LMML 290145Z 28008KT CAVOK 10/05 Q1021 NOSIG=
201012290130 METAR LMML NIL=
201012290115 METAR LMML 290115Z 29006KT 260V320 CAVOK 10/06 Q1021 NOSIG=
201012290100 METAR LMML NIL=
201012290045 METAR LMML 290045Z 28008KT 9999 FEW025 10/06 Q1021 NOSIG=
201012290030 METAR LMML NIL=
201012290015 METAR LMML 290015Z 26006KT 9999 FEW025 09/06 Q1020 NOSIG=
201012290000 METAR LMML NIL=
201012282345 METAR LMML 282345Z 27006KT 9999 FEW025 09/06 Q1021 NOSIG=
201012282330 METAR LMML NIL=
201012282315 METAR LMML 282315Z 29006KT 250V310 9999 FEW025 09/06 Q1021
                        NOSIG=
201012282300 METAR LMML NIL=
201012282245 METAR LMML 282245Z 28005KT 9999 FEW025 09/06 Q1021 NOSIG=
201012282230 METAR LMML NIL=
201012282215 METAR LMML 282215Z 29006KT 260V320 9999 FEW025 10/06 Q1021
                        NOSIG=
201012282200 METAR LMML NIL=
201012282145 METAR LMML 282145Z 29005KT 9999 FEW030 10/06 Q1021 NOSIG=
201012282130 METAR LMML NIL=
201012282115 METAR LMML 282115Z 28006KT 250V320 9999 FEW030 10/06 Q1021
                        NOSIG=
201012282100 METAR LMML NIL=
201012282045 METAR LMML 282045Z 28005KT 240V300 9999 FEW030 09/06 Q1021
                        NOSIG=
201012282030 METAR LMML NIL=
201012282015 METAR LMML 282015Z 28004KT 9999 FEW030 10/06 Q1021 NOSIG=
201012282000 METAR LMML NIL=
201012281945 METAR LMML 281945Z 28005KT 250V310 9999 FEW030 10/06 Q1021
                        NOSIG=
201012281930 METAR LMML NIL=
201012281915 METAR LMML 281915Z 28005KT 240V310 9999 FEW030 10/06 Q1021
                        NOSIG=
201012281900 METAR LMML NIL=
201012281845 METAR LMML 281845Z 28006KT 9999 FEW030 10/06 Q1020 NOSIG=
201012281830 METAR LMML NIL=
201012281815 METAR LMML 281815Z 28004KT 9999 FEW030 10/07 Q1020 NOSIG=
201012281800 METAR LMML NIL=
201012281745 METAR LMML 281745Z 30003KT 9999 FEW030 10/06 Q1020 NOSIG=
201012281730 METAR LMML NIL=
201012281715 METAR LMML 281715Z 29005KT 9999 FEW030 10/06 Q1020 NOSIG=
201012281700 METAR LMML NIL=
201012281645 METAR LMML 281645Z 31006KT 9999 FEW030 10/06 Q1019 NOSIG=
201012281630 METAR LMML NIL=
201012281615 METAR LMML 281615Z 31007KT 9999 FEW030 10/06 Q1019 NOSIG=
201012281545 METAR LMML 281545Z 30009KT 9999 SCT030 11/06 Q1019 NOSIG=
201012281530 METAR LMML NIL=
201012281515 METAR LMML 281515Z 30008KT 9999 SCT030 12/06 Q1019 NOSIG=
201012281500 METAR LMML NIL=
201012281445 METAR LMML 281445Z 29011KT 9999 FEW030 13/06 Q1019 NOSIG=
201012281415 METAR LMML 281415Z 29010KT 260V320 9999 FEW030 13/06 Q1019
                        NOSIG=
201012281400 METAR LMML NIL=
201012281345 METAR LMML 281345Z 28011KT 9999 FEW030 13/06 Q1019 NOSIG=
201012281330 METAR LMML NIL=
201012281315 METAR LMML 281315Z 29011KT 260V320 9999 FEW030 14/07 Q1019
                        NOSIG=
201012281300 METAR LMML NIL=
201012281245 METAR LMML 281245Z 30011KT 9999 SCT031 14/07 Q1019 NOSIG=
201012281230 METAR LMML NIL=
201012281215 METAR LMML 281215Z 32010KT 260V360 9999 SCT027 15/08 Q1019
                        NOSIG=
201012281145 METAR LMML 281145Z 32009KT 290V350 9999 FEW028 15/09 Q1019
                        NOSIG=
201012281130 METAR LMML NIL=
201012281115 METAR LMML 281115Z 33007KT 9999 FEW031 14/07 Q1019 NOSIG=
201012281100 METAR LMML NIL=
201012281045 METAR LMML 281045Z 34009KT 300V020 9999 FEW032 14/07 Q1020
                        NOSIG=
201012281030 METAR LMML NIL=
201012281015 METAR LMML 281015Z 33009KT 300V360 9999 SCT029 14/07 Q1020
                        NOSIG=
201012281000 METAR LMML NIL=
201012280945 METAR LMML 280945Z 33010KT 9999 SCT026 13/08 Q1021 NOSIG=
201012280930 METAR LMML NIL=
201012280915 METAR LMML 280915Z 32008KT 9999 SCT025 13/08 Q1020 NOSIG=
201012280900 METAR LMML NIL=
201012280845 METAR LMML 280845Z 32006KT 9999 SCT025 13/07 Q1020 NOSIG=
201012280830 METAR LMML NIL=
201012280815 METAR LMML 280815Z 31006KT 9999 FEW025 13/07 Q1020 NOSIG=
201012280745 METAR LMML 280745Z 31003KT 9999 FEW025 12/07 Q1020 NOSIG=
201012280715 METAR LMML 280715Z 32005KT 9999 FEW025 10/07 Q1019 NOSIG=
201012280700 METAR LMML NIL=
201012280645 METAR LMML 280645Z 31006KT 9999 FEW025 09/06 Q1019 NOSIG=
201012280630 METAR LMML NIL=
201012280615 METAR LMML 280615Z 31007KT 9999 FEW026 09/07 Q1019 NOSIG=
201012280600 METAR LMML NIL=
201012280545 METAR LMML 280545Z 30006KT 9999 FEW026 BKN060 10/08 Q1019
                        NOSIG=
201012280530 METAR LMML NIL=
201012280515 METAR LMML 280515Z 28003KT 9999 FEW031 BKN060 10/08 Q1019
                        NOSIG=
201012280500 METAR LMML NIL=
201012280445 METAR LMML 280445Z VRB02KT 9999 FEW027 BKN050 10/07 Q1019
                        NOSIG=
201012280430 METAR LMML NIL=
201012280415 METAR LMML 280415Z 32003KT 9999 FEW022 SCT050 09/07 Q1019
                        NOSIG=
201012280400 METAR LMML NIL=
201012280345 METAR LMML 280345Z VRB02KT 9999 FEW022 09/07 Q1018 NOSIG=
201012280330 METAR LMML NIL=
201012280315 METAR LMML 280315Z 35003KT 9999 FEW021 BKN050 10/08 Q1018
                        NOSIG=
201012280300 METAR LMML NIL=
201012280245 METAR LMML 280245Z 32003KT 9999 FEW021 BKN050 09/07 Q1019
                        NOSIG=
201012280230 METAR LMML NIL=
201012280215 METAR LMML 280215Z VRB02KT 9999 FEW021 BKN060 09/07 Q1019
                        NOSIG=
201012280200 METAR LMML NIL=
201012280145 METAR LMML 280145Z VRB02KT 9999 FEW021 09/06 Q1018 NOSIG=
201012280130 METAR LMML NIL=
201012280115 METAR LMML 280115Z 33004KT 9999 SCT028 09/06 Q1019 NOSIG=
201012280100 METAR LMML NIL=
201012280045 METAR LMML 280045Z 32006KT 9999 FEW026 08/06 Q1018 NOSIG=
201012280030 METAR LMML NIL=
201012280015 METAR LMML 280015Z 30005KT 9999 FEW030 09/06 Q1018 NOSIG=
201012280000 METAR LMML NIL=
201012272345 METAR LMML 272345Z VRB01KT 9999 FEW030 09/07 Q1018 NOSIG=
201012272330 METAR LMML NIL=
201012272315 METAR LMML 272315Z 34003KT 9999 FEW030 10/07 Q1018 NOSIG=
201012272245 METAR LMML 272245Z 31004KT 9999 FEW030 09/06 Q1018 NOSIG=
201012272230 METAR LMML NIL=
201012272215 METAR LMML 272215Z 30003KT 9999 FEW028 09/06 Q1018 NOSIG=
201012272200 METAR LMML NIL=
201012272145 METAR LMML 272145Z 30004KT 280V340 9999 FEW028 10/06 Q1018
                        NOSIG=
201012272130 METAR LMML NIL=
201012272115 METAR LMML 272115Z 31005KT 9999 FEW032 10/06 Q1018 NOSIG=
201012272100 METAR LMML NIL=
201012272045 METAR LMML 272045Z 31006KT 9999 FEW032 09/07 Q1018 NOSIG=
201012272030 METAR LMML NIL=
201012272015 METAR LMML 272015Z 30004KT 9999 FEW032 10/07 Q1018 NOSIG=
201012272000 METAR LMML NIL=
201012271945 METAR LMML 271945Z 30004KT 9999 FEW029 10/07 Q1018 NOSIG=
201012271930 METAR LMML NIL=
201012271915 METAR LMML 271915Z 29003KT 9999 FEW032 10/07 Q1018 NOSIG=
201012271900 METAR LMML NIL=
201012271845 METAR LMML 271845Z VRB02KT 9999 FEW032 10/07 Q1018 NOSIG=
201012271830 METAR LMML NIL=
201012271815 METAR LMML 271815Z 31005KT 9999 FEW027 10/07 Q1017 NOSIG=
201012271800 METAR LMML NIL=
201012271745 METAR LMML 271745Z 31005KT 9999 FEW028 09/07 Q1017 NOSIG=
201012271715 METAR LMML 271715Z 31005KT 9999 FEW028 10/07 Q1017 NOSIG=
201012271700 METAR LMML NIL=
201012271645 METAR LMML 271645Z 32004KT 9999 FEW025 10/07 Q1016 NOSIG=
201012271630 METAR LMML NIL=
201012271615 METAR LMML 271615Z 34005KT 9999 FEW025 11/07 Q1016 NOSIG=
201012271600 METAR LMML NIL=
201012271545 METAR LMML 271545Z 34006KT 9999 FEW025 12/07 Q1016 NOSIG=
201012271530 METAR LMML NIL=
201012271515 METAR LMML 271515Z 34008KT 310V010 9999 FEW025 12/07 Q1015
                        NOSIG=
201012271500 METAR LMML NIL=
201012271445 METAR LMML 271445Z 34007KT 300V360 9999 FEW025 13/07 Q1015
                        NOSIG=
201012271430 METAR LMML NIL=
201012271415 METAR LMML 271415Z 34005KT 310V010 9999 FEW025 14/08 Q1015
                        NOSIG=
201012271400 METAR LMML NIL=
201012271345 METAR LMML 271345Z 36006KT 290V020 9999 FEW027 14/09 Q1015
                        NOSIG=
201012271330 METAR LMML NIL=
201012271315 METAR LMML 271315Z 35006KT 9999 FEW027 14/08 Q1014 NOSIG=
201012271300 METAR LMML NIL=
201012271245 METAR LMML 271245Z 35006KT 320V020 9999 FEW029 15/08 Q1014
                        NOSIG=
201012271230 METAR LMML NIL=
201012271215 METAR LMML 271215Z 36004KT 280V060 9999 FEW025 15/08 Q1014
                        NOSIG=
201012271200 METAR LMML NIL=
201012271145 METAR LMML 271145Z 33005KT 290V020 9999 FEW025 14/09 Q1015
                        NOSIG=
201012271130 METAR LMML NIL=
201012271115 METAR LMML 271115Z 01004KT 320V040 9999 FEW025 14/09 Q1015
                        NOSIG=
201012271100 METAR LMML NIL=
201012271045 METAR LMML 271045Z 08003KT 9999 FEW039 13/09 Q1015 NOSIG=
201012271030 METAR LMML NIL=
201012271015 METAR LMML 271015Z 08003KT 9999 FEW039 SCT080 11/08 Q1015
                        NOSIG=
201012271000 METAR LMML NIL=
201012270945 METAR LMML 270945Z 08004KT 040V100 9999 -SHRA SCT023 BKN041
                        10/09 Q1015 NOSIG=
201012270915 METAR LMML 270915Z 01006KT 350V050 5000 SHRA BKN020 10/09
                        Q1016 NOSIG=
201012270900 METAR LMML NIL=
201012270845 METAR LMML 270845Z VRB02KT 9999 SCT025 SCT050 BKN090 12/08
                        Q1015 NOSIG=
201012270815 METAR LMML 270815Z VRB01KT 9999 SCT029 SCT080 11/09 Q1015
                        NOSIG=
201012270800 METAR LMML NIL=
201012270745 METAR LMML 270745Z VRB02KT 9999 -RA SCT029 SCT080 10/09 Q1014
                        NOSIG=
201012270730 METAR LMML NIL=
201012270715 METAR LMML 270715Z 08003KT 9999 SCT027 SCT080 09/08 Q1014
                        NOSIG=
201012270700 METAR LMML NIL=
201012270645 METAR LMML 270645Z 11003KT 9999 SCT025 SCT050 BKN100 09/08
                        Q1014 NOSIG=
201012270630 METAR LMML NIL=
201012270615 METAR LMML 270615Z 08006KT 060V130 9999 -RA SCT024 BKN080
                        09/08 Q1014 NOSIG=
201012270600 METAR LMML NIL=
201012270545 METAR LMML 270545Z 02005KT 340V050 9999 -RA SCT026 SCT032
                        BKN080 10/07 Q1013 NOSIG=
201012270530 METAR LMML NIL=
201012270515 METAR LMML 270515Z 29004KT 260V320 9999 FEW031 SCT050 BKN110
                        10/05 Q1013 NOSIG=
201012270500 METAR LMML NIL=
201012270445 METAR LMML 270445Z 29005KT 9999 SCT035 SCT060 BKN110 10/05
                        Q1013 NOSIG=
201012270430 METAR LMML NIL=
201012270415 METAR LMML 270415Z 31006KT 9999 FEW034 SCT060 BKN110 10/06
                        Q1013 NOSIG=
201012270400 METAR LMML NIL=
201012270345 METAR LMML 270345Z 32004KT 9999 SCT033 BKN100 09/06 Q1012
                        NOSIG=
201012270330 METAR LMML NIL=
201012270315 METAR LMML 270315Z 30006KT 9999 SCT033 BKN100 10/06 Q1012
                        NOSIG=
201012270300 METAR LMML NIL=
201012270245 METAR LMML 270245Z 32003KT 9999 FEW034 BKN080 10/06 Q1013
                        NOSIG=
201012270230 METAR LMML NIL=
201012270215 METAR LMML 270215Z VRB02KT 9999 FEW042 BKN085 10/06 Q1013
                        NOSIG=
201012270200 METAR LMML NIL=
201012270145 METAR LMML 270145Z 31007KT 9999 -RA FEW032 BKN080 10/06 Q1013
                        NOSIG=
201012270130 METAR LMML NIL=
201012270115 METAR LMML 270115Z 31005KT 9999 FEW030 BKN080 09/06 Q1013
                        NOSIG=
201012270100 METAR LMML NIL=
201012270045 METAR LMML 270045Z 31004KT 9999 FEW030 BKN070 10/06 Q1013
                        NOSIG=
201012270030 METAR LMML NIL=
201012270015 METAR LMML 270015Z 30004KT 9999 FEW030 BKN070 10/07 Q1013
                        NOSIG=
201012270000 METAR LMML NIL=
201012262345 METAR LMML 262345Z 30005KT 9999 FEW030 BKN060 10/07 Q1013
                        NOSIG=
201012262330 METAR LMML NIL=
201012262315 METAR LMML 262315Z 31006KT 9999 FEW030 BKN060 10/07 Q1013
                        NOSIG=
201012262300 METAR LMML NIL=
201012262245 METAR LMML 262245Z 30004KT 270V330 9999 FEW030 BKN060 10/07
                        Q1013 NOSIG=
201012262230 METAR LMML NIL=
201012262215 METAR LMML 262215Z 28006KT 9999 FEW032 BKN080 10/07 Q1013
                        NOSIG=
201012262200 METAR LMML NIL=
201012262145 METAR LMML 262145Z 31004KT CAVOK 10/06 Q1013 NOSIG=
201012262130 METAR LMML NIL=
201012262115 METAR LMML 262115Z 31007KT CAVOK 10/07 Q1013 NOSIG=
201012262100 METAR LMML NIL=
201012262045 METAR LMML 262045Z 30005KT CAVOK 10/07 Q1013 NOSIG=
201012262030 METAR LMML NIL=
201012262015 METAR LMML 262015Z 31005KT 9999 FEW025 BKN100 10/07 Q1013
                        NOSIG=
201012262000 METAR LMML NIL=
201012261945 METAR LMML 261945Z 32004KT 9999 FEW025 BKN100 09/08 Q1013
                        NOSIG=
201012261930 METAR LMML NIL=
201012261915 METAR LMML 261915Z 30004KT 9999 FEW025 BKN100 10/08 Q1013
                        NOSIG=
201012261845 METAR LMML 261845Z 33003KT 9999 FEW027 BKN080 10/08 Q1013
                        NOSIG=
201012261830 METAR LMML NIL=
201012261815 METAR LMML 261815Z 31010KT 9999 FEW024 BKN090 10/08 Q1013
                        NOSIG=
201012261800 METAR LMML NIL=
201012261745 METAR LMML 261745Z 31003KT 9999 FEW025 BKN090 11/07 Q1013
                        NOSIG=
201012261730 METAR LMML NIL=
201012261715 METAR LMML 261715Z 30005KT 9999 FEW025 BKN080 12/07 Q1012
                        NOSIG=
201012261700 METAR LMML NIL=
201012261645 METAR LMML 261645Z 30004KT 9999 FEW025 BKN080 12/07 Q1012
                        NOSIG=
201012261630 METAR LMML NIL=
201012261615 METAR LMML 261615Z 29004KT 9999 FEW025 BKN090 12/07 Q1012
                        NOSIG=
201012261600 METAR LMML NIL=
201012261545 METAR LMML 261545Z 29005KT 260V330 9999 FEW025 BKN080 12/07
                        Q1012 NOSIG=
201012261530 METAR LMML NIL=
201012261515 METAR LMML 261515Z 30008KT 9999 FEW030 BKN080 13/08 Q1012
                        NOSIG=
201012261500 METAR LMML NIL=
201012261445 METAR LMML 261445Z 28008KT 9999 FEW030 BKN080 13/07 Q1012
                        NOSIG=
201012261430 METAR LMML NIL=
201012261415 METAR LMML 261415Z 28008KT 9999 FEW030 BKN080 BKN120 13/05
                        Q1011 NOSIG=
201012261400 METAR LMML NIL=
201012261345 METAR LMML 261345Z 28008KT 250V310 9999 FEW031 BKN080 BKN120
                        13/07 Q1012 NOSIG=
201012261330 METAR LMML NIL=
201012261315 METAR LMML 261315Z 27008KT 220V300 9999 FEW031 BKN080 BKN110
                        13/07 Q1012 NOSIG=
201012261300 METAR LMML NIL=
201012261245 METAR LMML 261245Z 28008KT 240V310 9999 FEW032 BKN080 BKN110
                        13/06 Q1012 NOSIG=
201012261230 METAR LMML NIL=
201012261215 METAR LMML 261215Z 28009KT 9999 SCT035 BKN120 14/07 Q1012
                        NOSIG=
201012261145 METAR LMML 261145Z 29009KT 250V310 9999 SCT034 BKN120 14/07
                        Q1012 NOSIG=
201012261130 METAR LMML NIL=
201012261115 METAR LMML 261115Z 29010KT 250V320 9999 SCT034 BKN120 14/06
                        Q1012 NOSIG=
201012261100 METAR LMML NIL=
201012261045 METAR LMML 261045Z 27008KT 230V300 9999 SCT035 BKN120 14/07
                        Q1013 NOSIG=
201012261030 METAR LMML NIL=
201012261015 METAR LMML 261015Z 28007KT 220V300 9999 SCT034 BKN120 14/06
                        Q1013 NOSIG=
201012261000 METAR LMML NIL=
201012260945 METAR LMML 260945Z 28007KT 240V310 9999 FEW033 BKN120 14/08
                        Q1013 NOSIG=
201012260930 METAR LMML NIL=
201012260915 METAR LMML 260915Z VRB02KT 9999 FEW033 SCT080 BKN120 13/08
                        Q1013 NOSIG=
201012260900 METAR LMML NIL=
201012260845 METAR LMML 260845Z 33003KT 9999 FEW028 SCT070 BKN120 12/09
                        Q1013 NOSIG=
201012260830 METAR LMML NIL=
201012260815 METAR LMML 260815Z 31005KT 280V340 9999 FEW030 BKN064 BKN120
                        11/09 Q1013 NOSIG=
201012260800 METAR LMML NIL=
201012260745 METAR LMML 260745Z 28004KT 250V310 9999 FEW030 BKN060 BKN080
                        12/08 Q1012 NOSIG=
201012260715 METAR LMML 260715Z 26004KT 230V300 9999 FEW033 BKN060 BKN080
                        11/07 Q1012 NOSIG=
201012260700 METAR LMML NIL=
201012260645 METAR LMML 260645Z 29009KT 9999 -RA FEW033 BKN060 BKN080
                        11/08 Q1012 NOSIG=
201012260630 METAR LMML NIL=
201012260615 METAR LMML 260615Z 27008KT 240V310 9999 -RA FEW034 BKN065
                        11/07 Q1012 NOSIG=
201012260600 METAR LMML NIL=
201012260545 METAR LMML 260545Z 24003KT 9999 FEW040 BKN060 11/07 Q1012
                        NOSIG=
201012260530 METAR LMML NIL=
201012260515 METAR LMML 260515Z 26003KT 9999 FEW040 BKN060 10/07 Q1011
                        NOSIG=
201012260500 METAR LMML NIL=
201012260445 METAR LMML 260445Z 28006KT 9999 FEW040 BKN060 11/06 Q1011
                        NOSIG=
201012260430 METAR LMML NIL=
201012260415 METAR LMML 260415Z 29006KT 9999 FEW040 BKN080 11/08 Q1012
                        NOSIG=
201012260400 METAR LMML NIL=
201012260345 METAR LMML 260345Z 29010KT 9999 SCT038 BKN060 11/08 Q1012
                        NOSIG=
201012260330 METAR LMML NIL=
201012260315 METAR LMML 260315Z 27008G20KT 230V310 9999 SCT019 BKN070
                        11/08 Q1012 NOSIG=
201012260300 METAR LMML NIL=
201012260245 METAR LMML 260245Z 27003KT 9999 SCT033 BKN070 11/07 Q1012
                        NOSIG=
201012260230 METAR LMML NIL=
201012260215 METAR LMML 260215Z 27006KT 9999 -SHRA SCT035 BKN060 12/07
                        Q1012 NOSIG=
201012260200 METAR LMML NIL=
201012260145 METAR LMML 260145Z 26004KT 9999 FEW035 BKN120 11/07 Q1012
                        NOSIG=
201012260130 METAR LMML NIL=
201012260115 METAR LMML 260115Z 27006KT 9999 FEW034 BKN120 12/07 Q1012
                        NOSIG=
201012260100 METAR LMML NIL=
201012260045 METAR LMML 260045Z 28003KT 9999 FEW035 BKN120 11/06 Q1012
                        NOSIG=
201012260030 METAR LMML NIL=
201012260015 METAR LMML 260015Z 30004KT 9999 FEW036 BKN120 11/07 Q1012
                        NOSIG=
201012260000 METAR LMML NIL=
201012252345 METAR LMML 252345Z 29006KT 9999 FEW035 BKN120 11/07 Q1012
                        NOSIG=
201012252330 METAR LMML NIL=
201012252315 METAR LMML 252315Z 27004KT 230V290 9999 FEW032 SCT120 11/06
                        Q1012 NOSIG=
201012252300 METAR LMML NIL=
201012252245 METAR LMML 252245Z 27004KT 240V300 9999 FEW032 11/06 Q1012
                        NOSIG=
201012252230 METAR LMML NIL=
201012252215 METAR LMML 252215Z 26004KT 9999 FEW025 10/06 Q1012 NOSIG=
201012252200 METAR LMML NIL=
201012252145 METAR LMML 252145Z 25004KT 210V280 9999 FEW025 10/05 Q1012
                        NOSIG=
201012252130 METAR LMML NIL=
201012252115 METAR LMML 252115Z 26004KT 9999 FEW025 SCT120 11/05 Q1012
                        NOSIG=
201012252100 METAR LMML NIL=
201012252045 METAR LMML 252045Z 27004KT 9999 FEW025 SCT120 11/06 Q1012
                        NOSIG=
201012252030 METAR LMML NIL=
201012252015 METAR LMML 252015Z 27004KT 240V300 9999 FEW025 BKN120 11/06
                        Q1012 NOSIG=
201012252000 METAR LMML NIL=
201012251945 METAR LMML 251945Z 26004KT 230V290 9999 FEW025 SCT050 BKN120
                        11/06 Q1012 NOSIG=
201012251930 METAR LMML NIL=
201012251915 METAR LMML 251915Z 28004KT 240V300 9999 FEW025 BKN050 BKN120
                        12/06 Q1012 NOSIG=
201012251900 METAR LMML NIL=
201012251845 METAR LMML 251845Z 27004KT 240V300 9999 FEW034 BKN052 BKN073
                        12/07 Q1012 NOSIG=
201012251830 METAR LMML NIL=
201012251815 METAR LMML 251815Z 27003KT 9999 FEW025 BKN050 12/08 Q1011
                        NOSIG=
201012251800 METAR LMML NIL=
201012251745 METAR LMML 251745Z VRB02KT 9999 FEW028 BKN043 12/08 Q1011
                        NOSIG=
201012251730 METAR LMML NIL=
201012251715 METAR LMML 251715Z VRB02KT 9999 -RA FEW022 BKN043 12/08 Q1011
                        NOSIG=
201012251700 METAR LMML NIL=
201012251645 METAR LMML 251645Z 26003KT 9999 SCT022 BKN040 12/08 Q1011
                        NOSIG=
201012251630 METAR LMML NIL=
201012251615 METAR LMML 251615Z 25003KT 9999 FEW023 BKN042 12/08 Q1011
                        NOSIG=
201012251600 METAR LMML NIL=
201012251545 METAR LMML 251545Z 28005KT 250V310 9999 FEW023 BKN042 12/08
                        Q1010 NOSIG=
201012251530 METAR LMML NIL=
201012251515 METAR LMML 251515Z 28006KT 240V300 9999 FEW023 BKN042 12/07
                        Q1010 NOSIG=
201012251500 METAR LMML NIL=
201012251445 METAR LMML 251445Z 29008KT 9999 FEW039 BKN050 13/07 Q1010
                        NOSIG=
201012251430 METAR LMML NIL=
201012251415 METAR LMML 251415Z 29010KT 9999 -RA FEW032 SCT050 BKN080
                        13/07 Q1010 NOSIG=
201012251400 METAR LMML NIL=
201012251345 METAR LMML 251345Z 29009KT 9999 FEW035 SCT060 BKN080 13/07
                        Q1010 NOSIG=
201012251330 METAR LMML NIL=
201012251315 METAR LMML 251315Z 31008KT 280V340 9999 FEW033 SCT060 BKN080
                        14/07 Q1010 NOSIG=
201012251300 METAR LMML NIL=
201012251245 METAR LMML 251245Z 31009KT 9999 FEW035 BKN080 14/07 Q1010
                        NOSIG=
201012251230 METAR LMML NIL=
201012251215 METAR LMML 251215Z 30008KT 250V330 9999 FEW035 SCT050 BKN080
                        15/07 Q1010 NOSIG=
201012251200 METAR LMML NIL=
201012251145 METAR LMML 251145Z 28009KT 9999 SCT035 BKN080 14/07 Q1010
                        NOSIG=
201012251130 METAR LMML NIL=
201012251115 METAR LMML 251115Z 30008KT 9999 FEW030 BKN080 14/07 Q1010
                        NOSIG=
201012251100 METAR LMML NIL=
201012251045 METAR LMML 251045Z 29008KT 260V320 9999 FEW030 BKN080 14/06
                        Q1011 NOSIG=
201012251030 METAR LMML NIL=
201012251015 METAR LMML 251015Z 29008KT 260V320 9999 FEW030 BKN080 14/05
                        Q1011 NOSIG=
201012251000 METAR LMML NIL=
201012250945 METAR LMML 250945Z 29006KT 250V320 9999 FEW030 BKN080 14/07
                        Q1011 NOSIG=
201012250930 METAR LMML NIL=
201012250915 METAR LMML 250915Z 31005KT 260V330 9999 FEW030 SCT080 BKN250
                        14/06 Q1011 NOSIG=
201012250900 METAR LMML NIL=
201012250845 METAR LMML 250845Z 28005KT 250V310 9999 FEW030 BKN250 13/07
                        Q1011 NOSIG=
201012250830 METAR LMML NIL=
201012250815 METAR LMML 250815Z 27003KT 9999 FEW030 BKN250 13/08 Q1010
                        NOSIG=
201012250800 METAR LMML NIL=
201012250745 METAR LMML 250745Z 28005KT 250V310 9999 FEW030 BKN250 12/07
                        Q1010 NOSIG=
201012250715 METAR LMML 250715Z 29005KT 260V330 9999 FEW030 BKN250 12/07
                        Q1010 NOSIG=
201012250700 METAR LMML NIL=
201012250645 METAR LMML 250645Z 28006KT 9999 FEW030 BKN250 12/07 Q1010
                        NOSIG=
201012250630 METAR LMML NIL=
201012250615 METAR LMML 250615Z 28006KT 9999 FEW032 BKN250 12/07 Q1010
                        TEMPO SHRA=
201012250545 METAR LMML 250545Z 27004KT 9999 FEW038 SCT250 11/07 Q1010
                        TEMPO SHRA=
201012250530 METAR LMML NIL=
201012250515 METAR LMML 250515Z 27004KT 9999 FEW039 11/07 Q1009 NOSIG=
201012250500 METAR LMML NIL=
201012250445 METAR LMML 250445Z 27004KT 9999 FEW034 11/07 Q1009 NOSIG=
201012250430 METAR LMML NIL=
201012250415 METAR LMML 250415Z 27004KT 230V290 9999 FEW042 BKN080 12/07
                        Q1009 NOSIG=
201012250400 METAR LMML NIL=
201012250345 METAR LMML 250345Z 29007KT 9999 FEW042 BKN070 12/08 Q1009
                        NOSIG=
201012250330 METAR LMML NIL=
201012250315 METAR LMML 250315Z 28005KT 9999 FEW034 SCT042 BKN070 13/07
                        Q1009 TEMPO SHRA=
201012250300 METAR LMML NIL=
201012250245 METAR LMML 250245Z 27004KT 230V300 9999 FEW033 BKN070 13/07
                        Q1009 TEMPO SHRA=
201012250230 METAR LMML NIL=
201012250215 METAR LMML 250215Z 28007KT 9999 FEW040 SCT050 BKN070 13/07
                        Q1009 TEMPO SHRA=
201012250200 METAR LMML NIL=
201012250145 METAR LMML 250145Z 28008KT 250V310 9999 FEW034 SCT076 BKN086
                        13/07 Q1009 TEMPO SHRA=
201012250130 METAR LMML NIL=
201012250115 METAR LMML 250115Z 27006KT 240V300 9999 FEW032 BKN073 13/07
                        Q1009 NOSIG=
201012250100 METAR LMML NIL=
201012250045 METAR LMML 250045Z 28006KT 9999 FEW038 BKN090 13/07 Q1009
                        NOSIG=
201012250015 METAR LMML 250015Z 29007KT 9999 FEW033 SCT250 13/07 Q1009
                        NOSIG=
201012250000 METAR LMML NIL=
201012242345 METAR LMML 242345Z 28007KT 250V310 9999 FEW033 SCT250 13/07
                        Q1009 NOSIG=
201012242330 METAR LMML NIL=
201012242315 METAR LMML 242315Z 29010KT 9999 FEW032 BKN250 13/07 Q1009
                        NOSIG=
201012242300 METAR LMML NIL=
201012242245 METAR LMML 242245Z 29009KT CAVOK 13/07 Q1009 NOSIG=
201012242230 METAR LMML NIL=
201012242215 METAR LMML 242215Z 28009KT 260V320 CAVOK 13/07 Q1009 NOSIG=
201012242200 METAR LMML NIL=
201012242145 METAR LMML 242145Z 29017KT 9999 FEW032 SCT081 13/08 Q1009
                        TEMPO SHRA=
201012242130 METAR LMML NIL=
201012242115 METAR LMML 242115Z 28012KT 250V310 9999 FEW031 13/07 Q1008
                        NOSIG=
201012242100 METAR LMML NIL=
201012242045 METAR LMML 242045Z 28009KT 240V310 9999 SCT030 13/08 Q1008
                        NOSIG=
201012242030 METAR LMML NIL=
201012242015 METAR LMML 242015Z 27011KT 230V300 9999 FEW031 SCT060 14/08
                        Q1008 NOSIG=
201012242000 METAR LMML NIL=
201012241945 METAR LMML 241945Z 28012KT 240V310 9999 FEW030 BKN060 14/08
                        Q1008 NOSIG=
201012241930 METAR LMML NIL=
201012241915 METAR LMML 241915Z 28011KT 240V320 9999 FEW031 14/07 Q1008
                        TEMPO SHRA=
201012241900 METAR LMML NIL=
201012241845 METAR LMML 241845Z 28013KT 9999 FEW035 SCT058 14/07 Q1008
                        NOSIG=
201012241830 METAR LMML NIL=
201012241815 METAR LMML 241815Z 27014KT 230V300 9999 FEW039 BKN050 14/07
                        Q1007 NOSIG=
201012241800 METAR LMML NIL=
201012241745 METAR LMML 241745Z 28015KT 240V310 9999 FEW039 SCT047 14/06
                        Q1007 NOSIG=
201012241730 METAR LMML NIL=
201012241715 METAR LMML 241715Z 27014KT 220V310 9999 SCT039 SCT050 14/06
                        Q1006 NOSIG=
201012241700 METAR LMML NIL=
201012241645 METAR LMML 241645Z 27017KT 230V320 9999 SCT039 14/06 Q1006
                        NOSIG=
201012241630 METAR LMML NIL=
201012241615 METAR LMML 241615Z 26016KT 220V290 9999 FEW035 14/06 Q1005
                        NOSIG=
201012241600 METAR LMML NIL=
201012241545 METAR LMML 241545Z 27016KT 220V300 9999 FEW035 SCT250 14/06
                        Q1005 NOSIG=
201012241530 METAR LMML NIL=
201012241515 METAR LMML 241515Z 27015KT 230V300 9999 FEW035 SCT250 15/06
                        Q1005 NOSIG=
201012241500 METAR LMML NIL=
201012241445 METAR LMML 241445Z 26016G26KT 220V290 9999 FEW035 15/06 Q1005
                        NOSIG=
201012241430 METAR LMML NIL=
201012241415 METAR LMML 241415Z 26018KT 220V300 9999 FEW037 16/05 Q1005
                        NOSIG=
201012241400 METAR LMML NIL=
201012241345 METAR LMML 241345Z 26019G29KT 220V290 9999 SCT037 16/08 Q1005
                        NOSIG=
201012241330 METAR LMML NIL=
201012241315 METAR LMML 241315Z 26019G29KT 230V290 9999 SCT039 16/08 Q1004
                        NOSIG=
201012241300 METAR LMML NIL=
201012241245 METAR LMML 241245Z 25018KT 210V290 9999 -RASH BKN040 16/07
                        Q1004 NOSIG=
201012241230 METAR LMML NIL=
201012241215 METAR LMML 241215Z 24021G31KT 210V280 9999 FEW020 18/08 Q1004
                        NOSIG=
201012241200 METAR LMML NIL=
201012241145 METAR LMML 241145Z 22020KT 190V270 9999 FEW020 18/11 Q1004
                        NOSIG=
201012241130 METAR LMML NIL=
201012241115 METAR LMML 241115Z 22018G29KT 190V260 CAVOK 18/12 Q1004 NOSIG=
201012241100 METAR LMML NIL=
201012241045 METAR LMML 241045Z 22015KT 180V270 CAVOK 18/12 Q1004 NOSIG=
201012241030 METAR LMML NIL=
201012241015 METAR LMML 241015Z 21013KT 160V270 CAVOK 18/12 Q1004 NOSIG=
201012241000 METAR LMML NIL=
201012240945 METAR LMML 240945Z 22015KT 190V250 9000 NSC 18/13 Q1005 NOSIG=
201012240930 METAR LMML NIL=
201012240915 METAR LMML 240915Z 22016KT 190V250 9000 NSC 18/14 Q1005 NOSIG=
201012240900 METAR LMML NIL=
201012240845 METAR LMML 240845Z 22015KT 180V280 CAVOK 18/14 Q1005 NOSIG=
201012240830 METAR LMML NIL=
201012240815 METAR LMML 240815Z 22012KT 180V260 CAVOK 18/14 Q1005 NOSIG=
201012240800 METAR LMML NIL=
201012240745 METAR LMML 240745Z 21012KT 180V250 CAVOK 18/13 Q1005 NOSIG=
201012240730 METAR LMML NIL=
201012240715 METAR LMML 240715Z 21010KT 160V260 CAVOK 17/13 Q1005 NOSIG=
201012240700 METAR LMML NIL=
201012240645 METAR LMML 240645Z 21010KT 180V240 CAVOK 17/14 Q1004 NOSIG=
201012240630 METAR LMML NIL=
201012240615 METAR LMML 240615Z 21008KT 170V250 CAVOK 16/14 Q1004 NOSIG=
201012240600 METAR LMML NIL=
201012240545 METAR LMML 240545Z 21007KT 170V250 CAVOK 16/14 Q1005 NOSIG=
201012240530 METAR LMML NIL=
201012240515 METAR LMML 240515Z 22007KT CAVOK 16/13 Q1004 NOSIG=
201012240500 METAR LMML NIL=
201012240445 METAR LMML 240445Z 23008KT 200V270 CAVOK 16/12 Q1005 NOSIG=
201012240415 METAR LMML 240415Z 22008KT 190V260 CAVOK 16/13 Q1004 NOSIG=
201012240400 METAR LMML NIL=
201012240345 METAR LMML 240345Z 22008KT CAVOK 16/13 Q1004 NOSIG=
201012240330 METAR LMML NIL=
201012240315 METAR LMML 240315Z 22008KT 190V260 CAVOK 16/13 Q1005 NOSIG=
201012240300 METAR LMML NIL=
201012240245 METAR LMML 240245Z 22007KT 180V280 CAVOK 16/13 Q1005 NOSIG=
201012240230 METAR LMML NIL=
201012240215 METAR LMML 240215Z 23009KT CAVOK 16/12 Q1005 NOSIG=
201012240200 METAR LMML NIL=
201012240145 METAR LMML 240145Z 22008KT 200V260 CAVOK 17/12 Q1005 NOSIG=
201012240130 METAR LMML NIL=
201012240115 METAR LMML 240115Z 23007KT 200V280 CAVOK 17/12 Q1005 NOSIG=
201012240045 METAR LMML 240045Z 23007KT 200V270 CAVOK 17/12 Q1005 NOSIG=
201012240030 METAR LMML NIL=
201012240015 METAR LMML 240015Z 24008KT 190V270 CAVOK 17/11 Q1005 NOSIG=
201012240000 METAR LMML NIL=
201012232345 METAR LMML 232345Z 23007KT 200V270 CAVOK 17/13 Q1005 NOSIG=
201012232330 METAR LMML NIL=
201012232315 METAR LMML 232315Z 23007KT 200V270 CAVOK 17/13 Q1005 NOSIG=
201012232300 METAR LMML NIL=
201012232245 METAR LMML 232245Z 24007KT 200V280 CAVOK 17/13 Q1006 NOSIG=
201012232230 METAR LMML NIL=
201012232215 METAR LMML 232215Z 24008KT 200V270 CAVOK 18/13 Q1005 NOSIG=
201012232145 METAR LMML 232145Z 24008KT 210V270 CAVOK 18/13 Q1005 NOSIG=
201012232130 METAR LMML NIL=
201012232115 METAR LMML 232115Z 23008KT 200V270 CAVOK 18/13 Q1005 NOSIG=
201012232045 METAR LMML 232045Z 21008KT CAVOK 19/13 Q1005 NOSIG=
201012232015 METAR LMML 232015Z 21008KT 180V250 CAVOK 19/14 Q1005 NOSIG=
201012232000 METAR LMML NIL=
201012231945 METAR LMML 231945Z 21007KT 170V260 CAVOK 19/14 Q1005 NOSIG=
201012231930 METAR LMML NIL=
201012231915 METAR LMML 231915Z 19009KT 150V230 CAVOK 19/13 Q1004 NOSIG=
201012231900 METAR LMML NIL=
201012231845 METAR LMML 231845Z 17009KT 140V210 CAVOK 20/12 Q1004 NOSIG=
201012231830 METAR LMML NIL=
201012231815 METAR LMML 231815Z 17007KT 140V200 CAVOK 20/12 Q1004 NOSIG=
201012231800 METAR LMML NIL=
201012231745 METAR LMML 231745Z 15009KT CAVOK 21/11 Q1004 NOSIG=
201012231715 METAR LMML 231715Z 18015G49KT 120V270 9999 FEW040 SCT100
                        BKN110 22/11 Q1005 NOSIG=
201012231703 SPECI LMML 231703Z 16009G49KT 120V230 9999 -SHRA FEW040 SCT100
                        BKN110 18/14 Q1005 NOSIG=
201012231700 METAR LMML NIL=
201012231645 METAR LMML 231645Z 17008KT 9999 FEW044 BKN110 BKN250 18/14
                        Q1005 NOSIG=
201012231630 METAR LMML NIL=
201012231615 METAR LMML 231615Z 16010KT 140V200 CAVOK 18/14 Q1005 NOSIG=
201012231600 METAR LMML NIL=
201012231545 METAR LMML 231545Z 15011KT 120V180 CAVOK 18/14 Q1004 NOSIG=
201012231530 METAR LMML NIL=
201012231515 METAR LMML 231515Z 16010KT 120V200 CAVOK 18/15 Q1005 NOSIG=
201012231500 METAR LMML NIL=
201012231445 METAR LMML 231445Z 17010KT 140V210 CAVOK 18/15 Q1005 NOSIG=
201012231430 METAR LMML NIL=
201012231415 METAR LMML 231415Z 16008KT CAVOK 19/14 Q1005 NOSIG=
201012231400 METAR LMML NIL=
201012231345 METAR LMML 231345Z 17008KT 130V200 CAVOK 19/14 Q1005 NOSIG=
201012231330 METAR LMML NIL=
201012231315 METAR LMML 231315Z 18011KT 150V220 CAVOK 19/14 Q1006 NOSIG=
201012231300 METAR LMML NIL=
201012231245 METAR LMML 231245Z 19010KT 160V220 CAVOK 19/14 Q1006 NOSIG=
201012231230 METAR LMML NIL=
201012231215 METAR LMML 231215Z 17008KT 140V210 CAVOK 19/14 Q1006 NOSIG=
201012231200 METAR LMML NIL=
201012231145 METAR LMML 231145Z 18009KT 150V210 CAVOK 19/14 Q1006 NOSIG=
201012231130 METAR LMML NIL=
201012231115 METAR LMML 231115Z 18009KT 130V210 CAVOK 19/14 Q1007 NOSIG=
201012231100 METAR LMML NIL=
201012231045 METAR LMML 231045Z 17009KT 140V210 CAVOK 19/14 Q1007 NOSIG=
201012231030 METAR LMML NIL=
201012231015 METAR LMML 231015Z 18011KT CAVOK 19/15 Q1008 NOSIG=
201012231000 METAR LMML NIL=
201012230945 METAR LMML 230945Z 17010KT 140V220 CAVOK 19/15 Q1008 NOSIG=
201012230930 METAR LMML NIL=
201012230915 METAR LMML 230915Z 17008KT 140V210 CAVOK 18/15 Q1008 NOSIG=
201012230900 METAR LMML NIL=
201012230845 METAR LMML 230845Z 17008KT 140V210 CAVOK 18/15 Q1009 NOSIG=
201012230830 METAR LMML NIL=
201012230815 METAR LMML 230815Z 17008KT 130V200 CAVOK 18/15 Q1009 NOSIG=
201012230800 METAR LMML NIL=
201012230745 METAR LMML 230745Z 17008KT 140V200 CAVOK 17/15 Q1009 NOSIG=
201012230730 METAR LMML NIL=
201012230715 METAR LMML 230715Z 16009KT CAVOK 17/15 Q1008 NOSIG=
201012230700 METAR LMML NIL=
201012230645 METAR LMML 230645Z 16009KT CAVOK 17/15 Q1009 NOSIG=
201012230630 METAR LMML NIL=
201012230615 METAR LMML 230615Z 16008KT CAVOK 16/15 Q1009 NOSIG=
201012230600 METAR LMML NIL=
201012230545 METAR LMML 230545Z 17006KT 120V200 CAVOK 17/15 Q1009 NOSIG=
201012230530 METAR LMML NIL=
201012230515 METAR LMML 230515Z 17007KT 140V200 CAVOK 17/15 Q1009 NOSIG=
201012230500 METAR LMML NIL=
201012230445 METAR LMML 230445Z 17008KT 140V210 CAVOK 17/15 Q1009 NOSIG=
201012230430 METAR LMML NIL=
201012230415 METAR LMML 230415Z 17008KT 130V200 CAVOK 17/15 Q1009 NOSIG=
201012230400 METAR LMML NIL=
201012230345 METAR LMML 230345Z 17008KT 130V200 CAVOK 17/15 Q1010 NOSIG=
201012230330 METAR LMML NIL=
201012230315 METAR LMML 230315Z 16008KT 130V190 CAVOK 16/16 Q1010 NOSIG=
201012230300 METAR LMML NIL=
201012230245 METAR LMML 230245Z 16008KT 130V190 CAVOK 16/16 Q1010 NOSIG=
201012230230 METAR LMML NIL=
201012230215 METAR LMML 230215Z 16008KT CAVOK 16/16 Q1011 NOSIG=
201012230200 METAR LMML NIL=
201012230145 METAR LMML 230145Z 16009KT CAVOK 16/16 Q1011 NOSIG=
201012230130 METAR LMML NIL=
201012230115 METAR LMML 230115Z 16009KT CAVOK 16/16 Q1011 NOSIG=
201012230100 METAR LMML NIL=
201012230045 METAR LMML 230045Z 17009KT 140V210 CAVOK 17/16 Q1011 NOSIG=
201012230030 METAR LMML NIL=
201012230015 METAR LMML 230015Z 17008KT 140V210 CAVOK 16/16 Q1011 NOSIG=
201012230000 METAR LMML NIL=
201012222345 METAR LMML 222345Z 17009KT 140V200 CAVOK 16/16 Q1011 NOSIG=
201012222330 METAR LMML NIL=
201012222315 METAR LMML 222315Z 17010KT 140V200 CAVOK 16/16 Q1012 NOSIG=
201012222300 METAR LMML NIL=
201012222245 METAR LMML 222245Z 17011KT 130V200 CAVOK 16/16 Q1012 NOSIG=
201012222230 METAR LMML NIL=
201012222215 METAR LMML 222215Z 18011KT 150V210 CAVOK 16/16 Q1012 NOSIG=
201012222200 METAR LMML NIL=
201012222145 METAR LMML 222145Z 18010KT 150V210 CAVOK 16/16 Q1012 NOSIG=
201012222130 METAR LMML NIL=
201012222115 METAR LMML 222115Z 17009KT 140V200 9999 FEW005 16/16 Q1012
                        NOSIG=
201012222100 METAR LMML NIL=
201012222045 METAR LMML 222045Z 17007KT 140V210 9999 FEW005 16/16 Q1013
                        NOSIG=
201012222030 METAR LMML NIL=
201012222015 METAR LMML 222015Z 16006KT 130V190 9999 FEW005 16/16 Q1013
                        NOSIG=
201012222000 METAR LMML NIL=
201012221945 METAR LMML 221945Z 16007KT 9999 FEW005 16/16 Q1013 NOSIG=
201012221930 METAR LMML NIL=
201012221915 METAR LMML 221915Z 14006KT 120V180 9999 FEW005 16/16 Q1013
                        NOSIG=
201012221900 METAR LMML NIL=
201012221845 METAR LMML 221845Z 14005KT 110V170 9999 FEW005 16/15 Q1013
                        NOSIG=
201012221830 METAR LMML NIL=
201012221815 METAR LMML 221815Z 14005KT 100V170 9999 FEW005 16/16 Q1013
                        NOSIG=
201012221800 METAR LMML NIL=
201012221745 METAR LMML 221745Z 15006KT 120V180 9999 FEW005 SCT250 16/16
                        Q1013 NOSIG=
201012221730 METAR LMML NIL=
201012221715 METAR LMML 221715Z 17005KT 120V210 9999 FEW005 BKN250 16/16
                        Q1013 NOSIG=
201012221700 METAR LMML NIL=
201012221645 METAR LMML 221645Z 17006KT 140V210 9000 FEW005 BKN250 16/16
                        Q1013 NOSIG=
201012221630 METAR LMML NIL=
201012221615 METAR LMML 221615Z 17006KT 130V200 9000 FEW005 BKN250 16/16
                        Q1012 NOSIG=
201012221545 METAR LMML 221545Z 17005KT 130V220 9000 FEW005 BKN250 17/16
                        Q1013 NOSIG=
201012221530 METAR LMML NIL=
201012221515 METAR LMML 221515Z 17007KT 130V200 9000 FEW005 BKN250 17/16
                        Q1013 NOSIG=
201012221500 METAR LMML NIL=
201012221445 METAR LMML 221445Z 16008KT 9000 FEW004 BKN250 17/16 Q1012
                        NOSIG=
201012221430 METAR LMML NIL=
201012221415 METAR LMML 221415Z 15008KT 120V190 9000 FEW007 SCT250 18/16
                        Q1013 NOSIG=
201012221400 METAR LMML NIL=
201012221345 METAR LMML 221345Z 16010KT 120V190 9000 SCT006 18/17 Q1012
                        NOSIG=
201012221330 METAR LMML NIL=
201012221315 METAR LMML 221315Z 17010KT 130V200 9000 SCT006 18/17 Q1013
                        NOSIG=
201012221300 METAR LMML NIL=
201012221245 METAR LMML 221245Z 17010KT 140V210 9000 BKN006 19/17 Q1013
                        NOSIG=
201012221230 METAR LMML NIL=
201012221215 METAR LMML 221215Z 17008KT 140V200 9000 BKN006 19/17 Q1013
                        NOSIG=
201012221200 METAR LMML NIL=
201012221145 METAR LMML 221145Z 16010KT 140V200 9000 BKN006 18/17 Q1013
                        NOSIG=
201012221115 METAR LMML 221115Z 16010KT 7000 BKN006 18/17 Q1014 NOSIG=
201012221100 METAR LMML NIL=
201012221045 METAR LMML 221045Z 16010KT 130V190 7000 BKN006 OVC010 18/17
                        Q1014 NOSIG=
201012221030 METAR LMML NIL=
201012221015 METAR LMML 221015Z 16010KT 7000 BKN007 17/16 Q1014 NOSIG=
201012221000 METAR LMML NIL=
201012220945 METAR LMML 220945Z 16012KT 130V190 7000 BKN005 17/16 Q1015
                        NOSIG=
201012220930 METAR LMML NIL=
201012220915 METAR LMML 220915Z 16010KT 130V190 9999 BKN009 17/16 Q1015
                        NOSIG=
201012220900 METAR LMML NIL=
201012220845 METAR LMML 220845Z 16009KT 080V210 9999 FEW006 SCT011 17/16
                        Q1015 NOSIG=
201012220830 METAR LMML NIL=
201012220815 METAR LMML 220815Z 16009KT 130V190 9999 FEW006 SCT011 17/16
                        Q1015 NOSIG=
201012220800 METAR LMML NIL=
201012220745 METAR LMML 220745Z 16008KT 9999 SCT008 BKN012 BKN250 16/16
                        Q1015 NOSIG=
201012220730 METAR LMML NIL=
201012220715 METAR LMML 220715Z 15008KT 110V180 9999 SCT009 BKN013 BKN250
                        16/16 Q1015 NOSIG=
201012220645 METAR LMML 220645Z 15009KT 9999 FEW009 BKN012 BKN250 16/16
                        Q1014 NOSIG=
201012220615 METAR LMML 220615Z 16009KT 9999 SCT012 BKN250 16/15 Q1015
                        NOSIG=
201012220545 METAR LMML 220545Z 16008KT 9999 SCT012 BKN250 16/15 Q1015
                        NOSIG=
201012220530 METAR LMML NIL=
201012220515 METAR LMML 220515Z 17008KT 140V200 9999 BKN013 BKN250 16/15
                        Q1015 NOSIG=
201012220500 METAR LMML NIL=
201012220445 METAR LMML 220445Z 16009KT 9999 SCT013 16/15 Q1014 NOSIG=
201012220430 METAR LMML NIL=
201012220415 METAR LMML 220415Z 17009KT 9999 FEW014 SCT120 BKN250 16/15
                        Q1014 NOSIG=
201012220400 METAR LMML NIL=
201012220345 METAR LMML 220345Z 17008KT 130V190 9999 SCT014 SCT120 15/15
                        Q1014 NOSIG=
201012220330 METAR LMML NIL=
201012220315 METAR LMML 220315Z 16008KT 9999 SCT014 SCT130 BKN250 15/15
                        Q1015 NOSIG=
201012220300 METAR LMML NIL=
201012220245 METAR LMML 220245Z 16008KT 9999 FEW006 SCT015 15/15 Q1015
                        NOSIG=
201012220230 METAR LMML NIL=
201012220215 METAR LMML 220215Z 16006KT 120V180 9999 BKN006 BKN250 15/14
                        Q1015 NOSIG=
201012220200 METAR LMML NIL=
201012220145 METAR LMML 220145Z 14005KT 9999 BKN006 SCT250 14/14 Q1015
                        NOSIG=
201012220130 METAR LMML NIL=
201012220115 METAR LMML 220115Z 14005KT 9999 BKN008 SCT250 14/14 Q1015
                        NOSIG=
201012220100 METAR LMML NIL=
201012220045 METAR LMML 220045Z 13005KT 9999 BKN008 SCT250 13/13 Q1015
                        NOSIG=
201012220015 METAR LMML 220015Z 15005KT 120V180 9999 BKN008 BKN250 15/14
                        Q1016 NOSIG=
201012220000 METAR LMML NIL=
201012212345 METAR LMML 212345Z 14005KT 9999 BKN009 BKN250 13/13 Q1016
                        NOSIG=
201012212330 METAR LMML NIL=
201012212315 METAR LMML 212315Z 13005KT 9999 BKN009 BKN250 14/13 Q1016
                        NOSIG=
201012212300 METAR LMML NIL=
201012212245 METAR LMML 212245Z 15005KT 120V190 9999 BKN009 BKN250 15/14
                        Q1016 NOSIG=
201012212230 METAR LMML NIL=
201012212215 METAR LMML 212215Z 16005KT 120V190 9999 BKN010 BKN250 14/13
                        Q1017 NOSIG=
201012212200 METAR LMML NIL=
201012212145 METAR LMML 212145Z 16004KT 120V190 9999 BKN009 BKN250 13/13
                        Q1016 NOSIG=
201012212130 METAR LMML NIL=
201012212115 METAR LMML 212115Z 15003KT 9999 SCT010 BKN250 13/13 Q1016
                        NOSIG=
201012212100 METAR LMML NIL=
201012212045 METAR LMML 212045Z 13004KT 9999 FEW011 SCT250 12/12 Q1016
                        NOSIG=
201012212030 METAR LMML NIL=
201012212015 METAR LMML 212015Z VRB02KT 9999 FEW011 12/12 Q1016 NOSIG=
201012212000 METAR LMML NIL=
201012211945 METAR LMML 211945Z 16003KT 9999 FEW011 SCT250 13/12 Q1016
                        NOSIG=
201012211930 METAR LMML NIL=
201012211915 METAR LMML 211915Z VRB01KT 9999 FEW015 BKN250 12/12 Q1016
                        NOSIG=
201012211900 METAR LMML NIL=
201012211845 METAR LMML 211845Z VRB01KT 9999 FEW015 BKN250 13/12 Q1016
                        NOSIG=
201012211830 METAR LMML NIL=
201012211815 METAR LMML 211815Z VRB01KT 9999 FEW015 BKN250 13/12 Q1016
                        NOSIG=
201012211800 METAR LMML NIL=
201012211745 METAR LMML 211745Z VRB01KT 9999 FEW015 BKN250 13/12 Q1016
                        NOSIG=
201012211730 METAR LMML NIL=
201012211715 METAR LMML 211715Z VRB01KT 9999 FEW015 BKN250 14/12 Q1016
                        NOSIG=
201012211700 METAR LMML NIL=
201012211645 METAR LMML 211645Z 00000KT 9999 FEW015 BKN250 14/12 Q1016
                        NOSIG=
201012211630 METAR LMML NIL=
201012211615 METAR LMML 211615Z 00000KT 9999 FEW020 BKN250 14/12 Q1016
                        NOSIG=
201012211600 METAR LMML NIL=
201012211545 METAR LMML 211545Z VRB02KT 9999 FEW020 BKN250 15/12 Q1016
                        NOSIG=
201012211530 METAR LMML NIL=
201012211515 METAR LMML 211515Z 23003KT 9999 FEW020 BKN250 15/12 Q1015
                        NOSIG=
201012211500 METAR LMML NIL=
201012211445 METAR LMML 211445Z 25006KT 200V300 9999 FEW020 BKN250 16/12
                        Q1015 NOSIG=
201012211415 METAR LMML 211415Z 23006KT 200V270 9999 FEW020 SCT250 17/12
                        Q1015 NOSIG=
201012211400 METAR LMML NIL=
201012211345 METAR LMML 211345Z 25004KT 200V290 9999 FEW020 SCT250 18/11
                        Q1015 NOSIG=
201012211330 METAR LMML NIL=
201012211315 METAR LMML 211315Z 26005KT 200V300 9999 FEW020 SCT250 18/12
                        Q1015 NOSIG=
201012211300 METAR LMML NIL=
201012211245 METAR LMML 211245Z 24006KT 190V300 9999 FEW020 SCT250 18/11
                        Q1015 NOSIG=
201012211230 METAR LMML NIL=
201012211215 METAR LMML 211215Z 27005KT 210V300 9999 FEW020 18/11 Q1015
                        NOSIG=
201012211200 METAR LMML NIL=
201012211145 METAR LMML 211145Z 26006KT 220V300 9999 FEW020 18/11 Q1016
                        NOSIG=
201012211130 METAR LMML NIL=
201012211115 METAR LMML 211115Z 28007KT 240V310 9999 FEW020 18/11 Q1016
                        NOSIG=
201012211100 METAR LMML NIL=
201012211045 METAR LMML 211045Z 28006KT 220V310 9999 FEW020 18/12 Q1016
                        NOSIG=
201012211030 METAR LMML NIL=
201012211015 METAR LMML 211015Z 28006KT 9999 FEW020 18/12 Q1016 NOSIG=
201012211000 METAR LMML NIL=
201012210945 METAR LMML 210945Z 30006KT 260V330 9999 FEW020 17/13 Q1017
                        NOSIG=
201012210930 METAR LMML NIL=
201012210915 METAR LMML 210915Z 30007KT 9999 FEW020 17/13 Q1017 NOSIG=
201012210900 METAR LMML NIL=
201012210845 METAR LMML 210845Z 30007KT 9999 FEW020 16/13 Q1017 NOSIG=
201012210830 METAR LMML NIL=
201012210815 METAR LMML 210815Z 29005KT 9999 FEW020 16/13 Q1016 NOSIG=
201012210800 METAR LMML NIL=
201012210745 METAR LMML 210745Z 29004KT 250V320 9999 FEW020 15/13 Q1016
                        NOSIG=
201012210730 METAR LMML NIL=
201012210715 METAR LMML 210715Z 28004KT 250V310 9999 FEW020 14/12 Q1016
                        NOSIG=
201012210700 METAR LMML NIL=
201012210645 METAR LMML 210645Z 24003KT 9999 FEW020 13/12 Q1016 NOSIG=
201012210630 METAR LMML NIL=
201012210615 METAR LMML 210615Z 28004KT 250V310 9999 FEW020 13/12 Q1015
                        NOSIG=
201012210600 METAR LMML NIL=
201012210545 METAR LMML 210545Z 29004KT 9999 FEW018 13/12 Q1015 NOSIG=
201012210530 METAR LMML NIL=
201012210515 METAR LMML 210515Z 30004KT 9999 FEW017 13/12 Q1015 NOSIG=
201012210500 METAR LMML NIL=
201012210445 METAR LMML 210445Z VRB02KT 9999 FEW013 12/12 Q1015 NOSIG=
201012210430 METAR LMML NIL=
201012210415 METAR LMML 210415Z 28005KT 9999 FEW014 13/12 Q1015 NOSIG=
201012210400 METAR LMML NIL=
201012210345 METAR LMML 210345Z 29007KT 9999 FEW015 13/13 Q1015 NOSIG=
201012210330 METAR LMML NIL=
201012210315 METAR LMML 210315Z 28004KT 250V310 9999 FEW013 13/12 Q1015
                        NOSIG=
201012210300 METAR LMML NIL=
201012210245 METAR LMML 210245Z 30004KT 9999 FEW013 13/13 Q1015 NOSIG=
201012210230 METAR LMML NIL=
201012210215 METAR LMML 210215Z 31005KT 9999 FEW013 13/12 Q1015 NOSIG=
201012210200 METAR LMML NIL=
201012210145 METAR LMML 210145Z 35004KT 9999 FEW013 13/12 Q1015 NOSIG=
201012210130 METAR LMML NIL=
201012210115 METAR LMML 210115Z 31008KT 280V340 9999 FEW012 14/13 Q1015
                        NOSIG=
201012210100 METAR LMML NIL=
201012210045 METAR LMML 210045Z 31004KT CAVOK 13/12 Q1015 NOSIG=
201012210030 METAR LMML NIL=
201012210015 METAR LMML 210015Z 29005KT CAVOK 13/12 Q1015 NOSIG=
201012210000 METAR LMML NIL=
201012202345 METAR LMML 202345Z 31006KT CAVOK 13/13 Q1015 NOSIG=
201012202330 METAR LMML NIL=
201012202315 METAR LMML 202315Z 30007KT 9999 FEW012 14/13 Q1015 NOSIG=
201012202300 METAR LMML NIL=
201012202245 METAR LMML 202245Z 29008KT CAVOK 14/13 Q1015 NOSIG=
201012202230 METAR LMML NIL=
201012202215 METAR LMML 202215Z 30008KT CAVOK 14/13 Q1015 NOSIG=
201012202200 METAR LMML NIL=
201012202145 METAR LMML 202145Z 31007KT 280V340 9999 FEW011 BKN250 14/13
                        Q1014 NOSIG=
201012202130 METAR LMML NIL=
201012202115 METAR LMML 202115Z 31010KT 9999 FEW011 BKN250 14/13 Q1014
                        NOSIG=
201012202100 METAR LMML NIL=
201012202045 METAR LMML 202045Z 31007KT 9999 FEW011 BKN250 14/13 Q1014
                        NOSIG=
201012202030 METAR LMML NIL=
201012202015 METAR LMML 202015Z 31007KT 9999 FEW011 BKN250 14/13 Q1014
                        NOSIG=
201012202000 METAR LMML NIL=
201012201945 METAR LMML 201945Z 32006KT 9999 FEW011 SCT250 14/13 Q1014
                        NOSIG=
201012201930 METAR LMML NIL=
201012201915 METAR LMML 201915Z 32006KT 9999 FEW011 SCT250 14/13 Q1014
                        NOSIG=
201012201900 METAR LMML NIL=
201012201845 METAR LMML 201845Z 32006KT 9999 FEW011 SCT250 14/13 Q1014
                        NOSIG=
201012201830 METAR LMML NIL=
201012201815 METAR LMML 201815Z 32008KT 9999 FEW012 SCT250 14/13 Q1013
                        NOSIG=
201012201800 METAR LMML NIL=
201012201745 METAR LMML 201745Z 32008KT CAVOK 15/13 Q1013 NOSIG=
201012201730 METAR LMML NIL=
201012201715 METAR LMML 201715Z 32008KT CAVOK 14/13 Q1013 NOSIG=
201012201700 METAR LMML NIL=
201012201645 METAR LMML 201645Z 32009KT CAVOK 15/13 Q1013 NOSIG=
201012201630 METAR LMML NIL=
201012201615 METAR LMML 201615Z 32009KT CAVOK 15/13 Q1012 NOSIG=
201012201600 METAR LMML NIL=
201012201545 METAR LMML 201545Z 31011KT CAVOK 16/13 Q1012 NOSIG=
201012201530 METAR LMML NIL=
201012201515 METAR LMML 201515Z 30009KT CAVOK 17/14 Q1012 NOSIG=
201012201500 METAR LMML NIL=
201012201445 METAR LMML 201445Z 31008KT CAVOK 18/15 Q1011 NOSIG=
201012201415 METAR LMML 201415Z 29009KT CAVOK 18/14 Q1011 NOSIG=
201012201400 METAR LMML NIL=
201012201345 METAR LMML 201345Z 29009KT CAVOK 18/13 Q1011 NOSIG=
201012201330 METAR LMML NIL=
201012201315 METAR LMML 201315Z 29009KT CAVOK 19/12 Q1010 NOSIG=
201012201300 METAR LMML NIL=
201012201245 METAR LMML 201245Z 29009KT CAVOK 19/11 Q1011 NOSIG=
201012201230 METAR LMML NIL=
201012201215 METAR LMML 201215Z 29008KT 250V310 CAVOK 20/11 Q1011 NOSIG=
201012201200 METAR LMML NIL=
201012201145 METAR LMML 201145Z 28007KT 250V310 CAVOK 20/11 Q1011 NOSIG=
201012201130 METAR LMML NIL=
201012201115 METAR LMML 201115Z 30006KT 270V330 CAVOK 20/10 Q1011 NOSIG=
201012201100 METAR LMML NIL=
201012201045 METAR LMML 201045Z 28005KT 240V320 CAVOK 20/09 Q1011 NOSIG=
201012201030 METAR LMML NIL=
201012201015 METAR LMML 201015Z 29007KT 250V310 CAVOK 20/09 Q1011 NOSIG=
201012201000 METAR LMML NIL=
201012200945 METAR LMML 200945Z 29007KT CAVOK 20/10 Q1011 NOSIG=
201012200930 METAR LMML NIL=
201012200915 METAR LMML 200915Z 29008KT CAVOK 19/10 Q1011 NOSIG=
201012200900 METAR LMML NIL=
201012200845 METAR LMML 200845Z 30008KT CAVOK 18/12 Q1010 NOSIG=
201012200830 METAR LMML NIL=
201012200815 METAR LMML 200815Z 27005KT 230V310 CAVOK 18/11 Q1010 NOSIG=
201012200800 METAR LMML NIL=
201012200745 METAR LMML 200745Z 24004KT 210V280 CAVOK 17/13 Q1010 NOSIG=
201012200730 METAR LMML NIL=
201012200715 METAR LMML 200715Z 23003KT CAVOK 16/13 Q1010 NOSIG=
201012200700 METAR LMML NIL=
201012200645 METAR LMML 200645Z 24004KT 190V290 CAVOK 15/12 Q1009 NOSIG=
201012200630 METAR LMML NIL=
201012200615 METAR LMML 200615Z 23006KT 210V270 CAVOK 15/12 Q1009 NOSIG=
201012200600 METAR LMML NIL=
201012200545 METAR LMML 200545Z 26006KT 210V300 CAVOK 16/12 Q1009 NOSIG=
201012200530 METAR LMML NIL=
201012200515 METAR LMML 200515Z 25007KT 200V280 CAVOK 16/12 Q1009 NOSIG=
201012200445 METAR LMML 200445Z 24011KT 200V280 CAVOK 17/12 Q1008 NOSIG=
201012200430 METAR LMML NIL=
201012200415 METAR LMML 200415Z 23009KT 200V280 CAVOK 17/13 Q1008 NOSIG=
201012200400 METAR LMML NIL=
201012200345 METAR LMML 200345Z 23010KT 200V260 CAVOK 17/14 Q1008 NOSIG=
201012200330 METAR LMML NIL=
201012200315 METAR LMML 200315Z 23010KT 200V270 CAVOK 17/14 Q1008 NOSIG=
201012200300 METAR LMML NIL=
201012200245 METAR LMML 200245Z 23010KT 200V260 CAVOK 18/13 Q1008 NOSIG=
201012200230 METAR LMML NIL=
201012200215 METAR LMML 200215Z 23010KT 190V270 CAVOK 18/13 Q1008 NOSIG=
201012200200 METAR LMML NIL=
201012200145 METAR LMML 200145Z 22009KT 180V240 CAVOK 18/13 Q1008 NOSIG=
201012200130 METAR LMML NIL=
201012200115 METAR LMML 200115Z 20009KT 180V240 CAVOK 19/12 Q1009 NOSIG=
201012200100 METAR LMML NIL=
201012200045 METAR LMML 200045Z 20010KT 160V250 CAVOK 19/11 Q1009 NOSIG=
201012200030 METAR LMML NIL=
201012200015 METAR LMML 200015Z 20008KT 170V250 CAVOK 19/12 Q1009 NOSIG=
201012200000 METAR LMML NIL=
201012192345 METAR LMML 192345Z 21007KT 180V270 CAVOK 18/13 Q1009 NOSIG=
201012192330 METAR LMML NIL=
201012192315 METAR LMML 192315Z 21007KT 170V260 CAVOK 18/13 Q1009 NOSIG=
201012192245 METAR LMML 192245Z 21006KT 180V240 CAVOK 18/13 Q1010 NOSIG=
201012192215 METAR LMML 192215Z 21006KT 180V250 CAVOK 18/13 Q1010 NOSIG=
201012192200 METAR LMML NIL=
201012192145 METAR LMML 192145Z 22006KT 190V270 CAVOK 18/13 Q1010 NOSIG=
201012192130 METAR LMML NIL=
201012192115 METAR LMML 192115Z 20007KT 170V250 CAVOK 18/13 Q1010 NOSIG=
201012192045 METAR LMML 192045Z 18007KT 160V230 CAVOK 18/13 Q1010 NOSIG=
201012192030 METAR LMML NIL=
201012192015 METAR LMML 192015Z 19011KT 170V230 CAVOK 18/12 Q1010 NOSIG=
201012192000 METAR LMML NIL=
201012191945 METAR LMML 191945Z 19008KT CAVOK 17/12 Q1010 NOSIG=
201012191930 METAR LMML NIL=
201012191915 METAR LMML 191915Z 19008KT 170V230 CAVOK 17/13 Q1010 NOSIG=
201012191900 METAR LMML NIL=
201012191845 METAR LMML 191845Z 19007KT 160V230 CAVOK 17/13 Q1010 NOSIG=
201012191830 METAR LMML NIL=
201012191815 METAR LMML 191815Z 19008KT 160V230 CAVOK 17/13 Q1010 NOSIG=
201012191800 METAR LMML NIL=
201012191745 METAR LMML 191745Z 19007KT 170V260 CAVOK 17/13 Q1010 NOSIG=
201012191730 METAR LMML NIL=
201012191715 METAR LMML 191715Z 20008KT 160V240 CAVOK 17/13 Q1009 NOSIG=
201012191645 METAR LMML 191645Z 20008KT 170V260 CAVOK 17/12 Q1009 NOSIG=
201012191630 METAR LMML NIL=
201012191615 METAR LMML 191615Z 21009KT 170V250 CAVOK 17/12 Q1009 NOSIG=
201012191600 METAR LMML NIL=
201012191545 METAR LMML 191545Z 21009KT 180V240 CAVOK 17/12 Q1009 NOSIG=
201012191530 METAR LMML NIL=
201012191515 METAR LMML 191515Z 22010KT 190V260 CAVOK 18/12 Q1009 NOSIG=
201012191500 METAR LMML NIL=
201012191445 METAR LMML 191445Z 22012KT 180V260 CAVOK 18/12 Q1009 NOSIG=
201012191430 METAR LMML NIL=
201012191415 METAR LMML 191415Z 22010KT 190V260 CAVOK 18/12 Q1009 NOSIG=
201012191400 METAR LMML NIL=
201012191345 METAR LMML 191345Z 22011KT 200V260 CAVOK 18/13 Q1009 NOSIG=
201012191330 METAR LMML NIL=
201012191315 METAR LMML 191315Z 23012KT 200V280 CAVOK 18/13 Q1009 NOSIG=
201012191300 METAR LMML NIL=
201012191245 METAR LMML 191245Z 22013KT 200V260 CAVOK 18/13 Q1009 NOSIG=
201012191230 METAR LMML NIL=
201012191215 METAR LMML 191215Z 22013KT 190V250 CAVOK 19/13 Q1009 NOSIG=
201012191200 METAR LMML NIL=
201012191145 METAR LMML 191145Z 21008KT 170V240 CAVOK 20/13 Q1009 NOSIG=
201012191130 METAR LMML NIL=
201012191115 METAR LMML 191115Z 20009KT 170V260 CAVOK 20/14 Q1010 NOSIG=
201012191100 METAR LMML NIL=
201012191045 METAR LMML 191045Z 19010KT CAVOK 19/13 Q1010 NOSIG=
201012191030 METAR LMML NIL=
201012191015 METAR LMML 191015Z 19010KT 160V230 CAVOK 19/13 Q1010 NOSIG=
201012191000 METAR LMML NIL=
201012190945 METAR LMML 190945Z 18010KT 150V210 CAVOK 19/13 Q1011 NOSIG=
201012190930 METAR LMML NIL=
201012190915 METAR LMML 190915Z 18009KT 140V220 CAVOK 19/12 Q1011 NOSIG=
201012190900 METAR LMML NIL=
201012190845 METAR LMML 190845Z 18008KT 160V230 CAVOK 18/12 Q1011 NOSIG=
201012190830 METAR LMML NIL=
201012190815 METAR LMML 190815Z 18007KT 150V220 CAVOK 18/12 Q1011 NOSIG=
201012190800 METAR LMML NIL=
201012190745 METAR LMML 190745Z 18007KT 150V210 CAVOK 17/14 Q1010 NOSIG=
201012190730 METAR LMML NIL=
201012190715 METAR LMML 190715Z 17007KT CAVOK 16/13 Q1010 NOSIG=
201012190700 METAR LMML NIL=
201012190645 METAR LMML 190645Z 16007KT CAVOK 15/12 Q1010 NOSIG=
201012190630 METAR LMML NIL=
201012190615 METAR LMML 190615Z 17007KT 130V210 CAVOK 15/12 Q1011 NOSIG=
201012190600 METAR LMML NIL=
201012190545 METAR LMML 190545Z 16006KT CAVOK 14/11 Q1011 NOSIG=
201012190530 METAR LMML NIL=
201012190515 METAR LMML 190515Z 17005KT 140V200 CAVOK 14/10 Q1011 NOSIG=
201012190500 METAR LMML NIL=
201012190445 METAR LMML 190445Z 18004KT CAVOK 14/09 Q1011 NOSIG=
201012190430 METAR LMML NIL=
201012190415 METAR LMML 190415Z 17004KT CAVOK 13/09 Q1011 NOSIG=
201012190400 METAR LMML NIL=
201012190345 METAR LMML 190345Z 17003KT CAVOK 12/08 Q1011 NOSIG=
201012190330 METAR LMML NIL=
201012190315 METAR LMML 190315Z VRB02KT CAVOK 12/08 Q1011 NOSIG=
201012190300 METAR LMML NIL=
201012190245 METAR LMML 190245Z VRB01KT CAVOK 12/07 Q1011 NOSIG=
201012190230 METAR LMML NIL=
201012190215 METAR LMML 190215Z VRB02KT CAVOK 12/07 Q1012 NOSIG=
201012190200 METAR LMML NIL=
201012190145 METAR LMML 190145Z VRB02KT CAVOK 13/07 Q1012 NOSIG=
201012190130 METAR LMML NIL=
201012190115 METAR LMML 190115Z 26003KT CAVOK 13/07 Q1012 NOSIG=
201012190100 METAR LMML NIL=
201012190045 METAR LMML 190045Z 25004KT CAVOK 13/08 Q1012 NOSIG=
201012190030 METAR LMML NIL=
201012190015 METAR LMML 190015Z 23005KT CAVOK 13/09 Q1012 NOSIG=
201012190000 METAR LMML NIL=
201012182345 METAR LMML 182345Z 25004KT 210V280 CAVOK 13/08 Q1012 NOSIG=
201012182330 METAR LMML NIL=
201012182315 METAR LMML 182315Z 23009KT 200V260 CAVOK 14/08 Q1012 NOSIG=
201012182300 METAR LMML NIL=
201012182245 METAR LMML 182245Z 23008KT 200V260 CAVOK 14/09 Q1012 NOSIG=
201012182230 METAR LMML NIL=
201012182215 METAR LMML 182215Z 23007KT 210V270 CAVOK 13/09 Q1012 NOSIG=
201012182200 METAR LMML NIL=
201012182145 METAR LMML 182145Z 24007KT 210V270 CAVOK 13/09 Q1012 NOSIG=
201012182130 METAR LMML NIL=
201012182115 METAR LMML 182115Z 23008KT CAVOK 13/09 Q1012 NOSIG=
201012182100 METAR LMML NIL=
201012182045 METAR LMML 182045Z 23008KT CAVOK 13/09 Q1012 NOSIG=
201012182030 METAR LMML NIL=
201012182015 METAR LMML 182015Z 24008KT 210V270 CAVOK 13/09 Q1012 NOSIG=
201012182000 METAR LMML NIL=
201012181945 METAR LMML 181945Z 23009KT 210V270 CAVOK 13/09 Q1011 NOSIG=
201012181930 METAR LMML NIL=
201012181915 METAR LMML 181915Z 24008KT 190V260 CAVOK 13/08 Q1011 NOSIG=
201012181900 METAR LMML NIL=
201012181845 METAR LMML 181845Z 23008KT 200V260 CAVOK 13/08 Q1011 NOSIG=
201012181830 METAR LMML NIL=
201012181815 METAR LMML 181815Z 23007KT 210V280 CAVOK 13/08 Q1011 NOSIG=
201012181800 METAR LMML NIL=
201012181745 METAR LMML 181745Z 24007KT 200V280 CAVOK 13/08 Q1011 NOSIG=
201012181730 METAR LMML NIL=
201012181715 METAR LMML 181715Z 23007KT 200V260 CAVOK 13/08 Q1010 NOSIG=
201012181700 METAR LMML NIL=
201012181645 METAR LMML 181645Z 23005KT 200V280 CAVOK 12/08 Q1010 NOSIG=
201012181630 METAR LMML NIL=
201012181615 METAR LMML 181615Z 22005KT 190V280 CAVOK 12/07 Q1010 NOSIG=
201012181600 METAR LMML NIL=
201012181545 METAR LMML 181545Z 24005KT 190V290 CAVOK 13/07 Q1010 NOSIG=
201012181515 METAR LMML 181515Z 25006KT 200V290 9999 FEW035 13/07 Q1010
                        NOSIG=
201012181500 METAR LMML NIL=
201012181445 METAR LMML 181445Z 23006KT 180V300 CAVOK 14/07 Q1009 NOSIG=
201012181430 METAR LMML NIL=
201012181415 METAR LMML 181415Z 22007KT 170V300 CAVOK 14/07 Q1009 NOSIG=
201012181400 METAR LMML NIL=
201012181345 METAR LMML 181345Z 22008KT 180V280 9999 FEW031 14/07 Q1009
                        NOSIG=
201012181330 METAR LMML NIL=
201012181315 METAR LMML 181315Z 24009KT 180V290 9999 FEW035 14/07 Q1009
                        NOSIG=
201012181300 METAR LMML NIL=
201012181245 METAR LMML 181245Z 24010KT 180V320 9999 FEW035 14/06 Q1009
                        NOSIG=
201012181230 METAR LMML NIL=
201012181215 METAR LMML 181215Z 24011G21KT 180V290 9999 FEW035 14/06 Q1009
                        NOSIG=
201012181200 METAR LMML NIL=
201012181145 METAR LMML 181145Z 24013G23KT 190V290 9999 FEW036 14/06 Q1009
                        NOSIG=
201012181115 METAR LMML 181115Z 24013KT 200V290 9999 SCT037 14/05 Q1010
                        NOSIG=
201012181100 METAR LMML NIL=
201012181045 METAR LMML 181045Z 23012KT 200V280 9999 SCT037 14/05 Q1010
                        NOSIG=
201012181030 METAR LMML NIL=
201012181015 METAR LMML 181015Z 24013KT 190V290 9999 SCT039 14/06 Q1010
                        NOSIG=
201012181000 METAR LMML NIL=
201012180945 METAR LMML 180945Z 23013KT 200V290 9999 SCT037 SCT250 14/05
                        Q1010 NOSIG=
201012180930 METAR LMML NIL=
201012180915 METAR LMML 180915Z 23012KT 190V280 9999 SCT038 SCT250 13/06
                        Q1010 NOSIG=
201012180900 METAR LMML NIL=
201012180845 METAR LMML 180845Z 22015KT 180V270 9999 BKN038 SCT120 13/05
                        Q1010 NOSIG=
201012180830 METAR LMML NIL=
201012180815 METAR LMML 180815Z 23014KT 200V280 9999 BKN036 BKN120 12/05
                        Q1010 NOSIG=
201012180800 METAR LMML NIL=
201012180745 METAR LMML 180745Z 23014KT 190V270 9999 BKN036 BKN120 12/05
                        Q1010 NOSIG=
201012180730 METAR LMML NIL=
201012180715 METAR LMML 180715Z 23013KT 180V280 9999 BKN035 12/06 Q1009
                        NOSIG=
201012180645 METAR COR LMML 180645Z 22015KT 190V260 9999 BKN035 12/05
                        Q1009 NOSIG=
201012180630 METAR LMML NIL=
201012180615 METAR LMML 180615Z 22014G24KT 190V270 9999 BKN036 12/05 Q1009
                        NOSIG=
201012180600 METAR LMML NIL=
201012180545 METAR LMML 180545Z 23017KT 200V270 9999 SCT035 SCT041 12/05
                        Q1009 NOSIG=
201012180530 METAR LMML NIL=
201012180515 METAR LMML 180515Z 22016G26KT 190V290 9999 SCT034 BKN042
                        11/04 Q1009 NOSIG=
201012180445 METAR LMML 180445Z 23017G27KT 190V280 9999 BKN037 11/04 Q1009
                        NOSIG=
201012180430 METAR LMML NIL=
201012180415 METAR LMML 180415Z 23018KT 200V290 9999 BKN039 11/04 Q1009
                        NOSIG=
201012180345 METAR LMML 180345Z 22018KT 180V280 9999 BKN040 12/04 Q1008
                        NOSIG=
201012180315 METAR LMML 180315Z 22019G29KT 180V260 9999 BKN041 12/03 Q1008
                        NOSIG=
201012180300 METAR LMML NIL=
201012180245 METAR LMML 180245Z 22018KT 190V270 9999 SCT041 12/03 Q1009
                        NOSIG=
201012180230 METAR LMML NIL=
201012180215 METAR LMML 180215Z 22017G28KT 180V260 9999 SCT042 12/04 Q1009
                        NOSIG=
201012180200 METAR LMML NIL=
201012180145 METAR LMML 180145Z 22018KT 180V260 9999 SCT042 12/03 Q1009
                        NOSIG=
201012180130 METAR LMML NIL=
201012180115 METAR LMML 180115Z 22020KT 190V260 9999 SCT043 12/03 Q1009
                        NOSIG=
201012180100 METAR LMML NIL=
201012180045 METAR LMML 180045Z 22019G29KT 190V270 9999 SCT042 12/03 Q1010
                        NOSIG=
201012180030 METAR LMML NIL=
201012180015 METAR LMML 180015Z 22018KT 190V260 9999 BKN043 12/03 Q1009
                        NOSIG=
201012180000 METAR LMML NIL=
201012172345 METAR LMML 172345Z 22017KT 190V250 9999 SCT041 12/04 Q1010
                        NOSIG=
201012172330 METAR LMML NIL=
201012172315 METAR LMML 172315Z 22016G27KT 190V280 9999 SCT042 12/02 Q1010
                        NOSIG=
201012172245 METAR LMML 172245Z 23015KT 190V270 9999 FEW035 BKN050 12/04
                        Q1011 NOSIG=
201012172230 METAR LMML NIL=
201012172215 METAR LMML 172215Z 22014KT 190V260 9999 FEW035 BKN050 12/04
                        Q1011 NOSIG=
201012172200 METAR LMML NIL=
201012172145 METAR LMML 172145Z 23013G23KT 190V270 9999 FEW039 BKN050
                        12/03 Q1011 NOSIG=
201012172130 METAR LMML NIL=
201012172115 METAR LMML 172115Z 22010KT 180V260 9999 FEW036 BKN050 11/05
                        Q1011 NOSIG=
201012172100 METAR LMML NIL=
201012172045 METAR LMML 172045Z 23012KT 190V270 9999 SCT034 SCT046 11/03
                        Q1011 NOSIG=
201012172030 METAR LMML NIL=
201012172015 METAR LMML 172015Z 23010KT 200V270 9999 SCT036 SCT046 11/04
                        Q1012 NOSIG=
201012172000 METAR LMML NIL=
201012171945 METAR LMML 171945Z 23011KT 200V270 9999 SCT036 SCT050 11/04
                        Q1011 NOSIG=
201012171930 METAR LMML NIL=
201012171915 METAR LMML 171915Z 23010KT 200V260 9999 SCT034 SCT050 11/04
                        Q1012 NOSIG=
201012171900 METAR LMML NIL=
201012171845 METAR LMML 171845Z 23009KT 200V270 9999 FEW035 BKN050 11/05
                        Q1012 NOSIG=
201012171830 METAR LMML NIL=
201012171815 METAR LMML 171815Z 24007KT 200V280 9999 FEW035 BKN050 11/04
                        Q1012 NOSIG=
201012171800 METAR LMML NIL=
201012171745 METAR LMML 171745Z 25008KT 200V280 9999 FEW037 BKN050 11/04
                        Q1012 NOSIG=
201012171730 METAR LMML NIL=
201012171715 METAR LMML 171715Z 25008KT 210V280 9999 FEW036 BKN050 11/04
                        Q1012 NOSIG=
201012171700 METAR LMML NIL=
201012171645 METAR LMML 171645Z 27006KT 240V300 9999 FEW039 BKN050 11/04
                        Q1012 NOSIG=
201012171630 METAR LMML NIL=
201012171615 METAR LMML 171615Z 29005KT 270V330 9999 FEW040 BKN050 10/03
                        Q1012 NOSIG=
201012171600 METAR LMML NIL=
201012171545 METAR LMML 171545Z 29006KT 9999 FEW043 BKN050 10/04 Q1012
                        NOSIG=
201012171530 METAR LMML NIL=
201012171515 METAR LMML 171515Z 29008KT 9999 SCT041 10/04 Q1012 NOSIG=
201012171500 METAR LMML NIL=
201012171445 METAR LMML 171445Z 29008KT 9999 SCT043 10/03 Q1011 NOSIG=
201012171430 METAR LMML NIL=
201012171415 METAR LMML 171415Z 30011KT 270V330 9999 SCT040 11/02 Q1011
                        NOSIG=
201012171400 METAR LMML NIL=
201012171345 METAR LMML 171345Z 30011KT 270V340 9999 SCT040 SCT050 11/03
                        Q1011 NOSIG=
201012171330 METAR LMML NIL=
201012171315 METAR LMML 171315Z 30013KT 260V330 9999 -RA SCT040 BKN060
                        11/03 Q1011 NOSIG=
201012171300 METAR LMML NIL=
201012171245 METAR LMML 171245Z 31014KT 9999 SCT040 SCT060 10/03 Q1011
                        NOSIG=
201012171230 METAR LMML NIL=
201012171215 METAR LMML 171215Z 31014KT 9999 SCT040 12/03 Q1011 NOSIG=
201012171200 METAR LMML NIL=
201012171145 METAR LMML 171145Z 32012KT 9999 SCT036 10/02 Q1011 NOSIG=
201012171130 METAR LMML NIL=
201012171115 METAR LMML 171115Z 31016KT 9999 SCT043 11/02 Q1012 NOSIG=
201012171045 METAR LMML 171045Z 32017KT 9999 SCT035 11/01 Q1012 NOSIG=
201012171030 METAR LMML NIL=
201012171015 METAR LMML 171015Z 31017KT 9999 SCT035 10/01 Q1012 NOSIG=
201012171000 METAR LMML NIL=
201012170945 METAR LMML 170945Z 31013KT 9999 SCT036 10/03 Q1012 NOSIG=
201012170930 METAR LMML NIL=
201012170915 METAR LMML 170915Z 33017KT 9999 SCT037 09/03 Q1012 NOSIG=
201012170900 METAR LMML NIL=
201012170845 METAR LMML 170845Z 31016KT 9999 SCT037 09/01 Q1012 NOSIG=
201012170830 METAR LMML NIL=
201012170815 METAR LMML 170815Z 31016KT 9999 SCT037 09/01 Q1011 NOSIG=
201012170800 METAR LMML NIL=
201012170745 METAR LMML 170745Z 32017KT 9999 SCT037 08/01 Q1011 NOSIG=
201012170715 METAR LMML 170715Z 31015KT 9999 SCT030 SCT060 08/02 Q1010
                        NOSIG=
201012170700 METAR LMML NIL=
201012170645 METAR LMML 170645Z 31013KT 9999 SCT030 SCT070 07/02 Q1009
                        NOSIG=
201012170615 METAR LMML 170615Z 31010KT 9999 SCT025 06/02 Q1009 NOSIG=
201012170545 METAR LMML 170545Z 31010KT 9999 SCT025 06/03 Q1009 NOSIG=
201012170530 METAR LMML NIL=
201012170515 METAR LMML 170515Z 30011KT 9999 FEW024 SCT060 07/03 Q1008
                        TEMPO 5000 TSGR BKN015CB=
201012170500 METAR LMML NIL=
201012170445 METAR LMML 170445Z 30011KT 9999 FEW024 06/04 Q1008 TEMPO
                        5000 TSGR BKN015CB=
201012170430 METAR LMML NIL=
201012170415 METAR LMML 170415Z 31011KT 9999 FEW024 06/03 Q1008 TEMPO
                        5000 TSGR BKN015CB=
201012170400 METAR LMML NIL=
201012170345 METAR LMML 170345Z 31017KT 9999 FEW024 06/03 Q1007 TEMPO
                        5000 TSGR BKN015CB=
201012170330 METAR LMML NIL=
201012170315 METAR LMML 170315Z 32016KT 9999 FEW025 07/04 Q1008 TEMPO
                        5000 TSGR BKN015CB=
201012170300 METAR LMML NIL=
201012170245 METAR LMML 170245Z 31003KT 9999 FEW034 SCT060 05/04 Q1007
                        TEMPO 5000 TSGR BKN015CB=
201012170230 METAR LMML NIL=
201012170215 METAR LMML 170215Z 31010KT 270V340 9999 FEW024TCU BKN040
                        05/04 Q1008 TEMPO 5000 TSGR BKN015CB=
201012170200 METAR LMML NIL=
201012170145 METAR LMML 170145Z 29012KT 260V330 5000 -RA FEW017CB BKN025
                        06/04 Q1008 RETS TEMPO 5000 TSGR
                        BKN015CB=
201012170130 METAR LMML NIL=
201012170115 METAR LMML 170115Z 29016KT 250V320 4000 -TSRA BKN024CB 06/03
                        Q1008 TEMPO 5000 TSGR BKN015CB=
201012170107 SPECI LMML 170107Z 28016KT 240V320 5000 -TSRA SCT025CB BKN036
                        06/03 Q1008 TEMPO 5000 TSGR BKN015CB=
201012170101 SPECI LMML 170101Z 27013KT 240V310 5000 -RA FEW026 BKN042
                        06/03 Q1008 RETS TEMPO 5000 TSGR
                        BKN015CB=
201012170100 METAR LMML NIL=
201012170045 METAR LMML 170045Z 27007KT 230V310 9999 -RA FEW027 BKN050
                        07/04 Q1007 RETS TEMPO 5000 TSGR
                        BKN015CB RMK LIGHTNING TO SW=
201012170015 METAR LMML 170015Z 26005KT 230V290 9999 -RA FEW027 BKN100
                        06/04 Q1007 RETS TEMPO 5000 TSGR
                        BKN015CB=
201012170000 METAR LMML NIL=
201012162345 METAR LMML 162345Z 30010KT 270V330 7000 -TSRA OVC026CB 06/04
                        Q1007 TEMPO 5000 TSGR BKN015CB=
201012162336 SPECI LMML 162336Z 29012KT 260V320 5000 -TSRA FEW026CB BKN040
                        06/04 Q1007 TEMPO 5000 TSGR BKN015CB=
201012162330 METAR LMML NIL=
201012162315 METAR LMML 162315Z 27010KT 230V300 9999 -RA FEW014 OVC027
                        05/04 Q1007 TEMPO 8000 TSRA BKN015CB=
201012162300 METAR LMML NIL=
201012162245 METAR LMML 162245Z 29014KT 260V320 4000 RA FEW017 BKN034
                        06/04 Q1008 TEMPO 8000 TSRA BKN015CB=
201012162230 METAR LMML NIL=
201012162215 METAR LMML 162215Z 31007KT 9999 FEW033 BKN090 07/04 Q1007
                        TEMPO 8000 TSRA BKN015CB=
201012162200 METAR LMML NIL=
201012162145 METAR LMML 162145Z 29013KT 9999 -RA FEW025 BKN120 07/03 Q1007
                        TEMPO 8000 TSRA BKN015CB RMK LIGHTNING
                        TO SW=
201012162130 METAR LMML NIL=
201012162115 METAR LMML 162115Z 30008KT 9999 FEW019 BKN100 06/04 Q1007
                        TEMPO 8000 TSRA BKN015CB RMK LIGHTNING
                        TO S=
201012162045 METAR LMML 162045Z 29005KT 9999 -RA FEW031 BKN080 06/05 Q1008
                        TEMPO 8000 TSRA BKN015CB=
201012162030 METAR LMML NIL=
201012162015 METAR LMML 162015Z 32007KT 9999 FEW025 SCT050 06/05 Q1008
                        TEMPO 8000 TSRA BKN015CB=
201012162000 METAR LMML NIL=
201012161945 METAR LMML 161945Z 32012KT 9999 FEW022 BKN080 06/04 Q1008
                        TEMPO 8000 TSRA BKN015CB=
201012161930 METAR LMML NIL=
201012161915 METAR LMML 161915Z 30012KT 260V330 9999 FEW018 SCT041 07/05
                        Q1008 TEMPO 8000 TSRA BKN015CB RMK
                        LIGHTNING TO NE=
201012161900 METAR LMML NIL=
201012161845 METAR LMML 161845Z 24006KT 210V280 4000 RA SCT034 BKN040
                        07/05 Q1008 TEMPO 8000 TSRA BKN015CB
                        RMK LIGHTNING TO NW=
201012161830 METAR LMML NIL=
201012161815 METAR LMML 161815Z 29010KT 240V330 9999 -RA FEW033 BKN060
                        07/04 Q1008 TEMPO 8000 SHRA=
201012161745 METAR LMML 161745Z 29009KT 250V320 9999 SCT030TCU SCT070
                        BKN090 07/03 Q1007 TEMPO 8000 SHRA=
201012161730 METAR LMML NIL=
201012161715 METAR LMML 161715Z 30013KT 9000 -SHRA FEW017TCU SCT030TCU
                        08/03 Q1008 NOSIG=
201012161700 METAR LMML NIL=
201012161645 METAR LMML 161645Z 32012KT 9999 SCT040 08/03 Q1007 NOSIG=
201012161630 METAR LMML NIL=
201012161615 METAR LMML 161615Z 31012KT 9999 SCT041 09/01 Q1007 NOSIG=
201012161600 METAR LMML NIL=
201012161545 METAR LMML 161545Z 30012KT 9999 SCT040 09/00 Q1007 NOSIG=
201012161530 METAR LMML NIL=
201012161515 METAR LMML 161515Z 30013KT 9999 SCT037 10/02 Q1007 NOSIG=
201012161500 METAR LMML NIL=
201012161445 METAR LMML 161445Z 31013KT 9999 SCT035 10/03 Q1007 NOSIG=
201012161430 METAR LMML NIL=
201012161415 METAR LMML 161415Z 29016KT 9999 SCT037 10/02 Q1007 NOSIG=
201012161345 METAR LMML 161345Z 31015KT 9999 SCT034 11/03 Q1006 NOSIG=
201012161330 METAR LMML NIL=
201012161315 METAR LMML 161315Z 30017KT 270V330 9999 SCT026 11/03 Q1006
                        NOSIG RMK CB TOP TO SOUTHEAST=
201012161300 METAR LMML NIL=
201012161245 METAR LMML 161245Z 30017KT 9999 SCT026 10/04 Q1006 NOSIG
                        RMK CB TOP TO EAST=
201012161230 METAR LMML NIL=
201012161215 METAR LMML 161215Z 31020G30KT 280V340 9999 SCT035 11/04 Q1006
                        NOSIG=
201012161200 METAR LMML NIL=
201012161145 METAR LMML 161145Z 31012KT 270V350 9999 BKN028TCU 11/05 Q1006
                        NOSIG=
201012161135 SPECI LMML 161135Z 33010KT 300V360 9999 BKN029TCU 10/06 Q1006
                        NOSIG=
201012161115 METAR LMML 161115Z 32014KT 9999 BKN038TCU 11/03 Q1006 TEMPO
                        9000 SHRA=
201012161100 METAR LMML NIL=
201012161045 METAR LMML 161045Z 32014KT 280V350 9999 BKN039 12/02 Q1006
                        TEMPO 9000 SHRA=
201012161015 METAR LMML 161015Z 33013KT 300V360 9999 SCT035 12/04 Q1006
                        NOSIG=
201012161000 METAR LMML NIL=
201012160945 METAR LMML 160945Z 32016KT 290V360 9999 SCT031 12/04 Q1006
                        NOSIG=
201012160930 METAR LMML NIL=
201012160915 METAR LMML 160915Z 33015KT 9999 SCT030 11/05 Q1006 NOSIG=
201012160900 METAR LMML NIL=
201012160845 METAR LMML 160845Z 33015KT 9999 SCT028 10/04 Q1006 NOSIG=
201012160830 METAR LMML NIL=
201012160815 METAR LMML 160815Z 33016KT 310V010 9999 SCT028 SCT250 10/04
                        Q1006 NOSIG=
201012160800 METAR LMML NIL=
201012160745 METAR LMML 160745Z 33017KT 9999 SCT028 SCT250 10/04 Q1005
                        NOSIG=
201012160730 METAR LMML NIL=
201012160715 METAR LMML 160715Z 32016KT 9999 SCT026 BKN250 09/05 Q1005
                        NOSIG=
201012160700 METAR LMML NIL=
201012160645 METAR LMML 160645Z 32015KT 9999 SCT025 SCT120 09/04 Q1004
                        NOSIG=
201012160630 METAR LMML NIL=
201012160615 METAR LMML 160615Z 33014KT 9999 FEW025 BKN120 09/05 Q1004
                        NOSIG=
201012160600 METAR LMML NIL=
201012160545 METAR LMML 160545Z 32015KT 9999 FEW028 BKN120 09/04 Q1004
                        NOSIG=
201012160515 METAR LMML 160515Z 32013KT 9999 FEW030 BKN120 09/04 Q1003
                        NOSIG=
201012160500 METAR LMML NIL=
201012160445 METAR LMML 160445Z 31015KT 9999 FEW029 BKN120 09/04 Q1003
                        NOSIG=
201012160430 METAR LMML NIL=
201012160415 METAR LMML 160415Z 31015KT 9999 FEW026 BKN120 09/04 Q1003
                        NOSIG=
201012160400 METAR LMML NIL=
201012160345 METAR LMML 160345Z 31014KT 9999 FEW028 BKN120 09/05 Q1003
                        NOSIG=
201012160330 METAR LMML NIL=
201012160315 METAR LMML 160315Z 31013KT 9999 FEW027 BKN120 09/05 Q1003
                        NOSIG=
201012160300 METAR LMML NIL=
201012160245 METAR LMML 160245Z 30008KT 9999 FEW030 BKN120 09/05 Q1003
                        NOSIG=
201012160230 METAR LMML NIL=
201012160215 METAR LMML 160215Z 31013KT 9999 FEW030 BKN120 10/05 Q1004
                        NOSIG=
201012160200 METAR LMML NIL=
201012160145 METAR LMML 160145Z 29010KT 260V320 9999 SCT029 BKN120 10/05
                        Q1004 NOSIG=
201012160130 METAR LMML NIL=
201012160115 METAR LMML 160115Z 29012KT 9999 SCT028 BKN120 10/05 Q1004
                        NOSIG=
201012160100 METAR LMML NIL=
201012160045 METAR LMML 160045Z 29012KT 9999 SCT030 BKN120 10/05 Q1004
                        NOSIG=
201012160015 METAR LMML 160015Z 28013KT 250V310 9999 FEW030 BKN110 10/05
                        Q1004 NOSIG=
201012152345 METAR LMML 152345Z 28011KT 230V310 9999 SCT027 SCT050 10/06
                        Q1005 RESHRA NOSIG=
201012152330 METAR LMML NIL=
201012152315 METAR LMML 152315Z 25011G21KT 220V290 9999 FEW033 SCT050
                        10/05 Q1005 NOSIG=
201012152300 METAR LMML NIL=
201012152245 METAR LMML 152245Z 27013KT 220V300 9999 SCT037 SCT060 11/03
                        Q1006 NOSIG=
201012152230 METAR LMML NIL=
201012152215 METAR LMML 152215Z 27010KT 230V300 9999 SCT034 SCT060 11/04
                        Q1007 NOSIG=
201012152200 METAR LMML NIL=
201012152145 METAR LMML 152145Z 27009KT 240V300 9999 FEW040 SCT060 10/03
                        Q1007 NOSIG=
201012152115 METAR LMML 152115Z 28008KT 240V300 9999 SCT038 11/05 Q1007
                        NOSIG=
201012152100 METAR LMML NIL=
201012152045 METAR LMML 152045Z 28006KT 240V310 9999 SCT040 10/04 Q1007
                        NOSIG=
201012152030 METAR LMML NIL=
201012152015 METAR LMML 152015Z 26004KT 210V310 9999 FEW033 09/05 Q1007
                        NOSIG=
201012152000 METAR LMML NIL=
201012151945 METAR LMML 151945Z 27005KT 240V300 9999 -SHRA BKN042 10/04
                        Q1008 NOSIG=
201012151930 METAR LMML NIL=
201012151915 METAR LMML 151915Z 29005KT 260V320 9999 FEW042 09/04 Q1008
                        NOSIG=
201012151900 METAR LMML NIL=
201012151845 METAR LMML 151845Z 30004KT 9999 FEW036 09/05 Q1008 NOSIG=
201012151830 METAR LMML NIL=
201012151815 METAR LMML 151815Z 29005KT 9999 FEW036 09/04 Q1008 NOSIG=
201012151800 METAR LMML NIL=
201012151745 METAR LMML 151745Z 31005KT 9999 FEW045 FEW053 09/04 Q1008
                        NOSIG=
201012151730 METAR LMML NIL=
201012151715 METAR LMML 151715Z 32006KT 9999 FEW025 SCT120 09/04 Q1008
                        NOSIG=
201012151700 METAR LMML NIL=
201012151645 METAR LMML 151645Z 32007KT CAVOK 09/04 Q1008 NOSIG=
201012151630 METAR LMML NIL=
201012151615 METAR LMML 151615Z 32009KT 9999 FEW030 BKN100 10/05 Q1009
                        NOSIG=
201012151600 METAR LMML NIL=
201012151545 METAR LMML 151545Z 31008KT 9999 FEW030 BKN100 10/07 Q1008
                        NOSIG=
201012151530 METAR LMML NIL=
201012151515 METAR LMML 151515Z 32007KT 9999 FEW030 BKN100 10/07 Q1008
                        TEMPO SHRA=
201012151500 METAR LMML NIL=
201012151445 METAR COR LMML 151445Z 32006KT 9999 FEW030 BKN100 BKN120
                        10/07 Q1009 TEMPO SHRA=
201012151430 METAR LMML NIL=
201012151415 METAR LMML 151415Z 33009KT 9999 -SHRA SCT030 BKN110 11/07
                        Q1009 TEMPO SHRA=
201012151400 METAR LMML NIL=
201012151345 METAR LMML 151345Z 31009KT 290V350 9999 SCT031 BKN110 12/07
                        Q1009 TEMPO SHRA=
201012151330 METAR LMML NIL=
201012151315 METAR LMML 151315Z 31007KT 280V340 9999 FEW025 SCT110 12/07
                        Q1009 NOSIG=
201012151300 METAR LMML NIL=
201012151245 METAR LMML 151245Z 32008KT 9999 FEW025 BKN110 11/07 Q1009
                        TEMPO SHRA=
201012151230 METAR LMML NIL=
201012151215 METAR LMML 151215Z 32009KT 9999 FEW018 BKN120 11/08 Q1009
                        TEMPO SHRA=
201012151200 METAR LMML NIL=
201012151145 METAR LMML 151145Z 32009KT 280V340 9999 FEW017 BKN120 11/08
                        Q1010 TEMPO SHRA=
201012151130 METAR LMML NIL=
201012151115 METAR LMML 151115Z 32005KT 290V350 9999 FEW020 BKN110 11/09
                        Q1010 TEMPO SHRA=
201012151045 METAR LMML 151045Z 35004KT 320V020 9999 FEW020 BKN120 11/09
                        Q1011 TEMPO SHRA=
201012151030 METAR LMML NIL=
201012151015 METAR LMML 151015Z 35005KT 9999 FEW020 SCT120 11/09 Q1011
                        TEMPO SHRA=
201012151000 METAR LMML NIL=
201012150945 METAR LMML 150945Z 30015KT 270V330 6000 -RA SCT018 SCT043
                        BKN120 10/09 Q1012 TEMPO SHRA=
201012150930 METAR LMML NIL=
201012150915 METAR LMML 150915Z 26005KT 230V290 9999 FEW025 SCT046 BKN120
                        12/09 Q1012 TEMPO SHRA=
201012150900 METAR LMML NIL=
201012150845 METAR LMML 150845Z 24003KT 9999 -RA SCT025 BKN050 BKN120
                        12/08 Q1011 TEMPO SHRA=
201012150830 METAR LMML NIL=
201012150815 METAR LMML 150815Z 33005KT 9999 FEW022 SCT120 BKN250 13/09
                        Q1012 TEMPO SHRA=
201012150800 METAR LMML NIL=
201012150745 METAR LMML 150745Z 31004KT 290V360 9999 FEW022 SCT100 11/09
                        Q1011 TEMPO SHRA=
201012150730 METAR LMML NIL=
201012150715 METAR LMML 150715Z 35003KT 9999 FEW030 SCT110 10/08 Q1011
                        TEMPO SHRA=
201012150700 METAR LMML NIL=
201012150645 METAR LMML 150645Z 36004KT 9999 FEW030 SCT110 10/08 Q1011
                        TEMPO SHRA=
201012150630 METAR LMML NIL=
201012150615 METAR LMML 150615Z 36006KT 9999 FEW030 SCT120 10/08 Q1011
                        TEMPO SHRA=
201012150600 METAR LMML NIL=
201012150545 METAR LMML 150545Z 32009KT 280V340 9999 SCT035 SCT120 BKN250
                        10/08 Q1011 NOSIG=
201012150530 METAR LMML NIL=
201012150515 METAR LMML 150515Z 29007KT 260V320 9999 FEW035 SCT050 BKN120
                        10/08 Q1011 NOSIG=
201012150500 METAR LMML NIL=
201012150445 METAR LMML 150445Z 27006KT 250V310 9999 FEW036 SCT050 BKN120
                        10/09 Q1011 NOSIG RMK LIGHTNING TO
                        NE=
201012150430 METAR LMML NIL=
201012150415 METAR LMML 150415Z 25005KT 9999 -RA FEW034 SCT040 BKN120
                        10/08 Q1011 NOSIG=
201012150400 METAR LMML NIL=
201012150345 METAR LMML 150345Z 27004KT 240V300 9999 -RA FEW036 SCT050
                        BKN120 10/08 Q1011 NOSIG=
201012150330 METAR LMML NIL=
201012150315 METAR LMML 150315Z 28003KT 9999 FEW035 BKN120 10/08 Q1011
                        NOSIG=
201012150300 METAR LMML NIL=
201012150245 METAR LMML 150245Z 28003KT 9999 FEW040 BKN070 10/08 Q1011
                        NOSIG=
201012150230 METAR LMML NIL=
201012150215 METAR LMML 150215Z 28003KT 9999 FEW040 BKN120 10/09 Q1012
                        NOSIG=
201012150200 METAR LMML NIL=
201012150145 METAR LMML 150145Z 31004KT 9999 FEW040 BKN110 10/09 Q1012
                        NOSIG=
201012150130 METAR LMML NIL=
201012150115 METAR LMML 150115Z 32004KT 9999 FEW038 BKN070 10/09 Q1012
                        NOSIG=
201012150100 METAR LMML NIL=
201012150045 METAR LMML 150045Z 31006KT 9999 SCT040 BKN120 10/09 Q1012
                        NOSIG=
201012150030 METAR LMML NIL=
201012150015 METAR LMML 150015Z 32007KT 9999 SCT030 BKN060 10/09 Q1012
                        NOSIG=
201012150000 METAR LMML NIL=
201012142345 METAR LMML 142345Z 30008KT 9999 SCT030 BKN060 11/09 Q1012
                        NOSIG=
201012142330 METAR LMML NIL=
201012142315 METAR LMML 142315Z 29008KT 9999 SCT030 BKN060 11/08 Q1013
                        TEMPO 8000 RA BKN015=
201012142300 METAR LMML NIL=
201012142245 METAR LMML 142245Z VRB01KT 9999 SCT030 BKN060 10/09 Q1013
                        RERA TEMPO 8000 RA BKN015=
201012142230 METAR LMML NIL=
201012142215 METAR LMML 142215Z VRB02KT 9999 SCT018 BKN060 10/09 Q1013
                        RERA TEMPO 8000 RA BKN015=
201012142200 METAR LMML NIL=
201012142145 METAR LMML 142145Z 27004KT 130V040 9999 RA SCT022 BKN090
                        10/09 Q1013 NOSIG=
201012142130 METAR LMML NIL=
201012142115 METAR LMML 142115Z VRB01KT 9999 FEW033 BKN120 10/09 Q1013
                        NOSIG=
201012142100 METAR LMML NIL=
201012142045 METAR LMML 142045Z VRB01KT CAVOK 10/09 Q1013 TEMPO 8000 RA
                        FEW025=
201012142030 METAR LMML NIL=
201012142015 METAR LMML 142015Z 24003KT 9999 -RA FEW035 SCT050 SCT070
                        10/09 Q1014 NOSIG=
201012142000 METAR LMML NIL=
201012141945 METAR LMML 141945Z VRB02KT 9999 FEW034 SCT050 BKN070 10/09
                        Q1014 RERA NOSIG=
201012141930 METAR LMML NIL=
201012141915 METAR LMML 141915Z 31003KT 9999 -RA FEW034 BKN050 10/09 Q1014
                        RERA NOSIG=
201012141900 METAR LMML NIL=
201012141845 METAR LMML 141845Z 29008KT 9999 RA FEW023 BKN070 11/08 Q1014
                        NOSIG=
201012141830 METAR LMML NIL=
201012141815 METAR LMML 141815Z VRB02KT CAVOK 11/07 Q1013 TEMPO 9000 -RA=
201012141800 METAR LMML NIL=
201012141745 METAR LMML 141745Z 27003KT CAVOK 11/07 Q1013 NOSIG=
201012141730 METAR LMML NIL=
201012141715 METAR LMML 141715Z 26003KT 9999 FEW035 BKN075 11/07 Q1013
                        NOSIG=
201012141700 METAR LMML NIL=
201012141645 METAR LMML 141645Z 30003KT 9999 FEW035 SCT075 11/07 Q1013
                        NOSIG=
201012141630 METAR LMML NIL=
201012141615 METAR LMML 141615Z VRB02KT 9999 FEW036 BKN047 11/07 Q1013
                        NOSIG=
201012141600 METAR LMML NIL=
201012141545 METAR LMML 141545Z 30005KT 9999 FEW025 SCT048 BKN070 11/07
                        Q1013 NOSIG=
201012141530 METAR LMML NIL=
201012141515 METAR LMML 141515Z 32007KT 9999 FEW025 SCT038 BKN050 12/08
                        Q1013 NOSIG=
201012141500 METAR LMML NIL=
201012141445 METAR LMML 141445Z 31004KT 9999 -RA FEW031 BKN040 BKN060
                        13/06 Q1013 NOSIG=
201012141430 METAR LMML NIL=
201012141415 METAR LMML 141415Z 33006KT 9999 FEW030 BKN041 BKN060 13/05
                        Q1013 NOSIG=
201012141345 METAR LMML 141345Z 30007KT 270V330 9999 SCT030 BKN050 BKN070
                        13/05 Q1013 NOSIG=
201012141330 METAR LMML NIL=
201012141315 METAR LMML 141315Z 31007KT 270V340 9999 SCT044 BKN050 BKN070
                        14/05 Q1013 NOSIG=
201012141300 METAR LMML NIL=
201012141245 METAR LMML 141245Z 30009KT 260V330 9999 FEW047 BKN070 BKN250
                        14/05 Q1013 NOSIG=
201012141230 METAR LMML NIL=
201012141215 METAR LMML 141215Z 30010KT 9999 FEW045 SCT060 BKN250 14/04
                        Q1013 NOSIG=
201012141200 METAR LMML NIL=
201012141145 METAR LMML 141145Z 32010KT 280V350 9999 FEW047 SCT060 BKN250
                        14/04 Q1013 NOSIG=
201012141130 METAR LMML NIL=
201012141115 METAR LMML 141115Z 32009KT 290V350 9999 FEW047 SCT068 BKN250
                        14/03 Q1013 NOSIG=
201012141045 METAR LMML 141045Z 32009KT 290V010 9999 FEW047 SCT064 14/03
                        Q1013 NOSIG=
201012141030 METAR LMML NIL=
201012141015 METAR LMML 141015Z 33012KT 9999 FEW047 BKN063 14/03 Q1014
                        NOSIG=
201012141000 METAR LMML NIL=
201012140945 METAR LMML 140945Z 32010KT 9999 FEW040 SCT053 15/03 Q1014
                        NOSIG=
201012140915 METAR LMML 140915Z 32013KT 9999 FEW040 SCT250 14/02 Q1014
                        NOSIG=
201012140845 METAR LMML 140845Z 32012KT 9999 FEW035 14/02 Q1014 NOSIG=
201012140830 METAR LMML NIL=
201012140815 METAR LMML 140815Z 31010KT 9999 FEW035 13/04 Q1013 NOSIG=
201012140800 METAR LMML NIL=
201012140745 METAR LMML 140745Z 31008KT 9999 FEW035 12/04 Q1013 NOSIG=
201012140730 METAR LMML NIL=
201012140715 METAR LMML 140715Z 30008KT 9999 FEW040 11/03 Q1013 NOSIG=
201012140645 METAR LMML 140645Z 30008KT 9999 FEW040 SCT250 10/02 Q1012
                        NOSIG=
201012140615 METAR LMML 140615Z 29008KT 9999 FEW040 SCT250 10/02 Q1012
                        NOSIG=
201012140600 METAR LMML NIL=
201012140545 METAR LMML 140545Z 29008KT 9999 FEW041 BKN250 10/03 Q1012
                        NOSIG=
201012140530 METAR LMML NIL=
201012140515 METAR LMML 140515Z 30008KT 9999 FEW041 BKN250 10/04 Q1011
                        NOSIG=
201012140445 METAR LMML 140445Z 30008KT 9999 FEW035 SCT250 10/04 Q1011
                        NOSIG=
201012140415 METAR LMML 140415Z 30009KT 9999 FEW035 SCT250 10/03 Q1011
                        NOSIG=
201012140400 METAR LMML NIL=
201012140345 METAR LMML 140345Z 30009KT 9999 FEW035 SCT250 10/03 Q1011
                        NOSIG=
201012140330 METAR LMML NIL=
201012140315 METAR LMML 140315Z 30009KT 9999 FEW035 SCT250 10/03 Q1011
                        NOSIG=
201012140245 METAR LMML 140245Z 30008KT 9999 FEW035 BKN250 10/04 Q1011
                        NOSIG=
201012140230 METAR LMML NIL=
201012140215 METAR LMML 140215Z 30007KT 9999 FEW035 SCT250 10/04 Q1011
                        NOSIG=
201012140200 METAR LMML NIL=
201012140145 METAR LMML 140145Z 30007KT 9999 FEW035 11/04 Q1011 NOSIG=
201012140130 METAR LMML NIL=
201012140115 METAR LMML 140115Z 30009KT 9999 FEW035 11/05 Q1010 NOSIG=
201012140045 METAR LMML 140045Z 30008KT 9999 FEW035 11/05 Q1010 NOSIG=
201012140030 METAR LMML NIL=
201012140015 METAR LMML 140015Z 30008KT 9999 FEW035 11/05 Q1010 NOSIG=
201012132345 METAR LMML 132345Z 30009KT 9999 FEW035 SCT250 11/05 Q1010
                        NOSIG=
201012132330 METAR LMML NIL=
201012132315 METAR LMML 132315Z 30009KT 9999 FEW035 SCT250 11/05 Q1010
                        NOSIG=
201012132245 METAR LMML 132245Z 29008KT 9999 FEW035 SCT250 12/05 Q1010
                        NOSIG=
201012132230 METAR LMML NIL=
201012132215 METAR LMML 132215Z 29008KT 260V320 9999 FEW035 SCT250 12/06
                        Q1010 NOSIG=
201012132200 METAR LMML NIL=
201012132145 METAR LMML 132145Z 29008KT 9999 FEW035 SCT250 12/06 Q1010
                        NOSIG=
201012132130 METAR LMML NIL=
201012132115 METAR LMML 132115Z 30009KT CAVOK 12/06 Q1010 NOSIG=
201012132045 METAR LMML 132045Z 30009KT 9999 FEW038 SCT250 12/07 Q1010
                        NOSIG=
201012132030 METAR LMML NIL=
201012132015 METAR LMML 132015Z 30010KT 9999 FEW038 SCT250 13/07 Q1009
                        NOSIG=
201012131945 METAR LMML 131945Z 30010KT 9999 FEW034 BKN250 13/07 Q1009
                        NOSIG=
201012131930 METAR LMML NIL=
201012131915 METAR LMML 131915Z 30009KT 9999 FEW034 BKN250 13/08 Q1009
                        NOSIG=
201012131845 METAR LMML 131845Z 31010KT 9999 FEW034 BKN250 13/08 Q1008
                        NOSIG=
201012131830 METAR LMML NIL=
201012131815 METAR LMML 131815Z 31009KT 9999 FEW034 BKN250 13/08 Q1008
                        NOSIG=
201012131745 METAR LMML 131745Z 30009KT 9999 FEW034 BKN250 13/08 Q1007
                        NOSIG=
201012131730 METAR LMML NIL=
201012131715 METAR LMML 131715Z 31007KT 9999 FEW034 BKN250 13/08 Q1007
                        NOSIG=
201012131645 METAR LMML 131645Z 31009KT 9999 FEW034 BKN250 13/08 Q1007
                        NOSIG=
201012131630 METAR LMML NIL=
201012131615 METAR LMML 131615Z 31011KT 9999 FEW035 BKN250 14/08 Q1006
                        NOSIG=
201012131545 METAR LMML 131545Z 30008KT 9999 FEW035 BKN250 14/07 Q1006
                        NOSIG=
201012131530 METAR LMML NIL=
201012131515 METAR LMML 131515Z 30011KT 270V330 9999 FEW035 BKN250 14/08
                        Q1006 NOSIG=
201012131445 METAR LMML 131445Z 30013KT 9999 SCT033 BKN250 15/08 Q1005
                        NOSIG=
201012131430 METAR LMML NIL=
201012131415 METAR LMML 131415Z 30013KT 270V330 9999 SCT030 BKN250 15/08
                        Q1005 NOSIG=
201012131400 METAR LMML NIL=
201012131345 METAR LMML 131345Z 29015KT 9999 SCT028 BKN250 15/08 Q1005
                        NOSIG=
201012131330 METAR LMML NIL=
201012131315 METAR LMML 131315Z 31015KT 9999 SCT025 BKN250 16/10 Q1005
                        NOSIG=
201012131245 METAR LMML 131245Z 28017KT 9999 SCT024 BKN250 16/10 Q1005
                        NOSIG=
201012131230 METAR LMML NIL=
201012131215 METAR LMML 131215Z 28016KT 9999 SCT025 BKN250 16/11 Q1005
                        NOSIG=
201012131145 METAR LMML 131145Z 28014KT 230V310 9999 SCT024 BKN250 16/10
                        Q1005 NOSIG=
201012131130 METAR LMML NIL=
201012131115 METAR LMML 131115Z 28013KT 240V320 9999 SCT024 BKN250 16/11
                        Q1005 NOSIG=
201012131100 METAR LMML NIL=
201012131045 METAR LMML 131045Z 28013KT 240V300 9999 SCT026 BKN250 16/10
                        Q1005 NOSIG=
201012131030 METAR LMML NIL=
201012131015 METAR LMML 131015Z 29014KT 260V320 9999 SCT027 BKN250 16/10
                        Q1006 NOSIG=
201012131000 METAR LMML NIL=
201012130945 METAR LMML 130945Z 28016KT 9999 SCT028 BKN250 16/10 Q1006
                        NOSIG=
201012130930 METAR LMML NIL=
201012130915 METAR LMML 130915Z 28013KT 250V310 9999 FEW028 BKN250 16/09
                        Q1006 NOSIG=
201012130900 METAR LMML NIL=
201012130845 METAR LMML 130845Z 29011KT 250V320 9999 FEW031 BKN250 16/09
                        Q1006 NOSIG=
201012130830 METAR LMML NIL=
201012130815 METAR LMML 130815Z 30011KT 270V330 9999 FEW034 BKN250 16/09
                        Q1006 NOSIG=
201012130745 METAR LMML 130745Z 29011KT 260V320 9999 FEW035 BKN250 15/08
                        Q1006 NOSIG=
201012130730 METAR LMML NIL=
201012130715 METAR LMML 130715Z 28009KT 250V310 9999 FEW035 BKN250 15/07
                        Q1005 NOSIG=
201012130700 METAR LMML NIL=
201012130645 METAR LMML 130645Z 28009KT 9999 FEW035 BKN250 14/07 Q1005
                        NOSIG=
201012130630 METAR LMML NIL=
201012130615 METAR LMML 130615Z 27009KT 230V310 9999 FEW036 BKN250 15/08
                        Q1005 NOSIG=
201012130600 METAR LMML NIL=
201012130545 METAR LMML 130545Z 27009KT 240V300 9999 FEW033 BKN250 15/08
                        Q1005 NOSIG=
201012130530 METAR LMML NIL=
201012130515 METAR LMML 130515Z 26009KT 230V300 9999 FEW030 BKN250 15/09
                        Q1005 NOSIG=
201012130445 METAR LMML 130445Z 26010KT 200V290 9999 FEW030 BKN250 15/08
                        Q1005 NOSIG=
201012130430 METAR LMML NIL=
201012130415 METAR LMML 130415Z 26010KT 200V280 9999 FEW030 15/08 Q1005
                        NOSIG=
201012130400 METAR LMML NIL=
201012130345 METAR LMML 130345Z 25011KT 220V280 CAVOK 14/08 Q1005 NOSIG=
201012130330 METAR LMML NIL=
201012130315 METAR LMML 130315Z 24010KT 210V290 9999 FEW030 SCT250 14/08
                        Q1005 NOSIG=
201012130300 METAR LMML NIL=
201012130245 METAR LMML 130245Z 24013KT 200V280 9999 FEW030 SCT250 14/08
                        Q1005 NOSIG=
201012130215 METAR LMML 130215Z 25011KT 210V280 9999 FEW030 BKN250 14/08
                        Q1005 NOSIG=
201012130200 METAR LMML NIL=
201012130145 METAR LMML 130145Z 24010KT 200V290 9999 SCT030 BKN250 14/07
                        Q1006 NOSIG=
201012130130 METAR LMML NIL=
201012130115 METAR LMML 130115Z 24010KT 210V290 9999 FEW030 SCT250 14/08
                        Q1006 NOSIG=
201012130100 METAR LMML NIL=
201012130045 METAR LMML 130045Z 25010KT 210V280 9999 FEW030 SCT250 14/08
                        Q1006 NOSIG=
201012130030 METAR LMML NIL=
201012130015 METAR LMML 130015Z 24012KT 210V290 9999 FEW030 SCT250 14/09
                        Q1006 NOSIG=
201012130000 METAR LMML NIL=
201012122345 METAR LMML 122345Z 25010KT 200V280 9999 FEW030 14/08 Q1007
                        NOSIG=
201012122330 METAR LMML NIL=
201012122315 METAR LMML 122315Z 25011KT 220V280 9999 FEW031 14/08 Q1007
                        NOSIG=
201012122300 METAR LMML NIL=
201012122245 METAR LMML 122245Z 25011KT 200V300 9999 SCT032 14/08 Q1007
                        NOSIG=
201012122215 METAR LMML 122215Z 25013KT 210V280 9999 SCT031 14/08 Q1008
                        NOSIG=
201012122200 METAR LMML NIL=
201012122145 METAR LMML 122145Z 26013KT 230V290 9999 BKN029 14/08 Q1008
                        NOSIG=
201012122130 METAR LMML NIL=
201012122115 METAR LMML 122115Z 26011KT 230V290 9999 FEW032 BKN040 13/07
                        Q1008 NOSIG=
201012122100 METAR LMML NIL=
201012122045 METAR LMML 122045Z 26013KT 220V290 9999 FEW032 BKN037 14/07
                        Q1009 NOSIG=
201012122030 METAR LMML NIL=
201012122015 METAR LMML 122015Z 25014KT 210V280 9999 BKN037 14/06 Q1009
                        NOSIG=
201012122000 METAR LMML NIL=
201012121945 METAR LMML 121945Z 25010KT 200V300 9999 BKN037 14/07 Q1009
                        NOSIG=
201012121930 METAR LMML NIL=
201012121915 METAR LMML 121915Z 25012KT 210V290 9999 BKN039 14/06 Q1009
                        NOSIG=
201012121900 METAR LMML NIL=
201012121845 METAR LMML 121845Z 26011KT 220V280 9999 BKN038 14/06 Q1009
                        NOSIG=
201012121830 METAR LMML NIL=
201012121815 METAR LMML 121815Z 25013KT 220V290 9999 SCT039 14/05 Q1010
                        NOSIG=
201012121800 METAR LMML NIL=
201012121750 SPECI COR LMML 121750Z 25015KT 220V280 9999 BKN042 14/06
                        Q1010 NOSIG=
201012121730 METAR LMML NIL=
201012121715 METAR LMML 121715Z 26015KT 210V290 9999 BKN042 14/05 Q1010
                        NOSIG=
201012121700 METAR LMML NIL=
201012121645 METAR LMML 121645Z 25015KT 200V290 9999 BKN042 14/05 Q1010
                        NOSIG=
201012121630 METAR LMML NIL=
201012121615 METAR LMML 121615Z 25014KT 210V290 9999 BKN042 14/06 Q1010
                        NOSIG=
201012121600 METAR LMML NIL=
201012121545 METAR LMML 121545Z 25012KT 210V280 9999 OVC040 14/05 Q1010
                        NOSIG=
201012121530 METAR LMML NIL=
201012121515 METAR LMML 121515Z 25014KT 220V290 9999 BKN043 14/06 Q1010
                        NOSIG=
201012121445 METAR LMML 121445Z 25015KT 210V280 9999 BKN037 14/06 Q1010
                        NOSIG=
201012121430 METAR LMML NIL=
201012121415 METAR LMML 121415Z 26015KT 220V300 9999 FEW030 BKN045 15/07
                        Q1011 NOSIG=
201012121400 METAR LMML NIL=
201012121345 METAR LMML 121345Z 26014KT 210V320 9999 FEW035 BKN045 15/07
                        Q1011 NOSIG=
201012121330 METAR LMML NIL=
201012121315 METAR LMML 121315Z 26016KT 220V290 9999 FEW030 BKN050 15/07
                        Q1011 NOSIG=
201012121245 METAR LMML 121245Z 27017KT 220V300 9999 FEW025 16/09 Q1012
                        NOSIG=
201012121215 METAR LMML 121215Z 26016KT 210V310 9999 FEW025 17/08 Q1012
                        NOSIG=
201012121200 METAR LMML NIL=
201012121145 METAR LMML 121145Z 26017KT 220V290 9999 FEW025 17/08 Q1013
                        NOSIG=
201012121130 METAR LMML NIL=
201012121115 METAR LMML 121115Z 27014KT 230V300 9999 FEW025 SCT060 17/08
                        Q1013 NOSIG=
201012121100 METAR LMML NIL=
201012121045 METAR LMML 121045Z 26013KT 220V300 9999 FEW026 BKN060 16/08
                        Q1014 NOSIG=
201012121030 METAR LMML NIL=
201012121015 METAR LMML 121015Z 27011KT 240V310 9999 SCT026 BKN060 15/09
                        Q1014 NOSIG=
201012120945 METAR LMML 120945Z 27003KT 9999 SCT026 BKN046 14/11 Q1015
                        NOSIG=
201012120930 METAR LMML NIL=
201012120915 METAR LMML 120915Z 28005KT 250V310 9999 -RA SCT026 BKN060
                        14/10 Q1015 NOSIG=
201012120900 METAR LMML NIL=
201012120845 METAR LMML 120845Z 28003KT 9999 FEW024 BKN060 14/10 Q1015
                        NOSIG=
201012120815 METAR LMML 120815Z 32003KT 9999 SCT031 BKN060 13/10 Q1015
                        NOSIG=
201012120800 METAR LMML NIL=
201012120745 METAR LMML 120745Z 33003KT 9999 SCT029 BKN060 13/10 Q1015
                        NOSIG=
201012120730 METAR LMML NIL=
201012120715 METAR LMML 120715Z 28004KT 250V310 9999 SCT027 BKN060 12/09
                        Q1015 NOSIG=
201012120700 METAR LMML NIL=
201012120645 METAR LMML 120645Z VRB02KT 9999 -RA SCT037 BKN050 10/07 Q1015
                        NOSIG=
201012120630 METAR LMML NIL=
201012120615 METAR LMML 120615Z VRB01KT 9999 SCT034 BKN050 09/06 Q1016
                        NOSIG=
201012120545 METAR LMML 120545Z VRB01KT 9999 SCT032 SCT050 09/06 Q1016
                        NOSIG=
201012120515 METAR LMML 120515Z VRB01KT 9999 FEW038 BKN050 08/05 Q1016
                        NOSIG=
201012120445 METAR LMML 120445Z 24003KT 9999 FEW038 BKN050 08/05 Q1016
                        NOSIG=
201012120415 METAR LMML 120415Z VRB02KT CAVOK 08/04 Q1016 NOSIG=
201012120400 METAR LMML NIL=
201012120345 METAR LMML 120345Z VRB02KT 9999 SCT043 07/04 Q1017 NOSIG=
201012120330 METAR LMML NIL=
201012120315 METAR LMML 120315Z VRB02KT 9999 SCT047 08/04 Q1017 NOSIG=
201012120300 METAR LMML NIL=
201012120245 METAR LMML 120245Z VRB02KT 9999 SCT039 08/03 Q1017 NOSIG=
201012120230 METAR LMML NIL=
201012120215 METAR LMML 120215Z 26003KT 9999 FEW040 07/03 Q1018 NOSIG=
201012120145 METAR LMML 120145Z 29004KT 260V320 CAVOK 08/03 Q1018 NOSIG=
201012120130 METAR LMML NIL=
201012120115 METAR LMML 120115Z 29006KT CAVOK 08/03 Q1018 NOSIG=
201012120100 METAR LMML NIL=
201012120045 METAR LMML 120045Z 29004KT CAVOK 08/02 Q1018 NOSIG=
201012120015 METAR LMML 120015Z 29004KT CAVOK 08/02 Q1018 NOSIG=
201012120000 METAR LMML NIL=
201012112345 METAR LMML 112345Z 31005KT CAVOK 07/01 Q1018 NOSIG=
201012112315 METAR LMML 112315Z 28005KT CAVOK 09/01 Q1018 NOSIG=
201012112245 METAR LMML 112245Z 29006KT CAVOK 09/01 Q1019 NOSIG=
201012112215 METAR LMML 112215Z 29006KT CAVOK 09/01 Q1019 NOSIG=
201012112200 METAR LMML NIL=
201012112145 METAR LMML 112145Z 29004KT CAVOK 09/00 Q1020 NOSIG=
201012112115 METAR LMML 112115Z VRB02KT CAVOK 09/M00 Q1020 NOSIG=
201012112100 METAR LMML NIL=
201012112045 METAR LMML 112045Z 26004KT 230V300 CAVOK 09/M01 Q1020 NOSIG=
201012112015 METAR LMML 112015Z 31005KT 280V350 CAVOK 09/M01 Q1020 NOSIG=
201012111945 METAR LMML 111945Z 22003KT CAVOK 09/M00 Q1020 NOSIG=
201012111930 METAR LMML NIL=
201012111915 METAR LMML 111915Z 31009KT CAVOK 10/M00 Q1020 NOSIG=
201012111900 METAR LMML NIL=
201012111845 METAR LMML 111845Z 30006KT CAVOK 09/M00 Q1020 NOSIG=
201012111830 METAR LMML NIL=
201012111815 METAR LMML 111815Z 27005KT 230V300 CAVOK 10/M01 Q1020 NOSIG=
201012111800 METAR LMML NIL=
201012111745 METAR LMML 111745Z 28006KT 250V320 CAVOK 10/M01 Q1020 NOSIG=
201012111730 METAR LMML NIL=
201012111715 METAR LMML 111715Z 30007KT CAVOK 09/M00 Q1020 NOSIG=
201012111700 METAR LMML NIL=
201012111645 METAR LMML 111645Z 29007KT CAVOK 10/M01 Q1020 NOSIG=
201012111630 METAR LMML NIL=
201012111615 METAR LMML 111615Z 30010KT CAVOK 10/M01 Q1020 NOSIG=
201012111600 METAR LMML NIL=
201012111545 METAR LMML 111545Z 29006KT 260V320 CAVOK 11/M00 Q1020 NOSIG=
201012111530 METAR LMML NIL=
201012111515 METAR LMML 111515Z 31010KT 280V340 CAVOK 11/01 Q1020 NOSIG=
201012111500 METAR LMML NIL=
201012111445 METAR LMML 111445Z 33008KT 310V010 CAVOK 12/M01 Q1020 NOSIG=
201012111430 METAR LMML NIL=
201012111415 METAR LMML 111415Z 33010KT CAVOK 12/M01 Q1020 NOSIG=
201012111400 METAR LMML NIL=
201012111345 METAR LMML 111345Z 33011KT CAVOK 12/01 Q1020 NOSIG=
201012111330 METAR LMML NIL=
201012111315 METAR LMML 111315Z 34010KT 310V020 CAVOK 13/M02 Q1021 NOSIG=
201012111300 METAR LMML NIL=
201012111245 METAR LMML 111245Z 34014KT 300V010 CAVOK 13/M03 Q1021 NOSIG=
201012111230 METAR LMML NIL=
201012111215 METAR LMML 111215Z 34015KT CAVOK 13/M00 Q1021 NOSIG=
201012111200 METAR LMML NIL=
201012111145 METAR LMML 111145Z 36012KT 330V030 CAVOK 13/01 Q1021 NOSIG=
201012111130 METAR LMML NIL=
201012111115 METAR LMML 111115Z 35013KT 330V030 9999 FEW047 13/M00 Q1022
                        NOSIG=
201012111045 METAR LMML 111045Z 35014KT 320V020 9999 FEW047 13/00 Q1022
                        NOSIG=
201012111030 METAR LMML NIL=
201012111015 METAR LMML 111015Z 36014G25KT 9999 FEW047 13/M01 Q1022 NOSIG=
201012111000 METAR LMML NIL=
201012110945 METAR LMML 110945Z 35015KT 9999 FEW047 13/M01 Q1022 NOSIG=
201012110930 METAR LMML NIL=
201012110915 METAR LMML 110915Z 35015KT 320V020 9999 FEW047 13/M01 Q1022
                        NOSIG=
201012110900 METAR LMML NIL=
201012110845 METAR LMML 110845Z 35013G23KT 310V020 9999 FEW047 13/01 Q1022
                        NOSIG=
201012110815 METAR LMML 110815Z 35013KT 9999 FEW045 13/01 Q1021 NOSIG=
201012110800 METAR LMML NIL=
201012110745 METAR LMML 110745Z 35013KT 320V020 9999 FEW045 13/02 Q1021
                        NOSIG=
201012110730 METAR LMML NIL=
201012110715 METAR LMML 110715Z 36010KT 9999 SCT043 12/03 Q1021 NOSIG=
201012110700 METAR LMML NIL=
201012110645 METAR LMML 110645Z 35010KT CAVOK 11/02 Q1021 NOSIG=
201012110630 METAR LMML NIL=
201012110615 METAR LMML 110615Z 34010KT CAVOK 12/01 Q1021 NOSIG=
201012110545 METAR LMML 110545Z 33013KT 9999 SCT047 12/01 Q1020 NOSIG=
201012110530 METAR LMML NIL=
201012110515 METAR LMML 110515Z 33011KT 9999 SCT047 11/02 Q1020 NOSIG=
201012110500 METAR LMML NIL=
201012110445 METAR LMML 110445Z 33009KT 300V360 CAVOK 11/01 Q1020 NOSIG=
201012110430 METAR LMML NIL=
201012110415 METAR LMML 110415Z 33007KT 300V360 CAVOK 10/02 Q1020 NOSIG=
201012110400 METAR LMML NIL=
201012110345 METAR LMML 110345Z 32006KT 280V350 CAVOK 11/01 Q1020 NOSIG=
201012110330 METAR LMML NIL=
201012110315 METAR LMML 110315Z 33007KT 300V360 CAVOK 10/00 Q1020 NOSIG=
201012110300 METAR LMML NIL=
201012110245 METAR LMML 110245Z 33011KT CAVOK 11/M01 Q1020 NOSIG=
201012110230 METAR LMML NIL=
201012110215 METAR LMML 110215Z 33009KT CAVOK 11/M01 Q1020 NOSIG=
201012110200 METAR LMML NIL=
201012110145 METAR LMML 110145Z 33011KT CAVOK 11/M02 Q1020 NOSIG=
201012110130 METAR LMML NIL=
201012110115 METAR LMML 110115Z 33011KT CAVOK 11/M02 Q1020 NOSIG=
201012110100 METAR LMML NIL=
201012110045 METAR LMML 110045Z 35009KT 320V020 9999 FEW040 11/M01 Q1020
                        NOSIG=
201012110030 METAR LMML NIL=
201012110015 METAR LMML 110015Z 34009KT 9999 FEW040 11/00 Q1020 NOSIG=
201012110000 METAR LMML NIL=
201012102345 METAR LMML 102345Z 33012KT 9999 FEW040 12/01 Q1020 NOSIG=
201012102330 METAR LMML NIL=
201012102315 METAR LMML 102315Z 34011KT 300V010 9999 FEW040 12/00 Q1020
                        NOSIG=
201012102300 METAR LMML NIL=
201012102245 METAR LMML 102245Z 34012KT 310V010 9999 FEW040 12/01 Q1020
                        NOSIG=
201012102230 METAR LMML NIL=
201012102215 METAR LMML 102215Z 35011KT 9999 FEW040 12/01 Q1020 NOSIG=
201012102145 METAR LMML 102145Z 34010KT 310V030 9999 FEW040 12/M00 Q1020
                        NOSIG=
201012102130 METAR LMML NIL=
201012102115 METAR LMML 102115Z 34011KT 9999 FEW040 12/00 Q1020 NOSIG=
201012102100 METAR LMML NIL=
201012102045 METAR LMML 102045Z 33012KT 310V010 9999 FEW040 13/01 Q1019
                        NOSIG=
201012102015 METAR LMML 102015Z 34013KT 9999 FEW040 13/02 Q1019 NOSIG=
201012102000 METAR LMML NIL=
201012101945 METAR LMML 101945Z 35014KT 320V020 9999 FEW040 13/04 Q1019
                        NOSIG=
201012101930 METAR LMML NIL=
201012101915 METAR LMML 101915Z 33017KT 9999 FEW030 14/03 Q1019 NOSIG=
201012101845 METAR LMML 101845Z 33017KT 9999 FEW030 14/03 Q1019 NOSIG=
201012101830 METAR LMML NIL=
201012101815 METAR LMML 101815Z 33017G29KT 9999 FEW030 14/03 Q1019 NOSIG=
201012101745 METAR LMML 101745Z 33015G26KT 9999 FEW030 14/05 Q1018 NOSIG=
201012101715 METAR LMML 101715Z 33015G26KT 9999 FEW030 14/06 Q1017 NOSIG=
201012101700 METAR LMML NIL=
201012101645 METAR LMML 101645Z 32015KT 9999 FEW030 14/07 Q1017 NOSIG=
201012101615 METAR LMML 101615Z 32019KT 290V350 9999 FEW038 14/07 Q1017
                        NOSIG=
201012101600 METAR LMML NIL=
201012101545 METAR LMML 101545Z 32022KT 9999 FEW038 14/06 Q1017 NOSIG=
201012101530 METAR LMML NIL=
201012101515 METAR LMML 101515Z 32023G34KT 9999 FEW030 15/06 Q1017 NOSIG=
201012101500 METAR LMML NIL=
201012101445 METAR LMML 101445Z 32021G31KT 9999 FEW034 15/08 Q1016 NOSIG=
201012101430 METAR LMML NIL=
201012101415 METAR LMML 101415Z 31025G36KT 280V340 9999 FEW036 16/07 Q1016
                        NOSIG=
201012101400 METAR LMML NIL=
201012101345 METAR LMML 101345Z 31026KT 9999 FEW033 16/08 Q1015 NOSIG=
201012101330 METAR LMML NIL=
201012101315 METAR LMML 101315Z 31027G39KT 9999 FEW036 17/08 Q1015 NOSIG=
201012101300 METAR LMML NIL=
201012101245 METAR LMML 101245Z 31025G35KT 9999 FEW036 17/08 Q1015 NOSIG=
201012101215 METAR LMML 101215Z 31027G40KT 9999 FEW036 17/07 Q1015 NOSIG=
201012101145 METAR LMML 101145Z 31030KT 9999 FEW028 17/10 Q1015 NOSIG=
201012101130 METAR LMML NIL=
201012101115 METAR LMML 101115Z 30026G36KT 270V330 9999 FEW028 17/10 Q1014
                        NOSIG=
201012101100 METAR LMML NIL=
201012101045 METAR LMML 101045Z 30027G39KT 9999 FEW030 17/10 Q1015 NOSIG=
201012101030 METAR LMML NIL=
201012101015 METAR LMML 101015Z 31029G39KT 270V330 9999 FEW025 17/10 Q1015
                        NOSIG=
201012100945 METAR LMML 100945Z 30028G39KT 9999 FEW025 17/10 Q1015 NOSIG=
201012100915 METAR LMML 100915Z 30028G39KT 9999 FEW025 17/11 Q1015 NOSIG=
201012100900 METAR LMML NIL=
201012100845 METAR LMML 100845Z 30025G36KT 9999 FEW024 17/10 Q1015 NOSIG=
201012100830 METAR LMML NIL=
201012100815 METAR LMML 100815Z 31022KT 9999 FEW024 17/12 Q1015 NOSIG=
201012100800 METAR LMML NIL=
201012100745 METAR LMML 100745Z 31027G37KT 9999 FEW020 17/12 Q1014 NOSIG=
201012100730 METAR LMML NIL=
201012100715 METAR LMML 100715Z 30024G34KT 9999 FEW020 16/12 Q1014 NOSIG=
201012100645 METAR LMML 100645Z 30023KT 9999 FEW019 16/12 Q1014 NOSIG=
201012100630 METAR LMML NIL=
201012100615 METAR LMML 100615Z 30022KT 270V330 9999 FEW020 16/13 Q1014
                        NOSIG=
201012100600 METAR LMML NIL=
201012100545 METAR LMML 100545Z 30022KT 9999 FEW020 17/11 Q1014 NOSIG=
201012100530 METAR LMML NIL=
201012100515 METAR LMML 100515Z 30021KT CAVOK 17/11 Q1014 NOSIG=
201012100500 METAR LMML NIL=
201012100445 METAR LMML 100445Z 29019KT CAVOK 17/13 Q1014 NOSIG=
201012100430 METAR LMML NIL=
201012100415 METAR LMML 100415Z 29015KT CAVOK 17/14 Q1014 NOSIG=
201012100345 METAR LMML 100345Z 29015KT 260V320 CAVOK 17/14 Q1014 NOSIG=
201012100315 METAR LMML 100315Z 29017KT CAVOK 18/13 Q1014 NOSIG=
201012100300 METAR LMML NIL=
201012100245 METAR LMML 100245Z 29019KT CAVOK 18/13 Q1014 NOSIG=
201012100230 METAR LMML NIL=
201012100215 METAR LMML 100215Z 29016KT CAVOK 18/13 Q1014 NOSIG=
201012100200 METAR LMML NIL=
201012100145 METAR LMML 100145Z 29015KT CAVOK 18/13 Q1014 NOSIG=
201012100130 METAR LMML NIL=
201012100115 METAR LMML 100115Z 29017KT 260V320 CAVOK 19/12 Q1014 NOSIG=
201012100100 METAR LMML NIL=
201012100045 METAR LMML 100045Z 29016KT 250V320 CAVOK 19/12 Q1014 NOSIG=
201012100030 METAR LMML NIL=
201012100015 METAR LMML 100015Z 29016KT 260V320 CAVOK 19/12 Q1015 NOSIG=
201012100000 METAR LMML NIL=
201012092345 METAR LMML 092345Z 29018KT CAVOK 19/12 Q1015 NOSIG=
201012092315 METAR LMML 092315Z 28019KT CAVOK 19/13 Q1015 NOSIG=
201012092300 METAR LMML NIL=
201012092245 METAR LMML 092245Z 29015KT CAVOK 18/12 Q1016 NOSIG=
201012092230 METAR LMML NIL=
201012092215 METAR LMML 092215Z 28017KT CAVOK 18/12 Q1015 NOSIG=
201012092200 METAR LMML NIL=
201012092145 METAR LMML 092145Z 29011KT 270V330 CAVOK 18/12 Q1016 NOSIG=
201012092130 METAR LMML NIL=
201012092115 METAR LMML 092115Z 30010KT CAVOK 18/12 Q1016 NOSIG=
201012092100 METAR LMML NIL=
201012092045 METAR LMML 092045Z 30012KT CAVOK 19/10 Q1016 NOSIG=
201012092030 METAR LMML NIL=
201012092015 METAR LMML 092015Z 29013KT CAVOK 18/12 Q1016 NOSIG=
201012092000 METAR LMML NIL=
201012091945 METAR LMML 091945Z 29014KT CAVOK 18/11 Q1016 NOSIG=
201012091930 METAR LMML NIL=
201012091915 METAR LMML 091915Z 29013KT CAVOK 19/10 Q1015 NOSIG=
201012091900 METAR LMML NIL=
201012091845 METAR LMML 091845Z 30011KT CAVOK 19/10 Q1015 NOSIG=
201012091830 METAR LMML NIL=
201012091815 METAR LMML 091815Z 30011KT CAVOK 18/11 Q1015 NOSIG=
201012091800 METAR LMML NIL=
201012091745 METAR LMML 091745Z 30011KT 270V330 CAVOK 18/11 Q1015 NOSIG=
201012091730 METAR LMML NIL=
201012091715 METAR LMML 091715Z 30011KT CAVOK 18/13 Q1015 NOSIG=
201012091700 METAR LMML NIL=
201012091645 METAR LMML 091645Z 30009KT CAVOK 18/13 Q1015 NOSIG=
201012091630 METAR LMML NIL=
201012091615 METAR LMML 091615Z 29003KT CAVOK 18/14 Q1015 NOSIG=
201012091600 METAR LMML NIL=
201012091545 METAR LMML 091545Z 26008KT 220V280 CAVOK 19/14 Q1015 NOSIG=
201012091530 METAR LMML NIL=
201012091515 METAR LMML 091515Z 28010KT CAVOK 20/13 Q1015 NOSIG=
201012091500 METAR LMML NIL=
201012091445 METAR LMML 091445Z 27009KT 240V320 CAVOK 20/13 Q1015 NOSIG=
201012091415 METAR LMML 091415Z 27007KT 230V300 CAVOK 20/12 Q1015 NOSIG=
201012091400 METAR LMML NIL=
201012091345 METAR LMML 091345Z 24003KT CAVOK 21/14 Q1015 NOSIG=
201012091330 METAR LMML NIL=
201012091315 METAR LMML 091315Z 30004KT 200V360 CAVOK 22/13 Q1015 NOSIG=
201012091300 METAR LMML NIL=
201012091245 METAR LMML 091245Z 24008KT 200V280 CAVOK 21/16 Q1016 NOSIG=
201012091230 METAR LMML NIL=
201012091215 METAR LMML 091215Z 25007KT 200V290 CAVOK 21/17 Q1016 NOSIG=
201012091145 METAR LMML 091145Z 23009KT 190V270 CAVOK 21/17 Q1016 NOSIG=
201012091130 METAR LMML NIL=
201012091115 METAR LMML 091115Z 23007KT 190V280 CAVOK 22/12 Q1016 NOSIG=
201012091100 METAR LMML NIL=
201012091045 METAR LMML 091045Z 25005KT 180V290 CAVOK 23/12 Q1017 NOSIG=
201012091030 METAR LMML NIL=
201012091015 METAR LMML 091015Z 24008KT 200V270 CAVOK 23/11 Q1017 NOSIG=
201012091000 METAR LMML NIL=
201012090945 METAR LMML 090945Z 24007KT 180V290 CAVOK 23/09 Q1018 NOSIG=
201012090930 METAR LMML NIL=
201012090915 METAR LMML 090915Z 23008KT 190V270 CAVOK 22/09 Q1018 NOSIG=
201012090900 METAR LMML NIL=
201012090845 METAR LMML 090845Z 24005KT 200V280 CAVOK 22/09 Q1018 NOSIG=
201012090830 METAR LMML NIL=
201012090815 METAR LMML 090815Z 23005KT 210V270 CAVOK 20/13 Q1018 NOSIG=
201012090800 METAR LMML NIL=
201012090745 METAR LMML 090745Z 24007KT 210V270 CAVOK 19/15 Q1018 NOSIG=
201012090730 METAR LMML NIL=
201012090715 METAR LMML 090715Z 23007KT 200V270 CAVOK 19/13 Q1018 NOSIG=
201012090700 METAR LMML NIL=
201012090645 METAR LMML 090645Z 25007KT 210V290 CAVOK 18/11 Q1018 NOSIG=
201012090630 METAR LMML NIL=
201012090615 METAR LMML 090615Z 24006KT CAVOK 17/12 Q1018 NOSIG=
201012090600 METAR LMML NIL=
201012090545 METAR LMML 090545Z 24007KT 200V270 CAVOK 17/11 Q1018 NOSIG=
201012090530 METAR LMML NIL=
201012090515 METAR LMML 090515Z 25008KT 220V280 CAVOK 17/11 Q1018 NOSIG=
201012090500 METAR LMML NIL=
201012090445 METAR LMML 090445Z 25008KT CAVOK 18/12 Q1017 NOSIG=
201012090430 METAR LMML NIL=
201012090415 METAR LMML 090415Z 24008KT CAVOK 17/11 Q1017 NOSIG=
201012090400 METAR LMML NIL=
201012090345 METAR LMML 090345Z 27009KT 230V290 CAVOK 18/12 Q1017 NOSIG=
201012090330 METAR LMML NIL=
201012090315 METAR LMML 090315Z 24008KT CAVOK 17/14 Q1017 NOSIG=
201012090300 METAR LMML NIL=
201012090245 METAR LMML 090245Z 24009KT CAVOK 17/14 Q1018 NOSIG=
201012090230 METAR LMML NIL=
201012090215 METAR LMML 090215Z 24008KT CAVOK 17/15 Q1018 NOSIG=
201012090200 METAR LMML NIL=
201012090145 METAR LMML 090145Z 24008KT CAVOK 17/14 Q1018 NOSIG=
201012090130 METAR LMML NIL=
201012090115 METAR LMML 090115Z 26008KT CAVOK 16/13 Q1018 NOSIG=
201012090100 METAR LMML NIL=
201012090045 METAR LMML 090045Z 28005KT 250V320 CAVOK 17/12 Q1018 NOSIG=
201012090030 METAR LMML NIL=
201012090015 METAR LMML 090015Z 28008KT CAVOK 17/13 Q1018 NOSIG=
201012090000 METAR LMML NIL=
201012082345 METAR LMML 082345Z 26011KT CAVOK 18/13 Q1017 NOSIG=
201012082330 METAR LMML NIL=
201012082315 METAR LMML 082315Z 25010KT 220V300 CAVOK 17/14 Q1017 NOSIG=
201012082300 METAR LMML NIL=
201012082245 METAR LMML 082245Z 24006KT 210V280 CAVOK 17/14 Q1018 NOSIG=
201012082215 METAR LMML 082215Z 25008KT 210V280 CAVOK 17/13 Q1018 NOSIG=
201012082200 METAR LMML NIL=
201012082145 METAR LMML 082145Z 24007KT 210V280 CAVOK 17/15 Q1018 NOSIG=
201012082130 METAR LMML NIL=
201012082115 METAR LMML 082115Z 24011KT 210V270 CAVOK 17/15 Q1018 NOSIG=
201012082100 METAR LMML NIL=
201012082045 METAR LMML 082045Z 24009KT 200V270 CAVOK 17/15 Q1018 NOSIG=
201012082030 METAR LMML NIL=
201012082015 METAR LMML 082015Z 21004KT 170V250 CAVOK 17/15 Q1018 NOSIG=
201012082000 METAR LMML NIL=
201012081945 METAR LMML 081945Z 21003KT CAVOK 17/15 Q1019 NOSIG=
201012081930 METAR LMML NIL=
201012081915 METAR LMML 081915Z VRB01KT CAVOK 17/15 Q1019 NOSIG=
201012081900 METAR LMML NIL=
201012081845 METAR LMML 081845Z 23004KT 160V300 CAVOK 18/15 Q1018 NOSIG=
201012081830 METAR LMML NIL=
201012081815 METAR LMML 081815Z 25007KT 210V280 CAVOK 17/15 Q1018 NOSIG=
201012081745 METAR LMML 081745Z 25005KT 170V310 CAVOK 18/15 Q1018 NOSIG=
201012081730 METAR LMML NIL=
201012081715 METAR LMML 081715Z 25007KT 180V300 CAVOK 18/14 Q1017 NOSIG=
201012081700 METAR LMML NIL=
201012081645 METAR LMML 081645Z 23007KT 150V310 CAVOK 18/14 Q1017 NOSIG=
201012081630 METAR LMML NIL=
201012081615 METAR LMML 081615Z 24006KT 180V310 CAVOK 18/15 Q1017 NOSIG=
201012081600 METAR LMML NIL=
201012081545 METAR LMML 081545Z 24003KT CAVOK 18/15 Q1017 NOSIG=
201012081530 METAR LMML NIL=
201012081515 METAR LMML 081515Z 24007KT 180V320 CAVOK 19/15 Q1017 NOSIG=
201012081500 METAR LMML NIL=
201012081445 METAR LMML 081445Z 22013KT 190V270 CAVOK 19/15 Q1016 NOSIG=
201012081430 METAR LMML NIL=
201012081415 METAR LMML 081415Z 22015KT 190V260 CAVOK 19/16 Q1016 NOSIG=
201012081400 METAR LMML NIL=
201012081345 METAR LMML 081345Z 21013KT 180V250 CAVOK 19/15 Q1016 NOSIG=
201012081330 METAR LMML NIL=
201012081315 METAR LMML 081315Z 22013KT 190V260 CAVOK 19/16 Q1016 NOSIG=
201012081300 METAR LMML NIL=
201012081245 METAR LMML 081245Z 22013KT 180V250 CAVOK 20/16 Q1016 NOSIG=
201012081230 METAR LMML NIL=
201012081215 METAR LMML 081215Z 21012KT 180V260 CAVOK 20/15 Q1017 NOSIG=
201012081145 METAR LMML 081145Z 21013KT 170V260 CAVOK 20/15 Q1017 NOSIG=
201012081130 METAR LMML NIL=
201012081115 METAR LMML 081115Z 21010KT 170V250 CAVOK 20/15 Q1017 NOSIG=
201012081100 METAR LMML NIL=
201012081045 METAR LMML 081045Z 21010KT 170V240 CAVOK 20/15 Q1018 NOSIG=
201012081030 METAR LMML NIL=
201012081015 METAR LMML 081015Z 20011KT 160V230 CAVOK 20/15 Q1018 NOSIG=
201012081000 METAR LMML NIL=
201012080945 METAR LMML 080945Z 20006KT 150V260 CAVOK 19/15 Q1018 NOSIG=
201012080930 METAR LMML NIL=
201012080915 METAR LMML 080915Z 21004KT 140V270 CAVOK 20/16 Q1018 NOSIG=
201012080900 METAR LMML NIL=
201012080845 METAR LMML 080845Z 21005KT 160V250 CAVOK 20/16 Q1018 NOSIG=
201012080830 METAR LMML NIL=
201012080815 METAR LMML 080815Z 21005KT 180V250 CAVOK 19/16 Q1018 NOSIG=
201012080800 METAR LMML NIL=
201012080745 METAR LMML 080745Z 22005KT CAVOK 19/16 Q1018 NOSIG=
201012080730 METAR LMML NIL=
201012080715 METAR LMML 080715Z 21006KT CAVOK 18/16 Q1018 NOSIG=
201012080700 METAR LMML NIL=
201012080645 METAR LMML 080645Z 22007KT CAVOK 17/16 Q1018 NOSIG=
201012080630 METAR LMML NIL=
201012080615 METAR LMML 080615Z 22005KT CAVOK 16/16 Q1018 NOSIG=
201012080600 METAR LMML NIL=
201012080545 METAR LMML 080545Z 22007KT CAVOK 16/16 Q1017 NOSIG=
201012080530 METAR LMML NIL=
201012080515 METAR LMML 080515Z 22007KT 200V260 CAVOK 16/16 Q1017 NOSIG=
201012080500 METAR LMML NIL=
201012080445 METAR LMML 080445Z 22004KT 190V250 9999 FEW004 16/16 Q1016
                        NOSIG=
201012080430 METAR LMML NIL=
201012080415 METAR LMML 080415Z VRB02KT 9999 FEW004 15/15 Q1017 NOSIG=
201012080400 METAR LMML NIL=
201012080345 METAR LMML 080345Z 19003KT 9999 MIFG NSC 16/16 Q1016 NOSIG=
201012080330 METAR LMML NIL=
201012080315 METAR LMML 080315Z 20004KT 170V230 9999 MIFG FEW004 16/16
                        Q1016 NOSIG=
201012080300 METAR LMML NIL=
201012080245 METAR LMML 080245Z 20004KT 9999 SCT004 16/15 Q1016 NOSIG=
201012080230 METAR LMML NIL=
201012080215 METAR LMML 080215Z 18004KT 9999 FEW012 16/16 Q1016 NOSIG=
201012080200 METAR LMML NIL=
201012080145 METAR LMML 080145Z 21005KT 180V240 CAVOK 16/16 Q1017 NOSIG=
201012080130 METAR LMML NIL=
201012080115 METAR LMML 080115Z 20003KT CAVOK 15/15 Q1017 NOSIG=
201012080045 METAR LMML 080045Z 22003KT CAVOK 15/15 Q1016 NOSIG=
201012080030 METAR LMML NIL=
201012080015 METAR LMML 080015Z 22003KT CAVOK 15/15 Q1016 NOSIG=
201012080000 METAR LMML NIL=
201012072345 METAR LMML 072345Z VRB02KT CAVOK 15/15 Q1016 NOSIG=
201012072330 METAR LMML NIL=
201012072315 METAR LMML 072315Z 22003KT CAVOK 15/14 Q1016 NOSIG=
201012072300 METAR LMML NIL=
201012072245 METAR LMML 072245Z 23004KT CAVOK 14/14 Q1016 NOSIG=
201012072230 METAR LMML NIL=
201012072215 METAR LMML 072215Z VRB01KT CAVOK 14/13 Q1016 NOSIG=
201012072200 METAR LMML NIL=
201012072145 METAR LMML 072145Z VRB02KT CAVOK 15/14 Q1016 NOSIG=
201012072130 METAR LMML NIL=
201012072115 METAR LMML 072115Z VRB02KT CAVOK 15/14 Q1016 NOSIG=
201012072045 METAR LMML 072045Z 22003KT CAVOK 15/15 Q1016 NOSIG=
201012072030 METAR LMML NIL=
201012072015 METAR LMML 072015Z VRB02KT CAVOK 15/14 Q1016 NOSIG=
201012072000 METAR LMML NIL=
201012071945 METAR LMML 071945Z 25004KT 220V290 CAVOK 16/14 Q1016 NOSIG=
201012071930 METAR LMML NIL=
201012071915 METAR LMML 071915Z VRB02KT CAVOK 16/15 Q1016 NOSIG=
201012071900 METAR LMML NIL=
201012071845 METAR LMML 071845Z 19004KT 170V240 CAVOK 16/14 Q1016 NOSIG=
201012071830 METAR LMML NIL=
201012071815 METAR LMML 071815Z 19003KT CAVOK 16/14 Q1015 NOSIG=
201012071800 METAR LMML NIL=
201012071745 METAR LMML 071745Z 20003KT CAVOK 16/14 Q1015 NOSIG=
201012071730 METAR LMML NIL=
201012071715 METAR LMML 071715Z 19003KT CAVOK 16/14 Q1015 NOSIG=
201012071700 METAR LMML NIL=
201012071645 METAR LMML 071645Z 22003KT CAVOK 16/14 Q1015 NOSIG=
201012071630 METAR LMML NIL=
201012071615 METAR LMML 071615Z 23003KT CAVOK 16/14 Q1015 NOSIG=
201012071600 METAR LMML NIL=
201012071545 METAR LMML 071545Z 22003KT CAVOK 17/14 Q1015 NOSIG=
201012071530 METAR LMML NIL=
201012071515 METAR LMML 071515Z 24005KT 200V280 CAVOK 18/14 Q1015 NOSIG=
201012071500 METAR LMML NIL=
201012071445 METAR LMML 071445Z 24005KT 190V290 CAVOK 18/13 Q1014 NOSIG=
201012071415 METAR LMML 071415Z 22007KT 190V260 CAVOK 18/13 Q1014 NOSIG=
201012071400 METAR LMML NIL=
201012071345 METAR LMML 071345Z 22007KT 200V260 CAVOK 19/13 Q1014 NOSIG=
201012071330 METAR LMML NIL=
201012071315 METAR LMML 071315Z 23007KT 190V280 CAVOK 19/12 Q1014 NOSIG=
201012071300 METAR LMML NIL=
201012071245 METAR LMML 071245Z 21005KT 140V260 CAVOK 19/11 Q1014 NOSIG=
201012071230 METAR LMML NIL=
201012071215 METAR LMML 071215Z 20005KT 170V270 CAVOK 20/12 Q1014 NOSIG=
201012071200 METAR LMML NIL=
201012071145 METAR LMML 071145Z 22007KT 160V260 CAVOK 19/11 Q1015 NOSIG=
201012071130 METAR LMML NIL=
201012071115 METAR LMML 071115Z 23008KT 200V270 CAVOK 19/11 Q1015 NOSIG=
201012071100 METAR LMML NIL=
201012071045 METAR LMML 071045Z 21006KT 170V270 CAVOK 19/12 Q1015 NOSIG=
201012071030 METAR LMML NIL=
201012071015 METAR LMML 071015Z 22005KT 180V270 CAVOK 19/12 Q1015 NOSIG=
201012071000 METAR LMML NIL=
201012070945 METAR LMML 070945Z 22005KT 170V290 9999 FEW015 19/12 Q1016
                        NOSIG=
201012070930 METAR LMML NIL=
201012070915 METAR LMML 070915Z 22004KT 180V270 CAVOK 19/12 Q1016 NOSIG=
201012070900 METAR LMML NIL=
201012070845 METAR LMML 070845Z 21003KT CAVOK 19/12 Q1016 NOSIG RMK SMOKE
                        TO NORTH=
201012070830 METAR LMML NIL=
201012070815 METAR LMML 070815Z 23003KT CAVOK 19/12 Q1015 NOSIG RMK SMOKE
                        TO NORTH=
201012070800 METAR LMML NIL=
201012070745 METAR LMML 070745Z VRB01KT CAVOK 18/13 Q1015 NOSIG RMK SMOKE
                        TO NORTH=
201012070715 METAR LMML 070715Z VRB02KT CAVOK 16/12 Q1015 NOSIG RMK SMOKE
                        TO NORTH=
201012070700 METAR LMML NIL=
201012070645 METAR LMML 070645Z 23003KT CAVOK 16/11 Q1015 NOSIG=
201012070630 METAR LMML NIL=
201012070615 METAR LMML 070615Z 22003KT CAVOK 15/11 Q1015 NOSIG=
201012070600 METAR LMML NIL=
201012070545 METAR LMML 070545Z 21003KT CAVOK 15/11 Q1015 NOSIG=
201012070530 METAR LMML NIL=
201012070515 METAR LMML 070515Z 22004KT 180V240 CAVOK 16/11 Q1015 NOSIG=
201012070500 METAR LMML NIL=
201012070445 METAR LMML 070445Z 21004KT 170V270 CAVOK 16/11 Q1014 NOSIG=
201012070430 METAR LMML NIL=
201012070415 METAR LMML 070415Z 21005KT 180V240 CAVOK 16/11 Q1014 NOSIG=
201012070400 METAR LMML NIL=
201012070345 METAR LMML 070345Z 21003KT CAVOK 16/12 Q1015 NOSIG=
201012070330 METAR LMML NIL=
201012070315 METAR LMML 070315Z 20003KT CAVOK 16/12 Q1015 NOSIG=
201012070300 METAR LMML NIL=
201012070245 METAR LMML 070245Z VRB02KT CAVOK 16/12 Q1015 NOSIG=
201012070230 METAR LMML NIL=
201012070215 METAR LMML 070215Z 20004KT 160V240 CAVOK 16/12 Q1015 NOSIG=
201012070200 METAR LMML NIL=
201012070145 METAR LMML 070145Z 18003KT CAVOK 15/11 Q1015 NOSIG=
201012070130 METAR LMML NIL=
201012070115 METAR LMML 070115Z 21003KT CAVOK 15/11 Q1016 NOSIG=
201012070045 METAR LMML 070045Z 21003KT CAVOK 15/11 Q1016 NOSIG=
201012070015 METAR LMML 070015Z 20003KT CAVOK 15/11 Q1015 NOSIG=
201012070000 METAR LMML NIL=
201012062345 METAR LMML 062345Z 20004KT 170V240 CAVOK 16/11 Q1016 NOSIG=
201012062330 METAR LMML NIL=
201012062315 METAR LMML 062315Z 21005KT 170V250 CAVOK 16/11 Q1016 NOSIG=
201012062300 METAR LMML NIL=
201012062245 METAR LMML 062245Z 21006KT 180V260 CAVOK 16/11 Q1016 NOSIG=
201012062230 METAR LMML NIL=
201012062215 METAR LMML 062215Z 21005KT 180V240 CAVOK 16/11 Q1016 NOSIG=
201012062200 METAR LMML NIL=
201012062145 METAR LMML 062145Z 21006KT 180V250 CAVOK 16/11 Q1016 NOSIG=
201012062130 METAR LMML NIL=
201012062115 METAR LMML 062115Z 21006KT 180V250 CAVOK 16/11 Q1016 NOSIG=
201012062100 METAR LMML NIL=
201012062045 METAR LMML 062045Z 22006KT 190V260 CAVOK 16/11 Q1016 NOSIG=
201012062030 METAR LMML NIL=
201012062015 METAR LMML 062015Z 21007KT 170V260 CAVOK 16/11 Q1016 NOSIG=
201012062000 METAR LMML NIL=
201012061945 METAR LMML 061945Z 21007KT 180V260 CAVOK 16/10 Q1016 NOSIG=
201012061930 METAR LMML NIL=
201012061915 METAR LMML 061915Z 21007KT 160V260 CAVOK 16/10 Q1016 NOSIG=
201012061900 METAR LMML NIL=
201012061845 METAR LMML 061845Z 21007KT 170V240 9999 FEW023 SCT250 16/11
                        Q1016 NOSIG=
201012061830 METAR LMML NIL=
201012061815 METAR LMML 061815Z 21006KT 170V250 9999 FEW023 SCT250 16/11
                        Q1016 NOSIG=
201012061800 METAR LMML NIL=
201012061745 METAR LMML 061745Z 20006KT 180V260 9999 FEW023 SCT250 16/11
                        Q1016 NOSIG=
201012061730 METAR LMML NIL=
201012061715 METAR LMML 061715Z 21005KT 170V260 9999 FEW023 SCT250 16/11
                        Q1016 NOSIG=
201012061700 METAR LMML NIL=
201012061645 METAR LMML 061645Z 21005KT 180V240 9999 FEW023 SCT250 16/11
                        Q1016 NOSIG=
201012061630 METAR LMML NIL=
201012061615 METAR LMML 061615Z 21006KT 170V240 9999 FEW023 BKN250 16/11
                        Q1016 NOSIG=
201012061600 METAR LMML NIL=
201012061545 METAR LMML 061545Z 21005KT 170V250 9999 FEW023 BKN250 16/11
                        Q1016 NOSIG=
201012061530 METAR LMML NIL=
201012061515 METAR LMML 061515Z 21007KT 160V250 9999 FEW023 BKN250 17/12
                        Q1016 NOSIG=
201012061500 METAR LMML NIL=
201012061445 METAR LMML 061445Z 20008KT 150V250 9999 FEW024 BKN250 18/12
                        Q1016 NOSIG=
201012061430 METAR LMML NIL=
201012061415 METAR LMML 061415Z 20008KT 150V260 9999 FEW024 BKN120 18/12
                        Q1016 NOSIG=
201012061400 METAR LMML NIL=
201012061345 METAR LMML 061345Z 21007KT 170V260 9999 FEW030 BKN120 18/12
                        Q1016 NOSIG=
201012061330 METAR LMML NIL=
201012061315 METAR LMML 061315Z 20009KT 160V260 9999 FEW029 BKN120 18/12
                        Q1016 NOSIG=
201012061300 METAR LMML NIL=
201012061245 METAR LMML 061245Z 20010KT 170V240 9999 FEW029 SCT120 BKN250
                        19/12 Q1017 NOSIG=
201012061230 METAR LMML NIL=
201012061215 METAR LMML 061215Z 20011KT 160V250 9999 FEW029 BKN250 19/11
                        Q1017 NOSIG=
201012061200 METAR LMML NIL=
201012061145 METAR LMML 061145Z 21008KT 150V280 9999 FEW030 BKN250 19/11
                        Q1017 NOSIG=
201012061130 METAR LMML NIL=
201012061115 METAR LMML 061115Z 20008KT 150V250 9999 FEW030 BKN250 19/11
                        Q1017 NOSIG=
201012061100 METAR LMML NIL=
201012061045 METAR LMML 061045Z 22008KT 180V270 9999 FEW030 BKN250 19/12
                        Q1018 NOSIG=
201012061030 METAR LMML NIL=
201012061015 METAR LMML 061015Z 22008KT 180V280 9999 FEW030 BKN250 19/12
                        Q1018 NOSIG=
201012061000 METAR LMML NIL=
201012060945 METAR LMML 060945Z 21007KT 160V290 9999 FEW029 BKN250 19/12
                        Q1018 NOSIG=
201012060930 METAR LMML NIL=
201012060915 METAR LMML 060915Z 20008KT 170V260 9999 FEW028 BKN250 19/12
                        Q1019 NOSIG=
201012060900 METAR LMML NIL=
201012060845 METAR LMML 060845Z 22008KT 160V280 9999 FEW029 BKN250 18/12
                        Q1019 NOSIG=
201012060830 METAR LMML NIL=
201012060815 METAR LMML 060815Z 21007KT 170V260 9999 FEW029 BKN250 18/11
                        Q1019 NOSIG=
201012060800 METAR LMML NIL=
201012060745 METAR LMML 060745Z 21006KT 180V260 9999 FEW029 BKN250 17/11
                        Q1019 NOSIG=
201012060730 METAR LMML NIL=
201012060715 METAR LMML 060715Z 21006KT 170V270 9999 FEW029 SCT250 17/11
                        Q1018 NOSIG=
201012060700 METAR LMML NIL=
201012060645 METAR LMML 060645Z 21006KT 170V260 9999 FEW029 SCT250 16/10
                        Q1019 NOSIG=
201012060630 METAR LMML NIL=
201012060615 METAR LMML 060615Z 22007KT 170V260 9999 FEW029 15/10 Q1019
                        NOSIG=
201012060545 METAR LMML 060545Z 22008KT 190V270 9999 FEW030 SCT250 15/10
                        Q1019 NOSIG=
201012060530 METAR LMML NIL=
201012060515 METAR LMML 060515Z 22007KT 160V270 9999 FEW032 SCT250 15/10
                        Q1019 NOSIG=
201012060500 METAR LMML NIL=
201012060445 METAR LMML 060445Z 21008KT 170V250 9999 SCT031 15/10 Q1019
                        NOSIG=
201012060430 METAR LMML NIL=
201012060415 METAR LMML 060415Z 22009KT 180V250 9999 SCT031 16/10 Q1019
                        NOSIG=
201012060345 METAR LMML 060345Z 22010KT 200V270 9999 SCT031 SCT250 15/09
                        Q1019 NOSIG=
201012060330 METAR LMML NIL=
201012060315 METAR LMML 060315Z 22010KT 180V280 9999 SCT033 SCT250 15/09
                        Q1019 NOSIG=
201012060300 METAR LMML NIL=
201012060245 METAR LMML 060245Z 22010KT 180V250 9999 FEW033 SCT250 15/09
                        Q1020 NOSIG=
201012060230 METAR LMML NIL=
201012060215 METAR LMML 060215Z 21010KT 180V260 9999 FEW035 SCT250 15/09
                        Q1020 NOSIG=
201012060200 METAR LMML NIL=
201012060145 METAR LMML 060145Z 21008KT 180V250 9999 SCT034 15/09 Q1020
                        NOSIG=
201012060115 METAR LMML 060115Z 21007KT 140V260 9999 SCT032 14/09 Q1020
                        NOSIG=
201012060100 METAR LMML NIL=
201012060045 METAR LMML 060045Z 21007KT 180V240 9999 SCT034 14/08 Q1020
                        NOSIG=
201012060015 METAR LMML 060015Z 21007KT 180V240 9999 SCT034 14/08 Q1020
                        NOSIG=
201012060000 METAR LMML NIL=
201012052345 METAR LMML 052345Z 21007KT 180V250 9999 SCT035 14/08 Q1021
                        NOSIG=
201012052330 METAR LMML NIL=
201012052315 METAR LMML 052315Z 21004KT 170V260 9999 FEW033 SCT250 14/08
                        Q1021 NOSIG=
201012052300 METAR LMML NIL=
201012052245 METAR LMML 052245Z 21008KT 160V250 9999 FEW034 SCT250 14/08
                        Q1021 NOSIG=
201012052230 METAR LMML NIL=
201012052215 METAR LMML 052215Z 21005KT 170V250 9999 FEW036 SCT250 13/07
                        Q1021 NOSIG=
201012052145 METAR LMML 052145Z 20004KT 170V230 9999 FEW034 SCT250 13/07
                        Q1022 NOSIG=
201012052115 METAR LMML 052115Z 21003KT 9999 FEW036 SCT250 13/07 Q1022
                        NOSIG=
201012052100 METAR LMML NIL=
201012052045 METAR LMML 052045Z 22003KT 9999 FEW037 SCT250 12/07 Q1023
                        NOSIG=
201012052030 METAR LMML NIL=
201012052015 METAR LMML 052015Z 25003KT 9999 FEW039 BKN250 13/06 Q1023
                        NOSIG=
201012051945 METAR LMML 051945Z 24004KT 210V270 9999 FEW039 12/06 Q1023
                        NOSIG=
201012051915 METAR LMML 051915Z 25004KT 220V300 9999 FEW038 12/06 Q1023
                        NOSIG=
201012051845 METAR LMML 051845Z 24005KT 200V270 9999 FEW038 12/06 Q1023
                        NOSIG=
201012051830 METAR LMML NIL=
201012051815 METAR LMML 051815Z 23005KT 9999 FEW036 SCT250 12/06 Q1023
                        NOSIG=
201012051745 METAR LMML 051745Z 23004KT 9999 FEW034 SCT250 12/07 Q1023
                        NOSIG=
201012051730 METAR LMML NIL=
201012051715 METAR LMML 051715Z 24004KT 210V270 9999 FEW034 SCT250 12/07
                        Q1023 NOSIG=
201012051700 METAR LMML NIL=
201012051645 METAR LMML 051645Z 24004KT 200V270 9999 FEW034 SCT250 12/07
                        Q1023 NOSIG=
201012051630 METAR LMML NIL=
201012051615 METAR LMML 051615Z 26005KT 210V290 9999 SCT030 SCT048 BKN250
                        13/07 Q1023 NOSIG=
201012051600 METAR LMML NIL=
201012051545 METAR LMML 051545Z 27004KT 230V300 9999 SCT030 SCT048 BKN250
                        13/08 Q1023 NOSIG=
201012051530 METAR LMML NIL=
201012051515 METAR LMML 051515Z VRB02KT 9999 SCT029 SCT048 14/08 Q1023
                        NOSIG=
201012051500 METAR LMML NIL=
201012051445 METAR LMML 051445Z 24003KT 9999 FEW029 BKN047 14/08 Q1023
                        NOSIG=
201012051430 METAR LMML NIL=
201012051415 METAR LMML 051415Z 25003KT 9999 FEW034 BKN049 14/08 Q1023
                        NOSIG=
201012051400 METAR LMML NIL=
201012051345 METAR LMML 051345Z 24004KT 200V280 9999 FEW033 BKN048 14/08
                        Q1023 NOSIG=
201012051330 METAR LMML NIL=
201012051315 METAR LMML 051315Z 28003KT 9999 FEW035 SCT049 15/07 Q1023
                        NOSIG=
201012051300 METAR LMML NIL=
201012051245 METAR LMML 051245Z 30005KT 250V340 9999 FEW035 15/07 Q1023
                        NOSIG=
201012051230 METAR LMML NIL=
201012051215 METAR LMML 051215Z 28004KT 240V310 9999 SCT034 SCT050 15/07
                        Q1024 NOSIG=
201012051200 METAR LMML NIL=
201012051145 METAR LMML 051145Z 30003KT 9999 SCT034 SCT060 14/07 Q1024
                        NOSIG=
201012051130 METAR LMML NIL=
201012051115 METAR LMML 051115Z 33004KT 280V010 9999 SCT034 16/08 Q1024
                        NOSIG=
201012051100 METAR LMML NIL=
201012051045 METAR LMML 051045Z 33006KT 300V010 9999 SCT032 SCT060 14/07
                        Q1025 NOSIG=
201012051030 METAR LMML NIL=
201012051015 METAR LMML 051015Z 34006KT 9999 SCT034 15/08 Q1025 NOSIG=
201012051000 METAR LMML NIL=
201012050945 METAR LMML 050945Z 34007KT 320V030 9999 SCT031 15/08 Q1025
                        NOSIG=
201012050930 METAR LMML NIL=
201012050915 METAR LMML 050915Z 32006KT 290V020 9999 FEW030 SCT250 15/08
                        Q1025 NOSIG=
201012050900 METAR LMML NIL=
201012050845 METAR LMML 050845Z 34006KT 310V010 9999 FEW035 SCT250 14/08
                        Q1025 NOSIG=
201012050830 METAR LMML NIL=
201012050815 METAR LMML 050815Z 36005KT 9999 FEW035 SCT060 13/09 Q1025
                        NOSIG=
201012050800 METAR LMML NIL=
201012050745 METAR LMML 050745Z 34004KT 300V360 9999 FEW038 SCT060 12/09
                        Q1025 NOSIG=
201012050730 METAR LMML NIL=
201012050715 METAR LMML 050715Z 28005KT 240V330 9999 SCT038 BKN060 11/08
                        Q1025 NOSIG=
201012050700 METAR LMML NIL=
201012050645 METAR LMML 050645Z 28005KT 9999 SCT038 BKN050 11/06 Q1025
                        NOSIG=
201012050630 METAR LMML NIL=
201012050615 METAR LMML 050615Z 29003KT 9999 FEW035 BKN060 11/05 Q1025
                        NOSIG=
201012050545 METAR LMML 050545Z 29006KT 9999 SCT039 10/05 Q1024 TEMPO
                        SHRA=
201012050530 METAR LMML NIL=
201012050515 METAR LMML 050515Z 30005KT 9999 FEW039 10/05 Q1024 TEMPO
                        SHRA=
201012050500 METAR LMML NIL=
201012050445 METAR LMML 050445Z 29004KT 9999 FEW039 10/05 Q1024 TEMPO
                        SHRA=
201012050430 METAR LMML NIL=
201012050415 METAR LMML 050415Z 29004KT 9999 FEW039 10/06 Q1024 TEMPO
                        SHRA=
201012050400 METAR LMML NIL=
201012050345 METAR LMML 050345Z 31007KT 9999 FEW039 10/07 Q1024 TEMPO
                        SHRA=
201012050330 METAR LMML NIL=
201012050315 METAR LMML 050315Z 31004KT 9999 FEW039 SCT060 10/08 Q1024
                        TEMPO SHRA=
201012050300 METAR LMML NIL=
201012050245 METAR LMML 050245Z 32006KT 9999 -SHRA SCT036 10/08 Q1024
                        TEMPO SHRA=
201012050230 METAR LMML NIL=
201012050215 METAR LMML 050215Z 32006KT 9999 SCT027 10/08 Q1024 TEMPO
                        SHRA=
201012050200 METAR LMML NIL=
201012050145 METAR LMML 050145Z 29009KT 9999 SCT027 10/07 Q1024 TEMPO
                        SHRA=
201012050130 METAR LMML NIL=
201012050115 METAR LMML 050115Z 30007KT 9999 FEW036 SCT060 10/08 Q1024
                        TEMPO SHRA=
201012050100 METAR LMML NIL=
201012050045 METAR LMML 050045Z 29012KT 260V320 9999 -RA FEW029 SCT041
                        BKN050 10/08 Q1024 TEMPO SHRA=
201012050015 METAR LMML 050015Z 30007KT 9999 -RA FEW033 BKN060 11/06 Q1024
                        TEMPO SHRA=
201012050000 METAR LMML NIL=
201012042345 METAR LMML 042345Z 32005KT 9999 FEW028 BKN060 10/07 Q1023
                        TEMPO SHRA=
201012042330 METAR LMML NIL=
201012042315 METAR LMML 042315Z 32009KT 290V360 9999 FEW028 11/07 Q1024
                        TEMPO SHRA=
201012042300 METAR LMML NIL=
201012042245 METAR LMML 042245Z 31009KT 9999 FEW030 10/04 Q1024 TEMPO
                        SHRA=
201012042230 METAR LMML NIL=
201012042215 METAR LMML 042215Z 30007KT 9999 FEW030 10/04 Q1023 TEMPO
                        SHRA=
201012042200 METAR LMML NIL=
201012042145 METAR LMML 042145Z 31010KT 9999 FEW030 11/04 Q1024 TEMPO
                        SHRA=
201012042130 METAR LMML NIL=
201012042115 METAR LMML 042115Z 31011KT 9999 FEW030 11/04 Q1023 NOSIG=
201012042100 METAR LMML NIL=
201012042045 METAR LMML 042045Z 31013KT 9999 FEW030 11/04 Q1023 NOSIG=
201012042030 METAR LMML NIL=
201012042015 METAR LMML 042015Z 31011KT 9999 FEW030 11/04 Q1023 NOSIG=
201012042000 METAR LMML NIL=
201012041945 METAR LMML 041945Z 31013KT 9999 FEW030 11/04 Q1022 NOSIG=
201012041930 METAR LMML NIL=
201012041915 METAR LMML 041915Z 31013KT CAVOK 11/04 Q1022 NOSIG=
201012041900 METAR LMML NIL=
201012041845 METAR LMML 041845Z 31012KT CAVOK 11/05 Q1022 NOSIG=
201012041830 METAR LMML NIL=
201012041815 METAR LMML 041815Z 31012KT CAVOK 12/06 Q1021 NOSIG=
201012041800 METAR LMML NIL=
201012041745 METAR LMML 041745Z 31012KT 9999 FEW035 12/05 Q1021 NOSIG=
201012041730 METAR LMML NIL=
201012041715 METAR LMML 041715Z 31012KT 9999 FEW035 12/05 Q1021 NOSIG=
201012041645 METAR LMML 041645Z 31013KT 9999 FEW035 12/06 Q1020 NOSIG=
201012041630 METAR LMML NIL=
201012041615 METAR LMML 041615Z 31011KT 9999 SCT030 12/06 Q1020 NOSIG=
201012041545 METAR LMML 041545Z 31012KT 9999 SCT033 13/06 Q1020 NOSIG=
201012041530 METAR LMML NIL=
201012041515 METAR LMML 041515Z 31013KT 9999 SCT033 13/06 Q1019 NOSIG=
201012041500 METAR LMML NIL=
201012041445 METAR LMML 041445Z 31011KT 9999 SCT034 SCT090 13/08 Q1019
                        NOSIG=
201012041430 METAR LMML NIL=
201012041415 METAR LMML 041415Z 31013KT 9999 SCT030 14/08 Q1018 NOSIG=
201012041400 METAR LMML NIL=
201012041345 METAR LMML 041345Z 29014KT 9999 SCT035 15/07 Q1018 NOSIG=
201012041330 METAR LMML NIL=
201012041315 METAR LMML 041315Z 30014KT 9999 SCT034 15/07 Q1018 NOSIG=
201012041300 METAR LMML NIL=
201012041245 METAR LMML 041245Z 30015KT 260V330 9999 SCT034 SCT250 16/07
                        Q1018 NOSIG=
201012041230 METAR LMML NIL=
201012041215 METAR LMML 041215Z 31014KT 9999 SCT035 SCT250 15/08 Q1018
                        NOSIG=
201012041200 METAR LMML NIL=
201012041145 METAR LMML 041145Z 30013KT 9999 SCT032 SCT250 14/07 Q1017
                        NOSIG=
201012041130 METAR LMML NIL=
201012041115 METAR LMML 041115Z 31013KT 280V340 9999 SCT036 BKN250 15/07
                        Q1017 NOSIG=
201012041100 METAR LMML NIL=
201012041045 METAR LMML 041045Z 31013KT 9999 SCT039 BKN250 15/07 Q1017
                        NOSIG=
201012041030 METAR LMML NIL=
201012041015 METAR LMML 041015Z 31014KT 9999 SCT035 BKN250 16/07 Q1017
                        NOSIG=
201012041000 METAR LMML NIL=
201012040945 METAR LMML 040945Z 32014KT 290V350 9999 SCT038 15/07 Q1017
                        NOSIG=
201012040930 METAR LMML NIL=
201012040915 METAR LMML 040915Z 32014KT 9999 SCT041 15/07 Q1017 NOSIG=
201012040900 METAR LMML NIL=
201012040845 METAR LMML 040845Z 32013KT 290V350 9999 SCT042 14/06 Q1017
                        NOSIG=
201012040830 METAR LMML NIL=
201012040815 METAR LMML 040815Z 32014KT 9999 SCT030 14/06 Q1016 NOSIG=
201012040800 METAR LMML NIL=
201012040745 METAR LMML 040745Z 31012KT 9999 SCT030 14/07 Q1016 NOSIG=
201012040730 METAR LMML NIL=
201012040715 METAR LMML 040715Z 32012KT 280V340 9999 SCT030 13/08 Q1015
                        NOSIG=
201012040700 METAR LMML NIL=
201012040645 METAR LMML 040645Z 31012KT 9999 SCT030 13/08 Q1015 NOSIG=
201012040630 METAR LMML NIL=
201012040615 METAR LMML 040615Z 31013KT 9999 SCT030 12/08 Q1014 NOSIG=
201012040600 METAR LMML NIL=
201012040545 METAR LMML 040545Z 30011KT 9999 FEW030 12/08 Q1014 NOSIG=
201012040530 METAR LMML NIL=
201012040515 METAR LMML 040515Z 31010KT 9999 FEW030 BKN130 11/08 Q1013
                        NOSIG=
201012040500 METAR LMML NIL=
201012040445 METAR LMML 040445Z 32011KT 9999 FEW030 SCT090 12/08 Q1013
                        NOSIG=
201012040430 METAR LMML NIL=
201012040415 METAR LMML 040415Z 31011KT 9999 FEW030 SCT080 12/08 Q1013
                        TEMPO 8000 SHRA=
201012040400 METAR LMML NIL=
201012040345 METAR LMML 040345Z 30010KT 9999 FEW028 BKN080 12/08 Q1012
                        TEMPO 8000 SHRA=
201012040330 METAR LMML NIL=
201012040315 METAR LMML 040315Z 29008KT 9999 FEW028 SCT060 12/08 Q1012
                        TEMPO 8000 SHRA=
201012040300 METAR LMML NIL=
201012040245 METAR LMML 040245Z 30010KT 9999 FEW028 BKN120 11/08 Q1012
                        TEMPO 8000 SHRA=
201012040230 METAR LMML NIL=
201012040215 METAR LMML 040215Z 31014KT 9999 FEW028 SCT100 12/08 Q1012
                        TEMPO 8000 SHRA=
201012040200 METAR LMML NIL=
201012040145 METAR LMML 040145Z 32015KT 9999 FEW027 BKN100 12/09 Q1012
                        TEMPO 8000 SHRA=
201012040130 METAR LMML NIL=
201012040115 METAR LMML 040115Z 32014KT 9999 FEW023 BKN090 12/10 Q1012
                        TEMPO 8000 SHRA=
201012040100 METAR LMML NIL=
201012040045 METAR LMML 040045Z 32016KT 9999 -RA FEW021 BKN070 12/10 Q1012
                        TEMPO 8000 SHRA=
201012040030 METAR LMML NIL=
201012040015 METAR LMML 040015Z 32015KT 9999 -RA FEW019 BKN040 12/10 Q1012
                        TEMPO 8000 SHRA=
201012032345 METAR LMML 032345Z 32014KT 9999 -RA FEW014 BKN034 12/11 Q1011
                        TEMPO 8000 SHRA=
201012032330 METAR LMML NIL=
201012032315 METAR LMML 032315Z 33013KT 9999 FEW014 BKN040 13/10 Q1012
                        NOSIG=
201012032300 METAR LMML NIL=
201012032245 METAR LMML 032245Z 33011KT 9999 FEW016 BKN040 13/10 Q1012
                        NOSIG=
201012032230 METAR LMML NIL=
201012032215 METAR LMML 032215Z 32010KT 280V350 9999 FEW016 BKN043 14/11
                        Q1012 NOSIG=
201012032200 METAR LMML NIL=
201012032145 METAR LMML 032145Z 33012KT 9999 FEW025 BKN043 14/10 Q1012
                        NOSIG=
201012032130 METAR LMML NIL=
201012032115 METAR LMML 032115Z 34007KT 9999 FEW030 BKN044 14/10 Q1012
                        NOSIG=
201012032100 METAR LMML NIL=
201012032045 METAR LMML 032045Z 33007KT 9999 FEW030 BKN090 14/10 Q1012
                        NOSIG=
201012032015 METAR LMML 032015Z 33006KT 9999 FEW025 BKN090 13/11 Q1012
                        NOSIG=
201012032000 METAR LMML NIL=
201012031945 METAR LMML 031945Z 33008KT 9999 FEW025 BKN090 13/11 Q1012
                        NOSIG=
201012031930 METAR LMML NIL=
201012031915 METAR LMML 031915Z 35008KT 9999 FEW025 SCT090 14/11 Q1012
                        NOSIG=
201012031900 METAR LMML NIL=
201012031845 METAR LMML 031845Z 36011KT 9999 FEW025 BKN090 14/11 Q1012
                        NOSIG=
201012031830 METAR LMML NIL=
201012031815 METAR LMML 031815Z 36008KT 9999 FEW025 BKN090 14/11 Q1012
                        NOSIG=
201012031800 METAR LMML NIL=
201012031745 METAR LMML 031745Z 36007KT 9999 BKN025 BKN095 BKN130 14/11
                        Q1012 NOSIG=
201012031730 METAR LMML NIL=
201012031715 METAR LMML 031715Z 35006KT CAVOK 14/10 Q1012 NOSIG=
201012031700 METAR LMML NIL=
201012031645 METAR LMML 031645Z 36007KT CAVOK 14/10 Q1012 NOSIG=
201012031630 METAR LMML NIL=
201012031615 METAR LMML 031615Z 35008KT 9999 FEW027 BKN054 OVC100 14/11
                        Q1012 TEMPO RA=
201012031600 METAR LMML NIL=
201012031545 METAR LMML 031545Z 35008KT 310V010 9999 FEW018 BKN027 OVC130
                        15/11 Q1012 TEMPO RA=
201012031530 METAR LMML NIL=
201012031515 METAR LMML 031515Z 36008KT 9999 FEW025 BKN028 BKN130 15/12
                        Q1012 TEMPO RA=
201012031500 METAR LMML NIL=
201012031445 METAR LMML 031445Z 36008KT 9999 -RA FEW025 BKN030 BKN130
                        15/11 Q1012 TEMPO RA=
201012031430 METAR LMML NIL=
201012031415 METAR LMML 031415Z 35009KT 320V020 9999 FEW025 BKN030 BKN130
                        15/12 Q1011 TEMPO RA=
201012031400 METAR LMML NIL=
201012031345 METAR LMML 031345Z 35008KT 9999 BKN031 BKN130 16/12 Q1012
                        TEMPO RA=
201012031330 METAR LMML NIL=
201012031315 METAR LMML 031315Z 34009KT 310V010 9999 SCT019 BKN070 BKN130
                        16/12 Q1012 TEMPO RA=
201012031300 METAR LMML NIL=
201012031245 METAR LMML 031245Z 34006KT 320V020 9999 SCT019 SCT070 BKN130
                        17/13 Q1012 TEMPO RA=
201012031230 METAR LMML NIL=
201012031215 METAR LMML 031215Z 34010KT 310V020 9999 BKN016 BKN120 16/14
                        Q1011 TEMPO RA=
201012031200 METAR LMML NIL=
201012031145 METAR LMML 031145Z 35010KT 9999 -RA BKN012 BKN120 17/15 Q1011
                        TEMPO RA SCT008 BKN015 BKN025=
201012031115 METAR LMML 031115Z 35007KT 9999 -RA SCT018 BKN120 17/16 Q1012
                        TEMPO 6000 RA SCT015 BKN030=
201012031100 METAR LMML NIL=
201012031045 METAR LMML 031045Z 30003KT 9999 -RA SCT021 BKN096 18/14 Q1013
                        TEMPO 6000 RA SCT015 BKN030=
201012031030 METAR LMML NIL=
201012031015 METAR LMML 031015Z VRB01KT 9999 FEW024 BKN100 BKN250 19/14
                        Q1013 TEMPO SHRA=
201012031000 METAR LMML NIL=
201012030945 METAR LMML 030945Z 18003KT 9999 FEW024 BKN110 BKN250 18/13
                        Q1014 TEMPO SHRA=
201012030930 METAR LMML NIL=
201012030915 METAR LMML 030915Z 19003KT 9999 -RA SCT024 BKN120 17/13 Q1014
                        TEMPO SHRA=
201012030900 METAR LMML NIL=
201012030845 METAR LMML 030845Z VRB01KT 9999 FEW030 BKN120 BKN250 17/13
                        Q1014 TEMPO SHRA=
201012030830 METAR LMML NIL=
201012030815 METAR LMML 030815Z VRB01KT CAVOK 16/13 Q1014 NOSIG=
201012030800 METAR LMML NIL=
201012030745 METAR LMML 030745Z 31005KT CAVOK 16/12 Q1013 NOSIG=
201012030730 METAR LMML NIL=
201012030715 METAR LMML 030715Z 32007KT CAVOK 16/13 Q1012 NOSIG=
201012030700 METAR LMML NIL=
201012030645 METAR LMML 030645Z 31004KT 280V340 CAVOK 16/13 Q1012 NOSIG=
201012030630 METAR LMML NIL=
201012030615 METAR LMML 030615Z 28008KT CAVOK 16/13 Q1012 NOSIG=
201012030600 METAR LMML NIL=
201012030545 METAR LMML 030545Z 28007KT CAVOK 16/13 Q1011 NOSIG=
201012030530 METAR LMML NIL=
201012030515 METAR LMML 030515Z 26006KT 230V290 CAVOK 15/13 Q1011 NOSIG=
201012030500 METAR LMML NIL=
201012030445 METAR LMML 030445Z 25006KT 220V280 CAVOK 15/13 Q1011 NOSIG=
201012030430 METAR LMML NIL=
201012030415 METAR LMML 030415Z 26005KT CAVOK 16/13 Q1011 NOSIG=
201012030400 METAR LMML NIL=
201012030345 METAR LMML 030345Z 25003KT CAVOK 15/13 Q1011 NOSIG=
201012030330 METAR LMML NIL=
201012030315 METAR LMML 030315Z 27003KT CAVOK 16/13 Q1011 NOSIG=
201012030245 METAR LMML 030245Z 26005KT 230V310 CAVOK 16/13 Q1011 NOSIG=
201012030230 METAR LMML NIL=
201012030215 METAR LMML 030215Z VRB02KT CAVOK 14/11 Q1011 NOSIG=
201012030200 METAR LMML NIL=
201012030145 METAR LMML 030145Z VRB02KT CAVOK 14/11 Q1011 NOSIG=
201012030130 METAR LMML NIL=
201012030115 METAR LMML 030115Z 27003KT CAVOK 13/11 Q1011 NOSIG=
201012030100 METAR LMML NIL=
201012030045 METAR LMML 030045Z 27004KT CAVOK 14/12 Q1011 NOSIG=
201012030030 METAR LMML NIL=
201012030015 METAR LMML 030015Z 27004KT CAVOK 14/12 Q1011 NOSIG=
201012030000 METAR LMML NIL=
201012022345 METAR LMML 022345Z VRB01KT CAVOK 14/12 Q1011 NOSIG=
201012022330 METAR LMML NIL=
201012022315 METAR LMML 022315Z VRB01KT CAVOK 14/12 Q1011 NOSIG=
201012022300 METAR LMML NIL=
201012022245 METAR LMML 022245Z 28003KT CAVOK 14/12 Q1011 NOSIG=
201012022230 METAR LMML NIL=
201012022215 METAR LMML 022215Z 29003KT CAVOK 15/12 Q1012 NOSIG=
201012022200 METAR LMML NIL=
201012022145 METAR LMML 022145Z 34003KT CAVOK 14/12 Q1012 NOSIG=
201012022130 METAR LMML NIL=
201012022115 METAR LMML 022115Z VRB02KT CAVOK 15/12 Q1012 NOSIG=
201012022100 METAR LMML NIL=
201012022045 METAR LMML 022045Z VRB02KT CAVOK 15/11 Q1012 NOSIG=
201012022030 METAR LMML NIL=
201012022015 METAR LMML 022015Z 35003KT CAVOK 15/11 Q1012 NOSIG=
201012022000 METAR LMML NIL=
201012021945 METAR LMML 021945Z 02003KT CAVOK 15/11 Q1012 NOSIG=
201012021930 METAR LMML NIL=
201012021915 METAR LMML 021915Z VRB02KT CAVOK 15/11 Q1012 NOSIG=
201012021900 METAR LMML NIL=
201012021845 METAR LMML 021845Z 35003KT CAVOK 16/11 Q1012 NOSIG=
201012021830 METAR LMML NIL=
201012021815 METAR LMML 021815Z 36004KT CAVOK 16/11 Q1012 NOSIG=
201012021800 METAR LMML NIL=
201012021745 METAR LMML 021745Z 03003KT CAVOK 16/10 Q1011 NOSIG=
201012021730 METAR LMML NIL=
201012021715 METAR LMML 021715Z VRB02KT CAVOK 17/11 Q1012 NOSIG=
201012021700 METAR LMML NIL=
201012021645 METAR LMML 021645Z 01005KT 260V040 CAVOK 16/11 Q1012 NOSIG=
201012021630 METAR LMML NIL=
201012021615 METAR LMML 021615Z 01004KT CAVOK 16/11 Q1012 NOSIG=
201012021600 METAR LMML NIL=
201012021545 METAR LMML 021545Z 01003KT CAVOK 17/11 Q1012 NOSIG=
201012021530 METAR LMML NIL=
201012021515 METAR LMML 021515Z 04004KT CAVOK 18/11 Q1012 NOSIG=
201012021500 METAR LMML NIL=
201012021445 METAR LMML 021445Z 03004KT 360V070 CAVOK 18/10 Q1012 NOSIG=
201012021415 METAR LMML 021415Z 02003KT CAVOK 19/10 Q1012 NOSIG=
201012021400 METAR LMML NIL=
201012021345 METAR LMML 021345Z 01005KT 340V050 CAVOK 19/09 Q1012 NOSIG=
201012021330 METAR LMML NIL=
201012021315 METAR LMML 021315Z 36007KT 320V040 CAVOK 19/10 Q1012 NOSIG=
201012021300 METAR LMML NIL=
201012021245 METAR LMML 021245Z 36010KT CAVOK 20/11 Q1012 NOSIG=
201012021230 METAR LMML NIL=
201012021215 METAR LMML 021215Z 35008KT CAVOK 20/11 Q1012 NOSIG=
201012021200 METAR LMML NIL=
201012021145 METAR LMML 021145Z 34008KT CAVOK 18/10 Q1013 NOSIG=
201012021130 METAR LMML NIL=
201012021115 METAR LMML 021115Z 34008KT CAVOK 19/10 Q1013 NOSIG=
201012021100 METAR LMML NIL=
201012021045 METAR LMML 021045Z 35007KT 320V020 CAVOK 20/11 Q1013 NOSIG=
201012021030 METAR LMML NIL=
201012021015 METAR LMML 021015Z 34008KT CAVOK 19/12 Q1013 NOSIG=
201012021000 METAR LMML NIL=
201012020945 METAR LMML 020945Z 36004KT 9999 -RA NSC 18/14 Q1013 NOSIG=
201012020930 METAR LMML NIL=
201012020915 METAR LMML 020915Z 31004KT 290V350 9999 -RA NSC 16/14 Q1014
                        NOSIG=
201012020900 METAR LMML NIL=
201012020845 METAR LMML 020845Z 34006KT CAVOK 16/13 Q1013 NOSIG=
201012020830 METAR LMML NIL=
201012020815 METAR LMML 020815Z 34005KT CAVOK 16/13 Q1013 NOSIG=
201012020800 METAR LMML NIL=
201012020745 METAR LMML 020745Z 31003KT 9999 -RA NSC 16/13 Q1014 NOSIG=
201012020730 METAR LMML NIL=
201012020715 METAR LMML 020715Z 32004KT CAVOK 15/13 Q1013 NOSIG=
201012020700 METAR LMML NIL=
201012020645 METAR LMML 020645Z 29004KT CAVOK 15/12 Q1013 NOSIG=
201012020630 METAR LMML NIL=
201012020615 METAR LMML 020615Z VRB02KT CAVOK 14/12 Q1012 NOSIG=
201012020600 METAR LMML NIL=
201012020545 METAR LMML 020545Z 29003KT CAVOK 14/12 Q1012 NOSIG=
201012020530 METAR LMML NIL=
201012020515 METAR LMML 020515Z VRB02KT 9999 FEW030 14/13 Q1012 NOSIG=
201012020500 METAR LMML NIL=
201012020445 METAR LMML 020445Z 32004KT 9999 FEW030 14/13 Q1012 NOSIG=
201012020430 METAR LMML NIL=
201012020415 METAR LMML 020415Z 33004KT CAVOK 14/13 Q1012 NOSIG=
201012020400 METAR LMML NIL=
201012020345 METAR LMML 020345Z 32005KT CAVOK 14/13 Q1011 NOSIG=
201012020330 METAR LMML NIL=
201012020315 METAR LMML 020315Z 36003KT CAVOK 15/13 Q1011 NOSIG=
201012020300 METAR LMML NIL=
201012020245 METAR LMML 020245Z 35006KT CAVOK 15/13 Q1011 NOSIG=
201012020230 METAR LMML NIL=
201012020215 METAR LMML 020215Z 34004KT CAVOK 14/13 Q1011 NOSIG=
201012020145 METAR LMML 020145Z 34003KT CAVOK 15/13 Q1012 NOSIG=
201012020130 METAR LMML NIL=
201012020115 METAR LMML 020115Z 33004KT CAVOK 14/13 Q1012 NOSIG=
201012020100 METAR LMML NIL=
201012020045 METAR LMML 020045Z VRB02KT CAVOK 15/13 Q1012 NOSIG=
201012020030 METAR LMML NIL=
201012020015 METAR LMML 020015Z 33003KT CAVOK 15/13 Q1012 NOSIG=
201012020000 METAR LMML NIL=
201012012345 METAR LMML 012345Z 34003KT CAVOK 15/12 Q1012 NOSIG=
201012012330 METAR LMML NIL=
201012012315 METAR LMML 012315Z 33004KT CAVOK 15/13 Q1012 NOSIG=
201012012300 METAR LMML NIL=
201012012245 METAR LMML 012245Z 34005KT CAVOK 16/13 Q1012 NOSIG=
201012012230 METAR LMML NIL=
201012012215 METAR LMML 012215Z 34006KT 320V020 CAVOK 16/12 Q1011 NOSIG=
201012012200 METAR LMML NIL=
201012012145 METAR LMML 012145Z 33006KT CAVOK 16/13 Q1012 NOSIG=
201012012130 METAR LMML NIL=
201012012115 METAR LMML 012115Z 35005KT CAVOK 16/13 Q1011 NOSIG=
201012012100 METAR LMML NIL=
201012012045 METAR LMML 012045Z 34007KT CAVOK 17/13 Q1011 NOSIG=
201012012030 METAR LMML NIL=
201012012015 METAR LMML 012015Z 34008KT CAVOK 17/15 Q1011 NOSIG=
201012012000 METAR LMML NIL=
201012011945 METAR LMML 011945Z 34007KT CAVOK 17/15 Q1011 NOSIG=
201012011930 METAR LMML NIL=
201012011915 METAR LMML 011915Z 34004KT 250V020 CAVOK 17/15 Q1011 NOSIG=
201012011900 METAR LMML NIL=
201012011845 METAR LMML 011845Z 35009KT 310V020 CAVOK 18/15 Q1010 NOSIG=
201012011830 METAR LMML NIL=
201012011815 METAR LMML 011815Z 28005KT 240V310 CAVOK 19/15 Q1010 NOSIG=
201012011800 METAR LMML NIL=
201012011745 METAR LMML 011745Z 25009KT 220V290 CAVOK 20/14 Q1009 NOSIG=
201012011730 METAR LMML NIL=
201012011715 METAR LMML 011715Z 24010G20KT 200V280 CAVOK 21/13 Q1009 NOSIG=
201012011700 METAR LMML NIL=
201012011645 METAR LMML 011645Z 22008KT 200V270 CAVOK 21/13 Q1009 NOSIG=
201012011630 METAR LMML NIL=
201012011615 METAR LMML 011615Z 23008KT 190V270 9000 -SHRA NSC 21/14 Q1009
                        NOSIG=
201012011545 METAR LMML 011545Z 23007KT 190V270 9000 NSC 21/15 Q1008 NOSIG=
201012011530 METAR LMML NIL=
201012011515 METAR LMML 011515Z 23006KT 180V300 7000 NSC 21/14 Q1008 NOSIG=
201012011500 METAR LMML NIL=
201012011445 METAR LMML 011445Z 21006KT 160V260 7000 NSC 21/14 Q1007 NOSIG=
201012011430 METAR LMML NIL=
201012011415 METAR LMML 011415Z 24008KT 200V290 7000 NSC 21/14 Q1008 NOSIG=
201012011400 METAR LMML NIL=
201012011345 METAR LMML 011345Z 24008KT 200V280 7000 -RA NSC 21/14 Q1008
                        NOSIG=
201012011330 METAR LMML NIL=
201012011315 METAR LMML 011315Z 24008KT 190V290 8000 NSC 21/14 Q1008 NOSIG=
201012011300 METAR LMML NIL=
201012011245 METAR LMML 011245Z 23008KT 190V290 8000 NSC 22/15 Q1008 NOSIG=
201012011230 METAR LMML NIL=
201012011215 METAR LMML 011215Z 22009KT 180V260 9000 NSC 22/14 Q1008 NOSIG=
201012011200 METAR LMML NIL=
201012011145 METAR LMML 011145Z 21010KT 170V260 9000 NSC 21/15 Q1008 NOSIG=
201012011130 METAR LMML NIL=
201012011115 METAR LMML 011115Z 20007KT 170V250 9000 NSC 21/16 Q1008 NOSIG=
201012011100 METAR LMML NIL=
201012011045 METAR LMML 011045Z 21007KT 160V250 9000 NSC 21/16 Q1008 NOSIG=
201012011030 METAR LMML NIL=
201012011015 METAR LMML 011015Z 22008KT 180V270 CAVOK 21/15 Q1008 NOSIG=
201012011000 METAR LMML NIL=
201012010945 METAR LMML 010945Z 23011KT 200V270 9999 -SHRA NSC 21/15 Q1009
                        NOSIG=
201012010915 METAR LMML 010915Z 24012KT 200V270 CAVOK 22/15 Q1009 NOSIG=
201012010845 METAR LMML 010845Z 24011KT 200V290 CAVOK 22/14 Q1009 NOSIG=
201012010815 METAR LMML 010815Z 24013KT 200V270 CAVOK 22/14 Q1009 NOSIG=
201012010800 METAR LMML NIL=
201012010745 METAR LMML 010745Z 24013KT 190V280 CAVOK 22/14 Q1008 NOSIG=
201012010730 METAR LMML NIL=
201012010715 METAR LMML 010715Z 24011KT 190V270 CAVOK 22/15 Q1008 NOSIG=
201012010700 METAR LMML NIL=
201012010645 METAR LMML 010645Z 21011KT 180V260 CAVOK 21/16 Q1007 NOSIG=
201012010630 METAR LMML NIL=
201012010615 METAR LMML 010615Z 21010KT 160V250 CAVOK 21/15 Q1007 NOSIG=
201012010600 METAR LMML NIL=
201012010545 METAR LMML 010545Z 22008KT 180V260 CAVOK 21/15 Q1007 NOSIG=
201012010530 METAR LMML NIL=
201012010515 METAR LMML 010515Z 21010KT 160V270 CAVOK 21/15 Q1007 NOSIG=
201012010500 METAR LMML NIL=
201012010445 METAR LMML 010445Z 23012KT 200V260 CAVOK 22/15 Q1007 NOSIG=
201012010430 METAR LMML NIL=
201012010415 METAR LMML 010415Z 23011KT 200V280 CAVOK 21/15 Q1007 NOSIG=
201012010400 METAR LMML NIL=
201012010345 METAR LMML 010345Z 22012KT 170V260 CAVOK 21/15 Q1007 NOSIG=
201012010330 METAR LMML NIL=
201012010315 METAR LMML 010315Z 22011KT 180V250 CAVOK 21/15 Q1007 NOSIG=
201012010300 METAR LMML NIL=
201012010245 METAR LMML 010245Z 22013KT 180V250 CAVOK 22/14 Q1007 NOSIG=
201012010230 METAR LMML NIL=
201012010215 METAR LMML 010215Z 22011KT 180V270 CAVOK 22/14 Q1007 NOSIG=
201012010200 METAR LMML NIL=
201012010145 METAR LMML 010145Z 22014KT 180V260 CAVOK 22/14 Q1007 NOSIG=
201012010130 METAR LMML NIL=
201012010115 METAR LMML 010115Z 22011KT 190V260 CAVOK 21/14 Q1008 NOSIG=
201012010100 METAR LMML NIL=
201012010045 METAR LMML 010045Z 21010KT 170V240 CAVOK 21/15 Q1008 NOSIG=
201012010030 METAR LMML NIL=
201012010015 METAR LMML 010015Z 21011G21KT 180V270 CAVOK 21/15 Q1008 NOSIG=
201012010000 METAR LMML NIL=

###################################
#  short TAF from LMML
###################################
201012312300 TAF LMML 312300Z 0100/0109 VRB05KT 9999 FEW038=
201012312000 TAF LMML 312000Z 3121/0106 08005KT 9999 FEW030=
201012311700 TAF LMML 311700Z 3118/0103 12005KT 9999 FEW020=
201012311400 TAF LMML 311400Z 3115/3124 15006KT 9999 FEW035=
201012311100 TAF LMML 311100Z 3112/3121 16008KT 9999 FEW035=
201012310800 TAF LMML 310800Z 3109/3118 16010KT 9999 SCT030=
201012310500 TAF LMML 310500Z 3106/3115 17008KT 9999 SCT025=
201012310200 TAF LMML 310200Z 3103/3112 17008KT 9999 SCT025=
201012302300 TAF LMML 302300Z 3100/3109 16008KT 9999 SCT025=
201012302000 TAF LMML 302000Z 3021/3106 17008KT 9999 SCT030
                      PROB30 TEMPO 3021/3106 9000 BKN015=
201012301700 TAF LMML 301700Z 3018/3103 18008KT 9999 FEW018
                      PROB30 TEMPO 3021/3103 8000 BKN015=
201012301400 TAF LMML 301400Z 3015/3024 20007KT 9999 SCT020
                      PROB30 TEMPO 3021/3024 8000 BKN015=
201012301100 TAF LMML 301100Z 3012/3021 20005KT 9999 SCT025=
201012300800 TAF LMML NIL=
201012300500 TAF LMML 300500Z 3006/3015 15008KT 9999 SCT020=
201012300200 TAF LMML 300200Z 3003/3012 VRB03KT 9999 FEW025
                      TEMPO 3003/3006 7000
                      PROB30 TEMPO 3003/3006 2000 MIFG=
201012292300 TAF LMML 292300Z 3000/3009 VRB03KT 9999 FEW030
                      TEMPO 3000/3006 7000
                      PROB30 TEMPO 3002/3006 2000 MIFG=
201012292000 TAF LMML 292000Z 2921/3006 VRB03KT 9999 FEW030
                      TEMPO 3002/3006 7000
                      PROB30 TEMPO 3003/3006 3000 MIFG=
201012291700 TAF LMML 291700Z 2918/3003 27004KT 9999 FEW025=
201012291400 TAF LMML 291400Z 2915/2924 29010KT 9999 SCT030
                      BECMG 2919/2922 20004KT=
201012291100 TAF LMML 291100Z 2912/2921 29010KT 9999 SCT030
                      BECMG 2918/2921 23004KT=
201012290800 TAF LMML 290800Z 2909/2918 28008KT 9999 SCT030=
201012290500 TAF LMML 290500Z 2906/2915 33006KT 9999 FEW025=
201012290200 TAF LMML 290200Z 2903/2912 31005KT 9999 FEW025=
201012282300 TAF LMML 282300Z 2900/2909 30005KT 9999 FEW025=
201012282000 TAF LMML 282000Z 2821/2906 31008KT 9999 SCT025=
201012281700 TAF LMML 281700Z 2818/2903 31008KT 9999 SCT025=
201012281400 TAF LMML 281400Z 2815/2824 32010KT 9999 SCT025=
201012281100 TAF LMML 281100Z 2812/2821 33010KT 9999 SCT025=
201012280800 TAF LMML 280800Z 2809/2818 33008KT 9999 SCT025 SCT050=
201012280500 TAF LMML 280500Z 2806/2815 34008KT 9999 FEW025 SCT040=
201012280200 TAF LMML 280200Z 2803/2812 35008KT 9999 SCT025
                      PROB30 TEMPO 2806/2812 9000 SHRA=
201012272300 TAF LMML 272300Z 2800/2809 35007KT 9999 SCT025
                      PROB30 TEMPO 2806/2809 9000 SHRA=
201012272000 TAF LMML 272000Z 2721/2806 35005KT 9999 SCT030=
201012271700 TAF LMML 271700Z 2718/2803 36008KT 9999 FEW025=
201012271400 TAF LMML 271400Z 2715/2724 36008KT 9999 SCT025=
201012271100 TAF LMML 271100Z 2712/2721 33008KT 9999 SCT025=
201012270800 TAF LMML 270800Z 2709/2718 30010KT 9999 SCT025=
201012270500 TAF LMML 270500Z 2706/2715 31008KT 9999 SCT025 BKN070
                      TEMPO 2706/2709 8000 SHRA BKN015=
201012270200 TAF LMML 270200Z 2703/2712 31007KT 9999 FEW025
                      TEMPO 2703/2708 8000 SHRA
                      PROB30 TEMPO 2703/2706 5000 TSRA BKN015CB=
201012262300 TAF LMML 262300Z 2700/2709 31007KT 9999 FEW025
                      TEMPO 2700/2706 8000 SHRA
                      PROB30 TEMPO 2700/2706 5000 TSRA BKN015CB=
201012262000 TAF LMML 262000Z 2621/2706 32006KT 9999 FEW020
                      TEMPO 2621/2706 8000 SHRA
                      PROB30 TEMPO 2703/2706 5000 TSRA BKN015CB=
201012261700 TAF LMML 261700Z 2618/2703 29010KT 9999 SCT030
                      PROB30 TEMPO 2618/2703 8000 SHRA=
201012261400 TAF LMML 261400Z 2615/2624 29010KT 9999 SCT030
                      PROB30 TEMPO 2615/2624 8000 SHRA=
201012261100 TAF LMML 261100Z 2612/2621 28010KT 9999 SCT030=
201012260800 TAF LMML 260800Z 2609/2618 28010KT 9999 SCT030 SCT050
                      PROB30 TEMPO 2609/2618 9000 RA=
201012260500 TAF LMML 260500Z 2606/2615 28008KT 9999 FEW040 BKN050
                      PROB40 TEMPO 2606/2615 8000 RA=
201012260200 TAF LMML 260200Z 2603/2612 27008KT 9999 FEW035 BKN050
                      TEMPO 2603/2612 8000 SHRA BKN040TCU
                      PROB30 TEMPO 2606/2612 5000 TSRA BKN040CB=
201012252300 TAF LMML 252300Z 2600/2609 27008KT 9999 FEW030 BKN045
                      PROB40 TEMPO 2600/2609 8000 SHRA BKN030TCU
                       PROB30
                      TEMPO 2606/2609 5000 TSRA BKN040CB=
201012252000 TAF LMML 252000Z 2521/2606 27008KT 9999 FEW020 BKN045
                      PROB40 TEMPO 2521/2606 8000 SHRA BKN020TCU=
201012251700 TAF LMML 251700Z 2518/2603 26007KT 9999 FEW020 SCT040
                      PROB30 TEMPO 2518/2603 8000 SHRA BKN15 BKN040=
201012251400 TAF LMML 251400Z 2515/2524 28010KT 9999 SCT030 SCT060
                      PROB30 TEMPO 2515/2524 8000 SHRA BKN015 BKN050=
201012251100 TAF LMML 251100Z 2512/2521 28010KT 9999 FEW030 SCT070
                      PROB30 TEMPO 2512/2521 8000 SHRA=
201012250800 TAF LMML 250800Z 2509/2518 28012KT 9999 SCT025 SCT050
                      PROB30 TEMPO 2509/2518 27015G25KT 8000 SHRA
                       BKN015 BKN040=
201012250500 TAF LMML 250500Z 2506/2515 28012KT 9999 SCT030 SCT070
                      PROB30 TEMPO 2506/2515 9000 SHRA=
201012250200 TAF LMML 250200Z 2503/2512 28008KT 9999 SCT030 SCT070
                      PROB30 TEMPO 2503/2512 9000 SHRA=
201012242300 TAF LMML 242300Z 2500/2509 28010KT 9999 SCT030
                      PROB30 TEMPO 2500/2509 9000 SHRA=
201012242000 TAF LMML 242000Z 2421/2506 28013KT 9999 SCT030
                      PROB30 TEMPO 2421/2506 9000 SHRA=
201012241700 TAF LMML 241700Z 2418/2503 27015KT 9999 SCT020
                      PROB30 TEMPO 2418/2503 9000 SHRA=
201012241400 TAF LMML 241400Z 2415/2424 26020G30KT 9999 FEW025
                      BECMG 2417/2420 26018KT=
201012241100 TAF LMML 241100Z 2412/2421 24015G25KT 9999 FEW025
                      TEMPO 2412/2416 26025G35KT
                      BECMG 2415/2418 26015KT=
201012240800 TAF LMML 240800Z 2409/2418 21015KT 9999 FEW020
                      BECMG 2409/2412 24020KT=
201012240500 TAF LMML 240500Z 2406/2415 22017KT CAVOK
                      PROB30 TEMPO 2406/2415 8000 NSC
                      BECMG 2412/2415 28017KT=
201012240200 TAF LMML 240200Z 2403/2412 24017KT CAVOK
                      PROB30 TEMPO 2403/2412 8000 NSC=
201012232300 TAF LMML 232300Z 2400/2409 24013KT CAVOK
                      PROB30 TEMPO 2400/2409 8000 NSC=
201012232000 TAF LMML 232000Z 2321/2406 20010KT CAVOK
                      PROB30 TEMPO 2321/2406 8000 NSC=
201012231700 TAF LMML 231700Z 2318/2403 20010KT CAVOK=
201012231400 TAF LMML 231400Z 2315/2324 17015KT CAVOK
                      PROB40 TEMPO 2315/2324 8000 SCT008=
201012231100 TAF LMML 231100Z 2312/2321 17015KT CAVOK
                      PROB40 TEMPO 2312/2321 8000 SCT008=
201012230800 TAF LMML 230800Z 2309/2318 17015KT CAVOK
                      PROB40 TEMPO 2312/2318 8000 SCT008=
201012230500 TAF LMML 230500Z 2306/2315 17012KT CAVOK
                      PROB30 TEMPO 2306/2315 9999 FEW015=
201012230200 TAF LMML 230200Z 2303/2312 16010KT CAVOK
                      TEMPO 2303/2312 9999 FEW015
                      PROB30 TEMPO 2303/2306 9000 FEW010=
201012222300 TAF LMML 222300Z 2300/2309 17011KT CAVOK
                      TEMPO 2300/2309 9999 FEW012
                      PROB30 TEMPO 2300/2303 9000 SCT008=
201012222000 TAF LMML 222000Z 2221/2306 16008KT 9999 FEW005
                      PROB30 TEMPO 2221/2224 8000 BKN005
                      TEMPO 2300/2306 CAVOK=
201012221700 TAF LMML 221700Z 2218/2303 16007KT 9999 FEW005 BKN250
                      TEMPO 2218/2303 7000=
201012221400 TAF LMML 221400Z 2215/2224 17010KT 9999 FEW008=
201012221100 TAF LMML 221100Z 2212/2221 15010KT 9999 FEW010
                      TEMPO 2212/2221 8000 BKN010=
201012220800 TAF LMML 220800Z 2209/2218 16010KT 9999 SCT010
                      TEMPO 2209/2212 8000 BKN010=
201012220500 TAF LMML 220500Z 2206/2215 17010KT 9999 FEW014
                      BECMG 2206/2209 CAVOK=
201012220200 TAF LMML 220200Z 2203/2212 17010KT 9999 BKN008
                      TEMPO 2203/2212 SCT010
                      PROB40 TEMPO 2203/2207 9000 BKN005=
201012212300 TAF LMML 212300Z 2200/2209 17010KT 9999 BKN008
                      TEMPO 2200/2209 SCT010
                      PROB30 TEMPO 2200/2206 9000=
201012212000 TAF LMML 212000Z 2121/2206 VRB03KT 9999 SCT011
                      PROB40 TEMPO 2121/2206 8000 BKN009
                      BECMG 2123/2202 17010KT=
201012211700 TAF LMML 211700Z 2118/2203 22004KT 9999 FEW015
                      PROB30 TEMPO 2121/2203 8000 BKN010
                      BECMG 2123/2202 16012KT=
201012211400 TAF LMML 211400Z 2115/2124 25006KT 9999 FEW020
                      BECMG 2119/2122 17010KT
                      PROB30 TEMPO 2121/2124 9000 BKN010=
201012211100 TAF LMML 211100Z 2112/2121 28010KT 9999 FEW020
                      BECMG 2115/2118 19006KT=
201012210800 TAF LMML 210800Z 2109/2118 28010KT 9999 FEW020
                      BECMG 2115/2118 20006KT=
201012210500 TAF LMML 210500Z 2106/2115 28008KT 9999 SCT020=
201012210200 TAF LMML 210200Z 2103/2112 30007KT CAVOK
                      TEMPO 2103/2106 8000 FEW008
                      BECMG 2105/2107 9999 SCT020=
201012202300 TAF LMML 202300Z 2100/2109 28008KT 9999 FEW011
                      TEMPO 2102/2106 7000=
201012202000 TAF LMML 202000Z 2021/2106 30008KT 9999 FEW011
                      PROB30 TEMPO 2021/2106 8000 BKN008=
201012201700 TAF LMML 201700Z 2018/2103 31008KT 9999 SCT015
                      PROB40 TEMPO 2018/2021 CAVOK
                      PROB30 TEMPO 2020/2103 BKN010=
201012201400 TAF LMML 201400Z 2015/2024 30010KT CAVOK
                      TEMPO 2015/2024 9999 SCT015
                      PROB30 TEMPO 2018/2024 BKN010=
201012201100 TAF LMML 201100Z 2012/2021 32012KT CAVOK
                      TEMPO 2015/2021 9999 FEW015
                      PROB30 TEMPO 2018/2021 BKN012=
201012200800 TAF LMML 200800Z 2009/2018 26008KT CAVOK
                      BECMG 2012/2015 32012KT=
201012200500 TAF LMML 200500Z 2006/2015 25010KT CAVOK
                      BECMG 2012/2015 31013KT=
201012200200 TAF LMML 200200Z 2003/2012 25010KT CAVOK=
201012192300 TAF LMML 192300Z 2000/2009 24008KT CAVOK=
201012192000 TAF LMML 192000Z 1921/2006 24008KT CAVOK=
201012191700 TAF LMML 191700Z 1918/2003 22008KT CAVOK=
201012191400 TAF LMML 191400Z 1915/1924 22008KT CAVOK=
201012191100 TAF LMML 191100Z 1912/1921 22010KT CAVOK=
201012190800 TAF LMML 190800Z 1909/1918 21012KT CAVOK=
201012190500 TAF LMML 190500Z 1906/1915 20010KT CAVOK
                      PROB30 TEMPO 1906/1915 9999 FEW030=
201012190200 TAF LMML 190200Z 1903/1912 22010KT CAVOK
                      PROB30 TEMPO 1903/1912 9999 FEW030=
201012182300 TAF LMML 182300Z 1900/1909 22010KT CAVOK
                      PROB30 TEMPO 1900/1909 9999 FEW030=
201012182000 TAF LMML 182000Z 1821/1906 22010KT CAVOK
                      PROB30 TEMPO 1821/1906 9999 FEW030=
201012181700 TAF LMML 181700Z 1818/1903 23008KT 9999 FEW030=
201012181400 TAF LMML 181400Z 1815/1824 23010KT 9999 SCT030=
201012181100 TAF LMML 181100Z 1812/1821 23014KT 9999 SCT030 SCT100=
201012180800 TAF LMML 180800Z 1809/1818 23014G24KT 9999 SCT030
                      BECMG 1811/1814 23014KT=
201012180500 TAF LMML 180500Z 1806/1815 25023KT 9999 FEW040
                      TEMPO 1806/1815 24023G33KT CAVOK=
201012180200 TAF LMML 180200Z 1803/1812 25023KT 9999 FEW040
                      TEMPO 1803/1812 24023G33KT
                      PROB40 TEMPO 1807/1812 CAVOK=
201012172300 TAF LMML 172300Z 1800/1809 25022KT 9999 FEW035 BKN045
                      TEMPO 1800/1809 24020G30KT=
201012172000 TAF LMML 172000Z 1721/1806 25020KT 9999 SCT035
                      PROB30 TEMPO 1800/1806 25018G28KT=
201012171700 TAF LMML 171700Z 1718/1803 29008KT 9999 SCT035
                      BECMG 1718/1721 24018KT=
201012171400 TAF LMML 171400Z 1715/1724 30012KT 9999 SCT035
                      BECMG 1716/1719 24018KT=
201012171100 TAF LMML 171100Z 1712/1721 30016KT 9999 SCT035
                      BECMG 1716/1719 24017KT=
201012170800 TAF LMML 170800Z 1709/1718 30016KT 9999 SCT040
                      PROB30 TEMPO 1709/1712 9000 SHRA=
201012170500 TAF LMML 170500Z 1706/1715 30015KT 9999 SCT025
                      TEMPO 0706/0712 8000 SHRA BKN015=
201012170200 TAF LMML 170200Z 1703/1712 29015KT 9999 SCT020 BKN050
                      TEMPO 1703/1709 8000 SHRA BKN015
                      PROB30 TEMPO 1703/1706 5000 TSGR BKN015CB=
201012162300 TAF LMML 162300Z 1700/1709 30015KT 9999 SCT020
                      TEMPO 1700/1709 8000 SHRA BKN015
                      PROB40 TEMPO 1700/1706 5000 TSGR BKN015CB=
201012162000 TAF LMML 162000Z 1621/1706 31015KT 9999 SCT020
                      TEMPO 1621/1706 8000 SHRA
                      PROB40 TEMPO 1621/1706 5000 TSGR BKN015CB=
201012161700 TAF LMML 161700Z 1618/1703 29013KT 9999 SCT020
                      TEMPO 1618/1703 8000 SHRA BKN015TCU
                      PROB40 TEMPO 1621/1703 5000 TSGS BKN008 BKN015CB=
201012161400 TAF LMML 161400Z 1615/1624 29015KT 9999 SCT020
                      TEMPO 1615/1624 8000 SHRA BKN015TCU
                      PROB30 TEMPO 1620/1624 5000 TSGS BKN008 BKN015CB=
201012161100 TAF COR LMML 161100Z 1612/1621 30016KT 9999 SCT030
                      TEMPO 1612/1621 8000 SHRA BKN020TCU
                      PROB30 TEMPO 1612/1621 31016G26KT
                      PROB30 TEMPO 1618/1621 5000 TSRA BKN015CB=
201012160800 TAF LMML 160800Z 1609/1618 31018KT 9999 SCT025
                      PROB40 TEMPO 1609/1618 8000 SHRA BKN020TCU
                       PROB30
                      TEMPO 1609/1616 32016G26KT=
201012160500 TAF LMML 160500Z 1606/1615 31017KT 9999 FEW030
                      PROB30 TEMPO 1606/1615 8000 SHRA BKN020TCU
                       PROB40
                      TEMPO 1606/1615 31017G27KT=
201012160200 TAF LMML 160200Z 1603/1612 29017KT 9999 FEW030
                      PROB30 TEMPO 1603/1612 8000 SHRA BKN018TCU=
201012152300 TAF LMML 152300Z 1600/1609 29017KT 9999 FEW030
                      PROB30 TEMPO 1600/1609 8000 SHRA BKN018TCU=
201012152000 TAF LMML 152000Z 1521/1606 29015KT 9999 FEW030
                      PROB30 TEMPO 1521/1606 8000 SHRA BKN018TCU=
201012151700 TAF LMML 151700Z 1518/1603 30013KT 9999 FEW025 SCT100
                      TEMPO 1518/1603 8000 SHRA BKN018TCU=
201012151400 TAF LMML 151400Z 1515/1524 32010KT 9999 FEW025
                      TEMPO 1518/1524 8000 SHRA BKN018TCU
                      PROB30 1518/15245000 TSGR BKN015CB=
201012151100 TAF LMML 151100Z 1512/1521 33010KT 9999 SCT025
                      TEMPO 1512/1521 30015KT 8000 SHRA BKN018TCU
                       PROB30
                      TEMPO 1518/1521 5000 TSGR BKN015CB=
201012150800 TAF LMML 150800Z 1509/1518 33010KT 9999 SCT025
                      TEMPO 1509/1518 8000 SHRA BKN018TCU
                      PROB30TEMPO 1512/1518 33015KT 5000 TSGR BKN015CB=
201012150500 TAF LMML 150500Z 1506/1515 03008KT 9999 FEW030 SCT050
                      TEMPO 1506/1515 8000 SHRA BKN015 BKN040
                      PROB30 TEMPO 1506/1515 3000 TSRA BKN015CB
                       BKN040
                      BECMG 1506/1509 30010KT=
201012150200 TAF LMML 150200Z 1503/1512 31008KT 9999 FEW030 SCT060
                      TEMPO 1503/1512 8000 SHRA BKN015 BKN050
                      PROB30 TEMPO 1503/1512 3000 TSRA BKN015CB
                       BKN040=
201012142300 TAF LMML 142300Z 1500/1509 30008KT 9999 SCT025 SCT050
                      TEMPO 1500/1509 8000 RA BKN015 BKN040
                      PROB30 TEMPO 1500/1509 3000 TSRA BKN015CB
                       BKN040=
201012142000 TAF LMML 142000Z 1421/1506 30008KT 9999 FEW025 SCT050
                      TEMPO 1421/1506 8000 RA
                      PROB30 TEMPO 1421/1506 3000 TSRA BKN015CB
                       BKN040=
201012141700 TAF LMML 141700Z 1418/1503 30010KT 9999 SCT030 SCT050
                      TEMPO 1418/1503 8000 SHRA
                      PROB30 TEMPO 1421/1503 5000 TSRA BKN015CB=
201012141400 TAF LMML 141400Z 1415/1424 30010KT 9999 SCT035 SCT050
                      TEMPO 1418/1424 8000 SHRA
                      PROB30 TEMPO 1421/1424 5000 TSRA BKN015CB=
201012141100 TAF LMML 141100Z 1412/1421 30012KT 9999 SCT035 SCT050
                      PROB30 TEMPO 1418/1421 8000 SHRA=
201012140800 TAF LMML 140800Z 1409/1418 30012KT 9999 SCT030=
201012140500 TAF LMML 140500Z 1406/1415 30010KT 9999 SCT025 BKN250=
201012140200 TAF LMML 140200Z 1403/1412 30010KT 9999 SCT030 BKN250=
201012132300 TAF LMML 132300Z 1400/1409 30008KT 9999 FEW030 BKN250=
201012132000 TAF LMML 132000Z 1321/1406 30008KT 9999 FEW025 BKN250=
201012131700 TAF LMML 131700Z 1318/1403 31013KT 9999 FEW030=
201012131400 TAF LMML 131400Z 1315/1324 29017KT 9999 SCT025
                      BECMG 1320/1323 35007KT=
201012131100 TAF LMML 131100Z 1312/1321 29016KT 9999 SCT025
                      PROB30 TEMPO 1312/1315 30018G28KT=
201012130800 TAF LMML 130800Z 1309/1318 30015KT 9999 SCT030
                      PROB30 TEMPO 1309/1315 30018G28KT=
201012130500 TAF LMML 130500Z 1306/1315 29018KT 9999 SCT030=
201012130200 TAF LMML 130200Z 1303/1312 28015KT 9999 SCT030=
201012122300 TAF LMML 122300Z 1300/1309 27015KT 9999 SCT030=
201012122000 TAF LMML 122000Z 1221/1306 25013KT 9999 SCT030=
201012121700 TAF LMML 121700Z 1218/1303 26012KT 9999 FEW025 SCT040=
201012121400 TAF LMML 121400Z 1215/1224 25015KT 9999 FEW030 SCT050=
201012121100 TAF LMML 121100Z 1212/1221 26014KT 9999 SCT025 BKN045=
201012120800 TAF LMML 120800Z 1209/1218 30010KT 9999 SCT025 BKN040
                      BECMG 1212/1215 24012KT=
201012120500 TAF LMML 120500Z 1206/1215 28012KT 9999 SCT045
                      TEMPO 1206/1215 CAVOK=
201012120200 TAF LMML 120200Z 1203/1212 28010KT 9999 SCT030=
201012112300 TAF LMML 112300Z 1200/1209 29008KT 9999 SCT030
                      TEMPO 1200/1203 CAVOK=
201012112000 TAF LMML 112000Z 1121/1206 30008KT 9999 FEW030
                      TEMPO 1121/1203 CAVOK=
201012111700 TAF COR LMML 111700Z 1118/1203 30006KT CAVOK
                      TEMPO 1118/1203 9999 FEW045=
201012111400 TAF LMML 111400Z 1115/1124 33012KT CAVOK
                      TEMPO 1115/1124 9999 FEW045=
201012111100 TAF LMML 111100Z 1112/1121 33015KT 9999 FEW045
                      TEMPO 1112/1121 CAVOK=
201012110800 TAF LMML 110800Z 1109/1118 34013KT 9999 FEW045
                      TEMPO 1109/1118 CAVOK=
201012110500 TAF LMML 110500Z 1106/1115 34013KT 9999 FEW040
                      BECMG 1106/1109 CAVOK=
201012110200 TAF LMML 110200Z 1103/1112 34014KT CAVOK
                      TEMPO 1103/1109 9999 FEW040=
201012102300 TAF LMML 102300Z 1100/1109 35014KT 9999 FEW040
                      PROB30 TEMPO 1104/1107 34015G25KT 8000 SHRA=
201012102000 TAF LMML 102000Z 1021/1106 34015KT 9999 FEW035
                      PROB30 TEMPO 1021/1024 35015G25KT=
201012101700 TAF LMML 101700Z 1018/1103 34018KT 9999 FEW035=
201012101400 TAF LMML 101400Z 1015/1024 31027G38KT 9999 FEW025
                      BECMG 1016/1019 34018KT=
201012101100 TAF LMML 101100Z 1012/1021 31027G40KT 9999 FEW020
                      BECMG 1016/1019 34018KT=
201012100800 TAF LMML 100800Z 1009/1018 31025G40KT 9999 FEW020=
201012100500 TAF LMML 100500Z 1006/1015 30026G36KT CAVOK
                      TEMPO 1006/1015 9999 FEW015=
201012100200 TAF LMML 100200Z 1003/1012 29020KT CAVOK
                      TEMPO 1003/1012 9999 FEW015
                      BECMG 1004/1007 30025G35KT=
201012092300 TAF LMML 092300Z 1000/1009 29020KT CAVOK
                      PROB40 TEMPO 1003/1009 9999 FEW015
                      BECMG 1004/1007 29024G34KT=
201012092000 TAF LMML 092000Z 0921/1006 29018KT CAVOK
                      BECMG 1003/1006 29023G33KT
                      PROB40 TEMPO 1003/1006 9999 SCT015=
201012091700 TAF LMML 091700Z 0918/1003 29013KT CAVOK
                      TEMPO 0918/1003 28015G25KT 9999 FEW015
                      PROB30 TEMPO 1000/1003 28025G35KT 9999 SCT010=
201012091400 TAF LMML 091400Z 0915/0924 24008KT CAVOK
                      TEMPO 0915/0924 9999 FEW020
                      BECMG 0915/0918 30013KT
                      PROB30 TEMPO 0920/0924 28015G25KT=
201012091100 TAF LMML 091100Z 0912/0921 24009KT CAVOK
                      TEMPO 0912/0921 9999 FEW020
                      BECMG 0916/0919 30013KT=
201012090800 TAF LMML 090800Z 0909/0918 26011KT CAVOK
                      TEMPO 0909/0918 9999 FEW020=
201012090500 TAF LMML 090500Z 0906/0915 28012KT CAVOK=
201012090200 TAF LMML 090200Z 0903/0912 26008KT CAVOK=
201012082300 TAF LMML 082300Z 0900/0909 24010KT CAVOK
                      PROB30 TEMPO 0903/0906 30010KT 8000 FEW008=
201012082000 TAF LMML 082000Z 0821/0906 VRB03KT CAVOK
                      PROB40 TEMPO 0821/0906 8000 SCT004
                      BECMG 0800/0903 30006KT=
201012081700 TAF LMML 081700Z 0818/0903 26005KT CAVOK
                      PROB40 TEMPO 0821/0903 9000 NSC
                      PROB30 TEMPO 0821/0903 FEW003=
201012081400 TAF LMML 081400Z 0815/0824 25008KT CAVOK
                      PROB30 TEMPO 0818/0824 9999 FEW005
                      PROB40 TEMPO 0821/0824 8000 NSC=
201012081100 TAF LMML 081100Z 0812/0821 24008KT CAVOK
                      PROB30 TEMPO 0818/0821 9999 FEW010=
201012080800 TAF LMML 080800Z 0809/0818 24010KT CAVOK=
201012080500 TAF LMML 080500Z 0806/0815 23008KT CAVOK
                      PROB30 TEMPO 0806/0815 9999 FEW020=
201012080300 TAF AMD LMML 080300Z 0803/0812 23008KT CAVOK
                      TEMPO 0803/0807 9000 SCT004
                      PROB30 TEMPO 0803/0806 BKN004=
201012080200 TAF LMML 080200Z 0803/0812 23008KT CAVOK
                      PROB30 083/0806 9000 NSC=
201012072300 TAF LMML 072300Z 0800/0809 23006KT CAVOK
                      TEMPO 0800/0806 9000 NSC=
201012072000 TAF LMML 072000Z 0721/0806 23006KT CAVOK
                      PROB30 TEMPO 0723/0806 9000 NSC=
201012071700 TAF LMML 071700Z 0718/0803 23005KT CAVOK
                      TEMPO 0718/0803 9000 NSC
                      PROB30 TEMPO 0721/0803 5000 BR SCT005=
201012071400 TAF LMML 071400Z 0715/0724 23008KT CAVOK
                      TEMPO 0715/0718 9999 FEW020=
201012071100 TAF LMML 071100Z 0712/0721 22007KT CAVOK
                      TEMPO 0712/0718 9999 FEW020=
201012070800 TAF LMML 070800Z 0709/0718 26006KT CAVOK
                      TEMPO 0709/0718 9999 FEW020=
201012070500 TAF LMML 070500Z 0706/0715 21008KT CAVOK=
201012070200 TAF LMML 070200Z 0703/0712 21008KT CAVOK=
201012062300 TAF LMML 062300Z 0700/0709 21007KT CAVOK=
201012062000 TAF LMML 062000Z 0621/0706 21008KT 9999 FEW028=
201012061700 TAF LMML 061700Z 0618/0703 21010KT 9999 FEW025=
201012061400 TAF LMML 061400Z 0615/0624 22012KT 9999 FEW028=
201012061100 TAF LMML 061100Z 0612/0621 22012KT 9999 FEW028=
201012060800 TAF LMML 060800Z 0609/0618 22012KT 9999 FEW028=
201012060500 TAF LMML 060500Z 0606/0615 23015KT 9999 FEW030=
201012060200 TAF LMML 060200Z 0603/0612 22014KT 9999 FEW025=
201012052300 TAF LMML 052300Z 0600/0609 23012KT 9999 SCT025=
201012052000 TAF LMML 052000Z 0521/0606 24010KT 9999 SCT030=
201012051700 TAF LMML 051700Z 0518/0603 24008KT 9999 SCT030 BKN200=
201012051400 TAF LMML 051400Z 0515/0524 24006KT 9999 SCT030 SCT040=
201012051100 TAF LMML 051100Z 0512/0521 32007KT 9999 SCT030 SCT050=
201012050800 TAF LMML 050800Z 0509/0518 30005KT 9999 SCT030 SCT060=
201012050500 TAF LMML 050500Z 0506/0515 30010KT 9999 FEW035
                      BECMG 0512/0515 24008KT=
201012050200 TAF LMML 050200Z 0503/0512 30008KT 9999 SCT030
                      PROB30 TEMPO 0503/0506 8000 SHRA BKN018=
201012042300 TAF LMML 042300Z 0500/0509 31010KT 9999 SCT030
                      PROB30 TEMPO 0500/0506 8000 RA BKN018=
201012042000 TAF LMML 042000Z 0421/0506 31010KT 9999 SCT030
                      PROB30 TEMPO 0421/0506 8000 RA BKN018=
201012041700 TAF LMML 041700Z 0418/0503 31012KT 9999 SCT030
                      PROB30 TEMPO 0418/0503 9000 RA=
201012041400 TAF LMML 041400Z 0415/0424 31014KT 9999 SCT035
                      PROB30 TEMPO 0415/0424 9000 RA=
201012041100 TAF LMML 041100Z 0412/0421 31016KT 9999 SCT035
                      PROB30 TEMPO 0418/0421 9000 RA=
201012040800 TAF LMML 040800Z 0409/0418 31017KT 9999 SCT030=
201012040500 TAF LMML 040500Z 0406/0415 31016KT 9999 SCT025
                      TEMPO 0406/0415 8000 SHRA=
201012040200 TAF LMML 040200Z 0403/0412 31016KT 9999 SCT020 BKN040
                      TEMPO 0403/0412 7000 SHRA BKN015=
201012032300 TAF LMML 032300Z 0400/0409 32012KT 9999 SCT020
                      TEMPO 0400/0409 7000 SHRA BKN015=
201012032000 TAF COR LMML 032000Z 0321/0406 33010KT 9999 SCT025
                      TEMPO 0321/0406 8000 SHRA BKN015=
201012031700 TAF LMML 031700Z 0318/0403 30012KT 9999 FEW018 SCT030
                      TEMPO 0318/0403 8000 RA SCT015 BKN025
                      PROB30 TEMPO 0318/0400 FEW008 BKN015CB=
201012031400 TAF LMML 031400Z 0315/0324 30012KT 9999 FEW025 SCT070
                      TEMPO 8000 RA FEW008 SCT015 BKN030
                      PROB30 TEMPO 0315/0324 5000 TSRA SCT008 BKN030CB=
201012031100 TAF LMML 031100Z 0312/0321 30010KT 9999 FEW025 SCT100
                      TEMPO 0312/0321 8000 RA SCT015 BKN040 PTOB30
                       TEMPO 0315/0321 5000 TSRA FEW008 BKN030CB=
201012030800 TAF COR LMML 030800Z 0309/0318 32010KT 9999 SCT018 SCT050
                      TEMPO 0309/0312 8000 RA SCT015 BKN040
                      PROB30 TEMPO 0312/0318 5000 TSRA FEW008 BKN030CB=
201012030500 TAF LMML 030500Z 0306/0315 27010KT CAVOK
                      TEMPO 0306/0315 9999 SCT020
                      BECMG 0309/0312 36010KT
                      TEMPO 0312/0315 7000 SHRA=
201012030200 TAF LMML 030200Z 0303/0312 19008KT CAVOK
                      PROB30 TEMPO 0303/0312 9999 FEW020
                      BECMG 0304/0307 30012KT=
201012022300 TAF LMML 022300Z 0300/0309 19006KT CAVOK
                      PROB30 TEMPO 0300/0309 9999 FEW020
                      BECMG 0304/0307 29010KT=
201012022000 TAF LMML 022000Z 0221/0306 17005KT CAVOK
                      PROB30 TEMPO 0221/0306 9999 FEW020
                      BECMG 0303/0306 26010KT=
201012021700 TAF LMML 021700Z 0218/0303 03005KT CAVOK
                      BECMG 0300/0303 18010KT=
201012021400 TAF LMML 021400Z 0215/0224 02008KT CAVOK
                      BECMG 0218/0221 12010KT 9999 FEW012 SCT040=
201012021100 TAF LMML 021100Z 0212/0221 36008KT CAVOK
                      BECMG 0218/0221 12010KT=
201012020800 TAF LMML 020800Z 0209/0218 33008KT CAVOK
                      PROB3O TEMPO 0209/0218 9000 RA FEW011 BKN100=
201012020500 TAF LMML 020500Z 0206/0215 VRB06KT CAVOK
                      PROB40 TEMPO 0206/0215 9999 FEW020=
201012020200 TAF LMML 020200Z 0203/0212 34006KT CAVOK
                      PROB30 TEMPO 0203/0207 9999 FEW008=
201012012300 TAF LMML 012300Z 0200/0209 34006KT CAVOK
                      PROB30 TEMPO 0200/0207 9999 FEW008=
201012012000 TAF LMML 012000Z 0121/0206 35005KT CAVOK
                      PROB30 TEMPO 0121/0206 9999 FEW008=
201012011700 TAF LMML 011700Z 0118/0203 24010KT CAVOK
                      TEMPO 0118/0124 8000 NSC
                      BECMG 0118/0121 33005KT
                      PROB40 TEMPO 0118/0203 9999 FEW015=
201012011400 TAF LMML 011400Z 0115/0124 24010KT CAVOK
                      TEMPO 0115/0124 8000 NSC
                      BECMG 0119/0122 33005KT
                      PROB40 TEMPO 9999 FEW012=
201012011100 TAF LMML 011100Z 0112/0121 24015KT CAVOK
                      PROB30 TEMPO 0112/0121 9000 NSC
                      BECMG 0119/0121 33005KT
                      PROB40 TEMPO 0119/0121 9999 FEW012=
201012010800 TAF LMML 010800Z 0109/0118 24015KT CAVOK=
201012010500 TAF LMML 010500Z 0106/0115 22018KT CAVOK=
201012010200 TAF LMML 010200Z 0103/0112 20015KT CAVOK
                      PROB30 TEMPO 0103/0106 8000 FEW012 BKN100=

###################################
#  large TAF from LMML
###################################
201012312300 TAF LMML NIL=
201012311700 TAF LMML NIL=
201012311100 TAF LMML NIL=
201012310500 TAF LMML NIL=
201012302300 TAF LMML NIL=
201012301700 TAF LMML NIL=
201012301100 TAF LMML NIL=
201012300500 TAF LMML NIL=
201012292300 TAF LMML NIL=
201012291700 TAF LMML NIL=
201012291100 TAF LMML NIL=
201012290500 TAF LMML NIL=
201012282300 TAF LMML NIL=
201012281700 TAF LMML NIL=
201012281100 TAF LMML NIL=
201012280500 TAF LMML NIL=
201012272300 TAF LMML NIL=
201012271700 TAF LMML NIL=
201012271100 TAF LMML NIL=
201012270500 TAF LMML NIL=
201012262300 TAF LMML NIL=
201012261700 TAF LMML NIL=
201012261100 TAF LMML NIL=
201012260500 TAF LMML NIL=
201012252300 TAF LMML NIL=
201012251700 TAF LMML NIL=
201012251100 TAF LMML NIL=
201012250500 TAF LMML NIL=
201012242300 TAF LMML NIL=
201012241700 TAF LMML NIL=
201012241100 TAF LMML NIL=
201012240500 TAF LMML NIL=
201012232300 TAF LMML NIL=
201012231700 TAF LMML NIL=
201012231100 TAF LMML NIL=
201012230500 TAF LMML NIL=
201012222300 TAF LMML NIL=
201012221700 TAF LMML NIL=
201012221100 TAF LMML NIL=
201012220500 TAF LMML NIL=
201012212300 TAF LMML NIL=
201012211700 TAF LMML NIL=
201012211100 TAF LMML NIL=
201012210500 TAF LMML NIL=
201012202300 TAF LMML NIL=
201012201700 TAF LMML NIL=
201012201100 TAF LMML NIL=
201012200500 TAF LMML NIL=
201012192300 TAF LMML NIL=
201012191700 TAF LMML NIL=
201012191100 TAF LMML NIL=
201012190500 TAF LMML NIL=
201012182300 TAF LMML NIL=
201012181700 TAF LMML NIL=
201012181100 TAF LMML NIL=
201012180500 TAF LMML NIL=
201012172300 TAF LMML NIL=
201012171700 TAF LMML NIL=
201012171100 TAF LMML NIL=
201012170500 TAF LMML NIL=
201012162300 TAF LMML NIL=
201012161700 TAF LMML NIL=
201012161100 TAF LMML NIL=
201012160500 TAF LMML NIL=
201012152300 TAF LMML NIL=
201012151700 TAF LMML NIL=
201012151100 TAF LMML NIL=
201012150500 TAF LMML NIL=
201012142300 TAF LMML NIL=
201012141700 TAF LMML NIL=
201012141100 TAF LMML NIL=
201012140500 TAF LMML NIL=
201012132300 TAF LMML NIL=
201012131700 TAF LMML NIL=
201012131100 TAF LMML NIL=
201012130500 TAF LMML NIL=
201012122300 TAF LMML NIL=
201012121700 TAF LMML NIL=
201012121100 TAF LMML NIL=
201012120500 TAF LMML NIL=
201012112300 TAF LMML NIL=
201012111700 TAF LMML NIL=
201012111100 TAF LMML NIL=
201012110500 TAF LMML NIL=
201012102300 TAF LMML NIL=
201012101700 TAF LMML NIL=
201012101100 TAF LMML NIL=
201012100500 TAF LMML NIL=
201012092300 TAF LMML NIL=
201012091700 TAF LMML NIL=
201012091100 TAF LMML NIL=
201012090500 TAF LMML NIL=
201012082300 TAF LMML NIL=
201012081700 TAF LMML NIL=
201012081100 TAF LMML NIL=
201012080500 TAF LMML NIL=
201012072300 TAF LMML NIL=
201012071700 TAF LMML NIL=
201012071100 TAF LMML NIL=
201012070500 TAF LMML NIL=
201012062300 TAF LMML NIL=
201012061700 TAF LMML NIL=
201012061100 TAF LMML NIL=
201012060500 TAF LMML NIL=
201012052300 TAF LMML NIL=
201012051700 TAF LMML NIL=
201012051100 TAF LMML NIL=
201012050500 TAF LMML NIL=
201012042300 TAF LMML NIL=
201012041100 TAF LMML NIL=
201012040500 TAF LMML NIL=
201012032300 TAF LMML NIL=
201012031700 TAF LMML NIL=
201012031100 TAF LMML NIL=
201012030500 TAF LMML NIL=
201012022300 TAF LMML NIL=
201012021700 TAF LMML NIL=
201012021100 TAF LMML NIL=
201012020500 TAF LMML NIL=
201012012300 TAF LMML NIL=
201012011700 TAF LMML NIL=
201012011100 TAF LMML NIL=
201012010500 TAF LMML NIL=
