##########################################################
# Query made at 12/28/2012 16:19:08 UTC
# Time interval: from 12/01/2012 00:00  to 12/31/2012 23:59  UTC
##########################################################

##########################################################
# LMML, Luqa (Malta)
# WMO index: 16597
# Latitude 35-51N. Longitude 014-29E. Altitude 91 m.
##########################################################

###################################
#  METAR/SPECI from LMML
###################################
201212281600 METAR LMML NIL=
201212281545 METAR LMML 281545Z 32016KT 9999 FEW023 15/10 Q1019 NOSIG=
201212281530 METAR LMML NIL=
201212281515 METAR LMML 281515Z 32017KT 9999 FEW025 15/10 Q1019 NOSIG=
201212281500 METAR LMML NIL=
201212281445 METAR LMML 281445Z 32019KT 9999 FEW025 16/10 Q1019 NOSIG=
201212281430 METAR LMML NIL=
201212281415 METAR LMML 281415Z 32017KT 9999 FEW023 15/11 Q1019 NOSIG=
201212281400 METAR LMML NIL=
201212281345 METAR LMML 281345Z 32022KT 9999 SCT021 16/11 Q1019 NOSIG=
201212281330 METAR LMML NIL=
201212281315 METAR LMML 281315Z 32022KT 9999 BKN023 16/11 Q1019 NOSIG=
201212281300 METAR LMML NIL=
201212281245 METAR LMML 281245Z AUTO 32018KT 9999NDV FEW024/// SCT035///
                        BKN044/// 16/11 Q1020=
201212281230 METAR LMML NIL=
201212281215 METAR LMML 281215Z AUTO 32021KT 9999NDV FEW023/// BKN041///
                        BKN047/// 17/11 Q1020=
201212281200 METAR LMML NIL=
201212281145 METAR LMML 281145Z 32020KT 9999 BKN023 17/11 Q1020 NOSIG=
201212281130 METAR LMML NIL=
201212281115 METAR LMML 281115Z 32019KT 9999 BKN024 17/11 Q1021 NOSIG=
201212281100 METAR LMML NIL=
201212281045 METAR LMML 281045Z 33019KT 9999 SCT025 17/11 Q1022 NOSIG=
201212281030 METAR LMML NIL=
201212281015 METAR LMML 281015Z 33017KT 9999 SCT024 16/11 Q1022 NOSIG=
201212281000 METAR LMML NIL=
201212280945 METAR LMML 280945Z 33017KT CAVOK 16/11 Q1022 NOSIG=
201212280930 METAR LMML NIL=
201212280915 METAR LMML 280915Z 33015KT 9999 SCT023 16/12 Q1022 NOSIG=
201212280900 METAR LMML NIL=
201212280845 METAR LMML 280845Z AUTO 33015KT 9999NDV BKN020/// BKN025///
                        BKN028/// 16/12 Q1022=
201212280830 METAR LMML NIL=
201212280815 METAR LMML 280815Z AUTO 33014KT 9999NDV FEW024/// 15/11 Q1022=
201212280800 METAR LMML NIL=
201212280745 METAR LMML 280745Z 33013KT 9999 FEW025 14/11 Q1022 NOSIG=
201212280715 METAR LMML 280715Z 33011KT 9999 FEW025 14/11 Q1022 NOSIG=
201212280700 METAR LMML NIL=
201212280645 METAR LMML 280645Z 32008KT 9999 FEW021 13/10 Q1022 NOSIG=
201212280630 METAR LMML NIL=
201212280615 METAR LMML 280615Z 32008KT 9999 FEW020 12/10 Q1022 NOSIG=
201212280600 METAR LMML NIL=
201212280545 METAR LMML 280545Z 32009KT 9999 FEW018 12/10 Q1022 NOSIG=
201212280530 METAR LMML NIL=
201212280515 METAR LMML 280515Z 32008KT 9999 FEW018 12/10 Q1022 NOSIG=
201212280500 METAR LMML NIL=
201212280445 METAR LMML 280445Z 33009KT 9999 FEW018 12/11 Q1021 NOSIG=
201212280430 METAR LMML NIL=
201212280415 METAR LMML 280415Z 33009KT 9999 FEW015 12/11 Q1021 NOSIG=
201212280400 METAR LMML NIL=
201212280345 METAR LMML 280345Z 33009KT 9999 FEW016 13/11 Q1021 NOSIG=
201212280330 METAR LMML NIL=
201212280315 METAR LMML 280315Z AUTO 33009KT CAVOK 13/11 Q1022=
201212280300 METAR LMML NIL=
201212280245 METAR LMML 280245Z AUTO 32009KT 9999NDV FEW016/// 13/11 Q1022=
201212280230 METAR LMML NIL=
201212280215 METAR LMML 280215Z AUTO 32009KT 9999NDV FEW015/// 13/11 Q1022=
201212280200 METAR LMML NIL=
201212280145 METAR LMML 280145Z AUTO 34009KT CAVOK 13/11 Q1022=
201212280130 METAR LMML NIL=
201212280115 METAR LMML 280115Z AUTO 35011KT 9999NDV SCT012/// BKN019///
                        BKN023/// 14/11 Q1022=
201212280100 METAR LMML NIL=
201212280045 METAR LMML 280045Z AUTO 35011KT 9999NDV BKN018/// BKN020///
                        BKN024/// 14/12 Q1022=
201212280030 METAR LMML NIL=
201212280015 METAR LMML 280015Z AUTO 35011KT 9999NDV FEW016/// SCT036///
                        14/12 Q1022=
201212280000 METAR LMML NIL=
201212272345 METAR LMML 272345Z AUTO 34011KT 9999NDV FEW018/// 13/11 Q1022=
201212272330 METAR LMML NIL=
201212272315 METAR LMML 272315Z AUTO 34011KT 9999NDV FEW014/// 13/11 Q1022=
201212272300 METAR LMML NIL=
201212272245 METAR LMML 272245Z AUTO 34010KT CAVOK 12/11 Q1022=
201212272230 METAR LMML NIL=
201212272215 METAR LMML 272215Z AUTO 33008KT CAVOK 12/11 Q1022=
201212272200 METAR LMML NIL=
201212272145 METAR LMML 272145Z AUTO 34008KT CAVOK 13/11 Q1022=
201212272130 METAR LMML NIL=
201212272115 METAR LMML 272115Z AUTO 34009KT CAVOK 13/12 Q1022 NOSIG=
201212272100 METAR LMML NIL=
201212272045 METAR LMML 272045Z 33008KT 9999 FEW015 14/12 Q1022 NOSIG=
201212272030 METAR LMML NIL=
201212272015 METAR LMML 272015Z 32009KT 9999 FEW015 14/12 Q1022 NOSIG=
201212272000 METAR LMML NIL=
201212271945 METAR LMML 271945Z 33006KT 9999 FEW015 12/10 Q1022 NOSIG=
201212271930 METAR LMML NIL=
201212271915 METAR LMML 271915Z 33002KT 9999 FEW018 13/10 Q1022 NOSIG=
201212271900 METAR LMML NIL=
201212271845 METAR LMML 271845Z 32004KT 9999 FEW018 13/10 Q1022 NOSIG=
201212271830 METAR LMML NIL=
201212271815 METAR LMML 271815Z VRB02KT 9999 FEW018 13/10 Q1022 NOSIG=
201212271800 METAR LMML NIL=
201212271745 METAR LMML 271745Z 31004KT 9999 FEW020 13/10 Q1022 NOSIG=
201212271730 METAR LMML NIL=
201212271715 METAR LMML 271715Z 28003KT 9999 SCT020 13/10 Q1022 NOSIG=
201212271700 METAR LMML NIL=
201212271645 METAR LMML 271645Z 28003KT 9999 FEW020 13/10 Q1022 NOSIG=
201212271630 METAR LMML NIL=
201212271615 METAR LMML 271615Z 30006KT 9999 FEW020 14/09 Q1021 NOSIG=
201212271600 METAR LMML NIL=
201212271545 METAR LMML 271545Z 32007KT 9999 FEW020 14/10 Q1021 NOSIG=
201212271530 METAR LMML NIL=
201212271515 METAR LMML 271515Z 31007KT 9999 FEW020 15/11 Q1021 NOSIG=
201212271500 METAR LMML NIL=
201212271445 METAR LMML 271445Z 32010KT 9999 FEW020 15/10 Q1021 NOSIG=
201212271430 METAR LMML NIL=
201212271415 METAR LMML 271415Z 32010KT 9999 SCT020 16/11 Q1021 NOSIG=
201212271400 METAR LMML NIL=
201212271345 METAR LMML 271345Z 31011KT 9999 SCT020 16/11 Q1021 NOSIG=
201212271330 METAR LMML NIL=
201212271315 METAR LMML 271315Z 32010KT 9999 SCT020 16/11 Q1021 NOSIG=
201212271300 METAR LMML NIL=
201212271245 METAR LMML 271245Z AUTO 32010KT CAVOK 16/11 Q1021=
201212271230 METAR LMML NIL=
201212271215 METAR LMML 271215Z 33010KT 9999 FEW020 16/11 Q1022 NOSIG=
201212271200 METAR LMML NIL=
201212271145 METAR LMML 271145Z 33013KT 9999 FEW020 SCT045 16/11 Q1022
                        NOSIG=
201212271130 METAR LMML NIL=
201212271115 METAR LMML 271115Z 34013KT 9999 FEW022 16/11 Q1022 NOSIG=
201212271100 METAR LMML NIL=
201212271045 METAR LMML 271045Z 32014KT 9999 FEW020 BKN044 16/12 Q1022
                        NOSIG=
201212271030 METAR LMML NIL=
201212271015 METAR LMML 271015Z 33013KT 9999 FEW020 BKN042 15/12 Q1023
                        NOSIG=
201212271000 METAR LMML NIL=
201212270945 METAR LMML 270945Z 33013KT 9999 FEW020 BKN045 16/12 Q1023
                        NOSIG=
201212270930 METAR LMML NIL=
201212270915 METAR LMML 270915Z 32014KT 290V350 9999 BKN021 16/13 Q1022
                        NOSIG=
201212270900 METAR LMML NIL=
201212270845 METAR LMML 270845Z 33008KT 9999 SCT014 15/13 Q1022 NOSIG=
201212270830 METAR LMML NIL=
201212270815 METAR LMML 270815Z 31006KT 9999 SCT014 15/12 Q1022 NOSIG=
201212270800 METAR LMML NIL=
201212270745 METAR LMML 270745Z 31005KT 9999 FEW019 14/12 Q1022 NOSIG=
201212270730 METAR LMML NIL=
201212270715 METAR LMML 270715Z 32005KT 9999 FEW017 14/12 Q1022 NOSIG=
201212270700 METAR LMML NIL=
201212270645 METAR LMML 270645Z 31006KT 9999 FEW018 13/11 Q1022 NOSIG=
201212270630 METAR LMML NIL=
201212270615 METAR LMML 270615Z 31006KT 9999 FEW018 13/11 Q1021 NOSIG=
201212270600 METAR LMML NIL=
201212270545 METAR LMML 270545Z 32006KT 9999 FEW015 13/11 Q1021 NOSIG=
201212270530 METAR LMML NIL=
201212270515 METAR LMML 270515Z 32008KT 9999 FEW015 13/11 Q1021 NOSIG=
201212270500 METAR LMML NIL=
201212270445 METAR LMML 270445Z 32008KT 9999 FEW015 13/12 Q1021 NOSIG=
201212270430 METAR LMML NIL=
201212270415 METAR LMML 270415Z 32009KT 9999 FEW015 13/12 Q1021 NOSIG=
201212270400 METAR LMML NIL=
201212270345 METAR LMML 270345Z 33007KT CAVOK 13/12 Q1021 NOSIG=
201212270330 METAR LMML NIL=
201212270315 METAR LMML 270315Z AUTO 32006KT CAVOK 13/12 Q1021=
201212270300 METAR LMML NIL=
201212270245 METAR LMML 270245Z AUTO 31006KT 9000NDV NCD 13/12 Q1021=
201212270230 METAR LMML NIL=
201212270215 METAR LMML 270215Z AUTO 31006KT 9000NDV NCD 13/12 Q1021=
201212270200 METAR LMML NIL=
201212270145 METAR LMML 270145Z AUTO 32007KT 9000NDV NCD 13/12 Q1021=
201212270130 METAR LMML NIL=
201212270115 METAR LMML 270115Z AUTO 32004KT 9000NDV NCD 13/12 Q1021=
201212270100 METAR LMML NIL=
201212270045 METAR LMML 270045Z AUTO 31004KT 9000NDV NCD 13/12 Q1021=
201212270030 METAR LMML NIL=
201212270015 METAR LMML 270015Z AUTO 31005KT 9000NDV NCD 13/12 Q1021=
201212270000 METAR LMML NIL=
201212262345 METAR LMML 262345Z AUTO 31005KT 9000NDV NCD 13/12 Q1021=
201212262315 METAR LMML 262315Z AUTO 30005KT 9000NDV NCD 13/12 Q1021=
201212262300 METAR LMML NIL=
201212262245 METAR LMML 262245Z AUTO 31005KT 9000NDV NCD 13/12 Q1021=
201212262230 METAR LMML NIL=
201212262215 METAR LMML 262215Z AUTO 32005KT 9000NDV NCD 13/12 Q1021=
201212262204 SPECI LMML 262204Z AUTO 32006KT 7000NDV NSC 13/12 Q1021=
201212262200 METAR LMML NIL=
201212262145 METAR LMML 262145Z AUTO 32006KT 9000NDV NCD 13/12 Q1021=
201212262130 METAR LMML NIL=
201212262115 METAR LMML 262115Z AUTO 30005KT 9000NDV NCD 14/13 Q1021=
201212262100 METAR LMML NIL=
201212262045 METAR LMML 262045Z 28005KT 9000 NSC 14/13 Q1021 NOSIG=
201212262030 METAR LMML NIL=
201212262015 METAR LMML 262015Z 30004KT 8000 FEW013 14/13 Q1021 NOSIG=
201212262000 METAR LMML NIL=
201212261945 METAR LMML 261945Z 26004KT 9999 FEW013 14/13 Q1021 NOSIG=
201212261930 METAR LMML NIL=
201212261915 METAR LMML 261915Z 28003KT 9999 FEW013 14/13 Q1021 NOSIG=
201212261900 METAR LMML NIL=
201212261845 METAR LMML 261845Z 32002KT 9999 FEW013 14/13 Q1021 NOSIG=
201212261830 METAR LMML NIL=
201212261815 METAR LMML 261815Z VRB02KT 9999 FEW015 14/13 Q1021 NOSIG=
201212261800 METAR LMML NIL=
201212261745 METAR LMML 261745Z 25004KT 9999 FEW013 15/14 Q1020 NOSIG=
201212261730 METAR LMML NIL=
201212261715 METAR LMML 261715Z 25005KT CAVOK 15/14 Q1020 NOSIG=
201212261700 METAR LMML NIL=
201212261645 METAR LMML 261645Z 24006KT CAVOK 16/14 Q1019 NOSIG=
201212261630 METAR LMML NIL=
201212261615 METAR LMML 261615Z 23005KT CAVOK 16/14 Q1019 NOSIG=
201212261600 METAR LMML NIL=
201212261545 METAR LMML 261545Z 22005KT 190V250 CAVOK 17/15 Q1019 NOSIG=
201212261530 METAR LMML NIL=
201212261515 METAR LMML 261515Z 22005KT CAVOK 17/15 Q1019 NOSIG=
201212261500 METAR LMML NIL=
201212261445 METAR LMML 261445Z 22007KT CAVOK 17/15 Q1019 NOSIG=
201212261430 METAR LMML NIL=
201212261415 METAR LMML 261415Z 21007KT CAVOK 17/15 Q1019 NOSIG=
201212261400 METAR LMML NIL=
201212261345 METAR LMML 261345Z 21008KT 180V240 CAVOK 18/14 Q1019 NOSIG=
201212261330 METAR LMML NIL=
201212261315 METAR LMML 261315Z 21009KT CAVOK 17/14 Q1020 NOSIG=
201212261300 METAR LMML NIL=
201212261238 SPECI LMML 261238Z AUTO 21008KT 180V240 9999NDV SHRA NSC
                        18/14 Q1020=
201212261230 METAR LMML NIL=
201212261215 METAR LMML 261215Z AUTO 21009KT 9999NDV SHRA NCD 18/14 Q1020=
201212261200 METAR LMML NIL=
201212261145 METAR LMML 261145Z 21008KT 180V240 CAVOK 18/14 Q1021 NOSIG=
201212261130 METAR LMML NIL=
201212261115 METAR LMML 261115Z 21009KT CAVOK 18/14 Q1021 NOSIG=
201212261100 METAR LMML NIL=
201212261045 METAR LMML 261045Z 21008KT 180V250 CAVOK 18/14 Q1021 NOSIG=
201212261030 METAR LMML NIL=
201212261015 METAR LMML 261015Z 23009KT CAVOK 18/14 Q1022 NOSIG=
201212261000 METAR LMML NIL=
201212260945 METAR LMML 260945Z 22007KT CAVOK 18/14 Q1022 NOSIG=
201212260930 METAR LMML NIL=
201212260915 METAR LMML 260915Z 21009KT 180V250 CAVOK 18/14 Q1022 NOSIG=
201212260900 METAR LMML NIL=
201212260845 METAR LMML 260845Z 20010KT CAVOK 17/14 Q1021 NOSIG=
201212260830 METAR LMML NIL=
201212260815 METAR LMML 260815Z 21008KT CAVOK 17/14 Q1022 NOSIG=
201212260800 METAR LMML NIL=
201212260745 METAR LMML 260745Z 21008KT CAVOK 17/14 Q1021 NOSIG=
201212260730 METAR LMML NIL=
201212260715 METAR LMML 260715Z 20009KT 170V230 CAVOK 16/13 Q1021 NOSIG=
201212260700 METAR LMML NIL=
201212260645 METAR LMML 260645Z 20010KT CAVOK 16/13 Q1021 NOSIG=
201212260630 METAR LMML NIL=
201212260615 METAR LMML 260615Z 20010KT CAVOK 16/13 Q1021 NOSIG=
201212260600 METAR LMML NIL=
201212260545 METAR LMML 260545Z 20010KT CAVOK 16/13 Q1021 NOSIG=
201212260530 METAR LMML NIL=
201212260515 METAR LMML 260515Z 20009KT CAVOK 16/13 Q1021 NOSIG=
201212260500 METAR LMML NIL=
201212260445 METAR LMML 260445Z 20008KT CAVOK 16/13 Q1021 NOSIG=
201212260430 METAR LMML NIL=
201212260415 METAR LMML 260415Z 21007KT CAVOK 16/13 Q1021 NOSIG=
201212260400 METAR LMML NIL=
201212260345 METAR LMML 260345Z AUTO 21009KT CAVOK 16/13 Q1021 NOSIG=
201212260330 METAR LMML NIL=
201212260315 METAR LMML 260315Z 21009KT CAVOK 16/14 Q1021 NOSIG=
201212260300 METAR LMML NIL=
201212260245 METAR LMML 260245Z AUTO 21010KT CAVOK 16/14 Q1021=
201212260230 METAR LMML NIL=
201212260215 METAR LMML 260215Z AUTO 20010KT CAVOK 16/14 Q1022=
201212260200 METAR LMML NIL=
201212260145 METAR LMML 260145Z AUTO 20010KT 170V230 CAVOK 16/14 Q1022=
201212260130 METAR LMML NIL=
201212260115 METAR LMML 260115Z AUTO 20010KT 170V230 CAVOK 16/14 Q1022=
201212260100 METAR LMML NIL=
201212260045 METAR LMML 260045Z AUTO 20011KT CAVOK 16/13 Q1022=
201212260030 METAR LMML NIL=
201212260015 METAR LMML 260015Z AUTO 20012KT CAVOK 16/13 Q1022=
201212260000 METAR LMML NIL=
201212252345 METAR LMML 252345Z AUTO 20010KT CAVOK 16/13 Q1022=
201212252330 METAR LMML NIL=
201212252315 METAR LMML 252315Z AUTO 20011KT CAVOK 16/13 Q1022=
201212252300 METAR LMML NIL=
201212252245 METAR LMML 252245Z AUTO 20012KT CAVOK 16/13 Q1023=
201212252230 METAR LMML NIL=
201212252215 METAR LMML 252215Z AUTO 20010KT CAVOK 16/13 Q1023=
201212252200 METAR LMML NIL=
201212252145 METAR LMML 252145Z AUTO 20011KT CAVOK 16/14 Q1023=
201212252130 METAR LMML NIL=
201212252115 METAR LMML 252115Z AUTO 20011KT CAVOK 16/14 Q1023=
201212252100 METAR LMML NIL=
201212252045 METAR LMML 252045Z AUTO 20009KT CAVOK 16/13 Q1023=
201212252030 METAR LMML NIL=
201212252015 METAR LMML 252015Z AUTO 20009KT CAVOK 16/13 Q1023=
201212252000 METAR LMML NIL=
201212251945 METAR LMML 251945Z 19009KT CAVOK 16/13 Q1023 NOSIG=
201212251930 METAR LMML NIL=
201212251915 METAR LMML 251915Z 19007KT CAVOK 16/13 Q1023 NOSIG=
201212251900 METAR LMML NIL=
201212251845 METAR LMML 251845Z 19006KT CAVOK 16/13 Q1023 NOSIG=
201212251830 METAR LMML NIL=
201212251815 METAR LMML 251815Z 19005KT 160V220 CAVOK 16/13 Q1023 NOSIG=
201212251800 METAR LMML NIL=
201212251745 METAR LMML 251745Z 19007KT CAVOK 16/13 Q1023 NOSIG=
201212251730 METAR LMML NIL=
201212251715 METAR LMML 251715Z 19007KT CAVOK 16/13 Q1022 NOSIG=
201212251700 METAR LMML NIL=
201212251645 METAR LMML 251645Z 19006KT CAVOK 16/13 Q1022 NOSIG=
201212251630 METAR LMML NIL=
201212251615 METAR LMML 251615Z 18006KT CAVOK 16/13 Q1022 NOSIG=
201212251600 METAR LMML NIL=
201212251545 METAR LMML 251545Z 19006KT CAVOK 17/13 Q1022 NOSIG=
201212251530 METAR LMML NIL=
201212251515 METAR LMML 251515Z 20008KT 170V230 9999 FEW020 17/13 Q1022
                        NOSIG=
201212251500 METAR LMML NIL=
201212251445 METAR LMML 251445Z 20009KT 9999 FEW020 17/13 Q1022 NOSIG=
201212251430 METAR LMML NIL=
201212251415 METAR LMML 251415Z 20010KT 9999 FEW020 18/13 Q1022 NOSIG=
201212251400 METAR LMML NIL=
201212251345 METAR LMML 251345Z 21008KT 180V250 9999 FEW020 18/13 Q1023
                        NOSIG=
201212251330 METAR LMML NIL=
201212251315 METAR LMML 251315Z AUTO 21008KT 180V250 CAVOK 18/13 Q1023
                        NOSIG=
201212251300 METAR LMML NIL=
201212251245 METAR LMML 251245Z 21008KT 180V250 9999 FEW020 18/13 Q1023
                        NOSIG=
201212251230 METAR LMML NIL=
201212251215 METAR LMML 251215Z 21007KT 180V250 9999 FEW020 18/13 Q1024
                        NOSIG=
201212251145 METAR LMML 251145Z 20006KT 170V260 9999 FEW020 18/13 Q1024
                        NOSIG=
201212251130 METAR LMML NIL=
201212251115 METAR LMML 251115Z 21008KT 180V240 9999 FEW020 18/13 Q1024
                        NOSIG=
201212251100 METAR LMML NIL=
201212251045 METAR LMML 251045Z 21009KT 9999 FEW016 18/13 Q1025 NOSIG=
201212251030 METAR LMML NIL=
201212251015 METAR LMML 251015Z 21008KT 180V250 9999 FEW014 17/14 Q1025
                        NOSIG=
201212251000 METAR LMML NIL=
201212250945 METAR LMML 250945Z 21008KT 170V250 9999 FEW014 17/14 Q1025
                        NOSIG=
201212250930 METAR LMML NIL=
201212250915 METAR LMML 250915Z 21007KT 180V250 9999 FEW014 17/14 Q1026
                        NOSIG=
201212250900 METAR LMML NIL=
201212250845 METAR LMML 250845Z 21007KT 180V240 9999 FEW014 17/13 Q1026
                        NOSIG=
201212250830 METAR LMML NIL=
201212250815 METAR LMML 250815Z 21005KT 9999 FEW015 16/13 Q1025 NOSIG=
201212250800 METAR LMML NIL=
201212250745 METAR LMML 250745Z 20005KT 170V230 9999 SCT015 16/13 Q1025
                        NOSIG=
201212250730 METAR LMML NIL=
201212250715 METAR LMML 250715Z 18004KT 9999 SCT015 14/13 Q1025 NOSIG=
201212250700 METAR LMML NIL=
201212250645 METAR LMML 250645Z 20004KT 9999 FEW015 13/12 Q1024 NOSIG=
201212250630 METAR LMML NIL=
201212250615 METAR LMML 250615Z 18005KT 9999 FEW018 13/12 Q1024 NOSIG=
201212250600 METAR LMML NIL=
201212250545 METAR LMML 250545Z 17005KT 9999 SCT015 13/12 Q1024 TE=
201212250530 METAR LMML NIL=
201212250515 METAR LMML 250515Z 17005KT 9999 MIFG SCT017 13/12 Q1024 TEMPO
                        BKN015=
201212250500 METAR LMML NIL=
201212250445 METAR LMML 250445Z 17003KT 9000 MIFG SCT016 12/12 Q1024 TEMPO
                        BKN015=
201212250430 METAR LMML NIL=
201212250415 METAR LMML 250415Z 17004KT 9000 MIFG SCT017 12/11 Q1024 TEMPO
                        BKN015=
201212250400 METAR LMML NIL=
201212250345 METAR LMML 250345Z 16004KT 9000 SCT016 12/11 Q1024 NOSIG=
201212250330 METAR LMML NIL=
201212250315 METAR LMML 250315Z 17004KT 9999 SCT015 12/11 Q1024 NOSIG=
201212250245 METAR LMML 250245Z AUTO 17004KT 8000NDV HZ SCT016/// BKN018///
                        12/11 Q1024=
201212250242 SPECI LMML 250242Z AUTO 17004KT 7000NDV HZ BKN016/// 12/11
                        Q1024=
201212250239 SPECI LMML 250239Z AUTO 17004KT 9000NDV BKN016/// BKN018///
                        12/11 Q1024=
201212250230 METAR LMML NIL=
201212250215 METAR LMML 250215Z AUTO 17004KT 9999NDV FEW015/// 12/11 Q1024=
201212250200 METAR LMML NIL=
201212250145 METAR LMML 250145Z AUTO 17004KT 8000NDV FEW016/// 12/11 Q1025=
201212250134 SPECI LMML 250134Z AUTO 17003KT 7000NDV HZ FEW015/// 12/10
                        Q1025=
201212250130 METAR LMML NIL=
201212250115 METAR LMML 250115Z AUTO 18003KT 9999NDV HZ SCT015/// 12/10
                        Q1025=
201212250100 METAR LMML NIL=
201212250045 METAR LMML 250045Z AUTO 20004KT CAVOK 12/11 Q1025=
201212250030 METAR LMML NIL=
201212250015 METAR LMML 250015Z AUTO 19004KT CAVOK 13/11 Q1025=
201212250000 METAR LMML NIL=
201212242345 METAR LMML 242345Z AUTO 20003KT 9999NDV FEW017/// 13/11 Q1025=
201212242330 METAR LMML NIL=
201212242315 METAR LMML 242315Z AUTO 17003KT 9999NDV FEW017/// SCT019///
                        12/11 Q1025=
201212242300 METAR LMML NIL=
201212242245 METAR LMML 242245Z AUTO 16005KT 9999NDV FEW018/// SCT021///
                        12/11 Q1025=
201212242230 METAR LMML NIL=
201212242215 METAR LMML 242215Z AUTO 17003KT CAVOK 13/11 Q1025=
201212242200 METAR LMML NIL=
201212242145 METAR LMML 242145Z AUTO 16002KT CAVOK 14/11 Q1025=
201212242130 METAR LMML NIL=
201212242115 METAR LMML 242115Z AUTO 17004KT 9999NDV OVC024/// 14/12 Q1025=
201212242045 METAR LMML 242045Z AUTO 17006KT 9999NDV OVC021/// 15/12 Q1025=
201212242030 METAR LMML NIL=
201212242015 METAR LMML 242015Z 18004KT 9999 BKN021 15/12 Q1025 NOSIG=
201212242000 METAR LMML NIL=
201212241945 METAR LMML 241945Z AUTO VRB01KT 9999NDV OVC022/// 15/12 Q1025
                        NOSIG=
201212241930 METAR LMML NIL=
201212241915 METAR LMML 241915Z VRB01KT 9999 BKN023 15/12 Q1025 NOSIG=
201212241900 METAR LMML NIL=
201212241845 METAR LMML 241845Z VRB02KT 9999 BKN024 15/12 Q1025 NOSIG=
201212241830 METAR LMML NIL=
201212241815 METAR LMML 241815Z 14002KT 9999 BKN024 14/12 Q1025 NOSIG=
201212241745 METAR LMML 241745Z 12003KT 9999 BKN025 15/12 Q1024 NOSIG=
201212241730 METAR LMML NIL=
201212241715 METAR LMML 241715Z 11003KT 9999 BKN023 15/12 Q1024 NOSIG=
201212241700 METAR LMML NIL=
201212241645 METAR LMML 241645Z 14003KT 9999 BKN024 15/12 Q1024 NOSIG=
201212241630 METAR LMML NIL=
201212241615 METAR LMML 241615Z 15004KT 9999 BKN024 15/11 Q1024 NOSIG=
201212241600 METAR LMML NIL=
201212241545 METAR LMML 241545Z 15004KT 9999 FEW018 BKN025 15/11 Q1024
                        NOSIG=
201212241530 METAR LMML NIL=
201212241515 METAR LMML 241515Z 15005KT 9999 FEW018 BKN025 15/11 Q1024
                        NOSIG=
201212241500 METAR LMML NIL=
201212241445 METAR LMML 241445Z 14005KT 9999 FEW018 BKN028 16/11 Q1024
                        NOSIG=
201212241415 METAR LMML 241415Z 12003KT 9999 FEW018 BKN026 16/11 Q1024
                        NOSIG=
201212241345 METAR LMML 241345Z VRB02KT 9999 FEW018 BKN025 16/11 Q1024
                        NOSIG=
201212241330 METAR LMML NIL=
201212241315 METAR LMML 241315Z VRB02KT 9999 SCT021 BKN026 16/11 Q1024
                        NOSIG=
201212241300 METAR LMML NIL=
201212241245 METAR LMML 241245Z 05003KT 030V090 9999 SCT021 BKN025 16/11
                        Q1024 NOSIG=
201212241230 METAR LMML NIL=
201212241215 METAR LMML 241215Z AUTO 05004KT 9999NDV BKN027/// OVC031///
                        16/11 Q1024 NOSIG=
201212241200 METAR LMML NIL=
201212241145 METAR LMML 241145Z VRB03KT 9999 FEW018 BKN027 16/12 Q1024
                        NOSIG=
201212241130 METAR LMML NIL=
201212241115 METAR LMML 241115Z 03003KT 350V080 9999 SCT019 BKN024 17/12
                        Q1025 NOSIG=
201212241100 METAR LMML NIL=
201212241045 METAR LMML 241045Z 36004KT 320V080 9999 BKN021 17/12 Q1025
                        NOSIG=
201212241030 METAR LMML NIL=
201212241015 METAR LMML 241015Z 02004KT 350V140 9999 SCT019 17/12 Q1025
                        NOSIG=
201212241000 METAR LMML NIL=
201212240945 METAR LMML 240945Z 36005KT 9999 SCT020 17/13 Q1025 NOSIG=
201212240930 METAR LMML NIL=
201212240915 METAR LMML 240915Z 02005KT 9999 FEW016 SCT025 17/13 Q1025
                        NOSIG=
201212240900 METAR LMML NIL=
201212240845 METAR LMML 240845Z 35005KT 9999 FEW020 FEW030 16/13 Q1025
                        NOSIG=
201212240830 METAR LMML NIL=
201212240815 METAR LMML 240815Z AUTO 35005KT CAVOK 16/13 Q1025 NOSIG=
201212240800 METAR LMML NIL=
201212240745 METAR LMML 240745Z 33004KT 9999 FEW021 FEW032 15/13 Q1024
                        NOSIG=
201212240730 METAR LMML NIL=
201212240715 METAR LMML 240715Z 33004KT 9999 FEW021 FEW031 14/12 Q1024
                        NOSIG=
201212240700 METAR LMML NIL=
201212240645 METAR LMML 240645Z 31005KT 9999 FEW021 SCT032 14/12 Q1024
                        NOSIG=
201212240630 METAR LMML NIL=
201212240615 METAR LMML 240615Z 31005KT 9999 FEW021 BKN032 14/12 Q1023
                        NOSIG=
201212240600 METAR LMML NIL=
201212240545 METAR LMML 240545Z 32005KT 9999 BKN027 14/12 Q1023 NOSIG=
201212240530 METAR LMML NIL=
201212240515 METAR LMML 240515Z AUTO 31005KT 9999NDV OVC029/// 14/12 Q1023
                        NOSIG=
201212240500 METAR LMML NIL=
201212240445 METAR LMML 240445Z 31006KT 9999 BKN031 14/12 Q1023 NOSIG=
201212240430 METAR LMML NIL=
201212240415 METAR LMML 240415Z 30006KT 9999 BKN030 14/12 Q1023 NOSIG=
201212240400 METAR LMML NIL=
201212240345 METAR LMML 240345Z AUTO 31005KT 9999NDV BKN028/// BKN033///
                        13/11 Q1023=
201212240330 METAR LMML NIL=
201212240315 METAR LMML 240315Z AUTO 28004KT 9999NDV BKN031/// 12/10 Q1023=
201212240300 METAR LMML NIL=
201212240245 METAR LMML 240245Z AUTO 32007KT CAVOK 12/10 Q1023=
201212240230 METAR LMML NIL=
201212240215 METAR LMML 240215Z AUTO 31006KT CAVOK 12/10 Q1023=
201212240200 METAR LMML NIL=
201212240145 METAR LMML 240145Z AUTO 31005KT 280V340 CAVOK 13/10 Q1023=
201212240130 METAR LMML NIL=
201212240115 METAR LMML 240115Z AUTO 32008KT CAVOK 13/11 Q1023=
201212240100 METAR LMML NIL=
201212240045 METAR LMML 240045Z AUTO 31005KT 9999NDV BKN025/// BKN029///
                        13/10 Q1023=
201212240030 METAR LMML NIL=
201212240015 METAR LMML 240015Z AUTO 33009KT 9999NDV FEW027/// 13/10 Q1023=
201212240000 METAR LMML NIL=
201212232345 METAR LMML 232345Z AUTO 31004KT CAVOK 12/10 Q1023=
201212232330 METAR LMML NIL=
201212232315 METAR LMML 232315Z AUTO 32008KT CAVOK 12/10 Q1023=
201212232300 METAR LMML NIL=
201212232245 METAR LMML 232245Z AUTO 32007KT CAVOK 13/10 Q1023=
201212232230 METAR LMML NIL=
201212232215 METAR LMML 232215Z AUTO 31010KT CAVOK 13/11 Q1023=
201212232200 METAR LMML NIL=
201212232145 METAR LMML 232145Z AUTO 31006KT CAVOK 12/10 Q1023=
201212232130 METAR LMML NIL=
201212232115 METAR LMML 232115Z AUTO 30006KT CAVOK 13/10 Q1023=
201212232100 METAR LMML NIL=
201212232045 METAR LMML 232045Z AUTO 31008KT CAVOK 13/10 Q1023=
201212232030 METAR LMML NIL=
201212232015 METAR LMML 232015Z AUTO 30010KT CAVOK 13/10 Q1023=
201212232000 METAR LMML NIL=
201212231945 METAR LMML 231945Z 31010KT 9999 FEW025 13/10 Q1023 NOSIG=
201212231930 METAR LMML NIL=
201212231915 METAR LMML 231915Z 31008KT 9999 FEW025 13/10 Q1023 NOSIG=
201212231900 METAR LMML NIL=
201212231845 METAR LMML 231845Z 31008KT 9999 FEW025 13/10 Q1023 NOSIG=
201212231830 METAR LMML NIL=
201212231815 METAR LMML 231815Z 31008KT 9999 FEW025 13/10 Q1022 NOSIG=
201212231800 METAR LMML NIL=
201212231745 METAR LMML 231745Z 31009KT 9999 FEW025 13/10 Q1022 NOSIG=
201212231730 METAR LMML NIL=
201212231715 METAR LMML 231715Z 32008KT 9999 FEW025 13/10 Q1022 NOSIG=
201212231700 METAR LMML NIL=
201212231645 METAR LMML 231645Z 32007KT 9999 FEW025 13/10 Q1022 NOSIG=
201212231630 METAR LMML NIL=
201212231615 METAR LMML 231615Z 33010KT 9999 FEW035 13/10 Q1022 NOSIG=
201212231600 METAR LMML NIL=
201212231545 METAR LMML 231545Z 33013KT 9999 FEW025 14/09 Q1022 NOSIG=
201212231530 METAR LMML NIL=
201212231515 METAR LMML 231515Z 34010KT 9999 FEW025 15/10 Q1022 NOSIG=
201212231500 METAR LMML NIL=
201212231445 METAR LMML 231445Z 33013KT 9999 FEW026 15/10 Q1021 NOSIG=
201212231430 METAR LMML NIL=
201212231415 METAR LMML 231415Z 33016KT 9999 FEW026 16/09 Q1021 NOSIG=
201212231345 METAR LMML 231345Z 32015KT 9999 FEW026 16/09 Q1021 NOSIG=
201212231315 METAR LMML 231315Z 33017KT 9999 SCT026 16/09 Q1021 NOSIG=
201212231245 METAR LMML 231245Z AUTO 33013KT 290V350 9999NDV SCT026///
                        SCT029/// 16/10 Q1021 NOSIG=
201212231230 METAR LMML NIL=
201212231215 METAR LMML 231215Z 33012KT 310V010 9999 FEW032 16/08 Q1022
                        NOSIG=
201212231145 METAR LMML 231145Z 34015KT 9999 FEW035 16/07 Q1022 NOSIG=
201212231130 METAR LMML NIL=
201212231115 METAR LMML 231115Z 33013KT 9999 FEW035 16/07 Q1022 NOSIG=
201212231100 METAR LMML NIL=
201212231045 METAR LMML 231045Z 34015KT 9999 FEW035 16/08 Q1023 NOSIG=
201212231030 METAR LMML NIL=
201212231015 METAR LMML 231015Z 36013KT 9999 FEW035 16/07 Q1023 NOSIG=
201212231000 METAR LMML NIL=
201212230945 METAR LMML 230945Z 35012KT 9999 SCT035 15/08 Q1023 NOSIG=
201212230930 METAR LMML NIL=
201212230915 METAR LMML 230915Z 34010KT 320V020 9999 FEW035 15/08 Q1023
                        NOSIG=
201212230900 METAR LMML NIL=
201212230845 METAR LMML 230845Z 35011KT 9999 FEW034 15/07 Q1023 NOSIG=
201212230830 METAR LMML NIL=
201212230815 METAR LMML 230815Z 33010KT 9999 FEW034 14/08 Q1022 NOSIG=
201212230800 METAR LMML NIL=
201212230745 METAR LMML 230745Z 33009KT 9999 FEW034 13/08 Q1022 NOSIG=
201212230730 METAR LMML NIL=
201212230715 METAR LMML 230715Z 33009KT 9999 FEW034 12/07 Q1022 NOSIG=
201212230700 METAR LMML NIL=
201212230645 METAR LMML 230645Z 34010KT 9999 FEW034 10/06 Q1021 NOSIG=
201212230630 METAR LMML NIL=
201212230615 METAR LMML 230615Z 33007KT 9999 SCT034 10/07 Q1021 NOSIG=
201212230600 METAR LMML NIL=
201212230545 METAR LMML 230545Z 32007KT 9999 SCT034 10/07 Q1021 NOSIG=
201212230530 METAR LMML NIL=
201212230515 METAR LMML 230515Z 32007KT 280V340 9999 SCT034 11/07 Q1020
                        NOSIG=
201212230500 METAR LMML NIL=
201212230445 METAR LMML 230445Z 33009KT 9999 FEW033 11/07 Q1020 NOSIG=
201212230430 METAR LMML NIL=
201212230415 METAR LMML 230415Z 32009KT 9999 FEW033 11/07 Q1020 NOSIG=
201212230400 METAR LMML NIL=
201212230345 METAR LMML 230345Z AUTO 31006KT 9999NDV FEW033/// 11/07 Q1020=
201212230330 METAR LMML NIL=
201212230315 METAR LMML 230315Z AUTO 35009KT 9999NDV FEW032/// BKN041///
                        12/07 Q1020=
201212230300 METAR LMML NIL=
201212230245 METAR LMML 230245Z AUTO 36008KT 9999NDV SCT034/// SCT039///
                        12/07 Q1020=
201212230230 METAR LMML NIL=
201212230215 METAR LMML 230215Z AUTO 36009KT 9999NDV FEW034/// 12/07 Q1020=
201212230200 METAR LMML NIL=
201212230145 METAR LMML 230145Z AUTO 36008KT 9999NDV FEW033/// SCT038///
                        BKN043/// 12/07 Q1020=
201212230130 METAR LMML NIL=
201212230115 METAR LMML 230115Z AUTO 36008KT 9999NDV FEW033/// SCT041///
                        12/07 Q1019=
201212230100 METAR LMML NIL=
201212230045 METAR LMML 230045Z AUTO 35008KT 9999NDV FEW031/// SCT037///
                        12/07 Q1019=
201212230030 METAR LMML NIL=
201212230015 METAR LMML 230015Z AUTO 01009KT CAVOK 12/06 Q1019=
201212230000 METAR LMML NIL=
201212222345 METAR LMML 222345Z AUTO 02010KT CAVOK 12/06 Q1019=
201212222330 METAR LMML NIL=
201212222315 METAR LMML 222315Z AUTO 36010KT CAVOK 12/06 Q1019=
201212222300 METAR LMML NIL=
201212222245 METAR LMML 222245Z AUTO 36010KT 9999NDV FEW033/// SCT038///
                        12/07 Q1019=
201212222215 METAR LMML 222215Z AUTO 36012KT 9999NDV FEW035/// 13/07 Q1019=
201212222200 METAR LMML NIL=
201212222145 METAR LMML 222145Z AUTO 36011KT 9999NDV SCT029/// BKN033///
                        BKN040/// 13/07 Q1019=
201212222130 METAR LMML NIL=
201212222115 METAR LMML 222115Z 36011KT 9999 FEW032 13/06 Q1018 NOSIG=
201212222045 METAR LMML 222045Z 01011KT 9999 FEW035 13/07 Q1018 NOSIG=
201212222030 METAR LMML NIL=
201212222015 METAR LMML 222015Z AUTO 01010KT 9999NDV FEW036/// 13/07 Q1018
                        NOSIG=
201212222000 METAR LMML NIL=
201212221945 METAR LMML 221945Z 01009KT 9999 FEW034 13/07 Q1017 NOSIG=
201212221930 METAR LMML NIL=
201212221915 METAR LMML 221915Z 02010KT 9999 FEW030 13/07 Q1017 NOSIG=
201212221900 METAR LMML NIL=
201212221845 METAR LMML 221845Z 03011KT 9999 FEW025 13/07 Q1016 NOSIG=
201212221830 METAR LMML NIL=
201212221815 METAR LMML 221815Z 04012KT 9999 FEW025 13/07 Q1016 NOSIG=
201212221800 METAR LMML NIL=
201212221745 METAR LMML 221745Z 04014KT 9999 FEW025 13/07 Q1015 NOSIG=
201212221730 METAR LMML NIL=
201212221715 METAR LMML 221715Z 03015KT 9999 SCT020 13/08 Q1015 NOSIG=
201212221700 METAR LMML NIL=
201212221645 METAR LMML 221645Z 04012KT 9999 SCT025 12/08 Q1014 NOSIG=
201212221630 METAR LMML NIL=
201212221615 METAR LMML 221615Z 03012KT 9000 -RA BKN027 14/09 Q1014 NOSIG=
201212221600 METAR LMML NIL=
201212221545 METAR LMML 221545Z 02017KT 350V060 9999 SCT020 14/07 Q1013
                        NOSIG=
201212221530 METAR LMML NIL=
201212221515 METAR LMML 221515Z 35016KT 9999 SCT032 14/08 Q1013 NOSIG=
201212221500 METAR LMML NIL=
201212221445 METAR LMML 221445Z 35021KT 9999 FEW030 14/07 Q1012 NOSIG=
201212221430 METAR LMML NIL=
201212221415 METAR LMML 221415Z 35018G28KT 9999 FEW030 FEW040 14/07 Q1012
                        NOSIG=
201212221400 METAR LMML NIL=
201212221345 METAR LMML 221345Z AUTO 35021KT 9999NDV SCT033/// SCT039///
                        15/07 Q1012=
201212221330 METAR LMML NIL=
201212221315 METAR LMML 221315Z AUTO 34018KT CAVOK 15/08 Q1011=
201212221300 METAR LMML NIL=
201212221245 METAR LMML 221245Z 35016KT 9999 SCT030 14/09 Q1011 NOSIG=
201212221230 METAR LMML NIL=
201212221215 METAR LMML 221215Z 01015KT 340V040 9000 -SHRA SCT022 13/09
                        Q1011 NOSIG=
201212221200 METAR LMML NIL=
201212221145 METAR LMML 221145Z 36017KT 9999 SCT025 15/09 Q1011 NOSIG=
201212221130 METAR LMML NIL=
201212221115 METAR LMML 221115Z 34014KT 9999 -SHRA SCT025 14/09 Q1011
                        NOSIG=
201212221100 METAR LMML NIL=
201212221045 METAR LMML 221045Z 34013KT 9999 SCT029 15/10 Q1011 NOSIG=
201212221030 METAR LMML NIL=
201212221015 METAR LMML 221015Z 36014KT 9999 FEW025 SCT045 15/10 Q1012
                        NOSIG=
201212221000 METAR LMML NIL=
201212220945 METAR LMML 220945Z 34011KT 9999 FEW023 SCT030 15/11 Q1012
                        NOSIG=
201212220930 METAR LMML NIL=
201212220915 METAR LMML 220915Z AUTO 34008KT 320V030 9999NDV FEW018///
                        SCT021/// BKN027/// 14/12 Q1012 NOSIG=
201212220900 METAR LMML NIL=
201212220845 METAR LMML 220845Z 33007KT 9999 FEW016 BKN032 14/11 Q1012
                        NOSIG=
201212220830 METAR LMML NIL=
201212220815 METAR LMML 220815Z 33009KT 9999 -RA FEW034 13/11 Q1011 NOSIG=
201212220800 METAR LMML NIL=
201212220745 METAR LMML 220745Z 33008KT 9999 -RA SCT023 BKN045 13/11 Q1011
                        NOSIG=
201212220730 METAR LMML NIL=
201212220715 METAR LMML 220715Z 32007KT 9999 FEW025 12/11 Q1011 NOSIG=
201212220700 METAR LMML NIL=
201212220645 METAR LMML 220645Z 33009KT 9999 FEW025 SCT045 12/10 Q1011
                        RERA NOSIG=
201212220630 METAR LMML NIL=
201212220609 SPECI LMML 220609Z 32009KT 7000 -RA SCT025 BKN038 12/11 Q1011
                        RERA NOSIG=
201212220600 METAR LMML NIL=
201212220545 METAR LMML 220545Z 33011KT 6000 -RA FEW025 SCT049 14/10 Q1011
                        NOSIG=
201212220530 METAR LMML NIL=
201212220515 METAR LMML 220515Z 32007KT 9999 FEW025 14/09 Q1011 NOSIG=
201212220500 METAR LMML NIL=
201212220445 METAR LMML 220445Z 33007KT 9999 FEW025 BKN046 14/09 Q1011
                        NOSIG=
201212220430 METAR LMML NIL=
201212220415 METAR LMML 220415Z 32008KT 9999 FEW025 14/09 Q1011 NOSIG=
201212220400 METAR LMML NIL=
201212220345 METAR LMML 220345Z 33010KT 9999 SCT030 14/09 Q1011 NOSIG=
201212220315 METAR LMML 220315Z 32011KT 9999 SCT028 14/09 Q1011 NOSIG=
201212220300 METAR LMML NIL=
201212220245 METAR LMML 220245Z AUTO 33010KT 9999NDV FEW031/// 14/09 Q1011=
201212220230 METAR LMML NIL=
201212220215 METAR LMML 220215Z AUTO 33012KT 9999NDV SCT028/// BKN034///
                        BKN040/// 15/09 Q1012=
201212220200 METAR LMML NIL=
201212220145 METAR LMML 220145Z AUTO 32011KT 9999NDV SCT029/// SCT034///
                        BKN041/// 15/09 Q1012=
201212220130 METAR LMML NIL=
201212220115 METAR LMML 220115Z AUTO 31012KT 9999NDV FEW029/// SCT047///
                        OVC083/// 15/09 Q1012=
201212220100 METAR LMML NIL=
201212220045 METAR LMML 220045Z AUTO 31013KT 9999NDV FEW028/// OVC080///
                        15/09 Q1012=
201212220030 METAR LMML NIL=
201212220015 METAR LMML 220015Z AUTO 31011KT 9999NDV SCT027/// SCT034///
                        OVC084/// 15/10 Q1012=
201212220000 METAR LMML NIL=
201212212345 METAR LMML 212345Z AUTO 33012KT 9999NDV FEW031/// OVC073///
                        15/10 Q1012=
201212212330 METAR LMML NIL=
201212212315 METAR LMML 212315Z AUTO 33015KT 9999NDV FEW026/// SCT031///
                        BKN038/// 15/10 Q1012=
201212212300 METAR LMML NIL=
201212212245 METAR LMML 212245Z AUTO 32015KT CAVOK 15/09 Q1013=
201212212230 METAR LMML NIL=
201212212215 METAR LMML 212215Z AUTO 32012KT 280V340 CAVOK 15/10 Q1013=
201212212145 METAR LMML 212145Z AUTO 32014KT CAVOK 15/10 Q1013=
201212212115 METAR LMML 212115Z AUTO 32015KT 9999NDV FEW026/// OVC086///
                        15/10 Q1013=
201212212100 METAR LMML NIL=
201212212045 METAR LMML 212045Z AUTO 32012KT 9999NDV FEW024/// OVC084///
                        15/10 Q1013=
201212212030 METAR LMML NIL=
201212212015 METAR LMML 212015Z AUTO 32013KT 9999NDV FEW028/// SCT032///
                        BKN054/// 15/10 Q1013=
201212212000 METAR LMML NIL=
201212211945 METAR LMML 211945Z 31012KT 9999 FEW025 15/09 Q1013 NOSIG=
201212211930 METAR LMML NIL=
201212211915 METAR LMML 211915Z 31012KT 9999 FEW024 15/10 Q1013 NOSIG=
201212211900 METAR LMML NIL=
201212211845 METAR LMML 211845Z 31011KT 280V340 9999 FEW024 15/10 Q1013
                        NOSIG=
201212211830 METAR LMML NIL=
201212211815 METAR LMML 211815Z 31012KT 280V340 9999 FEW026 15/10 Q1013
                        NOSIG=
201212211800 METAR LMML NIL=
201212211745 METAR LMML 211745Z 31013KT 9999 FEW020 15/10 Q1013 NOSIG=
201212211730 METAR LMML NIL=
201212211715 METAR LMML 211715Z 30013KT 9999 FEW023 15/11 Q1013 NOSIG=
201212211700 METAR LMML NIL=
201212211645 METAR LMML 211645Z 31015KT 9999 FEW023 15/11 Q1013 NOSIG=
201212211630 METAR LMML NIL=
201212211615 METAR LMML 211615Z 31012KT 9999 FEW020 15/11 Q1013 NOSIG=
201212211600 METAR LMML NIL=
201212211545 METAR LMML 211545Z 31015KT 9999 SCT018 16/12 Q1012 NOSIG=
201212211530 METAR LMML NIL=
201212211515 METAR LMML 211515Z 30014KT 9999 SCT020 16/12 Q1012 NOSIG=
201212211500 METAR LMML NIL=
201212211445 METAR LMML 211445Z 30015KT 9999 SCT019 16/12 Q1012 NOSIG=
201212211430 METAR LMML NIL=
201212211415 METAR LMML 211415Z 30018KT 9999 SCT021 16/12 Q1013 NOSIG=
201212211400 METAR LMML NIL=
201212211345 METAR LMML 211345Z AUTO 30016KT 9999NDV FEW023/// SCT035///
                        17/12 Q1013 NOSIG=
201212211330 METAR LMML NIL=
201212211315 METAR LMML 211315Z 30017KT 9999 SCT020 16/12 Q1013 NOSIG=
201212211300 METAR LMML NIL=
201212211245 METAR LMML 211245Z 30016KT 9999 SCT020 17/12 Q1013 NOSIG=
201212211230 METAR LMML NIL=
201212211215 METAR LMML 211215Z 31015KT 9999 BKN021 17/12 Q1013 NOSIG=
201212211200 METAR LMML NIL=
201212211145 METAR LMML 211145Z 30016KT 9999 SCT021 17/12 Q1014 NOSIG=
201212211130 METAR LMML NIL=
201212211115 METAR LMML 211115Z 30016KT 9999 SCT020 16/12 Q1014 NOSIG=
201212211100 METAR LMML NIL=
201212211045 METAR LMML 211045Z 30015KT 9999 SCT019 17/13 Q1014 NOSIG=
201212211030 METAR LMML NIL=
201212211015 METAR LMML 211015Z 30014KT 9999 BKN019 17/12 Q1014 NOSIG=
201212210945 METAR LMML 210945Z AUTO 29012KT 9999NDV BKN019/// 17/12 Q1015
                        NOSIG=
201212210930 METAR LMML NIL=
201212210915 METAR LMML 210915Z 29012KT 9999 BKN018 17/13 Q1015 NOSIG=
201212210900 METAR LMML NIL=
201212210845 METAR LMML 210845Z 29013KT 9999 SCT017 SCT035 16/12 Q1015
                        NOSIG=
201212210830 METAR LMML NIL=
201212210815 METAR LMML 210815Z 28014KT 9999 SCT021 BKN040 16/12 Q1015
                        NOSIG=
201212210800 METAR LMML NIL=
201212210745 METAR LMML 210745Z 28012KT 9999 SCT020 BKN040 16/12 Q1015
                        NOSIG=
201212210715 METAR LMML 210715Z 27012KT 230V290 9999 SCT018 BKN035 16/12
                        Q1015 NOSIG=
201212210700 METAR LMML NIL=
201212210645 METAR LMML 210645Z 26009KT 9999 BKN016 15/12 Q1015 NOSIG=
201212210630 METAR LMML NIL=
201212210615 METAR LMML 210615Z 26010KT 9999 BKN016 15/12 Q1016 NOSIG=
201212210600 METAR LMML NIL=
201212210545 METAR LMML 210545Z 26010KT 9999 SCT017 14/12 Q1015 NOSIG=
201212210530 METAR LMML NIL=
201212210515 METAR LMML 210515Z 26008KT 9999 FEW017 14/11 Q1015 NOSIG=
201212210500 METAR LMML NIL=
201212210445 METAR LMML 210445Z 25008KT 9999 FEW018 13/11 Q1016 NOSIG=
201212210430 METAR LMML NIL=
201212210415 METAR LMML 210415Z 26008KT 9999 FEW020 13/10 Q1016 NOSIG=
201212210400 METAR LMML NIL=
201212210345 METAR LMML 210345Z AUTO 27006KT CAVOK 12/09 Q1016=
201212210315 METAR LMML 210315Z AUTO 29004KT 9999NDV SCT021/// SCT026///
                        12/09 Q1017=
201212210300 METAR LMML NIL=
201212210245 METAR LMML 210245Z AUTO 26003KT 9999NDV FEW022/// SCT083///
                        12/08 Q1017=
201212210230 METAR LMML NIL=
201212210215 METAR LMML 210215Z AUTO 27005KT CAVOK 11/07 Q1017=
201212210200 METAR LMML NIL=
201212210145 METAR LMML 210145Z AUTO 27005KT CAVOK 11/07 Q1018=
201212210130 METAR LMML NIL=
201212210115 METAR LMML 210115Z AUTO 27004KT CAVOK 11/07 Q1018=
201212210100 METAR LMML NIL=
201212210045 METAR LMML 210045Z AUTO 27005KT CAVOK 11/07 Q1018=
201212210030 METAR LMML NIL=
201212210015 METAR LMML 210015Z AUTO 29006KT CAVOK 11/07 Q1018=
201212210000 METAR LMML NIL=
201212202345 METAR LMML 202345Z AUTO 29005KT CAVOK 10/07 Q1018=
201212202330 METAR LMML NIL=
201212202315 METAR LMML 202315Z AUTO 29004KT CAVOK 10/07 Q1019=
201212202300 METAR LMML NIL=
201212202245 METAR LMML 202245Z AUTO 29005KT CAVOK 11/07 Q1019=
201212202230 METAR LMML NIL=
201212202215 METAR LMML 202215Z AUTO 27002KT CAVOK 11/07 Q1019=
201212202200 METAR LMML NIL=
201212202145 METAR LMML 202145Z AUTO 28004KT 240V320 CAVOK 10/07 Q1019=
201212202130 METAR LMML NIL=
201212202115 METAR LMML 202115Z AUTO 20003KT 140V260 CAVOK 10/06 Q1019=
201212202045 METAR LMML 202045Z VRB02KT CAVOK 10/06 Q1019 NOSIG=
201212202030 METAR LMML NIL=
201212202015 METAR LMML 202015Z VRB02KT CAVOK 10/06 Q1019 NOSIG=
201212202000 METAR LMML NIL=
201212201945 METAR LMML 201945Z 32004KT CAVOK 10/06 Q1019 NOSIG=
201212201930 METAR LMML NIL=
201212201915 METAR LMML 201915Z VRB03KT CAVOK 11/06 Q1019 NOSIG=
201212201900 METAR LMML NIL=
201212201845 METAR LMML 201845Z 31006KT 290V360 CAVOK 11/06 Q1019 NOSIG=
201212201830 METAR LMML NIL=
201212201815 METAR LMML 201815Z AUTO 32008KT CAVOK 11/06 Q1019 NOSIG=
201212201800 METAR LMML NIL=
201212201745 METAR LMML 201745Z 33010KT CAVOK 11/06 Q1018 NOSIG=
201212201730 METAR LMML NIL=
201212201715 METAR LMML 201715Z 34008KT CAVOK 11/05 Q1018 NOSIG=
201212201700 METAR LMML NIL=
201212201645 METAR LMML 201645Z 32009KT 9999 FEW030 12/06 Q1018 NOSIG=
201212201630 METAR LMML NIL=
201212201615 METAR LMML 201615Z 33009KT 9999 FEW030 12/06 Q1018 NOSIG=
201212201600 METAR LMML NIL=
201212201545 METAR LMML 201545Z 33009KT 9999 FEW030 12/06 Q1018 NOSIG=
201212201530 METAR LMML NIL=
201212201515 METAR LMML 201515Z 33011KT 9999 FEW030 13/06 Q1018 NOSIG=
201212201500 METAR LMML NIL=
201212201445 METAR LMML 201445Z 33011KT 9999 FEW030 14/06 Q1018 NOSIG=
201212201430 METAR LMML NIL=
201212201415 METAR LMML 201415Z 35013KT 9999 FEW030 14/06 Q1018 NOSIG=
201212201400 METAR LMML NIL=
201212201345 METAR LMML 201345Z 33013KT 9999 FEW030 15/06 Q1018 NOSIG=
201212201330 METAR LMML NIL=
201212201315 METAR LMML 201315Z AUTO 33014KT CAVOK 15/06 Q1018=
201212201300 METAR LMML NIL=
201212201245 METAR LMML 201245Z AUTO 33014KT CAVOK 15/06 Q1018=
201212201230 METAR LMML NIL=
201212201215 METAR LMML 201215Z AUTO 34013KT 310V010 9999NDV FEW037///
                        15/07 Q1019 NOSIG=
201212201200 METAR LMML NIL=
201212201145 METAR LMML 201145Z 33012KT 9999 FEW035 15/06 Q1019 NOSIG=
201212201130 METAR LMML NIL=
201212201115 METAR LMML 201115Z 34011KT 320V020 9999 FEW025 15/06 Q1019
                        NOSIG=
201212201100 METAR LMML NIL=
201212201045 METAR LMML 201045Z 32010KT 300V360 9999 FEW025 15/06 Q1019
                        NOSIG=
201212201030 METAR LMML NIL=
201212201015 METAR LMML 201015Z 34011KT 9999 FEW030 15/05 Q1019 NOSIG=
201212201000 METAR LMML NIL=
201212200945 METAR LMML 200945Z 33010KT 9999 FEW025 15/06 Q1020 NOSIG=
201212200930 METAR LMML NIL=
201212200915 METAR LMML 200915Z 34010KT 300V360 9999 FEW025 15/06 Q1020
                        NOSIG=
201212200900 METAR LMML NIL=
201212200845 METAR LMML 200845Z 34011KT 9999 FEW025 14/06 Q1020 NOSIG=
201212200815 METAR LMML 200815Z 33006KT 9999 FEW025 14/06 Q1019 NOSIG=
201212200800 METAR LMML NIL=
201212200745 METAR LMML 200745Z 32006KT 9999 FEW025 13/05 Q1019 NOSIG=
201212200730 METAR LMML NIL=
201212200715 METAR LMML 200715Z 32008KT 9999 FEW025 11/05 Q1019 NOSIG=
201212200700 METAR LMML NIL=
201212200645 METAR LMML 200645Z 32008KT 9999 FEW025 11/04 Q1019 NOSIG=
201212200630 METAR LMML NIL=
201212200615 METAR LMML 200615Z 30007KT 9999 FEW025 10/04 Q1019 NOSIG=
201212200600 METAR LMML NIL=
201212200545 METAR LMML 200545Z 32008KT 9999 FEW025 10/04 Q1019 NOSIG=
201212200530 METAR LMML NIL=
201212200515 METAR LMML 200515Z 32007KT CAVOK 10/04 Q1018 NOSIG=
201212200500 METAR LMML NIL=
201212200445 METAR LMML 200445Z 32007KT CAVOK 10/04 Q1018 NOSIG=
201212200430 METAR LMML NIL=
201212200415 METAR LMML 200415Z 33007KT CAVOK 10/04 Q1018 NOSIG=
201212200400 METAR LMML NIL=
201212200345 METAR LMML 200345Z AUTO 32010KT CAVOK 11/04 Q1018=
201212200330 METAR LMML NIL=
201212200315 METAR LMML 200315Z AUTO 32007KT CAVOK 11/04 Q1018=
201212200300 METAR LMML NIL=
201212200245 METAR LMML 200245Z AUTO 32012KT CAVOK 11/04 Q1018=
201212200230 METAR LMML NIL=
201212200215 METAR LMML 200215Z AUTO 32011KT CAVOK 11/04 Q1018=
201212200200 METAR LMML NIL=
201212200145 METAR LMML 200145Z AUTO 32009KT CAVOK 11/05 Q1018=
201212200130 METAR LMML NIL=
201212200115 METAR LMML 200115Z AUTO 32011KT CAVOK 11/05 Q1018=
201212200100 METAR LMML NIL=
201212200045 METAR LMML 200045Z AUTO 32010KT CAVOK 11/05 Q1018=
201212200030 METAR LMML NIL=
201212200015 METAR LMML 200015Z AUTO 33010KT CAVOK 11/05 Q1018=
201212200000 METAR LMML NIL=
201212192345 METAR LMML 192345Z AUTO 32011KT CAVOK 12/05 Q1018=
201212192330 METAR LMML NIL=
201212192315 METAR LMML 192315Z AUTO 34010KT 9999NDV SCT042/// 11/05 Q1018=
201212192300 METAR LMML NIL=
201212192245 METAR LMML 192245Z AUTO 33011KT CAVOK 12/05 Q1018=
201212192230 METAR LMML NIL=
201212192215 METAR LMML 192215Z AUTO 34010KT 9999NDV SCT040/// SCT047///
                        12/06 Q1019=
201212192200 METAR LMML NIL=
201212192145 METAR LMML 192145Z AUTO 33009KT 9999NDV SCT039/// BKN044///
                        12/06 Q1018=
201212192130 METAR LMML NIL=
201212192115 METAR LMML 192115Z 32011KT 9999 FEW035 13/06 Q1018 NOSIG=
201212192100 METAR LMML NIL=
201212192045 METAR LMML 192045Z 32012KT 9999 FEW037 13/06 Q1018 NOSIG=
201212192030 METAR LMML NIL=
201212192015 METAR LMML 192015Z 33014KT 9999 FEW036 13/06 Q1018 NOSIG=
201212192000 METAR LMML NIL=
201212191945 METAR LMML 191945Z 33011KT 9999 FEW039 13/07 Q1018 NOSIG=
201212191930 METAR LMML NIL=
201212191915 METAR LMML 191915Z 33013KT 9999 FEW025 13/07 Q1018 NOSIG=
201212191900 METAR LMML NIL=
201212191845 METAR LMML 191845Z 33011KT 9999 FEW025 13/07 Q1018 NOSIG=
201212191830 METAR LMML NIL=
201212191815 METAR LMML 191815Z 32011KT 9999 FEW025 13/07 Q1018 NOSIG=
201212191800 METAR LMML NIL=
201212191745 METAR LMML 191745Z 32010KT 9999 FEW030 13/07 Q1017 NOSIG=
201212191730 METAR LMML NIL=
201212191715 METAR LMML 191715Z 33015KT 9999 FEW030 13/07 Q1017 NOSIG=
201212191700 METAR LMML NIL=
201212191645 METAR LMML 191645Z 33013KT 9999 FEW030 13/07 Q1017 NOSIG=
201212191630 METAR LMML NIL=
201212191615 METAR LMML 191615Z 33014KT 9999 FEW030 13/07 Q1017 NOSIG=
201212191600 METAR LMML NIL=
201212191545 METAR LMML 191545Z 33015KT 9999 FEW030 14/06 Q1017 NOSIG=
201212191530 METAR LMML NIL=
201212191515 METAR LMML 191515Z 33016KT 9999 FEW030 14/07 Q1016 NOSIG=
201212191500 METAR LMML NIL=
201212191445 METAR LMML 191445Z 32018KT 9999 FEW040 15/07 Q1016 NOSIG=
201212191430 METAR LMML NIL=
201212191415 METAR LMML 191415Z 33022KT 9999 FEW040 15/06 Q1016 NOSIG=
201212191400 METAR LMML NIL=
201212191345 METAR LMML 191345Z 33021KT 9999 FEW040 15/07 Q1016 NOSIG=
201212191330 METAR LMML NIL=
201212191315 METAR LMML 191315Z 32020G30KT 9999 FEW040 16/06 Q1016 NOSIG=
201212191245 METAR LMML 191245Z AUTO 33020KT CAVOK 16/06 Q1016 NOSIG=
201212191215 METAR LMML 191215Z 33022KT 9999 FEW040 16/06 Q1016 NOSIG=
201212191200 METAR LMML NIL=
201212191145 METAR LMML 191145Z AUTO 33023KT CAVOK 16/06 Q1016 NOSIG=
201212191130 METAR LMML NIL=
201212191115 METAR LMML 191115Z 32021G32KT 9999 FEW040 16/06 Q1016 NOSIG=
201212191100 METAR LMML NIL=
201212191045 METAR LMML 191045Z 32019KT 9999 FEW038 16/07 Q1016 NOSIG=
201212191030 METAR LMML NIL=
201212191015 METAR LMML 191015Z 32020G31KT 9999 FEW042 16/06 Q1016 NOSIG=
201212191000 METAR LMML NIL=
201212190945 METAR LMML 190945Z 32020G30KT 9999 FEW040 15/06 Q1016 NOSIG=
201212190915 METAR LMML 190915Z 33020KT 9999 FEW040 15/06 Q1016 NOSIG=
201212190900 METAR LMML NIL=
201212190845 METAR LMML 190845Z 33019KT 9999 FEW040 15/06 Q1016 NOSIG=
201212190815 METAR LMML 190815Z 33016KT 9999 FEW040 14/07 Q1016 NOSIG=
201212190800 METAR LMML NIL=
201212190745 METAR LMML 190745Z 32016KT 9999 SCT040 14/06 Q1016 NOSIG=
201212190715 METAR LMML 190715Z 33015KT 9999 SCT035 13/07 Q1015 NOSIG=
201212190700 METAR LMML NIL=
201212190645 METAR LMML 190645Z 33012KT 9999 SCT035 13/07 Q1015 NOSIG=
201212190630 METAR LMML NIL=
201212190615 METAR LMML 190615Z 32014KT 9999 SCT035 13/06 Q1015 NOSIG=
201212190600 METAR LMML NIL=
201212190545 METAR LMML 190545Z 32012KT 9999 SCT036 12/07 Q1015 NOSIG=
201212190530 METAR LMML NIL=
201212190515 METAR LMML 190515Z 32014KT 9999 SCT036 13/07 Q1014 NOSIG=
201212190500 METAR LMML NIL=
201212190445 METAR LMML 190445Z 32014KT 9999 SCT036 12/07 Q1014 NOSIG=
201212190430 METAR LMML NIL=
201212190415 METAR LMML 190415Z 33014KT 9999 SCT045 12/07 Q1014 NOSIG=
201212190400 METAR LMML NIL=
201212190345 METAR LMML 190345Z AUTO 33016KT CAVOK 12/08 Q1014=
201212190330 METAR LMML NIL=
201212190315 METAR LMML 190315Z AUTO 32014KT CAVOK 12/08 Q1014=
201212190304 SPECI LMML 190304Z AUTO 31017KT CAVOK 13/08 Q1014=
201212190302 SPECI LMML 190302Z AUTO 31016KT 9999NDV +RA FEW052/// 13/08
                        Q1014=
201212190301 SPECI LMML 190301Z AUTO 31016KT 9999NDV RA FEW052/// 13/08
                        Q1014=
201212190300 METAR LMML NIL=
201212190300 SPECI LMML 190300Z AUTO 31016KT 9999NDV -RA FEW052/// 13/08
                        Q1014=
201212190245 METAR LMML 190245Z AUTO 33015KT CAVOK 12/08 Q1014=
201212190230 METAR LMML NIL=
201212190215 METAR LMML 190215Z AUTO 33015KT CAVOK 12/08 Q1015=
201212190200 METAR LMML NIL=
201212190145 METAR LMML 190145Z AUTO 33016KT CAVOK 12/07 Q1014=
201212190130 METAR LMML NIL=
201212190115 METAR LMML 190115Z AUTO 32015KT CAVOK 13/08 Q1014=
201212190100 METAR LMML NIL=
201212190045 METAR LMML 190045Z AUTO 33017KT CAVOK 12/08 Q1014=
201212190030 METAR LMML NIL=
201212190015 METAR LMML 190015Z AUTO 33019KT CAVOK 12/08 Q1014=
201212190011 SPECI LMML 190011Z AUTO 33018KT CAVOK 12/08 Q1014=
201212190010 SPECI LMML 190010Z AUTO 33018KT 9999NDV +SHRA NSC 12/08 Q1014=
201212190009 SPECI LMML 190009Z AUTO 33018KT CAVOK 12/08 Q1014=
201212190008 SPECI LMML 190008Z AUTO 33017KT 9999NDV SHRA NSC 12/08 Q1014=
201212190000 METAR LMML NIL=
201212182345 METAR LMML 182345Z AUTO 33018KT 9999NDV +SHRA NCD 12/08 Q1014=
201212182345 SPECI LMML 182345Z AUTO 33018KT 9999NDV +SHRA NSC 12/08 Q1014=
201212182330 METAR LMML NIL=
201212182315 METAR LMML 182315Z AUTO 33018KT 9999NDV FEW035/// BKN039///
                        BKN045/// 12/09 Q1014=
201212182311 SPECI LMML 182311Z AUTO 33020KT 8000NDV -RA FEW035/// BKN043///
                        BKN057/// 12/09 Q1015=
201212182308 SPECI LMML 182308Z AUTO 34021G31KT 5000NDV RA FEW035/// SCT043///
                        BKN120/// 12/09 Q1015=
201212182306 SPECI LMML 182306Z AUTO 34021G31KT 7000NDV +RA FEW035///
                        SCT043/// BKN095/// 12/09 Q1015=
201212182303 SPECI LMML 182303Z AUTO 34020G31KT 9999NDV +RA FEW042///
                        SCT067/// BKN100/// 12/08 Q1015=
201212182300 METAR LMML NIL=
201212182300 SPECI LMML 182300Z AUTO 34018KT 9999NDV RA FEW042/// SCT063///
                        BKN093/// 12/08 Q1015=
201212182245 METAR LMML 182245Z AUTO 34016KT CAVOK 12/08 Q1014=
201212182245 SPECI LMML 182245Z AUTO 34016KT CAVOK 12/08 Q1014=
201212182242 SPECI LMML 182242Z AUTO 33015KT 9999NDV RA FEW062/// 12/08
                        Q1014=
201212182230 METAR LMML NIL=
201212182215 METAR LMML 182215Z AUTO 32015KT CAVOK 12/08 Q1014=
201212182145 METAR LMML 182145Z AUTO 32015KT CAVOK 11/08 Q1014=
201212182132 SPECI LMML 182132Z AUTO 33017KT 9999NDV FEW040/// SCT046///
                        11/09 Q1014=
201212182115 METAR LMML 182115Z AUTO 34018KT 9999NDV +RA FEW020/// SCT034///
                        BKN110/// 11/09 Q1015=
201212182109 SPECI LMML 182109Z AUTO 34018KT 9999NDV +RA FEW020/// SCT034///
                        BKN110/// 11/09 Q1015=
201212182108 SPECI LMML 182108Z AUTO 34019KT 9999NDV RA FEW025/// SCT064///
                        BKN110/// 11/09 Q1015=
201212182100 METAR LMML NIL=
201212182100 SPECI LMML 182100Z AUTO 35018KT 9999NDV FEW039/// 11/09 Q1014=
201212182045 METAR LMML 182045Z 34022G32KT 310V010 9999 -SHRA BKN016 12/07
                        Q1014 NOSIG=
201212182030 METAR LMML NIL=
201212182015 METAR LMML 182015Z 31020KT 9999 SCT036 14/08 Q1014 NOSIG=
201212182000 METAR LMML NIL=
201212181945 METAR LMML 181945Z 31023G34KT 9999 SCT041 15/07 Q1014 NOSIG=
201212181930 METAR LMML NIL=
201212181915 METAR LMML 181915Z 31023G35KT 9999 FEW045 15/07 Q1014 NOSIG=
201212181900 METAR LMML NIL=
201212181845 METAR LMML 181845Z 31024G37KT 9999 FEW042 15/07 Q1014 NOSIG=
201212181830 METAR LMML NIL=
201212181815 METAR LMML 181815Z 32027KT 9999 FEW042 15/05 Q1014 NOSIG=
201212181800 METAR LMML NIL=
201212181745 METAR LMML 181745Z 32026G36KT 9999 FEW037 15/07 Q1014 NOSIG=
201212181730 METAR LMML NIL=
201212181715 METAR LMML 181715Z 31028G38KT 9999 FEW037 15/07 Q1014 NOSIG=
201212181700 METAR LMML NIL=
201212181645 METAR LMML 181645Z 31025G38KT 9999 FEW033 15/08 Q1014 NOSIG=
201212181630 METAR LMML NIL=
201212181615 METAR LMML 181615Z 32025G35KT 9999 SCT035 15/07 Q1014 NOSIG=
201212181600 METAR LMML NIL=
201212181545 METAR LMML 181545Z 32026KT 9999 SCT034 15/08 Q1014 TEMPO
                        31027G37KT=
201212181530 METAR LMML NIL=
201212181515 METAR LMML 181515Z 32026G36KT 9999 SCT035 16/07 Q1014 NOSIG=
201212181445 METAR LMML 181445Z 32024G35KT 9999 SCT032 16/08 Q1014 NOSIG=
201212181430 METAR LMML NIL=
201212181415 METAR LMML 181415Z 31024KT 9999 SCT033 16/09 Q1014 TEMPO
                        32025G35KT=
201212181400 METAR LMML NIL=
201212181345 METAR LMML 181345Z 32023KT 9999 SCT031 16/09 Q1014 TEMPO
                        32025G35KT=
201212181330 METAR LMML NIL=
201212181315 METAR LMML 181315Z 31024G36KT 9999 FEW031 17/09 Q1013 NOSIG=
201212181300 METAR LMML NIL=
201212181245 METAR LMML 181245Z 32023KT 9999 SCT033 17/09 Q1014 TEMPO
                        32025G35KT=
201212181230 METAR LMML NIL=
201212181215 METAR LMML 181215Z 31026KT 9999 SCT031 17/09 Q1014 TEMPO
                        32025G35KT=
201212181200 METAR LMML NIL=
201212181145 METAR LMML 181145Z 31023KT 9999 SCT031 16/08 Q1014 TEMPO
                        32025G35KT=
201212181130 METAR LMML NIL=
201212181115 METAR LMML 181115Z 31024KT 9999 SCT033 17/08 Q1015 TEMPO
                        32025G35KT=
201212181100 METAR LMML NIL=
201212181045 METAR LMML 181045Z 32023KT 9999 SCT031 17/09 Q1015 TEMPO
                        32025G35KT=
201212181030 METAR LMML NIL=
201212181015 METAR LMML 181015Z 31022KT 9999 SCT028 17/10 Q1015 TEMPO
                        32025G35KT=
201212181000 METAR LMML NIL=
201212180945 METAR LMML 180945Z 33021KT 9999 SCT032 17/09 Q1016 TEMPO
                        32025G35KT=
201212180930 METAR LMML NIL=
201212180915 METAR LMML 180915Z 32022KT 9999 SCT034 16/08 Q1015 TEMPO
                        32025G35KT=
201212180900 METAR LMML NIL=
201212180845 METAR LMML 180845Z 33023KT 9999 SCT032 16/09 Q1015 TEMPO
                        32025G35KT=
201212180830 METAR LMML NIL=
201212180815 METAR LMML 180815Z 32024KT 9999 FEW035 16/08 Q1015 TEMPO
                        32025G35KT=
201212180800 METAR LMML NIL=
201212180745 METAR LMML 180745Z 32023KT 9999 FEW035 16/08 Q1015 TEMPO
                        32025G35KT=
201212180730 METAR LMML NIL=
201212180715 METAR LMML 180715Z 33017KT 9999 SCT034 15/08 Q1015 TEMPO
                        32020G30KT=
201212180700 METAR LMML NIL=
201212180645 METAR LMML 180645Z 32021G31KT 9999 SCT037 15/08 Q1014 NOSIG=
201212180630 METAR LMML NIL=
201212180615 METAR LMML 180615Z 33020KT 9999 SCT041 14/07 Q1014 TEMPO
                        32020G30KT=
201212180600 METAR LMML NIL=
201212180545 METAR LMML 180545Z 33020KT 9999 SCT035 15/07 Q1014 NOSIG=
201212180530 METAR LMML NIL=
201212180515 METAR LMML 180515Z 33020KT 9999 FEW036 15/08 Q1014 NOSIG=
201212180500 METAR LMML NIL=
201212180445 METAR LMML 180445Z 33021KT 9999 SCT038 15/07 Q1014 NOSIG=
201212180415 METAR LMML 180415Z 33022KT 9999 FEW040 15/08 Q1014 NOSIG=
201212180345 METAR LMML 180345Z 32019KT 9999 FEW040 15/08 Q1014 NOSIG=
201212180315 METAR LMML 180315Z 32020G30KT 9999 FEW030 15/07 Q1014 NOSIG=
201212180300 METAR LMML NIL=
201212180245 METAR LMML 180245Z AUTO 32024G34KT CAVOK 15/06 Q1014=
201212180230 METAR LMML NIL=
201212180215 METAR LMML 180215Z AUTO 32021G31KT 280V340 9999NDV BKN036///
                        BKN042/// 16/08 Q1014=
201212180200 METAR LMML NIL=
201212180145 METAR LMML 180145Z AUTO 31018KT 9999NDV SCT037/// 16/08 Q1014=
201212180130 METAR LMML NIL=
201212180115 METAR LMML 180115Z AUTO 31023G33KT 9999NDV SCT037/// BKN043///
                        16/08 Q1014=
201212180100 METAR LMML NIL=
201212180045 METAR LMML 180045Z AUTO 30021KT CAVOK 16/09 Q1014=
201212180030 METAR LMML NIL=
201212180015 METAR LMML 180015Z AUTO 30019KT CAVOK 16/10 Q1014=
201212180000 METAR LMML NIL=
201212172345 METAR LMML 172345Z AUTO 30018KT CAVOK 16/12 Q1014=
201212172330 METAR LMML NIL=
201212172315 METAR LMML 172315Z AUTO 30017KT 9999NDV FEW022/// SCT026///
                        16/12 Q1014=
201212172300 METAR LMML NIL=
201212172245 METAR LMML 172245Z AUTO 30018KT 9999NDV FEW021/// SCT033///
                        16/13 Q1014=
201212172230 METAR LMML NIL=
201212172215 METAR LMML 172215Z AUTO 29016KT 9999NDV FEW019/// SCT031///
                        17/13 Q1014=
201212172200 METAR LMML NIL=
201212172145 METAR LMML 172145Z AUTO 29015G26KT 9999NDV FEW019/// SCT041///
                        BKN058/// 17/13 Q1014=
201212172130 METAR LMML NIL=
201212172115 METAR LMML 172115Z AUTO 29015KT 9999NDV FEW019/// BKN022///
                        BKN026/// 17/13 Q1014=
201212172100 METAR LMML NIL=
201212172045 METAR LMML 172045Z AUTO 29016KT 9999NDV FEW021/// SCT024///
                        BKN041/// 17/13 Q1014=
201212172015 METAR LMML 172015Z AUTO 29016KT 9999NDV FEW022/// SCT027///
                        BKN032/// 17/12 Q1015=
201212172000 METAR LMML NIL=
201212171945 METAR LMML 171945Z 29017KT 9999 SCT024 17/12 Q1015 NOSIG=
201212171915 METAR LMML 171915Z 29017KT 9999 FEW025 17/12 Q1015 NOSIG=
201212171900 METAR LMML NIL=
201212171845 METAR LMML 171845Z 29015KT 9999 FEW025 17/12 Q1015 NOSIG=
201212171830 METAR LMML NIL=
201212171815 METAR LMML 171815Z 30015KT 9999 FEW025 17/12 Q1015 NOSIG=
201212171800 METAR LMML NIL=
201212171745 METAR LMML 171745Z 30013KT 9999 FEW025 17/12 Q1015 NOSIG=
201212171730 METAR LMML NIL=
201212171715 METAR LMML 171715Z 30014KT 9999 SCT024 16/12 Q1015 NOSIG=
201212171700 METAR LMML NIL=
201212171645 METAR LMML 171645Z 30014KT 9999 SCT024 16/12 Q1015 NOSIG=
201212171630 METAR LMML NIL=
201212171615 METAR LMML 171615Z 30013KT 9999 SCT022 16/12 Q1015 NOSIG=
201212171600 METAR LMML NIL=
201212171545 METAR LMML 171545Z 30015KT 9999 SCT023 16/12 Q1015 NOSIG=
201212171530 METAR LMML NIL=
201212171515 METAR LMML 171515Z 30017KT 9999 SCT026 16/12 Q1015 NOSIG=
201212171500 METAR LMML NIL=
201212171445 METAR LMML 171445Z 30013KT 9999 BKN022 16/12 Q1015 NOSIG=
201212171430 METAR LMML NIL=
201212171415 METAR LMML 171415Z AUTO 30015KT 9999NDV SCT021/// SCT029///
                        BKN033/// 17/12 Q1015 NOSIG=
201212171400 METAR LMML NIL=
201212171345 METAR LMML 171345Z 30018KT 9999 BKN022 17/12 Q1015 NOSIG=
201212171330 METAR LMML NIL=
201212171315 METAR LMML 171315Z 31016KT 9999 BKN022 17/12 Q1015 NOSIG=
201212171300 METAR LMML NIL=
201212171245 METAR LMML 171245Z 30018KT 9999 SCT022 17/12 Q1016 NOSIG=
201212171230 METAR LMML NIL=
201212171215 METAR LMML 171215Z 31015KT 9999 SCT022 17/12 Q1016 NOSIG=
201212171200 METAR LMML NIL=
201212171145 METAR LMML 171145Z 31016KT 9999 SCT022 17/12 Q1016 NOSIG=
201212171130 METAR LMML NIL=
201212171115 METAR LMML 171115Z 30016KT 9999 SCT021 17/12 Q1016 NOSIG=
201212171100 METAR LMML NIL=
201212171045 METAR LMML 171045Z 31017KT 280V340 9999 SCT022 17/12 Q1017
                        NOSIG=
201212171030 METAR LMML NIL=
201212171015 METAR LMML 171015Z 30015KT 9999 SCT020 17/13 Q1017 NOSIG=
201212171000 METAR LMML NIL=
201212170945 METAR LMML 170945Z 31015KT 9999 SCT020 18/12 Q1017 NOSIG=
201212170930 METAR LMML NIL=
201212170915 METAR LMML 170915Z 31017KT 9999 FEW021 18/12 Q1018 NOSIG=
201212170900 METAR LMML NIL=
201212170845 METAR LMML 170845Z 31015KT 9999 FEW018 17/13 Q1018 NOSIG=
201212170830 METAR LMML NIL=
201212170815 METAR LMML 170815Z 32014KT 9999 SCT018 17/13 Q1018 NOSIG=
201212170800 METAR LMML NIL=
201212170745 METAR LMML 170745Z 31012KT 9999 FEW017 16/13 Q1017 NOSIG=
201212170730 METAR LMML NIL=
201212170715 METAR LMML 170715Z 31012KT 9999 SCT018 16/13 Q1017 NOSIG=
201212170700 METAR LMML NIL=
201212170645 METAR LMML 170645Z 31010KT 9999 SCT017 16/13 Q1017 NOSIG=
201212170630 METAR LMML NIL=
201212170615 METAR LMML 170615Z 31012KT 9999 FEW016 BKN037 16/13 Q1017
                        NOSIG=
201212170600 METAR LMML NIL=
201212170545 METAR LMML 170545Z 31010KT 9999 FEW017 16/13 Q1017 NOSIG=
201212170530 METAR LMML NIL=
201212170515 METAR LMML 170515Z 31010KT 9999 FEW017 15/13 Q1017 NOSIG=
201212170500 METAR LMML NIL=
201212170445 METAR LMML 170445Z 32011KT 9999 FEW020 15/13 Q1017 NOSIG=
201212170430 METAR LMML NIL=
201212170415 METAR LMML 170415Z 32011KT 9999 FEW020 15/13 Q1017 NOSIG=
201212170400 METAR LMML NIL=
201212170345 METAR LMML 170345Z AUTO 32012KT 9999NDV FEW016/// SCT019///
                        BKN033/// 16/13 Q1017=
201212170330 METAR LMML NIL=
201212170315 METAR LMML 170315Z AUTO 31012KT 9999NDV FEW019/// 16/13 Q1017=
201212170300 METAR LMML NIL=
201212170245 METAR LMML 170245Z AUTO 31013KT 9999NDV FEW015/// 16/13 Q1017=
201212170230 METAR LMML NIL=
201212170215 METAR LMML 170215Z AUTO 31014KT 9999NDV FEW015/// SCT030///
                        BKN074/// 16/14 Q1018=
201212170200 METAR LMML NIL=
201212170145 METAR LMML 170145Z AUTO 31013KT 9999NDV FEW016/// BKN030///
                        BKN034/// 16/13 Q1018=
201212170130 METAR LMML NIL=
201212170115 METAR LMML 170115Z AUTO 31015KT 9999NDV SCT014/// SCT021///
                        BKN025/// 16/14 Q1018=
201212170100 METAR LMML NIL=
201212170045 METAR LMML 170045Z AUTO 29012KT 9999NDV FEW016/// BKN018///
                        BKN022/// 16/14 Q1018=
201212170030 METAR LMML NIL=
201212170015 METAR LMML 170015Z AUTO 30014KT 9999NDV BKN019/// OVC022///
                        16/13 Q1018=
201212170000 METAR LMML NIL=
201212162345 METAR LMML 162345Z AUTO 31016G26KT 9999NDV FEW015/// SCT017///
                        OVC020/// 17/13 Q1019=
201212162330 METAR LMML NIL=
201212162315 METAR LMML 162315Z AUTO 29014KT 9999NDV BKN021/// BKN024///
                        OVC028/// 17/13 Q1019=
201212162300 METAR LMML NIL=
201212162245 METAR LMML 162245Z AUTO 30014KT 9999NDV BKN020/// BKN028///
                        OVC032/// 17/13 Q1019=
201212162230 METAR LMML NIL=
201212162215 METAR LMML 162215Z AUTO 28010KT 9999NDV BKN025/// OVC029///
                        17/12 Q1019=
201212162200 METAR LMML NIL=
201212162145 METAR LMML 162145Z AUTO 28010KT 9999NDV BKN028/// OVC032///
                        17/13 Q1019=
201212162130 METAR LMML NIL=
201212162115 METAR LMML 162115Z AUTO 28008KT 250V310 CAVOK 17/14 Q1019=
201212162045 METAR LMML 162045Z 30008KT 9999 FEW034 16/13 Q1019 NOSIG=
201212162030 METAR LMML NIL=
201212162015 METAR LMML 162015Z 30009KT 9999 FEW033 16/14 Q1019 NOSIG=
201212162000 METAR LMML NIL=
201212161945 METAR LMML 161945Z 31009KT CAVOK 17/13 Q1020 NOSIG=
201212161930 METAR LMML NIL=
201212161915 METAR LMML 161915Z 32012KT CAVOK 17/14 Q1020 NOSIG=
201212161900 METAR LMML NIL=
201212161845 METAR LMML 161845Z 31011KT CAVOK 17/14 Q1020 NOSIG=
201212161830 METAR LMML NIL=
201212161815 METAR LMML 161815Z 30008KT CAVOK 16/13 Q1020 NOSIG=
201212161800 METAR LMML NIL=
201212161745 METAR LMML 161745Z 30008KT CAVOK 16/12 Q1020 NOSIG=
201212161730 METAR LMML NIL=
201212161715 METAR LMML 161715Z 29007KT CAVOK 16/12 Q1020 NOSIG=
201212161700 METAR LMML NIL=
201212161645 METAR LMML 161645Z 30007KT CAVOK 16/12 Q1020 NOSIG=
201212161630 METAR LMML NIL=
201212161615 METAR LMML 161615Z 30006KT CAVOK 17/12 Q1020 NOSIG=
201212161600 METAR LMML NIL=
201212161545 METAR LMML 161545Z 30008KT CAVOK 17/13 Q1020 NOSIG=
201212161530 METAR LMML NIL=
201212161515 METAR LMML 161515Z 29008KT CAVOK 18/13 Q1020 NOSIG=
201212161500 METAR LMML NIL=
201212161445 METAR LMML 161445Z 30009KT CAVOK 17/12 Q1020 NOSIG=
201212161430 METAR LMML NIL=
201212161415 METAR LMML 161415Z 29010KT 260V320 CAVOK 18/14 Q1020 NOSIG=
201212161400 METAR LMML NIL=
201212161345 METAR LMML 161345Z 27011KT CAVOK 18/14 Q1020 NOSIG=
201212161315 METAR LMML 161315Z AUTO 29014KT CAVOK 18/14 Q1020=
201212161300 METAR LMML NIL=
201212161245 METAR LMML 161245Z 28012KT 9999 FEW013 18/15 Q1020 NOSIG=
201212161230 METAR LMML NIL=
201212161215 METAR LMML 161215Z 28012KT 9999 FEW016 18/14 Q1021 NOSIG=
201212161200 METAR LMML NIL=
201212161145 METAR LMML 161145Z 30011KT CAVOK 18/12 Q1021 NOSIG=
201212161130 METAR LMML NIL=
201212161115 METAR LMML 161115Z 30012KT 9999 FEW016 18/14 Q1021 NOSIG=
201212161100 METAR LMML NIL=
201212161045 METAR LMML 161045Z 31013KT 9999 FEW018 18/14 Q1022 NOSIG=
201212161030 METAR LMML NIL=
201212161015 METAR LMML 161015Z 30014KT 9999 FEW016 18/14 Q1022 NOSIG=
201212161000 METAR LMML NIL=
201212160945 METAR LMML 160945Z 30014KT 9999 FEW019 18/14 Q1022 NOSIG=
201212160930 METAR LMML NIL=
201212160915 METAR LMML 160915Z 28010KT CAVOK 17/14 Q1022 NOSIG=
201212160900 METAR LMML NIL=
201212160845 METAR LMML 160845Z 29009KT CAVOK 17/14 Q1022 NOSIG=
201212160830 METAR LMML NIL=
201212160815 METAR LMML 160815Z 30010KT 9999 FEW020 17/15 Q1022 NOSIG=
201212160800 METAR LMML NIL=
201212160745 METAR LMML 160745Z 30008KT 9999 FEW020 16/14 Q1022 NOSIG=
201212160730 METAR LMML NIL=
201212160715 METAR LMML 160715Z 29008KT CAVOK 16/14 Q1022 NOSIG=
201212160700 METAR LMML NIL=
201212160645 METAR LMML 160645Z 28008KT CAVOK 16/14 Q1022 NOSIG=
201212160630 METAR LMML NIL=
201212160615 METAR LMML 160615Z 27007KT CAVOK 15/13 Q1022 NOSIG=
201212160600 METAR LMML NIL=
201212160545 METAR LMML 160545Z 28007KT CAVOK 15/13 Q1022 NOSIG=
201212160530 METAR LMML NIL=
201212160515 METAR LMML 160515Z 28007KT CAVOK 15/13 Q1022 NOSIG=
201212160500 METAR LMML NIL=
201212160445 METAR LMML 160445Z 26007KT CAVOK 15/13 Q1022 NOSIG=
201212160430 METAR LMML NIL=
201212160415 METAR LMML 160415Z 27007KT CAVOK 15/13 Q1021 NOSIG=
201212160400 METAR LMML NIL=
201212160345 METAR LMML 160345Z 27007KT CAVOK 15/13 Q1021 NOSIG=
201212160330 METAR LMML NIL=
201212160315 METAR LMML 160315Z 26006KT CAVOK 14/13 Q1022 NOSIG=
201212160300 METAR LMML NIL=
201212160245 METAR LMML 160245Z AUTO 26006KT CAVOK 14/13 Q1022=
201212160230 METAR LMML NIL=
201212160215 METAR LMML 160215Z AUTO 27006KT CAVOK 15/14 Q1022=
201212160200 METAR LMML NIL=
201212160145 METAR LMML 160145Z AUTO 26005KT CAVOK 14/13 Q1022=
201212160130 METAR LMML NIL=
201212160115 METAR LMML 160115Z AUTO 28005KT CAVOK 15/14 Q1022=
201212160100 METAR LMML NIL=
201212160045 METAR LMML 160045Z AUTO 26004KT CAVOK 15/14 Q1022=
201212160030 METAR LMML NIL=
201212160015 METAR LMML 160015Z AUTO 26005KT CAVOK 14/14 Q1022=
201212160000 METAR LMML NIL=
201212152345 METAR LMML 152345Z AUTO 29006KT CAVOK 15/14 Q1022=
201212152330 METAR LMML NIL=
201212152315 METAR LMML 152315Z AUTO 29007KT CAVOK 15/14 Q1022=
201212152300 METAR LMML NIL=
201212152245 METAR LMML 152245Z AUTO 30006KT CAVOK 14/14 Q1023=
201212152230 METAR LMML NIL=
201212152215 METAR LMML 152215Z AUTO 29004KT CAVOK 14/14 Q1023=
201212152200 METAR LMML NIL=
201212152145 METAR LMML 152145Z AUTO 32006KT CAVOK 14/13 Q1023=
201212152130 METAR LMML NIL=
201212152115 METAR LMML 152115Z AUTO 30007KT 9000NDV NCD 15/14 Q1023=
201212152100 METAR LMML NIL=
201212152045 METAR LMML 152045Z 27004KT CAVOK 14/13 Q1022 NOSIG=
201212152030 METAR LMML NIL=
201212152015 METAR LMML 152015Z 28006KT CAVOK 15/14 Q1022 NOSIG=
201212152000 METAR LMML NIL=
201212151945 METAR LMML 151945Z 27005KT CAVOK 15/14 Q1022 NOSIG=
201212151930 METAR LMML NIL=
201212151915 METAR LMML 151915Z 28005KT CAVOK 14/13 Q1022 NOSIG=
201212151900 METAR LMML NIL=
201212151845 METAR LMML 151845Z 30004KT CAVOK 14/13 Q1022 NOSIG=
201212151830 METAR LMML NIL=
201212151815 METAR LMML 151815Z 28004KT 9000 NSC 15/14 Q1022 NOSIG=
201212151800 METAR LMML NIL=
201212151745 METAR LMML 151745Z 28003KT 9000 NSC 15/14 Q1022 NOSIG=
201212151730 METAR LMML NIL=
201212151715 METAR LMML 151715Z VRB02KT CAVOK 16/14 Q1022 NOSIG=
201212151700 METAR LMML NIL=
201212151645 METAR LMML 151645Z 28002KT CAVOK 16/15 Q1022 NOSIG=
201212151630 METAR LMML NIL=
201212151615 METAR LMML 151615Z 30003KT CAVOK 17/15 Q1022 NOSIG=
201212151600 METAR LMML NIL=
201212151545 METAR LMML 151545Z VRB02KT CAVOK 17/15 Q1022 NOSIG=
201212151530 METAR LMML NIL=
201212151515 METAR LMML 151515Z 22004KT 160V260 9999 FEW020 18/15 Q1021
                        NOSIG=
201212151500 METAR LMML NIL=
201212151445 METAR LMML 151445Z 20006KT 170V240 CAVOK 18/15 Q1021 NOSIG=
201212151430 METAR LMML NIL=
201212151415 METAR LMML 151415Z 20009KT CAVOK 19/14 Q1021 NOSIG=
201212151345 METAR LMML 151345Z 20007KT CAVOK 19/14 Q1021 NOSIG=
201212151315 METAR LMML 151315Z AUTO 19006KT 160V240 CAVOK 19/14 Q1021=
201212151300 METAR LMML NIL=
201212151245 METAR LMML 151245Z 20008KT 160V230 9999 FEW020 19/14 Q1021
                        NOSIG=
201212151215 METAR LMML 151215Z 20008KT 170V240 9999 FEW018 19/14 Q1022
                        NOSIG=
201212151200 METAR LMML NIL=
201212151145 METAR LMML 151145Z 20006KT 170V240 9999 FEW018 20/14 Q1022
                        NOSIG=
201212151130 METAR LMML NIL=
201212151115 METAR LMML 151115Z 18008KT 9999 FEW018 19/15 Q1022 NOSIG=
201212151045 METAR LMML 151045Z 17009KT 9999 FEW020 19/15 Q1023 NOSIG=
201212151030 METAR LMML NIL=
201212151015 METAR LMML 151015Z 17009KT 9999 FEW020 19/16 Q1023 NOSIG=
201212151000 METAR LMML NIL=
201212150945 METAR LMML 150945Z 16009KT 9999 FEW020 19/16 Q1023 NOSIG=
201212150930 METAR LMML NIL=
201212150915 METAR LMML 150915Z 15007KT 9999 FEW020 18/17 Q1023 NOSIG=
201212150845 METAR LMML 150845Z 15005KT CAVOK 17/17 Q1023 NOSIG=
201212150830 METAR LMML NIL=
201212150815 METAR LMML 150815Z 13004KT 9000 NSC 17/16 Q1023 BECMG 9999=
201212150800 METAR LMML NIL=
201212150745 METAR LMML 150745Z 14004KT 100V160 8000 FEW015 16/16 Q1023
                        BECMG 9999=
201212150715 METAR LMML 150715Z 14004KT 8000 FEW015 15/14 Q1022 BECMG
                        9999=
201212150700 METAR LMML NIL=
201212150645 METAR LMML 150645Z 12003KT 040V170 6000 BCMIFG FEW011 13/13
                        Q1022 BECMG 8000 NSW=
201212150630 METAR LMML NIL=
201212150615 METAR LMML 150615Z 11002KT 4000 R13/0100V1200U R31/0150VP2000D
                        MIFG FEW011 13/13 Q1022 BECMG 8000
                        NSW=
201212150600 METAR LMML NIL=
201212150545 METAR LMML 150545Z 12003KT 4000 R13/0550VP2000D R31/0225VP2000D
                        MIFG FEW037 14/13 Q1022 NOSIG=
201212150530 METAR LMML NIL=
201212150515 METAR LMML 150515Z 12003KT 070V140 6000 FEW020 14/14 Q1022
                        TEMPO 4000 MIFG=
201212150500 METAR LMML NIL=
201212150445 METAR LMML 150445Z 13004KT 7000 FEW020 14/14 Q1021 TEMPO
                        4000 MIFG=
201212150430 METAR LMML NIL=
201212150415 METAR LMML 150415Z 15005KT 7000 FEW024 14/13 Q1021 TEMPO
                        4000 MIFG=
201212150400 METAR LMML NIL=
201212150345 METAR LMML 150345Z 15006KT 7000 NSC 14/13 Q1021 TEMPO 4000
                        MIFG=
201212150332 SPECI LMML 150332Z AUTO 15006KT 2900NDV NSC 14/13 Q1021=
201212150330 METAR LMML NIL=
201212150315 METAR LMML 150315Z AUTO 15006KT 8000NDV HZ NCD 14/13 Q1021=
201212150315 SPECI LMML 150315Z AUTO 15006KT 8000NDV HZ NSC 14/13 Q1021=
201212150300 METAR LMML NIL=
201212150245 METAR LMML 150245Z AUTO 15005KT 6000NDV HZ NCD 14/13 Q1021=
201212150230 METAR LMML NIL=
201212150215 METAR LMML 150215Z AUTO 14005KT 5000NDV HZ NCD 14/14 Q1021=
201212150201 SPECI LMML 150201Z AUTO 14005KT 7000NDV HZ NSC 14/14 Q1021=
201212150200 METAR LMML NIL=
201212150200 SPECI LMML 150200Z AUTO 14005KT 8000NDV HZ NSC 14/14 Q1021=
201212150145 METAR LMML 150145Z AUTO 12004KT 5000NDV HZ NCD 14/14 Q1022=
201212150134 SPECI LMML 150134Z AUTO 12005KT 6000NDV HZ NSC 14/14 Q1022=
201212150130 METAR LMML NIL=
201212150115 METAR LMML 150115Z AUTO 13004KT 2300NDV R31/0125VP2000D HZ
                        NCD 14/13 Q1022=
201212150114 SPECI LMML 150114Z AUTO 13004KT 2800NDV R31/0125VP2000D HZ
                        NSC 14/13 Q1022=
201212150100 METAR LMML NIL=
201212150045 METAR LMML 150045Z AUTO 12003KT 4900NDV HZ NCD 14/13 Q1022=
201212150045 SPECI LMML 150045Z AUTO 12003KT 4900NDV HZ NSC 14/13 Q1022=
201212150030 METAR LMML NIL=
201212150015 METAR LMML 150015Z AUTO 12003KT 5000NDV HZ NCD 14/13 Q1022=
201212150000 METAR LMML NIL=
201212142345 METAR LMML 142345Z AUTO 13004KT 8000NDV NCD 14/14 Q1022=
201212142330 METAR LMML NIL=
201212142315 METAR LMML 142315Z AUTO 14004KT 9000NDV NCD 14/13 Q1022=
201212142300 METAR LMML NIL=
201212142245 METAR LMML 142245Z AUTO 14005KT 9999NDV HZ NCD 14/13 Q1022=
201212142230 METAR LMML NIL=
201212142215 METAR LMML 142215Z AUTO 13005KT CAVOK 14/13 Q1022=
201212142200 METAR LMML NIL=
201212142145 METAR LMML 142145Z AUTO 14006KT CAVOK 14/13 Q1022=
201212142130 METAR LMML NIL=
201212142115 METAR LMML 142115Z AUTO 14007KT CAVOK 14/13 Q1021=
201212142100 METAR LMML NIL=
201212142045 METAR LMML 142045Z 13006KT CAVOK 14/13 Q1021 NOSIG=
201212142030 METAR LMML NIL=
201212142015 METAR LMML 142015Z 14006KT CAVOK 14/13 Q1021 NOSIG=
201212142000 METAR LMML NIL=
201212141945 METAR LMML 141945Z 14005KT CAVOK 14/13 Q1021 NOSIG=
201212141930 METAR LMML NIL=
201212141915 METAR LMML 141915Z 13004KT CAVOK 14/13 Q1021 NOSIG=
201212141900 METAR LMML NIL=
201212141845 METAR LMML 141845Z 14005KT CAVOK 14/13 Q1021 NOSIG=
201212141830 METAR LMML NIL=
201212141815 METAR LMML 141815Z 14005KT CAVOK 14/13 Q1021 NOSIG=
201212141800 METAR LMML NIL=
201212141745 METAR LMML 141745Z 14005KT CAVOK 14/13 Q1021 NOSIG=
201212141730 METAR LMML NIL=
201212141715 METAR LMML 141715Z 13006KT CAVOK 15/13 Q1020 NOSIG=
201212141700 METAR LMML NIL=
201212141645 METAR LMML 141645Z 13005KT CAVOK 15/13 Q1020 NOSIG=
201212141630 METAR LMML NIL=
201212141615 METAR LMML 141615Z 12004KT 9999 FEW025 15/13 Q1020 TEMPO
                        CAVOK=
201212141600 METAR LMML NIL=
201212141545 METAR LMML 141545Z 13006KT 9999 FEW030 16/13 Q1020 NOSIG=
201212141530 METAR LMML NIL=
201212141515 METAR LMML 141515Z 14008KT 9999 FEW030 17/13 Q1020 NOSIG=
201212141500 METAR LMML NIL=
201212141445 METAR LMML 141445Z 14009KT 9999 FEW030 18/14 Q1020 NOSIG=
201212141430 METAR LMML NIL=
201212141415 METAR LMML 141415Z 14009KT 9999 FEW033 18/13 Q1020 NOSIG=
201212141400 METAR LMML NIL=
201212141345 METAR LMML 141345Z 14010KT 9999 FEW033 18/14 Q1020 NOSIG=
201212141330 METAR LMML NIL=
201212141315 METAR LMML 141315Z 15011KT 9999 FEW033 19/14 Q1020 NOSIG=
201212141300 METAR LMML NIL=
201212141245 METAR LMML 141245Z 14012KT 9999 FEW033 19/14 Q1020 NOSIG=
201212141230 METAR LMML NIL=
201212141215 METAR LMML 141215Z 14010KT 9999 FEW033 19/13 Q1020 NOSIG=
201212141200 METAR LMML NIL=
201212141145 METAR LMML 141145Z AUTO 13011KT CAVOK 19/13 Q1020=
201212141130 METAR LMML NIL=
201212141115 METAR LMML 141115Z AUTO 14010KT CAVOK 19/13 Q1020=
201212141100 METAR LMML NIL=
201212141045 METAR LMML 141045Z 13010KT 9999 FEW025 19/13 Q1021 TEMPO
                        CAVOK=
201212141030 METAR LMML NIL=
201212141015 METAR LMML 141015Z 13010KT 9999 FEW025 18/13 Q1021 TEMPO
                        CAVOK=
201212141000 METAR LMML NIL=
201212140945 METAR LMML 140945Z 14010KT 9999 FEW025 18/13 Q1021 NOSIG=
201212140930 METAR LMML NIL=
201212140915 METAR LMML 140915Z 15009KT 9999 FEW025 18/12 Q1021 NOSIG=
201212140900 METAR LMML NIL=
201212140845 METAR LMML 140845Z 15007KT 9999 FEW025 18/12 Q1021 NOSIG=
201212140830 METAR LMML NIL=
201212140815 METAR LMML 140815Z 15005KT 9999 FEW025 17/13 Q1021 NOSIG=
201212140800 METAR LMML NIL=
201212140745 METAR LMML 140745Z 16006KT 9999 FEW025 15/13 Q1021 NOSIG=
201212140730 METAR LMML NIL=
201212140715 METAR LMML 140715Z 15004KT 9999 FEW025 FEW048 14/13 Q1021
                        NOSIG=
201212140700 METAR LMML NIL=
201212140645 METAR LMML 140645Z 15005KT 9999 FEW025 FEW048 13/12 Q1021
                        NOSIG=
201212140630 METAR LMML NIL=
201212140615 METAR LMML 140615Z 15005KT 9999 FEW020 FEW048 13/12 Q1020
                        NOSIG=
201212140600 METAR LMML NIL=
201212140545 METAR LMML 140545Z 15006KT 9999 FEW020 FEW048 13/11 Q1020
                        NOSIG=
201212140530 METAR LMML NIL=
201212140515 METAR LMML 140515Z 15007KT 9999 FEW048 13/12 Q1020 NOSIG=
201212140500 METAR LMML NIL=
201212140445 METAR LMML 140445Z 13006KT 9999 FEW013 SCT024 13/12 Q1020
                        NOSIG=
201212140430 METAR LMML NIL=
201212140415 METAR LMML 140415Z 14006KT 9999 FEW012 FEW042 13/12 Q1020
                        NOSIG=
201212140400 METAR LMML NIL=
201212140345 METAR LMML 140345Z 13007KT 9999 FEW012 13/12 Q1020 NOSIG=
201212140330 METAR LMML NIL=
201212140315 METAR LMML 140315Z AUTO 14009KT 9999NDV SCT012/// BKN015///
                        14/12 Q1020=
201212140300 METAR LMML NIL=
201212140245 METAR LMML 140245Z AUTO 14008KT 9999NDV FEW013/// 13/11 Q1020=
201212140230 METAR LMML NIL=
201212140215 METAR LMML 140215Z AUTO 14007KT CAVOK 13/12 Q1020=
201212140200 METAR LMML NIL=
201212140145 METAR LMML 140145Z AUTO 14006KT 9999NDV FEW013/// 13/11 Q1020=
201212140130 METAR LMML NIL=
201212140115 METAR LMML 140115Z AUTO 14007KT 9999NDV FEW011/// BKN036///
                        13/11 Q1021=
201212140101 SPECI LMML 140101Z AUTO 14008KT CAVOK 14/12 Q1020=
201212140100 METAR LMML NIL=
201212140045 METAR LMML 140045Z AUTO 14009KT 9999NDV SCT012/// BKN014///
                        14/12 Q1021=
201212140043 SPECI LMML 140043Z AUTO 14009KT 9999NDV SCT012/// BKN014///
                        BKN017/// 14/12 Q1021=
201212140042 SPECI LMML 140042Z AUTO 14009KT 9999NDV FEW012/// BKN016///
                        BKN019/// 14/12 Q1020=
201212140030 METAR LMML NIL=
201212140015 METAR LMML 140015Z AUTO 14010KT 9999NDV FEW013/// 14/12 Q1020=
201212140007 SPECI LMML 140007Z AUTO 14010KT 9999NDV FEW013/// SCT031///
                        BKN038/// 14/12 Q1020=
201212140000 METAR LMML NIL=
201212132345 METAR LMML 132345Z AUTO 15010KT 9999NDV FEW014/// SCT018///
                        BKN025/// 14/12 Q1020=
201212132330 METAR LMML NIL=
201212132315 METAR LMML 132315Z AUTO 14010KT 9999NDV BKN015/// BKN017///
                        BKN024/// 14/12 Q1021=
201212132300 METAR LMML NIL=
201212132245 METAR LMML 132245Z AUTO 13009KT 9999NDV FEW019/// SCT034///
                        BKN043/// 14/12 Q1021=
201212132230 METAR LMML NIL=
201212132215 METAR LMML 132215Z AUTO 14008KT 9999NDV FEW015/// SCT048///
                        BKN066/// 14/12 Q1021=
201212132200 METAR LMML NIL=
201212132145 METAR LMML 132145Z AUTO 02003KT 360V060 9999NDV FEW020///
                        SCT035/// OVC063/// 12/11 Q1021=
201212132130 METAR LMML NIL=
201212132115 METAR LMML 132115Z AUTO 35004KT 320V020 8000NDV SCT022///
                        SCT025/// BKN029/// 12/11 Q1021=
201212132101 SPECI LMML 132101Z AUTO 32005KT 4900NDV BKN024/// OVC028///
                        13/11 Q1021=
201212132100 METAR LMML NIL=
201212132045 METAR LMML 132045Z VRB02KT 9000 -RA FEW012 SCT023 BKN029
                        13/11 Q1021 NOSIG=
201212132030 METAR LMML NIL=
201212132015 METAR LMML 132015Z 16007KT 9999 -RA FEW009 BKN030 13/10 Q1021
                        NOSIG=
201212132000 METAR LMML NIL=
201212131945 METAR LMML 131945Z 22004KT 190V300 9999 -RA FEW009 BKN038
                        13/09 Q1021 NOSIG=
201212131930 METAR LMML NIL=
201212131915 METAR LMML 131915Z 16011KT 9999 SCT027 BKN040 15/09 Q1021
                        NOSIG=
201212131900 METAR LMML NIL=
201212131845 METAR LMML 131845Z 12006KT 9999 SCT026 BKN045 15/10 Q1021
                        NOSIG=
201212131830 METAR LMML NIL=
201212131815 METAR LMML 131815Z 14007KT 9999 SCT028 BKN049 14/10 Q1021
                        NOSIG=
201212131745 METAR LMML 131745Z 15006KT 9999 FEW028 14/10 Q1021 NOSIG=
201212131730 METAR LMML NIL=
201212131715 METAR LMML 131715Z 15006KT 9999 FEW028 14/09 Q1021 NOSIG=
201212131700 METAR LMML NIL=
201212131645 METAR LMML 131645Z 14007KT 9999 FEW028 14/09 Q1021 NOSIG=
201212131630 METAR LMML NIL=
201212131615 METAR LMML 131615Z 15006KT 9999 FEW028 14/09 Q1021 NOSIG=
201212131600 METAR LMML NIL=
201212131545 METAR LMML 131545Z 15007KT 9999 FEW030 14/09 Q1021 NOSIG=
201212131530 METAR LMML NIL=
201212131515 METAR LMML 131515Z 17005KT 9999 FEW030 14/08 Q1021 NOSIG=
201212131500 METAR LMML NIL=
201212131445 METAR LMML 131445Z 16005KT 9999 FEW030 15/07 Q1021 NOSIG=
201212131430 METAR LMML NIL=
201212131415 METAR LMML 131415Z AUTO 17006KT CAVOK 15/06 Q1021=
201212131345 METAR LMML 131345Z 18005KT 150V210 9999 FEW030 15/06 Q1021
                        NOSIG=
201212131315 METAR LMML 131315Z 18006KT 150V210 9999 FEW035 15/06 Q1021
                        NOSIG=
201212131300 METAR LMML NIL=
201212131245 METAR LMML 131245Z 18005KT 150V230 9999 FEW035 15/06 Q1021
                        NOSIG=
201212131230 METAR LMML NIL=
201212131215 METAR LMML 131215Z 17007KT 140V230 9999 FEW035 16/06 Q1021
                        NOSIG=
201212131200 METAR LMML NIL=
201212131145 METAR LMML 131145Z VRB04KT 9999 FEW035 16/06 Q1021 NOSIG=
201212131130 METAR LMML NIL=
201212131115 METAR LMML 131115Z 19005KT 160V230 9999 FEW035 16/06 Q1022
                        NOSIG=
201212131100 METAR LMML NIL=
201212131045 METAR LMML 131045Z 20004KT 150V240 9999 R31/0650VP2000U HZ
                        FEW035 16/06 Q1022 NOSIG=
201212131030 METAR LMML NIL=
201212131015 METAR LMML 131015Z 18003KT 150V270 9999 FEW035 16/05 Q1022
                        NOSIG=
201212131000 METAR LMML NIL=
201212130945 METAR LMML 130945Z 21004KT 9999 FEW035 15/05 Q1023 NOSIG=
201212130930 METAR LMML NIL=
201212130915 METAR LMML 130915Z VRB02KT 9999 FEW035 15/05 Q1023 NOSIG=
201212130900 METAR LMML NIL=
201212130845 METAR LMML 130845Z VRB01KT 9999 FEW035 15/06 Q1023 NOSIG=
201212130830 METAR LMML NIL=
201212130815 METAR LMML 130815Z 00000KT 9999 FEW035 14/07 Q1022 NOSIG=
201212130800 METAR LMML NIL=
201212130745 METAR LMML 130745Z 20001KT 9999 FEW035 13/06 Q1022 NOSIG=
201212130730 METAR LMML NIL=
201212130715 METAR LMML 130715Z 22003KT 9999 FEW035 10/04 Q1022 NOSIG=
201212130700 METAR LMML NIL=
201212130645 METAR LMML 130645Z VRB01KT 9999 FEW035 08/03 Q1021 NOSIG=
201212130630 METAR LMML NIL=
201212130615 METAR LMML 130615Z 34002KT 9999 FEW035 08/03 Q1021 NOSIG=
201212130545 METAR LMML 130545Z 28002KT 9999 FEW035 08/03 Q1021 NOSIG=
201212130515 METAR LMML 130515Z 29002KT CAVOK 07/02 Q1021 NOSIG=
201212130500 METAR LMML NIL=
201212130445 METAR LMML 130445Z 27002KT CAVOK 07/02 Q1021 NOSIG=
201212130430 METAR LMML NIL=
201212130415 METAR LMML 130415Z 26003KT CAVOK 08/03 Q1020 NOSIG=
201212130400 METAR LMML NIL=
201212130345 METAR LMML 130345Z 27003KT CAVOK 08/03 Q1020 NOSIG=
201212130330 METAR LMML NIL=
201212130315 METAR LMML 130315Z 34003KT CAVOK 08/02 Q1020 NOSIG=
201212130300 METAR LMML NIL=
201212130245 METAR LMML 130245Z AUTO 30002KT CAVOK 08/02 Q1020=
201212130230 METAR LMML NIL=
201212130215 METAR LMML 130215Z AUTO 30003KT CAVOK 07/02 Q1021=
201212130200 METAR LMML NIL=
201212130145 METAR LMML 130145Z AUTO 30002KT CAVOK 07/02 Q1021=
201212130115 METAR LMML 130115Z AUTO 27004KT CAVOK 08/03 Q1021=
201212130045 METAR LMML 130045Z AUTO 27004KT CAVOK 08/03 Q1021=
201212130030 METAR LMML NIL=
201212130015 METAR LMML 130015Z AUTO 28003KT CAVOK 07/03 Q1021=
201212122345 METAR LMML 122345Z AUTO 33002KT CAVOK 07/02 Q1021=
201212122315 METAR LMML 122315Z AUTO 28004KT CAVOK 09/03 Q1021=
201212122300 METAR LMML NIL=
201212122245 METAR LMML 122245Z AUTO 28003KT CAVOK 09/03 Q1021=
201212122230 METAR LMML NIL=
201212122215 METAR LMML 122215Z AUTO 27003KT CAVOK 08/04 Q1021=
201212122200 METAR LMML NIL=
201212122145 METAR LMML 122145Z AUTO 28003KT CAVOK 08/03 Q1021=
201212122130 METAR LMML NIL=
201212122115 METAR LMML 122115Z AUTO 29004KT CAVOK 09/04 Q1021=
201212122100 METAR LMML NIL=
201212122045 METAR LMML 122045Z AUTO 29004KT CAVOK 09/04 Q1021=
201212122030 METAR LMML NIL=
201212122015 METAR LMML 122015Z AUTO 30004KT CAVOK 09/04 Q1021=
201212122000 METAR LMML NIL=
201212121945 METAR LMML 121945Z 30004KT CAVOK 09/03 Q1020 NOSIG=
201212121930 METAR LMML NIL=
201212121915 METAR LMML 121915Z 31004KT CAVOK 09/03 Q1020 NOSIG=
201212121900 METAR LMML NIL=
201212121845 METAR LMML 121845Z 30005KT 9999 FEW025 09/04 Q1020 NOSIG=
201212121830 METAR LMML NIL=
201212121815 METAR LMML 121815Z 31002KT 9999 FEW025 09/03 Q1020 NOSIG=
201212121745 METAR LMML 121745Z 31005KT 9999 FEW025 10/03 Q1019 NOSIG=
201212121730 METAR LMML NIL=
201212121715 METAR LMML 121715Z 31004KT 9999 FEW025 10/03 Q1019 NOSIG=
201212121700 METAR LMML NIL=
201212121645 METAR LMML 121645Z 31006KT 9999 FEW025 10/04 Q1019 NOSIG=
201212121630 METAR LMML NIL=
201212121615 METAR LMML 121615Z 32007KT 9999 FEW025 10/04 Q1019 NOSIG=
201212121600 METAR LMML NIL=
201212121545 METAR LMML 121545Z 33006KT 9999 FEW025 11/04 Q1019 NOSIG=
201212121530 METAR LMML NIL=
201212121515 METAR LMML 121515Z 34010KT 9999 FEW020 12/05 Q1018 NOSIG=
201212121500 METAR LMML NIL=
201212121445 METAR LMML 121445Z 33012KT 9999 FEW020 SCT045 13/05 Q1018
                        NOSIG=
201212121430 METAR LMML NIL=
201212121415 METAR LMML 121415Z 34013KT 9999 FEW020 BKN045 13/06 Q1018
                        NOSIG=
201212121400 METAR LMML NIL=
201212121345 METAR LMML 121345Z 33012KT 9999 FEW020 BKN045 13/06 Q1018
                        NOSIG=
201212121330 METAR LMML NIL=
201212121315 METAR LMML 121315Z 34014KT 9999 FEW020 BKN045 14/06 Q1018
                        NOSIG=
201212121300 METAR LMML NIL=
201212121245 METAR LMML 121245Z 33010KT 9999 FEW020 BKN040 13/07 Q1018
                        NOSIG=
201212121230 METAR LMML NIL=
201212121215 METAR LMML 121215Z 33012KT 9999 FEW020 BKN039 12/06 Q1018
                        NOSIG=
201212121200 METAR LMML NIL=
201212121145 METAR LMML 121145Z 33010KT 9999 FEW020 BKN039 13/07 Q1018
                        TEMPO 9000 RA=
201212121130 METAR LMML NIL=
201212121115 METAR LMML 121115Z 32008KT 9999 FEW020 BKN041 12/09 Q1018
                        TEMPO 9000 RA=
201212121100 METAR LMML NIL=
201212121045 METAR LMML 121045Z 32008KT 9999 -RA FEW020 BKN038 12/09 Q1018
                        TEMPO 9000=
201212121030 METAR LMML NIL=
201212121015 METAR LMML 121015Z 34006KT 9999 FEW020 BKN037 12/10 Q1018
                        TEMPO 9000 RA=
201212121000 METAR LMML NIL=
201212120945 METAR LMML 120945Z 34006KT 9999 FEW020 BKN040 11/09 Q1019
                        TEMPO 9000 RA=
201212120930 METAR LMML NIL=
201212120915 METAR LMML 120915Z 34011KT 8000 -RA FEW014 BKN035 11/09 Q1019
                        NOSIG=
201212120909 SPECI LMML 120909Z 34011KT 8000 -RA FEW014 BKN035 11/09 Q1019
                        NOSIG=
201212120900 METAR LMML NIL=
201212120845 METAR LMML 120845Z 36007KT 9000 FEW022 BKN038 11/09 Q1018
                        TEMPO 8000 SHRA=
201212120830 METAR LMML NIL=
201212120815 METAR LMML 120815Z 33008KT 9000 FEW025 BKN040 11/09 Q1018
                        NOSIG=
201212120800 METAR LMML NIL=
201212120745 METAR LMML 120745Z AUTO 32007KT 9000NDV -RA BKN022/// BKN025///
                        11/08 Q1018 NOSIG=
201212120730 METAR LMML NIL=
201212120715 METAR LMML 120715Z 34005KT 9999 -RA FEW015 BKN043 11/08 Q1017
                        TEMPO 9000=
201212120700 METAR LMML NIL=
201212120645 METAR LMML 120645Z 35006KT 320V020 9999 FEW015 SCT044 10/06
                        Q1017 TEMPO 9000 RA=
201212120630 METAR LMML NIL=
201212120615 METAR LMML 120615Z 29005KT 9999 SCT030 BKN044 10/04 Q1016
                        NOSIG=
201212120600 METAR LMML NIL=
201212120545 METAR LMML 120545Z 32005KT 9999 SCT047 10/03 Q1016 NOSIG=
201212120530 METAR LMML NIL=
201212120515 METAR LMML 120515Z 33007KT CAVOK 09/03 Q1016 NOSIG=
201212120500 METAR LMML NIL=
201212120445 METAR LMML 120445Z 33010KT 9999 SCT035 10/03 Q1016 NOSIG=
201212120430 METAR LMML NIL=
201212120415 METAR LMML 120415Z AUTO 32010KT 9999NDV FEW034/// 10/05 Q1016=
201212120400 METAR LMML NIL=
201212120345 METAR LMML 120345Z AUTO 33013KT CAVOK 11/05 Q1016=
201212120315 METAR LMML 120315Z AUTO 33009KT 9999NDV -DZ BKN037/// OVC043///
                        11/05 Q1015=
201212120312 SPECI LMML 120312Z AUTO 33009KT 9999NDV -RA FEW036/// BKN041///
                        OVC046/// 11/04 Q1015=
201212120310 SPECI LMML 120310Z AUTO 33008KT 9999NDV RA FEW036/// OVC041///
                        11/04 Q1015=
201212120309 SPECI LMML 120309Z AUTO 33007KT 9999NDV -RA FEW036/// OVC041///
                        11/04 Q1015=
201212120307 SPECI LMML 120307Z AUTO 33007KT 9999NDV RA FEW025/// OVC043///
                        11/03 Q1015=
201212120305 SPECI LMML 120305Z AUTO 32007KT 9999NDV -RA FEW025/// SCT036///
                        OVC043/// 11/03 Q1015=
201212120303 SPECI LMML 120303Z AUTO 32006KT 9999NDV RA FEW025/// OVC043///
                        11/03 Q1015=
201212120300 METAR LMML NIL=
201212120245 METAR LMML 120245Z AUTO 31008KT CAVOK 11/02 Q1015=
201212120230 METAR LMML NIL=
201212120215 METAR LMML 120215Z AUTO 30012KT CAVOK 11/03 Q1015=
201212120200 METAR LMML NIL=
201212120145 METAR LMML 120145Z AUTO 32008KT 9999NDV FEW039/// BKN054///
                        11/05 Q1015=
201212111830 METAR LMML NIL=
201212111815 METAR LMML 111815Z 32006KT 9999 FEW034 12/06 Q1015 NOSIG=
201212111800 METAR LMML NIL=
201212111745 METAR LMML 111745Z 33007KT 9999 -RA FEW038 BKN046 12/06 Q1015
                        NOSIG=
201212111730 METAR LMML NIL=
201212111715 METAR LMML 111715Z 33007KT 9999 FEW039 12/06 Q1015 NOSIG=
201212111700 METAR LMML NIL=
201212111645 METAR LMML 111645Z 33008KT 9999 FEW039 12/06 Q1014 NOSIG=
201212111630 METAR LMML NIL=
201212111615 METAR LMML 111615Z 32005KT 9999 SCT039 13/06 Q1014 NOSIG=
201212111600 METAR LMML NIL=
201212111545 METAR LMML 111545Z 31006KT 9999 SCT039 13/06 Q1014 NOSIG=
201212111515 METAR LMML 111515Z 33010KT 9999 SCT035 13/06 Q1014 NOSIG=
201212111445 METAR LMML 111445Z 32011KT 9999 SCT025 14/05 Q1014 NOSIG=
201212111430 METAR LMML NIL=
201212111415 METAR LMML 111415Z 32012KT 9999 FEW035 14/03 Q1014 NOSIG=
201212111400 METAR LMML NIL=
201212111345 METAR LMML 111345Z AUTO 32014KT CAVOK 14/04 Q1013=
201212111330 METAR LMML NIL=
201212111315 METAR LMML 111315Z AUTO 32015KT CAVOK 14/05 Q1013=
201212111300 METAR LMML NIL=
201212111245 METAR LMML 111245Z AUTO 33014KT 9999NDV FEW037/// 14/07 Q1013=
201212111230 METAR LMML NIL=
201212111215 METAR LMML 111215Z AUTO 33016KT 9999NDV FEW037/// 15/07 Q1013=
201212111200 METAR LMML NIL=
201212111145 METAR LMML 111145Z 32015KT 9999 FEW025 15/07 Q1013 NOSIG=
201212111115 METAR LMML 111115Z 32014KT 9999 FEW025 BKN047 14/06 Q1014
                        NOSIG=
201212111100 METAR LMML NIL=
201212111045 METAR LMML 111045Z 32015KT 9999 FEW025 BKN048 15/06 Q1014
                        NOSIG=
201212111030 METAR LMML NIL=
201212111015 METAR LMML 111015Z 32016KT 9999 SCT037 BKN046 15/07 Q1014
                        NOSIG=
201212111000 METAR LMML NIL=
201212110945 METAR LMML 110945Z 31016KT 9999 -SHRA SCT029 BKN040 14/09
                        Q1014 TEMPO 8000 SHRA BKN020=
201212110930 METAR LMML NIL=
201212110915 METAR LMML 110915Z 31015KT 9999 SCT030 15/09 Q1014 TEMPO
                        8000 SHRA BKN020=
201212110845 METAR LMML 110845Z 32015KT 9999 SCT024 14/10 Q1014 TEMPO
                        8000 SHRA BKN020=
201212110830 METAR LMML NIL=
201212110815 METAR LMML 110815Z 30020KT 9999 BKN024 16/09 Q1013 TEMPO
                        8000 SHRA BKN020=
201212110800 METAR LMML NIL=
201212110745 METAR LMML 110745Z 30015KT 9999 SCT026 15/09 Q1013 NOSIG=
201212110730 METAR LMML NIL=
201212110715 METAR LMML 110715Z 31016KT 9999 SCT028 14/09 Q1013 NOSIG=
201212110700 METAR LMML NIL=
201212110645 METAR LMML 110645Z 31016KT 9999 SCT028 14/09 Q1013 NOSIG=
201212110630 METAR LMML NIL=
201212110615 METAR LMML 110615Z 30018KT 9999 SCT027 14/09 Q1013 NOSIG=
201212110600 METAR LMML NIL=
201212110545 METAR LMML 110545Z 29018KT 9999 -RA BKN026 15/09 Q1012 NOSIG=
201212110539 SPECI LMML 110539Z 29017G27KT 9999 -RA BKN026 15/09 Q1012
                        NOSIG=
201212110530 METAR LMML NIL=
201212110515 METAR LMML 110515Z 28015KT 9999 FEW039 14/08 Q1012 NOSIG=
201212110500 METAR LMML NIL=
201212110445 METAR LMML 110445Z 29014KT 260V320 9999 FEW030 14/08 Q1012
                        NOSIG=
201212110430 METAR LMML NIL=
201212110415 METAR LMML 110415Z 29013KT 9999 FEW033 14/07 Q1012 NOSIG=
201212110400 METAR LMML NIL=
201212110345 METAR LMML 110345Z 29015KT 9999 FEW030 14/07 Q1012 NOSIG=
201212110330 METAR LMML NIL=
201212110315 METAR LMML 110315Z AUTO 30013KT CAVOK 14/06 Q1012=
201212110300 METAR LMML NIL=
201212110245 METAR LMML 110245Z AUTO 29014KT 9999NDV SCT040/// BKN046///
                        14/06 Q1013=
201212110230 METAR LMML NIL=
201212110215 METAR LMML 110215Z AUTO 28014KT 250V310 9999NDV BKN042///
                        14/05 Q1013=
201212110200 METAR LMML NIL=
201212110145 METAR LMML 110145Z AUTO 28016KT 9999NDV FEW043/// 14/05 Q1013=
201212110130 METAR LMML NIL=
201212110115 METAR LMML 110115Z AUTO 27014KT 9999NDV FEW044/// 14/05 Q1013=
201212110100 METAR LMML NIL=
201212110045 METAR LMML 110045Z AUTO 27015G26KT 230V300 9999NDV SCT044///
                        SCT050/// 14/05 Q1013=
201212110015 METAR LMML 110015Z AUTO 26013KT 9999NDV BKN041/// BKN050///
                        14/05 Q1013=
201212110000 METAR LMML NIL=
201212102345 METAR LMML 102345Z AUTO 27015KT 240V300 9999NDV FEW049///
                        14/04 Q1014=
201212102330 METAR LMML NIL=
201212102315 METAR LMML 102315Z AUTO 28016KT 240V300 9999NDV SCT045///
                        SCT053/// 14/04 Q1014=
201212102300 METAR LMML NIL=
201212102245 METAR LMML 102245Z AUTO 26014KT 230V300 9999NDV FEW044///
                        14/04 Q1015=
201212102230 METAR LMML NIL=
201212102215 METAR LMML 102215Z AUTO 27013KT 9999NDV SCT037/// SCT041///
                        BKN046/// 14/05 Q1015=
201212102200 METAR LMML NIL=
201212102145 METAR LMML 102145Z AUTO 27014KT 9999NDV FEW040/// SCT046///
                        14/07 Q1015=
201212102130 METAR LMML NIL=
201212102115 METAR LMML 102115Z AUTO 26013KT 9999NDV FEW035/// SCT044///
                        OVC050/// 14/06 Q1015=
201212102100 METAR LMML NIL=
201212102045 METAR LMML 102045Z AUTO 27014KT 9999NDV FEW034/// SCT043///
                        BKN053/// 14/06 Q1015=
201212102030 METAR LMML NIL=
201212102015 METAR LMML 102015Z AUTO 27014KT 9999NDV SCT032/// BKN037///
                        BKN044/// 14/07 Q1015=
201212102000 METAR LMML NIL=
201212101945 METAR LMML 101945Z AUTO 27011KT 9999NDV FEW030/// BKN055///
                        14/07 Q1015=
201212101915 METAR LMML 101915Z AUTO 27010KT 9999NDV FEW034/// 13/07 Q1016=
201212101900 METAR LMML NIL=
201212101845 METAR LMML 101845Z 28012KT 9999 SCT033 14/07 Q1016 NOSIG=
201212101830 METAR LMML NIL=
201212101815 METAR LMML 101815Z 27012KT 250V310 9999 SCT031 14/07 Q1016
                        NOSIG=
201212101800 METAR LMML NIL=
201212101745 METAR LMML 101745Z 28012KT 9999 SCT030 14/08 Q1016 NOSIG=
201212101730 METAR LMML NIL=
201212101715 METAR LMML 101715Z 28011KT 9999 SCT031 13/07 Q1016 NOSIG=
201212101700 METAR LMML NIL=
201212101645 METAR LMML 101645Z 28010KT 9999 SCT031 13/08 Q1016 NOSIG=
201212101630 METAR LMML NIL=
201212101615 METAR LMML 101615Z 29014KT 9999 SCT029 13/08 Q1016 NOSIG=
201212101600 METAR LMML NIL=
201212101545 METAR LMML 101545Z 29014KT 9999 SCT029 14/08 Q1016 NOSIG=
201212101530 METAR LMML NIL=
201212101515 METAR LMML 101515Z 29012KT 260V320 9999 SCT028 14/09 Q1016
                        NOSIG=
201212101500 METAR LMML NIL=
201212101445 METAR LMML 101445Z 29013KT 9999 SCT032 14/08 Q1016 NOSIG=
201212101430 METAR LMML NIL=
201212101415 METAR LMML 101415Z 30013KT 9999 SCT026 14/09 Q1016 NOSIG=
201212101400 METAR LMML NIL=
201212101345 METAR LMML 101345Z AUTO 30014KT CAVOK 15/07 Q1016=
201212101330 METAR LMML NIL=
201212101315 METAR LMML 101315Z 32016KT 9999 SCT036 15/07 Q1016 NOSIG=
201212101300 METAR LMML NIL=
201212101245 METAR LMML 101245Z 31017KT 9999 SCT039 15/06 Q1016 NOSIG=
201212101230 METAR LMML NIL=
201212101215 METAR LMML 101215Z 30020KT 9999 SCT036 15/06 Q1017 NOSIG=
201212101200 METAR LMML NIL=
201212101145 METAR LMML 101145Z 32015KT 9999 BKN032 15/07 Q1017 NOSIG=
201212101130 METAR LMML NIL=
201212101115 METAR LMML 101115Z 30013KT 9999 BKN033 14/07 Q1017 NOSIG=
201212101100 METAR LMML NIL=
201212101045 METAR LMML 101045Z 33011KT 290V350 9999 BKN032 14/07 Q1018
                        NOSIG=
201212101030 METAR LMML NIL=
201212101015 METAR LMML 101015Z 33010KT 310V010 9999 SCT034 13/06 Q1018
                        NOSIG=
201212101000 METAR LMML NIL=
201212100945 METAR LMML 100945Z 35012KT 9999 SCT037 13/06 Q1019 NOSIG=
201212100930 METAR LMML NIL=
201212100915 METAR LMML 100915Z 34012KT 9999 SCT038 13/05 Q1019 NOSIG=
201212100900 METAR LMML NIL=
201212100845 METAR LMML 100845Z 34016KT 9999 FEW047 13/05 Q1018 NOSIG=
201212100830 METAR LMML NIL=
201212100815 METAR LMML 100815Z 34013KT 9999 FEW047 FEW025 13/04 Q1019
                        NOSIG=
201212100800 METAR LMML NIL=
201212100745 METAR LMML 100745Z 33010KT 9999 FEW047 12/03 Q1019 NOSIG=
201212100730 METAR LMML NIL=
201212100715 METAR LMML 100715Z 34012KT 9999 SCT047 11/03 Q1019 NOSIG=
201212100700 METAR LMML NIL=
201212100645 METAR LMML 100645Z 33011KT 9999 SCT047 10/02 Q1018 NOSIG=
201212100630 METAR LMML NIL=
201212100615 METAR LMML 100615Z 34011KT 9999 SCT047 10/02 Q1018 NOSIG=
201212100545 METAR LMML 100545Z 34018KT 9999 SCT047 10/02 Q1018 NOSIG=
201212100530 METAR LMML NIL=
201212100515 METAR LMML 100515Z 34017KT 9999 FEW047 10/02 Q1018 NOSIG=
201212100500 METAR LMML NIL=
201212100445 METAR LMML 100445Z 33016KT 9999 FEW049 10/01 Q1018 NOSIG=
201212100430 METAR LMML NIL=
201212100415 METAR LMML 100415Z 33017KT CAVOK 10/01 Q1017 NOSIG=
201212100400 METAR LMML NIL=
201212100345 METAR LMML 100345Z 33014KT 9999 FEW047 10/01 Q1017 NOSIG=
201212100330 METAR LMML NIL=
201212100315 METAR LMML 100315Z AUTO 33012KT CAVOK 10/01 Q1017=
201212100300 METAR LMML NIL=
201212100245 METAR LMML 100245Z AUTO 33015KT CAVOK 10/01 Q1017=
201212100230 METAR LMML NIL=
201212100215 METAR LMML 100215Z AUTO 33016KT CAVOK 10/00 Q1017=
201212100200 METAR LMML NIL=
201212100145 METAR LMML 100145Z AUTO 32013KT CAVOK 10/00 Q1017=
201212100130 METAR LMML NIL=
201212100115 METAR LMML 100115Z AUTO 33016KT CAVOK 10/01 Q1017=
201212100100 METAR LMML NIL=
201212100045 METAR LMML 100045Z AUTO 33014KT CAVOK 09/01 Q1017=
201212100030 METAR LMML NIL=
201212100015 METAR LMML 100015Z AUTO 34014KT 9999NDV SCT041/// BKN050///
                        09/01 Q1017=
201212100000 METAR LMML NIL=
201212092345 METAR LMML 092345Z AUTO 34018KT CAVOK 09/00 Q1017=
201212092330 METAR LMML NIL=
201212092315 METAR LMML 092315Z AUTO 34017KT 9999NDV SCT043/// SCT049///
                        10/01 Q1017=
201212092245 METAR LMML 092245Z AUTO 35014KT 9999NDV FEW043/// SCT048///
                        BKN056/// 10/02 Q1016=
201212092230 METAR LMML NIL=
201212092215 METAR LMML 092215Z AUTO 35017G27KT 320V020 9999NDV FEW038///
                        10/03 Q1016=
201212092200 METAR LMML NIL=
201212092145 METAR LMML 092145Z AUTO 35017KT 9999NDV SCT041/// SCT054///
                        10/02 Q1016=
201212092130 METAR LMML NIL=
201212092115 METAR LMML 092115Z AUTO 34018KT CAVOK 09/02 Q1016=
201212092100 METAR LMML NIL=
201212092045 METAR LMML 092045Z 34019KT 9999 SCT036 09/03 Q1016 NOSIG=
201212092030 METAR LMML NIL=
201212092015 METAR LMML 092015Z 34020KT 9999 SCT036 09/04 Q1016 NOSIG=
201212092000 METAR LMML NIL=
201212091945 METAR LMML 091945Z 35014KT 9999 BKN036 09/04 Q1015 NOSIG=
201212091930 METAR LMML NIL=
201212091915 METAR LMML 091915Z 34017KT 9999 -SHRA SCT036TCU 10/03 Q1015
                        NOSIG=
201212091900 METAR LMML NIL=
201212091845 METAR LMML 091845Z 34018KT 9999 SCT033TCU 10/04 Q1015 NOSIG=
201212091830 METAR LMML NIL=
201212091815 METAR LMML 091815Z 34017KT 9999 SCT032TCU 10/04 Q1014 NOSIG=
201212091800 METAR LMML NIL=
201212091745 METAR LMML 091745Z 33019G29KT 9999 SCT033TCU 10/03 Q1014
                        NOSIG=
201212091730 METAR LMML NIL=
201212091715 METAR LMML 091715Z 34019KT 9999 SCT033TCU 10/04 Q1013 NOSIG=
201212091700 METAR LMML NIL=
201212091645 METAR LMML 091645Z 33019KT 9999 SCT035TCU 09/03 Q1013 NOSIG=
201212091630 METAR LMML NIL=
201212091615 METAR LMML 091615Z 34019G29KT 9999 SCT030TCU 09/04 Q1013
                        NOSIG=
201212091600 METAR LMML NIL=
201212091545 METAR LMML 091545Z 34020G30KT 9999 -SHRA BKN030TCU 10/03
                        Q1012 NOSIG=
201212091530 METAR LMML NIL=
201212091515 METAR LMML 091515Z 33018G28KT 9999 BKN030TCU 10/03 Q1012
                        NOSIG=
201212091500 METAR LMML NIL=
201212091445 METAR LMML 091445Z 32017KT 9999 FEW020CB SCT030 09/04 Q1012
                        NOSIG=
201212091430 METAR LMML NIL=
201212091415 METAR LMML 091415Z 32020KT 9999 -SHRA FEW020CB BKN031 10/05
                        Q1012 NOSIG=
201212091400 METAR LMML NIL=
201212091345 METAR LMML 091345Z 32026KT 290V350 9000 -SHRA FEW020TCU BKN036
                        11/04 Q1011 NOSIG=
201212091330 METAR LMML NIL=
201212091315 METAR LMML 091315Z 33024G35KT 9999 SCT025TCU 11/03 Q1011
                        NOSIG=
201212091300 METAR LMML NIL=
201212091245 METAR LMML 091245Z 32020G30KT 9000 -SHRA FEW017CB BKN033
                        09/05 Q1011 NOSIG=
201212091230 METAR LMML NIL=
201212091215 METAR LMML 091215Z 34024G35KT 9999 FEW030CB 11/04 Q1012 NOSIG=
201212091200 METAR LMML NIL=
201212091145 METAR LMML 091145Z 33025G39KT 9999 BKN043 12/03 Q1011 NOSIG=
201212091130 METAR LMML NIL=
201212091115 METAR LMML 091115Z 33026KT 9999 SCT042 12/03 Q1012 NOSIG=
201212091100 METAR LMML NIL=
201212091045 METAR LMML 091045Z 33027G37KT 9999 SCT044 12/02 Q1012 NOSIG=
201212091030 METAR LMML NIL=
201212091015 METAR LMML 091015Z 33021G34KT 9999 BKN043TCU 12/03 Q1012
                        NOSIG=
201212091000 METAR LMML NIL=
201212090945 METAR LMML 090945Z 33027KT 9999 BKN040 12/03 Q1012 NOSIG=
201212090930 METAR LMML NIL=
201212090915 METAR LMML 090915Z 33023KT 9999 BKN043 12/03 Q1012 NOSIG=
201212090900 METAR LMML NIL=
201212090845 METAR LMML 090845Z 32028KT 9999 SCT025 11/02 Q1012 NOSIG=
201212090830 METAR LMML NIL=
201212090815 METAR LMML 090815Z 33021KT 9999 SCT025TCU 11/05 Q1011 NOSIG=
201212090800 METAR LMML NIL=
201212090745 METAR LMML 090745Z 32023KT 9999 SCT025 09/05 Q1012 NOSIG=
201212090730 METAR LMML NIL=
201212090715 METAR LMML 090715Z 33021G32KT 7000 R13/M0050VP2000N -SHRA
                        SCT023CB BKN036 09/05 Q1011 TEMPO
                        5000 TSRA BKN015CB=
201212090701 SPECI LMML 090701Z 33020G32KT 6000 -SHRA FEW023CB BKN028
                        09/06 Q1011 TEMPO 5000 TSRA BKN015CB=
201212090700 METAR LMML NIL=
201212090645 METAR LMML 090645Z 33019G30KT 9999 FEW019CB 09/06 Q1011 RETS
                        TEMPO 5000 TSRA BKN015CB=
201212090630 METAR LMML NIL=
201212090615 METAR LMML 090615Z 32020G31KT 7000 TSRA FEW025CB BKN034 09/06
                        Q1011 TEMPO 5000 TSRA BKN015CB=
201212090600 METAR LMML NIL=
201212090545 METAR LMML 090545Z 30014KT 9000 TSRA SCT027CB BKN033 09/05
                        Q1010 TEMPO 5000 TSRA BKN015CB=
201212090530 METAR LMML NIL=
201212090515 METAR LMML 090515Z 33014KT 9999 SCT040 10/03 Q1010 TEMPO
                        7000 SHRA BKN025=
201212090445 METAR LMML 090445Z 32014KT 9999 FEW030 10/04 Q1009 TEMPO
                        7000 SHRA BKN025=
201212090430 METAR LMML NIL=
201212090415 METAR LMML 090415Z 33014KT 9999 FEW030 09/05 Q1009 TEMPO
                        7000 SHRA BKN025=
201212090400 METAR LMML NIL=
201212090345 METAR LMML 090345Z 33016KT 9999 FEW030 08/04 Q1010 TEMPO
                        7000 SHRA BKN025=
201212090330 METAR LMML NIL=
201212090315 METAR LMML 090315Z 34015KT 9999 BKN030 09/05 Q1010 NOSIG=
201212090300 METAR LMML NIL=
201212090245 METAR LMML 090245Z 34013KT 9999 BKN034 09/03 Q1009 NOSIG=
201212090235 SPECI LMML 090235Z AUTO 33020G35KT 9999NDV TS FEW060/// 10/03
                        Q1010=
201212090230 METAR LMML NIL=
201212090215 METAR LMML 090215Z AUTO 33018G31KT 9999NDV BKN041/// BKN046///
                        BKN056/// 12/03 Q1009=
201212090207 SPECI LMML 090207Z AUTO 32020G31KT 9999NDV BKN043/// BKN050///
                        12/03 Q1009=
201212090200 METAR LMML NIL=
201212090145 METAR LMML 090145Z AUTO 32019G30KT 9999NDV FEW041/// BKN046///
                        BKN070/// 12/04 Q1009=
201212090142 SPECI LMML 090142Z AUTO 32019G30KT 9999NDV R31/1400VP2000N
                        SCT041/// SCT046/// BKN054/// 12/03
                        Q1009=
201212090141 SPECI LMML 090141Z AUTO 31019G29KT 9999NDV +RA SCT041///
                        BKN046/// BKN053/// 12/03 Q1009=
201212090140 SPECI LMML 090140Z AUTO 31019KT 9999NDV RA SCT041/// BKN046///
                        BKN053/// 12/03 Q1009=
201212090130 METAR LMML NIL=
201212090115 METAR LMML 090115Z AUTO 32021KT 9999NDV SCT043/// SCT050///
                        BKN110/// 12/04 Q1009=
201212090110 SPECI LMML 090110Z AUTO 31021G31KT CAVOK 12/04 Q1009=
201212090100 METAR LMML NIL=
201212090100 SPECI LMML 090100Z AUTO 31022G32KT 9999NDV TS FEW043/// SCT054///
                        BKN100/// 12/03 Q1009=
201212090045 METAR LMML 090045Z AUTO 30019G31KT 9999NDV FEW033/// SCT047///
                        BKN110/// 11/05 Q1009=
201212090030 METAR LMML NIL=
201212090015 METAR LMML 090015Z AUTO 31024G34KT 9999NDV FEW036/// 12/04
                        Q1009=
201212090000 METAR LMML NIL=
201212082345 METAR LMML 082345Z AUTO 30020KT 9999NDV FEW034/// 12/05 Q1009=
201212082330 METAR LMML NIL=
201212082315 METAR LMML 082315Z AUTO 30021KT CAVOK 11/05 Q1009=
201212082300 METAR LMML NIL=
201212082245 METAR LMML 082245Z AUTO 31025G43KT 6000NDV FEW034/// SCT047///
                        12/06 Q1009=
201212082244 SPECI LMML 082244Z AUTO 31025G43KT 6000NDV -DZ FEW034///
                        SCT041/// BKN130/// 12/06 Q1009=
201212082239 SPECI LMML 082239Z AUTO 30022G38KT 7000NDV R31/0900VP2000N
                        RA FEW023/// SCT041/// BKN046///
                        12/07 Q1009=
201212082237 SPECI LMML 082237Z AUTO 30021G38KT 7000NDV R13/0500VP2000D
                        +RA FEW023/// SCT040/// BKN045///
                        12/07 Q1009=
201212082236 SPECI LMML 082236Z AUTO 30020G34KT 260V320 7000NDV RA FEW023///
                        SCT040/// BKN045/// 12/07 Q1009=
201212082234 SPECI LMML 082234Z AUTO 30018G34KT 260V320 5000NDV SHRA FEW023///
                        SCT038/// BKN046/// 12/07 Q1009=
201212082232 SPECI LMML 082232Z AUTO 30017G31KT 6000NDV -SHRA FEW035///
                        SCT040/// BKN047/// 12/07 Q1009=
201212082231 SPECI LMML 082231Z AUTO 30018G31KT 8000NDV R31/1400VP2000N
                        SHRA FEW035/// SCT040/// BKN046///
                        12/07 Q1009=
201212082230 SPECI LMML 082230Z AUTO 30018G30KT 9000NDV +SHRA FEW035///
                        SCT040/// BKN048/// 12/07 Q1009=
201212082230 METAR LMML NIL=
201212082215 METAR LMML 082215Z AUTO 30018G31KT 270V330 9999NDV SHRA BKN034///
                        BKN038/// BKN043/// 13/07 Q1009=
201212082215 SPECI LMML 082215Z AUTO 30018G31KT 270V330 9999NDV SHRA BKN034///
                        BKN038/// BKN043/// 13/07 Q1009=
201212082200 METAR LMML NIL=
201212082145 METAR LMML 082145Z AUTO 29018KT 9999NDV FEW033/// SCT039///
                        BKN045/// 12/08 Q1009=
201212082134 SPECI LMML 082134Z AUTO 29018KT 9999NDV FEW036/// BKN045///
                        BKN051/// 13/08 Q1009=
201212082132 SPECI LMML 082132Z AUTO 30019KT 9999NDV RA SCT036/// SCT042///
                        BKN100/// 13/08 Q1009=
201212082131 SPECI LMML 082131Z AUTO 30019KT 270V330 9999NDV +RA FEW028///
                        SCT042/// BKN100/// 13/08 Q1009=
201212082130 METAR LMML NIL=
201212082115 METAR LMML 082115Z 31018G29KT 9999 SCT034 14/06 Q1009=
201212082100 METAR LMML NIL=
201212082045 METAR LMML 082045Z 29019KT 9999 BKN044 14/05 Q1009 NOSIG=
201212082030 METAR LMML NIL=
201212082015 METAR LMML 082015Z 29011KT 9999 BKN039 14/05 Q1009 NOSIG=
201212082000 METAR LMML NIL=
201212081945 METAR LMML 081945Z 30016KT 9999 SCT045 14/04 Q1009 NOSIG=
201212081930 METAR LMML NIL=
201212081915 METAR LMML 081915Z 30018KT 270V330 9999 SCT044 14/05 Q1009
                        NOSIG=
201212081900 METAR LMML NIL=
201212081845 METAR LMML 081845Z 30013KT 9999 FEW045 13/06 Q1009 NOSIG=
201212081830 METAR LMML NIL=
201212081815 METAR LMML 081815Z 31016KT 9999 FEW030 13/06 Q1009 NOSIG=
201212081800 METAR LMML NIL=
201212081745 METAR LMML 081745Z 31015KT 9999 FEW030 SCT044 14/04 Q1009
                        NOSIG=
201212081730 METAR LMML NIL=
201212081715 METAR LMML 081715Z 31016KT 9999 FEW030 14/06 Q1008 NOSIG=
201212081700 METAR LMML NIL=
201212081645 METAR LMML 081645Z 31016KT 9999 FEW030 13/07 Q1008 NOSIG=
201212081630 METAR LMML NIL=
201212081615 METAR LMML 081615Z 31015KT 9999 FEW028 13/07 Q1008 NOSIG=
201212081600 METAR LMML NIL=
201212081545 METAR LMML 081545Z 31014KT 9999 SCT029 BKN048 13/09 Q1007
                        NOSIG=
201212081530 METAR LMML NIL=
201212081515 METAR LMML 081515Z 30013KT 9999 FEW028 12/08 Q1007 NOSIG=
201212081500 METAR LMML NIL=
201212081445 METAR LMML 081445Z 31019G33KT 9999 -RA FEW028 12/08 Q1008
                        NOSIG=
201212081430 METAR LMML NIL=
201212081415 METAR LMML 081415Z 33024KT 2500 -RA FEW006 SCT017 OVC025
                        12/10 Q1008 RERA NOSIG=
201212081405 SPECI LMML 081405Z 33020KT 3000 RA FEW017 OVC023 12/10 Q1008
                        NOSIG=
201212081400 METAR LMML NIL=
201212081345 METAR LMML 081345Z 33019KT 5000 SHRA FEW010 BKN016 13/11
                        Q1007 NOSIG=
201212081330 METAR LMML NIL=
201212081315 METAR LMML 081315Z AUTO 28022G39KT 260V330 9999NDV FEW018///
                        SCT022/// BKN027/// 16/11 Q1006=
201212081308 SPECI LMML 081308Z AUTO 28022KT 9999NDV FEW018/// BKN028///
                        BKN036/// 16/11 Q1006=
201212081307 SPECI LMML 081307Z AUTO 28022KT 9999NDV SHRA SCT022/// SCT028///
                        BKN036/// 16/11 Q1006=
201212081306 SPECI LMML 081306Z AUTO 28022KT 9999NDV +SHRA SCT030/// BKN036///
                        BKN048/// 16/11 Q1006=
201212081305 SPECI LMML 081305Z AUTO 28021G31KT 9999NDV SHRA SCT030///
                        BKN036/// BKN050/// 16/10 Q1006=
201212081301 SPECI LMML 081301Z AUTO 28022KT 9999NDV SCT029/// BKN032///
                        BKN048/// 17/10 Q1006=
201212081300 METAR LMML NIL=
201212081245 METAR LMML 081245Z 28019G29KT 240V300 9999 BKN029TCU 17/11
                        Q1006 TEMPO 8000 SHRA=
201212081230 METAR LMML NIL=
201212081215 METAR LMML 081215Z 27020KT 240V300 9999 SCT029TCU 18/10 Q1006
                        TEMPO 8000 SHRA=
201212081200 METAR LMML NIL=
201212081145 METAR LMML 081145Z 26018KT 230V290 9999 SCT029 17/10 Q1006
                        NOSIG=
201212081130 METAR LMML NIL=
201212081115 METAR LMML 081115Z 26016KT 230V290 9999 BKN029 18/11 Q1007
                        NOSIG=
201212081100 METAR LMML NIL=
201212081045 METAR LMML 081045Z 25016KT 9999 SCT031 18/10 Q1007 NOSIG=
201212081030 METAR LMML NIL=
201212081015 METAR LMML 081015Z 25014KT 210V280 9999 FEW031 18/10 Q1007
                        NOSIG=
201212081000 METAR LMML NIL=
201212080945 METAR LMML 080945Z 25016KT 9999 FEW030 18/09 Q1008 NOSIG=
201212080930 METAR LMML NIL=
201212080915 METAR LMML 080915Z 25014KT 230V290 9999 FEW030 17/10 Q1008
                        NOSIG=
201212080900 METAR LMML NIL=
201212080845 METAR LMML 080845Z 25013KT 230V290 9999 FEW029 17/10 Q1008
                        NOSIG=
201212080830 METAR LMML NIL=
201212080815 METAR LMML 080815Z AUTO 25013KT 230V290 9999NDV SCT028///
                        17/10 Q1008 NOSIG=
201212080800 METAR LMML NIL=
201212080745 METAR LMML 080745Z 25010KT 220V280 9999 FEW030 16/10 Q1008
                        NOSIG=
201212080730 METAR LMML NIL=
201212080715 METAR LMML 080715Z 25011KT 9999 FEW026 16/10 Q1009 NOSIG=
201212080700 METAR LMML NIL=
201212080645 METAR LMML 080645Z 25012KT 230V290 9999 FEW028 16/10 Q1009
                        NOSIG=
201212080630 METAR LMML NIL=
201212080615 METAR LMML 080615Z 25011KT 9999 FEW030 16/09 Q1009 NOSIG=
201212080600 METAR LMML NIL=
201212080545 METAR LMML 080545Z 25013KT 9999 SCT033 16/09 Q1009 NOSIG=
201212080530 METAR LMML NIL=
201212080515 METAR LMML 080515Z 26014G24KT 230V290 9999 SCT037 16/09 Q1009
                        NOSIG=
201212080500 METAR LMML NIL=
201212080445 METAR LMML 080445Z 25013G24KT 9999 SCT033 16/09 Q1010 NOSIG=
201212080430 METAR LMML NIL=
201212080415 METAR LMML 080415Z 25013KT 9999 SCT036 16/08 Q1010 NOSIG=
201212080400 METAR LMML NIL=
201212080345 METAR LMML 080345Z AUTO 25013KT 220V280 9999NDV FEW033///
                        SCT038/// 16/09 Q1010=
201212080330 METAR LMML NIL=
201212080315 METAR LMML 080315Z AUTO 25015G26KT CAVOK 16/08 Q1010=
201212080300 METAR LMML NIL=
201212080245 METAR LMML 080245Z AUTO 24014KT 9999NDV FEW038/// SCT043///
                        BKN120/// 16/08 Q1011=
201212080230 METAR LMML NIL=
201212080215 METAR LMML 080215Z AUTO 25014G24KT 9999NDV FEW040/// SCT130///
                        16/07 Q1011=
201212080200 METAR LMML NIL=
201212080145 METAR LMML 080145Z AUTO 25015KT 230V290 9999NDV FEW043///
                        SCT050/// OVC120/// 16/06 Q1012=
201212080130 METAR LMML NIL=
201212080115 METAR LMML 080115Z AUTO 24012KT 9999NDV SCT041/// BKN063///
                        BKN120/// 16/08 Q1012=
201212080100 METAR LMML NIL=
201212080045 METAR LMML 080045Z AUTO 24015KT 9999NDV BKN038/// BKN042///
                        OVC068/// 16/07 Q1013=
201212080030 METAR LMML NIL=
201212080015 METAR LMML 080015Z AUTO 24012KT 9999NDV SCT040/// SCT046///
                        BKN130/// 16/08 Q1013=
201212080000 METAR LMML NIL=
201212072345 METAR LMML 072345Z AUTO 24009KT 210V280 9999NDV FEW041///
                        SCT076/// BKN140/// 15/09 Q1014=
201212072330 METAR LMML NIL=
201212072315 METAR LMML 072315Z AUTO 25011KT 220V280 9999NDV SCT038///
                        BKN045/// OVC059/// 15/08 Q1014=
201212072315 SPECI LMML 072315Z AUTO 25011KT 220V280 9999NDV SCT038///
                        BKN045/// OVC059/// 15/08 Q1014=
201212072313 SPECI LMML 072313Z AUTO 25012KT 220V280 9999NDV SHRA SCT038///
                        BKN043/// OVC055/// 15/08 Q1014=
201212072312 SPECI LMML 072312Z AUTO 25012KT 220V280 9999NDV +SHRA SCT038///
                        BKN043/// OVC051/// 15/07 Q1014=
201212072311 SPECI LMML 072311Z AUTO 25011KT 220V280 9999NDV SHRA SCT038///
                        BKN045/// OVC055/// 15/07 Q1014=
201212072310 SPECI LMML 072310Z AUTO 25011KT 220V280 9999NDV DZ SCT038///
                        BKN043/// OVC053/// 15/07 Q1014=
201212072309 SPECI LMML 072309Z AUTO 25011KT 9999NDV RA FEW039/// SCT045///
                        OVC051/// 15/07 Q1014=
201212072300 METAR LMML NIL=
201212072245 METAR LMML 072245Z AUTO 25010KT 230V290 9999NDV FEW039///
                        BKN075/// BKN150/// 15/07 Q1015=
201212072230 METAR LMML NIL=
201212072215 METAR LMML 072215Z AUTO 24010KT 9999NDV -DZ FEW028/// SCT034///
                        BKN045/// 15/07 Q1015=
201212072200 METAR LMML NIL=
201212072145 METAR LMML 072145Z AUTO 25009KT 9999NDV FEW044/// SCT077///
                        OVC150/// 15/06 Q1015=
201212072130 METAR LMML NIL=
201212072115 METAR LMML 072115Z AUTO 26007KT 230V290 9999NDV FEW036///
                        SCT044/// OVC055/// 14/07 Q1016=
201212072100 METAR LMML NIL=
201212072045 METAR LMML 072045Z AUTO 27006KT 240V300 9999NDV FEW038///
                        BKN043/// OVC052/// 14/07 Q1016=
201212072030 METAR LMML NIL=
201212072015 METAR LMML 072015Z AUTO 26007KT 240V300 9999NDV FEW042///
                        OVC057/// 14/06 Q1016=
201212072000 METAR LMML NIL=
201212071945 METAR LMML 071945Z 27007KT 9999 FEW043 14/06 Q1016 NOSIG=
201212071930 METAR LMML NIL=
201212071915 METAR LMML 071915Z 27007KT 9999 SCT041 14/06 Q1016 NOSIG=
201212071900 METAR LMML NIL=
201212071845 METAR LMML 071845Z 26006KT 9999 SCT045 13/06 Q1016 NOSIG=
201212071830 METAR LMML NIL=
201212071815 METAR LMML 071815Z 27006KT 9999 SCT043 13/05 Q1016 NOSIG=
201212071800 METAR LMML NIL=
201212071745 METAR LMML 071745Z AUTO 27005KT CAVOK 13/07 Q1016 NOSIG=
201212071730 METAR LMML NIL=
201212071715 METAR LMML 071715Z 29004KT 260V320 9999 SCT036 13/07 Q1016
                        NOSIG=
201212071700 METAR LMML NIL=
201212071645 METAR LMML 071645Z AUTO 30004KT CAVOK 13/06 Q1016 NOSIG=
201212071630 METAR LMML NIL=
201212071615 METAR LMML 071615Z 31004KT 9999 SCT039 13/07 Q1016 NOSIG=
201212071545 METAR LMML 071545Z 30007KT 9999 SCT040 13/06 Q1016 NOSIG=
201212071530 METAR LMML NIL=
201212071515 METAR LMML 071515Z 31008KT 9999 FEW035 14/06 Q1017 NOSIG=
201212071500 METAR LMML NIL=
201212071445 METAR LMML 071445Z 32012KT 9999 FEW035 15/07 Q1017 NOSIG=
201212071430 METAR LMML NIL=
201212071415 METAR LMML 071415Z 31011KT 9999 SCT038 15/07 Q1016 NOSIG=
201212071400 METAR LMML NIL=
201212071345 METAR LMML 071345Z 31013KT 9999 SCT039 15/07 Q1016 NOSIG=
201212071330 METAR LMML NIL=
201212071315 METAR LMML 071315Z AUTO 31013KT 280V340 9999NDV SCT038///
                        SCT043/// 15/07 Q1016=
201212071300 METAR LMML NIL=
201212071245 METAR LMML 071245Z 32012KT 9999 SCT036 15/08 Q1017 NOSIG=
201212071230 METAR LMML NIL=
201212071215 METAR LMML 071215Z 32014KT 9999 SCT036 16/07 Q1017 NOSIG=
201212071145 METAR LMML 071145Z 32013KT 9999 SCT049 16/07 Q1017 NOSIG=
201212071130 METAR LMML NIL=
201212071115 METAR LMML 071115Z 32014KT 9999 SCT040 16/07 Q1017 NOSIG=
201212071100 METAR LMML NIL=
201212071045 METAR LMML 071045Z 34016KT 9999 SCT038 15/07 Q1017 NOSIG=
201212071030 METAR LMML NIL=
201212071015 METAR LMML 071015Z 33015KT 9999 SCT041 15/06 Q1018 NOSIG=
201212071000 METAR LMML NIL=
201212070945 METAR LMML 070945Z 33016KT 9999 SCT041 15/06 Q1018 NOSIG=
201212070930 METAR LMML NIL=
201212070915 METAR LMML 070915Z 32017KT 9999 SCT043 15/06 Q1018 NOSIG=
201212070845 METAR LMML 070845Z 31012KT 9999 SCT044 14/05 Q1018 NOSIG=
201212070815 METAR LMML 070815Z 32014KT 9999 FEW030 SCT049 14/06 Q1018
                        NOSIG=
201212070800 METAR LMML NIL=
201212070745 METAR LMML 070745Z 32011KT 9999 FEW030 SCT045 14/05 Q1018
                        NOSIG=
201212070715 METAR LMML 070715Z 31012KT 9999 FEW030 13/04 Q1017 NOSIG=
201212070700 METAR LMML NIL=
201212070645 METAR LMML 070645Z 31014KT 9999 FEW030 13/05 Q1017 NOSIG=
201212070630 METAR LMML NIL=
201212070615 METAR LMML 070615Z 31012KT 9999 SCT030 13/04 Q1017 NOSIG=
201212070600 METAR LMML NIL=
201212070545 METAR LMML 070545Z 31013KT 9999 BKN043 13/05 Q1017 NOSIG=
201212070530 METAR LMML NIL=
201212070515 METAR LMML 070515Z 31010KT 280V340 9999 BKN040 12/07 Q1016
                        NOSIG=
201212070500 METAR LMML NIL=
201212070445 METAR LMML 070445Z 33011KT 9999 FEW021 BKN039 12/07 Q1016
                        NOSIG=
201212070430 METAR LMML NIL=
201212070415 METAR LMML 070415Z AUTO 31012KT 9999NDV BKN035/// OVC040///
                        13/07 Q1016=
201212070401 SPECI LMML 070401Z AUTO 31010G22KT 270V330 9999NDV FEW019///
                        BKN035/// BKN040/// 13/07 Q1016=
201212070400 METAR LMML NIL=
201212070400 SPECI LMML 070400Z AUTO 31009G22KT 270V330 9999NDV RA FEW019///
                        BKN035/// BKN040/// 13/07 Q1016=
201212070345 METAR LMML 070345Z AUTO 32008KT 290V350 9999NDV BKN037///
                        BKN042/// OVC053/// 12/07 Q1016=
201212070330 METAR LMML NIL=
201212070315 METAR LMML 070315Z AUTO 31010KT 9999NDV FEW033/// BKN037///
                        OVC052/// 12/06 Q1015=
201212070300 METAR LMML NIL=
201212070245 METAR LMML 070245Z AUTO 31012KT 9999NDV FEW044/// SCT052///
                        12/04 Q1015=
201212070230 METAR LMML NIL=
201212070215 METAR LMML 070215Z AUTO 33009KT 9999NDV FEW038/// 12/06 Q1015=
201212070200 METAR LMML NIL=
201212070145 METAR LMML 070145Z AUTO 32009KT 9999NDV SCT039/// SCT043///
                        BKN051/// 12/07 Q1015=
201212070130 METAR LMML NIL=
201212070115 METAR LMML 070115Z AUTO 33009KT 9999NDV FEW040/// 11/07 Q1016=
201212070100 METAR LMML NIL=
201212070045 METAR LMML 070045Z AUTO 33010KT 9999NDV FEW036/// SCT042///
                        12/07 Q1015=
201212070030 METAR LMML NIL=
201212070015 METAR LMML 070015Z AUTO 33011KT 9999NDV FEW040/// 12/08 Q1015=
201212070007 SPECI LMML 070007Z AUTO 32011KT 9999NDV FEW009/// BKN039///
                        BKN047/// 12/08 Q1015=
201212070005 SPECI LMML 070005Z AUTO 32011KT 9999NDV SHRA FEW009/// BKN039///
                        BKN044/// 12/08 Q1015=
201212070000 METAR LMML NIL=
201212062345 METAR LMML 062345Z AUTO 34013KT 9999NDV RA BKN035/// OVC040///
                        13/08 Q1015=
201212062345 SPECI LMML 062345Z AUTO 34013KT 9999NDV RA BKN035/// OVC040///
                        13/08 Q1015=
201212062344 SPECI LMML 062344Z AUTO 34013KT 9999NDV DZ BKN035/// OVC040///
                        13/08 Q1015=
201212062330 METAR LMML NIL=
201212062315 METAR LMML 062315Z AUTO 32013KT 290V010 9999NDV SCT042///
                        SCT053/// 13/07 Q1015=
201212062300 METAR LMML NIL=
201212062245 METAR LMML 062245Z AUTO 31012KT 9999NDV FEW041/// 13/07 Q1015=
201212062230 METAR LMML NIL=
201212062215 METAR LMML 062215Z AUTO 32013KT CAVOK 13/07 Q1015=
201212062200 METAR LMML NIL=
201212062145 METAR LMML 062145Z AUTO 33009KT 9999NDV SCT033/// SCT039///
                        BKN052/// 13/08 Q1015=
201212062130 METAR LMML NIL=
201212062115 METAR LMML 062115Z 32007KT 9999NDV SCT033/// SCT038/// BKN043///
                        12/08 Q1015=
201212062100 METAR LMML NIL=
201212062045 METAR LMML 062045Z 31010KT 9999 SCT031 BKN042 13/09 Q1015
                        NOSIG=
201212062030 METAR LMML NIL=
201212062015 METAR LMML 062015Z 30010KT 9999 FEW030 FEW048 12/08 Q1015
                        NOSIG=
201212062000 METAR LMML NIL=
201212061945 METAR LMML 061945Z 33016KT 9999 -RA FEW031 13/08 Q1015 NOSIG=
201212061930 METAR LMML NIL=
201212061915 METAR LMML 061915Z 30015KT 9999 FEW020 13/07 Q1014 TEMPO
                        8000 SHRA BKN020TCU=
201212061900 METAR LMML NIL=
201212061845 METAR LMML 061845Z 30015KT 9999 FEW020 13/08 Q1014 NOSIG=
201212061830 METAR LMML NIL=
201212061815 METAR LMML 061815Z 31015KT 9999 FEW020 13/08 Q1014 NOSIG=
201212061800 METAR LMML NIL=
201212061745 METAR LMML 061745Z 31015KT 9999 FEW020 BKN046 12/09 Q1014
                        RERA NOSIG=
201212061730 METAR LMML NIL=
201212061715 METAR LMML 061715Z 30014KT 8000 -RA SCT030 12/09 Q1014 RERA
                        BECMG 9999=
201212061700 METAR LMML NIL=
201212061645 METAR LMML 061645Z 30018KT 9999 -RA SCT030 BKN043 13/07 Q1013
                        NOSIG=
201212061630 METAR LMML NIL=
201212061615 METAR LMML 061615Z 33012KT 9999 -SHRA SCT033 12/09 Q1014
                        NOSIG=
201212061600 METAR LMML NIL=
201212061545 METAR LMML 061545Z 32017KT 9999 SCT039 14/07 Q1013 NOSIG=
201212061530 METAR LMML NIL=
201212061515 METAR LMML 061515Z 31014G24KT 9999 SCT038 SCT045 14/08 Q1013
                        NOSIG=
201212061500 METAR LMML NIL=
201212061445 METAR LMML 061445Z 31008KT 280V340 9999 -SHRA SCT027 BKN043
                        13/08 Q1013 NOSIG=
201212061430 METAR LMML NIL=
201212061415 METAR LMML 061415Z 29011KT 9999 SCT028 BKN048 13/07 Q1013
                        NOSIG=
201212061400 METAR LMML NIL=
201212061345 METAR LMML 061345Z AUTO 32015KT 9999NDV FEW033/// SCT079///
                        15/05 Q1012=
201212061330 METAR LMML NIL=
201212061315 METAR LMML 061315Z 31018KT 9999 FEW048 16/05 Q1012 NOSIG=
201212061300 METAR LMML NIL=
201212061245 METAR LMML 061245Z 32017KT 9999 FEW048 16/05 Q1012 NOSIG=
201212061230 METAR LMML NIL=
201212061215 METAR LMML 061215Z 31017KT 9999 FEW045 16/05 Q1013 NOSIG=
201212061200 METAR LMML NIL=
201212061145 METAR LMML 061145Z 32017KT 9999 FEW035 16/04 Q1013 NOSIG=
201212061130 METAR LMML NIL=
201212061115 METAR LMML 061115Z 31016G27KT 290V350 9999 FEW035 16/03 Q1013
                        NOSIG=
201212061100 METAR LMML NIL=
201212061045 METAR LMML 061045Z 31019KT 9999 FEW035 16/04 Q1013 NOSIG=
201212061030 METAR LMML NIL=
201212061015 METAR LMML 061015Z AUTO 32017KT CAVOK 16/04 Q1013 NOSIG=
201212061000 METAR LMML NIL=
201212060945 METAR LMML 060945Z 31017KT 9999 FEW035 15/06 Q1013 NOSIG=
201212060930 METAR LMML NIL=
201212060915 METAR LMML 060915Z 32014KT 9999 FEW040 15/07 Q1013 NOSIG=
201212060900 METAR LMML NIL=
201212060845 METAR LMML 060845Z 32013G24KT 280V350 9999 FEW025 15/07 Q1013
                        NOSIG=
201212060830 METAR LMML NIL=
201212060815 METAR LMML 060815Z 33011KT 9999 FEW035 13/07 Q1013 NOSIG=
201212060800 METAR LMML NIL=
201212060745 METAR LMML 060745Z 31012KT 9999 FEW035 14/06 Q1013 NOSIG=
201212060730 METAR LMML NIL=
201212060715 METAR LMML 060715Z 32011KT 9999 FEW040 14/06 Q1012 NOSIG=
201212060700 METAR LMML NIL=
201212060645 METAR LMML 060645Z 32015KT 9999 FEW035 13/05 Q1012 NOSIG=
201212060630 METAR LMML NIL=
201212060615 METAR LMML 060615Z 32012KT 9999 SCT035 13/06 Q1012 NOSIG=
201212060600 METAR LMML NIL=
201212060545 METAR LMML 060545Z 32011KT 9999 SCT038 12/06 Q1012=
201212060530 METAR LMML NIL=
201212060515 METAR LMML 060515Z 32008KT 9999 SCT042 12/06 Q1011=
201212060500 METAR LMML NIL=
201212060445 METAR LMML 060445Z 30007KT 9999 SCT035 12/07 Q1011=
201212060430 METAR LMML NIL=
201212060415 METAR LMML 060415Z 34012KT 9999 SCT035 13/07 Q1011=
201212060400 METAR LMML NIL=
201212060345 METAR LMML 060345Z 32011KT 9999 SCT048 13/05 Q1011=
201212060330 METAR LMML NIL=
201212060315 METAR LMML 060315Z 32010KT 9999 SCT043 13/07 Q1010=
201212060300 METAR LMML NIL=
201212060245 METAR LMML 060245Z AUTO 30010KT 9999NDV BKN035/// BKN040///
                        OVC046/// 13/06 Q1011=
201212060230 METAR LMML NIL=
201212060215 METAR LMML 060215Z AUTO 31013KT CAVOK 13/05 Q1011=
201212060200 METAR LMML NIL=
201212060145 METAR LMML 060145Z AUTO 31016KT 9999NDV FEW035/// 13/06 Q1011=
201212060130 METAR LMML NIL=
201212060115 METAR LMML 060115Z AUTO 31012KT CAVOK 13/06 Q1011=
201212060100 METAR LMML NIL=
201212060045 METAR LMML 060045Z AUTO 31012KT CAVOK 12/06 Q1010=
201212060030 METAR LMML NIL=
201212060015 METAR LMML 060015Z AUTO 29009KT CAVOK 12/06 Q1010=
201212060000 METAR LMML NIL=
201212052345 METAR LMML 052345Z AUTO 31016KT CAVOK 13/07 Q1011=
201212052315 METAR LMML 052315Z AUTO 32013KT 9999NDV SCT038/// SCT053///
                        13/07 Q1011=
201212052300 METAR LMML NIL=
201212052245 METAR LMML 052245Z AUTO 32008KT 9999NDV SCT041/// SCT051///
                        12/08 Q1010=
201212052230 METAR LMML NIL=
201212052215 METAR LMML 052215Z AUTO 33013KT 9999NDV FEW026/// BKN032///
                        BKN036/// 13/08 Q1011=
201212052210 SPECI LMML 052210Z AUTO 32013KT 9999NDV -RA FEW026/// SCT034///
                        BKN040/// 13/08 Q1011=
201212052209 SPECI LMML 052209Z AUTO 32013KT 9999NDV RA FEW026/// SCT034///
                        BKN054/// 13/08 Q1011=
201212052200 METAR LMML NIL=
201212052145 METAR LMML 052145Z AUTO 31016KT 9999NDV FEW033/// 13/07 Q1010=
201212052130 METAR LMML NIL=
201212052115 METAR LMML 052115Z AUTO 31014KT CAVOK 12/07 Q1010=
201212052100 METAR LMML NIL=
201212052045 METAR LMML 052045Z 32012KT 9999 SCT030 11/08 Q1010 NOSIG=
201212052030 METAR LMML NIL=
201212052015 METAR LMML 052015Z 31016KT 6000 RA SCT020 BKN045 11/09 Q1011
                        NOSIG=
201212052000 METAR LMML NIL=
201212051945 METAR LMML 051945Z 33008KT 9999 -SHRA SCT034 10/09 Q1011
                        NOSIG=
201212051930 METAR LMML NIL=
201212051915 METAR LMML 051915Z 34019KT 9999 SHRA BKN022 10/09 Q1012 NOSIG=
201212051902 SPECI LMML 051902Z 34016G27KT 7000 +SHRA BKN018 11/09 Q1011
                        NOSIG=
201212051900 METAR LMML NIL=
201212051845 METAR LMML 051845Z 31017KT 6000 +SHRA BKN017TCU 12/09 Q1011
                        NOSIG=
201212051830 METAR LMML NIL=
201212051815 METAR LMML 051815Z 30010KT 9999 BKN034TCU 13/10 Q1010 TEMPO
                        5000 SHRA BKN030TCU=
201212051800 METAR LMML NIL=
201212051745 METAR LMML 051745Z 32009KT 9000 -SHRA BKN030 13/09 Q1010
                        NOSIG=
201212051730 METAR LMML NIL=
201212051715 METAR LMML 051715Z 30008KT 9999 SCT035 12/07 Q1009 TEMPO
                        8000 RA=
201212051700 METAR LMML NIL=
201212051645 METAR LMML 051645Z 31011KT 9999 BKN033 11/08 Q1010 TEMPO
                        9000 RA=
201212051630 METAR LMML NIL=
201212051615 METAR LMML 051615Z 33012KT 9000 -SHRA BKN030 14/08 Q1010
                        NOSIG=
201212051600 METAR LMML NIL=
201212051545 METAR LMML 051545Z 30011KT 9999 SCT037 14/08 Q1010 NOSIG=
201212051530 METAR LMML NIL=
201212051515 METAR LMML 051515Z 29013KT 9999 SCT035 15/07 Q1010 NOSIG=
201212051500 METAR LMML NIL=
201212051445 METAR LMML 051445Z 31013KT 9999 SCT035 15/08 Q1010 NOSIG=
201212051430 METAR LMML NIL=
201212051415 METAR LMML 051415Z 30016KT 9999 SCT037 15/07 Q1010 NOSIG=
201212051400 METAR LMML NIL=
201212051345 METAR LMML 051345Z 31013G23KT 9999 SCT040 16/08 Q1010 NOSIG=
201212051330 METAR LMML NIL=
201212051315 METAR LMML 051315Z 31016KT 9999 SCT038 16/08 Q1010 NOSIG=
201212051300 METAR LMML NIL=
201212051245 METAR LMML 051245Z 31016G26KT 9999 -SHRA SCT037 15/09 Q1010
                        NOSIG=
201212051230 METAR LMML NIL=
201212051215 METAR LMML 051215Z 30019KT 280V340 9999 FEW040 17/06 Q1010
                        TEMPO 9000 SHRA SCT040TCU=
201212051200 METAR LMML NIL=
201212051145 METAR LMML 051145Z 32018KT 9999 FEW040 17/06 Q1010 TEMPO
                        9000 SHRA SCT040TCU=
201212051130 METAR LMML NIL=
201212051115 METAR LMML 051115Z 31018KT 9999 SCT040 17/07 Q1011 TEMPO
                        9000 SHRA SCT040TCU=
201212051100 METAR LMML NIL=
201212051045 METAR LMML 051045Z AUTO 31019KT CAVOK 17/06 Q1011=
201212051030 METAR LMML NIL=
201212051015 METAR LMML 051015Z 31020KT 9999 SCT040 17/06 Q1011 NOSIG=
201212051000 METAR LMML NIL=
201212050945 METAR LMML 050945Z 31019KT 9999 SCT040 16/06 Q1011 NOSIG=
201212050930 METAR LMML NIL=
201212050915 METAR LMML 050915Z 30020KT 9999 SCT040 16/07 Q1011 NOSIG=
201212050900 METAR LMML NIL=
201212050845 METAR LMML 050845Z 31020KT 9999 SCT035 16/08 Q1011 NOSIG=
201212050830 METAR LMML NIL=
201212050815 METAR LMML 050815Z AUTO 31019G30KT 9999NDV FEW037/// 16/08
                        Q1011=
201212050800 METAR LMML NIL=
201212050745 METAR LMML 050745Z 30021KT 9999 SCT033 15/08 Q1010 TEMPO
                        8000 SHRA BKN030TCU=
201212050730 METAR LMML NIL=
201212050715 METAR LMML 050715Z 31017G28KT 9999 SCT034 15/08 Q1010 TEMPO
                        8000 SHRA BKN030TCU=
201212050700 METAR LMML NIL=
201212050645 METAR LMML 050645Z 31019KT 9999 SCT036 15/08 Q1010 NOSIG=
201212050630 METAR LMML NIL=
201212050615 METAR LMML 050615Z 31016KT 9999 SCT030 14/07 Q1010 NOSIG=
201212050600 METAR LMML NIL=
201212050545 METAR LMML 050545Z 31017G28KT 9999 SCT026 14/08 Q1010 NOSIG=
201212050515 METAR LMML 050515Z 31017KT 9999 SCT026 14/09 Q1009 NOSIG=
201212050445 METAR LMML 050445Z 30018KT 9999 SCT027 14/09 Q1009 NOSIG=
201212050430 METAR LMML NIL=
201212050415 METAR LMML 050415Z 31019KT 9999 SCT025 13/10 Q1010 NOSIG=
201212050400 METAR LMML NIL=
201212050345 METAR LMML 050345Z 31018KT 9999 -SHRA BKN037 13/09 Q1010
                        NOSIG=
201212050330 METAR LMML NIL=
201212050315 METAR LMML 050315Z 31019G30KT 9999 SCT021 14/11 Q1010 NOSIG=
201212050300 METAR LMML NIL=
201212050245 METAR LMML 050245Z AUTO 31018KT 9999NDV FEW029/// BKN033///
                        BKN050/// 15/10 Q1010=
201212050235 SPECI LMML 050235Z AUTO 31018KT 9999NDV FEW033/// BKN070///
                        15/10 Q1010=
201212050215 METAR LMML 050215Z AUTO 31019KT 9999NDV FEW027/// BKN034///
                        BKN039/// 15/10 Q1010=
201212050200 METAR LMML NIL=
201212050145 METAR LMML 050145Z AUTO 29016KT 9999NDV SCT041/// BKN051///
                        16/09 Q1010=
201212050130 METAR LMML NIL=
201212050115 METAR LMML 050115Z AUTO 29011KT 9999NDV SCT034/// SCT039///
                        BKN063/// 15/10 Q1010=
201212050100 METAR LMML NIL=
201212050045 METAR LMML 050045Z AUTO 27011KT 9999NDV TS BKN100/// 14/08
                        Q1010=
201212050044 SPECI LMML 050044Z AUTO 27011KT 9999NDV TS BKN100/// 14/09
                        Q1010=
201212050033 SPECI LMML 050033Z AUTO 27012G25KT 230V300 3100NDV TS FEW005///
                        SCT031/// BKN043/// 15/10 Q1011=
201212050032 SPECI LMML 050032Z AUTO 27011G25KT 230V300 2900NDV TSSHRA
                        FEW005/// SCT031/// BKN036/// 15/10
                        Q1011=
201212050031 SPECI LMML 050031Z AUTO 27010G25KT 230V300 6000NDV TSSHRA
                        FEW005/// SCT031/// BKN036/// 15/11
                        Q1011=
201212050030 SPECI LMML 050030Z AUTO 26009G25KT 230V300 9000NDV TSSHRA
                        FEW005/// SCT030/// BKN036/// 15/11
                        Q1011=
201212050015 METAR LMML 050015Z AUTO 29008KT 9999NDV FEW034/// BKN088///
                        14/10 Q1011=
201212050015 SPECI LMML 050015Z AUTO 29008KT 9999NDV FEW034/// BKN088///
                        14/10 Q1011=
201212050005 SPECI LMML 050005Z AUTO 28010KT 9999NDV TS FEW041/// 14/09
                        Q1011=
201212050000 METAR LMML NIL=
201212042345 METAR LMML 042345Z AUTO 30016KT 9999NDV FEW039/// OVC058///
                        14/09 Q1011=
201212042339 SPECI LMML 042339Z AUTO 29015KT 9999NDV -DZ SCT052/// BKN120///
                        BKN150/// 14/09 Q1011=
201212042338 SPECI LMML 042338Z AUTO 29016KT 9999NDV DZ SCT052/// BKN130///
                        14/10 Q1011=
201212042334 SPECI LMML 042334Z AUTO 30018G29KT 9999NDV RA FEW052/// BKN100///
                        BKN140/// 14/10 Q1011=
201212042331 SPECI LMML 042331Z AUTO 30018G29KT 6000NDV -RA SCT050///
                        BKN099/// 14/09 Q1011=
201212042330 SPECI LMML 042330Z AUTO 30018G29KT 4500NDV RA FEW050/// BKN099///
                        14/09 Q1011=
201212042315 METAR LMML 042315Z AUTO 29019G37KT 250V320 9999NDV R13/0225VP2000D
                        +RA FEW035/// SCT040/// BKN092///
                        14/10 Q1012=
201212042309 SPECI LMML 042309Z AUTO 30015G28KT 9999NDV +RA FEW013///
                        SCT035/// OVC040/// 14/10 Q1012=
201212042308 SPECI LMML 042308Z AUTO 30014G28KT 9999NDV RA FEW013/// BKN035///
                        BKN040/// 14/10 Q1012=
201212042304 SPECI LMML 042304Z AUTO 31016KT 4500NDV -RA FEW013/// BKN038///
                        BKN043/// 14/09 Q1012=
201212042245 METAR LMML 042245Z AUTO 29012KT 9999NDV SCT035/// BKN042///
                        BKN048/// 16/10 Q1012=
201212042241 SPECI LMML 042241Z AUTO 29012KT 9999NDV SCT035/// BKN039///
                        BKN047/// 16/10 Q1012=
201212042231 SPECI LMML 042231Z AUTO 29011KT 9999NDV TS SCT035/// BKN039///
                        BKN044/// 16/09 Q1012=
201212042230 METAR LMML NIL=
201212042215 METAR LMML 042215Z AUTO 29009KT 260V320 CAVOK 16/10 Q1012=
201212042145 METAR LMML 042145Z AUTO 29011KT 9999NDV FEW035/// SCT046///
                        16/10 Q1012=
201212042130 METAR LMML NIL=
201212042115 METAR LMML 042115Z AUTO 29013KT 9999NDV FEW038/// 15/09 Q1012=
201212042045 METAR LMML 042045Z AUTO 29012KT 9999NDV FEW034/// 15/09 Q1012=
201212042030 METAR LMML NIL=
201212042015 METAR LMML 042015Z AUTO 30009KT 9999NDV FEW033/// SCT038///
                        15/10 Q1013=
201212042000 METAR LMML NIL=
201212041945 METAR LMML 041945Z 30011KT 9999 FEW035 15/11 Q1013 NOSIG=
201212041930 METAR LMML NIL=
201212041915 METAR LMML 041915Z 30010KT 9999 FEW026 15/11 Q1013 NOSIG=
201212041900 METAR LMML NIL=
201212041845 METAR LMML 041845Z 30008KT 9999 FEW032 14/11 Q1013 NOSIG=
201212041830 METAR LMML NIL=
201212041815 METAR LMML 041815Z 30010KT 9999 FEW026 14/11 Q1014 NOSIG=
201212041800 METAR LMML NIL=
201212041745 METAR LMML 041745Z 32005KT 9999 FEW009 SCT023 13/11 Q1014
                        NOSIG=
201212041730 METAR LMML NIL=
201212041715 METAR LMML 041715Z 32005KT 9999 FEW025 13/11 Q1014 NOSIG=
201212041700 METAR LMML NIL=
201212041645 METAR LMML 041645Z 33008KT 9999 -RA FEW009 SCT025 14/10 Q1014
                        NOSIG=
201212041630 METAR LMML NIL=
201212041615 METAR LMML 041615Z 31009KT 9999 FEW025TCU 15/10 Q1014 NOSIG=
201212041600 METAR LMML NIL=
201212041545 METAR LMML 041545Z 33011KT 9999 FEW025TCU 15/10 Q1014 NOSIG
                        RMK CB TOP TO SOUTH=
201212041530 METAR LMML NIL=
201212041515 METAR LMML 041515Z 32010KT 9999 FEW025 15/11 Q1014 NOSIG=
201212041500 METAR LMML NIL=
201212041445 METAR LMML 041445Z 32011KT 9999 FEW025 16/11 Q1014 NOSIG=
201212041430 METAR LMML NIL=
201212041415 METAR LMML 041415Z 32011KT 9999 -RA FEW016 BKN046 16/11 Q1014
                        NOSIG=
201212041400 METAR LMML NIL=
201212041345 METAR LMML 041345Z 32011KT 9999 FEW025 17/11 Q1015 NOSIG=
201212041330 METAR LMML NIL=
201212041315 METAR LMML 041315Z 31012KT 9999 SCT025 17/10 Q1015 NOSIG=
201212041300 METAR LMML NIL=
201212041245 METAR LMML 041245Z AUTO 30009KT 260V320 CAVOK 17/11 Q1015=
201212041230 METAR LMML NIL=
201212041215 METAR LMML 041215Z 31009KT 270V330 9999 SCT025 17/11 Q1016
                        NOSIG=
201212041200 METAR LMML NIL=
201212041145 METAR LMML 041145Z 30008KT 9999 SCT026 17/11 Q1016 NOSIG=
201212041130 METAR LMML NIL=
201212041115 METAR LMML 041115Z 30008KT 270V340 9999 FEW026 17/11 Q1016
                        NOSIG=
201212041100 METAR LMML NIL=
201212041045 METAR LMML 041045Z 33010KT 9999 FEW027 17/10 Q1017 NOSIG=
201212041030 METAR LMML NIL=
201212041015 METAR LMML 041015Z 30010KT 9999 SCT028 17/10 Q1017 NOSIG=
201212041000 METAR LMML NIL=
201212040945 METAR LMML 040945Z 31008KT 280V340 9999 SCT028 17/10 Q1018
                        NOSIG=
201212040930 METAR LMML NIL=
201212040915 METAR LMML 040915Z 32006KT 9999 FEW027 17/11 Q1018 NOSIG=
201212040900 METAR LMML NIL=
201212040845 METAR LMML 040845Z AUTO 29003KT 250V330 CAVOK 16/10 Q1018
                        NOSIG=
201212040830 METAR LMML NIL=
201212040815 METAR LMML 040815Z 28003KT 240V310 9999 FEW030 15/10 Q1018
                        NOSIG=
201212040800 METAR LMML NIL=
201212040745 METAR LMML 040745Z VRB03KT 9999 FEW030 14/09 Q1018 NOSIG=
201212040730 METAR LMML NIL=
201212040715 METAR LMML 040715Z 31005KT 9999 FEW030 13/08 Q1018 NOSIG=
201212040700 METAR LMML NIL=
201212040645 METAR LMML 040645Z 31005KT 9999 FEW030 12/08 Q1018 NOSIG=
201212040630 METAR LMML NIL=
201212040615 METAR LMML 040615Z 30005KT 9999 FEW030 11/07 Q1018 NOSIG=
201212040600 METAR LMML NIL=
201212040545 METAR LMML 040545Z 30006KT 9999 FEW032 11/07 Q1018 NOSIG=
201212040530 METAR LMML NIL=
201212040515 METAR LMML 040515Z 28005KT 9999 FEW040 11/07 Q1018 NOSIG=
201212040500 METAR LMML NIL=
201212040445 METAR LMML 040445Z 31007KT 9999 FEW040 11/07 Q1018 NOSIG=
201212040430 METAR LMML NIL=
201212040415 METAR LMML 040415Z 31007KT 9999 FEW040 11/06 Q1018 NOSIG=
201212040400 METAR LMML NIL=
201212040345 METAR LMML 040345Z 29006KT 9999 FEW040 10/06 Q1019 NOSIG=
201212040330 METAR LMML NIL=
201212040315 METAR LMML 040315Z AUTO 31005KT CAVOK 10/06 Q1019=
201212040300 METAR LMML NIL=
201212040245 METAR LMML 040245Z AUTO 32006KT CAVOK 10/05 Q1019=
201212040230 METAR LMML NIL=
201212040215 METAR LMML 040215Z AUTO 31004KT 270V330 CAVOK 11/05 Q1019=
201212040200 METAR LMML NIL=
201212040145 METAR LMML 040145Z AUTO 32006KT CAVOK 11/05 Q1019=
201212040130 METAR LMML NIL=
201212040115 METAR LMML 040115Z AUTO 30008KT CAVOK 11/05 Q1020=
201212040100 METAR LMML NIL=
201212040045 METAR LMML 040045Z AUTO 31009KT CAVOK 11/04 Q1020=
201212040030 METAR LMML NIL=
201212040015 METAR LMML 040015Z AUTO 32011KT CAVOK 11/04 Q1019=
201212040000 METAR LMML NIL=
201212032345 METAR LMML 032345Z AUTO 31009KT CAVOK 11/04 Q1020=
201212032330 METAR LMML NIL=
201212032315 METAR LMML 032315Z AUTO 31010KT CAVOK 12/05 Q1020=
201212032300 METAR LMML NIL=
201212032245 METAR LMML 032245Z AUTO 33010KT CAVOK 11/05 Q1020=
201212032230 METAR LMML NIL=
201212032215 METAR LMML 032215Z AUTO 34012KT 9999NDV FEW039/// 12/05 Q1020=
201212032200 METAR LMML NIL=
201212032145 METAR LMML 032145Z AUTO 34014KT CAVOK 12/04 Q1020=
201212032130 METAR LMML NIL=
201212032115 METAR LMML 032115Z AUTO 34015KT 9999NDV FEW041/// 13/05 Q1020=
201212032100 METAR LMML NIL=
201212032045 METAR LMML 032045Z AUTO 34013KT 9999NDV SCT037/// SCT044///
                        13/06 Q1019=
201212032030 METAR LMML NIL=
201212032015 METAR LMML 032015Z AUTO 33011KT 9999NDV BKN038/// BKN044///
                        13/06 Q1020=
201212032000 METAR LMML NIL=
201212031945 METAR LMML 031945Z 34014KT 9999 FEW040 13/05 Q1019 NOSIG=
201212031930 METAR LMML NIL=
201212031915 METAR LMML 031915Z 34017KT 9999 FEW040 13/05 Q1019 NOSIG=
201212031900 METAR LMML NIL=
201212031845 METAR LMML 031845Z 34013KT 9999 FEW040 13/05 Q1019 NOSIG=
201212031830 METAR LMML NIL=
201212031815 METAR LMML 031815Z 33013KT 9999 FEW028 13/04 Q1019 NOSIG=
201212031800 METAR LMML NIL=
201212031745 METAR LMML 031745Z 33016KT 9999 FEW028 13/04 Q1018 NOSIG=
201212031730 METAR LMML NIL=
201212031715 METAR LMML 031715Z 33017KT 9999 FEW028 13/05 Q1018 NOSIG=
201212031700 METAR LMML NIL=
201212031645 METAR LMML 031645Z 33019KT 9999 FEW028 13/05 Q1018 NOSIG=
201212031630 METAR LMML NIL=
201212031615 METAR LMML 031615Z 33019KT 9999 FEW028 13/06 Q1018 NOSIG=
201212031600 METAR LMML NIL=
201212031545 METAR LMML 031545Z 33019G33KT 9999 FEW028 14/05 Q1017 NOSIG=
201212031515 METAR LMML 031515Z 34022KT 9999 FEW028 14/06 Q1017 BECMG
                        5000 SHRA=
201212031500 METAR LMML NIL=
201212031445 METAR LMML 031445Z 33021G33KT 9999 FEW028 15/07 Q1017 BECMG
                        5000 SHRA=
201212031430 METAR LMML NIL=
201212031415 METAR LMML 031415Z 33022G32KT 9999 SCT028 15/10 Q1016 BECMG
                        5000 SHRA=
201212031345 METAR LMML 031345Z 33021G32KT 9999 -SHRA SCT028 15/10 Q1016
                        BECMG 5000 SHRA=
201212031330 METAR LMML NIL=
201212031315 METAR LMML 031315Z 32019KT 9999 SCT028 15/10 Q1016 BECMG
                        2000 SHRA=
201212031300 METAR LMML NIL=
201212031245 METAR LMML 031245Z AUTO 32024G40KT 9999NDV FEW030/// SCT036///
                        15/10 Q1016=
201212031230 METAR LMML NIL=
201212031215 METAR LMML 031215Z 32027G40KT 9999 SCT020 SCT040 14/10 Q1017
                        TEMPO 2000 SHRA=
201212031200 METAR LMML NIL=
201212031145 METAR LMML 031145Z 32022G33KT 9999 SCT023 FEW040 14/11 Q1017
                        TEMPO 2000 SHRA=
201212031130 METAR LMML NIL=
201212031115 METAR LMML 031115Z 32022G33KT 9999 BKN021 13/11 Q1017 TEMPO
                        2000 SHRA=
201212031100 METAR LMML NIL=
201212031045 METAR LMML 031045Z 31026G40KT 7000 -SHRA BKN025 14/10 Q1017
                        TEMPO 5000 SHRA=
201212031033 SPECI LMML 031033Z 31022G32KT 4000 BKN025 15/11 Q1017 NOSIG=
201212031030 METAR LMML NIL=
201212031015 METAR LMML 031015Z 30024KT 8000 -SHRA BKN025 15/11 Q1017
                        BECMG 5000 SHRA=
201212031000 METAR LMML NIL=
201212030945 METAR LMML 030945Z 30025G43KT 8000 R13/0800VP2000D SHRA BKN023
                        15/11 Q1017 BECMG 5000 SHRA=
201212030930 METAR LMML NIL=
201212030915 METAR LMML 030915Z 31021G32KT 9999 SCT024 15/11 Q1017 RESHRA
                        BECMG 5000 SHRA=
201212030900 METAR LMML NIL=
201212030845 METAR LMML 030845Z 31021G33KT 9999 -SHRA BKN035 13/10 Q1017
                        RESHRA BECMG 5000 SHRA=
201212030834 SPECI LMML 030834Z 32023G45KT 4000 R13/0700VP2000N +RA BKN035
                        16/08 Q1017 NOSIG=
201212030831 SPECI LMML 030831Z 32023G33KT 8000 BKN032 16/08 Q1017 NOSIG=
201212030830 METAR LMML NIL=
201212030815 METAR LMML 030815Z 31022G35KT 9999 SCT034 16/08 Q1017 NOSIG=
201212030800 METAR LMML NIL=
201212030745 METAR LMML 030745Z 32022G34KT 9999 SCT034 15/07 Q1017 NOSIG=
201212030730 METAR LMML NIL=
201212030715 METAR LMML 030715Z 32020KT 9999 SCT035 15/07 Q1017 NOSIG=
201212030700 METAR LMML NIL=
201212030645 METAR LMML 030645Z 32018KT 9999 SCT043 15/06 Q1016 NOSIG=
201212030630 METAR LMML NIL=
201212030615 METAR LMML 030615Z 31020KT 9999 FEW041 15/05 Q1016 NOSIG=
201212030600 METAR LMML NIL=
201212030545 METAR LMML 030545Z 32019KT 9999 FEW044 15/06 Q1016 NOSIG=
201212030530 METAR LMML NIL=
201212030515 METAR LMML 030515Z 31023G36KT 9999 FEW036 15/07 Q1016 NOSIG=
201212030500 METAR LMML NIL=
201212030445 METAR LMML 030445Z 31020KT 9999 SCT037 SCT047 15/06 Q1016
                        NOSIG=
201212030430 METAR LMML NIL=
201212030415 METAR LMML 030415Z 31022G34KT 9999 FEW035 15/06 Q1015 NOSIG=
201212030400 METAR LMML NIL=
201212030345 METAR LMML 030345Z 31019KT 9999 SCT035 15/07 Q1015 NOSIG=
201212030330 METAR LMML NIL=
201212030315 METAR LMML 030315Z 31021KT 9999 SCT036 15/07 Q1015 NOSIG=
201212030300 METAR LMML NIL=
201212030245 METAR LMML 030245Z AUTO 31020G30KT 9999NDV FEW039/// SCT048///
                        15/07 Q1015=
201212030230 METAR LMML NIL=
201212030215 METAR LMML 030215Z AUTO 32016G26KT 9999NDV SCT035/// SCT047///
                        BKN057/// 15/09 Q1016=
201212030200 METAR LMML NIL=
201212030145 METAR LMML 030145Z AUTO 32018KT 9999NDV FEW035/// SCT039///
                        BKN059/// 15/09 Q1015=
201212030130 METAR LMML NIL=
201212030115 METAR LMML 030115Z AUTO 32009KT 9999NDV FEW030/// SCT034///
                        BKN040/// 13/11 Q1015=
201212030100 METAR LMML NIL=
201212030045 METAR LMML 030045Z AUTO 32019KT 9999NDV FEW031/// SCT037///
                        14/10 Q1016=
201212030037 SPECI LMML 030037Z AUTO 31018G28KT 9999NDV -RA FEW022///
                        SCT027/// BKN031/// 15/10 Q1015=
201212030035 SPECI LMML 030035Z AUTO 31016G28KT 9999NDV +RA FEW022///
                        SCT027/// BKN035/// 15/10 Q1015=
201212030032 SPECI LMML 030032Z AUTO 31014G28KT 9999NDV RA SCT022/// BKN030///
                        BKN034/// 15/10 Q1015=
201212030030 METAR LMML NIL=
201212030015 METAR LMML 030015Z AUTO 31017KT 9999NDV FEW027/// BKN050///
                        15/09 Q1015=
201212030000 METAR LMML NIL=
201212022345 METAR LMML 022345Z AUTO 30014KT 9999NDV FEW034/// 15/09 Q1015=
201212022330 METAR LMML NIL=
201212022315 METAR LMML 022315Z AUTO 29011KT 260V320 9999NDV FEW033///
                        SCT040/// 15/09 Q1015=
201212022300 METAR LMML NIL=
201212022245 METAR LMML 022245Z AUTO 30015KT 9999NDV FEW036/// 15/08 Q1015=
201212022230 METAR LMML NIL=
201212022215 METAR LMML 022215Z AUTO 30014G25KT 9999NDV SCT033/// SCT043///
                        15/09 Q1015=
201212022200 METAR LMML NIL=
201212022145 METAR LMML 022145Z AUTO 29012KT 9999NDV SCT039/// BKN044///
                        OVC061/// 15/07 Q1014=
201212022130 METAR LMML NIL=
201212022115 METAR LMML 022115Z 30012KT 9999 SCT042 15/06 Q1014 NOSIG=
201212022100 METAR LMML NIL=
201212022045 METAR LMML 022045Z 29014KT 9999 SCT042 15/06 Q1014 NOSIG=
201212022030 METAR LMML NIL=
201212022015 METAR LMML 022015Z 30011KT 9999 SCT040 14/05 Q1014 NOSIG=
201212022000 METAR LMML NIL=
201212021945 METAR LMML 021945Z 30014KT 9999 SCT040 14/05 Q1014 NOSIG=
201212021930 METAR LMML NIL=
201212021915 METAR LMML 021915Z 30013KT 9999 SCT040 14/06 Q1014 NOSIG=
201212021900 METAR LMML NIL=
201212021845 METAR LMML 021845Z 29011G21KT 9999 SCT040 14/06 Q1013 NOSIG=
201212021830 METAR LMML NIL=
201212021815 METAR LMML 021815Z 29014KT 9999 FEW042 15/06 Q1013 NOSIG=
201212021800 METAR LMML NIL=
201212021745 METAR LMML 021745Z 29012KT 9999 FEW043 15/06 Q1013 NOSIG=
201212021730 METAR LMML NIL=
201212021715 METAR LMML 021715Z 29012KT 9999 FEW042 14/06 Q1012 NOSIG=
201212021700 METAR LMML NIL=
201212021645 METAR LMML 021645Z 29014KT 9999 SCT042 15/05 Q1012 NOSIG=
201212021630 METAR LMML NIL=
201212021615 METAR LMML 021615Z 29013KT 9999 SCT042 15/06 Q1012 NOSIG=
201212021600 METAR LMML NIL=
201212021545 METAR LMML 021545Z 29014KT 9999 SCT040 15/06 Q1012 NOSIG=
201212021530 METAR LMML NIL=
201212021515 METAR LMML 021515Z 28015KT 9999 SCT039 15/07 Q1011 NOSIG=
201212021500 METAR LMML NIL=
201212021445 METAR LMML 021445Z 29016KT 9999 SCT039 15/06 Q1011 NOSIG=
201212021430 METAR LMML NIL=
201212021415 METAR LMML 021415Z 27016KT 9999 SCT038 16/07 Q1011 NOSIG=
201212021400 METAR LMML NIL=
201212021345 METAR LMML 021345Z 28016KT 240V300 9999 FEW041 17/07 Q1011
                        NOSIG=
201212021330 METAR LMML NIL=
201212021315 METAR LMML 021315Z AUTO 28017G27KT CAVOK 16/06 Q1011=
201212021300 METAR LMML NIL=
201212021245 METAR LMML 021245Z AUTO 28016KT 250V310 CAVOK 17/07 Q1011=
201212021230 METAR LMML NIL=
201212021215 METAR LMML 021215Z AUTO 28017KT 250V310 CAVOK 17/07 Q1011=
201212021200 METAR LMML NIL=
201212021145 METAR LMML 021145Z 28016KT 240V300 9999 FEW037 18/08 Q1011
                        NOSIG=
201212021130 METAR LMML NIL=
201212021115 METAR LMML 021115Z 27015KT 9999 FEW036 17/08 Q1011 NOSIG=
201212021100 METAR LMML NIL=
201212021045 METAR LMML 021045Z 27015KT 230V300 9999 FEW033 17/09 Q1011
                        NOSIG=
201212021030 METAR LMML NIL=
201212021015 METAR LMML 021015Z 26012KT 9999 FEW043 18/08 Q1011 NOSIG=
201212021000 METAR LMML NIL=
201212020945 METAR LMML 020945Z 27012KT 240V310 9999 FEW040 18/07 Q1011
                        NOSIG=
201212020930 METAR LMML NIL=
201212020915 METAR LMML 020915Z 28012KT 9999 FEW040 18/07 Q1012 NOSIG=
201212020900 METAR LMML NIL=
201212020845 METAR LMML 020845Z 28010KT 9999 FEW040 17/06 Q1011 NOSIG=
201212020830 METAR LMML NIL=
201212020815 METAR LMML 020815Z 28007KT 9999 FEW040 17/08 Q1011 NOSIG=
201212020800 METAR LMML NIL=
201212020745 METAR LMML 020745Z 28005KT 9999 FEW040 16/09 Q1011 NOSIG=
201212020730 METAR LMML NIL=
201212020715 METAR LMML 020715Z 28005KT 9999 FEW044 15/09 Q1011 NOSIG=
201212020700 METAR LMML NIL=
201212020645 METAR LMML 020645Z 29005KT 9999 FEW030 14/09 Q1011 NOSIG=
201212020630 METAR LMML NIL=
201212020615 METAR LMML 020615Z 28004KT 9999 FEW030 14/10 Q1011 NOSIG=
201212020600 METAR LMML NIL=
201212020545 METAR LMML 020545Z 24003KT 9999 SCT037 15/09 Q1010 NOSIG=
201212020530 METAR LMML NIL=
201212020515 METAR LMML 020515Z 24005KT 9999 FEW025 15/09 Q1010 NOSIG=
201212020500 METAR LMML NIL=
201212020445 METAR LMML 020445Z 24005KT 9999 FEW025 14/08 Q1010 NOSIG=
201212020430 METAR LMML NIL=
201212020415 METAR LMML 020415Z 25005KT 9999 FEW025 14/09 Q1010 NOSIG=
201212020400 METAR LMML NIL=
201212020345 METAR LMML 020345Z 28003KT 230V310 9999 FEW025 13/10 Q1010
                        NOSIG=
201212020330 METAR LMML NIL=
201212020315 METAR LMML 020315Z VRB02KT 9999 FEW030 14/09 Q1010 NOSIG=
201212020300 METAR LMML NIL=
201212020245 METAR LMML 020245Z 33003KT 270V360 9999 FEW030 13/10 Q1010
                        NOSIG=
201212020230 METAR LMML NIL=
201212020215 METAR LMML 020215Z 33003KT 290V020 9999 -RA FEW033 14/09
                        Q1010=
201212020200 METAR LMML NIL=
201212020145 METAR LMML 020145Z AUTO 27003KT 9999NDV FEW033/// SCT044///
                        BKN051/// 15/09 Q1012=
201212020130 METAR LMML NIL=
201212020115 METAR LMML 020115Z AUTO 25004KT CAVOK 15/09 Q1012=
201212020100 METAR LMML NIL=
201212020045 METAR LMML 020045Z AUTO 23004KT 9999NDV -RA FEW033/// SCT037///
                        BKN047/// 15/08 Q1012=
201212020045 SPECI LMML 020045Z AUTO 23004KT 9999NDV -RA FEW033/// SCT037///
                        BKN047/// 15/08 Q1012=
201212020044 SPECI LMML 020044Z AUTO 23005KT 9999NDV RA FEW033/// SCT037///
                        BKN042/// 15/08 Q1012=
201212020030 METAR LMML NIL=
201212020015 METAR LMML 020015Z AUTO 22004KT CAVOK 14/07 Q1011=
201212012345 METAR LMML 012345Z AUTO 23005KT CAVOK 14/07 Q1011=
201212012330 METAR LMML NIL=
201212012315 METAR LMML 012315Z AUTO 20004KT CAVOK 15/06 Q1011=
201212012300 METAR LMML NIL=
201212012245 METAR LMML 012245Z AUTO 22003KT 180V240 CAVOK 15/06 Q1012=
201212012230 METAR LMML NIL=
201212012215 METAR LMML 012215Z AUTO 21004KT CAVOK 15/06 Q1012=
201212012200 METAR LMML NIL=
201212012145 METAR LMML 012145Z AUTO 22004KT 190V250 CAVOK 15/06 Q1012=
201212012130 METAR LMML NIL=
201212012115 METAR LMML 012115Z AUTO 21004KT CAVOK 14/06 Q1012=
201212012100 METAR LMML NIL=
201212012045 METAR LMML 012045Z AUTO 20006KT 9999NDV FEW048/// 15/06 Q1012=
201212012030 METAR LMML NIL=
201212012015 METAR LMML 012015Z AUTO 20004KT 170V230 9999NDV FEW048///
                        SCT054/// 14/08 Q1012=
201212012000 METAR LMML NIL=
201212011945 METAR LMML 011945Z 21004KT 9999 SCT044 14/07 Q1012 NOSIG=
201212011930 METAR LMML NIL=
201212011915 METAR LMML 011915Z VRB02KT 9999 SCT044 13/07 Q1012 NOSIG=
201212011900 METAR LMML NIL=
201212011845 METAR LMML 011845Z 27004KT 9999 BKN044 14/07 Q1012 NOSIG=
201212011830 METAR LMML NIL=
201212011815 METAR LMML 011815Z 26003KT 220V300 9999 SCT044 14/07 Q1011
                        NOSIG=
201212011800 METAR LMML NIL=
201212011745 METAR LMML 011745Z 25005KT 9999 FEW040 14/07 Q1011 NOSIG=
201212011730 METAR LMML NIL=
201212011715 METAR LMML 011715Z 25004KT 210V270 9999 FEW040 14/07 Q1011
                        NOSIG=
201212011700 METAR LMML NIL=
201212011645 METAR LMML 011645Z 25005KT 9999 FEW040 14/07 Q1011 NOSIG=
201212011630 METAR LMML NIL=
201212011615 METAR LMML 011615Z 25006KT 9999 FEW040 15/07 Q1011 NOSIG=
201212011600 METAR LMML NIL=
201212011545 METAR LMML 011545Z 26006KT 230V290 9999 FEW040 15/07 Q1011
                        NOSIG=
201212011530 METAR LMML NIL=
201212011515 METAR LMML 011515Z 26009KT 230V290 9999 FEW039 16/07 Q1011
                        NOSIG=
201212011500 METAR LMML NIL=
201212011445 METAR LMML 011445Z 26008KT 9999 FEW039 16/08 Q1011 NOSIG=
201212011430 METAR LMML NIL=
201212011415 METAR LMML 011415Z AUTO 25009KT 230V290 9999NDV FEW041///
                        SCT047/// OVC055/// 16/07 Q1010=
201212011400 METAR LMML NIL=
201212011345 METAR LMML 011345Z 25008KT 220V280 9999 SCT039 16/08 Q1010
                        NOSIG=
201212011330 METAR LMML NIL=
201212011315 METAR LMML 011315Z 25008KT 220V280 9999 SCT039 16/08 Q1010
                        NOSIG=
201212011300 METAR LMML NIL=
201212011245 METAR LMML 011245Z 22009KT 9999 SCT040 16/07 Q1010 NOSIG=
201212011230 METAR LMML NIL=
201212011215 METAR LMML 011215Z 22010G20KT 190V250 9999 FEW040 17/07 Q1010
                        NOSIG=
201212011200 METAR LMML NIL=
201212011145 METAR LMML 011145Z 22010KT 190V270 9999 FEW040 17/07 Q1010
                        NOSIG=
201212011130 METAR LMML NIL=
201212011115 METAR LMML 011115Z 23010KT 190V280 9999 FEW035 18/06 Q1011
                        NOSIG=
201212011100 METAR LMML NIL=
201212011045 METAR LMML 011045Z 22011KT 190V250 9999 FEW035 18/07 Q1011
                        NOSIG=
201212011030 METAR LMML NIL=
201212011015 METAR LMML 011015Z 22010KT 190V250 9999 FEW035 18/06 Q1011
                        NOSIG=
201212011000 METAR LMML NIL=
201212010945 METAR LMML 010945Z 24011KT 210V270 9999 FEW035 17/06 Q1011
                        NOSIG=
201212010930 METAR LMML NIL=
201212010915 METAR LMML 010915Z 23009KT 200V270 9999 FEW035 17/06 Q1011
                        NOSIG=
201212010900 METAR LMML NIL=
201212010845 METAR LMML 010845Z 23010KT 190V260 9999 FEW035 17/06 Q1011
                        NOSIG=
201212010830 METAR LMML NIL=
201212010815 METAR LMML 010815Z 24007KT 200V290 9999 FEW035 17/08 Q1011
                        NOSIG=
201212010800 METAR LMML NIL=
201212010745 METAR LMML 010745Z 25005KT 230V290 9999 BKN040 15/08 Q1010
                        NOSIG=
201212010730 METAR LMML NIL=
201212010715 METAR LMML 010715Z 26007KT 9999 BKN039 15/08 Q1010 NOSIG=
201212010700 METAR LMML NIL=
201212010645 METAR LMML 010645Z 25006KT 9999 BKN039 15/08 Q1010 NOSIG=
201212010630 METAR LMML NIL=
201212010615 METAR LMML 010615Z 24005KT 9999 BKN041 14/08 Q1010 NOSIG=
201212010600 METAR LMML NIL=
201212010545 METAR LMML 010545Z 26005KT 9999 FEW039 13/08 Q1010 NOSIG=
201212010530 METAR LMML NIL=
201212010515 METAR LMML 010515Z 29003KT 250V320 9999 SCT037 13/08 Q1009
                        NOSIG=
201212010500 METAR LMML NIL=
201212010445 METAR LMML 010445Z 28004KT 9999 FEW040 13/08 Q1009 NOSIG=
201212010430 METAR LMML NIL=
201212010415 METAR LMML 010415Z 28005KT 9999 FEW040 13/08 Q1009 NOSIG=
201212010400 METAR LMML NIL=
201212010345 METAR LMML 010345Z AUTO 28007KT 9999NDV FEW041/// 14/08 Q1009=
201212010330 METAR LMML NIL=
201212010315 METAR LMML 010315Z AUTO 26006KT CAVOK 14/07 Q1009=
201212010245 METAR LMML 010245Z AUTO 28007KT CAVOK 15/07 Q1009=
201212010215 METAR LMML 010215Z AUTO 25007KT 220V280 CAVOK 15/06 Q1008=
201212010145 METAR LMML 010145Z AUTO 25008KT 9999NDV SCT049/// 15/06 Q1009=
201212010115 METAR LMML 010115Z AUTO 24010KT CAVOK 15/05 Q1009=
201212010100 METAR LMML NIL=
201212010045 METAR LMML 010045Z AUTO 27004KT 220V310 9999NDV BKN044///
                        BKN049/// 13/08 Q1009=
201212010030 METAR LMML NIL=
201212010015 METAR LMML 010015Z AUTO 26006KT 230V300 CAVOK 14/08 Q1009=
201212010006 SPECI LMML 010006Z AUTO 28009KT 250V310 9999NDV -DZ FEW036///
                        SCT043/// OVC053/// 14/08 Q1009=
201212010004 SPECI LMML 010004Z AUTO 28010KT 9999NDV RA FEW036/// BKN043///
                        BKN049/// 14/08 Q1009=
201212010001 SPECI LMML 010001Z AUTO 28009KT 9999NDV FEW036/// BKN043///
                        OVC048/// 14/08 Q1009=
201212010000 SPECI LMML 010000Z AUTO 28009KT 9999NDV DZ FEW036/// BKN043///
                        OVC048/// 14/07 Q1009=

###################################
#  short TAF from LMML
###################################
201212281400 TAF LMML 281400Z 2815/2824 32022G32KT 9999 BKN025
                      BECMG 2820/2823 34017KT=
201212281100 TAF LMML 281100Z 2812/2821 32022G32KT 9999 SCT025=
201212280800 TAF LMML 280800Z 2809/2818 32019G29KT 9999 SCT025=
201212280500 TAF LMML 280500Z 2806/2815 32013KT 9999 SCT020=
201212280200 TAF LMML 280200Z 2803/2812 32015KT 9999 SCT015=
201212272300 TAF LMML 272300Z 2800/2809 33012KT 9999 SCT018
                      BECMG 2806/2809 30020KT=
201212272000 TAF LMML 272000Z 2721/2806 32010KT 9999 SCT012=
201212271700 TAF LMML 271700Z 2718/2803 31012KT 9999 SCT020=
201212271400 TAF LMML 271400Z 2715/2724 31012KT 9999 SCT020=
201212271100 TAF LMML 271100Z 2712/2721 30012KT 9999 SCT020 SCT043=
201212270800 TAF LMML 270800Z 2709/2718 30012KT 9999 SCT020=
201212270500 TAF LMML 270500Z 2706/2715 31012KT 9999 SCT018=
201212270200 TAF LMML 270200Z 2703/2712 32012KT 9999 SCT018
                      PROB30 2703/2706 BKN013=
201212262300 TAF LMML 262300Z 2700/2709 32010KT 9999 SCT015
                      PROB30 2700/2706 BKN013=
201212262000 TAF LMML 262000Z 2621/2706 31010KT 9999 FEW015
                      PROB30 2700/2706 BKN013=
201212261700 TAF LMML 261700Z 2618/2703 30007KT CAVOK
                      BECMG 2700/2703 BKN020=
201212261400 TAF LMML 261400Z 2615/2624 24007KT CAVOK
                      BECMG 2617/2624 32010KT=
201212261100 TAF LMML 261100Z 2612/2621 20010KT CAVOK
                      BECMG 2617/2621 31007KT=
201212260800 TAF AMD LMML 260800Z 2609/2618 21010KT CAVOK
                      BECMG 2615/2616 32010KT=
201212260500 TAF LMML 260500Z 2606/2615 20012KT CAVOK
                      BECMG 2612/2615 26010KT=
201212260200 TAF LMML 260200Z 2603/2612 20010KT CAVOK
                      PROB30 TEMPO 2603/2606 4000 MIFG FEW015=
201212252300 TAF LMML 252300Z 2600/2609 20010KT CAVOK
                      PROB30 TEMPO 2600/2606 4000 MIFG FEW015=
201212252000 TAF LMML 252000Z 2521/2606 18008KT CAVOK
                      PROB40 TEMPO 2600/2606 4000 MIFG FEW015=
201212251700 TAF LMML 251700Z 2518/2603 18008KT 9999 FEW016
                      PROB30 2600/2603 4000 MIFG=
201212251400 TAF LMML 251400Z 2515/2524 19010KT 9999 FEW016=
201212251100 TAF LMML 251100Z 2512/2521 19010KT 9999 FEW016=
201212250800 TAF LMML 250800Z 2509/2518 18010KT 9999 SCT020=
201212250500 TAF LMML 250500Z 2506/2515 18008KT 9999 SCT020=
201212250200 TAF LMML 250200Z 2503/2512 18008KT 9999 SCT020=
201212242300 TAF LMML 242300Z 2500/2509 18006KT 9999 SCT020
                      PROB30 TEMPO 2500/2506 9000 BKN015=
201212242000 TAF LMML 242000Z 2421/2506 18005KT 9999 BKN020
                      PROB30 TEMPO 2421/2506 9000 BKN015=
201212241700 TAF LMML 241700Z 2418/2503 VRB04KT 9999 SCT018 BKN025=
201212241400 TAF LMML 241400Z 2415/2424 VRB04KT 9999 SCT020 BKN025=
201212241100 TAF LMML 241100Z 2412/2421 36004KT 9999 SCT020=
201212240800 TAF LMML 240800Z 2409/2418 VRB04KT 9999 SCT020=
201212240500 TAF LMML 240500Z 2406/2415 30008KT 9999 SCT025=
201212240200 TAF LMML 240200Z 2403/2412 30008KT 9999 SCT020
                      PROB30 TEMPO 2403/2412 BKN015=
201212232300 TAF LMML 232300Z 2400/2409 31010KT 9999 BKN016=
201212232000 TAF LMML 232000Z 2321/2406 31012KT 9999 SCT020=
201212231700 TAF LMML 231700Z 2318/2403 31007KT 9999 SCT015=
201212231400 TAF LMML 231400Z 2315/2324 31007KT 9999 SCT020=
201212231100 TAF LMML 231100Z 2312/2321 33010KT 9999 SCT025=
201212230800 TAF LMML 230800Z 2309/2318 33010KT 9999 SCT025=
201212230500 TAF LMML 230500Z 2306/2315 32012KT 9999 SCT025=
201212230200 TAF LMML 230200Z 2303/2312 36012KT 9999 SCT030=
201212222300 TAF AMD LMML 222300Z 2300/2309 35012KT 9999 SCT025=
201212222000 TAF LMML 222000Z 2221/2306 36012KT 9999 SCT025=
201212221700 TAF LMML 221700Z 2218/2303 36015KT 9999 SCT020=
201212221400 TAF LMML 221400Z 2215/2224 36015KT 9999 SCT020=
201212221100 TAF LMML 221100Z 2212/2221 36015KT 9999 SCT020=
201212220800 TAF LMML 220800Z 2209/2218 33015KT 9999 SCT020
                      PROB30 TEMPO 2209/2215 8000 SHRA=
201212220500 TAF LMML 220500Z 2206/2215 32015KT 9999 SCT020
                      PROB30 TEMPO 2206/2215 32015G25KT 8000 SHRA=
201212220200 TAF LMML 220200Z 2203/2212 32015KT 9999 SCT020
                      PROB30 2203/22012 32015G25KT 8000 SHRA=
201212212300 TAF LMML 212300Z 2200/2209 32015KT 9999 SCT018
                      PROB30 TEMPO 2200/2209 31015G25KT 8000 SHRA=
201212212000 TAF LMML 212000Z 2121/2206 31015KT 9999 SCT020
                      TEMPO 2121/2206 31015G25KT 8000 SHRA=
201212211700 TAF LMML 211700Z 2118/2203 31015G25KT 9999 SCT018 BKN030
                      PROB30 TEMPO 2118/2203 8000 SHRA=
201212211400 TAF LMML 211400Z 2115/2124 30015G27KT 9999 BKN018
                      PROB30 TEMPO 2115/2124 8000 SHRA=
201212211100 TAF LMML 211100Z 2112/2121 30015G25KT 9999 BKN018
                      PROB30 TEMPO 2112/2121 8000 SHRA=
201212210800 TAF LMML 210800Z 2109/2118 27015KT 9999 SCT018 BKN035
                      PROB30 TEMPO 2109/2118 8000 SHRA=
201212210500 TAF LMML 210500Z 2106/2115 27016KT 9999 SCT020 SCT048=
201212210200 TAF LMML 210200Z 2103/2112 29013KT 9999 FEW020=
201212202300 TAF LMML 202300Z 2100/2109 29012KT 9999 SCT020 SCT048=
201212202000 TAF LMML 202000Z 2021/2106 29010KT 9999 FEW020=
201212201700 TAF LMML 201700Z 2018/2103 31012KT 9999 FEW020=
201212201400 TAF LMML 201400Z 2015/2024 31010KT 9999 FEW025=
201212201100 TAF LMML 201100Z 2012/2021 32012KT 9999 FEW020=
201212200800 TAF LMML 200800Z 2009/2018 32013KT 9999 FEW025=
201212200500 TAF LMML 200500Z 2006/2015 32012KT 9999 FEW030=
201212200200 TAF LMML 200200Z 2003/2012 33013KT 9999 FEW030=
201212192300 TAF LMML 192300Z 2000/2009 33013KT 9999 FEW030=
201212192000 TAF LMML 192000Z 1921/2006 33013KT 9999 FEW025=
201212191700 TAF LMML 191700Z 1918/2003 32013KT 9999 SCT025=
201212191400 TAF LMML 191400Z 1915/1924 31017KT 9999 SCT030=
201212191100 TAF LMML 191100Z 1912/1921 31018G30KT 9999 SCT025=
201212190800 TAF LMML 190800Z 1909/1918 32015G25KT 9999 SCT030=
201212190500 TAF LMML 190500Z 1906/1915 32015G25KT 9999 SCT030=
201212190200 TAF LMML 190200Z 1903/1912 31017G30KT 9999 SCT030=
201212182300 TAF LMML 182300Z 1900/1909 31017G30KT 9999 SCT025
                      PROB30 TEMPO 1900/1906 8000 SHRA=
201212182000 TAF LMML 182000Z 1821/1906 31024G40KT 9999 SCT030
                      PROB30 TEMPO 1821/1906 8000 SHRA=
201212181700 TAF LMML 181700Z 1818/1903 30030G43KT 9999 SCT030
                      PROB30 TEMPO 1818/1903 8000 SHRA
                      BECMG 1821/1824 29023G33KT=
201212181400 TAF LMML 181400Z 1815/1824 31025G35KT 9999 SCT030
                      BECMG 1815/1818 28030G40KT
                      PROB30 TEMPO 1815/1824 8000 SHRA=
201212181100 TAF LMML 181100Z 1812/1821 31025G35KT 9999 SCT025
                      BECMG 1812/1815 28028G40KT
                      PROB30 TEMPO 1815/1821 8000 SHRA=
201212180800 TAF LMML 180800Z 1809/1818 32022G34KT 9999 SCT030
                      BECMG 1809/1812 29027G38KT
                      PROB30 TEMPO 1815/1818 8000 SHRA=
201212180500 TAF LMML 180500Z 1806/1815 31024G37KT 9999 FEW025=
201212180200 TAF LMML 180200Z 1803/1812 30026G37KT 9999 FEW018=
201212172300 TAF LMML 172300Z 1800/1809 30020KT 9999 SCT018
                      TEMPO 1800/1809 30025G35KT
                      PROB30 TEMPO 1800/1803 8000 SHRA BKN014TCU=
201212172000 TAF LMML 172000Z 1721/1806 29022KT 9999 SCT020
                      PROB30 TEMPO 1721/1802 8000 SHRA BKN014TCU
                       TEMPO 1800/1806 30025G36KT=
201212171700 TAF LMML 171700Z 1718/1803 28015G28KT 9999 SCT018
                      PROB30 TEMPO 1718/1803 8000 SHRA BKN015TCU=
201212171400 TAF LMML 171400Z 1715/1724 30017G29KT 9999 BKN018
                      PROB40 TEMPO 1715/1724 8000 SHRA BKN015TCU=
201212171100 TAF LMML 171100Z 1712/1721 28018G29KT 9999 SCT018
                      PROB30 TEMPO 1715/1721 8000 SHRA BKN015TCU=
201212170800 TAF LMML 170800Z 1709/1718 29015G25KT 9999 SCT020
                      PROB30 TEMPO 1715/1718 8000 SHRA BKN020TCU=
201212170500 TAF LMML 170500Z 1706/1715 30017KT 9999 FEW020
                      PROB40 TEMPO 1706/1715 29017G27KT=
201212170200 TAF LMML 170200Z 1703/1712 29017KT 9999 SCT017
                      PROB40 TEMPO 1703/1706 BKN012
                      PROB40 TEMPO 1706/1712 29017G27KT=
201212162300 TAF LMML 162300Z 1700/1709 29017KT 9999 SCT017
                      PROB40 1700/1706 BKN012=
201212162000 TAF LMML 162000Z 1621/1706 29017KT 9999 SCT017
                      PROB40 1621/1706 BKN012=
201212161700 TAF LMML 161700Z 1618/1703 29015KT 9999 SCT016
                      PROB40 1621/1703 BKN012=
201212161400 TAF LMML 161400Z 1615/1624 29015KT 9999 SCT016=
201212161100 TAF LMML 161100Z 1612/1621 29015KT 9999 SCT016=
201212160800 TAF LMML 160800Z 1609/1618 28012KT 9999 FEW016=
201212160500 TAF LMML 160500Z 1606/1615 27012KT CAVOK
                      BECMG 1606/1609 9999 FEW020 BKN100
                      PROB30 TEMPO 1609/1615 9000 -RA=
201212160200 TAF LMML 160200Z 1603/1612 27009KT CAVOK
                      TEMPO 1603/1612 9999 FEW012
                      PROB30 TEMPO 1603/1612 5000 BR BKN005=
201212152300 TAF LMML 152300Z 1600/1609 28008KT CAVOK
                      TEMPO 1600/1609 9999 FEW012
                      PROB30 TEMPO 1600/1606 5000 BR BKN005=
201212152000 TAF LMML 152000Z 1521/1606 27008KT CAVOK
                      TEMPO 1521/1606 9999 FEW015
                      PROB30 TEMPO 1521/1606 8000 SCT010=
201212151700 TAF LMML 151700Z 1518/1603 28007KT 9999 SCT020=
201212151400 TAF LMML 151400Z 1515/1524 29008KT 9999 SCT014=
201212151100 TAF LMML 151100Z 1509/1518 23010KT 9999 SCT015=
201212150800 TAF LMML 150800Z 1509/1518 16005KT 9999 SCT015=
201212150500 TAF LMML 150500Z 1506/1515 16005KT 9999 FEW020=
201212150200 TAF LMML 150200Z 1503/1512 14005KT 4000 MIFG FEW020
                      BECMG 1506/1508 9999=
201212142300 TAF LMML 142300Z 1500/1509 15005KT 9999 FEW020
                      PROB30 1500/1506 8000 BKN012=
201212142000 TAF LMML 142000Z 1421/1506 16005KT 9999 FEW020
                      PROB30 1421/1506 8000 BKN012=
201212141700 TAF LMML 141700Z 1418/1503 13006KT CAVOK
                      TEMPO 1418/1503 9999 FEW015
                      PROB30 TEMPO 1420/1503 8000 SCT012=
201212141400 TAF LMML 141400Z 1415/1424 14012KT 9999 FEW025=
201212141100 TAF LMML 141100Z 1412/1421 14010KT 9999 FEW025
                      TEMPO 1412/1421 CAVOK=
201212140800 TAF LMML 140800Z 1409/1418 14008KT 9999 FEW025=
201212140500 TAF LMML 140500Z 1406/1415 13010KT 9999 FEW020=
201212140200 TAF LMML 140200Z 1403/1412 13010KT 9999 SCT020=
201212132300 TAF LMML 132300Z 1400/1409 13010KT 9999 SCT022 SCT045
                      PROB40 TEMPO 1400/1406 9000 RA=
201212132000 TAF LMML 132000Z 1321/1406 13010KT 9999 SCT022 SCT045
                      PROB30 1321/140 9000 SHRA=
201212131700 TAF LMML 131700Z 1318/1403 13010KT 9999 BKN020
                      PROB30 TEMPO 1321/1403 8000 SHRA=
201212131400 TAF LMML 131400Z 1315/1324 14010KT 9999 SCT025
                      PROB30 TEMPO 1318/1324 8000 SHRA=
201212131100 TAF LMML 131100Z 1312/1321 14008KT 9999 SCT030=
201212130800 TAF LMML 130800Z 1309/1318 15006KT 9999 SCT030=
201212130500 TAF LMML 130500Z 1306/1315 15008KT 9999 SCT030=
201212130200 TAF LMML 130200Z 1303/1312 14008KT 9999 SCT040=
201212122300 TAF LMML 122300Z 1300/1309 VRB04KT 9999 SCT030=
201212122000 TAF LMML 122000Z 1221/1306 VRB03KT 9999 SCT030=
201212121700 TAF LMML 121700Z 1218/1303 VRB04KT 9999 SCT040=
201212121400 TAF LMML 121400Z 1215/1224 34008KT 9999 FEW035 BKN045=
201212121100 TAF LMML 121100Z 1212/1221 33010KT 9999 FEW035 BKN045
                      PROB40 TEMPO 1212/1215 9000 RA=
201212120800 TAF LMML 120800Z 1209/1218 31015KT 9999 FEW030 BKN045
                      PROB30 TEMPO 1209/1215 30015G25KT 8000 RA=
201212120500 TAF LMML 120500Z 1206/1215 31015KT 9999 FEW030 SCT045
                      PROB30 TEMPO 1206/1215 30015G25KT 8000 SHRA=
201212120200 TAF LMML 120200Z 1203/1212 30013KT 9999 FEW030 SCT045
                      PROB30 TEMPO 1203/1212 28015G25KT 8000 RA=
201212111700 TAF LMML 111700Z 1118/1203 30014KT 9999 SCT035=
201212111400 TAF LMML 111400Z 1115/1124 31016KT 9999 SCT030
                      TEMPO 1115/1118 31016G27KT=
201212111100 TAF LMML 111100Z 1112/1121 31016KT 9999 SCT025 SCT040
                      TEMPO 1112/1118 31016G27KT
                      PROB30 TEMPO 1112/1115 8000 SHRA=
201212110800 TAF LMML 110800Z 1109/1118 30015G25KT 9999 SCT025
                      PROB30 TEMPO 1109/1115 8000 SHRA=
201212110500 TAF LMML 110500Z 1106/1115 29014G25KT 9999 SCT030
                      PROB30 TEMPO 1106/1115 8000 SHRA=
201212110200 TAF LMML 110200Z 1103/1112 27015G25KT 9999 SCT030
                      PROB30 TEMPO 1103/1112 8000 SHRA=
201212102300 TAF LMML 102300Z 1100/1109 27014KT 9999 SCT030
                      PROB30 TEMPO 1100/1109 8000 SHRA=
201212102000 TAF LMML 102000Z 1021/1106 27012KT 9999 SCT030
                      PROB30 TEMPO 1021/1106 8000 SHRA=
201212101700 TAF LMML 101700Z 1018/1103 27014KT 9999 SCT025
                      PROB30 TEMPO 1018/1103 26015G25KT 8000 SHRA=
201212101400 TAF LMML 101400Z 1015/1024 29015KT 9999 SCT030
                      PROB30 TEMPO 1015/1024 28015G25KT 8000 SHRA=
201212101100 TAF LMML 101100Z 1012/1021 31015KT 9999 SCT035
                      PROB30 TEMPO 1012/1021 28015G25KT 8000 SHRA
                       BECMG 1017/1020 25015KT=
201212100800 TAF LMML 100800Z 1009/1018 30017KT 9999 SCT035
                      PROB30 TEMPO 1009/1018 28017G27KT 8000 SHRA=
201212100500 TAF LMML 100500Z 1006/1015 33017G27KT 9999 SCT030 SCT045
                      BECMG 1009/1012 29017KT
                      PROB30 TEMPO 1009/1015 9000 SHRA=
201212100200 TAF LMML 100200Z 1003/1012 33017G27KT 9999 SCT025 SCT045
                      PROB30 TEMPO 1003/1012 9000 RA
                      BECMG 1008/1011 30017KT=
201212092300 TAF LMML 092300Z 1000/1009 33017G27KT 9999 SCT035 SCT048
                      PROB30 TEMPO 1000/1009 9000 RA=
201212092000 TAF LMML 092000Z 0921/1006 34016G26KT 9999 SCT035
                      PROB40 TEMPO 0921/1006 8000 SHGS BKN035TCU=
201212091700 TAF LMML 091700Z 0918/1003 34022G35KT 9999 BKN025
                      TEMPO 0918/1003 8000 SHGR
                      PROB30 TEMPO 0918/1003 5000 TSRA BKN015CB=
201212091400 TAF LMML 091400Z 0915/0924 32022G35KT 9999 SCT025
                      TEMPO 0915/0924 8000 SHGR
                      PROB30 TEMPO 0915/0924 5000 TSRA BKN015CB=
201212091100 TAF LMML 091100Z 0912/0921 32023G35KT 9999 SCT025
                      TEMPO 0912/0921 8000 SHRA
                      PROB30 TEMPO 0912/0921 5000 TSRA BKN015CB=
201212090800 TAF LMML 090800Z 0909/0918 31020G35KT 9999 SHRA SCT020
                      PROB30 TEMPO 0909/0918 5000 TSRA BKN015CB=
201212090500 TAF LMML 090500Z 0906/0915 32022G35KT 9999 SCT030
                      TEMPO 0906/0915 7000 SHRA
                      PROB30 TEMPO 0906/0915 5000 TSRA BKN015CB=
201212090200 TAF LMML 090200Z 0903/0912 30022G35KT 9999 SCT030 SCT045
                      TEMPO 0903/0912 8000 SHRA
                      PROB30 TEMPO 0903/0912 5000 TSRA BKN015CB=
201212082300 TAF LMML 082300Z 0900/0909 30022G35KT 9999 SCT030 SCT045
                      TEMPO 0900/0909 8000 SHRA
                      PROB30 TEMPO 0900/0909 5000 TSRA BKN015CB=
201212082000 TAF LMML 082000Z 0821/0906 30018G30KT 9999 SCT035
                      TEMPO 0821/0906 8000 SHRA=
201212081700 TAF LMML 081700Z 0818/0903 29020G30KT 9999 SCT015 SCT040
                      TEMPO 0818/0903 29025G40KT 8000 SHRA BKN014=
201212081400 TAF LMML 081400Z 0815/0824 29020G30KT 9999 SCT015 BKN025
                      TEMPO 0815/0824 29025G40KT 8000 SHRA
                      PROB30 TEMPO 0815/0818 5000 TSRA BKN014CB=
201212081100 TAF LMML 081100Z 0812/0821 28020G30KT 9999 SCT025 SCT045
                      TEMPO 0812/0821 8000 SHRA
                      PROB30 TEMPO 0812/0816 5000 TSRA BKN020CB=
201212080800 TAF LMML 080800Z 0809/0818 27017G27KT 9999 SCT025 SCT045
                      TEMPO 0809/0818 8000 SHRA
                      PROB30 TEMPO 0811/0816 5000 TSRA BKN020CB=
201212080500 TAF LMML 080500Z 0806/0815 25017G27KT 9999 SCT030 SCT045
                      TEMPO 0806/0815 8000 SHRA=
201212080200 TAF LMML 080200Z 0803/0812 24017G27KT 9999 SCT030 SCT045
                      TEMPO 0803/0812 8000 SHRA=
201212072300 TAF LMML 072300Z 0800/0809 24016KT 9999 SCT030
                      TEMPO 0800/0809 24016G26KT 8000 SHRA=
201212072000 TAF LMML 072000Z 0721/0806 25016KT 9999 SCT035
                      PROB40 0800/0806 8000 SHRA=
201212071700 TAF LMML 071700Z 0718/0803 29008KT 9999 SCT040
                      BECMG 0721/0723 23018G28KT
                      PROB30 0800/0803 8000 SHRA=
201212071400 TAF LMML 071400Z 0715/0724 28015KT 9999 SCT030=
201212071100 TAF LMML 071100Z 0712/0721 29014KT 9999 SCT035=
201212070800 TAF LMML 070800Z 0709/0718 30015KT 9999 SCT030=
201212070500 TAF LMML 070500Z 0706/0715 29017KT 9999 SCT035
                      PROB30 TEMPO 0706/0709 29016G26KT=
201212070200 TAF LMML 070200Z 0703/0712 29017KT 9999 SCT036
                      PROB30 TEMPO 0703/0709 29016G26KT=
201212062300 TAF LMML 062300Z 0700/0709 29017KT 9999 SCT036
                      PROB30 TEMPO 0700/0709 29016G26KT=
201212062000 TAF LMML 062000Z 0621/0706 29018KT 9999 SCT040
                      TEMPO 0621/0706 29017G27KT=
201212061700 TAF LMML 061700Z 0618/0703 30017KT 9999 SCT020
                      PROB40 TEMPO 0618/0624 30017G27KT=
201212061400 TAF LMML 061400Z 0615/0624 30018KT 9999 SCT020
                      PROB40 TEMPO 0615/0624 30018G30KT 8000 SHRA=
201212061100 TAF LMML 061100Z 0612/0621 30018KT 9999 SCT020
                      PROB40 TEMPO 0612/0621 30018G30KT 8000 SHRA=
201212060800 TAF LMML 060800Z 0609/0618 30018G30KT 9999 SCT020
                      TEMPO 0609/0618 8000 SHRA=
201212060500 TAF LMML 060500Z 0606/0615 30012G25KT 9999 SCT020
                      TEMPO 0606/0615 8000 SHRA=
201212060200 TAF LMML 060200Z 0603/0612 30012KT 9999 SCT025
                      BECMG 0606/0609 30012G25KT
                      TEMPO 0603/0612 8000 SHRA
                      PROB30 TEMPO 0603/0612 3000 TSRA BKN015CB=
201212052300 TAF LMML 052300Z 0600/0609 30014G25KT 9999 SCT020
                      TEMPO 0600/0609 8000 SHRA
                      PROB30 TEMPO 0600/0609 3000 TSRA BKN015CB=
201212052000 TAF LMML 052000Z 0521/0606 30015G28KT 9999 BKN018
                      TEMPO 0521/0606 6000 SHRA
                      PROB30 TEMPO 0521/0606 3000 TSRA BKN015CB=
201212051700 TAF LMML 051700Z 0518/0603 28017G27KT 9999 SCT030 BKN045
                      TEMPO 0518/0603 7000 RA
                      PROB30 TEMPO 0518/0603 3000 TSRA BKN025CB=
201212051400 TAF LMML 051400Z 0515/0524 27017G27KT 9999 SCT035
                      TEMPO 0515/0524 7000 SHRA SCT035TCU
                      PROB30 TEMPO 0515/0524 3000 TSRA BKN025CB=
201212051100 TAF LMML 051100Z 0512/0521 27020G30KT 9999 SCT035
                      TEMPO 0512/0521 7000 SHRA SCT035TCU
                      PROB30 TEMPO 0512/0521 3000 TSRA BKN030CB=
201212050800 TAF LMML 050800Z 0509/0518 28020G30KT 9999 SCT035
                      TEMPO 0509/0518 8000 SHRA SCT035TCU
                      PROB30 TEMPO 0509/0518 5000 TSRA BKN030CB=
201212050500 TAF LMML 050500Z 0506/0515 29015KT 9999 SCT025
                      PROB40 TEMPO 0506/0515 7000 SHRA
                      PROB30 TEMPO 0506/0515 3000 TSRA BKN015CB=
201212050200 TAF LMML 050200Z 0503/0512 29013KT 9999 SCT030
                      PROB40 TEMPO 0503/0512 8000 SHRA
                      PROB30 TEMPO 0503/0512 2000 TSRA BKN015CB=
201212042300 TAF LMML 042300Z 0500/0509 29013KT 9999 SCT025
                      PROB40 TEMPO 0500/0509 8000 SHRA
                      PROB30 TEMPO 0500/0505 5000 TSRA BKN015CB=
201212042000 TAF LMML 042000Z 0421/0506 29015G30KT 9999 SCT020
                      PROB40 TEMPO 0421/0506 8000 SHRA
                      PROB30 TEMPO 0421/0505 5000 TSRA BKN015CB=
201212041700 TAF LMML 041700Z 0418/0503 30012KT 9999 SCT025
                      PROB40 TEMPO 0418/0503 8000 SHRA
                      PROB30 TEMPO 0420/0503 5000 TSRA BKN015CB=
201212041400 TAF LMML 041400Z 0415/0424 30012KT 9999 SCT025
                      TEMPO 0415/0424 8000 SHRA
                      PROB30 TEMPO 0717/0424 5000 TSRA BKN015CB=
201212041100 TAF LMML 041100Z 0412/0421 30010KT 9999 SCT025
                      PROB30 TEMPO 0412/0421 8000 SHRA=
201212040800 TAF LMML 040800Z 0409/0418 30008KT 9999 SCT025
                      PROB30 TEMPO 0412/0418 8000 SHRA=
201212040500 TAF LMML 040500Z 0406/0415 31010KT 9999 SCT026
                      PROB40 TEMPO 0412/0415 7000 SHRA
                      PROB30 0412/0415 5000 TSRA BKN014CB=
201212040200 TAF LMML 040200Z 0403/0412 31012KT 9999 SCT026
                      PROB40 TEMPO 0409/0412 7000 SHRA
                      PROB30 0409/0412 5000 TSRA BKN014CB=
201212032300 TAF LMML 032300Z 0400/0409 33010KT 9999 SCT032=
201212032000 TAF LMML 032000Z 0321/0406 34013KT 9999 FEW040=
201212031700 TAF LMML 031700Z 0321/0403 32018G28KT 9999 SCT030
                      BECMG 0322/0401 32009KT=
201212031400 TAF LMML 031400Z 0315/0324 31020G30KT 9999 SCT025
                      TEMPO 0315/0324 5000 SHRA=
201212031100 TAF LMML 031100Z 0312/0321 31025G35KT 9999 BKN020
                      TEMPO 0312/0321 4000 SHRA=
201212030800 TAF LMML 030800Z 0309/0318 31020G35KT 9999 SCT030
                      PROB30 TEMPO 0309/0318 8000 SHRA=
201212030500 TAF LMML 030500Z 0306/0315 30016G30KT 9999 SCT030
                      PROB30 TEMPO 0306/0315 8000 SHRA=
201212030200 TAF LMML 030200Z 0303/0312 30015G30KT 9999 SHRA SCT030
                      PROB30 TEMPO 0303/0312 5000 TSRA BKN015CB=
201212022300 TAF LMML 022300Z 0300/0309 29015G28KT 9999 SCT030
                      PROB30 TEMPO 0300/0309 8000 SHRA=
201212022000 TAF LMML 022000Z 0221/0306 29015G28KT 9999 SCT030
                      PROB30 TEMPO 0321/0306 8000 SHRA=
201212021700 TAF LMML 021700Z 0218/0303 28017KT 9999 SCT035
                      BECMG 0218/0221 28018G28KT
                      TEMPO 0221/0303 28025G38KT 8000 SHRA
                      PROB30 TEMPO 0222/0302 3000 TSRA BKN020CB=
201212021400 TAF LMML 021400Z 0215/0224 27018G28KT 9999 SCT035
                      PROB30 TEMPO 0221/0224 28025G38KT 8000 SHRA=
201212021100 TAF LMML 021100Z 0212/0221 26015KT 9999 SCT040
                      BECMG 0212/0215 27020G30KT=
201212020800 TAF LMML 020800Z 0209/0218 27013KT 9999 SCT040
                      BECMG 0209/0212 27018G28KT=
201212020500 TAF LMML 020500Z 0206/0215 26008KT 9999 SCT035
                      PROB40 TEMPO 0206/0212 8000 RA
                      BECMG 0207/0210 27017G27KT=
201212020200 TAF LMML 020200Z 0203/0212 26008KT 9999 SCT035
                      TEMPO 0203/0209 9000 RA
                      PROB30 TEMPO 0203/0208 5000 TSRA BKN040CB
                       BECMG 0207/0210 27018KT=
201212012300 TAF LMML 012300Z 0200/0209 26006KT 9999 SCT035
                      PROB30 TEMPO 0200/2007 5000 TSRA BKN050CB
                       BECMG 0207/0209 27016KT=
201212012000 TAF LMML 012000Z 0121/0206 26010KT 9999 SCT040
                      PROB30 TEMPO 0200/2006 5000 TSRA BKN050CB=
201212011700 TAF LMML 011700Z 0118/0203 23012KT 9999 SCT030=
201212011400 TAF LMML 011400Z 0115/0124 22012KT 9999 SCT030=
201212011100 TAF LMML 011100Z 0112/0121 22012KT 9999 SCT030=
201212010800 TAF LMML 010800Z 0109/0118 23011KT 9999 SCT030
                      PROB30 TEMPO 0109/0115 8000 SHRA=
201212010500 TAF LMML 010500Z 0106/0115 24012KT 9999 SCT044
                      PROB30 TEMPO 0106/0109 8000 SHRA=
201212010200 TAF LMML 010200Z 0103/0112 24012KT 9999 SCT044
                      PROB30 TEMPO 0103/0107 8000 SHRA=

###################################
#  large TAF from LMML
###################################
201212281100 TAF LMML NIL=
201212280500 TAF LMML NIL=
201212272300 TAF LMML NIL=
201212271700 TAF LMML NIL=
201212271100 TAF LMML NIL=
201212270500 TAF LMML NIL=
201212262300 TAF LMML NIL=
201212261700 TAF LMML NIL=
201212261100 TAF LMML NIL=
201212260500 TAF LMML NIL=
201212252300 TAF LMML NIL=
201212251700 TAF LMML NIL=
201212251100 TAF LMML NIL=
201212250500 TAF LMML NIL=
201212242300 TAF LMML NIL=
201212241700 TAF LMML NIL=
201212241100 TAF LMML NIL=
201212240500 TAF LMML NIL=
201212232300 TAF LMML NIL=
201212231700 TAF LMML NIL=
201212231100 TAF LMML NIL=
201212230500 TAF LMML NIL=
201212222300 TAF LMML NIL=
201212221700 TAF LMML NIL=
201212221100 TAF LMML NIL=
201212220500 TAF LMML NIL=
201212212300 TAF LMML NIL=
201212211700 TAF LMML NIL=
201212211100 TAF LMML NIL=
201212210500 TAF LMML NIL=
201212202300 TAF LMML NIL=
201212201700 TAF LMML NIL=
201212201100 TAF LMML NIL=
201212200500 TAF LMML NIL=
201212192300 TAF LMML NIL=
201212191700 TAF LMML NIL=
201212191100 TAF LMML NIL=
201212190500 TAF LMML NIL=
201212182300 TAF LMML NIL=
201212181700 TAF LMML NIL=
201212181100 TAF LMML NIL=
201212180500 TAF LMML NIL=
201212172300 TAF LMML NIL=
201212171700 TAF LMML NIL=
201212171100 TAF LMML NIL=
201212170500 TAF LMML NIL=
201212162300 TAF LMML NIL=
201212161700 TAF LMML NIL=
201212161100 TAF LMML NIL=
201212160500 TAF LMML NIL=
201212152300 TAF LMML NIL=
201212151700 TAF LMML NIL=
201212151100 TAF LMML NIL=
201212150500 TAF LMML NIL=
201212142300 TAF LMML NIL=
201212141700 TAF LMML NIL=
201212141100 TAF LMML NIL=
201212140500 TAF LMML NIL=
201212132300 TAF LMML NIL=
201212131700 TAF LMML NIL=
201212131100 TAF LMML NIL=
201212130500 TAF LMML NIL=
201212122300 TAF LMML NIL=
201212121700 TAF LMML NIL=
201212121100 TAF LMML NIL=
201212120500 TAF LMML NIL=
201212111700 TAF LMML NIL=
201212111100 TAF LMML NIL=
201212110500 TAF LMML NIL=
201212102300 TAF LMML NIL=
201212101700 TAF LMML NIL=
201212101100 TAF LMML NIL=
201212100500 TAF LMML NIL=
201212092300 TAF LMML NIL=
201212091700 TAF LMML NIL=
201212091100 TAF LMML NIL=
201212090500 TAF LMML NIL=
201212082300 TAF LMML NIL=
201212081700 TAF LMML NIL=
201212081100 TAF LMML NIL=
201212080500 TAF LMML NIL=
201212072300 TAF LMML NIL=
201212071700 TAF LMML NIL=
201212071100 TAF LMML NIL=
201212070500 TAF LMML NIL=
201212062300 TAF LMML NIL=
201212061700 TAF LMML NIL=
201212061100 TAF LMML NIL=
201212060500 TAF LMML NIL=
201212052300 TAF LMML NIL=
201212051700 TAF LMML NIL=
201212051100 TAF LMML NIL=
201212050500 TAF LMML NIL=
201212042300 TAF LMML NIL=
201212041700 TAF LMML NIL=
201212041100 TAF LMML NIL=
201212040500 TAF LMML NIL=
201212032300 TAF LMML NIL=
201212031700 TAF LMML NIL=
201212031100 TAF LMML NIL=
201212030500 TAF LMML NIL=
201212022300 TAF LMML NIL=
201212021700 TAF LMML NIL=
201212021100 TAF LMML NIL=
201212020500 TAF LMML NIL=
201212012300 TAF LMML NIL=
201212011700 TAF LMML NIL=
201212011100 TAF LMML NIL=
201212010500 TAF LMML NIL=
