##########################################################
# Query made at 01/18/2013 17:04:04 UTC
# Time interval: from 12/01/2008 00:00  to 12/31/2008 23:59  UTC
##########################################################

##########################################################
# LMML, Luqa (Malta)
# WMO index: 16597
# Latitude 35-51N. Longitude 014-29E. Altitude 91 m.
##########################################################

###################################
#  METAR/SPECI from LMML
###################################
200812312345 METAR LMML 312345Z 10006KT 9999 SCT025 11/08 Q1030 NOSIG=
200812312330 METAR LMML NIL=
200812312315 METAR LMML 312315Z 10006KT 9999 FEW029 11/08 Q1030 NOSIG=
200812312300 METAR LMML NIL=
200812312245 METAR LMML 312245Z 10006KT 9999 FEW028 11/07 Q1030 NOSIG=
200812312230 METAR LMML NIL=
200812312215 METAR LMML 312215Z 10007KT 9999 FEW028 11/07 Q1030 NOSIG=
200812312145 METAR LMML 312145Z 10007KT 9999 FEW029 11/07 Q1030 NOSIG=
200812312115 METAR LMML 312115Z 09006KT 060V120 9999 FEW029 11/07 Q1030
                        NOSIG=
200812312100 METAR LMML NIL=
200812312045 METAR LMML 312045Z 09007KT 050V190 9999 FEW030 11/06 Q1030
                        NOSIG=
200812312030 METAR LMML NIL=
200812312015 METAR LMML 312015Z 09005KT 9999 FEW030 11/06 Q1030 NOSIG=
200812312000 METAR LMML NIL=
200812311945 METAR LMML 311945Z 09004KT 9999 FEW030 11/07 Q1030 NOSIG=
200812311930 METAR LMML NIL=
200812311915 METAR LMML 311915Z 09005KT 9999 FEW030 11/07 Q1030 NOSIG=
200812311900 METAR LMML NIL=
200812311845 METAR LMML 311845Z 09005KT 9999 FEW034 11/06 Q1031 NOSIG=
200812311830 METAR LMML NIL=
200812311815 METAR LMML 311815Z 09005KT 9999 FEW035 11/06 Q1031 NOSIG=
200812311800 METAR LMML NIL=
200812311745 METAR LMML 311745Z 09005KT 070V130 9999 FEW034 11/06 Q1030
                        NOSIG=
200812311730 METAR LMML NIL=
200812311715 METAR LMML 311715Z 09005KT 060V120 9999 FEW030 11/06 Q1030
                        NOSIG=
200812311700 METAR LMML NIL=
200812311645 METAR LMML 311645Z 09005KT 060V120 9999 FEW030 11/06 Q1030
                        NOSIG=
200812311630 METAR LMML NIL=
200812311615 METAR LMML 311615Z 09005KT 9999 FEW030 11/06 Q1030 NOSIG=
200812311600 METAR LMML NIL=
200812311545 METAR LMML 311545Z 09006KT 9999 FEW030 12/06 Q1030 NOSIG=
200812311530 METAR LMML NIL=
200812311515 METAR LMML 311515Z 09008KT 9999 FEW030 13/06 Q1030 NOSIG=
200812311500 METAR LMML NIL=
200812311445 METAR LMML 311445Z 10009KT 050V120 9999 FEW030 13/05 Q1030
                        NOSIG=
200812311430 METAR LMML NIL=
200812311415 METAR LMML 311415Z 10011KT 9999 FEW030 13/05 Q1030 NOSIG=
200812311400 METAR LMML NIL=
200812311345 METAR LMML 311345Z 09010KT 060V130 CAVOK 14/06 Q1030 NOSIG=
200812311330 METAR LMML NIL=
200812311315 METAR LMML 311315Z 08009KT 050V130 CAVOK 13/06 Q1030 NOSIG=
200812311300 METAR LMML NIL=
200812311245 METAR LMML 311245Z 09011KT 050V120 9999 FEW030 SCT250 13/06
                        Q1030 NOSIG=
200812311230 METAR LMML NIL=
200812311215 METAR LMML 311215Z 09011KT 060V120 9999 FEW030 SCT130 13/06
                        Q1030 NOSIG=
200812311200 METAR LMML NIL=
200812311145 METAR LMML 311145Z 09011KT 060V130 9999 FEW030 BKN130 13/07
                        Q1030 NOSIG=
200812311130 METAR LMML NIL=
200812311115 METAR LMML 311115Z 09011KT 060V120 9999 FEW030 BKN130 14/07
                        Q1030 NOSIG=
200812311100 METAR LMML NIL=
200812311045 METAR LMML 311045Z 09010KT 070V130 9999 FEW030 BKN130 13/08
                        Q1031 NOSIG=
200812311030 METAR LMML NIL=
200812311015 METAR LMML 311015Z 10013KT 9999 FEW030 BKN120 13/07 Q1031
                        NOSIG=
200812310945 METAR LMML 310945Z 10011KT 070V130 9999 FEW029 BKN130 13/07
                        Q1031 NOSIG=
200812310930 METAR LMML NIL=
200812310915 METAR LMML 310915Z 09012KT 9999 FEW029 BKN120 13/07 Q1031
                        NOSIG=
200812310900 METAR LMML NIL=
200812310845 METAR LMML 310845Z 11015KT 9999 FEW029 BKN120 13/08 Q1031
                        NOSIG=
200812310830 METAR LMML NIL=
200812310815 METAR LMML 310815Z 09013KT 9999 FEW027 BKN080 13/07 Q1031
                        NOSIG=
200812310800 METAR LMML NIL=
200812310745 METAR LMML 310745Z 10013KT 060V130 9999 FEW027 BKN080 12/08
                        Q1030 NOSIG=
200812310730 METAR LMML NIL=
200812310715 METAR LMML 310715Z 09012KT 9999 FEW025 SCT080 12/07 Q1030
                        NOSIG=
200812310700 METAR LMML NIL=
200812310645 METAR LMML 310645Z 09012KT 9999 FEW025 BKN070 12/07 Q1030
                        NOSIG=
200812310630 METAR LMML NIL=
200812310615 METAR LMML 310615Z 08013KT 9999 FEW025 BKN070 12/07 Q1030
                        NOSIG=
200812310600 METAR LMML NIL=
200812310545 METAR LMML 310545Z 08013KT 050V110 9999 FEW027 BKN080 12/07
                        Q1029 TEMPO 8000 RA=
200812310530 METAR LMML NIL=
200812310515 METAR LMML 310515Z 09012KT 060V120 9999 FEW027 BKN080 12/08
                        Q1029 TEMPO 8000 RA=
200812310500 METAR LMML NIL=
200812310445 METAR LMML 310445Z 09014KT 060V120 9999 FEW027 SCT080 BKN100
                        12/08 Q1029 NOSIG=
200812310430 METAR LMML NIL=
200812310415 METAR LMML 310415Z 09012KT 9999 SCT027 SCT100 12/08 Q1029
                        NOSIG=
200812310400 METAR LMML NIL=
200812310345 METAR LMML 310345Z 09012KT 060V120 9999 BKN027 13/08 Q1029
                        NOSIG=
200812310330 METAR LMML NIL=
200812310315 METAR LMML 310315Z 09014KT 050V120 9999 BKN025 13/09 Q1029
                        NOSIG=
200812310300 METAR LMML NIL=
200812310245 METAR LMML 310245Z 09014KT 9999 BKN024 13/09 Q1028 NOSIG=
200812310230 METAR LMML NIL=
200812310215 METAR LMML 310215Z 09014KT 060V120 9999 SCT023 SCT060 13/09
                        Q1028 NOSIG=
200812310200 METAR LMML NIL=
200812310145 METAR LMML 310145Z 09014KT 050V130 9999 SCT021 BKN060 13/09
                        Q1028 NOSIG=
200812310130 METAR LMML NIL=
200812310115 METAR LMML 310115Z 09015KT 060V120 9999 SCT021 BKN060 13/09
                        Q1028 NOSIG=
200812310100 METAR LMML NIL=
200812310045 METAR LMML 310045Z 09013KT 060V120 9999 SCT018 SCT041 BKN060
                        13/10 Q1028 NOSIG=
200812310030 METAR LMML NIL=
200812310015 METAR LMML 310015Z 09015KT 060V120 9999 SCT016 SCT032 BKN060
                        13/10 Q1028 NOSIG=
200812310000 METAR LMML NIL=
200812302345 METAR LMML 302345Z 09014KT 060V120 9000 RA SCT014 OVC038
                        13/11 Q1028 NOSIG=
200812302330 METAR LMML NIL=
200812302315 METAR LMML 302315Z 09016KT 9000 RA SCT013 OVC036 13/11 Q1028
                        NOSIG=
200812302245 METAR LMML 302245Z 09012KT 9000 RA SCT013 BKN049 13/11 Q1028
                        TEMPO 5000 RA SCT008 BKN015=
200812302230 METAR LMML NIL=
200812302215 METAR LMML 302215Z 10012KT 9000 RA SCT009 BKN042 12/11 Q1028
                        TEMPO 5000 RA SCT008 BKN015=
200812302200 METAR LMML NIL=
200812302145 METAR LMML 302145Z 09012KT 070V130 9000 RA SCT009 BKN031
                        12/11 Q1028 TEMPO 5000 RA SCT008
                        BKN015=
200812302130 METAR LMML NIL=
200812302115 METAR LMML 302115Z 08015KT 050V110 9000 RA SCT006 BKN028
                        12/11 Q1028 TEMPO 5000 RA SCT008
                        BKN015=
200812302045 METAR LMML 302045Z 08014KT 050V110 3000 RA SCT007 OVC032
                        12/11 Q1028 TEMPO 5000 RA SCT008
                        BKN015=
200812302030 METAR LMML NIL=
200812302015 METAR LMML 302015Z 07011KT 040V110 4000 RA SCT007 BKN030
                        12/12 Q1028 TEMPO 5000 RA SCT008
                        BKN015=
200812302000 METAR LMML NIL=
200812301945 METAR LMML 301945Z 08013KT 6000 RA BKN006 BKN040 12/11 Q1028
                        TEMPO 5000 RA SCT008 BKN015=
200812301930 METAR LMML NIL=
200812301915 METAR LMML 301915Z 08011KT 050V110 9000 -SHRA BKN007 BKN039
                        13/12 Q1028 TEMPO 5000 SHRA SCT008
                        BKN015=
200812301900 METAR LMML NIL=
200812301845 METAR LMML 301845Z 08012KT 050V120 9999 SHRA BKN008 BKN039
                        13/12 Q1027 TEMPO SHRA SCT008 BKN015=
200812301830 METAR LMML NIL=
200812301815 METAR LMML 301815Z 08012KT 050V110 9999 SCT010 BKN050 13/11
                        Q1027 TEMPO BKN012=
200812301800 METAR LMML NIL=
200812301745 METAR LMML 301745Z 08013KT 040V100 9999 -SHRA SCT012 BKN050
                        BKN250 13/11 Q1027 TEMPO BKN013=
200812301730 METAR LMML NIL=
200812301715 METAR LMML 301715Z 07014KT 040V100 9999 -SHRA SCT013 BKN047
                        BKN250 13/11 Q1027 TEMPO BKN013=
200812301700 METAR LMML NIL=
200812301645 METAR LMML 301645Z 07011KT 030V090 9999 SCT015 SCT045 BKN250
                        13/11 Q1026 TEMPO BKN015=
200812301630 METAR LMML NIL=
200812301615 METAR LMML 301615Z 07012KT 040V100 9999 SCT021 SCT045 SCT250
                        14/10 Q1026 TEMPO BKN015=
200812301600 METAR LMML NIL=
200812301545 METAR LMML 301545Z 07012KT 040V100 9999 SCT017 SCT046 14/10
                        Q1026 TEMPO BKN015=
200812301530 METAR LMML NIL=
200812301515 METAR LMML 301515Z 07013KT 030V100 9999 BKN020 SCT250 14/10
                        Q1026 TEMPO BKN015=
200812301500 METAR LMML NIL=
200812301445 METAR LMML 301445Z 05012KT 9999 BKN016 SCT250 14/11 Q1026
                        NOSIG=
200812301430 METAR LMML NIL=
200812301415 METAR LMML 301415Z 05012KT 020V110 9999 SCT016 SCT250 15/11
                        Q1026 NOSIG=
200812301400 METAR LMML NIL=
200812301345 METAR LMML 301345Z 05014KT 020V090 9999 SCT016 15/11 Q1026
                        NOSIG=
200812301330 METAR LMML NIL=
200812301315 METAR LMML 301315Z 05015KT 020V090 9999 BKN015 15/11 Q1026
                        NOSIG=
200812301300 LMML NIL=
200812301245 LMML 301245Z 06016KT 020V090 9999 BKN015 14/11 Q1026 NOSIG=
200812301230 METAR LMML NIL=
200812301215 METAR LMML 301215Z 05017KT 020V080 9999 BKN015 14/11 Q1026
                        NOSIG=
200812301200 METAR LMML NIL=
200812301145 METAR LMML 301145Z 05015KT 360V080 9999 BKN015 14/11 Q1026
                        NOSIG=
200812301130 METAR LMML NIL=
200812301115 METAR LMML 301115Z 04014KT 010V080 9999 BKN016 15/11 Q1026
                        NOSIG=
200812301100 METAR LMML NIL=
200812301045 METAR LMML 301045Z 05016KT 020V090 9999 BKN016 15/11 Q1027
                        TEMPO 8000 SHRA BKN012=
200812301030 METAR LMML NIL=
200812301015 METAR LMML 301015Z 05016KT 010V080 9999 BKN016 14/11 Q1027
                        TEMPO 8000 SHRA BKN012=
200812301000 METAR LMML NIL=
200812300945 METAR LMML 300945Z 05015KT 020V090 9999 BKN016 14/11 Q1027
                        TEMPO 8000 SHRA BKN012=
200812300930 METAR LMML NIL=
200812300915 METAR LMML 300915Z 04012KT 010V080 9999 BKN018 14/10 Q1027
                        TEMPO 8000 SHRA BKN012=
200812300900 METAR LMML NIL=
200812300845 METAR LMML 300845Z 05013KT 010V090 9999 BKN017 BKN120 13/10
                        Q1027 TEMPO 8000 SHRA BKN012=
200812300830 METAR LMML NIL=
200812300815 METAR LMML 300815Z 05013KT 010V080 9999 BKN016 BKN120 13/10
                        Q1027 TEMPO 8000 SHRA BKN012=
200812300800 METAR LMML NIL=
200812300745 METAR LMML 300745Z 05012KT 010V090 9999 BKN016 BKN120 13/10
                        Q1027 TEMPO 8000 SHRA BKN012=
200812300730 METAR LMML NIL=
200812300715 METAR LMML 300715Z 05013KT 010V080 9999 BKN015 BKN120 13/10
                        Q1026 TEMPO 8000 SHRA BKN012=
200812300700 METAR LMML NIL=
200812300645 METAR LMML 300645Z 04014KT 020V080 9999 BKN015 BKN120 13/10
                        Q1026 TEMPO 8000 SHRA BKN012=
200812300630 METAR LMML NIL=
200812300615 METAR LMML 300615Z 05013KT 010V080 9999 BKN015 BKN120 13/11
                        Q1026 TEMPO 8000 SHRA BKN012=
200812300600 METAR LMML NIL=
200812300545 METAR LMML 300545Z 05014KT 010V100 9999 BKN014 BKN120 13/11
                        Q1025 TEMPO 8000 SHRA BKN012=
200812300530 METAR LMML NIL=
200812300515 METAR LMML 300515Z 05013KT 020V080 9999 SCT013 BKN120 13/11
                        Q1025 TEMPO 8000 SHRA BKN012=
200812300500 METAR LMML NIL=
200812300445 METAR LMML 300445Z 05014KT 020V080 9999 SCT013 BKN120 13/11
                        Q1024 TEMPO 8000 SHRA BKN012=
200812300430 METAR LMML NIL=
200812300415 METAR LMML 300415Z 05012KT 010V080 9999 SCT015 BKN120 13/11
                        Q1024 TEMPO 8000 SHRA BKN012=
200812300400 METAR LMML NIL=
200812300345 METAR LMML 300345Z 05013KT 020V080 9999 SCT015 BKN120 13/11
                        Q1024 TEMPO 8000 SHRA BKN012=
200812300330 METAR LMML NIL=
200812300315 METAR LMML 300315Z 05012KT 020V080 9999 BKN013 BKN120 13/11
                        Q1024 TEMPO 8000 SHRA BKN012=
200812300300 METAR LMML NIL=
200812300245 METAR LMML 300245Z 05012KT 010V080 9999 BKN014 BKN120 13/11
                        Q1024 TEMPO 8000 SHRA BKN012=
200812300230 METAR LMML NIL=
200812300215 METAR LMML 300215Z 05013KT 020V080 9999 SCT014 BKN120 13/11
                        Q1024 TEMPO 8000 SHRA BKN012=
200812300200 METAR LMML NIL=
200812300145 METAR LMML 300145Z 05013KT 020V090 9999 SCT014 BKN120 13/11
                        Q1024 TEMPO 8000 SHRA BKN012=
200812300130 METAR LMML NIL=
200812300115 METAR LMML 300115Z 05012KT 020V080 9999 SCT013 BKN120 14/11
                        Q1024 TEMPO 8000 SHRA BKN012=
200812300100 METAR LMML NIL=
200812300045 LMML 300045Z 06013KT 030V090 9999 SCT013 BKN120 14/12 Q1023
                        TEMPO 8000 SHRA BKN012=
200812300015 METAR LMML 300015Z 05010KT 010V090 9999 SCT015 BKN120 14/11
                        Q1023 TEMPO 8000 SHRA BKN012=
200812300000 METAR LMML NIL=
200812292345 METAR LMML 292345Z 05009KT 030V090 9999 SCT015 BKN120 14/11
                        Q1023 TEMPO 8000 SHRA BKN012=
200812292330 METAR LMML NIL=
200812292315 METAR LMML 292315Z 06010KT 020V090 9999 SCT013 BKN120 14/12
                        Q1023 TEMPO 8000 SHRA BKN012=
200812292300 METAR LMML NIL=
200812292245 METAR LMML 292245Z 07009KT 9999 SCT013 BKN100 14/12 Q1023
                        TEMPO 8000 SHRA BKN012=
200812292215 METAR LMML 292215Z 06007KT 020V100 9999 SCT013 BKN120 14/12
                        Q1023 TEMPO 8000 SHRA BKN012=
200812292200 METAR LMML NIL=
200812292145 METAR LMML 292145Z 07006KT 040V110 9999 SCT013 BKN130 14/12
                        Q1023 TEMPO 8000 SHRA BKN012=
200812292115 METAR LMML 292115Z 07007KT 040V100 9999 -RA SCT013 BKN130
                        14/12 Q1023 NOSIG=
200812292100 METAR LMML NIL=
200812292045 METAR LMML 292045Z 06007KT 030V090 9999 SCT013 BKN130 14/12
                        Q1023 NOSIG=
200812292030 METAR LMML NIL=
200812292015 METAR LMML 292015Z 06006KT 010V090 9999 -RA FEW012 BKN090
                        14/12 Q1023 NOSIG=
200812291945 METAR LMML 291945Z 06006KT 010V090 9999 -RA FEW012 BKN080
                        14/12 Q1023 NOSIG=
200812291930 METAR LMML NIL=
200812291915 METAR LMML 291915Z 06007KT 020V090 9999 FEW012 BKN090 14/12
                        Q1023 NOSIG=
200812291900 LMML NIL=
200812291845 LMML 291845Z 06008KT 030V090 9999 FEW011 BKN090 14/12 Q1022
                        NOSIG=
200812291830 METAR LMML NIL=
200812291815 METAR LMML 291815Z 06006KT 010V100 9999 SCT024 BKN090 14/12
                        Q1022 NOSIG=
200812291800 METAR LMML NIL=
200812291745 METAR LMML 291745Z 06008KT 030V090 9999 SCT022 SCT090 BKN130
                        14/12 Q1022 TEMPO 8000 SHRA SCT006
                        BKN015=
200812291730 METAR LMML NIL=
200812291715 METAR LMML 291715Z 06008KT 010V090 9999 FEW012 SCT021 BKN130
                        14/12 Q1021 TEMPO 8000 SHRA SCT006
                        BKN015=
200812291700 METAR LMML NIL=
200812291645 METAR LMML 291645Z 06008KT 020V100 9999 FEW009 SCT021 BKN130
                        14/13 Q1021 TEMPO 8000 SHRA SCT006
                        BKN015=
200812291630 METAR LMML NIL=
200812291615 METAR LMML 291615Z 07008KT 030V110 9999 -RA SCT009 BKN018
                        BKN140 14/13 Q1021 TEMPO 8000 SHRA
                        BKN015=
200812291600 METAR LMML NIL=
200812291545 METAR LMML 291545Z 07009KT 040V100 9999 -RA SCT008 SCT023
                        BKN140 15/14 Q1021 TEMPO 8000 SHRA
                        BKN015=
200812291530 METAR LMML NIL=
200812291515 METAR LMML 291515Z 07009KT 040V100 9999 SCT007 SCT017 BKN140
                        15/14 Q1021 TEMPO 8000 SHRA BKN015=
200812291500 METAR LMML NIL=
200812291445 METAR LMML 291445Z 07008KT 030V110 9999 FEW009 SCT021 BKN140
                        16/14 Q1020 NOSIG=
200812291430 METAR LMML NIL=
200812291415 METAR LMML 291415Z 09008KT 060V130 9999 SCT023 SCT100 BKN140
                        16/14 Q1020 NOSIG=
200812291400 METAR LMML NIL=
200812291345 METAR LMML 291345Z 09008KT 060V130 9999 SCT025 SCT120 BKN140
                        16/14 Q1020 NOSIG=
200812291330 METAR LMML NIL=
200812291315 METAR LMML 291315Z 09008KT 060V120 9999 SCT024 SCT140 BKN250
                        16/14 Q1020 NOSIG=
200812291300 METAR LMML NIL=
200812291245 METAR LMML 291245Z 09008KT 050V120 9999 BKN025 BKN250 16/14
                        Q1020 NOSIG=
200812291230 METAR LMML NIL=
200812291215 METAR LMML 291215Z 10008KT 9999 FEW015 SCT026 BKN250 17/14
                        Q1020 NOSIG=
200812291200 METAR LMML NIL=
200812291145 METAR LMML 291145Z 10009KT 080V140 9999 FEW024 BKN250 17/14
                        Q1020 NOSIG=
200812291130 METAR LMML NIL=
200812291115 METAR LMML 291115Z 10008KT 070V140 9999 FEW024 BKN250 17/14
                        Q1020 NOSIG=
200812291100 METAR LMML NIL=
200812291045 METAR LMML 291045Z 10008KT 9999 FEW024 BKN250 17/13 Q1020
                        NOSIG=
200812291030 METAR LMML NIL=
200812291015 METAR LMML 291015Z 10007KT 070V130 9999 FEW012 SCT120 BKN250
                        17/14 Q1020 NOSIG=
200812291000 METAR LMML NIL=
200812290945 METAR LMML 290945Z 10007KT 9999 FEW020 BKN110 16/14 Q1020
                        NOSIG=
200812290930 METAR LMML NIL=
200812290915 METAR LMML 290915Z 07006KT 030V110 9999 -RA FEW020 BKN110
                        BKN250 16/13 Q1020 TEMPO 5000 RA=
200812290900 METAR LMML NIL=
200812290845 METAR LMML 290845Z 14005KT 9999 FEW020 BKN120 BKN250 16/13
                        Q1020 TEMPO 5000 RA=
200812290830 METAR LMML NIL=
200812290815 METAR LMML 290815Z 13005KT 100V200 9999 FEW020 BKN120 BKN250
                        15/14 Q1020 TEMPO 5000 RA=
200812290800 METAR LMML NIL=
200812290745 METAR LMML 290745Z VRB02KT 9999 FEW020 BKN120 BKN250 15/13
                        Q1019 TEMPO 5000 RA=
200812290730 METAR LMML NIL=
200812290715 METAR LMML 290715Z VRB03KT 9999 FEW020 BKN120 BKN250 14/12
                        Q1019 RETS TEMPO 5000 RA=
200812290700 METAR LMML NIL=
200812290645 METAR LMML 290645Z VRB03KT 9999 FEW020 BKN120 13/11 Q1019
                        RETS TEMPO 5000 RA=
200812290630 METAR LMML NIL=
200812290615 METAR LMML 290615Z VRB03KT 9999 TS SCT020CB BKN120 13/11
                        Q1019 TEMPO TSRA BKN015CB=
200812290600 METAR LMML NIL=
200812290545 METAR LMML 290545Z VRB01KT 9999 FEW040 SCT100 14/11 Q1019
                        NOSIG RMK LIGHTNING TO ENE=
200812290530 METAR LMML NIL=
200812290515 METAR LMML 290515Z VRB03KT 9999 FEW040 SCT100 14/11 Q1018
                        NOSIG=
200812290500 METAR LMML NIL=
200812290445 METAR LMML 290445Z VRB03KT 9999 FEW040 BKN090 15/11 Q1018
                        NOSIG=
200812290430 METAR LMML NIL=
200812290415 METAR LMML 290415Z 13004KT 9999 FEW040 BKN080 14/11 Q1018
                        NOSIG=
200812290400 METAR LMML NIL=
200812290345 METAR LMML 290345Z VRB02KT 9999 FEW040 BKN080 15/11 Q1018
                        NOSIG RMK LIGHTNING TO NE=
200812290315 METAR LMML 290315Z 18004KT 9999 FEW040 BKN080 15/12 Q1018
                        NOSIG=
200812290300 METAR LMML NIL=
200812290245 METAR LMML 290245Z 18004KT 150V210 9999 FEW040 BKN100 15/11
                        Q1018 NOSIG RMK LIGHNTING TO NE=
200812290230 METAR LMML NIL=
200812290215 METAR LMML 290215Z 17004KT 9999 FEW040 BKN100 15/11 Q1018
                        NOSIG RMK LIGHTNING TO N=
200812290200 METAR LMML NIL=
200812290145 METAR LMML 290145Z 17004KT 9999 FEW030 BKN110 14/11 Q1018
                        NOSIG RMK LIGHTNING TO NORTH=
200812290130 METAR LMML NIL=
200812290115 METAR LMML 290115Z 18004KT 9999 FEW030 BKN130 15/10 Q1018
                        NOSIG=
200812290100 METAR LMML NIL=
200812290045 METAR LMML 290045Z VRB03KT 9999 FEW030 BKN120 15/11 Q1018
                        NOSIG=
200812290030 METAR LMML NIL=
200812290015 METAR LMML 290015Z 18005KT 150V220 9999 FEW030 BKN090 15/11
                        Q1018 NOSIG=
200812290000 METAR LMML NIL=
200812282345 METAR LMML 282345Z 18007KT 150V220 9999 FEW030 BKN090 16/11
                        Q1018 NOSIG=
200812282330 METAR LMML NIL=
200812282315 METAR LMML 282315Z 18008KT 9999 FEW030 BKN090 16/10 Q1018
                        NOSIG=
200812282300 METAR LMML NIL=
200812282245 METAR LMML 282245Z 18005KT 150V210 9999 FEW030 BKN090 15/11
                        Q1018 NOSIG=
200812282230 METAR LMML NIL=
200812282215 METAR LMML 282215Z 18005KT 160V220 9999 FEW030 BKN090 15/10
                        Q1018 NOSIG=
200812282200 METAR LMML NIL=
200812282145 METAR LMML 282145Z 19004KT 160V230 9999 FEW030 BKN110 15/10
                        Q1018 NOSIG=
200812282130 METAR LMML NIL=
200812282115 METAR LMML 282115Z 18004KT 150V210 9999 FEW030 BKN110 15/10
                        Q1018 NOSIG=
200812282100 METAR LMML NIL=
200812282045 METAR LMML 282045Z VRB03KT 9999 SCT030 BKN120 15/10 Q1018
                        NOSIG=
200812282030 METAR LMML NIL=
200812282015 METAR LMML 282015Z VRB03KT 9999 SCT032 BKN100 15/10 Q1019
                        NOSIG=
200812282000 METAR LMML NIL=
200812281945 METAR LMML 281945Z VRB03KT 9999 SCT032 BKN110 15/10 Q1019
                        NOSIG=
200812281930 METAR LMML NIL=
200812281915 METAR LMML 281915Z VRB03KT 9999 SCT035 BKN110 15/09 Q1018
                        NOSIG=
200812281900 METAR LMML NIL=
200812281845 METAR LMML 281845Z VRB02KT 9999 FEW035 SCT080 BKN250 14/09
                        Q1018 NOSIG=
200812281830 METAR LMML NIL=
200812281815 METAR LMML 281815Z VRB03KT 9999 FEW034 SCT080 BKN250 14/09
                        Q1018 NOSIG=
200812281800 METAR LMML NIL=
200812281745 METAR LMML 281745Z VRB03KT 9999 FEW033 SCT060 BKN250 14/10
                        Q1018 NOSIG=
200812281730 METAR LMML NIL=
200812281715 METAR LMML 281715Z VRB02KT 9999 FEW030 SCT060 BKN250 14/09
                        Q1017 NOSIG=
200812281700 METAR LMML NIL=
200812281645 METAR LMML 281645Z VRB03KT 9999 FEW030 SCT060 BKN250 14/09
                        Q1017 NOSIG=
200812281615 METAR LMML 281615Z VRB03KT 9999 FEW030 SCT070 BKN250 15/09
                        Q1017 NOSIG=
200812281600 METAR LMML NIL=
200812281545 METAR LMML 281545Z VRB02KT 9999 FEW030 SCT070 BKN250 15/10
                        Q1017 NOSIG=
200812281530 METAR LMML NIL=
200812281515 METAR LMML 281515Z VRB03KT 9999 FEW032 SCT070 BKN250 15/10
                        Q1017 NOSIG=
200812281500 METAR LMML NIL=
200812281445 METAR LMML 281445Z 19004KT 170V230 9999 FEW032 SCT070 BKN250
                        16/10 Q1017 NOSIG=
200812281430 METAR LMML NIL=
200812281415 METAR LMML 281415Z 19004KT 160V230 9999 FEW032 BKN250 17/10
                        Q1017 NOSIG=
200812281345 METAR LMML 281345Z 20004KT 160V290 9999 FEW032 SCT250 17/10
                        Q1016 NOSIG=
200812281330 METAR LMML NIL=
200812281315 METAR LMML 281315Z 22005KT 170V270 9999 FEW032 SCT250 17/10
                        Q1017 NOSIG=
200812281300 METAR LMML NIL=
200812281245 METAR LMML 281245Z 22005KT 130V280 9999 SCT032 SCT250 17/10
                        Q1017 NOSIG=
200812281230 METAR LMML NIL=
200812281215 METAR LMML 281215Z 23006KT 190V290 9999 SCT036 SCT250 17/10
                        Q1017 NOSIG=
200812281200 METAR LMML NIL=
200812281145 METAR LMML 281145Z 24005KT 180V290 9999 FEW035 BKN250 17/09
                        Q1017 NOSIG=
200812281130 METAR LMML NIL=
200812281115 METAR LMML 281115Z 23005KT 200V280 9999 FEW037 SCT250 17/09
                        Q1017 NOSIG=
200812281100 METAR LMML NIL=
200812281045 METAR LMML 281045Z 23006KT 200V280 9999 FEW035 SCT250 17/09
                        Q1017 NOSIG=
200812281030 METAR LMML NIL=
200812281015 METAR LMML 281015Z 24006KT 190V290 9999 FEW037 SCT250 17/10
                        Q1018 NOSIG=
200812281000 METAR LMML NIL=
200812280945 METAR LMML 280945Z VRB01KT 9999 SCT036 SCT250 16/10 Q1018
                        NOSIG=
200812280930 METAR LMML NIL=
200812280915 METAR LMML 280915Z VRB02KT 9999 SCT039 SCT250 16/10 Q1018
                        NOSIG=
200812280900 METAR LMML NIL=
200812280845 METAR LMML 280845Z VRB01KT 9999 SCT036 SCT250 15/12 Q1018
                        NOSIG=
200812280830 METAR LMML NIL=
200812280815 METAR LMML 280815Z 00000KT 9999 BKN036 SCT250 14/12 Q1017
                        NOSIG=
200812280800 METAR LMML NIL=
200812280745 METAR LMML 280745Z VRB01KT 9999 FEW030 SCT250 13/11 Q1017
                        NOSIG=
200812280730 METAR LMML NIL=
200812280715 METAR LMML 280715Z VRB02KT 9999 FEW030 BKN250 11/10 Q1017
                        NOSIG=
200812280700 METAR LMML NIL=
200812280645 METAR LMML 280645Z VRB01KT 9999 FEW030 SCT250 11/09 Q1017
                        NOSIG=
200812280630 METAR LMML NIL=
200812280615 METAR LMML 280615Z VRB02KT 9999 FEW030 BKN070 12/09 Q1017
                        NOSIG=
200812280600 METAR LMML NIL=
200812280545 METAR LMML 280545Z VRB02KT 9999 -RA FEW029 BKN060 12/09 Q1017
                        NOSIG=
200812280530 METAR LMML NIL=
200812280515 METAR LMML 280515Z VRB02KT 9999 SCT031 BKN060 13/09 Q1016
                        NOSIG=
200812280500 METAR LMML NIL=
200812280445 METAR LMML 280445Z 22005KT 190V250 9999 -RA SCT037 BKN062
                        12/08 Q1016 NOSIG=
200812280430 METAR LMML NIL=
200812280415 METAR LMML 280415Z 29007KT 9999 FEW029 BKN070 12/09 Q1016
                        NOSIG=
200812280400 METAR LMML NIL=
200812280345 METAR LMML 280345Z 23004KT 9999 FEW028 BKN080 13/09 Q1016
                        NOSIG=
200812280330 METAR LMML NIL=
200812280315 METAR LMML 280315Z 23004KT 9999 FEW030 12/09 Q1016 NOSIG=
200812280300 METAR LMML NIL=
200812280245 METAR LMML 280245Z VRB03KT 9999 FEW030 11/08 Q1016 NOSIG=
200812280230 METAR LMML NIL=
200812280215 METAR LMML 280215Z VRB03KT 9999 FEW030 12/09 Q1017 NOSIG=
200812280200 METAR LMML NIL=
200812280145 METAR LMML 280145Z 23004KT 9999 FEW030 11/10 Q1017 NOSIG=
200812280130 METAR LMML NIL=
200812280115 METAR LMML 280115Z VRB03KT 9999 FEW032 12/10 Q1017 NOSIG=
200812280100 METAR LMML NIL=
200812280045 METAR LMML 280045Z VRB03KT 9999 FEW025 SCT070 11/10 Q1017
                        NOSIG=
200812280030 METAR LMML NIL=
200812280015 METAR LMML 280015Z VRB02KT 9999 FEW030 SCT070 11/09 Q1017
                        NOSIG=
200812280000 METAR LMML NIL=
200812272345 METAR LMML 272345Z 16004KT 9999 FEW030 BKN070 12/10 Q1017
                        NOSIG=
200812272330 METAR LMML NIL=
200812272315 METAR LMML 272315Z VRB03KT 9999 FEW020 SCT070 11/09 Q1017
                        TEMPO 8000 SHRA SCT015TCU=
200812272300 METAR LMML NIL=
200812272245 METAR LMML 272245Z VRB03KT 9999 FEW021 11/10 Q1018 TEMPO
                        8000 SHRA SCT015TCU=
200812272230 METAR LMML NIL=
200812272215 METAR LMML 272215Z VRB02KT 9999 FEW021 10/10 Q1018 TEMPO
                        8000 SHRA SCT015TCU=
200812272200 METAR LMML NIL=
200812272145 METAR LMML 272145Z VRB01KT 9999 FEW021 11/10 Q1018 NOSIG=
200812272130 METAR LMML NIL=
200812272115 METAR LMML 272115Z VRB01KT 9999 FEW021 11/10 Q1018 NOSIG=
200812272100 METAR LMML NIL=
200812272045 METAR LMML 272045Z VRB03KT 9999 FEW021 BKN070 12/10 Q1018
                        NOSIG=
200812272030 METAR LMML NIL=
200812272015 METAR LMML 272015Z 11004KT 9999 FEW021 SCT070 11/10 Q1018
                        NOSIG=
200812272000 METAR LMML NIL=
200812271945 METAR LMML 271945Z 08004KT 9999 FEW021 SCT070 11/10 Q1018
                        NOSIG=
200812271930 METAR LMML NIL=
200812271915 METAR LMML 271915Z 13004KT 070V160 9999 FEW021 BKN070 12/11
                        Q1018 NOSIG=
200812271900 METAR LMML NIL=
200812271845 METAR LMML 271845Z 13004KT 100V160 9999 FEW021 BKN070 12/10
                        Q1017 NOSIG=
200812271830 METAR LMML NIL=
200812271815 METAR LMML 271815Z VRB03KT 9999 -SHRA FEW010 SCT016 BKN050
                        13/11 Q1017 NOSIG=
200812271800 METAR LMML NIL=
200812271745 METAR LMML 271745Z VRB03KT 9999 -SHRA BKN016 SCT054 14/12
                        Q1017 NOSIG=
200812271730 METAR LMML NIL=
200812271715 METAR LMML 271715Z VRB03KT 9999 SCT018 BKN058 14/12 Q1017
                        NOSIG=
200812271700 METAR LMML NIL=
200812271645 METAR LMML 271645Z 09004KT 030V110 9999 SCT016 BKN049 14/11
                        Q1017 NOSIG=
200812271630 METAR LMML NIL=
200812271615 METAR LMML 271615Z 08004KT 050V240 9999 SCT019 BKN047 14/11
                        Q1017 NOSIG=
200812271600 METAR LMML NIL=
200812271545 METAR LMML 271545Z 10005KT 9999 SCT016 SCT053 14/11 Q1017
                        NOSIG=
200812271530 METAR LMML NIL=
200812271515 METAR LMML 271515Z 08005KT 050V120 9999 SCT018 SCT110 15/11
                        Q1017 NOSIG=
200812271500 METAR LMML NIL=
200812271445 METAR LMML 271445Z 08006KT 9999 FEW028 SCT110 15/11 Q1017
                        NOSIG=
200812271430 METAR LMML NIL=
200812271415 METAR LMML 271415Z 08007KT 050V110 9999 FEW018 14/11 Q1017
                        NOSIG=
200812271400 METAR LMML NIL=
200812271345 METAR LMML 271345Z 08007KT 9999 FEW017 15/11 Q1016 NOSIG=
200812271330 METAR LMML NIL=
200812271315 METAR LMML 271315Z 07008KT 020V100 9999 FEW017 SCT110 15/11
                        Q1016 NOSIG=
200812271300 METAR LMML NIL=
200812271245 METAR LMML 271245Z 08008KT 030V110 9999 FEW021 SCT110 15/10
                        Q1016 NOSIG=
200812271230 METAR LMML NIL=
200812271215 METAR LMML 271215Z 05007KT 020V080 9999 FEW016 SCT110 15/11
                        Q1017 NOSIG=
200812271200 METAR LMML NIL=
200812271145 METAR LMML 271145Z 04005KT 360V080 9999 SCT021 SCT110 15/11
                        Q1017 NOSIG=
200812271130 METAR LMML NIL=
200812271115 METAR LMML 271115Z 05005KT 010V090 9999 SCT025 SCT110 16/11
                        Q1017 NOSIG=
200812271100 METAR LMML NIL=
200812271045 METAR LMML 271045Z 04005KT 360V080 9999 SCT025 SCT110 15/11
                        Q1017 NOSIG=
200812271030 METAR LMML NIL=
200812271015 METAR LMML 271015Z 05004KT 010V080 9999 SCT025 SCT090 16/12
                        Q1018 NOSIG=
200812271000 METAR LMML NIL=
200812270945 METAR LMML 270945Z 05006KT 020V090 9999 SCT025 BKN090 15/11
                        Q1018 NOSIG=
200812270930 METAR LMML NIL=
200812270915 METAR LMML 270915Z 04007KT 010V080 9999 SCT025 BKN090 13/11
                        Q1018 NOSIG=
200812270900 METAR LMML NIL=
200812270845 METAR LMML 270845Z 02005KT 290V070 9999 SCT025TCU BKN110
                        13/11 Q1018 RETS NOSIG=
200812270830 METAR LMML NIL=
200812270815 METAR LMML 270815Z 04004KT 360V090 9999 SCT025TCU BKN110
                        12/10 Q1018 RETS NOSIG=
200812270800 METAR LMML NIL=
200812270745 METAR LMML 270745Z 36007KT 320V070 9000 TS FEW012 SCT039
                        BKN110 11/10 Q1017 BECMG SCT015=
200812270730 METAR LMML NIL=
200812270715 METAR LMML 270715Z 22004KT 140V290 6000 TSRA BKN018CB 13/12
                        Q1017 BECMG 9999 TS SCT015CB=
200812270700 METAR LMML NIL=
200812270645 METAR LMML 270645Z 08004KT 9000 TSRA SCT018CB SCT029 BKN120
                        13/12 Q1016 TEMPO 4000 TSRA BKN014CB=
200812270630 METAR LMML NIL=
200812270615 METAR LMML 270615Z VRB03KT 9999 TS SCT018CB SCT025 BKN120
                        13/12 Q1016 TEMPO 4000 SHRA BKN014CB=
200812270600 METAR LMML NIL=
200812270545 METAR LMML 270545Z VRB03KT 9999 SCT034 SCT120 11/10 Q1016
                        TEMPO 5000 SHRA BKN014TCU RMK CB
                        TOP TO WEST=
200812270530 METAR LMML NIL=
200812270515 METAR LMML 270515Z VRB01KT 9999 FEW014 SCT120 11/11 Q1015
                        TEMPO 5000 SHRA BKN014TCU=
200812270500 METAR LMML NIL=
200812270445 METAR LMML 270445Z VRB01KT 9999 FEW012 12/11 Q1015 TEMPO
                        5000 SHRA BKN014TCU=
200812270430 METAR LMML NIL=
200812270415 METAR LMML 270415Z VRB01KT 9999 SCT012TCU 14/12 Q1015 TEMPO
                        5000 SHRA BKN014TCU=
200812270400 METAR LMML NIL=
200812270345 LMML 270345Z 09004KT 060V120 9999 FEW009 SCT014 13/12 Q1015
                        TEMPO 5000 SHRA BKN014TCU=
200812270330 METAR LMML NIL=
200812270315 METAR LMML 270315Z VRB03KT 9999 FEW009 SCT013TCU 13/12 Q1015
                        TEMPO 5000 RA BKN014=
200812270300 METAR LMML NIL=
200812270245 METAR LMML 270245Z VRB03KT 9999 -SHRA FEW011 SCT013TCU 13/12
                        Q1015 TEMPO 5000 RA BKN014=
200812270230 LMML NIL=
200812270215 LMML 270215Z 08005KT 050V110 9999 -RA FEW012 BKN120 14/12
                        Q1016 TEMPO 5000 RA BKN014=
200812270200 METAR LMML NIL=
200812270145 METAR LMML 270145Z 17004KT 140V200 6000 RA FEW011 BKN049
                        13/12 Q1016 TEMPO 5000 RA BKN014=
200812270130 METAR LMML NIL=
200812270115 METAR LMML 270115Z 07004KT 6000 RA FEW014 BKN120 13/12 Q1016
                        NOSIG=
200812270100 METAR LMML NIL=
200812270045 METAR LMML 270045Z 07004KT 9999 SCT016 BKN120 12/11 Q1016
                        NOSIG=
200812270030 METAR LMML NIL=
200812270015 METAR LMML 270015Z VRB02KT 9999 SCT017 11/10 Q1016 NOSIG=
200812270000 METAR LMML NIL=
200812262345 METAR LMML 262345Z VRB02KT 9999 FEW016 SCT120 11/10 Q1016
                        NOSIG=
200812262330 METAR LMML NIL=
200812262315 METAR LMML 262315Z VRB01KT 9999 FEW016 11/10 Q1016 NOSIG=
200812262300 METAR LMML NIL=
200812262245 METAR LMML 262245Z VRB01KT 9999 FEW016 12/11 Q1016 NOSIG=
200812262230 METAR LMML NIL=
200812262215 METAR LMML 262215Z 10004KT 060V120 CAVOK 12/11 Q1016 NOSIG=
200812262200 METAR LMML NIL=
200812262145 METAR LMML 262145Z 10004KT CAVOK 12/11 Q1016 NOSIG=
200812262130 METAR LMML NIL=
200812262115 METAR LMML 262115Z 11004KT CAVOK 12/11 Q1016 NOSIG=
200812262100 METAR LMML NIL=
200812262045 METAR LMML 262045Z 10004KT 060V120 9999 FEW016 SCT120 13/11
                        Q1016 NOSIG=
200812262030 METAR LMML NIL=
200812262015 METAR LMML 262015Z 10004KT 9999 FEW016 BKN120 14/12 Q1017
                        NOSIG=
200812262000 METAR LMML NIL=
200812261945 METAR LMML 261945Z 10004KT 9999 FEW016 BKN120 13/12 Q1016
                        NOSIG=
200812261930 METAR LMML NIL=
200812261915 METAR LMML 261915Z 10004KT 070V130 9999 FEW016 BKN120 14/12
                        Q1016 NOSIG=
200812261900 METAR LMML NIL=
200812261845 METAR LMML 261845Z 09004KT 9999 SCT017 BKN120 13/10 Q1016
                        NOSIG=
200812261830 METAR LMML NIL=
200812261815 METAR LMML 261815Z 10004KT 9999 FEW018 BKN120 13/10 Q1016
                        NOSIG=
200812261800 METAR LMML NIL=
200812261745 METAR LMML 261745Z 09004KT 9999 FEW018 BKN120 13/11 Q1016
                        NOSIG=
200812261730 METAR LMML NIL=
200812261715 METAR LMML 261715Z 10005KT 9999 FEW018 BKN120 13/11 Q1016
                        NOSIG=
200812261700 METAR LMML NIL=
200812261645 METAR LMML 261645Z 10004KT 080V220 9999 FEW018 BKN120 14/11
                        Q1015 NOSIG=
200812261630 METAR LMML NIL=
200812261615 METAR LMML 261615Z VRB03KT 9999 FEW030 BKN120 14/10 Q1015
                        NOSIG=
200812261600 METAR LMML NIL=
200812261545 METAR LMML 261545Z 09004KT 010V150 9999 FEW030 BKN120 14/10
                        Q1015 NOSIG=
200812261530 METAR LMML NIL=
200812261515 METAR LMML 261515Z 08007KT 9999 FEW030 BKN120 15/09 Q1015
                        NOSIG=
200812261500 METAR LMML NIL=
200812261445 METAR LMML 261445Z 07006KT 040V100 9999 FEW030 BKN120 16/10
                        Q1015 NOSIG=
200812261430 METAR LMML NIL=
200812261415 METAR LMML 261415Z 08005KT 050V120 9999 FEW030 BKN120 17/10
                        Q1015 NOSIG=
200812261400 METAR LMML NIL=
200812261345 METAR LMML 261345Z 09005KT 040V110 9999 FEW030 BKN120 16/10
                        Q1015 NOSIG=
200812261330 METAR LMML NIL=
200812261315 METAR LMML 261315Z 08005KT 040V100 9999 FEW030 BKN120 16/10
                        Q1015 NOSIG=
200812261300 METAR LMML NIL=
200812261245 METAR LMML 261245Z VRB03KT 9999 FEW032 SCT070 16/10 Q1015
                        NOSIG=
200812261230 METAR LMML NIL=
200812261215 METAR LMML 261215Z VRB02KT 9999 SCT032 SCT250 16/10 Q1015
                        NOSIG=
200812261200 METAR LMML NIL=
200812261145 METAR LMML 261145Z VRB03KT 9999 FEW030 SCT070 16/10 Q1015
                        NOSIG=
200812261130 METAR LMML NIL=
200812261115 METAR LMML 261115Z VRB03KT 9999 FEW029 SCT042 BKN250 15/10
                        Q1015 NOSIG=
200812261100 METAR LMML NIL=
200812261045 METAR LMML 261045Z 13004KT 9999 FEW027 SCT042 BKN250 15/11
                        Q1015 NOSIG=
200812261030 METAR LMML NIL=
200812261015 METAR LMML 261015Z VRB03KT 9999 FEW025 SCT041 BKN250 16/11
                        Q1016 NOSIG=
200812261000 METAR LMML NIL=
200812260945 METAR LMML 260945Z 09004KT 050V120 9999 FEW025 BKN250 16/11
                        Q1016 NOSIG=
200812260930 METAR LMML NIL=
200812260915 METAR LMML 260915Z 09004KT 050V130 9999 FEW025 SCT048 BKN250
                        15/11 Q1016 NOSIG=
200812260900 METAR LMML NIL=
200812260845 METAR LMML 260845Z 08004KT 9999 FEW025 SCT045 BKN250 15/11
                        Q1016 NOSIG=
200812260830 METAR LMML NIL=
200812260815 METAR LMML 260815Z VRB02KT 9999 FEW025 SCT050 BKN250 14/12
                        Q1016 NOSIG=
200812260800 METAR LMML NIL=
200812260745 METAR LMML 260745Z VRB01KT 9999 FEW025 SCT050 BKN250 13/11
                        Q1016 NOSIG=
200812260730 METAR LMML NIL=
200812260715 METAR LMML 260715Z VRB02KT 9999 FEW025 BKN050 BKN250 13/11
                        Q1015 NOSIG=
200812260700 METAR LMML NIL=
200812260645 METAR LMML 260645Z VRB03KT 9999 FEW025 BKN050 13/11 Q1015
                        NOSIG=
200812260630 METAR LMML NIL=
200812260615 METAR LMML 260615Z 16004KT 9999 FEW025 BKN050 13/11 Q1015
                        NOSIG=
200812260600 METAR LMML NIL=
200812260545 METAR LMML 260545Z 16004KT 9999 FEW033 BKN060 13/10 Q1015
                        NOSIG=
200812260530 METAR LMML NIL=
200812260515 METAR LMML 260515Z 18007KT 150V210 9999 FEW033 BKN050 13/10
                        Q1015 NOSIG=
200812260500 METAR LMML NIL=
200812260445 METAR LMML 260445Z 22006KT 190V270 9999 FEW030 BKN070 13/10
                        Q1015 TEMPO 7000 SHRA BKN015=
200812260430 METAR LMML NIL=
200812260415 METAR LMML 260415Z 21008KT 170V270 9999 FEW025 BKN050 14/10
                        Q1015 TEMPO 7000 SHRA BKN015=
200812260345 METAR LMML 260345Z 19006KT 9999 FEW041 SCT080 14/07 Q1015
                        TEMPO 7000 SHRA BKN015=
200812260330 METAR LMML NIL=
200812260315 METAR LMML 260315Z 19005KT 9999 FEW042 SCT080 14/07 Q1015
                        NOSIG=
200812260300 METAR LMML NIL=
200812260245 METAR LMML 260245Z 20004KT 170V230 9999 FEW042 SCT070 14/07
                        Q1015 NOSIG=
200812260230 METAR LMML NIL=
200812260215 METAR LMML 260215Z 21005KT 170V250 9999 FEW042 14/07 Q1015
                        NOSIG=
200812260200 METAR LMML NIL=
200812260145 METAR LMML 260145Z 21005KT 180V250 9999 SCT040 14/07 Q1016
                        NOSIG=
200812260130 METAR LMML NIL=
200812260115 METAR LMML 260115Z 21005KT 170V250 9999 SCT041 SCT060 14/07
                        Q1016 NOSIG=
200812260045 METAR LMML 260045Z 21004KT 180V260 9999 SCT039 SCT060 14/07
                        Q1016 NOSIG=
200812260015 METAR LMML 260015Z 21004KT 170V240 9999 SCT037 SCT060 14/08
                        Q1016 NOSIG=
200812260000 METAR LMML NIL=
200812252345 METAR LMML 252345Z 22005KT 170V260 9999 SCT039 SCT060 14/08
                        Q1016 NOSIG=
200812252330 METAR LMML NIL=
200812252315 METAR LMML 252315Z VRB03KT 9999 SCT037 SCT060 13/08 Q1017
                        NOSIG=
200812252300 METAR LMML NIL=
200812252245 METAR LMML 252245Z 23004KT 200V260 9999 SCT038 SCT070 13/07
                        Q1017 NOSIG=
200812252215 METAR LMML 252215Z VRB03KT 9999 SCT041 13/08 Q1017 NOSIG=
200812252200 METAR LMML NIL=
200812252145 METAR LMML 252145Z 24004KT 200V270 9999 SCT047 13/08 Q1017
                        NOSIG=
200812252130 METAR LMML NIL=
200812252115 METAR LMML 252115Z 23004KT 210V270 9999 SCT039 13/08 Q1018
                        NOSIG=
200812252045 METAR LMML 252045Z VRB02KT 9999 SCT037 12/09 Q1018 NOSIG=
200812252030 METAR LMML NIL=
200812252015 METAR LMML 252015Z VRB01KT 9999 SCT034 12/09 Q1018 NOSIG=
200812252000 METAR LMML NIL=
200812251945 METAR LMML 251945Z 00000KT 9999 SCT032 11/08 Q1018 NOSIG=
200812251930 METAR LMML NIL=
200812251915 METAR LMML 251915Z VRB01KT 9999 FEW032 12/08 Q1018 NOSIG=
200812251900 METAR LMML NIL=
200812251845 METAR LMML 251845Z VRB03KT 9999 FEW030 12/08 Q1018 NOSIG=
200812251830 METAR LMML NIL=
200812251815 METAR LMML 251815Z 24004KT 200V270 9999 FEW031 12/08 Q1018
                        NOSIG=
200812251800 METAR LMML NIL=
200812251745 METAR LMML 251745Z 24004KT 200V260 9999 FEW032 12/08 Q1018
                        NOSIG=
200812251730 METAR LMML NIL=
200812251715 METAR LMML 251715Z 24004KT 210V290 9999 FEW030 SCT250 12/07
                        Q1018 NOSIG=
200812251700 METAR LMML NIL=
200812251645 METAR LMML 251645Z 24004KT 9999 FEW030 SCT250 13/07 Q1018
                        NOSIG=
200812251630 METAR LMML NIL=
200812251615 METAR LMML 251615Z 23004KT 200V280 9999 FEW030 SCT250 13/08
                        Q1019 NOSIG=
200812251600 METAR LMML NIL=
200812251545 METAR LMML 251545Z 24004KT 200V280 9999 FEW030 14/08 Q1019
                        NOSIG=
200812251530 METAR LMML NIL=
200812251515 METAR LMML 251515Z 24006KT 200V290 9999 FEW032 15/08 Q1019
                        NOSIG=
200812251500 METAR LMML NIL=
200812251445 METAR LMML 251445Z 25006KT 210V290 9999 FEW033 15/08 Q1019
                        NOSIG=
200812251430 METAR LMML NIL=
200812251415 METAR LMML 251415Z 26007KT 210V290 9999 FEW033 15/08 Q1019
                        NOSIG=
200812251400 METAR LMML NIL=
200812251345 METAR LMML 251345Z 26007KT 210V290 9999 FEW033 15/08 Q1019
                        NOSIG=
200812251330 METAR LMML NIL=
200812251315 METAR LMML 251315Z 27007KT 240V300 9999 FEW033 16/08 Q1020
                        NOSIG=
200812251300 METAR LMML NIL=
200812251245 METAR LMML 251245Z 27007KT 210V310 9999 SCT036 15/08 Q1020
                        NOSIG=
200812251230 METAR LMML NIL=
200812251215 METAR LMML 251215Z 26009KT 200V300 9999 FEW037 SCT050 16/07
                        Q1020 NOSIG=
200812251200 METAR LMML NIL=
200812251145 METAR LMML 251145Z 25009KT 210V290 9999 SCT034 16/08 Q1020
                        NOSIG=
200812251130 METAR LMML NIL=
200812251115 METAR LMML 251115Z 25009KT 220V300 9999 BKN033 15/08 Q1021
                        NOSIG=
200812251100 METAR LMML NIL=
200812251045 METAR LMML 251045Z 24007KT 210V290 9999 BKN031 16/09 Q1021
                        NOSIG=
200812251030 METAR LMML NIL=
200812251015 METAR LMML 251015Z 25007KT 200V290 9999 BKN029 15/09 Q1022
                        NOSIG=
200812251000 METAR LMML NIL=
200812250945 METAR LMML 250945Z 24007KT 210V280 9999 BKN029 15/09 Q1022
                        NOSIG=
200812250930 METAR LMML NIL=
200812250915 METAR LMML 250915Z 24008KT 200V280 9999 SCT028 15/10 Q1022
                        NOSIG=
200812250900 METAR LMML NIL=
200812250845 METAR LMML 250845Z 24006KT 200V280 9999 SCT029 15/09 Q1022
                        NOSIG=
200812250830 METAR LMML NIL=
200812250815 METAR LMML 250815Z 24005KT 200V280 9999 FEW029 SCT050 15/10
                        Q1022 NOSIG=
200812250800 METAR LMML NIL=
200812250745 METAR LMML 250745Z VRB02KT 9999 SCT028 BKN050 14/10 Q1022
                        NOSIG=
200812250730 METAR LMML NIL=
200812250715 METAR LMML 250715Z VRB03KT 9999 FEW028 BKN050 13/10 Q1022
                        NOSIG=
200812250645 METAR LMML 250645Z VRB02KT 9999 BKN028 12/09 Q1022 NOSIG=
200812250630 METAR LMML NIL=
200812250615 METAR LMML 250615Z VRB02KT 9999 BKN028 13/10 Q1022 NOSIG=
200812250600 METAR LMML NIL=
200812250545 METAR LMML 250545Z 26004KT 210V290 9999 FEW030 BKN050 13/10
                        Q1022 NOSIG=
200812250530 METAR LMML NIL=
200812250515 METAR LMML 250515Z 27004KT 230V290 9999 FEW032 BKN050 13/09
                        Q1022 NOSIG=
200812250500 METAR LMML NIL=
200812250445 METAR LMML 250445Z 26005KT 9999 FEW033 BKN050 13/09 Q1022
                        NOSIG=
200812250430 METAR LMML NIL=
200812250415 METAR LMML 250415Z 24005KT 200V280 9999 FEW025 BKN050 12/10
                        Q1022 NOSIG=
200812250345 METAR LMML 250345Z VRB01KT 9999 FEW030 BKN050 11/09 Q1022
                        NOSIG=
200812250330 METAR LMML NIL=
200812250315 METAR LMML 250315Z VRB01KT 9999 FEW029 BKN050 11/09 Q1022
                        NOSIG=
200812250300 METAR LMML NIL=
200812250245 METAR LMML 250245Z VRB01KT 9999 FEW029 BKN050 11/09 Q1023
                        NOSIG=
200812250230 METAR LMML NIL=
200812250215 METAR LMML 250215Z VRB01KT 9999 SCT029 10/09 Q1023 NOSIG=
200812250200 METAR LMML NIL=
200812250145 METAR LMML 250145Z VRB01KT 9999 SCT030 10/09 Q1023 NOSIG=
200812250130 METAR LMML NIL=
200812250115 METAR LMML 250115Z 00000KT 9999 SCT031 10/08 Q1023 NOSIG=
200812250100 METAR LMML NIL=
200812250045 METAR LMML 250045Z VRB01KT 9999 FEW028 08/07 Q1024 NOSIG=
200812250030 METAR LMML NIL=
200812250015 METAR LMML 250015Z VRB01KT CAVOK 08/07 Q1024 NOSIG=
200812250000 METAR LMML NIL=
200812242345 METAR LMML 242345Z VRB01KT CAVOK 09/08 Q1024 NOSIG=
200812242315 METAR LMML 242315Z VRB01KT CAVOK 09/08 Q1024 NOSIG=
200812242300 METAR LMML NIL=
200812242245 METAR LMML 242245Z VRB01KT CAVOK 10/08 Q1024 NOSIG=
200812242230 METAR LMML NIL=
200812242215 METAR LMML 242215Z 00000KT CAVOK 10/08 Q1025 NOSIG=
200812242200 METAR LMML NIL=
200812242145 METAR LMML 242145Z VRB02KT CAVOK 10/08 Q1025 NOSIG=
200812242130 METAR LMML NIL=
200812242115 METAR LMML 242115Z VRB01KT CAVOK 11/09 Q1025 NOSIG=
200812242100 METAR LMML NIL=
200812242045 METAR LMML 242045Z VRB02KT CAVOK 10/08 Q1025 NOSIG=
200812242030 METAR LMML NIL=
200812242015 METAR LMML 242015Z VRB01KT 9999 FEW037 11/09 Q1025 NOSIG=
200812242000 METAR LMML NIL=
200812241945 METAR LMML 241945Z VRB02KT 9999 SCT037 11/09 Q1025 NOSIG=
200812241930 METAR LMML NIL=
200812241915 METAR LMML 241915Z VRB03KT 9999 SCT038 11/09 Q1025 NOSIG=
200812241900 METAR LMML NIL=
200812241845 METAR LMML 241845Z VRB03KT 9999 SCT036 12/09 Q1025 NOSIG=
200812241830 METAR LMML NIL=
200812241815 METAR LMML 241815Z 29004KT 9999 SCT037 12/09 Q1025 NOSIG=
200812241800 METAR LMML NIL=
200812241745 METAR LMML 241745Z VRB03KT 9999 SCT037 12/09 Q1026 NOSIG=
200812241730 METAR LMML NIL=
200812241715 METAR LMML 241715Z VRB02KT 9999 BKN036 12/09 Q1025 NOSIG=
200812241700 METAR LMML NIL=
200812241645 METAR LMML 241645Z VRB03KT 9999 BKN023 13/09 Q1025 NOSIG=
200812241630 METAR LMML NIL=
200812241615 METAR LMML 241615Z VRB03KT 9999 BKN023 13/09 Q1025 NOSIG=
200812241600 METAR LMML NIL=
200812241545 METAR LMML 241545Z VRB03KT 9999 BKN035 14/10 Q1025 NOSIG=
200812241530 METAR LMML NIL=
200812241515 METAR LMML 241515Z VRB03KT 9999 BKN035 14/09 Q1025 NOSIG=
200812241500 METAR LMML NIL=
200812241445 METAR LMML 241445Z VRB03KT 9999 BKN028 15/10 Q1025 NOSIG=
200812241415 METAR LMML 241415Z VRB02KT 9999 SCT028 15/10 Q1025 NOSIG=
200812241400 METAR LMML NIL=
200812241345 METAR LMML 241345Z VRB03KT 9999 BKN025 15/10 Q1025 NOSIG=
200812241330 METAR LMML NIL=
200812241315 METAR LMML 241315Z VRB03KT 9999 BKN026 15/10 Q1025 NOSIG=
200812241300 METAR LMML NIL=
200812241245 METAR LMML 241245Z VRB02KT 9999 BKN026 15/10 Q1025 NOSIG=
200812241230 METAR LMML NIL=
200812241215 METAR LMML 241215Z VRB01KT 9999 SCT029 15/09 Q1025 NOSIG=
200812241200 METAR LMML NIL=
200812241145 METAR LMML 241145Z VRB03KT 9999 SCT030 16/10 Q1026 NOSIG=
200812241130 METAR LMML NIL=
200812241115 METAR LMML 241115Z VRB03KT 9999 SCT030 16/10 Q1026 NOSIG=
200812241100 METAR LMML NIL=
200812241045 METAR LMML 241045Z VRB02KT 9999 SCT030 16/10 Q1026 NOSIG=
200812241030 METAR LMML NIL=
200812241015 METAR LMML 241015Z VRB02KT 9999 SCT028 15/09 Q1027 NOSIG=
200812241000 LMML NIL=
200812240945 LMML 240945Z 31005KT 270V340 9999 FEW027 15/09 Q1027 NOSIG=
200812240915 METAR LMML 240915Z 34007KT 9999 FEW027 15/09 Q1027 NOSIG=
200812240900 METAR LMML NIL=
200812240845 METAR LMML 240845Z 33006KT 9999 FEW031 14/09 Q1027 NOSIG=
200812240830 METAR LMML NIL=
200812240815 METAR LMML 240815Z 33008KT 9999 SCT032 13/09 Q1027 NOSIG=
200812240800 METAR LMML NIL=
200812240745 METAR LMML 240745Z 31008KT 9999 BKN029 13/09 Q1027 NOSIG=
200812240730 METAR LMML NIL=
200812240715 METAR LMML 240715Z 31008KT 9999 BKN027 13/09 Q1027 NOSIG=
200812240700 METAR LMML NIL=
200812240645 METAR LMML 240645Z 31008KT 9999 BKN027 13/09 Q1026 NOSIG=
200812240615 METAR LMML 240615Z 31009KT 9999 BKN025 13/09 Q1026 NOSIG=
200812240545 METAR LMML 240545Z 31005KT 9999 BKN023 13/09 Q1026 NOSIG=
200812240530 METAR LMML NIL=
200812240515 METAR LMML 240515Z 31008KT 9999 BKN025 13/09 Q1026 NOSIG=
200812240500 METAR LMML NIL=
200812240445 METAR LMML 240445Z 30009KT 9999 BKN026 13/09 Q1026 NOSIG=
200812240415 METAR LMML 240415Z 30004KT 9999 BKN025 13/09 Q1026 NOSIG=
200812240400 METAR LMML NIL=
200812240345 METAR LMML 240345Z 29009KT 9999 BKN023 13/09 Q1026 NOSIG=
200812240330 METAR LMML NIL=
200812240315 METAR LMML 240315Z 30006KT 270V330 9999 BKN023 13/09 Q1026
                        NOSIG=
200812240300 METAR LMML NIL=
200812240245 METAR LMML 240245Z 31008KT 9999 BKN021 13/09 Q1026 NOSIG=
200812240230 METAR LMML NIL=
200812240215 METAR LMML 240215Z 32008KT 9999 BKN021 13/10 Q1026 NOSIG=
200812240200 METAR LMML NIL=
200812240145 METAR LMML 240145Z 31010KT 9999 BKN022 13/09 Q1026 NOSIG=
200812240130 METAR LMML NIL=
200812240115 METAR LMML 240115Z 31007KT 9999 BKN022 13/10 Q1026 NOSIG=
200812240100 METAR LMML NIL=
200812240045 METAR LMML 240045Z 31010KT 9999 BKN022 13/09 Q1026 NOSIG=
200812240015 METAR LMML 240015Z 31010KT 9999 BKN022 13/10 Q1026 NOSIG=
200812232345 METAR LMML 232345Z 31009KT 9999 BKN021 13/10 Q1026 NOSIG=
200812232330 METAR LMML NIL=
200812232315 METAR LMML 232315Z 31008KT 9999 SCT022 13/10 Q1026 NOSIG=
200812232300 METAR LMML NIL=
200812232245 METAR LMML 232245Z 30008KT 9999 SCT021 13/10 Q1026 NOSIG=
200812232230 METAR LMML NIL=
200812232215 METAR LMML 232215Z 30006KT 9999 BKN020 12/10 Q1026 NOSIG=
200812232200 METAR LMML NIL=
200812232145 METAR LMML 232145Z 30005KT 270V330 9999 SCT019 12/10 Q1026
                        NOSIG=
200812232130 METAR LMML NIL=
200812232115 METAR LMML 232115Z 29006KT 9999 FEW019 13/10 Q1026 NOSIG=
200812232100 METAR LMML NIL=
200812232045 METAR LMML 232045Z 30006KT 9999 FEW020 12/10 Q1026 NOSIG=
200812232030 METAR LMML NIL=
200812232015 METAR LMML 232015Z 30007KT 9999 SCT020 12/10 Q1026 NOSIG=
200812232000 METAR LMML NIL=
200812231945 METAR LMML 231945Z 31008KT 9999 FEW019 12/10 Q1026 NOSIG=
200812231930 METAR LMML NIL=
200812231915 METAR LMML 231915Z 32009KT 9999 FEW019 12/10 Q1026 NOSIG=
200812231900 METAR LMML NIL=
200812231845 METAR LMML 231845Z 31005KT 9999 FEW030 12/10 Q1026 NOSIG=
200812231830 METAR LMML NIL=
200812231815 METAR LMML 231815Z 30006KT 9999 FEW030 12/10 Q1026 NOSIG=
200812231800 METAR LMML NIL=
200812231745 METAR LMML 231745Z 30005KT 9999 FEW030 12/10 Q1026 NOSIG=
200812231730 METAR LMML NIL=
200812231715 METAR LMML 231715Z 31005KT 9999 FEW030 12/10 Q1026 NOSIG=
200812231700 METAR LMML NIL=
200812231645 METAR LMML 231645Z 30006KT 9999 FEW030 12/10 Q1025 NOSIG=
200812231630 METAR LMML NIL=
200812231615 METAR LMML 231615Z 31007KT 9999 FEW030 13/10 Q1025 NOSIG=
200812231600 METAR LMML NIL=
200812231545 METAR LMML 231545Z 30006KT 260V330 9999 FEW030 14/10 Q1025
                        NOSIG=
200812231530 METAR LMML NIL=
200812231515 METAR LMML 231515Z 30009KT 9999 FEW030 15/10 Q1025 NOSIG=
200812231500 METAR LMML NIL=
200812231445 METAR LMML 231445Z 32008KT 9999 FEW030 15/10 Q1025 NOSIG=
200812231430 METAR LMML NIL=
200812231415 METAR LMML 231415Z 33009KT 9999 FEW030 15/09 Q1025 NOSIG=
200812231400 METAR LMML NIL=
200812231345 METAR LMML 231345Z 33009KT 9999 FEW030 16/10 Q1025 NOSIG=
200812231330 METAR LMML NIL=
200812231315 METAR LMML 231315Z 33010KT 9999 FEW030 16/10 Q1025 NOSIG=
200812231300 METAR LMML NIL=
200812231245 METAR LMML 231245Z 34011KT 310V010 9999 FEW030 16/09 Q1025
                        NOSIG=
200812231230 METAR LMML NIL=
200812231215 METAR LMML 231215Z 34010KT 9999 FEW030 16/10 Q1025 NOSIG=
200812231200 METAR LMML NIL=
200812231145 METAR LMML 231145Z 33010KT 9999 FEW030 16/10 Q1026 NOSIG=
200812231130 METAR LMML NIL=
200812231115 METAR LMML 231115Z 33010KT 300V360 9999 FEW030 16/10 Q1026
                        NOSIG=
200812231100 METAR LMML NIL=
200812231045 METAR LMML 231045Z 32010KT 9999 FEW030 16/09 Q1026 NOSIG=
200812231030 METAR LMML NIL=
200812231015 METAR LMML 231015Z 34011KT 9999 FEW030 16/10 Q1026 NOSIG=
200812231000 METAR LMML NIL=
200812230945 METAR LMML 230945Z 33010KT 9999 FEW030 16/11 Q1027 NOSIG=
200812230930 METAR LMML NIL=
200812230915 METAR LMML 230915Z 34010KT 9999 FEW030 15/10 Q1027 NOSIG=
200812230900 METAR LMML NIL=
200812230845 METAR LMML 230845Z 34005KT 310V010 9999 FEW030 15/10 Q1026
                        NOSIG=
200812230830 METAR LMML NIL=
200812230815 METAR LMML 230815Z 33005KT 9999 FEW030 14/10 Q1026 NOSIG=
200812230800 METAR LMML NIL=
200812230745 METAR LMML 230745Z 34007KT 310V010 9999 FEW030 14/09 Q1026
                        NOSIG=
200812230730 METAR LMML NIL=
200812230715 METAR LMML 230715Z 32005KT 9999 FEW030 11/09 Q1026 NOSIG=
200812230700 METAR LMML NIL=
200812230645 METAR LMML 230645Z 33006KT 9999 FEW030 10/08 Q1025 NOSIG=
200812230630 METAR LMML NIL=
200812230615 METAR LMML 230615Z VRB03KT 9999 FEW030 10/08 Q1025 NOSIG=
200812230600 METAR LMML NIL=
200812230545 METAR LMML 230545Z 31006KT 9999 FEW030 10/07 Q1025 NOSIG=
200812230530 METAR LMML NIL=
200812230515 METAR LMML 230515Z 30007KT 9999 FEW030 10/08 Q1025 NOSIG=
200812230500 METAR LMML NIL=
200812230445 METAR LMML 230445Z 30007KT 9999 FEW030 10/08 Q1024 NOSIG=
200812230430 METAR LMML NIL=
200812230415 METAR LMML 230415Z 30006KT 270V330 9999 FEW030 11/08 Q1024
                        NOSIG=
200812230400 METAR LMML NIL=
200812230345 METAR LMML 230345Z 30007KT 9999 FEW030 11/08 Q1024 NOSIG=
200812230330 METAR LMML NIL=
200812230315 METAR LMML 230315Z 28006KT 9999 FEW030 11/07 Q1024 NOSIG=
200812230245 METAR LMML 230245Z 28006KT 9999 FEW030 11/07 Q1024 NOSIG=
200812230230 METAR LMML NIL=
200812230215 METAR LMML 230215Z 27006KT 9999 FEW030 10/06 Q1024 NOSIG=
200812230200 METAR LMML NIL=
200812230145 METAR LMML 230145Z 25004KT CAVOK 10/06 Q1024 NOSIG=
200812230115 METAR LMML 230115Z 24004KT CAVOK 09/05 Q1024 NOSIG=
200812230100 METAR LMML NIL=
200812230045 METAR LMML 230045Z 24004KT CAVOK 09/05 Q1024 NOSIG=
200812230015 METAR LMML 230015Z VRB03KT CAVOK 09/05 Q1024 NOSIG=
200812230000 METAR LMML NIL=
200812222345 METAR LMML 222345Z VRB03KT CAVOK 08/05 Q1024 NOSIG=
200812222330 METAR LMML NIL=
200812222315 METAR LMML 222315Z VRB03KT 9999 FEW025 08/05 Q1024 NOSIG=
200812222300 METAR LMML NIL=
200812222245 METAR LMML 222245Z VRB02KT CAVOK 08/05 Q1024 NOSIG=
200812222230 METAR LMML NIL=
200812222215 METAR LMML 222215Z VRB02KT CAVOK 08/05 Q1024 NOSIG=
200812222200 METAR LMML NIL=
200812222145 METAR LMML 222145Z 24004KT 190V270 CAVOK 08/05 Q1024 NOSIG=
200812222130 METAR LMML NIL=
200812222115 METAR LMML 222115Z 24004KT CAVOK 09/05 Q1024 NOSIG=
200812222100 METAR LMML NIL=
200812222045 METAR LMML 222045Z VRB03KT CAVOK 09/05 Q1024 NOSIG=
200812222030 METAR LMML NIL=
200812222015 METAR LMML 222015Z VRB01KT CAVOK 09/05 Q1024 NOSIG=
200812222000 METAR LMML NIL=
200812221945 METAR LMML 221945Z VRB02KT CAVOK 09/05 Q1024 NOSIG=
200812221930 METAR LMML NIL=
200812221915 METAR LMML 221915Z VRB01KT CAVOK 09/05 Q1024 NOSIG=
200812221900 METAR LMML NIL=
200812221845 METAR LMML 221845Z 00000KT CAVOK 10/05 Q1024 NOSIG=
200812221830 METAR LMML NIL=
200812221815 METAR LMML 221815Z VRB01KT 9999 FEW030 10/05 Q1024 NOSIG=
200812221800 METAR LMML NIL=
200812221745 METAR LMML 221745Z VRB02KT 9999 FEW030 11/05 Q1024 NOSIG=
200812221730 METAR LMML NIL=
200812221715 METAR LMML 221715Z 06004KT 9999 FEW030 12/05 Q1024 NOSIG=
200812221700 METAR LMML NIL=
200812221645 METAR LMML 221645Z VRB03KT 9999 FEW030 12/05 Q1024 NOSIG=
200812221630 METAR LMML NIL=
200812221615 METAR LMML 221615Z 06004KT 020V130 9999 FEW040 12/05 Q1024
                        NOSIG=
200812221600 METAR LMML NIL=
200812221545 METAR LMML 221545Z 06004KT 020V090 9999 FEW040 13/05 Q1023
                        NOSIG=
200812221530 METAR LMML NIL=
200812221515 METAR LMML 221515Z 04004KT 010V080 9999 FEW040 14/06 Q1023
                        NOSIG=
200812221500 METAR LMML NIL=
200812221445 METAR LMML 221445Z 05006KT 010V100 9999 FEW040 14/05 Q1023
                        NOSIG=
200812221430 METAR LMML NIL=
200812221415 METAR LMML 221415Z 03005KT 360V070 9999 FEW040 15/06 Q1023
                        NOSIG=
200812221400 METAR LMML NIL=
200812221345 METAR LMML 221345Z 03005KT 350V070 9999 FEW040 15/06 Q1023
                        NOSIG=
200812221330 METAR LMML NIL=
200812221315 METAR LMML 221315Z 03006KT 350V060 9999 FEW040 15/06 Q1023
                        NOSIG=
200812221300 METAR LMML NIL=
200812221245 METAR LMML 221245Z 04007KT 010V090 CAVOK 15/06 Q1023 NOSIG=
200812221230 METAR LMML NIL=
200812221215 METAR LMML 221215Z 04007KT 010V090 9999 FEW040 15/06 Q1024
                        NOSIG=
200812221200 METAR LMML NIL=
200812221145 METAR LMML 221145Z 05007KT 360V080 9999 FEW039 15/06 Q1024
                        NOSIG=
200812221130 METAR LMML NIL=
200812221115 METAR LMML 221115Z 02007KT 340V070 9999 FEW039 16/06 Q1024
                        NOSIG=
200812221100 METAR LMML NIL=
200812221045 METAR LMML 221045Z 04007KT 010V080 9999 FEW040 16/07 Q1024
                        NOSIG=
200812221030 METAR LMML NIL=
200812221015 METAR LMML 221015Z 02007KT 9999 FEW040 16/06 Q1024 NOSIG=
200812221000 METAR LMML NIL=
200812220945 METAR LMML 220945Z 36009KT 330V040 9999 FEW040 16/06 Q1024
                        NOSIG=
200812220930 METAR LMML NIL=
200812220915 METAR LMML 220915Z 01009KT 9999 FEW040 15/06 Q1024 NOSIG=
200812220900 METAR LMML NIL=
200812220845 METAR LMML 220845Z 01009KT 340V040 9999 FEW040 15/06 Q1024
                        NOSIG=
200812220830 METAR LMML NIL=
200812220815 METAR LMML 220815Z 36010KT 340V040 9999 FEW040 15/06 Q1024
                        NOSIG=
200812220800 METAR LMML NIL=
200812220745 METAR LMML 220745Z 36010KT 330V030 9999 FEW040 14/07 Q1024
                        NOSIG=
200812220730 METAR LMML NIL=
200812220715 METAR LMML 220715Z 36008KT 9999 FEW040 13/05 Q1024 NOSIG=
200812220700 METAR LMML NIL=
200812220645 METAR LMML 220645Z 36011KT 9999 FEW040 13/04 Q1024 NOSIG=
200812220630 METAR LMML NIL=
200812220615 METAR LMML 220615Z 34007KT 9999 FEW040 12/06 Q1023 NOSIG=
200812220600 METAR LMML NIL=
200812220545 METAR LMML 220545Z 35011KT 320V020 9999 FEW025 13/05 Q1023
                        NOSIG=
200812220530 METAR LMML NIL=
200812220515 METAR LMML 220515Z 35014KT 9999 FEW025 13/05 Q1023 NOSIG=
200812220500 METAR LMML NIL=
200812220445 METAR LMML 220445Z 35013KT 9999 FEW025 13/05 Q1023 NOSIG=
200812220430 METAR LMML NIL=
200812220415 METAR LMML 220415Z 35012KT 9999 FEW025 13/07 Q1023 NOSIG=
200812220400 METAR LMML NIL=
200812220345 METAR LMML 220345Z 34010KT 9999 FEW025 13/06 Q1023 NOSIG=
200812220330 METAR LMML NIL=
200812220315 METAR LMML 220315Z 34012KT 9999 FEW025 13/08 Q1023 NOSIG=
200812220300 METAR LMML NIL=
200812220245 METAR LMML 220245Z 34013KT 9999 FEW025 13/08 Q1023 NOSIG=
200812220230 METAR LMML NIL=
200812220215 METAR LMML 220215Z 34012KT 9999 FEW025 13/08 Q1023 NOSIG=
200812220200 METAR LMML NIL=
200812220145 METAR LMML 220145Z 34009KT 310V010 9999 FEW025 13/08 Q1023
                        NOSIG=
200812220130 METAR LMML NIL=
200812220115 METAR LMML 220115Z 35007KT 310V020 9999 FEW025 13/09 Q1023
                        NOSIG=
200812220100 METAR LMML NIL=
200812220045 METAR LMML 220045Z 34009KT 9999 FEW025 13/09 Q1023 NOSIG=
200812220015 METAR LMML 220015Z 32012KT 9999 FEW025 12/09 Q1023 NOSIG=
200812220000 METAR LMML NIL=
200812212345 METAR LMML 212345Z 32012KT 9999 FEW025 13/09 Q1023 NOSIG=
200812212330 METAR LMML NIL=
200812212315 METAR LMML 212315Z 33013KT 9999 FEW030 13/08 Q1023 NOSIG=
200812212245 METAR LMML 212245Z 31015KT 9999 FEW030 13/09 Q1023 NOSIG=
200812212230 METAR LMML NIL=
200812212215 METAR LMML 212215Z 32013KT 9999 FEW030 13/10 Q1023 NOSIG=
200812212145 METAR LMML 212145Z 30008KT 270V330 9999 FEW030 13/09 Q1023
                        NOSIG=
200812212115 METAR LMML 212115Z 30010KT 9999 FEW030 13/10 Q1023 NOSIG=
200812212045 METAR LMML 212045Z 32015KT 280V340 9999 FEW030 13/10 Q1023
                        NOSIG=
200812212030 METAR LMML NIL=
200812212015 METAR LMML 212015Z 32013KT 9999 FEW030 13/10 Q1023 NOSIG=
200812211945 METAR LMML 211945Z 31015KT 9999 FEW030 13/10 Q1023 NOSIG=
200812211930 METAR LMML NIL=
200812211915 METAR LMML 211915Z 32016KT 9999 FEW030 13/11 Q1023 NOSIG=
200812211900 METAR LMML NIL=
200812211845 METAR LMML 211845Z 31010KT 280V340 9999 FEW030 13/10 Q1023
                        NOSIG=
200812211830 METAR LMML NIL=
200812211815 METAR LMML 211815Z 30009KT 9999 FEW030 13/08 Q1023 NOSIG=
200812211800 METAR LMML NIL=
200812211745 METAR LMML 211745Z 31008KT 290V350 9999 FEW030 13/07 Q1023
                        NOSIG=
200812211715 METAR LMML 211715Z 30006KT 250V340 9999 FEW030 13/08 Q1022
                        NOSIG=
200812211700 METAR LMML NIL=
200812211645 METAR LMML 211645Z 30006KT 270V340 9999 FEW030 13/08 Q1023
                        NOSIG=
200812211630 METAR LMML NIL=
200812211615 METAR LMML 211615Z 31008KT 9999 FEW034 13/08 Q1023 NOSIG=
200812211600 METAR LMML NIL=
200812211545 METAR LMML 211545Z 33008KT 9999 FEW034 14/08 Q1022 NOSIG=
200812211530 METAR LMML NIL=
200812211515 METAR LMML 211515Z 34011KT 9999 FEW034 14/08 Q1022 NOSIG=
200812211500 METAR LMML NIL=
200812211445 METAR LMML 211445Z 33013KT 9999 FEW034 14/07 Q1022 NOSIG=
200812211430 METAR LMML NIL=
200812211415 METAR LMML 211415Z 34012KT 310V010 9999 FEW034 15/07 Q1022
                        NOSIG=
200812211400 METAR LMML NIL=
200812211345 METAR LMML 211345Z 33012KT 9999 FEW034 15/08 Q1022 NOSIG=
200812211330 METAR LMML NIL=
200812211315 METAR LMML 211315Z 32013KT 9999 FEW035 15/08 Q1022 NOSIG=
200812211300 METAR LMML NIL=
200812211230 METAR LMML NIL=
200812211215 METAR LMML 211215Z 32010KT 9999 FEW035 15/08 Q1022 NOSIG=
200812211200 METAR LMML NIL=
200812211145 METAR LMML 211145Z 33011KT 300V010 9999 FEW035 15/08 Q1022
                        NOSIG=
200812211130 METAR LMML NIL=
200812211115 METAR LMML 211115Z 33010KT 300V360 9999 FEW035 15/08 Q1022
                        NOSIG=
200812211045 METAR LMML 211045Z 34011KT 9999 FEW030 15/07 Q1022 NOSIG=
200812211030 METAR LMML NIL=
200812211015 METAR LMML 211015Z 34012KT 310V010 9999 FEW030 15/06 Q1023
                        NOSIG=
200812211000 METAR LMML NIL=
200812210945 METAR LMML 210945Z 33013KT 9999 FEW030 14/06 Q1023 NOSIG=
200812210930 METAR LMML NIL=
200812210915 METAR LMML 210915Z 33010KT 300V010 9999 FEW030 14/06 Q1023
                        NOSIG=
200812210900 METAR LMML NIL=
200812210845 METAR LMML 210845Z 33011KT 9999 FEW036 SCT250 14/06 Q1022
                        NOSIG=
200812210830 METAR LMML NIL=
200812210815 METAR LMML 210815Z 33009KT 9999 FEW036 13/06 Q1022 NOSIG=
200812210800 METAR LMML NIL=
200812210745 METAR LMML 210745Z 32006KT 300V360 9999 FEW036 12/07 Q1022
                        NOSIG=
200812210715 METAR LMML 210715Z 30006KT 9999 FEW036 11/06 Q1022 NOSIG=
200812210700 METAR LMML NIL=
200812210645 METAR LMML 210645Z 32007KT 9999 FEW036 10/06 Q1022 NOSIG=
200812210630 METAR LMML NIL=
200812210615 METAR LMML 210615Z 31008KT 9999 FEW036 10/06 Q1022 NOSIG=
200812210545 METAR LMML 210545Z 30008KT 9999 FEW032 10/07 Q1022 NOSIG=
200812210530 METAR LMML NIL=
200812210515 METAR LMML 210515Z 30006KT 9999 FEW030 10/07 Q1022 NOSIG=
200812210500 METAR LMML NIL=
200812210445 METAR LMML 210445Z 28007KT 250V320 9999 FEW028 10/07 Q1022
                        NOSIG=
200812210430 METAR LMML NIL=
200812210415 METAR LMML 210415Z 28005KT 9999 FEW028 10/07 Q1021 NOSIG=
200812210400 METAR LMML NIL=
200812210345 METAR LMML 210345Z 30006KT 270V330 9999 FEW028 10/07 Q1021
                        NOSIG=
200812210330 METAR LMML NIL=
200812210315 METAR LMML 210315Z 30005KT 270V330 9999 FEW028 11/07 Q1021
                        NOSIG=
200812210300 METAR LMML NIL=
200812210245 METAR LMML 210245Z 31006KT 9999 SCT028 11/07 Q1021 NOSIG=
200812210230 METAR LMML NIL=
200812210215 METAR LMML 210215Z 31006KT 9999 SCT031 11/07 Q1022 NOSIG=
200812210200 METAR LMML NIL=
200812210145 METAR LMML 210145Z 30005KT 270V330 9999 SCT031 11/07 Q1022
                        NOSIG=
200812210130 METAR LMML NIL=
200812210115 METAR LMML 210115Z VRB03KT 9999 SCT033 10/07 Q1022 NOSIG=
200812210100 METAR LMML NIL=
200812210045 METAR LMML 210045Z 30007KT 270V330 9999 SCT033 11/06 Q1023
                        NOSIG=
200812210030 METAR LMML NIL=
200812210015 METAR LMML 210015Z 29006KT 9999 FEW037 10/06 Q1022 NOSIG=
200812210000 METAR LMML NIL=
200812202345 METAR LMML 202345Z 29004KT 9999 FEW036 10/06 Q1022 NOSIG=
200812202330 METAR LMML NIL=
200812202315 METAR LMML 202315Z 29004KT 260V330 9999 FEW035 11/06 Q1022
                        NOSIG=
200812202300 METAR LMML NIL=
200812202245 METAR LMML 202245Z VRB03KT 9999 FEW036 11/06 Q1022 NOSIG=
200812202230 METAR LMML NIL=
200812202215 METAR LMML 202215Z VRB03KT 9999 FEW036 11/06 Q1022 NOSIG=
200812202200 METAR LMML NIL=
200812202145 METAR LMML 202145Z 01004KT 9999 FEW036 11/06 Q1022 NOSIG=
200812202130 METAR LMML NIL=
200812202115 METAR LMML 202115Z 01005KT 9999 FEW036 SCT050 12/06 Q1022
                        NOSIG=
200812202100 METAR LMML NIL=
200812202045 METAR LMML 202045Z 01006KT 9999 FEW035 SCT050 12/06 Q1022
                        NOSIG=
200812202030 METAR LMML NIL=
200812202015 METAR LMML 202015Z 01005KT 9999 FEW035 SCT050 12/07 Q1021
                        NOSIG=
200812202000 METAR LMML NIL=
200812201945 METAR LMML 201945Z 22004KT 9999 FEW035 SCT050 12/07 Q1021
                        NOSIG=
200812201930 METAR LMML NIL=
200812201915 METAR LMML 201915Z 03004KT 360V070 9999 FEW035 SCT050 13/07
                        Q1021 NOSIG=
200812201900 METAR LMML NIL=
200812201845 METAR LMML 201845Z 36005KT 340V040 9999 SCT036 12/07 Q1021
                        NOSIG=
200812201830 METAR LMML NIL=
200812201815 METAR LMML 201815Z 36006KT 9999 FEW037 11/06 Q1021 NOSIG=
200812201800 METAR LMML NIL=
200812201745 METAR LMML 201745Z 36007KT 9999 FEW037 12/06 Q1020 NOSIG=
200812201730 METAR LMML NIL=
200812201715 METAR LMML 201715Z 35008KT 9999 SCT037 12/06 Q1020 NOSIG=
200812201700 METAR LMML NIL=
200812201645 METAR LMML 201645Z 35006KT 310V010 9999 FEW034 12/06 Q1020
                        NOSIG=
200812201630 METAR LMML NIL=
200812201615 METAR LMML 201615Z 35010KT 9999 BKN033 13/07 Q1019 NOSIG=
200812201600 METAR LMML NIL=
200812201545 METAR LMML 201545Z 35011KT 9999 BKN032 13/07 Q1019 NOSIG=
200812201530 METAR LMML NIL=
200812201515 METAR LMML 201515Z 36009KT 9999 SCT030 13/07 Q1019 NOSIG=
200812201500 METAR LMML NIL=
200812201445 METAR LMML 201445Z 35009KT 320V020 9999 SCT031 14/08 Q1018
                        NOSIG=
200812201430 METAR LMML NIL=
200812201415 METAR LMML 201415Z 36012KT 9999 SCT031 14/07 Q1018 NOSIG=
200812201400 METAR LMML NIL=
200812201345 METAR LMML 201345Z 34012KT 9999 SCT034 SCT250 14/07 Q1018
                        NOSIG=
200812201330 METAR LMML NIL=
200812201315 METAR LMML 201315Z 34010KT 310V010 9999 SCT031 BKN250 14/08
                        Q1018 NOSIG=
200812201300 METAR LMML NIL=
200812201245 METAR LMML 201245Z 34010KT 9999 FEW031 BKN250 14/07 Q1018
                        NOSIG=
200812201230 METAR LMML NIL=
200812201215 METAR LMML 201215Z 34012KT 320V020 9999 SCT033 BKN250 14/07
                        Q1018 NOSIG=
200812201200 METAR LMML NIL=
200812201145 METAR LMML 201145Z 36011KT 9999 SCT031 SCT250 14/08 Q1018
                        NOSIG=
200812201130 METAR LMML NIL=
200812201115 METAR LMML 201115Z 34014KT 9999 SCT031 SCT060 14/08 Q1018
                        NOSIG=
200812201100 METAR LMML NIL=
200812201045 METAR LMML 201045Z 34014KT 9999 SCT029 SCT120 13/07 Q1019
                        NOSIG=
200812201030 METAR LMML NIL=
200812201015 METAR LMML 201015Z 34014KT 9999 FEW028 14/08 Q1019 NOSIG=
200812201000 METAR LMML NIL=
200812200945 METAR LMML 200945Z 33013KT 9999 FEW028 14/08 Q1019 NOSIG=
200812200930 METAR LMML NIL=
200812200915 METAR LMML 200915Z 33012KT 9999 FEW034 14/07 Q1019 NOSIG=
200812200900 METAR LMML NIL=
200812200845 METAR LMML 200845Z 33012KT 9999 FEW030 13/08 Q1019 NOSIG=
200812200830 METAR LMML NIL=
200812200815 METAR LMML 200815Z 33012KT 9999 FEW028 13/07 Q1018 NOSIG=
200812200800 METAR LMML NIL=
200812200745 METAR LMML 200745Z 33010KT 9999 FEW028 12/07 Q1018 NOSIG=
200812200730 METAR LMML NIL=
200812200715 METAR LMML 200715Z 32007KT 9999 FEW028 11/07 Q1018 NOSIG=
200812200700 METAR LMML NIL=
200812200645 METAR LMML 200645Z 30006KT 9999 SCT029 10/07 Q1018 NOSIG=
200812200630 METAR LMML NIL=
200812200615 METAR LMML 200615Z 30008KT 9999 SCT025 10/07 Q1018 NOSIG=
200812200600 METAR LMML NIL=
200812200545 METAR LMML 200545Z 30009KT 9999 FEW025 11/07 Q1017 NOSIG=
200812200530 METAR LMML NIL=
200812200515 METAR LMML 200515Z 30009KT 9999 FEW025 10/07 Q1017 NOSIG=
200812200500 METAR LMML NIL=
200812200445 METAR LMML 200445Z 31008KT 9999 FEW025 10/07 Q1017 NOSIG=
200812200430 METAR LMML NIL=
200812200415 METAR LMML 200415Z 30010KT 9999 FEW025 10/07 Q1017 NOSIG=
200812200400 METAR LMML NIL=
200812200345 METAR LMML 200345Z 30009KT 9999 FEW025 10/07 Q1017 NOSIG=
200812200330 METAR LMML NIL=
200812200315 METAR LMML 200315Z 31010KT 9999 FEW025 10/07 Q1017 NOSIG=
200812200300 METAR LMML NIL=
200812200245 METAR LMML 200245Z 30009KT 9999 FEW025 11/07 Q1017 NOSIG=
200812200230 METAR LMML NIL=
200812200215 METAR LMML 200215Z 30009KT 270V330 9999 FEW025 11/07 Q1017
                        NOSIG=
200812200200 METAR LMML NIL=
200812200145 METAR LMML 200145Z 30009KT 9999 FEW025 10/07 Q1017 NOSIG=
200812200130 METAR LMML NIL=
200812200115 METAR LMML 200115Z 30008KT 9999 FEW025 11/07 Q1017 NOSIG=
200812200100 METAR LMML NIL=
200812200045 METAR LMML 200045Z 31009KT 9999 FEW025 11/07 Q1017 NOSIG=
200812200030 METAR LMML NIL=
200812200015 METAR LMML 200015Z 31011KT 9999 FEW025 11/07 Q1017 NOSIG=
200812200000 METAR LMML NIL=
200812192345 METAR LMML 192345Z 30010KT 9999 FEW025 11/07 Q1017 NOSIG=
200812192330 METAR LMML NIL=
200812192315 METAR LMML 192315Z 31010KT 9999 FEW025 11/07 Q1017 NOSIG=
200812192300 METAR LMML NIL=
200812192245 METAR LMML 192245Z 30008KT 9999 FEW025 11/07 Q1017 NOSIG=
200812192230 METAR LMML NIL=
200812192215 METAR LMML 192215Z 30007KT 9999 FEW028 11/07 Q1017 NOSIG=
200812192200 METAR LMML NIL=
200812192145 METAR LMML 192145Z 32007KT 9999 FEW028 10/08 Q1017 TEMPO
                        SHRA=
200812192130 METAR LMML NIL=
200812192115 METAR LMML 192115Z 28005KT 240V310 9999 FEW029 SCT100 11/08
                        Q1017 TEMPO 3000 TSRA BKN015CB=
200812192100 METAR LMML NIL=
200812192045 METAR LMML 192045Z VRB02KT 9999 FEW026 SCT110 10/08 Q1017
                        TEMPO 3000 TSRA BKN015CB=
200812192030 METAR LMML NIL=
200812192015 METAR LMML 192015Z 33006KT 9999 -RA FEW023 BKN050 11/08 Q1018
                        TEMPO 3000 TSRA BKN015CB=
200812192000 METAR LMML NIL=
200812191945 METAR LMML 191945Z 25004KT 200V290 9999 SCT027 BKN060 11/08
                        Q1018 TEMPO 3000 TSRA BKN015CB=
200812191930 METAR LMML NIL=
200812191915 METAR LMML 191915Z 26006KT 9999 FEW035 SCT120 11/08 Q1018
                        TEMPO 3000 TSRA BKN015CB=
200812191900 METAR LMML NIL=
200812191845 METAR LMML 191845Z 29011KT 250V310 9999 SCT029 SCT120 12/08
                        Q1018 TEMPO 3000 TSRA BKN015CB=
200812191830 METAR LMML NIL=
200812191815 METAR LMML 191815Z 30009KT 270V330 9999 SCT029TCU BKN120
                        12/08 Q1018 TEMPO 3000 TSRA BKN015CB
                        RMK LIGHTNING TO SW=
200812191800 METAR LMML NIL=
200812191745 METAR LMML 191745Z 28011KT 240V310 9999 SCT024TCU SCT100
                        12/08 Q1018 TEMPO 3000 TSRA BKN015CB=
200812191730 METAR LMML NIL=
200812191715 METAR LMML 191715Z 29019KT 9999 BKN024TCU 11/08 Q1018 TEMPO
                        8000 SHRA BKN015=
200812191700 METAR LMML NIL=
200812191645 METAR LMML 191645Z 29009KT 250V320 9999 BKN028TCU 12/09 Q1017
                        RESH TEMPO 8000 SHRA BKN015=
200812191630 METAR LMML NIL=
200812191615 METAR LMML 191615Z 29010KT 9999 BKN030TCU 12/08 Q1017 RESH
                        TEMPO 3000 TSRA BKN015CB=
200812191600 METAR LMML NIL=
200812191545 METAR LMML 191545Z 29013KT 9999 SHRA BKN030TCU 13/07 Q1017
                        TEMPO 3000 TSRA BKN015CB=
200812191530 METAR LMML NIL=
200812191515 METAR LMML 191515Z 28015KT 240V320 9999 BKN031 14/08 Q1017
                        TEMPO 8000 SHRA BKN015=
200812191500 METAR LMML NIL=
200812191445 METAR LMML 191445Z 27015KT 230V310 9999 BKN031 SCT250 14/08
                        Q1017 NOSIG=
200812191430 METAR LMML NIL=
200812191415 METAR LMML 191415Z 28014KT 220V310 9999 -SHRA BKN029 SCT250
                        14/08 Q1017 NOSIG=
200812191400 METAR LMML NIL=
200812191345 METAR LMML 191345Z 28014KT 240V310 9999 SCT034 BKN250 14/08
                        Q1017 NOSIG=
200812191330 METAR LMML NIL=
200812191315 METAR LMML 191315Z 27014KT 240V310 9999 SCT035 BKN250 15/08
                        Q1017 NOSIG=
200812191300 METAR LMML NIL=
200812191245 METAR LMML 191245Z 27015KT 240V310 9999 SCT034 BKN250 15/07
                        Q1017 NOSIG=
200812191230 METAR LMML NIL=
200812191215 METAR LMML 191215Z 27014KT 230V300 9999 SCT034 15/08 Q1018
                        NOSIG=
200812191200 METAR LMML NIL=
200812191145 METAR LMML 191145Z 27015KT 240V300 9999 SCT034 15/07 Q1018
                        NOSIG=
200812191130 METAR LMML NIL=
200812191115 METAR LMML 191115Z 27016KT 230V310 9999 SCT035 15/08 Q1019
                        NOSIG=
200812191100 METAR LMML NIL=
200812191045 METAR LMML 191045Z 28015KT 9999 SCT036 15/08 Q1019 NOSIG=
200812191030 METAR LMML NIL=
200812191015 METAR LMML 191015Z 29016KT 9999 SCT035 15/08 Q1019 NOSIG=
200812191000 METAR LMML NIL=
200812190945 METAR LMML 190945Z 28015KT 240V310 9999 SCT037 15/07 Q1019
                        NOSIG=
200812190930 METAR LMML NIL=
200812190915 METAR LMML 190915Z 28013KT 240V300 9999 SCT037 15/07 Q1019
                        NOSIG=
200812190900 METAR LMML NIL=
200812190845 METAR LMML 190845Z 28014KT 9999 FEW035 15/07 Q1019 NOSIG=
200812190830 METAR LMML NIL=
200812190815 METAR LMML 190815Z 28010KT 230V320 9999 FEW036 14/07 Q1019
                        NOSIG=
200812190800 METAR LMML NIL=
200812190745 METAR LMML 190745Z 28008KT 250V310 9999 FEW034 14/08 Q1019
                        NOSIG=
200812190730 METAR LMML NIL=
200812190715 METAR LMML 190715Z 27008KT 240V310 9999 FEW035 13/07 Q1019
                        NOSIG=
200812190700 METAR LMML NIL=
200812190645 METAR LMML 190645Z 28009KT 9999 FEW034 12/06 Q1019 NOSIG=
200812190630 METAR LMML NIL=
200812190615 METAR LMML 190615Z 28008KT 9999 FEW034 12/06 Q1018 NOSIG=
200812190600 METAR LMML NIL=
200812190545 METAR LMML 190545Z 29010KT 250V310 9999 FEW034 12/07 Q1018
                        NOSIG=
200812190530 METAR LMML NIL=
200812190515 METAR LMML 190515Z 28011KT 250V310 9999 SCT034 13/07 Q1018
                        NOSIG=
200812190500 METAR LMML NIL=
200812190445 METAR LMML 190445Z 28010KT 9999 SCT035 13/07 Q1018 NOSIG=
200812190430 METAR LMML NIL=
200812190415 METAR LMML 190415Z 28011KT 9999 SCT034 13/07 Q1018 NOSIG=
200812190400 METAR LMML NIL=
200812190345 METAR LMML 190345Z 28011KT 250V310 9999 SCT035 13/08 Q1018
                        NOSIG=
200812190330 METAR LMML NIL=
200812190315 METAR LMML 190315Z 28011KT 240V300 9999 SCT034 13/07 Q1018
                        TEMPO 8000 SHRA=
200812190245 METAR LMML 190245Z 28010KT 240V320 9999 SCT032 13/07 Q1018
                        TEMPO 8000 SHRA=
200812190230 METAR LMML NIL=
200812190215 METAR LMML 190215Z 28010KT 250V320 9999 SCT034 13/07 Q1018
                        TEMPO 8000 SHRA=
200812190200 METAR LMML NIL=
200812190145 METAR LMML 190145Z 28011KT 240V300 9999 SCT034 13/07 Q1018
                        TEMPO 8000 SHRA=
200812190130 METAR LMML NIL=
200812190115 METAR LMML 190115Z 28010KT 240V310 9999 SCT034 13/07 Q1018
                        TEMPO 8000 SHRA=
200812190100 METAR LMML NIL=
200812190045 METAR LMML 190045Z 28013KT 220V310 9999 SCT035 13/07 Q1018
                        TEMPO 8000 SHRA=
200812190030 METAR LMML NIL=
200812190015 METAR LMML 190015Z 27011KT 240V310 9999 SCT032 13/07 Q1018
                        TEMPO 8000 SHRA=
200812190000 METAR LMML NIL=
200812182345 METAR LMML 182345Z 27010KT 240V310 9999 SCT034 13/08 Q1018
                        TEMPO 8000 SHRA SCT015TCU=
200812182330 METAR LMML NIL=
200812182315 METAR LMML 182315Z 26013KT 230V290 9999 SCT035 14/07 Q1018
                        TEMPO 8000 SHRA SCT015TCU=
200812182300 METAR LMML NIL=
200812182245 METAR LMML 182245Z 28014KT 240V320 9999 SCT031 14/08 Q1018
                        TEMPO 8000 SHRA SCT015TCU=
200812182230 METAR LMML NIL=
200812182215 METAR LMML 182215Z 24013KT 200V310 9999 SCT024 SCT120 13/09
                        Q1017 TEMPO 7000 SHRA SCT015TCU=
200812182145 METAR LMML 182145Z 28013KT 250V310 9999 FEW034 14/08 Q1017
                        TEMPO 7000 SHRA SCT015TCU=
200812182130 METAR LMML NIL=
200812182115 METAR LMML 182115Z 28015KT 240V310 9999 FEW035 14/08 Q1017
                        TEMPO 7000 SHRA=
200812182100 METAR LMML NIL=
200812182045 METAR LMML 182045Z 27015KT 9999 SCT035 14/08 Q1017 TEMPO
                        7000 SHRA=
200812182030 METAR LMML NIL=
200812182015 METAR LMML 182015Z 27017KT 240V300 9999 SCT034 14/08 Q1017
                        TEMPO 7000 SHRA=
200812181945 METAR LMML 181945Z 27010KT 230V300 9999 SCT033 14/08 Q1017
                        TEMPO 7000 SHRA=
200812181915 METAR LMML 181915Z 27016KT 240V310 9999 SCT034 14/08 Q1017
                        TEMPO 7000 SHRA=
200812181900 METAR LMML NIL=
200812181845 METAR LMML 181845Z 27014KT 230V290 9999 -SHRA BKN024 14/09
                        Q1017 TEMPO 7000 SHRA=
200812181830 METAR LMML NIL=
200812181815 METAR LMML 181815Z 27013KT 240V310 9999 SCT028 13/08 Q1016
                        TEMPO 7000 SHRA=
200812181800 METAR LMML NIL=
200812181745 METAR LMML 181745Z 28012KT 9999 FEW028 SCT060 13/09 Q1016
                        TEMPO 7000 SHRA=
200812181730 METAR LMML NIL=
200812181715 METAR LMML 181715Z 24012KT 210V290 9999 SCT033 SCT060 12/09
                        Q1016 TEMPO 7000 SHRA SCT015TCU=
200812181700 METAR LMML NIL=
200812181645 METAR LMML 181645Z 28014KT 250V310 9999 SCT033 SCT060 13/08
                        Q1015 TEMPO 7000 SHRA SCT015TCU=
200812181630 METAR LMML NIL=
200812181615 METAR LMML 181615Z 27016G26KT 220V300 9999 -SHRA BKN030 13/10
                        Q1015 TEMPO 7000 SHRA SCT015TCU=
200812181600 METAR LMML NIL=
200812181545 METAR LMML 181545Z 26015KT 210V290 9999 SCT033 14/08 Q1015
                        TEMPO 7000 SHRA SCT015TCU=
200812181530 METAR LMML NIL=
200812181515 METAR LMML 181515Z 26014KT 230V300 9999 SCT029 14/08 Q1015
                        TEMPO 7000 SHRA SCT015TCU=
200812181500 METAR LMML NIL=
200812181445 METAR LMML 181445Z 27015G25KT 230V300 9999 SCT030 14/09 Q1014
                        TEMPO 7000 SHRA SCT15TCU=
200812181430 METAR LMML NIL=
200812181415 METAR LMML 181415Z 26014G24KT 220V310 9999 BKN023 13/10 Q1014
                        TEMPO 7000 SHRA SCT15TCU=
200812181400 METAR LMML NIL=
200812181345 METAR LMML 181345Z 26015KT 230V290 9999 BKN032 15/09 Q1014
                        TEMPO 7000 SHRA SCT15TCU=
200812181330 METAR LMML NIL=
200812181315 METAR LMML 181315Z 26014KT 220V300 9999 SCT032 15/09 Q1014
                        TEMPO 7000 SHRA SCT15TCU=
200812181300 METAR LMML NIL=
200812181245 METAR LMML 181245Z 28017KT 230V310 9999 SCT030 14/08 Q1013
                        TEMPO 7000 SHRA SCT15TCU=
200812181230 METAR LMML NIL=
200812181215 METAR LMML 181215Z 27015KT 230V310 9999 SCT020 SCT070 15/09
                        Q1013 TEMPO 7000 SHRA SCT15TCU=
200812181200 METAR LMML NIL=
200812181145 METAR LMML 181145Z 27014KT 220V300 9999 SCT028 15/09 Q1013
                        TEMPO 7000 SHRA SCT15TCU=
200812181130 METAR LMML NIL=
200812181115 METAR LMML 181115Z 27014G24KT 220V300 9999 SCT028 15/10 Q1013
                        TEMPO 7000 SHRA SCT15TCU=
200812181100 METAR LMML NIL=
200812181045 METAR LMML 181045Z 27014KT 230V310 9999 SCT027 15/10 Q1013
                        TEMPO 5000 SHRA BKN015TCU=
200812181030 METAR LMML NIL=
200812181015 METAR LMML 181015Z 27018KT 240V300 9999 BKN027 14/09 Q1013
                        TEMPO 5000 SHRA BKN015TCU=
200812181000 METAR LMML NIL=
200812180945 METAR LMML 180945Z 27017G27KT 230V310 9999 BKN026TCU 14/10
                        Q1013 TEMPO 5000 SHRA BKN015TCU=
200812180930 METAR LMML NIL=
200812180915 METAR LMML 180915Z 27016KT 220V300 9000 -SHRA BKN025TCU 14/10
                        Q1013 TEMPO 5000 SHRA BKN015TCU=
200812180900 METAR LMML NIL=
200812180845 METAR LMML 180845Z 28011G21KT 240V320 9000 -SHRA FEW020TCU
                        BKN024 13/10 Q1013 TEMPO 5000 SHRA
                        BKN015TCU=
200812180830 METAR LMML NIL=
200812180815 METAR LMML 180815Z 28019KT 240V310 9000 -SHRA FEW014 BKN022
                        13/11 Q1013 TEMPO 5000 SHRA BKN015TCU=
200812180800 METAR LMML NIL=
200812180745 METAR LMML 180745Z 27014KT 230V320 9000 -SHRA BKN023 14/10
                        Q1012 TEMPO 5000 TSRA BKN015CB=
200812180730 METAR LMML NIL=
200812180715 METAR LMML 180715Z 28017KT 250V310 9000 FEW018CB BKN023 13/08
                        Q1011 TEMPO 5000 TSRA BKN015CB=
200812180700 METAR LMML NIL=
200812180645 METAR LMML 180645Z 26016KT 230V300 9000 SCT018CB BKN022 13/09
                        Q1011 TEMPO 5000 TSRA BKN015CB=
200812180630 METAR LMML NIL=
200812180615 METAR LMML 180615Z 25019KT 200V290 6000 -SHRA SCT024CB BKN032
                        13/10 Q1010 TEMPO 5000 TSRA BKN015CB
                        RMK LIGHTNING TO NORTH=
200812180600 METAR LMML NIL=
200812180545 LMML 180545Z 24017G27KT 210V290 9999 SCT027CB SCT030 13/09
                        Q1010 TEMPO 5000 TSRA BKN015CB RMK
                        LIGHTNING TO N=
200812180530 METAR LMML NIL=
200812180515 METAR LMML 180515Z 24016KT 200V280 9999 SCT027 SCT060 14/09
                        Q1010 TEMPO 8000 SHRA=
200812180500 METAR LMML NIL=
200812180445 METAR LMML 180445Z 24018KT 200V290 9999 SCT029 14/08 Q1009
                        TEMPO 8000 SHRA=
200812180430 METAR LMML NIL=
200812180415 METAR LMML 180415Z 24018G31KT 200V280 9999 SCT032 14/08 Q1009
                        TEMPO 8000 SHRA=
200812180400 METAR LMML NIL=
200812180345 METAR LMML 180345Z 24018G29KT 180V290 9999 SCT030 13/07 Q1009
                        TEMPO 8000 SHRA=
200812180330 METAR LMML NIL=
200812180315 METAR LMML 180315Z 24016KT 200V280 9999 SCT032 13/07 Q1009
                        NOSIG=
200812180300 METAR LMML NIL=
200812180245 METAR LMML 180245Z 24017KT 200V290 9999 SCT032 13/07 Q1009
                        NOSIG=
200812180230 LMML NIL=
200812180215 METAR LMML 180215Z 23015G27KT 190V270 9999 SCT031 13/07 Q1010
                        NOSIG=
200812180200 METAR LMML NIL=
200812180145 METAR LMML 180145Z 23015G26KT 200V280 9999 SCT035 SCT045
                        13/06 Q1010 NOSIG=
200812180130 METAR LMML NIL=
200812180115 METAR LMML 180115Z 24015KT 190V290 9999 SCT034 SCT045 13/06
                        Q1010 NOSIG=
200812180100 METAR LMML NIL=
200812180045 METAR LMML 180045Z 24018KT 200V280 9999 SCT033 13/06 Q1010
                        NOSIG=
200812180015 METAR LMML 180015Z 24017KT 200V290 9999 SCT034 13/07 Q1010
                        NOSIG=
200812172345 METAR LMML 172345Z 24013KT 200V290 9999 SCT034 13/07 Q1010
                        NOSIG=
200812172330 METAR LMML NIL=
200812172315 METAR LMML 172315Z 24017KT 200V290 9999 SCT038 13/05 Q1011
                        NOSIG=
200812172300 METAR LMML NIL=
200812172245 METAR LMML 172245Z 24017G28KT 210V280 9999 SCT039 13/05 Q1011
                        NOSIG=
200812172215 METAR LMML 172215Z 24017G27KT 200V270 9999 SCT038 13/05 Q1011
                        NOSIG=
200812172145 METAR LMML 172145Z 24016KT 200V280 9999 SCT042 13/06 Q1011
                        NOSIG=
200812172130 METAR LMML NIL=
200812172115 METAR LMML 172115Z 24016G26KT 200V270 9999 SCT043 13/05 Q1012
                        NOSIG=
200812172100 METAR LMML NIL=
200812172045 METAR LMML 172045Z 24016KT 210V280 9999 SCT043 13/03 Q1011
                        NOSIG=
200812172015 METAR LMML 172015Z 23015KT 200V310 9999 SCT042 13/04 Q1011
                        NOSIG=
200812171945 METAR LMML 171945Z 24015KT 200V280 9999 SCT041 13/05 Q1011
                        NOSIG=
200812171930 METAR LMML NIL=
200812171915 METAR LMML 171915Z 24013KT 190V280 9999 SCT044 13/05 Q1011
                        NOSIG=
200812171900 METAR LMML NIL=
200812171845 METAR LMML 171845Z 24016KT 200V290 9999 SCT043 13/04 Q1011
                        NOSIG=
200812171830 METAR LMML NIL=
200812171815 METAR LMML 171815Z 24015KT 200V300 9999 SCT043 13/05 Q1011
                        NOSIG=
200812171800 METAR LMML NIL=
200812171745 METAR LMML 171745Z 24015KT 200V290 9999 SCT047 13/04 Q1011
                        NOSIG=
200812171730 METAR LMML NIL=
200812171715 METAR LMML 171715Z 24016KT 200V280 9999 FEW039 13/04 Q1011
                        NOSIG=
200812171700 METAR LMML NIL=
200812171645 METAR LMML 171645Z 24015KT 190V280 9999 FEW041 13/05 Q1011
                        NOSIG=
200812171630 METAR LMML NIL=
200812171615 METAR LMML 171615Z 25014KT 210V280 9999 FEW041 13/05 Q1010
                        NOSIG=
200812171600 METAR LMML NIL=
200812171545 METAR LMML 171545Z 25015KT 200V290 9999 SCT040 BKN120 13/05
                        Q1010 NOSIG=
200812171530 METAR LMML NIL=
200812171515 METAR LMML 171515Z 25012KT 200V290 9999 FEW032 SCT060 BKN120
                        13/06 Q1010 NOSIG=
200812171500 METAR LMML NIL=
200812171445 METAR LMML 171445Z 24014KT 200V280 9999 FEW030 SCT060 BKN120
                        13/06 Q1010 NOSIG=
200812171430 METAR LMML NIL=
200812171415 METAR LMML 171415Z 24013KT 190V280 9999 -SHRA FEW030 SCT060
                        BKN120 14/05 Q1010 NOSIG=
200812171400 METAR LMML NIL=
200812171345 METAR LMML 171345Z 24013KT 200V290 9999 -SHRA FEW030 BKN120
                        14/05 Q1010 NOSIG=
200812171330 METAR LMML NIL=
200812171315 METAR LMML 171315Z 25013KT 200V290 9999 FEW030 SCT120 15/06
                        Q1010 NOSIG=
200812171300 METAR LMML NIL=
200812171230 METAR LMML NIL=
200812171215 METAR LMML 171215Z 24012KT 200V290 9999 FEW030 16/07 Q1010
                        NOSIG=
200812171200 METAR LMML NIL=
200812171145 METAR LMML 171145Z 26011KT 210V300 9999 FEW031 16/07 Q1010
                        NOSIG=
200812171130 METAR LMML NIL=
200812171115 METAR LMML 171115Z 26013KT 210V290 9999 FEW031 16/09 Q1010
                        NOSIG=
200812171100 METAR LMML NIL=
200812171045 METAR LMML 171045Z 25010KT 200V290 9999 FEW030 16/10 Q1010
                        NOSIG=
200812171015 METAR LMML 171015Z 25009KT 210V280 9999 FEW030 SCT120 16/10
                        Q1011 NOSIG=
200812171000 METAR LMML NIL=
200812170945 METAR LMML 170945Z 23006KT 200V280 9999 FEW032 FEW090 BKN120
                        16/10 Q1011 NOSIG=
200812170930 METAR LMML NIL=
200812170915 METAR LMML 170915Z 26005KT 230V300 9999 FEW025 BKN120 15/10
                        Q1010 NOSIG=
200812170900 METAR LMML NIL=
200812170845 METAR LMML 170845Z 28004KT 240V320 9999 FEW025 BKN120 15/10
                        Q1010 NOSIG=
200812170830 METAR LMML NIL=
200812170815 METAR LMML 170815Z VRB03KT 9999 FEW025 BKN120 14/10 Q1011
                        NOSIG=
200812170800 METAR LMML NIL=
200812170745 METAR LMML 170745Z VRB02KT 9999 FEW025 SCT090 BKN120 14/10
                        Q1010 NOSIG=
200812170730 METAR LMML NIL=
200812170715 METAR LMML 170715Z 29004KT CAVOK 13/09 Q1009 NOSIG=
200812170700 METAR LMML NIL=
200812170645 METAR LMML 170645Z 29004KT 260V320 CAVOK 13/08 Q1010 NOSIG=
200812170630 METAR LMML NIL=
200812170615 METAR LMML 170615Z 26005KT 210V300 CAVOK 12/08 Q1010 NOSIG=
200812170600 METAR LMML NIL=
200812170545 METAR LMML 170545Z 33004KT CAVOK 12/08 Q1010 NOSIG=
200812170530 METAR LMML NIL=
200812170515 METAR LMML 170515Z 23005KT CAVOK 12/08 Q1012 NOSIG=
200812170500 METAR LMML NIL=
200812170445 METAR LMML 170445Z VRB01KT CAVOK 12/08 Q1009 NOSIG=
200812170430 METAR LMML NIL=
200812170415 METAR LMML 170415Z VRB02KT CAVOK 12/08 Q1009 NOSIG=
200812170400 METAR LMML NIL=
200812170345 METAR LMML 170345Z VRB03KT CAVOK 12/08 Q1009 NOSIG=
200812170330 METAR LMML NIL=
200812170315 METAR LMML 170315Z VRB03KT CAVOK 11/08 Q1008 NOSIG=
200812170300 METAR LMML NIL=
200812170245 METAR LMML 170245Z VRB03KT CAVOK 12/07 Q1010 NOSIG=
200812170215 METAR LMML 170215Z 30005KT CAVOK 11/07 Q1010 NOSIG=
200812170200 METAR LMML NIL=
200812170145 METAR LMML 170145Z 23004KT CAVOK 11/08 Q1011 NOSIG=
200812170130 METAR LMML NIL=
200812170115 METAR LMML 170115Z 30004KT CAVOK 11/08 Q1010 NOSIG=
200812170100 METAR LMML NIL=
200812170045 METAR LMML 170045Z 28004KT CAVOK 12/08 Q1010 NOSIG=
200812170030 METAR LMML NIL=
200812170015 METAR LMML 170015Z VRB03KT CAVOK 12/09 Q1010 NOSIG=
200812170000 METAR LMML NIL=
200812162345 METAR LMML 162345Z 29004KT 260V320 9999 FEW020 13/09 Q1011
                        NOSIG=
200812162330 METAR LMML NIL=
200812162315 METAR LMML 162315Z 28005KT 250V310 9999 FEW020 13/09 Q1011
                        NOSIG=
200812162300 METAR LMML NIL=
200812162245 METAR LMML 162245Z 28004KT 250V310 9999 FEW020 13/10 Q1011
                        NOSIG=
200812162230 METAR LMML NIL=
200812162215 METAR LMML 162215Z 30005KT 9999 FEW020 13/10 Q1011 NOSIG=
200812162200 METAR LMML NIL=
200812162145 METAR LMML 162145Z 30005KT 270V330 9999 FEW020 13/11 Q1011
                        NOSIG=
200812162130 METAR LMML NIL=
200812162115 METAR LMML 162115Z 29006KT 260V330 9999 FEW020 14/11 Q1012
                        NOSIG=
200812162100 METAR LMML NIL=
200812162045 METAR LMML 162045Z 30006KT 9999 FEW020 14/12 Q1011 NOSIG=
200812162030 METAR LMML NIL=
200812162015 METAR LMML 162015Z 30005KT 9999 FEW021 14/12 Q1011 NOSIG=
200812162000 METAR LMML NIL=
200812161945 METAR LMML 161945Z 30005KT 270V330 CAVOK 14/12 Q1011 NOSIG=
200812161930 METAR LMML NIL=
200812161915 METAR LMML 161915Z 31006KT 9999 FEW014 13/12 Q1011 NOSIG=
200812161900 METAR LMML NIL=
200812161845 METAR LMML 161845Z 31004KT 9999 BKN014 14/12 Q1011 NOSIG=
200812161830 METAR LMML NIL=
200812161815 METAR LMML 161815Z 31004KT 9999 BKN014 14/12 Q1011 NOSIG=
200812161800 METAR LMML NIL=
200812161745 METAR LMML 161745Z 31005KT 9999 BKN014 14/12 Q1011 NOSIG=
200812161730 METAR LMML NIL=
200812161715 METAR LMML 161715Z 33004KT 290V360 9999 BKN014 15/13 Q1011
                        NOSIG=
200812161700 METAR LMML NIL=
200812161645 METAR LMML 161645Z 33006KT 9999 BKN012 15/13 Q1011 NOSIG=
200812161630 METAR LMML NIL=
200812161615 METAR LMML 161615Z 34007KT 9999 SCT013 15/13 Q1010 NOSIG=
200812161600 METAR LMML NIL=
200812161545 METAR LMML 161545Z 35007KT 9999 FEW015 15/13 Q1011 NOSIG=
200812161530 METAR LMML NIL=
200812161515 METAR LMML 161515Z 33008KT 9999 FEW015 16/13 Q1011 NOSIG=
200812161500 METAR LMML NIL=
200812161445 METAR LMML 161445Z 33008KT 300V360 9999 SCT017 17/14 Q1011
                        NOSIG=
200812161415 METAR LMML 161415Z 34007KT 9999 SCT019 18/14 Q1011 NOSIG=
200812161400 METAR LMML NIL=
200812161345 METAR LMML 161345Z 34006KT 310V030 CAVOK 19/14 Q1011 NOSIG=
200812161330 METAR LMML NIL=
200812161315 METAR LMML 161315Z 01005KT 340V060 CAVOK 20/15 Q1011 NOSIG=
200812161300 METAR LMML NIL=
200812161245 METAR LMML 161245Z VRB02KT CAVOK 20/14 Q1011 NOSIG=
200812161230 METAR LMML NIL=
200812161215 METAR LMML 161215Z VRB02KT CAVOK 20/15 Q1011 NOSIG=
200812161200 METAR LMML NIL=
200812161145 METAR LMML 161145Z VRB02KT 8000 FEW015 20/14 Q1011 BECMG
                        9999=
200812161115 METAR LMML 161115Z 20004KT 150V260 8000 SCT014 20/15 Q1012
                        BECMG 9999=
200812161100 METAR LMML NIL=
200812161045 METAR LMML 161045Z 22005KT 160V280 8000 BKN013 19/15 Q1012
                        BECMG 9999 SCT015=
200812161015 METAR LMML 161015Z 17005KT 140V220 8000 BKN014 19/15 Q1012
                        BECMG 9999 SCT015=
200812161000 METAR LMML NIL=
200812160945 METAR LMML 160945Z 19004KT 150V230 8000 BKN013 19/16 Q1012
                        BECMG 9999 SCT015=
200812160915 METAR LMML 160915Z 19006KT 160V230 8000 FEW012 19/16 Q1012
                        BECMG 9999=
200812160900 METAR LMML NIL=
200812160845 METAR LMML 160845Z 20006KT 150V250 9000 FEW020 19/16 Q1012
                        NOSIG=
200812160830 METAR LMML NIL=
200812160815 METAR LMML 160815Z 19007KT 160V230 8000 FEW015 18/16 Q1012
                        BECMG 9999=
200812160800 METAR LMML NIL=
200812160745 METAR LMML 160745Z 18008KT 160V220 8000 SCT015 18/15 Q1012
                        BECMG 9999=
200812160730 METAR LMML NIL=
200812160715 METAR LMML 160715Z 18008KT 7000 SCT015 17/15 Q1012 BECMG
                        9999=
200812160645 METAR LMML 160645Z 18007KT 150V210 7000 SCT015 17/15 Q1011
                        NOSIG=
200812160630 METAR LMML NIL=
200812160530 METAR LMML NIL=
200812160515 METAR LMML 160515Z 19006KT 160V220 9000 FEW015 17/15 Q1011
                        NOSIG=
200812160500 METAR LMML NIL=
200812160445 METAR LMML 160445Z 18006KT 140V210 9000 FEW015 17/15 Q1011
                        NOSIG=
200812160430 METAR LMML NIL=
200812160415 METAR LMML 160415Z 18006KT 150V210 9000 FEW015 17/15 Q1011
                        NOSIG=
200812160400 METAR LMML NIL=
200812160345 METAR LMML 160345Z 17007KT 150V210 9999 SCT017 17/15 Q1011
                        NOSIG=
200812160330 METAR LMML NIL=
200812160315 METAR LMML 160315Z 17008KT 140V210 9999 SCT017 17/15 Q1011
                        NOSIG=
200812160300 METAR LMML NIL=
200812160245 METAR LMML 160245Z 17007KT 140V210 9999 SCT018 17/14 Q1011
                        NOSIG=
200812160230 METAR LMML NIL=
200812160215 METAR LMML 160215Z 17006KT 130V210 9999 SCT019 17/14 Q1011
                        NOSIG=
200812160200 METAR LMML NIL=
200812160145 METAR LMML 160145Z 17007KT 140V200 9999 BKN019 17/15 Q1011
                        NOSIG=
200812160130 METAR LMML NIL=
200812160115 METAR LMML 160115Z 17009KT 140V210 9999 BKN017 17/14 Q1011
                        NOSIG=
200812160100 METAR LMML NIL=
200812160045 METAR LMML 160045Z 17009KT 140V210 9999 BKN018 17/14 Q1011
                        NOSIG=
200812160015 METAR LMML 160015Z 16011KT 130V200 9999 BKN017 17/14 Q1011
                        NOSIG=
200812160000 METAR LMML NIL=
200812152345 METAR LMML 152345Z 16012KT 140V200 9999 SCT016 17/15 Q1011
                        NOSIG=
200812152330 METAR LMML NIL=
200812152315 METAR LMML 152315Z 16013KT 130V200 9999 SCT018 17/14 Q1011
                        NOSIG=
200812152300 METAR LMML NIL=
200812152245 METAR LMML 152245Z 17010KT 140V220 9999 SCT022 17/14 Q1011
                        NOSIG=
200812152230 METAR LMML NIL=
200812152215 METAR LMML 152215Z 16013KT 130V200 9999 SCT023 17/13 Q1011
                        NOSIG=
200812152200 METAR LMML NIL=
200812152145 METAR LMML 152145Z 16012KT 140V200 9999 SCT023 17/13 Q1011
                        NOSIG=
200812152130 METAR LMML NIL=
200812152115 METAR LMML 152115Z 16015KT 120V190 9999 SCT026 17/13 Q1011
                        NOSIG=
200812152100 METAR LMML NIL=
200812152045 METAR LMML 152045Z 16013KT 130V190 9999 SCT026 17/12 Q1011
                        NOSIG=
200812152030 METAR LMML NIL=
200812152000 METAR LMML NIL=
200812151945 METAR LMML 151945Z 16015KT 9999 SCT029 17/12 Q1011 NOSIG=
200812151930 METAR LMML NIL=
200812151915 METAR LMML 151915Z 15013KT 120V180 9999 SCT027 17/12 Q1011
                        NOSIG=
200812151900 METAR LMML NIL=
200812151845 METAR LMML 151845Z 15013KT 110V190 9999 SCT029 17/12 Q1011
                        NOSIG=
200812151830 METAR LMML NIL=
200812151815 METAR LMML 151815Z 15012KT 120V190 9999 FEW033 16/11 Q1011
                        NOSIG=
200812151800 METAR LMML NIL=
200812151745 METAR LMML 151745Z 14013KT 9999 FEW032 16/10 Q1011 NOSIG=
200812151730 METAR LMML NIL=
200812151715 METAR LMML 151715Z 15012KT 120V180 9999 FEW033 16/10 Q1011
                        NOSIG=
200812151700 METAR LMML NIL=
200812151645 METAR LMML 151645Z 14013KT 110V170 9999 FEW031 16/11 Q1010
                        NOSIG=
200812151630 METAR LMML NIL=
200812151615 METAR LMML 151615Z 16012KT 130V190 9999 FEW035 16/10 Q1010
                        NOSIG=
200812151600 METAR LMML NIL=
200812151545 METAR LMML 151545Z 15012KT 9999 FEW035 17/10 Q1010 NOSIG=
200812151530 METAR LMML NIL=
200812151515 METAR LMML 151515Z 15013KT 9999 FEW036 17/09 Q1010 NOSIG=
200812151500 METAR LMML NIL=
200812151445 METAR LMML 151445Z 15013KT 120V190 9999 FEW040 17/09 Q1010
                        NOSIG=
200812151430 METAR LMML NIL=
200812151415 METAR LMML 151415Z 16013KT 130V200 9999 FEW040 18/08 Q1010
                        NOSIG=
200812151400 METAR LMML NIL=
200812151345 METAR LMML 151345Z 16012KT 130V190 9999 FEW040 18/09 Q1010
                        NOSIG=
200812151330 METAR LMML NIL=
200812151315 METAR LMML 151315Z 16012KT 130V200 9999 FEW040 18/10 Q1010
                        NOSIG=
200812151300 METAR LMML NIL=
200812151245 METAR LMML 151245Z 17012KT 140V210 9999 FEW044 18/09 Q1010
                        NOSIG=
200812151230 METAR LMML NIL=
200812151215 METAR LMML 151215Z 16012KT 140V200 9999 FEW044 18/09 Q1010
                        NOSIG=
200812151200 METAR LMML NIL=
200812151145 METAR LMML 151145Z 17012KT 130V210 9999 FEW044 18/09 Q1011
                        NOSIG=
200812151130 METAR LMML NIL=
200812151115 METAR LMML 151115Z 17012KT 130V200 9999 FEW045 SCT250 18/08
                        Q1011 NOSIG=
200812151100 METAR LMML NIL=
200812151045 METAR LMML 151045Z 17010KT 140V210 9999 FEW041 SCT250 18/09
                        Q1011 NOSIG=
200812151030 METAR LMML NIL=
200812151015 METAR LMML 151015Z 17012KT 9999 FEW039 SCT250 18/09 Q1012
                        NOSIG=
200812151000 METAR LMML NIL=
200812150945 METAR LMML 150945Z 17008KT 150V210 9999 SCT043 18/09 Q1012
                        NOSIG=
200812150930 METAR LMML NIL=
200812150915 METAR LMML 150915Z 18010KT 140V210 9999 FEW047 17/09 Q1012
                        NOSIG=
200812150900 METAR LMML NIL=
200812150845 METAR LMML 150845Z 18010KT 130V230 9999 FEW047 17/08 Q1012
                        NOSIG=
200812150830 METAR LMML NIL=
200812150815 METAR LMML 150815Z 17010KT 130V210 9999 FEW045 17/08 Q1012
                        NOSIG=
200812150800 METAR LMML NIL=
200812150745 METAR LMML 150745Z 18009KT 140V220 9999 FEW044 SCT120 16/08
                        Q1011 NOSIG=
200812150730 METAR LMML NIL=
200812150715 METAR LMML 150715Z 18009KT 150V210 9999 FEW045 BKN120 16/07
                        Q1011 NOSIG=
200812150700 METAR LMML NIL=
200812150645 METAR LMML 150645Z 17008KT 130V220 9999 SCT041 SCT120 16/09
                        Q1011 NOSIG=
200812150630 METAR LMML NIL=
200812150615 METAR LMML 150615Z 17009KT 140V200 9999 SCT040 SCT120 16/08
                        Q1011 NOSIG=
200812150600 METAR LMML NIL=
200812150545 METAR LMML 150545Z 17009KT 140V220 9999 FEW040 BKN120 16/08
                        Q1011 NOSIG=
200812150530 METAR LMML NIL=
200812150515 METAR LMML 150515Z 17010KT 130V210 9999 FEW039 BKN120 16/08
                        Q1010 NOSIG=
200812150500 METAR LMML NIL=
200812150445 METAR LMML 150445Z 18011KT 140V210 9999 FEW038 BKN120 16/08
                        Q1010 NOSIG=
200812150430 METAR LMML NIL=
200812150415 METAR LMML 150415Z 18012KT 150V210 9999 FEW038 BKN120 16/09
                        Q1010 NOSIG=
200812150400 METAR LMML NIL=
200812150345 METAR LMML 150345Z 19013KT 160V220 9999 FEW047 BKN120 16/07
                        Q1010 NOSIG=
200812150330 METAR LMML NIL=
200812150315 METAR LMML 150315Z 19010KT 160V220 9999 FEW047 BKN120 16/07
                        Q1010 NOSIG=
200812150300 METAR LMML NIL=
200812150245 METAR LMML 150245Z 19009KT 170V240 9999 FEW049 BKN120 16/07
                        Q1011 NOSIG=
200812150230 METAR LMML NIL=
200812150215 METAR LMML 150215Z 19009KT 150V230 9999 FEW049 BKN120 16/07
                        Q1011 NOSIG=
200812150145 METAR LMML 150145Z 19009KT 150V230 9999 FEW045 BKN110 16/07
                        Q1011 NOSIG=
200812150130 METAR LMML NIL=
200812150115 METAR LMML 150115Z 20010KT 170V250 9999 FEW044 SCT110 16/06
                        Q1011 NOSIG=
200812150100 METAR LMML NIL=
200812150045 METAR LMML 150045Z 19009KT 160V240 CAVOK 16/07 Q1011 NOSIG=
200812150015 METAR LMML 150015Z 20009KT 160V230 9999 FEW042 BKN110 16/07
                        Q1012 NOSIG=
200812150000 METAR LMML NIL=
200812142345 METAR LMML 142345Z 20008KT 170V240 9999 FEW042 BKN110 16/07
                        Q1012 NOSIG=
200812142330 METAR LMML NIL=
200812142315 METAR LMML 142315Z 20009KT 160V240 9999 FEW040 SCT120 16/08
                        Q1012 NOSIG=
200812142245 METAR LMML 142245Z 21008KT 170V260 9999 FEW039 SCT120 15/08
                        Q1012 NOSIG=
200812142230 METAR LMML NIL=
200812142215 METAR LMML 142215Z 21007KT 180V260 9999 FEW039 SCT250 15/08
                        Q1012 NOSIG=
200812142200 METAR LMML NIL=
200812142145 METAR LMML 142145Z 20007KT 160V240 9999 FEW036 SCT250 15/08
                        Q1012 NOSIG=
200812142130 METAR LMML NIL=
200812142115 METAR LMML 142115Z 20007KT 170V250 9999 FEW037 SCT250 15/08
                        Q1012 NOSIG=
200812142100 METAR LMML NIL=
200812142045 METAR LMML 142045Z 21008KT 170V260 9999 FEW039 SCT250 15/08
                        Q1012 NOSIG=
200812142030 METAR LMML NIL=
200812142015 METAR LMML 142015Z 21008KT 160V260 9999 FEW037 BKN250 15/08
                        Q1012 NOSIG=
200812142000 METAR LMML NIL=
200812141945 METAR LMML 141945Z 20009KT 140V240 9999 FEW036 SCT120 BKN250
                        15/08 Q1012 NOSIG=
200812141930 METAR LMML NIL=
200812141915 METAR LMML 141915Z 21008KT 160V250 9999 FEW037 SCT120 BKN250
                        15/08 Q1012 NOSIG=
200812141845 METAR LMML 141845Z 21009KT 170V250 9999 FEW039 SCT120 BKN250
                        15/07 Q1011 NOSIG=
200812141830 LMML NIL=
200812141815 METAR LMML 141815Z 21009KT 170V250 9999 FEW038 SCT120 BKN250
                        15/07 Q1011 NOSIG=
200812141800 METAR LMML NIL=
200812141745 METAR LMML 141745Z 21007KT 150V260 9999 FEW037 SCT130 BKN250
                        15/08 Q1011 NOSIG=
200812141730 METAR LMML NIL=
200812141715 METAR LMML 141715Z 21007KT 160V280 9999 SCT037 SCT130 BKN250
                        15/08 Q1011 NOSIG=
200812141700 METAR LMML NIL=
200812141645 METAR LMML 141645Z 21009KT 170V260 9999 SCT037 BKN250 15/07
                        Q1011 NOSIG=
200812141630 METAR LMML NIL=
200812141615 METAR LMML 141615Z 22010KT 180V270 9999 SCT037 BKN250 15/07
                        Q1011 NOSIG=
200812141600 METAR LMML NIL=
200812141545 METAR LMML 141545Z 21009KT 170V260 9999 SCT039 BKN250 15/08
                        Q1010 NOSIG=
200812141530 METAR LMML NIL=
200812141515 METAR LMML 141515Z 22007KT 190V270 9999 SCT038 BKN250 15/08
                        Q1010 NOSIG=
200812141500 METAR LMML NIL=
200812141445 METAR LMML 141445Z 22008KT 190V280 9999 SCT034 BKN250 15/08
                        Q1010 NOSIG=
200812141430 METAR LMML NIL=
200812141415 METAR LMML 141415Z 23010KT 200V270 9999 SCT035 BKN250 15/08
                        Q1010 NOSIG=
200812141400 METAR LMML NIL=
200812141345 METAR LMML 141345Z 23009KT 200V270 9999 FEW037 SCT250 15/08
                        Q1010 NOSIG=
200812141330 METAR LMML NIL=
200812141315 METAR LMML 141315Z 24012KT 180V280 9999 FEW036 SCT250 16/08
                        Q1010 NOSIG=
200812141300 METAR LMML NIL=
200812141245 METAR LMML 141245Z 24010KT 190V280 9999 FEW036 SCT250 16/09
                        Q1010 NOSIG=
200812141230 METAR LMML NIL=
200812141215 METAR LMML 141215Z 24011KT 210V290 9999 FEW035 16/08 Q1010
                        NOSIG=
200812141200 METAR LMML NIL=
200812141145 METAR LMML 141145Z 24013KT 210V280 9999 FEW035 16/09 Q1011
                        NOSIG=
200812141130 METAR LMML NIL=
200812141115 METAR LMML 141115Z 24011KT 190V280 9999 SCT033 16/08 Q1010
                        NOSIG=
200812141100 METAR LMML NIL=
200812141045 METAR LMML 141045Z 24013KT 200V280 9999 SCT036 16/08 Q1011
                        NOSIG=
200812141030 METAR LMML NIL=
200812141015 METAR LMML 141015Z 23014KT 200V270 9999 SCT036 15/08 Q1011
                        NOSIG=
200812141000 METAR LMML NIL=
200812140945 METAR LMML 140945Z 24013KT 200V280 9999 SCT035 15/08 Q1011
                        NOSIG=
200812140930 METAR LMML NIL=
200812140915 METAR LMML 140915Z 23013KT 200V270 9999 SCT037 15/07 Q1011
                        NOSIG=
200812140845 METAR LMML 140845Z 23013KT 190V280 9999 BKN035 15/08 Q1011
                        NOSIG=
200812140830 METAR LMML NIL=
200812140815 METAR LMML 140815Z 23014KT 200V270 9999 SCT042 15/06 Q1011
                        NOSIG=
200812140800 METAR LMML NIL=
200812140745 METAR LMML 140745Z 23013KT 190V280 9999 BKN038 15/07 Q1010
                        NOSIG=
200812140730 METAR LMML NIL=
200812140715 METAR LMML 140715Z 22012KT 190V260 9999 BKN036 14/07 Q1010
                        NOSIG=
200812140700 METAR LMML NIL=
200812140645 METAR LMML 140645Z 23011KT 190V270 9999 BKN035 14/08 Q1010
                        TEMPO 7000 SHRA BKN015TCU=
200812140630 METAR LMML NIL=
200812140615 METAR LMML 140615Z 22012KT 180V270 9999 BKN040 14/06 Q1010
                        TEMPO 7000 SHRA BKN015TCU RMK CB
                        TOPS TO NE=
200812140600 METAR LMML NIL=
200812140545 METAR LMML 140545Z 23010KT 190V270 9999 FEW040 BKN060 14/07
                        Q1010 NOSIG=
200812140530 METAR LMML NIL=
200812140515 METAR LMML 140515Z 21007KT 170V270 9999 FEW042 SCT060 14/06
                        Q1010 NOSIG=
200812140500 METAR LMML NIL=
200812140445 METAR LMML 140445Z 21006KT 180V260 9999 FEW040 SCT060 13/06
                        Q1010 NOSIG=
200812140430 METAR LMML NIL=
200812140415 METAR LMML 140415Z 22008KT 190V260 9999 FEW039 SCT060 14/07
                        Q1010 NOSIG=
200812140400 METAR LMML NIL=
200812140345 METAR LMML 140345Z 23010KT 190V270 9999 FEW039 SCT070 14/07
                        Q1010 NOSIG=
200812140330 METAR LMML NIL=
200812140315 METAR LMML 140315Z 22009KT 180V280 9999 SCT040 SCT060 14/06
                        Q1011 NOSIG=
200812140245 METAR LMML 140245Z 22010KT 180V260 9999 FEW038 SCT060 14/07
                        Q1011 NOSIG=
200812140230 METAR LMML NIL=
200812140215 METAR LMML 140215Z 22010KT 170V270 9999 FEW036 SCT060 14/07
                        Q1012 NOSIG=
200812140200 METAR LMML NIL=
200812140145 METAR LMML 140145Z 21010KT 150V250 9999 FEW038 SCT060 14/07
                        Q1012 NOSIG=
200812140130 METAR LMML NIL=
200812140115 METAR LMML 140115Z 21009KT 170V260 9999 FEW035 SCT050 14/07
                        Q1012 NOSIG=
200812140100 METAR LMML NIL=
200812140045 METAR LMML 140045Z 20010KT 160V240 9999 FEW030 SCT060 14/07
                        Q1012 NOSIG=
200812140030 METAR LMML NIL=
200812140015 METAR LMML 140015Z 20011KT 170V240 9999 SCT033 BKN060 14/07
                        Q1012 NOSIG=
200812140000 METAR LMML NIL=
200812132345 METAR LMML 132345Z 19010KT 150V230 9999 SCT031 BKN060 14/08
                        Q1013 NOSIG=
200812132330 METAR LMML NIL=
200812132315 METAR LMML 132315Z 19008KT 150V220 9999 SCT033 BKN050 14/09
                        Q1013 NOSIG=
200812132245 METAR LMML 132245Z 19009KT 150V250 9999 SCT033 BKN060 14/08
                        Q1013 NOSIG=
200812132230 METAR LMML NIL=
200812132215 METAR LMML 132215Z 19009KT 160V230 9999 SCT032 BKN060 15/08
                        Q1014 NOSIG=
200812132200 METAR LMML NIL=
200812132145 METAR LMML 132145Z 19008KT 160V230 9999 SCT034 BKN060 15/08
                        Q1014 NOSIG=
200812132130 METAR LMML NIL=
200812132115 METAR LMML 132115Z 19008KT 160V250 9999 FEW034 BKN060 15/08
                        Q1014 NOSIG=
200812132100 METAR LMML NIL=
200812132045 METAR LMML 132045Z 19007KT 150V230 9999 FEW034 BKN056 14/08
                        Q1014 NOSIG=
200812132015 METAR LMML 132015Z 21006KT 160V250 9999 SCT033 SCT054 14/09
                        Q1014 NOSIG=
200812131945 METAR LMML 131945Z VRB03KT 9999 FEW034 BKN056 14/08 Q1014
                        NOSIG=
200812131930 METAR LMML NIL=
200812131915 METAR LMML 131915Z 21004KT 180V250 9999 FEW035 BKN056 14/08
                        Q1015 NOSIG=
200812131900 METAR LMML NIL=
200812131845 METAR LMML 131845Z VRB03KT 9999 FEW035 BKN050 14/08 Q1015
                        NOSIG=
200812131830 METAR LMML NIL=
200812131815 METAR LMML 131815Z VRB02KT 9999 FEW040 BKN050 14/08 Q1015
                        NOSIG=
200812131800 METAR LMML NIL=
200812131745 METAR LMML 131745Z VRB03KT 9999 FEW039 SCT050 13/07 Q1015
                        NOSIG=
200812131730 METAR LMML NIL=
200812131715 METAR LMML 131715Z 22004KT 200V260 9999 FEW039 SCT120 13/07
                        Q1015 NOSIG=
200812131700 METAR LMML NIL=
200812131645 METAR LMML 131645Z 23005KT 210V270 9999 FEW038 14/07 Q1015
                        NOSIG=
200812131630 METAR LMML NIL=
200812131615 METAR LMML 131615Z 23007KT 200V260 9999 FEW039 14/07 Q1015
                        NOSIG=
200812131600 METAR LMML NIL=
200812131545 METAR LMML 131545Z 23005KT 200V280 9999 SCT035 14/08 Q1015
                        NOSIG=
200812131530 METAR LMML NIL=
200812131515 METAR LMML 131515Z 24004KT 210V270 9999 SCT034 14/08 Q1015
                        NOSIG=
200812131500 METAR LMML NIL=
200812131445 METAR LMML 131445Z 25007KT 210V290 9999 FEW035 SCT120 15/09
                        Q1015 NOSIG=
200812131430 METAR LMML NIL=
200812131415 METAR LMML 131415Z 25008KT 210V280 9999 FEW034 BKN120 15/08
                        Q1015 NOSIG=
200812131400 METAR LMML NIL=
200812131345 METAR LMML 131345Z 24008KT 200V300 9999 SCT034 16/08 Q1015
                        NOSIG=
200812131330 METAR LMML NIL=
200812131315 METAR LMML 131315Z 25009KT 200V300 9999 SCT035 16/09 Q1015
                        NOSIG=
200812131300 METAR LMML NIL=
200812131245 METAR LMML 131245Z 25010KT 200V280 9999 SCT034 16/09 Q1015
                        NOSIG=
200812131230 METAR LMML NIL=
200812131215 METAR LMML 131215Z 25009KT 210V280 9999 SCT033 SCT250 16/09
                        Q1015 NOSIG=
200812131200 METAR LMML NIL=
200812131145 METAR LMML 131145Z 25012KT 210V290 9999 SCT033 SCT250 16/09
                        Q1016 NOSIG=
200812131130 METAR LMML NIL=
200812131115 METAR LMML 131115Z 26012KT 220V290 9999 SCT034 16/09 Q1016
                        NOSIG=
200812131100 METAR LMML NIL=
200812131045 METAR LMML 131045Z 25012KT 210V290 9999 SCT034 16/09 Q1016
                        NOSIG=
200812131030 METAR LMML NIL=
200812131015 METAR LMML 131015Z 25011KT 210V290 9999 SCT036 SCT250 16/09
                        Q1016 NOSIG=
200812131000 METAR LMML NIL=
200812130945 METAR LMML 130945Z 26012KT 210V300 9999 SCT037 15/09 Q1017
                        NOSIG=
200812130930 METAR LMML NIL=
200812130915 METAR LMML 130915Z 25011KT 220V300 9999 SCT040 16/09 Q1017
                        NOSIG=
200812130900 METAR LMML NIL=
200812130845 METAR LMML 130845Z 26012KT 210V290 9999 SCT033 15/08 Q1017
                        NOSIG=
200812130830 METAR LMML NIL=
200812130815 METAR LMML 130815Z 26011KT 240V300 9999 SCT032 14/09 Q1017
                        NOSIG=
200812130800 METAR LMML NIL=
200812130745 METAR LMML 130745Z 27011KT 240V300 9999 SCT031 SCT060 13/08
                        Q1017 NOSIG=
200812130730 METAR LMML NIL=
200812130715 METAR LMML 130715Z 27005KT 240V300 9999 SCT025 BKN060 12/10
                        Q1016 NOSIG=
200812130700 METAR LMML NIL=
200812130645 METAR LMML 130645Z 28018KT 230V320 6000 -SHRA BKN023 BKN060
                        13/10 Q1016 NOSIG=
200812130636 LMML 130636Z 27017KT 230V310 6000 -SHRA BKN024 BKN060 13/10
                        Q1016 NOSIG=
200812130630 METAR LMML NIL=
200812130615 METAR LMML 130615Z 26012KT 230V290 9999 SCT035 BKN060 14/08
                        Q1016 NOSIG=
200812130545 METAR LMML 130545Z 26014KT 220V290 9999 SCT034 BKN070 14/08
                        Q1016 NOSIG=
200812130530 METAR LMML NIL=
200812130515 METAR LMML 130515Z 26015KT 220V290 9999 FEW034 BKN070 14/08
                        Q1016 NOSIG=
200812130500 METAR LMML NIL=
200812130445 METAR LMML 130445Z 26014KT 210V290 9999 FEW035 BKN070 14/08
                        Q1016 NOSIG=
200812130430 METAR LMML NIL=
200812130415 METAR LMML 130415Z 28010KT 240V310 9999 FEW035 BKN070 14/08
                        Q1015 NOSIG=
200812130400 METAR LMML NIL=
200812130345 METAR LMML 130345Z 27014KT 240V310 9999 FEW034 BKN070 14/08
                        Q1015 NOSIG=
200812130330 METAR LMML NIL=
200812130315 METAR LMML 130315Z 26013KT 230V300 9999 FEW038 BKN060 14/07
                        Q1016 NOSIG=
200812130300 METAR LMML NIL=
200812130245 METAR LMML 130245Z 26014KT 220V290 9999 FEW039 BKN060 14/07
                        Q1015 NOSIG=
200812130230 METAR LMML NIL=
200812130215 METAR LMML 130215Z 26012KT 230V290 9999 FEW032 BKN060 13/08
                        Q1016 NOSIG=
200812130200 METAR LMML NIL=
200812130145 METAR LMML 130145Z 27013KT 230V300 9999 FEW040 BKN070 14/07
                        Q1016 NOSIG=
200812130130 METAR LMML NIL=
200812130115 METAR LMML 130115Z 27012KT 230V300 9999 FEW041 BKN070 14/07
                        Q1016 NOSIG=
200812130100 METAR LMML NIL=
200812130045 METAR LMML 130045Z 27014KT 9999 FEW041 13/06 Q1016 NOSIG=
200812130030 METAR LMML NIL=
200812130015 METAR LMML 130015Z 28013KT 240V310 9999 BKN038 13/07 Q1016
                        NOSIG=
200812130000 METAR LMML NIL=
200812122345 METAR LMML 122345Z 28010KT 250V310 9999 SCT040 13/07 Q1016
                        NOSIG=
200812122330 METAR LMML NIL=
200812122315 METAR LMML 122315Z 28010KT 250V310 9999 FEW030 SCT070 12/08
                        Q1016 NOSIG=
200812122300 METAR LMML NIL=
200812122245 METAR LMML 122245Z 28012KT 9999 -SHRA BKN030 14/06 Q1016
                        NOSIG=
200812122230 METAR LMML NIL=
200812122215 METAR LMML 122215Z 27013KT 240V300 9999 SCT047 14/05 Q1016
                        NOSIG=
200812122200 METAR LMML NIL=
200812122145 METAR LMML 122145Z 27014KT 240V310 9999 FEW044 14/06 Q1016
                        NOSIG=
200812122130 METAR LMML NIL=
200812122115 METAR LMML 122115Z 28013KT 250V310 9999 SCT044 BKN070 14/05
                        Q1016 NOSIG=
200812122100 METAR LMML NIL=
200812122045 METAR LMML 122045Z 28015KT 9999 SCT043 BKN070 14/06 Q1016
                        NOSIG=
200812122030 METAR LMML NIL=
200812122015 METAR LMML 122015Z 28014KT 240V310 9999 SCT041 BKN072 14/05
                        Q1016 NOSIG=
200812122000 METAR LMML NIL=
200812121945 METAR LMML 121945Z 27016KT 240V310 9999 SCT041 BKN060 14/06
                        Q1016 NOSIG=
200812121930 METAR LMML NIL=
200812121915 METAR LMML 121915Z 27016KT 230V300 9999 SCT042 BKN060 14/05
                        Q1016 NOSIG=
200812121900 LMML NIL=
200812121830 METAR LMML NIL=
200812121815 METAR LMML 121815Z 28014KT 230V310 9999 BKN040 13/05 Q1015
                        NOSIG=
200812121800 METAR LMML NIL=
200812121745 METAR LMML 121745Z 28016KT 250V310 9999 BKN038 13/06 Q1015
                        NOSIG=
200812121730 METAR LMML NIL=
200812121715 METAR LMML 121715Z 27017KT 220V310 9999 BKN037 13/06 Q1014
                        NOSIG=
200812121700 METAR LMML NIL=
200812121645 METAR LMML 121645Z 27018KT 220V290 9999 BKN040 14/06 Q1014
                        NOSIG=
200812121630 METAR LMML NIL=
200812121615 METAR LMML 121615Z 28018G29KT 240V310 9999 BKN036 13/06 Q1014
                        NOSIG=
200812121600 METAR LMML NIL=
200812121545 METAR LMML 121545Z 27018KT 240V300 9999 BKN037 13/06 Q1014
                        NOSIG=
200812121530 METAR LMML NIL=
200812121515 METAR LMML 121515Z 27018KT 230V300 9999 BKN036 14/06 Q1013
                        NOSIG=
200812121500 METAR LMML NIL=
200812121445 METAR LMML 121445Z 27017KT 230V320 9999 BKN034 13/06 Q1013
                        NOSIG=
200812121430 METAR LMML NIL=
200812121415 METAR LMML 121415Z 26018KT 230V300 9999 BKN035 14/07 Q1013
                        NOSIG=
200812121400 METAR LMML NIL=
200812121345 METAR LMML 121345Z 27019KT 240V300 9999 BKN035 14/07 Q1013
                        NOSIG=
200812121331 LMML 121331Z 26018G30KT 9999 BKN034 14/06 Q1013 NOSIG=
200812121330 METAR LMML NIL=
200812121315 METAR LMML 121315Z 26018G29KT 220V300 9999 BKN034 13/07 Q1012
                        NOSIG=
200812121300 METAR LMML NIL=
200812121245 METAR LMML 121245Z 25018G28KT 220V290 9999 BKN035 14/06 Q1012
                        NOSIG=
200812121230 METAR LMML NIL=
200812121215 METAR LMML 121215Z 26020KT 220V300 9999 BKN039 14/07 Q1013
                        NOSIG=
200812121200 METAR LMML NIL=
200812121145 METAR LMML 121145Z 26017KT 230V290 9999 BKN041 13/06 Q1012
                        NOSIG=
200812121130 METAR LMML NIL=
200812121115 METAR LMML 121115Z 26017KT 210V310 9999 BKN041 14/06 Q1012
                        NOSIG=
200812121100 METAR LMML NIL=
200812121045 METAR LMML 121045Z 26019G29KT 210V290 9999 BKN039 14/06 Q1012
                        NOSIG=
200812121030 METAR LMML NIL=
200812121015 METAR LMML 121015Z 27019KT 230V300 9999 SCT041 14/06 Q1013
                        NOSIG=
200812121000 LMML NIL=
200812120945 METAR LMML 120945Z 28016KT 240V310 9999 SCT042 12/06 Q1013
                        NOSIG=
200812120930 METAR LMML NIL=
200812120915 METAR LMML 120915Z 28017KT 240V310 9999 BKN040 13/06 Q1013
                        NOSIG=
200812120900 METAR LMML NIL=
200812120845 METAR LMML 120845Z 26018KT 220V310 9000 BKN035 SCT060 11/07
                        Q1013 NOSIG=
200812120838 LMML 120838Z 27018KT 230V310 5000 SHRA BKN037 SCT044 11/07
                        Q1013 NOSIG=
200812120830 METAR LMML NIL=
200812120815 METAR LMML 120815Z 28015KT 220V310 9999 BKN041 SCT060 12/04
                        Q1012 NOSIG=
200812120800 METAR LMML NIL=
200812120745 METAR LMML 120745Z 28016G26KT 250V320 9999 BKN041 SCT060
                        12/05 Q1012 NOSIG=
200812120730 METAR LMML NIL=
200812120715 METAR LMML 120715Z 28018KT 250V310 9999 BKN039 11/04 Q1012
                        NOSIG=
200812120700 METAR LMML NIL=
200812120645 METAR LMML 120645Z 28015KT 230V310 9999 BKN041 11/04 Q1011
                        NOSIG=
200812120630 METAR LMML NIL=
200812120615 METAR LMML 120615Z 28015G25KT 240V310 9999 BKN036 10/04 Q1011
                        NOSIG=
200812120600 METAR LMML NIL=
200812120545 METAR LMML 120545Z 26018G30KT 230V300 9000 -SHRA BKN033 10/05
                        Q1011 TEMPO 8000 SHRA=
200812120530 METAR LMML NIL=
200812120515 METAR LMML 120515Z 28018KT 240V310 9999 FEW039 11/04 Q1010
                        TEMPO 8000 SHRA=
200812120500 METAR LMML NIL=
200812120445 METAR LMML 120445Z 28014KT 250V310 9999 FEW036 10/05 Q1010
                        TEMPO 8000 SHRA=
200812120430 METAR LMML NIL=
200812120415 METAR LMML 120415Z 28015KT 250V320 9999 FEW030 10/06 Q1009
                        TEMPO 8000 SHRA=
200812120400 METAR LMML NIL=
200812120345 METAR LMML 120345Z 29019G30KT 260V320 9999 SCT024 11/05 Q1009
                        TEMPO 8000 SHRA=
200812120330 METAR LMML NIL=
200812120315 METAR LMML 120315Z 29025G36KT 240V310 9999 SCT035 11/05 Q1009
                        TEMPO 8000 SHRA=
200812120300 METAR LMML NIL=
200812120245 METAR LMML 120245Z 28021KT 240V310 9999 SCT036 12/05 Q1009
                        TEMPO 8000 SHRA=
200812120230 METAR LMML NIL=
200812120215 METAR LMML 120215Z 28020KT 230V300 9999 BKN032 12/06 Q1009
                        TEMPO 8000 SHRA=
200812120200 METAR LMML NIL=
200812120145 METAR LMML 120145Z 29023KT 260V320 9999 BKN035 12/06 Q1009
                        TEMPO 8000 SHRA=
200812120130 METAR LMML NIL=
200812120115 METAR LMML 120115Z 29024G35KT 9999 SCT034 12/06 Q1008 TEMPO
                        8000 SHRA=
200812120100 METAR LMML NIL=
200812120045 METAR LMML 120045Z 28025KT 250V310 9999 BKN030 12/07 Q1008
                        TEMPO 8000 SHRA=
200812120015 METAR LMML 120015Z 29027G39KT 9000 -RA BKN025 12/09 Q1008
                        TEMPO 8000 SHRA=
200812120000 METAR LMML NIL=
200812112345 METAR LMML 112345Z 29021G31KT 260V330 9999 BKN031 13/07 Q1007
                        TEMPO 8000 SHRA=
200812112330 METAR LMML NIL=
200812112315 METAR LMML 112315Z 29024KT 250V320 9999 SCT037 13/06 Q1007
                        TEMPO 8000 SHRA=
200812112300 METAR LMML NIL=
200812112245 METAR LMML 112245Z 29025KT 9999 SCT038 13/05 Q1006 NOSIG=
200812112230 METAR LMML NIL=
200812112215 METAR LMML 112215Z 29023G36KT 9999 BKN035 13/07 Q1006 NOSIG=
200812112200 METAR LMML NIL=
200812112145 METAR LMML 112145Z 30019G30KT 270V340 9999 SCT036 BKN044
                        13/07 Q1005 NOSIG=
200812112130 METAR LMML NIL=
200812112115 METAR LMML 112115Z 29022G35KT 260V330 9999 SCT032 BKN048
                        13/07 Q1004 NOSIG=
200812112100 METAR LMML NIL=
200812112045 METAR LMML 112045Z 30024KT 270V330 9999 FEW029 BKN046 13/08
                        Q1004 NOSIG=
200812112030 METAR LMML NIL=
200812112015 METAR LMML 112015Z 29023G33KT 270V330 9999 FEW028 SCT047
                        BKN100 13/08 Q1004 NOSIG=
200812112000 METAR LMML NIL=
200812111945 METAR LMML 111945Z 30023G36KT 270V330 9999 FEW025 SCT048
                        BKN100 13/09 Q1003 NOSIG=
200812111930 METAR LMML NIL=
200812111915 METAR LMML 111915Z 30020KT 270V330 9999 FEW023 SCT048 BKN100
                        13/10 Q1002 NOSIG=
200812111900 METAR LMML NIL=
200812111845 LMML 111845Z 31016KT 9999 FEW023 SCT035 BKN044 13/10 Q1002
                        RERA NOSIG=
200812111830 METAR LMML NIL=
200812111815 METAR LMML 111815Z 31011KT 7000 -RA FEW011 SCT018 BKN040
                        12/11 Q1001 BECMG 9999=
200812111800 METAR LMML NIL=
200812111745 METAR LMML 111745Z 33010KT 5000 RA SCT017 BKN034 13/11 Q1001
                        NOSIG=
200812111730 METAR LMML NIL=
200812111715 METAR LMML 111715Z 33010KT 9999 -RA SCT017 BKN090 12/11 Q1000
                        NOSIG=
200812111700 METAR LMML NIL=
200812111645 METAR LMML 111645Z 34013KT 8000 -RA SCT026 BKN045 12/11 Q0999
                        NOSIG=
200812111630 LMML NIL=
200812111615 METAR LMML 111615Z 33010KT 4000 -RA SCT016 BKN042 12/11 Q0999
                        NOSIG=
200812111600 METAR LMML NIL=
200812111545 METAR LMML 111545Z 33014KT 4000 -RA FEW009 SCT022 OVC050
                        13/12 Q0999 RERA NOSIG=
200812111530 METAR LMML NIL=
200812111515 METAR LMML 111515Z 34016G26KT 310V010 3000 RA SCT007 OVC040
                        13/12 Q0999 NOSIG=
200812111500 METAR LMML NIL=
200812111445 METAR LMML 111445Z 31013KT 4000 RA FEW011CB OVC040 13/12
                        Q0999 TEMPO 2000 TSRA BKN015CB=
200812111434 LMML 111434Z 31012KT 4000 RA FEW020CB OVC040 13/12 Q0999
                        TEMPO 2000 TSRA BKN015CB=
200812111430 METAR LMML NIL=
200812111415 METAR LMML 111415Z 31009KT 7000 -RA FEW020CB SCT070 OVC150
                        14/12 Q0998 RETS TEMPO 3000 TSRA
                        BKN015CB=
200812111400 METAR LMML NIL=
200812111345 METAR LMML 111345Z 25008KT 210V300 9000 -RA FEW020CB SCT070
                        OVC150 14/11 Q0998 RETS TEMPO 3000
                        TSRA BKN015CB=
200812111315 METAR LMML 111315Z VRB02KT 7000 -TSRA SCT020 OVC150 13/12
                        Q0997 TEMPO 3000 TSRA BKN015CB=
200812111300 METAR LMML NIL=
200812111245 METAR LMML 111245Z 19005KT 140V230 4000 TSRA BKN020CB 13/12
                        Q0998 TEMPO 2000 TSRA BKN015CB=
200812111230 METAR LMML NIL=
200812111215 METAR LMML 111215Z 20007KT 160V260 2000 TSRA BKN020CB 14/12
                        Q1000 TEMPO BKN015CB=
200812111200 METAR LMML NIL=
200812111145 METAR LMML 111145Z 19013KT 160V230 2000 TSRA BKN016CB 14/13
                        Q1000 TEMPO BKN015CB=
200812111132 LMML 111132Z 20012KT 140V260 2000 TSRA BKN020CB 14/12 Q0999
                        TEMPO BKN015CB=
200812111130 METAR LMML NIL=
200812111115 METAR LMML 111115Z 15016KT 120V200 6000 TSRA SCT020CB BKN025
                        18/15 Q1000 TEMPO 3000 TSRA BKN015CB=
200812111100 METAR LMML NIL=
200812111045 METAR LMML 111045Z 14018KT 6000 TS SCT020CB BKN025 18/15
                        Q1001 TEMPO 3000 TSRA BKN015CB=
200812111030 METAR LMML NIL=
200812111015 METAR LMML 111015Z 16015KT 110V190 5000 TSRA SCT020CB BKN025
                        18/15 Q1001 TEMPO 3000 TSRA BKN015CB=
200812111000 METAR LMML NIL=
200812110945 METAR LMML 110945Z 16019G30KT 120V190 5000 TSRA BKN020CB
                        18/15 Q1002 TEMPO 3000 TSRA BKN015CB=
200812110930 METAR LMML NIL=
200812110915 METAR LMML 110915Z 15023G35KT 120V180 5000 TSRA BKN020CB
                        18/15 Q1002 TEMPO 3000 TSRA BKN015CB=
200812110904 LMML 110904Z 15020G35KT 120V190 9000 TSRA BKN022CB 18/15
                        Q1002 TEMPO 3000 TSRA BKN015CB=
200812110900 METAR LMML NIL=
200812110845 METAR LMML 110845Z 16021KT 130V190 9000 SCT023 BKN040 OVC150
                        19/15 Q1003 TEMPO 5000 SHRA BKN015=
200812110830 METAR LMML NIL=
200812110815 METAR LMML 110815Z 16019KT 9000 SCT022 SCT036 OVC150 19/15
                        Q1004 NOSIG=
200812110800 METAR LMML NIL=
200812110745 METAR LMML 110745Z 16019G32KT 130V190 9000 SCT023 BKN038
                        OVC150 19/15 Q1004 NOSIG=
200812110730 METAR LMML NIL=
200812110715 METAR LMML 110715Z 16020G32KT 120V190 7000 SCT025 BKN040
                        OVC150 19/15 Q1004 NOSIG=
200812110700 METAR LMML NIL=
200812110645 METAR LMML 110645Z 16020KT 130V190 7000 FEW024 BKN040 OVC150
                        19/14 Q1004 NOSIG=
200812110630 METAR LMML NIL=
200812110615 METAR LMML 110615Z 16021KT 130V190 7000 FEW026 BKN040 BKN120
                        19/15 Q1004 NOSIG=
200812110600 METAR LMML NIL=
200812110545 METAR LMML 110545Z 16020KT 130V210 9999 SCT026 SCT040 BKN120
                        19/14 Q1005 NOSIG=
200812110530 METAR LMML NIL=
200812110515 METAR LMML 110515Z 16021G33KT 130V190 9999 FEW026 SCT035
                        BKN120 19/14 Q1005 NOSIG=
200812110445 METAR LMML 110445Z 15022KT 9999 SCT026 SCT042 19/14 Q1005
                        NOSIG=
200812110430 METAR LMML NIL=
200812110415 METAR LMML 110415Z 15023G35KT 120V180 9999 FEW024 BKN120
                        19/14 Q1006 NOSIG=
200812110400 METAR LMML NIL=
200812110345 METAR LMML 110345Z 16021KT 130V190 9999 SCT025 BKN120 19/14
                        Q1006 NOSIG=
200812110330 METAR LMML NIL=
200812110315 METAR LMML 110315Z 16018KT 130V190 9999 SCT027 OVC120 19/14
                        Q1006 NOSIG=
200812110300 METAR LMML NIL=
200812110245 METAR LMML 110245Z 16018G29KT 130V210 9999 SCT027 BKN120
                        19/14 Q1007 NOSIG=
200812110230 METAR LMML NIL=
200812110200 METAR LMML NIL=
200812110145 METAR LMML 110145Z 16018KT 130V190 9999 BKN023 BKN120 19/15
                        Q1008 NOSIG=
200812110130 METAR LMML NIL=
200812110115 METAR LMML 110115Z 16021KT 120V190 9999 FEW021 BKN130 19/15
                        Q1009 NOSIG=
200812110100 METAR LMML NIL=
200812110045 METAR LMML 110045Z 16020KT 9999 BKN023 BKN130 19/15 Q1009
                        NOSIG=
200812110030 METAR LMML NIL=
200812110015 LMML 110015Z 16018KT 130V200 9999 BKN023 BKN120 18/15 Q1009
                        NOSIG=
200812110000 METAR LMML NIL=
200812102345 METAR LMML 102345Z 16019KT 130V190 9999 FEW020 BKN120 18/14
                        Q1010 NOSIG=
200812102330 METAR LMML NIL=
200812102315 METAR LMML 102315Z 16017KT 9999 FEW022 BKN120 18/14 Q1010
                        NOSIG=
200812102245 METAR LMML 102245Z 15017KT 120V190 9999 SCT023 BKN120 18/15
                        Q1011 NOSIG=
200812102230 METAR LMML NIL=
200812102215 METAR LMML 102215Z 16017KT 130V190 9999 FEW027 BKN130 18/13
                        Q1011 NOSIG=
200812102200 LMML NIL=
200812102145 LMML 102145Z 16018G29KT 130V200 9999 BKN027 BKN130 18/13
                        Q1011 NOSIG=
200812102130 METAR LMML NIL=
200812102115 METAR LMML 102115Z 16019KT 9999 BKN026 SCT120 18/14 Q1012
                        NOSIG=
200812102100 METAR LMML NIL=
200812102045 METAR LMML 102045Z 17018KT 140V210 9999 SCT027 BKN120 18/13
                        Q1012 NOSIG=
200812102030 METAR LMML NIL=
200812102015 METAR LMML 102015Z 16014KT 9999 SCT025 BKN120 18/14 Q1012
                        NOSIG=
200812101945 METAR LMML 101945Z 16017KT 9999 SCT024 18/13 Q1012 NOSIG=
200812101930 METAR LMML NIL=
200812101915 METAR LMML 101915Z 16016KT 9999 SCT021 18/13 Q1012 NOSIG=
200812101900 METAR LMML NIL=
200812101845 METAR LMML 101845Z 16014KT 130V200 9999 SCT020 17/14 Q1012
                        NOSIG=
200812101830 METAR LMML NIL=
200812101815 METAR LMML 101815Z 16014KT 130V190 9999 FEW020 18/14 Q1012
                        NOSIG=
200812101800 METAR LMML NIL=
200812101745 METAR LMML 101745Z 17014KT 130V240 9999 FEW020 18/14 Q1012
                        NOSIG=
200812101730 METAR LMML NIL=
200812101715 METAR LMML 101715Z 17013KT 140V200 9999 FEW020 17/14 Q1012
                        NOSIG=
200812101700 METAR LMML NIL=
200812101645 METAR LMML 101645Z 17011KT 140V210 9999 FEW020 18/14 Q1012
                        NOSIG=
200812101630 METAR LMML NIL=
200812101615 METAR LMML 101615Z 17011KT 130V210 9999 FEW020 18/14 Q1012
                        NOSIG=
200812101545 METAR LMML 101545Z 17012KT 140V200 9999 FEW020 SCT080 18/14
                        Q1012 NOSIG=
200812101530 METAR LMML NIL=
200812101515 METAR LMML 101515Z 17011KT 140V210 9999 FEW021 SCT080 18/14
                        Q1013 NOSIG=
200812101500 METAR LMML NIL=
200812101445 METAR LMML 101445Z 17011KT 130V200 9999 FEW025 19/14 Q1013
                        NOSIG=
200812101430 METAR LMML NIL=
200812101415 METAR LMML 101415Z 18011KT 150V230 9999 FEW025 19/13 Q1013
                        NOSIG=
200812101400 METAR LMML NIL=
200812101345 METAR LMML 101345Z 18009KT 140V220 9999 FEW025 SCT250 19/14
                        Q1013 NOSIG=
200812101330 METAR LMML NIL=
200812101300 METAR LMML NIL=
200812101245 METAR LMML 101245Z 18015KT 150V210 9999 FEW025 BKN250 19/13
                        Q1013 NOSIG=
200812101230 METAR LMML NIL=
200812101215 METAR LMML 101215Z 18014KT 150V210 9999 FEW023 BKN250 19/14
                        Q1013 NOSIG=
200812101145 METAR LMML 101145Z 18013KT 150V220 9999 FEW023 BKN250 19/14
                        Q1014 NOSIG=
200812101130 METAR LMML NIL=
200812101115 METAR LMML 101115Z 19014KT 160V220 9999 FEW023 BKN250 19/15
                        Q1014 NOSIG=
200812101100 METAR LMML NIL=
200812101045 METAR LMML 101045Z 18014KT 150V220 9999 SCT021 BKN250 19/14
                        Q1015 NOSIG=
200812101030 METAR LMML NIL=
200812101015 METAR LMML 101015Z 18013KT 140V230 9999 SCT024 SCT250 19/14
                        Q1015 NOSIG=
200812101000 METAR LMML NIL=
200812100945 METAR LMML 100945Z 18011KT 150V220 9999 FEW024 BKN250 19/14
                        Q1015 NOSIG=
200812100930 METAR LMML NIL=
200812100915 METAR LMML 100915Z 19011KT 160V220 9999 FEW024 BKN250 19/13
                        Q1016 NOSIG=
200812100900 METAR LMML NIL=
200812100845 METAR LMML 100845Z 19010KT 160V230 9999 FEW025 BKN250 19/13
                        Q1016 NOSIG=
200812100830 METAR LMML NIL=
200812100815 METAR LMML 100815Z 19009KT 150V220 9999 SCT026 BKN250 18/14
                        Q1016 NOSIG=
200812100800 METAR LMML NIL=
200812100745 METAR LMML 100745Z 18008KT 150V210 9999 SCT021 BKN250 18/15
                        Q1016 NOSIG=
200812100730 METAR LMML NIL=
200812100715 METAR LMML 100715Z 17007KT 140V220 9999 SCT021 BKN250 17/14
                        Q1016 TEMPO 8000 SHRA=
200812100700 METAR LMML NIL=
200812100645 METAR LMML 100645Z 17009KT 140V210 9999 SCT016 BKN250 17/14
                        Q1016 TEMPO 8000 SHRA=
200812100630 METAR LMML NIL=
200812100615 METAR LMML 100615Z 17011KT 140V210 9999 BKN016 SCT120 17/15
                        Q1016 NOSIG=
200812100600 LMML NIL=
200812100545 LMML 100545Z 17010KT 110V210 9999 BKN018 SCT100 17/14 Q1016
                        NOSIG=
200812100530 METAR LMML NIL=
200812100515 METAR LMML 100515Z 16008KT 120V200 9999 FEW010 BKN019 BKN080
                        16/14 Q1016 NOSIG=
200812100500 LMML NIL=
200812100445 LMML 100445Z 14013KT 9999 -SHRA SCT010 BKN023 BKN080 15/14
                        Q1016 NOSIG=
200812100430 METAR LMML NIL=
200812100415 METAR LMML 100415Z 14014KT 110V180 9999 SCT012 BKN016 BKN050
                        16/14 Q1016 TEMPO 7000 TSRA BKN015CB=
200812100400 METAR LMML NIL=
200812100345 METAR LMML 100345Z 15015KT 120V180 9999 SCT013 BKN018 BKN050
                        16/14 Q1016 TEMPO 7000 TSRA BKN015CB=
200812100330 METAR LMML NIL=
200812100315 METAR LMML 100315Z 15014KT 9999 SHRA BKN022 BKN050 15/14
                        Q1017 TEMPO 7000 TSRA BKN015CB RMK
                        LIGHTNING TO WEST=
200812100300 METAR LMML NIL=
200812100245 METAR LMML 100245Z 14017KT 9999 FEW023 BKN050 16/12 Q1017
                        TEMPO 7000 SHRA=
200812100230 METAR LMML NIL=
200812100215 METAR LMML 100215Z 14017KT 9999 SCT022 BKN050 16/13 Q1017
                        TEMPO 7000 SHRA=
200812100200 METAR LMML NIL=
200812100145 METAR LMML 100145Z 13015KT 9999 SCT022 BKN050 15/13 Q1017
                        TEMPO 7000 SHRA=
200812100130 METAR LMML NIL=
200812100115 METAR LMML 100115Z 14016KT 9999 -SHRA SCT022 BKN060 15/13
                        Q1018 TEMPO 7000 SHRA=
200812100100 METAR LMML NIL=
200812100045 METAR LMML 100045Z 14017KT 9999 SCT023 BKN080 15/12 Q1018
                        TEMPO 7000 SHRA=
200812100030 METAR LMML NIL=
200812100015 METAR LMML 100015Z 13014KT 9999 SCT023 BKN080 15/12 Q1018
                        TEMPO 7000 SHRA=
200812092345 METAR LMML 092345Z 13017KT 9999 -SHRA SCT025 BKN080 16/11
                        Q1019 TEMPO 7000 SHRA=
200812092330 METAR LMML NIL=
200812092315 METAR LMML 092315Z 14015KT 9999 SCT027 BKN090 16/11 Q1019
                        TEMPO 7000 SHRA=
200812092300 METAR LMML NIL=
200812092245 METAR LMML 092245Z 13015KT 9999 SCT026 BKN090 15/11 Q1020
                        NOSIG=
200812092230 METAR LMML NIL=
200812092215 METAR LMML 092215Z 12016KT 9999 FEW027 BKN090 15/11 Q1020
                        NOSIG=
200812092200 METAR LMML NIL=
200812092145 METAR LMML 092145Z 12015KT 9999 FEW030 BKN090 15/10 Q1020
                        NOSIG=
200812092130 METAR LMML NIL=
200812092115 METAR LMML 092115Z 12016KT 9999 FEW028 BKN100 15/10 Q1020
                        NOSIG=
200812092100 METAR LMML NIL=
200812092045 METAR LMML 092045Z 12016KT 9999 FEW031 BKN100 14/09 Q1021
                        NOSIG=
200812092015 METAR LMML 092015Z 12015KT 9999 FEW032 BKN100 14/09 Q1021
                        NOSIG=
200812092000 METAR LMML NIL=
200812091945 METAR LMML 091945Z 12016KT 9999 FEW032 BKN100 14/09 Q1021
                        NOSIG=
200812091930 METAR LMML NIL=
200812091915 METAR LMML 091915Z 12016KT 9999 FEW031 BKN120 14/09 Q1021
                        NOSIG=
200812091900 METAR LMML NIL=
200812091845 METAR LMML 091845Z 12015KT 090V150 9999 FEW030 BKN120 14/09
                        Q1021 NOSIG=
200812091830 METAR LMML NIL=
200812091815 METAR LMML 091815Z 12015KT 9999 FEW030 BKN120 14/08 Q1021
                        NOSIG=
200812091800 METAR LMML NIL=
200812091745 METAR LMML 091745Z 11014KT 9999 FEW033 BKN120 14/08 Q1021
                        NOSIG=
200812091730 METAR LMML NIL=
200812091715 METAR LMML 091715Z 12012KT 080V140 9999 FEW035 BKN120 14/08
                        Q1021 NOSIG=
200812091700 METAR LMML NIL=
200812091645 METAR LMML 091645Z 11011KT 9999 FEW035 BKN120 14/08 Q1021
                        NOSIG=
200812091630 METAR LMML NIL=
200812091615 METAR LMML 091615Z 11012KT 9999 FEW035 BKN120 14/08 Q1021
                        NOSIG=
200812091600 METAR LMML NIL=
200812091545 METAR LMML 091545Z 11011KT 9999 FEW036 BKN130 14/07 Q1021
                        NOSIG=
200812091530 METAR LMML NIL=
200812091515 METAR LMML 091515Z 11010KT 080V140 9999 FEW040 BKN120 14/07
                        Q1021 NOSIG=
200812091500 METAR LMML NIL=
200812091445 METAR LMML 091445Z 11011KT 9999 FEW040 BKN130 14/07 Q1021
                        NOSIG=
200812091430 METAR LMML NIL=
200812091415 METAR LMML 091415Z 11011KT 9999 FEW040 BKN130 14/07 Q1021
                        NOSIG=
200812091400 METAR LMML NIL=
200812091345 METAR LMML 091345Z 11012KT 9999 FEW040 BKN130 15/06 Q1021
                        NOSIG=
200812091330 METAR LMML NIL=
200812091315 METAR LMML 091315Z 11012KT 060V130 9999 FEW040 BKN120 15/06
                        Q1021 NOSIG=
200812091300 METAR LMML NIL=
200812091245 METAR LMML 091245Z 11013KT 9999 FEW041 SCT130 BKN250 15/07
                        Q1022 NOSIG=
200812091230 METAR LMML NIL=
200812091215 METAR LMML 091215Z 12013KT 090V150 9999 FEW041 BKN250 16/07
                        Q1022 NOSIG=
200812091200 METAR LMML NIL=
200812091145 METAR LMML 091145Z 12011KT 9999 FEW041 SCT250 16/07 Q1022
                        NOSIG=
200812091130 METAR LMML NIL=
200812091115 METAR LMML 091115Z 11012KT 070V140 9999 FEW041 16/08 Q1023
                        NOSIG=
200812091045 METAR LMML 091045Z 11010KT 070V150 9999 FEW039 15/08 Q1023
                        NOSIG=
200812091030 METAR LMML NIL=
200812091015 METAR LMML 091015Z 12011KT 090V150 9999 FEW038 SCT250 16/08
                        Q1023 NOSIG=
200812091000 METAR LMML NIL=
200812090945 METAR LMML 090945Z 12012KT 090V150 9999 FEW038 SCT250 15/08
                        Q1023 NOSIG=
200812090930 METAR LMML NIL=
200812090915 METAR LMML 090915Z 12011KT 9999 FEW037 SCT250 15/07 Q1024
                        NOSIG=
200812090900 METAR LMML NIL=
200812090845 METAR LMML 090845Z 11010KT 060V130 9999 FEW037 BKN250 15/07
                        Q1024 NOSIG=
200812090830 METAR LMML NIL=
200812090815 METAR LMML 090815Z 10009KT 070V130 9999 FEW036 BKN250 14/08
                        Q1024 NOSIG=
200812090800 METAR LMML NIL=
200812090745 METAR LMML 090745Z 10010KT 9999 FEW034 BKN250 14/08 Q1023
                        NOSIG=
200812090730 METAR LMML NIL=
200812090715 METAR LMML 090715Z 10008KT 9999 FEW036 BKN250 13/07 Q1023
                        NOSIG=
200812090700 METAR LMML NIL=
200812090645 METAR LMML 090645Z 10007KT 9999 FEW036 BKN250 13/08 Q1023
                        NOSIG=
200812090630 METAR LMML NIL=
200812090615 METAR LMML 090615Z 10006KT 9999 SCT035 BKN250 13/08 Q1023
                        NOSIG=
200812090600 METAR LMML NIL=
200812090545 METAR LMML 090545Z 11008KT 9999 FEW035 SCT060 13/08 Q1023
                        NOSIG=
200812090530 METAR LMML NIL=
200812090515 METAR LMML 090515Z 11006KT 9999 FEW035 SCT060 12/07 Q1023
                        NOSIG=
200812090500 METAR LMML NIL=
200812090445 METAR LMML 090445Z 10007KT 9999 FEW034 SCT060 13/07 Q1023
                        NOSIG=
200812090430 METAR LMML NIL=
200812090415 METAR LMML 090415Z 10008KT 070V130 9999 FEW034 SCT050 13/07
                        Q1023 NOSIG=
200812090400 METAR LMML NIL=
200812090345 METAR LMML 090345Z 10006KT 9999 FEW034 SCT050 13/07 Q1023
                        NOSIG=
200812090330 METAR LMML NIL=
200812090315 METAR LMML 090315Z 09006KT 050V110 9999 FEW033 SCT050 14/08
                        Q1023 NOSIG=
200812090300 METAR LMML NIL=
200812090245 METAR LMML 090245Z 09007KT 050V120 9999 SCT030 SCT040 13/08
                        Q1023 NOSIG=
200812090230 METAR LMML NIL=
200812090215 METAR LMML 090215Z 08008KT 050V120 9999 SCT030 BKN044 14/08
                        Q1023 NOSIG=
200812090200 METAR LMML NIL=
200812090145 METAR LMML 090145Z 09007KT 050V120 9999 SCT030 BKN042 13/08
                        Q1023 NOSIG=
200812090130 METAR LMML NIL=
200812090115 METAR LMML 090115Z 09007KT 060V120 9999 SCT030 BKN056 14/08
                        Q1023 NOSIG=
200812090100 METAR LMML NIL=
200812090045 METAR LMML 090045Z 09007KT 9999 SCT029 SCT054 13/08 Q1023
                        NOSIG=
200812090030 METAR LMML NIL=
200812090015 METAR LMML 090015Z 09006KT 070V130 9999 SCT030 SCT054 13/08
                        Q1023 NOSIG=
200812090000 METAR LMML NIL=
200812082345 METAR LMML 082345Z 09007KT 9999 SCT030 SCT060 13/09 Q1023
                        NOSIG=
200812082330 METAR LMML NIL=
200812082315 METAR LMML 082315Z 08004KT 9999 SCT035 SCT060 13/07 Q1023
                        NOSIG=
200812082300 METAR LMML NIL=
200812082245 METAR LMML 082245Z 07004KT 9999 SCT030 13/07 Q1023 NOSIG=
200812082230 METAR LMML NIL=
200812082215 METAR LMML 082215Z 08005KT 050V160 9999 SCT030 13/08 Q1023
                        NOSIG=
200812082200 METAR LMML NIL=
200812082145 METAR LMML 082145Z 08006KT 9999 SCT030 BKN060 13/08 Q1023
                        NOSIG=
200812082130 METAR LMML NIL=
200812082115 METAR LMML 082115Z 07007KT 040V110 9999 SCT028 BKN060 14/09
                        Q1023 NOSIG=
200812082100 METAR LMML NIL=
200812082045 METAR LMML 082045Z 07006KT 040V100 9999 SCT031 BKN050 14/09
                        Q1023 NOSIG=
200812082030 METAR LMML NIL=
200812082015 METAR LMML 082015Z 08006KT 9999 SCT030 BKN050 14/09 Q1023
                        NOSIG=
200812082000 METAR LMML NIL=
200812081945 METAR LMML 081945Z 08006KT 040V120 9999 SCT028 BKN040 14/10
                        Q1023 NOSIG=
200812081930 METAR LMML NIL=
200812081915 METAR LMML 081915Z 07007KT 9999 SCT027 BKN060 14/09 Q1023
                        NOSIG=
200812081900 METAR LMML NIL=
200812081845 METAR LMML 081845Z 07004KT 020V120 9999 SCT028 BKN060 14/10
                        Q1023 NOSIG=
200812081830 METAR LMML NIL=
200812081815 METAR LMML 081815Z 04004KT 350V100 9999 SCT025 BKN054 14/10
                        Q1023 NOSIG=
200812081800 METAR LMML NIL=
200812081745 METAR LMML 081745Z VRB01KT 9999 SCT024 SCT060 13/08 Q1022
                        NOSIG=
200812081730 METAR LMML NIL=
200812081715 METAR LMML 081715Z VRB03KT 9999 BKN033 13/06 Q1022 NOSIG=
200812081700 METAR LMML NIL=
200812081645 METAR LMML 081645Z VRB03KT 9999 FEW040 13/06 Q1022 NOSIG=
200812081630 METAR LMML NIL=
200812081615 METAR LMML 081615Z 34004KT 9999 FEW040 13/06 Q1022 NOSIG=
200812081600 METAR LMML NIL=
200812081545 METAR LMML 081545Z 35004KT 9999 FEW040 14/07 Q1022 NOSIG=
200812081530 METAR LMML NIL=
200812081515 METAR LMML 081515Z 36005KT 9999 FEW040 15/08 Q1021 NOSIG=
200812081500 METAR LMML NIL=
200812081445 METAR LMML 081445Z 34004KT 9999 FEW040 15/07 Q1021 NOSIG=
200812081430 METAR LMML NIL=
200812081415 METAR LMML 081415Z 33004KT 280V360 9999 FEW041 16/07 Q1021
                        NOSIG=
200812081400 METAR LMML NIL=
200812081345 METAR LMML 081345Z 36006KT 9999 FEW040 15/07 Q1021 NOSIG=
200812081330 METAR LMML NIL=
200812081315 METAR LMML 081315Z 36005KT 330V060 9999 FEW042 16/07 Q1021
                        NOSIG=
200812081300 METAR LMML NIL=
200812081245 METAR LMML 081245Z 01005KT 340V050 9999 FEW032 17/09 Q1021
                        NOSIG=
200812081230 METAR LMML NIL=
200812081215 METAR LMML 081215Z 36006KT 320V020 9999 SCT039 16/09 Q1021
                        NOSIG=
200812081200 METAR LMML NIL=
200812081145 METAR LMML 081145Z 36004KT 320V060 9999 FEW035 16/10 Q1022
                        NOSIG=
200812081130 METAR LMML NIL=
200812081115 METAR LMML 081115Z 34006KT 240V010 9999 FEW040 16/08 Q1022
                        NOSIG=
200812081100 METAR LMML NIL=
200812081045 METAR LMML 081045Z 36005KT 320V050 9999 FEW041 17/09 Q1022
                        NOSIG=
200812081030 METAR LMML NIL=
200812081015 METAR LMML 081015Z 33006KT 9999 FEW042 16/07 Q1022 NOSIG=
200812081000 METAR LMML NIL=
200812080945 METAR LMML 080945Z 34008KT 320V020 9999 FEW041 16/08 Q1023
                        NOSIG=
200812080930 METAR LMML NIL=
200812080915 METAR LMML 080915Z 33007KT 9999 FEW030 16/06 Q1023 NOSIG=
200812080900 METAR LMML NIL=
200812080845 METAR LMML 080845Z 33006KT 310V010 9999 FEW030 15/08 Q1023
                        NOSIG=
200812080830 METAR LMML NIL=
200812080815 METAR LMML 080815Z 33004KT 9999 FEW030 15/09 Q1022 NOSIG=
200812080800 METAR LMML NIL=
200812080745 METAR LMML 080745Z 31005KT 9999 FEW030 SCT250 14/09 Q1022
                        NOSIG=
200812080730 METAR LMML NIL=
200812080715 METAR LMML 080715Z 31006KT 9999 FEW030 SCT250 14/09 Q1022
                        NOSIG=
200812080700 METAR LMML NIL=
200812080645 METAR LMML 080645Z 30005KT 9999 FEW030 13/08 Q1021 NOSIG=
200812080630 METAR LMML NIL=
200812080615 METAR LMML 080615Z 30005KT 9999 FEW030 12/08 Q1021 NOSIG=
200812080600 METAR LMML NIL=
200812080545 METAR LMML 080545Z 30005KT 9999 FEW030 12/08 Q1021 NOSIG=
200812080530 METAR LMML NIL=
200812080515 METAR LMML 080515Z 31005KT 9999 FEW030 BKN060 12/08 Q1021
                        NOSIG=
200812080500 METAR LMML NIL=
200812080445 METAR LMML 080445Z 32004KT 9999 FEW030 BKN060 13/09 Q1021
                        NOSIG=
200812080430 METAR LMML NIL=
200812080415 METAR LMML 080415Z 32005KT 290V350 9999 FEW030 BKN060 13/09
                        Q1021 NOSIG=
200812080400 METAR LMML NIL=
200812080345 METAR LMML 080345Z 32006KT 9999 FEW030 BKN050 13/09 Q1020
                        NOSIG=
200812080330 METAR LMML NIL=
200812080315 METAR LMML 080315Z 30005KT 9999 FEW030 BKN050 13/09 Q1020
                        NOSIG=
200812080300 METAR LMML NIL=
200812080245 METAR LMML 080245Z 31006KT 9999 FEW030 BKN050 13/09 Q1020
                        NOSIG=
200812080230 METAR LMML NIL=
200812080215 METAR LMML 080215Z 31006KT 9999 FEW030 BKN050 13/09 Q1020
                        NOSIG=
200812080200 METAR LMML NIL=
200812080145 METAR LMML 080145Z 29006KT 270V330 9999 FEW030 BKN050 14/09
                        Q1021 NOSIG=
200812080130 METAR LMML NIL=
200812080115 METAR LMML 080115Z 29006KT 260V320 9999 FEW030 BKN050 13/09
                        Q1021 NOSIG=
200812080100 METAR LMML NIL=
200812080045 METAR LMML 080045Z 29005KT 9999 FEW030 SCT070 13/09 Q1021
                        NOSIG=
200812080030 METAR LMML NIL=
200812080015 METAR LMML 080015Z VRB03KT 9999 FEW030 SCT250 13/09 Q1020
                        NOSIG=
200812080000 METAR LMML NIL=
200812072345 METAR LMML 072345Z 33004KT 9999 FEW030 SCT250 12/09 Q1020
                        NOSIG=
200812072330 METAR LMML NIL=
200812072315 METAR LMML 072315Z 30005KT 9999 FEW030 SCT250 13/09 Q1021
                        NOSIG=
200812072300 METAR LMML NIL=
200812072245 METAR LMML 072245Z 30004KT 260V320 9999 FEW030 SCT250 13/10
                        Q1021 NOSIG=
200812072230 METAR LMML NIL=
200812072215 METAR LMML 072215Z 30006KT 9999 FEW030 BKN250 13/10 Q1021
                        NOSIG=
200812072200 METAR LMML NIL=
200812072145 METAR LMML 072145Z 31007KT 9999 FEW030 BKN250 13/10 Q1021
                        NOSIG=
200812072130 METAR LMML NIL=
200812072115 METAR LMML 072115Z 30007KT 9999 FEW030 BKN250 14/10 Q1020
                        NOSIG=
200812072100 METAR LMML NIL=
200812072045 METAR LMML 072045Z 30005KT 9999 FEW030 SCT250 13/10 Q1021
                        NOSIG=
200812072030 METAR LMML NIL=
200812072015 METAR LMML 072015Z 32007KT 9999 FEW030 13/10 Q1021 NOSIG=
200812072000 METAR LMML NIL=
200812071945 METAR LMML 071945Z 31006KT 9999 FEW030 13/10 Q1021 NOSIG=
200812071930 METAR LMML NIL=
200812071915 METAR LMML 071915Z 30007KT 9999 FEW025 14/10 Q1020 NOSIG=
200812071900 METAR LMML NIL=
200812071845 METAR LMML 071845Z 31009KT 9999 FEW030 14/10 Q1020 NOSIG=
200812071830 METAR LMML NIL=
200812071815 METAR LMML 071815Z 32008KT 9999 FEW030 14/10 Q1020 NOSIG=
200812071800 METAR LMML NIL=
200812071745 METAR LMML 071745Z 31008KT 9999 FEW030 14/10 Q1020 NOSIG=
200812071730 METAR LMML NIL=
200812071715 METAR LMML 071715Z 31008KT 9999 FEW030 14/10 Q1020 NOSIG=
200812071700 METAR LMML NIL=
200812071645 LMML 071645Z 31010KT 9999 FEW030 SCT040 14/10 Q1020 NOSIG=
200812071630 METAR LMML NIL=
200812071615 METAR LMML 071615Z 31011KT 9999 FEW030 SCT040 15/10 Q1019
                        NOSIG=
200812071600 METAR LMML NIL=
200812071545 METAR LMML 071545Z 31009KT 9999 FEW028 SCT040 15/10 Q1019
                        NOSIG=
200812071530 METAR LMML NIL=
200812071515 METAR LMML 071515Z 30010KT 9999 FEW031 SCT060 16/11 Q1019
                        NOSIG=
200812071500 METAR LMML NIL=
200812071445 METAR LMML 071445Z 30009KT 9999 SCT030 SCT060 16/11 Q1019
                        NOSIG=
200812071430 METAR LMML NIL=
200812071415 METAR LMML 071415Z 30011KT 270V330 9999 SCT030 SCT250 16/11
                        Q1019 NOSIG=
200812071400 METAR LMML NIL=
200812071345 METAR LMML 071345Z 29010KT 250V320 9999 FEW030 SCT250 17/11
                        Q1019 NOSIG=
200812071330 METAR LMML NIL=
200812071315 METAR LMML 071315Z 29012KT 260V330 9999 SCT030 SCT070 17/11
                        Q1019 NOSIG=
200812071300 METAR LMML NIL=
200812071245 METAR LMML 071245Z 30012KT 260V330 9999 FEW035 SCT050 BKN070
                        16/10 Q1019 NOSIG=
200812071230 METAR LMML NIL=
200812071215 METAR LMML 071215Z 30009KT 270V330 9999 SCT039 BKN050 17/10
                        Q1019 NOSIG=
200812071200 METAR LMML NIL=
200812071145 METAR LMML 071145Z 30012KT 9999 FEW032 BKN052 16/10 Q1020
                        NOSIG=
200812071130 METAR LMML NIL=
200812071115 METAR LMML 071115Z 30013KT 9999 FEW034 SCT060 17/10 Q1020
                        NOSIG=
200812071100 METAR LMML NIL=
200812071045 METAR LMML 071045Z 30014KT 270V330 9999 FEW036 17/10 Q1020
                        NOSIG=
200812071030 METAR LMML NIL=
200812071015 METAR LMML 071015Z 31015KT 9999 FEW034 17/10 Q1020 NOSIG=
200812071000 METAR LMML NIL=
200812070945 METAR LMML 070945Z 30012KT 270V330 9999 FEW034 17/10 Q1020
                        NOSIG=
200812070930 METAR LMML NIL=
200812070915 METAR LMML 070915Z 31013KT 280V340 9999 FEW038 SCT060 17/10
                        Q1020 NOSIG=
200812070900 METAR LMML NIL=
200812070845 METAR LMML 070845Z 31012KT 9999 FEW038 SCT050 17/10 Q1020
                        NOSIG=
200812070830 METAR LMML NIL=
200812070815 METAR LMML 070815Z 30010KT 9999 FEW038 SCT050 16/10 Q1020
                        NOSIG=
200812070800 METAR LMML NIL=
200812070745 METAR LMML 070745Z 30010KT 270V330 9999 FEW039 BKN045 15/10
                        Q1020 NOSIG=
200812070730 METAR LMML NIL=
200812070715 METAR LMML 070715Z 31008KT 9999 FEW039 BKN045 15/10 Q1020
                        NOSIG=
200812070700 METAR LMML NIL=
200812070645 METAR LMML 070645Z 32009KT 9999 FEW037 SCT050 14/10 Q1020
                        TEMPO 8000 SHRA=
200812070630 METAR LMML NIL=
200812070615 METAR LMML 070615Z 31009KT 9999 FEW038 SCT050 14/09 Q1019
                        TEMPO 8000 SHRA=
200812070600 METAR LMML NIL=
200812070545 METAR LMML 070545Z 31009KT 9999 SCT038 SCT250 14/10 Q1019
                        TEMPO 8000 SHRA=
200812070530 METAR LMML NIL=
200812070515 METAR LMML 070515Z 31010KT 9999 SCT025 14/11 Q1019 TEMPO
                        8000 SHRA=
200812070500 METAR LMML NIL=
200812070445 METAR LMML 070445Z 31009KT 9999 FEW025 15/12 Q1018 TEMPO
                        8000 SHRA=
200812070430 METAR LMML NIL=
200812070415 METAR LMML 070415Z 29008KT 9999 BKN033 15/12 Q1018 TEMPO
                        8000 SHRA=
200812070400 METAR LMML NIL=
200812070345 METAR LMML 070345Z 29006KT 9999 SCT033 14/11 Q1018 TEMPO
                        8000 SHRA=
200812070330 METAR LMML NIL=
200812070315 METAR LMML 070315Z 29008KT 9999 SCT031 15/11 Q1018 TEMPO
                        8000 SHRA=
200812070300 METAR LMML NIL=
200812070245 METAR LMML 070245Z 28007KT 9999 SCT031 15/10 Q1018 TEMPO
                        8000 SHRA=
200812070230 METAR LMML NIL=
200812070215 METAR LMML 070215Z 28006KT 9999 FEW035 SCT042 BKN048 14/10
                        Q1018 TEMPO 8000 SHRA=
200812070200 METAR LMML NIL=
200812070145 METAR LMML 070145Z 28006KT 250V310 9999 FEW034 14/09 Q1018
                        TEMPO 8000 SHRA=
200812070130 METAR LMML NIL=
200812070115 METAR LMML 070115Z 29006KT 9999 FEW030 14/09 Q1018 NOSIG=
200812070100 METAR LMML NIL=
200812070045 METAR LMML 070045Z 30005KT 270V330 9999 FEW032 14/10 Q1018
                        NOSIG=
200812070030 METAR LMML NIL=
200812070015 METAR LMML 070015Z 30006KT 9999 FEW029 14/10 Q1018 NOSIG=
200812070000 METAR LMML NIL=
200812062345 METAR LMML 062345Z 28005KT 9999 FEW018 14/10 Q1018 NOSIG=
200812062330 METAR LMML NIL=
200812062315 METAR LMML 062315Z 29005KT 9999 FEW020 14/09 Q1018 NOSIG=
200812062300 METAR LMML NIL=
200812062245 METAR LMML 062245Z 30007KT 9999 FEW020 13/10 Q1018 NOSIG=
200812062230 METAR LMML NIL=
200812062215 METAR LMML 062215Z 30006KT 9999 FEW020 13/10 Q1018 NOSIG=
200812062200 METAR LMML NIL=
200812062145 METAR LMML 062145Z 30007KT 9999 FEW020 13/10 Q1018 NOSIG=
200812062130 METAR LMML NIL=
200812062115 METAR LMML 062115Z 30006KT 9999 FEW025 14/09 Q1018 NOSIG=
200812062100 METAR LMML NIL=
200812062045 METAR LMML 062045Z 30007KT 9999 FEW025 14/08 Q1018 NOSIG=
200812062030 METAR LMML NIL=
200812062015 METAR LMML 062015Z 31009KT CAVOK 14/09 Q1018 NOSIG=
200812062000 METAR LMML NIL=
200812061945 METAR LMML 061945Z 31009KT 9999 FEW025 14/11 Q1018 NOSIG=
200812061930 METAR LMML NIL=
200812061915 METAR LMML 061915Z 30008KT 9999 FEW025 14/11 Q1018 NOSIG=
200812061900 METAR LMML NIL=
200812061845 METAR LMML 061845Z 31008KT CAVOK 14/11 Q1017 NOSIG=
200812061830 METAR LMML NIL=
200812061815 METAR LMML 061815Z 30007KT 9999 FEW030 14/11 Q1017 NOSIG=
200812061800 METAR LMML NIL=
200812061745 METAR LMML 061745Z 30008KT 9999 FEW030 14/11 Q1017 NOSIG=
200812061730 METAR LMML NIL=
200812061715 METAR LMML 061715Z 31009KT 9999 FEW030 14/11 Q1017 NOSIG=
200812061700 METAR LMML NIL=
200812061645 METAR LMML 061645Z 30005KT 9999 FEW030 14/11 Q1016 NOSIG=
200812061630 METAR LMML NIL=
200812061615 METAR LMML 061615Z 31006KT 9999 FEW029 14/11 Q1016 NOSIG=
200812061600 METAR LMML NIL=
200812061545 METAR LMML 061545Z 30006KT 260V340 9999 FEW029 15/10 Q1016
                        NOSIG=
200812061530 METAR LMML NIL=
200812061515 METAR LMML 061515Z 30007KT 270V330 9999 FEW029 16/11 Q1016
                        NOSIG=
200812061500 METAR LMML NIL=
200812061445 METAR LMML 061445Z 30008KT 270V330 9999 FEW029 16/10 Q1016
                        NOSIG=
200812061430 METAR LMML NIL=
200812061415 METAR LMML 061415Z 30010KT 270V330 9999 FEW032 17/10 Q1016
                        NOSIG=
200812061400 METAR LMML NIL=
200812061345 METAR LMML 061345Z 30009KT 270V330 9999 FEW032 17/10 Q1016
                        NOSIG=
200812061330 METAR LMML NIL=
200812061315 METAR LMML 061315Z 31010KT 280V340 9999 FEW032 17/10 Q1016
                        NOSIG=
200812061300 METAR LMML NIL=
200812061245 METAR LMML 061245Z 31010KT 260V330 9999 FEW032 17/10 Q1016
                        NOSIG=
200812061230 METAR LMML NIL=
200812061215 METAR LMML 061215Z 31011KT 9999 FEW032 17/10 Q1016 NOSIG=
200812061200 METAR LMML NIL=
200812061145 METAR LMML 061145Z 28008KT 250V310 9999 FEW031 17/09 Q1016
                        NOSIG=
200812061130 METAR LMML NIL=
200812061115 METAR LMML 061115Z 29007KT 250V310 9999 FEW031 17/09 Q1016
                        NOSIG=
200812061100 METAR LMML NIL=
200812061045 METAR LMML 061045Z 28007KT 240V330 9999 FEW031 17/10 Q1016
                        NOSIG=
200812061030 METAR LMML NIL=
200812061015 METAR LMML 061015Z 30005KT 280V350 9999 FEW030 17/11 Q1017
                        NOSIG=
200812061000 METAR LMML NIL=
200812060945 METAR LMML 060945Z 30004KT 270V330 9999 SCT030 SCT250 17/11
                        Q1017 NOSIG=
200812060930 METAR LMML NIL=
200812060915 METAR LMML 060915Z 29004KT 250V320 9999 SCT030 SCT250 16/11
                        Q1017 NOSIG=
200812060900 METAR LMML NIL=
200812060845 METAR LMML 060845Z VRB01KT 9999 FEW033 SCT120 17/10 Q1017
                        NOSIG=
200812060830 METAR LMML NIL=
200812060815 METAR LMML 060815Z VRB01KT 9999 FEW039 BKN120 15/11 Q1017
                        NOSIG=
200812060800 METAR LMML NIL=
200812060745 METAR LMML 060745Z VRB01KT 9999 FEW039 BKN090 16/10 Q1017
                        NOSIG=
200812060730 METAR LMML NIL=
200812060715 METAR LMML 060715Z VRB03KT 9999 FEW039 SCT060 BKN090 14/09
                        Q1017 NOSIG=
200812060700 METAR LMML NIL=
200812060645 METAR LMML 060645Z VRB03KT 9999 FEW039 BKN090 14/09 Q1017
                        NOSIG=
200812060630 METAR LMML NIL=
200812060615 METAR LMML 060615Z VRB02KT 9999 FEW035 BKN080 13/09 Q1017
                        NOSIG=
200812060600 METAR LMML NIL=
200812060545 METAR LMML 060545Z VRB01KT 9999 FEW035 BKN080 13/08 Q1017
                        NOSIG=
200812060530 METAR LMML NIL=
200812060515 METAR LMML 060515Z VRB03KT CAVOK 14/08 Q1017 NOSIG=
200812060500 METAR LMML NIL=
200812060445 METAR LMML 060445Z VRB03KT CAVOK 14/08 Q1017 NOSIG=
200812060430 METAR LMML NIL=
200812060415 METAR LMML 060415Z VRB03KT CAVOK 14/07 Q1018 NOSIG=
200812060400 LMML NIL=
200812060345 METAR LMML 060345Z VRB03KT 9999 FEW036 SCT070 BKN110 15/07
                        Q1017 NOSIG=
200812060315 METAR LMML 060315Z VRB03KT 9999 FEW036 SCT060 BKN120 15/07
                        Q1017 NOSIG=
200812060300 METAR LMML NIL=
200812060245 METAR LMML 060245Z VRB03KT 9999 FEW036 SCT060 BKN110 15/07
                        Q1018 NOSIG=
200812060230 METAR LMML NIL=
200812060200 METAR LMML NIL=
200812060145 METAR LMML 060145Z 25007KT 200V290 9999 FEW036 SCT090 15/08
                        Q1018 NOSIG=
200812060130 METAR LMML NIL=
200812060115 METAR LMML 060115Z 23006KT 190V280 CAVOK 15/08 Q1018 NOSIG=
200812060100 METAR LMML NIL=
200812060045 METAR LMML 060045Z 23006KT 210V280 CAVOK 15/08 Q1018 NOSIG=
200812060030 METAR LMML NIL=
200812060015 METAR LMML 060015Z 23008KT 200V270 CAVOK 15/07 Q1018 NOSIG=
200812060000 METAR LMML NIL=
200812052345 METAR LMML 052345Z 23006KT 190V280 CAVOK 15/08 Q1019 NOSIG=
200812052330 METAR LMML NIL=
200812052315 METAR LMML 052315Z 21007KT 170V260 CAVOK 15/07 Q1019 NOSIG=
200812052300 METAR LMML NIL=
200812052245 METAR LMML 052245Z 21006KT 180V250 CAVOK 15/07 Q1019 NOSIG=
200812052230 METAR LMML NIL=
200812052215 METAR LMML 052215Z 21006KT 170V260 CAVOK 15/07 Q1019 NOSIG=
200812052200 METAR LMML NIL=
200812052145 METAR LMML 052145Z 21006KT 170V240 CAVOK 14/07 Q1019 NOSIG=
200812052130 LMML NIL=
200812052115 METAR LMML 052115Z 21006KT 180V250 CAVOK 14/07 Q1019 NOSIG=
200812052100 METAR LMML NIL=
200812052030 METAR LMML NIL=
200812052015 METAR LMML 052015Z 20006KT 160V250 CAVOK 14/07 Q1019 NOSIG=
200812052000 METAR LMML NIL=
200812051945 METAR LMML 051945Z 20004KT 160V250 CAVOK 14/07 Q1019 NOSIG=
200812051915 METAR LMML 051915Z 20006KT 170V270 CAVOK 14/07 Q1019 NOSIG=
200812051900 METAR LMML NIL=
200812051845 METAR LMML 051845Z 20006KT 160V250 CAVOK 14/08 Q1019 NOSIG=
200812051830 METAR LMML NIL=
200812051815 METAR LMML 051815Z 20006KT 170V240 CAVOK 14/07 Q1019 NOSIG=
200812051800 METAR LMML NIL=
200812051745 METAR LMML 051745Z 21005KT 180V270 CAVOK 14/08 Q1019 NOSIG=
200812051730 METAR LMML NIL=
200812051715 METAR LMML 051715Z 21004KT 180V260 CAVOK 14/08 Q1019 NOSIG=
200812051700 METAR LMML NIL=
200812051645 METAR LMML 051645Z 21005KT 180V260 9999 FEW039 14/07 Q1018
                        NOSIG=
200812051630 METAR LMML NIL=
200812051615 METAR LMML 051615Z 21005KT 180V250 9999 FEW039 14/07 Q1018
                        NOSIG=
200812051600 METAR LMML NIL=
200812051545 METAR LMML 051545Z 21005KT 170V250 9999 FEW039 15/08 Q1018
                        NOSIG=
200812051530 METAR LMML NIL=
200812051515 METAR LMML 051515Z 21005KT 170V250 9999 FEW041 15/08 Q1018
                        NOSIG=
200812051500 METAR LMML NIL=
200812051445 METAR LMML 051445Z 22008KT 200V260 9999 FEW041 16/07 Q1019
                        NOSIG=
200812051430 METAR LMML NIL=
200812051415 METAR LMML 051415Z 23008KT 200V280 9999 SCT039 17/09 Q1018
                        NOSIG=
200812051400 METAR LMML NIL=
200812051345 METAR LMML 051345Z 22008KT 180V260 9999 SCT045 17/08 Q1018
                        NOSIG=
200812051330 METAR LMML NIL=
200812051315 METAR LMML 051315Z 22009KT 170V260 9999 SCT044 17/07 Q1018
                        NOSIG=
200812051300 METAR LMML NIL=
200812051245 METAR LMML 051245Z 22007KT 170V270 9999 SCT046 17/08 Q1018
                        NOSIG=
200812051230 METAR LMML NIL=
200812051215 METAR LMML 051215Z 22009KT 180V280 9999 SCT043 17/08 Q1019
                        NOSIG=
200812051200 METAR LMML NIL=
200812051145 METAR LMML 051145Z 21008KT 170V270 9999 SCT044 17/07 Q1019
                        NOSIG=
200812051130 METAR LMML NIL=
200812051115 METAR LMML 051115Z 21009KT 170V250 9999 SCT041 17/08 Q1019
                        NOSIG=
200812051100 METAR LMML NIL=
200812051045 METAR LMML 051045Z 20010KT 160V240 9999 BKN042 16/08 Q1020
                        NOSIG=
200812051030 METAR LMML NIL=
200812051015 METAR LMML 051015Z 20009KT 160V250 9999 BKN041 17/09 Q1020
                        NOSIG=
200812051000 METAR LMML NIL=
200812050945 METAR LMML 050945Z 20009KT 160V240 9999 BKN041 16/08 Q1020
                        NOSIG=
200812050930 METAR LMML NIL=
200812050915 METAR LMML 050915Z 21007KT 180V250 9999 BKN040 16/09 Q1020
                        NOSIG=
200812050900 METAR LMML NIL=
200812050845 METAR LMML 050845Z 21006KT 170V280 9999 SCT040 16/09 Q1020
                        NOSIG=
200812050830 METAR LMML NIL=
200812050815 METAR LMML 050815Z 21007KT 160V270 9999 FEW041 SCT052 17/09
                        Q1019 NOSIG=
200812050800 METAR LMML NIL=
200812050745 METAR LMML 050745Z 21006KT 180V260 9999 FEW043 SCT050 15/08
                        Q1019 NOSIG=
200812050730 METAR LMML NIL=
200812050715 METAR LMML 050715Z 21005KT 180V250 9999 SCT042 15/08 Q1019
                        NOSIG=
200812050700 METAR LMML NIL=
200812050645 METAR LMML 050645Z 22005KT 190V260 9999 SCT042 14/07 Q1019
                        NOSIG=
200812050630 METAR LMML NIL=
200812050615 METAR LMML 050615Z 23005KT 9999 SCT043 14/08 Q1019 NOSIG=
200812050600 METAR LMML NIL=
200812050545 METAR LMML 050545Z 22005KT 200V260 9999 SCT044 14/07 Q1019
                        NOSIG=
200812050530 METAR LMML NIL=
200812050515 METAR LMML 050515Z 23005KT 9999 SCT043 13/07 Q1018 NOSIG=
200812050500 METAR LMML NIL=
200812050445 METAR LMML 050445Z 23004KT 9999 FEW041 13/08 Q1018 NOSIG=
200812050430 METAR LMML NIL=
200812050415 METAR LMML 050415Z 23004KT 200V260 9999 FEW042 13/08 Q1018
                        NOSIG=
200812050400 METAR LMML NIL=
200812050345 METAR LMML 050345Z 23004KT 200V270 9999 FEW039 13/07 Q1018
                        NOSIG=
200812050330 METAR LMML NIL=
200812050315 METAR LMML 050315Z 23006KT 210V270 9999 FEW039 14/08 Q1018
                        NOSIG=
200812050300 METAR LMML NIL=
200812050245 METAR LMML 050245Z 24006KT 200V260 9999 FEW038 14/08 Q1018
                        NOSIG=
200812050230 METAR LMML NIL=
200812050215 METAR LMML 050215Z 24005KT 210V270 9999 SCT036 13/08 Q1018
                        NOSIG=
200812050200 METAR LMML NIL=
200812050145 METAR LMML 050145Z 24004KT 9999 SCT036 12/08 Q1018 NOSIG=
200812050130 METAR LMML NIL=
200812050115 METAR LMML 050115Z 25005KT 9999 SCT036 13/08 Q1018 NOSIG=
200812050100 METAR LMML NIL=
200812050045 METAR LMML 050045Z 26004KT 9999 FEW038 13/08 Q1018 NOSIG=
200812050030 METAR LMML NIL=
200812050015 METAR LMML 050015Z VRB03KT 9999 FEW038 12/08 Q1018 NOSIG=
200812050000 METAR LMML NIL=
200812042345 METAR LMML 042345Z VRB03KT 9999 FEW038 12/08 Q1018 NOSIG=
200812042330 METAR LMML NIL=
200812042315 METAR LMML 042315Z 29004KT 9999 FEW040 13/08 Q1018 NOSIG=
200812042300 METAR LMML NIL=
200812042245 METAR LMML 042245Z VRB03KT 9999 FEW040 12/08 Q1018 NOSIG=
200812042230 METAR LMML NIL=
200812042215 METAR LMML 042215Z VRB01KT 9999 FEW034 12/08 Q1018 NOSIG=
200812042200 METAR LMML NIL=
200812042145 METAR LMML 042145Z VRB03KT 9999 FEW036 12/08 Q1018 NOSIG=
200812042130 METAR LMML NIL=
200812042115 METAR LMML 042115Z 28005KT 9999 FEW036 13/08 Q1017 NOSIG=
200812042100 METAR LMML NIL=
200812042045 METAR LMML 042045Z VRB03KT 9999 FEW038 13/09 Q1017 NOSIG=
200812042030 METAR LMML NIL=
200812042015 METAR LMML 042015Z 30005KT 9999 FEW033 13/09 Q1017 NOSIG=
200812042000 METAR LMML NIL=
200812041945 METAR LMML 041945Z 28006KT 9999 FEW036 13/08 Q1017 NOSIG=
200812041930 METAR LMML NIL=
200812041900 METAR LMML NIL=
200812041845 METAR LMML 041845Z 28008KT 250V310 9999 SCT036 14/08 Q1016
                        NOSIG=
200812041830 LMML NIL=
200812041815 METAR LMML 041815Z 28008KT 250V310 9999 SCT035 14/08 Q1016
                        NOSIG=
200812041800 METAR LMML NIL=
200812041745 METAR LMML 041745Z 28010KT 250V310 CAVOK 14/07 Q1015 NOSIG=
200812041730 METAR LMML NIL=
200812041715 METAR LMML 041715Z 28010KT 250V310 9999 SCT037 14/08 Q1015
                        TEMPO SHRA=
200812041700 METAR LMML NIL=
200812041645 METAR LMML 041645Z 28010KT 250V310 9999 SCT037 14/08 Q1014
                        TEMPO SHRA=
200812041630 METAR LMML NIL=
200812041615 METAR LMML 041615Z 28010KT 250V310 9999 SCT037 14/08 Q1014
                        TEMPO SHRA=
200812041600 METAR LMML NIL=
200812041545 METAR LMML 041545Z 28009KT 250V330 9999 FEW033 13/08 Q1013
                        NOSIG=
200812041530 METAR LMML NIL=
200812041515 METAR LMML 041515Z 29010KT 9999 FEW033 14/07 Q1013 NOSIG=
200812041500 METAR LMML NIL=
200812041445 METAR LMML 041445Z 29013KT 260V320 9999 SCT033 14/07 Q1012
                        NOSIG=
200812041430 METAR LMML NIL=
200812041415 METAR LMML 041415Z 29012KT 9999 SCT041 SCT060 14/06 Q1012
                        TEMPO 8000 SHRA=
200812041400 METAR LMML NIL=
200812041345 METAR LMML 041345Z 29013G23KT 250V330 9999 SCT045 SCT060
                        14/05 Q1011 TEMPO 8000 SHRA=
200812041330 METAR LMML NIL=
200812041315 METAR LMML 041315Z 28014KT 250V310 9999 SCT042 SCT060 14/06
                        Q1011 NOSIG=
200812041300 METAR LMML NIL=
200812041245 METAR LMML 041245Z 28013KT 230V300 9999 SCT042 SCT060 14/06
                        Q1011 NOSIG=
200812041230 METAR LMML NIL=
200812041215 METAR LMML 041215Z 29012KT 260V320 9999 SCT042 SCT060 14/07
                        Q1010 NOSIG=
200812041200 METAR LMML NIL=
200812041145 METAR LMML 041145Z 28016KT 240V310 9999 SCT045 15/07 Q1010
                        TEMPO 8000 SHRA BKN025=
200812041115 METAR LMML 041115Z 28015KT 250V310 9999 SCT045 16/07 Q1010
                        NOSIG=
200812041100 METAR LMML NIL=
200812041045 METAR LMML 041045Z 29018KT 250V330 9999 SCT043 15/06 Q1010
                        NOSIG=
200812041030 METAR LMML NIL=
200812041015 METAR LMML 041015Z 28017KT 240V310 9999 SCT040 15/06 Q1010
                        NOSIG=
200812041000 METAR LMML NIL=
200812040945 METAR LMML 040945Z 29016KT 260V320 9999 SCT049 15/06 Q1009
                        NOSIG=
200812040930 METAR LMML NIL=
200812040915 METAR LMML 040915Z 29018KT 260V320 9999 SCT043 15/06 Q1008
                        NOSIG=
200812040900 METAR LMML NIL=
200812040845 METAR LMML 040845Z 29019KT 9999 SCT042 15/06 Q1008 NOSIG=
200812040830 METAR LMML NIL=
200812040815 METAR LMML 040815Z 29016G26KT 9999 FEW035 14/06 Q1008 NOSIG=
200812040800 METAR LMML NIL=
200812040745 METAR LMML 040745Z 29017KT 260V330 9999 FEW035 14/04 Q1007
                        NOSIG=
200812040730 METAR LMML NIL=
200812040715 METAR LMML 040715Z 29017KT 250V320 9999 FEW035 13/04 Q1006
                        NOSIG=
200812040645 METAR LMML 040645Z 29021KT 260V320 9999 SCT038 13/04 Q1005
                        NOSIG=
200812040615 METAR LMML 040615Z 29021G31KT 250V320 9999 SCT041 SCT250
                        13/06 Q1005 NOSIG=
200812040600 METAR LMML NIL=
200812040545 METAR LMML 040545Z 29022G33KT 9999 SCT039 BKN250 13/06 Q1004
                        NOSIG=
200812040530 METAR LMML NIL=
200812040515 METAR LMML 040515Z 29026G36KT 9999 SCT038 SCT120 13/05 Q1003
                        NOSIG=
200812040500 METAR LMML NIL=
200812040445 METAR LMML 040445Z 29025G36KT 260V320 9999 SCT032 SCT041
                        BKN120 13/07 Q1002 NOSIG=
200812040430 METAR LMML NIL=
200812040415 METAR LMML 040415Z 30021KT 270V330 9999 SCT030 BKN120 13/08
                        Q1001 TEMPO 5000=
200812040400 METAR LMML NIL=
200812040345 METAR LMML 040345Z 30021G33KT 9999 SCT032 BKN120 13/09 Q1000
                        TEMPO 5000=
200812040330 METAR LMML NIL=
200812040315 METAR LMML 040315Z 31022KT 9999 SCT029 OVC120 13/08 Q1000
                        TEMPO 5000=
200812040300 METAR LMML NIL=
200812040245 METAR LMML 040245Z 31021KT 270V330 9999 SCT030 OVC120 13/09
                        Q0999 TEMPO 5000=
200812040230 METAR LMML NIL=
200812040215 METAR LMML 040215Z 31019KT 9999 SCT032 OVC120 13/09 Q0999
                        TEMPO 5000=
200812040200 METAR LMML NIL=
200812040145 METAR LMML 040145Z 31020KT 7000 -RA SCT026 OVC039 13/09 Q0999
                        RERA TEMPO 5000=
200812040130 METAR LMML NIL=
200812040115 LMML 040115Z 32020G32KT 290V350 7000 -RA SCT017 OVC036 13/10
                        Q0998 RERA TEMPO 5000=
200812040100 METAR LMML NIL=
200812040045 METAR LMML 040045Z 32023KT 4000 RA SCT017 OVC032 12/10 Q0998
                        NOSIG=
200812040030 METAR LMML NIL=
200812040015 METAR LMML 040015Z 33021KT 3000 RA SCT008 SCT014CB OVC025
                        12/11 Q0998 RETS NOSIG=
200812040000 METAR LMML NIL=
200812032345 METAR LMML 032345Z 33024G34KT 3000 RA SCT008 SCT014CB OVC026
                        12/11 Q0998 RETS TEMPO 2000 TSRA
                        BKN010CB=
200812032330 METAR LMML NIL=
200812032315 METAR LMML 032315Z 33020G30KT 3000 TSRA SCT010 BKN018CB 13/11
                        Q0997 TEMPO 2000 TSRA BKN010CB=
200812032300 METAR LMML NIL=
200812032245 METAR LMML 032245Z 33020KT 3000 TSRA SCT010 BKN019CB 13/11
                        Q0998 TEMPO 2000 TSRA BKN010CB=
200812032230 METAR LMML NIL=
200812032215 METAR LMML 032215Z 33024G35KT 3000 TSRA SCT009 BKN019CB 13/12
                        Q0998 TEMPO 2000 TSRA BKN010CB=
200812032200 METAR LMML NIL=
200812032145 METAR LMML 032145Z 32022KT 290V350 3000 TSRA SCT006 BKN016CB
                        13/12 Q0998 TEMPO 8000 SHRA BKN015=
200812032131 LMML 032131Z 33021G32KT 290V350 3000 SHRA SCT006 BKN019 BKN070
                        13/12 Q0998 TEMPO 8000 SHRA BKN015=
200812032130 METAR LMML NIL=
200812032115 METAR LMML 032115Z 31021KT 9000 -RA FEW011 BKN021 BKN070
                        13/12 Q0998 TEMPO 8000 SHRA BKN015=
200812032100 METAR LMML NIL=
200812032045 METAR LMML 032045Z 31014KT 280V340 9000 FEW013 SCT035 BKN070
                        13/12 Q0998 TEMPO 8000 SHRA BKN015=
200812032030 METAR LMML NIL=
200812032015 METAR LMML 032015Z 31010KT 9000 -RA SCT028 BKN070 14/13 Q0999
                        TEMPO 8000 SHRA BKN015=
200812032000 METAR LMML NIL=
200812031945 METAR LMML 031945Z 28005KT 9999 SCT035 BKN070 14/12 Q0999
                        TEMPO 8000 SHRA BKN015=
200812031930 METAR LMML NIL=
200812031915 METAR LMML 031915Z 32006KT 9999 SCT035 OVC070 14/12 Q0999
                        TEMPO 8000 SHRA BKN015 RMK LIGHTNING
                        TO SOUTH=
200812031900 METAR LMML NIL=
200812031845 METAR LMML 031845Z VRB03KT 9999 -RA BKN035 OVC080 15/11 Q0998
                        TEMPO 8000 SHRA BKN015=
200812031830 METAR LMML NIL=
200812031815 METAR LMML 031815Z 05005KT 020V080 9999 SCT035 BKN070 15/11
                        Q0998 TEMPO 8000 SHRA BKN015=
200812031800 METAR LMML NIL=
200812031745 METAR LMML 031745Z 08005KT 050V120 9999 SCT037 BKN080 15/11
                        Q0999 TEMPO 8000 SHRA BKN015=
200812031730 METAR LMML NIL=
200812031715 METAR LMML 031715Z 07006KT 030V110 9999 SCT017 BKN090 15/12
                        Q0999 TEMPO 8000 SHRA BKN015=
200812031700 METAR LMML NIL=
200812031645 METAR LMML 031645Z 04010KT 010V080 9999 RA SCT014 OVC070
                        16/14 Q0999 TEMPO 8000 SHRA BKN015=
200812031630 METAR LMML NIL=
200812031615 METAR LMML 031615Z 03005KT 330V070 9999 RA BKN016 OVC100
                        16/14 Q1000 NOSIG=
200812031600 LMML NIL=
200812031545 LMML 031545Z 03007KT 350V050 9999 -RA FEW024 OVC100 16/13
                        Q0999 NOSIG=
200812031530 METAR LMML NIL=
200812031515 METAR LMML 031515Z 01007KT 9999 -RA FEW024 OVC130 16/13 Q1000
                        NOSIG=
200812031500 METAR LMML NIL=
200812031445 METAR LMML 031445Z 34007KT 9999 -RA FEW024 SCT080 BKN130
                        16/13 Q1000 NOSIG=
200812031430 METAR LMML NIL=
200812031415 METAR LMML 031415Z 33008KT 9999 FEW024 SCT080 BKN130 16/12
                        Q1001 NOSIG=
200812031400 METAR LMML NIL=
200812031345 METAR LMML 031345Z 34010KT 9999 SCT023 BKN120 16/12 Q1001
                        NOSIG=
200812031330 METAR LMML NIL=
200812031315 METAR LMML 031315Z 34009KT 320V020 9999 FEW023 BKN130 17/12
                        Q1001 NOSIG=
200812031300 METAR LMML NIL=
200812031245 METAR LMML 031245Z 34013KT 9999 FEW023 SCT250 17/12 Q1001
                        NOSIG=
200812031230 METAR LMML NIL=
200812031215 METAR LMML 031215Z 33011KT 300V010 9999 SCT023 SCT044 17/12
                        Q1002 NOSIG=
200812031200 METAR LMML NIL=
200812031145 METAR LMML 031145Z 33010KT 9999 BKN024 17/12 Q1002 NOSIG=
200812031130 METAR LMML NIL=
200812031115 METAR LMML 031115Z 32009KT 290V360 9999 BKN024 17/12 Q1002
                        NOSIG=
200812031100 METAR LMML NIL=
200812031045 METAR LMML 031045Z 35010KT 9999 SCT023 17/12 Q1002 NOSIG=
200812031030 METAR LMML NIL=
200812031015 METAR LMML 031015Z 35010KT 320V020 9999 FEW022 BKN120 17/13
                        Q1003 NOSIG=
200812031000 METAR LMML NIL=
200812030945 METAR LMML 030945Z 34012KT 9999 FEW018 BKN120 17/13 Q1003
                        TEMPO 8000 SHRA BKN015=
200812030930 METAR LMML NIL=
200812030915 METAR LMML 030915Z 33012KT 9999 FEW018 BKN120 16/13 Q1003
                        TEMPO 8000 SHRA BKN015=
200812030900 METAR LMML NIL=
200812030845 METAR LMML 030845Z 33011KT 9999 SCT018 SCT120 16/13 Q1003
                        TEMPO 8000 SHRA BKN015=
200812030830 METAR LMML NIL=
200812030815 METAR LMML 030815Z 33012KT 9999 SCT019 16/14 Q1003 TEMPO
                        8000 SHRA BKN015=
200812030800 METAR LMML NIL=
200812030745 METAR LMML 030745Z 32010KT 9999 SCT017 15/13 Q1003 TEMPO
                        8000 SHRA BKN015=
200812030730 METAR LMML NIL=
200812030715 METAR LMML 030715Z 32009KT 9999 FEW009 SCT019TCU 15/14 Q1003
                        TEMPO 8000 SHRA BKN015=
200812030700 METAR LMML NIL=
200812030645 METAR LMML 030645Z 29008KT 9000 SCT008 SCT019 16/14 Q1003
                        NOSIG=
200812030630 METAR LMML NIL=
200812030615 METAR LMML 030615Z 30005KT 9000 FEW008 SCT016 BKN250 16/15
                        Q1003 NOSIG=
200812030600 METAR LMML NIL=
200812030545 METAR LMML 030545Z 34004KT 310V010 9999 FEW007 SCT013 BKN250
                        16/16 Q1003 NOSIG=
200812030530 METAR LMML NIL=
200812030515 METAR LMML 030515Z 35004KT 9999 FEW008 SCT012 15/15 Q1003
                        NOSIG=
200812030500 METAR LMML NIL=
200812030445 METAR LMML 030445Z VRB03KT 9999 FEW012 15/15 Q1003 NOSIG=
200812030415 METAR LMML 030415Z 33005KT 9999 FEW011 15/14 Q1002 NOSIG=
200812030345 METAR LMML 030345Z VRB03KT 9999 FEW012 15/14 Q1002 NOSIG=
200812030315 METAR LMML 030315Z 30005KT 270V340 9999 FEW012 16/15 Q1003
                        NOSIG=
200812030300 METAR LMML NIL=
200812030245 METAR LMML 030245Z VRB03KT CAVOK 15/14 Q1003 NOSIG=
200812030230 METAR LMML NIL=
200812030215 METAR LMML 030215Z 29005KT CAVOK 16/15 Q1003 NOSIG=
200812030200 METAR LMML NIL=
200812030145 METAR LMML 030145Z 29006KT CAVOK 16/15 Q1004 NOSIG=
200812030130 METAR LMML NIL=
200812030115 METAR LMML 030115Z 28006KT 250V310 9999 FEW020 16/15 Q1004
                        NOSIG=
200812030100 METAR LMML NIL=
200812030045 METAR LMML 030045Z 29007KT 260V320 9999 FEW020 16/15 Q1003
                        NOSIG=
200812030030 METAR LMML NIL=
200812030015 METAR LMML 030015Z 29006KT 260V320 9999 FEW013 16/14 Q1003
                        NOSIG=
200812030000 METAR LMML NIL=
200812022345 METAR LMML 022345Z 26004KT 210V290 9999 FEW013 16/15 Q1004
                        NOSIG=
200812022330 METAR LMML NIL=
200812022315 METAR LMML 022315Z VRB03KT 9999 FEW009 SCT020 17/16 Q1003
                        NOSIG RMK DISTANT LIGHTNING TO N=
200812022300 LMML NIL=
200812022245 LMML 022245Z VRB03KT 9999 SCT010 16/16 Q1004 TEMPO 7000 TSRA
                        BKN012CB=
200812022230 METAR LMML NIL=
200812022215 METAR LMML 022215Z VRB02KT 9999 FEW006 FEW014TCU 17/16 Q1004
                        TEMPO 7000 TSRA BKN012CB=
200812022200 METAR LMML NIL=
200812022145 METAR LMML 022145Z VRB03KT 9999 BKN009 FEW014CB 17/16 Q1005
                        TEMPO 7000 TSRA BKN012CB RMK LIGHTNING
                        TO NW=
200812022130 METAR LMML NIL=
200812022115 METAR LMML 022115Z VRB03KT 9999 BKN007 FEW014CB 18/17 Q1005
                        TEMPO 7000 TSRA BKN012CB RMK LIGHTNING
                        TO NNW=
200812022100 METAR LMML NIL=
200812022045 METAR LMML 022045Z 11007KT 9999 BKN007 SCT012 17/16 Q1005
                        NOSIG=
200812022030 METAR LMML NIL=
200812022015 METAR LMML 022015Z 11008KT 070V140 9999 BKN009 BKN015 17/16
                        Q1005 NOSIG RMK LIGHTNING TO WEST=
200812022000 METAR LMML NIL=
200812021945 METAR LMML 021945Z 09008KT 060V120 9999 BKN010 17/16 Q1006
                        NOSIG RMK LIGHTNING TO WEST=
200812021933 LMML 021933Z 09007KT 060V130 9999 BKN011 SCT120 17/16 Q1006
                        NOSIG RMK LIGHTNING TO WEST=
200812021915 METAR LMML 021915Z 09008KT 060V130 9999 SCT012 SCT120 17/15
                        Q1006 NOSIG RMK LIGHTNING TO W=
200812021900 METAR LMML NIL=
200812021845 METAR LMML 021845Z 09008KT 060V130 9999 BKN012 BKN120 17/15
                        Q1006 NOSIG=
200812021830 METAR LMML NIL=
200812021815 METAR LMML 021815Z 10008KT 060V120 9999 FEW017 BKN120 17/15
                        Q1007 NOSIG=
200812021800 METAR LMML NIL=
200812021745 METAR LMML 021745Z 10008KT 070V130 9999 FEW017 SCT120 17/15
                        Q1007 NOSIG=
200812021730 METAR LMML NIL=
200812021715 METAR LMML 021715Z 10007KT 9999 FEW017 17/15 Q1007 NOSIG=
200812021700 METAR LMML NIL=
200812021645 METAR LMML 021645Z 10008KT 9999 FEW014 17/15 Q1008 NOSIG=
200812021630 METAR LMML NIL=
200812021615 METAR LMML 021615Z 11007KT 9999 FEW017 17/15 Q1008 NOSIG=
200812021600 METAR LMML NIL=
200812021545 METAR LMML 021545Z 11008KT 9999 FEW020 17/14 Q1008 NOSIG=
200812021530 METAR LMML NIL=
200812021515 METAR LMML 021515Z 11010KT 9999 FEW021 18/14 Q1008 NOSIG=
200812021500 METAR LMML NIL=
200812021445 METAR LMML 021445Z 11009KT 9999 FEW021 18/14 Q1008 NOSIG=
200812021430 METAR LMML NIL=
200812021415 METAR LMML 021415Z 10007KT 030V140 9999 FEW031 19/13 Q1008
                        NOSIG=
200812021400 METAR LMML NIL=
200812021345 METAR LMML 021345Z 14007KT 9999 FEW037 20/12 Q1009 NOSIG=
200812021330 METAR LMML NIL=
200812021315 METAR LMML 021315Z 16006KT 110V250 9999 FEW038 20/11 Q1009
                        NOSIG=
200812021300 METAR LMML NIL=
200812021245 METAR LMML 021245Z 17005KT 120V210 9999 FEW037 20/11 Q1009
                        NOSIG=
200812021230 METAR LMML NIL=
200812021215 METAR LMML 021215Z 15006KT 100V210 9999 FEW037 20/11 Q1010
                        NOSIG=
200812021200 METAR LMML NIL=
200812021145 METAR LMML 021145Z 16006KT 110V220 9999 FEW037 20/10 Q1010
                        NOSIG=
200812021130 METAR LMML NIL=
200812021115 METAR LMML 021115Z 16007KT 130V210 9999 FEW037 20/10 Q1010
                        NOSIG=
200812021100 METAR LMML NIL=
200812021045 METAR LMML 021045Z 17005KT 110V240 9999 FEW037 20/11 Q1011
                        NOSIG=
200812021030 METAR LMML NIL=
200812021015 METAR LMML 021015Z 17006KT 130V220 9999 FEW037 20/11 Q1011
                        NOSIG=
200812021000 METAR LMML NIL=
200812020945 METAR LMML 020945Z 19008KT 9999 FEW037 20/10 Q1012 NOSIG=
200812020930 METAR LMML NIL=
200812020915 METAR LMML 020915Z 18007KT 150V220 9999 FEW037 20/10 Q1012
                        NOSIG=
200812020900 METAR LMML NIL=
200812020845 METAR LMML 020845Z 18005KT 130V220 9999 FEW037 19/10 Q1012
                        NOSIG=
200812020830 METAR LMML NIL=
200812020815 METAR LMML 020815Z 18004KT 150V230 9999 FEW037 SCT250 19/11
                        Q1013 NOSIG=
200812020800 METAR LMML NIL=
200812020745 METAR LMML 020745Z VRB03KT 9999 FEW037 SCT250 17/11 Q1012
                        NOSIG=
200812020730 METAR LMML NIL=
200812020715 METAR LMML 020715Z VRB03KT 9999 FEW037 SCT250 17/10 Q1012
                        NOSIG=
200812020700 METAR LMML NIL=
200812020645 METAR LMML 020645Z 18004KT 9999 FEW037 SCT250 16/09 Q1012
                        NOSIG=
200812020630 METAR LMML NIL=
200812020615 METAR LMML 020615Z 17004KT 9999 FEW037 SCT250 16/10 Q1012
                        NOSIG=
200812020600 METAR LMML NIL=
200812020545 METAR LMML 020545Z 17004KT 9999 FEW037 SCT250 16/10 Q1013
                        NOSIG=
200812020530 METAR LMML NIL=
200812020515 METAR LMML 020515Z 17004KT 9999 FEW036 SCT250 16/10 Q1013
                        NOSIG=
200812020500 METAR LMML NIL=
200812020445 METAR LMML 020445Z 17004KT 9999 FEW036 16/10 Q1013 NOSIG=
200812020430 METAR LMML NIL=
200812020415 METAR LMML 020415Z 17004KT CAVOK 16/10 Q1012 NOSIG=
200812020400 METAR LMML NIL=
200812020345 METAR LMML 020345Z 16004KT CAVOK 15/10 Q1012 NOSIG=
200812020330 METAR LMML NIL=
200812020315 METAR LMML 020315Z 18004KT 9999 FEW034 15/10 Q1013 NOSIG=
200812020300 METAR LMML NIL=
200812020245 METAR LMML 020245Z VRB03KT 9999 FEW035 15/10 Q1013 NOSIG=
200812020230 METAR LMML NIL=
200812020215 METAR LMML 020215Z VRB02KT CAVOK 15/10 Q1013 NOSIG=
200812020200 METAR LMML NIL=
200812020145 METAR LMML 020145Z VRB02KT CAVOK 16/10 Q1013 NOSIG=
200812020130 METAR LMML NIL=
200812020115 METAR LMML 020115Z VRB03KT CAVOK 16/10 Q1014 NOSIG=
200812020100 METAR LMML NIL=
200812020045 METAR LMML 020045Z 18004KT 150V210 CAVOK 16/10 Q1014 NOSIG=
200812020030 METAR LMML NIL=
200812020015 METAR LMML 020015Z 19004KT CAVOK 16/10 Q1014 NOSIG=
200812020000 METAR LMML NIL=
200812012345 METAR LMML 012345Z 20004KT CAVOK 16/10 Q1014 NOSIG=
200812012330 METAR LMML NIL=
200812012315 METAR LMML 012315Z 20004KT CAVOK 16/10 Q1014 NOSIG=
200812012245 METAR LMML 012245Z 20004KT CAVOK 16/10 Q1014 NOSIG=
200812012215 METAR LMML 012215Z 21004KT CAVOK 14/09 Q1015 NOSIG=
200812012145 METAR LMML 012145Z VRB02KT CAVOK 13/09 Q1015 NOSIG=
200812012130 METAR LMML NIL=
200812012115 METAR LMML 012115Z VRB01KT CAVOK 13/09 Q1015 NOSIG=
200812012100 METAR LMML NIL=
200812012045 LMML 012045Z VRB01KT CAVOK 13/09 Q1015 NOSIG=
200812012030 METAR LMML NIL=
200812012015 METAR LMML 012015Z VRB01KT CAVOK 14/09 Q1015 NOSIG=
200812012000 METAR LMML NIL=
200812011945 METAR LMML 011945Z VRB01KT CAVOK 14/09 Q1015 NOSIG=
200812011930 METAR LMML NIL=
200812011915 METAR LMML 011915Z VRB02KT CAVOK 14/09 Q1015 NOSIG=
200812011900 METAR LMML NIL=
200812011845 METAR LMML 011845Z VRB01KT CAVOK 14/08 Q1015 NOSIG=
200812011830 METAR LMML NIL=
200812011815 METAR LMML 011815Z 00000KT CAVOK 14/08 Q1015 NOSIG=
200812011800 METAR LMML NIL=
200812011745 METAR LMML 011745Z VRB02KT CAVOK 15/09 Q1015 NOSIG=
200812011730 METAR LMML NIL=
200812011715 METAR LMML 011715Z 27004KT 240V300 CAVOK 16/08 Q1014 NOSIG=
200812011700 METAR LMML NIL=
200812011630 METAR LMML NIL=
200812011615 METAR LMML 011615Z 29004KT CAVOK 16/08 Q1014 NOSIG=
200812011600 METAR LMML NIL=
200812011545 METAR LMML 011545Z 27006KT CAVOK 17/08 Q1014 NOSIG=
200812011530 METAR LMML NIL=
200812011515 METAR LMML 011515Z 28006KT CAVOK 18/08 Q1014 NOSIG=
200812011500 METAR LMML NIL=
200812011445 METAR LMML 011445Z 27008KT 230V310 CAVOK 18/09 Q1014 NOSIG=
200812011430 METAR LMML NIL=
200812011415 METAR LMML 011415Z 26008KT 230V300 CAVOK 19/08 Q1013 NOSIG=
200812011400 METAR LMML NIL=
200812011345 METAR LMML 011345Z 28008KT 240V320 CAVOK 19/08 Q1013 NOSIG=
200812011330 METAR LMML NIL=
200812011315 METAR LMML 011315Z 28008KT 230V310 CAVOK 19/08 Q1013 NOSIG=
200812011300 METAR LMML NIL=
200812011245 METAR LMML 011245Z 27008KT 230V300 CAVOK 19/07 Q1013 NOSIG=
200812011230 METAR LMML NIL=
200812011215 METAR LMML 011215Z 27009KT 230V310 CAVOK 20/08 Q1014 NOSIG=
200812011200 METAR LMML NIL=
200812011145 METAR LMML 011145Z 28008KT 240V320 CAVOK 20/08 Q1014 NOSIG=
200812011115 METAR LMML 011115Z 28010KT 250V310 CAVOK 19/07 Q1014 NOSIG=
200812011100 METAR LMML NIL=
200812011045 METAR LMML 011045Z 28010KT 240V310 CAVOK 19/08 Q1014 NOSIG=
200812011030 METAR LMML NIL=
200812011015 METAR LMML 011015Z 28009KT 240V320 9999 FEW046 SCT250 19/08
                        Q1014 NOSIG=
200812011000 METAR LMML NIL=
200812010945 METAR LMML 010945Z 29009KT 9999 FEW046 SCT250 19/09 Q1014
                        NOSIG=
200812010930 METAR LMML NIL=
200812010915 METAR LMML 010915Z 28009KT 240V310 9999 FEW046 SCT250 19/09
                        Q1014 NOSIG=
200812010900 METAR LMML NIL=
200812010845 METAR LMML 010845Z 28008KT 250V310 9999 FEW047 SCT250 19/10
                        Q1014 NOSIG=
200812010830 METAR LMML NIL=
200812010815 METAR LMML 010815Z 29007KT 9999 FEW047 SCT120 BKN250 18/11
                        Q1014 NOSIG=
200812010800 METAR LMML NIL=
200812010745 METAR LMML 010745Z 29008KT 250V310 9999 FEW040 SCT120 BKN250
                        17/11 Q1014 NOSIG=
200812010730 METAR LMML NIL=
200812010715 METAR LMML 010715Z 29007KT 9999 FEW025 BKN250 17/11 Q1014
                        NOSIG=
200812010700 METAR LMML NIL=
200812010645 METAR LMML 010645Z 29008KT 9999 FEW025 BKN250 18/13 Q1014
                        NOSIG=
200812010630 METAR LMML NIL=
200812010615 METAR LMML 010615Z 23005KT 200V270 9999 FEW030 BKN250 18/13
                        Q1013 NOSIG=
200812010600 METAR LMML NIL=
200812010545 METAR LMML 010545Z 21005KT 170V250 9999 SCT032 BKN250 19/13
                        Q1013 NOSIG=
200812010530 METAR LMML NIL=
200812010515 METAR LMML 010515Z 21005KT 170V250 9999 SCT034 BKN250 19/13
                        Q1013 NOSIG=
200812010500 METAR LMML NIL=
200812010445 METAR LMML 010445Z 21007KT 170V270 9999 FEW034 SCT250 19/13
                        Q1013 NOSIG=
200812010430 METAR LMML NIL=
200812010415 METAR LMML 010415Z 20008KT 170V240 9999 FEW035 19/13 Q1013
                        NOSIG=
200812010400 METAR LMML NIL=
200812010345 METAR LMML 010345Z 20007KT 150V260 9999 FEW035 19/12 Q1013
                        NOSIG=
200812010330 METAR LMML NIL=
200812010315 METAR LMML 010315Z 19008KT 160V240 9999 FEW035 19/13 Q1013
                        NOSIG=
200812010300 METAR LMML NIL=
200812010245 METAR LMML 010245Z 19008KT 160V240 9999 FEW035 19/12 Q1013
                        NOSIG=
200812010230 METAR LMML NIL=
200812010215 METAR LMML 010215Z 19010KT 160V230 9999 FEW029 19/12 Q1014
                        NOSIG=
200812010200 METAR LMML NIL=
200812010145 METAR LMML 010145Z 19011KT 160V220 9999 FEW029 19/13 Q1014
                        NOSIG=
200812010130 METAR LMML NIL=
200812010115 METAR LMML 010115Z 19011KT 160V230 9999 FEW030 19/13 Q1014
                        NOSIG=
200812010100 METAR LMML NIL=
200812010045 METAR LMML 010045Z 19012KT 150V230 CAVOK 19/12 Q1014 NOSIG=
200812010030 METAR LMML NIL=
200812010015 METAR LMML 010015Z 19013KT 160V220 CAVOK 19/11 Q1014 NOSIG=
200812010000 METAR LMML NIL=

###################################
#  short TAF from LMML
###################################
200812312300 TAF LMML 312300Z 0100/0109 11006KT 9999 SCT030=
200812312000 TAF LMML 312000Z 3121/0106 10006KT 9999 SCT020 SCT040=
200812311700 TAF LMML 311700Z 3118/0103 10007KT 9999 FEW025=
200812311400 TAF LMML 311400Z 3115/3124 11012KT 9999 FEW025=
200812311100 TAF LMML 311100Z 3112/3121 10013KT 9999 SCT025 SCT100=
200812310800 TAF LMML 310800Z 3109/3118 10014KT 9999 SCT025 SCT080
                      PROB30 TEMPO 3109/3115 8000 SHRA BKN015 BKN080=
200812310500 TAF LMML 310500Z 3106/3115 13012KT 9999 SCT025 SCT040
                      PROB30 TEMPO 3106/3115 8000 SHRA BKN020=
200812310200 TAF LMML 310200Z 3103/3112 13012KT 9999 SCT030
                      PROB40 TEMPO 3103/3112 8000 RA BKN023=
200812302300 TAF LMML 302300Z 3100/3109 12012KT 9999 SCT012 SCT035
                      PROB40 TEMPO 3100/3109 6000 RA SCT008 BKN025=
200812302000 TAF LMML 302000Z 3021/3106 10012KT 9999 FEW008 SCT015 BKN040
                      TEMPO 3021/3106 8000 RA BKN013 BKN022=
200812301700 TAF LMML 301700Z 3018/3103 08012KT 9999 SCT015 BKN050
                      TEMPO 3018/3103 8000 SHRA BKN012=
200812301400 TAF LMML 301400Z 3015/3024 06015G25KT 9999 BKN015
                      TEMPO 3015/3024 8000 SHRA BKN011
                      BECMG 3018/3021 09015KT=
200812301100 LMML 301100Z 3012/3021 06015G25KT 9999 SCT015 BKN100
                      TEMPO 3012/3021 8000 SHRA BKN015=
200812300800 TAF LMML 300800Z 3009/3018 05015G25KT 9999 SCT015 BKN100
                      TEMPO 3009/3018 8000 SHRA BKN012
                      PROB30 TEMPO 3009/3018 4000 TSRA BKN011CB=
200812300500 TAF LMML 300500Z 3006/3015 07015KT 9999 SCT012 BKN090
                      TEMPO 3006/3015 09015G25KT
                      TEMPO 3006/3015 8000 RA BKN012 BKN045
                      PROB30 TEMPO 3006/3015 4000 TSRA BKN005 BKN015CB=
200812300200 TAF LMML 300200Z 3003/3012 07010KT 9999 SCT012 BKN090
                      TEMPO 3003/3012 8000 RA BKN012 BKN045
                      PROB40 TEMPO 3003/3012 4000 TSRA BKN005 BKN015CB=
200812292300 TAF LMML 292300Z 3000/3009 08010KT 9999 SCT012 BKN090
                      TEMPO 3000/3009 8000 RA BKN012 BKN045
                      PROB30 TEMPO 3000/3009 4000 TSRA BKN006 BKN015CB=
200812292000 TAF LMML 292000Z 2921/3006 10008KT 9999 FEW015 BKN090
                      TEMPO 2921/3006 6000 RA SCT006 BKN012 BKN045
                       PROB30
                      TEMPO 2921/3006 4000 TSRA SCT005 BKN015CB=
200812291700 TAF LMML 291700Z 2918/3003 10008KT 9999 FEW009 SCT015
                      TEMPO 2918/3003 6000 RA SCT006 BKN012 BKN045
                       PROB30
                      TEMPO 2021/3003 5000 TSRA SCT005 BKN015CB=
200812291400 TAF LMML 291400Z 2915/2924 10008KT 9999 SCT025
                      PROB30 TEMPO 2915/2924 8000 SHRA SCT018 BKN070
                       PROB30
                      TEMPO 2918/2924 5000 TSRA BKN015CB=
200812291100 TAF LMML 291100Z 2912/2921 10010KT 9999 FEW012 SCT025
                      PROB30 TEMPO 2912/2921 8000 RA SCT012 SCT025
                       BKN100=
200812290800 TAF LMML 290800Z 2909/2918 10008KT 9999 T020 SCT120
                      PROB30 TEMPO 2909/2918 8000 RA SCT020 SCT045
                       BKN100=
200812290500 TAF LMML 290500Z 2906/2915 09010KT 9999 SCT030
                      PROB30 TEMPO 2906/2915 9000 RA=
200812290200 TAF LMML 290200Z 2903/2912 09010KT 9999 SCT030
                      PROB30 TEMPO 2903/2912 9000 RA=
200812282300 TAF LMML 282300Z 2900/2909 18006KT 9999 SCT030
                      PROB30 TEMPO 2900/2909 9000 RA
                      BECMG 2903/2906 09010KT=
200812282000 TAF LMML 282000Z 2821/2906 18008KT 9999 SCT030
                      PROB30 TEMPO 2821/2906 9000 RA=
200812281700 TAF LMML 281700Z 2818/2903 18003KT 9999 SCT025
                      PROB30 2821/29/03 8000 SHRA BKN020 BKN045=
200812281400 TAF LMML 281400Z 2815/2824 18003KT 9999 SCT030
                      PROB30 TEMPO 2818/2824 8000 SHRA BKN020 BKN045=
200812281100 TAF LMML 281100Z 2812/2821 19005KT 9999 SCT035 BKN080
                      PROB30 TEMPO 2818/2821 8000 SHRA BKN020 BKN045=
200812280800 TAF LMML 280800Z 2809/2818 19005KT 9999 SCT035=
200812280500 TAF LMML 280500Z 2806/2815 20005KT 9999 SCT020 SCT060
                      PROB30 TEMPO 2806/2810 8000 SHRA BKN015 SCT060=
200812280200 TAF LMML 280200Z 2803/2812 15005KT 9999 SCT015 BKN080
                      PROB30 TEMPO 2803/2812 8000 SHRA BKN015 BKN080=
200812272300 TAF LMML 272300Z 2800/2809 13004KT 9999 SCT015
                      PROB30 TEMPO 2800/2809 8000 SHRA=
200812272000 TAF LMML 272000Z 2721/2806 09004KT 9999 FEW015 SCT050
                      PROB30 TEMPO 2721/2806 8000 SHRA BKN010 SCT015
                       SCT050=
200812271700 LMML 271700Z 2718/2803 07004KT 9999 SCT023
                      PROB30 TEMPO 2718/2721 8000 SHRA=
200812271400 TAF LMML 271400Z 2715/2724 05005KT 9999 SCT023=
200812271100 TAF LMML 271100Z 2712/2721 05005KT 9999 SCT028
                      PROB30 TEMPO 2712/2715 7000 SHRA=
200812270800 TAF LMML 270800Z 2709/2718 08007KT 9999 SCT028 SCT045
                      PROB30 TEMPO 2709/2714 7000 SHRA=
200812270500 TAF LMML 270500Z 2706/2715 VRB03KT 9999 SCT020
                      PROB40 TEMPO 2706/2715 5000 RA BKN014
                      PROB30 TEMPO 2706/2709 7000 SHRA SCT012CB=
200812270200 TAF LMML 270200Z 2703/2712 VRB03KT 9999 SCT018
                      PROB30 TEMPO 2703/2705 5000 RA BKN014=
200812262300 LMML 262300Z 2700/2709 09003KT 9999 SCT020=
200812262000 TAF LMML 262000Z 2621/2706 09003KT 9999 FEW016 BKN050=
200812261700 TAF LMML 261700Z 2618/2703 09004KT 9999 FEW020 BKN050=
200812261400 TAF LMML 261400Z 2615/2624 09005KT 9999 FEW020 BKN180=
200812261100 TAF LMML 261100Z 2612/2621 13005KT 9999 FEW020 SCT050=
200812260800 TAF LMML 260800Z 2609/2618 20006KT 9999 SCT020 BKN060=
200812260500 TAF LMML 260500Z 2606/2615 22006KT 9999 SCT028 SCT048=
200812260200 TAF LMML 260200Z 2603/2612 24006KT 9999 SCT028=
200812252300 TAF LMML 252300Z 2600/2609 24006KT 9999 SCT028=
200812252000 TAF LMML 252000Z 2521/2606 24006KT 9999 SCT028=
200812251847 LMML 251847Z 2518/2603 21004KT 9999 SCT025=
200812251400 TAF LMML 251400Z 2515/2524 21008KT 9999 FEW025 SCT040=
200812251100 TAF LMML 251100Z 2512/2521 22008KT 9999 FEW020 SCT045=
200812250800 TAF LMML 250800Z 2509/2518 24008KT 9999 SCT020 SCT045
                      PROB30 TEMPO 2509/2518 8000 SHRA BKN015=
200812250500 TAF LMML 250500Z 2506/2515 24008KT 9999 FEW025 SCT050
                      PROB30 TEMPO 2506/2510 8000 SHRA BKN015 BKN040=
200812250200 TAF LMML 250200Z 2503/2512 VRB03KT 9999 SCT025 SCT050
                      PROB30 TEMPO 2503/2512 8000 SHRA BKN015 BKN040
                       BECMG 2503/2506 24007KT=
200812242300 TAF LMML 242300Z 2500/2509 VRB03KT CAVOK
                      PROB30 TEMPO 2500/2502 5000 BR SCT008
                      BECMG 2500/2503 24006KT 9999 SCT020
                      PROB30 TEMPO 2502/2509 8000 SHRA BKN015=
200812242000 TAF LMML 242000Z 2421/2506 29004KT 9999 SCT025
                      PROB0 TEMPO 2421/2506 8000 SHRA BKN015=
200812241700 TAF LMML 241700Z 2418/2503 VRB03KT 9999 SCT025 SCT035=
200812241400 TAF LMML 241400Z 2415/2424 04004KT 9999 SCT025=
200812241100 TAF LMML 241100Z 2409/2418 34004KT 9999 FEW027=
200812240800 TAF LMML 240800Z 2406/2415 34006KT 9999 BKN027=
200812240500 LMML 240500Z 2403/2412 33006KT 9999 SCT020=
200812240200 TAF LMML 240200Z 2403/2412 33006KT 9999 SCT018=
200812232300 LMML 232300Z 2400/2409 31005KT 9999 SCT018
                      TEMPO 2403/2409 BKN013=
200812232000 TAF LMML 232000Z 2321/2406 31005KT 9999 SCT018
                      PROB30 TEMPO 2403/2406 BKN012=
200812231700 TAF LMML 231700Z 2318/2403 29006KT 9999 FEW025
                      PROB30 TEMPO 2321/2403 9000 BKN015=
200812231400 TAF LMML 231400Z 2315/2324 32011KT 9999 FEW025
                      PROB30 TEMPO 2321/2324 BKN015=
200812231100 TAF LMML 231100Z 2312/2321 33010KT 9999 FEW025=
200812230800 TAF LMML 230800Z 2309/2318 33007KT 9999 FEW030
                      TEMPO 2309/2315 CAVOK=
200812230500 TAF LMML 230500Z 2306/2315 31006KT 9999 FEW030
                      TEMPO 2306/2315 CAVOK=
200812230200 TAF LMML 230200Z 2303/2312 VRB03KT CAVOK
                      TEMPO 2303/2312 9999 FEW020=
200812222300 TAF LMML 222300Z 2300/2309 VRB03KT CAVOK
                      PROB40 TEMPO 2300/2309 9999 FEW020=
200812222000 TAF LMML 222000Z 2221/2306 VRB03KT CAVOK
                      PROB40 TEMPO 2221/2306 9999 FEW020=
200812221700 TAF LMML 221700Z 2218/2303 34002KT 9999 FEW030=
200812221400 TAF LMML 221400Z 2215/2224 36008KT 9999 FEW035=
200812221100 LMML 221100Z 2209/2218 35012KT 9999 FEW030=
200812220800 TAF LMML 220800Z 2209/2218 35012KT 9999 FEW030=
200812220500 TAF LMML 220500Z 2206/2215 35012KT 9999 FEW030
                      PROB40 TEMPO 2206/2212 CAVOK=
200812220200 TAF LMML 220200Z 2203/2212 34012KT 9999 FEW030
                      PROB40 TEMPO 2203/2207 CAVOK=
200812212300 TAF LMML 212300Z 2200/2209 32012KT 9999 FEW030
                      TEMPO 2200/2209 CAVOK=
200812212000 TAF LMML 212000Z 2121/2206 32015KT 9999 FEW030=
200812211700 TAF LMML 211700Z 2118/2203 33013KT 9999 FEW030
                      PROB40 TEMPO 2118/2203 CAVOK=
200812211400 TAF LMML 211400Z 2115/2124 35015KT 9999 FEW030
                      PROB30 TEMPO 2115/2124 CAVOK=
200812211100 TAF LMML 211100Z 2112/2121 35015KT 9999 FEW030
                      PROB30 TEMPO 2112/2121 CAVOK=
200812210800 LMML 210800Z 2109/2118 32012KT 9999 FEW035
                      TEMPO 2109/2118 CAVOK=
200812210500 TAF LMML 210500Z 2106/2115 28007KT 9999 FEW030
                      BECMG 2106/2109 34012KT=
200812210200 TAF LMML 210200Z 2103/2112 30007KT 9999 SCT030=
200812202300 TAF LMML 202300Z 2100/2109 34006KT 9999 FEW030=
200812202000 TAF LMML 202000Z 2021/2106 01007KT 9999 FEW030=
200812201700 TAF LMML 201700Z 2018/2103 35008KT 9999 FEW028=
200812201100 TAF LMML 201100Z 2012/2021 36012KT 9999 FEW028=
200812200800 TAF LMML 200800Z 2009/2018 34012KT 9999 FEW028=
200812200500 TAF LMML 200500Z 2006/2015 33012KT 9999 FEW025
                      PROB30 TEMPO 2006/2015 SHRA BKN020=
200812200200 TAF LMML 200200Z 2003/2012 33012KT 9999 FEW025
                      PROB30 203/2012 SHRA BKN015=
200812192300 TAF LMML 192300Z 2000/2009 33010KT 9999 FEW025
                      PROB30 TEMPO 2000/2009 5000 SHRA BKN018=
200812192000 TAF LMML 192000Z 1921/2006 31010KT SCT025
                      PROB40 TEMPO 6000 SHRA BKN020
                      PROB30 TEMPO 1921/2006 5000 TSRA BKN015CB=
200812191700 TAF LMML 191700Z 1918/2003 28012KT 9999 SCT025
                      TEMPO 1918/2003 8000 SHRA BKN015
                      PROB30 TEMPO 1918/2003 3000 TSRA BKN015CB=
200812191400 TAF LMML 191400Z 1915/1924 28015G25KT 9999 SCT030
                      TEMPO 1915/1924 8000 SHRA BKN015
                      PROB30 TEMPO 1915/1924 3000 TSRA BKN015CB
                       BECMG 1916/1919 29013KT=
200812191100 TAF LMML 191100Z 1912/1921 28015G25KT 9999 SCT025 SCT060
                      TEMPO 1912/1921 8000 SHRA BKN015 BKN060
                      PROB30 TEMPO 1914/1921 3000 TSRA BKN015CB
                       BKN060
                      BECMG 1917/1920 29013KT=
200812190800 TAF LMML 190800Z 1909/1918 27010KT 9999 SCT030
                      BECMG 1909/1912 28015G25KT
                      TEMPO 1912/1918 8000 SHRA BKN015
                      PROB30 TEMPO 1914/1918 3000 TSRA BKN015CB=
200812190500 TAF LMML 190500Z 1906/1915 27016KT 9999 SCT025
                      PROB40 TEMPO 1906/1915 8000 SHRA SCT015TCU
                       PROB30
                      TEMPO 1912/1915 5000 TSRA BKN015CB=
200812190200 TAF LMML 190200Z 1903/1912 27016KT 9999 SCT025
                      PROB40 TEMPO 1903/1912 8000 SHRA SCT015TCU
                       PROB30
                      TEMPO 1906/1912 5000 TSRA BKN015CB=
200812182300 TAF LMML 182300Z 1900/1909 27016KT 9999 SCT025
                      PROB40 TEMPO 1900/1909 8000 SHRA SCT015TCU=
200812182000 TAF LMML 182000Z 1821/1906 27016KT 9999 SCT025
                      PROB30 TEMPO 1821/1906 8000 SHRA SCT015TCU=
200812181700 TAF LMML 181700Z 1818/1903 27013KT 9999 SCT018
                      PROB30 TEMPO 1818/1903 8000 SHRA SCT015TCU=
200812181400 TAF LMML 181400Z 1815/1824 27017KT 9999 SCT025
                      TEMPO 1815/1818 7000 SHRA=
200812181100 TAF LMML 181100Z 1812/1821 27018KT 9999 SCT025
                      TEMPO 1812/1821 7000 SHRA BKN015TCU=
200812180800 TAF LMML 180800Z 1809/1818 25020KT 9999 SCT025
                      TEMPO 1809/1818 8000 SHRA BKN015TCU=
200812180500 LMML 180500Z 1806/1815 2502030KT 9999 SCT025 SCT040
                      TEMPO 1806/1812 8000 SHRA
                      PROB30 TEMPO 1806/1809 5000 TSRA BKN015CB=
200812180200 TAF LMML 180200Z 1803/1812 25018G28KT 9999 SCT025 SCT040
                      TEMPO 1803/1812 8000 SHRA
                      PROB30 TEMPO 1803/1809 5000 TSRA BKN015CB=
200812172300 TAF LMML 172300Z 1800/1809 24018G28KT 9999 SCT035
                      TEMPO 1800/1809 8000 SHRA
                      PROB30 TEMPO 1800/1809 5000 TSRA BKN018CB=
200812172000 TAF LMML 172000Z 1721/1806 24017KT 9999 SCT040
                      TEMPO 1800/1806 8000 SHRA
                      PROB30 TEMPO 1800/1806 5000 TSRA BKN018CB=
200812171700 TAF LMML 171700Z 1718/1803 25020KT 9999 SCT040
                      TEMPO 1718/1722 CAVOK
                      TEMPO 1718/1803 25023G33KT
                      PROB30 TEMPO 1800/1803 4000 TSRA BKN015CB=
200812171400 TAF LMML 171400Z 1715/1724 25018KT 9999 FEW030
                      TEMPO 1715/1721 CAVOK=
200812171115 LMML 171115Z 1712/1721 25005KT 9999 FEW030
                      TEMPO 1712/1721 CAVOK
                      BECMG 1712/1715 26018KT=
200812170800 TAF LMML 170800Z 1709/1718 25005KT CAVOK
                      PROB30 TEMPO 1709/1718 FEW045
                      BECMG 1711/1714 26015KT=
200812170500 TAF LMML 170500Z 1706/1715 25005KT CAVOK
                      PROB30 TEMPO 1706/1715 FEW045
                      BECMG 1712/1715 24015KT=
200812170200 TAF LMML 170200Z 1703/1712 27008KT CAVOK
                      PROB30 TEMPO 1703/1712 FEW030=
200812162300 LMML 162300Z 1711/1707 27005KT 9999 FEW020=
200812162000 TAF LMML 162000Z 1621/1706 29005KT 9999 FEW015
                      PROB30 TEMPO 1621/1706 8000 BKN012=
200812161700 LMML 161700Z 1618/1703 33005KT 9999 SCT014
                      TEMPO 1618/1703 7000 BKN012=
200812161400 TAF LMML 161400Z 1615/1624 36005KT CAVOK
                      PROB30 TEMPO 1615/1624 9999 FEW018=
200812161100 TAF LMML 161100Z 1612/1621 24005KT 9999 FEW018
                      PROB30 TEMPO 1612/1615 BKN015=
200812160800 TAF LMML 160800Z 1609/1618 20006KT 9999 FEW018=
200812160500 TAF LMML 160500Z 1606/1615 17008KT 9999 FEW020 SCT200=
200812152000 TAF LMML 152000Z 1521/1606 16011KT 9999 SCT018 SCT100=
200812151700 TAF LMML 151700Z 1518/1603 16014KT 9999 SCT025 SCT100
                      PROB30 TEMPO 1518/1603 8000 BKN015 BKN100=
200812151400 TAF LMML 151400Z 1515/1524 17014KT 9999 FEW030=
200812151100 TAF LMML 151100Z 1512/1521 17014KT 9999 FEW040=
200812150800 TAF LMML 150800Z 1509/1518 17014KT 9999 FEW040=
200812150500 TAF LMML 150500Z 1506/1515 17018KT CAVOK
                      PROB30 TEMPO 1506/1512 FEW045=
200812150200 LMML 150200Z 1503/1512 16015KT 9999 FEW040=
200812142300 TAF LMML 142300Z 1500/1509 19010KT 9999 FEW035=
200812142000 TAF LMML 142000Z 1421/1506 19011KT SCT030=
200812141700 TAF LMML 141700Z 1418/1503 20009KT SCT030 SCT100 BKN200=
200812141400 TAF LMML 141400Z 1415/1424 22010KT 9999 SCT030=
200812141100 TAF LMML 141100Z 1412/1421 23013KT 9999 SCT030=
200812140800 TAF LMML 140800Z 1409/1418 23015KT 9999 SCT030=
200812140500 TAF LMML 140500Z 1406/1415 24014KT 9999 SCT030=
200812140200 TAF LMML 140200Z 1403/1412 21014KT 9999 SCT030=
200812132300 TAF LMML 132300Z 1400/1409 21008KT 9999 SCT030=
200812132000 TAF LMML 132000Z 1321/1406 21007KT 9999 FEW030 SCT048=
200812131700 TAF LMML 131700Z 1318/1403 19005KT 9999 FEW030=
200812131400 TAF LMML 131400Z 1315/1324 22008KT 9999 SCT030=
200812131100 TAF LMML 131100Z 1312/1321 22008KT 9999 SCT030=
200812130815 LMML 130815Z 1309/1318 27013KT 9999 FEW020 SCT035
                      BECMG 1315/1318 21005KT=
200812130800 TAF LMML 130800Z 1309/1318 27013KT 9999 FEW020 SCT035
                      BECMG 1518 21005KT=
200812130500 TAF LMML 130500Z 1306/1315 26015KT 9999 SCT030 BKN060
                      PROB30 TEMPO 1306/1315 9000 SHRA=
200812130200 TAF LMML 130200Z 1303/1312 27016KT 9999 SCT030
                      PROB40 TEMPO 1303/1306 27018G28KT
                      PROB40 TEMPO 1303/1309 BKN015
                      PROB30 TEMPO 1303/1312 9000 SHRA=
200812122300 TAF LMML 122300Z 1300/1309 27016KT 9999 SCT035
                      TEMPO 1300/1306 27018G28KT
                      PROB40 TEMPO 1300/1309 BKN015
                      PROB30 TEMPO 1300/1306 9000 SHRA=
200812122000 TAF LMML 122000Z 1221/1306 27018KT 9999 SCT035
                      TEMPO 1221/1306 27018G28KT
                      PROB40 TEMPO 1221/1306 BKN015
                      PROB30 TEMPO 1303/1306 8000 SHRA=
200812121400 TAF LMML 121400Z 1215/1224 27022G32KT 9999 BKN035=
200812121100 TAF LMML 121100Z 1212/1221 27022G32KT 9999 SCT040
                      PROB40 TEMPO 1209/1218 9000 SHRA=
200812120800 TAF LMML 120800Z 1209/1218 27022G32KT 9999 SCT040
                      PROB30 TEMPO 1209/1218 9000 SHRA=
200812120500 TAF LMML 120500Z 1206/1215 27025KT 9999 FEW030
                      PROB30 TEMPO 1206/1215 8000 SHRA BKN020=
200812120200 TAF LMML 120200Z 1203/1212 27025KT 9999 FEW025
                      PROB30 TEMPO 1203/1212 8000 SHRA BKN018=
200812112300 TAF LMML 112300Z 1200/1209 29025KT 9999 FEW025 SCT035
                      PROB30 TEMPO 1200/1209 8000 SHRA BKN018=
200812111700 TAF LMML 111700Z 1118/1203 34013KT 9999 SCT015 SCT040
                      TEMPO 1118/1203 8000 SHRA BKN015 BKN040
                      PROB30 TEMPO 1118/1122 3000 TSRA BKN015CB
                       BKN040
                      BECMG 1118/1121 28020G30KT=
200812111400 TAF LMML 111400Z 1115/1124 22009KT 9999 SCT020 SCT080 BKN150
                      TEMPO 1115/1124 8000 SHRA BKN015 BKN080 BKN150
                       PROB40
                      TEMPO 1115/1124 3000 TSRA BKN015CB BKN080
                       BKN150
                      BECMG 1115/1118 28023G34KT=
200812111100 TAF LMML 111100Z 1112/1121 14023G34KT 9999 SCT020 SCT040 BKN120
                       TEMPO 1112/1121 8000 SHRA BKN015 BKN040
                       BKN120
                      TEMPO 1112/1121 3000 TSRA BKN015CB BKN040
                       BKN120
                      BECMG 1112/1114 20018G30KT
                      BECMG 1114/1117 28022G34KT=
200812110800 TAF LMML 110800Z 1109/1118 15023G34KT 9999 SCT020 SCT040 BKN150
                       TEMPO 1109/1118 8000 SHRA BKN015 BKN040
                       BKN150
                      PROB30 TEMPO 1109/1118 3000 TSRA BKN015CB
                       BKN040 BKN150
                      BECMG 1111/1114 21018G30KT
                      BECMG 1114/1117 28022G34KT=
200812110500 TAF LMML 110500Z 1106/1115 16025KT 9999 SCT020
                      TEMPO 1106/1112 17025G35KT
                      TEMPO 1106/1115 8000 SHRA BKN015
                      PROB30 TEMPO 1106/1115 4000 TSRA BKN015CB
                       BECMG 1112/1115 28028KT=
200812102300 TAF LMML 102300Z 1100/1109 17020KT 9999 SCT020
                      TEMPO 1100/1109 17018G28KT
                      TEMPO 1100/1109 8000 SHRA BKN015
                      PROB40 TEMPO 1100/1109 4000 TSRA BKN015CB=
200812102000 TAF LMML 102000Z 1021/1106 17020KT 9999 SCT020
                      PROB40 TEMPO 1021/1106 8000 SHRA BKN015
                      PROB30 TEMPO 1103/1106 5000 TSRA BKN015CB=
200812101700 TAF LMML 101700Z 1018/1103 16018KT 9999 FEW020
                      PROB30 1022/11/03 8000 SHRA BKN018=
200812101100 TAF LMML 101100Z 1012/1021 16018KT 9999 SCT025=
200812100800 TAF LMML 100800Z 1009/1018 16018KT 9999 SCT020
                      PROB30 TEMPO 1009/1018 8000 SHRA BKN018=
200812100500 LMML 100500Z 1006/1015 14017KT 9999 SCT020
                      PROB40 TEMPO 1006/1012 7000 SHRA BKN015=
200812100200 TAF LMML 100200Z 1003/1012 14017KT 9999 SCT030
                      TEMPO 1003/1012 7000 SHRA
                      PROB40 TEMPO 1003/1012 13017G27KT 5000 TSRA
                       BKN018CB=
200812092300 TAF LMML 092300Z 1000/1009 13017KT 9999 SCT030
                      TEMPO 1000/1009 7000 SHRA
                      PROB40 TEMPO 1000/1009 13017G27KT 5000 TSRA
                       BKN018CB=
200812092000 TAF LMML 092000Z 0921/1006 13017KT 9999 SCT030
                      TEMPO 0921/1006 7000 SHRA
                      PROB40 TEMPO 1000/1006 13017G27KT 5000 TSRA
                       BKN018CB=
200812091700 TAF LMML 091700Z 0918/1003 12018KT 9999 SCT020
                      TEMPO 0918/1003 7000 RA BKN012
                      TEMPO 0918/1003 12018G28KT
                      PROB40 TEMPO 0918/1003 3000 TSRA BKN006 BKN015CB=
200812091400 TAF LMML 091400Z 0915/0924 12015KT 9999 SCT030
                      TEMPO 0915/0924 7000 RA BKN015
                      TEMPO 0918/0924 12015G25KT
                      PROB30 TEMPO 0918/0924 5000 TSRA BKN015CB=
200812091100 TAF LMML 091100Z 0912/0921 12015KT 9999 SCT030
                      TEMPO 0912/0921 7000 RA BKN015
                      TEMPO 0918/0921 12015G25KT
                      PROB30 TEMPO 0918/0921 5000 TSRA BKN015CB=
200812090800 TAF LMML 090800Z 0909/0918 11015KT 9999 FEW032 SCT050
                      PROB40 TEMPO 0912/0918 8000 SHRA BKN015=
200812090500 TAF LMML 090500Z 0906/0915 10013KT 9999 SCT025 SCT050=
200812090200 LMML 090200Z 0903/0912 09011KT 9999 SCT025 SCT060=
200812082300 TAF LMML 082300Z 0900/0909 07007KT 9999 SCT025
                      BECMG 0906/0909 13012KT=
200812082000 TAF LMML 082000Z 0821/0906 08008KT 9999 SCT025 SCT060=
200812081700 TAF LMML 081700Z 0818/0903 04006KT 9999 FEW035=
200812081400 TAF LMML 081400Z 0815/0824 04006KT 9999 FEW035=
200812081100 TAF LMML 081100Z 0812/0821 03006KT 9999 FEW030=
200812080800 TAF LMML 080800Z 0809/0818 34006KT 9999 FEW030=
200812080500 TAF LMML 080500Z 0806/0815 34005KT 9999 FEW030=
200812080200 TAF LMML 080200Z 0803/0812 34005KT 9999 FEW025=
200812072300 TAF LMML 072300Z 0800/0809 32007KT 9999 FEW025
                      PROB30 TEMPO 0806/0809 8000 SHRA BKN015=
200812072000 TAF LMML 072000Z 0721/0806 32008KT 9999 FEW025
                      PROB30 TEMPO 0803/0806 8000 SHRA BKN015=
200812071700 TAF LMML 071700Z 0718/0803 31012KT 9999 SCT025 SCT050
                      PROB30 TEMPO 0718/0803 8000 SHRA BKN015 BKN050=
200812071400 TAF LMML 071400Z 0715/0724 30013KT 9999 SCT025 SCT060
                      PROB30 TEMPO 0715/0724 8000 SHRA BKN015 BKN060=
200812071100 TAF LMML 071100Z 0712/0721 30014KT 9999 SCT025
                      PROB30 TEMPO 0712/0721 8000 SHRA BKN015=
200812070800 TAF LMML 070800Z 0709/0718 29013KT 9999 SCT025 SCT040
                      PROB30 TEMPO 0709/0718 8000 SHRA BKN015 BKN040=
200812070500 TAF LMML 070500Z 0706/0715 30015KT 9999 SCT030
                      PROB30 TEMPO 0706/0715 8000 SHRA BKN018=
200812070200 TAF LMML 070200Z 0703/0712 29008KT 9999 SCT025
                      PROB30 TEMPO 0703/0712 8000 SHRA BKN018
                      BECMG 0706/0709 30018KT=
200812062300 TAF LMML 062300Z 0700/0709 29008KT 9999 SCT025
                      PROB30 TEMPO 0703/0709 8000 SHRA BKN018
                      BECMG 0706/0709 30018KT=
200812062000 TAF LMML 062000Z 0621/0706 29008KT 9999 SCT025
                      BECMG 0703/0706 30018KT=
200812061700 TAF LMML 061700Z 0618/0703 31013KT 9999 SCT020=
200812061400 TAF LMML 061400Z 0615/0624 29013KT 9999 SCT025=
200812061100 TAF LMML 061100Z 0612/0621 29009KT 9999 SCT025
                      TEMPO 0612/0618 CAVOK=
200812060800 TAF LMML 060800Z 0609/0618 29008KT 9999 FEW038
                      TEMPO 0609/0618 CAVOK=
200812060500 TAF LMML 060500Z 0606/0615 24008KT 9999 FEW035
                      TEMPO 0606/0615 CAVOK=
200812060200 TAF LMML 060200Z 0603/0612 24008KT CAVOK=
200812052300 TAF LMML 052300Z 0600/0609 23008KT CAVOK=
200812052000 TAF LMML 052000Z 0521/0606 21008KT CAVOK
                      TEMPO 0521/0606 FEW030=
200812051700 LMML 051700Z 0518/0603 22007KT 9999 FEW030 SCT060=
200812051400 TAF LMML 051400Z 0515/0524 22008KT 9999 SCT040 SCT070=
200812051100 TAF LMML 051100Z 0512/0521 21010KT 9999 SCT040 SCT060=
200812050500 TAF LMML 050500Z 0506/0515 22009KT 9999 SCT035=
200812050200 LMML 0503/0512 25006KT 9999 SCT035
                      BECMG 0508/0511 19011KT=
200812050139 TAF LMML 0503/0512 25006KT 9999 SCT035
                      BECMG 0508/0511 19011KT=
200812050137 TAF LMML 0503/0512 25006KT 9999 SCT035
                      BECMG 0508/0511 19011KT=
200812050136 LMML 0503/0512 25006KT 9999 SCT035
                      BECMG 0508/0511 19011KT=
200812042300 TAF LMML 042300Z 0500/0509 25006KT 9999 FEW030=
200812042000 TAF LMML 042000Z 0421/0506 26006KT 9999 SCT030=
200812041700 TAF LMML 041700Z 0418/0503 23005KT 9999 SCT035
                      PROB30 TEMPO 0418/0503 8000 SHRA=
200812041400 TAF LMML 041400Z 0415/0424 26010KT 9999 SCT040
                      PROB30 TEMPO 0415/0424 8000 SHRA BKN020=
200812041100 TAF LMML 041100Z 0412/0421 26014KT 9999 SCT040
                      PROB30 TEMPO 0415/0421 8000 BKN020=
200812040800 TAF LMML 040800Z 0409/0418 30018KT 9999 FEW035
                      PROB30 TEMPO 0415/0418 8000 SHRA BKN020=
200812040500 TAF LMML 040500Z 0406/0415 28025KT 9999 SCT020
                      TEMPO 0406/0409 29025G35KT
                      PROB40 TEMPO 0406/0415 7000 SHRA BKN015=
200812040200 TAF LMML 040200Z 0403/0412 29023KT 9999 SCT015
                      TEMPO 0403/0409 32025G35KT
                      TEMPO 0403/0409 5000 RA BKN015
                      PROB30 TEMPO 0403/0405 3000 TSRA BKN015CB=
200812032300 TAF LMML 032300Z 0400/0409 33020KT 9999 SCT015
                      TEMPO 0400/0409 30025G35KT
                      TEMPO 0400/0409 7000 SHRA BKN015
                      PROB40 TEMPO 0400/0405 3000 TSRA BKN008 BKN015CB=
200812032000 TAF LMML 032000Z 0321/0406 30006KT 9999 SCT015
                      TEMPO 0321/0406 7000 SHRA BKN015
                      PROB40 TEMPO 0321/0406 3000 TSGR BKN015CB
                       BECMG 0322/0401 33020G35KT=
200812031700 TAF LMML 031700Z 0318/0403 03012KT 9999 SCT015 SCT050 BKN100
                      TEMPO 0318/0403 7000 SHRA BKN015 SCT050 BKN100
                       PROB40
                      TEMPO 0318/0403 3000 TSGR BKN015CB BKN050
                       BKN100
                      BECMG 0318/0320 33013KT
                      BECMG 0322/0401 33020G30KT=
200812031400 TAF LMML 031400Z 0315/0324 34013KT 9999 SCT020 BKN130
                      TEMPO 0315/0324 8000 SHRA BKN015 BKN100
                      PROB30 TEMPO 0315/0324 3000 TSRA BKN015CB
                       BKN100
                      BECMG 0320/0323 33018G30KT=
200812031100 TAF LMML 031100Z 0312/0321 34013KT 9999 SCT020 SCT120
                      TEMPO 0312/0321 8000 SHRA BKN015 BKN100
                      PROB30 TEMPO 0312/0321 3000 TSRA BKN015CB
                       BKN100
                      BECMG 0318/0321 33015G25KT=
200812030800 TAF LMML 030800Z 0309/0318 33012KT 9999 SCT015 SCT100
                      TEMPO 0309/0318 8000 SHRA BKN015 BKN100
                      PROB30 TEMPO 0309/0318 3000 TSRA BKN015CB
                       BKN100=
200812030500 TAF LMML 030500Z 0306/0315 34010KT 9999 SCT012
                      TEMPO 0306/0315 8000 SHRA FEW014TCU
                      PROB30 TEMPO 0306/0308 8000 BKN008
                      PROB30 TEMPO 0306/0315 3000 TSRA BKN012CB=
200812030200 TAF LMML 030200Z 0303/0312 34012KT 9999 SCT012
                      TEMPO 0303/0312 8000 SHRA FEW014TCU
                      PROB40 TEMPO 0303/0312 8000 BKN008
                      PROB30 TEMPO 0303/0312 3000 TSRA BKN012CB=
200812022300 TAF LMML 022300Z 0300/0309 VRB03KT 9999 SCT012
                      BECMG 0300/0303 35010KT
                      TEMPO 0300/0309 8000 SHRA FEW014TCU
                      PROB40 TEMPO 0300/0309 8000 BKN008
                      PROB30 TEMPO 0300/0309 3000 TSRA BKN012CB=
200812022000 TAF LMML 022000Z 0221/0306 10008KT 9999 SCT012
                      TEMPO 0221/0306 BKN009
                      TEMPO 0221/0306 8000 SHRA
                      PROB30 TEMPO 0221/0306 3000 TSRA BKN012CB
                       BECMG 0300/0303 34010KT=
200812021700 TAF LMML 021700Z 0218/0303 10008KT 9999 SCT015 SCT120
                      TEMPO 0218/0303 8000 SHRA BKN013 BKN100
                      PROB30 TEMPO 0218/0303 3000 TSRA BKN013CB
                       BKN100
                      BECMG 0300/0303 34010KT=
200812021400 TAF LMML 021400Z 0215/0224 15008KT 9999 FEW025 SCT120
                      BECMG 0215/0218 09013KT
                      TEMPO 0218/0224 8000 SHRA BKN015 BKN100
                      PROB30 TEMPO 0218/0224 3000 TSRA BKN015 BKN060CB=
200812021100 TAF LMML 021100Z 0212/0221 16009KT 9999 FEW025 SCT120
                      BECMG 0215/0218 10014KT
                      PROB30 TEMPO 0218/0221 8000 SHRA BKN015 SCT120=
200812020800 TAF LMML 020800Z 0209/0218 19007KT 9999 FEW030 SCT120
                      BECMG 0215/0218 10013KT=
200812020500 TAF LMML 020500Z 0206/0215 17008KT CAVOK
                      TEMPO 0206/0215 9999 FEW035=
200812020200 TAF LMML 020200Z 0203/0212 16007KT CAVOK=
200812012300 TAF LMML 012300Z 0200/0209 17005KT CAVOK=
200812011700 TAF LMML 011700Z 0118/0203 20003KT CAVOK=
200812011400 TAF LMML 011400Z 011524 23008KT CAVOK=
200812011100 TAF LMML 011100Z 0112/0121 25008KT CAVOK
                      TEMPO 0112/0121 9999 FEW046=
200812010800 TAF LMML 010800Z 0109/0118 29007KT 9999 FEW025
                      TEMPO 0109/0118 CAVOK=
200812010500 TAF LMML 010500Z 0106/0115 20010KT 9999 FEW030
                      BECMG 0106/0109 26008KT=
200812010200 LMML 010200Z 0103/0112 19012KT 9999 FEW030
                      BECMG 0103/0106 25008KT=

###################################
#  large TAF from LMML
###################################
200812312300 LMML NIL=
200812311700 LMML NIL=
200812311100 LMML NIL=
200812310500 LMML NIL=
200812302300 LMML NIL=
200812301700 LMML NIL=
200812301100 LMML NIL=
200812300500 LMML NIL=
200812292300 LMML NIL=
200812291700 LMML NIL=
200812291100 LMML NIL=
200812290500 LMML NIL=
200812282300 LMML NIL=
200812281700 LMML NIL=
200812281100 LMML NIL=
200812280500 LMML NIL=
200812272300 LMML NIL=
200812271700 LMML NIL=
200812271100 LMML NIL=
200812270500 LMML NIL=
200812262300 LMML NIL=
200812261700 LMML NIL=
200812261100 LMML NIL=
200812260500 LMML NIL=
200812252300 LMML NIL=
200812251700 LMML NIL=
200812251100 LMML NIL=
200812250500 LMML NIL=
200812242300 LMML NIL=
200812241700 LMML NIL=
200812241100 LMML NIL=
200812240500 LMML NIL=
200812232300 LMML NIL=
200812231700 LMML NIL=
200812231100 LMML NIL=
200812230500 LMML NIL=
200812222300 LMML NIL=
200812221700 LMML NIL=
200812221100 LMML NIL=
200812220500 LMML NIL=
200812212300 LMML NIL=
200812211700 LMML NIL=
200812211100 LMML NIL=
200812210500 LMML NIL=
200812202300 LMML NIL=
200812201700 LMML NIL=
200812201100 LMML NIL=
200812200500 LMML NIL=
200812192300 LMML NIL=
200812191700 LMML NIL=
200812191100 LMML NIL=
200812190500 LMML NIL=
200812182300 LMML NIL=
200812181700 LMML NIL=
200812181100 LMML NIL=
200812180500 LMML NIL=
200812172300 LMML NIL=
200812171700 LMML NIL=
200812171100 LMML NIL=
200812170500 LMML NIL=
200812162300 LMML NIL=
200812161700 LMML NIL=
200812161100 LMML NIL=
200812160500 LMML NIL=
200812152300 LMML NIL=
200812151700 LMML NIL=
200812151100 LMML NIL=
200812150500 LMML NIL=
200812142300 LMML NIL=
200812141700 LMML NIL=
200812141100 LMML NIL=
200812140500 LMML NIL=
200812132300 LMML NIL=
200812131700 LMML NIL=
200812131100 LMML NIL=
200812130500 LMML NIL=
200812122300 LMML NIL=
200812121700 LMML NIL=
200812121100 LMML NIL=
200812120500 LMML NIL=
200812112300 LMML NIL=
200812111700 LMML NIL=
200812111100 LMML NIL=
200812110500 LMML NIL=
200812102300 LMML NIL=
200812101700 LMML NIL=
200812101100 LMML NIL=
200812100500 LMML NIL=
200812092300 LMML NIL=
200812091700 LMML NIL=
200812091100 LMML NIL=
200812090500 LMML NIL=
200812082300 LMML NIL=
200812081700 LMML NIL=
200812081100 LMML NIL=
200812080500 LMML NIL=
200812072300 LMML NIL=
200812071700 LMML NIL=
200812071100 LMML NIL=
200812070500 LMML NIL=
200812062300 LMML NIL=
200812061700 LMML NIL=
200812061100 LMML NIL=
200812060500 LMML NIL=
200812052300 LMML NIL=
200812051700 LMML NIL=
200812051100 LMML NIL=
200812050500 LMML NIL=
200812042300 LMML NIL=
200812041700 LMML NIL=
200812041100 LMML NIL=
200812040500 LMML NIL=
200812032300 LMML NIL=
200812031700 LMML NIL=
200812031100 LMML NIL=
200812030500 LMML NIL=
200812022300 LMML NIL=
200812021700 LMML NIL=
200812021100 LMML NIL=
200812020500 LMML NIL=
200812012300 LMML NIL=
200812011700 LMML NIL=
200812011100 LMML NIL=
200812010500 LMML NIL=
