##########################################################
# Query made at 01/18/2013 16:14:21 UTC
# Time interval: from 12/01/2009 00:00  to 12/31/2009 23:59  UTC
##########################################################

##########################################################
# LMML, Luqa (Malta)
# WMO index: 16597
# Latitude 35-51N. Longitude 014-29E. Altitude 91 m.
##########################################################

###################################
#  METAR/SPECI from LMML
###################################
200912312345 METAR LMML 312345Z 24017KT 200V290 CAVOK 17/11 Q1006 NOSIG=
200912312330 METAR LMML NIL=
200912312315 METAR LMML 312315Z 24015KT 210V270 CAVOK 17/11 Q1005 NOSIG=
200912312300 METAR LMML NIL=
200912312245 METAR LMML 312245Z 23014KT 200V270 CAVOK 17/11 Q1006 NOSIG=
200912312230 METAR LMML NIL=
200912312215 METAR LMML 312215Z 22016KT CAVOK 18/10 Q1006 NOSIG=
200912312200 METAR LMML NIL=
200912312145 METAR LMML 312145Z 22014KT 190V270 CAVOK 17/11 Q1006 NOSIG=
200912312130 METAR LMML NIL=
200912312115 METAR LMML 312115Z 22013KT 200V270 CAVOK 17/12 Q1006 NOSIG=
200912312100 METAR LMML NIL=
200912312045 METAR LMML 312045Z 22013KT CAVOK 17/12 Q1006 NOSIG=
200912312030 METAR LMML NIL=
200912312015 METAR LMML 312015Z 22013KT CAVOK 17/11 Q1006 NOSIG=
200912312000 METAR LMML NIL=
200912311945 METAR LMML 311945Z 22013KT 180V250 CAVOK 17/11 Q1006 NOSIG=
200912311930 METAR LMML NIL=
200912311915 METAR LMML 311915Z 22014KT CAVOK 18/11 Q1006 NOSIG=
200912311900 METAR LMML NIL=
200912311845 METAR LMML 311845Z 22018KT 200V260 CAVOK 18/10 Q1006 NOSIG=
200912311830 METAR LMML NIL=
200912311815 METAR LMML 311815Z 22016KT 190V250 CAVOK 18/09 Q1006 NOSIG=
200912311800 METAR LMML NIL=
200912311745 METAR LMML 311745Z 22014KT 190V250 CAVOK 17/11 Q1006 NOSIG=
200912311730 METAR LMML NIL=
200912311715 METAR LMML 311715Z 21015KT 180V250 CAVOK 18/11 Q1005 NOSIG=
200912311645 METAR LMML 311645Z 21015KT 190V250 CAVOK 17/11 Q1005 NOSIG=
200912311630 METAR LMML NIL=
200912311615 METAR LMML 311615Z 22015KT 180V250 CAVOK 17/11 Q1005 NOSIG=
200912311545 METAR LMML 311545Z 21016KT 170V240 CAVOK 18/11 Q1006 NOSIG=
200912311515 METAR LMML 311515Z 21015KT 190V250 CAVOK 18/11 Q1006 NOSIG=
200912311500 METAR LMML NIL=
200912311445 METAR LMML 311445Z 22016KT 190V250 CAVOK 19/12 Q1006 NOSIG=
200912311430 METAR LMML NIL=
200912311415 METAR LMML 311415Z 22016KT 190V260 CAVOK 19/12 Q1006 NOSIG=
200912311400 METAR LMML NIL=
200912311345 METAR LMML 311345Z 22017KT 190V260 CAVOK 19/13 Q1006 NOSIG=
200912311330 METAR LMML NIL=
200912311315 METAR LMML 311315Z 22014KT 180V260 CAVOK 19/13 Q1007 NOSIG=
200912311300 METAR LMML NIL=
200912311245 METAR LMML 311245Z 22013KT 180V270 CAVOK 19/13 Q1007 NOSIG=
200912311230 METAR LMML NIL=
200912311215 METAR LMML 311215Z 21014KT 180V280 CAVOK 20/13 Q1007 NOSIG=
200912311200 METAR LMML NIL=
200912311145 METAR LMML 311145Z 22015KT 180V270 CAVOK 20/13 Q1008 NOSIG=
200912311115 METAR LMML 311115Z 22014KT 190V290 CAVOK 20/13 Q1008 NOSIG=
200912311100 METAR LMML NIL=
200912311045 METAR LMML 311045Z 21011KT 160V270 CAVOK 20/13 Q1009 NOSIG=
200912311030 METAR LMML NIL=
200912311015 METAR LMML 311015Z 21009KT 160V270 CAVOK 19/14 Q1010 NOSIG=
200912311000 METAR LMML NIL=
200912310945 METAR LMML 310945Z 20009KT 160V250 CAVOK 19/14 Q1010 NOSIG=
200912310930 METAR LMML NIL=
200912310915 METAR LMML 310915Z 20008KT 130V250 CAVOK 19/14 Q1010 NOSIG=
200912310900 METAR LMML NIL=
200912310845 METAR LMML 310845Z 21008KT 160V250 CAVOK 18/14 Q1011 NOSIG=
200912310830 METAR LMML NIL=
200912310815 METAR LMML 310815Z 20008KT 170V250 CAVOK 18/14 Q1011 NOSIG=
200912310800 METAR LMML NIL=
200912310745 METAR LMML 310745Z 21006KT 180V250 CAVOK 17/13 Q1011 NOSIG=
200912310730 METAR LMML NIL=
200912310715 METAR LMML 310715Z 21007KT 180V260 CAVOK 17/13 Q1011 NOSIG=
200912310645 METAR LMML 310645Z 21009KT 180V250 CAVOK 16/12 Q1011 NOSIG=
200912310630 METAR LMML NIL=
200912310615 METAR LMML 310615Z 22007KT 180V270 CAVOK 16/13 Q1011 NOSIG=
200912310600 METAR LMML NIL=
200912310545 METAR LMML 310545Z 21007KT 170V250 CAVOK 16/13 Q1011 NOSIG=
200912310530 METAR LMML NIL=
200912310515 METAR LMML 310515Z 20009KT 170V240 CAVOK 16/13 Q1010 NOSIG=
200912310500 METAR LMML NIL=
200912310445 METAR LMML 310445Z 21010KT 170V240 CAVOK 16/12 Q1010 NOSIG=
200912310430 METAR LMML NIL=
200912310415 METAR LMML 310415Z 21010KT 180V250 CAVOK 16/12 Q1011 NOSIG=
200912310345 METAR LMML 310345Z 21013KT 190V260 CAVOK 17/12 Q1011 NOSIG=
200912310330 METAR LMML NIL=
200912310315 METAR LMML 310315Z 21011KT 170V250 CAVOK 17/12 Q1011 NOSIG=
200912310300 METAR LMML NIL=
200912310245 METAR LMML 310245Z 21010KT 180V250 CAVOK 17/12 Q1011 NOSIG=
200912310230 METAR LMML NIL=
200912310215 METAR LMML 310215Z 21010KT 180V250 CAVOK 17/12 Q1012 NOSIG=
200912310200 METAR LMML NIL=
200912310145 METAR LMML 310145Z 21011KT 180V250 CAVOK 17/12 Q1012 NOSIG=
200912310130 METAR LMML NIL=
200912310115 METAR LMML 310115Z 22011KT 180V250 CAVOK 17/12 Q1012 NOSIG=
200912310100 METAR LMML NIL=
200912310045 METAR LMML 310045Z 21012KT 180V240 CAVOK 17/11 Q1012 NOSIG=
200912310030 METAR LMML NIL=
200912310015 METAR LMML 310015Z 21012KT 180V250 CAVOK 18/11 Q1012 NOSIG=
200912310000 METAR LMML NIL=
200912302345 METAR LMML 302345Z 22013KT 190V260 CAVOK 18/10 Q1013 NOSIG=
200912302315 METAR LMML 302315Z 22012KT 180V260 CAVOK 18/10 Q1013 NOSIG=
200912302245 METAR LMML 302245Z 22013KT 190V260 CAVOK 18/11 Q1013 NOSIG=
200912302230 METAR LMML NIL=
200912302215 METAR LMML 302215Z 21010KT 170V240 CAVOK 16/11 Q1013 NOSIG=
200912302145 METAR LMML 302145Z 21012KT 180V250 CAVOK 17/12 Q1013 NOSIG=
200912302130 METAR LMML NIL=
200912302115 METAR LMML 302115Z 21011KT 180V250 CAVOK 17/12 Q1013 NOSIG=
200912302100 METAR LMML NIL=
200912302045 METAR LMML 302045Z 22013KT 180V260 CAVOK 17/12 Q1013 NOSIG=
200912302030 METAR LMML NIL=
200912302015 METAR LMML 302015Z 22013KT 190V260 CAVOK 17/12 Q1013 NOSIG=
200912302000 METAR LMML NIL=
200912301945 METAR LMML 301945Z 22013KT 190V260 CAVOK 17/13 Q1013 NOSIG=
200912301930 METAR LMML NIL=
200912301915 METAR LMML 301915Z 22012KT 200V260 CAVOK 16/13 Q1013 NOSIG=
200912301900 METAR LMML NIL=
200912301845 METAR LMML 301845Z 22011KT 180V250 CAVOK 16/13 Q1013 NOSIG=
200912301830 METAR LMML NIL=
200912301815 METAR LMML 301815Z 21010KT 180V270 CAVOK 16/13 Q1013 NOSIG=
200912301800 METAR LMML NIL=
200912301745 METAR LMML 301745Z 22007KT 170V280 CAVOK 16/14 Q1013 NOSIG=
200912301730 METAR LMML NIL=
200912301715 METAR LMML 301715Z 22007KT 190V270 CAVOK 16/14 Q1013 NOSIG=
200912301700 METAR LMML NIL=
200912301645 METAR LMML 301645Z 22009KT 190V250 CAVOK 16/14 Q1013 NOSIG=
200912301615 METAR LMML 301615Z 22010KT 200V270 CAVOK 16/14 Q1013 NOSIG=
200912301545 METAR LMML 301545Z 22010KT 200V270 CAVOK 17/14 Q1013 NOSIG=
200912301530 METAR LMML NIL=
200912301515 METAR LMML 301515Z 24007KT 200V290 CAVOK 18/14 Q1013 NOSIG=
200912301500 METAR LMML NIL=
200912301445 METAR LMML 301445Z 24008KT 210V270 CAVOK 18/14 Q1013 NOSIG=
200912301430 METAR LMML NIL=
200912301415 METAR LMML 301415Z 23009KT 200V270 CAVOK 18/14 Q1013 NOSIG=
200912301400 METAR LMML NIL=
200912301345 METAR LMML 301345Z 24012KT 210V270 CAVOK 18/14 Q1013 NOSIG=
200912301330 METAR LMML NIL=
200912301315 METAR LMML 301315Z 23011KT 200V270 CAVOK 19/14 Q1013 NOSIG=
200912301300 METAR LMML NIL=
200912301245 METAR LMML 301245Z 23012KT 200V270 CAVOK 19/14 Q1014 NOSIG=
200912301230 METAR LMML NIL=
200912301215 METAR LMML 301215Z 24012KT 200V280 CAVOK 19/14 Q1014 NOSIG=
200912301200 METAR LMML NIL=
200912301145 METAR LMML 301145Z 23012KT 200V280 CAVOK 19/14 Q1014 NOSIG=
200912301130 METAR LMML NIL=
200912301115 METAR LMML 301115Z 23012KT 200V290 CAVOK 19/14 Q1014 NOSIG=
200912301100 METAR LMML NIL=
200912301045 METAR LMML 301045Z 23014KT 200V260 CAVOK 19/14 Q1014 NOSIG=
200912301030 METAR LMML NIL=
200912301015 METAR LMML 301015Z 22014KT 190V270 CAVOK 18/14 Q1014 NOSIG=
200912301000 METAR LMML NIL=
200912300945 METAR LMML 300945Z 22014KT 190V270 CAVOK 18/14 Q1015 NOSIG=
200912300930 METAR LMML NIL=
200912300915 METAR LMML 300915Z 22011KT 190V260 CAVOK 18/13 Q1015 NOSIG=
200912300900 METAR LMML NIL=
200912300845 METAR LMML 300845Z 23010KT 190V280 CAVOK 18/14 Q1015 NOSIG=
200912300830 METAR LMML NIL=
200912300815 METAR LMML 300815Z 22011KT 190V260 CAVOK 17/14 Q1014 NOSIG=
200912300800 METAR LMML NIL=
200912300745 METAR LMML 300745Z 21008KT 170V240 CAVOK 17/14 Q1014 NOSIG=
200912300730 METAR LMML NIL=
200912300715 METAR LMML 300715Z 22008KT 180V250 CAVOK 16/14 Q1014 NOSIG=
200912300645 METAR LMML 300645Z 23008KT 200V270 CAVOK 16/14 Q1014 NOSIG=
200912300630 METAR LMML NIL=
200912300615 METAR LMML 300615Z 24007KT 210V270 CAVOK 16/13 Q1014 NOSIG=
200912300600 METAR LMML NIL=
200912300545 METAR LMML 300545Z 24007KT 200V270 CAVOK 16/14 Q1014 NOSIG=
200912300530 METAR LMML NIL=
200912300515 METAR LMML 300515Z 23008KT 200V260 CAVOK 16/14 Q1014 NOSIG=
200912300500 METAR LMML NIL=
200912300445 METAR LMML 300445Z 24007KT 210V280 CAVOK 16/14 Q1014 NOSIG=
200912300430 METAR LMML NIL=
200912300415 METAR LMML 300415Z 23007KT CAVOK 16/13 Q1014 NOSIG=
200912300345 METAR LMML 300345Z 22006KT 200V260 CAVOK 16/13 Q1014 NOSIG=
200912300330 METAR LMML NIL=
200912300315 METAR LMML 300315Z 23006KT CAVOK 16/13 Q1015 NOSIG=
200912300300 METAR LMML NIL=
200912300245 METAR LMML 300245Z 23006KT 200V260 CAVOK 16/13 Q1015 NOSIG=
200912300230 METAR LMML NIL=
200912300215 METAR LMML 300215Z 23006KT CAVOK 16/12 Q1015 NOSIG=
200912300200 METAR LMML NIL=
200912300145 METAR LMML 300145Z 25006KT 220V290 CAVOK 17/11 Q1015 NOSIG=
200912300130 METAR LMML NIL=
200912300115 METAR LMML 300115Z 27007KT 230V300 CAVOK 17/11 Q1015 NOSIG=
200912300100 METAR LMML NIL=
200912300045 METAR LMML 300045Z 24006KT 210V280 CAVOK 16/11 Q1015 NOSIG=
200912300015 METAR LMML 300015Z 24006KT 210V280 CAVOK 16/11 Q1015 NOSIG=
200912292345 METAR LMML 292345Z 24005KT 200V280 CAVOK 16/11 Q1014 NOSIG=
200912292330 METAR LMML NIL=
200912292315 METAR LMML 292315Z 25006KT 210V280 CAVOK 17/11 Q1015 NOSIG=
200912292245 METAR LMML 292245Z 25006KT 230V290 CAVOK 17/11 Q1015 NOSIG=
200912292230 METAR LMML NIL=
200912292215 METAR LMML 292215Z 25005KT 220V290 CAVOK 17/11 Q1015 NOSIG=
200912292200 METAR LMML NIL=
200912292145 METAR LMML 292145Z 24006KT 200V270 CAVOK 17/12 Q1015 NOSIG=
200912292130 METAR LMML NIL=
200912292115 METAR LMML 292115Z 24004KT 160V290 CAVOK 16/11 Q1015 NOSIG=
200912292100 METAR LMML NIL=
200912292045 METAR LMML 292045Z 23005KT CAVOK 16/13 Q1015 NOSIG=
200912292030 METAR LMML NIL=
200912292015 METAR LMML 292015Z VRB02KT CAVOK 17/11 Q1015 NOSIG=
200912292000 METAR LMML NIL=
200912291945 METAR LMML 291945Z 28004KT 240V310 CAVOK 17/10 Q1014 NOSIG=
200912291930 METAR LMML NIL=
200912291915 METAR LMML 291915Z 28007KT 250V320 CAVOK 17/11 Q1014 NOSIG=
200912291900 METAR LMML NIL=
200912291845 METAR LMML 291845Z 27009KT 240V300 CAVOK 17/11 Q1014 NOSIG=
200912291830 METAR LMML NIL=
200912291815 METAR LMML 291815Z 26010KT 220V290 CAVOK 17/11 Q1014 NOSIG=
200912291800 METAR LMML NIL=
200912291745 METAR LMML 291745Z 23005KT 190V290 CAVOK 16/13 Q1014 NOSIG=
200912291715 METAR LMML 291715Z VRB03KT CAVOK 16/12 Q1014 NOSIG=
200912291700 METAR LMML NIL=
200912291645 METAR LMML 291645Z 23007KT 200V260 CAVOK 16/13 Q1013 NOSIG=
200912291630 METAR LMML NIL=
200912291615 METAR LMML 291615Z 23006KT 190V270 CAVOK 16/14 Q1013 NOSIG=
200912291545 METAR LMML 291545Z 21006KT 170V260 CAVOK 16/14 Q1013 NOSIG=
200912291515 METAR LMML 291515Z 23008KT 200V290 CAVOK 17/13 Q1013 NOSIG=
200912291500 METAR LMML NIL=
200912291445 METAR LMML 291445Z 23008KT 180V260 CAVOK 17/13 Q1013 NOSIG=
200912291415 METAR LMML 291415Z 23007KT 200V270 CAVOK 18/13 Q1013 NOSIG=
200912291400 METAR LMML NIL=
200912291345 METAR LMML 291345Z 22007KT 190V260 CAVOK 18/12 Q1013 NOSIG=
200912291330 METAR LMML NIL=
200912291315 METAR LMML 291315Z 23007KT 200V270 CAVOK 18/12 Q1013 NOSIG=
200912291300 METAR LMML NIL=
200912291245 METAR LMML 291245Z 23008KT 210V280 CAVOK 18/13 Q1014 NOSIG=
200912291230 METAR LMML NIL=
200912291215 METAR LMML 291215Z 22008KT 190V270 CAVOK 18/14 Q1014 NOSIG=
200912291200 METAR LMML NIL=
200912291145 METAR LMML 291145Z 23008KT 200V280 CAVOK 19/14 Q1014 NOSIG=
200912291130 METAR LMML NIL=
200912291115 METAR LMML 291115Z 24007KT 200V290 CAVOK 20/12 Q1014 NOSIG=
200912291100 METAR LMML NIL=
200912291045 METAR LMML 291045Z 26009KT 220V300 CAVOK 19/11 Q1014 NOSIG=
200912291030 METAR LMML NIL=
200912291015 METAR LMML 291015Z 27006KT 220V330 CAVOK 19/11 Q1015 NOSIG=
200912290945 METAR LMML 290945Z 28005KT 230V330 CAVOK 20/11 Q1015 NOSIG=
200912290915 METAR LMML 290915Z 28007KT 190V320 CAVOK 19/11 Q1015 NOSIG=
200912290845 METAR LMML 290845Z 28005KT 190V350 CAVOK 18/12 Q1015 NOSIG=
200912290830 METAR LMML NIL=
200912290815 METAR LMML 290815Z VRB03KT CAVOK 17/13 Q1015 NOSIG=
200912290745 METAR LMML 290745Z 23006KT 200V290 CAVOK 17/13 Q1015 NOSIG=
200912290715 METAR LMML 290715Z 22007KT 190V280 CAVOK 16/13 Q1015 NOSIG=
200912290700 METAR LMML NIL=
200912290645 METAR LMML 290645Z 23006KT CAVOK 15/13 Q1014 NOSIG=
200912290630 METAR LMML NIL=
200912290615 METAR LMML 290615Z 22005KT 200V260 CAVOK 15/13 Q1014 NOSIG=
200912290600 METAR LMML NIL=
200912290545 METAR LMML 290545Z 23008KT 200V260 CAVOK 15/13 Q1014 NOSIG=
200912290530 METAR LMML NIL=
200912290515 METAR LMML 290515Z 23008KT 200V270 CAVOK 15/12 Q1014 NOSIG=
200912290500 METAR LMML NIL=
200912290445 METAR LMML 290445Z 24009KT 210V270 CAVOK 15/12 Q1014 NOSIG=
200912290430 METAR LMML NIL=
200912290415 METAR LMML 290415Z 24008KT 200V280 CAVOK 15/12 Q1014 NOSIG=
200912290400 METAR LMML NIL=
200912290345 METAR LMML 290345Z 24009KT 210V270 CAVOK 15/12 Q1014 NOSIG=
200912290315 METAR LMML 290315Z 24008KT 210V280 CAVOK 15/12 Q1014 NOSIG=
200912290300 METAR LMML NIL=
200912290245 METAR LMML 290245Z 24010KT 200V280 CAVOK 15/12 Q1014 NOSIG=
200912290230 METAR LMML NIL=
200912290215 METAR LMML 290215Z 24010KT 210V270 CAVOK 15/12 Q1014 NOSIG=
200912290200 METAR LMML NIL=
200912290145 METAR LMML 290145Z 24009KT 210V270 CAVOK 15/12 Q1014 NOSIG=
200912290115 METAR LMML 290115Z 23009KT 200V270 CAVOK 15/12 Q1014 NOSIG=
200912290045 METAR LMML 290045Z 23008KT 200V270 CAVOK 15/12 Q1014 NOSIG=
200912290015 METAR LMML 290015Z 23009KT 190V270 CAVOK 16/12 Q1015 NOSIG=
200912282345 METAR LMML 282345Z 23009KT 200V280 CAVOK 16/12 Q1015 NOSIG=
200912282315 METAR LMML 282315Z 22008KT 180V280 CAVOK 15/13 Q1015 NOSIG=
200912282300 METAR LMML NIL=
200912282245 METAR LMML 282245Z 23010KT 200V270 CAVOK 15/12 Q1015 NOSIG=
200912282230 METAR LMML NIL=
200912282215 METAR LMML 282215Z 24008KT 210V280 CAVOK 15/12 Q1016 NOSIG=
200912282145 METAR LMML 282145Z 24010KT 200V280 CAVOK 15/12 Q1016 NOSIG=
200912282115 METAR LMML 282115Z 24009KT 190V300 CAVOK 15/11 Q1016 NOSIG=
200912282045 METAR LMML 282045Z 24009KT 210V280 CAVOK 15/11 Q1016 NOSIG=
200912282030 METAR LMML NIL=
200912282015 METAR LMML 282015Z 26009KT 210V300 CAVOK 15/11 Q1016 NOSIG=
200912282000 METAR LMML NIL=
200912281945 METAR LMML 281945Z 24009KT 200V280 CAVOK 15/10 Q1016 NOSIG=
200912281930 METAR LMML NIL=
200912281915 METAR LMML 281915Z 23011KT 190V280 CAVOK 15/10 Q1016 NOSIG=
200912281900 METAR LMML NIL=
200912281845 METAR LMML 281845Z 22012KT 200V280 CAVOK 14/10 Q1016 NOSIG=
200912281830 METAR LMML NIL=
200912281815 METAR LMML 281815Z 22013KT 200V280 CAVOK 14/10 Q1016 NOSIG=
200912281800 METAR LMML NIL=
200912281745 METAR LMML 281745Z 23012KT 200V280 CAVOK 14/09 Q1016 NOSIG=
200912281730 METAR LMML NIL=
200912281715 METAR LMML 281715Z 23012KT 190V270 CAVOK 14/09 Q1016 NOSIG=
200912281645 METAR LMML 281645Z 23012KT 200V270 CAVOK 14/08 Q1017 NOSIG=
200912281630 METAR LMML NIL=
200912281615 METAR LMML 281615Z 26010KT 220V290 9999 FEW027 BKN250 14/08
                        Q1017 NOSIG=
200912281600 METAR LMML NIL=
200912281545 METAR LMML 281545Z 28010KT 240V310 9999 FEW027 BKN250 14/09
                        Q1017 NOSIG=
200912281530 METAR LMML NIL=
200912281515 METAR LMML 281515Z 27012KT 9999 FEW027 BKN250 15/10 Q1017
                        NOSIG=
200912281500 METAR LMML NIL=
200912281445 METAR LMML 281445Z 27013KT 230V300 9999 FEW027 BKN250 15/10
                        Q1017 NOSIG=
200912281430 METAR LMML NIL=
200912281415 METAR LMML 281415Z 27016KT 9999 FEW027 BKN250 15/10 Q1017
                        NOSIG=
200912281400 METAR LMML NIL=
200912281345 METAR LMML 281345Z 26013KT 220V310 9999 FEW027 BKN250 16/10
                        Q1017 NOSIG=
200912281330 METAR LMML NIL=
200912281315 METAR LMML 281315Z 27014KT 240V300 9999 FEW027 BKN250 16/10
                        Q1017 NOSIG=
200912281300 METAR LMML NIL=
200912281245 METAR LMML 281245Z 27012KT 240V300 9999 FEW027 BKN250 16/09
                        Q1017 NOSIG=
200912281230 METAR LMML NIL=
200912281215 METAR LMML 281215Z 27013KT 210V300 9999 FEW027 BKN250 16/10
                        Q1018 NOSIG=
200912281200 METAR LMML NIL=
200912281145 METAR LMML 281145Z 28018KT 250V320 9999 FEW027 BKN250 16/10
                        Q1018 NOSIG=
200912281130 METAR LMML NIL=
200912281115 METAR LMML 281115Z 29016KT 9999 FEW027 BKN250 16/10 Q1018
                        NOSIG=
200912281100 METAR LMML NIL=
200912281045 METAR LMML 281045Z 29014KT 250V320 9999 FEW030 BKN250 16/10
                        Q1018 NOSIG=
200912281030 METAR LMML NIL=
200912281015 METAR LMML 281015Z 29015KT 260V320 9999 FEW030 BKN250 16/09
                        Q1019 NOSIG=
200912281000 METAR LMML NIL=
200912280945 METAR LMML 280945Z 29012KT 260V320 9999 FEW029 16/09 Q1019
                        NOSIG=
200912280930 METAR LMML NIL=
200912280915 METAR LMML 280915Z 29014KT 250V320 9999 FEW034 16/09 Q1019
                        NOSIG=
200912280900 METAR LMML NIL=
200912280845 METAR LMML 280845Z 29010KT 9999 SCT029 16/09 Q1019 NOSIG=
200912280830 METAR LMML NIL=
200912280815 METAR LMML 280815Z 30009KT 260V330 9999 BKN029 14/09 Q1019
                        NOSIG=
200912280800 METAR LMML NIL=
200912280745 METAR LMML 280745Z 30013KT 9999 SCT031 14/09 Q1018 NOSIG=
200912280730 METAR LMML NIL=
200912280715 METAR LMML 280715Z 31017KT 9999 SCT033 14/08 Q1018 NOSIG=
200912280700 METAR LMML NIL=
200912280645 METAR LMML 280645Z 30012KT 9999 SCT032 13/09 Q1018 NOSIG=
200912280630 METAR LMML NIL=
200912280615 METAR LMML 280615Z 31018KT 9999 SCT030 13/09 Q1017 NOSIG=
200912280600 METAR LMML NIL=
200912280545 METAR LMML 280545Z 31013KT 280V340 9999 SCT028 13/09 Q1017
                        NOSIG=
200912280530 METAR LMML NIL=
200912280515 METAR LMML 280515Z 32013KT 9999 FEW029 13/09 Q1016 NOSIG=
200912280500 METAR LMML NIL=
200912280445 METAR LMML 280445Z 32010KT 280V350 9999 FEW032 13/08 Q1016
                        NOSIG=
200912280430 METAR LMML NIL=
200912280415 METAR LMML 280415Z 31014KT 280V340 9999 FEW033 13/08 Q1016
                        NOSIG=
200912280400 METAR LMML NIL=
200912280345 METAR LMML 280345Z 31015KT 9999 FEW035 13/08 Q1017 NOSIG=
200912280330 METAR LMML NIL=
200912280315 METAR LMML 280315Z 31017KT 9999 FEW036 13/07 Q1016 NOSIG=
200912280300 METAR LMML NIL=
200912280245 METAR LMML 280245Z 30016G28KT 9999 FEW033 13/08 Q1016 NOSIG=
200912280230 METAR LMML NIL=
200912280215 METAR LMML 280215Z 30020KT 9999 FEW032 14/08 Q1016 NOSIG=
200912280200 METAR LMML NIL=
200912280145 METAR LMML 280145Z 30016G27KT 9999 SCT032 13/08 Q1016 NOSIG=
200912280130 METAR LMML NIL=
200912280115 METAR LMML 280115Z 30019G30KT 9999 SCT031 13/08 Q1016 NOSIG=
200912280100 METAR LMML NIL=
200912280045 METAR LMML 280045Z 30017KT 9999 SCT031 13/07 Q1016 NOSIG=
200912280030 METAR LMML NIL=
200912280015 METAR LMML 280015Z 30016KT 260V320 9999 SCT035 13/07 Q1016
                        NOSIG=
200912280000 METAR LMML NIL=
200912272345 METAR LMML 272345Z 30015KT 9999 SCT035 13/07 Q1015 NOSIG=
200912272330 METAR LMML NIL=
200912272315 METAR LMML 272315Z 29019G29KT 9999 SCT031 14/07 Q1015 NOSIG=
200912272300 METAR LMML NIL=
200912272245 METAR LMML 272245Z 30018KT 270V330 9999 SCT031 14/08 Q1015
                        NOSIG=
200912272230 METAR LMML NIL=
200912272215 METAR LMML 272215Z 30019KT 9999 SCT025 14/09 Q1014 NOSIG=
200912272200 METAR LMML NIL=
200912272145 METAR LMML 272145Z 31015KT 9999 FEW029 13/09 Q1014 NOSIG=
200912272130 METAR LMML NIL=
200912272115 METAR LMML 272115Z 31017KT 9999 FEW030 13/09 Q1014 NOSIG=
200912272100 METAR LMML NIL=
200912272045 METAR LMML 272045Z 31020KT 9999 FEW023 14/09 Q1013 NOSIG=
200912272030 METAR LMML NIL=
200912272015 METAR LMML 272015Z 31022KT 9999 SCT023 14/09 Q1013 NOSIG=
200912272000 METAR LMML NIL=
200912271945 METAR LMML 271945Z 31021KT 9999 BKN018 14/11 Q1013 NOSIG=
200912271930 METAR LMML NIL=
200912271915 METAR LMML 271915Z 31024KT 9999 BKN020 14/11 Q1012 NOSIG=
200912271900 METAR LMML NIL=
200912271845 METAR LMML 271845Z 31021KT 9999 BKN030 14/10 Q1011 NOSIG=
200912271830 METAR LMML NIL=
200912271815 METAR LMML 271815Z 31023G34KT 9999 BKN027 14/10 Q1011 NOSIG=
200912271800 METAR LMML NIL=
200912271745 METAR LMML 271745Z 30024G35KT 9999 BKN042 14/10 Q1010 NOSIG=
200912271730 METAR LMML NIL=
200912271715 METAR LMML 271715Z 30022KT 9999 BKN035 14/10 Q1010 NOSIG=
200912271700 METAR LMML NIL=
200912271645 METAR LMML 271645Z 29020KT 9999 BKN022 14/11 Q1010 NOSIG=
200912271630 METAR LMML NIL=
200912271615 METAR LMML 271615Z 29018KT 9999 SCT021 14/11 Q1009 NOSIG=
200912271600 METAR LMML NIL=
200912271545 METAR LMML 271545Z 30018KT 270V330 9999 SCT027 SCT080 15/12
                        Q1009 NOSIG=
200912271530 METAR LMML NIL=
200912271515 METAR LMML 271515Z 31016KT 9999 SCT029 SCT080 15/13 Q1009
                        NOSIG=
200912271445 METAR LMML 271445Z 29015KT 9000 RA FEW009 BKN080 15/13 Q1009
                        NOSIG=
200912271430 METAR LMML NIL=
200912271415 METAR COR LMML 271415Z 30013KT 8000 -RA FEW009 SCT030 BKN080
                        14/13 Q1009 NOSIG=
200912271400 METAR LMML NIL=
200912271345 METAR LMML 271345Z 30020G30KT 9000 -SHRA SCT024CB SCT030
                        BKN070 16/13 Q1008 TEMPO 5000 TSRA
                        BKN015CB=
200912271330 METAR LMML NIL=
200912271315 METAR LMML 271315Z 32013KT 290V350 9999 FEW025 BKN080 18/13
                        Q1007 TEMPO 5000 TSRA BKN015CB=
200912271300 METAR LMML NIL=
200912271245 METAR LMML 271245Z 31015KT 280V360 9999 FEW025 SCT080 19/13
                        Q1007 NOSIG=
200912271230 METAR LMML NIL=
200912271215 METAR LMML 271215Z 30012KT 260V330 9999 FEW025 SCT080 19/13
                        Q1006 NOSIG=
200912271200 METAR LMML NIL=
200912271145 METAR LMML 271145Z 30011KT 270V330 9999 FEW030 SCT120 19/14
                        Q1007 NOSIG=
200912271115 METAR LMML 271115Z 30012KT 260V330 9999 FEW030 SCT120 20/13
                        Q1007 NOSIG=
200912271100 METAR LMML NIL=
200912271045 METAR LMML 271045Z 29006KT 240V320 9999 FEW030 21/13 Q1007
                        NOSIG=
200912271030 METAR LMML NIL=
200912271015 METAR LMML 271015Z 30006KT 260V330 9999 FEW030 21/12 Q1007
                        NOSIG=
200912271000 METAR LMML NIL=
200912270945 METAR LMML 270945Z 31006KT 280V340 9999 FEW030 21/12 Q1007
                        NOSIG=
200912270930 METAR LMML NIL=
200912270915 METAR LMML 270915Z VRB02KT 9999 FEW030 21/13 Q1007 NOSIG=
200912270900 METAR LMML NIL=
200912270845 METAR LMML 270845Z VRB02KT CAVOK 20/14 Q1007 NOSIG=
200912270830 METAR LMML NIL=
200912270815 METAR LMML 270815Z VRB03KT CAVOK 19/14 Q1007 NOSIG=
200912270800 METAR LMML NIL=
200912270745 METAR LMML 270745Z 21005KT CAVOK 17/14 Q1006 NOSIG=
200912270730 METAR LMML NIL=
200912270715 METAR LMML 270715Z VRB03KT 9999 FEW025 15/13 Q1006 NOSIG=
200912270700 METAR LMML NIL=
200912270645 METAR LMML 270645Z 20005KT 9999 FEW025 16/13 Q1006 NOSIG=
200912270630 METAR LMML NIL=
200912270615 METAR LMML 270615Z 21004KT 9999 FEW025 SCT250 15/13 Q1006
                        NOSIG=
200912270600 METAR LMML NIL=
200912270545 METAR LMML 270545Z 21004KT 9999 FEW025 BKN250 14/13 Q1006
                        NOSIG=
200912270530 METAR LMML NIL=
200912270515 METAR LMML 270515Z VRB02KT CAVOK 14/13 Q1006 NOSIG=
200912270500 METAR LMML NIL=
200912270445 METAR LMML 270445Z VRB03KT CAVOK 15/13 Q1006 NOSIG=
200912270430 METAR LMML NIL=
200912270415 METAR LMML 270415Z VRB03KT CAVOK 15/13 Q1006 NOSIG=
200912270400 METAR LMML NIL=
200912270345 METAR LMML 270345Z VRB02KT CAVOK 15/13 Q1006 NOSIG=
200912270330 METAR LMML NIL=
200912270315 METAR LMML 270315Z 22004KT CAVOK 15/13 Q1006 NOSIG=
200912270300 METAR LMML NIL=
200912270245 METAR LMML 270245Z 22004KT CAVOK 15/13 Q1006 NOSIG=
200912270230 METAR LMML NIL=
200912270215 METAR LMML 270215Z 23004KT CAVOK 14/13 Q1007 NOSIG=
200912270200 METAR LMML NIL=
200912270145 METAR LMML 270145Z VRB03KT CAVOK 15/13 Q1007 NOSIG=
200912270130 METAR LMML NIL=
200912270115 METAR LMML 270115Z VRB02KT CAVOK 15/13 Q1007 NOSIG=
200912270100 METAR LMML NIL=
200912270045 METAR LMML 270045Z VRB02KT CAVOK 15/13 Q1007 NOSIG=
200912270030 METAR LMML NIL=
200912270015 METAR LMML 270015Z VRB01KT CAVOK 15/13 Q1007 NOSIG=
200912270000 METAR LMML NIL=
200912262345 METAR LMML 262345Z VRB02KT CAVOK 16/13 Q1007 NOSIG=
200912262330 METAR LMML NIL=
200912262315 METAR LMML 262315Z VRB02KT CAVOK 16/13 Q1007 NOSIG=
200912262300 METAR LMML NIL=
200912262245 METAR LMML 262245Z 33004KT 300V360 CAVOK 17/13 Q1007 NOSIG=
200912262230 METAR LMML NIL=
200912262215 METAR LMML 262215Z 26004KT 200V310 CAVOK 17/12 Q1007 NOSIG=
200912262200 METAR LMML NIL=
200912262145 METAR LMML 262145Z 25006KT 210V290 CAVOK 18/12 Q1007 NOSIG=
200912262130 METAR LMML NIL=
200912262115 METAR LMML 262115Z 26010KT 230V290 CAVOK 19/11 Q1007 NOSIG=
200912262100 METAR LMML NIL=
200912262045 METAR LMML 262045Z 25010KT 210V280 CAVOK 18/12 Q1007 NOSIG=
200912262030 METAR LMML NIL=
200912262015 METAR LMML 262015Z 24010KT 200V280 CAVOK 18/12 Q1007 NOSIG=
200912262000 METAR LMML NIL=
200912261945 METAR LMML 261945Z 24012KT 210V280 CAVOK 19/12 Q1007 NOSIG=
200912261930 METAR LMML NIL=
200912261915 METAR LMML 261915Z 24012KT 210V280 CAVOK 19/12 Q1007 NOSIG=
200912261900 METAR LMML NIL=
200912261845 METAR LMML 261845Z 24012KT 190V270 CAVOK 19/12 Q1007 NOSIG=
200912261830 METAR LMML NIL=
200912261815 METAR LMML 261815Z 23011KT 200V270 CAVOK 19/12 Q1008 NOSIG=
200912261800 METAR LMML NIL=
200912261745 METAR LMML 261745Z 23010KT 200V270 CAVOK 18/13 Q1008 NOSIG=
200912261730 METAR LMML NIL=
200912261715 METAR LMML 261715Z 21010KT 180V260 CAVOK 18/13 Q1008 NOSIG=
200912261700 METAR LMML NIL=
200912261645 METAR LMML 261645Z 21010KT 160V250 CAVOK 18/14 Q1007 NOSIG=
200912261630 METAR LMML NIL=
200912261615 METAR LMML 261615Z 20009KT 170V240 CAVOK 18/14 Q1007 NOSIG=
200912261600 METAR LMML NIL=
200912261545 METAR LMML 261545Z 21010KT 170V260 CAVOK 19/13 Q1008 NOSIG=
200912261530 METAR LMML NIL=
200912261515 METAR LMML 261515Z 21009KT 170V250 CAVOK 19/13 Q1008 NOSIG=
200912261500 METAR LMML NIL=
200912261445 METAR LMML 261445Z 21011G21KT 180V260 CAVOK 20/13 Q1008 NOSIG=
200912261430 METAR LMML NIL=
200912261415 METAR LMML 261415Z 21011KT 180V260 CAVOK 20/12 Q1008 NOSIG=
200912261400 METAR LMML NIL=
200912261345 METAR LMML 261345Z 21011KT 160V250 CAVOK 21/13 Q1009 NOSIG=
200912261330 METAR LMML NIL=
200912261315 METAR LMML 261315Z 21007KT 180V260 CAVOK 20/14 Q1009 NOSIG=
200912261300 METAR LMML NIL=
200912261245 METAR LMML 261245Z 20009KT 160V250 CAVOK 21/13 Q1009 NOSIG=
200912261230 METAR LMML NIL=
200912261215 METAR LMML 261215Z 20008KT 160V240 CAVOK 20/14 Q1010 NOSIG=
200912261200 METAR LMML NIL=
200912261145 METAR LMML 261145Z 20007KT 160V240 CAVOK 20/15 Q1010 NOSIG=
200912261130 METAR LMML NIL=
200912261115 METAR LMML 261115Z 20008KT 160V240 CAVOK 19/15 Q1011 NOSIG=
200912261100 METAR LMML NIL=
200912261045 METAR LMML 261045Z 19008KT 160V230 CAVOK 19/15 Q1011 NOSIG=
200912261030 METAR LMML NIL=
200912261015 METAR LMML 261015Z 19010KT 160V250 CAVOK 19/16 Q1012 NOSIG=
200912261000 METAR LMML NIL=
200912260945 METAR LMML 260945Z 18009KT 150V210 CAVOK 20/15 Q1012 NOSIG=
200912260930 METAR LMML NIL=
200912260915 METAR LMML 260915Z 17008KT 140V210 CAVOK 19/15 Q1013 NOSIG=
200912260900 METAR LMML NIL=
200912260845 METAR LMML 260845Z 18009KT 140V200 CAVOK 18/14 Q1013 NOSIG=
200912260830 METAR LMML NIL=
200912260815 METAR LMML 260815Z 17006KT 140V220 CAVOK 18/14 Q1013 NOSIG=
200912260800 METAR LMML NIL=
200912260745 METAR LMML 260745Z 18006KT 150V210 CAVOK 18/13 Q1013 NOSIG=
200912260730 METAR LMML NIL=
200912260715 METAR LMML 260715Z 16007KT CAVOK 17/13 Q1013 NOSIG=
200912260700 METAR LMML NIL=
200912260645 METAR LMML 260645Z VRB03KT CAVOK 17/13 Q1013 NOSIG=
200912260630 METAR LMML NIL=
200912260615 METAR LMML 260615Z 18004KT 130V200 CAVOK 16/14 Q1013 NOSIG=
200912260600 METAR LMML NIL=
200912260545 METAR LMML 260545Z 19006KT CAVOK 16/13 Q1013 NOSIG=
200912260530 METAR LMML NIL=
200912260515 METAR LMML 260515Z 16004KT CAVOK 17/11 Q1013 NOSIG=
200912260500 METAR LMML NIL=
200912260445 METAR LMML 260445Z VRB01KT CAVOK 14/11 Q1013 NOSIG=
200912260430 METAR LMML NIL=
200912260415 METAR LMML 260415Z 00000KT CAVOK 14/11 Q1013 NOSIG=
200912260400 METAR LMML NIL=
200912260345 METAR LMML 260345Z VRB01KT CAVOK 15/12 Q1013 NOSIG=
200912260330 METAR LMML NIL=
200912260315 METAR LMML 260315Z VRB01KT CAVOK 15/12 Q1013 NOSIG=
200912260300 METAR LMML NIL=
200912260245 METAR LMML 260245Z VRB02KT CAVOK 15/12 Q1013 NOSIG=
200912260230 METAR LMML NIL=
200912260215 METAR LMML 260215Z 22004KT CAVOK 15/12 Q1014 NOSIG=
200912260200 METAR LMML NIL=
200912260145 METAR LMML 260145Z VRB02KT CAVOK 16/13 Q1014 NOSIG=
200912260130 METAR LMML NIL=
200912260115 METAR LMML 260115Z VRB03KT CAVOK 16/13 Q1014 NOSIG=
200912260100 METAR LMML NIL=
200912260045 METAR LMML 260045Z 23004KT CAVOK 16/12 Q1014 NOSIG=
200912260030 METAR LMML NIL=
200912260015 METAR LMML 260015Z 25004KT 220V300 CAVOK 17/12 Q1014 NOSIG=
200912260000 METAR LMML NIL=
200912252345 METAR LMML 252345Z 28004KT 240V300 CAVOK 16/12 Q1014 NOSIG=
200912252330 METAR LMML NIL=
200912252315 METAR LMML 252315Z 30005KT CAVOK 16/12 Q1014 NOSIG=
200912252300 METAR LMML NIL=
200912252245 METAR LMML 252245Z 30006KT CAVOK 15/13 Q1014 NOSIG=
200912252230 METAR LMML NIL=
200912252215 METAR LMML 252215Z 32006KT CAVOK 16/14 Q1014 NOSIG=
200912252200 METAR LMML NIL=
200912252145 METAR LMML 252145Z 33005KT CAVOK 16/14 Q1015 NOSIG=
200912252130 METAR LMML NIL=
200912252115 METAR LMML 252115Z 32005KT CAVOK 16/13 Q1014 NOSIG=
200912252100 METAR LMML NIL=
200912252045 METAR LMML 252045Z VRB03KT CAVOK 16/13 Q1014 NOSIG=
200912252030 METAR LMML NIL=
200912252015 METAR LMML 252015Z 31004KT CAVOK 15/13 Q1014 NOSIG=
200912252000 METAR LMML NIL=
200912251945 METAR LMML 251945Z VRB01KT CAVOK 16/13 Q1014 NOSIG=
200912251915 METAR LMML 251915Z 26005KT 230V290 CAVOK 16/14 Q1013 NOSIG=
200912251900 METAR LMML NIL=
200912251845 METAR LMML 251845Z 26006KT CAVOK 17/14 Q1013 NOSIG=
200912251830 METAR LMML NIL=
200912251815 METAR LMML 251815Z 25004KT 200V290 CAVOK 17/14 Q1013 NOSIG=
200912251800 METAR LMML NIL=
200912251745 METAR LMML 251745Z 24007KT 190V290 CAVOK 18/13 Q1013 NOSIG=
200912251730 METAR LMML NIL=
200912251715 METAR LMML 251715Z 25009KT 220V280 CAVOK 17/13 Q1013 NOSIG=
200912251700 METAR LMML NIL=
200912251645 METAR LMML 251645Z 26008KT 220V290 CAVOK 18/13 Q1013 NOSIG=
200912251630 METAR LMML NIL=
200912251615 METAR LMML 251615Z 27005KT 230V300 CAVOK 18/13 Q1012 NOSIG=
200912251600 METAR LMML NIL=
200912251545 METAR LMML 251545Z 25006KT 210V290 CAVOK 19/13 Q1012 NOSIG=
200912251515 METAR LMML 251515Z 25005KT 210V300 CAVOK 19/12 Q1011 NOSIG=
200912251500 METAR LMML NIL=
200912251445 METAR LMML 251445Z 26006KT 210V300 CAVOK 20/12 Q1011 NOSIG=
200912251430 METAR LMML NIL=
200912251415 METAR LMML 251415Z 25008KT 210V330 CAVOK 20/12 Q1011 NOSIG=
200912251400 METAR LMML NIL=
200912251345 METAR LMML 251345Z 25012KT 210V300 CAVOK 20/11 Q1011 NOSIG=
200912251330 METAR LMML NIL=
200912251315 METAR LMML 251315Z 24013KT 200V280 CAVOK 21/12 Q1011 NOSIG=
200912251245 METAR LMML 251245Z 24014KT 200V280 CAVOK 21/12 Q1011 NOSIG=
200912251230 METAR LMML NIL=
200912251215 METAR LMML 251215Z 24013KT 200V280 CAVOK 21/10 Q1010 NOSIG=
200912251200 METAR LMML NIL=
200912251145 METAR LMML 251145Z 24015KT 200V280 CAVOK 21/12 Q1011 NOSIG=
200912251130 METAR LMML NIL=
200912251115 METAR LMML 251115Z 22010KT 180V260 CAVOK 20/13 Q1011 NOSIG=
200912251100 METAR LMML NIL=
200912251045 METAR LMML 251045Z 22011KT 180V260 CAVOK 21/12 Q1012 NOSIG=
200912251030 METAR LMML NIL=
200912251015 METAR LMML 251015Z 24011KT 210V280 CAVOK 22/10 Q1012 NOSIG=
200912251000 METAR LMML NIL=
200912250945 METAR LMML 250945Z 24012KT 190V290 CAVOK 23/09 Q1012 NOSIG=
200912250930 METAR LMML NIL=
200912250915 METAR LMML 250915Z 24012KT 200V280 CAVOK 23/10 Q1012 NOSIG=
200912250900 METAR LMML NIL=
200912250845 METAR LMML 250845Z 23011KT 200V280 CAVOK 22/10 Q1012 NOSIG=
200912250815 METAR LMML 250815Z 23011KT 200V280 CAVOK 21/11 Q1012 NOSIG=
200912250800 METAR LMML NIL=
200912250745 METAR LMML 250745Z 23010KT 200V270 CAVOK 21/11 Q1011 NOSIG=
200912250730 METAR LMML NIL=
200912250715 METAR LMML 250715Z 23010KT 200V290 CAVOK 21/11 Q1012 NOSIG=
200912250700 METAR LMML NIL=
200912250645 METAR LMML 250645Z 23010KT 200V270 CAVOK 20/11 Q1011 NOSIG=
200912250630 METAR LMML NIL=
200912250615 METAR LMML 250615Z 23011KT 200V270 CAVOK 20/11 Q1011 NOSIG=
200912250600 METAR LMML NIL=
200912250545 METAR LMML 250545Z 23012KT 190V270 CAVOK 20/11 Q1011 NOSIG=
200912250530 METAR LMML NIL=
200912250515 METAR LMML 250515Z 23012KT 180V280 CAVOK 20/12 Q1011 NOSIG=
200912250445 METAR LMML 250445Z 23012KT 200V280 CAVOK 20/11 Q1011 NOSIG=
200912250430 METAR LMML NIL=
200912250415 METAR LMML 250415Z 23013KT 200V270 CAVOK 20/12 Q1011 NOSIG=
200912250400 METAR LMML NIL=
200912250345 METAR LMML 250345Z 23015KT 200V260 CAVOK 21/11 Q1011 NOSIG=
200912250330 METAR LMML NIL=
200912250315 METAR LMML 250315Z 23011KT 190V270 CAVOK 21/11 Q1011 NOSIG=
200912250300 METAR LMML NIL=
200912250245 METAR LMML 250245Z 22010KT 190V260 CAVOK 20/12 Q1011 NOSIG=
200912250215 METAR LMML 250215Z 22011KT 180V260 CAVOK 20/12 Q1011 NOSIG=
200912250145 METAR LMML 250145Z 22012G22KT 180V270 CAVOK 20/12 Q1011 NOSIG=
200912250130 METAR LMML NIL=
200912250115 METAR LMML 250115Z 21009KT 170V260 CAVOK 19/14 Q1011 NOSIG=
200912250045 METAR LMML 250045Z 21009KT 160V240 CAVOK 19/14 Q1011 NOSIG=
200912250015 METAR LMML 250015Z 21010KT 160V260 CAVOK 20/14 Q1011 NOSIG=
200912250000 METAR LMML NIL=
200912242345 METAR LMML 242345Z 19012KT 160V230 CAVOK 20/13 Q1011 NOSIG=
200912242330 METAR LMML NIL=
200912242315 METAR LMML 242315Z 19010KT 160V230 CAVOK 19/13 Q1012 NOSIG=
200912242245 METAR LMML 242245Z 19011KT 160V240 CAVOK 19/13 Q1012 NOSIG=
200912242215 METAR LMML 242215Z 19010KT 160V220 CAVOK 19/12 Q1012 NOSIG=
200912242200 METAR LMML NIL=
200912242145 METAR LMML 242145Z 20011KT 160V240 CAVOK 19/13 Q1012 NOSIG=
200912242115 METAR LMML 242115Z 19012KT 170V240 CAVOK 19/13 Q1012 NOSIG=
200912242100 METAR LMML NIL=
200912242045 METAR LMML 242045Z 19013KT 160V230 CAVOK 20/13 Q1012 NOSIG=
200912242030 METAR LMML NIL=
200912242015 METAR LMML 242015Z 19010KT 160V230 CAVOK 19/14 Q1012 NOSIG=
200912242000 METAR LMML NIL=
200912241945 METAR LMML 241945Z 19011KT 160V220 CAVOK 19/14 Q1012 NOSIG=
200912241930 METAR LMML NIL=
200912241915 METAR LMML 241915Z 19011KT 160V230 CAVOK 19/13 Q1012 NOSIG=
200912241900 METAR LMML NIL=
200912241845 METAR LMML 241845Z 20009KT 160V250 CAVOK 18/14 Q1012 NOSIG=
200912241815 METAR LMML 241815Z 21010KT 170V240 CAVOK 18/13 Q1012 NOSIG=
200912241800 METAR LMML NIL=
200912241745 METAR LMML 241745Z 20009KT 160V250 CAVOK 18/13 Q1012 NOSIG=
200912241715 METAR LMML 241715Z 20010KT 170V240 CAVOK 18/13 Q1012 NOSIG=
200912241700 METAR LMML NIL=
200912241645 METAR LMML 241645Z 21008KT 160V240 CAVOK 18/13 Q1012 NOSIG=
200912241630 METAR LMML NIL=
200912241615 METAR LMML 241615Z 21008KT 170V250 CAVOK 18/13 Q1012 NOSIG=
200912241600 METAR LMML NIL=
200912241545 METAR LMML 241545Z 20008KT 160V250 CAVOK 18/13 Q1011 NOSIG=
200912241530 METAR LMML NIL=
200912241515 METAR LMML 241515Z 21008KT 170V250 CAVOK 18/13 Q1011 NOSIG=
200912241445 METAR LMML 241445Z 21009KT 180V250 CAVOK 19/13 Q1011 NOSIG=
200912241430 METAR LMML NIL=
200912241415 METAR LMML 241415Z 20008KT 170V240 CAVOK 19/13 Q1012 NOSIG=
200912241400 METAR LMML NIL=
200912241345 METAR LMML 241345Z 21008KT 170V250 CAVOK 19/13 Q1012 NOSIG=
200912241330 METAR LMML NIL=
200912241315 METAR LMML 241315Z 21008KT 160V250 CAVOK 19/13 Q1011 NOSIG=
200912241300 METAR LMML NIL=
200912241245 METAR LMML 241245Z 21009KT 170V250 CAVOK 19/13 Q1011 NOSIG=
200912241230 METAR LMML NIL=
200912241215 METAR LMML 241215Z 21008KT 180V250 CAVOK 19/13 Q1012 NOSIG=
200912241200 METAR LMML NIL=
200912241145 METAR LMML 241145Z 21010KT 170V250 CAVOK 19/14 Q1012 NOSIG=
200912241130 METAR LMML NIL=
200912241115 METAR LMML 241115Z 21010KT 170V260 CAVOK 19/13 Q1013 NOSIG=
200912241100 METAR LMML NIL=
200912241045 METAR LMML 241045Z 21009KT 170V260 CAVOK 19/13 Q1013 NOSIG=
200912241030 METAR LMML NIL=
200912241015 METAR LMML 241015Z 21009KT 180V250 CAVOK 19/13 Q1013 NOSIG=
200912241000 METAR LMML NIL=
200912240945 METAR LMML 240945Z 21008KT 180V260 CAVOK 19/13 Q1014 NOSIG=
200912240930 METAR LMML NIL=
200912240915 METAR LMML 240915Z 21009KT 180V240 CAVOK 20/13 Q1014 NOSIG=
200912240900 METAR LMML NIL=
200912240845 METAR LMML 240845Z 21009KT 170V260 CAVOK 19/13 Q1014 NOSIG=
200912240830 METAR LMML NIL=
200912240815 METAR LMML 240815Z 21008KT 170V250 CAVOK 19/13 Q1013 NOSIG=
200912240800 METAR LMML NIL=
200912240745 METAR LMML 240745Z 20007KT 170V240 CAVOK 18/13 Q1013 NOSIG=
200912240730 METAR LMML NIL=
200912240715 METAR LMML 240715Z 20006KT 150V240 CAVOK 18/13 Q1014 NOSIG=
200912240700 METAR LMML NIL=
200912240645 METAR LMML 240645Z 21007KT 170V250 CAVOK 18/12 Q1014 NOSIG=
200912240630 METAR LMML NIL=
200912240615 METAR LMML 240615Z 21008KT 170V250 CAVOK 18/12 Q1013 NOSIG=
200912240600 METAR LMML NIL=
200912240545 METAR LMML 240545Z 21007KT 160V260 CAVOK 18/13 Q1013 NOSIG=
200912240530 METAR LMML NIL=
200912240515 METAR LMML 240515Z 22010KT 180V260 CAVOK 18/13 Q1013 NOSIG=
200912240500 METAR LMML NIL=
200912240445 METAR LMML 240445Z 21008KT 180V250 CAVOK 18/13 Q1013 NOSIG=
200912240430 METAR LMML NIL=
200912240415 METAR LMML 240415Z 22009KT 180V260 CAVOK 18/13 Q1013 NOSIG=
200912240400 METAR LMML NIL=
200912240345 METAR LMML 240345Z 21010KT 180V250 CAVOK 18/13 Q1013 NOSIG=
200912240330 METAR LMML NIL=
200912240315 METAR LMML 240315Z 20009KT 160V230 CAVOK 18/14 Q1013 NOSIG=
200912240300 METAR LMML NIL=
200912240245 METAR LMML 240245Z 21008KT 170V240 CAVOK 18/14 Q1013 NOSIG=
200912240230 METAR LMML NIL=
200912240215 METAR LMML 240215Z 20010KT 160V240 CAVOK 18/14 Q1013 NOSIG=
200912240200 METAR LMML NIL=
200912240145 METAR LMML 240145Z 20011KT 160V240 CAVOK 18/13 Q1013 NOSIG=
200912240130 METAR LMML NIL=
200912240115 METAR LMML 240115Z 20012KT 170V230 CAVOK 18/13 Q1013 NOSIG=
200912240100 METAR LMML NIL=
200912240045 METAR LMML 240045Z 20010KT 170V240 CAVOK 18/13 Q1013 NOSIG=
200912240030 METAR LMML NIL=
200912240015 METAR LMML 240015Z 20010KT 170V260 CAVOK 18/13 Q1013 NOSIG=
200912240000 METAR LMML NIL=
200912232345 METAR LMML 232345Z 20009KT 170V240 CAVOK 18/13 Q1013 NOSIG=
200912232330 METAR LMML NIL=
200912232315 METAR LMML 232315Z 20009KT 170V230 CAVOK 18/12 Q1013 NOSIG=
200912232300 METAR LMML NIL=
200912232245 METAR LMML 232245Z 20008KT 170V230 CAVOK 18/12 Q1013 NOSIG=
200912232230 METAR LMML NIL=
200912232215 METAR LMML 232215Z 20009KT 160V230 CAVOK 18/12 Q1014 NOSIG=
200912232200 METAR LMML NIL=
200912232145 METAR LMML 232145Z 19009KT 160V230 CAVOK 18/13 Q1014 NOSIG=
200912232130 METAR LMML NIL=
200912232115 METAR LMML 232115Z 19010KT 160V220 CAVOK 17/14 Q1014 NOSIG=
200912232100 METAR LMML NIL=
200912232045 METAR LMML 232045Z 20010KT 160V230 CAVOK 17/14 Q1014 NOSIG=
200912232030 METAR LMML NIL=
200912232015 METAR LMML 232015Z 19011KT CAVOK 17/14 Q1014 NOSIG=
200912232000 METAR LMML NIL=
200912231945 METAR LMML 231945Z 19011KT CAVOK 17/14 Q1014 NOSIG=
200912231930 METAR LMML NIL=
200912231915 METAR LMML 231915Z 19009KT 160V240 CAVOK 17/12 Q1014 NOSIG=
200912231900 METAR LMML NIL=
200912231845 METAR LMML 231845Z 20007KT 160V250 CAVOK 16/15 Q1014 NOSIG=
200912231830 METAR LMML NIL=
200912231815 METAR LMML 231815Z 17004KT 120V220 CAVOK 16/15 Q1014 NOSIG=
200912231800 METAR LMML NIL=
200912231745 METAR LMML 231745Z VRB03KT CAVOK 16/15 Q1014 NOSIG=
200912231730 METAR LMML NIL=
200912231715 METAR LMML 231715Z VRB01KT CAVOK 16/14 Q1014 NOSIG=
200912231700 METAR LMML NIL=
200912231645 METAR LMML 231645Z VRB01KT CAVOK 16/14 Q1014 NOSIG=
200912231630 METAR LMML NIL=
200912231615 METAR LMML 231615Z VRB03KT CAVOK 17/14 Q1014 NOSIG=
200912231545 METAR LMML 231545Z 22005KT 180V290 CAVOK 17/14 Q1014 NOSIG=
200912231530 METAR LMML NIL=
200912231515 METAR LMML 231515Z VRB03KT CAVOK 18/15 Q1014 NOSIG=
200912231500 METAR LMML NIL=
200912231445 METAR LMML 231445Z VRB03KT CAVOK 19/15 Q1014 NOSIG=
200912231430 METAR LMML NIL=
200912231415 METAR LMML 231415Z 21004KT 180V250 CAVOK 19/15 Q1013 NOSIG=
200912231400 METAR LMML NIL=
200912231345 METAR LMML 231345Z 21005KT 180V260 CAVOK 20/14 Q1014 NOSIG=
200912231330 METAR LMML NIL=
200912231315 METAR LMML 231315Z 22007KT CAVOK 20/13 Q1013 NOSIG=
200912231300 METAR LMML NIL=
200912231245 METAR LMML 231245Z 24005KT 200V280 CAVOK 21/12 Q1013 NOSIG=
200912231230 METAR LMML NIL=
200912231215 METAR LMML 231215Z 26008KT 220V290 CAVOK 22/10 Q1013 NOSIG=
200912231200 METAR LMML NIL=
200912231145 METAR LMML 231145Z 28008KT 250V320 CAVOK 22/11 Q1014 NOSIG=
200912231130 METAR LMML NIL=
200912231115 METAR LMML 231115Z 28009KT 230V300 CAVOK 22/10 Q1015 NOSIG=
200912231100 METAR LMML NIL=
200912231045 METAR LMML 231045Z 26011KT 220V300 CAVOK 21/10 Q1015 NOSIG=
200912231030 METAR LMML NIL=
200912231015 METAR LMML 231015Z 25009KT 210V290 CAVOK 21/12 Q1015 NOSIG=
200912231000 METAR LMML NIL=
200912230945 METAR LMML 230945Z 23007KT 180V290 CAVOK 20/13 Q1015 NOSIG=
200912230930 METAR LMML NIL=
200912230915 METAR LMML 230915Z 22008KT 190V260 CAVOK 20/13 Q1015 NOSIG=
200912230900 METAR LMML NIL=
200912230845 METAR LMML 230845Z 23009KT 200V280 CAVOK 19/11 Q1015 NOSIG=
200912230830 METAR LMML NIL=
200912230815 METAR LMML 230815Z 24007KT 200V270 CAVOK 18/13 Q1015 NOSIG=
200912230800 METAR LMML NIL=
200912230745 METAR LMML 230745Z 22007KT 190V260 CAVOK 18/14 Q1015 NOSIG=
200912230730 METAR LMML NIL=
200912230715 METAR LMML 230715Z 22005KT 180V260 9000 NSC 18/14 Q1015 NOSIG=
200912230700 METAR LMML NIL=
200912230645 METAR LMML 230645Z 21006KT 170V260 9000 NSC 18/13 Q1015 NOSIG=
200912230630 METAR LMML NIL=
200912230615 METAR LMML 230615Z 22006KT 190V270 9000 NSC 18/13 Q1014 NOSIG=
200912230545 METAR LMML 230545Z 22010KT 190V260 9000 NSC 18/13 Q1014 NOSIG=
200912230530 METAR LMML NIL=
200912230515 METAR LMML 230515Z 22011KT 190V250 9000 NSC 18/14 Q1014 NOSIG=
200912230500 METAR LMML NIL=
200912230445 METAR LMML 230445Z 22011KT 190V250 9000 NSC 18/14 Q1013 NOSIG=
200912230430 METAR LMML NIL=
200912230415 METAR LMML 230415Z 22013KT 190V250 9000 NSC 18/14 Q1013 NOSIG=
200912230400 METAR LMML NIL=
200912230345 METAR LMML 230345Z 21011KT 180V240 9000 NSC 18/14 Q1013 NOSIG=
200912230330 METAR LMML NIL=
200912230315 METAR LMML 230315Z 22012KT 200V260 9000 NSC 18/14 Q1014 NOSIG=
200912230300 METAR LMML NIL=
200912230245 METAR LMML 230245Z 21010KT 180V250 CAVOK 17/14 Q1014 NOSIG=
200912230230 METAR LMML NIL=
200912230215 METAR LMML 230215Z 20011KT 160V230 CAVOK 18/15 Q1014 NOSIG=
200912230200 METAR LMML NIL=
200912230145 METAR LMML 230145Z 20011KT 170V230 CAVOK 18/15 Q1014 NOSIG=
200912230130 METAR LMML NIL=
200912230115 METAR LMML 230115Z 20012KT 160V240 CAVOK 17/15 Q1014 NOSIG=
200912230100 METAR LMML NIL=
200912230045 METAR LMML 230045Z 19013KT 150V230 CAVOK 18/14 Q1014 NOSIG=
200912230030 METAR LMML NIL=
200912230015 METAR LMML 230015Z 19014KT 160V220 CAVOK 18/14 Q1014 NOSIG=
200912230000 METAR LMML NIL=
200912222345 METAR LMML 222345Z 20012KT 160V230 CAVOK 18/14 Q1014 NOSIG=
200912222315 METAR LMML 222315Z 19013KT 160V220 CAVOK 18/14 Q1014 NOSIG=
200912222300 METAR LMML NIL=
200912222245 METAR LMML 222245Z 19014KT 160V220 CAVOK 18/14 Q1014 NOSIG=
200912222230 METAR LMML NIL=
200912222215 METAR LMML 222215Z 19015KT 160V220 CAVOK 17/14 Q1014 NOSIG=
200912222200 METAR LMML NIL=
200912222145 METAR LMML 222145Z 19013KT 160V230 CAVOK 17/14 Q1015 NOSIG=
200912222130 METAR LMML NIL=
200912222115 METAR LMML 222115Z 20012KT 160V230 CAVOK 17/14 Q1015 NOSIG=
200912222045 METAR LMML 222045Z 20010KT 160V240 CAVOK 17/14 Q1015 NOSIG=
200912222030 METAR LMML NIL=
200912222015 METAR LMML 222015Z 20011KT 160V240 CAVOK 17/14 Q1015 NOSIG=
200912222000 METAR LMML NIL=
200912221945 METAR LMML 221945Z 19011KT 160V230 CAVOK 16/14 Q1015 NOSIG=
200912221930 METAR LMML NIL=
200912221915 METAR LMML 221915Z 19012KT 160V230 CAVOK 17/14 Q1015 NOSIG=
200912221900 METAR LMML NIL=
200912221845 METAR LMML 221845Z 19012KT 160V220 CAVOK 16/14 Q1015 NOSIG=
200912221830 METAR LMML NIL=
200912221815 METAR LMML 221815Z 19008KT 160V230 CAVOK 16/14 Q1015 NOSIG=
200912221745 METAR LMML 221745Z 19007KT 150V240 CAVOK 16/14 Q1015 NOSIG=
200912221730 METAR LMML NIL=
200912221715 METAR LMML 221715Z 19008KT 160V230 CAVOK 17/14 Q1015 NOSIG=
200912221700 METAR LMML NIL=
200912221645 METAR LMML 221645Z 19009KT 170V230 CAVOK 17/14 Q1015 NOSIG=
200912221630 METAR LMML NIL=
200912221615 METAR LMML 221615Z 20009KT 160V240 CAVOK 17/14 Q1015 NOSIG=
200912221600 METAR LMML NIL=
200912221545 METAR LMML 221545Z 20009KT 160V240 CAVOK 17/14 Q1015 NOSIG=
200912221530 METAR LMML NIL=
200912221515 METAR LMML 221515Z 20011KT 160V250 CAVOK 17/14 Q1015 NOSIG=
200912221500 METAR LMML NIL=
200912221445 METAR LMML 221445Z 20011KT 170V240 CAVOK 18/14 Q1015 NOSIG=
200912221430 METAR LMML NIL=
200912221415 METAR LMML 221415Z 20010KT 140V250 CAVOK 18/14 Q1015 NOSIG=
200912221400 METAR LMML NIL=
200912221345 METAR LMML 221345Z 20010KT 130V250 CAVOK 18/14 Q1015 NOSIG=
200912221330 METAR LMML NIL=
200912221315 METAR LMML 221315Z 20011KT 160V240 CAVOK 19/14 Q1015 NOSIG=
200912221300 METAR LMML NIL=
200912221245 METAR LMML 221245Z 20011KT 160V270 CAVOK 19/14 Q1015 NOSIG=
200912221230 METAR LMML NIL=
200912221215 METAR LMML 221215Z 20013KT 160V250 CAVOK 18/14 Q1016 NOSIG=
200912221200 METAR LMML NIL=
200912221145 METAR LMML 221145Z 20010G21KT 150V250 CAVOK 19/14 Q1016 NOSIG=
200912221130 METAR LMML NIL=
200912221115 METAR LMML 221115Z 20010KT 160V250 9999 FEW015 SCT250 19/14
                        Q1017 NOSIG=
200912221100 METAR LMML NIL=
200912221045 METAR LMML 221045Z 20010KT 140V270 9999 FEW015 SCT250 18/14
                        Q1017 NOSIG=
200912221030 METAR LMML NIL=
200912221015 METAR LMML 221015Z 19011KT 160V230 9999 FEW015 SCT250 18/14
                        Q1017 NOSIG=
200912221000 METAR LMML NIL=
200912220945 METAR LMML 220945Z 19011KT 150V250 9999 FEW015 SCT250 18/14
                        Q1018 NOSIG=
200912220930 METAR LMML NIL=
200912220915 METAR LMML 220915Z 20013KT 160V240 9999 FEW015 SCT250 18/14
                        Q1018 NOSIG=
200912220900 METAR LMML NIL=
200912220845 METAR LMML 220845Z 20012KT 160V250 9999 FEW015 18/14 Q1019
                        NOSIG=
200912220830 METAR LMML NIL=
200912220815 METAR LMML 220815Z 19009KT 150V260 9999 FEW015 17/14 Q1019
                        NOSIG=
200912220800 METAR LMML NIL=
200912220745 METAR LMML 220745Z 19008KT 150V260 9999 FEW014 17/14 Q1019
                        NOSIG=
200912220730 METAR LMML NIL=
200912220715 METAR LMML 220715Z 19010KT 150V220 9999 FEW016 16/13 Q1019
                        NOSIG=
200912220700 METAR LMML NIL=
200912220645 METAR LMML 220645Z 20011KT 160V230 CAVOK 16/13 Q1018 NOSIG=
200912220630 METAR LMML NIL=
200912220615 METAR LMML 220615Z 20010KT 160V260 CAVOK 16/12 Q1019 NOSIG=
200912220600 METAR LMML NIL=
200912220545 METAR LMML 220545Z 20009KT 160V230 CAVOK 16/12 Q1019 NOSIG=
200912220515 METAR LMML 220515Z 20011KT 150V250 9999 FEW022 16/12 Q1019
                        NOSIG=
200912220500 METAR LMML NIL=
200912220445 METAR LMML 220445Z 20009KT 160V250 9999 FEW022 16/12 Q1019
                        NOSIG=
200912220430 METAR LMML NIL=
200912220415 METAR LMML 220415Z 20010KT 170V240 9999 FEW022 16/12 Q1019
                        NOSIG=
200912220400 METAR LMML NIL=
200912220345 METAR LMML 220345Z 20011KT 160V230 9999 FEW024 15/12 Q1019
                        NOSIG=
200912220330 METAR LMML NIL=
200912220315 METAR LMML 220315Z 19011KT 160V230 9999 FEW023 15/12 Q1020
                        NOSIG=
200912220300 METAR LMML NIL=
200912220245 METAR LMML 220245Z 19009KT 160V230 9999 FEW025 15/11 Q1020
                        NOSIG=
200912220230 METAR LMML NIL=
200912220215 METAR LMML 220215Z 19010KT 140V220 9999 FEW025 15/10 Q1020
                        NOSIG=
200912220200 METAR LMML NIL=
200912220145 METAR LMML 220145Z 19010KT 150V240 9999 FEW030 15/10 Q1021
                        NOSIG=
200912220130 METAR LMML NIL=
200912220115 METAR LMML 220115Z 19009KT 150V230 9999 FEW031 15/09 Q1021
                        NOSIG=
200912220100 METAR LMML NIL=
200912220045 METAR LMML 220045Z 19009KT 160V250 9999 FEW030 14/09 Q1021
                        NOSIG=
200912220030 METAR LMML NIL=
200912220015 METAR LMML 220015Z 19011KT 150V220 9999 FEW032 14/08 Q1021
                        NOSIG=
200912212345 METAR LMML 212345Z 20011KT 160V230 9999 FEW040 14/08 Q1021
                        NOSIG=
200912212315 METAR LMML 212315Z 19010KT 150V230 9999 FEW040 14/07 Q1021
                        NOSIG=
200912212300 METAR LMML NIL=
200912212245 METAR LMML 212245Z 19010KT 150V230 9999 FEW040 14/07 Q1021
                        NOSIG=
200912212230 METAR LMML NIL=
200912212215 METAR LMML 212215Z 19010KT 150V230 9999 FEW037 14/06 Q1021
                        NOSIG=
200912212200 METAR LMML NIL=
200912212145 METAR LMML 212145Z 19009KT 160V230 9999 SCT039 13/06 Q1022
                        NOSIG=
200912212130 METAR LMML NIL=
200912212115 METAR LMML 212115Z 19010KT 160V230 9999 SCT040 13/05 Q1022
                        NOSIG=
200912212100 METAR LMML NIL=
200912212045 METAR LMML 212045Z 19009KT 140V240 9999 FEW044 13/04 Q1022
                        NOSIG=
200912212030 METAR LMML NIL=
200912212015 METAR LMML 212015Z 20008KT 150V240 9999 FEW044 13/04 Q1022
                        NOSIG=
200912212000 METAR LMML NIL=
200912211945 METAR LMML 211945Z 20010KT 170V240 9999 SCT044 13/04 Q1022
                        NOSIG=
200912211930 METAR LMML NIL=
200912211915 METAR LMML 211915Z 20009KT 160V250 9999 SCT042 13/04 Q1022
                        NOSIG=
200912211900 METAR LMML NIL=
200912211845 METAR LMML 211845Z 19010KT 160V230 9999 SCT044 13/04 Q1022
                        NOSIG=
200912211830 METAR LMML NIL=
200912211815 METAR LMML 211815Z 18007KT 140V230 9999 BKN045 13/03 Q1022
                        NOSIG=
200912211745 METAR LMML 211745Z 19007KT 170V230 9999 BKN045 13/04 Q1022
                        NOSIG=
200912211730 METAR LMML NIL=
200912211715 METAR LMML 211715Z 21006KT 150V270 9999 BKN045 13/03 Q1022
                        NOSIG=
200912211700 METAR LMML NIL=
200912211645 METAR LMML 211645Z 21006KT 160V270 9999 BKN046 13/04 Q1023
                        NOSIG=
200912211630 METAR LMML NIL=
200912211615 METAR LMML 211615Z 20005KT 160V250 9999 BKN046 13/03 Q1022
                        NOSIG=
200912211600 METAR LMML NIL=
200912211545 METAR LMML 211545Z 20005KT 170V240 9999 BKN046 12/03 Q1023
                        NOSIG=
200912211530 METAR LMML NIL=
200912211515 METAR LMML 211515Z 23004KT 180V280 9999 SCT047 12/03 Q1023
                        NOSIG=
200912211500 METAR LMML NIL=
200912211445 METAR LMML 211445Z 23007KT 180V270 9999 SCT047 13/03 Q1023
                        NOSIG=
200912211430 METAR LMML NIL=
200912211415 METAR LMML 211415Z 23004KT 180V290 9999 FEW045 14/03 Q1022
                        NOSIG=
200912211400 METAR LMML NIL=
200912211345 METAR LMML 211345Z 21005KT 150V270 9999 FEW045 14/02 Q1022
                        NOSIG=
200912211330 METAR LMML NIL=
200912211315 METAR LMML 211315Z 24007KT 200V280 9999 FEW045 14/02 Q1022
                        NOSIG=
200912211300 METAR LMML NIL=
200912211245 METAR LMML 211245Z 23006KT 200V280 9999 FEW045 14/02 Q1022
                        NOSIG=
200912211215 METAR LMML 211215Z 25006KT 190V290 9999 FEW035 SCT050 14/03
                        Q1022 NOSIG=
200912211200 METAR LMML NIL=
200912211145 METAR LMML 211145Z 25005KT 210V300 9999 SCT040 14/03 Q1023
                        NOSIG=
200912211130 METAR LMML NIL=
200912211115 METAR LMML 211115Z 25006KT 190V300 9999 FEW035 BKN250 14/02
                        Q1023 NOSIG=
200912211100 METAR LMML NIL=
200912211045 METAR LMML 211045Z 26004KT 200V330 9999 FEW035 BKN250 14/02
                        Q1023 NOSIG=
200912211030 METAR LMML NIL=
200912211015 METAR LMML 211015Z 29005KT 220V330 9999 FEW035 BKN250 14/02
                        Q1024 NOSIG=
200912210945 METAR LMML 210945Z 30005KT 240V320 9999 FEW035 SCT050 13/02
                        Q1024 NOSIG=
200912210915 METAR LMML 210915Z 33007KT 260V360 9999 FEW035 BKN050 13/03
                        Q1024 NOSIG=
200912210900 METAR LMML NIL=
200912210845 METAR LMML 210845Z 30006KT 270V330 9999 FEW035 SCT050 13/03
                        Q1024 NOSIG=
200912210830 METAR LMML NIL=
200912210815 METAR LMML 210815Z VRB02KT 9999 FEW035 SCT050 12/02 Q1023
                        NOSIG=
200912210800 METAR LMML NIL=
200912210745 METAR LMML 210745Z VRB02KT 9999 FEW035 SCT050 10/03 Q1023
                        NOSIG=
200912210730 METAR LMML NIL=
200912210715 METAR LMML 210715Z 29004KT 260V320 9999 FEW035 BKN050 10/02
                        Q1023 NOSIG=
200912210700 METAR LMML NIL=
200912210645 METAR LMML 210645Z 29004KT 9999 FEW035 BKN050 09/02 Q1022
                        NOSIG=
200912210630 METAR LMML NIL=
200912210615 METAR LMML 210615Z 29004KT 250V320 9999 FEW035 BKN050 09/02
                        Q1022 NOSIG=
200912210600 METAR LMML NIL=
200912210545 METAR LMML 210545Z 30005KT 270V330 9999 FEW035 SCT050 09/02
                        Q1022 NOSIG=
200912210530 METAR LMML NIL=
200912210515 METAR LMML 210515Z 31004KT 9999 FEW035 08/01 Q1021 NOSIG=
200912210500 METAR LMML NIL=
200912210445 METAR LMML 210445Z 32007KT 9999 FEW039 08/02 Q1021 NOSIG=
200912210430 METAR LMML NIL=
200912210415 METAR LMML 210415Z 29007KT 9999 FEW039 SCT050 10/04 Q1020
                        NOSIG=
200912210400 METAR LMML NIL=
200912210345 METAR LMML 210345Z 31007KT 9999 FEW039 SCT060 09/05 Q1020
                        NOSIG=
200912210330 METAR LMML NIL=
200912210315 METAR LMML 210315Z 32010KT 9999 FEW039 SCT060 09/05 Q1020
                        NOSIG=
200912210300 METAR LMML NIL=
200912210245 METAR LMML 210245Z 29008KT 9999 FEW039 SCT060 09/04 Q1020
                        NOSIG=
200912210230 METAR LMML NIL=
200912210215 METAR LMML 210215Z 29007KT 9999 FEW045 10/04 Q1020 NOSIG=
200912210200 METAR LMML NIL=
200912210145 METAR LMML 210145Z 30008KT 9999 FEW038 SCT060 09/03 Q1020
                        NOSIG=
200912210130 METAR LMML NIL=
200912210115 METAR LMML 210115Z 30006KT 9999 FEW038 SCT060 09/04 Q1019
                        NOSIG=
200912210100 METAR LMML NIL=
200912210045 METAR LMML 210045Z 30008KT 9999 FEW036 SCT060 09/03 Q1019
                        NOSIG=
200912210015 METAR LMML 210015Z 29008KT 260V320 9999 FEW036 SCT060 10/04
                        Q1018 NOSIG=
200912210000 METAR LMML NIL=
200912202345 METAR LMML 202345Z 32011KT 280V360 9999 FEW040 SCT060 10/04
                        Q1018 NOSIG=
200912202330 METAR LMML NIL=
200912202315 METAR LMML 202315Z 31012KT 9999 FEW040 SCT060 10/04 Q1018
                        NOSIG=
200912202300 METAR LMML NIL=
200912202245 METAR LMML 202245Z 30013KT 9999 FEW040 SCT060 11/04 Q1018
                        NOSIG=
200912202230 METAR LMML NIL=
200912202215 METAR LMML 202215Z 30013KT 9999 FEW040 SCT060 10/04 Q1018
                        NOSIG=
200912202145 METAR LMML 202145Z 30009KT 9999 FEW040 SCT060 10/03 Q1017
                        NOSIG=
200912202130 METAR LMML NIL=
200912202115 METAR LMML 202115Z 31012KT 9999 FEW040 10/02 Q1017 NOSIG=
200912202045 METAR LMML 202045Z 31013KT 9999 FEW040 SCT060 10/03 Q1016
                        NOSIG=
200912202030 METAR LMML NIL=
200912202015 METAR LMML 202015Z 30013KT 9999 FEW040 SCT060 11/04 Q1016
                        NOSIG=
200912202000 METAR LMML NIL=
200912201945 METAR LMML 201945Z 30011KT 9999 FEW042 SCT060 11/02 Q1015
                        NOSIG=
200912201930 METAR LMML NIL=
200912201915 METAR LMML 201915Z 30015KT 9999 FEW042 SCT060 11/03 Q1015
                        NOSIG=
200912201900 METAR LMML NIL=
200912201845 METAR LMML 201845Z 31013KT 270V330 9999 FEW036 SCT060 10/04
                        Q1014 NOSIG=
200912201830 METAR LMML NIL=
200912201815 METAR LMML 201815Z 31016KT 9999 FEW036 SCT050 10/04 Q1014
                        NOSIG=
200912201800 METAR LMML NIL=
200912201745 METAR LMML 201745Z 31017KT 9999 FEW030 SCT039 10/04 Q1013
                        NOSIG=
200912201730 METAR LMML NIL=
200912201715 METAR LMML 201715Z 30019KT 9999 FEW030 SCT039 10/03 Q1013
                        NOSIG=
200912201700 METAR LMML NIL=
200912201645 METAR LMML 201645Z 30017KT 9999 FEW031 11/03 Q1012 NOSIG=
200912201630 METAR LMML NIL=
200912201615 METAR LMML 201615Z 29017KT 260V320 9999 FEW031 11/03 Q1012
                        NOSIG=
200912201600 METAR LMML NIL=
200912201545 METAR LMML 201545Z 30018KT 9999 FEW031 10/04 Q1011 NOSIG=
200912201530 METAR LMML NIL=
200912201515 METAR LMML 201515Z 30018KT 270V330 9999 SCT031 BKN130 11/06
                        Q1011 NOSIG=
200912201500 METAR LMML NIL=
200912201445 METAR LMML 201445Z 30011KT 260V330 9999 -RA FEW022 BKN130
                        10/07 Q1010 TEMPO 8000 RA BKN015=
200912201430 METAR LMML NIL=
200912201415 METAR LMML 201415Z 29013KT 6000 -RA BKN028 BKN130 11/07 Q1010
                        TEMPO 4000 RA BKN015=
200912201400 METAR LMML NIL=
200912201345 METAR LMML 201345Z 29013KT 250V310 9999 -RA FEW032 BKN130
                        11/06 Q1009 NOSIG=
200912201330 METAR LMML NIL=
200912201315 METAR LMML 201315Z 29014KT 260V330 9999 -RA SCT031 BKN130
                        11/07 Q1009 TEMPO 8000 RA=
200912201300 METAR LMML NIL=
200912201245 METAR LMML 201245Z 30014KT 9999 -RA SCT031 OVC130 10/07 Q1009
                        TEMPO 8000 RA=
200912201230 METAR LMML NIL=
200912201215 METAR LMML 201215Z 29009KT 240V330 9999 BKN031 OVC130 12/07
                        Q1008 NOSIG=
200912201200 METAR LMML NIL=
200912201145 METAR LMML 201145Z 31012KT 280V350 9999 FEW032 OVC130 12/07
                        Q1008 NOSIG=
200912201130 METAR LMML NIL=
200912201115 METAR LMML 201115Z 31009KT 280V340 9999 FEW023 OVC130 12/06
                        Q1008 NOSIG=
200912201100 METAR LMML NIL=
200912201045 METAR LMML 201045Z 31014KT 9999 FEW033 OVC130 11/07 Q1009
                        NOSIG=
200912201030 METAR LMML NIL=
200912201015 METAR LMML 201015Z 32013KT 9999 -RA FEW023 BKN130 11/08 Q1008
                        NOSIG=
200912201000 METAR LMML NIL=
200912200945 METAR LMML 200945Z 32014KT 9999 -RA FEW023 SCT130 10/07 Q1008
                        NOSIG=
200912200915 METAR LMML 200915Z 31013KT 280V340 9999 -RA SCT035 OVC130
                        11/08 Q1008 TEMPO 8000 RA=
200912200900 METAR LMML NIL=
200912200845 METAR LMML 200845Z 31010KT 9999 -RA FEW025 BKN130 10/08 Q1007
                        NOSIG=
200912200830 METAR LMML NIL=
200912200815 METAR LMML 200815Z 30008KT 260V330 9999 -RA SCT021 BKN060
                        BKN130 10/07 Q1007 NOSIG=
200912200800 METAR LMML NIL=
200912200745 METAR LMML 200745Z 32010KT 9999 FEW021 BKN060 BKN130 10/07
                        Q1006 NOSIG=
200912200730 METAR LMML NIL=
200912200715 METAR LMML 200715Z 33012KT 300V360 9999 FEW021 SCT060 BKN120
                        10/06 Q1006 TEMPO 9000 RA=
200912200700 METAR LMML NIL=
200912200645 METAR LMML 200645Z 33018KT 9999 -RA BKN022 OVC100 10/06 Q1006
                        TEMPO 9000 RA=
200912200630 METAR LMML NIL=
200912200615 METAR LMML 200615Z 33018G28KT 9999 -RA FEW025 SCT050 BKN100
                        10/05 Q1005 TEMPO 9000 RA=
200912200600 METAR LMML NIL=
200912200545 METAR LMML 200545Z 32015KT 300V360 9999 -RA SCT035 BKN050
                        BKN080 11/06 Q1004 TEMPO 9000 RA=
200912200530 METAR LMML NIL=
200912200515 METAR LMML 200515Z 32015KT 9999 -RA FEW037 SCT050 BKN080
                        11/06 Q1004 TEMPO 9000 RA=
200912200500 METAR LMML NIL=
200912200445 METAR LMML 200445Z 33013KT CAVOK 12/05 Q1002 NOSIG=
200912200430 METAR LMML NIL=
200912200415 METAR LMML 200415Z 33011KT CAVOK 12/05 Q1002 NOSIG=
200912200400 METAR LMML NIL=
200912200345 METAR LMML 200345Z 33014KT CAVOK 12/05 Q1001 NOSIG=
200912200330 METAR LMML NIL=
200912200315 METAR LMML 200315Z 33015KT CAVOK 12/05 Q1001 NOSIG=
200912200300 METAR LMML NIL=
200912200245 METAR LMML 200245Z 33013KT 9999 FEW030 12/06 Q1001 NOSIG=
200912200230 METAR LMML NIL=
200912200215 METAR LMML 200215Z 32015KT 290V350 9999 FEW020 SCT250 12/06
                        Q1002 NOSIG=
200912200200 METAR LMML NIL=
200912200145 METAR LMML 200145Z 33017KT 9999 SCT030 SCT120 12/07 Q1001
                        NOSIG=
200912200130 METAR LMML NIL=
200912200115 METAR LMML 200115Z 32012KT 300V360 9999 SCT017 SCT049 12/09
                        Q1001 NOSIG=
200912200100 METAR LMML NIL=
200912200045 METAR LMML 200045Z 32016KT 9999 SCT017 12/09 Q1001 NOSIG=
200912200030 METAR LMML NIL=
200912200015 METAR LMML 200015Z 32016KT 9999 SCT020 13/09 Q1000 NOSIG=
200912200000 METAR LMML NIL=
200912192345 METAR LMML 192345Z 33014KT 9999 SCT014 SCT090 14/10 Q1000
                        NOSIG=
200912192315 METAR LMML 192315Z 32011KT 9999 FEW008 SCT015 15/13 Q0999
                        NOSIG=
200912192300 METAR LMML NIL=
200912192245 METAR LMML 192245Z 32009KT 9999 SCT008 15/14 Q0999 NOSIG=
200912192230 METAR LMML NIL=
200912192215 METAR LMML 192215Z 28007KT 250V310 CAVOK 15/14 Q0999 NOSIG=
200912192200 METAR LMML NIL=
200912192145 METAR LMML 192145Z 25006KT 190V290 CAVOK 15/14 Q0999 NOSIG=
200912192130 METAR LMML NIL=
200912192115 METAR LMML 192115Z 23007KT 200V270 CAVOK 16/14 Q0998 NOSIG=
200912192100 METAR LMML NIL=
200912192045 METAR LMML 192045Z 23007KT 200V270 CAVOK 16/14 Q0998 NOSIG=
200912192030 METAR LMML NIL=
200912192015 METAR LMML 192015Z 22006KT 190V260 CAVOK 16/14 Q0998 NOSIG=
200912192000 METAR LMML NIL=
200912191945 METAR LMML 191945Z 23007KT 200V270 CAVOK 16/14 Q0998 NOSIG=
200912191930 METAR LMML NIL=
200912191915 METAR LMML 191915Z 24007KT 200V280 CAVOK 16/14 Q0998 NOSIG=
200912191900 METAR LMML NIL=
200912191845 METAR LMML 191845Z 23008KT 200V270 CAVOK 16/14 Q0998 NOSIG=
200912191830 METAR LMML NIL=
200912191815 METAR LMML 191815Z 24008KT 210V280 CAVOK 16/13 Q0998 NOSIG=
200912191800 METAR LMML NIL=
200912191745 METAR LMML 191745Z 24009KT 210V290 CAVOK 16/14 Q0998 NOSIG=
200912191730 METAR LMML NIL=
200912191715 METAR LMML 191715Z 24010KT 200V280 CAVOK 16/13 Q0997 NOSIG=
200912191700 METAR LMML NIL=
200912191645 METAR LMML 191645Z 23013KT 210V270 CAVOK 16/13 Q0997 NOSIG=
200912191630 METAR LMML NIL=
200912191615 METAR LMML 191615Z 22013KT 200V270 CAVOK 16/13 Q0996 NOSIG=
200912191600 METAR LMML NIL=
200912191545 METAR LMML 191545Z 22012KT 200V260 CAVOK 17/13 Q0996 NOSIG=
200912191530 METAR LMML NIL=
200912191515 METAR LMML 191515Z 22012KT CAVOK 17/14 Q0996 NOSIG=
200912191500 METAR LMML NIL=
200912191445 METAR LMML 191445Z 22013KT 190V260 CAVOK 17/14 Q0996 NOSIG=
200912191430 METAR LMML NIL=
200912191415 METAR LMML 191415Z 22013KT 190V270 CAVOK 18/14 Q0996 NOSIG=
200912191345 METAR LMML 191345Z 22012KT 180V250 CAVOK 18/14 Q0996 NOSIG=
200912191330 METAR LMML NIL=
200912191315 METAR LMML 191315Z 22012KT 190V250 CAVOK 18/14 Q0996 NOSIG=
200912191300 METAR LMML NIL=
200912191245 METAR LMML 191245Z 21011KT 180V250 CAVOK 18/14 Q0997 NOSIG=
200912191230 METAR LMML NIL=
200912191215 METAR LMML 191215Z 21012KT 180V250 CAVOK 18/14 Q0997 NOSIG=
200912191200 METAR LMML NIL=
200912191145 METAR LMML 191145Z 22013KT 190V250 CAVOK 18/14 Q0997 NOSIG=
200912191130 METAR LMML NIL=
200912191115 METAR LMML 191115Z 22012KT 190V260 CAVOK 19/15 Q0998 NOSIG=
200912191100 METAR LMML NIL=
200912191045 METAR LMML 191045Z 22013KT 190V270 CAVOK 19/15 Q0998 NOSIG=
200912191030 METAR LMML NIL=
200912191015 METAR LMML 191015Z 22011KT 190V280 CAVOK 18/15 Q0999 NOSIG=
200912191000 METAR LMML NIL=
200912190945 METAR LMML 190945Z 22013KT 200V260 CAVOK 19/15 Q1000 NOSIG=
200912190915 METAR LMML 190915Z 22013KT 190V260 CAVOK 18/14 Q1000 NOSIG=
200912190900 METAR LMML NIL=
200912190845 METAR LMML 190845Z 23012KT 190V280 CAVOK 18/14 Q0999 NOSIG=
200912190830 METAR LMML NIL=
200912190815 METAR LMML 190815Z 22013KT 190V270 CAVOK 18/14 Q0999 NOSIG=
200912190800 METAR LMML NIL=
200912190745 METAR LMML 190745Z 22013KT 190V260 CAVOK 18/14 Q0999 NOSIG=
200912190715 METAR LMML 190715Z 22013KT 200V260 CAVOK 17/13 Q0999 NOSIG=
200912190700 METAR LMML NIL=
200912190645 METAR LMML 190645Z 22013KT 180V270 CAVOK 17/13 Q0999 NOSIG=
200912190630 METAR LMML NIL=
200912190615 METAR LMML 190615Z 21011KT 180V250 CAVOK 17/14 Q0999 NOSIG=
200912190600 METAR LMML NIL=
200912190545 METAR LMML 190545Z 20012KT 160V240 CAVOK 17/13 Q1000 NOSIG=
200912190530 METAR LMML NIL=
200912190515 METAR LMML 190515Z 20012KT 160V230 CAVOK 17/14 Q1000 NOSIG=
200912190500 METAR LMML NIL=
200912190445 METAR LMML 190445Z 19010KT 150V230 CAVOK 17/14 Q1000 NOSIG=
200912190430 METAR LMML NIL=
200912190415 METAR LMML 190415Z 18013KT 150V220 CAVOK 17/14 Q1000 NOSIG=
200912190400 METAR LMML NIL=
200912190345 METAR LMML 190345Z 18014KT 150V210 CAVOK 16/14 Q1001 NOSIG=
200912190330 METAR LMML NIL=
200912190315 METAR LMML 190315Z 18012KT 140V220 CAVOK 16/13 Q1002 NOSIG=
200912190300 METAR LMML NIL=
200912190245 METAR LMML 190245Z 18013KT 160V230 9999 FEW019 BKN120 16/13
                        Q1002 NOSIG=
200912190230 METAR LMML NIL=
200912190215 METAR LMML 190215Z 18013KT 150V220 9999 FEW019 SCT090 BKN120
                        16/13 Q1003 NOSIG=
200912190200 METAR LMML NIL=
200912190145 METAR LMML 190145Z 18012KT 9999 FEW019 SCT070 BKN120 16/12
                        Q1003 NOSIG=
200912190130 METAR LMML NIL=
200912190115 METAR LMML 190115Z 18011KT 150V210 9999 FEW019 SCT070 BKN120
                        15/12 Q1004 NOSIG=
200912190100 METAR LMML NIL=
200912190045 METAR LMML 190045Z 18010KT 150V210 9999 FEW019 BKN120 15/11
                        Q1004 NOSIG=
200912190030 METAR LMML NIL=
200912190015 METAR LMML 190015Z 18009KT 150V220 9999 FEW020 BKN120 14/10
                        Q1005 NOSIG=
200912190000 METAR LMML NIL=
200912182345 METAR LMML 182345Z 17008KT 140V210 CAVOK 14/10 Q1005 NOSIG=
200912182315 METAR LMML 182315Z 17007KT CAVOK 14/09 Q1006 NOSIG=
200912182300 METAR LMML NIL=
200912182245 METAR LMML 182245Z 18006KT 140V200 CAVOK 13/08 Q1006 NOSIG=
200912182230 METAR LMML NIL=
200912182215 METAR LMML 182215Z 18005KT 150V210 CAVOK 13/09 Q1007 NOSIG=
200912182200 METAR LMML NIL=
200912182145 METAR LMML 182145Z 18005KT CAVOK 13/08 Q1007 NOSIG=
200912182130 METAR LMML NIL=
200912182115 METAR LMML 182115Z VRB02KT CAVOK 12/07 Q1007 NOSIG=
200912182100 METAR LMML NIL=
200912182045 METAR LMML 182045Z 20004KT 170V230 CAVOK 12/07 Q1007 NOSIG=
200912182030 METAR LMML NIL=
200912182015 METAR LMML 182015Z VRB03KT CAVOK 12/07 Q1008 NOSIG=
200912182000 METAR LMML NIL=
200912181945 METAR LMML 181945Z 24004KT CAVOK 11/08 Q1008 NOSIG=
200912181930 METAR LMML NIL=
200912181915 METAR LMML 181915Z VRB02KT CAVOK 12/08 Q1007 NOSIG=
200912181900 METAR LMML NIL=
200912181845 METAR LMML 181845Z VRB02KT 9999 FEW030 BKN120 12/07 Q1008
                        NOSIG=
200912181830 METAR LMML NIL=
200912181815 METAR LMML 181815Z VRB03KT 9999 FEW030 SCT120 12/07 Q1008
                        NOSIG=
200912181745 METAR LMML 181745Z 26005KT 200V310 9999 FEW032 SCT250 12/07
                        Q1008 NOSIG=
200912181715 METAR LMML 181715Z 26004KT 230V290 9999 FEW031 12/07 Q1008
                        NOSIG=
200912181700 METAR LMML NIL=
200912181645 METAR LMML 181645Z 29004KT 240V320 CAVOK 12/06 Q1008 NOSIG=
200912181630 METAR LMML NIL=
200912181615 METAR LMML 181615Z 29005KT 240V320 9999 FEW031 12/06 Q1007
                        NOSIG=
200912181600 METAR LMML NIL=
200912181545 METAR LMML 181545Z 29008KT 260V320 9999 FEW031 13/06 Q1008
                        NOSIG=
200912181530 METAR LMML NIL=
200912181515 METAR LMML 181515Z 31011KT 9999 FEW031 13/08 Q1007 NOSIG=
200912181500 METAR LMML NIL=
200912181445 METAR LMML 181445Z 30013KT 280V340 9999 SCT030 14/08 Q1007
                        NOSIG=
200912181430 METAR LMML NIL=
200912181415 METAR LMML 181415Z 30012KT 260V320 9999 BKN028 14/09 Q1007
                        NOSIG=
200912181400 METAR LMML NIL=
200912181345 METAR LMML 181345Z 30016KT 260V320 9999 BKN027 15/10 Q1007
                        NOSIG=
200912181330 METAR LMML NIL=
200912181315 METAR LMML 181315Z 28019KT 250V320 9999 SCT027 BKN250 15/08
                        Q1006 NOSIG=
200912181245 METAR LMML 181245Z 28020KT 250V320 9999 SCT027 BKN250 15/09
                        Q1006 NOSIG=
200912181230 METAR LMML NIL=
200912181215 METAR LMML 181215Z 29017KT 9999 SCT027 BKN250 15/10 Q1006
                        NOSIG=
200912181145 METAR LMML 181145Z 28019KT 250V320 9999 SCT027 BKN250 15/09
                        Q1006 NOSIG=
200912181130 METAR LMML NIL=
200912181115 METAR LMML 181115Z 29019G29KT 260V320 9999 FEW026 SCT250
                        16/10 Q1006 NOSIG=
200912181045 METAR LMML 181045Z 28019KT 240V310 9999 SCT026 SCT080 16/10
                        Q1007 NOSIG=
200912181030 METAR LMML NIL=
200912181015 METAR LMML 181015Z 28019KT 9999 FEW040 SCT080 16/10 Q1007
                        NOSIG=
200912181000 METAR LMML NIL=
200912180945 METAR LMML 180945Z 28016KT 240V310 9999 FEW045 BKN070 15/10
                        Q1007 NOSIG=
200912180915 METAR LMML 180915Z 28017KT 250V310 9999 FEW045 BKN070 15/10
                        Q1007 NOSIG=
200912180900 METAR LMML NIL=
200912180845 METAR LMML 180845Z 28019KT 250V310 9999 SCT045 SCT080 15/10
                        Q1007 NOSIG=
200912180830 METAR LMML NIL=
200912180815 METAR LMML 180815Z 30019G29KT 270V330 9999 SCT038 BKN080
                        14/09 Q1007 NOSIG=
200912180800 METAR LMML NIL=
200912180745 METAR LMML 180745Z 30016KT 9999 FEW028 SCT070 14/10 Q1007
                        NOSIG=
200912180730 METAR LMML NIL=
200912180715 METAR LMML 180715Z 31013KT 9999 FEW040 SCT080 14/10 Q1006
                        NOSIG=
200912180700 METAR LMML NIL=
200912180645 METAR LMML 180645Z 31013KT 9999 FEW018 BKN080 14/10 Q1006
                        NOSIG=
200912180630 METAR LMML NIL=
200912180615 METAR LMML 180615Z 31009KT 9999 FEW039 BKN080 14/11 Q1006
                        NOSIG=
200912180600 METAR LMML NIL=
200912180545 METAR LMML 180545Z 29014KT 9999 FEW022 BKN080 15/10 Q1006
                        NOSIG=
200912180530 METAR LMML NIL=
200912180515 METAR LMML 180515Z 29017KT 9999 FEW022 BKN070 15/10 Q1005
                        NOSIG=
200912180500 METAR LMML NIL=
200912180445 METAR LMML 180445Z 28012KT 250V310 9999 FEW022 BKN060 15/11
                        Q1005 NOSIG=
200912180430 METAR LMML NIL=
200912180415 METAR LMML 180415Z 28015KT 250V310 9999 FEW022 15/10 Q1005
                        NOSIG=
200912180400 METAR LMML NIL=
200912180345 METAR LMML 180345Z 29015KT 260V320 9999 FEW032 SCT090 15/11
                        Q1005 NOSIG=
200912180330 METAR LMML NIL=
200912180315 METAR LMML 180315Z 30015G25KT 9999 FEW022 BKN100 15/12 Q1005
                        NOSIG=
200912180300 METAR LMML NIL=
200912180245 METAR LMML 180245Z 28009KT 230V310 9999 FEW038 BKN070 16/12
                        Q1005 NOSIG=
200912180230 METAR LMML NIL=
200912180215 METAR LMML 180215Z 27009KT 240V300 CAVOK 16/11 Q1005 NOSIG=
200912180200 METAR LMML NIL=
200912180145 METAR LMML 180145Z 27009KT 230V300 CAVOK 16/11 Q1006 NOSIG=
200912180115 METAR LMML 180115Z 27010KT 240V300 CAVOK 16/11 Q1006 NOSIG=
200912180045 METAR LMML 180045Z 27010KT 230V310 CAVOK 16/12 Q1006 NOSIG=
200912180030 METAR LMML NIL=
200912180015 METAR LMML 180015Z 26009KT 220V290 CAVOK 16/12 Q1006 NOSIG
                        RMK DISTANT LIGHTNING TO NNE=
200912180000 METAR LMML NIL=
200912172345 METAR LMML 172345Z 26010KT 220V280 CAVOK 16/12 Q1006 NOSIG
                        RMK DISTANT LIGHTNING TO N=
200912172330 METAR LMML NIL=
200912172315 METAR LMML 172315Z 25010KT 210V290 CAVOK 16/12 Q1006 NOSIG=
200912172300 METAR LMML NIL=
200912172245 METAR LMML 172245Z 24008KT 190V280 CAVOK 16/13 Q1006 NOSIG=
200912172230 METAR LMML NIL=
200912172215 METAR LMML 172215Z 24007KT 200V270 CAVOK 16/13 Q1007 NOSIG=
200912172200 METAR LMML NIL=
200912172145 METAR LMML 172145Z 25009KT 210V280 CAVOK 16/14 Q1007 NOSIG=
200912172130 METAR LMML NIL=
200912172115 METAR LMML 172115Z 25009KT 210V290 CAVOK 16/14 Q1007 NOSIG=
200912172100 METAR LMML NIL=
200912172045 METAR LMML 172045Z 25010KT 210V280 CAVOK 16/13 Q1007 NOSIG=
200912172030 METAR LMML NIL=
200912172015 METAR LMML 172015Z 26011KT 220V290 CAVOK 16/13 Q1007 NOSIG=
200912172000 METAR LMML NIL=
200912171945 METAR LMML 171945Z 25011KT 210V280 9999 FEW030 16/13 Q1007
                        NOSIG=
200912171930 METAR LMML NIL=
200912171915 METAR LMML 171915Z 24011KT 210V270 CAVOK 16/14 Q1007 NOSIG=
200912171900 METAR LMML NIL=
200912171845 METAR LMML 171845Z 24011KT 190V280 CAVOK 16/14 Q1007 NOSIG=
200912171830 METAR LMML NIL=
200912171815 METAR LMML 171815Z 23011KT 200V280 CAVOK 16/14 Q1007 NOSIG=
200912171745 METAR LMML 171745Z 23010KT 200V270 CAVOK 16/14 Q1007 NOSIG=
200912171730 METAR LMML NIL=
200912171715 METAR LMML 171715Z 24008KT 200V280 CAVOK 16/13 Q1007 NOSIG=
200912171700 METAR LMML NIL=
200912171645 METAR LMML 171645Z 24009KT 200V270 9999 FEW025 SCT080 16/13
                        Q1007 NOSIG=
200912171630 METAR LMML NIL=
200912171615 METAR LMML 171615Z 24009KT 210V280 9999 FEW025 SCT070 16/13
                        Q1007 NOSIG=
200912171600 METAR LMML NIL=
200912171545 METAR LMML 171545Z 24009KT 190V280 CAVOK 16/13 Q1007 NOSIG=
200912171530 METAR LMML NIL=
200912171515 METAR LMML 171515Z 24010KT 210V290 CAVOK 16/13 Q1007 NOSIG=
200912171500 METAR LMML NIL=
200912171445 METAR LMML 171445Z 26011KT 230V290 CAVOK 17/12 Q1007 NOSIG=
200912171430 METAR LMML NIL=
200912171415 METAR LMML 171415Z 25012KT 210V280 CAVOK 17/13 Q1007 NOSIG=
200912171400 METAR LMML NIL=
200912171345 METAR LMML 171345Z 26015KT 220V290 CAVOK 18/12 Q1007 NOSIG=
200912171330 METAR LMML NIL=
200912171315 METAR LMML 171315Z 25014KT 210V300 CAVOK 18/12 Q1007 NOSIG=
200912171300 METAR LMML NIL=
200912171245 METAR LMML 171245Z 25015KT 210V280 CAVOK 18/13 Q1007 NOSIG=
200912171215 METAR LMML 171215Z 24015G25KT 200V280 9999 FEW030 BKN250
                        18/13 Q1007 NOSIG=
200912171145 METAR LMML 171145Z 24016KT 200V290 9999 FEW030 BKN250 18/12
                        Q1007 NOSIG=
200912171130 METAR LMML NIL=
200912171115 METAR LMML 171115Z 24015KT 190V280 9999 FEW030 BKN250 18/13
                        Q1008 NOSIG=
200912171100 METAR LMML NIL=
200912171045 METAR LMML 171045Z 24016KT 210V280 9999 FEW030 BKN250 17/12
                        Q1008 NOSIG=
200912171030 METAR LMML NIL=
200912171015 METAR LMML 171015Z 24015KT 200V290 CAVOK 17/12 Q1008 NOSIG=
200912171000 METAR LMML NIL=
200912170945 METAR LMML 170945Z 24012KT 200V300 CAVOK 17/12 Q1009 NOSIG=
200912170930 METAR LMML NIL=
200912170915 METAR LMML 170915Z 24013KT 190V290 CAVOK 17/12 Q1009 NOSIG=
200912170900 METAR LMML NIL=
200912170845 METAR LMML 170845Z 24014KT 200V290 CAVOK 17/11 Q1009 NOSIG=
200912170830 METAR LMML NIL=
200912170815 METAR LMML 170815Z 24015KT 210V300 CAVOK 16/10 Q1009 NOSIG=
200912170800 METAR LMML NIL=
200912170745 METAR LMML 170745Z 24013KT 200V280 CAVOK 15/09 Q1009 NOSIG=
200912170730 METAR LMML NIL=
200912170715 METAR LMML 170715Z 24012KT 210V290 CAVOK 15/09 Q1009 NOSIG=
200912170700 METAR LMML NIL=
200912170645 METAR LMML 170645Z 24015KT 210V280 9999 FEW025 14/09 Q1009
                        NOSIG=
200912170630 METAR LMML NIL=
200912170615 METAR LMML 170615Z 24016KT 210V280 9999 FEW025 14/08 Q1009
                        NOSIG=
200912170600 METAR LMML NIL=
200912170545 METAR LMML 170545Z 23012KT 200V280 9999 FEW028 14/08 Q1009
                        NOSIG=
200912170515 METAR LMML 170515Z 24011KT 200V280 9999 FEW026 BKN070 14/09
                        Q1009 NOSIG=
200912170500 METAR LMML NIL=
200912170445 METAR LMML 170445Z 24012KT 200V290 9999 FEW028 SCT080 14/08
                        Q1009 NOSIG=
200912170430 METAR LMML NIL=
200912170415 METAR LMML 170415Z 24013KT 190V280 9999 FEW040 14/07 Q1009
                        NOSIG=
200912170400 METAR LMML NIL=
200912170345 METAR LMML 170345Z 24011KT 190V280 9999 FEW033 14/06 Q1010
                        NOSIG=
200912170330 METAR LMML NIL=
200912170315 METAR LMML 170315Z 24013KT 210V290 9999 FEW033 BKN080 14/07
                        Q1010 NOSIG=
200912170300 METAR LMML NIL=
200912170245 METAR LMML 170245Z 25009KT 210V280 9999 FEW034 SCT080 14/08
                        Q1010 NOSIG=
200912170230 METAR LMML NIL=
200912170215 METAR LMML 170215Z 26013KT 220V280 9999 FEW036 SCT049 14/06
                        Q1011 NOSIG=
200912170200 METAR LMML NIL=
200912170145 METAR LMML 170145Z 26008KT 230V300 9999 FEW034 SCT050 13/07
                        Q1011 NOSIG=
200912170130 METAR LMML NIL=
200912170115 METAR LMML 170115Z 26010KT 220V300 9999 FEW037 SCT050 13/07
                        Q1011 NOSIG=
200912170100 METAR LMML NIL=
200912170045 METAR LMML 170045Z 27010KT 240V300 9999 FEW037 SCT050 13/06
                        Q1011 NOSIG=
200912170030 METAR LMML NIL=
200912170015 METAR LMML 170015Z 26011KT 220V300 9999 FEW025 SCT060 13/06
                        Q1011 NOSIG=
200912170000 METAR LMML NIL=
200912162345 METAR LMML 162345Z 27012KT 230V300 9999 FEW027 SCT060 13/07
                        Q1012 NOSIG=
200912162330 METAR LMML NIL=
200912162315 METAR LMML 162315Z 27009KT 230V300 9999 FEW036 SCT060 13/08
                        Q1012 NOSIG=
200912162300 METAR LMML NIL=
200912162245 METAR LMML 162245Z 27010KT 240V310 9999 FEW024 SCT060 13/08
                        Q1012 NOSIG=
200912162230 METAR LMML NIL=
200912162215 METAR LMML 162215Z 28008KT 9999 FEW023 BKN060 12/09 Q1012
                        NOSIG=
200912162200 METAR LMML NIL=
200912162145 METAR LMML 162145Z 29011KT 9999 FEW032 BKN060 13/08 Q1012
                        NOSIG=
200912162115 METAR LMML 162115Z 29009KT 270V330 9999 FEW033 BKN060 13/07
                        Q1012 NOSIG=
200912162100 METAR LMML NIL=
200912162045 METAR LMML 162045Z 30009KT 9999 FEW038 BKN060 13/06 Q1012
                        NOSIG=
200912162030 METAR LMML NIL=
200912162015 METAR LMML 162015Z 29010KT 270V330 9999 FEW038 BKN050 12/06
                        Q1012 NOSIG=
200912162000 METAR LMML NIL=
200912161945 METAR LMML 161945Z 30010KT 9999 FEW038 12/05 Q1012 NOSIG=
200912161930 METAR LMML NIL=
200912161915 METAR LMML 161915Z 30011KT 9999 FEW037 12/06 Q1012 NOSIG=
200912161845 METAR LMML 161845Z 31012KT 9999 FEW040 12/05 Q1011 NOSIG=
200912161830 METAR LMML NIL=
200912161815 METAR LMML 161815Z 31014KT 9999 FEW040 12/05 Q1011 NOSIG=
200912161800 METAR LMML NIL=
200912161745 METAR LMML 161745Z 31016KT 9999 FEW040 12/05 Q1011 NOSIG=
200912161715 METAR LMML 161715Z 31016KT 9999 FEW032 12/06 Q1011 NOSIG=
200912161700 METAR LMML NIL=
200912161645 METAR LMML 161645Z 30015KT 270V330 9999 FEW032 13/05 Q1010
                        NOSIG=
200912161630 METAR LMML NIL=
200912161615 METAR LMML 161615Z 30018KT 9999 SCT032 13/06 Q1009 NOSIG=
200912161600 METAR LMML NIL=
200912161545 METAR LMML 161545Z 30018KT 270V330 9999 FEW035 13/06 Q1009
                        NOSIG=
200912161530 METAR LMML NIL=
200912161515 METAR LMML 161515Z 30018KT 9999 FEW034 14/07 Q1009 NOSIG=
200912161500 METAR LMML NIL=
200912161445 METAR LMML 161445Z 30019G29KT 9999 SCT035 14/06 Q1008 NOSIG=
200912161430 METAR LMML NIL=
200912161415 METAR LMML 161415Z 31020KT 9999 SCT028 15/07 Q1008 NOSIG=
200912161400 METAR LMML NIL=
200912161345 METAR LMML 161345Z 30022G34KT 9999 SCT028 14/06 Q1007 NOSIG=
200912161315 METAR LMML 161315Z 30019KT 9999 SCT028 14/08 Q1007 NOSIG=
200912161245 METAR LMML 161245Z 30018KT 270V330 9999 SCT029 15/09 Q1006
                        NOSIG=
200912161230 METAR LMML NIL=
200912161215 METAR LMML 161215Z 30021KT 270V330 9999 SCT026 14/08 Q1007
                        NOSIG=
200912161145 METAR LMML 161145Z 30020KT 9999 SCT026 SCT110 14/08 Q1006
                        NOSIG=
200912161115 METAR LMML 161115Z 30018KT 9999 SCT028 BKN100 14/09 Q1006
                        NOSIG=
200912161100 METAR LMML NIL=
200912161045 METAR LMML 161045Z 30018KT 260V320 9999 FEW022 BKN100 14/09
                        Q1006 NOSIG=
200912161030 METAR LMML NIL=
200912161015 METAR LMML 161015Z 28017KT 9999 FEW036TCU BKN120 14/10 Q1006
                        TEMPO 8000 SHRA=
200912161000 METAR LMML NIL=
200912160945 METAR LMML 160945Z 29016KT 260V320 9999 SCT035 BKN060 14/09
                        Q1006 TEMPO 8000 SHRA=
200912160930 METAR LMML NIL=
200912160915 METAR LMML 160915Z 29016KT 260V320 9999 FEW035 SCT048 BKN130
                        14/07 Q1006 TEMPO 8000 SHRA BKN015=
200912160900 METAR LMML NIL=
200912160845 METAR LMML 160845Z 31016KT 9999 FEW027 SCT050 15/07 Q1006
                        TEMPO 8000 SHRA BKN015=
200912160830 METAR LMML NIL=
200912160815 METAR LMML 160815Z 32014KT 9999 FEW027 SCT100 14/09 Q1005
                        TEMPO 8000 SHRA BKN015=
200912160800 METAR LMML NIL=
200912160745 METAR LMML 160745Z 31012KT 9999 FEW027 SCT050 14/09 Q1004
                        NOSIG=
200912160730 METAR LMML NIL=
200912160715 METAR LMML 160715Z 30014KT 9999 FEW027 BKN050 14/09 Q1004
                        NOSIG=
200912160700 METAR LMML NIL=
200912160645 METAR LMML 160645Z 29012G22KT 9999 SCT027 13/08 Q1004 NOSIG=
200912160630 METAR LMML NIL=
200912160615 METAR LMML 160615Z 30010KT 9999 SCT029 13/08 Q1003 NOSIG=
200912160600 METAR LMML NIL=
200912160545 METAR LMML 160545Z 30014KT 9999 FEW025 13/08 Q1003 NOSIG=
200912160515 METAR LMML 160515Z 31015KT 9999 FEW025 13/09 Q1002 NOSIG=
200912160500 METAR LMML NIL=
200912160445 METAR LMML 160445Z 29014KT 9999 FEW022 SCT060 13/10 Q1002
                        NOSIG=
200912160430 METAR LMML NIL=
200912160415 METAR LMML 160415Z 30016KT 260V330 9999 FEW022 SCT060 13/09
                        Q1002 NOSIG=
200912160400 METAR LMML NIL=
200912160345 METAR LMML 160345Z 30014KT 9999 FEW026 13/09 Q1001 NOSIG=
200912160330 METAR LMML NIL=
200912160315 METAR LMML 160315Z 30016KT 9999 FEW024 SCT060 13/09 Q1001
                        NOSIG=
200912160300 METAR LMML NIL=
200912160245 METAR LMML 160245Z 29015KT 9999 FEW024 BKN060 13/09 Q1001
                        NOSIG=
200912160230 METAR LMML NIL=
200912160215 METAR LMML 160215Z 30015KT 9999 FEW030 BKN060 13/10 Q1001
                        NOSIG=
200912160200 METAR LMML NIL=
200912160145 METAR LMML 160145Z 30014KT 270V330 9999 SCT019 SCT060 13/10
                        Q1000 RESH NOSIG=
200912160130 METAR LMML NIL=
200912160115 METAR LMML 160115Z 30019G29KT 9999 SHRA SCT018 BKN070 13/11
                        Q1000 NOSIG=
200912160100 METAR LMML NIL=
200912160045 METAR LMML 160045Z 30015KT 260V330 9999 SCT021 BKN060 13/10
                        Q0999 NOSIG=
200912160030 METAR LMML NIL=
200912160015 METAR LMML 160015Z 28016KT 9999 -SHRA SCT021 SCT080 13/10
                        Q0999 NOSIG=
200912160000 METAR LMML NIL=
200912152345 METAR LMML 152345Z 28016KT 9999 FEW022 SCT080 13/10 Q0999
                        NOSIG=
200912152330 METAR LMML NIL=
200912152315 METAR LMML 152315Z 28012KT 240V310 CAVOK 12/09 Q0998 NOSIG=
200912152300 METAR LMML NIL=
200912152245 METAR LMML 152245Z 27013KT 240V300 9999 SCT019 SCT090 13/09
                        Q0998 NOSIG=
200912152230 METAR LMML NIL=
200912152215 METAR LMML 152215Z 27015KT 240V300 9999 SCT020 SCT100 12/09
                        Q0998 NOSIG=
200912152200 METAR LMML NIL=
200912152145 METAR LMML 152145Z 27016G26KT 240V300 9999 -SHRA BKN020 12/09
                        Q0998 NOSIG=
200912152130 METAR LMML NIL=
200912152115 METAR LMML 152115Z 23010KT 200V280 9999 SCT025 SCT100 11/08
                        Q0998 TEMPO 8000 SHRA=
200912152100 METAR LMML NIL=
200912152045 METAR LMML 152045Z 28017KT 250V310 9999 -SHRA SCT034 BKN100
                        12/08 Q0998 TEMPO 8000 SHRA=
200912152030 METAR LMML NIL=
200912152015 METAR LMML 152015Z 26013KT 230V300 9999 -SHRA SCT033 BKN120
                        13/06 Q0998 TEMPO 8000 SHRA=
200912152000 METAR LMML NIL=
200912151945 METAR LMML 151945Z 27012KT 230V300 9999 FEW043 13/05 Q0998
                        TEMPO 8000 SHRA=
200912151930 METAR LMML NIL=
200912151915 METAR LMML 151915Z 27013KT 240V300 9999 BKN032 13/06 Q0997
                        TEMPO 8000 SHRA=
200912151900 METAR LMML NIL=
200912151845 METAR LMML 151845Z 25010KT 200V290 9999 BKN032 12/07 Q0997
                        NOSIG=
200912151830 METAR LMML NIL=
200912151815 METAR LMML 151815Z 23012KT 200V280 9999 -SHRA BKN032 12/08
                        Q0997 NOSIG=
200912151800 METAR LMML NIL=
200912151745 METAR LMML 151745Z 26018G28KT 210V300 9999 SCT034 BKN060
                        12/07 Q0997 TEMPO 8000 SHRA=
200912151730 METAR LMML NIL=
200912151715 METAR LMML 151715Z 24011KT 210V300 9999 SCT035 13/06 Q0997
                        NOSIG=
200912151700 METAR LMML NIL=
200912151645 METAR LMML 151645Z 24013KT 200V280 9999 SCT035 13/06 Q0997
                        NOSIG=
200912151630 METAR LMML NIL=
200912151615 METAR LMML 151615Z 25013KT 210V280 9999 SCT037 13/06 Q0997
                        NOSIG=
200912151600 METAR LMML NIL=
200912151545 METAR LMML 151545Z 24016KT 210V280 9999 BKN037 13/06 Q0997
                        NOSIG=
200912151530 METAR LMML NIL=
200912151515 METAR LMML 151515Z 24015KT 210V280 9999 SCT037 13/06 Q0997
                        NOSIG=
200912151500 METAR LMML NIL=
200912151445 METAR LMML 151445Z 24015KT 200V280 9999 SCT037 13/07 Q0997
                        NOSIG=
200912151430 METAR LMML NIL=
200912151415 METAR LMML 151415Z 24015KT 200V280 9999 SCT038 14/06 Q0996
                        NOSIG=
200912151400 METAR LMML NIL=
200912151345 METAR LMML 151345Z 24015KT 210V280 9999 FEW030 15/07 Q0996
                        RETS NOSIG=
200912151330 METAR LMML NIL=
200912151315 METAR LMML 151315Z 21010KT 150V250 9999 SCT021CB 14/09 Q0996
                        RETS TEMPO 3000 TSRA BKN015CB=
200912151245 METAR LMML 151245Z 23011KT 190V280 8000 FEW020CB SCT025TCU
                        13/09 Q0996 TEMPO 3000 TSRA BKN015CB=
200912151231 SPECI LMML 151231Z 24011KT 200V290 8000 FEW020CB SCT021 BKN060
                        13/09 Q0996 TEMPO 3000 TSRA BKN015CB=
200912151215 METAR LMML 151215Z 24020G32KT 200V290 5000 -SHRA FEW020CB
                        SCT027 BKN060 14/10 Q0997 TEMPO 3000
                        TSRA BKN015CB=
200912151200 METAR LMML NIL=
200912151145 METAR LMML 151145Z 22015G28KT 180V260 9999 SCT030 BKN080
                        16/07 Q0996 TEMPO 3000 TSRA BKN015CB=
200912151130 METAR LMML NIL=
200912151115 METAR LMML 151115Z 21011KT 170V260 9999 SCT030 BKN080 16/09
                        Q0997 NOSIG=
200912151100 METAR LMML NIL=
200912151045 METAR LMML 151045Z 21010KT 180V280 9999 SCT030 BKN080 17/10
                        Q0997 NOSIG=
200912151030 METAR LMML NIL=
200912151015 METAR LMML 151015Z 22016KT 180V260 9999 SCT032 BKN100 17/10
                        Q0998 NOSIG=
200912151000 METAR LMML NIL=
200912150945 METAR LMML 150945Z 22012KT 190V280 9999 SCT033 BKN100 17/11
                        Q0998 NOSIG=
200912150930 METAR LMML NIL=
200912150915 METAR LMML 150915Z 22012KT 180V260 9999 FEW025 SCT110 18/11
                        Q0998 NOSIG=
200912150900 METAR LMML NIL=
200912150845 METAR LMML 150845Z 22011KT 180V250 9999 FEW025 FEW110 18/11
                        Q0998 NOSIG=
200912150830 METAR LMML NIL=
200912150815 METAR LMML 150815Z 21009KT 170V260 CAVOK 17/11 Q0998 NOSIG=
200912150800 METAR LMML NIL=
200912150745 METAR LMML 150745Z 21010KT 170V250 CAVOK 17/11 Q0999 NOSIG=
200912150730 METAR LMML NIL=
200912150715 METAR LMML 150715Z 21011KT 190V260 CAVOK 16/11 Q0998 NOSIG=
200912150700 METAR LMML NIL=
200912150645 METAR LMML 150645Z 22010KT 190V270 CAVOK 16/10 Q0998 NOSIG=
200912150630 METAR LMML NIL=
200912150615 METAR LMML 150615Z 22009KT 190V280 CAVOK 16/10 Q0998 NOSIG=
200912150600 METAR LMML NIL=
200912150545 METAR LMML 150545Z 22009KT 190V270 CAVOK 16/10 Q0998 NOSIG=
200912150530 METAR LMML NIL=
200912150515 METAR LMML 150515Z 22010KT 190V280 CAVOK 16/10 Q0998 NOSIG=
200912150445 METAR LMML 150445Z 22011KT 190V260 9999 FEW030 15/10 Q0998
                        NOSIG=
200912150430 METAR LMML NIL=
200912150415 METAR LMML 150415Z 23010KT 200V260 9999 FEW030 15/10 Q0998
                        NOSIG=
200912150345 METAR LMML 150345Z 23010KT 200V280 9999 FEW030 15/10 Q0998
                        NOSIG=
200912150330 METAR LMML NIL=
200912150315 METAR LMML 150315Z 23011KT 190V280 9999 FEW030 15/10 Q0999
                        NOSIG=
200912150300 METAR LMML NIL=
200912150245 METAR LMML 150245Z 24015KT 200V280 9999 FEW023 15/10 Q0999
                        NOSIG=
200912150230 METAR LMML NIL=
200912150215 METAR LMML 150215Z 24012KT 200V270 9999 FEW033 15/09 Q0999
                        NOSIG=
200912150200 METAR LMML NIL=
200912150145 METAR LMML 150145Z 24012KT 200V280 9999 FEW030 15/09 Q0999
                        NOSIG=
200912150130 METAR LMML NIL=
200912150115 METAR LMML 150115Z 23013KT 200V270 9999 FEW030 15/10 Q0999
                        NOSIG=
200912150100 METAR LMML NIL=
200912150045 METAR LMML 150045Z 23013KT 200V290 9999 FEW030 15/10 Q0999
                        NOSIG=
200912150030 METAR LMML NIL=
200912150015 METAR LMML 150015Z 24013G23KT 200V280 9999 SCT030 15/09 Q0999
                        NOSIG=
200912150000 METAR LMML NIL=
200912142345 METAR LMML 142345Z 23015KT 200V270 9999 SCT029 15/09 Q1000
                        NOSIG=
200912142330 METAR LMML NIL=
200912142315 METAR LMML 142315Z 23012KT 200V280 9999 SCT031 15/10 Q1000
                        NOSIG=
200912142300 METAR LMML NIL=
200912142245 METAR LMML 142245Z 24016KT 180V270 9999 SCT032 SCT120 15/09
                        Q1000 NOSIG=
200912142215 METAR LMML 142215Z 23014KT 200V290 9999 BKN031 15/09 Q1000
                        NOSIG=
200912142200 METAR LMML NIL=
200912142145 METAR LMML 142145Z 22014KT 190V270 9999 BKN033 15/09 Q1000
                        RETS NOSIG=
200912142115 METAR LMML 142115Z 22015KT 190V260 9999 BKN030 15/10 Q1000
                        RETS NOSIG=
200912142100 METAR LMML NIL=
200912142045 METAR LMML 142045Z 22007KT 180V260 9999 TS BKN020CB BKN080
                        14/10 Q1000 NOSIG RMK LIGHTNING TO
                        NE/ SE S=
200912142030 METAR LMML NIL=
200912142015 METAR LMML 142015Z 23011KT 190V270 9999 FEW020 SCT050 BKN120
                        15/09 Q1000 TEMPO 8000 RA=
200912142000 METAR LMML NIL=
200912141945 METAR LMML 141945Z 23015KT 200V280 9999 FEW020 SCT036 BKN070
                        15/09 Q1000 TEMPO 8000 RA=
200912141930 METAR LMML NIL=
200912141915 METAR LMML 141915Z 23014KT 200V270 9999 -RA FEW028 SCT039
                        BKN120 14/11 Q1000 TEMPO 5000 TSRA
                        BKN020CB RMK LIGHTNING TO SOUTH=
200912141900 METAR LMML NIL=
200912141845 METAR LMML 141845Z 24014KT 200V280 9999 SCT030 BKN070 15/10
                        Q1000 TEMPO 8000 TSRA BKN025CB=
200912141830 METAR LMML NIL=
200912141815 METAR LMML 141815Z 24013KT 210V280 9999 FEW035 BKN080 16/11
                        Q0999 NOSIG=
200912141800 METAR LMML NIL=
200912141745 METAR LMML 141745Z 24010KT 210V280 9999 SCT019 BKN120 16/11
                        Q0999 NOSIG=
200912141730 METAR LMML NIL=
200912141715 METAR LMML 141715Z 24011KT 210V280 9999 SCT020 SCT120 16/12
                        Q0998 NOSIG=
200912141700 METAR LMML NIL=
200912141645 METAR LMML 141645Z 23012KT 200V280 9999 SCT020 SCT250 17/13
                        Q0998 NOSIG=
200912141630 METAR LMML NIL=
200912141615 METAR LMML 141615Z 21010KT 180V260 9999 SCT019 SCT120 17/14
                        Q0998 NOSIG=
200912141545 METAR LMML 141545Z 21007KT 170V260 9999 FEW012 SCT110 17/15
                        Q0998 NOSIG=
200912141530 METAR LMML NIL=
200912141515 METAR LMML 141515Z 20007KT 170V240 8000 -RA FEW018 BKN120
                        BKN250 17/14 Q0998 NOSIG=
200912141500 METAR LMML NIL=
200912141445 METAR LMML 141445Z 20009KT 160V250 8000 FEW012 SCT120 BKN250
                        17/13 Q0998 NOSIG=
200912141430 METAR LMML NIL=
200912141415 METAR LMML 141415Z 20011KT 160V240 9000 NSC 18/12 Q0998 NOSIG=
200912141400 METAR LMML NIL=
200912141345 METAR LMML 141345Z 17009KT 120V200 9000 FEW012 SCT140 BKN250
                        18/13 Q0998=
200912141330 METAR LMML NIL=
200912141300 METAR LMML NIL=
200912141245 METAR LMML 141245Z 16009KT 130V200 9000 -RA FEW016 SCT120
                        OVC150 18/14 Q0998 NOSIG=
200912141230 METAR LMML NIL=
200912141215 METAR LMML 141215Z 15015KT 120V180 9000 FEW016 SCT120 OVC150
                        18/13 Q0998 NOSIG=
200912141200 METAR LMML NIL=
200912141145 METAR LMML 141145Z 14014KT 9000 FEW016 SCT100 OVC150 18/14
                        Q0998 NOSIG=
200912141130 METAR LMML NIL=
200912141115 METAR LMML 141115Z 14017KT 9000 FEW016 SCT100 OVC150 17/15
                        Q0999 NOSIG=
200912141100 METAR LMML NIL=
200912141045 METAR LMML 141045Z 14016KT 9999 FEW016 SCT100 OVC150 17/15
                        Q1000 NOSIG=
200912141030 METAR LMML NIL=
200912141015 METAR LMML 141015Z 13008KT 100V170 9999 FEW016 SCT100 OVC150
                        17/15 Q1001 NOSIG=
200912141000 METAR LMML NIL=
200912140945 METAR LMML 140945Z 12016KT 9999 FEW015 OVC150 17/14 Q1002
                        NOSIG=
200912140930 METAR LMML NIL=
200912140915 METAR LMML 140915Z 13017KT 9999 FEW013 BKN150 17/14 Q1002
                        NOSIG=
200912140900 METAR LMML NIL=
200912140845 METAR LMML 140845Z 11014KT 080V150 9999 FEW013 BKN120 BKN250
                        17/14 Q1003 TEMPO BKN013=
200912140830 METAR LMML NIL=
200912140815 METAR LMML 140815Z 12016KT 9999 SCT013 BKN120 BKN250 17/14
                        Q1003 TEMPO BKN013=
200912140800 METAR LMML NIL=
200912140745 METAR LMML 140745Z 13019KT 9999 BKN013 SCT120 BKN250 16/14
                        Q1003 NOSIG=
200912140730 METAR LMML NIL=
200912140715 METAR LMML 140715Z 13018KT 9999 FEW013 BKN120 BKN250 16/14
                        Q1003 NOSIG=
200912140700 METAR LMML NIL=
200912140645 METAR LMML 140645Z 13020KT 9999 FEW014 SCT120 BKN250 16/14
                        Q1003 NOSIG=
200912140630 METAR LMML NIL=
200912140615 METAR LMML 140615Z 13019KT 9999 FEW018 SCT120 BKN250 16/13
                        Q1004 NOSIG=
200912140600 METAR LMML NIL=
200912140545 METAR LMML 140545Z 13016KT CAVOK 16/13 Q1004 NOSIG=
200912140515 METAR LMML 140515Z 14016KT 9999 FEW031 BKN250 16/13 Q1004
                        NOSIG=
200912140500 METAR LMML NIL=
200912140445 METAR LMML 140445Z 14015KT 110V170 9999 FEW031 SCT250 15/12
                        Q1004 NOSIG=
200912140430 METAR LMML NIL=
200912140415 METAR LMML 140415Z 14014KT 9999 FEW031 BKN250 15/12 Q1005
                        NOSIG=
200912140400 METAR LMML NIL=
200912140345 METAR LMML 140345Z 14014KT 120V180 9999 FEW031 BKN250 16/12
                        Q1006 NOSIG=
200912140330 METAR LMML NIL=
200912140315 METAR LMML 140315Z 14014KT 9999 FEW031 SCT120 16/12 Q1006
                        NOSIG=
200912140300 METAR LMML NIL=
200912140245 METAR LMML 140245Z 14012KT 9999 FEW031 BKN250 15/12 Q1006
                        NOSIG=
200912140230 METAR LMML NIL=
200912140215 METAR LMML 140215Z 14011KT 9999 FEW031 16/12 Q1007 NOSIG=
200912140200 METAR LMML NIL=
200912140145 METAR LMML 140145Z 14011KT 110V170 9999 FEW031 BKN250 16/11
                        Q1007 NOSIG=
200912140130 METAR LMML NIL=
200912140115 METAR LMML 140115Z 14011KT 9999 FEW031 BKN250 16/12 Q1008
                        NOSIG=
200912140100 METAR LMML NIL=
200912140045 METAR LMML 140045Z 14011KT 9999 FEW031 BKN250 16/12 Q1008
                        NOSIG=
200912140030 METAR LMML NIL=
200912140015 METAR LMML 140015Z 14011KT 9999 FEW031 SCT120 BKN250 16/12
                        Q1009 NOSIG=
200912140000 METAR LMML NIL=
200912132345 METAR LMML 132345Z 14010KT 9999 FEW031 SCT120 BKN250 16/12
                        Q1009 NOSIG=
200912132330 METAR LMML NIL=
200912132315 METAR LMML 132315Z 14011KT 9999 FEW032 SCT120 BKN250 15/12
                        Q1009 NOSIG=
200912132300 METAR LMML NIL=
200912132245 METAR LMML 132245Z 14012KT 9999 FEW034 SCT120 BKN250 15/12
                        Q1009 NOSIG=
200912132230 METAR LMML NIL=
200912132215 METAR LMML 132215Z 14012KT 110V170 9999 FEW020 SCT120 BKN250
                        16/12 Q1010 NOSIG=
200912132200 METAR LMML NIL=
200912132145 METAR LMML 132145Z 14013KT 9999 FEW020 BKN250 15/12 Q1010
                        NOSIG=
200912132130 METAR LMML NIL=
200912132115 METAR LMML 132115Z 14012KT 110V170 9999 SCT025 BKN250 15/12
                        Q1010 NOSIG=
200912132100 METAR LMML NIL=
200912132045 METAR LMML 132045Z 14012KT 9999 FEW023 SCT250 15/11 Q1010
                        NOSIG=
200912132030 METAR LMML NIL=
200912132015 METAR LMML 132015Z 13012KT 9999 FEW025 SCT039 BKN250 15/12
                        Q1010 TEMPO SHRA=
200912132000 METAR LMML NIL=
200912131945 METAR LMML 131945Z 13012KT 100V160 9999 FEW029 BKN041 BKN250
                        15/11 Q1010 TEMPO SHRA=
200912131930 METAR LMML NIL=
200912131915 METAR LMML 131915Z 13014KT 9999 FEW034 BKN046 BKN250 15/10
                        Q1010 NOSIG=
200912131900 METAR LMML NIL=
200912131845 METAR LMML 131845Z 13012KT 9999 FEW035 BKN046 BKN250 15/11
                        Q1010 NOSIG=
200912131830 METAR LMML NIL=
200912131815 METAR LMML 131815Z 12011KT CAVOK 14/11 Q1010 NOSIG=
200912131800 METAR LMML NIL=
200912131745 METAR LMML 131745Z 12010KT 9999 FEW025 SCT060 BKN250 14/11
                        Q1010 NOSIG=
200912131730 METAR LMML NIL=
200912131715 METAR LMML 131715Z 13010KT 110V170 9999 FEW025 SCT060 BKN250
                        14/11 Q1010 NOSIG=
200912131700 METAR LMML NIL=
200912131645 METAR LMML 131645Z 13008KT 9999 FEW030 BKN250 14/11 Q1010
                        NOSIG=
200912131630 METAR LMML NIL=
200912131615 METAR LMML 131615Z 13009KT 9999 FEW032 14/11 Q1011 NOSIG=
200912131600 METAR LMML NIL=
200912131545 METAR LMML 131545Z 13008KT 9999 FEW032 BKN250 14/11 Q1011
                        NOSIG=
200912131530 METAR LMML NIL=
200912131515 METAR LMML 131515Z 14009KT 9999 FEW030 BKN250 15/11 Q1011
                        NOSIG=
200912131445 METAR LMML 131445Z 14008KT 9999 FEW034 BKN250 15/10 Q1011
                        NOSIG=
200912131430 METAR LMML NIL=
200912131415 METAR LMML 131415Z 14007KT 120V180 9999 FEW034 BKN250 15/10
                        Q1011 NOSIG=
200912131400 METAR LMML NIL=
200912131345 METAR LMML 131345Z 15008KT 130V190 9999 FEW027 BKN250 16/10
                        Q1011 NOSIG=
200912131330 METAR LMML NIL=
200912131315 METAR LMML 131315Z 16007KT 130V200 9999 FEW027 BKN250 16/10
                        Q1011 NOSIG=
200912131300 METAR LMML NIL=
200912131245 METAR LMML 131245Z 17007KT 130V200 9999 FEW027 BKN250 16/09
                        Q1011 NOSIG=
200912131230 METAR LMML NIL=
200912131215 METAR LMML 131215Z 17006KT 140V210 9999 FEW027 BKN250 17/09
                        Q1011 NOSIG=
200912131200 METAR LMML NIL=
200912131145 METAR LMML 131145Z 15008KT 9999 FEW027 BKN250 16/10 Q1012
                        NOSIG=
200912131130 METAR LMML NIL=
200912131115 METAR LMML 131115Z 16007KT 110V200 9999 FEW025 BKN250 16/10
                        Q1012 NOSIG=
200912131100 METAR LMML NIL=
200912131045 METAR LMML 131045Z 16007KT 110V190 9999 FEW025 BKN250 17/10
                        Q1012 NOSIG=
200912131030 METAR LMML NIL=
200912131015 METAR LMML 131015Z 16007KT 130V190 9999 FEW025 SCT250 16/09
                        Q1012 NOSIG=
200912131000 METAR LMML NIL=
200912130945 METAR LMML 130945Z 15006KT 120V200 9999 FEW025 SCT250 16/09
                        Q1013 NOSIG=
200912130930 METAR LMML NIL=
200912130915 METAR LMML 130915Z 13005KT 100V180 9999 FEW025 SCT250 16/08
                        Q1013 NOSIG=
200912130900 METAR LMML NIL=
200912130845 METAR LMML 130845Z 11004KT 9999 FEW025 15/09 Q1013 NOSIG=
200912130830 METAR LMML NIL=
200912130815 METAR LMML 130815Z VRB01KT 9999 FEW025 15/08 Q1013 NOSIG=
200912130800 METAR LMML NIL=
200912130745 METAR LMML 130745Z VRB01KT 9999 FEW025 14/08 Q1013 NOSIG=
200912130715 METAR LMML 130715Z VRB01KT 9999 FEW025 11/07 Q1013 NOSIG=
200912130700 METAR LMML NIL=
200912130645 METAR LMML 130645Z 00000KT 9999 FEW025 09/06 Q1012 NOSIG=
200912130630 METAR LMML NIL=
200912130615 METAR LMML 130615Z VRB02KT 9999 FEW037 08/06 Q1012 NOSIG=
200912130600 METAR LMML NIL=
200912130545 METAR LMML 130545Z VRB01KT 9999 FEW037 07/05 Q1012 NOSIG=
200912130530 METAR LMML NIL=
200912130515 METAR LMML 130515Z VRB03KT CAVOK 08/05 Q1012 NOSIG=
200912130500 METAR LMML NIL=
200912130445 METAR LMML 130445Z VRB03KT 9999 FEW030 08/05 Q1012 NOSIG=
200912130430 METAR LMML NIL=
200912130415 METAR LMML 130415Z VRB02KT 9999 FEW030 09/06 Q1011 NOSIG=
200912130400 METAR LMML NIL=
200912130345 METAR LMML 130345Z VRB03KT 9999 FEW030 09/06 Q1011 NOSIG=
200912130315 METAR LMML 130315Z 28004KT 260V330 9999 FEW030 10/05 Q1011
                        NOSIG=
200912130300 METAR LMML NIL=
200912130245 METAR LMML 130245Z 28004KT 9999 FEW030 09/05 Q1011 NOSIG=
200912130230 METAR LMML NIL=
200912130215 METAR LMML 130215Z 28004KT 9999 FEW030 10/05 Q1011 NOSIG=
200912130200 METAR LMML NIL=
200912130145 METAR LMML 130145Z 26005KT 9999 FEW030 10/05 Q1011 NOSIG=
200912130130 METAR LMML NIL=
200912130115 METAR LMML 130115Z 25004KT 210V290 9999 FEW030 10/05 Q1011
                        NOSIG=
200912130100 METAR LMML NIL=
200912130045 METAR LMML 130045Z 27004KT 240V300 9999 FEW030 10/05 Q1011
                        NOSIG=
200912130030 METAR LMML NIL=
200912130015 METAR LMML 130015Z 27005KT 9999 FEW030 11/05 Q1011 NOSIG=
200912122345 METAR LMML 122345Z 27004KT 220V290 9999 FEW030 10/06 Q1011
                        NOSIG=
200912122315 METAR LMML 122315Z 26005KT 9999 FEW030 10/06 Q1011 NOSIG=
200912122300 METAR LMML NIL=
200912122245 METAR LMML 122245Z 27005KT 9999 FEW030 10/06 Q1011 NOSIG=
200912122230 METAR LMML NIL=
200912122215 METAR LMML 122215Z 28006KT 9999 FEW030 11/06 Q1011 NOSIG=
200912122200 METAR LMML NIL=
200912122145 METAR LMML 122145Z 26005KT 9999 FEW040 10/06 Q1011 NOSIG=
200912122130 METAR LMML NIL=
200912122115 METAR LMML 122115Z 25004KT 9999 FEW040 11/07 Q1011 NOSIG=
200912122045 METAR LMML 122045Z 28006KT 250V310 9999 FEW040 11/06 Q1011
                        NOSIG=
200912122030 METAR LMML NIL=
200912122015 METAR LMML 122015Z 29006KT 9999 FEW040 12/06 Q1010 NOSIG=
200912122000 METAR LMML NIL=
200912121945 METAR LMML 121945Z 29007KT 9999 FEW040 11/06 Q1010 NOSIG=
200912121930 METAR LMML NIL=
200912121900 METAR LMML NIL=
200912121845 METAR LMML 121845Z 29007KT 9999 FEW040 12/06 Q1010 NOSIG=
200912121830 METAR LMML NIL=
200912121815 METAR LMML 121815Z 29007KT 9999 FEW040 12/06 Q1010 NOSIG=
200912121800 METAR LMML NIL=
200912121730 METAR LMML NIL=
200912121715 METAR LMML 121715Z 30008KT 9999 FEW033 12/06 Q1009 NOSIG=
200912121700 METAR LMML NIL=
200912121645 METAR LMML 121645Z 30009KT 9999 FEW033 13/07 Q1009 NOSIG=
200912121630 METAR LMML NIL=
200912121615 METAR LMML 121615Z 30010KT 9999 SCT035 13/07 Q1009 NOSIG=
200912121600 METAR LMML NIL=
200912121545 METAR LMML 121545Z 30010KT 9999 SCT037 13/07 Q1008 NOSIG=
200912121530 METAR LMML NIL=
200912121515 METAR LMML 121515Z 30014KT 9999 SCT037 14/06 Q1008 NOSIG=
200912121500 METAR LMML NIL=
200912121445 METAR LMML 121445Z 29010KT 260V320 9999 SCT033 14/08 Q1008
                        NOSIG=
200912121430 METAR LMML NIL=
200912121415 METAR LMML 121415Z 30013KT 270V330 9999 SCT033 15/08 Q1008
                        NOSIG=
200912121400 METAR LMML NIL=
200912121345 METAR LMML 121345Z 30013KT 270V330 9999 SCT031 14/07 Q1008
                        NOSIG=
200912121315 METAR LMML 121315Z 29011KT 250V330 9999 SCT030 15/08 Q1008
                        NOSIG=
200912121245 METAR LMML 121245Z 29012KT 250V320 9999 SCT039 15/08 Q1008
                        NOSIG=
200912121230 METAR LMML NIL=
200912121215 METAR LMML 121215Z 30014KT 260V320 9999 FEW034 BKN060 15/07
                        Q1008 NOSIG=
200912121200 METAR LMML NIL=
200912121145 METAR LMML 121145Z 30013KT 270V330 9999 FEW034 16/08 Q1008
                        NOSIG=
200912121130 METAR LMML NIL=
200912121115 METAR LMML 121115Z 31016KT 280V340 9999 SCT033 16/08 Q1008
                        NOSIG=
200912121100 METAR LMML NIL=
200912121045 METAR LMML 121045Z 31015KT 9999 SCT033 15/08 Q1008 NOSIG=
200912121030 METAR LMML NIL=
200912121015 METAR LMML 121015Z 31015KT 9999 SCT030 14/08 Q1008 NOSIG=
200912121000 METAR LMML NIL=
200912120945 METAR LMML 120945Z 31014KT 280V340 9999 SCT030 15/09 Q1008
                        NOSIG=
200912120930 METAR LMML NIL=
200912120915 METAR LMML 120915Z 31009KT 9999 FEW030 14/08 Q1009 NOSIG=
200912120900 METAR LMML NIL=
200912120845 METAR LMML 120845Z 31015KT 9999 -RA FEW039 BKN070 15/10 Q1009
                        TEMPO SHRA=
200912120830 METAR LMML NIL=
200912120815 METAR LMML 120815Z 31011KT 9999 FEW035 15/09 Q1008 TEMPO
                        SHRA=
200912120800 METAR LMML NIL=
200912120745 METAR LMML 120745Z 30010KT 9999 FEW035 14/08 Q1008 TEMPO
                        SHRA=
200912120730 METAR LMML NIL=
200912120715 METAR LMML 120715Z 30009KT 9999 FEW035 14/08 Q1008 NOSIG=
200912120700 METAR LMML NIL=
200912120645 METAR LMML 120645Z 30010KT 9999 SCT035 13/08 Q1008 NOSIG=
200912120615 METAR LMML 120615Z 30009KT 9999 FEW030 12/08 Q1007 NOSIG=
200912120545 METAR LMML 120545Z 30010KT 9999 FEW030 13/08 Q1007 NOSIG=
200912120530 METAR LMML NIL=
200912120515 METAR LMML 120515Z 30009KT 270V330 9999 SCT030 BKN080 13/09
                        Q1007 NOSIG=
200912120500 METAR LMML NIL=
200912120445 METAR LMML 120445Z 31014KT 9999 SCT030 BKN080 13/09 Q1007
                        NOSIG=
200912120430 METAR LMML NIL=
200912120415 METAR LMML 120415Z 30015KT 9999 SCT030 BKN080 14/08 Q1006
                        NOSIG=
200912120400 METAR LMML NIL=
200912120345 METAR LMML 120345Z 29014KT 270V330 9999 SCT030 BKN080 14/09
                        Q1006 NOSIG=
200912120330 METAR LMML NIL=
200912120315 METAR LMML 120315Z 30012KT 260V330 9999 SCT026 SCT034 BKN070
                        14/10 Q1007 NOSIG=
200912120300 METAR LMML NIL=
200912120245 METAR LMML 120245Z 28014KT 250V310 9999 -SHRA FEW028 BKN040
                        14/11 Q1006 NOSIG=
200912120230 METAR LMML NIL=
200912120215 METAR LMML 120215Z 28015KT 250V320 9999 FEW023 SCT050 BKN080
                        14/10 Q1007 NOSIG=
200912120200 METAR LMML NIL=
200912120145 METAR LMML 120145Z 27013KT 250V310 9999 -SHRA FEW022 BKN060
                        14/12 Q1007 NOSIG=
200912120130 METAR LMML NIL=
200912120115 METAR LMML 120115Z 28013KT 240V310 9999 FEW028 BKN060 14/11
                        Q1007 NOSIG=
200912120100 METAR LMML NIL=
200912120045 METAR LMML 120045Z 28015KT 230V310 9999 SCT024 BKN060 13/11
                        Q1008 NOSIG=
200912120030 METAR LMML NIL=
200912120015 METAR LMML 120015Z 28014KT 250V310 9999 SCT027 BKN060 13/10
                        Q1008 NOSIG=
200912120000 METAR LMML NIL=
200912112345 METAR LMML 112345Z 30019G29KT 9999 -SHRA SCT013 BKN060 13/10
                        Q1009 TEMPO 8000 SHRA=
200912112330 METAR LMML NIL=
200912112315 METAR LMML 112315Z 30013KT 9999 -SHRA SCT013 BKN070 14/12
                        Q1009 TEMPO 8000 SHRA=
200912112300 METAR LMML NIL=
200912112245 METAR LMML 112245Z 30016KT 260V330 9999 SCT018 BKN070 15/12
                        Q1009 TEMPO 8000 SHRA=
200912112230 METAR LMML NIL=
200912112215 METAR LMML 112215Z 27012KT 230V310 9999 SCT023 BKN080 15/11
                        Q1009 TEMPO 8000 SHRA=
200912112200 METAR LMML NIL=
200912112145 METAR LMML 112145Z 27007KT 240V300 9999 SCT020 BKN080 15/12
                        Q1009 TEMPO 8000 SHRA=
200912112130 METAR LMML NIL=
200912112115 METAR LMML 112115Z 29009KT 9999 SCT027 BKN060 14/12 Q1010
                        NOSIG=
200912112100 METAR LMML NIL=
200912112045 METAR LMML 112045Z 28012KT 250V310 9999 SCT026 BKN060 14/11
                        Q1010 TEMPO 8000 SHRA=
200912112030 METAR LMML NIL=
200912112015 METAR LMML 112015Z 28011KT 9999 -RA FEW030 SCT042 BKN059
                        14/12 Q1010 TEMPO 8000 SHRA=
200912112000 METAR LMML NIL=
200912111945 METAR LMML 111945Z 28014KT 250V310 8000 -SHRA FEW013 BKN020
                        BKN050 14/12 Q1010 RESHRA TEMPO 9999=
200912111930 METAR LMML NIL=
200912111915 METAR LMML 111915Z 30009KT 270V330 4000 SHRA BKN020 14/13
                        Q1011 TEMPO 8000 SHRA=
200912111900 METAR LMML NIL=
200912111845 METAR LMML 111845Z 29013KT 260V330 9999 -SHRA FEW008 BKN016
                        13/12 Q1011 NOSIG=
200912111830 METAR LMML NIL=
200912111815 METAR LMML 111815Z 27004KT 220V300 9999 -SHRA BKN020 14/11
                        Q1010 NOSIG=
200912111800 METAR LMML NIL=
200912111745 METAR LMML 111745Z 27005KT 9999 FEW023 SCT060 14/11 Q1011
                        NOSIG=
200912111730 METAR LMML NIL=
200912111715 METAR LMML 111715Z 29007KT 9999 FEW024 FEW050 14/11 Q1011
                        NOSIG=
200912111700 METAR LMML NIL=
200912111645 METAR LMML 111645Z 30007KT 9999 FEW024 14/10 Q1011 NOSIG=
200912111630 METAR LMML NIL=
200912111615 METAR LMML 111615Z 30010KT 270V330 9999 FEW025 14/10 Q1011
                        NOSIG=
200912111600 METAR LMML NIL=
200912111545 METAR LMML 111545Z 30011KT 9999 FEW026 14/10 Q1011 NOSIG=
200912111530 METAR LMML NIL=
200912111515 METAR LMML 111515Z 29011KT 260V320 9999 FEW029 15/09 Q1012
                        NOSIG=
200912111500 METAR LMML NIL=
200912111445 METAR LMML 111445Z 30013KT 9999 FEW029 15/09 Q1012 NOSIG=
200912111430 METAR LMML NIL=
200912111415 METAR LMML 111415Z 29011KT 260V320 9999 FEW029 16/09 Q1012
                        NOSIG=
200912111400 METAR LMML NIL=
200912111345 METAR LMML 111345Z 30016KT 9999 FEW029 16/08 Q1012 NOSIG=
200912111330 METAR LMML NIL=
200912111315 METAR LMML 111315Z 30014KT 9999 SCT031 15/09 Q1012 NOSIG=
200912111300 METAR LMML NIL=
200912111245 METAR LMML 111245Z 31017KT 280V350 9999 SCT034 16/07 Q1012
                        NOSIG=
200912111230 METAR LMML NIL=
200912111215 METAR LMML 111215Z 30015KT 270V330 9999 FEW031 16/09 Q1013
                        NOSIG=
200912111200 METAR LMML NIL=
200912111145 METAR LMML 111145Z 30017KT 9999 FEW036 16/08 Q1013 NOSIG=
200912111130 METAR LMML NIL=
200912111115 METAR LMML 111115Z 29014KT 9999 FEW036 16/08 Q1014 NOSIG=
200912111100 METAR LMML NIL=
200912111045 METAR LMML 111045Z 30013KT 270V340 9999 FEW036 16/07 Q1014
                        NOSIG=
200912111015 METAR LMML 111015Z 31012KT 9999 SCT036 15/07 Q1014 NOSIG=
200912110945 METAR LMML 110945Z 31011KT 9999 FEW035 16/08 Q1015 NOSIG=
200912110930 METAR LMML NIL=
200912110915 METAR LMML 110915Z 30011KT 9999 FEW035 16/07 Q1015 NOSIG=
200912110900 METAR LMML NIL=
200912110845 METAR LMML 110845Z 30009KT 270V330 9999 FEW025 15/08 Q1015
                        NOSIG=
200912110815 METAR LMML 110815Z 31008KT 270V330 9999 FEW025 15/08 Q1015
                        NOSIG=
200912110800 METAR LMML NIL=
200912110745 METAR LMML 110745Z 29007KT 260V320 9999 FEW025 14/08 Q1015
                        NOSIG=
200912110730 METAR LMML NIL=
200912110715 METAR LMML 110715Z 29008KT 9999 FEW025 13/08 Q1015 NOSIG=
200912110700 METAR LMML NIL=
200912110645 METAR LMML 110645Z 30008KT 9999 FEW025 12/07 Q1015 NOSIG=
200912110630 METAR LMML NIL=
200912110615 METAR LMML 110615Z 29007KT 9999 FEW030 12/07 Q1015 NOSIG=
200912110600 METAR LMML NIL=
200912110545 METAR LMML 110545Z 30009KT 9999 FEW033 12/07 Q1015 NOSIG=
200912110515 METAR LMML 110515Z 29008KT 9999 FEW033 12/07 Q1015 NOSIG=
200912110445 METAR LMML 110445Z 29008KT 9999 FEW033 12/07 Q1014 NOSIG=
200912110415 METAR LMML 110415Z 29008KT 9999 FEW033 12/07 Q1015 NOSIG=
200912110345 METAR LMML 110345Z 30009KT 9999 FEW033 12/07 Q1015 NOSIG=
200912110315 METAR LMML 110315Z 30005KT 270V330 9999 SCT036 12/07 Q1015
                        NOSIG=
200912110300 METAR LMML NIL=
200912110245 METAR LMML 110245Z 30007KT 9999 SCT036 12/07 Q1015 NOSIG=
200912110230 METAR LMML NIL=
200912110215 METAR LMML 110215Z 30006KT 9999 SCT034 12/07 Q1015 NOSIG=
200912110200 METAR LMML NIL=
200912110145 METAR LMML 110145Z 29006KT 260V330 9999 SCT035 12/07 Q1015
                        NOSIG=
200912110115 METAR LMML 110115Z 29005KT 250V310 9999 FEW035 12/07 Q1015
                        NOSIG=
200912110045 METAR LMML 110045Z 33006KT 300V360 9999 FEW041 13/07 Q1016
                        NOSIG=
200912110030 METAR LMML NIL=
200912110015 METAR LMML 110015Z 34006KT 9999 FEW037 13/07 Q1016 NOSIG=
200912110000 METAR LMML NIL=
200912102345 METAR LMML 102345Z 33007KT 9999 FEW037 13/07 Q1016 NOSIG=
200912102315 METAR LMML 102315Z 33008KT 9999 FEW037 13/07 Q1016 NOSIG=
200912102245 METAR LMML 102245Z 32007KT 290V350 9999 SCT037 13/07 Q1016
                        NOSIG=
200912102230 METAR LMML NIL=
200912102215 METAR LMML 102215Z 33010KT 9999 SCT040 13/07 Q1016 NOSIG=
200912102145 METAR LMML 102145Z 33010KT 9999 SCT041 13/06 Q1016 NOSIG=
200912102115 METAR LMML 102115Z 33008KT 310V010 9999 SCT039 14/07 Q1016
                        NOSIG=
200912102100 METAR LMML NIL=
200912102045 METAR LMML 102045Z 35009KT 290V010 9999 FEW039 14/06 Q1016
                        NOSIG=
200912102030 METAR LMML NIL=
200912102015 METAR LMML 102015Z 34010KT 300V360 9999 FEW039 14/06 Q1016
                        NOSIG=
200912102000 METAR LMML NIL=
200912101945 METAR LMML 101945Z 35009KT 9999 FEW048 14/06 Q1016 NOSIG=
200912101930 METAR LMML NIL=
200912101915 METAR LMML 101915Z 34012KT 320V020 9999 FEW041 14/06 Q1016
                        NOSIG=
200912101900 METAR LMML NIL=
200912101845 METAR LMML 101845Z 34014KT 9999 SCT041 14/07 Q1016 NOSIG=
200912101830 METAR LMML NIL=
200912101815 METAR LMML 101815Z 33016KT 9999 SCT039 15/07 Q1016 NOSIG=
200912101800 METAR LMML NIL=
200912101745 METAR LMML 101745Z 33011KT 9999 FEW037 SCT050 15/07 Q1016
                        NOSIG=
200912101730 METAR LMML NIL=
200912101715 METAR LMML 101715Z 33014KT 9999 FEW039 15/08 Q1015 NOSIG=
200912101700 METAR LMML NIL=
200912101645 METAR LMML 101645Z 33010KT 9999 FEW039 14/07 Q1015 NOSIG=
200912101630 METAR LMML NIL=
200912101615 METAR LMML 101615Z 33011KT 9999 FEW035 14/07 Q1015 NOSIG=
200912101600 METAR LMML NIL=
200912101545 METAR LMML 101545Z 32013KT 9999 FEW038 14/07 Q1015 NOSIG=
200912101530 METAR LMML NIL=
200912101515 METAR LMML 101515Z 32013KT 9999 FEW037 15/07 Q1015 NOSIG=
200912101500 METAR LMML NIL=
200912101445 METAR LMML 101445Z 33014KT 290V360 9999 FEW037 SCT050 15/07
                        Q1015 NOSIG=
200912101430 METAR LMML NIL=
200912101415 METAR LMML 101415Z 33017KT 9999 FEW036 SCT060 16/07 Q1015
                        NOSIG=
200912101400 METAR LMML NIL=
200912101345 METAR LMML 101345Z 32014KT 9999 FEW037 SCT050 15/08 Q1015
                        NOSIG=
200912101330 METAR LMML NIL=
200912101315 METAR LMML 101315Z 33016KT 9999 FEW038 SCT050 15/07 Q1015
                        NOSIG=
200912101300 METAR LMML NIL=
200912101245 METAR LMML 101245Z 32016KT 9999 SCT038 SCT050 15/08 Q1015
                        NOSIG=
200912101230 METAR LMML NIL=
200912101215 METAR LMML 101215Z 32015KT 9999 SCT038 16/07 Q1015 NOSIG=
200912101200 METAR LMML NIL=
200912101145 METAR LMML 101145Z 33016KT 9999 SCT039 15/07 Q1015 NOSIG=
200912101130 METAR LMML NIL=
200912101115 METAR LMML 101115Z 32016KT 9999 SCT038 16/07 Q1015 NOSIG=
200912101100 METAR LMML NIL=
200912101045 METAR LMML 101045Z 32018KT 9999 SCT037 16/08 Q1015 NOSIG=
200912101030 METAR LMML NIL=
200912101015 METAR LMML 101015Z 32017KT 9999 SCT036 16/08 Q1016 NOSIG=
200912101000 METAR LMML NIL=
200912100945 METAR LMML 100945Z 32016KT 290V350 9999 SCT036 16/08 Q1016
                        NOSIG=
200912100930 METAR LMML NIL=
200912100915 METAR LMML 100915Z 32017KT 9999 SCT036 16/08 Q1016 NOSIG=
200912100900 METAR LMML NIL=
200912100845 METAR LMML 100845Z 32016KT 9999 SCT036 16/08 Q1016 NOSIG=
200912100830 METAR LMML NIL=
200912100815 METAR LMML 100815Z 31013KT 9999 FEW037 15/08 Q1016 NOSIG=
200912100800 METAR LMML NIL=
200912100745 METAR LMML 100745Z 32012KT 9999 SCT036 15/08 Q1016 NOSIG=
200912100730 METAR LMML NIL=
200912100715 METAR LMML 100715Z 30012KT 9999 SCT034 14/08 Q1016 NOSIG=
200912100700 METAR LMML NIL=
200912100645 METAR LMML 100645Z 29009KT 260V330 9999 SCT037 14/07 Q1016
                        NOSIG=
200912100630 METAR LMML NIL=
200912100615 METAR LMML 100615Z 32012KT 9999 SCT037 13/07 Q1016 NOSIG=
200912100600 METAR LMML NIL=
200912100545 METAR LMML 100545Z 31008KT 280V350 9999 FEW037 12/08 Q1015
                        NOSIG=
200912100530 METAR LMML NIL=
200912100515 METAR LMML 100515Z 31010KT 9999 FEW041 12/07 Q1015 NOSIG=
200912100500 METAR LMML NIL=
200912100445 METAR LMML 100445Z 30009KT 9999 FEW041 12/06 Q1015 NOSIG=
200912100430 METAR LMML NIL=
200912100415 METAR LMML 100415Z 31010KT 9999 FEW040 12/05 Q1015 NOSIG=
200912100400 METAR LMML NIL=
200912100345 METAR LMML 100345Z 32009KT 9999 FEW040 12/06 Q1016 NOSIG=
200912100330 METAR LMML NIL=
200912100315 METAR LMML 100315Z 29009KT 260V320 9999 FEW040 13/06 Q1016
                        NOSIG=
200912100300 METAR LMML NIL=
200912100245 METAR LMML 100245Z 31009KT 280V340 9999 FEW037 12/06 Q1016
                        NOSIG=
200912100230 METAR LMML NIL=
200912100215 METAR LMML 100215Z 31009KT 9999 FEW037 12/06 Q1016 NOSIG=
200912100200 METAR LMML NIL=
200912100145 METAR LMML 100145Z 32012KT 9999 FEW037 12/07 Q1016 NOSIG=
200912100130 METAR LMML NIL=
200912100115 METAR LMML 100115Z 32011KT 9999 FEW037 12/06 Q1016 NOSIG=
200912100100 METAR LMML NIL=
200912100045 METAR LMML 100045Z 29009KT 9999 FEW037 13/06 Q1016 NOSIG=
200912100030 METAR LMML NIL=
200912100015 METAR LMML 100015Z 29008KT 250V320 CAVOK 13/05 Q1016 NOSIG=
200912100000 METAR LMML NIL=
200912092345 METAR LMML 092345Z 29009KT 260V320 CAVOK 13/05 Q1016 NOSIG=
200912092330 METAR LMML NIL=
200912092315 METAR LMML 092315Z 30006KT 280V340 9999 FEW037 12/06 Q1016
                        NOSIG=
200912092300 METAR LMML NIL=
200912092245 METAR LMML 092245Z 30005KT 260V340 9999 FEW037 12/07 Q1016
                        NOSIG=
200912092230 METAR LMML NIL=
200912092215 METAR LMML 092215Z 32009KT 9999 FEW037 13/07 Q1017 NOSIG=
200912092200 METAR LMML NIL=
200912092145 METAR LMML 092145Z 33011KT 9999 FEW037 13/06 Q1017 NOSIG=
200912092130 METAR LMML NIL=
200912092115 METAR LMML 092115Z 32010KT 9999 FEW035 13/07 Q1017 NOSIG=
200912092100 METAR LMML NIL=
200912092045 METAR LMML 092045Z 33011KT 9999 SCT037 15/07 Q1016 NOSIG=
200912092030 METAR LMML NIL=
200912092015 METAR LMML 092015Z 33012KT 300V360 9999 FEW033 SCT050 15/06
                        Q1016 NOSIG=
200912092000 METAR LMML NIL=
200912091945 METAR LMML 091945Z 30011KT 9999 FEW032 14/10 Q1016 NOSIG=
200912091930 METAR LMML NIL=
200912091915 METAR LMML 091915Z 30011KT 9999 FEW030 14/09 Q1016 NOSIG=
200912091900 METAR LMML NIL=
200912091845 METAR LMML 091845Z 31014KT 9999 FEW030 14/09 Q1016 NOSIG=
200912091830 METAR LMML NIL=
200912091815 METAR LMML 091815Z 30013KT 9999 FEW030 14/09 Q1015 NOSIG=
200912091800 METAR LMML NIL=
200912091745 METAR LMML 091745Z 30014KT 9999 FEW030 15/09 Q1015 NOSIG=
200912091730 METAR LMML NIL=
200912091715 METAR LMML 091715Z 31017KT 9999 SCT030 15/10 Q1015 NOSIG=
200912091700 METAR LMML NIL=
200912091645 METAR LMML 091645Z 31015KT 9999 SCT022 15/11 Q1015 NOSIG=
200912091630 METAR LMML NIL=
200912091615 METAR LMML 091615Z 31015KT 9999 SCT022 15/11 Q1015 NOSIG=
200912091600 METAR LMML NIL=
200912091545 METAR LMML 091545Z 30013KT 9999 FEW030 SCT050 15/10 Q1015
                        NOSIG=
200912091530 METAR LMML NIL=
200912091515 METAR LMML 091515Z 30011KT 260V320 9999 FEW025 SCT050 15/11
                        Q1015 NOSIG=
200912091500 METAR LMML NIL=
200912091445 METAR LMML 091445Z 30012KT 270V330 9999 FEW025 BKN050 16/11
                        Q1015 NOSIG=
200912091430 METAR LMML NIL=
200912091415 METAR LMML 091415Z 30019KT 9999 FEW022 SCT060 16/10 Q1015
                        NOSIG=
200912091400 METAR LMML NIL=
200912091345 METAR LMML 091345Z 30016KT 9999 FEW022 SCT060 16/11 Q1015
                        NOSIG=
200912091330 METAR LMML NIL=
200912091315 METAR LMML 091315Z 29017KT 260V320 9999 FEW022 BKN060 17/11
                        Q1015 NOSIG=
200912091300 METAR LMML NIL=
200912091245 METAR LMML 091245Z 29017KT 9999 FEW024 SCT060 17/11 Q1015
                        NOSIG=
200912091230 METAR LMML NIL=
200912091215 METAR LMML 091215Z 30022KT 9999 FEW024 SCT060 17/11 Q1015
                        NOSIG=
200912091200 METAR LMML NIL=
200912091145 METAR LMML 091145Z 29019KT 260V320 9999 FEW024 SCT060 17/12
                        Q1015 RESHRA NOSIG=
200912091130 METAR LMML NIL=
200912091115 METAR LMML 091115Z 29017KT 9999 FEW027 BKN050 16/12 Q1015
                        RESHRA NOSIG=
200912091100 METAR LMML NIL=
200912091045 METAR LMML 091045Z 29019KT 260V320 9999 SCT026 BKN060 17/13
                        Q1016 NOSIG=
200912091030 METAR LMML NIL=
200912091015 METAR LMML 091015Z 28020KT 9999 SCT025 18/13 Q1016 NOSIG=
200912091000 METAR LMML NIL=
200912090945 METAR LMML 090945Z 29017KT 240V310 9999 SCT023 17/13 Q1017
                        NOSIG=
200912090930 METAR LMML NIL=
200912090915 METAR LMML 090915Z 29016KT 260V320 9999 BKN023 18/13 Q1017
                        NOSIG=
200912090900 METAR LMML NIL=
200912090845 METAR LMML 090845Z 30016KT 9999 SCT030 17/12 Q1017 NOSIG=
200912090830 METAR LMML NIL=
200912090815 METAR LMML 090815Z 30016G26KT 250V320 9999 SCT028 17/12 Q1017
                        NOSIG=
200912090800 METAR LMML NIL=
200912090745 METAR LMML 090745Z 30013KT 9999 SCT036 17/13 Q1017 NOSIG=
200912090730 METAR LMML NIL=
200912090715 METAR LMML 090715Z 29013KT 260V340 9999 SCT032 16/13 Q1017
                        NOSIG=
200912090700 METAR LMML NIL=
200912090645 METAR LMML 090645Z 31011KT 9999 FEW026 16/12 Q1017 NOSIG=
200912090630 METAR LMML NIL=
200912090615 METAR LMML 090615Z 31010KT 9999 FEW026 15/13 Q1016 NOSIG=
200912090545 METAR LMML 090545Z 30013KT 270V330 9999 SCT025 16/14 Q1016
                        NOSIG=
200912090530 METAR LMML NIL=
200912090515 METAR LMML 090515Z 30012KT 9999 SCT020 16/15 Q1016 NOSIG=
200912090500 METAR LMML NIL=
200912090445 METAR LMML 090445Z 30012KT 280V340 9999 FEW019 15/15 Q1016
                        NOSIG=
200912090430 METAR LMML NIL=
200912090415 METAR LMML 090415Z 30013KT 9999 FEW019 15/15 Q1016 NOSIG=
200912090345 METAR LMML 090345Z 30009KT 270V330 9999 FEW019 15/14 Q1016
                        NOSIG=
200912090330 METAR LMML NIL=
200912090315 METAR LMML 090315Z 30012KT 9999 FEW019 16/15 Q1017 NOSIG=
200912090300 METAR LMML NIL=
200912090245 METAR LMML 090245Z 30011KT 270V330 9999 FEW019 16/15 Q1017
                        NOSIG=
200912090230 METAR LMML NIL=
200912090215 METAR LMML 090215Z 29011KT 9999 FEW025 16/15 Q1017 NOSIG=
200912090200 METAR LMML NIL=
200912090145 METAR LMML 090145Z 29011KT 260V320 9999 SCT032 16/15 Q1017
                        NOSIG=
200912090130 METAR LMML NIL=
200912090115 METAR LMML 090115Z 29009KT 250V320 9999 SCT032 16/15 Q1017
                        NOSIG=
200912090100 METAR LMML NIL=
200912090045 METAR LMML 090045Z 29009KT 260V320 9999 SCT023 16/15 Q1017
                        NOSIG=
200912090030 METAR LMML NIL=
200912090015 METAR LMML 090015Z 29010KT 9999 SCT023 16/15 Q1017 NOSIG=
200912090000 METAR LMML NIL=
200912082345 METAR LMML 082345Z 28009KT 250V310 9999 SCT025 16/15 Q1017
                        NOSIG=
200912082330 METAR LMML NIL=
200912082315 METAR LMML 082315Z 29010KT 9999 SCT026 16/15 Q1018 NOSIG=
200912082245 METAR LMML 082245Z 28012KT 9999 BKN020 16/14 Q1018 NOSIG=
200912082230 METAR LMML NIL=
200912082215 METAR LMML 082215Z 27007KT 220V310 9999 BKN018 16/15 Q1018
                        NOSIG=
200912082200 METAR LMML NIL=
200912082145 METAR LMML 082145Z 28007KT 240V310 9999 BKN021 16/14 Q1018
                        NOSIG=
200912082130 METAR LMML NIL=
200912082115 METAR LMML 082115Z 29007KT 9999 SCT028 16/14 Q1018 NOSIG=
200912082100 METAR LMML NIL=
200912082045 METAR LMML 082045Z 28009KT 250V310 9999 SCT022 15/14 Q1018
                        NOSIG=
200912082030 METAR LMML NIL=
200912082015 METAR LMML 082015Z 27006KT 9999 SCT024 15/14 Q1018 NOSIG=
200912082000 METAR LMML NIL=
200912081945 METAR LMML 081945Z 29008KT 9999 FEW020 15/13 Q1018 NOSIG=
200912081930 METAR LMML NIL=
200912081915 METAR LMML 081915Z 29008KT 260V320 9999 FEW020 15/12 Q1019
                        NOSIG=
200912081845 METAR LMML 081845Z 28007KT 9999 FEW020 15/14 Q1019 NOSIG=
200912081830 METAR LMML NIL=
200912081815 METAR LMML 081815Z 29009KT 9999 FEW022 16/14 Q1019 NOSIG=
200912081800 METAR LMML NIL=
200912081745 METAR LMML 081745Z 27006KT 9999 FEW018 16/16 Q1018 NOSIG=
200912081730 METAR LMML NIL=
200912081715 METAR LMML 081715Z 27006KT 250V310 9999 FEW017 16/15 Q1018
                        NOSIG=
200912081700 METAR LMML NIL=
200912081645 METAR LMML 081645Z 27008KT 230V300 9999 FEW017 16/15 Q1018
                        NOSIG=
200912081630 METAR LMML NIL=
200912081615 METAR LMML 081615Z 27008KT 240V300 9999 FEW016 16/15 Q1018
                        NOSIG=
200912081600 METAR LMML NIL=
200912081545 METAR LMML 081545Z 27008KT 240V300 9999 FEW020 17/15 Q1018
                        NOSIG=
200912081530 METAR LMML NIL=
200912081515 METAR LMML 081515Z 27012KT 230V290 9999 FEW020 17/15 Q1018
                        NOSIG=
200912081500 METAR LMML NIL=
200912081445 METAR LMML 081445Z 27011KT 230V300 9999 FEW020 18/14 Q1018
                        NOSIG=
200912081430 METAR LMML NIL=
200912081415 METAR LMML 081415Z 27011KT 220V300 9999 FEW020 18/14 Q1018
                        NOSIG=
200912081400 METAR LMML NIL=
200912081345 METAR LMML 081345Z 25012KT 220V300 9999 FEW020 18/14 Q1018
                        NOSIG=
200912081330 METAR LMML NIL=
200912081315 METAR LMML 081315Z 26010KT 220V310 9999 FEW020 18/14 Q1018
                        NOSIG=
200912081245 METAR LMML 081245Z 26010KT 210V300 9999 FEW020 19/14 Q1018
                        NOSIG=
200912081230 METAR LMML NIL=
200912081215 METAR LMML 081215Z 26013KT 220V300 9999 FEW020 18/14 Q1018
                        NOSIG=
200912081200 METAR LMML NIL=
200912081145 METAR LMML 081145Z 26011KT 230V300 9999 FEW020 19/14 Q1019
                        NOSIG=
200912081130 METAR LMML NIL=
200912081115 METAR LMML 081115Z 25010KT 200V300 9999 FEW020 19/15 Q1019
                        NOSIG=
200912081100 METAR LMML NIL=
200912081045 METAR LMML 081045Z 25010KT 210V280 9999 FEW023 19/14 Q1019
                        NOSIG=
200912081030 METAR LMML NIL=
200912081015 METAR LMML 081015Z 26011KT 230V290 9999 FEW023 18/14 Q1020
                        NOSIG=
200912081000 METAR LMML NIL=
200912080945 METAR LMML 080945Z 25010KT 210V290 9999 FEW023 19/14 Q1020
                        NOSIG=
200912080930 METAR LMML NIL=
200912080915 METAR LMML 080915Z 24008KT 200V290 9999 FEW023 18/14 Q1020
                        NOSIG=
200912080900 METAR LMML NIL=
200912080845 METAR LMML 080845Z 25008KT 200V280 9999 FEW021 18/15 Q1020
                        NOSIG=
200912080830 METAR LMML NIL=
200912080815 METAR LMML 080815Z 25007KT 220V290 9999 FEW021 17/15 Q1020
                        NOSIG=
200912080800 METAR LMML NIL=
200912080745 METAR LMML 080745Z 25006KT 210V290 9999 FEW020 17/16 Q1020
                        NOSIG=
200912080730 METAR LMML NIL=
200912080715 METAR LMML 080715Z 25005KT 220V290 9999 FEW023 17/16 Q1020
                        NOSIG=
200912080700 METAR LMML NIL=
200912080645 METAR LMML 080645Z 24005KT 200V280 9999 FEW020 16/15 Q1020
                        NOSIG=
200912080630 METAR LMML NIL=
200912080615 METAR LMML 080615Z 24005KT 9999 FEW020 15/15 Q1020 NOSIG=
200912080600 METAR LMML NIL=
200912080545 METAR LMML 080545Z 25005KT 220V280 9999 FEW022 15/15 Q1020
                        NOSIG=
200912080530 METAR LMML NIL=
200912080515 METAR LMML 080515Z 24005KT 210V270 9999 FEW022 15/14 Q1020
                        NOSIG=
200912080500 METAR LMML NIL=
200912080445 METAR LMML 080445Z 24005KT 200V270 9999 FEW024 15/14 Q1020
                        NOSIG=
200912080430 METAR LMML NIL=
200912080415 METAR LMML 080415Z 24004KT 9999 FEW025 15/14 Q1020 NOSIG=
200912080400 METAR LMML NIL=
200912080345 METAR LMML 080345Z 24005KT 9999 FEW024 15/14 Q1020 NOSIG=
200912080330 METAR LMML NIL=
200912080315 METAR LMML 080315Z 24005KT 210V270 9999 FEW024 15/14 Q1020
                        NOSIG=
200912080300 METAR LMML NIL=
200912080245 METAR LMML 080245Z 23005KT 9999 FEW028 15/14 Q1020 NOSIG=
200912080230 METAR LMML NIL=
200912080215 METAR LMML 080215Z 24005KT 9999 FEW024 14/14 Q1020 NOSIG=
200912080200 METAR LMML NIL=
200912080145 METAR LMML 080145Z 23004KT 200V260 9999 FEW023 13/13 Q1020
                        NOSIG=
200912080130 METAR LMML NIL=
200912080115 METAR LMML 080115Z 21004KT 9999 FEW020 14/14 Q1021 NOSIG=
200912080100 METAR LMML NIL=
200912080045 METAR LMML 080045Z VRB03KT 9999 FEW020 13/13 Q1021 NOSIG=
200912080030 METAR LMML NIL=
200912080015 METAR LMML 080015Z VRB03KT 9999 FEW020 12/12 Q1021 NOSIG=
200912080000 METAR LMML NIL=
200912072345 METAR LMML 072345Z VRB03KT 9999 FEW020 12/12 Q1021 NOSIG=
200912072330 METAR LMML NIL=
200912072315 METAR LMML 072315Z VRB03KT 9999 FEW020 13/13 Q1021 NOSIG=
200912072300 METAR LMML NIL=
200912072245 METAR LMML 072245Z VRB02KT 9999 FEW020 13/13 Q1021 NOSIG=
200912072230 METAR LMML NIL=
200912072215 METAR LMML 072215Z VRB03KT 9999 FEW020 13/13 Q1021 NOSIG=
200912072200 METAR LMML NIL=
200912072145 METAR LMML 072145Z VRB03KT 9999 FEW020 13/13 Q1022 NOSIG=
200912072130 METAR LMML NIL=
200912072115 METAR LMML 072115Z VRB03KT 9999 FEW020 13/13 Q1021 NOSIG=
200912072100 METAR LMML NIL=
200912072045 METAR LMML 072045Z VRB03KT 9999 FEW020 13/13 Q1022 NOSIG=
200912072030 METAR LMML NIL=
200912072015 METAR LMML 072015Z VRB03KT 9999 FEW025 13/13 Q1022 NOSIG=
200912072000 METAR LMML NIL=
200912071945 METAR LMML 071945Z VRB03KT 9999 FEW025 13/13 Q1022 NOSIG=
200912071930 METAR LMML NIL=
200912071915 METAR LMML 071915Z 27004KT 230V300 9999 FEW025 14/14 Q1021
                        NOSIG=
200912071900 METAR LMML NIL=
200912071845 METAR LMML 071845Z VRB03KT 9999 FEW025 13/13 Q1021 NOSIG=
200912071830 METAR LMML NIL=
200912071815 METAR LMML 071815Z 28004KT 9999 FEW025 14/13 Q1021 NOSIG=
200912071800 METAR LMML NIL=
200912071745 METAR LMML 071745Z 27004KT 9999 FEW025 14/13 Q1021 NOSIG=
200912071730 METAR LMML NIL=
200912071715 METAR LMML 071715Z VRB03KT 9999 FEW025 15/13 Q1021 NOSIG=
200912071700 METAR LMML NIL=
200912071645 METAR LMML 071645Z VRB03KT 9999 FEW025 15/13 Q1021 NOSIG=
200912071630 METAR LMML NIL=
200912071615 METAR LMML 071615Z 28004KT 9999 FEW025 15/13 Q1021 NOSIG=
200912071600 METAR LMML NIL=
200912071545 METAR LMML 071545Z 29005KT 9999 FEW025 15/13 Q1021 NOSIG=
200912071530 METAR LMML NIL=
200912071515 METAR LMML 071515Z 30005KT 9999 FEW025 16/13 Q1021 NOSIG=
200912071445 METAR LMML 071445Z 29007KT 9999 SCT025 16/12 Q1021 NOSIG=
200912071430 METAR LMML NIL=
200912071415 METAR LMML 071415Z 28008KT 240V300 9999 SCT027 17/12 Q1021
                        NOSIG=
200912071400 METAR LMML NIL=
200912071345 METAR LMML 071345Z 28009KT 250V310 9999 SCT027 17/12 Q1021
                        NOSIG=
200912071330 METAR LMML NIL=
200912071315 METAR LMML 071315Z 28010KT 9999 SCT027 17/12 Q1020 NOSIG=
200912071245 METAR LMML 071245Z 28009KT 9999 SCT027 17/11 Q1021 NOSIG=
200912071215 METAR LMML 071215Z 28008KT 250V310 9999 SCT028 17/11 Q1021
                        NOSIG=
200912071200 METAR LMML NIL=
200912071145 METAR LMML 071145Z 28008KT 210V310 9999 BKN028 18/12 Q1021
                        NOSIG=
200912071130 METAR LMML NIL=
200912071115 METAR LMML 071115Z 30008KT 260V320 9999 BKN028 17/11 Q1021
                        NOSIG=
200912071100 METAR LMML NIL=
200912071045 METAR LMML 071045Z 29006KT 250V320 9999 BKN027 17/12 Q1022
                        NOSIG=
200912071015 METAR LMML 071015Z 31008KT 280V340 9999 SCT025 17/12 Q1022
                        NOSIG=
200912071000 METAR LMML NIL=
200912070945 METAR LMML 070945Z 31006KT 9999 SCT025 17/12 Q1022 NOSIG=
200912070930 METAR LMML NIL=
200912070915 METAR LMML 070915Z 28005KT 230V310 9999 SCT025 17/12 Q1022
                        NOSIG=
200912070845 METAR LMML 070845Z VRB03KT 9999 SCT024 17/13 Q1022 NOSIG=
200912070830 METAR LMML NIL=
200912070815 METAR LMML 070815Z VRB03KT 9999 SCT024 17/13 Q1022 NOSIG=
200912070800 METAR LMML NIL=
200912070745 METAR LMML 070745Z VRB03KT 9999 SCT025 16/13 Q1022 NOSIG=
200912070730 METAR LMML NIL=
200912070715 METAR LMML 070715Z 26004KT 220V280 9999 SCT025 14/12 Q1021
                        NOSIG=
200912070700 METAR LMML NIL=
200912070645 METAR LMML 070645Z 28004KT 240V310 9999 SCT025 13/12 Q1021
                        NOSIG=
200912070630 METAR LMML NIL=
200912070615 METAR LMML 070615Z 28004KT 9999 SCT025 13/12 Q1021 NOSIG=
200912070545 METAR LMML 070545Z 28005KT 9999 FEW025 13/12 Q1021 NOSIG=
200912070515 METAR LMML 070515Z 29007KT 9999 FEW025 13/12 Q1021 NOSIG=
200912070500 METAR LMML NIL=
200912070445 METAR LMML 070445Z 28006KT 240V310 9999 FEW025 13/12 Q1021
                        NOSIG=
200912070430 METAR LMML NIL=
200912070415 METAR LMML 070415Z 28006KT 9999 FEW025 13/12 Q1021 NOSIG=
200912070345 METAR LMML 070345Z 27005KT 9999 FEW023 13/12 Q1020 NOSIG=
200912070330 METAR LMML NIL=
200912070315 METAR LMML 070315Z 27006KT 9999 FEW023 13/12 Q1020 NOSIG=
200912070245 METAR LMML 070245Z 27005KT 9999 FEW023 13/12 Q1020 NOSIG=
200912070230 METAR LMML NIL=
200912070215 METAR LMML 070215Z 27004KT 9999 FEW022 13/12 Q1020 NOSIG=
200912070200 METAR LMML NIL=
200912070145 METAR LMML 070145Z 26004KT 9999 FEW024 13/11 Q1021 NOSIG=
200912070130 METAR LMML NIL=
200912070115 METAR LMML 070115Z 26005KT 9999 FEW025 13/11 Q1021 NOSIG=
200912070100 METAR LMML NIL=
200912070045 METAR LMML 070045Z 26005KT 9999 FEW025 13/11 Q1021 NOSIG=
200912070030 METAR LMML NIL=
200912070015 METAR LMML 070015Z 25004KT 9999 FEW026 13/11 Q1021 NOSIG=
200912070000 METAR LMML NIL=
200912062345 METAR LMML 062345Z 26004KT 9999 FEW027 13/11 Q1021 NOSIG=
200912062330 METAR LMML NIL=
200912062315 METAR LMML 062315Z 27004KT 9999 FEW027 13/11 Q1021 NOSIG=
200912062300 METAR LMML NIL=
200912062245 METAR LMML 062245Z 27004KT 9999 FEW030 13/10 Q1021 NOSIG=
200912062215 METAR LMML 062215Z 26004KT 9999 FEW030 13/11 Q1021 NOSIG=
200912062200 METAR LMML NIL=
200912062145 METAR LMML 062145Z 27004KT 9999 FEW030 13/11 Q1021 NOSIG=
200912062130 METAR LMML NIL=
200912062115 METAR LMML 062115Z 27004KT 9999 FEW030 13/11 Q1021 NOSIG=
200912062045 METAR LMML 062045Z 27004KT 9999 FEW029 13/11 Q1021 NOSIG=
200912062030 METAR LMML NIL=
200912062015 METAR LMML 062015Z 27005KT 240V300 CAVOK 14/11 Q1021 NOSIG=
200912062000 METAR LMML NIL=
200912061945 METAR LMML 061945Z 27005KT CAVOK 14/11 Q1021 NOSIG=
200912061930 METAR LMML NIL=
200912061915 METAR LMML 061915Z VRB03KT CAVOK 13/11 Q1021 NOSIG=
200912061900 METAR LMML NIL=
200912061845 METAR LMML 061845Z 27004KT CAVOK 14/11 Q1021 NOSIG=
200912061830 METAR LMML NIL=
200912061815 METAR LMML 061815Z 26004KT 9999 FEW025 14/11 Q1021 NOSIG=
200912061800 METAR LMML NIL=
200912061745 METAR LMML 061745Z 27004KT 230V300 9999 FEW025 14/11 Q1021
                        NOSIG=
200912061730 METAR LMML NIL=
200912061715 METAR LMML 061715Z 28005KT 240V310 9999 FEW025 14/11 Q1020
                        NOSIG=
200912061700 METAR LMML NIL=
200912061645 METAR LMML 061645Z 28005KT 9999 FEW025 15/11 Q1020 NOSIG=
200912061630 METAR LMML NIL=
200912061615 METAR LMML 061615Z 29006KT 9999 FEW025 15/11 Q1020 NOSIG=
200912061600 METAR LMML NIL=
200912061545 METAR LMML 061545Z 29006KT 9999 FEW025 16/11 Q1020 NOSIG=
200912061530 METAR LMML NIL=
200912061515 METAR LMML 061515Z 28008KT 9999 FEW025 17/11 Q1020 NOSIG=
200912061500 METAR LMML NIL=
200912061445 METAR LMML 061445Z 30008KT 9999 FEW027 17/11 Q1020 NOSIG=
200912061430 METAR LMML NIL=
200912061415 METAR LMML 061415Z 29009KT 260V320 9999 FEW027 17/11 Q1019
                        NOSIG=
200912061400 METAR LMML NIL=
200912061345 METAR LMML 061345Z 29008KT 250V320 9999 FEW027 18/12 Q1019
                        NOSIG=
200912061330 METAR LMML NIL=
200912061315 METAR LMML 061315Z 34006KT 300V010 9999 FEW028 18/13 Q1019
                        NOSIG=
200912061300 METAR LMML NIL=
200912061245 METAR LMML 061245Z 33006KT 9999 FEW027 17/12 Q1019 NOSIG=
200912061230 METAR LMML NIL=
200912061215 METAR LMML 061215Z 34007KT 300V010 9999 FEW025 18/12 Q1019
                        NOSIG=
200912061200 METAR LMML NIL=
200912061145 METAR LMML 061145Z 32008KT 290V360 9999 FEW025 18/11 Q1019
                        NOSIG=
200912061130 METAR LMML NIL=
200912061115 METAR LMML 061115Z 34008KT 9999 FEW025 18/11 Q1020 NOSIG=
200912061045 METAR LMML 061045Z 32009KT 290V350 9999 FEW025 18/12 Q1020
                        NOSIG=
200912061030 METAR LMML NIL=
200912061015 METAR LMML 061015Z 33009KT 9999 FEW025 18/12 Q1020 NOSIG=
200912060945 METAR LMML 060945Z 33010KT 9999 FEW025 18/12 Q1020 NOSIG=
200912060930 METAR LMML NIL=
200912060915 METAR LMML 060915Z 33010KT 300V360 9999 FEW025 18/12 Q1020
                        NOSIG=
200912060845 METAR LMML 060845Z 33010KT 9999 FEW025 17/12 Q1020 NOSIG=
200912060830 METAR LMML NIL=
200912060815 METAR LMML 060815Z 33007KT 9999 FEW025 17/12 Q1020 NOSIG=
200912060800 METAR LMML NIL=
200912060745 METAR LMML 060745Z 33007KT 9999 FEW025 16/13 Q1019 NOSIG=
200912060730 METAR LMML NIL=
200912060715 METAR LMML 060715Z 32006KT 9999 FEW025 15/13 Q1019 NOSIG=
200912060700 METAR LMML NIL=
200912060645 METAR LMML 060645Z 31008KT 9999 FEW025 14/12 Q1019 NOSIG=
200912060630 METAR LMML NIL=
200912060615 METAR LMML 060615Z 32008KT 9999 FEW025 13/12 Q1018 NOSIG=
200912060600 METAR LMML NIL=
200912060545 METAR LMML 060545Z 32007KT 9999 FEW023 SCT250 13/12 Q1018
                        NOSIG=
200912060530 METAR LMML NIL=
200912060515 METAR LMML 060515Z 31008KT 9999 FEW023 SCT250 13/13 Q1018
                        NOSIG=
200912060500 METAR LMML NIL=
200912060445 METAR LMML 060445Z 32006KT 9999 FEW022 SCT250 13/13 Q1018
                        NOSIG=
200912060430 METAR LMML NIL=
200912060415 METAR LMML 060415Z 32007KT 9999 FEW030 SCT250 13/13 Q1018
                        NOSIG=
200912060400 METAR LMML NIL=
200912060345 METAR LMML 060345Z 31007KT 9999 FEW030 BKN250 14/13 Q1018
                        NOSIG=
200912060330 METAR LMML NIL=
200912060315 METAR LMML 060315Z 31008KT 9999 FEW030 BKN250 14/13 Q1018
                        NOSIG=
200912060300 METAR LMML NIL=
200912060245 METAR LMML 060245Z 32009KT 9999 FEW030 BKN250 14/13 Q1018
                        NOSIG=
200912060230 METAR LMML NIL=
200912060215 METAR LMML 060215Z 31010KT 9999 FEW030 BKN250 14/13 Q1018
                        NOSIG=
200912060145 METAR LMML 060145Z 31009KT 9999 FEW030 SCT250 14/12 Q1017
                        NOSIG=
200912060115 METAR LMML 060115Z 30008KT 9999 FEW030 SCT250 14/12 Q1017
                        NOSIG=
200912060100 METAR LMML NIL=
200912060045 METAR LMML 060045Z 30008KT 9999 FEW030 14/11 Q1017 NOSIG=
200912060015 METAR LMML 060015Z 30009KT 9999 FEW030 14/11 Q1017 NOSIG=
200912060000 METAR LMML NIL=
200912052345 METAR LMML 052345Z 30009KT 9999 FEW030 14/11 Q1017 NOSIG=
200912052330 METAR LMML NIL=
200912052315 METAR LMML 052315Z 29008KT 9999 FEW030 14/12 Q1017 NOSIG=
200912052300 METAR LMML NIL=
200912052245 METAR LMML 052245Z 30010KT 9999 FEW030 14/12 Q1017 NOSIG=
200912052230 METAR LMML NIL=
200912052215 METAR LMML 052215Z 29008KT 9999 FEW030 14/11 Q1017 NOSIG=
200912052200 METAR LMML NIL=
200912052145 METAR LMML 052145Z 30009KT 9999 FEW030 14/10 Q1017 NOSIG=
200912052130 METAR LMML NIL=
200912052115 METAR LMML 052115Z 29009KT 9999 FEW030 14/10 Q1016 NOSIG=
200912052100 METAR LMML NIL=
200912052045 METAR LMML 052045Z 32008KT 9999 FEW030 14/09 Q1016 NOSIG=
200912052030 METAR LMML NIL=
200912052015 METAR LMML 052015Z 34010KT 9999 FEW030 15/09 Q1016 NOSIG=
200912052000 METAR LMML NIL=
200912051945 METAR LMML 051945Z 34012KT 9999 FEW030 15/09 Q1015 NOSIG=
200912051930 METAR LMML NIL=
200912051915 METAR LMML 051915Z 32009KT 9999 FEW030 14/08 Q1015 NOSIG=
200912051900 METAR LMML NIL=
200912051845 METAR LMML 051845Z 33010KT 9999 FEW030 15/08 Q1014 NOSIG=
200912051830 METAR LMML NIL=
200912051815 METAR LMML 051815Z 34012KT 9999 FEW030 15/08 Q1014 NOSIG=
200912051800 METAR LMML NIL=
200912051745 METAR LMML 051745Z 34015KT 9999 FEW030 15/07 Q1013 NOSIG=
200912051730 METAR LMML NIL=
200912051715 METAR LMML 051715Z 34015KT 310V010 9999 FEW030 15/07 Q1013
                        NOSIG=
200912051700 METAR LMML NIL=
200912051645 METAR LMML 051645Z 33015KT 9999 FEW031 15/08 Q1013 NOSIG=
200912051630 METAR LMML NIL=
200912051615 METAR LMML 051615Z 33015KT 9999 FEW031 15/10 Q1012 NOSIG=
200912051600 METAR LMML NIL=
200912051545 METAR LMML 051545Z 32017KT 9999 FEW033 15/09 Q1011 NOSIG=
200912051530 METAR LMML NIL=
200912051515 METAR LMML 051515Z 32017KT 290V350 9999 FEW033 15/10 Q1011
                        NOSIG=
200912051500 METAR LMML NIL=
200912051445 METAR LMML 051445Z 32017KT 9999 FEW035 16/09 Q1011 NOSIG=
200912051430 METAR LMML NIL=
200912051415 METAR LMML 051415Z 31018KT 9999 FEW030 16/10 Q1010 NOSIG=
200912051400 METAR LMML NIL=
200912051345 METAR LMML 051345Z 31022G32KT 9999 FEW029 16/10 Q1010 NOSIG=
200912051330 METAR LMML NIL=
200912051315 METAR LMML 051315Z 30021KT 9999 SCT024 16/11 Q1009 NOSIG=
200912051300 METAR LMML NIL=
200912051245 METAR LMML 051245Z 30022G32KT 9999 FEW027 15/10 Q1010 NOSIG=
200912051215 METAR LMML 051215Z 30023G36KT 260V330 9999 SCT026 SCT060
                        16/10 Q1009 NOSIG=
200912051200 METAR LMML NIL=
200912051145 METAR LMML 051145Z 30021G31KT 270V330 9999 FEW028 16/09 Q1009
                        NOSIG RMK CB TO NORTH=
200912051130 METAR LMML NIL=
200912051115 METAR LMML 051115Z 30023G34KT 270V330 9999 FEW028 16/10 Q1009
                        NOSIG=
200912051100 METAR LMML NIL=
200912051045 METAR LMML 051045Z 30019KT 270V330 9999 FEW024 16/12 Q1009
                        NOSIG=
200912051015 METAR LMML 051015Z 31019KT 280V340 9999 FEW028 16/10 Q1009
                        NOSIG=
200912050945 METAR LMML 050945Z 31020KT 9999 FEW031 16/10 Q1010 NOSIG=
200912050930 METAR LMML NIL=
200912050915 METAR LMML 050915Z 30022KT 9999 FEW035 16/08 Q1009 NOSIG=
200912050900 METAR LMML NIL=
200912050845 METAR LMML 050845Z 30019KT 260V330 9999 FEW034 15/10 Q1009
                        NOSIG=
200912050815 METAR LMML 050815Z 31023KT 280V340 9999 -SHRA SCT036 15/10
                        Q1009 NOSIG=
200912050745 METAR LMML 050745Z 30020KT 270V330 9999 FEW039 15/08 Q1008
                        NOSIG=
200912050730 METAR LMML NIL=
200912050715 METAR LMML 050715Z 30018KT 260V320 9999 SCT040 15/08 Q1008
                        NOSIG=
200912050645 METAR LMML 050645Z 30020KT 270V330 9999 SCT040 15/06 Q1008
                        NOSIG=
200912050615 METAR LMML 050615Z 29022KT 250V320 9999 FEW041 15/07 Q1008
                        NOSIG=
200912050600 METAR LMML NIL=
200912050545 METAR LMML 050545Z 29021G33KT 260V320 9999 SCT038 15/08 Q1008
                        NOSIG=
200912050515 METAR LMML 050515Z 29020KT 9999 SCT025 15/09 Q1008 NOSIG=
200912050500 METAR LMML NIL=
200912050445 METAR LMML 050445Z 29021KT 9999 -SHRA SCT025 15/08 Q1008
                        NOSIG=
200912050430 METAR LMML NIL=
200912050415 METAR LMML 050415Z 29021G32KT 260V320 9999 SCT038 15/09 Q1008
                        NOSIG=
200912050400 METAR LMML NIL=
200912050345 METAR LMML 050345Z 28021G38KT 240V300 9999 -SHRA BKN030 13/10
                        Q1008 RESHRA TEMPO 7000 SHRA=
200912050330 METAR LMML NIL=
200912050315 METAR LMML 050315Z 29021G34KT 260V320 9999 -SHRA BKN025 14/11
                        Q1008 RETS RESHRA TEMPO 7000 SHRA=
200912050300 METAR LMML NIL=
200912050245 METAR LMML 050245Z 29023G35KT 260V320 9000 SHRA FEW024CB
                        BKN029 14/12 Q1009 RETS NOSIG=
200912050230 METAR LMML NIL=
200912050215 METAR LMML 050215Z 28021KT 240V310 9999 TS FEW022CB BKN028
                        16/11 Q1008 TEMPO 7000 SHRA=
200912050200 METAR LMML NIL=
200912050145 METAR LMML 050145Z 26022G32KT 220V300 9999 BKN022 16/13 Q1008
                        TEMPO 7000 SHRA=
200912050130 METAR LMML NIL=
200912050115 METAR LMML 050115Z 26022KT 220V300 9999 SCT025 16/13 Q1008
                        TEMPO 7000 SHRA=
200912050045 METAR LMML 050045Z 26018G28KT 230V300 9999 SCT023 SCT050
                        16/12 Q1008 TEMPO 7000 SHRA=
200912050030 METAR LMML NIL=
200912050015 METAR LMML 050015Z 27019KT 240V300 9999 SHRA SCT029 SCT040
                        16/12 Q1008 TEMPO 7000=
200912042345 METAR LMML 042345Z 27016KT 240V300 9999 FEW029CB SCT035 16/12
                        Q1009 TEMPO 7000 SHRA RMK LIGHTNING
                        TO NW=
200912042315 METAR LMML 042315Z 28008KT 230V320 9999 SCT028 SCT050 15/13
                        Q1009 TEMPO 7000 SHRA=
200912042300 METAR LMML NIL=
200912042245 METAR LMML 042245Z 28013G23KT 230V340 9999 SCT023 SCT070
                        15/14 Q1010 TEMPO 7000 SHRA=
200912042215 METAR LMML 042215Z 29010KT 260V320 9999 SCT024 15/13 Q1010
                        TEMPO 7000 SHRA=
200912042200 METAR LMML NIL=
200912042145 METAR LMML 042145Z 29011KT 9999 FEW026 15/12 Q1010 TEMPO
                        7000 SHRA=
200912042130 METAR LMML NIL=
200912042115 METAR LMML 042115Z 28018KT 250V310 9999 FEW026 SCT050 14/13
                        Q1010 TEMPO 7000 SHRA=
200912042045 METAR LMML 042045Z 30015KT 270V330 9999 FEW030 BKN250 16/11
                        Q1010 TEMPO 7000 SHRA=
200912042030 METAR LMML NIL=
200912042015 METAR LMML 042015Z 30012KT 270V330 9999 FEW030 15/11 Q1010
                        TEMPO 7000 SHRA=
200912042000 METAR LMML NIL=
200912041945 METAR LMML 041945Z 31013KT 260V330 9999 FEW031 15/11 Q1010
                        TEMPO 7000 SHRA=
200912041930 METAR LMML NIL=
200912041915 METAR LMML 041915Z 30017G27KT 250V320 9999 FEW035 16/10 Q1010
                        NOSIG=
200912041900 METAR LMML NIL=
200912041845 METAR LMML 041845Z 30017KT 9999 FEW033 15/10 Q1010 NOSIG=
200912041830 METAR LMML NIL=
200912041815 METAR LMML 041815Z 30018KT 9999 FEW033 16/10 Q1009 NOSIG=
200912041745 METAR LMML 041745Z 30015KT 9999 FEW033 SCT060 15/10 Q1009
                        TEMPO 8000 SHRA BKN018=
200912041715 METAR LMML 041715Z 30015KT 270V330 9999 FEW035 SCT060 15/11
                        Q1009 TEMPO 8000 SHRA BKN018=
200912041645 METAR LMML 041645Z 30015KT 9999 SCT035 15/12 Q1008 TEMPO
                        8000 SHRA BKN018=
200912041630 METAR LMML NIL=
200912041615 METAR LMML 041615Z 29015KT 9999 FEW026 15/12 Q1008 TEMPO
                        8000 SHRA BKN018=
200912041600 METAR LMML NIL=
200912041545 METAR LMML 041545Z 29012KT 270V330 9999 FEW020 15/13 Q1008
                        TEMPO 8000 SHRA BKN018=
200912041530 METAR LMML NIL=
200912041515 METAR LMML 041515Z 30016KT 270V330 9999 SCT020TCU 15/13 Q1008
                        TEMPO 8000 SHRA BKN018=
200912041445 METAR LMML 041445Z 28011KT 9999 BKN019 15/14 Q1008 TEMPO
                        8000 SHRA BKN018=
200912041415 METAR LMML 041415Z 29009KT 9999 SCT019 BKN110 16/15 Q1008
                        NOSIG=
200912041345 METAR LMML 041345Z 30009KT 9999 -SHRA SCT018 BKN110 15/14
                        Q1008 RERA NOSIG=
200912041330 METAR LMML NIL=
200912041315 METAR LMML 041315Z 28011KT 250V320 9999 FEW020 SCT080 BKN120
                        14/14 Q1008 RERA NOSIG=
200912041300 METAR LMML NIL=
200912041245 METAR LMML 041245Z 29014KT 7000 -RA FEW004 SCT013 OVC060
                        14/14 Q1008 TEMPO 3000 RA SCT008
                        BKN018=
200912041230 METAR LMML NIL=
200912041215 METAR LMML 041215Z 27006KT 240V300 5000 RA SCT008 BKN025
                        OVC060 14/14 Q1008 TEMPO 5000 RA
                        FEW008 BKN018=
200912041145 METAR LMML 041145Z 23010KT 200V280 7000 RA FEW009 SCT010
                        OVC060 14/14 Q1008 TEMPO 5000 RA
                        FEW008 BKN018=
200912041115 METAR LMML 041115Z 24006KT 200V290 9000 RA FEW014 SCT024
                        OVC060 14/14 Q1009 TEMPO 5000 RA
                        FEW008 BKN018=
200912041045 METAR LMML 041045Z 26007KT 220V300 9000 -RA FEW016 SCT024
                        OVC060 14/14 Q1009 TEMPO 5000 RA
                        FEW008 BKN018=
200912041030 METAR LMML NIL=
200912041015 METAR LMML 041015Z 27007KT 230V310 9000 -RA FEW012 SCT024
                        BKN060 14/14 Q1009 TEMPO 3000 TSRA
                        FEW008 BKN015CB=
200912041000 METAR LMML NIL=
200912040945 METAR LMML 040945Z 28010KT 250V310 4000 RA SCT011 SCT027
                        OVC050 14/14 Q1010 TEMPO 3000 TSRA
                        FEW008 BKN015CB=
200912040930 METAR LMML NIL=
200912040915 METAR LMML 040915Z 23013KT 180V270 4000 RA FEW009 BKN016
                        OVC050 14/14 Q1010 TEMPO 3000 TSRA
                        FEW008 BKN015CB=
200912040900 METAR LMML NIL=
200912040845 METAR LMML 040845Z 21014G25KT 170V260 4000 RA FEW009 SCT014
                        BKN050 14/14 Q1009 TEMPO 3000 TSRA
                        FEW008 BKN015CB=
200912040830 METAR LMML NIL=
200912040815 METAR LMML 040815Z 21010KT 160V250 6000 -RA FEW015 SCT040
                        OVC050 15/13 Q1010 TEMPO 3000 TSRA
                        FEW008 BKN015CB=
200912040800 METAR LMML NIL=
200912040745 METAR LMML 040745Z 21010KT 170V260 9999 FEW014 SCT040 OVC120
                        15/14 Q1009 TEMPO 3000 TSRA FEW008
                        BKN015CB=
200912040730 METAR LMML NIL=
200912040715 METAR LMML 040715Z 22011G23KT 170V260 9000 -RA SCT015 OVC050
                        15/13 Q1010 TEMPO 3000 RA FEW006
                        SCT015 BKN030=
200912040700 METAR LMML NIL=
200912040645 METAR LMML 040645Z 21013KT 180V240 4500 RA FEW008 SCT039
                        OVC050 15/12 Q1009 TEMPO 3000 RA
                        SCT015 BKN030=
200912040630 METAR LMML NIL=
200912040615 METAR LMML 040615Z 23014KT 200V270 9000 -RA SCT038 SCT050
                        BKN080 16/10 Q1010 TEMPO 5000 RA
                        SCT015 BKN030=
200912040600 METAR LMML NIL=
200912040545 METAR LMML 040545Z 22009KT 190V250 9999 FEW039 BKN090 17/09
                        Q1009 NOSIG=
200912040530 METAR LMML NIL=
200912040515 METAR LMML 040515Z 22010KT 180V250 9999 FEW036 BKN100 17/09
                        Q1009 NOSIG=
200912040500 METAR LMML NIL=
200912040445 METAR LMML 040445Z 22010KT 200V260 9999 FEW035 BKN120 17/09
                        Q1010 NOSIG=
200912040430 METAR LMML NIL=
200912040415 METAR LMML 040415Z 23010KT 200V260 9999 FEW035 BKN120 17/09
                        Q1010 NOSIG=
200912040400 METAR LMML NIL=
200912040345 METAR LMML 040345Z 23009KT 200V270 9999 FEW036 SCT049 BKN120
                        17/09 Q1010 NOSIG=
200912040315 METAR LMML 040315Z 23009KT 200V260 9999 SCT035 BKN120 17/09
                        Q1011 NOSIG=
200912040300 METAR LMML NIL=
200912040245 METAR LMML 040245Z 21008KT 170V260 9999 SCT036 BKN120 17/10
                        Q1011 NOSIG=
200912040230 METAR LMML NIL=
200912040215 METAR LMML 040215Z 21007KT 170V260 9999 FEW035 BKN120 16/10
                        Q1011 NOSIG=
200912040200 METAR LMML NIL=
200912040145 METAR LMML 040145Z 22007KT 180V260 9999 SCT036 16/09 Q1012
                        NOSIG=
200912040130 METAR LMML NIL=
200912040115 METAR LMML 040115Z 22007KT 180V260 9999 SCT034 16/09 Q1012
                        NOSIG=
200912040045 METAR LMML 040045Z 22008KT 190V270 9999 SCT033 16/10 Q1013
                        NOSIG=
200912040030 METAR LMML NIL=
200912040015 METAR LMML 040015Z 23007KT 200V280 9999 FEW031 16/10 Q1013
                        NOSIG=
200912040000 METAR LMML NIL=
200912032345 METAR LMML 032345Z 22007KT 190V260 9999 SCT033 16/10 Q1013
                        NOSIG=
200912032330 METAR LMML NIL=
200912032315 METAR LMML 032315Z 22008KT 190V260 9999 SCT036 16/10 Q1013
                        NOSIG=
200912032300 METAR LMML NIL=
200912032245 METAR LMML 032245Z 23008KT 180V270 9999 SCT035 16/09 Q1013
                        NOSIG=
200912032230 METAR LMML NIL=
200912032215 METAR LMML 032215Z 23007KT 170V270 9999 SCT032 16/10 Q1014
                        NOSIG=
200912032200 METAR LMML NIL=
200912032145 METAR LMML 032145Z 23008KT 200V280 9999 FEW033 16/10 Q1014
                        NOSIG=
200912032130 METAR LMML NIL=
200912032115 METAR LMML 032115Z 24008KT 200V280 9999 FEW033 16/09 Q1014
                        NOSIG=
200912032100 METAR LMML NIL=
200912032045 METAR LMML 032045Z 23007KT 210V280 9999 FEW035 16/10 Q1014
                        NOSIG=
200912032030 METAR LMML NIL=
200912032015 METAR LMML 032015Z 23007KT 200V270 9999 FEW033 16/09 Q1014
                        NOSIG=
200912032000 METAR LMML NIL=
200912031945 METAR LMML 031945Z 23007KT 200V280 9999 FEW034 16/09 Q1015
                        NOSIG=
200912031930 METAR LMML NIL=
200912031915 METAR LMML 031915Z 23005KT 200V260 9999 FEW037 15/09 Q1015
                        NOSIG=
200912031900 METAR LMML NIL=
200912031845 METAR LMML 031845Z 24004KT 210V280 9999 FEW038 15/09 Q1015
                        NOSIG=
200912031830 METAR LMML NIL=
200912031815 METAR LMML 031815Z 24004KT 210V270 9999 FEW035 15/09 Q1015
                        NOSIG=
200912031800 METAR LMML NIL=
200912031745 METAR LMML 031745Z 24004KT 9999 FEW034 14/09 Q1015 NOSIG=
200912031730 METAR LMML NIL=
200912031715 METAR LMML 031715Z 24005KT 220V280 9999 FEW034 14/08 Q1015
                        NOSIG=
200912031700 METAR LMML NIL=
200912031645 METAR LMML 031645Z 26004KT 230V300 9999 SCT034 15/09 Q1015
                        NOSIG=
200912031630 METAR LMML NIL=
200912031615 METAR LMML 031615Z VRB03KT 9999 SCT033 15/09 Q1015 NOSIG=
200912031600 METAR LMML NIL=
200912031545 METAR LMML 031545Z VRB03KT 9999 FEW034 15/08 Q1015 NOSIG=
200912031530 METAR LMML NIL=
200912031515 METAR LMML 031515Z 28007KT 240V320 9999 FEW035 16/08 Q1015
                        NOSIG=
200912031500 METAR LMML NIL=
200912031445 METAR LMML 031445Z 28009KT 240V300 9999 FEW037 16/07 Q1015
                        NOSIG=
200912031430 METAR LMML NIL=
200912031415 METAR LMML 031415Z 27008KT 220V310 9999 FEW037 16/07 Q1015
                        NOSIG=
200912031400 METAR LMML NIL=
200912031345 METAR LMML 031345Z 28009KT 230V300 9999 FEW039 17/07 Q1015
                        NOSIG=
200912031330 METAR LMML NIL=
200912031315 METAR LMML 031315Z 28010KT 240V310 9999 FEW038 17/07 Q1015
                        NOSIG=
200912031300 METAR LMML NIL=
200912031245 METAR LMML 031245Z 28011KT 200V320 9999 FEW038 17/08 Q1015
                        NOSIG=
200912031230 METAR LMML NIL=
200912031215 METAR LMML 031215Z 28009KT 240V320 9999 FEW037 17/07 Q1015
                        NOSIG=
200912031200 METAR LMML NIL=
200912031145 METAR LMML 031145Z 28011KT 240V320 9999 FEW038 17/07 Q1015
                        NOSIG=
200912031130 METAR LMML NIL=
200912031115 METAR LMML 031115Z 28011KT 220V310 9999 FEW000 17/07 Q1016
                        NOSIG=
200912031045 METAR LMML 031045Z 27009KT 220V300 9999 FEW038 17/08 Q1016
                        NOSIG=
200912031030 METAR LMML NIL=
200912031015 METAR LMML 031015Z 28012KT 240V300 9999 FEW038 17/08 Q1017
                        NOSIG=
200912031000 METAR LMML NIL=
200912030945 METAR LMML 030945Z 28013KT 250V310 9999 FEW030 17/08 Q1017
                        NOSIG=
200912030930 METAR LMML NIL=
200912030915 METAR LMML 030915Z 29013KT 240V310 9999 FEW030 17/09 Q1017
                        NOSIG=
200912030900 METAR LMML NIL=
200912030845 METAR LMML 030845Z 28012KT 9999 FEW040 17/08 Q1017 NOSIG=
200912030830 METAR LMML NIL=
200912030815 METAR LMML 030815Z 29011KT 9999 FEW040 16/08 Q1017 NOSIG=
200912030745 METAR LMML 030745Z 29011KT 250V310 9999 SCT040 16/09 Q1017
                        NOSIG=
200912030730 METAR LMML NIL=
200912030715 METAR LMML 030715Z 28012KT 250V310 9999 SCT030 16/09 Q1017
                        NOSIG=
200912030700 METAR LMML NIL=
200912030645 METAR LMML 030645Z 29011KT 9999 SCT030 15/10 Q1017 NOSIG=
200912030615 METAR LMML 030615Z 29006KT 9999 SCT030 14/10 Q1016 NOSIG=
200912030545 METAR LMML 030545Z 30006KT 9999 SCT030 13/09 Q1016 NOSIG=
200912030530 METAR LMML NIL=
200912030515 METAR LMML 030515Z 30007KT 9999 FEW031 13/09 Q1016 NOSIG=
200912030500 METAR LMML NIL=
200912030445 METAR LMML 030445Z 30007KT 9999 FEW031 13/09 Q1016 NOSIG=
200912030430 METAR LMML NIL=
200912030415 METAR LMML 030415Z 30008KT 9999 FEW031 13/08 Q1016 NOSIG=
200912030400 METAR LMML NIL=
200912030345 METAR LMML 030345Z 30008KT 9999 FEW025 13/08 Q1016 NOSIG=
200912030330 METAR LMML NIL=
200912030315 METAR LMML 030315Z 30008KT 9999 FEW025 13/08 Q1016 NOSIG=
200912030300 METAR LMML NIL=
200912030245 METAR LMML 030245Z 31008KT 9999 FEW025 13/08 Q1016 NOSIG=
200912030230 METAR LMML NIL=
200912030215 METAR LMML 030215Z 31010KT 9999 FEW030 14/08 Q1016 NOSIG=
200912030200 METAR LMML NIL=
200912030145 METAR LMML 030145Z 30010KT 9999 FEW030 14/08 Q1016 NOSIG=
200912030130 METAR LMML NIL=
200912030115 METAR LMML 030115Z 31011KT 9999 FEW030 14/08 Q1016 NOSIG=
200912030100 METAR LMML NIL=
200912030045 METAR LMML 030045Z 31009KT 9999 FEW030 14/07 Q1016 NOSIG=
200912030030 METAR LMML NIL=
200912030015 METAR LMML 030015Z 31010KT 9999 FEW030 14/07 Q1016 NOSIG=
200912030000 METAR LMML NIL=
200912022345 METAR LMML 022345Z 31014KT 9999 FEW037 14/07 Q1016 NOSIG=
200912022330 METAR LMML NIL=
200912022315 METAR LMML 022315Z 30012KT 280V340 9999 FEW037 14/07 Q1016
                        NOSIG=
200912022245 METAR LMML 022245Z 30012KT 9999 FEW037 14/09 Q1016 NOSIG=
200912022230 METAR LMML NIL=
200912022215 METAR LMML 022215Z 31014KT 9999 FEW030 14/08 Q1016 NOSIG=
200912022200 METAR LMML NIL=
200912022145 METAR LMML 022145Z 30011KT 9999 FEW030 14/09 Q1016 NOSIG=
200912022130 METAR LMML NIL=
200912022115 METAR LMML 022115Z 31011KT 9999 FEW030 14/09 Q1016 NOSIG=
200912022100 METAR LMML NIL=
200912022045 METAR LMML 022045Z 30011KT 9999 SCT028 14/09 Q1016 NOSIG=
200912022030 METAR LMML NIL=
200912022015 METAR LMML 022015Z 31011KT 9999 SCT028 15/10 Q1016 NOSIG=
200912022000 METAR LMML NIL=
200912021945 METAR LMML 021945Z 30011KT 9999 SCT028 SCT050 15/10 Q1016
                        NOSIG=
200912021930 METAR LMML NIL=
200912021915 METAR LMML 021915Z 30012KT 9999 FEW027 14/09 Q1016 NOSIG=
200912021845 METAR LMML 021845Z 30010KT 270V330 9999 FEW030 14/09 Q1015
                        NOSIG=
200912021830 METAR LMML NIL=
200912021815 METAR LMML 021815Z 30012KT 9999 FEW038 14/08 Q1015 NOSIG=
200912021800 METAR LMML NIL=
200912021745 METAR LMML 021745Z 30014KT 9999 FEW040 15/07 Q1015 NOSIG=
200912021730 METAR LMML NIL=
200912021715 METAR LMML 021715Z 31014KT 9999 FEW035 15/08 Q1014 NOSIG=
200912021700 METAR LMML NIL=
200912021645 METAR LMML 021645Z 31012KT 9999 FEW034 14/09 Q1014 NOSIG=
200912021630 METAR LMML NIL=
200912021615 METAR LMML 021615Z 31015KT 9999 FEW035 14/08 Q1014 NOSIG=
200912021600 METAR LMML NIL=
200912021545 METAR LMML 021545Z 31018KT 9999 FEW035 15/07 Q1014 NOSIG=
200912021530 METAR LMML NIL=
200912021515 METAR LMML 021515Z 30018KT 9999 FEW035 15/07 Q1014 NOSIG=
200912021500 METAR LMML NIL=
200912021445 METAR LMML 021445Z 30014KT 9999 FEW035 15/08 Q1013 NOSIG=
200912021430 METAR LMML NIL=
200912021415 METAR LMML 021415Z 30021KT 9999 FEW035 16/08 Q1013 NOSIG=
200912021400 METAR LMML NIL=
200912021345 METAR LMML 021345Z 30019KT 9999 FEW035 16/08 Q1013 NOSIG=
200912021330 METAR LMML NIL=
200912021315 METAR LMML 021315Z 31022KT 9999 SCT035 16/09 Q1013 NOSIG=
200912021300 METAR LMML NIL=
200912021245 METAR LMML 021245Z 31020KT 9999 SCT035 15/08 Q1013 TEMPO
                        8000 SHRA=
200912021230 METAR LMML NIL=
200912021215 METAR LMML 021215Z 31022KT 9999 FEW037 15/08 Q1013 NOSIG=
200912021200 METAR LMML NIL=
200912021145 METAR LMML 021145Z 31019KT 9999 FEW034 15/11 Q1013 NOSIG=
200912021115 METAR LMML 021115Z 30023KT 9999 SCT037 17/07 Q1013 NOSIG=
200912021100 METAR LMML NIL=
200912021045 METAR LMML 021045Z 31022KT 9999 SCT035 16/08 Q1013 NOSIG=
200912021030 METAR LMML NIL=
200912021015 METAR LMML 021015Z 31016KT 9999 SCT034 16/10 Q1013 NOSIG=
200912021000 METAR LMML NIL=
200912020945 METAR LMML 020945Z 30017KT 270V330 9999 SCT035 16/09 Q1013
                        NOSIG=
200912020930 METAR LMML NIL=
200912020915 METAR LMML 020915Z 30014KT 9999 BKN039 15/09 Q1013 TEMPO
                        8000 SHRA BKN020TCU=
200912020900 METAR LMML NIL=
200912020845 METAR LMML 020845Z 31017KT 9999 SCT032TCU 15/10 Q1013 TEMPO
                        8000 SHRA BKN020TCU=
200912020830 METAR LMML NIL=
200912020815 METAR LMML 020815Z 31016KT 9999 SCT035TCU 15/09 Q1013 TEMPO
                        8000 SHRA BKN020TCU=
200912020800 METAR LMML NIL=
200912020745 METAR LMML 020745Z 31017KT 9999 -SHRA FEW025CB SCT034 15/10
                        Q1013 TEMPO 5000 TSRA BKN015CB=
200912020730 METAR LMML NIL=
200912020715 METAR LMML 020715Z 31012KT 9999 FEW025CB SCT034 14/10 Q1013
                        TEMPO 5000 TSRA BKN015CB=
200912020700 METAR LMML NIL=
200912020645 METAR LMML 020645Z 30010KT 270V330 9999 FEW025CB SCT034 13/10
                        Q1012 TEMPO 5000 TSRA BKN015CB=
200912020630 METAR LMML NIL=
200912020615 METAR LMML 020615Z 32008KT 9999 FEW025CB BKN034 12/11 Q1012
                        TEMPO 5000 TSRA BKN015CB=
200912020600 METAR LMML NIL=
200912020545 METAR LMML 020545Z 30011KT 270V330 9999 SCT031TCU SCT080
                        13/10 Q1012 TEMPO 5000 TSRA BKN015CB
                        RMK LIGHTNING TO NORTHEAST=
200912020530 METAR LMML NIL=
200912020515 METAR LMML 020515Z 30009G22KT 9999 -SHRA SCT030TCU SCT100
                        13/10 Q1011 TEMPO 5000 TSRA BKN015CB=
200912020500 METAR LMML NIL=
200912020445 METAR LMML 020445Z 31012KT 9999 FEW030 13/09 Q1011 TEMPO
                        5000 TSRA BKN015CB=
200912020430 METAR LMML NIL=
200912020415 METAR LMML 020415Z 30011KT 9999 FEW030 13/09 Q1011 TEMPO
                        8000 SHRA BKN015=
200912020345 METAR LMML 020345Z 30012KT 9999 FEW030 13/10 Q1011 TEMPO
                        5000 TSRA BKN015CB=
200912020330 METAR LMML NIL=
200912020315 METAR LMML 020315Z 30013KT 260V320 9999 FEW030 13/10 Q1011
                        TEMPO 5000 TSRA BKN015CB=
200912020300 METAR LMML NIL=
200912020245 METAR LMML 020245Z 30009KT 9999 FEW030 12/10 Q1010 TEMPO
                        5000 TSRA BKN015CB=
200912020230 METAR LMML NIL=
200912020215 METAR LMML 020215Z 31012KT 9999 FEW031 12/10 Q1010 TEMPO
                        5000 TSRA BKN015CB=
200912020200 METAR LMML NIL=
200912020145 METAR LMML 020145Z 29010KT 260V320 9000 -SHRA BKN021 13/11
                        Q1011 TEMPO 5000 TSRA BKN015CB=
200912020115 METAR LMML 020115Z 30011KT 9999 -RA FEW031 BKN100 12/11 Q1010
                        TEMPO 5000 TSRA BKN015CB=
200912020100 METAR LMML NIL=
200912020045 METAR LMML 020045Z 31010KT 9999 SCT031 12/11 Q1010 TEMPO
                        5000 TSRA BKN015CB=
200912020015 METAR LMML 020015Z 32010KT 9999 -SHRA BKN031 12/11 Q1010
                        TEMPO 5000 TSRA BKN015CB=
200912020000 METAR LMML NIL=
200912012345 METAR LMML 012345Z 33013KT 9999 -TSRA FEW016CB BKN031 12/10
                        Q1010 TEMPO 5000 TSRA BKN015CB=
200912012330 METAR LMML NIL=
200912012315 METAR LMML 012315Z 28012KT 250V310 9999 -TSRA FEW016CB BKN036
                        12/10 Q1010 TEMPO 5000 TSRA BKN015CB=
200912012245 METAR LMML 012245Z 25014KT 210V290 9999 -TSRA FEW016CB BKN020
                        12/12 Q1010 TEMPO 5000 TSRA BKN015CB=
200912012230 METAR LMML NIL=
200912012215 METAR LMML 012215Z 26013KT 230V290 9999 -RA FEW025 BKN100
                        12/10 Q1010 TEMPO 5000 TSRA BKN015CB
                        RMK LIGHTNING TO NW=
200912012200 METAR LMML NIL=
200912012145 METAR LMML 012145Z 26017KT 220V300 9999 -SHRA FEW025 BKN100
                        12/09 Q1010 TEMPO 5000 TSRA BKN015CB
                        RMK LIGHTNING TO SE=
200912012130 METAR LMML NIL=
200912012115 METAR LMML 012115Z 27019KT 240V310 9999 -SHRA FEW036TCU BKN100
                        14/09 Q1010 TEMPO 5000 TSRA BKN015CB
                        RMK LIGHTNING TO W=
200912012100 METAR LMML NIL=
200912012045 METAR LMML 012045Z 27012KT 240V320 9999 SCT030TCU SCT080
                        14/08 Q1010 TEMPO 5000 TSRA BKN015CB
                        RMK LIGHTNING TO EASTNORTHEAST=
200912012030 METAR LMML NIL=
200912012015 METAR LMML 012015Z 28010KT 240V310 9999 SCT030TCU 14/09 Q1010
                        TEMPO 5000 TSRA BKN015CB RMK LIGHTNING
                        TO NORTHEAST=
200912012000 METAR LMML NIL=
200912011945 METAR LMML 011945Z 28011KT 250V310 9999 SCT030TCU 14/09 Q1010
                        TEMPO 5000 TSRA BKN015CB RMK LIGHTNING
                        TO NORTHEAST=
200912011930 METAR LMML NIL=
200912011915 METAR COR LMML 011915Z 27010KT 230V300 9999 SCT030TCU 14/07
                        Q1010 TEMPO 5000 TSRA BKN015CB RMK
                        LIGHTNING TO NORTH=
200912011900 METAR LMML NIL=
200912011845 METAR LMML 011845Z 26011KT 210V280 9000 -SHRA SCT025CB 14/08
                        Q1010 TEMPO 5000 TSRA BKN015CB=
200912011830 METAR LMML NIL=
200912011815 METAR LMML 011815Z 27008KT 220V300 9999 SCT035 15/05 Q1010
                        TEMPO 5000 TSRA BKN015CB=
200912011800 METAR LMML NIL=
200912011745 METAR LMML 011745Z 27011KT 240V310 9999 FEW030 SCT250 15/04
                        Q1010 TEMPO 8000 SHRA BKN015=
200912011730 METAR LMML NIL=
200912011715 METAR LMML 011715Z 28008KT 240V310 9999 FEW030 SCT250 15/06
                        Q1010 TEMPO 8000 SHRA BKN015=
200912011700 METAR LMML NIL=
200912011645 METAR LMML 011645Z 28007KT 250V310 9999 FEW035 SCT250 15/05
                        Q1010 TEMPO 8000 SHRA BKN015=
200912011630 METAR LMML NIL=
200912011615 METAR LMML 011615Z 28009KT 9999 SCT035 SCT250 15/05 Q1010
                        TEMPO 8000 SHRA BKN015=
200912011600 METAR LMML NIL=
200912011545 METAR COR LMML 011545Z 28011KT 9999 SCT030 SCT250 15/06 Q1010
                        TEMPO 8000 SHRA BKN015 RMK CB TOP
                        TO SE=
200912011530 METAR LMML NIL=
200912011515 METAR LMML 011515Z 29011KT 260V320 9999 FEW025CB SCT031 16/07
                        Q1009 TEMPO 5000 TSRA BKN015CB=
200912011500 METAR LMML NIL=
200912011445 METAR LMML 011445Z 30012KT 260V330 9999 -SHRA FEW028CB SCT037
                        16/08 Q1010 TEMPO 5000 TSRA BKN015CB=
200912011430 METAR LMML NIL=
200912011415 METAR LMML 011415Z 29011KT 250V320 9999 FEW036 SCT250 16/08
                        Q1010 TEMPO 8000 SHRA BKN015TCU=
200912011400 METAR LMML NIL=
200912011345 METAR LMML 011345Z 27009KT 220V320 9999 SCT039 17/07 Q1010
                        NOSIG=
200912011330 METAR LMML NIL=
200912011315 METAR LMML 011315Z 27008KT 220V310 9999 SCT039 17/08 Q1010
                        NOSIG=
200912011300 METAR LMML NIL=
200912011245 METAR LMML 011245Z 28009KT 220V320 9999 SCT038 17/08 Q1010
                        NOSIG=
200912011230 METAR LMML NIL=
200912011215 METAR LMML 011215Z 28009KT 230V300 9999 FEW036 SCT120 17/08
                        Q1010 NOSIG=
200912011200 METAR LMML NIL=
200912011145 METAR LMML 011145Z 28010KT 240V320 9999 FEW035 BKN120 17/08
                        Q1010 NOSIG=
200912011130 METAR LMML NIL=
200912011115 METAR LMML 011115Z 27008KT 220V300 9999 FEW025 SCT044 BKN120
                        17/08 Q1010 NOSIG=
200912011100 METAR LMML NIL=
200912011045 METAR LMML 011045Z 27011KT 240V310 9999 FEW025 SCT039 BKN120
                        17/08 Q1011 NOSIG=
200912011030 METAR LMML NIL=
200912011015 METAR LMML 011015Z 26010KT 190V300 9999 FEW025 BKN120 17/08
                        Q1011 NOSIG=
200912011000 METAR LMML NIL=
200912010945 METAR LMML 010945Z 26009KT 220V300 9999 FEW018 SCT090 BKN120
                        16/09 Q1011 NOSIG=
200912010930 METAR LMML NIL=
200912010915 METAR LMML 010915Z 27009KT 230V300 9999 FEW018 SCT090 BKN110
                        16/09 Q1011 NOSIG=
200912010900 METAR LMML NIL=
200912010845 METAR LMML 010845Z 26005KT 220V290 9999 FEW018 BKN100 16/10
                        Q1011 NOSIG=
200912010830 METAR LMML NIL=
200912010815 METAR LMML 010815Z 28007KT 240V320 9999 FEW018 BKN120 16/10
                        Q1011 NOSIG=
200912010800 METAR LMML NIL=
200912010745 METAR LMML 010745Z 29006KT 250V320 9999 FEW018 BKN120 16/11
                        Q1010 NOSIG=
200912010730 METAR LMML NIL=
200912010715 METAR LMML 010715Z 29006KT 9999 FEW018 BKN120 16/11 Q1010
                        NOSIG=
200912010700 METAR LMML NIL=
200912010645 METAR LMML 010645Z 29007KT 9999 FEW015 BKN120 16/12 Q1010
                        NOSIG=
200912010630 METAR LMML NIL=
200912010615 METAR LMML 010615Z 30009KT 9999 FEW014 BKN120 16/12 Q1010
                        NOSIG=
200912010600 METAR LMML NIL=
200912010545 METAR LMML 010545Z 31010KT 9999 FEW014 BKN110 16/13 Q1009
                        NOSIG=
200912010530 METAR LMML NIL=
200912010515 METAR LMML 010515Z 31009KT 9999 FEW014 SCT120 BKN250 15/14
                        Q1009 NOSIG=
200912010500 METAR LMML NIL=
200912010445 METAR LMML 010445Z 31008KT 9999 FEW014 SCT120 16/15 Q1009
                        NOSIG=
200912010430 METAR LMML NIL=
200912010415 METAR LMML 010415Z 31007KT CAVOK 16/15 Q1008 NOSIG=
200912010400 METAR LMML NIL=
200912010345 METAR LMML 010345Z 28009KT CAVOK 17/15 Q1008 NOSIG=
200912010330 METAR LMML NIL=
200912010315 METAR LMML 010315Z 25007KT 210V290 CAVOK 18/11 Q1008 NOSIG=
200912010300 METAR LMML NIL=
200912010245 METAR LMML 010245Z 23010KT 200V290 CAVOK 19/12 Q1008 NOSIG=
200912010230 METAR LMML NIL=
200912010215 METAR LMML 010215Z 22008KT 190V250 CAVOK 19/13 Q1008 NOSIG=
200912010200 METAR LMML NIL=
200912010145 METAR LMML 010145Z 22008KT 180V270 9999 SCT000 19/13 Q1008
                        NOSIG=
200912010130 METAR LMML NIL=
200912010115 METAR LMML 010115Z 22008KT 190V260 CAVOK 19/15 Q1008 NOSIG=
200912010100 METAR LMML NIL=
200912010045 METAR LMML 010045Z 21007KT 170V250 CAVOK 19/18 Q1008 NOSIG=
200912010015 METAR LMML 010015Z 20008KT 150V230 CAVOK 19/18 Q1008 NOSIG=

###################################
#  short TAF from LMML
###################################
200912312300 TAF LMML 312300Z 0100/0109 25018KT CAVOK
                      PROB30 TEMPO 0100/0103 26020G30KT 9999 FEW012
                       BECMG 0102/0105 25008KT
                      TEMPO 0103/0109 9999 FEW015=
200912312000 TAF LMML 312000Z 3121/0106 23018KT CAVOK
                      PROB30 TEMPO 3121/0103 26022G32KT 9999 FEW012
                       BECMG 0102/0105 24008KT=
200912311700 TAF LMML 311700Z 3118/0103 21018KT CAVOK=
200912311400 TAF LMML 311400Z 3115/3124 22016KT CAVOK=
200912311100 TAF LMML 311100Z 3112/3121 22012KT CAVOK=
200912310800 TAF LMML 310800Z 3109/3118 22012KT CAVOK=
200912310500 TAF LMML 310500Z 3106/3115 22014KT CAVOK
                      PROB30 TEMPO 3109/3115 9999 FEW015=
200912310200 TAF LMML 310200Z 3103/3112 22013KT CAVOK
                      PROB30 TEMPO 3106/3112 9999 FEW015=
200912302300 TAF LMML 302300Z 3100/3109 22014KT CAVOK=
200912302000 TAF LMML 302000Z 3021/3106 23014KT CAVOK=
200912301700 TAF LMML 301700Z 3018/3103 24010KT CAVOK=
200912301400 TAF LMML 301400Z 3015/3024 24010KT CAVOK=
200912301100 TAF LMML 301100Z 3012/3021 24012KT CAVOK=
200912300800 TAF LMML 300800Z 3009/3018 24010KT CAVOK=
200912300500 TAF LMML 300500Z 3006/3015 24009KT CAVOK=
200912300200 TAF LMML 300200Z 3003/3012 25008KT CAVOK=
200912292300 TAF LMML 292300Z 3000/3009 25008KT CAVOK=
200912292000 TAF LMML 292000Z 2921/3006 26008KT CAVOK=
200912291700 TAF LMML 291700Z 2918/3003 26007KT CAVOK=
200912291400 TAF LMML 291400Z 2915/2924 26007KT CAVOK=
200912291100 TAF LMML 291100Z 2912/2921 27008KT CAVOK=
200912290800 TAF LMML 290800Z 2909/2918 26010KT CAVOK=
200912290500 TAF LMML 290500Z 2906/2915 25010KT CAVOK=
200912290200 TAF LMML 290200Z 2903/2912 25010KT CAVOK=
200912282300 TAF LMML 282300Z 2900/2909 24010KT CAVOK=
200912282000 TAF LMML 282000Z 2821/2906 24010KT CAVOK=
200912281700 TAF LMML 281700Z 2818/2903 23011KT 9999 FEW018=
200912281400 TAF LMML 281400Z 2815/2824 25011KT 9999 FEW025=
200912281100 TAF LMML 281100Z 2812/2821 29017KT 9999 FEW020
                      BECMG 2815/2818 23010KT=
200912280800 TAF LMML 280800Z 2809/2818 30013KT 9999 FEW020
                      BECMG 2814/2817 23011KT=
200912280500 TAF LMML 280500Z 2806/2815 33018KT 9999 FEW018
                      BECMG 2808/2811 27014KT=
200912280200 TAF LMML 280200Z 2803/2812 28016KT 9999 SCT016
                      TEMPO 2803/2807 30020G30KT
                      PROB30 TEMPO 2803/2809 BKN013=
200912272300 TAF LMML 272300Z 2800/2809 30018KT 9999 SCT016
                      TEMPO 2800/2807 30020G30KT
                      PROB30 TEMPO 2803/2809 BKN013=
200912272000 TAF LMML 272000Z 2721/2806 31020G30KT 9999 SCT020
                      PROB30 TEMPO 2721/2724 8000 RA BKN015=
200912271700 TAF LMML 271700Z 2718/2803 30018G28KT 9999 SCT020
                      PROB30 TEMPO 2718/2724 6000 RA BKN015=
200912271400 TAF LMML 271400Z 2715/2724 30018G28KT 9999 SCT020
                      PROB40 TEMPO 2715/2724 8000 SHRA BKN015
                      PROB30 TEMPO 2715/2724 5000 TSRA BKN015CB=
200912271100 TAF LMML 271100Z 2712/2721 30018G28KT 9999 SCT020
                      PROB30 TEMPO 2715/2724 8000 SHRA BKN015=
200912270800 TAF LMML 270800Z 2709/2718 21006KT 9999 FEW025
                      BECMG 2711/2714 30018G28KT
                      PROB30 TEMPO 2715/2718 8000 SHRA=
200912270500 TAF LMML 270500Z 2706/2715 20005KT CAVOK
                      TEMPO 2706/2715 8000 RA FEW015 BKN090 BKN200
                       BECMG 2712/2715 30015KT 9999 SCT020
                      PROB30 TEMPO 2712/2715 5000 TSRA BKN015CB=
200912270200 TAF LMML 270200Z 2703/2712 VRB04KT CAVOK
                      PROB30 TEMPO 2703/2712 8000 RA SCT011 BKN090=
200912262300 TAF LMML 262300Z 2700/2709 VRB03KT CAVOK
                      TEMPO 2700/2709 8000 RA FEW011 BKN090 BKN180=
200912262000 TAF LMML 262000Z 2621/2706 25010KT CAVOK
                      TEMPO 2700/2706 8000 RA SCT015 BKN100 OVC200=
200912261700 TAF LMML 261700Z 2618/2703 25010KT CAVOK
                      PROB40 TEMPO 2621/2703 7000 RA BKN007
                      BECMG 2623/2702 VRB03KT=
200912261400 TAF LMML 261400Z 2615/2624 25012KT CAVOK
                      PROB30 TEMPO 2621/2624 8000 RA BKN008=
200912261100 TAF LMML 261100Z 2612/2621 19012KT CAVOK
                      BECMG 2615/2618 25012KT=
200912260800 TAF LMML 260800Z 2609/2618 19010KT CAVOK
                      BECMG 2614/2617 25013KT=
200912260500 TAF LMML 260500Z 2606/2615 VRB03KT CAVOK
                      BECMG 2612/215 20013KT=
200912260200 TAF LMML 260200Z 2603/2612 VRB03KT CAVOK=
200912252300 TAF LMML 252300Z 2600/2609 VRB03KT CAVOK=
200912252000 TAF LMML 252000Z 2521/2606 VRB03KT CAVOK=
200912251700 TAF LMML 251700Z 2518/2603 24005KT CAVOK=
200912251400 TAF LMML 251400Z 2515/2524 25011KT CAVOK=
200912251100 TAF LMML 251100Z 2512/2521 24012KT 9000=
200912250800 TAF LMML 250800Z 2509/2518 23012KT CAVOK=
200912250500 TAF LMML 250500Z 2506/2515 23010KT CAVOK=
200912250200 TAF LMML 250200Z 2503/2512 21010KT CAVOK=
200912242300 TAF LMML 242300Z 2500/2509 20010KT CAVOK=
200912242000 TAF LMML 242000Z 2421/2506 20010KT CAVOK=
200912241700 TAF LMML 241700Z 2418/2503 20008KT CAVOK=
200912241400 TAF LMML 241400Z 2415/2424 21010KT CAVOK=
200912241100 TAF LMML 241100Z 2412/2421 21013KT CAVOK=
200912240800 TAF LMML 240800Z 2409/2418 21013KT CAVOK=
200912240500 TAF LMML 240500Z 2406/2415 21012KT CAVOK
                      PROB30 TEMPO 2406/2407 9000 NSC=
200912240200 TAF LMML 240200Z 2403/2412 20013KT CAVOK
                      PROB30 TEMPO 2403/2407 9000 NSC=
200912232300 TAF LMML 232300Z 2400/2409 20013KT CAVOK
                      PROB30 TEMPO 2400/2407 9000 NSC=
200912232000 TAF LMML 232000Z 2321/2406 19013KT CAVOK
                      PROB30 TEMPO 2321/2406 9000 NSC=
200912231700 TAF LMML 231700Z 2318/2403 18010KT CAVOK
                      PROB40 TEMPO 2318/2403 9000 NSC=
200912231400 TAF LMML 231400Z 2315/2324 18010KT CAVOK
                      TEMPO 2315/2324 9000 NSC=
200912231100 TAF LMML 231100Z 2312/2321 26010KT CAVOK
                      TEMPO 2312/2321 9000 NSC
                      BECMG 2315/2318 18008KT=
200912230800 TAF LMML 230800Z 2309/2318 24007KT 9000 NSC
                      BECMG 2315/2318 18010KT=
200912230500 TAF LMML 230500Z 2306/2315 21010KT 8000 NSC=
200912230200 TAF LMML 230200Z 2303/2312 20010KT CAVOK
                      PROB30 TEMPO 2303/2312 9000 NSC=
200912222300 TAF LMML 222300Z 2300/2309 19015KT CAVOK
                      PROB30 TEMPO 2300/2309 9000 NSC=
200912222000 TAF LMML 222000Z 2221/2306 20010KT CAVOK
                      PROB30 TEMPO 2300/2306 9000 NSC=
200912221700 TAF LMML 221700Z 2218/2303 19013KT CAVOK
                      PROB30 TEMPO 2221/2303 9000 NSC=
200912221400 TAF LMML 221400Z 2215/2224 20014KT CAVOK
                      TEMPO 2215/2218 9999 FEW015=
200912221100 TAF LMML 221100Z 2212/2221 20014KT 9999 FEW015
                      TEMPO 2212/2221 CAVOK=
200912220800 TAF LMML 220800Z 2209/2218 20014KT 9999 FEW018
                      TEMPO 2209/2218 CAVOK=
200912220500 TAF LMML 220500Z 2206/2215 18012KT 9999 FEW025
                      TEMPO 2208/2215 CAVOK=
200912220200 TAF LMML 220200Z 2203/2212 18012KT 9999 FEW030
                      TEMPO 2208/2212 CAVOK=
200912212300 TAF LMML 212300Z 2200/2209 18012KT 9999 FEW030=
200912212000 TAF LMML 212000Z 2121/2206 18012KT 9999 SCT030=
200912211700 TAF LMML 211700Z 2118/2203 20010KT 9999 SCT030
                      BECMG 2200/2203 17013G23KT=
200912211400 TAF LMML 211400Z 2115/2124 23010KT 9999 SCT040
                      BECMG 2121/2124 17012KT=
200912211100 TAF LMML 211100Z 2112/2121 24007KT 9999 SCT040
                      BECMG 2117/2120 17012KT=
200912210800 TAF LMML 210800Z 2109/2118 28006KT 9999 SCT040
                      BECMG 2115/2118 18010KT=
200912210500 TAF LMML 210500Z 2106/2115 29006KT 9999 FEW040=
200912210200 TAF LMML 210200Z 2103/2112 29008KT 9999 FEW040=
200912202300 TAF LMML 202300Z 2100/2109 29010KT 9999 FEW040=
200912202000 TAF LMML 202000Z 2021/2106 29010KT 9999 FEW040=
200912201700 TAF LMML 201700Z 2018/2103 29018KT 9999 SCT025 SCT060
                      TEMPO 2018/2021 29020G30KT
                      PROB30 TEMPO 2018/2024 8000 SHRA
                      BECMG 2100/2103 30008KT=
200912201400 TAF LMML 201400Z 2015/2024 29017KT 9999 SCT025
                      TEMPO 2015/2021 29020G30KT 8000 SHRA BKN015
                       PROB30
                      TEMPO 2015/2018 3000 TSRA BKN015CB=
200912201100 TAF LMML 201100Z 2012/2021 30017KT 9999 SCT025 SCT100
                      TEMPO 2012/2021 29020G30KT 8000 SHRA BKN015
                       BKN080=
200912200800 TAF LMML 200800Z 2009/2018 31018KT 9999 FEW020 SCT060 BKN100
                      PROB30 TEMPO 2009/2011 8000 RA
                      TEMPO 2011/2018 29022G33KT 8000 SHRA BKN015
                       SCT100=
200912200500 TAF LMML 200500Z 2006/2015 31018KT CAVOK
                      TEMPO 2006/2015 9999 FEW020
                      PROB30 TEMPO 2006/2015 9000 RA=
200912200200 TAF LMML 200200Z 2003/2012 31018KT 9999 FEW020
                      PROB40 TEMPO 2003/2012 30018G28KT
                      PROB30 TEMPO 2008/2012 9000 SHRA SCT020TCU=
200912192300 TAF LMML 192300Z 2000/2009 31015KT 9999 FEW013
                      TEMPO 2000/2004 BKN008=
200912192000 TAF LMML 192000Z 1921/2006 24010KT CAVOK
                      BECMG 1921/1924 30015KT 9999 FEW018
                      PROB30 TEMPO 1921/2003 BKN015=
200912191700 TAF LMML 191700Z 1918/2003 24015KT CAVOK
                      BECMG 1918/1921 30015KT FEW018=
200912191400 TAF LMML 191400Z 1915/1924 24015KT CAVOK
                      TEMPO 1918/1924 FEW015
                      BECMG 1918/1921 30015KT=
200912191100 TAF LMML 191100Z 1912/1921 23015KT CAVOK
                      TEMPO 1912/1921 9999 FEW015=
200912190800 TAF LMML 190800Z 1909/1918 23017KT CAVOK
                      PROB40 TEMPO 1912/1918 9999 FEW015=
200912190500 TAF LMML 190500Z 1906/1915 20017KT 9999 FEW020 SCT120
                      BECMG 1912/1915 26016KT=
200912190200 TAF LMML 190200Z 1903/1912 17017KT 9999 FEW015 SCT080
                      BECMG 1904/1907 23018KT
                      PROB30 TEMPO 1906/1912 9000=
200912182300 TAF LMML 182300Z 1900/1909 17010KT CAVOK
                      BECMG 1900/1903 20020KT 9999 SCT020 SCT100
                       PROB30
                      TEMPO 1900/1906 8000 RA
                      TEMPO 1903/1909 22020G30KT=
200912182000 TAF LMML 182000Z 1821/1906 24006KT CAVOK
                      BECMG 1821/1824 18010KT 9999 SCT020 SCT100
                       PROB30
                      TEMPO 1823/1906 8000 RA BKN015 BKN070
                      BECMG 1900/1903 19020KT
                      TEMPO 1902/1906 20020G30KT=
200912181700 TAF LMML 181700Z 1818/1903 27010KT 9999 FEW020
                      BECMG 1822/1901 18017KT=
200912181400 TAF LMML 181400Z 1815/1824 28015KT 9999 FEW025
                      BECMG 1821/1824 18011KT=
200912181100 TAF LMML 181100Z 1812/1821 29018G28KT 9999 FEW025
                      BECMG 1814/1817 28015KT=
200912180800 TAF LMML 180800Z 1809/1818 30018KT 9999 FEW030=
200912180500 TAF LMML 180500Z 1806/1815 30018KT 9999 FEW030 SCT060
                      PROB30 TEMPO 1806/1809 SHRA=
200912180200 TAF LMML 180200Z 1803/1812 27008KT CAVOK
                      PROB30 TEMPO 1803/1812 SHRA BKN030
                      BECMG 1806/1809 31018KT=
200912172300 TAF LMML 172300Z 1800/1809 24010KT CAVOK
                      PROB30 TEMPO 1800/1806 SHRA
                      BECMG 1803/1806 30018KT=
200912172000 TAF LMML 172000Z 1721/1806 24012KT 9999 FEW030
                      PROB30 TEMPO 1721/1806 SHRA BKN025 1803/1806
                       30018KT=
200912171700 TAF LMML 171700Z 1718/1803 24012KT 9999 FEW025 SCT060
                      PROB30 TEMPO 1720/1803 8000 SHRA BKN015=
200912171400 TAF LMML 171400Z 1715/1724 24015G25KT 9999 FEW025 SCT070
                      PROB30 TEMPO 1716/1724 8000 SHRA BKN015 BKN060
                       BECMG 1715/1718 24015KT=
200912171100 TAF LMML 171100Z 1712/1721 24015G25KT 9999 FEW025 SCT060
                      PROB30 TEMPO 1718/1721 8000 SHRA BKN015=
200912170800 TAF LMML 170800Z 1709/1718 24015KT 9999 FEW025 BKN070
                      TEMPO 1709/1715 24018/G28KT=
200912170500 TAF LMML 170500Z 1706/1715 26018KT 9999 FEW022
                      PROB40 TEMPO 1706/1715 26018G28KT=
200912170200 TAF LMML 170200Z 1703/1712 26017KT 9999 FEW020
                      PROB30 TEMPO 1706/1712 26015G25KT=
200912162300 TAF LMML 162300Z 1700/1709 26015KT 9999 FEW020
                      PROB30 TEMPO 1706/1709 26015G25KT=
200912162000 TAF LMML 162000Z 1621/1706 28015KT 9999 SCT030=
200912161700 TAF LMML 161700Z 1618/1703 30018KT 9999 SCT025
                      TEMPO 1618/1621 28018G28KT
                      PROB30 TEMPO 1621/1703 8000 SHRA
                      BECMG 1700/1703 24015KT=
200912161400 TAF LMML 161400Z 1615/1624 29020KT 9999 SCT025
                      TEMPO 1615/1621 30025G35KT
                      PROB30 TEMPO 1615/1624 8000 SHRA BKN015=
200912161100 TAF LMML 161100Z 1612/1621 29018KT 9999 SCT025
                      TEMPO 1612/1618 30020G30KT 8000 SHRA BKN015
                       PROB30
                      TEMPO 1612/1615 3000 TSRA BKN015CB=
200912160800 TAF LMML NIL=
200912160500 TAF LMML 160500Z 1606/1615 30018G30KT 9999 SCT025
                      TEMPO 1606/1615 8000 SHRA BKN018TCU=
200912160200 TAF LMML 160200Z 1603/1612 30018G33KT 9999 SCT025
                      TEMPO 1603/1612 7000 SHRA=
200912152300 TAF LMML 152300Z 1600/1609 30018G33KT 9999 SCT030
                      TEMPO 1600/1609 7000 SHRA=
200912152000 TAF LMML 152000Z 1521/1606 30020G35KT 9999 SCT030
                      TEMPO 1521/1606 7000 SHRA
                      PROB30 TEMPO 1521/1604 4000 TSRA BKN015CB=
200912151700 TAF LMML 151700Z 1518/1603 24014KT 9999 SCT030
                      TEMPO 1518/1521 25015G25KT 8000 SHRA
                      PROB30 TEMPO 1518/1603 3000 TSRA BKN018CB
                       BECMG 1518/1521 30017KT
                      TEMPO 1521/1603 28018G28KT 8000 SHRA=
200912151400 TAF LMML 151400Z 1515/1524 23016KT 9999 SCT025
                      TEMPO 1515/1518 25017G27KT 8000 SHRA
                      PROB30 TEMPO 1517/1524 3000 TSRA BKN015CB
                       BECMG 1517/1520 29017KT
                      TEMPO 1518/1524 28020G30KT 8000 SHRA BKN015=
200912151100 TAF LMML 151100Z 1512/1521 22015KT 9999 SCT025 BKN100
                      TEMPO 1512/1518 24018G28KT 8000 SHRA BKN015
                       BKN060
                      PROB30 TEMPO 1512/1515 3000 TSRA BKN015CB
                       BKN040
                      BECMG 1517/1520 28015KT
                      TEMPO 1518/1521 29018G28KT=
200912150800 TAF LMML 150800Z 1509/1518 23015KT 9999 FEW025 SCT100
                      TEMPO 1509/1508 25017G27KT 8000 SHRA BKN015
                       BKN080
                      PROB30 TEMPO 1509/1515 3000 TSRA BKN015CB
                       BKN050=
200912150500 TAF LMML 150500Z 1506/1515 25018KT 9999 FEW020
                      PROB40 TEMPO 1508/1515 8000 SHRA BKN018TCU
                       PROB30
                      TEMPO 1509/1515 5000 TSRA BKN015CB=
200912150200 TAF LMML 150200Z 1503/1512 25018KT 9999 FEW025
                      PROB40 TEMPO 1508/1512 8000 SHRA BKN020TCU
                       PROB30
                      TEMPO 1509/1512 5000 TSRA BKN015CB=
200912142300 TAF LMML 142300Z 1500/1509 24018KT 9999 SCT025
                      PROB30 TEMPO 1500/1509 8000 SHRA BKN020TCU=
200912142000 TAF LMML 142000Z 1421/1506 24016KT 9999 FEW025
                      PROB40 TEMPO 1421/1506 8000 RA SCT040
                      PROB30 TEMPO 1421/1504 5000 TSRA BKN015CB=
200912141700 TAF LMML 141700Z 1418/1503 23017KT 9999 SCT020
                      PROB40 TEMPO 1418/1503 7000 SHRA BKN015
                      PROB30 TEMPO 1418/1503 5000 TSRA BKN015CB=
200912141400 TAF LMML 141400Z 1415/1424 21017KT 9999 FEW014
                      TEMPO 1418/1424 7000 SHRA BKN014
                      TEMPO 1418/1424 5000 TSRA BKN010=
200912141100 TAF LMML 141100Z 1412/1421 15017KT 9999 FEW014
                      PROB30 TEMPO 1412/1421 BKN013
                      BECMG 1415/1418 24017KT=
200912140800 TAF LMML 140800Z 1409/1418 13017KT 9999 SCT014
                      TEMPO 1409/1418 BKN013=
200912140500 TAF LMML 140500Z 1406/1415 13016KT 9999 FEW030 BKN120=
200912140200 TAF LMML 140200Z 1403/1412 13015KT 9999 FEW025 SCT120=
200912132300 TAF LMML 132300Z 1400/1409 01015KT 9999 SCT020 SCT100=
200912132000 TAF LMML 132000Z 1321/1406 14012KT 9999 SCT035 SCT045
                      PROB30 TEMPO 1321/1406 5000 SHRA=
200912131700 TAF LMML 131700Z 1318/1403 15012KT 9999 SCT025 SCT100 BKN200=
200912131400 TAF LMML 131400Z 1315/1324 16010KT 9999 SCT025 SCT200=
200912131100 TAF LMML 131100Z 1312/1321 15011KT 9999 SCT025 SCT200=
200912130800 TAF LMML 130800Z 1309/1318 16010KT 9999 FEW030=
200912130500 TAF LMML 130500Z 1306/1318 19006KT 9999 FEW030 SCT060=
200912130200 TAF LMML 130200Z 1303/1312 24004KT 9999 SCT035=
200912122300 TAF LMML 122300Z 1300/1309 26004KT 9999 FEW035=
200912122000 TAF LMML 122000Z 1221/1306 28005KT 9999 FEW040=
200912121700 TAF LMML 121700Z 1218/1303 29010KT 9999 SCT030
                      BECMG 1300/1303 25003KT=
200912121400 TAF LMML 121400Z 1215/1224 30013KT 9999 SCT030=
200912121100 TAF LMML 121100Z 1212/1221 30015KT 9999 FEW030
                      PROB30 TEMPO 1212/1215 SHRA=
200912120800 TAF LMML 120800Z 1209/1218 30014KT 9999 FEW035
                      PROB30 TEMPO 1209/1212 SHRA=
200912120500 TAF LMML 120500Z 1206/1215 30017KT 9999 SCT025
                      PROB30 TEMPO 1206/1209 31020G30KT 8000 SHRA
                       BKN015=
200912120200 TAF LMML 120200Z 1203/1212 28017KT 9999 SCT020 BKN060
                      TEMPO 1203/1209 29020G30KT 8000 SHRA BKN015
                       BKN040=
200912112300 TAF LMML 112300Z 1200/1209 28017KT 9999 SCT020 BKN070
                      TEMPO 1200/1209 29020G30KT 8000 SHRA BKN015
                       BKN050
                      PROB30 TEMPO 1200/1206 3000 SHRA BKN013 BKN040=
200912112000 TAF LMML 112000Z 1121/1206 28015KT 9999 SCT020 BKN050
                      TEMPO 1121/1206 28020G30KT 8000 SHRA BKN015
                       BKN040
                      PROB30 TEMPO 1121/1206 3000 SHRA BKN013 BKN040=
200912111700 TAF LMML 111700Z 1118/1203 29015KT 9999 SCT025 BKN045
                      PROB40 TEMPO 1118/1203 8000 SHRA=
200912111400 TAF LMML 111400Z 1115/1124 29015KT 9999 SCT025
                      PROB40 TEMPO 1118/1124 8000 SHRA=
200912111100 TAF LMML 111100Z 1112/1121 30013KT 9999 FEW030=
200912110800 TAF LMML 110800Z 1109/1118 32015KT 9999 FEW030=
200912110500 TAF LMML 110500Z 1106/1115 31012KT 9999 SCT030=
200912110200 TAF LMML 110200Z 1103/1112 31010KT 9999 FEW030=
200912102300 TAF LMML 102300Z 1100/1109 32010KT 9999 SCT030 SCT050=
200912102000 TAF LMML 102000Z 1021/1106 33010KT 9999 SCT030 SCT050=
200912101700 TAF LMML 101700Z 1018/1103 34010KT 9999 FEW027=
200912101400 TAF LMML 101400Z 1015/1024 34014KT 9999 SCT033=
200912101100 TAF LMML 101100Z 1012/1021 33017KT 9999 SCT035=
200912100800 TAF LMML 100800Z 1009/1018 32015KT 9999 FEW035=
200912100500 TAF LMML 100500Z 1006/1015 32015KT 9999 FEW035=
200912100200 TAF LMML 100200Z 1003/1012 30012KT 9999 FEW030
                      PROB40 TEMPO 1003/1012 CAVOK=
200912092300 TAF LMML 092300Z 1000/1009 30012KT 9999 FEW030
                      PROB40 TEMPO 1000/1009 CAVOK=
200912092000 TAF LMML 092000Z 0921/1006 30012KT 9999 FEW025
                      PROB40 TEMPO 0921/1006 CAVOK=
200912091700 TAF LMML 091700Z 0918/1003 30014KT 9999 SCT020
                      PROB30 TEMPO 0918/0921 31015G25KT
                      TEMPO 0921/1003 CAVOK=
200912091400 TAF LMML 091400Z 0915/0924 29018KT 9999 SCT020 SCT050
                      PROB30 TEMPO 0915/0921 30020G30KT=
200912091100 TAF LMML 091100Z 0912/0921 29020KT 9999 SCT025 SCT050
                      TEMPO 0912/0921 30023G34KT=
200912090800 TAF LMML 090800Z 0909/0918 29017KT 9999 SCT025
                      TEMPO 0909/0918 30018G28KT=
200912090500 TAF LMML 090500Z 0906/0915 30018KT 9999 SCT020=
200912090200 TAF LMML 090200Z 0903/0912 30018KT 9999 SCT020=
200912082300 TAF LMML 082300Z 0900/0909 29015KT 9999 SCT020=
200912082000 TAF LMML 082000Z 0821/0906 29015KT 9999 SCT020=
200912081700 TAF LMML 081700Z 0818/0903 29013KT 9999 SCT014
                      PROB40 TEMPO 0820/0903 BKN010=
200912081400 TAF LMML 081400Z 0815/0824 29013KT 9999 FEW018
                      PROB30 TEMPO 0821/0824 BKN013=
200912081100 TAF LMML 081100Z 0812/0821 28012KT 9999 FEW020=
200912080800 TAF LMML 080800Z 0809/0818 26008KT 9999 FEW018=
200912080500 TAF LMML 080500Z 0806/0815 25008KT 9999 SCT025=
200912080200 TAF LMML 080200Z 0803/0812 23005KT 9999 FEW020=
200912072300 TAF LMML 072300Z 0800/0809 25004KT 9999 FEW020
                      TEMPO 0800/0806 CAVOK
                      PROB30 TEMPO 0800/0806 9000 NSC=
200912072000 TAF LMML 072000Z 0721/0806 26004KT 9999 FEW020
                      TEMPO 0721/0806 CAVOK
                      PROB30 TEMPO 0800/0806 9000 NSC=
200912071700 TAF LMML 071700Z 0718/0803 27005KT 9999 FEW025=
200912071400 TAF LMML 071400Z 0715/0724 30008KT 9999 FEW025=
200912071100 TAF LMML 071100Z 0712/0721 30008KT 9999 SCT025=
200912070800 TAF LMML 070800Z 0709/0718 29008KT 9999 SCT025=
200912070500 TAF LMML 070500Z 0706/0715 28008KT 9999 SCT020=
200912070200 TAF LMML 070200Z 0703/0712 27005KT 9999 FEW025=
200912062300 TAF LMML 062300Z 0700/0709 27005KT 9999 FEW025=
200912062000 TAF LMML 062000Z 0621/0706 26004KT CAVOK
                      TEMPO 0621/0706 9999 FEW025=
200912061700 TAF LMML 061700Z 0618/0703 28005KT 9999 FEW020=
200912061400 TAF LMML 061400Z 0615/0624 30008KT 9999 FEW025=
200912061100 TAF LMML 061100Z 0612/0621 31009KT 9999 FEW025=
200912060800 TAF LMML 060800Z 0609/0618 32008KT 9999 FEW025=
200912060500 TAF LMML 060500Z 0606/0615 30010KT 9999 FEW030=
200912060200 TAF LMML 060200Z 0603/0612 30010KT 9999 FEW030=
200912052300 TAF LMML 052300Z 0600/0609 30007KT 9999 FEW030=
200912052000 TAF LMML 052000Z 0521/0606 32015KT 9999 FEW030=
200912051700 TAF LMML 051700Z 0518/0603 32015KT 9999 SCT025=
200912051400 TAF LMML 051400Z 0515/0524 31020G30KT 9999 SCT025
                      BECMG 0516/0519 32015KT=
200912051100 TAF LMML 051100Z 0512/0521 31020G30KT 9999 SCT030
                      BECMG 0515/0518 32015KT=
200912050800 TAF LMML 050800Z 0509/0518 31020G30KT 9999 SCT030
                      BECMG 0515/0518 33015KT=
200912050500 TAF LMML 050500Z 0506/0515 29022G35KT 9999 SCT020
                      PROB30 TEMPO 0506/0509 9000 SHRA=
200912050200 TAF LMML 050200Z 0503/0512 29022G35KT 9999 SCT020 SCT050
                      TEMPO 0503/0509 7000 SHRA
                      PROB30 TEMPO 0503/0506 5000 TSRA BKN015CB=
200912042300 TAF LMML 042300Z 0500/0509 29022G35KT 9999 SCT020 SCT050
                      TEMPO 0500/0509 7000 SHRA
                      PROB30 TEMPO 0500/0506 5000 TSRA BKN015CB=
200912042000 TAF LMML 042000Z 0421/0506 29022G35KT 9999 SCT020 SCT050
                      TEMPO 0421/0506 7000 SHRA BKN018TCU
                      PROB40 TEMPO 0421/0506 4000 TSRA BKN015CB=
200912041700 TAF LMML 041700Z 0418/0503 30020G30KT 9999 FEW030
                      TEMPO 0418/0503 6000 SHRA BKN018
                      PROB30 TEMPO 0421/0503 5000 TSRA BKN015CB=
200912041400 TAF LMML 041400Z 0415/0424 30020G30KT 9999 FEW030
                      PROB30 TEMPO 0415/0424 6000 SHRA BKNO18
                      PROB40 TEMPO 0421/0424 5000 TSRA BKN015CB=
200912041100 TAF LMML 041100Z 0412/0421 30020G30KT 9999 SCT025
                      TEMPO 0412/0415 3000 RA FEW008 BKN020=
200912040800 TAF LMML 040800Z 0409/0418 23018KT 9999 SCT025
                      TEMPO 0409/0412 6000 RA BKN030
                      PROB40 TEMPO 0409/0415 8000 SHRA BKN020
                      PROB30 TEMPO 0409/0415 5000 TSRA FEW008 BKN015CB
                       BECMG 0412/0415 30025KT=
200912040500 TAF LMML 040500Z 0406/0415 26015KT 9999 BKN025
                      TEMPO 0406/0415 8000 SHRA BKN015TCU
                      PROB40 TEMPO 0406/0415 3000 TSRAGS BKN013CB=
200912040200 TAF LMML 040200Z 0403/0412 25013KT 9999 BKN030
                      TEMPO 0404/0412 8000 SHRA BKN020TCU
                      PROB30 TEMPO 0406/0412 4000 TSRA BKN018CB=
200912032300 TAF LMML 032300Z 0400/0409 25012KT 9999 BKN030
                      TEMPO 0402/0409 8000 SHRA BKN020TCU
                      PROB30 TEMPO 0405/0409 4000 TSRA BKN018CB=
200912032000 TAF LMML 032000Z 0321/0406 24012KT 9999 BKN033
                      TEMPO 0403/0406 8000 SHRA
                      PROB30 TEMPO 0403/0406 4000 TSRA BKN030CB=
200912031700 TAF LMML 031700Z 0318/0403 25010KT 9999 SCT030=
200912031400 TAF LMML 031400Z 0315/0324 25010KT 9999 FEW030=
200912031100 TAF LMML 031100Z 0312/0321 26010KT 9999 FEW030=
200912030800 TAF LMML 030800Z 0309/0318 29010KT 9999 SCT030=
200912030500 TAF LMML 030500Z 0306/0315 30010KT 9999 SCT030=
200912030200 TAF LMML 030200Z 0303/0312 31010KT 9999 SCT030=
200912022300 TAF LMML 022300Z 0300/0309 31010KT 9999 SCT030=
200912022000 TAF LMML 022000Z 0221/0306 30010KT 9999 SCT030
                      PROB30 TEMPO 0221/0306 8000 SHRA BKN020=
200912021700 TAF LMML 021700Z 0218/0303 31015KT 9999 SCT030
                      PROB30 TEMPO 0218/0221 30018G28KT=
200912021400 TAF LMML 021400Z 0215/0224 30020KT 9999 SCT030
                      TEMPO 0215/0218 29023G34KT
                      PROB30 TEMPO 0215/0218 8000 SHRA BKN025TCU=
200912021100 TAF LMML 021100Z 0212/0221 29021KT 9999 SCT030
                      TEMPO 0212/0218 30023G34KT
                      PROB30 TEMPO 0212/0221 8000 SHRA BKN025TCU=
200912020800 TAF LMML 020800Z 0209/0218 30022KT 9999 SCT025
                      TEMPO 0209/0215 30022G32KT 8000 SHRA SCT023TCU
                       PROB30
                      TEMPO 0209/0211 5000 TSRA BKN023CB=
200912020500 TAF LMML 020500Z 0206/0215 30015KT 9999 FEW030
                      PROB40 TEMPO 0206/0209 8000 SHRA BKN015
                      BECMG 0210/0213 30025KT=
200912020200 TAF LMML 020200Z 0203/0212 30015KT 9999 SCT020
                      PROB40 0203/08 8000 SHRA BKN015=
200912012300 TAF LMML 012300Z 0200/0209 30015KT 9999 SCT020
                      PROB40 TEMPO 0200/0209 8000 SHRA BKN015=
200912012000 TAF LMML 012000Z 0121/0206 28010KT 9999 SCT020
                      TEMPO 0121/0206 8000 SHRA BKN015
                      PROB40 TEMPO 0121/0203 5000 TSRA BKN015CB=
200912011700 TAF LMML 011700Z 0118/0203 28012KT 9999 SCT020
                      TEMPO 0118/0203 8000 SHRA BKN015
                      PROB30 TEMPO 0118/0203 5000 TSGR BKN015CB=
200912011400 TAF LMML 011400Z 0115/0124 27014KT 9999 SCT020
                      TEMPO 0115/0124 8000 SHRA BKN015TCU
                      PROB30 TEMPO 0118/0124 5000 TSRA BKN015CB=
200912011100 TAF LMML 011100Z 0112/0121 25010KT 9999 SCT020
                      TEMPO 0112/0121 8000 SHRA BKN015 TCU
                      PROB30 TEMPO 0118/0121 5000 TSRA BKN015CB
                       BECMG 0118/0121 26020KT=
200912010800 TAF LMML 010800Z 0109/0118 27012KT 9999 SCT018 SCT120
                      TEMPO 0112/0118 8000 SHRA BKN015TCU
                      PROB30 TEMPO 0115/0118 5000 TSRA BKN015CB=
200912010500 TAF LMML 010500Z 0106/0115 27013KT 9999 FEW025
                      PROB40 TEMPO 0106/0115 8000 SHRA=
200912010200 TAF LMML 010200Z 0103/0112 27013KT 9999 SCT020
                      TEMPO 0107/0112 8000 SHRA
                      PROB30 TEMPO 0109/0112 5000 TSRA BKN015CB=

###################################
#  large TAF from LMML
###################################
200912311700 TAF LMML NIL=
200912311100 TAF LMML NIL=
200912310500 TAF LMML NIL=
200912302300 TAF LMML NIL=
200912301700 TAF LMML NIL=
200912301100 TAF LMML NIL=
200912300500 TAF LMML NIL=
200912292300 TAF LMML NIL=
200912291700 TAF LMML NIL=
200912291100 TAF LMML NIL=
200912282300 TAF LMML NIL=
200912281700 TAF LMML NIL=
200912281100 TAF LMML NIL=
200912280500 TAF LMML NIL=
200912272300 TAF LMML NIL=
200912271700 TAF LMML NIL=
200912271100 TAF LMML NIL=
200912270500 TAF LMML NIL=
200912262300 TAF LMML NIL=
200912261700 TAF LMML NIL=
200912261100 TAF LMML NIL=
200912260500 TAF LMML NIL=
200912252300 TAF LMML NIL=
200912251700 TAF LMML NIL=
200912251100 TAF LMML NIL=
200912250500 TAF LMML NIL=
200912242300 TAF LMML NIL=
200912241700 TAF LMML NIL=
200912241100 TAF LMML NIL=
200912240500 TAF LMML NIL=
200912232300 TAF LMML NIL=
200912231700 TAF LMML NIL=
200912231100 TAF LMML NIL=
200912230500 TAF LMML NIL=
200912222300 TAF LMML NIL=
200912221700 TAF LMML NIL=
200912221100 TAF LMML NIL=
200912220500 TAF LMML NIL=
200912212300 TAF LMML NIL=
200912211700 TAF LMML NIL=
200912211100 TAF LMML NIL=
200912210500 TAF LMML NIL=
200912202300 TAF LMML NIL=
200912201700 TAF LMML NIL=
200912201100 TAF LMML NIL=
200912200500 TAF LMML NIL=
200912192300 TAF LMML NIL=
200912191700 TAF LMML NIL=
200912191100 TAF LMML NIL=
200912190500 TAF LMML NIL=
200912182300 TAF LMML NIL=
200912181700 TAF LMML NIL=
200912181100 TAF LMML NIL=
200912180500 TAF LMML NIL=
200912172300 TAF LMML NIL=
200912171700 TAF LMML NIL=
200912171100 TAF LMML NIL=
200912170500 TAF LMML NIL=
200912162300 TAF LMML NIL=
200912161700 TAF LMML NIL=
200912161100 TAF LMML NIL=
200912160500 TAF LMML NIL=
200912152300 TAF LMML NIL=
200912151700 TAF LMML NIL=
200912151100 TAF LMML NIL=
200912150500 TAF LMML NIL=
200912142300 TAF LMML NIL=
200912141700 TAF LMML NIL=
200912141100 TAF LMML NIL=
200912140500 TAF LMML NIL=
200912132300 TAF LMML NIL=
200912131700 TAF LMML NIL=
200912131100 TAF LMML NIL=
200912130500 TAF LMML 130500Z 1306/1318 19006KT 9999 FEW030 SCT060=
200912122300 TAF LMML NIL=
200912121700 TAF LMML NIL=
200912121100 TAF LMML NIL=
200912120500 TAF LMML NIL=
200912112300 TAF LMML NIL=
200912111700 TAF LMML NIL=
200912111100 TAF LMML NIL=
200912110500 TAF LMML NIL=
200912102300 TAF LMML NIL=
200912101700 TAF LMML NIL=
200912101100 TAF LMML NIL=
200912100500 TAF LMML NIL=
200912092300 TAF LMML NIL=
200912091700 TAF LMML NIL=
200912091100 TAF LMML NIL=
200912090500 TAF LMML NIL=
200912082300 TAF LMML NIL=
200912081700 TAF LMML NIL=
200912081100 TAF LMML NIL=
200912080500 TAF LMML NIL=
200912072300 TAF LMML NIL=
200912071700 TAF LMML NIL=
200912070500 TAF LMML NIL=
200912062300 TAF LMML NIL=
200912061700 TAF LMML NIL=
200912061100 TAF LMML NIL=
200912060500 TAF LMML NIL=
200912052300 TAF LMML NIL=
200912051700 TAF LMML NIL=
200912051100 TAF LMML NIL=
200912050500 TAF LMML NIL=
200912042300 TAF LMML NIL=
200912041700 TAF LMML NIL=
200912041100 TAF LMML NIL=
200912040500 TAF LMML NIL=
200912032300 TAF LMML NIL=
200912031700 TAF LMML NIL=
200912031100 TAF LMML NIL=
200912030500 TAF LMML NIL=
200912022300 TAF LMML NIL=
200912021700 TAF LMML NIL=
200912021100 TAF LMML NIL=
200912020500 TAF LMML NIL=
200912012300 TAF LMML NIL=
200912011700 TAF LMML NIL=
200912010500 TAF LMML NIL=
