##########################################################
# Query made at 01/18/2013 15:55:29 UTC
# Time interval: from 02/01/2010 00:00  to 03/03/2010 23:59  UTC
##########################################################

##########################################################
# LMML, Luqa (Malta)
# WMO index: 16597
# Latitude 35-51N. Longitude 014-29E. Altitude 91 m.
##########################################################

###################################
#  METAR/SPECI from LMML
###################################
201003032345 METAR LMML 032345Z 29004KT 210V350 9000 NSC 16/14 Q1006 TEMPO
                        28015KT=
201003032330 METAR LMML NIL=
201003032315 METAR LMML 032315Z 22008KT 180V270 9000 NSC 16/14 Q1006 TEMPO
                        28015KT=
201003032245 METAR LMML 032245Z 20011KT 160V260 9000 NSC 17/14 Q1006 NOSIG=
201003032230 METAR LMML NIL=
201003032215 METAR LMML 032215Z 20011KT 160V260 9000 NSC 16/14 Q1006 NOSIG=
201003032200 METAR LMML NIL=
201003032145 METAR LMML 032145Z 19012KT 160V230 9000 NSC 17/13 Q1006 NOSIG=
201003032130 METAR LMML NIL=
201003032115 METAR LMML 032115Z 18015KT 160V230 9000 NSC 16/13 Q1006 NOSIG=
201003032100 METAR LMML NIL=
201003032045 METAR LMML 032045Z 18015KT 150V220 9000 NSC 16/13 Q1007 NOSIG=
201003032030 METAR LMML NIL=
201003032015 METAR LMML 032015Z 18013KT 140V210 9000 NSC 16/13 Q1007 NOSIG=
201003032000 METAR LMML NIL=
201003031945 METAR LMML 031945Z 17014KT 140V200 9000 NSC 16/13 Q1007 NOSIG=
201003031930 METAR LMML NIL=
201003031915 METAR LMML 031915Z 17017KT 9000 NSC 16/13 Q1008 NOSIG=
201003031900 METAR LMML NIL=
201003031845 METAR LMML 031845Z 16017KT 130V190 9000 NSC 16/13 Q1008 NOSIG=
201003031830 METAR LMML NIL=
201003031815 METAR LMML 031815Z 15019G29KT 9000 NSC 16/12 Q1008 NOSIG=
201003031800 METAR LMML NIL=
201003031745 METAR LMML 031745Z 15017KT 110V180 9000 NSC 15/12 Q1009 TEMPO
                        8000 SCT005=
201003031730 METAR LMML NIL=
201003031715 METAR LMML 031715Z 14015KT 9000 NSC 15/13 Q1010 TEMPO 8000
                        SCT005=
201003031700 METAR LMML NIL=
201003031645 METAR LMML 031645Z 13016KT 9000 NSC 15/13 Q1010 TEMPO 8000
                        SCT005=
201003031630 METAR LMML NIL=
201003031615 METAR LMML 031615Z 13016KT 110V170 9999 FEW008 BKN120 BKN250
                        15/13 Q1011 NOSIG=
201003031600 METAR LMML NIL=
201003031545 METAR LMML 031545Z 13017KT 9999 FEW008 BKN120 BKN250 15/13
                        Q1012 NOSIG=
201003031530 METAR LMML NIL=
201003031515 METAR LMML 031515Z 13018KT 9999 FEW008 BKN120 BKN250 15/13
                        Q1012 NOSIG=
201003031500 METAR LMML NIL=
201003031445 METAR LMML 031445Z 13017KT 100V160 9999 SCT008 BKN120 BKN250
                        15/13 Q1013 NOSIG=
201003031430 METAR LMML NIL=
201003031415 METAR LMML 031415Z 14019KT 9999 SCT008 SCT120 BKN250 16/13
                        Q1013 NOSIG=
201003031400 METAR LMML NIL=
201003031345 METAR LMML 031345Z 14018KT 110V170 9999 FEW006 BKN120 BKN250
                        16/13 Q1013 NOSIG=
201003031330 METAR LMML NIL=
201003031315 METAR LMML 031315Z 14023KT 110V170 9999 BKN006 SCT120 SCT250
                        16/14 Q1013 NOSIG=
201003031300 METAR LMML NIL=
201003031245 METAR LMML 031245Z 13019KT 100V180 9999 BKN006 SCT120 BKN250
                        16/13 Q1014 NOSIG=
201003031230 METAR LMML NIL=
201003031215 METAR LMML 031215Z 13021KT 9999 BKN007 SCT120 BKN250 15/13
                        Q1015 NOSIG=
201003031200 METAR LMML NIL=
201003031145 METAR LMML 031145Z 12019KT 9999 SCT007 SCT120 BKN250 16/13
                        Q1016 NOSIG=
201003031130 METAR LMML NIL=
201003031115 METAR LMML 031115Z 12018KT 9999 FEW007 SCT120 BKN250 15/13
                        Q1016 NOSIG=
201003031100 METAR LMML NIL=
201003031045 METAR LMML 031045Z 12018KT 9999 FEW012 BKN150 BKN250 15/13
                        Q1017 NOSIG=
201003031030 METAR LMML NIL=
201003031015 METAR LMML 031015Z 11012KT 9999 FEW012 BKN120 BKN250 15/12
                        Q1018 NOSIG=
201003031000 METAR LMML NIL=
201003030945 METAR LMML 030945Z 12015KT 090V150 9999 SCT010 SCT120 BKN250
                        16/13 Q1019 NOSIG=
201003030930 METAR LMML NIL=
201003030915 METAR LMML 030915Z 10008KT 060V150 9999 SCT008 SCT120 BKN250
                        15/13 Q1019 NOSIG=
201003030900 METAR LMML NIL=
201003030845 METAR LMML 030845Z 13014KT 9999 SCT008 BKN120 BKN250 15/13
                        Q1019 NOSIG=
201003030830 METAR LMML NIL=
201003030815 METAR LMML 030815Z 12012KT 9999 BKN007 BKN250 15/13 Q1019
                        BECMG SCT008=
201003030800 METAR LMML NIL=
201003030745 METAR LMML 030745Z 12013KT 9000 BKN006 SCT130 BKN250 14/13
                        Q1019 BECMG SCT008=
201003030730 METAR LMML NIL=
201003030715 METAR LMML 030715Z 13012KT 9000 SCT007 SCT130 BKN250 14/13
                        Q1018 BECMG SCT008=
201003030700 METAR LMML NIL=
201003030645 METAR LMML 030645Z 11010KT 7000 BKN007 14/13 Q1019 BECMG
                        SCT008=
201003030630 METAR LMML NIL=
201003030615 METAR LMML 030615Z 11008KT 7000 BKN006 BKN250 14/13 Q1019
                        NOSIG=
201003030600 METAR LMML NIL=
201003030545 METAR LMML 030545Z 12009KT 9000 SCT007 BKN250 13/13 Q1018
                        NOSIG=
201003030530 METAR LMML NIL=
201003030515 METAR LMML 030515Z 09008KT 030V150 9999 BKN006 BKN250 13/13
                        Q1019 NOSIG=
201003030500 METAR LMML NIL=
201003030445 METAR LMML 030445Z 12009KT 9999 BKN004 BKN250 13/13 Q1019
                        TEMPO BKN003=
201003030430 METAR LMML NIL=
201003030415 METAR LMML 030415Z 11006KT 070V150 9999 SCT004 BKN250 13/12
                        Q1019 TEMPO BKN003=
201003030400 METAR LMML NIL=
201003030345 METAR LMML 030345Z 11008KT CAVOK 12/11 Q1019 NOSIG=
201003030330 METAR LMML NIL=
201003030315 METAR LMML 030315Z VRB02KT CAVOK 12/11 Q1021 NOSIG=
201003030300 METAR LMML NIL=
201003030245 METAR LMML 030245Z VRB01KT CAVOK 12/11 Q1020 NOSIG=
201003030230 METAR LMML NIL=
201003030215 METAR LMML 030215Z VRB03KT CAVOK 12/11 Q1019 NOSIG=
201003030200 METAR LMML NIL=
201003030145 METAR LMML 030145Z VRB02KT CAVOK 12/10 Q1019 NOSIG=
201003030130 METAR LMML NIL=
201003030115 METAR LMML 030115Z VRB02KT CAVOK 12/11 Q1020 NOSIG=
201003030100 METAR LMML NIL=
201003030045 METAR LMML 030045Z VRB03KT CAVOK 12/10 Q1021 NOSIG=
201003030030 METAR LMML NIL=
201003030015 METAR LMML 030015Z VRB03KT CAVOK 13/11 Q1021 NOSIG=
201003030000 METAR LMML NIL=
201003022345 METAR LMML 022345Z VRB03KT CAVOK 13/11 Q1021 NOSIG=
201003022330 METAR LMML NIL=
201003022315 METAR LMML 022315Z VRB02KT CAVOK 12/11 Q1021 NOSIG=
201003022300 METAR LMML NIL=
201003022245 METAR LMML 022245Z VRB01KT CAVOK 12/11 Q1021 NOSIG=
201003022230 METAR LMML NIL=
201003022215 METAR LMML 022215Z VRB02KT CAVOK 13/11 Q1022 NOSIG=
201003022200 METAR LMML NIL=
201003022145 METAR LMML 022145Z 32004KT CAVOK 13/11 Q1022 NOSIG=
201003022130 METAR LMML NIL=
201003022115 METAR LMML 022115Z 33004KT CAVOK 13/11 Q1022 NOSIG=
201003022100 METAR LMML NIL=
201003022045 METAR LMML 022045Z 33004KT 290V360 CAVOK 13/11 Q1022 NOSIG=
201003022030 METAR LMML NIL=
201003022015 METAR LMML 022015Z 31006KT 270V340 CAVOK 13/11 Q1023 NOSIG=
201003022000 METAR LMML NIL=
201003021945 METAR LMML 021945Z 28008KT CAVOK 14/11 Q1022 NOSIG=
201003021930 METAR LMML NIL=
201003021915 METAR LMML 021915Z 30005KT 270V350 CAVOK 14/11 Q1022 NOSIG=
201003021900 METAR LMML NIL=
201003021845 METAR LMML 021845Z 29008KT CAVOK 13/11 Q1022 NOSIG=
201003021830 METAR LMML NIL=
201003021815 METAR LMML 021815Z 28007KT 240V330 9999 FEW015 BKN250 13/11
                        Q1022 NOSIG=
201003021800 METAR LMML NIL=
201003021745 METAR LMML 021745Z 30009KT 9999 FEW015 BKN250 13/11 Q1022
                        NOSIG=
201003021730 METAR LMML NIL=
201003021715 METAR LMML 021715Z 29008KT 260V320 9999 FEW015 BKN250 14/11
                        Q1022 NOSIG=
201003021700 METAR LMML NIL=
201003021645 METAR LMML 021645Z 26007KT 180V300 9999 FEW015 SCT120 BKN250
                        14/10 Q1022 NOSIG=
201003021630 METAR LMML NIL=
201003021615 METAR LMML 021615Z 28007KT 220V320 9999 FEW020 BKN250 15/10
                        Q1021 NOSIG=
201003021600 METAR LMML NIL=
201003021545 METAR LMML 021545Z 30014KT 9999 FEW020 BKN250 15/10 Q1021
                        NOSIG=
201003021530 METAR LMML NIL=
201003021515 METAR LMML 021515Z 30016KT 9999 FEW020 BKN250 16/09 Q1022
                        NOSIG=
201003021500 METAR LMML NIL=
201003021445 METAR LMML 021445Z 29014KT 9999 FEW020 BKN250 16/11 Q1022
                        NOSIG=
201003021430 METAR LMML NIL=
201003021415 METAR LMML 021415Z 28017KT 250V310 9999 FEW025 BKN250 16/10
                        Q1022 NOSIG=
201003021400 METAR LMML NIL=
201003021345 METAR LMML 021345Z 29016KT 9999 FEW025 SCT250 16/10 Q1021
                        NOSIG=
201003021330 METAR LMML NIL=
201003021315 METAR LMML 021315Z 29012KT 250V330 9999 FEW025 BKN250 17/10
                        Q1022 NOSIG=
201003021300 METAR LMML NIL=
201003021245 METAR LMML 021245Z 29013KT 260V330 9999 FEW020 SCT250 16/10
                        Q1022 NOSIG=
201003021215 METAR LMML 021215Z 30013KT 280V350 9999 FEW020 BKN250 17/10
                        Q1022 NOSIG=
201003021200 METAR LMML NIL=
201003021145 METAR LMML 021145Z 30013KT 270V330 9999 FEW020 SCT250 17/10
                        Q1022 NOSIG=
201003021130 METAR LMML NIL=
201003021115 METAR LMML 021115Z 30013KT 250V330 9999 FEW020 18/10 Q1023
                        NOSIG=
201003021100 METAR LMML NIL=
201003021045 METAR LMML 021045Z 30013KT 250V320 9999 FEW020 18/10 Q1023
                        NOSIG=
201003021030 METAR LMML NIL=
201003021015 METAR LMML 021015Z 29013KT 9999 FEW020 17/11 Q1023 NOSIG=
201003021000 METAR LMML NIL=
201003020945 METAR LMML 020945Z 30013KT 270V330 9999 FEW020 17/10 Q1023
                        NOSIG=
201003020930 METAR LMML NIL=
201003020915 METAR LMML 020915Z 31016KT 9999 FEW020 17/10 Q1023 NOSIG=
201003020900 METAR LMML NIL=
201003020845 METAR LMML 020845Z 31013KT 9999 FEW020 17/10 Q1022 NOSIG=
201003020830 METAR LMML NIL=
201003020815 METAR LMML 020815Z 31014KT 9999 FEW015 16/10 Q1022 NOSIG=
201003020800 METAR LMML NIL=
201003020745 METAR LMML 020745Z 31014KT 9999 FEW015 15/11 Q1022 NOSIG=
201003020730 METAR LMML NIL=
201003020715 METAR LMML 020715Z 31013KT 280V340 9999 FEW015 15/11 Q1022
                        NOSIG=
201003020700 METAR LMML NIL=
201003020645 METAR LMML 020645Z 29012KT 260V320 9999 FEW012 14/11 Q1022
                        NOSIG=
201003020630 METAR LMML NIL=
201003020615 METAR LMML 020615Z 31013KT 9999 FEW012 13/11 Q1021 NOSIG=
201003020600 METAR LMML NIL=
201003020545 METAR LMML 020545Z 31015KT CAVOK 13/11 Q1021 NOSIG=
201003020530 METAR LMML NIL=
201003020515 METAR LMML 020515Z 31012KT 9999 FEW012 13/11 Q1020 NOSIG=
201003020500 METAR LMML NIL=
201003020445 METAR LMML 020445Z 31012KT CAVOK 13/10 Q1020 NOSIG=
201003020430 METAR LMML NIL=
201003020415 METAR LMML 020415Z 30010KT CAVOK 13/10 Q1020 NOSIG=
201003020400 METAR LMML NIL=
201003020345 METAR LMML 020345Z 30010KT CAVOK 13/10 Q1020 NOSIG=
201003020330 METAR LMML NIL=
201003020315 METAR LMML 020315Z 30007KT 280V340 CAVOK 13/10 Q1020 NOSIG=
201003020300 METAR LMML NIL=
201003020245 METAR LMML 020245Z 30009KT 270V330 CAVOK 13/10 Q1020 NOSIG=
201003020230 METAR LMML NIL=
201003020215 METAR LMML 020215Z 29007KT 260V320 CAVOK 13/10 Q1020 NOSIG=
201003020200 METAR LMML NIL=
201003020145 METAR LMML 020145Z 31011KT 260V330 CAVOK 13/10 Q1020 NOSIG=
201003020130 METAR LMML NIL=
201003020115 METAR LMML 020115Z 32013KT CAVOK 14/10 Q1020 NOSIG=
201003020100 METAR LMML NIL=
201003020045 METAR LMML 020045Z 31012KT CAVOK 14/10 Q1020 NOSIG=
201003020030 METAR LMML NIL=
201003020015 METAR LMML 020015Z 32014KT CAVOK 14/10 Q1020 NOSIG=
201003020000 METAR LMML NIL=
201003012345 METAR LMML 012345Z 32012KT CAVOK 14/09 Q1020 NOSIG=
201003012330 METAR LMML NIL=
201003012315 METAR LMML 012315Z 33014KT CAVOK 15/07 Q1020 NOSIG=
201003012300 METAR LMML NIL=
201003012245 METAR LMML 012245Z 32012KT CAVOK 15/06 Q1019 NOSIG=
201003012230 METAR LMML NIL=
201003012215 METAR LMML 012215Z 32016KT CAVOK 16/07 Q1019 NOSIG=
201003012200 METAR LMML NIL=
201003012145 METAR LMML 012145Z 32016KT CAVOK 16/08 Q1019 NOSIG=
201003012130 METAR LMML NIL=
201003012115 METAR LMML 012115Z 32017KT CAVOK 16/09 Q1019 NOSIG=
201003012100 METAR LMML NIL=
201003012045 METAR LMML 012045Z 33021G31KT CAVOK 17/08 Q1018 NOSIG=
201003012030 METAR LMML NIL=
201003012015 METAR LMML 012015Z 32022G35KT 290V350 CAVOK 17/07 Q1018 NOSIG=
201003012000 METAR LMML NIL=
201003011945 METAR LMML 011945Z 32023KT 280V340 CAVOK 17/08 Q1018 NOSIG=
201003011930 METAR LMML NIL=
201003011915 METAR LMML 011915Z 32025KT CAVOK 17/09 Q1017 NOSIG=
201003011900 METAR LMML NIL=
201003011845 METAR LMML 011845Z 32026G39KT CAVOK 17/09 Q1016 NOSIG=
201003011830 METAR LMML NIL=
201003011815 METAR LMML 011815Z 32028G43KT CAVOK 18/08 Q1016 NOSIG=
201003011800 METAR LMML NIL=
201003011745 METAR LMML 011745Z 31021G32KT CAVOK 18/08 Q1015 NOSIG=
201003011730 METAR LMML NIL=
201003011715 METAR LMML 011715Z 31023G33KT CAVOK 18/08 Q1014 NOSIG=
201003011700 METAR LMML NIL=
201003011645 METAR LMML 011645Z 31021KT CAVOK 18/10 Q1014 NOSIG=
201003011630 METAR LMML NIL=
201003011615 METAR LMML 011615Z 31019KT CAVOK 18/10 Q1014 NOSIG=
201003011600 METAR LMML NIL=
201003011545 METAR LMML 011545Z 31019KT CAVOK 19/10 Q1014 NOSIG=
201003011515 METAR LMML 011515Z 32019KT CAVOK 19/11 Q1013 NOSIG=
201003011500 METAR LMML NIL=
201003011445 METAR LMML 011445Z 31019KT CAVOK 19/12 Q1013 NOSIG=
201003011430 METAR LMML NIL=
201003011415 METAR LMML 011415Z 32016KT CAVOK 21/11 Q1012 NOSIG=
201003011400 METAR LMML NIL=
201003011345 METAR LMML 011345Z 32011KT CAVOK 21/11 Q1012 NOSIG=
201003011315 METAR LMML 011315Z 32016KT CAVOK 19/11 Q1012 NOSIG=
201003011300 METAR LMML NIL=
201003011245 METAR LMML 011245Z 32015KT CAVOK 18/11 Q1012 NOSIG=
201003011230 METAR LMML NIL=
201003011215 METAR LMML 011215Z 32014KT CAVOK 20/14 Q1012 NOSIG=
201003011200 METAR LMML NIL=
201003011145 METAR LMML 011145Z 33010KT CAVOK 23/10 Q1011 NOSIG=
201003011130 METAR LMML NIL=
201003011115 METAR LMML 011115Z 35008KT 320V020 CAVOK 23/11 Q1011 NOSIG=
201003011045 METAR LMML 011045Z 34007KT 310V020 CAVOK 23/12 Q1011 NOSIG=
201003011030 METAR LMML NIL=
201003011015 METAR LMML 011015Z 32011KT CAVOK 22/13 Q1011 NOSIG=
201003010945 METAR LMML 010945Z 33008KT 300V360 CAVOK 21/14 Q1011 NOSIG=
201003010930 METAR LMML NIL=
201003010915 METAR LMML 010915Z 35006KT CAVOK 21/15 Q1011 NOSIG=
201003010900 METAR LMML NIL=
201003010845 METAR LMML 010845Z 32006KT 240V010 CAVOK 22/13 Q1011 NOSIG=
201003010830 METAR LMML NIL=
201003010815 METAR LMML 010815Z VRB02KT CAVOK 21/13 Q1010 NOSIG=
201003010800 METAR LMML NIL=
201003010745 METAR LMML 010745Z 22006KT CAVOK 20/12 Q1010 NOSIG=
201003010730 METAR LMML NIL=
201003010715 METAR LMML 010715Z VRB03KT CAVOK 19/12 Q1010 NOSIG=
201003010700 METAR LMML NIL=
201003010645 METAR LMML 010645Z 28005KT 200V340 CAVOK 19/12 Q1010 NOSIG=
201003010630 METAR LMML NIL=
201003010615 METAR LMML 010615Z 19007KT 160V220 CAVOK 18/12 Q1009 NOSIG=
201003010600 METAR LMML NIL=
201003010545 METAR LMML 010545Z 19009KT 160V230 CAVOK 19/12 Q1009 NOSIG=
201003010515 METAR LMML 010515Z 19008KT 170V230 CAVOK 20/09 Q1009 NOSIG=
201003010500 METAR LMML NIL=
201003010445 METAR LMML 010445Z 19009KT 160V240 CAVOK 21/09 Q1009 NOSIG=
201003010430 METAR LMML NIL=
201003010415 METAR LMML 010415Z 19009KT 170V230 CAVOK 19/10 Q1009 NOSIG=
201003010400 METAR LMML NIL=
201003010345 METAR LMML 010345Z 19009KT CAVOK 20/09 Q1009 NOSIG=
201003010330 METAR LMML NIL=
201003010315 METAR LMML 010315Z 19009KT 170V230 CAVOK 20/08 Q1010 NOSIG=
201003010300 METAR LMML NIL=
201003010245 METAR LMML 010245Z 19009KT 150V220 CAVOK 20/09 Q1010 NOSIG=
201003010230 METAR LMML NIL=
201003010215 METAR LMML 010215Z 20009KT 160V230 CAVOK 19/09 Q1010 NOSIG=
201003010200 METAR LMML NIL=
201003010145 METAR LMML 010145Z 20009KT 160V240 CAVOK 19/09 Q1010 NOSIG=
201003010130 METAR LMML NIL=
201003010115 METAR LMML 010115Z 20009KT 160V240 CAVOK 18/09 Q1011 NOSIG=
201003010100 METAR LMML NIL=
201003010045 METAR LMML 010045Z 20009KT 170V230 CAVOK 17/11 Q1011 NOSIG=
201003010030 METAR LMML NIL=
201003010015 METAR LMML 010015Z 20009KT 170V240 CAVOK 17/12 Q1011 NOSIG=
201003010000 METAR LMML NIL=
201002282345 METAR LMML 282345Z 19011KT 160V230 CAVOK 17/12 Q1012 NOSIG=
201002282330 METAR LMML NIL=
201002282315 METAR LMML 282315Z 19010KT 170V230 CAVOK 16/13 Q1012 NOSIG=
201002282300 METAR LMML NIL=
201002282245 METAR LMML 282245Z 19011KT 160V230 CAVOK 17/13 Q1012 NOSIG=
201002282215 METAR LMML 282215Z 20009KT 160V250 CAVOK 16/13 Q1012 NOSIG=
201002282200 METAR LMML NIL=
201002282145 METAR LMML 282145Z 20010KT 170V240 CAVOK 16/13 Q1012 NOSIG=
201002282130 METAR LMML NIL=
201002282115 METAR LMML 282115Z 19011KT 160V230 CAVOK 16/14 Q1012 NOSIG=
201002282100 METAR LMML NIL=
201002282045 METAR LMML 282045Z 17007KT 140V220 CAVOK 16/14 Q1012 NOSIG=
201002282030 METAR LMML NIL=
201002282015 METAR LMML 282015Z 18008KT CAVOK 15/14 Q1012 NOSIG=
201002282000 METAR LMML NIL=
201002281945 METAR LMML 281945Z 17007KT 140V210 CAVOK 15/14 Q1012 NOSIG=
201002281930 METAR LMML NIL=
201002281915 METAR LMML 281915Z 18007KT 150V220 CAVOK 16/14 Q1012 NOSIG=
201002281900 METAR LMML NIL=
201002281845 METAR LMML 281845Z 18007KT 140V220 CAVOK 16/14 Q1012 NOSIG=
201002281830 METAR LMML NIL=
201002281815 METAR LMML 281815Z 19008KT 160V220 CAVOK 16/14 Q1012 NOSIG=
201002281800 METAR LMML NIL=
201002281745 METAR LMML 281745Z 18006KT 150V220 CAVOK 16/14 Q1012 NOSIG=
201002281730 METAR LMML NIL=
201002281715 METAR LMML 281715Z 18007KT CAVOK 16/14 Q1012 NOSIG=
201002281645 METAR LMML 281645Z 18010KT CAVOK 16/14 Q1012 NOSIG=
201002281630 METAR LMML NIL=
201002281615 METAR LMML 281615Z 17008KT 150V210 CAVOK 17/15 Q1012 NOSIG=
201002281600 METAR LMML NIL=
201002281545 METAR LMML 281545Z 18008KT 140V220 CAVOK 17/15 Q1012 NOSIG=
201002281530 METAR LMML NIL=
201002281515 METAR LMML 281515Z 17008KT 140V210 CAVOK 18/15 Q1013 NOSIG=
201002281500 METAR LMML NIL=
201002281445 METAR LMML 281445Z 18010KT 150V220 CAVOK 18/15 Q1013 NOSIG=
201002281430 METAR LMML NIL=
201002281415 METAR LMML 281415Z 18010KT 140V210 CAVOK 18/14 Q1013 NOSIG=
201002281400 METAR LMML NIL=
201002281345 METAR LMML 281345Z 17011KT 130V210 CAVOK 19/14 Q1012 NOSIG=
201002281330 METAR LMML NIL=
201002281315 METAR LMML 281315Z 16011KT 120V190 CAVOK 18/14 Q1013 NOSIG=
201002281245 METAR LMML 281245Z 16013KT 130V190 CAVOK 18/14 Q1013 NOSIG=
201002281230 METAR LMML NIL=
201002281215 METAR LMML 281215Z 16014KT CAVOK 18/14 Q1013 NOSIG=
201002281200 METAR LMML NIL=
201002281145 METAR LMML 281145Z 16013KT 120V180 CAVOK 18/13 Q1014 NOSIG=
201002281130 METAR LMML NIL=
201002281115 METAR LMML 281115Z 16013KT 130V190 CAVOK 18/13 Q1014 NOSIG=
201002281100 METAR LMML NIL=
201002281045 METAR LMML 281045Z 15013KT CAVOK 18/13 Q1014 NOSIG=
201002281030 METAR LMML NIL=
201002281015 METAR LMML 281015Z 14014KT 110V180 9999 FEW008 18/14 Q1014
                        BECMG CAVOK=
201002281000 METAR LMML NIL=
201002280945 METAR LMML 280945Z 15014KT 110V180 9999 FEW008 17/14 Q1014
                        NOSIG=
201002280930 METAR LMML NIL=
201002280915 METAR LMML 280915Z 14015KT 110V170 CAVOK 17/13 Q1014 NOSIG=
201002280900 METAR LMML NIL=
201002280845 METAR LMML 280845Z 13014KT CAVOK 17/13 Q1015 NOSIG=
201002280830 METAR LMML NIL=
201002280815 METAR LMML 280815Z 13012KT CAVOK 16/13 Q1015 NOSIG=
201002280800 METAR LMML NIL=
201002280745 METAR LMML 280745Z 14011KT CAVOK 15/14 Q1015 NOSIG=
201002280730 METAR LMML NIL=
201002280715 METAR LMML 280715Z 13010KT CAVOK 15/14 Q1014 NOSIG=
201002280645 METAR LMML 280645Z 14008KT 9000 NSC 14/14 Q1014 BECMG CAVOK=
201002280630 METAR LMML NIL=
201002280615 METAR LMML 280615Z 13008KT 9000 NSC 13/13 Q1014 NOSIG=
201002280545 METAR LMML 280545Z 15008KT 9000 NSC 13/13 Q1014 NOSIG=
201002280530 METAR LMML NIL=
201002280515 METAR LMML 280515Z 12006KT CAVOK 11/11 Q1014 NOSIG=
201002280500 METAR LMML NIL=
201002280445 METAR LMML 280445Z 13007KT CAVOK 12/12 Q1014 NOSIG=
201002280430 METAR LMML NIL=
201002280415 METAR LMML 280415Z 15005KT CAVOK 13/12 Q1014 NOSIG=
201002280400 METAR LMML NIL=
201002280345 METAR LMML 280345Z 16005KT 120V180 9999 FEW012 BKN250 13/13
                        Q1014 NOSIG=
201002280315 METAR LMML 280315Z 16005KT 130V190 9999 FEW012 SCT120 BKN250
                        13/13 Q1014 NOSIG=
201002280300 METAR LMML NIL=
201002280245 METAR LMML 280245Z 16005KT 130V190 9999 FEW012 BKN250 13/12
                        Q1014 NOSIG=
201002280230 METAR LMML NIL=
201002280215 METAR LMML 280215Z 15004KT 110V180 9999 FEW012 BKN250 12/12
                        Q1014 NOSIG=
201002280200 METAR LMML NIL=
201002280145 METAR LMML 280145Z VRB03KT CAVOK 12/11 Q1015 NOSIG=
201002280130 METAR LMML NIL=
201002280115 METAR LMML 280115Z VRB02KT CAVOK 12/11 Q1015 NOSIG=
201002280100 METAR LMML NIL=
201002280045 METAR LMML 280045Z VRB02KT CAVOK 12/10 Q1015 NOSIG=
201002280030 METAR LMML NIL=
201002280015 METAR LMML 280015Z 13004KT CAVOK 13/10 Q1015 NOSIG=
201002280000 METAR LMML NIL=
201002272345 METAR LMML 272345Z VRB01KT CAVOK 12/10 Q1015 NOSIG=
201002272330 METAR LMML NIL=
201002272315 METAR LMML 272315Z VRB01KT CAVOK 12/10 Q1015 NOSIG=
201002272300 METAR LMML NIL=
201002272245 METAR LMML 272245Z VRB01KT CAVOK 12/09 Q1016 NOSIG=
201002272230 METAR LMML NIL=
201002272215 METAR LMML 272215Z VRB01KT CAVOK 12/11 Q1016 NOSIG=
201002272200 METAR LMML NIL=
201002272145 METAR LMML 272145Z 00000KT CAVOK 12/11 Q1016 NOSIG=
201002272130 METAR LMML NIL=
201002272115 METAR LMML 272115Z 00000KT CAVOK 13/11 Q1015 NOSIG=
201002272100 METAR LMML NIL=
201002272045 METAR LMML 272045Z VRB02KT CAVOK 13/11 Q1015 NOSIG=
201002272015 METAR LMML 272015Z 20004KT 170V230 CAVOK 13/11 Q1015 NOSIG=
201002271945 METAR LMML 271945Z VRB03KT CAVOK 13/11 Q1016 NOSIG=
201002271930 METAR LMML NIL=
201002271915 METAR LMML 271915Z 20004KT CAVOK 13/10 Q1015 NOSIG=
201002271900 METAR LMML NIL=
201002271845 METAR LMML 271845Z VRB03KT CAVOK 14/09 Q1016 NOSIG=
201002271830 METAR LMML NIL=
201002271815 METAR LMML 271815Z 24004KT CAVOK 14/10 Q1015 NOSIG=
201002271800 METAR LMML NIL=
201002271745 METAR LMML 271745Z 25004KT CAVOK 14/09 Q1015 NOSIG=
201002271730 METAR LMML NIL=
201002271715 METAR LMML 271715Z VRB02KT CAVOK 15/07 Q1015 NOSIG=
201002271700 METAR LMML NIL=
201002271645 METAR LMML 271645Z 28004KT CAVOK 15/06 Q1015 NOSIG=
201002271630 METAR LMML NIL=
201002271615 METAR LMML 271615Z 30007KT CAVOK 16/07 Q1015 NOSIG=
201002271600 METAR LMML NIL=
201002271545 METAR LMML 271545Z 32008KT CAVOK 17/06 Q1015 NOSIG=
201002271530 METAR LMML NIL=
201002271515 METAR LMML 271515Z 31008KT 280V340 CAVOK 18/07 Q1015 NOSIG=
201002271500 METAR LMML NIL=
201002271445 METAR LMML 271445Z 30008KT 270V350 CAVOK 18/07 Q1015 NOSIG=
201002271430 METAR LMML NIL=
201002271415 METAR LMML 271415Z 31009KT 270V350 CAVOK 18/07 Q1015 NOSIG=
201002271400 METAR LMML NIL=
201002271345 METAR LMML 271345Z 30010KT 270V340 CAVOK 18/07 Q1015 NOSIG=
201002271330 METAR LMML NIL=
201002271315 METAR LMML 271315Z 31011KT 280V340 CAVOK 18/07 Q1015 NOSIG=
201002271300 METAR LMML NIL=
201002271245 METAR LMML 271245Z 31012KT 270V340 CAVOK 18/07 Q1015 NOSIG=
201002271230 METAR LMML NIL=
201002271215 METAR LMML 271215Z 30012KT 260V330 CAVOK 18/07 Q1015 NOSIG=
201002271200 METAR LMML NIL=
201002271145 METAR LMML 271145Z 29013KT 260V320 CAVOK 18/05 Q1016 NOSIG=
201002271130 METAR LMML NIL=
201002271115 METAR LMML 271115Z 29013KT 260V320 CAVOK 18/07 Q1016 NOSIG=
201002271100 METAR LMML NIL=
201002271045 METAR LMML 271045Z 30013KT 250V010 CAVOK 18/08 Q1016 NOSIG=
201002271030 METAR LMML NIL=
201002271015 METAR LMML 271015Z 32011KT 290V350 CAVOK 18/06 Q1016 NOSIG=
201002271000 METAR LMML NIL=
201002270945 METAR LMML 270945Z 31013KT 270V340 9999 FEW020 SCT250 17/09
                        Q1016 NOSIG=
201002270930 METAR LMML NIL=
201002270915 METAR LMML 270915Z 31014KT 9999 FEW018 SCT250 17/10 Q1016
                        NOSIG=
201002270900 METAR LMML NIL=
201002270845 METAR LMML 270845Z 29012KT 260V320 9999 FEW018 SCT250 16/11
                        Q1016 NOSIG=
201002270830 METAR LMML NIL=
201002270815 METAR LMML 270815Z 29011KT 260V320 9999 FEW018 16/11 Q1016
                        NOSIG=
201002270800 METAR LMML NIL=
201002270745 METAR LMML 270745Z 30012KT 9999 FEW015 SCT250 16/11 Q1015
                        NOSIG=
201002270730 METAR LMML NIL=
201002270715 METAR LMML 270715Z 31010KT 270V330 9999 FEW015 15/11 Q1015
                        NOSIG=
201002270700 METAR LMML NIL=
201002270645 METAR LMML 270645Z 30009KT 270V330 9999 FEW015 14/11 Q1015
                        NOSIG=
201002270630 METAR LMML NIL=
201002270615 METAR LMML 270615Z 28008KT 9999 FEW015 SCT250 14/11 Q1015
                        NOSIG=
201002270600 METAR LMML NIL=
201002270545 METAR LMML 270545Z 28011KT 250V320 CAVOK 14/11 Q1014 NOSIG=
201002270515 METAR LMML 270515Z 29010KT CAVOK 14/11 Q1014 NOSIG=
201002270500 METAR LMML NIL=
201002270445 METAR LMML 270445Z 29009KT CAVOK 14/10 Q1013 NOSIG=
201002270430 METAR LMML NIL=
201002270415 METAR LMML 270415Z 31011KT CAVOK 14/10 Q1013 NOSIG=
201002270400 METAR LMML NIL=
201002270345 METAR LMML 270345Z 29012KT 250V320 CAVOK 14/11 Q1013 NOSIG=
201002270315 METAR LMML 270315Z 29013KT 250V310 CAVOK 14/11 Q1013 NOSIG=
201002270245 METAR LMML 270245Z 28012KT 230V310 CAVOK 14/11 Q1012 NOSIG=
201002270230 METAR LMML NIL=
201002270215 METAR LMML 270215Z 28013KT 250V310 CAVOK 14/11 Q1012 NOSIG=
201002270200 METAR LMML NIL=
201002270145 METAR LMML 270145Z 28010KT 240V300 CAVOK 14/11 Q1012 NOSIG=
201002270130 METAR LMML NIL=
201002270115 METAR LMML 270115Z 28012KT 250V320 CAVOK 14/11 Q1012 NOSIG=
201002270100 METAR LMML NIL=
201002270045 METAR LMML 270045Z 28010KT 250V310 CAVOK 15/11 Q1013 NOSIG=
201002270030 METAR LMML NIL=
201002270015 METAR LMML 270015Z 29011KT 260V320 CAVOK 15/11 Q1013 NOSIG=
201002262345 METAR LMML 262345Z 29012KT 260V320 CAVOK 15/11 Q1013 NOSIG=
201002262330 METAR LMML NIL=
201002262315 METAR LMML 262315Z 27009KT 230V310 CAVOK 15/12 Q1013 NOSIG=
201002262300 METAR LMML NIL=
201002262245 METAR LMML 262245Z 28013KT CAVOK 15/11 Q1013 NOSIG=
201002262230 METAR LMML NIL=
201002262215 METAR LMML 262215Z 27009KT 240V300 CAVOK 15/12 Q1013 NOSIG=
201002262200 METAR LMML NIL=
201002262145 METAR LMML 262145Z 29013KT CAVOK 15/11 Q1013 NOSIG=
201002262130 METAR LMML NIL=
201002262115 METAR LMML 262115Z 29014KT CAVOK 16/11 Q1013 NOSIG=
201002262100 METAR LMML NIL=
201002262045 METAR LMML 262045Z 29012KT 250V320 CAVOK 16/11 Q1013 NOSIG=
201002262030 METAR LMML NIL=
201002262015 METAR LMML 262015Z 30012KT 270V330 CAVOK 17/09 Q1012 NOSIG=
201002262000 METAR LMML NIL=
201002261945 METAR LMML 261945Z 30011KT 270V330 CAVOK 17/10 Q1012 NOSIG=
201002261915 METAR LMML 261915Z 31015KT CAVOK 17/11 Q1012 NOSIG=
201002261900 METAR LMML NIL=
201002261845 METAR LMML 261845Z 31014G24KT CAVOK 17/11 Q1012 NOSIG=
201002261830 METAR LMML NIL=
201002261815 METAR LMML 261815Z 30014KT CAVOK 17/10 Q1012 NOSIG=
201002261800 METAR LMML NIL=
201002261745 METAR LMML 261745Z 30016KT CAVOK 18/10 Q1011 NOSIG=
201002261730 METAR LMML NIL=
201002261715 METAR LMML 261715Z 28013KT 250V320 CAVOK 18/09 Q1011 NOSIG=
201002261700 METAR LMML NIL=
201002261645 METAR LMML 261645Z 28010KT CAVOK 17/09 Q1011 NOSIG=
201002261630 METAR LMML NIL=
201002261615 METAR LMML 261615Z 29009KT 270V330 CAVOK 19/09 Q1011 NOSIG=
201002261600 METAR LMML NIL=
201002261545 METAR LMML 261545Z 29010KT CAVOK 20/06 Q1011 NOSIG=
201002261530 METAR LMML NIL=
201002261515 METAR LMML 261515Z 28013KT CAVOK 20/06 Q1011 NOSIG=
201002261500 METAR LMML NIL=
201002261445 METAR LMML 261445Z 28014KT CAVOK 21/07 Q1011 NOSIG=
201002261430 METAR LMML NIL=
201002261415 METAR LMML 261415Z 29015KT 260V320 CAVOK 22/05 Q1011 NOSIG=
201002261345 METAR LMML 261345Z 29016KT CAVOK 21/06 Q1011 NOSIG=
201002261330 METAR LMML NIL=
201002261315 METAR LMML 261315Z 28010KT 250V310 CAVOK 21/07 Q1011 NOSIG=
201002261300 METAR LMML NIL=
201002261245 METAR LMML 261245Z 29007KT 240V320 CAVOK 22/07 Q1011 NOSIG=
201002261230 METAR LMML NIL=
201002261215 METAR LMML 261215Z 25005KT 180V330 CAVOK 20/11 Q1011 NOSIG=
201002261200 METAR LMML NIL=
201002261145 METAR LMML 261145Z 22006KT 170V290 CAVOK 20/11 Q1011 NOSIG=
201002261130 METAR LMML NIL=
201002261115 METAR LMML 261115Z 23006KT 200V290 CAVOK 19/12 Q1011 NOSIG=
201002261100 METAR LMML NIL=
201002261045 METAR LMML 261045Z 24010KT 210V280 CAVOK 19/12 Q1012 NOSIG=
201002261030 METAR LMML NIL=
201002261015 METAR LMML 261015Z 25009KT 210V290 CAVOK 19/12 Q1012 NOSIG=
201002261000 METAR LMML NIL=
201002260945 METAR LMML 260945Z 23006KT 190V280 CAVOK 18/12 Q1012 NOSIG=
201002260930 METAR LMML NIL=
201002260915 METAR LMML 260915Z 25007KT 200V300 CAVOK 18/13 Q1013 NOSIG=
201002260900 METAR LMML NIL=
201002260845 METAR LMML 260845Z 23008KT 190V270 CAVOK 17/13 Q1013 NOSIG=
201002260830 METAR LMML NIL=
201002260815 METAR LMML 260815Z 21008KT 160V270 CAVOK 16/13 Q1013 NOSIG=
201002260800 METAR LMML NIL=
201002260745 METAR LMML 260745Z 21009KT 160V260 CAVOK 15/13 Q1013 NOSIG=
201002260730 METAR LMML NIL=
201002260715 METAR LMML 260715Z 20007KT 160V260 CAVOK 15/13 Q1013 NOSIG
                        RMK SMOKE TO NORTH=
201002260700 METAR LMML NIL=
201002260645 METAR LMML 260645Z 20005KT 160V260 CAVOK 14/12 Q1013 NOSIG=
201002260630 METAR LMML NIL=
201002260615 METAR LMML 260615Z 21005KT 180V240 CAVOK 13/12 Q1013 NOSIG=
201002260600 METAR LMML NIL=
201002260545 METAR LMML 260545Z VRB02KT 9999 MIFG NSC 12/11 Q1013 TEMPO
                        9000 FEW012=
201002260530 METAR LMML NIL=
201002260515 METAR LMML 260515Z VRB02KT 9999 MIFG NSC 12/11 Q1013 TEMPO
                        8000 FEW012=
201002260500 METAR LMML NIL=
201002260445 METAR LMML 260445Z VRB03KT CAVOK 12/12 Q1013 TEMPO 9000 MIFG
                        NSC=
201002260430 METAR LMML NIL=
201002260415 METAR LMML 260415Z VRB03KT CAVOK 12/11 Q1013 TEMPO 9000 MIFG
                        NSC=
201002260400 METAR LMML NIL=
201002260345 METAR LMML 260345Z VRB03KT CAVOK 12/11 Q1013 NOSIG=
201002260330 METAR LMML NIL=
201002260315 METAR LMML 260315Z 18004KT CAVOK 13/12 Q1013 NOSIG=
201002260300 METAR LMML NIL=
201002260245 METAR LMML 260245Z 17005KT CAVOK 13/12 Q1013 NOSIG=
201002260230 METAR LMML NIL=
201002260215 METAR LMML 260215Z 18005KT CAVOK 13/11 Q1013 NOSIG=
201002260200 METAR LMML NIL=
201002260145 METAR LMML 260145Z 20005KT CAVOK 13/10 Q1013 NOSIG=
201002260130 METAR LMML NIL=
201002260115 METAR LMML 260115Z 20005KT CAVOK 13/10 Q1014 NOSIG=
201002260100 METAR LMML NIL=
201002260045 METAR LMML 260045Z 22005KT 190V250 CAVOK 14/10 Q1015 NOSIG=
201002260030 METAR LMML NIL=
201002260015 METAR LMML 260015Z 23006KT CAVOK 14/10 Q1015 NOSIG=
201002252345 METAR LMML 252345Z 24006KT 200V270 CAVOK 14/10 Q1015 NOSIG=
201002252330 METAR LMML NIL=
201002252315 METAR LMML 252315Z 24006KT 210V280 CAVOK 14/10 Q1015 NOSIG=
201002252300 METAR LMML NIL=
201002252245 METAR LMML 252245Z 24006KT 210V270 CAVOK 14/11 Q1015 NOSIG=
201002252230 METAR LMML NIL=
201002252215 METAR LMML 252215Z 24005KT 220V280 CAVOK 13/10 Q1015 NOSIG=
201002252200 METAR LMML NIL=
201002252145 METAR LMML 252145Z 24006KT 210V280 CAVOK 13/11 Q1015 NOSIG=
201002252130 METAR LMML NIL=
201002252115 METAR LMML 252115Z VRB03KT CAVOK 13/10 Q1015 NOSIG=
201002252045 METAR LMML 252045Z 25006KT CAVOK 13/10 Q1015 NOSIG=
201002252030 METAR LMML NIL=
201002252015 METAR LMML 252015Z 27004KT 220V310 CAVOK 14/09 Q1014 NOSIG=
201002252000 METAR LMML NIL=
201002251945 METAR LMML 251945Z 28005KT 240V310 CAVOK 14/09 Q1015 NOSIG=
201002251915 METAR LMML 251915Z 29009KT CAVOK 14/10 Q1015 NOSIG=
201002251900 METAR LMML NIL=
201002251845 METAR LMML 251845Z 29007KT 260V320 CAVOK 14/10 Q1015 NOSIG=
201002251830 METAR LMML NIL=
201002251815 METAR LMML 251815Z 29007KT 250V320 CAVOK 14/10 Q1015 NOSIG=
201002251800 METAR LMML NIL=
201002251745 METAR LMML 251745Z 28010KT 240V310 CAVOK 14/10 Q1014 NOSIG=
201002251730 METAR LMML NIL=
201002251715 METAR LMML 251715Z 28009KT CAVOK 14/11 Q1014 NOSIG=
201002251700 METAR LMML NIL=
201002251645 METAR LMML 251645Z 28012KT 250V310 CAVOK 15/11 Q1014 NOSIG=
201002251630 METAR LMML NIL=
201002251615 METAR LMML 251615Z 28013KT 250V310 CAVOK 15/11 Q1014 NOSIG=
201002251600 METAR LMML NIL=
201002251545 METAR LMML 251545Z 28014KT CAVOK 16/11 Q1014 NOSIG=
201002251530 METAR LMML NIL=
201002251515 METAR LMML 251515Z 28017KT 250V310 9999 FEW019 16/10 Q1014
                        NOSIG=
201002251500 METAR LMML NIL=
201002251445 METAR LMML 251445Z 28018KT 260V320 9999 FEW019 16/10 Q1014
                        NOSIG=
201002251415 METAR LMML 251415Z 28019KT 9999 FEW019 16/11 Q1014 NOSIG=
201002251400 METAR LMML NIL=
201002251345 METAR LMML 251345Z 29017KT 260V320 9999 FEW019 16/11 Q1014
                        NOSIG=
201002251330 METAR LMML NIL=
201002251315 METAR LMML 251315Z 29015KT 250V330 9999 SCT020 17/11 Q1014
                        NOSIG=
201002251300 METAR LMML NIL=
201002251245 METAR LMML 251245Z 28017KT 9999 FEW022 17/10 Q1014 NOSIG=
201002251230 METAR LMML NIL=
201002251215 METAR LMML 251215Z 28015KT 250V310 9999 FEW021 BKN250 16/10
                        Q1014 NOSIG=
201002251145 METAR LMML 251145Z 30013KT 260V320 9999 FEW018 BKN250 16/11
                        Q1014 NOSIG=
201002251115 METAR LMML 251115Z 30016KT 270V330 9999 SCT018 BKN250 16/10
                        Q1015 NOSIG=
201002251100 METAR LMML NIL=
201002251045 METAR LMML 251045Z 29017KT 270V330 9999 FEW020 BKN250 16/10
                        Q1015 NOSIG=
201002251030 METAR LMML NIL=
201002251015 METAR LMML 251015Z 30019G29KT 270V340 9999 FEW020 BKN250
                        17/10 Q1015 NOSIG=
201002251000 METAR LMML NIL=
201002250945 METAR LMML 250945Z 30020G30KT 260V320 9999 FEW021 BKN250
                        16/11 Q1015 NOSIG=
201002250930 METAR LMML NIL=
201002250915 METAR LMML 250915Z 30022G32KT 9999 FEW021 BKN250 16/11 Q1015
                        NOSIG=
201002250900 METAR LMML NIL=
201002250845 METAR LMML 250845Z 29020KT 260V330 9999 FEW021 SCT250 16/10
                        Q1014 NOSIG=
201002250830 METAR LMML NIL=
201002250815 METAR LMML 250815Z 30016KT 270V330 9999 FEW021 15/10 Q1014
                        NOSIG=
201002250800 METAR LMML NIL=
201002250745 METAR LMML 250745Z 30020KT 270V330 9999 FEW021 15/10 Q1014
                        NOSIG=
201002250730 METAR LMML NIL=
201002250715 METAR LMML 250715Z 30016KT 9999 FEW022 14/09 Q1013 NOSIG=
201002250700 METAR LMML NIL=
201002250645 METAR LMML 250645Z 31014KT 9999 FEW021 14/10 Q1013 NOSIG=
201002250630 METAR LMML NIL=
201002250615 METAR LMML 250615Z 30016KT 9999 FEW022 14/09 Q1013 NOSIG=
201002250600 METAR LMML NIL=
201002250545 METAR LMML 250545Z 30018KT 9999 FEW024 13/09 Q1012 NOSIG=
201002250530 METAR LMML NIL=
201002250515 METAR LMML 250515Z 30017KT 270V330 9999 FEW025 14/09 Q1012
                        NOSIG=
201002250500 METAR LMML NIL=
201002250445 METAR LMML 250445Z 31017KT 9999 SCT028 14/09 Q1012 NOSIG=
201002250430 METAR LMML NIL=
201002250415 METAR LMML 250415Z 30019KT 270V340 9999 SCT027 14/09 Q1012
                        NOSIG=
201002250345 METAR LMML 250345Z 29018G28KT 260V320 9999 SCT025 14/10 Q1012
                        NOSIG=
201002250330 METAR LMML NIL=
201002250315 METAR LMML 250315Z 29021G31KT 260V320 9999 FEW026 14/09 Q1012
                        NOSIG=
201002250300 METAR LMML NIL=
201002250245 METAR LMML 250245Z 30019KT 270V330 9999 SCT026 14/10 Q1012
                        NOSIG=
201002250230 METAR LMML NIL=
201002250215 METAR LMML 250215Z 29019KT 250V320 9999 SCT027 14/09 Q1012
                        NOSIG=
201002250200 METAR LMML NIL=
201002250145 METAR LMML 250145Z 28022KT 9999 SCT029 14/10 Q1012 NOSIG=
201002250130 METAR LMML NIL=
201002250115 METAR LMML 250115Z 28017KT 9999 FEW047 14/10 Q1012 NOSIG=
201002250100 METAR LMML NIL=
201002250045 METAR LMML 250045Z 28020KT 250V310 CAVOK 14/10 Q1012 NOSIG=
201002250030 METAR LMML NIL=
201002250015 METAR LMML 250015Z 28020G30KT 240V310 CAVOK 14/10 Q1013 NOSIG=
201002250000 METAR LMML NIL=
201002242345 METAR LMML 242345Z 28019KT 250V310 9999 FEW021 14/10 Q1012
                        NOSIG=
201002242330 METAR LMML NIL=
201002242315 METAR LMML 242315Z 28021G32KT 9999 FEW021 14/11 Q1012 NOSIG=
201002242300 METAR LMML NIL=
201002242245 METAR LMML 242245Z 28023G35KT 250V310 9999 FEW022 14/10 Q1012
                        NOSIG=
201002242230 METAR LMML NIL=
201002242215 METAR LMML 242215Z 28020KT 250V310 9999 FEW020 14/10 Q1012
                        NOSIG=
201002242200 METAR LMML NIL=
201002242145 METAR LMML 242145Z 28025KT CAVOK 14/10 Q1012 NOSIG=
201002242130 METAR LMML NIL=
201002242115 METAR LMML 242115Z 29023KT 250V310 CAVOK 14/10 Q1012 NOSIG=
201002242100 METAR LMML NIL=
201002242045 METAR LMML 242045Z 29023KT 250V330 CAVOK 15/09 Q1013 NOSIG=
201002242030 METAR LMML NIL=
201002242015 METAR LMML 242015Z 29024KT 260V320 CAVOK 15/10 Q1012 NOSIG=
201002242000 METAR LMML NIL=
201002241945 METAR LMML 241945Z 29022KT CAVOK 15/10 Q1012 NOSIG=
201002241930 METAR LMML NIL=
201002241915 METAR LMML 241915Z 29023KT CAVOK 15/10 Q1012 NOSIG=
201002241900 METAR LMML NIL=
201002241845 METAR LMML 241845Z 29024G34KT 240V310 CAVOK 15/09 Q1012 NOSIG=
201002241830 METAR LMML NIL=
201002241815 METAR LMML 241815Z 28023KT CAVOK 15/09 Q1012 NOSIG=
201002241800 METAR LMML NIL=
201002241745 METAR LMML 241745Z 29021KT CAVOK 15/09 Q1012 NOSIG=
201002241730 METAR LMML NIL=
201002241715 METAR LMML 241715Z 28021KT CAVOK 15/11 Q1012 NOSIG=
201002241700 METAR LMML NIL=
201002241645 METAR LMML 241645Z 29018KT 260V320 CAVOK 15/11 Q1012 NOSIG=
201002241630 METAR LMML NIL=
201002241615 METAR LMML 241615Z 28025KT 9999 -RA FEW038 BKN100 15/10 Q1012
                        BECMG CAVOK=
201002241600 METAR LMML NIL=
201002241545 METAR LMML 241545Z 28019KT CAVOK 16/11 Q1012 TEMPO 9999 -RA
                        FEW025=
201002241530 METAR LMML NIL=
201002241515 METAR LMML 241515Z 28020KT 250V310 9999 FEW030 BKN120 BKN250
                        16/10 Q1011 NOSIG=
201002241500 METAR LMML NIL=
201002241445 METAR LMML 241445Z 27017KT 210V300 9999 -RA FEW030 BKN120
                        BKN250 17/12 Q1011 NOSIG=
201002241430 METAR LMML NIL=
201002241415 METAR LMML 241415Z 27019KT 240V310 9999 FEW030 SCT100 BKN250
                        17/12 Q1011 NOSIG=
201002241400 METAR LMML NIL=
201002241345 METAR LMML 241345Z 28019G31KT 240V320 CAVOK 18/10 Q1011 NOSIG=
201002241330 METAR LMML NIL=
201002241315 METAR LMML 241315Z 29021KT 260V320 9999 FEW030 BKN250 19/10
                        Q1011 NOSIG RMK CB TOP TO NORTHEAST=
201002241300 METAR LMML NIL=
201002241245 METAR LMML 241245Z 30019KT 270V330 9999 FEW030 BKN250 19/10
                        Q1011 NOSIG=
201002241215 METAR LMML 241215Z 29021KT 260V320 9999 FEW030 BKN250 19/10
                        Q1011 NOSIG=
201002241145 METAR LMML 241145Z 29021KT 260V320 9999 FEW030 SCT250 19/11
                        Q1011 NOSIG=
201002241130 METAR LMML NIL=
201002241115 METAR LMML 241115Z 28023KT 250V310 CAVOK 19/10 Q1012 NOSIG=
201002241100 METAR LMML NIL=
201002241045 METAR LMML 241045Z 29020KT CAVOK 18/11 Q1012 NOSIG=
201002241030 METAR LMML NIL=
201002241015 METAR LMML 241015Z 29022G33KT 250V330 CAVOK 18/11 Q1012 NOSIG=
201002241000 METAR LMML NIL=
201002240945 METAR LMML 240945Z 29017KT 240V320 CAVOK 18/10 Q1011 NOSIG=
201002240930 METAR LMML NIL=
201002240915 METAR LMML 240915Z 27013KT 230V310 CAVOK 18/12 Q1011 NOSIG=
201002240900 METAR LMML NIL=
201002240845 METAR LMML 240845Z 27011KT 240V310 CAVOK 18/12 Q1011 NOSIG=
201002240830 METAR LMML NIL=
201002240815 METAR LMML 240815Z 28011KT 240V310 CAVOK 17/12 Q1011 NOSIG=
201002240745 METAR LMML 240745Z 27012KT 240V300 CAVOK 16/12 Q1011 NOSIG=
201002240730 METAR LMML NIL=
201002240715 METAR LMML 240715Z 27011KT 240V310 CAVOK 16/12 Q1011 NOSIG=
201002240700 METAR LMML NIL=
201002240645 METAR LMML 240645Z 28016KT CAVOK 16/11 Q1011 NOSIG=
201002240630 METAR LMML NIL=
201002240615 METAR LMML 240615Z 29017KT CAVOK 15/11 Q1011 NOSIG=
201002240600 METAR LMML NIL=
201002240545 METAR LMML 240545Z 29013KT 9999 FEW020 SCT080 15/11 Q1011
                        NOSIG=
201002240530 METAR LMML NIL=
201002240515 METAR LMML 240515Z 29013KT 260V320 CAVOK 14/12 Q1011 NOSIG=
201002240500 METAR LMML NIL=
201002240445 METAR LMML 240445Z 29013KT 260V320 CAVOK 14/12 Q1011 NOSIG=
201002240430 METAR LMML NIL=
201002240415 METAR LMML 240415Z 30015KT CAVOK 14/12 Q1011 NOSIG=
201002240345 METAR LMML 240345Z 31019KT 9999 FEW020 SCT110 15/12 Q1011
                        NOSIG=
201002240330 METAR LMML NIL=
201002240315 METAR LMML 240315Z 32017KT 9999 FEW020 SCT110 15/12 Q1011
                        NOSIG=
201002240300 METAR LMML NIL=
201002240245 METAR LMML 240245Z 32015KT CAVOK 15/11 Q1011 NOSIG=
201002240230 METAR LMML NIL=
201002240215 METAR LMML 240215Z 32012KT CAVOK 15/11 Q1011 NOSIG=
201002240200 METAR LMML NIL=
201002240145 METAR LMML 240145Z 32010KT CAVOK 14/11 Q1011 NOSIG=
201002240130 METAR LMML NIL=
201002240115 METAR LMML 240115Z 32009KT CAVOK 15/11 Q1012 NOSIG=
201002240100 METAR LMML NIL=
201002240045 METAR LMML 240045Z 32009KT 290V350 CAVOK 14/11 Q1012 NOSIG=
201002240030 METAR LMML NIL=
201002240015 METAR LMML 240015Z 31010KT 280V340 CAVOK 15/11 Q1011 NOSIG=
201002240000 METAR LMML NIL=
201002232345 METAR LMML 232345Z 28007KT 250V310 CAVOK 14/11 Q1011 NOSIG=
201002232330 METAR LMML NIL=
201002232315 METAR LMML 232315Z VRB03KT CAVOK 14/11 Q1011 NOSIG=
201002232300 METAR LMML NIL=
201002232245 METAR LMML 232245Z 28004KT 250V310 CAVOK 15/09 Q1011 NOSIG=
201002232230 METAR LMML NIL=
201002232215 METAR LMML 232215Z 27005KT CAVOK 15/09 Q1011 NOSIG=
201002232200 METAR LMML NIL=
201002232145 METAR LMML 232145Z 30007KT CAVOK 15/10 Q1011 NOSIG=
201002232130 METAR LMML NIL=
201002232115 METAR LMML 232115Z 31009KT CAVOK 15/10 Q1012 NOSIG=
201002232100 METAR LMML NIL=
201002232045 METAR LMML 232045Z 32008KT CAVOK 15/10 Q1011 NOSIG=
201002232030 METAR LMML NIL=
201002232015 METAR LMML 232015Z 31007KT CAVOK 15/10 Q1012 NOSIG=
201002232000 METAR LMML NIL=
201002231945 METAR LMML 231945Z 32006KT CAVOK 15/10 Q1012 NOSIG=
201002231930 METAR LMML NIL=
201002231915 METAR LMML 231915Z 30005KT CAVOK 15/10 Q1012 NOSIG=
201002231900 METAR LMML NIL=
201002231845 METAR LMML 231845Z 30008KT CAVOK 15/10 Q1012 NOSIG=
201002231830 METAR LMML NIL=
201002231815 METAR LMML 231815Z 29008KT CAVOK 16/10 Q1012 NOSIG=
201002231800 METAR LMML NIL=
201002231745 METAR LMML 231745Z 30010KT CAVOK 16/10 Q1011 NOSIG=
201002231730 METAR LMML NIL=
201002231715 METAR LMML 231715Z 30009KT CAVOK 17/08 Q1011 NOSIG=
201002231700 METAR LMML NIL=
201002231645 METAR LMML 231645Z 29009KT CAVOK 17/09 Q1011 NOSIG=
201002231630 METAR LMML NIL=
201002231615 METAR LMML 231615Z 29007KT CAVOK 17/08 Q1011 NOSIG=
201002231600 METAR LMML NIL=
201002231545 METAR LMML 231545Z 29006KT 250V320 CAVOK 17/09 Q1010 NOSIG=
201002231530 METAR LMML NIL=
201002231515 METAR LMML 231515Z 31008KT CAVOK 19/07 Q1010 NOSIG=
201002231500 METAR LMML NIL=
201002231445 METAR LMML 231445Z 30008KT CAVOK 19/07 Q1010 NOSIG=
201002231430 METAR LMML NIL=
201002231415 METAR LMML 231415Z 32008KT CAVOK 20/08 Q1010 NOSIG=
201002231400 METAR LMML NIL=
201002231345 METAR LMML 231345Z 30010KT 270V330 CAVOK 21/08 Q1010 NOSIG=
201002231330 METAR LMML NIL=
201002231315 METAR LMML 231315Z 31009KT 280V340 CAVOK 21/07 Q1010 NOSIG=
201002231245 METAR LMML 231245Z 32010KT CAVOK 20/09 Q1010 NOSIG=
201002231215 METAR LMML 231215Z 31012KT CAVOK 20/08 Q1011 NOSIG=
201002231145 METAR LMML 231145Z 32011KT CAVOK 21/08 Q1011 NOSIG=
201002231115 METAR LMML 231115Z 32011KT CAVOK 21/08 Q1011 NOSIG=
201002231045 METAR LMML 231045Z 30012KT 270V330 CAVOK 20/08 Q1011 NOSIG=
201002231015 METAR LMML 231015Z 28011KT 250V320 CAVOK 20/10 Q1011 NOSIG=
201002230945 METAR LMML 230945Z 26009KT 200V300 CAVOK 20/10 Q1011 NOSIG=
201002230930 METAR LMML NIL=
201002230915 METAR LMML 230915Z 24006KT 200V310 CAVOK 19/12 Q1011 NOSIG=
201002230900 METAR LMML NIL=
201002230845 METAR LMML 230845Z 22004KT 190V280 CAVOK 18/13 Q1010 NOSIG=
201002230830 METAR LMML NIL=
201002230815 METAR LMML 230815Z 22005KT 190V270 CAVOK 17/13 Q1010 NOSIG=
201002230800 METAR LMML NIL=
201002230745 METAR LMML 230745Z 22005KT 190V260 9999 FEW003 BKN250 16/15
                        Q1010 NOSIG=
201002230730 METAR LMML NIL=
201002230715 METAR LMML 230715Z 22005KT 190V260 9999 FEW002 BKN250 15/14
                        Q1010 NOSIG=
201002230700 METAR LMML NIL=
201002230645 METAR LMML 230645Z VRB03KT 9000 FEW001 BKN250 13/13 Q1010
                        BECMG CAVOK=
201002230630 METAR LMML NIL=
201002230615 METAR LMML 230615Z VRB03KT 9000 MIFG FEW001 SCT120 BKN250
                        14/14 Q1010 BECMG CAVOK=
201002230600 METAR LMML NIL=
201002230545 METAR LMML 230545Z 21005KT 180V240 0900 R13/0300N FG FEW001
                        BKN250 14/14 Q1010 BECMG CAVOK=
201002230530 METAR LMML NIL=
201002230515 METAR LMML 230515Z 19004KT 170V230 0100 R13/0550N FG BKN001
                        14/14 Q1010 NOSIG=
201002230445 METAR LMML 230445Z 19004KT 160V250 0100 R13/1214VP1500U FG
                        BKN001 14/14 Q1010 NOSIG=
201002230430 METAR LMML NIL=
201002230415 METAR LMML 230415Z 18004KT 0100 R13/0816V1164N FG BKN001
                        14/14 Q1010 NOSIG=
201002230400 METAR LMML NIL=
201002230345 METAR LMML 230345Z 17005KT 0100 R13/0624V0934D FG BKN001
                        14/14 Q1010 NOSIG=
201002230330 METAR LMML NIL=
201002230315 METAR LMML 230315Z 16004KT 130V190 0100 R13/0600N FG BKN001
                        14/14 Q1010 NOSIG=
201002230300 METAR LMML NIL=
201002230245 METAR LMML 230245Z VRB03KT 0100 R13/0800N FG BKN001 13/13
                        Q1010 NOSIG=
201002230230 METAR LMML NIL=
201002230215 METAR LMML 230215Z 11004KT 0100 R13/0225N FG OVC001 13/13
                        Q1010 NOSIG=
201002230200 METAR LMML NIL=
201002230145 METAR LMML 230145Z VRB03KT 0100 R13/0267V0381N FOG BKN001
                        12/12 Q1011 NOSIG=
201002230130 METAR LMML NIL=
201002230115 METAR LMML 230115Z VRB01KT 0100 R13/0327V0578N FOG BKN001
                        12/12 Q1011 NOSIG=
201002230100 METAR LMML NIL=
201002230045 METAR LMML 230045Z VRB03KT 0100 R13/M0050N FOG OVC001 12/12
                        Q1011 NOSIG=
201002230030 METAR LMML NIL=
201002230015 METAR LMML 230015Z VRB02KT 0200 R13/0300N FOG BKN001 12/12
                        Q1011 NOSIG=
201002230000 METAR LMML NIL=
201002222345 METAR LMML 222345Z VRB02KT 0200 R13/0326V0556D FOG BKN001
                        12/11 Q1012 NOSIG=
201002222330 METAR LMML NIL=
201002222315 METAR LMML 222315Z VRB03KT 0600 R13/P1500N FG BKN001 13/13
                        Q1011 NOSIG=
201002222300 METAR LMML NIL=
201002222245 METAR LMML 222245Z 00000KT CAVOK 13/12 Q1012 NOSIG=
201002222230 METAR LMML NIL=
201002222215 METAR LMML 222215Z VRB01KT CAVOK 14/13 Q1012 NOSIG=
201002222200 METAR LMML NIL=
201002222145 METAR LMML 222145Z VRB02KT CAVOK 14/13 Q1012 NOSIG=
201002222130 METAR LMML NIL=
201002222115 METAR LMML 222115Z VRB01KT CAVOK 14/13 Q1012 NOSIG=
201002222100 METAR LMML NIL=
201002222045 METAR LMML 222045Z 17004KT CAVOK 14/13 Q1012 NOSIG=
201002222030 METAR LMML NIL=
201002222015 METAR LMML 222015Z 17004KT CAVOK 14/13 Q1012 NOSIG=
201002222000 METAR LMML NIL=
201002221945 METAR LMML 221945Z VRB03KT CAVOK 14/12 Q1012 NOSIG=
201002221930 METAR LMML NIL=
201002221915 METAR LMML 221915Z 20005KT 160V240 CAVOK 15/12 Q1012 NOSIG=
201002221900 METAR LMML NIL=
201002221845 METAR LMML 221845Z 20005KT 160V260 CAVOK 15/12 Q1011 NOSIG=
201002221830 METAR LMML NIL=
201002221815 METAR LMML 221815Z 20005KT 170V250 CAVOK 15/12 Q1011 NOSIG=
201002221800 METAR LMML NIL=
201002221745 METAR LMML 221745Z 21005KT 180V250 CAVOK 15/12 Q1012 NOSIG=
201002221730 METAR LMML NIL=
201002221715 METAR LMML 221715Z 21005KT 190V260 CAVOK 15/11 Q1011 NOSIG=
201002221700 METAR LMML NIL=
201002221645 METAR LMML 221645Z 21005KT 170V250 CAVOK 16/11 Q1011 NOSIG=
201002221630 METAR LMML NIL=
201002221615 METAR LMML 221615Z 21006KT 190V270 CAVOK 17/11 Q1011 NOSIG=
201002221600 METAR LMML NIL=
201002221545 METAR LMML 221545Z 21006KT 170V260 CAVOK 18/11 Q1011 NOSIG=
201002221530 METAR LMML NIL=
201002221515 METAR LMML 221515Z 21006KT 170V240 CAVOK 18/11 Q1011 NOSIG=
201002221500 METAR LMML NIL=
201002221445 METAR LMML 221445Z 21006KT 140V270 CAVOK 19/12 Q1011 NOSIG=
201002221430 METAR LMML NIL=
201002221415 METAR LMML 221415Z 21007KT 150V250 CAVOK 19/11 Q1011 NOSIG=
201002221400 METAR LMML NIL=
201002221345 METAR LMML 221345Z 22009KT 170V260 CAVOK 19/12 Q1011 NOSIG=
201002221330 METAR LMML NIL=
201002221315 METAR LMML 221315Z 21009KT 180V260 CAVOK 18/12 Q1011 NOSIG=
201002221300 METAR LMML NIL=
201002221245 METAR LMML 221245Z 21009KT 180V270 CAVOK 19/12 Q1011 NOSIG=
201002221230 METAR LMML NIL=
201002221215 METAR LMML 221215Z 21011KT 170V260 CAVOK 19/10 Q1011 NOSIG=
201002221200 METAR LMML NIL=
201002221145 METAR LMML 221145Z 20011KT 160V240 CAVOK 19/09 Q1011 NOSIG=
201002221130 METAR LMML NIL=
201002221115 METAR LMML 221115Z 20013KT 170V240 CAVOK 18/11 Q1012 NOSIG=
201002221100 METAR LMML NIL=
201002221045 METAR LMML 221045Z 20009KT 140V260 CAVOK 18/11 Q1012 NOSIG=
201002221030 METAR LMML NIL=
201002221015 METAR LMML 221015Z 19010KT 150V250 CAVOK 18/12 Q1012 NOSIG=
201002221000 METAR LMML NIL=
201002220945 METAR LMML 220945Z 19008G23KT 150V240 CAVOK 18/12 Q1012 NOSIG=
201002220930 METAR LMML NIL=
201002220915 METAR LMML 220915Z 18009KT 140V230 CAVOK 17/13 Q1012 NOSIG=
201002220900 METAR LMML NIL=
201002220845 METAR LMML 220845Z 16010KT 130V190 CAVOK 17/12 Q1012 NOSIG=
201002220830 METAR LMML NIL=
201002220815 METAR LMML 220815Z 17008KT 140V210 CAVOK 16/13 Q1013 NOSIG=
201002220800 METAR LMML NIL=
201002220745 METAR LMML 220745Z 17010KT 150V210 CAVOK 15/12 Q1013 NOSIG=
201002220730 METAR LMML NIL=
201002220715 METAR LMML 220715Z 18009KT 130V210 9999 -RA NSC 15/12 Q1013
                        NOSIG=
201002220700 METAR LMML NIL=
201002220645 METAR LMML 220645Z 17008KT 150V210 CAVOK 15/11 Q1012 NOSIG=
201002220630 METAR LMML NIL=
201002220615 METAR LMML 220615Z 18009KT CAVOK 14/12 Q1012 NOSIG=
201002220600 METAR LMML NIL=
201002220545 METAR LMML 220545Z 18010KT CAVOK 14/11 Q1012 NOSIG=
201002220530 METAR LMML NIL=
201002220515 METAR LMML 220515Z 18010KT CAVOK 14/11 Q1012 NOSIG=
201002220500 METAR LMML NIL=
201002220445 METAR LMML 220445Z 18011KT CAVOK 14/11 Q1012 NOSIG=
201002220430 METAR LMML NIL=
201002220415 METAR LMML 220415Z 18011KT CAVOK 14/11 Q1012 NOSIG=
201002220400 METAR LMML NIL=
201002220345 METAR LMML 220345Z 19011KT 170V230 CAVOK 14/11 Q1013 NOSIG=
201002220330 METAR LMML NIL=
201002220315 METAR LMML 220315Z 19011KT 160V230 CAVOK 14/11 Q1013 NOSIG=
201002220300 METAR LMML NIL=
201002220245 METAR LMML 220245Z 18009KT 160V220 CAVOK 14/12 Q1013 NOSIG=
201002220230 METAR LMML NIL=
201002220215 METAR LMML 220215Z 18010KT 150V220 9999 FEW030 SCT110 BKN250
                        14/12 Q1013 NOSIG=
201002220200 METAR LMML NIL=
201002220145 METAR LMML 220145Z 18011KT 150V210 9999 FEW024 BKN110 14/11
                        Q1014 NOSIG=
201002220130 METAR LMML NIL=
201002220115 METAR LMML 220115Z 18010KT 160V220 9999 FEW024 BKN110 14/11
                        Q1015 NOSIG=
201002220100 METAR LMML NIL=
201002220045 METAR LMML 220045Z 17008KT 140V200 9999 FEW024 BKN120 14/11
                        Q1015 NOSIG=
201002220030 METAR LMML NIL=
201002220015 METAR LMML 220015Z 17007KT 140V210 9999 FEW024 BKN120 14/11
                        Q1015 NOSIG=
201002220000 METAR LMML NIL=
201002212345 METAR LMML 212345Z 17006KT 120V200 9999 FEW024 BKN120 14/10
                        Q1016 NOSIG=
201002212330 METAR LMML NIL=
201002212315 METAR LMML 212315Z 16007KT 9999 FEW024 BKN120 14/10 Q1016
                        NOSIG=
201002212300 METAR LMML NIL=
201002212245 METAR LMML 212245Z 17008KT 140V210 9999 FEW026 BKN120 14/09
                        Q1016 NOSIG=
201002212230 METAR LMML NIL=
201002212215 METAR LMML 212215Z 18009KT CAVOK 14/09 Q1016 NOSIG=
201002212200 METAR LMML NIL=
201002212145 METAR LMML 212145Z 18008KT 150V210 CAVOK 13/09 Q1016 NOSIG=
201002212130 METAR LMML NIL=
201002212115 METAR LMML 212115Z 18007KT 140V210 CAVOK 13/08 Q1016 NOSIG=
201002212100 METAR LMML NIL=
201002212045 METAR LMML 212045Z 17006KT 130V210 CAVOK 13/08 Q1016 NOSIG=
201002212030 METAR LMML NIL=
201002212015 METAR LMML 212015Z 17005KT 140V200 CAVOK 13/08 Q1016 NOSIG=
201002212000 METAR LMML NIL=
201002211945 METAR LMML 211945Z 18006KT 150V220 CAVOK 13/07 Q1016 NOSIG=
201002211930 METAR LMML NIL=
201002211915 METAR LMML 211915Z 18004KT 140V210 CAVOK 13/07 Q1017 NOSIG=
201002211900 METAR LMML NIL=
201002211845 METAR LMML 211845Z 18004KT 150V220 9999 FEW034 BKN250 13/07
                        Q1017 NOSIG=
201002211830 METAR LMML NIL=
201002211815 METAR LMML 211815Z VRB03KT 9999 FEW034 BKN250 13/07 Q1017
                        NOSIG=
201002211800 METAR LMML NIL=
201002211745 METAR LMML 211745Z VRB03KT 9999 FEW039 BKN250 12/07 Q1016
                        NOSIG=
201002211730 METAR LMML NIL=
201002211715 METAR LMML 211715Z VRB03KT CAVOK 13/06 Q1016 NOSIG=
201002211700 METAR LMML NIL=
201002211645 METAR LMML 211645Z 23004KT 190V300 CAVOK 13/06 Q1016 NOSIG=
201002211630 METAR LMML NIL=
201002211615 METAR LMML 211615Z 23005KT 190V270 CAVOK 14/06 Q1016 NOSIG=
201002211545 METAR LMML 211545Z 23006KT 200V280 9999 FEW035 BKN250 14/06
                        Q1016 NOSIG=
201002211530 METAR LMML NIL=
201002211515 METAR LMML 211515Z 23007KT 200V280 9999 FEW035 BKN250 14/06
                        Q1016 NOSIG=
201002211500 METAR LMML NIL=
201002211445 METAR LMML 211445Z 25006KT 190V300 9999 FEW035 BKN250 15/06
                        Q1016 NOSIG=
201002211430 METAR LMML NIL=
201002211415 METAR LMML 211415Z 26009KT 230V300 9999 FEW035 BKN250 15/05
                        Q1016 NOSIG=
201002211400 METAR LMML NIL=
201002211345 METAR LMML 211345Z 27009KT 230V310 9999 FEW035 BKN250 15/05
                        Q1016 NOSIG=
201002211330 METAR LMML NIL=
201002211315 METAR LMML 211315Z 27010KT 240V320 9999 FEW035 15/04 Q1016
                        NOSIG=
201002211245 METAR LMML 211245Z 27012KT 220V300 9999 FEW035 15/05 Q1017
                        NOSIG=
201002211230 METAR LMML NIL=
201002211215 METAR LMML 211215Z 27012KT 220V300 9999 FEW039 15/05 Q1017
                        NOSIG=
201002211200 METAR LMML NIL=
201002211145 METAR LMML 211145Z 28012KT 220V310 9999 FEW039 16/05 Q1017
                        NOSIG=
201002211130 METAR LMML NIL=
201002211115 METAR LMML 211115Z 28013KT 240V310 9999 FEW039 15/05 Q1017
                        NOSIG=
201002211100 METAR LMML NIL=
201002211045 METAR LMML 211045Z 27015KT 240V300 9999 FEW041 15/06 Q1017
                        NOSIG=
201002211030 METAR LMML NIL=
201002211015 METAR LMML 211015Z 27014KT 240V310 9999 FEW039 15/05 Q1017
                        NOSIG=
201002211000 METAR LMML NIL=
201002210945 METAR LMML 210945Z 29013KT 250V330 9999 FEW039 15/06 Q1017
                        NOSIG=
201002210930 METAR LMML NIL=
201002210915 METAR LMML 210915Z 28012KT 250V310 9999 FEW037 15/06 Q1017
                        NOSIG=
201002210900 METAR LMML NIL=
201002210845 METAR LMML 210845Z 27011KT 240V310 9999 FEW035 14/06 Q1017
                        NOSIG=
201002210830 METAR LMML NIL=
201002210815 METAR LMML 210815Z 30012KT 270V330 9999 FEW037 14/05 Q1017
                        NOSIG=
201002210800 METAR LMML NIL=
201002210745 METAR LMML 210745Z 29007KT 260V320 9999 FEW032 13/07 Q1017
                        NOSIG=
201002210730 METAR LMML NIL=
201002210715 METAR LMML 210715Z VRB02KT 9999 FEW035 12/08 Q1017 NOSIG=
201002210700 METAR LMML NIL=
201002210645 METAR LMML 210645Z 30005KT 9999 FEW035 11/07 Q1016 NOSIG=
201002210630 METAR LMML NIL=
201002210615 METAR LMML 210615Z 30005KT 9999 FEW036 10/06 Q1016 NOSIG=
201002210600 METAR LMML NIL=
201002210545 METAR LMML 210545Z 32008KT 9999 FEW036 11/06 Q1015 NOSIG=
201002210515 METAR LMML 210515Z 30009KT 9999 FEW035 11/05 Q1015 NOSIG=
201002210500 METAR LMML NIL=
201002210445 METAR LMML 210445Z 30010KT 9999 FEW035 11/05 Q1015 NOSIG=
201002210430 METAR LMML NIL=
201002210415 METAR LMML 210415Z 29008KT 9999 FEW035 11/05 Q1014 NOSIG=
201002210400 METAR LMML NIL=
201002210345 METAR LMML 210345Z 28009KT 9999 FEW035 11/05 Q1014 NOSIG=
201002210330 METAR LMML NIL=
201002210315 METAR LMML 210315Z 29011KT 9999 FEW035 11/05 Q1014 NOSIG=
201002210300 METAR LMML NIL=
201002210245 METAR LMML 210245Z 29012KT 250V310 9999 FEW035 12/05 Q1014
                        NOSIG=
201002210230 METAR LMML NIL=
201002210215 METAR LMML 210215Z 29011KT 9999 FEW036 11/05 Q1014 NOSIG=
201002210200 METAR LMML NIL=
201002210145 METAR LMML 210145Z 28009KT 250V310 9999 FEW035 11/05 Q1014
                        NOSIG=
201002210130 METAR LMML NIL=
201002210115 METAR LMML 210115Z 28011KT 250V310 9999 FEW032 12/05 Q1015
                        NOSIG=
201002210045 METAR LMML 210045Z 28012KT 250V310 9999 FEW032 12/05 Q1015
                        NOSIG=
201002210030 METAR LMML NIL=
201002210015 METAR LMML 210015Z 29010KT 240V310 9999 FEW032 12/06 Q1014
                        NOSIG=
201002210000 METAR LMML NIL=
201002202345 METAR LMML 202345Z 29012KT 260V320 9999 FEW032 12/05 Q1014
                        NOSIG=
201002202330 METAR LMML NIL=
201002202315 METAR LMML 202315Z 29013KT 260V330 9999 FEW032 12/05 Q1014
                        NOSIG=
201002202300 METAR LMML NIL=
201002202245 METAR LMML 202245Z 29013KT 260V320 9999 FEW032 12/05 Q1014
                        NOSIG=
201002202230 METAR LMML NIL=
201002202215 METAR LMML 202215Z 30013KT 270V330 9999 FEW032 12/06 Q1014
                        NOSIG=
201002202200 METAR LMML NIL=
201002202145 METAR LMML 202145Z 30016KT 9999 FEW037 12/05 Q1014 NOSIG=
201002202130 METAR LMML NIL=
201002202115 METAR LMML 202115Z 30014KT 9999 FEW037 12/05 Q1013 NOSIG=
201002202100 METAR LMML NIL=
201002202045 METAR LMML 202045Z 31017KT 9999 FEW037 12/05 Q1013 NOSIG=
201002202030 METAR LMML NIL=
201002202015 METAR LMML 202015Z 30019KT 9999 FEW034 12/05 Q1012 NOSIG=
201002202000 METAR LMML NIL=
201002201945 METAR LMML 201945Z 30016KT 270V330 9999 FEW031 13/06 Q1012
                        NOSIG=
201002201930 METAR LMML NIL=
201002201915 METAR LMML 201915Z 30019KT 9999 FEW034 13/06 Q1012 NOSIG=
201002201900 METAR LMML NIL=
201002201845 METAR LMML 201845Z 29019G29KT 260V330 9999 FEW025 13/05 Q1011
                        NOSIG=
201002201830 METAR LMML NIL=
201002201815 METAR LMML 201815Z 29019G30KT 260V320 9999 FEW025 13/07 Q1011
                        NOSIG=
201002201745 METAR LMML 201745Z 30020KT 9999 FEW025 13/06 Q1010 NOSIG=
201002201730 METAR LMML NIL=
201002201715 METAR LMML 201715Z 29018KT 260V320 9999 FEW025 13/07 Q1009
                        NOSIG=
201002201700 METAR LMML NIL=
201002201645 METAR LMML 201645Z 29017KT 260V320 CAVOK 13/07 Q1009 NOSIG=
201002201630 METAR LMML NIL=
201002201615 METAR LMML 201615Z 29019KT 9999 FEW026 14/07 Q1009 NOSIG=
201002201600 METAR LMML NIL=
201002201545 METAR LMML 201545Z 29021KT 9999 FEW027 14/08 Q1009 NOSIG=
201002201530 METAR LMML NIL=
201002201515 METAR LMML 201515Z 29021KT 9999 FEW029 15/08 Q1008 NOSIG=
201002201500 METAR LMML NIL=
201002201445 METAR LMML 201445Z 30021KT 9999 FEW024 BKN250 15/08 Q1008
                        NOSIG=
201002201430 METAR LMML NIL=
201002201415 METAR LMML 201415Z 29021KT 9999 SCT024 15/09 Q1008 NOSIG=
201002201400 METAR LMML NIL=
201002201345 METAR LMML 201345Z 29019KT 260V320 9999 SCT024 16/10 Q1008
                        NOSIG=
201002201330 METAR LMML NIL=
201002201315 METAR LMML 201315Z 29017KT 260V320 9999 SCT025 SCT250 16/09
                        Q1008 NOSIG=
201002201300 METAR LMML NIL=
201002201245 METAR LMML 201245Z 30018KT 270V340 9999 SCT024 SCT250 17/10
                        Q1007 NOSIG=
201002201230 METAR LMML NIL=
201002201215 METAR LMML 201215Z 30019KT 9999 SCT024 SCT250 16/09 Q1008
                        NOSIG=
201002201200 METAR LMML NIL=
201002201145 METAR LMML 201145Z 30017KT 270V330 9999 SCT022 SCT250 16/09
                        Q1007 NOSIG=
201002201130 METAR LMML NIL=
201002201115 METAR LMML 201115Z 30017KT 270V330 9999 SCT022 SCT250 17/09
                        Q1007 NOSIG=
201002201100 METAR LMML NIL=
201002201045 METAR LMML 201045Z 29017KT 260V320 9999 FEW022 SCT250 17/10
                        Q1007 NOSIG=
201002201030 METAR LMML NIL=
201002201015 METAR LMML 201015Z 29017KT 260V320 9999 FEW023 SCT250 16/10
                        Q1007 NOSIG=
201002201000 METAR LMML NIL=
201002200945 METAR LMML 200945Z 31016KT 280V340 9999 FEW025 BKN050 17/10
                        Q1007 NOSIG=
201002200915 METAR LMML 200915Z 31018KT CAVOK 16/10 Q1006 NOSIG=
201002200900 METAR LMML NIL=
201002200845 METAR LMML 200845Z 31017KT CAVOK 16/11 Q1006 NOSIG=
201002200830 METAR LMML NIL=
201002200815 METAR LMML 200815Z 31013KT 270V340 CAVOK 16/10 Q1006 NOSIG=
201002200800 METAR LMML NIL=
201002200745 METAR LMML 200745Z 31017KT CAVOK 15/11 Q1005 NOSIG=
201002200730 METAR LMML NIL=
201002200715 METAR LMML 200715Z 30016KT 6000 NSC 15/12 Q1005 NOSIG=
201002200700 METAR LMML NIL=
201002200645 METAR LMML 200645Z 28015KT 240V310 1500 DU NSC 17/11 Q1005
                        TEMPO 0800 DU=
201002200630 METAR LMML NIL=
201002200615 METAR LMML 200615Z 26016KT 220V290 1500 DU NSC 17/11 Q1003
                        TEMPO 0800 DU=
201002200600 METAR LMML NIL=
201002200545 METAR LMML 200545Z 24012KT 200V280 1500 DU NSC 17/11 Q1003
                        TEMPO 1000 DU=
201002200530 METAR LMML NIL=
201002200515 METAR LMML 200515Z 22012KT 200V260 2500 DU NSC 17/12 Q1003
                        TEMPO 1000 DU=
201002200500 METAR LMML NIL=
201002200445 METAR LMML 200445Z 22013KT 200V260 2000 DU NSC 17/11 Q1002
                        TEMPO 1000 DU=
201002200430 METAR LMML NIL=
201002200415 METAR LMML 200415Z 22012KT 190V250 2000 DU NSC 18/10 Q1002
                        TEMPO 1000 DU=
201002200400 METAR LMML NIL=
201002200345 METAR LMML 200345Z 22010KT 200V260 2000 DU NSC 17/10 Q1002
                        TEMPO 1000 DU=
201002200330 METAR LMML NIL=
201002200315 METAR LMML 200315Z 22009KT 180V250 2000 DU NSC 18/10 Q1002
                        TEMPO 1000 DU=
201002200300 METAR LMML NIL=
201002200245 METAR LMML 200245Z 23010KT 190V270 3000 DU NSC 18/10 Q1002
                        TEMPO 1000 DU=
201002200230 METAR LMML NIL=
201002200215 METAR LMML 200215Z 24010KT 200V270 3000 DU NSC 18/10 Q1003
                        TEMPO 1000 DU=
201002200200 METAR LMML NIL=
201002200145 METAR LMML 200145Z 22010KT 200V260 3000 DU NSC 18/11 Q1003
                        NOSIG=
201002200130 METAR LMML NIL=
201002200115 METAR LMML 200115Z 22009KT 190V250 3500 DU NSC 17/12 Q1003
                        NOSIG=
201002200100 METAR LMML NIL=
201002200045 METAR LMML 200045Z 22010KT 180V260 3000 DU NSC 18/11 Q1004
                        NOSIG=
201002200030 METAR LMML NIL=
201002200015 METAR COR LMML 200015Z 22010KT 190V260 4000 DU NSC 18/11
                        Q1004 NOSIG=
201002200000 METAR LMML NIL=
201002192345 METAR LMML 192345Z 22010KT 200V270 4000 DU NSC 18/11 Q1004
                        NOSIG=
201002192330 METAR LMML NIL=
201002192315 METAR LMML 192315Z 22010KT 200V270 4500 DU NSC 18/11 Q1004
                        NOSIG=
201002192300 METAR LMML NIL=
201002192245 METAR LMML 192245Z 23012KT 200V260 4500 DU NSC 19/10 Q1003
                        NOSIG=
201002192230 METAR LMML NIL=
201002192215 METAR LMML 192215Z 23012KT 200V260 5000 DU NSC 19/10 Q1004
                        TEMPO 23018KT=
201002192200 METAR LMML NIL=
201002192145 METAR LMML 192145Z 22009KT 180V260 6000 NSC 18/10 Q1003 TEMPO
                        23018KT=
201002192130 METAR LMML NIL=
201002192115 METAR LMML 192115Z 21009KT 170V250 6000 NSC 18/11 Q1004 TEMPO
                        23018KT=
201002192100 METAR LMML NIL=
201002192045 METAR LMML 192045Z 21009KT 170V260 6000 NSC 18/10 Q1003 TEMPO
                        23018KT=
201002192030 METAR LMML NIL=
201002192015 METAR LMML 192015Z 23012KT 190V270 6000 NSC 19/08 Q1003 NOSIG=
201002192000 METAR LMML NIL=
201002191945 METAR LMML 191945Z 21010KT 170V270 7000 NSC 18/10 Q1003 NOSIG=
201002191930 METAR LMML NIL=
201002191915 METAR LMML 191915Z 23006KT 7000 NSC 17/12 Q1003 NOSIG=
201002191900 METAR LMML NIL=
201002191845 METAR LMML 191845Z 22010KT 180V250 7000 NSC 17/11 Q1003 NOSIG=
201002191830 METAR LMML NIL=
201002191815 METAR LMML 191815Z 21008KT 170V240 7000 NSC 16/12 Q1003 NOSIG=
201002191800 METAR LMML NIL=
201002191745 METAR LMML 191745Z 21008KT 170V240 6000 NSC 16/12 Q1003 TEMPO
                        4000 DU=
201002191730 METAR LMML NIL=
201002191715 METAR LMML 191715Z 21008KT 170V240 6000 NSC 16/12 Q1002 TEMPO
                        4000 DU=
201002191700 METAR LMML NIL=
201002191645 METAR LMML 191645Z 21009KT 170V250 6000 NSC 17/11 Q1002 TEMPO
                        4000 DU=
201002191630 METAR LMML NIL=
201002191615 METAR LMML 191615Z 21009KT 180V240 7000 NSC 17/12 Q1002 TEMPO
                        4000 DU=
201002191600 METAR LMML NIL=
201002191545 METAR LMML 191545Z 22010KT 180V260 7000 NSC 18/12 Q1002 TEMPO
                        4000 DU=
201002191530 METAR LMML NIL=
201002191515 METAR LMML 191515Z 22011KT 180V250 7000 NSC 18/12 Q1002 TEMPO
                        4000 DU=
201002191500 METAR LMML NIL=
201002191445 METAR LMML 191445Z 23012KT 200V270 7000 NSC 18/12 Q1002 TEMPO
                        4000 DU=
201002191430 METAR LMML NIL=
201002191415 METAR LMML 191415Z 23010KT 190V270 6000 NSC 19/12 Q1002 TEMPO
                        4000 DU=
201002191400 METAR LMML NIL=
201002191345 METAR LMML 191345Z 23012KT 200V280 6000 NSC 19/12 Q1002 TEMPO
                        4000 DU=
201002191330 METAR LMML NIL=
201002191315 METAR LMML 191315Z 23012KT 200V280 6000 NSC 19/12 Q1003 TEMPO
                        4000 DU=
201002191300 METAR LMML NIL=
201002191245 METAR LMML 191245Z 23012KT 190V270 7000 NSC 19/12 Q1003 TEMPO
                        4000 DU=
201002191230 METAR LMML NIL=
201002191215 METAR LMML 191215Z 22013KT 200V260 7000 NSC 19/12 Q1003 TEMPO
                        4000 DU=
201002191200 METAR LMML NIL=
201002191145 METAR LMML 191145Z 23013KT 190V260 7000 NSC 19/12 Q1003 TEMPO
                        4000 DU=
201002191130 METAR LMML NIL=
201002191115 METAR LMML 191115Z 22010KT 190V270 7000 NSC 19/12 Q1003 TEMPO
                        4000 DU=
201002191100 METAR LMML NIL=
201002191045 METAR LMML 191045Z 20010KT 170V260 6000 NSC 19/12 Q1003 TEMPO
                        4000 DU=
201002191030 METAR LMML NIL=
201002191015 METAR LMML 191015Z 19010KT 150V230 7000 NSC 19/12 Q1003 TEMPO
                        4000 DU=
201002191000 METAR LMML NIL=
201002190945 METAR LMML 190945Z 19014KT 150V230 6000 NSC 19/13 Q1003 TEMPO
                        4000 DU=
201002190930 METAR LMML NIL=
201002190915 METAR LMML 190915Z 19014KT 150V230 6000 NSC 20/12 Q1004 TEMPO
                        4000 DU=
201002190900 METAR LMML NIL=
201002190845 METAR LMML 190845Z 19010KT 160V230 7000 NSC 19/13 Q1004 NOSIG=
201002190830 METAR LMML NIL=
201002190815 METAR LMML 190815Z 18011KT 140V210 8000 NSC 18/13 Q1004 NOSIG=
201002190800 METAR LMML NIL=
201002190745 METAR LMML 190745Z 17011KT 140V200 8000 NSC 18/13 Q1004 NOSIG=
201002190730 METAR LMML NIL=
201002190715 METAR LMML 190715Z 17011KT 140V210 8000 NSC 17/13 Q1005 NOSIG=
201002190700 METAR LMML NIL=
201002190645 METAR LMML 190645Z 16013KT 140V200 9000 NSC 17/12 Q1005 NOSIG=
201002190630 METAR LMML NIL=
201002190615 METAR LMML 190615Z 16015KT 9000 NSC 17/12 Q1005 NOSIG=
201002190600 METAR LMML NIL=
201002190545 METAR LMML 190545Z 16014KT 130V200 CAVOK 18/12 Q1005 NOSIG=
201002190530 METAR LMML NIL=
201002190515 METAR LMML 190515Z 16013KT CAVOK 17/12 Q1005 NOSIG=
201002190500 METAR LMML NIL=
201002190445 METAR LMML 190445Z 16012KT CAVOK 17/12 Q1006 NOSIG=
201002190430 METAR LMML NIL=
201002190415 METAR LMML 190415Z 16011KT CAVOK 17/12 Q1006 NOSIG=
201002190400 METAR LMML NIL=
201002190345 METAR LMML 190345Z 16011KT CAVOK 16/13 Q1006 NOSIG=
201002190330 METAR LMML NIL=
201002190315 METAR LMML 190315Z 16010KT CAVOK 17/12 Q1007 NOSIG=
201002190300 METAR LMML NIL=
201002190245 METAR LMML 190245Z 16009KT 130V190 CAVOK 17/12 Q1008 NOSIG=
201002190230 METAR LMML NIL=
201002190215 METAR LMML 190215Z 15008KT 110V180 CAVOK 17/12 Q1008 NOSIG=
201002190200 METAR LMML NIL=
201002190145 METAR LMML 190145Z 16010KT 120V200 CAVOK 17/12 Q1008 NOSIG=
201002190130 METAR LMML NIL=
201002190115 METAR LMML 190115Z 16008KT CAVOK 17/11 Q1009 NOSIG=
201002190100 METAR LMML NIL=
201002190045 METAR LMML 190045Z 16009KT 130V190 CAVOK 17/12 Q1009 NOSIG=
201002190030 METAR LMML NIL=
201002190015 METAR LMML 190015Z 17007KT 140V200 CAVOK 17/11 Q1009 NOSIG=
201002190000 METAR LMML NIL=
201002182345 METAR LMML 182345Z 18004KT 150V210 CAVOK 17/11 Q1010 NOSIG=
201002182330 METAR LMML NIL=
201002182315 METAR LMML 182315Z 16005KT 130V190 CAVOK 16/12 Q1010 NOSIG=
201002182300 METAR LMML NIL=
201002182245 METAR LMML 182245Z 16005KT 120V200 CAVOK 15/12 Q1010 NOSIG=
201002182230 METAR LMML NIL=
201002182215 METAR LMML 182215Z 14006KT CAVOK 15/13 Q1011 NOSIG=
201002182200 METAR LMML NIL=
201002182145 METAR LMML 182145Z 16004KT 120V190 CAVOK 15/12 Q1011 NOSIG=
201002182130 METAR LMML NIL=
201002182115 METAR LMML 182115Z 12004KT CAVOK 15/12 Q1011 NOSIG=
201002182100 METAR LMML NIL=
201002182045 METAR LMML 182045Z VRB03KT CAVOK 16/12 Q1012 NOSIG=
201002182030 METAR LMML NIL=
201002182015 METAR LMML 182015Z VRB02KT CAVOK 16/10 Q1011 NOSIG=
201002182000 METAR LMML NIL=
201002181945 METAR LMML 181945Z VRB02KT CAVOK 15/12 Q1012 NOSIG=
201002181930 METAR LMML NIL=
201002181915 METAR LMML 181915Z VRB01KT CAVOK 15/12 Q1012 NOSIG=
201002181900 METAR LMML NIL=
201002181845 METAR LMML 181845Z VRB01KT CAVOK 15/13 Q1012 NOSIG=
201002181830 METAR LMML NIL=
201002181815 METAR LMML 181815Z 00000KT CAVOK 16/13 Q1011 NOSIG=
201002181800 METAR LMML NIL=
201002181745 METAR LMML 181745Z VRB02KT CAVOK 16/13 Q1011 NOSIG=
201002181730 METAR LMML NIL=
201002181715 METAR LMML 181715Z VRB01KT CAVOK 17/13 Q1011 NOSIG=
201002181700 METAR LMML NIL=
201002181645 METAR LMML 181645Z VRB03KT CAVOK 18/10 Q1011 NOSIG=
201002181630 METAR LMML NIL=
201002181615 METAR LMML 181615Z VRB03KT CAVOK 18/11 Q1011 NOSIG=
201002181600 METAR LMML NIL=
201002181545 METAR LMML 181545Z VRB03KT CAVOK 21/09 Q1011 NOSIG=
201002181530 METAR LMML NIL=
201002181515 METAR COR LMML 181515Z VRB03KT CAVOK 22/09 Q1011 NOSIG=
201002181500 METAR LMML NIL=
201002181445 METAR LMML 181445Z 22004KT 160V280 CAVOK 23/06 Q1011 NOSIG=
201002181430 METAR LMML NIL=
201002181415 METAR LMML 181415Z 23006KT 190V280 CAVOK 23/06 Q1011 NOSIG=
201002181400 METAR LMML NIL=
201002181345 METAR LMML 181345Z 24007KT 200V280 CAVOK 24/06 Q1011 NOSIG=
201002181330 METAR LMML NIL=
201002181315 METAR LMML 181315Z 24007KT 200V290 CAVOK 24/07 Q1011 NOSIG=
201002181300 METAR LMML NIL=
201002181245 METAR LMML 181245Z 25006KT 200V310 CAVOK 24/08 Q1011 NOSIG=
201002181230 METAR LMML NIL=
201002181215 METAR LMML 181215Z 24007KT 180V320 CAVOK 23/07 Q1012 NOSIG=
201002181200 METAR LMML NIL=
201002181145 METAR LMML 181145Z 23009KT 200V270 CAVOK 22/08 Q1012 NOSIG=
201002181130 METAR LMML NIL=
201002181115 METAR LMML 181115Z 23007KT 200V280 CAVOK 23/09 Q1012 NOSIG=
201002181100 METAR LMML NIL=
201002181045 METAR LMML 181045Z 25009KT 220V300 CAVOK 22/08 Q1012 NOSIG=
201002181030 METAR LMML NIL=
201002181015 METAR LMML 181015Z 26010KT 220V300 CAVOK 22/08 Q1012 NOSIG=
201002181000 METAR LMML NIL=
201002180945 METAR LMML 180945Z 24008KT 200V280 CAVOK 22/09 Q1012 NOSIG=
201002180930 METAR LMML NIL=
201002180915 METAR LMML 180915Z 24008KT 200V280 CAVOK 22/10 Q1012 NOSIG=
201002180900 METAR LMML NIL=
201002180845 METAR LMML 180845Z 24008KT 190V280 CAVOK 20/09 Q1011 NOSIG=
201002180830 METAR LMML NIL=
201002180815 METAR LMML 180815Z 24008KT 200V280 CAVOK 19/09 Q1011 NOSIG=
201002180800 METAR LMML NIL=
201002180745 METAR LMML 180745Z 24007KT 200V270 CAVOK 18/09 Q1011 NOSIG=
201002180730 METAR LMML NIL=
201002180715 METAR LMML 180715Z 25006KT 210V300 CAVOK 17/10 Q1011 NOSIG=
201002180700 METAR LMML NIL=
201002180645 METAR LMML 180645Z 24005KT 200V280 CAVOK 16/11 Q1010 NOSIG=
201002180630 METAR LMML NIL=
201002180615 METAR LMML 180615Z 22006KT CAVOK 15/11 Q1010 NOSIG=
201002180600 METAR LMML NIL=
201002180545 METAR LMML 180545Z VRB03KT CAVOK 15/11 Q1010 NOSIG=
201002180530 METAR LMML NIL=
201002180515 METAR LMML 180515Z VRB03KT CAVOK 15/11 Q1009 NOSIG=
201002180500 METAR LMML NIL=
201002180445 METAR LMML 180445Z 26004KT 180V330 CAVOK 15/11 Q1009 NOSIG=
201002180430 METAR LMML NIL=
201002180415 METAR LMML 180415Z 24005KT 210V300 CAVOK 15/11 Q1009 NOSIG=
201002180400 METAR LMML NIL=
201002180345 METAR LMML 180345Z 23008KT 200V260 CAVOK 16/11 Q1008 NOSIG=
201002180330 METAR LMML NIL=
201002180315 METAR LMML 180315Z 24007KT 200V280 CAVOK 16/10 Q1008 NOSIG=
201002180300 METAR LMML NIL=
201002180245 METAR LMML 180245Z 24009KT 200V270 CAVOK 16/10 Q1008 NOSIG=
201002180230 METAR LMML NIL=
201002180215 METAR LMML 180215Z 24010KT 210V280 CAVOK 16/11 Q1008 NOSIG=
201002180200 METAR LMML NIL=
201002180145 METAR LMML 180145Z 25008KT 200V300 CAVOK 16/11 Q1008 NOSIG=
201002180130 METAR LMML NIL=
201002180115 METAR LMML 180115Z 24007KT 200V290 CAVOK 16/11 Q1008 NOSIG=
201002180100 METAR LMML NIL=
201002180045 METAR LMML 180045Z 23008KT 190V280 CAVOK 17/11 Q1008 NOSIG=
201002180030 METAR LMML NIL=
201002180015 METAR LMML 180015Z 22008KT 200V260 CAVOK 17/11 Q1008 NOSIG=
201002180000 METAR LMML NIL=
201002172345 METAR LMML 172345Z 22008KT 200V260 CAVOK 16/11 Q1008 NOSIG=
201002172330 METAR LMML NIL=
201002172315 METAR LMML 172315Z 21007KT 180V260 7000 NSC 16/11 Q1008 NOSIG=
201002172300 METAR LMML NIL=
201002172245 METAR LMML 172245Z 22008KT 190V250 7000 NSC 17/11 Q1007 NOSIG=
201002172230 METAR LMML NIL=
201002172215 METAR LMML 172215Z 22008KT 190V250 7000 NSC 17/11 Q1007 NOSIG=
201002172200 METAR LMML NIL=
201002172145 METAR LMML 172145Z 22007KT 190V250 7000 NSC 17/11 Q1007 NOSIG=
201002172130 METAR LMML NIL=
201002172115 METAR LMML 172115Z 23010KT 200V270 7000 NSC 17/11 Q1007 NOSIG=
201002172100 METAR LMML NIL=
201002172045 METAR LMML 172045Z 23009KT 200V260 7000 NSC 17/11 Q1007 NOSIG=
201002172030 METAR LMML NIL=
201002172015 METAR LMML 172015Z 23008KT 200V270 7000 NSC 17/11 Q1007 NOSIG=
201002172000 METAR LMML NIL=
201002171945 METAR LMML 171945Z 23010KT 200V270 7000 NSC 17/11 Q1006 NOSIG=
201002171930 METAR LMML NIL=
201002171915 METAR LMML 171915Z 21009KT 6000 NSC 17/11 Q1006 NOSIG=
201002171900 METAR LMML NIL=
201002171845 METAR LMML 171845Z 21007KT 6000 NSC 16/12 Q1006 NOSIG=
201002171830 METAR LMML NIL=
201002171815 METAR LMML 171815Z 22008KT 180V260 6000 NSC 16/11 Q1005 NOSIG=
201002171800 METAR LMML NIL=
201002171745 METAR LMML 171745Z 21008KT 180V240 6000 NSC 16/11 Q1005 NOSIG=
201002171730 METAR LMML NIL=
201002171715 METAR LMML 171715Z 21009KT 180V260 6000 NSC 16/12 Q1005 NOSIG=
201002171700 METAR LMML NIL=
201002171645 METAR LMML 171645Z 21008KT 180V250 6000 NSC 16/12 Q1004 NOSIG=
201002171630 METAR LMML NIL=
201002171615 METAR LMML 171615Z 21009KT 170V250 6000 NSC 16/12 Q1004 NOSIG=
201002171600 METAR LMML NIL=
201002171545 METAR LMML 171545Z 21009KT 170V260 6000 NSC 17/12 Q1004 NOSIG=
201002171530 METAR LMML NIL=
201002171515 METAR LMML 171515Z 21012KT 170V250 6000 NSC 17/13 Q1004 NOSIG=
201002171500 METAR LMML NIL=
201002171445 METAR LMML 171445Z 21011KT 160V260 6000 NSC 17/13 Q1004 NOSIG=
201002171430 METAR LMML NIL=
201002171415 METAR LMML 171415Z 21011KT 170V240 7000 NSC 18/13 Q1004 NOSIG=
201002171400 METAR LMML NIL=
201002171345 METAR LMML 171345Z 20011KT 150V250 7000 NSC 17/13 Q1004 NOSIG=
201002171330 METAR LMML NIL=
201002171300 METAR LMML NIL=
201002171245 METAR LMML 171245Z 20011KT 160V240 CAVOK 17/13 Q1005 NOSIG=
201002171215 METAR LMML 171215Z 20012KT 140V240 CAVOK 18/12 Q1005 NOSIG=
201002171200 METAR LMML NIL=
201002171145 METAR LMML 171145Z 20009KT 160V240 CAVOK 18/12 Q1006 NOSIG=
201002171130 METAR LMML NIL=
201002171115 METAR LMML 171115Z 21007KT 170V250 CAVOK 17/12 Q1006 NOSIG=
201002171100 METAR LMML NIL=
201002171045 METAR LMML 171045Z 21009KT 170V240 CAVOK 16/13 Q1006 NOSIG=
201002171015 METAR LMML 171015Z 20008KT 160V250 CAVOK 16/13 Q1006 NOSIG=
201002171000 METAR LMML NIL=
201002170945 METAR LMML 170945Z 20009KT 150V250 CAVOK 17/13 Q1005 NOSIG=
201002170930 METAR LMML NIL=
201002170915 METAR LMML 170915Z 20009KT 160V240 CAVOK 16/13 Q1005 NOSIG=
201002170900 METAR LMML NIL=
201002170845 METAR LMML 170845Z 20008KT 160V240 CAVOK 16/13 Q1005 NOSIG=
201002170830 METAR LMML NIL=
201002170815 METAR LMML 170815Z 19005KT 160V250 CAVOK 16/13 Q1005 NOSIG=
201002170800 METAR LMML NIL=
201002170745 METAR LMML 170745Z 19004KT 160V240 CAVOK 15/13 Q1005 NOSIG=
201002170730 METAR LMML NIL=
201002170715 METAR LMML 170715Z 19004KT 160V220 CAVOK 15/13 Q1005 NOSIG=
201002170700 METAR LMML NIL=
201002170645 METAR LMML 170645Z 21004KT 150V270 9999 FEW004 14/13 Q1005
                        NOSIG=
201002170630 METAR LMML NIL=
201002170615 METAR LMML 170615Z 21005KT 170V260 6000 FEW004 14/13 Q1005
                        BECMG 9999 SCT010=
201002170600 METAR LMML NIL=
201002170545 METAR LMML 170545Z VRB03KT 6000 BKN005 SCT200 13/12 Q1004
                        BECMG 9999 SCT010=
201002170530 METAR LMML NIL=
201002170515 METAR LMML 170515Z VRB03KT CAVOK 13/12 Q1004 NOSIG=
201002170500 METAR LMML NIL=
201002170445 METAR LMML 170445Z 23005KT 190V280 CAVOK 13/12 Q1004 NOSIG=
201002170430 METAR LMML NIL=
201002170415 METAR LMML 170415Z 24004KT 190V290 CAVOK 13/12 Q1004 NOSIG=
201002170400 METAR LMML NIL=
201002170345 METAR LMML 170345Z 22004KT 180V260 CAVOK 13/11 Q1003 NOSIG=
201002170330 METAR LMML NIL=
201002170315 METAR LMML 170315Z VRB02KT CAVOK 13/11 Q1003 NOSIG=
201002170300 METAR LMML NIL=
201002170245 METAR LMML 170245Z 29007KT 250V320 CAVOK 13/11 Q1002 NOSIG=
201002170230 METAR LMML NIL=
201002170215 METAR LMML 170215Z 29007KT CAVOK 13/11 Q1002 NOSIG=
201002170200 METAR LMML NIL=
201002170145 METAR LMML 170145Z 28006KT 240V320 CAVOK 13/11 Q1002 NOSIG=
201002170130 METAR LMML NIL=
201002170115 METAR LMML 170115Z 29012KT 250V310 CAVOK 14/11 Q1002 NOSIG=
201002170100 METAR LMML NIL=
201002170045 METAR LMML 170045Z 27009KT 240V300 9000 NSC 14/12 Q1002 NOSIG=
201002170030 METAR LMML NIL=
201002170015 METAR LMML 170015Z 27011KT 240V300 9000 NSC 14/12 Q1002 NOSIG=
201002170000 METAR LMML NIL=
201002162345 METAR LMML 162345Z 27012KT 220V310 9000 NSC 14/12 Q1001 NOSIG=
201002162330 METAR LMML NIL=
201002162315 METAR LMML 162315Z 27014KT 240V300 9000 NSC 15/12 Q1001 NOSIG=
201002162300 METAR LMML NIL=
201002162245 METAR LMML 162245Z 27014KT 240V300 9000 NSC 15/13 Q1001 NOSIG=
201002162230 METAR LMML NIL=
201002162215 METAR LMML 162215Z 25012KT 200V290 9000 NSC 15/12 Q1000 NOSIG=
201002162200 METAR LMML NIL=
201002162145 METAR LMML 162145Z 24013KT 200V280 9000 NSC 15/12 Q1000 NOSIG=
201002162130 METAR LMML NIL=
201002162115 METAR LMML 162115Z 23011KT 200V270 9000 NSC 15/12 Q0999 NOSIG=
201002162100 METAR LMML NIL=
201002162045 METAR LMML 162045Z 23011KT 200V270 9000 NSC 15/11 Q0999 NOSIG=
201002162030 METAR LMML NIL=
201002162015 METAR LMML 162015Z 24012KT 200V270 9000 NSC 16/11 Q0999 NOSIG=
201002162000 METAR LMML NIL=
201002161945 METAR LMML 161945Z 25012KT 210V280 CAVOK 16/10 Q0999 NOSIG=
201002161930 METAR LMML NIL=
201002161915 METAR LMML 161915Z 24009KT 200V310 CAVOK 16/11 Q0999 NOSIG=
201002161900 METAR LMML NIL=
201002161845 METAR LMML 161845Z 21006KT 180V260 6000 NSC 16/11 Q0998 NOSIG
                        RMK WIDESPREAD DUST=
201002161830 METAR LMML NIL=
201002161815 METAR LMML 161815Z 20006KT 170V240 6000 NSC 16/12 Q0998 NOSIG
                        RMK WIDESPREAD DUST=
201002161800 METAR LMML NIL=
201002161745 METAR LMML 161745Z 19009KT 6000 NSC 16/13 Q0998 NOSIG RMK
                        WIDESPREAD DUST=
201002161730 METAR LMML NIL=
201002161715 METAR LMML 161715Z 18010KT 160V220 6000 NSC 16/14 Q0997 NOSIG
                        RMK WIDESPREAD DUST=
201002161700 METAR LMML NIL=
201002161645 METAR LMML 161645Z 19010KT 140V240 6000 NSC 16/14 Q0997 NOSIG
                        RMK WIDESPREAD DUST=
201002161630 METAR LMML NIL=
201002161615 METAR LMML 161615Z 17009KT 140V200 6000 NSC 16/14 Q0997 TEMPO
                        3000 TSRA SCT015 BKN060CB RMK WIDESPREAD
                        DUST=
201002161600 METAR LMML NIL=
201002161545 METAR LMML 161545Z 18009KT 150V210 6000 NSC 16/14 Q0997 TEMPO
                        3000 TSRA SCT015 BKN060CB RMK WIDESPREAD
                        DUST=
201002161530 METAR LMML NIL=
201002161515 METAR LMML 161515Z 16011KT 140V200 6000 NSC 16/14 Q0997 TEMPO
                        3000 TSRA BKN015 BKN060CB RMK WIDESPREAD
                        DUST=
201002161500 METAR LMML NIL=
201002161445 METAR LMML 161445Z 16012KT 120V190 6000 NSC 16/14 Q0997 TEMPO
                        3000 TSRA BKN015 BKN060CB RMK WIDESPREAD
                        DUST=
201002161430 METAR LMML NIL=
201002161415 METAR LMML 161415Z 15015KT 120V180 6000 FEW011 BKN130 16/14
                        Q0997 NOSIG RMK WIDESPREAD DUST=
201002161400 METAR LMML NIL=
201002161345 METAR LMML 161345Z 14015KT 6000 SCT011 OVC130 16/14 Q0997
                        TEMPO 5000 DU BKN010 RMK WIDESPREAD
                        DUST=
201002161330 METAR LMML NIL=
201002161315 METAR LMML 161315Z 15016KT 6000 SCT011 OVC130 16/14 Q0997
                        TEMPO 5000 DU BKN010=
201002161300 METAR LMML NIL=
201002161245 METAR LMML 161245Z 15016KT 120V180 7000 BKN012 OVC130 15/14
                        Q0999 NOSIG=
201002161230 METAR LMML NIL=
201002161215 METAR LMML 161215Z 14016KT 100V170 7000 BKN013 OVC130 15/13
                        Q0999 NOSIG=
201002161200 METAR LMML NIL=
201002161145 METAR LMML 161145Z 13017KT 7000 BKN013 OVC130 15/13 Q0999
                        NOSIG RMK WIDESPREAD DUST=
201002161130 METAR LMML NIL=
201002161115 METAR LMML 161115Z 14016KT 7000 BKN017 OVC150 15/13 Q1001
                        TEMPO BKN015 RMK WIDESPREAD DUST=
201002161100 METAR LMML NIL=
201002161045 METAR LMML 161045Z 13019KT 100V160 7000 FEW015 SCT110 OVC150
                        15/13 Q1001 NOSIG RMK WIDESPREAD
                        DUST=
201002161030 METAR LMML NIL=
201002161015 METAR LMML 161015Z 13020KT 7000 FEW011 OVC130 15/13 Q1001
                        NOSIG=
201002161000 METAR LMML NIL=
201002160945 METAR LMML 160945Z 14018KT 7000 SCT011 OVC110 15/13 Q1002
                        TEMPO BKN011=
201002160930 METAR LMML NIL=
201002160915 METAR LMML 160915Z 14015KT 7000 SCT011 OVC110 15/13 Q1002
                        TEMPO BKN011=
201002160900 METAR LMML NIL=
201002160845 METAR LMML 160845Z 14018KT 8000 FEW009 SCT014 OVC130 15/13
                        Q1003 TEMPO BKN013=
201002160830 METAR LMML NIL=
201002160815 METAR LMML 160815Z 13016KT 9000 FEW009 SCT014 BKN130 14/13
                        Q1004 TEMPO BKN013=
201002160800 METAR LMML NIL=
201002160745 METAR LMML 160745Z 14017KT 110V170 9000 -RA FEW009 SCT014
                        BKN130 14/13 Q1004 TEMPO BKN013=
201002160730 METAR LMML NIL=
201002160715 METAR LMML 160715Z 14013KT 110V180 9000 -RA FEW009 SCT014
                        BKN130 14/13 Q1004 TEMPO BKN013=
201002160700 METAR LMML NIL=
201002160645 METAR LMML 160645Z 13017KT 9000 -RA FEW009 BKN130 BKN250
                        14/12 Q1004 NOSIG=
201002160630 METAR LMML NIL=
201002160615 METAR LMML 160615Z 12017KT 9000 -RA FEW009 BKN130 BKN250
                        14/12 Q1004 NOSIG=
201002160600 METAR LMML NIL=
201002160545 METAR LMML 160545Z 13016KT 9999 FEW013 BKN120 BKN250 14/12
                        Q1005 TEMPO SCT008=
201002160530 METAR LMML NIL=
201002160515 METAR LMML 160515Z 14014KT CAVOK 13/11 Q1005 TEMPO SCT008=
201002160500 METAR LMML NIL=
201002160445 METAR LMML 160445Z 14013KT CAVOK 13/11 Q1005 TEMPO SCT008=
201002160430 METAR LMML NIL=
201002160415 METAR LMML 160415Z 14014KT 9999 FEW015 BKN120 BKN250 13/11
                        Q1005 TEMPO SCT008=
201002160400 METAR LMML NIL=
201002160345 METAR LMML 160345Z 15013KT 9999 FEW015 BKN120 BKN250 13/11
                        Q1006 TEMPO SCT008=
201002160330 METAR LMML NIL=
201002160315 METAR LMML 160315Z 14011KT 100V170 9999 FEW015 SCT110 SCT250
                        13/11 Q1006 NOSIG=
201002160300 METAR LMML NIL=
201002160245 METAR LMML 160245Z 14013KT 110V180 9999 FEW015 BKN120 BKN250
                        13/10 Q1006 NOSIG=
201002160230 METAR LMML NIL=
201002160215 METAR LMML 160215Z 15013KT 120V180 9999 FEW015 BKN120 BKN250
                        13/11 Q1007 NOSIG=
201002160200 METAR LMML NIL=
201002160145 METAR LMML 160145Z 14012KT 9999 FEW015 BKN120 13/10 Q1007
                        NOSIG=
201002160130 METAR LMML NIL=
201002160115 METAR LMML 160115Z 14011KT 9999 FEW015 BKN120 13/10 Q1008
                        NOSIG=
201002160100 METAR LMML NIL=
201002160045 METAR LMML 160045Z 15011KT 120V180 CAVOK 13/10 Q1008 NOSIG=
201002160030 METAR LMML NIL=
201002160015 METAR LMML 160015Z 14011KT 9999 FEW015 BKN110 BKN250 13/10
                        Q1009 NOSIG=
201002160000 METAR LMML NIL=
201002152345 METAR LMML 152345Z 14010KT 9999 FEW016 SCT120 BKN250 12/10
                        Q1009 NOSIG=
201002152330 METAR LMML NIL=
201002152315 METAR LMML 152315Z 14008KT CAVOK 12/09 Q1009 NOSIG=
201002152300 METAR LMML NIL=
201002152245 METAR LMML 152245Z 13006KT CAVOK 11/09 Q1009 NOSIG=
201002152215 METAR LMML 152215Z 13005KT CAVOK 10/08 Q1010 NOSIG=
201002152200 METAR LMML NIL=
201002152145 METAR LMML 152145Z 15006KT CAVOK 12/08 Q1010 NOSIG=
201002152130 METAR LMML NIL=
201002152115 METAR LMML 152115Z 13006KT CAVOK 11/08 Q1010 NOSIG=
201002152100 METAR LMML NIL=
201002152045 METAR LMML 152045Z 12008KT CAVOK 11/08 Q1009 NOSIG=
201002152030 METAR LMML NIL=
201002152015 METAR LMML 152015Z 14004KT CAVOK 11/07 Q1010 NOSIG=
201002152000 METAR LMML NIL=
201002151945 METAR LMML 151945Z 14005KT CAVOK 11/07 Q1010 NOSIG=
201002151930 METAR LMML NIL=
201002151915 METAR LMML 151915Z VRB03KT CAVOK 11/07 Q1010 NOSIG=
201002151900 METAR LMML NIL=
201002151845 METAR LMML 151845Z VRB02KT CAVOK 11/07 Q1010 NOSIG=
201002151830 METAR LMML NIL=
201002151815 METAR LMML 151815Z VRB03KT CAVOK 11/07 Q1010 NOSIG=
201002151800 METAR LMML NIL=
201002151745 METAR LMML 151745Z VRB02KT CAVOK 12/07 Q1010 NOSIG=
201002151730 METAR LMML NIL=
201002151715 METAR LMML 151715Z VRB02KT CAVOK 12/06 Q1010 NOSIG=
201002151700 METAR LMML NIL=
201002151645 METAR LMML 151645Z VRB02KT CAVOK 12/06 Q1010 NOSIG=
201002151630 METAR LMML NIL=
201002151615 METAR LMML 151615Z VRB03KT CAVOK 12/06 Q1010 NOSIG=
201002151600 METAR LMML NIL=
201002151545 METAR LMML 151545Z VRB03KT CAVOK 13/06 Q1010 NOSIG=
201002151530 METAR LMML NIL=
201002151515 METAR LMML 151515Z 25004KT 200V290 CAVOK 13/06 Q1010 NOSIG=
201002151500 METAR LMML NIL=
201002151445 METAR LMML 151445Z 24006KT 190V300 CAVOK 13/06 Q1010 NOSIG=
201002151430 METAR LMML NIL=
201002151415 METAR LMML 151415Z 23006KT 190V270 CAVOK 13/06 Q1010 NOSIG=
201002151400 METAR LMML NIL=
201002151345 METAR LMML 151345Z 24006KT 200V280 CAVOK 13/06 Q1010 NOSIG=
201002151330 METAR LMML NIL=
201002151315 METAR LMML 151315Z 24007KT 210V290 CAVOK 13/06 Q1010 NOSIG=
201002151300 METAR LMML NIL=
201002151245 METAR LMML 151245Z 24008KT 200V300 CAVOK 14/07 Q1010 NOSIG=
201002151230 METAR LMML NIL=
201002151215 METAR LMML 151215Z 24007KT 200V280 CAVOK 13/07 Q1010 NOSIG=
201002151200 METAR LMML NIL=
201002151145 METAR LMML 151145Z 25009KT 200V290 CAVOK 14/06 Q1011 NOSIG=
201002151130 METAR LMML NIL=
201002151115 METAR LMML 151115Z 29007KT 200V320 CAVOK 14/07 Q1010 NOSIG=
201002151100 METAR LMML NIL=
201002151045 METAR LMML 151045Z 29007KT 250V330 9999 FEW025 BKN250 14/06
                        Q1010 NOSIG=
201002151030 METAR LMML NIL=
201002151015 METAR LMML 151015Z 30008KT 250V330 9999 FEW025 BKN250 14/06
                        Q1011 NOSIG=
201002151000 METAR LMML NIL=
201002150945 METAR LMML 150945Z 29009KT 260V330 9999 FEW025 BKN250 13/06
                        Q1011 NOSIG=
201002150930 METAR LMML NIL=
201002150915 METAR LMML 150915Z 30008KT 260V330 9999 FEW025 BKN250 13/06
                        Q1010 NOSIG=
201002150900 METAR LMML NIL=
201002150845 METAR LMML 150845Z 30010KT 260V340 9999 FEW025 BKN250 13/06
                        Q1010 NOSIG=
201002150830 METAR LMML NIL=
201002150815 METAR LMML 150815Z 30010KT 260V330 9999 FEW027 BKN250 13/06
                        Q1010=
201002150800 METAR LMML NIL=
201002150745 METAR LMML 150745Z 29011KT 9999 FEW026 BKN250 12/07 Q1010=
201002150730 METAR LMML NIL=
201002150715 METAR LMML 150715Z 28008KT 250V310 9999 FEW034 BKN250 11/06
                        Q1010=
201002150700 METAR LMML NIL=
201002150645 METAR LMML 150645Z 27006KT 240V300 9999 FEW034 BKN250 11/06
                        Q1009=
201002150630 METAR LMML NIL=
201002150615 METAR LMML 150615Z 28007KT 9999 FEW035 BKN250 10/05 Q1009=
201002150600 METAR LMML NIL=
201002150545 METAR LMML 150545Z 27006KT 220V320 9999 SCT036 SCT250 09/05
                        Q1009=
201002150530 METAR LMML NIL=
201002150515 METAR LMML 150515Z 28005KT 250V310 9999 FEW035 09/05 Q1008=
201002150500 METAR LMML NIL=
201002150445 METAR LMML 150445Z 30007KT 260V320 9999 FEW035 10/05 Q1008=
201002150430 METAR LMML NIL=
201002150415 METAR LMML 150415Z 30008KT 9999 FEW035 10/04 Q1008=
201002150400 METAR LMML NIL=
201002150345 METAR LMML 150345Z 30008KT 9999 FEW034 10/04 Q1008=
201002150330 METAR LMML NIL=
201002150315 METAR LMML 150315Z 30010KT 270V330 9999 FEW034 10/05 Q1007=
201002150245 METAR LMML 150245Z 31009KT 9999 FEW038 10/05 Q1007=
201002150230 METAR LMML NIL=
201002150215 METAR LMML 150215Z 30010KT 9999 FEW027 10/06 Q1007=
201002150200 METAR LMML NIL=
201002150145 METAR LMML 150145Z 31014KT 9999 SCT027 SCT047 11/06 Q1007=
201002150130 METAR LMML NIL=
201002150115 METAR LMML 150115Z 30016KT 9999 SCT029 SCT040 11/06 Q1007=
201002150100 METAR LMML NIL=
201002150045 METAR LMML 150045Z 29014KT 9999 SCT030 SCT041 11/05 Q1007=
201002150030 METAR LMML NIL=
201002150015 METAR LMML 150015Z 30014KT 260V330 9999 SCT032 SCT041 12/06
                        Q1007=
201002150000 METAR LMML NIL=
201002142345 METAR LMML 142345Z 30016KT 270V330 9999 SCT028 SCT038 11/05
                        Q1006=
201002142330 METAR LMML NIL=
201002142315 METAR LMML 142315Z 29013KT 260V320 9999 SCT028 SCT039 11/06
                        Q1006=
201002142300 METAR LMML NIL=
201002142245 METAR LMML 142245Z 29015KT 9999 SCT025 SCT042 12/07 Q1006=
201002142215 METAR LMML 142215Z 29016KT 250V320 9999 SCT023 SCT041 12/07
                        Q1006=
201002142200 METAR LMML NIL=
201002142145 METAR LMML 142145Z 29011KT 260V320 9999 SCT025 12/07 Q1006=
201002142130 METAR LMML NIL=
201002142115 METAR LMML 142115Z 30014KT 270V330 9999 FEW025 12/07 Q1005=
201002142100 METAR LMML NIL=
201002142045 METAR LMML 142045Z 30012KT 9999 FEW024 BKN040 12/08 Q1005=
201002142030 METAR LMML NIL=
201002142015 METAR LMML 142015Z 30015G25KT 270V330 9999 FEW023 BKN040
                        12/08 Q1004=
201002142000 METAR LMML NIL=
201002141945 METAR LMML 141945Z 30014KT 260V320 9999 FEW024 12/07 Q1004=
201002141930 METAR LMML NIL=
201002141915 METAR LMML 141915Z 29016G26KT 9999 SCT023 SCT045 12/08 Q1003=
201002141900 METAR LMML NIL=
201002141845 METAR LMML 141845Z 29015KT 260V320 9999 SCT025 SCT040 12/07
                        Q1003=
201002141830 METAR LMML NIL=
201002141815 METAR LMML 141815Z 29018KT 260V330 9999 SCT020 SCT044 12/08
                        Q1003=
201002141800 METAR LMML NIL=
201002141745 METAR LMML 141745Z 29020KT 9999 -RA SCT023 SCT045 12/08 Q1002
                        NOSIG=
201002141730 METAR LMML NIL=
201002141715 METAR LMML 141715Z 29018KT 260V320 9999 SCT026 12/07 Q1002
                        NOSIG=
201002141700 METAR LMML NIL=
201002141645 METAR LMML 141645Z 29018KT 9999 SCT025 12/08 Q1001 NOSIG=
201002141630 METAR LMML NIL=
201002141615 METAR LMML 141615Z 29020KT 9999 SCT025 13/08 Q1001 NOSIG=
201002141600 METAR LMML NIL=
201002141545 METAR LMML 141545Z 29019KT 260V320 9999 SCT022 13/08 Q1000
                        NOSIG=
201002141530 METAR LMML NIL=
201002141515 METAR LMML 141515Z 29022KT 9999 SCT019 13/09 Q1000 NOSIG=
201002141500 METAR LMML NIL=
201002141445 METAR LMML 141445Z 29018KT 260V320 9999 SCT019 14/10 Q1000
                        NOSIG=
201002141430 METAR LMML NIL=
201002141415 METAR LMML 141415Z 29022KT 9999 SCT018 14/09 Q1000 NOSIG=
201002141400 METAR LMML NIL=
201002141345 METAR LMML 141345Z 28021KT 9999 SCT019 15/10 Q1000 NOSIG=
201002141330 METAR LMML NIL=
201002141315 METAR LMML 141315Z 27022KT 250V310 9999 SCT019 15/10 Q0999
                        TEMPO 30025KT=
201002141300 METAR LMML NIL=
201002141245 METAR LMML 141245Z 27020KT 240V300 9999 SCT019 15/10 Q0999
                        TEMPO 30025KT=
201002141230 METAR LMML NIL=
201002141215 METAR LMML 141215Z 28021KT 9999 FEW017 15/10 Q0999 TEMPO
                        30025KT=
201002141200 METAR LMML NIL=
201002141145 METAR LMML 141145Z 28017KT 250V310 9999 FEW017 15/11 Q0999
                        TEMPO 30025KT=
201002141130 METAR LMML NIL=
201002141115 METAR LMML 141115Z 28018KT 250V310 9999 FEW020 SCT250 15/11
                        Q0999 TEMPO 30025KT=
201002141100 METAR LMML NIL=
201002141045 METAR LMML 141045Z 27013KT 230V300 9999 FEW016 BKN035 14/11
                        Q0999 RESHRA NOSIG=
201002141030 METAR LMML NIL=
201002141015 METAR LMML 141015Z 25012KT 190V290 7000 SHRA FEW009 BKN023
                        14/11 Q0999 NOSIG=
201002141000 METAR LMML NIL=
201002140945 METAR LMML 140945Z 20014KT 170V250 7000 SCT015 BKN025TCU
                        16/14 Q0999 TEMPO 5000 TSRA BKN008=
201002140930 METAR LMML NIL=
201002140915 METAR LMML 140915Z 18015KT 140V220 8000 SCT013 SCT020TCU
                        BKN130 15/13 Q0999 TEMPO RA BKN008=
201002140900 METAR LMML NIL=
201002140845 METAR LMML 140845Z 18017G27KT 150V230 9000 FEW011 SCT028
                        BKN130 15/13 Q0999 TEMPO RA BKN008=
201002140830 METAR LMML NIL=
201002140815 METAR LMML 140815Z 17012KT 130V210 9000 BKN010 OVC130 15/13
                        Q0999 TEMPO RA BKN008=
201002140800 METAR LMML NIL=
201002140745 METAR LMML 140745Z 17013KT 140V200 9999 BKN011 BKN100 15/13
                        Q0999 TEMPO RA BKN010=
201002140730 METAR LMML NIL=
201002140715 METAR LMML 140715Z 16017KT 130V190 9999 BKN012 BKN100 14/12
                        Q0999 TEMPO BKN010=
201002140700 METAR LMML NIL=
201002140645 METAR LMML 140645Z 15017KT 120V180 9999 BKN013 BKN100 14/12
                        Q0999 NOSIG=
201002140630 METAR LMML NIL=
201002140615 METAR LMML 140615Z 15016KT 110V180 9999 BKN013 BKN100 13/11
                        Q0999 NOSIG=
201002140600 METAR LMML NIL=
201002140545 METAR LMML 140545Z 14018KT 9999 BKN014 OVC120 13/11 Q1000
                        NOSIG=
201002140530 METAR LMML NIL=
201002140515 METAR LMML 140515Z 14018KT 110V170 9999 BKN015 13/11 Q1000
                        NOSIG=
201002140500 METAR LMML NIL=
201002140445 METAR LMML 140445Z 14020KT 9999 -RA BKN015 13/11 Q1001 NOSIG=
201002140430 METAR LMML NIL=
201002140415 METAR LMML 140415Z 14018KT 9999 -RA FEW015 BKN019 BKN080
                        13/11 Q1002 TEMPO 8000 RA BKN015=
201002140400 METAR LMML NIL=
201002140345 METAR LMML 140345Z 14018KT 9999 -RA SCT015 BKN020 12/11 Q1002
                        TEMPO 8000 RA BKN015=
201002140330 METAR LMML NIL=
201002140315 METAR LMML 140315Z 14017KT 9999 FEW016 BKN022 BKN080 12/10
                        Q1002 TEMPO 8000 RA BKN015=
201002140300 METAR LMML NIL=
201002140245 METAR LMML 140245Z 13016KT 9999 -SHRA FEW018 BKN020 BKN120
                        12/10 Q1003 NOSIG=
201002140230 METAR LMML NIL=
201002140215 METAR LMML 140215Z 14015KT 9999 -SHRA BKN020 BKN120 12/10
                        Q1004 NOSIG=
201002140200 METAR LMML NIL=
201002140145 METAR LMML 140145Z 14015KT 110V170 9999 -SHRA SCT024 BKN090
                        13/09 Q1005 NOSIG=
201002140130 METAR LMML NIL=
201002140115 METAR LMML 140115Z 15012KT 120V180 9999 SCT024 BKN100 13/08
                        Q1006 NOSIG=
201002140045 METAR LMML 140045Z 14015KT 9999 SCT024 BKN100 13/08 Q1007
                        NOSIG=
201002140030 METAR LMML NIL=
201002140015 METAR LMML 140015Z 14012KT 120V180 9999 SCT025 BKN100 13/08
                        Q1007 NOSIG=
201002140000 METAR LMML NIL=
201002132345 METAR LMML 132345Z 14015KT 9999 SCT027 BKN110 13/08 Q1007
                        NOSIG=
201002132330 METAR LMML NIL=
201002132315 METAR LMML 132315Z 15014KT 120V180 9999 SCT028 BKN110 13/08
                        Q1008 NOSIG=
201002132300 METAR LMML NIL=
201002132245 METAR LMML 132245Z 14014KT 120V180 9999 SCT024 BKN100 13/08
                        Q1008 NOSIG=
201002132230 METAR LMML NIL=
201002132215 METAR LMML 132215Z 14012KT 9999 FEW026 BKN100 12/08 Q1009
                        NOSIG=
201002132200 METAR LMML NIL=
201002132145 METAR LMML 132145Z 14012KT 9999 FEW030 BKN120 12/06 Q1009
                        NOSIG=
201002132115 METAR LMML 132115Z 14011KT 110V170 9999 FEW030 BKN100 12/06
                        Q1010 NOSIG=
201002132100 METAR LMML NIL=
201002132045 METAR LMML 132045Z 14008KT 120V180 9999 SCT034 BKN120 12/06
                        Q1010 NOSIG=
201002132030 METAR LMML NIL=
201002132015 METAR LMML 132015Z 14010KT 9999 SCT034 BKN120 12/06 Q1010
                        NOSIG=
201002132000 METAR LMML NIL=
201002131945 METAR LMML 131945Z 14009KT 120V180 9999 SCT033 BKN100 12/08
                        Q1011 NOSIG=
201002131930 METAR LMML NIL=
201002131915 METAR LMML 131915Z 14009KT 9999 SCT033 BKN100 12/08 Q1011
                        NOSIG=
201002131900 METAR LMML NIL=
201002131845 METAR LMML 131845Z 14008KT 9999 SCT030 BKN070 12/07 Q1011
                        NOSIG=
201002131830 METAR LMML NIL=
201002131815 METAR LMML 131815Z 16007KT 9999 SCT029 BKN100 12/07 Q1011
                        NOSIG=
201002131800 METAR LMML NIL=
201002131745 METAR LMML 131745Z 16007KT 130V190 9999 SCT027 BKN100 12/07
                        Q1012 NOSIG=
201002131730 METAR LMML NIL=
201002131715 METAR LMML 131715Z 16006KT 130V190 9999 BKN034 SCT100 12/07
                        Q1012 NOSIG=
201002131700 METAR LMML NIL=
201002131645 METAR LMML 131645Z 16006KT 130V200 9999 BKN034 SCT100 12/06
                        Q1012 NOSIG=
201002131630 METAR LMML NIL=
201002131615 METAR LMML 131615Z 16006KT 130V200 9999 BKN035 SCT100 12/06
                        Q1012 NOSIG=
201002131600 METAR LMML NIL=
201002131545 METAR LMML 131545Z 17006KT 140V210 9999 FEW035 SCT090 BKN250
                        12/05 Q1012 NOSIG=
201002131530 METAR LMML NIL=
201002131515 METAR LMML 131515Z 16006KT 120V200 9999 FEW030 SCT090 BKN250
                        13/05 Q1011 NOSIG=
201002131500 METAR LMML NIL=
201002131445 METAR LMML 131445Z 18006KT 140V220 9999 FEW030 BKN090 12/04
                        Q1012 NOSIG=
201002131430 METAR LMML NIL=
201002131415 METAR LMML 131415Z 18006KT 150V250 9999 FEW030 SCT120 BKN250
                        13/05 Q1012 NOSIG=
201002131400 METAR LMML NIL=
201002131345 METAR LMML 131345Z 19006KT 150V240 9999 FEW030 13/04 Q1012
                        NOSIG=
201002131330 METAR LMML NIL=
201002131315 METAR LMML 131315Z 20006KT 140V270 9999 FEW030 SCT250 13/04
                        Q1012 NOSIG=
201002131245 METAR LMML 131245Z 20006KT 160V260 9999 FEW030 SCT250 13/03
                        Q1013 NOSIG=
201002131230 METAR LMML NIL=
201002131215 METAR LMML 131215Z 19006KT 160V230 9999 FEW030 BKN250 13/04
                        Q1013 NOSIG=
201002131200 METAR LMML NIL=
201002131145 METAR LMML 131145Z 23007KT 180V280 9999 FEW030 BKN250 13/04
                        Q1013 NOSIG=
201002131130 METAR LMML NIL=
201002131115 METAR LMML 131115Z 25007KT 210V290 9999 FEW030 BKN250 13/02
                        Q1014 NOSIG=
201002131045 METAR LMML 131045Z 23007KT 190V290 9999 FEW030 BKN250 13/04
                        Q1014 NOSIG=
201002131030 METAR LMML NIL=
201002131015 METAR LMML 131015Z 24007KT 180V320 9999 FEW030 SCT250 13/03
                        Q1015 NOSIG=
201002131000 METAR LMML NIL=
201002130945 METAR LMML 130945Z 24008KT 200V280 9999 FEW030 SCT250 13/04
                        Q1015 NOSIG=
201002130930 METAR LMML NIL=
201002130915 METAR LMML 130915Z 23008KT 200V280 9999 FEW030 SCT250 13/04
                        Q1015 NOSIG=
201002130900 METAR LMML NIL=
201002130845 METAR LMML 130845Z 24006KT 180V290 9999 FEW030 SCT250 13/04
                        Q1014 NOSIG=
201002130830 METAR LMML NIL=
201002130815 METAR LMML 130815Z 26007KT 230V300 9999 FEW025 SCT250 12/03
                        Q1014 NOSIG=
201002130800 METAR LMML NIL=
201002130745 METAR LMML 130745Z 27006KT 240V310 9999 FEW025 11/04 Q1014
                        NOSIG=
201002130730 METAR LMML NIL=
201002130715 METAR LMML 130715Z 27004KT 230V300 9999 FEW025 10/03 Q1014
                        NOSIG=
201002130700 METAR LMML NIL=
201002130645 METAR LMML 130645Z 27006KT 240V300 9999 FEW025 09/02 Q1013
                        NOSIG=
201002130630 METAR LMML NIL=
201002130615 METAR LMML 130615Z 27006KT 9999 FEW025 08/03 Q1013 NOSIG=
201002130600 METAR LMML NIL=
201002130545 METAR LMML 130545Z 27005KT 9999 FEW030 09/03 Q1013 NOSIG=
201002130530 METAR LMML NIL=
201002130515 METAR LMML 130515Z 26006KT 9999 FEW046 09/02 Q1012 NOSIG=
201002130500 METAR LMML NIL=
201002130445 METAR LMML 130445Z 28005KT 250V310 9999 FEW033 09/02 Q1012
                        NOSIG=
201002130430 METAR LMML NIL=
201002130415 METAR LMML 130415Z 28007KT 250V310 9999 FEW033 09/02 Q1012
                        NOSIG=
201002130400 METAR LMML NIL=
201002130345 METAR LMML 130345Z 28007KT 9999 FEW033 09/03 Q1012 NOSIG=
201002130330 METAR LMML NIL=
201002130315 METAR LMML 130315Z 29007KT 260V320 9999 FEW033 09/03 Q1012
                        NOSIG=
201002130300 METAR LMML NIL=
201002130245 METAR LMML 130245Z 28010KT 240V310 9999 FEW029 09/03 Q1012
                        NOSIG=
201002130230 METAR LMML NIL=
201002130215 METAR LMML 130215Z 28011KT 260V320 9999 FEW029 09/04 Q1012
                        NOSIG=
201002130200 METAR LMML NIL=
201002130145 METAR LMML 130145Z 28009KT 9999 FEW034 09/03 Q1012 NOSIG=
201002130130 METAR LMML NIL=
201002130115 METAR LMML 130115Z 29010KT 260V320 9999 FEW036 09/04 Q1012
                        NOSIG=
201002130045 METAR LMML 130045Z 28015KT 9999 FEW038 10/02 Q1012 NOSIG=
201002130030 METAR LMML NIL=
201002130015 METAR LMML 130015Z 29018KT 9999 FEW035 10/02 Q1012 NOSIG=
201002130000 METAR LMML NIL=
201002122345 METAR LMML 122345Z 28015KT 250V310 9999 FEW035 10/02 Q1012
                        NOSIG=
201002122315 METAR LMML 122315Z 28015KT 250V310 9999 FEW035 10/01 Q1011
                        NOSIG=
201002122300 METAR LMML NIL=
201002122245 METAR LMML 122245Z 28017KT 250V310 9999 FEW035 10/02 Q1011
                        NOSIG=
201002122230 METAR LMML NIL=
201002122215 METAR LMML 122215Z 29016KT 9999 FEW035 BKN060 10/03 Q1011
                        NOSIG=
201002122200 METAR LMML NIL=
201002122145 METAR LMML 122145Z 28016KT 250V310 9999 FEW035 SCT060 10/04
                        Q1011 NOSIG=
201002122130 METAR LMML NIL=
201002122115 METAR LMML 122115Z 28012KT 240V310 9999 FEW035 BKN060 10/03
                        Q1011 NOSIG=
201002122100 METAR LMML NIL=
201002122045 METAR LMML 122045Z 27010KT 240V300 9999 FEW042 SCT070 10/02
                        Q1011 NOSIG=
201002122030 METAR LMML NIL=
201002122015 METAR LMML 122015Z 28010KT 230V300 9999 FEW045 10/02 Q1011
                        NOSIG=
201002122000 METAR LMML NIL=
201002121945 METAR LMML 121945Z 28011KT 9999 FEW045 09/01 Q1010 NOSIG=
201002121930 METAR LMML NIL=
201002121915 METAR LMML 121915Z 27013KT 9999 FEW044 10/01 Q1010 NOSIG=
201002121900 METAR LMML NIL=
201002121845 METAR LMML 121845Z 27012KT 240V300 9999 FEW041 10/02 Q1010
                        NOSIG=
201002121830 METAR LMML NIL=
201002121815 METAR LMML 121815Z 27012KT 240V300 9999 FEW039 09/02 Q1010
                        NOSIG=
201002121800 METAR LMML NIL=
201002121745 METAR LMML 121745Z 27011KT 240V300 9999 FEW039 09/02 Q1009
                        NOSIG=
201002121730 METAR LMML NIL=
201002121715 METAR LMML 121715Z 28013KT 250V310 9999 FEW039 09/02 Q1008
                        NOSIG=
201002121700 METAR LMML NIL=
201002121645 METAR LMML 121645Z 27012KT 230V300 9999 FEW039 09/02 Q1008
                        NOSIG=
201002121630 METAR LMML NIL=
201002121615 METAR LMML 121615Z 27013KT 230V300 9999 FEW036 10/02 Q1008
                        NOSIG=
201002121600 METAR LMML NIL=
201002121545 METAR LMML 121545Z 28016KT 250V310 9999 FEW036 10/03 Q1007
                        NOSIG=
201002121530 METAR LMML NIL=
201002121515 METAR LMML 121515Z 28016KT 250V310 9999 FEW040 10/02 Q1007
                        NOSIG=
201002121500 METAR LMML NIL=
201002121445 METAR LMML 121445Z 28017KT 9999 FEW037 11/02 Q1007 NOSIG=
201002121430 METAR LMML NIL=
201002121415 METAR LMML 121415Z 28019KT 9999 SCT039 11/03 Q1007 NOSIG=
201002121400 METAR LMML NIL=
201002121345 METAR LMML 121345Z 29017G27KT 240V320 9999 SCT039 11/03 Q1006
                        NOSIG=
201002121330 METAR LMML NIL=
201002121315 METAR LMML 121315Z 28018KT 250V320 9999 SCT039 11/02 Q1006
                        NOSIG=
201002121300 METAR LMML NIL=
201002121245 METAR LMML 121245Z 28015KT 240V320 9999 SCT038 11/03 Q1006
                        NOSIG=
201002121215 METAR LMML 121215Z 28020G31KT 250V310 9999 SCT040 10/02 Q1006
                        NOSIG=
201002121200 METAR LMML NIL=
201002121145 METAR LMML 121145Z 29017KT 250V320 9999 SCT034 SCT080 10/03
                        Q1006 NOSIG=
201002121130 METAR LMML NIL=
201002121115 METAR LMML 121115Z 28017KT 240V310 9999 FEW042 BKN080 10/02
                        Q1006 NOSIG=
201002121100 METAR LMML NIL=
201002121045 METAR LMML 121045Z 28017KT 9999 SCT038 BKN090 10/03 Q1006
                        NOSIG=
201002121030 METAR LMML NIL=
201002121015 METAR LMML 121015Z 28018KT 240V330 9999 FEW038 BKN070 10/03
                        Q1006 NOSIG=
201002121000 METAR LMML NIL=
201002120945 METAR LMML 120945Z 29019KT 260V320 9999 FEW031 SCT050 BKN080
                        10/03 Q1006 TEMPO 8000 SHRA=
201002120930 METAR LMML NIL=
201002120915 METAR LMML 120915Z 29015KT 9000 -RA FEW029 BKN050 09/05 Q1006
                        NOSIG=
201002120900 METAR LMML NIL=
201002120845 METAR LMML 120845Z 29014KT 270V330 9999 FEW035 BKN050 10/04
                        Q1005 TEMPO 8000 SHRA=
201002120830 METAR LMML NIL=
201002120815 METAR LMML 120815Z 29016KT 260V320 9999 FEW032 BKN050 10/05
                        Q1005 TEMPO 8000 SHRA=
201002120800 METAR LMML NIL=
201002120745 METAR LMML 120745Z 29014KT 260V320 9999 -RA FEW034 BKN050
                        BKN100 10/05 Q1004 TEMPO 8000 SHRA=
201002120730 METAR LMML NIL=
201002120715 METAR LMML 120715Z 29016KT 9999 FEW035 SCT060 BKN100 10/05
                        Q1004 NOSIG=
201002120700 METAR LMML NIL=
201002120645 METAR LMML 120645Z 28013KT 250V310 9999 FEW035 BKN060 10/05
                        Q1003 NOSIG=
201002120630 METAR LMML NIL=
201002120615 METAR LMML 120615Z 29011KT 9999 FEW035 SCT060 10/05 Q1003
                        TEMPO RA=
201002120600 METAR LMML NIL=
201002120545 METAR LMML 120545Z 26006KT 220V300 9999 FEW030 SCT040 BKN100
                        10/06 Q1003 TEMPO RA=
201002120530 METAR LMML NIL=
201002120515 METAR LMML 120515Z 27006KT 230V300 9999 FEW032 10/06 Q1003
                        TEMPO RA=
201002120500 METAR LMML NIL=
201002120445 METAR LMML 120445Z 26007KT 9999 -RA FEW034 BKN041 BKN080
                        11/06 Q1003 TEMPO RA=
201002120430 METAR LMML NIL=
201002120415 METAR LMML 120415Z 27010KT 230V310 9999 -RA FEW024 SCT050
                        BKN080 11/08 Q1003 TEMPO RA=
201002120400 METAR LMML NIL=
201002120345 METAR LMML 120345Z 23007KT 200V280 9999 FEW023 BKN080 12/08
                        Q1002 TEMPO 27015KT 5000 SHRA=
201002120330 METAR LMML NIL=
201002120315 METAR LMML 120315Z 21005KT 180V240 9999 FEW036 SCT050 BKN120
                        11/08 Q1002 TEMPO 27015KT 5000 SHRA=
201002120300 METAR LMML NIL=
201002120245 METAR LMML 120245Z 22004KT 180V260 9999 -RA SCT042 BKN090
                        11/08 Q1002 TEMPO 27015KT 5000 SHRA=
201002120230 METAR LMML NIL=
201002120200 METAR LMML NIL=
201002120145 METAR LMML 120145Z 23006KT 200V260 9999 FEW036 SCT100 11/07
                        Q1003 TEMPO 27015KT 5000 SHRA=
201002120130 METAR LMML NIL=
201002120115 METAR LMML 120115Z 21004KT 180V260 CAVOK 11/08 Q1003 NOSIG=
201002120100 METAR LMML NIL=
201002120045 METAR LMML 120045Z 20004KT CAVOK 10/08 Q1003 NOSIG=
201002120030 METAR LMML NIL=
201002120015 METAR LMML 120015Z 20004KT 170V240 9999 FEW039 SCT120 10/08
                        Q1003 NOSIG=
201002120000 METAR LMML NIL=
201002112345 METAR LMML 112345Z 20004KT 170V240 9999 FEW040 SCT120 10/08
                        Q1004 NOSIG=
201002112330 METAR LMML NIL=
201002112315 METAR LMML 112315Z VRB03KT 9999 SCT041 SCT120 10/07 Q1004
                        NOSIG=
201002112300 METAR LMML NIL=
201002112245 METAR LMML 112245Z 19005KT 170V240 9999 FEW041 SCT054 BKN120
                        10/07 Q1004 NOSIG=
201002112230 METAR LMML NIL=
201002112215 METAR LMML 112215Z 19004KT 160V220 9999 FEW045 BKN120 10/07
                        Q1004 NOSIG=
201002112200 METAR LMML NIL=
201002112145 METAR LMML 112145Z 19004KT 160V220 9999 FEW045 BKN120 10/07
                        Q1004 NOSIG=
201002112130 METAR LMML NIL=
201002112115 METAR LMML 112115Z VRB03KT 9999 FEW037 SCT045 10/06 Q1004
                        NOSIG=
201002112100 METAR LMML NIL=
201002112045 METAR LMML 112045Z VRB01KT 9999 SCT037 BKN050 10/06 Q1004
                        NOSIG=
201002112030 METAR LMML NIL=
201002112015 METAR LMML 112015Z VRB03KT 9999 SCT038 BKN050 10/06 Q1003
                        NOSIG=
201002112000 METAR LMML NIL=
201002111945 METAR LMML 111945Z VRB01KT 9999 SCT038 BKN050 10/06 Q1003
                        NOSIG=
201002111930 METAR LMML NIL=
201002111915 METAR LMML 111915Z VRB01KT 9999 -RA SCT037 SCT050 10/06 Q1003
                        TEMPO 8000 RA=
201002111900 METAR LMML NIL=
201002111845 METAR LMML 111845Z VRB01KT 9999 -RA BKN035 OVC050 10/05 Q1003
                        TEMPO 8000 RA=
201002111830 METAR LMML NIL=
201002111815 METAR LMML 111815Z VRB02KT 9999 -RA FEW034 BKN049 OVC130
                        09/05 Q1003 TEMPO 8000 RA=
201002111800 METAR LMML NIL=
201002111745 METAR LMML 111745Z 22007KT 190V280 9000 -RA FEW025 SCT045
                        OVC130 10/05 Q1003 TEMPO 8000 RA=
201002111730 METAR LMML NIL=
201002111715 METAR LMML 111715Z 22010KT 190V260 9999 -RA FEW026 SCT045
                        OVC130 11/05 Q1003 TEMPO 8000 RA=
201002111700 METAR LMML NIL=
201002111645 METAR LMML 111645Z 22007KT 180V260 9999 FEW035 SCT060 OVC130
                        12/04 Q1002 TEMPO 8000 RA=
201002111630 METAR LMML NIL=
201002111615 METAR LMML 111615Z 23006KT 200V280 9999 FEW035 OVC130 12/04
                        Q1002 TEMPO 8000 RA=
201002111600 METAR LMML NIL=
201002111545 METAR LMML 111545Z 24007KT 200V280 9999 FEW035 SCT080 OVC120
                        12/04 Q1002 NOSIG=
201002111530 METAR LMML NIL=
201002111515 METAR LMML 111515Z 25007KT 210V280 9999 FEW035 BKN120 12/05
                        Q1002 NOSIG=
201002111500 METAR LMML NIL=
201002111445 METAR LMML 111445Z 23009KT 200V280 9999 SCT033 BKN110 12/05
                        Q1002 NOSIG=
201002111430 METAR LMML NIL=
201002111415 METAR LMML 111415Z 23009KT 200V290 9999 SCT030 SCT110 12/06
                        Q1002 NOSIG=
201002111400 METAR LMML NIL=
201002111345 METAR LMML 111345Z 25011KT 200V290 9999 SCT029 BKN250 13/06
                        Q1002 NOSIG=
201002111330 METAR LMML NIL=
201002111315 METAR LMML 111315Z 25011KT 200V290 9999 BKN033 BKN250 13/05
                        Q1002 NOSIG=
201002111300 METAR LMML NIL=
201002111245 METAR LMML 111245Z 26012KT 220V300 9999 BKN033 13/05 Q1002
                        NOSIG=
201002111230 METAR LMML NIL=
201002111215 METAR LMML 111215Z 24011KT 200V280 9999 BKN032 13/06 Q1002
                        NOSIG=
201002111200 METAR LMML NIL=
201002111145 METAR LMML 111145Z 25011KT 210V300 9999 FEW036 13/04 Q1003
                        NOSIG=
201002111130 METAR LMML NIL=
201002111115 METAR LMML 111115Z 26011KT 210V310 9999 SCT035 13/05 Q1003
                        NOSIG=
201002111100 METAR LMML NIL=
201002111045 METAR LMML 111045Z 27013KT 220V300 9999 FEW035 SCT250 13/06
                        Q1003 NOSIG=
201002111030 METAR LMML NIL=
201002111015 METAR LMML 111015Z 27012KT 230V310 9999 FEW033 SCT250 12/05
                        Q1003 NOSIG=
201002111000 METAR LMML NIL=
201002110945 METAR LMML 110945Z 27012KT 240V310 9999 SCT026 BKN250 12/07
                        Q1003 NOSIG=
201002110930 METAR LMML NIL=
201002110915 METAR LMML 110915Z 28009KT 240V320 9999 SCT030 BKN250 12/07
                        Q1003 NOSIG=
201002110900 METAR LMML NIL=
201002110845 METAR LMML 110845Z 28011KT 250V310 9999 -SHRA SCT030 SCT120
                        11/06 Q1003 NOSIG=
201002110815 METAR LMML 110815Z 27010KT 230V300 9999 SCT028 SCT120 11/06
                        Q1003 NOSIG=
201002110745 METAR LMML 110745Z 27006KT 230V300 9999 SCT031 SCT120 10/06
                        Q1003 NOSIG=
201002110730 METAR LMML NIL=
201002110715 METAR LMML 110715Z 28010KT 250V310 9999 FEW031 SCT120 09/06
                        Q1002 NOSIG=
201002110700 METAR LMML NIL=
201002110645 METAR LMML 110645Z 29011KT 260V320 9999 -SHRA SCT031 SCT250
                        09/06 Q1002 NOSIG=
201002110615 METAR LMML 110615Z 27007KT 9999 SCT027 SCT250 09/06 Q1001
                        NOSIG=
201002110600 METAR LMML NIL=
201002110545 METAR LMML 110545Z 28008KT 240V300 9999 SCT027TCU 08/06 Q1001
                        NOSIG=
201002110530 METAR LMML NIL=
201002110515 METAR LMML 110515Z 27010KT 230V290 9000 BKN022TCU 09/06 Q1001
                        NOSIG=
201002110445 METAR LMML 110445Z 28010KT 9999 SCT022 09/06 Q1001 NOSIG=
201002110430 METAR LMML NIL=
201002110415 METAR LMML 110415Z 28008KT 240V300 9999 SCT038 09/06 Q1000
                        NOSIG=
201002110400 METAR LMML NIL=
201002110345 METAR LMML 110345Z 28012KT 240V310 9999 SCT028 10/06 Q1001
                        NOSIG=
201002110330 METAR LMML NIL=
201002110315 METAR LMML 110315Z 28012KT 9999 SCT024 09/05 Q1001 NOSIG=
201002110300 METAR LMML NIL=
201002110245 METAR LMML 110245Z 28014KT 9999 SHRA FEW028 SCT050 10/05
                        Q1000 NOSIG=
201002110230 METAR LMML NIL=
201002110215 METAR LMML 110215Z 28011KT 250V310 9999 FEW033 FEW044 SCT050
                        10/06 Q1000 NOSIG=
201002110200 METAR LMML NIL=
201002110145 METAR LMML 110145Z 28015KT 9999 SCT034 SCT050 10/06 Q1000
                        NOSIG=
201002110130 METAR LMML NIL=
201002110115 METAR LMML 110115Z 29014KT 260V330 9999 SHRA SCT028 SCT048
                        11/06 Q1000 NOSIG=
201002110100 METAR LMML NIL=
201002110045 METAR LMML 110045Z 28017KT 9999 FEW029 11/05 Q1000 NOSIG=
201002110015 METAR LMML 110015Z 28015KT 240V300 9999 FEW027 10/05 Q1000
                        NOSIG=
201002110000 METAR LMML NIL=
201002102345 METAR LMML 102345Z 29017KT 270V330 9999 FEW035 11/06 Q1000
                        NOSIG=
201002102330 METAR LMML NIL=
201002102315 METAR LMML 102315Z 28017KT 250V310 9999 FEW028 11/05 Q1000
                        NOSIG=
201002102245 METAR LMML 102245Z 28018KT 9999 FEW030 10/05 Q1001 TEMPO
                        8000 SHRA=
201002102215 METAR LMML 102215Z 28016KT 9999 SCT031 11/05 Q1000 TEMPO
                        8000 SHRA=
201002102200 METAR LMML NIL=
201002102145 METAR LMML 102145Z 28018KT 240V310 9999 FEW029 11/05 Q1001
                        NOSIG=
201002102130 METAR LMML NIL=
201002102115 METAR LMML 102115Z 28019KT 230V320 9999 FEW028 11/05 Q1000
                        NOSIG=
201002102045 METAR LMML 102045Z 28020KT 9999 FEW028 11/06 Q1000 NOSIG=
201002102015 METAR LMML 102015Z 28022G32KT 250V310 9999 FEW029 11/06 Q1000
                        NOSIG=
201002102000 METAR LMML NIL=
201002101945 METAR LMML 101945Z 28023KT 250V310 9999 FEW033 12/06 Q1000
                        NOSIG=
201002101930 METAR LMML NIL=
201002101915 METAR LMML 101915Z 28021G33KT 240V310 9999 FEW033 12/05 Q1000
                        NOSIG=
201002101900 METAR LMML NIL=
201002101845 METAR LMML 101845Z 28018KT 240V330 9999 FEW032 11/06 Q0999
                        NOSIG=
201002101830 METAR LMML NIL=
201002101815 METAR LMML 101815Z 27022G36KT 9999 FEW038 12/05 Q0999 NOSIG=
201002101800 METAR LMML NIL=
201002101745 METAR LMML 101745Z 27022G35KT 230V300 9999 FEW039 12/04 Q0998
                        TEMPO 27030KT SHRA=
201002101730 METAR LMML NIL=
201002101715 METAR LMML 101715Z 27018G28KT 220V310 9999 FEW037 12/05 Q0998
                        TEMPO 27030KT SHRA=
201002101700 METAR LMML NIL=
201002101645 METAR LMML 101645Z 27022G34KT 230V300 9999 SCT041 12/04 Q0998
                        TEMPO 27030KT SHRA=
201002101630 METAR LMML NIL=
201002101615 METAR LMML 101615Z 27020G32KT 240V310 9999 SCT044 12/04 Q0997
                        TEMPO 27030KT 5000 SHRA BKN018=
201002101600 METAR LMML NIL=
201002101545 METAR LMML 101545Z 26024G39KT 210V300 9999 SCT038 SCT050
                        12/06 Q0998 TEMPO 27030KT 5000 SHRA
                        BKN018=
201002101530 METAR LMML NIL=
201002101515 METAR LMML 101515Z 27019KT 230V310 9999 SCT036 12/06 Q0997
                        TEMPO 27030KT 5000 SHRA BKN018=
201002101500 METAR LMML NIL=
201002101445 METAR LMML 101445Z 28015KT 9999 -SHRA BKN022 11/07 Q0997
                        TEMPO 27030KT 5000 SHRA BKN018=
201002101433 SPECI LMML 101433Z 28019G30KT 240V310 9999 BKN022 11/07 Q0997
                        TEMPO 27030KT 5000 SHRA BKN018=
201002101430 METAR LMML NIL=
201002101415 METAR LMML 101415Z 27017KT 230V300 6000 -SHRA BKN030 11/08
                        Q0997 TEMPO 27030KT 5000 SHRA BKN018=
201002101400 METAR LMML NIL=
201002101345 METAR LMML 101345Z 28019KT 230V310 9999 SCT027 13/07 Q0996
                        TEMPO 27030KT 5000 SHRA BKN018=
201002101330 METAR LMML NIL=
201002101315 METAR LMML 101315Z 27020KT 230V300 9999 BKN026 13/07 Q0996
                        TEMPO SHRA=
201002101300 METAR LMML NIL=
201002101245 METAR LMML 101245Z 28018KT 220V300 9999 -SHRA SCT026 SCT060
                        13/08 Q0996 TEMPO SHRA=
201002101230 METAR LMML NIL=
201002101215 METAR LMML 101215Z 27017KT 240V300 9999 SCT025 SCT060 13/08
                        Q0996 RESHRA TEMPO SHRA=
201002101200 METAR LMML NIL=
201002101145 METAR LMML 101145Z 27018KT 240V310 9000 SHRA BKN022 12/09
                        Q0997 TEMPO SHRA=
201002101130 METAR LMML NIL=
201002101115 METAR LMML 101115Z 26020G30KT 220V310 9000 -SHRA BKN027 13/09
                        Q0997 TEMPO SHRA=
201002101100 METAR LMML NIL=
201002101045 METAR LMML 101045Z 26018KT 210V300 9999 BKN027 14/08 Q0997
                        TEMPO SHRA=
201002101030 METAR LMML NIL=
201002101015 METAR LMML 101015Z 26020KT 220V290 9999 BKN031 14/07 Q0997
                        TEMPO SHRA=
201002101000 METAR LMML NIL=
201002100945 METAR LMML 100945Z 26018KT 230V300 9999 SCT027 15/08 Q0997
                        NOSIG=
201002100915 METAR LMML 100915Z 27018KT 240V300 9999 SCT028 14/08 Q0997
                        NOSIG=
201002100900 METAR LMML NIL=
201002100845 METAR LMML 100845Z 27017KT 240V320 9999 SCT027 14/08 Q0996
                        TEMPO 28020KT=
201002100830 METAR LMML NIL=
201002100815 METAR LMML 100815Z 27016KT 220V300 9999 SCT024 13/08 Q0996
                        TEMPO 28020KT=
201002100800 METAR LMML NIL=
201002100745 METAR LMML 100745Z 27012KT 9999 SCT021 13/09 Q0996 TEMPO
                        28020KT=
201002100730 METAR LMML NIL=
201002100715 METAR LMML 100715Z 28009KT 250V310 9999 SCT021 12/09 Q0996
                        TEMPO 28020KT=
201002100700 METAR LMML NIL=
201002100645 METAR LMML 100645Z 29009KT 260V320 9999 SCT022 SCT250 12/09
                        Q0995 NOSIG=
201002100630 METAR LMML NIL=
201002100615 METAR LMML 100615Z 28005KT 250V310 9999 SCT019 SCT250 12/09
                        Q0995 NOSIG=
201002100600 METAR LMML NIL=
201002100545 METAR LMML 100545Z 27004KT 220V300 9999 FEW023 11/09 Q0995
                        NOSIG=
201002100530 METAR LMML NIL=
201002100515 METAR LMML 100515Z 28006KT 9999 FEW020 SCT080 11/09 Q0995
                        NOSIG=
201002100500 METAR LMML NIL=
201002100445 METAR LMML 100445Z 29006KT 9999 FEW015 SCT080 12/09 Q0995
                        NOSIG=
201002100430 METAR LMML NIL=
201002100415 METAR LMML 100415Z 29008KT 9999 FEW015 SCT080 13/11 Q0994
                        NOSIG=
201002100400 METAR LMML NIL=
201002100345 METAR LMML 100345Z 28007KT 9999 FEW020 SCT080 13/10 Q0994
                        NOSIG=
201002100330 METAR LMML NIL=
201002100315 METAR LMML 100315Z 26006KT 230V290 9999 FEW030 SCT090 13/10
                        Q0994 NOSIG=
201002100300 METAR LMML NIL=
201002100245 METAR LMML 100245Z 25007KT 220V280 9999 FEW030 SCT090 13/10
                        Q0994 NOSIG=
201002100230 METAR LMML NIL=
201002100215 METAR LMML 100215Z 25005KT 180V290 9999 FEW030 BKN090 13/10
                        Q0994 NOSIG=
201002100200 METAR LMML NIL=
201002100145 METAR LMML 100145Z 26008KT 230V300 9999 FEW030 BKN100 13/10
                        Q0995 NOSIG=
201002100130 METAR LMML NIL=
201002100115 METAR LMML 100115Z 26011KT 220V290 9999 SCT030 BKN100 13/10
                        Q0996 NOSIG=
201002100100 METAR LMML NIL=
201002100045 METAR LMML 100045Z 27009KT 240V300 9999 SCT025 BKN100 13/10
                        Q0996 TEMPO 8000 SHRA=
201002100030 METAR LMML NIL=
201002100015 METAR LMML 100015Z 28011KT 240V310 9999 FEW004 SCT025 BKN100
                        13/11 Q0996 TEMPO 8000 SHRA=
201002100000 METAR LMML NIL=
201002092345 METAR LMML 092345Z 27005KT 220V310 8000 -RA SCT004 BKN100
                        14/14 Q0997 BECMG 9999=
201002092330 METAR LMML NIL=
201002092315 METAR LMML 092315Z 24008KT 190V320 5000 -RA BKN003 SCT090
                        14/13 Q0998 TEMPO 6000 SCT003=
201002092300 METAR LMML NIL=
201002092245 METAR LMML 092245Z VRB02KT 5000 -RA BKN003 SCT100 14/13 Q0997
                        TEMPO 3000 BR BKN002=
201002092230 METAR LMML NIL=
201002092215 METAR COR LMML 092215Z VRB03KT 5000 -RA BKN003 SCT090 14/14
                        Q0996 TEMPO 3000 BR BKN002=
201002092200 METAR LMML NIL=
201002092145 METAR LMML 092145Z 09005KT 050V140 4000 BR OVC002 14/14 Q0996
                        NOSIG=
201002092130 METAR LMML NIL=
201002092115 METAR LMML 092115Z 10006KT 070V130 4000 BR OVC002 14/14 Q0997
                        TEMPO 3000 BR OVC001=
201002092100 METAR LMML NIL=
201002092045 METAR LMML 092045Z 11006KT 080V140 6000 OVC003 14/14 Q0998
                        TEMPO 5000 BR OVC002=
201002092030 METAR LMML NIL=
201002092015 METAR LMML 092015Z 11006KT 6000 OVC003 OVC007 14/14 Q0998
                        TEMPO 5000 BR OVC002=
201002092000 METAR LMML NIL=
201002091945 METAR LMML 091945Z 13005KT 090V170 9000 OVC003 14/14 Q0998
                        TEMPO OVC002=
201002091930 METAR LMML NIL=
201002091915 METAR LMML 091915Z 10007KT 9000 OVC003 14/14 Q0998 TEMPO
                        OVC002=
201002091900 METAR LMML NIL=
201002091845 METAR LMML 091845Z 11007KT 070V140 9999 OVC005 14/13 Q0999
                        NOSIG=
201002091830 METAR LMML NIL=
201002091815 METAR LMML 091815Z 13006KT 9999 OVC005 14/13 Q0999 NOSIG=
201002091800 METAR LMML NIL=
201002091745 METAR LMML 091745Z 11007KT 080V140 9999 BKN005 BKN019 14/13
                        Q0998 NOSIG=
201002091730 METAR LMML NIL=
201002091715 METAR LMML 091715Z 10007KT 9999 BKN007 BKN013 14/13 Q0998
                        NOSIG=
201002091700 METAR LMML NIL=
201002091645 METAR LMML 091645Z 10009KT 9999 SCT008 BKN013 BKN120 14/13
                        Q0998 NOSIG=
201002091630 METAR LMML NIL=
201002091615 METAR LMML 091615Z 10008KT 9999 SCT009 BKN014 BKN120 14/13
                        Q0998 NOSIG=
201002091600 METAR LMML NIL=
201002091545 METAR LMML 091545Z 10010KT 080V140 9999 SCT009 BKN013 BKN150
                        14/13 Q0999 NOSIG=
201002091530 METAR LMML NIL=
201002091515 METAR LMML 091515Z 11010KT 9999 BKN015 BKN150 15/13 Q0999
                        NOSIG=
201002091500 METAR LMML NIL=
201002091445 METAR LMML 091445Z 12010KT 090V150 9999 BKN015 BKN200 15/12
                        Q0999 NOSIG=
201002091430 METAR LMML NIL=
201002091415 METAR LMML 091415Z 12012KT 9999 FEW014 BKN019 BKN200 15/12
                        Q0999 NOSIG=
201002091400 METAR LMML NIL=
201002091345 METAR LMML 091345Z 13013KT 9999 BKN020 BKN200 15/12 Q0999
                        NOSIG=
201002091330 METAR LMML NIL=
201002091315 METAR LMML 091315Z 13014KT 9999 BKN019 BKN200 15/12 Q1000
                        NOSIG=
201002091300 METAR LMML NIL=
201002091245 METAR LMML 091245Z 13012KT 110V170 9999 BKN025 BKN200 15/11
                        Q1001 NOSIG=
201002091215 METAR LMML 091215Z 13013KT 110V170 9999 BKN022 15/11 Q1001
                        NOSIG=
201002091145 METAR LMML 091145Z 14013KT 9999 BKN025 SCT120 15/11 Q1002
                        NOSIG=
201002091115 METAR LMML 091115Z 13016KT 9999 BKN028 SCT120 15/11 Q1002
                        NOSIG=
201002091100 METAR LMML NIL=
201002091045 METAR LMML 091045Z 13017KT 9999 FEW021 SCT120 15/10 Q1002
                        NOSIG=
201002091030 METAR LMML NIL=
201002091015 METAR LMML 091015Z 14016KT 100V160 9999 FEW019 BKN250 15/10
                        Q1003 NOSIG=
201002091000 METAR LMML NIL=
201002090945 METAR LMML 090945Z 13014KT 100V170 9999 SCT018 SCT250 15/11
                        Q1003 NOSIG=
201002090930 METAR LMML NIL=
201002090915 METAR LMML 090915Z 12016KT 9999 SCT018 SCT250 14/11 Q1003
                        NOSIG=
201002090900 METAR LMML NIL=
201002090845 METAR LMML 090845Z 12013KT 9999 BKN019 SCT120 13/10 Q1003
                        NOSIG=
201002090830 METAR LMML NIL=
201002090815 METAR LMML 090815Z 11013KT 9999 BKN018 13/10 Q1003 NOSIG=
201002090800 METAR LMML NIL=
201002090745 METAR LMML 090745Z 12012KT 9999 FEW021 SCT250 13/09 Q1003
                        NOSIG=
201002090715 METAR LMML 090715Z 12010KT 100V160 9999 SCT021 12/09 Q1003
                        NOSIG=
201002090700 METAR LMML NIL=
201002090645 METAR LMML 090645Z 12007KT 9999 FEW022 SCT120 11/08 Q1004
                        NOSIG=
201002090630 METAR LMML NIL=
201002090615 METAR LMML 090615Z 12007KT 9999 FEW022 SCT120 BKN250 10/07
                        Q1004 NOSIG=
201002090545 METAR LMML 090545Z 12005KT 9999 FEW024 SCT120 BKN250 10/07
                        Q1004 NOSIG=
201002090515 METAR LMML 090515Z 13004KT 9999 SCT025 SCT120 BKN250 10/06
                        Q1005 NOSIG=
201002090445 METAR LMML 090445Z 13004KT 9999 SCT028 BKN120 BKN250 10/06
                        Q1004 NOSIG=
201002090430 METAR LMML NIL=
201002090415 METAR LMML 090415Z VRB03KT CAVOK 09/04 Q1004 NOSIG=
201002090400 METAR LMML NIL=
201002090345 METAR LMML 090345Z VRB03KT CAVOK 09/04 Q1005 NOSIG=
201002090330 METAR LMML NIL=
201002090315 METAR LMML 090315Z VRB02KT CAVOK 08/04 Q1005 NOSIG=
201002090300 METAR LMML NIL=
201002090245 METAR LMML 090245Z VRB03KT CAVOK 09/03 Q1005 NOSIG=
201002090230 METAR LMML NIL=
201002090215 METAR LMML 090215Z 09004KT CAVOK 08/03 Q1005 NOSIG=
201002090200 METAR LMML NIL=
201002090145 METAR LMML 090145Z VRB03KT CAVOK 08/04 Q1005 NOSIG=
201002090130 METAR LMML NIL=
201002090115 METAR LMML 090115Z VRB01KT CAVOK 08/04 Q1006 NOSIG=
201002090100 METAR LMML NIL=
201002090045 METAR LMML 090045Z VRB01KT CAVOK 09/04 Q1006 NOSIG=
201002090015 METAR LMML 090015Z VRB01KT CAVOK 08/04 Q1006 NOSIG=
201002090000 METAR LMML NIL=
201002082345 METAR LMML 082345Z VRB01KT CAVOK 08/04 Q1006 NOSIG=
201002082330 METAR LMML NIL=
201002082315 METAR LMML 082315Z VRB01KT CAVOK 09/04 Q1007 NOSIG=
201002082245 METAR LMML 082245Z VRB02KT CAVOK 08/03 Q1007 NOSIG=
201002082230 METAR LMML NIL=
201002082215 METAR LMML 082215Z VRB03KT CAVOK 09/02 Q1007 NOSIG=
201002082200 METAR LMML NIL=
201002082145 METAR LMML 082145Z VRB03KT CAVOK 09/03 Q1007 NOSIG=
201002082115 METAR LMML 082115Z 25004KT CAVOK 09/03 Q1007 NOSIG=
201002082100 METAR LMML NIL=
201002082045 METAR LMML 082045Z 26004KT CAVOK 09/03 Q1007 NOSIG=
201002082030 METAR LMML NIL=
201002082015 METAR LMML 082015Z 26004KT CAVOK 09/03 Q1007 NOSIG=
201002082000 METAR LMML NIL=
201002081945 METAR LMML 081945Z 25005KT CAVOK 09/03 Q1007 NOSIG=
201002081930 METAR LMML NIL=
201002081915 METAR LMML 081915Z 28004KT 240V310 CAVOK 09/03 Q1007 NOSIG=
201002081900 METAR LMML NIL=
201002081845 METAR LMML 081845Z 28004KT 250V310 CAVOK 10/03 Q1007 NOSIG=
201002081830 METAR LMML NIL=
201002081815 METAR LMML 081815Z 27005KT 9999 FEW035 BKN250 10/04 Q1007
                        NOSIG=
201002081800 METAR LMML NIL=
201002081745 METAR LMML 081745Z 27006KT 220V300 9999 FEW035 BKN250 10/04
                        Q1007 NOSIG=
201002081715 METAR LMML 081715Z 29006KT 9999 FEW035 SCT250 11/04 Q1007
                        NOSIG=
201002081700 METAR LMML NIL=
201002081645 METAR LMML 081645Z 30008KT 9999 FEW039 BKN250 11/03 Q1006
                        NOSIG=
201002081630 METAR LMML NIL=
201002081615 METAR LMML 081615Z 30011KT 9999 FEW039 BKN250 12/04 Q1006
                        NOSIG=
201002081600 METAR LMML NIL=
201002081545 METAR LMML 081545Z 29014KT 260V320 9999 FEW039 SCT250 13/04
                        Q1006 NOSIG=
201002081515 METAR LMML 081515Z 29012KT 250V320 9999 FEW039 SCT250 13/04
                        Q1006 NOSIG=
201002081500 METAR LMML NIL=
201002081445 METAR LMML 081445Z 29013KT 260V320 9999 FEW039 SCT250 13/05
                        Q1006 NOSIG=
201002081430 METAR LMML NIL=
201002081415 METAR LMML 081415Z 30016KT 250V320 9999 FEW039 14/04 Q1006
                        NOSIG=
201002081400 METAR LMML NIL=
201002081345 METAR LMML 081345Z 30016KT 260V330 9999 FEW039 14/05 Q1006
                        NOSIG=
201002081330 METAR LMML NIL=
201002081315 METAR LMML 081315Z 30016KT 9999 FEW039 14/05 Q1006 NOSIG=
201002081300 METAR LMML NIL=
201002081245 METAR LMML 081245Z 30019KT 9999 SCT038 14/04 Q1006 NOSIG=
201002081215 METAR LMML 081215Z 31017KT 9999 SCT035 13/05 Q1007 NOSIG=
201002081200 METAR LMML NIL=
201002081145 METAR LMML 081145Z 30015KT 250V330 9999 SCT035 13/06 Q1007
                        NOSIG=
201002081130 METAR LMML NIL=
201002081115 METAR LMML 081115Z 29015KT 260V320 9999 SCT037 13/06 Q1007
                        NOSIG=
201002081100 METAR LMML NIL=
201002081045 METAR LMML 081045Z 29016KT 260V330 9999 SCT039 13/05 Q1007
                        NOSIG=
201002081015 METAR LMML 081015Z 30014KT 250V330 9999 FEW040 14/05 Q1007
                        NOSIG=
201002081000 METAR LMML NIL=
201002080945 METAR LMML 080945Z 30017KT 250V320 9999 FEW038 14/05 Q1008
                        NOSIG=
201002080930 METAR LMML NIL=
201002080915 METAR LMML 080915Z 31018KT 9999 FEW035 13/06 Q1008 NOSIG=
201002080900 METAR LMML NIL=
201002080845 METAR LMML 080845Z 31015KT 9999 FEW030 13/05 Q1007 NOSIG=
201002080830 METAR LMML NIL=
201002080815 METAR LMML 080815Z 31016KT 9999 FEW030 12/05 Q1007 NOSIG=
201002080800 METAR LMML NIL=
201002080745 METAR LMML 080745Z 31014KT 9999 FEW030 11/04 Q1007 NOSIG=
201002080730 METAR LMML NIL=
201002080715 METAR LMML 080715Z 30011KT 9999 FEW030 SCT250 11/05 Q1007
                        NOSIG=
201002080700 METAR LMML NIL=
201002080645 METAR LMML 080645Z 30011KT 9999 FEW030 BKN250 10/05 Q1007
                        NOSIG=
201002080630 METAR LMML NIL=
201002080615 METAR LMML 080615Z 30010KT 9999 FEW035 SCT250 10/07 Q1006
                        NOSIG=
201002080600 METAR COR LMML 080600Z 30008KT 9999 FEW035 SCT250 10/06 Q1006
                        NOSIG=
201002080545 METAR LMML 080545Z 30008KT 9999 FEW036 SCT250 10/06 Q1006
                        NOSIG=
201002080530 METAR LMML NIL=
201002080515 METAR LMML 080515Z 29008KT 9999 FEW036 SCT060 10/05 Q1006
                        NOSIG=
201002080500 METAR LMML NIL=
201002080445 METAR LMML 080445Z 31012KT 9999 FEW036 SCT060 10/06 Q1006
                        NOSIG=
201002080430 METAR LMML NIL=
201002080415 METAR LMML 080415Z 30013KT 9999 FEW030 SCT050 10/06 Q1006
                        NOSIG=
201002080345 METAR LMML 080345Z 31011KT 9999 FEW040 09/06 Q1005 TEMPO
                        30020KT=
201002080330 METAR LMML NIL=
201002080315 METAR LMML 080315Z 31011KT 9999 FEW046 09/06 Q1005 TEMPO
                        30020KT=
201002080300 METAR LMML NIL=
201002080245 METAR LMML 080245Z 31010KT 9999 FEW046 09/06 Q1006 TEMPO
                        30020KT=
201002080230 METAR LMML NIL=
201002080215 METAR LMML 080215Z 31012KT 9999 FEW046 10/05 Q1005 TEMPO
                        30020KT=
201002080200 METAR LMML NIL=
201002080145 METAR LMML 080145Z 30012KT 9999 SCT046 10/05 Q1005 TEMPO
                        30020KT=
201002080130 METAR LMML NIL=
201002080115 METAR LMML 080115Z 30012KT 260V320 9999 FEW025 10/07 Q1005
                        TEMPO 30020KT=
201002080100 METAR LMML NIL=
201002080045 METAR LMML 080045Z 30014KT 9999 -SHRA BKN028 10/07 Q1005
                        TEMPO 30020KT=
201002080030 METAR LMML NIL=
201002080015 METAR LMML 080015Z 30008KT 9999 -SHRA SCT028 BKN057 10/07
                        Q1005 TEMPO 30020KT=
201002080000 METAR LMML NIL=
201002072345 METAR LMML 072345Z 30013KT 9999 SCT034 BKN070 10/06 Q1006
                        TEMPO 30020KT=
201002072315 METAR LMML 072315Z 30014KT 250V330 9999 -SHRA SCT027 BKN060
                        11/06 Q1006 TEMPO 30020KT=
201002072300 METAR LMML NIL=
201002072245 METAR LMML 072245Z 30011KT 9999 FEW019 SCT060 10/08 Q1006
                        TEMPO 30020KT=
201002072230 METAR LMML NIL=
201002072215 METAR LMML 072215Z 29010KT 9999 FEW037 SCT060 10/07 Q1006
                        TEMPO 30025KT 6000 SHRA BKN015TCU=
201002072200 METAR LMML NIL=
201002072145 METAR LMML 072145Z 31011KT 9999 SCT029 BKN050 10/07 Q1006
                        TEMPO 30025KT 6000 SHRA BKN015TCU=
201002072130 METAR LMML NIL=
201002072115 METAR LMML 072115Z 32012KT 9999 FEW026 SCT040 10/07 Q1006
                        TEMPO 30025KT 6000 SHRA BKN015TCU=
201002072100 METAR LMML NIL=
201002072045 METAR LMML 072045Z 28013KT 9999 FEW024 10/06 Q1006 TEMPO
                        30025KT 6000 SHRA BKN015TCU=
201002072030 METAR LMML NIL=
201002072015 METAR LMML 072015Z 29012KT 9999 SCT024 SCT090 10/07 Q1006
                        RESHRA TEMPO 30025KT 6000 SHRA BKN015TCU=
201002072000 METAR LMML NIL=
201002071945 METAR LMML 071945Z 31011KT 9999 SCT024 09/07 Q1006 RESHRA
                        TEMPO 30025KT 6000 SHRA BKN015TCU=
201002071930 METAR LMML NIL=
201002071915 METAR LMML 071915Z 31017KT 9000 -SHRA BKN025 10/07 Q1006
                        TEMPO 30025KT 6000 SHRA BKN015TCU=
201002071900 METAR LMML NIL=
201002071845 METAR LMML 071845Z 29012KT 260V320 9999 SCT034 11/06 Q1006
                        TEMPO 30025KT 6000 SHRA BKN015TCU=
201002071830 METAR LMML NIL=
201002071815 METAR LMML 071815Z 29013KT 260V320 9999 FEW028 11/06 Q1006
                        TEMPO 6000 SHRA BKN015TCU=
201002071800 METAR LMML NIL=
201002071745 METAR LMML 071745Z 29011KT 260V320 9999 SCT028 11/07 Q1005
                        TEMPO 6000 SHRA BKN015TCU=
201002071730 METAR LMML NIL=
201002071715 METAR LMML 071715Z 29011KT 9999 FEW027 11/06 Q1005 TEMPO
                        6000 SHRA BKN015TCU=
201002071700 METAR LMML NIL=
201002071645 METAR LMML 071645Z 30012KT 9999 FEW027 11/07 Q1005 TEMPO
                        6000 SHRA BKN015TCU=
201002071630 METAR LMML NIL=
201002071615 METAR LMML 071615Z 29013KT 9000 -SHRA SCT029TCU 12/08 Q1005
                        TEMPO 6000 SHRA BKN015TCU=
201002071600 METAR LMML NIL=
201002071545 METAR LMML 071545Z 29015KT 260V320 9999 FEW030 12/07 Q1004
                        TEMPO 6000 SHRA BKN015TCU=
201002071530 METAR LMML NIL=
201002071515 METAR LMML 071515Z 29017KT 9999 FEW032 12/06 Q1004 TEMPO
                        6000 SHRA BKN015TCU=
201002071500 METAR LMML NIL=
201002071445 METAR LMML 071445Z 28017KT 250V320 9999 FEW033 13/07 Q1004
                        TEMPO 6000 SHRA BKN015TCU=
201002071430 METAR LMML NIL=
201002071415 METAR LMML 071415Z 28014KT 9999 FEW039 11/07 Q1005 TEMPO
                        6000 SHRA BKN015TCU=
201002071400 METAR LMML NIL=
201002071345 METAR LMML 071345Z 29016KT 250V320 9999 FEW025 SCT050 11/07
                        Q1005 TEMPO 6000 SHRA BKN015TCU=
201002071330 METAR LMML NIL=
201002071315 METAR LMML 071315Z 28016KT 250V310 9999 FEW023 SCT080 13/08
                        Q1005 TEMPO 6000 SHRA BKN015TCU=
201002071300 METAR LMML NIL=
201002071245 METAR LMML 071245Z 28021G33KT 9999 FEW023 SCT090 11/08 Q1005
                        TEMPO 6000 SHRA BKN015TCU=
201002071230 METAR LMML NIL=
201002071215 METAR LMML 071215Z 29020KT 9999 FEW027 SCT120 14/08 Q1005
                        TEMPO 6000 SHRA BKN015TCU=
201002071200 METAR LMML NIL=
201002071145 METAR LMML 071145Z 28018KT 250V310 9999 FEW025 13/06 Q1005
                        TEMPO 6000 SHRA BKN015TCU=
201002071130 METAR LMML NIL=
201002071115 METAR LMML 071115Z 29020KT 260V320 9999 FEW025 14/08 Q1005
                        TEMPO 6000 SHRA BKN015TCU=
201002071100 METAR LMML NIL=
201002071045 METAR LMML 071045Z 29018KT 260V330 9999 SCT026 13/08 Q1005
                        TEMPO 6000 SHRA BKN015TCU=
201002071030 METAR LMML NIL=
201002071015 METAR LMML 071015Z 29013KT 260V320 9999 FEW024 SCT090 12/08
                        Q1005 TEMPO 6000 SHRA BKN015TCU=
201002071000 METAR LMML NIL=
201002070945 METAR LMML 070945Z 29013KT 260V320 9999 FEW023 SCT250 12/09
                        Q1005 TEMPO 6000 SHRA BKN015TCU=
201002070930 METAR LMML NIL=
201002070915 METAR LMML 070915Z 28015KT 250V310 9999 SCT023 SCT060 10/07
                        Q1006 TEMPO 6000 SHRA BKN015TCU=
201002070900 METAR LMML NIL=
201002070845 METAR LMML 070845Z 29017KT 9999 BKN025 10/07 Q1006 TEMPO
                        5000 TSRA BKN015CB=
201002070830 METAR LMML NIL=
201002070815 METAR COR LMML 070815Z 31013KT 280V360 9999 -RA FEW011 SCT040
                        10/07 Q1005 TEMPO 5000 TSRA BKN015CB=
201002070800 METAR LMML NIL=
201002070745 METAR LMML 070745Z 26014KT 220V290 9999 FEW020 SCT090 11/07
                        Q1005 TEMPO 5000 TSRA BKN015CB=
201002070730 METAR LMML NIL=
201002070715 METAR LMML 070715Z 25016KT 210V290 9999 FEW015CB SCT090 09/06
                        Q1005 TEMPO 5000 TSRA BKN015CB=
201002070700 METAR LMML NIL=
201002070645 METAR LMML 070645Z 28024G38KT 9000 -SHRA SCT022 SCT090 12/07
                        Q1006 TEMPO 4000 TSGR BKN015CB=
201002070630 METAR LMML NIL=
201002070615 METAR LMML 070615Z 27018G30KT 220V310 9999 FEW038 SCT120
                        11/05 Q1006 TEMPO 7000=
201002070600 METAR LMML NIL=
201002070545 METAR LMML 070545Z 27018KT 220V300 9999 FEW038 SCT120 11/04
                        Q1005 TEMPO 7000=
201002070515 METAR LMML 070515Z 27023G33KT 230V300 9999 SHRA FEW036 BKN070
                        11/05 Q1005 TEMPO 7000=
201002070500 METAR LMML NIL=
201002070445 METAR LMML 070445Z 28021KT 9999 FEW036 BKN120 12/04 Q1006
                        TEMPO 7000 SHRA SCT025TCU=
201002070430 METAR LMML NIL=
201002070415 METAR LMML 070415Z 29020G30KT 260V320 9999 FEW029 SCT120
                        13/07 Q1006 NOSIG=
201002070400 METAR LMML NIL=
201002070345 METAR LMML 070345Z 29019KT 260V320 9999 FEW028 12/07 Q1006
                        NOSIG=
201002070330 METAR LMML NIL=
201002070315 METAR LMML 070315Z 28018KT 9999 FEW025 12/07 Q1006 NOSIG=
201002070300 METAR LMML NIL=
201002070245 METAR LMML 070245Z 29021KT 250V310 9999 SCT027 SCT120 13/08
                        Q1007 NOSIG=
201002070230 METAR LMML NIL=
201002070215 METAR LMML 070215Z 28020KT 250V310 9999 FEW027 BKN120 13/08
                        Q1007 NOSIG=
201002070200 METAR LMML NIL=
201002070145 METAR LMML 070145Z 28018KT 250V310 9999 FEW029 BKN090 13/08
                        Q1008 NOSIG=
201002070130 METAR LMML NIL=
201002070115 METAR LMML 070115Z 28019KT 250V310 9999 FEW025 BKN120 13/07
                        Q1008 NOSIG=
201002070100 METAR LMML NIL=
201002070045 METAR LMML 070045Z 28016KT 250V310 9999 FEW028 SCT120 12/07
                        Q1008 NOSIG=
201002070030 METAR LMML NIL=
201002070015 METAR LMML 070015Z 27016KT 240V300 9999 FEW025 SCT120 13/08
                        Q1008 NOSIG=
201002070000 METAR LMML NIL=
201002062345 METAR LMML 062345Z 27013KT 230V300 9999 FEW034 SCT120 12/08
                        Q1009 NOSIG=
201002062315 METAR LMML 062315Z 28014KT 9999 FEW025 SCT080 12/07 Q1009
                        NOSIG=
201002062300 METAR LMML NIL=
201002062245 METAR LMML 062245Z 29015KT 250V320 9999 FEW028 BKN120 13/08
                        Q1009 NOSIG=
201002062230 METAR LMML NIL=
201002062215 METAR LMML 062215Z 27018G28KT 240V310 9999 FEW038 BKN090
                        13/08 Q1010 NOSIG=
201002062200 METAR LMML NIL=
201002062145 METAR LMML 062145Z 27012KT 220V300 9999 SCT015 BKN080 13/08
                        Q1010 NOSIG=
201002062130 METAR LMML NIL=
201002062115 METAR LMML 062115Z 25014KT 200V290 9999 FEW034 BKN120 13/10
                        Q1010 NOSIG=
201002062100 METAR LMML NIL=
201002062045 METAR LMML 062045Z 24013KT 200V280 9999 FEW034 BKN100 13/10
                        Q1010 NOSIG=
201002062030 METAR LMML NIL=
201002062015 METAR LMML 062015Z 26018G30KT 210V290 9999 SCT034 BKN070
                        14/09 Q1011 NOSIG=
201002062000 METAR LMML NIL=
201002061945 METAR LMML 061945Z 24012KT 210V290 9999 FEW036 BKN070 14/10
                        Q1010 TEMPO 8000 SHRA=
201002061915 METAR LMML 061915Z 24011KT 200V280 9999 FEW025 BKN090 14/10
                        Q1011 TEMPO 8000 SHRA=
201002061900 METAR LMML NIL=
201002061845 METAR LMML 061845Z 24009KT 210V280 9999 FEW025 BKN090 14/10
                        Q1011 NOSIG=
201002061815 METAR LMML 061815Z 25008KT 210V280 9999 FEW025 BKN090 14/09
                        Q1011 NOSIG=
201002061800 METAR LMML NIL=
201002061745 METAR LMML 061745Z 25007KT 200V290 9999 FEW025 SCT090 13/09
                        Q1012 NOSIG=
201002061730 METAR LMML NIL=
201002061715 METAR LMML 061715Z 25009KT 200V300 9999 FEW025 13/10 Q1012
                        NOSIG=
201002061700 METAR LMML NIL=
201002061645 METAR LMML 061645Z 26012KT 220V290 9999 FEW025 14/09 Q1012
                        NOSIG=
201002061630 METAR LMML NIL=
201002061615 METAR LMML 061615Z 26014KT 220V290 9999 FEW025 14/09 Q1012
                        NOSIG=
201002061600 METAR LMML NIL=
201002061545 METAR LMML 061545Z 26015KT 230V290 9999 FEW025 15/10 Q1013
                        NOSIG=
201002061515 METAR LMML 061515Z 27015KT 9999 FEW025 15/09 Q1013 NOSIG=
201002061500 METAR LMML NIL=
201002061445 METAR LMML 061445Z 27013KT 230V300 9999 FEW025 16/09 Q1013
                        NOSIG=
201002061430 METAR LMML NIL=
201002061415 METAR LMML 061415Z 27016KT 240V310 9999 FEW025 16/08 Q1013
                        NOSIG=
201002061400 METAR LMML NIL=
201002061345 METAR LMML 061345Z 27015KT 230V310 9999 FEW025 16/09 Q1013
                        NOSIG=
201002061330 METAR LMML NIL=
201002061315 METAR LMML 061315Z 27015KT 220V300 9999 FEW025 16/08 Q1014
                        NOSIG=
201002061300 METAR LMML NIL=
201002061245 METAR LMML 061245Z 28018KT 250V310 9999 FEW025 16/08 Q1014
                        NOSIG=
201002061230 METAR LMML NIL=
201002061215 METAR LMML 061215Z 28017KT 250V310 9999 FEW025 17/07 Q1014
                        NOSIG=
201002061200 METAR LMML NIL=
201002061145 METAR LMML 061145Z 28016KT 240V310 9999 FEW025 17/07 Q1015
                        NOSIG=
201002061130 METAR LMML NIL=
201002061115 METAR LMML 061115Z 28018KT 250V310 9999 FEW025 17/07 Q1015
                        NOSIG=
201002061100 METAR LMML NIL=
201002061045 METAR LMML 061045Z 28014KT 240V300 9999 FEW022 16/09 Q1015
                        NOSIG=
201002061030 METAR LMML NIL=
201002061015 METAR LMML 061015Z 28015KT 240V310 9999 FEW022 16/09 Q1016
                        NOSIG=
201002061000 METAR LMML NIL=
201002060945 METAR LMML 060945Z 28014KT 230V300 9999 FEW022 16/10 Q1016
                        NOSIG=
201002060930 METAR LMML NIL=
201002060915 METAR LMML 060915Z 27016KT 230V310 9999 FEW022 SCT250 16/10
                        Q1016 NOSIG=
201002060900 METAR LMML NIL=
201002060845 METAR LMML 060845Z 27010KT 230V300 9999 FEW022 SCT250 15/11
                        Q1016 TEMPO 29018KT=
201002060830 METAR LMML NIL=
201002060815 METAR LMML 060815Z 29009KT 9999 FEW016 BKN100 15/11 Q1016
                        TEMPO 29018KT=
201002060800 METAR LMML NIL=
201002060745 METAR LMML 060745Z 27010KT 240V310 9999 SCT024 BKN100 15/12
                        Q1016 TEMPO 29018KT=
201002060730 METAR LMML NIL=
201002060715 METAR LMML 060715Z 27009KT 250V310 9999 FEW022 BKN100 15/12
                        Q1017 TEMPO 29018KT=
201002060700 METAR LMML NIL=
201002060645 METAR LMML 060645Z 26009KT 9999 FEW022 BKN100 14/11 Q1017
                        NOSIG=
201002060630 METAR LMML NIL=
201002060615 METAR LMML 060615Z 27009KT 240V300 9999 FEW015 SCT100 14/11
                        Q1017 NOSIG=
201002060600 METAR LMML NIL=
201002060545 METAR LMML 060545Z 26010KT 220V300 9999 FEW015 14/12 Q1017
                        NOSIG=
201002060530 METAR LMML NIL=
201002060515 METAR LMML 060515Z 23008KT 200V270 9999 FEW012 14/13 Q1017
                        NOSIG=
201002060500 METAR LMML NIL=
201002060445 METAR LMML 060445Z 25010G20KT 210V290 9999 FEW010 14/12 Q1017
                        NOSIG=
201002060430 METAR LMML NIL=
201002060415 METAR LMML 060415Z 24009KT 200V280 9999 FEW010 13/12 Q1016
                        NOSIG=
201002060400 METAR LMML NIL=
201002060345 METAR LMML 060345Z 24009KT 210V280 9999 FEW030 13/12 Q1017
                        NOSIG=
201002060330 METAR LMML NIL=
201002060315 METAR LMML 060315Z 23007KT 200V270 9999 FEW031 13/12 Q1017
                        NOSIG=
201002060300 METAR LMML NIL=
201002060245 METAR LMML 060245Z 25007KT 220V280 9999 FEW028 13/12 Q1017
                        NOSIG=
201002060230 METAR LMML NIL=
201002060215 METAR LMML 060215Z 25006KT 220V280 9999 FEW028 13/12 Q1017
                        NOSIG=
201002060200 METAR LMML NIL=
201002060145 METAR LMML 060145Z VRB03KT 9999 FEW030 13/11 Q1017 NOSIG=
201002060130 METAR LMML NIL=
201002060115 METAR LMML 060115Z 26005KT 230V290 9999 FEW030 13/11 Q1018
                        NOSIG=
201002060100 METAR LMML NIL=
201002060045 METAR LMML 060045Z 25006KT 9999 FEW030 13/11 Q1018 NOSIG=
201002060030 METAR LMML NIL=
201002060015 METAR LMML 060015Z 26007KT 9999 FEW030 SCT100 13/11 Q1018
                        NOSIG=
201002060000 METAR LMML NIL=
201002052345 METAR LMML 052345Z 26006KT 220V290 9999 FEW030 BKN100 13/11
                        Q1018 NOSIG=
201002052330 METAR LMML NIL=
201002052315 METAR LMML 052315Z 26005KT 220V290 9999 FEW030 SCT100 13/11
                        Q1018 NOSIG=
201002052300 METAR LMML NIL=
201002052245 METAR LMML 052245Z 26006KT 220V290 9999 FEW030 SCT100 13/10
                        Q1018 NOSIG=
201002052230 METAR LMML NIL=
201002052215 METAR LMML 052215Z 25006KT 220V290 9999 FEW030 SCT100 13/10
                        Q1018 NOSIG=
201002052200 METAR LMML NIL=
201002052145 METAR LMML 052145Z 25004KT 220V280 9999 FEW030 SCT100 13/10
                        Q1018 NOSIG=
201002052130 METAR LMML NIL=
201002052115 METAR LMML 052115Z 24005KT 210V270 9999 FEW030 SCT100 13/10
                        Q1018 NOSIG=
201002052100 METAR LMML NIL=
201002052045 METAR LMML 052045Z VRB03KT 9999 FEW030 12/10 Q1018 NOSIG=
201002052030 METAR LMML NIL=
201002052015 METAR LMML 052015Z 25004KT 9999 FEW030 12/10 Q1018 NOSIG=
201002052000 METAR LMML NIL=
201002051945 METAR LMML 051945Z 24005KT 9999 FEW030 13/11 Q1018 NOSIG=
201002051930 METAR LMML NIL=
201002051915 METAR LMML 051915Z 25005KT 210V280 9999 FEW030 13/12 Q1018
                        NOSIG=
201002051900 METAR LMML NIL=
201002051845 METAR LMML 051845Z 23004KT CAVOK 13/11 Q1018 NOSIG=
201002051830 METAR LMML NIL=
201002051815 METAR LMML 051815Z VRB03KT 9999 FEW015 BKN100 14/11 Q1018
                        NOSIG=
201002051800 METAR LMML NIL=
201002051745 METAR LMML 051745Z VRB03KT 9999 FEW015 BKN070 14/11 Q1018
                        NOSIG=
201002051730 METAR LMML NIL=
201002051715 METAR COR LMML 051715Z 21004KT 170V250 9999 FEW015 BKN070
                        15/13 Q1018 NOSIG=
201002051700 METAR LMML NIL=
201002051645 METAR LMML 051645Z 21004KT 170V240 9999 FEW015 BKN070 15/13
                        Q1018 NOSIG=
201002051630 METAR LMML NIL=
201002051615 METAR LMML 051615Z 21006KT 170V260 9999 FEW015 BKN070 15/12
                        Q1017 NOSIG=
201002051545 METAR LMML 051545Z 20006KT 170V230 9999 FEW015 BKN070 15/13
                        Q1017 NOSIG=
201002051515 METAR LMML 051515Z 18006KT 150V210 CAVOK 16/12 Q1017 NOSIG=
201002051500 METAR LMML NIL=
201002051445 METAR LMML 051445Z 18006KT 160V230 CAVOK 15/13 Q1018 NOSIG=
201002051430 METAR LMML NIL=
201002051415 METAR LMML 051415Z 18007KT 160V220 CAVOK 16/13 Q1018 NOSIG=
201002051400 METAR LMML NIL=
201002051345 METAR LMML 051345Z 18008KT 120V220 CAVOK 16/12 Q1017 NOSIG=
201002051330 METAR LMML NIL=
201002051315 METAR LMML 051315Z 18008KT 150V210 CAVOK 16/12 Q1018 NOSIG=
201002051300 METAR LMML NIL=
201002051245 METAR LMML 051245Z 17009KT 130V210 CAVOK 16/12 Q1018 NOSIG=
201002051215 METAR LMML 051215Z 18008KT 140V210 CAVOK 16/12 Q1018 NOSIG=
201002051200 METAR LMML NIL=
201002051145 METAR LMML 051145Z 18009KT 150V220 CAVOK 16/12 Q1019 NOSIG=
201002051130 METAR LMML NIL=
201002051115 METAR LMML 051115Z 17010KT 150V210 CAVOK 16/12 Q1019 NOSIG=
201002051100 METAR LMML NIL=
201002051045 METAR LMML 051045Z 18010KT 110V210 CAVOK 16/12 Q1019 NOSIG=
201002051015 METAR LMML 051015Z 18011KT 130V220 CAVOK 17/12 Q1020 NOSIG=
201002051000 METAR LMML NIL=
201002050945 METAR LMML 050945Z 18010KT 140V210 CAVOK 16/12 Q1020 NOSIG=
201002050930 METAR LMML NIL=
201002050915 METAR LMML 050915Z 18009KT 130V220 CAVOK 16/12 Q1020 NOSIG=
201002050900 METAR LMML NIL=
201002050845 METAR LMML 050845Z 17010KT 140V210 CAVOK 16/11 Q1020 NOSIG=
201002050830 METAR LMML NIL=
201002050815 METAR LMML 050815Z 17010KT 140V200 CAVOK 16/11 Q1020 NOSIG=
201002050800 METAR LMML NIL=
201002050745 METAR LMML 050745Z 17008KT 140V200 CAVOK 14/11 Q1020 NOSIG=
201002050730 METAR LMML NIL=
201002050715 METAR LMML 050715Z 18010KT CAVOK 15/11 Q1020 NOSIG=
201002050700 METAR LMML NIL=
201002050645 METAR LMML 050645Z 18013KT 150V220 CAVOK 14/10 Q1019 NOSIG=
201002050630 METAR LMML NIL=
201002050615 METAR LMML 050615Z 18011KT 150V210 CAVOK 14/10 Q1019 NOSIG=
201002050545 METAR LMML 050545Z 17008KT 130V210 CAVOK 14/10 Q1019 NOSIG=
201002050530 METAR LMML NIL=
201002050515 METAR LMML 050515Z 17007KT 130V210 CAVOK 14/10 Q1019 NOSIG=
201002050500 METAR LMML NIL=
201002050445 METAR LMML 050445Z 17007KT 120V200 CAVOK 13/10 Q1019 NOSIG=
201002050430 METAR LMML NIL=
201002050415 METAR LMML 050415Z 16007KT 120V180 CAVOK 13/10 Q1020 NOSIG=
201002050400 METAR LMML NIL=
201002050345 METAR LMML 050345Z 15007KT 120V180 CAVOK 13/09 Q1020 NOSIG=
201002050330 METAR LMML NIL=
201002050315 METAR LMML 050315Z 15006KT 120V180 CAVOK 13/09 Q1020 NOSIG=
201002050300 METAR LMML NIL=
201002050245 METAR LMML 050245Z 17006KT 130V210 CAVOK 13/10 Q1021 NOSIG=
201002050230 METAR LMML NIL=
201002050215 METAR LMML 050215Z 17006KT 120V200 CAVOK 13/09 Q1021 NOSIG=
201002050200 METAR LMML NIL=
201002050145 METAR LMML 050145Z 17006KT 140V200 CAVOK 13/08 Q1021 NOSIG=
201002050130 METAR LMML NIL=
201002050115 METAR LMML 050115Z 17006KT 140V200 CAVOK 13/08 Q1021 NOSIG=
201002050100 METAR LMML NIL=
201002050045 METAR LMML 050045Z 17006KT 140V200 CAVOK 13/08 Q1022 NOSIG=
201002050030 METAR LMML NIL=
201002050015 METAR LMML 050015Z 18008KT CAVOK 13/08 Q1022 NOSIG=
201002050000 METAR LMML NIL=
201002042345 METAR LMML 042345Z 18010KT 160V220 CAVOK 13/08 Q1022 NOSIG=
201002042330 METAR LMML NIL=
201002042315 METAR LMML 042315Z 18008KT 150V220 CAVOK 13/07 Q1022 NOSIG=
201002042300 METAR LMML NIL=
201002042245 METAR LMML 042245Z 18008KT 150V220 CAVOK 13/08 Q1022 NOSIG=
201002042230 METAR LMML NIL=
201002042215 METAR LMML 042215Z 18008KT 140V220 CAVOK 13/07 Q1022 NOSIG=
201002042200 METAR LMML NIL=
201002042145 METAR LMML 042145Z 18008KT 160V220 CAVOK 13/07 Q1023 NOSIG=
201002042115 METAR LMML 042115Z 18007KT 150V220 CAVOK 13/08 Q1023 NOSIG=
201002042100 METAR LMML NIL=
201002042045 METAR LMML 042045Z 18007KT 150V220 CAVOK 13/07 Q1023 NOSIG=
201002042030 METAR LMML NIL=
201002042015 METAR LMML 042015Z 18008KT 150V210 9999 FEW029 13/07 Q1023
                        NOSIG=
201002042000 METAR LMML NIL=
201002041945 METAR LMML 041945Z 18008KT 160V220 9999 FEW029 13/08 Q1023
                        NOSIG=
201002041930 METAR LMML NIL=
201002041915 METAR LMML 041915Z 18007KT 140V210 9999 FEW029 13/08 Q1023
                        NOSIG=
201002041900 METAR LMML NIL=
201002041845 METAR LMML 041845Z 19006KT 160V220 9999 FEW029 13/07 Q1023
                        NOSIG=
201002041830 METAR LMML NIL=
201002041815 METAR LMML 041815Z 19008KT 160V230 9999 FEW028 13/07 Q1023
                        NOSIG=
201002041800 METAR LMML NIL=
201002041745 METAR LMML 041745Z 18008KT 150V210 9999 FEW029 13/07 Q1023
                        NOSIG=
201002041730 METAR LMML NIL=
201002041715 METAR LMML 041715Z 19007KT 160V230 9999 FEW030 13/07 Q1023
                        NOSIG=
201002041700 METAR LMML NIL=
201002041645 METAR LMML 041645Z 18008KT 9999 FEW031 14/07 Q1023 NOSIG=
201002041630 METAR LMML NIL=
201002041615 METAR LMML 041615Z 19008KT 160V230 9999 FEW031 14/07 Q1023
                        NOSIG=
201002041600 METAR LMML NIL=
201002041545 METAR LMML 041545Z 18009KT 150V230 9999 FEW032 14/07 Q1023
                        NOSIG=
201002041530 METAR LMML NIL=
201002041515 METAR LMML 041515Z 19009KT 170V240 9999 FEW031 15/07 Q1023
                        NOSIG=
201002041500 METAR LMML NIL=
201002041445 METAR LMML 041445Z 18009KT 150V220 9999 FEW033 15/07 Q1023
                        NOSIG=
201002041430 METAR LMML NIL=
201002041415 METAR LMML 041415Z 18008KT 150V220 9999 SCT029 15/08 Q1023
                        NOSIG=
201002041400 METAR LMML NIL=
201002041345 METAR LMML 041345Z 18008KT 150V220 9999 FEW030 15/08 Q1023
                        NOSIG=
201002041330 METAR LMML NIL=
201002041315 METAR LMML 041315Z 19007KT 150V230 9999 FEW030 16/08 Q1024
                        NOSIG=
201002041300 METAR LMML NIL=
201002041245 METAR LMML 041245Z 19008KT 140V230 9999 FEW034 15/08 Q1024
                        NOSIG=
201002041230 METAR LMML NIL=
201002041215 METAR LMML 041215Z 21007KT 160V270 9999 FEW035 16/08 Q1024
                        NOSIG=
201002041200 METAR LMML NIL=
201002041145 METAR LMML 041145Z 20007KT 160V250 9999 FEW035 15/07 Q1025
                        NOSIG=
201002041130 METAR LMML NIL=
201002041115 METAR LMML 041115Z 21007KT 160V250 9999 FEW035 15/06 Q1025
                        NOSIG=
201002041100 METAR LMML NIL=
201002041045 METAR LMML 041045Z 20008KT 160V250 9999 FEW037 15/06 Q1025
                        NOSIG=
201002041030 METAR LMML NIL=
201002041015 METAR LMML 041015Z 20007KT 160V250 9999 FEW037 15/07 Q1026
                        NOSIG=
201002041000 METAR LMML NIL=
201002040945 METAR LMML 040945Z 20008KT 150V250 9999 FEW037 15/06 Q1026
                        NOSIG=
201002040930 METAR LMML NIL=
201002040915 METAR LMML 040915Z 20007KT 160V260 9999 SCT036 14/07 Q1026
                        NOSIG=
201002040900 METAR LMML NIL=
201002040845 METAR LMML 040845Z 20005KT 160V250 9999 SCT038 14/07 Q1025
                        NOSIG=
201002040830 METAR LMML NIL=
201002040815 METAR LMML 040815Z 21005KT 160V250 9999 BKN036 13/07 Q1026
                        NOSIG=
201002040800 METAR LMML NIL=
201002040745 METAR LMML 040745Z 21004KT 160V250 9999 SCT039 14/06 Q1025
                        NOSIG=
201002040730 METAR LMML NIL=
201002040715 METAR LMML 040715Z 22004KT 160V250 9999 SCT036 12/06 Q1025
                        NOSIG=
201002040700 METAR LMML NIL=
201002040645 METAR LMML 040645Z 22004KT 190V260 9999 SCT036 12/06 Q1025
                        NOSIG=
201002040630 METAR LMML NIL=
201002040615 METAR LMML 040615Z 22004KT 200V260 9999 SCT033 11/06 Q1025
                        NOSIG=
201002040600 METAR LMML NIL=
201002040545 METAR LMML 040545Z VRB03KT 9999 FEW033 11/06 Q1025 NOSIG=
201002040530 METAR LMML NIL=
201002040515 METAR LMML 040515Z 23005KT 200V270 9999 FEW034 11/06 Q1025
                        NOSIG=
201002040500 METAR LMML NIL=
201002040445 METAR LMML 040445Z 23005KT 200V270 9999 FEW034 11/06 Q1025
                        NOSIG=
201002040430 METAR LMML NIL=
201002040415 METAR LMML 040415Z 25005KT 220V280 9999 SCT037 11/05 Q1025
                        NOSIG=
201002040400 METAR LMML NIL=
201002040345 METAR LMML 040345Z 24004KT 9999 SCT035 11/05 Q1025 NOSIG=
201002040330 METAR LMML NIL=
201002040315 METAR LMML 040315Z 23005KT 200V260 9999 SCT035 10/05 Q1025
                        NOSIG=
201002040245 METAR LMML 040245Z 23005KT 200V270 9999 FEW036 10/05 Q1024
                        NOSIG=
201002040230 METAR LMML NIL=
201002040215 METAR LMML 040215Z 23004KT 9999 FEW036 10/05 Q1025 NOSIG=
201002040200 METAR LMML NIL=
201002040145 METAR LMML 040145Z VRB03KT 9999 FEW036 10/05 Q1025 NOSIG=
201002040130 METAR LMML NIL=
201002040115 METAR LMML 040115Z 23005KT 200V270 9999 FEW036 11/05 Q1025
                        NOSIG=
201002040100 METAR LMML NIL=
201002040045 METAR LMML 040045Z 23005KT 190V280 9999 FEW037 11/05 Q1025
                        NOSIG=
201002040030 METAR LMML NIL=
201002040015 METAR LMML 040015Z 23005KT 200V270 9999 FEW037 10/05 Q1025
                        NOSIG=
201002040000 METAR LMML NIL=
201002032345 METAR LMML 032345Z 23005KT 200V270 9999 FEW037 11/05 Q1025
                        NOSIG=
201002032330 METAR LMML NIL=
201002032315 METAR LMML 032315Z 24004KT 200V270 9999 SCT038 11/05 Q1026
                        NOSIG=
201002032300 METAR LMML NIL=
201002032245 METAR LMML 032245Z 24006KT 220V280 9999 SCT039 11/04 Q1026
                        NOSIG=
201002032230 METAR LMML NIL=
201002032215 METAR LMML 032215Z 24005KT 220V290 9999 SCT037 10/05 Q1026
                        NOSIG=
201002032200 METAR LMML NIL=
201002032145 METAR LMML 032145Z 24004KT 210V280 9999 SCT037 10/04 Q1026
                        NOSIG=
201002032115 METAR LMML 032115Z 24004KT 220V280 9999 FEW039 10/04 Q1026
                        NOSIG=
201002032100 METAR LMML NIL=
201002032045 METAR LMML 032045Z 24004KT 220V280 9999 FEW038 10/04 Q1026
                        NOSIG=
201002032030 METAR LMML NIL=
201002032015 METAR LMML 032015Z 24004KT 210V270 9999 FEW043 10/04 Q1026
                        NOSIG=
201002032000 METAR LMML NIL=
201002031945 METAR LMML 031945Z 25004KT 9999 FEW043 10/05 Q1026 NOSIG=
201002031930 METAR LMML NIL=
201002031915 METAR LMML 031915Z 26005KT 9999 FEW036 10/05 Q1026 NOSIG=
201002031845 METAR LMML 031845Z 26005KT 220V290 9999 FEW037 SCT046 11/05
                        Q1026 NOSIG=
201002031815 METAR LMML 031815Z VRB03KT 9999 FEW035 BKN045 11/05 Q1026
                        NOSIG=
201002031800 METAR LMML NIL=
201002031745 METAR LMML 031745Z VRB03KT 9999 BKN038 10/04 Q1026 NOSIG=
201002031730 METAR LMML NIL=
201002031715 METAR LMML 031715Z 26004KT 230V290 9999 FEW035 10/04 Q1026
                        NOSIG=
201002031700 METAR LMML NIL=
201002031645 METAR LMML 031645Z 27005KT 230V300 9999 FEW035 11/04 Q1025
                        NOSIG=
201002031630 METAR LMML NIL=
201002031615 METAR LMML 031615Z 28006KT 240V310 9999 SCT035 12/04 Q1025
                        NOSIG=
201002031600 METAR LMML NIL=
201002031545 METAR LMML 031545Z 29006KT 9999 SCT035 12/05 Q1025 NOSIG=
201002031530 METAR LMML NIL=
201002031515 METAR LMML 031515Z 27006KT 240V300 9999 SCT035 12/05 Q1025
                        NOSIG=
201002031500 METAR LMML NIL=
201002031445 METAR LMML 031445Z 24005KT 190V280 9999 FEW038 12/05 Q1025
                        NOSIG=
201002031430 METAR LMML NIL=
201002031415 METAR LMML 031415Z 29005KT 220V340 9999 FEW037 12/05 Q1025
                        NOSIG=
201002031400 METAR LMML NIL=
201002031345 METAR LMML 031345Z 31007KT 9999 FEW038 12/05 Q1025 NOSIG=
201002031330 METAR LMML NIL=
201002031315 METAR LMML 031315Z 32007KT 9999 FEW039 12/04 Q1025 NOSIG=
201002031300 METAR LMML NIL=
201002031245 METAR LMML 031245Z 29006KT 210V330 9999 FEW042 SCT050 13/05
                        Q1025 NOSIG=
201002031230 METAR LMML NIL=
201002031215 METAR LMML 031215Z 29009KT 250V330 9999 FEW025 BKN045 12/03
                        Q1025 NOSIG=
201002031145 METAR LMML 031145Z 28009KT 240V310 9999 FEW025 BKN050 12/03
                        Q1026 NOSIG=
201002031130 METAR LMML NIL=
201002031115 METAR LMML 031115Z 30009KT 9999 FEW025 SCT050 13/04 Q1026
                        NOSIG=
201002031100 METAR LMML NIL=
201002031030 METAR LMML NIL=
201002031015 METAR LMML 031015Z VRB03KT 9999 FEW025 13/04 Q1026 NOSIG=
201002031000 METAR LMML NIL=
201002030945 METAR LMML 030945Z VRB02KT 9999 FEW025 SCT050 12/03 Q1026
                        NOSIG=
201002030930 METAR LMML NIL=
201002030915 METAR LMML 030915Z VRB03KT 9999 FEW025 BKN050 11/03 Q1026
                        NOSIG=
201002030900 METAR LMML NIL=
201002030845 METAR LMML 030845Z VRB03KT 9999 FEW025 SCT060 11/03 Q1026
                        NOSIG=
201002030830 METAR LMML NIL=
201002030815 METAR LMML 030815Z VRB02KT 9999 FEW025 SCT060 11/03 Q1026
                        NOSIG=
201002030800 METAR LMML NIL=
201002030745 METAR LMML 030745Z VRB03KT 9999 FEW025 SCT050 09/03 Q1026
                        NOSIG=
201002030730 METAR LMML NIL=
201002030715 METAR LMML 030715Z 31004KT CAVOK 07/02 Q1026 NOSIG=
201002030700 METAR LMML NIL=
201002030645 METAR LMML 030645Z 31005KT CAVOK 08/01 Q1026 NOSIG=
201002030630 METAR LMML NIL=
201002030615 METAR LMML 030615Z 29005KT 9999 BKN048 08/01 Q1026 NOSIG=
201002030600 METAR LMML NIL=
201002030545 METAR LMML 030545Z 29006KT 9999 SCT046 07/01 Q1026 NOSIG=
201002030530 METAR LMML NIL=
201002030515 METAR LMML 030515Z 27005KT 9999 FEW045 06/01 Q1025 NOSIG=
201002030500 METAR LMML NIL=
201002030445 METAR LMML 030445Z VRB03KT 9999 FEW045 06/01 Q1025 NOSIG=
201002030430 METAR LMML NIL=
201002030415 METAR LMML 030415Z VRB03KT 9999 FEW045 06/00 Q1025 NOSIG=
201002030400 METAR LMML NIL=
201002030345 METAR LMML 030345Z 28005KT 9999 FEW045 06/01 Q1025 NOSIG=
201002030330 METAR LMML NIL=
201002030315 METAR LMML 030315Z 29006KT CAVOK 07/01 Q1025 NOSIG=
201002030300 METAR LMML NIL=
201002030245 METAR LMML 030245Z 30006KT 9999 FEW045 07/01 Q1025 NOSIG=
201002030230 METAR LMML NIL=
201002030215 METAR LMML 030215Z 30007KT 9999 FEW045 07/01 Q1025 NOSIG=
201002030200 METAR LMML NIL=
201002030145 METAR LMML 030145Z 29005KT 9999 FEW045 07/01 Q1025 NOSIG=
201002030130 METAR LMML NIL=
201002030115 METAR LMML 030115Z 29004KT 9999 FEW045 07/01 Q1025 NOSIG=
201002030100 METAR LMML NIL=
201002030045 METAR LMML 030045Z 32005KT 9999 SCT045 07/01 Q1024 NOSIG=
201002030015 METAR LMML 030015Z 33006KT 310V010 9999 SCT045 08/02 Q1024
                        NOSIG=
201002030000 METAR LMML NIL=
201002022345 METAR LMML 022345Z 34005KT 9999 SCT044 09/02 Q1024 NOSIG=
201002022315 METAR LMML 022315Z 33006KT 300V360 9999 FEW044 08/01 Q1024
                        NOSIG=
201002022245 METAR LMML 022245Z 33006KT 9999 FEW039 SCT050 09/02 Q1024
                        NOSIG=
201002022230 METAR LMML NIL=
201002022215 METAR LMML 022215Z 34008KT 320V020 9999 FEW039 SCT050 10/02
                        Q1024 NOSIG=
201002022145 METAR LMML 022145Z 35007KT 310V020 9999 FEW037 SCT050 09/03
                        Q1024 NOSIG=
201002022130 METAR LMML NIL=
201002022115 METAR LMML 022115Z 32004KT 290V350 9999 FEW036 SCT050 09/02
                        Q1024 NOSIG=
201002022045 METAR LMML 022045Z 30008KT 280V020 9999 SCT037 09/01 Q1024
                        NOSIG=
201002022015 METAR LMML 022015Z 29008KT CAVOK 09/01 Q1024 NOSIG=
201002021945 METAR LMML 021945Z 30010KT CAVOK 10/02 Q1023 NOSIG=
201002021930 METAR LMML NIL=
201002021915 METAR LMML 021915Z 30009KT 260V320 CAVOK 10/02 Q1023 NOSIG=
201002021900 METAR LMML NIL=
201002021845 METAR LMML 021845Z 30008KT CAVOK 10/02 Q1023 NOSIG=
201002021830 METAR LMML NIL=
201002021815 METAR LMML 021815Z 30007KT CAVOK 09/01 Q1023 NOSIG=
201002021800 METAR LMML NIL=
201002021745 METAR LMML 021745Z 30010KT CAVOK 09/01 Q1022 NOSIG=
201002021730 METAR LMML NIL=
201002021715 METAR LMML 021715Z 31010KT CAVOK 09/03 Q1022 NOSIG=
201002021700 METAR LMML NIL=
201002021645 METAR LMML 021645Z 31011KT CAVOK 10/02 Q1022 NOSIG=
201002021630 METAR LMML NIL=
201002021615 METAR LMML 021615Z 31013KT CAVOK 10/01 Q1022 NOSIG=
201002021600 METAR LMML NIL=
201002021545 METAR LMML 021545Z 30015KT 9999 SCT048 11/02 Q1021 NOSIG=
201002021530 METAR LMML NIL=
201002021515 METAR LMML 021515Z 32014G25KT 290V350 CAVOK 11/00 Q1021 NOSIG=
201002021500 METAR LMML NIL=
201002021445 METAR LMML 021445Z 32014KT 280V340 CAVOK 12/01 Q1021 NOSIG=
201002021430 METAR LMML NIL=
201002021415 METAR LMML 021415Z 31018KT 9999 FEW045 12/01 Q1021 NOSIG=
201002021345 METAR LMML 021345Z 31016KT 280V340 9999 FEW044 12/02 Q1021
                        NOSIG=
201002021330 METAR LMML NIL=
201002021315 METAR LMML 021315Z 32015KT 9999 FEW046 12/03 Q1021 NOSIG=
201002021300 METAR LMML NIL=
201002021245 METAR LMML 021245Z 31017KT 280V340 9999 FEW049 11/02 Q1020
                        NOSIG=
201002021230 METAR LMML NIL=
201002021215 METAR LMML 021215Z 31016KT 260V350 9999 FEW049 SCT070 12/02
                        Q1020 NOSIG=
201002021200 METAR LMML NIL=
201002021145 METAR LMML 021145Z 32018KT 290V350 CAVOK 13/02 Q1021 NOSIG=
201002021130 METAR LMML NIL=
201002021115 METAR LMML 021115Z 30019KT 270V330 9999 FEW047 SCT069 12/01
                        Q1021 NOSIG=
201002021100 METAR LMML NIL=
201002021045 METAR LMML 021045Z 31015KT 260V340 9999 FEW046 SCT070 13/02
                        Q1021 NOSIG=
201002021030 METAR LMML NIL=
201002021015 METAR LMML 021015Z 31015KT 280V340 9999 FEW041 12/02 Q1021
                        NOSIG=
201002021000 METAR LMML NIL=
201002020945 METAR LMML 020945Z 30018KT 9999 FEW041 SCT070 12/02 Q1021
                        NOSIG=
201002020930 METAR LMML NIL=
201002020915 METAR LMML 020915Z 30007KT 270V340 9999 FEW041 11/04 Q1021
                        TEMPO 31018KT SHRA=
201002020900 METAR LMML NIL=
201002020845 METAR LMML 020845Z 31006KT 9999 FEW020 SCT070 09/05 Q1020
                        RERA TEMPO 31018KT SHRA=
201002020830 METAR LMML NIL=
201002020815 METAR LMML 020815Z 32010KT 270V340 9999 -RA SCT036 BKN050
                        09/04 Q1021 TEMPO 31018KT SHRA=
201002020800 METAR LMML NIL=
201002020745 METAR LMML 020745Z 30009KT 9999 -RA FEW030 SCT070 09/02 Q1020
                        TEMPO 31018KT SHRA=
201002020730 METAR LMML NIL=
201002020715 METAR LMML 020715Z 31006KT 280V340 9999 FEW030 SCT070 09/02
                        Q1020 TEMPO 31018KT SHRA=
201002020700 METAR LMML NIL=
201002020645 METAR LMML 020645Z 29005KT 9999 FEW030 08/01 Q1019 TEMPO
                        31018KT SHRA=
201002020630 METAR LMML NIL=
201002020615 METAR LMML 020615Z 31008KT 290V350 9999 FEW030 08/01 Q1019
                        NOSIG=
201002020600 METAR LMML NIL=
201002020545 METAR LMML 020545Z 32010KT 290V350 9999 FEW030 SCT060 08/01
                        Q1019 NOSIG=
201002020530 METAR LMML NIL=
201002020515 METAR LMML 020515Z 32010KT 9999 FEW030 SCT080 08/01 Q1018
                        NOSIG=
201002020500 METAR LMML NIL=
201002020445 METAR LMML 020445Z 32010KT 9999 FEW030 SCT080 08/00 Q1018
                        NOSIG=
201002020430 METAR LMML NIL=
201002020415 METAR LMML 020415Z 32009KT 9999 FEW030 08/M01 Q1018 NOSIG=
201002020400 METAR LMML NIL=
201002020345 METAR LMML 020345Z 32012KT 290V350 9999 FEW030 SCT060 08/M01
                        Q1018 NOSIG=
201002020330 METAR LMML NIL=
201002020315 METAR LMML 020315Z 32014KT 9999 FEW030 BKN050 09/00 Q1018
                        NOSIG=
201002020300 METAR LMML NIL=
201002020245 METAR LMML 020245Z 32014KT 9999 FEW030 BKN050 09/M00 Q1018
                        NOSIG=
201002020230 METAR LMML NIL=
201002020215 METAR LMML 020215Z 32012KT 9999 FEW040 09/01 Q1018 NOSIG=
201002020200 METAR LMML NIL=
201002020145 METAR LMML 020145Z 32013KT 280V350 9999 FEW040 08/01 Q1018
                        NOSIG=
201002020130 METAR LMML NIL=
201002020115 METAR LMML 020115Z 31014KT 9999 SCT040 08/00 Q1018 NOSIG=
201002020100 METAR LMML NIL=
201002020045 METAR LMML 020045Z 31014KT 280V340 9999 SCT040 08/00 Q1017
                        NOSIG=
201002020030 METAR LMML NIL=
201002020015 METAR LMML 020015Z 32013KT 280V340 9999 SCT035 09/02 Q1017
                        NOSIG=
201002020000 METAR LMML NIL=
201002012345 METAR LMML 012345Z 32013KT 290V350 9999 SCT032 08/03 Q1016
                        NOSIG=
201002012330 METAR LMML NIL=
201002012315 METAR LMML 012315Z 32015KT 9999 SCT033 08/03 Q1016 NOSIG=
201002012300 METAR LMML NIL=
201002012245 METAR LMML 012245Z 33020KT 9999 FEW030 09/02 Q1016 NOSIG=
201002012230 METAR LMML NIL=
201002012215 METAR LMML 012215Z 32018KT 9999 SCT027 09/03 Q1015 NOSIG=
201002012200 METAR LMML NIL=
201002012145 METAR LMML 012145Z 32015KT 9999 SCT026 09/04 Q1015 TEMPO
                        8000 SHRA BKN015=
201002012130 METAR LMML NIL=
201002012115 METAR LMML 012115Z 34019KT 310V010 9999 SCT024 09/04 Q1015
                        TEMPO 8000 SHRA BKN015=
201002012100 METAR LMML NIL=
201002012045 METAR LMML 012045Z 33021KT 9999 SCT022 BKN033 09/05 Q1014
                        TEMPO 8000 SHRA BKN015=
201002012030 METAR LMML NIL=
201002012015 METAR LMML 012015Z 33021KT 9999 SCT018 BKN026 09/06 Q1013
                        TEMPO 8000 SHRA BKN015=
201002012000 METAR LMML NIL=
201002011945 METAR LMML 011945Z 32026G36KT 9999 FEW015 BKN046 09/07 Q1012
                        TEMPO 8000 SHRA BKN015=
201002011930 METAR LMML NIL=
201002011915 METAR LMML 011915Z 28023G36KT 250V310 9999 SCT029 10/07 Q1010
                        TEMPO 8000 SHRA BKN015=
201002011900 METAR LMML NIL=
201002011845 METAR LMML 011845Z 28020KT 250V310 9999 SCT020 SCT120 11/07
                        Q1010 RETS TEMPO 8000 SHRA BKN015=
201002011830 METAR LMML NIL=
201002011815 METAR LMML 011815Z 28011KT 240V300 7000 TSRA BKN016CB 10/06
                        Q1011 NOSIG=
201002011800 METAR LMML NIL=
201002011745 METAR LMML 011745Z 24013G36KT 200V290 5000 TSRA SCT024CB
                        SCT090 12/07 Q1011 NOSIG=
201002011740 SPECI LMML 011740Z 24011G31KT 200V280 4000 TSGR SCT024CB
                        13/08 Q1011 TEMPO 5000 TSRA BKN015CB=
201002011735 SPECI LMML 011735Z 23010KT 200V270 9999 TSRA SCT028CB 13/08
                        Q1010 TEMPO 5000 TSRA BKN015CB=
201002011730 METAR LMML NIL=
201002011715 METAR LMML 011715Z 23008KT 200V270 9999 SCT026 12/08 Q1010
                        TEMPO 5000 TSRA BKN015CB=
201002011700 METAR LMML NIL=
201002011645 METAR LMML 011645Z 24007KT 200V290 9999 FEW026 SCT090 12/07
                        Q1010 TEMPO 7000 SHRA SCT020TCU=
201002011630 METAR LMML NIL=
201002011615 METAR LMML 011615Z 26007KT 220V290 9999 FEW030 SCT090 13/07
                        Q1010 NOSIG=
201002011600 METAR LMML NIL=
201002011545 METAR LMML 011545Z 23006KT 200V280 9999 FEW030 SCT080 13/07
                        Q1009 NOSIG=
201002011530 METAR LMML NIL=
201002011515 METAR LMML 011515Z 23005KT 190V290 9999 FEW030 SCT090 14/07
                        Q1009 NOSIG=
201002011445 METAR LMML 011445Z 24005KT 210V280 9999 FEW030 15/07 Q1009
                        NOSIG=
201002011430 METAR LMML NIL=
201002011415 METAR LMML 011415Z 29006KT 240V340 9999 FEW030 15/07 Q1009
                        NOSIG=
201002011400 METAR LMML NIL=
201002011345 METAR LMML 011345Z 30005KT 250V350 9999 FEW030 15/07 Q1009
                        NOSIG=
201002011330 METAR LMML NIL=
201002011315 METAR LMML 011315Z 31005KT 280V360 9999 FEW030 15/07 Q1009
                        NOSIG=
201002011245 METAR LMML 011245Z 33006KT 290V010 9999 FEW037 15/07 Q1009
                        NOSIG=
201002011230 METAR LMML NIL=
201002011215 METAR LMML 011215Z 34006KT 300V020 9999 FEW035 16/07 Q1010
                        NOSIG=
201002011145 METAR LMML 011145Z VRB03KT 9999 FEW035 16/07 Q1010 NOSIG=
201002011115 METAR LMML 011115Z VRB02KT 9999 FEW030 16/08 Q1010 NOSIG=
201002011100 METAR LMML NIL=
201002011045 METAR LMML 011045Z VRB01KT 9999 FEW030 16/06 Q1011 NOSIG=
201002011030 METAR LMML NIL=
201002011015 METAR LMML 011015Z 31005KT 280V350 9999 FEW025 14/07 Q1011
                        NOSIG=
201002011000 METAR LMML NIL=
201002010945 METAR LMML 010945Z 33006KT 300V360 9999 FEW025 14/06 Q1011
                        NOSIG=
201002010930 METAR LMML NIL=
201002010915 METAR LMML 010915Z 34005KT 310V010 9999 FEW025 SCT100 14/07
                        Q1011 NOSIG=
201002010900 METAR LMML NIL=
201002010845 METAR LMML 010845Z 34006KT 310V010 9999 FEW020 SCT100 13/08
                        Q1012 NOSIG=
201002010815 METAR LMML 010815Z 33006KT 9999 FEW020 SCT100 13/08 Q1012
                        NOSIG=
201002010745 METAR LMML 010745Z 34007KT 9999 FEW020 SCT100 12/09 Q1011
                        NOSIG=
201002010730 METAR LMML NIL=
201002010715 METAR LMML 010715Z 34008KT 9999 FEW020 11/08 Q1011 NOSIG=
201002010700 METAR LMML NIL=
201002010645 METAR LMML 010645Z 34010KT 9999 FEW019 11/09 Q1011 NOSIG=
201002010630 METAR LMML NIL=
201002010615 METAR LMML 010615Z 32007KT 9999 FEW022 10/08 Q1010 NOSIG=
201002010600 METAR LMML NIL=
201002010545 METAR LMML 010545Z 32008KT 9999 FEW020 10/08 Q1010 NOSIG=
201002010530 METAR LMML NIL=
201002010515 METAR LMML 010515Z 32007KT 290V360 9999 FEW018 11/09 Q1010
                        NOSIG=
201002010500 METAR LMML NIL=
201002010445 METAR LMML 010445Z 27006KT 230V320 9999 FEW019 12/09 Q1009
                        NOSIG=
201002010430 METAR LMML NIL=
201002010415 METAR LMML 010415Z 26006KT 230V300 9999 FEW025 12/09 Q1009
                        NOSIG=
201002010400 METAR LMML NIL=
201002010345 METAR LMML 010345Z 25008KT 210V280 9999 FEW020 13/09 Q1009
                        NOSIG=
201002010330 METAR LMML NIL=
201002010315 METAR LMML 010315Z 24009KT 210V270 CAVOK 13/09 Q1008 NOSIG=
201002010300 METAR LMML NIL=
201002010245 METAR LMML 010245Z 23010KT 180V270 CAVOK 13/09 Q1009 NOSIG=
201002010230 METAR LMML NIL=
201002010215 METAR LMML 010215Z 23008KT 190V270 CAVOK 13/09 Q1009 NOSIG=
201002010200 METAR LMML NIL=
201002010145 METAR LMML 010145Z 22006KT CAVOK 13/09 Q1009 NOSIG=
201002010130 METAR LMML NIL=
201002010115 METAR LMML 010115Z 24006KT 210V270 CAVOK 13/09 Q1009 NOSIG=
201002010100 METAR LMML NIL=
201002010045 METAR LMML 010045Z 24009KT 200V280 CAVOK 13/09 Q1009 NOSIG=
201002010030 METAR LMML NIL=
201002010015 METAR LMML 010015Z 23009KT 200V280 CAVOK 14/09 Q1010 NOSIG=
201002010000 METAR LMML NIL=

###################################
#  short TAF from LMML
###################################
201003032300 TAF LMML 032300Z 0400/0409 28015KT 9000 NSC
                      PROB30 TEMPO 0400/0406 5000 SCT005
                      BECMG 0406/0409 9999 SCT015=
201003032000 TAF LMML 032000Z 0321/0406 16015KT 9000 NSC
                      BECMG 0403/0406 30015KT
                      PROB30 TEMPO 0400/0406 5000 BKN005=
201003031700 TAF LMML 031700Z 0318/0403 14015KT 9999 FEW008 BKN180
                      TEMPO 0318/0403 6000 BKN005
                      BECMG 0400/0403 30015KT=
201003031400 TAF LMML 031400Z 0315/0324 15020G30KT 9999 FEW006 BKN180
                      TEMPO 0315/0324 6000 BKN006
                      BECMG 0318/0321 16015KT=
201003031100 TAF LMML 031100Z 0312/0321 12017KT 9999 FEW012 BKN150
                      PROB30 O318/0321 8000 BKN010=
201003030800 TAF LMML 030800Z 0309/0318 12015KT 9999 FEW008 BKN200
                      TEMPO 0312/0318 12015G25KT=
201003030500 TAF LMML 030500Z 0306/0315 12014KT 9999 FEW012
                      PROB30 TEMPO 0306/0310 BKN009
                      BECMG 0311/0314 14018G28KT=
201003030200 TAF LMML 030200Z 0303/0312 09005KT CAVOK
                      TEMPO 0303/0312 9999 FEW012
                      PROB30 TEMPO 0303/0309 BKN008
                      BECMG 0304/0307 12014KT=
201003022300 TAF LMML 022300Z 0300/0309 VRB03KT CAVOK
                      TEMPO 0300/0309 9999 FEW012
                      PROB30 TEMPO 0300/0303 9000 MIFG BKN005
                      BECMG 0303/0306 09012KT
                      PROB30 TEMPO 0303/0309 BKN008=
201003022000 TAF LMML 022000Z 0221/0306 VRB04KT CAVOK
                      PROB40 TEMPO 0221/0306 9000 SCT005
                      PROB30 TEMPO 0222/0303 9000 MIFG BKN005
                      BECMG 0302/0305 09010KT=
201003021700 TAF LMML 021700Z 0218/0303 28008KT 9999 FEW015
                      BECMG 0220/0223 VRB03KT
                      PROB30 TEMPO 0221/0303 SCT005=
201003021400 TAF LMML 021400Z 0215/0224 28010KT 9999 FEW020
                      TEMPO 0218/0224 CAVOK=
201003021100 TAF LMML 021100Z 0212/0221 30008KT 9999 FEW020
                      TEMPO 0212/0221 29018KT CAVOK=
201003020800 TAF LMML 020800Z 0209/0218 30008KT 9999 FEW018
                      TEMPO 0209/0215 29018KT=
201003020500 TAF LMML 020500Z 0206/0215 30015KT CAVOK
                      TEMPO 0206/0215 9999 FEW025
                      PROB30 TEMPO 0206/0210 28015G25KT=
201003020200 TAF LMML 020200Z 0203/0212 30015KT CAVOK
                      TEMPO 0203/0212 9999 FEW020
                      PROB30 TEMPO 0203/0206 28015G25KT 9000 SCT010=
201003012300 TAF LMML 012300Z 0200/0209 31018KT CAVOK
                      TEMPO 0200/0209 9999 FEW015
                      PROB30 TEMPO 0200/0206 28018G28KT 9000 SCT010=
201003012000 TAF LMML 012000Z 0121/0206 32025G35KT CAVOK
                      BECMG 0121/0124 31020KT
                      TEMPO 0200/0206 9999 FEW015
                      PROB30 TEMPO 0200/0206 30015G25KT 9000 SCT012=
201003011700 TAF LMML 011700Z 0118/0203 31023G33KT CAVOK
                      PROB40 TEMPO 0121/0203 7000 BKN003
                      BECMG 0123/0202 32018KT=
201003011400 TAF LMML 011400Z 0115/0124 31018KT CAVOK
                      BECMG 0116/0119 30018G28KT
                      PROB30 TEMPO 0121/0124 8000 BKN005=
201003011100 TAF LMML 011100Z 0112/0121 31013KT CAVOK
                      BECMG 0116/0119 30018G28KT=
201003010800 TAF LMML 010800Z 0109/0118 VRB05KT CAVOK
                      BECMG 0110/0113 30018KT
                      BECMG 0115/0118 30020G30KT=
201003010500 TAF LMML 010500Z 0106/0115 20010KT CAVOK
                      BECMG 0109/0112 30015G25KT=
201003010200 TAF LMML 010200Z 0103/0112 21010KT CAVOK
                      PROB30 TEMPO 0103/0106 8000 FEW004
                      BECMG 0108/0111 28015KT=
201002282300 TAF LMML 282300Z 0100/0109 19010KT CAVOK
                      TEMPO 0100/0106 8000 SCT004
                      BECMG 0106/0109 26012KT=
201002282000 TAF LMML 282000Z 2821/0106 16008KT CAVOK
                      TEMPO 2821/0106 8000 SCT004
                      BECMG 0103/0106 23012KT=
201002281700 TAF LMML 281700Z 2818/0103 18007KT CAVOK
                      TEMPO 2818/0103 9000 SCT010
                      PROB30 TEMPO 2821/0103 5000 BR BKN005=
201002281400 TAF LMML 281400Z 2815/2824 15012KT CAVOK
                      TEMPO 2815/2824 9999 FEW015
                      PROB30 TEMPO 2816/2824 9000 SCT010=
201002281100 TAF LMML 281100Z 2812/2821 15015KT CAVOK
                      TEMPO 2812/2821 9999 FEW012
                      PROB30 TEMPO 2817/2820 18005KT 9000 SCT010=
201002280800 TAF LMML 280800Z 2809/2818 12013KT CAVOK
                      BECMG 2812/2815 18014KT=
201002280500 TAF LMML 280500Z 2806/2815 14013KT CAVOK=
201002280200 TAF LMML 280200Z 2803/2812 14005KT CAVOK
                      TEMPO 2809/2812 15015KT=
201002272300 TAF LMML 272300Z 2800/2809 VRB03KT CAVOK
                      PROB40 TEMPO 2807/2809 15013KT=
201002272000 TAF LMML 272000Z 2721/2806 VRB03KT CAVOK
                      TEMPO 2804/2806 14010KT=
201002271700 TAF LMML 271700Z 2718/2803 27004KT CAVOK=
201002271400 TAF LMML 271400Z 2715/2724 28010KT CAVOK=
201002271100 TAF LMML 271100Z 2712/2721 30012KT CAVOK=
201002270800 TAF LMML 270800Z 2709/2718 30010KT CAVOK
                      TEMPO 2709/2718 9999 FEW015=
201002270500 TAF LMML 270500Z 2706/2715 30012KT CAVOK=
201002270200 TAF LMML 270200Z 2703/2712 29012KT CAVOK
                      TEMPO 2703/2712 9999 FEW012
                      PROB30 TEMPO 2703/2707 9000 BKN005=
201002262300 TAF LMML 262300Z 2700/2709 29010KT CAVOK
                      PROB30 TEMPO 2703/2707 9000 BKN005=
201002262000 TAF LMML 262000Z 2621/2706 29010KT CAVOK
                      PROB30 TEMPO 2703/2706 9000 NSC=
201002261700 TAF LMML 261700Z 2618/2703 28008KT CAVOK
                      TEMPO 2621/2703 28013KT=
201002261400 TAF LMML 261400Z 2615/2624 30015KT CAVOK=
201002261100 TAF LMML 261100Z 2612/2621 24010KT CAVOK
                      TEMPO 2612/2618 30015KT=
201002260800 TAF LMML 260800Z 2609/2618 24008KT CAVOK
                      TEMPO 2612/2618 30015KT 9999 FEW018=
201002260500 TAF LMML 260500Z 2606/2615 16005KT CAVOK
                      PROB30 TEMPO 2606/2607 9000 MIFG FEW012
                      BECMG 2606/2609 22010KT
                      TEMPO 2609/2615 9999 FEW020
                      BECMG 2611/2614 28013KT=
201002260200 TAF LMML 260200Z 2603/2612 20008KT CAVOK
                      TEMPO 2603/2612 9999 FEW020
                      PROB30 TEMPO 2603/2606 5000 BR NSC
                      BECMG 2608/2611 26010KT=
201002252300 TAF LMML 252300Z 2600/2609 25005KT CAVOK
                      TEMPO 2600/2609 9999 FEW015
                      PROB30 TEMPO 2600/2606 5000 BR NSC
                      BECMG 2604/2607 19010KT=
201002252000 TAF LMML 252000Z 2521/2606 24007KT CAVOK
                      TEMPO 2521/2606 9999 FEW015
                      PROB30 TEMPO 2600/2606 5000 BR NSC=
201002251700 TAF LMML 251700Z 2518/2603 27010KT CAVOK
                      TEMPO 2518/2603 8000 BKN004
                      BECMG 2519/2522 VRB05KT
                      PROB30 TEMPO 2520/2603 0100 FG BKN001=
201002251400 TAF LMML 251400Z 2515/2524 29010KT 9999 FEW015
                      PROB40 TEMPO 2517/2524 8000 BKN004
                      PROB30 TEMPO 2520/2524 0200 FG BKN001
                      BECMG 2521/2524 VRB05KT=
201002251100 TAF LMML 251100Z 2512/2521 29017KT 9999 FEW020
                      TEMPO 2512/2521 CAVOK
                      BECMG 2516/2519 28007KT
                      PROB30 TEMPO 2518/2521 3000 BR BKN003=
201002250800 TAF LMML 250800Z 2509/2518 29017KT 9999 FEW020
                      TEMPO 2509/2518 CAVOK
                      BECMG 2515/2518 28007KT=
201002250500 TAF LMML 250500Z 2506/2515 30020G30KT 9999 SCT020
                      BECMG 2506/2509 30017KT=
201002250200 TAF LMML 250200Z 2503/2512 28020G30KT 9999 SCT020
                      BECMG 2504/2507 29018KT=
201002242300 TAF LMML 242300Z 2500/2509 28023G35KT 9999 SCT020
                      BECMG 2506/2509 29015G25KT=
201002242000 TAF LMML 242000Z 2421/2506 28020G30KT 9999 FEW025=
201002241700 TAF LMML 241700Z 2418/2503 28020KT CAVOK
                      TEMPO 2418/2503 28025G35KT
                      PROB30 TEMPO 2418/2503 9999 FEW025=
201002241400 TAF LMML 241400Z 2415/2424 28020KT 9999 SCT025
                      TEMPO 2415/2424 28025G35KT
                      PROB30 TEMPO 2415/2421 8000 SHRA BKN015=
201002241100 TAF LMML 241100Z 2412/2421 29020KT CAVOK
                      TEMPO 2412/2421 29025G35KT
                      BECMG 2412/2415 9999 SCT025=
201002240800 TAF LMML 240800Z 2409/2418 28017KT CAVOK
                      BECMG 2409/2412 9999 FEW025
                      PROB30 TEMPO 2412/2418 28020G30KT=
201002240500 TAF LMML 240500Z 2406/2415 30015KT 9999 FEW025
                      TEMPO 24/2415 30025KT=
201002240200 TAF LMML 240200Z 2403/2412 30008KT CAVOK
                      PROB30 TEMPO 2406/2412 30018KT
                      PROB30 TEMPO 2403/2406 SCT008=
201002232300 TAF LMML 232300Z 2400/2409 28005KT CAVOK
                      PROB30 TEMPO 2400/2406 27015KT 5000 BR SCT008=
201002232000 TAF LMML 232000Z 2321/2406 30006KT CAVOK
                      PROB40 TEMPO 2400/2406 5000 BR SCT003=
201002231700 TAF LMML 231700Z 2318/2403 27005KT CAVOK
                      TEMPO 2318/2403 9999 SCT004 BKN120=
201002231400 TAF LMML 231400Z 2315/2324 29010KT CAVOK
                      BECMG 2316/2319 9999 SCT004 BKN100=
201002231100 TAF LMML 231100Z 2312/2321 30010KT CAVOK
                      PROB30 TEMPO 2318/2321 9999 FEW005=
201002230800 TAF LMML 230800Z 2309/2318 28008KT 9999 FEW003
                      TEMPO 2309/2318 CAVOK=
201002230500 TAF LMML 230500Z 2306/2312 18005KT 0100 FG BKN001
                      BECMG 2306/2309 27010KT CAVOK=
201002230200 TAF LMML 230200Z 2303/2312 VRB03KT 0100 FG BKN001
                      TEMPO 2303/2308 5000 BR BKN005
                      BECMG 2306/2309 26011KT CAVOK=
201002222301 TAF COR LMML 222301Z 2300/2309 VRB04KT CAVOK
                      TEMPO 2300/2306 0100 FG BKN001
                      BECMG 2306/2309 25010KT=
201002222300 TAF LMML 222300Z 2300/2309 VRB04KT CAVOK
                      TEMPO 2300/2307 7000 NSC
                      PROB30 TEMPO 2300/2307 3000 BR BKN003
                      BECMG 2306/2309 25010KT=
201002222000 TAF LMML 222000Z 2221/2306 VRB04KT CAVOK=
201002221700 TAF LMML 221700Z 2218/2303 21007KT CAVOK=
201002221400 TAF LMML 221400Z 2215/2224 21007KT CAVOK=
201002221100 TAF LMML 221100Z 2212/2221 20008KT CAVOK=
201002220800 TAF LMML 220800Z 2209/2218 17010KT CAVOK=
201002220500 TAF LMML 220500Z 2206/2215 18014KT CAVOK
                      TEMPO 2206/2212 9999 FEW025 BKN100
                      PROB30 TEMPO 2206/2212 8000 RA SCT015 BKN080=
201002220200 TAF LMML 220200Z 2203/2212 17013KT CAVOK
                      TEMPO 2203/2212 9999 FEW020 BKN100
                      PROB30 TEMPO 2203/2212 8000 RA BKN015 BKN080=
201002212300 TAF LMML 212300Z 2200/2209 17013KT 9999 FEW020 BKN120
                      BECMG 2200/2203 CAVOK
                      TEMPO 2200/2209 9999 SCT013 BKN100
                      PROB30 TEMPO 2200/2209 8000 RA BKN010 BKN080=
201002212000 TAF LMML 212000Z 2121/2206 17012KT CAVOK
                      TEMPO 2121/2206 9999 SCT013 BKN100
                      PROB30 TEMPO 2200/2206 8000 RA BKN010 BKN080=
201002211700 TAF LMML 211700Z 2118/2203 VRB05KT CAVOK
                      BECMG 2120/2123 18010KT
                      PROB40 TEMPO 2121/2203 SCT010=
201002211400 TAF LMML 211400Z 2115/2124 25010KT 9999 FEW025
                      BECMG 2116/2119 18008KT=
201002211100 TAF LMML 211100Z 2112/2121 27010KT 9999 FEW025
                      BECMG 2116/2119 18008KT=
201002210800 TAF LMML 210800Z 2109/2118 27010KT 9999 FEW028
                      BECMG 2115/2118 18008KT=
201002210500 TAF LMML 210500Z 2106/2115 28011KT 9999 FEW028
                      BECMG 2112/2115 21008KT=
201002210200 TAF LMML 210200Z 2103/2112 27012KT 9999 FEW030
                      PROB30 TEMPO 8000 SHRA=
201002202300 TAF LMML 202300Z 2100/2109 29015KT 9999 FEW030
                      PROB30 TEMPO 2100/2106 8000 SHRA=
201002202000 TAF LMML 202000Z 2021/2106 29019G29KT 9999 FEW025
                      BECMG 2022/2101 28015KT=
201002201700 TAF LMML 201700Z 2018/2103 28019KT 9999 SCT020
                      PROB30 TEMPO 2018/2022 29022G32KT=
201002201400 TAF LMML 201400Z 2015/2024 28018KT 9999 SCT025
                      PROB30 TEMPO 2015/2024 29022G32KT=
201002201100 TAF LMML 201100Z 2012/2021 29018KT 9999 SCT025
                      PROB30 TEMPO 2012/2021 30020G30KT=
201002200800 TAF LMML 200800Z 2009/2018 29017KT 9999 SCT025
                      TEMPO 2010/2018 30020G30KT=
201002200500 TAF LMML 200500Z 2006/2015 23015KT 5000 DU
                      BECMG 2006/2009 30018KT 9999 SCT025=
201002200200 TAF LMML 200200Z 2003/2012 24010KT 4000 DU
                      TEMPO 2003/2006 24020KT 1000 DU
                      BECMG 2009/2012 9999 SCT020=
201002192300 TAF LMML 192300Z 2000/2009 23008KT 5000 DU
                      TEMPO 2003/2006 24018KT
                      BECMG 2006/2009 9999 FEW020=
201002192000 TAF LMML 192000Z 1921/2006 24010KT 8000 NSC
                      PROB30 TEMPO 2003/2006 26018KT 5000 BR SCT015=
201002191700 TAF LMML 191700Z 1918/2003 21010KT 8000 NSC
                      TEMPO 1918/2003 4000 DU=
201002191400 TAF LMML 191400Z 1915/1924 22011KT 8000 NSC 1915/1924 4000 DU=
201002191100 TAF LMML 191100Z 1912/1921 20015KT 8000 NSC
                      TEMPO 1912/1921 5000 DU=
201002190800 TAF LMML 190800Z 1909/1918 16015KT 8000 NSC
                      BECMG 1909/1912 23016KT=
201002190500 TAF LMML 190500Z 1906/1915 17015KT CAVOK
                      PROB40 TEMPO 1906/1915 7000 NSC
                      BECMG 1909/1912 24017KT=
201002190200 TAF LMML 190200Z 1903/1912 17015KT CAVOK
                      PROB30 TEMPO 1903/1912 9000 NSC
                      BECMG 1909/1912 24017KT=
201002182300 TAF LMML 182300Z 1900/1909 17012KT CAVOK
                      PROB30 TEMPO 1900/1909 9000 NSC=
201002182000 TAF LMML 182000Z 1821/1906 VRB03KT CAVOK
                      BECMG 1823/1902 17012KT
                      PROB30 TEMPO 1821/1906 9000 NSC=
201002181700 TAF LMML 181700Z 1818/1903 14005KT CAVOK
                      PROB30 TEMPO 1900/1903 15015KT 5000 HZ NSC=
201002181400 TAF LMML 181400Z 1815/1824 22008KT CAVOK
                      BECMG 1818/1821 15005KT=
201002181100 TAF LMML 181100Z 1812/1821 22010KT CAVOK
                      BECMG 1818/1821 15006KT=
201002180800 TAF LMML 180800Z 1809/1818 22010KT CAVOK
                      PROB30 TEMPO 1812/1818 5000 HZ=
201002180500 TAF LMML 180500Z 1806/1815 22008KT CAVOK
                      PROB30 TEMPO 1806/1815 9000 FEW015=
201002180200 TAF LMML 180200Z 1803/1812 25008KT CAVOK
                      PROB30 TEMPO 1803/1806 9000 NSC=
201002172300 TAF LMML 172300Z 1800/1809 22010KT 8000 NSC
                      BECMG 1800/1803 CAVOK=
201002172000 TAF LMML 172000Z 1721/1806 23011KT 7000 NSC
                      TEMPO 1721/1724 5000 DU
                      PROB30 TEMPO 1800/1806 CAVOK=
201002171700 TAF LMML 171700Z 1718/1803 22010KT 7000 NSC
                      BECMG 1718/1721 CAVOK=
201002171400 TAF LMML 171400Z 1715/1724 20012KT 7000 NSC
                      BECMG 1718/1721 CAVOK=
201002171100 TAF LMML 171100Z 1712/1721 20010KT CAVOK=
201002170800 TAF LMML 170800Z 1709/1718 20012KT CAVOK
                      PROB30 TEMPO 1709/1715 9999 FEW015=
201002170500 TAF LMML 170500Z 1706/1715 21010KT 9999 FEW012=
201002170200 TAF LMML 170200Z 1703/1712 27010KT 9999 FEW012
                      BECMG 1706/1709 18012KT=
201002162300 TAF LMML 162300Z 1700/1709 24011KT 9999 FEW012
                      TEMPO 1700/1709 8000 DU=
201002162000 TAF LMML 162000Z 1621/1706 24010KT 9999 FEW012 SCT140
                      PROB30 TEMPO 1621/1703 8000 DU=
201002161700 TAF LMML 161700Z 1618/1703 17013KT 8000 FEW015
                      PROB30 TEMPO 1618/1624 5000 DU
                      BECMG 1621/1624 27015KT 9999=
201002161400 TAF LMML 161400Z 1615/1624 15015KT 7000 SCT015 BKN130
                      TEMPO 1615/1620 5000 RA BKN010 BKN090
                      PROB30 TEMPO 1615/1619 16020G30KT 3000 TSRA
                       BKN005 BKN010 BKN060CB
                      BECMG 1618/1621 21013KT
                      BECMG 1621/1624 27012KT 9999=
201002161100 TAF LMML 161100Z 1612/1621 12020KT 8000 SCT015 BKN130
                      TEMPO 1612/1620 14020G34KT 5000 RA BKN012
                       BKN090
                      PROB30 TEMPO 1612/1619 3000 TSRA BKN005 BKN012
                       BKN060CB
                      BECMG 1616/1619 19013KT=
201002160800 TAF LMML 160800Z 1609/1618 12018KT 9000 SCT015 BKN120
                      TEMPO 1609/1618 14020G30KT RA BKN013 BKN090
                       PROB30
                      TEMPO 1609/1618 3000 TSRA BKN005 BKN013 BKN060CB
                       BECMG 1615/1618 18013KT=
201002160500 TAF LMML 160500Z 1606/1615 15018KT 9999 FEW012
                      PROB30 TEMPO 1612/1615 6000 TSRA SCT008 BKN040CB
                       BKN100=
201002160200 TAF LMML 160200Z 1603/1612 15010KT 9999 FEW015
                      TEMPO 1603/1612 16020KT
                      PROB40 TEMPO 1603/1608 5000 BKN005 PRB30
                       TEMPO 1608/1612 6000 TSRA SCT008 SCT040
                       BKN080=
201002152300 TAF LMML 152300Z 1600/1609 15010KT CAVOK
                      TEMPO 1606/1609 15020KT
                      PROB30 TEMPO 1602/1609 5000 BKN005=
201002152000 TAF LMML 152000Z 1521/1606 VRB03KT CAVOK
                      PROB40 TEMPO 1600/1606 BKN005
                      TEMPO 1604/1606 15015KT=
201002151700 TAF LMML 151700Z 1518/1603 18005KT 9999 FEW025 BKN130 BKN200
                      BECMG 1521/1524 13012KT
                      TEMPO 1600/1603 8000 RA BKN015=
201002151400 TAF LMML 151400Z 1515/1524 20006KT 9999 FEW025 BKN200
                      BECMG 1518/1521 13010KT=
201002151100 TAF LMML 151100Z 1512/1521 28008KT 9999 FEW025 BKN200
                      BECMG 1518/1521 15010KT=
201002150800 TAF LMML 150800Z 1509/1518 30008KT 9999 FEW030 BKN200=
201002150500 TAF LMML 150500Z 1506/1515 31010KT 9999 FEW030=
201002150200 TAF LMML 150200Z 1503/1512 31012KT 9999 SCT027
                      PROB40 TEMPO 1508/1512 CAVOK
                      BECMG 1509/1512 27005KT=
201002142300 TAF LMML 142300Z 1500/1509 30012KT 9999 SCT025=
201002142000 TAF LMML 142000Z 1421/1506 30015KT 9999 SCT025
                      PROB30 TEMPO 1421/1424 30015G25KT=
201002141700 TAF LMML 141700Z 1418/1503 28015KT 9999 SCT020=
201002141400 TAF LMML 141400Z 1415/1424 30015KT 9999 SCT018
                      TEMPO 1415/1421 29025KT=
201002141100 TAF LMML 141100Z 1412/1421 30015KT 9999 FEW012 SCT015
                      PROB40 TEMPO 1412/1418 30025KT=
201002140800 TAF LMML 140800Z 1409/1418 16018KT 9999 BKN010 SCT014
                      PROB40 TEMPO 1409/1412 5000 TSRA SCT008 BKN015CB
                       BECMG 1410/1413 29018KT=
201002140500 TAF LMML 140500Z 1406/1415 14018KT 9999 SCT015 BKN080
                      TEMPO 1406/1409 8000 RA BKN013 BKN060
                      PROB30 TEMPO 1406/1409 15020G34KT 3000 TSRA
                       BKN010 BKN050CB
                      BECMG 1408/1411 22013KT
                      TEMPO 1409/1415 8000 SHRA BKN015
                      BECMG 1411/1414 28015KT
                      PROB30 TEMPO 1412/1415 29020G30KT=
201002140200 TAF LMML 140200Z 1403/1412 12017KT 9999 SCT020 BKN100
                      TEMPO 1403/1412 8000 RA BKN015 BKN080
                      PROB30 TEMPO 1403/1412 14020G30KT 3000 TSRA
                       BKN005 BKN013 BKN050CB
                      BECMG 1409/1412 18013KT=
201002132300 TAF LMML 132300Z 1400/1409 14018KT 9999 SCT025 BKN100
                      TEMPO 1400/1409 8000 RA BKN015 BKN080
                      PROB30 TEMPO 1400/1409 15020G30KT 3000 TSRA
                       BKN005 BKN013 BKN060CB=
201002132000 TAF LMML 132000Z 1321/1406 14008KT 9999 SCT025 BKN100
                      BECMG 1321/1324 16018KT
                      TEMPO 1321/1406 8000 RA BKN015 BKN080
                      PROB30 TEMPO 1321/1406 15020G30KT 3000 TSRA
                       BKN005 BKN013 BKN060CB=
201002131700 TAF LMML 131700Z 1318/1403 16008KT 9999 SCT020 BKN030
                      PROB40 TEMPO 1321/1403 8000 RA BKN015
                      BECMG 1400/1403 16018KT=
201002131400 TAF LMML 131400Z 1315/1324 VRB06KT 9999 FEW025
                      BECMG 1318/1321 16012KT
                      PROB30 TEMPO 1321/1324 9000 SHRA=
201002131100 TAF LMML 131100Z 1312/1321 VRB05KT 9999 FEW025
                      BECMG 1318/1321 16010KT=
201002130800 TAF LMML 130800Z 1309/1318 VRB05KT 9999 FEW025=
201002130500 TAF LMML 130500Z 1306/1315 28010KT 9999 FEW030=
201002130200 TAF LMML 130200Z 1303/1312 28013KT 9999 FEW030=
201002122300 TAF LMML 122300Z 1300/1309 28016KT 9999 SCT030=
201002122000 TAF LMML 122000Z 1221/1306 27016KT 9999 SCT040=
201002121700 TAF LMML 121700Z 1218/1303 27015KT 9999 SCT030
                      PROB30 TEMPO 1219/1301 28017G27KT=
201002121400 TAF LMML 121400Z 1215/1224 28018KT 9999 SCT035
                      PROB30 TEMPO 1215/1224 28020G34KT=
201002121100 TAF LMML 121100Z 1212/1221 28018KT 9999 SCT035
                      TEMPO 1212/1221 28020G34KT
                      PROB30 TEMPO 1212/1216 8000 SHRA=
201002120800 TAF LMML 120800Z 1209/1218 28016KT 9999 SCT030 SCT060 BKN100
                      TEMPO 1209/1216 28018G28KT 8000 SHRA BKN015
                       BKN050 BKN080=
201002120500 TAF LMML 120500Z 1206/1215 28012KT 9999 FEW025 SCT040
                      TEMPO 1206/1210 RA
                      TEMPO 1212/1215 29022KT=
201002120200 TAF LMML 120200Z 1203/1212 22008KT 9999 FEW040
                      TEMPO 1203/1208 8000 RA BKN020
                      BECMG 1209/1212 29018KT=
201002112300 TAF LMML 112300Z 1200/1209 22005KT 9999 FEW040
                      PROB30 TEMPO 1203/1206 8000 RA BKN020
                      BECMG 1206/1209 29015KT=
201002112000 TAF LMML 112000Z 1121/1206 VRB03KT 9999 SCT030 SCT040
                      PROB40 TEMPO 1121/1200 8000 RA
                      BECMG 1203/1206 29013KT=
201002111700 TAF LMML 111700Z 1118/1203 23010KT 9999 SCT025 BKN040 BKN080
                      TEMPO 1118/1203 7000 RA=
201002111400 TAF LMML 111400Z 1115/1124 24010KT 9999 SCT035 BKN080
                      PROB30 TEMPO 1117/1124 8000 RA=
201002111100 TAF LMML 111100Z 1112/1121 23010KT 9999 SCT025 SCT060
                      TEMPO 1115/1118 8000 RA BKN015=
201002110800 TAF COR LMML 110800Z 1109/1118 25010KT 9999 SCT025 BKN050
                      PROB30 TEMPO 1115/1118 8000 RA=
201002110500 TAF LMML 110500Z 1106/1115 28013KT 9999 SCT025
                      PROB30 TEMPO 1106/1109 8000 SHRA=
201002110200 TAF LMML 110200Z 1103/1112 27017KT 9999 SCT020 BKN035
                      PROB40 TEMPO 1103/1112 8000 SHRA BKN015TCU
                       OVC025=
201002102300 TAF LMML 102300Z 1100/1109 28018KT 9999 SCT020
                      PROB40 TEMPO 1100/1109 8000 SHRA BKN018TCU=
201002102000 TAF LMML 102000Z 1021/1106 28022G32KT 9999 FEW020
                      TEMPO 1021/1106 8000 SHRA
                      BECMG 1100/1103 29020KT=
201002101700 TAF LMML 101700Z 1018/1103 25025KT 9999 SCT020
                      TEMPO 1018/1103 25035KT 7000 SKRA=
201002101400 TAF LMML 101400Z 1015/1024 26025KT 9999 SCT025
                      TEMPO 1015/1024 26035KT 7000 SHRA BKN018=
201002101100 TAF LMML 101100Z 1012/1021 25020KT 9999 SCT025
                      TEMPO 1012/1021 26030KT 7000 SHRA BKN018=
201002100800 TAF LMML 100800Z 1009/1018 27018KT 9999 SCT020
                      PROB40 TEMPO 1012/1018 28025G38KT 8000 SHRA
                       BKN018=
201002100500 TAF LMML 100500Z 1006/1015 29013KT 9999 SCT020
                      TEMPO 1006/1015 8000 SHRA BKN015
                      BECMG 1007/1010 27018G28KT
                      BECMG 1012/1015 26025G38KT=
201002100200 TAF LMML 100200Z 1003/1012 26010KT 9999 SCT025
                      TEMPO 1003/1012 8000 SHRA BKN015
                      BECMG 1005/1008 28017G27KT
                      PROB30 TEMPO 1008/1012 3000 TSRA BKN015CB=
201002092300 TAF LMML 092300Z 1000/1009 VRB06KT 9000 BKN003 SCT020 BKN090
                      TEMPO 1000/1003 5000 RA OVC002 BKN015 BKN080
                       PROB30
                      TEMPO 1000/1003 3000 TSRA OVC001 BKN015 BKN060CB
                       BECMG 1000/1003 26012KT 9999 SCT015 SCT050
                       TEMPO 1003/1009 8000 SHRA BKN015 BKN040
                       PROB30
                      TEMPO 1005/1009 28015G25KT=
201002092000 TAF LMML 092000Z 0921/1006 13007KT 9000 OVC003 BKN020 BKN100
                      TEMPO 0921/1002 5000 RA OVC002 BKN015 BKN080
                       PROB30
                      TEMPO 0921/1002 3000 TSRA OVC001 BKN015 BKN060CB
                       BECMG 0921/0924 19010KT 9999 SCT015 BKN100
                       BECMG 1001/1004 26013KT
                      PROB30 TEMPO 1002/1006 8000 SHRA BKN015 BKN050=
201002091700 TAF LMML 091700Z 0918/1003 13008KT 9999 BKN007 BKN011
                      TEMPO 0918/1003 8000 BKN004
                      PROB30 0918/1003 3000 TSRA BKN002 BKN050CB
                       BECMG 1000/1003 26010KT=
201002091400 TAF LMML 091400Z 0915/0924 13010KT 9999 SCT014 BKN020
                      TEMPO 0915/0924 BKN010
                      PROB40 TEMPO 0917/0924 8000 BKN005
                      PROB30 TEMPO 0917/0924 5000 TSRA BKN002 BKN050CB=
201002091100 TAF LMML 091100Z 0912/0921 13014KT 9999 SCT017
                      PROB40 TEMPO 0912/0921 BKN013
                      PROB30 TEMPO 0917/0321 8000 TSRA BKN004 SCT045CB=
201002090800 TAF LMML 090800Z 0909/0918 13014KT 9999 SCT018
                      PROB30 TEMPO 0915/0918 BKN005=
201002090500 TAF LMML 090500Z 0906/0915 13010KT 9999 FEW020 BKN120 BKN200=
201002090200 TAF LMML 090200Z 0903/0912 13005KT 9999 FEW020 SCT120 BKN200
                      BECMG 0906/0909 13015KT=
201002082300 TAF LMML 082300Z 0900/0909 VRB03KT 9999 FEW020 SCT120 BKN250
                      BECMG 0905/0908 13012KT=
201002082000 TAF LMML 082000Z 0821/0906 23004KT 9999 FEW025 SCT120 BKN200
                      PROB30 TEMPO 0903/0906 8000 RA
                      BECMG 0903/0906 14010KT=
201002081700 TAF LMML 081700Z 0818/0903 28010KT 9999 FEW030
                      BECMG 0818/0821 CAVOK
                      BECMG 0821/0824 9999 FEW020 BKN100
                      BECMG 0900/0903 16006KT=
201002081400 TAF LMML 081400Z 0815/0824 28015KT 9999 SCT035
                      PROB30 TEMPO 0815/0817 29016G26KT
                      BECMG 0819/0822 26005KT=
201002081100 TAF LMML 081100Z 0812/0821 28015KT 9999 SCT035
                      BECMG 0818/0821 27005KT=
201002080800 TAF LMML 080800Z 0809/0818 30015KT 9999 SCT030=
201002080500 TAF LMML 080500Z 0806/0815 30013KT 9999 FEW035=
201002080200 TAF LMML 080200Z 0803/0812 29010KT 9999 SCT025
                      PROB30 TEMPO 0803/0812 30020KT=
201002072300 TAF LMML 072300Z 0800/0809 30010KT 9999 SCT025
                      PROB40 TEMPO 0800/0804 30020KT 8000 SHRA
                       BKN020=
201002072000 TAF LMML 072000Z 0721/0806 30010KT 9999 SCT020
                      TEMPO 0721/0806 30020KT 8000 SHRA BKN015TCU=
201002071700 TAF LMML 071700Z 0718/0803 29015KT 9999 SCT020
                      TEMPO 0718/0803 8000 SHRA BKN015=
201002071400 TAF LMML 071400Z 0715/0724 28018G28KT 9999 SCT025
                      TEMPO 0715/0724 7000 SHRA
                      BECMG 0718/0721 28015KT=
201002071100 TAF LMML 071100Z 0712/0721 30018G28KT 9999 SCT025
                      TEMPO 0712/0718 7000 SHRA
                      PROB30 TEMPO 0712/0715 5000 TSRA BKN015CB
                       BECMG 0716/0720 29015KT=
201002070800 TAF LMML 070800Z 0709/0718 28020G30KT 9999 SCT020
                      TEMPO 0709/0718 7000 SHRA BKN015
                      PROB30 TEMPO 0709/0718 5000 TSRA BKN015CB
                       BECMG 0715/0718 28018KT=
201002070500 TAF LMML 070500Z 0706/0715 29024G34KT 9999 SCT025
                      TEMPO 0706/0715 7000 SHRA BKN025TCU
                      PROB30 TEMPO 0706/0712 5000 TSRA BKN015CB=
201002070200 TAF LMML 070200Z 0703/0712 29020G32KT 9999 SCT020
                      TEMPO 0703/0712 7000 SHRA
                      PROB30 TEMPO 0703/0706 5000 TSRA BKN015CB=
201002062300 TAF LMML 062300Z 0700/0709 29020G32KT 9999 SCT020
                      TEMPO 0700/0709 7000 SHRA BKN015
                      PROB30 TEMPO 0700/0709 5000 TSRA BKN015CB=
201002062000 TAF LMML 062000Z 0621/0706 28015KT 9999 SCT025
                      TEMPO 0621/0706 6000 SHRA BKN015
                      PROB30 TEMPO 0621/0706 5000 TSRA BKN015CB
                       BECMG 0623/0702 29018G30KT=
201002061700 TAF LMML 061700Z 0618/0703 24012KT 9999 FEW025
                      BECMG 0621/0700 30020KT
                      TEMPO 0620/0703 SHRA BKN020
                      PROB30 TEMPO 0620/0703 5000 TSRA BKN018=
201002061515 TAF COR LMML 061515Z 0615/0624 29015KT 9999 FEW025=
201002061400 TAF LMML 061400Z 0612/0621 29015KT 9999 FEW025=
201002061100 TAF LMML 061100Z 0612/0621 29017KT 9999 FEW025=
201002060800 TAF LMML 060800Z 0609/0618 29017KT 9999 FEW025 SCT100=
201002060500 TAF LMML 060500Z 0606/0615 24009KT 9999 SCT015
                      BECMG 0606/0609 30015KT
                      PROB30 TEMPO 0606/0615 28015G25KT=
201002060200 TAF LMML 060200Z 0603/0612 24009KT 9999 SCT025 SCT100
                      PROB30 TEMPO 0603/0609 8000 SHRA BKN015 BKN080
                       BECMG 0605/0608 30014KT=
201002052300 TAF LMML 052300Z 0600/0609 26010KT 9999 FEW020 SCT100
                      PROB30 TEMPO 0600/0609 8000 SHRA BKN015 BKN080
                       PROB40
                      TEMPO 0600/0606 9000 BKN010 BKN100=
201002052000 TAF LMML 052000Z 0521/0606 26007KT 9999 FEW015
                      PROB30 TEMPO 0521/0524 9000 BKN010
                      PROB40 TEMPO 0600/0606 8000 SHRA BKN015
                      BECMG 0601/0604 28017KT=
201002051700 TAF LMML 051700Z 0518/0603 21010KT 9999 FEW020 SCT040
                      BECMG 0518/0521 27013KT=
201002051400 TAF LMML 051400Z 0515/0524 18010KT CAVOK
                      TEMPO 0515/0524 FEW020
                      BECMG 0518/0521 27010KT=
201002051100 TAF LMML 051100Z 0512/0521 18014KT CAVOK
                      TEMPO 0512/0521 9999 FEW020=
201002050800 TAF LMML 050800Z 0509/0518 17014KT CAVOK
                      PROB40 TEMPO 0514/0518 9999 FEW020=
201002050500 TAF LMML 050500Z 0506/0515 16012KT 9999 FEW020 BKN120=
201002050200 LMML 050200Z 0503/0512 17009KT 9999 FEW025 SCT120=
201002042300 TAF LMML 042300Z 0500/0509 17008KT 9999 FEW025=
201002042000 TAF LMML 042000Z 0421/0506 17006KT 9999 FEW025=
201002041700 TAF LMML 041700Z 0418/0503 18010KT 9999 FEW025
                      TEMPO 0418/0503 CAVOK=
201002041400 TAF LMML 041400Z 0415/0424 18009KT 9999 FEW030
                      TEMPO 0418/0424 CAVOK=
201002041100 TAF LMML 041100Z 0412/0421 19008KT 9999 FEW035=
201002040800 TAF LMML 040800Z 0409/0418 20008KT 9999 SCT035=
201002040500 TAF LMML 040500Z 0406/0415 20008KT 9999 SCT040=
201002040200 TAF LMML 040200Z 0403/0412 22005KT 9999 FEW040=
201002032300 TAF LMML 032300Z 0400/0409 23004KT 9999 FEW040=
201002032000 TAF LMML 032000Z 0321/0406 23004KT 9999 FEW040=
201002031700 TAF LMML 031700Z 0318/0403 25005KT 9999 SCT040=
201002031400 TAF LMML 031400Z 0315/0324 27006KT 9999 FEW000=
201002031100 TAF LMML 031100Z 0312/0321 27006KT 9999 FEW040=
201002030800 TAF LMML 030800Z 0309/0318 29008KT 9999 SCT040=
201002030500 TAF LMML 030500Z 0306/0315 31008KT 9999 SCT040=
201002030200 TAF LMML 030200Z 0303/0312 32006KT 9999 SCT040=
201002022300 TAF LMML 022300Z 0300/0309 33008KT 9999 SCT038=
201002022000 TAF LMML 022000Z 0221/0306 33008KT 9999 SCT040=
201002021700 TAF LMML 021700Z 0218/0303 29008KT 9999 SCT040=
201002021400 TAF LMML 021400Z 0215/0224 31015KT 9999 SCT045=
201002021100 TAF LMML 021100Z 0212/0221 32015KT 9999 SCT040=
201002020800 TAF LMML 020800Z 0209/0218 32015KT 9999 SCT040
                      PROB30 TEMPO 0209/0218 SHRA=
201002020500 TAF LMML 020500Z 0206/0215 31015KT 9999 FEW030 SCT060
                      PROB30 TEMPO 0206/0215 30015G25KT 8000 SHRA=
201002020200 TAF LMML 020200Z 0203/0212 31015KT 9999 SCT030 SCT060
                      PROB30 TEMPO 0203/0212 30015G25KT=
201002012300 TAF LMML 012300Z 0200/0209 34020KT 9999 SCT025
                      PROB30 TEMPO 0200/0209 33025G35KT 8000 SHRA
                       BKN015
                      BECMG 0200/0203 28016KT=
201002012000 TAF LMML 012000Z 0121/0206 29025G35KT 9999 SCT025
                      TEMPO 0121/0203 8000 SHRA BKN015
                      PROB30 TEMPO 0121/0124 31035G45KT 3000 TSRA
                       BKN015CB
                      BECMG 0121/0124 35025G35KT
                      BECMG 0200/0203 31020KT=
201002011700 TAF LMML 011700Z 0118/0203 27012KT 9999 FEW025
                      TEMPO 0118/0203 7000 SHRA
                      PROB30 TEMPO 0118/0123 5000 TSRA BKN020CB
                       BECMG 0120/0123 34018KT=
201002011400 TAF LMML 011400Z 0115/0124 VRB05KT 9999 FEW025
                      BECMG 0117/0120 26015KT
                      TEMPO 0117/0124 7000 SHRA SCT020TCU
                      BECMG 0120/0123 34018KT=
201002011100 TAF LMML 011100Z 0112/0121 VRB04KT 9999 FEW025
                      BECMG 0117/0120 26015KT
                      TEMPO 0117/0121 7000 SHRA SCT020TCU=
201002010800 TAF LMML 010800Z 0109/0118 27008KT 9999 FEW020
                      PROB40 TEMPO 0112/0118 8000 SHRA SCT020TCU=
201002010500 TAF LMML 010500Z 0106/0115 28010KT 9999 SCT020
                      PROB30 TEMPO 0109/0115 8000 SHRA BKN015=
201002010200 TAF LMML 010200Z 0103/0112 23010KT 9999 FEW025
                      BECMG 0106/0109 34010KT=

###################################
#  large TAF from LMML
###################################
201003032300 TAF LMML NIL=
201003031700 TAF LMML NIL=
201003031100 TAF LMML NIL=
201003030500 TAF LMML NIL=
201003022300 TAF LMML NIL=
201003021700 TAF LMML NIL=
201003021100 TAF LMML NIL=
201003020500 TAF LMML NIL=
201003012300 TAF LMML NIL=
201003011700 TAF LMML NIL=
201003011100 TAF LMML NIL=
201003010500 TAF LMML NIL=
201002282300 TAF LMML NIL=
201002281700 TAF LMML NIL=
201002281100 TAF LMML NIL=
201002280500 TAF LMML NIL=
201002272300 TAF LMML NIL=
201002271700 TAF LMML NIL=
201002271100 TAF LMML NIL=
201002270500 TAF LMML NIL=
201002262300 TAF LMML NIL=
201002261700 TAF LMML NIL=
201002261100 TAF LMML NIL=
201002260500 TAF LMML NIL=
201002252300 TAF LMML NIL=
201002251700 TAF LMML NIL=
201002251100 TAF LMML NIL=
201002250500 TAF LMML NIL=
201002242300 TAF LMML NIL=
201002241700 TAF LMML NIL=
201002241100 TAF LMML NIL=
201002240500 TAF LMML NIL=
201002232300 TAF LMML NIL=
201002231700 TAF LMML NIL=
201002231100 TAF LMML NIL=
201002230500 TAF LMML NIL=
201002222300 TAF LMML NIL=
201002221700 TAF LMML NIL=
201002221100 TAF LMML NIL=
201002220500 TAF LMML NIL=
201002212300 TAF LMML NIL=
201002211700 TAF LMML NIL=
201002211100 TAF LMML NIL=
201002210500 TAF LMML NIL=
201002202300 TAF LMML NIL=
201002201700 TAF LMML NIL=
201002201100 TAF LMML NIL=
201002200500 TAF LMML NIL=
201002192300 TAF LMML NIL=
201002191700 TAF LMML NIL=
201002191100 TAF LMML NIL=
201002190500 TAF LMML NIL=
201002182300 TAF LMML NIL=
201002181700 TAF LMML NIL=
201002181100 TAF LMML NIL=
201002180500 TAF LMML NIL=
201002172300 TAF LMML NIL=
201002171700 TAF LMML NIL=
201002171100 TAF LMML NIL=
201002170500 TAF LMML NIL=
201002162300 TAF LMML NIL=
201002161700 TAF LMML NIL=
201002161100 TAF LMML NIL=
201002160500 TAF LMML NIL=
201002152300 TAF LMML NIL=
201002151700 TAF LMML NIL=
201002151100 TAF LMML NIL=
201002150500 TAF LMML NIL=
201002142300 TAF LMML NIL=
201002141700 TAF LMML NIL=
201002141100 TAF LMML NIL=
201002140500 TAF LMML NIL=
201002132300 TAF LMML NIL=
201002131700 TAF LMML NIL=
201002131100 TAF LMML NIL=
201002130500 TAF LMML NIL=
201002122300 TAF LMML NIL=
201002121700 TAF LMML NIL=
201002121100 TAF LMML NIL=
201002120500 TAF LMML NIL=
201002112300 TAF LMML NIL=
201002111700 TAF LMML NIL=
201002111100 TAF LMML NIL=
201002110500 TAF LMML NIL=
201002102300 TAF LMML NIL=
201002101700 TAF LMML NIL=
201002101100 TAF LMML NIL=
201002100500 TAF LMML NIL=
201002092300 TAF LMML NIL=
201002091700 TAF LMML NIL=
201002091100 TAF LMML NIL=
201002090500 TAF LMML NIL=
201002082300 TAF LMML NIL=
201002081700 TAF LMML NIL=
201002081100 TAF LMML NIL=
201002080500 TAF LMML NIL=
201002072300 TAF LMML NIL=
201002071700 TAF LMML NIL=
201002071100 TAF LMML NIL=
201002070500 TAF LMML NIL=
201002062300 TAF LMML NIL=
201002061700 TAF LMML NIL=
201002061100 TAF LMML NIL=
201002060500 TAF LMML NIL=
201002052300 TAF LMML NIL=
201002051700 TAF LMML NIL=
201002051100 TAF LMML NIL=
201002050500 TAF LMML NIL=
201002042300 TAF LMML NIL=
201002041700 TAF LMML NIL=
201002041100 TAF LMML NIL=
201002040500 TAF LMML NIL=
201002032300 TAF LMML NIL=
201002031700 TAF LMML NIL=
201002031100 TAF LMML NIL=
201002030500 TAF LMML NIL=
201002022300 TAF LMML NIL=
201002021700 TAF LMML NIL=
201002021100 TAF LMML NIL=
201002020500 TAF LMML NIL=
201002012300 TAF LMML NIL=
201002011700 TAF LMML NIL=
201002011100 TAF LMML NIL=
201002010500 TAF LMML NIL=
