##########################################################
# Query made at 01/18/2013 15:34:38 UTC
# Time interval: from 02/01/2011 00:00  to 03/03/2011 23:59  UTC
##########################################################

##########################################################
# LMML, Luqa (Malta)
# WMO index: 16597
# Latitude 35-51N. Longitude 014-29E. Altitude 91 m.
##########################################################

###################################
#  METAR/SPECI from LMML
###################################
201103032345 METAR LMML 032345Z 08013KT 040V110 9999 FEW018 SCT026 BKN120
                        12/09 Q1018 NOSIG=
201103032330 METAR LMML NIL=
201103032315 METAR LMML 032315Z 09013KT 9999 FEW021 BKN120 12/09 Q1019
                        NOSIG=
201103032300 METAR LMML NIL=
201103032245 METAR LMML 032245Z 08016KT 050V110 9999 SCT021 BKN120 12/08
                        Q1019 NOSIG=
201103032230 METAR LMML NIL=
201103032215 METAR COR LMML 032215Z 07016KT 040V110 9999 FEW021 BKN120
                        12/08 Q1019 NOSIG=
201103032200 METAR LMML NIL=
201103032145 METAR LMML 032145Z 09013KT 9999 SCT022 SCT120 13/09 Q1020
                        NOSIG=
201103032130 METAR LMML NIL=
201103032115 METAR LMML 032115Z 08015KT 9999 FEW024 SCT120 13/08 Q1020
                        NOSIG=
201103032100 METAR LMML NIL=
201103032045 METAR LMML 032045Z 07012KT 040V100 9999 FEW030 SCT120 12/08
                        Q1020 NOSIG=
201103032030 METAR LMML NIL=
201103032015 METAR LMML 032015Z 08009KT 050V110 CAVOK 12/08 Q1021 NOSIG=
201103032000 METAR LMML NIL=
201103031945 METAR LMML 031945Z 08008KT 050V110 CAVOK 12/08 Q1021 NOSIG=
201103031930 METAR LMML NIL=
201103031915 METAR LMML 031915Z 09008KT CAVOK 12/08 Q1021 NOSIG=
201103031900 METAR LMML NIL=
201103031845 METAR LMML 031845Z 08007KT CAVOK 12/09 Q1021 NOSIG=
201103031830 METAR LMML NIL=
201103031815 METAR LMML 031815Z 07006KT 040V120 9999 FEW020 BKN250 12/09
                        Q1021 NOSIG=
201103031800 METAR LMML NIL=
201103031745 METAR LMML 031745Z 07005KT CAVOK 12/09 Q1021 NOSIG=
201103031730 METAR LMML NIL=
201103031715 METAR LMML 031715Z 07005KT 040V100 CAVOK 12/09 Q1021 NOSIG=
201103031700 METAR LMML NIL=
201103031645 METAR LMML 031645Z 07006KT 040V110 9999 FEW030 BKN250 13/08
                        Q1021 NOSIG=
201103031630 METAR LMML NIL=
201103031615 METAR LMML 031615Z 08006KT 050V120 9999 FEW026 BKN250 13/07
                        Q1021 NOSIG=
201103031600 METAR LMML NIL=
201103031545 METAR LMML 031545Z 08008KT 9999 FEW026 BKN250 14/07 Q1021
                        NOSIG=
201103031530 METAR LMML NIL=
201103031515 METAR LMML 031515Z 10007KT 070V140 9999 FEW026 BKN250 14/07
                        Q1021 NOSIG=
201103031500 METAR LMML NIL=
201103031445 METAR LMML 031445Z 10009KT 9999 FEW026 SCT250 14/06 Q1021
                        NOSIG=
201103031430 METAR LMML NIL=
201103031415 METAR LMML 031415Z 10009KT 070V130 9999 FEW026 15/05 Q1021
                        NOSIG=
201103031345 METAR LMML 031345Z 10008KT 050V170 9999 FEW026 15/07 Q1021
                        NOSIG=
201103031330 METAR LMML NIL=
201103031315 METAR LMML 031315Z 10008KT 9999 FEW026 15/08 Q1021 NOSIG=
201103031300 METAR LMML NIL=
201103031245 METAR LMML 031245Z 10007KT 040V150 9999 FEW030 15/06 Q1021
                        NOSIG=
201103031230 METAR LMML NIL=
201103031215 METAR LMML 031215Z 08008KT 050V130 9999 FEW030 16/06 Q1022
                        NOSIG=
201103031200 METAR LMML NIL=
201103031145 METAR LMML 031145Z 10007KT 060V130 9999 FEW030 16/07 Q1022
                        NOSIG=
201103031130 METAR LMML NIL=
201103031115 METAR LMML 031115Z 12006KT 060V160 9999 FEW030 16/07 Q1022
                        NOSIG=
201103031100 METAR LMML NIL=
201103031045 METAR LMML 031045Z 11005KT 050V160 9999 FEW030 16/07 Q1022
                        NOSIG=
201103031030 METAR LMML NIL=
201103031015 METAR LMML 031015Z 09003KT 9999 FEW030 16/07 Q1022 NOSIG=
201103031000 METAR LMML NIL=
201103030945 METAR LMML 030945Z 14003KT 9999 FEW030 15/06 Q1022 NOSIG=
201103030930 METAR LMML NIL=
201103030915 METAR LMML 030915Z VRB02KT 9999 FEW030 16/07 Q1022 NOSIG=
201103030900 METAR LMML NIL=
201103030845 METAR LMML 030845Z VRB01KT 9999 FEW030 15/06 Q1022 NOSIG=
201103030830 METAR LMML NIL=
201103030815 METAR LMML 030815Z VRB01KT 9999 FEW030 15/07 Q1022 NOSIG=
201103030745 METAR LMML 030745Z VRB02KT 9999 FEW030 14/07 Q1022 NOSIG=
201103030730 METAR LMML NIL=
201103030715 METAR LMML 030715Z VRB01KT 9999 FEW030 13/08 Q1022 NOSIG=
201103030700 METAR LMML NIL=
201103030645 METAR LMML 030645Z VRB01KT 9999 FEW030 10/07 Q1021 NOSIG=
201103030630 METAR LMML NIL=
201103030615 METAR LMML 030615Z VRB01KT 9999 FEW030 09/05 Q1021 NOSIG=
201103030600 METAR LMML NIL=
201103030545 METAR LMML 030545Z 20004KT 9999 FEW030 10/05 Q1021 NOSIG=
201103030530 METAR LMML NIL=
201103030515 METAR LMML 030515Z 19003KT 9999 FEW030 10/05 Q1021 NOSIG=
201103030500 METAR LMML NIL=
201103030445 METAR LMML 030445Z 20004KT 9999 FEW030 09/05 Q1021 NOSIG=
201103030430 METAR LMML NIL=
201103030415 METAR LMML 030415Z 20003KT 9999 FEW030 09/05 Q1021 NOSIG=
201103030400 METAR LMML NIL=
201103030345 METAR LMML 030345Z VRB02KT 9999 FEW030 09/05 Q1021 NOSIG=
201103030330 METAR LMML NIL=
201103030315 METAR LMML 030315Z 19004KT 9999 FEW030 10/05 Q1021 NOSIG=
201103030300 METAR LMML NIL=
201103030245 METAR LMML 030245Z 19004KT 9999 FEW030 10/05 Q1021 NOSIG=
201103030230 METAR LMML NIL=
201103030215 METAR LMML 030215Z 19003KT 9999 FEW030 10/06 Q1021 NOSIG=
201103030200 METAR LMML NIL=
201103030145 METAR LMML 030145Z VRB02KT 9999 FEW030 10/05 Q1021 NOSIG=
201103030130 METAR LMML NIL=
201103030115 METAR LMML 030115Z 19003KT 9999 FEW030 10/06 Q1021 NOSIG=
201103030100 METAR LMML NIL=
201103030045 METAR LMML 030045Z 20004KT 9999 FEW030 10/06 Q1021 NOSIG=
201103030030 METAR LMML NIL=
201103030015 METAR LMML 030015Z 20004KT CAVOK 10/05 Q1021 NOSIG=
201103030000 METAR LMML NIL=
201103022345 METAR LMML 022345Z 21004KT CAVOK 10/06 Q1021 NOSIG=
201103022330 METAR LMML NIL=
201103022315 METAR LMML 022315Z 20004KT 9999 FEW030 10/06 Q1021 NOSIG=
201103022300 METAR LMML NIL=
201103022245 METAR LMML 022245Z 21003KT 9999 FEW030 11/06 Q1021 NOSIG=
201103022230 METAR LMML NIL=
201103022215 METAR LMML 022215Z 21003KT 9999 FEW030 10/06 Q1021 NOSIG=
201103022200 METAR LMML NIL=
201103022145 METAR LMML 022145Z 22003KT 9999 FEW034 10/06 Q1020 NOSIG=
201103022130 METAR LMML NIL=
201103022115 METAR LMML 022115Z 21004KT 180V240 9999 FEW034 11/06 Q1020
                        NOSIG=
201103022100 METAR LMML NIL=
201103022045 METAR LMML 022045Z 21004KT 180V240 9999 FEW034 11/06 Q1020
                        NOSIG=
201103022030 METAR LMML NIL=
201103022015 METAR LMML 022015Z 21004KT 9999 FEW034 11/06 Q1020 NOSIG=
201103022000 METAR LMML NIL=
201103021945 METAR LMML 021945Z 21003KT 9999 FEW034 11/06 Q1020 NOSIG=
201103021930 METAR LMML NIL=
201103021915 METAR LMML 021915Z 21003KT 9999 FEW034 11/06 Q1020 NOSIG=
201103021900 METAR LMML NIL=
201103021845 METAR LMML 021845Z 21004KT 180V260 9999 FEW034 11/06 Q1019
                        NOSIG=
201103021830 METAR LMML NIL=
201103021815 METAR LMML 021815Z 21004KT 160V250 9999 FEW037 12/05 Q1019
                        NOSIG=
201103021800 METAR LMML NIL=
201103021745 METAR LMML 021745Z 21004KT 180V250 9999 FEW036 12/05 Q1019
                        NOSIG=
201103021730 METAR LMML NIL=
201103021715 METAR LMML 021715Z 22006KT 180V270 9999 FEW036 12/05 Q1018
                        NOSIG=
201103021645 METAR LMML 021645Z 22008KT 180V260 9999 SCT038 13/05 Q1018
                        NOSIG=
201103021630 METAR LMML NIL=
201103021615 METAR LMML 021615Z 22008KT 200V280 9999 SCT035 13/05 Q1018
                        NOSIG=
201103021600 METAR LMML NIL=
201103021545 METAR LMML 021545Z 22007KT 180V270 9999 SCT036 14/06 Q1017
                        NOSIG=
201103021530 METAR LMML NIL=
201103021515 METAR LMML 021515Z 20008KT 160V240 9999 SCT036 14/06 Q1017
                        NOSIG=
201103021500 METAR LMML NIL=
201103021445 METAR LMML 021445Z 21008KT 180V260 9999 FEW036 15/06 Q1017
                        NOSIG=
201103021430 METAR LMML NIL=
201103021415 METAR LMML 021415Z 22009KT 160V270 9999 FEW035 15/06 Q1017
                        NOSIG=
201103021400 METAR LMML NIL=
201103021345 METAR LMML 021345Z 22010KT 170V280 9999 FEW035 15/06 Q1017
                        NOSIG=
201103021315 METAR LMML 021315Z 22010KT 170V280 9999 SCT035 15/06 Q1017
                        NOSIG=
201103021300 METAR LMML NIL=
201103021245 METAR LMML 021245Z 22010KT 170V270 9999 SCT035 15/07 Q1017
                        NOSIG=
201103021230 METAR LMML NIL=
201103021215 METAR LMML 021215Z 21011KT 160V260 9999 SCT034 15/07 Q1017
                        NOSIG=
201103021200 METAR LMML NIL=
201103021145 METAR LMML 021145Z 22011KT 170V270 9999 FEW034 15/07 Q1017
                        NOSIG=
201103021130 METAR LMML NIL=
201103021115 METAR LMML 021115Z 22010KT 180V270 9999 FEW035 15/07 Q1017
                        NOSIG=
201103021100 METAR LMML NIL=
201103021045 METAR LMML 021045Z 22009KT 160V280 9999 FEW035 15/07 Q1017
                        NOSIG=
201103021030 METAR LMML NIL=
201103021015 METAR LMML 021015Z 22011KT 180V260 9999 FEW035 14/07 Q1017
                        NOSIG=
201103021000 METAR LMML NIL=
201103020945 METAR LMML 020945Z 21010KT 170V260 9999 FEW035 14/06 Q1017
                        NOSIG=
201103020930 METAR LMML NIL=
201103020915 METAR LMML 020915Z 21009KT 170V250 9999 FEW035 14/07 Q1017
                        NOSIG=
201103020900 METAR LMML NIL=
201103020845 METAR LMML 020845Z 21009KT 170V310 9999 FEW033 14/06 Q1017
                        NOSIG=
201103020830 METAR LMML NIL=
201103020815 METAR LMML 020815Z 22007KT 180V280 9999 FEW034 14/06 Q1017
                        NOSIG=
201103020800 METAR LMML NIL=
201103020745 METAR LMML 020745Z 23009KT 200V280 9999 SCT034 13/06 Q1017
                        NOSIG=
201103020730 METAR LMML NIL=
201103020715 METAR LMML 020715Z 22007KT 180V270 9999 SCT033 13/07 Q1016
                        NOSIG=
201103020645 METAR LMML 020645Z 22004KT 190V270 9999 BKN032 11/06 Q1016
                        NOSIG=
201103020630 METAR LMML NIL=
201103020615 METAR LMML 020615Z 22007KT 180V260 9999 BKN033 12/06 Q1016
                        NOSIG=
201103020600 METAR LMML NIL=
201103020545 METAR LMML 020545Z 22006KT 180V260 9999 SCT033 11/05 Q1015
                        NOSIG=
201103020530 METAR LMML NIL=
201103020515 METAR LMML 020515Z 22007KT 180V260 9999 SCT031 11/06 Q1015
                        NOSIG=
201103020500 METAR LMML NIL=
201103020445 METAR LMML 020445Z 22010KT 190V270 9999 SCT031 11/05 Q1015
                        NOSIG=
201103020430 METAR LMML NIL=
201103020415 METAR LMML 020415Z 22009KT 180V270 9999 SCT030 11/06 Q1015
                        NOSIG=
201103020400 METAR LMML NIL=
201103020345 METAR LMML 020345Z 22008KT 190V260 9999 SCT032 11/06 Q1015
                        NOSIG=
201103020315 METAR LMML 020315Z 23006KT 190V280 9999 SCT033 11/06 Q1014
                        NOSIG=
201103020300 METAR LMML NIL=
201103020245 METAR LMML 020245Z 24008KT 210V280 9999 SCT033 10/04 Q1014
                        NOSIG=
201103020230 METAR LMML NIL=
201103020215 METAR LMML 020215Z 24009KT 210V290 9999 SCT033 10/05 Q1014
                        NOSIG=
201103020200 METAR LMML NIL=
201103020145 METAR LMML 020145Z 24011KT 200V280 9999 FEW032 BKN050 10/05
                        Q1014 NOSIG=
201103020130 METAR LMML NIL=
201103020115 METAR LMML 020115Z 21004KT 160V240 9999 -RA FEW032 BKN060
                        09/06 Q1015 NOSIG=
201103020100 METAR LMML NIL=
201103020045 METAR LMML 020045Z 20007KT 160V220 9999 FEW035 SCT060 09/06
                        Q1015 NOSIG=
201103020030 METAR LMML NIL=
201103020015 METAR LMML 020015Z 21011KT 180V250 9999 FEW035 SCT050 11/05
                        Q1015 NOSIG=
201103020000 METAR LMML NIL=
201103012345 METAR LMML 012345Z 21009KT 180V250 9999 FEW035 SCT060 11/05
                        Q1014 NOSIG=
201103012315 METAR LMML 012315Z 21009KT 170V260 9999 FEW033 SCT050 11/05
                        Q1015 NOSIG=
201103012300 METAR LMML NIL=
201103012245 METAR LMML 012245Z 21008KT 170V270 9999 FEW032 SCT050 11/05
                        Q1014 NOSIG=
201103012230 METAR LMML NIL=
201103012215 METAR LMML 012215Z 21008KT 170V250 9999 SCT031 11/05 Q1014
                        NOSIG=
201103012145 METAR LMML 012145Z 22007KT 190V260 9999 FEW032 11/05 Q1014
                        NOSIG=
201103012130 METAR LMML NIL=
201103012115 METAR LMML 012115Z 21007KT 170V250 9999 FEW033 10/05 Q1014
                        NOSIG=
201103012100 METAR LMML NIL=
201103012045 METAR LMML 012045Z 23006KT 190V260 9999 FEW033 10/05 Q1014
                        NOSIG=
201103012030 METAR LMML NIL=
201103012015 METAR LMML 012015Z 23006KT 9999 FEW029 10/05 Q1014 NOSIG=
201103012000 METAR LMML NIL=
201103011945 METAR LMML 011945Z 23006KT 200V270 9999 FEW029 10/05 Q1014
                        NOSIG=
201103011915 METAR LMML 011915Z 23006KT 200V280 9999 FEW029 10/05 Q1014
                        NOSIG=
201103011900 METAR LMML NIL=
201103011845 METAR LMML 011845Z 24006KT 200V280 9999 FEW030 10/05 Q1014
                        NOSIG=
201103011830 METAR LMML NIL=
201103011815 METAR LMML 011815Z 25006KT 220V280 9999 FEW030 10/05 Q1014
                        NOSIG=
201103011800 METAR LMML NIL=
201103011745 METAR LMML 011745Z 26007KT 210V290 9999 FEW030 10/05 Q1013
                        NOSIG=
201103011730 METAR LMML NIL=
201103011715 METAR LMML 011715Z 27008KT 220V300 9999 FEW030 11/05 Q1013
                        NOSIG=
201103011700 METAR LMML NIL=
201103011645 METAR LMML 011645Z 27007KT 230V310 9999 FEW030 11/06 Q1012
                        NOSIG=
201103011630 METAR LMML NIL=
201103011615 METAR LMML 011615Z 27008KT 220V300 9999 FEW030 12/06 Q1012
                        NOSIG=
201103011600 METAR LMML NIL=
201103011545 METAR LMML 011545Z 26012KT 190V290 9999 FEW031 13/06 Q1012
                        NOSIG=
201103011530 METAR LMML NIL=
201103011515 METAR LMML 011515Z 27011KT 220V310 9999 SCT028 13/06 Q1012
                        NOSIG=
201103011500 METAR LMML NIL=
201103011445 METAR LMML 011445Z 27013KT 230V310 9999 SCT029 13/06 Q1011
                        NOSIG=
201103011430 METAR LMML NIL=
201103011415 METAR LMML 011415Z 27012KT 220V310 9999 SCT032 13/06 Q1011
                        NOSIG=
201103011400 METAR LMML NIL=
201103011345 METAR LMML 011345Z 27012KT 230V300 9999 SCT032 14/06 Q1011
                        NOSIG=
201103011330 METAR LMML NIL=
201103011315 METAR LMML 011315Z 29013KT 250V340 9999 SCT030 13/07 Q1011
                        NOSIG=
201103011300 METAR LMML NIL=
201103011245 METAR LMML 011245Z 29014KT 9999 SCT032 13/06 Q1011 NOSIG=
201103011230 METAR LMML NIL=
201103011215 METAR LMML 011215Z 28012KT 9999 SCT032 14/06 Q1011 NOSIG=
201103011200 METAR LMML NIL=
201103011145 METAR LMML 011145Z 29015KT 260V320 9999 SCT029 14/07 Q1011
                        NOSIG=
201103011130 METAR LMML NIL=
201103011115 METAR LMML 011115Z 27013KT 210V320 9999 SCT031 14/07 Q1011
                        NOSIG=
201103011100 METAR LMML NIL=
201103011045 METAR LMML 011045Z 29016KT 250V310 9999 SCT031 13/06 Q1011
                        NOSIG=
201103011030 METAR LMML NIL=
201103011015 METAR LMML 011015Z 30014KT 260V320 9999 FEW031 14/07 Q1011
                        NOSIG=
201103011000 METAR LMML NIL=
201103010945 METAR LMML 010945Z 29016KT 9999 FEW028 13/04 Q1011 NOSIG=
201103010930 METAR LMML NIL=
201103010915 METAR LMML 010915Z 29013KT 250V330 9999 FEW028 13/06 Q1011
                        NOSIG=
201103010900 METAR LMML NIL=
201103010845 METAR LMML 010845Z 30013KT 260V330 9999 SCT029 13/07 Q1011
                        NOSIG=
201103010830 METAR LMML NIL=
201103010815 METAR LMML 010815Z 29013KT 9999 FEW027 12/07 Q1011 NOSIG=
201103010800 METAR LMML NIL=
201103010745 METAR LMML 010745Z 30012KT 270V340 9999 FEW020 12/07 Q1011
                        NOSIG=
201103010715 METAR LMML 010715Z 31014KT 9999 FEW020 11/07 Q1010 NOSIG=
201103010700 METAR LMML NIL=
201103010645 METAR LMML 010645Z 31013KT 9999 FEW020 10/07 Q1010 NOSIG=
201103010630 METAR LMML NIL=
201103010615 METAR LMML 010615Z 31013KT 9999 FEW020 10/07 Q1010 NOSIG=
201103010600 METAR LMML NIL=
201103010545 METAR LMML 010545Z 30013KT 9999 FEW020 09/07 Q1010 NOSIG=
201103010530 METAR LMML NIL=
201103010515 METAR LMML 010515Z 31011KT 9999 SCT032 10/08 Q1009 NOSIG=
201103010500 METAR LMML NIL=
201103010445 METAR LMML 010445Z 30010KT 9999 SCT032 10/08 Q1009 NOSIG=
201103010430 METAR LMML NIL=
201103010415 METAR LMML 010415Z 31008KT 9999 SCT028 10/09 Q1009 NOSIG=
201103010400 METAR LMML NIL=
201103010345 METAR LMML 010345Z 31008KT 9999 BKN019 10/10 Q1009 NOSIG=
201103010330 METAR LMML NIL=
201103010315 METAR LMML 010315Z 31006KT 9999 SCT013 BKN019 10/10 Q1009
                        NOSIG=
201103010300 METAR LMML NIL=
201103010245 METAR LMML 010245Z 31007KT 9999 SCT012 BKN021 11/10 Q1009
                        TEMPO 9000 BKN012=
201103010230 METAR LMML NIL=
201103010215 METAR LMML 010215Z 32007KT 9999 FEW004 BKN018 11/11 Q1009
                        TEMPO BKN015=
201103010200 METAR LMML NIL=
201103010145 METAR LMML 010145Z 24003KT 9999 -SHRA FEW012 BKN019 13/12
                        Q1009 TEMPO 8000 SHRA BKN015=
201103010130 METAR LMML NIL=
201103010115 METAR LMML 010115Z 16007KT 130V200 7000 TSRA BKN022CB 13/12
                        Q1009 TEMPO 5000 TSRA BKN015CB=
201103010100 METAR LMML NIL=
201103010045 METAR LMML 010045Z 17008KT 130V190 9999 -SHRA BKN026 14/12
                        Q1010 TEMPO 8000 SHRA BKN015=
201103010030 METAR LMML NIL=
201103010015 METAR LMML 010015Z 18009KT 150V210 9999 BKN022 14/12 Q1010
                        TEMPO 8000 SHRA BKN015=
201103010000 METAR LMML NIL=
201102282345 METAR LMML 282345Z 18008KT 9999 BKN019 14/12 Q1010 TEMPO
                        8000 SHRA BKN015=
201102282330 METAR LMML NIL=
201102282315 METAR LMML 282315Z 20009KT 160V230 9999 BKN015 14/12 Q1011
                        NOSIG=
201102282300 METAR LMML NIL=
201102282245 METAR LMML 282245Z 20008KT 170V240 9999 -SHRA BKN015 14/12
                        Q1011 TEMPO 8000=
201102282230 METAR LMML NIL=
201102282215 METAR LMML 282215Z 16011KT 130V200 9999 FEW017 BKN080 13/11
                        Q1010 TEMPO 8000 RA RMK DISTANT LIGHTNING
                        TO NNW=
201102282200 METAR LMML NIL=
201102282145 METAR LMML 282145Z 15012KT 130V190 9999 -SHRA FEW020 SCT087
                        BKN110 13/11 Q1010 TEMPO 8000=
201102282130 METAR LMML NIL=
201102282115 METAR LMML 282115Z 16012KT 120V180 CAVOK 13/11 Q1010 BECMG
                        9999 FEW020=
201102282100 METAR LMML NIL=
201102282045 METAR LMML 282045Z 15010KT 9999 FEW019 SCT090 13/11 Q1010
                        NOSIG=
201102282030 METAR LMML NIL=
201102282015 METAR LMML 282015Z 15010KT 120V180 9999 FEW021 BKN060 BKN080
                        13/11 Q1011 TEMPO 8000 RA BKN015=
201102281945 METAR LMML 281945Z 15008KT 120V180 9999 FEW021 SCT060 BKN080
                        13/11 Q1011 TEMPO 8000 RA BKN015=
201102281930 METAR LMML NIL=
201102281915 METAR LMML 281915Z 14010KT 9999 SCT020 BKN080 13/11 Q1011
                        TEMPO 8000 RA BKN015=
201102281900 METAR LMML NIL=
201102281845 METAR LMML 281845Z 14012KT 9999 FEW022 SCT100 BKN120 13/11
                        Q1011 TEMPO 8000=
201102281830 METAR LMML NIL=
201102281815 METAR LMML 281815Z 14012KT 110V180 9999 -RA FEW022 SCT065
                        BKN090 13/11 Q1011 TEMPO 8000=
201102281800 METAR LMML NIL=
201102281745 METAR LMML 281745Z 15012KT 120V180 9999 RA FEW022 SCT060
                        OVC120 13/11 Q1012 TEMPO 8000=
201102281730 METAR LMML NIL=
201102281715 METAR LMML 281715Z 15012KT 110V170 9999 FEW025 SCT046 OVC120
                        13/10 Q1012 TEMPO 8000=
201102281700 METAR LMML NIL=
201102281645 METAR LMML 281645Z 15012KT 120V180 9999 FEW033 SCT060 OVC120
                        13/10 Q1012 NOSIG=
201102281630 METAR LMML NIL=
201102281615 METAR LMML 281615Z 15010KT 120V180 9999 FEW025 SCT080 OVC120
                        13/10 Q1012 NOSIG=
201102281600 METAR LMML NIL=
201102281545 METAR LMML 281545Z 15011KT 120V180 9999 FEW024 OVC120 13/09
                        Q1012 NOSIG=
201102281530 METAR LMML NIL=
201102281515 METAR LMML 281515Z 15011KT 9999 FEW024 OVC120 13/09 Q1012
                        NOSIG=
201102281500 METAR LMML NIL=
201102281445 METAR LMML 281445Z 15009KT 120V180 9999 FEW024 BKN120 14/09
                        Q1012 NOSIG=
201102281430 METAR LMML NIL=
201102281415 METAR LMML 281415Z 16009KT 9999 FEW024 BKN120 13/09 Q1013
                        NOSIG=
201102281400 METAR LMML NIL=
201102281345 METAR LMML 281345Z 16011KT 9999 FEW027 BKN120 14/10 Q1013
                        NOSIG=
201102281330 METAR LMML NIL=
201102281315 METAR LMML 281315Z 16009KT 130V190 9999 FEW024 BKN120 14/10
                        Q1013 NOSIG=
201102281300 METAR LMML NIL=
201102281245 METAR LMML 281245Z 16009KT 9999 FEW030 BKN120 14/10 Q1013
                        NOSIG=
201102281230 METAR LMML NIL=
201102281215 METAR LMML 281215Z 16008KT 130V190 9999 FEW036 BKN130 13/10
                        Q1014 NOSIG=
201102281145 METAR LMML 281145Z 16008KT 130V190 9999 -SHRA FEW036 BKN070
                        13/10 Q1014 NOSIG=
201102281130 METAR LMML NIL=
201102281115 METAR LMML 281115Z 16008KT 130V190 9999 FEW037 BKN070 13/09
                        Q1015 NOSIG=
201102281045 METAR LMML 281045Z 16010KT 130V190 9999 FEW025 BKN060 14/09
                        Q1015 NOSIG=
201102281030 METAR LMML NIL=
201102281015 METAR LMML 281015Z 16011KT 130V190 9999 FEW021 BKN060 14/10
                        Q1016 NOSIG=
201102281000 METAR LMML NIL=
201102280945 METAR LMML 280945Z 16008KT 130V200 9999 FEW025 BKN060 14/09
                        Q1016 NOSIG=
201102280915 METAR LMML 280915Z 16008KT 130V200 9999 SCT029 BKN050 13/09
                        Q1016 NOSIG=
201102280900 METAR LMML NIL=
201102280845 METAR LMML 280845Z 16007KT 100V200 9999 SCT026 BKN050 12/08
                        Q1016 NOSIG=
201102280830 METAR LMML NIL=
201102280815 METAR LMML 280815Z 17005KT 130V200 9999 FEW024 BKN050 11/08
                        Q1016 NOSIG=
201102280800 METAR LMML NIL=
201102280745 METAR LMML 280745Z 16005KT 130V190 8000 SCT026 BKN050 11/09
                        Q1016 NOSIG=
201102280730 METAR LMML NIL=
201102280715 METAR LMML 280715Z 16007KT 8000 -RA SCT024 BKN050 11/08 Q1016
                        NOSIG=
201102280700 METAR LMML NIL=
201102280645 METAR LMML 280645Z 15005KT 110V180 9000 -RA SCT025 BKN050
                        BKN090 10/08 Q1016 TEMPO 7000 RA
                        BKN011=
201102280630 METAR LMML NIL=
201102280615 METAR LMML 280615Z 17005KT 150V210 9000 -RA SCT025 BKN050
                        BKN090 10/08 Q1016 TEMPO 7000 RA
                        BKN011=
201102280600 METAR LMML NIL=
201102280545 METAR LMML 280545Z 18004KT 150V210 9000 -RA FEW010 SCT025
                        BKN090 10/08 Q1016 TEMPO 7000 RA
                        BKN011=
201102280530 METAR LMML NIL=
201102280515 METAR LMML 280515Z 17004KT 9999 FEW026 SCT048 BKN090 10/07
                        Q1016 NOSIG=
201102280445 METAR LMML 280445Z 20003KT 9999 SCT026 BKN090 10/07 Q1016
                        NOSIG=
201102280430 METAR LMML NIL=
201102280415 METAR LMML 280415Z 18003KT 9999 SCT027 BKN100 10/06 Q1015
                        NOSIG=
201102280400 METAR LMML NIL=
201102280345 METAR LMML 280345Z 18003KT 9999 FEW028 BKN100 10/06 Q1015
                        NOSIG=
201102280315 METAR LMML 280315Z 19003KT 9999 FEW026 SCT120 BKN250 10/06
                        Q1015 NOSIG=
201102280245 METAR LMML 280245Z 18003KT 9999 FEW026 SCT250 10/06 Q1015
                        NOSIG=
201102280230 METAR LMML NIL=
201102280215 METAR LMML 280215Z 19003KT 9999 SCT027 SCT250 08/06 Q1015
                        NOSIG=
201102280200 METAR LMML NIL=
201102280145 METAR LMML 280145Z VRB02KT 9999 FEW028 SCT250 07/06 Q1015
                        NOSIG=
201102280115 METAR LMML 280115Z VRB02KT 9999 FEW027 SCT250 07/06 Q1015
                        NOSIG=
201102280100 METAR LMML NIL=
201102280045 METAR LMML 280045Z VRB02KT 9999 FEW030 SCT250 08/06 Q1015
                        NOSIG=
201102280030 METAR LMML NIL=
201102280015 METAR LMML 280015Z 22004KT 9999 SCT028 SCT120 08/06 Q1016
                        NOSIG=
201102280000 METAR LMML NIL=
201102272345 METAR LMML 272345Z 21003KT CAVOK 07/05 Q1015 NOSIG=
201102272315 METAR LMML 272315Z 20003KT CAVOK 08/05 Q1015 NOSIG=
201102272300 METAR LMML NIL=
201102272245 METAR LMML 272245Z VRB02KT CAVOK 08/05 Q1016 NOSIG=
201102272230 METAR LMML NIL=
201102272215 METAR LMML 272215Z 24003KT CAVOK 07/05 Q1016 NOSIG=
201102272200 METAR LMML NIL=
201102272145 METAR LMML 272145Z VRB01KT CAVOK 08/05 Q1016 NOSIG=
201102272130 METAR LMML NIL=
201102272115 METAR LMML 272115Z 26004KT CAVOK 08/05 Q1016 NOSIG=
201102272100 METAR LMML NIL=
201102272045 METAR LMML 272045Z 26004KT CAVOK 08/05 Q1016 NOSIG=
201102272030 METAR LMML NIL=
201102272015 METAR LMML 272015Z 26004KT CAVOK 08/05 Q1017 NOSIG=
201102272000 METAR LMML NIL=
201102271945 METAR LMML 271945Z 28004KT CAVOK 09/05 Q1016 NOSIG=
201102271930 METAR LMML NIL=
201102271915 METAR LMML 271915Z 27004KT CAVOK 08/05 Q1016 NOSIG=
201102271900 METAR LMML NIL=
201102271845 METAR LMML 271845Z 26003KT CAVOK 08/05 Q1016 NOSIG=
201102271830 METAR LMML NIL=
201102271815 METAR LMML 271815Z 27004KT 240V300 9999 FEW030 SCT250 09/05
                        Q1016 NOSIG=
201102271800 METAR LMML NIL=
201102271745 METAR LMML 271745Z 29003KT 9999 FEW031 BKN250 10/05 Q1016
                        NOSIG=
201102271730 METAR LMML NIL=
201102271715 METAR LMML 271715Z 30004KT 9999 FEW031 BKN250 10/05 Q1016
                        NOSIG=
201102271645 METAR LMML 271645Z 29006KT 9999 FEW031 BKN250 11/05 Q1016
                        NOSIG=
201102271630 METAR LMML NIL=
201102271615 METAR LMML 271615Z 28006KT 9999 FEW031 BKN250 12/05 Q1015
                        NOSIG=
201102271600 METAR LMML NIL=
201102271545 METAR LMML 271545Z 28007KT 9999 FEW031 BKN250 12/05 Q1015
                        NOSIG=
201102271530 METAR LMML NIL=
201102271515 METAR LMML 271515Z 35007KT 310V020 9999 FEW031 BKN250 14/07
                        Q1015 NOSIG=
201102271445 METAR LMML 271445Z 35008KT 280V020 9999 FEW033 SCT040 13/07
                        Q1015 NOSIG=
201102271430 METAR LMML NIL=
201102271415 METAR LMML 271415Z 33006KT 300V360 9999 FEW032 BKN042 12/06
                        Q1015 NOSIG=
201102271400 METAR LMML NIL=
201102271345 METAR LMML 271345Z 32008KT 9999 SCT032 BKN040 12/07 Q1015
                        NOSIG=
201102271330 METAR LMML NIL=
201102271315 METAR LMML 271315Z 32008KT 9999 FEW033 BKN044 12/05 Q1015
                        NOSIG=
201102271300 METAR LMML NIL=
201102271245 METAR LMML 271245Z 31008KT 270V330 9999 FEW035 BKN045 13/06
                        Q1015 NOSIG=
201102271230 METAR LMML NIL=
201102271215 METAR LMML 271215Z 33010KT 290V010 9999 SCT038 14/05 Q1015
                        NOSIG=
201102271200 METAR LMML NIL=
201102271145 METAR LMML 271145Z 35010KT 290V030 9999 FEW038 14/05 Q1015
                        NOSIG=
201102271130 METAR LMML NIL=
201102271115 METAR LMML 271115Z 35009KT 310V020 9999 FEW034 14/06 Q1015
                        NOSIG=
201102271100 METAR LMML NIL=
201102271045 METAR LMML 271045Z 34009KT 310V020 9999 FEW034 14/05 Q1015
                        NOSIG=
201102271030 METAR LMML NIL=
201102271015 METAR LMML 271015Z 35012KT 310V020 9999 FEW034 13/05 Q1015
                        NOSIG=
201102271000 METAR LMML NIL=
201102270945 METAR LMML 270945Z 34012KT 9999 FEW033 12/05 Q1015 NOSIG=
201102270930 METAR LMML NIL=
201102270915 METAR LMML 270915Z 35010KT 320V020 9999 BKN035 12/06 Q1014
                        NOSIG=
201102270900 METAR LMML NIL=
201102270845 METAR LMML 270845Z 36012KT 330V030 9999 SCT035 12/05 Q1014
                        NOSIG=
201102270830 METAR LMML NIL=
201102270815 METAR LMML 270815Z 36014KT 330V030 9999 SCT033 11/05 Q1013
                        NOSIG=
201102270800 METAR LMML NIL=
201102270745 METAR LMML 270745Z 36012KT 9999 BKN032 10/05 Q1013 NOSIG=
201102270730 METAR LMML NIL=
201102270715 METAR LMML 270715Z 01014G26KT 340V050 9999 FEW020 BKN030
                        09/05 Q1013 TEMPO 8000 SHRA=
201102270700 METAR LMML NIL=
201102270645 METAR LMML 270645Z 36018G29KT 9999 FEW020 BKN028 09/05 Q1012
                        TEMPO 8000 SHRA=
201102270630 METAR LMML NIL=
201102270615 METAR LMML 270615Z 36019G29KT 9999 BKN025 08/05 Q1012 TEMPO
                        8000 SHRA SCT025TCU=
201102270600 METAR LMML NIL=
201102270545 METAR LMML 270545Z 36021G34KT 330V030 9999 BKN026 SCT070
                        08/05 Q1011 TEMPO 5000 SHRA SCT008
                        BKN012TCU=
201102270530 METAR LMML NIL=
201102270515 METAR LMML 270515Z 36023G35KT 9000 BKN027 SCT070 08/05 Q1010
                        TEMPO 5000 SHRA SCT008 BKN012TCU=
201102270500 METAR LMML NIL=
201102270445 METAR LMML 270445Z 35022KT 320V020 9000 BKN025TCU 08/05 Q1010
                        RERA TEMPO 5000 SHRA SCT008 BKN012TCU=
201102270430 METAR LMML NIL=
201102270415 METAR LMML 270415Z 35021G32KT 320V020 9000 -RA FEW009 BKN018TCU
                        07/05 Q1009 TEMPO 5000 SHRA SCT008
                        BKN012TCU=
201102270400 METAR LMML NIL=
201102270345 METAR LMML 270345Z 34020G36KT 7000 RA FEW009 BKN012TCU BKN020
                        06/06 Q1009 NOSIG=
201102270330 METAR LMML NIL=
201102270315 METAR LMML 270315Z 34022G33KT 6000 RA FEW008 BKN011TCU 06/06
                        Q1009 NOSIG=
201102270304 SPECI LMML 270304Z 34021G33KT 7000 SHRA BKN010TCU SCT020
                        06/06 Q1009 NOSIG=
201102270300 METAR LMML NIL=
201102270245 METAR LMML 270245Z 33021G32KT 9999 -SHRA SCT012 BKN020 06/05
                        Q1008 NOSIG=
201102270230 METAR LMML NIL=
201102270215 METAR LMML 270215Z 33019KT 9999 -SHRA SCT015 BKN090 06/04
                        Q1008 NOSIG=
201102270200 METAR LMML NIL=
201102270145 METAR LMML 270145Z 33017KT 9999 FEW016 BKN090 06/04 Q1009
                        NOSIG=
201102270130 METAR LMML NIL=
201102270115 METAR LMML 270115Z 34019KT 9999 FEW018 BKN090 06/03 Q1009
                        NOSIG=
201102270100 METAR LMML NIL=
201102270045 METAR LMML 270045Z 32012KT 290V360 9999 FEW017 SCT032 06/04
                        Q1009 RESHRA NOSIG=
201102270030 METAR LMML NIL=
201102270015 METAR LMML 270015Z 32009KT 9999 FEW030 SCT050 05/02 Q1009
                        NOSIG=
201102270000 METAR LMML NIL=
201102262345 METAR LMML 262345Z 32011KT 9999 FEW030 SCT050 06/02 Q1009
                        NOSIG=
201102262330 METAR LMML NIL=
201102262315 METAR LMML 262315Z 32010KT 9999 FEW030 SCT050 05/03 Q1010
                        NOSIG=
201102262300 METAR LMML NIL=
201102262245 METAR LMML 262245Z 27004KT 240V310 9999 FEW029 SCT049 04/02
                        Q1010 NOSIG=
201102262230 METAR LMML NIL=
201102262215 METAR LMML 262215Z 32007KT 9999 FEW023 SCT040 04/02 Q1010
                        NOSIG=
201102262200 METAR LMML NIL=
201102262145 METAR LMML 262145Z 31009KT 9999 FEW024 SCT040 05/03 Q1011
                        NOSIG=
201102262130 METAR LMML NIL=
201102262115 METAR LMML 262115Z 31008KT 9999 FEW017 SCT040 05/02 Q1011
                        TEMPO SHRA=
201102262100 METAR LMML NIL=
201102262045 METAR LMML 262045Z 31004KT 9999 FEW025 SCT120 05/03 Q1011
                        TEMPO SHRA=
201102262030 METAR LMML NIL=
201102262015 METAR LMML 262015Z 32007KT 9999 FEW021 SCT080 BKN120 05/03
                        Q1011 TEMPO SHRA=
201102262000 METAR LMML NIL=
201102261945 METAR LMML 261945Z 30007KT 9999 FEW021 SCT090 05/03 Q1011
                        TEMPO SHRA=
201102261930 METAR LMML NIL=
201102261915 METAR LMML 261915Z 30009KT 9999 FEW021 SCT070 BKN110 05/03
                        Q1011 TEMPO SHRA=
201102261900 METAR LMML NIL=
201102261845 METAR LMML 261845Z 31009KT 9999 FEW021 BKN080 05/03 Q1011
                        NOSIG=
201102261830 METAR LMML NIL=
201102261815 METAR LMML 261815Z 33007KT 9999 FEW019 SCT060 BKN090 05/04
                        Q1011 NOSIG=
201102261745 METAR LMML 261745Z 34009KT 310V010 7000 -RA BKN013 OVC033
                        05/04 Q1011 RERA TEMPO 5000 BKN013=
201102261730 METAR LMML NIL=
201102261715 METAR LMML 261715Z 34011KT 6000 -RA FEW011 BKN014 OVC024
                        05/04 Q1011 RERA TEMPO 5000 BKN013=
201102261700 METAR LMML NIL=
201102261645 METAR LMML 261645Z 34012KT 6000 RA BKN013 BKN024 05/04 Q1011
                        TEMPO 5000 BKN013=
201102261630 METAR LMML NIL=
201102261615 METAR LMML 261615Z 34013KT 6000 RA FEW009 BKN014 OVC027 06/04
                        Q1011 TEMPO 5000 BKN013=
201102261600 METAR LMML NIL=
201102261545 METAR LMML 261545Z 34007KT 6000 -RA SCT007 BKN014 OVC026
                        07/06 Q1011 RERA NOSIG=
201102261530 METAR LMML NIL=
201102261515 METAR LMML 261515Z 34008KT 4000 RA SCT007 BKN014 OVC021 07/06
                        Q1011 NOSIG=
201102261500 METAR LMML NIL=
201102261445 METAR LMML 261445Z 30012KT 250V330 4000 RA FEW007 BKN013
                        OVC030 07/07 Q1011 NOSIG=
201102261430 METAR LMML NIL=
201102261415 METAR LMML 261415Z 27015KT 230V300 6000 RA FEW009 BKN019
                        OVC030 08/06 Q1011 RESHRA NOSIG=
201102261400 METAR LMML NIL=
201102261345 METAR LMML 261345Z 25013KT 200V300 6000 -RA FEW009 SCT017
                        BKN040 09/07 Q1011 RESHRA NOSIG=
201102261330 METAR LMML NIL=
201102261315 METAR LMML 261315Z 23008KT 190V270 6000 SHRA SCT015 OVC038
                        09/07 Q1011 NOSIG=
201102261300 METAR LMML NIL=
201102261245 METAR LMML 261245Z 26018KT 210V310 6000 SHRA BKN015 FEW021
                        09/07 Q1012 NOSIG=
201102261230 METAR LMML NIL=
201102261215 METAR LMML 261215Z 23011KT 200V280 9999 SCT029 SCT050 12/06
                        Q1012 NOSIG=
201102261200 METAR LMML NIL=
201102261145 METAR LMML 261145Z 24010KT 190V280 9999 FEW028 SCT050 13/06
                        Q1012 NOSIG=
201102261115 METAR LMML 261115Z 24008KT 200V290 9999 FEW028 BKN050 11/06
                        Q1013 NOSIG=
201102261100 METAR LMML NIL=
201102261045 METAR LMML 261045Z 24008KT 190V280 9999 FEW028 BKN250 12/06
                        Q1013 NOSIG=
201102261030 METAR LMML NIL=
201102261015 METAR LMML 261015Z 23008KT 190V280 9999 SCT027 13/06 Q1014
                        NOSIG=
201102261000 METAR LMML NIL=
201102260945 METAR LMML 260945Z 23006KT 180V300 9999 SCT030 SCT110 13/06
                        Q1014 NOSIG=
201102260930 METAR LMML NIL=
201102260915 METAR LMML 260915Z 04003KT 9999 FEW025 BKN090 12/06 Q1015
                        NOSIG=
201102260900 METAR LMML NIL=
201102260845 METAR LMML 260845Z 34006KT 310V020 9000 FEW031 BKN080 09/05
                        Q1015 NOSIG=
201102260830 METAR LMML NIL=
201102260815 METAR LMML 260815Z 24003KT 9000 FEW030 BKN090 10/05 Q1015
                        NOSIG=
201102260800 METAR LMML NIL=
201102260745 METAR LMML 260745Z VRB02KT 9999 FEW025 BKN090 10/04 Q1015
                        NOSIG=
201102260730 METAR LMML NIL=
201102260715 METAR LMML 260715Z 30004KT 9999 FEW025 SCT090 10/03 Q1016
                        NOSIG=
201102260700 METAR LMML NIL=
201102260645 METAR LMML 260645Z 31006KT 9999 FEW020 08/03 Q1015 NOSIG=
201102260630 METAR LMML NIL=
201102260615 METAR LMML 260615Z 31007KT 280V340 9999 FEW020 07/02 Q1015
                        NOSIG=
201102260600 METAR LMML NIL=
201102260545 METAR LMML 260545Z 29006KT 9999 FEW020 07/01 Q1015 NOSIG=
201102260530 METAR LMML NIL=
201102260515 METAR LMML 260515Z 29009KT 9999 FEW020 07/01 Q1015 NOSIG=
201102260500 METAR LMML NIL=
201102260445 METAR LMML 260445Z 29008KT 9999 FEW030 06/01 Q1015 NOSIG=
201102260430 METAR LMML NIL=
201102260415 METAR LMML 260415Z 30007KT 9999 FEW030 06/01 Q1015 NOSIG=
201102260400 METAR LMML NIL=
201102260345 METAR LMML 260345Z 29007KT 9999 FEW030 06/01 Q1015 NOSIG=
201102260330 METAR LMML NIL=
201102260315 METAR LMML 260315Z 30009KT 9999 FEW030 06/01 Q1015 NOSIG=
201102260300 METAR LMML NIL=
201102260245 METAR LMML 260245Z 32008KT 9999 FEW030 06/00 Q1015 NOSIG=
201102260230 METAR LMML NIL=
201102260215 METAR LMML 260215Z 31010KT 9999 FEW030 06/01 Q1015 NOSIG=
201102260200 METAR LMML NIL=
201102260145 METAR LMML 260145Z 31011KT 9999 FEW030 07/01 Q1015 NOSIG=
201102260130 METAR LMML NIL=
201102260115 METAR LMML 260115Z 32010KT 9999 FEW030 07/02 Q1016 NOSIG=
201102260100 METAR LMML NIL=
201102260045 METAR LMML 260045Z 31009KT 9999 FEW034 07/04 Q1016 NOSIG=
201102260030 METAR LMML NIL=
201102260015 METAR LMML 260015Z 31009KT 9999 FEW034 07/04 Q1016 NOSIG=
201102252345 METAR LMML 252345Z 29006KT 270V340 9999 SCT030 SCT060 08/04
                        Q1016 NOSIG=
201102252315 METAR LMML 252315Z 27004KT 9999 SCT030 SCT042 06/05 Q1016
                        NOSIG=
201102252300 METAR LMML NIL=
201102252245 METAR LMML 252245Z 29004KT 9999 FEW025 06/04 Q1016 NOSIG=
201102252230 METAR LMML NIL=
201102252215 METAR LMML 252215Z 29003KT 9999 FEW025 07/04 Q1016 NOSIG=
201102252200 METAR LMML NIL=
201102252145 METAR LMML 252145Z 24003KT 9999 FEW025 06/05 Q1015 NOSIG=
201102252130 METAR LMML NIL=
201102252115 METAR LMML 252115Z VRB01KT 9999 FEW025 07/04 Q1016 NOSIG=
201102252104 SPECI LMML 252104Z 34004KT 9999 FEW025 BKN080 08/04 Q1016
                        NOSIG=
201102252045 METAR LMML 252045Z 34004KT 9999 FEW025 BKN080 08/04 Q1015
                        NOSIG=
201102252030 METAR LMML NIL=
201102252015 METAR LMML 252015Z 36003KT 9999 FEW025 BKN070 08/04 Q1015
                        NOSIG=
201102252000 METAR LMML NIL=
201102251945 METAR LMML 251945Z VRB02KT 9999 FEW025 BKN070 09/04 Q1015
                        NOSIG=
201102251930 METAR LMML NIL=
201102251915 METAR LMML 251915Z 06004KT 030V100 9999 FEW025 SCT060 BKN100
                        09/05 Q1015 NOSIG=
201102251845 METAR LMML 251845Z 02003KT 9999 FEW025 BKN070 09/04 Q1014
                        NOSIG=
201102251830 METAR LMML NIL=
201102251815 METAR LMML 251815Z 08003KT 9999 FEW025 SCT050 BKN070 09/04
                        Q1014 NOSIG=
201102251800 METAR LMML NIL=
201102251745 METAR LMML 251745Z 06004KT 030V110 9999 FEW023 SCT050 BKN070
                        09/03 Q1014 NOSIG=
201102251730 METAR LMML NIL=
201102251715 METAR LMML 251715Z 05007KT 010V080 9999 FEW023 SCT050 BKN070
                        09/04 Q1014 NOSIG=
201102251645 METAR COR LMML 251645Z 04009KT 9999 SCT023 BKN070 09/05 Q1014
                        NOSIG=
201102251630 METAR LMML NIL=
201102251615 METAR LMML 251615Z 04005KT 010V080 9999 FEW025 SCT039 BKN080
                        10/05 Q1013 NOSIG=
201102251600 METAR LMML NIL=
201102251545 METAR LMML 251545Z 36006KT 330V030 9999 FEW037 BKN070 10/03
                        Q1013 NOSIG=
201102251530 METAR LMML NIL=
201102251515 METAR LMML 251515Z 35006KT 310V030 9999 FEW037 BKN070 10/03
                        Q1013 NOSIG=
201102251500 METAR LMML NIL=
201102251445 METAR LMML 251445Z 34008KT 300V010 9999 FEW037 BKN080 11/03
                        Q1013 NOSIG=
201102251430 METAR LMML NIL=
201102251415 METAR LMML 251415Z 34006KT 290V010 9999 FEW037 BKN080 10/03
                        Q1013 NOSIG=
201102251400 METAR LMML NIL=
201102251345 METAR LMML 251345Z 33007KT 9999 SCT037 BKN070 10/03 Q1013
                        NOSIG=
201102251330 METAR LMML NIL=
201102251315 METAR LMML 251315Z 33008KT 310V010 9999 SCT039 BKN070 10/03
                        Q1013 NOSIG=
201102251300 METAR LMML NIL=
201102251245 METAR LMML 251245Z 33008KT 300V020 9999 SCT040 BKN060 10/02
                        Q1013 NOSIG=
201102251230 METAR LMML NIL=
201102251215 METAR LMML 251215Z 33005KT 290V020 9999 FEW040 SCT050 BKN070
                        11/02 Q1013 NOSIG=
201102251200 METAR LMML NIL=
201102251145 METAR LMML 251145Z 32006KT 270V360 9999 FEW030 BKN070 12/00
                        Q1013 NOSIG=
201102251130 METAR LMML NIL=
201102251115 METAR LMML 251115Z 30008KT 250V360 9999 FEW030 BKN070 12/01
                        Q1014 NOSIG=
201102251100 METAR LMML NIL=
201102251045 METAR LMML 251045Z 33007KT 290V010 9999 FEW030 BKN060 12/02
                        Q1014 NOSIG=
201102251030 METAR LMML NIL=
201102251015 METAR LMML 251015Z 33008KT 300V360 9999 FEW030 BKN060 11/02
                        Q1014 NOSIG=
201102251000 METAR LMML NIL=
201102250945 METAR LMML 250945Z 31010KT 280V340 9999 FEW030 BKN060 10/03
                        Q1014 NOSIG=
201102250930 METAR LMML NIL=
201102250915 METAR LMML 250915Z 30009KT 260V330 9999 FEW030 BKN060 10/02
                        Q1014 NOSIG=
201102250900 METAR LMML NIL=
201102250845 METAR LMML 250845Z 31008KT 9999 FEW030 BKN060 10/02 Q1014
                        NOSIG=
201102250830 METAR LMML NIL=
201102250815 METAR LMML 250815Z 31010KT 9999 FEW030 BKN060 10/02 Q1014
                        NOSIG=
201102250800 METAR LMML NIL=
201102250745 METAR LMML 250745Z 30012KT 9999 FEW030 BKN060 10/02 Q1014
                        NOSIG=
201102250730 METAR LMML NIL=
201102250715 METAR LMML 250715Z 31010KT 9999 FEW025 BKN060 09/03 Q1014=
201102250700 METAR LMML NIL=
201102250645 METAR LMML 250645Z 29007KT 9999 FEW025 BKN050 08/02 Q1014
                        NOSIG=
201102250630 METAR LMML NIL=
201102250615 METAR LMML 250615Z 30007KT 9999 FEW025 BKN050 08/02 Q1013
                        NOSIG=
201102250600 METAR LMML NIL=
201102250545 METAR LMML 250545Z 29007KT 9999 FEW040 BKN053 08/03 Q1013
                        NOSIG=
201102250530 METAR LMML NIL=
201102250515 METAR LMML 250515Z 29007KT 9999 BKN048 08/02 Q1013 NOSIG=
201102250500 METAR LMML NIL=
201102250445 METAR LMML 250445Z 30008KT 9999 BKN040 08/02 Q1013 NOSIG=
201102250430 METAR LMML NIL=
201102250415 METAR LMML 250415Z 30008KT 9999 BKN038 07/02 Q1013 NOSIG=
201102250400 METAR LMML NIL=
201102250345 METAR LMML 250345Z 30006KT CAVOK 06/02 Q1013 NOSIG=
201102250330 METAR LMML NIL=
201102250315 METAR LMML 250315Z 31007KT 9999 FEW038 07/02 Q1013 NOSIG=
201102250300 METAR LMML NIL=
201102250245 METAR LMML 250245Z 31008KT 280V340 9999 FEW038 07/02 Q1013
                        NOSIG=
201102250230 METAR LMML NIL=
201102250215 METAR LMML 250215Z 32008KT 9999 SCT039 07/02 Q1013 NOSIG=
201102250200 METAR LMML NIL=
201102250145 METAR LMML 250145Z 33010KT 300V360 9999 FEW039 08/01 Q1014
                        NOSIG=
201102250130 METAR LMML NIL=
201102250115 METAR LMML 250115Z 33011KT 9999 SCT040 08/02 Q1014 NOSIG=
201102250100 METAR LMML NIL=
201102250045 METAR LMML 250045Z 32012KT 9999 SCT039 08/02 Q1014 NOSIG=
201102250030 METAR LMML NIL=
201102250015 METAR LMML 250015Z 32012KT 290V350 9999 SCT040 08/02 Q1014
                        NOSIG=
201102242345 METAR LMML 242345Z 32011KT 9999 SCT040 08/01 Q1014 NOSIG=
201102242330 METAR LMML NIL=
201102242315 METAR LMML 242315Z 32010KT 290V350 9999 SCT038 08/02 Q1014
                        NOSIG=
201102242300 METAR LMML NIL=
201102242245 METAR LMML 242245Z 33012KT 9999 FEW037 08/02 Q1014 NOSIG=
201102242230 METAR LMML NIL=
201102242215 METAR LMML 242215Z 33012KT 9999 FEW039 08/02 Q1014 NOSIG=
201102242200 METAR LMML NIL=
201102242145 METAR LMML 242145Z 32014KT 9999 FEW039 08/01 Q1014 NOSIG=
201102242130 METAR LMML NIL=
201102242115 METAR LMML 242115Z 33012KT 9999 SCT038 08/02 Q1014 NOSIG=
201102242100 METAR LMML NIL=
201102242045 METAR LMML 242045Z 33016KT 9999 FEW040 08/01 Q1014 NOSIG=
201102242030 METAR LMML NIL=
201102242015 METAR LMML 242015Z 33016KT 9999 FEW040 08/00 Q1014 NOSIG=
201102242000 METAR LMML NIL=
201102241945 METAR LMML 241945Z 33016KT 9999 FEW043 08/00 Q1014 NOSIG=
201102241930 METAR LMML NIL=
201102241915 METAR LMML 241915Z 33015KT 9999 FEW043 08/01 Q1013 NOSIG=
201102241900 METAR LMML NIL=
201102241845 METAR LMML 241845Z 33016KT 9999 FEW032 09/00 Q1013 NOSIG=
201102241830 METAR LMML NIL=
201102241815 METAR LMML 241815Z 31014KT 9999 BKN032 09/03 Q1013 NOSIG=
201102241800 METAR LMML NIL=
201102241745 METAR LMML 241745Z 32018KT 9999 SCT030 09/03 Q1013 NOSIG=
201102241715 METAR LMML 241715Z 32013KT 290V350 9999 SCT034 SCT060 09/04
                        Q1012 NOSIG=
201102241700 METAR LMML NIL=
201102241645 METAR LMML 241645Z 31017KT 9999 SCT038 SCT070 09/04 Q1012
                        NOSIG=
201102241630 METAR LMML NIL=
201102241615 METAR LMML 241615Z 31018KT 9999 FEW033 SCT060 09/04 Q1012
                        NOSIG=
201102241600 METAR LMML NIL=
201102241545 METAR LMML 241545Z 30013KT 9999 -SHRA SCT020 SCT050 09/04
                        Q1012 NOSIG=
201102241530 METAR LMML NIL=
201102241515 METAR LMML 241515Z 30016KT 270V330 9999 FEW037 SCT080 09/03
                        Q1012 NOSIG=
201102241500 METAR LMML NIL=
201102241445 METAR LMML 241445Z 31019KT 280V340 9999 SCT037 10/03 Q1012
                        NOSIG=
201102241430 METAR LMML NIL=
201102241415 METAR LMML 241415Z 32019KT 290V350 9999 SCT038 10/03 Q1011
                        NOSIG=
201102241400 METAR LMML NIL=
201102241345 METAR LMML 241345Z 32022KT 290V350 9999 SCT038 11/03 Q1011
                        NOSIG=
201102241330 METAR LMML NIL=
201102241315 METAR LMML 241315Z 32021KT 290V350 9999 SCT034 11/04 Q1011
                        NOSIG=
201102241300 METAR LMML NIL=
201102241245 METAR LMML 241245Z 32020G30KT 9999 SCT036 11/04 Q1011 NOSIG=
201102241230 METAR LMML NIL=
201102241215 METAR LMML 241215Z 32022KT 9999 SCT033 11/04 Q1011 NOSIG=
201102241145 METAR LMML 241145Z 32021KT 9999 SCT032 11/05 Q1012 NOSIG=
201102241130 METAR LMML NIL=
201102241115 METAR LMML 241115Z 32020KT 9999 SCT030 10/04 Q1011 TEMPO
                        8000 SHRA=
201102241100 METAR LMML NIL=
201102241045 METAR LMML 241045Z 31018KT 9999 SCT028TCU 10/06 Q1011 TEMPO
                        8000 SHRA=
201102241030 METAR LMML NIL=
201102241015 METAR LMML 241015Z 32019KT 9999 BKN029TCU SCT050 09/05 Q1011
                        REGR TEMPO 8000 SHRA=
201102241000 METAR LMML NIL=
201102240945 METAR LMML 240945Z 31018KT 280V350 9999 BKN029TCU SCT045
                        09/05 Q1011 REGR TEMPO 3000 TSGR
                        BKN020CB=
201102240930 METAR LMML NIL=
201102240915 METAR LMML 240915Z 29019G31KT 260V320 5000 TS SCT020CB BKN032
                        08/05 Q1011 TEMPO 3000 TSGR BKN020CB=
201102240910 SPECI LMML 240910Z 30020G31KT 5000 TSGR SCT020CB BKN025TCU
                        08/05 Q1011 TEMPO 3000 TSGR BKN020CB=
201102240900 METAR LMML NIL=
201102240845 METAR LMML 240845Z 31017KT 9999 BKN024TCU SCT060 09/06 Q1011
                        TEMPO 8000 SHRA RMK CB TO WEST=
201102240830 METAR LMML NIL=
201102240815 METAR LMML 240815Z 33017KT 300V010 9999 BKN034 SCT060 09/05
                        Q1010 TEMPO 8000 SHRA=
201102240800 METAR LMML NIL=
201102240745 METAR LMML 240745Z 33016KT 9999 BKN030TCU 09/05 Q1010 TEMPO
                        8000 SHRA BKN015TCU=
201102240730 METAR LMML NIL=
201102240715 METAR LMML 240715Z 33016KT 9999 BKN032TCU SCT060 08/05 Q1010
                        TEMPO 8000 SHRA BKN015TCU=
201102240700 METAR LMML NIL=
201102240645 METAR LMML 240645Z 33010KT 290V010 9999 SHRA BKN027TCU SCT150
                        07/06 Q1010 TEMPO TSGR 4000 BKN015CB=
201102240630 METAR LMML NIL=
201102240615 METAR LMML 240615Z 32016KT 290V010 6000 SHRA BKN020 06/05
                        Q1010 TEMPO 4000 TSGR BKN015CB=
201102240600 METAR LMML NIL=
201102240545 METAR LMML 240545Z 30017KT 6000 -SHRA SCT028 SCT110 07/05
                        Q1009 TEMPO 5000 TSGR BKN015CB=
201102240530 METAR LMML NIL=
201102240515 METAR LMML 240515Z 33017KT 300V360 9999 -RA SCT028 SCT040
                        BKN110 08/05 Q1009 TEMPO 8000 SHRA=
201102240500 METAR LMML NIL=
201102240445 METAR LMML 240445Z 31017KT 9999 BKN028 SCT110 09/06 Q1009
                        TEMPO 8000 SHRA=
201102240430 METAR LMML NIL=
201102240415 METAR LMML 240415Z 30015KT 9999 SCT029 BKN110 09/06 Q1009
                        TEMPO 8000 SHRA=
201102240400 METAR LMML NIL=
201102240345 METAR LMML 240345Z 31015KT 280V340 9999 FEW032 BKN080 09/04
                        Q1008 TEMPO 8000 SHRA=
201102240330 METAR LMML NIL=
201102240315 METAR LMML 240315Z 31015KT 9999 FEW028 BKN080 09/05 Q1008
                        TEMPO 8000 SHRA=
201102240300 METAR LMML NIL=
201102240245 METAR LMML 240245Z 31015G25KT 9999 FEW030 BKN070 09/05 Q1008
                        TEMPO 8000 SHRA=
201102240230 METAR LMML NIL=
201102240215 METAR LMML 240215Z 32020KT 9999 FEW034 SCT045 BKN070 09/05
                        Q1008 TEMPO 8000 SHRA=
201102240200 METAR LMML NIL=
201102240145 METAR LMML 240145Z 31021G31KT 9999 FEW033 SCT050 BKN090 09/05
                        Q1009 TEMPO 8000 SHRA=
201102240130 METAR LMML NIL=
201102240115 METAR LMML 240115Z 32017KT 9999 SCT032 SCT060 BKN090 10/05
                        Q1008 TEMPO 8000 SHRA=
201102240100 METAR LMML NIL=
201102240045 METAR LMML 240045Z 33015G26KT 9999 SCT036 SCT046 BKN090 10/04
                        Q1009 TEMPO 8000 SHRA=
201102240015 METAR LMML 240015Z 33017KT 9999 FEW036 SCT060 BKN090 10/04
                        Q1009 TEMPO 8000 SHRA=
201102240000 METAR LMML NIL=
201102232345 METAR LMML 232345Z 34012G22KT 300V010 9999 SCT030 BKN050
                        10/06 Q1008 TEMPO 8000 SHRA=
201102232330 METAR LMML NIL=
201102232315 METAR LMML 232315Z 34017KT 9999 SCT029 BKN050 10/05 Q1008
                        TEMPO 8000 SHRA=
201102232300 METAR LMML NIL=
201102232245 METAR LMML 232245Z 34017KT 9999 SCT025 BKN050 10/06 Q1008
                        TEMPO 8000 SHRA=
201102232215 METAR LMML 232215Z 33016G26KT 9999 SCT024 BKN050 09/06 Q1008
                        TEMPO 8000 SHRA=
201102232200 METAR LMML NIL=
201102232145 METAR LMML 232145Z 34019KT 9999 SCT020 BKN040 10/07 Q1008
                        TEMPO 8000 SHRA=
201102232130 METAR LMML NIL=
201102232115 METAR LMML 232115Z 34013G23KT 9999 -SHRA BKN017 BKN034 09/08
                        Q1008 TEMPO 8000=
201102232100 METAR LMML NIL=
201102232045 METAR LMML 232045Z 33015KT 9999 BKN016 SCT040 09/08 Q1007
                        TEMPO 8000 SHRA=
201102232030 METAR LMML NIL=
201102232015 METAR LMML 232015Z 36017G28KT 340V040 9999 BKN016 10/08 Q1007
                        TEMPO 8000 SHRA=
201102232000 METAR LMML NIL=
201102231945 METAR LMML 231945Z 36021G33KT 9999 BKN016 10/08 Q1006 TEMPO
                        8000 SHRA=
201102231930 METAR LMML NIL=
201102231915 METAR LMML 231915Z 36016G30KT 320V030 9999 SCT017 11/08 Q1005
                        TEMPO 8000 SHRA=
201102231845 METAR LMML 231845Z 35008KT 310V020 9999 SCT025 11/08 Q1005
                        TEMPO 8000 SHRA=
201102231830 METAR LMML NIL=
201102231815 METAR LMML 231815Z 34008KT 9999 SCT022 11/08 Q1004 TEMPO
                        8000 SHRA=
201102231800 METAR LMML NIL=
201102231745 METAR LMML 231745Z 34008KT 9999 SCT021 11/08 Q1003 TEMPO
                        8000 SHRA=
201102231730 METAR LMML NIL=
201102231715 METAR LMML 231715Z 34007KT 9999 SCT019 11/09 Q1003 TEMPO
                        8000 SHRA RMK CB TOPS TO SW=
201102231700 METAR LMML NIL=
201102231645 METAR LMML 231645Z 34007KT 9999 FEW017TCU SCT020 SCT250 11/09
                        Q1003 TEMPO 8000 SHRA=
201102231615 METAR LMML 231615Z 34007KT 280V010 9999 -SHRA BKN020 BKN250
                        11/10 Q1002 TEMPO 8000 SHRA BKN018TCU=
201102231600 METAR LMML NIL=
201102231545 METAR LMML 231545Z 32008KT 280V360 9000 -SHRA BKN020 SCT250
                        12/09 Q1002 TEMPO 8000 SHRA BKN018TCU=
201102231530 METAR LMML NIL=
201102231515 METAR LMML 231515Z 30006KT 270V330 9999 BKN020 SCT250 13/08
                        Q1002 TEMPO 8000 SHRA BKN018TCU=
201102231500 METAR LMML NIL=
201102231445 METAR LMML 231445Z 31006KT 9999 -SHRA BKN019TCU 12/10 Q1001
                        NOSIG=
201102231430 METAR LMML NIL=
201102231415 METAR LMML 231415Z 25009KT 210V290 9999 SCT023 14/09 Q1001
                        TEMPO 8000 SHRA=
201102231400 METAR LMML NIL=
201102231345 METAR LMML 231345Z 25008KT 210V290 9999 BKN021TCU 13/09 Q1001
                        TEMPO 8000 SHRA=
201102231330 METAR LMML NIL=
201102231315 METAR LMML 231315Z 23009KT 190V270 9999 SCT021TCU 13/10 Q1001
                        TEMPO 8000 SHRA=
201102231300 METAR LMML NIL=
201102231245 METAR LMML 231245Z 26009KT 200V300 9999 SCT023TCU SCT250
                        13/10 Q1002 TEMPO 6000 SHRA=
201102231230 METAR LMML NIL=
201102231215 METAR LMML 231215Z 26009KT 210V290 9999 BKN023 SCT250 13/09
                        Q1002 NOSIG=
201102231200 METAR LMML NIL=
201102231145 METAR LMML 231145Z 27012KT 240V300 9999 FEW024 SCT250 14/08
                        Q1003 NOSIG=
201102231115 METAR LMML 231115Z 28013KT 240V320 9999 SCT026 BKN250 13/09
                        Q1003 TEMPO 8000 SHRA SCT020TCU=
201102231100 METAR LMML NIL=
201102231045 METAR LMML 231045Z 26014KT 220V300 9999 FEW024 BKN250 13/08
                        Q1003 TEMPO 8000 SHRA SCT020TCU=
201102231030 METAR LMML NIL=
201102231015 METAR LMML 231015Z 25009KT 210V280 9999 FEW025 BKN250 11/08
                        Q1003 TEMPO 8000 SHRA SCT020TCU=
201102231000 METAR LMML NIL=
201102230945 METAR LMML 230945Z 27015KT 240V300 9999 FEW025 SCT250 13/08
                        Q1003 TEMPO 8000 SHRA SCT020TCU=
201102230930 METAR LMML NIL=
201102230915 METAR LMML 230915Z 27012KT 220V310 9999 FEW025 SCT250 13/08
                        Q1003 TEMPO 8000 SHRA SCT020TCU=
201102230900 METAR LMML NIL=
201102230845 METAR LMML 230845Z 27010KT 230V290 9999 FEW025 BKN250 12/08
                        Q1003 TEMPO 8000 SHRA SCT020TCU=
201102230830 METAR LMML NIL=
201102230815 METAR LMML 230815Z 27009KT 220V300 9999 FEW024TCU BKN250
                        11/08 Q1003 TEMPO 5000 SHRA SCT010
                        BKN015CB=
201102230800 METAR LMML NIL=
201102230745 METAR LMML 230745Z 29012KT 9999 SCT024TCU BKN250 11/09 Q1003
                        TEMPO 5000 SHRA SCT010 BKN015CB=
201102230730 METAR LMML NIL=
201102230715 METAR LMML 230715Z 27010KT 240V310 9999 SCT024TCU BKN250
                        12/08 Q1003 TEMPO 5000 SHRA SCT010
                        BKN015CB=
201102230700 METAR LMML NIL=
201102230645 METAR LMML 230645Z 28011KT 240V310 9999 BKN025TCU BKN250
                        10/08 Q1003 TEMPO 5000 SHRA SCT010
                        BKN015CB=
201102230630 METAR LMML NIL=
201102230615 METAR LMML 230615Z 28013KT 250V310 9999 -SHRA BKN025 BKN250
                        10/08 Q1003 TEMPO 8000 SHRA FEW008
                        SCT020TCU=
201102230600 METAR LMML NIL=
201102230545 METAR LMML 230545Z 28008KT 250V320 9999 FEW019 SCT120 BKN250
                        10/08 Q1002 TEMPO 5000 SHRA FEW008
                        BKN015TCU=
201102230530 METAR LMML NIL=
201102230515 METAR LMML 230515Z 28008KT 240V320 9999 FEW017 BKN120 10/09
                        Q1002 TEMPO 5000 SHRA FEW008 BKN015TCU=
201102230500 METAR LMML NIL=
201102230445 METAR LMML 230445Z 27008KT 200V300 7000 -RA SCT021 SCT045
                        BKN120 10/09 Q1002 TEMPO 5000 SHRA
                        FEW008 BKN015TCU=
201102230430 METAR LMML NIL=
201102230415 METAR LMML 230415Z 27007KT 240V300 9999 FEW013 BKN100 10/09
                        Q1002 TEMPO 5000 SHRA FEW008 BKN015TCU=
201102230400 METAR LMML NIL=
201102230345 METAR LMML 230345Z 24007KT 200V290 7000 -RA SCT015 BKN045
                        10/09 Q1002 TEMPO 5000 SHRA FEW008
                        BKN015TCU=
201102230330 METAR LMML NIL=
201102230315 METAR LMML 230315Z 24005KT 200V290 7000 -RA FEW029 BKN049
                        09/09 Q1002 TEMPO 5000 SHRA FEW008
                        BKN015TCU=
201102230300 METAR LMML NIL=
201102230245 METAR LMML 230245Z 29010KT 7000 RA FEW020 BKN035 09/09 Q1003
                        RETS TEMPO 3000 TSRA SCT008 BKN015CB=
201102230230 METAR LMML NIL=
201102230215 METAR LMML 230215Z 30011KT 9999 -TSRA SCT010CB BKN070 09/08
                        Q1003 TEMPO 3000 TSRA SCT008 BKN015CB=
201102230200 METAR LMML NIL=
201102230145 METAR LMML 230145Z 24012KT 200V280 9999 TS SCT018CB SCT022
                        BKN070 12/10 Q1003 TEMPO 3000 TSRA
                        SCT008 BKN015CB=
201102230130 METAR LMML NIL=
201102230115 METAR LMML 230115Z 24011KT 200V290 9999 SCT019 SCT070 12/09
                        Q1004 TEMPO 5000 SHRA FEW008 BKN015TCU=
201102230100 METAR LMML NIL=
201102230045 METAR LMML 230045Z 23009KT 200V280 9999 SCT023 12/09 Q1004
                        TEMPO 5000 SHRA FEW008 BKN015TCU=
201102230015 METAR LMML 230015Z 23010KT 200V280 9999 SCT023 BKN070 12/09
                        Q1005 TEMPO 5000 SHRA FEW008 BKN015TCU=
201102230000 METAR LMML NIL=
201102222345 METAR LMML 222345Z 24008KT 210V280 9999 SCT023 BKN070 12/10
                        Q1005 TEMPO 5000 SHRA FEW008 BKN015TCU=
201102222330 METAR LMML NIL=
201102222315 METAR LMML 222315Z 28006KT 220V340 9999 FEW011 SCT018 11/09
                        Q1005 TEMPO 5000 SHRA FEW008 BKN015TCU=
201102222300 METAR LMML NIL=
201102222245 METAR LMML 222245Z 17004KT 130V210 9999 FEW011 SCT020 BKN070
                        11/10 Q1006 RERA TEMPO 5000 SHRA
                        FEW008 BKN015TCU=
201102222230 METAR LMML NIL=
201102222215 METAR LMML 222215Z 20003KT 9999 SCT025 SCT050 BKN070 10/09
                        Q1006 RERA TEMPO 5000 SHRA FEW008
                        BKN015TCU=
201102222200 METAR LMML NIL=
201102222145 METAR LMML 222145Z 22007KT 180V260 6000 RA FEW019 SCT045
                        BKN070 11/09 Q1007 TEMPO 5000 SHRA
                        FEW008 BKN015TCU=
201102222130 METAR LMML NIL=
201102222115 METAR LMML 222115Z 22008KT 200V270 9999 FEW015 BKN045 BKN070
                        11/09 Q1007 TEMPO 5000 SHRA FEW008
                        BKN015TCU=
201102222100 METAR LMML NIL=
201102222045 METAR LMML 222045Z 24007KT 210V280 9999 -RA SCT018 BKN045
                        11/09 Q1008 TEMPO 5000 SHRA FEW008
                        BKN015TCU=
201102222030 METAR LMML NIL=
201102222015 METAR LMML 222015Z 24005KT 190V280 9999 FEW023 SCT035 BKN080
                        10/09 Q1008 TEMPO 5000 SHRA FEW008
                        BKN015TCU=
201102221945 METAR LMML 221945Z 24008KT 200V270 6000 RA FEW023 SCT039
                        BKN080 10/08 Q1008 TEMPO 5000 SHRA
                        FEW008 BKN015TCU=
201102221930 METAR LMML NIL=
201102221915 METAR LMML 221915Z 25005KT 210V280 9999 FEW020 SCT050 BKN080
                        10/07 Q1008 TEMPO 5000 SHRA FEW008
                        BKN015TCU=
201102221900 METAR LMML NIL=
201102221845 METAR LMML 221845Z 25010KT 210V290 9999 SCT018 SCT050 10/07
                        Q1008 TEMPO 5000 SHRA FEW008 BKN015TCU=
201102221830 METAR LMML NIL=
201102221815 METAR LMML 221815Z 25005KT 200V310 9999 SCT029 SCT060 11/07
                        Q1008 NOSIG=
201102221800 METAR LMML NIL=
201102221745 METAR LMML 221745Z 26003KT 9999 SCT024 SCT120 11/08 Q1008
                        NOSIG=
201102221730 METAR LMML NIL=
201102221715 METAR LMML 221715Z 28006KT 190V300 9999 SCT026 SCT120 11/08
                        Q1008 NOSIG=
201102221645 METAR LMML 221645Z 26005KT 220V290 9999 SCT026 BKN080 11/09
                        Q1008 NOSIG=
201102221630 METAR LMML NIL=
201102221615 METAR LMML 221615Z 26009KT 230V290 9999 SCT020 BKN080 11/09
                        Q1008 NOSIG=
201102221600 METAR LMML NIL=
201102221545 METAR LMML 221545Z 28007KT 240V300 9999 SCT033 BKN080 12/06
                        Q1008 NOSIG=
201102221530 METAR LMML NIL=
201102221515 METAR LMML 221515Z 28009KT 250V320 9999 FEW033 13/06 Q1008
                        NOSIG=
201102221500 METAR LMML NIL=
201102221445 METAR LMML 221445Z 29010KT 260V330 9999 FEW033 14/06 Q1008
                        NOSIG=
201102221430 METAR LMML NIL=
201102221415 METAR LMML 221415Z 29009KT 250V350 9999 FEW033 15/07 Q1008
                        NOSIG=
201102221345 METAR LMML 221345Z 28009KT 230V310 9999 FEW033 15/07 Q1008
                        NOSIG=
201102221330 METAR LMML NIL=
201102221315 METAR LMML 221315Z 28010KT 230V310 9999 SCT031 SCT250 15/07
                        Q1008 NOSIG=
201102221300 METAR LMML NIL=
201102221245 METAR LMML 221245Z 29009KT 250V320 9999 BKN035 BKN250 13/07
                        Q1008 NOSIG=
201102221230 METAR LMML NIL=
201102221215 METAR LMML 221215Z 31007KT 270V360 9999 SCT036 BKN250 14/06
                        Q1008 NOSIG=
201102221200 METAR LMML NIL=
201102221145 METAR LMML 221145Z 33007KT 300V360 9999 SCT032 SCT060 15/08
                        Q1009 NOSIG=
201102221130 METAR LMML NIL=
201102221115 METAR LMML 221115Z 32007KT 260V360 9999 SCT034 SCT060 16/08
                        Q1009 NOSIG=
201102221100 METAR LMML NIL=
201102221045 METAR LMML 221045Z 33007KT 290V360 9999 SCT032 15/08 Q1009
                        NOSIG=
201102221030 METAR LMML NIL=
201102221015 METAR LMML 221015Z 33009KT 300V360 9999 SCT034 15/08 Q1009
                        NOSIG=
201102220945 METAR LMML 220945Z 34010KT 9999 FEW037 14/06 Q1009 NOSIG=
201102220930 METAR LMML NIL=
201102220915 METAR LMML 220915Z 33010KT 9999 FEW033 14/07 Q1009 NOSIG=
201102220900 METAR LMML NIL=
201102220845 METAR LMML 220845Z 31011KT 280V340 9999 FEW031 13/06 Q1009
                        NOSIG=
201102220830 METAR LMML NIL=
201102220815 METAR LMML 220815Z 30009KT 9999 FEW033 13/07 Q1009 NOSIG=
201102220800 METAR LMML NIL=
201102220745 METAR LMML 220745Z 31008KT 9999 FEW033 12/07 Q1009 NOSIG=
201102220730 METAR LMML NIL=
201102220715 METAR LMML 220715Z 31007KT 9999 FEW033 12/08 Q1009 NOSIG=
201102220700 METAR LMML NIL=
201102220645 METAR LMML 220645Z 31007KT 9999 FEW033 09/07 Q1009 NOSIG=
201102220630 METAR LMML NIL=
201102220615 METAR LMML 220615Z 30005KT 9999 SCT033 09/07 Q1009 NOSIG=
201102220600 METAR LMML NIL=
201102220545 METAR LMML 220545Z 27004KT 240V300 9999 FEW033 09/06 Q1009
                        NOSIG=
201102220530 METAR LMML NIL=
201102220515 METAR LMML 220515Z 29006KT 260V320 9999 FEW027 SCT060 09/06
                        Q1009 NOSIG=
201102220500 METAR LMML NIL=
201102220445 METAR LMML 220445Z 30006KT 9999 FEW027 08/07 Q1009 NOSIG=
201102220430 METAR LMML NIL=
201102220415 METAR LMML 220415Z 30006KT 9999 FEW027 BKN050 09/07 Q1009
                        NOSIG=
201102220400 METAR LMML NIL=
201102220345 METAR LMML 220345Z 31013KT 9999 -RA FEW027 BKN050 09/07 Q1009
                        NOSIG=
201102220330 METAR LMML NIL=
201102220315 METAR LMML 220315Z 30007KT 9999 FEW025 BKN060 10/06 Q1009
                        NOSIG=
201102220300 METAR LMML NIL=
201102220245 METAR LMML 220245Z 29006KT 9999 FEW025 BKN050 10/06 Q1010
                        NOSIG=
201102220230 METAR LMML NIL=
201102220215 METAR LMML 220215Z 30007KT 9999 FEW025 SCT060 10/07 Q1010
                        NOSIG=
201102220200 METAR LMML NIL=
201102220145 METAR LMML 220145Z 30006KT 9999 FEW025 BKN060 10/07 Q1010
                        NOSIG=
201102220115 METAR LMML 220115Z 30007KT 9999 FEW025 SCT050 10/06 Q1011
                        NOSIG=
201102220100 METAR LMML NIL=
201102220045 METAR LMML 220045Z 30008KT 9999 FEW025 10/05 Q1010 NOSIG=
201102220015 METAR LMML 220015Z 30007KT 9999 FEW025 10/05 Q1010 NOSIG=
201102212345 METAR LMML 212345Z 30008KT 9999 FEW025 10/06 Q1011 NOSIG=
201102212315 METAR LMML 212315Z 31009KT 9999 FEW025 10/06 Q1010 NOSIG=
201102212245 METAR LMML 212245Z 31009KT 9999 FEW025 10/06 Q1011 NOSIG=
201102212230 METAR LMML NIL=
201102212215 METAR LMML 212215Z 31012KT 9999 FEW027 SCT050 11/06 Q1011
                        NOSIG=
201102212200 METAR LMML NIL=
201102212145 METAR LMML 212145Z 30011KT 9999 FEW027 SCT050 12/07 Q1011
                        NOSIG=
201102212130 METAR LMML NIL=
201102212115 METAR LMML 212115Z 30009KT 9999 SCT033 SCT050 11/06 Q1011
                        NOSIG=
201102212045 METAR LMML 212045Z 31010KT 9999 FEW033 11/06 Q1011 NOSIG=
201102212030 METAR LMML NIL=
201102212015 METAR LMML 212015Z 30010KT 260V330 9999 FEW033 11/06 Q1011
                        NOSIG=
201102212000 METAR LMML NIL=
201102211945 METAR LMML 211945Z 31012KT 9999 FEW035 11/06 Q1011 NOSIG=
201102211930 METAR LMML NIL=
201102211915 METAR LMML 211915Z 30011KT 9999 FEW035 11/06 Q1011 NOSIG=
201102211900 METAR LMML NIL=
201102211845 METAR LMML 211845Z 30010KT 9999 FEW038 11/07 Q1011 NOSIG=
201102211830 METAR LMML NIL=
201102211815 METAR LMML 211815Z 30011KT 270V330 9999 FEW027 12/06 Q1011
                        NOSIG=
201102211745 METAR LMML 211745Z 29011KT 9999 FEW026 12/07 Q1011 NOSIG=
201102211730 METAR LMML NIL=
201102211715 METAR LMML 211715Z 29011KT 9999 FEW029 12/07 Q1011 NOSIG=
201102211700 METAR LMML NIL=
201102211645 METAR LMML 211645Z 29011KT 260V320 9999 FEW030 12/07 Q1010
                        NOSIG=
201102211630 METAR LMML NIL=
201102211615 METAR LMML 211615Z 29013KT 260V320 9999 FEW030 SCT250 13/07
                        Q1010 NOSIG=
201102211600 METAR LMML NIL=
201102211545 METAR LMML 211545Z 29012KT 260V320 9999 FEW030 13/07 Q1010
                        NOSIG=
201102211530 METAR LMML NIL=
201102211515 METAR LMML 211515Z 30012KT 9999 SCT032 BKN250 13/07 Q1010
                        NOSIG=
201102211500 METAR LMML NIL=
201102211445 METAR LMML 211445Z 29016KT 260V320 9999 SCT032 SCT250 13/06
                        Q1011 NOSIG=
201102211430 METAR LMML NIL=
201102211415 METAR LMML 211415Z 30015KT 260V320 9999 SCT032 14/07 Q1011
                        NOSIG=
201102211400 METAR LMML NIL=
201102211345 METAR LMML 211345Z 30016KT 260V320 9999 SCT033 14/07 Q1011
                        NOSIG=
201102211330 METAR LMML NIL=
201102211315 METAR LMML 211315Z 30016KT 260V320 9999 SCT032 15/08 Q1011
                        NOSIG=
201102211300 METAR LMML NIL=
201102211245 METAR LMML 211245Z 28015KT 250V310 9999 SCT031 14/07 Q1011
                        NOSIG=
201102211230 METAR LMML NIL=
201102211215 METAR LMML 211215Z 29015KT 9999 SCT030 14/07 Q1011 NOSIG=
201102211200 METAR LMML NIL=
201102211145 METAR LMML 211145Z 29014KT 250V330 9999 SCT028 SCT250 15/08
                        Q1012 NOSIG=
201102211130 METAR LMML NIL=
201102211115 METAR LMML 211115Z 29015KT 250V320 9999 FEW028 SCT250 14/08
                        Q1012 NOSIG=
201102211100 METAR LMML NIL=
201102211045 METAR LMML 211045Z 29014KT 260V320 9999 FEW026 SCT250 15/08
                        Q1012 NOSIG=
201102211030 METAR LMML NIL=
201102211015 METAR LMML 211015Z 29015KT 260V320 9999 FEW024 BKN150 14/09
                        Q1013 NOSIG=
201102211000 METAR LMML NIL=
201102210945 METAR LMML 210945Z 30016KT 9999 FEW021 BKN150 14/09 Q1013
                        NOSIG=
201102210930 METAR LMML NIL=
201102210915 METAR LMML 210915Z 30015KT 9999 FEW020 BKN150 14/10 Q1013
                        NOSIG=
201102210900 METAR LMML NIL=
201102210845 METAR LMML 210845Z 30014KT 9999 FEW020 BKN250 14/10 Q1013
                        NOSIG=
201102210830 METAR LMML NIL=
201102210815 METAR LMML 210815Z 30012KT 9999 FEW017 SCT060 BKN250 13/10
                        Q1013 NOSIG=
201102210800 METAR LMML NIL=
201102210745 METAR LMML 210745Z 30010KT 260V330 9999 -SHRA SCT016 SCT060
                        BKN250 14/11 Q1012 NOSIG=
201102210730 METAR LMML NIL=
201102210715 METAR LMML 210715Z 29011KT 260V320 9999 FEW022 BKN250 14/11
                        Q1012 NOSIG=
201102210700 METAR LMML NIL=
201102210645 METAR LMML 210645Z 28012KT 240V310 9999 FEW024 SCT050 BKN250
                        14/10 Q1012 NOSIG=
201102210615 METAR LMML 210615Z 27007KT 240V300 9999 SCT030 BKN250 13/09
                        Q1012 NOSIG=
201102210600 METAR LMML NIL=
201102210545 METAR LMML 210545Z 26008KT 200V320 9999 FEW040 SCT050 BKN250
                        14/09 Q1012 NOSIG=
201102210530 METAR LMML NIL=
201102210515 METAR LMML 210515Z 24005KT 200V280 9999 BKN047 13/09 Q1012
                        NOSIG=
201102210500 METAR LMML NIL=
201102210445 METAR LMML 210445Z 23006KT 200V260 9999 SCT049 BKN080 13/10
                        Q1012 NOSIG=
201102210430 METAR LMML NIL=
201102210415 METAR LMML 210415Z 23005KT 9999 SCT043 BKN080 13/10 Q1012
                        NOSIG=
201102210400 METAR LMML NIL=
201102210345 METAR LMML 210345Z 23004KT 210V270 9999 SCT048 BKN080 12/10
                        Q1012 NOSIG=
201102210330 METAR LMML NIL=
201102210315 METAR LMML 210315Z 23005KT 210V270 9999 FEW048 SCT250 12/10
                        Q1012 NOSIG=
201102210300 METAR LMML NIL=
201102210245 METAR LMML 210245Z 23006KT 200V260 9999 FEW048 SCT080 12/10
                        Q1012 NOSIG=
201102210230 METAR LMML NIL=
201102210215 METAR LMML 210215Z 22005KT 190V250 CAVOK 13/09 Q1012 BECMG
                        9999 FEW025=
201102210200 METAR LMML NIL=
201102210145 METAR LMML 210145Z 23005KT 190V260 CAVOK 13/09 Q1013 BECMG
                        9999 FEW025=
201102210130 METAR LMML NIL=
201102210115 METAR LMML 210115Z 22004KT 190V270 CAVOK 13/10 Q1013 BECMG
                        9999 FEW025=
201102210100 METAR LMML NIL=
201102210045 METAR LMML 210045Z 23006KT CAVOK 13/09 Q1013 BECMG 9999 SCT045=
201102210030 METAR LMML NIL=
201102210015 METAR LMML 210015Z 23006KT CAVOK 13/09 Q1013 BECMG 9999 SCT045=
201102210000 METAR LMML NIL=
201102202345 METAR LMML 202345Z 23007KT 200V270 CAVOK 13/10 Q1014 BECMG
                        9999 FEW030=
201102202330 METAR LMML NIL=
201102202315 METAR LMML 202315Z 23006KT 210V270 CAVOK 13/10 Q1014 BECMG
                        9999 FEW030=
201102202300 METAR LMML NIL=
201102202245 METAR LMML 202245Z 23007KT 200V270 CAVOK 13/09 Q1014 NOSIG=
201102202230 METAR LMML NIL=
201102202215 METAR LMML 202215Z 22006KT CAVOK 12/09 Q1014 NOSIG=
201102202200 METAR LMML NIL=
201102202145 METAR LMML 202145Z 23005KT CAVOK 12/09 Q1014 NOSIG=
201102202130 METAR LMML NIL=
201102202115 METAR LMML 202115Z 24005KT 210V270 CAVOK 12/09 Q1014 NOSIG=
201102202100 METAR LMML NIL=
201102202045 METAR LMML 202045Z 24004KT CAVOK 11/08 Q1014 NOSIG=
201102202030 METAR LMML NIL=
201102202015 METAR LMML 202015Z 24004KT CAVOK 11/08 Q1015 NOSIG=
201102202000 METAR LMML NIL=
201102201945 METAR LMML 201945Z 25003KT CAVOK 11/08 Q1015 NOSIG=
201102201930 METAR LMML NIL=
201102201915 METAR LMML 201915Z 27004KT CAVOK 11/08 Q1015 NOSIG=
201102201845 METAR LMML 201845Z 26005KT 230V310 CAVOK 12/08 Q1015 NOSIG=
201102201830 METAR LMML NIL=
201102201815 METAR LMML 201815Z 25004KT 220V280 CAVOK 11/08 Q1015 NOSIG=
201102201800 METAR LMML NIL=
201102201745 METAR LMML 201745Z 25003KT CAVOK 12/08 Q1014 NOSIG=
201102201730 METAR LMML NIL=
201102201715 METAR LMML 201715Z 26006KT CAVOK 12/08 Q1014 NOSIG=
201102201645 METAR LMML 201645Z 25005KT 210V280 9999 FEW025 BKN250 13/09
                        Q1014 NOSIG=
201102201630 METAR LMML NIL=
201102201615 METAR LMML 201615Z 26007KT 220V300 9999 FEW025 BKN250 14/08
                        Q1014 NOSIG=
201102201545 METAR LMML 201545Z 26008KT 210V300 9999 FEW025 BKN250 15/09
                        Q1014 NOSIG=
201102201530 METAR LMML NIL=
201102201515 METAR LMML 201515Z 26009KT 220V310 9999 FEW022 BKN250 15/09
                        Q1014 NOSIG=
201102201500 METAR LMML NIL=
201102201445 METAR LMML 201445Z 27009KT 230V300 9999 FEW023 SCT250 15/09
                        Q1014 NOSIG=
201102201430 METAR LMML NIL=
201102201415 METAR LMML 201415Z 27010KT 210V310 9999 FEW025 SCT250 15/09
                        Q1014 NOSIG=
201102201400 METAR LMML NIL=
201102201345 METAR LMML 201345Z 28013KT 9999 FEW025 SCT120 15/08 Q1014
                        NOSIG=
201102201330 METAR LMML NIL=
201102201315 METAR LMML 201315Z 27010KT 230V310 9999 FEW025 SCT120 15/08
                        Q1015 NOSIG=
201102201300 METAR LMML NIL=
201102201245 METAR LMML 201245Z 27011KT 220V300 9999 FEW025 SCT120 16/07
                        Q1015 NOSIG=
201102201230 METAR LMML NIL=
201102201215 METAR LMML 201215Z 27012KT 230V300 9999 FEW025 15/08 Q1015
                        NOSIG=
201102201200 METAR LMML NIL=
201102201145 METAR LMML 201145Z 27011KT 240V300 9999 FEW025 15/08 Q1016
                        NOSIG=
201102201130 METAR LMML NIL=
201102201115 METAR LMML 201115Z 28011KT 220V320 9999 FEW025 SCT250 15/08
                        Q1016 NOSIG=
201102201100 METAR LMML NIL=
201102201045 METAR LMML 201045Z 29010KT 240V320 9999 FEW026 BKN250 16/09
                        Q1016 NOSIG=
201102201030 METAR LMML NIL=
201102201015 METAR LMML 201015Z 28009KT 240V320 9999 SCT023 SCT120 15/09
                        Q1016 NOSIG=
201102201000 METAR LMML NIL=
201102200945 METAR LMML 200945Z 28010KT 9999 SCT023 SCT120 14/09 Q1016
                        NOSIG=
201102200930 METAR LMML NIL=
201102200915 METAR LMML 200915Z 28009KT 9999 SCT023 SCT120 14/09 Q1016
                        NOSIG=
201102200845 METAR LMML 200845Z 28010KT 230V310 9999 SCT023 BKN250 13/09
                        Q1016 NOSIG=
201102200830 METAR LMML NIL=
201102200815 METAR LMML 200815Z 28008KT 250V310 9999 FEW027 BKN250 14/09
                        Q1016 NOSIG=
201102200800 METAR LMML NIL=
201102200745 METAR LMML 200745Z 28007KT 260V320 9999 FEW030 BKN250 13/08
                        Q1016 NOSIG=
201102200730 METAR LMML NIL=
201102200715 METAR LMML 200715Z 28007KT 9999 FEW029 BKN250 13/08 Q1016
                        NOSIG=
201102200700 METAR LMML NIL=
201102200645 METAR LMML 200645Z 27006KT 9999 FEW029 BKN250 11/08 Q1016
                        NOSIG=
201102200630 METAR LMML NIL=
201102200615 METAR LMML 200615Z 28007KT 9999 FEW029 BKN250 11/07 Q1016
                        NOSIG=
201102200545 METAR LMML 200545Z 28006KT 250V310 9999 FEW029 BKN250 10/07
                        Q1015 NOSIG=
201102200530 METAR LMML NIL=
201102200515 METAR LMML 200515Z 26006KT 230V300 9999 FEW027 BKN250 10/07
                        Q1015 NOSIG=
201102200500 METAR LMML NIL=
201102200445 METAR LMML 200445Z 28006KT 9999 FEW027 SCT250 11/08 Q1015
                        NOSIG=
201102200430 METAR LMML NIL=
201102200415 METAR LMML 200415Z 28008KT 250V310 9999 FEW026 BKN250 11/07
                        Q1015 NOSIG=
201102200400 METAR LMML NIL=
201102200345 METAR LMML 200345Z 28008KT 240V300 9999 FEW026 SCT250 11/07
                        Q1015 NOSIG=
201102200330 METAR LMML NIL=
201102200315 METAR LMML 200315Z 28006KT 240V300 9999 FEW026 11/07 Q1015
                        NOSIG=
201102200245 METAR LMML 200245Z 28007KT 240V300 9999 FEW026 11/07 Q1015
                        NOSIG=
201102200230 METAR LMML NIL=
201102200215 METAR LMML 200215Z 28009KT 9999 FEW026 11/08 Q1015 NOSIG=
201102200200 METAR LMML NIL=
201102200145 METAR LMML 200145Z 28012KT 9999 FEW026 11/08 Q1016 NOSIG=
201102200130 METAR LMML NIL=
201102200115 METAR LMML 200115Z 29012KT 270V330 9999 FEW025 11/08 Q1016
                        NOSIG=
201102200045 METAR LMML 200045Z 29013KT 9999 FEW025 12/08 Q1016 NOSIG=
201102200030 METAR LMML NIL=
201102200015 METAR LMML 200015Z 29012KT 9999 FEW026 12/08 Q1016 NOSIG=
201102192345 METAR LMML 192345Z 29010KT 9999 FEW025 12/08 Q1016 NOSIG=
201102192315 METAR LMML 192315Z 29015KT 9999 FEW025 12/08 Q1015 NOSIG=
201102192245 METAR LMML 192245Z 29014KT 9999 FEW027 12/07 Q1015 NOSIG=
201102192215 METAR LMML 192215Z 29015KT 9999 FEW027 12/07 Q1015 NOSIG=
201102192200 METAR LMML NIL=
201102192145 METAR LMML 192145Z 30014KT 9999 FEW027 12/08 Q1015 NOSIG=
201102192130 METAR LMML NIL=
201102192115 METAR LMML 192115Z 30015KT 9999 FEW027 12/08 Q1015 NOSIG=
201102192045 METAR LMML 192045Z 31016KT 9999 FEW027 12/07 Q1015 NOSIG=
201102192030 METAR LMML NIL=
201102192015 METAR LMML 192015Z 31018KT 9999 FEW026 12/08 Q1015 NOSIG=
201102192000 METAR LMML NIL=
201102191945 METAR LMML 191945Z 30017KT 9999 FEW022 12/08 Q1014 NOSIG=
201102191930 METAR LMML NIL=
201102191915 METAR LMML 191915Z 30015KT 9999 FEW022 12/08 Q1014 NOSIG=
201102191900 METAR LMML NIL=
201102191845 METAR LMML 191845Z 30014KT 250V330 9999 FEW022 12/08 Q1014
                        NOSIG=
201102191830 METAR LMML NIL=
201102191815 METAR LMML 191815Z 30017G27KT 270V330 9999 FEW022 12/09 Q1013
                        NOSIG=
201102191800 METAR LMML NIL=
201102191745 METAR LMML 191745Z 30020G30KT 9999 FEW022 12/09 Q1013 NOSIG=
201102191730 METAR LMML NIL=
201102191715 METAR LMML 191715Z 31021KT 9999 FEW022 12/09 Q1013 NOSIG=
201102191700 METAR LMML NIL=
201102191645 METAR LMML 191645Z 29020KT 9999 FEW022 13/09 Q1012 NOSIG=
201102191630 METAR LMML NIL=
201102191615 METAR LMML 191615Z 30020KT 9999 FEW022 13/09 Q1012 NOSIG=
201102191545 METAR LMML 191545Z 30018G28KT 270V330 9999 FEW022 14/09 Q1012
                        NOSIG=
201102191530 METAR LMML NIL=
201102191515 METAR LMML 191515Z 30022G33KT 260V320 9999 FEW022 14/09 Q1012
                        NOSIG=
201102191500 METAR LMML NIL=
201102191445 METAR LMML 191445Z 29023KT 9999 FEW022 14/10 Q1011 NOSIG=
201102191430 METAR LMML NIL=
201102191415 METAR LMML 191415Z 30020KT 270V330 9999 SCT024 15/09 Q1011
                        NOSIG=
201102191400 METAR LMML NIL=
201102191345 METAR LMML 191345Z 29024G35KT 260V320 9999 SCT026 15/09 Q1012
                        NOSIG=
201102191330 METAR LMML NIL=
201102191315 METAR LMML 191315Z 29019G31KT 260V330 9999 SCT023 15/09 Q1011
                        NOSIG=
201102191245 METAR LMML 191245Z 30024KT 9999 SCT023 15/10 Q1011 NOSIG=
201102191230 METAR LMML NIL=
201102191215 METAR LMML 191215Z 30020KT 260V330 9999 SCT023 15/10 Q1011
                        NOSIG=
201102191200 METAR LMML NIL=
201102191145 METAR LMML 191145Z 29023KT 9999 SCT023 15/10 Q1011 NOSIG=
201102191130 METAR LMML NIL=
201102191115 METAR LMML 191115Z 30020G31KT 260V340 9999 SCT022 15/10 Q1011
                        NOSIG=
201102191100 METAR LMML NIL=
201102191045 METAR LMML 191045Z 30021G32KT 270V330 9999 SCT021 15/10 Q1011
                        NOSIG=
201102191030 METAR LMML NIL=
201102191015 METAR LMML 191015Z 30023KT 9999 FEW023 15/10 Q1011 NOSIG=
201102191000 METAR LMML NIL=
201102190945 METAR LMML 190945Z 30025KT 9999 FEW021 15/10 Q1011 NOSIG=
201102190930 METAR LMML NIL=
201102190915 METAR LMML 190915Z 30024KT 9999 SCT023 14/10 Q1010 NOSIG=
201102190845 METAR LMML 190845Z 30022KT 9999 SCT020 SCT025 14/10 Q1010
                        NOSIG=
201102190830 METAR LMML NIL=
201102190815 METAR LMML 190815Z 30024KT 270V330 9999 SCT022 14/10 Q1009
                        NOSIG=
201102190800 METAR LMML NIL=
201102190745 METAR LMML 190745Z 31020KT 9999 SCT022 13/10 Q1009 NOSIG=
201102190730 METAR LMML NIL=
201102190715 METAR LMML 190715Z 30024G34KT 9999 SCT023 13/10 Q1008 NOSIG=
201102190700 METAR LMML NIL=
201102190645 METAR LMML 190645Z 31025G36KT 9999 SCT024 13/09 Q1008 NOSIG=
201102190630 METAR LMML NIL=
201102190615 METAR LMML 190615Z 31024KT 9999 SCT023 12/09 Q1007 NOSIG=
201102190600 METAR LMML NIL=
201102190545 METAR LMML 190545Z 30026G36KT 9999 BKN022 13/09 Q1007 NOSIG=
201102190530 METAR LMML NIL=
201102190515 METAR LMML 190515Z 30025G35KT 9999 SCT022 SCT120 13/09 Q1006
                        NOSIG=
201102190500 METAR LMML NIL=
201102190445 METAR LMML 190445Z 30024KT 9999 BKN021 13/09 Q1006 NOSIG=
201102190430 METAR LMML NIL=
201102190415 METAR LMML 190415Z 30027KT 9999 SCT023 13/09 Q1005 NOSIG=
201102190400 METAR LMML NIL=
201102190345 METAR LMML 190345Z 30025G37KT 270V330 9999 FEW024 12/09 Q1005
                        NOSIG=
201102190330 METAR LMML NIL=
201102190315 METAR LMML 190315Z 30027KT 260V340 9999 FEW024 13/09 Q1004
                        NOSIG=
201102190245 METAR LMML 190245Z 30026G40KT 270V330 9999 FEW023 12/09 Q1004
                        NOSIG=
201102190230 METAR LMML NIL=
201102190215 METAR LMML 190215Z 30028G38KT 9999 FEW022 13/09 Q1004 NOSIG=
201102190200 METAR LMML NIL=
201102190145 METAR LMML 190145Z 30027G38KT 270V330 9999 FEW025 13/09 Q1004
                        NOSIG=
201102190130 METAR LMML NIL=
201102190115 METAR LMML 190115Z 30030G41KT 260V320 9999 SCT025 13/09 Q1003
                        NOSIG=
201102190100 METAR LMML NIL=
201102190045 METAR LMML 190045Z 30025KT 270V330 9999 FEW023 13/09 Q1004
                        NOSIG=
201102190030 METAR LMML NIL=
201102190015 METAR LMML 190015Z 30028G40KT 9999 FEW021 13/09 Q1003 NOSIG=
201102182345 METAR LMML 182345Z 30027G38KT 260V330 9999 FEW022 13/09 Q1003
                        NOSIG=
201102182330 METAR LMML NIL=
201102182315 METAR LMML 182315Z 30028G39KT 270V330 9999 FEW021 13/09 Q1003
                        NOSIG=
201102182300 METAR LMML NIL=
201102182245 METAR LMML 182245Z 30026G38KT 260V330 9999 BKN020 13/10 Q1002
                        NOSIG=
201102182230 METAR LMML NIL=
201102182215 METAR LMML 182215Z 30026G37KT 9999 BKN021 13/10 Q1002 NOSIG=
201102182200 METAR LMML NIL=
201102182145 METAR LMML 182145Z 30025G35KT 270V330 9999 BKN020 13/11 Q1001
                        NOSIG=
201102182130 METAR LMML NIL=
201102182115 METAR LMML 182115Z 30029G40KT 270V330 9999 BKN019 13/11 Q1001
                        NOSIG=
201102182100 METAR LMML NIL=
201102182045 METAR LMML 182045Z 30028G43KT 270V330 9999 OVC019 SCT250
                        13/10 Q1001 NOSIG=
201102182030 METAR LMML NIL=
201102182015 METAR LMML 182015Z 29026G36KT 9999 BKN018 SCT250 13/11 Q1000
                        TEMPO 8000 SHRA BKN015=
201102182000 METAR LMML NIL=
201102181945 METAR LMML 181945Z 29028G42KT 260V320 9999 BKN018 BKN250
                        13/10 Q1000 NOSIG=
201102181930 METAR LMML NIL=
201102181915 METAR LMML 181915Z 29027KT 9999 BKN018 BKN250 13/10 Q1000
                        NOSIG=
201102181900 METAR LMML NIL=
201102181845 METAR LMML 181845Z 29026KT 9999 BKN016 BKN021 12/11 Q0999
                        RESHRA TEMPO 8000 SHRA BKN012TCU=
201102181830 METAR LMML NIL=
201102181815 METAR LMML 181815Z 29028G39KT 260V320 9000 -RA BKN012 BKN019
                        12/11 Q0999 RESHRA TEMPO 5000 SHRA
                        BKN012TCU=
201102181745 METAR LMML 181745Z 29026G36KT 260V320 4000 -RA SCT009 BKN016
                        BKN040 12/11 Q0998 NOSIG=
201102181730 METAR LMML NIL=
201102181715 METAR LMML 181715Z 30028G38KT 4000 SHRA SCT009 BKN016 11/11
                        Q0998 TEMPO SHRA BKN012TCU=
201102181700 METAR LMML NIL=
201102181645 METAR LMML 181645Z 29031G46KT 6000 BKN016 BKN040 11/10 Q0998
                        RERA TEMPO SHRA BKN012TCU=
201102181630 METAR LMML NIL=
201102181615 METAR LMML 181615Z 29033G46KT 5000 RA BKN017 BKN040 11/10
                        Q0997 TEMPO TSRA BKN012CB=
201102181600 METAR LMML NIL=
201102181545 METAR LMML 181545Z 29034G46KT 5000 -RA BKN017 BKN043 11/10
                        Q0997 TEMPO TSRA BKN012CB=
201102181530 METAR LMML NIL=
201102181515 METAR LMML 181515Z 28032G42KT 250V310 5000 -SHRA BKN019 BKN043
                        11/09 Q0996 TEMPO TSRA BKN012CB=
201102181500 METAR LMML NIL=
201102181445 METAR LMML 181445Z 28034G44KT 5000 SHRA BKN017 BKN043 11/09
                        Q0996 TEMPO TSRA BKN012CB=
201102181430 METAR LMML NIL=
201102181415 METAR LMML 181415Z 28035G49KT 8000 BKN019 BKN050 11/08 Q0995
                        TEMPO TSRA BKN012CB=
201102181400 METAR LMML NIL=
201102181345 METAR LMML 181345Z 28030G41KT 240V310 5000 -SHRA BKN020 BKN033
                        10/09 Q0995 TEMPO TSRA BKN012CB=
201102181330 METAR LMML NIL=
201102181315 METAR LMML 181315Z 28028G40KT 250V310 5000 -SHRA BKN016 BKN033
                        11/09 Q0995 RESHRA WS RWY31 TEMPO
                        TSRA BKN012CB=
201102181303 SPECI LMML 181303Z 28031G41KT 240V310 3000 -SHRA SCT010 BKN015
                        11/09 Q0995 RESHRA WS RWY31 TEMPO
                        TSRA BKN012CB=
201102181300 METAR LMML NIL=
201102181245 METAR LMML 181245Z 28034G48KT 5000 -SHRA FEW010 BKN016 11/09
                        Q0994 RESHRA WS RWY31 TEMPO TSRA
                        BKN012CB=
201102181230 METAR LMML NIL=
201102181215 METAR LMML 181215Z 28034G47KT 2500 SHRA SCT010 BKN014 11/10
                        Q0994 TEMPO TSRA BKN012CB=
201102181200 METAR LMML NIL=
201102181145 METAR LMML 181145Z 28031G47KT 240V300 2000 R13/0818VP1500D
                        SHRA SCT004 BKN012 10/10 Q0993 TEMPO
                        TSRA BKN012CB=
201102181130 METAR LMML NIL=
201102181115 METAR LMML 181115Z 28033G46KT 4000 SHRA BKN012 11/10 Q0994
                        TEMPO 3000 TSRA BKN012CB=
201102181100 METAR LMML NIL=
201102181100 SPECI LMML 181100Z 28037G50KT 260V320 5000 -SHRA BKN014 11/10
                        Q0993 TEMPO 30035G45KT 5000 TSRA
                        BKN012CB=
201102181045 METAR LMML 181045Z 28032G43KT 250V320 6000 -SHRA BKN014 11/10
                        Q0993 TEMPO 30035G45KT 5000 TSRA
                        BKN012CB=
201102181015 METAR LMML 181015Z 28028G41KT 250V310 9000 BKN016 SCT250
                        13/11 Q0993 TEMPO 30035G45KT 5000
                        TSRA BKN012CB=
201102180945 METAR LMML 180945Z 31016KT 9999 BKN016 SCT250 13/09 Q0993
                        TEMPO 5000 TSRA BKN012CB=
201102180915 METAR LMML 180915Z 30012KT 9999 FEW007 SCT014 BKN250 12/10
                        Q0992 TEMPO 5000 TSRA BKN012CB=
201102180845 METAR LMML 180845Z 21009G19KT 150V260 9000 -SHRA SCT008 BKN013TCU
                        11/10 Q0992 TEMPO 5000 TSRA BKN012CB=
201102180815 METAR LMML 180815Z 22017KT 180V270 9999 SCT017 BKN250 12/08
                        Q0993 TEMPO 7000 SHRA BKN015TCU=
201102180745 METAR LMML 180745Z 24011KT 200V300 9999 SCT018 BKN250 12/09
                        Q0993 TEMPO 5000 TSRA BKN015CB=
201102180715 METAR LMML 180715Z 22013KT 190V280 7000 SCT020 SCT100 12/09
                        Q0994 TEMPO 5000 TSRA BKN015CB=
201102180700 METAR LMML NIL=
201102180645 METAR LMML 180645Z 24011KT 190V280 9999 BKN022 BKN090 12/09
                        Q0995 TEMPO 5000 TSRA BKN015CB=
201102180630 METAR LMML NIL=
201102180615 METAR LMML 180615Z 23014KT 200V280 9999 FEW016CB SCT050 11/08
                        Q0995 TEMPO 5000 TSRA BKN015CB=
201102180600 METAR LMML NIL=
201102180545 METAR LMML 180545Z 22013G27KT 170V280 9999 SHRA FEW012CB
                        SCT018 BKN100 13/10 Q0996 TEMPO 5000
                        TSRA BKN015CB RMK LIGHTNING TO SW=
201102180530 METAR LMML NIL=
201102180515 METAR LMML 180515Z 22010KT 200V270 9999 SCT009 BKN100 14/12
                        Q0995 NOSIG=
201102180500 METAR LMML NIL=
201102180445 METAR LMML 180445Z 23014KT 190V270 9999 SCT008 BKN100 14/13
                        Q0995 NOSIG=
201102180430 METAR LMML NIL=
201102180415 METAR LMML 180415Z 23013KT 190V270 9000 BKN008 BKN120 14/13
                        Q0995 NOSIG RMK DISTANT LIGHTNING
                        TO SW=
201102180400 METAR LMML NIL=
201102180345 METAR LMML 180345Z 22014KT 190V270 9000 BKN009 BKN120 14/13
                        Q0995 BECMG 7000=
201102180330 METAR LMML NIL=
201102180315 METAR LMML 180315Z 24006KT 210V290 9000 NSC 13/13 Q0995 NOSIG=
201102180245 METAR LMML 180245Z VRB01KT 9000 NSC 11/11 Q0995 NOSIG=
201102180230 METAR LMML NIL=
201102180215 METAR LMML 180215Z 26003KT 9000 NSC 12/12 Q0996 NOSIG=
201102180200 METAR LMML NIL=
201102180145 METAR LMML 180145Z 33003KT 9000 NSC 12/12 Q0996 NOSIG=
201102180130 METAR LMML NIL=
201102180115 METAR LMML 180115Z VRB02KT 9000 NSC 12/12 Q0997 NOSIG=
201102180100 METAR LMML NIL=
201102180045 METAR LMML 180045Z VRB01KT CAVOK 12/12 Q0998 NOSIG=
201102180030 METAR LMML NIL=
201102180015 METAR LMML 180015Z VRB02KT CAVOK 13/13 Q0998 NOSIG=
201102172345 METAR LMML 172345Z 36003KT CAVOK 13/13 Q0998 NOSIG=
201102172330 METAR LMML NIL=
201102172315 METAR LMML 172315Z 09003KT CAVOK 13/13 Q0999 NOSIG=
201102172300 METAR LMML NIL=
201102172245 METAR LMML 172245Z 01003KT CAVOK 13/13 Q0999 NOSIG=
201102172230 METAR LMML NIL=
201102172215 METAR LMML 172215Z 19005KT 030V330 CAVOK 14/13 Q1000 NOSIG=
201102172200 METAR LMML NIL=
201102172145 METAR LMML 172145Z 16007KT 120V200 CAVOK 15/13 Q1000 NOSIG=
201102172130 METAR LMML NIL=
201102172115 METAR LMML 172115Z 14009KT CAVOK 14/13 Q1000 NOSIG=
201102172100 METAR LMML NIL=
201102172045 METAR LMML 172045Z 14010KT CAVOK 14/13 Q1001 NOSIG=
201102172030 METAR LMML NIL=
201102172015 METAR LMML 172015Z 14010KT CAVOK 14/13 Q1001 NOSIG=
201102172000 METAR LMML NIL=
201102171945 METAR LMML 171945Z 13010KT CAVOK 14/14 Q1001 NOSIG=
201102171930 METAR LMML NIL=
201102171915 METAR LMML 171915Z 13011KT CAVOK 14/14 Q1001 NOSIG=
201102171900 METAR LMML NIL=
201102171845 METAR LMML 171845Z 13009KT CAVOK 14/13 Q1001 NOSIG=
201102171830 METAR LMML NIL=
201102171815 METAR LMML 171815Z 13009KT CAVOK 13/13 Q1002 NOSIG=
201102171800 METAR LMML NIL=
201102171745 METAR LMML 171745Z 13006KT CAVOK 14/14 Q1002 NOSIG=
201102171730 METAR LMML NIL=
201102171715 METAR LMML 171715Z 16004KT 130V200 CAVOK 15/14 Q1002 NOSIG=
201102171700 METAR LMML NIL=
201102171645 METAR LMML 171645Z 16005KT 9000 NSC 16/14 Q1002 NOSIG=
201102171630 METAR LMML NIL=
201102171615 METAR LMML 171615Z 16007KT CAVOK 16/14 Q1002 NOSIG=
201102171600 METAR LMML NIL=
201102171545 METAR LMML 171545Z 15005KT 120V180 9999 FEW018 SCT100 17/15
                        Q1002 NOSIG=
201102171530 METAR LMML NIL=
201102171515 METAR LMML 171515Z 13007KT 090V160 9999 FEW018 18/15 Q1002
                        NOSIG=
201102171500 METAR LMML NIL=
201102171445 METAR LMML 171445Z 11003KT CAVOK 19/14 Q1002 NOSIG=
201102171430 METAR LMML NIL=
201102171415 METAR LMML 171415Z 16004KT 120V210 CAVOK 19/13 Q1003 NOSIG=
201102171400 METAR LMML NIL=
201102171345 METAR LMML 171345Z 17004KT 140V200 CAVOK 19/13 Q1003 NOSIG=
201102171330 METAR LMML NIL=
201102171315 METAR LMML 171315Z 20004KT 160V250 CAVOK 19/13 Q1003 NOSIG=
201102171300 METAR LMML NIL=
201102171245 METAR LMML 171245Z 17004KT 140V210 CAVOK 19/13 Q1004 NOSIG=
201102171230 METAR LMML NIL=
201102171215 METAR LMML 171215Z 20005KT 160V270 CAVOK 19/14 Q1004 NOSIG=
201102171200 METAR LMML NIL=
201102171145 METAR LMML 171145Z 20008KT 170V240 CAVOK 19/13 Q1004 NOSIG=
201102171130 METAR LMML NIL=
201102171115 METAR LMML 171115Z 19008KT 160V240 CAVOK 19/13 Q1005 NOSIG=
201102171100 METAR LMML NIL=
201102171045 METAR LMML 171045Z 20009KT 140V230 CAVOK 18/14 Q1006 NOSIG=
201102171030 METAR LMML NIL=
201102171015 METAR LMML 171015Z 18008KT 150V210 CAVOK 18/14 Q1006 NOSIG=
201102171000 METAR LMML NIL=
201102170945 METAR LMML 170945Z 18007KT 150V230 CAVOK 18/14 Q1006 NOSIG=
201102170930 METAR LMML NIL=
201102170915 METAR LMML 170915Z 18006KT 150V230 CAVOK 17/14 Q1006 NOSIG=
201102170900 METAR LMML NIL=
201102170845 METAR LMML 170845Z 17005KT 140V230 9000 NSC 17/14 Q1006 BECMG
                        9999=
201102170830 METAR LMML NIL=
201102170815 METAR LMML 170815Z 16008KT 130V200 9000 NSC 17/14 Q1006 BECMG
                        9999=
201102170800 METAR LMML NIL=
201102170745 METAR LMML 170745Z 16007KT 9000 NSC 15/14 Q1006 BECMG 9999=
201102170730 METAR LMML NIL=
201102170715 METAR LMML 170715Z 16007KT 120V190 8000 NSC 15/14 Q1006 BECMG
                        9999=
201102170700 METAR LMML NIL=
201102170645 METAR LMML 170645Z 14004KT 8000 NSC 14/14 Q1006 BECMG 9999=
201102170630 METAR LMML NIL=
201102170615 METAR LMML 170615Z 14005KT 9000 NSC 12/12 Q1006 NOSIG=
201102170600 METAR LMML NIL=
201102170545 METAR LMML 170545Z 15004KT 9999 FEW035 SCT100 13/12 Q1006
                        NOSIG=
201102170530 METAR LMML NIL=
201102170515 METAR LMML 170515Z 13004KT 9999 FEW035 SCT090 BKN120 13/13
                        Q1006 NOSIG=
201102170500 METAR LMML NIL=
201102170445 METAR LMML 170445Z 24003KT 9999 -RA FEW048 BKN090 14/13 Q1007
                        NOSIG=
201102170430 METAR LMML NIL=
201102170415 METAR LMML 170415Z VRB01KT CAVOK 13/13 Q1006 NOSIG=
201102170400 METAR LMML NIL=
201102170345 METAR LMML 170345Z 21005KT 180V260 CAVOK 14/13 Q1007 NOSIG=
201102170330 METAR LMML NIL=
201102170315 METAR LMML 170315Z 21003KT 9999 FEW040 SCT090 BKN120 14/13
                        Q1007 NOSIG=
201102170300 METAR LMML NIL=
201102170245 METAR LMML 170245Z 17004KT CAVOK 14/13 Q1007 NOSIG=
201102170230 METAR LMML NIL=
201102170215 METAR LMML 170215Z VRB02KT CAVOK 12/12 Q1007 NOSIG=
201102170200 METAR LMML NIL=
201102170145 METAR LMML 170145Z VRB01KT CAVOK 12/12 Q1007 NOSIG=
201102170130 METAR LMML NIL=
201102170115 METAR LMML 170115Z 13003KT CAVOK 13/12 Q1007 NOSIG=
201102170100 METAR LMML NIL=
201102170045 METAR LMML 170045Z VRB02KT CAVOK 12/11 Q1008 NOSIG=
201102170030 METAR LMML NIL=
201102170015 METAR LMML 170015Z VRB02KT CAVOK 13/10 Q1008 NOSIG=
201102170000 METAR LMML NIL=
201102162345 METAR LMML 162345Z 16005KT CAVOK 14/11 Q1008 NOSIG=
201102162330 METAR LMML NIL=
201102162315 METAR LMML 162315Z 17004KT 140V210 CAVOK 14/11 Q1009 NOSIG=
201102162300 METAR LMML NIL=
201102162245 METAR LMML 162245Z 18004KT CAVOK 14/11 Q1009 NOSIG=
201102162230 METAR LMML NIL=
201102162215 METAR LMML 162215Z 19004KT CAVOK 14/10 Q1009 NOSIG=
201102162200 METAR LMML NIL=
201102162145 METAR LMML 162145Z 18006KT CAVOK 14/10 Q1009 NOSIG=
201102162130 METAR LMML NIL=
201102162115 METAR LMML 162115Z 18006KT CAVOK 14/10 Q1009 NOSIG=
201102162100 METAR LMML NIL=
201102162045 METAR LMML 162045Z 19006KT CAVOK 14/09 Q1010 NOSIG=
201102162030 METAR LMML NIL=
201102162015 METAR LMML 162015Z 18006KT CAVOK 14/09 Q1009 NOSIG=
201102162000 METAR LMML NIL=
201102161945 METAR LMML 161945Z 19005KT CAVOK 14/09 Q1009 NOSIG=
201102161930 METAR LMML NIL=
201102161915 METAR LMML 161915Z 19007KT CAVOK 14/09 Q1009 NOSIG=
201102161900 METAR LMML NIL=
201102161845 METAR LMML 161845Z 20006KT 170V230 CAVOK 14/09 Q1009 NOSIG=
201102161830 METAR LMML NIL=
201102161815 METAR LMML 161815Z 20008KT 160V230 CAVOK 14/09 Q1009 NOSIG=
201102161800 METAR LMML NIL=
201102161745 METAR LMML 161745Z 20009KT 160V230 CAVOK 14/09 Q1009 NOSIG=
201102161730 METAR LMML NIL=
201102161715 METAR COR LMML 161715Z 20009KT 170V240 CAVOK 14/08 Q1009
                        NOSIG=
201102161700 METAR LMML NIL=
201102161645 METAR LMML 161645Z 20010KT 170V250 CAVOK 14/08 Q1009 NOSIG=
201102161630 METAR LMML NIL=
201102161615 METAR LMML 161615Z 21010KT 170V240 CAVOK 15/07 Q1009 NOSIG=
201102161600 METAR LMML NIL=
201102161545 METAR LMML 161545Z 20012KT 150V240 CAVOK 15/08 Q1009 NOSIG=
201102161530 METAR LMML NIL=
201102161515 METAR LMML 161515Z 20013KT 160V250 CAVOK 16/07 Q1009 NOSIG=
201102161445 METAR LMML 161445Z 20013KT 140V240 CAVOK 16/08 Q1009 NOSIG=
201102161430 METAR LMML NIL=
201102161415 METAR LMML 161415Z 20013KT 160V250 CAVOK 16/09 Q1009 NOSIG=
201102161400 METAR LMML NIL=
201102161345 METAR LMML 161345Z 20014KT 160V240 CAVOK 16/07 Q1009 NOSIG=
201102161330 METAR LMML NIL=
201102161315 METAR LMML 161315Z 20013KT 150V260 CAVOK 16/10 Q1009 NOSIG=
201102161300 METAR LMML NIL=
201102161245 METAR LMML 161245Z 20012KT 150V240 CAVOK 16/10 Q1009 NOSIG=
201102161230 METAR LMML NIL=
201102161215 METAR LMML 161215Z 20013KT 150V240 CAVOK 16/09 Q1010 NOSIG=
201102161200 METAR LMML NIL=
201102161145 METAR LMML 161145Z 20013KT 160V250 9999 FEW027 16/08 Q1010
                        NOSIG=
201102161115 METAR LMML 161115Z 20013KT 170V250 9999 FEW027 16/08 Q1011
                        NOSIG=
201102161100 METAR LMML NIL=
201102161045 METAR LMML 161045Z 20013KT 160V260 9999 FEW027 16/09 Q1011
                        NOSIG=
201102161015 METAR LMML 161015Z 20011G21KT 150V250 9999 FEW027 16/09 Q1011
                        NOSIG=
201102161000 METAR LMML NIL=
201102160945 METAR LMML 160945Z 20012KT 160V260 9999 FEW027 16/08 Q1011
                        NOSIG=
201102160930 METAR LMML NIL=
201102160915 METAR LMML 160915Z 20012KT 170V260 9999 FEW027 15/10 Q1011
                        NOSIG=
201102160900 METAR LMML NIL=
201102160845 METAR LMML 160845Z 20014KT 170V240 9999 FEW024 SCT048 15/10
                        Q1011 NOSIG=
201102160830 METAR LMML NIL=
201102160815 METAR LMML 160815Z 19012KT 160V230 9999 SCT022 SCT050 14/10
                        Q1011 NOSIG=
201102160800 METAR LMML NIL=
201102160745 METAR LMML 160745Z 20009KT 160V230 9999 SCT025 SCT080 14/10
                        Q1011 NOSIG=
201102160730 METAR LMML NIL=
201102160715 METAR LMML 160715Z 19009KT 150V240 9999 SCT030 SCT080 14/09
                        Q1011 NOSIG=
201102160700 METAR LMML NIL=
201102160645 METAR LMML 160645Z 20008KT 160V230 9999 SCT024 SCT090 BKN250
                        13/09 Q1011 NOSIG=
201102160630 METAR LMML NIL=
201102160615 METAR LMML 160615Z 20008KT 150V250 9999 FEW023 SCT100 BKN250
                        13/09 Q1011 NOSIG=
201102160545 METAR LMML 160545Z 20007KT 150V240 9999 FEW021 SCT120 BKN250
                        12/09 Q1011 NOSIG=
201102160530 METAR LMML NIL=
201102160515 METAR LMML 160515Z 20006KT 170V240 9999 FEW021 SCT120 BKN250
                        12/09 Q1011 NOSIG=
201102160445 METAR LMML 160445Z 21006KT 170V260 9999 FEW021 SCT120 BKN250
                        12/09 Q1011 NOSIG=
201102160430 METAR LMML NIL=
201102160415 METAR LMML 160415Z 19004KT 160V220 9999 FEW021 SCT250 11/09
                        Q1011 NOSIG=
201102160400 METAR LMML NIL=
201102160345 METAR LMML 160345Z 21004KT 170V260 9999 FEW021 BKN250 12/09
                        Q1011 NOSIG=
201102160315 METAR LMML 160315Z 21006KT 170V250 9999 FEW020 BKN250 12/09
                        Q1011 NOSIG=
201102160300 METAR LMML NIL=
201102160245 METAR LMML 160245Z 22008KT 190V250 9999 FEW019 BKN250 12/09
                        Q1011 NOSIG=
201102160230 METAR LMML NIL=
201102160215 METAR LMML 160215Z 22005KT 200V260 9999 FEW021 BKN250 11/09
                        Q1011 NOSIG=
201102160200 METAR LMML NIL=
201102160145 METAR LMML 160145Z 22004KT 190V250 9999 FEW021 SCT250 11/09
                        Q1011 NOSIG=
201102160130 METAR LMML NIL=
201102160115 METAR LMML 160115Z 23006KT 190V270 9999 FEW021 SCT040 BKN250
                        12/09 Q1011 NOSIG=
201102160100 METAR LMML NIL=
201102160045 METAR LMML 160045Z 23007KT 210V270 9999 SCT020 11/09 Q1012
                        NOSIG=
201102160030 METAR LMML NIL=
201102160015 METAR LMML 160015Z 23006KT 200V280 9999 SCT018 11/09 Q1012
                        NOSIG=
201102160000 METAR LMML NIL=
201102152345 METAR LMML 152345Z 22004KT 180V250 9999 SCT019 11/09 Q1012
                        NOSIG=
201102152330 METAR LMML NIL=
201102152315 METAR LMML 152315Z 22004KT 9999 SCT019 09/08 Q1012 NOSIG=
201102152300 METAR LMML NIL=
201102152245 METAR LMML 152245Z 23003KT 9999 FEW020 10/09 Q1012 NOSIG=
201102152230 METAR LMML NIL=
201102152215 METAR LMML 152215Z VRB02KT 9999 FEW020 10/09 Q1012 NOSIG=
201102152145 METAR LMML 152145Z 24003KT 9999 FEW019 10/09 Q1012 NOSIG=
201102152130 METAR LMML NIL=
201102152115 METAR LMML 152115Z 24004KT 9999 FEW019 11/09 Q1012 NOSIG=
201102152100 METAR LMML NIL=
201102152045 METAR LMML 152045Z 24003KT 9999 -SHRA SCT021 SCT080 11/09
                        Q1012 NOSIG=
201102152030 METAR LMML NIL=
201102152015 METAR LMML 152015Z 24004KT 9999 FEW025 SCT070 10/08 Q1012
                        NOSIG=
201102152000 METAR LMML NIL=
201102151945 METAR LMML 151945Z 26005KT 230V290 9999 FEW024 SCT070 10/07
                        Q1012 NOSIG=
201102151930 METAR LMML NIL=
201102151915 METAR LMML 151915Z 27005KT 9999 FEW026 10/07 Q1011 NOSIG=
201102151900 METAR LMML NIL=
201102151845 METAR LMML 151845Z 27006KT 9999 FEW026 10/07 Q1011 NOSIG=
201102151830 METAR LMML NIL=
201102151815 METAR LMML 151815Z 26006KT 240V300 CAVOK 10/07 Q1011 NOSIG=
201102151800 METAR LMML NIL=
201102151745 METAR LMML 151745Z 29007KT CAVOK 10/06 Q1011 TEMPO 9999 FEW025=
201102151730 METAR LMML NIL=
201102151715 METAR LMML 151715Z 29007KT 9999 FEW030 11/05 Q1011 NOSIG=
201102151700 METAR LMML NIL=
201102151645 METAR LMML 151645Z 29007KT 9999 FEW030 11/06 Q1011 NOSIG=
201102151615 METAR LMML 151615Z 30007KT 9999 FEW030 12/06 Q1010 NOSIG=
201102151600 METAR LMML NIL=
201102151545 METAR LMML 151545Z 30012KT 9999 FEW031 12/06 Q1010 NOSIG=
201102151530 METAR LMML NIL=
201102151515 METAR LMML 151515Z 29013KT 9999 SCT030 12/06 Q1010 NOSIG=
201102151500 METAR LMML NIL=
201102151445 METAR LMML 151445Z 28011KT 250V310 9999 FEW031 13/06 Q1010
                        NOSIG=
201102151430 METAR LMML NIL=
201102151415 METAR LMML 151415Z 28011KT 9999 FEW032 14/06 Q1010 NOSIG=
201102151400 METAR LMML NIL=
201102151345 METAR LMML 151345Z 29010KT 260V330 9999 SCT032 14/07 Q1010
                        NOSIG=
201102151330 METAR LMML NIL=
201102151315 METAR LMML 151315Z 28011KT 240V300 9999 SCT031 14/07 Q1009
                        NOSIG=
201102151300 METAR LMML NIL=
201102151245 METAR LMML 151245Z 28012KT 250V310 9999 SCT028 15/08 Q1009
                        NOSIG=
201102151230 METAR LMML NIL=
201102151215 METAR LMML 151215Z 29011KT 250V320 9999 BKN027 14/08 Q1009
                        NOSIG=
201102151200 METAR LMML NIL=
201102151145 METAR LMML 151145Z 29010KT 240V320 9999 BKN026 13/08 Q1010
                        NOSIG=
201102151130 METAR LMML NIL=
201102151115 METAR LMML 151115Z 28009KT 230V320 9999 BKN031 14/07 Q1010
                        NOSIG=
201102151100 METAR LMML NIL=
201102151045 METAR LMML 151045Z 28009KT 210V310 9999 SCT030 15/07 Q1010
                        NOSIG=
201102151030 METAR LMML NIL=
201102151015 METAR LMML 151015Z 29009KT 250V330 9999 SCT034 14/06 Q1011
                        NOSIG=
201102151000 METAR LMML NIL=
201102150945 METAR LMML 150945Z 30010KT 270V330 9999 SCT031 13/07 Q1011
                        NOSIG=
201102150930 METAR LMML NIL=
201102150915 METAR LMML 150915Z 28006KT 240V320 9999 SCT033 14/06 Q1010
                        NOSIG=
201102150900 METAR LMML NIL=
201102150845 METAR LMML 150845Z 30008KT 260V330 9999 FEW036 12/06 Q1010
                        NOSIG=
201102150830 METAR LMML NIL=
201102150815 METAR LMML 150815Z VRB02KT 9999 FEW035 12/07 Q1010 NOSIG=
201102150800 METAR LMML NIL=
201102150745 METAR LMML 150745Z VRB02KT 9999 SCT032 11/07 Q1010 NOSIG=
201102150730 METAR LMML NIL=
201102150715 METAR LMML 150715Z VRB02KT 9999 SCT032 11/07 Q1010 NOSIG=
201102150700 METAR LMML NIL=
201102150645 METAR LMML 150645Z 27003KT 9999 FEW034 08/06 Q1010 NOSIG=
201102150630 METAR LMML NIL=
201102150615 METAR LMML 150615Z 30003KT 9999 FEW034 07/05 Q1010 NOSIG=
201102150600 METAR LMML NIL=
201102150545 METAR LMML 150545Z 29003KT 9999 FEW020 07/05 Q1010 NOSIG=
201102150530 METAR LMML NIL=
201102150515 METAR LMML 150515Z 27004KT 9999 FEW030 SCT250 07/05 Q1009
                        NOSIG=
201102150500 METAR LMML NIL=
201102150445 METAR LMML 150445Z 27004KT 240V300 9999 FEW020 SCT250 08/05
                        Q1009 NOSIG=
201102150430 METAR LMML NIL=
201102150415 METAR LMML 150415Z 26004KT 9999 FEW020 SCT250 07/05 Q1009
                        NOSIG=
201102150345 METAR LMML 150345Z 28004KT 9999 FEW020 08/06 Q1009 NOSIG=
201102150315 METAR LMML 150315Z 28005KT 9999 SCT024 09/06 Q1009 NOSIG=
201102150300 METAR LMML NIL=
201102150245 METAR LMML 150245Z 28005KT 9999 FEW023 SCT050 08/06 Q1009
                        NOSIG=
201102150230 METAR LMML NIL=
201102150215 METAR LMML 150215Z 28004KT 9999 FEW020 09/06 Q1009 NOSIG=
201102150200 METAR LMML NIL=
201102150145 METAR LMML 150145Z 27003KT 9999 FEW020 09/07 Q1009 NOSIG=
201102150130 METAR LMML NIL=
201102150115 METAR LMML 150115Z 26003KT 9999 FEW020 SCT250 09/07 Q1010
                        NOSIG=
201102150100 METAR LMML NIL=
201102150045 METAR LMML 150045Z 28003KT 9999 FEW020 SCT050 09/08 Q1010
                        NOSIG=
201102150030 METAR LMML NIL=
201102150015 METAR LMML 150015Z 27004KT 9999 FEW020 SCT050 10/08 Q1010
                        NOSIG=
201102150000 METAR LMML NIL=
201102142345 METAR LMML 142345Z 27003KT 9999 FEW020 BKN060 09/08 Q1010
                        NOSIG=
201102142330 METAR LMML NIL=
201102142315 METAR LMML 142315Z VRB01KT 9999 FEW020 BKN060 10/08 Q1011
                        NOSIG=
201102142300 METAR LMML NIL=
201102142245 METAR LMML 142245Z 26003KT 9999 FEW020 BKN060 09/08 Q1011
                        NOSIG=
201102142230 METAR LMML NIL=
201102142215 METAR LMML 142215Z 00000KT 9999 FEW023 BKN060 09/08 Q1011
                        NOSIG=
201102142200 METAR LMML NIL=
201102142145 METAR LMML 142145Z VRB01KT 9999 FEW023 SCT060 09/07 Q1011
                        NOSIG=
201102142130 METAR LMML NIL=
201102142115 METAR LMML 142115Z VRB01KT 9999 FEW023 09/07 Q1010 NOSIG=
201102142100 METAR LMML NIL=
201102142045 METAR LMML 142045Z 03003KT 9999 FEW023 09/07 Q1010 NOSIG=
201102142030 METAR LMML NIL=
201102142015 METAR LMML 142015Z VRB02KT 9999 FEW023 10/07 Q1010 NOSIG=
201102142000 METAR LMML NIL=
201102141945 METAR LMML 141945Z VRB02KT 9999 FEW023 10/07 Q1010 NOSIG=
201102141930 METAR LMML NIL=
201102141915 METAR LMML 141915Z VRB02KT 9999 SCT024 10/07 Q1010 NOSIG=
201102141900 METAR LMML NIL=
201102141845 METAR LMML 141845Z VRB02KT 9999 SCT023 11/08 Q1010 NOSIG=
201102141830 METAR LMML NIL=
201102141815 METAR LMML 141815Z 04003KT 9999 SCT024 11/08 Q1009 NOSIG=
201102141800 METAR LMML NIL=
201102141745 METAR LMML 141745Z 05004KT 010V090 9999 SCT023 11/08 Q1009
                        NOSIG=
201102141730 METAR LMML NIL=
201102141715 METAR LMML 141715Z 05005KT 020V090 9999 SCT021 12/08 Q1009
                        NOSIG=
201102141700 METAR LMML NIL=
201102141645 METAR LMML 141645Z 04006KT 9999 SCT023 12/08 Q1009 NOSIG=
201102141630 METAR LMML NIL=
201102141615 METAR LMML 141615Z 04006KT 360V070 9999 SCT025 12/08 Q1009
                        NOSIG=
201102141600 METAR LMML NIL=
201102141545 METAR LMML 141545Z 02005KT 340V060 9999 BKN024 13/08 Q1009
                        NOSIG=
201102141515 METAR LMML 141515Z 01006KT 350V060 9999 BKN023 12/08 Q1009
                        NOSIG=
201102141500 METAR LMML NIL=
201102141445 METAR LMML 141445Z 02005KT 340V070 9999 BKN025 BKN250 13/09
                        Q1008 NOSIG=
201102141430 METAR LMML NIL=
201102141415 METAR LMML 141415Z 04010KT 010V100 9999 BKN023 BKN250 14/09
                        Q1008 NOSIG=
201102141400 METAR LMML NIL=
201102141345 METAR LMML 141345Z 04011KT 010V080 9999 BKN023 BKN250 14/09
                        Q1008 NOSIG=
201102141330 METAR LMML NIL=
201102141315 METAR LMML 141315Z 04009KT 360V080 9999 BKN022 BKN250 13/09
                        Q1008 NOSIG=
201102141300 METAR LMML NIL=
201102141245 METAR LMML 141245Z 04010KT 010V070 9999 BKN019 BKN250 13/09
                        Q1008 NOSIG=
201102141230 METAR LMML NIL=
201102141215 METAR LMML 141215Z 05010KT 020V090 9999 BKN018 BKN250 13/10
                        Q1008 NOSIG=
201102141145 METAR LMML 141145Z 04011KT 010V070 9999 BKN017 BKN250 13/10
                        Q1008 TEMPO BKN015=
201102141130 METAR LMML NIL=
201102141115 METAR LMML 141115Z 04010KT 340V100 9999 BKN017 BKN250 13/10
                        Q1008 TEMPO BKN015=
201102141100 METAR LMML NIL=
201102141045 METAR LMML 141045Z 04012KT 360V070 9999 BKN017 BKN250 13/10
                        Q1009 TEMPO BKN015=
201102141030 METAR LMML NIL=
201102141015 METAR LMML 141015Z 05012KT 020V090 9999 SCT016 SCT120 BKN250
                        13/10 Q1009 TEMPO BKN014=
201102141000 METAR LMML NIL=
201102140945 METAR LMML 140945Z 05011KT 010V080 9999 SCT016 BKN250 14/10
                        Q1009 TEMPO BKN014=
201102140930 METAR LMML NIL=
201102140915 METAR LMML 140915Z 05012KT 020V090 9999 BKN016 SCT120 13/10
                        Q1009 TEMPO BKN014=
201102140900 METAR LMML NIL=
201102140845 METAR LMML 140845Z 05009KT 010V080 9999 BKN016 BKN120 13/10
                        Q1009 TEMPO BKN014=
201102140830 METAR LMML NIL=
201102140815 METAR LMML 140815Z 04009KT 020V080 9999 FEW017 BKN120 12/10
                        Q1009 TEMPO BKN014=
201102140800 METAR LMML NIL=
201102140745 METAR LMML 140745Z 05009KT 020V080 9999 -RA FEW030 SCT080
                        OVC130 12/10 Q1010 NOSIG=
201102140730 METAR LMML NIL=
201102140715 METAR LMML 140715Z 06008KT 020V090 9999 -RA SCT020 SCT060
                        OVC080 12/10 Q1010 NOSIG=
201102140700 METAR LMML NIL=
201102140645 METAR LMML 140645Z 05008KT 020V080 9999 -RA BKN019 OVC080
                        12/10 Q1010 NOSIG=
201102140630 METAR LMML NIL=
201102140615 METAR LMML 140615Z 04007KT 010V070 9999 -RA BKN020 BKN080
                        12/10 Q1010 NOSIG=
201102140545 METAR LMML 140545Z 05007KT 020V090 9999 FEW022 BKN090 11/10
                        Q1010 NOSIG=
201102140530 METAR LMML NIL=
201102140515 METAR LMML 140515Z 05007KT 020V090 9999 FEW025 BKN100 11/09
                        Q1010 NOSIG=
201102140500 METAR LMML NIL=
201102140445 METAR LMML 140445Z 06006KT 030V100 9999 -RA SCT024 BKN090
                        11/09 Q1011 NOSIG=
201102140415 METAR LMML 140415Z 06008KT 030V100 9999 FEW025 BKN100 11/09
                        Q1011 NOSIG=
201102140400 METAR LMML NIL=
201102140345 METAR LMML 140345Z 04008KT 020V080 9999 FEW025 BKN100 11/09
                        Q1011 NOSIG=
201102140330 METAR LMML NIL=
201102140315 METAR LMML 140315Z 07006KT 9999 FEW025 BKN110 11/09 Q1011
                        NOSIG=
201102140300 METAR LMML NIL=
201102140245 METAR LMML 140245Z 06006KT 030V100 9999 FEW025 SCT110 11/09
                        Q1012 NOSIG=
201102140230 METAR LMML NIL=
201102140215 METAR LMML 140215Z 06005KT 9999 FEW026 SCT110 10/09 Q1012
                        NOSIG=
201102140200 METAR LMML NIL=
201102140145 METAR LMML 140145Z 06005KT 030V090 9999 FEW026 SCT110 10/09
                        Q1013 NOSIG=
201102140130 METAR LMML NIL=
201102140115 METAR LMML 140115Z 06004KT 9999 FEW023 10/09 Q1013 NOSIG=
201102140100 METAR LMML NIL=
201102140045 METAR LMML 140045Z 06003KT CAVOK 10/08 Q1013 NOSIG=
201102140030 METAR LMML NIL=
201102140015 METAR LMML 140015Z VRB02KT CAVOK 09/08 Q1014 NOSIG=
201102140000 METAR LMML NIL=
201102132345 METAR LMML 132345Z 09004KT CAVOK 09/08 Q1014 NOSIG=
201102132330 METAR LMML NIL=
201102132315 METAR LMML 132315Z 06003KT 9999 FEW030 SCT120 09/08 Q1015
                        NOSIG=
201102132300 METAR LMML NIL=
201102132245 METAR LMML 132245Z 11004KT 9999 FEW030 SCT120 10/08 Q1015
                        NOSIG=
201102132230 METAR LMML NIL=
201102132215 METAR LMML 132215Z VRB02KT 9999 FEW030 SCT120 09/08 Q1015
                        NOSIG=
201102132200 METAR LMML NIL=
201102132145 METAR LMML 132145Z VRB02KT 9999 FEW030 SCT120 09/07 Q1015
                        NOSIG=
201102132130 METAR LMML NIL=
201102132115 METAR LMML 132115Z 09003KT 9999 FEW030 09/07 Q1015 NOSIG=
201102132100 METAR LMML NIL=
201102132045 METAR LMML 132045Z 10004KT 050V110 9999 FEW030 10/07 Q1015
                        NOSIG=
201102132030 METAR LMML NIL=
201102132015 METAR LMML 132015Z 09004KT 040V110 9999 FEW030 10/07 Q1016
                        NOSIG=
201102132000 METAR LMML NIL=
201102131945 METAR LMML 131945Z 09003KT 9999 FEW030 10/06 Q1016 NOSIG=
201102131930 METAR LMML NIL=
201102131915 METAR LMML 131915Z 09003KT 9999 SCT030 11/07 Q1016 NOSIG=
201102131900 METAR LMML NIL=
201102131845 METAR LMML 131845Z 08003KT 9999 BKN031 11/07 Q1016 NOSIG=
201102131815 METAR LMML 131815Z 06003KT 9999 BKN031 11/07 Q1016 NOSIG=
201102131745 METAR LMML 131745Z 07003KT 9999 BKN031 11/07 Q1016 NOSIG=
201102131730 METAR LMML NIL=
201102131715 METAR LMML 131715Z 06003KT 9999 BKN030 11/06 Q1016 NOSIG=
201102131700 METAR LMML NIL=
201102131645 METAR LMML 131645Z 05003KT 9999 FEW034 11/07 Q1016 NOSIG=
201102131630 METAR LMML NIL=
201102131615 METAR LMML 131615Z 16003KT 9999 FEW034 12/07 Q1016 NOSIG=
201102131600 METAR LMML NIL=
201102131545 METAR LMML 131545Z 07004KT 020V090 9999 SCT034 13/07 Q1016
                        NOSIG=
201102131530 METAR LMML NIL=
201102131515 METAR LMML 131515Z 05003KT 9999 FEW032 13/07 Q1016 NOSIG=
201102131500 METAR LMML NIL=
201102131445 METAR LMML 131445Z 02003KT 9999 SCT033 14/07 Q1016 NOSIG=
201102131430 METAR LMML NIL=
201102131415 METAR LMML 131415Z 03004KT 360V070 9999 SCT033 14/08 Q1016
                        NOSIG=
201102131400 METAR LMML NIL=
201102131345 METAR LMML 131345Z 01006KT 320V060 9999 FEW033 16/08 Q1016
                        NOSIG=
201102131330 METAR LMML NIL=
201102131315 METAR LMML 131315Z VRB02KT 9999 SCT033 16/08 Q1016 NOSIG=
201102131300 METAR LMML NIL=
201102131245 METAR LMML 131245Z 25003KT 9999 FEW034 15/07 Q1016 NOSIG=
201102131230 METAR LMML NIL=
201102131215 METAR LMML 131215Z VRB02KT 9999 FEW034 15/07 Q1017 NOSIG=
201102131200 METAR LMML NIL=
201102131145 METAR LMML 131145Z 24003KT 9999 FEW034 15/07 Q1018 NOSIG=
201102131130 METAR LMML NIL=
201102131115 METAR LMML 131115Z 21005KT 120V280 9999 FEW034 15/08 Q1018
                        NOSIG=
201102131100 METAR LMML NIL=
201102131045 METAR LMML 131045Z 22005KT 180V270 9999 FEW034 15/06 Q1019
                        NOSIG=
201102131030 METAR LMML NIL=
201102131015 METAR LMML 131015Z 22004KT 130V310 9999 SCT033 14/07 Q1019
                        NOSIG=
201102130945 METAR LMML 130945Z VRB02KT 9999 SCT034 13/06 Q1019 NOSIG=
201102130930 METAR LMML NIL=
201102130915 METAR LMML 130915Z VRB02KT 9999 BKN033 14/07 Q1019 NOSIG=
201102130900 METAR LMML NIL=
201102130845 METAR LMML 130845Z VRB02KT 9999 SCT030 14/06 Q1019 NOSIG=
201102130830 METAR LMML NIL=
201102130815 METAR LMML 130815Z VRB02KT 9999 SCT030 13/06 Q1019 NOSIG=
201102130800 METAR LMML NIL=
201102130745 METAR LMML 130745Z VRB02KT 9999 FEW030 12/07 Q1019 NOSIG=
201102130715 METAR LMML 130715Z 25003KT 9999 FEW025 11/07 Q1019 NOSIG=
201102130700 METAR LMML NIL=
201102130645 METAR COR LMML 130645Z 27003KT 9999 FEW025 08/06 Q1019 NOSIG=
201102130630 METAR LMML NIL=
201102130615 METAR LMML 130615Z 29003KT 9999 FEW025 07/05 Q1019 NOSIG=
201102130600 METAR LMML NIL=
201102130545 METAR LMML 130545Z VRB02KT 9999 FEW030 07/05 Q1018 NOSIG=
201102130530 METAR LMML NIL=
201102130515 METAR LMML 130515Z VRB02KT 9999 FEW030 07/05 Q1018 NOSIG=
201102130500 METAR LMML NIL=
201102130445 METAR LMML 130445Z 28003KT CAVOK 07/05 Q1019 TEMPO 9999 FEW030=
201102130430 METAR LMML NIL=
201102130415 METAR LMML 130415Z VRB02KT CAVOK 07/05 Q1019 TEMPO 9999 FEW030=
201102130400 METAR LMML NIL=
201102130345 METAR LMML 130345Z 27003KT 9999 FEW032 07/06 Q1019 TEMPO
                        CAVOK=
201102130330 METAR LMML NIL=
201102130315 METAR LMML 130315Z 27003KT 9999 FEW032 08/06 Q1019 NOSIG=
201102130300 METAR LMML NIL=
201102130245 METAR LMML 130245Z 28005KT 9999 FEW032 08/05 Q1019 NOSIG=
201102130230 METAR LMML NIL=
201102130215 METAR LMML 130215Z 29004KT 9999 SCT032 09/05 Q1019 NOSIG=
201102130200 METAR LMML NIL=
201102130145 METAR LMML 130145Z 28003KT 9999 SCT032 08/05 Q1019 NOSIG=
201102130130 METAR LMML NIL=
201102130115 METAR LMML 130115Z 29003KT 9999 BKN032 09/06 Q1019 NOSIG=
201102130100 METAR LMML NIL=
201102130045 METAR LMML 130045Z 28004KT 9999 BKN031 09/06 Q1019 NOSIG=
201102130030 METAR LMML NIL=
201102130015 METAR LMML 130015Z 25003KT 9999 BKN029 08/06 Q1019 NOSIG=
201102130000 METAR LMML NIL=
201102122345 METAR LMML 122345Z 28003KT 9999 BKN028 08/06 Q1019 NOSIG=
201102122330 METAR LMML NIL=
201102122315 METAR LMML 122315Z 27004KT 9999 SCT028 08/06 Q1020 NOSIG=
201102122300 METAR LMML NIL=
201102122245 METAR LMML 122245Z 26003KT 9999 BKN028 08/06 Q1020 NOSIG=
201102122230 METAR LMML NIL=
201102122215 METAR LMML 122215Z VRB02KT 9999 FEW027 08/06 Q1020 NOSIG=
201102122200 METAR LMML NIL=
201102122145 METAR LMML 122145Z VRB02KT 9999 FEW016 08/06 Q1020 NOSIG=
201102122130 METAR LMML NIL=
201102122115 METAR LMML 122115Z 26003KT 9999 FEW016 08/06 Q1020 NOSIG=
201102122100 METAR LMML NIL=
201102122045 METAR LMML 122045Z VRB02KT CAVOK 08/06 Q1020 TEMPO 9999 FEW025=
201102122030 METAR LMML NIL=
201102122015 METAR LMML 122015Z VRB02KT CAVOK 08/06 Q1020 TEMPO 9999 FEW025=
201102122000 METAR LMML NIL=
201102121945 METAR LMML 121945Z 26003KT 9999 FEW030 09/06 Q1020 TEMPO
                        CAVOK=
201102121930 METAR LMML NIL=
201102121915 METAR LMML 121915Z 23003KT 9999 FEW030 09/07 Q1020 NOSIG=
201102121900 METAR LMML NIL=
201102121845 METAR LMML 121845Z VRB01KT CAVOK 09/06 Q1019 NOSIG=
201102121830 METAR LMML NIL=
201102121815 METAR LMML 121815Z 28003KT 9999 FEW028 10/06 Q1019 NOSIG=
201102121800 METAR LMML NIL=
201102121745 METAR LMML 121745Z 28003KT 9999 FEW028 10/06 Q1019 NOSIG=
201102121730 METAR LMML NIL=
201102121715 METAR LMML 121715Z 24003KT 9999 FEW028 10/07 Q1019 NOSIG=
201102121700 METAR LMML NIL=
201102121645 METAR LMML 121645Z 29004KT 260V320 9999 FEW027 11/06 Q1019
                        NOSIG=
201102121630 METAR LMML NIL=
201102121615 METAR COR LMML 121615Z 30006KT 280V340 9999 FEW027 SCT250
                        12/07 Q1019 NOSIG=
201102121600 METAR LMML NIL=
201102121545 METAR LMML 121545Z 30007KT 270V330 9999 FEW029 SCT250 13/07
                        Q1019 NOSIG=
201102121530 METAR LMML NIL=
201102121515 METAR LMML 121515Z 28006KT 230V310 9999 FEW029 SCT250 13/06
                        Q1019 NOSIG=
201102121500 METAR LMML NIL=
201102121445 METAR LMML 121445Z 28006KT 250V320 9999 FEW030 SCT250 13/07
                        Q1019 NOSIG=
201102121430 METAR LMML NIL=
201102121415 METAR LMML 121415Z 29007KT 250V340 9999 FEW030 SCT250 13/06
                        Q1019 NOSIG=
201102121345 METAR LMML 121345Z 30008KT 270V330 9999 SCT030 BKN250 14/07
                        Q1019 NOSIG=
201102121330 METAR LMML NIL=
201102121315 METAR LMML 121315Z 25006KT 200V320 9999 FEW031 BKN250 13/06
                        Q1019 NOSIG=
201102121300 METAR LMML NIL=
201102121245 METAR LMML 121245Z 28008KT 230V320 9999 FEW032 BKN250 14/07
                        Q1019 NOSIG=
201102121215 METAR LMML 121215Z 27007KT 200V310 9999 SCT033 BKN250 14/07
                        Q1019 NOSIG=
201102121145 METAR LMML 121145Z 25008KT 210V290 9999 SCT032 BKN250 14/06
                        Q1020 NOSIG=
201102121130 METAR LMML NIL=
201102121115 METAR LMML 121115Z 27006KT 230V310 9999 SCT032 BKN250 13/06
                        Q1020 NOSIG=
201102121100 METAR LMML NIL=
201102121045 METAR LMML 121045Z 29006KT 250V330 9999 SCT031 BKN250 13/06
                        Q1020 NOSIG=
201102121030 METAR LMML NIL=
201102121015 METAR LMML 121015Z 29006KT 230V030 9999 SCT032 BKN250 13/06
                        Q1021 NOSIG=
201102121000 METAR LMML NIL=
201102120945 METAR LMML 120945Z 29007KT 250V320 9999 SCT034 BKN250 12/05
                        Q1021 NOSIG=
201102120915 METAR LMML 120915Z 28008KT 250V310 9999 SCT034 BKN250 13/06
                        Q1021 NOSIG=
201102120900 METAR LMML NIL=
201102120845 METAR LMML 120845Z 28008KT 230V300 9999 BKN033 BKN250 13/06
                        Q1021 NOSIG=
201102120830 METAR LMML NIL=
201102120815 METAR LMML 120815Z 29005KT 260V320 9999 BKN035 BKN250 12/06
                        Q1021 NOSIG=
201102120800 METAR LMML NIL=
201102120745 METAR LMML 120745Z 28005KT 240V310 9999 BKN033 BKN250 12/07
                        Q1021 NOSIG=
201102120730 METAR LMML NIL=
201102120715 METAR LMML 120715Z 28005KT 9999 BKN033 SCT250 11/06 Q1021
                        NOSIG=
201102120645 METAR LMML 120645Z 27005KT 230V300 9999 BKN033 SCT250 11/06
                        Q1021 NOSIG=
201102120630 METAR LMML NIL=
201102120615 METAR LMML 120615Z 27004KT 240V300 9999 BKN031 11/06 Q1020
                        NOSIG=
201102120600 METAR LMML NIL=
201102120545 METAR LMML 120545Z 28005KT 240V300 9999 BKN033 BKN250 11/06
                        Q1020 NOSIG=
201102120530 METAR LMML NIL=
201102120515 METAR LMML 120515Z 26004KT 230V290 9999 BKN032 11/06 Q1020
                        NOSIG=
201102120500 METAR LMML NIL=
201102120445 METAR LMML 120445Z 27005KT 9999 BKN031 11/06 Q1020 NOSIG=
201102120430 METAR LMML NIL=
201102120415 METAR LMML 120415Z 25004KT 210V300 9999 BKN031 11/06 Q1020
                        NOSIG=
201102120400 METAR LMML NIL=
201102120345 METAR LMML 120345Z 27003KT 9999 BKN031 11/07 Q1020 NOSIG=
201102120330 METAR LMML NIL=
201102120315 METAR LMML 120315Z 28004KT 230V310 9999 BKN030 11/06 Q1020
                        NOSIG=
201102120300 METAR LMML NIL=
201102120245 METAR LMML 120245Z 29004KT 250V310 9999 BKN033 10/06 Q1020
                        NOSIG=
201102120230 METAR LMML NIL=
201102120215 METAR LMML 120215Z 30003KT 9999 BKN032 10/06 Q1020 NOSIG=
201102120200 METAR LMML NIL=
201102120145 METAR LMML 120145Z 28003KT 9999 BKN032 11/06 Q1021 NOSIG=
201102120130 METAR LMML NIL=
201102120115 METAR LMML 120115Z 27004KT 230V300 9999 BKN031 11/06 Q1021
                        NOSIG=
201102120100 METAR LMML NIL=
201102120045 METAR LMML 120045Z 27004KT 9999 BKN030 11/06 Q1021 NOSIG=
201102120030 METAR LMML NIL=
201102120015 METAR LMML 120015Z 28004KT 240V310 9999 BKN030 11/06 Q1021
                        NOSIG=
201102120000 METAR LMML NIL=
201102112345 METAR LMML 112345Z 27003KT 9999 BKN029 11/06 Q1021 NOSIG=
201102112330 METAR LMML NIL=
201102112315 METAR LMML 112315Z 27004KT 230V300 9999 BKN030 11/06 Q1022
                        NOSIG=
201102112300 METAR LMML NIL=
201102112245 METAR LMML 112245Z 25005KT 210V290 9999 BKN030 11/06 Q1022
                        NOSIG=
201102112230 METAR LMML NIL=
201102112215 METAR LMML 112215Z 27004KT 230V290 9999 BKN030 11/07 Q1022
                        NOSIG=
201102112200 METAR LMML NIL=
201102112145 METAR LMML 112145Z 25003KT 9999 BKN030 11/07 Q1022 NOSIG=
201102112130 METAR LMML NIL=
201102112115 METAR LMML 112115Z 27005KT 230V290 9999 BKN029 10/07 Q1022
                        NOSIG=
201102112100 METAR LMML NIL=
201102112045 METAR LMML 112045Z 27004KT 9999 SCT028 10/07 Q1022 NOSIG=
201102112030 METAR LMML NIL=
201102112015 METAR LMML 112015Z 27004KT 9999 BKN029 11/07 Q1022 NOSIG=
201102112000 METAR LMML NIL=
201102111945 METAR LMML 111945Z 27004KT 240V300 9999 BKN029 11/07 Q1022
                        NOSIG=
201102111930 METAR LMML NIL=
201102111915 METAR LMML 111915Z 26004KT 230V310 9999 BKN028 11/06 Q1022
                        NOSIG=
201102111900 METAR LMML NIL=
201102111845 METAR LMML 111845Z 27005KT 230V300 9999 BKN029 10/06 Q1022
                        NOSIG=
201102111830 METAR LMML NIL=
201102111815 METAR LMML 111815Z 27006KT 230V300 9999 SCT029 10/06 Q1023
                        NOSIG=
201102111800 METAR LMML NIL=
201102111745 METAR LMML 111745Z 29003KT 9999 SCT028 11/06 Q1023 NOSIG=
201102111730 METAR LMML NIL=
201102111715 METAR LMML 111715Z 28006KT 250V310 9999 SCT030 SCT130 11/06
                        Q1023 NOSIG=
201102111700 METAR LMML NIL=
201102111645 METAR LMML 111645Z 29007KT 9999 BKN031 11/06 Q1023 NOSIG=
201102111630 METAR LMML NIL=
201102111615 METAR LMML 111615Z 28008KT 9999 BKN032 12/06 Q1023 NOSIG=
201102111600 METAR LMML NIL=
201102111545 METAR LMML 111545Z 28009KT 250V310 9999 BKN031 12/07 Q1023
                        NOSIG=
201102111530 METAR LMML NIL=
201102111515 METAR LMML 111515Z 28008KT 220V310 9999 BKN033 12/08 Q1023
                        NOSIG=
201102111500 METAR LMML NIL=
201102111445 METAR LMML 111445Z 28012KT 9999 BKN032 13/08 Q1023 NOSIG=
201102111415 METAR LMML 111415Z 29010KT 250V320 9999 BKN023 13/09 Q1022
                        NOSIG=
201102111400 METAR LMML NIL=
201102111345 METAR LMML 111345Z 29011KT 260V320 9999 BKN023 14/08 Q1022
                        NOSIG=
201102111330 METAR LMML NIL=
201102111315 METAR LMML 111315Z 27010KT 230V310 9999 SCT029 14/08 Q1023
                        NOSIG=
201102111300 METAR LMML NIL=
201102111245 METAR LMML 111245Z 27009KT 210V300 9999 SCT029 14/08 Q1023
                        NOSIG=
201102111230 METAR LMML NIL=
201102111215 METAR LMML 111215Z 27008KT 230V310 9999 BKN029 15/09 Q1023
                        NOSIG=
201102111200 METAR LMML NIL=
201102111145 METAR LMML 111145Z 30008KT 260V330 9999 BKN029 14/09 Q1023
                        NOSIG=
201102111130 METAR LMML NIL=
201102111115 METAR LMML 111115Z 29004KT 250V320 9999 BKN028 15/09 Q1023
                        NOSIG=
201102111100 METAR LMML NIL=
201102111045 METAR LMML 111045Z 21006KT 150V270 9999 BKN023 15/09 Q1024
                        NOSIG=
201102111030 METAR LMML NIL=
201102111015 METAR LMML 111015Z 21004KT 150V280 9999 BKN025 15/09 Q1024
                        NOSIG=
201102111000 METAR LMML NIL=
201102110945 METAR LMML 110945Z 25004KT 160V310 9999 FEW025 BKN029 14/09
                        Q1024 NOSIG=
201102110930 METAR LMML NIL=
201102110915 METAR LMML 110915Z 23004KT 150V280 9999 FEW025 BKN028 14/09
                        Q1024 NOSIG=
201102110900 METAR LMML NIL=
201102110845 METAR LMML 110845Z VRB02KT 9999 FEW025 14/09 Q1024 NOSIG=
201102110830 METAR LMML NIL=
201102110815 METAR LMML 110815Z VRB02KT 9999 FEW025 14/09 Q1024 NOSIG=
201102110800 METAR LMML NIL=
201102110745 METAR LMML 110745Z 26003KT 9999 FEW025 12/09 Q1024 NOSIG=
201102110730 METAR LMML NIL=
201102110715 METAR LMML 110715Z VRB02KT 9999 FEW026 11/10 Q1024 NOSIG=
201102110700 METAR LMML NIL=
201102110645 METAR LMML 110645Z VRB02KT 9999 FEW025 09/08 Q1023 NOSIG=
201102110630 METAR LMML NIL=
201102110615 METAR LMML 110615Z VRB02KT 9999 SCT025 07/07 Q1023 NOSIG=
201102110600 METAR LMML NIL=
201102110545 METAR LMML 110545Z 25003KT 8000 SCT019 07/07 Q1023 TEMPO
                        5000 MIFG=
201102110530 METAR LMML NIL=
201102110515 METAR LMML 110515Z VRB02KT 9000 FEW019 07/07 Q1023 TEMPO
                        5000 MIFG=
201102110500 METAR LMML NIL=
201102110445 METAR LMML 110445Z VRB02KT 9000 SCT023 07/07 Q1022 TEMPO
                        5000 MIFG=
201102110430 METAR LMML NIL=
201102110415 METAR LMML 110415Z 28003KT 9000 SCT023 07/07 Q1022 TEMPO
                        5000 MIFG=
201102110400 METAR LMML NIL=
201102110345 METAR LMML 110345Z 27003KT 9000 FEW021 07/07 Q1023 TEMPO
                        6000 MIFG=
201102110330 METAR LMML NIL=
201102110315 METAR LMML 110315Z VRB02KT 9000 FEW021 07/07 Q1022 TEMPO
                        8000=
201102110300 METAR LMML NIL=
201102110245 METAR LMML 110245Z VRB02KT 9000 FEW021 07/07 Q1022 TEMPO
                        8000=
201102110230 METAR LMML NIL=
201102110215 METAR LMML 110215Z VRB01KT 9000 FEW021 08/08 Q1023 TEMPO
                        8000=
201102110145 METAR LMML 110145Z 00000KT 9000 FEW021 08/07 Q1023 TEMPO
                        8000=
201102110115 METAR LMML 110115Z VRB01KT 9999 FEW020 08/08 Q1023 NOSIG=
201102110100 METAR LMML NIL=
201102110045 METAR LMML 110045Z VRB01KT 9999 FEW020 08/08 Q1023 NOSIG=
201102110015 METAR LMML 110015Z VRB01KT 9999 FEW020 08/08 Q1022 NOSIG=
201102110000 METAR LMML NIL=
201102102345 METAR LMML 102345Z 00000KT 9999 BKN020 08/08 Q1023 TEMPO
                        8000=
201102102330 METAR LMML NIL=
201102102315 METAR LMML 102315Z VRB01KT 9999 BKN020 08/08 Q1023 TEMPO
                        8000=
201102102300 METAR LMML NIL=
201102102245 METAR LMML 102245Z VRB01KT 9999 BKN020 08/08 Q1023 TEMPO
                        8000=
201102102215 METAR LMML 102215Z VRB01KT 9999 SCT020 08/08 Q1023 TEMPO
                        8000=
201102102200 METAR LMML NIL=
201102102145 METAR LMML 102145Z VRB01KT 9999 SCT020 08/08 Q1023 NOSIG=
201102102130 METAR LMML NIL=
201102102115 METAR LMML 102115Z 00000KT 9999 FEW018 08/08 Q1023 NOSIG=
201102102100 METAR LMML NIL=
201102102045 METAR LMML 102045Z 25003KT 9999 FEW018 09/08 Q1023 NOSIG=
201102102030 METAR LMML NIL=
201102102015 METAR LMML 102015Z 25003KT 9999 FEW018 09/08 Q1023 NOSIG=
201102102000 METAR LMML NIL=
201102101945 METAR LMML 101945Z 26003KT 9999 FEW018 09/08 Q1023 NOSIG=
201102101930 METAR LMML NIL=
201102101915 METAR LMML 101915Z 23003KT 9999 FEW018 09/08 Q1022 NOSIG=
201102101845 METAR LMML 101845Z 27003KT 9999 FEW018 10/08 Q1022 NOSIG=
201102101830 METAR LMML NIL=
201102101815 METAR LMML 101815Z 28004KT 9999 FEW018 10/08 Q1022 NOSIG=
201102101800 METAR LMML NIL=
201102101745 METAR LMML 101745Z 27004KT 9999 FEW018 11/08 Q1022 NOSIG=
201102101730 METAR LMML NIL=
201102101715 METAR LMML 101715Z 27004KT 9999 FEW018 11/08 Q1022 NOSIG=
201102101700 METAR LMML NIL=
201102101645 METAR LMML 101645Z 29006KT 9999 FEW018 11/09 Q1022 NOSIG=
201102101630 METAR LMML NIL=
201102101615 METAR LMML 101615Z 29006KT 9999 FEW018 12/09 Q1022 NOSIG=
201102101600 METAR LMML NIL=
201102101545 METAR LMML 101545Z 27008KT 240V300 9999 FEW018 13/09 Q1022
                        NOSIG=
201102101515 METAR LMML 101515Z 26008KT 230V300 9999 FEW018 14/10 Q1022
                        NOSIG=
201102101500 METAR LMML NIL=
201102101445 METAR LMML 101445Z 28007KT 210V310 9999 FEW020 14/10 Q1021
                        NOSIG=
201102101430 METAR LMML NIL=
201102101415 METAR LMML 101415Z 28007KT 240V300 9999 FEW020 15/10 Q1021
                        NOSIG=
201102101400 METAR LMML NIL=
201102101345 METAR LMML 101345Z 27007KT 220V310 9999 SCT020 15/10 Q1021
                        NOSIG=
201102101330 METAR LMML NIL=
201102101315 METAR LMML 101315Z VRB02KT 9999 BKN018 17/12 Q1021 NOSIG=
201102101300 METAR LMML NIL=
201102101245 METAR LMML 101245Z 03004KT 330V090 9999 SCT020 16/12 Q1022
                        NOSIG=
201102101230 METAR LMML NIL=
201102101215 METAR LMML 101215Z 31004KT 230V020 9999 FEW021 17/13 Q1022
                        NOSIG=
201102101200 METAR LMML NIL=
201102101145 METAR LMML 101145Z 29004KT 250V340 9999 FEW022 16/11 Q1022
                        NOSIG=
201102101130 METAR LMML NIL=
201102101115 METAR LMML 101115Z 26003KT 9999 FEW020 16/11 Q1022 NOSIG=
201102101100 METAR LMML NIL=
201102101045 METAR LMML 101045Z VRB02KT 9999 SCT021 16/10 Q1023 NOSIG=
201102101030 METAR LMML NIL=
201102101015 METAR LMML 101015Z 31003KT 9000 SCT018 15/11 Q1023 NOSIG=
201102101000 METAR LMML NIL=
201102100945 METAR LMML 100945Z 32003KT 9000 SCT016 16/12 Q1023 NOSIG=
201102100930 METAR LMML NIL=
201102100915 METAR LMML 100915Z 32004KT 270V350 7000 SCT015 14/11 Q1023
                        BECMG 9999=
201102100900 METAR LMML NIL=
201102100845 METAR LMML 100845Z 28005KT 250V310 7000 SCT013 14/11 Q1022
                        BECMG 9999=
201102100830 METAR LMML NIL=
201102100815 METAR LMML 100815Z 28003KT 7000 FEW012 14/12 Q1022 BECMG
                        8000=
201102100800 METAR LMML NIL=
201102100745 METAR LMML 100745Z VRB02KT 6000 FEW012 12/12 Q1022 BECMG
                        8000 RMK MIST=
201102100730 METAR LMML NIL=
201102100715 METAR LMML 100715Z 25003KT 5000 BR FEW012 11/10 Q1022 BECMG
                        8000=
201102100708 SPECI LMML 100708Z 25003KT 5000 BR FEW012 10/10 Q1022 BECMG
                        8000=
201102100703 SPECI LMML 100703Z 25003KT 5000 BR NSC 10/10 Q1022 BECMG
                        8000=
201102100700 METAR LMML NIL=
201102100645 METAR LMML 100645Z 27003KT 3000 BCMIFG FEW012 09/09 Q1022
                        BECMG 6000 RMK MIST=
201102100630 METAR LMML NIL=
201102100615 METAR LMML 100615Z VRB02KT 3000 R13/0530VP1500U MIFG FEW012
                        08/08 Q1021 TEMPO 1000 BCFG RMK MIST=
201102100600 METAR LMML NIL=
201102100545 METAR LMML 100545Z VRB02KT 7000 MIFG FEW012 08/08 Q1021 TEMPO
                        5000 BR=
201102100515 METAR LMML 100515Z VRB02KT 7000 MIFG FEW012 08/08 Q1021 TEMPO
                        5000 BR=
201102100445 METAR LMML 100445Z VRB02KT 7000 MIFG FEW012 08/08 Q1021 TEMPO
                        5000 BR=
201102100430 METAR LMML NIL=
201102100415 METAR LMML 100415Z VRB01KT 6000 FEW012 08/08 Q1021 TEMPO
                        5000 BR=
201102100400 METAR LMML NIL=
201102100345 METAR LMML 100345Z VRB02KT 6000 MIFG FEW015 07/07 Q1021 TEMP
                        5000 BR=
201102100330 METAR LMML NIL=
201102100315 METAR LMML 100315Z VRB01KT 6000 FEW015 08/08 Q1021 NOSIG=
201102100300 METAR LMML NIL=
201102100245 METAR LMML 100245Z VRB01KT 6000 MIFG FEW015 08/07 Q1021 NOSIG=
201102100230 METAR LMML NIL=
201102100215 METAR LMML 100215Z VRB01KT 7000 MIFG FEW014 08/08 Q1021 NOSIG=
201102100200 METAR LMML NIL=
201102100145 METAR LMML 100145Z VRB01KT 9000 BR FEW015 08/08 Q1021 NOSIG=
201102100130 METAR LMML NIL=
201102100115 METAR LMML 100115Z VRB01KT 9000 BR FEW015 08/07 Q1021 NOSIG=
201102100100 METAR LMML NIL=
201102100045 METAR LMML 100045Z VRB02KT 9999 FEW015 08/07 Q1021 NOSIG=
201102100030 METAR LMML NIL=
201102100015 METAR LMML 100015Z VRB02KT 9999 FEW015 09/08 Q1021 NOSIG=
201102100000 METAR LMML NIL=
201102092345 METAR LMML 092345Z 27003KT 9999 FEW015 08/08 Q1021 NOSIG=
201102092315 METAR LMML 092315Z VRB02KT 9999 FEW015 09/08 Q1021 NOSIG=
201102092245 METAR LMML 092245Z 26004KT 9999 FEW015 09/08 Q1021 NOSIG=
201102092230 METAR LMML NIL=
201102092215 METAR LMML 092215Z 26004KT 9999 FEW015 09/08 Q1021 NOSIG=
201102092145 METAR LMML 092145Z 27003KT 9999 FEW015 09/08 Q1021 NOSIG=
201102092130 METAR LMML NIL=
201102092115 METAR LMML 092115Z 29003KT 9999 FEW015 09/08 Q1021 NOSIG=
201102092100 METAR LMML NIL=
201102092045 METAR LMML 092045Z VRB02KT 9999 FEW015 09/08 Q1020 NOSIG=
201102092030 METAR LMML NIL=
201102092015 METAR LMML 092015Z 28003KT 9999 FEW015 09/08 Q1020 NOSIG=
201102092000 METAR LMML NIL=
201102091945 METAR LMML 091945Z 30004KT 9999 FEW015 10/08 Q1020 NOSIG=
201102091915 METAR LMML 091915Z 29003KT 9999 FEW015 10/08 Q1020 NOSIG=
201102091900 METAR LMML NIL=
201102091845 METAR LMML 091845Z 32003KT 9999 FEW015 10/09 Q1020 NOSIG=
201102091830 METAR LMML NIL=
201102091815 METAR LMML 091815Z 34003KT 9999 FEW015 10/08 Q1020 NOSIG=
201102091800 METAR LMML NIL=
201102091745 METAR LMML 091745Z VRB02KT 9999 FEW016 10/08 Q1019 NOSIG=
201102091715 METAR LMML 091715Z 29004KT 9999 FEW016 11/09 Q1019 NOSIG=
201102091700 METAR LMML NIL=
201102091645 METAR LMML 091645Z 29006KT 260V320 9999 FEW016 11/09 Q1019
                        NOSIG=
201102091630 METAR LMML NIL=
201102091615 METAR LMML 091615Z 29007KT 9999 FEW019 12/09 Q1018 NOSIG=
201102091600 METAR LMML NIL=
201102091545 METAR LMML 091545Z 29009KT 9999 FEW019 13/10 Q1018 NOSIG=
201102091530 METAR LMML NIL=
201102091515 METAR LMML 091515Z 33005KT 9999 FEW019 13/10 Q1018 NOSIG=
201102091500 METAR LMML NIL=
201102091445 METAR LMML 091445Z 33008KT 9999 FEW019 13/10 Q1018 NOSIG=
201102091430 METAR LMML NIL=
201102091415 METAR LMML 091415Z 33007KT 9999 FEW018 14/10 Q1018 NOSIG=
201102091400 METAR LMML NIL=
201102091345 METAR LMML 091345Z 33008KT 9999 SCT020 13/10 Q1018 NOSIG=
201102091330 METAR LMML NIL=
201102091315 METAR LMML 091315Z 34008KT 9999 BKN018 13/10 Q1018 NOSIG=
201102091309 SPECI LMML 091309Z 34008KT 9999 BKN018 13/10 Q1018 NOSIG=
201102091300 METAR LMML NIL=
201102091245 METAR LMML 091245Z 30008KT 260V360 9999 BKN018 16/11 Q1018
                        NOSIG=
201102091230 METAR LMML NIL=
201102091215 METAR LMML 091215Z 31009KT 280V340 9999 SCT021 15/11 Q1018
                        NOSIG=
201102091200 METAR LMML NIL=
201102091145 METAR LMML 091145Z 29007KT 220V320 9999 SCT020 15/10 Q1018
                        NOSIG=
201102091130 METAR LMML NIL=
201102091115 METAR LMML 091115Z 31007KT 260V340 9999 SCT024 15/09 Q1019
                        NOSIG=
201102091100 METAR LMML NIL=
201102091045 METAR LMML 091045Z 30006KT 9999 SCT024 15/10 Q1019 NOSIG=
201102091030 METAR LMML NIL=
201102091015 METAR LMML 091015Z 30008KT 270V340 9999 SCT023 14/10 Q1019
                        NOSIG=
201102091000 METAR LMML NIL=
201102090945 METAR LMML 090945Z 30006KT 9999 SCT020 14/10 Q1019 NOSIG=
201102090915 METAR LMML 090915Z 32006KT 9999 SCT017 15/10 Q1019 NOSIG=
201102090907 SPECI LMML 090907Z 32006KT 9999 SCT016 14/10 Q1019 NOSIG=
201102090900 METAR LMML NIL=
201102090845 METAR LMML 090845Z 32006KT 280V340 9999 SCT016 14/12 Q1019
                        NOSIG=
201102090830 METAR LMML NIL=
201102090815 METAR LMML 090815Z 32005KT 9000 FEW020 13/11 Q1019 BECMG
                        9999=
201102090800 METAR LMML NIL=
201102090745 METAR LMML 090745Z 32003KT 9000 FEW020 12/11 Q1019 BECMG
                        9999=
201102090730 METAR LMML NIL=
201102090715 METAR LMML 090715Z 30003KT 9999 FEW020 11/10 Q1019 NOSIG=
201102090700 METAR LMML NIL=
201102090645 METAR LMML 090645Z 30003KT 9999 FEW020 09/09 Q1018 NOSIG=
201102090630 METAR LMML NIL=
201102090615 METAR LMML 090615Z 29003KT 9999 MIFG FEW020 08/08 Q1018 NOSIG=
201102090600 METAR LMML NIL=
201102090545 METAR LMML 090545Z 28003KT 9999 MIFG FEW020 08/08 Q1018 TEMPO
                        9000=
201102090530 METAR LMML NIL=
201102090515 METAR LMML 090515Z VRB02KT CAVOK 08/08 Q1018 TEMPO 9000 FEW015=
201102090500 METAR LMML NIL=
201102090445 METAR LMML 090445Z 29003KT CAVOK 08/07 Q1018 TEMPO 9000 FEW015=
201102090430 METAR LMML NIL=
201102090415 METAR LMML 090415Z VRB02KT CAVOK 08/08 Q1018 NOSIG=
201102090400 METAR LMML NIL=
201102090345 METAR LMML 090345Z VRB02KT CAVOK 08/08 Q1018 NOSIG=
201102090330 METAR LMML NIL=
201102090315 METAR LMML 090315Z VRB02KT CAVOK 08/07 Q1018 NOSIG=
201102090300 METAR LMML NIL=
201102090245 METAR LMML 090245Z 28003KT 9999 FEW022 08/07 Q1018 NOSIG=
201102090230 METAR LMML NIL=
201102090215 METAR LMML 090215Z VRB02KT 9999 FEW023 08/07 Q1018 NOSIG=
201102090200 METAR LMML NIL=
201102090145 METAR LMML 090145Z VRB02KT CAVOK 08/08 Q1018 NOSIG=
201102090130 METAR LMML NIL=
201102090115 METAR LMML 090115Z VRB02KT CAVOK 08/07 Q1018 NOSIG=
201102090100 METAR LMML NIL=
201102090045 METAR LMML 090045Z 29003KT CAVOK 08/07 Q1018 NOSIG=
201102090030 METAR LMML NIL=
201102090015 METAR LMML 090015Z 29003KT 9999 FEW028 08/07 Q1019 NOSIG=
201102090000 METAR LMML NIL=
201102082345 METAR LMML 082345Z 27003KT 9999 FEW029 08/07 Q1019 NOSIG=
201102082330 METAR LMML NIL=
201102082315 METAR LMML 082315Z 28003KT 9999 FEW027 09/08 Q1019 NOSIG=
201102082300 METAR LMML NIL=
201102082245 METAR LMML 082245Z 26003KT 9999 FEW026 09/08 Q1019 NOSIG=
201102082230 METAR LMML NIL=
201102082215 METAR LMML 082215Z 28003KT 9999 FEW028 09/08 Q1019 NOSIG=
201102082200 METAR LMML NIL=
201102082145 METAR LMML 082145Z 26003KT 9999 FEW026 09/08 Q1019 NOSIG=
201102082130 METAR LMML NIL=
201102082115 METAR LMML 082115Z 26003KT 9999 FEW025 09/08 Q1019 NOSIG=
201102082100 METAR LMML NIL=
201102082045 METAR LMML 082045Z 26003KT 9999 FEW025 09/09 Q1019 NOSIG=
201102082030 METAR LMML NIL=
201102082015 METAR LMML 082015Z VRB02KT 9999 FEW028 09/09 Q1019 NOSIG=
201102082000 METAR LMML NIL=
201102081945 METAR LMML 081945Z VRB01KT 9999 FEW028 10/10 Q1019 NOSIG=
201102081930 METAR LMML NIL=
201102081915 METAR LMML 081915Z VRB01KT 9999 FEW025 10/09 Q1019 NOSIG=
201102081900 METAR LMML NIL=
201102081845 METAR LMML 081845Z 00000KT 9999 FEW024 10/10 Q1019 NOSIG=
201102081830 METAR LMML NIL=
201102081815 METAR LMML 081815Z VRB01KT 9999 FEW024 11/09 Q1019 NOSIG=
201102081800 METAR LMML NIL=
201102081745 METAR LMML 081745Z VRB01KT 9999 FEW023 11/09 Q1019 NOSIG=
201102081730 METAR LMML NIL=
201102081715 METAR LMML 081715Z VRB01KT 9999 FEW023 12/10 Q1019 NOSIG=
201102081700 METAR LMML NIL=
201102081645 METAR LMML 081645Z VRB01KT 9999 SCT022 12/10 Q1019 NOSIG=
201102081615 METAR LMML 081615Z VRB02KT 9999 SCT021 SCT035 13/10 Q1019
                        NOSIG=
201102081600 METAR LMML NIL=
201102081545 METAR LMML 081545Z VRB02KT 9999 BKN021 13/10 Q1019 NOSIG=
201102081530 METAR LMML NIL=
201102081515 METAR LMML 081515Z VRB02KT 9999 BKN021 14/10 Q1019 NOSIG=
201102081500 METAR LMML NIL=
201102081445 METAR LMML 081445Z 03003KT 9999 BKN021 14/10 Q1019 NOSIG=
201102081430 METAR LMML NIL=
201102081415 METAR LMML 081415Z 36004KT 9999 BKN022 15/11 Q1019 NOSIG=
201102081400 METAR LMML NIL=
201102081345 METAR LMML 081345Z VRB02KT 9999 BKN020 14/11 Q1019 NOSIG=
201102081330 METAR LMML NIL=
201102081315 METAR LMML 081315Z 03003KT 9999 BKN023 15/11 Q1019 NOSIG=
201102081300 METAR LMML NIL=
201102081245 METAR LMML 081245Z VRB01KT 9999 BKN021 15/10 Q1019 NOSIG=
201102081230 METAR LMML NIL=
201102081215 METAR LMML 081215Z 07003KT 9999 BKN021 14/10 Q1020 NOSIG=
201102081145 METAR LMML 081145Z 03003KT 9999 BKN025 15/10 Q1020 NOSIG=
201102081130 METAR LMML NIL=
201102081115 METAR LMML 081115Z VRB02KT 9999 SCT027 15/09 Q1021 NOSIG=
201102081100 METAR LMML NIL=
201102081045 METAR LMML 081045Z 31003KT 9999 SCT030 15/10 Q1021 NOSIG=
201102081030 METAR LMML NIL=
201102081015 METAR LMML 081015Z 36003KT 9999 SCT022 16/09 Q1021 NOSIG=
201102081000 METAR LMML NIL=
201102080945 METAR LMML 080945Z 35004KT 300V020 9999 SCT021 16/11 Q1022
                        NOSIG=
201102080915 METAR LMML 080915Z VRB02KT 9999 SCT020 15/10 Q1022 NOSIG=
201102080845 METAR LMML 080845Z VRB02KT 9999 FEW020 15/10 Q1022 NOSIG=
201102080830 METAR LMML NIL=
201102080815 METAR LMML 080815Z VRB01KT 9999 FEW020 15/11 Q1022 NOSIG=
201102080800 METAR LMML NIL=
201102080745 METAR LMML 080745Z VRB01KT 9999 FEW020 12/10 Q1022 NOSIG=
201102080730 METAR LMML NIL=
201102080715 METAR LMML 080715Z 28004KT 250V310 9999 FEW020 11/09 Q1021
                        NOSIG=
201102080700 METAR LMML NIL=
201102080645 METAR LMML 080645Z 27004KT 9999 FEW020 09/07 Q1022 NOSIG=
201102080630 METAR LMML NIL=
201102080615 METAR LMML 080615Z 26004KT 9999 FEW020 08/07 Q1022 TEMPO
                        7000 FEW020=
201102080600 METAR LMML NIL=
201102080545 METAR LMML 080545Z 27003KT 9999 FEW018 07/07 Q1022 TEMPO
                        7000 FEW020=
201102080530 METAR LMML NIL=
201102080515 METAR LMML 080515Z VRB02KT CAVOK 07/07 Q1021 TEMPO 7000 FEW020=
201102080500 METAR LMML NIL=
201102080445 METAR LMML 080445Z VRB02KT CAVOK 06/06 Q1021 TEMPO 5000 BR=
201102080430 METAR LMML NIL=
201102080415 METAR LMML 080415Z VRB01KT CAVOK 06/05 Q1021 TEMPO 5000 BR=
201102080400 METAR LMML NIL=
201102080345 METAR LMML 080345Z 29003KT CAVOK 06/06 Q1022 TEMPO 5000 BR=
201102080330 METAR LMML NIL=
201102080315 METAR LMML 080315Z VRB01KT CAVOK 07/07 Q1022 TEMPO 3000 BR=
201102080300 METAR LMML NIL=
201102080245 METAR LMML 080245Z VRB02KT CAVOK 07/07 Q1022 TEMPO 3000 BR=
201102080230 METAR LMML NIL=
201102080215 METAR LMML 080215Z 24003KT CAVOK 08/08 Q1022 TEMPO 3000 BR=
201102080200 METAR LMML NIL=
201102080145 METAR LMML 080145Z 24003KT 6000 NSC 08/08 Q1022 TEMPO 3000
                        BR RMK MIST=
201102080130 METAR LMML NIL=
201102080115 METAR LMML 080115Z 24004KT 5000 BR NSC 08/08 Q1022 TEMPO
                        3000=
201102080100 METAR LMML NIL=
201102080045 METAR LMML 080045Z 27003KT 5000 BR NSC 08/08 Q1022 TEMPO
                        3000=
201102080030 METAR LMML NIL=
201102080015 METAR LMML 080015Z 29003KT 6000 NSC 08/08 Q1022 TEMPO 5000
                        BR RMK MIST=
201102080000 METAR LMML NIL=
201102072345 METAR LMML 072345Z 30003KT 7000 NSC 09/08 Q1022 TEMPO 5000
                        BR=
201102072330 METAR LMML NIL=
201102072315 METAR LMML 072315Z 32003KT 9000 NSC 09/09 Q1023 NOSIG=
201102072300 METAR LMML NIL=
201102072245 METAR LMML 072245Z 32003KT 9000 NSC 09/08 Q1023 NOSIG=
201102072215 METAR LMML 072215Z 32003KT CAVOK 09/08 Q1023 NOSIG=
201102072200 METAR LMML NIL=
201102072145 METAR LMML 072145Z 30003KT CAVOK 09/07 Q1023 NOSIG=
201102072130 METAR LMML NIL=
201102072115 METAR LMML 072115Z 31004KT CAVOK 09/07 Q1023 NOSIG=
201102072100 METAR LMML NIL=
201102072045 METAR LMML 072045Z 30003KT CAVOK 10/07 Q1024 NOSIG=
201102072030 METAR LMML NIL=
201102072015 METAR LMML 072015Z VRB02KT CAVOK 10/07 Q1024 NOSIG=
201102072000 METAR LMML NIL=
201102071945 METAR LMML 071945Z 28003KT CAVOK 10/07 Q1024 NOSIG=
201102071930 METAR LMML NIL=
201102071915 METAR LMML 071915Z 28003KT CAVOK 10/08 Q1024 NOSIG=
201102071900 METAR LMML NIL=
201102071845 METAR LMML 071845Z VRB02KT CAVOK 10/07 Q1024 NOSIG=
201102071815 METAR LMML 071815Z VRB02KT CAVOK 11/07 Q1024 NOSIG=
201102071800 METAR LMML NIL=
201102071745 METAR LMML 071745Z VRB01KT CAVOK 11/06 Q1024 NOSIG=
201102071730 METAR LMML NIL=
201102071715 METAR LMML 071715Z VRB01KT CAVOK 11/06 Q1024 NOSIG=
201102071700 METAR LMML NIL=
201102071645 METAR LMML 071645Z VRB02KT 9999 FEW020 12/07 Q1023 NOSIG=
201102071630 METAR LMML NIL=
201102071615 METAR LMML 071615Z 01004KT 9999 FEW020 14/09 Q1023 NOSIG=
201102071600 METAR LMML NIL=
201102071545 METAR LMML 071545Z 01003KT 9999 FEW020 15/09 Q1023 NOSIG=
201102071530 METAR LMML NIL=
201102071515 METAR LMML 071515Z 02004KT 340V040 9999 FEW020 15/08 Q1023
                        NOSIG=
201102071500 METAR LMML NIL=
201102071445 METAR LMML 071445Z 01006KT 9999 FEW020 16/08 Q1023 NOSIG=
201102071430 METAR LMML NIL=
201102071415 METAR LMML 071415Z 04006KT 360V080 9999 FEW020 16/08 Q1023
                        NOSIG=
201102071345 METAR LMML 071345Z 03005KT 350V050 9999 FEW020 17/09 Q1023
                        NOSIG=
201102071330 METAR LMML NIL=
201102071315 METAR LMML 071315Z 04004KT 340V090 9999 FEW020 16/10 Q1023
                        NOSIG=
201102071300 METAR LMML NIL=
201102071245 METAR LMML 071245Z 02005KT 320V050 9999 FEW020 17/10 Q1024
                        NOSIG=
201102071230 METAR LMML NIL=
201102071215 METAR LMML 071215Z 04005KT 340V100 9999 FEW020 17/10 Q1024
                        NOSIG=
201102071200 METAR LMML NIL=
201102071145 METAR LMML 071145Z 05005KT 010V110 9999 FEW020 17/11 Q1024
                        NOSIG=
201102071130 METAR LMML NIL=
201102071115 METAR LMML 071115Z 05004KT 300V110 9999 FEW020 16/10 Q1025
                        NOSIG=
201102071045 METAR LMML 071045Z 04005KT 360V090 9999 FEW020 17/11 Q1025
                        NOSIG=
201102071030 METAR LMML NIL=
201102071015 METAR LMML 071015Z 05005KT 020V090 9999 FEW020 16/11 Q1025
                        NOSIG=
201102071000 METAR LMML NIL=
201102070945 METAR LMML 070945Z 04005KT 360V080 9999 FEW020 16/11 Q1025
                        NOSIG=
201102070930 METAR LMML NIL=
201102070915 METAR LMML 070915Z 04006KT 010V080 9999 FEW020 15/11 Q1025
                        NOSIG=
201102070900 METAR LMML NIL=
201102070845 METAR LMML 070845Z 04005KT 010V080 9999 FEW020 15/11 Q1025
                        NOSIG=
201102070830 METAR LMML NIL=
201102070815 METAR LMML 070815Z 04004KT 360V070 CAVOK 15/10 Q1025 NOSIG=
201102070800 METAR LMML NIL=
201102070745 METAR LMML 070745Z VRB02KT CAVOK 13/10 Q1025 NOSIG=
201102070730 METAR LMML NIL=
201102070715 METAR LMML 070715Z VRB02KT CAVOK 10/10 Q1024 NOSIG=
201102070700 METAR LMML NIL=
201102070645 METAR LMML 070645Z 32003KT CAVOK 08/08 Q1024 NOSIG=
201102070630 METAR LMML NIL=
201102070615 METAR LMML 070615Z 31003KT CAVOK 08/07 Q1024 NOSIG=
201102070600 METAR LMML NIL=
201102070545 METAR LMML 070545Z 31003KT 9999 FEW018 08/08 Q1024 NOSIG=
201102070530 METAR LMML NIL=
201102070515 METAR LMML 070515Z VRB02KT 9999 FEW018 08/07 Q1024 NOSIG=
201102070500 METAR LMML NIL=
201102070445 METAR LMML 070445Z 31003KT CAVOK 07/07 Q1024 NOSIG=
201102070430 METAR LMML NIL=
201102070415 METAR LMML 070415Z VRB02KT CAVOK 08/08 Q1024 NOSIG=
201102070400 METAR LMML NIL=
201102070345 METAR LMML 070345Z VRB02KT CAVOK 08/08 Q1024 NOSIG=
201102070330 METAR LMML NIL=
201102070315 METAR LMML 070315Z VRB02KT CAVOK 08/08 Q1024 NOSIG=
201102070300 METAR LMML NIL=
201102070245 METAR LMML 070245Z 27003KT CAVOK 08/08 Q1024 NOSIG=
201102070230 METAR LMML NIL=
201102070215 METAR LMML 070215Z 29003KT CAVOK 07/07 Q1024 NOSIG=
201102070145 METAR LMML 070145Z VRB02KT CAVOK 08/07 Q1024 TEMPO 9000 NSC=
201102070130 METAR LMML NIL=
201102070115 METAR LMML 070115Z VRB01KT CAVOK 08/07 Q1025 TEMPO 9000 NSC=
201102070100 METAR LMML NIL=
201102070045 METAR LMML 070045Z VRB02KT CAVOK 08/07 Q1025 TEMPO 9000 NSC=
201102070030 METAR LMML NIL=
201102070015 METAR LMML 070015Z 33003KT CAVOK 08/08 Q1025 TEMPO 9000 NSC=
201102070000 METAR LMML NIL=
201102062345 METAR LMML 062345Z VRB01KT CAVOK 08/08 Q1025 NOSIG=
201102062330 METAR LMML NIL=
201102062315 METAR LMML 062315Z 28003KT CAVOK 08/07 Q1025 NOSIG=
201102062300 METAR LMML NIL=
201102062245 METAR LMML 062245Z 29004KT CAVOK 09/07 Q1025 NOSIG=
201102062230 METAR LMML NIL=
201102062215 METAR LMML 062215Z 30004KT CAVOK 09/07 Q1025 NOSIG=
201102062200 METAR LMML NIL=
201102062145 METAR LMML 062145Z 28004KT CAVOK 10/08 Q1025 NOSIG=
201102062130 METAR LMML NIL=
201102062115 METAR LMML 062115Z 29004KT CAVOK 09/07 Q1025 NOSIG=
201102062100 METAR LMML NIL=
201102062045 METAR LMML 062045Z 30003KT CAVOK 09/07 Q1025 NOSIG=
201102062030 METAR LMML NIL=
201102062015 METAR LMML 062015Z 28004KT CAVOK 09/07 Q1025 NOSIG=
201102062000 METAR LMML NIL=
201102061945 METAR LMML 061945Z 28005KT CAVOK 10/07 Q1025 NOSIG=
201102061930 METAR LMML NIL=
201102061915 METAR LMML 061915Z 28004KT 240V300 CAVOK 10/07 Q1025 NOSIG=
201102061900 METAR LMML NIL=
201102061845 METAR LMML 061845Z 27004KT CAVOK 10/08 Q1025 NOSIG=
201102061830 METAR LMML NIL=
201102061815 METAR LMML 061815Z 30004KT CAVOK 11/08 Q1025 NOSIG=
201102061800 METAR LMML NIL=
201102061745 METAR LMML 061745Z 29004KT 9999 FEW030 11/08 Q1025 NOSIG=
201102061730 METAR LMML NIL=
201102061715 METAR LMML 061715Z 30004KT 9999 FEW030 11/08 Q1025 NOSIG=
201102061700 METAR LMML NIL=
201102061645 METAR LMML 061645Z 32005KT 9999 FEW030 11/08 Q1025 NOSIG=
201102061630 METAR LMML NIL=
201102061615 METAR LMML 061615Z 32006KT 9999 FEW030 12/08 Q1025 NOSIG=
201102061600 METAR LMML NIL=
201102061545 METAR LMML 061545Z 33006KT 9999 FEW030 13/07 Q1025 NOSIG=
201102061530 METAR LMML NIL=
201102061515 METAR LMML 061515Z 32008KT 9999 FEW030 14/05 Q1025 NOSIG=
201102061500 METAR LMML NIL=
201102061445 METAR LMML 061445Z 32007KT 290V350 9999 FEW030 14/07 Q1025
                        NOSIG=
201102061430 METAR LMML NIL=
201102061415 METAR LMML 061415Z 33007KT 9999 FEW030 15/08 Q1025 NOSIG=
201102061345 METAR LMML 061345Z 33007KT 9999 FEW030 15/06 Q1025 NOSIG=
201102061330 METAR LMML NIL=
201102061315 METAR LMML 061315Z 34006KT 280V020 9999 FEW030 15/08 Q1025
                        NOSIG=
201102061300 METAR LMML NIL=
201102061245 METAR LMML 061245Z 36006KT 9999 FEW030 16/08 Q1025 NOSIG=
201102061230 METAR LMML NIL=
201102061215 METAR LMML 061215Z 29005KT 9999 FEW025 16/09 Q1025 NOSIG=
201102061200 METAR LMML NIL=
201102061145 METAR LMML 061145Z 01005KT 340V050 9999 FEW028 16/09 Q1026
                        NOSIG=
201102061130 METAR LMML NIL=
201102061115 METAR LMML 061115Z 01005KT 9999 FEW028 16/08 Q1026 NOSIG=
201102061045 METAR LMML 061045Z 36006KT 320V030 9999 FEW028 15/07 Q1026
                        NOSIG=
201102061030 METAR LMML NIL=
201102061015 METAR LMML 061015Z 04007KT 360V070 9999 FEW027 15/07 Q1026
                        NOSIG=
201102061000 METAR LMML NIL=
201102060945 METAR LMML 060945Z 04006KT 9999 FEW025 15/08 Q1026 NOSIG=
201102060930 METAR LMML NIL=
201102060915 METAR LMML 060915Z 03006KT 9999 FEW025 15/08 Q1026 NOSIG=
201102060900 METAR LMML NIL=
201102060845 METAR LMML 060845Z 04008KT 010V070 9999 FEW025 14/08 Q1026
                        NOSIG=
201102060830 METAR LMML NIL=
201102060815 METAR LMML 060815Z 03006KT 9999 FEW020 14/08 Q1027 NOSIG=
201102060800 METAR LMML NIL=
201102060745 METAR LMML 060745Z 03006KT 360V070 9999 FEW020 13/08 Q1026
                        NOSIG=
201102060715 METAR LMML 060715Z 04005KT 360V070 9999 FEW021 11/08 Q1026
                        NOSIG=
201102060700 METAR LMML NIL=
201102060645 METAR LMML 060645Z 03005KT 300V080 9999 FEW020 11/08 Q1026
                        NOSIG=
201102060630 METAR LMML NIL=
201102060615 METAR LMML 060615Z 04005KT 010V080 9999 SCT021 10/07 Q1026
                        NOSIG=
201102060600 METAR LMML NIL=
201102060545 METAR LMML 060545Z 04005KT 010V070 9999 FEW027 09/06 Q1026
                        NOSIG=
201102060530 METAR LMML NIL=
201102060515 METAR LMML 060515Z 03003KT 9999 FEW027 08/06 Q1026 NOSIG=
201102060500 METAR LMML NIL=
201102060445 METAR LMML 060445Z 02003KT 9999 SCT027 08/06 Q1026 NOSIG=
201102060430 METAR LMML NIL=
201102060415 METAR LMML 060415Z VRB02KT 9999 FEW027 08/05 Q1025 NOSIG=
201102060345 METAR LMML 060345Z 02003KT 9999 FEW027 08/06 Q1025 NOSIG=
201102060330 METAR LMML NIL=
201102060315 METAR LMML 060315Z 02003KT 9999 FEW027 08/06 Q1026 NOSIG=
201102060245 METAR LMML 060245Z 01005KT 9999 FEW027 08/06 Q1026 NOSIG=
201102060230 METAR LMML NIL=
201102060215 METAR LMML 060215Z 35005KT 9999 FEW027 08/05 Q1026 NOSIG=
201102060200 METAR LMML NIL=
201102060145 METAR LMML 060145Z 36006KT 9999 FEW027 09/06 Q1026 NOSIG=
201102060130 METAR LMML NIL=
201102060115 METAR LMML 060115Z 36007KT 9999 FEW027 09/06 Q1026 NOSIG=
201102060100 METAR LMML NIL=
201102060045 METAR LMML 060045Z 01007KT 9999 FEW025 09/07 Q1027 NOSIG=
201102060030 METAR LMML NIL=
201102060015 METAR LMML 060015Z 01006KT 9999 FEW025 09/07 Q1027 NOSIG=
201102060000 METAR LMML NIL=
201102052345 METAR LMML 052345Z 01007KT 9999 FEW025 10/07 Q1027 NOSIG=
201102052315 METAR LMML 052315Z 01005KT 9999 FEW025 10/07 Q1027 NOSIG=
201102052300 METAR LMML NIL=
201102052245 METAR LMML 052245Z 03006KT 9999 FEW025 10/06 Q1027 NOSIG=
201102052230 METAR LMML NIL=
201102052215 METAR LMML 052215Z 03007KT 010V070 9999 FEW025 11/06 Q1027
                        NOSIG=
201102052145 METAR LMML 052145Z 04009KT 010V070 9999 FEW025 11/06 Q1027
                        NOSIG=
201102052130 METAR LMML NIL=
201102052115 METAR LMML 052115Z 04007KT 010V070 9999 FEW027 11/07 Q1027
                        NOSIG=
201102052045 METAR LMML 052045Z 04008KT 010V080 9999 FEW026 11/06 Q1027
                        NOSIG=
201102052030 METAR LMML NIL=
201102052015 METAR LMML 052015Z 04008KT 010V080 9999 FEW029 11/06 Q1027
                        NOSIG=
201102051945 METAR LMML 051945Z 05008KT 020V080 9999 FEW025 11/06 Q1027
                        NOSIG=
201102051930 METAR LMML NIL=
201102051915 METAR LMML 051915Z 04009KT 010V080 9999 FEW025 11/06 Q1027
                        NOSIG=
201102051900 METAR LMML NIL=
201102051845 METAR LMML 051845Z 05009KT 360V080 9999 FEW025 11/06 Q1027
                        NOSIG=
201102051830 METAR LMML NIL=
201102051815 METAR LMML 051815Z 05009KT 020V100 9999 FEW025 11/06 Q1027
                        NOSIG=
201102051800 METAR LMML NIL=
201102051745 METAR LMML 051745Z 05010KT 020V100 9999 FEW027 11/06 Q1027
                        NOSIG=
201102051730 METAR LMML NIL=
201102051715 METAR LMML 051715Z 05008KT 020V090 9999 FEW027 11/06 Q1026
                        NOSIG=
201102051700 METAR LMML NIL=
201102051645 METAR LMML 051645Z 04009KT 020V090 9999 FEW029 12/06 Q1026
                        NOSIG=
201102051630 METAR LMML NIL=
201102051615 METAR LMML 051615Z 04012KT 010V070 9999 FEW029 12/07 Q1026
                        NOSIG=
201102051600 METAR LMML NIL=
201102051545 METAR LMML 051545Z 03012KT 010V070 9999 FEW028 13/06 Q1026
                        NOSIG=
201102051530 METAR LMML NIL=
201102051515 METAR LMML 051515Z 04015KT 360V070 9999 FEW028 13/07 Q1026
                        NOSIG=
201102051500 METAR LMML NIL=
201102051445 METAR LMML 051445Z 03013KT 360V070 9999 SCT029 13/06 Q1025
                        NOSIG=
201102051430 METAR LMML NIL=
201102051415 METAR LMML 051415Z 04010KT 010V070 9999 BKN029 SCT050 13/07
                        Q1025 NOSIG=
201102051400 METAR LMML NIL=
201102051345 METAR LMML 051345Z 03012KT 360V080 9999 BKN031 SCT070 12/07
                        Q1025 NOSIG=
201102051330 METAR LMML NIL=
201102051315 METAR LMML 051315Z 04011KT 010V080 9999 BKN029 SCT070 13/07
                        Q1025 NOSIG=
201102051300 METAR LMML NIL=
201102051245 METAR LMML 051245Z 05011KT 010V080 9999 BKN030 14/07 Q1025
                        NOSIG=
201102051230 METAR LMML NIL=
201102051215 METAR LMML 051215Z 04011KT 360V070 9999 BKN032 14/07 Q1025
                        NOSIG=
201102051200 METAR LMML NIL=
201102051145 METAR LMML 051145Z 04011KT 360V080 9999 BKN034 15/07 Q1026
                        NOSIG=
201102051130 METAR LMML NIL=
201102051115 METAR LMML 051115Z 03011KT 360V070 9999 SCT030 15/07 Q1026
                        NOSIG=
201102051100 METAR LMML NIL=
201102051045 METAR LMML 051045Z 05012KT 010V090 9999 SCT031 14/07 Q1026
                        NOSIG=
201102051030 METAR LMML NIL=
201102051015 METAR LMML 051015Z 04013KT 010V080 9999 SCT032 14/06 Q1026
                        NOSIG=
201102051000 METAR LMML NIL=
201102050945 METAR LMML 050945Z 04009KT 360V070 9999 SCT030 14/07 Q1027
                        NOSIG=
201102050930 METAR LMML NIL=
201102050915 METAR LMML 050915Z 02010KT 360V060 9999 BKN031 12/06 Q1026
                        NOSIG=
201102050900 METAR LMML NIL=
201102050845 METAR LMML 050845Z 01011KT 9999 SCT033 13/07 Q1027 NOSIG=
201102050830 METAR LMML NIL=
201102050815 METAR LMML 050815Z 01011KT 330V050 9999 FEW034 11/05 Q1027
                        NOSIG=
201102050800 METAR LMML NIL=
201102050745 METAR LMML 050745Z 02010G20KT 340V040 9999 FEW033 13/06 Q1026
                        NOSIG=
201102050730 METAR LMML NIL=
201102050715 METAR LMML 050715Z 03010KT 010V070 9999 FEW039 12/05 Q1026
                        NOSIG=
201102050700 METAR LMML NIL=
201102050645 METAR LMML 050645Z 03012KT 9999 FEW039 11/03 Q1025 NOSIG=
201102050630 METAR LMML NIL=
201102050615 METAR LMML 050615Z 01009KT 9999 SCT033 10/06 Q1025 NOSIG=
201102050600 METAR LMML NIL=
201102050545 METAR LMML 050545Z 02007KT 350V070 9999 FEW033 10/05 Q1025
                        NOSIG=
201102050530 METAR LMML NIL=
201102050515 METAR LMML 050515Z 02007KT 350V060 9999 FEW035 10/04 Q1025
                        NOSIG=
201102050500 METAR LMML NIL=
201102050445 METAR LMML 050445Z 02010KT 9999 FEW036 10/04 Q1025 NOSIG=
201102050430 METAR LMML NIL=
201102050415 METAR LMML 050415Z 03010KT 360V060 9999 FEW037 10/04 Q1024
                        NOSIG=
201102050400 METAR LMML NIL=
201102050345 METAR LMML 050345Z 02008KT 350V050 9999 FEW039 10/04 Q1024
                        NOSIG=
201102050330 METAR LMML NIL=
201102050315 METAR LMML 050315Z 04009KT 010V080 9999 FEW037 10/04 Q1024
                        NOSIG=
201102050300 METAR LMML NIL=
201102050245 METAR LMML 050245Z 04012KT 9999 FEW030 11/03 Q1024 NOSIG=
201102050230 METAR LMML NIL=
201102050215 METAR LMML 050215Z 03012KT 360V070 9999 FEW030 SCT060 11/04
                        Q1024 NOSIG=
201102050200 METAR LMML NIL=
201102050145 METAR LMML 050145Z 02010KT 360V060 9999 FEW030 BKN060 11/04
                        Q1025 NOSIG=
201102050130 METAR LMML NIL=
201102050115 METAR LMML 050115Z 02009KT 360V060 9999 FEW031 BKN060 11/04
                        Q1025 NOSIG=
201102050100 METAR LMML NIL=
201102050045 METAR LMML 050045Z 02010KT 9999 FEW031 BKN060 11/04 Q1024
                        NOSIG=
201102050030 METAR LMML NIL=
201102050015 METAR LMML 050015Z 02008KT 350V050 9999 FEW031 BKN060 11/05
                        Q1025 NOSIG=
201102050000 METAR LMML NIL=
201102042345 METAR LMML 042345Z 02008KT 350V060 9999 FEW030 SCT060 11/05
                        Q1025 NOSIG=
201102042330 METAR LMML NIL=
201102042315 METAR LMML 042315Z 02009KT 350V050 9999 FEW030 BKN060 BKN100
                        11/05 Q1025 NOSIG=
201102042245 METAR LMML 042245Z 01009KT 340V040 9999 FEW030 SCT060 BKN100
                        11/04 Q1025 NOSIG=
201102042230 METAR LMML NIL=
201102042215 METAR LMML 042215Z 02009KT 360V080 9999 FEW030 BKN090 11/04
                        Q1025 NOSIG=
201102042200 METAR LMML NIL=
201102042145 METAR LMML 042145Z 02008KT 350V050 9999 FEW030 BKN080 11/04
                        Q1024 NOSIG=
201102042130 METAR LMML NIL=
201102042115 METAR COR LMML 042115Z 03011KT 360V060 9999 FEW030 BKN080
                        11/04 Q1024 NOSIG=
201102042045 METAR LMML 042045Z 03008KT 010V070 9999 FEW040 SCT070 BKN120
                        11/04 Q1024 NOSIG=
201102042030 METAR LMML NIL=
201102042015 METAR LMML 042015Z 04009KT 010V070 9999 SCT042 SCT070 BKN120
                        11/04 Q1024 NOSIG=
201102042000 METAR LMML NIL=
201102041945 METAR LMML 041945Z 04008KT 010V080 9999 FEW037 SCT070 BKN120
                        11/05 Q1024 NOSIG=
201102041930 METAR LMML NIL=
201102041915 METAR LMML 041915Z 05008KT 020V080 9999 FEW036 SCT100 BKN250
                        10/05 Q1024 NOSIG=
201102041900 METAR LMML NIL=
201102041845 METAR LMML 041845Z 04009KT 010V080 9999 FEW025 SCT050 10/04
                        Q1024 NOSIG=
201102041830 METAR LMML NIL=
201102041815 METAR LMML 041815Z 03009KT 360V080 9999 FEW027 BKN045 10/04
                        Q1024 NOSIG=
201102041800 METAR LMML NIL=
201102041745 METAR LMML 041745Z 02009KT 350V050 9999 BKN034 SCT050 10/05
                        Q1023 NOSIG=
201102041730 METAR LMML NIL=
201102041715 METAR LMML 041715Z 01009KT 340V040 9999 SCT033 BKN050 10/07
                        Q1023 NOSIG=
201102041700 METAR LMML NIL=
201102041645 METAR LMML 041645Z 01006KT 9999 FEW031 BKN050 10/07 Q1023
                        NOSIG=
201102041630 METAR LMML NIL=
201102041615 METAR LMML 041615Z 03006KT 350V060 9999 FEW030 BKN050 10/06
                        Q1023 NOSIG=
201102041545 METAR LMML 041545Z 03010KT 9999 FEW031 BKN050 10/06 Q1022
                        NOSIG=
201102041530 METAR LMML NIL=
201102041515 METAR LMML 041515Z 05007KT 010V090 9999 FEW030 BKN040 10/07
                        Q1022 NOSIG=
201102041445 METAR LMML 041445Z 05011KT 010V080 9999 RA FEW030 BKN042
                        11/07 Q1022 NOSIG=
201102041430 METAR LMML NIL=
201102041415 METAR LMML 041415Z 02010G20KT 350V070 9999 -RA SCT038 BKN100
                        12/06 Q1021 NOSIG=
201102041400 METAR LMML NIL=
201102041345 METAR LMML 041345Z 02008KT 340V060 9999 FEW038 SCT100 13/06
                        Q1021 NOSIG=
201102041330 METAR LMML NIL=
201102041315 METAR LMML 041315Z 02009G20KT 350V060 9999 FEW038 13/06 Q1021
                        NOSIG=
201102041300 METAR LMML NIL=
201102041245 METAR LMML 041245Z 04010KT 010V090 9999 FEW035 SCT100 14/05
                        Q1021 NOSIG=
201102041230 METAR LMML NIL=
201102041215 METAR LMML 041215Z 03009KT 350V070 9999 FEW038 14/06 Q1021
                        NOSIG=
201102041200 METAR LMML NIL=
201102041145 METAR LMML 041145Z 01007KT 350V050 9999 FEW034 15/07 Q1021
                        NOSIG=
201102041130 METAR LMML NIL=
201102041115 METAR LMML 041115Z 02008KT 360V060 9999 FEW032 14/07 Q1021
                        NOSIG=
201102041045 METAR LMML 041045Z 01008KT 350V050 9999 SCT031 14/08 Q1021
                        NOSIG=
201102041015 METAR LMML 041015Z 02008KT 340V070 9999 SCT032 14/08 Q1021
                        NOSIG=
201102041000 METAR LMML NIL=
201102040945 METAR LMML 040945Z 01009KT 330V040 9999 SCT032 12/07 Q1021
                        NOSIG=
201102040930 METAR LMML NIL=
201102040915 METAR LMML 040915Z 02008KT 350V060 9999 SCT029 11/07 Q1021
                        NOSIG=
201102040900 METAR LMML NIL=
201102040845 METAR LMML 040845Z 02006KT 350V050 9999 SCT031 SCT060 11/07
                        Q1020 NOSIG=
201102040830 METAR LMML NIL=
201102040815 METAR LMML 040815Z 02005KT 350V050 9999 SCT028 SCT060 10/07
                        Q1020 NOSIG=
201102040800 METAR LMML NIL=
201102040745 METAR LMML 040745Z 01006G18KT 320V110 9999 SCT031 BKN100
                        10/06 Q1020 NOSIG=
201102040730 METAR LMML NIL=
201102040715 METAR LMML 040715Z 33004KT 300V010 9999 SCT029 BKN100 09/08
                        Q1019 NOSIG=
201102040700 METAR LMML NIL=
201102040645 METAR LMML 040645Z VRB01KT 9999 SCT029 BKN100 09/07 Q1019
                        NOSIG=
201102040630 METAR LMML NIL=
201102040615 METAR LMML 040615Z VRB02KT 9000 SCT029 BKN100 09/07 Q1018
                        TEMPO 7000 SHRA BKN020TCU=
201102040600 METAR LMML NIL=
201102040545 METAR LMML 040545Z 03006KT 010V070 9999 -RA FEW024 BKN090
                        09/07 Q1018 TEMPO 5000 SHRA BKN015CB=
201102040530 METAR LMML NIL=
201102040515 METAR LMML 040515Z 02004KT 340V060 9999 SCT024 BKN080 09/07
                        Q1018 TEMPO 5000 SHRA BKN015CB=
201102040500 METAR LMML NIL=
201102040445 METAR LMML 040445Z 29004KT 270V330 9999 FEW022 BKN080 08/07
                        Q1017 TEMPO 6000 SHRA BKN020TCU=
201102040430 METAR LMML NIL=
201102040415 METAR LMML 040415Z 28004KT 240V300 9000 -RA FEW022 SCT041
                        BKN070 08/07 Q1017 TEMPO 6000 SHRA
                        BKN020TCU=
201102040400 METAR LMML NIL=
201102040345 METAR LMML 040345Z 31004KT 270V030 6000 -RA FEW020 BKN040
                        09/07 Q1017 NOSIG=
201102040330 METAR LMML NIL=
201102040315 METAR LMML 040315Z VRB02KT 9000 -RA FEW025 BKN040 09/08 Q1016
                        NOSIG=
201102040300 METAR LMML NIL=
201102040245 METAR LMML 040245Z 34006KT 300V010 9999 -RA FEW025 BKN048
                        10/07 Q1016 NOSIG=
201102040230 METAR LMML NIL=
201102040215 METAR LMML 040215Z 01005KT 340V050 9999 SCT023 BKN050 10/08
                        Q1016 TEMPO 8000 SHRA=
201102040145 METAR LMML 040145Z 01004KT 340V040 9999 BKN026 BKN050 10/08
                        Q1016 TEMPO 8000 SHRA=
201102040130 METAR LMML NIL=
201102040115 METAR LMML 040115Z 01004KT 9999 FEW025 BKN062 10/08 Q1016
                        TEMPO 8000 SHRA=
201102040100 METAR LMML NIL=
201102040045 METAR LMML 040045Z 36004KT 9999 SCT024 BKN062 10/08 Q1016
                        TEMPO 8000 SHRA=
201102040015 METAR LMML 040015Z 33004KT 300V020 9999 SCT023 BKN066 BKN095
                        10/08 Q1016 TEMPO 8000 SHRA=
201102040000 METAR LMML NIL=
201102032345 METAR LMML 032345Z 34003KT 9999 FEW044 BKN064 09/08 Q1016
                        TEMPO 8000 SHRA=
201102032330 METAR LMML NIL=
201102032315 METAR LMML 032315Z VRB01KT 9999 FEW036 SCT045 BKN093 09/08
                        Q1016 TEMPO 8000 SHRA=
201102032300 METAR LMML NIL=
201102032245 METAR LMML 032245Z 03003KT 9999 FEW036 BKN065 BKN098 09/08
                        Q1016 TEMPO 8000 SHRA=
201102032215 METAR LMML 032215Z 01005KT 9999 FEW016 SCT053 BKN064 09/09
                        Q1016 TEMPO 8000=
201102032200 METAR LMML NIL=
201102032145 METAR LMML 032145Z 36007KT 340V040 9000 -SHRA BKN017 09/09
                        Q1016 TEMPO 8000=
201102032130 METAR LMML NIL=
201102032115 METAR LMML 032115Z 01011KT 320V040 9000 -SHRA BKN019 11/08
                        Q1015 TEMPO 8000=
201102032100 METAR LMML NIL=
201102032045 METAR LMML 032045Z 03010KT 010V070 9999 SCT027 SCT050 11/07
                        Q1015 TEMPO 8000 SHRA=
201102032030 METAR LMML NIL=
201102032015 METAR LMML 032015Z 03009KT 360V070 9999 SCT029 BKN048 11/07
                        Q1015 TEMPO 8000 SHRA=
201102031945 METAR LMML 031945Z 04009KT 010V080 9999 FEW030 BKN050 11/06
                        Q1014 TEMPO 8000 SHRA=
201102031930 METAR LMML NIL=
201102031915 METAR LMML 031915Z 03010KT 9999 FEW029 BKN070 11/06 Q1014
                        TEMPO 8000 SHRA=
201102031900 METAR LMML NIL=
201102031845 METAR LMML 031845Z 04013KT 010V070 9999 FEW028 BKN067 11/06
                        Q1014 TEMPO 8000 SHRA=
201102031830 METAR LMML NIL=
201102031815 METAR LMML 031815Z 03012KT 350V070 9999 FEW028 BKN064 11/07
                        Q1013 NOSIG=
201102031800 METAR LMML NIL=
201102031745 METAR LMML 031745Z 02011KT 9999 SCT023 SCT120 11/07 Q1013
                        NOSIG=
201102031715 METAR LMML 031715Z 03013G23KT 360V060 9999 SCT021 OVC050
                        11/08 Q1012 NOSIG=
201102031700 METAR LMML NIL=
201102031645 METAR LMML 031645Z 03013KT 340V060 9999 SCT019 BKN050 11/08
                        Q1012 NOSIG=
201102031630 METAR LMML NIL=
201102031615 METAR LMML 031615Z 03012G23KT 360V060 9999 BKN019 SCT050
                        12/09 Q1012 TEMPO 8000 SHRA BKN015=
201102031600 METAR LMML NIL=
201102031545 METAR LMML 031545Z 03012KT 360V080 9999 -SHRA BKN016 BKN045
                        11/09 Q1011 TEMPO 8000 SHRA BKN015=
201102031530 METAR LMML NIL=
201102031515 METAR LMML 031515Z 03014KT 9999 BKN015 BKN045 11/09 Q1011
                        TEMPO 8000 SHRA=
201102031445 METAR LMML 031445Z 03015KT 360V070 9999 BKN013 BKN050 11/09
                        Q1010 TEMPO 8000 SHRA=
201102031430 METAR LMML NIL=
201102031415 METAR LMML 031415Z 03016G27KT 360V060 7000 -SHRA BKN013 BKN050
                        11/09 Q1010 TEMPO 5000 SHRA=
201102031400 METAR LMML NIL=
201102031345 METAR LMML 031345Z 02013G23KT 9999 SCT015 BKN040 12/10 Q1010
                        TEMPO 8000 SHRA BKN015=
201102031330 METAR LMML NIL=
201102031315 METAR LMML 031315Z 03012G23KT 360V060 9999 -SHRA BKN016 BKN050
                        12/09 Q1010 TEMPO 8000 SHRA BKN015=
201102031300 METAR LMML NIL=
201102031245 METAR LMML 031245Z 03014KT 360V070 9999 SCT019 BKN060 14/09
                        Q1010 TEMPO BKN015=
201102031230 METAR LMML NIL=
201102031215 METAR LMML 031215Z 03011KT 360V060 9999 FEW015 SCT018 BKN050
                        12/09 Q1010 TEMPO 8000 SHRA BKN015=
201102031200 METAR LMML NIL=
201102031145 METAR LMML 031145Z 03010KT 9999 -SHRA SCT018 BKN080 15/09
                        Q1010 TEMPO 8000 SHRA BKN015=
201102031130 METAR LMML NIL=
201102031115 METAR LMML 031115Z 03008KT 360V070 9999 SCT018 BKN090 13/09
                        Q1010 NOSIG=
201102031100 METAR LMML NIL=
201102031045 METAR LMML 031045Z 04010KT 350V070 9999 BKN018 BKN090 13/09
                        Q1010 TEMPO 8000 SHRA BKN015=
201102031030 METAR LMML NIL=
201102031015 METAR LMML 031015Z 05010KT 010V090 9999 BKN017 SCT090 12/09
                        Q1010 TEMPO 8000 SHRA BKN015=
201102030945 METAR LMML 030945Z 04009KT 010V090 9999 SCT021 SCT070 13/09
                        Q1010 TEMPO 8000 SHRA BKN015=
201102030930 METAR LMML NIL=
201102030915 METAR LMML 030915Z 06010KT 020V120 9999 SCT022 BKN047 12/09
                        Q1010 TEMPO 8000 SHRA BKN015=
201102030900 METAR LMML NIL=
201102030845 METAR LMML 030845Z 06010KT 030V160 9999 SCT020 BKN045 11/09
                        Q1010 RESHRA TEMPO 8000 SHRA BKN015=
201102030815 METAR LMML 030815Z 04012KT 360V090 7000 -SHRA FEW009 BKN017
                        BKN032 10/09 Q1010 RESHRA TEMPO 5000
                        SHRA BKN015=
201102030800 METAR LMML NIL=
201102030745 METAR LMML 030745Z 06013KT 020V090 6000 -SHRA FEW009 BKN018
                        BKN050 10/09 Q1009 TEMPO 5000 SHRA
                        BKN015=
201102030730 METAR LMML NIL=
201102030715 METAR COR LMML 030715Z 09008KT 060V120 9999 BKN021 BKN050
                        11/09 Q1009 TEMPO 8000 SHRA BKN015=
201102030700 METAR LMML NIL=
201102030645 METAR LMML 030645Z 09008KT 9999 -SHRA BKN018 SCT050 BKN090
                        10/09 Q1008 TEMPO 8000 SHRA BKN015TCU=
201102030630 METAR LMML NIL=
201102030615 METAR LMML 030615Z 06009KT 020V090 9999 FEW021 SCT078 BKN093
                        11/09 Q1008 TEMPO 8000 SHRA BKN015TCU=
201102030600 METAR LMML NIL=
201102030545 METAR LMML 030545Z 06009KT 030V090 9999 BKN019 BKN120 11/08
                        Q1008 TEMPO 8000 SHRA SCT015TCU=
201102030530 METAR LMML NIL=
201102030515 METAR LMML 030515Z 09006KT 050V120 9999 SCT019 BKN120 10/09
                        Q1008 TEMPO 5000 TSRA BKN015CB=
201102030500 METAR LMML NIL=
201102030445 METAR LMML 030445Z 05005KT 010V110 9999 SCT018 BKN120 10/09
                        Q1008 TEMPO 5000 TSRA BKN015CB=
201102030430 METAR LMML NIL=
201102030415 METAR LMML 030415Z 06005KT 040V100 9999 FEW015 SCT120 10/09
                        Q1008 TEMPO 5000 TSRA BKN015CB=
201102030400 METAR LMML NIL=
201102030345 METAR LMML 030345Z 05004KT 020V100 9999 FEW015 SCT120 09/09
                        Q1008 TEMPO 5000 TSRA BKN015CB=
201102030330 METAR LMML NIL=
201102030315 METAR LMML 030315Z 08005KT 9999 FEW015 SCT048 09/08 Q1008
                        TEMPO 5000 TSRA BKN015CB=
201102030300 METAR LMML NIL=
201102030245 METAR LMML 030245Z 07004KT 9999 FEW020 SCT046 09/08 Q1008
                        TEMPO 5000 TSRA BKN015CB=
201102030230 METAR LMML NIL=
201102030215 METAR LMML 030215Z 05003KT 9999 FEW020 SCT120 08/08 Q1008
                        TEMPO 5000 TSRA BKN015CB=
201102030200 METAR LMML NIL=
201102030145 METAR LMML 030145Z 03004KT 9999 FEW020 SCT050 SCT120 08/08
                        Q1009 TEMPO 5000 TSRA BKN015CB=
201102030130 METAR LMML NIL=
201102030115 METAR LMML 030115Z 02003KT 9999 FEW018 BKN100 08/08 Q1009
                        RETSRA TEMPO 5000 TSRA BKN015CB=
201102030100 METAR LMML NIL=
201102030045 METAR LMML 030045Z 03004KT 360V060 8000 -RA FEW010 SCT018
                        BKN080 09/08 Q1009 RETSRA TEMPO 5000
                        TSRA BKN015CB=
201102030030 METAR LMML NIL=
201102030015 METAR LMML 030015Z 19007KT 110V260 5000 TSRA FEW008 BKN015CB
                        09/08 Q1010 TEMPO 3000=
201102030002 SPECI LMML 030002Z 10005KT 030V160 8000 -TSRA FEW010 BKN015CB
                        10/09 Q1010 TEMPO 5000=
201102030000 METAR LMML NIL=
201102022345 METAR LMML 022345Z 01004KT 9999 SCT016 BKN036 10/09 Q1009
                        TEMPO 8000 SHRA SCT020TCU=
201102022330 METAR LMML NIL=
201102022315 METAR LMML 022315Z 02003KT 9999 FEW024 SCT045 09/08 Q1009
                        TEMPO 8000 SHRA SCT020TCU=
201102022300 METAR LMML NIL=
201102022245 METAR LMML 022245Z 03006KT 9999 FEW025 SCT070 10/08 Q1009
                        TEMPO 8000 SHRA=
201102022230 METAR LMML NIL=
201102022215 METAR LMML 022215Z VRB02KT 9999 SCT023TCU SCT060 BKN090 10/09
                        Q1009 TEMPO 8000 SHRA RMK LIGHTNING
                        TO NORTH=
201102022200 METAR LMML NIL=
201102022145 METAR LMML 022145Z 19005KT 150V220 9999 SCT023 SCT090 11/08
                        Q1009 TEMPO 8000 SHRA SCT020TCU=
201102022130 METAR LMML NIL=
201102022115 METAR LMML 022115Z 11004KT 070V150 9999 SCT022 SCT048 11/09
                        Q1009 TEMPO 5000 SHRA TSRA BKN015CB=
201102022100 METAR LMML NIL=
201102022045 METAR LMML 022045Z 10005KT 050V130 9999 SCT020 SCT070 11/09
                        Q1010 TEMPO 5000 SHRA TSRA BKN015CB
                        RMK LIGHTNING TO N=
201102022030 METAR LMML NIL=
201102022015 METAR LMML 022015Z 13006KT 9999 SCT023TCU 11/09 Q1010 TEMPO
                        5000 SHRA TSRA BKN015CB RMK LIGHTNING
                        TO NW=
201102022000 METAR LMML NIL=
201102021945 METAR LMML 021945Z 14005KT 9999 SCT023TCU 11/08 Q1010 TEMPO
                        5000 SHRA=
201102021930 METAR LMML NIL=
201102021915 METAR LMML 021915Z 14005KT 120V190 9999 BKN023 11/09 Q1010
                        TEMPO 8000 SHRA BKN020TCU=
201102021900 METAR LMML NIL=
201102021845 METAR LMML 021845Z 13006KT 110V170 9999 BKN032 SCT070 11/08
                        Q1010 TEMPO 8000 SHRA BKN020TCU=
201102021830 METAR LMML NIL=
201102021815 METAR LMML 021815Z 14003KT 9999 BKN037 SCT080 11/07 Q1009
                        TEMPO 8000 SHRA BKN020TCU=
201102021800 METAR LMML NIL=
201102021745 METAR LMML 021745Z 13003KT 9999 BKN038 11/08 Q1009 NOSIG=
201102021730 METAR LMML NIL=
201102021715 METAR LMML 021715Z 12003KT 9999 SCT039 11/07 Q1009 NOSIG=
201102021700 METAR LMML NIL=
201102021645 METAR LMML 021645Z VRB02KT 9999 FEW039 SCT068 12/06 Q1009
                        NOSIG=
201102021630 METAR LMML NIL=
201102021615 METAR LMML 021615Z 18003KT 9999 FEW036 13/06 Q1009 NOSIG=
201102021600 METAR LMML NIL=
201102021545 METAR LMML 021545Z 20003KT 9999 FEW036 14/07 Q1009 NOSIG=
201102021530 METAR LMML NIL=
201102021515 METAR LMML 021515Z 20003KT 9999 FEW033 15/06 Q1009 NOSIG=
201102021500 METAR LMML NIL=
201102021445 METAR LMML 021445Z 23005KT 180V290 9999 FEW033 14/07 Q1009
                        NOSIG=
201102021430 METAR LMML NIL=
201102021415 METAR LMML 021415Z 21005KT 170V260 9999 FEW033 15/07 Q1009
                        NOSIG=
201102021400 METAR LMML NIL=
201102021345 METAR LMML 021345Z 24006KT 200V280 9999 SCT035 14/08 Q1009
                        NOSIG=
201102021330 METAR LMML NIL=
201102021315 METAR LMML 021315Z 22006KT 170V280 9999 SCT034 15/07 Q1009
                        NOSIG=
201102021300 METAR LMML NIL=
201102021245 METAR LMML 021245Z VRB02KT 9999 SCT030 13/08 Q1009 RESHRA
                        NOSIG=
201102021230 METAR LMML NIL=
201102021215 METAR LMML 021215Z 22005KT 170V270 9999 SCT034 14/08 Q1009
                        NOSIG=
201102021200 METAR LMML NIL=
201102021145 METAR LMML 021145Z 21005KT 150V260 9999 FEW036 15/09 Q1009
                        NOSIG=
201102021130 METAR LMML NIL=
201102021115 METAR LMML 021115Z 24005KT 190V290 9999 FEW036 SCT090 15/09
                        Q1010 NOSIG=
201102021100 METAR LMML NIL=
201102021045 METAR LMML 021045Z 22005KT 190V290 9999 FEW034 BKN081 14/08
                        Q1010 NOSIG=
201102021030 METAR LMML NIL=
201102021015 METAR LMML 021015Z 24005KT 190V290 9999 FEW034 BKN070 12/08
                        Q1011 NOSIG=
201102021000 METAR LMML NIL=
201102020945 METAR LMML 020945Z 25007KT 210V280 9999 SCT034 BKN046 11/08
                        Q1011 TEMPO 8000 SHRA=
201102020930 METAR LMML NIL=
201102020915 METAR LMML 020915Z VRB02KT 9999 -SHRA BKN022 11/07 Q1011
                        TEMPO 5000 SHRA=
201102020900 METAR LMML NIL=
201102020845 METAR LMML 020845Z VRB01KT 9000 -SHRA BKN036TCU 11/08 Q1011
                        TEMPO 8000 SHRA=
201102020830 METAR LMML NIL=
201102020815 METAR LMML 020815Z 30003KT 9999 BKN031 11/09 Q1010 TEMPO
                        8000 SHRA=
201102020800 METAR LMML NIL=
201102020745 METAR LMML 020745Z 34005KT 9999 SCT030TCU 11/09 Q1010 TEMPO
                        8000 SHRA=
201102020730 METAR LMML NIL=
201102020715 METAR LMML 020715Z VRB02KT 9999 BKN027TCU 10/09 Q1010 TEMP
                        8000 SHRA=
201102020700 METAR LMML NIL=
201102020645 METAR LMML 020645Z 35005KT 8000 -SHRA BKN021TCU 10/09 Q1010
                        TEMPO 5000 SHRA RMK CB TOP TO EAST=
201102020630 METAR LMML NIL=
201102020615 METAR LMML 020615Z 30006KT 230V350 7000 -SHRA FEW016TCU BKN022
                        10/08 Q1010 NOSIG=
201102020600 METAR LMML NIL=
201102020545 METAR LMML 020545Z 21007KT 180V250 9999 BKN032TCU 12/07 Q1010
                        NOSIG=
201102020515 METAR LMML 020515Z 20007KT 170V240 9999 SCT031 12/07 Q1009
                        NOSIG=
201102020500 METAR LMML NIL=
201102020445 METAR LMML 020445Z 20006KT 170V270 9999 FEW032 12/06 Q1009
                        NOSIG RMK LIGHTNING TO NW=
201102020430 METAR LMML NIL=
201102020415 METAR LMML 020415Z 20006KT 160V250 9999 FEW032 12/07 Q1009
                        NOSIG RMK DISTANT LIGHTNING TO NW=
201102020345 METAR LMML 020345Z 21004KT 160V250 9999 SCT031 12/07 Q1009
                        NOSIG=
201102020330 METAR LMML NIL=
201102020315 METAR LMML 020315Z 23006KT 200V260 9999 FEW028 12/07 Q1009
                        NOSIG=
201102020245 METAR LMML 020245Z 21005KT 170V240 9999 FEW031 12/07 Q1009
                        NOSIG=
201102020230 METAR LMML NIL=
201102020215 METAR LMML 020215Z 21006KT 180V250 9999 FEW030 12/07 Q1009
                        NOSIG=
201102020200 METAR LMML NIL=
201102020145 METAR LMML 020145Z 21006KT 180V250 9999 FEW030 12/07 Q1010
                        NOSIG=
201102020130 METAR LMML NIL=
201102020115 METAR LMML 020115Z 21006KT 170V240 9999 FEW033 12/07 Q1009
                        NOSIG=
201102020045 METAR LMML 020045Z 22009KT 170V250 9999 FEW033 12/06 Q1010
                        NOSIG=
201102020030 METAR LMML NIL=
201102020015 METAR LMML 020015Z 21009KT 180V270 9999 FEW033 12/06 Q1010
                        NOSIG=
201102020000 METAR LMML NIL=
201102012345 METAR LMML 012345Z 22009KT 180V260 9999 FEW031 12/06 Q1010
                        NOSIG=
201102012330 METAR LMML NIL=
201102012315 METAR LMML 012315Z 22009KT 190V270 9999 FEW032 12/07 Q1010
                        NOSIG=
201102012245 METAR LMML 012245Z 22008KT 180V260 9999 FEW030 12/07 Q1010
                        NOSIG=
201102012215 METAR LMML 012215Z 22009KT 180V270 9999 FEW029 12/06 Q1010
                        NOSIG=
201102012200 METAR LMML NIL=
201102012145 METAR LMML 012145Z 21007KT 180V240 9999 SCT029 12/07 Q1010
                        NOSIG=
201102012130 METAR LMML NIL=
201102012115 METAR LMML 012115Z 21007KT 180V250 9999 SCT029 12/07 Q1010
                        NOSIG=
201102012100 METAR LMML NIL=
201102012045 METAR LMML 012045Z 20006KT 130V240 9999 SCT026 12/08 Q1011
                        NOSIG=
201102012030 METAR LMML NIL=
201102012015 METAR LMML 012015Z 22004KT 180V250 9999 FEW031 12/07 Q1011
                        NOSIG=
201102012000 METAR LMML NIL=
201102011945 METAR LMML 011945Z 21005KT 180V240 9999 FEW028 12/07 Q1011
                        NOSIG=
201102011930 METAR LMML NIL=
201102011915 METAR LMML 011915Z 21006KT 180V240 9999 SCT028 12/07 Q1011
                        NOSIG=
201102011900 METAR LMML NIL=
201102011845 METAR LMML 011845Z 20005KT 170V240 9999 SCT030 12/07 Q1011
                        NOSIG=
201102011830 METAR LMML NIL=
201102011815 METAR LMML 011815Z 21005KT 180V250 9999 SCT020 12/09 Q1011
                        NOSIG=
201102011800 METAR LMML NIL=
201102011745 METAR LMML 011745Z 21005KT 190V260 9999 SCT019 12/09 Q1011
                        NOSIG=
201102011730 METAR LMML NIL=
201102011715 METAR LMML 011715Z 23006KT 200V270 9999 SCT018 12/10 Q1010
                        NOSIG=
201102011700 METAR LMML NIL=
201102011645 METAR LMML 011645Z 23004KT 200V270 9999 SCT020 12/10 Q1010
                        NOSIG=
201102011630 METAR LMML NIL=
201102011615 METAR LMML 011615Z 21003KT 9999 SCT020 14/11 Q1010 NOSIG=
201102011600 METAR LMML NIL=
201102011545 METAR LMML 011545Z 24005KT 200V290 9999 SCT021 13/10 Q1010
                        NOSIG=
201102011530 METAR LMML NIL=
201102011515 METAR LMML 011515Z 25005KT 220V280 9999 FEW020 14/10 Q1009
                        NOSIG=
201102011500 METAR LMML NIL=
201102011445 METAR LMML 011445Z 24009KT 190V310 9999 FEW020 15/10 Q1009
                        NOSIG=
201102011430 METAR LMML NIL=
201102011415 METAR LMML 011415Z 24010KT 200V300 9999 FEW022 15/10 Q1009
                        NOSIG=
201102011400 METAR LMML NIL=
201102011345 METAR LMML 011345Z 25010KT 210V290 9999 SCT017 15/11 Q1009
                        NOSIG=
201102011330 METAR LMML NIL=
201102011315 METAR LMML 011315Z 24010KT 190V300 9999 SCT016 15/11 Q1008
                        NOSIG=
201102011300 METAR LMML NIL=
201102011245 METAR LMML 011245Z 25009KT 190V300 9999 BKN018 15/11 Q1009
                        NOSIG=
201102011230 METAR LMML NIL=
201102011215 METAR LMML 011215Z 24011KT 200V290 9999 SCT014 15/12 Q1008
                        NOSIG=
201102011145 METAR LMML 011145Z 25013KT 210V280 9999 SCT015 15/12 Q1009
                        NOSIG=
201102011130 METAR LMML NIL=
201102011115 METAR LMML 011115Z 25012KT 200V280 9999 SCT017 15/12 Q1009
                        NOSIG=
201102011100 METAR LMML NIL=
201102011045 METAR LMML 011045Z 25009KT 210V280 9999 FEW013 SCT050 15/13
                        Q1009 NOSIG=
201102011030 METAR LMML NIL=
201102011015 METAR LMML 011015Z 29004KT 9999 FEW006 BKN050 14/13 Q1008
                        NOSIG=
201102011000 METAR LMML NIL=
201102010945 METAR LMML 010945Z 29003KT 9999 SCT006 BKN060 14/13 Q1008
                        RERA NOSIG=
201102010934 SPECI LMML 010934Z VRB02KT 9999 -RA SCT006 SCT023 BKN050
                        14/13 Q1008 RERA NOSIG=
201102010930 METAR LMML NIL=
201102010915 METAR LMML 010915Z AUTO /////KT //// R13/P1500 // FEW006///
                        FEW040/// SCT063/// 13/13 Q1009=
201102010900 METAR LMML NIL=
201102010845 METAR LMML 010845Z 17006KT 120V210 4000 RA BKN008 SCT023
                        BKN050 13/13 Q1009 RERA TEMPO 5000
                        RA BKN005 BKN020=
201102010830 METAR LMML 010830Z AUTO /////KT //// // VV/// ///// Q////=
201102010815 METAR LMML 010815Z 16006KT 130V200 4500 RA SCT008 SCT023
                        BKN060 14/13 Q1009 RERA TEMPO 5000
                        RA BKN005=
201102010800 METAR LMML NIL=
201102010745 METAR LMML 010745Z 16008KT 130V200 3000 +RA SCT004 SCT015
                        BKN070 13/13 Q1009 TEMPO 5000 RA
                        BKN005=
201102010730 METAR LMML NIL=
201102010715 METAR LMML 010715Z 14011KT 3000 RA BKN005 BKN015 BKN050 14/14
                        Q1009 TEMPO 5000 RA BKN005=
201102010700 METAR LMML NIL=
201102010645 METAR LMML 010645Z 14012KT 110V170 5000 -RA BKN006 BKN015
                        BKN080 14/14 Q1009 TEMPO 5000 RA
                        BKN005=
201102010630 METAR LMML NIL=
201102010615 METAR LMML 010615Z 12010KT 6000 -RA SCT008 BKN030 BKN080
                        14/13 Q1009 TEMPO 5000 RA BKN008=
201102010600 METAR LMML NIL=
201102010545 METAR LMML 010545Z 12010KT 090V150 9000 -SHRA FEW009 BKN021
                        BKN120 14/13 Q1009 TEMPO 8000 SHRA
                        BKN015=
201102010530 METAR LMML NIL=
201102010515 METAR LMML 010515Z 11012KT 9999 FEW011 SCT022 BKN120 14/13
                        Q1009 TEMPO 8000 SHRA BKN015=
201102010500 METAR LMML NIL=
201102010445 METAR LMML 010445Z 12012KT 9999 SCT025 SCT040 BKN120 14/12
                        Q1009 TEMPO 8000 SHRA=
201102010430 METAR LMML NIL=
201102010415 METAR LMML 010415Z 12014KT 9999 SCT024 BKN050 13/11 Q1009
                        TEMPO 8000 SHRA=
201102010400 METAR LMML NIL=
201102010345 METAR LMML 010345Z 12011KT 9999 FEW035 BKN047 13/11 Q1009
                        TEMPO 8000 SHRA=
201102010330 METAR LMML NIL=
201102010315 METAR LMML 010315Z 12011KT 9999 BKN048 13/11 Q1009 TEMPO
                        8000 SHRA=
201102010300 METAR LMML NIL=
201102010245 METAR LMML 010245Z 11009KT 9999 SCT047 13/12 Q1010 TEMPO
                        8000 SHRA=
201102010230 METAR LMML NIL=
201102010215 METAR LMML 010215Z 12010KT 9999 FEW013 SCT050 13/11 Q1010
                        TEMPO 8000 SHRA BKN013 RMK DISTANT
                        LIGHTNING TO N=
201102010200 METAR LMML NIL=
201102010145 METAR LMML 010145Z 12009KT 9999 BKN015 BKN047 13/12 Q1010
                        TEMPO 8000 SHRA=
201102010130 METAR LMML NIL=
201102010115 METAR LMML 010115Z 13007KT 9999 FEW018 SCT046 BKN060 13/12
                        Q1010 NOSIG=
201102010100 METAR LMML NIL=
201102010045 METAR LMML 010045Z 13009KT 9999 SCT012 13/12 Q1010 TEMPO
                        3000 TSRA BKN005 BKN015CB RMK LIGHTNING
                        TO NNW=
201102010030 METAR LMML NIL=
201102010015 METAR LMML 010015Z 14008KT 120V180 9999 FEW010 SCT060 13/12
                        Q1011 TEMPO 3000 TSRA BKN005 BKN015CB
                        RMK LIGHTNING TO NNW=
201102010000 METAR LMML NIL=

###################################
#  short TAF from LMML
###################################
201103032300 TAF LMML 032300Z 0400/0409 08018KT 9999 SCT020 BKN100
                      TEMPO 0400/0409 08020G30KT 8000 RA BKN015=
201103032000 TAF LMML 032000Z 0321/0406 08010KT CAVOK
                      BECMG 0400/0403 9000 RA SCT007 BKN015 BKN090
                       BECMG 0403/0406 07020KT=
201103031700 TAF LMML 031700Z 0318/0403 09008KT 9999 FEW020
                      PROB30 TEMPO 0318/0401 CAVOK
                      BECMG 0322/0401 08018KT
                      PROB30 TEMPO 0400/0403 9000 RA BKN015=
201103031400 TAF LMML 031400Z 0315/0324 09012KT 9999 FEW020
                      PROB30 TEMPO 0315/0321 CAVOK=
201103031100 TAF LMML 031100Z 0312/0321 09008KT 9999 FEW030
                      TEMPO 0312/0321 CAVOK=
201103030800 TAF LMML 030800Z 0309/0318 VRB05KT 9999 FEW030
                      TEMPO 0309/0318 CAVOK=
201103030500 TAF LMML 030500Z 0306/0315 18005KT 9999 FEW030
                      BECMG 0312/0315 09008KT=
201103030200 TAF LMML 030200Z 0303/0312 VRB03KT 9999 FEW030=
201103022300 TAF LMML 022300Z 0300/0309 VRB03KT 9999 FEW030=
201103022000 TAF LMML 022000Z 0221/0306 VRB03KT 9999 FEW030=
201103021700 TAF LMML 021700Z 0218/0303 21008KT 9999 SCT030=
201103021400 TAF LMML 021400Z 0215/0224 21010KT 9999 SCT030=
201103021100 TAF LMML 021100Z 0212/0221 21012KT 9999 SCT030=
201103020800 TAF LMML 020800Z 0209/0218 23012KT 9999 SCT030=
201103020500 TAF LMML 020500Z 0206/0215 02015KT 9999 SCT030=
201103020200 TAF LMML 020200Z 0203/0212 24015KT 9999 SCT030=
201103012300 TAF LMML 012300Z 0200/0209 24013KT 9999 SCT030
                      PROB30 TEMPO 0200/0206 8000 SHRA=
201103012000 TAF LMML 012000Z 0121/0206 24010KT 9999 SCT030
                      PROB30 TEMPO 8000 SHRA=
201103011700 TAF LMML 011700Z 0118/0203 24008KT 9999 SCT030=
201103011400 TAF LMML 011400Z 0115/0124 27013KT 9999 SCT030=
201103011100 TAF LMML 011100Z 0112/0121 27015KT 9999 FEW030=
201103010800 TAF LMML 010800Z 0109/0118 29014KT 9999 FEW025=
201103010500 TAF LMML 010500Z 0106/0115 30013KT 9999 SCT025=
201103010200 TAF LMML 010200Z 0103/0112 23009KT 9999 SCT020
                      BECMG 0103/0104 29013KT
                      TEMPO 0103/0106 8000 SHRA BKN015
                      PROB30 TEMPO 0103/0104 3000 TSRA BKN010 BKN015CB=
201102282300 TAF LMML 282300Z 0100/0109 20011KT 9999 SCT018 BKN080
                      BECMG 0100/0103 29014KT
                      TEMPO 0100/0105 8000 RA BKN014 BKN060
                      PROB40 TEMPO 0100/0103 3000 TSRA BKN009 BKN014CB
                       BKN040=
201102282000 TAF LMML 282000Z 2821/0106 16013KT 9999 SCT020 BKN080
                      BECMG 2821/2824 22011KT
                      TEMPO 2821/0106 8000 RA BKN015 BKN060
                      PROB30 TEMPO 2821/0103 3000 TSRA BKN010 BKN015CB
                       BKN040
                      BECMG 0100/0103 30013KT=
201102281700 TAF LMML 281700Z 2818/0103 16015KT 9999 SCT025 SCT050
                      TEMPO 2818/0103 7000 SHRA BKN015
                      PROB40 TEMPO 2818/2803 5000 TSRA BKN015CB
                       BECMG 2822/0101 33012KT=
201102281400 TAF LMML 281400Z 2815/2824 16015KT 9999 SCT025 SCT050
                      TEMPO 2815/2824 7000 RA
                      PROB40 TEMPO 2818/2824 5000 TSRA BKN015CB
                       BECMG 2822/2824 33012KT=
201102281100 TAF LMML 281100Z 2812/2821 16015KT 9999 SCT025 BKN050
                      TEMPO 2812/2821 7000 RA
                      PROB30 TEMPO 2818/2821 5000 TSRA BKN015CB=
201102280800 TAF LMML 280800Z 2809/2818 16012KT 9999 SCT025 BKN050
                      TEMPO 2809/2818 7000 RA
                      PROB30 TEMPO 2809/2818 BKN015=
201102280500 TAF LMML 280500Z 2806/2815 17010KT 9999 SCT025 BKN100
                      TEMPO 2806/2815 8000 RA BKN015=
201102280200 TAF LMML 280200Z 2803/2812 17012KT 9999 SCT030 BKN120
                      TEMPO 2806/2812 8000 RA BKN015 OVC060=
201102272300 TAF LMML 272300Z 2800/2809 21005KT 9999 FEW030 SCT150
                      BECMG 2806/2809 15012KT 9000 RA BKN090=
201102272000 TAF LMML 272000Z 2721/2806 23005KT 9999 FEW025 BKN200
                      BECMG 2803/2806 16010KT=
201102271700 TAF LMML 271700Z 2718/2803 VRB06KT 9999 SCT028=
201102271400 TAF LMML 271400Z 2715/2724 32010KT 9999 SCT030
                      BECMG 2717/2720 26005KT=
201102271100 TAF LMML 271100Z 2712/2721 33010KT 9999 FEW032
                      BECMG 2716/2719 27005KT=
201102270800 TAF LMML 270800Z 2709/2718 34015KT 9999 FEW024
                      BECMG 2715/2718 30005KT=
201102270500 TAF LMML 270500Z 2706/2715 01025KT 9999 FEW018 SCT040
                      BECMG 2712/2715 31010KT=
201102270200 TAF LMML 270200Z 2703/2712 02020KT 9999 FEW018 SCT040
                      TEMPO 2703/2707 8000 SHRA BKN018TCU
                      PROB30 TEMPO 2703/2706 5000 TSRA FEW008 BKN015CB=
201102262300 TAF LMML 262300Z 2700/2709 02020KT 9999 FEW018 SCT040
                      TEMPO 2700/2707 8000 SHRA BKN018TCU
                      PROB30 TEMPO 2700/2706 5000 TSRA FEW008 BKN015CB=
201102262000 TAF LMML 262000Z 2621/2706 32020G30KT 9999 FEW018 SCT090
                      TEMPO 2621/2706 8000 SHRA BKN015TCU
                      PROB30 TEMPO 2700/2706 03025KT 5000 TSRA
                       FEW008 BKN015CB=
201102261700 TAF LMML 261700Z 2618/2703 34014KT 9999 SCT015 BKN050
                      TEMPO 2618/2703 6000 RA BKN013
                      TEMPO 2620/2703 5000 TSRA BKN012CB
                      BECMG 2623/2701 36020G30KT=
201102261400 TAF LMML 261400Z 2615/2624 35012KT 9999 SCT020 BKN050
                      TEMPO 2615/2624 5000 RA BKN015
                      PROB30 TEMPO 2618/2624 3000 TSRA BKN015CB
                       BECMG 2620/2623 35020G30KT=
201102261100 TAF LMML 261100Z 2612/2621 25010KT 9999 SCT020 BKN090
                      TEMPO 2612/2621 7000 SHRA BKN015
                      BECMG 2613/2616 33015KT=
201102260800 TAF LMML 260800Z 2609/2618 30008KT 9999 SCT020 BKN090
                      TEMPO 2609/2618 6000 SHRA BKN015
                      BECMG 2609/2612 24010KT
                      BECMG 2615/2618 36012KT=
201102260500 TAF LMML 260500Z 2606/2615 30012KT 9999 SCT025
                      TEMPO 2608/2615 8000 RA BKN015 BKN080
                      BECMG 2609/2612 24008KT
                      PROB30 TEMPO 2610/2615 3000 TSRA BKN015CB
                       BKN050
                      BECMG 2612/2615 33013KT=
201102260200 TAF LMML 260200Z 2603/2612 32013KT 9999 FEW025
                      PROB30 TEMPO 2609/2612 8000 SHRA BKN015 BKN060=
201102252300 TAF LMML 252300Z 2600/2609 32010KT 9999 FEW025=
201102252000 TAF LMML 252000Z 2521/2606 03005KT 9999 FEW025 SCT060
                      BECMG 2523/2602 33012KT=
201102251700 TAF LMML 251700Z 2518/2603 03005KT 9999 FEW030 SCT060
                      PROB30 TEMPO 2518/2603 8000 SHRA
                      BECMG 33010KT=
201102251400 TAF COR LMML 251400Z 2515/2524 34007KT 9999 FEW035 SCT060=
201102251100 TAF LMML 251100Z 2512/2521 36008KT 9999 FEW030 SCT060=
201102250800 TAF LMML 250800Z 2509/2518 36010KT 9999 FEW025 SCT040=
201102250500 TAF LMML 250500Z 2506/2515 35010KT 9999 SCT040=
201102250200 TAF LMML 250200Z 2503/2512 34010KT 9999 FEW038=
201102242300 TAF LMML 242300Z 2500/2509 33013KT 9999 SCT038=
201102242000 TAF LMML 242000Z 2421/2506 33015KT 9999 SCT032
                      PROB30 TEMPO 2421/2424 34015G25KT=
201102241700 TAF LMML 241700Z 2418/2503 31017KT 9999 SCT025 SCT060
                      PROB30 TEMPO 2418/2420 30015G25KT 8000 SHRA=
201102241400 TAF LMML 241400Z 2415/2424 32020KT 9999 SCT030
                      PROB30 TEMPO 2415/2420 33025G35KT 8000 SHRA=
201102241100 TAF LMML 241100Z 2412/2421 32020KT 9999 SCT025 SCT050
                      TEMPO 2412/2418 33025G35KT 8000 SHRA BKN015
                       BKN050
                      PROB30 TEMPO 2412/2414 3000 TSGR BKN015CB
                       BKN040=
201102240800 COR LMML 240800Z 2409/2418 32018KT 9999 SCT025
                      TEMPO 2409/2416 33020G30KT
                      TEMPO 2409/2412 3000 TSGR BKN015CB
                      PROB30 TEMPO 2409/2418 8000 SHRA BKN015=
201102240500 TAF COR LMML 240500Z 2406/2415 32018G28KT 9999 SCT030 BKN040
                      TEMPO 2406/2415 8000 SHRA
                      PROB30 TEMPO 2406/2409 3000 TSGR BKN015CB
                       BKN030=
201102240200 TAF LMML 240200Z 2403/2412 33020G30KT 9999 SCT020 BKN040
                      TEMPO 2403/2412 8000 SHRA=
201102232300 TAF LMML 232300Z 2400/2409 33020G30KT 9999 SCT020
                      TEMPO 2400/2409 8000 SHRA BKN015=
201102232000 TAF LMML 232000Z 2321/2406 35025G35KT 9999 SCT017
                      TEMPO 2321/2406 7000 SHRA BKN012TCU
                      PROB30 TEMPO 2321/2324 5000 TSRA BKN012CB=
201102231700 TAF LMML 231700Z 2318/2403 35013KT 9999 SCT018
                      TEMPO 2318/2403 8000 SHRA BKN018TCU
                      PROB30 TEMPO 2318/2403 3000 TSRA BKN010 BKN020CB
                       BECMG 2320/2323 35023KT=
201102231400 TAF LMML 231400Z 2315/2324 28010KT 9999 SCT020
                      TEMPO 2315/2324 8000 SHRA SCT018TCU
                      BECMG 2316/2319 35015KT
                      PROB30 TEMPO 2318/2324 3000 TSRA BKN008 BKN015CB
                       BECMG 2319/2322 35025KT=
201102231100 TAF LMML 231100Z 2312/2321 28015KT 9999 SCT025
                      TEMPO 2312/2321 8000 SHRA SCT018TCU
                      BECMG 2315/2318 35015KT
                      PROB30 TEMPO 2315/2321 5000 TSRA BKN008 BKN015CB
                       BECMG 2318/2321 35025KT=
201102230800 TAF LMML 230800Z 2309/2318 28015KT 9999 SCT025
                      TEMPO 2309/2318 8000 SHRA SCT020TCU
                      PROB30 TEMPO 2309/2318 5000 TSRA BKN010 BKN018CB
                       BECMG 2315/2318 35015KT=
201102230500 TAF LMML 230500Z 2306/2315 27015KT 9999 FEW020 BKN035
                      TEMPO 2306/2315 8000 SHRA FEW008 BKN018TCU
                       PROB40
                      TEMPO 2306/2315 5000 TSRA SCT008 BKN015CB=
201102230200 TAF LMML 230200Z 2303/2312 27015KT 9999 FEW018 SCT025 BKN030
                      TEMPO 2303/2312 5000 SHRA FEW010 BKN015TCU
                       TEMPO 2303/2312 3000 TSRA SCT008 BKN015CB=
201102222300 TAF LMML 222300Z 2300/2309 25014KT 9999 SCT015 BKN030
                      TEMPO 2300/2309 5000 RA BKN015TCU
                      PROB40 TEMPO 2300/2309 3000 TSRA SCT008 BKN015CB=
201102222000 TAF LMML 222000Z 2221/2306 25014KT 9999 SCT015 SCT030 BKN100
                      TEMPO 2221/2306 8000 SHRA BKN015TCU
                      TEMPO 2221/2206 5000 TSRA FEW008 BKN015CB=
201102221700 TAF LMML 221700Z 2218/2303 25008KT 9999 SCT025 BKN120
                      TEMPO 2218/2303 8000 SHRA BKN015
                      TEMPO 2221/2303 5000 TSRA BKN015CB
                      BECMG 2300/2303 27015G25KT=
201102221400 TAF LMML 221400Z 2215/2224 27012KT 9999 SCT025 BKN250
                      TEMPO 2217/2224 8000 SHRA BKN015TCU
                      TEMPO 2220/2224 5000 TSRA BKN015CB=
201102221100 TAF LMML 221100Z 2212/2221 31010KT 9999 SCT030 SCT200
                      BECMG 2215/2218 24012KT 8000 SHRA BKN015TCU
                       TEMPO 2217/2221 5000 TSRA BKN012CB=
201102220800 TAF LMML 220800Z 2209/2218 30010KT 9999 SCT025
                      BECMG 2215/2218 24012KT 8000 SHRA BKN015TCU
                       BKN080
                      PROB30 TEMPO 2217/2218 5000 TSRA BKN012CB=
201102220500 TAF LMML 220500Z 2206/2215 30012KT 9999 SCT028 SCT050=
201102220200 TAF LMML 220200Z 2203/2212 29012KT 9999 SCT025 SCT050=
201102212300 TAF LMML 212300Z 2200/2209 30013KT 9999 SCT028 SCT050=
201102212000 TAF LMML 212000Z 2121/2206 30012KT 9999 SCT028 SCT050=
201102211700 TAF LMML 211700Z 2118/2203 30012KT 9999 FEW020 SCT030=
201102211400 TAF LMML 211400Z 2115/2124 30015KT 9999 FEW020 SCT030=
201102211100 TAF LMML 211100Z 2112/2121 30015KT 9999 FEW020 SCT035=
201102210800 TAF LMML 210800Z 2109/2118 30015KT 9999 FEW015 SCT035
                      PROB30 TEMPO 2109/2115 8000 SHRA=
201102210500 TAF LMML 210500Z 2106/2115 24009KT 9999 SCT035 SCT080
                      BECMG 2106/2109 30015KT
                      PROB30 TEMPO 2106/2110 8000 SHRA=
201102210200 TAF LMML 210200Z 2103/2112 23008KT 9999 SCT025 SCT070
                      BECMG 2103/2106 29015KT
                      PROB30 TEMPO 2103/2112 8000 SHRA BKN015 BKN050=
201102202300 TAF LMML 202300Z 2100/2109 23008KT CAVOK
                      BECMG 2100/2102 9999 SCT025 SCT100
                      BECMG 2102/2105 29014KT
                      TEMPO 2102/2109 8000 SHRA BKN015 BKN080=
201102202000 TAF LMML 202000Z 2021/2106 24007KT CAVOK
                      BECMG 2021/2024 9999 SCT025
                      BECMG 2101/2104 30013KT
                      PROB30 TEMPO 2103/2106 8000 SHRA BKN015=
201102201700 TAF LMML 201700Z 2018/2103 27008KT 9999 SCT025=
201102201400 TAF LMML 201400Z 2015/2024 27008KT 9999 SCT025=
201102201100 TAF LMML 201100Z 2021/2021 28010KT 9999 FEW025=
201102200800 TAF LMML 200800Z 2009/2018 28012KT 9999 FEW025=
201102200500 TAF LMML 200500Z 2006/2015 28012KT 9999 SCT025 SCT100 BKN200=
201102200200 TAF LMML 200200Z 2003/2012 28012KT 9999 FEW020=
201102192300 TAF LMML 192300Z 2000/2009 28015KT 9999 FEW020
                      TEMPO 2000/2003 28015G25KT=
201102192000 TAF LMML 192000Z 1921/2006 30018G28KT 9999 SCT020
                      BECMG 2001/2004 27015KT=
201102191700 TAF LMML 191700Z 1918/2003 29018KT 9999 SCT020
                      PROB30 TEMPO 1918/1921 28018G28KT=
201102191400 TAF LMML 191400Z 1915/1924 30024KT 9999 SCT020
                      TEMPO 1915/1919 29024G34KT
                      BECMG 1919/1922 28014KT=
201102191100 TAF LMML 191100Z 1912/1921 30025G35KT 9999 SCT025
                      BECMG 1912/1915 29020KT
                      PROB30 TEMPO 1915/1918 29018G28KT=
201102190800 TAF LMML 190800Z 1909/1918 30025G35KT 9999 SCT025
                      PROB40 TEMPO 1909/1912 8000 SHRA BKN015
                      BECMG 1909/1912 29020KT
                      PROB30 TEMPO 1912/1918 29018G28KT=
201102190500 TAF LMML 190500Z 1906/1915 30027KT 9999 SCT025
                      PROB30 TEMPO 1906/1908 8000 SHRA=
201102190200 TAF LMML 190200Z 1903/1912 30030G45KT 9999 SCT020
                      PROB30 TEMPO 1903/1906 8000 SHRA
                      BECMG 1909/1912 30025KT=
201102182300 TAF LMML 182300Z 1900/1909 29025G35KT 9999 SCT020
                      PROB30 TEMPO 1900/1906 7000 SHRA BKN020TCU=
201102182000 TAF LMML 182000Z 1821/1906 29028G38KT 9999 SCT015 BKN020
                      TEMPO 1821/1906 5000 SHRA BKN010 BKN018TCU=
201102181700 TAF LMML 181700Z 1818/1903 29028G38KT 9999 SCT015 BKN020
                      TEMPO 1818/1903 5000 SHRA BKN015TCU
                      BECMG 1900/1903 29024KT=
201102181400 TAF COR LMML 181400Z 1815/1824 28030G45KT 9999 SCT020
                      TEMPO 1815/1824 5000 SHRA SCT005 BKN015TCU
                       BECMG 1820/1823 29020G30KT=
201102181100 TAF LMML 181100Z 1812/1821 28030G45KT 9999 SCT020
                      TEMPO 1812/1821 7000 SHRA BKN015
                      BECMG 1818/1821 29025/35KT=
201102180800 TAF LMML 180800Z 1809/1818 25015KT 9999 SCT020 BKN050
                      BECMG 1809/1812 28030G40KT
                      TEMPO 1809/1815 5000 SHRA BKN015TCU=
201102180500 TAF LMML 180500Z 1806/1815 24015KT 9999 SCT013 SCT045
                      TEMPO 1806/1809 8000 BKN008
                      TEMPO 1806/1815 6000 SHRA BKN015TCU
                      PROB30 TEMPO 1806/1815 3000 TSRA BKN013CB
                       1806/1809 28030G40KT=
201102180200 TAF LMML 180200Z 1803/1812 07008KT 9999 FEW015
                      PROB40 TEMPO 1803/1807 7000 BKN010
                      TEMPO 1803/1812 6000 SHRA BKN012TCU
                      PROB30 TEMPO 1803/1812 4000 TSRA BKN012CB
                       BECMG 1803/1806 24015KT
                      BECMG 1806/1809 28030G40KT=
201102172300 TAF LMML 172300Z 1800/1809 09010KT 9999 FEW015
                      TEMPO 1800/1809 7000 SHRA BKN012
                      PROB30 TEMPO 1802/1806 5000 BR BKN008
                      PROB30 TEMPO 1806/1809 4000 TSRA BKN012CB
                       BECMG 1803/1806 24015KT
                      BECMG 1806/1809 28025G35KT=
201102172000 TAF LMML 172000Z 1721/1806 09012KT CAVOK
                      PROB40 TEMPO 1721/1806 7000 FEW020
                      PROB40 TEMPO 1723/1806 7000 SHRA BKN015
                      PROB30 TEMPO 1803/1806 4000 TSRA BKN012CB
                       BECMG 1803/1806 21012KT=
201102171700 TAF LMML 171700Z 1718/1803 VRB05KT CAVOK
                      TEMPO 1718/1803 8000 SCT005
                      PROB40 TEMPO 1718/1803 5000 BR
                      PROB30 TEMPO 1720/1803 0800 FG BKN002=
201102171400 TAF LMML 171400Z 1715/1724 14005KT CAVOK
                      PROB40 TEMPO 1718/1724 9000 FEW005
                      PROB30 TEMPO 1720/1724 1000 BCFG BKN003=
201102171100 TAF LMML 171100Z 1712/1721 16006KT CAVOK
                      PROB30 TEMPO 1718/1721 9000 SCT005=
201102170800 TAF LMML 170800Z 1709/1718 16008KT CAVOK=
201102170500 TAF LMML 170500Z 1706/1715 20006KT CAVOK
                      PROB30 TEMPO 1706/1715 9999 FEW015=
201102170200 TAF LMML 170200Z 1703/1712 13005KT CAVOK
                      PROB30 TEMPO 1703/1706 9000 FEW012=
201102162300 TAF LMML 162300Z 1700/1709 16005KT CAVOK
                      PROB30 TEMPO 1700/1706 9000 FEW015=
201102162000 TAF LMML 162000Z 1621/1706 18006KT CAVOK
                      PROB30 TEMPO 1621/1706 9000 FEW015=
201102161700 TAF LMML 161700Z 1618/1703 20007KT CAVOK
                      PROB30 TEMPO 1700/1703 8000=
201102161400 TAF LMML 161400Z 1615/1624 20015KT CAVOK=
201102161100 TAF LMML 161100Z 1612/1621 20017KT 9999 FEW028
                      TEMPO 1615/1621 CAVOK=
201102160800 TAF LMML 160800Z 1609/1618 20015KT 9999 FEW028
                      TEMPO 1615/1618 CAVOK=
201102160500 TAF LMML 160500Z 1606/1615 19008KT 9999 SCT020 BKN200
                      BECMG 1609/1612 19018KT=
201102160200 TAF LMML 160200Z 1603/1612 23008KT 9999 SCT020 BKN200
                      BECMG 1606/1609 19018KT=
201102152300 TAF LMML 152300Z 1600/1609 24008KT 9999 FEW020 SCT200
                      BECMG 1606/0609 19018KT=
201102152000 TAF LMML 152000Z 1521/1606 26008KT 9999 FEW025 SCT200
                      BECMG 1603/1606 20012KT=
201102151700 TAF LMML 151700Z 1518/1603 28008KT 9999 SCT025
                      BECMG 1600/1603 22013KT=
201102151400 TAF LMML 151400Z 1515/1524 29012KT 9999 SCT025
                      PROB30 TEMPO 1517/1522 8000 SHRA BKN015
                      BECMG 1521/1524 23008KT=
201102151100 TAF LMML 151100Z 1512/1521 28011KT 9999 SCT025=
201102150800 TAF LMML 150800Z 1509/1518 27006KT 9999 SCT025=
201102150500 TAF LMML 150500Z 1506/1515 28009KT 9999 FEW022=
201102150200 TAF LMML 150200Z 1503/1512 33005KT 9999 FEW020 SCT050=
201102142300 TAF LMML 142300Z 1500/1509 VRB03KT 9999 FEW020 SCT060=
201102142000 TAF LMML 142000Z 1421/1506 VRB03KT 9999 SCT020=
201102141700 TAF LMML 141700Z 1418/1503 03008KT 9999 SCT020=
201102141400 TAF LMML 141400Z 1415/1424 04010KT 9999 BKN022=
201102141100 TAF COR LMML 141100Z 1412/1421 06012KT 9999 SCT020 SCT080
                      TEMPO 1412/1415 BKN015
                      BECMG 1418/1421 35005KT=
201102140800 TAF LMML 140800Z 1409/1418 06010KT 9999 SCT020 BKN080
                      TEMPO 1409/1413 8000 RA BKN015=
201102140500 TAF LMML 140500Z 1406/1415 07010KT 9999 SCT020 SCT050=
201102140200 TAF LMML 140200Z 1403/1412 06010KT 9999 SCT020
                      PROB30 TEMPO 1403/1409 BKN015=
201102132300 TAF LMML 132300Z 1400/1409 06006KT 9999 SCT020
                      PROB30 TEMPO 1400/1409 BKN015=
201102132000 TAF LMML 132000Z 1321/1406 VRB03KT 9999 SCT025
                      PROB40 TEMPO 1400/1406 BKN015=
201102131700 TAF LMML 131700Z 1318/1403 VRB03KT 9999 SCT015
                      PROB30 TEMPO 1401/1403 8000 RA SCT008 BKN012
                       BKN060=
201102131400 TAF LMML 131400Z 1315/1324 VRB03KT 9999 FEW025=
201102131100 TAF LMML 131100Z 1312/1321 29006KT 9999 SCT025=
201102130800 TAF LMML 130800Z 1309/1318 29006KT 9999 FEW025=
201102130500 TAF LMML 130500Z 1306/1315 29006KT 9999 FEW025=
201102130200 TAF LMML 130200Z 1303/1312 29005KT 9999 SCT025
                      PROB30 TEMPO 1303/1306 9000=
201102122300 TAF LMML 122300Z 1300/1309 27005KT 9999 SCT025
                      PROB30 TEMPO 1300/1306 9000=
201102122000 TAF LMML 122000Z 1221/1306 27004KT 9999 FEW025
                      TEMPO 1221/1306 CAVOK
                      PROB30 TEMPO 1221/1306 9000 NSC=
201102121700 TAF LMML 121700Z 1218/1303 28005KT 9999 SCT030=
201102121400 TAF LMML 121400Z 1215/1224 28005KT 9999 SCT030=
201102121100 TAF LMML 121100Z 1212/1221 28005KT 9999 BKN030=
201102120800 TAF LMML 120800Z 1209/1218 28005KT 9999 BKN030=
201102120500 TAF LMML 120500Z 1206/1215 28006KT 9999 BKN028 BKN200=
201102120200 TAF LMML 120200Z 1203/1212 27005KT 9999 BKN028=
201102112300 TAF LMML 112300Z 1200/1209 27005KT 9999 BKN030=
201102112000 TAF LMML 112000Z 1121/1206 27005KT 9999 BKN025
                      TEMPO 1203/1206 8000=
201102111700 TAF LMML 111700Z 1118/1203 28006KT 9999 SCT025
                      PROB30 TEMPO 1120/1203 9000 BKN015=
201102111400 TAF LMML 111400Z 1115/1124 28009KT 9999 SCT025
                      PROB30 TEMPO 1118/1124 9000 BKN015=
201102111100 TAF LMML 111100Z 1112/1121 24007KT 9999 SCT025
                      PROB30 TEMPO 1118/1121 9000 BKN015=
201102110800 TAF LMML 110800Z 1109/1118 27006KT 9999 SCT025=
201102110500 TAF LMML 110500Z 1106/1115 VRB03KT 6000 MIFG FEW020
                      BECMG 1106/1109 9999 FEW025=
201102110200 TAF LMML 110200Z 1103/1112 27005KT 9999 BKN025
                      PROB40 TEMPO 1103/1109 8000
                      PROB30 TEMPO 1103/1107 3000 BR=
201102102300 TAF LMML 102300Z 1100/1109 27005KT 9999 BKN022
                      TEMPO 1100/1109 8000
                      PROB30 TEMPO 1100/1107 3000 BR BKN015=
201102102000 TAF LMML 102000Z 1021/1106 VRB03KT 9999 SCT018
                      TEMPO 1021/1106 8000
                      PROB30 TEMPO 1023/1106 3000 BR BKN015=
201102101700 TAF LMML 101700Z 1018/1103 26004KT 9999 FEW015
                      PROB30 TEMPO 1022/1103 7000 BKN015=
201102101400 TAF LMML 101400Z 1015/1024 27005KT 9999 SCT016
                      TEMPO 1018/1024 8000 BKN012=
201102101100 TAF LMML 101100Z 1012/1021 27006KT 9999 SCT015
                      TEMPO 1017/1021 9000 BKN012=
201102100800 TAF LMML 100800Z 1009/1018 27006KT 9999 SCT015=
201102100700 TAF LMML 100700Z 1006/1015 29005KT 9999 FEW015
                      PROB40 TEMPO 1006/1007 6000=
201102100500 TAF LMML 100500Z 0206/0215 29005KT 9999 FEW015
                      PROB40 TEMPO 0206/0207 6000=
201102100200 TAF LMML 100200Z 0203/0212 30005KT 9999 FEW020
                      PROB40 TEMPO 0203/0206 8000
                      PROB30 TEMPO 0203/0206 4000 BR=
201102092300 TAF LMML 092300Z 1000/1009 28004KT 9999 FEW018
                      PROB40 TEMPO 1000/1006 8000
                      PROB30 TEMPO 1000/1006 4000 BR=
201102092000 TAF LMML 092000Z 0921/1006 30004KT 9999 FEW020
                      PROB40 TEMPO 0923/1006 8000
                      PROB30 TEMPO 0923/1006 4000 BR=
201102091700 TAF LMML 091700Z 0918/1003 VRB03KT 9999 FEW012
                      TEMPO 0920/1003 9000
                      PROB40 TEMPO 0921/1003 5000 BR BKN011
                      PROB30 TEMPO 0922/1003 1000 BCFG=
201102091400 TAF LMML 091400Z 0915/0924 34005KT 9999 SCT015
                      PROB40 TEMPO 0918/0924 BKN011
                      PROB30 TEMPO 0921/0924 9000=
201102091100 TAF LMML 091100Z 0912/0921 35005KT 9999 SCT018
                      PROB30 TEMPO 0918/0921 BKN015=
201102090800 TAF LMML 090800Z 0909/0918 36006KT 9999 SCT020=
201102090500 TAF LMML 090500Z 0906/0915 32005KT CAVOK
                      PROB30 TEMPO 0906/0907 9000 FEW015
                      BECMG 0906/0909 9999 SCT020=
201102090200 TAF LMML 090200Z 0903/0912 31005KT CAVOK
                      PROB30 TEMPO 0903/0906 9000 FEW015
                      BECMG 0903/0906 9999 SCT020=
201102082300 TAF LMML 082300Z 0900/0909 30004KT 9999 FEW025
                      PROB30 TEMPO 0900/0906 9000 BKN015 BKN025=
201102082000 TAF LMML 082000Z 0821/0906 26004KT 9999 FEW025
                      PROB40 TEMPO 0821/0906 9000 BKN015 BKN025
                       PROB30
                      TEMPO 0900/0906 5000 BR BKN005 BKN020=
201102081700 TAF LMML 081700Z 0818/0903 27004KT 9999 SCT023 SCT035=
201102081400 TAF LMML 081400Z 0815/0824 27004KT 9999 SCT028 SCT048=
201102081100 TAF LMML 081100Z 0812/0821 27004KT 9999 SCT028 SCT048=
201102080800 TAF COR LMML 080800Z 0809/0818 27004KT 9999 FEW028=
201102080500 TAF LMML 080500Z 0806/0815 26005KT 9999 SCT020=
201102080200 TAF LMML 080200Z 0803/0812 VRB03KT 7000 FEW012
                      TEMPO 0803/0806 4000 BR
                      PROB30 TEMPO 0803/0806 0800 BCFG FEW003
                      BECMG 0806/0808 9999 SCT015=
201102072300 TAF LMML 072300Z 0800/0809 VRB03KT CAVOK
                      TEMPO 0800/0806 7000 NSC
                      PROB30 TEMPO 0803/0806 4000 BR=
201102072000 TAF LMML 072000Z 0721/0806 VRB03KT CAVOK
                      TEMPO 0802/0806 8000 SCT018=
201102071700 TAF LMML 071700Z 0718/0803 03005KT CAVOK
                      TEMPO 0718/0803 9999 FEW018
                      PROB30 TEMPO 0721/0803 9000 FEW015=
201102071400 TAF LMML 071400Z 0715/0724 06007KT 9999 FEW020
                      TEMPO 0715/0724 CAVOK=
201102071100 TAF LMML 071100Z 0712/0721 06005KT 9999 FEW020
                      TEMPO 0712/0721 CAVOK=
201102070800 TAF LMML 070800Z 0709/0718 VRB05KT CAVOK
                      TEMPO 0709/0718 9999 FEW020=
201102070500 TAF LMML 070500Z 0706/0715 VRB03KT CAVOK
                      TEMPO 0706/0715 FEW025=
201102070200 TAF LMML 070200Z 0703/0712 VRB04KT 9999 SCT018
                      TEMPO 0703/0706 CAVOK
                      PROB30 TEMPO 0703/0706 9000=
201102062300 TAF LMML 062300Z 1700/1709 36004KT 9999 SCT015
                      TEMPO 1700/1705 CAVOK
                      PROB30 TEMPO 1700/1706 9000=
201102062000 TAF LMML 062000Z 0621/0706 34004KT CAVOK
                      TEMPO 0702/0706 9999 SCT015=
201102061700 TAF LMML 061700Z 0618/0703 33004KT 9999 FEW025=
201102061400 TAF LMML 061400Z 0615/0624 35005KT 9999 FEW025=
201102061100 TAF LMML 061100Z 0612/0621 02006KT 9999 FEW025=
201102060800 TAF LMML 060800Z 0609/0618 03005KT 9999 FEW020=
201102060500 TAF LMML 060500Z 0606/0615 04006KT 9999 FEW030=
201102060200 TAF LMML NIL=
201102052300 TAF LMML 052300Z 0600/0609 05006KT 9999 FEW030
                      PROB40 TEMPO 0600/0606 CAVOK=
201102052000 TAF LMML 052000Z 0521/0606 05006KT 9999 FEW030
                      TEMPO 0521/0606 CAVOK=
201102051700 TAF LMML 051700Z 0518/0603 05005KT 9999 FEW025=
201102051400 TAF LMML 051400Z 0515/0524 05012KT 9999 SCT030=
201102051200 TAF COR LMML 051200Z 0512/0521 05014KT 9999 SCT030=
201102051100 TAF LMML 051100Z 0512/0524 05014KT 9999 SCT030=
201102050800 TAF LMML 050800Z 0509/0518 05014KT 9999 FEW030=
201102050500 TAF LMML 050500Z 0506/0515 05012KT 9999 FEW025=
201102050200 TAF LMML 050200Z 0503/0512 04015KT 9999 FEW025 SCT060=
201102042300 TAF LMML 042300Z 0500/0509 04013KT 9999 FEW025 SCT070
                      PROB30 TEMPO 0500/0509 8000 SHRA BKN015 BKN050=
201102042000 TAF LMML 042000Z 0421/0506 05011KT 9999 SCT025 SCT060
                      PROB30 TEMPO 0421/0506 8000 SHRA BKN015 BKN050=
201102041700 TAF LMML 041700Z 0418/0503 04015KT 9999 SCT030 SCT050
                      TEMPO 0418/0503 7000 SHRA BKN020TCU=
201102041400 TAF LMML 041400Z 0415/0424 04012KT 9999 SCT030
                      PROB40 TEMPO 0415/0424 7000 SHRA BKN020TCU=
201102041100 TAF LMML 041100Z 0412/0421 04012KT 9999 SCT030
                      PROB40 TEMPO 0412/0421 7000 SHRA BKN020TCU=
201102040800 TAF LMML 040800Z 0409/0418 02010KT 9999 SCT030
                      PROB40 TEMPO 0409/0418 7000 SHRA BKN018TCU=
201102040500 TAF LMML 040500Z 0406/0415 36009KT 9999 SCT020 BKN040
                      TEMPO 0406/0415 6000 SHRA BKN015TCU
                      PROB30 TEMPO 0406/0409 5000 TSRA BKN015CB=
201102040200 TAF LMML 040200Z 0403/0412 01008KT 9999 SCT020 BKN040
                      TEMPO 0403/0412 7000 SHRA BKN015
                      PROB30 TEMPO 0403/0409 5000 TSRA BKN012CB=
201102032300 TAF LMML 032300Z 0400/0409 03010KT 9999 SCT015 BKN050
                      TEMPO 0400/0409 7000 SHRA BKN015
                      PROB30 TEMPO 0400/0409 5000 TSRA BKN012CB=
201102032000 TAF LMML 032000Z 0321/0406 04010KT 9999 SCT020 BKN050
                      TEMPO 0321/0406 7000 SHRA
                      PROB30 TEMPO 0403/0406 5000 TSRA BKN015CB=
201102031700 TAF LMML 031700Z 0318/0403 03014KT 9999 SCT020 SCT050
                      TEMPO 0318/0403 8000 SHRA BKN015 BKN050
                      PROB30 TEMPO 0318/0403 3000 TSRA BKN010 BKN015CB
                       BKN040
                      PROB40 TEMPO 0318/0321 02015G25KT=
201102031400 TAF LMML 031400Z 0315/0324 04017KT 9999 SCT015 SCT050
                      TEMPO 0315/0324 8000 SHRA BKN015 BKN050
                      PROB30 TEMPO 0315/0324 3000 TSRA BKN010 BKN015CB
                       BKN040
                      PROB40 TEMPO 0315/0320 03020G30KT=
201102031100 TAF LMML 031100Z 0312/0321 05013KT 9999 SCT020 SCT090
                      TEMPO 0312/0321 8000 SHRA BKN010 BKN015 BKN080
                       PROB30
                      TEMPO 0312/0321 3000 TSRA BKN005 BKN015CB
                       BKN060
                      BECMG 0312/0315 04023KT
                      BECMG 0319/0321 02013KT=
201102030800 TAF LMML 030800Z 0309/0318 07013KT 9999 SCT020 SCT060
                      TEMPO 0309/0318 7000 SHRA BKN010 BKN015 BKN050
                       PROB30
                      TEMPO 0309/0318 3000 TSRA BKN005 BKN015CB
                       BKN050
                      BECMG 0313/0316 05023KT
                      PROB30 TEMPO 0314/0318 04023G33KT=
201102030500 TAF LMML 030500Z 0306/0315 06006KT 9999 SCT013 BKN018
                      TEMPO 0306/0315 5000 SHRA BKN012TCU
                      TEMPO 0306/0315 3000 TSRA BKN007 BKN015CB
                       BECMG 0310/0313 05017KT=
201102030200 TAF LMML 030200Z 0303/0312 07005KT 9999 SCT014 BKN018
                      TEMPO 0303/0312 5000 SHRA BKN015TCU
                      TEMPO 0303/0312 3000 TSRA BKN008 BKN015CB
                       BECMG 0309/0312 06015KT=
201102022300 TAF LMML 022300Z 0300/0309 07006KT 9999 SCT020 BKN030
                      TEMPO 0300/0309 8000 SHRA BKN020TCU
                      TEMPO 0300/0309 3000 TSRA BKN006 BKN015CB=
201102022000 TAF LMML 022000Z 0221/0306 VRB04KT 9999 SCT020 BKN030
                      TEMPO 0221/0306 8000 SHRA BKN020TCU
                      PROB40 TEMPO 0221/0306 3000 TSRA BKN006 BKN015CB=
201102021700 TAF LMML 021700Z 0218/0303 VRB03KT 9999 FEW025 SCT035
                      TEMPO 0218/0303 5000 SHRA BKN018TCU
                      TEMPO 021/0303 TSRA BKN015CB
                      BECMG 0300/0303 04008KT=
201102021400 TAF LMML 021400Z 0215/0224 21008KT 9999 FEW030 SCT080
                      TEMPO 0215/0224 8000 SHRA BKN018TCU
                      PROB40 TEMPO 0218/0224 5000 TSRA BKN015CB=
201102021100 TAF LMML 021100Z 0212/0221 22010KT 9999 FEW018 SCT030
                      TEMPO 0212/0221 5000 SHRA BKN030TCU
                      PROB40 TEMPO 0212/0221 3000 TSRA BKN018CB=
201102020800 TAF LMML 020800Z 0209/0218 22010KT 9999 FEW018 SCT030
                      PROB40 TEMPO 0209/0218 5000 SHRA BKN015TCU=
201102020500 TAF LMML 020500Z 0206/0215 21010KT 9999 SCT030
                      PROB40 TEMPO 0206/0215 7000 SHRA
                      PROB30 TEMPO 0209/0215 5000 TSRA BKN018CB=
201102020200 TAF LMML 020200Z 0203/0212 21010KT 9999 SCT030
                      PROB40 TEMPO 0206/0212 7000 SHRA
                      PROB30 TEMPO 0209/0212 5000 TSRA BKN018CB=
201102012300 TAF LMML 012300Z 0200/0209 21010KT 9999 SCT030
                      PROB30 TEMPO 0206/0209 7000 SHRA=
201102012000 TAF LMML 012000Z 0121/0206 21010KT 9999 SCT028=
201102011700 TAF LMML 011700Z 0118/0203 21005KT 9999 FEW020 SCT030=
201102011400 TAF LMML 011400Z 0115/0124 22010KT 9999 FEW018 SCT030=
201102011100 TAF LMML 011100Z 0112/0121 23010KT 9999 SCT045=
201102010800 TAF LMML 010800Z 0109/0118 22010KT 3000 RA BKN008 BKN020
                      BECMG 0112/0115 9999 SCT025=
201102010500 TAF LMML 010500Z 0106/0115 14013KT 9999 SCT020 SCT050
                      TEMPO 0106/0113 8000 SHRA BKN015 BKN050
                      PROB30 TEMPO 0106/0110 3000 TSRA BKN010 BKN015CB
                       BKN040
                      BECMG 0106/0109 25010KT=
201102010200 TAF LMML 010200Z 0103/0112 13013KT 9999 SCT015 SCT050
                      TEMPO 0103/0112 8000 SHRA BKN008 BKN013 BKN040
                       PROB30
                      TEMPO 0103/0108 1500 TSRA BKN005 BKN013CB
                       BKN040
                      BECMG 0106/0109 24009KT=

###################################
#  large TAF from LMML
###################################
201103032300 TAF LMML NIL=
201103031700 TAF LMML NIL=
201103031100 TAF LMML NIL=
201103030500 TAF LMML NIL=
201103022300 TAF LMML NIL=
201103021700 TAF LMML NIL=
201103021100 TAF LMML NIL=
201103020500 TAF LMML NIL=
201103012300 TAF LMML NIL=
201103011700 TAF LMML NIL=
201103011100 TAF LMML NIL=
201103010500 TAF LMML NIL=
201102282300 TAF LMML NIL=
201102281700 TAF LMML NIL=
201102281100 TAF LMML NIL=
201102280500 TAF LMML NIL=
201102272300 TAF LMML NIL=
201102271700 TAF LMML NIL=
201102271100 TAF LMML NIL=
201102270500 TAF LMML NIL=
201102262300 TAF LMML NIL=
201102261700 TAF LMML NIL=
201102261100 TAF LMML NIL=
201102260500 TAF LMML NIL=
201102252300 TAF LMML NIL=
201102251700 TAF LMML NIL=
201102251100 TAF LMML NIL=
201102250500 TAF LMML NIL=
201102242300 TAF LMML NIL=
201102241700 TAF LMML NIL=
201102241100 TAF LMML NIL=
201102240500 TAF LMML NIL=
201102232300 TAF LMML NIL=
201102231700 TAF LMML NIL=
201102231100 TAF LMML NIL=
201102230500 TAF LMML NIL=
201102222300 TAF LMML NIL=
201102221700 TAF LMML NIL=
201102221100 TAF LMML NIL=
201102220500 TAF LMML NIL=
201102212300 TAF LMML NIL=
201102211700 TAF LMML NIL=
201102211100 TAF LMML NIL=
201102210500 TAF LMML NIL=
201102202300 TAF LMML NIL=
201102201700 TAF LMML NIL=
201102201100 TAF LMML NIL=
201102200500 TAF LMML NIL=
201102192300 TAF LMML NIL=
201102191700 TAF LMML NIL=
201102191100 TAF LMML NIL=
201102190500 TAF LMML NIL=
201102182300 TAF LMML NIL=
201102181700 TAF LMML NIL=
201102181100 TAF LMML NIL=
201102180500 TAF LMML NIL=
201102172300 TAF LMML NIL=
201102171700 TAF LMML NIL=
201102171100 TAF LMML NIL=
201102170500 TAF LMML NIL=
201102162300 TAF LMML NIL=
201102161700 TAF LMML NIL=
201102161100 TAF LMML NIL=
201102160500 TAF LMML NIL=
201102152300 TAF LMML NIL=
201102151700 TAF LMML NIL=
201102151100 TAF LMML NIL=
201102150500 TAF LMML NIL=
201102142300 TAF LMML NIL=
201102141700 TAF LMML NIL=
201102141100 TAF LMML NIL=
201102140500 TAF LMML NIL=
201102132300 TAF LMML NIL=
201102131700 TAF LMML NIL=
201102131100 TAF LMML NIL=
201102130500 TAF LMML NIL=
201102122300 TAF LMML NIL=
201102121700 TAF LMML NIL=
201102121100 TAF LMML NIL=
201102120500 TAF LMML NIL=
201102112300 TAF LMML NIL=
201102111700 TAF LMML NIL=
201102111100 TAF LMML NIL=
201102110500 TAF LMML NIL=
201102102300 TAF LMML NIL=
201102101700 TAF LMML NIL=
201102101100 TAF LMML NIL=
201102100500 TAF LMML NIL=
201102092300 TAF LMML NIL=
201102091700 TAF LMML NIL=
201102091100 TAF LMML NIL=
201102090500 TAF LMML NIL=
201102082300 TAF LMML NIL=
201102081700 TAF LMML NIL=
201102081100 TAF LMML NIL=
201102080500 TAF LMML NIL=
201102072300 TAF LMML NIL=
201102071700 TAF LMML NIL=
201102071100 TAF LMML NIL=
201102070500 TAF LMML NIL=
201102062300 TAF LMML NIL=
201102061700 TAF LMML NIL=
201102061100 TAF LMML NIL=
201102060500 TAF LMML NIL=
201102052300 TAF LMML NIL=
201102051700 TAF LMML NIL=
201102051100 TAF LMML 051100Z 0512/0524 05014KT 9999 SCT030=
201102050500 TAF LMML NIL=
201102042300 TAF LMML NIL=
201102041700 TAF LMML NIL=
201102041100 TAF LMML NIL=
201102040500 TAF LMML NIL=
201102032300 TAF LMML NIL=
201102031700 TAF LMML NIL=
201102031100 TAF LMML NIL=
201102030500 TAF LMML NIL=
201102022300 TAF LMML NIL=
201102021700 TAF LMML NIL=
201102021100 TAF LMML NIL=
201102020500 TAF LMML NIL=
201102012300 TAF LMML NIL=
201102011700 TAF LMML NIL=
201102011100 TAF LMML NIL=
201102010500 TAF LMML NIL=
