##########################################################
# Query made at 01/18/2013 16:06:11 UTC
# Time interval: from 02/01/2009 00:00  to 03/03/2009 23:59  UTC
##########################################################

##########################################################
# LMML, Luqa (Malta)
# WMO index: 16597
# Latitude 35-51N. Longitude 014-29E. Altitude 91 m.
##########################################################

###################################
#  METAR/SPECI from LMML
###################################
200903032345 METAR LMML 032345Z 14004KT 1200 R14/P1500N BR FEW004 11/11
                        Q1015 TEMPO 0600 MIFG BKN003=
200903032330 METAR LMML NIL=
200903032315 METAR LMML 032315Z 15005KT 2000 BR FEW004 12/12 Q1016 NOSIG=
200903032300 METAR LMML NIL=
200903032245 METAR LMML 032245Z 16004KT 2000 BR FEW004 12/12 Q1016 TEMPO
                        0800 MIFG BKN001=
200903032230 METAR LMML NIL=
200903032215 METAR LMML 032215Z 15004KT 2000 BR SCT004 12/12 Q1016 BECMG
                        3000 BR SCT005=
200903032205 SPECI LMML 032205Z VRB03KT 2000 BR SCT003 12/12 Q1016 BECMG
                        3000 BR SCT005=
200903032200 METAR LMML NIL=
200903032145 METAR LMML 032145Z 15004KT 0100 R14/P1500U FG SCT003 12/11
                        Q1016 NOSIG=
200903032132 SPECI LMML 032132Z VRB03KT 0200 R14/0716VP1500U FG SCT025
                        12/11 Q1016 NOSIG=
200903032130 METAR LMML NIL=
200903032115 METAR LMML 032115Z VRB03KT 1500 R14/1083VP1500D BR SCT250
                        12/12 Q1016 BECMG 0800 MIFG BKN004=
200903032100 METAR LMML NIL=
200903032045 METAR LMML 032045Z VRB03KT 4000 BR SCT250 12/11 Q1017 BECMG
                        3000 BR BKN005=
200903032030 METAR LMML NIL=
200903032015 METAR LMML 032015Z VRB02KT 6000 SCT250 12/12 Q1017 BECMG
                        5000 BR=
200903032000 METAR LMML NIL=
200903031945 METAR LMML 031945Z VRB02KT 6000 SCT250 12/12 Q1017 BECMG
                        5000 BR=
200903031930 METAR LMML NIL=
200903031915 METAR LMML 031915Z VRB02KT 6000 BKN250 13/12 Q1016 BECMG
                        5000 BR=
200903031900 METAR LMML NIL=
200903031845 METAR LMML 031845Z VRB03KT 7000 BKN250 13/12 Q1017 BECMG
                        5000 BR=
200903031830 METAR LMML NIL=
200903031815 METAR LMML 031815Z VRB01KT 7000 BKN250 13/12 Q1017 NOSIG=
200903031800 METAR LMML NIL=
200903031745 METAR LMML 031745Z VRB01KT 7000 BKN250 13/12 Q1017 NOSIG=
200903031730 METAR LMML NIL=
200903031715 METAR LMML 031715Z VRB01KT 7000 BKN250 14/12 Q1017 NOSIG=
200903031700 METAR LMML NIL=
200903031645 METAR LMML 031645Z 22004KT 190V260 8000 BKN250 14/12 Q1017
                        NOSIG=
200903031630 METAR LMML NIL=
200903031615 METAR LMML 031615Z 22004KT 8000 BKN250 15/12 Q1017 NOSIG=
200903031600 METAR LMML NIL=
200903031545 METAR LMML 031545Z 21004KT 170V260 8000 BKN250 15/13 Q1017
                        NOSIG=
200903031530 METAR LMML NIL=
200903031515 METAR LMML 031515Z 22005KT 200V260 9000 FEW030 BKN250 16/13
                        Q1017 NOSIG=
200903031500 METAR LMML NIL=
200903031445 METAR LMML 031445Z 22005KT 180V260 9000 FEW030 BKN250 16/13
                        Q1017 NOSIG=
200903031430 METAR LMML NIL=
200903031415 METAR LMML 031415Z 22005KT 190V270 9999 FEW030 BKN250 16/13
                        Q1017 NOSIG=
200903031400 METAR LMML NIL=
200903031345 METAR LMML 031345Z 22004KT 190V270 9999 FEW030 BKN250 16/13
                        Q1017 NOSIG=
200903031330 METAR LMML NIL=
200903031315 METAR LMML 031315Z 21005KT 170V280 9999 FEW030 BKN250 16/12
                        Q1017 NOSIG=
200903031245 METAR LMML 031245Z 21004KT 170V270 9999 FEW030 BKN250 16/13
                        Q1018 NOSIG=
200903031230 METAR LMML NIL=
200903031215 METAR LMML 031215Z 20005KT 170V230 9999 FEW030 BKN250 17/13
                        Q1018 NOSIG=
200903031200 METAR LMML NIL=
200903031145 METAR LMML 031145Z 17004KT 060V220 CAVOK 18/13 Q1018 NOSIG=
200903031130 METAR LMML NIL=
200903031115 METAR LMML 031115Z VRB03KT CAVOK 18/11 Q1018 NOSIG=
200903031100 METAR LMML NIL=
200903031045 METAR LMML 031045Z VRB03KT CAVOK 17/12 Q1018 NOSIG=
200903031030 METAR LMML NIL=
200903031015 METAR LMML 031015Z 36004KT 320V050 CAVOK 17/13 Q1018 NOSIG=
200903031000 METAR LMML NIL=
200903030945 METAR LMML 030945Z 34005KT CAVOK 16/12 Q1019 NOSIG=
200903030930 METAR LMML NIL=
200903030915 METAR LMML 030915Z 34005KT 290V010 9999 FEW009 BKN250 15/13
                        Q1019 NOSIG=
200903030900 METAR LMML NIL=
200903030845 METAR LMML 030845Z 33006KT 9000 FEW009 SCT250 14/13 Q1019
                        NOSIG=
200903030830 METAR LMML NIL=
200903030815 METAR LMML 030815Z 33006KT 280V360 9000 SCT008 14/13 Q1019
                        NOSIG=
200903030800 METAR LMML NIL=
200903030745 METAR LMML 030745Z 33007KT 9000 BKN008 13/12 Q1019 BECMG
                        9999 BKN010=
200903030730 METAR LMML NIL=
200903030715 METAR LMML 030715Z 32005KT 300V010 6000 BKN008 12/12 Q1019
                        BECMG 9000 SCT008=
200903030700 METAR LMML NIL=
200903030645 METAR LMML 030645Z VRB02KT 2700 BR BKN007 12/11 Q1018 BECMG
                        6000 SCT008=
200903030630 METAR LMML NIL=
200903030615 METAR LMML 030615Z VRB03KT 3000 BR SCT006 11/11 Q1018 BECMG
                        6000=
200903030600 METAR LMML NIL=
200903030545 METAR LMML 030545Z 31004KT 3000 BR BKN006 11/11 Q1018 NOSIG=
200903030530 METAR LMML NIL=
200903030515 METAR LMML 030515Z 31005KT 4000 BR SCT005 10/10 Q1018 TEMPO
                        BKN004=
200903030500 METAR LMML NIL=
200903030445 METAR LMML 030445Z 31005KT 7000 SCT006 10/10 Q1018 TEMPO
                        5000 BR BKN004=
200903030430 METAR LMML NIL=
200903030415 METAR LMML 030415Z 31004KT 7000 BKN006 11/10 Q1018 TEMPO
                        5000 BR BKN004=
200903030400 METAR LMML NIL=
200903030345 METAR LMML 030345Z 32004KT 7000 BKN006 11/11 Q1018 TEMPO
                        5000 BR BKN004=
200903030330 METAR LMML NIL=
200903030315 METAR LMML 030315Z 33004KT 7000 BKN006 11/10 Q1018 TEMPO
                        5000 BR BKN004=
200903030300 METAR LMML NIL=
200903030245 METAR LMML 030245Z 33005KT 9000 BKN006 11/11 Q1018 TEMPO
                        5000 BR BKN004=
200903030230 METAR LMML NIL=
200903030215 METAR LMML 030215Z 34004KT 310V010 9000 BKN007 11/11 Q1018
                        TEMPO 5000 BR BKN005=
200903030200 METAR LMML NIL=
200903030145 METAR LMML 030145Z 32005KT 9000 BKN007 11/10 Q1019 TEMPO
                        5000 BR BKN005=
200903030130 METAR LMML NIL=
200903030115 METAR LMML 030115Z 33004KT 290V020 9999 FEW012 11/10 Q1019
                        BECMG 7000=
200903030100 METAR LMML NIL=
200903030045 METAR LMML 030045Z VRB02KT 9999 FEW012 11/10 Q1019 TEMPO
                        8000=
200903030030 METAR LMML NIL=
200903030015 METAR LMML 030015Z 30004KT CAVOK 11/10 Q1019 TEMPO 8000 FEW011=
200903030000 METAR LMML NIL=
200903022345 METAR LMML 022345Z VRB03KT CAVOK 12/10 Q1019 NOSIG=
200903022330 METAR LMML NIL=
200903022315 METAR LMML 022315Z 28005KT CAVOK 12/10 Q1019 NOSIG=
200903022300 METAR LMML NIL=
200903022245 METAR LMML 022245Z 25005KT 220V280 9999 FEW015 11/10 Q1019
                        NOSIG=
200903022230 METAR LMML NIL=
200903022215 METAR LMML 022215Z VRB03KT 9999 FEW015 11/10 Q1019 NOSIG=
200903022200 METAR LMML NIL=
200903022145 METAR LMML 022145Z 28004KT 250V310 9999 FEW015 12/10 Q1019
                        NOSIG=
200903022130 METAR LMML NIL=
200903022115 METAR LMML 022115Z VRB03KT 9999 FEW015 11/10 Q1018 NOSIG=
200903022100 METAR LMML NIL=
200903022045 METAR LMML 022045Z 32004KT 9999 FEW015 11/10 Q1018 NOSIG=
200903022030 METAR LMML NIL=
200903022015 METAR LMML 022015Z 33004KT 9999 FEW015 11/10 Q1018 NOSIG=
200903022000 METAR LMML NIL=
200903021945 METAR LMML 021945Z 33004KT 9999 FEW015 12/11 Q1018 NOSIG=
200903021930 METAR LMML NIL=
200903021915 METAR LMML 021915Z 33004KT 9999 FEW015 12/11 Q1018 NOSIG=
200903021900 METAR LMML NIL=
200903021845 METAR LMML 021845Z 32005KT 9999 FEW015 12/11 Q1018 NOSIG=
200903021830 METAR LMML NIL=
200903021815 METAR LMML 021815Z 32006KT 290V350 9999 FEW015 13/11 Q1018
                        NOSIG=
200903021800 METAR LMML NIL=
200903021745 METAR LMML 021745Z 32006KT 9999 FEW012 13/11 Q1018 NOSIG=
200903021730 METAR LMML NIL=
200903021715 METAR LMML 021715Z 33006KT 9999 FEW012 14/12 Q1018 NOSIG=
200903021700 METAR LMML NIL=
200903021645 METAR LMML 021645Z 34005KT 9999 FEW015 14/12 Q1017 NOSIG=
200903021630 METAR LMML NIL=
200903021615 METAR LMML 021615Z 34005KT 300V030 9999 FEW015 15/12 Q1017
                        NOSIG=
200903021545 METAR LMML 021545Z 34007KT 300V020 9999 FEW015 16/13 Q1017
                        NOSIG=
200903021530 METAR LMML NIL=
200903021515 METAR LMML 021515Z 33009KT 300V360 9999 FEW015 17/12 Q1017
                        NOSIG=
200903021500 METAR LMML NIL=
200903021445 METAR LMML 021445Z 34009KT 290V360 9999 FEW015 17/12 Q1017
                        NOSIG=
200903021430 METAR LMML NIL=
200903021415 METAR LMML 021415Z 35007KT 310V030 9999 FEW015 18/11 Q1017
                        NOSIG=
200903021400 METAR LMML NIL=
200903021345 METAR LMML 021345Z 34007KT 300V360 CAVOK 18/10 Q1017 NOSIG=
200903021330 METAR LMML NIL=
200903021315 METAR LMML 021315Z 33007KT CAVOK 18/10 Q1017 NOSIG=
200903021300 METAR LMML NIL=
200903021245 METAR LMML 021245Z 36006KT 290V050 CAVOK 19/10 Q1017 NOSIG=
200903021230 METAR LMML NIL=
200903021215 METAR LMML 021215Z VRB03KT 9999 FEW012 19/12 Q1017 NOSIG=
200903021200 METAR LMML NIL=
200903021145 METAR LMML 021145Z VRB03KT 9999 FEW012 18/13 Q1018 NOSIG=
200903021130 METAR LMML NIL=
200903021115 METAR LMML 021115Z 02005KT 330V090 9999 FEW010 18/13 Q1018
                        NOSIG=
200903021100 METAR LMML NIL=
200903021045 METAR LMML 021045Z 01006KT 350V050 9999 FEW010 18/13 Q1018
                        NOSIG=
200903021030 METAR LMML NIL=
200903021015 METAR LMML 021015Z 01004KT 9999 FEW010 18/14 Q1018 NOSIG=
200903021000 METAR LMML NIL=
200903020945 METAR LMML 020945Z 36007KT 9999 FEW010 17/15 Q1018 NOSIG=
200903020915 METAR LMML 020915Z 01006KT 330V040 9999 FEW010 SCT250 16/15
                        Q1018 NOSIG=
200903020900 METAR LMML NIL=
200903020845 METAR LMML 020845Z 36006KT 320V020 9999 FEW007 SCT250 15/15
                        Q1018 NOSIG=
200903020830 METAR LMML NIL=
200903020815 METAR LMML 020815Z 34004KT 310V020 4000 BR BKN005 15/14 Q1018
                        BECMG 7000 SCT007=
200903020800 METAR LMML NIL=
200903020745 METAR LMML 020745Z VRB03KT 0500 R14/0627V1334U FG BKN001
                        14/13 Q1018 BECMG 1500 BR SCT003=
200903020730 METAR LMML NIL=
200903020715 METAR LMML 020715Z VRB02KT 0300 R14/0600N FG BKN001 13/13
                        Q1017 BECMG 1500 BR SCT003=
200903020700 METAR LMML NIL=
200903020645 METAR LMML 020645Z VRB03KT 0400 R14/0669V0843D FG SCT001
                        12/12 Q1017 BECMG 1500 BR=
200903020630 METAR LMML NIL=
200903020615 METAR LMML 020615Z VRB01KT 0200 R14/0400N FG SCT001 11/11
                        Q1017 BECMG 1500 BR=
200903020600 METAR LMML NIL=
200903020545 METAR LMML 020545Z VRB03KT 0150 R14/0643V1274U FG SCT001
                        11/10 Q1017 BECMG 1500 BR=
200903020530 METAR LMML NIL=
200903020515 METAR LMML 020515Z 31004KT 0900 R14/1152VP1500N FG FEW003
                        11/11 Q1017 BECMG 2000 BR=
200903020500 METAR LMML NIL=
200903020445 METAR LMML 020445Z VRB02KT 0250 R14/P1500N FG SCT010 SCT100
                        11/10 Q1016 BECMG 1500 BR=
200903020430 METAR LMML NIL=
200903020415 METAR LMML 020415Z VRB03KT 0400 R14/0826VP1500U FG SCT001
                        11/10 Q1016 TEMPO 0200 FG=
200903020400 METAR LMML NIL=
200903020345 METAR LMML 020345Z VRB01KT 0600 R14/P1500N FG FEW090 SCT250
                        11/11 Q1016 TEMPO 0500 FG=
200903020337 LMML 020337Z VRB01KT 0800 R14/P1500N FG FEW090 SCT250 11/11
                        Q1016 TEMPO 0500 FG=
200903020330 METAR LMML NIL=
200903020315 METAR LMML 020315Z VRB03KT 6000 FEW090 SCT250 11/11 Q1016
                        TEMPO 5000=
200903020300 METAR LMML NIL=
200903020245 METAR LMML 020245Z VRB03KT 7000 FEW090 SCT250 12/11 Q1016
                        TEMPO 5000=
200903020230 METAR LMML NIL=
200903020215 METAR LMML 020215Z VRB01KT 8000 FEW042 BKN090 12/12 Q1017
                        TEMPO 5000=
200903020200 METAR LMML NIL=
200903020130 METAR LMML NIL=
200903020115 METAR LMML 020115Z 14004KT CAVOK 12/11 Q1017 NOSIG=
200903020100 METAR LMML NIL=
200903020045 METAR LMML 020045Z 14005KT CAVOK 13/12 Q1017 NOSIG=
200903020030 METAR LMML NIL=
200903020015 METAR LMML 020015Z 14005KT CAVOK 12/11 Q1017 NOSIG=
200903020000 METAR LMML NIL=
200903012345 METAR LMML 012345Z 14005KT CAVOK 12/11 Q1017 NOSIG=
200903012330 METAR LMML NIL=
200903012315 METAR LMML 012315Z 14006KT CAVOK 13/12 Q1017 NOSIG=
200903012300 METAR LMML NIL=
200903012245 METAR LMML 012245Z 14004KT CAVOK 12/11 Q1018 NOSIG=
200903012230 METAR LMML NIL=
200903012215 METAR LMML 012215Z 14005KT CAVOK 13/12 Q1018 TEMPO SHRA SCT015TCU=
200903012200 METAR LMML NIL=
200903012145 METAR LMML 012145Z 13004KT 100V160 CAVOK 13/12 Q1018 TEMPO
                        SHRA SCT015TCU=
200903012130 METAR LMML NIL=
200903012115 METAR LMML 012115Z 15006KT 110V190 CAVOK 14/13 Q1018 TEMPO
                        SHRA SCT015TCU=
200903012100 METAR LMML NIL=
200903012045 METAR LMML 012045Z 15007KT 120V180 CAVOK 14/13 Q1018 NOSIG=
200903012030 METAR LMML NIL=
200903012015 METAR LMML 012015Z 15006KT 120V190 CAVOK 14/12 Q1018 NOSIG=
200903012000 METAR LMML NIL=
200903011945 METAR LMML 011945Z 16005KT 130V190 CAVOK 14/12 Q1018 NOSIG=
200903011930 METAR LMML NIL=
200903011915 METAR LMML 011915Z 17006KT 120V230 CAVOK 14/12 Q1018 NOSIG=
200903011900 METAR LMML NIL=
200903011845 METAR LMML 011845Z 18009KT 150V210 CAVOK 14/12 Q1018 NOSIG=
200903011830 METAR LMML NIL=
200903011815 METAR LMML 011815Z 18010KT CAVOK 14/11 Q1018 NOSIG=
200903011800 METAR LMML NIL=
200903011745 METAR LMML 011745Z 19009KT CAVOK 14/12 Q1018 NOSIG=
200903011730 METAR LMML NIL=
200903011715 METAR LMML 011715Z 18008KT CAVOK 14/12 Q1017 NOSIG=
200903011700 METAR LMML NIL=
200903011645 METAR LMML 011645Z 18010KT 150V220 9000 FEW009 SCT090 14/12
                        Q1017 NOSIG=
200903011630 METAR LMML NIL=
200903011615 METAR LMML 011615Z 18011KT 150V210 9000 FEW009 SCT100 14/13
                        Q1017 NOSIG=
200903011600 METAR LMML NIL=
200903011545 METAR LMML 011545Z 17012KT 9000 FEW009 SCT100 BKN250 15/13
                        Q1017 NOSIG=
200903011530 METAR LMML NIL=
200903011515 METAR LMML 011515Z 16011KT 9000 FEW010 BKN100 BKN250 15/13
                        Q1017 NOSIG=
200903011500 METAR LMML NIL=
200903011445 METAR LMML 011445Z 16013KT 9999 FEW009 BKN100 BKN250 16/13
                        Q1017 NOSIG=
200903011430 METAR LMML NIL=
200903011415 METAR LMML 011415Z 17011KT 130V220 9999 FEW011 SCT100 BKN250
                        16/13 Q1017 NOSIG=
200903011400 METAR LMML NIL=
200903011345 METAR LMML 011345Z 17010KT 140V210 9999 SCT011 SCT100 16/13
                        Q1017 TEMPO BKN011=
200903011330 METAR LMML NIL=
200903011315 METAR LMML 011315Z 16012KT 130V200 9999 SCT011 BKN090 16/13
                        Q1018 TEMPO BKN011=
200903011300 METAR LMML NIL=
200903011245 METAR LMML 011245Z 17013KT 130V220 9999 SCT012 BKN090 16/13
                        Q1018 TEMPO BKN012=
200903011230 METAR LMML NIL=
200903011215 METAR LMML 011215Z 17012KT 140V200 9999 BKN012 BKN090 15/13
                        Q1018 NOSIG=
200903011200 METAR LMML NIL=
200903011145 METAR LMML 011145Z 16014KT 9999 FEW013 BKN110 BKN250 15/13
                        Q1019 TEMPO BKN013=
200903011130 METAR LMML NIL=
200903011115 METAR LMML 011115Z 17012KT 9999 SCT014 SCT110 BKN250 15/13
                        Q1019 NOSIG=
200903011100 METAR LMML NIL=
200903011045 METAR LMML 011045Z 16013KT 9999 FEW015 SCT120 BKN250 15/13
                        Q1019 NOSIG=
200903011030 METAR LMML NIL=
200903011015 METAR LMML 011015Z 16014KT 130V190 9999 FEW015 SCT120 BKN250
                        15/13 Q1019 NOSIG=
200903011000 METAR LMML NIL=
200903010945 METAR LMML 010945Z 16014KT 9999 FEW015 SCT120 BKN250 15/12
                        Q1020 NOSIG=
200903010930 METAR LMML NIL=
200903010915 METAR LMML 010915Z 16014KT 130V200 9999 FEW016 SCT120 OVC250
                        14/12 Q1020 NOSIG=
200903010900 METAR LMML NIL=
200903010845 METAR LMML 010845Z 16013KT 9999 FEW016 SCT120 BKN250 14/12
                        Q1020 NOSIG=
200903010830 METAR LMML NIL=
200903010815 METAR LMML 010815Z 16013KT 9999 FEW016 BKN120 BKN250 14/12
                        Q1021 NOSIG=
200903010800 METAR LMML NIL=
200903010745 METAR LMML 010745Z 15009KT 120V180 9999 FEW017 BKN125 BKN250
                        14/11 Q1021 NOSIG=
200903010730 METAR LMML NIL=
200903010715 METAR LMML 010715Z 16009KT 9999 FEW017 BKN120 BKN250 14/11
                        Q1021 NOSIG=
200903010700 METAR LMML NIL=
200903010645 METAR LMML 010645Z 17009KT 9999 FEW017 BKN120 BKN250 13/11
                        Q1020 NOSIG=
200903010630 METAR LMML NIL=
200903010615 METAR LMML 010615Z 17007KT 120V200 9999 FEW017 BKN125 13/11
                        Q1021 NOSIG=
200903010600 METAR LMML NIL=
200903010545 METAR LMML 010545Z 16007KT 140V200 9999 FEW018 BKN120 13/10
                        Q1021 NOSIG=
200903010500 METAR LMML NIL=
200903010445 LMML 010445Z 16007KT 120V200 9999 FEW019 BKN120 13/10 Q1021
                        NOSIG=
200903010430 METAR LMML NIL=
200903010415 METAR LMML 010415Z 16006KT 130V190 CAVOK 13/10 Q1021 NOSIG=
200903010400 METAR LMML NIL=
200903010345 METAR LMML 010345Z 14005KT 100V180 CAVOK 13/10 Q1021 NOSIG=
200903010330 METAR LMML NIL=
200903010315 METAR LMML 010315Z 17007KT 140V210 CAVOK 13/10 Q1021 NOSIG=
200903010300 METAR LMML NIL=
200903010230 METAR LMML NIL=
200903010215 METAR LMML 010215Z 17007KT 140V210 CAVOK 12/09 Q1022 NOSIG=
200903010200 METAR LMML NIL=
200903010145 METAR LMML 010145Z 17007KT CAVOK 12/09 Q1022 NOSIG=
200903010130 METAR LMML NIL=
200903010115 METAR LMML 010115Z 16006KT 130V190 CAVOK 12/10 Q1022 NOSIG=
200903010100 METAR LMML NIL=
200903010045 METAR LMML 010045Z 16007KT 140V200 CAVOK 12/09 Q1022 NOSIG=
200903010030 METAR LMML NIL=
200903010015 METAR LMML 010015Z 16007KT 9999 FEW018 BKN250 13/09 Q1022
                        NOSIG=
200903010000 METAR LMML NIL=
200902282345 METAR LMML 282345Z 17006KT 130V200 9999 FEW018 BKN250 12/09
                        Q1022 NOSIG=
200902282330 METAR LMML NIL=
200902282315 METAR LMML 282315Z 16007KT CAVOK 12/09 Q1022 NOSIG=
200902282300 METAR LMML NIL=
200902282245 METAR LMML 282245Z 16007KT 9999 FEW021 BKN250 12/09 Q1023
                        NOSIG=
200902282230 METAR LMML NIL=
200902282215 METAR LMML 282215Z 16007KT 130V190 9999 FEW021 BKN250 12/09
                        Q1023 NOSIG=
200902282200 METAR LMML NIL=
200902282145 METAR LMML 282145Z 17005KT 130V190 9999 FEW021 BKN250 12/09
                        Q1023 NOSIG=
200902282130 METAR LMML NIL=
200902282115 METAR LMML 282115Z 17005KT 140V200 9999 FEW020 BKN250 12/09
                        Q1023 NOSIG=
200902282100 METAR LMML NIL=
200902282045 METAR LMML 282045Z 16006KT CAVOK 12/09 Q1023 NOSIG=
200902282030 METAR LMML NIL=
200902282015 METAR LMML 282015Z 15006KT CAVOK 12/09 Q1023 NOSIG=
200902282000 METAR LMML NIL=
200902281930 METAR LMML NIL=
200902281900 METAR LMML NIL=
200902281845 METAR LMML 281845Z 15007KT CAVOK 12/09 Q1022 NOSIG=
200902281830 METAR LMML NIL=
200902281815 METAR LMML 281815Z 14007KT CAVOK 12/08 Q1022 NOSIG=
200902281800 METAR LMML NIL=
200902281745 METAR LMML 281745Z 14007KT CAVOK 11/08 Q1022 NOSIG=
200902281730 METAR LMML NIL=
200902281715 METAR LMML 281715Z 14007KT CAVOK 12/07 Q1022 NOSIG=
200902281700 METAR LMML NIL=
200902281645 METAR LMML 281645Z 14007KT CAVOK 13/08 Q1022 NOSIG=
200902281630 METAR LMML NIL=
200902281600 METAR LMML NIL=
200902281545 METAR LMML 281545Z 14006KT 110V170 CAVOK 13/07 Q1022 NOSIG=
200902281530 METAR LMML NIL=
200902281515 METAR LMML 281515Z 13008KT 9999 FEW020 BKN250 14/07 Q1022
                        NOSIG=
200902281500 METAR LMML NIL=
200902281445 METAR LMML 281445Z 12008KT 090V150 9999 FEW025 BKN250 15/07
                        Q1021 NOSIG=
200902281430 METAR LMML NIL=
200902281415 METAR LMML 281415Z 12007KT 070V150 9999 FEW025 BKN250 15/08
                        Q1021 NOSIG=
200902281400 METAR LMML NIL=
200902281345 METAR LMML 281345Z 12007KT 090V170 9999 FEW025 BKN250 15/08
                        Q1021 NOSIG=
200902281330 METAR LMML NIL=
200902281315 METAR LMML 281315Z 12007KT 090V160 9999 FEW025 SCT250 15/08
                        Q1021 NOSIG=
200902281300 METAR LMML NIL=
200902281245 METAR LMML 281245Z 12007KT 080V170 9999 FEW025 15/09 Q1021
                        NOSIG=
200902281230 METAR LMML NIL=
200902281200 METAR LMML NIL=
200902281145 METAR LMML 281145Z 13006KT 070V180 9999 FEW025 15/09 Q1021
                        NOSIG=
200902281130 METAR LMML NIL=
200902281100 METAR LMML NIL=
200902281045 METAR LMML 281045Z 07005KT 040V110 9999 FEW022 14/10 Q1022
                        NOSIG=
200902281030 METAR LMML NIL=
200902281015 METAR LMML 281015Z VRB03KT 9999 FEW021 15/10 Q1022 NOSIG=
200902281000 METAR LMML NIL=
200902280945 METAR LMML 280945Z 08004KT 040V120 9999 FEW023 14/09 Q1022
                        NOSIG=
200902280930 METAR LMML NIL=
200902280915 METAR LMML 280915Z VRB03KT 9999 SCT022 15/09 Q1022 NOSIG=
200902280900 METAR LMML NIL=
200902280845 METAR LMML 280845Z 02004KT 350V050 9999 FEW022 15/10 Q1021
                        NOSIG=
200902280830 METAR LMML NIL=
200902280815 METAR LMML 280815Z 36005KT 330V030 9999 FEW020 14/10 Q1021
                        NOSIG=
200902280800 METAR LMML NIL=
200902280745 METAR LMML 280745Z 34004KT 9999 FEW020 13/10 Q1021 NOSIG=
200902280730 METAR LMML NIL=
200902280715 METAR LMML 280715Z VRB03KT 9999 FEW020 12/10 Q1021 NOSIG=
200902280700 METAR LMML NIL=
200902280645 METAR LMML 280645Z 32004KT 9999 FEW020 10/09 Q1020 NOSIG=
200902280630 METAR LMML NIL=
200902280615 METAR LMML 280615Z 28004KT 240V310 9999 FEW030 09/08 Q1020
                        NOSIG=
200902280600 METAR LMML NIL=
200902280545 METAR LMML 280545Z VRB03KT 9999 FEW039 09/08 Q1020 NOSIG=
200902280515 METAR LMML 280515Z 30004KT 9999 FEW042 09/07 Q1020 NOSIG=
200902280500 METAR LMML NIL=
200902280445 METAR LMML 280445Z VRB02KT 9999 SCT034 10/08 Q1019 NOSIG=
200902280430 METAR LMML NIL=
200902280415 METAR LMML 280415Z 29005KT 9999 SCT030 10/08 Q1019 NOSIG=
200902280400 METAR LMML NIL=
200902280345 METAR LMML 280345Z 29005KT 260V320 9999 FEW030 10/08 Q1019
                        NOSIG=
200902280330 METAR LMML NIL=
200902280315 METAR LMML 280315Z 30005KT 9999 FEW030 09/07 Q1019 NOSIG=
200902280300 METAR LMML NIL=
200902280245 METAR LMML 280245Z 30006KT 9999 FEW030 09/07 Q1019 NOSIG=
200902280230 METAR LMML NIL=
200902280215 METAR LMML 280215Z 30006KT 9999 FEW030 10/08 Q1019 NOSIG=
200902280200 METAR LMML NIL=
200902280145 METAR LMML 280145Z 29005KT 9999 FEW030 10/07 Q1019 NOSIG=
200902280130 METAR LMML NIL=
200902280115 METAR LMML 280115Z 30006KT 9999 FEW030 10/07 Q1019 NOSIG=
200902280100 METAR LMML NIL=
200902280045 METAR LMML 280045Z 30008KT 9999 FEW030 10/07 Q1019 NOSIG=
200902280030 METAR LMML NIL=
200902280015 METAR LMML 280015Z 29008KT 9999 FEW030 10/07 Q1019 NOSIG=
200902280000 METAR LMML NIL=
200902272345 METAR LMML 272345Z 29007KT 9999 SCT030 10/07 Q1019 NOSIG=
200902272330 METAR LMML NIL=
200902272315 METAR LMML 272315Z 29006KT 9999 SCT023 10/07 Q1019 NOSIG=
200902272300 METAR LMML NIL=
200902272245 METAR LMML 272245Z 29006KT 9999 SCT023 10/07 Q1019 NOSIG=
200902272230 METAR LMML NIL=
200902272215 METAR LMML 272215Z 29007KT 9999 SCT022 10/07 Q1019 NOSIG=
200902272145 METAR LMML 272145Z 30007KT 9999 SCT028 10/07 Q1019 NOSIG=
200902272130 METAR LMML NIL=
200902272115 METAR LMML 272115Z 30007KT 9999 SCT028 11/07 Q1019 NOSIG=
200902272100 METAR LMML NIL=
200902272045 METAR LMML 272045Z 30007KT 9999 SCT025 10/07 Q1019 NOSIG=
200902272015 METAR LMML 272015Z 31007KT 280V340 9999 SCT023 10/07 Q1019
                        NOSIG=
200902272000 METAR LMML NIL=
200902271945 METAR LMML 271945Z 32006KT 9999 SCT024 10/07 Q1019 NOSIG=
200902271930 METAR LMML NIL=
200902271915 METAR LMML 271915Z 30007KT 9999 FEW023 10/07 Q1018 NOSIG=
200902271900 METAR LMML NIL=
200902271845 METAR LMML 271845Z 30006KT 270V350 9999 SCT030 10/07 Q1018
                        NOSIG=
200902271830 METAR LMML NIL=
200902271815 METAR LMML 271815Z 30008KT 9999 FEW031 11/07 Q1018 NOSIG=
200902271800 METAR LMML NIL=
200902271745 METAR LMML 271745Z 30011KT 270V330 9999 FEW024 11/07 Q1018
                        NOSIG=
200902271730 METAR LMML NIL=
200902271715 METAR LMML 271715Z 29008KT 9999 BKN022 BKN040 11/07 Q1018
                        NOSIG=
200902271700 METAR LMML NIL=
200902271645 METAR LMML 271645Z 29011KT 9999 SCT022 11/07 Q1018 NOSIG=
200902271630 METAR LMML NIL=
200902271615 METAR LMML 271615Z 29011KT 9999 FEW025 12/07 Q1018 NOSIG=
200902271600 METAR LMML NIL=
200902271545 METAR LMML 271545Z 29012KT 9999 FEW024 SCT050 12/07 Q1018
                        NOSIG=
200902271530 METAR LMML NIL=
200902271515 METAR LMML 271515Z 29013KT 260V320 9999 SCT023 BKN050 12/07
                        Q1018 NOSIG=
200902271500 METAR LMML NIL=
200902271445 METAR LMML 271445Z 29013KT 250V320 9999 SCT025 BKN043 12/07
                        Q1018 NOSIG=
200902271430 METAR LMML NIL=
200902271415 METAR LMML 271415Z 29011KT 9999 -RA SCT025 BKN040 12/07 Q1018
                        NOSIG=
200902271400 METAR LMML NIL=
200902271345 METAR LMML 271345Z 28011KT 250V330 9999 SCT034 BKN045 12/06
                        Q1018 NOSIG=
200902271330 METAR LMML NIL=
200902271315 METAR LMML 271315Z 28013KT 250V310 9999 FEW034 BKN050 13/06
                        Q1018 NOSIG=
200902271300 METAR LMML NIL=
200902271245 METAR LMML 271245Z 28014KT 250V310 9999 FEW036 SCT046 13/05
                        Q1018 NOSIG=
200902271230 METAR LMML NIL=
200902271215 METAR LMML 271215Z 28016KT 250V320 9999 FEW038 13/05 Q1019
                        NOSIG=
200902271200 METAR LMML NIL=
200902271145 METAR LMML 271145Z 29014KT 250V330 9999 SCT030 14/05 Q1020
                        NOSIG=
200902271130 METAR LMML NIL=
200902271115 METAR LMML 271115Z 28016KT 250V320 9999 FEW031 14/06 Q1020
                        NOSIG=
200902271100 METAR LMML NIL=
200902271045 METAR LMML 271045Z 29016KT 250V320 9999 FEW029 13/07 Q1020
                        NOSIG=
200902271030 METAR LMML NIL=
200902271015 METAR LMML 271015Z 28017KT 260V320 9999 SCT030 12/07 Q1020
                        NOSIG=
200902271000 METAR LMML NIL=
200902270945 METAR LMML 270945Z 29016KT 9999 FEW030 13/06 Q1020 NOSIG=
200902270930 METAR LMML NIL=
200902270915 LMML 270915Z 29016KT 260V320 9999 SCT046 13/05 Q1020 NOSIG=
200902270900 METAR LMML NIL=
200902270845 METAR LMML 270845Z 29014KT 9999 BKN036 11/05 Q1020 NOSIG=
200902270830 METAR LMML NIL=
200902270815 METAR LMML 270815Z 29012KT 9999 BKN030 11/06 Q1020 NOSIG=
200902270800 METAR LMML NIL=
200902270745 METAR LMML 270745Z 29011KT 9999 BKN033 SCT250 11/06 Q1020
                        NOSIG=
200902270730 METAR LMML NIL=
200902270715 METAR LMML 270715Z 29008KT 9999 SCT034 SCT250 11/05 Q1020
                        NOSIG=
200902270700 METAR LMML NIL=
200902270645 METAR LMML 270645Z 29006KT 9999 SCT040 10/04 Q1020 NOSIG=
200902270630 METAR LMML NIL=
200902270615 METAR LMML 270615Z 30008KT 9999 SCT039 09/04 Q1020 NOSIG=
200902270600 METAR LMML NIL=
200902270545 METAR LMML 270545Z 29008KT 9999 FEW035 09/03 Q1020 NOSIG=
200902270530 METAR LMML NIL=
200902270515 METAR LMML 270515Z 29009KT 9999 FEW035 09/03 Q1020 NOSIG=
200902270500 METAR LMML NIL=
200902270445 METAR LMML 270445Z 29011KT 9999 FEW035 09/04 Q1021 NOSIG=
200902270430 METAR LMML NIL=
200902270415 METAR LMML 270415Z 29009KT 260V320 9999 SCT035 09/04 Q1021
                        NOSIG=
200902270400 METAR LMML NIL=
200902270345 METAR LMML 270345Z 29011KT 9999 SCT033 09/04 Q1021 NOSIG=
200902270315 METAR LMML 270315Z 29006KT 250V310 9999 SCT030 09/05 Q1021
                        NOSIG=
200902270300 METAR LMML NIL=
200902270245 METAR LMML 270245Z 29007KT 9999 FEW040 09/04 Q1021 NOSIG=
200902270230 METAR LMML NIL=
200902270215 METAR LMML 270215Z 30007KT 9999 FEW040 08/04 Q1021 NOSIG=
200902270200 METAR LMML NIL=
200902270145 METAR LMML 270145Z 30007KT 9999 FEW039 08/04 Q1021 NOSIG=
200902270130 METAR LMML NIL=
200902270115 METAR LMML 270115Z 31010KT 9999 FEW038 08/04 Q1022 NOSIG=
200902270100 METAR LMML NIL=
200902270045 METAR LMML 270045Z 30009KT 9999 FEW037 08/03 Q1022 NOSIG=
200902270030 METAR LMML NIL=
200902270015 METAR LMML 270015Z 30009KT 9999 FEW040 08/03 Q1022 NOSIG=
200902270000 METAR LMML NIL=
200902262345 METAR LMML 262345Z 30011KT 9999 FEW042 09/04 Q1022 NOSIG=
200902262330 METAR LMML NIL=
200902262315 METAR LMML 262315Z 30010KT 9999 FEW045 09/05 Q1022 NOSIG=
200902262300 METAR LMML NIL=
200902262245 METAR LMML 262245Z 30010KT CAVOK 09/05 Q1022 NOSIG=
200902262230 METAR LMML NIL=
200902262215 METAR LMML 262215Z 30008KT 9999 FEW044 09/05 Q1022 NOSIG=
200902262200 METAR LMML NIL=
200902262145 METAR LMML 262145Z 30008KT 9999 FEW046 09/05 Q1023 NOSIG=
200902262130 METAR LMML NIL=
200902262115 METAR LMML 262115Z 30010KT 9999 FEW046 10/05 Q1023 NOSIG=
200902262100 METAR LMML NIL=
200902262045 METAR LMML 262045Z 31009KT 9999 FEW045 10/05 Q1023 NOSIG=
200902262030 METAR LMML NIL=
200902262015 METAR LMML 262015Z 29005KT 250V320 9999 FEW042 09/03 Q1023
                        NOSIG=
200902262000 METAR LMML NIL=
200902261945 METAR LMML 261945Z 29004KT 270V330 9999 FEW042 09/04 Q1023
                        NOSIG=
200902261930 LMML NIL=
200902261915 METAR LMML 261915Z 29006KT 9999 FEW042 09/04 Q1023 NOSIG=
200902261900 METAR LMML NIL=
200902261845 METAR LMML 261845Z 30007KT 9999 FEW042 09/04 Q1023 NOSIG=
200902261830 METAR LMML NIL=
200902261815 METAR LMML 261815Z 28007KT 9999 FEW040 09/03 Q1023 NOSIG=
200902261800 METAR LMML NIL=
200902261745 METAR LMML 261745Z 28006KT 240V310 9999 FEW045 09/03 Q1023
                        NOSIG=
200902261730 METAR LMML NIL=
200902261715 METAR LMML 261715Z 29007KT 9999 FEW045 09/03 Q1023 NOSIG=
200902261700 METAR LMML NIL=
200902261645 METAR LMML 261645Z 30008KT 9999 FEW045 10/03 Q1023 NOSIG=
200902261630 METAR LMML NIL=
200902261615 METAR LMML 261615Z 30008KT 270V330 9999 FEW048 11/03 Q1023
                        NOSIG=
200902261600 METAR LMML NIL=
200902261545 METAR LMML 261545Z 32011KT 9999 FEW048 11/02 Q1023 NOSIG=
200902261530 METAR LMML NIL=
200902261515 METAR LMML 261515Z 31010KT 9999 FEW048 12/02 Q1023 NOSIG=
200902261500 METAR LMML NIL=
200902261445 METAR LMML 261445Z 33010KT 290V010 9999 FEW048 12/02 Q1023
                        NOSIG=
200902261430 METAR LMML NIL=
200902261415 METAR LMML 261415Z 33010KT 300V360 9999 FEW045 12/02 Q1023
                        NOSIG=
200902261400 METAR LMML NIL=
200902261345 METAR LMML 261345Z 34009KT 310V030 9999 FEW047 12/02 Q1023
                        NOSIG=
200902261330 METAR LMML NIL=
200902261315 METAR LMML 261315Z 35010KT 9999 FEW047 11/01 Q1023 NOSIG=
200902261300 METAR LMML NIL=
200902261245 METAR LMML 261245Z 34011KT 310V020 9999 FEW046 12/02 Q1023
                        NOSIG=
200902261230 METAR LMML NIL=
200902261215 METAR LMML 261215Z 36011KT 330V030 9999 FEW046 13/02 Q1023
                        NOSIG=
200902261200 METAR LMML NIL=
200902261145 METAR LMML 261145Z 36014KT 320V020 9999 FEW047 12/01 Q1024
                        NOSIG=
200902261130 METAR LMML NIL=
200902261115 METAR LMML 261115Z 34014KT 320V030 9999 FEW047 12/02 Q1024
                        NOSIG=
200902261100 METAR LMML NIL=
200902261045 METAR LMML 261045Z 35014KT 320V030 9999 SCT049 12/02 Q1024
                        NOSIG=
200902261030 METAR LMML NIL=
200902261015 METAR LMML 261015Z 35013KT 320V030 9999 FEW048 12/02 Q1024
                        NOSIG=
200902261000 METAR LMML NIL=
200902260945 METAR LMML 260945Z 35015KT 320V020 9999 FEW045 11/01 Q1024
                        NOSIG=
200902260930 METAR LMML NIL=
200902260915 METAR LMML 260915Z 36017KT 9999 FEW045 11/02 Q1023 NOSIG=
200902260900 METAR LMML NIL=
200902260845 METAR LMML 260845Z 35017KT 320V030 9999 FEW047 11/02 Q1023
                        NOSIG=
200902260830 METAR LMML NIL=
200902260815 METAR LMML 260815Z 35015G25KT 320V020 9999 SCT047 10/02 Q1023
                        NOSIG=
200902260800 METAR LMML NIL=
200902260745 METAR LMML 260745Z 34014KT 9999 SCT040 10/02 Q1023 NOSIG=
200902260730 METAR LMML NIL=
200902260715 METAR LMML 260715Z 36015KT 330V030 9999 SCT040 10/02 Q1022
                        NOSIG=
200902260700 METAR LMML NIL=
200902260645 METAR LMML 260645Z 35011KT 320V020 9999 FEW045 09/02 Q1022
                        TEMPO 8000 SHRA=
200902260630 METAR LMML NIL=
200902260615 METAR LMML 260615Z 35011KT 9999 FEW037 08/03 Q1022 TEMPO
                        8000 SHRA=
200902260600 METAR LMML NIL=
200902260545 METAR LMML 260545Z 35008KT 9999 SCT033 08/04 Q1021 TEMPO
                        8000 SHRA=
200902260530 METAR LMML NIL=
200902260515 METAR LMML 260515Z 35008KT 9999 SCT022 07/05 Q1021 TEMPO
                        8000 SHRA=
200902260500 METAR LMML NIL=
200902260445 METAR LMML 260445Z 36005KT 330V040 9999 SCT019 07/04 Q1021
                        TEMPO 8000 SHRA=
200902260430 METAR LMML NIL=
200902260415 METAR LMML 260415Z 01013G24KT 330V050 7000 -TSRA SCT021CB
                        BKN080 08/05 Q1021 TEMPO 5000 TSRA
                        BKN015CB=
200902260400 METAR LMML NIL=
200902260345 METAR LMML 260345Z 02008KT 9999 SCT022 BKN080 09/06 Q1021
                        TEMPO 7000 SHRA=
200902260330 METAR LMML NIL=
200902260315 METAR LMML 260315Z 02010KT 9999 FEW020 SCT040 BKN070 09/06
                        Q1020 BECMG 9999 SCT025=
200902260300 METAR LMML NIL=
200902260245 METAR LMML 260245Z 05007KT 010V080 8000 -RA FEW026 BKN037
                        08/06 Q1020 BECMG 9999 SCT025=
200902260230 METAR LMML NIL=
200902260215 METAR LMML 260215Z 04011KT 010V070 8000 -RA FEW020 BKN031
                        08/05 Q1020 BECMG 9999 SCT025=
200902260200 METAR LMML NIL=
200902260145 METAR LMML 260145Z 05013KT 010V080 8000 -RA SCT020 BKN029
                        08/06 Q1020 BECMG 9999 SCT025=
200902260130 METAR LMML NIL=
200902260115 METAR LMML 260115Z 05014KT 010V100 8000 -RA SCT020 BKN030
                        08/05 Q1020 BECMG 9999 SCT025=
200902260100 METAR LMML NIL=
200902260045 METAR LMML 260045Z 03015KT 360V060 8000 -RA SCT018 BKN032
                        08/06 Q1020 NOSIG=
200902260030 METAR LMML NIL=
200902260015 METAR LMML 260015Z 03018G29KT 8000 -RA SCT012 BKN033 08/06
                        Q1020 NOSIG=
200902260000 METAR LMML NIL=
200902252345 METAR LMML 252345Z 01009G19KT 340V050 4000 RA SCT010 BKN032
                        08/06 Q1020 NOSIG=
200902252330 METAR LMML NIL=
200902252315 METAR LMML 252315Z 03011KT 360V070 4000 RA SCT015 BKN032
                        08/06 Q1019 NOSIG=
200902252300 METAR LMML NIL=
200902252245 METAR LMML 252245Z 05011KT 010V080 6000 RA SCT012 BKN028
                        08/06 Q1020 NOSIG=
200902252230 METAR LMML NIL=
200902252215 METAR LMML 252215Z 05008KT 020V100 6000 RA SCT012 BKN028
                        08/07 Q1019 NOSIG=
200902252200 METAR LMML NIL=
200902252145 METAR LMML 252145Z 06010KT 030V110 6000 RA SCT010 BKN034
                        07/06 Q1019 NOSIG=
200902252130 METAR LMML NIL=
200902252115 METAR LMML 252115Z 05011KT 020V090 6000 -RA SCT009 BKN032
                        07/06 Q1019 NOSIG=
200902252100 METAR LMML NIL=
200902252045 METAR LMML 252045Z 04010KT 010V090 6000 -RA SCT010 BKN028
                        08/06 Q1019 NOSIG=
200902252030 METAR LMML NIL=
200902252015 METAR LMML 252015Z 06004KT 030V100 6000 -RA FEW029 OVC037
                        07/06 Q1019 RERA NOSIG=
200902252000 METAR LMML NIL=
200902251945 METAR LMML 251945Z 05006KT 020V080 6000 -RA FEW024 BKN031
                        07/06 Q1019 RERA NOSIG=
200902251930 METAR LMML NIL=
200902251915 METAR LMML 251915Z 04007KT 010V070 6000 RA FEW008 BKN031
                        07/06 Q1019 NOSIG=
200902251900 METAR LMML NIL=
200902251845 METAR LMML 251845Z 07009KT 040V110 4000 RA SCT008 BKN026
                        07/07 Q1018 NOSIG=
200902251830 METAR LMML NIL=
200902251815 METAR LMML 251815Z 08010KT 4000 RA SCT008 BKN020 08/07 Q1018
                        NOSIG=
200902251800 METAR LMML NIL=
200902251745 METAR LMML 251745Z 05007KT 010V100 4000 RA SCT005 OVC039
                        08/07 Q1018 NOSIG=
200902251730 METAR LMML NIL=
200902251715 METAR LMML 251715Z VRB03KT 9000 -RA FEW025 OVC040 09/07 Q1017
                        TEMPO 8000 RA BKN015=
200902251700 METAR LMML NIL=
200902251645 METAR LMML 251645Z VRB03KT 9000 -RA SCT025 SCT040 OVC070
                        09/07 Q1017 TEMPO 8000 RA BKN015=
200902251630 METAR LMML NIL=
200902251615 METAR LMML 251615Z 16004KT 130V200 9000 -RA SCT025 SCT040
                        OVC070 09/07 Q1017 TEMPO 8000 SHRA
                        BKN015=
200902251600 METAR LMML NIL=
200902251545 METAR LMML 251545Z 17005KT 130V220 9000 -RA SCT025 BKN039
                        09/07 Q1017 TEMPO 8000 SHRA BKN015=
200902251530 METAR LMML NIL=
200902251515 METAR LMML 251515Z 16008KT 9000 -SHRA SCT028 BKN050 10/07
                        Q1017 TEMPO 8000 SHRA BKN015=
200902251500 METAR LMML NIL=
200902251445 METAR LMML 251445Z 14009KT 9999 SCT030 BKN050 10/06 Q1017
                        TEMPO 8000 SHRA BKN015=
200902251430 METAR LMML NIL=
200902251415 METAR LMML 251415Z 13009KT 9999 -SHRA SCT025 BKN060 11/06
                        Q1016 TEMPO 3000 TSRA BKN015CB=
200902251400 METAR LMML NIL=
200902251345 METAR LMML 251345Z 12010KT 090V160 9999 FEW025 SCT040 BKN080
                        11/07 Q1017 TEMPO 3000 TSRA BKN015CB=
200902251330 METAR LMML NIL=
200902251315 METAR LMML 251315Z 12011KT 090V150 9999 FEW030 SCT036 BKN044
                        11/06 Q1017 TEMPO 3000 TSRA BKN015CB=
200902251300 METAR LMML NIL=
200902251245 METAR LMML 251245Z 10013KT 9999 FEW020 BKN040 12/08 Q1017
                        TEMPO 8000 SHRA BKN015=
200902251230 METAR LMML NIL=
200902251215 METAR LMML 251215Z 09011KT 050V120 9999 FEW020 BKN050 13/08
                        Q1017 TEMPO 8000 SHRA BKN015=
200902251200 METAR LMML NIL=
200902251145 METAR LMML 251145Z 08011KT 050V110 9999 FEW020 BKN050 12/07
                        Q1017 TEMPO 8000 SHRA BKN015=
200902251130 METAR LMML NIL=
200902251115 METAR LMML 251115Z 08012KT 040V110 9999 FEW021 BKN050 12/08
                        Q1017 NOSIG=
200902251100 METAR LMML NIL=
200902251045 METAR LMML 251045Z 06010KT 030V110 9999 FEW020 BKN050 12/07
                        Q1017 NOSIG=
200902251030 METAR LMML NIL=
200902251015 METAR LMML 251015Z 06009KT 020V100 9999 FEW020TCU BKN050
                        12/07 Q1017 NOSIG=
200902251000 METAR LMML NIL=
200902250945 METAR LMML 250945Z 06011KT 020V090 9999 FEW020TCU SCT050
                        12/07 Q1017 TEMPO 8000 RA BKN015=
200902250930 METAR LMML NIL=
200902250915 METAR LMML 250915Z 06008KT 020V110 9999 FEW020 SCT043 BKN120
                        11/08 Q1017 TEMPO 8000 RA BKN015=
200902250900 METAR LMML NIL=
200902250845 METAR LMML 250845Z 05008KT 010V090 9999 FEW020 SCT050 12/07
                        Q1017 TEMPO 8000 SHRA BKN015=
200902250830 METAR LMML NIL=
200902250815 METAR LMML 250815Z 05009KT 020V090 9999 FEW020 SCT043 BKN120
                        11/08 Q1016 TEMPO 8000 SHRA BKN015=
200902250800 METAR LMML NIL=
200902250745 METAR LMML 250745Z 04010KT 010V070 9999 FEW022 SCT050 BKN080
                        11/08 Q1016 TEMPO 8000 SHRA BKN015=
200902250730 METAR LMML NIL=
200902250715 METAR LMML 250715Z 05009KT 020V090 9999 SCT022 SCT050 SCT080
                        09/07 Q1016 TEMPO 8000 SHRA BKN015=
200902250700 METAR LMML NIL=
200902250645 METAR LMML 250645Z 08004KT 9999 -SHRA BKN022 BKN050 09/07
                        Q1015 TEMPO 8000 SHRA BKN015=
200902250630 METAR LMML NIL=
200902250615 METAR LMML 250615Z 08008KT 060V130 9999 -SHRA BKN022 BKN050
                        09/07 Q1015 TEMPO 8000 SHRA BKN015=
200902250600 METAR LMML NIL=
200902250545 METAR LMML 250545Z 03007KT 350V070 9999 BKN021 SCT090 10/07
                        Q1015 TEMPO 8000 SHRA=
200902250530 METAR LMML NIL=
200902250515 METAR LMML 250515Z 04009KT 010V070 9999 SCT021 10/06 Q1014
                        TEMPO 8000 SHRA=
200902250500 METAR LMML NIL=
200902250445 METAR LMML 250445Z 03008KT 9999 FEW023 SCT090 09/06 Q1014
                        TEMPO 8000 SHRA=
200902250430 METAR LMML NIL=
200902250415 METAR LMML 250415Z 03008KT 9999 SCT019 09/07 Q1014 TEMPO
                        8000 SHRA=
200902250400 METAR LMML NIL=
200902250345 METAR LMML 250345Z 03010KT 9999 SCT020 09/07 Q1014 TEMPO
                        8000 SHRA=
200902250330 METAR LMML NIL=
200902250315 METAR LMML 250315Z 03007KT 360V070 9999 FEW032 SCT037 09/06
                        Q1014 TEMPO 8000 SHRA=
200902250300 METAR LMML NIL=
200902250245 METAR LMML 250245Z 02007KT 9999 FEW032 SCT038 09/07 Q1014
                        TEMPO 8000 SHRA=
200902250230 METAR LMML NIL=
200902250215 METAR LMML 250215Z 03011KT 010V070 9999 SCT021 09/06 Q1013
                        TEMPO 8000 SHRA=
200902250200 METAR LMML NIL=
200902250145 METAR LMML 250145Z 02008KT 9999 FEW019 09/06 Q1014 TEMPO
                        8000 SHRA=
200902250130 METAR LMML NIL=
200902250115 METAR LMML 250115Z 03006KT 360V060 9999 FEW022 SCT041 09/06
                        Q1013 RESHRA NOSIG=
200902250100 METAR LMML NIL=
200902250045 METAR LMML 250045Z 04007KT 010V080 9999 FEW022 SCT037 09/06
                        Q1014 RESHRA NOSIG=
200902250030 METAR LMML NIL=
200902250015 METAR LMML 250015Z 05010KT 020V090 9000 SHRA SCT020 SCT046
                        BKN100 09/07 Q1014 NOSIG=
200902250000 METAR LMML NIL=
200902242345 METAR LMML 242345Z 03010KT 360V060 9999 SCT026 SCT050 BKN100
                        10/06 Q1013 NOSIG=
200902242330 METAR LMML NIL=
200902242315 METAR LMML 242315Z 03007KT 350V060 9999 SCT023 SCT050 BKN100
                        10/06 Q1013 NOSIG=
200902242300 METAR LMML NIL=
200902242245 METAR LMML 242245Z 03008KT 360V070 9999 FEW021 SCT100 10/06
                        Q1013 NOSIG=
200902242230 METAR LMML NIL=
200902242215 LMML 242215Z 03009KT 010V070 9999 SCT018 10/06 Q1013 NOSIG=
200902242200 METAR LMML NIL=
200902242145 METAR LMML 242145Z 03010KT 360V060 9999 BKN024 10/06 Q1012
                        NOSIG=
200902242130 METAR LMML NIL=
200902242115 METAR LMML 242115Z 02007KT 350V060 9999 SCT023 SCT050 BKN100
                        10/07 Q1012 NOSIG=
200902242100 METAR LMML NIL=
200902242045 METAR LMML 242045Z 02011KT 360V060 9999 FEW025 SCT050 BKN080
                        10/06 Q1012 NOSIG=
200902242030 METAR LMML NIL=
200902242015 METAR LMML 242015Z 02008KT 350V050 9999 SCT025 BKN080 10/06
                        Q1012 NOSIG=
200902242000 METAR LMML NIL=
200902241945 METAR LMML 241945Z 02007KT 340V050 9999 SCT020 BKN080 10/07
                        Q1011 NOSIG=
200902241930 METAR LMML NIL=
200902241915 METAR LMML 241915Z 02011KT 350V050 9999 SCT020 BKN050 10/07
                        Q1011 TEMPO 6000 RA BKN012=
200902241900 METAR LMML NIL=
200902241845 METAR LMML 241845Z 01012KT 350V050 9999 -RA SCT020 BKN060
                        10/07 Q1011 TEMPO 6000 RA BKN012=
200902241830 METAR LMML NIL=
200902241815 METAR LMML 241815Z 03008KT 350V080 9000 -RA SCT012 SCT033
                        BKN070 09/07 Q1010 TEMPO 6000 RA
                        BKN012=
200902241800 METAR LMML NIL=
200902241745 METAR LMML 241745Z 36008KT 6000 -RA SCT015 SCT046 BKN070
                        09/08 Q1010 TEMPO 6000 RA BKN012=
200902241730 METAR LMML NIL=
200902241715 METAR LMML 241715Z 03013KT 9999 -RA SCT017 SCT046 BKN080
                        10/07 Q1009 TEMPO 6000 RA BKN012=
200902241700 METAR LMML NIL=
200902241645 METAR LMML 241645Z 02012KT 9999 SCT015 SCT040 BKN080 10/07
                        Q1009 TEMPO 6000 RA BKN012=
200902241630 METAR LMML NIL=
200902241615 METAR LMML 241615Z 03011KT 360V060 9999 SCT021 SCT050 BKN080
                        10/07 Q1009 TEMPO 6000 RA BKN012=
200902241600 METAR LMML NIL=
200902241545 METAR LMML 241545Z 04010KT 010V070 9999 SCT020 SCT050 BKN080
                        10/07 Q1008 TEMPO 6000 RA BKN012=
200902241530 METAR LMML NIL=
200902241515 METAR LMML 241515Z 04010KT 010V070 9999 SCT019 SCT030 BKN070
                        10/07 Q1008 TEMPO 6000 RA BKN005
                        BKN012=
200902241500 METAR LMML NIL=
200902241445 METAR LMML 241445Z 05010KT 010V080 9999 FEW014 BKN070 10/07
                        Q1008 TEMPO 6000 BKN005 BKN012=
200902241430 METAR LMML NIL=
200902241415 METAR LMML 241415Z 05010KT 360V090 9999 FEW019 BKN070 10/07
                        Q1008 TEMPO 6000 RA BKN015=
200902241400 METAR LMML NIL=
200902241345 METAR LMML 241345Z 06011KT 020V100 9999 FEW018 BKN070 10/07
                        Q1007 TEMPO 6000 BKN005 BKN012=
200902241330 METAR LMML NIL=
200902241315 METAR LMML 241315Z 06011KT 020V100 9999 -RA FEW019 SCT032
                        BKN070 10/07 Q1008 TEMPO 6000 BKN005
                        BKN012=
200902241300 METAR LMML NIL=
200902241245 METAR LMML 241245Z 06010KT 9999 -RA SCT018 SCT027 BKN042
                        10/08 Q1008 TEMPO BKN005 BKN012=
200902241230 METAR LMML NIL=
200902241215 METAR LMML 241215Z 06011KT 020V100 7000 -RA SCT016 SCT026
                        BKN034 09/07 Q1008 TEMPO BKN005 BKN012=
200902241200 METAR LMML NIL=
200902241145 METAR LMML 241145Z 07011KT 040V100 7000 -RA FEW015 SCT023
                        OVC035 09/08 Q1008 TEMPO BKN005 BKN012=
200902241130 METAR LMML NIL=
200902241115 METAR LMML 241115Z 08010KT 050V110 6000 -RA FEW013 SCT025
                        OVC034 09/08 Q1008 TEMPO BKN005 BKN012=
200902241100 METAR LMML NIL=
200902241045 METAR LMML 241045Z 08012KT 050V110 4000 -RA SCT012 SCT018
                        OVC030 09/08 Q1008 RERA TEMPO BKN005
                        BKN012=
200902241030 METAR LMML NIL=
200902241015 METAR LMML 241015Z 09011KT 4000 -RA SCT009 SCT016 OVC030
                        09/08 Q1008 RERA TEMPO BKN005 BKN012=
200902241000 METAR LMML NIL=
200902240945 METAR LMML 240945Z 09011KT 060V120 3500 RA SCT009 SCT017
                        OVC031 09/08 Q1008 TEMPO BKN005 BKN012=
200902240930 METAR LMML NIL=
200902240915 METAR LMML 240915Z 09013KT 050V130 4000 -RA BKN007 SCT015
                        OVC035 09/08 Q1008 RERA TEMPO 3000
                        TSRA BKN005 BKN010CB BKN012=
200902240900 METAR LMML NIL=
200902240845 METAR LMML 240845Z 11012KT 070V140 2000 +RA BKN008 BKN013
                        BKN030 09/08 Q1008 TEMPO BKN005 BKN012=
200902240832 SPECI LMML 240832Z 10012KT 070V140 3000 RA BKN008 SCT016
                        BKN030 09/09 Q1007 TEMPO 5000 BKN005
                        BKN012=
200902240830 METAR LMML NIL=
200902240815 METAR LMML 240815Z 10010KT 060V140 5000 RA BKN010 BKN030
                        10/08 Q1007 TEMPO 5000 BKN005 BKN012=
200902240800 METAR LMML NIL=
200902240745 METAR LMML 240745Z 11008KT 070V130 6000 RA SCT015 BKN022
                        BKN035 09/08 Q1007 TEMPO 5000 BKN012=
200902240730 METAR LMML NIL=
200902240715 METAR LMML 240715Z 12010KT 090V150 6000 -RA SCT016 BKN032
                        09/08 Q1007 RERA TEMPO 5000 BKN012=
200902240700 METAR LMML NIL=
200902240645 METAR LMML 240645Z 11009KT 080V150 5000 RA SCT014 BKN033
                        09/08 Q1007 TEMPO BKN012=
200902240630 METAR LMML NIL=
200902240615 METAR LMML 240615Z 11007KT 4000 RA BKN018 BKN029 09/07 Q1007
                        NOSIG=
200902240600 METAR LMML NIL=
200902240545 LMML 240545Z 10008KT 6000 -RA SCT016 BKN027 09/07 Q1007 TEMPO
                        3000 SHRA BKN015=
200902240530 METAR LMML NIL=
200902240515 METAR LMML 240515Z 11008KT 090V150 4000 RA FEW014 BKN026
                        09/07 Q1008 TEMPO 3000 SHRA BKN015=
200902240500 METAR LMML NIL=
200902240445 METAR LMML 240445Z 12008KT 6000 -RA FEW017 BKN028 08/07 Q1008
                        TEMPO 5000 SHRA BKN015=
200902240430 METAR LMML NIL=
200902240415 METAR LMML 240415Z 11008KT 7000 -RA FEW017 BKN025 08/07 Q1008
                        TEMPO 5000 SHRA BKN015=
200902240400 METAR LMML NIL=
200902240345 METAR LMML 240345Z 11011KT 7000 -RA FEW016 BKN022 09/07 Q1008
                        TEMPO 5000 SHRA BKN015=
200902240330 METAR LMML NIL=
200902240315 METAR LMML 240315Z 12012KT 7000 -RA FEW019 BKN026 09/06 Q1008
                        TEMPO 5000 SHRA BKN015=
200902240300 METAR LMML NIL=
200902240245 METAR LMML 240245Z 11010KT 9999 FEW015 BKN025 09/06 Q1008
                        TEMPO 5000 SHRA BKN015=
200902240230 METAR LMML NIL=
200902240215 METAR LMML 240215Z 11011KT 9999 FEW012 BKN032 08/07 Q1009
                        TEMPO 6000 SHRA BKN015=
200902240200 METAR LMML NIL=
200902240145 METAR LMML 240145Z 12010KT 9999 FEW013 BKN031 09/07 Q1009
                        NOSIG=
200902240130 METAR LMML NIL=
200902240115 METAR LMML 240115Z 11007KT 9999 SCT016 SCT031 BKN037 09/07
                        Q1009 NOSIG=
200902240100 METAR LMML NIL=
200902240045 METAR LMML 240045Z 11007KT 9999 SCT014 SCT020 BKN033 09/07
                        Q1010 NOSIG=
200902240030 METAR LMML NIL=
200902240015 METAR LMML 240015Z 10007KT 9999 SCT012 BKN035 09/08 Q1010
                        NOSIG=
200902240000 METAR LMML NIL=
200902232345 METAR LMML 232345Z 11006KT 9999 FEW010 SCT017 BKN037 09/07
                        Q1010 NOSIG=
200902232330 METAR LMML NIL=
200902232315 METAR LMML 232315Z 11006KT 9999 FEW017 BKN030 09/07 Q1011
                        NOSIG=
200902232300 METAR LMML NIL=
200902232245 METAR LMML 232245Z VRB02KT 9999 FEW015 BKN030 BKN070 09/08
                        Q1011 NOSIG=
200902232230 METAR LMML NIL=
200902232215 METAR LMML 232215Z VRB02KT 9999 -RA FEW019 BKN037 BKN070
                        09/08 Q1011 NOSIG=
200902232200 METAR LMML NIL=
200902232145 METAR LMML 232145Z VRB01KT 9999 -RA FEW016 BKN039 09/08 Q1011
                        NOSIG=
200902232130 METAR LMML NIL=
200902232115 METAR LMML 232115Z VRB01KT 9999 -RA SCT019 BKN041 09/08 Q1011
                        TEMPO 5000 RA SCT010=
200902232100 METAR LMML NIL=
200902232045 METAR LMML 232045Z VRB03KT 9999 -RA FEW038 BKN050 OVC100
                        09/08 Q1011 TEMPO 5000 RA SCT010=
200902232015 METAR LMML 232015Z 14004KT 9999 -RA FEW014 BKN039 OVC100
                        09/08 Q1011 TEMPO 5000 RA SCT010=
200902232000 METAR LMML NIL=
200902231945 METAR LMML 231945Z VRB02KT 7000 -RA FEW011 SCT037 OVC100
                        09/08 Q1011 TEMPO 5000 RA SCT010=
200902231915 METAR LMML 231915Z VRB01KT 6000 -RA FEW012 BKN037 OVC100
                        09/08 Q1011 TEMPO 5000 RA SCT010=
200902231900 METAR LMML NIL=
200902231845 METAR LMML 231845Z VRB03KT 7000 -RA SCT012 BKN039 OVC100
                        10/08 Q1011 TEMPO 5000 RA SCT010=
200902231830 METAR LMML NIL=
200902231815 METAR LMML 231815Z 19005KT 150V210 6000 -RA FEW011 SCT023
                        OVC100 10/08 Q1011 TEMPO 5000 RA=
200902231800 METAR LMML NIL=
200902231745 METAR LMML 231745Z 19004KT 120V260 9999 -RA FEW012 BKN040
                        OVC120 11/06 Q1011 TEMPO 8000 RA=
200902231730 METAR LMML NIL=
200902231715 METAR LMML 231715Z 13005KT 9999 -RA SCT036 BKN060 OVC100
                        11/06 Q1011 TEMPO 8000 RA=
200902231700 METAR LMML NIL=
200902231645 METAR LMML 231645Z 12005KT 9999 FEW036 SCT070 BKN100 11/06
                        Q1011 TEMPO 8000 RA=
200902231630 METAR LMML NIL=
200902231615 METAR LMML 231615Z 14005KT 120V180 9999 FEW036 BKN100 11/05
                        Q1012 NOSIG=
200902231600 METAR LMML NIL=
200902231545 METAR LMML 231545Z 14006KT 9999 FEW032 BKN120 11/05 Q1012
                        NOSIG=
200902231530 METAR LMML NIL=
200902231515 METAR LMML 231515Z 12005KT 9999 SCT035 SCT100 11/05 Q1012
                        NOSIG=
200902231500 METAR LMML NIL=
200902231445 METAR LMML 231445Z 11004KT 9999 SCT035 SCT100 11/05 Q1012
                        NOSIG=
200902231430 METAR LMML NIL=
200902231415 METAR LMML 231415Z 10005KT 070V130 9999 SCT037 SCT250 11/06
                        Q1012 NOSIG=
200902231400 METAR LMML NIL=
200902231345 METAR LMML 231345Z VRB02KT 9999 SCT037 12/05 Q1012 NOSIG=
200902231315 METAR LMML 231315Z 05004KT 010V100 9999 SCT039 13/05 Q1013
                        NOSIG=
200902231300 METAR LMML NIL=
200902231245 METAR LMML 231245Z 02005KT 300V090 9999 SCT038 14/05 Q1013
                        NOSIG=
200902231215 METAR LMML 231215Z 01005KT 330V060 9999 FEW035 14/05 Q1013
                        NOSIG=
200902231200 METAR LMML NIL=
200902231145 METAR LMML 231145Z 01006KT 340V040 9999 FEW035 14/05 Q1013
                        NOSIG=
200902231130 METAR LMML NIL=
200902231115 METAR LMML 231115Z 33007KT 300V360 9999 SCT036 SCT070 13/04
                        Q1014 NOSIG=
200902231100 METAR LMML NIL=
200902231045 METAR LMML 231045Z 33006KT 290V040 9999 SCT036 13/06 Q1014
                        NOSIG=
200902231030 METAR LMML NIL=
200902231015 METAR LMML 231015Z 34007KT 300V010 9999 SCT036 13/06 Q1014
                        NOSIG=
200902231000 METAR LMML NIL=
200902230945 METAR LMML 230945Z 33008KT 300V010 9999 FEW031 13/05 Q1014
                        NOSIG=
200902230930 METAR LMML NIL=
200902230915 METAR LMML 230915Z 33009KT 9999 FEW031 12/05 Q1015 NOSIG=
200902230900 METAR LMML NIL=
200902230845 METAR LMML 230845Z 31010KT 9999 SCT031 12/05 Q1015 NOSIG=
200902230815 METAR LMML 230815Z 31006KT 9999 FEW041 11/06 Q1014 NOSIG=
200902230800 METAR LMML NIL=
200902230745 METAR LMML 230745Z 30007KT 270V330 9999 SCT030 11/06 Q1014
                        NOSIG=
200902230730 METAR LMML NIL=
200902230715 METAR LMML 230715Z 29005KT 9999 SCT030 10/06 Q1014 NOSIG=
200902230700 METAR LMML NIL=
200902230645 METAR LMML 230645Z 29005KT 250V310 9999 FEW030 SCT100 09/05
                        Q1014 NOSIG=
200902230630 METAR LMML NIL=
200902230615 METAR LMML 230615Z 31005KT 9999 FEW025 SCT090 07/04 Q1014
                        NOSIG=
200902230600 METAR LMML NIL=
200902230545 METAR LMML 230545Z 32005KT 9999 FEW030 SCT090 07/04 Q1014
                        NOSIG=
200902230530 METAR LMML NIL=
200902230515 METAR LMML 230515Z 31007KT 9999 FEW030 BKN090 08/05 Q1014
                        NOSIG=
200902230445 METAR LMML 230445Z 30005KT 9999 FEW030 BKN090 08/05 Q1014
                        NOSIG=
200902230430 METAR LMML NIL=
200902230415 METAR LMML 230415Z 31006KT 9999 FEW032 BKN090 09/05 Q1014
                        NOSIG=
200902230400 METAR LMML NIL=
200902230345 METAR LMML 230345Z 29005KT 9999 FEW032 SCT090 09/05 Q1014
                        NOSIG=
200902230330 METAR LMML NIL=
200902230315 METAR LMML 230315Z 33005KT 9999 FEW033 SCT080 09/04 Q1014
                        NOSIG=
200902230300 METAR LMML NIL=
200902230245 METAR LMML 230245Z 34008KT 9999 FEW031 BKN080 09/05 Q1015
                        NOSIG=
200902230230 METAR LMML NIL=
200902230215 METAR LMML 230215Z 32007KT 9999 SCT032 BKN080 09/05 Q1015
                        NOSIG=
200902230200 METAR LMML NIL=
200902230145 METAR LMML 230145Z 33007KT 9999 SCT033 09/05 Q1015 NOSIG=
200902230130 METAR LMML NIL=
200902230115 METAR LMML 230115Z 31008KT 9999 SCT030 09/04 Q1015 NOSIG=
200902230100 METAR LMML NIL=
200902230045 METAR LMML 230045Z 30009KT 270V330 9999 FEW034 09/03 Q1015
                        NOSIG=
200902230030 METAR LMML NIL=
200902230015 METAR LMML 230015Z 32010KT 9999 FEW030 09/03 Q1016 NOSIG=
200902230000 METAR LMML NIL=
200902222345 METAR LMML 222345Z 31009KT 9999 FEW032 09/04 Q1016 NOSIG=
200902222330 METAR LMML NIL=
200902222315 METAR LMML 222315Z 29012KT 9999 FEW034 09/04 Q1016 NOSIG=
200902222300 METAR LMML NIL=
200902222245 METAR LMML 222245Z 31008KT 9999 FEW032 SCT090 09/03 Q1016
                        NOSIG=
200902222230 METAR LMML NIL=
200902222215 METAR LMML 222215Z 31011KT 9999 FEW032 SCT090 09/05 Q1016
                        TEMPO 8000 SHRA=
200902222200 METAR LMML NIL=
200902222145 METAR LMML 222145Z 31011KT 9999 FEW030 SCT090 09/04 Q1016
                        NOSIG=
200902222130 METAR LMML NIL=
200902222115 METAR LMML 222115Z 31012KT 9999 FEW030 SCT090 10/04 Q1017
                        NOSIG=
200902222100 METAR LMML NIL=
200902222045 METAR LMML 222045Z 31013KT 9999 FEW032 SCT120 10/03 Q1017
                        NOSIG=
200902222030 METAR LMML NIL=
200902222015 METAR LMML 222015Z 31014KT 9999 FEW032 SCT120 10/04 Q1017
                        TEMPO 8000 SHRA BKN015=
200902222000 METAR LMML NIL=
200902221945 METAR LMML 221945Z 30009KT 9999 SCT032 BKN120 10/05 Q1017
                        TEMPO 8000 SHRA BKN015 RMK LIGHTNING
                        TO SE=
200902221930 METAR LMML NIL=
200902221915 METAR LMML 221915Z 28005KT 250V310 9999 FEW035 09/04 Q1017
                        NOSIG=
200902221900 METAR LMML NIL=
200902221845 METAR LMML 221845Z 29005KT 9999 FEW040 SCT250 09/04 Q1017
                        NOSIG=
200902221830 METAR LMML NIL=
200902221815 METAR LMML 221815Z 29008KT 9999 FEW040 SCT250 10/02 Q1018
                        NOSIG=
200902221800 METAR LMML NIL=
200902221745 METAR LMML 221745Z 29010KT 9999 FEW040 SCT250 10/03 Q1017
                        NOSIG=
200902221730 METAR LMML NIL=
200902221715 METAR LMML 221715Z 29007KT 9999 FEW040 SCT250 09/03 Q1018
                        NOSIG=
200902221700 METAR LMML NIL=
200902221645 METAR LMML 221645Z 30007KT 270V330 9999 FEW040 SCT250 10/04
                        Q1018 NOSIG=
200902221630 METAR LMML NIL=
200902221615 METAR LMML 221615Z 29007KT 270V330 9999 FEW042 SCT250 11/03
                        Q1018 NOSIG=
200902221600 METAR LMML NIL=
200902221545 METAR LMML 221545Z 29011KT 260V320 9999 FEW042 SCT250 12/02
                        Q1018 NOSIG=
200902221530 METAR LMML NIL=
200902221515 METAR LMML 221515Z 29010KT 260V330 9999 FEW042 12/04 Q1018
                        NOSIG=
200902221500 METAR LMML NIL=
200902221445 METAR LMML 221445Z 32008KT 280V350 9999 FEW042 12/04 Q1018
                        NOSIG=
200902221415 METAR LMML 221415Z 32008KT 290V350 9999 FEW040 12/03 Q1018
                        NOSIG=
200902221400 METAR LMML NIL=
200902221345 METAR LMML 221345Z 33009KT 9999 FEW044 12/03 Q1018 NOSIG=
200902221330 METAR LMML NIL=
200902221315 METAR LMML 221315Z 34006KT 310V030 9999 FEW040 13/04 Q1018
                        NOSIG=
200902221300 METAR LMML NIL=
200902221245 METAR LMML 221245Z 35006KT 310V040 9999 FEW044 12/02 Q1018
                        NOSIG=
200902221230 METAR LMML NIL=
200902221215 METAR LMML 221215Z 36006KT 300V050 9999 FEW041 12/04 Q1019
                        NOSIG=
200902221200 METAR LMML NIL=
200902221145 METAR LMML 221145Z 02006KT 360V080 9999 FEW035 14/05 Q1019
                        NOSIG=
200902221130 METAR LMML NIL=
200902221115 METAR LMML 221115Z 36006KT 320V050 9999 FEW037 13/05 Q1019
                        NOSIG=
200902221100 METAR LMML NIL=
200902221045 METAR LMML 221045Z 01006KT 320V070 9999 FEW039 13/04 Q1019
                        NOSIG=
200902221030 METAR LMML NIL=
200902221015 METAR LMML 221015Z 02006KT 340V040 9999 FEW037 13/05 Q1020
                        NOSIG=
200902221000 METAR LMML NIL=
200902220945 METAR LMML 220945Z 34007KT 310V030 9999 FEW034 12/04 Q1020
                        NOSIG=
200902220930 METAR LMML NIL=
200902220915 METAR LMML 220915Z 36009KT 330V030 9999 FEW032 12/05 Q1020
                        NOSIG=
200902220900 METAR LMML NIL=
200902220845 METAR LMML 220845Z 34008KT 300V010 9999 FEW030 12/06 Q1020
                        NOSIG=
200902220830 METAR LMML NIL=
200902220815 METAR LMML 220815Z 31007KT 9999 FEW030 11/05 Q1020 NOSIG=
200902220800 METAR LMML NIL=
200902220745 METAR LMML 220745Z 29005KT 9999 FEW030 10/05 Q1020 NOSIG=
200902220730 METAR LMML NIL=
200902220715 METAR LMML 220715Z 29005KT 9999 FEW025 SCT250 08/04 Q1020
                        NOSIG=
200902220700 METAR LMML NIL=
200902220645 METAR LMML 220645Z 29005KT 9999 FEW025 BKN250 08/04 Q1020
                        NOSIG=
200902220630 METAR LMML NIL=
200902220615 METAR LMML 220615Z 29004KT 9999 FEW025 BKN250 07/03 Q1020
                        NOSIG=
200902220600 METAR LMML NIL=
200902220545 METAR LMML 220545Z 28004KT 9999 FEW030 BKN250 07/03 Q1019
                        NOSIG=
200902220530 METAR LMML NIL=
200902220515 METAR LMML 220515Z 29004KT 9999 FEW030 BKN250 07/04 Q1019
                        NOSIG=
200902220500 METAR LMML NIL=
200902220445 METAR LMML 220445Z 29005KT 9999 FEW030 07/04 Q1019 NOSIG=
200902220430 METAR LMML NIL=
200902220415 METAR LMML 220415Z 29004KT 9999 FEW030 07/04 Q1019 NOSIG=
200902220400 METAR LMML NIL=
200902220345 METAR LMML 220345Z 29004KT 9999 FEW030 07/04 Q1020 NOSIG=
200902220330 METAR LMML NIL=
200902220315 METAR LMML 220315Z 29004KT 9999 SCT030 07/03 Q1020 NOSIG=
200902220300 METAR LMML NIL=
200902220245 METAR LMML 220245Z 31004KT 9999 SCT042 07/03 Q1020 NOSIG=
200902220230 METAR LMML NIL=
200902220215 METAR LMML 220215Z VRB03KT 9999 SCT035 06/03 Q1020 NOSIG=
200902220200 METAR LMML NIL=
200902220145 METAR LMML 220145Z VRB02KT 9999 FEW035 06/03 Q1020 NOSIG=
200902220130 METAR LMML NIL=
200902220115 METAR LMML 220115Z VRB02KT 9999 FEW035 06/03 Q1021 NOSIG=
200902220100 METAR LMML NIL=
200902220045 METAR LMML 220045Z VRB03KT 9999 FEW034 06/03 Q1021 NOSIG=
200902220030 METAR LMML NIL=
200902220015 METAR LMML 220015Z VRB03KT 9999 FEW034 06/03 Q1021 NOSIG=
200902220000 METAR LMML NIL=
200902212345 METAR LMML 212345Z VRB03KT 9999 FEW034 06/03 Q1021 NOSIG=
200902212330 METAR LMML NIL=
200902212315 METAR LMML 212315Z VRB03KT 9999 FEW034 06/03 Q1021 NOSIG=
200902212300 METAR LMML NIL=
200902212245 METAR LMML 212245Z VRB02KT 9999 SCT033 06/03 Q1021 NOSIG=
200902212230 METAR LMML NIL=
200902212215 METAR LMML 212215Z VRB03KT 9999 SCT032 07/03 Q1021 NOSIG=
200902212200 METAR LMML NIL=
200902212145 METAR LMML 212145Z VRB02KT 9999 FEW035 07/04 Q1022 NOSIG=
200902212130 METAR LMML NIL=
200902212115 METAR LMML 212115Z VRB03KT 9999 FEW035 06/03 Q1022 NOSIG=
200902212100 METAR LMML NIL=
200902212045 METAR LMML 212045Z VRB01KT 9999 FEW035 07/04 Q1022 NOSIG=
200902212030 METAR LMML NIL=
200902212015 METAR LMML 212015Z VRB03KT 9999 FEW035 07/04 Q1022 NOSIG=
200902212000 METAR LMML NIL=
200902211945 METAR LMML 211945Z VRB02KT 9999 SCT038 08/04 Q1022 NOSIG=
200902211930 METAR LMML NIL=
200902211915 METAR LMML 211915Z VRB01KT 9999 SCT037 07/04 Q1022 NOSIG=
200902211900 METAR LMML NIL=
200902211845 METAR LMML 211845Z VRB01KT 9999 SCT037 08/04 Q1022 NOSIG=
200902211830 METAR LMML NIL=
200902211815 METAR LMML 211815Z VRB01KT 9999 SCT037 09/04 Q1021 NOSIG=
200902211800 METAR LMML NIL=
200902211745 METAR LMML 211745Z VRB01KT 9999 SCT038 09/04 Q1021 NOSIG=
200902211730 METAR LMML NIL=
200902211715 METAR LMML 211715Z VRB02KT 9999 SCT037 10/04 Q1021 NOSIG=
200902211700 METAR LMML NIL=
200902211645 METAR LMML 211645Z VRB01KT 9999 SCT037 10/04 Q1021 NOSIG=
200902211630 METAR LMML NIL=
200902211615 METAR LMML 211615Z VRB03KT 9999 SCT036 11/04 Q1021 NOSIG=
200902211600 METAR LMML NIL=
200902211545 METAR LMML 211545Z 09006KT 060V140 9999 SCT037 11/04 Q1021
                        NOSIG=
200902211530 METAR LMML NIL=
200902211515 METAR LMML 211515Z 09005KT 060V130 9999 SCT036 11/04 Q1021
                        NOSIG=
200902211500 METAR LMML NIL=
200902211445 METAR LMML 211445Z 10005KT 020V150 9999 SCT036 11/04 Q1021
                        NOSIG=
200902211430 METAR LMML NIL=
200902211415 METAR LMML 211415Z 09005KT 060V140 9999 SCT037 11/04 Q1021
                        NOSIG=
200902211400 METAR LMML NIL=
200902211345 METAR LMML 211345Z 10006KT 050V120 9999 SCT037 11/04 Q1021
                        NOSIG=
200902211330 METAR LMML NIL=
200902211315 METAR LMML 211315Z 12005KT 100V160 9999 SCT038 12/04 Q1021
                        NOSIG=
200902211300 METAR LMML NIL=
200902211245 METAR LMML 211245Z 08006KT 030V160 9999 SCT039 12/04 Q1021
                        NOSIG=
200902211230 METAR LMML NIL=
200902211215 METAR LMML 211215Z 03006KT 010V080 9999 SCT038 12/04 Q1022
                        NOSIG=
200902211200 METAR LMML NIL=
200902211145 METAR LMML 211145Z 02007KT 350V060 9999 FEW036 13/05 Q1022
                        NOSIG=
200902211130 METAR LMML NIL=
200902211115 METAR LMML 211115Z 02006KT 350V070 9999 FEW036 13/04 Q1022
                        NOSIG=
200902211045 LMML 211045Z 04006KT 350V090 9999 FEW040 SCT250 13/04 Q1023
                        NOSIG=
200902211030 METAR LMML NIL=
200902211015 LMML 211015Z 04006KT 350V090 9999 FEW040 SCT250 13/04 Q1023
                        NOSIG=
200902211000 METAR LMML NIL=
200902210945 METAR LMML 210945Z 04006KT 340V080 9999 FEW040 SCT250 13/04
                        Q1023 NOSIG=
200902210930 METAR LMML NIL=
200902210915 METAR LMML 210915Z 36004KT 290V060 9999 FEW040 SCT250 12/04
                        Q1023 NOSIG=
200902210900 METAR LMML NIL=
200902210845 METAR LMML 210845Z 33004KT 300V010 9999 FEW040 BKN250 11/04
                        Q1023 NOSIG=
200902210830 LMML NIL=
200902210815 METAR LMML 210815Z 31005KT 280V340 9999 FEW040 BKN250 10/03
                        Q1023 NOSIG=
200902210800 METAR LMML NIL=
200902210745 METAR LMML 210745Z 30004KT 9999 FEW040 BKN250 09/03 Q1023
                        NOSIG=
200902210730 METAR LMML NIL=
200902210715 METAR LMML 210715Z 30005KT 9999 FEW040 BKN250 08/03 Q1023
                        NOSIG=
200902210700 METAR LMML NIL=
200902210645 METAR LMML 210645Z 30005KT 9999 FEW040 BKN250 06/01 Q1023
                        NOSIG=
200902210630 METAR LMML NIL=
200902210615 METAR LMML 210615Z 29005KT 9999 FEW040 BKN250 05/01 Q1023
                        NOSIG=
200902210600 METAR LMML NIL=
200902210545 METAR LMML 210545Z 29006KT 9999 FEW039 BKN250 05/01 Q1023
                        NOSIG=
200902210530 METAR LMML NIL=
200902210515 METAR LMML 210515Z 26004KT 230V290 9999 FEW039 SCT250 04/01
                        Q1022 NOSIG=
200902210500 METAR LMML NIL=
200902210445 METAR LMML 210445Z VRB02KT 9999 FEW039 05/01 Q1023 NOSIG=
200902210430 METAR LMML NIL=
200902210415 METAR LMML 210415Z VRB03KT 9999 FEW039 05/01 Q1023 NOSIG=
200902210400 METAR LMML NIL=
200902210345 METAR LMML 210345Z VRB03KT 9999 FEW039 05/01 Q1023 NOSIG=
200902210330 METAR LMML NIL=
200902210315 METAR LMML 210315Z 30004KT 270V340 9999 FEW039 06/01 Q1023
                        NOSIG=
200902210300 METAR LMML NIL=
200902210245 METAR LMML 210245Z 30004KT 9999 SCT040 06/02 Q1023 NOSIG=
200902210230 METAR LMML NIL=
200902210215 METAR LMML 210215Z 27004KT 9999 FEW038 06/02 Q1023 NOSIG=
200902210200 METAR LMML NIL=
200902210145 METAR LMML 210145Z 26005KT 240V300 9999 FEW038 06/02 Q1023
                        NOSIG=
200902210130 METAR LMML NIL=
200902210115 METAR LMML 210115Z 32004KT 9999 FEW038 06/02 Q1022 NOSIG=
200902210100 METAR LMML NIL=
200902210045 METAR LMML 210045Z VRB03KT 9999 FEW039 07/02 Q1023 NOSIG=
200902210030 METAR LMML NIL=
200902210015 METAR LMML 210015Z VRB03KT 9999 FEW041 07/03 Q1023 NOSIG=
200902210000 METAR LMML NIL=
200902202345 METAR LMML 202345Z 29005KT 9999 SCT042 07/03 Q1023 NOSIG=
200902202330 METAR LMML NIL=
200902202315 METAR LMML 202315Z 28004KT 9999 FEW041 07/02 Q1023 NOSIG=
200902202300 METAR LMML NIL=
200902202245 METAR LMML 202245Z 29004KT 260V330 9999 FEW042 07/03 Q1023
                        NOSIG=
200902202230 METAR LMML NIL=
200902202215 METAR LMML 202215Z VRB03KT 9999 FEW042 08/03 Q1023 NOSIG=
200902202200 METAR LMML NIL=
200902202145 METAR LMML 202145Z 33004KT 270V020 9999 SCT042 08/03 Q1022
                        NOSIG=
200902202130 METAR LMML NIL=
200902202115 METAR LMML 202115Z 28007KT 9999 SCT042 08/03 Q1022 NOSIG=
200902202100 METAR LMML NIL=
200902202045 METAR LMML 202045Z 28006KT 9999 SCT043 08/03 Q1022 NOSIG=
200902202030 METAR LMML NIL=
200902202015 METAR LMML 202015Z 28005KT 240V310 9999 SCT044 08/03 Q1023
                        NOSIG=
200902202000 METAR LMML NIL=
200902201945 METAR LMML 201945Z 29007KT 260V320 9999 SCT043 09/02 Q1022
                        NOSIG=
200902201930 METAR LMML NIL=
200902201915 METAR LMML 201915Z 31005KT 9999 SCT043 08/02 Q1022 NOSIG=
200902201900 METAR LMML NIL=
200902201845 METAR LMML 201845Z 28005KT 250V310 9999 BKN043 08/02 Q1022
                        NOSIG=
200902201830 METAR LMML NIL=
200902201815 METAR LMML 201815Z 28004KT 250V320 9999 BKN043 08/02 Q1022
                        NOSIG=
200902201800 METAR LMML NIL=
200902201745 METAR LMML 201745Z 30006KT 9999 SCT043 08/02 Q1021 NOSIG=
200902201715 METAR LMML 201715Z 31007KT 280V340 9999 FEW044 08/01 Q1021
                        NOSIG=
200902201645 METAR LMML 201645Z 31010KT 270V330 9999 FEW044 09/02 Q1021
                        NOSIG=
200902201630 METAR LMML NIL=
200902201615 METAR LMML 201615Z 30013KT 9999 SCT043 10/01 Q1021 NOSIG=
200902201600 METAR LMML NIL=
200902201545 METAR LMML 201545Z 30012KT 270V330 9999 SCT042 11/02 Q1021
                        NOSIG=
200902201530 METAR LMML NIL=
200902201515 METAR LMML 201515Z 32013KT 280V350 9999 SCT042 11/02 Q1021
                        NOSIG=
200902201500 METAR LMML NIL=
200902201445 METAR LMML 201445Z 33013KT 9999 SCT044 11/02 Q1021 NOSIG=
200902201430 METAR LMML NIL=
200902201415 METAR LMML 201415Z 33014KT 290V350 9999 SCT044 11/03 Q1021
                        NOSIG=
200902201400 METAR LMML NIL=
200902201345 METAR LMML 201345Z 32015KT 290V350 9999 SCT044 12/01 Q1021
                        NOSIG=
200902201315 METAR LMML 201315Z 33011KT 300V360 9999 SCT045 12/03 Q1021
                        NOSIG=
200902201300 METAR LMML NIL=
200902201245 METAR LMML 201245Z 33013KT 9999 FEW044 12/02 Q1021 NOSIG=
200902201230 METAR LMML NIL=
200902201215 METAR LMML 201215Z 33014KT 9999 FEW044 12/02 Q1021 NOSIG=
200902201200 METAR LMML NIL=
200902201145 METAR LMML 201145Z 33012KT 9999 FEW044 12/02 Q1021 NOSIG=
200902201130 METAR LMML NIL=
200902201115 METAR LMML 201115Z 33011KT 280V360 9999 FEW040 12/02 Q1022
                        NOSIG=
200902201100 METAR LMML NIL=
200902201045 METAR LMML 201045Z 33010KT 280V030 9999 FEW039 12/03 Q1022
                        NOSIG=
200902201030 METAR LMML NIL=
200902201015 METAR LMML 201015Z 34012KT 9999 FEW038 11/02 Q1021 NOSIG=
200902201000 METAR LMML NIL=
200902200945 METAR LMML 200945Z 35011KT 320V020 9999 SCT037 11/03 Q1021
                        NOSIG=
200902200930 METAR LMML NIL=
200902200915 METAR LMML 200915Z 34010KT 310V010 9999 SCT037 11/03 Q1021
                        NOSIG=
200902200845 METAR LMML 200845Z 35010KT 330V030 9999 FEW032 11/04 Q1021
                        NOSIG=
200902200830 METAR LMML NIL=
200902200815 METAR LMML 200815Z 35009KT 320V030 9999 FEW035 SCT080 11/04
                        Q1021 NOSIG=
200902200800 METAR LMML NIL=
200902200745 METAR LMML 200745Z 34008KT 9999 FEW030 SCT080 10/01 Q1020
                        NOSIG=
200902200730 METAR LMML NIL=
200902200715 METAR LMML 200715Z 34008KT 320V020 9999 FEW030 SCT080 09/02
                        Q1020 NOSIG=
200902200700 METAR LMML NIL=
200902200645 METAR LMML 200645Z 34005KT 9999 FEW030 BKN070 08/03 Q1020
                        NOSIG=
200902200615 METAR LMML 200615Z 34006KT 9999 FEW030 BKN070 08/03 Q1019
                        NOSIG=
200902200545 METAR LMML 200545Z 35006KT 9999 FEW031 BKN100 08/03 Q1019
                        NOSIG=
200902200515 METAR LMML 200515Z 32005KT 9999 FEW033 BKN090 08/03 Q1019
                        NOSIG=
200902200500 METAR LMML NIL=
200902200445 METAR LMML 200445Z 31006KT 9999 FEW040 BKN090 08/03 Q1018
                        NOSIG=
200902200430 METAR LMML NIL=
200902200415 METAR LMML 200415Z 31006KT 9999 FEW040 BKN080 08/03 Q1018
                        NOSIG=
200902200400 METAR LMML NIL=
200902200345 METAR LMML 200345Z 31006KT 9999 FEW040 BKN090 08/03 Q1018
                        NOSIG=
200902200330 METAR LMML NIL=
200902200315 METAR LMML 200315Z 32007KT 9999 FEW040 BKN090 08/03 Q1018
                        NOSIG=
200902200300 METAR LMML NIL=
200902200245 METAR LMML 200245Z 30007KT 9999 FEW040 BKN080 08/03 Q1018
                        NOSIG=
200902200230 METAR LMML NIL=
200902200215 METAR LMML 200215Z 30007KT 270V330 9999 FEW040 BKN080 08/02
                        Q1018 NOSIG=
200902200200 METAR LMML NIL=
200902200145 METAR LMML 200145Z 28008KT 250V310 9999 FEW040 BKN110 07/02
                        Q1019 NOSIG=
200902200130 METAR LMML NIL=
200902200115 METAR LMML 200115Z 30006KT 9999 FEW040 BKN100 07/02 Q1018
                        NOSIG=
200902200100 METAR LMML NIL=
200902200045 METAR LMML 200045Z 31008KT 9999 FEW040 BKN100 08/02 Q1019
                        NOSIG=
200902200030 METAR LMML NIL=
200902200015 METAR LMML 200015Z 30010KT 9999 FEW040 BKN100 08/02 Q1019
                        NOSIG=
200902200000 METAR LMML NIL=
200902192345 METAR LMML 192345Z 31009KT 9999 FEW040 BKN100 08/02 Q1019
                        NOSIG=
200902192330 METAR LMML NIL=
200902192315 METAR LMML 192315Z 31009KT 9999 FEW040 BKN100 08/02 Q1019
                        NOSIG=
200902192300 METAR LMML NIL=
200902192245 METAR LMML 192245Z 31009KT 9999 FEW040 BKN100 08/02 Q1019
                        NOSIG=
200902192230 METAR LMML NIL=
200902192215 METAR LMML 192215Z 30008KT 9999 FEW040 SCT100 08/02 Q1019
                        NOSIG=
200902192200 METAR LMML NIL=
200902192145 METAR LMML 192145Z 31009KT 280V340 9999 FEW040 08/02 Q1018
                        NOSIG=
200902192130 METAR LMML NIL=
200902192115 METAR LMML 192115Z 30010KT 9999 FEW040 08/02 Q1018 NOSIG=
200902192100 METAR LMML NIL=
200902192045 METAR LMML 192045Z 30010KT 9999 FEW040 08/02 Q1018 NOSIG=
200902192030 METAR LMML NIL=
200902192015 METAR LMML 192015Z 30009KT 9999 FEW040 08/02 Q1018 NOSIG=
200902192000 METAR LMML NIL=
200902191945 METAR LMML 191945Z 30010KT 9999 FEW040 09/02 Q1018 NOSIG=
200902191930 METAR LMML NIL=
200902191915 METAR LMML 191915Z 31012KT 9999 FEW041 09/01 Q1018 NOSIG=
200902191900 METAR LMML NIL=
200902191845 METAR LMML 191845Z 31011KT 9999 FEW041 09/02 Q1018 NOSIG=
200902191830 METAR LMML NIL=
200902191815 METAR LMML 191815Z 31012KT 9999 FEW043 09/02 Q1018 NOSIG=
200902191800 METAR LMML NIL=
200902191745 METAR LMML 191745Z 30012KT 270V330 9999 FEW041 09/02 Q1018
                        NOSIG=
200902191730 METAR LMML NIL=
200902191715 METAR LMML 191715Z 30010KT 9999 SCT040 09/02 Q1017 NOSIG=
200902191700 METAR LMML NIL=
200902191645 METAR LMML 191645Z 30013KT 270V330 9999 FEW040 09/02 Q1017
                        NOSIG=
200902191630 METAR LMML NIL=
200902191615 METAR LMML 191615Z 30012KT 270V330 9999 FEW040 10/02 Q1017
                        NOSIG=
200902191600 METAR LMML NIL=
200902191545 METAR LMML 191545Z 30014KT 270V330 9999 SCT040 11/03 Q1017
                        NOSIG=
200902191530 METAR LMML NIL=
200902191515 METAR LMML 191515Z 30015KT 250V330 9999 SCT040 11/03 Q1016
                        NOSIG=
200902191500 METAR LMML NIL=
200902191445 METAR LMML 191445Z 31018KT 9999 SCT036 11/03 Q1016 NOSIG=
200902191430 METAR LMML NIL=
200902191415 METAR LMML 191415Z 29015KT 260V320 9999 SCT036 11/03 Q1016
                        NOSIG=
200902191400 METAR LMML NIL=
200902191345 METAR LMML 191345Z 30019KT 270V330 9999 SCT036 11/03 Q1016
                        NOSIG=
200902191330 METAR LMML NIL=
200902191315 METAR LMML 191315Z 31017KT 280V340 9999 FEW036 12/04 Q1016
                        NOSIG=
200902191300 METAR LMML NIL=
200902191245 METAR LMML 191245Z 30017KT 250V330 9999 FEW035 12/04 Q1016
                        NOSIG=
200902191230 METAR LMML NIL=
200902191215 METAR LMML 191215Z 31018G28KT 280V350 9999 FEW034 11/04 Q1016
                        NOSIG=
200902191200 METAR LMML NIL=
200902191145 METAR LMML 191145Z 30019KT 280V340 9999 FEW035 11/03 Q1016
                        NOSIG=
200902191130 METAR LMML NIL=
200902191115 METAR LMML 191115Z 30020KT 240V330 9999 SCT035 11/03 Q1017
                        NOSIG=
200902191100 METAR LMML NIL=
200902191045 METAR LMML 191045Z 31018KT 280V340 9999 SCT035 11/04 Q1017
                        NOSIG=
200902191030 METAR LMML NIL=
200902191015 METAR LMML 191015Z 31016KT 270V340 9999 SCT032 11/04 Q1017
                        NOSIG=
200902191000 METAR LMML NIL=
200902190945 METAR LMML 190945Z 31017KT 280V340 9999 FEW032 11/04 Q1017
                        NOSIG=
200902190930 METAR LMML NIL=
200902190915 METAR LMML 190915Z 32017KT 9999 FEW031 10/04 Q1016 NOSIG=
200902190900 METAR LMML NIL=
200902190845 METAR LMML 190845Z 32017KT 9999 FEW030 10/05 Q1016 NOSIG=
200902190830 METAR LMML NIL=
200902190815 METAR LMML 190815Z 32018G28KT 9999 FEW030 10/05 Q1016 NOSIG=
200902190800 METAR LMML NIL=
200902190745 METAR LMML 190745Z 31015KT 9999 FEW030 10/05 Q1016 NOSIG=
200902190730 METAR LMML NIL=
200902190715 METAR LMML 190715Z 31016KT 9999 FEW030 09/05 Q1016 NOSIG=
200902190700 METAR LMML NIL=
200902190645 METAR LMML 190645Z 31016KT 9999 FEW030 09/04 Q1015 NOSIG=
200902190630 METAR LMML NIL=
200902190615 METAR LMML 190615Z 31013KT 9999 FEW030 08/04 Q1015 NOSIG=
200902190600 METAR LMML NIL=
200902190545 METAR LMML 190545Z 30012KT 9999 FEW040 SCT090 08/04 Q1015
                        NOSIG=
200902190530 METAR LMML NIL=
200902190515 METAR LMML 190515Z 30013KT 9999 FEW040 SCT090 08/03 Q1014
                        NOSIG=
200902190500 METAR LMML NIL=
200902190445 METAR LMML 190445Z 30012KT 270V330 9999 FEW030 BKN090 09/04
                        Q1014 NOSIG=
200902190430 METAR LMML NIL=
200902190415 METAR LMML 190415Z 31010KT 270V330 9999 FEW030 BKN090 08/05
                        Q1014 NOSIG=
200902190400 METAR LMML NIL=
200902190345 METAR LMML 190345Z 30009KT 9999 FEW030 BKN090 08/05 Q1014
                        NOSIG=
200902190330 METAR LMML NIL=
200902190315 METAR LMML 190315Z 30007KT 270V340 9999 FEW025 SCT080 08/04
                        Q1013 NOSIG=
200902190300 METAR LMML NIL=
200902190245 METAR LMML 190245Z 32011KT 9999 FEW025 SCT080 08/05 Q1013
                        NOSIG=
200902190230 METAR LMML NIL=
200902190215 METAR LMML 190215Z 31011KT 9999 FEW025 08/05 Q1013 NOSIG=
200902190200 METAR LMML NIL=
200902190145 METAR LMML 190145Z 31012KT 9999 FEW025 08/05 Q1013 NOSIG=
200902190130 METAR LMML NIL=
200902190115 METAR LMML 190115Z 30010KT 260V330 9999 FEW025 08/05 Q1013
                        NOSIG=
200902190100 METAR LMML NIL=
200902190045 METAR LMML 190045Z 30012KT 270V330 9999 FEW025 09/05 Q1013
                        NOSIG=
200902190030 METAR LMML NIL=
200902190015 METAR LMML 190015Z 30012KT 9999 FEW025 09/05 Q1013 NOSIG=
200902190000 METAR LMML NIL=
200902182345 METAR LMML 182345Z 29013KT 9999 FEW025 10/03 Q1012 NOSIG=
200902182330 METAR LMML NIL=
200902182315 METAR LMML 182315Z 29012KT 260V320 9999 FEW025 10/03 Q1012
                        NOSIG=
200902182300 METAR LMML NIL=
200902182245 METAR LMML 182245Z 30013KT 9999 FEW025 10/05 Q1012 NOSIG=
200902182230 METAR LMML NIL=
200902182215 METAR LMML 182215Z 30010KT 9999 FEW025 SCT049 10/07 Q1012
                        NOSIG=
200902182200 METAR LMML NIL=
200902182145 METAR LMML 182145Z 30009KT 9999 FEW026 SCT049 10/07 Q1012
                        NOSIG=
200902182130 METAR LMML NIL=
200902182115 METAR LMML 182115Z 30011KT 270V330 9999 FEW030 SCT048 10/07
                        Q1012 NOSIG=
200902182100 METAR LMML NIL=
200902182045 METAR LMML 182045Z 31010KT 270V340 9999 FEW029 SCT044 11/07
                        Q1012 NOSIG=
200902182030 METAR LMML NIL=
200902182015 METAR LMML 182015Z 30012KT 9999 FEW018 SCT050 11/08 Q1011
                        NOSIG=
200902182000 METAR LMML NIL=
200902181945 METAR LMML 181945Z 29013KT 250V320 9999 -SHRA SCT018 BKN040
                        11/09 Q1011 RESHRA NOSIG=
200902181930 METAR LMML NIL=
200902181915 METAR LMML 181915Z 30013KT 260V330 9999 SHRA SCT017 BKN040
                        10/09 Q1011 TEMPO 7000 SHRA BKN015=
200902181900 METAR LMML NIL=
200902181845 METAR LMML 181845Z 28013KT 250V310 9999 -SHRA SCT013 BKN060
                        11/09 Q1011 TEMPO 7000 SHRA BKN015=
200902181830 METAR LMML NIL=
200902181815 METAR LMML 181815Z 28016KT 240V310 9999 -SHRA BKN014 11/09
                        Q1011 TEMPO 7000 SHRA=
200902181800 METAR LMML NIL=
200902181745 METAR LMML 181745Z 28017KT 250V320 9999 SHRA BKN018 BKN060
                        11/09 Q1011 TEMP0 7000 SHRA BKN015=
200902181730 METAR LMML NIL=
200902181715 METAR LMML 181715Z 28019KT 240V310 9999 SHRA BKN023 BKN100
                        11/09 Q1011 NOSIG=
200902181700 METAR LMML NIL=
200902181645 METAR LMML 181645Z 28018G29KT 9999 SHRA BKN022 BKN100 12/08
                        Q1010 NOSIG=
200902181630 METAR LMML NIL=
200902181615 METAR LMML 181615Z 27018KT 230V300 9999 BKN020 SCT100 11/09
                        Q1010 NOSIG=
200902181600 METAR LMML NIL=
200902181545 METAR LMML 181545Z 28018KT 240V300 9999 -SHRA SCT021 BKN033
                        BKN100 12/08 Q1010 NOSIG=
200902181530 METAR LMML NIL=
200902181515 METAR LMML 181515Z 27018KT 230V300 9999 SCT018 BKN037 11/09
                        Q1010 NOSIG=
200902181500 METAR LMML NIL=
200902181445 METAR LMML 181445Z 26017G27KT 230V310 9999 SCT017 BKN032
                        BKN100 11/09 Q1011 NOSIG=
200902181415 METAR LMML 181415Z 26017KT 210V300 9999 SHRA SCT017 SCT035
                        BKN100 11/09 Q1011 NOSIG=
200902181400 METAR LMML NIL=
200902181345 METAR LMML 181345Z 26016KT 210V290 9999 SHRA FEW015 SCT035
                        BKN100 11/09 Q1011 NOSIG=
200902181330 METAR LMML NIL=
200902181315 METAR LMML 181315Z 26017KT 220V310 9000 SHRA SCT023 BKN100
                        12/08 Q1011 BECMG 9999=
200902181300 METAR LMML NIL=
200902181245 METAR LMML 181245Z 26017KT 230V290 9999 SCT027 BKN060 12/07
                        Q1011 8000 SHRA=
200902181230 METAR LMML NIL=
200902181215 METAR LMML 181215Z 26018KT 240V300 9999 SCT027 BKN070 12/06
                        Q1011 NOSIG=
200902181200 METAR LMML NIL=
200902181145 METAR LMML 181145Z 26017KT 220V310 9999 SCT024 BKN070 12/07
                        Q1012 NOSIG=
200902181115 METAR LMML 181115Z 26016KT 220V300 9999 SCT026 SCT060 13/07
                        Q1012 NOSIG=
200902181100 METAR LMML NIL=
200902181045 METAR LMML 181045Z 27015KT 230V300 9999 SCT026 SCT060 13/07
                        Q1012 NOSIG=
200902181030 METAR LMML NIL=
200902181015 METAR LMML 181015Z 26016KT 220V300 9999 SCT028 SCT050 12/06
                        Q1013 NOSIG=
200902181000 METAR LMML NIL=
200902180945 METAR LMML 180945Z 26013KT 230V310 9999 FEW026 SCT050 12/07
                        Q1013 NOSIG=
200902180930 METAR LMML NIL=
200902180915 METAR LMML 180915Z 25010KT 210V300 9999 BKN026 11/07 Q1013
                        NOSIG=
200902180900 METAR LMML NIL=
200902180845 METAR LMML 180845Z 26009KT 210V300 9999 SCT027 10/07 Q1013
                        RESHRA NOSIG=
200902180830 METAR LMML NIL=
200902180815 METAR LMML 180815Z 28012KT 230V310 9999 SCT029 12/07 Q1013
                        NOSIG=
200902180800 METAR LMML NIL=
200902180745 METAR LMML 180745Z 26010KT 220V290 9999 SCT028 11/06 Q1013
                        NOSIG=
200902180730 METAR LMML NIL=
200902180715 METAR LMML 180715Z 27009KT 230V310 9999 SCT030 11/06 Q1013
                        NOSIG=
200902180700 METAR LMML NIL=
200902180645 METAR LMML 180645Z 26007KT 210V290 9999 SCT030 10/05 Q1013
                        NOSIG=
200902180630 METAR LMML NIL=
200902180615 METAR LMML 180615Z 26005KT 230V290 9999 FEW025 SCT050 09/04
                        Q1013 NOSIG=
200902180600 METAR LMML NIL=
200902180545 METAR LMML 180545Z 26004KT 9999 FEW028 SCT049 BKN070 09/05
                        Q1013 NOSIG=
200902180530 METAR LMML NIL=
200902180515 METAR LMML 180515Z 25005KT 9999 FEW028 SCT037 08/04 Q1014
                        NOSIG=
200902180500 METAR LMML NIL=
200902180445 METAR LMML 180445Z 27005KT 9999 FEW034 08/05 Q1013 NOSIG=
200902180430 METAR LMML NIL=
200902180415 METAR LMML 180415Z 25005KT 9999 FEW028 09/05 Q1014 NOSIG=
200902180400 METAR LMML NIL=
200902180345 METAR LMML 180345Z 24004KT 200V270 9999 FEW023 SCT050 09/05
                        Q1014 NOSIG=
200902180330 METAR LMML NIL=
200902180315 METAR LMML 180315Z 25007KT 210V280 9999 FEW027 SCT050 09/04
                        Q1014 NOSIG=
200902180300 METAR LMML NIL=
200902180245 METAR LMML 180245Z 27008KT 9999 FEW028 SCT040 BKN070 09/05
                        Q1014 NOSIG=
200902180230 METAR LMML NIL=
200902180215 METAR LMML 180215Z 29005KT 270V330 9999 FEW028 SCT045 SCT080
                        09/06 Q1015 NOSIG=
200902180200 METAR LMML NIL=
200902180145 METAR LMML 180145Z 29007KT 250V310 9999 FEW030 SCT070 09/06
                        Q1015 NOSIG=
200902180130 METAR LMML NIL=
200902180115 METAR LMML 180115Z 29007KT 9999 FEW031 SCT060 09/06 Q1015
                        NOSIG=
200902180100 METAR LMML NIL=
200902180045 METAR LMML 180045Z 26005KT 230V290 9999 FEW031 SCT060 09/05
                        Q1016 NOSIG=
200902180030 METAR LMML NIL=
200902180015 METAR LMML 180015Z 24006KT 200V280 9999 FEW040 SCT070 09/05
                        Q1016 NOSIG=
200902180000 METAR LMML NIL=
200902172345 METAR LMML 172345Z 24008KT 220V280 9999 FEW039 BKN060 09/06
                        Q1016 NOSIG=
200902172330 METAR LMML NIL=
200902172315 METAR LMML 172315Z 25007KT 200V290 9999 FEW037 BKN070 10/05
                        Q1016 NOSIG=
200902172300 METAR LMML NIL=
200902172245 METAR LMML 172245Z 23007KT 200V280 9999 FEW035 BKN060 10/05
                        Q1016 NOSIG=
200902172230 METAR LMML NIL=
200902172215 METAR LMML 172215Z 22006KT 9999 FEW031 BKN070 10/05 Q1017
                        NOSIG=
200902172200 METAR LMML NIL=
200902172145 METAR LMML 172145Z 22005KT 200V260 9999 FEW032 BKN070 09/05
                        Q1017 NOSIG=
200902172130 METAR LMML NIL=
200902172115 METAR LMML 172115Z 23005KT 200V260 9999 FEW032 BKN070 09/05
                        Q1017 NOSIG=
200902172045 METAR LMML 172045Z VRB03KT 9999 FEW034 BKN070 08/05 Q1017
                        NOSIG=
200902172030 METAR LMML NIL=
200902172015 METAR LMML 172015Z VRB03KT 9999 FEW033 SCT070 08/05 Q1018
                        NOSIG=
200902172000 LMML NIL=
200902171945 LMML 171945Z VRB02KT CAVOK 08/05 Q1018 NOSIG=
200902171930 METAR LMML NIL=
200902171915 METAR LMML 171915Z VRB02KT CAVOK 07/05 Q1018 NOSIG=
200902171900 METAR LMML NIL=
200902171845 METAR LMML 171845Z VRB02KT 9999 FEW025 08/05 Q1018 NOSIG=
200902171830 METAR LMML NIL=
200902171815 METAR LMML 171815Z VRB02KT 9999 FEW025 08/05 Q1018 NOSIG=
200902171800 METAR LMML NIL=
200902171745 METAR LMML 171745Z VRB02KT 9999 FEW025 09/05 Q1018 NOSIG=
200902171730 METAR LMML NIL=
200902171715 METAR LMML 171715Z VRB02KT 9999 FEW025 09/04 Q1018 NOSIG=
200902171700 METAR LMML NIL=
200902171645 METAR LMML 171645Z VRB02KT 9999 FEW025 BKN070 10/05 Q1018
                        NOSIG=
200902171630 METAR LMML NIL=
200902171615 METAR LMML 171615Z VRB02KT 9999 FEW025 BKN070 10/05 Q1018
                        NOSIG=
200902171600 METAR LMML NIL=
200902171545 METAR LMML 171545Z 35004KT 320V040 9999 FEW025 BKN080 10/05
                        Q1019 NOSIG=
200902171530 METAR LMML NIL=
200902171515 METAR LMML 171515Z 36006KT 9999 FEW025 BKN080 10/05 Q1019
                        NOSIG=
200902171500 METAR LMML NIL=
200902171445 METAR LMML 171445Z 33008KT 9999 FEW035 SCT047 11/06 Q1019
                        NOSIG=
200902171430 METAR LMML NIL=
200902171415 METAR LMML 171415Z 29007KT 220V330 9999 FEW035 SCT070 12/04
                        Q1019 NOSIG=
200902171400 LMML NIL=
200902171345 METAR LMML 171345Z 28007KT 240V320 9999 FEW020 BKN060 12/04
                        Q1019 NOSIG=
200902171330 METAR LMML NIL=
200902171315 METAR LMML 171315Z 30008KT 240V350 9999 FEW020 SCT060 12/04
                        Q1020 NOSIG=
200902171300 LMML NIL=
200902171230 METAR LMML NIL=
200902171215 METAR LMML 171215Z 30004KT 9999 FEW018 BKN050 10/04 Q1020
                        NOSIG=
200902171200 METAR LMML NIL=
200902171145 METAR LMML 171145Z 30005KT 270V340 9999 -RA FEW018 BKN060
                        10/05 Q1021 NOSIG=
200902171130 METAR LMML NIL=
200902171115 METAR LMML 171115Z 28005KT 9999 -RA FEW020 SCT050 BKN090
                        09/04 Q1021 NOSIG=
200902171100 METAR LMML NIL=
200902171045 METAR LMML 171045Z 28004KT 240V320 9999 FEW020 SCT050 BKN070
                        10/04 Q1021 NOSIG=
200902171030 METAR LMML NIL=
200902171015 METAR LMML 171015Z 30004KT 250V330 9999 FEW020 SCT050 BKN070
                        09/04 Q1022 NOSIG=
200902171000 METAR LMML NIL=
200902170945 METAR LMML 170945Z VRB03KT 9999 FEW020 BKN060 10/04 Q1022
                        NOSIG=
200902170930 METAR LMML NIL=
200902170915 METAR LMML 170915Z 25005KT 210V280 9999 SCT020 BKN060 10/04
                        Q1022 NOSIG=
200902170900 METAR LMML NIL=
200902170845 METAR LMML 170845Z 33008KT 9999 SCT025 SCT045 BKN070 09/04
                        Q1022 NOSIG=
200902170830 METAR LMML NIL=
200902170815 METAR LMML 170815Z VRB03KT 9999 -RA SCT030 SCT060 BKN070
                        10/04 Q1022 NOSIG=
200902170800 METAR LMML NIL=
200902170745 METAR LMML 170745Z VRB03KT 9999 SCT030 BKN080 10/04 Q1022
                        NOSIG=
200902170730 METAR LMML NIL=
200902170715 METAR LMML 170715Z VRB03KT 9999 FEW030 BKN080 09/03 Q1021
                        NOSIG=
200902170700 METAR LMML NIL=
200902170645 METAR LMML 170645Z VRB03KT 9999 FEW030 SCT080 07/03 Q1021
                        NOSIG=
200902170630 METAR LMML NIL=
200902170615 METAR LMML 170615Z VRB03KT 9999 FEW030 SCT050 BKN080 07/03
                        Q1021 NOSIG=
200902170600 METAR LMML NIL=
200902170545 METAR LMML 170545Z VRB02KT 9999 FEW040 BKN070 07/03 Q1021
                        NOSIG=
200902170530 METAR LMML NIL=
200902170515 METAR LMML 170515Z VRB03KT CAVOK 06/03 Q1021 NOSIG=
200902170500 METAR LMML NIL=
200902170445 METAR LMML 170445Z VRB02KT 9999 FEW045 BKN080 06/03 Q1021
                        NOSIG=
200902170430 METAR LMML NIL=
200902170415 METAR LMML 170415Z 00000KT 9999 FEW045 SCT080 06/03 Q1021
                        NOSIG=
200902170400 METAR LMML NIL=
200902170345 METAR LMML 170345Z VRB01KT 9999 -RA SCT047 SCT070 07/03 Q1021
                        NOSIG=
200902170315 METAR LMML 170315Z VRB02KT CAVOK 07/03 Q1021 NOSIG=
200902170245 METAR LMML 170245Z VRB02KT CAVOK 06/03 Q1021 NOSIG=
200902170230 METAR LMML NIL=
200902170215 METAR LMML 170215Z VRB03KT CAVOK 06/02 Q1022 NOSIG=
200902170200 METAR LMML NIL=
200902170145 METAR LMML 170145Z VRB03KT CAVOK 06/01 Q1022 NOSIG=
200902170130 METAR LMML NIL=
200902170115 METAR LMML 170115Z VRB01KT CAVOK 05/02 Q1022 NOSIG=
200902170100 METAR LMML NIL=
200902170045 METAR LMML 170045Z VRB01KT CAVOK 05/02 Q1022 NOSIG=
200902170015 METAR LMML 170015Z VRB01KT CAVOK 05/03 Q1022 NOSIG=
200902170000 METAR LMML NIL=
200902162345 METAR LMML 162345Z 00000KT 9999 FEW030 SCT070 05/03 Q1022
                        NOSIG=
200902162330 METAR LMML NIL=
200902162315 METAR LMML 162315Z VRB01KT 9999 FEW030 05/02 Q1022 NOSIG=
200902162300 METAR LMML NIL=
200902162245 METAR LMML 162245Z VRB01KT 9999 FEW030 05/02 Q1022 NOSIG=
200902162230 METAR LMML NIL=
200902162215 METAR LMML 162215Z VRB01KT 9999 FEW030 SCT250 06/03 Q1022
                        NOSIG=
200902162200 METAR LMML NIL=
200902162145 METAR LMML 162145Z VRB02KT 9999 FEW030 SCT250 06/03 Q1022
                        NOSIG=
200902162130 METAR LMML NIL=
200902162115 METAR LMML 162115Z VRB02KT 9999 FEW030 BKN250 06/02 Q1022
                        NOSIG=
200902162100 METAR LMML NIL=
200902162045 METAR LMML 162045Z VRB02KT 9999 FEW030 BKN250 06/03 Q1022
                        NOSIG=
200902162030 METAR LMML NIL=
200902162015 METAR LMML 162015Z VRB02KT 9999 FEW030 BKN250 06/02 Q1022
                        NOSIG=
200902162000 METAR LMML NIL=
200902161945 METAR LMML 161945Z VRB02KT 9999 FEW030 BKN250 07/03 Q1022
                        NOSIG=
200902161930 METAR LMML NIL=
200902161915 METAR LMML 161915Z VRB02KT 9999 FEW030 BKN250 07/03 Q1022
                        NOSIG=
200902161900 METAR LMML NIL=
200902161845 METAR LMML 161845Z VRB02KT 9999 FEW030 BKN250 07/03 Q1022
                        NOSIG=
200902161830 METAR LMML NIL=
200902161815 METAR LMML 161815Z VRB01KT 9999 FEW040 BKN250 07/03 Q1022
                        NOSIG=
200902161800 METAR LMML NIL=
200902161745 METAR LMML 161745Z VRB02KT 9999 FEW040 BKN250 08/02 Q1022
                        NOSIG=
200902161730 METAR LMML NIL=
200902161715 METAR LMML 161715Z VRB02KT 9999 FEW040 BKN250 08/02 Q1022
                        NOSIG=
200902161700 METAR LMML NIL=
200902161645 METAR LMML 161645Z 34004KT 9999 FEW040 BKN250 08/01 Q1022
                        NOSIG=
200902161630 METAR LMML NIL=
200902161615 METAR LMML 161615Z 34005KT 9999 FEW040 SCT250 09/01 Q1021
                        NOSIG=
200902161600 METAR LMML NIL=
200902161545 METAR LMML 161545Z 33007KT 300V010 9999 FEW040 10/02 Q1021
                        NOSIG=
200902161530 METAR LMML NIL=
200902161515 METAR LMML 161515Z 33006KT 300V040 9999 FEW040 10/02 Q1021
                        NOSIG=
200902161500 METAR LMML NIL=
200902161445 METAR LMML 161445Z 32006KT 290V010 9999 FEW040 11/03 Q1021
                        NOSIG=
200902161430 METAR LMML NIL=
200902161415 METAR LMML 161415Z 33005KT 290V050 9999 FEW038 11/03 Q1021
                        NOSIG=
200902161400 METAR LMML NIL=
200902161345 METAR LMML 161345Z 36005KT 310V050 9999 FEW042 12/02 Q1021
                        NOSIG=
200902161330 METAR LMML NIL=
200902161315 METAR LMML 161315Z 33007KT 290V040 9999 FEW042 11/02 Q1021
                        NOSIG=
200902161300 METAR LMML NIL=
200902161245 METAR LMML 161245Z 33004KT 270V020 9999 FEW041 11/00 Q1021
                        NOSIG=
200902161230 METAR LMML NIL=
200902161215 METAR LMML 161215Z 34005KT 310V030 9999 FEW041 11/01 Q1022
                        NOSIG=
200902161200 METAR LMML NIL=
200902161145 METAR LMML 161145Z 31007KT 270V350 9999 FEW039 11/02 Q1022
                        NOSIG=
200902161130 METAR LMML NIL=
200902161115 METAR LMML 161115Z 33007KT 280V020 9999 FEW037 11/02 Q1022
                        NOSIG=
200902161100 METAR LMML NIL=
200902161045 METAR LMML 161045Z 31009KT 9999 FEW036 11/02 Q1022 NOSIG=
200902161030 METAR LMML NIL=
200902161015 METAR LMML 161015Z 32010KT 290V350 9999 FEW030 10/03 Q1022
                        NOSIG=
200902161000 METAR LMML NIL=
200902160945 METAR LMML 160945Z 32009KT 9999 FEW030 10/03 Q1022 NOSIG=
200902160930 METAR LMML NIL=
200902160915 METAR LMML 160915Z 30004KT 270V350 9999 FEW028 09/03 Q1022
                        NOSIG=
200902160900 METAR LMML NIL=
200902160845 METAR LMML 160845Z 32004KT 9999 FEW029 BKN080 08/02 Q1022
                        NOSIG=
200902160830 METAR LMML NIL=
200902160815 METAR LMML 160815Z 31004KT 9999 FEW029 BKN070 08/03 Q1022
                        NOSIG=
200902160800 METAR LMML NIL=
200902160745 METAR LMML 160745Z 32008KT 290V350 9999 FEW025 BKN080 09/03
                        Q1022 NOSIG=
200902160730 METAR LMML NIL=
200902160715 METAR LMML 160715Z VRB03KT 9999 FEW025 SCT090 09/03 Q1022
                        NOSIG=
200902160700 METAR LMML NIL=
200902160645 METAR LMML 160645Z 26004KT 210V300 9999 FEW025 SCT090 06/02
                        Q1021 NOSIG=
200902160630 METAR LMML NIL=
200902160615 METAR LMML 160615Z 29004KT 260V320 9999 FEW025 SCT090 06/02
                        Q1021 NOSIG=
200902160600 METAR LMML NIL=
200902160545 METAR LMML 160545Z VRB03KT 9999 FEW025 BKN090 06/02 Q1021
                        NOSIG=
200902160530 METAR LMML NIL=
200902160515 METAR LMML 160515Z VRB03KT 9999 FEW026 BKN080 06/02 Q1021
                        NOSIG=
200902160445 METAR LMML 160445Z 33006KT 9999 FEW026 BKN080 06/02 Q1021
                        NOSIG=
200902160430 METAR LMML NIL=
200902160415 METAR LMML 160415Z 31011KT 9999 FEW026 BKN070 07/02 Q1021
                        NOSIG=
200902160400 METAR LMML NIL=
200902160345 METAR LMML 160345Z 31004KT 9999 FEW048 BKN090 06/01 Q1021
                        NOSIG=
200902160330 METAR LMML NIL=
200902160315 METAR LMML 160315Z VRB02KT 9999 FEW045 BKN100 07/01 Q1020
                        NOSIG=
200902160300 METAR LMML NIL=
200902160245 METAR LMML 160245Z VRB03KT 9999 FEW045 BKN090 07/02 Q1020
                        NOSIG=
200902160230 METAR LMML NIL=
200902160215 METAR LMML 160215Z 30004KT 9999 FEW045 BKN090 07/01 Q1020
                        NOSIG=
200902160200 METAR LMML NIL=
200902160145 METAR LMML 160145Z 30005KT 9999 FEW045 BKN250 07/01 Q1021
                        NOSIG=
200902160130 METAR LMML NIL=
200902160115 METAR LMML 160115Z 28004KT 240V300 9999 FEW045 BKN090 07/01
                        Q1021 NOSIG=
200902160100 METAR LMML NIL=
200902160045 METAR LMML 160045Z 28004KT 9999 FEW045 BKN250 07/01 Q1021
                        NOSIG=
200902160030 METAR LMML NIL=
200902160015 METAR LMML 160015Z VRB02KT 9999 FEW045 BKN090 07/01 Q1020
                        NOSIG=
200902160000 METAR LMML NIL=
200902152345 METAR LMML 152345Z 32004KT 9999 FEW045 BKN250 08/01 Q1021
                        NOSIG=
200902152330 METAR LMML NIL=
200902152315 METAR LMML 152315Z 34005KT 9999 FEW045 BKN080 08/01 Q1021
                        NOSIG=
200902152245 METAR LMML 152245Z 34004KT 310V010 9999 FEW045 BKN080 08/01
                        Q1021 NOSIG=
200902152215 METAR LMML 152215Z 35005KT 310V030 9999 FEW045 BKN080 09/M00
                        Q1020 NOSIG=
200902152145 METAR LMML 152145Z 36007KT 9999 SCT045 BKN080 09/00 Q1020
                        NOSIG=
200902152115 METAR LMML 152115Z 35005KT 320V030 9999 FEW045 BKN070 08/01
                        Q1020 NOSIG=
200902152100 LMML NIL=
200902152045 LMML 152045Z 30005KT 9999 SCT045 BKN070 09/02 Q1020 NOSIG=
200902152015 METAR LMML 152015Z 29007KT 9999 FEW045 BKN080 08/02 Q1020
                        NOSIG=
200902151945 METAR LMML 151945Z 30007KT 9999 FEW045 BKN080 08/02 Q1020
                        NOSIG=
200902151915 METAR LMML 151915Z 30008KT 9999 SCT045 BKN070 08/02 Q1019
                        NOSIG=
200902151845 METAR LMML 151845Z 31011KT 290V350 9999 SCT045 BKN070 08/02
                        Q1019 NOSIG=
200902151815 METAR LMML 151815Z 29006KT 9999 SCT045 SCT070 08/02 Q1019
                        NOSIG=
200902151800 METAR LMML NIL=
200902151745 METAR LMML 151745Z 29007KT 9999 SCT043 SCT070 08/02 Q1019
                        NOSIG=
200902151715 METAR LMML 151715Z 29007KT 270V330 9999 SCT045 08/02 Q1018
                        NOSIG=
200902151700 METAR LMML NIL=
200902151645 METAR LMML 151645Z 31009KT 9999 SCT043 08/02 Q1018 NOSIG=
200902151630 METAR LMML NIL=
200902151615 METAR LMML 151615Z 32011KT 9999 SCT044 09/02 Q1018 NOSIG=
200902151600 METAR LMML NIL=
200902151545 METAR LMML 151545Z 31010KT 280V340 9999 FEW040 10/03 Q1018
                        NOSIG=
200902151530 METAR LMML NIL=
200902151515 METAR LMML 151515Z 32010KT 290V350 9999 SCT041 10/01 Q1017
                        NOSIG=
200902151500 METAR LMML NIL=
200902151445 METAR LMML 151445Z 33010KT 280V350 9999 FEW042 10/02 Q1017
                        NOSIG=
200902151430 METAR LMML NIL=
200902151415 METAR LMML 151415Z 33010KT 290V360 9999 FEW043 10/02 Q1017
                        NOSIG=
200902151400 METAR LMML NIL=
200902151345 METAR LMML 151345Z 34008KT 290V030 9999 FEW044 10/00 Q1017
                        NOSIG=
200902151330 METAR LMML NIL=
200902151315 METAR LMML 151315Z 35010KT 9999 FEW041 10/01 Q1017 NOSIG=
200902151300 METAR LMML NIL=
200902151245 METAR LMML 151245Z 35009KT 300V030 9999 FEW040 11/02 Q1017
                        NOSIG=
200902151230 METAR LMML NIL=
200902151215 METAR LMML 151215Z 35010KT 320V020 9999 FEW040 11/02 Q1016
                        NOSIG=
200902151200 METAR LMML NIL=
200902151145 METAR LMML 151145Z 36010KT 340V040 9999 FEW028 11/01 Q1016
                        NOSIG=
200902151130 METAR LMML NIL=
200902151115 METAR LMML 151115Z 35011KT 9999 FEW028 10/01 Q1016 NOSIG=
200902151100 METAR LMML NIL=
200902151045 METAR LMML 151045Z 34012KT 9999 FEW028 09/02 Q1016 NOSIG=
200902151030 METAR LMML NIL=
200902151015 METAR LMML 151015Z 35013KT 9999 FEW031 09/03 Q1016 NOSIG=
200902151000 METAR LMML NIL=
200902150945 METAR LMML 150945Z 34014KT 310V010 9999 SCT035 09/02 Q1015
                        TEMPO 8000 SHRA=
200902150930 METAR LMML NIL=
200902150915 METAR LMML 150915Z 34013KT 9999 SCT034 09/02 Q1015 TEMPO
                        8000 SHRA=
200902150900 METAR LMML NIL=
200902150845 METAR LMML 150845Z 32013KT 9999 SCT043 09/02 Q1014 TEMPO
                        8000 SHRA=
200902150830 METAR LMML NIL=
200902150815 METAR LMML 150815Z 32010KT 9999 SCT041 08/04 Q1014 TEMPO
                        8000 SHRA=
200902150800 METAR LMML NIL=
200902150745 METAR LMML 150745Z 29006KT 260V320 9999 SCT022 07/03 Q1014
                        TEMPO 8000 SHRA=
200902150730 METAR LMML NIL=
200902150715 METAR LMML 150715Z 30007KT 9999 FEW017 05/03 Q1014 TEMPO
                        8000 SHRA=
200902150700 METAR LMML NIL=
200902150645 METAR LMML 150645Z 30008KT 270V340 9000 -SHRA SCT022 SCT042
                        05/02 Q1014 TEMPO 8000 SHRA=
200902150630 METAR LMML NIL=
200902150615 METAR LMML 150615Z 31017G27KT 9999 SCT014 BKN040 05/02 Q1013
                        TEMPO 8000 SHRA=
200902150600 METAR LMML NIL=
200902150545 METAR LMML 150545Z 29007KT 9999 SCT024 BKN060 06/02 Q1012
                        TEMPO 8000 SHRA=
200902150530 METAR LMML NIL=
200902150515 METAR LMML 150515Z 30007KT 9999 -SHRA FEW024 SCT060 BKN110
                        06/02 Q1012 TEMPO 8000 SHRA=
200902150500 METAR LMML NIL=
200902150445 METAR LMML 150445Z 31007KT 9999 FEW035 SCT060 BKN110 06/01
                        Q1012 NOSIG=
200902150430 METAR LMML NIL=
200902150415 METAR LMML 150415Z 31005KT 9999 FEW035 SCT060 BKN110 06/00
                        Q1012 NOSIG=
200902150400 METAR LMML NIL=
200902150345 METAR LMML 150345Z 28005KT 250V310 9999 FEW032 SCT060 BKN110
                        06/M01 Q1012 NOSIG=
200902150330 METAR LMML NIL=
200902150315 METAR LMML 150315Z 29007KT 260V320 9999 FEW032 SCT060 BKN125
                        07/M01 Q1012 NOSIG=
200902150300 METAR LMML NIL=
200902150245 METAR LMML 150245Z 31009KT 9999 FEW036 BKN050 07/01 Q1012
                        NOSIG=
200902150230 METAR LMML NIL=
200902150215 METAR LMML 150215Z 30009KT CAVOK 06/00 Q1012 NOSIG=
200902150200 METAR LMML NIL=
200902150145 METAR LMML 150145Z 30008KT 9999 FEW030 BKN090 06/00 Q1012
                        NOSIG=
200902150130 METAR LMML NIL=
200902150115 METAR LMML 150115Z 31010KT 9999 FEW030 BKN090 06/00 Q1012
                        NOSIG=
200902150100 METAR LMML NIL=
200902150045 METAR LMML 150045Z 31010KT 9999 FEW030 BKN080 07/01 Q1012
                        NOSIG=
200902150030 METAR LMML NIL=
200902150015 METAR LMML 150015Z 30010KT 9999 FEW030 BKN090 07/01 Q1012
                        NOSIG=
200902150000 METAR LMML NIL=
200902142345 METAR LMML 142345Z 31009KT 9999 FEW030 SCT100 06/00 Q1012
                        NOSIG=
200902142330 METAR LMML NIL=
200902142315 METAR LMML 142315Z 30010KT 9999 FEW030 SCT110 07/01 Q1012
                        NOSIG=
200902142300 METAR LMML NIL=
200902142245 METAR LMML 142245Z 30010KT 270V330 9999 FEW030 06/01 Q1012
                        NOSIG=
200902142230 METAR LMML NIL=
200902142215 METAR LMML 142215Z 31006KT 9999 FEW030 05/02 Q1012 NOSIG=
200902142200 METAR LMML NIL=
200902142145 METAR LMML 142145Z 32008KT 9999 FEW030 06/01 Q1012 NOSIG=
200902142130 METAR LMML NIL=
200902142115 LMML 142115Z 31009KT 9999 FEW030 06/01 Q1012 NOSIG=
200902142100 METAR LMML NIL=
200902142045 METAR LMML 142045Z 31014KT 9999 SCT032 07/01 Q1012 TEMPO
                        8000 SHRA=
200902142030 METAR LMML NIL=
200902142015 METAR LMML 142015Z 31012KT 9999 FEW040 07/01 Q1012 TEMPO
                        8000 SHRA=
200902142000 METAR LMML NIL=
200902141945 METAR LMML 141945Z 31012KT 9999 FEW040 07/00 Q1012 NOSIG=
200902141930 METAR LMML NIL=
200902141915 METAR LMML 141915Z 31013KT CAVOK 07/01 Q1012 NOSIG=
200902141900 METAR LMML NIL=
200902141845 METAR LMML 141845Z 31015KT 9999 FEW040 07/00 Q1012 NOSIG=
200902141830 METAR LMML NIL=
200902141815 METAR LMML 141815Z 30019KT 9999 FEW043 08/M00 Q1012 NOSIG=
200902141745 METAR LMML 141745Z 30016KT 9999 SCT045 08/M01 Q1012 NOSIG=
200902141730 METAR LMML NIL=
200902141715 METAR LMML 141715Z 30016G26KT 270V330 9999 SCT044 08/M02
                        Q1011 NOSIG=
200902141700 METAR LMML NIL=
200902141645 METAR LMML 141645Z 30015KT 9999 SCT048 08/00 Q1011 NOSIG=
200902141630 METAR LMML NIL=
200902141615 METAR LMML 141615Z 29015KT 260V320 9999 SCT045 08/00 Q1011
                        NOSIG=
200902141600 METAR LMML NIL=
200902141545 METAR LMML 141545Z 30018KT 270V330 9999 SCT042 09/M01 Q1011
                        NOSIG=
200902141530 METAR LMML NIL=
200902141515 METAR LMML 141515Z 30019KT 270V330 9999 SCT038 09/01 Q1011
                        NOSIG=
200902141500 METAR LMML NIL=
200902141445 METAR LMML 141445Z 30020KT 270V330 9999 SCT038 09/02 Q1010
                        NOSIG=
200902141430 LMML NIL=
200902141415 METAR LMML 141415Z 30022KT 260V320 9999 SCT035 09/02 Q1010
                        NOSIG=
200902141400 METAR LMML NIL=
200902141345 METAR LMML 141345Z 30017G27KT 260V330 9999 BKN039TCU 09/04
                        Q1010 NOSIG=
200902141330 METAR LMML NIL=
200902141315 METAR LMML 141315Z 32017KT 9999 SCT018 SCT080 08/05 Q1011
                        NOSIG=
200902141300 METAR LMML NIL=
200902141245 METAR LMML 141245Z 31021G35KT 9999 BKN037 08/04 Q1010 NOSIG=
200902141230 METAR LMML NIL=
200902141215 METAR LMML 141215Z 29014KT 260V320 9999 BKN022TCU 08/04 Q1010
                        NOSIG=
200902141200 METAR LMML NIL=
200902141145 METAR LMML 141145Z 28016KT 230V320 9999 -SHRA BKN022 07/03
                        Q1010 NOSIG=
200902141135 SPECI LMML 141135Z 28016KT 250V320 9999 BKN030 07/03 Q1010
                        NOSIG=
200902141130 METAR LMML NIL=
200902141115 METAR LMML 141115Z 30014KT 9999 BKN033 09/03 Q1010 NOSIG=
200902141100 METAR LMML NIL=
200902141045 METAR LMML 141045Z 30016KT 270V330 9999 BKN028 09/03 Q1011
                        NOSIG=
200902141030 METAR LMML NIL=
200902141015 METAR LMML 141015Z 30011KT 260V340 9999 SCT025 09/04 Q1011
                        NOSIG=
200902141000 METAR LMML NIL=
200902140945 METAR LMML 140945Z 31011KT 270V340 9999 FEW022 08/04 Q1011
                        NOSIG=
200902140930 METAR LMML NIL=
200902140915 METAR LMML 140915Z 30010KT 270V340 9999 FEW044 SCT250 08/05
                        Q1011 NOSIG=
200902140900 METAR LMML NIL=
200902140845 METAR LMML 140845Z 29013KT 9999 FEW024 SCT250 06/04 Q1011
                        NOSIG=
200902140830 METAR LMML NIL=
200902140815 METAR LMML 140815Z 29006KT 250V320 9999 SCT020 SCT080 07/04
                        Q1010 NOSIG=
200902140800 METAR LMML NIL=
200902140745 METAR LMML 140745Z 28006KT 250V310 9999 SCT027 SCT070 06/04
                        Q1010 NOSIG=
200902140730 METAR LMML NIL=
200902140715 METAR LMML 140715Z 33007KT 9999 SCT020 BKN090 05/03 Q1010
                        NOSIG=
200902140700 METAR LMML NIL=
200902140645 METAR LMML 140645Z 31018G32KT 9999 SHRA SCT026 BKN050 05/03
                        Q1010 NOSIG=
200902140630 METAR LMML NIL=
200902140615 METAR LMML 140615Z 28007KT 9000 FEW014 SCT025CB 05/02 Q1009
                        TEMPO 5000 TSGS=
200902140600 METAR LMML NIL=
200902140545 METAR LMML 140545Z 29025KT 9000 -SHRA BKN031 05/02 Q1010
                        TEMPO 29020G30KT 5000 TSGS SCT015CB=
200902140530 METAR LMML NIL=
200902140515 METAR LMML 140515Z 27006KT 240V300 9999 FEW015CB 05/03 Q1009
                        TEMPO 5000 TSGS SCT015CB=
200902140445 METAR LMML 140445Z 27008KT 9999 FEW025 SCT080 05/03 Q1009
                        TEMPO 5000 TSGS SCT015CB=
200902140430 METAR LMML NIL=
200902140415 METAR LMML 140415Z 28008KT 9999 -SHRA FEW018 SCT025 04/03
                        Q1009 TEMPO 5000 TSGS SCT015CB=
200902140400 METAR LMML NIL=
200902140345 METAR LMML 140345Z 31020G30KT 6000 SHRA SCT019 SCT110 05/03
                        Q1009 TEMPO 5000 SHRA SCT018TCU=
200902140330 METAR LMML NIL=
200902140315 METAR LMML 140315Z 33016G27KT 9000 -SHRA SCT025 SCT100 06/02
                        Q1009 TEMPO 7000 SHRA SCT018TCU=
200902140300 METAR LMML NIL=
200902140245 METAR LMML 140245Z 30009KT 9999 FEW035 SCT120 07/02 Q1008
                        TEMPO 7000 SHRA SCT018TCU=
200902140230 METAR LMML NIL=
200902140215 METAR LMML 140215Z 31010KT 9999 SCT035 07/02 Q1008 TEMPO
                        7000 SHRA SCT018TCU=
200902140200 METAR LMML NIL=
200902140145 METAR LMML 140145Z 30009KT 9999 FEW035 07/02 Q1008 TEMPO
                        7000 SHRA SCT018TCU=
200902140130 METAR LMML NIL=
200902140115 METAR LMML 140115Z 32005KT 9999 FEW035 06/02 Q1008 TEMPO
                        7000 SHRA=
200902140100 METAR LMML NIL=
200902140045 METAR LMML 140045Z 31010KT 9999 FEW039 07/02 Q1008 TEMPO
                        7000 SHRA=
200902140030 METAR LMML NIL=
200902140015 METAR LMML 140015Z 31011KT 9999 FEW039 SCT100 07/02 Q1008
                        TEMPO 7000 SHRA SCT018TCU=
200902140000 METAR LMML NIL=
200902132345 METAR LMML 132345Z 31012KT 9999 SCT034TCU SCT100 07/03 Q1008
                        TEMPO 7000 SHRA SCT018TCU=
200902132330 METAR LMML NIL=
200902132315 METAR LMML 132315Z 31011KT 9999 SCT034 07/03 Q1008 NOSIG=
200902132300 METAR LMML NIL=
200902132245 METAR LMML 132245Z 31011KT 9999 SCT036 07/02 Q1008 NOSIG=
200902132230 METAR LMML NIL=
200902132215 METAR LMML 132215Z 32011KT 9999 FEW039 07/03 Q1008 NOSIG=
200902132200 METAR LMML NIL=
200902132145 METAR LMML 132145Z 31013KT 9999 FEW039 07/03 Q1008 NOSIG=
200902132130 METAR LMML NIL=
200902132115 METAR LMML 132115Z 30013KT 9999 FEW039 07/02 Q1007 NOSIG=
200902132100 METAR LMML NIL=
200902132045 METAR LMML 132045Z 31017KT 9999 FEW039 08/02 Q1007 NOSIG=
200902132030 METAR LMML NIL=
200902132015 METAR LMML 132015Z 30015KT 9999 FEW039 08/02 Q1007 TEMPO
                        8000 SHRA SCT020=
200902132000 METAR LMML NIL=
200902131945 METAR LMML 131945Z 31013KT 9999 SCT035 08/03 Q1007 TEMPO
                        8000 SHRA SCT020=
200902131930 METAR LMML NIL=
200902131915 METAR LMML 131915Z 30015KT 280V340 9999 FEW039 08/01 Q1007
                        TEMPO 8000 SHRA SCT020=
200902131900 METAR LMML NIL=
200902131845 METAR LMML 131845Z 30015KT 9999 SCT041 08/02 Q1007 TEMPO
                        3000 TSGS BKN015CB RMK LIGHTNING
                        TO SOUTH=
200902131830 METAR LMML NIL=
200902131815 METAR LMML 131815Z 30012KT 260V330 9999 SCT039TCU 08/02 Q1007
                        TEMPO 3000 TSGS BKN015CB=
200902131800 METAR LMML NIL=
200902131745 METAR LMML 131745Z 27011KT 250V310 9999 BKN030TCU 08/03 Q1007
                        TEMPO 3000 TSGR BKN015CB=
200902131730 METAR LMML NIL=
200902131715 METAR LMML 131715Z 28018G29KT 250V310 9999 FEW030CB SCT035
                        08/02 Q1007 TEMPO 3000 TSGR BKN015CB=
200902131700 METAR LMML NIL=
200902131645 METAR LMML 131645Z 28017KT 9999 FEW030CB SCT035 08/03 Q1007
                        TEMPO 6000 SHGR=
200902131630 METAR LMML NIL=
200902131615 METAR LMML 131615Z 29016KT 9999 FEW030CB SCT036 09/02 Q1006
                        TEMPO 6000 SHGR=
200902131600 METAR LMML NIL=
200902131545 METAR LMML 131545Z 29017KT 250V310 9999 FEW030CB SCT035 09/02
                        Q1006 TEMPO 6000 SHGR=
200902131530 METAR LMML NIL=
200902131515 METAR LMML 131515Z 30015G25KT 270V330 9999 SCT030CB SCT038
                        09/01 Q1006 TEMPO 6000 SHGR=
200902131500 METAR LMML NIL=
200902131445 LMML 131445Z 29016KT 260V320 9999 SCT030CB BKN038 09/02 Q1006
                        TEMPO 6000 SHGR=
200902131430 METAR LMML NIL=
200902131415 METAR LMML 131415Z 30016G26KT 260V330 9999 BKN035 10/03 Q1006
                        TEMPO 6000 SHGR=
200902131400 METAR LMML NIL=
200902131345 METAR LMML 131345Z 30020KT 9999 BKN035 10/02 Q1006 NOSIG=
200902131330 METAR LMML NIL=
200902131315 LMML 131315Z 30018KT 9999 BKN035 09/04 Q1006 NOSIG=
200902131300 METAR LMML NIL=
200902131245 METAR LMML 131245Z 29017KT 270V330 9999 BKN030 09/04 Q1006
                        TEMPO 6000 SHGR BKN015=
200902131230 METAR LMML NIL=
200902131215 METAR LMML 131215Z 29014KT 9999 SCT020CB BKN028 07/03 Q1006
                        TEMPO 2000 TSGR BKN015CB=
200902131200 METAR LMML NIL=
200902131145 METAR LMML 131145Z 29015KT 260V330 9999 BKN020 09/05 Q1006
                        TEMPO 2000 TSGR BKN015CB=
200902131130 METAR LMML NIL=
200902131115 METAR LMML 131115Z 30013KT 9999 BKN020 08/05 Q1006 TEMPO
                        2000 TSGR BKN015CB=
200902131100 METAR LMML NIL=
200902131045 METAR LMML 131045Z 30007KT 270V340 4000 -SHRA BKN018 06/05
                        Q1006 TEMPO 5000 SHGR BKN015=
200902131030 METAR LMML NIL=
200902131015 METAR LMML 131015Z 28020G32KT 240V320 4000 -SHRA SCT018 SCT026CB
                        06/04 Q1007 TEMPO TSGR BKN015CB=
200902131000 METAR LMML NIL=
200902130945 METAR LMML 130945Z 32010KT 290V350 9999 SCT015 SCT030CB 09/06
                        Q1006 TEMPO 4000 TSGR BKN015CB=
200902130930 METAR LMML NIL=
200902130915 METAR LMML 130915Z 32009KT 9999 FEW013 SCT030CB 07/06 Q1006
                        TEMPO 4000 TSGR BKN015CB=
200902130900 METAR LMML NIL=
200902130845 METAR LMML 130845Z 33018KT 4000 -SHRA SCT011 BKN026 06/04
                        Q1006 TEMPO TSGR BKN015CB=
200902130833 SPECI LMML 130833Z 32017KT 280V360 4000 -SHGR SCT015 BKN027
                        07/05 Q1007 TEMPO TSGR BKN015CB=
200902130830 METAR LMML NIL=
200902130815 METAR LMML 130815Z VRB02KT 9999 BKN025 SCT090 07/05 Q1005
                        TEMPO 3000 TSGR BKN015CB=
200902130800 METAR LMML NIL=
200902130745 METAR LMML 130745Z 30006KT 9999 -SHRA SCT025CB BKN034 06/04
                        Q1005 TEMPO 3000 TSGR BKN015CB=
200902130730 METAR LMML NIL=
200902130715 METAR LMML 130715Z 25009KT 210V310 9999 -SHRA SCT020CB BKN036
                        07/03 Q1005 TEMPO 3000 TSGR BKN015CB=
200902130700 METAR LMML NIL=
200902130645 METAR LMML 130645Z 26005KT 210V290 9999 BKN030 SCT250 06/03
                        Q1006 TEMPO 6000 SHGR BKN015=
200902130630 METAR LMML NIL=
200902130615 METAR LMML 130615Z 29007KT 260V330 9999 FEW026 SCT250 06/02
                        Q1006 TEMPO 6000 SHGR BKN015=
200902130600 METAR LMML NIL=
200902130545 METAR LMML 130545Z 31011KT 9999 -SHRA FEW028CB SCT250 07/03
                        Q1006 TEMPO 4000 TSSHGR BKN020CB=
200902130530 METAR LMML NIL=
200902130515 METAR LMML 130515Z 28009KT 9999 SCT025 07/03 Q1006 TEMPO
                        4000 TSSHGR BKN020CB=
200902130500 METAR LMML NIL=
200902130445 METAR LMML 130445Z 27012KT 230V300 9999 -SHRA BKN025 07/03
                        Q1006 TEMPO 4000 TSSHGR BKN020CB=
200902130430 METAR LMML NIL=
200902130415 METAR LMML 130415Z 29010KT 9999 BKN033 08/03 Q1006 TEMPO
                        4000 TSSHGR BKN020CB=
200902130400 METAR LMML NIL=
200902130345 METAR LMML 130345Z 29012KT 9999 FEW025 SCT120 08/04 Q1006
                        TEMPO 4000 TSSHGR BKN020CB=
200902130330 METAR LMML NIL=
200902130315 METAR LMML 130315Z 28013KT 250V320 9999 FEW025 07/03 Q1006
                        TEMPO 4000 TSSHGR BKN020CB RMK LIGHTNING
                        TO SW=
200902130300 METAR LMML NIL=
200902130245 METAR LMML 130245Z 28013KT 250V330 9999 FEW025 SCT070 07/03
                        Q1007 TEMPO 4000 TSSHGR BKN020CB=
200902130230 METAR LMML NIL=
200902130215 METAR LMML 130215Z 28016KT 9999 FEW025 SCT060 07/04 Q1007
                        TEMPO 4000 TSSHGR BKN020CB=
200902130200 METAR LMML NIL=
200902130145 METAR LMML 130145Z 32012KT 9999 -SHRA BKN024 06/04 Q1007
                        TEMPO 4000 TSSHGR BKN020CB=
200902130130 METAR LMML NIL=
200902130115 METAR LMML 130115Z 27014KT 240V310 9999 -SHRA BKN029 08/04
                        Q1007 TEMPO 4000 TSSHGR BKN020CB=
200902130100 METAR LMML NIL=
200902130045 METAR LMML 130045Z 28015KT 9999 FEW033 08/03 Q1008 TEMPO
                        8000 SHRA=
200902130030 METAR LMML NIL=
200902130015 METAR LMML 130015Z 28011KT 250V320 9999 SCT031 08/04 Q1008
                        TEMPO 8000 SHRA=
200902130000 METAR LMML NIL=
200902122345 METAR LMML 122345Z 28005KT 240V310 9999 FEW028 SCT120 07/04
                        Q1008 TEMPO 8000 SHRA=
200902122330 METAR LMML NIL=
200902122315 METAR LMML 122315Z 28008KT 230V320 9999 -SHRA BKN026 07/04
                        Q1009 TEMPO 8000 SHRA=
200902122300 METAR LMML NIL=
200902122245 METAR LMML 122245Z 29011KT 9999 -SHRA BKN030 08/04 Q1009
                        TEMPO 8000 SHRA=
200902122230 METAR LMML NIL=
200902122215 METAR LMML 122215Z 29008KT 9999 BKN029 07/04 Q1009 TEMPO
                        8000 SHRA=
200902122200 LMML NIL=
200902122145 METAR LMML 122145Z 27008KT 9999 FEW024 07/03 Q1009 TEMPO
                        8000 SHRA=
200902122130 METAR LMML NIL=
200902122115 METAR LMML 122115Z 28009KT 250V310 9999 FEW024 07/03 Q1009
                        TEMPO 8000 SHRA=
200902122100 METAR LMML NIL=
200902122045 METAR LMML 122045Z 27013KT 240V300 9999 FEW024CB SCT033TCU
                        07/03 Q1010 TEMPO 8000 SHRA RMK LIGHTNING
                        TO SW=
200902122030 METAR LMML NIL=
200902122015 METAR LMML 122015Z 28013KT 240V310 9999 BKN029 08/01 Q1009
                        TEMPO 8000 SHRA=
200902122000 METAR LMML NIL=
200902121945 METAR LMML 121945Z 30014KT 9999 FEW041 08/02 Q1010 TEMPO
                        8000 SHRA=
200902121930 METAR LMML NIL=
200902121915 METAR LMML 121915Z 29018KT 250V310 9999 SCT041 09/02 Q1010
                        TEMPO 8000 SHRA=
200902121900 METAR LMML NIL=
200902121845 METAR LMML 121845Z 28014KT 240V300 9999 -SHRA SCT041 09/02
                        Q1009 TEMPO 8000 SHRA=
200902121830 METAR LMML NIL=
200902121815 METAR LMML 121815Z 30015KT 270V330 9999 FEW040 SCT100 09/01
                        Q1009 TEMPO 8000 SHRA RMK LIGHTNING
                        TO NE=
200902121800 METAR LMML NIL=
200902121745 METAR LMML 121745Z 30012KT 260V330 9999 FEW040 SCT080 08/01
                        Q1009 TEMPO 8000 SHRA=
200902121730 METAR LMML NIL=
200902121715 METAR LMML 121715Z 30021G36KT 270V340 9999 SCT040 09/02 Q1009
                        TEMPO 5000 SHRA SCT020TCU=
200902121700 METAR LMML NIL=
200902121645 METAR LMML 121645Z 29019KT 9999 FEW040 10/01 Q1008 NOSIG=
200902121630 METAR LMML NIL=
200902121615 METAR LMML 121615Z 30018KT 9999 FEW040 10/02 Q1008 NOSIG=
200902121545 METAR LMML 121545Z 30015G28KT 260V330 9999 SCT040 10/02 Q1008
                        NOSIG=
200902121530 METAR LMML NIL=
200902121515 METAR LMML 121515Z 30018KT 270V330 9999 SCT040 10/04 Q1008
                        NOSIG=
200902121500 METAR LMML NIL=
200902121445 METAR LMML 121445Z 30020G30KT 9999 SCT035 10/04 Q1008 NOSIG=
200902121430 METAR LMML NIL=
200902121415 METAR LMML 121415Z 31020KT 9999 FEW033CB 10/05 Q1008 NOSIG=
200902121400 METAR LMML NIL=
200902121345 METAR LMML 121345Z 31021G32KT 9000 -SHRA SCT030CB SCT035
                        11/06 Q1008 NOSIG=
200902121330 METAR LMML NIL=
200902121315 METAR LMML 121315Z 30022G32KT 9999 -SHRA FEW020CB SCT025
                        12/04 Q1007 NOSIG=
200902121300 METAR LMML NIL=
200902121245 METAR LMML 121245Z 30024KT 270V340 9999 SCT030 12/03 Q1008
                        NOSIG=
200902121230 METAR LMML NIL=
200902121215 METAR LMML 121215Z 30024KT 9999 SCT030 11/04 Q1008 TEMPO
                        5000 SHRA FEW015TCU=
200902121200 METAR LMML NIL=
200902121145 METAR LMML 121145Z 30023G34KT 9999 FEW020CB SCT043 10/04
                        Q1008 TEMPO 5000 SHRA FEW015TCU=
200902121130 METAR LMML NIL=
200902121115 METAR LMML 121115Z 29021KT 250V320 9999 -SHRA SCT030 11/05
                        Q1008 TEMPO 5000 SHRA FEW015TCU=
200902121100 METAR LMML NIL=
200902121045 METAR LMML 121045Z 29021KT 9999 FEW020CB SCT030 10/04 Q1008
                        TEMPO 5000 SHGR FEW015CB=
200902121030 METAR LMML NIL=
200902121015 METAR LMML 121015Z 27014KT 230V310 9999 -SHRA SCT015CB SCT028
                        08/04 Q1008 TEMPO 5000 SHGR FEW015CB=
200902121000 METAR LMML NIL=
200902120945 METAR LMML 120945Z 28019KT 9999 FEW020CB SCT033 11/06 Q1008
                        TEMPO 5000 SHRA FEW015CB=
200902120930 METAR LMML NIL=
200902120915 METAR LMML 120915Z 28024G34KT 250V310 9999 FEW020CB SCT025
                        09/05 Q1008 NOSIG=
200902120900 METAR LMML NIL=
200902120845 METAR LMML 120845Z 28020G31KT 250V320 5000 -SHGS BKN020TCU
                        09/05 Q1008 TEMPO 5000 SHGR BKN015TCU=
200902120830 METAR LMML NIL=
200902120815 METAR LMML 120815Z 27021KT 230V300 9999 SCT025 11/05 Q1008
                        TEMPO 5000 SHRA SCT018TCU=
200902120800 METAR LMML NIL=
200902120745 METAR LMML 120745Z 27020KT 230V300 9999 SCT024 10/06 Q1008
                        TEMPO 5000 SHRA SCT018TCU=
200902120730 METAR LMML NIL=
200902120715 METAR LMML 120715Z 27013KT 230V300 9999 SCT019 SCT080 08/07
                        Q1008 TEMPO 5000 SHRA SCT018TCU=
200902120700 METAR LMML NIL=
200902120645 METAR LMML 120645Z 28016KT 9999 -RA FEW011 SCT016 BKN050
                        08/06 Q1008 TEMPO 4000 RA SCT010=
200902120630 METAR LMML NIL=
200902120615 METAR LMML 120615Z 29015KT 250V320 9000 -RA FEW011 SCT016
                        BKN050 08/06 Q1008 NOSIG=
200902120600 METAR LMML NIL=
200902120545 METAR LMML 120545Z 30018KT 270V330 9999 RA SCT013 BKN031
                        07/06 Q1008 NOSIG=
200902120530 METAR LMML NIL=
200902120515 METAR LMML 120515Z 31013KT 9999 RA SCT013 BKN030 08/07 Q1008
                        NOSIG=
200902120500 METAR LMML NIL=
200902120445 METAR LMML 120445Z 31017KT 9000 RA FEW014 BKN033 08/07 Q1008
                        BECMG 9999=
200902120430 METAR LMML NIL=
200902120415 METAR LMML 120415Z 28020G30KT 230V330 9000 SHRA SCT014 BKN025
                        BKN040 09/08 Q1007 BECMG 9999=
200902120400 METAR LMML NIL=
200902120345 METAR LMML 120345Z 25015G25KT 210V290 9999 -SHRA SCT019 BKN050
                        10/07 Q1007 TEMPO 8000 SHRA=
200902120315 METAR LMML 120315Z 28012KT 240V310 9999 SCT021 SCT045 BKN110
                        09/07 Q1008 NOSIG=
200902120300 METAR LMML NIL=
200902120245 METAR LMML 120245Z 29016G26KT 9999 TSRA FEW010 SCT016CB BKN035
                        08/07 Q1009 NOSIG=
200902120233 SPECI LMML 120233Z 31014G26KT 270V330 9000 TSRA FEW010 BKN019
                        BKN040 08/07 Q1009 NOSIG=
200902120230 METAR LMML NIL=
200902120215 METAR LMML 120215Z 32008KT 290V360 9000 SHRA FEW013 BKN019
                        BKN040 08/07 Q1009 NOSIG=
200902120200 METAR LMML NIL=
200902120145 METAR LMML 120145Z 29008KT 9000 SHRA SCT029 SCT047 09/06
                        Q1010 NOSIG=
200902120130 METAR LMML NIL=
200902120115 METAR LMML 120115Z 30013KT 9999 SCT042 SCT120 09/06 Q1010
                        TEMPO 8000 SHRA=
200902120100 METAR LMML NIL=
200902120045 METAR LMML 120045Z 30013KT 9999 SCT029 SCT100 09/06 Q1010
                        TEMPO 8000 SHRA=
200902120030 METAR LMML NIL=
200902120015 METAR LMML 120015Z 27013KT 230V310 9999 SCT031 10/05 Q1011
                        TEMPO 8000 SHRA=
200902120000 METAR LMML NIL=
200902112345 METAR LMML 112345Z 29014KT 9999 SCT036 10/05 Q1011 TEMPO
                        8000 SHRA=
200902112330 METAR LMML NIL=
200902112315 METAR LMML 112315Z 28019KT 9999 SCT040 BKN060 BKN100 10/03
                        Q1011 TEMPO 8000 SHRA=
200902112245 METAR LMML 112245Z 28017G27KT 250V310 9999 SCT035 BKN045
                        BKN120 10/04 Q1011 TEMPO 8000 SHRA=
200902112230 METAR LMML NIL=
200902112215 METAR LMML 112215Z 29017KT 260V320 9999 SCT039 SCT045 BKN120
                        10/05 Q1012 NOSIG=
200902112200 METAR LMML NIL=
200902112145 METAR LMML 112145Z 28016KT 9999 SCT025 SCT120 09/05 Q1012
                        NOSIG=
200902112115 METAR LMML 112115Z 30014KT 270V330 9999 BKN028TCU 08/06 Q1012
                        NOSIG=
200902112100 METAR LMML NIL=
200902112045 METAR LMML 112045Z 28014KT 240V310 9999 SCT034 10/05 Q1012
                        TEMPO 8000 SHRA=
200902112030 METAR LMML NIL=
200902112015 METAR LMML 112015Z 28015KT 240V310 9999 SCT036 10/05 Q1012
                        NOSIG=
200902112000 METAR LMML NIL=
200902111945 METAR LMML 111945Z 28018KT 9999 FEW035 10/05 Q1012 NOSIG=
200902111915 METAR LMML 111915Z 29017KT 250V330 9999 FEW035 10/05 Q1012
                        NOSIG=
200902111845 METAR LMML 111845Z 29016KT 9999 SCT035 09/06 Q1012 NOSIG=
200902111830 METAR LMML NIL=
200902111815 METAR LMML 111815Z 30020KT 270V340 9999 SHRA BKN035 09/05
                        Q1013 NOSIG=
200902111800 METAR LMML NIL=
200902111745 METAR LMML 111745Z 29020G35KT 250V330 9999 BKN035 10/05 Q1013
                        NOSIG=
200902111715 METAR LMML 111715Z 29022G32KT 260V320 9999 SCT027 10/06 Q1012
                        NOSIG=
200902111700 METAR LMML NIL=
200902111645 METAR LMML 111645Z 29019KT 250V310 9999 FEW031 10/06 Q1012
                        NOSIG=
200902111630 METAR LMML NIL=
200902111615 METAR LMML 111615Z 28017KT 250V320 9999 SCT025 10/07 Q1012
                        TEMPO TSRA SCT015CB=
200902111600 METAR LMML NIL=
200902111545 METAR LMML 111545Z 28016G28KT 250V310 9999 FEW021 SCT039
                        BKN130 10/07 Q1012 TEMPO TSRA SCT015CB=
200902111533 SPECI LMML 111533Z 28016G28KT 250V310 8000 -SHRA FEW019 SCT035
                        BKN130 10/07 Q1012 TEMPO TSRA SCT015CB=
200902111530 METAR LMML NIL=
200902111515 METAR LMML 111515Z 28015KT 250V320 9999 -SHRA FEW024 SCT040
                        BKN130 09/07 Q1012 TEMPO TSRA SCT015CB=
200902111500 METAR LMML NIL=
200902111445 METAR LMML 111445Z 30015KT 8000 -SHRA FEW021TCU BKN034 11/07
                        Q1012 TEMPO 5000 SHRA BKN015TCU=
200902111430 METAR LMML NIL=
200902111415 METAR LMML 111415Z 28016KT 230V310 8000 -SHRA BKN038 SCT250
                        13/06 Q1011 TEMPO 5000 SHRA BKN015TCU=
200902111400 METAR LMML NIL=
200902111345 METAR LMML 111345Z 28021KT 9999 SCT036 SCT250 14/06 Q1011
                        NOSIG=
200902111330 METAR LMML NIL=
200902111315 METAR LMML 111315Z 28019KT 240V310 9999 SCT035 SCT250 14/07
                        Q1011 NOSIG=
200902111300 METAR LMML NIL=
200902111245 METAR LMML 111245Z 29020G31KT 260V330 9999 SCT035 BKN250
                        14/06 Q1012 NOSIG=
200902111230 METAR LMML NIL=
200902111215 METAR LMML 111215Z 29021KT 260V320 9999 SCT034 BKN250 14/07
                        Q1012 NOSIG=
200902111200 METAR LMML NIL=
200902111145 METAR LMML 111145Z 29024G36KT 9999 FEW034 BKN250 14/06 Q1012
                        NOSIG=
200902111130 METAR LMML NIL=
200902111115 METAR LMML 111115Z 29023KT 260V320 9999 FEW033 SCT250 14/07
                        Q1012 NOSIG=
200902111100 METAR LMML NIL=
200902111045 METAR LMML 111045Z 29022G32KT 260V330 9999 FEW029 15/08 Q1013
                        NOSIG=
200902111030 METAR LMML NIL=
200902111015 METAR LMML 111015Z 29021KT 250V320 9999 SCT027 15/09 Q1013
                        NOSIG=
200902111000 METAR LMML NIL=
200902110945 METAR LMML 110945Z 29021KT 240V320 9999 FEW032 15/09 Q1013
                        NOSIG=
200902110915 METAR LMML 110915Z 28019KT 9999 FEW024 SCT120 15/09 Q1013
                        NOSIG=
200902110900 METAR LMML NIL=
200902110845 METAR LMML 110845Z 29016KT 260V330 9999 FEW018 SCT090 14/10
                        Q1013 NOSIG=
200902110830 METAR LMML NIL=
200902110815 METAR LMML 110815Z 30019KT 270V330 9999 FEW018 BKN091 14/09
                        Q1013 NOSIG=
200902110800 METAR LMML NIL=
200902110745 METAR LMML 110745Z 29016KT 250V320 9999 FEW018 BKN093 14/10
                        Q1013 NOSIG=
200902110730 METAR LMML NIL=
200902110715 METAR LMML 110715Z 28015KT 250V310 9999 FEW018 BKN094 14/10
                        Q1013 NOSIG=
200902110700 METAR LMML NIL=
200902110645 METAR LMML 110645Z 28012KT 250V310 9999 FEW018 BKN092 13/11
                        Q1013 NOSIG=
200902110630 METAR LMML NIL=
200902110615 METAR LMML 110615Z 28011KT 250V310 9999 FEW019 SCT080 BKN250
                        13/11 Q1013 NOSIG=
200902110600 METAR LMML NIL=
200902110545 METAR LMML 110545Z 28008KT 240V300 9999 FEW022 SCT080 13/11
                        Q1013 NOSIG=
200902110530 METAR LMML NIL=
200902110515 METAR LMML 110515Z 28008KT 240V310 9999 FEW018 SCT080 13/11
                        Q1013 NOSIG=
200902110500 METAR LMML NIL=
200902110445 METAR LMML 110445Z 28007KT 250V330 9999 FEW018 SCT080 13/11
                        Q1013 NOSIG=
200902110430 METAR LMML NIL=
200902110415 METAR LMML 110415Z 28006KT 240V310 9999 FEW030 SCT250 13/11
                        Q1013 NOSIG=
200902110400 METAR LMML NIL=
200902110345 METAR LMML 110345Z 28007KT 250V320 9999 FEW030 SCT250 13/10
                        Q1013 NOSIG=
200902110330 METAR LMML NIL=
200902110315 METAR LMML 110315Z 27008KT 240V300 CAVOK 13/10 Q1013 NOSIG=
200902110300 METAR LMML NIL=
200902110245 METAR LMML 110245Z 26007KT 220V290 CAVOK 13/10 Q1014 NOSIG=
200902110230 METAR LMML NIL=
200902110215 METAR LMML 110215Z 25006KT 220V290 CAVOK 13/10 Q1014 NOSIG=
200902110200 METAR LMML NIL=
200902110145 METAR LMML 110145Z 26006KT 230V290 CAVOK 13/09 Q1014 NOSIG=
200902110130 METAR LMML NIL=
200902110115 METAR LMML 110115Z 27007KT 230V300 CAVOK 13/09 Q1015 NOSIG=
200902110100 METAR LMML NIL=
200902110045 METAR LMML 110045Z 28008KT 240V310 CAVOK 14/09 Q1015 NOSIG=
200902110030 METAR LMML NIL=
200902110015 METAR LMML 110015Z 25008KT 210V280 CAVOK 13/10 Q1015 NOSIG=
200902110000 METAR LMML NIL=
200902102345 METAR LMML 102345Z 25007KT 210V300 CAVOK 13/10 Q1015 NOSIG=
200902102330 METAR LMML NIL=
200902102315 METAR LMML 102315Z 24007KT 210V290 CAVOK 13/11 Q1016 NOSIG=
200902102300 METAR LMML NIL=
200902102245 METAR LMML 102245Z 25007KT 210V280 CAVOK 13/11 Q1016 NOSIG=
200902102230 METAR LMML NIL=
200902102215 METAR LMML 102215Z 24007KT 210V290 CAVOK 13/11 Q1016 NOSIG=
200902102200 METAR LMML NIL=
200902102145 METAR LMML 102145Z 25006KT 210V290 9999 FEW042 SCT250 13/10
                        Q1017 NOSIG=
200902102130 METAR LMML NIL=
200902102115 METAR LMML 102115Z 29009KT 9999 FEW040 SCT250 13/11 Q1017
                        NOSIG=
200902102100 METAR LMML NIL=
200902102045 METAR LMML 102045Z 29009KT 9999 FEW015 SCT250 13/11 Q1017
                        NOSIG=
200902102030 METAR LMML NIL=
200902102015 METAR LMML 102015Z 27005KT 240V300 9999 FEW015 SCT250 13/11
                        Q1017 NOSIG=
200902102000 METAR LMML NIL=
200902101945 METAR LMML 101945Z 26005KT 230V290 9999 FEW015 SCT250 13/11
                        Q1017 NOSIG=
200902101930 METAR LMML NIL=
200902101915 METAR LMML 101915Z 25006KT 220V280 9999 FEW015 SCT250 13/11
                        Q1017 NOSIG=
200902101900 METAR LMML NIL=
200902101845 METAR LMML 101845Z 25007KT 210V280 9999 FEW015 SCT250 13/11
                        Q1017 NOSIG=
200902101815 METAR LMML 101815Z 25007KT 220V280 9999 FEW015 SCT250 13/11
                        Q1017 NOSIG=
200902101800 METAR LMML NIL=
200902101745 METAR LMML 101745Z 25008KT 220V280 9999 FEW014 SCT250 13/11
                        Q1017 NOSIG=
200902101730 METAR LMML NIL=
200902101715 METAR LMML 101715Z 25010KT 220V280 9999 FEW014 BKN250 13/11
                        Q1017 NOSIG=
200902101700 METAR LMML NIL=
200902101645 METAR LMML 101645Z 24011KT 210V280 9999 FEW014 BKN250 14/11
                        Q1017 NOSIG=
200902101630 METAR LMML NIL=
200902101615 METAR LMML 101615Z 24011KT 200V300 9999 FEW020 BKN250 14/11
                        Q1017 NOSIG=
200902101600 METAR LMML NIL=
200902101545 METAR LMML 101545Z 24012KT 200V290 9999 FEW020 BKN250 15/11
                        Q1017 NOSIG=
200902101530 METAR LMML NIL=
200902101515 METAR LMML 101515Z 24014KT 190V270 9999 FEW020 BKN250 15/11
                        Q1017 NOSIG=
200902101500 METAR LMML NIL=
200902101445 METAR LMML 101445Z 24011KT 200V290 9999 FEW020 BKN250 15/12
                        Q1017 NOSIG=
200902101430 METAR LMML NIL=
200902101415 METAR LMML 101415Z 25013KT 220V280 CAVOK 16/11 Q1017 NOSIG=
200902101400 METAR LMML NIL=
200902101345 METAR LMML 101345Z 25012KT 200V280 9999 FEW020 BKN250 16/12
                        Q1017 NOSIG=
200902101330 METAR LMML NIL=
200902101315 METAR LMML 101315Z 24011KT 190V280 9999 FEW020 BKN250 16/12
                        Q1018 NOSIG=
200902101300 METAR LMML NIL=
200902101245 METAR LMML 101245Z 24010KT 200V280 9999 FEW020 BKN250 16/12
                        Q1018 NOSIG=
200902101230 METAR LMML NIL=
200902101215 METAR LMML 101215Z 23011KT 200V290 9999 FEW020 BKN250 16/12
                        Q1018 NOSIG=
200902101200 METAR LMML NIL=
200902101145 METAR LMML 101145Z 23012KT 190V280 9999 FEW020 BKN250 16/12
                        Q1019 NOSIG=
200902101130 METAR LMML NIL=
200902101115 METAR LMML 101115Z 23012KT 200V280 9999 FEW020 BKN250 16/11
                        Q1019 NOSIG=
200902101100 METAR LMML NIL=
200902101045 METAR LMML 101045Z 25011KT 210V280 9999 FEW020 BKN250 16/11
                        Q1020 NOSIG=
200902101015 METAR LMML 101015Z 24011KT 200V280 9999 FEW020 BKN250 16/11
                        Q1020 NOSIG=
200902101000 METAR LMML NIL=
200902100945 METAR LMML 100945Z 25011KT 200V290 9999 FEW016 BKN250 16/12
                        Q1021 NOSIG=
200902100915 METAR LMML 100915Z 26011KT 220V300 9999 FEW019 BKN250 15/11
                        Q1021 NOSIG=
200902100900 METAR LMML NIL=
200902100845 METAR LMML 100845Z 27010KT 220V310 9999 FEW022 BKN250 15/11
                        Q1021 NOSIG=
200902100830 METAR LMML NIL=
200902100815 METAR LMML 100815Z 28008KT 240V320 9999 FEW021 BKN250 15/11
                        Q1021 NOSIG=
200902100800 METAR LMML NIL=
200902100745 METAR LMML 100745Z 27010KT 240V310 9999 FEW021 BKN250 14/11
                        Q1020 NOSIG=
200902100730 METAR LMML NIL=
200902100715 METAR LMML 100715Z 27009KT 240V310 9999 FEW019 BKN250 13/11
                        Q1020 NOSIG=
200902100700 METAR LMML NIL=
200902100645 METAR LMML 100645Z 27008KT 240V300 9999 FEW018 BKN250 13/10
                        Q1020 NOSIG=
200902100630 METAR LMML NIL=
200902100615 METAR LMML 100615Z 28010KT 240V310 9999 FEW018 SCT035 13/11
                        Q1020 NOSIG=
200902100545 METAR LMML 100545Z 27007KT 240V310 9999 FEW022 SCT036 13/11
                        Q1019 NOSIG=
200902100515 METAR LMML 100515Z 28009KT 250V310 9999 FEW018 SCT250 12/10
                        Q1019 NOSIG=
200902100500 METAR LMML NIL=
200902100445 METAR LMML 100445Z 28010KT 250V320 9999 SCT017 SCT250 13/10
                        Q1019 NOSIG=
200902100430 METAR LMML NIL=
200902100415 METAR LMML 100415Z 30008KT 270V330 9999 FEW016 SCT250 12/10
                        Q1019 NOSIG=
200902100400 METAR LMML NIL=
200902100345 METAR LMML 100345Z 28005KT 240V310 9999 FEW022 SCT046 BKN250
                        12/09 Q1019 NOSIG=
200902100330 METAR LMML NIL=
200902100315 METAR LMML 100315Z 29005KT 9999 FEW026 SCT046 BKN250 12/08
                        Q1019 NOSIG=
200902100300 METAR LMML NIL=
200902100245 METAR LMML 100245Z 30008KT 9999 FEW031 SCT250 12/08 Q1019
                        NOSIG=
200902100230 METAR LMML NIL=
200902100215 METAR LMML 100215Z 29006KT 250V320 9999 FEW025 SCT250 11/09
                        Q1019 NOSIG=
200902100200 METAR LMML NIL=
200902100145 METAR LMML 100145Z 30007KT 280V340 9999 FEW025 11/08 Q1019
                        NOSIG=
200902100130 METAR LMML NIL=
200902100115 METAR LMML 100115Z 30008KT 9999 FEW026 11/08 Q1019 NOSIG=
200902100100 METAR LMML NIL=
200902100045 METAR LMML 100045Z 29006KT 9999 FEW023 BKN040 12/09 Q1019
                        NOSIG=
200902100030 METAR LMML NIL=
200902100015 METAR LMML 100015Z 30005KT 270V330 9999 SCT023 BKN040 12/09
                        Q1019 NOSIG=
200902100000 METAR LMML NIL=
200902092345 METAR LMML 092345Z 28004KT 250V310 9999 FEW024 BKN040 11/08
                        Q1019 NOSIG=
200902092330 METAR LMML NIL=
200902092315 METAR LMML 092315Z 30008KT 9999 FEW031 11/07 Q1019 NOSIG=
200902092300 METAR LMML NIL=
200902092245 METAR LMML 092245Z 31006KT 9999 FEW031 10/07 Q1019 NOSIG=
200902092230 METAR LMML NIL=
200902092215 METAR LMML 092215Z 30008KT 270V330 9999 FEW035 11/07 Q1019
                        NOSIG=
200902092200 METAR LMML NIL=
200902092145 METAR LMML 092145Z 30008KT 270V330 CAVOK 11/07 Q1019 NOSIG=
200902092130 METAR LMML NIL=
200902092115 METAR LMML 092115Z 29011KT CAVOK 11/06 Q1018 NOSIG=
200902092100 METAR LMML NIL=
200902092045 METAR LMML 092045Z 31015KT 270V330 9999 FEW035 11/06 Q1018
                        NOSIG=
200902092030 METAR LMML NIL=
200902092015 METAR LMML 092015Z 30017KT 280V340 9999 FEW035 12/06 Q1018
                        NOSIG=
200902092000 LMML NIL=
200902091930 METAR LMML NIL=
200902091915 METAR LMML 091915Z 31014KT 9999 FEW035 11/05 Q1017 NOSIG=
200902091900 METAR LMML NIL=
200902091845 METAR LMML 091845Z 31017KT 9999 FEW035 11/05 Q1016 NOSIG=
200902091830 METAR LMML NIL=
200902091815 METAR LMML 091815Z 31014KT 9999 FEW038 11/06 Q1016 NOSIG=
200902091800 METAR LMML NIL=
200902091745 METAR LMML 091745Z 32016KT 9999 SCT038 11/06 Q1016 NOSIG=
200902091730 METAR LMML NIL=
200902091715 METAR LMML 091715Z 31014KT 9999 SCT035 11/06 Q1015 NOSIG=
200902091700 METAR LMML NIL=
200902091645 METAR LMML 091645Z 31018KT 9999 SCT043 12/05 Q1015 NOSIG=
200902091630 METAR LMML NIL=
200902091615 METAR LMML 091615Z 30020KT 270V330 9999 SCT042 12/04 Q1014
                        NOSIG=
200902091600 METAR LMML NIL=
200902091545 METAR LMML 091545Z 31019KT 9999 SCT039 SCT050 12/05 Q1014
                        NOSIG=
200902091530 METAR LMML NIL=
200902091515 METAR LMML 091515Z 32019KT 9999 SCT038 SCT050 12/05 Q1014
                        NOSIG=
200902091500 METAR LMML NIL=
200902091445 METAR LMML 091445Z 30019KT 9999 SCT040 13/05 Q1013 NOSIG=
200902091430 METAR LMML NIL=
200902091415 METAR LMML 091415Z 31019KT 9999 SCT040 13/05 Q1013 NOSIG=
200902091400 METAR LMML NIL=
200902091345 METAR LMML 091345Z 31022G33KT 9999 SCT038 13/05 Q1013 NOSIG=
200902091330 METAR LMML NIL=
200902091315 METAR LMML 091315Z 30021KT 9999 SCT038 13/05 Q1012 NOSIG=
200902091300 METAR LMML NIL=
200902091245 METAR LMML 091245Z 30014G27KT 250V340 9999 SCT036 SCT060
                        12/05 Q1013 TEMPO 8000 SHRA=
200902091230 METAR LMML NIL=
200902091215 METAR LMML 091215Z 29017KT 260V330 9999 SCT036 SCT048 12/08
                        Q1013 TEMPO 8000 SHRA=
200902091200 METAR LMML NIL=
200902091145 METAR LMML 091145Z 30020KT 280V340 9999 SCT035 SCT050 13/07
                        Q1013 TEMPO 7000 SHGR=
200902091130 METAR LMML NIL=
200902091115 METAR LMML 091115Z 30019KT 250V330 9999 SCT030 SCT050 12/07
                        Q1013 TEMPO 7000 SHGR=
200902091100 METAR LMML NIL=
200902091045 METAR LMML 091045Z 29015KT 250V320 9999 BKN034 SCT060 11/07
                        Q1013 TEMPO 7000 SHGR=
200902091030 METAR LMML NIL=
200902091015 METAR LMML 091015Z 31020KT 9999 -SHRA BKN038 11/07 Q1013
                        TEMPO 7000 SHGR=
200902091000 METAR LMML NIL=
200902090945 METAR LMML 090945Z 31022KT 290V350 9999 SCT035 12/06 Q1013
                        TEMPO 6000 SHGR BKN015=
200902090930 METAR LMML NIL=
200902090915 METAR LMML 090915Z 29027G40KT 260V320 9999 SCT030TCU SCT080
                        11/06 Q1013 TEMPO 6000 SHGR BKN015=
200902090845 METAR LMML 090845Z 30023KT 9999 SCT030TCU 12/06 Q1012 TEMPO
                        6000 SHGR BKN015=
200902090830 METAR LMML NIL=
200902090815 METAR LMML 090815Z 29023KT 260V320 9999 SCT030 11/06 Q1011
                        TEMPO 7000 SHRA BKN015=
200902090800 METAR LMML NIL=
200902090745 METAR LMML 090745Z 29020KT 250V320 9999 SCT030 11/05 Q1011
                        TEMPO 7000 SHRA BKN015 RMK CB TOPS
                        TO NNE=
200902090730 METAR LMML NIL=
200902090715 METAR LMML 090715Z 30019KT 9999 BKN028 11/05 Q1011 TEMPO
                        7000 SHRA BKN015=
200902090700 METAR LMML NIL=
200902090645 METAR LMML 090645Z 30014KT 9999 BKN028 SCT060 09/06 Q1010
                        TEMPO 5000 SHGS BKN015=
200902090630 METAR LMML NIL=
200902090615 METAR LMML 090615Z 28021G33KT 250V310 9999 BKN032 SCT048
                        10/05 Q1010 TEMPO 5000 SHGS BKN015=
200902090600 METAR LMML NIL=
200902090545 METAR LMML 090545Z 29019G33KT 250V320 9999 SCT031 09/05 Q1009
                        TEMPO 5000 SHGS BKN018=
200902090530 METAR LMML NIL=
200902090530 SPECI LMML 090530Z 30017KT 270V330 9999 -SHRA SCT030 SCT060
                        08/05 Q1009 TEMPO 5000 SHGS BKN018=
200902090515 METAR LMML 090515Z 29021G32KT 260V320 9999 -SHRA SCT029 SCT060
                        09/05 Q1009 TEMPO 5000 SHGS BKN018=
200902090500 METAR LMML NIL=
200902090445 METAR LMML 090445Z 29017KT 9999 SCT033 SCT060 08/05 Q1009
                        TEMPO 5000 SHGS BKN018=
200902090430 METAR LMML NIL=
200902090415 METAR LMML 090415Z 30018G30KT 250V340 9999 SCT021 SCT070
                        08/06 Q1009 TEMPO 5000 SHGS BKN018=
200902090400 METAR LMML NIL=
200902090345 METAR LMML 090345Z 29014G30KT 230V330 6000 -RA SCT021 BKN036
                        SCT032 08/06 Q1010 TEMPO 5000 SHGS
                        BKN018=
200902090330 METAR LMML NIL=
200902090315 METAR LMML 090315Z 29019G32KT 260V320 9999 -SHRA BKN029 SCT070
                        09/04 Q1008 TEMPO 8000 SHGS BKN018=
200902090300 METAR LMML NIL=
200902090245 METAR LMML 090245Z 29014KT 9999 BKN032 FEW060 09/05 Q1009
                        TEMPO 8000 SHGS BKN018=
200902090230 METAR LMML NIL=
200902090215 METAR LMML 090215Z 29014KT 250V320 9000 BKN029 SCT070 09/06
                        Q1009 TEMPO 8000 SHGS BKN018=
200902090200 METAR LMML NIL=
200902090145 METAR LMML 090145Z 30019G32KT 270V330 9000 SCT026 SCT050
                        BKN070 09/06 Q1009 TEMPO 8000 SHGS
                        BKN018=
200902090130 METAR LMML NIL=
200902090115 METAR LMML 090115Z 33006KT 280V010 6000 -SHRA SCT025 SCT047
                        BKN070 08/06 Q1008 TEMPO 8000 SHGS
                        BKN018=
200902090100 METAR LMML NIL=
200902090045 METAR LMML 090045Z 32012G22KT 290V350 9000 -SHRA SCT026 SCT039
                        BKN070 08/05 Q1008 TEMPO 8000 SHRA
                        BKN018=
200902090030 METAR LMML NIL=
200902090015 METAR LMML 090015Z 30010KT 260V320 9999 SCT028 SCT036 BKN060
                        09/05 Q1008 TEMPO 8000 SHRA BKN018=
200902090000 METAR LMML NIL=
200902082345 METAR LMML 082345Z 29008KT 250V310 9999 FEW020 BKN100 08/04
                        Q1008 RESHRA NOSIG=
200902082330 METAR LMML NIL=
200902082315 METAR LMML 082315Z 31013KT 9999 SCT018 SCT033 BKN060 08/05
                        Q1008 RESHRA TEMPO 8000 SHGR BKN018=
200902082300 METAR LMML NIL=
200902082245 METAR LMML 082245Z 29013KT 9999 -SHRA FEW032 SCT044 BKN060
                        08/04 Q1008 TEMPO 8000 SHGR BKN018=
200902082230 METAR LMML NIL=
200902082215 METAR LMML 082215Z 29013KT 260V320 9999 FEW028 SCT060 BKN100
                        09/05 Q1008 TEMPO 8000 SHGR BKN018=
200902082200 METAR LMML NIL=
200902082145 METAR LMML 082145Z 30010KT 9999 FEW028 SCT060 08/05 Q1007
                        TEMPO 8000 SHGR BKN018=
200902082130 METAR LMML NIL=
200902082115 METAR LMML 082115Z 30010KT 9999 FEW034 SCT120 08/05 Q1007
                        TEMPO 4000 TSGR BKN018CB=
200902082100 METAR LMML NIL=
200902082045 METAR LMML 082045Z 31013KT 9999 SCT034 BKN120 08/06 Q1007
                        RETSGS TEMPO 4000 TSGR BKN018CB=
200902082030 METAR LMML NIL=
200902082015 METAR LMML 082015Z 28016G32KT 210V340 9999 -TSRA FEW020CB
                        SCT026 BKN040 08/05 Q1006 TEMPO 4000
                        TSGR BKN018CB=
200902082004 SPECI LMML 082004Z 26009G27KT 210V300 9000 TSGS FEW020CB
                        BKN026 08/06 Q1006 TEMPO 4000 TSGR
                        BKN018CB=
200902082000 METAR LMML NIL=
200902082000 SPECI LMML 082000Z 27007KT 230V310 9000 -TSRA FEW020CB BKN026
                        08/05 Q1006 TEMPO 4000 TSGR BKN018CB=
200902081945 METAR LMML 081945Z 26014KT 210V300 9999 -SHRA BKN025 09/06
                        Q1006 RETS TEMPO 4000 TSGR BKN018CB
                        RMK DISTANT LIGHTNING TO SE=
200902081930 METAR LMML NIL=
200902081915 METAR LMML 081915Z 28018G28KT 240V310 9999 -TSRA FEW020CB
                        BKN026TCU 09/05 Q1006 TEMPO 4000
                        TSGR BKN018CB=
200902081900 METAR LMML NIL=
200902081845 METAR LMML 081845Z 27010KT 230V300 9999 FEW030 BKN250 09/05
                        Q1005 TEMPO 4000 SHRA BKN020TCU=
200902081815 METAR LMML 081815Z 28010KT 250V310 9999 FEW030 SCT090 BKN250
                        09/05 Q1005 TEMPO 4000 SHRA BKN020TCU=
200902081800 METAR LMML NIL=
200902081745 METAR LMML 081745Z 28017G27KT 250V310 7000 -SHRA BKN027 10/06
                        Q1005 NOSIG=
200902081730 METAR LMML NIL=
200902081715 METAR LMML 081715Z 27013KT 9999 SCT040 11/03 Q1004 NOSIG=
200902081700 METAR LMML NIL=
200902081645 METAR LMML 081645Z 27013KT 240V310 9999 FEW040 11/02 Q1004
                        NOSIG=
200902081630 METAR LMML NIL=
200902081615 METAR LMML 081615Z 28014KT 9999 FEW040 11/03 Q1004 NOSIG=
200902081600 METAR LMML NIL=
200902081545 METAR LMML 081545Z 27018KT 240V310 9999 SCT043 12/02 Q1004
                        NOSIG=
200902081530 METAR LMML NIL=
200902081515 METAR LMML 081515Z 26015KT 220V290 9999 SCT044 12/03 Q1003
                        NOSIG=
200902081500 METAR LMML NIL=
200902081445 METAR LMML 081445Z 27014KT 230V320 9999 SCT048 SCT250 12/03
                        Q1003 NOSIG=
200902081430 METAR LMML NIL=
200902081415 METAR LMML 081415Z 26016KT 220V290 9999 SCT043 BKN250 13/02
                        Q1003 NOSIG=
200902081400 METAR LMML NIL=
200902081345 METAR LMML 081345Z 26012KT 200V300 9999 SCT041 BKN250 13/05
                        Q1003 NOSIG=
200902081330 METAR LMML NIL=
200902081315 METAR LMML 081315Z 25014KT 200V290 9999 SCT042 BKN250 13/04
                        Q1003 NOSIG=
200902081300 METAR LMML NIL=
200902081245 METAR LMML 081245Z 25013KT 200V280 9999 SCT041 SCT250 13/05
                        Q1003 NOSIG=
200902081230 METAR LMML NIL=
200902081215 METAR LMML 081215Z 25014KT 200V290 9999 SCT044 SCT250 14/05
                        Q1003 NOSIG=
200902081200 METAR LMML NIL=
200902081145 METAR LMML 081145Z 25014KT 210V300 9999 SCT045 14/04 Q1003
                        NOSIG=
200902081130 METAR LMML NIL=
200902081115 METAR LMML 081115Z 26012KT 210V310 9999 SCT044 14/05 Q1003
                        NOSIG=
200902081100 METAR LMML NIL=
200902081045 METAR LMML 081045Z 25013KT 190V290 9999 SCT046 13/05 Q1004
                        NOSIG=
200902081030 METAR LMML NIL=
200902081015 METAR LMML 081015Z 25015KT 210V300 9999 FEW040 14/04 Q1004
                        NOSIG=
200902081000 METAR LMML NIL=
200902080945 METAR LMML 080945Z 25014G24KT 200V290 9999 FEW040 13/05 Q1004
                        NOSIG=
200902080930 METAR LMML NIL=
200902080915 METAR LMML 080915Z 25014KT 220V290 9999 FEW040 13/05 Q1004
                        NOSIG=
200902080900 METAR LMML NIL=
200902080845 METAR LMML 080845Z 26012KT 210V290 9999 SCT041 12/05 Q1003
                        NOSIG=
200902080830 METAR LMML NIL=
200902080815 METAR LMML 080815Z 25009KT 210V290 9999 -SHRA SCT039 SCT070
                        11/06 Q1003 NOSIG=
200902080800 METAR LMML NIL=
200902080745 METAR LMML 080745Z 25012KT 210V280 9999 BKN040 SCT050 12/05
                        Q1003 NOSIG=
200902080730 METAR LMML NIL=
200902080715 METAR LMML 080715Z 25009KT 200V300 9999 SCT034 13/05 Q1003
                        NOSIG=
200902080700 METAR LMML NIL=
200902080645 METAR LMML 080645Z 25008KT 210V290 9999 SCT034 12/05 Q1002
                        NOSIG=
200902080630 METAR LMML NIL=
200902080615 METAR LMML 080615Z 26009KT 220V290 9999 SCT041 11/05 Q1002
                        NOSIG=
200902080600 METAR LMML NIL=
200902080545 METAR LMML 080545Z 26010KT 220V290 9999 SCT043 11/04 Q1002
                        NOSIG=
200902080530 METAR LMML NIL=
200902080515 METAR LMML 080515Z 26012KT 220V290 9999 SCT040 12/04 Q1002
                        NOSIG=
200902080500 METAR LMML NIL=
200902080445 METAR LMML 080445Z 27012KT 230V310 9999 SCT042 12/05 Q1002
                        NOSIG=
200902080430 METAR LMML NIL=
200902080415 METAR LMML 080415Z 27005KT 250V310 9999 SCT042 11/06 Q1002
                        NOSIG=
200902080400 METAR LMML NIL=
200902080345 METAR LMML 080345Z 28009KT 250V310 9999 SCT043 11/06 Q1002
                        NOSIG=
200902080330 METAR LMML NIL=
200902080315 METAR LMML 080315Z 29016KT 9999 SCT039 11/06 Q1002 NOSIG=
200902080300 METAR LMML NIL=
200902080245 METAR LMML 080245Z 27010KT 240V300 9999 SCT038 12/04 Q1001
                        NOSIG=
200902080230 LMML NIL=
200902080215 METAR LMML 080215Z 27014KT 230V310 9999 FEW038 12/04 Q1002
                        NOSIG=
200902080200 METAR LMML NIL=
200902080145 METAR LMML 080145Z 27010KT 230V310 9999 FEW032 12/06 Q1001
                        NOSIG=
200902080130 METAR LMML NIL=
200902080115 METAR LMML 080115Z 27009KT 240V300 9999 FEW030 11/08 Q1001
                        NOSIG=
200902080100 METAR LMML NIL=
200902080045 METAR LMML 080045Z VRB03KT 9999 FEW034 10/07 Q1001 NOSIG=
200902080030 METAR LMML NIL=
200902080015 METAR LMML 080015Z VRB03KT 9999 FEW034 SCT050 10/08 Q1001
                        NOSIG=
200902080000 METAR LMML NIL=
200902072345 METAR LMML 072345Z 31011KT 9999 FEW021 SCT042 12/08 Q1001
                        NOSIG=
200902072330 METAR LMML NIL=
200902072315 METAR LMML 072315Z 25010KT 200V290 9999 SCT029 SCT040 13/08
                        Q1001 NOSIG=
200902072300 METAR LMML NIL=
200902072245 METAR LMML 072245Z 24010KT 200V280 9999 SCT026 SCT034 13/09
                        Q1002 NOSIG=
200902072230 METAR LMML NIL=
200902072215 METAR LMML 072215Z 23009KT 190V280 9999 SCT021 SCT035 12/09
                        Q1002 NOSIG=
200902072200 METAR LMML NIL=
200902072145 METAR LMML 072145Z 25006KT 210V280 9999 SHRA BKN019 SCT080
                        12/10 Q1002 NOSIG=
200902072130 METAR LMML NIL=
200902072115 METAR LMML 072115Z 24005KT 190V300 9999 BKN021 SCT080 12/10
                        Q1002 NOSIG=
200902072100 LMML NIL=
200902072045 LMML 072045Z VRB03KT 9999 SCT021 SCT080 11/09 Q1002 NOSIG=
200902072030 METAR LMML NIL=
200902072015 METAR LMML 072015Z 26006KT 230V290 9999 FEW020 11/09 Q1001
                        NOSIG=
200902072000 METAR LMML NIL=
200902071945 METAR LMML 071945Z 25005KT 220V280 9999 FEW020 11/09 Q1001
                        NOSIG=
200902071930 METAR LMML NIL=
200902071915 METAR LMML 071915Z 29010KT 9999 FEW020 12/09 Q1001 NOSIG=
200902071900 METAR LMML NIL=
200902071845 METAR LMML 071845Z 29008KT 260V330 9999 FEW020 12/10 Q1001
                        BECMG 9999=
200902071830 METAR LMML NIL=
200902071815 METAR LMML 071815Z 30009KT 270V330 7000 FEW014 12/10 Q1001
                        NOSIG=
200902071800 METAR LMML NIL=
200902071745 METAR LMML 071745Z 29010KT 270V330 7000 FEW013 13/10 Q1000
                        NOSIG=
200902071730 METAR LMML NIL=
200902071715 METAR LMML 071715Z 30012KT 7000 FEW013 SCT250 13/11 Q0999
                        NOSIG=
200902071700 METAR LMML NIL=
200902071645 METAR LMML 071645Z 26014KT 230V300 7000 FEW025 SCT250 14/10
                        Q0999 NOSIG=
200902071630 METAR LMML NIL=
200902071615 METAR LMML 071615Z 25015KT 210V290 8000 FEW025 SCT250 14/10
                        Q0999 NOSIG=
200902071600 METAR LMML NIL=
200902071545 METAR LMML 071545Z 25014G24KT 210V290 8000 FEW028 SCT250
                        15/10 Q0998 NOSIG RMK DUST HAZE=
200902071530 METAR LMML NIL=
200902071515 METAR LMML 071515Z 24014KT 190V290 8000 SCT250 15/10 Q0998
                        NOSIG RMK DUST HAZE=
200902071500 METAR LMML NIL=
200902071445 METAR LMML 071445Z 23017G28KT 200V270 8000 SCT250 16/09 Q0998
                        NOSIG RMK DUST HAZE=
200902071430 METAR LMML NIL=
200902071415 METAR LMML 071415Z 23016G27KT 200V290 9000 FEW250 17/10 Q0998
                        NOSIG RMK DUST HAZE=
200902071400 METAR LMML NIL=
200902071345 METAR LMML 071345Z 23017G29KT 200V270 CAVOK 17/10 Q0998 NOSIG=
200902071330 METAR LMML NIL=
200902071315 METAR LMML 071315Z 22014KT 190V260 CAVOK 18/11 Q0998 NOSIG=
200902071300 METAR LMML NIL=
200902071245 METAR LMML 071245Z 22013KT 190V280 CAVOK 17/11 Q0998 NOSIG=
200902071230 METAR LMML NIL=
200902071215 METAR LMML 071215Z 21012KT 180V280 CAVOK 18/12 Q0998 NOSIG=
200902071200 METAR LMML NIL=
200902071145 METAR LMML 071145Z 20013KT 170V240 CAVOK 18/11 Q0999 NOSIG=
200902071130 METAR LMML NIL=
200902071115 METAR LMML 071115Z 20010KT 170V260 CAVOK 18/11 Q0999 NOSIG=
200902071100 METAR LMML NIL=
200902071045 METAR LMML 071045Z 20011KT 170V260 CAVOK 18/11 Q1000 NOSIG=
200902071030 METAR LMML NIL=
200902071015 METAR LMML 071015Z 21011KT 170V270 9000 FEW120 18/12 Q1000
                        NOSIG=
200902071000 METAR LMML NIL=
200902070945 METAR LMML 070945Z 21010KT 170V250 9000 SKC 18/13 Q1001 NOSIG=
200902070930 METAR LMML NIL=
200902070915 METAR LMML 070915Z 20010KT 170V240 9000 SKC 18/12 Q1000 NOSIG=
200902070900 METAR LMML NIL=
200902070845 METAR LMML 070845Z 20008KT 160V240 8000 SKC 17/13 Q1000 NOSIG=
200902070830 METAR LMML NIL=
200902070815 METAR LMML 070815Z 20009KT 170V240 8000 SKC 17/13 Q1000 NOSIG=
200902070800 METAR LMML NIL=
200902070745 METAR LMML 070745Z 20008KT 160V240 7000 SKC 16/14 Q1001 NOSIG=
200902070730 METAR LMML NIL=
200902070715 METAR LMML 070715Z 20010KT 170V240 7000 SKC 16/14 Q1001 NOSIG=
200902070700 METAR LMML NIL=
200902070645 METAR LMML 070645Z 20008KT 160V240 6000 FEW250 15/13 Q1001
                        NOSIG=
200902070630 METAR LMML NIL=
200902070615 METAR LMML 070615Z 19009KT 160V240 6000 FEW250 15/13 Q1001
                        NOSIG=
200902070600 METAR LMML NIL=
200902070545 METAR LMML 070545Z 19009KT 160V220 7000 FEW250 15/13 Q1001
                        NOSIG=
200902070530 METAR LMML NIL=
200902070515 METAR LMML 070515Z 18010KT 150V220 7000 FEW250 15/13 Q1001
                        NOSIG=
200902070500 METAR LMML NIL=
200902070445 METAR LMML 070445Z 19009KT 140V220 7000 SKC 15/12 Q1001 NOSIG=
200902070430 METAR LMML NIL=
200902070415 METAR LMML 070415Z 18011KT 160V220 7000 SKC 15/12 Q1002 NOSIG=
200902070400 METAR LMML NIL=
200902070345 METAR LMML 070345Z 19012KT 150V210 7000 SKC 15/12 Q1002 NOSIG=
200902070330 METAR LMML NIL=
200902070315 METAR LMML 070315Z 18011KT 150V210 7000 SKC 15/11 Q1002 NOSIG=
200902070300 METAR LMML NIL=
200902070245 METAR LMML 070245Z 18009KT 150V210 7000 SKC 14/12 Q1003 NOSIG=
200902070230 METAR LMML NIL=
200902070215 METAR LMML 070215Z 18010KT 150V210 7000 SKC 15/12 Q1003 NOSIG=
200902070200 METAR LMML NIL=
200902070145 METAR LMML 070145Z 18010KT 150V210 7000 FEW250 15/12 Q1004
                        NOSIG=
200902070130 METAR LMML NIL=
200902070115 METAR LMML 070115Z 18008KT 150V210 7000 FEW250 15/12 Q1004
                        NOSIG=
200902070045 METAR LMML 070045Z 19006KT 7000 FEW250 14/11 Q1005 NOSIG=
200902070030 METAR LMML NIL=
200902070015 METAR LMML 070015Z 19009KT 160V220 7000 FEW250 14/12 Q1005
                        NOSIG=
200902070000 METAR LMML NIL=
200902062345 METAR LMML 062345Z 19009KT 7000 FEW250 14/11 Q1005 NOSIG=
200902062330 METAR LMML NIL=
200902062315 METAR LMML 062315Z 19009KT 5000 BR FEW250 14/12 Q1005 BECMG
                        7000=
200902062300 METAR LMML NIL=
200902062245 METAR LMML 062245Z 18010KT 5000 BR SKC 14/12 Q1005 BECMG
                        7000=
200902062230 METAR LMML NIL=
200902062215 METAR LMML 062215Z 19010KT 160V230 5000 BR SKC 14/12 Q1006
                        BECMG 7000=
200902062200 METAR LMML NIL=
200902062145 METAR LMML 062145Z 19010KT 160V220 5000 BR SCT250 14/12 Q1006
                        BECMG 7000=
200902062130 METAR LMML NIL=
200902062115 METAR LMML 062115Z 19009KT 160V220 5000 BR SCT250 14/13 Q1006
                        NOSIG=
200902062100 METAR LMML NIL=
200902062045 METAR LMML 062045Z 18007KT 150V210 5000 BR FEW009 14/13 Q1006
                        NOSIG=
200902062030 METAR LMML NIL=
200902062015 METAR LMML 062015Z 19007KT 160V220 5000 BR FEW009 14/13 Q1007
                        NOSIG=
200902062000 METAR LMML NIL=
200902061945 METAR LMML 061945Z 17004KT 120V220 5000 BR FEW020 13/12 Q1007
                        NOSIG=
200902061930 METAR LMML NIL=
200902061915 METAR LMML 061915Z 19006KT 160V230 5000 BR SKC 14/12 Q1007
                        NOSIG=
200902061900 METAR LMML NIL=
200902061845 METAR LMML 061845Z 17004KT 120V200 5000 BR FEW250 13/12 Q1007
                        NOSIG=
200902061830 METAR LMML NIL=
200902061815 METAR LMML 061815Z VRB03KT 7000 SCT250 13/11 Q1007 NOSIG=
200902061800 METAR LMML NIL=
200902061745 METAR LMML 061745Z VRB02KT CAVOK 13/11 Q1007 NOSIG=
200902061730 METAR LMML NIL=
200902061715 METAR LMML 061715Z VRB02KT CAVOK 14/12 Q1007 NOSIG=
200902061700 METAR LMML NIL=
200902061645 METAR LMML 061645Z VRB01KT CAVOK 14/12 Q1007 NOSIG=
200902061630 METAR LMML NIL=
200902061615 METAR LMML 061615Z VRB01KT CAVOK 15/12 Q1007 BECMG 9000 NSC=
200902061600 METAR LMML NIL=
200902061545 METAR LMML 061545Z 24004KT 200V300 CAVOK 16/12 Q1007 BECMG
                        9000 NSC=
200902061530 METAR LMML NIL=
200902061515 METAR LMML 061515Z 25006KT 200V280 CAVOK 16/12 Q1007 NOSIG=
200902061500 METAR LMML NIL=
200902061445 METAR LMML 061445Z 25008KT 200V290 CAVOK 16/12 Q1007 NOSIG=
200902061430 METAR LMML NIL=
200902061415 METAR LMML 061415Z 27008KT 220V310 CAVOK 17/11 Q1007 NOSIG=
200902061400 METAR LMML NIL=
200902061345 METAR LMML 061345Z 26009KT 210V300 9999 FEW018 BKN250 16/12
                        Q1007 NOSIG=
200902061330 METAR LMML NIL=
200902061315 METAR LMML 061315Z 28010KT 9999 SCT018 BKN250 17/11 Q1007
                        NOSIG=
200902061300 METAR LMML NIL=
200902061245 METAR LMML 061245Z 26013KT 210V310 9999 SCT018 BKN250 16/12
                        Q1008 NOSIG=
200902061230 METAR LMML NIL=
200902061215 METAR LMML 061215Z 27012KT 230V300 9999 FEW020 BKN250 17/11
                        Q1007 NOSIG=
200902061200 METAR LMML NIL=
200902061145 METAR LMML 061145Z 29011KT 240V330 9999 FEW020 BKN250 17/11
                        Q1007 NOSIG=
200902061130 METAR LMML NIL=
200902061115 METAR LMML 061115Z 29012KT 250V320 CAVOK 17/11 Q1008 NOSIG=
200902061100 METAR LMML NIL=
200902061045 METAR LMML 061045Z 29012KT 260V320 CAVOK 17/12 Q1008 NOSIG=
200902061030 METAR LMML NIL=
200902061015 METAR LMML 061015Z 29013KT 270V330 9000 BKN250 16/11 Q1008
                        BECMG CAVOK=
200902061000 METAR LMML NIL=
200902060945 METAR LMML 060945Z 28011KT 230V310 9000 SCT250 17/13 Q1007
                        BECMG CAVOK=
200902060915 METAR LMML 060915Z 27013KT 240V300 9000 SCT250 16/13 Q1007
                        BECMG CAVOK=
200902060900 METAR LMML NIL=
200902060845 METAR LMML 060845Z 27011KT 240V300 7000 FEW250 16/13 Q1006
                        BECMG CAVOK=
200902060830 METAR LMML NIL=
200902060815 METAR LMML 060815Z 26012KT 220V290 7000 FEW250 16/12 Q1006
                        BECMG CAVOK=
200902060800 METAR LMML NIL=
200902060745 METAR LMML 060745Z 25012KT 210V290 7000 FEW250 16/12 Q1006
                        BECMG 9000=
200902060730 METAR LMML NIL=
200902060715 METAR LMML 060715Z 24012KT 210V280 7000 SKC 16/12 Q1005 BECMG
                        9000=
200902060700 METAR LMML NIL=
200902060645 METAR LMML 060645Z 24011KT 210V280 7000 SKC 15/12 Q1005 BECMG
                        9000=
200902060630 METAR LMML NIL=
200902060615 METAR LMML 060615Z 23008KT 200V270 7000 SKC 15/12 Q1005 NOSIG=
200902060600 METAR LMML NIL=
200902060545 METAR LMML 060545Z 23007KT 200V270 7000 SKC 15/12 Q1005 NOSIG=
200902060530 METAR LMML NIL=
200902060515 METAR LMML 060515Z 22009KT 190V270 7000 FEW100 16/11 Q1005
                        NOSIG=
200902060500 METAR LMML NIL=
200902060445 METAR LMML 060445Z 21008KT 180V250 7000 SCT100 16/12 Q1005
                        NOSIG=
200902060430 METAR LMML NIL=
200902060415 METAR LMML 060415Z 22008KT 190V260 7000 SCT100 16/12 Q1005
                        NOSIG=
200902060400 METAR LMML NIL=
200902060345 METAR LMML 060345Z 23010KT 190V270 7000 SCT100 16/11 Q1005
                        NOSIG=
200902060330 METAR LMML NIL=
200902060315 METAR LMML 060315Z 21007KT 170V240 7000 SKC 15/13 Q1005 NOSIG=
200902060245 METAR LMML 060245Z 21008KT 180V250 7000 SKC 15/13 Q1005 NOSIG=
200902060230 METAR LMML NIL=
200902060215 METAR LMML 060215Z 20006KT 170V230 7000 SKC 15/14 Q1006 NOSIG=
200902060200 METAR LMML NIL=
200902060145 METAR LMML 060145Z 19005KT 7000 SKC 15/14 Q1006 NOSIG=
200902060115 METAR LMML 060115Z 17004KT 150V210 7000 SKC 15/14 Q1006 NOSIG=
200902060100 METAR LMML NIL=
200902060045 METAR LMML 060045Z 17006KT 140V200 7000 SKC 15/14 Q1007 NOSIG=
200902060030 METAR LMML NIL=
200902060015 METAR LMML 060015Z 16009KT CAVOK 15/14 Q1007 NOSIG=
200902060000 METAR LMML NIL=
200902052345 METAR LMML 052345Z 15008KT CAVOK 15/14 Q1007 NOSIG=
200902052330 METAR LMML NIL=
200902052315 METAR LMML 052315Z 15008KT 120V190 CAVOK 15/13 Q1008 NOSIG=
200902052300 METAR LMML NIL=
200902052245 METAR LMML 052245Z 15009KT CAVOK 15/13 Q1008 NOSIG=
200902052230 METAR LMML NIL=
200902052215 METAR LMML 052215Z 15009KT CAVOK 15/13 Q1009 NOSIG=
200902052200 METAR LMML NIL=
200902052145 METAR LMML 052145Z 15007KT 120V180 CAVOK 15/13 Q1009 NOSIG=
200902052130 METAR LMML NIL=
200902052115 METAR LMML 052115Z 15009KT CAVOK 15/13 Q1009 NOSIG=
200902052100 METAR LMML NIL=
200902052045 METAR LMML 052045Z 14008KT CAVOK 14/13 Q1009 NOSIG=
200902052030 METAR LMML NIL=
200902052015 METAR LMML 052015Z 14009KT CAVOK 14/14 Q1009 NOSIG=
200902052000 METAR LMML NIL=
200902051945 METAR LMML 051945Z 14009KT CAVOK 14/14 Q1009 NOSIG=
200902051930 METAR LMML NIL=
200902051915 METAR LMML 051915Z 15009KT CAVOK 14/14 Q1010 NOSIG=
200902051900 METAR LMML NIL=
200902051845 METAR LMML 051845Z 14008KT CAVOK 14/14 Q1010 NOSIG=
200902051830 METAR LMML NIL=
200902051815 METAR LMML 051815Z 14007KT CAVOK 14/14 Q1010 NOSIG=
200902051800 METAR LMML NIL=
200902051745 METAR LMML 051745Z 14006KT CAVOK 14/13 Q1010 NOSIG=
200902051730 METAR LMML NIL=
200902051715 METAR LMML 051715Z 14007KT CAVOK 15/13 Q1010 NOSIG=
200902051700 METAR LMML NIL=
200902051645 METAR LMML 051645Z 15007KT CAVOK 15/13 Q1010 NOSIG=
200902051630 METAR LMML NIL=
200902051615 METAR LMML 051615Z 16005KT 120V180 CAVOK 15/13 Q1011 NOSIG=
200902051600 METAR LMML NIL=
200902051545 METAR LMML 051545Z 16008KT CAVOK 16/13 Q1011 NOSIG=
200902051530 METAR LMML NIL=
200902051515 METAR LMML 051515Z 17007KT 130V200 CAVOK 17/12 Q1011 NOSIG=
200902051500 METAR LMML NIL=
200902051445 METAR LMML 051445Z 17006KT CAVOK 17/12 Q1011 NOSIG=
200902051430 METAR LMML NIL=
200902051415 METAR LMML 051415Z 17007KT 140V210 CAVOK 17/12 Q1011 NOSIG=
200902051400 METAR LMML NIL=
200902051345 METAR LMML 051345Z 16007KT 120V200 CAVOK 17/11 Q1011 NOSIG=
200902051330 METAR LMML NIL=
200902051315 METAR LMML 051315Z 18007KT 150V220 CAVOK 17/12 Q1012 NOSIG=
200902051300 METAR LMML NIL=
200902051245 METAR LMML 051245Z 18008KT 150V210 CAVOK 17/12 Q1012 NOSIG=
200902051230 METAR LMML NIL=
200902051215 METAR LMML 051215Z 18007KT 150V230 9999 FEW017 17/13 Q1012
                        NOSIG=
200902051200 METAR LMML NIL=
200902051145 METAR LMML 051145Z 18008KT 130V230 9999 FEW017 17/14 Q1013
                        NOSIG=
200902051130 METAR LMML NIL=
200902051115 METAR LMML 051115Z 18009KT 150V220 9999 FEW020 17/14 Q1013
                        NOSIG=
200902051100 METAR LMML NIL=
200902051045 METAR LMML 051045Z 18008KT 140V230 CAVOK 17/13 Q1014 NOSIG=
200902051030 METAR LMML NIL=
200902051015 METAR LMML 051015Z 19007KT 150V220 CAVOK 17/13 Q1014 NOSIG=
200902051000 METAR LMML NIL=
200902050945 METAR LMML 050945Z 18006KT 150V220 CAVOK 16/13 Q1014 NOSIG=
200902050930 METAR LMML NIL=
200902050915 METAR LMML 050915Z 17006KT 140V220 CAVOK 16/13 Q1014 NOSIG=
200902050845 METAR LMML 050845Z 18006KT 140V220 CAVOK 16/13 Q1014 NOSIG=
200902050830 METAR LMML NIL=
200902050815 METAR LMML 050815Z 19005KT 160V220 CAVOK 15/13 Q1014 NOSIG=
200902050800 METAR LMML NIL=
200902050745 METAR LMML 050745Z VRB03KT CAVOK 15/12 Q1014 NOSIG=
200902050730 LMML NIL=
200902050715 METAR LMML 050715Z VRB03KT CAVOK 14/12 Q1013 NOSIG=
200902050700 METAR LMML NIL=
200902050645 METAR LMML 050645Z VRB03KT CAVOK 12/11 Q1013 NOSIG RMK SMOKE
                        TO NORTH=
200902050630 METAR LMML NIL=
200902050615 METAR LMML 050615Z 21005KT CAVOK 11/10 Q1013 NOSIG=
200902050600 METAR LMML NIL=
200902050545 METAR LMML 050545Z VRB02KT CAVOK 10/09 Q1013 NOSIG=
200902050530 METAR LMML NIL=
200902050515 METAR LMML 050515Z VRB01KT CAVOK 11/10 Q1013 NOSIG=
200902050500 METAR LMML NIL=
200902050445 METAR LMML 050445Z VRB01KT CAVOK 11/10 Q1013 NOSIG=
200902050430 METAR LMML NIL=
200902050415 METAR LMML 050415Z VRB03KT CAVOK 11/10 Q1013 NOSIG=
200902050400 METAR LMML NIL=
200902050345 METAR LMML 050345Z VRB03KT CAVOK 11/10 Q1013 NOSIG=
200902050330 METAR LMML NIL=
200902050315 METAR LMML 050315Z VRB02KT CAVOK 11/10 Q1013 NOSIG=
200902050245 METAR LMML 050245Z VRB02KT CAVOK 11/09 Q1013 NOSIG=
200902050230 METAR LMML NIL=
200902050215 METAR LMML 050215Z VRB03KT CAVOK 10/09 Q1013 NOSIG=
200902050200 METAR LMML NIL=
200902050145 METAR LMML 050145Z VRB03KT CAVOK 10/09 Q1013 NOSIG=
200902050130 METAR LMML NIL=
200902050115 METAR LMML 050115Z 23004KT 9999 FEW019 10/09 Q1013 NOSIG=
200902050100 METAR LMML NIL=
200902050045 METAR LMML 050045Z VRB03KT CAVOK 11/09 Q1013 NOSIG=
200902050030 METAR LMML NIL=
200902050015 METAR LMML 050015Z VRB02KT 9999 FEW019 11/09 Q1013 NOSIG=
200902050000 METAR LMML NIL=
200902042345 METAR LMML 042345Z VRB02KT 9999 FEW019 11/10 Q1013 NOSIG=
200902042330 METAR LMML NIL=
200902042315 METAR LMML 042315Z VRB02KT 9999 FEW019 11/10 Q1013 NOSIG=
200902042300 METAR LMML NIL=
200902042245 METAR LMML 042245Z VRB01KT 9999 FEW019 12/10 Q1013 NOSIG=
200902042230 METAR LMML NIL=
200902042215 METAR LMML 042215Z VRB02KT 9999 FEW019 12/10 Q1013 NOSIG=
200902042200 METAR LMML NIL=
200902042145 METAR LMML 042145Z VRB03KT 9999 FEW019 12/10 Q1013 NOSIG=
200902042130 METAR LMML NIL=
200902042115 METAR LMML 042115Z 23004KT 200V270 9999 FEW020 12/10 Q1013
                        NOSIG=
200902042100 METAR LMML NIL=
200902042045 METAR LMML 042045Z VRB02KT CAVOK 12/10 Q1013 NOSIG=
200902042030 METAR LMML NIL=
200902042015 METAR LMML 042015Z VRB03KT 9999 FEW020 12/09 Q1013 NOSIG=
200902042000 METAR LMML NIL=
200902041945 METAR LMML 041945Z 24005KT 200V280 9999 FEW020 13/10 Q1012
                        NOSIG=
200902041930 METAR LMML NIL=
200902041915 METAR LMML 041915Z 23006KT 190V280 9999 FEW020 13/10 Q1012
                        NOSIG=
200902041900 METAR LMML NIL=
200902041845 METAR LMML 041845Z 22004KT 190V270 9999 FEW020 13/10 Q1012
                        NOSIG=
200902041830 METAR LMML NIL=
200902041815 METAR LMML 041815Z VRB03KT 9999 SCT034 13/10 Q1012 NOSIG=
200902041800 METAR LMML NIL=
200902041745 METAR LMML 041745Z VRB03KT 9999 SCT020 14/10 Q1012 NOSIG=
200902041730 METAR LMML NIL=
200902041715 METAR LMML 041715Z VRB03KT 9999 SCT022 14/10 Q1012 NOSIG=
200902041700 METAR LMML NIL=
200902041645 METAR LMML 041645Z VRB02KT 9999 FEW026 14/09 Q1011 NOSIG=
200902041630 METAR LMML NIL=
200902041615 METAR LMML 041615Z 20004KT 160V230 9999 FEW025 SCT120 14/09
                        Q1011 NOSIG=
200902041600 METAR LMML NIL=
200902041545 METAR LMML 041545Z VRB03KT 9999 FEW025 SCT120 15/09 Q1011
                        NOSIG=
200902041530 METAR LMML NIL=
200902041515 METAR LMML 041515Z 23005KT 200V270 9999 FEW030 SCT120 16/10
                        Q1011 NOSIG=
200902041500 METAR LMML NIL=
200902041445 METAR LMML 041445Z 23005KT 190V270 9999 FEW030 SCT120 BKN250
                        15/09 Q1011 NOSIG=
200902041430 METAR LMML NIL=
200902041415 METAR LMML 041415Z 23004KT 170V290 9999 FEW030 SCT120 15/09
                        Q1011 NOSIG=
200902041400 METAR LMML NIL=
200902041345 METAR LMML 041345Z 24006KT 210V290 9999 FEW030 SCT130 BKN250
                        16/08 Q1011 NOSIG=
200902041330 METAR LMML NIL=
200902041315 METAR LMML 041315Z 26008KT 220V300 9999 FEW030 SCT120 BKN250
                        16/08 Q1011 NOSIG=
200902041300 METAR LMML NIL=
200902041245 METAR LMML 041245Z 27010KT 220V310 9999 FEW030 BKN250 16/08
                        Q1011 NOSIG=
200902041230 METAR LMML NIL=
200902041215 METAR LMML 041215Z 29011KT 250V310 9999 FEW030 BKN250 16/08
                        Q1011 NOSIG=
200902041200 METAR LMML NIL=
200902041145 METAR LMML 041145Z 26012KT 220V280 9999 FEW030 BKN250 16/07
                        Q1011 NOSIG=
200902041130 METAR LMML NIL=
200902041115 METAR LMML 041115Z 27011KT 240V300 9999 FEW032 BKN250 16/09
                        Q1011 NOSIG=
200902041100 METAR LMML NIL=
200902041045 METAR LMML 041045Z 27011KT 220V300 9999 FEW032 BKN250 16/09
                        Q1011 NOSIG=
200902041030 METAR LMML NIL=
200902041015 METAR LMML 041015Z 26012KT 220V300 9999 FEW030 BKN250 16/08
                        Q1011 NOSIG=
200902041000 METAR LMML NIL=
200902040945 METAR LMML 040945Z 26011KT 230V310 9999 FEW030 SCT250 15/09
                        Q1011 NOSIG=
200902040930 METAR LMML NIL=
200902040915 METAR LMML 040915Z 27010KT 210V300 9999 FEW028 SCT250 15/09
                        Q1011 NOSIG=
200902040900 METAR LMML NIL=
200902040845 METAR LMML 040845Z 26010KT 220V300 9999 FEW028 SCT250 15/09
                        Q1011 NOSIG=
200902040830 METAR LMML NIL=
200902040815 METAR LMML 040815Z 27009KT 230V290 9999 FEW028 SCT250 15/09
                        Q1011 NOSIG=
200902040800 METAR LMML NIL=
200902040745 METAR LMML 040745Z 26008KT 230V300 9999 FEW029 SCT250 14/09
                        Q1010 NOSIG=
200902040730 METAR LMML NIL=
200902040715 METAR LMML 040715Z 25009KT 200V300 9999 FEW029 SCT250 14/09
                        Q1010 NOSIG=
200902040700 METAR LMML NIL=
200902040645 METAR LMML 040645Z 25007KT 220V290 9999 FEW029 13/09 Q1010
                        NOSIG=
200902040630 METAR LMML NIL=
200902040615 METAR LMML 040615Z 26008KT 9999 FEW025 12/08 Q1010 NOSIG=
200902040600 METAR LMML NIL=
200902040545 METAR LMML 040545Z 26009KT 230V290 9999 FEW025 12/08 Q1009
                        NOSIG=
200902040530 METAR LMML NIL=
200902040515 METAR LMML 040515Z 26009KT 230V290 9999 FEW029 13/08 Q1009
                        NOSIG=
200902040500 METAR LMML NIL=
200902040445 METAR LMML 040445Z 27010KT 230V300 9999 FEW025 12/08 Q1009
                        NOSIG=
200902040430 METAR LMML NIL=
200902040415 METAR LMML 040415Z 27008KT 240V310 9999 FEW025 12/09 Q1009
                        NOSIG=
200902040400 METAR LMML NIL=
200902040345 METAR LMML 040345Z 27009KT 230V300 9999 FEW025 13/09 Q1008
                        NOSIG=
200902040330 METAR LMML NIL=
200902040315 METAR LMML 040315Z 28009KT 250V310 9999 FEW025 12/09 Q1008
                        NOSIG=
200902040300 METAR LMML NIL=
200902040245 METAR LMML 040245Z 28008KT 230V310 9999 SCT025 13/09 Q1008
                        NOSIG=
200902040230 METAR LMML NIL=
200902040215 METAR LMML 040215Z 28012KT 240V310 9999 SCT025 13/09 Q1008
                        NOSIG=
200902040200 METAR LMML NIL=
200902040145 METAR LMML 040145Z 29012KT 250V310 9999 SCT024 13/09 Q1008
                        NOSIG=
200902040130 METAR LMML NIL=
200902040115 METAR LMML 040115Z 27012KT 240V310 9999 SCT025 13/09 Q1008
                        NOSIG=
200902040100 METAR LMML NIL=
200902040045 METAR LMML 040045Z 28013KT 250V320 9999 SCT025 13/09 Q1007
                        NOSIG=
200902040030 METAR LMML NIL=
200902040015 METAR LMML 040015Z 28014KT 9999 SCT023 13/09 Q1008 NOSIG=
200902040000 METAR LMML NIL=
200902032345 METAR LMML 032345Z 26015KT 230V290 9999 SCT021 13/09 Q1007
                        NOSIG=
200902032330 METAR LMML NIL=
200902032315 METAR LMML 032315Z 26017KT 230V300 9999 SCT021 13/09 Q1007
                        NOSIG=
200902032300 METAR LMML NIL=
200902032245 METAR LMML 032245Z 26016KT 230V300 9999 SCT021 13/09 Q1007
                        NOSIG=
200902032230 METAR LMML NIL=
200902032215 METAR LMML 032215Z 26016KT 230V310 9999 SCT018 13/10 Q1007
                        NOSIG=
200902032200 METAR LMML NIL=
200902032145 METAR LMML 032145Z 26018KT 230V290 9999 SCT015 13/11 Q1006
                        NOSIG=
200902032130 METAR LMML NIL=
200902032115 METAR LMML 032115Z 26018KT 230V300 9999 SCT013 14/11 Q1006
                        NOSIG=
200902032100 METAR LMML NIL=
200902032045 METAR LMML 032045Z 26017KT 220V280 9999 SCT020 14/12 Q1005
                        NOSIG=
200902032015 METAR LMML 032015Z 24017KT 210V280 CAVOK 15/11 Q1005 NOSIG=
200902032000 METAR LMML NIL=
200902031945 METAR LMML 031945Z 23016KT 200V270 CAVOK 15/11 Q1005 NOSIG=
200902031930 METAR LMML NIL=
200902031915 METAR LMML 031915Z 23016G26KT 200V280 CAVOK 15/11 Q1005 NOSIG=
200902031900 METAR LMML NIL=
200902031845 METAR LMML 031845Z 23017KT 200V270 CAVOK 15/11 Q1004 NOSIG=
200902031830 METAR LMML NIL=
200902031815 METAR LMML 031815Z 23014KT 200V280 CAVOK 15/11 Q1004 NOSIG=
200902031800 METAR LMML NIL=
200902031745 METAR LMML 031745Z 22012KT 190V270 CAVOK 15/12 Q1003 TEMPO
                        6000=
200902031715 METAR LMML 031715Z 22009KT 190V260 CAVOK 15/11 Q1003 TEMPO
                        6000=
200902031645 METAR LMML 031645Z 21007KT 180V250 CAVOK 15/11 Q1003 TEMPO
                        6000=
200902031630 METAR LMML NIL=
200902031615 METAR LMML 031615Z 24007KT 200V270 CAVOK 16/11 Q1003 TEMPO
                        6000=
200902031600 METAR LMML NIL=
200902031545 METAR LMML 031545Z 25011KT 190V290 5000 HZ SCT150 BKN250
                        16/11 Q1003 TEMPO 3000 SHRA BKN015=
200902031530 METAR LMML NIL=
200902031515 METAR LMML 031515Z 24013KT 200V280 5000 HZ FEW150 BKN250
                        16/11 Q1003 TEMPO 3000 SHRA BKN015=
200902031500 METAR LMML NIL=
200902031445 METAR LMML 031445Z 22010KT 170V270 7000 SCT150 BKN250 16/12
                        Q1003 TEMPO 6000 SHRA BKN015=
200902031430 METAR LMML NIL=
200902031415 METAR LMML 031415Z 20007KT 170V240 8000 FEW150 OVC250 17/12
                        Q1002 TEMPO 6000 SHRA BKN015=
200902031400 METAR LMML NIL=
200902031345 METAR LMML 031345Z 21007KT 170V270 8000 SCT150 BKN250 17/12
                        Q1002 TEMPO 6000 SHRA BKN015=
200902031330 METAR LMML NIL=
200902031315 METAR LMML 031315Z 21008KT 170V250 8000 SCT150 BKN250 17/12
                        Q1002 TEMPO 6000 SHRA BKN015=
200902031300 METAR LMML NIL=
200902031245 METAR LMML 031245Z 20007KT 170V240 8000 SKC 17/12 Q1002 NOSIG=
200902031230 METAR LMML NIL=
200902031215 METAR LMML 031215Z 20007KT 180V250 8000 SKC 18/12 Q1002 NOSIG=
200902031200 METAR LMML NIL=
200902031145 METAR LMML 031145Z 20008KT 170V240 8000 FEW150 BKN250 18/11
                        Q1002 NOSIG=
200902031130 METAR LMML NIL=
200902031115 METAR LMML 031115Z 20008KT 160V230 9000 BKN150 SCT250 19/10
                        Q1002 NOSIG=
200902031100 METAR LMML NIL=
200902031045 METAR LMML 031045Z 21009KT 170V240 9000 BKN150 SCT250 19/11
                        Q1003 NOSIG=
200902031030 METAR LMML NIL=
200902031015 METAR LMML 031015Z 20009KT 160V230 CAVOK 19/12 Q1003 NOSIG=
200902031000 METAR LMML NIL=
200902030945 METAR LMML 030945Z 20008KT 160V250 CAVOK 18/12 Q1003 NOSIG=
200902030930 METAR LMML NIL=
200902030915 METAR LMML 030915Z 20007KT 150V240 CAVOK 19/12 Q1004 NOSIG=
200902030900 METAR LMML NIL=
200902030845 METAR LMML 030845Z 21007KT 170V250 CAVOK 19/10 Q1003 NOSIG=
200902030830 METAR LMML NIL=
200902030815 METAR LMML 030815Z 20005KT 160V240 CAVOK 17/12 Q1003 NOSIG=
200902030800 METAR LMML NIL=
200902030745 METAR LMML 030745Z 20005KT CAVOK 16/12 Q1003 NOSIG=
200902030730 METAR LMML NIL=
200902030715 METAR LMML 030715Z 19007KT CAVOK 16/13 Q1003 NOSIG=
200902030700 METAR LMML NIL=
200902030645 METAR LMML 030645Z 19008KT CAVOK 16/12 Q1003 NOSIG=
200902030630 METAR LMML NIL=
200902030615 METAR LMML 030615Z 19007KT CAVOK 15/13 Q1003 NOSIG=
200902030600 METAR LMML NIL=
200902030545 METAR LMML 030545Z 19007KT CAVOK 16/12 Q1004 NOSIG=
200902030530 METAR LMML NIL=
200902030515 METAR LMML 030515Z 20007KT 170V230 CAVOK 16/12 Q1004 NOSIG=
200902030500 METAR LMML NIL=
200902030445 METAR LMML 030445Z 20006KT 150V250 CAVOK 15/12 Q1003 NOSIG=
200902030430 METAR LMML NIL=
200902030415 METAR LMML 030415Z 20005KT 170V240 CAVOK 15/12 Q1004 NOSIG=
200902030400 METAR LMML NIL=
200902030345 METAR LMML 030345Z 20006KT 170V230 CAVOK 16/13 Q1004 NOSIG=
200902030330 METAR LMML NIL=
200902030315 METAR LMML 030315Z 20005KT 150V230 CAVOK 15/12 Q1004 NOSIG=
200902030300 METAR LMML NIL=
200902030245 METAR LMML 030245Z 20007KT 170V240 CAVOK 15/13 Q1004 NOSIG=
200902030230 METAR LMML NIL=
200902030215 METAR LMML 030215Z 20008KT 170V230 CAVOK 16/13 Q1005 NOSIG=
200902030200 METAR LMML NIL=
200902030145 METAR LMML 030145Z 20008KT 170V230 CAVOK 15/13 Q1005 NOSIG=
200902030130 METAR LMML NIL=
200902030115 METAR LMML 030115Z 19009KT CAVOK 16/13 Q1005 NOSIG=
200902030100 METAR LMML NIL=
200902030045 METAR LMML 030045Z 19008KT 150V220 CAVOK 16/13 Q1005 NOSIG=
200902030030 METAR LMML NIL=
200902030015 METAR LMML 030015Z 19007KT 160V230 CAVOK 15/13 Q1006 NOSIG=
200902030000 METAR LMML NIL=
200902022345 METAR LMML 022345Z 18009KT 150V210 CAVOK 15/13 Q1006 NOSIG=
200902022330 METAR LMML NIL=
200902022315 METAR LMML 022315Z 17009KT 140V200 CAVOK 15/13 Q1006 NOSIG=
200902022300 METAR LMML NIL=
200902022245 METAR LMML 022245Z 17010KT 140V200 CAVOK 16/12 Q1006 NOSIG=
200902022230 METAR LMML NIL=
200902022215 METAR LMML 022215Z 17010KT 140V220 CAVOK 16/12 Q1006 NOSIG=
200902022145 METAR LMML 022145Z 17012KT CAVOK 16/12 Q1006 NOSIG=
200902022130 METAR LMML NIL=
200902022115 METAR LMML 022115Z 17013KT 140V200 CAVOK 16/12 Q1006 NOSIG=
200902022100 METAR LMML NIL=
200902022045 METAR LMML 022045Z 16014KT 130V190 CAVOK 16/12 Q1006 NOSIG=
200902022030 METAR LMML NIL=
200902022015 METAR LMML 022015Z 16015KT 130V190 CAVOK 16/11 Q1006 NOSIG=
200902022000 METAR LMML NIL=
200902021945 METAR LMML 021945Z 17014KT CAVOK 16/12 Q1007 NOSIG=
200902021930 METAR LMML NIL=
200902021915 METAR LMML 021915Z 16014KT CAVOK 16/13 Q1007 NOSIG=
200902021900 METAR LMML NIL=
200902021845 METAR LMML 021845Z 16014KT 130V190 CAVOK 15/13 Q1007 NOSIG=
200902021830 METAR LMML NIL=
200902021815 METAR LMML 021815Z 16013KT CAVOK 16/13 Q1007 NOSIG=
200902021800 METAR LMML NIL=
200902021745 METAR LMML 021745Z 16013KT CAVOK 16/13 Q1007 NOSIG=
200902021730 METAR LMML NIL=
200902021715 METAR LMML 021715Z 16012KT CAVOK 16/13 Q1007 NOSIG=
200902021700 METAR LMML NIL=
200902021645 METAR LMML 021645Z 16012KT 130V190 CAVOK 16/13 Q1007 NOSIG=
200902021630 METAR LMML NIL=
200902021615 METAR LMML 021615Z 16011KT 130V190 9000 BKN130 BKN250 16/13
                        Q1007 NOSIG=
200902021600 METAR LMML NIL=
200902021545 METAR LMML 021545Z 16012KT 9000 BKN130 BKN250 16/13 Q1008
                        NOSIG=
200902021530 METAR LMML NIL=
200902021515 METAR LMML 021515Z 16012KT 130V190 9000 BKN130 BKN250 16/13
                        Q1008 NOSIG=
200902021500 METAR LMML NIL=
200902021445 METAR LMML 021445Z 16013KT 130V190 CAVOK 16/13 Q1007 NOSIG=
200902021430 METAR LMML NIL=
200902021415 METAR LMML 021415Z 16012KT 120V180 CAVOK 17/14 Q1007 NOSIG=
200902021400 METAR LMML NIL=
200902021345 METAR LMML 021345Z 16012KT 120V180 CAVOK 17/14 Q1007 NOSIG=
200902021315 METAR LMML 021315Z 15013KT 120V190 CAVOK 17/14 Q1007 NOSIG=
200902021300 METAR LMML NIL=
200902021245 METAR LMML 021245Z 16015KT CAVOK 17/14 Q1007 NOSIG=
200902021230 METAR LMML NIL=
200902021215 METAR LMML 021215Z 16015KT CAVOK 18/14 Q1008 NOSIG=
200902021200 METAR LMML NIL=
200902021145 METAR LMML 021145Z 16014KT CAVOK 18/14 Q1009 NOSIG=
200902021130 METAR LMML NIL=
200902021115 METAR LMML 021115Z 15014KT 120V190 CAVOK 18/13 Q1009 NOSIG=
200902021100 LMML NIL=
200902021045 LMML 021045Z 15011KT 120V180 CAVOK 17/14 Q1010 NOSIG=
200902021030 METAR LMML NIL=
200902021015 METAR LMML 021015Z 15013KT 120V180 CAVOK 17/13 Q1010 NOSIG=
200902021000 METAR LMML NIL=
200902020945 METAR LMML 020945Z 14011KT CAVOK 16/14 Q1011 NOSIG=
200902020930 METAR LMML NIL=
200902020915 METAR LMML 020915Z 14011KT CAVOK 16/14 Q1011 NOSIG=
200902020900 METAR LMML NIL=
200902020845 METAR LMML 020845Z 15011KT 120V180 CAVOK 16/14 Q1011 NOSIG=
200902020830 METAR LMML NIL=
200902020815 METAR LMML 020815Z 15009KT CAVOK 15/13 Q1011 NOSIG=
200902020800 METAR LMML NIL=
200902020745 METAR LMML 020745Z 15008KT 120V180 CAVOK 15/13 Q1011 NOSIG=
200902020730 METAR LMML NIL=
200902020715 METAR LMML 020715Z 16008KT CAVOK 14/13 Q1011 NOSIG=
200902020700 METAR LMML NIL=
200902020645 METAR LMML 020645Z 16008KT 130V190 CAVOK 14/13 Q1010 NOSIG=
200902020630 METAR LMML NIL=
200902020615 METAR LMML 020615Z 16008KT CAVOK 14/12 Q1010 NOSIG=
200902020600 METAR LMML NIL=
200902020545 METAR LMML 020545Z 15006KT 120V180 CAVOK 14/12 Q1010 NOSIG=
200902020530 METAR LMML NIL=
200902020515 METAR LMML 020515Z 16007KT CAVOK 14/12 Q1010 NOSIG=
200902020500 METAR LMML NIL=
200902020445 METAR LMML 020445Z 16007KT 130V190 CAVOK 13/11 Q1010 NOSIG=
200902020430 METAR LMML NIL=
200902020415 METAR LMML 020415Z 16007KT CAVOK 13/10 Q1010 NOSIG=
200902020400 METAR LMML NIL=
200902020345 METAR LMML 020345Z 16006KT CAVOK 12/10 Q1010 NOSIG=
200902020330 METAR LMML NIL=
200902020315 METAR LMML 020315Z 16005KT CAVOK 12/09 Q1010 NOSIG=
200902020300 METAR LMML NIL=
200902020245 METAR LMML 020245Z 17004KT 140V200 CAVOK 12/09 Q1010 NOSIG=
200902020230 METAR LMML NIL=
200902020215 METAR LMML 020215Z 17004KT CAVOK 12/09 Q1010 NOSIG=
200902020200 METAR LMML NIL=
200902020145 METAR LMML 020145Z 17004KT CAVOK 12/09 Q1010 NOSIG=
200902020130 METAR LMML NIL=
200902020115 METAR LMML 020115Z 18005KT 150V220 CAVOK 12/09 Q1010 NOSIG=
200902020100 METAR LMML NIL=
200902020045 METAR LMML 020045Z 17004KT 140V220 CAVOK 12/10 Q1010 NOSIG=
200902020030 METAR LMML NIL=
200902020015 METAR LMML 020015Z 18004KT 150V220 CAVOK 12/09 Q1010 NOSIG=
200902020000 METAR LMML NIL=
200902012345 METAR LMML 012345Z 18004KT CAVOK 12/08 Q1010 NOSIG=
200902012330 METAR LMML NIL=
200902012315 METAR LMML 012315Z 18004KT CAVOK 12/08 Q1010 NOSIG=
200902012300 METAR LMML NIL=
200902012245 METAR LMML 012245Z 19004KT CAVOK 11/08 Q1010 NOSIG=
200902012230 METAR LMML NIL=
200902012215 METAR LMML 012215Z 18004KT 9999 FEW025 SCT250 12/08 Q1010
                        NOSIG=
200902012200 METAR LMML NIL=
200902012145 METAR LMML 012145Z 20004KT 9999 FEW025 SCT250 11/08 Q1010
                        NOSIG=
200902012130 METAR LMML NIL=
200902012115 METAR LMML 012115Z 20004KT 9999 FEW025 11/08 Q1010 NOSIG=
200902012100 METAR LMML NIL=
200902012045 METAR LMML 012045Z 22004KT 9999 FEW025 11/08 Q1010 NOSIG=
200902012030 METAR LMML NIL=
200902012015 METAR LMML 012015Z VRB03KT 9999 FEW025 11/08 Q1010 NOSIG=
200902012000 METAR LMML NIL=
200902011945 METAR LMML 011945Z 23005KT 9999 FEW027 11/08 Q1010 NOSIG=
200902011930 METAR LMML NIL=
200902011915 METAR LMML 011915Z VRB03KT 9999 FEW027 11/08 Q1009 NOSIG=
200902011845 METAR LMML 011845Z VRB03KT 9999 FEW027 11/08 Q1009 NOSIG=
200902011830 METAR LMML NIL=
200902011815 METAR LMML 011815Z 26005KT 230V290 9999 FEW026 11/08 Q1009
                        NOSIG=
200902011800 METAR LMML NIL=
200902011745 METAR LMML 011745Z 27005KT 9999 FEW025 12/08 Q1008 NOSIG=
200902011730 METAR LMML NIL=
200902011715 METAR LMML 011715Z 27005KT 230V300 9999 FEW025 12/08 Q1008
                        NOSIG=
200902011700 METAR LMML NIL=
200902011645 METAR LMML 011645Z 27006KT 230V300 9999 FEW025 12/08 Q1008
                        NOSIG=
200902011630 METAR LMML NIL=
200902011615 METAR LMML 011615Z 28008KT 230V300 9999 FEW025 13/08 Q1007
                        NOSIG=
200902011600 METAR LMML NIL=
200902011545 METAR LMML 011545Z 28010KT 230V310 9999 FEW025 13/09 Q1007
                        NOSIG=
200902011530 METAR LMML NIL=
200902011515 METAR LMML 011515Z 28012KT 240V310 9999 FEW024 14/09 Q1006
                        NOSIG=
200902011500 METAR LMML NIL=
200902011445 METAR LMML 011445Z 27014KT 230V300 9999 FEW023 14/09 Q1006
                        NOSIG=
200902011430 METAR LMML NIL=
200902011415 METAR LMML 011415Z 27014KT 230V310 9999 SCT024 14/09 Q1006
                        NOSIG=
200902011345 METAR LMML 011345Z 28017KT 230V310 9999 FEW025 14/08 Q1005
                        NOSIG=
200902011330 METAR LMML NIL=
200902011315 METAR LMML 011315Z 28019KT 250V310 9999 FEW020 14/09 Q1005
                        NOSIG=
200902011300 METAR LMML NIL=
200902011245 METAR LMML 011245Z 27019KT 240V300 9999 SCT022 14/09 Q1005
                        NOSIG=
200902011215 METAR LMML 011215Z 27018KT 230V300 9999 SCT017 14/09 Q1005
                        NOSIG=
200902011200 METAR LMML NIL=
200902011145 METAR LMML 011145Z 26015KT 210V300 9999 SCT017 15/11 Q1005
                        NOSIG=
200902011130 METAR LMML NIL=
200902011115 METAR LMML 011115Z 25017KT 210V290 9999 FEW030 16/10 Q1005
                        NOSIG=
200902011100 METAR LMML NIL=
200902011045 METAR LMML 011045Z 24016KT 200V280 9999 FEW030 16/09 Q1005
                        NOSIG=
200902011030 METAR LMML NIL=
200902011015 METAR LMML 011015Z 24013G24KT 200V280 CAVOK 16/09 Q1005 NOSIG=
200902011000 METAR LMML NIL=
200902010945 METAR LMML 010945Z 23008KT 190V270 CAVOK 16/11 Q1005 NOSIG=
200902010930 METAR LMML NIL=
200902010915 METAR LMML 010915Z 24008KT 210V280 9999 FEW031 BKN100 15/10
                        Q1005 NOSIG=
200902010900 METAR LMML NIL=
200902010845 METAR LMML 010845Z 21010KT 160V260 9999 -RA FEW040 BKN100
                        BKN250 16/12 Q1005 TEMPO 8000 RA=
200902010830 METAR LMML NIL=
200902010815 METAR LMML 010815Z 20012G23KT 160V250 9999 FEW040TCU BKN250
                        16/13 Q1005 TEMPO 8000 RA=
200902010800 METAR LMML NIL=
200902010745 METAR LMML 010745Z 18011KT 130V210 CAVOK 16/13 Q1004 TEMPO
                        8000 RA=
200902010730 METAR LMML NIL=
200902010715 METAR LMML 010715Z 18012KT 150V210 CAVOK 15/13 Q1005 NOSIG=
200902010700 METAR LMML NIL=
200902010645 METAR LMML 010645Z 18011KT 130V210 9000 BKN100 15/14 Q1005
                        BECMG 9999 FEW015=
200902010615 METAR LMML 010615Z 18012KT 150V210 9000 BKN100 15/14 Q1005
                        NOSIG=
200902010600 METAR LMML NIL=
200902010545 METAR LMML 010545Z 18012KT 140V210 9999 FEW009 SCT100 15/14
                        Q1005 NOSIG=
200902010530 METAR LMML NIL=
200902010515 METAR LMML 010515Z 17013KT 140V210 9999 SCT008 15/14 Q1005
                        NOSIG=
200902010445 METAR LMML 010445Z 17013KT 130V200 9999 BKN009 15/14 Q1006
                        NOSIG=
200902010430 METAR LMML NIL=
200902010415 METAR LMML 010415Z 17012KT 140V200 9999 FEW009 15/13 Q1006
                        TEMPO BKN015=
200902010400 METAR LMML NIL=
200902010345 METAR LMML 010345Z 17010KT 140V200 9999 FEW009 14/13 Q1007
                        TEMPO BKN015=
200902010330 METAR LMML NIL=
200902010315 METAR LMML 010315Z 17010KT 9999 FEW012 15/13 Q1007 TEMPO
                        BKN015=
200902010300 METAR LMML NIL=
200902010245 METAR LMML 010245Z 17009KT 140V200 9999 BKN012 15/13 Q1008
                        TEMPO BKN015=
200902010230 METAR LMML NIL=
200902010215 METAR LMML 010215Z 17011KT 140V200 9999 BKN012 BKN014 15/13
                        Q1008 TEMPO BKN015=
200902010200 METAR LMML NIL=
200902010145 METAR LMML 010145Z 17009KT 140V210 9999 BKN014 BKN070 14/13
                        Q1009 TEMPO BKN015=
200902010130 METAR LMML NIL=
200902010115 METAR LMML 010115Z 15009KT 9999 SCT015 SCT070 14/13 Q1009
                        TEMPO BKN015=
200902010045 METAR LMML 010045Z 16010KT 120V180 9999 FEW016 14/12 Q1009
                        TEMPO BKN015=
200902010030 METAR LMML NIL=
200902010015 METAR LMML 010015Z 15009KT 120V180 9999 BKN016 14/12 Q1009
                        TEMPO BKN015=
200902010000 METAR LMML NIL=

###################################
#  short TAF from LMML
###################################
200903031400 LMML 0315/0324 16005KT 16005KT 9999 FEW015
                      PROB40 TEMPO 0318/0324 7000 BKN010=
200903031336 TAF LMML 0315/0324 16005KT 16005KT 9999 FEW015
                      PROB40 TEMPO 0318/0324 7000 BKN010=
200903031333 LMML 0315/0324 16005KT 16005KT 9999 FEW015
                      PROB40 TEMPO 0318/0324 7000 BKN010=
200903031100 TAF LMML 031100Z 0312/0321 VRB03KT 9999 FEW015
                      TEMPO 0312/0318 CAVOK
                      PROB30 TEMPO 0318/0321 9000 BKN010=
200903030800 TAF LMML 030800Z 0309/0318 30006KT 9999 SCT012
                      PROB30 TEMPO 0309/0312 9000 BKN010=
200903030500 TAF LMML 030500Z 0306/0315 30006KT 9999 FEW015
                      PROB30 TEMPO 0306/0308 8000 BKN010=
200903030200 TAF LMML 030200Z 0303/0312 30005KT 9999 FEW011
                      TEMPO 0303/0307 4000 BR BKN005
                      PROB30 TEMPO 0303/0306 0150 BCFG BKN001=
200903022300 TAF LMML 022300Z 0300/0309 27005KT 9999 FEW015
                      TEMPO 0300/0306 7000 BKN008
                      PROB30 TEMPO 0300/0306 3000 BR BKN005=
200903022000 LMML 022000Z 0221/0306 31006KT 9999 FEW015
                      TEMPO 0221/0306 7000 BKN008
                      PROB30 TEMPO 0300/0306 2000 BR BKN004=
200903021700 TAF LMML 021700Z 0218/0303 32005KT 9999 FEW015
                      TEMPO 0218/0303 CAVOK
                      PROB40 TEMPO 0218/0303 8000 BKN008
                      PROB30 TEMPO 0300/0303 2000 BR BKN003=
200903021400 TAF LMML 021400Z 0215/0224 34009KT CAVOK
                      TEMPO 0215/0224 9999 FEW015
                      PROB30 TEMPO 0217/0224 8000 BKN008=
200903021100 TAF LMML 021100Z 0212/0221 34009KT CAVOK
                      TEMPO 0212/0221 9999 FEW020=
200903020800 LMML 020800Z 0209/0218 34006KT 9999 FEW020=
200903020400 TAF LMML 020400Z 0203/0212 07004KT 9999 FEW015
                      TEMPO 0203/0206 0500 BCFG
                      BECMG 0209/0212 32010KT=
200903020345 TAF LMML 0203400Z 0203/0212 07004KT 9999 FEW015
                      TEMPO 0203/0206 0500 BCFG
                      BECMG 0209/0212 32010KT=
200903020343 TAF LMML 0203400Z 0203/0212 07004KT 9999 FEW015
                      TEMPO 0203/0206 0500 BCFG
                      BECMG 0209/0212 32010KT=
200903020342 LMML 0203400Z 0203/0212 07004KT 9999 FEW015
                      TEMPO 0203/0206 0500 BCFG
                      BECMG 0209/0212 32010KT=
200903020340 LMML 020340Z 0203/0212 07004KT 9999 FEW015
                      TEMPO 0203/0206 0500 BCFG
                      BECMG 0209/0212 32010KT=
200903020200 LMML 0203400Z 0203/0212 07004KT 9999 FEW015
                      TEMPO 0203/0206 0500 BCFG
                      BECMG 0209/0212 32010KT=
200903012300 TAF LMML 012300Z 0200/0209 08004KT 9999 FEW015
                      PROB30 TEMPO 0200/0207 7000 BKN005
                      TEMPO 0203/0206 4000 BR=
200903012000 TAF LMML 012000Z 0121/0206 16004KT 9999 FEW015
                      PROB30 TEMPO 0121/0206 7000 SCT005 BKN012
                       TEMPO 0203/0206 5000 BR=
200903011700 TAF LMML 011700Z 0118/0203 17010KT 9999 FEW013
                      TEMPO 0118/0203 8000 BKN010
                      PROB30 TEMPO 0121/0203 5000 BR BKN005
                      BECMG 0123/0202 31005KT=
200903011400 TAF LMML 011400Z 0115/0124 16013KT 9999 SCT013 SCT090
                      TEMPO 0115/0124 BKN010 SCT090
                      PROB30 TEMPO 0118/0124 6000 BKN005
                      BECMG 0120/0123 10005KT=
200903011100 TAF LMML 011100Z 0112/0121 15014KT 9999 SCT015 SCT100=
200903010800 TAF LMML 010800Z 0109/0118 15013KT 9999 SCT020 BKN120
                      PROB30 TEMPO 0109/0118 8000 RA BKN015 BKN100=
200903010500 TAF LMML 010500Z 0106/0115 15015KT CAVOK
                      TEMPO 0106/0115 SCT015 BKN080=
200903010200 TAF LMML 010200Z 0103/0112 14012KT 9999 SCT015=
200902282300 TAF LMML 282300Z 0100/0109 14008KT 9999 FEW020
                      TEMPO 0100/0109 SCT015=
200902282000 TAF LMML 282000Z 2821/0106 14008KT CAVOK
                      TEMPO 2823/0106 SCT015=
200902281400 LMML 281400Z 2815/2824 14009KT 9999 FEW025 SCT250
                      PROB30 TEMPO 2821/2824 BKN015=
200902281100 TAF LMML 281100Z 2812/2821 12008KT 9999 SCT020=
200902280800 LMML 280800Z 2809/2818 36008KT 9999 SCT020
                      BECMG 2809/2812 12010KT=
200902280500 TAF LMML 280500Z 2806/2815 VRB03KT 9999 SCT020 BKN040
                      PROB30 TEMPO 2806/2815 BKN015=
200902280200 TAF LMML 280200Z 2803/2812 VRB03KT 9999 SCT020
                      PROB30 TEMPO 2803/2812 BKN015=
200902272300 TAF LMML 272300Z 2800/2809 31006KT 9999 SCT020
                      PROB30 TEMPO 2800/2809 BKN015
                      BECMG 2805/2808 VRB03KT=
200902272000 TAF LMML 272000Z 2721/2806 32010KT 9999 SCT020=
200902271700 TAF LMML 271700Z 2718/2803 28010KT 9999 FEW025=
200902271400 TAF LMML 271400Z 2715/2724 30010KT 9999 FEW030 SCT045=
200902271100 TAF LMML 271100Z 2712/2721 30015KT 9999 SCT035=
200902270800 TAF LMML 270800Z 2709/2718 30012KT 9999 SCT030=
200902270500 TAF LMML 270500Z 2706/2715 29014KT 9999 SCT030=
200902270200 TAF LMML 270200Z 2703/2712 30012KT 9999 SCT025=
200902262300 TAF LMML 262300Z 2700/2709 29012KT 9999 SCT035=
200902262000 TAF LMML 262000Z 2621/2706 29010KT 9999 SCT025=
200902261700 TAF LMML 261700Z 2618/2703 29013KT 9999 FEW040=
200902261400 TAF LMML 261400Z 2615/2624 36012KT 9999 FEW040
                      BECMG 2615/2618 30010KT=
200902261100 TAF LMML 261100Z 2612/2621 35013KT 9999 FEW040=
200902260800 TAF LMML 260800Z 2609/2618 35013KT 9999 SCT035=
200902260500 TAF LMML 260500Z 2606/2615 34013KT 9999 SCT025 BKN040
                      TEMPO 2606/2608 7000 SHRA BKN015=
200902260200 TAF LMML 260200Z 2603/2612 01015KT 9999 SCT020 BKN040=
200902252300 TAF LMML 252300Z 2600/2609 05012KT 7000 RA SCT015 BKN070
                      PROB30 TEMPO 2600/2604 5000 TSRA BKN005 BKN015CB
                       BKN070
                      BECMG 2604/2607 9999 SCT025
                      BECMG 2606/2609 35010KT=
200902252000 LMML 252000Z 2521/2606 05012KT 7000 RA SCT020 BKN080
                      PROB30 TEMPO 2521/2603 5000 TSRA BKN005 BKN015CB
                       BECMG 2603/2606 9999 SCT025 SCT050=
200902251700 TAF LMML 251700Z 2518/2603 15006KT 9999 SCT025 SCT040
                      TEMPO 2518/2603 7000 RA BKN015 BKN040
                      PROB30 TEMPO 2518/2603 3000 TSGR BKN015CB
                       BKN040
                      BECMG 2518/2521 07015KT
                      BECMG 2600/2603 01014KT=
200902251400 TAF LMML 251400Z 2515/2524 11013KT 9999 SCT025 SCT040
                      TEMPO 2515/2524 7000 SHRA BKN015 BKN040
                      PROB30 TEMPO 2515/2524 3000 TSGR BKN015CB
                       BKN040
                      BECMG 2518/2521 05014KT=
200902251100 TAF LMML 251100Z 2512/2521 07011KT 9999 SCT020 SCT050
                      TEMPO 2512/2521 8000 RA BKN015 BKN040
                      PROB30 TEMPO 2512/2521 3000 TSGR BKN015CB
                       BKN040=
200902250800 TAF LMML 250800Z 2509/2518 05010KT 9999 SCT020 SCT050
                      TEMPO 2509/2518 8000 RA BKN015 BKN040
                      PROB30 TEMPO 2509/2518 3000 TSGR BKN015CB
                       BKN040=
200902250500 TAF LMML 250500Z 2506/2515 06010KT 9999 SCT020
                      PROB30 TEMPO 2506/2512 8000 RA BKN015
                      PROB40 TEMPO 2512/2515 5000 TSRA BKN015CB=
200902250200 LMML 250200Z 2503/2512 07010KT 9999 SCT025
                      TEMPO 2503/2512 5000 SHRA SCT012 BKN018=
200902242300 TAF LMML 242300Z 2500/2509 03008KT 9999 SCT020
                      PROB40 TEMPO 2500/2509 8000 SHRA BKN015=
200902242000 TAF LMML 242000Z 2421/2506 02010KT 9999 SCT020 BKN040
                      TEMPO 2421/206 8000 RA BKN015=
200902241700 TAF LMML 241700Z 2418/2503 03010KT 9999 SCT020 BKN040
                      TEMPO 7000 SHRA BKN015=
200902241400 LMML 241400Z 2415/2424 05015KT 9999 BKN018 BKN040
                      TEMPO 2415/2424 6000 RA BKN005 BKN015 BKN050=
200902241100 TAF LMML 241100Z 2412/2421 05014KT 9999 SCT015 BKN030
                      TEMPO 2412/2421 5000 RA BKN005 BKN015 BKN030=
200902240800 LMML 240800Z 2409/2418 10012KT 9999 SCT015 BKN030
                      TEMPO 2409/2418 5000 RA BKN005 BKN015 BKN030
                       PROB30
                      TEMPO 2409/2418 4000 TSRA BKN015CB=
200902240500 TAF LMML 240500Z 2406/2415 13010KT 9999 SCT012 BKN025
                      TEMPO 2406/2415 6000 SHRA BKN015
                      PROB30 TEMPO 2406/2415 4000 TSRA BKN010 BKN015CB
                       BECMG 2409/2412 07012KT=
200902240200 TAF LMML 240200Z 2403/2412 11010KT 9999 SCT012 BKN030
                      TEMPO 2403/2412 6000 SHRA BKN015
                      PROB30 TEMPO 2403/2412 4000 TSRA BKN009 BKN015CB
                       BECMG 2403/2406 26006KT
                      BECMG 2406/2409 04012KT=
200902232300 TAF LMML 232300Z 2400/2409 VRB03KT 9999 SCT012 BKN035
                      TEMPO 2400/2409 6000 RA
                      PROB30 TEMPO 2400/2409 5000 TSRA BKN009 BKN015CB
                       BECMG 2406/2409 04010KT=
200902232000 LMML 2320005Z 2321/2406 VRB03KT 9999 SCT012 BKN035
                      TEMPO 2321/2406 6000 RA
                      PROB30 TEMPO 2421/2406 5000 TSRA BKN009 BKN015CB=
200902231948 TAF LMML 2321/2406 VRB03KT 9999 SCT012 BKN035
                      TEMPO 2321/2406 6000 RA
                      PROB30 TEMPO 2421/2406 5000 TSRA BKN009 BKN015CB=
200902231945 TAF LMML 2320005Z 2321/2406 VRB03KT 9999 SCT012 BKN035
                      TEMPO 2321/2406 6000 RA
                      PROB30 TEMPO 2421/2406 5000 TSRA BKN009 BKN015CB=
200902231942 LMML 2320005Z 2321/2406 VRB03KT 9999 SCT012 BKN035
                      TEMPO 2321/2406 6000 RA
                      PROB30 TEMPO 2421/2406 5000 TSRA BKN009 BKN015CB=
200902231725 LMML 231725Z 2318/2403 13004KT 9999 FEW035
                      PROB40 TEMPO 2318/2403 8000 RA BKN030 BKN080
                       PROB30
                      TEMPO 2400/2403 5000 TSRA SCT010 BKN015CB=
200902231700 TAF LMML 231700Z 2318/2403 13004KT 9999 FEW035
                      PROB40 TEMPO 2318/2403 8000 RA BKN030 BKN080
                       PROB30 200/2403 5000 TSRA SCT010 BKN015CB=
200902231400 TAF LMML 231400Z 2315/2324 12005KT 9999 SCT035
                      PROB30 TEMPO 2316/2324 8000 SHRA BKN030 BKN060=
200902231100 TAF LMML 231100Z 2312/2321 33006KT 9999 FEW035
                      BECMG 2315/2318 12005KT
                      PROB30 TEMPO 2318/2321 8000 SHRA BKN025=
200902230800 TAF LMML 230800Z 2309/2318 30006KT 9999 FEW030
                      BECMG 2314/2317 12005KT=
200902230500 TAF LMML 230500Z 2306/2315 32010KT 9999 SCT025
                      BECMG 2311/2314 03008KT=
200902230200 TAF LMML 230200Z 2303/2312 32010KT 9999 SCT030
                      PROB30 TEMPO 2303/2306 8000 SHRA BKN015
                      BECMG 2309/2312 02007KT=
200902222300 TAF LMML 222300Z 2300/2309 31011KT 9999 SCT030
                      PROB30 TEMPO 2300/2306 32015G25KT 8000 SHRA
                       BKN015=
200902222000 TAF LMML 222000Z 2221/2306 30011KT 9999 SCT025
                      TEMPO 2221/2306 8000 SHRA BKN015
                      PROB30 TEMPO 2221/2303 31015G25KT 3000 TSRA
                       BKN015CB=
200902221700 TAF LMML 221700Z 2218/2303 30015KT 9999 SCT030=
200902221400 TAF LMML 221400Z 2215/2224 31012KT 9999 FEW030=
200902221100 TAF LMML 221100Z 2212/2221 33010KT 9999 FEW030=
200902220800 TAF LMML 220800Z 2209/2218 30006KT 9999 FEW025=
200902220500 TAF LMML 220500Z 2206/2215 29009KT 9999 SCT030=
200902220200 TAF LMML 220200Z 2203/2212 VRB03KT 9999 SCT030
                      BECMG 2209/2212 33010KT=
200902212300 TAF LMML 212300Z 2200/2209 VRB03KT 9999 SCT030=
200902212000 TAF LMML 212000Z 2121/2206 VRB03KT 9999 SCT030=
200902211700 TAF LMML 211700Z 2118/2203 VRB03KT 9999 SCT030
                      BECMG 2200/2203 33006KT=
200902211400 TAF LMML 211400Z 2115/2124 07007KT 9999 SCT035=
200902211100 TAF LMML 211100Z 2112/2121 03006KT 9999 FEW035=
200902210800 TAF LMML 210800Z 2109/2118 31006KT 9999 SCT035=
200902210500 TAF LMML 210500Z 2106/2115 27005KT 9999 FEW040=
200902210200 TAF LMML 210200Z 2103/2112 27003KT 9999 FEW040=
200902202300 TAF LMML 202300Z 2100/2109 27003KT 9999 SCT040=
200902202000 TAF LMML 202000Z 2021/2106 27003KT 9999 SCT040=
200902201700 TAF LMML 201700Z 2018/2103 31008KT 9999 SCT030=
200902201400 TAF LMML 201400Z 2015/2024 32008KT 9999 SCT030=
200902201100 LMML 201100Z 2012/2021 34010KT 9999 SCT030=
200902200800 TAF LMML 200800Z 2009/2018 33010KT 9999 SCT030 BKN080=
200902200500 TAF LMML 200500Z 2006/2015 32010KT 9999 FEW030=
200902200200 TAF LMML 200200Z 2003/2012 30010KT 9999 SCT040=
200902192300 TAF LMML 192300Z 2000/2009 31010KT 9999 SCT040=
200902192000 TAF LMML 192000Z 192106 31015KT 9999 FEW020 SCT040=
200902191700 TAF LMML 191700Z 1918/2003 29010KT 9999 FEW030=
200902191400 TAF LMML 191400Z 1915/1924 29012KT 9999 FEW030=
200902191100 TAF LMML 191100Z 1912/1921 30018KT 9999 SCT035=
200902190800 TAF LMML 190800Z 1909/1918 30018KT 9999 FEW035=
200902190500 TAF LMML 190500Z 1906/1915 30014KT 9999 SCT025
                      BECMG 1906/1909 29017G27KT
                      BECMG 1912/1915 29014KT=
200902190200 LMML 190200Z 1903/1912 30014KT 9999 SCT025 SCT080
                      TEMPO 1906/1912 29015G25KT=
200902182300 TAF LMML 182300Z 1900/1909 29014KT 9999 SCT025
                      PROB30 TEMPO 1900/1909 29015G25KT 8000 SHRA
                       BKN015=
200902182000 TAF LMML 182000Z 1821/1906 29014KT 9999 SCT020
                      PROB30 TEMPO 1821/1824 29015G25KT 8000 SHRA
                       BKN015=
200902181700 TAF LMML 181700Z 1818/1903 28017G27KT 9999 SCT020
                      PROB40 TEMPO 1818/1821 8000 SHRA=
200902181400 TAF LMML 181400Z 1815/1824 27017G27KT 9999 SCT025
                      PROB40 TEMPO 1815/1821 8000 SHRA=
200902181100 TAF LMML 181100Z 1812/1821 26015G25KT 9999 SCT025 BKN048
                      PROB40 TEMPO 1812/1821 8000 SHRA=
200902180800 TAF LMML 180800Z 1809/1818 27015G25KT 9999 SCT030
                      PROB30 TEMPO 1809/1818 8000 SHRA=
200902180500 TAF LMML 180500Z 1806/1815 26010KT 9999 SCT025 BKN050
                      PROB30 TEMPO 1809/1815 8000 RA
                      BECMG 1809/1812 27015G25KT=
200902180200 TAF LMML 180200Z 1803/1812 26010KT 9999 SCT020 SCT070
                      TEMPO 1806/1812 8000 SHRA BKN015
                      BECMG 1809/1812 27015G25KT=
200902172300 TAF LMML 172300Z 1800/1809 26011KT 9999 SCT040=
200902172000 TAF LMML 172000Z 1721/1806 26005KT 9000 SCT040
                      BECMG 1803/1806 27015KT=
200902171700 TAF LMML 171700Z 1718/1803 27008KT 9999 FEW025 BKN060
                      PROB30 TEMPO 1723/1803 9000 SHRA=
200902171400 TAF LMML 171400Z 1715/1724 27008KT 9999 FEW030 SCT060
                      PROB30 TEMPO 1721/1724 8000 SHRA=
200902171100 TAF LMML 171100Z 1712/1721 29006KT 9999 FEW020 SCT060=
200902170800 TAF LMML 170800Z 1709/1718 29004KT 9999 FEW030 BKN070=
200902170500 TAF LMML 170500Z 1706/1715 30005KT 9999 FEW040=
200902170200 TAF LMML 170200Z 1703/1712 27005KT 9999 SCT030=
200902162300 LMML 162300Z 1700/1709 27005KY 9999 FEW030=
200902162000 TAF LMML 162000Z 1621/1706 30003KT 9999 FEW030=
200902161700 TAF LMML 161700Z 1618/1703 VRB03KT 9999 SCT035=
200902161400 TAF LMML 161400Z 1615/1624 VRB03KT 9999 SCT035
                      PROB40 TEMPO 1615/1624 CAVOK=
200902161100 TAF LMML 161100Z 1612/1621 VRB03KT 9999 SCT025
                      PROB40 TEMPO 1612/1621 CAVOK=
200902160800 TAF LMML 160800Z 1609/1618 VRB03KT 9999 FEW025
                      PROB40 TEMPO 1609/1618 CAVOK=
200902160500 TAF LMML 160500Z 1606/1615 33008KT 9999 SCT035=
200902152300 TAF LMML 152300Z 1600/1609 31008KT 9999 SCT030 SCT045=
200902152000 TAF LMML 152000Z 1521/1606 31008KT 9999 SCT030 SCT045=
200902151400 TAF LMML 151400Z 1515/1524 33010KT 9999 FEW030=
200902150800 TAF LMML 150800Z 1509/1518 32012KT 9999 FEW030
                      PROB30 TEMPO 1509/1518 8000 SHRA BKN025=
200902150500 TAF LMML 150500Z 1506/1515 29012KT 9999 SCT030 SCT100
                      PROB30 TEMPO 1506/1509 6000 SHGR BKN015
                      BECMG 1509/1512 35010KT=
200902150200 LMML 150200Z 1503/1512 31010KT 9999 SCT025 SCT090
                      PROB30 TEMPO 1503/1509 6000 SHGR BKN015=
200902142300 LMML 142300Z 1500/1509 31010KT 9999 SCT025
                      PROB30 TEMPO 1500/1509 6000 SHGR BKN015=
200902141700 TAF LMML 141700Z 1418/1503 30015KT 9999 SCT030
                      PROB30 TEMPO 1418/1503 8000 SHRA=
200902141100 TAF LMML 141100Z 1412/1421 30012KT 9999 SCT025
                      PROB40 TEMPO 1412/1421 8000 SHRA=
200902140800 TAF LMML 140800Z 1409/1418 30015KT 9999 SCT025
                      TEMPO 1409/1418 8000 SHRA
                      PROB30 TEMPO 1409/1412 5000 TSGS BKN015CB=
200902140500 TAF LMML 140500Z 1406/1415 30015KT 9999 SCT025
                      TEMPO 1406/1415 7000 SHRA SCT018TCU
                      PROB30 TEMPO 1406/1412 4000 TSGS BKN015CB=
200902140200 TAF LMML 140200Z 1403/1412 30015KT 9999 SCT030
                      TEMPO 1403/1412 7000 SHRA SCT018TCU
                      PROB30 TEMPO 1403/1412 3000 TSGS BKN015CB=
200902132300 TAF LMML 132300Z 1400/1409 30015KT 9999 SCT030
                      TEMPO 1400/1409 7000 SHRA SCT018TCU
                      PROB30 TEMPO 1400/1409 3000 TSGS BKN015CB=
200902132000 TAF LMML 132000Z 1321/1406 20016KT 9999 SCT030
                      TEMPO 1321/1406 5000 SHGSRA BKN015
                      PROB30 TEMPO 1321/1406 3000 TSGR BKN015CB=
200902131700 TAF LMML 131700Z 1318/1403 28018G28KT 9999 SCT025
                      TEMPO 1318/1403 5000 SHGR BKN015
                      PROB30 TEMPO 1318/1403 2000 TSGR BKN015CB
                       BECMG 1318/1321 30016KT=
200902131400 TAF LMML 131400Z 1315/1324 28017KT 9999 SCT025
                      TEMPO 1315/1324 5000 SHGR BKN015
                      PROB30 TEMPO 1315/1324 28020G35KT 2000 TSGR
                       BKN015CB=
200902131100 LMML 131100Z 1312/1321 29014KT 9999 SCT025
                      TEMPO 1312/1321 5000 SHGR BKN015
                      PROB30 TEMPO 1312/1321 2000 TSGR BKN015CB
                       BECMG 1312/1315 28020G30KT=
200902130800 LMML 130800Z 1309/1318 29014KT 9999 SCT025
                      TEMPO 1309/1318 6000 SHGR BKN015
                      PROB30 TEMPO 1309/1318 3000 TSGR BKN015CB
                       BECMG 1309/1312 28017G27KT=
200902130200 TAF LMML 130200Z 1303/1312 30018KT 9999 SCT030
                      TEMPO 1303/1312 8000 SHGR BKN018
                      PROB30 TEMPO 1303/1312 5000 TSGR BKN018CB=
200902122300 TAF LMML 122300Z 1300/1309 28012KT 9999 SCT025
                      TEMPO 1300/1309 8000 SHGR BKN018
                      PROB30 TEMPO 1300/1309 5000 TSGR BKN018CB=
200902122000 TAF LMML 122000Z 1221/1306 28015KT 9999 SCT040
                      TEMPO 1221/1306 6000 SHGR BKN025
                      PROB30 TEMPO 1223/1306 5000 TSGR BKN018CB=
200902121700 TAF LMML 121700Z 1218/1303 29022KT 9999 SCT035
                      TEMPO 1218/1303 8000 SHRA
                      PROB40 TEMPO 1218/1303 30022G32KT 5000 TSGS
                       BKN020CB=
200902121400 TAF LMML 121400Z 1215/1224 29022KT 9999 SCT038
                      TEMPO 1215/1221 29022G32KT
                      TEMPO 1215/1224 8000 SHRA
                      PROB40 TEMPO 1215/1224 5000 TSGS BKN020CB=
200902121135 LMML 121135Z 1212/1221 29022KT 9999 SCT020 BKN050
                      TEMPO 1212/1221 29022G32KT
                      TEMPO 1212/1221 8000 SHRA
                      PROB30 TEMPO 1212/1221 5000 TSGS BKN015CB=
200902121100 TAF LMML 121100Z 1212/1221 29022KT 9999 SCT020 BKN050
                      TEMPO 1212/1218 29022G32KT
                      TEMPO 1212/1221 8000 SHRA=
200902120800 LMML 120800Z 1209/1218 29024KT 9999 SCT030
                      TEMPO 1209/1218 29022G32KT
                      TEMPO 1209/1218 8000 SHRA BKN015
                      PROB30 TEMPO 1209/1211 5000 TSGR BKN020CB=
200902120500 TAF LMML 120500Z 1206/1215 29020G30KT 9999 SCT030 SCT050
                      TEMPO 1206/1209 8000 SHRA
                      PROB30 TEMPO 1206/1209 5000 TSG=
200902120200 TAF LMML 120200Z 1203/1212 28017G27KT 9999 SCT035
                      TEMPO 1203/1212 8000 SHRA
                      PROB30 TEMPO 1203/1212 5000TSGR=
200902112300 TAF LMML 112300Z 1200/1209 28015G25KT 9999 SCT035
                      TEMPO 1200/1209 8000 SHRA
                      PROB30 TEMPO 1200/1209 5000 TSGR=
200902112000 TAF LMML 112000Z 1121/1206 28016G26KT 9999 FEW030
                      PROB40 TEMPO 1121/1206 7000 SHRA=
200902111700 LMML 111700Z 1118/1203 28020G30KT 9999 FEW025
                      TEMPO 1118/1203 6000 SHRA BKN015=
200902111400 TAF LMML 111400Z 1115/1124 28025G35KT 9999 FEW025
                      TEMPO 1115/1124 7000 SHRA
                      PROB30=
200902111100 LMML 111100Z 1112/1121 28022G35 9999 SCT025
                      TEMPO 1112/1121 7000 SHRA
                      PROB30 TEMPO 1116/1121 5000 TSRA BKN015CB=
200902110800 TAF LMML 110800Z 1109/1118 28020G30KT 9999 SCT025 BKN090
                      TEMPO 1109/1118 7000 SHRA BKN015=
200902110500 LMML 110500Z 1106/1115 28008KT 9999 SCT020
                      BECMG 1106/1109 28018KT
                      PROB30 TEMPO 1108/1115 8000 SHRA=
200902110200 LMML 110200Z 1103/1112 27008KT 9999 SCT020
                      TEMPO 1103/1106 CAVOK
                      BECMG 1105/1107 28018KT=
200902102300 TAF LMML 102300Z 1100/1109 27008KT 9999 FEW015
                      TEMPO 1100/1103 CAVOK
                      BECMG 1105/1107 28018KT=
200902102000 LMML 102000Z 1021/1106 27008KT 9999 FEW015
                      PROB30 TEMPO 1103/1106 BKN015
                      BECMG 1104/1106 28018KT=
200902101400 TAF LMML 101400Z 1015/1024 26012KT 9999 FEW020=
200902101100 LMML 1012/1021 26012KT 9999 FEW020=
200902101036 TAF LMML 1012/1021 26012KT 9999 FEW020=
200902101033 LMML 1012/1021 26012KT 9999 FEW020=
200902100800 TAF LMML 100800Z 1009/1018 26012KT 9999 FEW020=
200902100500 LMML 100500Z 1006/1015 27010KT 9999 SCT015 BKN030
                      PROB30 TEMPO 1006/1009 BKN012=
200902100200 TAF LMML 100200Z 1003/1012 28010KT 9999 SCT020
                      PROB30 TEMPO 1003/1009 BKN012=
200902092300 TAF LMML 092300Z 1000/1009 28012KT 9999 SCT020
                      PROB30 TEMPO 1003/1006 9000 BKN012=
200902092000 TAF LMML 092000Z 0921/1006 30016KT 9999 SCT020
                      PROB30 TEMPO 0921/0924 8000 BKN008
                      PROB30 TEMPO 1003/1006 9000 BKN012=
200902091700 TAF LMML 091700Z 0918/1003 29020G30KT 9999 SCT030
                      BECMG 0918/0921 28017KT=
200902091400 TAF LMML 091400Z 0915/0924 29023G33KT 9999 SCT030
                      PROB30 TEMPO 0915/0920 7000 SHGR BKN015
                      BECMG 0916/0919 29017KT=
200902091100 TAF LMML 091100Z 0912/0921 29023G35KT 9999 SCT025
                      TEMPO 0912/0918 7000 SHGR BKN015
                      BECMG 0915/0918 29018KT=
200902090800 TAF LMML 090800Z 0909/0918 29023G35KT 9999 SCT025
                      TEMPO 0909/0918 6000 SHGR BKN015
                      PROB30 TEMPO 0909/0912 3000 TSGR BKN015CB
                       BECMG 0915/0918 29018KT=
200902090500 TAF LMML 090500Z 0906/0915 30025G35KT 9999 FEW030
                      TEMPO 0906/0912 6000 SHGR BKN020=
200902090200 TAF LMML 090200Z 0903/0912 30025G35KT 9999 FEW040
                      TEMPO 0903/0909 8000 SHGR BKN018=
200902082300 TAF LMML 082300Z 0900/0909 30015G25KT 9999 FEW035
                      TEMPO 0900/0909 8000 SHGR BKN018
                      PROB30 TEMPO 0900/0907 5000 TSGR BKN018CB
                       BECMG 0906/0909 30025KT=
200902082000 TAF LMML 082000Z 0821/0906 30018KT 9999 SCT030
                      TEMPO 0821/0906 6000 SHGR BKN018
                      PROB30 TEMPO 0821/0906 30020G30KT TSGR BKN018CB=
200902081700 LMML 081700Z 0818/0903 28018KT 9999 SCT040
                      TEMPO 0818/0903 8000 SHRA BKN015
                      PROB40 TEMPO 0818/0903 29020G30KT 4000 TSRA
                       BKN010 BKN018CB=
200902081400 TAF LMML 081400Z 0815/0824 26016KT 9999 SCT040
                      PROB40 TEMPO 0815/0824 8000 SHRA
                      PROB30 TEMPO 0818/0824 5000 TSRA BKN020CB=
200902081100 TAF LMML 081100Z 0812/0821 26016KT 9999 SCT040
                      PROB40 TEMPO 0812/0821 8000 SHRA
                      PROB30 TEMPO 0818/0821 5000 TSRA SCT020CB=
200902080800 TAF LMML 080800Z 0809/0818 26014KT 9999 SCT030
                      PROB40 TEMPO 0809/0818 8000 SHRA
                      PROB30 TEMPO 0816/0818 5000 TSRA SCT020CB=
200902080500 TAF LMML 080500Z 0806/0815 25012KT 9999 SCT030
                      PROB30 TEMPO 0806/0815 8000 SHRA=
200902080200 TAF LMML 080200Z 0803/0812 25010KT 9999 SCT020=
200902072300 TAF LMML 072300Z 0800/0809 25010KT 9999 SCT020=
200902072000 TAF LMML 072000Z 0721/0806 26010KT 9999 FEW020=
200902071700 TAF LMML 071700Z 0718/0803 26015KT 9999 FEW025
                      PROB30 TEMPO 0718/0803 7000 SHRA BKN015=
200902071400 TAF LMML 071400Z 0715/0724 23015KT 9999 FEW020
                      TEMPO 0715/0724 7000 SHRA BKN015=
200902071100 TAF LMML 071100Z 0712/0721 21015KT 9000 NSC
                      BECMG 0712/0715 SCT015
                      BECMG 0715/0718 27015KT 9999
                      TEMPO 0718/0721 8000 SHRA BKN015=
200902070800 TAF LMML 070800Z 0709/0718 20015KT 7000 NSC
                      BECMG 0712/0715 SCT015
                      BECMG 0715/0718 27015KT 9999 BKN015=
200902070500 TAF LMML 070500Z 0706/0715 18011KT 9000 NSC
                      BECMG 0706/0709 9999 FEW015
                      BECMG 0711/0714 24014KT=
200902070200 TAF LMML 070200Z 0703/0712 17010KT 9000 NSC
                      TEMPO 0703/0706 5000 BR FEW008
                      PROB30 TEMPO 0703/0706 3000 BR BKN005
                      BECMG 0704/0707 9999 FEW015
                      BECMG 0709/0712 23013KT=
200902062300 TAF LMML 062300Z 0700/0709 18010KT 9000 NSC
                      TEMPO 0700/0706 5000 BR FEW008
                      PROB30 TEMPO 0700/0703 3000 BR BKN005
                      BECMG 0702/0705 9999 FEW011=
200902062000 TAF LMML 062000Z 0621/0706 17008KT 8000 NSC
                      TEMPO 0621/0706 5000 BR FEW007
                      PROB30 TEMPO 0621/0703 3000 BR SCT005
                      BECMG 0703/0706 9999 FEW011=
200902061700 TAF LMML 061700Z 0618/0703 18012KT CAVOK
                      PROB40 TEMPO 0618/0703 8000 FWE020=
200902061400 TAF LMML 061400Z 0615/0624 26010KT 9999 FEW020
                      BECMG 0616/0618 18012KT=
200902061100 TAF LMML 061100Z 0612/0621 25010KT CAVOK=
200902060800 TAF LMML 060800Z 0609/0618 25015KT CAVOK=
200902060500 LMML 060500Z 0606/0615 16012KT 7000 NSC
                      TEMPO 0606/0615 FEW018
                      PROB40 TEMPO 0606/0615 CAVOK=
200902060200 TAF LMML 060200Z 0603/0612 16011KT CAVOK
                      TEMPO 0603/0612 9999 FEW015
                      TEMPO 0603/0606 7000 NSC
                      PROB30 TEMPO 0603/0606 5000 BR BKN009
                      BECMG 0604/0607 25014KT=
200902052300 TAF LMML 052300Z 0600/0609 16010KT CAVOK
                      TEMPO 0600/0609 9999 FEW015
                      PROB30 TEMPO 0600/0606 7000 NSC
                      BECMG 0604/0607 25014KT=
200902052010 LMML 052010Z 0521/0606 15010KT CAVOK
                      PROB40 TEMPO 0521/0606 9999 FEW015
                      PROB30 TEMPO 0521/0606 7000 NSC
                      BECMG 0604/0607 25014KT=
200902052000 TAF LMML 052000Z 0521/0606 15010KT CAVOK
                      PROB40 TEMPO 0521/0606 9999 FEW015
                      PROB40 TEMPO 0521/0603 7000
                      BECMG 0604/0607 25014KT=
200902051700 TAF LMML 051700Z 0518/0603 14009KT CAVOK
                      TEMPO 0518/0603 9999 FEW015
                      PROB30 TEMPO 0519/0603 7000 SCT010
                      BECMG 0600/0603 21012KT=
200902051400 TAF LMML 051400Z 0515/0524 15010KT CAVOK
                      TEMPO 0515/0517 9999 FEW015
                      PROB30 TEMPO 0520/0524 8000 SCT010=
200902051100 TAF LMML 051100Z 0512/0521 16008KT CAVOK
                      TEMPO 0512/0516 9999 FEW020=
200902050800 TAF LMML 050800Z 0509/0518 17007KT CAVOK
                      TEMPO 0509/0516 9999 FEW020=
200902050500 TAF LMML 050500Z 0506/0515 21005KT CAVOK
                      TEMPO 0506/0515 FEW040
                      BECMG 0512/0515 15010KT=
200902050200 TAF LMML 050200Z 0503/0512 20005KT 9999 FEW020 SCT040=
200902042300 TAF LMML 042300Z 0500/0509 21005KT 9999 FEW020 SCT040=
200902042000 TAF LMML 042000Z 0421/0506 21005KT 9999 FEW020 SCT040=
200902041700 TAF LMML 041700Z 0418/0503 VRB03KT 9999 FEW025
                      TEMPO 0418/0503 CAVOK
                      PROB30 TEMPO 0500/0503 8000 BKN009=
200902041400 TAF LMML 041400Z 0415/0424 26006KT 9999 FEW030
                      TEMPO 0415/0424 CAVOK=
200902041100 TAF LMML 041100Z 0412/0421 26007KT 9999 FEW028
                      TEMPO 0412/0421 CAVOK=
200902040800 TAF LMML 040800Z 0409/0418 26007KT 9999 FEW025=
200902040500 TAF LMML 040500Z 0406/0415 27012KT 9999 FEW025=
200902040200 TAF LMML 040200Z 0403/0412 27014KT 9999 FEW020=
200902032300 TAF LMML 032300Z 0400/0409 28015KT 9999 FEW020=
200902032000 TAF LMML 032000Z 0321/0406 23015KT CAVOK
                      BECMG 0322/0401 29015KT
                      PROB30 TEMPO 0321/0406 9000 FEW020=
200902031700 TAF LMML 031700Z 0318/0403 25012KT 9999 FEW015 SCT060
                      BECMG 0321/0324 28015KT=
200902031555 LMML 031555Z 0315/0324 23012KT 9999 SCT015 BKN090
                      PROB30 TEMPO 0315/0321 6000 SHRA BKN015
                      PROB30 TEMPO 0315/0321 4000 TSRA BKN015CB
                       BECMG 0321/0324 30015KT=
200902031100 TAF LMML 031100Z 0312/0321 23010KT CAVOK
                      BECMG 0313/0316 8000 RA SCT015 BKN080 OVC200=
200902030800 TAF LMML 030800Z 0309/0318 19012KT CAVOK
                      BECMG 0313/0316 9999 FEW015 RA BKN060 OVC200=
200902030500 TAF LMML 030500Z 0306/0315 21012KT CAVOK
                      BECMG 0312/0315 9999 FEW015 SCT060=
200902030200 TAF LMML 030200Z 0303/0312 19010KT CAVOK
                      PROB30 TEMPO 0303/0306 8000 FEW010=
200902022300 TAF LMML 022300Z 0300/0309 17012KT CAVOK
                      PROB30 TEMPO 0300/0306 8000 FEW010=
200902022000 TAF LMML 022000Z 0221/0306 17014KT CAVOK
                      PROB30 TEMPO 0221/0306 8000 FEW010=
200902021700 TAF LMML 021700Z 0218/0303 16012KT CAVOK
                      PROB30 TEMPO 0221/0303
                      TEMPO 7000 NSC=
200902021400 TAF LMML 021400Z 0215/0224 15012KT CAVOK=
200902021100 TAF LMML 021100Z 0212/0221 16012KT CAVOK=
200902020800 TAF LMML 020800Z 0209/0218 16012KT CAVOK=
200902020500 TAF LMML 020500Z 0206/0215 15014KT CAVOK
                      PROB30 TEMPO 0208/0215 7000 SCT007=
200902020200 TAF LMML 020200Z 0203/0212 17004KT 9999 CAVOK
                      PROB30 TEMPO 0203/0205 9999 FEW025
                      BECMG 0205/0208 17014KT
                      PROB30 TEMPO 0208/0212 8000 SCT008=
200902012300 TAF LMML 012300Z 0200/0209 17004KT 9999 FEW025
                      PROB40 TEMPO 0200/0209 CAVOK
                      BECMG 0205/0208 17014KT=
200902012000 TAF LMML 012000Z 0121/0206 23005KT 9999 FEW025
                      PROB40 TEMPO 0121/0206 CAVOK
                      BECMG 0203/0206 17010KT=
200902011700 TAF LMML 011700Z 0118/0203 27010KT 9999 SCT020
                      PROB30 TEMPO 0118/0124 8000 BKN015
                      BECMG 0121/0124 21007KT
                      BECMG 0200/0203 15010KT=
200902011400 TAF LMML 011400Z 0115/0124 28017KT 9999 SCT020
                      TEMPO 0115/0117 27017G27KT
                      BECMG 0116/0119 25007KT=
200902010800 TAF LMML 010800Z 0109/0118 17014KT 9999 FEW015 SCT070
                      PROB30 TEMPO 0109/0115 8000 RA BKN015 BKN050
                       BECMG 0109/0112 24013KT=
200902010500 TAF LMML 010500Z 0106/0115 15018KT 9999 SCT015 SCT030
                      PROB30 TEMPO 0106/0115 SHRA BKN015
                      BECMG 0110/0113 27018KT=
200902010200 LMML 010200Z 0103/0112 15018KT 9999 SCT018 BKN025
                      PROB30 TEMPO 0103/0110 SHRA BKN015=

###################################
#  large TAF from LMML
###################################
200903032300 LMML NIL=
200903031700 LMML NIL=
200903031100 LMML NIL=
200903030500 LMML NIL=
200903022300 LMML NIL=
200903021700 LMML NIL=
200903021100 LMML NIL=
200903020500 LMML NIL=
200903012300 LMML NIL=
200903011700 LMML NIL=
200903011100 LMML NIL=
200903010500 LMML NIL=
200902282300 LMML NIL=
200902280500 LMML NIL=
200902272300 LMML NIL=
200902271700 LMML NIL=
200902271100 LMML NIL=
200902270500 LMML NIL=
200902262300 LMML NIL=
200902261700 LMML NIL=
200902261100 LMML NIL=
200902260500 LMML NIL=
200902252300 LMML NIL=
200902251700 LMML NIL=
200902251100 LMML NIL=
200902250500 LMML NIL=
200902242300 LMML NIL=
200902241700 LMML NIL=
200902241100 LMML NIL=
200902240500 LMML NIL=
200902232300 LMML NIL=
200902231700 LMML NIL=
200902231100 LMML NIL=
200902230500 LMML NIL=
200902222300 LMML NIL=
200902221700 LMML NIL=
200902221100 LMML NIL=
200902220500 LMML NIL=
200902212300 LMML NIL=
200902211700 LMML NIL=
200902211100 LMML NIL=
200902210500 LMML NIL=
200902202300 LMML NIL=
200902201700 LMML NIL=
200902201100 LMML NIL=
200902200500 LMML NIL=
200902192300 LMML NIL=
200902191700 LMML NIL=
200902191100 LMML NIL=
200902190500 LMML NIL=
200902182300 LMML NIL=
200902181700 LMML NIL=
200902181100 LMML NIL=
200902180500 LMML NIL=
200902172300 LMML NIL=
200902171700 LMML NIL=
200902171100 LMML NIL=
200902170500 LMML NIL=
200902162300 LMML NIL=
200902161700 LMML NIL=
200902161100 LMML NIL=
200902160500 LMML NIL=
200902152300 LMML NIL=
200902151100 LMML NIL=
200902150500 LMML NIL=
200902142300 LMML NIL=
200902141700 LMML NIL=
200902141100 LMML NIL=
200902140500 LMML NIL=
200902132300 LMML NIL=
200902131700 LMML NIL=
200902131100 LMML NIL=
200902130500 LMML NIL=
200902122300 LMML NIL=
200902121700 LMML NIL=
200902121100 LMML NIL=
200902120500 LMML NIL=
200902112300 LMML NIL=
200902111700 LMML NIL=
200902111100 LMML NIL=
200902110500 LMML NIL=
200902102300 LMML NIL=
200902101700 LMML NIL=
200902101100 LMML NIL=
200902100500 LMML NIL=
200902092300 LMML NIL=
200902091700 LMML NIL=
200902091100 LMML NIL=
200902090500 LMML NIL=
200902082300 LMML NIL=
200902081700 LMML NIL=
200902081100 LMML NIL=
200902080500 LMML NIL=
200902072300 LMML NIL=
200902071700 LMML NIL=
200902071100 LMML NIL=
200902070500 LMML NIL=
200902062300 LMML NIL=
200902061700 LMML NIL=
200902061100 LMML NIL=
200902060500 LMML NIL=
200902052300 LMML NIL=
200902051700 LMML NIL=
200902051100 LMML NIL=
200902050500 LMML NIL=
200902042300 LMML NIL=
200902041700 LMML NIL=
200902041100 LMML NIL=
200902040500 LMML NIL=
200902032300 LMML NIL=
200902031700 LMML NIL=
200902031100 LMML NIL=
200902030500 LMML NIL=
200902022300 LMML NIL=
200902021700 LMML NIL=
200902021100 LMML NIL=
200902020500 LMML NIL=
200902012300 LMML NIL=
200902011700 LMML NIL=
200902011100 LMML NIL=
200902010500 LMML NIL=
