##########################################################
# Query made at 01/18/2013 16:56:17 UTC
# Time interval: from 02/01/2008 00:00  to 03/02/2008 23:59  UTC
##########################################################

##########################################################
# LMML, Luqa (Malta)
# WMO index: 16597
# Latitude 35-51N. Longitude 014-29E. Altitude 91 m.
##########################################################

###################################
#  METAR/SPECI from LMML
###################################
200803022345 METAR LMML 022345Z 29012KT 9000 FEW014 14/13 Q1019 NOSIG=
200803022330 METAR LMML NIL=
200803022315 METAR LMML 022315Z 29011KT 9000 FEW013 14/13 Q1019 NOSIG=
200803022300 METAR LMML NIL=
200803022245 METAR LMML 022245Z 29013KT 9000 FEW014 14/13 Q1019 NOSIG=
200803022230 LMML NIL=
200803022215 METAR LMML 022215Z 29010KT 9999 FEW013 14/13 Q1019 NOSIG=
200803022200 METAR LMML NIL=
200803022145 METAR LMML 022145Z 29011KT 9999 FEW016 14/13 Q1019 NOSIG=
200803022130 METAR LMML NIL=
200803022115 METAR LMML 022115Z 30011KT 9999 FEW016 14/13 Q1019 NOSIG=
200803022100 METAR LMML NIL=
200803022045 METAR LMML 022045Z 30013KT 9999 FEW016 14/13 Q1019 NOSIG=
200803022030 METAR LMML NIL=
200803022015 METAR LMML 022015Z 30013KT 9999 FEW017 15/12 Q1019 NOSIG=
200803022000 METAR LMML NIL=
200803021945 METAR LMML 021945Z 30013KT 9999 FEW019 15/12 Q1019 NOSIG=
200803021930 METAR LMML NIL=
200803021915 METAR LMML 021915Z 29015KT 9999 FEW019 15/12 Q1019 NOSIG=
200803021900 METAR LMML NIL=
200803021845 METAR LMML 021845Z 29016KT 9999 SCT021 15/12 Q1019 NOSIG=
200803021830 METAR LMML NIL=
200803021815 METAR LMML 021815Z 29014KT 9999 SCT021 15/12 Q1019 NOSIG=
200803021800 METAR LMML NIL=
200803021745 METAR LMML 021745Z 28013KT 240V300 9999 FEW021 15/12 Q1018
                        NOSIG=
200803021730 METAR LMML NIL=
200803021715 METAR LMML 021715Z 29015KT 9999 SCT019 15/12 Q1018 NOSIG=
200803021700 METAR LMML NIL=
200803021645 METAR LMML 021645Z 29014KT 260V320 9999 SCT018 SCT023 15/13
                        Q1018 NOSIG=
200803021630 METAR LMML NIL=
200803021615 METAR LMML 021615Z 28016KT 250V310 9999 SCT017 16/13 Q1018
                        NOSIG=
200803021600 METAR LMML NIL=
200803021545 METAR LMML 021545Z 28018KT 250V310 9999 BKN016 16/13 Q1018
                        NOSIG=
200803021530 METAR LMML NIL=
200803021515 METAR LMML 021515Z 28017KT 9999 BKN017 16/13 Q1018 NOSIG=
200803021500 METAR LMML NIL=
200803021445 METAR LMML 021445Z 29018KT 9999 BKN018 16/13 Q1018 NOSIG=
200803021430 METAR LMML NIL=
200803021415 METAR LMML 021415Z 28018KT 250V310 9999 BKN019 17/13 Q1018
                        NOSIG=
200803021400 METAR LMML NIL=
200803021345 METAR LMML 021345Z 28019KT 250V310 9999 BKN019 17/13 Q1018
                        NOSIG=
200803021315 METAR LMML 021315Z 28016KT 240V310 9999 BKN020 17/13 Q1018
                        NOSIG=
200803021300 METAR LMML NIL=
200803021245 METAR LMML 021245Z 28018KT 250V320 9999 BKN017 17/13 Q1018
                        NOSIG=
200803021230 METAR LMML NIL=
200803021215 METAR LMML 021215Z 28018KT 240V310 9999 BKN019 17/13 Q1019
                        NOSIG=
200803021200 LMML NIL=
200803021145 METAR LMML 021145Z 27018KT 240V300 9999 SCT020 17/13 Q1019
                        NOSIG=
200803021130 METAR LMML NIL=
200803021115 METAR LMML 021115Z 28017KT 9999 SCT019 17/13 Q1019 NOSIG=
200803021100 METAR LMML NIL=
200803021045 METAR LMML 021045Z 28017KT 250V310 9999 SCT018 17/13 Q1019
                        NOSIG=
200803021030 METAR LMML NIL=
200803021015 METAR LMML 021015Z 28018KT 250V320 9999 BKN017 17/13 Q1020
                        NOSIG=
200803021000 METAR LMML NIL=
200803020945 METAR LMML 020945Z 28016KT 240V320 9999 SCT016 BKN028 16/13
                        Q1020 NOSIG=
200803020930 METAR LMML NIL=
200803020915 METAR LMML 020915Z 29017KT 9999 SCT015 BKN032 16/13 Q1020
                        NOSIG=
200803020900 METAR LMML NIL=
200803020845 METAR LMML 020845Z 28017KT 9999 SCT016 BKN030 16/13 Q1019
                        NOSIG=
200803020830 METAR LMML NIL=
200803020815 METAR LMML 020815Z 28017KT 9999 SCT017 BKN033 16/13 Q1019
                        NOSIG=
200803020800 LMML NIL=
200803020745 LMML 020745Z 28017KT 250V310 9999 SCT017 BKN033 16/13 Q1019
                        NOSIG=
200803020730 METAR LMML NIL=
200803020715 METAR LMML 020715Z 28016KT 250V310 9999 FEW016 BKN034 16/13
                        Q1019 NOSIG=
200803020700 METAR LMML NIL=
200803020645 METAR LMML 020645Z 28014KT 9999 FEW016 BKN033 15/13 Q1019
                        NOSIG=
200803020630 METAR LMML NIL=
200803020615 METAR LMML 020615Z 28015KT 9000 FEW020 BKN033 15/13 Q1019
                        NOSIG=
200803020600 METAR LMML NIL=
200803020545 METAR LMML 020545Z 28016KT 9999 FEW015 BKN033 15/13 Q1019
                        NOSIG=
200803020530 METAR LMML NIL=
200803020515 METAR LMML 020515Z 28014KT 230V310 9999 SCT015 BKN034 15/13
                        Q1018 NOSIG=
200803020500 METAR LMML NIL=
200803020445 METAR LMML 020445Z 28014KT 250V310 9999 FEW016 BKN030 15/13
                        Q1018 NOSIG=
200803020430 METAR LMML NIL=
200803020415 METAR LMML 020415Z 28016KT 240V310 9999 FEW020 BKN030 15/12
                        Q1018 NOSIG=
200803020400 METAR LMML NIL=
200803020345 METAR LMML 020345Z 28015KT 9999 SCT020 BKN026 15/12 Q1018
                        NOSIG=
200803020330 METAR LMML NIL=
200803020315 METAR LMML 020315Z 28015KT 230V310 9999 FEW020 BKN024 15/12
                        Q1018 NOSIG=
200803020300 METAR LMML NIL=
200803020245 METAR LMML 020245Z 27015KT 240V300 9999 FEW018 BKN025 15/12
                        Q1018 NOSIG=
200803020230 METAR LMML NIL=
200803020215 METAR LMML 020215Z 28017KT 250V310 9999 FEW017 BKN027 15/12
                        Q1018 NOSIG=
200803020145 METAR LMML 020145Z 28015KT 250V310 9999 FEW018 BKN029 15/12
                        Q1018 NOSIG=
200803020130 METAR LMML NIL=
200803020115 METAR LMML 020115Z 28014KT 250V320 9999 SCT018 BKN031 15/12
                        Q1019 NOSIG=
200803020100 METAR LMML NIL=
200803020045 METAR LMML 020045Z 28015KT 240V300 9999 SCT018 BKN029 15/12
                        Q1019 NOSIG=
200803020030 METAR LMML NIL=
200803020015 METAR LMML 020015Z 28016KT 9999 -SHRA SCT018 BKN027 15/12
                        Q1019 NOSIG=
200803020000 METAR LMML NIL=
200803012345 METAR LMML 012345Z 28015KT 250V320 9999 BKN017 15/13 Q1019
                        NOSIG=
200803012330 METAR LMML NIL=
200803012315 METAR LMML 012315Z 29016KT 250V310 9999 BKN019 15/12 Q1019
                        NOSIG=
200803012300 METAR LMML NIL=
200803012245 METAR LMML 012245Z 29014KT 260V320 9999 SCT021 15/12 Q1019
                        NOSIG=
200803012230 METAR LMML NIL=
200803012215 METAR LMML 012215Z 28018KT 9999 SCT020 15/12 Q1020 NOSIG=
200803012200 METAR LMML NIL=
200803012145 METAR LMML 012145Z 28015KT 9999 SCT020 15/12 Q1019 NOSIG=
200803012130 METAR LMML NIL=
200803012115 METAR LMML 012115Z 29014KT 9999 FEW020 14/12 Q1020 NOSIG=
200803012100 METAR LMML NIL=
200803012045 METAR LMML 012045Z 28013KT 9999 FEW015 14/12 Q1020 NOSIG=
200803012030 METAR LMML NIL=
200803012015 METAR LMML 012015Z 29012KT 9999 FEW021 14/12 Q1020 NOSIG=
200803012000 METAR LMML NIL=
200803011945 METAR LMML 011945Z 29014KT 9999 FEW021 14/11 Q1020 NOSIG=
200803011930 METAR LMML NIL=
200803011915 METAR LMML 011915Z 29016KT 9999 FEW021 15/11 Q1019 NOSIG=
200803011845 METAR LMML 011845Z 29014KT 9999 BKN022 15/12 Q1019 NOSIG=
200803011815 METAR LMML 011815Z 28014KT 9999 BKN023 15/12 Q1020 NOSIG=
200803011800 METAR LMML NIL=
200803011745 METAR LMML 011745Z 29015KT 9999 FEW017 BKN023 15/11 Q1019
                        NOSIG=
200803011730 METAR LMML NIL=
200803011715 METAR LMML 011715Z 29014KT 9999 FEW017 15/11 Q1019 NOSIG=
200803011700 METAR LMML NIL=
200803011645 METAR LMML 011645Z 29015G25KT 9999 FEW017 BKN026 15/12 Q1020
                        NOSIG=
200803011630 METAR LMML NIL=
200803011615 METAR LMML 011615Z 28014KT 9999 FEW017 SCT028 15/11 Q1020
                        NOSIG=
200803011600 METAR LMML NIL=
200803011545 METAR LMML 011545Z 29015KT 260V320 9999 FEW017 BKN029 16/11
                        Q1020 NOSIG=
200803011530 METAR LMML NIL=
200803011515 METAR LMML 011515Z 29017KT 9999 SCT017 BKN027 16/12 Q1020
                        NOSIG=
200803011500 METAR LMML NIL=
200803011445 METAR LMML 011445Z 29014KT 240V320 9999 SCT020 BKN027 16/12
                        Q1020 NOSIG=
200803011430 METAR LMML NIL=
200803011415 METAR LMML 011415Z 29016KT 9999 BKN024 16/12 Q1020 NOSIG=
200803011400 METAR LMML NIL=
200803011345 METAR LMML 011345Z 28017KT 250V310 9999 BKN028 16/10 Q1020
                        NOSIG=
200803011330 METAR LMML NIL=
200803011315 METAR LMML 011315Z 29017KT 260V320 9999 SCT028 17/10 Q1020
                        NOSIG=
200803011300 METAR LMML NIL=
200803011245 METAR LMML 011245Z 28014KT 240V310 9999 SCT025 17/11 Q1020
                        NOSIG=
200803011230 METAR LMML NIL=
200803011215 METAR LMML 011215Z 30017KT 260V320 9999 SCT025 17/11 Q1020
                        NOSIG=
200803011200 METAR LMML NIL=
200803011145 METAR LMML 011145Z 28014KT 250V320 9999 FEW020 BKN029 16/11
                        Q1021 NOSIG=
200803011130 METAR LMML NIL=
200803011115 METAR LMML 011115Z 28016KT 9999 FEW020 BKN029 16/11 Q1022
                        NOSIG=
200803011100 METAR LMML NIL=
200803011045 METAR LMML 011045Z 29016KT 9999 FEW020 BKN029 16/11 Q1022
                        NOSIG=
200803011030 METAR LMML NIL=
200803011015 METAR LMML 011015Z 29014KT 9000 SCT020 BKN028 16/11 Q1022
                        NOSIG=
200803011000 METAR LMML NIL=
200803010945 METAR LMML 010945Z 28012KT 9000 SCT019 BKN027 16/12 Q1023
                        NOSIG=
200803010930 METAR LMML NIL=
200803010915 METAR LMML 010915Z 30012KT 260V320 9000 SCT019 SCT028 16/12
                        Q1023 NOSIG=
200803010900 METAR LMML NIL=
200803010845 METAR LMML 010845Z 29013KT 9000 BKN019 16/13 Q1023 NOSIG=
200803010830 METAR LMML NIL=
200803010815 METAR LMML 010815Z 29011KT 260V320 9000 SCT018 16/13 Q1023
                        NOSIG=
200803010800 METAR LMML NIL=
200803010745 METAR LMML 010745Z 30012KT 9000 FEW017 BKN024 15/13 Q1023
                        NOSIG=
200803010730 METAR LMML NIL=
200803010715 METAR LMML 010715Z 29009KT 9000 FEW016 15/13 Q1022 NOSIG=
200803010700 LMML NIL=
200803010645 LMML 010645Z 29007KT 8000 FEW013 BKN021 15/14 Q1022 NOSIG=
200803010630 METAR LMML NIL=
200803010615 METAR LMML 010615Z 30007KT 8000 SCT020 14/14 Q1022 NOSIG=
200803010600 METAR LMML NIL=
200803010545 METAR LMML 010545Z 29006KT 8000 SCT024 13/13 Q1022 NOSIG=
200803010530 METAR LMML NIL=
200803010515 METAR LMML 010515Z 30008KT 8000 SCT020 13/13 Q1022 NOSIG=
200803010445 METAR LMML 010445Z 29007KT 8000 FEW020 13/13 Q1022 NOSIG=
200803010430 METAR LMML NIL=
200803010415 METAR LMML 010415Z 29008KT 6000 FEW020 13/13 Q1022 NOSIG=
200803010400 METAR LMML NIL=
200803010345 METAR LMML 010345Z VRB03KT 6000 FEW014 13/13 Q1022 NOSIG=
200803010330 METAR LMML NIL=
200803010315 METAR LMML 010315Z 26005KT 230V290 6000 FEW016 13/13 Q1022
                        NOSIG=
200803010300 METAR LMML NIL=
200803010245 METAR LMML 010245Z 27004KT 240V300 6000 BKN020 14/13 Q1022
                        NOSIG=
200803010230 METAR LMML NIL=
200803010215 METAR LMML 010215Z 27005KT 6000 BKN017 SCT070 13/13 Q1022
                        NOSIG=
200803010200 METAR LMML NIL=
200803010145 METAR LMML 010145Z 26004KT 230V290 6000 FEW018 SCT070 13/12
                        Q1023 NOSIG=
200803010130 METAR LMML NIL=
200803010115 METAR LMML 010115Z 25004KT 220V290 6000 FEW015 BKN070 13/12
                        Q1023 NOSIG=
200803010100 METAR LMML NIL=
200803010045 METAR LMML 010045Z VRB03KT 6000 FEW014 SCT070 13/13 Q1023
                        NOSIG=
200803010030 METAR LMML NIL=
200803010015 METAR LMML 010015Z VRB03KT 6000 FEW014 SCT060 13/13 Q1023
                        NOSIG=
200803010000 METAR LMML NIL=
200802292330 METAR LMML NIL=
200802292315 METAR LMML 292315Z 28004KT 6000 FEW015 SCT060 14/13 Q1024
                        NOSIG=
200802292300 METAR LMML NIL=
200802292245 METAR LMML 292245Z VRB03KT 6000 FEW015 13/13 Q1024 NOSIG=
200802292230 METAR LMML NIL=
200802292215 METAR LMML 292215Z VRB03KT 6000 FEW017 13/13 Q1024 NOSIG=
200802292200 METAR LMML NIL=
200802292145 METAR LMML 292145Z VRB03KT 6000 FEW015 13/12 Q1024 NOSIG=
200802292130 METAR LMML NIL=
200802292115 METAR LMML 292115Z VRB03KT 9000 FEW015 13/12 Q1024 NOSIG=
200802292100 METAR LMML NIL=
200802292045 METAR LMML 292045Z VRB02KT 9000 FEW015 13/12 Q1024 NOSIG=
200802292030 METAR LMML NIL=
200802292015 METAR LMML 292015Z VRB02KT 9999 FEW015 13/12 Q1024 NOSIG=
200802292000 METAR LMML NIL=
200802291945 METAR LMML 291945Z VRB03KT 9999 FEW015 13/12 Q1024 NOSIG=
200802291930 METAR LMML NIL=
200802291915 METAR LMML 291915Z 29004KT 9999 FEW015 13/12 Q1024 NOSIG=
200802291900 METAR LMML NIL=
200802291845 METAR LMML 291845Z 29004KT 9999 FEW015 14/12 Q1024 NOSIG=
200802291830 METAR LMML NIL=
200802291815 METAR LMML 291815Z VRB03KT 9999 FEW018 BKN050 14/12 Q1024
                        NOSIG=
200802291800 METAR LMML NIL=
200802291745 METAR LMML 291745Z 29004KT 260V320 9999 FEW019 BKN050 14/12
                        Q1023 NOSIG=
200802291730 METAR LMML NIL=
200802291715 METAR LMML 291715Z 29004KT 9999 FEW019 BKN050 15/12 Q1023
                        NOSIG=
200802291700 METAR LMML NIL=
200802291645 METAR LMML 291645Z 30006KT 270V330 9999 FEW019 BKN050 15/12
                        Q1023 NOSIG=
200802291630 METAR LMML NIL=
200802291615 METAR LMML 291615Z 31008KT 9999 SCT019 BKN050 16/12 Q1023
                        NOSIG=
200802291600 METAR LMML NIL=
200802291545 METAR LMML 291545Z 30006KT 9999 SCT029 BKN050 16/12 Q1023
                        NOSIG=
200802291530 METAR LMML NIL=
200802291515 METAR LMML 291515Z 29008KT 260V320 9999 SCT020 BKN050 16/12
                        Q1023 NOSIG=
200802291500 METAR LMML NIL=
200802291445 METAR LMML 291445Z 30007KT 9999 -RA SCT018 SCT040 16/12 Q1023
                        TEMPO BKN015=
200802291430 METAR LMML NIL=
200802291415 LMML 291415Z 30007KT 270V330 9999 BKN018 16/12 Q1023 TEMPO
                        BKN015=
200802291400 LMML NIL=
200802291345 LMML 291345Z 22007KT 180V270 9999 BKN017 17/13 Q1023 NOSIG=
200802291330 METAR LMML NIL=
200802291315 METAR LMML 291315Z 23008KT 210V270 9999 SCT017 17/13 Q1023
                        NOSIG=
200802291300 METAR LMML NIL=
200802291245 METAR LMML 291245Z 24006KT 190V300 9999 SCT017 17/13 Q1023
                        NOSIG=
200802291230 METAR LMML NIL=
200802291215 METAR LMML 291215Z 26009KT 220V290 9999 BKN019 17/13 Q1024
                        NOSIG=
200802291200 METAR LMML NIL=
200802291145 METAR LMML 291145Z 26006KT 190V310 9999 BKN021 17/12 Q1024
                        NOSIG=
200802291130 LMML NIL=
200802291115 METAR LMML 291115Z 27005KT 180V310 9999 BKN022 17/13 Q1024
                        NOSIG=
200802291100 METAR LMML NIL=
200802291045 METAR LMML 291045Z 23004KT 190V270 9999 BKN020 17/13 Q1025
                        NOSIG=
200802291030 METAR LMML NIL=
200802291015 METAR LMML 291015Z 28005KT 190V320 9999 BKN020 17/12 Q1025
                        NOSIG=
200802291000 METAR LMML NIL=
200802290945 METAR LMML 290945Z 29004KT 220V320 9999 BKN021 17/13 Q1025
                        NOSIG=
200802290930 METAR LMML NIL=
200802290915 METAR LMML 290915Z VRB03KT 9999 BKN025 16/12 Q1025 NOSIG=
200802290900 METAR LMML NIL=
200802290845 METAR LMML 290845Z 30004KT 270V340 9999 SCT023 17/12 Q1025
                        NOSIG=
200802290830 METAR LMML NIL=
200802290815 METAR LMML 290815Z VRB03KT 9999 FEW020 16/12 Q1025 NOSIG=
200802290800 METAR LMML NIL=
200802290745 METAR LMML 290745Z VRB01KT 9999 BKN026 16/12 Q1025 NOSIG=
200802290730 METAR LMML NIL=
200802290715 METAR LMML 290715Z VRB01KT 9000 FEW025 15/12 Q1025 BECMG
                        9999=
200802290700 METAR LMML NIL=
200802290645 METAR LMML 290645Z VRB01KT 9000 BKN025 14/13 Q1025 BECMG
                        9999=
200802290630 METAR LMML NIL=
200802290615 METAR LMML 290615Z VRB01KT 9999 BKN021 13/12 Q1025 NOSIG=
200802290600 METAR LMML NIL=
200802290545 METAR LMML 290545Z VRB02KT 9000 BKN021 13/12 Q1024 NOSIG=
200802290530 METAR LMML NIL=
200802290515 METAR LMML 290515Z VRB03KT 9000 BKN020 13/12 Q1024 NOSIG=
200802290500 METAR LMML NIL=
200802290445 METAR LMML 290445Z 29004KT 9000 BKN020 13/12 Q1024 NOSIG=
200802290430 METAR LMML NIL=
200802290415 METAR LMML 290415Z 29004KT 9000 FEW019 12/12 Q1024 NOSIG=
200802290400 METAR LMML NIL=
200802290345 METAR LMML 290345Z VRB03KT 9000 BKN020 12/12 Q1024 NOSIG=
200802290330 METAR LMML NIL=
200802290315 METAR LMML 290315Z VRB03KT 9000 BKN019 12/12 Q1024 NOSIG=
200802290300 METAR LMML NIL=
200802290245 METAR LMML 290245Z VRB01KT 9000 SCT018 13/12 Q1023 NOSIG=
200802290230 METAR LMML NIL=
200802290215 METAR LMML 290215Z VRB01KT 9000 BKN017 13/13 Q1024 NOSIG=
200802290200 METAR LMML NIL=
200802290145 METAR LMML 290145Z VRB01KT 9000 BKN017 13/12 Q1024 NOSIG=
200802290130 METAR LMML NIL=
200802290115 METAR LMML 290115Z VRB01KT 9000 BKN015 12/12 Q1024 NOSIG=
200802290100 METAR LMML NIL=
200802290045 METAR LMML 290045Z VRB03KT 9000 BKN013 12/12 Q1024 NOSIG=
200802290030 METAR LMML NIL=
200802290015 METAR LMML 290015Z 30005KT 9000 FEW014 12/12 Q1024 NOSIG=
200802290000 METAR LMML NIL=
200802282345 METAR LMML 282345Z VRB02KT 9000 FEW014 12/12 Q1024 NOSIG=
200802282330 METAR LMML NIL=
200802282315 METAR LMML 282315Z VRB02KT 9000 FEW014 12/12 Q1024 NOSIG=
200802282245 METAR LMML 282245Z VRB01KT 9000 FEW015 12/12 Q1024 NOSIG=
200802282230 METAR LMML NIL=
200802282215 METAR LMML 282215Z VRB01KT 9000 FEW015 13/12 Q1024 NOSIG=
200802282200 METAR LMML NIL=
200802282145 METAR LMML 282145Z VRB02KT 9000 FEW015 13/12 Q1024 NOSIG=
200802282130 METAR LMML NIL=
200802282115 METAR LMML 282115Z VRB03KT 9000 FEW015 13/12 Q1024 NOSIG=
200802282100 METAR LMML NIL=
200802282045 METAR LMML 282045Z VRB03KT 7000 FEW016 13/13 Q1024 NOSIG=
200802282015 METAR LMML 282015Z VRB03KT 7000 SCT016 14/13 Q1024 NOSIG=
200802282000 LMML NIL=
200802281945 LMML 281945Z VRB02KT 8000 BKN015 14/13 Q1024 TEMPO BKN015=
200802281930 METAR LMML NIL=
200802281915 METAR LMML 281915Z VRB03KT 8000 BKN016 14/13 Q1024 TEMPO
                        BKN015=
200802281900 METAR LMML NIL=
200802281845 METAR LMML 281845Z VRB03KT 8000 SCT017 14/13 Q1024 TEMPO
                        BKN015=
200802281830 METAR LMML NIL=
200802281815 METAR LMML 281815Z VRB03KT 8000 SCT015 14/13 Q1024 TEMPO
                        BKN015=
200802281800 METAR LMML NIL=
200802281745 METAR LMML 281745Z VRB03KT 8000 SCT016 14/13 Q1023 TEMPO
                        BKN015=
200802281730 METAR LMML NIL=
200802281715 METAR LMML 281715Z VRB03KT 8000 SCT016 15/13 Q1023 NOSIG=
200802281700 METAR LMML NIL=
200802281645 METAR LMML 281645Z VRB03KT 9999 SCT018 15/13 Q1023 NOSIG=
200802281630 METAR LMML NIL=
200802281615 METAR LMML 281615Z VRB03KT 9999 FEW020 16/12 Q1023 NOSIG=
200802281545 METAR LMML 281545Z VRB03KT 9999 FEW020 17/12 Q1023 NOSIG=
200802281515 METAR LMML 281515Z VRB03KT 9999 FEW020 17/13 Q1022 NOSIG=
200802281500 METAR LMML NIL=
200802281445 METAR LMML 281445Z VRB03KT 9999 FEW021 17/12 Q1022 NOSIG=
200802281430 METAR LMML NIL=
200802281415 METAR LMML 281415Z 12004KT 080V150 9999 FEW021 17/13 Q1022
                        NOSIG=
200802281400 METAR LMML NIL=
200802281345 METAR LMML 281345Z 02004KT 310V100 9999 SCT021 18/13 Q1022
                        NOSIG=
200802281330 METAR LMML NIL=
200802281315 METAR LMML 281315Z VRB03KT 9999 SCT022 17/13 Q1022 NOSIG=
200802281300 METAR LMML NIL=
200802281245 METAR LMML 281245Z 19004KT 060V270 9999 SCT024 17/12 Q1022
                        NOSIG=
200802281230 METAR LMML NIL=
200802281215 METAR LMML 281215Z VRB03KT 9999 FEW024 18/13 Q1022 NOSIG=
200802281200 METAR LMML NIL=
200802281145 METAR LMML 281145Z VRB03KT 9999 FEW024 18/12 Q1023 NOSIG=
200802281130 METAR LMML NIL=
200802281115 METAR LMML 281115Z 11005KT 040V160 9999 FEW021 17/12 Q1023
                        NOSIG=
200802281100 METAR LMML NIL=
200802281045 METAR LMML 281045Z VRB03KT 9999 FEW021 17/12 Q1023 NOSIG=
200802281015 METAR LMML 281015Z 13004KT 060V200 9999 FEW021 17/12 Q1023
                        NOSIG=
200802281000 METAR LMML NIL=
200802280945 METAR LMML 280945Z 13004KT 090V170 9999 SCT020 17/12 Q1023
                        NOSIG=
200802280930 METAR LMML NIL=
200802280915 METAR LMML 280915Z VRB03KT 9999 SCT019 17/13 Q1023 NOSIG=
200802280900 METAR LMML NIL=
200802280845 METAR LMML 280845Z VRB03KT 7000 SCT020 16/12 Q1023 BECMG
                        9999=
200802280830 METAR LMML NIL=
200802280815 METAR LMML 280815Z VRB01KT 7000 FEW020 16/13 Q1023 BECMG
                        9999=
200802280800 LMML NIL=
200802280745 METAR LMML 280745Z 00000KT 7000 SKC 15/14 Q1023 BECMG 9999
                        RMK SMOKE IN ALL DIRECTIONS=
200802280730 METAR LMML NIL=
200802280715 METAR LMML 280715Z VRB02KT 7000 MIFG SKC 13/13 Q1023 BECMG
                        9999=
200802280700 METAR LMML NIL=
200802280645 METAR LMML 280645Z VRB01KT 7000 MIFG SKC 12/12 Q1022 BECMG
                        9999=
200802280630 METAR LMML NIL=
200802280615 METAR LMML 280615Z VRB01KT 7000 MIFG SKC 11/11 Q1022 TEMPO
                        5000 BR SCT012=
200802280600 METAR LMML NIL=
200802280545 METAR LMML 280545Z VRB01KT 7000 MIFG FEW017 10/10 Q1022 TEMPO
                        5000 BR SCT01 2 RMK SMOKE TO N AND
                        NE=
200802280530 METAR LMML NIL=
200802280515 METAR LMML 280515Z VRB03KT 7000 MIFG FEW016 10/10 Q1021 TEMPO
                        5000 BKN012=
200802280500 METAR LMML NIL=
200802280445 METAR LMML 280445Z VRB02KT 7000 FEW016 10/10 Q1021 TEMPO
                        5000 BKN012=
200802280430 METAR LMML NIL=
200802280415 METAR LMML 280415Z VRB01KT 7000 FEW015 11/10 Q1021 TEMPO
                        5000 BKN012=
200802280400 METAR LMML NIL=
200802280345 METAR LMML 280345Z VRB01KT 7000 FEW015 11/11 Q1021 TEMPO
                        5000 BKN012=
200802280330 METAR LMML NIL=
200802280315 METAR LMML 280315Z VRB02KT 7000 FEW015 11/11 Q1021 TEMPO
                        5000 BKN012=
200802280300 METAR LMML NIL=
200802280245 METAR LMML 280245Z VRB02KT 7000 FEW015 11/10 Q1021 TEMPO
                        5000 BKN012=
200802280230 METAR LMML NIL=
200802280215 METAR LMML 280215Z VRB02KT 7000 FEW000 12/11 Q1021 TEMPO
                        5000 BKN012=
200802280200 METAR LMML NIL=
200802280145 METAR LMML 280145Z VRB03KT 7000 FEW015 12/11 Q1021 TEMPO
                        5000 BKN012=
200802280130 METAR LMML NIL=
200802280115 METAR LMML 280115Z VRB03KT 7000 SCT015 12/12 Q1021 TEMPO
                        5000 BKN012=
200802280100 METAR LMML NIL=
200802280045 METAR LMML 280045Z 28004KT 7000 SCT015 12/12 Q1021 TEMPO
                        5000 BKN012=
200802280030 METAR LMML NIL=
200802280015 METAR LMML 280015Z VRB03KT 7000 FEW015 12/12 Q1021 TEMPO
                        6000 SCT012=
200802280000 METAR LMML NIL=
200802272345 METAR LMML 272345Z 28004KT 7000 FEW015 12/12 Q1021 TEMPO
                        6000 SCT012=
200802272330 METAR LMML NIL=
200802272315 METAR LMML 272315Z 26004KT 7000 FEW015 12/12 Q1021 TEMPO
                        6000 SCT012=
200802272300 METAR LMML NIL=
200802272245 METAR LMML 272245Z VRB03KT 7000 FEW015 12/12 Q1021 TEMPO
                        6000 BKN010=
200802272230 METAR LMML NIL=
200802272215 METAR LMML 272215Z VRB02KT 7000 FEW015 12/12 Q1021 TEMPO
                        6000 BKN010=
200802272200 METAR LMML NIL=
200802272145 METAR LMML 272145Z VRB02KT 7000 FEW016 13/12 Q1021 TEMPO
                        6000 BKN010=
200802272130 METAR LMML NIL=
200802272115 METAR LMML 272115Z 31005KT 7000 SCT016 13/12 Q1021 TEMPO
                        6000 BKN010=
200802272100 METAR LMML NIL=
200802272045 METAR LMML 272045Z VRB03KT 7000 BKN015 13/13 Q1021 TEMPO
                        6000 BKN010=
200802272030 METAR LMML NIL=
200802272015 METAR LMML 272015Z VRB02KT 7000 BKN014 13/13 Q1021 TEMPO
                        6000 BKN010=
200802272000 METAR LMML NIL=
200802271945 METAR LMML 271945Z VRB02KT 7000 BKN011 13/13 Q1021 TEMPO
                        6000 BKN010=
200802271930 METAR LMML NIL=
200802271915 METAR LMML 271915Z VRB02KT 7000 FEW012 13/13 Q1021 TEMPO
                        6000 SCT012=
200802271900 METAR LMML NIL=
200802271845 METAR LMML 271845Z VRB03KT 7000 FEW012 13/13 Q1020 TEMPO
                        6000 SCT012=
200802271830 METAR LMML NIL=
200802271815 METAR LMML 271815Z VRB02KT 9000 FEW012 14/13 Q1020 BECMG
                        9999=
200802271800 METAR LMML NIL=
200802271745 METAR LMML 271745Z VRB02KT 9000 FEW012 SCT250 14/13 Q1020
                        BECMG 9999=
200802271730 METAR LMML NIL=
200802271715 METAR LMML 271715Z 26004KT 7000 FEW012 SCT250 15/13 Q1020
                        NOSIG=
200802271700 METAR LMML NIL=
200802271645 METAR LMML 271645Z 27004KT 9000 FEW015 BKN250 15/13 Q1020
                        NOSIG=
200802271630 METAR LMML NIL=
200802271615 METAR LMML 271615Z 27006KT 240V310 9999 FEW017 BKN250 16/13
                        Q1019 NOSIG=
200802271600 METAR LMML NIL=
200802271545 METAR LMML 271545Z 27006KT 9999 FEW017 BKN250 17/13 Q1019
                        NOSIG=
200802271530 METAR LMML NIL=
200802271515 METAR LMML 271515Z 28006KT 240V310 9999 FEW017 BKN250 17/13
                        Q1019 NOSIG=
200802271500 METAR LMML NIL=
200802271445 METAR LMML 271445Z 26006KT 210V300 9999 FEW017 SCT250 17/13
                        Q1019 NOSIG=
200802271430 METAR LMML NIL=
200802271415 METAR LMML 271415Z 23006KT 190V280 9999 FEW005 SCT250 17/13
                        Q1019 NOSIG=
200802271400 METAR LMML NIL=
200802271345 METAR LMML 271345Z 24007KT 200V290 9999 FEW015 SCT250 18/13
                        Q1019 NOSIG=
200802271330 METAR LMML NIL=
200802271315 METAR LMML 271315Z 24006KT 200V290 9999 FEW015 SCT250 18/14
                        Q1019 NOSIG=
200802271300 METAR LMML NIL=
200802271245 METAR LMML 271245Z 25007KT 200V280 9999 SCT015 17/14 Q1020
                        NOSIG=
200802271230 METAR LMML NIL=
200802271215 METAR LMML 271215Z 24007KT 200V290 9999 SCT015 17/14 Q1020
                        NOSIG=
200802271200 METAR LMML NIL=
200802271145 METAR LMML 271145Z 23007KT 190V300 9999 SCT014 SCT250 18/14
                        Q1020 NOSIG=
200802271130 METAR LMML NIL=
200802271115 METAR LMML 271115Z 23006KT 170V290 9999 FEW014 SCT250 18/14
                        Q1021 NOSIG=
200802271100 METAR LMML NIL=
200802271045 METAR LMML 271045Z 22007KT 180V270 9999 FEW012 SCT250 17/14
                        Q1021 NOSIG=
200802271030 METAR LMML NIL=
200802271015 METAR LMML 271015Z 22007KT 190V250 9999 FEW012 SCT250 17/14
                        Q1021 NOSIG=
200802271000 METAR LMML NIL=
200802270945 METAR LMML 270945Z 22007KT 190V260 9999 FEW012 BKN250 17/13
                        Q1021 NOSIG=
200802270930 METAR LMML NIL=
200802270915 METAR LMML 270915Z 23006KT 200V280 9999 FEW012 BKN250 17/12
                        Q1021 NOSIG=
200802270900 METAR LMML NIL=
200802270845 METAR LMML 270845Z 22004KT 190V270 9999 FEW012 SCT250 16/14
                        Q1021 NOSIG=
200802270830 METAR LMML NIL=
200802270815 METAR LMML 270815Z VRB03KT 9999 FEW012 SCT120 15/14 Q1021
                        NOSIG=
200802270800 METAR LMML NIL=
200802270745 METAR LMML 270745Z 22004KT 190V260 9999 FEW012 BKN120 15/14
                        Q1021 NOSIG=
200802270730 METAR LMML NIL=
200802270715 METAR LMML 270715Z 22004KT 200V270 9000 FEW008 BKN120 15/15
                        Q1021 NOSIG=
200802270700 METAR LMML NIL=
200802270645 METAR LMML 270645Z 22004KT 190V250 9999 FEW007 BKN120 15/15
                        Q1021 NOSIG=
200802270630 METAR LMML NIL=
200802270615 METAR LMML 270615Z 22004KT 190V260 9999 FEW007 BKN120 15/14
                        Q1021 NOSIG=
200802270600 METAR LMML NIL=
200802270545 METAR LMML 270545Z 22005KT 200V260 9000 FEW007 SCT120 BKN250
                        14/14 Q1021 NO SIG=
200802270530 METAR LMML NIL=
200802270515 METAR LMML 270515Z 22005KT 9999 FEW007 BKN120 14/14 Q1021
                        NOSIG=
200802270500 METAR LMML NIL=
200802270445 METAR LMML 270445Z 22005KT 190V260 9999 FEW007 BKN120 14/14
                        Q1021 NOSIG=
200802270415 METAR LMML 270415Z 21005KT 170V250 9999 FEW007 SCT120 14/14
                        Q1021 TEMPO 500 0 BKN004=
200802270400 METAR LMML NIL=
200802270345 METAR LMML 270345Z 22005KT 190V250 9000 FEW007 SCT120 14/14
                        Q1021 TEMPO 500 0 BKN004=
200802270330 METAR LMML NIL=
200802270315 METAR LMML 270315Z 21004KT 170V240 9000 FEW007 BKN120 14/14
                        Q1021 TEMPO 500 0 BKN004=
200802270300 METAR LMML NIL=
200802270245 METAR LMML 270245Z 21005KT 170V250 9000 FEW007 BKN120 14/14
                        Q1021 TEMPO 500 0 BKN004=
200802270230 METAR LMML NIL=
200802270215 METAR LMML 270215Z VRB02KT 9000 FEW007 SCT120 BKN250 14/14
                        Q1021 TEMPO 5000 BKN004=
200802270200 METAR LMML NIL=
200802270145 METAR LMML 270145Z VRB02KT 9999 FEW007 SCT120 14/14 Q1021
                        TEMPO 8000=
200802270130 METAR LMML NIL=
200802270115 METAR LMML 270115Z 20005KT CAVOK 14/14 Q1022 TEMPO 7000 SCT010=
200802270100 METAR LMML NIL=
200802270045 METAR LMML 270045Z 22005KT 190V260 CAVOK 14/14 Q1022 TEMPO
                        8000=
200802270030 METAR LMML NIL=
200802270015 METAR LMML 270015Z 21005KT 170V260 6000 FEW007 SCT120 BKN250
                        15/14 Q1022 TE MPO 4000 BKN005=
200802262345 METAR LMML 262345Z VRB02KT 6000 SCT005 SCT120 BKN250 14/14
                        Q1022 TEMPO 4000 BKN005=
200802262330 METAR LMML NIL=
200802262315 METAR LMML 262315Z VRB03KT 6000 FEW010 SCT120 BKN250 14/14
                        Q1022 TEMPO 5000=
200802262300 METAR LMML NIL=
200802262245 METAR LMML 262245Z 22005KT 190V250 7000 FEW010 SCT120 BKN250
                        14/14 Q1022 TE MPO 5000=
200802262230 METAR LMML NIL=
200802262215 METAR LMML 262215Z 22004KT 190V260 9999 FEW010 SCT120 14/14
                        Q1022 NOSIG=
200802262200 METAR LMML NIL=
200802262145 METAR LMML 262145Z 21005KT 9999 FEW010 SCT250 14/14 Q1022
                        NOSIG=
200802262130 METAR LMML NIL=
200802262115 METAR LMML 262115Z VRB03KT 9999 FEW010 SCT250 14/14 Q1023
                        NOSIG=
200802262100 METAR LMML NIL=
200802262045 METAR LMML 262045Z VRB03KT 9999 FEW010 SCT250 14/14 Q1023
                        NOSIG=
200802262015 METAR LMML 262015Z VRB03KT 9999 FEW010 SCT250 14/14 Q1023
                        NOSIG=
200802262000 METAR LMML NIL=
200802261945 METAR LMML 261945Z 23004KT 9999 FEW010 SCT250 14/14 Q1023
                        NOSIG=
200802261930 METAR LMML NIL=
200802261915 METAR LMML 261915Z VRB03KT 9999 FEW010 SCT250 14/14 Q1023
                        NOSIG=
200802261900 METAR LMML NIL=
200802261845 METAR LMML 261845Z VRB03KT 9999 FEW012 SCT120 14/14 Q1022
                        NOSIG=
200802261830 METAR LMML NIL=
200802261815 METAR LMML 261815Z 24004KT 210V270 9999 FEW012 SCT250 14/14
                        Q1022 NOSIG=
200802261800 METAR LMML NIL=
200802261745 METAR LMML 261745Z 23004KT 200V270 9999 FEW012 SCT120 15/14
                        Q1022 NOSIG=
200802261730 METAR LMML NIL=
200802261715 METAR LMML 261715Z 22004KT 180V250 9999 FEW012 SCT250 15/14
                        Q1022 NOSIG=
200802261700 METAR LMML NIL=
200802261645 METAR LMML 261645Z 23006KT 190V270 9999 FEW012 SCT120 BKN250
                        15/14 Q1022 NO SIG=
200802261630 METAR LMML NIL=
200802261615 METAR LMML 261615Z 23006KT 180V280 9999 FEW012 SCT120 BKN250
                        15/14 Q1022 NO SIG=
200802261545 METAR LMML 261545Z 22006KT 190V270 9999 SCT012 BKN250 16/14
                        Q1022 NOSIG=
200802261530 METAR LMML NIL=
200802261515 METAR LMML 261515Z 23008KT 200V270 9999 FEW012 SCT120 BKN250
                        16/13 Q1022 NO SIG=
200802261500 METAR LMML NIL=
200802261445 METAR LMML 261445Z 23008KT 190V270 9999 FEW012 SCT120 BKN250
                        16/13 Q1022 NO SIG=
200802261430 METAR LMML NIL=
200802261415 METAR LMML 261415Z 22009KT 190V260 9999 FEW012 BKN250 16/13
                        Q1022 NOSIG=
200802261400 METAR LMML NIL=
200802261345 METAR LMML 261345Z 23008KT 180V280 9999 FEW012 BKN250 17/14
                        Q1022 NOSIG=
200802261315 METAR LMML 261315Z 22007KT 180V250 9999 FEW013 BKN250 17/13
                        Q1022 NOSIG=
200802261300 METAR LMML NIL=
200802261245 METAR LMML 261245Z 22007KT 190V260 9999 FEW013 BKN250 17/13
                        Q1022 NOSIG=
200802261230 METAR LMML NIL=
200802261215 METAR LMML 261215Z 22007KT 150V270 9999 FEW013 BKN250 17/13
                        Q1023 NOSIG=
200802261200 METAR LMML NIL=
200802261145 METAR LMML 261145Z 21007KT 170V260 9999 FEW013 BKN250 17/13
                        Q1023 NOSIG=
200802261115 METAR LMML 261115Z 21006KT 170V260 9999 FEW014 BKN250 17/13
                        Q1024 NOSIG=
200802261100 METAR LMML NIL=
200802261045 METAR LMML 261045Z 21005KT 160V280 9999 FEW014 SCT120 BKN250
                        16/14 Q1024 NO SIG=
200802261030 METAR LMML NIL=
200802261015 METAR LMML 261015Z 20005KT 140V250 9999 FEW015 SCT120 BKN250
                        16/13 Q1024 NO SIG=
200802261000 METAR LMML NIL=
200802260945 METAR LMML 260945Z 19005KT 130V240 9999 FEW015 SCT120 BKN250
                        16/14 Q1024 NO SIG=
200802260930 METAR LMML NIL=
200802260915 METAR LMML 260915Z 19005KT 130V250 9999 FEW015 BKN250 16/13
                        Q1024 NOSIG=
200802260900 METAR LMML NIL=
200802260845 METAR LMML 260845Z 20005KT 160V280 9999 FEW020 SCT250 16/13
                        Q1024 TEMPO 700 0=
200802260830 METAR LMML NIL=
200802260815 METAR LMML 260815Z VRB02KT 9999 FEW015 BKN250 15/14 Q1024
                        TEMPO 7000=
200802260800 METAR LMML NIL=
200802260745 METAR LMML 260745Z VRB01KT 9999 FEW015 BKN250 14/14 Q1024
                        TEMPO 7000 RMK SM OKE TO N AND NE=
200802260730 METAR LMML NIL=
200802260715 METAR LMML 260715Z VRB02KT 9999 FEW015 BKN250 13/13 Q1024
                        TEMPO 7000 RMK SM OKE TO N / NE=
200802260700 METAR LMML NIL=
200802260645 METAR LMML 260645Z VRB02KT 9999 FEW015 BKN250 12/12 Q1024
                        TEMPO 7000=
200802260630 METAR LMML NIL=
200802260615 METAR LMML 260615Z VRB03KT 9999 MIFG FEW020 BKN250 12/11
                        Q1024 TEMPO 7000=
200802260600 METAR LMML NIL=
200802260545 METAR LMML 260545Z VRB02KT 9999 MIFG FEW015 SCT120 BKN250
                        11/11 Q1024 TEMPO 7000=
200802260530 METAR LMML NIL=
200802260515 METAR LMML 260515Z VRB03KT 9999 FEW014 BKN120 12/11 Q1024
                        TEMPO 7000=
200802260500 METAR LMML NIL=
200802260445 METAR LMML 260445Z VRB02KT 9999 FEW015 SCT120 11/11 Q1023
                        NOSIG=
200802260430 METAR LMML NIL=
200802260415 METAR LMML 260415Z VRB03KT 9999 FEW015 11/11 Q1024 NOSIG=
200802260400 METAR LMML NIL=
200802260345 METAR LMML 260345Z VRB03KT 9000 MIFG FEW013 12/12 Q1023 BECMG
                        7000=
200802260330 METAR LMML NIL=
200802260315 METAR LMML 260315Z VRB03KT 9000 MIFG FEW012 11/11 Q1023 BECMG
                        7000=
200802260300 METAR LMML NIL=
200802260245 METAR LMML 260245Z VRB02KT 9000 MIFG FEW010 11/11 Q1023 BECMG
                        7000=
200802260230 METAR LMML NIL=
200802260215 METAR LMML 260215Z VRB02KT 9999 MIFG FEW011 11/11 Q1024 NOSIG=
200802260145 METAR LMML 260145Z VRB03KT 9999 FEW011 12/12 Q1024 NOSIG=
200802260130 METAR LMML NIL=
200802260115 METAR LMML 260115Z VRB02KT 9999 FEW011 12/12 Q1024 NOSIG=
200802260045 METAR LMML 260045Z VRB02KT 9999 FEW011 13/12 Q1024 NOSIG=
200802260015 METAR LMML 260015Z VRB03KT 9999 FEW020 FEW120 13/13 Q1025
                        NOSIG=
200802260000 METAR LMML NIL=
200802252345 METAR LMML 252345Z 23004KT 9999 FEW020 13/13 Q1025 NOSIG=
200802252330 METAR LMML NIL=
200802252315 METAR LMML 252315Z VRB03KT 9999 FEW020 13/13 Q1025 NOSIG=
200802252245 METAR LMML 252245Z 23004KT 9999 FEW020 13/13 Q1025 NOSIG=
200802252230 METAR LMML NIL=
200802252215 METAR LMML 252215Z 24005KT 9999 FEW020 13/12 Q1025 NOSIG=
200802252200 METAR LMML NIL=
200802252145 METAR LMML 252145Z 25005KT 9999 FEW020 13/13 Q1025 NOSIG=
200802252115 METAR LMML 252115Z 24004KT CAVOK 12/12 Q1025 NOSIG=
200802252100 METAR LMML NIL=
200802252045 METAR LMML 252045Z VRB03KT CAVOK 13/12 Q1025 NOSIG=
200802252030 METAR LMML NIL=
200802252015 METAR LMML 252015Z VRB03KT CAVOK 13/12 Q1026 NOSIG=
200802252000 METAR LMML NIL=
200802251945 METAR LMML 251945Z VRB03KT CAVOK 13/12 Q1025 NOSIG=
200802251930 METAR LMML NIL=
200802251915 METAR LMML 251915Z VRB03KT CAVOK 13/12 Q1025 NOSIG=
200802251900 METAR LMML NIL=
200802251845 METAR LMML 251845Z VRB02KT CAVOK 13/12 Q1025 NOSIG=
200802251830 METAR LMML NIL=
200802251815 METAR LMML 251815Z VRB03KT CAVOK 13/12 Q1025 NOSIG=
200802251800 METAR LMML NIL=
200802251745 METAR LMML 251745Z VRB03KT CAVOK 14/12 Q1025 NOSIG=
200802251715 METAR LMML 251715Z VRB03KT 9999 FEW017 14/12 Q1025 NOSIG=
200802251700 METAR LMML NIL=
200802251645 METAR LMML 251645Z 26004KT 9999 FEW017 SCT250 15/11 Q1025
                        NOSIG=
200802251630 METAR LMML NIL=
200802251615 METAR LMML 251615Z 26004KT 230V290 9999 FEW017 15/12 Q1025
                        NOSIG=
200802251600 METAR LMML NIL=
200802251545 METAR LMML 251545Z 25006KT 210V280 9999 FEW017 16/12 Q1026
                        NOSIG=
200802251530 METAR LMML NIL=
200802251515 METAR LMML 251515Z 25005KT 210V290 9999 FEW018 17/12 Q1026
                        NOSIG=
200802251500 METAR LMML NIL=
200802251445 METAR LMML 251445Z 25006KT 200V300 9999 FEW019 16/12 Q1026
                        NOSIG=
200802251430 METAR LMML NIL=
200802251415 METAR LMML 251415Z 25005KT 190V300 9999 FEW019 17/12 Q1026
                        NOSIG=
200802251400 METAR LMML NIL=
200802251345 METAR LMML 251345Z 24007KT 210V290 9999 FEW021 17/12 Q1026
                        NOSIG=
200802251330 METAR LMML NIL=
200802251315 METAR LMML 251315Z 24007KT 190V280 9999 SCT020 17/12 Q1026
                        NOSIG=
200802251300 METAR LMML NIL=
200802251245 METAR LMML 251245Z 26008KT 220V300 9999 SCT019 16/12 Q1026
                        NOSIG=
200802251230 METAR LMML NIL=
200802251215 METAR LMML 251215Z 23007KT 200V290 9999 SCT017 17/13 Q1026
                        NOSIG=
200802251200 METAR LMML NIL=
200802251145 METAR LMML 251145Z 24007KT 200V280 9999 SCT016 16/13 Q1027
                        NOSIG=
200802251130 METAR LMML NIL=
200802251115 METAR LMML 251115Z 23007KT 180V280 9999 FEW016 17/13 Q1027
                        NOSIG=
200802251100 METAR LMML NIL=
200802251045 METAR LMML 251045Z 23007KT 190V270 9999 FEW016 17/13 Q1028
                        NOSIG=
200802251030 METAR LMML NIL=
200802251015 METAR LMML 251015Z 23006KT 180V290 9999 FEW017 16/13 Q1028
                        NOSIG=
200802251000 METAR LMML NIL=
200802250945 METAR LMML 250945Z 23006KT 190V270 9999 FEW017 16/13 Q1028
                        NOSIG=
200802250930 METAR LMML NIL=
200802250915 METAR LMML 250915Z 22005KT 190V260 9999 FEW016 16/13 Q1028
                        NOSIG=
200802250900 METAR LMML NIL=
200802250845 METAR LMML 250845Z VRB02KT 9999 FEW012 16/14 Q1028 NOSIG
                        RMK SMOKE TO NORTH=
200802250830 METAR LMML NIL=
200802250815 METAR LMML 250815Z VRB01KT CAVOK 16/14 Q1028 NOSIG RMK SMOKE
                        TO NORTH=
200802250800 METAR LMML NIL=
200802250745 METAR LMML 250745Z VRB02KT CAVOK 14/13 Q1028 NOSIG=
200802250730 METAR LMML NIL=
200802250715 METAR LMML 250715Z VRB02KT 9999 FEW012 13/13 Q1028 NOSIG=
200802250700 METAR LMML NIL=
200802250645 METAR LMML 250645Z VRB03KT 9999 FEW012 12/12 Q1028 NOSIG=
200802250630 LMML NIL=
200802250615 METAR LMML 250615Z VRB02KT 9999 MIFG FEW012 10/10 Q1028 NOSIG=
200802250600 METAR LMML NIL=
200802250545 METAR LMML 250545Z VRB03KT 9999 MIFG FEW012 10/10 Q1028 NOSIG=
200802250530 METAR LMML NIL=
200802250515 METAR LMML 250515Z VRB03KT 9999 FEW012 12/12 Q1028 NOSIG=
200802250500 METAR LMML NIL=
200802250445 METAR LMML 250445Z VRB03KT 9999 FEW012 11/11 Q1028 NOSIG=
200802250430 METAR LMML NIL=
200802250415 METAR LMML 250415Z 27004KT 9999 FEW012 12/12 Q1028 NOSIG=
200802250400 METAR LMML NIL=
200802250345 LMML 250345Z 26004KT 9999 FEW012 12/11 Q1028 BECMG 8000=
200802250330 METAR LMML NIL=
200802250315 METAR LMML 250315Z VRB03KT 9999 FEW012 11/11 Q1028 BECMG
                        8000=
200802250245 METAR LMML 250245Z VRB03KT 9999 FEW012 12/12 Q1028 BECMG
                        8000=
200802250230 METAR LMML NIL=
200802250215 METAR LMML 250215Z 27004KT CAVOK 12/11 Q1028 BECMG 8000=
200802250145 METAR LMML 250145Z VRB03KT CAVOK 11/11 Q1028 BECMG 8000=
200802250130 METAR LMML NIL=
200802250115 METAR LMML 250115Z VRB03KT CAVOK 12/12 Q1029 NOSIG=
200802250100 METAR LMML NIL=
200802250045 METAR LMML 250045Z VRB03KT 9999 FEW015 12/11 Q1029 NOSIG=
200802250030 METAR LMML NIL=
200802250015 METAR LMML 250015Z VRB03KT 9999 FEW015 12/12 Q1029 NOSIG=
200802250000 METAR LMML NIL=
200802242345 METAR LMML 242345Z VRB03KT 9999 FEW015 12/12 Q1029 NOSIG=
200802242330 METAR LMML NIL=
200802242315 METAR LMML 242315Z VRB03KT 9999 FEW015 12/12 Q1030 NOSIG=
200802242300 METAR LMML NIL=
200802242245 METAR LMML 242245Z 25004KT 9999 FEW016 12/12 Q1030 NOSIG=
200802242230 METAR LMML NIL=
200802242215 METAR LMML 242215Z VRB03KT 9999 FEW016 12/12 Q1030 NOSIG=
200802242200 METAR LMML NIL=
200802242145 METAR LMML 242145Z VRB03KT 9999 FEW016 12/12 Q1030 NOSIG=
200802242130 METAR LMML NIL=
200802242115 METAR LMML 242115Z VRB03KT 9999 FEW016 12/12 Q1030 NOSIG=
200802242100 METAR LMML NIL=
200802242045 METAR LMML 242045Z VRB03KT 9999 FEW016 12/12 Q1030 NOSIG=
200802242030 METAR LMML NIL=
200802242015 METAR LMML 242015Z VRB03KT 9999 FEW016 13/13 Q1030 NOSIG=
200802242000 METAR LMML NIL=
200802241945 METAR LMML 241945Z VRB03KT 9999 FEW016 13/13 Q1030 NOSIG=
200802241930 METAR LMML NIL=
200802241915 METAR LMML 241915Z VRB02KT 9999 FEW016 13/13 Q1029 NOSIG=
200802241845 METAR LMML 241845Z VRB02KT 9999 FEW016 13/13 Q1029 TEMPO
                        SCT012=
200802241830 METAR LMML NIL=
200802241815 METAR LMML 241815Z VRB03KT 9999 FEW016 13/13 Q1029 TEMPO
                        SCT012=
200802241800 METAR LMML NIL=
200802241745 METAR LMML 241745Z VRB03KT 9999 FEW016 14/13 Q1029 TEMPO
                        SCT012=
200802241730 METAR LMML NIL=
200802241715 METAR LMML 241715Z VRB03KT 9999 SCT016 14/13 Q1029 TEMPO
                        BKN012=
200802241645 METAR LMML 241645Z VRB03KT 9999 BKN014 15/13 Q1029 TEMPO
                        BKN012=
200802241615 METAR LMML 241615Z VRB03KT 9999 BKN014 15/13 Q1029 TEMPO
                        BKN012=
200802241545 METAR LMML 241545Z 01004KT 9999 BKN017 16/13 Q1029 NOSIG=
200802241530 METAR LMML NIL=
200802241515 METAR LMML 241515Z VRB03KT 9999 BKN018 17/14 Q1029 NOSIG=
200802241500 METAR LMML NIL=
200802241445 METAR LMML 241445Z VRB02KT 9999 BKN019 16/13 Q1029 NOSIG=
200802241430 METAR LMML NIL=
200802241415 METAR LMML 241415Z VRB03KT 9999 BKN018 17/13 Q1029 NOSIG=
200802241400 METAR LMML NIL=
200802241345 METAR LMML 241345Z VRB03KT 9999 BKN016 SCT038 16/13 Q1029
                        NOSIG=
200802241330 METAR LMML NIL=
200802241315 METAR LMML 241315Z 04004KT 340V080 9999 BKN018 SCT023 18/14
                        Q1029 NOSIG=
200802241300 METAR LMML NIL=
200802241245 METAR LMML 241245Z 06004KT 020V120 9999 SCT018 SCT026 17/14
                        Q1029 NOSIG=
200802241230 METAR LMML NIL=
200802241215 METAR LMML 241215Z 03004KT 360V070 9999 SCT020 SCT032 16/14
                        Q1029 TEMPO SCT 015=
200802241200 METAR LMML NIL=
200802241145 METAR LMML 241145Z VRB03KT 9999 SCT015 SCT042 17/13 Q1030
                        TEMPO SCT015=
200802241130 METAR LMML NIL=
200802241115 METAR LMML 241115Z 22005KT 180V290 9999 SCT024 17/13 Q1030
                        TEMPO SCT015=
200802241100 METAR LMML NIL=
200802241045 METAR LMML 241045Z VRB03KT 9999 SCT016 18/14 Q1030 TEMPO
                        SCT015=
200802241030 METAR LMML NIL=
200802241015 METAR LMML 241015Z VRB01KT 9999 SCT015 17/14 Q1030 TEMPO
                        SCT015=
200802241000 METAR LMML NIL=
200802240945 METAR LMML 240945Z VRB02KT 9999 SCT018 16/12 Q1030 TEMPO
                        SCT015=
200802240930 METAR LMML NIL=
200802240915 METAR LMML 240915Z VRB01KT 9999 SCT013 17/13 Q1030 TEMPO
                        SCT015=
200802240900 METAR LMML NIL=
200802240845 METAR LMML 240845Z VRB02KT 9999 SCT012 16/14 Q1030 TEMPO
                        SCT008=
200802240830 METAR LMML NIL=
200802240815 METAR LMML 240815Z VRB02KT 8000 FEW008 15/15 Q1030 TEMPO
                        SCT008=
200802240800 METAR LMML NIL=
200802240745 METAR LMML 240745Z VRB01KT 8000 FEW015 14/14 Q1030 NOSIG=
200802240730 METAR LMML NIL=
200802240715 METAR LMML 240715Z VRB01KT 8000 FEW015 13/13 Q1030 NOSIG=
200802240700 METAR LMML NIL=
200802240645 METAR LMML 240645Z VRB02KT 8000 FEW015 13/13 Q1029 BECMG
                        0700 9999=
200802240630 METAR LMML NIL=
200802240615 METAR LMML 240615Z VRB02KT 8000 FEW015 11/11 Q1029 BECMG
                        0700 9999=
200802240600 METAR LMML NIL=
200802240545 METAR LMML 240545Z VRB03KT 4000 MIFG FEW011 11/11 Q1029 NOSIG=
200802240530 METAR LMML NIL=
200802240515 METAR LMML 240515Z VRB03KT 4000 MIFG FEW011 11/11 Q1029 NOSIG=
200802240500 METAR LMML NIL=
200802240445 METAR LMML 240445Z VRB03KT 5000 BR FEW011 11/11 Q1029 NOSIG=
200802240430 METAR LMML NIL=
200802240415 METAR LMML 240415Z VRB03KT 5000 BR FEW011 11/11 Q1029 NOSIG=
200802240400 METAR LMML NIL=
200802240345 METAR LMML 240345Z VRB03KT 5000 BR FEW011 11/11 Q1029 NOSIG=
200802240330 METAR LMML NIL=
200802240315 METAR LMML 240315Z VRB03KT 5000 BR FEW011 11/11 Q1028 NOSIG=
200802240300 METAR LMML NIL=
200802240245 METAR LMML 240245Z VRB03KT 5000 BR FEW011 11/11 Q1028 NOSIG=
200802240230 METAR LMML NIL=
200802240215 METAR LMML 240215Z 26004KT 5000 BR FEW011 11/11 Q1028 NOSIG=
200802240200 METAR LMML NIL=
200802240145 METAR LMML 240145Z VRB03KT 3000 MIFG FEW011 11/11 Q1028 NOSIG=
200802240130 METAR LMML NIL=
200802240115 METAR LMML 240115Z VRB03KT 3000 MIFG FEW011 11/11 Q1029 TEMPO
                        5000 FEW010=
200802240100 METAR LMML NIL=
200802240045 METAR LMML 240045Z VRB02KT 4000 BR FEW011 11/11 Q1029 TEMPO
                        5000 FEW010=
200802240030 METAR LMML NIL=
200802240015 METAR LMML 240015Z VRB03KT 6000 FEW011 12/12 Q1029 TEMPO
                        5000 FEW010=
200802240000 METAR LMML NIL=
200802232345 METAR LMML 232345Z VRB03KT 6000 FEW011 12/12 Q1029 TEMPO
                        5000 FEW010=
200802232330 METAR LMML NIL=
200802232315 METAR LMML 232315Z VRB03KT 6000 FEW011 12/12 Q1029 TEMPO
                        5000 FEW010=
200802232300 METAR LMML NIL=
200802232245 METAR LMML 232245Z VRB03KT 6000 FEW011 12/12 Q1029 NOSIG=
200802232230 METAR LMML NIL=
200802232215 METAR LMML 232215Z VRB03KT 7000 FEW011 12/12 Q1029 NOSIG=
200802232200 METAR LMML NIL=
200802232145 METAR LMML 232145Z VRB03KT 7000 FEW011 12/12 Q1029 NOSIG=
200802232130 METAR LMML NIL=
200802232115 METAR LMML 232115Z VRB03KT 7000 FEW011 11/11 Q1029 NOSIG=
200802232100 METAR LMML NIL=
200802232045 METAR LMML 232045Z VRB01KT 9999 FEW011 12/12 Q1029 NOSIG=
200802232030 METAR LMML NIL=
200802232015 METAR LMML 232015Z VRB02KT 9999 FEW011 12/12 Q1029 NOSIG=
200802232000 METAR LMML NIL=
200802231945 METAR LMML 231945Z VRB02KT 9999 FEW011 12/12 Q1029 NOSIG=
200802231930 METAR LMML NIL=
200802231915 METAR LMML 231915Z VRB01KT 9999 FEW011 12/12 Q1029 NOSIG=
200802231900 METAR LMML NIL=
200802231845 METAR LMML 231845Z VRB01KT 9999 FEW011 13/13 Q1028 NOSIG=
200802231830 METAR LMML NIL=
200802231815 METAR LMML 231815Z VRB02KT 9999 FEW020 SCT100 13/13 Q1028
                        NOSIG=
200802231745 METAR LMML 231745Z VRB02KT 9999 FEW020 14/13 Q1028 NOSIG=
200802231730 METAR LMML NIL=
200802231715 METAR LMML 231715Z VRB02KT 9999 FEW020 14/12 Q1028 NOSIG=
200802231700 METAR LMML NIL=
200802231645 METAR LMML 231645Z VRB02KT 9999 FEW020 15/12 Q1028 NOSIG=
200802231630 METAR LMML NIL=
200802231615 METAR LMML 231615Z VRB03KT 9999 FEW020 SCT080 16/12 Q1028
                        NOSIG=
200802231600 METAR LMML NIL=
200802231545 METAR LMML 231545Z 04004KT 010V080 9999 FEW022 SCT080 16/12
                        Q1027 NOSIG=
200802231530 LMML NIL=
200802231515 METAR LMML 231515Z 03004KT 280V060 9999 FEW022 SCT070 16/13
                        Q1027 NOSIG=
200802231500 METAR LMML NIL=
200802231445 METAR LMML 231445Z VRB03KT 9999 FEW024 SCT070 16/13 Q1027
                        NOSIG=
200802231430 METAR LMML NIL=
200802231415 METAR LMML 231415Z VRB03KT 9999 SCT017 SCT080 16/13 Q1027
                        NOSIG=
200802231400 METAR LMML NIL=
200802231345 METAR LMML 231345Z VRB03KT 9999 SCT024 SCT070 17/13 Q1027
                        TEMPO 8000 SHRA=
200802231330 METAR LMML NIL=
200802231315 METAR LMML 231315Z VRB01KT 9999 SCT020 SCT070 16/13 Q1027
                        TEMPO 8000 SHRA=
200802231300 METAR LMML NIL=
200802231245 METAR LMML 231245Z VRB03KT 9999 -RA SCT020TCU BKN070 15/13
                        Q1027 TEMPO 4000 SHRA=
200802231230 METAR LMML NIL=
200802231215 METAR LMML 231215Z VRB03KT 5000 -RA FEW013 SCT020 BKN070
                        13/12 Q1028 RESHRA BECMG 9999=
200802231200 LMML NIL=
200802231145 LMML 231145Z 14004KT 5000 SHRA FEW012 BKN020 14/13 Q1028
                        TEMPO 3000 S HRA BKN012=
200802231130 METAR LMML NIL=
200802231115 METAR LMML 231115Z 03006KT 360V060 5000 SHRA FEW011 BKN020
                        15/14 Q1028 TEMP O 3000 SHRA BKN012=
200802231100 METAR LMML NIL=
200802231045 METAR LMML 231045Z 36006KT 340V060 9999 -SHRA BKN020 SCT060
                        16/14 Q1028 TEM PO 8000 SHRA BKN012=
200802231030 METAR LMML NIL=
200802231015 METAR LMML 231015Z 18004KT 150V250 9999 SCT020 SCT060 17/12
                        Q1028 TEMPO 800 0 SHRA BKN012=
200802231000 METAR LMML NIL=
200802230945 METAR LMML 230945Z VRB01KT 9999 SCT020 SCT060 17/11 Q1028
                        TEMPO 8000 SHRA B KN012=
200802230930 METAR LMML NIL=
200802230915 METAR LMML 230915Z VRB01KT 9999 FEW020 SCT060 18/11 Q1028
                        TEMPO 8000 SHRA B KN012=
200802230900 METAR LMML NIL=
200802230845 METAR LMML 230845Z VRB01KT 9999 FEW020 SCT060 17/12 Q1028
                        TEMPO 8000 SHRA B KN012=
200802230830 METAR LMML NIL=
200802230815 METAR LMML 230815Z VRB02KT 9999 FEW020 SCT060 BKN110 16/12
                        Q1028 TEMPO 8000 SHRA BKN012=
200802230800 METAR LMML NIL=
200802230745 METAR LMML 230745Z VRB01KT 9999 FEW020 SCT060 BKN110 16/13
                        Q1028 TEMPO 8000 SHRA BKN012=
200802230730 METAR LMML NIL=
200802230715 METAR LMML 230715Z VRB02KT 9999 FEW018 SCT060 BKN110 14/14
                        Q1028 TEMPO 8000 SHRA BKN012=
200802230700 METAR LMML NIL=
200802230645 METAR LMML 230645Z VRB01KT 9999 FEW018 SCT060 BKN100 13/13
                        Q1028 TEMPO 8000 SHRA BKN012=
200802230633 LMML 230633Z 00000KT 9999 FEW018 SCT060 BKN100 13/12 Q1028
                        TEMPO 8000 SHRA BKN012=
200802230630 LMML NIL=
200802230615 METAR LMML 230615Z 00000KT 9999 FEW018 SCT060 BKN100 13/12
                        Q1028 TEMPO 8000 SHRA BKN012=
200802230600 METAR LMML NIL=
200802230545 METAR LMML 230545Z 24004KT 9999 FEW018 BKN060 BKN120 13/13
                        Q1027 TEMPO 6000 BKN006=
200802230530 METAR LMML NIL=
200802230515 METAR LMML 230515Z VRB02KT 9999 FEW006 BKN070 BKN120 13/13
                        Q1027 TEMPO 3000 BR BKN005=
200802230500 METAR LMML NIL=
200802230445 METAR LMML 230445Z VRB02KT 9999 FEW018 BKN060 BKN120 13/13
                        Q1027 TEMPO 3000 BR BKN005=
200802230430 METAR LMML NIL=
200802230415 METAR LMML 230415Z VRB01KT 8000 FEW008 SCT060 BKN120 13/13
                        Q1027 TEMPO 3000 BR BKN005=
200802230400 METAR LMML NIL=
200802230345 METAR LMML 230345Z VRB01KT 7000 FEW006 SCT050 BKN120 13/13
                        Q1027 TEMPO 3000 BR BKN005=
200802230330 METAR LMML NIL=
200802230315 METAR LMML 230315Z VRB03KT 7000 FEW006 SCT016 BKN080 13/13
                        Q1027 RETS TEMPO 2000 TSRA BKN005
                        BKN015CB=
200802230245 METAR LMML 230245Z VRB01KT 5000 SCT015 SCT050 BKN080 13/13
                        Q1027 RETS TEMPO 5000 TSRA BKN015CB=
200802230215 METAR LMML 230215Z VRB01KT 7000 TS FEW017CB BKN070 13/13
                        Q1028 TEMPO 5000 T SRA BKN015CB=
200802230200 METAR LMML NIL=
200802230145 METAR LMML 230145Z VRB02KT 7000 SCT011 BKN080 13/13 Q1028
                        TEMPO 5000 TSRA B KN015CB=
200802230115 METAR LMML 230115Z VRB01KT 7000 -RA FEW015 BKN080 14/13 Q1028
                        TEMPO 5000 TS RA BKN015CB=
200802230100 METAR LMML NIL=
200802230045 METAR LMML 230045Z VRB01KT 9000 -RA FEW015 BKN110 13/13 Q1028
                        TEMPO 8000 SH RA BKN011=
200802230030 METAR LMML NIL=
200802230015 METAR LMML 230015Z VRB02KT 9999 FEW015 BKN110 14/13 Q1028
                        TEMPO 8000 SHRA B KN011=
200802230000 METAR LMML NIL=
200802222345 METAR LMML 222345Z VRB01KT 9999 FEW016 BKN100 13/13 Q1028
                        TEMPO 8000 SHRA B KN011=
200802222330 METAR LMML NIL=
200802222315 METAR LMML 222315Z VRB02KT 9999 FEW014 BKN120 14/14 Q1028
                        TEMPO 8000 SHRA B KN011=
200802222300 METAR LMML NIL=
200802222245 METAR LMML 222245Z VRB02KT 9999 -RA FEW035 BKN080 14/14 Q1028
                        TEMPO 8000 SH RA BKN011=
200802222230 METAR LMML NIL=
200802222215 METAR LMML 222215Z VRB01KT 9999 -RA FEW014 BKN074 14/14 Q1028
                        TEMPO 8000 SH RA BKN011=
200802222200 METAR LMML NIL=
200802222145 METAR LMML 222145Z VRB02KT 9999 SCT013 BKN090 14/14 Q1028
                        TEMPO 8000 SHRA B KN011=
200802222130 METAR LMML NIL=
200802222115 METAR LMML 222115Z VRB02KT 9999 FEW019 BKN090 14/13 Q1028
                        TEMPO 8000 SHRA B KN011=
200802222100 METAR LMML NIL=
200802222045 METAR LMML 222045Z VRB01KT 9999 FEW012 BKN120 13/13 Q1028
                        NOSIG=
200802222030 METAR LMML NIL=
200802222015 METAR LMML 222015Z VRB02KT 9999 SCT014 BKN110 14/13 Q1028
                        NOSIG=
200802222000 METAR LMML NIL=
200802221945 METAR LMML 221945Z VRB01KT 9999 FEW014 BKN110 14/13 Q1028
                        NOSIG=
200802221930 METAR LMML NIL=
200802221915 METAR LMML 221915Z VRB02KT 9999 FEW013 BKN120 14/13 Q1028
                        NOSIG=
200802221900 METAR LMML NIL=
200802221845 METAR LMML 221845Z VRB03KT 9999 FEW015 BKN110 15/13 Q1028
                        NOSIG=
200802221830 METAR LMML NIL=
200802221815 METAR LMML 221815Z 13004KT 9999 FEW015 BKN110 15/13 Q1027
                        NOSIG=
200802221800 METAR LMML NIL=
200802221745 METAR LMML 221745Z VRB03KT 9999 FEW015 BKN120 15/13 Q1027
                        NOSIG=
200802221730 METAR LMML NIL=
200802221715 METAR LMML 221715Z 13004KT 9999 FEW015 BKN120 15/13 Q1027
                        NOSIG=
200802221700 METAR LMML NIL=
200802221645 METAR LMML 221645Z VRB01KT 9999 FEW015 BKN100 16/13 Q1027
                        NOSIG=
200802221630 METAR LMML NIL=
200802221615 METAR LMML 221615Z VRB02KT 9999 FEW016 BKN100 16/13 Q1027
                        TEMPO 7000 SHRA S CT012=
200802221600 METAR LMML NIL=
200802221545 METAR LMML 221545Z VRB03KT 9999 FEW015 BKN080 16/13 Q1027
                        TEMPO 7000 SHRA S CT012=
200802221515 METAR LMML 221515Z VRB03KT 9999 FEW015 BKN080 17/13 Q1027
                        TEMPO 7000 SHRA S CT012=
200802221500 METAR LMML NIL=
200802221445 METAR LMML 221445Z 18004KT 9999 FEW015 BKN090 17/13 Q1027
                        NOSIG=
200802221430 METAR LMML NIL=
200802221415 METAR LMML 221415Z VRB03KT 9999 FEW013 SCT120 18/13 Q1027
                        NOSIG=
200802221400 METAR LMML NIL=
200802221345 METAR LMML 221345Z VRB03KT 9999 FEW013 BKN080 17/13 Q1027
                        NOSIG=
200802221330 METAR LMML NIL=
200802221315 METAR LMML 221315Z 18004KT 150V210 9999 FEW013 BKN120 17/13
                        Q1027 TEMPO 700 0 RA SCT012=
200802221300 METAR LMML NIL=
200802221245 METAR LMML 221245Z 16004KT 130V210 9999 FEW015 BKN120 16/13
                        Q1027 TEMPO 700 0 RA SCT012=
200802221230 METAR LMML NIL=
200802221215 METAR LMML 221215Z 18005KT 140V220 9999 FEW017 BKN090 17/14
                        Q1027 TEMPO 700 0 RA SCT012=
200802221200 METAR LMML NIL=
200802221145 METAR LMML 221145Z 17004KT 120V210 9999 FEW016 BKN100 17/13
                        Q1028 TEMPO 700 0 RA SCT012=
200802221130 METAR LMML NIL=
200802221115 METAR LMML 221115Z VRB03KT 9999 FEW016 BKN120 17/14 Q1028
                        NOSIG=
200802221100 METAR LMML NIL=
200802221030 METAR LMML NIL=
200802221015 METAR LMML 221015Z VRB02KT 9999 FEW017 BKN120 18/13 Q1028
                        NOSIG=
200802221000 METAR LMML NIL=
200802220945 METAR LMML 220945Z 17004KT 130V230 9999 FEW014 BKN120 17/14
                        Q1028 NOSIG=
200802220930 METAR LMML NIL=
200802220915 METAR LMML 220915Z VRB03KT 9999 FEW013 BKN110 17/14 Q1028
                        NOSIG=
200802220900 METAR LMML NIL=
200802220845 METAR LMML 220845Z 18004KT 150V210 9000 FEW011 BKN120 16/14
                        Q1028 NOSIG=
200802220830 METAR LMML NIL=
200802220815 METAR LMML 220815Z VRB01KT 7000 FEW011 BKN120 16/15 Q1028
                        NOSIG=
200802220800 METAR LMML NIL=
200802220745 METAR LMML 220745Z VRB01KT 7000 FEW011 SCT100 15/15 Q1028
                        NOSIG=
200802220730 METAR LMML NIL=
200802220715 METAR LMML 220715Z VRB01KT 7000 FEW011 BKN100 15/15 Q1027
                        NOSIG=
200802220700 METAR LMML NIL=
200802220645 METAR LMML 220645Z VRB01KT 7000 FEW009 12/12 Q1027 NOSIG=
200802220630 METAR LMML NIL=
200802220615 METAR LMML 220615Z VRB01KT 7000 R14/0573VP1500U MIFG FEW009
                        12/12 Q1027 NOS IG=
200802220600 METAR LMML NIL=
200802220545 METAR LMML 220545Z VRB02KT 9999 FEW009 SCT110 12/11 Q1027
                        NOSIG=
200802220530 METAR LMML NIL=
200802220515 METAR LMML 220515Z VRB03KT 9999 FEW009 SCT110 12/12 Q1027
                        NOSIG=
200802220500 METAR LMML NIL=
200802220445 METAR LMML 220445Z 20004KT 9999 FEW009 SCT110 13/13 Q1027
                        NOSIG=
200802220430 METAR LMML NIL=
200802220415 METAR LMML 220415Z VRB02KT 9999 FEW009 SCT110 13/13 Q1027
                        NOSIG=
200802220400 METAR LMML NIL=
200802220345 METAR LMML 220345Z VRB03KT 9999 FEW009 BKN110 13/13 Q1027
                        NOSIG=
200802220330 METAR LMML NIL=
200802220315 METAR LMML 220315Z VRB03KT 9999 FEW009 BKN110 13/13 Q1027
                        NOSIG=
200802220300 METAR LMML NIL=
200802220245 METAR LMML 220245Z VRB02KT 9999 FEW009 BKN110 13/13 Q1027
                        NOSIG=
200802220230 METAR LMML NIL=
200802220215 METAR LMML 220215Z VRB01KT 9999 FEW009 SCT110 13/13 Q1027
                        NOSIG=
200802220145 METAR LMML 220145Z VRB02KT 9999 FEW010 SCT100 13/13 Q1027
                        NOSIG=
200802220130 METAR LMML NIL=
200802220115 METAR LMML 220115Z VRB03KT 9999 FEW010 13/13 Q1027 NOSIG=
200802220100 METAR LMML NIL=
200802220045 METAR LMML 220045Z 19004KT 9999 FEW010 13/12 Q1027 NOSIG=
200802220030 METAR LMML NIL=
200802220015 METAR LMML 220015Z VRB01KT CAVOK 12/11 Q1027 NOSIG=
200802220000 METAR LMML NIL=
200802212345 METAR LMML 212345Z VRB03KT CAVOK 14/12 Q1027 NOSIG=
200802212330 METAR LMML NIL=
200802212315 METAR LMML 212315Z VRB01KT CAVOK 14/12 Q1027 NOSIG=
200802212300 METAR LMML NIL=
200802212245 METAR LMML 212245Z VRB01KT CAVOK 14/12 Q1027 NOSIG=
200802212230 METAR LMML NIL=
200802212215 METAR LMML 212215Z VRB02KT CAVOK 14/12 Q1027 NOSIG=
200802212145 METAR LMML 212145Z 17004KT CAVOK 14/12 Q1027 NOSIG=
200802212115 METAR LMML 212115Z VRB03KT CAVOK 14/11 Q1027 NOSIG=
200802212100 METAR LMML NIL=
200802212045 METAR LMML 212045Z VRB01KT CAVOK 14/11 Q1027 NOSIG=
200802212030 METAR LMML NIL=
200802212015 METAR LMML 212015Z VRB03KT CAVOK 15/12 Q1027 NOSIG=
200802212000 METAR LMML NIL=
200802211945 METAR LMML 211945Z VRB03KT CAVOK 15/12 Q1027 NOSIG=
200802211930 METAR LMML NIL=
200802211915 METAR LMML 211915Z VRB03KT CAVOK 15/12 Q1027 NOSIG=
200802211900 METAR LMML NIL=
200802211845 METAR LMML 211845Z VRB01KT 9999 FEW020 BKN080 15/12 Q1027
                        NOSIG=
200802211830 METAR LMML NIL=
200802211815 METAR LMML 211815Z VRB02KT 9999 FEW018 BKN080 15/12 Q1027
                        NOSIG=
200802211800 METAR LMML NIL=
200802211745 METAR LMML 211745Z VRB02KT 9999 FEW018 BKN080 15/12 Q1027
                        NOSIG=
200802211730 METAR LMML NIL=
200802211715 METAR LMML 211715Z 19006KT 160V230 9999 FEW018 BKN090 15/12
                        Q1026 NOSIG=
200802211700 METAR LMML NIL=
200802211645 METAR LMML 211645Z 19007KT 160V230 CAVOK 15/12 Q1026 NOSIG=
200802211630 METAR LMML NIL=
200802211615 METAR LMML 211615Z 19007KT 160V230 CAVOK 16/12 Q1026 NOSIG=
200802211600 METAR LMML NIL=
200802211545 METAR LMML 211545Z 18007KT CAVOK 16/12 Q1026 NOSIG=
200802211530 METAR LMML NIL=
200802211515 METAR LMML 211515Z 18005KT 150V210 CAVOK 16/12 Q1026 NOSIG=
200802211500 METAR LMML NIL=
200802211445 METAR LMML 211445Z 18007KT CAVOK 16/11 Q1026 NOSIG=
200802211430 METAR LMML NIL=
200802211415 METAR LMML 211415Z 18006KT 150V210 CAVOK 16/10 Q1026 NOSIG=
200802211400 METAR LMML NIL=
200802211345 METAR LMML 211345Z 19006KT 160V240 CAVOK 16/11 Q1026 NOSIG=
200802211330 METAR LMML NIL=
200802211315 METAR LMML 211315Z 17005KT 110V200 9999 -RA BKN070 BKN130
                        16/12 Q1026 NOSIG=
200802211300 METAR LMML NIL=
200802211245 METAR LMML 211245Z 17007KT 130V210 9999 FEW025 BKN070 BKN130
                        16/09 Q1026 NO SIG=
200802211230 METAR LMML NIL=
200802211215 METAR LMML 211215Z 17007KT CAVOK 16/10 Q1027 NOSIG=
200802211200 METAR LMML NIL=
200802211145 METAR LMML 211145Z 17006KT 130V220 9999 FEW019 SCT080 BKN120
                        17/13 Q1027 NO SIG=
200802211130 METAR LMML NIL=
200802211115 METAR LMML 211115Z 13006KT 100V160 9999 FEW018 SCT080 BKN120
                        17/12 Q1027 NO SIG=
200802211100 METAR LMML NIL=
200802211045 METAR LMML 211045Z 16006KT 130V210 9999 FEW018 SCT080 BKN130
                        16/11 Q1028 NO SIG=
200802211030 METAR LMML NIL=
200802211015 METAR LMML 211015Z VRB03KT 9999 FEW018 SCT080 BKN130 16/09
                        Q1028 NOSIG=
200802211000 METAR LMML NIL=
200802210945 METAR LMML 210945Z VRB01KT 9999 FEW018 SCT080 BKN130 15/11
                        Q1028 NOSIG=
200802210930 METAR LMML NIL=
200802210915 METAR LMML 210915Z VRB03KT 9999 -RA FEW018 BKN130 BKN250
                        15/12 Q1028 TEMPO 8000 SHRA BKN015=
200802210900 METAR LMML NIL=
200802210845 METAR LMML 210845Z VRB03KT 9999 -RA FEW020 BKN130 15/11 Q1028
                        TEMPO 8000 SH RA BKN015=
200802210830 LMML NIL=
200802210815 METAR LMML 210815Z 23008KT 200V270 9999 FEW033 SCT100 BKN120
                        16/12 Q1028 TE MPO 8000 SHRA BKN015=
200802210800 METAR LMML NIL=
200802210745 METAR LMML 210745Z 23005KT 190V260 9999 FEW020 SCT100 BKN120
                        16/12 Q1028 TE MPO 8000 SHRA BKN015=
200802210715 METAR LMML 210715Z 19008KT 160V220 9999 -RA FEW015 BKN080
                        BKN100 15/11 Q102 8 TEMPO 8000 SHRA
                        BKN015=
200802210700 METAR LMML NIL=
200802210645 METAR LMML 210645Z 19006KT 150V230 9999 FEW012 SCT090 BKN110
                        15/11 Q1028 NO SIG=
200802210630 METAR LMML NIL=
200802210615 METAR LMML 210615Z 19007KT 130V230 9999 FEW012 SCT090 BKN120
                        15/11 Q1027 NO SIG=
200802210600 METAR LMML NIL=
200802210545 METAR LMML 210545Z 19009KT 160V220 CAVOK 15/11 Q1027 NOSIG=
200802210530 METAR LMML NIL=
200802210515 METAR LMML 210515Z 18008KT CAVOK 15/11 Q1027 NOSIG=
200802210500 METAR LMML NIL=
200802210445 METAR LMML 210445Z 18009KT 150V210 CAVOK 15/11 Q1026 NOSIG=
200802210430 METAR LMML NIL=
200802210415 METAR LMML 210415Z 17008KT 140V200 CAVOK 15/12 Q1026 NOSIG=
200802210400 LMML NIL=
200802210345 LMML 210345Z 17007KT 130V210 CAVOK 15/12 Q1026 NOSIG=
200802210330 METAR LMML NIL=
200802210315 METAR LMML 210315Z 17007KT 150V210 CAVOK 15/11 Q1026 NOSIG=
200802210300 METAR LMML NIL=
200802210245 METAR LMML 210245Z 17006KT 140V200 CAVOK 15/11 Q1027 NOSIG=
200802210230 METAR LMML NIL=
200802210215 METAR LMML 210215Z 17007KT 130V200 CAVOK 15/11 Q1027 NOSIG=
200802210200 METAR LMML NIL=
200802210145 METAR LMML 210145Z 16005KT 140V200 9999 FEW021 BKN100 14/11
                        Q1027 NOSIG=
200802210130 METAR LMML NIL=
200802210115 METAR LMML 210115Z 16006KT 9999 FEW030 BKN100 14/11 Q1027
                        NOSIG=
200802210100 METAR LMML NIL=
200802210045 METAR LMML 210045Z 17005KT 140V200 9999 FEW036 BKN100 14/10
                        Q1028 NOSIG=
200802210030 METAR LMML NIL=
200802210015 METAR LMML 210015Z 17005KT 130V200 9999 FEW036 BKN100 15/10
                        Q1028 NOSIG=
200802210000 METAR LMML NIL=
200802202345 METAR LMML 202345Z 18007KT 150V210 9999 FEW036 BKN090 15/10
                        Q1028 NOSIG=
200802202330 METAR LMML NIL=
200802202315 METAR LMML 202315Z 18008KT CAVOK 15/09 Q1028 NOSIG=
200802202300 METAR LMML NIL=
200802202245 METAR LMML 202245Z 18009KT CAVOK 15/09 Q1028 NOSIG=
200802202230 METAR LMML NIL=
200802202215 METAR LMML 202215Z 18009KT 150V210 CAVOK 15/09 Q1028 NOSIG=
200802202200 METAR LMML NIL=
200802202145 METAR LMML 202145Z 17009KT CAVOK 15/09 Q1028 NOSIG=
200802202130 METAR LMML NIL=
200802202115 METAR LMML 202115Z 17009KT 140V210 CAVOK 15/09 Q1029 NOSIG=
200802202100 LMML NIL=
200802202045 METAR LMML 202045Z 17008KT 140V200 CAVOK 14/09 Q1029 NOSIG=
200802202030 METAR LMML NIL=
200802202015 METAR LMML 202015Z 17007KT 140V200 CAVOK 14/09 Q1028 NOSIG=
200802202000 METAR LMML NIL=
200802201945 METAR LMML 201945Z 18010KT 150V210 9999 FEW030 BKN100 15/10
                        Q1028 NOSIG=
200802201930 METAR LMML NIL=
200802201915 METAR LMML 201915Z 18010KT 150V210 9999 FEW030 BKN100 15/09
                        Q1028 NOSIG=
200802201900 METAR LMML NIL=
200802201845 METAR LMML 201845Z 18010KT 9999 FEW030 BKN090 15/10 Q1028
                        NOSIG=
200802201830 METAR LMML NIL=
200802201815 METAR LMML 201815Z 18009KT 140V200 9999 FEW030 BKN090 15/10
                        Q1028 NOSIG=
200802201800 METAR LMML NIL=
200802201745 METAR LMML 201745Z 18007KT 140V210 9999 FEW032 BKN090 15/08
                        Q1028 NOSIG=
200802201730 METAR LMML NIL=
200802201715 METAR LMML 201715Z 19007KT 160V230 9999 FEW032 BKN090 15/09
                        Q1028 NOSIG=
200802201700 METAR LMML NIL=
200802201645 METAR LMML 201645Z 19007KT 160V230 9999 FEW030 BKN100 15/09
                        Q1028 NOSIG=
200802201630 METAR LMML NIL=
200802201615 METAR LMML 201615Z 19007KT 160V230 9999 FEW030 BKN090 15/10
                        Q1028 NOSIG=
200802201600 METAR LMML NIL=
200802201545 METAR LMML 201545Z 18009KT 140V220 9999 FEW047 BKN090 15/10
                        Q1027 TEMPO SHR A=
200802201530 METAR LMML NIL=
200802201515 METAR LMML 201515Z 19008KT 160V220 9999 -SHRA FEW047 BKN100
                        15/11 Q1027 TEM PO SHRA=
200802201500 METAR LMML NIL=
200802201445 METAR LMML 201445Z 19010KT 160V230 9999 FEW020 BKN120 15/10
                        Q1027 NOSIG=
200802201430 METAR LMML NIL=
200802201415 METAR LMML 201415Z 18010KT 160V230 9999 FEW020 BKN110 15/10
                        Q1027 NOSIG=
200802201400 METAR LMML NIL=
200802201345 METAR LMML 201345Z 18011KT 150V220 9999 FEW020 BKN110 15/10
                        Q1028 NOSIG=
200802201330 METAR LMML NIL=
200802201315 METAR LMML 201315Z 19012KT 160V230 9999 FEW022 BKN110 16/10
                        Q1028 NOSIG=
200802201300 METAR LMML NIL=
200802201245 METAR LMML 201245Z 18010KT 150V220 9999 FEW023 FEW115 16/11
                        Q1028 NOSIG=
200802201230 METAR LMML NIL=
200802201215 METAR LMML 201215Z 19013KT 150V220 9999 FEW023 BKN120 16/11
                        Q1028 NOSIG=
200802201200 METAR LMML NIL=
200802201145 METAR LMML 201145Z 18012KT 150V220 CAVOK 16/10 Q1029 NOSIG=
200802201130 METAR LMML NIL=
200802201115 METAR LMML 201115Z 18013KT 150V220 CAVOK 16/10 Q1029 NOSIG=
200802201100 METAR LMML NIL=
200802201045 METAR LMML 201045Z 18013KT 140V220 CAVOK 16/09 Q1029 NOSIG=
200802201030 METAR LMML NIL=
200802201015 METAR LMML 201015Z 18012KT 140V220 CAVOK 15/09 Q1030 NOSIG=
200802200945 METAR LMML 200945Z 18012KT 150V210 CAVOK 15/09 Q1030 NOSIG=
200802200930 METAR LMML NIL=
200802200915 METAR LMML 200915Z 18012KT 150V220 CAVOK 15/09 Q1030 NOSIG=
200802200900 METAR LMML NIL=
200802200845 METAR LMML 200845Z 18010KT 140V210 9999 FEW033 BKN110 16/09
                        Q1030 NOSIG=
200802200830 METAR LMML NIL=
200802200815 METAR LMML 200815Z 18009KT 150V220 9999 FEW033 BKN120 15/09
                        Q1030 NOSIG=
200802200800 METAR LMML NIL=
200802200745 METAR LMML 200745Z 18009KT 150V210 9999 FEW033 BKN100 15/08
                        Q1029 NOSIG=
200802200730 METAR LMML NIL=
200802200715 METAR LMML 200715Z 18011KT 9999 FEW033 BKN100 14/08 Q1029
                        NOSIG=
200802200700 METAR LMML NIL=
200802200645 METAR LMML 200645Z 18009KT 150V230 9999 FEW033 SCT110 14/08
                        Q1029 NOSIG=
200802200630 METAR LMML NIL=
200802200615 METAR LMML 200615Z 18008KT 150V210 9999 FEW031 14/07 Q1029
                        NOSIG=
200802200600 METAR LMML NIL=
200802200545 METAR LMML 200545Z 18009KT 150V220 9999 FEW031 SCT100 14/07
                        Q1029 NOSIG=
200802200530 METAR LMML NIL=
200802200515 METAR LMML 200515Z 18008KT 150V210 9999 FEW032 BKN100 14/08
                        Q1029 NOSIG=
200802200500 METAR LMML NIL=
200802200445 METAR LMML 200445Z 18007KT 150V210 9999 FEW032 BKN100 13/07
                        Q1029 NOSIG=
200802200430 METAR LMML NIL=
200802200415 METAR LMML 200415Z 18007KT 150V210 9999 FEW032 SCT100 13/07
                        Q1029 NOSIG=
200802200400 METAR LMML NIL=
200802200345 METAR LMML 200345Z 19008KT 160V220 9999 FEW032 13/07 Q1029
                        NOSIG=
200802200330 METAR LMML NIL=
200802200315 METAR LMML 200315Z 19009KT 9999 FEW030 13/07 Q1029 NOSIG=
200802200300 METAR LMML NIL=
200802200245 METAR LMML 200245Z 19008KT 160V230 9999 FEW030 12/06 Q1029
                        NOSIG=
200802200230 METAR LMML NIL=
200802200215 METAR LMML 200215Z 19006KT 160V220 9999 SCT030 12/06 Q1029
                        NOSIG=
200802200200 METAR LMML NIL=
200802200145 METAR LMML 200145Z 19006KT 160V220 9999 SCT030 12/06 Q1029
                        NOSIG=
200802200130 METAR LMML NIL=
200802200115 METAR LMML 200115Z 18006KT 150V220 9999 SCT030 12/06 Q1030
                        NOSIG=
200802200100 METAR LMML NIL=
200802200045 METAR LMML 200045Z 17006KT 140V200 9999 SCT031 12/06 Q1030
                        NOSIG=
200802200030 METAR LMML NIL=
200802200015 METAR LMML 200015Z 17006KT 9999 SCT032 12/06 Q1030 NOSIG=
200802200000 METAR LMML NIL=
200802192345 METAR LMML 192345Z 18006KT 150V220 9999 SCT033 12/06 Q1030
                        NOSIG=
200802192330 METAR LMML NIL=
200802192315 METAR LMML 192315Z 18005KT 140V210 9999 SCT034 12/06 Q1030
                        NOSIG=
200802192300 METAR LMML NIL=
200802192245 METAR LMML 192245Z 18006KT 160V220 9999 SCT035 12/05 Q1030
                        NOSIG=
200802192230 METAR LMML NIL=
200802192215 METAR LMML 192215Z 19006KT 160V240 9999 BKN037 12/05 Q1030
                        NOSIG=
200802192200 METAR LMML NIL=
200802192145 METAR LMML 192145Z 20006KT 160V230 9999 BKN037 13/06 Q1030
                        NOSIG=
200802192130 METAR LMML NIL=
200802192115 METAR LMML 192115Z 19006KT 150V240 9999 BKN038 13/06 Q1030
                        NOSIG=
200802192100 METAR LMML NIL=
200802192045 METAR LMML 192045Z 20005KT 170V240 9999 BKN039 13/05 Q1031
                        NOSIG=
200802192030 METAR LMML NIL=
200802192015 METAR LMML 192015Z 20004KT 170V240 9999 BKN037 13/06 Q1031
                        NOSIG=
200802192000 METAR LMML NIL=
200802191945 METAR LMML 191945Z 20004KT 160V240 9999 BKN037 12/06 Q1030
                        NOSIG=
200802191930 METAR LMML NIL=
200802191915 METAR LMML 191915Z VRB03KT 9999 BKN036 12/06 Q1030 NOSIG=
200802191900 METAR LMML NIL=
200802191845 METAR LMML 191845Z VRB02KT 9999 BKN036 12/06 Q1030 NOSIG=
200802191830 METAR LMML NIL=
200802191815 METAR LMML 191815Z VRB03KT 9999 BKN035 12/06 Q1030 NOSIG=
200802191800 METAR LMML NIL=
200802191745 METAR LMML 191745Z VRB01KT 9999 BKN034 12/06 Q1030 NOSIG=
200802191730 METAR LMML NIL=
200802191715 METAR LMML 191715Z VRB01KT 9999 SCT034 11/06 Q1030 NOSIG=
200802191700 METAR LMML NIL=
200802191645 METAR LMML 191645Z VRB02KT 9999 FEW031 12/06 Q1029 NOSIG=
200802191630 METAR LMML NIL=
200802191615 METAR LMML 191615Z 23005KT 190V260 9999 SCT031 13/06 Q1029
                        NOSIG=
200802191600 METAR LMML NIL=
200802191545 METAR LMML 191545Z 22005KT 190V280 9999 SCT031 13/06 Q1030
                        NOSIG=
200802191530 METAR LMML NIL=
200802191515 METAR LMML 191515Z 23004KT 200V290 9999 SCT030 13/06 Q1030
                        NOSIG=
200802191445 METAR LMML 191445Z 24005KT 140V290 9999 SCT032 14/06 Q1030
                        NOSIG=
200802191430 METAR LMML NIL=
200802191415 METAR LMML 191415Z 24006KT 200V280 9999 SCT032 14/06 Q1030
                        NOSIG=
200802191400 METAR LMML NIL=
200802191345 METAR LMML 191345Z 25007KT 200V300 9999 SCT031 13/05 Q1030
                        NOSIG=
200802191330 METAR LMML NIL=
200802191315 METAR LMML 191315Z 25007KT 200V290 9999 SCT033 14/06 Q1030
                        NOSIG=
200802191300 METAR LMML NIL=
200802191245 METAR LMML 191245Z 23007KT 200V290 9999 SCT033 13/05 Q1030
                        NOSIG=
200802191230 LMML NIL=
200802191215 METAR LMML 191215Z 23007KT 190V290 9999 SCT034 14/06 Q1030
                        NOSIG=
200802191200 METAR LMML NIL=
200802191145 METAR LMML 191145Z 24007KT 200V300 9999 SCT034 14/06 Q1031
                        NOSIG=
200802191130 METAR LMML NIL=
200802191115 METAR LMML 191115Z 23006KT 190V300 9999 SCT032 13/06 Q1031
                        NOSIG=
200802191045 METAR LMML 191045Z 25007KT 130V280 9999 SCT034 14/05 Q1031
                        NOSIG=
200802191030 METAR LMML NIL=
200802191015 METAR LMML 191015Z 24006KT 190V290 9999 SCT033 14/05 Q1031
                        NOSIG=
200802191000 METAR LMML NIL=
200802190945 METAR LMML 190945Z 23007KT 080V280 9999 FEW032 13/05 Q1031
                        NOSIG=
200802190930 METAR LMML NIL=
200802190915 METAR LMML 190915Z 23008KT 200V270 9999 SCT033 13/05 Q1031
                        NOSIG=
200802190900 METAR LMML NIL=
200802190845 METAR LMML 190845Z 24008KT 190V300 9999 SCT033 13/05 Q1031
                        NOSIG=
200802190830 METAR LMML NIL=
200802190815 METAR LMML 190815Z 26007KT 230V300 9999 BKN033 12/06 Q1031
                        NOSIG=
200802190800 METAR LMML NIL=
200802190745 METAR LMML 190745Z 23005KT 190V290 9999 SCT033 12/06 Q1031
                        NOSIG=
200802190730 METAR LMML NIL=
200802190715 METAR LMML 190715Z VRB02KT 9999 SCT032 11/06 Q1031 NOSIG=
200802190700 METAR LMML NIL=
200802190645 METAR LMML 190645Z VRB03KT 9999 SCT032 09/05 Q1031 NOSIG=
200802190630 METAR LMML NIL=
200802190615 METAR LMML 190615Z 25004KT 9999 SCT031 09/04 Q1030 NOSIG=
200802190600 METAR LMML NIL=
200802190545 METAR LMML 190545Z 24005KT 9999 SCT031 08/05 Q1030 NOSIG=
200802190515 METAR LMML 190515Z VRB03KT 9999 SCT031 08/04 Q1030 NOSIG=
200802190500 METAR LMML NIL=
200802190445 METAR LMML 190445Z 25004KT 9999 SCT032 08/05 Q1030 NOSIG=
200802190430 METAR LMML NIL=
200802190415 METAR LMML 190415Z VRB03KT 9999 BKN033 07/05 Q1030 NOSIG=
200802190345 METAR LMML 190345Z VRB03KT 9999 BKN032 07/05 Q1030 NOSIG=
200802190330 METAR LMML NIL=
200802190315 METAR LMML 190315Z VRB01KT 9999 SCT032 06/03 Q1030 NOSIG=
200802190300 LMML NIL=
200802190245 METAR LMML 190245Z VRB03KT 9999 SCT033 06/04 Q1030 NOSIG=
200802190230 METAR LMML NIL=
200802190215 METAR LMML 190215Z VRB02KT 9999 FEW032 06/04 Q1030 NOSIG=
200802190200 METAR LMML NIL=
200802190145 METAR LMML 190145Z VRB02KT 9999 FEW033 07/04 Q1030 NOSIG=
200802190130 METAR LMML NIL=
200802190115 METAR LMML 190115Z VRB03KT 9999 SCT033 07/04 Q1031 NOSIG=
200802190100 METAR LMML NIL=
200802190045 METAR LMML 190045Z VRB03KT 9999 SCT034 08/04 Q1031 NOSIG=
200802190030 METAR LMML NIL=
200802190015 METAR LMML 190015Z 28004KT 9999 SCT034 08/04 Q1031 NOSIG=
200802182345 METAR LMML 182345Z 26004KT 9999 SCT034 07/04 Q1031 NOSIG=
200802182330 METAR LMML NIL=
200802182315 METAR LMML 182315Z VRB03KT 9999 SCT034 07/04 Q1031 NOSIG=
200802182300 METAR LMML NIL=
200802182245 METAR LMML 182245Z VRB01KT 9999 SCT035 07/04 Q1031 NOSIG=
200802182215 METAR LMML 182215Z VRB02KT 9999 SCT034 07/04 Q1031 NOSIG=
200802182200 METAR LMML NIL=
200802182145 METAR LMML 182145Z VRB01KT 9999 SCT034 07/04 Q1032 NOSIG=
200802182130 METAR LMML NIL=
200802182115 METAR LMML 182115Z VRB02KT 9999 SCT033 07/03 Q1032 NOSIG=
200802182100 METAR LMML NIL=
200802182045 METAR LMML 182045Z VRB02KT 9999 SCT033 07/03 Q1032 NOSIG=
200802182030 METAR LMML NIL=
200802182015 METAR LMML 182015Z VRB01KT CAVOK 07/03 Q1032 NOSIG=
200802182000 METAR LMML NIL=
200802181945 METAR LMML 181945Z VRB01KT CAVOK 07/03 Q1032 NOSIG=
200802181915 METAR LMML 181915Z 00000KT CAVOK 07/03 Q1032 NOSIG=
200802181900 METAR LMML NIL=
200802181845 METAR LMML 181845Z VRB02KT CAVOK 08/02 Q1032 NOSIG=
200802181830 METAR LMML NIL=
200802181815 METAR LMML 181815Z VRB02KT 9999 FEW040 08/02 Q1032 NOSIG=
200802181745 METAR LMML 181745Z VRB03KT 9999 FEW040 08/02 Q1032 NOSIG=
200802181730 METAR LMML NIL=
200802181715 METAR LMML 181715Z VRB03KT 9999 FEW040 09/01 Q1032 NOSIG=
200802181700 METAR LMML NIL=
200802181645 METAR LMML 181645Z VRB03KT 9999 FEW040 09/01 Q1032 NOSIG=
200802181630 METAR LMML NIL=
200802181615 METAR LMML 181615Z 29005KT 9999 FEW040 10/01 Q1032 NOSIG=
200802181600 METAR LMML NIL=
200802181545 METAR LMML 181545Z 28007KT 9999 FEW040 10/00 Q1032 NOSIG=
200802181530 METAR LMML NIL=
200802181515 METAR LMML 181515Z 29006KT 260V320 9999 FEW040 11/02 Q1032
                        NOSIG=
200802181500 METAR LMML NIL=
200802181445 METAR LMML 181445Z 29007KT 230V320 9999 FEW040 11/01 Q1032
                        NOSIG=
200802181430 METAR LMML NIL=
200802181415 METAR LMML 181415Z 30009KT 270V330 9999 FEW040 11/00 Q1032
                        NOSIG=
200802181400 METAR LMML NIL=
200802181345 METAR LMML 181345Z 29008KT 260V320 9999 FEW041 11/02 Q1032
                        NOSIG=
200802181330 METAR LMML NIL=
200802181315 METAR LMML 181315Z 32007KT 280V360 9999 FEW049 11/01 Q1032
                        NOSIG=
200802181300 METAR LMML NIL=
200802181245 METAR LMML 181245Z 27005KT 220V330 9999 FEW049 11/01 Q1032
                        NOSIG=
200802181230 METAR LMML NIL=
200802181215 METAR LMML 181215Z 28006KT 220V350 9999 FEW049 11/01 Q1033
                        NOSIG=
200802181200 METAR LMML NIL=
200802181145 METAR LMML 181145Z 28007KT 230V330 9999 FEW049 11/01 Q1033
                        NOSIG=
200802181130 METAR LMML NIL=
200802181115 METAR LMML 181115Z 30005KT 250V360 9999 FEW049 11/M00 Q1034
                        NOSIG=
200802181100 METAR LMML NIL=
200802181045 METAR LMML 181045Z 28004KT 190V320 9999 FEW049 11/M00 Q1034
                        NOSIG=
200802181030 METAR LMML NIL=
200802181015 METAR LMML 181015Z 30006KT 260V010 9999 FEW049 11/01 Q1034
                        NOSIG=
200802181000 METAR LMML NIL=
200802180945 METAR LMML 180945Z 32004KT 270V020 9999 FEW049 11/00 Q1035
                        NOSIG=
200802180930 METAR LMML NIL=
200802180915 METAR LMML 180915Z 30005KT 260V340 9999 FEW049 10/M00 Q1035
                        NOSIG=
200802180900 METAR LMML NIL=
200802180845 METAR LMML 180845Z 32004KT 280V360 9999 FEW049 10/M01 Q1035
                        NOSIG=
200802180830 METAR LMML NIL=
200802180815 METAR LMML 180815Z 32004KT 270V340 9999 FEW049 10/M00 Q1035
                        NOSIG=
200802180800 METAR LMML NIL=
200802180745 METAR LMML 180745Z VRB03KT 9999 FEW049 09/01 Q1034 NOSIG=
200802180715 METAR LMML 180715Z 29004KT 9999 FEW049 08/01 Q1034 NOSIG=
200802180700 METAR LMML NIL=
200802180645 METAR LMML 180645Z 28004KT 9999 SCT049 06/M01 Q1034 NOSIG=
200802180630 METAR LMML NIL=
200802180615 METAR LMML 180615Z 28004KT 9999 SCT049 05/M01 Q1034 NOSIG=
200802180600 METAR LMML NIL=
200802180545 METAR LMML 180545Z 28004KT 9999 SCT049 06/M01 Q1034 NOSIG=
200802180530 METAR LMML NIL=
200802180515 METAR LMML 180515Z 27004KT 9999 SCT049 05/00 Q1034 NOSIG=
200802180500 METAR LMML NIL=
200802180445 METAR LMML 180445Z 27004KT 9999 SCT049 06/M01 Q1034 NOSIG=
200802180430 METAR LMML NIL=
200802180415 METAR LMML 180415Z 27004KT 9999 SCT048 05/00 Q1034 NOSIG=
200802180400 METAR LMML NIL=
200802180345 METAR LMML 180345Z 27004KT 9999 SCT049 06/00 Q1034 NOSIG=
200802180330 METAR LMML NIL=
200802180315 METAR LMML 180315Z 28004KT 9999 SCT048 06/00 Q1034 NOSIG=
200802180300 METAR LMML NIL=
200802180245 METAR LMML 180245Z 29004KT 9999 SCT048 06/M00 Q1034 NOSIG=
200802180230 METAR LMML NIL=
200802180215 METAR LMML 180215Z VRB03KT 9999 SCT047 06/01 Q1034 NOSIG=
200802180200 METAR LMML NIL=
200802180145 METAR LMML 180145Z VRB01KT 9999 SCT045 06/01 Q1034 NOSIG=
200802180130 METAR LMML NIL=
200802180115 METAR LMML 180115Z VRB02KT 9999 SCT047 06/00 Q1035 NOSIG=
200802180100 METAR LMML NIL=
200802180045 METAR LMML 180045Z VRB03KT 9999 SCT042 06/00 Q1035 NOSIG=
200802180030 METAR LMML NIL=
200802180015 METAR LMML 180015Z VRB02KT 9999 SCT045 05/00 Q1035 NOSIG=
200802180000 METAR LMML NIL=
200802172345 METAR LMML 172345Z VRB03KT 9999 SCT045 07/M01 Q1035 NOSIG=
200802172330 METAR LMML NIL=
200802172315 METAR LMML 172315Z 04004KT 010V070 9999 SCT045 07/M01 Q1035
                        NOSIG=
200802172300 METAR LMML NIL=
200802172245 METAR LMML 172245Z 05005KT 030V100 9999 BKN048 08/M01 Q1035
                        NOSIG=
200802172230 METAR LMML NIL=
200802172215 METAR LMML 172215Z VRB03KT 9999 BKN045 07/M00 Q1035 NOSIG=
200802172200 METAR LMML NIL=
200802172145 METAR LMML 172145Z VRB02KT 9999 SCT043 06/01 Q1035 NOSIG=
200802172130 METAR LMML NIL=
200802172115 METAR LMML 172115Z VRB01KT 9999 SCT047 06/00 Q1035 NOSIG=
200802172100 METAR LMML NIL=
200802172045 METAR LMML 172045Z VRB02KT 9999 SCT048 06/01 Q1035 NOSIG=
200802172030 METAR LMML NIL=
200802172015 METAR LMML 172015Z VRB01KT CAVOK 07/00 Q1035 NOSIG=
200802172000 METAR LMML NIL=
200802171945 METAR LMML 171945Z VRB02KT CAVOK 06/01 Q1035 NOSIG=
200802171930 METAR LMML NIL=
200802171915 METAR LMML 171915Z VRB02KT 9999 BKN049 07/00 Q1035 NOSIG=
200802171900 METAR LMML NIL=
200802171845 METAR LMML 171845Z 36004KT 310V050 9999 BKN047 07/M00 Q1035
                        NOSIG=
200802171830 METAR LMML NIL=
200802171815 METAR LMML 171815Z 34005KT CAVOK 07/M01 Q1035 NOSIG=
200802171800 METAR LMML NIL=
200802171745 METAR LMML 171745Z 34005KT CAVOK 07/M02 Q1035 NOSIG=
200802171730 METAR LMML NIL=
200802171715 METAR LMML 171715Z 34005KT 310V010 CAVOK 07/M02 Q1035 NOSIG=
200802171700 METAR LMML NIL=
200802171645 METAR LMML 171645Z 36006KT 9999 FEW047 BKN057 08/M02 Q1035
                        NOSIG=
200802171630 METAR LMML NIL=
200802171615 METAR LMML 171615Z 35008KT 9999 FEW047 BKN060 08/M01 Q1035
                        NOSIG=
200802171600 METAR LMML NIL=
200802171545 METAR LMML 171545Z 01008KT 350V050 9999 BKN047 08/M01 Q1034
                        NOSIG=
200802171530 METAR LMML NIL=
200802171515 METAR LMML 171515Z 03009KT 340V070 9999 BKN049 08/M01 Q1034
                        NOSIG=
200802171500 METAR LMML NIL=
200802171445 METAR LMML 171445Z 03012KT 360V070 9999 BKN048 08/M02 Q1034
                        NOSIG=
200802171415 METAR LMML 171415Z 02013KT 350V070 CAVOK 08/M02 Q1034 NOSIG=
200802171345 METAR LMML 171345Z 02012KT 350V070 CAVOK 08/M02 Q1034 NOSIG=
200802171330 METAR LMML NIL=
200802171315 METAR LMML 171315Z 03014KT 350V070 9999 BKN049 09/M02 Q1034
                        NOSIG=
200802171300 METAR LMML NIL=
200802171245 METAR LMML 171245Z 02012G22KT 340V060 CAVOK 10/M02 Q1034
                        NOSIG=
200802171230 METAR LMML NIL=
200802171215 METAR LMML 171215Z 02012KT 350V060 9999 BKN048 10/M02 Q1034
                        NOSIG=
200802171200 METAR LMML NIL=
200802171145 METAR LMML 171145Z 02015KT 360V060 9999 BKN045 09/M02 Q1034
                        NOSIG=
200802171130 METAR LMML NIL=
200802171115 METAR LMML 171115Z 02015G25KT 350V070 9999 BKN046 09/M02
                        Q1034 NOSIG=
200802171100 METAR LMML NIL=
200802171045 METAR LMML 171045Z 02016G27KT 350V060 9999 BKN049 10/M02
                        Q1034 NOSIG=
200802171030 METAR LMML NIL=
200802171015 METAR LMML 171015Z 03017KT 360V070 9999 BKN048 09/M02 Q1034
                        NOSIG=
200802171000 METAR LMML NIL=
200802170945 METAR LMML 170945Z 02014G24KT 350V050 9999 BKN044 09/M01
                        Q1034 NOSIG=
200802170930 METAR LMML NIL=
200802170915 METAR LMML 170915Z 03016KT 360V070 9999 BKN046 09/M02 Q1034
                        NOSIG=
200802170900 METAR LMML NIL=
200802170845 METAR LMML 170845Z 02015KT 350V050 9999 BKN047 09/M03 Q1034
                        NOSIG=
200802170830 METAR LMML NIL=
200802170815 METAR LMML 170815Z 02015G27KT 350V060 9999 BKN046 09/M02
                        Q1033 NOSIG=
200802170745 METAR LMML 170745Z 02014G25KT 340V050 9999 BKN043 08/M00
                        Q1033 NOSIG=
200802170730 METAR LMML NIL=
200802170715 METAR LMML 170715Z 03015G27KT 350V060 9999 BKN042 08/M00
                        Q1033 NOSIG=
200802170700 METAR LMML NIL=
200802170645 METAR LMML 170645Z 03018G30KT 010V080 9999 BKN042 08/M01
                        Q1032 NOSIG=
200802170630 METAR LMML NIL=
200802170615 METAR LMML 170615Z 02015KT 350V060 9999 BKN042 08/M00 Q1032
                        NOSIG=
200802170600 METAR LMML NIL=
200802170545 METAR LMML 170545Z 03013G23KT 010V070 9999 BKN040 08/M00
                        Q1031 NOSIG=
200802170530 METAR LMML NIL=
200802170515 METAR LMML 170515Z 03015KT 360V060 9999 BKN041 08/01 Q1031
                        NOSIG=
200802170500 METAR LMML NIL=
200802170445 METAR LMML 170445Z 02014G24KT 350V060 9999 BKN041 09/00 Q1031
                        NOSIG=
200802170430 METAR LMML NIL=
200802170415 METAR LMML 170415Z 03013KT 340V070 9999 BKN039 09/01 Q1030
                        NOSIG=
200802170400 METAR LMML NIL=
200802170345 METAR LMML 170345Z 03013KT 350V070 9999 BKN036 09/01 Q1030
                        NOSIG=
200802170330 METAR LMML NIL=
200802170315 METAR LMML 170315Z 02015KT 360V060 9999 BKN038 09/02 Q1030
                        NOSIG=
200802170300 METAR LMML NIL=
200802170245 METAR LMML 170245Z 02013KT 350V050 9999 BKN039 09/02 Q1030
                        NOSIG=
200802170230 METAR LMML NIL=
200802170215 METAR LMML 170215Z 03014KT 010V070 9999 BKN037 10/02 Q1029
                        NOSIG=
200802170145 METAR LMML 170145Z 03011KT 360V070 9999 SCT037 10/03 Q1029
                        NOSIG=
200802170130 METAR LMML NIL=
200802170115 METAR LMML 170115Z 36012KT 330V030 9999 SCT049 10/00 Q1029
                        NOSIG=
200802170100 METAR LMML NIL=
200802170045 METAR LMML 170045Z 35008KT 9999 FEW046 09/01 Q1029 NOSIG=
200802170030 METAR LMML NIL=
200802170015 METAR LMML 170015Z 01008KT 9999 FEW049 10/02 Q1028 NOSIG=
200802162345 METAR LMML 162345Z 01010KT 9999 BKN040 10/02 Q1028 NOSIG=
200802162330 METAR LMML NIL=
200802162315 METAR LMML 162315Z 01010G20KT 9999 BKN040 11/03 Q1028 NOSIG=
200802162300 METAR LMML NIL=
200802162245 METAR LMML 162245Z 02011G21KT 9999 BKN040 11/02 Q1028 NOSIG=
200802162230 METAR LMML NIL=
200802162215 METAR LMML 162215Z 03010KT 360V060 9999 BKN040 11/03 Q1027
                        NOSIG=
200802162200 METAR LMML NIL=
200802162145 METAR LMML 162145Z 02010KT 350V050 9999 BKN040 11/03 Q1027
                        NOSIG=
200802162130 METAR LMML NIL=
200802162115 METAR LMML 162115Z 03013KT 360V060 9999 BKN040 12/03 Q1027
                        NOSIG=
200802162100 METAR LMML NIL=
200802162045 METAR LMML 162045Z 04011KT 010V080 9999 FEW025 BKN040 12/05
                        Q1026 NOSIG=
200802162030 METAR LMML NIL=
200802162015 METAR LMML 162015Z 05012KT 010V090 9999 FEW027 BKN060 12/07
                        Q1026 NOSIG=
200802162000 METAR LMML NIL=
200802161945 METAR LMML 161945Z 04006KT 360V080 9999 FEW025 BKN060 12/07
                        Q1026 NOSIG=
200802161915 METAR LMML 161915Z 02007KT 360V070 9999 SCT026 SCT060 12/07
                        Q1025 NOSIG=
200802161900 LMML NIL=
200802161845 LMML 161845Z 02005KT 350V060 9999 SCT027 12/07 Q1025 NOSIG=
200802161830 METAR LMML NIL=
200802161815 METAR LMML 161815Z 03004KT 360V090 9999 SCT027 12/07 Q1025
                        NOSIG=
200802161800 METAR LMML NIL=
200802161745 METAR LMML 161745Z 04004KT 360V080 9999 FEW028 SCT060 12/07
                        Q1024 NOSIG=
200802161715 METAR LMML 161715Z 04005KT 010V090 9999 FEW037 SCT060 12/07
                        Q1024 NOSIG=
200802161645 METAR LMML 161645Z 05005KT 360V090 9999 FEW032 SCT070 12/07
                        Q1023 NOSIG=
200802161630 METAR LMML NIL=
200802161615 METAR LMML 161615Z 06006KT 010V100 9999 FEW029 SCT070 12/06
                        Q1023 NOSIG=
200802161600 METAR LMML NIL=
200802161545 METAR LMML 161545Z 04008KT 010V090 9999 FEW029 SCT070 13/07
                        Q1023 NOSIG=
200802161530 METAR LMML NIL=
200802161515 METAR LMML 161515Z 04010KT 010V090 9999 FEW030 SCT070 13/07
                        Q1022 NOSIG=
200802161500 METAR LMML NIL=
200802161445 METAR LMML 161445Z 04012KT 010V080 9999 SCT029 14/07 Q1022
                        NOSIG=
200802161430 METAR LMML NIL=
200802161415 METAR LMML 161415Z 03012KT 360V070 9999 SCT029 13/07 Q1021
                        NOSIG=
200802161400 METAR LMML NIL=
200802161345 METAR LMML 161345Z 04012KT 010V080 9999 FEW031 14/07 Q1021
                        NOSIG=
200802161330 METAR LMML NIL=
200802161315 METAR LMML 161315Z 04014KT 010V080 9999 FEW032 14/07 Q1021
                        NOSIG=
200802161300 METAR LMML NIL=
200802161245 METAR LMML 161245Z 03015KT 360V070 9999 FEW034 14/07 Q1021
                        NOSIG=
200802161230 METAR LMML NIL=
200802161215 METAR LMML 161215Z 03016KT 360V070 9999 FEW030 15/07 Q1021
                        NOSIG=
200802161200 METAR LMML NIL=
200802161145 METAR LMML 161145Z 04015KT 010V080 9999 FEW032 15/07 Q1021
                        NOSIG=
200802161130 METAR LMML NIL=
200802161115 METAR LMML 161115Z 04015KT 010V080 9999 FEW024 15/07 Q1021
                        NOSIG=
200802161100 METAR LMML NIL=
200802161045 METAR LMML 161045Z 04017KT 360V080 9999 FEW024 14/08 Q1021
                        NOSIG=
200802161030 METAR LMML NIL=
200802161015 METAR LMML 161015Z 03015KT 010V070 9999 FEW024 14/09 Q1020
                        NOSIG=
200802161000 METAR LMML NIL=
200802160945 METAR LMML 160945Z 04019KT 360V090 9999 FEW023 BKN041 14/09
                        Q1020 NOSIG=
200802160930 METAR LMML NIL=
200802160915 METAR LMML 160915Z 04016G27KT 010V080 9999 FEW024 OVC037
                        13/09 Q1020 NOSIG=
200802160900 METAR LMML NIL=
200802160845 METAR LMML 160845Z 04016G28KT 010V080 9999 SCT022 SCT031
                        BKN120 13/09 Q1020 NOSIG=
200802160830 METAR LMML NIL=
200802160815 METAR LMML 160815Z 04017G28KT 360V080 9999 SCT017 SCT030
                        BKN120 13/10 Q1019 NOSIG=
200802160800 METAR LMML NIL=
200802160745 METAR LMML 160745Z 04017G27KT 010V080 9000 SCT014 BKN023
                        13/11 Q1019 RERA B ECMG 9999=
200802160730 METAR LMML NIL=
200802160715 METAR LMML 160715Z 05013KT 010V090 7000 -RA BKN012 BKN031
                        12/11 Q1018 BECMG 8000=
200802160700 METAR LMML NIL=
200802160645 METAR LMML 160645Z 05014KT 020V080 7000 -RA BKN012 BKN042
                        12/11 Q1018 BECMG 8000=
200802160630 METAR LMML NIL=
200802160615 METAR LMML 160615Z 04015KT 010V080 7000 -RA BKN013 BKN035
                        12/10 Q1018 TEMPO 6000 SHRA BKN008=
200802160600 METAR LMML NIL=
200802160545 METAR LMML 160545Z 03014G24KT 360V070 7000 -RA BKN013 OVC028
                        12/11 Q1017 TE MPO 6000 SHRA BKN008=
200802160530 METAR LMML NIL=
200802160515 METAR LMML 160515Z 05014KT 020V080 7000 -RA BKN011 12/11
                        Q1017 TEMPO 6000 S HRA BKN008=
200802160500 METAR LMML NIL=
200802160445 METAR LMML 160445Z 04012KT 360V080 7000 -RA BKN010 13/12
                        Q1017 TEMPO 6000 S HRA BKN008=
200802160430 METAR LMML NIL=
200802160415 METAR LMML 160415Z 04016KT 010V070 9000 -RA BKN009 13/12
                        Q1017 TEMPO 6000 S HRA SCT005=
200802160400 METAR LMML NIL=
200802160345 METAR LMML 160345Z 04015G25KT 010V080 9000 -RA BKN008 13/12
                        Q1016 TEMPO 600 0 SHRA SCT005=
200802160330 METAR LMML NIL=
200802160315 METAR LMML 160315Z 04016KT 360V080 9000 BKN008 13/12 Q1016
                        TEMPO 6000 SHRA SCT005=
200802160300 METAR LMML NIL=
200802160245 METAR LMML 160245Z 05014G24KT 020V090 7000 BKN006 13/13 Q1016
                        TEMPO 6000 SH RA SCT005=
200802160230 METAR LMML NIL=
200802160215 METAR LMML 160215Z 05014KT 020V090 7000 BKN005 13/13 Q1016
                        TEMPO 6000 SHRA SCT005=
200802160200 METAR LMML NIL=
200802160145 METAR LMML 160145Z 05012KT 020V090 7000 BKN004 13/13 Q1016
                        TEMPO 6000 SHRA SCT005=
200802160130 METAR LMML NIL=
200802160115 METAR LMML 160115Z 06012KT 030V090 6000 BKN003 13/13 Q1016
                        TEMPO 6000 SHRA SCT005=
200802160100 METAR LMML NIL=
200802160045 METAR LMML 160045Z 05009KT 020V090 6000 -RA SCT003 SCT006
                        BKN013 14/14 Q101 7 TEMPO 6000 SHRA
                        SCT005=
200802160035 LMML 160035Z 04006KT 020V080 7000 -RA BKN013 BKN090 14/14
                        Q1017 TEMPO 6000 SHRA=
200802160030 METAR LMML NIL=
200802160015 METAR LMML 160015Z 05005KT 020V080 7000 -RA FEW014 SCT050
                        BKN090 14/14 Q101 7 TEMPO 6000 SHRA=
200802160000 METAR LMML NIL=
200802152345 METAR LMML 152345Z 08007KT 7000 -RA FEW020 SCT050 BKN100
                        14/13 Q1017 TEMPO 6000 SHRA=
200802152330 METAR LMML NIL=
200802152315 METAR LMML 152315Z VRB03KT 6000 -RA SCT018 BKN060 13/13 Q1018
                        TEMPO 6000 SH RA=
200802152300 METAR LMML NIL=
200802152245 METAR LMML 152245Z VRB03KT 7000 -RA SCT019 SCT038 BKN100
                        14/13 Q1019 TEMPO 7000 SHRA=
200802152230 METAR LMML NIL=
200802152215 METAR LMML 152215Z 14006KT 7000 -RA FEW018 SCT050 BKN100
                        14/13 Q1019 TEMPO 7000 SHRA=
200802152200 METAR LMML NIL=
200802152145 METAR LMML 152145Z VRB03KT 9999 FEW018 BKN090 BKN110 14/12
                        Q1019 TEMPO 8000 SHRA=
200802152130 METAR LMML NIL=
200802152115 METAR LMML 152115Z 07004KT 020V120 9999 FEW020 BKN090 14/12
                        Q1018 TEMPO 800 0 SHRA=
200802152100 METAR LMML NIL=
200802152045 METAR LMML 152045Z VRB03KT 9999 -RA FEW020 SCT070 BKN110
                        14/12 Q1019 TEMPO 8000 SHRA=
200802152030 METAR LMML NIL=
200802152015 METAR LMML 152015Z 16005KT 9999 FEW020 BKN110 14/12 Q1020
                        TEMPO 8000 SHRA=
200802152000 METAR LMML NIL=
200802151945 METAR LMML 151945Z 16004KT 130V190 9999 FEW020 BKN110 14/12
                        Q1020 TEMPO 800 0 SHRA=
200802151930 METAR LMML NIL=
200802151915 METAR LMML 151915Z 16005KT 120V180 9999 FEW020 BKN110 14/11
                        Q1020 TEMPO 800 0 SHRA=
200802151900 METAR LMML NIL=
200802151845 METAR LMML 151845Z 16006KT 9999 FEW020 BKN110 14/11 Q1020
                        TEMPO 8000 SHRA=
200802151830 METAR LMML NIL=
200802151815 METAR LMML 151815Z 16005KT 120V190 9999 FEW021 SCT060 BKN090
                        14/11 Q1020 TE MPO 8000 SHRA=
200802151800 METAR LMML NIL=
200802151745 METAR LMML 151745Z 16006KT 9999 FEW020 SCT060 BKN120 14/11
                        Q1020 TEMPO 8000 SHRA=
200802151730 METAR LMML NIL=
200802151715 METAR LMML 151715Z 17005KT 130V200 9999 FEW017 SCT060 BKN120
                        14/11 Q1020 TE MPO 8000 SHRA=
200802151700 METAR LMML NIL=
200802151645 METAR LMML 151645Z 16007KT 140V200 9999 SCT017 BKN060 14/12
                        Q1020 TEMPO 800 0 SHRA=
200802151630 METAR LMML NIL=
200802151615 METAR LMML 151615Z 17006KT 140V200 9999 -SHRA SCT017 SCT023
                        BKN080 14/12 Q1 021 TEMPO 8000 RA=
200802151600 METAR LMML NIL=
200802151545 METAR LMML 151545Z 16007KT 130V190 9999 FEW017 BKN080 14/12
                        Q1021 NOSIG=
200802151530 METAR LMML NIL=
200802151515 METAR LMML 151515Z 17010KT 9999 -SHRA FEW020 BKN080 14/12
                        Q1021 NOSIG=
200802151500 METAR LMML NIL=
200802151445 METAR LMML 151445Z 18007KT 130V210 9999 SCT020 BKN080 15/12
                        Q1022 NOSIG=
200802151430 METAR LMML NIL=
200802151415 METAR LMML 151415Z 18010KT 140V210 9999 SCT020 SCT080 BKN090
                        15/11 Q1022 NO SIG=
200802151400 METAR LMML NIL=
200802151345 METAR LMML 151345Z 18010KT 150V210 9999 SCT017 BKN080 15/12
                        Q1022 NOSIG=
200802151315 METAR LMML 151315Z 17007KT 130V220 9999 FEW017 BKN090 15/12
                        Q1022 NOSIG=
200802151300 METAR LMML NIL=
200802151245 METAR LMML 151245Z 16008KT 120V210 9999 FEW021 BKN080 15/11
                        Q1023 NOSIG=
200802151230 METAR LMML NIL=
200802151215 METAR LMML 151215Z 17007KT 140V210 9999 FEW024 OVC080 14/09
                        Q1023 NOSIG=
200802151200 METAR LMML NIL=
200802151145 METAR LMML 151145Z 17006KT 140V210 9999 SCT020 SCT040 BKN090
                        14/10 Q1024 NO SIG=
200802151130 METAR LMML NIL=
200802151115 METAR LMML 151115Z 17007KT 130V210 9999 SCT017 SCT023 BKN090
                        14/11 Q1025 NO SIG=
200802151100 METAR LMML NIL=
200802151045 METAR LMML 151045Z 17008KT 120V210 9999 SCT013 SCT022 BKN090
                        14/12 Q1025 NO SIG=
200802151030 METAR LMML NIL=
200802151015 METAR LMML 151015Z 14007KT 110V170 9999 FEW020 SCT060 BKN090
                        14/12 Q1026 NO SIG=
200802151000 METAR LMML NIL=
200802150945 METAR LMML 150945Z 12008KT 9999 FEW020 BKN050 13/11 Q1026
                        NOSIG=
200802150930 METAR LMML NIL=
200802150915 METAR LMML 150915Z VRB01KT 7000 -RA FEW037 OVC050 13/11 Q1027
                        NOSIG=
200802150900 METAR LMML NIL=
200802150845 METAR LMML 150845Z VRB02KT 7000 -RA SCT037 OVC060 13/11 Q1027
                        NOSIG=
200802150830 METAR LMML NIL=
200802150815 METAR LMML 150815Z VRB03KT 7000 -RA SCT022 SCT042 OVC070
                        13/12 Q1027 NOSIG=
200802150800 METAR LMML NIL=
200802150745 METAR LMML 150745Z VRB02KT 6000 -RA FEW013 SCT021 OVC070
                        13/11 Q1027 NOSIG=
200802150730 METAR LMML NIL=
200802150715 METAR LMML 150715Z VRB01KT 7000 -RA SCT026 BKN070 13/09 Q1027
                        NOSIG=
200802150700 METAR LMML NIL=
200802150645 METAR LMML 150645Z VRB03KT 9000 -SHRA SCT029 OVC070 13/08
                        Q1027 BECMG 8000 RA=
200802150630 METAR LMML NIL=
200802150615 METAR LMML 150615Z VRB03KT 9999 FEW034 OVC070 13/08 Q1027
                        BECMG 8000 RA=
200802150545 METAR LMML 150545Z VRB03KT 9999 FEW025 BKN080 BKN110 13/08
                        Q1028 BECMG 8000 RA=
200802150515 METAR LMML 150515Z VRB03KT 9999 BKN038 13/07 Q1028 NOSIG=
200802150500 METAR LMML NIL=
200802150445 METAR LMML 150445Z VRB03KT 9999 FEW034 BKN090 13/07 Q1028
                        NOSIG=
200802150430 METAR LMML NIL=
200802150415 METAR LMML 150415Z VRB03KT 9999 FEW035 BKN110 12/07 Q1028
                        NOSIG=
200802150345 METAR LMML 150345Z 16004KT 140V200 9999 FEW035 BKN120 12/07
                        Q1028 NOSIG=
200802150330 METAR LMML NIL=
200802150315 METAR LMML 150315Z VRB03KT 9999 FEW038 BKN110 12/06 Q1028
                        NOSIG=
200802150300 METAR LMML NIL=
200802150245 METAR LMML 150245Z VRB02KT 9999 FEW038 BKN120 12/06 Q1028
                        NOSIG=
200802150230 METAR LMML NIL=
200802150215 METAR LMML 150215Z VRB03KT 9999 FEW038 BKN120 12/06 Q1028
                        NOSIG=
200802150200 METAR LMML NIL=
200802150145 METAR LMML 150145Z VRB03KT 9999 FEW038 BKN120 12/05 Q1028
                        NOSIG=
200802150130 METAR LMML NIL=
200802150115 METAR LMML 150115Z 17004KT 9999 FEW040 BKN120 12/05 Q1029
                        NOSIG=
200802150100 METAR LMML NIL=
200802150045 METAR LMML 150045Z 17004KT 9999 SCT041 BKN120 12/05 Q1029
                        NOSIG=
200802150030 METAR LMML NIL=
200802150015 METAR LMML 150015Z 18004KT 160V220 9999 SCT041 SCT120 12/06
                        Q1030 NOSIG=
200802150000 METAR LMML NIL=
200802142345 METAR LMML 142345Z 16004KT 9999 BKN042 12/05 Q1030 NOSIG=
200802142330 METAR LMML NIL=
200802142315 METAR LMML 142315Z VRB03KT 9999 SCT042 SCT120 12/05 Q1030
                        NOSIG=
200802142300 METAR LMML NIL=
200802142245 METAR LMML 142245Z 16004KT 9999 SCT043 SCT250 12/06 Q1030
                        NOSIG=
200802142230 METAR LMML NIL=
200802142215 METAR LMML 142215Z 16004KT 9999 BKN043 13/06 Q1030 NOSIG=
200802142200 METAR LMML NIL=
200802142145 METAR LMML 142145Z VRB03KT 9999 BKN042 13/06 Q1030 NOSIG=
200802142115 METAR LMML 142115Z VRB03KT 9999 BKN041 13/06 Q1031 NOSIG=
200802142100 METAR LMML NIL=
200802142045 METAR LMML 142045Z VRB03KT 9999 BKN042 13/07 Q1031 NOSIG=
200802142015 METAR LMML 142015Z 00000KT 9999 BKN039 12/07 Q1031 NOSIG=
200802142000 METAR LMML NIL=
200802141945 METAR LMML 141945Z VRB02KT 9999 FEW039 BKN045 13/07 Q1031
                        NOSIG=
200802141930 METAR LMML NIL=
200802141915 METAR LMML 141915Z VRB03KT 9999 FEW040 BKN046 13/07 Q1031
                        NOSIG=
200802141900 METAR LMML NIL=
200802141845 METAR LMML 141845Z VRB02KT 9999 FEW030 BKN048 13/07 Q1031
                        NOSIG=
200802141830 METAR LMML NIL=
200802141815 METAR LMML 141815Z VRB03KT 9999 FEW035 BKN046 13/07 Q1031
                        NOSIG=
200802141800 METAR LMML NIL=
200802141745 METAR LMML 141745Z VRB03KT 9999 SCT035 13/07 Q1031 NOSIG=
200802141730 METAR LMML NIL=
200802141715 METAR LMML 141715Z VRB02KT 9999 SCT034 13/07 Q1031 NOSIG=
200802141645 METAR LMML 141645Z VRB01KT 9999 SCT034 13/07 Q1031 NOSIG=
200802141630 METAR LMML NIL=
200802141615 METAR LMML 141615Z VRB02KT 9999 BKN049 14/07 Q1031 NOSIG=
200802141600 METAR LMML NIL=
200802141545 METAR LMML 141545Z VRB02KT 9999 FEW034 BKN049 14/06 Q1031
                        NOSIG=
200802141515 METAR LMML 141515Z VRB03KT 9999 FEW039 BKN046 14/07 Q1031
                        NOSIG=
200802141500 METAR LMML NIL=
200802141445 METAR LMML 141445Z VRB03KT 9999 FEW038 BKN044 14/07 Q1031
                        NOSIG=
200802141430 METAR LMML NIL=
200802141415 METAR LMML 141415Z VRB03KT 9999 FEW038 BKN046 14/06 Q1031
                        NOSIG=
200802141400 METAR LMML NIL=
200802141345 METAR LMML 141345Z VRB02KT 9999 BKN038 SCT046 14/06 Q1031
                        NOSIG=
200802141330 METAR LMML NIL=
200802141315 METAR LMML 141315Z 18005KT 150V250 9999 BKN039 SCT047 14/06
                        Q1031 NOSIG=
200802141300 METAR LMML NIL=
200802141245 METAR LMML 141245Z 19004KT 140V280 9999 BKN036 14/06 Q1031
                        NOSIG=
200802141230 METAR LMML NIL=
200802141215 METAR LMML 141215Z VRB03KT 9999 BKN040 14/07 Q1032 NOSIG=
200802141145 METAR LMML 141145Z 21004KT 170V260 9999 FEW037 14/06 Q1032
                        NOSIG=
200802141130 METAR LMML NIL=
200802141115 METAR LMML 141115Z 18005KT 140V270 9999 FEW036 15/06 Q1032
                        NOSIG=
200802141045 METAR LMML 141045Z VRB03KT 9999 FEW036 15/07 Q1032 NOSIG=
200802141030 METAR LMML NIL=
200802141015 METAR LMML 141015Z VRB02KT 9999 FEW037 15/07 Q1033 NOSIG=
200802141000 METAR LMML NIL=
200802140945 METAR LMML 140945Z VRB02KT 9999 FEW040 15/06 Q1033 NOSIG=
200802140930 METAR LMML NIL=
200802140915 METAR LMML 140915Z VRB02KT CAVOK 15/07 Q1033 NOSIG=
200802140900 METAR LMML NIL=
200802140845 METAR LMML 140845Z VRB03KT CAVOK 14/08 Q1033 NOSIG=
200802140830 METAR LMML NIL=
200802140815 METAR LMML 140815Z VRB01KT CAVOK 14/08 Q1032 NOSIG=
200802140800 METAR LMML NIL=
200802140745 METAR LMML 140745Z VRB01KT CAVOK 12/09 Q1032 NOSIG=
200802140730 METAR LMML NIL=
200802140715 METAR LMML 140715Z VRB01KT CAVOK 10/08 Q1032 NOSIG=
200802140700 METAR LMML NIL=
200802140645 METAR LMML 140645Z VRB01KT CAVOK 08/06 Q1032 NOSIG=
200802140630 METAR LMML NIL=
200802140615 METAR LMML 140615Z VRB01KT CAVOK 08/06 Q1032 NOSIG=
200802140600 METAR LMML NIL=
200802140545 METAR LMML 140545Z VRB01KT CAVOK 08/06 Q1032 NOSIG=
200802140530 METAR LMML NIL=
200802140515 METAR LMML 140515Z 00000KT 9999 FEW034 08/06 Q1032 NOSIG=
200802140500 METAR LMML NIL=
200802140445 METAR LMML 140445Z 00000KT 9999 FEW034 08/07 Q1032 NOSIG=
200802140430 METAR LMML NIL=
200802140415 METAR LMML 140415Z 00000KT 9999 FEW034 08/06 Q1032 NOSIG=
200802140400 METAR LMML NIL=
200802140345 METAR LMML 140345Z VRB01KT 9999 FEW034 08/06 Q1032 NOSIG=
200802140330 METAR LMML NIL=
200802140315 METAR LMML 140315Z VRB01KT 9999 FEW034 08/06 Q1031 NOSIG=
200802140300 METAR LMML NIL=
200802140245 METAR LMML 140245Z VRB01KT 9999 FEW034 08/06 Q1032 NOSIG=
200802140230 METAR LMML NIL=
200802140215 METAR LMML 140215Z VRB02KT 9999 FEW034 08/06 Q1032 NOSIG=
200802140200 METAR LMML NIL=
200802140145 METAR LMML 140145Z VRB01KT 9999 FEW034 08/06 Q1032 NOSIG=
200802140130 METAR LMML NIL=
200802140115 METAR LMML 140115Z VRB01KT 9999 FEW030 09/07 Q1032 NOSIG=
200802140100 METAR LMML NIL=
200802140045 METAR LMML 140045Z VRB01KT 9999 FEW030 08/07 Q1032 NOSIG=
200802140015 METAR LMML 140015Z 00000KT 9999 FEW035 09/07 Q1032 NOSIG=
200802140000 METAR LMML NIL=
200802132345 METAR LMML 132345Z VRB01KT 9999 FEW035 09/07 Q1032 NOSIG=
200802132330 METAR LMML NIL=
200802132315 METAR LMML 132315Z VRB02KT 9999 FEW035 09/06 Q1032 NOSIG=
200802132300 METAR LMML NIL=
200802132245 METAR LMML 132245Z VRB03KT 9999 FEW000 09/06 Q1032 NOSIG=
200802132230 METAR LMML NIL=
200802132215 METAR LMML 132215Z VRB02KT 9999 FEW031 10/07 Q1032 NOSIG=
200802132200 METAR LMML NIL=
200802132145 METAR LMML 132145Z VRB03KT 9999 FEW036 10/06 Q1032 NOSIG=
200802132130 METAR LMML NIL=
200802132115 METAR LMML 132115Z 08004KT 050V110 9999 FEW032 10/06 Q1032
                        NOSIG=
200802132100 METAR LMML NIL=
200802132045 METAR LMML 132045Z 07004KT 9999 FEW031 10/07 Q1032 NOSIG=
200802132030 METAR LMML NIL=
200802132015 METAR LMML 132015Z 07004KT 9999 SCT031 11/07 Q1031 NOSIG=
200802132000 METAR LMML NIL=
200802131945 METAR LMML 131945Z VRB03KT 9999 FEW025 10/07 Q1031 NOSIG=
200802131930 METAR LMML NIL=
200802131915 METAR LMML 131915Z VRB03KT 9999 FEW025 11/06 Q1031 NOSIG=
200802131900 METAR LMML NIL=
200802131845 METAR LMML 131845Z 06004KT 030V140 9999 FEW025 11/07 Q1031
                        NOSIG=
200802131830 METAR LMML NIL=
200802131815 METAR LMML 131815Z VRB03KT 9999 FEW025 11/07 Q1031 NOSIG=
200802131800 METAR LMML NIL=
200802131745 METAR LMML 131745Z VRB02KT 9999 FEW025 11/07 Q1030 NOSIG=
200802131730 METAR LMML NIL=
200802131715 METAR LMML 131715Z VRB02KT 9999 FEW030 11/07 Q1030 NOSIG=
200802131700 METAR LMML NIL=
200802131645 METAR LMML 131645Z 04004KT 9999 FEW030 12/06 Q1030 NOSIG=
200802131630 METAR LMML NIL=
200802131615 METAR LMML 131615Z 04005KT 9999 FEW031 13/06 Q1029 NOSIG=
200802131600 METAR LMML NIL=
200802131545 METAR LMML 131545Z 06006KT 010V100 9999 FEW031 SCT090 13/06
                        Q1029 NOSIG=
200802131530 METAR LMML NIL=
200802131515 METAR LMML 131515Z 04008KT 010V090 9999 FEW027 SCT090 14/07
                        Q1029 NOSIG=
200802131500 METAR LMML NIL=
200802131445 METAR LMML 131445Z 07009KT 030V100 9999 FEW026 SCT060 14/07
                        Q1029 NOSIG=
200802131430 METAR LMML NIL=
200802131415 METAR LMML 131415Z 05007KT 010V110 9999 FEW027 SCT060 13/07
                        Q1029 NOSIG=
200802131400 METAR LMML NIL=
200802131345 METAR LMML 131345Z 05009KT 020V090 9999 FEW027 13/08 Q1029
                        NOSIG=
200802131330 METAR LMML NIL=
200802131315 METAR LMML 131315Z 07009KT 020V110 9999 FEW026 13/08 Q1029
                        NOSIG=
200802131300 METAR LMML NIL=
200802131245 METAR LMML 131245Z 09005KT 010V150 9999 BKN021 12/09 Q1029
                        TEMPO 8000 SHRA BKN015TCU=
200802131230 METAR LMML NIL=
200802131215 METAR LMML 131215Z 09006KT 050V130 9999 -SHRA BKN022 13/08
                        Q1029 TEMPO 8000 SHRA BKN015TCU=
200802131200 METAR LMML NIL=
200802131145 METAR LMML 131145Z 10009KT 060V120 9999 FEW027TCU BKN031
                        12/09 Q1029 TEMPO 8000 SHRA BKN015TCU=
200802131115 METAR LMML 131115Z 08011KT 050V110 9999 FEW024TCU BKN026
                        13/08 Q1030 TEMPO 8000 SHRA BKN015TCU=
200802131045 METAR LMML 131045Z 07008KT 010V100 9999 BKN022 14/08 Q1030
                        NOSIG=
200802131015 METAR LMML 131015Z 05007KT 010V100 9999 SCT023 14/08 Q1030
                        NOSIG=
200802130945 METAR LMML 130945Z 05007KT 020V090 9999 SCT020 14/09 Q1030
                        NOSIG=
200802130915 METAR LMML 130915Z 07007KT 030V110 9999 FEW022 14/09 Q1030
                        NOSIG=
200802130900 METAR LMML NIL=
200802130845 METAR LMML 130845Z 06007KT 030V100 9999 FEW025 13/07 Q1030
                        NOSIG=
200802130815 METAR LMML 130815Z 04004KT 010V080 9999 FEW020 SCT050 14/07
                        Q1029 NOSIG=
200802130800 METAR LMML NIL=
200802130745 METAR LMML 130745Z 04004KT 010V070 9999 FEW020 SCT250 13/08
                        Q1029 NOSIG=
200802130730 METAR LMML NIL=
200802130715 METAR LMML 130715Z 04004KT 010V070 9999 FEW020 SCT250 12/07
                        Q1029 NOSIG=
200802130700 METAR LMML NIL=
200802130645 METAR LMML 130645Z VRB03KT 9999 FEW020 BKN250 11/08 Q1029
                        NOSIG=
200802130630 METAR LMML NIL=
200802130615 METAR LMML 130615Z 03004KT 010V070 9999 FEW020 SCT100 10/08
                        Q1029 NOSIG=
200802130600 METAR LMML NIL=
200802130545 METAR LMML 130545Z 05005KT 020V090 9999 FEW020 SCT090 10/08
                        Q1029 NOSIG=
200802130530 METAR LMML NIL=
200802130515 METAR LMML 130515Z 05005KT 020V080 9999 SCT020 10/08 Q1028
                        NOSIG=
200802130500 METAR LMML NIL=
200802130445 METAR LMML 130445Z 05004KT 020V080 9999 SCT024 10/08 Q1028
                        NOSIG=
200802130430 METAR LMML NIL=
200802130415 METAR LMML 130415Z VRB03KT 9999 BKN021 10/08 Q1028 NOSIG=
200802130400 METAR LMML NIL=
200802130345 METAR LMML 130345Z VRB03KT 9999 SCT019 09/08 Q1028 NOSIG=
200802130330 METAR LMML NIL=
200802130315 METAR LMML 130315Z VRB03KT 9999 FEW025 SCT090 09/08 Q1028
                        NOSIG=
200802130300 METAR LMML NIL=
200802130245 METAR LMML 130245Z VRB03KT 9999 FEW025 SCT090 09/08 Q1028
                        NOSIG=
200802130215 METAR LMML 130215Z VRB03KT 9999 FEW025 SCT090 09/08 Q1027
                        NOSIG=
200802130200 METAR LMML NIL=
200802130145 METAR LMML 130145Z 30004KT 9999 FEW025 SCT090 09/07 Q1028
                        NOSIG RMK LIGHTNI NG TO NE=
200802130130 METAR LMML NIL=
200802130115 METAR LMML 130115Z VRB03KT 9999 FEW025 SCT090 08/07 Q1027
                        NOSIG=
200802130045 METAR LMML 130045Z VRB02KT 9999 FEW025 SCT080 08/07 Q1027
                        NOSIG=
200802130015 METAR LMML 130015Z VRB02KT 9999 FEW025 SCT080 08/07 Q1027
                        NOSIG=
200802130000 METAR LMML NIL=
200802122345 METAR LMML 122345Z VRB01KT 9999 FEW025 SCT080 08/07 Q1028
                        NOSIG=
200802122315 METAR LMML 122315Z VRB01KT 9999 FEW023 SCT070 09/07 Q1027
                        NOSIG=
200802122300 METAR LMML NIL=
200802122245 METAR LMML 122245Z VRB02KT 9999 FEW023 SCT060 09/07 Q1027
                        NOSIG=
200802122230 METAR LMML NIL=
200802122215 METAR LMML 122215Z VRB01KT 9999 FEW023 SCT080 09/07 Q1027
                        NOSIG=
200802122200 METAR LMML NIL=
200802122145 METAR LMML 122145Z VRB01KT 9999 FEW015 SCT060 09/07 Q1027
                        NOSIG RMK LIGHTNI NG TO NE=
200802122130 METAR LMML NIL=
200802122115 METAR LMML 122115Z VRB02KT 9999 FEW020 SCT070 08/07 Q1027
                        NOSIG RMK LIGHTNI NG TO NE=
200802122100 METAR LMML NIL=
200802122045 METAR LMML 122045Z 00000KT 9999 FEW020 SCT070 09/07 Q1027
                        NOSIG=
200802122030 METAR LMML NIL=
200802122015 METAR LMML 122015Z VRB02KT 9999 FEW020 09/07 Q1027 NOSIG=
200802122000 METAR LMML NIL=
200802121945 METAR LMML 121945Z VRB02KT 9999 FEW020 09/07 Q1027 NOSIG=
200802121915 METAR LMML 121915Z VRB02KT 9999 FEW020 09/07 Q1027 NOSIG=
200802121900 METAR LMML NIL=
200802121845 METAR LMML 121845Z VRB01KT 9999 FEW020 09/07 Q1027 NOSIG=
200802121830 METAR LMML NIL=
200802121815 METAR LMML 121815Z VRB01KT 9999 FEW017 10/07 Q1027 NOSIG=
200802121800 METAR LMML NIL=
200802121745 METAR LMML 121745Z VRB01KT 9999 FEW017 10/08 Q1027 NOSIG=
200802121730 METAR LMML NIL=
200802121715 METAR LMML 121715Z VRB03KT 9999 FEW017 10/08 Q1027 NOSIG=
200802121700 METAR LMML NIL=
200802121645 METAR LMML 121645Z 02004KT 9999 FEW017 11/08 Q1027 NOSIG=
200802121630 METAR LMML NIL=
200802121615 METAR LMML 121615Z 04006KT 9999 FEW017 SCT036 11/08 Q1026
                        NOSIG=
200802121600 METAR LMML NIL=
200802121545 METAR LMML 121545Z 05007KT 020V080 9999 FEW017 SCT037 12/08
                        Q1026 NOSIG=
200802121530 METAR LMML NIL=
200802121515 METAR LMML 121515Z 36005KT 340V040 9999 FEW029 13/08 Q1026
                        NOSIG=
200802121500 METAR LMML NIL=
200802121445 METAR LMML 121445Z VRB03KT 9999 FEW022 14/07 Q1026 NOSIG=
200802121430 METAR LMML NIL=
200802121415 METAR LMML 121415Z 03004KT 360V070 9999 FEW022 14/07 Q1026
                        NOSIG=
200802121400 METAR LMML NIL=
200802121345 METAR LMML 121345Z VRB03KT 9999 FEW033 SCT050 14/07 Q1026
                        NOSIG=
200802121330 METAR LMML NIL=
200802121315 METAR LMML 121315Z VRB03KT 9999 FEW027 SCT060 13/07 Q1026
                        NOSIG=
200802121300 METAR LMML NIL=
200802121245 METAR LMML 121245Z 03006KT 350V060 9999 SCT030 14/08 Q1026
                        TEMPO 8000 SHRA BKN020=
200802121230 METAR LMML NIL=
200802121215 METAR LMML 121215Z 01006KT 340V050 9999 SCT027 14/08 Q1026
                        TEMPO 8000 SHRA BKN020=
200802121200 METAR LMML NIL=
200802121145 METAR LMML 121145Z 35005KT 330V030 9999 SCT027 SCT090 14/09
                        Q1027 TEMPO 800 0 SHRA BKN020=
200802121130 METAR LMML NIL=
200802121115 METAR LMML 121115Z VRB03KT 9999 SCT027 BKN090 12/08 Q1027
                        TEMPO 8000 SHRA B KN020=
200802121100 METAR LMML NIL=
200802121045 METAR LMML 121045Z 28005KT 240V300 9999 SCT027 BKN090 11/08
                        Q1027 TEMPO 800 0 SHRA BKN020=
200802121030 METAR LMML NIL=
200802121015 METAR LMML 121015Z 28007KT 9999 BKN036TCU 11/08 Q1027 TEMPO
                        5000 TSGR BKN01 8CB=
200802121000 METAR LMML NIL=
200802120945 METAR LMML 120945Z 32008KT 9999 BKN027TCU 10/08 Q1027 TEMPO
                        5000 TSGR BKN01 8CB=
200802120930 METAR LMML NIL=
200802120915 METAR LMML 120915Z 30009KT 9999 BKN025TCU 10/09 Q1027 TEMPO
                        5000 TSGR BKN01 8CB=
200802120900 METAR LMML NIL=
200802120845 METAR LMML 120845Z VRB03KT 9999 SCT028TCU 13/08 Q1027 TEMPO
                        5000 TSGR BKN01 8CB=
200802120830 METAR LMML NIL=
200802120815 METAR LMML 120815Z VRB01KT 9999 SCT026 13/09 Q1027 TEMPO
                        5000 TSGR BKN018CB=
200802120800 METAR LMML NIL=
200802120745 METAR LMML 120745Z VRB02KT 9999 SCT026TCU SCT060 11/09 Q1026
                        TEMPO 5000 TSG R BKN018CB=
200802120730 METAR LMML NIL=
200802120715 METAR LMML 120715Z VRB01KT 9999 FEW026 SCT060 11/10 Q1026
                        TEMPO 5000 TSGR B KN018CB=
200802120700 METAR LMML NIL=
200802120645 METAR LMML 120645Z VRB02KT 9999 SCT026TCU SCT048 10/09 Q1026
                        TEMPO 5000 TSG R BKN018CB=
200802120630 METAR LMML NIL=
200802120615 METAR LMML 120615Z 27006KT 9000 SCT027 SCT047 09/08 Q1026
                        TEMPO 5000 TSGR B KN018CB=
200802120600 METAR LMML NIL=
200802120545 METAR LMML 120545Z VRB02KT 9999 FEW024 SCT040 09/08 Q1026
                        RETS TEMPO 8000 S HRA BKN025=
200802120530 METAR LMML NIL=
200802120515 METAR LMML 120515Z VRB03KT 9999 -RA SCT025 BKN050 09/08 Q1026
                        TEMPO 8000 SH RA BKN025=
200802120500 METAR LMML NIL=
200802120445 METAR LMML 120445Z 03004KT 340V080 9999 -TSRA FEW015CB SCT022
                        09/07 Q1026 T EMPO 8000 SHRA BKN025=
200802120419 LMML 120419Z VRB03KT 9999 -TSRA SCT015CB 08/06 Q1025 TEMPO
                        8000 SHRA BKN025=
200802120415 METAR LMML 120415Z 29004KT 250V330 9999 -RA FEW025 BKN050
                        09/07 Q1025 TEMPO 8000 SHRA BKN025=
200802120345 METAR LMML 120345Z 29004KT 9999 FEW025 09/07 Q1025 TEMPO
                        8000 SHRA BKN025=
200802120330 METAR LMML NIL=
200802120315 METAR LMML 120315Z VRB03KT 9999 FEW025 08/07 Q1025 TEMPO
                        8000 SHRA BKN025=
200802120300 METAR LMML NIL=
200802120245 METAR LMML 120245Z VRB03KT 9999 FEW022 07/06 Q1025 TEMPO
                        8000 SHRA BKN025=
200802120230 METAR LMML NIL=
200802120215 METAR LMML 120215Z VRB03KT 9999 FEW020 07/06 Q1025 TEMPO
                        8000 SHRA BKN025=
200802120200 METAR LMML NIL=
200802120145 METAR LMML 120145Z VRB01KT 9999 FEW020 08/07 Q1025 TEMPO
                        8000 SHRA BKN025=
200802120130 METAR LMML NIL=
200802120115 METAR LMML 120115Z VRB01KT 9999 FEW020 08/07 Q1025 TEMPO
                        8000 SHRA BKN025=
200802120100 METAR LMML NIL=
200802120045 METAR LMML 120045Z VRB02KT 9999 FEW020 09/07 Q1026 TEMPO
                        8000 SHRA BKN025=
200802120030 METAR LMML NIL=
200802120015 METAR LMML 120015Z 08004KT 9999 FEW020 09/06 Q1026 TEMPO
                        8000 SHRA BKN025=
200802120000 METAR LMML NIL=
200802112345 METAR LMML 112345Z VRB02KT 9999 FEW020 SCT040 09/07 Q1026
                        TEMPO 8000 SHRA B KN025=
200802112315 METAR LMML 112315Z 07004KT 040V100 9999 FEW020 SCT040 10/07
                        Q1026 TEMPO 800 0 SHRA BKN025=
200802112300 METAR LMML NIL=
200802112245 METAR LMML 112245Z 04005KT 010V080 9999 FEW020 SCT040 10/07
                        Q1026 TEMPO 800 0 SHRA BKN025=
200802112230 METAR LMML NIL=
200802112215 METAR LMML 112215Z 01005KT 9999 FEW020 SCT038 10/08 Q1026
                        TEMPO 8000 SHRA B KN025 RMK LIGHTNING
                        TO NORTHEAST=
200802112200 METAR LMML NIL=
200802112145 METAR LMML 112145Z 01007KT 9999 SCT021 SCT034 10/08 Q1026
                        TEMPO 8000 SHRA B KN025=
200802112130 METAR LMML NIL=
200802112115 METAR LMML 112115Z VRB03KT 9999 SCT016 SCT032 10/09 Q1026
                        TEMPO 8000 SHRA B KN025=
200802112100 METAR LMML NIL=
200802112045 METAR LMML 112045Z 31005KT 9999 FEW030 SCT050 10/08 Q1026
                        TEMPO 8000 SHRA B KN025=
200802112030 METAR LMML NIL=
200802112015 METAR LMML 112015Z 32006KT 280V350 9999 SCT031 SCT050 09/08
                        Q1026 TEMPO 800 0 SHRA BKN025=
200802112000 METAR LMML NIL=
200802111945 METAR LMML 111945Z 31004KT 290V350 9999 FEW028 SCT050 09/07
                        Q1025 NOSIG=
200802111930 METAR LMML NIL=
200802111915 METAR LMML 111915Z 31004KT 9999 FEW025 09/07 Q1025 NOSIG=
200802111900 METAR LMML NIL=
200802111845 METAR LMML 111845Z VRB03KT 9999 FEW025 09/07 Q1025 NOSIG=
200802111830 METAR LMML NIL=
200802111815 METAR LMML 111815Z VRB03KT 9999 FEW025 10/07 Q1025 NOSIG=
200802111800 METAR LMML NIL=
200802111745 METAR LMML 111745Z VRB03KT 9999 FEW025 10/07 Q1025 NOSIG=
200802111730 METAR LMML NIL=
200802111715 METAR LMML 111715Z VRB03KT 9999 FEW025 10/08 Q1025 NOSIG=
200802111700 METAR LMML NIL=
200802111645 METAR LMML 111645Z VRB02KT 9999 FEW025 11/08 Q1025 NOSIG=
200802111630 METAR LMML NIL=
200802111615 METAR LMML 111615Z VRB02KT 9999 FEW025 SCT090 12/08 Q1025
                        NOSIG=
200802111600 METAR LMML NIL=
200802111545 METAR LMML 111545Z VRB03KT 9999 FEW025 BKN070 13/08 Q1024
                        NOSIG=
200802111515 METAR LMML 111515Z VRB02KT 9999 FEW025 BKN070 13/08 Q1024
                        NOSIG=
200802111445 METAR LMML 111445Z VRB03KT 9999 FEW025 BKN070 12/08 Q1024
                        NOSIG=
200802111415 METAR LMML 111415Z VRB02KT 9999 FEW025 BKN070 13/09 Q1024
                        TEMPO 8000 SHRA=
200802111345 METAR LMML 111345Z VRB03KT 9999 FEW025 BKN070 11/08 Q1024
                        TEMPO 8000 SHRA=
200802111330 METAR LMML NIL=
200802111315 METAR LMML 111315Z VRB02KT 9999 -RA FEW025 SCT060 BKN070
                        10/08 Q1024 TEMPO 8000 SHRA=
200802111300 LMML NIL=
200802111245 LMML 111245Z VRB01KT 9999 -RA SCT025 BKN050 10/08 Q1025 TEMPO
                        8000 SH RA=
200802111230 LMML NIL=
200802111215 METAR LMML 111215Z VRB01KT 9999 -RA SCT025 BKN036 09/09 Q1025
                        TEMPO 8000 SH RA=
200802111200 METAR LMML NIL=
200802111145 METAR LMML 111145Z VRB01KT 4000 RA SCT015 OVC023 09/09 Q1025
                        TEMPO 8000 SHR A=
200802111130 METAR LMML NIL=
200802111115 METAR LMML 111115Z 35005KT 4000 RA FEW080 SCT015 OVC023 09/09
                        Q1025 TEMPO 8 000 SHRA=
200802111100 METAR LMML NIL=
200802111045 METAR LMML 111045Z 36007KT 4000 RA FEW008 SCT011 OVC023 09/09
                        Q1026 TEMPO 8 000 SHRA=
200802111030 METAR LMML NIL=
200802111015 METAR LMML 111015Z 01005KT 4000 -SHRA BKN021 BKN070 10/08
                        Q1025 RETS TEMPO 8000 SHRA=
200802110945 METAR LMML 110945Z 35006KT 320V030 6000 -SHRA SCT024CB BKN090
                        10/09 Q1025 R ETS TEMPO 5000 TSGR
                        BKN015CB=
200802110930 METAR LMML NIL=
200802110915 METAR LMML 110915Z VRB03KT 6000 -TS SCT019CB BKN090 10/09
                        Q1025 TEMPO 5000 TSGR BKN015CB=
200802110900 METAR LMML NIL=
200802110845 METAR LMML 110845Z VRB03KT 8000 -TSRA SCT013CB 10/09 Q1025
                        TEMPO 5000 TSGR BKN015CB=
200802110830 METAR LMML NIL=
200802110815 METAR LMML 110815Z 06005KT 020V100 9999 -TSRA SCT020CB SCT032
                        BKN090 10/08 Q1025 TEMPO 5000 TSGR
                        BKN015CB=
200802110800 METAR LMML NIL=
200802110745 METAR LMML 110745Z 01005KT 280V090 9999 -TSRA FEW021CB SCT030
                        BKN090 10/08 Q1024 TEMPO 5000 TSGR
                        BKN015CB=
200802110730 METAR LMML NIL=
200802110727 LMML 110727Z VRB03KT 9999 -TS FEW030CB SCT060 BKN090 10/09
                        Q1024 TEMP O 5000 TSGR BKN015CB=
200802110715 METAR LMML 110715Z VRB03KT 9999 -TSRA SCT034 SCT060 10/09
                        Q1024 TEMPO 5000 TSGR BKN015CB=
200802110700 METAR LMML NIL=
200802110645 METAR LMML 110645Z 28005KT 9999 -TSRA FEW020CB SCT045 BKN060
                        10/08 Q1024 TE MPO 5000 TSGR BKN015CB=
200802110630 METAR LMML NIL=
200802110615 METAR LMML 110615Z 29004KT 9999 -TS FEW015CB SCT050 09/07
                        Q1024 TEMPO 5000 TSGR BKN015CB=
200802110600 METAR LMML NIL=
200802110545 METAR LMML 110545Z VRB02KT 9999 TS SCT015CB 09/07 Q1024 TEMPO
                        5000 TSGR BKN 015CB=
200802110530 METAR LMML NIL=
200802110515 METAR LMML 110515Z VRB03KT 9999 TS FEW015CB 08/06 Q1024 TEMPO
                        5000 TSGR BKN 015CB=
200802110500 METAR LMML NIL=
200802110445 METAR LMML 110445Z 08004KT 9999 TS FEW015CB 08/07 Q1024 TEMPO
                        5000 TSGR BKN 015CB=
200802110415 LMML 110415Z 09004KT 9999 FEW015CB 09/07 Q1024 TEMPO 5000
                        TSGR BKN015 CB RMK LIGHTNING TO WNW=
200802110400 METAR LMML NIL=
200802110345 METAR LMML 110345Z VRB03KT 9999 FEW015CB 09/07 Q1024 TEMPO
                        7000 SHRA BKN015 TCU RMK LIGHTNING
                        TO NNW AND NE=
200802110330 METAR LMML NIL=
200802110315 METAR LMML 110315Z VRB02KT 9999 SCT025 09/07 Q1024 TEMPO
                        7000 SHRA BKN015 R MK LIGHTNING TO
                        NNW=
200802110245 METAR LMML 110245Z VRB01KT 9999 FEW025 09/07 Q1024 NOSIG=
200802110230 METAR LMML NIL=
200802110215 METAR LMML 110215Z VRB03KT 9999 FEW030 09/07 Q1024 NOSIG=
200802110200 METAR LMML NIL=
200802110145 METAR LMML 110145Z VRB03KT 9999 FEW040 09/07 Q1024 NOSIG=
200802110115 METAR LMML 110115Z VRB01KT 9999 FEW040 SCT090 09/07 Q1024
                        NOSIG=
200802110100 METAR LMML NIL=
200802110045 METAR LMML 110045Z VRB01KT 9999 FEW040 SCT090 09/07 Q1024
                        NOSIG=
200802110030 METAR LMML NIL=
200802110015 METAR LMML 110015Z VRB02KT 9999 FEW040 BKN090 10/08 Q1025
                        NOSIG=
200802110000 METAR LMML NIL=
200802102345 METAR LMML 102345Z VRB03KT 9999 FEW040 BKN090 10/08 Q1025
                        TEMPO 6000 SHRA B KN015TCU=
200802102330 METAR LMML NIL=
200802102315 METAR LMML 102315Z VRB01KT 9999 FEW040 SCT090 09/07 Q1025
                        TEMPO 6000 SHRA B KN015TCU=
200802102300 METAR LMML NIL=
200802102245 METAR LMML 102245Z VRB02KT 9999 FEW042 SCT090 10/07 Q1025
                        TEMPO 6000 SHRA B KN015TCU=
200802102230 METAR LMML NIL=
200802102215 METAR LMML 102215Z VRB03KT 9999 FEW041 SCT080 10/07 Q1025
                        TEMPO 6000 SHRA B KN015TCU=
200802102200 METAR LMML NIL=
200802102145 METAR LMML 102145Z VRB03KT 9999 FEW041 SCT080 09/06 Q1025
                        TEMPO 5000 TSRA B KN015CB=
200802102130 METAR LMML NIL=
200802102115 METAR LMML 102115Z VRB01KT 9999 FEW040 SCT080 09/07 Q1025
                        TEMPO 5000 TSRA B KN015CB=
200802102100 METAR LMML NIL=
200802102045 METAR LMML 102045Z VRB01KT 9999 FEW043 BKN080 10/07 Q1025
                        TEMPO 5000 TSRA B KN015CB=
200802102030 METAR LMML NIL=
200802102015 METAR LMML 102015Z VRB03KT 9999 FEW043 BKN080 10/06 Q1025
                        NOSIG=
200802101945 METAR LMML 101945Z VRB03KT 9999 FEW043 SCT080 10/06 Q1025
                        NOSIG=
200802101930 METAR LMML NIL=
200802101915 METAR LMML 101915Z VRB02KT 9999 FEW042 10/06 Q1025 NOSIG=
200802101900 METAR LMML NIL=
200802101845 METAR LMML 101845Z 27004KT 9999 FEW041 SCT070 10/06 Q1025
                        NOSIG=
200802101815 METAR LMML 101815Z VRB02KT 9999 FEW035 SCT060 10/07 Q1025
                        NOSIG=
200802101745 METAR LMML 101745Z VRB01KT 9999 FEW030 11/06 Q1025 NOSIG=
200802101730 METAR LMML NIL=
200802101715 METAR LMML 101715Z VRB02KT 9999 FEW030 11/06 Q1024 NOSIG=
200802101700 METAR LMML NIL=
200802101645 METAR LMML 101645Z VRB03KT 9999 FEW030 11/05 Q1024 NOSIG=
200802101630 METAR LMML NIL=
200802101615 METAR LMML 101615Z VRB02KT 9999 FEW035 13/06 Q1024 NOSIG=
200802101600 METAR LMML NIL=
200802101545 METAR LMML 101545Z 36005KT 320V020 9999 FEW036 14/06 Q1024
                        NOSIG=
200802101530 LMML NIL=
200802101515 METAR LMML 101515Z 34005KT 290V020 9999 FEW035 14/05 Q1024
                        NOSIG=
200802101500 METAR LMML NIL=
200802101445 METAR LMML 101445Z 01004KT 9999 FEW036 14/06 Q1024 NOSIG=
200802101430 METAR LMML NIL=
200802101415 METAR LMML 101415Z 35005KT 9999 SCT035 13/07 Q1024 NOSIG=
200802101400 METAR LMML NIL=
200802101345 METAR LMML 101345Z 01005KT 330V050 9999 SCT034 13/06 Q1024
                        NOSIG=
200802101330 METAR LMML NIL=
200802101315 METAR LMML 101315Z 01005KT 330V060 9999 SCT032 14/07 Q1024
                        NOSIG=
200802101300 METAR LMML NIL=
200802101245 METAR LMML 101245Z 36005KT 340V040 9999 SCT032 BKN070 13/07
                        Q1024 NOSIG=
200802101230 METAR LMML NIL=
200802101215 METAR LMML 101215Z 01004KT 320V050 9999 SCT032 BKN070 13/07
                        Q1024 NOSIG=
200802101200 METAR LMML NIL=
200802101145 METAR LMML 101145Z 35005KT 320V050 9999 -SHRA SCT033 BKN070
                        13/08 Q1024 NOS IG=
200802101130 METAR LMML NIL=
200802101115 METAR LMML 101115Z 02004KT 360V060 9999 SCT036 BKN070 14/07
                        Q1024 NOSIG=
200802101100 METAR LMML NIL=
200802101045 METAR LMML 101045Z 35006KT 310V020 9999 SCT034 BKN070 13/07
                        Q1024 NOSIG=
200802101015 METAR LMML 101015Z 36005KT 330V030 9999 SCT034 BKN070 14/07
                        Q1025 NOSIG=
200802101000 METAR LMML NIL=
200802100945 METAR LMML 100945Z 36005KT 330V040 9999 SCT035 BKN070 13/07
                        Q1025 TEMPO 800 0 SHRA=
200802100930 METAR LMML NIL=
200802100915 METAR LMML 100915Z 24004KT 200V290 9999 FEW034 SCT042 BKN080
                        12/09 Q1025 TE MPO 8000 SHRA=
200802100900 METAR LMML NIL=
200802100845 METAR LMML 100845Z VRB03KT 9999 FEW033 SCT050 BKN070 12/09
                        Q1024 TEMPO 8000 SHRA=
200802100830 METAR LMML NIL=
200802100815 METAR LMML 100815Z VRB02KT 9999 FEW034 SCT040 BKN070 11/09
                        Q1024 TEMPO 8000 SHRA=
200802100800 METAR LMML NIL=
200802100745 METAR LMML 100745Z VRB02KT 9999 SCT033 SCT040 BKN070 11/09
                        Q1024 NOSIG=
200802100730 METAR LMML NIL=
200802100700 METAR LMML NIL=
200802100645 METAR LMML 100645Z VRB02KT 9999 SCT026 BKN060 10/08 Q1024
                        RERA TEMPO 8000 S HRA=
200802100630 METAR LMML NIL=
200802100615 METAR LMML 100615Z VRB02KT 9999 -RA SCT026 BKN038 10/08 Q1024
                        TEMPO 8000 SH RA=
200802100600 METAR LMML NIL=
200802100545 METAR LMML 100545Z VRB03KT 9000 SCT034 BKN080 11/08 Q1023
                        TEMPO 8000 SHRA=
200802100530 METAR LMML NIL=
200802100515 METAR LMML 100515Z VRB01KT 9999 FEW036 BKN080 11/07 Q1023
                        NOSIG=
200802100500 METAR LMML NIL=
200802100445 METAR LMML 100445Z VRB03KT 9999 SCT035 BKN080 12/07 Q1023
                        NOSIG=
200802100430 METAR LMML NIL=
200802100415 METAR LMML 100415Z 03004KT 010V070 9999 FEW031 BKN080 12/07
                        Q1023 NOSIG=
200802100400 METAR LMML NIL=
200802100345 METAR LMML 100345Z 05005KT 010V080 9999 FEW030 BKN070 12/07
                        Q1023 NOSIG=
200802100330 METAR LMML NIL=
200802100315 METAR LMML 100315Z 02004KT 340V060 9999 FEW030 BKN070 12/07
                        Q1023 TEMPO 700 0 SHRA=
200802100300 LMML NIL=
200802100245 LMML 100245Z 03005KT 9999 FEW030 BKN070 12/06 Q1023 TEMPO
                        7000 SHRA=
200802100230 METAR LMML NIL=
200802100215 METAR LMML 100215Z 04005KT 010V070 9999 SCT037 BKN070 12/07
                        Q1023 TEMPO 700 0 SHRA=
200802100200 METAR LMML NIL=
200802100145 METAR LMML 100145Z 03006KT 360V060 9999 SCT037 BKN060 12/07
                        Q1023 TEMPO 700 0 SHRA=
200802100130 METAR LMML NIL=
200802100115 METAR LMML 100115Z VRB03KT 9999 SCT030 BKN060 11/08 Q1023
                        TEMPO 7000 SHRA=
200802100100 METAR LMML NIL=
200802100045 METAR LMML 100045Z VRB03KT 9999 SCT034 BKN046 11/08 Q1023
                        RERA TEMPO 7000 S HRA=
200802100030 METAR LMML NIL=
200802100015 METAR LMML 100015Z 35006KT 320V020 9000 RA SCT032 BKN049
                        10/08 Q1024 TEMPO 7000 SHRA=
200802092345 METAR LMML 092345Z 29004KT 9000 RA SCT031 BKN042 10/09 Q1024
                        TEMPO 7000 SHR A=
200802092330 METAR LMML NIL=
200802092315 METAR LMML 092315Z 33006KT 9000 RA SCT032 BKN041 10/09 Q1024
                        TEMPO 7000 SHR A=
200802092300 METAR LMML NIL=
200802092245 METAR LMML 092245Z 36008KT 9000 RA SCT020 BKN040 10/10 Q1024
                        TEMPO 7000 SHR A=
200802092230 METAR LMML NIL=
200802092215 METAR LMML 092215Z 30005KT 9999 -RA SCT029 BKN050 10/10 Q1024
                        TEMPO 7000 SH RA=
200802092145 METAR LMML 092145Z 31006KT 9999 -RA SCT016 BKN039 10/10 Q1024
                        TEMPO 7000 SH RA=
200802092130 METAR LMML NIL=
200802092115 METAR LMML 092115Z 27006KT 240V300 9999 -RA SCT021 BKN037
                        10/09 Q1024 TEMPO 7000 SHRA=
200802092100 METAR LMML NIL=
200802092045 METAR LMML 092045Z 28008KT 9000 -RA SCT021 BKN036 11/10 Q1024
                        TEMPO 7000 SH RA=
200802092030 METAR LMML NIL=
200802092015 METAR LMML 092015Z 31008KT 9999 -RA FEW015 SCT024 BKN050
                        11/09 Q1024 TEMPO 7000 SHRA=
200802092000 METAR LMML NIL=
200802091945 METAR LMML 091945Z 04005KT 010V090 9999 SCT037 BKN050 13/05
                        Q1024 TEMPO 700 0 SHRA=
200802091930 METAR LMML NIL=
200802091915 METAR LMML 091915Z 04006KT 360V080 9999 BKN039 BKN070 13/06
                        Q1023 TEMPO 700 0 SHRA=
200802091900 METAR LMML NIL=
200802091845 METAR LMML 091845Z 05005KT 010V080 9999 FEW038 SCT070 BKN250
                        13/06 Q1023 TE MPO 7000 SHRA=
200802091815 METAR LMML 091815Z 04006KT 020V090 9999 FEW035 SCT070 BKN250
                        13/06 Q1023 TE MPO 7000 SHRA=
200802091800 METAR LMML NIL=
200802091745 METAR LMML 091745Z 05005KT 010V080 9999 FEW037 SCT070 BKN250
                        13/06 Q1023 TE MPO 7000 SHRA=
200802091730 METAR LMML NIL=
200802091715 METAR LMML 091715Z 04007KT 360V080 9999 FEW035 SCT050 BKN250
                        13/06 Q1023 TE MPO 7000 SHRA=
200802091700 METAR LMML NIL=
200802091645 METAR LMML 091645Z 04008KT 010V080 9999 FEW035 SCT060 BKN250
                        13/06 Q1023 NO SIG=
200802091630 METAR LMML NIL=
200802091615 METAR LMML 091615Z 04008KT 010V080 9999 FEW035 SCT070 BKN250
                        13/06 Q1023 NO SIG=
200802091600 METAR LMML NIL=
200802091545 METAR LMML 091545Z 04010KT 010V070 9999 FEW035 BKN250 14/05
                        Q1023 NOSIG=
200802091530 METAR LMML NIL=
200802091515 METAR LMML 091515Z 03009KT 360V060 9999 FEW035 BKN250 14/05
                        Q1022 NOSIG=
200802091500 METAR LMML NIL=
200802091445 METAR LMML 091445Z 03011KT 350V070 9999 FEW035 BKN250 14/05
                        Q1022 NOSIG=
200802091430 METAR LMML NIL=
200802091415 METAR LMML 091415Z 03012KT 360V070 9999 FEW033 BKN250 15/04
                        Q1022 NOSIG=
200802091345 METAR LMML 091345Z 03013KT 360V070 9999 FEW034 BKN250 15/06
                        Q1022 NOSIG=
200802091330 METAR LMML NIL=
200802091315 METAR LMML 091315Z 03013KT 360V060 9999 FEW033 BKN250 15/06
                        Q1022 NOSIG=
200802091245 METAR LMML 091245Z 03016KT 360V060 9999 FEW033 BKN250 15/06
                        Q1022 NOSIG=
200802091230 METAR LMML NIL=
200802091215 METAR LMML 091215Z 02014KT 350V060 9999 FEW034 BKN250 15/06
                        Q1022 NOSIG=
200802091200 METAR LMML NIL=
200802091145 METAR LMML 091145Z 03014G24KT 360V070 9999 FEW035 BKN250
                        15/06 Q1022 NOSIG=
200802091130 METAR LMML NIL=
200802091115 METAR LMML 091115Z 03015G25KT 360V060 9999 SCT030 BKN250
                        14/06 Q1022 NOSIG=
200802091100 METAR LMML NIL=
200802091045 METAR LMML 091045Z 03015KT 360V070 9999 SCT030 BKN250 15/07
                        Q1022 NOSIG=
200802091030 METAR LMML NIL=
200802091015 METAR LMML 091015Z 03013KT 360V070 9999 SCT029 BKN250 14/07
                        Q1022 NOSIG=
200802091000 METAR LMML NIL=
200802090945 METAR LMML 090945Z 02014G25KT 340V050 9999 SCT029 BKN250
                        14/07 Q1022 NOSIG=
200802090915 METAR LMML 090915Z 03014G24KT 360V070 9999 SCT029 BKN250
                        15/07 Q1022 NOSIG=
200802090900 METAR LMML NIL=
200802090845 METAR LMML 090845Z 02016KT 350V060 9999 SCT032 BKN250 14/07
                        Q1022 NOSIG=
200802090815 METAR LMML 090815Z 03015KT 9999 SCT032 BKN250 14/07 Q1022
                        NOSIG=
200802090800 METAR LMML NIL=
200802090745 METAR LMML 090745Z 03017KT 360V060 9999 SCT029 BKN250 14/07
                        Q1021 NOSIG=
200802090730 METAR LMML NIL=
200802090715 METAR LMML 090715Z 02012G22KT 350V050 9999 BKN031 BKN250
                        13/07 Q1021 NOSIG=
200802090700 METAR LMML NIL=
200802090645 METAR LMML 090645Z 02013KT 350V060 9999 SCT034 BKN250 13/06
                        Q1021 NOSIG=
200802090630 METAR LMML NIL=
200802090615 METAR LMML 090615Z 02014G24KT 350V060 9999 SCT037 BKN250
                        13/06 Q1021 NOSIG=
200802090600 METAR LMML NIL=
200802090545 METAR LMML 090545Z 02016G27KT 360V060 9999 BKN038 13/06 Q1021
                        NOSIG=
200802090530 METAR LMML NIL=
200802090515 METAR LMML 090515Z 01013G23KT 350V050 9999 BKN038 SCT120
                        13/06 Q1020 NOSIG=
200802090500 METAR LMML NIL=
200802090445 METAR LMML 090445Z 02015G28KT 350V050 9999 BKN040 SCT120
                        13/06 Q1020 NOSIG=
200802090430 METAR LMML NIL=
200802090415 METAR LMML 090415Z 03018G28KT 9999 SCT039 BKN120 13/05 Q1019
                        NOSIG=
200802090400 METAR LMML NIL=
200802090345 METAR LMML 090345Z 02019G31KT 350V050 9999 SCT038 BKN060
                        13/05 Q1019 NOSIG=
200802090330 METAR LMML NIL=
200802090315 METAR LMML 090315Z 02015G27KT 350V060 9999 SCT038 BKN060
                        13/06 Q1019 NOSIG=
200802090300 METAR LMML NIL=
200802090245 METAR LMML 090245Z 02020G32KT 9999 SCT037 BKN060 13/06 Q1019
                        NOSIG=
200802090230 METAR LMML NIL=
200802090200 METAR LMML NIL=
200802090145 METAR LMML 090145Z 02021G32KT 9999 SCT037 BKN070 13/06 Q1019
                        NOSIG=
200802090130 METAR LMML NIL=
200802090115 METAR LMML 090115Z 02019G32KT 360V070 9999 SCT034 BKN100
                        13/07 Q1019 NOSIG=
200802090045 METAR LMML 090045Z 03020G35KT 350V060 9999 SCT032 BKN090
                        13/07 Q1019 NOSIG=
200802090030 METAR LMML NIL=
200802090015 METAR LMML 090015Z 02016G30KT 360V060 9999 SCT032 BKN080
                        13/07 Q1019 NOSIG=
200802090000 METAR LMML NIL=
200802082345 METAR LMML 082345Z 02021G32KT 360V060 9999 SCT032 BKN060
                        13/07 Q1018 NOSIG=
200802082315 METAR LMML 082315Z 02017G29KT 350V050 9999 SCT031 BKN048
                        13/08 Q1019 NOSIG=
200802082245 METAR LMML 082245Z 02017G27KT 360V060 9999 SCT029 BKN060
                        13/08 Q1019 TEMPO 7000 SHRA=
200802082215 METAR LMML 082215Z 02018G31KT 350V050 9999 SCT030 BKN060
                        13/08 Q1018 TEMPO 5000 SHRA=
200802082200 METAR LMML NIL=
200802082145 METAR LMML 082145Z 02016G27KT 350V060 9999 SCT030 SCT040
                        BKN080 13/09 Q1018 TEMPO 5000 SHRA=
200802082115 METAR LMML 082115Z 02019G32KT 9999 SCT030 SCT043 BKN080 13/08
                        Q1018 TEMPO 5 000 SHRA=
200802082100 METAR LMML NIL=
200802082045 METAR LMML 082045Z 02019G33KT 350V050 9999 SCT025 SCT048
                        BKN070 13/08 Q1018 TEMPO 5000 SHRA=
200802082030 METAR LMML NIL=
200802082015 METAR LMML 082015Z 02019G33KT 350V060 9999 SCT028 BKN045
                        13/09 Q1018 TEMPO 5000 SHRA=
200802082000 METAR LMML NIL=
200802081945 METAR LMML 081945Z 01018G30KT 9999 FEW025 BKN070 13/09 Q1017
                        TEMPO 5000 SHR A BKN012=
200802081915 METAR LMML 081915Z 02018G35KT 6000 SCT020 BKN070 13/08 Q1018
                        TEMPO 5000 SHR A BKN012=
200802081900 METAR LMML NIL=
200802081845 METAR LMML 081845Z 01021G33KT 6000 FEW015 SCT025 BKN050 12/09
                        Q1018 RERA TE MPO 5000 SHRA BKN012=
200802081830 METAR LMML NIL=
200802081815 METAR LMML 081815Z 36018G31KT 6000 RA FEW019 SCT025 BKN045
                        11/10 Q1017 TEMP O 5000 SHRA BKN012=
200802081745 METAR LMML 081745Z 01016G27KT 6000 RA FEW020 BKN024 OVC044
                        11/09 Q1018 TEMP O 5000 SHRA BKN012=
200802081730 METAR LMML NIL=
200802081715 METAR LMML 081715Z 35014KT 6000 RA FEW019 BKN028 OVC040 11/09
                        Q1018 TEMPO 5 000 SHRA BKN012=
200802081700 METAR LMML NIL=
200802081645 METAR LMML 081645Z 35017KT 330V030 7000 RA FEW022 BKN026
                        BKN040 11/09 Q1017 TEMPO 5000 SHRA
                        BKN012=
200802081630 METAR LMML NIL=
200802081615 METAR LMML 081615Z 34016KT 310V010 7000 RA FEW020 BKN025
                        OVC050 11/09 Q1017 TEMPO 5000 SHRA
                        BKN012=
200802081600 METAR LMML NIL=
200802081545 METAR LMML 081545Z 33018KT 6000 RA FEW013 BKN023 BKN050 10/09
                        Q1017 TEMPO 5 000 SHRA BKN012=
200802081530 METAR LMML NIL=
200802081515 METAR LMML 081515Z 33016KT 310V010 6000 RA SCT013 BKN020
                        OVC070 10/09 Q1017 TEMPO 5000 SHRA
                        BKN012=
200802081500 METAR LMML NIL=
200802081445 METAR LMML 081445Z 34014KT 7000 RA BKN023 OVC070 10/09 Q1017
                        TEMPO 8000 SHR A=
200802081430 METAR LMML NIL=
200802081415 METAR LMML 081415Z 35015KT 320V020 7000 RA SCT021 OVC080
                        10/08 Q1018 TEMPO 5000 SHRA BKN015=
200802081400 METAR LMML NIL=
200802081345 METAR LMML 081345Z 35020G30KT 7000 RA SCT019 OVC037 10/08
                        Q1018 TEMPO 5000 SHRA BKN015=
200802081330 METAR LMML NIL=
200802081315 METAR LMML 081315Z 36019G29KT 330V030 7000 RA SCT019 OVC040
                        11/08 Q1018 TEM PO 5000 SHRA BKN015=
200802081300 METAR LMML NIL=
200802081245 METAR LMML 081245Z 36017G29KT 330V030 9000 -RA SCT020 OVC045
                        12/08 Q1017 TE MPO 8000 SHRA=
200802081230 METAR LMML NIL=
200802081215 METAR LMML 081215Z 01016G26KT 350V050 9999 -RA SCT018 BKN039
                        BKN090 12/09 Q 1017 TEMPO 8000 SHRA=
200802081200 METAR LMML NIL=
200802081145 METAR LMML 081145Z 36016G27KT 340V040 9999 SCT034 SCT039
                        BKN090 14/06 Q1017 TEMPO 8000 SHRA=
200802081130 METAR LMML NIL=
200802081115 METAR LMML 081115Z 36019G31KT 9999 SCT032 BKN060 14/05 Q1018
                        TEMPO 8000 SHR A=
200802081100 METAR LMML NIL=
200802081045 METAR LMML 081045Z 36016G27KT 330V040 9999 SCT038 BKN046
                        14/06 Q1018 NOSIG=
200802081030 METAR LMML NIL=
200802081015 METAR LMML 081015Z 34015KT 310V020 9999 BKN040 SCT060 15/06
                        Q1018 NOSIG=
200802081000 METAR LMML NIL=
200802080945 METAR LMML 080945Z 35017KT 9999 FEW037 SCT100 BKN250 14/06
                        Q1018 NOSIG=
200802080930 METAR LMML NIL=
200802080915 METAR LMML 080915Z 35016KT 9999 FEW037 BKN250 14/05 Q1018
                        NOSIG=
200802080900 METAR LMML NIL=
200802080845 METAR LMML 080845Z 34015KT 310V010 9999 FEW036 BKN250 14/06
                        Q1018 NOSIG=
200802080830 METAR LMML NIL=
200802080815 METAR LMML 080815Z 34015KT 9999 FEW035 SCT050 BKN250 13/06
                        Q1018 NOSIG=
200802080800 METAR LMML NIL=
200802080745 METAR LMML 080745Z 34016KT 9999 FEW040 SCT060 13/05 Q1018
                        NOSIG=
200802080730 METAR LMML NIL=
200802080715 METAR LMML 080715Z 33018KT 9999 FEW040 SCT060 13/06 Q1018
                        NOSIG=
200802080645 METAR LMML 080645Z 33015KT 300V360 9999 FEW040 SCT060 13/05
                        Q1018 NOSIG=
200802080630 METAR LMML NIL=
200802080615 METAR LMML 080615Z 33017KT 9999 FEW040 SCT070 13/06 Q1018
                        NOSIG=
200802080600 METAR LMML NIL=
200802080545 METAR LMML 080545Z 33014KT 9999 FEW043 SCT070 13/05 Q1018
                        NOSIG=
200802080530 METAR LMML NIL=
200802080515 METAR LMML 080515Z 34014KT 9999 FEW043 13/05 Q1018 NOSIG=
200802080500 METAR LMML NIL=
200802080445 METAR LMML 080445Z 34014KT 310V010 9999 FEW041 BKN060 13/05
                        Q1018 NOSIG=
200802080430 METAR LMML NIL=
200802080415 METAR LMML 080415Z 34014KT 310V010 9999 FEW042 SCT060 13/06
                        Q1018 NOSIG=
200802080400 LMML NIL=
200802080345 METAR LMML 080345Z 34014KT 320V020 9999 FEW035 BKN060 13/05
                        Q1018 NOSIG=
200802080330 METAR LMML NIL=
200802080315 METAR LMML 080315Z 33014KT 9999 FEW035 SCT060 13/05 Q1018
                        NOSIG=
200802080300 METAR LMML NIL=
200802080245 METAR LMML 080245Z 33015KT 9999 FEW033 SCT060 13/06 Q1018
                        NOSIG=
200802080215 METAR LMML 080215Z 33016KT 300V360 9999 FEW035 BKN060 13/06
                        Q1019 NOSIG=
200802080145 METAR LMML 080145Z 33015KT 310V010 9999 FEW035 SCT060 13/06
                        Q1019 NOSIG=
200802080130 METAR LMML NIL=
200802080115 METAR LMML 080115Z 34014KT 9999 FEW035 13/07 Q1019 NOSIG=
200802080045 METAR LMML 080045Z 35015KT 9999 FEW035 13/07 Q1019 NOSIG=
200802080030 METAR LMML NIL=
200802080015 METAR LMML 080015Z 34018KT 9999 FEW035 SCT060 13/07 Q1019
                        NOSIG=
200802080000 METAR LMML NIL=
200802072345 METAR LMML 072345Z 34018G28KT 300V010 9999 FEW034 BKN045
                        13/07 Q1019 NOSIG=
200802072330 METAR LMML NIL=
200802072315 METAR LMML 072315Z 34011KT 9999 FEW035 13/08 Q1019 NOSIG=
200802072300 METAR LMML NIL=
200802072245 METAR LMML 072245Z 34009KT 310V010 9999 FEW035 13/08 Q1019
                        NOSIG=
200802072215 METAR LMML 072215Z 34010KT 310V010 9999 FEW035 13/08 Q1019
                        NOSIG=
200802072200 METAR LMML NIL=
200802072145 METAR LMML 072145Z 34012KT 9999 FEW036 13/07 Q1019 NOSIG=
200802072130 METAR LMML NIL=
200802072115 METAR LMML 072115Z 35014KT 9999 FEW035 SCT060 13/07 Q1019
                        NOSIG=
200802072100 METAR LMML NIL=
200802072045 METAR LMML 072045Z 35013KT 9999 FEW032 13/08 Q1019 NOSIG=
200802072030 METAR LMML NIL=
200802072015 METAR LMML 072015Z 35014KT 320V020 9999 FEW032 13/08 Q1019
                        NOSIG=
200802072000 METAR LMML NIL=
200802071945 METAR LMML 071945Z 35018G28KT 9999 FEW032 13/08 Q1019 NOSIG=
200802071930 METAR LMML NIL=
200802071915 METAR LMML 071915Z 34017KT 9999 FEW032 13/08 Q1019 NOSIG=
200802071900 METAR LMML NIL=
200802071845 METAR LMML 071845Z 34012KT 310V010 9999 FEW020 13/09 Q1019
                        NOSIG=
200802071830 METAR LMML NIL=
200802071815 LMML 071815Z 32009KT 9999 FEW020 SCT120 12/10 Q1019 RETS
                        NOSIG=
200802071800 METAR LMML NIL=
200802071745 METAR LMML 071745Z 33007KT 9999 SCT020 BKN120 11/10 Q1019
                        RETS BECMG SCT030=
200802071730 METAR LMML NIL=
200802071715 METAR LMML 071715Z 35020G32KT 310V010 9999 TSRA BKN021CB
                        12/09 Q1020 TEMPO 3000 TSGR BKN011CB=
200802071700 METAR LMML NIL=
200802071645 METAR LMML 071645Z 31019KT 9999 SCT019 14/11 Q1018 TEMPO
                        3000 TSGR BKN011CB RMK LIGHTNING
                        TO NORTH=
200802071630 METAR LMML NIL=
200802071615 METAR LMML 071615Z 30017KT 9999 SCT020 15/11 Q1018 NOSIG=
200802071600 METAR LMML NIL=
200802071545 METAR LMML 071545Z 30018KT 9999 SCT021 15/11 Q1018 NOSIG=
200802071530 METAR LMML NIL=
200802071515 METAR LMML 071515Z 31018KT 9999 SCT023 BKN040 15/11 Q1018
                        NOSIG=
200802071500 METAR LMML NIL=
200802071445 METAR LMML 071445Z 31018KT 9999 SCT022 BKN040 15/11 Q1019
                        NOSIG=
200802071430 METAR LMML NIL=
200802071415 METAR LMML 071415Z 29018KT 240V320 9999 SCT022 SCT050 16/11
                        Q1019 NOSIG=
200802071400 METAR LMML NIL=
200802071345 METAR LMML 071345Z 28020KT 9999 SCT023 SCT050 16/11 Q1019
                        NOSIG=
200802071330 METAR LMML NIL=
200802071315 METAR LMML 071315Z 28017KT 240V310 9999 FEW022 SCT050 16/11
                        Q1020 NOSIG=
200802071300 METAR LMML NIL=
200802071245 METAR LMML 071245Z 29016KT 260V320 9999 FEW022 BKN050 16/11
                        Q1020 NOSIG=
200802071230 LMML NIL=
200802071215 METAR LMML 071215Z 29014KT 260V320 9999 FEW019 BKN040 15/12
                        Q1020 NOSIG=
200802071200 METAR LMML NIL=
200802071145 METAR LMML 071145Z 28008KT 220V310 9999 FEW022 BKN034 15/12
                        Q1021 NOSIG=
200802071115 METAR LMML 071115Z 30012KT 9999 SCT019 BKN034 15/11 Q1022
                        NOSIG=
200802071100 METAR LMML NIL=
200802071045 METAR LMML 071045Z 30012KT 9999 SCT023 BKN038 15/11 Q1022
                        NOSIG=
200802071030 METAR LMML NIL=
200802071015 METAR LMML 071015Z 30016KT 9999 BKN030 15/11 Q1023 NOSIG=
200802071000 METAR LMML NIL=
200802070945 METAR LMML 070945Z 29015KT 9999 BKN022 15/11 Q1023 NOSIG=
200802070930 METAR LMML NIL=
200802070915 METAR LMML 070915Z 30014KT 260V320 9999 SCT023 16/11 Q1023
                        NOSIG=
200802070900 METAR LMML NIL=
200802070845 METAR LMML 070845Z 29015KT 9999 SCT020 15/11 Q1023 NOSIG=
200802070830 METAR LMML NIL=
200802070815 METAR LMML 070815Z 30009KT 9999 FEW017 15/12 Q1023 NOSIG=
200802070800 METAR LMML NIL=
200802070745 METAR LMML 070745Z 31007KT 9999 FEW018 15/12 Q1023 NOSIG=
200802070730 METAR LMML NIL=
200802070715 METAR LMML 070715Z 31011KT 9999 FEW025 14/11 Q1023 NOSIG=
200802070700 METAR LMML NIL=
200802070645 METAR LMML 070645Z 32009KT 9999 FEW020 12/10 Q1023 NOSIG=
200802070630 LMML NIL=
200802070615 METAR LMML 070615Z 30007KT 9999 FEW020 12/10 Q1023 NOSIG=
200802070600 METAR LMML NIL=
200802070545 METAR LMML 070545Z 30009KT 9999 FEW020 11/09 Q1023 NOSIG=
200802070530 METAR LMML NIL=
200802070515 METAR LMML 070515Z 29007KT 260V320 9999 FEW020 11/09 Q1023
                        NOSIG=
200802070500 METAR LMML NIL=
200802070445 METAR LMML 070445Z 29007KT 260V320 9999 FEW020 11/09 Q1023
                        NOSIG=
200802070430 METAR LMML NIL=
200802070415 METAR LMML 070415Z 29008KT 9999 FEW020 11/09 Q1023 NOSIG=
200802070400 METAR LMML NIL=
200802070345 METAR LMML 070345Z 30008KT 9999 FEW020 11/09 Q1023 NOSIG=
200802070330 METAR LMML NIL=
200802070315 METAR LMML 070315Z 30007KT 9999 FEW020 11/09 Q1024 NOSIG=
200802070300 METAR LMML NIL=
200802070245 METAR LMML 070245Z 30008KT 9999 FEW020 12/10 Q1024 NOSIG=
200802070230 METAR LMML NIL=
200802070215 METAR LMML 070215Z 29005KT 270V340 9999 SCT020 12/10 Q1024
                        NOSIG=
200802070200 METAR LMML NIL=
200802070145 METAR LMML 070145Z 29008KT 9999 FEW020 11/10 Q1024 NOSIG=
200802070130 METAR LMML NIL=
200802070115 METAR LMML 070115Z 29007KT 9999 FEW020 11/10 Q1025 NOSIG=
200802070100 METAR LMML NIL=
200802070045 METAR LMML 070045Z 29006KT 9999 FEW020 11/10 Q1025 NOSIG=
200802070030 METAR LMML NIL=
200802070015 METAR LMML 070015Z 28006KT 9999 FEW020 12/10 Q1025 NOSIG=
200802062345 METAR LMML 062345Z 28006KT 9999 FEW020 12/10 Q1025 NOSIG=
200802062330 METAR LMML NIL=
200802062315 METAR LMML 062315Z 24004KT 210V310 9999 FEW020 12/11 Q1025
                        NOSIG=
200802062245 METAR LMML 062245Z VRB03KT 9999 FEW020 12/10 Q1026 NOSIG=
200802062215 METAR LMML 062215Z 27004KT 9999 FEW020 12/11 Q1026 NOSIG=
200802062200 METAR LMML NIL=
200802062145 METAR LMML 062145Z 28005KT 9999 FEW020 12/11 Q1026 NOSIG=
200802062130 METAR LMML NIL=
200802062115 METAR LMML 062115Z 26004KT 9999 FEW020 12/10 Q1026 NOSIG=
200802062100 METAR LMML NIL=
200802062045 METAR LMML 062045Z 28004KT 250V310 9999 FEW020 12/10 Q1026
                        NOSIG=
200802062030 METAR LMML NIL=
200802062015 METAR LMML 062015Z 29004KT 9999 FEW020 12/10 Q1026 NOSIG=
200802062000 METAR LMML NIL=
200802061945 METAR LMML 061945Z VRB03KT 9999 FEW025 12/10 Q1026 NOSIG=
200802061930 METAR LMML NIL=
200802061915 METAR LMML 061915Z 30004KT 9999 FEW025 12/10 Q1026 NOSIG=
200802061900 METAR LMML NIL=
200802061845 METAR LMML 061845Z 29006KT 9999 FEW025 12/10 Q1026 NOSIG=
200802061830 METAR LMML NIL=
200802061815 METAR LMML 061815Z 29005KT 9999 FEW025 12/09 Q1026 NOSIG=
200802061800 METAR LMML NIL=
200802061745 METAR LMML 061745Z 30005KT 9999 FEW025 12/09 Q1026 NOSIG=
200802061730 METAR LMML NIL=
200802061715 METAR LMML 061715Z 30006KT 9999 FEW028 13/09 Q1026 NOSIG=
200802061700 METAR LMML NIL=
200802061645 METAR LMML 061645Z 31007KT 9999 FEW028 13/09 Q1026 NOSIG=
200802061630 METAR LMML NIL=
200802061615 METAR LMML 061615Z 31006KT 280V340 9999 FEW032 14/08 Q1026
                        NOSIG=
200802061600 METAR LMML NIL=
200802061545 METAR LMML 061545Z 31008KT 9999 FEW030 15/08 Q1026 NOSIG=
200802061530 METAR LMML NIL=
200802061515 LMML 061515Z 34009KT 9999 FEW030 15/08 Q1026 NOSIG=
200802061445 METAR LMML 061445Z 33009KT 9999 FEW030 15/08 Q1026 NOSIG=
200802061430 METAR LMML NIL=
200802061415 METAR LMML 061415Z 34011KT 9999 FEW000 16/07 Q1026 NOSIG=
200802061400 METAR LMML NIL=
200802061345 METAR LMML 061345Z 32009KT 9999 FEW032 16/08 Q1026 NOSIG=
200802061330 METAR LMML NIL=
200802061315 METAR LMML 061315Z 31010KT 9999 FEW032 16/08 Q1026 NOSIG=
200802061300 METAR LMML NIL=
200802061245 METAR LMML 061245Z 33011KT 300V360 9999 FEW032 16/08 Q1026
                        NOSIG=
200802061230 METAR LMML NIL=
200802061215 METAR LMML 061215Z 33010KT 290V360 9999 FEW032 16/08 Q1026
                        NOSIG=
200802061200 METAR LMML NIL=
200802061145 METAR LMML 061145Z 32010KT 9999 FEW025 16/08 Q1027 NOSIG=
200802061130 METAR LMML NIL=
200802061115 METAR LMML 061115Z 32009KT 280V350 9999 SCT025 16/08 Q1027
                        NOSIG=
200802061100 METAR LMML NIL=
200802061045 METAR LMML 061045Z 32010KT 290V360 9999 FEW025 16/08 Q1027
                        NOSIG=
200802061030 METAR LMML NIL=
200802061015 METAR LMML 061015Z 32010KT 290V350 9999 FEW025 16/08 Q1027
                        NOSIG=
200802061000 METAR LMML NIL=
200802060945 METAR LMML 060945Z 33011KT 9999 FEW025 15/08 Q1028 NOSIG=
200802060930 METAR LMML NIL=
200802060915 METAR LMML 060915Z 33012KT 290V350 9999 FEW025 15/08 Q1028
                        NOSIG=
200802060900 METAR LMML NIL=
200802060845 METAR LMML 060845Z 32009KT 290V350 9999 FEW025 15/09 Q1027
                        NOSIG=
200802060830 METAR LMML NIL=
200802060815 METAR LMML 060815Z 32011KT 9999 FEW025 14/09 Q1027 NOSIG=
200802060800 METAR LMML NIL=
200802060745 METAR LMML 060745Z 31007KT 9999 FEW025 13/09 Q1027 NOSIG=
200802060730 METAR LMML NIL=
200802060715 METAR LMML 060715Z 30009KT 9999 FEW025 12/08 Q1027 NOSIG=
200802060645 METAR LMML 060645Z 30008KT 9999 FEW025 11/07 Q1027 NOSIG=
200802060630 METAR LMML NIL=
200802060615 METAR LMML 060615Z VRB03KT 9999 FEW030 11/07 Q1026 NOSIG=
200802060600 METAR LMML NIL=
200802060545 METAR LMML 060545Z VRB03KT 9999 FEW031 10/07 Q1026 NOSIG=
200802060530 METAR LMML NIL=
200802060515 METAR LMML 060515Z 29004KT 260V320 9999 FEW031 10/07 Q1026
                        NOSIG=
200802060500 METAR LMML NIL=
200802060445 METAR LMML 060445Z 28005KT 9999 FEW030 11/07 Q1026 NOSIG=
200802060430 METAR LMML NIL=
200802060415 METAR LMML 060415Z 28004KT 9999 FEW030 11/07 Q1026 NOSIG=
200802060400 METAR LMML NIL=
200802060345 METAR LMML 060345Z 29005KT 9999 FEW030 11/08 Q1026 NOSIG=
200802060330 METAR LMML NIL=
200802060315 METAR LMML 060315Z 29006KT 9999 FEW030 11/08 Q1026 NOSIG=
200802060300 METAR LMML NIL=
200802060245 METAR LMML 060245Z 29008KT 9999 FEW030 11/08 Q1026 NOSIG=
200802060230 METAR LMML NIL=
200802060215 METAR LMML 060215Z 29007KT 9999 FEW028 11/08 Q1026 NOSIG=
200802060200 METAR LMML NIL=
200802060145 METAR LMML 060145Z 28008KT 9999 FEW030 11/08 Q1026 NOSIG=
200802060130 METAR LMML NIL=
200802060115 METAR LMML 060115Z 28006KT 240V300 9999 FEW030 11/08 Q1026
                        NOSIG=
200802060100 METAR LMML NIL=
200802060045 METAR LMML 060045Z 28006KT 9999 FEW030 11/08 Q1026 NOSIG=
200802060030 METAR LMML NIL=
200802060015 METAR LMML 060015Z 27004KT 250V310 9999 FEW025 11/08 Q1026
                        NOSIG=
200802060000 METAR LMML NIL=
200802052345 METAR LMML 052345Z 29006KT 9999 FEW025 12/08 Q1026 NOSIG=
200802052330 METAR LMML NIL=
200802052315 METAR LMML 052315Z 30007KT 9999 FEW025 12/08 Q1026 NOSIG=
200802052300 METAR LMML NIL=
200802052245 METAR LMML 052245Z 30009KT 9999 FEW025 12/08 Q1026 NOSIG=
200802052230 METAR LMML NIL=
200802052215 METAR LMML 052215Z 30008KT 9999 FEW000 12/08 Q1026 NOSIG=
200802052200 METAR LMML NIL=
200802052145 METAR LMML 052145Z 30009KT 9999 FEW028 12/08 Q1026 NOSIG=
200802052130 METAR LMML NIL=
200802052115 METAR LMML 052115Z 29007KT 9999 FEW028 12/08 Q1025 NOSIG=
200802052100 METAR LMML NIL=
200802052045 METAR LMML 052045Z 30012KT 9999 FEW028 13/08 Q1025 NOSIG=
200802052030 METAR LMML NIL=
200802052015 METAR LMML 052015Z 30011KT 9999 FEW028 13/09 Q1025 NOSIG=
200802052000 METAR LMML NIL=
200802051945 METAR LMML 051945Z 30012KT 9999 FEW028 13/08 Q1025 NOSIG=
200802051930 METAR LMML NIL=
200802051915 METAR LMML 051915Z 30013KT 9999 FEW028 13/07 Q1025 NOSIG=
200802051900 METAR LMML NIL=
200802051845 METAR LMML 051845Z 31013KT 280V340 9999 FEW038 13/08 Q1025
                        NOSIG=
200802051830 METAR LMML NIL=
200802051815 METAR LMML 051815Z 31014KT 9999 SCT038 14/08 Q1025 NOSIG=
200802051800 METAR LMML NIL=
200802051745 METAR LMML 051745Z 31012KT 9999 FEW030 13/08 Q1025 NOSIG=
200802051730 METAR LMML NIL=
200802051715 METAR LMML 051715Z 31012KT 9999 SCT031 13/08 Q1025 NOSIG=
200802051700 METAR LMML NIL=
200802051645 METAR LMML 051645Z 30012KT 9999 FEW031 14/08 Q1024 NOSIG=
200802051630 METAR LMML NIL=
200802051615 METAR LMML 051615Z 30012KT 9999 FEW025 14/08 Q1024 NOSIG=
200802051600 METAR LMML NIL=
200802051545 METAR LMML 051545Z 30016KT 9999 FEW025 15/07 Q1024 NOSIG=
200802051530 METAR LMML NIL=
200802051515 METAR LMML 051515Z 30015KT 9999 FEW025 15/08 Q1024 NOSIG=
200802051500 METAR LMML NIL=
200802051445 METAR LMML 051445Z 29016KT 260V320 9999 FEW030 16/08 Q1024
                        NOSIG=
200802051430 METAR LMML NIL=
200802051415 METAR LMML 051415Z 29017KT 260V320 9999 FEW030 16/08 Q1023
                        NOSIG=
200802051400 METAR LMML NIL=
200802051345 METAR LMML 051345Z 29017KT 9999 FEW031 16/09 Q1023 NOSIG=
200802051330 METAR LMML NIL=
200802051315 METAR LMML 051315Z 30016KT 9999 FEW026 17/10 Q1023 NOSIG=
200802051300 METAR LMML NIL=
200802051245 METAR LMML 051245Z 29016KT 250V320 9999 FEW023 17/11 Q1023
                        NOSIG=
200802051230 METAR LMML NIL=
200802051215 METAR LMML 051215Z 28015KT 9999 SCT020 17/12 Q1024 NOSIG=
200802051200 METAR LMML NIL=
200802051145 METAR LMML 051145Z 29012KT 250V320 9999 FEW022 SCT250 18/12
                        Q1024 NOSIG=
200802051115 METAR LMML 051115Z 29013KT 9999 FEW017 SCT250 18/12 Q1024
                        NOSIG=
200802051100 METAR LMML NIL=
200802051045 METAR LMML 051045Z 27010KT 220V300 9999 SCT017 SCT250 18/13
                        Q1024 NOSIG=
200802051030 METAR LMML NIL=
200802051015 METAR LMML 051015Z 26009KT 200V300 9999 FEW020 SCT250 17/12
                        Q1024 NOSIG=
200802051000 METAR LMML NIL=
200802050945 METAR LMML 050945Z 25006KT 190V290 9999 FEW015 BKN250 17/13
                        Q1024 NOSIG=
200802050930 METAR LMML NIL=
200802050915 METAR LMML 050915Z 23006KT 200V280 9999 FEW015 BKN250 17/13
                        Q1024 NOSIG=
200802050900 METAR LMML NIL=
200802050845 METAR LMML 050845Z 25010KT 220V280 9999 FEW015 SCT250 16/13
                        Q1024 NOSIG=
200802050830 METAR LMML NIL=
200802050815 METAR LMML 050815Z 24007KT 190V270 9999 FEW015 SCT250 15/13
                        Q1024 NOSIG=
200802050800 METAR LMML NIL=
200802050745 METAR LMML 050745Z 23006KT 200V270 9999 FEW015 BKN250 15/13
                        Q1024 NOSIG=
200802050730 METAR LMML NIL=
200802050715 METAR LMML 050715Z 24006KT 200V270 9999 FEW015 BKN250 15/13
                        Q1024 NOSIG=
200802050700 METAR LMML NIL=
200802050645 METAR LMML 050645Z 22005KT 190V260 9999 FEW015 BKN250 14/12
                        Q1023 NOSIG=
200802050630 METAR LMML NIL=
200802050615 METAR LMML 050615Z 23006KT 200V270 9999 FEW013 SCT250 14/12
                        Q1023 NOSIG=
200802050600 METAR LMML NIL=
200802050545 METAR LMML 050545Z 20005KT 160V240 9999 FEW013 13/12 Q1023
                        NOSIG=
200802050530 METAR LMML NIL=
200802050515 METAR LMML 050515Z 20005KT 9999 FEW000 13/12 Q1023 NOSIG=
200802050500 METAR LMML NIL=
200802050445 METAR LMML 050445Z 20005KT 9999 FEW013 14/12 Q1023 NOSIG=
200802050430 METAR LMML NIL=
200802050415 METAR LMML 050415Z 20006KT 9999 FEW013 14/12 Q1022 NOSIG=
200802050400 METAR LMML NIL=
200802050345 METAR LMML 050345Z 20006KT 9999 FEW012 14/12 Q1022 NOSIG=
200802050330 METAR LMML NIL=
200802050315 METAR LMML 050315Z 20005KT 9999 FEW012 13/12 Q1022 NOSIG=
200802050300 METAR LMML NIL=
200802050245 METAR LMML 050245Z 21006KT 9999 FEW012 14/12 Q1022 NOSIG=
200802050230 METAR LMML NIL=
200802050215 METAR LMML 050215Z 21006KT 180V240 9999 FEW012 14/12 Q1023
                        NOSIG=
200802050200 METAR LMML NIL=
200802050145 METAR LMML 050145Z 20005KT 9999 FEW012 14/12 Q1023 NOSIG=
200802050130 METAR LMML NIL=
200802050115 METAR LMML 050115Z 21005KT 180V250 9999 FEW012 14/12 Q1023
                        NOSIG=
200802050100 METAR LMML NIL=
200802050045 METAR LMML 050045Z 21006KT 9999 FEW015 14/12 Q1023 NOSIG=
200802050030 METAR LMML NIL=
200802050015 METAR LMML 050015Z 21005KT 9999 FEW015 14/12 Q1023 NOSIG=
200802042345 METAR LMML 042345Z 21004KT 9999 FEW014 14/12 Q1023 NOSIG=
200802042330 METAR LMML NIL=
200802042315 METAR LMML 042315Z 21005KT 9999 FEW014 14/12 Q1023 NOSIG=
200802042300 METAR LMML NIL=
200802042245 METAR LMML 042245Z 20004KT 160V250 9999 FEW014 14/12 Q1023
                        NOSIG=
200802042215 METAR LMML 042215Z 18004KT 160V220 9999 FEW014 14/12 Q1023
                        NOSIG=
200802042200 METAR LMML NIL=
200802042145 METAR LMML 042145Z 19005KT 9999 FEW013 14/12 Q1023 NOSIG=
200802042130 METAR LMML NIL=
200802042115 METAR LMML 042115Z 18005KT 150V220 9999 FEW013 14/12 Q1023
                        NOSIG=
200802042100 METAR LMML NIL=
200802042045 METAR LMML 042045Z 17004KT 140V200 9999 FEW015 14/12 Q1023
                        NOSIG=
200802042030 METAR LMML NIL=
200802042015 METAR LMML 042015Z 17004KT 9999 FEW015 14/12 Q1023 NOSIG=
200802041945 METAR LMML 041945Z VRB03KT 9999 FEW015 14/12 Q1023 NOSIG=
200802041930 METAR LMML NIL=
200802041915 METAR LMML 041915Z 17004KT 9999 FEW015 14/12 Q1023 NOSIG=
200802041845 METAR LMML 041845Z VRB03KT 9999 FEW016 14/12 Q1023 NOSIG=
200802041830 METAR LMML NIL=
200802041815 METAR LMML 041815Z VRB03KT 9999 FEW020 14/12 Q1023 NOSIG=
200802041800 METAR LMML NIL=
200802041745 METAR LMML 041745Z VRB03KT 9999 FEW020 15/12 Q1023 NOSIG=
200802041730 METAR LMML NIL=
200802041715 METAR LMML 041715Z 18004KT 9999 FEW020 15/11 Q1023 NOSIG=
200802041700 METAR LMML NIL=
200802041645 METAR LMML 041645Z VRB03KT 9999 FEW020 15/12 Q1022 NOSIG=
200802041630 METAR LMML NIL=
200802041615 METAR LMML 041615Z VRB03KT 9999 FEW020 16/11 Q1022 NOSIG=
200802041600 METAR LMML NIL=
200802041545 METAR LMML 041545Z VRB03KT 9999 FEW020 16/11 Q1022 NOSIG=
200802041530 METAR LMML NIL=
200802041515 METAR LMML 041515Z 20004KT 160V250 9999 FEW025 17/11 Q1022
                        NOSIG=
200802041500 METAR LMML NIL=
200802041445 METAR LMML 041445Z 19004KT 150V240 9999 FEW025 17/10 Q1022
                        NOSIG=
200802041430 METAR LMML NIL=
200802041415 METAR LMML 041415Z VRB03KT 9999 FEW025 17/11 Q1022 NOSIG=
200802041400 METAR LMML NIL=
200802041345 METAR LMML 041345Z 19004KT 160V240 9999 FEW025 18/11 Q1022
                        NOSIG=
200802041330 METAR LMML NIL=
200802041315 METAR LMML 041315Z 19004KT 140V270 CAVOK 18/11 Q1022 NOSIG=
200802041245 METAR LMML 041245Z 18005KT 150V220 9999 FEW030 18/10 Q1022
                        NOSIG=
200802041230 METAR LMML NIL=
200802041215 METAR LMML 041215Z 22004KT 130V270 CAVOK 18/11 Q1023 NOSIG=
200802041200 METAR LMML NIL=
200802041145 METAR LMML 041145Z 20005KT 170V230 CAVOK 18/09 Q1023 NOSIG=
200802041130 METAR LMML NIL=
200802041115 METAR LMML 041115Z 20005KT 160V250 9999 FEW017 18/10 Q1023
                        NOSIG=
200802041045 METAR LMML 041045Z 21006KT 170V260 9999 FEW017 17/10 Q1023
                        NOSIG=
200802041030 METAR LMML NIL=
200802041015 METAR LMML 041015Z 19006KT 150V240 9999 FEW017 17/11 Q1024
                        NOSIG=
200802041000 METAR LMML NIL=
200802040945 METAR LMML 040945Z 18005KT 130V230 9999 FEW017 17/13 Q1024
                        NOSIG=
200802040930 METAR LMML NIL=
200802040915 METAR LMML 040915Z 18005KT 150V230 9999 FEW017 17/12 Q1024
                        NOSIG=
200802040900 METAR LMML NIL=
200802040845 METAR LMML 040845Z 20005KT 120V250 9999 FEW017 SCT250 17/13
                        Q1024 NOSIG=
200802040830 METAR LMML NIL=
200802040815 METAR LMML 040815Z 19004KT 150V230 9999 FEW017 SCT250 16/13
                        Q1023 NOSIG=
200802040800 METAR LMML NIL=
200802040745 METAR LMML 040745Z VRB03KT 9999 FEW017 SCT250 16/13 Q1023
                        NOSIG=
200802040730 METAR LMML NIL=
200802040715 METAR LMML 040715Z 17004KT 9999 FEW026 15/12 Q1023 NOSIG=
200802040645 METAR LMML 040645Z 17004KT 9999 FEW026 14/12 Q1023 NOSIG=
200802040630 METAR LMML NIL=
200802040615 METAR LMML 040615Z 17004KT 9999 FEW026 14/12 Q1023 NOSIG=
200802040600 METAR LMML NIL=
200802040545 METAR LMML 040545Z 17004KT 140V200 9999 FEW017 14/12 Q1023
                        NOSIG=
200802040530 METAR LMML NIL=
200802040515 METAR LMML 040515Z VRB03KT 9999 FEW016 14/13 Q1023 NOSIG=
200802040500 METAR LMML NIL=
200802040445 METAR LMML 040445Z VRB03KT 9999 -SHRA FEW017 SCT027 14/13
                        Q1023 NOSIG=
200802040430 METAR LMML NIL=
200802040415 METAR LMML 040415Z 16004KT 9999 FEW029 SCT050 14/13 Q1022
                        NOSIG=
200802040400 METAR LMML NIL=
200802040345 METAR LMML 040345Z 16004KT 9999 FEW024 13/13 Q1022 NOSIG=
200802040330 METAR LMML NIL=
200802040315 METAR LMML 040315Z VRB03KT 9999 FEW024 12/12 Q1022 NOSIG=
200802040300 METAR LMML NIL=
200802040245 METAR LMML 040245Z VRB03KT 9999 FEW024 13/12 Q1023 NOSIG=
200802040230 METAR LMML NIL=
200802040215 METAR LMML 040215Z VRB03KT 9999 FEW024 13/12 Q1023 NOSIG=
200802040200 METAR LMML NIL=
200802040145 METAR LMML 040145Z 16004KT 9999 FEW027 14/13 Q1023 NOSIG=
200802040130 METAR LMML NIL=
200802040115 METAR LMML 040115Z VRB03KT 9999 FEW025 13/13 Q1023 NOSIG=
200802040100 METAR LMML NIL=
200802040045 METAR LMML 040045Z VRB03KT 9999 FEW025 12/12 Q1023 NOSIG=
200802040030 METAR LMML NIL=
200802040015 METAR LMML 040015Z VRB02KT 9999 FEW027 12/11 Q1023 NOSIG=
200802032345 METAR LMML 032345Z 00000KT 9999 FEW020 12/11 Q1023 NOSIG=
200802032330 METAR LMML NIL=
200802032315 METAR LMML 032315Z VRB02KT 9999 FEW020 13/12 Q1023 NOSIG=
200802032300 METAR LMML NIL=
200802032245 METAR LMML 032245Z VRB03KT 9999 FEW020 13/12 Q1023 NOSIG=
200802032230 METAR LMML NIL=
200802032215 METAR LMML 032215Z VRB03KT 9999 SCT018 SCT060 13/11 Q1024
                        NOSIG=
200802032145 METAR LMML 032145Z VRB03KT CAVOK 13/11 Q1023 NOSIG=
200802032130 METAR LMML NIL=
200802032115 METAR LMML 032115Z VRB03KT CAVOK 13/11 Q1023 NOSIG=
200802032100 METAR LMML NIL=
200802032045 METAR LMML 032045Z 11005KT 050V130 CAVOK 13/11 Q1023 NOSIG=
200802032030 METAR LMML NIL=
200802032015 METAR LMML 032015Z 10004KT CAVOK 13/11 Q1024 NOSIG=
200802032000 METAR LMML NIL=
200802031945 METAR LMML 031945Z 09004KT CAVOK 13/11 Q1024 NOSIG=
200802031930 METAR LMML NIL=
200802031915 METAR LMML 031915Z 11005KT CAVOK 13/10 Q1023 NOSIG=
200802031900 METAR LMML NIL=
200802031845 METAR LMML 031845Z 11004KT 9999 FEW040 SCT060 14/11 Q1023
                        NOSIG=
200802031830 METAR LMML NIL=
200802031815 METAR LMML 031815Z 11004KT 9999 FEW040 SCT060 14/11 Q1023
                        NOSIG=
200802031800 METAR LMML NIL=
200802031745 METAR LMML 031745Z 11004KT 9999 FEW040 14/11 Q1023 NOSIG=
200802031730 METAR LMML NIL=
200802031715 METAR LMML 031715Z 12004KT 9999 FEW040 14/11 Q1023 NOSIG=
200802031700 METAR LMML NIL=
200802031645 METAR LMML 031645Z 12006KT 9999 FEW040 14/11 Q1023 NOSIG=
200802031630 METAR LMML NIL=
200802031615 METAR LMML 031615Z 13006KT 9999 FEW040 16/11 Q1022 NOSIG=
200802031600 METAR LMML NIL=
200802031545 METAR LMML 031545Z 13006KT 100V160 9999 FEW040 16/10 Q1022
                        NOSIG=
200802031530 METAR LMML NIL=
200802031515 METAR LMML 031515Z 10008KT 9999 FEW040 SCT250 17/11 Q1022
                        NOSIG=
200802031500 METAR LMML NIL=
200802031445 METAR LMML 031445Z 12007KT 080V140 9999 FEW040 SCT250 17/10
                        Q1022 NOSIG=
200802031430 METAR LMML NIL=
200802031415 METAR LMML 031415Z 11006KT 080V140 9999 FEW040 FEW250 17/11
                        Q1022 NOSIG=
200802031400 METAR LMML NIL=
200802031345 METAR LMML 031345Z 11007KT 9999 FEW040 BKN250 17/10 Q1022
                        NOSIG=
200802031330 METAR LMML NIL=
200802031315 METAR LMML 031315Z 12006KT 080V150 9999 FEW040 BKN250 18/10
                        Q1022 NOSIG=
200802031300 METAR LMML NIL=
200802031245 METAR LMML 031245Z 10008KT 060V140 9999 FEW030 SCT250 17/10
                        Q1022 NOSIG=
200802031230 METAR LMML NIL=
200802031215 METAR LMML 031215Z 13008KT 090V170 9999 FEW042 18/10 Q1023
                        NOSIG=
200802031200 METAR LMML NIL=
200802031145 METAR LMML 031145Z 11009KT 070V140 9999 FEW025 SCT250 17/08
                        Q1023 NOSIG=
200802031130 METAR LMML NIL=
200802031115 METAR LMML 031115Z 11009KT 070V160 9999 FEW025 SCT250 17/10
                        Q1023 NOSIG=
200802031100 METAR LMML NIL=
200802031045 METAR LMML 031045Z 12008KT 080V150 9999 FEW025 SCT250 17/10
                        Q1024 NOSIG=
200802031030 METAR LMML NIL=
200802031015 METAR LMML 031015Z 11008KT 080V150 9999 FEW025 SCT250 17/10
                        Q1024 NOSIG=
200802031000 METAR LMML NIL=
200802030930 METAR LMML NIL=
200802030915 METAR LMML 030915Z 13008KT 100V170 9999 FEW032 SCT250 17/09
                        Q1024 NOSIG=
200802030845 METAR LMML 030845Z 14008KT 9999 FEW032 16/09 Q1024 NOSIG=
200802030830 METAR LMML NIL=
200802030815 METAR LMML 030815Z 14007KT 110V170 9999 FEW033 16/10 Q1024
                        NOSIG=
200802030800 METAR LMML NIL=
200802030745 METAR LMML 030745Z 13006KT 9999 FEW032 15/09 Q1023 NOSIG=
200802030730 METAR LMML NIL=
200802030715 METAR LMML 030715Z 14006KT 9999 FEW032 14/09 Q1023 NOSIG=
200802030700 METAR LMML NIL=
200802030645 METAR LMML 030645Z 15004KT 9999 FEW032 14/09 Q1023 NOSIG=
200802030630 METAR LMML NIL=
200802030615 METAR LMML 030615Z 15004KT 9999 FEW030 13/08 Q1023 NOSIG=
200802030600 METAR LMML NIL=
200802030545 METAR LMML 030545Z 14005KT 9999 FEW031 12/09 Q1022 NOSIG=
200802030530 METAR LMML NIL=
200802030515 METAR LMML 030515Z 14005KT 9999 FEW031 13/09 Q1022 NOSIG=
200802030500 METAR LMML NIL=
200802030445 METAR LMML 030445Z 15005KT 9999 FEW031 13/09 Q1022 NOSIG=
200802030430 LMML NIL=
200802030415 METAR LMML 030415Z 15005KT 9999 FEW020 SCT250 13/09 Q1022
                        NOSIG=
200802030345 METAR LMML 030345Z 15006KT 9999 FEW020 SCT250 14/09 Q1022
                        NOSIG=
200802030330 METAR LMML NIL=
200802030315 METAR LMML 030315Z 15006KT 120V180 9999 FEW020 SCT250 14/10
                        Q1021 NOSIG=
200802030300 METAR LMML NIL=
200802030245 METAR LMML 030245Z 16007KT 9999 FEW020 SCT250 14/10 Q1021
                        NOSIG=
200802030230 METAR LMML NIL=
200802030215 METAR LMML 030215Z 16006KT 9999 FEW020 SCT120 BKN250 14/11
                        Q1021 NOSIG=
200802030145 METAR LMML 030145Z 16006KT 9999 FEW018 SCT120 BKN250 14/10
                        Q1021 NOSIG=
200802030130 METAR LMML NIL=
200802030115 METAR LMML 030115Z 16006KT 120V180 CAVOK 14/10 Q1022 NOSIG=
200802030100 METAR LMML NIL=
200802030045 METAR LMML 030045Z 16005KT 130V190 CAVOK 14/11 Q1022 NOSIG=
200802030030 METAR LMML NIL=
200802030015 METAR LMML 030015Z 16006KT CAVOK 14/12 Q1021 NOSIG=
200802030000 METAR LMML NIL=
200802022345 METAR LMML 022345Z 16005KT 120V200 CAVOK 14/12 Q1021 NOSIG=
200802022330 METAR LMML NIL=
200802022315 METAR LMML 022315Z 16006KT CAVOK 14/12 Q1021 NOSIG=
200802022245 METAR LMML 022245Z 16006KT 130V190 CAVOK 14/11 Q1022 NOSIG=
200802022230 METAR LMML NIL=
200802022215 METAR LMML 022215Z 16006KT CAVOK 14/12 Q1022 NOSIG=
200802022200 METAR LMML NIL=
200802022145 METAR LMML 022145Z 16007KT CAVOK 15/12 Q1021 NOSIG=
200802022130 METAR LMML NIL=
200802022115 METAR LMML 022115Z 16006KT CAVOK 14/12 Q1021 NOSIG=
200802022100 METAR LMML NIL=
200802022045 METAR LMML 022045Z 16005KT CAVOK 14/12 Q1021 NOSIG=
200802022030 METAR LMML NIL=
200802022015 METAR LMML 022015Z 17004KT CAVOK 14/12 Q1021 NOSIG=
200802022000 METAR LMML NIL=
200802021945 METAR LMML 021945Z 16004KT CAVOK 14/13 Q1021 NOSIG=
200802021930 METAR LMML NIL=
200802021915 METAR LMML 021915Z VRB03KT CAVOK 13/13 Q1021 NOSIG=
200802021900 METAR LMML NIL=
200802021845 METAR LMML 021845Z 15004KT CAVOK 14/13 Q1021 NOSIG=
200802021830 METAR LMML NIL=
200802021815 METAR LMML 021815Z VRB03KT 9999 FEW015 SCT250 14/13 Q1020
                        NOSIG=
200802021800 METAR LMML NIL=
200802021745 METAR LMML 021745Z VRB03KT 9999 FEW015 BKN250 15/13 Q1020
                        NOSIG=
200802021730 METAR LMML NIL=
200802021715 METAR LMML 021715Z 15005KT 9999 FEW020 BKN250 15/14 Q1020
                        NOSIG=
200802021700 METAR LMML NIL=
200802021645 METAR LMML 021645Z 13006KT 9999 FEW015 BKN250 15/14 Q1019
                        NOSIG=
200802021630 METAR LMML NIL=
200802021615 METAR LMML 021615Z 12005KT 9999 FEW015 BKN250 15/14 Q1019
                        NOSIG=
200802021545 METAR LMML 021545Z 13006KT 9999 FEW015 BKN250 16/14 Q1019
                        NOSIG=
200802021515 METAR LMML 021515Z 14007KT 9999 FEW015 BKN250 17/13 Q1019
                        NOSIG=
200802021500 METAR LMML NIL=
200802021445 METAR LMML 021445Z 14006KT 100V210 9999 FEW015 BKN250 17/13
                        Q1019 NOSIG=
200802021415 METAR LMML 021415Z 14007KT 090V170 9999 FEW015 BKN250 17/14
                        Q1019 NOSIG=
200802021400 METAR LMML NIL=
200802021345 METAR LMML 021345Z 14006KT 110V180 9999 FEW025 BKN250 17/13
                        Q1019 NOSIG=
200802021330 METAR LMML NIL=
200802021315 METAR LMML 021315Z 16006KT 120V200 9999 FEW015 SCT250 17/13
                        Q1019 NOSIG=
200802021300 METAR LMML NIL=
200802021245 METAR LMML 021245Z 16006KT 130V240 9999 FEW015 SCT250 18/13
                        Q1019 NOSIG=
200802021230 METAR LMML NIL=
200802021215 METAR LMML 021215Z 16008KT 110V230 9999 FEW015 17/13 Q1020
                        NOSIG=
200802021200 METAR LMML NIL=
200802021145 METAR LMML 021145Z 16007KT 120V190 9999 FEW013 17/13 Q1020
                        NOSIG=
200802021130 METAR LMML NIL=
200802021115 METAR LMML 021115Z 14007KT 090V190 9999 SCT011 17/14 Q1020
                        NOSIG=
200802021100 METAR LMML NIL=
200802021045 METAR LMML 021045Z 13007KT 090V170 9999 FEW015 17/13 Q1021
                        NOSIG=
200802021015 METAR LMML 021015Z 13007KT 9999 FEW020 16/13 Q1021 NOSIG=
200802021000 METAR LMML NIL=
200802020945 METAR LMML 020945Z 12007KT 9999 FEW020 16/13 Q1021 NOSIG=
200802020930 METAR LMML NIL=
200802020915 METAR LMML 020915Z 13007KT 100V170 9999 FEW020 16/12 Q1021
                        NOSIG=
200802020900 METAR LMML NIL=
200802020845 METAR LMML 020845Z 12007KT 9999 FEW018 15/12 Q1021 NOSIG=
200802020830 METAR LMML NIL=
200802020815 METAR LMML 020815Z 12005KT 9999 FEW018 15/13 Q1021 NOSIG=
200802020800 METAR LMML NIL=
200802020745 METAR LMML 020745Z VRB02KT 9999 FEW020 14/12 Q1021 NOSIG=
200802020730 METAR LMML NIL=
200802020715 METAR LMML 020715Z VRB02KT 9999 SCT020 12/11 Q1021 NOSIG=
200802020700 METAR LMML NIL=
200802020645 METAR LMML 020645Z VRB03KT 9999 SCT019 11/10 Q1020 NOSIG=
200802020630 METAR LMML NIL=
200802020615 METAR LMML 020615Z VRB02KT 9999 SCT019 11/10 Q1020 NOSIG=
200802020600 METAR LMML NIL=
200802020545 METAR LMML 020545Z VRB03KT 9999 FEW022 11/10 Q1020 NOSIG=
200802020530 METAR LMML NIL=
200802020515 METAR LMML 020515Z 17004KT 9999 FEW022 11/10 Q1020 NOSIG=
200802020445 METAR LMML 020445Z 15004KT 9999 FEW020 11/10 Q1020 NOSIG=
200802020430 METAR LMML NIL=
200802020415 METAR LMML 020415Z 16004KT 9999 FEW018 12/10 Q1020 NOSIG=
200802020400 METAR LMML NIL=
200802020345 METAR LMML 020345Z VRB03KT CAVOK 11/10 Q1020 NOSIG=
200802020330 METAR LMML NIL=
200802020315 METAR LMML 020315Z VRB03KT 9999 FEW018 11/10 Q1020 NOSIG=
200802020300 METAR LMML NIL=
200802020245 METAR LMML 020245Z VRB01KT 9999 FEW018 10/10 Q1020 NOSIG=
200802020230 METAR LMML NIL=
200802020215 METAR LMML 020215Z VRB02KT 9999 FEW025 09/09 Q1020 NOSIG=
200802020200 METAR LMML NIL=
200802020145 METAR LMML 020145Z VRB01KT 9999 FEW025 10/09 Q1021 NOSIG=
200802020130 METAR LMML NIL=
200802020115 METAR LMML 020115Z 00000KT 9999 FEW025 10/09 Q1021 NOSIG=
200802020100 METAR LMML NIL=
200802020045 METAR LMML 020045Z VRB01KT 9999 FEW025 10/09 Q1021 NOSIG=
200802020030 METAR LMML NIL=
200802020015 METAR LMML 020015Z VRB01KT 9999 FEW025 10/09 Q1021 NOSIG=
200802020000 METAR LMML NIL=
200802012345 METAR LMML 012345Z VRB01KT 9999 FEW025 10/09 Q1021 NOSIG=
200802012330 METAR LMML NIL=
200802012315 METAR LMML 012315Z VRB01KT 9999 FEW025 09/09 Q1022 NOSIG=
200802012300 METAR LMML NIL=
200802012245 METAR LMML 012245Z VRB01KT 9999 FEW025 10/09 Q1022 NOSIG=
200802012230 METAR LMML NIL=
200802012215 METAR LMML 012215Z VRB01KT 9999 FEW025 10/09 Q1022 NOSIG=
200802012200 METAR LMML NIL=
200802012145 METAR LMML 012145Z VRB02KT 9999 FEW025 10/09 Q1022 NOSIG=
200802012130 METAR LMML NIL=
200802012115 METAR LMML 012115Z VRB01KT 9999 FEW025 10/09 Q1022 NOSIG=
200802012100 METAR LMML NIL=
200802012045 METAR LMML 012045Z VRB02KT CAVOK 11/09 Q1022 NOSIG=
200802012030 METAR LMML NIL=
200802012015 METAR LMML 012015Z VRB02KT 9999 FEW024 11/10 Q1022 NOSIG=
200802012000 METAR LMML NIL=
200802011945 METAR LMML 011945Z VRB01KT 9999 FEW024 11/09 Q1022 NOSIG=
200802011930 METAR LMML NIL=
200802011915 METAR LMML 011915Z VRB02KT 9999 FEW024 12/09 Q1023 NOSIG=
200802011900 METAR LMML NIL=
200802011845 METAR LMML 011845Z VRB03KT 9999 FEW024 12/09 Q1023 NOSIG=
200802011830 METAR LMML NIL=
200802011815 METAR LMML 011815Z VRB03KT 9999 FEW030 12/09 Q1023 NOSIG=
200802011800 METAR LMML NIL=
200802011745 METAR LMML 011745Z VRB03KT 9999 FEW030 12/09 Q1022 NOSIG=
200802011730 METAR LMML NIL=
200802011715 METAR LMML 011715Z VRB03KT 9999 FEW030 12/09 Q1022 NOSIG=
200802011700 METAR LMML NIL=
200802011645 METAR LMML 011645Z 27004KT 9999 FEW035 13/09 Q1022 NOSIG=
200802011630 METAR LMML NIL=
200802011615 METAR LMML 011615Z 28004KT 9999 FEW035 14/09 Q1022 NOSIG=
200802011545 METAR LMML 011545Z 28005KT 9999 FEW034 15/09 Q1022 NOSIG=
200802011530 METAR LMML NIL=
200802011515 METAR LMML 011515Z 26007KT 220V290 9999 FEW034 15/09 Q1022
                        NOSIG=
200802011500 METAR LMML NIL=
200802011445 METAR LMML 011445Z 30006KT 260V330 9999 FEW034 15/09 Q1022
                        NOSIG=
200802011430 METAR LMML NIL=
200802011415 METAR LMML 011415Z 30009KT 9999 FEW034 15/09 Q1022 NOSIG=
200802011400 METAR LMML NIL=
200802011345 METAR LMML 011345Z 30010KT 9999 SCT029 15/09 Q1022 NOSIG=
200802011330 METAR LMML NIL=
200802011315 METAR LMML 011315Z 30009KT 9999 FEW027 15/10 Q1022 NOSIG=
200802011300 METAR LMML NIL=
200802011245 METAR LMML 011245Z 29006KT 260V330 9999 SCT028 16/10 Q1023
                        NOSIG=
200802011230 METAR LMML NIL=
200802011215 METAR LMML 011215Z 28007KT 9999 SCT031 15/10 Q1023 NOSIG=
200802011200 METAR LMML NIL=
200802011145 METAR LMML 011145Z 30006KT 240V340 9999 SCT026 BKN060 16/10
                        Q1023 NOSIG=
200802011130 METAR LMML NIL=
200802011115 METAR LMML 011115Z 30005KT 260V340 9999 SCT027 SCT060 16/10
                        Q1023 NOSIG=
200802011100 METAR LMML NIL=
200802011045 METAR LMML 011045Z 29007KT 9999 FEW027 BKN060 15/10 Q1024
                        NOSIG=
200802011030 METAR LMML NIL=
200802011015 METAR LMML 011015Z 30008KT 260V340 9999 SCT025 SCT060 15/10
                        Q1024 NOSIG=
200802011000 METAR LMML NIL=
200802010945 METAR LMML 010945Z 28007KT 250V310 9999 FEW025 SCT060 15/10
                        Q1024 NOSIG=
200802010930 METAR LMML NIL=
200802010915 METAR LMML 010915Z 29008KT 260V320 9999 FEW023 BKN060 15/10
                        Q1024 NOSIG=
200802010845 METAR LMML 010845Z 29005KT 260V320 9999 FEW023 BKN060 15/10
                        Q1024 NOSIG=
200802010830 METAR LMML NIL=
200802010815 METAR LMML 010815Z 29004KT 9999 FEW023 BKN048 14/10 Q1024
                        NOSIG=
200802010800 METAR LMML NIL=
200802010745 METAR LMML 010745Z 30004KT 9999 FEW023 BKN050 14/10 Q1024
                        NOSIG=
200802010730 METAR LMML NIL=
200802010715 METAR LMML 010715Z 28004KT 9999 FEW023 SCT050 13/10 Q1024
                        NOSIG=
200802010700 METAR LMML NIL=
200802010645 METAR LMML 010645Z 26004KT 230V290 9999 FEW026 SCT050 13/10
                        Q1023 NOSIG=
200802010630 METAR LMML NIL=
200802010615 METAR LMML 010615Z 26005KT CAVOK 12/10 Q1023 NOSIG=
200802010545 METAR LMML 010545Z 26005KT 9999 FEW024 SCT049 12/10 Q1023
                        NOSIG=
200802010530 METAR LMML NIL=
200802010515 METAR LMML 010515Z 25005KT 9999 FEW030 12/10 Q1023 NOSIG=
200802010500 METAR LMML NIL=
200802010445 METAR LMML 010445Z 26005KT 230V290 9999 FEW030 12/09 Q1023
                        NOSIG=
200802010430 METAR LMML NIL=
200802010415 METAR LMML 010415Z 26005KT 9999 FEW029 12/09 Q1023 NOSIG=
200802010400 METAR LMML NIL=
200802010345 METAR LMML 010345Z 25004KT 9999 FEW033 11/09 Q1023 NOSIG=
200802010330 METAR LMML NIL=
200802010315 METAR LMML 010315Z 27004KT 9999 FEW029 12/09 Q1023 NOSIG=
200802010300 METAR LMML NIL=
200802010245 METAR LMML 010245Z 27004KT 9999 FEW030 12/09 Q1023 NOSIG=
200802010230 METAR LMML NIL=
200802010215 METAR LMML 010215Z 26004KT 9999 FEW030 12/09 Q1023 NOSIG=
200802010200 METAR LMML NIL=
200802010145 METAR LMML 010145Z VRB03KT 9999 FEW030 11/09 Q1023 NOSIG=
200802010130 METAR LMML NIL=
200802010115 METAR LMML 010115Z 25004KT 9999 FEW030 11/09 Q1023 NOSIG=
200802010100 METAR LMML NIL=
200802010045 METAR LMML 010045Z 26004KT 9999 FEW030 11/09 Q1024 NOSIG=
200802010015 METAR LMML 010015Z 27004KT 9999 FEW030 12/09 Q1024 NOSIG=
200802010000 METAR LMML NIL=

###################################
#  short TAF from LMML
###################################
200803022300 TAF LMML 022300Z 030009 27015KT 9999 SCT018
                      PROB30 TEMPO 0006 BKN015=
200803022000 TAF LMML 022000Z 022106 29015G25KT 9999 SCT018
                      BECMG 2123 27015KT
                      PROB30 TEMPO 0006 8000 BKN015=
200803021700 TAF LMML 021700Z 021803 28015G25KT 9999 SCT017
                      BECMG 2023 27015KT PTOB30 TRMPO 1803 8000
                       BKN014=
200803021400 TAF LMML 021400Z 021524 28017G27KT 9999 SCT017
                      BECMG 1720 28015
                      PROB30 TE MPO 1824 8000 BKN010=
200803021100 TAF LMML 021100Z 021221 28016G26KT 9999 FEW018 SCT025
                      BECMG 1719 28015KT=
200803020800 TAF LMML 020800Z 020918 28016G26KT 9999 FEW018 SCT035
                      BECMG 1518 28015KT=
200803020500 LMML 020500Z 020615 28015G25KT 9999 SCT020 SCT240=
200803020200 TAF LMML 020200Z 020312 28015G25KT 9999 SCT020 BKN200
                      PROB30 TEMPO 0312 9 000 -SHRA BKN015=
200803012300 TAF LMML 012300Z 020009 28015G25KT 9999 SCT020 BKN200=
200803012000 TAF LMML 012000Z 012106 28015G25KT 9999 SCT020 BKN200=
200803011700 TAF LMML 011700Z 011803 30015G25KT 9999 SCT018
                      TEMPO 1803 8000 BKN011 BKN 025=
200803011400 TAF LMML 011400Z 011524 30015G25KT 9999 SCT018
                      PROB30 TEMPO 2100 8000 BKN 011=
200803011100 TAF LMML 011100Z 011221 30015KT 9999 SCT018 BKN027
                      BECMG 1821 30015G25KT=
200803010800 TAF LMML 010800Z 010918 30015KT 9999 SCT018=
200803010500 TAF LMML 010500Z 010615 29013KT 9999 SCT018=
200803010200 TAF LMML 010200Z 010312 29010KT 9999 FEW020
                      TEMPO 0306 6000
                      PROB30 TEMPO 0306 3000 BR BKN011=
200802292300 TAF LMML 292300Z 010009 29006KT 9999 FEW015
                      TEMPO 0006 6000
                      PROB30 TEMPO 0006 3000 BR BKN011=
200802292000 TAF LMML 292000Z 292106 29006KT 9999 FEW015
                      PROB30 TEMPO 0006 8000=
200802291700 TAF LMML 291700Z 291803 28007KT 9999 SCT015 BKN050
                      TEMPO 1803 9000 -SHRA BKN013
                      PROB30 TEMPO 0003 5000 BKN010=
200802291400 TAF LMML 291400Z 291524 25008KT 9999 SCT018
                      TEMPO 1524 BKN015
                      PROB30 TEMP O 1824 7000 BKN008=
200802291100 TAF LMML 291100Z 291221 24007KT 9999 SCT020
                      TEMPO 1821 9000 BKN015=
200802290800 TAF LMML 290800Z 290918 25006KT 9999 SCT020=
200802290500 TAF LMML 290500Z 290615 30005KT 7000 SCT020
                      BECMG 0609 9999 BKN018=
200802290200 TAF LMML 290200Z 290312 VRB03KT 8000 BKN014
                      PROB40 TEMPO 0307 3000 BR BKN 008
                      BECMG 0710 9999 SCT020=
200802282300 TAF LMML 282300Z 290009 VRB03KT 8000 FEW015
                      PROB40 TEMPO 0007 5000 BR BKN 008
                      PROB30 TEMPO 0307 3000 BR=
200802282000 TAF LMML 282000Z 282106 VRB03KT 8000 BKN016
                      PROB30 TEMPO 0006 3000 BR BKN 007=
200802281700 TAF LMML 281700Z 281803 VRB03KT 9999 FEW015
                      TEMPO 2103 7000 BKN007
                      PROB30 TEMPO 2303 3000BR=
200802281400 TAF LMML 281400Z 281524 VRB03KT 9999 FEW020
                      TEMPO 2124 7000 BKN007
                      PROB30 TEMPO 2224 3000 BR=
200802281100 LMML NIL=
200802280800 TAF LMML 280800Z 280918 VRB03KT 9999 FEW018=
200802280500 TAF LMML 280500Z 280615 35005KT 9999 SCT020=
200802280200 TAF LMML 280200Z 280312 34006KT 9999 SCT020
                      TEMPO 0306 600 BR SCT008=
200802272300 TAF LMML 272300Z 280009 30006KT 9999 SCT015
                      TEMPO 0006 6000 BR SCT008=
200802272000 TAF LMML 272000Z 272106 30006KT 9999 SCT011
                      TEMPO 6000 BR SCT008=
200802271700 TAF LMML 271700Z 271803 30008KT 9999 FEW015
                      BECMG 1821 30006KT
                      TEMPO 1803 8000
                      PROB30 TEMPO 2003 5000 BR BKN007=
200802271400 TAF LMML 271400Z 271524 27008KT 9999 SCT015
                      PROB40 TEMPO 1824 BKN010 BECM G 1518 31010KT=
200802271100 TAF LMML 271100Z 271221 24008KT 9999 FEW015
                      BECMG 1518 31010KT
                      PROB40 TEM PO 1821 BKN010=
200802270800 TAF LMML 270800Z 270918 24006KT 9999 FEW015 BKN120=
200802270500 TAF LMML 270500Z 270615 23006KT 9999 SCT015 SCT120 BKN250=
200802270200 TAF LMML 270200Z 270312 24006KT 9999 FEW012 SCT120 BKN250
                      PROB30 TEMPO 03 06 5000 BR BKN004=
200802262300 TAF LMML 262300Z 270009 24006KT 9999 FEW008 SCT120 BKN250
                      PROB30 TEMPO 00 06 5000 BR BKN004=
200802262000 TAF LMML 262000Z 262106 23004KT 9999 FEW008 SCT120 BKN250
                      PROB30 TEMPO 21 06 5000 BR BKN004=
200802261700 TAF LMML 261700Z 261803 20008KT 9999 FEW012
                      PROB30 TEMPO 0003 5000 BR SCT 008=
200802261400 TAF LMML 261400Z 261524 22008KT 9999 FEW014=
200802261100 TAF LMML 261100Z 261221 22008KT 9999 FEW014=
200802260800 TAF LMML 260800Z 260918 23006KT 9999 FEW020=
200802260500 TAF LMML 260500Z 260615 24006KT 9999 FEW020=
200802260200 TAF LMML 260200Z 260312 24005KT 9999 FEW020
                      PROB30 TEMPO 0306 5000 MIFG=
200802252300 TAF LMML 252300Z 260009 24005KT 9999 FEW020
                      PROB30 TEMPO 0006 5000 MIFG=
200802252000 TAF LMML 252000Z 252106 24005KT 9999 FEW020
                      PROB30 TEMPO 0206 5000 MIFG=
200802251700 TAF LMML 251700Z 251803 25004KT 9999 FEW015
                      PROB30 TEMPO 0003 5000 BR BKN 008=
200802251400 TAF LMML 251400Z 251524 24007KT 9999 SCT018=
200802251100 TAF LMML 251100Z 251221 24006KT 9999 FEW018=
200802250800 TAF LMML 250800Z 250918 30005KT 9999 FEW015=
200802250500 TAF LMML 250500Z 250615 27005KT 9999 FEW020=
200802250200 TAF LMML 250200Z 250312 VRB03KT 7000 FEW015
                      TEMPO 0309 4000 BR
                      PROB40 TEM PO 0307 1500 MIFG=
200802242300 TAF LMML 242300Z 250009 VRB03KT 9999 FEW016
                      PROB40 TEMPO 0009 7000 BKN007
                      PROB30 TEMPO 0306 2000 MIFG BKN005=
200802242000 TAF LMML 242000Z 242106 VRB03KT 9999 FEW016
                      PROB40 TEMPO 2106 7000 BKN007
                      PROB30 TEMPO 0306 2000 BR=
200802241700 TAF LMML 241700Z 241803 VRB03KT 9999 SCT015
                      PROB40 TEMPO 1803 8000 BKN005=
200802241400 TAF LMML 241400Z 241524 06004KT 9999 SCT018
                      PROB30 TEMPO 2124 8000 SCT012=
200802241100 TAF LMML 241100Z 241221 35004KT 9999 SCT018=
200802240800 TAF LMML 240800Z 240918 35004KT 9999 FEW025=
200802240500 TAF LMML 240500Z 240615 VRB03KT 9999 FEW020=
200802240200 TAF LMML 240200Z 240312 VRB03KT CAVOK
                      TEMPO 0306 3000 BR SCT010=
200802232300 TAF LMML 232300Z 240009 VRB03KT 9999 FEW025
                      PROB30 TEMPO 0006 6000 SCT020=
200802232000 TAF LMML 232000Z 232106 VRB03KT 9999 FEW025
                      PROB30 TEMPO 2106 7000 SCT020=
200802231700 TAF LMML 231700Z 231803 02004KT 9999 FEW020
                      PROB30 TEMPO 0003 7000=
200802231400 TAF LMML 231400Z 231524 04005KT 9999 FEW020 SCT070
                      PROB30 TEMPO 1517 8000 SHRA=
200802231100 TAF LMML 231100Z 231221 03005KT 9999 FEW020 SCT050
                      PROB30 TEMPO 1215 8000 SHRA BKN015=
200802230800 TAF LMML 230800Z 230918 03005KT 9999 FEW028 SCT050
                      PROB40 TEMPO 0915 8000 SHRA BKN015
                      PROB30 TEMPO 0912 5000 TSGR BKN012CB=
200802230500 TAF LMML 230500Z 230615 03005KT 9999 SCT018 SCT080
                      TEMPO 0607 5000 BR BKN 005
                      TEMPO 0615 7000 SHRA BKN012=
200802230200 TAF LMML 230200Z 230312 VRB03KT 9999 SCT015 BKN080
                      TEMPO 0312 7000 SHRA B KN013
                      PROB30 TEMPO 0306 5000 TSRA BKN005 BKN015CB=
200802222300 TAF LMML 222300Z 230009 VRB03KT 9999 SCT012 BKN080
                      TEMPO 0009 7000 SHRA B KN015
                      PROB30 TEMPO 0006 5000 TSRA BKN005 BKN015CB=
200802222000 TAF LMML 222000Z 222106 VRB03KT 9999 SCT011 BKN080
                      TEMPO 2106 7000 SHRA B KN015
                      PROB30 TEMPO 2106 5000 TSRA BKN004 BKN015CB=
200802221700 TAF LMML 221700Z 221803 36005KT 9999 FEW015 SCT040
                      PROB30 TEMPO 1803 7000 SHRA SCT010=
200802221400 TAF LMML 221400Z 221524 VRB03KT 9999 FEW014 SCT040
                      PROB30 TEMPO 1524 7000 SHRA SCT010=
200802221100 TAF LMML 221100Z 221221 VRB03KT 9999 FEW014 SCT050
                      PROB30 TEMPO 1218 7000 RA SCT012=
200802220800 TAF LMML 220800Z 220918 VRB03KT 9999 FEW012 SCT050
                      PROB30 TEMPO 0918 7000 RA SCT010=
200802220500 TAF LMML 220500Z 220615 18005KT 9999 FEW012 SCT045=
200802220200 TAF LMML 220200Z 220312 VRB03KT 9999 FEW012
                      PROB40 TEMPO 0307 8000 BKN005=
200802212300 TAF LMML 212300Z 220009 VRB03KT 9999 FEW018 BKN100
                      PROB30 TEMPO 0006 7000 RA BKN005=
200802212000 TAF LMML 212000Z 212106 VRB03KT 9999 FEW018 BKN080
                      PROB30 TEMPO 0006 7000 RA BKN005=
200802211700 TAF LMML 211700Z 211803 17005KT 9999 FEW015 SCT070
                      PROB30 TEMPO 0003 7000 RA BKN005=
200802211400 TAF LMML 211400Z 211524 17005KT 9999 SCT015 SCT070=
200802211100 TAF LMML 211100Z 211221 16007KT 9999 FEW015 BKN100=
200802210800 TAF LMML 210800Z 210918 19008KT 9999 FEW012 BKN100
                      PROB30 TEMPO 0915 8000 RA=
200802210500 TAF LMML 210500Z 210615 18008KT CAVOK=
200802210200 TAF LMML 210200Z 210312 18010KT 9999 FEW035 BKN090=
200802202300 LMML 202300Z 202106 18010KT 9999 FEW030 BKN090=
200802202000 TAF LMML 202000Z 202106 18010KT 9999 FEW030 BKN090=
200802201700 TAF LMML 201700Z 201803 16006KT CAVOK
                      PROB30 TEMPO 1803 FEW045 SCT100=
200802201400 TAF LMML 201400Z 201524 16012KT CAVOK
                      PROB30 TEMPO 1524 FEW025 SCT100=
200802201100 TAF LMML 201100Z 201221 18012KT CAVOK
                      TEMPO 1221 FEW045 BKN100=
200802200800 TAF LMML 200800Z 200918 18015KT 9999 FEW033 SCT100=
200802200500 TAF LMML 200500Z 200615 18015KT 9999 FEW030 SCT080=
200802200200 TAF LMML 200200Z 200312 18012KT 9999 SCT030 SCT080=
200802192300 TAF LMML 192300Z 200009 18010KT 9999 SCT030=
200802192000 TAF LMML 192000Z 192106 19008KT 9999 BKN030=
200802191700 TAF LMML 191700Z 191803 19008KT 9999 SCT030=
200802191400 TAF LMML 191400Z 191524 22007KT 9999 SCT030=
200802191100 TAF LMML 191100Z 191221 22007KT 9999 SCT030=
200802190800 TAF LMML 190800Z 190918 24005KT 9999 SCT030=
200802190500 TAF LMML 190500Z 190615 24007KT 9999 SCT030=
200802190200 TAF LMML 190200Z 190312 26005KT 9999 SCT030=
200802182300 TAF LMML 182300Z 190009 26005KT 9999 SCT030=
200802182000 TAF LMML 182000Z 182106 28005KT 9999 FEW030=
200802181700 TAF LMML 181700Z 181803 28008KT 9999 SCT030=
200802181400 TAF LMML 181400Z 181524 27008KT 9999 FEW035=
200802181100 TAF LMML 181100Z 181221 29005KT 9999 FEW035=
200802180800 TAF LMML 180800Z 180918 29005KT 9999 SCT035=
200802180500 TAF LMML 180500Z 180618 32005KT 9999 SCT035=
200802180200 TAF LMML 180200Z 180312 30005KT 9999 SCT040=
200802172300 TAF LMML 172300Z 180009 VRB03KT 9999 SCT045=
200802172000 TAF LMML 172000Z 172106 VRB03KT 9999 SCT045
                      PROB30 TEMPO 1824 9000 SHRA=
200802171700 TAF LMML 171700Z 171803 34007KT 9999 BKN040
                      PROB30 TEMPO 1822 9000 RA=
200802171400 TAF LMML 171400Z 171524 01014KT 9999 BKN040
                      PROB30 TEMPO 1822 9000 RA=
200802171100 TAF LMML 171100Z 171221 02015G25KT 9999 BKN040
                      BECMG 1518 02015KT=
200802170800 TAF LMML 170800Z 170918 02015G25KT 9999 BKN040
                      BECMG 1316 02015KT=
200802170500 TAF LMML 170500Z 170615 03015G25KT 9999 BKN040
                      BECMG 1215 03010KT=
200802170200 TAF LMML 170200Z 170312 02015KT 9999 SCT035=
200802162300 TAF LMML 162300Z 170009 03015KT 9999 FEW025 SCT040=
200802162000 TAF LMML 162000Z 162106 04008KT 9999 FEW025 SCT050=
200802161700 TAF LMML 161700Z 161803 05008KT 9999 FEW030=
200802161400 TAF LMML 161400Z 161524 06016KT 9999 FEW030=
200802161100 TAF LMML 161100Z 161221 06018KT 9999 FEW025=
200802160800 TAF LMML 160800Z 160918 06018KT 9999 SCT018=
200802160500 TAF LMML 160500Z 160615 04020G30KT 9999 SCT018
                      TEMPO 0315 7000 RA BKN010=
200802160200 TAF LMML 160200Z 160312 04020G30KT 9999 SCT018
                      TEMPO 0312 7000 RA BKN012
                      PROB30 TEMPO 0306 5000 SCT005=
200802160055 LMML 160055Z 160109 03010KT 9999 SCT015
                      TEMPO 0109 7000 RA BKN015
                      BECMG 0103 04020G30KT
                      PROB30 TEMPO 0106 5000 BKN003=
200802152300 LMML 160055Z 160109 03010KT 9999 SCT015
                      TEMPO 0109 7000 RA BKN015
                      BECMG 0103 04020G30KT
                      PROB30 TEMPO 0106 5000 BKN003=
200802152000 TAF LMML 152000Z 152106 18010KT 9999 BKN018
                      TEMPO 2106 7000 RA OVC015 BEC MG 2303 04020G30KT=
200802151700 TAF LMML 151700Z 151803 18010KT 9999 FEW018 BKN040
                      TEMPO 1803 7000 RA BKN 015
                      PROB30 TEMPO 2203 5000 TSGR BKN015CB
                      BECMG 0003 04020G30KT=
200802151400 TAF LMML 151400Z 151524 18012KT 9999 FEW015 SCT040 BKN080
                      TEMPO 1524 7000 RA BKN015=
200802151100 TAF LMML 151100Z 151221 16008KT 9999 FEW020 SCT040 BKN080
                      TEMPO 1221 7000 RA=
200802150800 TAF LMML 150800Z 150918 17008KT 9999 SCT025 BKN040 OVC080
                      TEMPO 0918 7000 RA=
200802150500 TAF LMML 150500Z 150615 16008KT 9999 SCT015 BKN040 OVC090
                      TEMPO 0615 8000 RA=
200802150200 TAF LMML 150200Z 150312 16007KT 9999 SCT020 SCT040 BKN090
                      TEMPO 0612 8000 RA BKN015=
200802142300 TAF LMML 142300Z 150009 16005KT 9999 FEW020 BKN040 BKN080
                      TEMPO 0609 8000 RA=
200802142000 TAF LMML 142000Z 142106 19004KT 9999 FEW020 BKN040=
200802141700 TAF LMML 141700Z 141803 18006KT 9999 SCT030=
200802141400 TAF LMML 141400Z 141524 18006KT 9999 SCT030=
200802141100 TAF LMML 141100Z 141221 VRB03KT 9999 SCT030=
200802140800 TAF LMML 140800Z 140918 VRB03KT 9999 SCT030=
200802140500 TAF LMML 140500Z 140615 VRB03KT 9999 FEW025=
200802140200 TAF LMML 140200Z 140312 VRB02KT 9999 SCT020=
200802132300 TAF LMML 132300Z 140009 VRB03KT 9999 SCT018=
200802132000 TAF LMML 132000Z 132106 VRB03KT 9999 SCT018=
200802131700 TAF LMML 131700Z 131803 06005KT 9999 SCT020=
200802131400 TAF LMML 131400Z 131524 06008KT 9999 SCT025=
200802131100 TAF LMML 131100Z 131221 08007KT 9999 SCT025
                      PROB30 TEMPO 1215 8000 SHRA=
200802130800 TAF LMML 130800Z 130918 04005KT 9999 SCT020
                      TEMPO 0915 7000 SHRA BKN015 P ROB30
                      TEMPO 0912 5000 TSGR BKN015CB=
200802130500 TAF LMML 130500Z 130615 03006KT 9999 SCT025
                      PROB40 TEMPO 0612 8000 SHRA B KN018
                      PROB30 TEMPO 0612 5000 TSGR BKN015CB=
200802130200 TAF LMML 130200Z 130312 VRB03KT 9999 FEW025
                      PROB40 TEMPO 0312 8000 SHRA B KN018
                      PROB30 TEMPO 0312 5000 TSGR BKN015CB=
200802122300 TAF LMML 122300Z 130009 VRB03KT 9999 FEW015 SCT030
                      TEMPO 0009 8000 SHRA B KN015
                      PROB30 TEMPO 0009 5000 TSGR BKN012CB=
200802122000 TAF LMML 122000Z 122106 VRB03KT 9999 FEW020
                      PROB40 2106 8000 SHRA BKN018
                      PROB30 TEMPO 2106 5000 TSGR BKN015CB=
200802121700 TAF LMML 121700Z 121803 VRB03KT 9999 FEW030
                      PROB40 TEMPO 1803 8000 SHRA B KN020
                      PROB30 TEMPO 1803 5000 TSGR BKN018CB=
200802121400 TAF LMML 121400Z 121524 VRB03KT 9999 FEW030
                      PROB40 TEMPO 1524 8000 SHRA B KN020=
200802121100 TAF LMML 121100Z 121221 VRB03KT 9999 FEW030
                      TEMPO 1221 8000 SHGR BKN018 P ROB30
                      TEMPO 1221 5000 TSGR BKN018CB=
200802120800 TAF LMML 120800Z 120918 VRB03KT 9999 FEW030
                      TEMPO 0918 8000 SHGR BKN015 P ROB30
                      TEMPO 0912 TSGR BKN015CB=
200802120500 TAF LMML 120500Z 120615 VRB03KT 9999 SCT030
                      TEMPO 0615 8000 SHRA BKN025 P ROB30
                      TEMPO 0612 5000 TSGR BKN018CB=
200802120200 TAF LMML 120200Z 120312 02006KT 9999 SCT030
                      TEMPO 0312 8000 SHRA BKN025 P ROB30
                      TEMPO 0309 5000 TSGR BKN018CB=
200802112300 TAF LMML 112300Z 120009 03006KT 9999 SCT030
                      TEMPO 0009 8000 SHRA BKN025 P ROB30
                      TEMPO 0009 5000 TSGR BKN018CB=
200802112000 TAF LMML 112000Z 112106 VRB03KT 9999 SCT030
                      TEMPO 2106 8000 SHRA BKN025 P ROB30
                      TEMPO 2106 5000 TSGR BKN018CB=
200802111700 TAF LMML 111700Z 111803 VRB03KT 9999 FEW025 SCT090 TEPO 1803 8000
                       SHRA BK N020
                      PROB40 TEMPO 1803 5000 TSRA BKN018CB=
200802111400 TAF LMML 111400Z 111524 VRB03KT 9999 FEW040 SCT050
                      PROB30 TEMPO 1524 8000 SHRA BKN020=
200802111100 TAF LMML 111100Z 111221 06006KT 9999 FEW020 SCT030
                      PROB30 TEMPO 8000 SHRA=
200802110800 TAF LMML 110800Z 110918 03006KT 9999 FEW030 SCT040
                      TEMPO 0915 7000 SHRA B KN018
                      TEMPO 0915 5000 TSGR BKN015CB=
200802110500 TAF LMML 110500Z 110615 04007KT 9999 SCT020
                      TEMPO 0615 7000 SHRA BKN015 P ROB30
                      TEMPO 0612 5000 TSGR BKN015CB=
200802110200 TAF LMML 110200Z 110312 04007KT 9999 SCT030 BKN070
                      PROB30 TEMPO 0312 7000 SHRA BKN015=
200802102300 TAF LMML 102300Z 110009 02005KT 9999 SCT030 BKN050
                      PROB30 TEMPO 0009 6000 SHRA BKN015=
200802102000 TAF LMML 102000Z 102106 35004KT 9999 SCT030 BKN060
                      TEMPO 2106 6000 SHRA B KN015=
200802101700 TAF LMML 101700Z 101803 02006KT 9999 SCT030
                      PROB30 TEMPO 1803 8000 SHRA S CT025=
200802101400 TAF LMML 101400Z 101524 02006KT 9999 SCT030
                      PROB30 1824 8000 SHRA SCT025=
200802101100 TAF LMML 101100Z 101221 36006KT 9999 SCT030=
200802100800 LMML 100800Z 100918 VRB03KT 9999 SCT025
                      TEMPO 36006KT=
200802100500 LMML 100500Z 100615 03006KT 9999 SCT025
                      PROB30 TEMPO 0615 8000 SHRA=
200802100200 TAF LMML 100200Z 100312 03006KT 9999 SCT020
                      PROB40 TEMPO 0312 8000 SHRA=
200802092300 TAF LMML 092300Z 100009 03006KT 9999 SCT030
                      PROB40 TEMPO 0009 8000 SHRA=
200802092000 TAF LMML 092000Z 092106 03005KT 9999 SCT030
                      PROB40 TEMPO 2106 8000 SHRA=
200802091700 LMML 091700Z 091803 04008KT 9999 SCT025
                      PROB30 TEMPO 1803 8000 SHRA=
200802091400 LMML 091400Z 091524 03015KT 9999 SCT020=
200802091100 TAF LMML 091100Z 091221 03015G25KT 9999 SCT020
                      PROB30 TEMPO 1221 SHRA BKN 015
                      BECMG 1518 03010KT=
200802090800 TAF LMML 090800Z 090918 03017G27KT 9999 SCT020 BKN040
                      PROB30 TEMPO 0918 8 000 SHRA BKN015
                      BECMG 1417 03010KT=
200802090500 TAF LMML 090500Z 090615 02016G26KT 9999 SCT030
                      PROB30 TEMPO 0615 8000 SHR A BKN018=
200802090200 TAF LMML 090200Z 090312 02020G30KT 9999 SCT025
                      PROB30 TEMPO 0312 7000 SHR A BKN025=
200802082300 TAF LMML 082300Z 090009 02020G30KT 9999 SCT020 BKN040
                      TEMPO 0009 8000 SHR A
                      PROB30 TEMPO 0009 5000 TSGR BKN012CB=
200802082000 TAF LMML 082000Z 082106 02022G32KT 9999 SCT018 BKN080
                      TEMPO 2106 6000 RA BKN015
                      PROB30 TEMPO 2106 4000 TSGR BKN012CB=
200802081700 TAF LMML 081700Z 081803 02020KT 9000 FEW018
                      TEMPO 1803 6000 RA SCT012 BKN 018
                      PROB30 TEMPO 1803 5000 TSGR BKN015CB=
200802081400 TAF LMML 081400Z 081524 03020G30KT 9999 SCT025
                      TEMPO 1524 8000 SHRA BKN01 5
                      PROB40 TEMPO 1524 5000 TSGR BKN015CB=
200802081100 TAF LMML 081100Z 081221 33018KT 9999 SCT030
                      PROB40 TEMPO 1221 8000 SHRA B KN018
                      PROB30 TEMPO 1221 5000 TSRA BKN015CB 1518
                       03020G30KT=
200802080800 TAF LMML 080800Z 080918 33018KT 9999 SCT030
                      PROB40 TEMPO 0918 8000 SHRA B KN020
                      PROB30 TEMPO 1218 5000 TSGR BKN018CB
                      BECMG 1518 03018KT=
200802080500 TAF LMML 080500Z 080615 34020G30KT 9999 SCT025
                      TEMPO 7000 SHRA BKN020 PRO B40
                      TEMPO 1215 4000 TSGR BKN012CB=
200802080200 TAF LMML 080200Z 080312 35020G30KT 9999 SCT025
                      TEMPO 0312 7000 SHRA BKN02 5=
200802072300 TAF LMML 072300Z 080009 34020G30KT 9999 SCT025
                      TEMPO 0009 7000 SHRA BKN01 5=
200802072000 TAF LMML 072000Z 072106 34020G30KT 9999 SCT023
                      TEMPO 2106 7000 SHRA BKN01 5
                      PROB30 TEMPO 2106 5000 TSGR BKN012CB=
200802071700 TAF LMML 071700Z 071803 31020KT 9999 SCT018
                      TEMPO 1803 7000 SHRA BKN013 P ROB40
                      TEMPO 1803 4000 TSGR BKN012 CB
                      BECMG 2023 34025G35KT=
200802071400 TAF LMML 071400Z 071524 29022G32KT 9999 SCT020
                      BECMG 1720 33025G35KT
                      PROB 30
                      TEMPO 1724 8000 SHRA BKN015=
200802071100 TAF LMML 071100Z 071221 30017G27KT 9999 SCT030
                      BECMG 1619 34023G33KT
                      PROB 30
                      TEMPO 1721 8000 SHRA BKN015=
200802070800 TAF LMML 070800Z 070918 31015KT 9999 SCT020
                      BECMG 0912 31015G25KT
                      PROB30 TEMPO 1418 8000 SHRA BKN015=
200802070500 TAF LMML 070500Z 070615 30010KT 9999 SCT020
                      BECMG 0609 31015G25KT=
200802070200 TAF LMML 070200Z 070312 28010KT 9999 FEW020
                      BECMG 0609 31015G25KT=
200802062300 TAF LMML 062300Z 070009 28010KT 9999 FEW020
                      BECMG 0609 30015G25KT=
200802062000 TAF LMML 062000Z 062106 29008KT 9999 FEW020=
200802061700 TAF LMML 061700Z 061803 33012KT 9999 FEW025=
200802061400 TAF LMML 061400Z 061524 32012KT 9999 FEW025=
200802061100 TAF LMML 061100Z 061221 32012KT 9999 FEW025=
200802060800 TAF LMML 060800Z 060918 31010KT 9999 FEW025=
200802060500 TAF LMML 060500Z 060615 31010KT 9999 FEW025=
200802060200 TAF LMML 060200Z 060312 30006KT 9999 FEW025=
200802052300 TAF LMML 052300Z 060009 30008KT 9999 FEW025=
200802052000 TAF LMML 052000Z 052106 32010KT 9999 FEW030=
200802051700 TAF LMML 051700Z 051803 31013KT 9999 FEW020 SCT035=
200802051400 TAF LMML 051400Z 051524 31015KT 9999 SCT025=
200802051100 TAF LMML 051100Z 051221 31015KT 9999 SCT015 SCT150=
200802050800 TAF LMML 050800Z 050918 25008KT 9999 SCT015 BKN150
                      BECMG 0912 31015KT=
200802050500 TAF LMML 050500Z 050615 24010KT 9999 FEW017
                      BECMG 0912 31015KT=
200802050200 TAF LMML 050200Z 050312 21008KT 9999 FEW013
                      BECMG 0306 27010KT=
200802042345 TAF LMML 042345Z 050009 20008KT 9999 FEW013
                      BECMG 0306 27010KT=
200802042300 LMML NIL=
200802042000 TAF LMML 042000Z 042106 20006KT 9999 FEW016
                      PROB30 TEMPO 2106 BKN014 BECM G 0306 27010KT=
200802041700 TAF LMML 041700Z 041803 VRB03KT 9999 FEW018
                      PROB30 TEMPO 2103 BKN015=
200802041400 TAF LMML 041400Z 041524 19005KT 9999 FEW025=
200802041100 TAF LMML 041100Z 041221 19008KT 9999 FEW025=
200802040800 TAF LMML 040800Z 040918 18008KT 9999 FEW025=
200802040500 TAF LMML 040500Z 040615 17008KT 9999 SCT025
                      PROB30 TEMP 0615 BKN020=
200802040200 TAF LMML 040200Z 040312 16008KT 9999 SCT020=
200802032300 TAF LMML 032300Z 040009 16008KT 9999 SCT018 SCT060
                      PROB30 TEMPO BKN018=
200802032000 TAF LMML 032000Z 032106 14008KT CAVOK
                      PROB30 TEMPO 2106 BKN030=
200802031700 TAF LMML 031700Z 031803 14010KT 9999 FEW030
                      PROB30 TEMPO 2003 BKN025=
200802031400 TAF LMML 031400Z 031524 12008KT 9999 FEW030
                      PROB30 TEMPO 2024 BKN025=
200802031100 TAF LMML 031100Z 031221 12010KT 9999 FEW030=
200802030800 TAF LMML 030800Z 030918 14008KT 9999 SCT030=
200802030500 TAF LMML 030500Z 030615 14008KT 9999 SCT025=
200802030200 TAF LMML 030200Z 030312 14008KT 9999 SCT020
                      PROB30 TEMPO 0306 7000=
200802022300 TAF LMML 022300Z 030009 14007KT 9999 FEW020
                      TEMPO 0106 7000=
200802022000 TAF LMML 022000Z 022106 13005KT 9999 FEW020
                      PROB30 TEMPO 0106 5000 MIFG=
200802021700 TAF LMML 021700Z 021803 16008KT 9999 SCT015=
200802021400 TAF LMML 021400Z 021524 16008KT 9999 SCT020=
200802021100 TAF LMML 021100Z 021221 15008KT 9999 SCT020=
200802020800 TAF LMML 020800Z 020918 15008KT 9999 SCT020=
200802020500 TAF LMML 020500Z 020615 16008KT 9999 FEW020=
200802020200 TAF LMML 020200Z 020312 VRB03KT 9999 FEW020
                      PROB30 TEMPO 0306 8000=
200802012300 TAF LMML 012300Z 020009 VRB03KT 9999 FEW020=
200802012000 TAF LMML 012000Z 012106 20004KT 9999 FEW018=
200802011700 TAF LMML 011700Z 011803 24005KT 9999 FEW020 SCT040=
200802011400 TAF LMML 011400Z 011524 30008KT 9999 FEW020 SCT040=
200802011100 TAF LMML 011100Z 011221 29008KT 9999 SCT020 BKN050=
200802010800 TAF LMML 010800Z 010918 29008KT 9999 SCT020 BKN045=
200802010500 TAF LMML 010500Z 010615 28005KT 9999 SCT025=
200802010200 TAF LMML 010200Z 010312 28004KT 9999 FEW025
                      BECMG 0912 3000KT=

###################################
#  large TAF from LMML
###################################
200803022300 TAF LMML 022300Z 030606 27012KT 9999 SCT018=
200803021700 TAF LMML 021700Z 030024 27015KT 9999 SCT018
                      PROB30 TEMPO 0008 BKN013 BECM G 1518 23010KT=
200803021100 TAF LMML 021100Z 021818 28015KT 9999 SCT018
                      PROB30 TEMPO 1809 8000 BKN010
                      BECMG 1518 21010KT=
200803020500 TAF LMML 020500Z 021212 28015G25KT 9999 SCT020
                      BECMG 1518 28015KT
                      PROB30 TEMPO 1809 9000 BKN010=
200803012300 TAF LMML 012300Z 020606 28017G27KT 9999 SCT020
                      BECMG 1821 28015KT=
200803011700 TAF LMML 011700Z 020024 30015G25KT 9999 SCT018
                      TEMPO 0006 8000 BKN011 BKN 025
                      BECMG 1215 30015KT=
200803011100 TAF LMML 011100Z 011818 30015G25KT 9999 SCT015
                      BECMG 1215 30015KT
                      PROB30 TEMPO 2106 8000 BKN011=
200803010500 TAF LMML 010500Z 011212 30017KT 9999 SCT018
                      PROB40 TEMPO 1807 8000 BKN011=
200802292300 TAF LMML 292300Z 010606 30014KT 9999 FEW020
                      TEMPO 2106 8000
                      PROB30 TEMPO 2106 5000 BR BKN009=
200802291700 TAF LMML 291700Z 010024 27006KT 9999 SCT015 BKN050
                      TEMPO 0006 9000 -SHRA BKN013
                      PROB30 TEMPO 0006 5000 BKN010
                      BECMG 0609 28016KT=
200802291100 TAF LMML 291100Z 291818 23006KT 9999 SCT015
                      TEMPO 1806 9000 BKN015
                      PROB30 TEMPO 2106 5000 BKN010
                      BECMG 0609 29014KT=
200802290500 TAF LMML 290500Z 291212 29006KT 9999 SCT020
                      TEMPO 1212 BKN017
                      PROB40 TEMP O 1806 8000 BKN008=
200802282300 TAF LMML 282300Z 290606 30005KT 9999 SCT018
                      TEMPO 1506 BKN015
                      PROB40 TEMP O 1806 7000 BKN007
                      PROB30 TEMPO 0306 3000 BR=
200802281700 TAF LMML 281700Z 290024 VRB03KT 9999 SCT020 SCT050
                      TEMPO 0007 7000 BKN007
                      PROB30 TEMPO 0006 3000 BR=
200802281100 TAF LMML 281100Z 281818 VRB03KT 9999 FEW020
                      TEMPO 2107 7000 BKN007
                      PROB30 TEMPO 0006 300 BR=
200802280500 TAF LMML 280500Z 281212 03005KT 9999 SCT025
                      PROB30 TEMPO 0006 6000 BR SCT 010=
200802272300 TAF LMML 272300Z 280606 35006KT 9999 SCT020
                      PROB30 TEMPO 0006 6000 BR SCT 010=
200802271700 TAF LMML 271700Z 280024 31006KT 9999 FEW015
                      BECMG 0205 36005KT
                      TEMPO 0006 8000
                      PROB30 TEMPO 0006 5000 BR BKN007=
200802271100 TAF LMML 271100Z 271818 31008KT 9999 SCT013
                      TEMPO 1809 BKN010
                      BECMG 0306 04005KT
                      PROB40 TEMPO 0006 5000 BR BKN004=
200802270500 TAF LMML 270500Z 271212 25008KT 9999 SCT018 SCT120
                      BECMG 1518 31010KT TEM PO 1806 8000 BKN010
                       BECMG 0306 01005KT
                      PROB30 TEMPO 0006 5000 BR BKN0 04=
200802262300 TAF LMML 262300Z 270606 24006KT 9999 SCT015
                      BECMG 1215 30010KT
                      PROB30 TEM PO 0006 5000 BR BKN004=
200802261700 TAF LMML 261700Z 270024 20008KT 9999 FEW012
                      PROB30 TEMPO 0006 5000 BR SCT 008=
200802261100 TAF LMML 261100Z 261818 20008KT 9999 FEW014
                      PROB30 TEMPO 0006 5000 BR SCT 014 FEW008=
200802260500 TAF LMML 260500Z 261212 23007KT 9999 FEW020
                      PROB30 TEMPO 0106 5000 BR=
200802252300 TAF LMML 252300Z 260606 23007KT 9999 FEW020
                      PROB30 TEMPO 0006 5000 BR=
200802251700 TAF LMML 251700Z 260024 22005KT 9999 SCT012
                      TEMPO 0006 5000 BR BKN008 PRO B30
                      TEMPO 0306 3000 MIFG BKN005=
200802251100 TAF LMML 251100Z 251818 22004KT 9999 FEW012
                      PROB30 TEMPO 0006 3000 MIFG B KN005=
200802250500 TAF LMML 250500Z 251212 18005KT 9999 FEW020
                      PROB30 TEMPO 0206 3000 MIFG B KN005=
200802242300 TAF LMML 242300Z 250606 27005KT 9999 FEW020
                      PROB30 TEMPO 0206 3000 MIFG B KN005=
200802241700 TAF LMML 241700Z 250024 VRB03KT 9999 SCT015
                      PROB40 TEMPO 0006 3000 MIFG B KN005=
200802241100 TAF LMML 241100Z 241818 VRB03KT 9999 // FEW012
                      PROB40 TEMPO 2107 8000 BKN 008
                      PROB30 TEMPO 0106 3000 MIFG SCT005=
200802240500 TAF LMML 240500Z 241212 VRB03KT 9999 FEW025
                      PROB30 2106 6000 BR=
200802232300 TAF LMML 232300Z 240606 02005KT 9999 FEW025=
200802231700 TAF LMML 231700Z 240024 06005KT 9999 FEW030
                      PROB30 TEMPO 0006 7000=
200802231100 TAF LMML 231100Z 231818 04005KT 9999 FEW016
                      PROB30 TEMPO 2107 7000 BKN007=
200802230500 TAF LMML 230500Z 231212 03005KT 9999 SCT018 SCT070
                      TEMPO 1215 8000 SHRA B KN015
                      PROB30 TEMPO 2006 7000 BKN006=
200802222300 TAF LMML 222300Z 230606 01005KT 9999 SCT015 SCT100
                      TEMPO 0615 7000 SHRA B KN013
                      PROB30 TEMPO 2206 6000 BKN006=
200802221700 TAF LMML 221700Z 230024 36005KT 9999 FEW015 SCT040
                      PROB30 TEMPO 0015 7000 SHRA BKN010=
200802221100 TAF LMML 221100Z 221818 36005KT 9999 FEW012 SCT040
                      PROB30 TEMPO 1815 7000 RA SCT010=
200802220500 TAF LMML 220500Z 221212 15005KT 9999 FEW015 SCT045
                      PROB30 TEMPO 2109 8000 RA BKN008=
200802212300 TAF LMML 212300Z 220606 18005KT CAVOK
                      PROB30 TEMPO 0606 SCT020
                      PROB30 TEM PO 8000 RA BKN012=
200802211700 TAF LMML 211700Z 220024 15005KT 9999 FEW015 SCT070
                      PROB30 TEMPO 0006 7000 RA BKN005
                      PROB30 TEMPO 1824 8000 BKN008=
200802211100 TAF LMML 211100Z 211818 13004KT 9999 SCT015 BKN050
                      PROB30 TEMPO 0006 7000 BKN005=
200802210500 TAF LMML 210500Z 211212 18005KT CAVOK=
200802202300 TAF LMML 202300Z 210606 18012KT 9999 FEW040=
200802201700 TAF LMML 201700Z 210024 18005KT 9999 FEW040=
200802201100 TAF LMML 201100Z 201818 15006KT 9999 FEW045 SCT100=
200802200500 TAF LMML 200500Z 201212 18015KT 9999 FEW030 SCT060=
200802192300 TAF LMML 192300Z 200606 18012KT 9999 SCT030 SCT080=
200802191700 TAF LMML 191700Z 200024 18015KT 9999 FEW030=
200802191100 TAF LMML 191100Z 191818 18012KT 9999 SCT030=
200802190500 TAF LMML 190500Z 191212 21010KT 9999 SCT020=
200802182300 TAF LMML 182300Z 190606 23008KT 9999 SCT030
                      BECMG 0306 16010KT=
200802181700 TAF LMML 181700Z 190024 26008KT 9999 SCT030=
200802181100 TAF LMML 181100Z 181818 29006KT 9999 SCT030=
200802180500 TAF LMML 180500Z 181212 28007KT 9999 SCT025=
200802172300 TAF LMML 172300Z 180606 28006KT 9999 FEW035=
200802171700 TAF LMML 171700Z 180024 30006KT 9999 SCT040=
200802171100 TAF LMML 171100Z 171818 01015KT 9999 BKN040
                      BECMG 0306 31006KT=
200802170500 TAF LMML 170500Z 171212 03012KT 9999 SCT040
                      BECMG 0306 32010KT=
200802162300 TAF LMML 162300Z 170606 03015KT 9999 FEW030=
200802161700 TAF LMML 161700Z 170024 03012KT 9999 FEW030=
200802161100 TAF LMML 161100Z 161818 04015KT 9999 FEW030=
200802160500 TAF LMML 160500Z 161212 04018G28KT 9999 SCT020
                      PROB30 TEMPO 1220 7000 RA BKN018
                      BECMG 2202 03015KT=
200802152300 TAF LMML 152300Z 160606 04020G30KT 9999 SCT018
                      TEMPO 0612 7000 RA BKN015=
200802151700 TAF LMML 151700Z 160024 04020G30KT 9999 SCT015 BKN040
                      TEMPO 0010 7000 RA BKN015
                      PROB30 TEMPO 0008 5000 TSGR BKN015CB=
200802151100 TAF LMML 151100Z 151818 19010KT 9999 SCT020 BKN040 OVC080
                      TEMPO 1812 7000 RA BKN015
                      PROB 30
                      TEMPO 2208 5000 TSRA BKN015CB
                      BECMG 0205 05020G30K T=
200802150640 LMML 150640Z 151212 16008KT 9999 SCT015 BKN050 0VC080
                      TEMPO 1207 6000 RA BKN015
                      PROB30 TEMPO 2106 5000 TSRA BKN015CB
                      BECMG 0205 06020G30KT=
200802150500 TAF LMML 150500Z 151212 16008KT 9999 SCT015 BKN050 OVC080
                      TEMPO 1207 6000 RA BKN015
                      PROB30 TEMPO 2106 5000 TSRA
                      BECMG 0205 06020G30KT=
200802142300 TAF LMML 142300Z 150606 16008KT 9999 SCT020 BKN040 OVC090
                      TEMPO 0606 600 0 RA BKN012
                      BECMG 0205 06020G30KT=
200802141700 TAF LMML 141700Z 150024 18008KT 9999 SCT030
                      PROB30 TEMPO 0624 7000 RA BKN 020=
200802141100 TAF LMML 141100Z 141818 VRB03KT 9999 SCT025
                      BECMG 0508 18010KT
                      TEMPO 0618 7000 RA BKN020=
200802140500 TAF LMML 140500Z 141212 VRB03KT 9999 SCT025
                      BECMG 0508 18010KT
                      TEMPO 0612 7000 RA BKN015=
200802132300 TAF LMML 132300Z 140606 VRB03KT 9999 SCT020=
200802131700 TAF LMML 131700Z 140024 04005KT 9999 SCT025=
200802131100 TAF LMML 131100Z 131818 VRB03KT 9999 FEW025=
200802130500 TAF LMML 130500Z 131212 02006KT 9999 FEW025=
200802122300 TAF LMML 122300Z 130606 04005KT 9999 FEW030
                      PROB40 TEMPO 0612 8000 SHRA B KN015
                      PROB30 TEMPO 0612 5000 TSGR BKN012CB=
200802121700 TAF LMML 121700Z 130024 06005KT 9999 FEW030
                      PROB40 TEMPO 0018 8000 SHRA B KN018
                      PROB30 TEMPO 0010 5000 TSGR BKN018CB=
200802121100 TAF LMML 121100Z 121818 VRB03KT 9999 FEW030
                      TEMPO 1818 8000 SHRA BKN018 P ROB30
                      TEMPO 1810 5000 TSGR BKN018CB=
200802120500 TAF LMML 120500Z 121212 VRB03KT 9999 SCT030
                      TEMPO 1212 8000 SHRA=
200802112300 TAF LMML 112300Z 120606 02006KT 9999 SCT030
                      TEMPO 0606 8000 SHRA BKN025 P ROB30
                      TEMPO 0609 5000 TSGR BKN018CB=
200802111700 TAF LMML 111700Z 120024 VRB03KT 9999 FEW025 SCT050
                      TEMPO 1803 8000 SHRA B KN020
                      PROB40 TEMP0 1803 5000 TSGR BKN018CB=
200802111100 TAF LMML 111100Z 111818 VRB03KT 9999 SCT030
                      PROB30 TEMPO 1818 SHRA BKN020=
200802110500 TAF LMML 110500Z 111212 06008KT 9999 SCT020
                      TEMPO 1212 8000 SHRA BKN015=
200802102300 TAF LMML 102300Z 110606 04008KT 9999 SCT030 BKN070
                      PROB30 TEMPO 0606 7000 SHRA BKN015=
200802101700 TAF LMML 101700Z 110024 04006KT 9999 SCT025
                      PROB30 TEMPO 0024 8000 SHRA B KN025=
200802101100 TAF LMML 101100Z 101818 36006KT 9999 SCT025
                      PROB40 TEMPO 1818 8000 SHRA B KN020=
200802100500 LMML 100500Z 101212 04006KT 9999 SCT025
                      PROB40 TEMPO 1212 8000 SHRA=
200802092300 TAF LMML 092300Z 100606 03008KT 9999 SCT020
                      TEMPO 0606 8000 SHRA
                      PROB40 T EMPO 1806 5000 TSRA BKN015CB=
200802091700 LMML 091700Z 100024 03008KT 9999 SCT025
                      TEMPO 0024 8000 SHRA
                      PROB30 T EMPO 1524 5000 TSRA BKN015CB=
200802091100 TAF LMML 091100Z 091818 03008KT 9999 SCT020
                      TEMPO 0318 8000 SHRA BKN015 P ROB30
                      TEMPO 1518 6000 SHRA BKN015CB=
200802090500 TAF LMML 090500Z 091212 02015G25KT 9999 SCT030
                      PROB30 TEMPO 8000 SHRA BKN 018
                      BECMG 1518 03010KT=
200802082300 TAF LMML 082300Z 090606 02018G28KT 9999 SCT020
                      PROB30 TEMPO 0606 6000 SHR A BKN015
                      BECMG 0912 02015KT=
200802081700 TAF LMML 081700Z 090024 03018G28KT 9999 SCT020
                      TEMPO 0010 6000 SHRA BKN01 5
                      BECMG 1215 03008KT=
200802081100 TAF LMML 081100Z 081818 03020KT 9999 SCT018
                      TEMPO 1818 8000 SHRA BKN015 P ROB30
                      TEMPO 1812 5000 TSGR BKN015CB=
200802080500 TAF LMML 080500Z 081212 34020G30KT 9999 SCT025
                      TEMPO 7000 SHRA BKN018 PRO B40
                      TEMPO 1200 4000 TSGR BKN012CB
                      BECMG 1417 03022G32KT=
200802072300 TAF LMML 072300Z 080606 35020G30KT 9999 SCT025
                      TEMPO 0606 7000 SHRA BKN01 5
                      PROB40 TEMPO 1200 4000 TSGR BKN012CB=
200802071700 TAF LMML 071700Z 080024 34025G35KT 9999 SCT018 BKN030
                      TEMPO 0024 7000 SHR A BKN015
                      PROB40 TEMPO 0024 4000 TSGR BKN012CB
                      BECMG 1518 03025KT=
200802071100 TAF LMML 071100Z 071818 33023G33KT 9999 BKN025
                      TEMPO 1818 8000 SHRA BKN01 5
                      PROB30 TEMPO 0318 5000 TSGR BKN012CB=
200802070500 TAF LMML 070500Z 071212 32017G28KT 9999 SCT020
                      TEMPO 1812 8000 SHRA BKN01 5
                      PROB30 TEMPO 0308 5000 TSGR BKN012CB
                      BECMG 2124 35015G25KT=
200802062300 TAF LMML 062300Z 070606 29010KT 9999 FEW020
                      BECMG 0710 33015G25KT
                      PROB30 TEMPO 1806 8000 SHRA BKN015=
200802061700 TAF LMML 061700Z 070024 32012KT 9999 FEW025
                      BECMG 0408 32015G25KT SCT025=
200802061100 TAF LMML 061100Z 061818 33012KT 9999 FEW025
                      BECMG 0408 32015G25KT SCT025=
200802060500 TAF LMML 060500Z 061212 31010KT 9999 FEW025=
200802052300 TAF LMML 052300Z 060606 31010KT 9999 FEW030
                      BECMG 0003 30015KT=
200802051700 TAF LMML 051700Z 060024 31010KT 9999 FEW025=
200802051100 TAF LMML 051100Z 051818 30014KT 9999 SCT015=
200802050500 TAF LMML 050500Z 051212 31015KT 9999 FEW016=
200802042345 TAF LMML 042345Z 050606 27010KT 9999 FEW020
                      BECMG 0912 30015KT=
200802041700 TAF LMML 041700Z 050024 22004KT 9999 FEW018
                      PROB30 TEMPO 0006 BKN015 BECM G 0912 30015KT=
200802041100 TAF LMML 041100Z 041818 VRB03KT 9999 FEW020
                      BECMG 0912 30015KT
                      PROB30 TEM PO 0006 BKN015=
200802040500 TAF LMML 040500Z 041212 19010KT 9999 SCT020
                      BECMG 0610 30015KT=
200802032300 TAF LMML 032300Z 040606 17008KT 9999 SCT025=
200802031700 TAF LMML 031700Z 040024 14010KT 9999 FEW030
                      BECMG 0912 2212
                      PROB30 TEMPO 0006 BKN025=
200802031100 TAF LMML 031100Z 031818 14008KT 9999 SCT025
                      BECMG 1215 20010KT=
200802030500 TAF LMML 030500Z 031212 13007KT 9999 SCT020 SCT040 BKN200=
200802022300 TAF LMML 022300Z 030606 12008KT 9999 SCT020
                      PROB30 TEMPO 0006 7000 BKN015=
200802021700 TAF LMML 021700Z 030024 16008KT 9999 SCT015=
200802021100 TAF LMML 021100Z 021818 15008KT 9999 SCT020=
200802020500 TAF LMML 020500Z 021212 15010KT 9999 FEW020=
200802012300 TAF LMML 012300Z 020606 16007KT 9999 FEW020=
200802011700 TAF LMML 011700Z 020024 21005KT 9999 FEW020 SCT040
                      PROB30 TEMPO 0306 6000
                      BECMG 2124 15010KT BKN015=
200802011100 TAF LMML 011100Z 011818 24006KT 9999 FEW020 BKN040=
200802010500 TAF LMML 010500Z 011212 30010KT 9999 SCT025
                      BECMG 1821 22005KT=
