##########################################################
# Query made at 12/28/2012 16:22:50 UTC
# Time interval: from 02/01/2012 00:00  to 03/02/2012 23:59  UTC
##########################################################

##########################################################
# LMML, Luqa (Malta)
# WMO index: 16597
# Latitude 35-51N. Longitude 014-29E. Altitude 91 m.
##########################################################

###################################
#  METAR/SPECI from LMML
###################################
201203022345 METAR LMML 022345Z 28007KT 250V310 CAVOK 11/10 Q1026 NOSIG=
201203022330 METAR LMML NIL=
201203022315 METAR LMML 022315Z 28007KT 250V320 9999 FEW013 11/10 Q1027
                        NOSIG=
201203022300 METAR LMML NIL=
201203022245 METAR LMML 022245Z 28006KT 250V310 9999 FEW013 11/10 Q1027
                        NOSIG=
201203022230 METAR LMML NIL=
201203022215 METAR LMML 022215Z 28006KT 250V310 9999 FEW013 11/10 Q1027
                        NOSIG=
201203022200 METAR LMML NIL=
201203022145 METAR LMML 022145Z 27005KT 230V300 9999 FEW013 11/10 Q1027
                        NOSIG=
201203022130 METAR LMML NIL=
201203022115 METAR LMML 022115Z 28005KT 240V310 9999 FEW013 11/10 Q1027
                        NOSIG=
201203022100 METAR LMML NIL=
201203022045 METAR LMML 022045Z 28005KT 250V320 9999 FEW013 11/10 Q1027
                        NOSIG=
201203022030 METAR LMML NIL=
201203022015 METAR LMML 022015Z 28005KT 9999 FEW013 11/09 Q1027 NOSIG=
201203022000 METAR LMML NIL=
201203021945 METAR LMML 021945Z 28006KT 9999 FEW013 11/09 Q1027 NOSIG=
201203021930 METAR LMML NIL=
201203021915 METAR LMML 021915Z 29006KT 9999 SCT014 12/09 Q1027 NOSIG=
201203021900 METAR LMML NIL=
201203021845 METAR LMML 021845Z 28008KT 9999 SCT014 12/10 Q1027 NOSIG=
201203021830 METAR LMML NIL=
201203021815 METAR LMML 021815Z 29009KT 9999 SCT014 12/09 Q1027 NOSIG=
201203021800 METAR LMML NIL=
201203021745 METAR LMML 021745Z 28009KT 9999 BKN014 12/10 Q1027 NOSIG=
201203021730 METAR LMML NIL=
201203021715 METAR LMML 021715Z 28007KT 250V310 9999 BKN015 12/09 Q1026
                        NOSIG=
201203021700 METAR LMML NIL=
201203021645 METAR LMML 021645Z 28011KT 250V320 9999 BKN016 13/09 Q1027
                        TEMPO BKN013=
201203021630 METAR LMML NIL=
201203021615 METAR LMML 021615Z 28009KT 240V300 9999 BKN016 13/10 Q1026
                        TEMPO BKN013=
201203021600 METAR LMML NIL=
201203021545 METAR LMML 021545Z 28011KT 240V310 9999 BKN017 13/10 Q1026
                        TEMPO BKN013=
201203021530 METAR LMML NIL=
201203021515 METAR LMML 021515Z 26010KT 220V300 9999 BKN016 15/10 Q1026
                        TEMPO BKN013=
201203021500 METAR LMML NIL=
201203021445 METAR LMML 021445Z 26011KT 220V300 9999 BKN016 14/10 Q1026
                        TEMPO BKN013=
201203021430 METAR LMML NIL=
201203021415 METAR LMML 021415Z 26011KT 210V300 9999 BKN016 14/10 Q1026
                        TEMPO BKN013=
201203021400 METAR LMML NIL=
201203021345 METAR LMML 021345Z 25011KT 200V290 9999 BKN016 15/10 Q1026
                        TEMPO BKN013=
201203021330 METAR LMML NIL=
201203021315 METAR LMML 021315Z 24011KT 210V300 9999 BKN016 15/11 Q1027
                        TEMPO BKN013=
201203021300 METAR LMML NIL=
201203021245 METAR LMML 021245Z 24010KT 210V290 9999 BKN016 15/10 Q1027
                        TEMPO BKN013=
201203021230 METAR LMML NIL=
201203021215 METAR LMML 021215Z 24011KT 200V290 9999 BKN015 15/11 Q1027
                        TEMPO BKN013=
201203021200 METAR LMML NIL=
201203021145 METAR LMML 021145Z 25010KT 200V300 9999 SCT015 15/10 Q1027
                        TEMPO BKN013=
201203021130 METAR LMML NIL=
201203021115 METAR LMML 021115Z 24009KT 190V290 9999 SCT013 14/10 Q1028
                        NOSIG=
201203021100 METAR LMML NIL=
201203021045 METAR LMML 021045Z 25009KT 220V280 9999 SCT014 14/10 Q1028
                        NOSIG=
201203021030 METAR LMML NIL=
201203021015 METAR LMML 021015Z 24009KT 210V280 9999 SCT016 14/10 Q1028
                        NOSIG=
201203021000 METAR LMML NIL=
201203020945 METAR LMML 020945Z 24008KT 200V280 9999 SCT015 14/10 Q1028
                        NOSIG=
201203020930 METAR LMML NIL=
201203020915 METAR LMML 020915Z 24009KT 210V280 9999 SCT016 14/10 Q1028
                        NOSIG=
201203020900 METAR LMML NIL=
201203020845 METAR LMML 020845Z 24008KT 210V280 9999 FEW014 14/11 Q1028
                        NOSIG=
201203020815 METAR LMML 020815Z 25006KT 210V300 9999 FEW015 14/10 Q1028
                        NOSIG=
201203020800 METAR LMML NIL=
201203020745 METAR LMML 020745Z 24006KT 210V270 9999 SCT013 13/10 Q1028
                        NOSIG=
201203020730 METAR LMML NIL=
201203020715 METAR LMML 020715Z 24004KT 190V280 9999 FEW016 13/11 Q1027
                        NOSIG=
201203020645 METAR LMML 020645Z 24004KT 200V280 9999 FEW020 12/11 Q1027
                        NOSIG=
201203020630 METAR LMML NIL=
201203020615 METAR LMML 020615Z 22003KT 9999 FEW020 11/10 Q1027 NOSIG=
201203020545 METAR LMML 020545Z 21003KT 9999 FEW020 11/10 Q1026 NOSIG=
201203020530 METAR LMML NIL=
201203020515 METAR LMML 020515Z 21004KT 9000 NSC 11/10 Q1026 NOSIG=
201203020500 METAR LMML NIL=
201203020445 METAR LMML 020445Z 20004KT 9000 NSC 11/10 Q1026 NOSIG=
201203020430 METAR LMML NIL=
201203020415 METAR LMML 020415Z 19004KT 9000 NSC 11/10 Q1026 NOSIG=
201203020400 METAR LMML NIL=
201203020345 METAR LMML 020345Z 19003KT 9000 NSC 11/10 Q1026 NOSIG=
201203020330 METAR LMML NIL=
201203020315 METAR LMML 020315Z 20003KT 9000 NSC 11/10 Q1026 NOSIG=
201203020300 METAR LMML NIL=
201203020245 METAR LMML 020245Z 19003KT 9000 NSC 11/10 Q1026 NOSIG=
201203020230 METAR LMML NIL=
201203020215 METAR LMML 020215Z 19003KT 9000 NSC 11/10 Q1026 NOSIG=
201203020200 METAR LMML NIL=
201203020145 METAR LMML 020145Z 19003KT 9000 NSC 10/09 Q1026 NOSIG=
201203020130 METAR LMML NIL=
201203020115 METAR LMML 020115Z 18003KT 9000 NSC 10/09 Q1026 NOSIG=
201203020100 METAR LMML NIL=
201203020045 METAR LMML 020045Z 17003KT 9000 NSC 11/09 Q1026 NOSIG=
201203020030 METAR LMML NIL=
201203020015 METAR LMML 020015Z 16004KT CAVOK 11/10 Q1026 NOSIG=
201203020000 METAR LMML NIL=
201203012345 METAR LMML 012345Z 17003KT CAVOK 11/09 Q1026 NOSIG=
201203012330 METAR LMML NIL=
201203012315 METAR LMML 012315Z 17003KT CAVOK 10/09 Q1026 NOSIG=
201203012300 METAR LMML NIL=
201203012245 METAR LMML 012245Z VRB01KT CAVOK 10/08 Q1026 NOSIG=
201203012230 METAR LMML NIL=
201203012215 METAR LMML 012215Z VRB02KT CAVOK 10/08 Q1025 NOSIG=
201203012200 METAR LMML NIL=
201203012145 METAR LMML 012145Z VRB02KT CAVOK 10/08 Q1025 NOSIG=
201203012130 METAR LMML NIL=
201203012115 METAR LMML 012115Z VRB02KT CAVOK 11/08 Q1025 NOSIG=
201203012100 METAR LMML NIL=
201203012045 METAR LMML 012045Z VRB02KT CAVOK 11/08 Q1025 NOSIG=
201203012030 METAR LMML NIL=
201203012015 METAR LMML 012015Z VRB01KT CAVOK 11/08 Q1025 NOSIG=
201203012000 METAR LMML NIL=
201203011945 METAR LMML 011945Z VRB01KT CAVOK 11/08 Q1024 NOSIG=
201203011930 METAR LMML NIL=
201203011915 METAR LMML 011915Z VRB02KT CAVOK 11/08 Q1024 NOSIG=
201203011900 METAR LMML NIL=
201203011845 METAR LMML 011845Z VRB02KT CAVOK 11/08 Q1023 NOSIG=
201203011830 METAR LMML NIL=
201203011815 METAR LMML 011815Z VRB02KT CAVOK 12/08 Q1023 NOSIG=
201203011800 METAR LMML NIL=
201203011745 METAR LMML 011745Z 26003KT CAVOK 12/08 Q1023 NOSIG=
201203011730 METAR LMML NIL=
201203011715 METAR LMML 011715Z 26003KT CAVOK 13/08 Q1023 NOSIG=
201203011645 METAR LMML 011645Z 24003KT CAVOK 14/08 Q1022 NOSIG=
201203011630 METAR LMML NIL=
201203011615 METAR LMML 011615Z 23004KT 200V280 CAVOK 15/08 Q1022 NOSIG=
201203011600 METAR LMML NIL=
201203011545 METAR LMML 011545Z 19003KT 9999 FEW030 16/08 Q1022 NOSIG=
201203011530 METAR LMML NIL=
201203011515 METAR LMML 011515Z VRB02KT 9999 FEW035 17/08 Q1021 NOSIG=
201203011500 METAR LMML NIL=
201203011445 METAR LMML 011445Z VRB02KT 9999 FEW040 16/08 Q1021 NOSIG=
201203011430 METAR LMML NIL=
201203011415 METAR LMML 011415Z 13003KT 9999 FEW042 15/08 Q1021 NOSIG=
201203011400 METAR LMML NIL=
201203011345 METAR LMML 011345Z 09004KT 260V130 9999 FEW037 15/07 Q1021
                        NOSIG=
201203011330 METAR LMML NIL=
201203011315 METAR LMML 011315Z VRB02KT 9999 FEW036 15/07 Q1021 NOSIG=
201203011300 METAR LMML NIL=
201203011245 METAR LMML 011245Z 07004KT 020V130 9999 FEW025 16/08 Q1021
                        NOSIG=
201203011230 METAR LMML NIL=
201203011215 METAR LMML 011215Z 03004KT 340V080 9999 FEW025 17/08 Q1021
                        NOSIG=
201203011200 METAR LMML NIL=
201203011145 METAR LMML 011145Z 03005KT 350V070 9999 FEW030 17/08 Q1021
                        NOSIG=
201203011130 METAR LMML NIL=
201203011115 METAR LMML 011115Z 02006KT 340V100 9999 FEW030 17/08 Q1021
                        NOSIG=
201203011100 METAR LMML NIL=
201203011045 METAR LMML 011045Z 03004KT 340V110 9999 FEW030 17/08 Q1021
                        NOSIG=
201203011030 METAR LMML NIL=
201203011015 METAR LMML 011015Z 06004KT 360V170 9999 FEW030 16/08 Q1021
                        NOSIG=
201203011000 METAR LMML NIL=
201203010945 METAR LMML 010945Z 05003KT CAVOK 17/08 Q1021 NOSIG=
201203010930 METAR LMML NIL=
201203010915 METAR LMML 010915Z 04004KT 270V100 CAVOK 16/08 Q1020 NOSIG=
201203010900 METAR LMML NIL=
201203010845 METAR LMML 010845Z 05003KT CAVOK 16/07 Q1020 NOSIG=
201203010830 METAR LMML NIL=
201203010815 METAR LMML 010815Z 05003KT CAVOK 15/06 Q1020 NOSIG=
201203010800 METAR LMML NIL=
201203010745 METAR LMML 010745Z VRB01KT CAVOK 15/06 Q1020 NOSIG=
201203010730 METAR LMML NIL=
201203010715 METAR LMML 010715Z VRB02KT CAVOK 13/06 Q1019 NOSIG=
201203010700 METAR LMML NIL=
201203010645 METAR LMML 010645Z VRB02KT CAVOK 11/07 Q1019 NOSIG=
201203010630 METAR LMML NIL=
201203010615 METAR LMML 010615Z 26003KT CAVOK 09/06 Q1019 NOSIG=
201203010600 METAR LMML NIL=
201203010545 METAR LMML 010545Z 25003KT CAVOK 08/06 Q1018 NOSIG=
201203010530 METAR LMML NIL=
201203010515 METAR LMML 010515Z VRB02KT CAVOK 08/06 Q1018 NOSIG=
201203010500 METAR LMML NIL=
201203010445 METAR LMML 010445Z VRB02KT CAVOK 08/06 Q1018 NOSIG=
201203010430 METAR LMML NIL=
201203010415 METAR LMML 010415Z 28003KT CAVOK 08/05 Q1018 NOSIG=
201203010400 METAR LMML NIL=
201203010345 METAR LMML 010345Z VRB01KT CAVOK 09/06 Q1017 NOSIG=
201203010330 METAR LMML NIL=
201203010315 METAR LMML 010315Z VRB02KT CAVOK 09/05 Q1017 NOSIG=
201203010300 METAR LMML NIL=
201203010245 METAR LMML 010245Z 32003KT CAVOK 10/06 Q1017 NOSIG=
201203010230 METAR LMML NIL=
201203010215 METAR LMML 010215Z VRB02KT CAVOK 10/07 Q1017 NOSIG=
201203010200 METAR LMML NIL=
201203010145 METAR LMML 010145Z VRB02KT CAVOK 10/07 Q1017 NOSIG=
201203010130 METAR LMML NIL=
201203010115 METAR LMML 010115Z 35005KT CAVOK 11/05 Q1017 NOSIG=
201203010100 METAR LMML NIL=
201203010045 METAR LMML 010045Z 36007KT CAVOK 11/05 Q1017 NOSIG=
201203010015 METAR LMML 010015Z 35009KT CAVOK 11/05 Q1017 NOSIG=
201203010000 METAR LMML NIL=
201202292345 METAR LMML 292345Z 34008KT CAVOK 12/06 Q1017 NOSIG=
201202292330 METAR LMML NIL=
201202292315 METAR LMML 292315Z 34008KT CAVOK 12/07 Q1017 NOSIG=
201202292245 METAR LMML 292245Z 33006KT 310V020 CAVOK 11/06 Q1017 NOSIG=
201202292230 METAR LMML NIL=
201202292215 METAR LMML 292215Z 32008KT 300V360 CAVOK 11/07 Q1017 NOSIG=
201202292200 METAR LMML NIL=
201202292145 METAR LMML 292145Z 32007KT 270V350 CAVOK 12/08 Q1017 NOSIG=
201202292130 METAR LMML NIL=
201202292115 METAR LMML 292115Z 31009KT CAVOK 11/09 Q1017 NOSIG=
201202292045 METAR LMML 292045Z 32011KT CAVOK 12/09 Q1017 NOSIG=
201202292030 METAR LMML NIL=
201202292015 METAR LMML 292015Z 32012KT CAVOK 11/08 Q1017 NOSIG=
201202292000 METAR LMML NIL=
201202291945 METAR LMML 291945Z 32013KT 9999 FEW025 11/08 Q1017 NOSIG=
201202291930 METAR LMML NIL=
201202291915 METAR LMML 291915Z 31015KT 9999 FEW025 11/08 Q1017 NOSIG=
201202291900 METAR LMML NIL=
201202291845 METAR LMML 291845Z 30015KT 9999 FEW025 12/08 Q1017 NOSIG=
201202291830 METAR LMML NIL=
201202291815 METAR LMML 291815Z 29015KT 260V320 9999 FEW025 12/08 Q1017
                        NOSIG=
201202291800 METAR LMML NIL=
201202291745 METAR LMML 291745Z 30015KT 270V330 9999 FEW025 12/08 Q1017
                        NOSIG=
201202291730 METAR LMML NIL=
201202291715 METAR LMML 291715Z 29014KT 9999 FEW025 12/07 Q1017 NOSIG=
201202291700 METAR LMML NIL=
201202291645 METAR LMML 291645Z 29016KT 9999 FEW025 12/07 Q1018 NOSIG=
201202291630 METAR LMML NIL=
201202291615 METAR LMML 291615Z 29016KT 260V320 9999 FEW025 12/07 Q1018
                        NOSIG=
201202291600 METAR LMML NIL=
201202291545 METAR LMML 291545Z 30018KT 260V330 9999 FEW025 13/06 Q1018
                        NOSIG=
201202291530 METAR LMML NIL=
201202291515 METAR LMML 291515Z 30020KT 9999 FEW025 13/05 Q1018 NOSIG=
201202291500 METAR LMML NIL=
201202291445 METAR LMML 291445Z 30016KT 250V330 9999 FEW025 14/06 Q1018
                        NOSIG=
201202291430 METAR LMML NIL=
201202291415 METAR LMML 291415Z 30017KT 260V330 CAVOK 13/06 Q1018 NOSIG=
201202291400 METAR LMML NIL=
201202291345 METAR LMML 291345Z 31016KT 280V340 9999 FEW030 14/06 Q1018
                        NOSIG=
201202291315 METAR LMML 291315Z 30017KT 9999 FEW030 14/07 Q1019 NOSIG=
201202291300 METAR LMML NIL=
201202291245 METAR LMML 291245Z 30015KT 270V330 9999 FEW035 14/05 Q1019
                        NOSIG=
201202291230 METAR LMML NIL=
201202291215 METAR LMML 291215Z 30014KT 9999 FEW035 14/04 Q1019 NOSIG=
201202291200 METAR LMML NIL=
201202291145 METAR LMML 291145Z 30011KT 260V320 CAVOK 14/04 Q1019 NOSIG=
201202291130 METAR LMML NIL=
201202291115 METAR LMML 291115Z 30012KT CAVOK 14/05 Q1020 NOSIG=
201202291045 METAR LMML 291045Z 29010KT 240V320 CAVOK 14/04 Q1020 NOSIG=
201202291030 METAR LMML NIL=
201202291015 METAR LMML 291015Z 30009KT 250V330 CAVOK 14/05 Q1021 NOSIG=
201202291000 METAR LMML NIL=
201202290945 METAR LMML 290945Z 29009KT 260V330 CAVOK 13/05 Q1021 NOSIG=
201202290930 METAR LMML NIL=
201202290915 METAR LMML 290915Z 32011KT CAVOK 13/04 Q1021 NOSIG=
201202290900 METAR LMML NIL=
201202290845 METAR LMML 290845Z 31011KT CAVOK 12/04 Q1021 NOSIG=
201202290830 METAR LMML NIL=
201202290815 METAR LMML 290815Z 30011KT CAVOK 12/05 Q1021 NOSIG=
201202290800 METAR LMML NIL=
201202290745 METAR LMML 290745Z 30005KT CAVOK 11/06 Q1021 NOSIG=
201202290730 METAR LMML NIL=
201202290715 METAR LMML 290715Z 29004KT CAVOK 10/05 Q1021 NOSIG=
201202290700 METAR LMML NIL=
201202290645 METAR LMML 290645Z 28005KT CAVOK 09/04 Q1021 NOSIG=
201202290630 METAR LMML NIL=
201202290615 METAR LMML 290615Z 28007KT CAVOK 08/03 Q1021 NOSIG=
201202290600 METAR LMML NIL=
201202290545 METAR LMML 290545Z 29007KT CAVOK 08/03 Q1021 NOSIG=
201202290530 METAR LMML NIL=
201202290515 METAR LMML 290515Z 28007KT CAVOK 07/02 Q1021 NOSIG=
201202290445 METAR LMML 290445Z 29007KT CAVOK 08/02 Q1021 NOSIG=
201202290430 METAR LMML NIL=
201202290415 METAR LMML 290415Z 29006KT CAVOK 08/02 Q1021 NOSIG=
201202290400 METAR LMML NIL=
201202290345 METAR LMML 290345Z 27005KT CAVOK 07/02 Q1021 NOSIG=
201202290330 METAR LMML NIL=
201202290315 METAR LMML 290315Z 28006KT CAVOK 07/02 Q1021 NOSIG=
201202290245 METAR LMML 290245Z 29006KT CAVOK 08/02 Q1021 NOSIG=
201202290230 METAR LMML NIL=
201202290215 METAR LMML 290215Z 29006KT 260V320 CAVOK 08/02 Q1022 NOSIG=
201202290200 METAR LMML NIL=
201202290145 METAR LMML 290145Z 25005KT 210V280 CAVOK 08/04 Q1022 NOSIG=
201202290130 METAR LMML NIL=
201202290115 METAR LMML 290115Z 25005KT CAVOK 08/03 Q1022 NOSIG=
201202290100 METAR LMML NIL=
201202290045 METAR LMML 290045Z 24005KT CAVOK 07/03 Q1022 NOSIG=
201202290015 METAR LMML 290015Z 24004KT CAVOK 07/03 Q1022 NOSIG=
201202282345 METAR LMML 282345Z 24004KT CAVOK 07/03 Q1022 NOSIG=
201202282315 METAR LMML 282315Z 24005KT CAVOK 07/02 Q1023 NOSIG=
201202282245 METAR LMML 282245Z 26004KT CAVOK 07/02 Q1023 NOSIG=
201202282215 METAR LMML 282215Z 25004KT CAVOK 07/02 Q1023 NOSIG=
201202282145 METAR LMML 282145Z 27003KT CAVOK 06/03 Q1023 NOSIG=
201202282130 METAR LMML NIL=
201202282115 METAR LMML 282115Z VRB02KT CAVOK 07/03 Q1023 NOSIG=
201202282045 METAR LMML 282045Z VRB02KT 9999 FEW040 07/02 Q1022 NOSIG=
201202282030 METAR LMML NIL=
201202282015 METAR LMML 282015Z 29003KT 9999 FEW040 06/02 Q1022 NOSIG=
201202282000 METAR LMML NIL=
201202281945 METAR LMML 281945Z VRB02KT 9999 FEW040 07/02 Q1022 NOSIG=
201202281930 METAR LMML NIL=
201202281915 METAR LMML 281915Z VRB02KT 9999 FEW040 08/02 Q1022 NOSIG=
201202281845 METAR LMML 281845Z 26003KT 9999 FEW040 08/02 Q1021 NOSIG=
201202281830 METAR LMML NIL=
201202281815 METAR LMML 281815Z 27003KT 9999 FEW040 08/02 Q1022 NOSIG=
201202281800 METAR LMML NIL=
201202281745 METAR LMML 281745Z 32003KT 9999 FEW040 09/02 Q1022 NOSIG=
201202281715 METAR LMML 281715Z 01003KT 9999 FEW040 10/02 Q1022 NOSIG=
201202281700 METAR LMML NIL=
201202281645 METAR LMML 281645Z 02003KT 9999 FEW041 10/02 Q1022 NOSIG=
201202281615 METAR LMML 281615Z VRB02KT 9999 FEW041 11/02 Q1021 NOSIG=
201202281600 METAR LMML NIL=
201202281545 METAR LMML 281545Z 08004KT 040V120 9999 FEW041 11/02 Q1021
                        NOSIG=
201202281530 METAR LMML NIL=
201202281515 METAR LMML 281515Z 08005KT 330V190 9999 FEW041 11/01 Q1021
                        NOSIG=
201202281500 METAR LMML NIL=
201202281445 METAR LMML 281445Z 08005KT 020V140 9999 FEW041 11/02 Q1021
                        NOSIG=
201202281430 METAR LMML NIL=
201202281415 METAR LMML 281415Z 05008KT 010V100 9999 FEW039 12/02 Q1021
                        NOSIG=
201202281400 METAR LMML NIL=
201202281345 METAR LMML 281345Z 09007KT 040V150 9999 FEW040 12/02 Q1021
                        NOSIG=
201202281330 METAR LMML NIL=
201202281315 METAR LMML 281315Z 05007KT 010V100 9999 FEW040 12/02 Q1021
                        NOSIG=
201202281300 METAR LMML NIL=
201202281245 METAR LMML 281245Z 06007KT 010V110 9999 FEW043 13/02 Q1021
                        NOSIG=
201202281230 METAR LMML NIL=
201202281215 METAR LMML 281215Z 03005KT 350V100 9999 FEW043 13/03 Q1021
                        NOSIG=
201202281200 METAR LMML NIL=
201202281145 METAR LMML 281145Z 03009KT 350V070 CAVOK 13/02 Q1021 NOSIG=
201202281130 METAR LMML NIL=
201202281115 METAR LMML 281115Z 06010KT 030V100 9999 FEW043 12/02 Q1022
                        NOSIG=
201202281100 METAR LMML NIL=
201202281045 METAR LMML 281045Z 07009KT 030V110 9999 FEW045 12/02 Q1022
                        NOSIG=
201202281030 METAR LMML NIL=
201202281015 METAR LMML 281015Z 07009KT 030V110 CAVOK 12/01 Q1022 NOSIG=
201202281000 METAR LMML NIL=
201202280945 METAR LMML 280945Z 02011KT 340V050 CAVOK 12/01 Q1021 NOSIG=
201202280930 METAR LMML NIL=
201202280915 METAR LMML 280915Z 01010KT 340V050 CAVOK 12/02 Q1021 NOSIG=
201202280900 METAR LMML NIL=
201202280845 METAR LMML 280845Z 35008KT 310V040 CAVOK 11/01 Q1021 NOSIG=
201202280830 METAR LMML NIL=
201202280815 METAR LMML 280815Z 35013KT 320V020 CAVOK 11/M00 Q1021 NOSIG=
201202280800 METAR LMML NIL=
201202280745 METAR LMML 280745Z 35009KT 310V010 CAVOK 10/00 Q1020 NOSIG=
201202280730 METAR LMML NIL=
201202280715 METAR LMML 280715Z 33009KT CAVOK 10/M00 Q1020 NOSIG=
201202280700 METAR LMML NIL=
201202280645 METAR LMML 280645Z 32007KT CAVOK 08/02 Q1020 NOSIG=
201202280630 METAR LMML NIL=
201202280615 METAR LMML 280615Z 32006KT CAVOK 07/01 Q1020 NOSIG=
201202280600 METAR LMML NIL=
201202280545 METAR LMML 280545Z 29006KT CAVOK 07/M00 Q1020 NOSIG=
201202280530 METAR LMML NIL=
201202280515 METAR LMML 280515Z 29004KT 230V010 CAVOK 07/M00 Q1020 NOSIG=
201202280500 METAR LMML NIL=
201202280445 METAR LMML 280445Z 26003KT CAVOK 08/M00 Q1019 NOSIG=
201202280430 METAR LMML NIL=
201202280415 METAR LMML 280415Z 36009KT CAVOK 08/M01 Q1019 NOSIG=
201202280400 METAR LMML NIL=
201202280345 METAR LMML 280345Z 33008KT 300V360 CAVOK 08/M02 Q1019 NOSIG=
201202280315 METAR LMML 280315Z 35008KT CAVOK 08/M01 Q1019 NOSIG=
201202280300 METAR LMML NIL=
201202280245 METAR LMML 280245Z 34007KT CAVOK 08/M02 Q1019 NOSIG=
201202280230 METAR LMML NIL=
201202280215 METAR LMML 280215Z 34009KT CAVOK 08/M01 Q1019 NOSIG=
201202280200 METAR LMML NIL=
201202280145 METAR LMML 280145Z 36008KT CAVOK 08/M02 Q1019 NOSIG=
201202280130 METAR LMML NIL=
201202280115 METAR LMML 280115Z 36011KT CAVOK 09/M02 Q1019 NOSIG=
201202280100 METAR LMML NIL=
201202280045 METAR LMML 280045Z 35015KT CAVOK 09/M03 Q1019 NOSIG=
201202280030 METAR LMML NIL=
201202280015 METAR LMML 280015Z 36014KT CAVOK 09/M03 Q1019 NOSIG=
201202280000 METAR LMML NIL=
201202272345 METAR LMML 272345Z 36013KT CAVOK 09/M02 Q1019 NOSIG=
201202272330 METAR LMML NIL=
201202272315 METAR LMML 272315Z 36012KT CAVOK 09/M01 Q1019 NOSIG=
201202272300 METAR LMML NIL=
201202272245 METAR LMML 272245Z 36008KT 330V030 CAVOK 09/M01 Q1019 NOSIG=
201202272230 METAR LMML NIL=
201202272215 METAR LMML 272215Z 36018KT CAVOK 09/M03 Q1019 NOSIG=
201202272200 METAR LMML NIL=
201202272145 METAR LMML 272145Z 35017KT CAVOK 09/M02 Q1019 NOSIG=
201202272130 METAR LMML NIL=
201202272115 METAR LMML 272115Z 35018G30KT CAVOK 10/M02 Q1018 NOSIG=
201202272100 METAR LMML NIL=
201202272045 METAR LMML 272045Z 35015KT 320V030 CAVOK 10/M02 Q1018 NOSIG=
201202272030 METAR LMML NIL=
201202272015 METAR LMML 272015Z 35013KT CAVOK 10/M02 Q1018 NOSIG=
201202272000 METAR LMML NIL=
201202271945 METAR LMML 271945Z 34013KT CAVOK 10/M01 Q1018 NOSIG=
201202271930 METAR LMML NIL=
201202271915 METAR LMML 271915Z 34015KT CAVOK 10/M02 Q1017 NOSIG=
201202271900 METAR LMML NIL=
201202271845 METAR LMML 271845Z 34015KT CAVOK 10/M00 Q1017 NOSIG=
201202271830 METAR LMML NIL=
201202271815 METAR LMML 271815Z 34013KT 9999 FEW045 10/M01 Q1017 NOSIG=
201202271800 METAR LMML NIL=
201202271745 METAR LMML 271745Z 34014KT 310V020 9999 FEW045 10/M03 Q1016
                        NOSIG=
201202271730 METAR LMML NIL=
201202271715 METAR LMML 271715Z 34015KT 9999 FEW045 10/M02 Q1016 NOSIG=
201202271700 METAR LMML NIL=
201202271645 METAR LMML 271645Z 34018KT 9999 SCT044 11/M02 Q1016 NOSIG=
201202271630 METAR LMML NIL=
201202271615 METAR LMML 271615Z 33020G31KT 9999 FEW044 11/M00 Q1015 NOSIG=
201202271600 METAR LMML NIL=
201202271545 METAR LMML 271545Z 33022KT CAVOK 12/M03 Q1015 NOSIG=
201202271515 METAR LMML 271515Z 33024G36KT CAVOK 12/M01 Q1014 NOSIG=
201202271445 METAR LMML 271445Z 34018KT CAVOK 13/01 Q1014 NOSIG=
201202271430 METAR LMML NIL=
201202271415 METAR LMML 271415Z 33022G32KT 310V010 9999 FEW048 13/M00
                        Q1014 NOSIG=
201202271345 METAR LMML 271345Z 33020KT 300V360 9999 FEW047 13/02 Q1013
                        NOSIG=
201202271330 METAR LMML NIL=
201202271315 METAR LMML 271315Z 33019KT 300V010 9999 FEW040 13/02 Q1013
                        NOSIG=
201202271300 METAR LMML NIL=
201202271245 METAR LMML 271245Z 33023KT 9999 FEW040 13/01 Q1013 NOSIG=
201202271230 METAR LMML NIL=
201202271215 METAR LMML 271215Z 33024G34KT 300V360 9999 FEW040 13/00 Q1014
                        NOSIG=
201202271200 METAR LMML NIL=
201202271145 METAR LMML 271145Z 33018KT 9999 FEW040 14/03 Q1013 NOSIG=
201202271115 METAR LMML 271115Z 33021KT 290V360 9999 FEW040 13/02 Q1013
                        NOSIG=
201202271045 METAR LMML 271045Z 32020G30KT 280V340 9999 FEW040 13/04 Q1013
                        NOSIG=
201202271030 METAR LMML NIL=
201202271015 METAR LMML 271015Z 33018KT 9999 SCT041 13/04 Q1013 NOSIG=
201202271000 METAR LMML NIL=
201202270945 METAR LMML 270945Z 34015KT 310V020 9999 SCT037 12/05 Q1013
                        NOSIG=
201202270930 METAR LMML NIL=
201202270915 METAR LMML 270915Z 36013G24KT 320V040 9999 SCT022 12/04 Q1012
                        NOSIG=
201202270845 METAR LMML 270845Z 01010KT 9999 BKN024 11/06 Q1012 NOSIG=
201202270830 METAR LMML NIL=
201202270815 METAR COR LMML 270815Z 35019G29KT 9999 BKN022 11/04 Q1012
                        NOSIG=
201202270800 METAR LMML NIL=
201202270745 METAR LMML 270745Z 34021KT 9999 BKN032 11/05 Q1011 NOSIG=
201202270715 METAR LMML 270715Z 33024G35KT 9999 FEW031 11/04 Q1010 NOSIG=
201202270700 METAR LMML NIL=
201202270645 METAR LMML 270645Z 32020G31KT 300V360 9999 FEW031 11/05 Q1009
                        NOSIG=
201202270630 METAR LMML NIL=
201202270615 METAR LMML 270615Z 33016KT 9999 FEW030 11/06 Q1009 NOSIG=
201202270545 METAR LMML 270545Z 32018KT 270V010 9999 FEW024 11/07 Q1008
                        NOSIG=
201202270530 METAR LMML NIL=
201202270515 METAR LMML 270515Z 31018KT 9999 FEW023 11/08 Q1008 NOSIG=
201202270500 METAR LMML NIL=
201202270445 METAR LMML 270445Z 31019KT 9999 FEW025 11/08 Q1008 NOSIG=
201202270430 METAR LMML NIL=
201202270415 METAR LMML 270415Z 31021KT 9999 FEW025 12/08 Q1008 NOSIG=
201202270400 METAR LMML NIL=
201202270345 METAR LMML 270345Z 29018KT 260V320 9999 FEW018 SCT060 12/08
                        Q1007 NOSIG=
201202270330 METAR LMML NIL=
201202270315 METAR LMML 270315Z 30020G31KT 9999 FEW018 BKN060 12/09 Q1008
                        NOSIG=
201202270300 METAR LMML NIL=
201202270245 METAR LMML 270245Z 31013KT 9999 SCT024 BKN050 11/10 Q1008
                        NOSIG=
201202270230 METAR LMML NIL=
201202270215 METAR LMML 270215Z 32016KT 9999 -SHRA SCT014 BKN050 11/09
                        Q1009 NOSIG=
201202270200 METAR LMML NIL=
201202270145 METAR LMML 270145Z 29017KT 260V320 9999 SCT014 BKN060 12/10
                        Q1009 NOSIG=
201202270130 METAR LMML NIL=
201202270115 METAR LMML 270115Z 29017KT 9999 FEW016 BKN060 12/10 Q1009
                        NOSIG=
201202270100 METAR LMML NIL=
201202270045 METAR LMML 270045Z 29014KT 9999 FEW015 BKN060 12/10 Q1009
                        NOSIG=
201202270030 METAR LMML NIL=
201202270015 METAR LMML 270015Z 29018KT 9999 SCT016 BKN050 12/10 Q1010
                        NOSIG=
201202270000 METAR LMML NIL=
201202262345 METAR LMML 262345Z 29016KT 260V330 9999 SCT017 BKN050 12/09
                        Q1010 NOSIG=
201202262330 METAR LMML NIL=
201202262315 METAR LMML 262315Z 30016KT 260V320 9999 SCT017 BKN050 12/10
                        Q1010 NOSIG=
201202262245 METAR LMML 262245Z 30015KT 9999 BKN018 SCT035 12/09 Q1010
                        NOSIG=
201202262230 METAR LMML NIL=
201202262215 METAR LMML 262215Z 30012KT 9999 BKN019 12/09 Q1010 NOSIG=
201202262200 METAR LMML NIL=
201202262145 METAR LMML 262145Z 30010KT 9999 SCT019 12/09 Q1010 NOSIG=
201202262130 METAR LMML NIL=
201202262115 METAR LMML 262115Z 30015KT 270V330 9999 FEW018 12/08 Q1010
                        NOSIG=
201202262100 METAR LMML NIL=
201202262045 METAR LMML 262045Z 30019KT 9999 FEW018 SCT120 12/08 Q1010
                        NOSIG=
201202262030 METAR LMML NIL=
201202262015 METAR LMML 262015Z 31018KT 9999 FEW018 SCT120 12/08 Q1010
                        NOSIG=
201202262000 METAR LMML NIL=
201202261945 METAR LMML 261945Z 30020KT 9999 FEW018 SCT120 12/09 Q1010
                        NOSIG=
201202261930 METAR LMML NIL=
201202261915 METAR LMML 261915Z 30017KT 9999 FEW017 BKN120 12/09 Q1010
                        NOSIG=
201202261900 METAR LMML NIL=
201202261845 METAR LMML 261845Z 30018KT 9999 SCT017 BKN120 12/09 Q1009
                        NOSIG=
201202261830 METAR LMML NIL=
201202261815 METAR LMML 261815Z 29018KT 270V330 9999 FEW020 BKN120 12/08
                        Q1009 NOSIG=
201202261800 METAR LMML NIL=
201202261745 METAR LMML 261745Z 29016KT 9999 FEW020 BKN120 12/08 Q1009
                        NOSIG=
201202261730 METAR LMML NIL=
201202261715 METAR COR LMML 261715Z 29017KT 260V330 9999 FEW021 SCT120
                        12/08 Q1009 NOSIG=
201202261700 METAR LMML NIL=
201202261645 METAR LMML 261645Z 29016KT 260V320 9999 FEW021 SCT250 12/08
                        Q1009 NOSIG=
201202261630 METAR LMML NIL=
201202261615 METAR LMML 261615Z 29017KT 250V310 9999 FEW021 SCT120 13/08
                        Q1009 NOSIG=
201202261600 METAR LMML NIL=
201202261545 METAR LMML 261545Z 29015KT 260V320 9999 SCT022 SCT250 13/08
                        Q1009 NOSIG=
201202261530 METAR LMML NIL=
201202261515 METAR LMML 261515Z 29016KT 250V320 9999 SCT021 13/08 Q1009
                        NOSIG=
201202261500 METAR LMML NIL=
201202261445 METAR LMML 261445Z 29016KT 260V320 9999 SCT020 14/09 Q1009
                        NOSIG=
201202261430 METAR LMML NIL=
201202261415 METAR LMML 261415Z 28014KT 240V310 9999 BKN018 SCT049 13/09
                        Q1009 NOSIG=
201202261400 METAR LMML NIL=
201202261345 METAR LMML 261345Z 28015KT 250V310 9999 BKN019 SCT120 14/09
                        Q1010 NOSIG=
201202261330 METAR LMML NIL=
201202261315 METAR LMML 261315Z 28017KT 240V310 9999 BKN020 13/09 Q1010
                        NOSIG=
201202261300 METAR LMML NIL=
201202261245 METAR LMML 261245Z 28017KT 240V320 9999 BKN020 14/09 Q1010
                        NOSIG=
201202261230 METAR LMML NIL=
201202261215 METAR LMML 261215Z 28017KT 240V320 9999 BKN020 13/08 Q1011
                        NOSIG=
201202261200 METAR LMML NIL=
201202261145 METAR LMML 261145Z 28017KT 250V310 9999 BKN020 13/09 Q1011
                        NOSIG=
201202261115 METAR LMML 261115Z 28013KT 230V310 9999 BKN022 13/08 Q1011
                        NOSIG=
201202261100 METAR LMML NIL=
201202261045 METAR LMML 261045Z 29015KT 260V320 9999 BKN023 13/08 Q1012
                        NOSIG=
201202261030 METAR LMML NIL=
201202261015 METAR LMML 261015Z 27015KT 230V310 9999 BKN022 13/08 Q1012
                        NOSIG=
201202261000 METAR LMML NIL=
201202260945 METAR LMML 260945Z 28014KT 240V310 9999 BKN021 14/09 Q1012
                        NOSIG=
201202260930 METAR LMML NIL=
201202260915 METAR LMML 260915Z 28015KT 240V310 9999 FEW020 BKN029 13/08
                        Q1012 NOSIG=
201202260900 METAR LMML NIL=
201202260845 METAR LMML 260845Z 28013KT 240V310 9999 BKN020 13/08 Q1013
                        NOSIG=
201202260830 METAR LMML NIL=
201202260815 METAR LMML 260815Z 29012KT 260V330 9999 SCT025 13/07 Q1013
                        NOSIG=
201202260800 METAR LMML NIL=
201202260745 METAR LMML 260745Z 29014KT 260V340 9999 SCT029 13/07 Q1013
                        NOSIG=
201202260730 METAR LMML NIL=
201202260715 METAR LMML 260715Z 29012KT 9999 SCT028 12/07 Q1013 NOSIG=
201202260700 METAR LMML NIL=
201202260645 METAR LMML 260645Z 29012KT 260V320 9999 SCT028 12/06 Q1013
                        NOSIG=
201202260630 METAR LMML NIL=
201202260615 METAR LMML 260615Z 29011KT 9999 BKN028 11/07 Q1013 NOSIG=
201202260600 METAR LMML NIL=
201202260545 METAR LMML 260545Z 28011KT 9999 BKN028 11/07 Q1013 NOSIG=
201202260530 METAR LMML NIL=
201202260515 METAR LMML 260515Z 28009KT 9999 FEW025 BKN029 11/07 Q1013
                        NOSIG=
201202260500 METAR LMML NIL=
201202260445 METAR LMML 260445Z 28010KT 260V320 9999 FEW020 11/07 Q1014
                        NOSIG=
201202260430 METAR LMML NIL=
201202260415 METAR LMML 260415Z 29011KT 9999 SCT028 11/07 Q1014 NOSIG=
201202260400 METAR LMML NIL=
201202260345 METAR LMML 260345Z 28009KT 9999 BKN022 11/07 Q1014 NOSIG=
201202260330 METAR LMML NIL=
201202260315 METAR LMML 260315Z 28010KT 250V310 9999 BKN026 11/07 Q1014
                        NOSIG=
201202260300 METAR LMML NIL=
201202260245 METAR LMML 260245Z 28012KT 9999 BKN023 11/07 Q1014 NOSIG=
201202260230 METAR LMML NIL=
201202260215 METAR LMML 260215Z 28009KT 250V310 9999 BKN022 11/07 Q1015
                        NOSIG=
201202260200 METAR LMML NIL=
201202260145 METAR LMML 260145Z 29009KT 260V320 9999 SCT022 11/07 Q1015
                        NOSIG=
201202260130 METAR LMML NIL=
201202260115 METAR LMML 260115Z 28009KT 250V320 9999 SCT022 11/07 Q1016
                        NOSIG=
201202260100 METAR LMML NIL=
201202260045 METAR LMML 260045Z 28010KT 9999 SCT021 11/07 Q1016 NOSIG=
201202260030 METAR LMML NIL=
201202260015 METAR LMML 260015Z 27008KT 240V300 9999 SCT021 11/07 Q1016
                        NOSIG=
201202260000 METAR LMML NIL=
201202252345 METAR LMML 252345Z 28006KT 9999 BKN020 11/08 Q1016 NOSIG=
201202252330 METAR LMML NIL=
201202252315 METAR LMML 252315Z 28007KT 9999 SCT022 10/07 Q1017 NOSIG=
201202252300 METAR LMML NIL=
201202252245 METAR LMML 252245Z 29007KT 260V320 9999 SCT022 11/08 Q1017
                        NOSIG=
201202252230 METAR LMML NIL=
201202252215 METAR LMML 252215Z 27007KT 9999 SCT022 11/08 Q1017 NOSIG=
201202252200 METAR LMML NIL=
201202252145 METAR LMML 252145Z 27006KT 240V310 9999 FEW022 11/08 Q1017
                        NOSIG=
201202252130 METAR LMML NIL=
201202252115 METAR LMML 252115Z 27007KT 240V300 9999 SCT023 11/08 Q1018
                        NOSIG=
201202252100 METAR LMML NIL=
201202252045 METAR LMML 252045Z 26008KT 220V290 9999 FEW021 11/08 Q1018
                        NOSIG=
201202252030 METAR LMML NIL=
201202252015 METAR LMML 252015Z 26008KT 220V290 9999 FEW018 11/08 Q1018
                        NOSIG=
201202252000 METAR LMML NIL=
201202251945 METAR LMML 251945Z 27009KT 230V290 9999 FEW018 11/08 Q1018
                        NOSIG=
201202251930 METAR LMML NIL=
201202251915 METAR LMML 251915Z 27008KT 230V310 9999 FEW018 11/08 Q1018
                        NOSIG=
201202251900 METAR LMML NIL=
201202251845 METAR LMML 251845Z 27009KT 240V300 9999 FEW018 11/08 Q1018
                        NOSIG=
201202251830 METAR LMML NIL=
201202251815 METAR LMML 251815Z 27010KT 240V310 9999 FEW020 11/08 Q1018
                        NOSIG=
201202251800 METAR LMML NIL=
201202251745 METAR LMML 251745Z 27010KT 240V310 9999 FEW020 11/08 Q1019
                        NOSIG=
201202251715 METAR LMML 251715Z 28008KT 250V310 9999 FEW019 11/08 Q1019
                        NOSIG=
201202251700 METAR LMML NIL=
201202251645 METAR LMML 251645Z 28009KT 230V300 9999 FEW018 11/08 Q1019
                        NOSIG=
201202251630 METAR LMML NIL=
201202251615 METAR LMML 251615Z 28013KT 9999 FEW018 12/08 Q1019 NOSIG=
201202251600 METAR LMML NIL=
201202251545 METAR LMML 251545Z 29015KT 250V320 9999 FEW020 13/07 Q1019
                        NOSIG=
201202251530 METAR LMML NIL=
201202251515 METAR LMML 251515Z 29014KT 260V320 9999 SCT020 13/08 Q1019
                        NOSIG=
201202251500 METAR LMML NIL=
201202251445 METAR LMML 251445Z 30013KT 250V320 9999 BKN021 13/09 Q1020
                        NOSIG=
201202251430 METAR LMML NIL=
201202251415 METAR LMML 251415Z 29012KT 240V320 9999 BKN024 13/08 Q1020
                        NOSIG=
201202251400 METAR LMML NIL=
201202251345 METAR LMML 251345Z 30012KT 270V330 9999 BKN023 13/09 Q1020
                        NOSIG=
201202251330 METAR LMML NIL=
201202251315 METAR LMML 251315Z 30014KT 270V330 9999 BKN024 13/08 Q1021
                        NOSIG=
201202251300 METAR LMML NIL=
201202251245 METAR LMML 251245Z 29015KT 9999 BKN021 13/08 Q1021 NOSIG=
201202251230 METAR LMML NIL=
201202251215 METAR LMML 251215Z 28014KT 250V320 9999 SCT020 14/08 Q1021
                        NOSIG=
201202251200 METAR LMML NIL=
201202251145 METAR LMML 251145Z 29015KT 260V320 9999 SCT021 14/08 Q1022
                        NOSIG=
201202251130 METAR LMML NIL=
201202251115 METAR LMML 251115Z 30015KT 9999 SCT021 13/08 Q1022 NOSIG=
201202251100 METAR LMML NIL=
201202251045 METAR LMML 251045Z 30017KT 270V330 9999 SCT020 14/09 Q1023
                        NOSIG=
201202251030 METAR LMML NIL=
201202251015 METAR LMML 251015Z 30018KT 270V330 9999 SCT020 14/09 Q1023
                        NOSIG=
201202251000 METAR LMML NIL=
201202250945 METAR LMML 250945Z 28014KT 250V310 9999 SCT019 14/09 Q1023
                        NOSIG=
201202250930 METAR LMML NIL=
201202250915 METAR LMML 250915Z 29012KT 250V310 9999 BKN018 13/09 Q1023
                        NOSIG=
201202250900 METAR LMML NIL=
201202250845 METAR LMML 250845Z 29013KT 9999 BKN018 13/09 Q1023 NOSIG=
201202250830 METAR LMML NIL=
201202250815 METAR LMML 250815Z 29011KT 9999 SCT017 13/09 Q1023 NOSIG=
201202250800 METAR LMML NIL=
201202250745 METAR LMML 250745Z 30010KT 270V330 9999 FEW030 13/10 Q1023
                        NOSIG=
201202250730 METAR LMML NIL=
201202250715 METAR LMML 250715Z 29009KT 9999 FEW030 12/09 Q1023 NOSIG=
201202250700 METAR LMML NIL=
201202250645 METAR LMML 250645Z 30008KT 9999 FEW030 11/09 Q1023 NOSIG=
201202250630 METAR LMML NIL=
201202250615 METAR LMML 250615Z 30006KT 9999 FEW030 10/09 Q1023 NOSIG=
201202250600 METAR LMML NIL=
201202250545 METAR LMML 250545Z 29007KT 260V330 9999 FEW030 10/09 Q1023
                        NOSIG=
201202250530 METAR LMML NIL=
201202250515 METAR LMML 250515Z 30005KT 9999 FEW040 10/08 Q1023 NOSIG=
201202250500 METAR LMML NIL=
201202250445 METAR LMML 250445Z 31008KT CAVOK 10/09 Q1023 NOSIG=
201202250430 METAR LMML NIL=
201202250415 METAR LMML 250415Z 30008KT CAVOK 10/09 Q1023 NOSIG=
201202250400 METAR LMML NIL=
201202250345 METAR LMML 250345Z 30007KT CAVOK 10/09 Q1023 NOSIG=
201202250330 METAR LMML NIL=
201202250315 METAR LMML 250315Z 30008KT CAVOK 10/09 Q1024 NOSIG=
201202250300 METAR LMML NIL=
201202250245 METAR LMML 250245Z 30007KT CAVOK 10/09 Q1024 NOSIG=
201202250230 METAR LMML NIL=
201202250215 METAR LMML 250215Z 30007KT CAVOK 10/10 Q1024 NOSIG=
201202250200 METAR LMML NIL=
201202250145 METAR LMML 250145Z 30007KT CAVOK 10/09 Q1024 NOSIG=
201202250130 METAR LMML NIL=
201202250115 METAR LMML 250115Z 29007KT CAVOK 11/10 Q1025 NOSIG=
201202250100 METAR LMML NIL=
201202250045 METAR LMML 250045Z 27006KT 240V300 CAVOK 10/09 Q1025 NOSIG=
201202250030 METAR LMML NIL=
201202250015 METAR LMML 250015Z 29005KT CAVOK 11/09 Q1025 NOSIG=
201202250000 METAR LMML NIL=
201202242345 METAR LMML 242345Z 30006KT CAVOK 11/09 Q1025 NOSIG=
201202242330 METAR LMML NIL=
201202242315 METAR LMML 242315Z 29005KT CAVOK 11/10 Q1025 NOSIG=
201202242300 METAR LMML NIL=
201202242245 METAR LMML 242245Z 30006KT CAVOK 11/10 Q1025 NOSIG=
201202242230 METAR LMML NIL=
201202242215 METAR LMML 242215Z 30007KT CAVOK 11/10 Q1025 NOSIG=
201202242200 METAR LMML NIL=
201202242145 METAR LMML 242145Z 30006KT CAVOK 11/10 Q1025 NOSIG=
201202242130 METAR LMML NIL=
201202242115 METAR LMML 242115Z 30007KT CAVOK 11/10 Q1026 NOSIG=
201202242100 METAR LMML NIL=
201202242045 METAR LMML 242045Z 29007KT CAVOK 12/10 Q1026 NOSIG/ URN/SECURITYID=
201202242030 METAR LMML NIL=
201202242015 METAR LMML 242015Z 29005KT 260V320 CAVOK 11/10 Q1026 NOSIG/
                        URN/SECURITYID=
201202242000 METAR LMML NIL=
201202241945 METAR LMML 241945Z 29006KT CAVOK 11/10 Q1026 NOSIG/ URN/SECURITYID=
201202241930 METAR LMML NIL=
201202241915 METAR LMML 241915Z 29006KT 270V330 CAVOK 12/10 Q1026 NOSIG/
                        URN/SECURITYID=
201202241845 METAR LMML 241845Z 30006KT CAVOK 12/10 Q1025 NOSIG=
201202241830 METAR LMML NIL=
201202241815 METAR LMML 241815Z 30008KT 9999 FEW018 12/10 Q1025 NOSIG=
201202241800 METAR LMML NIL=
201202241745 METAR LMML 241745Z 29008KT 9999 FEW014 12/09 Q1025 NOSIG/
                        URN/SECURITYID=
201202241730 METAR LMML NIL=
201202241715 METAR LMML 241715Z 29009KT 260V320 9999 FEW020 12/09 Q1025
                        NOSIG=
201202241700 METAR LMML NIL=
201202241645 METAR LMML 241645Z 29009KT 9999 FEW020 12/09 Q1025 NOSIG=
201202241630 METAR LMML NIL=
201202241615 METAR LMML 241615Z 29010KT 9999 FEW024 13/09 Q1025 NOSIG=
201202241600 METAR LMML NIL=
201202241545 METAR LMML 241545Z 29009KT 260V320 9999 FEW024 14/09 Q1025
                        NOSIG=
201202241530 METAR LMML NIL=
201202241515 METAR LMML 241515Z 30009KT 9999 FEW024 14/08 Q1025 NOSIG=
201202241500 METAR LMML NIL=
201202241445 METAR LMML 241445Z 29009KT 9999 FEW024 15/08 Q1025 NOSIG=
201202241430 METAR LMML NIL=
201202241415 METAR LMML 241415Z 28008KT 250V320 9999 FEW024 15/07 Q1025
                        NOSIG=
201202241400 METAR LMML NIL=
201202241345 METAR LMML 241345Z 31008KT 9999 FEW024 15/08 Q1025 NOSIG=
201202241330 METAR LMML NIL=
201202241315 METAR LMML 241315Z 33006KT 290V360 9999 FEW024 15/08 Q1025
                        NOSIG=
201202241300 METAR LMML NIL=
201202241245 METAR LMML 241245Z 31006KT 260V340 9999 FEW024 15/09 Q1026
                        NOSIG=
201202241230 METAR LMML NIL=
201202241215 METAR LMML 241215Z 31006KT 260V340 9999 FEW024 15/09 Q1026
                        NOSIG=
201202241200 METAR LMML NIL=
201202241145 METAR LMML 241145Z 30008KT 270V330 9999 FEW023 15/09 Q1026
                        NOSIG=
201202241130 METAR LMML NIL=
201202241115 METAR LMML 241115Z 29007KT 260V340 9999 FEW022 15/09 Q1026
                        NOSIG=
201202241100 METAR LMML NIL=
201202241045 METAR LMML 241045Z 29008KT 260V320 9999 FEW023 15/09 Q1026
                        NOSIG=
201202241030 METAR LMML NIL=
201202241015 METAR LMML 241015Z 33005KT 9999 FEW026 15/09 Q1026 NOSIG=
201202241000 METAR LMML NIL=
201202240945 METAR LMML 240945Z 33006KT 290V350 9999 FEW025 15/08 Q1026
                        NOSIG=
201202240930 METAR LMML NIL=
201202240915 METAR LMML 240915Z 34006KT 310V010 9999 FEW020 14/09 Q1026
                        NOSIG=
201202240900 METAR LMML NIL=
201202240845 METAR LMML 240845Z 35004KT 310V030 9999 FEW020 14/10 Q1026
                        NOSIG=
201202240830 METAR LMML NIL=
201202240815 METAR LMML 240815Z 35003KT 9999 FEW020 14/10 Q1026 NOSIG=
201202240800 METAR LMML NIL=
201202240745 METAR LMML 240745Z VRB02KT 9999 FEW020 13/10 Q1025 NOSIG=
201202240730 METAR LMML NIL=
201202240715 METAR LMML 240715Z VRB02KT 9999 FEW020 12/10 Q1025 NOSIG=
201202240700 METAR LMML NIL=
201202240645 METAR LMML 240645Z VRB02KT 9999 FEW020 10/09 Q1024 NOSIG=
201202240630 METAR LMML NIL=
201202240615 METAR LMML 240615Z VRB01KT 9999 FEW020 08/07 Q1024 NOSIG=
201202240600 METAR LMML NIL=
201202240545 METAR LMML 240545Z VRB02KT 9999 FEW020 08/07 Q1024 NOSIG=
201202240530 METAR LMML NIL=
201202240515 METAR LMML 240515Z 03003KT 9999 FEW020 08/08 Q1023 NOSIG=
201202240500 METAR LMML NIL=
201202240445 METAR LMML 240445Z 36003KT CAVOK 08/07 Q1023 NOSIG=
201202240430 METAR LMML NIL=
201202240415 METAR LMML 240415Z VRB02KT CAVOK 08/07 Q1023 NOSIG=
201202240345 METAR LMML 240345Z VRB02KT 9999 FEW020 08/07 Q1023 NOSIG=
201202240330 METAR LMML NIL=
201202240315 METAR LMML 240315Z VRB02KT 9999 FEW020 09/08 Q1023 NOSIG=
201202240300 METAR LMML NIL=
201202240245 METAR LMML 240245Z 30004KT CAVOK 09/08 Q1023 NOSIG=
201202240230 METAR LMML NIL=
201202240215 METAR LMML 240215Z 31004KT CAVOK 09/08 Q1023 NOSIG=
201202240200 METAR LMML NIL=
201202240145 METAR LMML 240145Z 28004KT CAVOK 09/08 Q1023 NOSIG=
201202240130 METAR LMML NIL=
201202240115 METAR LMML 240115Z 30004KT CAVOK 09/08 Q1023 NOSIG=
201202240100 METAR LMML NIL=
201202240045 METAR LMML 240045Z 30003KT CAVOK 09/07 Q1023 NOSIG=
201202240030 METAR LMML NIL=
201202240015 METAR LMML 240015Z 29003KT CAVOK 09/07 Q1023 NOSIG=
201202240000 METAR LMML NIL=
201202232345 METAR LMML 232345Z 28004KT 240V310 CAVOK 09/07 Q1022 NOSIG=
201202232330 METAR LMML NIL=
201202232315 METAR LMML 232315Z 30003KT CAVOK 09/07 Q1022 NOSIG=
201202232300 METAR LMML NIL=
201202232245 METAR LMML 232245Z 32004KT 9999 FEW020 09/07 Q1022 NOSIG=
201202232230 METAR LMML NIL=
201202232215 METAR LMML 232215Z 32004KT 290V360 9999 FEW020 10/08 Q1022
                        NOSIG=
201202232200 METAR LMML NIL=
201202232145 METAR LMML 232145Z 01005KT 9999 FEW020 10/08 Q1021 NOSIG=
201202232130 METAR LMML NIL=
201202232115 METAR LMML 232115Z 01006KT 9999 FEW020 11/08 Q1021 NOSIG=
201202232100 METAR LMML NIL=
201202232045 METAR LMML 232045Z 01008KT 9999 FEW020 11/08 Q1021 NOSIG=
201202232030 METAR LMML NIL=
201202232015 METAR LMML 232015Z 01006KT 9999 FEW020 11/08 Q1021 NOSIG=
201202232000 METAR LMML NIL=
201202231945 METAR LMML 231945Z 01007KT 340V040 9999 FEW021 11/08 Q1020
                        NOSIG=
201202231930 METAR LMML NIL=
201202231915 METAR LMML 231915Z 36008KT 9999 FEW021 11/08 Q1020 NOSIG=
201202231900 METAR LMML NIL=
201202231845 METAR LMML 231845Z 02007KT 9999 FEW020 11/08 Q1019 NOSIG=
201202231830 METAR LMML NIL=
201202231815 METAR LMML 231815Z 03008KT 350V060 9999 FEW020 11/08 Q1019
                        NOSIG=
201202231800 METAR LMML NIL=
201202231745 METAR LMML 231745Z 02007KT 350V060 9999 FEW023 12/08 Q1018
                        NOSIG=
201202231730 METAR LMML NIL=
201202231715 METAR LMML 231715Z 02009KT 9999 FEW023 11/07 Q1018 NOSIG=
201202231700 METAR LMML NIL=
201202231645 METAR LMML 231645Z 02012KT 360V060 9999 SCT026 SCT044 SCT120
                        12/08 Q1017 NOSIG=
201202231630 METAR LMML NIL=
201202231615 METAR LMML 231615Z 03011KT 360V070 9999 SCT025 SCT050 12/08
                        Q1017 NOSIG=
201202231545 METAR LMML 231545Z 04008KT 360V070 9999 FEW017 SCT050 BKN090
                        12/09 Q1017 NOSIG=
201202231530 METAR LMML NIL=
201202231515 METAR LMML 231515Z 04007KT 010V080 9999 SCT017 SCT050 BKN120
                        12/09 Q1016 TEMPO 7000 SHRA=
201202231500 METAR LMML NIL=
201202231445 METAR LMML 231445Z 02007KT 350V050 9999 -SHRA SCT023 SCT035
                        BKN080 12/09 Q1016 TEMPO 7000 SHRA=
201202231430 METAR LMML NIL=
201202231415 METAR LMML 231415Z 07010KT 020V100 9999 SCT023 BKN060 11/08
                        Q1016 TEMPO 7000 SHRA=
201202231345 METAR LMML 231345Z 08013KT 9999 -SHRA SCT020 BKN050 10/08
                        Q1015 TEMPO 7000 SHRA=
201202231330 METAR LMML NIL=
201202231315 METAR LMML 231315Z 08015KT 9999 -SHRA SCT030 BKN044 11/07
                        Q1015 TEMPO 7000 SHRA=
201202231300 METAR LMML NIL=
201202231245 METAR LMML 231245Z 07015KT 040V100 9999 FEW019 BKN050 13/08
                        Q1015 NOSIG=
201202231230 METAR LMML NIL=
201202231215 METAR LMML 231215Z 06013KT 030V090 9999 FEW019 BKN050 12/08
                        Q1014 NOSIG=
201202231200 METAR LMML NIL=
201202231145 METAR LMML 231145Z 07013KT 020V100 9999 SCT018 BKN042 12/09
                        Q1014 NOSIG=
201202231130 METAR LMML NIL=
201202231115 METAR LMML 231115Z 08010KT 040V110 9999 FEW035 11/08 Q1014
                        TEMPO 7000 SHRA=
201202231100 METAR LMML NIL=
201202231045 METAR LMML 231045Z 07010KT 040V100 9999 SCT019 BKN044 11/09
                        Q1014 TEMPO 7000 SHRA=
201202231030 METAR LMML NIL=
201202231015 METAR LMML 231015Z 09015KT 050V110 9999 -RA FEW020 BKN050
                        11/08 Q1014 TEMPO 7000 SHRA=
201202231000 METAR LMML NIL=
201202230945 METAR LMML 230945Z 09014KT 050V110 9999 -RA FEW018 SCT050
                        BKN250 12/09 Q1014 TEMPO 7000 SHRA=
201202230930 METAR LMML NIL=
201202230915 METAR LMML 230915Z 08012KT 9999 FEW016 BKN049 11/08 Q1013
                        TEMPO 7000 SHRA=
201202230900 METAR LMML NIL=
201202230845 METAR LMML 230845Z 09011KT 060V120 9999 -RA FEW020 BKN044
                        10/08 Q1013 TEMPO 7000 SHRA=
201202230830 METAR LMML NIL=
201202230815 METAR LMML 230815Z 10015KT 060V130 9999 -SHRA FEW011 SCT018
                        BKN045 10/08 Q1013 TEMPO 7000 SHRA=
201202230800 METAR LMML NIL=
201202230745 METAR LMML 230745Z 10017KT 9999 -SHRA FEW012 SCT025 BKN050
                        10/08 Q1012 TEMPO 7000 SHRA=
201202230730 METAR LMML NIL=
201202230715 METAR LMML 230715Z 10016KT 080V150 9999 -RA FEW012 BKN050
                        10/08 Q1012 TEMPO 7000 SHRA=
201202230700 METAR LMML NIL=
201202230645 METAR LMML 230645Z 08012KT 050V120 9999 FEW013 SCT025 BKN050
                        10/08 Q1012 TEMPO 7000 SHRA=
201202230630 METAR LMML NIL=
201202230615 METAR LMML 230615Z 08013KT 050V110 9999 FEW012 SCT025 BKN060
                        10/08 Q1011 TEMPO 7000 SHRA=
201202230600 METAR LMML NIL=
201202230545 METAR LMML 230545Z 10013KT 060V130 9999 -RA FEW009 SCT026
                        BKN047 10/08 Q1010 TEMPO 7000=
201202230530 METAR LMML NIL=
201202230515 METAR LMML 230515Z 11016KT 9000 -RA SCT022 BKN038 10/07 Q1010
                        NOSIG=
201202230445 METAR LMML 230445Z 11012KT 9999 FEW019 SCT050 BKN060 10/08
                        Q1010 TEMPO 5000 RA=
201202230430 METAR LMML NIL=
201202230415 METAR LMML 230415Z 09010KT 9000 -RA FEW012 FEW020TCU BKN050
                        10/08 Q1010 TEMPO 5000=
201202230400 METAR LMML NIL=
201202230345 METAR LMML 230345Z 11011KT 7000 -RA FEW009 SCT023 SCT043
                        09/08 Q1010 TEMPO 5000 TSRA BKN015CB=
201202230330 METAR LMML NIL=
201202230315 METAR LMML 230315Z 13011KT 6000 -RA SCT023 OVC045 10/08 Q1010
                        TEMPO 5000 TSRA BKN015CB=
201202230300 METAR LMML NIL=
201202230245 METAR LMML 230245Z 16010KT 130V200 6000 -RA FEW009 SCT022TCU
                        BKN048 09/07 Q1010 RERA TEMPO 5000
                        TSRA BKN015CB=
201202230230 METAR LMML NIL=
201202230215 METAR LMML 230215Z 18012KT 120V220 9000 -RA SCT021 BKN041
                        09/07 Q1010 TEMPO 5000 TSRA BKN015CB=
201202230200 METAR LMML NIL=
201202230145 METAR LMML 230145Z 12012KT 9999 -RA BKN022 BKN040 10/08 Q1010
                        TEMPO 5000 TSRA BKN015CB=
201202230130 METAR LMML NIL=
201202230115 METAR LMML 230115Z 13015KT 9999 FEW029 09/07 Q1010 RERA TEMPO
                        5000 TSRA BKN015CB=
201202230100 METAR LMML NIL=
201202230045 METAR LMML 230045Z 13015KT 9999 -RA FEW017 BKN035 BKN060
                        09/07 Q1011 RERA TEMPO 5000 TSRA
                        BKN015CB=
201202230030 METAR LMML NIL=
201202230015 METAR LMML 230015Z 13015KT 6000 RA FEW014 SCT031 BKN045 09/07
                        Q1011 TEMPO 5000 TSRA BKN015CB=
201202230000 METAR LMML NIL=
201202222345 METAR LMML 222345Z 14016G26KT 120V180 7000 RA FEW012 SCT020
                        BKN043 09/07 Q1011 TEMPO 5000 TSRA
                        BKN015CB=
201202222330 METAR LMML NIL=
201202222315 METAR LMML 222315Z 12008KT 7000 RA SCT015 BKN046 09/07 Q1011
                        TEMPO 5000 TSRA BKN015CB=
201202222300 METAR LMML NIL=
201202222245 METAR LMML 222245Z 19005KT 160V240 9999 BKN027 BKN050 09/06
                        Q1011 RERA TEMPO 5000 TSRA BKN015CB=
201202222230 METAR LMML NIL=
201202222215 METAR LMML 222215Z 14006KT 090V200 9999 -RA SCT029 BKN050
                        09/04 Q1011 TEMPO 5000 TSRA BKN015CB=
201202222200 METAR LMML NIL=
201202222145 METAR LMML 222145Z 16017KT 130V190 9999 -RA SCT027 BKN060
                        10/05 Q1011 TEMPO 5000 TSRA BKN015CB=
201202222115 METAR LMML 222115Z 16011KT 110V220 9999 SHRA BKN025 BKN120
                        10/07 Q1011 TEMPO 5000 TSRA BKN015CB=
201202222100 METAR LMML NIL=
201202222045 METAR LMML 222045Z 15014KT 9999 FEW033TCU SCT120 11/06 Q1010
                        TEMPO 5000 TSRA BKN015CB=
201202222030 METAR LMML NIL=
201202222015 METAR LMML 222015Z 16009KT 9999 FEW025 SCT090 11/07 Q1011
                        TEMPO 5000 TSRA BKN015CB=
201202222000 METAR LMML NIL=
201202221945 METAR LMML 221945Z 15007KT 9999 SCT025 SCT049 10/06 Q1011
                        TEMPO 7000 SHRA BKN015TCU=
201202221930 METAR LMML NIL=
201202221915 METAR LMML 221915Z 19014KT 140V220 9999 -SHRA SCT025 BKN050
                        11/06 Q1011 TEMPO 7000 BKN015TCU=
201202221900 METAR LMML NIL=
201202221845 METAR LMML 221845Z 18009KT 150V210 9999 SCT032 11/06 Q1010
                        NOSIG=
201202221830 METAR LMML NIL=
201202221815 METAR LMML 221815Z 19010KT 160V220 9999 FEW029 11/06 Q1010
                        NOSIG=
201202221800 METAR LMML NIL=
201202221745 METAR LMML 221745Z 18011KT 9999 SCT030 11/06 Q1010 NOSIG=
201202221730 METAR LMML NIL=
201202221715 METAR LMML 221715Z 19008KT 160V230 9999 SCT027 11/06 Q1010
                        NOSIG=
201202221700 METAR LMML NIL=
201202221645 METAR LMML 221645Z 20009KT 160V250 9999 SCT027 11/06 Q1010
                        NOSIG=
201202221630 METAR LMML NIL=
201202221615 METAR LMML 221615Z 20009KT 170V260 9999 SCT027 11/07 Q1009
                        NOSIG=
201202221600 METAR LMML NIL=
201202221545 METAR LMML 221545Z 20008KT 170V250 9999 SCT026TCU 11/08 Q1009
                        NOSIG=
201202221530 METAR LMML NIL=
201202221515 METAR LMML 221515Z 22008KT 170V280 9999 SCT022 SCT040 11/08
                        Q1009 NOSIG=
201202221500 METAR LMML NIL=
201202221445 METAR LMML 221445Z 23005KT 190V280 9999 -SHRA SCT020 BKN040
                        11/08 Q1009 NOSIG=
201202221430 METAR LMML NIL=
201202221415 METAR LMML 221415Z 21007KT 140V270 9999 SCT020 BKN046 11/07
                        Q1009 NOSIG=
201202221400 METAR LMML NIL=
201202221345 METAR LMML 221345Z 23009KT 190V280 9999 SCT025 SCT050 12/07
                        Q1009 NOSIG=
201202221330 METAR LMML NIL=
201202221315 METAR LMML 221315Z 22012KT 190V270 9999 SCT022 BKN049 11/06
                        Q1009 NOSIG=
201202221300 METAR LMML NIL=
201202221245 METAR LMML 221245Z 22011KT 180V280 9999 SCT018 SCT038 12/08
                        Q1009 NOSIG=
201202221230 METAR LMML NIL=
201202221215 METAR LMML 221215Z 23012KT 180V270 9999 BKN021 SCT049 12/07
                        Q1009 NOSIG=
201202221200 METAR LMML NIL=
201202221145 METAR LMML 221145Z 23013KT 190V270 9999 SCT019 SCT047 11/07
                        Q1009 NOSIG=
201202221130 METAR LMML NIL=
201202221115 METAR LMML 221115Z 22013KT 190V270 9999 BKN019 SCT045 11/08
                        Q1009 NOSIG=
201202221100 METAR LMML NIL=
201202221045 METAR LMML 221045Z 22014KT 200V260 9999 SCT015 SCT040 11/08
                        Q1009 NOSIG=
201202221030 METAR LMML NIL=
201202221015 METAR LMML 221015Z 22013KT 190V260 9999 SCT015 BKN050 13/09
                        Q1009 TEMPO BKN011=
201202221000 METAR LMML NIL=
201202220945 METAR LMML 220945Z 24013KT 200V280 9999 SCT014 SCT060 12/09
                        Q1009 TEMPO BKN011=
201202220930 METAR LMML NIL=
201202220915 METAR LMML 220915Z 24013KT 200V300 9999 SCT013 BKN060 12/09
                        Q1008 TEMPO BKN011=
201202220900 METAR LMML NIL=
201202220845 METAR LMML 220845Z 23011KT 200V280 9999 SCT011 BKN038 12/09
                        Q1008 TEMPO BKN011=
201202220830 METAR LMML NIL=
201202220815 METAR LMML 220815Z 22012KT 190V260 9999 SCT013 BKN045 12/09
                        Q1008 NOSIG=
201202220800 METAR LMML NIL=
201202220745 METAR LMML 220745Z 21010KT 170V250 9999 SCT017 BKN047 12/09
                        Q1007 NOSIG=
201202220730 METAR LMML NIL=
201202220715 METAR LMML 220715Z 21008KT 180V270 9999 FEW017 BKN042 12/09
                        Q1007 NOSIG=
201202220700 METAR LMML NIL=
201202220645 METAR LMML 220645Z 22009KT 200V270 9999 FEW013 SCT041 11/09
                        Q1007 NOSIG=
201202220630 METAR LMML NIL=
201202220615 METAR LMML 220615Z 22010KT 190V270 9999 SCT012 BKN034 11/09
                        Q1007 NOSIG=
201202220600 METAR LMML NIL=
201202220545 METAR LMML 220545Z 22009KT 180V270 9999 SCT012 BKN031 11/09
                        Q1006 BECMG 22007KT=
201202220530 METAR LMML NIL=
201202220515 METAR LMML 220515Z 22009KT 180V260 9000 FEW013 BKN033 11/09
                        Q1006 BECMG 22007KT=
201202220500 METAR LMML NIL=
201202220445 METAR LMML 220445Z 22010KT 180V260 9000 FEW011 SCT030 11/09
                        Q1006 BECMG 22007KT=
201202220430 METAR LMML NIL=
201202220415 METAR LMML 220415Z 21010KT 180V270 9000 FEW014 SCT046 11/09
                        Q1005 BECMG 22007KT=
201202220400 METAR LMML NIL=
201202220345 METAR LMML 220345Z 21008KT 160V270 9000 SCT012 SCT017 BKN047
                        11/10 Q1005 BECMG 22007KT=
201202220330 METAR LMML NIL=
201202220315 METAR LMML 220315Z 21008KT 170V250 9000 SCT012 SCT018 BKN034
                        11/10 Q1005 BECMG 22007KT=
201202220300 METAR LMML NIL=
201202220245 METAR LMML 220245Z 21008KT 180V250 9000 BKN008 SCT016 12/11
                        Q1005 BECMG 22007KT=
201202220230 METAR LMML NIL=
201202220215 METAR LMML 220215Z 21007KT 180V250 7000 BKN007 BKN017 12/12
                        Q1005 BECMG 22007KT=
201202220200 METAR LMML NIL=
201202220145 METAR LMML 220145Z 18009KT 150V230 5000 -RA BKN009 BKN018
                        BKN040 13/12 Q1005 NOSIG=
201202220130 METAR LMML NIL=
201202220115 METAR LMML 220115Z 14013KT 5000 BKN006 BKN010 BKN040 13/13
                        Q1006 NOSIG=
201202220100 METAR LMML NIL=
201202220045 METAR LMML 220045Z 13014KT 5000 SCT007 BKN015 BKN042 13/13
                        Q1006 NOSIG=
201202220030 METAR LMML NIL=
201202220015 METAR LMML 220015Z 12017KT 060V170 5000 -RA BKN008 BKN015
                        BKN042 13/13 Q1006 NOSIG=
201202220000 METAR LMML NIL=
201202212345 METAR LMML 212345Z 13017KT 5000 -RA BKN009 BKN016 BKN042
                        13/12 Q1007 NOSIG=
201202212330 METAR LMML NIL=
201202212315 METAR LMML 212315Z 12018KT 5000 -RA BKN009 SCT016 BKN042
                        13/12 Q1007 NOSIG=
201202212300 METAR LMML NIL=
201202212245 METAR LMML 212245Z 14017KT 110V170 5000 -RA SCT009 BKN013
                        BKN042 13/12 Q1007 NOSIG=
201202212230 METAR LMML NIL=
201202212215 METAR LMML 212215Z 14017G27KT 5000 -RA BKN008 SCT015 BKN042
                        13/12 Q1008 NOSIG=
201202212200 METAR LMML NIL=
201202212145 METAR LMML 212145Z 13017KT 5000 -RA BKN006 OVC045 13/12 Q1008
                        NOSIG=
201202212130 METAR LMML NIL=
201202212115 METAR LMML 212115Z 13020KT 5000 BKN006 OVC045 13/12 Q1009
                        NOSIG=
201202212100 METAR LMML NIL=
201202212045 METAR LMML 212045Z 13017KT 5000 -RA BKN007 OVC045 13/12 Q1009
                        NOSIG=
201202212030 METAR LMML NIL=
201202212015 METAR LMML 212015Z 13018KT 5000 -RA BKN007 OVC045 13/12 Q1009
                        NOSIG=
201202212000 METAR LMML NIL=
201202211945 METAR LMML 211945Z 12019KT 5000 BKN007 BKN045 12/12 Q1009
                        RERA NOSIG=
201202211930 METAR LMML NIL=
201202211915 METAR LMML 211915Z 12017KT 5000 RA BKN006 OVC045 12/12 Q1010
                        NOSIG=
201202211900 METAR LMML NIL=
201202211845 METAR LMML 211845Z 12020KT 5000 BKN006 BKN050 12/11 Q1010
                        NOSIG=
201202211830 METAR LMML NIL=
201202211815 METAR LMML 211815Z 12023KT 8000 BKN007 OVC060 12/11 Q1010
                        NOSIG=
201202211800 METAR LMML NIL=
201202211745 METAR LMML 211745Z 12024KT 8000 -RA BKN009 OVC050 12/11 Q1010
                        TEMPO 5000 RA BKN005=
201202211730 METAR LMML NIL=
201202211715 METAR LMML 211715Z 11024KT 9999 -RA BKN008 OVC050 12/11 Q1010
                        TEMPO 5000 RA BKN005=
201202211700 METAR LMML NIL=
201202211645 METAR LMML 211645Z 12025KT 9999 -RA BKN010 OVC050 12/11 Q1010
                        TEMPO 5000 RA BKN005=
201202211630 METAR LMML NIL=
201202211615 METAR LMML 211615Z 11024KT 5000 RA BKN011 OVC050 11/10 Q1011
                        NOSIG=
201202211600 METAR LMML NIL=
201202211545 METAR LMML 211545Z 12025KT 090V150 6000 -RA BKN014 BKN029
                        OVC050 11/10 Q1011 TEMPO 12018G28KT=
201202211530 METAR LMML NIL=
201202211515 METAR LMML 211515Z 12024KT 6000 -RA FEW009 BKN029 OVC045
                        11/10 Q1012 TEMPO 12018G28KT=
201202211500 METAR LMML NIL=
201202211445 METAR LMML 211445Z 12024KT 5000 -RA BKN011 OVC043 11/10 Q1012
                        TEMPO 12020G30KT BKN010=
201202211430 METAR LMML NIL=
201202211415 METAR LMML 211415Z 12024KT 6000 -RA BKN010 OVC040 11/10 Q1012
                        RERA TEMPO 12020G30KT=
201202211400 METAR LMML NIL=
201202211345 METAR LMML 211345Z 12023KT 6000 -RA BKN009 OVC040 11/10 Q1012
                        RERA TEMPO 12020G30KT 5000=
201202211330 METAR LMML NIL=
201202211315 METAR LMML 211315Z 12024KT 5000 RA BKN009 OVC040 11/10 Q1013
                        TEMPO 3000=
201202211300 METAR LMML NIL=
201202211245 METAR LMML 211245Z 12021KT 5000 RA BKN012 BKN028 11/10 Q1014
                        TEMPO 3000=
201202211230 METAR LMML NIL=
201202211215 METAR LMML 211215Z 13022KT 5000 RA BKN010 OVC040 11/10 Q1015
                        TEMPO 3000=
201202211200 METAR LMML NIL=
201202211145 METAR LMML 211145Z 11020KT 4000 RA BKN008 OVC040 12/11 Q1015
                        NOSIG=
201202211130 METAR LMML NIL=
201202211115 METAR LMML 211115Z 12020KT 5000 RA BKN009 OVC027 11/11 Q1016
                        TEMPO 3000=
201202211100 METAR LMML NIL=
201202211045 METAR LMML 211045Z 13020KT 7000 -RA BKN009 OVC027 12/11 Q1017
                        RERA TEMPO 5000 BKN005=
201202211030 METAR LMML NIL=
201202211015 METAR LMML 211015Z 13019KT 4000 RA BKN004 BKN040 12/12 Q1017
                        NOSIG=
201202211000 METAR LMML NIL=
201202210945 METAR LMML 210945Z 12008KT 3000 RA BKN005 OVC031 12/12 Q1018
                        NOSIG=
201202210930 METAR LMML NIL=
201202210915 METAR LMML 210915Z 11015KT 090V150 5000 RA BKN005 OVC040
                        12/12 Q1018 NOSIG=
201202210900 METAR LMML NIL=
201202210845 METAR LMML 210845Z 11008KT 4000 RA BKN004 BKN040 12/12 Q1018
                        NOSIG=
201202210830 METAR LMML NIL=
201202210815 METAR LMML 210815Z 13003KT 4000 RA BKN004 OVC040 12/11 Q1018
                        NOSIG=
201202210800 METAR LMML NIL=
201202210745 METAR LMML 210745Z 10006KT 070V140 4000 RA BKN009 OVC043
                        11/10 Q1018 TEMPO 3000 BKN005=
201202210730 METAR LMML NIL=
201202210715 METAR LMML 210715Z 05010KT 010V080 3000 RA BKN005 OVC040
                        12/11 Q1017 NOSIG=
201202210700 METAR LMML NIL=
201202210645 METAR LMML 210645Z 06005KT 020V100 7000 -RA FEW011 OVC060
                        12/11 Q1018 TEMPO 7000 BKN008=
201202210630 METAR LMML NIL=
201202210615 METAR LMML 210615Z 03004KT 9999 -RA SCT009 OVC060 11/11 Q1018
                        TEMPO 7000 BKN008=
201202210600 METAR LMML NIL=
201202210545 METAR LMML 210545Z 04006KT 360V100 7000 RA BKN005 SCT026
                        BKN060 12/11 Q1018 NOSIG=
201202210530 METAR LMML NIL=
201202210515 METAR LMML 210515Z 03005KT 350V070 7000 RA BKN005 BKN050
                        12/11 Q1018 NOSIG=
201202210500 METAR LMML NIL=
201202210445 METAR LMML 210445Z 03006KT 350V080 9999 RA SCT008 BKN040
                        12/11 Q1019 BECMG 8000 BKN008=
201202210430 METAR LMML NIL=
201202210415 METAR LMML 210415Z 06004KT 020V090 9999 RA SCT008 BKN050
                        12/11 Q1019 BECMG 8000 BKN008=
201202210400 METAR LMML NIL=
201202210345 METAR LMML 210345Z 04005KT 9999 FEW009 BKN120 12/11 Q1019
                        NOSIG=
201202210330 METAR LMML NIL=
201202210315 METAR LMML 210315Z 04005KT 010V070 9999 FEW012 SCT060 BKN120
                        11/10 Q1019 NOSIG=
201202210300 METAR LMML NIL=
201202210245 METAR LMML 210245Z 06004KT 030V090 9999 FEW008 BKN120 11/10
                        Q1019 NOSIG=
201202210230 METAR LMML NIL=
201202210215 METAR LMML 210215Z 04005KT 010V080 9999 FEW007 BKN120 12/10
                        Q1019 NOSIG=
201202210200 METAR LMML NIL=
201202210145 METAR LMML 210145Z 04006KT 010V070 9999 BKN012 SCT120 12/10
                        Q1020 NOSIG=
201202210130 METAR LMML NIL=
201202210115 METAR LMML 210115Z 04005KT 010V080 9999 BKN012 SCT080 12/10
                        Q1021 NOSIG=
201202210100 METAR LMML NIL=
201202210045 METAR LMML 210045Z 05006KT 020V080 9999 BKN014 BKN080 12/10
                        Q1021 NOSIG=
201202210030 METAR LMML NIL=
201202210015 METAR LMML 210015Z 05005KT 010V100 9999 BKN013 SCT080 11/10
                        Q1021 NOSIG=
201202202345 METAR LMML 202345Z 05004KT 010V090 9999 FEW014 SCT080 11/09
                        Q1021 NOSIG=
201202202330 METAR LMML NIL=
201202202315 METAR LMML 202315Z 06005KT 9999 FEW020 SCT080 11/09 Q1022
                        NOSIG=
201202202245 METAR LMML 202245Z 07004KT 030V110 9999 FEW020 SCT080 11/09
                        Q1022 NOSIG=
201202202215 METAR LMML 202215Z 07004KT 040V120 9999 FEW020 SCT060 11/09
                        Q1022 NOSIG=
201202202145 METAR LMML 202145Z 08005KT 9999 FEW020 SCT060 11/09 Q1022
                        NOSIG=
201202202115 METAR LMML 202115Z 09006KT 050V110 9999 FEW020 SCT070 11/09
                        Q1022 NOSIG=
201202202100 METAR LMML NIL=
201202202045 METAR LMML 202045Z 08005KT 9999 FEW020 SCT070 11/09 Q1022
                        NOSIG=
201202202030 METAR LMML NIL=
201202202015 METAR LMML 202015Z 08005KT CAVOK 11/09 Q1022 NOSIG=
201202202000 METAR LMML NIL=
201202201945 METAR LMML 201945Z 07005KT 9999 FEW020 SCT070 BKN090 11/08
                        Q1022 NOSIG=
201202201930 METAR LMML NIL=
201202201915 METAR LMML 201915Z 07004KT 040V110 9999 FEW020 SCT050 BKN100
                        11/08 Q1022 NOSIG=
201202201900 METAR LMML NIL=
201202201845 METAR LMML 201845Z 07004KT 9999 FEW020 SCT050 BKN090 11/08
                        Q1022 NOSIG=
201202201830 METAR LMML NIL=
201202201815 METAR LMML 201815Z 07003KT 9999 FEW020 BKN080 12/08 Q1022
                        NOSIG=
201202201800 METAR LMML NIL=
201202201745 METAR LMML 201745Z 07003KT 9999 FEW021 BKN080 12/08 Q1021
                        NOSIG=
201202201730 METAR LMML NIL=
201202201715 METAR LMML 201715Z 09004KT 050V220 9999 FEW021 BKN090 12/08
                        Q1021 NOSIG=
201202201645 METAR LMML 201645Z 08004KT 060V120 9999 FEW021 BKN080 12/07
                        Q1021 NOSIG=
201202201615 METAR LMML 201615Z 09005KT 9999 FEW021 BKN080 12/08 Q1021
                        NOSIG=
201202201600 METAR LMML NIL=
201202201545 METAR LMML 201545Z 09005KT 060V120 9999 FEW021 SCT090 13/08
                        Q1021 NOSIG=
201202201530 METAR LMML NIL=
201202201515 METAR LMML 201515Z 12006KT 080V140 9999 FEW021 SCT110 13/09
                        Q1021 NOSIG=
201202201500 METAR LMML NIL=
201202201445 METAR LMML 201445Z 11005KT 060V140 9999 FEW021 13/08 Q1021
                        NOSIG=
201202201430 METAR LMML NIL=
201202201415 METAR LMML 201415Z 12005KT 090V160 9999 FEW020 SCT110 14/09
                        Q1021 NOSIG=
201202201400 METAR LMML NIL=
201202201345 METAR LMML 201345Z 11005KT 060V150 9999 SCT017 SCT110 13/09
                        Q1021 NOSIG=
201202201330 METAR LMML NIL=
201202201315 METAR LMML 201315Z 13007KT 090V160 9999 SCT017 SCT110 13/09
                        Q1021 NOSIG=
201202201300 METAR LMML NIL=
201202201245 METAR LMML 201245Z 13006KT 080V170 9999 SCT020 14/09 Q1021
                        NOSIG=
201202201230 METAR LMML NIL=
201202201215 METAR LMML 201215Z 09005KT 050V140 9999 FEW025 SCT110 15/06
                        Q1021 NOSIG=
201202201200 METAR LMML NIL=
201202201145 METAR LMML 201145Z 13006KT 090V160 9999 FEW025 SCT110 14/07
                        Q1022 NOSIG=
201202201130 METAR LMML NIL=
201202201115 METAR LMML 201115Z 13005KT 090V180 9999 FEW025 SCT110 15/07
                        Q1022 NOSIG=
201202201100 METAR LMML NIL=
201202201045 METAR LMML 201045Z 13005KT 100V170 9999 FEW025 SCT110 15/07
                        Q1022 NOSIG=
201202201030 METAR LMML NIL=
201202201015 METAR LMML 201015Z 12005KT 080V160 9999 FEW025 SCT110 15/07
                        Q1022 NOSIG=
201202201000 METAR LMML NIL=
201202200945 METAR LMML 200945Z 12005KT 9999 FEW025 SCT090 15/07 Q1022
                        NOSIG=
201202200930 METAR LMML NIL=
201202200915 METAR LMML 200915Z 12005KT 060V140 9999 FEW025 SCT080 BKN110
                        14/06 Q1022 NOSIG=
201202200900 METAR LMML NIL=
201202200845 METAR LMML 200845Z 11005KT 080V140 9999 FEW025 BKN090 13/08
                        Q1022 NOSIG=
201202200830 METAR LMML NIL=
201202200815 METAR LMML 200815Z 12003KT 9999 FEW025 SCT080 BKN110 12/08
                        Q1022 NOSIG=
201202200800 METAR LMML NIL=
201202200745 METAR LMML 200745Z VRB02KT 9999 FEW025 BKN090 11/08 Q1022
                        NOSIG=
201202200730 METAR LMML NIL=
201202200715 METAR LMML 200715Z VRB02KT 9999 FEW025 BKN080 10/08 Q1022
                        NOSIG RMK TCU TO NORTH=
201202200700 METAR LMML NIL=
201202200645 METAR LMML 200645Z VRB01KT 9999 FEW025 BKN080 10/07 Q1022
                        NOSIG RMK TCU TO NORTH=
201202200630 METAR LMML NIL=
201202200615 METAR LMML 200615Z 14003KT 9999 FEW030 BKN090 10/06 Q1022
                        NOSIG=
201202200600 METAR LMML NIL=
201202200545 METAR LMML 200545Z 12005KT 9999 FEW030 BKN100 09/06 Q1022
                        NOSIG=
201202200530 METAR LMML NIL=
201202200515 METAR LMML 200515Z 11005KT 9999 FEW030 SCT060 BKN100 09/06
                        Q1022 TEMPO 8000 RA=
201202200500 METAR LMML NIL=
201202200445 METAR LMML 200445Z 14003KT 9999 FEW034 SCT060 BKN110 09/06
                        Q1022 RERA TEMPO 8000 RA=
201202200430 METAR LMML NIL=
201202200415 METAR LMML 200415Z 05007KT 010V090 9999 SCT034 BKN060 10/05
                        Q1021 RERA TEMPO 8000 RA=
201202200400 METAR LMML NIL=
201202200345 METAR LMML 200345Z 22004KT 190V270 9000 RA FEW012 SCT032
                        BKN050 09/06 Q1022 RESHRA NOSIG=
201202200330 METAR LMML NIL=
201202200315 METAR LMML 200315Z 06003KT 9999 -SHRA BKN024 09/06 Q1022
                        RESHRA NOSIG=
201202200300 METAR LMML NIL=
201202200245 METAR LMML 200245Z 25011KT 200V300 9000 SHRA BKN024 BKN120
                        10/05 Q1022 NOSIG=
201202200230 METAR LMML NIL=
201202200215 METAR LMML 200215Z VRB02KT 9999 FEW022 BKN120 09/06 Q1022
                        NOSIG=
201202200200 METAR LMML NIL=
201202200145 METAR LMML 200145Z 18003KT 9999 FEW022 BKN120 10/05 Q1022
                        NOSIG=
201202200130 METAR LMML NIL=
201202200115 METAR LMML 200115Z 18004KT 9999 FEW022 BKN120 11/07 Q1022
                        NOSIG=
201202200100 METAR LMML NIL=
201202200045 METAR LMML 200045Z 16004KT 9999 FEW023 BKN120 11/07 Q1023
                        NOSIG=
201202200030 METAR LMML NIL=
201202200015 METAR LMML 200015Z 16005KT 9999 FEW026 BKN120 11/08 Q1023
                        NOSIG=
201202200000 METAR LMML NIL=
201202192345 METAR LMML 192345Z 13005KT 9999 FEW025 SCT060 BKN120 10/07
                        Q1023 NOSIG=
201202192330 METAR LMML NIL=
201202192315 METAR LMML 192315Z 15005KT 9999 FEW026 SCT060 BKN120 11/08
                        Q1023 NOSIG=
201202192300 METAR LMML NIL=
201202192245 METAR LMML 192245Z 15004KT 9999 FEW028 BKN060 10/08 Q1023
                        NOSIG=
201202192230 METAR LMML NIL=
201202192215 METAR LMML 192215Z 12003KT 9999 FEW020 BKN060 10/08 Q1023
                        NOSIG=
201202192200 METAR LMML NIL=
201202192145 METAR LMML 192145Z 13004KT 9999 FEW020 BKN060 10/08 Q1023
                        NOSIG=
201202192130 METAR LMML NIL=
201202192115 METAR LMML 192115Z 14005KT 9999 FEW020 BKN060 10/08 Q1024
                        NOSIG=
201202192100 METAR LMML NIL=
201202192045 METAR LMML 192045Z 00000KT 9999 FEW023 BKN060 OVC070 09/08
                        Q1024 NOSIG=
201202192030 METAR LMML NIL=
201202192015 METAR LMML 192015Z VRB01KT 9999 FEW027 SCT060 BKN090 09/08
                        Q1023 NOSIG=
201202192000 METAR LMML NIL=
201202191945 METAR LMML 191945Z 09003KT 9999 FEW015 SCT090 09/08 Q1023
                        TEMPO 9000 RA=
201202191930 METAR LMML NIL=
201202191915 METAR LMML 191915Z 10003KT 9999 FEW015 SCT090 09/08 Q1023
                        TEMPO 9000 RA=
201202191900 METAR LMML NIL=
201202191845 METAR LMML 191845Z 09004KT 9999 FEW015 BKN070 10/08 Q1023
                        TEMPO 9000 RA=
201202191830 METAR LMML NIL=
201202191815 METAR LMML 191815Z 13004KT 9000 -RA FEW015 BKN040 10/08 Q1023
                        NOSIG=
201202191800 METAR LMML NIL=
201202191745 METAR LMML 191745Z 16005KT 120V190 9999 -RA FEW015 BKN037
                        10/08 Q1023 NOSIG=
201202191730 METAR LMML NIL=
201202191715 METAR LMML 191715Z 22004KT 160V300 9999 -RA FEW019 BKN030
                        10/07 Q1023 NOSIG=
201202191700 METAR LMML NIL=
201202191645 METAR LMML 191645Z 25004KT 190V310 9999 SCT030 SCT070 11/07
                        Q1022 NOSIG=
201202191630 METAR LMML NIL=
201202191615 METAR LMML 191615Z 16007KT 9999 SCT030 BKN070 12/06 Q1022
                        NOSIG=
201202191545 METAR LMML 191545Z 16007KT 120V190 9999 FEW030 BKN070 12/06
                        Q1022 NOSIG=
201202191530 METAR LMML NIL=
201202191515 METAR LMML 191515Z 16008KT 9999 FEW030 BKN070 12/06 Q1022
                        NOSIG=
201202191500 METAR LMML NIL=
201202191445 METAR LMML 191445Z 16007KT 130V190 9999 FEW030 BKN060 12/06
                        Q1022 NOSIG=
201202191430 METAR LMML NIL=
201202191415 METAR LMML 191415Z 16008KT 130V190 9999 FEW030 BKN060 12/06
                        Q1022 NOSIG=
201202191400 METAR LMML NIL=
201202191345 METAR LMML 191345Z 16008KT 140V210 9999 FEW033 BKN060 12/05
                        Q1023 NOSIG=
201202191315 METAR LMML 191315Z 16008KT 130V210 9999 FEW032 BKN050 12/05
                        Q1023 NOSIG=
201202191300 METAR LMML NIL=
201202191245 METAR LMML 191245Z 15009KT 9999 FEW034 BKN045 12/05 Q1023
                        NOSIG=
201202191230 METAR LMML NIL=
201202191215 METAR LMML 191215Z 16010KT 9999 FEW031 SCT050 13/05 Q1023
                        NOSIG=
201202191200 METAR LMML NIL=
201202191145 METAR LMML 191145Z 15010KT 9999 FEW033 SCT050 13/06 Q1023
                        NOSIG=
201202191130 METAR LMML NIL=
201202191115 METAR LMML 191115Z 16008KT 120V210 9999 FEW035 SCT050 13/05
                        Q1024 NOSIG=
201202191045 METAR LMML 191045Z 15009KT 120V190 9999 FEW034 SCT050 12/05
                        Q1024 NOSIG=
201202191030 METAR LMML NIL=
201202191015 METAR LMML 191015Z 16007KT 130V230 9999 FEW030 SCT050 13/05
                        Q1024 NOSIG=
201202191000 METAR LMML NIL=
201202190945 METAR LMML 190945Z 17007KT 120V220 9999 FEW030 13/05 Q1024
                        NOSIG=
201202190930 METAR LMML NIL=
201202190915 METAR LMML 190915Z 17007KT 130V220 9999 FEW030 12/04 Q1024
                        NOSIG=
201202190900 METAR LMML NIL=
201202190845 METAR LMML 190845Z 16007KT 130V200 9999 FEW030 SCT050 12/04
                        Q1024 NOSIG=
201202190830 METAR LMML NIL=
201202190815 METAR LMML 190815Z 16006KT 130V210 9999 FEW030 SCT037 12/04
                        Q1024 NOSIG=
201202190800 METAR LMML NIL=
201202190745 METAR LMML 190745Z 16005KT 140V200 9999 FEW035 BKN048 12/05
                        Q1024 NOSIG=
201202190715 METAR LMML 190715Z 17005KT 140V200 9999 FEW025 BKN037 11/04
                        Q1024 NOSIG=
201202190700 METAR LMML NIL=
201202190645 METAR LMML 190645Z 17003KT 9999 FEW025 BKN048 10/04 Q1024
                        NOSIG=
201202190630 METAR LMML NIL=
201202190615 METAR LMML 190615Z 19003KT 9999 FEW036 BKN050 09/04 Q1024
                        NOSIG=
201202190600 METAR LMML NIL=
201202190545 METAR LMML 190545Z 19004KT 9999 FEW035 SCT050 09/04 Q1024
                        NOSIG=
201202190530 METAR LMML NIL=
201202190515 METAR LMML 190515Z 20004KT 9999 BKN035 09/04 Q1024 NOSIG=
201202190500 METAR LMML NIL=
201202190445 METAR LMML 190445Z 20003KT 9999 SCT035 09/04 Q1023 NOSIG=
201202190430 METAR LMML NIL=
201202190415 METAR LMML 190415Z 21003KT 9999 SCT036 08/04 Q1023 NOSIG=
201202190400 METAR LMML NIL=
201202190345 METAR LMML 190345Z 21003KT 9999 FEW038 08/04 Q1023 NOSIG=
201202190315 METAR LMML 190315Z 21003KT 9999 SCT035 08/04 Q1023 NOSIG=
201202190245 METAR LMML 190245Z 22003KT 9999 FEW043 07/04 Q1024 NOSIG=
201202190230 METAR LMML NIL=
201202190215 METAR LMML 190215Z VRB02KT 9999 FEW038 06/04 Q1023 NOSIG=
201202190200 METAR LMML NIL=
201202190145 METAR LMML 190145Z VRB02KT 9999 FEW038 06/03 Q1024 NOSIG=
201202190130 METAR LMML NIL=
201202190115 METAR LMML 190115Z VRB01KT 9999 FEW033 06/04 Q1024 NOSIG=
201202190100 METAR LMML NIL=
201202190045 METAR LMML 190045Z 00000KT 9999 FEW033 06/04 Q1024 NOSIG=
201202190030 METAR LMML NIL=
201202190015 METAR LMML 190015Z VRB01KT 9999 FEW020 06/03 Q1024 NOSIG=
201202190000 METAR LMML NIL=
201202182345 METAR LMML 182345Z VRB01KT 9999 FEW020 06/04 Q1024 NOSIG=
201202182330 METAR LMML NIL=
201202182315 METAR LMML 182315Z VRB01KT CAVOK 07/04 Q1024 NOSIG=
201202182300 METAR LMML NIL=
201202182245 METAR LMML 182245Z VRB01KT CAVOK 07/04 Q1024 NOSIG=
201202182230 METAR LMML NIL=
201202182215 METAR LMML 182215Z VRB01KT CAVOK 07/04 Q1024 NOSIG=
201202182200 METAR LMML NIL=
201202182145 METAR LMML 182145Z VRB01KT CAVOK 07/04 Q1024 NOSIG=
201202182130 METAR LMML NIL=
201202182115 METAR LMML 182115Z VRB02KT CAVOK 07/04 Q1024 NOSIG=
201202182100 METAR LMML NIL=
201202182045 METAR LMML 182045Z VRB02KT CAVOK 07/05 Q1024 NOSIG=
201202182030 METAR LMML NIL=
201202182015 METAR LMML 182015Z VRB01KT 9999 FEW025 07/04 Q1024 NOSIG=
201202182000 METAR LMML NIL=
201202181945 METAR LMML 181945Z VRB02KT 9999 FEW025 08/04 Q1024 NOSIG=
201202181930 METAR LMML NIL=
201202181915 METAR LMML 181915Z VRB02KT 9999 FEW025 08/04 Q1024 NOSIG=
201202181900 METAR LMML NIL=
201202181845 METAR LMML 181845Z VRB02KT 9999 FEW025 08/04 Q1024 NOSIG=
201202181830 METAR LMML NIL=
201202181815 METAR LMML 181815Z VRB02KT 9999 FEW035 09/04 Q1024 NOSIG=
201202181800 METAR LMML NIL=
201202181745 METAR LMML 181745Z VRB02KT 9999 FEW035 09/04 Q1024 NOSIG=
201202181730 METAR LMML NIL=
201202181715 METAR LMML 181715Z 27003KT 9999 FEW035 10/03 Q1023 NOSIG=
201202181700 METAR LMML NIL=
201202181645 METAR LMML 181645Z 27004KT 9999 FEW035 11/03 Q1023 NOSIG=
201202181630 METAR LMML NIL=
201202181615 METAR LMML 181615Z 28004KT 240V320 9999 FEW035 11/03 Q1023
                        NOSIG=
201202181600 METAR LMML NIL=
201202181545 METAR LMML 181545Z 25005KT 220V280 9999 FEW035 12/04 Q1023
                        NOSIG=
201202181530 METAR LMML NIL=
201202181515 METAR LMML 181515Z 24005KT 200V310 9999 FEW030 13/03 Q1023
                        NOSIG=
201202181445 METAR LMML 181445Z 28004KT 210V320 9999 FEW030 13/03 Q1023
                        NOSIG=
201202181430 METAR LMML NIL=
201202181415 METAR LMML 181415Z 28006KT 240V320 9999 FEW030 13/02 Q1023
                        NOSIG=
201202181400 METAR LMML NIL=
201202181345 METAR LMML 181345Z 28005KT 230V310 9999 FEW030 13/01 Q1023
                        NOSIG=
201202181330 METAR LMML NIL=
201202181315 METAR LMML 181315Z 22005KT 200V270 9999 FEW030 13/03 Q1023
                        NOSIG=
201202181300 METAR LMML NIL=
201202181245 METAR LMML 181245Z 24005KT 170V300 9999 FEW030 13/01 Q1024
                        NOSIG=
201202181230 METAR LMML NIL=
201202181215 METAR LMML 181215Z 23007KT 190V280 9999 FEW030 13/03 Q1024
                        NOSIG=
201202181200 METAR LMML NIL=
201202181145 METAR LMML 181145Z 31005KT 240V350 CAVOK 13/03 Q1024 NOSIG=
201202181130 METAR LMML NIL=
201202181115 METAR LMML 181115Z 30004KT 240V360 9999 FEW030 13/04 Q1024
                        NOSIG=
201202181100 METAR LMML NIL=
201202181045 METAR LMML 181045Z 32005KT 270V020 9999 FEW030 13/02 Q1025
                        NOSIG=
201202181030 METAR LMML NIL=
201202181015 METAR LMML 181015Z 28005KT 210V330 9999 FEW030 13/02 Q1025
                        NOSIG=
201202181000 METAR LMML NIL=
201202180945 METAR LMML 180945Z 28006KT 240V330 9999 FEW030 12/04 Q1025
                        NOSIG=
201202180930 METAR LMML NIL=
201202180915 METAR LMML 180915Z 28005KT 210V320 9999 FEW040 12/03 Q1025
                        NOSIG=
201202180900 METAR LMML NIL=
201202180845 METAR LMML 180845Z 29005KT 250V330 9999 FEW020 12/04 Q1025
                        NOSIG=
201202180830 METAR LMML NIL=
201202180815 METAR LMML 180815Z 30004KT 260V330 9999 FEW020 11/04 Q1025
                        NOSIG=
201202180800 METAR LMML NIL=
201202180745 METAR LMML 180745Z 29003KT 9999 FEW020 11/04 Q1024 NOSIG=
201202180730 METAR LMML NIL=
201202180715 METAR LMML 180715Z 28004KT 240V310 9999 FEW020 09/03 Q1024
                        NOSIG=
201202180700 METAR LMML NIL=
201202180645 METAR LMML 180645Z 29004KT 9999 FEW020 08/02 Q1024 NOSIG=
201202180630 METAR LMML NIL=
201202180615 METAR LMML 180615Z 28004KT 9999 FEW020 06/02 Q1024 NOSIG=
201202180600 METAR LMML NIL=
201202180545 METAR LMML 180545Z 27004KT 9999 FEW040 06/02 Q1023 NOSIG=
201202180530 METAR LMML NIL=
201202180515 METAR LMML 180515Z VRB02KT 9999 FEW040 06/01 Q1023 NOSIG=
201202180500 METAR LMML NIL=
201202180445 METAR LMML 180445Z 25003KT 9999 FEW040 06/02 Q1023 NOSIG=
201202180430 METAR LMML NIL=
201202180415 METAR LMML 180415Z VRB02KT 9999 FEW040 06/02 Q1023 NOSIG=
201202180400 METAR LMML NIL=
201202180345 METAR LMML 180345Z VRB02KT 9999 FEW040 06/01 Q1023 NOSIG=
201202180330 METAR LMML NIL=
201202180315 METAR LMML 180315Z VRB02KT 9999 FEW040 06/01 Q1023 NOSIG=
201202180300 METAR LMML NIL=
201202180245 METAR LMML 180245Z VRB02KT 9999 FEW040 08/01 Q1023 NOSIG=
201202180230 METAR LMML NIL=
201202180215 METAR LMML 180215Z 22004KT 9999 SCT042 07/01 Q1023 NOSIG=
201202180200 METAR LMML NIL=
201202180145 METAR LMML 180145Z 22004KT CAVOK 07/02 Q1024 NOSIG=
201202180130 METAR LMML NIL=
201202180115 METAR LMML 180115Z 23004KT CAVOK 07/01 Q1024 NOSIG=
201202180100 METAR LMML NIL=
201202180045 METAR LMML 180045Z 22004KT 9999 FEW040 06/02 Q1024 NOSIG=
201202180030 METAR LMML NIL=
201202180015 METAR LMML 180015Z 23003KT 9999 FEW040 06/02 Q1024 NOSIG=
201202180000 METAR LMML NIL=
201202172345 METAR LMML 172345Z 21003KT 9999 FEW040 07/02 Q1024 NOSIG=
201202172330 METAR LMML NIL=
201202172315 METAR LMML 172315Z 20003KT 9999 FEW040 07/02 Q1024 NOSIG=
201202172300 METAR LMML NIL=
201202172245 METAR LMML 172245Z 20003KT 9999 FEW040 07/01 Q1024 NOSIG=
201202172230 METAR LMML NIL=
201202172215 METAR LMML 172215Z 20003KT 9999 FEW040 07/01 Q1024 NOSIG=
201202172200 METAR LMML NIL=
201202172145 METAR LMML 172145Z VRB02KT 9999 FEW040 07/01 Q1024 NOSIG=
201202172130 METAR LMML NIL=
201202172115 METAR LMML 172115Z 24003KT 9999 FEW040 07/01 Q1024 NOSIG=
201202172100 METAR LMML NIL=
201202172045 METAR LMML 172045Z 26003KT 9999 FEW040 07/01 Q1024 NOSIG=
201202172030 METAR LMML NIL=
201202172015 METAR LMML 172015Z 26003KT 9999 FEW040 07/01 Q1024 NOSIG=
201202172000 METAR LMML NIL=
201202171945 METAR LMML 171945Z 26003KT 9999 FEW040 07/00 Q1024 NOSIG=
201202171930 METAR LMML NIL=
201202171915 METAR LMML 171915Z 26003KT 9999 FEW045 07/01 Q1024 NOSIG=
201202171900 METAR LMML NIL=
201202171845 METAR LMML 171845Z 26003KT 9999 FEW045 07/01 Q1023 NOSIG=
201202171830 METAR LMML NIL=
201202171815 METAR LMML 171815Z 27003KT 9999 FEW045 08/M01 Q1023 NOSIG=
201202171745 METAR LMML 171745Z 25003KT 9999 FEW045 08/M01 Q1023 NOSIG=
201202171730 METAR LMML NIL=
201202171715 METAR LMML 171715Z 26003KT 9999 FEW045 09/M00 Q1023 NOSIG=
201202171700 METAR LMML NIL=
201202171645 METAR LMML 171645Z 30003KT 9999 FEW044 09/M01 Q1023 NOSIG=
201202171630 METAR LMML NIL=
201202171615 METAR LMML 171615Z 24003KT 9999 FEW043 11/M00 Q1022 NOSIG=
201202171600 METAR LMML NIL=
201202171545 METAR LMML 171545Z VRB02KT 9999 SCT043 12/01 Q1022 NOSIG=
201202171515 METAR LMML 171515Z VRB02KT 9999 SCT044 11/02 Q1022 NOSIG=
201202171500 METAR LMML NIL=
201202171445 METAR LMML 171445Z VRB02KT 9999 SCT046 11/02 Q1022 NOSIG=
201202171430 METAR LMML NIL=
201202171415 METAR LMML 171415Z VRB02KT 9999 SCT048 11/00 Q1023 NOSIG=
201202171345 METAR LMML 171345Z VRB01KT 9999 SCT048 13/00 Q1022 NOSIG=
201202171330 METAR LMML NIL=
201202171315 METAR LMML 171315Z 05004KT 360V120 9999 FEW046 12/02 Q1022
                        NOSIG=
201202171300 METAR LMML NIL=
201202171245 METAR LMML 171245Z 04005KT 360V070 9999 FEW045 12/02 Q1022
                        NOSIG=
201202171230 METAR LMML NIL=
201202171215 METAR LMML 171215Z 01004KT 340V060 9999 FEW044 12/02 Q1023
                        NOSIG=
201202171200 METAR LMML NIL=
201202171145 METAR LMML 171145Z 02006KT 350V050 9999 FEW043 13/02 Q1023
                        NOSIG=
201202171115 METAR LMML 171115Z 01007KT 320V040 9999 FEW040 12/02 Q1023
                        NOSIG=
201202171045 METAR LMML 171045Z 03006KT 350V080 9999 FEW040 12/02 Q1023
                        NOSIG=
201202171030 METAR LMML NIL=
201202171015 METAR LMML 171015Z 01007KT 340V050 9999 FEW040 12/02 Q1023
                        NOSIG=
201202171000 METAR LMML NIL=
201202170945 METAR LMML 170945Z 01008KT 350V050 9999 FEW035 11/01 Q1023
                        NOSIG=
201202170930 METAR LMML NIL=
201202170915 METAR LMML 170915Z 01009KT 9999 FEW035 11/02 Q1022 NOSIG=
201202170845 METAR LMML 170845Z 36011KT 9999 FEW035 11/00 Q1022 NOSIG=
201202170830 METAR LMML NIL=
201202170815 METAR LMML 170815Z 36012KT 9999 FEW035 11/M02 Q1022 NOSIG=
201202170800 METAR LMML NIL=
201202170745 METAR LMML 170745Z 01009KT 9999 FEW035 10/01 Q1021 NOSIG=
201202170730 METAR LMML NIL=
201202170715 METAR LMML 170715Z 01008KT 9999 FEW032 10/02 Q1021 NOSIG=
201202170700 METAR LMML NIL=
201202170645 METAR LMML 170645Z 36009KT 9999 FEW032 09/02 Q1021 NOSIG=
201202170630 METAR LMML NIL=
201202170615 METAR LMML 170615Z 36009KT 9999 FEW032 08/01 Q1021 NOSIG=
201202170600 METAR LMML NIL=
201202170545 METAR LMML 170545Z 35008KT 9999 FEW032 08/01 Q1020 NOSIG=
201202170530 METAR LMML NIL=
201202170515 METAR LMML 170515Z 36006KT 9999 FEW038 07/01 Q1020 NOSIG=
201202170500 METAR LMML NIL=
201202170445 METAR LMML 170445Z 35004KT 320V020 9999 FEW038 07/03 Q1019
                        NOSIG=
201202170430 METAR LMML NIL=
201202170415 METAR LMML 170415Z 34003KT 9999 FEW038 08/03 Q1019 NOSIG=
201202170400 METAR LMML NIL=
201202170345 METAR LMML 170345Z 35005KT 9999 FEW032 08/04 Q1019 NOSIG=
201202170330 METAR LMML NIL=
201202170315 METAR LMML 170315Z 35005KT 9999 FEW032 08/04 Q1019 NOSIG=
201202170300 METAR LMML NIL=
201202170245 METAR LMML 170245Z 35004KT 9999 FEW032 08/04 Q1019 NOSIG=
201202170230 METAR LMML NIL=
201202170215 METAR LMML 170215Z 33003KT 9999 SCT033 08/04 Q1018 NOSIG=
201202170200 METAR LMML NIL=
201202170145 METAR LMML 170145Z 02003KT 9999 FEW029 09/05 Q1019 NOSIG=
201202170130 METAR LMML NIL=
201202170115 METAR LMML 170115Z 04004KT 9999 FEW029 SCT050 09/05 Q1019
                        NOSIG=
201202170100 METAR LMML NIL=
201202170045 METAR LMML 170045Z 04004KT 9999 FEW033 BKN050 10/06 Q1018
                        NOSIG=
201202170030 METAR LMML NIL=
201202170015 METAR LMML 170015Z 04005KT 010V080 9999 FEW029 BKN050 10/06
                        Q1018 NOSIG=
201202162345 METAR LMML 162345Z 05004KT 010V080 9999 FEW022 BKN050 10/07
                        Q1018 NOSIG=
201202162330 METAR LMML NIL=
201202162315 METAR LMML 162315Z 09004KT 9999 FEW019 BKN050 09/07 Q1018
                        NOSIG=
201202162245 METAR LMML 162245Z 07003KT 9999 FEW030 BKN070 10/07 Q1017
                        NOSIG=
201202162230 METAR LMML NIL=
201202162215 METAR LMML 162215Z 05005KT 020V080 9999 FEW015 BKN070 10/07
                        Q1017 NOSIG=
201202162145 METAR LMML 162145Z 05005KT 9999 FEW014 BKN070 10/08 Q1017
                        NOSIG=
201202162130 METAR LMML NIL=
201202162115 METAR LMML 162115Z 05005KT 9999 FEW024 BKN070 10/08 Q1017
                        NOSIG=
201202162100 METAR LMML NIL=
201202162045 METAR LMML 162045Z 31007KT 9999 SCT033 10/06 Q1016 NOSIG=
201202162030 METAR LMML NIL=
201202162015 METAR LMML 162015Z 30007KT 9999 FEW025 SCT070 10/06 Q1016
                        NOSIG=
201202162000 METAR LMML NIL=
201202161945 METAR LMML 161945Z 31008KT 9999 FEW025 SCT080 10/06 Q1016
                        NOSIG=
201202161930 METAR LMML NIL=
201202161915 METAR LMML 161915Z 31011KT 9999 FEW025 BKN070 11/07 Q1015
                        NOSIG=
201202161900 METAR LMML NIL=
201202161845 METAR LMML 161845Z 31011KT 9999 FEW025 BKN070 11/07 Q1015
                        NOSIG=
201202161830 METAR LMML NIL=
201202161815 METAR LMML 161815Z 30010KT 270V330 9999 FEW025 BKN060 11/07
                        Q1014 NOSIG=
201202161745 METAR LMML 161745Z 30014KT 9999 -RA FEW020 BKN060 11/07 Q1014
                        NOSIG=
201202161730 METAR LMML NIL=
201202161715 METAR LMML 161715Z 31012KT 9999 FEW027 SCT060 10/07 Q1014
                        NOSIG=
201202161700 METAR LMML NIL=
201202161645 METAR LMML 161645Z 31013KT 9999 FEW027 10/06 Q1013 NOSIG=
201202161630 METAR LMML NIL=
201202161615 METAR LMML 161615Z 31013KT 9999 SCT026 11/07 Q1013 NOSIG=
201202161600 METAR LMML NIL=
201202161545 METAR LMML 161545Z 30014KT 260V320 9999 FEW025 SCT060 11/06
                        Q1012 NOSIG=
201202161530 METAR LMML NIL=
201202161515 METAR LMML 161515Z 29016KT 250V310 9999 SCT024 SCT080 12/08
                        Q1012 TEMPO 6000 SHRA=
201202161500 METAR LMML NIL=
201202161445 METAR LMML 161445Z 28018KT 9999 FEW022TCU SCT048 10/08 Q1012
                        TEMPO 6000 SHRA=
201202161430 METAR LMML NIL=
201202161415 METAR LMML 161415Z 29022G32KT 4000 -SHRA BKN022 11/06 Q1013
                        TEMPO 8000 SHRA=
201202161400 METAR LMML NIL=
201202161345 METAR LMML 161345Z 28023KT 9999 SCT022 BKN060 11/07 Q1012
                        TEMPO 8000 SHRA=
201202161330 METAR LMML NIL=
201202161315 METAR LMML 161315Z 28023KT 260V320 9999 FEW023 SCT040 BKN050
                        11/06 Q1012 TEMPO 8000 SHRA=
201202161300 METAR LMML NIL=
201202161245 METAR LMML 161245Z 28023KT 250V310 9999 -SHRA BKN025 BKN048
                        11/06 Q1013 TEMPO 8000 SHRA=
201202161230 METAR LMML NIL=
201202161215 METAR LMML 161215Z 28022KT 240V310 9999 BKN025 11/06 Q1013
                        TEMPO 8000 SHRA=
201202161200 METAR LMML NIL=
201202161145 METAR LMML 161145Z 28022KT 240V310 9999 SCT025 12/06 Q1013
                        TEMPO 8000 SHRA=
201202161130 METAR LMML NIL=
201202161115 METAR LMML 161115Z 28020G32KT 220V310 9999 SCT026 SCT041
                        12/07 Q1013 TEMPO 8000 SHRA=
201202161100 METAR LMML NIL=
201202161045 METAR LMML 161045Z 28022G33KT 240V310 9999 SCT027 SCT048
                        11/07 Q1013 TEMPO 8000 SHRA=
201202161030 METAR LMML NIL=
201202161015 METAR LMML 161015Z 28024KT 9999 SCT027 12/06 Q1014 NOSIG=
201202161000 METAR LMML NIL=
201202160945 METAR LMML 160945Z 28023KT 240V310 9999 SCT027 11/06 Q1014
                        NOSIG=
201202160930 METAR LMML NIL=
201202160915 METAR LMML 160915Z 29021KT 260V320 9999 FEW027 12/06 Q1014
                        NOSIG=
201202160900 METAR LMML NIL=
201202160845 METAR LMML 160845Z 28018KT 240V310 9999 FEW024 SCT090 10/06
                        Q1014 RESHRA TEMPO 8000 SHRA=
201202160830 METAR LMML NIL=
201202160815 METAR LMML 160815Z 29021KT 9999 SCT026 SCT039 10/06 Q1014
                        RESHRA TEMPO 8000 SHRA=
201202160800 METAR LMML NIL=
201202160745 METAR LMML 160745Z 28022G33KT 9999 SCT029 SCT047 10/05 Q1014
                        TEMPO 8000 SHRA=
201202160730 METAR LMML NIL=
201202160715 METAR LMML 160715Z 28018KT 250V310 9999 SCT023 SCT050 10/06
                        Q1013 TEMPO 8000 SHRA=
201202160700 METAR LMML NIL=
201202160645 METAR LMML 160645Z 27015KT 240V310 9999 FEW020CB SCT023 09/05
                        Q1013 TEMPO 3000 TSGR BKN020CB=
201202160630 METAR LMML NIL=
201202160615 METAR LMML 160615Z 28023G34KT 8000 -SHRA FEW020CB SCT025
                        09/05 Q1014 TEMPO 3000 TSGR BKN020CB=
201202160600 METAR LMML NIL=
201202160545 METAR LMML 160545Z 28016G27KT 240V310 9999 BKN028 10/05 Q1013
                        NOSIG=
201202160530 METAR LMML NIL=
201202160515 METAR LMML 160515Z 28018KT 240V310 9999 BKN026 10/05 Q1013
                        NOSIG=
201202160500 METAR LMML NIL=
201202160445 METAR LMML 160445Z 29022KT 260V320 9999 -SHRA BKN030 09/04
                        Q1013 NOSIG=
201202160430 METAR LMML NIL=
201202160415 METAR LMML 160415Z 28020KT 240V310 9999 -SHRA BKN024 09/05
                        Q1013 NOSIG=
201202160400 METAR LMML NIL=
201202160345 METAR LMML 160345Z 28023G33KT 250V310 9999 BKN027 10/05 Q1014
                        NOSIG=
201202160330 METAR LMML NIL=
201202160315 METAR LMML 160315Z 28025G35KT 250V310 9999 BKN028 10/05 Q1014
                        NOSIG=
201202160300 METAR LMML NIL=
201202160245 METAR LMML 160245Z 28020G32KT 240V310 9999 BKN027 10/05 Q1014
                        NOSIG=
201202160230 METAR LMML NIL=
201202160215 METAR LMML 160215Z 28016KT 9999 -SHRA BKN028 09/05 Q1014
                        NOSIG=
201202160200 METAR LMML NIL=
201202160145 METAR LMML 160145Z 28017KT 9999 BKN024 09/05 Q1015 NOSIG=
201202160130 METAR LMML NIL=
201202160115 METAR LMML 160115Z 27015KT 240V300 9999 BKN025 09/06 Q1015
                        NOSIG=
201202160100 METAR LMML NIL=
201202160045 METAR LMML 160045Z 29021KT 260V320 9999 BKN019 08/06 Q1016
                        NOSIG=
201202160030 METAR LMML NIL=
201202160015 METAR LMML 160015Z 28013KT 240V310 9999 SCT028 09/05 Q1015
                        NOSIG=
201202160000 METAR LMML NIL=
201202152345 METAR LMML 152345Z 27018G29KT 230V300 9999 SCT026 09/04 Q1016
                        NOSIG=
201202152330 METAR LMML NIL=
201202152315 METAR LMML 152315Z 30019KT 9999 SCT028 09/05 Q1016 TEMPO
                        29018G28KT 9000 SHRA=
201202152300 METAR LMML NIL=
201202152245 METAR LMML 152245Z 27012KT 240V300 9999 BKN027 09/05 Q1016
                        TEMPO 29018G28KT=
201202152230 METAR LMML NIL=
201202152215 METAR LMML 152215Z 27018KT 240V300 9999 SCT024 09/05 Q1016
                        TEMPO 29018G28KT=
201202152200 METAR LMML NIL=
201202152145 METAR LMML 152145Z 27014KT 9999 -SHRA BKN039 09/04 Q1017
                        TEMPO 29018G28KT=
201202152130 METAR LMML NIL=
201202152115 METAR LMML 152115Z 28016KT 240V300 9999 FEW042 09/04 Q1017
                        TEMPO 29018G28KT=
201202152100 METAR LMML NIL=
201202152045 METAR LMML 152045Z 29014KT 260V320 9999 FEW036 SCT080 09/04
                        Q1017 TEMPO 29018G28KT=
201202152030 METAR LMML NIL=
201202152015 METAR LMML 152015Z 29014KT 9999 FEW037 SCT080 09/03 Q1017
                        TEMPO 29018G28KT=
201202152000 METAR LMML NIL=
201202151945 METAR LMML 151945Z 29010KT 9999 FEW032 08/03 Q1017 TEMPO
                        29018G28KT=
201202151930 METAR LMML NIL=
201202151915 METAR LMML 151915Z 32010KT 9999 FEW032 07/03 Q1017 TEMPO
                        29018G28KT=
201202151900 METAR LMML NIL=
201202151845 METAR LMML 151845Z 29017KT 260V320 9999 FEW032 09/04 Q1017
                        TEMPO 29018G28KT=
201202151830 METAR LMML NIL=
201202151815 METAR LMML 151815Z 31016KT 9999 SCT032 08/04 Q1016 NOSIG=
201202151800 METAR LMML NIL=
201202151745 METAR LMML 151745Z 29016KT 9999 SCT031 09/04 Q1016 NOSIG=
201202151730 METAR LMML NIL=
201202151715 METAR LMML 151715Z 28014KT 240V310 9999 BKN029 09/05 Q1016
                        NOSIG=
201202151700 METAR LMML NIL=
201202151645 METAR LMML 151645Z 28013KT 240V310 9999 BKN025 09/04 Q1016
                        NOSIG=
201202151630 METAR LMML NIL=
201202151615 METAR LMML 151615Z 26007KT 230V310 9999 BKN024 09/05 Q1016
                        NOSIG=
201202151545 METAR LMML 151545Z 28010KT 220V300 9999 SCT027TCU 08/04 Q1016
                        TEMPO 8000 SHRA RMK DISTANT CB/S
                        TO N AND NE=
201202151530 METAR LMML NIL=
201202151515 METAR LMML 151515Z 27014KT 240V310 9999 SCT033TCU 11/02 Q1016
                        NOSIG=
201202151500 METAR LMML NIL=
201202151445 METAR LMML 151445Z 27014KT 240V310 9999 SCT033 11/03 Q1016
                        NOSIG=
201202151430 METAR LMML NIL=
201202151415 METAR LMML 151415Z 26010KT 220V300 9999 SCT039 10/04 Q1016
                        TEMPO 7000 SHGR=
201202151400 METAR LMML NIL=
201202151345 METAR LMML 151345Z 26015KT 200V290 9999 -SHRA SCT036TCU 11/03
                        Q1016 TEMPO 7000 SHGR=
201202151330 METAR LMML NIL=
201202151315 METAR LMML 151315Z 25013KT 210V290 9999 SCT037 12/03 Q1016
                        TEMPO 3000 TSGR BKN020CB=
201202151300 METAR LMML NIL=
201202151245 METAR LMML 151245Z 27011KT 240V300 9999 FEW025CB SCT040 11/04
                        Q1017 TEMPO 3000 TSGR BKN020CB=
201202151230 METAR LMML NIL=
201202151215 METAR LMML 151215Z 30011KT 260V320 9999 FEW020CB SCT039 11/05
                        Q1017 TEMPO 3000 TSGR BKN020CB=
201202151145 METAR LMML 151145Z 27012KT 220V300 9999 FEW020CB SCT040 12/04
                        Q1017 TEMPO 3000 TSGR BKN020CB=
201202151130 METAR LMML NIL=
201202151115 METAR LMML 151115Z 26007KT 200V310 9999 SCT046 12/04 Q1018
                        TEMPO 3000 TSGR BKN020CB=
201202151045 METAR LMML 151045Z 26008KT 220V290 9999 SCT039 11/04 Q1018
                        TEMPO 8000 SHRA=
201202151030 METAR LMML NIL=
201202151015 METAR LMML 151015Z 27013KT 210V320 9999 SHRA SCT043 11/03
                        Q1019 TEMPO 7000 SHGR=
201202151000 METAR LMML NIL=
201202150945 METAR LMML 150945Z 28012KT 240V310 9999 SCT044 12/03 Q1018
                        TEMPO 7000 SHGR=
201202150915 METAR LMML 150915Z 25007KT 200V290 9999 SCT044 SCT080 10/04
                        Q1018 TEMPO 7000 SHGR=
201202150845 METAR LMML 150845Z 27006KT 240V310 9999 BKN034 SCT070 10/04
                        Q1018 TEMPO 7000 SHGR=
201202150830 METAR LMML NIL=
201202150815 METAR LMML 150815Z 29010KT 9999 SCT039TCU 10/04 Q1018 TEMPO
                        7000 SHGR=
201202150800 METAR LMML NIL=
201202150745 METAR LMML 150745Z 28009KT 9999 SCT040 09/03 Q1018 TEMPO
                        7000 SHGR=
201202150715 METAR LMML 150715Z 29009KT 9999 SCT039TCU SCT050 09/03 Q1018
                        TEMPO 7000 SHGR RMK CB TO WEST=
201202150700 METAR LMML NIL=
201202150645 METAR LMML 150645Z 29009KT 9999 SCT044 SCT060 09/02 Q1018
                        TEMPO 7000 SHGR BKN020TCU=
201202150630 METAR LMML NIL=
201202150615 METAR LMML 150615Z 29010KT 9999 SCT039 08/02 Q1018 TEMPO
                        5000 TSGR BKN015CB=
201202150600 METAR LMML NIL=
201202150545 METAR LMML 150545Z 28008KT 9999 FEW040 07/03 Q1017 TEMPO
                        5000 TSGR BKN015CB=
201202150515 METAR LMML 150515Z 27006KT 9999 FEW030 SCT060 06/02 Q1017
                        TEMPO 5000 TSGR BKN015CB=
201202150500 METAR LMML NIL=
201202150445 METAR LMML 150445Z 29013G25KT 240V330 9999 FEW036 BKN060
                        07/02 Q1018 TEMPO 5000 TSGR BKN015CB=
201202150430 METAR LMML NIL=
201202150415 METAR LMML 150415Z 28006KT 9999 FEW030 07/03 Q1017 TEMPO
                        5000 TSGR BKN015CB=
201202150400 METAR LMML NIL=
201202150345 METAR LMML 150345Z 29007KT 9999 FEW030 07/03 Q1017 TEMPO
                        5000 TSGR BKN015CB=
201202150330 METAR LMML NIL=
201202150315 METAR LMML 150315Z 29008KT 250V320 9999 FEW031 07/03 Q1017
                        TEMPO 5000 TSGR BKN015CB=
201202150300 METAR LMML NIL=
201202150245 METAR LMML 150245Z 29009KT 260V320 9999 FEW025 07/04 Q1017
                        TEMPO 5000 TSGR BKN015CB=
201202150230 METAR LMML NIL=
201202150215 METAR LMML 150215Z 30008KT 9999 FEW025 07/03 Q1017 TEMPO
                        5000 TSGR BKN015CB=
201202150200 METAR LMML NIL=
201202150145 METAR LMML 150145Z 28010KT 250V310 9999 FEW028 07/03 Q1017
                        TEMPO 5000 TSGR BKN015CB=
201202150130 METAR LMML NIL=
201202150115 METAR LMML 150115Z 32010KT 9999 FEW030 SCT060 07/04 Q1017
                        TEMPO 5000 TSGR BKN015CB=
201202150100 METAR LMML NIL=
201202150045 METAR LMML 150045Z 28010KT 250V320 9999 FEW032 08/03 Q1017
                        TEMPO 5000 TSGR BKN015CB=
201202150030 METAR LMML NIL=
201202150015 METAR LMML 150015Z 29010KT 270V330 9999 FEW030 SCT070 08/03
                        Q1016 TEMPO 5000 TSGR BKN015CB=
201202150000 METAR LMML NIL=
201202142345 METAR LMML 142345Z 29008KT 250V310 9999 SCT031 SCT070 07/04
                        Q1016 TEMPO 5000 TSGR BKN015CB=
201202142330 METAR LMML NIL=
201202142315 METAR LMML 142315Z 27007KT 230V300 9999 SCT026 SCT070 07/04
                        Q1016 TEMPO 5000 TSGR BKN015CB=
201202142245 METAR LMML 142245Z 26008KT 230V290 9999 FEW026 SCT070 06/03
                        Q1016 TEMPO 5000 TSGR BKN015CB=
201202142230 METAR LMML NIL=
201202142215 METAR LMML 142215Z 29014G24KT 260V330 9999 -SHRA BKN028 07/03
                        Q1017 TEMPO 8000 SHRA=
201202142200 METAR LMML NIL=
201202142145 METAR LMML 142145Z 28007KT 9999 FEW020 07/03 Q1016 TEMPO
                        8000 SHRA=
201202142115 METAR LMML 142115Z 29009KT 260V320 9999 FEW020 07/03 Q1016
                        TEMPO 8000 SHRA=
201202142100 METAR LMML NIL=
201202142045 METAR LMML 142045Z 29008KT 250V320 9999 FEW020 07/03 Q1016
                        TEMPO 8000 SHRA=
201202142030 METAR LMML NIL=
201202142015 METAR LMML 142015Z 28013KT 9999 FEW020 SCT100 07/04 Q1016
                        TEMPO 8000 SHRA=
201202141945 METAR LMML 141945Z 29010G22KT 240V330 9999 SCT025 SCT090
                        07/03 Q1016 TEMPO 8000 SHRA=
201202141915 METAR LMML 141915Z 28011KT 9999 FEW034 08/01 Q1015 TEMPO
                        8000 SHRA=
201202141900 METAR LMML NIL=
201202141845 METAR LMML 141845Z 28011KT 250V310 9999 FEW034 07/02 Q1015
                        TEMPO 8000 SHRA=
201202141830 METAR LMML NIL=
201202141815 METAR LMML 141815Z 28010KT 250V310 9999 FEW030 07/02 Q1015
                        TEMPO 8000 SHRA=
201202141745 METAR LMML 141745Z 28012KT 250V310 9999 FEW030 07/02 Q1014
                        NOSIG=
201202141730 METAR LMML NIL=
201202141715 METAR LMML 141715Z 28016KT 9999 FEW030 08/03 Q1014 NOSIG=
201202141700 METAR LMML NIL=
201202141645 METAR LMML 141645Z 29013KT 9999 SCT034 08/02 Q1014 NOSIG=
201202141630 METAR LMML NIL=
201202141615 METAR LMML 141615Z 29012KT 260V320 9999 FEW037 08/01 Q1013
                        NOSIG=
201202141600 METAR LMML NIL=
201202141545 METAR LMML 141545Z 30013KT 9999 SCT039 08/02 Q1013 NOSIG=
201202141530 METAR LMML NIL=
201202141515 METAR LMML 141515Z 29014KT 250V310 9999 BKN036 08/03 Q1013
                        NOSIG=
201202141445 METAR LMML 141445Z 29012KT 260V340 9999 FEW028CB 09/03 Q1013
                        NOSIG=
201202141430 METAR LMML NIL=
201202141415 METAR LMML 141415Z 29016G28KT 260V320 7000 -SHRA BKN028CB
                        08/03 Q1013 NOSIG=
201202141400 METAR LMML NIL=
201202141345 METAR LMML 141345Z 30013KT 270V330 9999 BKN036 09/03 Q1012
                        TEMPO 8000 SHRA=
201202141330 METAR LMML NIL=
201202141315 METAR LMML 141315Z 30014KT 260V340 9999 BKN023 09/04 Q1012
                        TEMPO 8000 SHRA=
201202141300 METAR LMML NIL=
201202141245 METAR LMML 141245Z 29013KT 250V330 9999 FEW028 SCT043 SCT058
                        09/03 Q1012 TEMPO 8000 SHRA=
201202141230 METAR LMML NIL=
201202141215 METAR LMML 141215Z 31012KT 270V330 9999 FEW026TCU SCT030
                        09/05 Q1012 TEMPO 8000 SHRA=
201202141200 METAR LMML NIL=
201202141145 METAR LMML 141145Z 27007KT 240V300 9999 SCT020CB SCT025 07/03
                        Q1013 NOSIG=
201202141130 METAR LMML NIL=
201202141115 METAR LMML 141115Z 30016G27KT 270V330 9000 SHGS BKN023CB
                        07/03 Q1013 TEMPO 5000 TSGR BKN015CB=
201202141045 METAR LMML 141045Z 31012KT 280V340 9999 SCT025CB 08/04 Q1013
                        RETS NOSIG=
201202141030 METAR LMML NIL=
201202141015 METAR LMML 141015Z 32013KT 9999 SCT025CB 08/04 Q1013 RETSGR
                        TEMPO 8000 SHRA BKN020TCU=
201202141000 METAR LMML NIL=
201202140945 METAR LMML 140945Z 29013KT 9999 BKN025CB 07/02 Q1013 TEMPO
                        5000 TSGR BKN015CB=
201202140930 METAR LMML NIL=
201202140915 METAR LMML 140915Z 30017KT 7000 TSGR BKN023CB 06/02 Q1013
                        TEMPO 3000=
201202140900 METAR LMML NIL=
201202140845 METAR LMML 140845Z 24004KT 150V320 9999 FEW018CB SCT100
                        BKN250 08/04 Q1013 TEMPO 5000 TSGS
                        BKN015CB=
201202140830 METAR LMML NIL=
201202140815 METAR LMML 140815Z 31004KT 250V360 9999 FEW018TCU SCT100
                        BKN250 05/02 Q1013 TEMPO 5000 TSGR
                        BKN015CB=
201202140800 METAR LMML NIL=
201202140745 METAR LMML 140745Z 21010KT 180V240 9999 FEW015TCU SCT017
                        BKN120 05/02 Q1013 TEMPO 5000 TSGR
                        BKN015CB=
201202140730 METAR LMML NIL=
201202140715 METAR LMML 140715Z 27021KT 240V310 9999 -SHRA FEW019CB BKN080
                        05/01 Q1013 TEMPO 5000 TSRA BKN015CB=
201202140700 METAR LMML NIL=
201202140645 METAR LMML 140645Z 28012KT 240V300 9999 FEW025CB BKN080 07/03
                        Q1013 TEMPO 5000 TSRA BKN015CB=
201202140630 METAR LMML NIL=
201202140615 METAR LMML 140615Z 26006KT 190V300 9999 FEW025CB SCT250 06/01
                        Q1012 TEMPO 5000 TSRA BKN015CB=
201202140545 METAR LMML 140545Z 33003KT 9999 SCT030 05/02 Q1012 TEMPO
                        5000 SHRA BKN015TCU=
201202140530 METAR LMML NIL=
201202140515 METAR LMML 140515Z VRB02KT 9999 FEW025 SCT100 04/01 Q1012
                        TEMPO 5000 SHRA BKN015TCU=
201202140500 METAR LMML NIL=
201202140445 METAR LMML 140445Z 28004KT 240V320 9999 SCT025 SCT090 05/02
                        Q1012 TEMPO 5000 SHRA BKN015TCU=
201202140430 METAR LMML NIL=
201202140415 METAR LMML 140415Z 28009KT 240V320 9999 -RA SCT025 SCT060
                        05/03 Q1013 TEMPO 5000 SHRA BKN015TCU=
201202140400 METAR LMML NIL=
201202140345 METAR LMML 140345Z 24003KT 9999 FEW040 SCT070 04/02 Q1012
                        TEMPO 5000 SHRA BKN015TCU=
201202140330 METAR LMML NIL=
201202140315 METAR LMML 140315Z 27004KT 230V300 9999 FEW024 SCT060 04/02
                        Q1013 TEMPO 5000 SHRA BKN015TCU=
201202140300 METAR LMML NIL=
201202140245 METAR LMML 140245Z 31008KT 9999 FEW025 SCT035 04/02 Q1013
                        TEMPO 5000 SHRA BKN015TCU=
201202140230 METAR LMML NIL=
201202140215 METAR LMML 140215Z VRB01KT 9999 FEW032 SCT070 04/03 Q1013
                        TEMPO 5000 SHRA BKN015TCU=
201202140200 METAR LMML NIL=
201202140145 METAR LMML 140145Z 30004KT 9999 FEW020 SCT048 BKN070 04/02
                        Q1013 TEMPO 5000 SHRA BKN015TCU=
201202140130 METAR LMML NIL=
201202140115 METAR LMML 140115Z VRB02KT 9999 FEW020 SCT044 05/01 Q1013
                        TEMPO 5000 SHRA BKN015TCU=
201202140100 METAR LMML NIL=
201202140045 METAR LMML 140045Z 28004KT 9999 FEW020 05/01 Q1013 TEMPO
                        5000 SHRA BKN015TCU=
201202140030 METAR LMML NIL=
201202140015 METAR LMML 140015Z 28004KT 9999 FEW020 05/02 Q1014 TEMPO
                        5000 SHRA BKN015TCU=
201202140000 METAR LMML NIL=
201202132345 METAR LMML 132345Z 31003KT 9999 FEW020 05/02 Q1014 TEMPO
                        5000 SHRA BKN015TCU=
201202132330 METAR LMML NIL=
201202132315 METAR LMML 132315Z 29005KT 9999 FEW020 05/02 Q1014 NOSIG=
201202132300 METAR LMML NIL=
201202132245 METAR LMML 132245Z 30005KT 9999 FEW024 SCT060 05/03 Q1015
                        NOSIG=
201202132230 METAR LMML NIL=
201202132215 METAR LMML 132215Z 28003KT 9999 FEW024 SCT070 05/03 Q1015
                        TEMPO 5000 SHRA BKN015TCU=
201202132200 METAR LMML NIL=
201202132145 METAR LMML 132145Z 27003KT 9999 FEW024 BKN060 05/03 Q1015
                        TEMPO 5000 SHRA BKN015TCU=
201202132130 METAR LMML NIL=
201202132115 METAR LMML 132115Z 30010KT 260V330 9999 -RA FEW018 BKN033
                        06/04 Q1015 TEMPO 5000 SHRA BKN015TCU=
201202132100 METAR LMML NIL=
201202132045 METAR LMML 132045Z 25003KT 9999 FEW026 SCT043 06/04 Q1015
                        TEMPO 5000 SHRA BKN015TCU=
201202132030 METAR LMML NIL=
201202132015 METAR LMML 132015Z VRB02KT 9999 FEW025 06/04 Q1015 TEMPO
                        5000 SHRA BKN015TCU=
201202132000 METAR LMML NIL=
201202131945 METAR LMML 131945Z VRB02KT 9999 FEW018 SCT035 BKN045 06/04
                        Q1015 RERA NOSIG=
201202131930 METAR LMML NIL=
201202131915 METAR LMML 131915Z 24004KT 180V320 9000 RA SCT016 SCT033
                        BKN070 06/04 Q1015 NOSIG=
201202131900 METAR LMML NIL=
201202131845 METAR LMML 131845Z 24004KT 210V270 9999 FEW018 SCT045 BKN070
                        06/04 Q1015 NOSIG=
201202131830 METAR LMML NIL=
201202131815 METAR LMML 131815Z 23004KT 200V280 9999 -RA FEW018 SCT040
                        BKN060 06/04 Q1015 NOSIG=
201202131800 METAR LMML NIL=
201202131745 METAR LMML 131745Z 25003KT 7000 -RA FEW016 BKN024 06/04 Q1015
                        NOSIG=
201202131730 METAR LMML NIL=
201202131715 METAR LMML 131715Z 22003KT 8000 -RA FEW015 BKN026 06/04 Q1015
                        NOSIG=
201202131700 METAR LMML NIL=
201202131645 METAR LMML 131645Z VRB02KT 8000 -RA FEW015 BKN026 06/04 Q1015
                        NOSIG=
201202131630 METAR LMML NIL=
201202131615 METAR LMML 131615Z 32005KT 9000 -RA FEW015 BKN027 07/04 Q1015
                        NOSIG=
201202131600 METAR LMML NIL=
201202131545 METAR LMML 131545Z 32005KT 9999 -RA FEW018 BKN036 07/04 Q1015
                        TEMPO 8000 SHRA SCT020TCU=
201202131530 METAR LMML NIL=
201202131515 METAR LMML 131515Z 33007KT 9999 -RA FEW018 SCT033 BKN050
                        08/03 Q1015 TEMPO 8000 SHRA SCT020TCU=
201202131445 METAR LMML 131445Z 33008KT 9999 FEW018 BKN048 08/03 Q1016
                        TEMPO 8000 SHRA SCT020TCU=
201202131430 METAR LMML NIL=
201202131415 METAR LMML 131415Z 33007KT 300V360 9999 FEW018 SCT060 BKN250
                        08/03 Q1016 TEMPO 8000 SHRA SCT020TCU=
201202131400 METAR LMML NIL=
201202131345 METAR LMML 131345Z 33009KT 9999 FEW016 SCT050 BKN250 08/04
                        Q1016 TEMPO 8000 SHRA SCT020TCU=
201202131330 METAR LMML NIL=
201202131315 METAR LMML 131315Z 34009KT 9999 FEW015 SCT036 BKN250 08/04
                        Q1016 TEMPO 8000 SHRA SCT020TCU=
201202131245 METAR LMML 131245Z 34011KT 9999 BKN018 SCT070 08/04 Q1016
                        TEMPO 8000 SHRA SCT020TCU=
201202131230 METAR LMML NIL=
201202131215 METAR LMML 131215Z 35008KT 320V030 9999 BKN027 SCT070 09/04
                        Q1016 TEMPO 8000 SHRA SCT020TCU=
201202131200 METAR LMML NIL=
201202131145 METAR LMML 131145Z 27009KT 220V300 9999 SCT038 SCT070 10/03
                        Q1016 NOSIG=
201202131130 METAR LMML NIL=
201202131115 METAR LMML 131115Z 25007KT 210V300 9999 SCT037 SCT080 12/02
                        Q1017 NOSIG=
201202131100 METAR LMML NIL=
201202131045 METAR LMML 131045Z 25006KT 210V300 9999 SCT034 BKN090 11/02
                        Q1017 NOSIG=
201202131015 METAR LMML 131015Z 30006KT 260V330 9999 SCT032 BKN100 10/03
                        Q1017 NOSIG=
201202131000 METAR LMML NIL=
201202130945 METAR LMML 130945Z 32006KT 280V350 9999 SCT031 10/03 Q1017
                        NOSIG=
201202130930 METAR LMML NIL=
201202130915 METAR LMML 130915Z 30008KT 240V330 9999 SCT035 SCT250 10/02
                        Q1017 NOSIG=
201202130900 METAR LMML NIL=
201202130845 METAR LMML 130845Z 30005KT 260V340 9999 SCT034 10/04 Q1017
                        NOSIG=
201202130830 METAR LMML NIL=
201202130815 METAR LMML 130815Z 32004KT 280V350 9999 FEW030 09/04 Q1017
                        NOSIG=
201202130800 METAR LMML NIL=
201202130745 METAR LMML 130745Z 31003KT 9999 FEW038 08/04 Q1017 NOSIG=
201202130730 METAR LMML NIL=
201202130715 METAR LMML 130715Z 00000KT 9999 FEW040 SCT250 10/05 Q1017
                        NOSIG=
201202130700 METAR LMML NIL=
201202130645 METAR LMML 130645Z VRB01KT 9999 FEW040 BKN250 07/04 Q1017
                        NOSIG=
201202130630 METAR LMML NIL=
201202130615 METAR LMML 130615Z 32004KT 9999 FEW040 SCT250 06/02 Q1017
                        NOSIG=
201202130600 METAR LMML NIL=
201202130545 METAR LMML 130545Z 30006KT 9999 FEW042 SCT250 06/01 Q1017
                        NOSIG=
201202130530 METAR LMML NIL=
201202130515 METAR LMML 130515Z 28006KT 250V310 9999 FEW042 SCT120 07/01
                        Q1017 NOSIG=
201202130500 METAR LMML NIL=
201202130445 METAR LMML 130445Z 28006KT 9999 FEW042 SCT120 07/02 Q1017
                        NOSIG=
201202130430 METAR LMML NIL=
201202130415 METAR LMML 130415Z 28005KT 250V310 9999 SCT038 06/02 Q1017
                        NOSIG=
201202130400 METAR LMML NIL=
201202130345 METAR LMML 130345Z VRB02KT 9999 SCT042 05/03 Q1017 NOSIG=
201202130330 METAR LMML NIL=
201202130315 METAR LMML 130315Z VRB02KT 9999 FEW034 SCT060 06/03 Q1017
                        NOSIG=
201202130300 METAR LMML NIL=
201202130245 METAR LMML 130245Z 29003KT 9999 FEW040 BKN060 06/03 Q1017
                        NOSIG=
201202130230 METAR LMML NIL=
201202130215 METAR LMML 130215Z 31005KT 9999 FEW035 SCT060 05/02 Q1017
                        NOSIG=
201202130200 METAR LMML NIL=
201202130145 METAR LMML 130145Z 29006KT 260V320 9999 FEW035 06/02 Q1017
                        NOSIG=
201202130130 METAR LMML NIL=
201202130115 METAR LMML 130115Z 26004KT 9999 FEW040 05/01 Q1017 NOSIG=
201202130100 METAR LMML NIL=
201202130045 METAR LMML 130045Z 29004KT 9999 FEW000 06/02 Q1017 NOSIG=
201202130030 METAR LMML NIL=
201202130015 METAR LMML 130015Z 30009KT 270V330 9999 FEW040 07/02 Q1017
                        NOSIG=
201202122345 METAR LMML 122345Z 28006KT 240V300 9999 FEW040 07/01 Q1017
                        NOSIG=
201202122330 METAR LMML NIL=
201202122315 METAR LMML 122315Z 27005KT 9999 FEW040 07/02 Q1017 NOSIG=
201202122300 METAR LMML NIL=
201202122245 METAR LMML 122245Z 26004KT 210V280 9999 FEW030 07/02 Q1017
                        NOSIG=
201202122230 METAR LMML NIL=
201202122215 METAR LMML 122215Z 27006KT 230V290 9999 FEW030 SCT050 07/02
                        Q1017 NOSIG=
201202122145 METAR LMML 122145Z 29011KT 260V320 9999 FEW039 SCT050 07/02
                        Q1017 NOSIG=
201202122130 METAR LMML NIL=
201202122115 METAR LMML 122115Z 27005KT 230V300 9999 FEW037 SCT080 07/03
                        Q1017 NOSIG=
201202122100 METAR LMML NIL=
201202122045 METAR LMML 122045Z 28005KT 9999 FEW035 BKN080 07/03 Q1017
                        NOSIG=
201202122030 METAR LMML NIL=
201202122015 METAR LMML 122015Z 29003KT 9999 FEW035 SCT060 07/04 Q1017
                        NOSIG=
201202122000 METAR LMML NIL=
201202121945 METAR LMML 121945Z 30004KT 9999 FEW030 BKN060 07/05 Q1017
                        NOSIG=
201202121930 METAR LMML NIL=
201202121915 METAR LMML 121915Z 31004KT 9999 FEW030 SCT050 07/04 Q1017
                        NOSIG=
201202121845 METAR LMML 121845Z 30004KT 9999 FEW025 SCT060 07/04 Q1017
                        NOSIG=
201202121830 METAR LMML NIL=
201202121815 METAR LMML 121815Z 32005KT 9999 FEW025 07/04 Q1017 NOSIG=
201202121800 METAR LMML NIL=
201202121745 METAR LMML 121745Z 31004KT 9999 SCT022 07/04 Q1017 NOSIG=
201202121730 METAR LMML NIL=
201202121715 METAR LMML 121715Z 30005KT 9999 SCT000 07/04 Q1016 NOSIG=
201202121700 METAR LMML NIL=
201202121645 METAR LMML 121645Z 30007KT 9999 SCT026 08/04 Q1016 NOSIG=
201202121630 METAR LMML NIL=
201202121615 METAR LMML 121615Z 29008KT 9999 SCT025 09/04 Q1016 NOSIG
                        RMK CB TOPS TO NORTH AND NE=
201202121600 METAR LMML NIL=
201202121545 METAR LMML 121545Z 29011KT 260V320 9999 SCT025 09/04 Q1016
                        NOSIG=
201202121530 METAR LMML NIL=
201202121515 METAR LMML 121515Z 30012KT 250V330 9999 SCT026 10/05 Q1016
                        NOSIG=
201202121500 METAR LMML NIL=
201202121445 METAR LMML 121445Z 30009KT 9999 SCT023 10/05 Q1015 NOSIG=
201202121430 METAR LMML NIL=
201202121415 METAR LMML 121415Z 29008KT 250V330 9999 SCT027 SCT050 09/05
                        Q1015 NOSIG=
201202121400 METAR LMML NIL=
201202121345 METAR LMML 121345Z 31013KT 7000 -RA SCT025 BKN047 10/05 Q1015
                        NOSIG=
201202121330 METAR LMML NIL=
201202121315 METAR LMML 121315Z 28009KT 240V320 9999 BKN028 11/03 Q1015
                        TEMPO RA=
201202121300 METAR LMML NIL=
201202121245 METAR LMML 121245Z 30011KT 260V320 9999 SCT034 12/04 Q1015
                        NOSIG=
201202121230 METAR LMML NIL=
201202121215 METAR LMML 121215Z 30011KT 250V330 9999 FEW034 11/04 Q1015
                        NOSIG=
201202121200 METAR LMML NIL=
201202121145 METAR LMML 121145Z 28011KT 240V310 9999 FEW036 11/03 Q1015
                        NOSIG=
201202121130 METAR LMML NIL=
201202121115 METAR LMML 121115Z 30011KT 9999 FEW036 12/03 Q1015 NOSIG=
201202121100 METAR LMML NIL=
201202121045 METAR LMML 121045Z 32011KT 9999 FEW037 12/04 Q1015 NOSIG=
201202121015 METAR LMML 121015Z 33010KT 9999 FEW030 11/04 Q1015 NOSIG=
201202121000 METAR LMML NIL=
201202120945 METAR LMML 120945Z 33010KT 9999 FEW025 11/03 Q1015 NOSIG=
201202120915 METAR LMML 120915Z 33009KT 300V360 9999 FEW025 11/03 Q1014
                        NOSIG=
201202120900 METAR LMML NIL=
201202120845 METAR LMML 120845Z 33012KT 9999 FEW025 10/04 Q1014 NOSIG=
201202120830 METAR LMML NIL=
201202120815 METAR LMML 120815Z 33011KT 9999 FEW025 10/03 Q1014 NOSIG=
201202120800 METAR LMML NIL=
201202120745 METAR LMML 120745Z 33008KT 9999 FEW020 09/04 Q1014 NOSIG=
201202120730 METAR LMML NIL=
201202120715 METAR LMML 120715Z 32011KT 9999 FEW020 08/04 Q1014 NOSIG=
201202120700 METAR LMML NIL=
201202120645 METAR LMML 120645Z 32010KT 9999 FEW020 07/03 Q1014 NOSIG=
201202120615 METAR LMML 120615Z 32011KT 9999 FEW020 07/03 Q1013 NOSIG=
201202120600 METAR LMML NIL=
201202120545 METAR LMML 120545Z 33012KT CAVOK 08/03 Q1013 NOSIG=
201202120530 METAR LMML NIL=
201202120515 METAR LMML 120515Z 33013KT 9999 FEW021 SCT050 BKN080 08/04
                        Q1013 NOSIG=
201202120500 METAR LMML NIL=
201202120445 METAR LMML 120445Z 34011KT 9999 FEW021 SCT050 BKN080 08/05
                        Q1012 NOSIG=
201202120430 METAR LMML NIL=
201202120415 METAR LMML 120415Z 34009KT CAVOK 08/05 Q1012 NOSIG=
201202120400 METAR LMML NIL=
201202120345 METAR LMML 120345Z 34013KT 9999 FEW019 BKN049 08/05 Q1012
                        NOSIG=
201202120330 METAR LMML NIL=
201202120315 METAR LMML 120315Z 34014KT 9999 FEW019 BKN043 08/05 Q1012
                        NOSIG=
201202120245 METAR LMML 120245Z 34016KT 9999 FEW019 BKN043 BKN250 08/05
                        Q1012 NOSIG=
201202120230 METAR LMML NIL=
201202120215 METAR LMML 120215Z 34015KT 9999 SCT018 SCT042 BKN250 08/05
                        Q1012 NOSIG=
201202120200 METAR LMML NIL=
201202120145 METAR LMML 120145Z 34017G28KT 9999 SCT016 BKN039 BKN250 08/05
                        Q1012 NOSIG=
201202120130 METAR LMML NIL=
201202120115 METAR LMML 120115Z 34017KT 9999 FEW015CB BKN018 08/06 Q1012
                        BECMG SCT018 RMK LIGHTNING TO SE=
201202120100 METAR LMML NIL=
201202120045 METAR LMML 120045Z 34013KT 9999 FEW015CB BKN021 BKN250 08/06
                        Q1012 RETS NOSIG RMK LIGHTNING TO
                        SE=
201202120030 METAR LMML NIL=
201202120015 METAR LMML 120015Z 34013KT 9999 FEW015CB SCT050 BKN250 08/07
                        Q1012 RETS NOSIG RMK LIGHTNING TO
                        SE=
201202120000 METAR LMML NIL=
201202112330 METAR LMML NIL=
201202112315 METAR LMML 112315Z 32011KT 290V350 9999 -TSRA FEW009 BKN016CB
                        09/08 Q1012 RETSGR NOSIG=
201202112300 METAR LMML NIL=
201202112245 METAR LMML 112245Z 34008KT 9999 -TSRA FEW010 BKN016CB 08/08
                        Q1012 RETSGR TEMPO 5000=
201202112230 METAR LMML NIL=
201202112215 METAR LMML 112215Z 34010KT 3500 TSGR FEW010 BKN016CB 07/06
                        Q1012 NOSIG=
201202112200 METAR LMML NIL=
201202112145 METAR LMML 112145Z 33007KT 230V020 9999 -RA FEW010 BKN013
                        10/08 Q1012 TEMPO 6000=
201202112130 METAR LMML NIL=
201202112115 METAR LMML 112115Z 33005KT 280V010 9999 BKN015 10/07 Q1012
                        TEMPO 8000 RA=
201202112100 METAR LMML NIL=
201202112045 METAR LMML 112045Z 32007KT 260V010 9999 FEW018 BKN090 11/08
                        Q1012 TEMPO 8000 RA=
201202112030 METAR LMML NIL=
201202112015 METAR LMML 112015Z 15007KT 110V190 CAVOK 13/10 Q1011 NOSIG
                        RMK DISTANT LIGHTNING TO N=
201202112000 METAR LMML NIL=
201202111945 METAR LMML 111945Z 16008KT 130V200 CAVOK 13/10 Q1011 NOSIG
                        RMK DISTANT LIGHTNING TO N=
201202111930 METAR LMML NIL=
201202111915 METAR LMML 111915Z 15007KT 110V190 9999 FEW024CB BKN130 13/10
                        Q1011 NOSIG=
201202111900 METAR LMML NIL=
201202111845 METAR LMML 111845Z 14011KT 9999 FEW024CB BKN100 13/10 Q1011
                        TEMPO 5000 TSRA BKN015CB RMK LIGHTNING
                        TO NNE AND NNW=
201202111830 METAR LMML NIL=
201202111815 METAR LMML 111815Z 14009KT 110V170 9999 FEW024CB BKN100 13/10
                        Q1012 TEMPO 5000 TSRA BKN015CB RMK
                        LIGHTNING TO N AND NNW=
201202111800 METAR LMML NIL=
201202111745 METAR LMML 111745Z 14009KT 9999 SCT034 BKN130 13/09 Q1012
                        NOSIG RMK LIGHTNING TO NE=
201202111730 METAR LMML NIL=
201202111715 METAR LMML 111715Z 14007KT 120V180 9999 SCT018 BKN100 13/10
                        Q1012 NOSIG=
201202111700 METAR LMML NIL=
201202111645 METAR LMML 111645Z 15004KT 100V230 9999 SCT020 BKN130 12/10
                        Q1012 NOSIG=
201202111630 METAR LMML NIL=
201202111615 METAR LMML 111615Z 03004KT 360V060 9999 BKN021 BKN080 12/10
                        Q1012 NOSIG=
201202111545 METAR LMML 111545Z 03004KT 360V080 9999 BKN023 BKN120 12/09
                        Q1013 NOSIG=
201202111530 METAR LMML NIL=
201202111515 METAR LMML 111515Z 05006KT 020V110 9999 BKN022 BKN120 12/09
                        Q1013 NOSIG=
201202111500 METAR LMML NIL=
201202111445 METAR LMML 111445Z 07008KT 030V100 9999 SCT012 BKN250 12/09
                        Q1013 NOSIG=
201202111430 METAR LMML NIL=
201202111415 METAR LMML 111415Z 05009KT 020V090 9999 SCT013 SCT120 12/09
                        Q1013 NOSIG=
201202111400 METAR LMML NIL=
201202111345 METAR LMML 111345Z 04008KT 360V170 9999 BKN014 BKN120 12/08
                        Q1013 NOSIG=
201202111330 METAR LMML NIL=
201202111315 METAR LMML 111315Z 04008KT 360V090 9999 SCT014 SCT120 13/08
                        Q1014 NOSIG=
201202111300 METAR LMML NIL=
201202111245 METAR LMML 111245Z 04007KT 350V080 9999 FEW016 SCT120 12/08
                        Q1014 NOSIG=
201202111215 METAR LMML 111215Z 03008KT 9999 FEW021 SCT140 13/08 Q1014
                        NOSIG=
201202111200 METAR LMML NIL=
201202111145 METAR LMML 111145Z 03007KT 360V060 9999 FEW021 BKN120 12/07
                        Q1015 NOSIG=
201202111130 METAR LMML NIL=
201202111115 METAR LMML 111115Z 01006KT 340V040 9999 FEW040 BKN250 14/09
                        Q1016 NOSIG=
201202111100 METAR LMML NIL=
201202111045 METAR LMML 111045Z 36006KT 9999 SCT035 BKN130 12/08 Q1016
                        NOSIG=
201202111030 METAR LMML NIL=
201202111015 METAR LMML 111015Z 02004KT 9999 SCT040 BKN140 12/08 Q1016
                        NOSIG=
201202111000 METAR LMML NIL=
201202110945 METAR LMML 110945Z 36003KT 9999 SCT040 BKN140 12/08 Q1017
                        NOSIG=
201202110930 METAR LMML NIL=
201202110915 METAR LMML 110915Z 36005KT 340V040 9999 -RA FEW035 BKN140
                        11/08 Q1017 NOSIG=
201202110900 METAR LMML NIL=
201202110845 METAR LMML 110845Z 33004KT 9999 SCT035 BKN110 11/08 Q1016
                        NOSIG=
201202110830 METAR LMML NIL=
201202110815 METAR LMML 110815Z 23003KT 9999 FEW035 BKN140 12/06 Q1016
                        NOSIG=
201202110800 METAR LMML NIL=
201202110745 METAR LMML 110745Z 21004KT 190V250 9999 FEW035 BKN140 11/06
                        Q1016 NOSIG=
201202110730 METAR LMML NIL=
201202110715 METAR LMML 110715Z 22004KT 180V250 9999 FEW032 BKN140 11/05
                        Q1016 NOSIG=
201202110700 METAR LMML NIL=
201202110645 METAR LMML 110645Z 21004KT 180V240 9999 FEW035 BKN110 11/05
                        Q1016 NOSIG=
201202110630 METAR LMML NIL=
201202110615 METAR LMML 110615Z 21005KT 180V260 9999 FEW035 BKN100 10/05
                        Q1016 TEMPO 7000 SHGR BKN020TCU=
201202110600 METAR LMML NIL=
201202110545 METAR LMML 110545Z 22004KT 190V250 9999 FEW034 BKN100 10/05
                        Q1016 TEMPO 7000 SHGR BKN020TCU=
201202110530 METAR LMML NIL=
201202110515 METAR LMML 110515Z 21004KT 170V250 9999 SCT033 SCT120 09/06
                        Q1016 TEMPO 7000 SHGR BKN020TCU=
201202110500 METAR LMML NIL=
201202110445 METAR LMML 110445Z 19003KT 9999 FEW035 BKN120 08/07 Q1016
                        TEMPO 7000 SHGR BKN020TCU=
201202110430 METAR LMML NIL=
201202110415 METAR LMML 110415Z 19003KT 9999 FEW033 BKN250 07/06 Q1016
                        TEMPO 7000 SHGR BKN020TCU=
201202110400 METAR LMML NIL=
201202110345 METAR LMML 110345Z VRB02KT 9999 FEW032 BKN100 07/06 Q1016
                        TEMPO 7000 SHGR BKN020TCU=
201202110330 METAR LMML NIL=
201202110315 METAR LMML 110315Z VRB01KT 9999 FEW032 SCT080 08/06 Q1016
                        TEMPO 7000 SHGR BKN020TCU=
201202110245 METAR LMML 110245Z 33003KT 9999 FEW033 BKN100 08/06 Q1016
                        TEMPO 7000 SHGR BKN020TCU=
201202110230 METAR LMML NIL=
201202110215 METAR LMML 110215Z VRB02KT 9999 FEW026 SCT048 08/06 Q1017
                        TEMPO 7000 SHGR BKN020TCU=
201202110200 METAR LMML NIL=
201202110145 METAR LMML 110145Z 30005KT 9999 SCT022 BKN040 09/06 Q1017
                        TEMPO 7000 SHGR BKN020TCU=
201202110130 METAR LMML NIL=
201202110115 METAR LMML 110115Z 30006KT 270V340 9999 SCT019 BKN050 09/06
                        Q1017 TEMPO 7000 SHGR BKN020TCU=
201202110100 METAR LMML NIL=
201202110045 METAR LMML 110045Z 28004KT 200V320 9999 SCT031 SCT060 10/06
                        Q1017 TEMPO 7000 SHGR BKN020TCU=
201202110030 METAR LMML NIL=
201202110015 METAR LMML 110015Z 21008KT 150V250 9999 BKN031 11/05 Q1017
                        TEMPO 7000 SHGR BKN020TCU=
201202110000 METAR LMML NIL=
201202102345 METAR LMML 102345Z 22007KT 180V270 9999 BKN034 11/05 Q1017
                        TEMPO 7000 SHGR BKN020TCU=
201202102330 METAR LMML NIL=
201202102315 METAR LMML 102315Z 22009KT 180V260 9999 SCT036 11/04 Q1017
                        TEMPO 7000 SHGR BKN020TCU=
201202102300 METAR LMML NIL=
201202102245 METAR LMML 102245Z 22010KT 180V280 9999 SCT035 11/04 Q1017
                        TEMPO 7000 SHGR BKN020TCU=
201202102230 METAR LMML NIL=
201202102215 METAR LMML 102215Z 22010KT 180V270 9999 SCT035 11/04 Q1017
                        TEMPO 7000 SHGR BKN020TCU=
201202102145 METAR LMML 102145Z 22009KT 180V260 9999 SCT032 11/05 Q1017
                        TEMPO 7000 SHGR BKN020TCU=
201202102130 METAR LMML NIL=
201202102115 METAR LMML 102115Z 22009KT 190V270 9999 BKN034 11/04 Q1017
                        TEMPO 7000 SHGR BKN020TCU=
201202102100 METAR LMML NIL=
201202102045 METAR LMML 102045Z 22007KT 180V270 9999 FEW035 10/04 Q1017
                        NOSIG=
201202102030 METAR LMML NIL=
201202102015 METAR LMML 102015Z 23007KT 200V270 9999 FEW038 10/04 Q1017
                        NOSIG=
201202102000 METAR LMML NIL=
201202101945 METAR LMML 101945Z 23008KT 200V270 9999 FEW038 10/04 Q1017
                        NOSIG=
201202101930 METAR LMML NIL=
201202101915 METAR LMML 101915Z 24008KT 210V290 9999 FEW038 10/03 Q1017
                        NOSIG=
201202101900 METAR LMML NIL=
201202101845 METAR LMML 101845Z 24009KT 210V280 9999 FEW038 10/03 Q1017
                        NOSIG=
201202101815 METAR LMML 101815Z 24008KT 200V290 9999 FEW040 10/03 Q1017
                        NOSIG=
201202101800 METAR LMML NIL=
201202101745 METAR LMML 101745Z 25008KT 210V290 9999 FEW043 10/03 Q1017
                        NOSIG=
201202101730 METAR LMML NIL=
201202101715 METAR LMML 101715Z 25009KT 210V290 9999 FEW040 10/03 Q1017
                        NOSIG=
201202101645 METAR LMML 101645Z 24011KT 200V290 9999 FEW038 11/04 Q1017
                        NOSIG=
201202101630 METAR LMML NIL=
201202101615 METAR LMML 101615Z 24011KT 200V290 9999 FEW037 11/04 Q1017
                        NOSIG=
201202101600 METAR LMML NIL=
201202101545 METAR LMML 101545Z 24011KT 200V270 9999 FEW038 11/04 Q1017
                        NOSIG=
201202101530 METAR LMML NIL=
201202101515 METAR LMML 101515Z 24012KT 200V280 9999 FEW035 12/05 Q1017
                        NOSIG=
201202101500 METAR LMML NIL=
201202101445 METAR LMML 101445Z 24012KT 210V280 9999 FEW035 12/05 Q1017
                        NOSIG=
201202101430 METAR LMML NIL=
201202101415 METAR LMML 101415Z 25014KT 210V280 9999 FEW032 12/05 Q1017
                        NOSIG=
201202101400 METAR LMML NIL=
201202101345 METAR LMML 101345Z 25014KT 210V290 9999 FEW029 12/06 Q1017
                        NOSIG=
201202101330 METAR LMML NIL=
201202101315 METAR LMML 101315Z 25015KT 190V290 9999 FEW029 12/06 Q1017
                        NOSIG=
201202101300 METAR LMML NIL=
201202101245 METAR LMML 101245Z 25013KT 210V290 9999 FEW025 12/06 Q1017
                        NOSIG=
201202101230 METAR LMML NIL=
201202101215 METAR LMML 101215Z 24014KT 200V280 9999 FEW025 12/07 Q1017
                        NOSIG=
201202101200 METAR LMML NIL=
201202101145 METAR LMML 101145Z 24009KT 190V280 9999 FEW028 SCT060 10/07
                        Q1018 NOSIG=
201202101130 METAR LMML NIL=
201202101115 METAR LMML 101115Z 25014G29KT 200V300 4000 -SHRA BKN019 11/06
                        Q1018 NOSIG=
201202101100 METAR LMML NIL=
201202101045 METAR LMML 101045Z 25010KT 200V300 9999 FEW025TCU SCT070
                        11/06 Q1018 NOSIG=
201202101030 METAR LMML NIL=
201202101015 METAR LMML 101015Z 26014KT 230V300 9999 FEW024 BKN070 12/06
                        Q1018 NOSIG=
201202101000 METAR LMML NIL=
201202100945 METAR LMML 100945Z 27010KT 240V300 9999 SCT024 11/07 Q1018
                        TEMPO 7000 SHGR=
201202100930 METAR LMML NIL=
201202100915 METAR LMML 100915Z 26009KT 220V310 6000 -SHGS BKN026 10/06
                        Q1018 TEMPO 5000 SHGR=
201202100845 METAR LMML 100845Z 27009KT 9999 -SHRA BKN024 10/06 Q1018
                        TEMPO 7000 SHGR=
201202100830 METAR LMML NIL=
201202100815 METAR LMML 100815Z 27004KT 230V310 9000 BKN025 09/07 Q1018
                        TEMPO 5000 SHGR=
201202100800 METAR LMML NIL=
201202100745 METAR LMML 100745Z VRB02KT 7000 -SHRA FEW017CB BKN026 09/07
                        Q1017 RESHGR TEMPO 9999 NSW=
201202100730 METAR LMML NIL=
201202100715 METAR LMML 100715Z 24005KT 210V320 4000 SHRA BKN021 08/06
                        Q1017 TEMPO 9999 NSW=
201202100700 METAR LMML NIL=
201202100645 METAR LMML 100645Z 29004KT 260V320 9999 -SHRA SCT022 09/06
                        Q1017 TEMPO SHRA=
201202100630 METAR LMML NIL=
201202100615 METAR LMML 100615Z 25005KT 220V280 9999 SCT025 08/06 Q1017
                        TEMPO SHRA=
201202100600 METAR LMML NIL=
201202100545 METAR LMML 100545Z 26007KT 230V290 4000 SHRA SCT019 SCT070
                        09/05 Q1017 TEMPO SHRA=
201202100530 METAR LMML NIL=
201202100515 METAR LMML 100515Z 27007KT 250V320 9999 FEW026 SCT080 09/05
                        Q1017 TEMPO SHRA=
201202100500 METAR LMML NIL=
201202100445 METAR LMML 100445Z 29007KT 9999 FEW024 SCT080 09/06 Q1017
                        TEMPO SHRA=
201202100430 METAR LMML NIL=
201202100415 METAR LMML 100415Z 26005KT 230V290 9999 -SHRA SCT030 SCT070
                        08/05 Q1017 TEMPO SHRA=
201202100400 METAR LMML NIL=
201202100345 METAR LMML 100345Z 27004KT 9999 FEW024 08/05 Q1017 TEMPO
                        SHRA=
201202100330 METAR LMML NIL=
201202100315 METAR LMML 100315Z 30006KT 9999 FEW024 08/05 Q1017 NOSIG=
201202100300 METAR LMML NIL=
201202100245 METAR LMML 100245Z 26006KT 220V290 9999 FEW024 08/05 Q1017
                        NOSIG=
201202100230 METAR LMML NIL=
201202100215 METAR LMML 100215Z 26005KT 220V280 9999 FEW020 08/05 Q1017
                        NOSIG=
201202100200 METAR LMML NIL=
201202100145 METAR LMML 100145Z 26006KT 9999 FEW020 SCT070 08/05 Q1017
                        NOSIG=
201202100130 METAR LMML NIL=
201202100115 METAR LMML 100115Z 26005KT 9999 FEW020 SCT080 08/05 Q1017
                        NOSIG=
201202100100 METAR LMML NIL=
201202100045 METAR LMML 100045Z 26005KT 9999 FEW020 SCT080 08/05 Q1017
                        NOSIG=
201202100030 METAR LMML NIL=
201202100015 METAR LMML 100015Z 28008KT 250V310 9999 FEW022 SCT080 09/06
                        Q1017 NOSIG=
201202100000 METAR LMML NIL=
201202092345 METAR LMML 092345Z 26006KT 9999 FEW020 SCT060 09/05 Q1017
                        NOSIG=
201202092330 METAR LMML NIL=
201202092315 METAR LMML 092315Z 26006KT 9999 FEW028 SCT070 08/05 Q1018
                        NOSIG=
201202092300 METAR LMML NIL=
201202092245 METAR LMML 092245Z 25005KT 9999 FEW028 08/05 Q1018 NOSIG=
201202092230 METAR LMML NIL=
201202092215 METAR LMML 092215Z 27006KT 9999 FEW028 08/05 Q1017 NOSIG=
201202092200 METAR LMML NIL=
201202092145 METAR LMML 092145Z 27006KT 210V290 9999 FEW028 08/05 Q1017
                        NOSIG=
201202092130 METAR LMML NIL=
201202092115 METAR LMML 092115Z 27005KT 240V300 9999 FEW028 08/05 Q1017
                        NOSIG=
201202092100 METAR LMML NIL=
201202092045 METAR LMML 092045Z 27005KT 9999 FEW027 08/05 Q1017 NOSIG=
201202092030 METAR LMML NIL=
201202092015 METAR LMML 092015Z 26006KT 9999 SCT026 09/06 Q1017 NOSIG=
201202092000 METAR LMML NIL=
201202091945 METAR LMML 091945Z 25004KT 9999 FEW030 07/04 Q1017 NOSIG=
201202091930 METAR LMML NIL=
201202091915 METAR LMML 091915Z 27004KT 9999 FEW030 08/04 Q1017 NOSIG=
201202091845 METAR LMML 091845Z 27004KT 9999 FEW030 08/04 Q1017 NOSIG=
201202091830 METAR LMML NIL=
201202091815 METAR LMML 091815Z 26004KT 9999 FEW031 09/04 Q1017 NOSIG=
201202091745 METAR LMML 091745Z 28006KT 9999 FEW030 08/04 Q1017 NOSIG=
201202091730 METAR LMML NIL=
201202091715 METAR LMML 091715Z 28006KT 9999 FEW030 09/04 Q1017 NOSIG=
201202091700 METAR LMML NIL=
201202091645 METAR LMML 091645Z 29006KT 9999 FEW030 09/04 Q1017 NOSIG=
201202091630 METAR LMML NIL=
201202091615 METAR LMML 091615Z 29006KT 9999 FEW032 10/04 Q1017 NOSIG=
201202091600 METAR LMML NIL=
201202091545 METAR LMML 091545Z 29009KT 9999 FEW032 11/04 Q1016 NOSIG=
201202091530 METAR LMML NIL=
201202091515 METAR LMML 091515Z 29009KT 260V320 9999 SCT032 11/04 Q1017
                        NOSIG=
201202091500 METAR LMML NIL=
201202091445 METAR LMML 091445Z 29010KT 250V320 9999 SCT032 11/04 Q1017
                        NOSIG=
201202091430 METAR LMML NIL=
201202091415 METAR LMML 091415Z 30011KT 270V330 9999 SCT032 12/03 Q1017
                        NOSIG=
201202091400 METAR LMML NIL=
201202091345 METAR LMML 091345Z 30011KT 260V330 9999 SCT032 11/04 Q1017
                        NOSIG=
201202091330 METAR LMML NIL=
201202091315 METAR LMML 091315Z 29011KT 260V320 9999 SCT032 12/04 Q1017
                        NOSIG=
201202091300 METAR LMML NIL=
201202091245 METAR LMML 091245Z 29010KT 9999 SCT032 11/05 Q1017 NOSIG=
201202091230 METAR LMML NIL=
201202091215 METAR LMML 091215Z 31010KT 270V330 9999 SCT033 13/05 Q1017
                        NOSIG=
201202091200 METAR LMML NIL=
201202091145 METAR LMML 091145Z 30009KT 260V340 9999 SCT034 12/04 Q1017
                        NOSIG=
201202091115 METAR LMML 091115Z 29008KT 240V330 9999 FEW035 12/05 Q1017
                        NOSIG=
201202091100 METAR LMML NIL=
201202091045 METAR LMML 091045Z 30008KT 260V330 9999 FEW035 12/05 Q1017
                        NOSIG RMK CB TO SOUTH=
201202091030 METAR LMML NIL=
201202091015 METAR LMML 091015Z 31008KT 270V340 9999 FEW025 12/04 Q1017
                        NOSIG=
201202090945 METAR LMML 090945Z 31010KT 9999 FEW025 11/05 Q1017 NOSIG=
201202090930 METAR LMML NIL=
201202090915 METAR LMML 090915Z 31009KT 9999 FEW025 11/05 Q1017 NOSIG=
201202090900 METAR LMML NIL=
201202090845 METAR LMML 090845Z 28007KT 9999 FEW025TCU 10/06 Q1017 NOSIG=
201202090830 METAR LMML NIL=
201202090815 METAR LMML 090815Z 30006KT 9999 FEW025TCU 10/06 Q1017 NOSIG=
201202090800 METAR LMML NIL=
201202090745 METAR LMML 090745Z 28004KT 250V320 9999 FEW025TCU 09/05 Q1016
                        NOSIG=
201202090730 METAR LMML NIL=
201202090715 METAR LMML 090715Z 28005KT 9999 FEW035 07/04 Q1016 NOSIG=
201202090700 METAR LMML NIL=
201202090645 METAR LMML 090645Z 28003KT 9999 FEW035 05/04 Q1016 NOSIG=
201202090630 METAR LMML NIL=
201202090615 METAR LMML 090615Z 27003KT 9999 FEW035 04/03 Q1016 NOSIG
                        RMK CB TO EAST=
201202090545 METAR LMML 090545Z VRB02KT 9999 FEW036TCU 04/02 Q1016 NOSIG=
201202090515 METAR LMML 090515Z 31004KT 9999 FEW036 05/03 Q1015 NOSIG=
201202090500 METAR LMML NIL=
201202090445 METAR LMML 090445Z 29005KT 9999 FEW036 04/02 Q1015 NOSIG=
201202090415 METAR LMML 090415Z 27003KT 9999 FEW036 05/02 Q1015 NOSIG=
201202090345 METAR LMML 090345Z 29004KT 9999 FEW036 06/03 Q1015 NOSIG=
201202090315 METAR LMML 090315Z 27004KT 9999 FEW036 05/02 Q1015 NOSIG=
201202090300 METAR LMML NIL=
201202090245 METAR LMML 090245Z 29004KT 9999 FEW036 06/03 Q1015 NOSIG=
201202090230 METAR LMML NIL=
201202090215 METAR LMML 090215Z VRB02KT 9999 FEW036 04/03 Q1015 NOSIG=
201202090200 METAR LMML NIL=
201202090145 METAR LMML 090145Z 26003KT 9999 FEW035 05/03 Q1015 NOSIG=
201202090130 METAR LMML NIL=
201202090115 METAR LMML 090115Z 26003KT 9999 FEW022 04/03 Q1015 NOSIG
                        RMK CB TOPS TO NE=
201202090100 METAR LMML NIL=
201202090045 METAR LMML 090045Z 25003KT 9999 FEW022 05/03 Q1015 NOSIG=
201202090030 METAR LMML NIL=
201202090015 METAR LMML 090015Z 29003KT 9999 FEW044 05/02 Q1015 NOSIG=
201202090000 METAR LMML NIL=
201202082345 METAR LMML 082345Z VRB02KT 9999 FEW044 05/03 Q1015 NOSIG=
201202082330 METAR LMML NIL=
201202082315 METAR LMML 082315Z 27004KT 9999 FEW022 05/03 Q1015 NOSIG=
201202082300 METAR LMML NIL=
201202082245 METAR LMML 082245Z 27003KT 9999 FEW022 06/03 Q1015 NOSIG=
201202082230 METAR LMML NIL=
201202082215 METAR LMML 082215Z 27003KT 9999 FEW022 06/03 Q1015 NOSIG=
201202082200 METAR LMML NIL=
201202082145 METAR LMML 082145Z VRB02KT 9999 FEW022 06/03 Q1015 NOSIG=
201202082130 METAR LMML NIL=
201202082115 METAR LMML 082115Z 26005KT 9999 FEW022 07/03 Q1015 NOSIG=
201202082100 METAR LMML NIL=
201202082045 METAR LMML 082045Z 24004KT 9999 FEW022 SCT100 07/04 Q1015
                        NOSIG=
201202082030 METAR LMML NIL=
201202082015 METAR LMML 082015Z 26010KT 220V290 9999 -RA FEW021 SCT034
                        BKN100 07/04 Q1015 NOSIG=
201202082000 METAR LMML NIL=
201202081945 METAR LMML 081945Z 24005KT 210V270 9999 FEW020CB BKN100 07/04
                        Q1015 RERA NOSIG=
201202081930 METAR LMML NIL=
201202081915 METAR LMML 081915Z 21005KT 180V250 9999 FEW020 SCT060 BKN100
                        07/05 Q1014 RERA NOSIG=
201202081900 METAR LMML NIL=
201202081845 METAR LMML 081845Z 22010KT 190V250 9999 RA SCT022 BKN050
                        06/04 Q1014 NOSIG=
201202081830 METAR LMML NIL=
201202081815 METAR LMML 081815Z 26006KT 210V300 9999 -RA SCT018 BKN057
                        06/04 Q1014 NOSIG=
201202081800 METAR LMML NIL=
201202081745 METAR LMML 081745Z 27003KT 9999 FEW021 SCT050 06/04 Q1014
                        TEMPO 5000 RA BKN015=
201202081730 METAR LMML NIL=
201202081715 METAR LMML 081715Z VRB02KT 9999 SCT020 07/05 Q1013 TEMPO
                        5000 RA BKN015=
201202081700 METAR LMML NIL=
201202081645 METAR LMML 081645Z 29003KT 9999 SCT025 07/04 Q1013 TEMPO
                        5000 RA BKN015=
201202081630 METAR LMML NIL=
201202081615 METAR LMML 081615Z 31003KT 9999 SCT020 SCT250 08/05 Q1013
                        TEMPO 5000 RA BKN015=
201202081600 METAR LMML NIL=
201202081545 METAR LMML 081545Z 28008KT 9999 -SHRA SCT017 SCT050 08/04
                        Q1013 NOSIG RMK TEMPO 5000 RA BKN015=
201202081530 METAR LMML NIL=
201202081515 METAR LMML 081515Z 30008KT 9999 SCT026 SCT250 09/05 Q1012
                        NOSIG=
201202081500 METAR LMML NIL=
201202081445 METAR LMML 081445Z 30008KT 9999 SCT023 SCT110 BKN250 09/05
                        Q1012 NOSIG=
201202081430 METAR LMML NIL=
201202081415 METAR LMML 081415Z 29010KT 260V320 9999 FEW025 BKN110 09/05
                        Q1012 NOSIG=
201202081400 METAR LMML NIL=
201202081345 METAR LMML 081345Z 29010KT 9999 FEW023 SCT100 BKN120 09/04
                        Q1012 NOSIG=
201202081330 METAR LMML NIL=
201202081315 METAR LMML 081315Z 30007KT 270V330 9999 FEW021 SCT080 BKN120
                        08/05 Q1012 NOSIG=
201202081300 METAR LMML NIL=
201202081245 METAR LMML 081245Z 29010KT 260V320 9999 SCT026 SCT100 BKN250
                        09/04 Q1012 NOSIG=
201202081230 METAR LMML NIL=
201202081215 METAR LMML 081215Z 27010KT 230V310 9999 SCT029 SCT048 BKN250
                        09/04 Q1011 NOSIG=
201202081200 METAR LMML NIL=
201202081145 METAR LMML 081145Z 21006KT 170V260 9999 SCT020 BKN050 08/04
                        Q1011 NOSIG RMK CB TOP TO WEST=
201202081130 METAR LMML NIL=
201202081115 METAR LMML 081115Z 20007KT 150V240 9999 -RA SCT017 BKN050
                        07/04 Q1012 NOSIG=
201202081100 METAR LMML NIL=
201202081045 METAR LMML 081045Z VRB02KT 7000 -RA SCT021 BKN050 06/04 Q1012
                        RERA NOSIG=
201202081030 METAR LMML NIL=
201202081015 METAR LMML 081015Z 23006KT 200V280 2000 RA SCT024 BKN040
                        07/04 Q1012 NOSIG=
201202081000 METAR LMML NIL=
201202080945 METAR LMML 080945Z 33008KT 9000 FEW024 BKN050 07/03 Q1011
                        TEMPO 5000 SHGS BKN015=
201202080930 METAR LMML NIL=
201202080915 METAR LMML 080915Z 30005KT 9000 FEW020 BKN040 07/03 Q1011
                        RERA TEMPO 5000 TSGS BKN015CB=
201202080900 METAR LMML NIL=
201202080845 METAR LMML 080845Z 28010KT 240V320 7000 RA FEW011 SCT023
                        BKN040 06/02 Q1011 TEMPO 5000 TSGS
                        BKN015CB=
201202080830 METAR LMML NIL=
201202080815 METAR LMML 080815Z 30013KT 5000 RA FEW011 SCT020 BKN040 05/03
                        Q1011 TEMPO TSGS BKN015CB=
201202080800 METAR LMML NIL=
201202080745 METAR LMML 080745Z 29016KT 250V320 9000 -RA SCT019 BKN044
                        06/03 Q1011 TEMPO 5000 TSGS BKN015CB=
201202080730 METAR LMML NIL=
201202080715 METAR LMML 080715Z 30012KT 9000 -RA FEW011 SCT022 BKN040
                        05/03 Q1010 TEMPO 5000 TSGS BKN015CB=
201202080700 METAR LMML NIL=
201202080645 METAR LMML 080645Z 28011KT 250V310 5000 -RA SCT020 BKN041
                        05/03 Q1010 TEMPO 5000 TSGS BKN015CB=
201202080630 METAR LMML NIL=
201202080615 METAR LMML 080615Z 25013KT 230V290 5000 -RA SCT016TCU BKN040
                        05/03 Q1010 TEMPO TSGS BKN015CB=
201202080600 METAR LMML NIL=
201202080545 METAR LMML 080545Z 29008KT 250V320 9999 -SHRA SCT016 BKN080
                        06/03 Q1009 TEMPO 5000 TSGS BKN015CB=
201202080530 METAR LMML NIL=
201202080515 METAR LMML 080515Z 27006KT 240V300 9999 FEW020 SCT040 BKN080
                        06/02 Q1009 TEMPO 7000 SHRA=
201202080445 METAR LMML 080445Z 28010KT 9999 FEW020 SCT040 BKN080 06/03
                        Q1009 TEMPO 7000 SHGR=
201202080430 METAR LMML NIL=
201202080415 METAR LMML 080415Z 29010KT 9999 FEW020 SCT040 BKN090 06/03
                        Q1009 TEMPO 7000 SHGR=
201202080400 METAR LMML NIL=
201202080345 METAR LMML 080345Z 28007KT 240V340 9999 SCT020 BKN040 06/04
                        Q1009 TEMPO 7000 SHGR=
201202080330 METAR LMML NIL=
201202080315 METAR LMML 080315Z 28010KT 250V310 9999 SCT019 BKN040 06/04
                        Q1009 TEMPO 7000 SHGR=
201202080245 METAR LMML 080245Z 20003KT 9999 SCT020 SCT040 BKN080 05/04
                        Q1009 RESHRA TEMPO 7000 SHGR=
201202080230 METAR LMML NIL=
201202080215 METAR LMML 080215Z VRB02KT 9999 SCT025 SCT050 BKN080 05/04
                        Q1009 RESHRA TEMPO 7000 SHGR=
201202080145 METAR LMML 080145Z 26006KT 230V310 9999 SHRA SCT025 SCT040
                        BKN080 05/04 Q1009 TEMPO 7000 SHGR=
201202080130 METAR LMML NIL=
201202080115 METAR LMML 080115Z 30009KT 9999 SHRA SCT022 SCT040 05/03
                        Q1009 TEMPO 7000 SHGR=
201202080100 METAR LMML NIL=
201202080045 METAR LMML 080045Z VRB02KT 9999 SCT020 SCT080 04/03 Q1008
                        TEMPO 7000 SHGR=
201202080030 METAR LMML NIL=
201202080015 METAR LMML 080015Z 36003KT 9999 SCT019 BKN080 05/03 Q1008
                        TEMPO 7000 SHGR=
201202080000 METAR LMML NIL=
201202072345 METAR LMML 072345Z 30005KT 270V340 9999 SHRA FEW017 BKN028
                        BKN060 06/04 Q1008 TEMPO 7000 SHGR=
201202072330 METAR LMML NIL=
201202072315 METAR LMML 072315Z 24007KT 200V300 9999 FEW018 BKN060 06/04
                        Q1008 RESHGR TEMPO 3000 TSGR BKN020CB=
201202072300 METAR LMML NIL=
201202072245 METAR LMML 072245Z 24012KT 200V280 9999 FEW023 BKN050 07/04
                        Q1008 TEMPO 3000 TSGR BKN020CB=
201202072230 METAR LMML NIL=
201202072215 METAR LMML 072215Z 24004KT 190V280 9999 FEW025 05/03 Q1008
                        TEMPO 7000 SHGR=
201202072200 METAR LMML NIL=
201202072145 METAR LMML 072145Z VRB01KT 9999 SCT025 SCT070 05/03 Q1008
                        TEMPO 7000 SHGR=
201202072130 METAR LMML NIL=
201202072115 METAR LMML 072115Z 32005KT 9999 SCT026 BKN035 05/03 Q1008
                        RESHRA TEMPO 7000 SHGR=
201202072045 METAR LMML 072045Z 26005KT 210V300 9999 -SHRA FEW024CB SCT027
                        BKN040 06/03 Q1008 TEMPO 3000 TSGR
                        BKN020CB=
201202072030 METAR LMML NIL=
201202072015 METAR LMML 072015Z 25007KT 210V300 9999 FEW024CB SCT027 SCT080
                        06/03 Q1007 TEMPO 3000 TSGR BKN020CB
                        RMK LIGHTNING TO NW=
201202072000 METAR LMML NIL=
201202071945 METAR LMML 071945Z 30005KT 270V340 9999 -SHRA FEW029 SCT060
                        06/03 Q1007 TEMPO 7000 SHGR=
201202071930 METAR LMML NIL=
201202071915 METAR LMML 071915Z 30005KT 9999 FEW032 SCT060 06/03 Q1006
                        NOSIG=
201202071900 METAR LMML NIL=
201202071845 METAR LMML 071845Z 32008KT 9999 SCT030 SCT060 06/03 Q1006
                        NOSIG=
201202071830 METAR LMML NIL=
201202071815 METAR LMML 071815Z 30005KT 9999 SCT035 SCT090 06/03 Q1006
                        NOSIG=
201202071800 METAR LMML NIL=
201202071745 METAR LMML 071745Z 31006KT 9999 SCT026 SCT090 06/03 Q1006
                        NOSIG=
201202071730 METAR LMML NIL=
201202071715 METAR LMML 071715Z 32007KT 260V350 9999 BKN026TCU SCT050
                        06/03 Q1005 NOSIG=
201202071700 METAR LMML NIL=
201202071645 METAR LMML 071645Z 35006G16KT 270V020 9999 FEW025CB SCT030TCU
                        06/03 Q1005 NOSIG RMK LIGHTNING TO
                        NE=
201202071630 METAR LMML NIL=
201202071615 METAR LMML 071615Z 31005KT 9999 FEW022CB SCT025TCU 06/03
                        Q1005 NOSIG RMK CB TO NW AND SW=
201202071545 METAR LMML 071545Z 31007KT 9999 FEW022CB SCT025TCU 07/04
                        Q1005 RETS NOSIG RMK CB TOPS TO NW
                        AND E=
201202071530 METAR LMML NIL=
201202071515 METAR LMML 071515Z 28013KT 250V330 9000 TSRA SCT022CB BKN026
                        07/03 Q1005 NOSIG=
201202071500 METAR LMML NIL=
201202071445 METAR LMML 071445Z 31012KT 280V340 9999 SCT024TCU SCT070
                        07/04 Q1004 NOSIG RMK CB TO WEST=
201202071430 METAR LMML NIL=
201202071415 METAR LMML 071415Z 30009KT 9999 SCT025TCU SCT080 07/03 Q1004
                        NOSIG=
201202071345 METAR LMML 071345Z 32021KT 9000 SCT020 SCT080 07/04 Q1004
                        NOSIG=
201202071330 METAR LMML NIL=
201202071315 METAR LMML 071315Z 30020KT 270V330 9999 SHRA SCT025TCU 08/04
                        Q1003 NOSIG=
201202071300 METAR LMML NIL=
201202071245 METAR LMML 071245Z 31019KT 280V340 9999 FEW022 08/04 Q1003
                        NOSIG=
201202071230 METAR LMML NIL=
201202071215 METAR LMML 071215Z 30016KT 9999 SCT035 09/03 Q1003 NOSIG=
201202071200 METAR LMML NIL=
201202071145 METAR LMML 071145Z 30016KT 9999 SHRA BKN026 SCT050 07/04
                        Q1003 NOSIG=
201202071115 METAR LMML 071115Z 30009KT 250V320 9999 SHRA BKN025TCU 07/04
                        Q1003 NOSIG=
201202071045 METAR LMML 071045Z 30021KT 5000 SHRA BKN025TCU 07/03 Q1003
                        NOSIG=
201202071030 METAR LMML NIL=
201202071015 METAR LMML 071015Z 27016KT 240V300 9999 SCT030 08/03 Q1003
                        NOSIG=
201202071000 METAR LMML NIL=
201202070945 METAR LMML 070945Z 28018G28KT 230V310 9999 SCT030 SCT047
                        09/04 Q1003 NOSIG=
201202070930 METAR LMML NIL=
201202070915 METAR LMML 070915Z 30015G26KT 9999 SCT018TCU 06/02 Q1002
                        NOSIG=
201202070845 METAR LMML 070845Z 28018G29KT 230V310 9999 SCT031TCU 09/03
                        Q1002 NOSIG=
201202070830 METAR LMML NIL=
201202070815 METAR LMML 070815Z 28016KT 250V320 9999 SCT026 SCT050 07/03
                        Q1002 NOSIG=
201202070800 METAR LMML NIL=
201202070745 METAR LMML 070745Z 30022KT 270V330 6000 SHRA BKN034TCU 07/02
                        Q1002 NOSIG=
201202070730 METAR LMML NIL=
201202070715 METAR LMML 070715Z 30014KT 260V330 9999 SCT030 SCT060 08/01
                        Q1001 NOSIG=
201202070700 METAR LMML NIL=
201202070645 METAR LMML 070645Z 30019G32KT 270V330 9999 SCT029 SCT045
                        07/03 Q1001 REGR NOSIG=
201202070630 METAR LMML NIL=
201202070615 METAR LMML 070615Z 28016KT 250V310 9000 SHRA SCT027 BKN050
                        06/02 Q1001 TEMPO 6000 SHGR=
201202070545 METAR LMML 070545Z 29015G29KT 260V330 9999 BKN024 SCT060
                        07/02 Q1001 TEMPO 6000 SHGR=
201202070530 METAR LMML NIL=
201202070515 METAR LMML 070515Z 31016KT 9999 -SHRA BKN026 07/03 Q1001
                        TEMPO 6000 SHGR=
201202070500 METAR LMML NIL=
201202070445 METAR LMML 070445Z 29016KT 260V320 9999 SCT020 07/01 Q1001
                        TEMPO 6000 SHGR=
201202070430 METAR LMML NIL=
201202070415 METAR LMML 070415Z 29022G34KT 260V320 9999 -SHRA BKN032 07/01
                        Q1002 TEMPO 6000 SHGR=
201202070400 METAR LMML NIL=
201202070345 METAR LMML 070345Z 29022G32KT 260V320 9999 BKN030 08/02 Q1001
                        TEMPO 6000 SHGR=
201202070330 METAR LMML NIL=
201202070315 METAR LMML 070315Z 28027G39KT 9999 FEW028 SCT060 07/02 Q1001
                        TEMPO 6000 SHGR=
201202070245 METAR LMML 070245Z 29017G28KT 260V320 9999 SCT035 BKN250
                        08/01 Q1001 TEMPO 6000 SHGR=
201202070230 METAR LMML NIL=
201202070215 METAR LMML 070215Z 29022KT 260V330 9999 SCT036 BKN250 08/01
                        Q1001 TEMPO 6000 SHGR=
201202070200 METAR LMML NIL=
201202070145 METAR LMML 070145Z 29021KT 260V320 9999 SCT039 BKN250 08/00
                        Q1002 TEMPO 6000 SHGR=
201202070130 METAR LMML NIL=
201202070115 METAR LMML 070115Z 30019KT 270V330 9999 FEW030 BKN250 07/00
                        Q1002 TEMPO 6000 SHGR=
201202070100 METAR LMML NIL=
201202070045 METAR LMML 070045Z 30024G34KT 260V320 9999 FEW030 BKN060
                        BKN250 08/00 Q1002 TEMPO 6000 SHGR=
201202070015 METAR LMML 070015Z 29022G35KT 250V320 9999 FEW030 SCT060
                        BKN250 08/M01 Q1002 TEMPO 6000 SHGR=
201202070000 METAR LMML NIL=
201202062345 METAR LMML 062345Z 29023KT 250V320 9999 SCT032 SCT060 BKN250
                        08/02 Q1002 TEMPO 6000 SHGR=
201202062315 METAR LMML 062315Z 30022KT 9999 SCT039 SCT060 BKN250 08/01
                        Q1002 TEMPO 6000 SHGR=
201202062300 METAR LMML NIL=
201202062245 METAR LMML 062245Z 30021G31KT 9999 SCT041 BKN250 08/00 Q1002
                        TEMPO 6000 SHGR=
201202062230 METAR LMML NIL=
201202062215 METAR LMML 062215Z 30022G32KT 9999 SCT043 BKN250 08/00 Q1002
                        TEMPO 6000 SHGR=
201202062200 METAR LMML NIL=
201202062145 METAR LMML 062145Z 29022G32KT 260V320 9999 FEW023 BKN250
                        08/00 Q1002 TEMPO 6000 SHGR=
201202062130 METAR LMML NIL=
201202062115 METAR LMML 062115Z 29022KT 270V330 9999 FEW023 BKN250 07/00
                        Q1002 TEMPO 6000 SHGR=
201202062100 METAR LMML NIL=
201202062045 METAR LMML 062045Z 30023G33KT 270V330 7000 -SHRA FEW014 BKN027
                        06/03 Q1003 TEMPO 5000 SHGR=
201202062030 METAR LMML NIL=
201202062015 METAR LMML 062015Z 30027G41KT 7000 -SHRA BKN027 SCT250 07/03
                        Q1003 TEMPO 5000 SHGR=
201202062000 METAR LMML NIL=
201202061945 METAR LMML 061945Z 30025KT 9999 FEW030 SCT250 08/02 Q1002
                        TEMPO 7000 SHGR=
201202061930 METAR LMML NIL=
201202061915 METAR LMML 061915Z 30023KT 9999 FEW025 SCT250 07/02 Q1002
                        TEMPO 7000 SHGR=
201202061900 METAR LMML NIL=
201202061845 METAR LMML 061845Z 30022G32KT 9999 SCT027 SCT250 08/03 Q1002
                        TEMPO 7000 SHGR=
201202061830 METAR LMML NIL=
201202061815 METAR LMML 061815Z 28024G37KT 240V320 9999 SCT022 SCT250
                        07/04 Q1002 TEMPO 7000 SHGR=
201202061745 METAR LMML 061745Z 29025G37KT 260V320 9999 -SHRA SCT028 BKN250
                        07/03 Q1002 TEMPO 7000 SHGR=
201202061715 METAR LMML 061715Z 30024G39KT 9999 -SHRA SCT036 BKN250 08/02
                        Q1002 TEMPO 7000 SHGR=
201202061700 METAR LMML NIL=
201202061645 METAR LMML 061645Z 29025G36KT 9999 SCT044 BKN250 08/M01 Q1002
                        NOSIG=
201202061630 METAR LMML NIL=
201202061615 METAR LMML 061615Z 29024KT 260V320 9999 FEW042 BKN250 08/M00
                        Q1002 NOSIG=
201202061600 METAR LMML NIL=
201202061545 METAR LMML 061545Z 28026G37KT 250V310 9999 FEW042 BKN250
                        08/M01 Q1002 NOSIG=
201202061530 METAR LMML NIL=
201202061515 METAR LMML 061515Z 29027G37KT 9999 SCT041 BKN250 09/M01 Q1002
                        NOSIG=
201202061500 METAR LMML NIL=
201202061445 METAR LMML 061445Z 30030G41KT 270V330 9999 BKN042 SCT250
                        09/01 Q1002 NOSIG=
201202061430 METAR LMML NIL=
201202061415 METAR LMML 061415Z 30031G41KT 270V330 9999 BKN038 SCT250
                        10/02 Q1003 NOSIG=
201202061400 METAR LMML NIL=
201202061345 METAR LMML 061345Z 31033KT 9999 BKN036 SCT050 10/02 Q1003
                        NOSIG=
201202061330 METAR LMML NIL=
201202061315 METAR LMML 061315Z 31033KT 9999 BKN032 SCT050 10/03 Q1002
                        NOSIG=
201202061300 METAR LMML NIL=
201202061245 METAR LMML 061245Z 31030G42KT 9999 BKN029 BKN250 10/04 Q1002
                        NOSIG=
201202061230 METAR LMML NIL=
201202061215 METAR LMML 061215Z 32025G36KT 280V340 9999 BKN027 BKN250
                        10/05 Q1002 NOSIG=
201202061200 METAR LMML NIL=
201202061145 METAR LMML 061145Z 32022KT 9999 BKN027 BKN250 10/05 Q1002
                        NOSIG=
201202061130 METAR LMML NIL=
201202061115 METAR LMML 061115Z 31022KT 9999 -SHRA FEW026 SCT032 SCT039
                        09/05 Q1002 NOSIG=
201202061100 METAR LMML NIL=
201202061045 METAR LMML 061045Z 32018KT 9999 BKN028 BKN250 10/04 Q1003
                        NOSIG=
201202061030 METAR LMML NIL=
201202061015 METAR LMML 061015Z 33018KT 9999 BKN031 BKN250 09/04 Q1003
                        NOSIG=
201202061000 METAR LMML NIL=
201202060945 METAR LMML 060945Z 32017KT 9999 BKN026 BKN250 09/04 Q1003
                        NOSIG=
201202060930 METAR LMML NIL=
201202060915 METAR LMML 060915Z 32019KT 9999 BKN024 BKN250 09/04 Q1003
                        NOSIG=
201202060900 METAR LMML NIL=
201202060845 METAR LMML 060845Z 32016KT 9999 BKN023 SCT120 09/05 Q1003
                        NOSIG=
201202060830 METAR LMML NIL=
201202060815 METAR LMML 060815Z 33013KT 9999 BKN025 SCT120 09/05 Q1003
                        NOSIG=
201202060800 METAR LMML NIL=
201202060745 METAR LMML 060745Z 33018KT 9999 BKN025 SCT250 09/04 Q1003
                        NOSIG=
201202060730 METAR LMML NIL=
201202060715 METAR LMML 060715Z 31013KT 280V340 9999 SCT021 SCT041 08/06
                        Q1003 TEMPO 8000 RA BKN015=
201202060700 METAR LMML NIL=
201202060645 METAR LMML 060645Z VRB02KT 9999 -RA FEW009 BKN016 BKN027
                        07/05 Q1003 TEMPO 8000 RA BKN015=
201202060630 METAR LMML NIL=
201202060615 METAR LMML 060615Z 35007KT 320V030 9000 RA FEW009 BKN017
                        BKN025 07/05 Q1003 NOSIG=
201202060600 METAR LMML NIL=
201202060545 METAR LMML 060545Z 31010KT 9999 -RA SCT024 BKN033 07/05 Q1003
                        NOSIG=
201202060530 METAR LMML NIL=
201202060515 METAR LMML 060515Z 31010KT 7000 -RA FEW023 BKN033 07/05 Q1004
                        NOSIG=
201202060500 METAR LMML NIL=
201202060445 METAR LMML 060445Z 29006KT 270V340 9000 -RA FEW024 BKN034
                        07/05 Q1004 NOSIG=
201202060430 METAR LMML NIL=
201202060415 METAR LMML 060415Z 30010KT 9000 -RA FEW024 SCT034 BKN048
                        07/05 Q1004 NOSIG=
201202060400 METAR LMML NIL=
201202060345 METAR LMML 060345Z 30010KT 7000 -RA FEW024 BKN034 07/05 Q1005
                        NOSIG=
201202060315 METAR LMML 060315Z 29010KT 7000 -RA SCT024 BKN036 07/05 Q1005
                        NOSIG=
201202060300 METAR LMML NIL=
201202060245 METAR LMML 060245Z 29010KT 250V320 7000 -RA FEW018 BKN030
                        06/05 Q1006 RERA NOSIG=
201202060230 METAR LMML NIL=
201202060215 METAR LMML 060215Z 27008KT 240V300 9000 -RA FEW023 SCT035
                        BKN042 07/05 Q1006 RERA NOSIG=
201202060200 METAR LMML NIL=
201202060145 METAR LMML 060145Z 29011KT 5000 RA FEW023 SCT034 BKN044 06/04
                        Q1007 RERA NOSIG=
201202060130 METAR LMML NIL=
201202060115 METAR LMML 060115Z 24004KT 210V280 9999 -RA FEW028 SCT034
                        BKN050 07/06 Q1007 RERA NOSIG=
201202060100 METAR LMML NIL=
201202060045 METAR LMML 060045Z 20003KT 9999 FEW029 SCT036 BKN046 08/06
                        Q1008 RERA NOSIG=
201202060030 METAR LMML NIL=
201202060015 METAR LMML 060015Z 26004KT 230V300 9999 -RA FEW029 SCT035
                        BKN041 08/06 Q1008 NOSIG=
201202060000 METAR LMML NIL=
201202052345 METAR LMML 052345Z 27004KT 240V300 9999 -RA FEW026 SCT033
                        BKN043 07/05 Q1009 NOSIG=
201202052330 METAR LMML NIL=
201202052315 METAR LMML 052315Z 24003KT 9999 -RA FEW022 SCT031 BKN045
                        07/05 Q1009 NOSIG=
201202052300 METAR LMML NIL=
201202052245 METAR LMML 052245Z 24005KT 200V280 9000 -RA SCT026 BKN045
                        07/05 Q1010 NOSIG=
201202052230 METAR LMML NIL=
201202052215 METAR LMML 052215Z 24006KT 210V270 6000 SHRA SCT025 BKN060
                        07/05 Q1011 NOSIG=
201202052200 METAR LMML NIL=
201202052145 METAR LMML 052145Z 26007KT 220V290 4000 SHRA FEW011 SCT021
                        BKN060 07/05 Q1011 NOSIG=
201202052130 METAR LMML NIL=
201202052115 METAR LMML 052115Z 23003KT 9999 SCT019 SCT060 BKN070 09/05
                        Q1011 TEMPO 8000 SHRA BKN015=
201202052100 METAR LMML NIL=
201202052045 METAR LMML 052045Z VRB02KT 9999 FEW025 SCT048 BKN250 08/05
                        Q1011 TEMPO 8000 SHRA BKN015=
201202052030 METAR LMML NIL=
201202052015 METAR LMML 052015Z 24003KT 9999 FEW021 SCT120 BKN250 08/05
                        Q1011 TEMPO 8000 SHRA BKN015=
201202052000 METAR LMML NIL=
201202051945 METAR LMML 051945Z 22003KT 9999 FEW021 BKN250 08/05 Q1011
                        TEMPO 8000 SHRA BKN015=
201202051930 METAR LMML NIL=
201202051915 METAR LMML 051915Z VRB02KT 9999 FEW021 BKN250 08/05 Q1011
                        TEMPO 8000 SHRA BKN015=
201202051900 METAR LMML NIL=
201202051845 METAR LMML 051845Z VRB02KT 9999 -SHRA FEW022 SCT025 08/05
                        Q1011 TEMPO 8000 SHRA BKN015=
201202051830 METAR LMML NIL=
201202051815 METAR LMML 051815Z 24004KT 210V270 9999 FEW023 SCT250 08/04
                        Q1012 NOSIG=
201202051800 METAR LMML NIL=
201202051745 METAR LMML 051745Z 24007KT 200V280 9999 FEW021 SCT250 08/04
                        Q1012 NOSIG=
201202051730 METAR LMML NIL=
201202051715 METAR LMML 051715Z 24008KT 210V280 9999 FEW021 SCT250 09/05
                        Q1012 NOSIG=
201202051700 METAR LMML NIL=
201202051645 METAR LMML 051645Z 23009KT 210V270 9999 FEW029 SCT250 09/03
                        Q1012 NOSIG=
201202051630 METAR LMML NIL=
201202051615 METAR LMML 051615Z 23008KT 200V270 9999 FEW028 SCT250 10/04
                        Q1012 NOSIG=
201202051600 METAR LMML NIL=
201202051545 METAR LMML 051545Z 24008KT 200V280 9999 FEW026 10/04 Q1012
                        NOSIG=
201202051530 METAR LMML NIL=
201202051515 METAR LMML 051515Z 22008KT 190V260 9999 SCT027 11/04 Q1012
                        NOSIG=
201202051500 METAR LMML NIL=
201202051445 METAR LMML 051445Z 23010KT 190V280 9999 SCT030 BKN250 11/04
                        Q1012 NOSIG=
201202051430 METAR LMML NIL=
201202051415 METAR LMML 051415Z 22010KT 190V280 9999 SCT030 BKN250 11/04
                        Q1012 NOSIG=
201202051400 METAR LMML NIL=
201202051345 METAR LMML 051345Z 24009KT 200V280 9999 SCT030 SCT060 10/04
                        Q1013 NOSIG=
201202051330 METAR LMML NIL=
201202051315 METAR LMML 051315Z 24010KT 200V280 9999 FEW025 BKN060 10/04
                        Q1013 NOSIG=
201202051300 METAR LMML NIL=
201202051245 METAR LMML 051245Z 21009KT 160V260 9999 FEW028 SCT050 12/03
                        Q1013 NOSIG=
201202051230 METAR LMML NIL=
201202051215 METAR LMML 051215Z 21011KT 170V270 9999 SCT030 SCT250 12/03
                        Q1013 NOSIG=
201202051200 METAR LMML NIL=
201202051145 METAR LMML 051145Z 21009KT 170V260 9999 FEW020 SCT060 11/04
                        Q1014 NOSIG=
201202051130 METAR LMML NIL=
201202051115 METAR LMML 051115Z 19007KT 160V220 9999 -RA FEW019 BKN060
                        09/05 Q1015 NOSIG=
201202051100 METAR LMML NIL=
201202051045 METAR LMML 051045Z 23011KT 200V280 9999 -RA SCT034 BKN060
                        10/05 Q1015 NOSIG=
201202051030 METAR LMML NIL=
201202051015 METAR LMML 051015Z 19008KT 160V240 9999 FEW035 SCT060 12/04
                        Q1015 NOSIG=
201202051000 METAR LMML NIL=
201202050945 METAR LMML 050945Z 23009KT 180V280 9999 FEW035 11/04 Q1015
                        NOSIG=
201202050930 METAR LMML NIL=
201202050915 METAR LMML 050915Z 20006KT 140V280 9999 FEW040 12/04 Q1015
                        NOSIG=
201202050900 METAR LMML NIL=
201202050845 METAR LMML 050845Z 22009KT 180V270 9999 FEW040 SCT080 10/03
                        Q1016 NOSIG=
201202050830 METAR LMML NIL=
201202050815 METAR LMML 050815Z 22010KT 190V260 9999 FEW040 11/02 Q1016
                        NOSIG=
201202050800 METAR LMML NIL=
201202050745 METAR LMML 050745Z 22010KT 180V280 9999 FEW035 10/02 Q1016
                        NOSIG=
201202050730 METAR LMML NIL=
201202050715 METAR LMML 050715Z 22008KT 180V260 9999 FEW020 SCT070 09/02
                        Q1015 NOSIG=
201202050700 METAR LMML NIL=
201202050645 METAR LMML 050645Z 24004KT 200V260 9999 FEW020 SCT060 BKN080
                        08/05 Q1016 NOSIG=
201202050630 METAR LMML NIL=
201202050615 METAR LMML 050615Z 33005KT 9999 FEW027 BKN050 08/06 Q1015
                        NOSIG=
201202050600 METAR LMML NIL=
201202050545 METAR LMML 050545Z 24004KT 190V300 9999 SHRA BKN027 SCT040
                        08/06 Q1016 NOSIG=
201202050515 METAR LMML 050515Z VRB01KT 9999 SCT028 BKN045 07/06 Q1015
                        TEMPO RA=
201202050500 METAR LMML NIL=
201202050445 METAR LMML 050445Z 26003KT 9999 -RA SCT028 BKN080 08/05 Q1016
                        NOSIG=
201202050430 METAR LMML NIL=
201202050415 METAR LMML 050415Z 34004KT 300V020 9999 SCT026 SCT050 07/06
                        Q1015 NOSIG=
201202050400 METAR LMML NIL=
201202050345 METAR LMML 050345Z 00000KT 9999 -RA FEW029 BKN047 07/05 Q1015
                        NOSIG=
201202050330 METAR LMML NIL=
201202050315 METAR LMML 050315Z VRB02KT 9999 SCT030 06/04 Q1016 NOSIG=
201202050300 METAR LMML NIL=
201202050245 METAR LMML 050245Z VRB01KT 9999 SCT031 07/04 Q1016 NOSIG=
201202050230 METAR LMML NIL=
201202050215 METAR LMML 050215Z VRB02KT 9999 FEW025 BKN090 07/04 Q1016
                        NOSIG=
201202050200 METAR LMML NIL=
201202050145 METAR LMML 050145Z VRB01KT 9999 FEW025 BKN080 07/04 Q1016
                        NOSIG=
201202050115 METAR LMML 050115Z 00000KT 9999 FEW025 BKN080 08/05 Q1016
                        NOSIG=
201202050100 METAR LMML NIL=
201202050045 METAR LMML 050045Z VRB01KT 9999 FEW025 BKN070 08/05 Q1016
                        NOSIG=
201202050030 METAR LMML NIL=
201202050015 METAR LMML 050015Z VRB01KT 9999 FEW025 BKN070 08/05 Q1016
                        NOSIG=
201202050000 METAR LMML NIL=
201202042345 METAR LMML 042345Z VRB01KT 9999 FEW027 BKN070 08/05 Q1017
                        NOSIG=
201202042330 METAR LMML NIL=
201202042315 METAR LMML 042315Z 00000KT 9999 FEW030 BKN070 08/05 Q1017
                        NOSIG=
201202042300 METAR LMML NIL=
201202042245 METAR LMML 042245Z 00000KT 9999 FEW030 BKN070 08/05 Q1017
                        NOSIG=
201202042230 METAR LMML NIL=
201202042215 METAR LMML 042215Z VRB02KT 9999 FEW040 BKN070 08/04 Q1017
                        NOSIG=
201202042200 METAR LMML NIL=
201202042145 METAR LMML 042145Z VRB01KT 9999 FEW040 BKN080 08/04 Q1017
                        NOSIG=
201202042130 METAR LMML NIL=
201202042115 METAR LMML 042115Z VRB02KT 9999 FEW045 BKN070 08/04 Q1017
                        TEMPO RA=
201202042100 METAR LMML NIL=
201202042045 METAR LMML 042045Z VRB02KT 9999 FEW045 BKN080 08/04 Q1017
                        TEMPO RA=
201202042030 METAR LMML NIL=
201202042015 METAR LMML 042015Z 25003KT 9999 FEW030 BKN070 08/03 Q1017
                        TEMPO RA=
201202041945 METAR LMML 041945Z VRB01KT 9999 FEW030 BKN090 08/04 Q1017
                        TEMPO RA=
201202041930 METAR LMML NIL=
201202041915 METAR LMML 041915Z 28004KT 240V330 9999 FEW031 BKN070 08/05
                        Q1016 TEMPO RA=
201202041845 METAR LMML 041845Z 25004KT 9999 -RA SCT030 BKN070 08/05 Q1016
                        NOSIG=
201202041830 METAR LMML NIL=
201202041815 METAR LMML 041815Z 30003KT 9999 FEW020 SCT090 09/05 Q1016
                        TEMPO SHRA=
201202041800 METAR LMML NIL=
201202041745 METAR LMML 041745Z 30003KT 9999 FEW020 SCT080 09/05 Q1016
                        TEMPO SHRA=
201202041715 METAR LMML 041715Z 31005KT 9999 FEW020 SCT080 09/06 Q1016
                        TEMPO SHRA=
201202041700 METAR LMML NIL=
201202041645 METAR LMML 041645Z 30003KT 9999 FEW020 BKN080 10/05 Q1015
                        NOSIG=
201202041630 METAR LMML NIL=
201202041615 METAR LMML 041615Z 29003KT 9999 FEW020 BKN090 10/05 Q1015
                        NOSIG=
201202041600 METAR LMML NIL=
201202041545 METAR LMML 041545Z 27003KT 9999 FEW020 BKN100 10/05 Q1015
                        NOSIG=
201202041530 METAR LMML NIL=
201202041515 METAR LMML 041515Z 27004KT 220V300 9999 FEW020 BKN100 11/05
                        Q1015 NOSIG=
201202041500 METAR LMML NIL=
201202041445 METAR LMML 041445Z 25005KT 210V300 9999 FEW020 BKN100 11/04
                        Q1015 NOSIG=
201202041430 METAR LMML NIL=
201202041415 METAR LMML 041415Z 25006KT 210V280 9999 FEW020 BKN100 11/03
                        Q1015 NOSIG=
201202041400 METAR LMML NIL=
201202041345 METAR LMML 041345Z 24007KT 210V280 9999 FEW022 SCT100 12/03
                        Q1015 NOSIG=
201202041330 METAR LMML NIL=
201202041315 METAR LMML 041315Z 24006KT 190V290 9999 FEW022 SCT100 12/03
                        Q1015 NOSIG=
201202041300 METAR LMML NIL=
201202041245 METAR LMML 041245Z 25009KT 220V290 9999 FEW026 10/05 Q1015
                        TEMPO 8000 SHRA=
201202041230 METAR LMML NIL=
201202041215 METAR LMML 041215Z 23005KT 200V260 9999 -RA FEW022 SCT040
                        10/05 Q1015 TEMPO 8000 SHRA=
201202041200 METAR LMML NIL=
201202041145 METAR LMML 041145Z 29004KT 250V320 9999 -RA FEW020 SCT090
                        10/06 Q1015 TEMPO 8000 SHRA=
201202041130 METAR LMML NIL=
201202041115 METAR LMML 041115Z 32008KT 9999 SCT020 SCT050 10/05 Q1015
                        TEMPO 8000 SHRA=
201202041100 METAR LMML NIL=
201202041045 METAR LMML 041045Z 33010KT 310V010 9999 SCT026 SCT060 10/05
                        Q1016 TEMPO 8000 SHRA=
201202041030 METAR LMML NIL=
201202041015 METAR LMML 041015Z 30003KT 9999 SCT025 11/06 Q1015 TEMPO
                        8000 SHRA=
201202041000 METAR LMML NIL=
201202040945 METAR LMML 040945Z 31005KT 260V010 9999 FEW024 12/06 Q1015
                        TEMPO 8000 SHRA=
201202040930 METAR LMML NIL=
201202040915 METAR LMML 040915Z 33007KT 290V350 9999 FEW020 11/06 Q1015
                        TEMPO 8000 SHRA=
201202040900 METAR LMML NIL=
201202040845 METAR LMML 040845Z 32007KT 9999 FEW021 11/07 Q1015 TEMPO
                        8000 SHRA=
201202040830 METAR LMML NIL=
201202040815 METAR LMML 040815Z 32005KT 290V350 9999 SCT022 11/07 Q1014
                        TEMPO 8000 SHRA=
201202040745 METAR LMML 040745Z 29004KT 9999 SCT022 10/07 Q1014 TEMPO
                        8000 SHRA=
201202040730 METAR LMML NIL=
201202040715 METAR LMML 040715Z 29004KT 9999 FEW022 09/06 Q1014 TEMPO
                        8000 SHRA=
201202040700 METAR LMML NIL=
201202040645 METAR LMML 040645Z 32006KT 9999 FEW022 08/06 Q1013 TEMPO
                        8000 SHRA=
201202040630 METAR LMML NIL=
201202040615 METAR LMML 040615Z 30005KT 270V330 9999 FEW020 08/06 Q1013
                        TEMPO 8000 SHRA RMK CB TOP TO EAST=
201202040600 METAR LMML NIL=
201202040545 METAR LMML 040545Z 32007KT 290V350 9999 SCT021 08/06 Q1012
                        TEMPO 8000 SHRA=
201202040530 METAR LMML NIL=
201202040515 METAR LMML 040515Z 30004KT 9999 -SHRA FEW027 BKN039 08/06
                        Q1012 TEMPO 8000 SHRA=
201202040500 METAR LMML NIL=
201202040445 METAR LMML 040445Z 30008KT 9999 FEW026 SCT040 08/05 Q1011
                        TEMPO 8000 SHRA=
201202040430 METAR LMML NIL=
201202040415 METAR LMML 040415Z 29008G19KT 9999 -SHRA FEW024 SCT050 10/06
                        Q1011 TEMPO 8000 SHRA=
201202040400 METAR LMML NIL=
201202040345 METAR LMML 040345Z 29007KT 9999 FEW040 10/05 Q1011 TEMPO
                        8000 SHRA=
201202040330 METAR LMML NIL=
201202040315 METAR LMML 040315Z 29008KT 9999 FEW023 SCT040 10/06 Q1011
                        NOSIG=
201202040300 METAR LMML NIL=
201202040245 METAR LMML 040245Z 29011KT 9999 FEW022 SCT040 10/07 Q1010
                        NOSIG=
201202040230 METAR LMML NIL=
201202040215 METAR LMML 040215Z 28009KT 9999 FEW023 10/06 Q1010 NOSIG=
201202040200 METAR LMML NIL=
201202040145 METAR LMML 040145Z 26012KT 230V290 9999 FEW023 11/07 Q1010
                        NOSIG=
201202040130 METAR LMML NIL=
201202040115 METAR LMML 040115Z 27012KT 230V300 9999 FEW028 11/07 Q1010
                        NOSIG=
201202040100 METAR LMML NIL=
201202040045 METAR LMML 040045Z 25009KT 220V280 9999 FEW028 11/06 Q1010
                        NOSIG=
201202040030 METAR LMML NIL=
201202040015 METAR LMML 040015Z 27011KT 240V300 9999 FEW028 11/06 Q1009
                        NOSIG=
201202040000 METAR LMML NIL=
201202032345 METAR LMML 032345Z 27014KT 240V300 9999 FEW028 11/07 Q1009
                        NOSIG=
201202032330 METAR LMML NIL=
201202032315 METAR LMML 032315Z 24012KT 200V280 9999 FEW029 12/07 Q1009
                        TEMPO 8000 SHRA=
201202032300 METAR LMML NIL=
201202032245 METAR LMML 032245Z 23013KT 210V280 9999 FEW026 12/07 Q1009
                        TEMPO 8000 SHRA=
201202032230 METAR LMML NIL=
201202032215 METAR LMML 032215Z 23011KT 200V270 9999 FEW026 12/07 Q1009
                        NOSIG=
201202032200 METAR LMML NIL=
201202032145 METAR LMML 032145Z 23010KT 200V280 9999 FEW024 12/08 Q1009
                        NOSIG=
201202032130 METAR LMML NIL=
201202032115 METAR LMML 032115Z 23011KT 200V270 9999 FEW026 12/08 Q1008
                        NOSIG=
201202032100 METAR LMML NIL=
201202032045 METAR LMML 032045Z 23011KT 190V280 9999 FEW026 12/07 Q1009
                        NOSIG=
201202032030 METAR LMML NIL=
201202032015 METAR LMML 032015Z 22012KT 180V270 CAVOK 13/07 Q1008 NOSIG=
201202032000 METAR LMML NIL=
201202031945 METAR LMML 031945Z 22011KT 190V270 CAVOK 13/07 Q1008 NOSIG=
201202031930 METAR LMML NIL=
201202031915 METAR LMML 031915Z 21009KT 180V250 CAVOK 13/08 Q1008 NOSIG=
201202031900 METAR LMML NIL=
201202031845 METAR LMML 031845Z 22010KT 180V260 CAVOK 13/08 Q1007 NOSIG=
201202031830 METAR LMML NIL=
201202031815 METAR LMML 031815Z 22011KT 190V260 CAVOK 13/07 Q1007 NOSIG=
201202031800 METAR LMML NIL=
201202031745 METAR LMML 031745Z 21011KT 170V260 9999 FEW030 BKN090 13/08
                        Q1007 NOSIG=
201202031730 METAR LMML NIL=
201202031715 METAR LMML 031715Z 21009KT 170V250 9999 FEW030 BKN110 13/09
                        Q1007 NOSIG=
201202031700 METAR LMML NIL=
201202031645 METAR LMML 031645Z 20009KT 170V240 9999 FEW030 BKN100 13/09
                        Q1006 NOSIG=
201202031630 METAR LMML NIL=
201202031615 METAR LMML 031615Z 20010KT 160V240 9999 FEW030 BKN100 13/08
                        Q1006 NOSIG=
201202031600 METAR LMML NIL=
201202031545 METAR LMML 031545Z 19009KT 160V250 9999 FEW030 BKN110 14/08
                        Q1006 NOSIG=
201202031530 METAR LMML NIL=
201202031515 METAR LMML 031515Z 20009KT 180V260 9999 FEW030 BKN110 14/08
                        Q1006 NOSIG=
201202031500 METAR LMML NIL=
201202031445 METAR LMML 031445Z 21007KT 160V260 9999 FEW030 BKN120 14/09
                        Q1006 NOSIG=
201202031430 METAR LMML NIL=
201202031415 METAR LMML 031415Z 22013KT 200V260 9999 FEW030 BKN120 14/08
                        Q1006 NOSIG=
201202031400 METAR LMML NIL=
201202031345 METAR LMML 031345Z 21012KT 170V250 9999 FEW020 BKN120 15/09
                        Q1006 NOSIG=
201202031330 METAR LMML NIL=
201202031315 METAR LMML 031315Z 20013KT 160V230 CAVOK 16/09 Q1006 NOSIG=
201202031300 METAR LMML NIL=
201202031245 METAR LMML 031245Z 19013KT CAVOK 16/10 Q1006 NOSIG=
201202031230 METAR LMML NIL=
201202031215 METAR LMML 031215Z 18012KT 150V230 CAVOK 16/11 Q1006 NOSIG=
201202031200 METAR LMML NIL=
201202031145 METAR LMML 031145Z 17011KT 140V200 CAVOK 15/11 Q1006 NOSIG=
201202031130 METAR LMML NIL=
201202031115 METAR LMML 031115Z 17013KT 140V200 CAVOK 15/11 Q1006 NOSIG=
201202031100 METAR LMML NIL=
201202031045 METAR LMML 031045Z 17011KT 140V200 CAVOK 16/11 Q1007 NOSIG=
201202031030 METAR LMML NIL=
201202031015 METAR LMML 031015Z 17011KT 140V200 CAVOK 15/11 Q1007 NOSIG=
201202031000 METAR LMML NIL=
201202030945 METAR LMML 030945Z 17011KT 140V210 CAVOK 15/11 Q1008 NOSIG=
201202030930 METAR LMML NIL=
201202030915 METAR LMML 030915Z 17010KT 140V200 CAVOK 15/11 Q1007 NOSIG=
201202030845 METAR LMML 030845Z 17010KT 140V200 CAVOK 14/11 Q1008 NOSIG=
201202030830 METAR LMML NIL=
201202030815 METAR LMML 030815Z 17009KT 140V200 CAVOK 15/11 Q1008 NOSIG=
201202030745 METAR LMML 030745Z 17010KT 130V200 9999 FEW020 SCT120 14/11
                        Q1008 NOSIG=
201202030730 METAR LMML NIL=
201202030715 METAR LMML 030715Z 17010KT 140V200 9999 FEW020 BKN120 14/10
                        Q1008 NOSIG=
201202030645 METAR LMML 030645Z 17010KT CAVOK 13/10 Q1008 NOSIG=
201202030630 METAR LMML NIL=
201202030615 METAR LMML 030615Z 18010KT 150V210 CAVOK 13/10 Q1008 NOSIG=
201202030545 METAR LMML 030545Z 18010KT CAVOK 13/11 Q1008 NOSIG=
201202030530 METAR LMML NIL=
201202030515 METAR LMML 030515Z 19009KT 160V220 CAVOK 13/11 Q1008 NOSIG=
201202030500 METAR LMML NIL=
201202030445 METAR LMML 030445Z 18009KT 150V220 CAVOK 13/11 Q1008 NOSIG=
201202030430 METAR LMML NIL=
201202030415 METAR LMML 030415Z 17009KT 140V210 CAVOK 13/11 Q1008 NOSIG=
201202030400 METAR LMML NIL=
201202030345 METAR LMML 030345Z 18010KT CAVOK 13/11 Q1008 NOSIG=
201202030330 METAR LMML NIL=
201202030315 METAR LMML 030315Z 18011KT CAVOK 13/10 Q1009 NOSIG=
201202030300 METAR LMML NIL=
201202030245 METAR LMML 030245Z 18012KT CAVOK 13/11 Q1009 NOSIG=
201202030230 METAR LMML NIL=
201202030215 METAR LMML 030215Z 17011KT CAVOK 13/11 Q1009 NOSIG=
201202030200 METAR LMML NIL=
201202030145 METAR LMML 030145Z 18010KT 150V210 CAVOK 13/10 Q1010 NOSIG=
201202030130 METAR LMML NIL=
201202030115 METAR LMML 030115Z 17011KT 130V200 CAVOK 13/09 Q1010 NOSIG=
201202030100 METAR LMML NIL=
201202030045 METAR LMML 030045Z 17012KT 150V210 CAVOK 13/09 Q1010 NOSIG=
201202030030 METAR LMML NIL=
201202030015 METAR LMML 030015Z 18011KT 150V220 CAVOK 13/09 Q1011 NOSIG=
201202030000 METAR LMML NIL=
201202022345 METAR LMML 022345Z 18012KT 150V210 CAVOK 13/09 Q1011 NOSIG=
201202022330 METAR LMML NIL=
201202022315 METAR LMML 022315Z 18010KT 140V220 CAVOK 13/09 Q1011 NOSIG=
201202022300 METAR LMML NIL=
201202022245 METAR LMML 022245Z 18013KT 160V220 CAVOK 13/09 Q1011 NOSIG=
201202022230 METAR LMML NIL=
201202022215 METAR LMML 022215Z 19011KT 150V210 CAVOK 13/08 Q1011 NOSIG=
201202022200 METAR LMML NIL=
201202022145 METAR LMML 022145Z 19010KT 150V220 CAVOK 13/08 Q1011 NOSIG=
201202022130 METAR LMML NIL=
201202022115 METAR LMML 022115Z 19008KT 160V220 CAVOK 13/07 Q1011 NOSIG=
201202022100 METAR LMML NIL=
201202022045 METAR LMML 022045Z 19009KT 170V230 CAVOK 13/07 Q1011 NOSIG=
201202022030 METAR LMML NIL=
201202022015 METAR LMML 022015Z 20008KT 160V250 CAVOK 12/07 Q1011 NOSIG=
201202021945 METAR LMML 021945Z 20009KT 170V250 CAVOK 12/07 Q1011 NOSIG=
201202021930 METAR LMML NIL=
201202021915 METAR LMML 021915Z 20009KT 160V240 CAVOK 12/07 Q1011 NOSIG=
201202021900 METAR LMML NIL=
201202021845 METAR LMML 021845Z 20010KT 170V240 CAVOK 12/05 Q1011 NOSIG=
201202021830 METAR LMML NIL=
201202021815 METAR LMML 021815Z 20009KT 170V280 CAVOK 12/05 Q1011 NOSIG=
201202021800 METAR LMML NIL=
201202021745 METAR LMML 021745Z 20009KT 160V250 CAVOK 12/05 Q1011 NOSIG=
201202021730 METAR LMML NIL=
201202021715 METAR LMML 021715Z 20010KT 160V240 CAVOK 12/06 Q1011 NOSIG=
201202021700 METAR LMML NIL=
201202021645 METAR LMML 021645Z 20011KT 170V240 CAVOK 12/06 Q1011 NOSIG=
201202021630 METAR LMML NIL=
201202021615 METAR LMML 021615Z 20010KT 170V240 CAVOK 12/06 Q1011 NOSIG=
201202021600 METAR LMML NIL=
201202021545 METAR LMML 021545Z 20011KT 160V240 CAVOK 13/06 Q1011 NOSIG=
201202021530 METAR LMML NIL=
201202021515 METAR LMML 021515Z 20011KT 170V250 CAVOK 14/06 Q1011 NOSIG=
201202021500 METAR LMML NIL=
201202021445 METAR LMML 021445Z 21011KT 180V250 CAVOK 14/06 Q1011 NOSIG=
201202021430 METAR LMML NIL=
201202021415 METAR LMML 021415Z 20012KT 160V250 CAVOK 14/07 Q1011 NOSIG=
201202021400 METAR LMML NIL=
201202021345 METAR LMML 021345Z 21011KT 170V260 9999 FEW032 BKN250 14/07
                        Q1011 NOSIG=
201202021330 METAR LMML NIL=
201202021315 METAR LMML 021315Z 21011KT 160V270 9999 FEW032 BKN250 14/06
                        Q1011 NOSIG=
201202021300 METAR LMML NIL=
201202021245 METAR LMML 021245Z 21010KT 150V270 9999 FEW032 BKN250 14/06
                        Q1011 NOSIG=
201202021230 METAR LMML NIL=
201202021215 METAR LMML 021215Z 21011KT 150V260 CAVOK 15/07 Q1011 NOSIG=
201202021200 METAR LMML NIL=
201202021145 METAR LMML 021145Z 21011KT 170V250 9999 FEW032 BKN250 15/07
                        Q1012 NOSIG=
201202021130 METAR LMML NIL=
201202021115 METAR LMML 021115Z 21013KT 180V250 CAVOK 14/06 Q1012 NOSIG=
201202021100 METAR LMML NIL=
201202021045 METAR LMML 021045Z 21010KT 180V260 CAVOK 15/07 Q1012 NOSIG=
201202021030 METAR LMML NIL=
201202021015 METAR LMML 021015Z 22012KT 160V250 CAVOK 14/07 Q1012 NOSIG=
201202021000 METAR LMML NIL=
201202020945 METAR LMML 020945Z 21012KT 170V250 CAVOK 14/06 Q1013 NOSIG=
201202020930 METAR LMML NIL=
201202020915 METAR LMML 020915Z 22009KT 160V280 CAVOK 14/06 Q1012 NOSIG=
201202020845 METAR LMML 020845Z 22008KT 180V270 CAVOK 14/06 Q1012 NOSIG=
201202020830 METAR LMML NIL=
201202020815 METAR LMML 020815Z 22009KT 200V270 CAVOK 14/06 Q1012 NOSIG=
201202020800 METAR LMML NIL=
201202020745 METAR LMML 020745Z 22008KT 180V270 CAVOK 13/06 Q1012 NOSIG=
201202020730 METAR LMML NIL=
201202020715 METAR LMML 020715Z 22008KT 190V260 CAVOK 13/06 Q1012 NOSIG=
201202020700 METAR LMML NIL=
201202020645 METAR LMML 020645Z 22007KT 180V250 CAVOK 12/06 Q1012 NOSIG=
201202020630 METAR LMML NIL=
201202020615 METAR LMML 020615Z 23008KT 200V270 CAVOK 12/06 Q1012 NOSIG=
201202020600 METAR LMML NIL=
201202020545 METAR LMML 020545Z 23008KT 200V270 9999 FEW025 12/06 Q1012
                        NOSIG=
201202020530 METAR LMML NIL=
201202020515 METAR LMML 020515Z 23009KT 200V260 9999 FEW025 12/05 Q1011
                        NOSIG=
201202020500 METAR LMML NIL=
201202020445 METAR LMML 020445Z 22007KT 180V270 9999 FEW020 12/06 Q1012
                        NOSIG=
201202020430 METAR LMML NIL=
201202020415 METAR LMML 020415Z 22007KT 190V270 9999 FEW020 12/06 Q1012
                        NOSIG=
201202020400 METAR LMML NIL=
201202020345 METAR LMML 020345Z 21008KT 190V250 9999 FEW025 12/07 Q1012
                        NOSIG=
201202020330 METAR LMML NIL=
201202020315 METAR LMML 020315Z 21007KT 180V270 9999 FEW025 11/07 Q1012
                        NOSIG=
201202020300 METAR LMML NIL=
201202020245 METAR LMML 020245Z 21007KT 180V250 9999 FEW025 11/07 Q1012
                        NOSIG=
201202020230 METAR LMML NIL=
201202020215 METAR LMML 020215Z 22006KT 9999 FEW025 11/07 Q1012 NOSIG=
201202020200 METAR LMML NIL=
201202020145 METAR LMML 020145Z 22006KT 200V260 9999 FEW025 11/08 Q1012
                        NOSIG=
201202020130 METAR LMML NIL=
201202020115 METAR LMML 020115Z 23007KT 200V260 9999 FEW025 11/07 Q1013
                        NOSIG=
201202020100 METAR LMML NIL=
201202020045 METAR LMML 020045Z 22007KT 190V250 9999 FEW025 11/07 Q1013
                        NOSIG=
201202020030 METAR LMML NIL=
201202020015 METAR LMML 020015Z 23008KT 200V260 9999 FEW025 11/07 Q1013
                        NOSIG=
201202020000 METAR LMML NIL=
201202012345 METAR LMML 012345Z 22008KT 190V250 9999 FEW025 SCT080 11/07
                        Q1013 NOSIG=
201202012330 METAR LMML NIL=
201202012315 METAR LMML 012315Z 23009KT 200V260 9999 FEW025 BKN080 11/07
                        Q1013 NOSIG=
201202012300 METAR LMML NIL=
201202012245 METAR LMML 012245Z 23008KT 200V260 9999 FEW025 BKN080 11/07
                        Q1013 NOSIG=
201202012230 METAR LMML NIL=
201202012215 METAR LMML 012215Z 23007KT 210V270 9999 FEW025 OVC080 11/07
                        Q1013 NOSIG=
201202012200 METAR LMML NIL=
201202012145 METAR LMML 012145Z 24007KT 200V280 9999 FEW025 BKN080 11/07
                        Q1013 NOSIG=
201202012130 METAR LMML NIL=
201202012115 METAR LMML 012115Z 25007KT 210V300 9999 FEW025 BKN070 11/07
                        Q1014 NOSIG=
201202012100 METAR LMML NIL=
201202012045 METAR LMML 012045Z 25007KT 210V280 9999 FEW025 BKN070 11/07
                        Q1014 NOSIG=
201202012030 METAR LMML NIL=
201202012015 METAR LMML 012015Z 24007KT 210V280 9999 FEW025 SCT060 BKN070
                        11/07 Q1014 NOSIG=
201202012000 METAR LMML NIL=
201202011945 METAR LMML 011945Z 26007KT 220V290 9999 FEW025 SCT070 11/07
                        Q1014 NOSIG=
201202011930 METAR LMML NIL=
201202011915 METAR LMML 011915Z 26007KT 230V290 9999 FEW025 SCT060 11/07
                        Q1013 NOSIG=
201202011900 METAR LMML NIL=
201202011845 METAR LMML 011845Z 27007KT 9999 FEW026 11/07 Q1013 NOSIG=
201202011830 METAR LMML NIL=
201202011815 METAR LMML 011815Z 27006KT 9999 FEW026 11/07 Q1013 NOSIG=
201202011800 METAR LMML NIL=
201202011745 METAR LMML 011745Z 27006KT 230V300 9999 FEW027 11/06 Q1013
                        NOSIG=
201202011730 METAR LMML NIL=
201202011715 METAR LMML 011715Z 26006KT 230V290 9999 FEW028 11/06 Q1013
                        NOSIG=
201202011700 METAR LMML NIL=
201202011645 METAR LMML 011645Z 27007KT 240V300 9999 FEW025 11/06 Q1013
                        NOSIG=
201202011630 METAR LMML NIL=
201202011615 METAR LMML 011615Z 26010KT 220V290 9999 FEW025 12/06 Q1013
                        NOSIG=
201202011600 METAR LMML NIL=
201202011545 METAR LMML 011545Z 25012KT 220V280 9999 FEW025 12/07 Q1013
                        NOSIG=
201202011530 METAR LMML NIL=
201202011515 METAR LMML 011515Z 25010KT 200V280 9999 FEW025 13/07 Q1013
                        NOSIG=
201202011500 METAR LMML NIL=
201202011445 METAR LMML 011445Z 25013KT 210V280 9999 SCT024 13/07 Q1013
                        NOSIG=
201202011430 METAR LMML NIL=
201202011415 METAR LMML 011415Z 25015KT 210V300 9999 SCT025 14/07 Q1013
                        NOSIG=
201202011400 METAR LMML NIL=
201202011345 METAR LMML 011345Z 25015KT 200V290 9999 FEW026 14/08 Q1013
                        NOSIG=
201202011330 METAR LMML NIL=
201202011315 METAR LMML 011315Z 25017KT 210V290 9999 SCT028 14/07 Q1013
                        NOSIG=
201202011300 METAR LMML NIL=
201202011245 METAR LMML 011245Z 25016G26KT 200V320 9999 SCT027 14/08 Q1014
                        NOSIG=
201202011230 METAR LMML NIL=
201202011215 METAR LMML 011215Z 25015KT 210V290 9999 SCT026 14/08 Q1014
                        NOSIG=
201202011200 METAR LMML NIL=
201202011145 METAR LMML 011145Z 25014KT 210V310 9999 SCT025 14/08 Q1014
                        NOSIG=
201202011130 METAR LMML NIL=
201202011115 METAR LMML 011115Z 25016KT 220V290 9999 BKN022 BKN250 13/08
                        Q1014 NOSIG=
201202011100 METAR LMML NIL=
201202011045 METAR LMML 011045Z 24014KT 200V290 9999 SCT020 BKN250 13/09
                        Q1015 NOSIG=
201202011030 METAR LMML NIL=
201202011015 METAR LMML 011015Z 24014KT 210V280 9999 SCT020 SCT150 BKN250
                        13/09 Q1015 NOSIG=
201202010945 METAR LMML 010945Z 23012KT 200V270 9999 BKN020 BKN150 13/09
                        Q1015 NOSIG=
201202010930 METAR LMML NIL=
201202010915 METAR LMML 010915Z 24011KT 200V280 9999 SCT019 OVC110 13/09
                        Q1016 NOSIG=
201202010900 METAR LMML NIL=
201202010845 METAR LMML 010845Z 23010KT 190V270 9999 SCT018 OVC110 12/09
                        Q1016 NOSIG=
201202010830 METAR LMML NIL=
201202010815 METAR LMML 010815Z 23010KT 190V270 9999 SCT019 OVC120 12/09
                        Q1016 NOSIG=
201202010800 METAR LMML NIL=
201202010745 METAR LMML 010745Z 24010KT 200V270 9999 SCT019 OVC120 12/08
                        Q1016 NOSIG=
201202010730 METAR LMML NIL=
201202010715 METAR LMML 010715Z 23010KT 200V280 9999 SCT022 BKN120 12/08
                        Q1015 NOSIG=
201202010700 METAR LMML NIL=
201202010645 METAR LMML 010645Z 23009KT 190V260 9999 SCT018 BKN120 11/08
                        Q1015 NOSIG=
201202010630 METAR LMML NIL=
201202010615 METAR LMML 010615Z 22009KT 190V260 9999 SCT016 BKN120 11/09
                        Q1016 NOSIG=
201202010545 METAR LMML 010545Z 21009KT 180V250 9999 SCT025 BKN070 11/08
                        Q1016 NOSIG=
201202010515 METAR LMML 010515Z 22010KT 190V270 9999 SCT017 BKN070 11/08
                        Q1016 NOSIG=
201202010500 METAR LMML NIL=
201202010445 METAR LMML 010445Z 22009KT 190V260 9999 SCT015 BKN060 11/08
                        Q1016 NOSIG=
201202010415 METAR LMML 010415Z 22010KT 180V270 9999 SCT015 BKN045 11/08
                        Q1016 NOSIG=
201202010345 METAR LMML 010345Z 22011KT 190V250 9999 SCT016 BKN060 11/08
                        Q1016 NOSIG=
201202010315 METAR LMML 010315Z 22011KT 180V270 9999 SCT014 BKN041 11/09
                        Q1016 NOSIG=
201202010300 METAR LMML NIL=
201202010245 METAR LMML 010245Z 22010KT 180V260 9999 SHRA SCT013 BKN039
                        10/08 Q1017 NOSIG=
201202010230 METAR LMML NIL=
201202010215 METAR LMML 010215Z 22013KT 180V260 9999 SCT012 BKN042 10/08
                        Q1017 NOSIG=
201202010200 METAR LMML NIL=
201202010145 METAR LMML 010145Z 22010KT 180V260 9999 FEW014 BKN050 11/09
                        Q1017 RETSRA NOSIG=
201202010130 METAR LMML NIL=
201202010115 METAR LMML 010115Z 23010KT 200V260 9000 -RA FEW012 BKN050
                        10/09 Q1017 RETSRA NOSIG=
201202010100 METAR LMML NIL=
201202010045 METAR LMML 010045Z 27004KT 200V300 9000 TSRA FEW010 SCT019CB
                        BKN033 09/08 Q1018 NOSIG=
201202010015 METAR LMML 010015Z 19005KT 160V230 9000 TSRA SCT020CB BKN030
                        11/09 Q1018 NOSIG=
201202010000 METAR LMML NIL=
