##########################################################
# Query made at 01/18/2013 15:33:57 UTC
# Time interval: from 01/01/2011 00:00  to 01/31/2011 23:59  UTC
##########################################################

##########################################################
# LMML, Luqa (Malta)
# WMO index: 16597
# Latitude 35-51N. Longitude 014-29E. Altitude 91 m.
##########################################################

###################################
#  METAR/SPECI from LMML
###################################
201101312330 METAR LMML NIL=
201101312315 METAR LMML 312315Z 12009KT 9999 -RA SCT008 BKN060 14/14 Q1011
                        TEMPO 3000 TSRA BKN005 BKN015CB=
201101312300 METAR LMML NIL=
201101312245 METAR LMML 312245Z 10009KT 9999 -RA SCT008 BKN058 14/14 Q1011
                        TEMPO 9000 BKN005=
201101312230 METAR LMML NIL=
201101312215 METAR LMML 312215Z 11010KT 9999 -RA BKN006 BKN062 14/14 Q1011
                        TEMPO 9000 BKN005=
201101312200 METAR LMML NIL=
201101312145 METAR LMML 312145Z 11009KT 9999 BKN007 BKN060 14/14 Q1011
                        TEMPO 9000 BKN005=
201101312130 METAR LMML NIL=
201101312115 METAR LMML 312115Z 10010KT 9999 -RA BKN007 BKN070 14/14 Q1012
                        TEMPO 9000 BKN005=
201101312100 METAR LMML NIL=
201101312045 METAR LMML 312045Z 10008KT 070V140 9999 SCT007 SCT012 BKN020
                        14/13 Q1012 TEMPO 9000 BKN005=
201101312030 METAR LMML NIL=
201101312015 METAR LMML 312015Z 10008KT 9999 BKN006 SCT016 BKN060 13/13
                        Q1012 TEMPO 9000 BKN005=
201101312000 METAR LMML NIL=
201101311945 METAR LMML 311945Z 09009KT 060V120 9000 BKN007 BKN080 13/13
                        Q1012 TEMPO BKN005=
201101311930 METAR LMML NIL=
201101311915 METAR LMML 311915Z 09011KT 060V120 9000 -RA BKN008 BKN080
                        13/13 Q1012 NOSIG=
201101311900 METAR LMML NIL=
201101311845 METAR LMML 311845Z 09010KT 060V120 9000 -RA BKN009 BKN080
                        13/13 Q1012 NOSIG=
201101311830 METAR LMML NIL=
201101311815 METAR LMML 311815Z 09009KT 9999 -RA BKN010 BKN080 14/13 Q1012
                        BECMG 9000=
201101311800 METAR LMML NIL=
201101311745 METAR LMML 311745Z 08007KT 050V120 9999 BKN011 BKN080 13/12
                        Q1012 BECMG BKN010=
201101311730 METAR LMML NIL=
201101311715 METAR LMML 311715Z 08007KT 050V110 9999 BKN012 BKN080 13/12
                        Q1012 NOSIG=
201101311700 METAR LMML NIL=
201101311645 METAR LMML 311645Z 08008KT 050V110 9999 BKN012 BKN120 13/12
                        Q1012 NOSIG=
201101311630 METAR LMML NIL=
201101311615 METAR LMML 311615Z 07007KT 040V100 9999 SCT012 BKN120 14/12
                        Q1012 NOSIG=
201101311600 METAR LMML NIL=
201101311545 METAR LMML 311545Z 07008KT 040V100 9999 SCT012 BKN120 14/12
                        Q1012 NOSIG=
201101311530 METAR LMML NIL=
201101311515 METAR LMML 311515Z 08009KT 9999 SCT013 BKN100 14/12 Q1012
                        NOSIG=
201101311500 METAR LMML NIL=
201101311445 METAR LMML 311445Z 07007KT 030V090 9999 SCT012 BKN100 14/12
                        Q1012 NOSIG=
201101311430 METAR LMML NIL=
201101311415 METAR LMML 311415Z 07008KT 040V100 9999 SCT013 BKN100 14/12
                        Q1013 NOSIG=
201101311400 METAR LMML NIL=
201101311345 METAR LMML 311345Z 08009KT 050V110 9999 SCT013 SCT100 14/12
                        Q1013 NOSIG=
201101311330 METAR LMML NIL=
201101311315 METAR LMML 311315Z 08009KT 050V110 9999 SCT013 SCT100 15/12
                        Q1012 NOSIG=
201101311300 METAR LMML NIL=
201101311245 METAR LMML 311245Z 08008KT 9999 SCT012 SCT100 15/12 Q1012
                        NOSIG=
201101311230 METAR LMML NIL=
201101311215 METAR LMML 311215Z 08008KT 040V100 9999 SCT012 SCT120 15/12
                        Q1013 NOSIG=
201101311200 METAR LMML NIL=
201101311145 METAR LMML 311145Z 08009KT 9999 FEW015 SCT021 15/12 Q1013
                        NOSIG=
201101311115 METAR LMML 311115Z 10009KT 9999 BKN011 SCT120 15/12 Q1014
                        NOSIG=
201101311100 METAR LMML NIL=
201101311045 METAR LMML 311045Z 10009KT 9999 SCT011 BKN120 15/12 Q1014
                        BECMG BKN011=
201101311030 METAR LMML NIL=
201101311015 METAR LMML 311015Z 10009KT 060V130 9999 SCT010 SCT100 15/13
                        Q1014 BECMG BKN011=
201101311000 METAR LMML NIL=
201101310945 METAR LMML 310945Z 07010KT 050V110 9999 SCT011 SCT120 14/12
                        Q1014 NOSIG=
201101310915 METAR LMML 310915Z 08010KT 050V110 9999 SCT011 SCT120 14/12
                        Q1013 NOSIG=
201101310900 METAR LMML NIL=
201101310845 METAR LMML 310845Z 08009KT 010V120 9999 FEW011 BKN120 15/12
                        Q1014 NOSIG=
201101310830 METAR LMML NIL=
201101310815 METAR LMML 310815Z 07008KT 040V100 9999 FEW011 BKN120 14/12
                        Q1013 NOSIG=
201101310800 METAR LMML NIL=
201101310745 METAR LMML 310745Z 06006KT 030V090 9999 FEW011 BKN120 13/12
                        Q1013 NOSIG=
201101310730 METAR LMML NIL=
201101310715 METAR LMML 310715Z 05005KT 010V100 9999 FEW012 BKN120 13/11
                        Q1014 NOSIG=
201101310700 METAR LMML NIL=
201101310645 METAR LMML 310645Z 04005KT 020V080 9999 FEW012 BKN120 12/11
                        Q1013 NOSIG=
201101310630 METAR LMML NIL=
201101310615 METAR LMML 310615Z 05005KT 020V090 9999 FEW012 BKN120 12/11
                        Q1013 NOSIG=
201101310545 METAR LMML 310545Z 06006KT 030V090 9999 FEW012 BKN120 12/11
                        Q1013 TEMPO 6000 BKN005=
201101310530 METAR LMML NIL=
201101310515 METAR LMML 310515Z 06004KT 030V090 9999 FEW009 BKN120 12/11
                        Q1013 TEMPO 6000 BKN005=
201101310500 METAR LMML NIL=
201101310445 METAR LMML 310445Z 05006KT 020V080 9000 SCT009 SCT120 12/11
                        Q1013 TEMPO 6000 BKN005=
201101310430 METAR LMML NIL=
201101310415 METAR LMML 310415Z 05006KT 020V090 9000 SCT008 SCT120 12/12
                        Q1013 TEMPO 6000 BKN005=
201101310400 METAR LMML NIL=
201101310345 METAR LMML 310345Z 04006KT 010V080 9999 SCT008 BKN120 12/12
                        Q1013 TEMPO 6000 BKN005=
201101310330 METAR LMML NIL=
201101310315 METAR LMML 310315Z 04007KT 360V070 9999 SCT009 BKN120 13/12
                        Q1013 TEMPO 6000 BKN005=
201101310300 METAR LMML NIL=
201101310245 METAR LMML 310245Z 03006KT 360V070 9999 SCT009 BKN120 13/12
                        Q1013 TEMPO 6000 BKN005=
201101310230 METAR LMML NIL=
201101310215 METAR LMML 310215Z 01004KT 9999 FEW009 SCT120 12/12 Q1013
                        TEMPO 6000 BKN005=
201101310145 METAR LMML 310145Z 35004KT 9999 FEW009 SCT070 BKN120 12/12
                        Q1013 TEMPO 6000 BKN005=
201101310130 METAR LMML NIL=
201101310115 METAR LMML 310115Z VRB02KT 9999 SCT007 SCT070 BKN120 12/12
                        Q1013 TEMPO 6000 BKN005=
201101310045 METAR LMML 310045Z VRB02KT 9999 FEW010 BKN120 12/12 Q1013
                        TEMPO 6000 BKN005=
201101310015 METAR LMML 310015Z 01003KT 9000 FEW010 SCT070 BKN120 12/12
                        Q1013 TEMPO 6000 BKN005=
201101310000 METAR LMML NIL=
201101302345 METAR LMML 302345Z 02003KT 9000 FEW011 BKN120 12/12 Q1013
                        TEMPO 6000 BKN005=
201101302330 METAR LMML NIL=
201101302315 METAR LMML 302315Z 04004KT 010V100 9000 FEW011 SCT080 BKN120
                        13/12 Q1013 TEMPO 6000 BKN005=
201101302300 METAR LMML NIL=
201101302245 METAR LMML 302245Z 04004KT 9000 FEW011 BKN080 13/12 Q1013
                        TEMPO 6000 BKN005=
201101302230 METAR LMML NIL=
201101302215 METAR LMML 302215Z 08004KT 040V100 9000 FEW012 BKN080 13/12
                        Q1013 TEMPO 6000 BKN005=
201101302200 METAR LMML NIL=
201101302145 METAR LMML 302145Z 02003KT 9000 FEW009 SCT012 BKN090 13/12
                        Q1013 TEMPO 6000 BKN006=
201101302130 METAR LMML NIL=
201101302115 METAR LMML 302115Z 36005KT 9000 FEW009 SCT011 BKN100 13/12
                        Q1013 TEMPO 6000 BKN006=
201101302100 METAR LMML NIL=
201101302045 METAR LMML 302045Z 01005KT 9000 SCT007 BKN080 13/13 Q1013
                        TEMPO 6000 BKN006=
201101302030 METAR LMML NIL=
201101302015 METAR LMML 302015Z 03005KT 360V070 7000 BKN008 OVC080 14/13
                        Q1013 TEMPO 5000 BKN005=
201101302000 METAR LMML NIL=
201101301945 METAR LMML 301945Z VRB02KT 7000 -RA BKN006 OVC080 14/14 Q1013
                        TEMPO 5000 BKN005=
201101301930 METAR LMML NIL=
201101301915 METAR LMML 301915Z 36003KT 7000 BKN006 OVC080 14/13 Q1013
                        TEMPO 5000 BKN005=
201101301900 METAR LMML NIL=
201101301845 METAR LMML 301845Z 01005KT 7000 FEW009 OVC080 14/13 Q1012
                        NOSIG=
201101301830 METAR LMML NIL=
201101301815 METAR LMML 301815Z 36006KT 7000 -RA FEW009 SCT037 BKN070
                        14/14 Q1012 NOSIG=
201101301800 METAR LMML NIL=
201101301745 METAR LMML 301745Z VRB02KT 9000 -RA FEW010 SCT035 BKN080
                        14/14 Q1012 NOSIG=
201101301730 METAR LMML NIL=
201101301715 METAR LMML 301715Z 02003KT 9000 FEW007 SCT035 BKN080 14/14
                        Q1012 NOSIG=
201101301700 METAR LMML NIL=
201101301645 METAR LMML 301645Z VRB02KT 9000 FEW006 SCT038 BKN090 14/13
                        Q1012 NOSIG=
201101301630 METAR LMML NIL=
201101301615 METAR LMML 301615Z 06003KT 9000 -RA SCT006 SCT034 BKN100
                        14/13 Q1011 TEMPO BKN005=
201101301545 METAR LMML 301545Z 08003KT 9999 SCT007 BKN110 14/13 Q1011
                        TEMPO 9000 BKN005=
201101301530 METAR LMML NIL=
201101301515 METAR LMML 301515Z 06005KT 030V100 9999 SCT007 BKN120 15/13
                        Q1011 TEMPO 9000 BKN005=
201101301500 METAR LMML NIL=
201101301445 METAR LMML 301445Z 06005KT 9999 FEW007 BKN120 15/13 Q1011
                        NOSIG=
201101301430 METAR LMML NIL=
201101301415 METAR LMML 301415Z 08005KT 010V120 9999 FEW008 BKN130 15/13
                        Q1011 NOSIG=
201101301400 METAR LMML NIL=
201101301345 METAR LMML 301345Z 08005KT 040V110 9999 FEW008 SCT120 15/13
                        Q1011 NOSIG=
201101301330 METAR LMML NIL=
201101301315 METAR LMML 301315Z 06006KT 030V090 9999 SCT008 16/13 Q1011
                        NOSIG=
201101301300 METAR LMML NIL=
201101301245 METAR LMML 301245Z 10006KT 070V130 9999 SCT009 SCT250 15/13
                        Q1011 NOSIG=
201101301230 METAR LMML NIL=
201101301215 METAR LMML 301215Z 09007KT 9999 BKN005 15/14 Q1012 NOSIG=
201101301200 METAR LMML NIL=
201101301145 METAR LMML 301145Z 07008KT 040V100 9999 BKN009 16/14 Q1012
                        TEMPO SCT009=
201101301130 METAR LMML NIL=
201101301115 METAR LMML 301115Z 10006KT 9000 BKN006 SCT110 15/14 Q1013
                        TEMPO 9999 SCT007=
201101301100 METAR LMML NIL=
201101301045 METAR LMML 301045Z 09007KT 9000 BKN006 BKN110 15/15 Q1013
                        TEMPO 9999 SCT007=
201101301030 METAR LMML NIL=
201101301015 METAR LMML 301015Z 07006KT 030V110 9000 BKN006 BKN110 15/15
                        Q1013 NOSIG=
201101301000 METAR LMML NIL=
201101300945 METAR LMML 300945Z 08007KT 6000 BKN004 BKN110 14/14 Q1014
                        BECMG 8000 BKN006=
201101300930 METAR LMML NIL=
201101300915 METAR LMML 300915Z 08006KT 050V110 4000 BR SCT002 BKN110
                        14/14 Q1014 BECMG 6000=
201101300900 METAR LMML NIL=
201101300845 METAR LMML 300845Z 04003KT 3500 BR BKN002 14/14 Q1014 BECMG
                        5000 BR BKN005=
201101300830 METAR LMML NIL=
201101300815 METAR LMML 300815Z 06003KT 1200 R13/P1500N BR SCT001 BKN120
                        14/14 Q1014 BECMG 2000 BR=
201101300800 METAR LMML NIL=
201101300745 METAR LMML 300745Z VRB02KT 0600 R13/1400D FG BKN002 BKN120
                        12/12 Q1014 BECMG 1000 BR BKN003=
201101300730 METAR LMML NIL=
201101300715 METAR COR LMML 300715Z VRB02KT 0350 R13/0550D FG BKN001 12/12
                        Q1014 BECMG 0600 FG BKN003=
201101300700 METAR LMML NIL=
201101300645 METAR LMML 300645Z VRB02KT 0100 R13/0175N FG BKN001 10/10
                        Q1013 NOSIG=
201101300630 METAR LMML NIL=
201101300615 METAR LMML 300615Z VRB01KT 0100 R13/0300N FG BKN001 SCT120
                        09/09 Q1013 NOSIG=
201101300600 METAR LMML NIL=
201101300545 METAR LMML 300545Z VRB01KT 0100 R13/0238V0319N FG BKN001
                        SCT120 09/09 Q1013 NOSIG=
201101300530 METAR LMML NIL=
201101300515 METAR LMML 300515Z VRB02KT 0100 R13/0330V0505N FG OVC001
                        09/09 Q1013 NOSIG=
201101300500 METAR LMML NIL=
201101300445 METAR LMML 300445Z VRB01KT 0200 R13/0700N FG BKN001 09/09
                        Q1012 TEMPO 0100 FG BKN001=
201101300430 METAR LMML NIL=
201101300415 METAR LMML 300415Z VRB02KT 0300 R13/0475V0694N FG SCT001
                        08/08 Q1012 TEMPO 100 FG BKN001=
201101300400 METAR LMML NIL=
201101300345 METAR LMML 300345Z VRB01KT 0100 R13/0200N FG BKN001 09/09
                        Q1013 NOSIG=
201101300330 METAR LMML NIL=
201101300315 METAR LMML 300315Z VRB02KT 0100 R13/0300N FG FEW001 10/09
                        Q1013 NOSIG=
201101300300 METAR LMML NIL=
201101300245 METAR LMML 300245Z VRB01KT 5000 0700SE R13/0600D BCFG FEW001
                        10/10 Q1013 NOSIG=
201101300231 SPECI LMML 300231Z VRB02KT 0100 R13/0826VP1500D FG FEW001
                        11/11 Q1013 NOSIG=
201101300230 METAR LMML NIL=
201101300215 METAR LMML 300215Z 11003KT 6000 0700W R13/0741V1024U BCFG
                        FEW001 11/11 Q1013 TEMPO 0500 BCFG=
201101300200 METAR LMML NIL=
201101300145 METAR LMML 300145Z 13003KT 9999 FEW012 10/10 Q1013 TEMPO
                        5000 BR SCT005=
201101300130 METAR LMML NIL=
201101300115 METAR LMML 300115Z 18003KT 9999 FEW015 11/11 Q1013 TEMPO
                        0800 BCFG BKN001=
201101300100 METAR LMML NIL=
201101300045 METAR LMML 300045Z VRB02KT 9999 FEW015 10/10 Q1014 TEMPO
                        0800 BCFG BKN001=
201101300030 METAR LMML NIL=
201101300015 METAR LMML 300015Z VRB02KT 6000 MIFG FEW017 10/10 Q1014 TEMPO
                        0800 BCFG BKN001=
201101300000 METAR LMML NIL=
201101292345 METAR LMML 292345Z 15003KT 5000 0900SW R13/1064VP1500U BCFG
                        SCT001 11/11 Q1014 TEMPO 0500 FG
                        BKN001=
201101292330 METAR LMML NIL=
201101292315 METAR LMML 292315Z VRB01KT 5000 0600SW R13/0325N BCFG FEW001
                        10/10 Q1014 TEMPO 0500 FG BKN001=
201101292300 METAR LMML NIL=
201101292245 METAR LMML 292245Z VRB01KT 5000 0800NW R13/0356V0538D BCFG
                        FEW001 10/09 Q1014 TEMPO 0500 FG
                        BKN001=
201101292230 METAR LMML NIL=
201101292215 METAR LMML 292215Z VRB01KT 0800 R13/0450N BCFG FEW001 10/10
                        Q1014 TEMPO 0500 FG BKN001=
201101292200 METAR LMML NIL=
201101292145 METAR LMML 292145Z 00000KT 5000 R13/0327V0557D MIFG FEW005
                        10/10 Q1014 TEMPO 0800 FG BKN001=
201101292130 METAR LMML NIL=
201101292115 METAR LMML 292115Z VRB01KT 9000 FEW009 12/12 Q1014 NOSIG=
201101292100 METAR LMML NIL=
201101292045 METAR LMML 292045Z 18003KT 9000 FEW008 12/12 Q1014 NOSIG=
201101292030 METAR LMML NIL=
201101292015 METAR LMML 292015Z VRB02KT 9000 SCT008 13/13 Q1014 NOSIG=
201101292000 METAR LMML NIL=
201101291945 METAR LMML 291945Z VRB01KT 9000 SCT007 13/13 Q1014 NOSIG=
201101291930 METAR LMML NIL=
201101291915 METAR LMML 291915Z 00000KT 9000 SCT006 13/12 Q1014 NOSIG=
201101291900 METAR LMML NIL=
201101291845 METAR LMML 291845Z VRB02KT 9000 FEW008 13/13 Q1014 NOSIG=
201101291830 METAR LMML NIL=
201101291815 METAR LMML 291815Z 20003KT 9000 FEW010 13/13 Q1014 NOSIG=
201101291800 METAR LMML NIL=
201101291745 METAR LMML 291745Z 19003KT 9000 FEW007 13/13 Q1014 NOSIG=
201101291730 METAR LMML NIL=
201101291715 METAR LMML 291715Z 20003KT 9999 FEW007 14/13 Q1014 NOSIG=
201101291700 METAR LMML NIL=
201101291645 METAR LMML 291645Z VRB02KT 9999 FEW007 14/13 Q1014 NOSIG=
201101291630 METAR LMML NIL=
201101291615 METAR LMML 291615Z 21003KT 9999 FEW012 15/13 Q1014 NOSIG=
201101291600 METAR LMML NIL=
201101291545 METAR LMML 291545Z 22006KT 9999 FEW012 15/13 Q1014 NOSIG=
201101291530 METAR LMML NIL=
201101291515 METAR LMML 291515Z 23006KT 190V270 9999 FEW012 16/13 Q1014
                        NOSIG=
201101291500 METAR LMML NIL=
201101291445 METAR LMML 291445Z 22008KT 190V260 9999 FEW012 16/13 Q1014
                        NOSIG=
201101291430 METAR LMML NIL=
201101291415 METAR LMML 291415Z 22007KT 180V270 9999 FEW013 16/13 Q1013
                        NOSIG=
201101291400 METAR LMML NIL=
201101291345 METAR LMML 291345Z 22006KT 190V270 9999 FEW014 17/13 Q1013
                        NOSIG=
201101291330 METAR LMML NIL=
201101291315 METAR LMML 291315Z 22011KT 190V260 9999 FEW013 16/13 Q1013
                        NOSIG=
201101291300 METAR LMML NIL=
201101291245 METAR LMML 291245Z 21008KT 160V270 9999 FEW025 17/13 Q1014
                        NOSIG=
201101291215 METAR LMML 291215Z 21007KT 150V260 9999 FEW025 17/13 Q1014
                        NOSIG=
201101291200 METAR LMML NIL=
201101291145 METAR LMML 291145Z 21010KT 180V260 9999 FEW020 16/13 Q1014
                        NOSIG=
201101291130 METAR LMML NIL=
201101291115 METAR LMML 291115Z 21009KT 160V240 9999 FEW020 16/12 Q1015
                        NOSIG=
201101291100 METAR LMML NIL=
201101291045 METAR LMML 291045Z 21009KT 170V270 9999 FEW020 16/12 Q1015
                        NOSIG=
201101291030 METAR LMML NIL=
201101291015 METAR LMML 291015Z 22008KT 180V260 9999 FEW020 16/12 Q1015
                        NOSIG=
201101290945 METAR LMML 290945Z 22007KT 190V270 9999 FEW020 16/12 Q1016
                        NOSIG=
201101290930 METAR LMML NIL=
201101290915 METAR LMML 290915Z 22009KT 190V270 9999 FEW025 15/11 Q1015
                        NOSIG=
201101290900 METAR LMML NIL=
201101290845 METAR LMML 290845Z 22008KT 190V270 9999 FEW025 15/12 Q1015
                        NOSIG=
201101290830 METAR LMML NIL=
201101290815 METAR LMML 290815Z 22008KT 190V270 9999 FEW025 15/12 Q1015
                        NOSIG=
201101290800 METAR LMML NIL=
201101290745 METAR LMML 290745Z 22008KT 200V270 9999 FEW025 14/11 Q1015
                        NOSIG=
201101290730 METAR LMML NIL=
201101290715 METAR LMML 290715Z 22007KT 190V250 9999 FEW025 13/11 Q1015
                        NOSIG=
201101290700 METAR LMML NIL=
201101290645 METAR LMML 290645Z 23005KT 200V260 9999 FEW020 12/10 Q1015
                        NOSIG=
201101290630 METAR LMML NIL=
201101290615 METAR LMML 290615Z 23005KT 9999 FEW020 11/10 Q1014 NOSIG=
201101290600 METAR LMML NIL=
201101290545 METAR LMML 290545Z 23004KT 9999 FEW045 11/10 Q1014 NOSIG=
201101290530 METAR LMML NIL=
201101290515 METAR LMML 290515Z 24004KT 9999 FEW045 10/09 Q1014 NOSIG=
201101290500 METAR LMML NIL=
201101290445 METAR LMML 290445Z 26004KT 9999 FEW045 11/10 Q1014 NOSIG=
201101290430 METAR LMML NIL=
201101290415 METAR LMML 290415Z 24004KT CAVOK 11/10 Q1014 NOSIG=
201101290400 METAR LMML NIL=
201101290345 METAR LMML 290345Z 24006KT 210V270 CAVOK 11/09 Q1014 NOSIG=
201101290330 METAR LMML NIL=
201101290315 METAR LMML 290315Z 24005KT CAVOK 11/09 Q1014 NOSIG=
201101290300 METAR LMML NIL=
201101290245 METAR LMML 290245Z 26005KT CAVOK 10/09 Q1014 NOSIG=
201101290230 METAR LMML NIL=
201101290215 METAR LMML 290215Z 24006KT 200V290 CAVOK 10/09 Q1014 NOSIG=
201101290200 METAR LMML NIL=
201101290145 METAR LMML 290145Z 30005KT CAVOK 11/08 Q1014 NOSIG=
201101290130 METAR LMML NIL=
201101290115 METAR LMML 290115Z 28006KT 250V310 CAVOK 11/08 Q1014 NOSIG=
201101290045 METAR LMML 290045Z 29007KT CAVOK 11/08 Q1014 NOSIG=
201101290030 METAR LMML NIL=
201101290015 METAR LMML 290015Z 29006KT 250V310 CAVOK 11/09 Q1014 NOSIG=
201101290000 METAR LMML NIL=
201101282345 METAR LMML 282345Z 28006KT CAVOK 11/09 Q1014 NOSIG=
201101282330 METAR LMML NIL=
201101282315 METAR LMML 282315Z 26006KT CAVOK 11/09 Q1014 NOSIG=
201101282300 METAR LMML NIL=
201101282245 METAR LMML 282245Z 28005KT 9999 FEW020 11/09 Q1014 NOSIG=
201101282215 METAR LMML 282215Z 29005KT 9999 FEW020 12/09 Q1014 NOSIG=
201101282200 METAR LMML NIL=
201101282145 METAR LMML 282145Z 29005KT 9999 FEW020 11/09 Q1013 NOSIG=
201101282130 METAR LMML NIL=
201101282115 METAR LMML 282115Z 31007KT 9999 FEW020 11/09 Q1013 NOSIG=
201101282045 METAR LMML 282045Z 30009KT 9999 FEW018 12/09 Q1013 NOSIG=
201101282030 METAR LMML NIL=
201101282015 METAR LMML 282015Z 30007KT 9999 FEW018 12/09 Q1013 NOSIG=
201101281945 METAR LMML 281945Z 31008KT 9999 FEW018 12/10 Q1012 NOSIG=
201101281915 METAR LMML 281915Z 31010KT 9999 FEW018 12/10 Q1012 NOSIG=
201101281900 METAR LMML NIL=
201101281845 METAR LMML 281845Z 31010KT 9999 FEW018 12/10 Q1012 NOSIG=
201101281830 METAR LMML NIL=
201101281815 METAR LMML 281815Z 31011KT 9999 FEW018 13/10 Q1011 NOSIG=
201101281800 METAR LMML NIL=
201101281745 METAR LMML 281745Z 30010KT 9999 FEW018 13/11 Q1011 NOSIG=
201101281730 METAR LMML NIL=
201101281715 METAR LMML 281715Z 30010KT 280V340 9999 SCT017 13/11 Q1011
                        NOSIG=
201101281700 METAR LMML NIL=
201101281645 METAR LMML 281645Z 30012KT 9999 FEW015 13/11 Q1010 NOSIG=
201101281630 METAR LMML NIL=
201101281615 METAR LMML 281615Z 28012KT 9999 FEW015 SCT250 14/12 Q1010
                        NOSIG=
201101281545 METAR LMML 281545Z 29011KT 250V320 9999 FEW016 SCT250 14/12
                        Q1009 NOSIG=
201101281530 METAR LMML NIL=
201101281515 METAR LMML 281515Z 29013KT 9999 SCT015 SCT250 14/12 Q1009
                        NOSIG=
201101281500 METAR LMML NIL=
201101281445 METAR LMML 281445Z 30009KT 270V340 9999 BKN015 SCT250 14/12
                        Q1009 NOSIG=
201101281430 METAR LMML NIL=
201101281415 METAR LMML 281415Z 28015KT 9999 SCT018 BKN250 15/11 Q1009
                        NOSIG=
201101281345 METAR LMML 281345Z 29014KT 250V310 9999 SCT017 BKN250 15/12
                        Q1008 NOSIG=
201101281330 METAR LMML NIL=
201101281315 METAR LMML 281315Z 28012KT 250V320 9999 SCT017 BKN250 15/12
                        Q1008 NOSIG=
201101281300 METAR LMML NIL=
201101281245 METAR LMML 281245Z 28013KT 9999 FEW017 BKN250 15/12 Q1008
                        NOSIG=
201101281230 METAR LMML NIL=
201101281215 METAR LMML 281215Z 28013KT 250V310 9999 FEW015 BKN250 15/12
                        Q1008 NOSIG=
201101281200 METAR LMML NIL=
201101281145 METAR LMML 281145Z 28014KT 9999 SCT017 BKN250 15/12 Q1008
                        NOSIG=
201101281130 METAR LMML NIL=
201101281115 METAR LMML 281115Z 29016KT 9999 SCT018 BKN250 16/12 Q1008
                        NOSIG=
201101281100 METAR LMML NIL=
201101281045 METAR LMML 281045Z 28017KT 250V310 9999 SCT018 16/12 Q1008
                        NOSIG=
201101281030 METAR LMML NIL=
201101281015 METAR LMML 281015Z 28014KT 250V310 9999 FEW018 16/12 Q1008
                        NOSIG=
201101281000 METAR LMML NIL=
201101280945 METAR LMML 280945Z 28014KT 250V310 9999 FEW017 SCT250 16/12
                        Q1007 NOSIG=
201101280930 METAR LMML NIL=
201101280915 METAR LMML 280915Z 29015KT 260V330 9999 FEW018 SCT250 16/12
                        Q1007 NOSIG=
201101280845 METAR LMML 280845Z 29015KT 260V320 9999 FEW020 SCT250 15/10
                        Q1006 NOSIG=
201101280830 METAR LMML NIL=
201101280815 METAR LMML 280815Z 29014KT 260V320 9999 FEW018 SCT250 15/11
                        Q1006 NOSIG=
201101280800 METAR LMML NIL=
201101280745 METAR LMML 280745Z 29017KT 260V320 9999 FEW016 SCT250 14/11
                        Q1005 NOSIG=
201101280730 METAR LMML NIL=
201101280715 METAR LMML 280715Z 28016KT 9999 SCT018 14/11 Q1005 NOSIG=
201101280700 METAR LMML NIL=
201101280645 METAR LMML 280645Z 28014KT 250V310 9999 SCT017 14/11 Q1005
                        NOSIG=
201101280630 METAR LMML NIL=
201101280615 METAR LMML 280615Z 28010KT 240V320 9999 SCT017 13/11 Q1004
                        NOSIG=
201101280600 METAR LMML NIL=
201101280545 METAR LMML 280545Z 27009KT 230V310 9999 FEW016 13/12 Q1004
                        NOSIG=
201101280530 METAR LMML NIL=
201101280515 METAR LMML 280515Z 28011KT 240V310 9999 FEW016 13/12 Q1003
                        NOSIG=
201101280500 METAR LMML NIL=
201101280445 METAR LMML 280445Z 28012KT 9999 FEW016 13/12 Q1003 NOSIG=
201101280430 METAR LMML NIL=
201101280415 METAR LMML 280415Z 28013KT 250V310 9999 SCT018 14/12 Q1003
                        NOSIG=
201101280400 METAR LMML NIL=
201101280345 METAR LMML 280345Z 28013KT 230V320 9999 SCT018 13/11 Q1002
                        NOSIG=
201101280330 METAR LMML NIL=
201101280315 METAR LMML 280315Z 28013KT 240V300 9999 BKN016 14/12 Q1002
                        NOSIG=
201101280300 METAR LMML NIL=
201101280245 METAR LMML 280245Z 28011KT 240V320 9999 BKN013 14/12 Q1002
                        NOSIG=
201101280230 METAR LMML NIL=
201101280215 METAR LMML 280215Z 29013KT 9999 BKN013 14/12 Q1001 NOSIG=
201101280200 METAR LMML NIL=
201101280145 METAR LMML 280145Z 28016KT 9999 BKN013 14/12 Q1001 NOSIG=
201101280130 METAR LMML NIL=
201101280115 METAR LMML 280115Z 28015KT 240V300 9999 BKN011 14/13 Q1001
                        NOSIG=
201101280100 METAR LMML NIL=
201101280045 METAR LMML 280045Z 26016KT 240V300 8000 BKN009 14/13 Q1000
                        NOSIG=
201101280030 METAR LMML NIL=
201101280015 METAR LMML 280015Z 26015KT 210V290 8000 BKN009 14/13 Q1000
                        NOSIG=
201101280000 METAR LMML NIL=
201101272345 METAR LMML 272345Z 25012KT 210V300 8000 BKN009 14/13 Q1000
                        NOSIG=
201101272330 METAR LMML NIL=
201101272315 METAR LMML 272315Z 25013KT 210V290 8000 BKN009 14/13 Q0999
                        NOSIG=
201101272300 METAR LMML NIL=
201101272245 METAR LMML 272245Z 24010KT 200V290 7000 BKN009 14/14 Q0999
                        NOSIG=
201101272230 METAR LMML NIL=
201101272215 METAR LMML 272215Z 25012KT 210V290 7000 BKN009 14/14 Q0999
                        NOSIG=
201101272200 METAR LMML NIL=
201101272145 METAR LMML 272145Z 24010KT 180V270 6000 BKN008 15/14 Q0999
                        NOSIG=
201101272130 METAR LMML NIL=
201101272115 METAR LMML 272115Z 23009KT 200V270 6000 FEW010 14/14 Q0999
                        TEMPO BKN008=
201101272100 METAR LMML NIL=
201101272045 METAR LMML 272045Z 24009KT 190V280 6000 FEW010 14/14 Q0999
                        TEMPO BKN008=
201101272030 METAR LMML NIL=
201101272015 METAR LMML 272015Z 24010KT 200V270 6000 NSC 15/13 Q0999 NOSIG=
201101272000 METAR LMML NIL=
201101271945 METAR LMML 271945Z 23011KT 200V270 6000 NSC 15/13 Q0999=
201101271930 METAR LMML NIL=
201101271915 METAR LMML 271915Z 24010KT 200V280 6000 NSC 15/13 Q0999 NOSIG=
201101271900 METAR LMML NIL=
201101271845 METAR LMML 271845Z 24011KT 200V280 6000 NSC 15/13 Q0998 NOSIG=
201101271830 METAR LMML NIL=
201101271815 METAR LMML 271815Z 23011KT 200V280 6000 NSC 15/13 Q0998 NOSIG=
201101271800 METAR LMML NIL=
201101271745 METAR LMML 271745Z 22013KT 200V260 6000 NSC 15/13 Q0998 NOSIG=
201101271730 METAR LMML NIL=
201101271715 METAR LMML 271715Z 22010KT 190V260 3000 NSC 15/13 Q0998 NOSIG=
201101271700 METAR LMML NIL=
201101271645 METAR LMML 271645Z 21009KT 180V270 3000 NSC 15/13 Q0997 NOSIG=
201101271630 METAR LMML NIL=
201101271615 METAR LMML 271615Z 21010KT 180V250 6000 NSC 16/13 Q0997 NOSIG=
201101271600 METAR LMML NIL=
201101271545 METAR LMML 271545Z 21010KT 180V270 6000 NSC 16/14 Q0997 NOSIG=
201101271530 METAR LMML NIL=
201101271515 METAR LMML 271515Z 19011KT 160V240 6000 NSC 16/14 Q0997 NOSIG=
201101271500 METAR LMML NIL=
201101271445 METAR LMML 271445Z 19013KT 150V230 6000 NSC 16/14 Q0997 NOSIG=
201101271430 METAR LMML NIL=
201101271415 METAR LMML 271415Z 18013KT 140V220 6000 NSC 16/14 Q0997 NOSIG=
201101271400 METAR LMML NIL=
201101271345 METAR LMML 271345Z 17012KT 140V210 7000 NSC 17/14 Q0997 NOSIG=
201101271330 METAR LMML NIL=
201101271315 METAR LMML 271315Z 17012KT 130V200 6000 NSC 16/14 Q0998 BECMG
                        7000=
201101271300 METAR LMML NIL=
201101271245 METAR LMML 271245Z 16013KT 130V200 5000 HZ FEW014 17/15 Q0998
                        BECMG 7000 SCT017=
201101271230 METAR LMML NIL=
201101271215 METAR LMML 271215Z 16016KT 130V190 5000 BKN015 16/14 Q0999
                        BECMG 7000 SCT017=
201101271200 METAR LMML NIL=
201101271145 METAR LMML 271145Z 16016G26KT 130V190 6000 BKN015 16/14 Q0999
                        BECMG 9999 SCT017=
201101271130 METAR LMML NIL=
201101271115 METAR LMML 271115Z 15017KT 6000 BKN016 16/14 Q1000 BECMG
                        9999=
201101271100 METAR LMML NIL=
201101271045 METAR LMML 271045Z 15018KT 110V180 9999 BKN017 15/13 Q1001
                        NOSIG=
201101271030 METAR LMML NIL=
201101271015 METAR LMML 271015Z 15017KT 120V180 9999 BKN017 BKN060 15/13
                        Q1002 NOSIG=
201101271000 METAR LMML NIL=
201101270945 METAR LMML 270945Z 15017KT 120V180 9999 BKN014 BKN060 15/14
                        Q1003 BECMG SCT014=
201101270930 METAR LMML NIL=
201101270915 METAR LMML 270915Z 15017KT 9999 BKN013 BKN060 15/13 Q1003
                        BECMG SCT014=
201101270900 METAR LMML NIL=
201101270845 METAR LMML 270845Z 15016KT 9999 -RA BKN014 BKN060 15/13 Q1004
                        NOSIG=
201101270830 METAR LMML NIL=
201101270815 METAR LMML 270815Z 16015KT 130V190 9999 SCT013 BKN070 15/13
                        Q1004 NOSIG=
201101270745 METAR LMML 270745Z 16012KT 130V190 9999 FEW009 SCT013 BKN070
                        14/13 Q1004 NOSIG=
201101270730 METAR LMML NIL=
201101270715 METAR LMML 270715Z 16010KT 9000 SCT009 BKN013 BKN070 14/13
                        Q1005 NOSIG=
201101270700 METAR LMML NIL=
201101270645 METAR LMML 270645Z 17010KT 130V210 9000 -RA BKN009 BKN012
                        14/13 Q1005 TEMPO BKN015=
201101270630 METAR LMML NIL=
201101270615 METAR LMML 270615Z 17010KT 140V200 9000 BKN007 SCT013 BKN100
                        14/13 Q1005 TEMPO BKN015=
201101270600 METAR LMML NIL=
201101270545 METAR LMML 270545Z 16010KT 120V200 7000 BKN008 SCT013 BKN100
                        14/13 Q1005 RERA TEMPO 5000 RA BKN008
                        BKN015=
201101270530 METAR LMML NIL=
201101270515 METAR LMML 270515Z 15013KT 7000 BKN007 BKN019 14/13 Q1005
                        TEMPO 5000 RA BKN008 BKN015=
201101270500 METAR LMML NIL=
201101270445 METAR LMML 270445Z 15015KT 110V170 6000 RA BKN010 BKN019
                        14/13 Q1005 TEMPO 5000 BKN008 BKN015=
201101270430 METAR LMML NIL=
201101270415 METAR LMML 270415Z 15012KT 100V180 6000 RA BKN009 BKN013
                        14/13 Q1006 TEMPO 5000 BKN008 BKN015=
201101270400 METAR LMML NIL=
201101270345 METAR LMML 270345Z 13014KT 100V160 9999 BKN008 SCT017 13/13
                        Q1006 TEMPO 6000 RA BKN015=
201101270330 METAR LMML NIL=
201101270315 METAR LMML 270315Z 14011KT 9999 BKN010 BKN070 13/12 Q1007
                        TEMPO 6000 RA BKN015=
201101270245 METAR LMML 270245Z 14011KT 9999 FEW016 SCT047 BKN080 13/12
                        Q1007 TEMPO 6000 RA BKN015=
201101270230 METAR LMML NIL=
201101270215 METAR LMML 270215Z 16011KT 130V190 9999 -RA SCT016 SCT043
                        BKN070 13/11 Q1008 TEMPO 6000 RA
                        BKN015=
201101270200 METAR LMML NIL=
201101270145 METAR LMML 270145Z 16011KT 9999 SCT016 BKN047 BKN090 13/11
                        Q1009 TEMPO 6000 RA BKN015=
201101270130 METAR LMML NIL=
201101270115 METAR LMML 270115Z 16009KT 130V190 9999 -RA SCT015 BKN030
                        13/11 Q1009 TEMPO 6000 RA BKN015=
201101270100 METAR LMML NIL=
201101270045 METAR LMML 270045Z 16009KT 130V190 9999 SCT001 BKN050 13/11
                        Q1010 TEMPO 6000 RA BKN015=
201101270030 METAR LMML NIL=
201101270015 METAR LMML 270015Z 16006KT 120V180 6000 -RA SCT016 BKN030
                        12/11 Q1010 TEMPO BKN015=
201101262345 METAR LMML 262345Z 17006KT 140V200 9999 -RA FEW019 BKN030
                        12/10 Q1011 NOSIG=
201101262330 METAR LMML NIL=
201101262315 METAR LMML 262315Z 16005KT 9999 FEW018 BKN045 12/10 Q1011
                        NOSIG=
201101262245 METAR LMML 262245Z 17006KT 9999 FEW018 BKN050 12/09 Q1011
                        NOSIG=
201101262215 METAR LMML 262215Z 17006KT 9999 FEW018 BKN060 12/09 Q1011
                        NOSIG=
201101262145 METAR LMML 262145Z 18006KT 150V220 9999 FEW019 BKN060 12/09
                        Q1012 NOSIG=
201101262115 METAR LMML 262115Z 18004KT 9999 FEW020 BKN070 12/09 Q1012
                        NOSIG=
201101262045 METAR LMML 262045Z 17004KT 9999 FEW021 BKN070 11/09 Q1012
                        NOSIG=
201101262030 METAR LMML NIL=
201101262015 METAR LMML 262015Z 18004KT 9999 FEW020 BKN070 10/09 Q1012
                        NOSIG=
201101261945 METAR LMML 261945Z 18003KT 9999 FEW020 BKN070 10/09 Q1012
                        NOSIG=
201101261915 METAR LMML 261915Z VRB02KT 9999 FEW020 SCT070 10/09 Q1012
                        NOSIG=
201101261900 METAR LMML NIL=
201101261845 METAR LMML 261845Z VRB01KT 9999 FEW020 BKN070 10/09 Q1012
                        NOSIG=
201101261830 METAR LMML NIL=
201101261815 METAR LMML 261815Z VRB02KT 9999 FEW020 SCT080 10/09 Q1012
                        NOSIG=
201101261800 METAR LMML NIL=
201101261745 METAR LMML 261745Z 17004KT 9999 FEW019 SCT080 10/09 Q1011
                        NOSIG=
201101261730 METAR LMML NIL=
201101261715 METAR LMML 261715Z 16003KT 9999 FEW019 BKN080 11/09 Q1011
                        NOSIG=
201101261700 METAR LMML NIL=
201101261645 METAR LMML 261645Z 19003KT 9999 FEW024TCU BKN080 11/09 Q1011
                        TEMPO 8000 SHRA BKN015TCU=
201101261630 METAR LMML NIL=
201101261615 METAR LMML 261615Z 17004KT 150V210 9999 FEW013 BKN024TCU
                        11/09 Q1011 TEMPO 8000 SHRA BKN015TCU=
201101261600 METAR LMML NIL=
201101261545 METAR LMML 261545Z 20004KT 170V240 9999 FEW010 SCT017 BKN040
                        11/10 Q1012 NOSIG=
201101261530 METAR LMML NIL=
201101261515 METAR LMML 261515Z 19004KT 160V240 9999 SCT020 SCT050 12/09
                        Q1012 TEMPO 8000 RA BKN015=
201101261500 METAR LMML NIL=
201101261445 METAR LMML 261445Z 22005KT 190V260 9999 SCT018 SCT080 12/09
                        Q1012 NOSIG=
201101261430 METAR LMML NIL=
201101261415 METAR LMML 261415Z 21005KT 170V260 9999 FEW018 SCT080 13/09
                        Q1011 NOSIG=
201101261400 METAR LMML NIL=
201101261345 METAR LMML 261345Z 20006KT 160V280 9999 FEW018 SCT080 13/09
                        Q1012 NOSIG=
201101261330 METAR LMML NIL=
201101261315 METAR LMML 261315Z 21007KT 160V270 9999 FEW016 13/09 Q1012
                        NOSIG=
201101261300 METAR LMML NIL=
201101261245 METAR LMML 261245Z 20006KT 150V250 9999 FEW015 13/09 Q1012
                        NOSIG=
201101261230 METAR LMML NIL=
201101261215 METAR LMML 261215Z 18007KT 150V210 9999 FEW013 13/09 Q1012
                        NOSIG=
201101261200 METAR LMML NIL=
201101261145 METAR LMML 261145Z 16006KT 130V210 9999 SCT013 12/10 Q1012
                        NOSIG=
201101261130 METAR LMML NIL=
201101261115 METAR LMML 261115Z 16006KT 130V200 9999 FEW012 BKN055 12/10
                        Q1013 NOSIG=
201101261100 METAR LMML NIL=
201101261045 METAR LMML 261045Z 16005KT 120V190 9999 SCT011 BKN050 BKN060
                        11/10 Q1013 NOSIG=
201101261030 METAR LMML NIL=
201101261015 METAR LMML 261015Z 14005KT 9999 FEW012 SCT050 BKN090 11/09
                        Q1013 NOSIG=
201101261000 METAR LMML NIL=
201101260945 METAR LMML 260945Z 14003KT 9999 -RA FEW012 BKN050 BKN070
                        10/10 Q1014 NOSIG=
201101260930 METAR LMML NIL=
201101260915 METAR LMML 260915Z VRB02KT 6000 -RA SCT009 OVC050 10/09 Q1014
                        NOSIG=
201101260900 METAR LMML NIL=
201101260845 METAR LMML 260845Z VRB01KT 6000 -RA FEW010 SCT018 BKN032
                        10/09 Q1014 RERA TEMPO 4000 RA BKN015=
201101260815 METAR LMML 260815Z VRB02KT 4000 RA SCT021 OVC041 09/08 Q1014
                        NOSIG=
201101260800 METAR LMML NIL=
201101260745 METAR LMML 260745Z VRB01KT 9999 -RA SCT024 BKN041 09/08 Q1014
                        NOSIG=
201101260730 METAR LMML NIL=
201101260715 METAR LMML 260715Z VRB01KT 9999 -RA BKN028 BKN045 09/08 Q1014
                        NOSIG=
201101260700 METAR LMML NIL=
201101260645 METAR LMML 260645Z 00000KT 9999 -RA FEW030 SCT046 BKN080
                        09/07 Q1013 NOSIG=
201101260630 METAR LMML NIL=
201101260615 METAR LMML 260615Z VRB01KT 9999 -RA FEW025 SCT050 BKN080
                        09/07 Q1013 NOSIG=
201101260600 METAR LMML NIL=
201101260545 METAR LMML 260545Z VRB01KT 9999 FEW030 SCT060 BKN080 08/07
                        Q1013 NOSIG=
201101260530 METAR LMML NIL=
201101260515 METAR LMML 260515Z VRB01KT 9999 FEW030 SCT070 BKN090 08/07
                        Q1013 NOSIG=
201101260500 METAR LMML NIL=
201101260445 METAR LMML 260445Z VRB01KT 9999 FEW030 SCT070 BKN090 08/06
                        Q1013 NOSIG=
201101260430 METAR LMML NIL=
201101260415 METAR LMML 260415Z VRB01KT 9999 FEW030 BKN070 08/06 Q1013
                        NOSIG=
201101260400 METAR LMML NIL=
201101260345 METAR LMML 260345Z VRB02KT 9999 FEW030 BKN100 07/06 Q1013
                        NOSIG=
201101260330 METAR LMML NIL=
201101260315 METAR LMML 260315Z VRB01KT 9999 FEW030 BKN120 07/06 Q1014
                        NOSIG=
201101260300 METAR LMML NIL=
201101260245 METAR LMML 260245Z 00000KT 9999 FEW030 SCT100 07/06 Q1014
                        NOSIG=
201101260230 METAR LMML NIL=
201101260215 METAR LMML 260215Z VRB02KT 9999 FEW030 BKN120 08/06 Q1014
                        NOSIG=
201101260200 METAR LMML NIL=
201101260145 METAR LMML 260145Z VRB02KT 9999 FEW030 SCT046 BKN120 08/05
                        Q1014 NOSIG=
201101260130 METAR LMML NIL=
201101260115 METAR LMML 260115Z 28003KT 9999 FEW040 SCT060 BKN120 09/06
                        Q1014 NOSIG=
201101260100 METAR LMML NIL=
201101260045 METAR LMML 260045Z VRB02KT 9999 FEW036 SCT039 BKN050 08/06
                        Q1014 NOSIG=
201101260030 METAR LMML NIL=
201101260015 METAR LMML 260015Z 29003KT 9999 FEW033 BKN037 OVC048 09/06
                        Q1014 NOSIG=
201101260000 METAR LMML NIL=
201101252345 METAR LMML 252345Z 31003KT 9999 FEW033 SCT035 OVC047 09/07
                        Q1015 NOSIG=
201101252330 METAR LMML NIL=
201101252315 METAR LMML 252315Z 30003KT 9999 FEW031 SCT038 OVC048 08/06
                        Q1015 NOSIG=
201101252300 METAR LMML NIL=
201101252245 METAR LMML 252245Z VRB02KT 9999 FEW033 OVC048 08/06 Q1015
                        NOSIG=
201101252230 METAR LMML NIL=
201101252215 METAR LMML 252215Z VRB02KT 9999 FEW044 OVC049 09/06 Q1015
                        NOSIG=
201101252200 METAR LMML NIL=
201101252145 METAR LMML 252145Z VRB02KT 9999 SCT044 OVC047 08/06 Q1015
                        NOSIG=
201101252130 METAR LMML NIL=
201101252115 METAR LMML 252115Z VRB01KT 9999 -RA OVC043 09/07 Q1015 NOSIG=
201101252100 METAR LMML NIL=
201101252045 METAR LMML 252045Z VRB02KT 9999 -RA OVC047 09/07 Q1015 NOSIG=
201101252030 METAR LMML NIL=
201101252015 METAR LMML 252015Z VRB02KT 9999 OVC045 09/07 Q1016 NOSIG=
201101252000 METAR LMML NIL=
201101251945 METAR LMML 251945Z 24003KT 9999 -RA FEW030 BKN045 09/07 Q1016
                        NOSIG=
201101251930 METAR LMML NIL=
201101251915 METAR LMML 251915Z 23003KT 9999 FEW030 BKN043 09/07 Q1015
                        NOSIG=
201101251900 METAR LMML NIL=
201101251845 METAR LMML 251845Z VRB01KT 9999 -RA SCT030 OVC039 09/07 Q1015
                        NOSIG=
201101251830 METAR LMML NIL=
201101251815 METAR LMML 251815Z VRB02KT 9999 -RA SCT030 BKN039 10/06 Q1015
                        NOSIG=
201101251800 METAR LMML NIL=
201101251745 METAR LMML 251745Z 07003KT 9999 -RA SCT029 BKN043 10/06 Q1015
                        NOSIG=
201101251730 METAR LMML NIL=
201101251715 METAR LMML 251715Z 07004KT 040V110 9999 -RA SCT036 BKN045
                        10/06 Q1015 NOSIG=
201101251700 METAR LMML NIL=
201101251645 METAR LMML 251645Z 08004KT 040V110 9999 -RA SCT029 BKN044
                        10/06 Q1015 NOSIG=
201101251630 METAR LMML NIL=
201101251615 METAR LMML 251615Z 08005KT 050V120 9999 -RA SCT028 BKN050
                        OVC150 10/06 Q1015 NOSIG=
201101251600 METAR LMML NIL=
201101251545 METAR LMML 251545Z 08005KT 050V110 9999 SCT031 BKN060 OVC150
                        11/06 Q1015 NOSIG=
201101251530 METAR LMML NIL=
201101251515 METAR LMML 251515Z 08005KT 9999 -RA FEW032 BKN060 OVC150
                        11/05 Q1015 NOSIG=
201101251500 METAR LMML NIL=
201101251445 METAR LMML 251445Z 09006KT 040V120 9999 SCT030 SCT060 OVC150
                        11/05 Q1015 NOSIG=
201101251430 METAR LMML NIL=
201101251415 METAR LMML 251415Z 09006KT 040V120 9999 SCT030 OVC150 11/05
                        Q1015 NOSIG=
201101251400 METAR LMML NIL=
201101251345 METAR LMML 251345Z 10008KT 050V150 9999 SCT033 SCT080 BKN150
                        12/05 Q1015 NOSIG=
201101251330 METAR LMML NIL=
201101251315 METAR LMML 251315Z 11008KT 070V150 9999 SCT032 SCT120 BKN250
                        12/05 Q1015 NOSIG=
201101251300 METAR LMML NIL=
201101251245 METAR LMML 251245Z 10008KT 070V140 9999 SCT033 BKN110 12/05
                        Q1015 NOSIG=
201101251230 METAR LMML NIL=
201101251215 METAR LMML 251215Z 10007KT 030V140 9999 FEW035 BKN100 BKN250
                        12/04 Q1015 NOSIG=
201101251200 METAR LMML NIL=
201101251145 METAR LMML 251145Z 07006KT 040V120 9999 FEW037 BKN110 BKN250
                        12/04 Q1016 NOSIG=
201101251130 METAR LMML NIL=
201101251115 METAR LMML 251115Z 08007KT 030V120 9999 FEW039 BKN110 BKN250
                        12/04 Q1016 NOSIG=
201101251100 METAR LMML NIL=
201101251045 METAR LMML 251045Z 04006KT 360V090 9999 FEW039 BKN110 BKN250
                        13/04 Q1017 NOSIG=
201101251030 METAR LMML NIL=
201101251015 METAR LMML 251015Z 03005KT 350V080 9999 FEW037 SCT120 BKN250
                        13/04 Q1017 NOSIG=
201101251000 METAR LMML NIL=
201101250945 METAR LMML 250945Z 04007KT 010V070 9999 FEW037 SCT120 BKN250
                        12/04 Q1017 NOSIG=
201101250930 METAR LMML NIL=
201101250915 METAR LMML 250915Z 03007KT 360V070 9999 FEW035 BKN250 11/03
                        Q1017 NOSIG=
201101250900 METAR LMML NIL=
201101250845 METAR LMML 250845Z 01007KT 340V050 9999 FEW033 BKN250 11/05
                        Q1017 NOSIG=
201101250830 METAR LMML NIL=
201101250815 METAR LMML 250815Z 01007KT 9999 FEW034 BKN250 12/05 Q1017
                        NOSIG=
201101250800 METAR LMML NIL=
201101250745 METAR LMML 250745Z VRB01KT 9999 FEW035 BKN250 10/05 Q1017
                        NOSIG=
201101250715 METAR LMML 250715Z VRB02KT 9999 FEW035 BKN250 09/04 Q1017
                        NOSIG=
201101250700 METAR LMML NIL=
201101250645 METAR LMML 250645Z 30003KT 9999 FEW035 BKN250 08/03 Q1017
                        NOSIG=
201101250630 METAR LMML NIL=
201101250615 METAR LMML 250615Z VRB02KT 9999 FEW039 BKN250 08/03 Q1017
                        NOSIG=
201101250600 METAR LMML NIL=
201101250545 METAR LMML 250545Z 29003KT 9999 SCT037 BKN250 08/04 Q1017
                        NOSIG=
201101250530 METAR LMML NIL=
201101250515 METAR LMML 250515Z 29004KT 270V330 9999 SCT038 BKN250 08/04
                        Q1017 NOSIG=
201101250500 METAR LMML NIL=
201101250445 METAR LMML 250445Z 27005KT 9999 SCT036 BKN250 08/04 Q1017
                        NOSIG=
201101250430 METAR LMML NIL=
201101250415 METAR LMML 250415Z 28005KT 250V330 9999 FEW038 SCT250 08/03
                        Q1017 NOSIG=
201101250400 METAR LMML NIL=
201101250345 METAR LMML 250345Z 29005KT 9999 FEW038 SCT250 08/03 Q1016
                        NOSIG=
201101250330 METAR LMML NIL=
201101250315 METAR LMML 250315Z 29006KT 260V320 9999 FEW038 SCT250 08/03
                        Q1017 NOSIG=
201101250300 METAR LMML NIL=
201101250245 METAR LMML 250245Z 28006KT 9999 FEW038 SCT250 08/03 Q1017
                        NOSIG=
201101250230 METAR LMML NIL=
201101250215 METAR LMML 250215Z 27006KT 9999 FEW038 SCT250 08/02 Q1017
                        NOSIG=
201101250200 METAR LMML NIL=
201101250145 METAR LMML 250145Z 28006KT 9999 FEW045 08/02 Q1017 NOSIG=
201101250130 METAR LMML NIL=
201101250115 METAR LMML 250115Z 30006KT 9999 FEW045 07/03 Q1017 NOSIG=
201101250100 METAR LMML NIL=
201101250045 METAR LMML 250045Z 31006KT 9999 FEW045 07/03 Q1017 NOSIG=
201101250030 METAR LMML NIL=
201101250015 METAR LMML 250015Z 31006KT 9999 FEW047 07/03 Q1017 NOSIG=
201101250000 METAR LMML NIL=
201101242345 METAR LMML 242345Z 31008KT 9999 FEW047 07/03 Q1017 NOSIG=
201101242330 METAR LMML NIL=
201101242315 METAR LMML 242315Z 30006KT 9999 FEW047 08/03 Q1017 NOSIG=
201101242300 METAR LMML NIL=
201101242245 METAR LMML 242245Z 29006KT 9999 SCT048 09/03 Q1017 NOSIG=
201101242230 METAR LMML NIL=
201101242215 METAR LMML 242215Z 29005KT 9999 SCT045 08/03 Q1018 NOSIG=
201101242200 METAR LMML NIL=
201101242145 METAR LMML 242145Z 31006KT 9999 FEW044 08/03 Q1018 NOSIG=
201101242130 METAR LMML NIL=
201101242115 METAR LMML 242115Z 30007KT 9999 FEW045 08/04 Q1018 NOSIG=
201101242045 METAR LMML 242045Z 29006KT 9999 FEW046 08/04 Q1018 NOSIG=
201101242030 METAR LMML NIL=
201101242015 METAR LMML 242015Z 29005KT 9999 SCT025 08/04 Q1018 NOSIG=
201101242000 METAR LMML NIL=
201101241945 METAR LMML 241945Z 29007KT 9999 FEW025 09/04 Q1018 NOSIG=
201101241930 METAR LMML NIL=
201101241915 METAR LMML 241915Z 29007KT 9999 FEW025 09/05 Q1017 NOSIG=
201101241900 METAR LMML NIL=
201101241845 METAR LMML 241845Z 30008KT 9999 FEW025 09/05 Q1017 NOSIG=
201101241830 METAR LMML NIL=
201101241815 METAR LMML 241815Z 29007KT 260V320 9999 FEW025 08/05 Q1017
                        NOSIG=
201101241800 METAR LMML NIL=
201101241745 METAR LMML 241745Z 30007KT 9999 FEW025 09/05 Q1017 NOSIG=
201101241730 METAR LMML NIL=
201101241715 METAR LMML 241715Z 31007KT 9999 FEW025 08/06 Q1017 NOSIG=
201101241700 METAR LMML NIL=
201101241645 METAR LMML 241645Z 30007KT 9999 FEW025 SCT060 09/06 Q1017
                        NOSIG=
201101241630 METAR LMML NIL=
201101241615 METAR LMML 241615Z 31006KT 9999 FEW025 SCT060 09/07 Q1017
                        NOSIG=
201101241600 METAR LMML NIL=
201101241545 METAR LMML 241545Z 31004KT 9999 FEW025 BKN060 10/08 Q1017
                        NOSIG=
201101241530 METAR LMML NIL=
201101241515 METAR LMML 241515Z 32007KT 9999 -SHRA SCT023 BKN044 10/08
                        Q1017 NOSIG=
201101241500 METAR LMML NIL=
201101241445 METAR LMML 241445Z 32008KT 9999 -SHRA SCT028 BKN060 11/07
                        Q1017 NOSIG=
201101241430 METAR LMML NIL=
201101241415 METAR LMML 241415Z 32008KT 9999 FEW027 BKN060 11/06 Q1017
                        NOSIG=
201101241400 METAR LMML NIL=
201101241345 METAR LMML 241345Z 31006KT 9999 FEW028 BKN038 BKN046 11/08
                        Q1017 NOSIG=
201101241330 METAR LMML NIL=
201101241315 METAR LMML 241315Z 31006KT 9999 -RA FEW028 SCT037 BKN044
                        11/08 Q1017 NOSIG=
201101241300 METAR LMML NIL=
201101241245 METAR LMML 241245Z 31009KT 9999 FEW025 BKN047 BKN100 11/07
                        Q1017 NOSIG=
201101241230 METAR LMML NIL=
201101241215 METAR LMML 241215Z 31011KT 280V340 9999 SCT025 BKN049 BKN100
                        11/08 Q1017 NOSIG=
201101241145 METAR LMML 241145Z 30011KT 260V320 9999 FEW024 SCT050 BKN100
                        12/08 Q1017 NOSIG=
201101241130 METAR LMML NIL=
201101241115 METAR LMML 241115Z 28009KT 250V310 9999 SCT021 SCT050 BKN100
                        12/07 Q1018 NOSIG=
201101241100 METAR LMML NIL=
201101241045 METAR LMML 241045Z 30006KT 260V330 9999 SCT017 SCT042 BKN250
                        12/09 Q1018 NOSIG=
201101241030 METAR LMML NIL=
201101241015 METAR LMML 241015Z 32008KT 9999 -RA FEW026 SCT048 BKN250
                        11/09 Q1019 NOSIG=
201101241000 METAR LMML NIL=
201101240945 METAR LMML 240945Z 30009KT 9999 FEW026 BKN050 BKN250 12/08
                        Q1019 NOSIG=
201101240930 METAR LMML NIL=
201101240915 METAR LMML 240915Z 29006KT 9999 FEW030 SCT042 BKN250 11/07
                        Q1019 NOSIG=
201101240900 METAR LMML NIL=
201101240845 METAR LMML 240845Z 32007KT 9999 -SHRA SCT036 BKN047 BKN110
                        11/07 Q1018 NOSIG=
201101240830 METAR LMML NIL=
201101240815 METAR LMML 240815Z 28003KT 9999 FEW033 SCT050 BKN110 11/07
                        Q1018 NOSIG=
201101240800 METAR LMML NIL=
201101240745 METAR LMML 240745Z 27003KT 9999 FEW033 BKN100 10/06 Q1018
                        NOSIG=
201101240730 METAR LMML NIL=
201101240715 METAR COR LMML 240715Z 26004KT 230V290 9999 FEW033 BKN100
                        09/06 Q1018 NOSIG RMK SMOKE TO NORTH
                        AND NORTHEAST=
201101240700 METAR LMML NIL=
201101240645 METAR LMML 240645Z VRB01KT 9999 FEW034 BKN090 08/06 Q1017
                        NOSIG RMK SMOKE TO NORTH=
201101240615 METAR LMML 240615Z 29003KT 9999 FEW034 BKN090 08/06 Q1018
                        NOSIG=
201101240545 METAR LMML 240545Z 28004KT CAVOK 09/05 Q1018 NOSIG=
201101240530 METAR LMML NIL=
201101240515 METAR LMML 240515Z 28004KT CAVOK 09/04 Q1017 NOSIG=
201101240500 METAR LMML NIL=
201101240445 METAR LMML 240445Z 26003KT CAVOK 09/04 Q1017 NOSIG=
201101240430 METAR LMML NIL=
201101240415 METAR LMML 240415Z 29003KT CAVOK 09/04 Q1017 NOSIG=
201101240400 METAR LMML NIL=
201101240345 METAR LMML 240345Z 27003KT CAVOK 08/05 Q1017 NOSIG=
201101240330 METAR LMML NIL=
201101240315 METAR LMML 240315Z 28004KT 9999 FEW037 BKN100 08/04 Q1017
                        NOSIG=
201101240300 METAR LMML NIL=
201101240245 METAR LMML 240245Z 28004KT 9999 FEW037 BKN100 08/04 Q1018
                        NOSIG=
201101240230 METAR LMML NIL=
201101240215 METAR LMML 240215Z 27004KT 9999 FEW037 BKN100 08/05 Q1018
                        NOSIG=
201101240200 METAR LMML NIL=
201101240145 METAR LMML 240145Z 28004KT 9999 FEW037 BKN110 09/05 Q1018
                        NOSIG=
201101240130 METAR LMML NIL=
201101240115 METAR LMML 240115Z 28003KT 9999 FEW037 BKN110 09/05 Q1018
                        NOSIG=
201101240100 METAR LMML NIL=
201101240045 METAR LMML 240045Z 28003KT 9999 FEW037 BKN120 09/05 Q1018
                        NOSIG=
201101240030 METAR LMML NIL=
201101240015 METAR LMML 240015Z 27004KT 240V300 9999 FEW037 BKN120 09/05
                        Q1018 NOSIG=
201101240000 METAR LMML NIL=
201101232345 METAR LMML 232345Z 28004KT 9999 FEW039 BKN120 09/05 Q1018
                        NOSIG=
201101232330 METAR LMML NIL=
201101232315 METAR LMML 232315Z 28004KT 9999 FEW039 BKN120 09/05 Q1018
                        NOSIG=
201101232300 METAR LMML NIL=
201101232245 METAR LMML 232245Z 27004KT 9999 FEW039 BKN120 09/05 Q1018
                        NOSIG=
201101232230 METAR LMML NIL=
201101232215 METAR LMML 232215Z 28003KT 9999 FEW039 BKN120 09/05 Q1018
                        NOSIG=
201101232200 METAR LMML NIL=
201101232145 METAR LMML 232145Z 29004KT 9999 FEW037 BKN100 09/05 Q1018
                        NOSIG=
201101232130 METAR LMML NIL=
201101232115 METAR LMML 232115Z 27005KT 240V300 9999 FEW035 09/05 Q1018
                        NOSIG=
201101232100 METAR LMML NIL=
201101232045 METAR LMML 232045Z 28004KT 240V300 9999 FEW035 08/05 Q1018
                        NOSIG RMK SMOKE TO WEST SIDE=
201101232030 METAR LMML NIL=
201101232015 METAR LMML 232015Z 27004KT 9000 FEW035 08/05 Q1018 NOSIG=
201101232000 METAR LMML NIL=
201101231945 METAR LMML 231945Z 28004KT 9000 FEW038 08/05 Q1018 NOSIG=
201101231930 METAR LMML NIL=
201101231915 METAR LMML 231915Z 28004KT 240V300 9999 FEW038 09/05 Q1018
                        NOSIG=
201101231900 METAR LMML NIL=
201101231845 METAR LMML 231845Z 28004KT 9999 FEW038 09/05 Q1018 NOSIG=
201101231830 METAR LMML NIL=
201101231815 METAR LMML 231815Z 28004KT 9999 FEW039 09/05 Q1018 NOSIG=
201101231800 METAR LMML NIL=
201101231745 METAR LMML 231745Z 29003KT 9999 SCT039 10/05 Q1018 NOSIG=
201101231730 METAR LMML NIL=
201101231715 METAR LMML 231715Z 29004KT 9999 SCT038 10/05 Q1017 NOSIG=
201101231700 METAR LMML NIL=
201101231645 METAR LMML 231645Z 28005KT 9999 SCT038 10/05 Q1017 NOSIG=
201101231630 METAR LMML NIL=
201101231615 METAR LMML 231615Z 28005KT 250V310 9999 SCT040 11/05 Q1017
                        NOSIG=
201101231600 METAR LMML NIL=
201101231545 METAR LMML 231545Z 28006KT 240V310 9999 SCT042 11/04 Q1017
                        NOSIG=
201101231515 METAR LMML 231515Z 28007KT 230V310 9999 SCT040 12/04 Q1017
                        NOSIG=
201101231500 METAR LMML NIL=
201101231445 METAR LMML 231445Z 28007KT 240V310 9999 SCT041 13/05 Q1017
                        NOSIG=
201101231430 METAR LMML NIL=
201101231415 METAR LMML 231415Z 28009KT 240V300 9999 SCT042 13/04 Q1017
                        NOSIG=
201101231400 METAR LMML NIL=
201101231345 METAR LMML 231345Z 27008KT 220V310 9999 FEW042 13/04 Q1017
                        NOSIG=
201101231330 METAR LMML NIL=
201101231315 METAR LMML 231315Z 26008KT 200V310 9999 FEW042 14/04 Q1017
                        NOSIG=
201101231300 METAR LMML NIL=
201101231245 METAR LMML 231245Z 27010KT 230V300 9999 FEW040 13/03 Q1017
                        NOSIG=
201101231230 METAR LMML NIL=
201101231215 METAR LMML 231215Z 28011KT 250V310 9999 FEW040 13/03 Q1017
                        NOSIG=
201101231200 METAR LMML NIL=
201101231145 METAR LMML 231145Z 27011KT 220V310 9999 FEW042 13/03 Q1017
                        NOSIG=
201101231115 METAR LMML 231115Z 27010KT 230V310 9999 FEW040 14/02 Q1018
                        NOSIG=
201101231100 METAR LMML NIL=
201101231045 METAR LMML 231045Z 27010KT 240V300 9999 FEW040 13/02 Q1018
                        NOSIG=
201101231030 METAR LMML NIL=
201101231015 METAR LMML 231015Z 27010KT 230V310 9999 FEW040 13/04 Q1018
                        NOSIG=
201101231000 METAR LMML NIL=
201101230945 METAR LMML 230945Z 28010KT 240V310 9999 FEW041 13/05 Q1018
                        NOSIG=
201101230930 METAR LMML NIL=
201101230915 METAR LMML 230915Z 26009KT 200V300 9999 FEW042 BKN250 12/04
                        Q1018 NOSIG=
201101230900 METAR LMML NIL=
201101230845 METAR LMML 230845Z 27008KT 200V310 9999 FEW041 BKN250 12/04
                        Q1018 NOSIG=
201101230830 METAR LMML NIL=
201101230815 METAR LMML 230815Z 27008KT 230V310 9999 FEW039 BKN140 11/05
                        Q1018 NOSIG=
201101230800 METAR LMML NIL=
201101230745 METAR LMML 230745Z 27006KT 240V300 9999 FEW048 BKN140 11/05
                        Q1017 NOSIG=
201101230715 METAR LMML 230715Z 28005KT 9999 SCT048 BKN250 10/04 Q1017
                        NOSIG=
201101230700 METAR LMML NIL=
201101230645 METAR LMML 230645Z 27005KT 250V310 9999 SCT041 BKN250 10/04
                        Q1017 NOSIG=
201101230630 METAR LMML NIL=
201101230615 METAR LMML 230615Z 27004KT 9999 BKN049 BKN250 09/04 Q1017
                        NOSIG=
201101230600 METAR LMML NIL=
201101230545 METAR LMML 230545Z 27004KT 240V300 9999 FEW046 SCT120 BKN250
                        09/04 Q1017 NOSIG=
201101230530 METAR LMML NIL=
201101230515 METAR LMML 230515Z 26003KT 9999 FEW027 SCT041 BKN120 09/05
                        Q1016 NOSIG=
201101230500 METAR LMML NIL=
201101230445 METAR LMML 230445Z 25007KT 220V300 9999 -RA FEW027 SCT040
                        10/06 Q1016 NOSIG=
201101230430 METAR LMML NIL=
201101230415 METAR LMML 230415Z 28005KT 250V320 9999 FEW033 SCT070 10/05
                        Q1016 NOSIG=
201101230400 METAR LMML NIL=
201101230345 METAR LMML 230345Z 28007KT 240V300 9999 FEW036 SCT070 10/05
                        Q1016 NOSIG=
201101230315 METAR LMML 230315Z 28006KT 9999 FEW037 SCT070 10/05 Q1016
                        NOSIG=
201101230245 METAR LMML 230245Z 28006KT 9999 FEW034 SCT070 10/05 Q1016
                        NOSIG=
201101230230 METAR LMML NIL=
201101230215 METAR LMML 230215Z 29006KT 9999 FEW034 09/06 Q1016 NOSIG=
201101230200 METAR LMML NIL=
201101230145 METAR LMML 230145Z 28008KT 9999 FEW035 10/05 Q1016 NOSIG=
201101230130 METAR LMML NIL=
201101230115 METAR LMML 230115Z 26007KT 230V290 9999 FEW035 09/04 Q1016
                        NOSIG=
201101230100 METAR LMML NIL=
201101230045 METAR LMML 230045Z 26005KT 230V290 9999 FEW035 SCT250 09/04
                        Q1016 NOSIG=
201101230030 METAR LMML NIL=
201101230015 METAR LMML 230015Z 27006KT 9999 FEW035 SCT250 09/05 Q1016
                        NOSIG=
201101230000 METAR LMML NIL=
201101222345 METAR LMML 222345Z 27006KT 240V300 9999 SCT034 09/05 Q1016
                        NOSIG=
201101222330 METAR LMML NIL=
201101222315 METAR LMML 222315Z 27005KT 220V300 9999 SCT035 SCT250 10/07
                        Q1016 NOSIG=
201101222300 METAR LMML NIL=
201101222245 METAR LMML 222245Z 29010KT 9999 -SHRA SCT028 SCT250 10/07
                        Q1016 NOSIG=
201101222230 METAR LMML NIL=
201101222215 METAR LMML 222215Z 25007KT 220V280 9999 FEW034 SCT250 10/04
                        Q1016 NOSIG=
201101222200 METAR LMML NIL=
201101222145 METAR LMML 222145Z 27007KT 230V320 9999 SCT034 SCT250 11/05
                        Q1016 NOSIG=
201101222130 METAR LMML NIL=
201101222115 METAR LMML 222115Z 26007KT 200V290 9999 SCT033 10/05 Q1016
                        NOSIG=
201101222100 METAR LMML NIL=
201101222045 METAR LMML 222045Z 27006KT 240V320 9999 FEW034 10/04 Q1016
                        NOSIG=
201101222030 METAR LMML NIL=
201101222015 METAR LMML 222015Z 27009KT 230V300 9999 FEW036 SCT070 10/05
                        Q1016 NOSIG=
201101222000 METAR LMML NIL=
201101221945 METAR LMML 221945Z 26009KT 200V300 9999 SCT034 11/05 Q1015
                        NOSIG=
201101221930 METAR LMML NIL=
201101221915 METAR LMML 221915Z 27007KT 230V300 9999 SCT035 10/06 Q1015
                        NOSIG=
201101221900 METAR LMML NIL=
201101221845 METAR LMML 221845Z 26010KT 230V300 9999 SCT034 11/05 Q1015
                        NOSIG=
201101221830 METAR LMML NIL=
201101221815 METAR LMML 221815Z 25008KT 210V280 9999 SCT035 11/05 Q1015
                        NOSIG=
201101221800 METAR LMML NIL=
201101221745 METAR LMML 221745Z 26009KT 210V300 9999 SCT032 11/05 Q1015
                        NOSIG=
201101221730 METAR LMML NIL=
201101221715 METAR LMML 221715Z 27009KT 220V300 9999 FEW032 10/05 Q1015
                        NOSIG=
201101221700 METAR LMML NIL=
201101221645 METAR LMML 221645Z 27009KT 240V310 9999 FEW031 11/05 Q1014
                        NOSIG=
201101221630 METAR LMML NIL=
201101221615 METAR LMML 221615Z 27010KT 230V300 9999 FEW032 11/05 Q1014
                        NOSIG=
201101221600 METAR LMML NIL=
201101221545 METAR LMML 221545Z 26011KT 210V290 9999 FEW032 11/04 Q1014
                        NOSIG=
201101221530 METAR LMML NIL=
201101221515 METAR LMML 221515Z 26013KT 230V290 9999 SCT032 11/05 Q1014
                        NOSIG=
201101221500 METAR LMML NIL=
201101221445 METAR LMML 221445Z 25013KT 210V300 9999 FEW034 12/05 Q1013
                        NOSIG=
201101221430 METAR LMML NIL=
201101221415 METAR LMML 221415Z 26016KT 200V290 9999 FEW033 12/04 Q1013
                        NOSIG=
201101221400 METAR LMML NIL=
201101221345 METAR LMML 221345Z 27014KT 220V310 9999 FEW032 12/05 Q1013
                        NOSIG=
201101221330 METAR LMML NIL=
201101221315 METAR LMML 221315Z 26014KT 220V310 9999 SCT032 12/05 Q1013
                        NOSIG=
201101221300 METAR LMML NIL=
201101221245 METAR LMML 221245Z 27015KT 210V310 9999 SCT031 12/05 Q1013
                        NOSIG=
201101221215 METAR LMML 221215Z 26016KT 210V290 9999 SCT030 12/05 Q1013
                        NOSIG=
201101221200 METAR LMML NIL=
201101221145 METAR LMML 221145Z 25015KT 210V290 9999 FEW031 12/05 Q1013
                        NOSIG=
201101221130 METAR LMML NIL=
201101221115 METAR LMML 221115Z 25015KT 220V290 9999 FEW035 12/04 Q1013
                        NOSIG=
201101221100 METAR LMML NIL=
201101221045 METAR LMML 221045Z 25014KT 190V280 9999 FEW035 13/05 Q1013
                        NOSIG=
201101221015 METAR LMML 221015Z 25013KT 200V290 9999 FEW020 13/05 Q1013
                        NOSIG=
201101221000 METAR LMML NIL=
201101220945 METAR LMML 220945Z 24009KT 200V280 9999 FEW020 13/05 Q1013
                        NOSIG=
201101220930 METAR LMML NIL=
201101220915 METAR LMML 220915Z 25009KT 210V290 9999 FEW020 SCT090 12/05
                        Q1013 NOSIG=
201101220900 METAR LMML NIL=
201101220845 METAR LMML 220845Z 26008KT 210V300 9999 FEW020 SCT090 11/05
                        Q1013 NOSIG=
201101220830 METAR LMML NIL=
201101220815 METAR LMML 220815Z 27006KT 250V310 9999 FEW034 12/06 Q1013
                        NOSIG=
201101220800 METAR LMML NIL=
201101220745 METAR LMML 220745Z VRB02KT 9999 FEW034 11/09 Q1012 NOSIG=
201101220730 METAR LMML NIL=
201101220715 METAR LMML 220715Z 31006KT 9999 FEW021 09/08 Q1012 NOSIG=
201101220700 METAR LMML NIL=
201101220645 METAR LMML 220645Z 29004KT 250V320 9999 SCT020 09/07 Q1012
                        NOSIG=
201101220630 METAR LMML NIL=
201101220615 METAR LMML 220615Z 31007KT 9999 FEW019 SCT053 09/08 Q1011
                        NOSIG=
201101220600 METAR LMML NIL=
201101220545 METAR LMML 220545Z 30007KT 9999 FEW019 SCT060 10/09 Q1011
                        NOSIG=
201101220530 METAR LMML NIL=
201101220515 METAR LMML 220515Z 29007KT 250V310 9999 FEW019 SCT070 10/09
                        Q1011 NOSIG=
201101220500 METAR LMML NIL=
201101220445 METAR LMML 220445Z 28003KT 9999 -RA FEW019 BKN040 OVC057
                        09/09 Q1011 RETS NOSIG=
201101220430 METAR LMML NIL=
201101220415 METAR LMML 220415Z VRB02KT 9999 -RA FEW025 BKN047 09/09 Q1011
                        TEMPO 3000 TSRA BKN015CB=
201101220404 SPECI LMML 220404Z 27003KT 9999 -RA FEW025 BKN050 09/09 Q1011
                        TEMPO 3000 TSRA BKN015CB=
201101220400 METAR LMML NIL=
201101220345 METAR LMML 220345Z 30007KT 4000 TSRA SCT015 SCT025 BKN050
                        09/09 Q1011 TEMPO 3000 TSRA BKN015CB=
201101220336 SPECI LMML 220336Z 30008KT 4000 TSRA BKN012CB 09/09 Q1011
                        TEMPO 3000 TSRA BKN015CB=
201101220330 METAR LMML NIL=
201101220315 METAR LMML 220315Z 28012KT 240V310 1500 TSRA FEW009 BKN011CB
                        08/08 Q1012 TEMPO 3000 TSRA BKN015CB=
201101220303 SPECI LMML 220303Z 29012KT 260V320 1500 TSRA SCT009 BKN016CB
                        08/08 Q1012 TEMPO 3000 TSRA BKN015CB=
201101220300 METAR LMML NIL=
201101220245 METAR LMML 220245Z 20008KT 160V260 6000 -TSRA FEW015 SCT021
                        BKN050 13/10 Q1011 TEMPO 3000 TSRA
                        BKN015CB=
201101220230 METAR LMML NIL=
201101220215 METAR LMML 220215Z 18010KT 140V220 9999 -TS FEW015CB SCT024
                        BKN046 13/09 Q1011 TEMPO 8000 SHRA
                        BKN015TCU=
201101220200 METAR LMML NIL=
201101220145 METAR LMML 220145Z 18011KT 150V210 9999 SCT023 BKN100 13/09
                        Q1012 TEMPO 8000 SHRA BKN015TCU=
201101220130 METAR LMML NIL=
201101220115 METAR LMML 220115Z 18006KT 150V210 9999 SCT024 SCT070 12/09
                        Q1012 TEMPO 8000 SHRA BKN015TCU=
201101220100 METAR LMML NIL=
201101220045 METAR LMML 220045Z 18007KT 160V220 9999 FEW025 SCT070 12/08
                        Q1012 TEMPO 8000 SHRA BKN015TCU=
201101220030 METAR LMML NIL=
201101220015 METAR LMML 220015Z 18007KT 150V210 9999 FEW023 BKN100 12/08
                        Q1013 TEMPO 8000 SHRA BKN015TCU=
201101220000 METAR LMML NIL=
201101212345 METAR LMML 212345Z 18005KT 160V220 9999 SCT023 BKN100 12/08
                        Q1013 NOSIG=
201101212330 METAR LMML NIL=
201101212315 METAR LMML 212315Z 19004KT 160V220 9999 FEW037 BKN100 11/08
                        Q1013 NOSIG=
201101212300 METAR LMML NIL=
201101212245 METAR LMML 212245Z 20004KT CAVOK 11/08 Q1013 NOSIG=
201101212230 METAR LMML NIL=
201101212215 METAR LMML 212215Z 20005KT 180V240 CAVOK 11/08 Q1014 NOSIG=
201101212200 METAR LMML NIL=
201101212145 METAR LMML 212145Z 20005KT CAVOK 11/08 Q1014 NOSIG=
201101212130 METAR LMML NIL=
201101212115 METAR LMML 212115Z 21006KT CAVOK 11/07 Q1014 NOSIG=
201101212100 METAR LMML NIL=
201101212045 METAR LMML 212045Z 22004KT 190V260 CAVOK 11/07 Q1014 NOSIG=
201101212030 METAR LMML NIL=
201101212015 METAR LMML 212015Z VRB02KT 9999 FEW025 BKN090 10/07 Q1014
                        NOSIG=
201101212000 METAR LMML NIL=
201101211945 METAR LMML 211945Z 24003KT 9999 FEW025 10/07 Q1014 NOSIG=
201101211930 METAR LMML NIL=
201101211915 METAR LMML 211915Z 24003KT 9999 FEW025 10/07 Q1014 NOSIG=
201101211900 METAR LMML NIL=
201101211845 METAR LMML 211845Z 24004KT 220V280 9999 FEW025 11/07 Q1014
                        NOSIG=
201101211830 METAR LMML NIL=
201101211815 METAR LMML 211815Z 23004KT 9999 FEW025 11/08 Q1014 NOSIG=
201101211800 METAR LMML NIL=
201101211745 METAR LMML 211745Z 24004KT 9999 FEW025 11/08 Q1014 NOSIG=
201101211715 METAR LMML 211715Z 24003KT 9999 FEW025 11/08 Q1014 NOSIG=
201101211700 METAR LMML NIL=
201101211645 METAR LMML 211645Z 24003KT 9999 FEW025 11/08 Q1014 NOSIG=
201101211630 METAR LMML NIL=
201101211615 METAR LMML 211615Z VRB02KT 9999 FEW025 12/08 Q1013 NOSIG=
201101211600 METAR LMML NIL=
201101211545 METAR LMML 211545Z 27004KT 230V300 9999 FEW025 12/08 Q1014
                        NOSIG=
201101211530 METAR LMML NIL=
201101211515 METAR LMML 211515Z 28007KT 250V320 9999 FEW026 13/07 Q1014
                        NOSIG=
201101211500 METAR LMML NIL=
201101211445 METAR LMML 211445Z 28008KT 9999 SCT027 13/08 Q1014 NOSIG=
201101211430 METAR LMML NIL=
201101211415 METAR LMML 211415Z 26008KT 220V300 9999 SCT027 14/08 Q1014
                        NOSIG=
201101211400 METAR LMML NIL=
201101211345 METAR LMML 211345Z 28009KT 240V320 9999 SCT029 14/08 Q1013
                        NOSIG=
201101211330 METAR LMML NIL=
201101211315 METAR LMML 211315Z 28008KT 240V300 9999 FEW029 14/08 Q1013
                        NOSIG=
201101211300 METAR LMML NIL=
201101211245 METAR LMML 211245Z 26007KT 210V310 9999 FEW029 14/07 Q1014
                        NOSIG=
201101211230 METAR LMML NIL=
201101211215 METAR LMML 211215Z 28008KT 240V310 9999 FEW029 SCT120 15/07
                        Q1014 NOSIG=
201101211145 METAR LMML 211145Z 28006KT 240V320 9999 FEW034 BKN120 14/08
                        Q1014 NOSIG=
201101211130 METAR LMML NIL=
201101211115 METAR LMML 211115Z 29007KT 230V340 9999 FEW034 14/07 Q1014
                        NOSIG=
201101211100 METAR LMML NIL=
201101211045 METAR LMML 211045Z 28009KT 250V320 9999 FEW034 14/06 Q1015
                        NOSIG=
201101211030 METAR LMML NIL=
201101211015 METAR LMML 211015Z 29008KT 250V310 9999 FEW034 14/07 Q1015
                        NOSIG=
201101211000 METAR LMML NIL=
201101210945 METAR LMML 210945Z 28008KT 240V310 9999 FEW032 14/07 Q1015
                        NOSIG=
201101210930 METAR LMML NIL=
201101210915 METAR LMML 210915Z 29007KT 250V320 9999 FEW032 14/07 Q1015
                        NOSIG=
201101210900 METAR LMML NIL=
201101210845 METAR LMML 210845Z 29005KT 250V320 9999 FEW032 13/08 Q1015
                        NOSIG=
201101210830 METAR LMML NIL=
201101210815 METAR LMML 210815Z 27003KT 9999 FEW031 13/08 Q1015 NOSIG=
201101210800 METAR LMML NIL=
201101210745 METAR LMML 210745Z 28004KT 250V310 9999 FEW026 12/08 Q1015
                        NOSIG=
201101210730 METAR LMML NIL=
201101210715 METAR LMML 210715Z 29006KT 9999 FEW026 11/08 Q1014 NOSIG=
201101210700 METAR LMML NIL=
201101210645 METAR LMML 210645Z 28004KT 240V300 9999 FEW026 10/08 Q1014
                        NOSIG=
201101210630 METAR LMML NIL=
201101210615 METAR LMML 210615Z 26003KT 9999 FEW026 SCT034 10/10 Q1014
                        NOSIG=
201101210600 METAR LMML NIL=
201101210545 METAR LMML 210545Z VRB02KT 9999 FEW024 SCT070 10/10 Q1014
                        NOSIG=
201101210530 METAR LMML NIL=
201101210515 METAR LMML 210515Z VRB01KT 9999 FEW021 BKN050 10/10 Q1014
                        NOSIG=
201101210500 METAR LMML NIL=
201101210445 METAR LMML 210445Z VRB02KT 9999 FEW018 BKN060 10/10 Q1014
                        NOSIG=
201101210430 METAR LMML NIL=
201101210415 METAR LMML 210415Z 00000KT 9999 FEW033 BKN063 10/10 Q1014
                        NOSIG=
201101210400 METAR LMML NIL=
201101210345 METAR LMML 210345Z VRB02KT 9999 FEW024 BKN060 11/10 Q1014
                        NOSIG=
201101210330 METAR LMML NIL=
201101210315 METAR LMML 210315Z VRB02KT 9999 -RA FEW039 BKN060 11/10 Q1014
                        NOSIG=
201101210300 METAR LMML NIL=
201101210245 METAR LMML 210245Z 21004KT 180V250 9999 FEW045 BKN070 10/10
                        Q1014 NOSIG=
201101210230 METAR LMML NIL=
201101210215 METAR LMML 210215Z 22004KT 9999 FEW030 SCT060 10/09 Q1014
                        NOSIG=
201101210200 METAR LMML NIL=
201101210145 METAR LMML 210145Z 20004KT 9999 SCT028 BKN060 10/09 Q1014
                        NOSIG=
201101210130 METAR LMML NIL=
201101210115 METAR LMML 210115Z 21003KT 9999 SCT038 BKN060 10/09 Q1014
                        RETSRA NOSIG=
201101210100 METAR LMML NIL=
201101210045 METAR LMML 210045Z 21003KT 9999 TSRA BKN020CB BKN060 10/09
                        Q1015 TEMPO 7000=
201101210030 METAR LMML NIL=
201101210015 METAR LMML 210015Z 28006KT 240V310 9999 TSRA BKN020CB BKN060
                        10/09 Q1015 TEMPO 7000=
201101210000 METAR LMML NIL=
201101202345 METAR LMML 202345Z 19006KT 160V230 9999 TSRA FEW009 BKN015CB
                        BKN060 11/10 Q1014 TEMPO 7000=
201101202332 SPECI LMML 202332Z 19009KT 9999 TSRA FEW009 SCT015CB BKN060
                        11/10 Q1014 TEMPO 7000 TSRA BKN015CB=
201101202330 METAR LMML NIL=
201101202315 METAR LMML 202315Z 19006KT 9999 RA FEW008 SCT021 BKN060 13/11
                        Q1015 TEMPO 7000 TSRA BKN015CB=
201101202300 METAR LMML NIL=
201101202245 METAR LMML 202245Z 18003KT 9999 FEW027 BKN050 13/10 Q1015
                        TEMPO 7000 TSRA BKN015CB RMK LIGHTNING
                        TO SW=
201101202230 METAR LMML NIL=
201101202215 METAR LMML 202215Z 19003KT 9999 BKN037 SCT100 13/09 Q1015
                        TEMPO 7000 TSRA BKN015CB=
201101202200 METAR LMML NIL=
201101202145 METAR LMML 202145Z VRB02KT 9999 BKN041 SCT100 13/09 Q1015
                        TEMPO 7000 TSRA BKN015CB=
201101202115 METAR LMML 202115Z VRB02KT 9999 BKN041 SCT120 13/09 Q1015
                        NOSIG RMK LIGHTNING TO WEST=
201101202045 METAR LMML 202045Z 21004KT 9999 FEW035 BKN045 13/09 Q1015
                        NOSIG=
201101202030 METAR LMML NIL=
201101202015 METAR LMML 202015Z 22003KT 9999 FEW042 SCT060 BKN120 12/09
                        Q1015 NOSIG=
201101201945 METAR LMML 201945Z VRB02KT 9999 FEW042 BKN060 12/09 Q1015
                        NOSIG=
201101201930 METAR LMML NIL=
201101201915 METAR LMML 201915Z VRB01KT CAVOK 12/08 Q1015 NOSIG=
201101201900 METAR LMML NIL=
201101201845 METAR LMML 201845Z 22003KT CAVOK 12/08 Q1015 NOSIG=
201101201830 METAR LMML NIL=
201101201815 METAR LMML 201815Z 23003KT CAVOK 12/08 Q1015 NOSIG=
201101201800 METAR LMML NIL=
201101201745 METAR LMML 201745Z VRB02KT CAVOK 13/08 Q1015 NOSIG=
201101201730 METAR LMML NIL=
201101201715 METAR LMML 201715Z 23003KT CAVOK 13/08 Q1015 NOSIG=
201101201700 METAR LMML NIL=
201101201645 METAR LMML 201645Z VRB01KT CAVOK 13/08 Q1015 NOSIG=
201101201630 METAR LMML NIL=
201101201615 METAR LMML 201615Z VRB02KT CAVOK 13/08 Q1015 NOSIG=
201101201600 METAR LMML NIL=
201101201545 METAR LMML 201545Z 24003KT 9999 FEW045 SCT120 BKN250 13/08
                        Q1015 NOSIG=
201101201530 METAR LMML NIL=
201101201515 METAR LMML 201515Z 25004KT 210V280 9999 FEW045 SCT120 BKN250
                        14/08 Q1015 NOSIG=
201101201500 METAR LMML NIL=
201101201445 METAR LMML 201445Z 26006KT 230V300 9999 FEW047 SCT120 BKN250
                        15/08 Q1015 NOSIG=
201101201430 METAR LMML NIL=
201101201415 METAR LMML 201415Z 25007KT 210V290 9999 FEW031 SCT250 15/08
                        Q1015 NOSIG=
201101201400 METAR LMML NIL=
201101201345 METAR LMML 201345Z 24006KT 210V310 9999 FEW031 SCT060 BKN250
                        15/08 Q1016 NOSIG=
201101201330 METAR LMML NIL=
201101201315 METAR LMML 201315Z 26007KT 200V300 9999 FEW031 SCT060 BKN250
                        15/07 Q1016 NOSIG=
201101201300 METAR LMML NIL=
201101201245 METAR LMML 201245Z 26007KT 230V310 9999 FEW031 SCT060 15/07
                        Q1016 NOSIG=
201101201230 METAR LMML NIL=
201101201215 METAR LMML 201215Z 23006KT 200V270 9999 FEW031 BKN250 16/09
                        Q1016 NOSIG=
201101201200 METAR LMML NIL=
201101201145 METAR LMML 201145Z 24004KT 190V280 9999 FEW030 BKN250 16/08
                        Q1016 NOSIG=
201101201130 METAR LMML NIL=
201101201115 METAR LMML 201115Z VRB01KT 9999 FEW025 SCT050 BKN250 15/09
                        Q1017 NOSIG=
201101201100 METAR LMML NIL=
201101201045 METAR LMML 201045Z 30003KT 9999 FEW024 SCT041 BKN250 14/08
                        Q1017 NOSIG=
201101201030 METAR LMML NIL=
201101201015 METAR LMML 201015Z 32004KT 290V350 9999 FEW026 BKN044 14/09
                        Q1017 NOSIG=
201101201000 METAR LMML NIL=
201101200945 METAR LMML 200945Z 33004KT 300V010 9999 FEW029 BKN045 14/09
                        Q1018 NOSIG=
201101200930 METAR LMML NIL=
201101200915 METAR LMML 200915Z 33005KT 290V350 9999 FEW031 BKN048 13/09
                        Q1018 NOSIG=
201101200900 METAR LMML NIL=
201101200845 METAR LMML 200845Z 33005KT 280V360 9999 FEW030 BKN046 14/09
                        Q1018 NOSIG=
201101200830 METAR LMML NIL=
201101200815 METAR LMML 200815Z VRB02KT 9999 FEW030 BKN045 14/10 Q1017
                        NOSIG=
201101200800 METAR LMML NIL=
201101200745 METAR LMML 200745Z VRB01KT 9999 FEW030 BKN043 13/10 Q1017
                        NOSIG=
201101200730 METAR LMML NIL=
201101200715 METAR LMML 200715Z VRB02KT 9999 FEW030 BKN042 12/09 Q1017
                        NOSIG=
201101200700 METAR LMML NIL=
201101200645 METAR LMML 200645Z 25003KT 9999 FEW030 SCT045 BKN250 10/09
                        Q1017 NOSIG=
201101200630 METAR LMML NIL=
201101200615 METAR LMML 200615Z VRB02KT 9999 FEW030 SCT050 BKN250 10/09
                        Q1017 NOSIG=
201101200600 METAR LMML NIL=
201101200545 METAR LMML 200545Z 30005KT 9999 FEW030 BKN050 11/09 Q1017
                        NOSIG=
201101200530 METAR LMML NIL=
201101200515 METAR LMML 200515Z 29004KT 9999 FEW030 BKN050 11/09 Q1017
                        NOSIG=
201101200500 METAR LMML NIL=
201101200445 METAR LMML 200445Z 30004KT 9999 FEW030 BKN050 11/09 Q1017
                        NOSIG=
201101200430 METAR LMML NIL=
201101200415 METAR LMML 200415Z 31004KT 9999 FEW030 BKN050 11/09 Q1017
                        NOSIG=
201101200345 METAR LMML 200345Z 30004KT 9999 FEW030 BKN050 12/09 Q1017
                        NOSIG=
201101200330 METAR LMML NIL=
201101200315 METAR LMML 200315Z 30005KT 9999 SCT032 BKN050 12/10 Q1017
                        NOSIG=
201101200300 METAR LMML NIL=
201101200245 METAR LMML 200245Z 30006KT 9999 FEW020 BKN050 12/10 Q1018
                        NOSIG=
201101200230 METAR LMML NIL=
201101200215 METAR LMML 200215Z 29007KT 250V320 9999 -RA SCT019 BKN045
                        12/10 Q1018 NOSIG=
201101200200 METAR LMML NIL=
201101200145 METAR LMML 200145Z 25004KT 210V280 9999 FEW034 BKN051 12/10
                        Q1018 NOSIG=
201101200130 METAR LMML NIL=
201101200115 METAR LMML 200115Z 23004KT 9999 FEW036 BKN050 12/09 Q1018
                        NOSIG=
201101200100 METAR LMML NIL=
201101200045 METAR LMML 200045Z 24005KT 210V270 9999 FEW034 BKN047 12/09
                        Q1018 NOSIG=
201101200030 METAR LMML NIL=
201101200015 METAR LMML 200015Z 24006KT 210V270 9999 FEW025 BKN046 12/09
                        Q1018 NOSIG=
201101200000 METAR LMML NIL=
201101192345 METAR LMML 192345Z 24006KT 220V280 9999 FEW025 SCT045 12/09
                        Q1018 NOSIG=
201101192330 METAR LMML NIL=
201101192315 METAR LMML 192315Z 24006KT 210V280 9999 SCT043 12/09 Q1018
                        NOSIG=
201101192300 METAR LMML NIL=
201101192245 METAR LMML 192245Z 24005KT 200V290 9999 FEW025 BKN043 12/10
                        Q1019 NOSIG=
201101192230 METAR LMML NIL=
201101192215 METAR LMML 192215Z 24006KT 210V280 9999 FEW043 SCT120 12/09
                        Q1019 NOSIG=
201101192200 METAR LMML NIL=
201101192145 METAR LMML 192145Z 24006KT 200V270 9999 FEW043 BKN120 13/10
                        Q1019 NOSIG=
201101192130 METAR LMML NIL=
201101192115 METAR LMML 192115Z 23005KT 200V270 9999 FEW020 BKN120 12/10
                        Q1019 NOSIG=
201101192100 METAR LMML NIL=
201101192045 METAR LMML 192045Z 24003KT 9999 FEW020 BKN120 12/09 Q1019
                        NOSIG=
201101192030 METAR LMML NIL=
201101192015 METAR LMML 192015Z 25005KT 210V300 9999 SCT020 BKN250 13/10
                        Q1019 NOSIG=
201101192000 METAR LMML NIL=
201101191945 METAR LMML 191945Z 22004KT 180V260 9999 FEW020 BKN030 13/10
                        Q1020 NOSIG=
201101191930 METAR LMML NIL=
201101191915 METAR LMML 191915Z 22004KT 200V260 9999 FEW020 BKN030 13/10
                        Q1020 NOSIG=
201101191900 METAR LMML NIL=
201101191845 METAR LMML 191845Z 21003KT 9999 FEW020 BKN041 13/09 Q1020
                        NOSIG=
201101191830 METAR LMML NIL=
201101191815 METAR LMML 191815Z 21003KT 9999 BKN038 12/09 Q1020 NOSIG=
201101191800 METAR LMML NIL=
201101191745 METAR LMML 191745Z 22003KT 9999 SCT037 12/09 Q1020 NOSIG=
201101191730 METAR LMML NIL=
201101191715 METAR LMML 191715Z 22003KT 9999 FEW025 12/08 Q1020 NOSIG=
201101191645 METAR LMML 191645Z 23003KT 9999 FEW025 12/08 Q1020 NOSIG=
201101191630 METAR LMML NIL=
201101191615 METAR LMML 191615Z 23004KT 9999 FEW025 13/09 Q1020 NOSIG=
201101191600 METAR LMML NIL=
201101191545 METAR LMML 191545Z 23004KT 200V280 9999 FEW030 14/08 Q1020
                        NOSIG=
201101191530 METAR LMML NIL=
201101191515 METAR LMML 191515Z 22004KT 190V270 9999 FEW030 15/08 Q1020
                        NOSIG=
201101191500 METAR LMML NIL=
201101191445 METAR LMML 191445Z 22005KT 190V280 9999 FEW030 15/08 Q1020
                        NOSIG=
201101191430 METAR LMML NIL=
201101191415 METAR LMML 191415Z 26004KT 210V320 9999 FEW030 16/09 Q1020
                        NOSIG=
201101191400 METAR LMML NIL=
201101191345 METAR LMML 191345Z 24005KT 200V300 9999 FEW028 16/09 Q1020
                        NOSIG=
201101191330 METAR LMML NIL=
201101191315 METAR LMML 191315Z 27005KT 210V310 9999 SCT029 16/09 Q1020
                        NOSIG=
201101191300 METAR LMML NIL=
201101191245 METAR LMML 191245Z 28006KT 250V310 9999 SCT029 15/08 Q1020
                        NOSIG=
201101191230 METAR LMML NIL=
201101191215 METAR LMML 191215Z 28005KT 220V310 9999 SCT030 16/09 Q1021
                        NOSIG=
201101191200 METAR LMML NIL=
201101191145 METAR LMML 191145Z 28004KT 250V310 9999 FEW024 BKN043 15/08
                        Q1021 NOSIG=
201101191130 METAR LMML NIL=
201101191115 METAR LMML 191115Z 29004KT 240V330 9999 FEW024 BKN046 15/09
                        Q1021 NOSIG=
201101191100 METAR LMML NIL=
201101191045 METAR LMML 191045Z 31004KT 9999 SCT024 BKN045 15/10 Q1022
                        NOSIG=
201101191030 METAR LMML NIL=
201101191015 METAR LMML 191015Z VRB01KT 9999 SCT020 SCT034 15/11 Q1022
                        NOSIG=
201101191000 METAR LMML NIL=
201101190945 METAR LMML 190945Z 32003KT 9999 SCT018 SCT042 14/11 Q1023
                        NOSIG=
201101190930 METAR LMML NIL=
201101190915 METAR LMML 190915Z VRB01KT 9999 FEW025 BKN043 15/11 Q1023
                        NOSIG=
201101190900 METAR LMML NIL=
201101190845 METAR LMML 190845Z VRB01KT 9999 FEW025 BKN045 15/11 Q1023
                        NOSIG=
201101190830 METAR LMML NIL=
201101190815 METAR LMML 190815Z VRB01KT 9999 FEW024 SCT050 14/11 Q1023
                        NOSIG=
201101190800 METAR LMML NIL=
201101190745 METAR LMML 190745Z VRB02KT 9999 FEW026 BKN050 12/11 Q1023
                        NOSIG=
201101190730 METAR LMML NIL=
201101190715 METAR LMML 190715Z VRB01KT 9999 SCT025 BKN050 11/10 Q1023
                        NOSIG=
201101190700 METAR LMML NIL=
201101190645 METAR LMML 190645Z VRB01KT 9999 SCT026 BKN044 11/10 Q1023
                        NOSIG=
201101190630 METAR LMML NIL=
201101190615 METAR LMML 190615Z VRB02KT 9999 SCT019 BKN050 11/10 Q1022
                        NOSIG=
201101190600 METAR LMML NIL=
201101190545 METAR LMML 190545Z 33003KT 9999 SCT020 BKN050 11/10 Q1022
                        NOSIG=
201101190530 METAR LMML NIL=
201101190515 METAR LMML 190515Z 29003KT 9999 BKN021 SCT048 10/09 Q1022
                        NOSIG=
201101190500 METAR LMML NIL=
201101190445 METAR LMML 190445Z VRB02KT 9000 SCT028 BKN045 10/09 Q1022
                        NOSIG=
201101190430 METAR LMML NIL=
201101190415 METAR LMML 190415Z VRB02KT 9000 FEW031 BKN047 09/08 Q1022
                        NOSIG=
201101190400 METAR LMML NIL=
201101190345 METAR LMML 190345Z 22003KT 9000 SCT046 09/09 Q1022 NOSIG=
201101190330 METAR LMML NIL=
201101190315 METAR LMML 190315Z 24003KT 9000 BKN045 10/09 Q1022 NOSIG=
201101190300 METAR LMML NIL=
201101190245 METAR LMML 190245Z 26003KT 9000 BKN043 09/09 Q1023 NOSIG=
201101190230 METAR LMML NIL=
201101190215 METAR LMML 190215Z VRB02KT 9000 FEW029 09/08 Q1023 NOSIG=
201101190200 METAR LMML NIL=
201101190145 METAR LMML 190145Z VRB02KT 9000 SCT028 09/08 Q1023 NOSIG=
201101190130 METAR LMML NIL=
201101190115 METAR LMML 190115Z 27003KT 9000 SCT020 10/09 Q1023 NOSIG=
201101190100 METAR LMML NIL=
201101190045 METAR LMML 190045Z 27003KT 9000 FEW022 10/09 Q1023 NOSIG=
201101190030 METAR LMML NIL=
201101190015 METAR LMML 190015Z 27003KT 9000 FEW022 10/09 Q1023 NOSIG=
201101190000 METAR LMML NIL=
201101182345 METAR LMML 182345Z 28003KT 9000 FEW022 11/10 Q1023 NOSIG=
201101182330 METAR LMML NIL=
201101182315 METAR LMML 182315Z 27005KT 9000 BKN022 11/10 Q1024 NOSIG=
201101182300 METAR LMML NIL=
201101182245 METAR LMML 182245Z 29003KT 9000 SCT018 11/10 Q1024 NOSIG=
201101182230 METAR LMML NIL=
201101182215 METAR LMML 182215Z 26003KT 9000 SCT020 10/10 Q1024 NOSIG=
201101182200 METAR LMML NIL=
201101182145 METAR LMML 182145Z 26003KT 9999 BKN018 10/10 Q1024 NOSIG=
201101182130 METAR LMML NIL=
201101182115 METAR LMML 182115Z VRB01KT 9999 SCT019 SCT250 10/10 Q1024
                        NOSIG=
201101182100 METAR LMML NIL=
201101182045 METAR LMML 182045Z VRB01KT 9999 FEW019 SCT250 10/10 Q1024
                        NOSIG=
201101182030 METAR LMML NIL=
201101182015 METAR LMML 182015Z VRB02KT 9999 FEW019 SCT250 10/10 Q1024
                        NOSIG=
201101182000 METAR LMML NIL=
201101181945 METAR LMML 181945Z VRB01KT 9999 FEW019 BKN250 10/09 Q1024
                        NOSIG=
201101181930 METAR LMML NIL=
201101181915 METAR LMML 181915Z VRB01KT 9999 FEW021 SCT250 11/10 Q1024
                        NOSIG=
201101181900 METAR LMML NIL=
201101181845 METAR LMML 181845Z VRB01KT 9999 BKN020 BKN250 11/10 Q1024
                        NOSIG=
201101181830 METAR LMML NIL=
201101181815 METAR LMML 181815Z VRB01KT 9999 FEW024 BKN250 11/10 Q1024
                        NOSIG=
201101181800 METAR LMML NIL=
201101181745 METAR LMML 181745Z VRB01KT 9999 FEW024 BKN250 12/10 Q1024
                        NOSIG=
201101181730 METAR LMML NIL=
201101181715 METAR LMML 181715Z VRB02KT 9999 FEW023 BKN250 12/10 Q1024
                        NOSIG=
201101181700 METAR LMML NIL=
201101181645 METAR LMML 181645Z 29003KT 9999 FEW022 BKN250 13/10 Q1024
                        NOSIG=
201101181630 METAR LMML NIL=
201101181615 METAR LMML 181615Z 28004KT 9999 FEW022 BKN250 13/10 Q1024
                        NOSIG=
201101181600 METAR LMML NIL=
201101181545 METAR LMML 181545Z 28004KT 9999 FEW022 BKN250 14/10 Q1024
                        NOSIG=
201101181530 METAR LMML NIL=
201101181515 METAR LMML 181515Z 28005KT 260V320 9999 FEW021 BKN250 15/10
                        Q1024 NOSIG=
201101181500 METAR LMML NIL=
201101181445 METAR LMML 181445Z 29005KT 240V330 9999 FEW021 BKN250 15/10
                        Q1023 NOSIG=
201101181430 METAR LMML NIL=
201101181415 METAR LMML 181415Z 29007KT 9999 SCT022 SCT250 14/10 Q1023
                        NOSIG=
201101181345 METAR LMML 181345Z 30006KT 260V320 9999 SCT023 BKN250 15/11
                        Q1024 NOSIG=
201101181330 METAR LMML NIL=
201101181315 METAR LMML 181315Z 26006KT 190V310 9999 SCT025 BKN250 15/10
                        Q1024 NOSIG=
201101181300 METAR LMML NIL=
201101181245 METAR LMML 181245Z 31005KT 9999 SCT026 BKN250 15/11 Q1024
                        NOSIG=
201101181230 METAR LMML NIL=
201101181215 METAR LMML 181215Z 29004KT 260V330 9999 FEW032 BKN250 15/10
                        Q1024 NOSIG=
201101181200 METAR LMML NIL=
201101181145 METAR LMML 181145Z 28004KT 240V310 9999 SCT023 BKN250 15/11
                        Q1024 NOSIG=
201101181130 METAR LMML NIL=
201101181115 METAR LMML 181115Z 28003KT 9999 SCT021 BKN250 15/11 Q1025
                        NOSIG=
201101181100 METAR LMML NIL=
201101181045 METAR LMML 181045Z 30004KT 270V340 9999 SCT017 BKN250 15/11
                        Q1025 NOSIG=
201101181030 METAR LMML NIL=
201101181015 METAR LMML 181015Z VRB02KT 9999 FEW019 SCT042 15/11 Q1025
                        NOSIG=
201101181000 METAR LMML NIL=
201101180945 METAR LMML 180945Z VRB01KT 9999 FEW025 BKN035 BKN250 14/11
                        Q1026 NOSIG=
201101180930 METAR LMML NIL=
201101180915 METAR LMML 180915Z VRB01KT 9999 FEW026 BKN250 14/11 Q1026
                        NOSIG=
201101180900 METAR LMML NIL=
201101180845 METAR LMML 180845Z VRB01KT 8000 FEW015 BKN250 13/12 Q1026
                        NOSIG RMK SMOKE TO NORTH=
201101180830 METAR LMML NIL=
201101180815 METAR LMML 180815Z VRB01KT 8000 SCT015 BKN250 12/11 Q1025
                        TEMPO BKN015 RMK SMOKE TO N AND NE=
201101180800 METAR LMML NIL=
201101180745 METAR LMML 180745Z 00000KT 8000 SCT015 BKN250 11/11 Q1026
                        TEMPO BKN015 RMK SMOKE TO NORTHEAST=
201101180730 METAR LMML NIL=
201101180715 METAR LMML 180715Z VRB01KT 8000 SCT017 BKN250 10/10 Q1025
                        TEMPO BKN015 RMK SMOKE TO NORTH=
201101180700 METAR LMML NIL=
201101180645 METAR LMML 180645Z VRB01KT 9000 SCT018 BKN250 10/09 Q1025
                        BECMG 9999 RMK SMOKE TO NORTH=
201101180630 METAR LMML NIL=
201101180615 METAR LMML 180615Z VRB01KT 9000 SCT018 BKN250 09/09 Q1025
                        BECMG 9999 RMK SMOKE TO NORTH=
201101180600 METAR LMML NIL=
201101180545 METAR LMML 180545Z VRB02KT 9999 SCT017 BKN250 09/09 Q1025
                        NOSIG=
201101180530 METAR LMML NIL=
201101180515 METAR LMML 180515Z 23003KT 9999 FEW016 BKN250 10/10 Q1025
                        NOSIG=
201101180500 METAR LMML NIL=
201101180445 METAR LMML 180445Z 26004KT 9999 FEW016 BKN250 09/09 Q1025
                        NOSIG=
201101180430 METAR LMML NIL=
201101180415 METAR LMML 180415Z 23003KT 9999 FEW016 BKN250 09/09 Q1025
                        NOSIG=
201101180400 METAR LMML NIL=
201101180345 METAR LMML 180345Z VRB02KT 9999 FEW016 BKN250 09/09 Q1025
                        NOSIG=
201101180330 METAR LMML NIL=
201101180315 METAR LMML 180315Z 00000KT 9999 FEW016 BKN250 09/09 Q1025
                        NOSIG=
201101180300 METAR LMML NIL=
201101180245 METAR LMML 180245Z VRB02KT 9999 SCT016 BKN250 09/09 Q1026
                        NOSIG=
201101180230 METAR LMML NIL=
201101180215 METAR LMML 180215Z 26003KT 9999 SCT018 BKN250 10/09 Q1026
                        NOSIG=
201101180200 METAR LMML NIL=
201101180145 METAR LMML 180145Z 24003KT 9999 FEW017 BKN250 10/10 Q1026
                        NOSIG=
201101180130 METAR LMML NIL=
201101180115 METAR LMML 180115Z 25003KT CAVOK 09/09 Q1026 NOSIG=
201101180100 METAR LMML NIL=
201101180045 METAR LMML 180045Z VRB02KT 9999 FEW017 09/08 Q1026 NOSIG=
201101180030 METAR LMML NIL=
201101180015 METAR LMML 180015Z VRB01KT 9999 FEW014 BKN250 09/08 Q1026
                        NOSIG=
201101180000 METAR LMML NIL=
201101172345 METAR LMML 172345Z VRB01KT CAVOK 09/08 Q1026 NOSIG=
201101172330 METAR LMML NIL=
201101172315 METAR LMML 172315Z VRB02KT CAVOK 09/08 Q1027 NOSIG=
201101172300 METAR LMML NIL=
201101172245 METAR LMML 172245Z VRB02KT CAVOK 10/08 Q1027 NOSIG=
201101172230 METAR LMML NIL=
201101172215 METAR LMML 172215Z 16003KT CAVOK 10/07 Q1027 NOSIG=
201101172145 METAR LMML 172145Z 17003KT CAVOK 10/08 Q1027 NOSIG=
201101172130 METAR LMML NIL=
201101172115 METAR LMML 172115Z VRB02KT CAVOK 09/08 Q1027 NOSIG=
201101172100 METAR LMML NIL=
201101172045 METAR LMML 172045Z 16003KT CAVOK 09/07 Q1027 NOSIG=
201101172030 METAR LMML NIL=
201101172015 METAR LMML 172015Z VRB02KT 9999 FEW019 SCT250 09/08 Q1027
                        NOSIG=
201101172000 METAR LMML NIL=
201101171945 METAR LMML 171945Z VRB02KT CAVOK 10/08 Q1027 NOSIG=
201101171930 METAR LMML NIL=
201101171915 METAR LMML 171915Z VRB01KT 9999 FEW019 10/08 Q1027 NOSIG=
201101171900 METAR LMML NIL=
201101171845 METAR LMML 171845Z VRB01KT 9999 FEW019 11/07 Q1027 NOSIG=
201101171830 METAR LMML NIL=
201101171815 METAR LMML 171815Z VRB01KT 9999 FEW019 11/07 Q1027 NOSIG=
201101171800 METAR LMML NIL=
201101171745 METAR LMML 171745Z VRB02KT 9999 FEW020 12/06 Q1027 NOSIG=
201101171730 METAR LMML NIL=
201101171715 METAR LMML 171715Z 12003KT 9999 FEW020 12/06 Q1027 NOSIG=
201101171700 METAR LMML NIL=
201101171645 METAR LMML 171645Z 12003KT 9999 FEW020 12/06 Q1027 NOSIG=
201101171615 METAR LMML 171615Z 11003KT 9999 FEW020 12/06 Q1027 NOSIG=
201101171545 METAR LMML 171545Z 12003KT 9999 SCT020 14/07 Q1027 NOSIG=
201101171515 METAR LMML 171515Z VRB01KT 9999 SCT021 14/10 Q1027 NOSIG=
201101171500 METAR LMML NIL=
201101171445 METAR LMML 171445Z VRB02KT 9999 SCT023 14/10 Q1027 NOSIG=
201101171430 METAR LMML NIL=
201101171415 METAR LMML 171415Z 13003KT 9999 SCT023 14/10 Q1027 NOSIG=
201101171400 METAR LMML NIL=
201101171345 METAR LMML 171345Z 14003KT 9999 SCT023 15/10 Q1027 NOSIG=
201101171330 METAR LMML NIL=
201101171315 METAR LMML 171315Z 13003KT 9999 SCT023 15/10 Q1026 NOSIG=
201101171245 METAR LMML 171245Z 18003KT 9999 SCT023 15/10 Q1027 NOSIG=
201101171230 METAR LMML NIL=
201101171215 METAR LMML 171215Z VRB02KT 9999 FEW025 16/11 Q1027 NOSIG=
201101171145 METAR LMML 171145Z 12003KT 9999 FEW024 15/11 Q1027 NOSIG=
201101171130 METAR LMML NIL=
201101171115 METAR LMML 171115Z 11004KT 080V140 9999 FEW022 16/10 Q1028
                        NOSIG=
201101171100 METAR LMML NIL=
201101171045 METAR LMML 171045Z VRB01KT 9999 FEW022 17/10 Q1028 NOSIG=
201101171030 METAR LMML NIL=
201101171015 METAR LMML 171015Z VRB02KT 9999 FEW021 16/11 Q1028 NOSIG=
201101171000 METAR LMML NIL=
201101170945 METAR LMML 170945Z VRB02KT 9999 FEW021 16/11 Q1028 NOSIG=
201101170930 METAR LMML NIL=
201101170915 METAR LMML 170915Z VRB02KT 9999 FEW015 16/11 Q1028 NOSIG=
201101170900 METAR LMML NIL=
201101170845 METAR LMML 170845Z VRB02KT 9999 FEW015 15/10 Q1028 NOSIG=
201101170830 METAR LMML NIL=
201101170815 METAR LMML 170815Z VRB01KT 9999 FEW015 15/12 Q1028 NOSIG=
201101170745 METAR LMML 170745Z VRB02KT 9999 FEW015 13/11 Q1028 NOSIG=
201101170730 METAR LMML NIL=
201101170715 METAR LMML 170715Z VRB02KT 9999 FEW015 11/09 Q1028 NOSIG=
201101170700 METAR LMML NIL=
201101170645 METAR LMML 170645Z VRB02KT 9999 FEW015 09/08 Q1028 NOSIG=
201101170630 METAR LMML NIL=
201101170615 METAR LMML 170615Z 16003KT 9999 FEW015 08/08 Q1028 NOSIG=
201101170600 METAR LMML NIL=
201101170545 METAR LMML 170545Z VRB02KT 9999 FEW015 09/08 Q1028 NOSIG=
201101170530 METAR LMML NIL=
201101170515 METAR LMML 170515Z VRB01KT 9999 FEW015 08/08 Q1027 NOSIG=
201101170500 METAR LMML NIL=
201101170445 METAR LMML 170445Z VRB01KT 9999 FEW015 09/09 Q1027 NOSIG=
201101170430 METAR LMML NIL=
201101170415 METAR LMML 170415Z VRB01KT 9999 FEW015 09/08 Q1027 NOSIG=
201101170345 METAR LMML 170345Z VRB01KT 9999 FEW015 09/09 Q1027 NOSIG=
201101170315 METAR LMML 170315Z VRB01KT 9999 FEW015 09/09 Q1027 NOSIG=
201101170300 METAR LMML NIL=
201101170245 METAR LMML 170245Z VRB01KT 9999 FEW015 09/09 Q1027 NOSIG=
201101170230 METAR LMML NIL=
201101170215 METAR LMML 170215Z VRB02KT 9999 FEW015 10/09 Q1027 NOSIG=
201101170200 METAR LMML NIL=
201101170145 METAR LMML 170145Z VRB02KT 9999 FEW015 10/09 Q1027 NOSIG=
201101170130 METAR LMML NIL=
201101170115 METAR LMML 170115Z VRB02KT 9999 FEW015 10/10 Q1027 NOSIG=
201101170100 METAR LMML NIL=
201101170045 METAR LMML 170045Z 27003KT 9999 FEW015 10/09 Q1027 NOSIG=
201101170015 METAR LMML 170015Z VRB01KT 9999 FEW015 09/09 Q1027 NOSIG=
201101170000 METAR LMML NIL=
201101162345 METAR LMML 162345Z VRB02KT 9999 FEW015 10/09 Q1027 NOSIG=
201101162315 METAR LMML 162315Z VRB02KT 9999 FEW015 10/10 Q1027 NOSIG=
201101162245 METAR LMML 162245Z VRB02KT 9999 FEW015 10/10 Q1027 NOSIG=
201101162215 METAR LMML 162215Z VRB02KT 9999 FEW015 10/10 Q1027 NOSIG=
201101162145 METAR LMML 162145Z VRB02KT 9999 FEW015 10/10 Q1027 NOSIG=
201101162115 METAR LMML 162115Z 31004KT 9999 FEW015 11/10 Q1027 NOSIG=
201101162045 METAR LMML 162045Z 29003KT 9999 FEW015 11/10 Q1027 NOSIG=
201101162030 METAR LMML NIL=
201101162015 METAR LMML 162015Z 32003KT CAVOK 11/10 Q1027 NOSIG=
201101162000 METAR LMML NIL=
201101161945 METAR LMML 161945Z 34003KT CAVOK 10/09 Q1027 NOSIG=
201101161930 METAR LMML NIL=
201101161915 METAR LMML 161915Z VRB01KT CAVOK 11/09 Q1027 NOSIG=
201101161900 METAR LMML NIL=
201101161845 METAR LMML 161845Z 30003KT CAVOK 11/09 Q1027 NOSIG=
201101161830 METAR LMML NIL=
201101161815 METAR LMML 161815Z 27003KT CAVOK 12/10 Q1027 NOSIG=
201101161800 METAR LMML NIL=
201101161745 METAR LMML 161745Z 26005KT 230V290 CAVOK 12/10 Q1026 NOSIG=
201101161715 METAR LMML 161715Z 29004KT 260V330 CAVOK 12/09 Q1026 NOSIG=
201101161700 METAR LMML NIL=
201101161645 METAR LMML 161645Z 26005KT CAVOK 12/10 Q1026 NOSIG=
201101161630 METAR LMML NIL=
201101161615 METAR LMML 161615Z 27004KT CAVOK 13/10 Q1026 NOSIG=
201101161600 METAR LMML NIL=
201101161545 METAR LMML 161545Z 28005KT 9999 FEW026 14/10 Q1026 NOSIG=
201101161530 METAR LMML NIL=
201101161515 METAR LMML 161515Z 27003KT 9999 FEW026 16/10 Q1026 NOSIG=
201101161500 METAR LMML NIL=
201101161445 METAR LMML 161445Z 24004KT 200V270 9999 FEW026 16/10 Q1026
                        NOSIG=
201101161430 METAR LMML NIL=
201101161415 METAR LMML 161415Z 23004KT 190V270 CAVOK 16/10 Q1026 NOSIG=
201101161400 METAR LMML NIL=
201101161345 METAR LMML 161345Z 25004KT 140V300 9999 FEW026 17/10 Q1026
                        NOSIG=
201101161330 METAR LMML NIL=
201101161315 METAR LMML 161315Z 17003KT 9999 FEW026 17/11 Q1026 NOSIG=
201101161300 METAR LMML NIL=
201101161245 METAR LMML 161245Z 02003KT 9999 FEW028 18/07 Q1026 NOSIG=
201101161230 METAR LMML NIL=
201101161215 METAR LMML 161215Z VRB01KT 9999 FEW027 18/09 Q1026 NOSIG=
201101161200 METAR LMML NIL=
201101161145 METAR LMML 161145Z VRB01KT 9999 FEW029 16/09 Q1027 NOSIG=
201101161130 METAR LMML NIL=
201101161115 METAR LMML 161115Z VRB02KT 9999 FEW027 16/10 Q1027 NOSIG=
201101161100 METAR LMML NIL=
201101161045 METAR LMML 161045Z VRB02KT 9999 FEW024 16/10 Q1027 NOSIG=
201101161030 METAR LMML NIL=
201101161015 METAR LMML 161015Z VRB02KT 9999 FEW023 18/10 Q1027 NOSIG=
201101161000 METAR LMML NIL=
201101160945 METAR LMML 160945Z 10003KT 9999 FEW021 15/10 Q1027 NOSIG=
201101160930 METAR LMML NIL=
201101160915 METAR LMML 160915Z 12004KT 060V150 9999 FEW021 15/11 Q1027
                        NOSIG=
201101160900 METAR LMML NIL=
201101160845 METAR LMML 160845Z 09003KT 9999 FEW026 15/10 Q1027 NOSIG=
201101160830 METAR LMML NIL=
201101160815 METAR LMML 160815Z 08003KT 9999 FEW026 15/11 Q1027 NOSIG=
201101160800 METAR LMML NIL=
201101160745 METAR LMML 160745Z 08003KT 9999 FEW026 14/10 Q1027 NOSIG=
201101160730 METAR LMML NIL=
201101160715 METAR LMML 160715Z VRB02KT 9999 FEW026 12/10 Q1026 NOSIG=
201101160700 METAR LMML NIL=
201101160645 METAR LMML 160645Z VRB02KT 9999 FEW024 10/10 Q1026 NOSIG=
201101160630 METAR LMML NIL=
201101160615 METAR LMML 160615Z VRB02KT 9999 SCT025 10/10 Q1026 NOSIG=
201101160600 METAR LMML NIL=
201101160545 METAR LMML 160545Z 11003KT 9999 SCT020 11/10 Q1025 NOSIG=
201101160530 METAR LMML NIL=
201101160515 METAR LMML 160515Z 08003KT 9999 BKN014 10/10 Q1025 NOSIG=
201101160500 METAR LMML NIL=
201101160445 METAR LMML 160445Z 11003KT 9999 BKN015 10/10 Q1025 NOSIG=
201101160430 METAR LMML NIL=
201101160415 METAR LMML 160415Z 14003KT 9999 SCT014 11/10 Q1024 NOSIG=
201101160400 METAR LMML NIL=
201101160345 METAR LMML 160345Z 14003KT 9999 BKN018 11/10 Q1024 NOSIG=
201101160330 METAR LMML NIL=
201101160315 METAR LMML 160315Z VRB02KT 9999 FEW018 11/10 Q1025 NOSIG=
201101160300 METAR LMML NIL=
201101160245 METAR LMML 160245Z 10003KT 9999 FEW020 11/10 Q1025 NOSIG=
201101160230 METAR LMML NIL=
201101160215 METAR LMML 160215Z VRB01KT 9999 FEW013 11/10 Q1025 NOSIG=
201101160200 METAR LMML NIL=
201101160145 METAR LMML 160145Z VRB01KT 9999 FEW027 12/11 Q1025 NOSIG=
201101160130 METAR LMML NIL=
201101160115 METAR LMML 160115Z VRB02KT 9999 FEW027 12/11 Q1025 NOSIG=
201101160100 METAR LMML NIL=
201101160045 METAR LMML 160045Z 02005KT 9999 FEW013 BKN025 13/11 Q1025
                        NOSIG=
201101160030 METAR LMML NIL=
201101160015 METAR LMML 160015Z 33006KT 9999 FEW012 BKN021 13/12 Q1024
                        NOSIG=
201101160000 METAR LMML NIL=
201101152345 METAR LMML 152345Z 33008KT 9999 FEW010 BKN020 13/12 Q1024
                        BECMG SCT010=
201101152330 METAR LMML NIL=
201101152315 METAR LMML 152315Z 34012KT 9999 BKN010 13/12 Q1025 BECMG
                        SCT010=
201101152300 METAR LMML NIL=
201101152245 METAR LMML 152245Z 33010KT 9999 BKN011 13/12 Q1025 BECMG
                        SCT010=
201101152230 METAR LMML NIL=
201101152215 METAR LMML 152215Z 32011KT 9999 FEW011 12/12 Q1024 TEMPO
                        BKN011=
201101152200 METAR LMML NIL=
201101152145 METAR LMML 152145Z 32009KT 9999 FEW011 12/12 Q1024 TEMPO
                        BKN011=
201101152130 METAR LMML NIL=
201101152115 METAR LMML 152115Z 31011KT 9999 FEW011 13/12 Q1024 TEMPO
                        BKN011=
201101152100 METAR LMML NIL=
201101152045 METAR LMML 152045Z 31012KT 9999 SCT011 13/12 Q1024 NOSIG=
201101152030 METAR LMML NIL=
201101152015 METAR LMML 152015Z 31014KT 9999 FEW011 13/12 Q1024 NOSIG=
201101152000 METAR LMML NIL=
201101151945 METAR LMML 151945Z 31011KT 9999 FEW012 13/12 Q1024 NOSIG=
201101151930 METAR LMML NIL=
201101151915 METAR LMML 151915Z 31009KT 270V340 9999 FEW012 13/12 Q1024
                        NOSIG=
201101151900 METAR LMML NIL=
201101151845 METAR LMML 151845Z 29009KT 250V320 CAVOK 13/12 Q1024 NOSIG=
201101151830 METAR LMML NIL=
201101151815 METAR LMML 151815Z 29010KT 260V320 9999 FEW012 13/11 Q1024
                        NOSIG=
201101151800 METAR LMML NIL=
201101151745 METAR LMML 151745Z 29012KT 260V320 9999 FEW012 13/11 Q1023
                        NOSIG=
201101151730 METAR LMML NIL=
201101151715 METAR LMML 151715Z 29010KT 250V320 9999 FEW012 13/11 Q1023
                        NOSIG=
201101151700 METAR LMML NIL=
201101151645 METAR LMML 151645Z 30010KT 260V330 9999 SCT012 13/11 Q1024
                        NOSIG=
201101151630 METAR LMML NIL=
201101151615 METAR LMML 151615Z 29011KT 250V330 9999 BKN014 13/11 Q1023
                        NOSIG=
201101151600 METAR LMML NIL=
201101151545 METAR LMML 151545Z 29012KT 250V320 9999 BKN015 14/11 Q1024
                        NOSIG=
201101151530 METAR LMML NIL=
201101151515 METAR LMML 151515Z 30014KT 9999 BKN016 14/11 Q1024 NOSIG=
201101151445 METAR LMML 151445Z 30015KT 9999 BKN017 14/11 Q1023 NOSIG=
201101151430 METAR LMML NIL=
201101151415 METAR LMML 151415Z 30014KT 9999 BKN018 15/11 Q1023 NOSIG=
201101151345 METAR LMML 151345Z 29017KT 9999 BKN018 15/11 Q1023 NOSIG=
201101151330 METAR LMML NIL=
201101151315 METAR LMML 151315Z 29011KT 250V330 9999 BKN018 15/11 Q1023
                        NOSIG=
201101151300 METAR LMML NIL=
201101151245 METAR LMML 151245Z 29013KT 250V320 9999 BKN019 15/11 Q1023
                        NOSIG=
201101151230 METAR LMML NIL=
201101151215 METAR LMML 151215Z 28014KT 250V310 9999 BKN019 16/12 Q1023
                        NOSIG=
201101151200 METAR LMML NIL=
201101151145 METAR LMML 151145Z 28016KT 250V310 9999 SCT018 16/12 Q1024
                        NOSIG=
201101151130 METAR LMML NIL=
201101151115 METAR LMML 151115Z 28015KT 9999 SCT017 16/12 Q1024 NOSIG=
201101151100 METAR LMML NIL=
201101151045 METAR LMML 151045Z 28015KT 250V310 9999 SCT019 16/11 Q1024
                        NOSIG=
201101151030 METAR LMML NIL=
201101151015 METAR LMML 151015Z 29013KT 250V320 9999 SCT018 15/12 Q1025
                        NOSIG=
201101150945 METAR LMML 150945Z 29011KT 250V320 9999 SCT018 15/11 Q1025
                        NOSIG=
201101150930 METAR LMML NIL=
201101150915 METAR LMML 150915Z 29009KT 250V320 9999 BKN018 15/12 Q1025
                        NOSIG=
201101150900 METAR LMML NIL=
201101150845 METAR LMML 150845Z 29009KT 240V320 9999 BKN018 15/11 Q1025
                        NOSIG=
201101150830 METAR LMML NIL=
201101150815 METAR LMML 150815Z 29009KT 260V320 9999 BKN017 14/11 Q1025
                        NOSIG=
201101150800 METAR LMML NIL=
201101150745 METAR LMML 150745Z 29007KT 250V310 9999 BKN017 14/11 Q1024
                        NOSIG=
201101150730 METAR LMML NIL=
201101150715 METAR LMML 150715Z 28006KT 240V320 9999 SCT016 13/11 Q1024
                        NOSIG=
201101150700 METAR LMML NIL=
201101150645 METAR LMML 150645Z 29007KT 9999 SCT017 13/11 Q1024 NOSIG=
201101150630 METAR LMML NIL=
201101150615 METAR LMML 150615Z 29008KT 9999 SCT017 12/10 Q1024 TEMPO
                        BKN013=
201101150600 METAR LMML NIL=
201101150545 METAR LMML 150545Z 30008KT 9999 SCT017 12/11 Q1024 TEMPO
                        BKN013=
201101150530 METAR LMML NIL=
201101150515 METAR LMML 150515Z 29008KT 9999 SCT017 12/11 Q1023 TEMPO
                        BKN013=
201101150500 METAR LMML NIL=
201101150445 METAR LMML 150445Z 29009KT 9000 SCT017 12/11 Q1023 TEMPO
                        BKN013=
201101150430 METAR LMML NIL=
201101150415 METAR LMML 150415Z 29007KT 9000 SCT017 12/10 Q1023 TEMPO
                        BKN011=
201101150400 METAR LMML NIL=
201101150345 METAR LMML 150345Z 29008KT 9000 BKN017 12/11 Q1023 TEMPO
                        BKN011=
201101150330 METAR LMML NIL=
201101150315 METAR LMML 150315Z 29006KT 9000 BKN017 12/10 Q1023 TEMPO
                        BKN011=
201101150245 METAR LMML 150245Z 29006KT 9000 BKN017 12/11 Q1023 TEMPO
                        BKN011=
201101150230 METAR LMML NIL=
201101150215 METAR LMML 150215Z 30007KT 9000 SCT017 12/10 Q1023 TEMPO
                        BKN011=
201101150200 METAR LMML NIL=
201101150145 METAR LMML 150145Z 30007KT 9000 FEW016 11/10 Q1023 TEMPO
                        BKN011=
201101150130 METAR LMML NIL=
201101150115 METAR LMML 150115Z 28006KT 9000 FEW016 12/10 Q1023 TEMPO
                        BKN011=
201101150100 METAR LMML NIL=
201101150045 METAR LMML 150045Z 29005KT 9000 FEW015 12/11 Q1024 TEMPO
                        BKN011=
201101150030 METAR LMML NIL=
201101150015 METAR LMML 150015Z 29006KT 9000 SCT014 12/11 Q1023 TEMPO
                        BKN011=
201101150000 METAR LMML NIL=
201101142345 METAR LMML 142345Z 29004KT 9000 SCT013 12/11 Q1023 TEMPO
                        BKN011=
201101142330 METAR LMML NIL=
201101142315 METAR LMML 142315Z 29004KT 9000 SCT012 12/11 Q1023 TEMPO
                        BKN011=
201101142300 METAR LMML NIL=
201101142245 METAR LMML 142245Z 30004KT 270V330 CAVOK 11/11 Q1023 NOSIG=
201101142230 METAR LMML NIL=
201101142215 METAR LMML 142215Z 31003KT CAVOK 12/11 Q1023 NOSIG=
201101142200 METAR LMML NIL=
201101142145 METAR LMML 142145Z 30005KT CAVOK 12/11 Q1023 NOSIG=
201101142130 METAR LMML NIL=
201101142115 METAR LMML 142115Z 31005KT 9999 FEW015 12/10 Q1023 NOSIG=
201101142100 METAR LMML NIL=
201101142045 METAR LMML 142045Z 30004KT 9999 FEW015 12/11 Q1024 NOSIG=
201101142030 METAR LMML NIL=
201101142015 METAR LMML 142015Z 31005KT 9999 FEW015 11/11 Q1023 NOSIG=
201101141945 METAR LMML 141945Z 31007KT 9999 FEW015 12/11 Q1023 NOSIG=
201101141930 METAR LMML NIL=
201101141915 METAR LMML 141915Z 31006KT 9999 FEW017 12/10 Q1023 NOSIG=
201101141900 METAR LMML NIL=
201101141845 METAR LMML 141845Z 31007KT 9999 FEW017 12/11 Q1023 NOSIG=
201101141830 METAR LMML NIL=
201101141815 METAR LMML 141815Z 29006KT 9999 FEW017 12/10 Q1023 NOSIG=
201101141745 METAR LMML 141745Z 30006KT 9999 FEW017 12/10 Q1023 NOSIG=
201101141730 METAR LMML NIL=
201101141715 METAR LMML 141715Z 30006KT 9999 FEW017 12/10 Q1023 NOSIG=
201101141700 METAR LMML NIL=
201101141645 METAR LMML 141645Z 31006KT 9999 FEW017 12/10 Q1023 NOSIG=
201101141630 METAR LMML NIL=
201101141615 METAR LMML 141615Z 30008KT 9999 FEW017 13/10 Q1022 NOSIG=
201101141600 METAR LMML NIL=
201101141545 METAR LMML 141545Z 30008KT 9999 FEW018 14/11 Q1022 NOSIG=
201101141530 METAR LMML NIL=
201101141515 METAR LMML 141515Z 30011KT 270V330 9999 FEW018 14/10 Q1022
                        NOSIG=
201101141500 METAR LMML NIL=
201101141445 METAR LMML 141445Z 30012KT 270V330 9999 FEW019 14/10 Q1022
                        NOSIG=
201101141430 METAR LMML NIL=
201101141415 METAR LMML 141415Z 30013KT 250V320 9999 FEW021 15/11 Q1021
                        NOSIG=
201101141400 METAR LMML NIL=
201101141345 METAR LMML 141345Z 31011KT 9999 FEW020 15/11 Q1021 NOSIG=
201101141330 METAR LMML NIL=
201101141315 METAR LMML 141315Z 30011KT 9999 FEW020 15/11 Q1021 NOSIG=
201101141300 METAR LMML NIL=
201101141245 METAR LMML 141245Z 31011KT 280V340 9999 FEW023 15/10 Q1021
                        NOSIG=
201101141230 METAR LMML NIL=
201101141215 METAR LMML 141215Z 30011KT 9999 FEW025 15/09 Q1021 NOSIG=
201101141200 METAR LMML NIL=
201101141145 METAR LMML 141145Z 30011KT 270V330 9999 FEW025 15/10 Q1022
                        NOSIG=
201101141130 METAR LMML NIL=
201101141115 METAR LMML 141115Z 30010KT 270V330 9999 FEW024 15/09 Q1022
                        NOSIG=
201101141100 METAR LMML NIL=
201101141045 METAR LMML 141045Z 32010KT 9999 FEW024 15/09 Q1022 NOSIG=
201101141030 METAR LMML NIL=
201101141015 METAR LMML 141015Z 32010KT 9999 FEW024 14/09 Q1022 NOSIG=
201101141000 METAR LMML NIL=
201101140945 METAR LMML 140945Z 32011KT 9999 SCT024 14/09 Q1023 NOSIG=
201101140930 METAR LMML NIL=
201101140915 METAR LMML 140915Z 31009KT 9999 SCT024 14/10 Q1023 NOSIG=
201101140900 METAR LMML NIL=
201101140845 METAR LMML 140845Z 31008KT 270V330 9999 FEW025 14/09 Q1022
                        NOSIG=
201101140830 METAR LMML NIL=
201101140815 METAR LMML 140815Z 31007KT 9999 FEW025 13/09 Q1022 NOSIG=
201101140800 METAR LMML NIL=
201101140745 METAR LMML 140745Z 29006KT 250V320 9999 FEW025 12/08 Q1022
                        NOSIG=
201101140730 METAR LMML NIL=
201101140715 METAR LMML 140715Z 29006KT 9999 FEW025 11/08 Q1021 NOSIG=
201101140700 METAR LMML NIL=
201101140645 METAR LMML 140645Z 28006KT 9999 FEW025 10/07 Q1021 NOSIG=
201101140630 METAR LMML NIL=
201101140615 METAR LMML 140615Z 28005KT 250V310 9999 FEW025 09/07 Q1021
                        NOSIG=
201101140600 METAR LMML NIL=
201101140545 METAR LMML 140545Z 29006KT 9999 FEW020 10/07 Q1021 NOSIG=
201101140530 METAR LMML NIL=
201101140515 METAR LMML 140515Z 29005KT 250V320 9999 FEW020 09/07 Q1020
                        NOSIG=
201101140500 METAR LMML NIL=
201101140445 METAR LMML 140445Z 30007KT 9999 FEW020 09/07 Q1020 NOSIG=
201101140415 METAR LMML 140415Z 29007KT 9999 FEW020 10/07 Q1020 NOSIG=
201101140400 METAR LMML NIL=
201101140345 METAR LMML 140345Z 29006KT CAVOK 10/07 Q1020 NOSIG=
201101140330 METAR LMML NIL=
201101140315 METAR LMML 140315Z 28005KT CAVOK 10/07 Q1020 NOSIG=
201101140300 METAR LMML NIL=
201101140245 METAR LMML 140245Z 29006KT CAVOK 10/07 Q1020 NOSIG=
201101140230 METAR LMML NIL=
201101140215 METAR LMML 140215Z 29006KT CAVOK 10/08 Q1020 NOSIG=
201101140200 METAR LMML NIL=
201101140145 METAR LMML 140145Z 29006KT 260V320 CAVOK 10/08 Q1020 NOSIG=
201101140130 METAR LMML NIL=
201101140115 METAR LMML 140115Z 29006KT CAVOK 10/07 Q1020 NOSIG=
201101140100 METAR LMML NIL=
201101140045 METAR LMML 140045Z 29006KT CAVOK 10/07 Q1020 NOSIG=
201101140030 METAR LMML NIL=
201101140015 METAR LMML 140015Z 29006KT CAVOK 10/07 Q1020 NOSIG=
201101132330 METAR LMML NIL=
201101132315 METAR LMML 132315Z 28005KT 250V310 9999 FEW040 10/07 Q1020
                        NOSIG=
201101132300 METAR LMML NIL=
201101132245 METAR LMML 132245Z 29005KT 9999 FEW040 11/07 Q1020 NOSIG=
201101132230 METAR LMML NIL=
201101132215 METAR LMML 132215Z 29006KT CAVOK 11/07 Q1020 NOSIG=
201101132200 METAR LMML NIL=
201101132145 METAR LMML 132145Z 29005KT CAVOK 11/08 Q1020 NOSIG=
201101132130 METAR LMML NIL=
201101132115 METAR LMML 132115Z 28005KT 9999 FEW035 SCT050 11/07 Q1020
                        NOSIG=
201101132100 METAR LMML NIL=
201101132045 METAR LMML 132045Z 27005KT 240V300 9999 FEW034 SCT046 11/07
                        Q1020 NOSIG=
201101132030 METAR LMML NIL=
201101132015 METAR LMML 132015Z 27006KT 240V300 9999 FEW039 11/07 Q1020
                        NOSIG=
201101132000 METAR LMML NIL=
201101131945 METAR LMML 131945Z 27005KT 9999 FEW039 11/07 Q1020 NOSIG=
201101131930 METAR LMML NIL=
201101131915 METAR LMML 131915Z 28005KT 9999 FEW032 11/07 Q1020 NOSIG=
201101131900 METAR LMML NIL=
201101131845 METAR LMML 131845Z 28004KT 9999 FEW032 11/07 Q1020 NOSIG=
201101131830 METAR LMML NIL=
201101131815 METAR LMML 131815Z 28005KT 9999 FEW033 11/07 Q1020 NOSIG=
201101131800 METAR LMML NIL=
201101131745 METAR LMML 131745Z 27004KT 9999 FEW030 10/07 Q1019 NOSIG=
201101131730 METAR LMML NIL=
201101131715 METAR LMML 131715Z VRB02KT 9999 FEW030 10/07 Q1019 NOSIG=
201101131700 METAR LMML NIL=
201101131645 METAR LMML 131645Z VRB02KT 9999 FEW030 11/07 Q1019 NOSIG=
201101131630 METAR LMML NIL=
201101131615 METAR LMML 131615Z 32004KT 280V360 9999 FEW030 12/06 Q1019
                        NOSIG=
201101131600 METAR LMML NIL=
201101131545 METAR LMML 131545Z 32005KT 9999 FEW030 12/06 Q1019 NOSIG=
201101131530 METAR LMML NIL=
201101131515 METAR LMML 131515Z 32008KT 290V350 9999 FEW030 13/06 Q1019
                        NOSIG=
201101131500 METAR LMML NIL=
201101131445 METAR LMML 131445Z 36007KT 9999 FEW031 15/07 Q1018 NOSIG=
201101131430 METAR LMML NIL=
201101131415 METAR LMML 131415Z 36008KT 9999 FEW028 14/08 Q1018 NOSIG=
201101131400 METAR LMML NIL=
201101131345 METAR LMML 131345Z 36009KT 340V040 9999 FEW028 14/08 Q1018
                        NOSIG=
201101131330 METAR LMML NIL=
201101131315 METAR LMML 131315Z 36010KT 9999 FEW028 14/08 Q1018 NOSIG=
201101131300 METAR LMML NIL=
201101131245 METAR LMML 131245Z 02010KT 350V080 9999 FEW028 14/08 Q1018
                        NOSIG=
201101131230 METAR LMML NIL=
201101131215 METAR LMML 131215Z 01009KT 9999 FEW028 15/08 Q1018 NOSIG=
201101131200 METAR LMML NIL=
201101131145 METAR LMML 131145Z 01009KT 9999 FEW025 15/08 Q1018 NOSIG=
201101131130 METAR LMML NIL=
201101131115 METAR LMML 131115Z 36009KT 290V040 9999 FEW025 15/08 Q1018
                        NOSIG=
201101131100 METAR LMML NIL=
201101131045 METAR LMML 131045Z 36010KT 330V030 9999 FEW025 14/08 Q1018
                        NOSIG=
201101131030 METAR LMML NIL=
201101131015 METAR LMML 131015Z 01008KT 340V040 9999 FEW026 14/08 Q1018
                        NOSIG=
201101131000 METAR LMML NIL=
201101130945 METAR LMML 130945Z 36009KT 330V040 9999 FEW027 14/08 Q1019
                        NOSIG=
201101130930 METAR LMML NIL=
201101130915 METAR LMML 130915Z 01009KT 9999 FEW022 14/09 Q1018 NOSIG=
201101130900 METAR LMML NIL=
201101130845 METAR LMML 130845Z 01009KT 9999 FEW022 14/09 Q1019 NOSIG=
201101130830 METAR LMML NIL=
201101130815 METAR LMML 130815Z 01008KT 340V050 9999 FEW022 13/09 Q1018
                        NOSIG=
201101130800 METAR LMML NIL=
201101130745 METAR LMML 130745Z 02009KT 9999 SCT022 12/08 Q1018 NOSIG=
201101130730 METAR LMML NIL=
201101130715 METAR LMML 130715Z 01009KT 9999 SCT020 12/08 Q1018 NOSIG=
201101130700 METAR LMML NIL=
201101130645 METAR LMML 130645Z 01008KT 9999 SCT020 11/09 Q1018 NOSIG=
201101130630 METAR LMML NIL=
201101130615 METAR LMML 130615Z 01008KT 9999 BKN021 11/09 Q1017 NOSIG=
201101130600 METAR LMML NIL=
201101130545 METAR LMML 130545Z 01007KT 350V060 9999 BKN022 11/08 Q1017
                        NOSIG=
201101130530 METAR LMML NIL=
201101130515 METAR LMML 130515Z 01010KT 9999 SCT023 11/08 Q1017 NOSIG=
201101130500 METAR LMML NIL=
201101130445 METAR LMML 130445Z 02011KT 9999 SCT023 11/08 Q1017 NOSIG=
201101130430 METAR LMML NIL=
201101130415 METAR LMML 130415Z 02010G20KT 9999 SCT021 11/08 Q1017 NOSIG=
201101130400 METAR LMML NIL=
201101130345 METAR LMML 130345Z 03014KT 360V060 9999 SCT025 12/07 Q1016
                        NOSIG=
201101130315 METAR LMML 130315Z 02011KT 360V060 9999 SCT024 SCT035 12/08
                        Q1016 NOSIG=
201101130300 METAR LMML NIL=
201101130245 METAR LMML 130245Z 02011KT 9999 SCT023 12/08 Q1016 NOSIG=
201101130230 METAR LMML NIL=
201101130215 METAR LMML 130215Z 02011KT 9999 SCT022 12/09 Q1016 NOSIG=
201101130200 METAR LMML NIL=
201101130145 METAR LMML 130145Z 03011KT 360V060 9999 SCT028 BKN050 12/08
                        Q1016 NOSIG=
201101130130 METAR LMML NIL=
201101130115 METAR LMML 130115Z 03013KT 360V060 9999 SCT028 BKN050 12/07
                        Q1016 NOSIG=
201101130100 METAR LMML NIL=
201101130045 METAR LMML 130045Z 03012KT 9999 SCT025 BKN050 12/08 Q1016
                        NOSIG=
201101130030 METAR LMML NIL=
201101130015 METAR LMML 130015Z 03012KT 9999 SCT025 BKN060 12/08 Q1016
                        NOSIG=
201101130000 METAR LMML NIL=
201101122345 METAR LMML 122345Z 01008KT 340V060 9999 SCT026 BKN060 11/09
                        Q1016 RESHRA NOSIG=
201101122330 METAR LMML NIL=
201101122315 METAR LMML 122315Z 01008KT 9999 SCT036 BKN050 11/08 Q1016
                        NOSIG=
201101122300 METAR LMML NIL=
201101122245 METAR LMML 122245Z 02010KT 9999 SCT019 BKN050 12/10 Q1016
                        NOSIG=
201101122230 METAR LMML NIL=
201101122215 METAR LMML 122215Z 01004KT 340V060 9999 SCT023 BKN050 11/10
                        Q1016 NOSIG=
201101122200 METAR LMML NIL=
201101122145 METAR LMML 122145Z 36004KT 9999 FEW029 SCT050 11/09 Q1016
                        NOSIG=
201101122130 METAR LMML NIL=
201101122115 METAR LMML 122115Z 02006KT 9999 SCT023 12/09 Q1016 NOSIG=
201101122100 METAR LMML NIL=
201101122045 METAR LMML 122045Z 03007KT 010V080 9999 SCT022 12/09 Q1016
                        NOSIG=
201101122030 METAR LMML NIL=
201101122015 METAR LMML 122015Z 04006KT 010V090 9999 FEW025 11/08 Q1016
                        NOSIG=
201101122000 METAR LMML NIL=
201101121945 METAR LMML 121945Z 04006KT 010V070 9999 FEW025 11/07 Q1015
                        NOSIG=
201101121930 METAR LMML NIL=
201101121915 METAR LMML 121915Z 04006KT 9999 SCT023 12/08 Q1015 NOSIG=
201101121900 METAR LMML NIL=
201101121845 METAR LMML 121845Z 03005KT 9999 SCT022 12/09 Q1015 NOSIG=
201101121830 METAR LMML NIL=
201101121815 METAR LMML 121815Z 02005KT 350V050 9999 SCT022 12/09 Q1015
                        NOSIG=
201101121800 METAR LMML NIL=
201101121745 METAR LMML 121745Z 03005KT 360V080 9999 SCT022 SCT070 12/09
                        Q1014 NOSIG=
201101121730 METAR LMML NIL=
201101121715 METAR LMML 121715Z 36005KT 9999 SCT022 SCT070 11/09 Q1014
                        NOSIG=
201101121645 METAR LMML 121645Z 36005KT 9999 FEW023 SCT070 12/09 Q1014
                        NOSIG=
201101121630 METAR LMML NIL=
201101121615 METAR LMML 121615Z 01004KT 9999 FEW023 BKN070 12/09 Q1014
                        NOSIG=
201101121600 METAR LMML NIL=
201101121545 METAR LMML 121545Z 01005KT 9999 FEW020 BKN070 12/09 Q1014
                        NOSIG=
201101121530 METAR LMML NIL=
201101121515 METAR LMML 121515Z 36007KT 9999 FEW021 BKN050 13/10 Q1014
                        BECMG 03010KT=
201101121500 METAR LMML NIL=
201101121445 METAR LMML 121445Z 35006KT 9999 FEW021 BKN050 12/11 Q1013
                        NOSIG=
201101121430 METAR LMML NIL=
201101121415 METAR LMML 121415Z 32004KT 9999 FEW027 SCT050 BKN070 12/11
                        Q1013 NOSIG=
201101121400 METAR LMML NIL=
201101121345 METAR LMML 121345Z 31004KT 9999 -RA SCT020 SCT050 BKN070
                        12/11 Q1013 TEMPO 8000 SHRA FEW010
                        BKN015TCU=
201101121330 METAR LMML NIL=
201101121315 METAR LMML 121315Z 33006KT 8000 -SHRA SCT018TCU SCT045 BKN070
                        13/11 Q1013 TEMPO 8000 SHRA FEW010
                        BKN015TCU=
201101121301 SPECI LMML 121301Z 32010KT 6000 -SHRA SCT018 BKN070 12/10
                        Q1013 TEMPO 8000 SHRA FEW010 BKN015TCU=
201101121300 METAR LMML NIL=
201101121245 METAR LMML 121245Z 32006KT 290V350 9999 -SHRA SCT020 BKN070
                        14/10 Q1013 TEMPO 8000 SHRA FEW010
                        BKN015TCU=
201101121230 METAR LMML NIL=
201101121215 METAR LMML 121215Z 31007KT 9999 SCT017TCU BKN070 14/10 Q1013
                        TEMPO 8000 SHRA FEW010 BKN015TCU=
201101121200 METAR LMML NIL=
201101121145 METAR LMML 121145Z 21003KT 9999 FEW016TCU 14/11 Q1013 TEMPO
                        8000 SHRA FEW010 BKN015TCU=
201101121130 METAR LMML NIL=
201101121115 METAR LMML 121115Z 22003KT 9999 FEW020 14/11 Q1014 TEMPO
                        8000 SHRA FEW010 BKN015TCU=
201101121100 METAR LMML NIL=
201101121045 METAR LMML 121045Z 20003KT 9999 FEW020 SCT070 12/11 Q1014
                        TEMPO 8000 SHRA FEW010 BKN015TCU=
201101121030 METAR LMML NIL=
201101121015 METAR LMML 121015Z 17004KT 9999 -RA FEW020 BKN090 11/10 Q1014
                        TEMPO 8000 SHRA FEW010 BKN015TCU=
201101121000 METAR LMML NIL=
201101120945 METAR LMML 120945Z 19005KT 9999 FEW010 SCT021TCU BKN100 10/09
                        Q1015 RETSRA TEMPO 8000 SHRA FEW010
                        BKN015TCU=
201101120915 METAR LMML 120915Z 18005KT 9000 -TSRA SCT016CB SCT019TCU
                        10/09 Q1015 TEMPO 3000 TSRA SCT008
                        BKN015CB=
201101120900 METAR LMML NIL=
201101120845 METAR LMML 120845Z 06004KT 010V110 9000 -TSRA FEW010 SCT018CB
                        SCT020 10/10 Q1015 TEMPO 3000 TSRA
                        SCT008 BKN015CB=
201101120831 SPECI LMML 120831Z 03004KT 350V090 3000 TSRA FEW010 SCT018CB
                        BKN026 10/09 Q1015 TEMPO 3000 TSRA
                        SCT008 BKN015CB=
201101120815 METAR LMML 120815Z 01007KT 5000 -SHRA FEW010 SCT018CB BKN020
                        11/09 Q1015 TEMPO 3000 TSRA SCT008
                        BKN015CB=
201101120800 METAR LMML NIL=
201101120745 METAR LMML 120745Z 01005KT 9999 FEW010 BKN018TCU BKN070 11/10
                        Q1014 TEMPO 5000 TSRA BKN015CB=
201101120730 METAR LMML NIL=
201101120715 METAR LMML 120715Z 36005KT 9999 FEW010 BKN019 BKN070 11/10
                        Q1014 TEMPO 5000 TSRA BKN015CB=
201101120700 METAR LMML NIL=
201101120645 METAR LMML 120645Z 27006KT 230V310 9000 SCT018 SCT050 BKN070
                        11/10 Q1014 RESHRA TEMPO 3000 TSRA
                        BKN015CB=
201101120630 METAR LMML NIL=
201101120615 METAR LMML 120615Z 25007G20KT 180V020 4000 SHRA BKN017 BKN070
                        11/10 Q1015 TEMPO 3000 TSRA BKN015CB=
201101120600 METAR LMML NIL=
201101120545 METAR LMML 120545Z 34003KT 9999 SCT027 SCT070 BKN120 10/09
                        Q1015 TEMPO 8000 SHRA BKN015=
201101120530 METAR LMML NIL=
201101120515 METAR LMML 120515Z 25003KT 9999 SCT026 SCT050 BKN120 10/09
                        Q1015 TEMPO 8000 SHRA BKN015=
201101120500 METAR LMML NIL=
201101120445 METAR LMML 120445Z 27004KT 240V300 9999 SCT025 BKN120 10/09
                        Q1015 TEMPO 8000 SHRA BKN015=
201101120430 METAR LMML NIL=
201101120415 METAR LMML 120415Z 29005KT 9999 SCT025 BKN120 10/09 Q1015
                        TEMPO 8000 SHRA BKN015=
201101120400 METAR LMML NIL=
201101120345 METAR LMML 120345Z 29010KT 260V320 9999 -SHRA BKN021 10/09
                        Q1016 TEMPO 8000 SHRA BKN015=
201101120330 METAR LMML NIL=
201101120315 METAR LMML 120315Z 31006KT 9999 SCT022 10/09 Q1016 TEMPO
                        8000 SHRA BKN015=
201101120300 METAR LMML NIL=
201101120245 METAR LMML 120245Z 27005KT 250V310 9999 SCT022 11/09 Q1016
                        TEMPO 8000 SHRA BKN015=
201101120230 METAR LMML NIL=
201101120215 METAR LMML 120215Z 27004KT 9999 FEW028 11/08 Q1016 NOSIG=
201101120200 METAR LMML NIL=
201101120145 METAR LMML 120145Z 27006KT 9999 FEW020 11/08 Q1016 NOSIG=
201101120130 METAR LMML NIL=
201101120115 METAR LMML 120115Z 28005KT 250V320 9999 FEW020 11/09 Q1016
                        NOSIG=
201101120100 METAR LMML NIL=
201101120045 METAR LMML 120045Z 28005KT 9999 FEW022 11/09 Q1016 NOSIG=
201101120030 METAR LMML NIL=
201101120015 METAR LMML 120015Z 27004KT 240V300 9999 FEW027 SCT110 11/09
                        Q1017 NOSIG=
201101120000 METAR LMML NIL=
201101112345 METAR LMML 112345Z 29007KT 9999 -RA FEW020 SCT055 11/09 Q1017
                        NOSIG=
201101112330 METAR LMML NIL=
201101112315 METAR LMML 112315Z 28006KT 240V300 9999 -SHRA SCT020 11/09
                        Q1017 NOSIG=
201101112300 METAR LMML NIL=
201101112245 METAR LMML 112245Z 28004KT 9999 FEW022 11/09 Q1017 NOSIG=
201101112230 METAR LMML NIL=
201101112215 METAR LMML 112215Z 30005KT 9999 FEW022 11/09 Q1018 NOSIG=
201101112200 METAR LMML NIL=
201101112145 METAR LMML 112145Z 30006KT 9999 FEW022 11/08 Q1018 NOSIG=
201101112130 METAR LMML NIL=
201101112115 METAR LMML 112115Z 30008KT 9999 FEW022 12/09 Q1018 NOSIG=
201101112100 METAR LMML NIL=
201101112045 METAR LMML 112045Z 30007KT 9999 FEW022 SCT100 12/09 Q1018
                        NOSIG=
201101112030 METAR LMML NIL=
201101112015 METAR LMML 112015Z 30007KT 9999 FEW022 SCT050 SCT100 12/10
                        Q1018 NOSIG=
201101112000 METAR LMML NIL=
201101111945 METAR LMML 111945Z 29007KT 9999 -SHRA FEW037 SCT100 12/10
                        Q1018 NOSIG=
201101111930 METAR LMML NIL=
201101111915 METAR LMML 111915Z 29008KT 260V320 9999 FEW037 SCT100 12/10
                        Q1018 NOSIG=
201101111900 METAR LMML NIL=
201101111845 METAR LMML 111845Z 29007KT 240V320 9999 FEW037 SCT100 12/10
                        Q1018 NOSIG=
201101111830 METAR LMML NIL=
201101111815 METAR LMML 111815Z 31007KT 9999 FEW020 12/09 Q1018 NOSIG=
201101111800 METAR LMML NIL=
201101111745 METAR LMML 111745Z 31007KT 280V340 9999 FEW020 12/09 Q1018
                        NOSIG=
201101111730 METAR LMML NIL=
201101111715 METAR LMML 111715Z 30005KT 9999 SCT021 12/09 Q1018 NOSIG=
201101111700 METAR LMML NIL=
201101111645 METAR LMML 111645Z 31007KT 9999 SCT021 12/09 Q1018 NOSIG=
201101111630 METAR LMML NIL=
201101111615 METAR LMML 111615Z 30009KT 9999 SCT022 13/09 Q1018 NOSIG=
201101111600 METAR LMML NIL=
201101111545 METAR LMML 111545Z 31010KT 9999 SCT021 14/10 Q1018 NOSIG=
201101111530 METAR LMML NIL=
201101111515 METAR LMML 111515Z 31010KT 9999 SCT023 14/09 Q1018 NOSIG=
201101111500 METAR LMML NIL=
201101111445 METAR LMML 111445Z 31012KT 9999 FEW024 15/10 Q1018 NOSIG=
201101111430 METAR LMML NIL=
201101111415 METAR LMML 111415Z 30015KT 9999 FEW024 15/10 Q1018 NOSIG=
201101111400 METAR LMML NIL=
201101111345 METAR LMML 111345Z 30013KT 260V330 9999 SCT021 15/11 Q1018
                        NOSIG=
201101111330 METAR LMML NIL=
201101111315 METAR LMML 111315Z 29012KT 260V320 9999 SCT021 16/11 Q1017
                        NOSIG=
201101111300 METAR LMML NIL=
201101111245 METAR LMML 111245Z 30012KT 9999 SCT022 16/11 Q1017 NOSIG=
201101111230 METAR LMML NIL=
201101111215 METAR LMML 111215Z 30012KT 9999 FEW023 15/11 Q1018 NOSIG=
201101111200 METAR LMML NIL=
201101111145 METAR LMML 111145Z 30011KT 270V340 9999 FEW023 16/11 Q1018
                        NOSIG=
201101111115 METAR LMML 111115Z 31011KT 9999 FEW020 16/11 Q1018 NOSIG=
201101111100 METAR LMML NIL=
201101111045 METAR LMML 111045Z 32010KT 9999 FEW015 16/11 Q1019 NOSIG=
201101111030 METAR LMML NIL=
201101111015 METAR LMML 111015Z 32011KT 9999 FEW015 16/11 Q1019 NOSIG=
201101111000 METAR LMML NIL=
201101110945 METAR LMML 110945Z 31010KT 280V340 9999 FEW015 15/12 Q1019
                        NOSIG=
201101110930 METAR LMML NIL=
201101110915 METAR LMML 110915Z 32009KT 9999 FEW015 15/12 Q1019 NOSIG=
201101110900 METAR LMML NIL=
201101110845 METAR LMML 110845Z 32009KT 9999 FEW022 15/13 Q1019 NOSIG=
201101110830 METAR LMML NIL=
201101110815 METAR LMML 110815Z 32006KT 290V350 9999 FEW022 14/12 Q1019
                        NOSIG=
201101110800 METAR LMML NIL=
201101110745 METAR LMML 110745Z 31005KT 9999 FEW022 13/12 Q1019 NOSIG=
201101110730 METAR LMML NIL=
201101110715 METAR LMML 110715Z 29003KT 9999 FEW022 12/11 Q1019 NOSIG=
201101110700 METAR LMML NIL=
201101110645 METAR COR LMML 110645Z 28004KT 9999 FEW022 11/10 Q1019 NOSIG=
201101110630 METAR LMML NIL=
201101110615 METAR LMML 110615Z 27004KT 9000 FEW022 11/10 Q1018 NOSIG=
201101110600 METAR LMML NIL=
201101110545 METAR LMML 110545Z 28004KT 9000 FEW022 11/11 Q1018 TEMPO
                        BKN010=
201101110530 METAR LMML NIL=
201101110515 METAR LMML 110515Z 28004KT 9000 FEW022 11/11 Q1018 TEMPO
                        BKN010=
201101110500 METAR LMML NIL=
201101110445 METAR LMML 110445Z 30003KT 9000 FEW012 12/11 Q1018 TEMPO
                        BKN010=
201101110430 METAR LMML NIL=
201101110415 METAR LMML 110415Z 30003KT 9000 SCT012 12/11 Q1018 TEMPO
                        BKN010=
201101110400 METAR LMML NIL=
201101110345 METAR LMML 110345Z 28003KT 9999 FEW013 12/12 Q1018 TEMPO
                        6000 BKN005=
201101110330 METAR LMML NIL=
201101110315 METAR LMML 110315Z 31004KT 9999 FEW013 12/12 Q1018 TEMPO
                        6000 BKN005=
201101110300 METAR LMML NIL=
201101110245 METAR LMML 110245Z 26003KT 9999 SCT013 13/12 Q1018 TEMPO
                        6000 BKN005=
201101110230 METAR LMML NIL=
201101110215 METAR LMML 110215Z 24005KT 210V280 9999 FEW013 13/12 Q1019
                        TEMPO 6000 BKN005=
201101110200 METAR LMML NIL=
201101110145 METAR LMML 110145Z 32005KT 280V350 9999 SCT013 SCT250 12/12
                        Q1019 TEMPO 6000 BKN005=
201101110130 METAR LMML NIL=
201101110115 METAR LMML 110115Z 23005KT 190V270 9999 FEW012 SCT250 13/13
                        Q1019 TEMPO 6000 BKN005=
201101110100 METAR LMML NIL=
201101110045 METAR LMML 110045Z 21007KT 180V240 9999 FEW012 SCT250 13/13
                        Q1019 TEMPO 5000 BR BKN004=
201101110030 METAR LMML NIL=
201101110015 METAR LMML 110015Z 20007KT 170V240 CAVOK 13/13 Q1019 TEMPO
                        5000 BR BKN004=
201101110000 METAR LMML NIL=
201101102345 METAR LMML 102345Z 21006KT 170V240 CAVOK 13/13 Q1019 TEMPO
                        5000 BR BKN004=
201101102330 METAR LMML NIL=
201101102315 METAR LMML 102315Z 21006KT 180V240 9000 FEW005 SCT250 13/13
                        Q1019 TEMPO 5000 BR BKN004=
201101102300 METAR LMML NIL=
201101102245 METAR LMML 102245Z 21004KT 170V250 7000 FEW005 SCT250 13/13
                        Q1019 TEMPO 0200 FG BKN001=
201101102230 METAR LMML NIL=
201101102215 METAR LMML 102215Z VRB01KT 7000 FEW002 BKN250 13/13 Q1020
                        TEMPO 0200 FG BKN001=
201101102200 METAR LMML NIL=
201101102145 METAR LMML 102145Z VRB01KT 4000 BR FEW001 BKN250 12/12 Q1020
                        TEMPO 0200 FG BKN001=
201101102130 METAR LMML NIL=
201101102115 METAR LMML 102115Z VRB02KT 4000 R13/0325N BR FEW001 BKN250
                        13/12 Q1020 TEMPO 0200 FG BKN001=
201101102100 METAR LMML NIL=
201101102045 METAR LMML 102045Z VRB02KT 4000 BR FEW001 BKN250 13/13 Q1020
                        TEMPO 0200 FG BKN001=
201101102030 METAR LMML NIL=
201101102015 METAR LMML 102015Z 18003KT 4000 BR FEW001 BKN250 14/13 Q1020
                        TEMPO 0200 FG BKN001=
201101102000 METAR LMML NIL=
201101101945 METAR LMML 101945Z VRB01KT 0200 R13/0250N FG FEW001 BKN250
                        12/12 Q1020 TEMPO FG BKN001=
201101101930 METAR LMML NIL=
201101101915 METAR LMML 101915Z VRB01KT 3000 R13/0114V0508D VCBCFG FEW001
                        BKN250 12/12 Q1020 TEMPO 300 FG BKN001=
201101101900 METAR LMML NIL=
201101101845 METAR LMML 101845Z VRB01KT 4000 R13/0278V1226U VCBCFG FEW001
                        13/13 Q1020 TEMPO 300 FG BKN001 RMK
                        MIST=
201101101830 METAR LMML NIL=
201101101815 METAR LMML 101815Z VRB02KT 6000 R13/0438V0612D FEW001 13/13
                        Q1020 TEMPO 3000 BR BKN001 RMK MIST=
201101101800 METAR LMML NIL=
201101101745 METAR LMML 101745Z VRB01KT 9000 R13/1200D BCFG FEW002 BKN250
                        13/13 Q1020 TEMPO 3000 BR BKN002=
201101101730 METAR LMML NIL=
201101101715 METAR LMML 101715Z VRB01KT 9999 FEW002 BKN250 14/14 Q1020
                        TEMPO 8000=
201101101700 METAR LMML NIL=
201101101645 METAR LMML 101645Z VRB02KT 9999 FEW002 BKN250 15/15 Q1020
                        NOSIG=
201101101630 METAR LMML NIL=
201101101615 METAR LMML 101615Z VRB02KT 9999 SCT002 BKN250 15/15 Q1020
                        TEMPO 9000 BKN002=
201101101545 METAR LMML 101545Z 22004KT 190V250 9999 SCT004 BKN250 15/15
                        Q1020 TEMPO 9000 BKN003=
201101101530 METAR LMML NIL=
201101101515 METAR LMML 101515Z 22005KT 200V270 9999 FEW005 BKN250 16/15
                        Q1020 NOSIG=
201101101500 METAR LMML NIL=
201101101445 METAR LMML 101445Z 21004KT 160V250 9999 FEW005 BKN250 17/14
                        Q1020 NOSIG=
201101101430 METAR LMML NIL=
201101101415 METAR LMML 101415Z 22003KT 9999 FEW005 BKN250 18/12 Q1020
                        NOSIG=
201101101400 METAR LMML NIL=
201101101345 METAR LMML 101345Z 20004KT 160V250 9999 FEW005 BKN250 18/14
                        Q1020 NOSIG=
201101101330 METAR LMML NIL=
201101101315 METAR LMML 101315Z 22004KT 180V270 9999 FEW005 BKN250 18/13
                        Q1020 NOSIG=
201101101300 METAR LMML NIL=
201101101245 METAR LMML 101245Z 23005KT 200V270 9999 FEW005 BKN250 18/13
                        Q1020 NOSIG=
201101101230 METAR LMML NIL=
201101101215 METAR LMML 101215Z 23004KT 150V280 9999 FEW005 BKN250 18/13
                        Q1021 NOSIG=
201101101200 METAR LMML NIL=
201101101145 METAR LMML 101145Z 21004KT 170V250 9999 FEW005 BKN250 18/14
                        Q1021 NOSIG=
201101101115 METAR LMML 101115Z 22004KT 200V260 9999 FEW008 BKN250 18/14
                        Q1021 TEMPO CAVOK=
201101101100 METAR LMML NIL=
201101101045 METAR LMML 101045Z 18004KT 150V220 CAVOK 18/14 Q1021 NOSIG=
201101101030 METAR LMML NIL=
201101101015 METAR LMML 101015Z 17005KT 140V210 CAVOK 18/15 Q1022 NOSIG=
201101101000 METAR LMML NIL=
201101100945 METAR LMML 100945Z 16005KT 140V200 CAVOK 18/15 Q1022 NOSIG=
201101100930 METAR LMML NIL=
201101100915 METAR LMML 100915Z 17005KT 9999 FEW005 SCT250 17/15 Q1023
                        TEMPO CAVOK=
201101100900 METAR LMML NIL=
201101100845 METAR LMML 100845Z 17004KT 140V220 9999 FEW002 SCT250 17/14
                        Q1023 NOSIG=
201101100830 METAR LMML NIL=
201101100815 METAR LMML 100815Z 16004KT CAVOK 16/14 Q1022 NOSIG RMK DISTANT
                        STRATUS BANK TO NE/ E AND S=
201101100800 METAR LMML NIL=
201101100745 METAR LMML 100745Z 18003KT 9999 FEW001 SCT250 15/14 Q1022
                        BECMG CAVOK=
201101100733 SPECI LMML 100733Z 18003KT 9000 MIFG FEW001 BKN250 15/14
                        Q1022 BECMG 9999=
201101100730 METAR LMML NIL=
201101100715 METAR LMML 100715Z 17003KT 0100 R13/P1500N FG SCT001 SCT250
                        14/14 Q1022 BECMG 0500 FG BKN001=
201101100700 METAR LMML NIL=
201101100645 METAR LMML 100645Z VRB01KT 9999 0200E R13/P1500N FG FEW001
                        SCT250 11/11 Q1022 NOSIG=
201101100630 METAR LMML NIL=
201101100615 METAR LMML 100615Z 17003KT 9999 MIFG NSC 12/11 Q1022 NOSIG=
201101100600 METAR LMML NIL=
201101100545 METAR LMML 100545Z 19004KT CAVOK 13/12 Q1022 NOSIG=
201101100530 METAR LMML NIL=
201101100515 METAR LMML 100515Z 20004KT CAVOK 13/13 Q1022 NOSIG=
201101100445 METAR LMML 100445Z 20004KT CAVOK 13/13 Q1022 NOSIG=
201101100430 METAR LMML NIL=
201101100415 METAR LMML 100415Z 20004KT CAVOK 13/13 Q1022 NOSIG=
201101100400 METAR LMML NIL=
201101100345 METAR LMML 100345Z 19003KT CAVOK 13/13 Q1022 NOSIG=
201101100330 METAR LMML NIL=
201101100315 METAR LMML 100315Z 20004KT CAVOK 13/13 Q1022 TEMPO 5000 BR=
201101100245 METAR LMML 100245Z 18004KT 9000 FEW006 BKN250 13/13 Q1022
                        TEMPO 5000 BR=
201101100230 METAR LMML NIL=
201101100215 METAR LMML 100215Z 18003KT 9000 MIFG FEW006 SCT250 13/13
                        Q1022 TEMPO 5000 BR=
201101100200 METAR LMML NIL=
201101100145 METAR LMML 100145Z 19003KT CAVOK 13/13 Q1022 TEMPO 5000 BR=
201101100130 METAR LMML NIL=
201101100115 METAR LMML 100115Z 20003KT 9999 FEW001 SCT250 13/13 Q1023
                        TEMPO 5000 BR BKN005=
201101100100 METAR LMML NIL=
201101100045 METAR LMML 100045Z 19003KT CAVOK 13/13 Q1023 TEMPO 5000 BR=
201101100030 METAR LMML NIL=
201101100015 METAR LMML 100015Z 20004KT CAVOK 13/13 Q1023 TEMPO 5000 BR=
201101100000 METAR LMML NIL=
201101092345 METAR LMML 092345Z VRB01KT 0800 R13/0750U MIFG FEW001 12/12
                        Q1023 TEMPO 0300 BCFG BKN001=
201101092330 METAR LMML NIL=
201101092315 METAR LMML 092315Z 00000KT 0800 R13/0500N MIFG FEW001 12/12
                        Q1023 TEMPO 0300 BCFG BKN001=
201101092300 METAR LMML NIL=
201101092245 METAR LMML 092245Z VRB02KT 0800 R13/0829VP1500D FG BKN001
                        12/12 Q1023 TEMPO 0300 BCFG BKN001=
201101092230 METAR LMML NIL=
201101092215 METAR COR LMML 092215Z VRB02KT 0800 R13/0814VP1500D BCFG
                        SCT002 BKN025 12/12 Q1023 TEMPO 0300
                        BCFG BKN001 RMK VIS 800M TO SE ALL
                        OTHER DIRECTIONS 10KM=
201101092200 METAR LMML NIL=
201101092145 METAR LMML 092145Z 16003KT CAVOK 14/13 Q1023 NOSIG=
201101092130 METAR LMML NIL=
201101092115 METAR LMML 092115Z 17004KT CAVOK 14/13 Q1023 NOSIG=
201101092100 METAR LMML NIL=
201101092045 METAR LMML 092045Z 19005KT CAVOK 14/13 Q1023 NOSIG=
201101092030 METAR LMML NIL=
201101092015 METAR LMML 092015Z 19005KT CAVOK 14/13 Q1023 NOSIG=
201101091945 METAR LMML 091945Z 20004KT 170V230 CAVOK 14/13 Q1023 NOSIG=
201101091930 METAR LMML NIL=
201101091915 METAR LMML 091915Z 20006KT 170V240 CAVOK 14/13 Q1024 NOSIG=
201101091900 METAR LMML NIL=
201101091845 METAR LMML 091845Z 21005KT 180V240 CAVOK 14/13 Q1024 NOSIG=
201101091830 METAR LMML NIL=
201101091815 METAR LMML 091815Z 21005KT 180V250 CAVOK 15/13 Q1024 NOSIG=
201101091800 METAR LMML NIL=
201101091745 METAR LMML 091745Z 22005KT 190V260 CAVOK 15/13 Q1024 NOSIG=
201101091730 METAR LMML NIL=
201101091715 METAR LMML 091715Z 22004KT 190V280 CAVOK 15/13 Q1024 NOSIG=
201101091700 METAR LMML NIL=
201101091645 METAR LMML 091645Z 22006KT CAVOK 15/13 Q1023 NOSIG=
201101091630 METAR LMML NIL=
201101091615 METAR LMML 091615Z 22005KT 200V270 CAVOK 15/13 Q1023 NOSIG=
201101091600 METAR LMML NIL=
201101091545 METAR LMML 091545Z 23004KT 180V280 CAVOK 16/12 Q1023 NOSIG=
201101091530 METAR LMML NIL=
201101091515 METAR LMML 091515Z 23005KT 180V290 CAVOK 17/12 Q1023 NOSIG=
201101091500 METAR LMML NIL=
201101091445 METAR LMML 091445Z 23007KT 200V290 CAVOK 18/12 Q1023 NOSIG=
201101091415 METAR LMML 091415Z 22006KT 180V250 CAVOK 18/13 Q1023 NOSIG=
201101091400 METAR LMML NIL=
201101091345 METAR LMML 091345Z 24007KT 200V280 CAVOK 18/12 Q1023 NOSIG=
201101091330 METAR LMML NIL=
201101091315 METAR LMML 091315Z 24005KT 200V290 CAVOK 18/13 Q1023 NOSIG=
201101091300 METAR LMML NIL=
201101091245 METAR LMML 091245Z 25007KT 220V280 CAVOK 18/12 Q1023 NOSIG=
201101091230 METAR LMML NIL=
201101091215 METAR LMML 091215Z 24007KT 200V280 CAVOK 18/12 Q1023 NOSIG=
201101091200 METAR LMML NIL=
201101091145 METAR LMML 091145Z 25006KT 190V300 CAVOK 18/13 Q1024 NOSIG=
201101091115 METAR LMML 091115Z 22004KT 170V290 CAVOK 18/14 Q1024 NOSIG=
201101091100 METAR LMML NIL=
201101091045 METAR LMML 091045Z 22008KT 200V260 CAVOK 17/14 Q1024 NOSIG=
201101091030 METAR LMML NIL=
201101091015 METAR LMML 091015Z 22007KT 200V270 CAVOK 17/14 Q1025 NOSIG=
201101091000 METAR LMML NIL=
201101090945 METAR LMML 090945Z 21007KT 180V240 CAVOK 17/14 Q1025 NOSIG=
201101090930 METAR LMML NIL=
201101090915 METAR LMML 090915Z 22006KT 180V270 CAVOK 17/14 Q1025 NOSIG=
201101090900 METAR LMML NIL=
201101090845 METAR LMML 090845Z 23005KT 190V280 CAVOK 16/14 Q1025 NOSIG=
201101090830 METAR LMML NIL=
201101090815 METAR LMML 090815Z 22003KT CAVOK 16/15 Q1025 NOSIG=
201101090800 METAR LMML NIL=
201101090745 METAR LMML 090745Z 21003KT CAVOK 15/14 Q1025 NOSIG=
201101090730 METAR LMML NIL=
201101090715 METAR LMML 090715Z 21003KT 9999 MIFG NSC 13/13 Q1025 BECMG
                        CAVOK=
201101090700 METAR LMML NIL=
201101090645 METAR LMML 090645Z 23005KT 9999 MIFG NSC 12/12 Q1024 BECMG
                        CAVOK=
201101090630 METAR LMML NIL=
201101090615 METAR LMML 090615Z VRB02KT 8000 MIFG NSC 12/12 Q1024 BECMG
                        CAVOK=
201101090600 METAR LMML NIL=
201101090545 METAR LMML 090545Z 23003KT 6000 MIFG NSC 11/11 Q1024 BECMG
                        CAVOK=
201101090530 METAR LMML NIL=
201101090515 METAR LMML 090515Z VRB01KT 9999 MIFG NSC 12/12 Q1024 NOSIG=
201101090500 METAR LMML NIL=
201101090445 METAR LMML 090445Z 22003KT 9999 MIFG NSC 12/12 Q1024 NOSIG=
201101090415 METAR LMML 090415Z 21003KT CAVOK 10/10 Q1024 NOSIG=
201101090400 METAR LMML NIL=
201101090345 METAR LMML 090345Z 27003KT CAVOK 10/09 Q1024 NOSIG=
201101090330 METAR LMML NIL=
201101090315 METAR LMML 090315Z VRB02KT CAVOK 11/11 Q1024 NOSIG=
201101090300 METAR LMML NIL=
201101090245 METAR LMML 090245Z VRB02KT 9000 NSC 11/11 Q1024 NOSIG=
201101090230 METAR LMML NIL=
201101090215 METAR LMML 090215Z VRB02KT 9000 NSC 11/11 Q1024 NOSIG=
201101090200 METAR LMML NIL=
201101090145 METAR LMML 090145Z 25003KT 9000 NSC 11/10 Q1024 NOSIG=
201101090130 METAR LMML NIL=
201101090115 METAR LMML 090115Z VRB01KT 7000 NSC 11/10 Q1024 TEMPO 5000=
201101090100 METAR LMML NIL=
201101090045 METAR LMML 090045Z VRB01KT 6000 BCMIFG NSC 11/11 Q1024 TEMPO
                        5000=
201101090030 METAR LMML NIL=
201101090015 METAR LMML 090015Z VRB02KT 6000 BCMIFG NSC 12/12 Q1024 TEMPO
                        3000=
201101090000 METAR LMML NIL=
201101082345 METAR LMML 082345Z 31003KT CAVOK 11/11 Q1024 NOSIG=
201101082330 METAR LMML NIL=
201101082315 METAR LMML 082315Z VRB02KT CAVOK 12/12 Q1025 NOSIG=
201101082300 METAR LMML NIL=
201101082245 METAR LMML 082245Z VRB02KT CAVOK 12/12 Q1025 NOSIG=
201101082215 METAR LMML 082215Z VRB02KT CAVOK 12/12 Q1025 NOSIG=
201101082145 METAR LMML 082145Z 26003KT CAVOK 12/11 Q1025 NOSIG=
201101082130 METAR LMML NIL=
201101082115 METAR LMML 082115Z 22004KT CAVOK 13/12 Q1025 NOSIG=
201101082100 METAR LMML NIL=
201101082045 METAR LMML 082045Z VRB01KT CAVOK 13/11 Q1025 NOSIG=
201101082015 METAR LMML 082015Z VRB02KT CAVOK 13/12 Q1025 NOSIG=
201101081945 METAR LMML 081945Z 23003KT CAVOK 13/12 Q1025 NOSIG=
201101081930 METAR LMML NIL=
201101081915 METAR LMML 081915Z VRB02KT CAVOK 13/12 Q1025 NOSIG=
201101081900 METAR LMML NIL=
201101081845 METAR LMML 081845Z 23003KT CAVOK 13/11 Q1025 NOSIG=
201101081830 METAR LMML NIL=
201101081815 METAR LMML 081815Z 23004KT 200V260 CAVOK 13/11 Q1025 NOSIG=
201101081800 METAR LMML NIL=
201101081745 METAR LMML 081745Z 22003KT CAVOK 14/12 Q1025 NOSIG=
201101081730 METAR LMML NIL=
201101081715 METAR LMML 081715Z 22003KT CAVOK 14/12 Q1025 NOSIG=
201101081700 METAR LMML NIL=
201101081645 METAR LMML 081645Z 21004KT 170V230 CAVOK 15/11 Q1025 NOSIG=
201101081630 METAR LMML NIL=
201101081615 METAR LMML 081615Z 22003KT CAVOK 15/12 Q1025 NOSIG=
201101081600 METAR LMML NIL=
201101081545 METAR LMML 081545Z 21005KT 180V250 CAVOK 16/12 Q1025 NOSIG=
201101081530 METAR LMML NIL=
201101081515 METAR LMML 081515Z 21006KT 180V260 CAVOK 17/12 Q1025 NOSIG=
201101081500 METAR LMML NIL=
201101081445 METAR LMML 081445Z 22006KT 180V270 CAVOK 17/12 Q1025 NOSIG=
201101081430 METAR LMML NIL=
201101081415 METAR LMML 081415Z 21009KT 170V250 CAVOK 17/11 Q1025 NOSIG=
201101081400 METAR LMML NIL=
201101081345 METAR LMML 081345Z 21007KT 170V260 CAVOK 18/12 Q1025 NOSIG=
201101081330 METAR LMML NIL=
201101081315 METAR LMML 081315Z 22008KT 190V270 CAVOK 18/12 Q1024 NOSIG=
201101081300 METAR LMML NIL=
201101081245 METAR LMML 081245Z 21007KT 180V270 CAVOK 18/12 Q1025 NOSIG=
201101081230 METAR LMML NIL=
201101081215 METAR LMML 081215Z 21007KT 160V250 9999 FEW017 SCT250 18/14
                        Q1025 NOSIG=
201101081200 METAR LMML NIL=
201101081145 METAR LMML 081145Z 21008KT 170V270 9999 FEW017 SCT250 18/14
                        Q1026 NOSIG=
201101081130 METAR LMML NIL=
201101081115 METAR LMML 081115Z 20008KT 170V240 9999 FEW017 SCT250 18/14
                        Q1026 NOSIG=
201101081100 METAR LMML NIL=
201101081045 METAR LMML 081045Z 20006KT 140V260 CAVOK 18/14 Q1026 NOSIG=
201101081030 METAR LMML NIL=
201101081015 METAR LMML 081015Z 21007KT 150V260 CAVOK 18/13 Q1026 NOSIG=
201101081000 METAR LMML NIL=
201101080945 METAR LMML 080945Z 20006KT 150V250 CAVOK 18/14 Q1027 NOSIG=
201101080930 METAR LMML NIL=
201101080915 METAR LMML 080915Z 19006KT 160V230 9999 FEW020 17/14 Q1027
                        NOSIG=
201101080900 METAR LMML NIL=
201101080845 METAR LMML 080845Z 19006KT 150V240 CAVOK 17/14 Q1027 NOSIG=
201101080830 METAR LMML NIL=
201101080815 METAR LMML 080815Z 20006KT 160V230 CAVOK 16/14 Q1027 NOSIG=
201101080800 METAR LMML NIL=
201101080745 METAR LMML 080745Z 19004KT 170V240 CAVOK 16/13 Q1026 NOSIG=
201101080730 METAR LMML NIL=
201101080715 METAR LMML 080715Z 18004KT 150V220 CAVOK 15/13 Q1026 NOSIG=
201101080700 METAR LMML NIL=
201101080645 METAR LMML 080645Z 17003KT CAVOK 14/12 Q1026 NOSIG=
201101080630 METAR LMML NIL=
201101080615 METAR LMML 080615Z 17003KT CAVOK 13/12 Q1026 NOSIG=
201101080600 METAR LMML NIL=
201101080545 METAR LMML 080545Z 17003KT CAVOK 13/12 Q1026 NOSIG=
201101080530 METAR LMML NIL=
201101080515 METAR LMML 080515Z 19003KT CAVOK 13/12 Q1026 NOSIG=
201101080500 METAR LMML NIL=
201101080445 METAR LMML 080445Z 20004KT 170V230 CAVOK 13/12 Q1026 NOSIG=
201101080430 METAR LMML NIL=
201101080415 METAR LMML 080415Z 20004KT CAVOK 13/12 Q1026 NOSIG=
201101080400 METAR LMML NIL=
201101080345 METAR LMML 080345Z 20004KT CAVOK 13/12 Q1026 NOSIG=
201101080330 METAR LMML NIL=
201101080315 METAR LMML 080315Z 18003KT CAVOK 13/12 Q1027 NOSIG=
201101080300 METAR LMML NIL=
201101080245 METAR LMML 080245Z 19003KT CAVOK 13/12 Q1027 NOSIG=
201101080230 METAR LMML NIL=
201101080215 METAR LMML 080215Z 19004KT CAVOK 13/12 Q1027 NOSIG=
201101080200 METAR LMML NIL=
201101080145 METAR LMML 080145Z 19005KT CAVOK 14/12 Q1027 NOSIG=
201101080130 METAR LMML NIL=
201101080115 METAR LMML 080115Z 18005KT CAVOK 14/12 Q1027 NOSIG=
201101080100 METAR LMML NIL=
201101080045 METAR LMML 080045Z 19005KT 160V220 CAVOK 14/12 Q1027 NOSIG=
201101080030 METAR LMML NIL=
201101080015 METAR LMML 080015Z 19005KT CAVOK 14/12 Q1028 NOSIG=
201101080000 METAR LMML NIL=
201101072345 METAR LMML 072345Z 20005KT 170V230 CAVOK 13/12 Q1028 NOSIG=
201101072330 METAR LMML NIL=
201101072315 METAR LMML 072315Z 19004KT 170V230 CAVOK 13/12 Q1028 NOSIG=
201101072300 METAR LMML NIL=
201101072245 METAR LMML 072245Z 18003KT CAVOK 14/12 Q1028 NOSIG=
201101072230 METAR LMML NIL=
201101072215 METAR LMML 072215Z 18005KT CAVOK 14/13 Q1028 NOSIG=
201101072200 METAR LMML NIL=
201101072145 METAR LMML 072145Z 19004KT 160V220 CAVOK 13/12 Q1028 NOSIG=
201101072130 METAR LMML NIL=
201101072115 METAR LMML 072115Z 19004KT CAVOK 13/11 Q1028 NOSIG=
201101072100 METAR LMML NIL=
201101072045 METAR LMML 072045Z VRB02KT CAVOK 13/12 Q1028 NOSIG=
201101072030 METAR LMML NIL=
201101072015 METAR LMML 072015Z 19003KT CAVOK 13/13 Q1028 NOSIG=
201101072000 METAR LMML NIL=
201101071945 METAR LMML 071945Z 18003KT CAVOK 14/13 Q1028 NOSIG=
201101071930 METAR LMML NIL=
201101071915 METAR LMML 071915Z 18004KT 150V210 CAVOK 14/13 Q1028 NOSIG=
201101071900 METAR LMML NIL=
201101071845 METAR LMML 071845Z 18004KT CAVOK 15/13 Q1027 NOSIG=
201101071830 METAR LMML NIL=
201101071815 METAR LMML 071815Z 18005KT 9999 FEW020 14/12 Q1027 NOSIG=
201101071800 METAR LMML NIL=
201101071745 METAR LMML 071745Z 17004KT 9999 FEW020 14/12 Q1027 NOSIG=
201101071715 METAR LMML 071715Z 18004KT 150V210 9999 FEW020 15/12 Q1027
                        NOSIG=
201101071645 METAR LMML 071645Z 18004KT 9999 FEW020 SCT250 15/12 Q1027
                        NOSIG=
201101071630 METAR LMML NIL=
201101071615 METAR LMML 071615Z 17005KT 9999 FEW020 SCT250 15/11 Q1027
                        NOSIG=
201101071600 METAR LMML NIL=
201101071545 METAR LMML 071545Z 17004KT 140V200 9999 FEW025 BKN250 16/11
                        Q1027 NOSIG=
201101071530 METAR LMML NIL=
201101071515 METAR LMML 071515Z 18006KT 9999 FEW026 SCT250 16/11 Q1027
                        NOSIG=
201101071500 METAR LMML NIL=
201101071445 METAR LMML 071445Z 18006KT 150V220 9999 FEW026 17/12 Q1027
                        NOSIG=
201101071430 METAR LMML NIL=
201101071415 METAR LMML 071415Z 16007KT 140V200 9999 FEW027 17/12 Q1027
                        NOSIG=
201101071400 METAR LMML NIL=
201101071345 METAR LMML 071345Z 18007KT 160V220 9999 FEW030 17/11 Q1027
                        NOSIG=
201101071330 METAR LMML NIL=
201101071315 METAR LMML 071315Z 19006KT 160V240 9999 FEW030 17/11 Q1027
                        NOSIG=
201101071300 METAR LMML NIL=
201101071245 METAR LMML 071245Z 19006KT 160V230 9999 FEW030 17/10 Q1027
                        NOSIG=
201101071230 METAR LMML NIL=
201101071215 METAR LMML 071215Z 19005KT 160V230 9999 FEW030 17/10 Q1027
                        NOSIG=
201101071200 METAR LMML NIL=
201101071145 METAR LMML 071145Z 19006KT 150V230 9999 FEW025 17/11 Q1027
                        NOSIG=
201101071130 METAR LMML NIL=
201101071115 METAR LMML 071115Z 18007KT 150V210 9999 FEW025 17/11 Q1028
                        NOSIG=
201101071100 METAR LMML NIL=
201101071045 METAR LMML 071045Z 19007KT 160V230 9999 FEW025 17/11 Q1028
                        NOSIG=
201101071030 METAR LMML NIL=
201101071015 METAR LMML 071015Z 17007KT 140V200 9999 FEW025 16/11 Q1028
                        NOSIG=
201101071000 METAR LMML NIL=
201101070945 METAR LMML 070945Z 16008KT 130V200 9999 FEW025 16/11 Q1028
                        NOSIG=
201101070930 METAR LMML NIL=
201101070915 METAR LMML 070915Z 16007KT 130V190 9999 FEW025 16/12 Q1028
                        NOSIG=
201101070900 METAR LMML NIL=
201101070845 METAR LMML 070845Z 16006KT 100V210 9999 FEW030 16/11 Q1028
                        NOSIG=
201101070830 METAR LMML NIL=
201101070815 METAR LMML 070815Z 17004KT 140V200 9999 FEW030 16/11 Q1028
                        NOSIG=
201101070800 METAR LMML NIL=
201101070745 METAR LMML 070745Z 16005KT 9999 FEW030 15/11 Q1027 NOSIG=
201101070730 METAR LMML NIL=
201101070715 METAR LMML 070715Z 16004KT 9999 FEW029 14/10 Q1027 NOSIG=
201101070700 METAR LMML NIL=
201101070645 METAR LMML 070645Z 16004KT 9999 FEW029 13/10 Q1027 NOSIG=
201101070630 METAR LMML NIL=
201101070615 METAR LMML 070615Z 16004KT 9999 SCT029 12/10 Q1027 NOSIG=
201101070600 METAR LMML NIL=
201101070545 METAR LMML 070545Z 15004KT 9999 SCT030 12/10 Q1026 NOSIG=
201101070530 METAR LMML NIL=
201101070515 METAR LMML 070515Z 16004KT 9999 SCT029 12/10 Q1026 NOSIG=
201101070500 METAR LMML NIL=
201101070445 METAR LMML 070445Z 16004KT 9999 FEW029 12/10 Q1026 NOSIG=
201101070430 METAR LMML NIL=
201101070415 METAR LMML 070415Z 15005KT 9999 FEW029 12/09 Q1026 NOSIG=
201101070400 METAR LMML NIL=
201101070345 METAR LMML 070345Z 16005KT 9999 FEW029 12/09 Q1026 NOSIG=
201101070330 METAR LMML NIL=
201101070315 METAR LMML 070315Z 16004KT 9999 FEW029 12/09 Q1026 NOSIG=
201101070300 METAR LMML NIL=
201101070245 METAR LMML 070245Z 15004KT 9999 FEW029 11/09 Q1026 NOSIG=
201101070230 METAR LMML NIL=
201101070215 METAR LMML 070215Z 15004KT 9999 FEW029 11/09 Q1026 NOSIG=
201101070200 METAR LMML NIL=
201101070145 METAR LMML 070145Z 15003KT 9999 FEW029 11/09 Q1026 NOSIG=
201101070130 METAR LMML NIL=
201101070115 METAR LMML 070115Z 14004KT 9999 FEW029 11/09 Q1026 NOSIG=
201101070045 METAR LMML 070045Z 14004KT 9999 FEW031 10/09 Q1026 NOSIG=
201101070030 METAR LMML NIL=
201101070015 METAR LMML 070015Z 15003KT 9999 FEW032 11/09 Q1026 NOSIG=
201101062345 METAR LMML 062345Z 15003KT 9999 SCT033 11/09 Q1025 NOSIG=
201101062315 METAR LMML 062315Z VRB02KT 9999 FEW025 10/09 Q1025 NOSIG=
201101062300 METAR LMML NIL=
201101062245 METAR LMML 062245Z VRB02KT 9999 FEW026 11/09 Q1025 NOSIG=
201101062230 METAR LMML NIL=
201101062215 METAR LMML 062215Z 15003KT 9999 FEW026 11/09 Q1025 NOSIG=
201101062200 METAR LMML NIL=
201101062145 METAR LMML 062145Z VRB02KT 9999 FEW026 11/09 Q1025 NOSIG=
201101062130 METAR LMML NIL=
201101062115 METAR LMML 062115Z 15004KT 9999 FEW025 12/09 Q1025 NOSIG=
201101062045 METAR LMML 062045Z 16004KT 9999 FEW025 12/09 Q1025 NOSIG=
201101062030 METAR LMML NIL=
201101062015 METAR LMML 062015Z 17003KT 9999 FEW025 11/09 Q1025 NOSIG=
201101062000 METAR LMML NIL=
201101061945 METAR LMML 061945Z VRB02KT 9999 FEW025 11/08 Q1025 NOSIG=
201101061930 METAR LMML NIL=
201101061915 METAR LMML 061915Z 15003KT 9999 FEW025 12/08 Q1024 NOSIG=
201101061900 METAR LMML NIL=
201101061845 METAR LMML 061845Z VRB02KT 9999 FEW025 12/08 Q1024 NOSIG=
201101061830 METAR LMML NIL=
201101061815 METAR LMML 061815Z 16004KT 9999 FEW035 12/08 Q1024 NOSIG=
201101061800 METAR LMML NIL=
201101061745 METAR LMML 061745Z 16004KT 9999 FEW037 13/08 Q1024 NOSIG=
201101061730 METAR LMML NIL=
201101061715 METAR LMML 061715Z 17003KT 9999 FEW037 13/08 Q1024 NOSIG=
201101061700 METAR LMML NIL=
201101061645 METAR LMML 061645Z 16003KT 9999 FEW037 13/08 Q1023 NOSIG=
201101061630 METAR LMML NIL=
201101061615 METAR LMML 061615Z VRB02KT 9999 FEW037 14/08 Q1023 NOSIG=
201101061600 METAR LMML NIL=
201101061545 METAR LMML 061545Z 18003KT 9999 FEW037 15/08 Q1023 NOSIG=
201101061530 METAR LMML NIL=
201101061515 METAR LMML 061515Z 20004KT 160V270 9999 FEW037 15/07 Q1023
                        NOSIG=
201101061500 METAR LMML NIL=
201101061445 METAR LMML 061445Z 19003KT 9999 FEW034 16/07 Q1023 NOSIG=
201101061430 METAR LMML NIL=
201101061415 METAR LMML 061415Z 19003KT 9999 FEW034 16/08 Q1022 NOSIG=
201101061345 METAR LMML 061345Z 19004KT 150V260 9999 FEW034 16/08 Q1022
                        NOSIG=
201101061330 METAR LMML NIL=
201101061315 METAR LMML 061315Z 19005KT 150V240 9999 FEW034 16/08 Q1022
                        NOSIG=
201101061300 METAR LMML NIL=
201101061245 METAR LMML 061245Z 19004KT 140V280 9999 FEW034 16/08 Q1022
                        NOSIG=
201101061230 METAR LMML NIL=
201101061215 METAR LMML 061215Z 18006KT 150V230 9999 FEW034 16/08 Q1022
                        NOSIG=
201101061200 METAR LMML NIL=
201101061145 METAR LMML 061145Z 19004KT 140V240 9999 FEW035 16/08 Q1022
                        NOSIG=
201101061130 METAR LMML NIL=
201101061115 METAR LMML 061115Z 21003KT 9999 FEW035 17/08 Q1023 NOSIG=
201101061045 METAR LMML 061045Z 21004KT 160V310 9999 FEW035 16/08 Q1023
                        NOSIG=
201101061030 METAR LMML NIL=
201101061015 METAR LMML 061015Z 20003KT 9999 FEW034 16/08 Q1023 NOSIG=
201101061000 METAR LMML NIL=
201101060945 METAR LMML 060945Z 18004KT 130V240 9999 FEW035 16/09 Q1023
                        NOSIG=
201101060930 METAR LMML NIL=
201101060915 METAR LMML 060915Z 22003KT 9999 SCT035 16/08 Q1023 NOSIG=
201101060900 METAR LMML NIL=
201101060845 METAR LMML 060845Z VRB01KT 9999 FEW036 16/08 Q1023 NOSIG=
201101060830 METAR LMML NIL=
201101060815 METAR LMML 060815Z VRB01KT 9999 FEW036 14/08 Q1022 NOSIG=
201101060800 METAR LMML NIL=
201101060745 METAR LMML 060745Z VRB01KT 9999 FEW036 13/09 Q1022 NOSIG=
201101060730 METAR LMML NIL=
201101060715 METAR LMML 060715Z VRB01KT 9999 FEW037 10/08 Q1022 NOSIG=
201101060700 METAR LMML NIL=
201101060645 METAR LMML 060645Z VRB01KT 9999 FEW035 10/08 Q1022 NOSIG=
201101060630 METAR LMML NIL=
201101060615 METAR LMML 060615Z VRB01KT 9999 FEW035 09/08 Q1021 NOSIG=
201101060545 METAR LMML 060545Z VRB01KT 9999 FEW034 SCT100 09/08 Q1021
                        NOSIG=
201101060530 METAR LMML NIL=
201101060515 METAR LMML 060515Z VRB01KT 9999 SCT034 SCT100 10/08 Q1021
                        NOSIG=
201101060500 METAR LMML NIL=
201101060445 METAR LMML 060445Z 00000KT 9999 SCT032 BKN100 10/08 Q1021
                        NOSIG=
201101060430 METAR LMML NIL=
201101060415 METAR LMML 060415Z 00000KT 9999 SCT031 BKN110 10/09 Q1021
                        NOSIG=
201101060400 METAR LMML NIL=
201101060345 METAR LMML 060345Z 00000KT 9999 FEW032 BKN110 10/09 Q1020
                        NOSIG=
201101060330 METAR LMML NIL=
201101060315 METAR LMML 060315Z VRB01KT CAVOK 10/09 Q1021 NOSIG=
201101060300 METAR LMML NIL=
201101060245 METAR LMML 060245Z 00000KT CAVOK 10/09 Q1021 NOSIG=
201101060230 METAR LMML NIL=
201101060215 METAR LMML 060215Z VRB01KT CAVOK 10/10 Q1021 NOSIG=
201101060200 METAR LMML NIL=
201101060145 METAR LMML 060145Z VRB01KT CAVOK 10/10 Q1021 NOSIG=
201101060130 METAR LMML NIL=
201101060115 METAR LMML 060115Z VRB01KT CAVOK 10/10 Q1021 NOSIG=
201101060100 METAR LMML NIL=
201101060045 METAR LMML 060045Z VRB01KT CAVOK 10/09 Q1021 NOSIG=
201101060015 METAR LMML 060015Z 00000KT 9999 FEW025 BKN060 10/10 Q1021
                        NOSIG=
201101060000 METAR LMML NIL=
201101052345 METAR LMML 052345Z VRB01KT 9999 FEW025 BKN060 11/10 Q1021
                        NOSIG=
201101052330 METAR LMML NIL=
201101052315 METAR LMML 052315Z VRB02KT CAVOK 11/10 Q1021 NOSIG=
201101052300 METAR LMML NIL=
201101052245 METAR LMML 052245Z VRB02KT 9999 FEW025 BKN049 12/10 Q1021
                        NOSIG=
201101052230 METAR LMML NIL=
201101052215 METAR LMML 052215Z 18004KT 160V220 9999 -RA FEW028 BKN045
                        12/09 Q1021 TEMPO SHRA=
201101052200 METAR LMML NIL=
201101052145 METAR LMML 052145Z VRB02KT 9999 FEW025 BKN040 11/09 Q1021
                        NOSIG=
201101052130 METAR LMML NIL=
201101052115 METAR LMML 052115Z VRB02KT 9999 FEW028 BKN048 10/09 Q1021
                        NOSIG=
201101052100 METAR LMML NIL=
201101052045 METAR LMML 052045Z VRB02KT 9999 FEW028 BKN050 10/09 Q1021
                        NOSIG=
201101052030 METAR LMML NIL=
201101052015 METAR LMML 052015Z VRB01KT 9999 FEW025 BKN060 10/09 Q1020
                        NOSIG=
201101052000 METAR LMML NIL=
201101051945 METAR LMML 051945Z 00000KT 9999 FEW025 BKN060 10/09 Q1021
                        NOSIG=
201101051930 METAR LMML NIL=
201101051915 METAR LMML 051915Z VRB01KT 9999 FEW025 10/08 Q1021 NOSIG=
201101051900 METAR LMML NIL=
201101051845 METAR LMML 051845Z VRB01KT 9999 FEW025 SCT250 10/08 Q1021
                        NOSIG=
201101051830 METAR LMML NIL=
201101051815 METAR LMML 051815Z VRB01KT 9999 FEW025 SCT250 10/09 Q1021
                        NOSIG=
201101051800 METAR LMML NIL=
201101051745 METAR LMML 051745Z VRB02KT 9999 FEW025 BKN250 10/08 Q1020
                        NOSIG=
201101051730 METAR LMML NIL=
201101051715 METAR LMML 051715Z VRB02KT 9999 FEW025 BKN250 11/08 Q1020
                        NOSIG=
201101051700 METAR LMML NIL=
201101051645 METAR LMML 051645Z 09003KT 9999 FEW025 BKN250 12/08 Q1020
                        NOSIG=
201101051630 METAR LMML NIL=
201101051615 METAR LMML 051615Z VRB02KT 9999 FEW026 SCT120 BKN250 12/08
                        Q1020 NOSIG=
201101051600 METAR LMML NIL=
201101051545 METAR LMML 051545Z 10003KT 9999 FEW028 SCT120 BKN250 13/09
                        Q1020 NOSIG=
201101051530 METAR LMML NIL=
201101051515 METAR LMML 051515Z VRB02KT 9999 FEW029 SCT120 BKN250 13/09
                        Q1020 NOSIG=
201101051500 METAR LMML NIL=
201101051445 METAR LMML 051445Z VRB02KT 9999 FEW031 BKN250 15/08 Q1019
                        NOSIG=
201101051430 METAR LMML NIL=
201101051415 METAR LMML 051415Z VRB02KT 9999 SCT029 BKN250 14/08 Q1019
                        NOSIG=
201101051400 METAR LMML NIL=
201101051345 METAR LMML 051345Z 34004KT 300V060 9999 SCT029 SCT250 14/09
                        Q1019 NOSIG=
201101051330 METAR LMML NIL=
201101051315 METAR LMML 051315Z VRB02KT 9999 SCT029 BKN250 16/09 Q1019
                        NOSIG=
201101051300 METAR LMML NIL=
201101051245 METAR LMML 051245Z 34004KT 300V040 9999 SCT029 BKN250 15/08
                        Q1019 NOSIG=
201101051230 METAR LMML NIL=
201101051215 METAR LMML 051215Z 34004KT 270V020 9999 FEW031 BKN250 15/08
                        Q1019 NOSIG=
201101051200 METAR LMML NIL=
201101051145 METAR LMML 051145Z 31003KT 9999 FEW027 BKN250 15/07 Q1020
                        NOSIG=
201101051130 METAR LMML NIL=
201101051115 METAR LMML 051115Z 31005KT 270V340 9999 SCT029 BKN250 14/07
                        Q1020 NOSIG=
201101051100 METAR LMML NIL=
201101051045 METAR LMML 051045Z 32006KT 290V350 9999 FEW028 SCT250 15/08
                        Q1020 NOSIG=
201101051030 METAR LMML NIL=
201101051015 METAR LMML 051015Z 33005KT 290V350 9999 FEW025 15/09 Q1020
                        NOSIG=
201101051000 METAR LMML NIL=
201101050945 METAR LMML 050945Z 30005KT 260V360 9999 FEW025 15/09 Q1020
                        NOSIG=
201101050930 METAR LMML NIL=
201101050915 METAR LMML 050915Z 32003KT 9999 FEW028 14/10 Q1020 NOSIG=
201101050900 METAR LMML NIL=
201101050845 METAR LMML 050845Z VRB02KT 9999 FEW028 SCT080 14/10 Q1020
                        NOSIG=
201101050830 METAR LMML NIL=
201101050815 METAR LMML 050815Z VRB01KT 9999 FEW028 SCT080 11/10 Q1020
                        NOSIG=
201101050800 METAR LMML NIL=
201101050745 METAR LMML 050745Z VRB02KT 9999 FEW028 BKN080 10/09 Q1020
                        NOSIG=
201101050730 METAR LMML NIL=
201101050715 METAR LMML 050715Z VRB02KT 9999 SCT028 SCT060 10/09 Q1019
                        NOSIG=
201101050700 METAR LMML NIL=
201101050645 METAR LMML 050645Z VRB02KT 9999 SCT028 BKN080 09/08 Q1019
                        NOSIG=
201101050630 METAR LMML NIL=
201101050615 METAR LMML 050615Z VRB02KT 9999 BKN028 BKN070 09/08 Q1019
                        NOSIG=
201101050600 METAR LMML NIL=
201101050545 METAR LMML 050545Z 00000KT 9999 BKN031TCU SCT060 09/08 Q1019
                        NOSIG=
201101050530 METAR LMML NIL=
201101050515 METAR LMML 050515Z VRB01KT 9999 BKN030 SCT060 10/08 Q1019
                        NOSIG=
201101050445 METAR LMML 050445Z 33006KT 290V360 9999 SHRA BKN026 SCT040
                        10/08 Q1019 NOSIG=
201101050430 METAR LMML NIL=
201101050415 METAR LMML 050415Z 28003KT 9999 SCT024 09/07 Q1019 NOSIG=
201101050400 METAR LMML NIL=
201101050345 METAR LMML 050345Z 30009KT 9999 FEW030 10/07 Q1019 NOSIG=
201101050330 METAR LMML NIL=
201101050315 METAR LMML 050315Z 26003KT 9999 FEW031 SCT050 09/08 Q1018
                        NOSIG=
201101050300 METAR LMML NIL=
201101050245 METAR LMML 050245Z VRB02KT 9999 FEW030 SCT070 09/08 Q1019
                        NOSIG=
201101050230 METAR LMML NIL=
201101050215 METAR LMML 050215Z VRB02KT 9999 FEW025 BKN070 09/08 Q1019
                        NOSIG=
201101050200 METAR LMML NIL=
201101050145 METAR LMML 050145Z 27003KT 9999 FEW026 BKN060 09/08 Q1019
                        NOSIG=
201101050130 METAR LMML NIL=
201101050115 METAR LMML 050115Z 29003KT 9999 FEW020 SCT060 09/07 Q1019
                        NOSIG=
201101050100 METAR LMML NIL=
201101050045 METAR LMML 050045Z 27003KT 9999 FEW020 BKN060 09/07 Q1019
                        NOSIG=
201101050015 METAR LMML 050015Z 31003KT 9999 FEW020 BKN060 09/07 Q1019
                        NOSIG=
201101050000 METAR LMML NIL=
201101042345 METAR LMML 042345Z 33003KT 9999 FEW020 BKN060 10/08 Q1019
                        NOSIG=
201101042315 METAR LMML 042315Z 23004KT 9999 FEW020 SCT080 10/07 Q1019
                        NOSIG=
201101042300 METAR LMML NIL=
201101042245 METAR LMML 042245Z 23003KT 9999 FEW020 SCT090 10/08 Q1019
                        NOSIG=
201101042215 METAR LMML 042215Z 27008KT 230V300 9999 FEW020 BKN090 11/08
                        Q1019 NOSIG=
201101042200 METAR LMML NIL=
201101042145 METAR LMML 042145Z 26004KT 230V290 9999 FEW020 SCT080 11/09
                        Q1019 TEMPO 8000 SHRA=
201101042115 METAR LMML 042115Z 25004KT 9999 FEW020 SCT080 10/09 Q1019
                        TEMPO 8000 SHRA=
201101042045 METAR LMML 042045Z VRB02KT 9999 FEW020 BKN080 10/09 Q1019
                        TEMPO 8000 SHRA=
201101042030 METAR LMML NIL=
201101042015 METAR LMML 042015Z 28003KT 9999 FEW020 BKN080 10/09 Q1019
                        TEMPO 8000 SHRA=
201101041945 METAR LMML 041945Z VRB02KT 9999 FEW020 BKN090 10/08 Q1019
                        NOSIG=
201101041930 METAR LMML NIL=
201101041915 METAR LMML 041915Z 29003KT 9999 FEW020 SCT090 10/09 Q1019
                        NOSIG=
201101041900 METAR LMML NIL=
201101041845 METAR LMML 041845Z 29003KT 9999 FEW020 SCT090 10/08 Q1019
                        NOSIG=
201101041830 METAR LMML NIL=
201101041815 METAR LMML 041815Z VRB02KT 9999 FEW025 10/08 Q1019 NOSIG=
201101041745 METAR LMML 041745Z 28003KT 9999 FEW022 10/08 Q1018 NOSIG=
201101041730 METAR LMML NIL=
201101041715 METAR LMML 041715Z 29003KT 9999 FEW022 11/08 Q1018 NOSIG=
201101041645 METAR LMML 041645Z 31004KT 290V360 9999 FEW022 11/08 Q1018
                        NOSIG=
201101041630 METAR LMML NIL=
201101041615 METAR LMML 041615Z 32003KT 9999 FEW021 11/08 Q1018 NOSIG=
201101041600 METAR LMML NIL=
201101041545 METAR LMML 041545Z 35004KT 9999 FEW025 12/08 Q1018 NOSIG=
201101041530 METAR LMML NIL=
201101041515 METAR LMML 041515Z 35006KT 320V020 9999 FEW023 13/08 Q1017
                        NOSIG=
201101041500 METAR LMML NIL=
201101041445 METAR LMML 041445Z 33006KT 9999 FEW023 14/09 Q1018 NOSIG=
201101041430 METAR LMML NIL=
201101041415 METAR LMML 041415Z 01005KT 330V040 9999 FEW022 14/09 Q1017
                        NOSIG=
201101041400 METAR LMML NIL=
201101041345 METAR LMML 041345Z 01006KT 9999 FEW025 14/09 Q1017 NOSIG=
201101041330 METAR LMML NIL=
201101041315 METAR LMML 041315Z 35008KT 9999 FEW025 14/10 Q1017 NOSIG=
201101041300 METAR LMML NIL=
201101041245 METAR LMML 041245Z 35007KT 240V020 9999 SCT023 14/09 Q1017
                        NOSIG=
201101041230 METAR LMML NIL=
201101041215 METAR LMML 041215Z 35006KT 9999 BKN025 13/08 Q1017 NOSIG=
201101041200 METAR LMML NIL=
201101041145 METAR LMML 041145Z 33006KT 9999 BKN023 14/09 Q1017 NOSIG=
201101041130 METAR LMML NIL=
201101041115 METAR LMML 041115Z 33005KT 260V010 9999 SCT027 15/09 Q1017
                        NOSIG=
201101041100 METAR LMML NIL=
201101041045 METAR LMML 041045Z VRB02KT 9999 SCT027 15/08 Q1017 NOSIG=
201101041030 METAR LMML NIL=
201101041015 METAR LMML 041015Z 29003KT 9999 SCT027 SCT070 15/09 Q1018
                        NOSIG=
201101041000 METAR LMML NIL=
201101040945 METAR LMML 040945Z 34003KT 9999 FEW025 15/09 Q1018 NOSIG=
201101040915 METAR LMML 040915Z VRB02KT 9999 FEW025 SCT070 14/09 Q1018
                        NOSIG=
201101040900 METAR LMML NIL=
201101040845 METAR LMML 040845Z VRB02KT 9999 FEW025 SCT070 13/09 Q1018
                        NOSIG=
201101040830 METAR LMML NIL=
201101040815 METAR LMML 040815Z VRB02KT 9999 FEW025 BKN080 12/09 Q1017
                        NOSIG=
201101040745 METAR LMML 040745Z 27003KT 9999 FEW025 BKN080 11/09 Q1017
                        NOSIG=
201101040715 METAR LMML 040715Z 26003KT 9999 FEW025 BKN080 10/08 Q1017
                        NOSIG=
201101040645 METAR LMML 040645Z 25004KT 9999 FEW025 SCT080 09/07 Q1017
                        NOSIG=
201101040615 METAR LMML 040615Z 28004KT 250V310 9999 FEW025 SCT049 09/08
                        Q1016 NOSIG=
201101040600 METAR LMML NIL=
201101040545 METAR LMML 040545Z 27004KT 240V300 9999 FEW026 SCT048 09/08
                        Q1016 NOSIG=
201101040530 METAR LMML NIL=
201101040515 METAR LMML 040515Z 27003KT 9999 FEW028 SCT046 09/08 Q1016
                        NOSIG=
201101040445 METAR LMML 040445Z 24003KT 9999 FEW040 09/07 Q1016 NOSIG=
201101040430 METAR LMML NIL=
201101040415 METAR LMML 040415Z 25003KT 9999 FEW040 SCT080 09/07 Q1016
                        NOSIG=
201101040400 METAR LMML NIL=
201101040345 METAR LMML 040345Z 29005KT 9999 FEW040 SCT080 10/08 Q1016
                        NOSIG=
201101040330 METAR LMML NIL=
201101040315 METAR LMML 040315Z 27003KT 9999 FEW040 SCT080 10/08 Q1016
                        NOSIG=
201101040300 METAR LMML NIL=
201101040245 METAR LMML 040245Z 26004KT 9999 FEW040 SCT080 09/08 Q1016
                        NOSIG=
201101040230 METAR LMML NIL=
201101040215 METAR LMML 040215Z 26004KT 9999 FEW030 SCT080 09/08 Q1016
                        NOSIG=
201101040200 METAR LMML NIL=
201101040145 METAR LMML 040145Z 24003KT 9999 FEW030 SCT080 10/08 Q1017
                        NOSIG=
201101040130 METAR LMML NIL=
201101040115 METAR LMML 040115Z 30004KT 9999 FEW048 SCT059 BKN082 10/08
                        Q1017 NOSIG=
201101040100 METAR LMML NIL=
201101040045 METAR LMML 040045Z 29004KT 9999 FEW046 BKN055 11/08 Q1017
                        NOSIG=
201101040030 METAR LMML NIL=
201101040015 METAR LMML 040015Z 28007KT 9999 SCT035 BKN060 10/08 Q1017
                        RESHRA NOSIG=
201101040000 METAR LMML NIL=
201101032345 METAR LMML 032345Z 27003KT 9999 -SHRA FEW015 BKN031 BKN060
                        10/09 Q1017 RESHRA TEMPO 8000 SHRA=
201101032330 METAR LMML NIL=
201101032315 METAR LMML 032315Z 27006KT 230V310 9999 FEW033 BKN060 10/07
                        Q1017 NOSIG=
201101032300 METAR LMML NIL=
201101032245 METAR LMML 032245Z 26005KT 230V300 9999 FEW044 10/07 Q1017
                        NOSIG=
201101032230 METAR LMML NIL=
201101032215 METAR LMML 032215Z 31004KT 9999 FEW040 SCT060 10/07 Q1016
                        NOSIG=
201101032200 METAR LMML NIL=
201101032145 METAR LMML 032145Z 31004KT 9999 FEW044 BKN055 11/08 Q1016
                        NOSIG=
201101032130 METAR LMML NIL=
201101032115 METAR LMML 032115Z 30005KT 9999 -RA FEW035 BKN057 11/08 Q1016
                        NOSIG=
201101032100 METAR LMML NIL=
201101032045 METAR LMML 032045Z 30004KT 9999 FEW040 BKN060 11/08 Q1016
                        NOSIG=
201101032030 METAR LMML NIL=
201101032015 METAR LMML 032015Z 29004KT 250V320 9999 FEW030 BKN060 11/08
                        Q1016 NOSIG=
201101032000 METAR LMML NIL=
201101031945 METAR LMML 031945Z 30005KT 260V330 CAVOK 11/08 Q1016 NOSIG=
201101031930 METAR LMML NIL=
201101031915 METAR LMML 031915Z VRB02KT CAVOK 11/08 Q1016 NOSIG=
201101031900 METAR LMML NIL=
201101031845 METAR LMML 031845Z 30004KT 270V330 9999 FEW033 BKN050 11/09
                        Q1016 NOSIG=
201101031830 METAR LMML NIL=
201101031815 METAR LMML 031815Z 30004KT 9999 FEW033 BKN050 11/09 Q1015
                        NOSIG=
201101031800 METAR LMML NIL=
201101031745 METAR LMML 031745Z VRB02KT 9999 FEW033 SCT060 11/09 Q1015
                        NOSIG=
201101031730 METAR LMML NIL=
201101031715 METAR LMML 031715Z VRB01KT 9999 SCT024 BKN050 11/10 Q1015
                        NOSIG=
201101031700 METAR LMML NIL=
201101031645 METAR LMML 031645Z 33003KT 9999 SHRA BKN014 11/10 Q1015 NOSIG=
201101031615 METAR LMML 031615Z VRB01KT 9999 SHRA BKN016TCU 11/10 Q1014
                        NOSIG=
201101031600 METAR LMML NIL=
201101031545 METAR LMML 031545Z 02003KT 9999 SCT019 SCT100 11/10 Q1014
                        TEMPO BKN018TCU=
201101031530 METAR LMML NIL=
201101031515 METAR LMML 031515Z 34003KT 9999 SCT023 SCT100 12/09 Q1014
                        TEMPO BKN018TCU=
201101031500 METAR LMML NIL=
201101031445 METAR LMML 031445Z 31010KT 270V330 9999 SHRA SCT018 SCT100
                        12/09 Q1014 TEMPO BKN018TCU=
201101031430 METAR LMML NIL=
201101031415 METAR LMML 031415Z 32007KT 280V340 9999 SCT024 SCT100 13/09
                        Q1013 TEMPO 9000 SHRA BKN018TCU=
201101031400 METAR LMML NIL=
201101031345 METAR LMML 031345Z 34007KT 9999 SCT022 SCT100 14/09 Q1013
                        TEMPO 9000 SHRA BKN018TCU=
201101031330 METAR LMML NIL=
201101031315 METAR LMML 031315Z 32004KT 290V030 9999 SCT026 15/09 Q1013
                        TEMPO 9000 SHRA=
201101031300 METAR LMML NIL=
201101031245 METAR LMML 031245Z VRB02KT 9999 BKN024TCU 15/09 Q1013 TEMPO
                        9000 SHRA=
201101031230 METAR LMML NIL=
201101031215 METAR LMML 031215Z VRB02KT 9999 SCT023 14/10 Q1013 NOSIG=
201101031200 METAR LMML NIL=
201101031145 METAR LMML 031145Z 32004KT 9999 SCT019TCU 13/10 Q1013 NOSIG=
201101031130 METAR LMML NIL=
201101031115 METAR LMML 031115Z VRB02KT 9999 SCT023 16/11 Q1013 NOSIG=
201101031100 METAR LMML NIL=
201101031045 METAR LMML 031045Z 30003KT 9999 FEW025 SCT100 14/10 Q1013
                        NOSIG=
201101031015 METAR LMML 031015Z VRB02KT 9999 FEW025 SCT060 13/10 Q1013
                        NOSIG=
201101030945 METAR LMML 030945Z 29003KT 9999 FEW025 BKN060 13/09 Q1014
                        NOSIG=
201101030930 METAR LMML NIL=
201101030915 METAR LMML 030915Z 28004KT 240V310 9999 FEW025 BKN060 12/10
                        Q1014 TEMPO 8000 SHRA=
201101030845 METAR LMML 030845Z 26003KT 9999 FEW025 BKN060 12/11 Q1013
                        NOSIG=
201101030830 METAR LMML NIL=
201101030815 METAR LMML 030815Z 32004KT 9999 FEW025 SCT060 11/10 Q1013
                        NOSIG=
201101030800 METAR LMML NIL=
201101030745 METAR LMML 030745Z 31003KT 9999 FEW025 SCT050 11/10 Q1013
                        NOSIG=
201101030730 METAR LMML NIL=
201101030715 METAR LMML 030715Z 27004KT 240V300 9999 -RA FEW025 SCT050
                        11/09 Q1013 TEMPO 8000 SHRA BKN020TCU=
201101030700 METAR LMML NIL=
201101030645 METAR LMML 030645Z 28003KT 9999 FEW025 SCT050 10/08 Q1012
                        TEMPO 8000 SHRA BKN020TCU=
201101030615 METAR LMML 030615Z 26003KT 9999 FEW020 SCT070 09/08 Q1012
                        TEMPO 5000 TSRA BKN015CB=
201101030600 METAR LMML NIL=
201101030545 METAR LMML 030545Z 25003KT 9999 FEW020 SCT070 09/08 Q1012
                        TEMPO 5000 TSRA BKN015CB=
201101030530 METAR LMML NIL=
201101030515 METAR LMML 030515Z 29003KT CAVOK 09/09 Q1012 TEMPO 5000 TSRA
                        BKN015CB=
201101030445 METAR LMML 030445Z 28004KT 240V310 9999 FEW044 SCT050 09/09
                        Q1012 TEMPO 5000 TSRA BKN015CB=
201101030430 METAR LMML NIL=
201101030415 METAR LMML 030415Z 33005KT 9999 SCT043 BKN050 10/09 Q1012
                        RERA TEMPO 5000 TSRA BKN015CB=
201101030400 METAR LMML NIL=
201101030345 METAR LMML 030345Z 31003KT 9999 FEW043 SCT050 BKN090 10/09
                        Q1012 RERA TEMPO 5000 TSRA BKN015CB=
201101030330 METAR LMML NIL=
201101030315 METAR LMML 030315Z 29004KT 9000 RA FEW037 SCT050 BKN090 10/09
                        Q1012 TEMPO 5000 TSRA BKN015CB=
201101030300 METAR LMML NIL=
201101030245 METAR LMML 030245Z 26006KT 9999 FEW023 SCT050 BKN090 10/08
                        Q1012 TEMPO 5000 TSRA BKN015CB=
201101030230 METAR LMML NIL=
201101030215 METAR LMML 030215Z VRB02KT 9999 FEW023 SCT050 BKN090 10/08
                        Q1012 TEMPO 5000 TSRA BKN015CB=
201101030200 METAR LMML NIL=
201101030145 METAR LMML 030145Z 29006KT 250V320 9000 -RA FEW023 SCT040
                        BKN080 10/08 Q1012 TEMPO 5000 TSRA
                        BKN015CB=
201101030130 METAR LMML NIL=
201101030115 METAR LMML 030115Z 25005KT 220V290 9999 FEW015 SCT045 BKN080
                        10/08 Q1012 TEMPO 5000 TSRA BKN015CB=
201101030100 METAR LMML NIL=
201101030045 METAR LMML 030045Z 26006KT 9000 -RA FEW015 SCT050 BKN080
                        10/09 Q1012 TEMPO 8000 SHRA BKN015=
201101030030 METAR LMML NIL=
201101030015 METAR LMML 030015Z 28009KT 240V300 9999 -RA FEW015 SCT037
                        BKN090 11/10 Q1012 TEMPO 8000 SHRA
                        BKN015=
201101030000 METAR LMML NIL=
201101022345 METAR LMML 022345Z 29007KT 9999 -RA FEW015 SCT050 BKN090
                        11/09 Q1012 TEMPO 8000 SHRA BKN015=
201101022330 METAR LMML NIL=
201101022315 METAR LMML 022315Z 29005KT 260V320 9999 FEW015 SCT090 11/08
                        Q1012 TEMPO 8000 SHRA BKN015=
201101022245 METAR COR LMML 022245Z 29004KT 270V330 9999 FEW015 SCT090
                        11/08 Q1012 TEMPO 8000 SHRA BKN015=
201101022230 METAR LMML NIL=
201101022215 METAR LMML 022215Z 29006KT 260V320 9999 FEW015 SCT090 11/08
                        Q1013 NOSIG=
201101022200 METAR LMML NIL=
201101022145 METAR LMML 022145Z 28005KT 250V310 9999 FEW015 11/08 Q1013
                        NOSIG=
201101022130 METAR LMML NIL=
201101022115 METAR LMML 022115Z 28005KT 250V310 9999 FEW015 11/08 Q1013
                        NOSIG=
201101022100 METAR LMML NIL=
201101022045 METAR LMML 022045Z 29003KT 9999 FEW015 10/08 Q1012 NOSIG=
201101022030 METAR LMML NIL=
201101022015 METAR LMML 022015Z 29004KT 260V320 9999 FEW020 11/08 Q1012
                        NOSIG=
201101022000 METAR LMML NIL=
201101021945 METAR LMML 021945Z 29005KT 9999 FEW025 11/09 Q1012 NOSIG=
201101021930 METAR LMML NIL=
201101021915 METAR LMML 021915Z 28004KT 240V310 9999 FEW025 11/09 Q1012
                        NOSIG=
201101021900 METAR LMML NIL=
201101021845 METAR LMML 021845Z 29005KT 260V320 9999 FEW025 BKN070 11/09
                        Q1012 NOSIG=
201101021830 METAR LMML NIL=
201101021815 METAR LMML 021815Z 28004KT 240V320 9999 FEW025 SCT070 11/08
                        Q1012 NOSIG=
201101021745 METAR LMML 021745Z 29003KT 9999 FEW025 SCT090 12/08 Q1012
                        NOSIG=
201101021730 METAR LMML NIL=
201101021715 METAR LMML 021715Z 29004KT 9999 FEW023 SCT090 12/08 Q1012
                        NOSIG=
201101021700 METAR LMML NIL=
201101021645 METAR LMML 021645Z 29004KT 260V320 9999 FEW023 SCT100 12/09
                        Q1012 NOSIG=
201101021630 METAR LMML NIL=
201101021615 METAR LMML 021615Z 30005KT 9999 FEW023 SCT100 12/09 Q1012
                        TEMPO 8000 SHRA BKN015=
201101021545 METAR LMML 021545Z 31007KT 9999 FEW023 SCT100 12/09 Q1012
                        TEMPO 8000 SHRA BKN015=
201101021530 METAR LMML NIL=
201101021515 METAR LMML 021515Z 32008KT 290V350 9999 FEW023 SCT100 13/09
                        Q1012 NOSIG=
201101021500 METAR LMML NIL=
201101021445 METAR LMML 021445Z 33009KT 9999 FEW021 SCT250 14/09 Q1012
                        NOSIG=
201101021430 METAR LMML NIL=
201101021415 METAR LMML 021415Z 33008KT 280V360 9999 FEW021 BKN250 14/10
                        Q1011 NOSIG=
201101021400 METAR LMML NIL=
201101021345 METAR LMML 021345Z 34010KT 9999 FEW020 BKN250 14/10 Q1011
                        NOSIG=
201101021330 METAR LMML NIL=
201101021315 METAR LMML 021315Z 33010KT 9999 FEW021 BKN250 14/10 Q1011
                        NOSIG=
201101021300 METAR LMML NIL=
201101021245 METAR LMML 021245Z 32009KT 9999 FEW021 BKN250 15/10 Q1011
                        NOSIG=
201101021230 METAR LMML NIL=
201101021215 METAR LMML 021215Z 32010KT 9999 FEW021 BKN250 15/11 Q1011
                        NOSIG=
201101021200 METAR LMML NIL=
201101021145 METAR LMML 021145Z 32009KT 290V350 9999 SCT024 BKN250 15/10
                        Q1012 NOSIG=
201101021130 METAR LMML NIL=
201101021115 METAR LMML 021115Z 32006KT 9999 SCT023 BKN250 14/10 Q1012
                        TEMPO 8000 SHRA BKN015=
201101021100 METAR LMML NIL=
201101021045 METAR LMML 021045Z 33005KT 300V010 9999 BKN023 BKN250 15/10
                        Q1012 TEMPO 8000 SHRA BKN015=
201101021030 METAR LMML NIL=
201101021015 METAR LMML 021015Z 32004KT 270V360 9999 SCT022 SCT250 15/11
                        Q1012 TEMPO 8000 SHRA BKN015=
201101021000 METAR LMML NIL=
201101020945 METAR LMML 020945Z 32004KT 290V360 9999 FEW021 SCT250 15/10
                        Q1012 NOSIG=
201101020930 METAR LMML NIL=
201101020915 METAR LMML 020915Z VRB02KT 9999 FEW025 SCT250 15/11 Q1012
                        NOSIG=
201101020900 METAR LMML NIL=
201101020845 METAR LMML 020845Z VRB01KT 9999 FEW025 14/12 Q1012 NOSIG=
201101020830 METAR LMML NIL=
201101020815 METAR LMML 020815Z VRB02KT 9999 BKN023 11/11 Q1012 TEMPO
                        8000 SHRA BKN015=
201101020800 METAR LMML NIL=
201101020745 METAR LMML 020745Z VRB01KT 9999 -SHRA BKN023 SCT040 13/11
                        Q1012 TEMPO 8000 SHRA BKN015=
201101020730 METAR LMML NIL=
201101020715 METAR LMML 020715Z VRB01KT 9999 FEW026 11/11 Q1012 NOSIG=
201101020700 METAR LMML NIL=
201101020645 METAR LMML 020645Z VRB01KT 9999 FEW026 09/09 Q1012 TEMPO
                        7000 SHRA BKN015=
201101020630 METAR LMML NIL=
201101020615 METAR LMML 020615Z VRB02KT 9999 FEW026 SCT079 10/10 Q1011
                        TEMPO 7000 SHRA BKN015=
201101020600 METAR LMML NIL=
201101020545 METAR LMML 020545Z VRB02KT 9999 FEW026 SCT043 BKN070 10/10
                        Q1012 TEMPO 7000 SHRA BKN015=
201101020530 METAR LMML NIL=
201101020515 METAR LMML 020515Z VRB01KT 9999 -RA FEW029 SCT049 BKN060
                        09/09 Q1012 TEMPO 7000 SHRA BKN015=
201101020500 METAR LMML NIL=
201101020445 METAR LMML 020445Z 18003KT 9999 -SHRA SCT033 10/10 Q1012
                        TEMPO 7000 SHRA BKN015=
201101020430 METAR LMML NIL=
201101020415 METAR LMML 020415Z VRB02KT 9999 FEW027 SCT090 10/10 Q1012
                        TEMPO 7000 SHRA BKN015=
201101020400 METAR LMML NIL=
201101020345 METAR LMML 020345Z VRB02KT 9999 FEW020 SCT050 BKN080 10/10
                        Q1012 TEMPO 7000 SHRA BKN015=
201101020330 METAR LMML NIL=
201101020315 METAR LMML 020315Z 15003KT 9999 FEW020 BKN090 10/10 Q1012
                        TEMPO 7000 SHRA BKN015=
201101020300 METAR LMML NIL=
201101020245 METAR LMML 020245Z VRB01KT 9999 SCT023 BKN050 10/10 Q1012
                        TEMPO 7000 SHRA BKN015=
201101020230 METAR LMML NIL=
201101020215 METAR LMML 020215Z 17004KT 9999 FEW020 BKN049 10/10 Q1012
                        TEMPO 7000 SHRA BKN015=
201101020200 METAR LMML NIL=
201101020145 METAR LMML 020145Z VRB01KT 9999 FEW020 BKN050 09/09 Q1013
                        TEMPO 7000 SHRA BKN015=
201101020130 METAR LMML NIL=
201101020115 METAR LMML 020115Z VRB01KT 9999 FEW020 SCT050 BKN090 10/09
                        Q1013 TEMPO 7000 SHRA BKN015=
201101020100 METAR LMML NIL=
201101020045 METAR LMML 020045Z 00000KT 9999 FEW020 SCT050 BKN090 09/09
                        Q1013 TEMPO 7000 SHRA BKN015=
201101020030 METAR LMML NIL=
201101020015 METAR LMML 020015Z VRB01KT 9999 FEW020 SCT050 10/09 Q1013
                        TEMPO 7000 SHRA BKN015=
201101020000 METAR LMML NIL=
201101012345 METAR LMML 012345Z 28003KT 9999 FEW015 SCT090 10/10 Q1013
                        RERA TEMPO 7000 SHRA BKN015=
201101012330 METAR LMML NIL=
201101012315 METAR LMML 012315Z VRB02KT 9999 FEW017 BKN080 10/10 Q1013
                        RERA NOSIG=
201101012300 METAR LMML NIL=
201101012245 METAR LMML 012245Z VRB01KT 9000 RA FEW017 BKN050 11/10 Q1014
                        TEMPO 7000 SHRA BKN015=
201101012230 METAR LMML NIL=
201101012215 METAR LMML 012215Z 28007KT 9000 SHRA SCT017 BKN050 11/10
                        Q1014 TEMPO 7000 SHRA BKN015=
201101012145 METAR LMML 012145Z 29005KT 260V320 9999 -SHRA SCT018 SCT060
                        11/10 Q1014 TEMPO 7000 TSRA SCT005
                        BKN015CB=
201101012130 METAR LMML NIL=
201101012115 METAR LMML 012115Z 27003KT 9999 SCT020 SCT090 11/10 Q1014
                        TEMPO 7000 TSRA SCT005 BKN015CB=
201101012100 METAR LMML NIL=
201101012045 METAR LMML 012045Z 30003KT 9999 SCT020 11/10 Q1014 TEMPO
                        7000 TSRA SCT005 BKN015CB=
201101012030 METAR LMML NIL=
201101012015 METAR LMML 012015Z 27003KT 9999 BKN018 11/10 Q1014 TEMPO
                        7000 TSRA SCT005 BKN015CB=
201101012000 METAR LMML NIL=
201101011945 METAR LMML 011945Z 28003KT 9999 SCT018 11/10 Q1014 TEMPO
                        7000 TSRA SCT005 BKN015CB=
201101011930 METAR LMML NIL=
201101011915 METAR LMML 011915Z VRB02KT 9999 SCT016 11/10 Q1014 TEMPO
                        7000 TSRA SCT005 BKN015CB=
201101011900 METAR LMML NIL=
201101011845 METAR LMML 011845Z 29003KT 9999 SCT016 11/10 Q1014 TEMPO
                        7000 TSRA SCT005 BKN015CB=
201101011830 METAR LMML NIL=
201101011815 METAR LMML 011815Z 29003KT 9999 FEW020 BKN090 11/10 Q1014
                        TEMPO 7000 TSRA SCT005 BKN015CB=
201101011800 METAR LMML NIL=
201101011745 METAR LMML 011745Z VRB02KT 9999 FEW021 BKN090 11/10 Q1014
                        NOSIG=
201101011730 METAR LMML NIL=
201101011715 METAR LMML 011715Z VRB01KT 9999 FEW021 BKN090 11/10 Q1014
                        NOSIG=
201101011700 METAR LMML NIL=
201101011645 METAR LMML 011645Z 06005KT 020V080 9999 -RA SCT020 BKN080
                        11/10 Q1014 NOSIG=
201101011630 SPECI LMML 011630Z 06006KT 030V090 9999 -RA SCT011 BKN060
                        11/11 Q1014 NOSIG=
201101011630 METAR LMML NIL=
201101011615 METAR LMML 011615Z 34006KT 310V080 5000 RA FEW004 SCT010
                        BKN060 11/10 Q1014 TEMPO TSRA BKN015CB=
201101011600 METAR LMML NIL=
201101011545 METAR LMML 011545Z 34004KT 5000 RA SCT015 BKN080 13/12 Q1014
                        TEMPO TSRA BKN015CB=
201101011536 SPECI LMML 011536Z 34004KT 4000 RA FEW010 BKN015 13/12 Q1014
                        TEMPO TSRA BKN015CB=
201101011530 METAR LMML NIL=
201101011515 METAR LMML 011515Z 33003KT 8000 TSRA SCT015CB BKN080 13/11
                        Q1014 TEMPO 5000 TSRA BKN015CB=
201101011500 METAR LMML NIL=
201101011445 METAR LMML 011445Z 35005KT 6000 TSRA SCT018CB BKN070 13/12
                        Q1014 TEMPO 5000 TSRA BKN015CB=
201101011430 METAR LMML NIL=
201101011415 METAR LMML 011415Z 03004KT 360V070 9000 TSRA SCT021CB BKN070
                        14/10 Q1014 TEMPO 5000 TSRA BKN015CB=
201101011400 METAR LMML NIL=
201101011345 METAR LMML 011345Z 03007KT 360V090 9999 FEW020CB SCT023 BKN070
                        14/10 Q1014 TEMPO 5000 TSRA BKN015CB
                        RMK LIGHTNING TO WEST=
201101011330 METAR LMML NIL=
201101011315 METAR LMML 011315Z 03006KT 010V070 9999 BKN020 BKN070 15/10
                        Q1014 TEMPO 5000 TSRA BKN015CB=
201101011300 METAR LMML NIL=
201101011245 METAR LMML 011245Z 03008KT 360V060 9999 BKN021 BKN080 15/11
                        Q1014 TEMPO 8000 SHRA BKN015TCU=
201101011230 METAR LMML NIL=
201101011215 METAR LMML 011215Z 04007KT 010V100 9999 SCT021 BKN080 15/11
                        Q1014 TEMPO 8000 SHRA BKN015TCU=
201101011200 METAR LMML NIL=
201101011145 METAR LMML 011145Z 05006KT 340V100 9999 SCT021 BKN080 15/11
                        Q1015 TEMPO 8000 SHRA BKN015TCU=
201101011130 METAR LMML NIL=
201101011115 METAR LMML 011115Z 07007KT 040V100 9999 SCT022 BKN080 15/11
                        Q1015 TEMPO 8000 SHRA BKN015TCU=
201101011100 METAR LMML NIL=
201101011045 METAR LMML 011045Z 08007KT 9999 SCT022 BKN080 15/10 Q1015
                        TEMPO 8000 SHRA BKN015TCU=
201101011030 METAR LMML NIL=
201101011015 METAR LMML 011015Z 05008KT 020V080 9999 BKN022 SCT080 15/11
                        Q1016 TEMPO 7000 TSRA BKN015CB=
201101011000 METAR LMML NIL=
201101010945 METAR LMML 010945Z 06007KT 030V100 9999 BKN021 SCT080 15/10
                        Q1016 TEMPO 7000 TSRA BKN015CB=
201101010930 METAR LMML NIL=
201101010915 METAR LMML 010915Z 08008KT 040V100 9999 FEW023 SCT080 15/11
                        Q1016 TEMPO 7000 TSRA BKN015CB=
201101010900 METAR LMML NIL=
201101010845 METAR LMML 010845Z 08008KT 050V110 9999 FEW023 SCT080 15/11
                        Q1016 TEMPO 7000 TSRA BKN015CB=
201101010830 METAR LMML NIL=
201101010815 METAR LMML 010815Z 07008KT 030V100 9999 FEW023 BKN080 15/11
                        Q1016 TEMPO 7000 TSRA BKN015CB=
201101010800 METAR LMML NIL=
201101010745 METAR LMML 010745Z 07007KT 040V100 9999 FEW023 BKN120 14/10
                        Q1016 TEMPO 7000 TSRA BKN015CB=
201101010730 METAR LMML NIL=
201101010715 METAR LMML 010715Z 08006KT 9999 FEW023 BKN120 13/10 Q1016
                        NOSIG=
201101010700 METAR LMML NIL=
201101010645 METAR LMML 010645Z 08006KT 9999 FEW020 BKN120 12/10 Q1016
                        NOSIG=
201101010630 METAR LMML NIL=
201101010615 METAR LMML 010615Z 08005KT 9999 FEW020 BKN120 12/10 Q1016
                        NOSIG=
201101010600 METAR LMML NIL=
201101010545 METAR LMML 010545Z 07004KT 9999 FEW019 SCT120 12/10 Q1016
                        NOSIG=
201101010530 METAR LMML NIL=
201101010515 METAR LMML 010515Z 07005KT 9999 FEW015 12/10 Q1015 NOSIG=
201101010500 METAR LMML NIL=
201101010445 METAR LMML 010445Z 08005KT 050V110 9999 FEW015 12/11 Q1015
                        NOSIG=
201101010430 METAR LMML NIL=
201101010415 METAR LMML 010415Z 07004KT 040V100 9999 FEW015 12/11 Q1016
                        NOSIG=
201101010400 METAR LMML NIL=
201101010345 METAR LMML 010345Z 07005KT 040V100 9999 FEW015 12/11 Q1016
                        NOSIG=
201101010330 METAR LMML NIL=
201101010315 METAR LMML 010315Z 08006KT 9999 FEW014 12/11 Q1016 NOSIG=
201101010245 METAR LMML 010245Z 07005KT 9999 FEW014 12/11 Q1016 NOSIG=
201101010215 METAR LMML 010215Z 06004KT 030V090 9999 FEW013 13/11 Q1016
                        NOSIG=
201101010200 METAR LMML NIL=
201101010145 METAR LMML 010145Z 07004KT 9999 FEW013 13/12 Q1016 NOSIG=
201101010130 METAR LMML NIL=
201101010115 METAR LMML 010115Z 06003KT 9999 FEW013 13/12 Q1016 NOSIG=
201101010100 METAR LMML NIL=
201101010045 METAR LMML 010045Z 08004KT 9999 FEW013 SCT037 13/12 Q1016
                        NOSIG=
201101010015 METAR LMML 010015Z 09004KT 9999 SCT036 13/11 Q1017 NOSIG=
201101010000 METAR LMML NIL=

###################################
#  short TAF from LMML
###################################
201101312300 TAF LMML 312300Z 0100/0109 11014KT 9999 SCT007 SCT018 BKN060
                      TEMPO 0100/0109 7000 RA BKN005 BKN015 BKN050
                       PROB30
                      TEMPO 0100/0108 1500 TSRA BKN003 BKN013CB
                       BKN050
                      BECMG 0104/0107 17013KT
                      BECMG 0107/0109 24009KT=
201101312000 TAF LMML 312000Z 3121/0106 09013KT 9999 SCT008 SCT018 BKN080
                      TEMPO 3121/0106 7000 RA BKN008 BKN015 BKN070
                       PROB30
                      TEMPO 3121/0106 1500 TSRA BKN005 BKN015CB
                       BKN060
                      BECMG 0102/0105 15013KT=
201101311700 TAF LMML 311700Z 3118/0103 11013KT 9999 SCT013
                      TEMPO 3118/0103 7000 RA BKN012
                      TEMPO 3118/0103 BKN008
                      PROB30 TEMPO 3121/0103 5000 TSRA BKN015CB=
201101311400 TAF LMML 311400Z 3115/3124 09013KT 9999 SCT014
                      TEMPO 1315/1324 BKN012
                      PROB40 TEMPO 3118/3124 8000 RA BKN008
                      PROB30 TEMPO 3121/3124 5000 TSRA BKN015CB=
201101311100 TAF LMML 311100Z 3112/3121 09013KT 9999 SCT012
                      TEMPO 3112/3121 BKN011
                      PROB40 TEMPO 3115/3121 8000 RA BKN008=
201101310800 TAF LMML 310800Z 3109/3118 06010KT 9999 FEW015
                      PROB40 TEMPO 3110/3115 BKN015=
201101310500 TAF LMML 310500Z 3106/3115 06010KT 9999 SCT015 BKN100
                      TEMPO 3106/3115 BKN015
                      TEMPO 3112/3115 8000 RA BKN080=
201101310200 TAF LMML 310200Z 3103/3112 03006KT 9000 FEW006 SCT013 BKN080
                      TEMPO 3103/3106 5000 BR BKN005 BKN012
                      BECMG 3106/3109 9999=
201101302300 TAF LMML 302300Z 3100/3109 04006KT 8000 SCT006 SCT015 BKN080
                      TEMPO 3100/3106 5000 BR BKN005 BKN012=
201101302000 TAF LMML 302000Z 3021/3106 03005KT 8000 SCT006 SCT012 BKN080
                      TEMPO 3021/3106 4000 BR BKN004 BKN012=
201101301700 TAF LMML 301700Z 3018/3103 05005KT 9999 SCT013
                      TEMPO 3018/3103 8000 RA BKN008
                      PROB40 TEMPO 3018/3103 5000 BR BKN005
                      PROB30 TEMPO 3021/3103 0500 BCFG BKN002=
201101301400 TAF LMML 301400Z 3015/3024 08007KT 9999 SCT012
                      TEMPO 3015/3024 9000 BKN008
                      PROB40 TEMPO 3016/3024 5000 BR BKN005
                      PROB30 TEMPO 3021/3024 0500 BCFG BKN002=
201101301100 TAF LMML 301100Z 3012/3021 08008KT 9000 BKN009
                      BECMG 3012/3015 9999 SCT015
                      PROB30 TEMPO 3015/3021 8000 BKN008=
201101300800 TAF LMML 300800Z 3009/3018 VRB05KT 3000 BR BKN005
                      BECMG 3009/3012 9999 FEW012=
201101300500 TAF LMML 300500Z 3006/3015 VRB03KT 9999 FEW007
                      TEMPO 3006/3008 0100 FG BKN001=
201101300200 COR LMML 300200Z 3003/3012 VRB03KT 5000 MIFG FEW001
                      TEMPO 3003/3007 0100 FG BKN001
                      BECMG 3007/3010 06005KT SCT008 BKN060=
201101292300 TAF LMML 292300Z 3000/3009 VRB03KT 0800 BCFG BKN001
                      BECMG 3006/3009 9000 BKN008=
201101292000 TAF LMML 292000Z 2921/3006 VRB03KT 9000 FEW006
                      TEMPO 2921/3006 5000 BR BKN005
                      PROB30 TEMPO 2023/3006 0800 BCFG BKN001=
201101291700 TAF LMML 291700Z 2918/3003 VRB03KT 9999 FEW008 SCT060
                      TEMPO 2918/3003 6000 BKN006=
201101291400 TAF LMML 291400Z 2915/2924 21007KT 9999 FEW015=
201101291100 TAF LMML 291100Z 2912/2921 21008KT 9999 SCT020=
201101290800 TAF LMML 290800Z 2909/2918 23008KT 9999 SCT020=
201101290500 TAF LMML 290500Z 2906/2915 25005KT 9999 FEW020
                      TEMPO 2906/2915 CAVOK=
201101290200 TAF LMML 290200Z 2903/2912 27008KT 9999 FEW020=
201101282300 TAF LMML 282300Z 2900/2909 28010KT 9999 FEW018=
201101282000 TAF LMML 282000Z 2821/2906 30010KT 9999 FEW018=
201101281700 TAF LMML 281700Z 2818/2903 31008KT 9999 FEW011
                      PROB30 TEMPO 2821/2903 9000=
201101281400 TAF LMML 281400Z 2815/2824 31010KT 9999 SCT015
                      PROB30 TEMPO 2815/2821 BKN015=
201101281100 TAF LMML 281100Z 2812/2821 29015KT 9999 SCT018
                      PROB30 TEMPO 2812/2821 BKN015=
201101280800 TAF LMML 280800Z 2809/2818 28017KT 9999 SCT020=
201101280500 TAF LMML 280500Z 2806/2815 28015KT 9999 SCT018
                      PROB30 TEMPO 2806/2809 9000 BKN013=
201101280200 TAF LMML 280200Z 2803/2812 28015KT 9999 SCT015
                      TEMPO 2803/2809 BKN012
                      PROB30 TEMPO 2803/2806 9000 BKN010=
201101272300 TAF LMML 272300Z 2800/2809 27013KT 8000 BKN010
                      BECMG 2800/2803 9999 SCT013
                      PROB30 TEMPO 2800/2806 5000 BKN005
                      TEMPO 2803/2809 9000 BKN012=
201101272000 TAF LMML 272000Z 2721/2806 25013KT 6000 NSC
                      BECMG 2721/2724 9999 SCT013
                      PROB30 TEMPO 2721/2803 5000 BR BKN005
                      TEMPO 2800/2806 9000 BKN012=
201101271700 TAF LMML 271700Z 2718/2803 24013KT 9000 FEW015
                      TEMPO 2718/2803 6000
                      PROB30 TEMPO 2718/2800 3000 DU
                      PROB30 TEMPO 2721/2803 BKN013=
201101271400 TAF LMML 271400Z 2715/2724 24016KT 9999 FEW015
                      PROB30 TEMPO 2715/2724 8000
                      PROB30 TEMPO 2721/2724 BKN013=
201101271100 TAF LMML 271100Z 2712/2721 14018KT 9999 FEW020
                      BECMG 2712/2715 24016KT=
201101270800 TAF LMML 270800Z 2709/2718 14016KT 9999 SCT020
                      PROB30 TEMPO 2709/2710 BKN015
                      BECMG 2711/2714 24015KT=
201101270500 TAF LMML 270500Z 2706/2715 15015KT 9999 SCT012 BKN080
                      TEMPO 2706/2715 15015G25KT 6000 RA BKN008
                       BKN012
                      BECMG 2712/2715 23015KT=
201101270200 TAF LMML 270200Z 2703/2712 14014KT 9999 SCT015 BKN050
                      TEMPO 2703/2712 6000 RA BKN012
                      PROB30 TEMPO 2703/2706 5000 TSRA BKN012CB=
201101262300 TAF LMML 262300Z 2700/2709 18008KT 9999 SCT020 BKN060
                      TEMPO 2700/2709 7000 RA BKN015 BKN050
                      PROB30 TEMPO 2700/2706 5000 TSRA BKN015CB=
201101262000 TAF LMML 262000Z 2621/2706 21008KT 9999 SCT030 SCT070
                      BECMG 2700/2703 14012KT
                      TEMPO 2621/2706 6000 RA BKN015 BKN050=
201101261700 TAF LMML 261700Z 2618/2703 23007KT 9999 SCT020
                      TEMPO 2618/2703 5000 SHRA BKN015
                      PROB30 TEMPO 2622/2703 3000 TSRA BKN015CB
                       BECMG 2700/2703 15014KT=
201101261400 TAF LMML 261400Z 2615/2624 24008KT 9999 SCT020
                      PROB30 TEMPO 2618/2624 9000 BKN015
                      BECMG 2621/2624 16010KT=
201101261100 TAF LMML 261100Z 2612/2621 18006KT 9999 SCT025 SCT050
                      TEMPO 2612/2616 8000 RA BKN015 BKN040
                      PROB30 TEMPO 2612/2615 3000 TSRA BKN015CB
                       BKN040
                      BECMG 2614/2617 24010KT
                      BECMG 2618/2621 18007KT=
201101260800 TAF LMML 260800Z 2609/2618 18004KT 9999 SCT025 BKN040
                      TEMPO 2609/2616 8000 RA BKN015 BKN030
                      PROB30 TEMPO 2609/2615 3000 TSRA BKN015CB
                       BKN030
                      BECMG 2612/2615 24010KT=
201101260500 TAF LMML 260500Z 2606/2615 VRB03KT 9999 SCT025 BKN040
                      TEMPO 2606/2615 8000 SHRA BKN020=
201101260200 TAF LMML 260200Z 2603/2612 VRB04KT 9999 SCT030 OVC045
                      TEMPO 2603/2612 8000 RA
                      PROB30 TEMPO 2603/2612 SHRA BKN025TCU=
201101252300 TAF LMML 252300Z 2600/2609 VRB03KT 9999 SCT030 OVC045
                      TEMPO 2600/2609 8000 RA
                      PROB30 TEMPO 2603/2609 SHRA BKN025TCU=
201101252000 TAF LMML 252000Z 2521/2606 VRB03KT 9999 SCT030 BKN045
                      TEMPO 2521/2606 8000 RA
                      PROB30 TEMPO 2603/2606 SHRA BKN030TCU=
201101251700 TAF LMML 251700Z 2518/2603 09005KT 9999 SCT030 BKN060
                      TEMPO 2518/2603 8000 RA=
201101251400 TAF LMML 251400Z 2515/2524 10007KT 9999 FEW030 SCT090
                      TEMPO 2518/2524 7000 RA BKN015 BKN050=
201101251100 TAF LMML 251100Z 2512/2521 08008KT 9999 FEW035 BKN130
                      TEMPO 2518/2521 7000 RA BKN015 BKN050=
201101250800 TAF LMML 250800Z 2509/2518 03008KT 9999 FEW030 SCT100
                      BECMG 2515/2518 9000 RA BKN020 BKN080=
201101250500 TAF LMML 250500Z 2506/2515 36005KT 9999 FEW025=
201101250200 TAF LMML 250200Z 2503/2512 36005KT 9999 FEW025=
201101242300 TAF LMML 242300Z 2500/2509 33005KT 9999 FEW025 SCT045=
201101242000 TAF LMML 242000Z 2421/2506 33008KT 9999 FEW025 SCT045=
201101241700 TAF LMML 241700Z 2418/2503 33008KT 9999 FEW025 BKN038=
201101241400 TAF LMML 241400Z 2415/2424 33008KT 9999 FEW025 SCT035=
201101241100 TAF LMML 241100Z 2412/2421 31010KT 9999 FEW025 SCT040
                      PROB30 TEMPO 2412/2418 9000 SHRA=
201101240800 TAF LMML 240800Z 2409/2418 27012KT 9999 FEW030
                      PROB30 TEMPO 2409/2418 9000 SHRA SCT025TCU
                       BECMG 2415/2418 33010KT=
201101240500 TAF LMML 240500Z 2406/2415 29008KT 9999 FEW030 SCT100
                      PROB30 TEMPO 2406/2415 8000 SHRA BKN015 BKN080=
201101240200 TAF LMML 240200Z 2403/2412 29007KT 9999 FEW030 SCT100
                      PROB30 TEMPO 2406/2412 8000 SHRA BKN015 BKN080=
201101232300 TAF LMML 232300Z 2400/2409 28007KT 9999 FEW030 SCT120
                      PROB30 TEMPO 2406/2409 8000 SHRA BKN015 BKN080=
201101232000 TAF LMML 232000Z 2321/2406 28005KT 9999 FEW030=
201101231700 TAF LMML 231700Z 2318/2403 28005KT 9999 FEW030=
201101231400 TAF LMML 231400Z 2315/2324 27007KT 9999 SCT038=
201101231100 TAF LMML 231100Z 2312/2321 27010KT 9999 FEW030=
201101230800 TAF LMML 230800Z 2309/2318 27010KT 9999 FEW030=
201101230500 TAF LMML 230500Z 2306/2315 27012KT 9999 SCT030 BKN050=
201101230200 TAF LMML 230200Z 2303/2312 27009KT 9999 SCT030=
201101222300 TAF LMML 222300Z 2300/2309 26008KT 9999 SCT030=
201101222000 TAF LMML 222000Z 2221/2306 26010KT 9999 SCT030=
201101221700 TAF LMML 221700Z 2218/2303 26012KT 9999 SCT030=
201101221400 TAF LMML 221400Z 2215/2224 27015KT 9999 SCT030
                      PROB30 TEMPO 2215/2224 26015G25KT=
201101221100 TAF LMML 221100Z 2212/2221 25015KT 9999 SCT030
                      PROB30 TEMPO 2212/2218 26015G25KT=
201101220800 TAF LMML 220800Z 2209/2218 30010KT 9999 SCT025
                      BECMG 2209/2212 24015KT
                      PROB30 TEMPO 2209/2218 26015G25KT=
201101220500 TAF LMML 220500Z 2206/2215 30015KT 9999 FEW030=
201101220200 TAF LMML 220200Z 2203/2212 30015KT 9999 FEW025 SCT090
                      TEMPO 2203/2206 8000 BKN018TCU
                      PROB40 TEMPO 2203/2206 3000 TSRA BKN015CB=
201101212300 TAF LMML 212300Z 2200/2209 23005KT 9999 FEW025 SCT090
                      PROB30 TEMPO 2200/2206 8000 SHRA BKN018TCU
                       BECMG 2203/2206 30012KT=
201101212000 TAF LMML 212000Z 2121/2206 VRB03KT 9999 FEW025
                      TEMPO 2200/2203 7000 SHRA BKN015
                      TEMPO 2122/2206 5000 BKN015TCU
                      BECMG 2200/2203 30010KT=
201101211700 TAF LMML 211700Z 2118/2203 23008KT 9999 FEW025
                      TEMPO 2200/2203 7000 SHRA BKN015
                      PROB30 TEMPO 2200/2203 5000 TSRA BKN015CB
                       BECMG 2200/2203 27015KT=
201101211400 TAF LMML 211400Z 2115/2124 25008KT 9999 FEW025
                      TEMPO 2118/2124 8000 SHRA BKN015=
201101211100 TAF LMML 211100Z 2112/2121 26008KT 9999 SCT025=
201101210800 TAF LMML 210800Z 2109/2118 28008KT 9999 SCT025 SCT040=
201101210500 TAF LMML 210500Z 2106/2115 28010KT 9999 SCT022=
201101210200 TAF LMML 210200Z 2103/2112 28012KT 9999 SCT020
                      PROB30 TEMPO 2103/2106 8000 SHRA=
201101202300 TAF LMML 202300Z 2100/2109 28012KT 9999 SCT020
                      TEMPO 2100/2109 8000 SHRA
                      PROB40 TEMPO 2100/2106 5000 TSRA BKN015CB=
201101202000 TAF LMML 202000Z 2021/2106 27005KT 9999 FEW025
                      TEMPO 2021/2106 8000 SHRA BKN015
                      PROB40 TEMPO 2021/2106 5000 TSRA BKN015CB
                       BECMG 2100/2103 28015KT=
201101201700 TAF LMML 201700Z 2018/2103 25005KT 9999 FEW018 SCT060
                      PROB30 TEMPO 2021/2103 5000 SHRA SCT015TCU
                       SCT040 BKN060=
201101201400 TAF LMML 201400Z 2015/2024 28005KT 9999 FEW025 SCT060
                      PROB30 TEMPO 2021/2024 5000 SHRA SCT015TCU
                       BKN045=
201101201100 TAF LMML 201100Z 2012/2021 30010KT 9999 SCT025 SCT045
                      PROB30 TEMPO 2018/2021 5000 SHRA SCT015TCU
                       BKN050=
201101200800 TAF LMML 200800Z 2009/2018 29008KT 9999 SCT025 SCT045
                      PROB30 TEMPO 2012/2018 SHRA BKN015=
201101200500 TAF LMML 200500Z 2006/2015 30007KT 9999 FEW025 SCT050
                      PROB30 TEMPO 2006/2015 8000 SHRA BKN015 BKN040=
201101200200 TAF LMML 200200Z 2003/2012 25006KT 9999 FEW025 SCT040
                      PROB30 TEMPO 2003/2006 9000 BKN015 BKN040=
201101192300 TAF LMML 192300Z 2000/2009 26006KT 9999 FEW020 SCT040
                      PROB30 TEMPO 2000/2006 9000 BKN015 BKN035=
201101192000 TAF LMML 192000Z 1921/2006 24005KT 9999 SCT020 SCT035
                      PROB30 TEMPO 1921/2006 9000 BKN015 BKN030=
201101191700 TAF LMML 191700Z 1918/2003 27005KT 9999 SCT025
                      PROB30 TEMPO 1920/2003 9000=
201101191400 TAF LMML 191400Z 1915/1924 VRB03KT 9999 SCT020 BKN040
                      PROB30 TEMPO 1920/1924 9000=
201101191100 TAF LMML 191100Z 1912/1921 28004KT 9999 SCT020 BKN040
                      PROB30 TEMPO 1918/1921 9000=
201101190800 TAF LMML 190800Z 1909/1918 27004KT 9999 SCT025 BKN040=
201101190500 TAF LMML 190500Z 1906/1915 25004KT 9999 SCT020 BKN040=
201101190200 TAF LMML 190200Z 1903/1912 27005KT 9999 SCT020 SCT030
                      TEMPO 1903/1909 7000 BKN013
                      PROB30 TEMPO 0903/1906 4000 BR=
201101182300 TAF LMML 182300Z 1900/1909 VRB03KT 9999 SCT015 BKN025
                      TEMPO 1900/1909 6000 BKN012
                      PROB30 TEMPO 1900/1906 4000 BR BKN006=
201101182000 TAF LMML 182000Z 1821/1906 VRB03KT 9999 FEW015
                      TEMPO 1821/1906 BKN012
                      PROB30 TEMPO 1903/1906 4000 BR=
201101181700 TAF LMML 181700Z 1818/1903 28004KT 9999 SCT020 SCT040
                      PROB30 TEMPO 1818/1903 9000 BKN015 BKN030=
201101181400 TAF LMML 181400Z 1815/1824 29006KT 9999 SCT020
                      PROB30 TEMPO 1815/1824 9000 BKN015=
201101181100 TAF LMML 181100Z 1812/1821 VRB06KT 9999 SCT018 SCT040
                      PROB30 TEMPO 1812/1821 9000 BKN015 BKN035=
201101180800 TAF LMML 180800Z 1809/1818 VRB06KT 9999 SCT018
                      PROB30 TEMPO 1809/1818 9000 BKN015=
201101180500 TAF LMML 180500Z 1806/1815 VRB04KT 9999 SCT018
                      PROB30 TEMPO 1806/1815 BKN015=
201101180200 TAF LMML 180200Z 1803/1812 23005KT 9999 SCT018=
201101172300 TAF LMML 172300Z 1800/1809 VRB03KT 9999 FEW015=
201101172000 TAF LMML 172000Z 1721/1806 VRB03KT 9999 FEW015=
201101171700 TAF LMML 171700Z 1718/1803 VRB03KT 9999 FEW020
                      TEMPO 1800/1803 7000=
201101171400 TAF LMML 171400Z 1715/1724 VRB03KT 9999 FEW020=
201101171100 TAF LMML 171100Z 1712/1721 VRB03KT 9999 FEW020=
201101170800 TAF LMML 170800Z 1709/1718 18005KT 9999 FEW015=
201101170500 TAF LMML 170500Z 1706/1715 VRB04KT 9999 FEW016=
201101170200 TAF LMML 170200Z 1702/1712 VRB03KT 9999 FEW014
                      PROB30 TEMPO 1703/1707 5000 BR BKN012
                      PROB30 TEMPO 1703/1707 1000 BCFG=
201101162300 TAF LMML 162300Z 1700/1709 VRB03KT 9999 FEW012
                      PROB40 TEMPO 1700/1707 9000 BKN012
                      PROB30 TEMPO 1700/1707 1000 BCFG=
201101162000 TAF LMML 162000Z 1621/1706 VRB03KT CAVOK
                      TEMPO 1621/1706 9000 SCT010=
201101161700 TAF LMML 161700Z 1618/1703 VRB03KT CAVOK
                      TEMPO 1721/1703 7000 SCT010=
201101161400 TAF COR LMML 161400Z 1615/1624 VRB04KT 9999 FEW025
                      TEMPO 1620/1624 BKN015=
201101161100 TAF COR LMML 161100Z 1612/1621 VRB04KT 9999 FEW020=
201101160800 TAF LMML 160800Z 1609/1618 01005KT 9999 FEW020=
201101160500 TAF COR LMML 160500Z 1606/1615 01006KT 9999 FEW015=
201101160200 TAF LMML 160200Z 1603/1612 01006KT 9999 FEW011
                      PROB30 TEMPO 1603/1606 9000 BKN011=
201101152300 TAF LMML 152300Z 1600/1609 01006KT 9999 FEW011
                      PROB30 TEMPO 1600/1606 9000 BKN011=
201101152000 TAF LMML 152000Z 1521/1606 33006KT 9999 FEW020
                      PROB30 TEMPO 1521/1606 BKN015=
201101151700 TAF LMML 151700Z 1518/1603 31014KT 9999 FEW012
                      TEMPO 1518/1603 BKN012
                      PROB30 TEMPO 1521/1603 9000 BKN010
                      BECMG 1523/1602 01005KT=
201101151400 TAF LMML 151400Z 1515/1524 30015KT 9999 BKN016
                      TEMPO 1515/1524 BKN012=
201101151100 TAF LMML 151100Z 1512/1521 29015KT 9999 BKN017
                      TEMPO 1512/1521 BKN013=
201101150800 TAF LMML 150800Z 1509/1518 29015KT 9999 SCT015
                      PROB30 TEMPO 1509/1518 BKN013=
201101150500 TAF LMML 150500Z 1506/1515 29011KT 9999 SCT015=
201101150200 TAF LMML 150200Z 1503/1512 29010KT 9999 SCT012
                      PROB30 TEMPO 1503/1506 6000 BKN010=
201101142300 TAF LMML 142300Z 1500/1509 30008KT 9999 FEW011
                      PROB30 TEMPO 1500/1506 7000 BKN010=
201101142000 TAF LMML 142000Z 1421/1506 31007KT 9999 FEW012
                      PROB30 TEMPO 1421/1506 7000 BKN010=
201101141700 TAF LMML 141700Z 1418/1503 29010KT 9999 SCT015
                      TEMPO 1421/1503 BKN015
                      PROB30 TEMPO 1421/1503 9000 BKN008=
201101141400 TAF LMML 141400Z 1415/1424 30010KT 9999 FEW018
                      TEMPO 1421/1424 BKN015
                      PROB30 TEMPO 1421/1424 9000 BKN008=
201101141100 TAF LMML 141100Z 1412/1421 30010KT 9999 FEW020=
201101140800 TAF LMML 140800Z 1409/1418 30010KT 9999 FEW020=
201101140500 TAF LMML 140500Z 1406/1415 32010KT 9999 FEW030=
201101140200 TAF LMML 140200Z 1403/1412 32005KT 9999 FEW030=
201101132300 TAF LMML 132300Z 1400/1409 32005KT 9999 FEW030=
201101132000 TAF LMML 132000Z 1321/1406 VRB03KT 9999 FEW025=
201101131700 TAF LMML 131700Z 1318/1403 32006KT 9999 FEW025=
201101131400 TAF LMML 131400Z 1315/1324 36010KT 9999 FEW025=
201101131100 TAF LMML 131100Z 1312/1321 01010KT 9999 SCT025=
201101130800 TAF COR LMML 130800Z 1309/1318 01010KT 9999 SCT020=
201101130500 COR LMML 130500Z 1306/1315 02010KT 9999 FEW025=
201101130200 TAF LMML 130200Z 1303/1312 02012KT 9999 FEW025=
201101122300 TAF LMML 122300Z 1300/1309 03015KT 9999 SCT020
                      PROB30 TEMPO 1300/1306 9000 SHRA=
201101122000 TAF LMML 122000Z 1221/1306 04012KT 9999 SCT020
                      PROB30 TEMPO 1221/1306 8000 SHRA=
201101121700 TAF LMML 121700Z 1218/1303 03005KT 9999 FEW020 SCT060
                      PROB30 TEMPO 1218/1224 8000 SHRA=
201101121400 TAF LMML 121400Z 1215/1224 33006KT 9999 SCT020 SCT030
                      TEMPO 1215/1218 6000 SHRA FEW010 BKN015TCU
                       BECMG 1215/1218 03006KT=
201101121100 TAF LMML 121100Z 1212/1221 VRB05KT 9999 SCT018 SCT030
                      TEMPO 1212/1218 6000 SHRA FEW010 BKN015TCU
                       PROB40
                      TEMPO 1212/1215 3000 TSRA SCT008 BKN015CB
                       BECMG 1214/1217 03008KT=
201101120800 TAF LMML 120800Z 1209/1218 30013KT 9999 SCT018 SCT040
                      TEMPO 1209/1218 6000 SHRA BKN015TCU
                      PROB30 TEMPO 1206/1215 3000 TSRA SCT008 BKN015CB=
201101120500 TAF LMML 120500Z 1206/1215 28012KT 9999 SCT020 SCT120
                      TEMPO 1206/1215 8000 SHRA BKN015 BKN100
                      PROB40 TEMPO 1206/1215 3000 TSRA BKN010 BKN015CB
                       BKN070
                      BECMG 1212/1215 35008KT=
201101120200 TAF LMML 120200Z 1203/1212 28010KT 9999 SCT020 SCT100
                      TEMPO 1203/1212 8000 SHRA BKN015 BKN080
                      PROB30 TEMPO 1203/1212 3000 TSRA BKN010 BKN015CB
                       BKN060=
201101112300 TAF LMML 112300Z 1200/1209 29009KT 9999 SCT020
                      TEMPO 1200/1209 8000 SHRA BKN015
                      PROB30 TEMPO 1200/1209 3000 TSRA BKN015CB=
201101112000 TAF LMML 112000Z 1121/1206 29010KT 9999 SCT020
                      TEMPO 1121/1206 8000 SHRA BKN015
                      PROB30 TEMPO 1200/1206 3000 TSRA BKN015CB=
201101111700 TAF LMML 111700Z 1118/1203 29010KT 9999 SCT018
                      PROB40 TEMPO 1120/1203 BKN015
                      PROB30 TEMPO 1200/1203 8000 TSRA BKN010 BKN015CB=
201101111400 TAF LMML 111400Z 1115/1124 29011KT 9999 SCT015
                      PROB40 TEMPO 1118/1124 8000 SHRA BKN015
                      PROB30 TEMPO 1121/1124 TSRA BKN010 BKN015CB=
201101111100 TAF LMML 111100Z 1112/1121 30012KT 9999 SCT015
                      PROB30 TEMPO 1118/1121 9000 SHRA=
201101110800 TAF LMML 110800Z 1109/1118 30010KT 9999 SCT018=
201101110500 TAF LMML 110500Z 1106/1115 31008KT 9999 SCT012
                      PROB30 TEMPO 1106/1110 BKN012=
201101110200 TAF LMML 110200Z 1103/1112 26005KT 8000 SCT004
                      BECMG 1104/1107 30008KT 9999 SCT012
                      PROB30 TEMPO 1103/1105 BKN005=
201101102300 TAF LMML 102300Z 1100/1109 VRB03KT 5000 BR SCT003
                      PROB30 TEMPO 1100/1105 0200 FG BKN001
                      BECMG 1104/1107 30008KT 8000 BKN008
                      BECMG 1106/1109 9999 SCT015=
201101102000 TAF LMML 102000Z 1021/1106 VRB03KT 3000 SCT003
                      TEMPO 1021/1105 0200 FG BKN001
                      BECMG 1103/1106 32010KT 5000 BKN004=
201101101700 TAF LMML 101700Z 1018/1103 VRB03KT 9999 SCT004
                      TEMPO 1018/1103 7000 BKN002
                      PROB30 TEMPO 1018/1103 0200 FG BKN001
                      BECMG 1018/1021 22005KT
                      BECMG 1100/1103 28010KT=
201101101400 TAF LMML 101400Z 1015/1024 23007KT 9999 FEW007
                      TEMPO 1016/1024 9000 BKN005
                      PROB30 TEMPO 1018/1024 3000 BR BKN003=
201101101100 TAF COR LMML 101100Z 1012/1021 20007KT 9999 FEW005
                      TEMPO 1012/1015 CAVOK
                      PROB30 TEMPO 1018/1021 8000 BKN005=
201101100800 TAF LMML 100800Z 1009/1018 19005KT 9999 FEW012
                      BECMG 1009/1012 CAVOK
                      BECMG 1013/1016 25010KT=
201101100500 TAF LMML 100500Z 1006/1015 21006KT CAVOK=
201101100200 TAF LMML 100200Z 1003/1012 21004KT CAVOK
                      TEMPO 1003/1006 5000 BR SCT003=
201101092300 TAF LMML 092300Z 1000/1009 VRB03KT CAVOK
                      TEMPO 1000/1007 0300 BCFG BKN001=
201101092000 TAF LMML 092000Z 0921/1006 VRB03KT CAVOK
                      PROB30 TEMPO 1000/1006 7000 NSC=
201101091700 TAF LMML 091700Z 0918/1003 21005KT CAVOK
                      PROB30 TEMPO 1000/1003 7000 NSC=
201101091400 TAF LMML 091400Z 0915/0924 21005KT CAVOK=
201101091100 TAF LMML 091100Z 0912/0921 21005KT CAVOK=
201101090800 TAF LMML 090800Z 0909/0918 21005KT CAVOK=
201101090500 TAF LMML 090500Z 0906/0915 25005KT CAVOK=
201101090200 TAF LMML 090200Z 0903/0912 26005KT CAVOK
                      TEMPO 0903/0906 8000 NSC
                      PROB30 TEMPO 0903/0906 3000 BCMIFG BKN003=
201101082300 TAF LMML 082300Z 0900/0909 VRB03KT CAVOK
                      PROB40 TEMPO 0900/0906 8000 NSC
                      PROB30 TEMPO 0903/0906 3000 BR BKN003=
201101082000 TAF LMML 082000Z 0821/0906 VRB03KT CAVOK
                      PROB40 TEMPO 0821/0906 8000 NSC
                      PROB30 TEMPO 0903/0906 3000 BR BKN003=
201101081700 TAF LMML 081700Z 0818/0903 21005KT CAVOK
                      PROB30 TEMPO 0818/0903 8000 FEW018=
201101081400 TAF LMML 081400Z 0815/0824 21008KT CAVOK
                      PROB30 TEMPO 0815/0824 9999 FEW020=
201101081100 TAF LMML 081100Z 0812/0821 21010KT CAVOK
                      PROB40 TEMPO 0812/0821 9999 FEW020=
201101080800 TAF LMML 080800Z 0809/0818 20010KT CAVOK
                      PROB40 TEMPO 0810/0818 9999 FEW018=
201101080500 TAF LMML 080500Z 0806/0815 20008KT CAVOK
                      BECMG 0806/0809 9999 FEW015=
201101080200 TAF LMML 080200Z 0803/0806 20005KT CAVOK
                      PROB30 TEMPO 0803/0806 7000 NSC=
201101072300 TAF LMML 072300Z 0800/0809 19005KT CAVOK
                      PROB30 TEMPO 0803/0806 7000 NSC=
201101072000 TAF LMML 072000Z 0721/0806 18005KT CAVOK
                      PROB30 TEMPO 0803/0806 5000 BR NSC=
201101071700 TAF LMML 071700Z 0718/0803 18007KT 9999 FEW030
                      TEMPO 0718/0803 CAVOK=
201101071400 TAF LMML 071400Z 0715/0724 16007KT 9999 FEW030
                      PROB30 TEMPO 0715/0724 CAVOK=
201101071100 TAF LMML 071100Z 0712/0721 16007KT 9999 FEW030
                      PROB30 TEMPO 0715/0721 CAVOK=
201101070800 TAF LMML 070800Z 0709/0718 16017KT 9999 FEW030
                      PROB30 TEMPO 0715/0718 CAVOK=
201101070500 TAF LMML 070500Z 0706/0715 16008KT 9999 FEW030=
201101070200 TAF LMML 070200Z 0703/0712 15005KT 9999 FEW015 SCT030
                      PROB30 TEMPO 0703/0706 6000=
201101062300 TAF LMML 062300Z 0700/0709 15005KT 9999 FEW015
                      PROB30 TEMPO 0700/0706 6000=
201101062000 TAF LMML 062000Z 0621/0706 15005KT 9999 FEW025
                      PROB30 TEMPO 0700/0706 6000=
201101061700 TAF LMML 061700Z 0618/0703 VRB03KT 9999 FEW025=
201101061400 TAF LMML 061400Z 0615/0624 18005KT 9999 FEW030=
201101061100 TAF LMML 061100Z 0612/0621 19005KT 9999 FEW030=
201101060800 TAF LMML 060800Z 0609/0618 VRB03KT 9999 FEW032=
201101060500 TAF LMML 060500Z 0606/0615 VRB03KT 9999 FEW030=
201101060200 TAF LMML 060200Z 0603/0612 VRB03KT 9999 FEW025=
201101052300 TAF LMML 052300Z 0600/0609 VRB03KT 9999 FEW025 SCT040
                      PROB30 TEMPO 0602/0606 8000=
201101052000 TAF LMML 052000Z 0521/0606 VRB03KT 9999 FEW025
                      PROB30 TEMPO 0600/0606 5000 BR=
201101051700 TAF LMML 051700Z 0518/0603 VRB03KT 9999 FEW025 SCT090
                      PROB30 TEMPO 0600/0603 8000=
201101051400 TAF LMML 051400Z 0515/0524 VRB03KT 9999 FEW025 SCT090=
201101051100 TAF LMML 051100Z 0512/0521 29008KT 9999 FEW025 SCT060=
201101050800 TAF LMML 050800Z 0509/0518 27008KT 9999 SCT025 BKN060
                      TEMPO 0509/0512 8000 SHRA=
201101050500 TAF LMML 050500Z 0506/0515 29008KT 9999 FEW025
                      PROB30 TEMPO 0506/0509 8000 SHRA BKN015=
201101050200 TAF LMML 050200Z 0503/0512 30006KT 9999 FEW020
                      PROB30 TEMPO 0503/0509 8000 SHRA BKN015=
201101042300 TAF LMML 042300Z 0500/0509 30006KT 9999 FEW020
                      PROB30 TEMPO 0500/0509 8000 SHRA BKN015=
201101042000 TAF LMML 042000Z 0421/0506 30006KT 9999 FEW020
                      PROB40 TEMPO 0421/0506 8000 SHRA BKN015=
201101041700 TAF LMML 041700Z 0418/0503 VRB03KT 9999 FEW018 SCT035
                      PROB30 TEMPO 0420/0503 8000 SHRA BKN015=
201101041400 TAF LMML 041400Z 0415/0424 02006KT 9999 FEW025 SCT050=
201101041100 TAF LMML 041100Z 0412/0421 02005KT 9999 FEW025 SCT060=
201101040800 TAF LMML 040800Z 0409/0418 02006KT 9999 FEW030 SCT060
                      PROB30 TEMPO 0409/0418 SHRA BKN015=
201101040500 TAF LMML 040500Z 0406/0415 28006KT 9999 FEW030 SCT060
                      PROB30 TEMPO 0406/0415 8000 SHRA BKN015 BKN050=
201101040200 TAF LMML 040200Z 0403/0412 28008KT 9999 FEW030 SCT060
                      PROB30 TEMPO 0403/0412 7000 SHRA BKN015 BKN050=
201101032300 TAF LMML 032300Z 0400/0409 28007KT 9999 FEW030 SCT060
                      PROB30 TEMPO 0400/0409 8000 SHRA BKN015 BKN050=
201101032000 TAF LMML 032000Z 0321/0406 28005KT 9999 FEW025 SCT050
                      PROB40 TEMPO 0321/0406 8000 SHRA BKN015 BKN050=
201101031700 TAF LMML 031700Z 0318/0403 29008KT 9999 SCT020
                      TEMPO 0318/0403 8000 SHRA BKN015TCU=
201101031400 TAF LMML 031400Z 0315/0324 30006KT 9999 SCT023
                      TEMPO 0315/0324 8000 SHRA BKN018TCU=
201101031100 TAF LMML 031100Z 0312/0321 32005KT 9999 FEW020 SCT045
                      PROB40 TEMPO 0312/0321 8000 SHRA BKN015TCU=
201101030800 TAF LMML 030800Z 0309/0318 33008KT 9999 SCT020
                      TEMPO 0309/0318 8000 SHRA BKN015TCU
                      PROB30 TEMPO 0311/0318 5000 TSRA BKN015CB=
201101030500 TAF LMML 030500Z 0306/0315 32008KT 9999 SCT020 SCT050
                      TEMPO 0306/0315 8000 SHRA BKN015
                      PROB30 TEMPO 0309/0315 5000 TSRA BKN015CB=
201101030200 TAF LMML 030200Z 0303/0312 28006KT 9999 FEW015 SCT070
                      TEMPO 0303/0312 8000 SHRA BKN015
                      PROB30 TEMPO 0303/0306 5000 TSRA BKN012CB=
201101022300 TAF LMML 022300Z 0300/0309 29005KT 9999 FEW015 SCT090
                      TEMPO 0300/0309 8000 SHRA BKN015
                      PROB30 TEMPO 0300/0309 5000 TSRA BKN015CB=
201101022000 TAF LMML 022000Z 0221/0306 30005KT 9999 SCT015 SCT090
                      TEMPO 0221/0306 8000 SHRA BKN015
                      PROB30 TEMPO 0221/0306 5000 TSRA BKN012CB=
201101021700 TAF LMML 021700Z 0218/0303 29007KT 9999 SCT020
                      TEMPO 0218/0303 8000 SHRA BKN015
                      PROB30 TEMPO 0218/0303 3000 TSRA BKN015CB=
201101021400 TAF LMML 021400Z 0215/0224 34011KT 9999 SCT020
                      TEMPO 0215/0224 8000 SHRA BKN015
                      PROB30 TEMPO 0215/0224 3000 TSRA BKN015CB
                       BECMG 0215/0218 28008KT=
201101021100 TAF LMML 021100Z 0212/0221 34007KT 9999 SCT020
                      TEMPO 0212/0221 8000 SHRA BKN015
                      PROB30 TEMPO 0212/0215 3000 TSRA BKN015CB
                       BECMG 0215/0218 28010KT=
201101020800 TAF LMML 020800Z 0209/0218 29008KT 9999 SCT025
                      TEMPO 0209/0218 8000 SHRA BKN015
                      PROB30 TEMPO 0209/0215 3000 TSRA BKN015CB=
201101020500 TAF LMML 020500Z 0206/0215 33005KT 9999 FEW020 SCT040
                      TEMPO 0206/0212 6000 SHRA BKN015TCU=
201101020200 TAF LMML 020200Z 0203/0212 33005KT 9999 FEW018 SCT040
                      TEMPO 0203/0212 6000 SHRA FEW008 BKN015TCU
                       PROB30
                      TEMPO 0203/0212 3000 TSRA SCT005 BKN015CB=
201101012300 TAF LMML 012300Z 0200/0209 32004KT 9999 FEW018 SCT030
                      TEMPO 0200/0209 6000 SHRA FEW008 BKN015TCU
                       PROB30
                      TEMPO 0200/0209 3000 TSRA SCT005 BKN015CB=
201101012000 TAF LMML 012000Z 0121/0206 VRB03KT 9999 FEW018 SCT040
                      TEMPO 0121/0206 6000 SCT005 BKN015TCU
                      PROB40 TEMPO 0121/0206 3000 TSRA SCT005 BKN015CB=
201101011700 TAF LMML 011700Z 0118/0203 06005KT 9999 SCT020 BKN060
                      TEMPO 0118/0203 7000 SHRA BKN012=
201101011400 TAF LMML 011400Z 0115/0124 02008KT 9999 SCT020 SCT090
                      TEMPO 0115/0124 8000 SHRA
                      PROB30 TEMPO 0115/0124 5000 TSRA BKN015CB=
201101011100 TAF LMML 011100Z 0112/0121 06008KT 9999 SCT020
                      TEMPO 0112/0121 8000 SHRA BKN015=
201101010800 TAF LMML 010800Z 0109/0118 06008KT 9999 SCT020
                      TEMPO 0109/0118 8000 SHRA
                      PROB30 TEMPO 0109/0118 5000 TSRA BKN015CB=
201101010500 TAF LMML 010500Z 0106/0115 06005KT 9999 FEW020
                      PROB30 TEMPO 0106/0115 8000 SHRA BKN015TCU=
201101010200 TAF LMML 010200Z 0103/0112 08005KT 9999 SCT038
                      PROB30 TEMPO 0109/0112 9000 SHRA=

###################################
#  large TAF from LMML
###################################
201101312300 TAF LMML NIL=
201101311700 TAF LMML NIL=
201101311100 TAF LMML NIL=
201101310500 TAF LMML NIL=
201101302300 TAF LMML NIL=
201101301700 TAF LMML NIL=
201101301100 TAF LMML NIL=
201101300500 TAF LMML NIL=
201101292300 TAF LMML NIL=
201101291700 TAF LMML NIL=
201101291100 TAF LMML NIL=
201101290500 TAF LMML NIL=
201101282300 TAF LMML NIL=
201101281700 TAF LMML NIL=
201101281100 TAF LMML NIL=
201101280500 TAF LMML NIL=
201101272300 TAF LMML NIL=
201101271700 TAF LMML NIL=
201101271100 TAF LMML NIL=
201101270500 TAF LMML NIL=
201101262300 TAF LMML NIL=
201101261700 TAF LMML NIL=
201101261100 TAF LMML NIL=
201101260500 TAF LMML NIL=
201101252300 TAF LMML NIL=
201101251700 TAF LMML NIL=
201101251100 TAF LMML NIL=
201101250500 TAF LMML NIL=
201101242300 TAF LMML NIL=
201101241700 TAF LMML NIL=
201101241100 TAF LMML NIL=
201101240500 TAF LMML NIL=
201101232300 TAF LMML NIL=
201101231700 TAF LMML NIL=
201101231100 TAF LMML NIL=
201101230500 TAF LMML NIL=
201101222300 TAF LMML NIL=
201101221700 TAF LMML NIL=
201101221100 TAF LMML NIL=
201101220500 TAF LMML NIL=
201101212300 TAF LMML NIL=
201101211700 TAF LMML NIL=
201101211100 TAF LMML NIL=
201101210500 TAF LMML NIL=
201101202300 TAF LMML NIL=
201101201700 TAF LMML NIL=
201101201100 TAF LMML NIL=
201101200500 TAF LMML NIL=
201101192300 TAF LMML NIL=
201101191700 TAF LMML NIL=
201101191100 TAF LMML NIL=
201101190500 TAF LMML NIL=
201101182300 TAF LMML NIL=
201101181700 TAF LMML NIL=
201101181100 TAF LMML NIL=
201101180500 TAF LMML NIL=
201101172300 TAF LMML NIL=
201101171700 TAF LMML NIL=
201101171100 TAF LMML NIL=
201101170500 TAF LMML NIL=
201101162300 TAF LMML NIL=
201101161700 TAF LMML NIL=
201101161100 TAF LMML NIL=
201101160500 TAF LMML NIL=
201101152300 TAF LMML NIL=
201101151700 TAF LMML NIL=
201101151100 TAF LMML NIL=
201101150500 TAF LMML NIL=
201101142300 TAF LMML NIL=
201101141700 TAF LMML NIL=
201101141100 TAF LMML NIL=
201101140500 TAF LMML NIL=
201101132300 TAF LMML NIL=
201101131700 TAF LMML NIL=
201101131100 TAF LMML NIL=
201101130500 TAF LMML NIL=
201101122300 TAF LMML NIL=
201101121700 TAF LMML NIL=
201101121100 TAF LMML NIL=
201101120500 TAF LMML NIL=
201101112300 TAF LMML NIL=
201101111700 TAF LMML NIL=
201101111100 TAF LMML NIL=
201101110500 TAF LMML NIL=
201101102300 TAF LMML NIL=
201101101700 TAF LMML NIL=
201101101100 TAF LMML NIL=
201101100500 TAF LMML NIL=
201101092300 TAF LMML NIL=
201101091700 TAF LMML NIL=
201101091100 TAF LMML NIL=
201101090500 TAF LMML NIL=
201101082300 TAF LMML NIL=
201101081700 TAF LMML NIL=
201101081100 TAF LMML NIL=
201101080500 TAF LMML NIL=
201101072300 TAF LMML NIL=
201101071700 TAF LMML NIL=
201101071100 TAF LMML NIL=
201101070500 TAF LMML NIL=
201101062300 TAF LMML NIL=
201101061700 TAF LMML NIL=
201101061100 TAF LMML NIL=
201101060500 TAF LMML NIL=
201101052300 TAF LMML NIL=
201101051700 TAF LMML NIL=
201101051100 TAF LMML NIL=
201101050500 TAF LMML NIL=
201101042300 TAF LMML NIL=
201101041700 TAF LMML NIL=
201101041100 TAF LMML NIL=
201101040500 TAF LMML NIL=
201101032300 TAF LMML NIL=
201101031700 TAF LMML NIL=
201101031100 TAF LMML NIL=
201101030500 TAF LMML NIL=
201101022300 TAF LMML NIL=
201101021700 TAF LMML NIL=
201101021100 TAF LMML NIL=
201101020500 TAF LMML NIL=
201101012300 TAF LMML NIL=
201101011700 TAF LMML NIL=
201101011100 TAF LMML NIL=
201101010500 TAF LMML NIL=
