##########################################################
# Query made at 01/18/2013 16:04:52 UTC
# Time interval: from 01/01/2009 00:00  to 01/31/2009 23:59  UTC
##########################################################

##########################################################
# LMML, Luqa (Malta)
# WMO index: 16597
# Latitude 35-51N. Longitude 014-29E. Altitude 91 m.
##########################################################

###################################
#  METAR/SPECI from LMML
###################################
200901312345 LMML 312345Z 15009KT 130V190 9999 BKN016 14/12 Q1010 NOSIG=
200901312330 METAR LMML NIL=
200901312315 METAR LMML 312315Z 15009KT 130V190 9999 FEW016 13/12 Q1010
                        NOSIG=
200901312300 METAR LMML NIL=
200901312245 METAR LMML 312245Z 16009KT 9999 SCT017 13/11 Q1010 NOSIG=
200901312230 METAR LMML NIL=
200901312215 METAR LMML 312215Z 16009KT 9999 SCT017 14/11 Q1011 NOSIG=
200901312200 METAR LMML NIL=
200901312145 METAR LMML 312145Z 16007KT 9999 BKN019 13/11 Q1011 NOSIG=
200901312130 METAR LMML NIL=
200901312115 METAR LMML 312115Z 15007KT 9999 BKN017 13/11 Q1011 NOSIG=
200901312100 METAR LMML NIL=
200901312045 METAR LMML 312045Z 14007KT 9999 BKN019 13/11 Q1011 NOSIG=
200901312030 METAR LMML NIL=
200901312015 METAR LMML 312015Z 15005KT 9999 FEW020 SCT026 12/10 Q1012
                        NOSIG=
200901312000 METAR LMML NIL=
200901311945 METAR LMML 311945Z 15005KT 130V190 9999 FEW020 SCT070 12/10
                        Q1012 NOSIG=
200901311930 METAR LMML NIL=
200901311915 METAR LMML 311915Z VRB03KT 9999 SCT019 BKN070 11/09 Q1012
                        NOSIG=
200901311900 METAR LMML NIL=
200901311845 METAR LMML 311845Z 16004KT 9999 FEW025 SCT070 11/09 Q1012
                        NOSIG=
200901311830 METAR LMML NIL=
200901311815 METAR LMML 311815Z 15004KT 9999 FEW025 SCT060 11/08 Q1012
                        NOSIG=
200901311800 METAR LMML NIL=
200901311745 METAR LMML 311745Z VRB03KT 9999 FEW025 SCT060 12/08 Q1012
                        NOSIG=
200901311730 METAR LMML NIL=
200901311715 METAR LMML 311715Z VRB03KT 9999 FEW025 BKN060 12/08 Q1012
                        NOSIG=
200901311700 METAR LMML NIL=
200901311645 METAR LMML 311645Z VRB03KT 9999 FEW025 BKN060 12/08 Q1012
                        NOSIG=
200901311630 METAR LMML NIL=
200901311615 METAR LMML 311615Z VRB02KT 9999 FEW025 13/07 Q1012 NOSIG=
200901311600 METAR LMML NIL=
200901311545 METAR LMML 311545Z VRB01KT 9999 FEW025 BKN044 13/07 Q1012
                        NOSIG=
200901311530 METAR LMML NIL=
200901311515 METAR LMML 311515Z 24005KT 210V290 9999 FEW025 BKN037 13/08
                        Q1012 NOSIG=
200901311500 METAR LMML NIL=
200901311445 METAR LMML 311445Z 24005KT 190V310 9999 FEW025 SCT040 14/08
                        Q1012 NOSIG=
200901311430 METAR LMML NIL=
200901311415 METAR LMML 311415Z 25005KT 210V290 9999 FEW028 14/08 Q1012
                        NOSIG=
200901311400 METAR LMML NIL=
200901311345 METAR LMML 311345Z 24004KT 190V280 9999 FEW025 15/08 Q1012
                        NOSIG=
200901311330 METAR LMML NIL=
200901311315 METAR LMML 311315Z 22005KT 180V260 9999 SCT026 14/09 Q1012
                        NOSIG=
200901311300 METAR LMML NIL=
200901311245 METAR LMML 311245Z 25005KT 210V290 9999 SCT028 15/08 Q1012
                        NOSIG=
200901311230 METAR LMML NIL=
200901311215 METAR LMML 311215Z 24004KT 190V310 9999 SCT029 15/08 Q1012
                        NOSIG=
200901311200 METAR LMML NIL=
200901311145 METAR LMML 311145Z 32005KT 250V350 9999 SCT027 SCT042 14/08
                        Q1013 NOSIG=
200901311130 METAR LMML NIL=
200901311115 METAR LMML 311115Z 35004KT 310V040 9999 FEW025 BKN035 14/09
                        Q1013 NOSIG=
200901311100 METAR LMML NIL=
200901311045 METAR LMML 311045Z 34004KT 290V020 9999 FEW025 BKN035 14/09
                        Q1013 NOSIG=
200901311030 METAR LMML NIL=
200901311015 METAR LMML 311015Z 33006KT 9999 SCT025 BKN033 13/09 Q1014
                        NOSIG=
200901311000 METAR LMML NIL=
200901310945 METAR LMML 310945Z 32007KT 9999 SCT025 BKN035 13/09 Q1014
                        NOSIG=
200901310930 METAR LMML NIL=
200901310915 METAR LMML 310915Z 33006KT 9999 SCT033 SCT049 13/09 Q1014
                        NOSIG=
200901310900 METAR LMML NIL=
200901310845 METAR LMML 310845Z 31005KT 9999 FEW025 BKN033 13/09 Q1014
                        NOSIG=
200901310830 METAR LMML NIL=
200901310815 METAR LMML 310815Z 30005KT 270V330 9999 SCT025 BKN033 12/09
                        Q1013 NOSIG=
200901310800 METAR LMML NIL=
200901310745 METAR LMML 310745Z VRB03KT 9999 SCT025 BKN040 12/10 Q1013
                        NOSIG=
200901310730 METAR LMML NIL=
200901310715 METAR LMML 310715Z 33005KT 290V350 9999 BKN024 BKN060 11/09
                        Q1013 NOSIG=
200901310700 METAR LMML NIL=
200901310645 METAR LMML 310645Z VRB03KT 9999 SCT026 BKN060 11/09 Q1013
                        NOSIG=
200901310630 METAR LMML NIL=
200901310615 METAR LMML 310615Z 31006KT 9999 SCT026 BKN060 11/09 Q1013
                        NOSIG=
200901310545 METAR LMML 310545Z 31005KT 9999 -RA SCT025 BKN045 11/09 Q1013
                        NOSIG=
200901310530 METAR LMML NIL=
200901310515 METAR LMML 310515Z 30005KT 9999 -RA FEW024 BKN050 11/09 Q1013
                        NOSIG=
200901310500 METAR LMML NIL=
200901310445 METAR LMML 310445Z 29007KT 9999 -RA FEW025 BKN046 11/09 Q1013
                        NOSIG=
200901310430 METAR LMML NIL=
200901310415 METAR LMML 310415Z 31006KT 9999 -RA FEW024 BKN050 11/09 Q1012
                        NOSIG=
200901310400 METAR LMML NIL=
200901310345 METAR LMML 310345Z 29005KT 260V320 9999 FEW024 BKN060 11/09
                        Q1012 NOSIG=
200901310330 METAR LMML NIL=
200901310315 METAR LMML 310315Z 32008KT 9999 FEW026 BKN055 11/09 Q1013
                        NOSIG=
200901310300 METAR LMML NIL=
200901310245 METAR LMML 310245Z 29009KT 9999 FEW029 BKN060 11/08 Q1012
                        NOSIG=
200901310230 METAR LMML NIL=
200901310215 METAR LMML 310215Z 29004KT 9999 FEW023 BKN047 11/09 Q1013
                        NOSIG=
200901310200 LMML NIL=
200901310130 METAR LMML NIL=
200901310115 METAR LMML 310115Z 30007KT 270V330 9999 FEW028 BKN050 11/08
                        Q1013 NOSIG=
200901310100 METAR LMML NIL=
200901310045 METAR LMML 310045Z 29007KT 9999 FEW028 BKN060 11/08 Q1012
                        NOSIG=
200901310030 METAR LMML NIL=
200901310015 METAR LMML 310015Z 30005KT 9999 FEW025 BKN048 11/09 Q1013
                        NOSIG=
200901310000 METAR LMML NIL=
200901302345 METAR LMML 302345Z 30006KT 9999 FEW027 BKN050 11/08 Q1013
                        NOSIG=
200901302330 METAR LMML NIL=
200901302315 METAR LMML 302315Z 29009KT 9999 FEW031 BKN060 12/08 Q1013
                        NOSIG=
200901302245 METAR LMML 302245Z 30006KT 9999 FEW040 BKN070 11/09 Q1013
                        NOSIG=
200901302215 METAR LMML 302215Z 31007KT 9999 FEW044 BKN070 10/08 Q1013
                        NOSIG=
200901302200 METAR LMML NIL=
200901302145 METAR LMML 302145Z 31008KT 9999 FEW044 BKN070 11/09 Q1013
                        NOSIG=
200901302130 METAR LMML NIL=
200901302115 METAR LMML 302115Z 31009KT 9999 FEW024 BKN070 11/08 Q1013
                        NOSIG=
200901302045 METAR LMML 302045Z 29005KT 9999 FEW029 SCT070 11/08 Q1013
                        NOSIG=
200901302030 METAR LMML NIL=
200901302015 METAR LMML 302015Z 29007KT 9999 FEW029 SCT070 11/08 Q1013
                        NOSIG=
200901301945 METAR LMML 301945Z 28006KT 9999 FEW027 SCT070 10/07 Q1013
                        NOSIG=
200901301930 METAR LMML NIL=
200901301915 METAR LMML 301915Z 28005KT 250V310 9999 FEW038 SCT070 10/07
                        Q1014 NOSIG=
200901301900 METAR LMML NIL=
200901301845 METAR LMML 301845Z 28004KT 240V310 9999 FEW038 SCT060 11/08
                        Q1014 NOSIG=
200901301830 METAR LMML NIL=
200901301815 METAR LMML 301815Z 31008KT 9999 FEW029 SCT080 11/08 Q1014
                        NOSIG=
200901301800 METAR LMML NIL=
200901301745 METAR LMML 301745Z 29005KT 9999 FEW027 SCT080 11/07 Q1014
                        TEMPO SHRA=
200901301715 METAR LMML 301715Z 28004KT 230V300 9999 SCT029 SCT071 11/07
                        Q1014 TEMPO SHRA=
200901301700 METAR LMML NIL=
200901301645 METAR LMML 301645Z 28006KT 9999 FEW033 11/07 Q1014 NOSIG=
200901301630 METAR LMML NIL=
200901301615 METAR LMML 301615Z 28006KT 9999 FEW033 SCT070 11/07 Q1013
                        NOSIG=
200901301545 METAR LMML 301545Z 30007KT 9999 FEW033 SCT073 12/07 Q1013
                        NOSIG=
200901301515 METAR LMML 301515Z 30008KT 9999 FEW028 SCT076 13/07 Q1013
                        TEMPO SHRA=
200901301500 METAR LMML NIL=
200901301445 METAR LMML 301445Z 28007KT 240V310 9999 FEW027 SCT045 13/08
                        Q1013 NOSIG=
200901301430 METAR LMML NIL=
200901301415 METAR LMML 301415Z 28006KT 240V320 9999 FEW025 BKN060 13/07
                        Q1013 NOSIG=
200901301400 METAR LMML NIL=
200901301345 METAR LMML 301345Z 27008KT 9999 FEW025 SCT041 BKN060 12/08
                        Q1013 NOSIG=
200901301330 METAR LMML NIL=
200901301315 METAR LMML 301315Z 28011KT 250V310 9999 -RA SCT021 BKN050
                        12/09 Q1013 TEMPO SHRA=
200901301300 METAR LMML NIL=
200901301245 METAR LMML 301245Z 29009KT 270V330 9999 SCT030 BKN050 13/07
                        Q1013 TEMPO SHRA=
200901301230 METAR LMML NIL=
200901301215 METAR LMML 301215Z 30010KT 9999 FEW030 BKN060 14/07 Q1013
                        TEMPO SHRA=
200901301145 METAR LMML 301145Z 30010KT 270V330 9999 FEW030 SCT060 14/07
                        Q1014 TEMPO SHRA=
200901301130 METAR LMML NIL=
200901301115 METAR LMML 301115Z 28007KT 250V310 9999 FEW036 14/07 Q1014
                        NOSIG=
200901301100 METAR LMML NIL=
200901301045 METAR LMML 301045Z 30008KT 9999 FEW030 SCT060 13/06 Q1014
                        NOSIG=
200901301030 METAR LMML NIL=
200901301015 METAR LMML 301015Z 29005KT 250V330 9999 FEW025 BKN060 13/08
                        Q1014 NOSIG=
200901301000 METAR LMML NIL=
200901300945 METAR LMML 300945Z 30006KT 9999 FEW025 BKN060 13/08 Q1015
                        NOSIG=
200901300930 METAR LMML NIL=
200901300915 METAR LMML 300915Z 31004KT 260V340 9999 FEW025 BKN060 13/08
                        Q1015 NOSIG=
200901300900 METAR LMML NIL=
200901300845 METAR LMML 300845Z VRB03KT 9999 FEW025 SCT060 13/08 Q1015
                        NOSIG=
200901300830 METAR LMML NIL=
200901300815 METAR LMML 300815Z VRB03KT 9999 FEW025 SCT060 12/08 Q1015
                        NOSIG=
200901300800 METAR LMML NIL=
200901300745 METAR LMML 300745Z VRB02KT 9999 FEW025 SCT060 12/07 Q1014
                        NOSIG=
200901300730 METAR LMML NIL=
200901300715 METAR LMML 300715Z 28005KT 9999 FEW025 SCT060 10/06 Q1014
                        NOSIG=
200901300700 METAR LMML NIL=
200901300645 METAR LMML 300645Z 28006KT 9999 FEW025 09/06 Q1014 NOSIG=
200901300630 METAR LMML NIL=
200901300615 METAR LMML 300615Z 29004KT 9999 FEW025 08/05 Q1014 NOSIG=
200901300600 METAR LMML NIL=
200901300545 METAR LMML 300545Z VRB02KT 9999 FEW025 08/05 Q1014 NOSIG=
200901300530 METAR LMML NIL=
200901300515 METAR LMML 300515Z 29005KT 9999 FEW025 09/05 Q1014 NOSIG=
200901300500 METAR LMML NIL=
200901300445 METAR LMML 300445Z 29006KT 9999 FEW025 09/05 Q1014 NOSIG=
200901300430 METAR LMML NIL=
200901300415 METAR LMML 300415Z 29004KT 9999 FEW025 08/06 Q1013 NOSIG=
200901300400 METAR LMML NIL=
200901300345 METAR LMML 300345Z 26004KT 9999 FEW027 07/06 Q1013 NOSIG=
200901300330 METAR LMML NIL=
200901300315 METAR LMML 300315Z VRB02KT 9999 FEW027 08/05 Q1013 NOSIG=
200901300300 METAR LMML NIL=
200901300245 METAR LMML 300245Z VRB03KT 9999 FEW027 08/05 Q1013 NOSIG=
200901300230 METAR LMML NIL=
200901300215 METAR LMML 300215Z 00000KT 9999 FEW027 09/06 Q1013 NOSIG=
200901300200 METAR LMML NIL=
200901300145 METAR LMML 300145Z VRB03KT 9999 FEW027 09/06 Q1013 NOSIG=
200901300130 METAR LMML NIL=
200901300115 METAR LMML 300115Z 34006KT 310V010 9999 FEW028 09/06 Q1013
                        NOSIG=
200901300100 METAR LMML NIL=
200901300045 METAR LMML 300045Z 33006KT 9999 FEW028 09/06 Q1013 NOSIG=
200901300030 METAR LMML NIL=
200901300015 METAR LMML 300015Z 34008KT 9999 FEW028 10/07 Q1013 NOSIG=
200901300000 METAR LMML NIL=
200901292345 METAR LMML 292345Z 34008KT 9999 FEW028 10/06 Q1013 NOSIG=
200901292330 METAR LMML NIL=
200901292315 METAR LMML 292315Z 31010KT 9999 FEW032 09/07 Q1013 NOSIG=
200901292300 METAR LMML NIL=
200901292245 METAR LMML 292245Z 30008KT 9999 FEW031 10/07 Q1013 NOSIG=
200901292230 METAR LMML NIL=
200901292215 METAR LMML 292215Z 30009KT 9999 FEW031 SCT038 10/07 Q1012
                        NOSIG=
200901292200 METAR LMML NIL=
200901292145 METAR LMML 292145Z 29007KT 260V320 9999 FEW030 10/07 Q1012
                        NOSIG=
200901292130 METAR LMML NIL=
200901292115 METAR LMML 292115Z 29007KT 9999 FEW029 10/07 Q1012 NOSIG=
200901292100 METAR LMML NIL=
200901292045 METAR LMML 292045Z 30007KT 9999 FEW030 10/07 Q1012 NOSIG=
200901292030 METAR LMML NIL=
200901292015 METAR LMML 292015Z 32005KT 9999 FEW035 09/07 Q1012 NOSIG=
200901292000 METAR LMML NIL=
200901291945 METAR LMML 291945Z 31007KT 9999 FEW034 09/07 Q1011 NOSIG=
200901291930 METAR LMML NIL=
200901291915 METAR LMML 291915Z 31009KT 9999 FEW034 10/07 Q1011 NOSIG=
200901291900 METAR LMML NIL=
200901291845 METAR LMML 291845Z 30009KT 9999 FEW032 10/07 Q1011 NOSIG=
200901291830 METAR LMML NIL=
200901291815 METAR LMML 291815Z 29005KT 260V320 9999 FEW025 10/07 Q1010
                        NOSIG=
200901291800 METAR LMML NIL=
200901291745 METAR LMML 291745Z VRB03KT 9999 FEW021 SCT050 10/08 Q1010
                        NOSIG=
200901291730 METAR LMML NIL=
200901291715 METAR LMML 291715Z VRB03KT 9999 BKN021 SCT050 10/08 Q1010
                        NOSIG=
200901291700 METAR LMML NIL=
200901291645 METAR LMML 291645Z VRB03KT 9999 SCT026 SCT100 SCT097 10/08
                        Q1010 NOSIG=
200901291630 METAR LMML NIL=
200901291615 METAR LMML 291615Z VRB03KT 9999 FEW021 SCT060 BKN090 10/08
                        Q1010 NOSIG=
200901291600 METAR LMML NIL=
200901291545 METAR LMML 291545Z 32007KT 9999 FEW021 SCT065 BKN090 10/08
                        Q1010 NOSIG=
200901291530 METAR LMML NIL=
200901291515 METAR LMML 291515Z 32009KT 9999 SCT021 BKN060 10/08 Q1010
                        NOSIG=
200901291500 METAR LMML NIL=
200901291445 METAR LMML 291445Z 30008KT 260V330 9999 -RA FEW030 BKN048
                        10/09 Q1010 NOSIG=
200901291430 METAR LMML NIL=
200901291415 METAR LMML 291415Z 28011KT 250V310 6000 -RA SCT035 BKN050
                        10/08 Q1010 NOSIG=
200901291400 METAR LMML NIL=
200901291345 METAR LMML 291345Z 27008KT 6000 -RA SCT034 BKN050 11/08 Q1009
                        NOSIG=
200901291330 METAR LMML NIL=
200901291315 METAR LMML 291315Z 27010KT 9000 -SHRA SCT041 BKN050 BKN100
                        11/09 Q1009 TEMPO 6000 SHRA=
200901291300 METAR LMML NIL=
200901291245 METAR LMML 291245Z 28012KT 250V310 9000 -SHRA SCT039 SCT050
                        BKN080 11/08 Q1009 TEMPO 6000 SHRA=
200901291230 METAR LMML NIL=
200901291215 METAR LMML 291215Z 28010KT 9999 SCT027 SCT050 BKN080 11/08
                        Q1010 TEMPO 6000 SHRA=
200901291200 METAR LMML NIL=
200901291145 METAR LMML 291145Z 30008KT 260V340 9999 SCT026 SCT060 BKN080
                        13/09 Q1010 TEMPO 6000 SHRA=
200901291130 METAR LMML NIL=
200901291115 METAR LMML 291115Z 32008KT 290V350 9999 FEW026 SCT060 12/09
                        Q1010 NOSIG=
200901291100 METAR LMML NIL=
200901291045 METAR LMML 291045Z 29011KT 9999 SCT031 SCT050 BKN100 13/08
                        Q1010 TEMPO 7000 SHRA=
200901291015 METAR LMML 291015Z 28014KT 250V310 9999 FEW021 BKN060 11/07
                        Q1010 TEMPO 7000 SHRA=
200901291000 METAR LMML NIL=
200901290945 METAR LMML 290945Z 27014KT 240V300 9999 SCT023 SCT050 11/08
                        Q1011 NOSIG=
200901290930 METAR LMML NIL=
200901290915 METAR LMML 290915Z 27013KT 230V310 9000 -SHRA BKN026 BKN080
                        12/09 Q1010 BECMG 9999=
200901290900 METAR LMML NIL=
200901290845 METAR LMML 290845Z 28013KT 250V320 9999 SCT045 SCT060 13/07
                        Q1010 NOSIG=
200901290830 METAR LMML NIL=
200901290815 METAR LMML 290815Z 29015KT 9999 SCT032 SCT060 12/07 Q1010
                        NOSIG=
200901290800 METAR LMML NIL=
200901290745 METAR LMML 290745Z 29010KT 9999 SCT036 12/07 Q1010 NOSIG=
200901290730 METAR LMML NIL=
200901290715 METAR LMML 290715Z 29010KT 270V330 9999 FEW032 SCT060 11/07
                        Q1010 NOSIG=
200901290700 METAR LMML NIL=
200901290645 METAR LMML 290645Z 30007KT 270V330 9999 FEW030 BKN050 10/07
                        Q1010 NOSIG=
200901290630 METAR LMML NIL=
200901290615 METAR LMML 290615Z 30013KT 9999 FEW030 SCT050 10/07 Q1010
                        TEMPO 8000 SHRA=
200901290600 METAR LMML NIL=
200901290545 METAR LMML 290545Z 30009KT 9999 FEW030 BKN060 10/08 Q1009
                        TEMPO 8000 SHRA=
200901290530 METAR LMML NIL=
200901290515 METAR LMML 290515Z 31011KT 9999 FEW030 BKN050 09/08 Q1009
                        TEMPO 8000 SHRA=
200901290445 METAR LMML 290445Z 30011KT 260V340 6000 -RA FEW021 BKN044
                        10/08 Q1009 NOSIG=
200901290430 METAR LMML NIL=
200901290415 METAR LMML 290415Z 31017KT 6000 -RA SCT015 SCT047 10/08 Q1009
                        TEMPO BKN015=
200901290400 METAR LMML NIL=
200901290345 METAR LMML 290345Z 28013KT 240V310 4000 SHRA SCT018 SCT045
                        10/08 Q1009 TEMPO BKN015=
200901290332 LMML 290332Z 31012KT 250V360 3000 SHRA SCT021 BKN048 10/08
                        Q1009 BECMG 9999=
200901290330 METAR LMML NIL=
200901290315 METAR LMML 290315Z 28010KT 9999 FEW026 SCT048 10/08 Q1008
                        TEMPO 8000 SHRA=
200901290300 METAR LMML NIL=
200901290245 METAR LMML 290245Z 28014KT 240V310 9000 -RA FEW021 BKN049
                        10/08 Q1008 TEMPO 7000 SHRA BKN015=
200901290230 METAR LMML NIL=
200901290215 METAR LMML 290215Z 30017G29KT 260V330 9999 -RA FEW025 BKN044
                        09/07 Q1009 TEMPO 7000 SHRA BKN015=
200901290200 METAR LMML NIL=
200901290145 METAR LMML 290145Z 31016KT 270V330 9999 -SHRA SCT029 SCT049
                        10/08 Q1009 TEMPO 7000 SHRA BKN015=
200901290130 METAR LMML NIL=
200901290115 METAR LMML 290115Z 31014KT 9999 -SHRA SCT023 BKN060 10/08
                        Q1009 TEMPO 7000 SHRA BKN015=
200901290100 METAR LMML NIL=
200901290045 METAR LMML 290045Z 31013KT 9999 -SHRA SCT027 SCT060 10/07
                        Q1009 TEMPO 8000 SHRA=
200901290030 METAR LMML NIL=
200901290015 METAR LMML 290015Z 29009KT 9999 SCT029 SCT060 11/07 Q1008
                        TEMPO 8000 SHRA=
200901290000 METAR LMML NIL=
200901282345 METAR LMML 282345Z 28015KT 250V320 9999 SCT030 SCT060 11/06
                        Q1008 TEMPO 8000 SHRA=
200901282315 METAR LMML 282315Z 29011KT 270V330 9999 SCT027 SCT060 11/07
                        Q1008 TEMPO 8000 SHRA=
200901282245 METAR LMML 282245Z 29018KT 260V320 9999 SCT033 SCT060 11/06
                        Q1008 TEMPO 8000 SHRA=
200901282230 METAR LMML NIL=
200901282215 METAR LMML 282215Z 29019KT 240V310 9999 SCT034 SCT060 11/06
                        Q1008 TEMPO 8000 SHRA=
200901282200 METAR LMML NIL=
200901282145 METAR LMML 282145Z 29014G34KT 270V330 9999 -SHRA SCT030 11/07
                        Q1008 TEMPO 8000 SHRA=
200901282130 METAR LMML NIL=
200901282115 METAR LMML 282115Z 28016KT 230V320 9999 FEW034 11/06 Q1008
                        TEMPO 8000 SHRA=
200901282100 METAR LMML NIL=
200901282045 METAR LMML 282045Z 29019KT 9999 FEW029 11/06 Q1008 TEMPO
                        8000 SHRA=
200901282030 METAR LMML NIL=
200901282015 METAR LMML 282015Z 29014KT 260V320 9999 FEW029 SCT060 10/06
                        Q1008 TEMPO 8000 SHRA=
200901282000 METAR LMML NIL=
200901281945 METAR LMML 281945Z 28016KT 230V310 9999 FEW026 SCT070 11/07
                        Q1008 TEMPO 8000 SHRA=
200901281930 METAR LMML NIL=
200901281915 METAR LMML 281915Z 29014KT 270V330 9999 FEW035 11/06 Q1008
                        TEMPO 8000 SHRA=
200901281900 METAR LMML NIL=
200901281845 METAR LMML 281845Z 29012KT 9999 FEW030 SCT060 11/06 Q1008
                        TEMPO 8000 SHRA=
200901281830 METAR LMML NIL=
200901281815 METAR LMML 281815Z 29015KT 260V320 9999 FEW030 11/07 Q1008
                        TEMPO 5000 SHRA BKN015=
200901281800 METAR LMML NIL=
200901281745 METAR LMML 281745Z 31008KT 280V340 9999 FEW028 10/07 Q1008
                        TEMPO 5000 SHRA BKN015TCU=
200901281730 METAR LMML NIL=
200901281715 METAR LMML 281715Z 30006KT 7000 BKN025TCU SCT110 09/07 Q1008
                        TEMPO 5000 SHRA BKN015TCU=
200901281700 METAR LMML NIL=
200901281645 METAR LMML 281645Z 30010KT 260V330 7000 FEW018CB BKN022 09/08
                        Q1008 TEMPO 5000 SHRA BKN015TCU=
200901281630 METAR LMML NIL=
200901281615 METAR LMML 281615Z 27011KT 240V310 7000 BKN022 SCT080 BKN250
                        09/08 Q1008 TEMPO 5000 SHRA BKN015TCU=
200901281600 METAR LMML NIL=
200901281545 METAR LMML 281545Z 29016KT 7000 -SHRA SCT020TCU BKN250 09/07
                        Q1007 TEMPO 5000 SHRA BKN015TCU=
200901281530 METAR LMML NIL=
200901281515 METAR LMML 281515Z 29011KT 7000 BKN025 SCT250 10/08 Q1007
                        TEMPO 5000 SHRA BKN015TCU=
200901281500 METAR LMML NIL=
200901281445 METAR LMML 281445Z 29016G32KT 260V320 7000 -SHRA BKN028 BKN046
                        10/07 Q1007 TEMPO 5000 SHRA BKN015TCU=
200901281430 METAR LMML NIL=
200901281415 METAR LMML 281415Z 31013KT 270V340 7000 -SHRA FEW028 FEW036
                        FEW046 10/08 Q1006 TEMPO 5000 SHRA
                        BKN015TCU=
200901281400 METAR LMML NIL=
200901281345 METAR LMML 281345Z 32015KT 7000 BKN029 10/08 Q1006 TEMPO
                        5000 SHRA BKN015TCU=
200901281330 METAR LMML NIL=
200901281315 METAR LMML 281315Z 31014KT 7000 -SHRA BKN026 10/08 Q1006
                        TEMPO 5000 SHRA BKN015TCU=
200901281300 METAR LMML NIL=
200901281245 METAR LMML 281245Z 32010KT 280V350 6000 BKN022TCU 10/08 Q1006
                        TEMPO 5000 SHRA BKN015TCU=
200901281230 METAR LMML NIL=
200901281215 METAR LMML 281215Z 32011KT 6000 -SHRA BKN024TCU 09/07 Q1006
                        RESHRA TEMPO 5000 SHRA BKN015TCU=
200901281200 METAR LMML NIL=
200901281145 METAR LMML 281145Z 31012KT 6000 SHRA BKN022TCU 09/07 Q1006
                        TEMPO 5000 SHRA BKN015TCU=
200901281130 METAR LMML NIL=
200901281115 METAR LMML 281115Z 31013KT 280V340 6000 -SHRA BKN023TCU SCT250
                        09/07 Q1006 RESH TEMPO 5000 SHRA
                        BKN015TCU=
200901281100 METAR LMML NIL=
200901281045 METAR LMML 281045Z 31015KT 6000 -SHRA BKN023 SCT250 09/07
                        Q1007 RESH TEMPO 5000 SHRA BKN015TCU=
200901281030 METAR LMML NIL=
200901281015 METAR LMML 281015Z 29014G25KT 250V330 9000 BKN026TCU SCT250
                        11/07 Q1007 TEMPO 5000 SHRA BKN015CB=
200901281000 METAR LMML NIL=
200901280945 METAR LMML 280945Z 30016KT 250V330 9000 BKN021TCU SCT250
                        10/07 Q1006 TEMPO 5000 SHGS BKN015CB=
200901280930 METAR LMML NIL=
200901280915 METAR LMML 280915Z 27017KT 240V310 9000 BKN025TCU SCT250
                        12/08 Q1006 TEMPO 5000 SHGS BKN015CB=
200901280900 METAR LMML NIL=
200901280845 METAR LMML 280845Z 26013G23KT 230V300 9000 -SHRA BKN024TCU
                        10/08 Q1006 TEMPO 5000 SHGS BKN015CB=
200901280830 METAR LMML NIL=
200901280815 METAR LMML 280815Z 28012KT 250V320 9999 BKN025TCU 10/07 Q1006
                        TEMPO 5000 SHGR BKN015CB=
200901280800 METAR LMML NIL=
200901280745 METAR LMML 280745Z 27012KT 230V300 7000 -SHRA BKN020TCU 10/07
                        Q1006 TEMPO 5000 SHRA BKN015CB=
200901280730 METAR LMML NIL=
200901280715 METAR LMML 280715Z 27013KT 230V310 6000 -SHRA BKN019TCU 09/07
                        Q1006 TEMPO 5000 SHRA BKN015CB=
200901280705 SPECI LMML 280705Z 27010KT 230V310 6000 SHRA BKN021TCU 10/07
                        Q1006 TEMPO 5000 SHRA BKN015CB=
200901280700 METAR LMML NIL=
200901280645 METAR LMML 280645Z 28012KT 250V310 9999 SCT025TCU 09/07 Q1006
                        TEMPO 5000 SHRA BKN020TCU=
200901280630 LMML NIL=
200901280615 LMML 280615Z 26012KT 230V290 9999 SCT027TCU 10/06 Q1006 TEMPO
                        5000 SHGR=
200901280600 METAR LMML NIL=
200901280545 METAR LMML 280545Z 29016KT 250V310 9999 -SHRA BKN031 10/06
                        Q1006 TEMPO 5000 SHGR=
200901280530 METAR LMML NIL=
200901280515 METAR LMML 280515Z 28009KT 230V310 9999 SCT031 10/06 Q1006
                        TEMPO 5000 SHGR=
200901280445 METAR LMML 280445Z 28011KT 230V310 9999 BKN027 10/06 Q1006
                        TEMPO 5000 SHGR=
200901280430 METAR LMML NIL=
200901280415 METAR LMML 280415Z 28009KT 9999 -SHRA FEW029 10/06 Q1006
                        TEMPO 5000 SHGR=
200901280400 METAR LMML NIL=
200901280345 METAR LMML 280345Z 27011KT 240V320 9999 -SHRA BKN029 10/05
                        Q1006 TEMPO 5000 SHGR=
200901280330 METAR LMML NIL=
200901280315 METAR LMML 280315Z 28007KT 240V300 9999 FEW031 10/07 Q1007
                        TEMPO 5000 SHGR=
200901280300 METAR LMML NIL=
200901280245 METAR LMML 280245Z 28009KT 250V310 9999 -SHRA BKN029 10/07
                        Q1007 TEMPO 5000 SHGR=
200901280230 METAR LMML NIL=
200901280215 METAR LMML 280215Z 29007KT 260V320 9999 BKN037 09/07 Q1007
                        RESHRA TEMPO 5000 SHGR=
200901280200 METAR LMML NIL=
200901280145 METAR LMML 280145Z 28016G32KT 250V310 9999 SHRA BKN028 09/06
                        Q1008 TEMPO 5000 SHGR=
200901280130 METAR LMML NIL=
200901280115 METAR LMML 280115Z 27010KT 230V300 9999 SCT028 11/04 Q1007
                        TEMPO 5000 SHGR=
200901280100 METAR LMML NIL=
200901280045 METAR LMML 280045Z 28013KT 230V320 9999 SCT039 10/04 Q1008
                        TEMPO 5000 SHGR RMK LIGHTNING TO
                        S=
200901280030 METAR LMML NIL=
200901280015 METAR LMML 280015Z 28016G26KT 9999 BKN028 10/06 Q1008 TEMPO
                        5000 SHGR RMK LIGHTNING TO S=
200901280000 METAR LMML NIL=
200901272345 METAR LMML 272345Z 27009KT 230V300 9999 FEW032 11/06 Q1008
                        TEMPO 5000 SHGR RMK LIGHTNING TO
                        W=
200901272330 LMML NIL=
200901272300 METAR LMML NIL=
200901272245 METAR LMML 272245Z 26010KT 220V300 9999 SCT031 11/07 Q1008
                        TEMPO 5000 SHGR=
200901272230 METAR LMML NIL=
200901272215 METAR LMML 272215Z 27011KT 240V310 9999 SCT032 11/06 Q1008
                        TEMPO 8000 SHRA=
200901272200 METAR LMML NIL=
200901272145 METAR LMML 272145Z 27011KT 240V300 9999 SCT033 11/06 Q1008
                        TEMPO 8000 SHRA=
200901272130 METAR LMML NIL=
200901272115 METAR LMML 272115Z 27010KT 250V310 9999 FEW029 11/06 Q1008
                        TEMPO 8000 SHRA=
200901272100 METAR LMML NIL=
200901272045 METAR LMML 272045Z 27013KT 240V310 9999 SCT028 11/07 Q1009
                        RESHRA TEMPO 5000 SHRA=
200901272030 METAR LMML NIL=
200901272015 METAR LMML 272015Z 28009KT 240V310 9999 SCT026 10/06 Q1008
                        RESHRA TEMPO 5000 SHRA=
200901272002 SPECI LMML 272002Z 27009KT 220V310 9999 SCT028 10/07 Q1008
                        RESHRA TEMPO 5000 SHRA=
200901272000 METAR LMML NIL=
200901271945 METAR LMML 271945Z 24010KT 200V280 5000 SHRA BKN027 10/07
                        Q1008 TEMPO 5000 SHRA=
200901271930 METAR LMML NIL=
200901271915 METAR LMML 271915Z 25006KT 210V290 9000 BKN036 10/06 Q1008
                        TEMPO 5000 SHRA=
200901271901 SPECI LMML 271901Z 25008KT 210V300 7000 SHRA BKN036 10/06
                        Q1008 RESHRA TEMPO 5000 SHRA=
200901271900 METAR LMML NIL=
200901271845 METAR LMML 271845Z 26010G23KT 220V300 9000 -SHRA BKN033 11/05
                        Q1009 TEMPO 5000 SHRA=
200901271815 METAR LMML 271815Z 25010KT 210V280 9999 SCT039 11/05 Q1008
                        TEMPO 8000 SHRA=
200901271800 METAR LMML NIL=
200901271745 METAR LMML 271745Z 26010KT 210V300 9999 FEW040 11/04 Q1008
                        NOSIG=
200901271730 METAR LMML NIL=
200901271715 METAR LMML 271715Z 25010KT 210V280 9999 SCT040 11/04 Q1008
                        NOSIG=
200901271700 METAR LMML NIL=
200901271645 METAR LMML 271645Z 25011KT 200V300 9999 SCT041 11/04 Q1008
                        NOSIG=
200901271630 METAR LMML NIL=
200901271615 METAR LMML 271615Z 25011KT 210V290 9999 FEW043 11/04 Q1008
                        NOSIG=
200901271600 METAR LMML NIL=
200901271545 METAR LMML 271545Z 25013KT 230V300 9999 FEW048 12/04 Q1008
                        NOSIG=
200901271530 METAR LMML NIL=
200901271515 METAR LMML 271515Z 26013KT 220V290 9999 FEW045 12/04 Q1008
                        NOSIG=
200901271500 METAR LMML NIL=
200901271445 METAR LMML 271445Z 24011KT 210V300 9999 FEW046 13/03 Q1007
                        NOSIG=
200901271430 METAR LMML NIL=
200901271415 METAR LMML 271415Z 24013KT 200V290 9999 FEW043 13/04 Q1008
                        NOSIG=
200901271400 METAR LMML NIL=
200901271345 METAR LMML 271345Z 24012KT 200V290 9999 SCT043 14/04 Q1007
                        NOSIG=
200901271330 METAR LMML NIL=
200901271315 METAR LMML 271315Z 25014KT 200V280 9999 SCT042 14/05 Q1007
                        NOSIG=
200901271300 METAR LMML NIL=
200901271245 METAR LMML 271245Z 25012KT 200V290 9999 SCT040 13/05 Q1007
                        NOSIG=
200901271230 METAR LMML NIL=
200901271215 METAR LMML 271215Z 25014KT 200V290 9999 SCT038 13/05 Q1008
                        NOSIG=
200901271200 METAR LMML NIL=
200901271145 METAR LMML 271145Z 24014KT 200V280 9999 SCT035 14/06 Q1008
                        TEMPO 8000 SHRA RMK CB TO NORTH AND
                        SOUTHEAST=
200901271130 METAR LMML NIL=
200901271115 METAR LMML 271115Z 24011KT 170V280 9999 SCT038 13/06 Q1008
                        TEMPO 8000 SHRA RMK CB TOPS TO NORTHWEST
                        AND SOUTH=
200901271100 METAR LMML NIL=
200901271045 METAR LMML 271045Z 24011KT 200V270 9999 FEW038 13/06 Q1009
                        NOSIG=
200901271030 METAR LMML NIL=
200901271015 METAR LMML 271015Z 25011KT 210V300 9999 FEW030 14/06 Q1009
                        NOSIG=
200901271000 METAR LMML NIL=
200901270945 METAR LMML 270945Z 24011KT 210V290 9999 FEW030 13/06 Q1009
                        NOSIG=
200901270930 METAR LMML NIL=
200901270915 METAR LMML 270915Z 25010KT 210V290 9999 FEW030 13/06 Q1009
                        NOSIG=
200901270900 METAR LMML NIL=
200901270845 METAR LMML 270845Z 25011KT 210V290 9999 FEW031 13/06 Q1009
                        NOSIG=
200901270830 METAR LMML NIL=
200901270815 METAR LMML 270815Z 26010KT 220V290 9999 FEW031 12/06 Q1009
                        NOSIG=
200901270800 METAR LMML NIL=
200901270745 METAR LMML 270745Z 27010KT 230V300 9999 FEW031 12/05 Q1009
                        NOSIG=
200901270730 METAR LMML NIL=
200901270715 METAR LMML 270715Z 26009KT 230V300 9999 FEW031 11/04 Q1009
                        NOSIG=
200901270700 METAR LMML NIL=
200901270645 METAR LMML 270645Z 27011KT 230V300 9999 FEW031 SCT120 11/05
                        Q1008 NOSIG=
200901270630 METAR LMML NIL=
200901270615 METAR LMML 270615Z 26008KT 210V300 9999 SCT031 BKN120 11/07
                        Q1008 NOSIG=
200901270600 METAR LMML NIL=
200901270545 METAR LMML 270545Z 27007KT 240V300 9999 SCT032 BKN120 11/06
                        Q1008 NOSIG=
200901270530 METAR LMML NIL=
200901270515 METAR LMML 270515Z 27006KT 240V300 9999 FEW032 BKN120 10/07
                        Q1008 NOSIG=
200901270500 METAR LMML NIL=
200901270445 METAR LMML 270445Z 27006KT 240V300 9999 SCT021 BKN120 10/07
                        Q1008 NOSIG=
200901270430 METAR LMML NIL=
200901270415 METAR LMML 270415Z 28006KT 240V310 9999 SCT021 BKN120 11/08
                        Q1008 NOSIG=
200901270400 METAR LMML NIL=
200901270345 METAR LMML 270345Z 30004KT 9999 SCT037 BKN120 10/07 Q1007
                        NOSIG=
200901270330 METAR LMML NIL=
200901270315 METAR LMML 270315Z 31006KT 9999 SCT037 BKN120 11/07 Q1008
                        NOSIG=
200901270300 METAR LMML NIL=
200901270245 METAR LMML 270245Z 32008KT 9999 FEW018 BKN120 10/07 Q1007
                        NOSIG=
200901270230 METAR LMML NIL=
200901270215 METAR LMML 270215Z 32009KT 9999 FEW018 BKN120 11/08 Q1007
                        NOSIG=
200901270200 METAR LMML NIL=
200901270145 METAR LMML 270145Z 33013KT 9999 FEW018 BKN120 11/08 Q1008
                        NOSIG=
200901270130 METAR LMML NIL=
200901270115 METAR LMML 270115Z 31011KT 270V350 9999 FEW016 BKN110 11/09
                        Q1007 NOSIG=
200901270100 METAR LMML NIL=
200901270045 METAR LMML 270045Z 32011KT 290V350 9999 FEW017 BKN090 12/09
                        Q1007 NOSIG=
200901270030 METAR LMML NIL=
200901270015 METAR LMML 270015Z 25011KT 210V300 9999 FEW020 BKN090 14/09
                        Q1006 NOSIG=
200901270000 METAR LMML NIL=
200901262345 METAR LMML 262345Z 25013KT 220V290 9999 FEW020 BKN090 14/08
                        Q1006 NOSIG=
200901262330 METAR LMML NIL=
200901262315 METAR LMML 262315Z 25011KT 220V290 9999 FEW020 BKN090 14/09
                        Q1006 NOSIG=
200901262245 METAR LMML 262245Z 25012KT 220V300 9999 FEW020 BKN090 14/10
                        Q1007 NOSIG=
200901262230 METAR LMML NIL=
200901262215 METAR LMML 262215Z 25015G25KT 210V290 9999 FEW022 BKN090
                        15/11 Q1007 NOSIG=
200901262200 METAR LMML NIL=
200901262145 METAR LMML 262145Z 23012KT 200V280 8000 FEW023 BKN090 15/12
                        Q1007 NOSIG=
200901262130 METAR LMML NIL=
200901262115 METAR LMML 262115Z 22009KT 190V260 8000 FEW022 BKN110 15/13
                        Q1006 NOSIG=
200901262100 METAR LMML NIL=
200901262045 METAR LMML 262045Z 21007KT 180V270 8000 FEW021 BKN110 15/13
                        Q1006 NOSIG=
200901262030 METAR LMML NIL=
200901262015 METAR LMML 262015Z 22007KT 190V260 8000 -RA SCT021 BKN120
                        15/13 Q1007 NOSIG=
200901261945 METAR LMML 261945Z 19007KT 160V230 9000 BKN120 15/13 Q1006
                        NOSIG=
200901261915 METAR LMML 261915Z 19007KT 9000 BKN120 15/13 Q1006 NOSIG=
200901261900 METAR LMML NIL=
200901261845 METAR LMML 261845Z 18009KT 9000 BKN120 15/13 Q1006 NOSIG=
200901261815 METAR LMML 261815Z 18008KT 9000 BKN100 15/13 Q1006 NOSIG=
200901261800 METAR LMML NIL=
200901261745 METAR LMML 261745Z 19008KT 9000 BKN100 15/13 Q1006 NOSIG=
200901261730 METAR LMML NIL=
200901261715 METAR LMML 261715Z 19007KT 160V220 9000 BKN090 15/13 Q1006
                        NOSIG=
200901261700 METAR LMML NIL=
200901261645 METAR LMML 261645Z 21005KT 180V250 9000 BKN090 15/12 Q1006
                        NOSIG=
200901261630 METAR LMML NIL=
200901261615 METAR LMML 261615Z 20006KT 160V250 9000 FEW100 SCT250 15/12
                        Q1006 NOSIG=
200901261600 METAR LMML NIL=
200901261545 METAR LMML 261545Z 21007KT 170V260 CAVOK 15/12 Q1006 NOSIG=
200901261530 METAR LMML NIL=
200901261515 METAR LMML 261515Z 21007KT 180V250 CAVOK 16/12 Q1006 NOSIG=
200901261500 METAR LMML NIL=
200901261445 METAR LMML 261445Z 21008KT 170V270 CAVOK 16/12 Q1006 NOSIG=
200901261430 METAR LMML NIL=
200901261400 METAR LMML NIL=
200901261345 METAR LMML 261345Z 21009KT 170V260 9999 FEW030 17/13 Q1006
                        NOSIG=
200901261330 METAR LMML NIL=
200901261315 METAR LMML 261315Z 21009KT 180V270 9999 FEW030 17/12 Q1006
                        NOSIG=
200901261300 METAR LMML NIL=
200901261245 METAR LMML 261245Z 21009KT 170V270 9999 FEW030 17/12 Q1006
                        NOSIG=
200901261230 METAR LMML NIL=
200901261215 METAR LMML 261215Z 20009KT 170V250 CAVOK 17/12 Q1006 NOSIG=
200901261200 METAR LMML NIL=
200901261145 METAR LMML 261145Z 21009KT 160V250 CAVOK 17/12 Q1006 NOSIG=
200901261130 METAR LMML NIL=
200901261115 METAR LMML 261115Z 22009KT 180V270 CAVOK 17/12 Q1007 NOSIG=
200901261100 METAR LMML NIL=
200901261045 METAR LMML 261045Z 22010KT 180V280 9999 FEW030 16/11 Q1007
                        NOSIG=
200901261030 METAR LMML NIL=
200901261015 METAR LMML 261015Z 22010KT 190V270 9999 FEW030 16/11 Q1008
                        NOSIG=
200901261000 METAR LMML NIL=
200901260945 METAR LMML 260945Z 22010KT 190V280 9999 FEW030 16/10 Q1008
                        NOSIG=
200901260930 METAR LMML NIL=
200901260915 METAR LMML 260915Z 22010KT 180V260 9999 FEW030 16/10 Q1008
                        NOSIG=
200901260900 METAR LMML NIL=
200901260845 METAR LMML 260845Z 22009KT 180V260 9999 FEW030 16/10 Q1008
                        NOSIG=
200901260830 METAR LMML NIL=
200901260815 METAR LMML 260815Z 23010KT 200V270 9999 FEW030 15/10 Q1008
                        NOSIG=
200901260800 METAR LMML NIL=
200901260745 METAR LMML 260745Z 23008KT 190V280 9999 FEW030 15/09 Q1008
                        NOSIG=
200901260730 METAR LMML NIL=
200901260715 METAR LMML 260715Z 22008KT 180V270 9999 FEW030 14/09 Q1007
                        NOSIG=
200901260700 METAR LMML NIL=
200901260645 METAR LMML 260645Z 22010KT 200V280 9999 FEW033 SCT120 14/09
                        Q1007 NOSIG=
200901260630 METAR LMML NIL=
200901260615 METAR LMML 260615Z 22009KT 190V270 9999 FEW033 14/09 Q1007
                        NOSIG=
200901260600 METAR LMML NIL=
200901260545 METAR LMML 260545Z 22008KT 170V260 9999 FEW032 13/09 Q1007
                        NOSIG=
200901260530 METAR LMML NIL=
200901260515 METAR LMML 260515Z 22009KT 190V260 9999 FEW029 13/08 Q1007
                        NOSIG=
200901260500 METAR LMML NIL=
200901260445 METAR LMML 260445Z 23009KT 200V270 9999 FEW029 13/09 Q1007
                        NOSIG=
200901260415 METAR LMML 260415Z 23010KT 200V270 9999 SCT034 13/08 Q1007
                        NOSIG=
200901260400 METAR LMML NIL=
200901260345 METAR LMML 260345Z 22006KT 180V270 9999 SCT024 13/09 Q1007
                        NOSIG=
200901260330 METAR LMML NIL=
200901260315 METAR LMML 260315Z 22009KT 190V260 9999 SCT024 13/09 Q1007
                        NOSIG=
200901260300 METAR LMML NIL=
200901260245 METAR LMML 260245Z 23010KT 200V270 9999 SCT023 13/09 Q1007
                        NOSIG=
200901260230 METAR LMML NIL=
200901260215 METAR LMML 260215Z 23009KT 190V270 9999 FEW021 13/10 Q1007
                        NOSIG=
200901260200 METAR LMML NIL=
200901260145 METAR LMML 260145Z 22007KT 200V270 CAVOK 13/10 Q1007 NOSIG=
200901260130 METAR LMML NIL=
200901260115 METAR LMML 260115Z 23006KT 200V270 9999 FEW030 13/10 Q1007
                        NOSIG=
200901260100 METAR LMML NIL=
200901260045 METAR LMML 260045Z 23007KT 210V280 9999 FEW034 13/09 Q1007
                        NOSIG=
200901260030 METAR LMML NIL=
200901260015 METAR LMML 260015Z 23008KT 200V280 9999 FEW034 13/09 Q1008
                        NOSIG=
200901260000 METAR LMML NIL=
200901252345 METAR LMML 252345Z 24007KT 200V290 9999 FEW034 13/09 Q1007
                        NOSIG=
200901252330 METAR LMML NIL=
200901252315 METAR LMML 252315Z 25009KT 210V290 9999 FEW034 13/08 Q1008
                        NOSIG=
200901252300 METAR LMML NIL=
200901252245 METAR LMML 252245Z 25011KT 210V290 9999 FEW034 13/08 Q1008
                        NOSIG=
200901252230 METAR LMML NIL=
200901252215 METAR LMML 252215Z 26013KT 230V300 9999 FEW038 14/06 Q1008
                        NOSIG=
200901252200 METAR LMML NIL=
200901252145 METAR LMML 252145Z 26014KT 9999 FEW035 13/06 Q1008 NOSIG=
200901252130 METAR LMML NIL=
200901252115 METAR LMML 252115Z 27014KT 230V300 9999 FEW038 13/06 Q1008
                        NOSIG=
200901252100 METAR LMML NIL=
200901252045 METAR LMML 252045Z 28012KT 240V310 9999 FEW038 13/07 Q1007
                        NOSIG=
200901252030 METAR LMML NIL=
200901252015 METAR LMML 252015Z 28014KT 9999 FEW036 13/07 Q1007 NOSIG=
200901252000 METAR LMML NIL=
200901251945 METAR LMML 251945Z 28016KT 250V310 9999 FEW030 13/07 Q1007
                        NOSIG=
200901251930 METAR LMML NIL=
200901251915 METAR LMML 251915Z 28019KT 250V310 9999 FEW030 13/06 Q1007
                        NOSIG=
200901251900 METAR LMML NIL=
200901251845 METAR LMML 251845Z 28017KT 9999 SCT040 SCT052 13/07 Q1006
                        NOSIG=
200901251830 METAR LMML NIL=
200901251815 METAR LMML 251815Z 28018KT 240V300 9999 FEW041 SCT051 13/06
                        Q1006 NOSIG=
200901251800 METAR LMML NIL=
200901251745 METAR LMML 251745Z 28020G31KT 250V320 9999 SCT043 SCT050
                        13/07 Q1006 NOSIG=
200901251730 METAR LMML NIL=
200901251715 METAR LMML 251715Z 28018G28KT 240V310 9999 SCT040 SCT050
                        13/06 Q1006 NOSIG=
200901251700 METAR LMML NIL=
200901251645 METAR LMML 251645Z 28020G30KT 250V310 9999 SCT037 SCT042
                        13/07 Q1006 NOSIG=
200901251630 METAR LMML NIL=
200901251615 METAR LMML 251615Z 28019KT 250V310 9999 SCT035 SCT042 13/07
                        Q1005 NOSIG=
200901251600 METAR LMML NIL=
200901251545 METAR LMML 251545Z 28016KT 9999 SCT036 SCT050 12/08 Q1005
                        NOSIG=
200901251530 METAR LMML NIL=
200901251515 METAR LMML 251515Z 28021KT 240V310 9999 FEW034 13/08 Q1005
                        NOSIG=
200901251500 METAR LMML NIL=
200901251445 METAR LMML 251445Z 28018G30KT 230V310 9999 SCT034 12/08 Q1005
                        NOSIG=
200901251430 METAR LMML NIL=
200901251415 METAR LMML 251415Z 28022G33KT 250V310 9999 BKN033 14/07 Q1004
                        TEMPO 8000 SHRA=
200901251400 METAR LMML NIL=
200901251345 METAR LMML 251345Z 28023G34KT 240V310 9999 SCT029 14/08 Q1004
                        NOSIG=
200901251330 METAR LMML NIL=
200901251315 METAR LMML 251315Z 28022KT 230V310 9999 SCT030 14/08 Q1004
                        NOSIG=
200901251300 METAR LMML NIL=
200901251245 METAR LMML 251245Z 28023G34KT 240V310 9999 FEW035 14/08 Q1004
                        NOSIG=
200901251230 METAR LMML NIL=
200901251215 METAR LMML 251215Z 28025G36KT 250V310 9999 SCT032 14/08 Q1004
                        NOSIG=
200901251200 METAR LMML NIL=
200901251145 METAR LMML 251145Z 27022KT 240V310 9999 SCT031 14/08 Q1004
                        NOSIG=
200901251130 METAR LMML NIL=
200901251115 METAR LMML 251115Z 28021G31KT 240V310 9999 R14/0812VP1500U
                        FEW031 14/08 Q1004 NOSIG=
200901251100 METAR LMML NIL=
200901251045 METAR LMML 251045Z 28025G38KT 250V310 9999 FEW028 14/08 Q1004
                        NOSIG=
200901251030 METAR LMML NIL=
200901251015 METAR LMML 251015Z 28024G37KT 240V300 9999 FEW031 14/08 Q1003
                        NOSIG=
200901251000 METAR LMML NIL=
200901250945 METAR LMML 250945Z 27022G32KT 240V310 9999 FEW029 14/08 Q1004
                        NOSIG=
200901250930 METAR LMML NIL=
200901250915 METAR LMML 250915Z 27023KT 220V300 9999 SCT033 13/08 Q1004
                        NOSIG=
200901250900 METAR LMML NIL=
200901250845 METAR LMML 250845Z 27025KT 240V300 9999 BKN035 14/07 Q1004
                        NOSIG=
200901250830 METAR LMML NIL=
200901250815 METAR LMML 250815Z 28025KT 250V310 9999 FEW036 13/07 Q1003
                        NOSIG=
200901250800 METAR LMML NIL=
200901250745 METAR LMML 250745Z 28022G33KT 240V310 9999 FEW031 13/06 Q1003
                        NOSIG=
200901250730 METAR LMML NIL=
200901250715 METAR LMML 250715Z 28020G30KT 250V310 9999 FEW031 SCT100
                        12/06 Q1002 NOSIG=
200901250700 LMML NIL=
200901250645 LMML 250645Z 28020KT 250V310 9999 SCT031 12/08 Q1002 NOSIG=
200901250630 METAR LMML NIL=
200901250615 METAR LMML 250615Z 27015KT 240V310 9999 SCT035 SCT080 10/08
                        Q1002 NOSIG=
200901250600 METAR LMML NIL=
200901250545 METAR LMML 250545Z 27020G31KT 240V310 9999 SCT033 12/07 Q1002
                        NOSIG=
200901250530 METAR LMML NIL=
200901250515 METAR LMML 250515Z 28024G34KT 250V310 9999 FEW037 13/06 Q1001
                        NOSIG=
200901250500 METAR LMML NIL=
200901250445 METAR LMML 250445Z 28021G31KT 240V310 9999 FEW037 SCT120
                        12/06 Q1001 NOSIG=
200901250430 METAR LMML NIL=
200901250415 METAR LMML 250415Z 27023KT 240V300 9999 FEW040 SCT120 12/06
                        Q1000 NOSIG=
200901250400 METAR LMML NIL=
200901250345 METAR LMML 250345Z 28018KT 250V320 9999 FEW040 BKN120 12/06
                        Q1000 NOSIG=
200901250330 METAR LMML NIL=
200901250315 METAR LMML 250315Z 28016KT 250V310 9999 FEW040 BKN070 12/07
                        Q1001 NOSIG=
200901250300 METAR LMML NIL=
200901250245 METAR LMML 250245Z 29022G35KT 9999 SCT037 BKN070 12/07 Q1001
                        NOSIG=
200901250230 METAR LMML NIL=
200901250215 METAR LMML 250215Z 28016G27KT 250V310 9999 SCT041 BKN080
                        13/07 Q1001 NOSIG=
200901250145 METAR LMML 250145Z 28016KT 250V310 9999 FEW039 BKN090 13/06
                        Q1001 NOSIG=
200901250115 METAR LMML 250115Z 29019KT 9999 -RA FEW039 BKN090 13/05 Q1001
                        NOSIG=
200901250100 METAR LMML NIL=
200901250045 METAR LMML 250045Z 28018KT 250V310 9999 FEW038 BKN080 13/07
                        Q1001 NOSIG=
200901250030 METAR LMML NIL=
200901250015 METAR LMML 250015Z 29017KT 260V320 9999 FEW035 BKN060 13/07
                        Q1001 NOSIG=
200901250000 METAR LMML NIL=
200901242345 METAR LMML 242345Z 26008KT 230V290 9000 -RA FEW034 BKN060
                        11/08 Q1001 NOSIG=
200901242330 METAR LMML NIL=
200901242315 METAR LMML 242315Z 29014KT 9000 -RA FEW035 BKN060 11/08 Q1002
                        NOSIG=
200901242300 METAR LMML NIL=
200901242245 METAR LMML 242245Z 30024G37KT 270V330 9999 FEW035 BKN060
                        13/07 Q1002 NOSIG=
200901242230 METAR LMML NIL=
200901242215 METAR LMML 242215Z 29023KT 250V320 9999 FEW035 BKN060 14/06
                        Q1002 NOSIG=
200901242200 METAR LMML NIL=
200901242145 METAR LMML 242145Z 29020KT 260V320 9999 FEW037 BKN060 15/07
                        Q1001 NOSIG=
200901242130 METAR LMML NIL=
200901242115 METAR LMML 242115Z 29020G33KT 260V330 9999 FEW036 OVC060
                        14/09 Q1001 NOSIG=
200901242100 METAR LMML NIL=
200901242045 METAR LMML 242045Z 29017KT 260V320 9999 FEW036 BKN070 15/08
                        Q1001 NOSIG=
200901242030 METAR LMML NIL=
200901242015 METAR LMML 242015Z 29018KT 250V310 9999 FEW036 BKN070 15/09
                        Q1001 NOSIG=
200901242000 METAR LMML NIL=
200901241945 METAR LMML 241945Z 29017KT 9999 FEW040 BKN070 16/10 Q1001
                        NOSIG=
200901241915 METAR LMML 241915Z 27014KT 240V300 9999 FEW036 BKN070 16/12
                        Q1001 NOSIG=
200901241900 METAR LMML NIL=
200901241845 METAR LMML 241845Z 27013KT 230V300 9999 FEW034 BKN060 16/12
                        Q1001 NOSIG=
200901241830 METAR LMML NIL=
200901241815 METAR LMML 241815Z 27011KT 220V300 9999 -RA FEW038 BKN060
                        16/13 Q1001 NOSIG=
200901241800 METAR LMML NIL=
200901241745 METAR LMML 241745Z 25010KT 210V290 9999 FEW040 SCT070 16/12
                        Q1000 NOSIG=
200901241730 METAR LMML NIL=
200901241715 METAR LMML 241715Z 26014KT 230V300 9999 FEW040 SCT070 17/11
                        Q1000 NOSIG=
200901241700 METAR LMML NIL=
200901241645 METAR LMML 241645Z 26012KT 220V300 9999 FEW040 SCT070 17/11
                        Q1000 NOSIG=
200901241630 METAR LMML NIL=
200901241615 METAR LMML 241615Z 26013KT 230V290 9999 FEW040 SCT080 16/12
                        Q1000 NOSIG=
200901241600 METAR LMML NIL=
200901241545 METAR LMML 241545Z 26014KT 200V290 CAVOK 17/12 Q1000 NOSIG=
200901241530 METAR LMML NIL=
200901241515 METAR LMML 241515Z 26013KT 210V290 9999 FEW015 SCT080 BKN250
                        17/12 Q1000 NOSIG=
200901241500 LMML NIL=
200901241445 LMML 241445Z 26012KT 200V300 9999 FEW015 SCT080 BKN250 17/12
                        Q1000 NOSIG=
200901241430 METAR LMML NIL=
200901241415 METAR LMML 241415Z 27014KT 230V300 9999 FEW015 BKN250 18/12
                        Q1000 NOSIG=
200901241400 METAR LMML NIL=
200901241345 METAR LMML 241345Z 28019KT 250V310 9999 FEW015 BKN250 18/11
                        Q1000 NOSIG=
200901241330 METAR LMML NIL=
200901241315 METAR LMML 241315Z 27017KT 240V300 9999 FEW015 BKN250 18/12
                        Q1001 NOSIG=
200901241300 METAR LMML NIL=
200901241245 METAR LMML 241245Z 27016KT 230V310 9999 FEW015 BKN250 18/13
                        Q1001 NOSIG=
200901241230 METAR LMML NIL=
200901241215 METAR LMML 241215Z 26016KT 210V300 9999 FEW015 BKN250 17/14
                        Q1001 NOSIG=
200901241145 METAR LMML 241145Z 26015KT 230V290 9999 BKN046 BKN250 17/14
                        Q1001 NOSIG=
200901241130 METAR LMML NIL=
200901241115 METAR LMML 241115Z 26014KT 220V290 9999 BKN047 BKN250 17/13
                        Q1001 NOSIG=
200901241100 METAR LMML NIL=
200901241045 METAR LMML 241045Z 25010KT 210V290 9999 SCT046 BKN250 17/14
                        Q1001 NOSIG=
200901241030 METAR LMML NIL=
200901241015 METAR LMML 241015Z 24011KT 200V290 9999 FEW020 BKN250 17/15
                        Q1002 NOSIG=
200901240945 METAR LMML 240945Z 25009KT 180V290 9999 FEW020 BKN250 16/14
                        Q1002 NOSIG=
200901240930 METAR LMML NIL=
200901240915 METAR LMML 240915Z 25009KT 220V300 9999 FEW013 BKN250 16/14
                        Q1002 NOSIG=
200901240900 METAR LMML NIL=
200901240845 METAR LMML 240845Z 25011KT 210V290 9999 FEW013 BKN250 16/14
                        Q1001 NOSIG=
200901240830 METAR LMML NIL=
200901240815 METAR LMML 240815Z 26009KT 220V300 9999 FEW015 OVC250 16/14
                        Q1002 NOSIG=
200901240800 METAR LMML NIL=
200901240745 METAR LMML 240745Z 27008KT 210V310 9999 FEW015 OVC250 16/13
                        Q1001 NOSIG=
200901240730 METAR LMML NIL=
200901240715 METAR LMML 240715Z 26013KT 230V300 9999 FEW007 SCT014 BKN250
                        16/14 Q1001 NOSIG=
200901240700 METAR LMML NIL=
200901240645 METAR LMML 240645Z 27013KT 240V300 9999 BKN007 OVC030 15/13
                        Q1001 NOSIG=
200901240630 METAR LMML NIL=
200901240615 METAR LMML 240615Z 28013KT 240V300 9999 BKN023 15/13 Q1001
                        NOSIG=
200901240600 METAR LMML NIL=
200901240545 METAR LMML 240545Z 27012KT 9999 BKN015 BKN024 15/13 Q1001
                        TEMPO RA BKN005 BKN015=
200901240530 LMML NIL=
200901240515 METAR LMML 240515Z 27012KT 240V300 9999 BKN021 BKN027 15/13
                        Q1001 TEMPO RA BKN005 BKN015=
200901240500 METAR LMML NIL=
200901240445 METAR LMML 240445Z 28012KT 260V320 9999 BKN020 15/13 Q1001
                        TEMPO RA BKN005 BKN015=
200901240430 METAR LMML NIL=
200901240415 METAR LMML 240415Z 28015KT 250V320 9999 BKN018 15/13 Q1000
                        TEMPO RA BKN005 BKN015=
200901240400 METAR LMML NIL=
200901240345 METAR LMML 240345Z 28015KT 250V320 9999 BKN019 BKN057 15/13
                        Q1000 TEMPO RA BKN005 BKN015=
200901240330 METAR LMML NIL=
200901240315 METAR LMML 240315Z 27018KT 240V300 9999 FEW015 BKN060 15/13
                        Q1000 TEMPO RA BKN005 BKN015=
200901240300 METAR LMML NIL=
200901240245 METAR LMML 240245Z 27015KT 230V300 9999 FEW012 BKN016 BKN060
                        15/14 Q1000 TEMPO RA BKN005 BKN015=
200901240230 METAR LMML NIL=
200901240215 METAR LMML 240215Z 27015KT 240V300 9000 -RA SCT009 SCT013
                        OVC019 15/14 Q1001 TEMPO RA BKN005
                        BKN015=
200901240200 METAR LMML NIL=
200901240145 METAR LMML 240145Z 27017KT 230V290 8000 -RA BKN008 BKN015
                        OVC030 15/14 Q1001 TEMPO RA BKN005
                        BKN015=
200901240130 METAR LMML NIL=
200901240115 METAR LMML 240115Z 27017KT 230V300 9999 BKN008 OVC030 15/14
                        Q1001 TEMPO RA BKN005 BKN015=
200901240100 METAR LMML NIL=
200901240045 METAR LMML 240045Z 26017KT 220V290 9999 BKN007 OVC030 15/14
                        Q1001 TEMPO RA BKN005 BKN015=
200901240015 METAR LMML 240015Z 26017KT 210V300 9000 BKN005 OVC030 14/14
                        Q1001 TEMPO RA BKN005 BKN015=
200901232345 METAR LMML 232345Z 25019KT 210V290 8000 -RA BKN006 OVC030
                        14/13 Q1002 TEMPO RA BKN005 BKN015=
200901232330 METAR LMML NIL=
200901232315 METAR LMML 232315Z 26018KT 220V280 6000 -RA SCT006 BKN010
                        OVC030 14/13 Q1002 TEMPO RA BKN005
                        BKN015=
200901232245 METAR LMML 232245Z 27019G34KT 240V300 9999 SCT007 SCT011
                        OVC030 14/13 Q1002 TEMPO RA BKN005
                        BKN015=
200901232230 METAR LMML NIL=
200901232215 METAR LMML 232215Z 26018KT 220V300 9999 -RA SCT007 BKN015
                        OVC030 14/13 Q1002 TEMPO RA BKN005
                        BKN015=
200901232200 METAR LMML NIL=
200901232145 METAR LMML 232145Z 26019KT 230V290 9999 -RA BKN012 OVC017
                        15/13 Q1003 TEMPO RA BKN005 BKN015=
200901232130 METAR LMML NIL=
200901232115 METAR LMML 232115Z 26019KT 230V290 8000 -RA BKN006 SCT015
                        OVC030 14/14 Q1002 TEMPO RA BKN005
                        BKN015=
200901232100 LMML NIL=
200901232045 LMML 232045Z 25014KT 210V290 5000 RA BKN004 BKN030 14/13
                        Q1002 TEMPO 8000 RA BKN009 BKN015=
200901232030 METAR LMML NIL=
200901232015 METAR LMML 232015Z 25016KT 200V290 5000 -RA BKN006 BKN010
                        14/13 Q1003 TEMPO 8000 RA BKN009
                        BKN015=
200901232000 METAR LMML NIL=
200901231945 METAR LMML 231945Z 26013KT 220V300 4000 -RA FEW007 SCT013
                        BKN032 13/13 Q1003 TEMPO 8000 RA
                        BKN009 BKN015=
200901231932 LMML 231932Z 26013KT 230V290 8000 -RA FEW006 SCT017 BKN032
                        13/13 Q1003 TEMPO 8000 RA BKN009
                        BKN015=
200901231930 METAR LMML NIL=
200901231915 METAR LMML 231915Z 27010KT 240V300 4000 RA FEW008 SCT014
                        BKN032 13/12 Q1003 TEMPO 8000 RA
                        BKN009 BKN015=
200901231900 METAR LMML NIL=
200901231845 METAR LMML 231845Z 27012KT 8000 -RA FEW008 BKN037 BKN050
                        13/12 Q1003 TEMPO 8000 BKN009=
200901231830 METAR LMML NIL=
200901231815 METAR LMML 231815Z 27015KT 240V310 9999 FEW009 BKN014 13/12
                        Q1003 TEMPO 8000 BKN009=
200901231800 METAR LMML NIL=
200901231745 METAR LMML 231745Z 26017KT 230V300 9000 BKN014 14/12 Q1003
                        TEMPO 8000 BKN009=
200901231730 METAR LMML NIL=
200901231715 METAR LMML 231715Z 27014KT 230V310 9000 FEW008 BKN012 14/12
                        Q1003 TEMPO 8000 BKN009=
200901231700 METAR LMML NIL=
200901231645 METAR LMML 231645Z 27014KT 230V300 9000 SCT008 BKN014 13/12
                        Q1003 TEMPO 8000 BKN009=
200901231630 METAR LMML NIL=
200901231615 METAR LMML 231615Z 27015KT 240V300 9000 FEW009 SCT014 BKN035
                        13/12 Q1003 TEMPO 8000 BKN009=
200901231600 METAR LMML NIL=
200901231545 METAR LMML 231545Z 28015KT 230V300 9999 FEW011 SCT017 BKN034
                        13/12 Q1003 TEMPO 8000 BKN009=
200901231530 METAR LMML NIL=
200901231515 METAR LMML 231515Z 27017KT 240V300 5000 -SHRA BKN015 BKN050
                        13/12 Q1002 NOSIG=
200901231500 METAR LMML NIL=
200901231445 METAR LMML 231445Z 27016KT 9999 BKN015 BKN050 13/12 Q1002
                        NOSIG=
200901231430 METAR LMML NIL=
200901231415 LMML 231415Z 28014KT 240V310 9999 BKN018 BKN050 13/12 Q1002
                        NOSIG=
200901231400 METAR LMML NIL=
200901231345 METAR LMML 231345Z 28016KT 250V320 8000 -SHRA BKN018 BKN050
                        13/12 Q1002 RESHRA NOSIG=
200901231333 LMML 231333Z 28018KT 240V310 5000 SHRA BKN018 BKN060 13/11
                        Q1002 NOSIG=
200901231330 METAR LMML NIL=
200901231300 METAR LMML NIL=
200901231245 METAR LMML 231245Z 28019KT 250V310 9999 SCT014 BKN050 13/11
                        Q1002 NOSIG=
200901231230 METAR LMML NIL=
200901231215 METAR LMML 231215Z 28017KT 240V310 9999 SCT013 BKN060 13/11
                        Q1002 NOSIG=
200901231200 METAR LMML NIL=
200901231145 METAR LMML 231145Z 28019KT 250V310 9000 -RA SCT013 BKN060
                        13/11 Q1002 NOSIG=
200901231130 METAR LMML NIL=
200901231115 METAR LMML 231115Z 27017KT 220V300 7000 -RA SCT014 BKN060
                        13/11 Q1002 RESH NOSIG=
200901231100 METAR LMML NIL=
200901231045 METAR LMML 231045Z 28017KT 240V300 6000 -RA FEW011 SCT018
                        BKN060 12/11 Q1003 RESH NOSIG=
200901231030 METAR LMML NIL=
200901231015 METAR LMML 231015Z 29019G30KT 250V320 6000 SHRA SCT011 BKN018
                        BKN060 12/10 Q1003 NOSIG=
200901231000 METAR LMML NIL=
200901230945 METAR LMML 230945Z 27021KT 230V310 9000 SCT013 BKN060 13/10
                        Q1003 NOSIG=
200901230930 METAR LMML NIL=
200901230915 METAR LMML 230915Z 28024G34KT 240V300 6000 -SHRA FEW011 SCT021
                        BKN028 12/10 Q1003 TEMPO 5000 SHRA
                        BKN005=
200901230900 METAR LMML NIL=
200901230845 METAR LMML 230845Z 27023KT 230V300 9999 BKN019 BKN032 13/10
                        Q1003 TEMPO 5000 SHRA BKN005=
200901230830 METAR LMML NIL=
200901230815 METAR LMML 230815Z 27023G33KT 240V300 5000 SCT018 BKN033
                        BKN060 12/10 Q1003 TEMPO 5000 SHRA
                        BKN005=
200901230800 METAR LMML NIL=
200901230745 METAR LMML 230745Z 27021KT 250V310 5000 -SHRA FEW011 BKN021
                        BKN050 12/09 Q1003 RESHRA TEMPO 5000
                        SHRA BKN005=
200901230730 METAR LMML NIL=
200901230715 METAR LMML 230715Z 27024KT 230V300 9999 -SHRA BKN020 BKN050
                        12/09 Q1003 RESHRA TEMPO 5000 SHRA
                        BKN005=
200901230700 METAR LMML NIL=
200901230645 METAR LMML 230645Z 26022G33KT 210V290 3000 SHRA FEW010 BKN018
                        BKN050 12/09 Q1003 TEMPO 5000 BKN005=
200901230630 METAR LMML NIL=
200901230615 METAR LMML 230615Z 26022G32KT 230V290 9000 FEW010 BKN016
                        BKN050 11/10 Q1002 NOSIG=
200901230600 METAR LMML NIL=
200901230545 METAR LMML 230545Z 27022G34KT 230V300 9999 SCT022 BKN060
                        12/09 Q1002 NOSIG=
200901230530 METAR LMML NIL=
200901230515 METAR LMML 230515Z 27020G30KT 240V310 9999 SCT024 BKN060
                        12/09 Q1003 NOSIG=
200901230500 METAR LMML NIL=
200901230445 METAR LMML 230445Z 28017G27KT 250V310 9999 -SHRA SCT021 BKN050
                        11/09 Q1003 NOSIG=
200901230430 LMML NIL=
200901230415 METAR LMML 230415Z 28015KT 250V310 9999 FEW040 BKN060 11/08
                        Q1003 NOSIG=
200901230400 METAR LMML NIL=
200901230345 METAR LMML 230345Z 28017KT 9999 FEW028 SCT040 BKN090 11/08
                        Q1003 NOSIG=
200901230330 METAR LMML NIL=
200901230315 METAR LMML 230315Z 30017KT 270V330 9999 -RA SCT033 BKN050
                        12/07 Q1003 NOSIG=
200901230300 LMML NIL=
200901230245 LMML 230245Z 31016KT 9999 FEW036 SCT060 11/06 Q1003 NOSIG=
200901230230 METAR LMML NIL=
200901230215 METAR LMML 230215Z 30017KT 9999 FEW037 11/05 Q1003 NOSIG=
200901230200 METAR LMML NIL=
200901230145 METAR LMML 230145Z 31023KT 9999 FEW039 SCT050 11/05 Q1003
                        NOSIG=
200901230130 METAR LMML NIL=
200901230115 METAR LMML 230115Z 30025KT 9999 FEW030 SCT045 11/04 Q1003
                        NOSIG=
200901230045 METAR LMML 230045Z 31024G34KT 9999 FEW031 SCT045 11/06 Q1003
                        NOSIG=
200901230015 METAR LMML 230015Z 31023G35KT 280V340 9999 FEW032 SCT050
                        11/06 Q1003 NOSIG=
200901230000 METAR LMML NIL=
200901222345 METAR LMML 222345Z 31023KT 9999 FEW034 SCT080 11/06 Q1002
                        NOSIG=
200901222330 METAR LMML NIL=
200901222315 METAR LMML 222315Z 31024G36KT 270V330 9999 FEW025 SCT080
                        11/06 Q1002 NOSIG=
200901222300 METAR LMML NIL=
200901222245 METAR LMML 222245Z 31027G41KT 9999 FEW025 SCT080 11/06 Q1003
                        NOSIG=
200901222230 METAR LMML NIL=
200901222215 METAR LMML 222215Z 31027G38KT 9999 FEW025 SCT110 11/06 Q1002
                        NOSIG=
200901222145 METAR LMML 222145Z 31027G42KT 9999 FEW025 SCT100 11/05 Q1001
                        NOSIG=
200901222115 METAR LMML 222115Z 31027KT 9999 FEW029 BKN100 11/07 Q1001
                        NOSIG=
200901222100 LMML NIL=
200901222045 LMML 222045Z 31023G33KT 9999 SCT026 BKN070 11/08 Q1000 NOSIG=
200901222030 LMML NIL=
200901222015 METAR LMML 222015Z 32020KT 9999 SCT025 BKN050 11/09 Q1000
                        NOSIG=
200901222000 METAR LMML NIL=
200901221945 METAR LMML 221945Z 33022G34KT 9999 RA SCT024 BKN047 11/09
                        Q1000 NOSIG=
200901221930 METAR LMML NIL=
200901221915 METAR LMML 221915Z 33024G34KT 300V360 9999 RA FEW009 SCT022
                        BKN050 11/09 Q1000 NOSIG=
200901221900 METAR LMML NIL=
200901221845 METAR LMML 221845Z 32022G33KT 9999 RA FEW013 SCT023 BKN050
                        11/10 Q0999 NOSIG=
200901221830 METAR LMML NIL=
200901221815 METAR LMML 221815Z 28013KT 9999 -RA FEW013 SCT027 BKN050
                        11/10 Q0999 NOSIG=
200901221800 METAR LMML NIL=
200901221745 METAR LMML 221745Z 28012KT 250V330 9999 -RA FEW031 SCT044
                        BKN050 10/09 Q0999 NOSIG=
200901221730 METAR LMML NIL=
200901221715 METAR LMML 221715Z 29011KT 7000 RA SCT043 OVC050 10/09 Q0999
                        NOSIG=
200901221700 METAR LMML NIL=
200901221645 METAR LMML 221645Z 31011KT 9000 RA BKN042 OVC090 10/09 Q0999
                        NOSIG=
200901221630 METAR LMML NIL=
200901221615 METAR LMML 221615Z 32013KT 9000 -RA BKN050 OVC090 11/09 Q0999
                        NOSIG=
200901221600 METAR LMML NIL=
200901221545 METAR LMML 221545Z 33012KT 9000 -RA FEW012 SCT050 OVC090
                        11/09 Q1000 NOSIG=
200901221530 METAR LMML NIL=
200901221515 METAR LMML 221515Z 31011KT 9999 -RA FEW012 SCT060 OVC090
                        10/10 Q0999 RERA NOSIG=
200901221500 METAR LMML NIL=
200901221445 METAR LMML 221445Z 33009KT 9999 -RA FEW015 BKN050 OVC090
                        10/10 Q0999 TEMPO 3000 RA SCT008
                        BKN012=
200901221430 METAR LMML NIL=
200901221430 SPECI LMML 221430Z 33009KT 7000 -RA SCT050 OVC090 10/10 Q0999
                        TEMPO 3000 RA SCT008 BKN012=
200901221415 METAR LMML 221415Z 33008KT 4000 RA SCT038 OVC050 10/10 Q1000
                        TEMPO 3000 RA SCT008 BKN012=
200901221400 METAR LMML NIL=
200901221345 METAR LMML 221345Z 31013KT 4000 +RA FEW016 OVC050 10/09 Q1000
                        RERA TEMPO 3000 RA SCT008 BKN012=
200901221330 METAR LMML NIL=
200901221315 METAR LMML 221315Z 26013KT 210V290 4000 RA FEW016 OVC050
                        11/10 Q1000 TEMPO 3000 RA SCT008
                        BKN012=
200901221300 METAR LMML NIL=
200901221245 METAR LMML 221245Z 23014KT 210V290 9999 -RA BKN011 OVC034
                        11/10 Q1000 TEMPO 3000 RA SCT008
                        BKN012=
200901221230 METAR LMML NIL=
200901221215 METAR LMML 221215Z 24012KT 210V280 9999 -RA BKN012 OVC019
                        11/10 Q1001 NOSIG=
200901221200 METAR LMML NIL=
200901221145 METAR LMML 221145Z 24011KT 200V290 5000 -RA SCT009 SCT014
                        OVC030 11/10 Q1001 NOSIG=
200901221130 METAR LMML NIL=
200901221115 METAR LMML 221115Z 23012KT 190V270 6000 -RA SCT017 SCT026
                        OVC036 11/09 Q1002 TEMPO 6000 SHRA
                        BKN015=
200901221100 METAR LMML NIL=
200901221045 METAR LMML 221045Z 24010KT 200V280 6000 -RA SCT015 OVC040
                        12/10 Q1002 TEMPO 6000 SHRA BKN015=
200901221030 METAR LMML NIL=
200901221015 METAR LMML 221015Z 24011KT 210V280 3000 -RA BKN011 SCT019
                        OVC030 12/11 Q1002 TEMPO 6000 SHRA
                        BKN015=
200901221000 METAR LMML NIL=
200901220945 METAR LMML 220945Z 24009KT 180V290 3000 -RA FEW009 SCT014
                        OVC090 12/11 Q1002 TEMPO 6000 SHRA
                        BKN015=
200901220930 METAR LMML NIL=
200901220915 METAR LMML 220915Z 22007G18KT 200V260 3000 SHRA FEW012 BKN021
                        OVC090 12/11 Q1003 TEMPO 6000 SHRA
                        BKN015=
200901220900 METAR LMML NIL=
200901220845 METAR LMML 220845Z 13004KT 9999 -RA FEW025 SCT050 BKN090
                        13/12 Q1003 TEMPO 6000 SHRA BKN015=
200901220830 METAR LMML NIL=
200901220815 METAR LMML 220815Z 11006KT 080V160 9999 -RA FEW032 BKN050
                        BKN080 13/11 Q1003 TEMPO 6000 SHRA
                        BKN015=
200901220800 METAR LMML NIL=
200901220745 METAR LMML 220745Z 13004KT 9999 -RA FEW034 SCT050 BKN080
                        12/11 Q1003 TEMPO 6000 SHRA BKN015=
200901220730 METAR LMML NIL=
200901220715 METAR LMML 220715Z VRB03KT 9999 FEW020 BKN070 BKN090 12/11
                        Q1002 NOSIG=
200901220700 METAR LMML NIL=
200901220645 METAR LMML 220645Z 11005KT 060V140 9999 FEW020 SCT070 BKN090
                        12/11 Q1002 NOSIG=
200901220630 METAR LMML NIL=
200901220615 METAR LMML 220615Z 10007KT 9999 FEW020 SCT070 BKN090 12/11
                        Q1003 NOSIG=
200901220545 METAR LMML 220545Z 10011KT 7000 -RA FEW030 SCT045 BKN120
                        12/11 Q1003 NOSIG=
200901220530 METAR LMML NIL=
200901220515 METAR LMML 220515Z 13010KT 7000 -RA SCT020 BKN045 12/12 Q1003
                        RERA NOSIG=
200901220445 METAR LMML 220445Z 13010KT 110V170 7000 RA FEW006 SCT020
                        BKN050 12/12 Q1003 NOSIG=
200901220430 METAR LMML NIL=
200901220415 METAR LMML 220415Z 15011KT 120V190 7000 SHRA FEW006 SCT013
                        BKN048 13/12 Q1004 TEMPO 5000 SHRA
                        BKN006=
200901220400 METAR LMML NIL=
200901220345 METAR LMML 220345Z 12005KT 7000 SHRA SCT008 BKN018 13/13
                        Q1004 TEMPO 5000 SHRA BKN006=
200901220330 METAR LMML NIL=
200901220315 METAR LMML 220315Z 13006KT 9999 FEW020 SCT045 BKN080 13/12
                        Q1004 TEMPO 7000 SHRA BKN013=
200901220300 METAR LMML NIL=
200901220245 METAR LMML 220245Z 11004KT 9999 FEW013 SCT045 BKN100 12/12
                        Q1004 TEMPO 7000 SHRA BKN013=
200901220230 LMML NIL=
200901220215 METAR LMML 220215Z 13005KT 9999 SCT016 BKN045 12/11 Q1004
                        TEMPO 7000 SHRA BKN013=
200901220200 METAR LMML NIL=
200901220145 METAR LMML 220145Z 15004KT 120V180 9999 SCT015 BKN049 12/11
                        Q1005 TEMPO 7000 SHRA BKN013=
200901220130 METAR LMML NIL=
200901220115 METAR LMML 220115Z VRB03KT 9999 FEW020 11/11 Q1005 NOSIG=
200901220100 METAR LMML NIL=
200901220045 METAR LMML 220045Z VRB01KT 9999 FEW020 11/10 Q1005 NOSIG=
200901220030 METAR LMML NIL=
200901220015 METAR LMML 220015Z VRB02KT 9999 FEW020 11/10 Q1005 NOSIG=
200901220000 METAR LMML NIL=
200901212345 METAR LMML 212345Z VRB03KT 9999 FEW020 11/10 Q1005 NOSIG=
200901212330 METAR LMML NIL=
200901212315 METAR LMML 212315Z 16005KT 9999 FEW020 SCT060 12/11 Q1005
                        NOSIG=
200901212300 METAR LMML NIL=
200901212245 METAR LMML 212245Z VRB03KT 9999 FEW020 BKN060 12/11 Q1005
                        NOSIG=
200901212230 METAR LMML NIL=
200901212215 METAR LMML 212215Z VRB02KT 9999 FEW020 BKN060 12/11 Q1005
                        NOSIG=
200901212200 METAR LMML NIL=
200901212145 METAR LMML 212145Z VRB02KT 9999 FEW020 BKN060 12/11 Q1005
                        NOSIG=
200901212130 METAR LMML NIL=
200901212115 METAR LMML 212115Z VRB01KT 9999 FEW020 SCT120 11/10 Q1005
                        NOSIG=
200901212100 METAR LMML NIL=
200901212045 METAR LMML 212045Z VRB03KT 9999 FEW020 SCT120 12/11 Q1005
                        NOSIG=
200901212030 LMML NIL=
200901212015 METAR LMML 212015Z 24004KT 9999 FEW020 SCT120 12/11 Q1005
                        NOSIG=
200901212000 METAR LMML NIL=
200901211945 METAR LMML 211945Z 23004KT 9999 FEW020 12/11 Q1005 NOSIG=
200901211930 METAR LMML NIL=
200901211915 METAR LMML 211915Z 24004KT 210V270 9999 FEW018 13/11 Q1005
                        NOSIG=
200901211900 METAR LMML NIL=
200901211845 METAR LMML 211845Z 24004KT 9999 FEW029 13/11 Q1004 NOSIG=
200901211830 METAR LMML NIL=
200901211815 METAR LMML 211815Z 23004KT CAVOK 13/11 Q1004 NOSIG=
200901211800 METAR LMML NIL=
200901211745 METAR LMML 211745Z 23004KT 200V280 9999 FEW025 13/11 Q1004
                        NOSIG=
200901211730 METAR LMML NIL=
200901211715 METAR LMML 211715Z 24004KT 210V270 9999 SCT020 13/11 Q1004
                        NOSIG=
200901211700 METAR LMML NIL=
200901211645 METAR LMML 211645Z 24004KT 210V270 9999 SCT028 13/11 Q1003
                        NOSIG=
200901211630 METAR LMML NIL=
200901211615 METAR LMML 211615Z 24005KT 210V290 9999 SCT013 SCT032 14/12
                        Q1003 NOSIG=
200901211600 METAR LMML NIL=
200901211545 METAR LMML 211545Z 21005KT 170V260 9999 -SHRA SCT015 BKN050
                        15/12 Q1002 NOSIG=
200901211530 METAR LMML NIL=
200901211515 METAR LMML 211515Z 23007KT 200V260 9999 SCT018 15/12 Q1002
                        NOSIG=
200901211500 METAR LMML NIL=
200901211445 METAR LMML 211445Z 23007KT 190V280 9999 SCT020 15/12 Q1002
                        NOSIG=
200901211430 METAR LMML NIL=
200901211415 METAR LMML 211415Z 23008KT 210V280 9999 SCT018 15/12 Q1001
                        NOSIG=
200901211400 METAR LMML NIL=
200901211345 METAR LMML 211345Z 25007KT 210V290 9999 SCT017 16/12 Q1001
                        NOSIG=
200901211330 METAR LMML NIL=
200901211315 METAR LMML 211315Z 25008KT 200V290 9999 SCT016 16/13 Q1001
                        NOSIG=
200901211300 METAR LMML NIL=
200901211245 METAR LMML 211245Z 27009KT 210V300 9999 SCT016 16/12 Q1001
                        NOSIG=
200901211230 METAR LMML NIL=
200901211215 METAR LMML 211215Z 27011KT 230V300 9999 SCT015 16/13 Q1000
                        NOSIG=
200901211200 METAR LMML NIL=
200901211145 METAR LMML 211145Z 25010KT 200V290 9999 SCT014 16/13 Q1001
                        NOSIG=
200901211130 METAR LMML NIL=
200901211115 METAR LMML 211115Z 24010KT 200V290 9999 FEW012 SCT044 16/13
                        Q1001 NOSIG=
200901211100 METAR LMML NIL=
200901211045 METAR LMML 211045Z 22013KT 200V260 9999 SCT013 16/13 Q1001
                        NOSIG=
200901211030 METAR LMML NIL=
200901211015 METAR LMML 211015Z 23011KT 200V270 9999 SCT017 16/13 Q1001
                        NOSIG=
200901211000 METAR LMML NIL=
200901210945 METAR LMML 210945Z 22008KT 180V270 9999 SCT014 16/13 Q1000
                        NOSIG=
200901210930 METAR LMML NIL=
200901210915 METAR LMML 210915Z 21005KT 170V270 9999 SCT014 16/14 Q1000
                        NOSIG=
200901210900 METAR LMML NIL=
200901210845 METAR LMML 210845Z 20005KT 170V240 9999 FEW020 15/13 Q1000
                        NOSIG=
200901210815 METAR LMML 210815Z 21005KT 170V260 9999 FEW020 15/13 Q1000
                        NOSIG=
200901210800 METAR LMML NIL=
200901210745 METAR LMML 210745Z 22005KT 180V260 9999 FEW020 14/12 Q1000
                        NOSIG=
200901210730 METAR LMML NIL=
200901210715 METAR LMML 210715Z 21004KT 180V250 9000 FEW019 14/12 Q1000
                        NOSIG=
200901210700 METAR LMML NIL=
200901210645 METAR LMML 210645Z 20004KT 170V230 7000 FEW019 13/12 Q0999
                        NOSIG=
200901210630 METAR LMML NIL=
200901210615 METAR LMML 210615Z VRB03KT 7000 FEW018 12/11 Q0999 NOSIG=
200901210600 METAR LMML NIL=
200901210545 METAR LMML 210545Z 17004KT 6000 FEW018 SCT090 12/11 Q0999
                        NOSIG=
200901210530 METAR LMML NIL=
200901210515 METAR LMML 210515Z VRB03KT 6000 FEW018 SCT050 BKN080 12/11
                        Q0999 NOSIG=
200901210500 METAR LMML NIL=
200901210445 METAR LMML 210445Z 18005KT 130V210 6000 SCT018 BKN050 12/11
                        Q0999 NOSIG=
200901210430 METAR LMML NIL=
200901210415 METAR LMML 210415Z 21004KT 180V250 6000 -RA SCT013 BKN050
                        13/11 Q0999 TEMPO 2000 TSRA BKN012CB=
200901210400 METAR LMML NIL=
200901210345 METAR LMML 210345Z 21006KT 190V250 6000 FEW020 BKN050 BKN120
                        13/11 Q0998 TEMPO 2000 TSRA BKN012CB=
200901210330 METAR LMML NIL=
200901210315 METAR LMML 210315Z 21005KT 180V240 7000 FEW020 SCT050 BKN120
                        12/11 Q0998 TEMPO 2000 TSRA BKN012CB=
200901210300 METAR LMML NIL=
200901210245 METAR LMML 210245Z 16006KT 7000 FEW020 OVC120 12/10 Q0998
                        TEMPO 2000 TSRA BKN012CB=
200901210230 METAR LMML NIL=
200901210215 METAR LMML 210215Z 18005KT 140V210 7000 FEW008 SCT036 OVC120
                        12/11 Q0998 TEMPO 2000 TSRA BKN012CB=
200901210200 METAR LMML NIL=
200901210145 METAR LMML 210145Z 15007KT 130V190 7000 SCT008 OVC070 12/11
                        Q0999 TEMPO 2000 TSRA BKN012CB=
200901210130 METAR LMML NIL=
200901210115 METAR LMML 210115Z 17008KT 130V200 7000 SCT008 OVC070 12/11
                        Q0999 TEMPO 2000 TSRA BKN012CB=
200901210100 METAR LMML NIL=
200901210045 METAR LMML 210045Z 18011KT 150V210 6000 -RA SCT009 BKN047
                        OVC100 12/11 Q1000 TEMPO 2000 TSRA
                        BKN012CB=
200901210030 METAR LMML NIL=
200901210015 METAR LMML 210015Z 09007KT 7000 FEW020 BKN050 OVC100 13/12
                        Q1000 TEMPO 2000 TSRA BKN012CB=
200901210000 METAR LMML NIL=
200901202345 METAR LMML 202345Z 13007KT 6000 -RA SCT008 OVC060 12/12 Q1001
                        TEMPO 2000 TSRA BKN012CB=
200901202330 METAR LMML NIL=
200901202315 LMML 202315Z 13012KT 6000 -RA FEW008 OVC060 13/12 Q1001 TEMPO
                        2000 TSRA BKN012CB=
200901202300 METAR LMML NIL=
200901202245 METAR LMML 202245Z 14009KT 6000 -RA SCT008 OVC060 13/12 Q1002
                        TEMPO 2000 TSRA BKN012CB=
200901202230 METAR LMML NIL=
200901202215 METAR LMML 202215Z 16011KT 140V200 6000 -RA FEW010 SCT025
                        OVC040 13/12 Q1003 TEMPO 2000 TSRA
                        BKN012CB=
200901202200 METAR LMML NIL=
200901202145 METAR LMML 202145Z 14008KT 120V180 6000 -RA SCT015 OVC042
                        13/12 Q1003 TEMPO 2000 TSRA BKN012CB=
200901202130 METAR LMML NIL=
200901202115 METAR LMML 202115Z 13009KT 8000 -RA SCT021 OVC060 13/12 Q1004
                        NOSIG=
200901202100 METAR LMML NIL=
200901202045 METAR LMML 202045Z 12010KT 8000 -RA FEW021 BKN044 BKN080
                        13/11 Q1003 NOSIG=
200901202030 METAR LMML NIL=
200901202015 METAR LMML 202015Z 12009KT 8000 -RA FEW021 BKN044 BKN070
                        13/12 Q1004 NOSIG=
200901202000 METAR LMML NIL=
200901201945 METAR LMML 201945Z 10007KT 050V150 6000 -RA FEW026 BKN050
                        BKN080 13/12 Q1004 NOSIG=
200901201930 METAR LMML NIL=
200901201915 METAR LMML 201915Z 12009KT 090V150 6000 -RA FEW025 SCT050
                        13/11 Q1004 NOSIG=
200901201900 METAR LMML NIL=
200901201845 METAR LMML 201845Z 15009KT 120V200 6000 -RA SCT022 OVC050
                        14/11 Q1005 NOSIG=
200901201830 METAR LMML NIL=
200901201815 METAR LMML 201815Z 14007KT 6000 -RA SCT028 OVC045 14/13 Q1005
                        NOSIG=
200901201800 METAR LMML NIL=
200901201745 METAR LMML 201745Z 14007KT 4000 -RA SCT027 OVC050 14/13 Q1005
                        BECMG 7000=
200901201730 METAR LMML NIL=
200901201715 METAR LMML 201715Z 16008KT 4000 -RA SCT027 OVC050 14/13 Q1006
                        BECMG 7000=
200901201700 METAR LMML NIL=
200901201645 METAR LMML 201645Z 16010KT 140V200 4000 -RA SCT008 SCT027
                        BKN050 14/13 Q1006 RERA BECMG 7000=
200901201630 METAR LMML NIL=
200901201615 METAR LMML 201615Z 18013KT 2500 RA BKN004 SCT010 OVC027 14/14
                        Q1006 BECMG BKN006=
200901201600 METAR LMML NIL=
200901201545 METAR LMML 201545Z 17010KT 130V230 2500 RA BKN004 SCT010
                        OVC030 15/14 Q1007 TEMPO 1500=
200901201530 METAR LMML NIL=
200901201515 METAR LMML 201515Z 17010KT 150V210 2500 RA BKN004 OVC035
                        15/15 Q1007 TEMPO 1500=
200901201500 METAR LMML NIL=
200901201445 METAR LMML 201445Z 16009KT 130V190 2500 RA BKN002 OVC030
                        15/15 Q1007 TEMPO 1500=
200901201430 METAR LMML NIL=
200901201415 METAR LMML 201415Z 15007KT 3000 -RA BKN002 OVC030 15/15 Q1007
                        NOSIG=
200901201400 METAR LMML NIL=
200901201345 METAR LMML 201345Z 15008KT 110V180 3000 -RA BKN002 OVC030
                        15/15 Q1007 TEMPO 1500=
200901201330 METAR LMML NIL=
200901201315 METAR LMML 201315Z 15008KT 120V180 3000 -RA BKN002 OVC030
                        15/15 Q1007 TEMPO 1500=
200901201300 METAR LMML NIL=
200901201245 METAR LMML 201245Z 16007KT 130V190 4000 -RA BKN002 OVC030
                        15/15 Q1008 RERA NOSIG=
200901201230 METAR LMML NIL=
200901201215 METAR LMML 201215Z 17007KT 140V200 4000 RA BKN002 OVC030
                        15/14 Q1009 NOSIG=
200901201200 METAR LMML NIL=
200901201145 METAR LMML 201145Z 16007KT 4000 RA BKN002 OVC036 15/15 Q1009
                        NOSIG=
200901201130 METAR LMML NIL=
200901201115 METAR LMML 201115Z 17008KT 130V210 5000 RA BKN004 OVC036
                        15/14 Q1010 TEMPO 3000=
200901201100 METAR LMML NIL=
200901201045 METAR LMML 201045Z 17008KT 110V190 7000 -RA BKN004 BKN034
                        15/14 Q1010 NOSIG=
200901201030 METAR LMML NIL=
200901201015 METAR LMML 201015Z 17008KT 140V200 7000 -RA BKN004 BKN036
                        15/14 Q1011 TEMPO 4000 BKN004=
200901201000 METAR LMML NIL=
200901200945 METAR LMML 200945Z 18009KT 160V220 7000 -RA SCT005 SCT080
                        BKN130 15/14 Q1011 TEMPO 4000 BKN004=
200901200930 METAR LMML NIL=
200901200915 METAR LMML 200915Z 18008KT 120V220 7000 -RA FEW005 SCT080
                        BKN130 15/14 Q1012 NOSIG=
200901200900 METAR LMML NIL=
200901200845 METAR LMML 200845Z 18008KT 160V220 7000 -RA FEW005 SCT080
                        BKN130 15/14 Q1012 NOSIG=
200901200830 METAR LMML NIL=
200901200815 METAR LMML 200815Z 19006KT 160V220 7000 -RA SCT004 BKN031
                        14/14 Q1012 TEMPO BKN004=
200901200800 METAR LMML NIL=
200901200745 METAR LMML 200745Z 20006KT 170V240 5000 -RA BKN004 BKN040
                        14/14 Q1012 TEMPO 3000=
200901200730 METAR LMML NIL=
200901200715 METAR LMML 200715Z 21005KT 180V250 5000 -RA BKN005 BKN031
                        14/14 Q1012 TEMPO 3000=
200901200700 METAR LMML NIL=
200901200645 METAR LMML 200645Z 20006KT 160V240 5000 -RA BKN005 BKN036
                        14/14 Q1012 TEMPO 3000=
200901200630 METAR LMML NIL=
200901200615 METAR LMML 200615Z 21005KT 170V230 6000 -RA BKN005 SCT050
                        BKN080 14/14 Q1012 TEMPO 4000=
200901200600 METAR LMML NIL=
200901200545 METAR LMML 200545Z 21005KT 170V240 9000 -RA FEW005 SCT036
                        BKN080 14/14 Q1012 NOSIG=
200901200530 METAR LMML NIL=
200901200515 METAR LMML 200515Z 21006KT 170V240 7000 RA SCT009 SCT048
                        BKN080 14/14 Q1012 NOSIG=
200901200500 METAR LMML NIL=
200901200445 METAR LMML 200445Z 21006KT 160V250 7000 RA SCT008 SCT047
                        BKN070 15/14 Q1012 TEMPO 8000 RA
                        BKN005 BKN012=
200901200430 METAR LMML NIL=
200901200415 METAR LMML 200415Z 22009KT 180V260 9000 -RA SCT008 SCT045
                        BKN080 14/14 Q1013 TEMPO 8000 RA
                        BKN005 BKN012=
200901200400 METAR LMML NIL=
200901200345 METAR LMML 200345Z 21006KT 180V240 9000 -RA BKN005 SCT011
                        BKN070 15/14 Q1013 TEMPO 8000 RA
                        BKN005 BKN012=
200901200335 LMML 200335Z 21007KT 170V250 9000 -RA BKN005 SCT034 BKN090
                        15/14 Q1013 TEMPO 8000 RA BKN005
                        BKN012=
200901200330 METAR LMML NIL=
200901200315 METAR LMML 200315Z 22008KT 190V270 9000 -RA FEW009 SCT033
                        BKN090 14/14 Q1013 TEMPO 8000 RA
                        BKN005 BKN012=
200901200300 METAR LMML NIL=
200901200245 METAR LMML 200245Z 21006KT 180V270 9000 -RA FEW007 SCT035
                        BKN050 15/14 Q1013 TEMPO 8000 RA
                        BKN005 BKN012=
200901200230 METAR LMML NIL=
200901200215 METAR LMML 200215Z 21006KT 180V250 9999 -RA FEW007 BKN080
                        15/15 Q1013 TEMPO 8000 RA BKN005
                        BKN012=
200901200200 METAR LMML NIL=
200901200145 METAR LMML 200145Z 21006KT 180V250 7000 -RA BKN005 BKN080
                        15/15 Q1014 TEMPO 8000 RA BKN005
                        BKN012=
200901200130 METAR LMML NIL=
200901200115 METAR LMML 200115Z 20007KT 170V240 7000 -RA BKN005 BKN090
                        15/15 Q1014 TEMPO 8000 RA BKN005
                        BKN012=
200901200100 METAR LMML NIL=
200901200045 METAR LMML 200045Z 21005KT 170V260 7000 -RA BKN005 BKN091
                        15/14 Q1015 TEMPO 8000 RA BKN005
                        BKN012=
200901200030 METAR LMML NIL=
200901200015 METAR LMML 200015Z 21004KT 160V270 7000 -RA BKN005 BKN130
                        15/14 Q1015 TEMPO 8000 RA BKN005
                        BKN012=
200901200000 METAR LMML NIL=
200901192345 METAR LMML 192345Z 17005KT 140V200 9999 BKN007 BKN090 14/13
                        Q1015 TEMPO 8000 RA SCT005 BKN012=
200901192330 METAR LMML NIL=
200901192315 METAR LMML 192315Z 17004KT 130V210 9999 BKN009 BKN090 14/13
                        Q1015 TEMPO 8000 RA SCT005 BKN012=
200901192300 METAR LMML NIL=
200901192245 METAR LMML 192245Z 16004KT 120V200 9999 BKN008 BKN110 14/13
                        Q1016 NOSIG=
200901192230 METAR LMML NIL=
200901192215 METAR LMML 192215Z VRB03KT 9999 BKN009 BKN110 13/12 Q1016
                        NOSIG=
200901192200 METAR LMML NIL=
200901192145 METAR LMML 192145Z VRB03KT 9999 SCT015 BKN120 13/12 Q1016
                        NOSIG=
200901192130 METAR LMML NIL=
200901192115 METAR LMML 192115Z VRB02KT 9999 BKN016 BKN110 13/12 Q1017
                        TEMPO 8000 RA=
200901192100 METAR LMML NIL=
200901192045 METAR LMML 192045Z 19005KT 9999 -RA FEW029 SCT090 BKN120
                        13/12 Q1017 TEMPO 8000 RA=
200901192030 METAR LMML NIL=
200901192015 METAR LMML 192015Z 21005KT 180V250 9999 -RA FEW029 SCT120
                        BKN150 13/12 Q1017 TEMPO 8000 RA=
200901192000 METAR LMML NIL=
200901191945 METAR LMML 191945Z 21006KT 180V240 9999 -RA FEW036 BKN120
                        13/12 Q1017 TEMPO 8000 RA=
200901191930 METAR LMML NIL=
200901191915 METAR LMML 191915Z 20004KT 160V240 9999 FEW036 SCT100 BKN120
                        13/11 Q1017 TEMPO 8000 RA=
200901191900 METAR LMML NIL=
200901191845 METAR LMML 191845Z VRB02KT 9999 FEW032 BKN120 13/11 Q1018
                        TEMPO 8000 RA=
200901191830 METAR LMML NIL=
200901191815 METAR LMML 191815Z VRB02KT 9999 FEW032 BKN120 13/11 Q1018
                        NOSIG=
200901191800 METAR LMML NIL=
200901191745 METAR LMML 191745Z VRB02KT 9999 SCT032 BKN120 13/11 Q1018
                        NOSIG=
200901191730 METAR LMML NIL=
200901191715 METAR LMML 191715Z VRB02KT 9999 SCT032 BKN120 13/11 Q1018
                        NOSIG=
200901191700 METAR LMML NIL=
200901191645 METAR LMML 191645Z VRB02KT 9999 SCT040 BKN070 BKN250 13/11
                        Q1018 NOSIG=
200901191630 METAR LMML NIL=
200901191615 METAR LMML 191615Z VRB02KT 9999 FEW040 SCT090 BKN250 13/11
                        Q1018 NOSIG=
200901191600 METAR LMML NIL=
200901191545 METAR LMML 191545Z VRB03KT 9999 FEW039 SCT090 BKN250 14/11
                        Q1017 NOSIG=
200901191530 METAR LMML NIL=
200901191515 METAR LMML 191515Z 31004KT 9999 FEW048 SCT120 BKN250 14/11
                        Q1018 NOSIG=
200901191500 METAR LMML NIL=
200901191445 METAR LMML 191445Z 32005KT CAVOK 14/11 Q1018 NOSIG=
200901191430 METAR LMML NIL=
200901191415 METAR LMML 191415Z 31006KT CAVOK 15/11 Q1018 NOSIG=
200901191400 METAR LMML NIL=
200901191345 METAR LMML 191345Z 31006KT 280V340 9999 FEW017 SCT060 BKN250
                        15/11 Q1018 NOSIG=
200901191330 METAR LMML NIL=
200901191315 METAR LMML 191315Z 30006KT 250V340 9999 FEW017 SCT120 BKN250
                        15/11 Q1018 NOSIG=
200901191300 METAR LMML NIL=
200901191245 METAR LMML 191245Z 28006KT 240V340 9999 FEW018 SCT120 BKN250
                        15/11 Q1019 NOSIG=
200901191230 METAR LMML NIL=
200901191215 METAR LMML 191215Z 29007KT 9999 FEW020 BKN120 BKN250 15/11
                        Q1019 NOSIG=
200901191200 METAR LMML NIL=
200901191145 METAR LMML 191145Z 29008KT 250V320 9999 FEW020 SCT120 BKN250
                        16/11 Q1019 NOSIG=
200901191130 METAR LMML NIL=
200901191115 METAR LMML 191115Z 28007KT 250V310 9999 FEW020 BKN250 16/11
                        Q1020 NOSIG=
200901191100 METAR LMML NIL=
200901191045 METAR LMML 191045Z 29007KT 260V320 9999 FEW015 BKN250 15/11
                        Q1020 NOSIG=
200901191030 METAR LMML NIL=
200901191015 METAR LMML 191015Z 31006KT 270V340 9999 FEW015 BKN250 15/12
                        Q1021 NOSIG=
200901191000 METAR LMML NIL=
200901190945 METAR LMML 190945Z 30005KT 270V330 9999 FEW015 BKN250 15/12
                        Q1021 NOSIG=
200901190930 METAR LMML NIL=
200901190915 METAR LMML 190915Z 31005KT 280V340 9999 FEW015 BKN250 14/12
                        Q1021 NOSIG=
200901190900 METAR LMML NIL=
200901190845 METAR LMML 190845Z VRB03KT 9999 FEW017 SCT120 BKN250 14/12
                        Q1022 NOSIG=
200901190830 METAR LMML NIL=
200901190815 METAR LMML 190815Z 32007KT 9999 SCT016 SCT120 BKN250 13/12
                        Q1022 NOSIG=
200901190800 METAR LMML NIL=
200901190745 METAR LMML 190745Z 32007KT 9999 SCT015 SCT120 BKN250 13/12
                        Q1022 NOSIG=
200901190730 METAR LMML NIL=
200901190715 METAR LMML 190715Z 32006KT 9999 FEW014 SCT120 BKN250 13/12
                        Q1021 NOSIG=
200901190700 METAR LMML NIL=
200901190645 METAR LMML 190645Z 29005KT 260V320 9999 FEW015 SCT120 BKN250
                        13/12 Q1021 NOSIG=
200901190630 METAR LMML NIL=
200901190615 METAR LMML 190615Z 27004KT 250V310 9999 FEW015 SCT120 BKN250
                        13/12 Q1021 NOSIG=
200901190600 METAR LMML NIL=
200901190545 METAR LMML 190545Z 28004KT 230V310 9999 FEW012 BKN120 13/12
                        Q1021 NOSIG=
200901190530 METAR LMML NIL=
200901190515 METAR LMML 190515Z 27004KT 230V310 9999 FEW012 BKN120 13/12
                        Q1021 NOSIG=
200901190500 METAR LMML NIL=
200901190445 METAR LMML 190445Z 30005KT 9999 FEW012 BKN120 13/12 Q1021
                        NOSIG=
200901190430 METAR LMML NIL=
200901190415 METAR LMML 190415Z 31005KT 9999 FEW012 BKN120 13/12 Q1021
                        NOSIG=
200901190400 METAR LMML NIL=
200901190345 METAR LMML 190345Z 33004KT 9999 FEW012 BKN120 12/12 Q1021
                        NOSIG=
200901190330 METAR LMML NIL=
200901190315 METAR LMML 190315Z VRB03KT 9999 FEW012 BKN120 13/12 Q1021
                        NOSIG=
200901190245 METAR LMML 190245Z 30005KT 9999 FEW010 BKN120 13/12 Q1021
                        NOSIG=
200901190230 METAR LMML NIL=
200901190215 METAR LMML 190215Z 28004KT 9999 FEW010 BKN120 13/13 Q1021
                        NOSIG=
200901190200 METAR LMML NIL=
200901190145 METAR LMML 190145Z 31004KT 280V340 9999 FEW012 BKN120 13/13
                        Q1021 NOSIG=
200901190130 METAR LMML NIL=
200901190115 METAR LMML 190115Z 28005KT 250V310 9999 FEW013 BKN080 14/13
                        Q1022 NOSIG=
200901190100 METAR LMML NIL=
200901190045 METAR LMML 190045Z 29005KT 9999 SCT011 BKN080 13/13 Q1022
                        TEMPO BKN008=
200901190030 METAR LMML NIL=
200901190015 METAR LMML 190015Z 29004KT 9999 SCT012 BKN080 14/13 Q1021
                        TEMPO BKN008=
200901190000 METAR LMML NIL=
200901182345 METAR LMML 182345Z 26004KT 210V300 9999 SCT013 BKN080 14/13
                        Q1022 TEMPO BKN008=
200901182330 METAR LMML NIL=
200901182315 METAR LMML 182315Z VRB03KT 9999 SCT013 BKN120 14/13 Q1022
                        TEMPO BKN008=
200901182300 METAR LMML NIL=
200901182245 METAR LMML 182245Z VRB01KT 9999 SCT011 BKN120 14/13 Q1022
                        TEMPO BKN008=
200901182230 METAR LMML NIL=
200901182215 METAR LMML 182215Z 24004KT 200V290 9999 FEW013 BKN120 15/13
                        Q1022 NOSIG=
200901182200 METAR LMML NIL=
200901182145 METAR LMML 182145Z 21005KT 190V260 9999 FEW016 BKN080 15/13
                        Q1022 NOSIG=
200901182130 METAR LMML NIL=
200901182115 METAR LMML 182115Z 20005KT 170V230 9999 FEW016 BKN080 15/13
                        Q1022 NOSIG=
200901182100 METAR LMML NIL=
200901182045 METAR LMML 182045Z 21005KT 180V240 9999 FEW019 BKN080 14/13
                        Q1022 NOSIG=
200901182030 METAR LMML NIL=
200901182015 METAR LMML 182015Z 21004KT 180V240 9999 FEW018 BKN090 15/13
                        Q1023 NOSIG=
200901182000 METAR LMML NIL=
200901181945 METAR LMML 181945Z 21004KT 9999 FEW021 BKN080 15/13 Q1023
                        NOSIG=
200901181930 METAR LMML NIL=
200901181915 METAR LMML 181915Z VRB03KT 9999 FEW021 BKN080 15/12 Q1023
                        NOSIG=
200901181900 METAR LMML NIL=
200901181845 METAR LMML 181845Z 20004KT 160V270 9999 FEW021 BKN080 15/12
                        Q1023 NOSIG=
200901181830 METAR LMML NIL=
200901181815 METAR LMML 181815Z 20007KT 160V230 9999 FEW022 BKN090 15/12
                        Q1023 NOSIG=
200901181800 METAR LMML NIL=
200901181745 METAR LMML 181745Z 20005KT 170V230 9999 FEW023 BKN091 15/13
                        Q1023 NOSIG=
200901181730 METAR LMML NIL=
200901181715 METAR LMML 181715Z 20006KT 160V260 9999 FEW022 BKN090 15/12
                        Q1023 NOSIG=
200901181700 METAR LMML NIL=
200901181645 METAR LMML 181645Z 20004KT 170V230 9999 FEW022 BKN092 15/12
                        Q1022 NOSIG=
200901181630 METAR LMML NIL=
200901181615 METAR LMML 181615Z 20006KT 160V240 9999 FEW023 SCT090 15/12
                        Q1022 NOSIG=
200901181600 METAR LMML NIL=
200901181545 METAR LMML 181545Z 20006KT 160V250 9999 FEW021 BKN090 15/13
                        Q1023 NOSIG=
200901181530 METAR LMML NIL=
200901181515 METAR LMML 181515Z 20006KT 140V250 9999 FEW021 16/13 Q1022
                        NOSIG=
200901181500 METAR LMML NIL=
200901181445 METAR LMML 181445Z 18007KT 140V230 9999 FEW022 16/13 Q1022
                        NOSIG=
200901181430 METAR LMML NIL=
200901181415 METAR LMML 181415Z 19008KT 150V220 9999 FEW024 16/13 Q1022
                        NOSIG=
200901181400 METAR LMML NIL=
200901181345 METAR LMML 181345Z 18006KT 140V210 9999 FEW024 SCT039 16/13
                        Q1022 NOSIG=
200901181315 METAR LMML 181315Z 16007KT 140V210 9999 FEW024 SCT039 16/13
                        Q1023 NOSIG=
200901181300 METAR LMML NIL=
200901181245 METAR LMML 181245Z 17007KT 150V210 9999 SCT027 16/12 Q1023
                        NOSIG=
200901181215 METAR LMML 181215Z 16007KT 130V190 9999 FEW027 SCT120 16/12
                        Q1023 NOSIG=
200901181200 METAR LMML NIL=
200901181145 METAR LMML 181145Z 16007KT 130V190 9999 FEW028 SCT120 16/12
                        Q1024 NOSIG=
200901181130 METAR LMML NIL=
200901181115 METAR LMML 181115Z 16006KT 130V200 9999 SCT031 BKN120 16/12
                        Q1024 NOSIG=
200901181100 METAR LMML NIL=
200901181045 METAR LMML 181045Z 15006KT 120V190 9999 FEW030 BKN120 16/11
                        Q1024 NOSIG=
200901181030 METAR LMML NIL=
200901181015 METAR LMML 181015Z 13006KT 100V160 9999 FEW030 BKN120 15/11
                        Q1025 NOSIG=
200901181000 METAR LMML NIL=
200901180945 METAR LMML 180945Z 14007KT 110V170 9999 SCT019 BKN120 15/12
                        Q1025 NOSIG=
200901180930 METAR LMML NIL=
200901180915 METAR LMML 180915Z 11004KT 070V150 9999 FEW025 SCT120 16/12
                        Q1025 NOSIG=
200901180900 METAR LMML NIL=
200901180845 METAR LMML 180845Z VRB02KT 9999 SCT026 15/11 Q1026 NOSIG=
200901180830 METAR LMML NIL=
200901180815 METAR LMML 180815Z VRB01KT 9999 SCT028 16/12 Q1026 NOSIG=
200901180800 METAR LMML NIL=
200901180745 METAR LMML 180745Z VRB01KT 9999 SCT029 14/10 Q1026 NOSIG=
200901180730 METAR LMML NIL=
200901180715 METAR LMML 180715Z VRB03KT 9999 SCT031 11/08 Q1025 NOSIG=
200901180700 METAR LMML NIL=
200901180645 METAR LMML 180645Z 17004KT 9999 FEW033 12/08 Q1025 NOSIG=
200901180630 METAR LMML NIL=
200901180615 METAR LMML 180615Z 17005KT 9999 FEW030 11/08 Q1025 NOSIG=
200901180600 METAR LMML NIL=
200901180545 METAR LMML 180545Z 17004KT CAVOK 11/07 Q1025 NOSIG=
200901180530 METAR LMML NIL=
200901180515 METAR LMML 180515Z 16004KT CAVOK 11/07 Q1025 NOSIG=
200901180500 METAR LMML NIL=
200901180445 METAR LMML 180445Z 17005KT CAVOK 11/07 Q1025 NOSIG=
200901180430 METAR LMML NIL=
200901180415 METAR LMML 180415Z VRB03KT CAVOK 10/07 Q1025 NOSIG=
200901180400 METAR LMML NIL=
200901180345 METAR LMML 180345Z VRB03KT CAVOK 10/07 Q1025 NOSIG=
200901180330 METAR LMML NIL=
200901180315 METAR LMML 180315Z 17004KT CAVOK 10/07 Q1025 NOSIG=
200901180300 METAR LMML NIL=
200901180245 METAR LMML 180245Z VRB03KT CAVOK 10/07 Q1025 NOSIG=
200901180230 METAR LMML NIL=
200901180215 METAR LMML 180215Z VRB03KT CAVOK 11/07 Q1026 NOSIG=
200901180200 METAR LMML NIL=
200901180145 METAR LMML 180145Z 18004KT CAVOK 11/07 Q1026 NOSIG=
200901180130 METAR LMML NIL=
200901180115 METAR LMML 180115Z 18004KT CAVOK 11/07 Q1026 NOSIG=
200901180100 METAR LMML NIL=
200901180045 METAR LMML 180045Z 18005KT CAVOK 10/07 Q1026 NOSIG=
200901180030 METAR LMML NIL=
200901180015 METAR LMML 180015Z 17004KT CAVOK 10/07 Q1026 NOSIG=
200901180000 METAR LMML NIL=
200901172345 METAR LMML 172345Z 18004KT CAVOK 10/08 Q1026 NOSIG=
200901172330 METAR LMML NIL=
200901172315 METAR LMML 172315Z VRB03KT CAVOK 09/08 Q1026 NOSIG=
200901172300 METAR LMML NIL=
200901172245 METAR LMML 172245Z VRB03KT CAVOK 09/08 Q1026 NOSIG=
200901172230 METAR LMML NIL=
200901172215 METAR LMML 172215Z VRB03KT CAVOK 09/07 Q1026 NOSIG=
200901172200 METAR LMML NIL=
200901172145 METAR LMML 172145Z VRB02KT CAVOK 09/08 Q1026 NOSIG=
200901172130 METAR LMML NIL=
200901172115 METAR LMML 172115Z VRB02KT CAVOK 10/08 Q1027 NOSIG=
200901172100 METAR LMML NIL=
200901172045 METAR LMML 172045Z 18004KT CAVOK 10/08 Q1027 NOSIG=
200901172030 METAR LMML NIL=
200901172015 METAR LMML 172015Z VRB03KT CAVOK 10/07 Q1027 NOSIG=
200901172000 METAR LMML NIL=
200901171945 METAR LMML 171945Z VRB03KT CAVOK 10/07 Q1027 NOSIG=
200901171930 METAR LMML NIL=
200901171915 METAR LMML 171915Z 17004KT CAVOK 11/07 Q1027 NOSIG=
200901171900 METAR LMML NIL=
200901171845 METAR LMML 171845Z 17004KT 9999 FEW030 11/07 Q1027 NOSIG=
200901171830 METAR LMML NIL=
200901171815 METAR LMML 171815Z VRB02KT 9999 FEW030 11/08 Q1026 NOSIG=
200901171800 METAR LMML NIL=
200901171745 METAR LMML 171745Z VRB03KT 9999 FEW030 11/08 Q1027 NOSIG=
200901171730 METAR LMML NIL=
200901171715 METAR LMML 171715Z VRB03KT 9999 FEW030 12/08 Q1026 NOSIG=
200901171700 METAR LMML NIL=
200901171645 METAR LMML 171645Z VRB02KT 9999 FEW030 12/08 Q1026 NOSIG=
200901171630 METAR LMML NIL=
200901171615 METAR LMML 171615Z VRB03KT 9999 FEW030 13/08 Q1026 NOSIG=
200901171600 METAR LMML NIL=
200901171545 METAR LMML 171545Z 13004KT 9999 FEW030 13/08 Q1026 NOSIG=
200901171530 METAR LMML NIL=
200901171515 METAR LMML 171515Z 10004KT 080V140 9999 FEW030 14/08 Q1026
                        NOSIG=
200901171500 METAR LMML NIL=
200901171445 METAR LMML 171445Z 11004KT 060V150 9999 FEW030 14/09 Q1025
                        NOSIG=
200901171430 METAR LMML NIL=
200901171415 METAR LMML 171415Z 14004KT 080V190 9999 FEW030 15/09 Q1025
                        NOSIG=
200901171400 METAR LMML NIL=
200901171345 METAR LMML 171345Z 02004KT 300V090 9999 FEW030 16/10 Q1025
                        NOSIG=
200901171330 METAR LMML NIL=
200901171315 METAR LMML 171315Z 01005KT 340V050 9999 FEW030 16/10 Q1025
                        NOSIG=
200901171300 METAR LMML NIL=
200901171245 METAR LMML 171245Z VRB03KT 9999 FEW030 16/09 Q1025 NOSIG=
200901171230 METAR LMML NIL=
200901171215 METAR LMML 171215Z 21004KT 160V270 9999 FEW025 16/09 Q1026
                        NOSIG=
200901171200 METAR LMML NIL=
200901171145 METAR LMML 171145Z VRB03KT 9999 FEW025 16/09 Q1026 NOSIG=
200901171115 METAR LMML 171115Z 22004KT 170V280 9999 FEW025 16/09 Q1026
                        NOSIG=
200901171045 METAR LMML 171045Z VRB03KT 9999 FEW025 15/08 Q1026 NOSIG=
200901171030 METAR LMML NIL=
200901171015 METAR LMML 171015Z VRB01KT 9999 FEW025 16/08 Q1026 NOSIG=
200901171000 METAR LMML NIL=
200901170945 METAR LMML 170945Z VRB01KT 9999 FEW020 16/07 Q1026 NOSIG=
200901170930 METAR LMML NIL=
200901170915 METAR LMML 170915Z VRB01KT 9999 FEW020 15/07 Q1026 NOSIG=
200901170900 METAR LMML NIL=
200901170845 METAR LMML 170845Z VRB01KT 9999 FEW020 14/08 Q1026 NOSIG=
200901170830 METAR LMML NIL=
200901170815 METAR LMML 170815Z 00000KT 9999 FEW020 14/10 Q1026 NOSIG=
200901170800 METAR LMML NIL=
200901170745 METAR LMML 170745Z VRB01KT 9999 FEW020 11/09 Q1025 NOSIG=
200901170730 METAR LMML NIL=
200901170715 METAR LMML 170715Z VRB01KT 9999 FEW020 10/08 Q1025 NOSIG=
200901170700 METAR LMML NIL=
200901170645 METAR LMML 170645Z VRB02KT 9999 FEW020 08/06 Q1025 NOSIG=
200901170630 METAR LMML NIL=
200901170615 METAR LMML 170615Z VRB02KT 9999 FEW020 08/06 Q1025 NOSIG=
200901170600 METAR LMML NIL=
200901170545 METAR LMML 170545Z VRB02KT 9999 FEW020 08/06 Q1024 NOSIG=
200901170515 METAR LMML 170515Z VRB01KT 9999 FEW020 07/06 Q1024 NOSIG=
200901170500 METAR LMML NIL=
200901170445 METAR LMML 170445Z VRB02KT CAVOK 08/06 Q1024 NOSIG=
200901170430 METAR LMML NIL=
200901170415 METAR LMML 170415Z VRB02KT CAVOK 08/06 Q1024 NOSIG=
200901170400 METAR LMML NIL=
200901170345 METAR LMML 170345Z VRB03KT CAVOK 08/06 Q1024 NOSIG=
200901170330 METAR LMML NIL=
200901170315 METAR LMML 170315Z VRB03KT CAVOK 08/07 Q1024 NOSIG=
200901170300 METAR LMML NIL=
200901170245 METAR LMML 170245Z VRB03KT CAVOK 08/07 Q1024 NOSIG=
200901170230 METAR LMML NIL=
200901170215 METAR LMML 170215Z VRB03KT CAVOK 09/06 Q1024 NOSIG=
200901170200 METAR LMML NIL=
200901170145 METAR LMML 170145Z VRB03KT CAVOK 09/07 Q1024 NOSIG=
200901170130 METAR LMML NIL=
200901170115 METAR LMML 170115Z 28004KT CAVOK 09/07 Q1024 NOSIG=
200901170100 METAR LMML NIL=
200901170045 METAR LMML 170045Z 27004KT CAVOK 09/07 Q1024 NOSIG=
200901170015 METAR LMML 170015Z 26004KT 9999 FEW020 09/07 Q1023 NOSIG=
200901170000 METAR LMML NIL=
200901162345 METAR LMML 162345Z 27004KT 9999 FEW020 09/07 Q1023 NOSIG=
200901162330 METAR LMML NIL=
200901162315 METAR LMML 162315Z 27005KT CAVOK 09/07 Q1023 NOSIG=
200901162300 METAR LMML NIL=
200901162245 METAR LMML 162245Z 29006KT 9999 FEW020 10/07 Q1023 NOSIG=
200901162230 METAR LMML NIL=
200901162215 METAR LMML 162215Z 29005KT 9999 FEW020 10/07 Q1023 NOSIG=
200901162200 METAR LMML NIL=
200901162145 METAR LMML 162145Z 28006KT CAVOK 10/07 Q1023 NOSIG=
200901162130 METAR LMML NIL=
200901162115 METAR LMML 162115Z 28005KT 9999 FEW015 10/07 Q1023 NOSIG=
200901162100 METAR LMML NIL=
200901162045 METAR LMML 162045Z 27004KT 240V300 CAVOK 09/07 Q1023 NOSIG=
200901162030 METAR LMML NIL=
200901162015 METAR LMML 162015Z 28004KT CAVOK 10/07 Q1023 NOSIG=
200901162000 METAR LMML NIL=
200901161945 METAR LMML 161945Z 28005KT CAVOK 10/07 Q1023 NOSIG=
200901161930 METAR LMML NIL=
200901161915 METAR LMML 161915Z 26004KT CAVOK 09/07 Q1023 NOSIG=
200901161900 METAR LMML NIL=
200901161845 METAR LMML 161845Z 27004KT CAVOK 10/07 Q1023 NOSIG=
200901161830 METAR LMML NIL=
200901161815 METAR LMML 161815Z 28004KT 9999 FEW030 10/07 Q1022 NOSIG=
200901161800 METAR LMML NIL=
200901161745 METAR LMML 161745Z 29005KT 260V320 9999 FEW030 11/07 Q1022
                        NOSIG=
200901161730 METAR LMML NIL=
200901161715 METAR LMML 161715Z 29004KT 9999 FEW030 11/07 Q1022 NOSIG=
200901161700 METAR LMML NIL=
200901161645 METAR LMML 161645Z 29004KT 260V320 9999 FEW030 11/07 Q1022
                        NOSIG=
200901161630 METAR LMML NIL=
200901161615 METAR LMML 161615Z 30005KT 9999 FEW030 11/07 Q1021 NOSIG=
200901161600 METAR LMML NIL=
200901161545 METAR LMML 161545Z 31007KT 9999 FEW030 13/07 Q1021 NOSIG=
200901161530 METAR LMML NIL=
200901161515 METAR LMML 161515Z 31007KT 270V340 9999 FEW030 13/08 Q1021
                        NOSIG=
200901161500 METAR LMML NIL=
200901161445 METAR LMML 161445Z 31009KT 270V340 9999 FEW025 14/08 Q1021
                        NOSIG=
200901161430 METAR LMML NIL=
200901161415 METAR LMML 161415Z 30011KT 260V340 9999 FEW025 14/07 Q1020
                        NOSIG=
200901161400 METAR LMML NIL=
200901161345 METAR LMML 161345Z 29010KT 250V320 9999 FEW025 14/07 Q1020
                        NOSIG=
200901161330 METAR LMML NIL=
200901161315 LMML 161315Z 29010KT 250V320 9999 FEW025 14/08 Q1020 NOSIG=
200901161300 METAR LMML NIL=
200901161245 METAR LMML 161245Z 30011KT 270V330 9999 FEW025 15/07 Q1020
                        NOSIG=
200901161230 METAR LMML NIL=
200901161215 METAR LMML 161215Z 31012KT 9999 FEW025 14/07 Q1020 NOSIG=
200901161200 METAR LMML NIL=
200901161145 METAR LMML 161145Z 30012KT 240V330 9999 FEW025 14/07 Q1020
                        NOSIG=
200901161130 METAR LMML NIL=
200901161115 METAR LMML 161115Z 30012KT 9999 FEW025 14/07 Q1021 NOSIG=
200901161100 METAR LMML NIL=
200901161045 METAR LMML 161045Z 31012KT 270V340 9999 FEW025 14/08 Q1021
                        NOSIG=
200901161030 METAR LMML NIL=
200901161015 METAR LMML 161015Z 31013KT 9999 FEW025 14/08 Q1021 NOSIG=
200901161000 METAR LMML NIL=
200901160945 METAR LMML 160945Z 30011KT 9999 FEW025 14/09 Q1021 NOSIG=
200901160930 METAR LMML NIL=
200901160915 METAR LMML 160915Z 31011KT 280V350 9999 FEW025 14/10 Q1021
                        NOSIG=
200901160900 METAR LMML NIL=
200901160845 METAR LMML 160845Z 31008KT 280V340 9999 FEW020 13/10 Q1021
                        NOSIG=
200901160830 LMML NIL=
200901160800 METAR LMML NIL=
200901160745 METAR LMML 160745Z 31006KT 9999 FEW020 12/10 Q1020 NOSIG=
200901160730 METAR LMML NIL=
200901160715 METAR LMML 160715Z 30005KT 9999 FEW020 10/09 Q1020 NOSIG=
200901160700 METAR LMML NIL=
200901160645 METAR LMML 160645Z VRB03KT 9999 FEW020 10/09 Q1020 NOSIG=
200901160630 METAR LMML NIL=
200901160615 METAR LMML 160615Z 28005KT 250V310 9999 FEW020 10/09 Q1019
                        NOSIG=
200901160600 METAR LMML NIL=
200901160545 METAR LMML 160545Z 28005KT 9999 FEW018 09/09 Q1019 NOSIG=
200901160530 METAR LMML NIL=
200901160515 METAR LMML 160515Z 28005KT 9999 FEW018 10/09 Q1019 NOSIG=
200901160500 METAR LMML NIL=
200901160445 METAR LMML 160445Z 29005KT 9999 FEW018 SCT070 10/09 Q1018
                        NOSIG=
200901160430 METAR LMML NIL=
200901160415 METAR LMML 160415Z 30004KT 9999 FEW018 SCT070 10/09 Q1018
                        NOSIG=
200901160400 METAR LMML NIL=
200901160345 METAR LMML 160345Z 30004KT 9999 FEW018 SCT070 09/09 Q1018
                        NOSIG=
200901160330 METAR LMML NIL=
200901160315 METAR LMML 160315Z 31004KT 9999 FEW018 09/09 Q1018 NOSIG=
200901160300 METAR LMML NIL=
200901160245 METAR LMML 160245Z VRB03KT 9999 FEW018 SCT070 10/09 Q1018
                        NOSIG=
200901160230 METAR LMML NIL=
200901160215 METAR LMML 160215Z VRB03KT 9999 FEW018 SCT050 BKN070 10/10
                        Q1018 NOSIG=
200901160200 METAR LMML NIL=
200901160145 METAR LMML 160145Z VRB03KT 9999 FEW018 BKN060 10/10 Q1018
                        NOSIG=
200901160130 METAR LMML NIL=
200901160115 METAR LMML 160115Z VRB03KT 9999 SCT035 BKN060 10/10 Q1018
                        TEMPO 8000 SHRA BKN015=
200901160100 METAR LMML NIL=
200901160045 METAR LMML 160045Z VRB03KT 9999 SCT037 SCT050 BKN070 10/09
                        Q1018 TEMPO 8000 SHRA BKN015=
200901160015 METAR LMML 160015Z 29004KT 9999 SHRA SCT035 SCT045 BKN070
                        10/10 Q1018 TEMPO 8000 SHRA BKN015=
200901160000 METAR LMML NIL=
200901152345 METAR LMML 152345Z VRB03KT 9999 -SHRA FEW017 BKN045 10/10
                        Q1018 TEMPO 8000 SHRA BKN015=
200901152330 METAR LMML NIL=
200901152315 METAR LMML 152315Z VRB03KT 9999 FEW017 SCT041 BKN080 10/09
                        Q1018 TEMPO 8000 SHRA BKN015=
200901152300 LMML NIL=
200901152230 METAR LMML NIL=
200901152215 METAR LMML 152215Z VRB03KT 9999 FEW030 SCT080 10/09 Q1019
                        TEMPO 8000 SHRA BKN015=
200901152145 METAR LMML 152145Z 27004KT 9999 FEW032 BKN070 10/10 Q1019
                        TEMPO 8000 SHRA BKN015=
200901152115 METAR LMML 152115Z VRB02KT 9999 FEW045 BKN070 10/10 Q1018
                        TEMPO 8000 SHRA BKN015=
200901152045 METAR LMML 152045Z VRB02KT 9999 FEW031 BKN070 10/10 Q1018
                        NOSIG=
200901152030 METAR LMML NIL=
200901152015 METAR LMML 152015Z VRB02KT 9999 FEW031 SCT070 BKN130 10/10
                        Q1018 NOSIG=
200901152000 METAR LMML NIL=
200901151945 METAR LMML 151945Z VRB01KT 9999 FEW031 BKN130 10/09 Q1018
                        NOSIG=
200901151930 METAR LMML NIL=
200901151915 METAR LMML 151915Z VRB03KT 9999 SCT030 BKN130 10/10 Q1018
                        NOSIG=
200901151900 METAR LMML NIL=
200901151845 METAR LMML 151845Z VRB01KT 9999 SCT029 BKN120 10/10 Q1018
                        NOSIG=
200901151830 METAR LMML NIL=
200901151815 METAR LMML 151815Z VRB02KT 9999 SCT016 BKN120 11/10 Q1018
                        NOSIG=
200901151800 METAR LMML NIL=
200901151745 METAR LMML 151745Z VRB02KT 9999 SCT014 BKN120 11/10 Q1018
                        NOSIG=
200901151730 METAR LMML NIL=
200901151715 METAR LMML 151715Z VRB03KT 9999 SCT012 BKN080 11/10 Q1018
                        NOSIG=
200901151700 METAR LMML NIL=
200901151645 METAR LMML 151645Z 08004KT 9999 SCT011 BKN060 11/10 Q1018
                        NOSIG=
200901151630 METAR LMML NIL=
200901151615 METAR LMML 151615Z 09005KT 060V120 9999 -RA FEW009 SCT032
                        BKN060 11/10 Q1018=
200901151600 METAR LMML NIL=
200901151545 METAR LMML 151545Z 07006KT 040V100 9999 -RA FEW010 SCT035
                        BKN060 11/10 Q1017 TEMPO SHRA BKN010
                        BKN015TCU=
200901151530 METAR LMML NIL=
200901151515 METAR LMML 151515Z 07005KT 040V130 9999 -RA FEW009 SCT037
                        BKN060 11/10 Q1017 TEMPO SHRA BKN010
                        BKN015TCU=
200901151500 METAR LMML NIL=
200901151445 METAR LMML 151445Z 08004KT 050V110 9999 -RA FEW037 OVC060
                        11/10 Q1017 TEMPO SHRA BKN010 BKN015TCU=
200901151430 METAR LMML NIL=
200901151415 METAR LMML 151415Z 06004KT 9999 -RA SCT037 OVC049 11/10 Q1017
                        TEMPO SHRA BKN010 BKN015TCU=
200901151400 METAR LMML NIL=
200901151345 METAR LMML 151345Z VRB03KT 9999 -RA SCT037 OVC049 11/10 Q1018
                        TEMPO SHRA BKN010 BKN015TCU=
200901151330 METAR LMML NIL=
200901151315 METAR LMML 151315Z VRB02KT 9000 -RA SCT038 OVC060 11/10 Q1018
                        TEMPO SHRA BKN010 BKN015TCU=
200901151300 METAR LMML NIL=
200901151245 METAR LMML 151245Z 34004KT 9000 -RA FEW036 BKN047 11/10 Q1018
                        RERA TEMPO SHRA BKN010 BKN015TCU=
200901151230 METAR LMML NIL=
200901151215 METAR LMML 151215Z 04005KT 360V110 6000 RA FEW022 OVC043
                        11/10 Q1018 TEMPO SHRA BKN010 BKN015TCU=
200901151200 METAR LMML NIL=
200901151145 METAR LMML 151145Z 32006KT 6000 RA FEW022 OVC044 10/09 Q1019
                        TEMPO SHRA BKN010 BKN015TCU=
200901151130 METAR LMML NIL=
200901151115 METAR LMML 151115Z 29008KT 6000 -RA SCT022 OVC046 10/09 Q1019
                        TEMPO SHRA BKN010 BKN015TCU=
200901151100 METAR LMML NIL=
200901151045 METAR LMML 151045Z 31013KT 6000 -RA FEW006 FEW022 BKN043
                        11/10 Q1019 RESH TEMPO SHRA BKN010
                        BKN015TCU=
200901151030 METAR LMML NIL=
200901151015 METAR LMML 151015Z 31012KT 4000 -RA FEW010 SCT025 OVC041
                        11/10 Q1019 TEMPO SHRA BKN010 BKN015TCU=
200901151000 METAR LMML NIL=
200901150945 METAR LMML 150945Z 26009KT 220V300 3000 -SHRA FEW011 SCT026
                        BKN040 11/10 Q1019 TEMPO SHRA BKN010
                        BKN015TCU=
200901150930 METAR LMML NIL=
200901150915 METAR LMML 150915Z VRB03KT 7000 -RA FEW018 BKN040 BKN080
                        13/12 Q1019 TEMPO 5000 SHRA BKN015TCU=
200901150900 METAR LMML NIL=
200901150845 METAR LMML 150845Z 12005KT 080V140 9000 FEW020 BKN060 BKN080
                        13/11 Q1019 TEMPO 7000 SHRA BKN015TCU
                        RMK VIS 9KM TO NORTHWEST=
200901150815 METAR LMML 150815Z 08004KT 9000 FEW020 SCT060 BKN090 13/11
                        Q1019 TEMPO 7000 SHRA BKN015TCU RMK
                        VIS 9KM TO NORTH=
200901150800 METAR LMML NIL=
200901150745 METAR LMML 150745Z VRB01KT 9000 FEW020 SCT060 BKN080 12/11
                        Q1019 TEMPO 7000 SHRA BKN015TCU RMK
                        VIS 9KM TO NORTH=
200901150730 METAR LMML NIL=
200901150715 LMML 150715Z VRB02KT 9999 FEW020 BKN060 12/11 Q1018 TEMPO
                        7000 SHRA BKN015TCU=
200901150700 METAR LMML NIL=
200901150645 METAR LMML 150645Z VRB03KT 9999 FEW020 BKN060 11/10 Q1018
                        NOSIG=
200901150630 METAR LMML NIL=
200901150615 METAR LMML 150615Z VRB02KT 9999 FEW020 SCT060 BKN080 10/10
                        Q1018 NOSIG=
200901150600 METAR LMML NIL=
200901150545 METAR LMML 150545Z VRB03KT 9999 FEW023 BKN070 10/09 Q1018
                        NOSIG=
200901150530 LMML NIL=
200901150515 METAR LMML 150515Z VRB01KT 9999 SCT023 10/09 Q1018 NOSIG=
200901150500 METAR LMML NIL=
200901150445 METAR LMML 150445Z 00000KT 9999 SCT023 SCT100 10/09 Q1018
                        NOSIG=
200901150430 METAR LMML NIL=
200901150415 METAR LMML 150415Z VRB01KT 9999 SCT024 SCT090 09/08 Q1018
                        NOSIG=
200901150400 METAR LMML NIL=
200901150345 METAR LMML 150345Z VRB02KT 9999 FEW020 BKN250 10/09 Q1018
                        NOSIG=
200901150330 METAR LMML NIL=
200901150315 METAR LMML 150315Z VRB02KT 9999 FEW023 BKN250 10/09 Q1018
                        NOSIG=
200901150300 METAR LMML NIL=
200901150245 METAR LMML 150245Z VRB01KT 9999 FEW023 BKN250 11/09 Q1018
                        NOSIG=
200901150230 LMML NIL=
200901150215 METAR LMML 150215Z VRB02KT 9999 FEW023 BKN080 11/09 Q1018
                        NOSIG=
200901150200 METAR LMML NIL=
200901150145 METAR LMML 150145Z VRB02KT 9999 FEW021 BKN060 12/09 Q1019
                        NOSIG=
200901150130 METAR LMML NIL=
200901150115 METAR LMML 150115Z VRB03KT 9999 FEW030 BKN060 12/09 Q1019
                        NOSIG=
200901150100 METAR LMML NIL=
200901150045 METAR LMML 150045Z VRB03KT 9999 FEW041 SCT060 12/09 Q1019
                        NOSIG=
200901150030 METAR LMML NIL=
200901150015 METAR LMML 150015Z VRB03KT 9999 FEW025 SCT060 11/09 Q1019
                        NOSIG=
200901150000 METAR LMML NIL=
200901142345 METAR LMML 142345Z VRB02KT 9999 FEW024 SCT060 11/09 Q1019
                        NOSIG=
200901142330 METAR LMML NIL=
200901142315 METAR LMML 142315Z VRB03KT 9999 FEW025 SCT060 11/09 Q1019
                        NOSIG=
200901142300 METAR LMML NIL=
200901142245 METAR LMML 142245Z VRB03KT 9999 FEW027 11/08 Q1019 NOSIG=
200901142230 METAR LMML NIL=
200901142215 METAR LMML 142215Z VRB03KT 9999 FEW028 11/08 Q1019 NOSIG=
200901142200 METAR LMML NIL=
200901142145 METAR LMML 142145Z VRB03KT 9999 FEW028 11/08 Q1018 NOSIG=
200901142130 METAR LMML NIL=
200901142115 METAR LMML 142115Z VRB03KT 9999 FEW020 11/08 Q1018 NOSIG=
200901142100 METAR LMML NIL=
200901142045 METAR LMML 142045Z 26004KT 230V290 9999 FEW020 11/09 Q1018
                        NOSIG=
200901142030 METAR LMML NIL=
200901142015 METAR LMML 142015Z VRB03KT 9999 FEW022 11/09 Q1018 NOSIG=
200901142000 METAR LMML NIL=
200901141945 METAR LMML 141945Z 26004KT 9999 FEW020 11/08 Q1018 NOSIG=
200901141930 METAR LMML NIL=
200901141915 METAR LMML 141915Z 28005KT 240V300 9999 FEW020 11/09 Q1017
                        NOSIG=
200901141900 METAR LMML NIL=
200901141845 METAR LMML 141845Z 28004KT 9999 FEW020 11/09 Q1017 NOSIG=
200901141830 METAR LMML NIL=
200901141815 METAR LMML 141815Z 29004KT 9999 FEW020 12/09 Q1017 NOSIG=
200901141800 METAR LMML NIL=
200901141745 METAR LMML 141745Z 29005KT 9999 FEW022 12/09 Q1017 NOSIG=
200901141730 METAR LMML NIL=
200901141715 METAR LMML 141715Z 27004KT 240V300 9999 FEW022 12/09 Q1017
                        NOSIG=
200901141700 METAR LMML NIL=
200901141645 METAR LMML 141645Z 29006KT 260V320 9999 FEW022 13/10 Q1016
                        NOSIG=
200901141630 METAR LMML NIL=
200901141615 METAR LMML 141615Z 29009KT 9999 FEW022 13/10 Q1016 NOSIG=
200901141600 METAR LMML NIL=
200901141545 METAR LMML 141545Z 29011KT 260V330 9999 FEW020 14/10 Q1016
                        NOSIG=
200901141530 METAR LMML NIL=
200901141515 METAR LMML 141515Z 29011KT 260V320 9999 SCT019 14/10 Q1015
                        NOSIG=
200901141500 METAR LMML NIL=
200901141445 METAR LMML 141445Z 29014KT 260V320 9999 FEW020 14/10 Q1015
                        NOSIG=
200901141430 METAR LMML NIL=
200901141415 METAR LMML 141415Z 29015KT 9999 FEW023 15/10 Q1015 NOSIG=
200901141345 METAR LMML 141345Z 29016KT 250V340 9999 FEW021 15/10 Q1014
                        NOSIG=
200901141330 METAR LMML NIL=
200901141315 METAR LMML 141315Z 29015KT 260V330 9999 SCT022 15/11 Q1014
                        NOSIG=
200901141300 METAR LMML NIL=
200901141245 METAR LMML 141245Z 29015KT 250V310 9999 SCT017 15/12 Q1014
                        NOSIG=
200901141230 METAR LMML NIL=
200901141215 METAR LMML 141215Z 29016KT 250V320 9999 SCT020 SCT060 15/12
                        Q1014 RESHRA NOSIG=
200901141200 METAR LMML NIL=
200901141145 METAR LMML 141145Z 27015KT 240V300 9999 BKN021 14/12 Q1014
                        RESHRA TEMPO 8000 SHRA=
200901141130 METAR LMML NIL=
200901141115 METAR LMML 141115Z 29015KT 260V320 9999 SCT024 15/10 Q1014
                        TEMPO 8000 SHRA=
200901141100 METAR LMML NIL=
200901141045 METAR LMML 141045Z 28016KT 250V310 9999 FEW023 15/11 Q1014
                        NOSIG=
200901141030 METAR LMML NIL=
200901141015 METAR LMML 141015Z 28013KT 250V310 9999 FEW024 15/11 Q1014
                        NOSIG=
200901141000 METAR LMML NIL=
200901140945 METAR LMML 140945Z 28013KT 250V310 9999 FEW022 15/11 Q1014
                        NOSIG=
200901140930 METAR LMML NIL=
200901140915 METAR LMML 140915Z 29015KT 9999 FEW021 15/11 Q1014 NOSIG=
200901140900 METAR LMML NIL=
200901140845 METAR LMML 140845Z 29014KT 260V320 9999 FEW022 15/11 Q1013
                        NOSIG=
200901140830 METAR LMML NIL=
200901140815 METAR LMML 140815Z 29012KT 250V320 9999 SCT022 SCT060 14/11
                        Q1013 TEMPO 8000 SHRA=
200901140800 METAR LMML NIL=
200901140745 METAR LMML 140745Z 29011KT 9999 FEW021 SCT060 14/11 Q1012
                        TEMPO 8000 SHRA=
200901140730 METAR LMML NIL=
200901140715 METAR LMML 140715Z 29012KT 240V320 9999 -SHRA SCT019 14/11
                        Q1011 TEMPO 8000 SHRA=
200901140700 METAR LMML NIL=
200901140645 METAR LMML 140645Z 29015KT 250V310 9999 FEW020 13/10 Q1011
                        NOSIG=
200901140630 METAR LMML NIL=
200901140615 METAR LMML 140615Z 29014KT 9999 FEW020 13/11 Q1011 NOSIG=
200901140545 METAR LMML 140545Z 29013KT 250V310 9999 FEW020 13/11 Q1010
                        NOSIG=
200901140515 METAR LMML 140515Z 29015KT 9999 FEW020 SCT050 13/11 Q1009
                        NOSIG=
200901140500 METAR LMML NIL=
200901140445 METAR LMML 140445Z 28015KT 250V310 9999 FEW017 SCT050 BKN250
                        13/12 Q1009 BECMG 9999 SCT020=
200901140430 METAR LMML NIL=
200901140415 METAR LMML 140415Z 26011KT 210V310 9000 FEW010 SCT017 BKN050
                        13/12 Q1008 TEMPO 7000 RA BKN015=
200901140400 METAR LMML NIL=
200901140345 METAR LMML 140345Z 22008KT 170V290 9000 -RA SCT014 BKN050
                        BKN100 13/12 Q1008 TEMPO 7000 RA
                        BKN015=
200901140330 METAR LMML NIL=
200901140315 METAR LMML 140315Z 22013KT 190V280 9000 -RA SCT015 SCT050
                        BKN100 14/12 Q1008 TEMPO 7000 RA
                        BKN015=
200901140300 METAR LMML NIL=
200901140245 METAR LMML 140245Z 22011KT 190V260 9999 -RA SCT020 BKN100
                        14/11 Q1008 TEMPO 7000 RA BKN015=
200901140230 METAR LMML NIL=
200901140215 METAR LMML 140215Z 22011KT 190V270 9000 -RA SCT019 BKN100
                        14/11 Q1008 TEMPO 7000 RA BKN015=
200901140200 METAR LMML NIL=
200901140145 METAR LMML 140145Z 22013KT 190V260 9999 SCT025 BKN090 14/10
                        Q1008 TEMPO 7000 RA BKN015=
200901140130 METAR LMML NIL=
200901140115 METAR LMML 140115Z 23012KT 200V270 9999 BKN023 14/10 Q1008
                        TEMPO 7000 RA BKN015=
200901140100 METAR LMML NIL=
200901140045 METAR LMML 140045Z 22010KT 200V260 9999 SCT024 14/10 Q1008
                        TEMPO 7000 RA BKN015=
200901140030 METAR LMML NIL=
200901140015 METAR LMML 140015Z 22009KT 180V260 9999 SCT023 14/10 Q1008
                        TEMPO 7000 RA BKN015=
200901140000 METAR LMML NIL=
200901132345 METAR LMML 132345Z 22009KT 190V260 9999 SCT023 14/11 Q1008
                        NOSIG=
200901132330 METAR LMML NIL=
200901132315 METAR LMML 132315Z 21009KT 160V250 9999 SCT025 14/11 Q1008
                        NOSIG=
200901132300 METAR LMML NIL=
200901132245 METAR LMML 132245Z 21012KT 190V250 9999 SCT027 14/09 Q1008
                        NOSIG=
200901132230 METAR LMML NIL=
200901132215 METAR LMML 132215Z 21010KT 180V250 9999 SCT026 14/10 Q1008
                        NOSIG=
200901132200 METAR LMML NIL=
200901132145 METAR LMML 132145Z 21012KT 170V250 9999 SCT024 14/10 Q1008
                        NOSIG=
200901132130 METAR LMML NIL=
200901132115 METAR LMML 132115Z 22012KT 190V260 9999 SCT024 14/10 Q1008
                        NOSIG=
200901132100 METAR LMML NIL=
200901132045 METAR LMML 132045Z 22011KT 190V250 9999 SCT022 14/10 Q1008
                        NOSIG=
200901132030 METAR LMML NIL=
200901132015 METAR LMML 132015Z 22012KT 170V270 9999 SCT024 14/10 Q1008
                        NOSIG=
200901132000 METAR LMML NIL=
200901131945 METAR LMML 131945Z 22011KT 180V250 9999 SCT022 14/10 Q1008
                        NOSIG=
200901131930 METAR LMML NIL=
200901131915 METAR LMML 131915Z 21012KT 170V260 9999 SCT021 14/10 Q1008
                        NOSIG=
200901131900 METAR LMML NIL=
200901131845 METAR LMML 131845Z 21012KT 180V250 9999 BKN019 BKN250 14/10
                        Q1008 NOSIG=
200901131830 METAR LMML NIL=
200901131815 METAR LMML 131815Z 22013KT 160V260 9999 BKN022 BKN250 14/11
                        Q1008 NOSIG=
200901131800 METAR LMML NIL=
200901131745 METAR LMML 131745Z 21013KT 170V260 9999 BKN019 BKN250 14/11
                        Q1007 NOSIG=
200901131730 METAR LMML NIL=
200901131715 METAR LMML 131715Z 20011KT 160V230 9999 BKN022 BKN250 14/11
                        Q1006 NOSIG=
200901131700 METAR LMML NIL=
200901131645 METAR LMML 131645Z 20012KT 160V260 9999 BKN022 BKN250 14/11
                        Q1006 NOSIG=
200901131630 METAR LMML NIL=
200901131615 METAR LMML 131615Z 21009KT 170V270 9999 BKN028 SCT250 14/11
                        Q1006 NOSIG=
200901131600 METAR LMML NIL=
200901131545 METAR LMML 131545Z 20012KT 170V230 9999 SCT020 SCT250 14/10
                        Q1005 NOSIG=
200901131515 METAR LMML 131515Z 20009KT 170V250 9999 FEW020 SCT080 14/10
                        Q1005 NOSIG=
200901131500 METAR LMML NIL=
200901131445 METAR LMML 131445Z 22014KT 180V270 9999 FEW015 SCT130 14/09
                        Q1004 NOSIG=
200901131430 METAR LMML NIL=
200901131415 METAR LMML 131415Z 20013KT 160V250 9999 FEW015 BKN250 15/11
                        Q1004 NOSIG=
200901131400 METAR LMML NIL=
200901131345 METAR LMML 131345Z 20014KT 170V230 9999 FEW016 BKN250 15/10
                        Q1003 NOSIG=
200901131330 METAR LMML NIL=
200901131315 METAR LMML 131315Z 20013KT 150V270 9999 FEW016 BKN250 14/10
                        Q1003 NOSIG=
200901131300 METAR LMML NIL=
200901131245 METAR LMML 131245Z 21017G27KT 150V250 9999 SCT016 SCT250
                        15/11 Q1003 NOSIG=
200901131230 METAR LMML NIL=
200901131215 METAR LMML 131215Z 20018KT 170V240 9999 BKN016 15/12 Q1003
                        NOSIG=
200901131145 METAR LMML 131145Z 20023G35KT 150V230 8000 SCT018 16/13 Q1002
                        NOSIG=
200901131115 METAR LMML 131115Z 16019KT 130V190 7000 SCT017 17/14 Q1002
                        BECMG 9000=
200901131100 METAR LMML NIL=
200901131100 LMML 131100Z 15019G29KT 130V200 4000 BR SCT003 SCT015 17/14
                        Q1002 NOSIG=
200901131045 METAR LMML 131045Z 15018KT 1200 R14/P1500N BR SCT003 BKN015
                        17/15 Q1002 BECMG 3000 SCT015=
200901131030 METAR LMML NIL=
200901131015 METAR LMML 131015Z 14018KT 1000 R14/P1500N -DZ BKN003 OVC015
                        17/15 Q1003 BECMG 2000 BKN008=
200901131000 METAR LMML NIL=
200901130945 METAR LMML 130945Z 14014KT 1500 -DZ OVC013 16/15 Q1004 BECMG
                        4000=
200901130930 METAR LMML NIL=
200901130915 METAR LMML 130915Z 10011KT 070V140 5000 FEW008 BKN015 15/14
                        Q1005 BECMG 8000 BKN016=
200901130900 METAR LMML NIL=
200901130845 METAR LMML 130845Z 10013KT 060V140 8000 RA FEW008 BKN018
                        BKN120 15/14 Q1006 NOSIG=
200901130830 METAR LMML NIL=
200901130815 METAR LMML 130815Z 08014KT 040V110 8000 SCT008 BKN018 BKN120
                        14/13 Q1006 NOSIG=
200901130800 METAR LMML NIL=
200901130745 METAR LMML 130745Z 08013KT 030V110 8000 BKN006 BKN025 BKN120
                        14/13 Q1006 NOSIG=
200901130730 METAR LMML NIL=
200901130715 METAR LMML 130715Z 07014KT 030V110 9000 SCT006 BKN031 BKN120
                        14/13 Q1006 NOSIG=
200901130700 METAR LMML NIL=
200901130645 METAR LMML 130645Z 07013KT 9000 FEW020 BKN035 BKN120 14/12
                        Q1006 NOSIG=
200901130630 METAR LMML NIL=
200901130615 METAR LMML 130615Z 07013KT 030V100 7000 SCT042 SCT130 13/12
                        Q1006 TEMPO 2000 TSRA BKN012CB=
200901130600 LMML NIL=
200901130545 LMML 130545Z 07012KT 6000 FEW048 SCT130 BKN250 13/12 Q1006
                        TEMPO 2000 TSRA BKN012CB=
200901130530 METAR LMML NIL=
200901130515 METAR LMML 130515Z 09009KT 050V140 6000 -RA SCT048 BKN070
                        13/12 Q1007 TEMPO 2000 TSRA BKN012CB=
200901130500 METAR LMML NIL=
200901130445 METAR LMML 130445Z 07007KT 6000 FEW040 BKN090 13/13 Q1008
                        TEMPO 2000 TSRA BKN012CB=
200901130430 METAR LMML NIL=
200901130415 METAR LMML 130415Z 09007KT 070V130 6000 -RA SCT037 BKN050
                        BKN090 13/13 Q1008 RERA TEMPO 2000
                        TSRA BKN012CB RMK LIGHTNING SW=
200901130400 METAR LMML NIL=
200901130345 METAR LMML 130345Z 15006KT 110V190 2500 RA SCT037 OVC050
                        14/12 Q1010 TEMPO 2000 TSRA BKN012CB=
200901130330 METAR LMML NIL=
200901130315 METAR LMML 130315Z 16010KT 2500 RA FEW004 SCT035 BKN060 14/13
                        Q1010 NOSIG=
200901130300 METAR LMML NIL=
200901130245 METAR LMML 130245Z 17013KT 140V200 2500 RA FEW043 15/13 Q1010
                        NOSIG=
200901130230 METAR LMML NIL=
200901130215 METAR LMML 130215Z 18015KT 160V230 2000 RA FEW004 SCT035
                        OVC090 15/13 Q1010 NOSIG=
200901130200 METAR LMML NIL=
200901130145 METAR LMML 130145Z 18008KT 150V220 2000 RA SCT004 OVC090
                        16/15 Q1010 NOSIG=
200901130130 METAR LMML NIL=
200901130115 METAR LMML 130115Z 15009KT 120V190 2000 RA BKN004 BKN020
                        16/16 Q1010 NOSIG=
200901130100 METAR LMML NIL=
200901130045 METAR LMML 130045Z 14015KT 110V170 2000 RA BKN004 OVC020
                        16/15 Q1010 NOSIG=
200901130030 METAR LMML NIL=
200901130015 METAR LMML 130015Z 13015KT 090V170 2000 RA BKN006 OVC020
                        16/15 Q1011 NOSIG=
200901130000 METAR LMML NIL=
200901122345 METAR LMML 122345Z 11016KT 070V140 4000 -DR BKN010 OVC020
                        16/14 Q1011 TEMPO BKN005=
200901122330 METAR LMML NIL=
200901122315 METAR LMML 122315Z 10016G26KT 070V140 6000 BKN010 OVC020
                        15/14 Q1011 TEMPO BKN005=
200901122300 METAR LMML NIL=
200901122245 METAR LMML 122245Z 08020KT 060V120 6000 BKN011 BKN020 15/14
                        Q1011 TEMPO 5000=
200901122230 METAR LMML NIL=
200901122215 METAR LMML 122215Z 09019G29KT 050V140 6000 BKN011 OVC023
                        15/14 Q1012 TEMPO 5000=
200901122200 METAR LMML NIL=
200901122145 METAR LMML 122145Z 09019G29KT 060V130 6000 BKN012 BKN025
                        15/14 Q1012 TEMPO 5000=
200901122130 METAR LMML NIL=
200901122115 METAR LMML 122115Z 09020G31KT 060V130 7000 BKN011 OVC025
                        15/14 Q1013 TEMPO 5000=
200901122100 METAR LMML NIL=
200901122045 METAR LMML 122045Z 09020G31KT 060V130 7000 BKN012 15/13 Q1014
                        TEMPO 5000=
200901122030 METAR LMML NIL=
200901122015 METAR LMML 122015Z 09020KT 7000 BKN013 15/13 Q1014 TEMPO
                        5000=
200901122000 METAR LMML NIL=
200901121945 METAR LMML 121945Z 09023KT 060V120 7000 -RA BKN014 OVC020
                        15/13 Q1014 TEMPO 5000=
200901121930 METAR LMML NIL=
200901121915 METAR LMML 121915Z 10020KT 060V130 7000 BKN015 OVC021 15/13
                        Q1014 TEMPO 5000=
200901121900 METAR LMML NIL=
200901121845 METAR LMML 121845Z 09022G33KT 070V130 7000 BKN015 OVC021
                        15/13 Q1014 TEMPO 5000=
200901121830 METAR LMML NIL=
200901121800 METAR LMML NIL=
200901121745 METAR LMML 121745Z 09025G35KT 4000 BKN015 OVC022 15/12 Q1014
                        NOSIG=
200901121730 METAR LMML NIL=
200901121715 METAR LMML 121715Z 09024KT 070V130 4000 BKN015 OVC020 15/12
                        Q1014 NOSIG=
200901121700 METAR LMML NIL=
200901121645 METAR LMML 121645Z 09024KT 060V130 4000 BKN015 OVC022 15/12
                        Q1014 NOSIG=
200901121630 METAR LMML NIL=
200901121615 METAR LMML 121615Z 09024G36KT 060V130 4000 BKN015 OVC023
                        15/12 Q1014 NOSIG=
200901121600 METAR LMML NIL=
200901121545 METAR LMML 121545Z 09024G34KT 060V120 4000 BKN015 OVC021
                        15/12 Q1014 NOSIG=
200901121530 METAR LMML NIL=
200901121515 METAR LMML 121515Z 09024KT 060V120 5000 OVC015 15/12 Q1014
                        NOSIG=
200901121500 METAR LMML NIL=
200901121445 METAR LMML 121445Z 09024G34KT 060V120 5000 OVC015 15/12 Q1015
                        NOSIG=
200901121430 METAR LMML NIL=
200901121415 METAR LMML 121415Z 09024G34KT 5000 BKN015 BKN100 15/12 Q1015
                        NOSIG=
200901121400 METAR LMML NIL=
200901121345 METAR LMML 121345Z 09020KT 070V130 5000 BKN015 BKN100 15/12
                        Q1015 NOSIG=
200901121330 METAR LMML NIL=
200901121315 METAR LMML 121315Z 10021G31KT 070V130 5000 BKN015 BKN090
                        15/12 Q1016 NOSIG=
200901121245 METAR LMML 121245Z 10023G33KT 5000 BKN015 BKN090 15/12 Q1016
                        NOSIG=
200901121230 METAR LMML NIL=
200901121200 LMML NIL=
200901121145 METAR LMML 121145Z 09021KT 060V120 5000 BKN015 BKN090 15/13
                        Q1017 NOSIG=
200901121130 METAR LMML NIL=
200901121115 METAR LMML 121115Z 10023G33KT 070V130 5000 BKN015 BKN020
                        15/13 Q1017 NOSIG=
200901121100 METAR LMML NIL=
200901121045 METAR LMML 121045Z 10023KT 070V130 5000 BKN015 BKN040 BKN120
                        15/13 Q1018 NOSIG=
200901121030 METAR LMML NIL=
200901121015 METAR LMML 121015Z 10021G32KT 050V120 5000 FEW008 BKN014
                        BKN120 15/13 Q1018 NOSIG=
200901121000 METAR LMML NIL=
200901120945 METAR LMML 120945Z 10025KT 4500 SCT008 BKN014 BKN090 15/13
                        Q1018 NOSIG=
200901120930 METAR LMML NIL=
200901120915 METAR LMML 120915Z 10022KT 070V130 4500 SCT008 BKN013 BKN090
                        15/13 Q1019 NOSIG=
200901120900 METAR LMML NIL=
200901120845 METAR LMML 120845Z 10022KT 4500 SCT008 BKN013 BKN090 15/13
                        Q1019 NOSIG=
200901120830 METAR LMML NIL=
200901120815 METAR LMML 120815Z 10021KT 4500 BKN008 BKN013 15/13 Q1019
                        NOSIG=
200901120800 METAR LMML NIL=
200901120745 METAR LMML 120745Z 10018KT 4500 -RA BKN007 BKN012 15/14 Q1019
                        NOSIG=
200901120730 METAR LMML NIL=
200901120715 METAR LMML 120715Z 10016KT 4500 -RA BKN007 BKN011 14/14 Q1019
                        NOSIG=
200901120645 METAR LMML 120645Z 11018KT 4500 -RA BKN008 BKN016 14/14 Q1018
                        NOSIG=
200901120630 METAR LMML NIL=
200901120615 METAR LMML 120615Z 11016KT 4500 -RA SCT008 BKN016 BKN047
                        15/14 Q1019 NOSIG=
200901120600 METAR LMML NIL=
200901120545 METAR LMML 120545Z 11016KT 4500 -RA FEW010 BKN021 BKN090
                        15/14 Q1019 NOSIG=
200901120530 METAR LMML NIL=
200901120515 METAR LMML 120515Z 11017KT 6000 SCT012 BKN090 15/14 Q1018
                        TEMPO 5000 RA=
200901120500 METAR LMML NIL=
200901120445 METAR LMML 120445Z 11020KT 6000 FEW013 SCT019 BKN100 15/14
                        Q1018 TEMPO 5000 RA=
200901120430 METAR LMML NIL=
200901120415 METAR LMML 120415Z 12017KT 5000 FEW005 BKN012 15/14 Q1019
                        TEMPO 5000 RA=
200901120400 METAR LMML NIL=
200901120345 METAR LMML 120345Z 11013KT 5000 BKN005 BKN014 15/14 Q1018
                        TEMPO 5000 RA=
200901120330 METAR LMML NIL=
200901120315 METAR LMML 120315Z 10012KT 5000 SCT006 BKN016 15/14 Q1019
                        TEMPO 5000 RA SCT005 BKN012=
200901120300 METAR LMML NIL=
200901120245 METAR LMML 120245Z 10011KT 070V140 5000 -RA SCT006 BKN017
                        14/14 Q1019 TEMPO 5000 RA SCT005
                        BKN012=
200901120230 METAR LMML NIL=
200901120215 METAR LMML 120215Z 09009KT 020V130 7000 -RA FEW005 BKN046
                        14/13 Q1020 NOSIG=
200901120200 METAR LMML NIL=
200901120145 METAR LMML 120145Z VRB02KT 9999 FEW013 BKN050 14/13 Q1020
                        RERA NOSIG=
200901120130 METAR LMML NIL=
200901120115 METAR LMML 120115Z VRB03KT 9000 -RA SCT013 BKN070 14/13 Q1020
                        TEMPO 5000 RA SCT008 BKN012=
200901120100 METAR LMML NIL=
200901120045 METAR LMML 120045Z 11005KT 050V150 9000 RA FEW012 BKN070
                        14/13 Q1020 TEMPO 5000 RA SCT008
                        BKN012=
200901120030 METAR LMML NIL=
200901120015 METAR LMML 120015Z 16006KT 120V200 9999 -RA FEW016 BKN070
                        14/13 Q1020 TEMPO 5000 RA SCT008
                        BKN012=
200901120000 METAR LMML NIL=
200901112345 METAR LMML 112345Z 14009KT 9999 -RA BKN017 BKN080 14/13 Q1020
                        TEMPO 5000 RA SCT008 BKN012=
200901112330 METAR LMML NIL=
200901112315 METAR LMML 112315Z 11012KT 9999 -RA SCT020 BKN120 14/12 Q1019
                        TEMPO 5000 RA SCT008 BKN012=
200901112300 METAR LMML NIL=
200901112245 METAR LMML 112245Z 12012KT 9999 SCT016 BKN130 14/12 Q1019
                        NOSIG=
200901112230 METAR LMML NIL=
200901112215 METAR LMML 112215Z 12008KT 9999 BKN012 BKN120 14/13 Q1019
                        NOSIG=
200901112200 METAR LMML NIL=
200901112145 METAR LMML 112145Z 13006KT 9999 SCT010 BKN120 14/13 Q1019
                        NOSIG=
200901112130 METAR LMML NIL=
200901112115 METAR LMML 112115Z 14008KT 9999 FEW010 BKN120 14/13 Q1019
                        NOSIG=
200901112100 METAR LMML NIL=
200901112045 METAR LMML 112045Z 16007KT 130V190 9999 SCT008 BKN120 14/13
                        Q1019 NOSIG=
200901112030 METAR LMML NIL=
200901112015 METAR LMML 112015Z 18005KT 140V210 9999 FEW007 BKN120 14/13
                        Q1019 NOSIG=
200901112000 METAR LMML NIL=
200901111945 METAR LMML 111945Z 18008KT 9999 SCT007 SCT011 BKN130 14/13
                        Q1019 NOSIG=
200901111930 METAR LMML NIL=
200901111915 METAR LMML 111915Z 16005KT 9999 FEW006 BKN130 14/13 Q1019
                        NOSIG=
200901111900 METAR LMML NIL=
200901111845 METAR LMML 111845Z 18007KT 150V230 8000 SCT007 SCT044 BKN130
                        14/14 Q1018 NOSIG=
200901111832 LMML 111832Z 18008KT 8000 SCT007 SCT015 BKN120 14/14 Q1019
                        NOSIG=
200901111830 METAR LMML NIL=
200901111815 METAR LMML 111815Z 16005KT 120V190 5000 -RA SCT006 SCT014
                        BKN025 14/14 Q1019 NOSIG=
200901111800 METAR LMML NIL=
200901111745 METAR LMML 111745Z 09004KT 5000 SCT004 BKN007 BKN015 14/14
                        Q1018 NOSIG=
200901111730 METAR LMML NIL=
200901111715 METAR LMML 111715Z 07004KT 030V110 5000 BKN005 BKN015 14/14
                        Q1018 NOSIG=
200901111700 METAR LMML NIL=
200901111645 METAR LMML 111645Z 04007KT 010V070 5000 OVC005 14/14 Q1018
                        NOSIG=
200901111630 METAR LMML NIL=
200901111615 METAR LMML 111615Z 03009KT 360V070 5000 OVC005 14/13 Q1017
                        NOSIG=
200901111600 METAR LMML NIL=
200901111545 METAR LMML 111545Z 02011KT 6000 BKN005 14/13 Q1018 NOSIG=
200901111530 METAR LMML NIL=
200901111515 METAR LMML 111515Z 01011KT 6000 BKN006 13/13 Q1018 NOSIG=
200901111500 METAR LMML NIL=
200901111445 METAR LMML 111445Z 01012KT 4000 -RA BKN006 13/12 Q1018 NOSIG=
200901111434 LMML 111434Z 01013KT 340V040 4000 -RA BKN006 13/12 Q1018
                        NOSIG=
200901111430 METAR LMML NIL=
200901111415 METAR LMML 111415Z 01014G25KT 7000 -RA BKN007 13/12 Q1018
                        NOSIG=
200901111400 METAR LMML NIL=
200901111345 METAR LMML 111345Z 02013G23KT 350V050 9999 BKN009 14/12 Q1018
                        NOSIG=
200901111330 METAR LMML NIL=
200901111300 METAR LMML NIL=
200901111245 METAR LMML 111245Z 02013G26KT 350V060 9999 BKN010 14/12 Q1019
                        NOSIG=
200901111230 METAR LMML NIL=
200901111215 METAR LMML 111215Z 02014G24KT 350V050 9999 BKN010 14/12 Q1020
                        NOSIG=
200901111200 METAR LMML NIL=
200901111145 METAR LMML 111145Z 02013KT 350V050 9999 BKN011 BKN250 14/12
                        Q1020 NOSIG=
200901111130 METAR LMML NIL=
200901111115 METAR LMML 111115Z 02014KT 9999 BKN011 BKN250 15/12 Q1021
                        NOSIG=
200901111100 METAR LMML NIL=
200901111045 METAR LMML 111045Z 03013KT 360V060 9999 BKN012 BKN250 15/13
                        Q1021 NOSIG=
200901111030 METAR LMML NIL=
200901111015 METAR LMML 111015Z 03013KT 360V060 9999 BKN012 BKN250 15/13
                        Q1021 NOSIG=
200901111000 METAR LMML NIL=
200901110945 METAR LMML 110945Z 03012KT 010V070 9999 BKN012 BKN250 15/13
                        Q1022 NOSIG=
200901110930 METAR LMML NIL=
200901110915 METAR LMML 110915Z 04010KT 9999 BKN013 BKN250 14/12 Q1022
                        NOSIG=
200901110900 METAR LMML NIL=
200901110845 METAR LMML 110845Z 03010KT 010V070 9999 SCT014 BKN250 14/11
                        Q1022 NOSIG=
200901110830 METAR LMML NIL=
200901110815 METAR LMML 110815Z 03009KT 010V070 9999 SCT015 BKN250 14/11
                        Q1022 NOSIG=
200901110800 METAR LMML NIL=
200901110745 METAR LMML 110745Z 03007KT 360V070 9999 SCT014 BKN250 14/11
                        Q1022 NOSIG=
200901110730 METAR LMML NIL=
200901110715 METAR LMML 110715Z 04008KT 010V070 9999 SCT016 BKN250 13/11
                        Q1021 NOSIG=
200901110700 METAR LMML NIL=
200901110645 METAR LMML 110645Z 04005KT 010V070 9999 SCT016 BKN250 13/11
                        Q1021 NOSIG=
200901110630 METAR LMML NIL=
200901110615 METAR LMML 110615Z 04007KT 010V070 9999 SCT016 BKN250 13/11
                        Q1021 NOSIG=
200901110600 METAR LMML NIL=
200901110545 METAR LMML 110545Z 04007KT 010V090 9999 BKN016 SCT250 13/11
                        Q1021 NOSIG=
200901110530 METAR LMML NIL=
200901110515 METAR LMML 110515Z 04006KT 9999 SCT016 SCT250 12/11 Q1021
                        NOSIG=
200901110500 METAR LMML NIL=
200901110445 METAR LMML 110445Z 04005KT 020V080 9999 FEW015 SCT021 12/11
                        Q1021 NOSIG=
200901110430 METAR LMML NIL=
200901110415 METAR LMML 110415Z 06006KT 9999 FEW013 SCT022 12/11 Q1020
                        NOSIG=
200901110400 METAR LMML NIL=
200901110345 METAR LMML 110345Z 05006KT 020V080 9999 FEW012 SCT021 12/11
                        Q1020 NOSIG=
200901110330 LMML NIL=
200901110315 METAR LMML 110315Z 05005KT 020V080 9999 FEW011 SCT025 12/11
                        Q1020 NOSIG=
200901110300 METAR LMML NIL=
200901110245 METAR LMML 110245Z VRB03KT 9999 FEW009 SCT013 12/10 Q1021
                        NOSIG=
200901110230 METAR LMML NIL=
200901110215 METAR LMML 110215Z 34006KT 9999 FEW016 11/10 Q1021 NOSIG=
200901110200 METAR LMML NIL=
200901110145 METAR LMML 110145Z 34005KT 9999 FEW017 11/10 Q1021 NOSIG=
200901110130 METAR LMML NIL=
200901110115 METAR LMML 110115Z 33005KT 9999 FEW017 10/09 Q1021 NOSIG=
200901110100 METAR LMML NIL=
200901110045 METAR LMML 110045Z 32005KT 9999 FEW018 10/09 Q1021 NOSIG=
200901110015 METAR LMML 110015Z 33005KT 9999 FEW019 10/09 Q1021 NOSIG=
200901102345 METAR LMML 102345Z 30007KT 9999 FEW019 10/09 Q1021 NOSIG=
200901102330 METAR LMML NIL=
200901102315 METAR LMML 102315Z 31005KT 9999 FEW020 10/09 Q1021 NOSIG=
200901102300 METAR LMML NIL=
200901102245 METAR LMML 102245Z 33006KT 9999 FEW020 10/09 Q1021 NOSIG=
200901102230 METAR LMML NIL=
200901102145 METAR LMML 102145Z 30005KT 9999 FEW020 11/10 Q1021 NOSIG=
200901102115 METAR LMML 102115Z 31008KT 9999 FEW020 11/10 Q1021 NOSIG=
200901102100 METAR LMML NIL=
200901102045 METAR LMML 102045Z 31008KT 9999 FEW020 10/09 Q1021 NOSIG=
200901102030 METAR LMML NIL=
200901102015 METAR LMML 102015Z 32006KT 9999 FEW020 11/09 Q1021 NOSIG=
200901102000 METAR LMML NIL=
200901101945 METAR LMML 101945Z 29007KT 9999 FEW020 12/10 Q1020 NOSIG=
200901101930 METAR LMML NIL=
200901101915 METAR LMML 101915Z 30006KT 270V330 9999 FEW020 12/10 Q1020
                        NOSIG=
200901101900 METAR LMML NIL=
200901101845 METAR LMML 101845Z 30006KT 9999 FEW020 12/10 Q1020 NOSIG=
200901101830 METAR LMML NIL=
200901101815 METAR LMML 101815Z 29006KT 9999 FEW020 12/10 Q1020 NOSIG=
200901101800 METAR LMML NIL=
200901101745 METAR LMML 101745Z 30006KT 9999 FEW018 12/10 Q1019 NOSIG=
200901101730 METAR LMML NIL=
200901101715 METAR LMML 101715Z 31006KT 9999 FEW018 12/10 Q1019 NOSIG=
200901101700 METAR LMML NIL=
200901101645 METAR LMML 101645Z 31005KT 9999 FEW018 12/10 Q1019 NOSIG=
200901101630 METAR LMML NIL=
200901101615 METAR LMML 101615Z 32007KT 9999 FEW018 13/11 Q1019 NOSIG=
200901101545 METAR LMML 101545Z 33007KT 9999 FEW020 14/11 Q1019 NOSIG=
200901101530 METAR LMML NIL=
200901101515 METAR LMML 101515Z 32008KT 9999 FEW019 14/12 Q1018 NOSIG=
200901101500 METAR LMML NIL=
200901101445 METAR LMML 101445Z 30008KT 9999 SCT019 16/11 Q1018 NOSIG=
200901101430 METAR LMML NIL=
200901101415 METAR LMML 101415Z 31009KT 9999 FEW022 16/11 Q1018 NOSIG=
200901101400 METAR LMML NIL=
200901101345 METAR LMML 101345Z 30009KT 9999 SCT020 16/11 Q1018 NOSIG=
200901101330 METAR LMML NIL=
200901101315 METAR LMML 101315Z 30007KT 270V330 9999 SCT022 16/11 Q1018
                        NOSIG=
200901101300 METAR LMML NIL=
200901101245 METAR LMML 101245Z 30009KT 9999 SCT023 16/11 Q1018 NOSIG=
200901101230 METAR LMML NIL=
200901101215 METAR LMML 101215Z 28007KT 230V320 9999 FEW021 17/11 Q1018
                        NOSIG=
200901101200 METAR LMML NIL=
200901101145 METAR LMML 101145Z 32004KT 280V010 9999 FEW022 16/11 Q1018
                        NOSIG=
200901101130 METAR LMML NIL=
200901101115 METAR LMML 101115Z 32004KT 280V030 9999 FEW021 17/11 Q1018
                        NOSIG=
200901101100 METAR LMML NIL=
200901101045 METAR LMML 101045Z 32005KT 9999 FEW019 15/12 Q1018 NOSIG=
200901101030 METAR LMML NIL=
200901101015 METAR LMML 101015Z 33005KT 280V360 9999 FEW019 15/12 Q1018
                        NOSIG=
200901101000 METAR LMML NIL=
200901100945 METAR LMML 100945Z 31004KT 280V340 9999 FEW014 16/13 Q1019
                        NOSIG=
200901100930 METAR LMML NIL=
200901100915 METAR LMML 100915Z 32004KT 9000 FEW012 15/14 Q1019 NOSIG=
200901100900 METAR LMML NIL=
200901100845 METAR LMML 100845Z VRB02KT 9000 FEW015 14/14 Q1018 NOSIG=
200901100830 METAR LMML NIL=
200901100815 METAR LMML 100815Z VRB02KT 9000 FEW015 14/13 Q1018 NOSIG=
200901100800 METAR LMML NIL=
200901100745 METAR LMML 100745Z VRB02KT 7000 FEW012 13/12 Q1018 BECMG
                        9999 SCT015=
200901100730 METAR LMML NIL=
200901100715 METAR LMML 100715Z VRB02KT 6000 FEW012 11/11 Q1017 BECMG
                        9999 SCT015=
200901100700 METAR LMML NIL=
200901100645 METAR LMML 100645Z 33004KT 6000 BCMIFG FEW012 10/10 Q1017
                        NOSIG=
200901100630 METAR LMML NIL=
200901100615 METAR LMML 100615Z 31004KT 5000 BCMIFG FEW012 11/10 Q1017
                        NOSIG=
200901100600 METAR LMML NIL=
200901100545 METAR LMML 100545Z 31004KT 5000 MIFG FEW011 11/10 Q1017 NOSIG=
200901100530 METAR LMML NIL=
200901100515 METAR LMML 100515Z VRB02KT 5000 MIFG FEW011 10/10 Q1017 NOSIG=
200901100500 METAR LMML NIL=
200901100445 METAR LMML 100445Z VRB03KT 6000 MIFG FEW011 11/11 Q1017 NOSIG=
200901100430 METAR LMML NIL=
200901100415 METAR LMML 100415Z 30006KT 6000 SCT010 11/11 Q1017 NOSIG=
200901100400 METAR LMML NIL=
200901100345 METAR LMML 100345Z 27004KT 4000 MIFG FEW001 11/11 Q1016 TEMPO
                        0700 BCFG=
200901100330 METAR LMML NIL=
200901100315 METAR LMML 100315Z VRB03KT 4000 R13/0583V0788N MIFG FEW001
                        10/10 Q1016 TEMPO 0700 BCFG=
200901100300 METAR LMML NIL=
200901100245 METAR LMML 100245Z VRB03KT 4000 MIFG FEW001 10/10 Q1016 TEMPO
                        0700 BCFG=
200901100230 METAR LMML NIL=
200901100215 METAR LMML 100215Z VRB02KT 4000 MIFG SCT001 10/10 Q1016 TEMPO
                        0700 BCFG=
200901100200 METAR LMML NIL=
200901100145 METAR LMML 100145Z VRB01KT 4000 R14/0634VP1500U MIFG SCT001
                        10/10 Q1016 NOSIG=
200901100130 METAR LMML NIL=
200901100115 METAR LMML 100115Z 00000KT 4000 MIFG SCT001 10/10 Q1016 NOSIG=
200901100100 METAR LMML NIL=
200901100045 METAR LMML 100045Z VRB02KT 4000 MIFG SCT001 11/10 Q1016 NOSIG=
200901100030 METAR LMML NIL=
200901100015 METAR LMML 100015Z VRB03KT 0100 R13/P1500N FG SCT001 10/10
                        Q1016 NOSIG=
200901100000 METAR LMML NIL=
200901092345 METAR LMML 092345Z VRB01KT 0100 R14/0550D FG SCT001 10/10
                        Q1016 NOSIG=
200901092330 METAR LMML NIL=
200901092315 METAR LMML 092315Z VRB02KT 0100 R13/0343V0762D FG SCT001
                        10/10 Q1016 NOSIG=
200901092300 METAR LMML NIL=
200901092245 METAR LMML 092245Z VRB01KT 4000 R14/0400N MIFG FEW001 11/11
                        Q1016 TEMPO 0500 BCFG=
200901092230 METAR LMML NIL=
200901092215 METAR LMML 092215Z VRB01KT 4000 R13/0550N MIFG FEW001 11/11
                        Q1017 TEMPO 0500 BCFG=
200901092200 METAR LMML NIL=
200901092145 METAR LMML 092145Z VRB01KT 4000 R13/0355V0686U MIFG FEW001
                        11/11 Q1017 TEMPO 0500 BCFG=
200901092130 METAR LMML NIL=
200901092115 METAR LMML 092115Z VRB01KT 4000 R14/0227V0595U MIFG FEW001
                        11/11 Q1016 TEMPO 0500 BCFG=
200901092100 METAR LMML NIL=
200901092045 METAR LMML 092045Z VRB02KT 0900 R13/P1500N FG SCT006 12/12
                        Q1016 TEMPO 500 BCFG=
200901092032 LMML 092032Z VRB03KT 0200 R13/P1500N FG SCT006 SCT120 13/13
                        Q1017 NOSIG=
200901092030 METAR LMML NIL=
200901092015 METAR LMML 092015Z VRB03KT 6000 MIFG FEW006 SCT120 13/13
                        Q1017 TEMPO 1000 MIFG=
200901092000 METAR LMML NIL=
200901091945 LMML 091945Z 12004KT 6000 R13/0753VP1500U MIFG FEW005 12/12
                        Q1017 TEMPO 1000 MIFG=
200901091930 METAR LMML NIL=
200901091915 METAR LMML 091915Z VRB02KT 9000 FEW005 13/13 Q1017 TEMPO
                        5000 BR=
200901091900 METAR LMML NIL=
200901091845 METAR LMML 091845Z VRB02KT 9000 BKN005 BKN120 13/13 Q1016
                        NOSIG=
200901091830 METAR LMML NIL=
200901091815 METAR LMML 091815Z VRB01KT 9000 BKN005 BKN120 13/13 Q1016
                        NOSIG=
200901091800 METAR LMML NIL=
200901091745 METAR LMML 091745Z VRB01KT 9000 BKN005 BKN120 14/13 Q1016
                        NOSIG=
200901091730 METAR LMML NIL=
200901091715 METAR LMML 091715Z VRB02KT 9000 BKN005 BKN120 14/14 Q1016
                        NOSIG=
200901091700 METAR LMML NIL=
200901091645 METAR LMML 091645Z 09004KT 320V190 9000 FEW006 BKN120 14/14
                        Q1016 TEMPO BKN006=
200901091630 METAR LMML NIL=
200901091615 METAR LMML 091615Z 15005KT 110V270 9000 FEW006 SCT110 BKN250
                        14/14 Q1016 TEMPO BKN006=
200901091600 METAR LMML NIL=
200901091545 METAR LMML 091545Z VRB03KT 9000 SCT006 BKN120 15/14 Q1016
                        BECMG 8000 BKN006=
200901091530 METAR LMML NIL=
200901091515 METAR LMML 091515Z 13005KT 9000 FEW005 SCT120 BKN250 15/14
                        Q1016 NOSIG=
200901091500 METAR LMML NIL=
200901091445 METAR LMML 091445Z VRB03KT 9000 FEW006 SCT130 BKN250 15/14
                        Q1016 BECMG BKN007=
200901091430 METAR LMML NIL=
200901091415 METAR LMML 091415Z 10004KT 030V170 9000 SCT007 SCT130 BKN250
                        16/14 Q1016 BECMG BKN007=
200901091345 METAR LMML 091345Z 12006KT 9999 FEW007 SCT013 16/14 Q1016
                        BECMG BKN007=
200901091330 METAR LMML NIL=
200901091315 METAR LMML 091315Z 10005KT 020V160 9999 FEW008 BKN013 17/14
                        Q1016 TEMPO SCT008=
200901091300 METAR LMML NIL=
200901091245 METAR LMML 091245Z 06004KT 020V100 9999 FEW008 SCT015 16/14
                        Q1016 TEMPO SCT008=
200901091230 METAR LMML NIL=
200901091215 METAR LMML 091215Z 06006KT 020V100 9999 SCT008 SCT013 17/14
                        Q1017 TEMPO SCT008=
200901091200 METAR LMML NIL=
200901091145 METAR LMML 091145Z 07005KT 010V100 9000 SCT008 BKN017 17/15
                        Q1017 TEMPO SCT008=
200901091130 METAR LMML NIL=
200901091115 METAR LMML 091115Z 05006KT 010V110 8000 BKN007 SCT015 17/15
                        Q1017 TEMPO SCT008=
200901091100 METAR LMML NIL=
200901091045 METAR LMML 091045Z 04006KT 020V080 8000 BKN006 SCT016 17/15
                        Q1018 NOSIG=
200901091030 METAR LMML NIL=
200901091015 METAR LMML 091015Z 05008KT 010V080 6000 BKN007 BKN011 16/15
                        Q1018 NOSIG=
200901091000 METAR LMML NIL=
200901090945 METAR LMML 090945Z 05006KT 360V100 6000 BKN006 BKN012 16/15
                        Q1018 NOSIG=
200901090930 METAR LMML NIL=
200901090915 METAR LMML 090915Z 04007KT 010V080 6000 BKN006 BKN250 16/15
                        Q1018 NOSIG=
200901090900 METAR LMML NIL=
200901090845 METAR LMML 090845Z 05007KT 020V080 6000 BKN006 BKN250 15/15
                        Q1018 BECMG SCT009=
200901090830 METAR LMML NIL=
200901090815 METAR LMML 090815Z 04007KT 360V060 6000 BKN006 BKN250 15/14
                        Q1018 BECMG SCT006=
200901090800 METAR LMML NIL=
200901090745 METAR LMML 090745Z 04004KT 010V070 6000 BKN005 BKN011 15/14
                        Q1018 NOSIG=
200901090730 METAR LMML NIL=
200901090715 METAR LMML 090715Z 03005KT 010V080 5000 BKN005 14/14 Q1018
                        BECMG 6000=
200901090700 METAR LMML NIL=
200901090645 LMML 090645Z 03005KT 010V070 5000 BKN004 14/14 Q1018 NOSIG=
200901090630 METAR LMML NIL=
200901090615 METAR LMML 090615Z 03006KT 010V070 5000 BKN005 14/14 Q1017
                        NOSIG=
200901090600 METAR LMML NIL=
200901090545 METAR LMML 090545Z 03007KT 350V080 7000 BKN005 SCT012 14/14
                        Q1017 NOSIG=
200901090530 METAR LMML NIL=
200901090515 METAR LMML 090515Z 04006KT 010V070 7000 BKN005 SCT013 14/14
                        Q1017 NOSIG=
200901090500 METAR LMML NIL=
200901090445 METAR LMML 090445Z 04008KT 010V070 7000 BKN006 14/14 Q1017
                        NOSIG=
200901090430 METAR LMML NIL=
200901090415 METAR LMML 090415Z 03008KT 360V060 7000 BKN006 14/14 Q1016
                        NOSIG=
200901090400 METAR LMML NIL=
200901090345 METAR LMML 090345Z 03007KT 360V060 7000 BKN006 14/14 Q1016
                        TEMPO 5000 BR=
200901090330 METAR LMML NIL=
200901090315 METAR LMML 090315Z 02004KT 7000 SCT005 14/14 Q1016 TEMPO
                        5000 BR BKN005=
200901090300 METAR LMML NIL=
200901090245 METAR LMML 090245Z 01005KT 6000 BKN004 14/14 Q1016 TEMPO
                        4000 BR=
200901090230 METAR LMML NIL=
200901090215 METAR LMML 090215Z VRB03KT 4000 BR BKN004 14/14 Q1016 NOSIG=
200901090200 METAR LMML NIL=
200901090145 METAR LMML 090145Z VRB03KT 6000 BKN004 14/14 Q1016 TEMPO
                        4000 BR=
200901090130 METAR LMML NIL=
200901090115 METAR LMML 090115Z 04004KT 010V070 6000 SCT003 SCT045 14/14
                        Q1016 TEMPO 4000 BR BKN003=
200901090100 METAR LMML NIL=
200901090045 METAR LMML 090045Z 04004KT 010V140 6000 SCT004 BKN008 15/15
                        Q1016 TEMPO 4000 BR BKN004=
200901090030 METAR LMML NIL=
200901090015 METAR LMML 090015Z 04005KT 010V070 6000 BKN004 15/14 Q1015
                        TEMPO 4000 BR=
200901090000 METAR LMML NIL=
200901082345 METAR LMML 082345Z 05004KT 010V090 5000 BR BKN004 14/14 Q1015
                        NOSIG=
200901082330 METAR LMML NIL=
200901082315 METAR LMML 082315Z 02004KT 360V060 4500 BR BKN003 SCT080
                        14/14 Q1016 TEMPO 2000 BR BKN002=
200901082300 METAR LMML NIL=
200901082245 METAR LMML 082245Z 01004KT 4500 BR BKN003 14/14 Q1016 TEMPO
                        2000 BR BKN002=
200901082230 METAR LMML NIL=
200901082215 METAR LMML 082215Z 33004KT 290V010 3500 BR SCT002 BKN005
                        14/14 Q1016 TEMPO BKN002=
200901082200 METAR LMML NIL=
200901082145 METAR LMML 082145Z 32004KT 300V360 2500 BR BKN005 13/13 Q1016
                        TEMPO 1500 BR BKN002=
200901082130 METAR LMML NIL=
200901082130 LMML 082130Z VRB03KT 2500S R14/0506V0697D BR FEW003 12/12
                        Q1016 TEMPO 1500 BR BKN002=
200901082115 METAR LMML 082115Z VRB03KT 4000 R14/0832VP1500U MIFG FEW003
                        13/13 Q1015 TEMPO 1500 BR BKN002
                        RMK LIGHTNING TO NW=
200901082100 METAR LMML NIL=
200901082045 METAR LMML 082045Z VRB02KT 6000 FEW003 13/12 Q1015 NOSIG=
200901082030 METAR LMML NIL=
200901082015 METAR LMML 082015Z VRB02KT 7000 FEW019 13/13 Q1015 NOSIG=
200901082000 METAR LMML NIL=
200901081945 METAR LMML 081945Z VRB02KT 7000 FEW019 13/13 Q1015 NOSIG=
200901081930 METAR LMML NIL=
200901081915 METAR LMML 081915Z 06004KT 7000 FEW022 14/14 Q1014 NOSIG=
200901081900 METAR LMML NIL=
200901081845 METAR LMML 081845Z VRB03KT 7000 FEW022 14/13 Q1014 NOSIG=
200901081830 METAR LMML NIL=
200901081815 METAR LMML 081815Z VRB03KT 7000 FEW017 14/14 Q1014 NOSIG=
200901081800 METAR LMML NIL=
200901081745 METAR LMML 081745Z 09004KT 7000 SCT019 13/13 Q1013 NOSIG=
200901081730 METAR LMML NIL=
200901081715 METAR LMML 081715Z VRB03KT 7000 SCT019 14/14 Q1013 NOSIG=
200901081700 METAR LMML NIL=
200901081645 METAR LMML 081645Z VRB03KT 7000 FEW017 15/14 Q1013 NOSIG=
200901081630 METAR LMML NIL=
200901081615 METAR LMML 081615Z 08005KT 7000 FEW017 15/14 Q1012 NOSIG=
200901081600 METAR LMML NIL=
200901081545 METAR LMML 081545Z 09005KT 050V110 9999 FEW018 16/14 Q1012
                        NOSIG=
200901081530 METAR LMML NIL=
200901081515 METAR LMML 081515Z 09005KT 060V120 9999 FEW020 16/14 Q1012
                        NOSIG=
200901081500 METAR LMML NIL=
200901081445 METAR LMML 081445Z 10006KT 060V130 9999 FEW014 17/14 Q1012
                        NOSIG=
200901081430 METAR LMML NIL=
200901081415 METAR LMML 081415Z 09007KT 050V120 9999 FEW013 SCT023 18/15
                        Q1012 NOSIG=
200901081400 METAR LMML NIL=
200901081345 METAR LMML 081345Z 11007KT 070V130 9999 FEW021 SCT250 18/15
                        Q1012 NOSIG=
200901081330 METAR LMML NIL=
200901081315 METAR LMML 081315Z 10009KT 070V130 9999 BKN021 17/15 Q1012
                        NOSIG=
200901081300 METAR LMML NIL=
200901081245 METAR LMML 081245Z 11011KT 9999 BKN022 17/14 Q1012 NOSIG=
200901081230 METAR LMML NIL=
200901081215 METAR LMML 081215Z 11011KT 9999 BKN023 17/14 Q1012 NOSIG=
200901081200 METAR LMML NIL=
200901081145 METAR LMML 081145Z 10012KT 070V140 9999 FEW023 17/14 Q1012
                        NOSIG=
200901081130 METAR LMML NIL=
200901081115 METAR LMML 081115Z 09012KT 060V130 9999 SCT028 17/15 Q1012
                        NOSIG=
200901081100 METAR LMML NIL=
200901081045 METAR LMML 081045Z 09012KT 060V120 9999 SCT030 17/14 Q1013
                        NOSIG=
200901081030 METAR LMML NIL=
200901081015 METAR LMML 081015Z 09011KT 060V120 9999 SCT027 17/15 Q1013
                        NOSIG=
200901081000 METAR LMML NIL=
200901080945 METAR LMML 080945Z 09009KT 060V120 9999 SCT027 16/14 Q1014
                        NOSIG=
200901080930 METAR LMML NIL=
200901080915 METAR LMML 080915Z 09009KT 9999 FEW026 SCT042 16/14 Q1014
                        NOSIG=
200901080900 METAR LMML NIL=
200901080845 METAR LMML 080845Z 09010KT 060V120 9999 FEW021 SCT042 16/14
                        Q1014 NOSIG=
200901080830 METAR LMML NIL=
200901080815 METAR LMML 080815Z 09006KT 060V120 9999 SCT022 BKN036 15/14
                        Q1014 NOSIG=
200901080800 METAR LMML NIL=
200901080745 METAR LMML 080745Z 09007KT 060V120 9999 BKN028 14/13 Q1014
                        NOSIG=
200901080730 METAR LMML NIL=
200901080715 METAR LMML 080715Z 08006KT 040V140 9999 BKN024 14/13 Q1014
                        NOSIG=
200901080700 METAR LMML NIL=
200901080645 METAR LMML 080645Z 08005KT 050V110 9999 BKN025 12/12 Q1014
                        NOSIG=
200901080630 METAR LMML NIL=
200901080615 METAR LMML 080615Z 08006KT 9999 FEW020 12/11 Q1014 NOSIG=
200901080600 METAR LMML NIL=
200901080545 METAR LMML 080545Z 07005KT CAVOK 11/11 Q1014 NOSIG=
200901080530 METAR LMML NIL=
200901080515 METAR LMML 080515Z 09005KT CAVOK 12/11 Q1014 NOSIG=
200901080500 METAR LMML NIL=
200901080445 METAR LMML 080445Z 09004KT 060V120 CAVOK 10/10 Q1014 NOSIG=
200901080430 METAR LMML NIL=
200901080415 METAR LMML 080415Z VRB03KT CAVOK 10/10 Q1014 NOSIG=
200901080400 METAR LMML NIL=
200901080345 METAR LMML 080345Z VRB02KT CAVOK 10/09 Q1014 NOSIG=
200901080330 METAR LMML NIL=
200901080315 METAR LMML 080315Z VRB02KT CAVOK 10/09 Q1014 NOSIG=
200901080300 METAR LMML NIL=
200901080245 METAR LMML 080245Z VRB03KT CAVOK 10/10 Q1015 NOSIG=
200901080230 METAR LMML NIL=
200901080215 METAR LMML 080215Z VRB01KT CAVOK 09/09 Q1015 NOSIG=
200901080200 METAR LMML NIL=
200901080145 METAR LMML 080145Z VRB01KT CAVOK 10/09 Q1015 NOSIG=
200901080130 METAR LMML NIL=
200901080115 METAR LMML 080115Z VRB02KT CAVOK 10/09 Q1015 NOSIG=
200901080100 METAR LMML NIL=
200901080045 METAR LMML 080045Z VRB03KT CAVOK 10/09 Q1015 NOSIG=
200901080030 METAR LMML NIL=
200901080015 METAR LMML 080015Z 14005KT CAVOK 09/09 Q1015 NOSIG=
200901080000 METAR LMML NIL=
200901072345 METAR LMML 072345Z 14005KT CAVOK 10/09 Q1015 NOSIG=
200901072330 METAR LMML NIL=
200901072315 METAR LMML 072315Z 14004KT CAVOK 11/09 Q1016 NOSIG=
200901072300 METAR LMML NIL=
200901072245 METAR LMML 072245Z 13004KT CAVOK 11/09 Q1016 NOSIG=
200901072230 METAR LMML NIL=
200901072215 METAR LMML 072215Z 15004KT CAVOK 10/09 Q1016 NOSIG=
200901072200 METAR LMML NIL=
200901072145 METAR LMML 072145Z VRB03KT CAVOK 10/09 Q1016 NOSIG=
200901072130 METAR LMML NIL=
200901072115 METAR LMML 072115Z 14004KT 9999 FEW016 BKN250 11/09 Q1016
                        NOSIG=
200901072100 METAR LMML NIL=
200901072045 METAR LMML 072045Z VRB03KT 9999 FEW030 SCT250 11/09 Q1016
                        NOSIG=
200901072030 METAR LMML NIL=
200901072015 METAR LMML 072015Z VRB03KT CAVOK 10/08 Q1016 NOSIG=
200901072000 METAR LMML NIL=
200901071945 METAR LMML 071945Z VRB03KT CAVOK 10/09 Q1016 NOSIG=
200901071930 METAR LMML NIL=
200901071915 METAR LMML 071915Z 17004KT CAVOK 11/09 Q1016 NOSIG=
200901071900 METAR LMML NIL=
200901071845 METAR LMML 071845Z VRB03KT CAVOK 10/08 Q1016 NOSIG=
200901071830 METAR LMML NIL=
200901071815 METAR LMML 071815Z VRB02KT CAVOK 10/08 Q1016 NOSIG=
200901071800 METAR LMML NIL=
200901071745 METAR LMML 071745Z VRB02KT CAVOK 11/09 Q1016 NOSIG=
200901071730 METAR LMML NIL=
200901071715 METAR LMML 071715Z VRB01KT CAVOK 12/08 Q1015 NOSIG=
200901071700 METAR LMML NIL=
200901071645 METAR LMML 071645Z VRB03KT CAVOK 13/08 Q1015 NOSIG=
200901071630 METAR LMML NIL=
200901071615 METAR LMML 071615Z VRB03KT 9999 FEW025 13/08 Q1015 NOSIG=
200901071606 LMML 071606Z VRB01KT 9999 FEW025 15/08 Q1015=
200901071600 METAR LMML NIL=
200901071545 METAR LMML 071545Z VRB01KT 9999 FEW025 15/08 Q1015 NOSIG=
200901071530 METAR LMML NIL=
200901071515 METAR LMML 071515Z VRB03KT 9999 FEW025 15/08 Q1015 NOSIG=
200901071500 METAR LMML NIL=
200901071445 METAR LMML 071445Z 23004KT 190V270 9999 FEW025 15/08 Q1015
                        NOSIG=
200901071430 METAR LMML NIL=
200901071415 METAR LMML 071415Z 23004KT 190V280 9999 FEW025 16/09 Q1015
                        NOSIG=
200901071400 METAR LMML NIL=
200901071345 METAR LMML 071345Z 24006KT 190V290 9999 FEW025 15/10 Q1015
                        NOSIG=
200901071330 METAR LMML NIL=
200901071315 METAR LMML 071315Z 22009KT 190V270 9999 FEW025 15/10 Q1015
                        NOSIG=
200901071300 METAR LMML NIL=
200901071245 METAR LMML 071245Z 21008KT 190V260 9999 FEW025 SCT060 15/11
                        Q1015 NOSIG=
200901071230 METAR LMML NIL=
200901071215 METAR LMML 071215Z 22006KT 190V270 9999 FEW025 SCT060 BKN080
                        14/11 Q1015 NOSIG=
200901071200 METAR LMML NIL=
200901071145 METAR LMML 071145Z VRB03KT 9999 FEW028 BKN060 13/11 Q1015
                        RERA NOSIG=
200901071130 METAR LMML NIL=
200901071115 METAR LMML 071115Z VRB03KT 9999 FEW015 BKN050 12/11 Q1016
                        RERA NOSIG=
200901071100 METAR LMML NIL=
200901071045 METAR LMML 071045Z VRB03KT 6000 RA FEW023 BKN060 12/11 Q1016
                        NOSIG=
200901071030 METAR LMML NIL=
200901071015 METAR LMML 071015Z 17004KT 140V200 9999 FEW025 BKN060 12/11
                        Q1016 NOSIG=
200901071000 METAR LMML NIL=
200901070945 METAR LMML 070945Z VRB03KT 9999 FEW025 BKN060 12/11 Q1016
                        TEMPO 8000 RA=
200901070930 METAR LMML NIL=
200901070915 METAR LMML 070915Z 19004KT 150V250 9000 -RA FEW021 BKN035
                        OVC100 12/10 Q1017 NOSIG=
200901070900 METAR LMML NIL=
200901070845 METAR LMML 070845Z 18004KT 150V220 9000 FEW024 BKN038 OVC100
                        12/10 Q1017 RERA NOSIG=
200901070830 METAR LMML NIL=
200901070815 METAR LMML 070815Z VRB03KT 9999 FEW023 BKN047 BKN100 11/10
                        Q1016 RERA TEMPO 8000 RA=
200901070800 METAR LMML NIL=
200901070745 METAR LMML 070745Z VRB03KT 7000 RA FEW022 BKN040 11/10 Q1016
                        NOSIG=
200901070730 METAR LMML NIL=
200901070715 METAR LMML 070715Z 20005KT 170V250 7000 RA FEW024 OVC035
                        11/10 Q1016 BECMG 9999=
200901070700 METAR LMML NIL=
200901070645 METAR LMML 070645Z 19006KT 160V240 7000 -RA FEW025 BKN041
                        BKN080 12/09 Q1016 NOSIG=
200901070630 METAR LMML NIL=
200901070615 METAR LMML 070615Z 17005KT 9999 FEW025 BKN048 BKN100 13/07
                        Q1015 TEMPO 8000 RA=
200901070600 METAR LMML NIL=
200901070545 METAR LMML 070545Z 18005KT 150V210 9999 FEW038 BKN100 12/07
                        Q1015 NOSIG=
200901070515 METAR LMML 070515Z 18006KT 100V210 9999 FEW038 SCT100 12/07
                        Q1015 NOSIG=
200901070500 METAR LMML NIL=
200901070445 METAR LMML 070445Z 17005KT 9999 FEW038 SCT060 12/07 Q1015
                        NOSIG=
200901070430 METAR LMML NIL=
200901070415 METAR LMML 070415Z 18004KT 9999 FEW035 SCT100 11/06 Q1015
                        NOSIG=
200901070400 METAR LMML NIL=
200901070345 METAR LMML 070345Z 18005KT CAVOK 11/06 Q1015 NOSIG=
200901070330 METAR LMML NIL=
200901070315 METAR LMML 070315Z 18004KT CAVOK 11/07 Q1016 NOSIG=
200901070300 METAR LMML NIL=
200901070245 METAR LMML 070245Z 17004KT CAVOK 11/07 Q1015 NOSIG=
200901070230 METAR LMML NIL=
200901070215 METAR LMML 070215Z 18004KT CAVOK 11/07 Q1016 NOSIG=
200901070200 METAR LMML NIL=
200901070145 METAR LMML 070145Z VRB03KT CAVOK 10/07 Q1016 NOSIG=
200901070130 METAR LMML NIL=
200901070115 METAR LMML 070115Z VRB02KT CAVOK 10/07 Q1016 NOSIG=
200901070100 METAR LMML NIL=
200901070045 METAR LMML 070045Z VRB02KT CAVOK 10/07 Q1016 NOSIG=
200901070030 METAR LMML NIL=
200901070015 METAR LMML 070015Z VRB03KT 9999 FEW035 BKN060 10/07 Q1016
                        NOSIG=
200901070000 METAR LMML NIL=
200901062345 METAR LMML 062345Z VRB03KT 9999 FEW035 SCT060 10/07 Q1016
                        NOSIG=
200901062330 METAR LMML NIL=
200901062315 METAR LMML 062315Z VRB03KT 9999 SCT035 10/07 Q1016 NOSIG=
200901062300 METAR LMML NIL=
200901062245 METAR LMML 062245Z VRB03KT 9999 SCT036 10/08 Q1016 NOSIG=
200901062230 METAR LMML NIL=
200901062215 METAR LMML 062215Z VRB02KT 9999 SCT036 11/08 Q1016 NOSIG=
200901062200 METAR LMML NIL=
200901062145 METAR LMML 062145Z 17004KT 9999 FEW035 SCT060 10/08 Q1017
                        NOSIG=
200901062130 METAR LMML NIL=
200901062115 METAR LMML 062115Z VRB02KT 9999 FEW038 SCT060 10/08 Q1017
                        NOSIG=
200901062100 METAR LMML NIL=
200901062045 METAR LMML 062045Z VRB02KT 9999 FEW038 SCT060 11/08 Q1017
                        NOSIG=
200901062030 METAR LMML NIL=
200901062015 METAR LMML 062015Z VRB02KT 9999 SCT035 BKN060 10/08 Q1017
                        NOSIG=
200901062000 METAR LMML NIL=
200901061945 METAR LMML 061945Z VRB01KT 9999 SCT035 BKN070 10/08 Q1017
                        NOSIG=
200901061930 METAR LMML NIL=
200901061915 METAR LMML 061915Z 22004KT 190V250 9999 SHRA SCT033 BKN060
                        10/08 Q1017 TEMP0 9000 SHRA=
200901061900 METAR LMML NIL=
200901061845 METAR LMML 061845Z VRB01KT 9999 FEW039 SCT050 10/08 Q1016
                        TEMPO 8000 SHRA=
200901061830 METAR LMML NIL=
200901061815 METAR LMML 061815Z VRB01KT 9999 FEW025 10/08 Q1016 NOSIG=
200901061800 METAR LMML NIL=
200901061745 METAR LMML 061745Z 00000KT 9999 FEW025 10/08 Q1016 NOSIG=
200901061730 METAR LMML NIL=
200901061715 METAR LMML 061715Z VRB01KT 9999 FEW030 11/08 Q1015 NOSIG=
200901061700 METAR LMML NIL=
200901061645 METAR LMML 061645Z VRB01KT 9999 FEW030 11/07 Q1015 NOSIG=
200901061630 METAR LMML NIL=
200901061615 METAR LMML 061615Z VRB01KT 9999 FEW030 12/07 Q1015 NOSIG=
200901061600 METAR LMML NIL=
200901061545 METAR LMML 061545Z VRB03KT 9999 FEW031 12/07 Q1015 NOSIG=
200901061530 METAR LMML NIL=
200901061515 METAR LMML 061515Z 30004KT 9999 FEW031 13/07 Q1015 NOSIG=
200901061500 METAR LMML NIL=
200901061445 METAR LMML 061445Z 32006KT 9999 SCT031 14/08 Q1015 NOSIG=
200901061430 METAR LMML NIL=
200901061415 METAR LMML 061415Z 31004KT 9999 BKN031 14/08 Q1015 NOSIG=
200901061400 METAR LMML NIL=
200901061345 METAR LMML 061345Z 29006KT 9999 SCT034 13/07 Q1015 NOSIG=
200901061330 METAR LMML NIL=
200901061315 METAR LMML 061315Z 30008KT 9999 SCT034 14/07 Q1014 NOSIG=
200901061300 METAR LMML NIL=
200901061245 METAR LMML 061245Z 29006KT 270V340 9999 BKN034 13/07 Q1014
                        NOSIG=
200901061230 METAR LMML NIL=
200901061215 METAR LMML 061215Z 30005KT 230V340 9999 BKN033 13/07 Q1015
                        NOSIG=
200901061200 METAR LMML NIL=
200901061145 METAR LMML 061145Z 28004KT 220V320 9999 BKN037 14/07 Q1015
                        NOSIG=
200901061130 METAR LMML NIL=
200901061115 METAR LMML 061115Z 32004KT 270V360 9999 SCT035 14/07 Q1015
                        NOSIG=
200901061100 METAR LMML NIL=
200901061045 METAR LMML 061045Z 32007KT 280V350 9999 FEW033 14/07 Q1015
                        NOSIG=
200901061030 METAR LMML NIL=
200901061015 METAR LMML 061015Z 33006KT 300V360 9999 SCT030 14/08 Q1015
                        NOSIG=
200901061000 METAR LMML NIL=
200901060945 METAR LMML 060945Z 32007KT 280V350 9999 SCT029 13/08 Q1016
                        NOSIG=
200901060930 METAR LMML NIL=
200901060915 METAR LMML 060915Z 33004KT 260V360 9999 SCT030 14/08 Q1015
                        NOSIG=
200901060900 METAR LMML NIL=
200901060845 METAR LMML 060845Z VRB03KT 9999 FEW030 13/09 Q1015 NOSIG=
200901060830 METAR LMML NIL=
200901060815 METAR LMML 060815Z VRB03KT 9999 FEW030 12/08 Q1015 NOSIG=
200901060800 METAR LMML NIL=
200901060745 METAR LMML 060745Z 30005KT 9999 FEW030 11/07 Q1015 NOSIG=
200901060730 METAR LMML NIL=
200901060715 METAR LMML 060715Z 29006KT 9999 FEW030 10/05 Q1014 NOSIG=
200901060700 METAR LMML NIL=
200901060645 METAR LMML 060645Z 26004KT 9999 FEW030 08/07 Q1014 NOSIG=
200901060630 METAR LMML NIL=
200901060615 METAR LMML 060615Z 27004KT 240V300 9999 FEW030 09/07 Q1013
                        NOSIG=
200901060545 METAR LMML 060545Z 28004KT 9999 FEW036 09/07 Q1013 NOSIG=
200901060530 METAR LMML NIL=
200901060515 METAR LMML 060515Z VRB03KT 9999 FEW036 09/07 Q1013 NOSIG=
200901060500 METAR LMML NIL=
200901060445 METAR LMML 060445Z 28004KT 250V310 9999 FEW036 09/07 Q1013
                        NOSIG=
200901060430 METAR LMML NIL=
200901060415 METAR LMML 060415Z 28004KT 9999 FEW036 10/07 Q1013 NOSIG=
200901060400 METAR LMML NIL=
200901060345 METAR LMML 060345Z 29004KT 9999 FEW030 09/07 Q1013 NOSIG=
200901060330 METAR LMML NIL=
200901060315 METAR LMML 060315Z VRB03KT 9999 FEW036 SCT060 09/07 Q1012
                        TEMPO 9000 SHRA BKN012=
200901060300 METAR LMML NIL=
200901060245 METAR LMML 060245Z 29004KT 9999 SCT036 BKN060 10/08 Q1013
                        TEMPO 9000 SHRA BKN012=
200901060230 METAR LMML NIL=
200901060215 METAR LMML 060215Z 30005KT 270V330 9999 SCT021 BKN060 10/09
                        Q1013 TEMPO 9000 SHRA BKN012=
200901060200 METAR LMML NIL=
200901060145 METAR LMML 060145Z VRB03KT 9999 -SHRA FEW022 FEW036 SCT049
                        10/09 Q1012 TEMPO 9000 SHRA BKN012=
200901060130 METAR LMML NIL=
200901060115 METAR LMML 060115Z 30005KT 270V330 9999 -SHRA BKN019 10/09
                        Q1012 TEMPO 9000 SHRA BKN012=
200901060100 METAR LMML NIL=
200901060045 METAR LMML 060045Z 30005KT 9999 BKN019 11/09 Q1012 TEMPO
                        9000 SHRA BKN012=
200901060030 METAR LMML NIL=
200901060015 METAR LMML 060015Z 30005KT 270V350 9999 -SHRA BKN018 11/09
                        Q1012 TEMPO 9000 SHRA BKN012=
200901060000 METAR LMML NIL=
200901052345 METAR LMML 052345Z 01005KT 340V070 9999 BKN022 11/09 Q1012
                        TEMPO 9000 SHRA BKN012=
200901052330 METAR LMML NIL=
200901052315 METAR LMML 052315Z 35006KT 9999 BKN018 11/09 Q1011 TEMPO
                        9000 SHRA BKN012=
200901052300 METAR LMML NIL=
200901052245 METAR LMML 052245Z 36008KT 9999 BKN019 11/09 Q1011 TEMPO
                        9000 SHRA BKN012=
200901052230 METAR LMML NIL=
200901052215 METAR LMML 052215Z 01007KT 9999 SCT015 BKN022 11/09 Q1011
                        TEMPO 9000 SHRA BKN012=
200901052200 METAR LMML NIL=
200901052145 METAR LMML 052145Z 36011KT 9999 BKN018 11/09 Q1011 TEMPO
                        9000 SHRA BKN012=
200901052130 METAR LMML NIL=
200901052115 METAR LMML 052115Z 36012KT 9999 BKN017 11/09 Q1011 NOSIG=
200901052100 METAR LMML NIL=
200901052045 METAR LMML 052045Z 01014G25KT 330V030 9999 FEW013 BKN021
                        11/09 Q1011 NOSIG=
200901052030 METAR LMML NIL=
200901052015 METAR LMML 052015Z 01012KT 330V030 9999 SCT013 BKN019 11/10
                        Q1010 NOSIG=
200901052000 METAR LMML NIL=
200901051945 METAR LMML 051945Z 36016KT 9999 SCT011 BKN017 11/10 Q1010
                        NOSIG=
200901051930 METAR LMML NIL=
200901051915 METAR LMML 051915Z 35014KT 320V030 9000 FEW005 BKN008 BKN012
                        11/11 Q1010 NOSIG=
200901051900 METAR LMML NIL=
200901051845 METAR LMML 051845Z 34017KT 9000 SHRA SCT005 BKN009 BKN017
                        11/10 Q1009 NOSIG=
200901051830 METAR LMML NIL=
200901051815 METAR LMML 051815Z 36015KT 9999 BKN010 BKN014 12/11 Q1009
                        NOSIG=
200901051800 METAR LMML NIL=
200901051745 METAR LMML 051745Z 36016KT 9999 BKN011 12/11 Q1008 NOSIG=
200901051730 METAR LMML NIL=
200901051715 METAR LMML 051715Z 02012KT 9999 BKN012 12/11 Q1008 BECMG
                        SCT015=
200901051700 METAR LMML NIL=
200901051645 METAR LMML 051645Z 01010KT 340V050 9999 FEW010 BKN013 12/11
                        Q1007 BECMG SCT015=
200901051630 METAR LMML NIL=
200901051615 METAR LMML 051615Z 01009KT 9000 FEW010 BKN014 12/11 Q1007
                        BECMG SCT015=
200901051600 METAR LMML NIL=
200901051545 METAR LMML 051545Z 01007KT 6000 -SHRA FEW007 BKN012 12/11
                        Q1007 BECMG 9000 SCT015=
200901051530 METAR LMML NIL=
200901051515 METAR LMML 051515Z 01007KT 330V050 6000 -SHRA BKN014 BKN250
                        12/11 Q1006 BECMG 9000 SCT015=
200901051500 METAR LMML NIL=
200901051445 METAR LMML 051445Z 04007KT 230V090 6000 BKN018 BKN250 13/10
                        Q1006 TEMPO 8000 SHRA=
200901051415 METAR LMML 051415Z 04006KT 360V110 9999 SCT016 BKN250 14/10
                        Q1006 TEMPO 8000 SHRA=
200901051400 METAR LMML NIL=
200901051345 METAR LMML 051345Z 05005KT 360V090 9999 FEW021 SCT070 BKN250
                        14/10 Q1006 NOSIG=
200901051330 METAR LMML NIL=
200901051315 METAR LMML 051315Z 04005KT 010V080 9999 FEW018 SCT120 BKN250
                        14/10 Q1006 NOSIG=
200901051300 METAR LMML NIL=
200901051245 METAR LMML 051245Z 05005KT 360V090 9999 FEW025 SCT130 BKN250
                        14/11 Q1006 NOSIG=
200901051230 METAR LMML NIL=
200901051215 METAR LMML 051215Z 04005KT 340V090 9999 FEW025 SCT130 BKN250
                        12/10 Q1006 NOSIG=
200901051200 METAR LMML NIL=
200901051145 METAR LMML 051145Z 03005KT 320V070 9999 FEW025 BKN130 11/10
                        Q1006 NOSIG=
200901051130 METAR LMML NIL=
200901051115 METAR LMML 051115Z 02005KT 9000 SHRA SCT026 BKN130 10/09
                        Q1007 RESHGS NOSIG=
200901051100 METAR LMML NIL=
200901051045 METAR LMML 051045Z 36009KT 2000 -SHGS FEW010 BKN018TCU 11/09
                        Q1007 BECMG 6000 SHRA BKN011=
200901051038 LMML 051038Z 36010KT 330V030 4000 SHRA FEW010 BKN019 11/09
                        Q1007 NOSIG=
200901051030 METAR LMML NIL=
200901051015 METAR LMML 051015Z 30004KT 9000 FEW010 BKN017TCU 14/12 Q1007
                        BECMG 6000 SHRA BKN011=
200901051000 METAR LMML NIL=
200901050945 METAR LMML 050945Z 35011KT 9000 BKN011TCU 13/12 Q1007 BECMG
                        SCT013=
200901050930 METAR LMML NIL=
200901050915 LMML 050915Z 36005KT 320V080 6000 SHRA BKN011 12/12 Q1007
                        BECMG 8000 SHRA SCT011=
200901050900 METAR LMML NIL=
200901050845 METAR LMML 050845Z 11007KT 060V150 4000 SHRA BKN011 BKN100
                        13/11 Q1007 TEMPO 5000 TSRA BKN15CB=
200901050830 METAR LMML NIL=
200901050815 METAR LMML 050815Z 09008KT 060V120 7000 BKN011 BKN100 13/12
                        Q1007 TEMPO 5000 TSRA BKN15CB=
200901050800 METAR LMML NIL=
200901050745 METAR LMML 050745Z 09006KT 9999 SCT012 SCT050 BKN110 13/12
                        Q1007 TEMPO TS SCT015CB=
200901050730 METAR LMML NIL=
200901050715 METAR LMML 050715Z VRB03KT 9999 SCT012 SCT050 BKN110 12/11
                        Q1008 TEMPO 7000 SHRA=
200901050700 METAR LMML NIL=
200901050645 METAR LMML 050645Z VRB03KT 9999 SCT020 BKN110 BKN250 12/11
                        Q1007 TEMPO 7000 SHRA=
200901050630 LMML NIL=
200901050615 METAR LMML 050615Z VRB03KT 9999 FEW012CB BKN080 BKN250 12/11
                        Q1007 NOSIG=
200901050600 METAR LMML NIL=
200901050545 METAR LMML 050545Z 09004KT 9999 -RA SCT012CB SCT070 BKN250
                        12/11 Q1007 TEMPO 8000 SHRA BKN013=
200901050530 METAR LMML NIL=
200901050515 METAR LMML 050515Z 03010KT 9999 -TSRA BKN012CB 12/12 Q1007
                        TEMPO 8000 SHRA BKN013=
200901050445 METAR LMML 050445Z 36009KT 7000 -TSRA BKN012CB 12/12 Q1008
                        TEMPO 3000 TSRA BKN012CB=
200901050430 METAR LMML NIL=
200901050415 METAR LMML 050415Z 06010KT 7000 -TSRA BKN012CB 12/12 Q1007
                        TEMPO 3000 TSRA BKN012CB=
200901050345 METAR LMML 050345Z 04010KT 9000 -TSRA BKN012CB 12/12 Q1007
                        TEMPO 4000 TSRA BKN012CB=
200901050330 METAR LMML NIL=
200901050315 METAR LMML 050315Z 04010KT 6000 -TSRA BKN012CB 12/12 Q1007
                        NOSIG=
200901050300 METAR LMML NIL=
200901050245 METAR LMML 050245Z 36012KT 6000 -TSRA BKN012CB 12/12 Q1008
                        NOSIG=
200901050230 METAR LMML NIL=
200901050215 METAR LMML 050215Z 36012KT 6000 -TSRA BKN012CB 12/12 Q1009
                        NOSIG=
200901050200 METAR LMML NIL=
200901050145 LMML 050145Z 05015KT 8000 -TSRA BKN012 SCT015CB 12/12 Q1009
                        NOSIG=
200901050130 METAR LMML NIL=
200901050115 METAR LMML 050115Z 33010KT 300V360 3000 TSRA SCT005 BKN015CB
                        12/12 Q1009 NOSIG=
200901050100 METAR LMML NIL=
200901050045 METAR LMML 050045Z VRB02KT 7000 -TSRA FEW014 FEW017CB BKN050
                        12/12 Q1009 TEMPO 4000 TSRA BKN013CB=
200901050030 METAR LMML NIL=
200901050015 METAR LMML 050015Z 12004KT 6000 -TSRA SCT010 SCT015CB BKN035
                        13/12 Q1009 TEMPO 2000 TSRA BKN013CB=
200901050000 METAR LMML NIL=
200901042345 METAR LMML 042345Z VRB03KT 6000 RA SCT010 BKN014 12/11 Q1010
                        NOSIG=
200901042330 METAR LMML NIL=
200901042315 METAR LMML 042315Z 08006KT 060V120 9999 FEW015 BKN018 13/11
                        Q1010 TEMPO 8000 SHRA BKN015=
200901042300 METAR LMML NIL=
200901042245 METAR LMML 042245Z 08005KT 9999 FEW018 BKN020 12/11 Q1010
                        TEMPO 8000 SHRA BKN015=
200901042230 METAR LMML NIL=
200901042215 METAR LMML 042215Z 08004KT 9999 BKN020 12/11 Q1011 TEMPO
                        8000 SHRA BKN015=
200901042200 METAR LMML NIL=
200901042145 METAR LMML 042145Z VRB03KT 9999 -SHRA BKN024 BKN050 13/11
                        Q1011 NOSIG=
200901042130 METAR LMML NIL=
200901042115 METAR LMML 042115Z VRB03KT 9999 FEW027 BKN050 12/11 Q1012
                        NOSIG=
200901042100 METAR LMML NIL=
200901042045 METAR LMML 042045Z VRB03KT 9999 FEW024 BKN039 BKN080 12/10
                        Q1012 NOSIG=
200901042030 METAR LMML NIL=
200901042015 METAR LMML 042015Z VRB03KT 9999 FEW024 SCT045 BKN080 12/10
                        Q1012 NOSIG=
200901042000 METAR LMML NIL=
200901041945 METAR LMML 041945Z VRB02KT 9999 FEW024 SCT045 BKN080 13/10
                        Q1012 TEMPO 8000 SHRA=
200901041930 METAR LMML NIL=
200901041915 METAR LMML 041915Z VRB01KT 9999 -SHRA SCT024 SCT047 BKN070
                        13/10 Q1013 TEMPO 8000 SHRA=
200901041900 METAR LMML NIL=
200901041845 METAR LMML 041845Z VRB02KT 9999 -RA FEW024 SCT050 BKN080
                        13/10 Q1013 TEMPO 8000 SHRA=
200901041815 METAR LMML 041815Z VRB01KT 9999 FEW027 SCT060 BKN080 13/09
                        Q1013 NOSIG=
200901041800 METAR LMML NIL=
200901041745 METAR LMML 041745Z VRB01KT 9999 FEW035 SCT050 BKN080 13/09
                        Q1013 NOSIG=
200901041730 METAR LMML NIL=
200901041715 METAR LMML 041715Z VRB01KT 9999 FEW035 SCT050 BKN080 13/09
                        Q1013 NOSIG=
200901041645 METAR LMML 041645Z VRB01KT 9999 FEW035 BKN070 13/09 Q1012
                        NOSIG=
200901041630 METAR LMML NIL=
200901041615 METAR LMML 041615Z VRB03KT 9999 FEW036 BKN070 13/09 Q1013
                        NOSIG=
200901041600 METAR LMML NIL=
200901041545 METAR LMML 041545Z 28004KT 9999 -RA FEW035 BKN070 14/09 Q1013
                        NOSIG=
200901041530 METAR LMML NIL=
200901041515 METAR LMML 041515Z 28004KT 240V300 9999 FEW025 SCT060 BKN090
                        14/09 Q1012 NOSIG=
200901041445 METAR LMML 041445Z 28004KT 250V310 9999 FEW028 BKN120 BKN250
                        14/08 Q1013 NOSIG=
200901041430 METAR LMML NIL=
200901041415 METAR LMML 041415Z 27006KT 250V310 9999 FEW028 BKN120 BKN250
                        15/09 Q1012 NOSIG=
200901041400 METAR LMML NIL=
200901041345 METAR LMML 041345Z 29006KT 260V320 9999 SCT028 SCT120 BKN250
                        14/09 Q1013 NOSIG=
200901041330 METAR LMML NIL=
200901041315 METAR LMML 041315Z 26008KT 230V310 9999 SCT029 BKN250 15/09
                        Q1013 NOSIG=
200901041245 METAR LMML 041245Z 29010KT 250V310 9999 FEW032 BKN250 15/09
                        Q1013 NOSIG=
200901041230 METAR LMML NIL=
200901041215 METAR LMML 041215Z 27008KT 220V310 9999 FEW031 BKN250 15/08
                        Q1013 NOSIG=
200901041200 METAR LMML NIL=
200901041145 METAR LMML 041145Z 27008KT 210V310 9999 FEW029 BKN250 15/09
                        Q1013 NOSIG=
200901041130 METAR LMML NIL=
200901041115 METAR LMML 041115Z 29010KT 250V320 9999 FEW031 BKN250 15/09
                        Q1014 NOSIG=
200901041100 METAR LMML NIL=
200901041045 METAR LMML 041045Z 27009KT 240V310 9999 FEW031 BKN250 15/08
                        Q1014 NOSIG=
200901041030 METAR LMML NIL=
200901041015 METAR LMML 041015Z 28009KT 240V330 9999 FEW034 BKN250 15/08
                        Q1014 NOSIG=
200901041000 METAR LMML NIL=
200901040945 METAR LMML 040945Z 27009KT 230V300 9999 FEW036 BKN250 15/08
                        Q1014 NOSIG=
200901040930 METAR LMML NIL=
200901040915 METAR LMML 040915Z 28008KT 220V320 9999 FEW032 SCT250 15/09
                        Q1014 NOSIG=
200901040900 METAR LMML NIL=
200901040845 METAR LMML 040845Z 28010KT 9999 FEW025 SCT250 14/09 Q1014
                        NOSIG=
200901040830 METAR LMML NIL=
200901040815 METAR LMML 040815Z 29007KT 250V310 9999 FEW025 SCT250 14/10
                        Q1014 NOSIG=
200901040800 METAR LMML NIL=
200901040745 METAR LMML 040745Z 28005KT 240V310 9999 FEW025 14/10 Q1014
                        NOSIG=
200901040730 METAR LMML NIL=
200901040715 METAR LMML 040715Z 28005KT 240V300 9999 FEW030 12/09 Q1014
                        NOSIG=
200901040700 METAR LMML NIL=
200901040645 METAR LMML 040645Z 29004KT 9999 FEW028 SCT250 11/08 Q1013
                        NOSIG=
200901040630 METAR LMML NIL=
200901040615 METAR LMML 040615Z 28006KT 250V310 9999 FEW028 SCT250 12/09
                        Q1013 NOSIG=
200901040600 METAR LMML NIL=
200901040545 METAR LMML 040545Z 29007KT 9999 FEW030 12/09 Q1013 NOSIG=
200901040515 METAR LMML 040515Z 28007KT 9999 SCT025 12/08 Q1013 NOSIG=
200901040500 METAR LMML NIL=
200901040445 METAR LMML 040445Z 28007KT 250V310 9999 FEW025 12/08 Q1013
                        NOSIG=
200901040430 METAR LMML NIL=
200901040415 METAR LMML 040415Z 29009KT 270V330 9999 FEW021 12/08 Q1013
                        NOSIG=
200901040400 METAR LMML NIL=
200901040345 METAR LMML 040345Z 28007KT 250V310 9999 FEW021 12/09 Q1013
                        NOSIG=
200901040330 METAR LMML NIL=
200901040315 METAR LMML 040315Z 28006KT 250V310 9999 SCT021 12/09 Q1013
                        NOSIG=
200901040300 METAR LMML NIL=
200901040245 METAR LMML 040245Z 28007KT 250V310 9999 SCT023 12/09 Q1013
                        NOSIG=
200901040230 METAR LMML NIL=
200901040215 METAR LMML 040215Z 27006KT 240V310 9999 SCT022 12/09 Q1013
                        NOSIG=
200901040200 METAR LMML NIL=
200901040145 METAR LMML 040145Z 28005KT 9999 FEW022 12/09 Q1013 NOSIG=
200901040130 METAR LMML NIL=
200901040115 METAR LMML 040115Z 27006KT 240V300 9999 FEW022 12/09 Q1013
                        NOSIG=
200901040100 METAR LMML NIL=
200901040045 METAR LMML 040045Z 29010KT 9999 SCT022 13/09 Q1013 NOSIG=
200901040030 METAR LMML NIL=
200901040015 METAR LMML 040015Z 28008KT 9999 SCT022 13/10 Q1013 NOSIG=
200901040000 METAR LMML NIL=
200901032345 METAR LMML 032345Z 29009KT 9999 SCT025 12/10 Q1013 NOSIG=
200901032330 METAR LMML NIL=
200901032315 METAR LMML 032315Z 28008KT 9999 SCT025 13/10 Q1013 NOSIG=
200901032300 METAR LMML NIL=
200901032245 METAR LMML 032245Z 28007KT 9999 SCT022 12/10 Q1013 NOSIG=
200901032230 METAR LMML NIL=
200901032215 METAR LMML 032215Z 28008KT 250V310 9999 FEW022 13/10 Q1013
                        NOSIG=
200901032200 METAR LMML NIL=
200901032145 METAR LMML 032145Z 28009KT 250V310 9999 SCT025 13/10 Q1014
                        NOSIG=
200901032130 METAR LMML NIL=
200901032115 METAR LMML 032115Z 28006KT 9999 SCT022 12/11 Q1013 TEMPO
                        8000 SHRA=
200901032100 METAR LMML NIL=
200901032045 LMML 032045Z 28006KT 250V310 9999 FEW025 SCT090 12/11 Q1013
                        RESHRA TEMPO 8000 SHRA=
200901032030 METAR LMML NIL=
200901032015 METAR LMML 032015Z 28008KT 9999 SHRA BKN035 SCT100 13/11
                        Q1013 TEMPO 8000 SHRA=
200901032000 METAR LMML NIL=
200901031945 METAR LMML 031945Z 28008KT 240V310 9999 -SHRA SCT032 SCT070
                        13/11 Q1013 TEMPO 8000 SHRA=
200901031930 METAR LMML NIL=
200901031915 METAR LMML 031915Z 28008KT 9999 FEW026 SCT100 13/09 Q1013
                        TEMPO 8000 SHRA=
200901031900 METAR LMML NIL=
200901031845 METAR LMML 031845Z 28007KT 9999 FEW024 SCT100 13/10 Q1013
                        TEMPO 8000 SHRA=
200901031830 METAR LMML NIL=
200901031815 METAR LMML 031815Z 28007KT 250V320 9999 FEW032 SCT100 13/10
                        Q1013 NOSIG=
200901031800 METAR LMML NIL=
200901031745 METAR LMML 031745Z 28006KT 250V310 9999 FEW024 13/11 Q1013
                        NOSIG=
200901031730 METAR LMML NIL=
200901031715 METAR LMML 031715Z 28010KT 9999 FEW025 SCT060 14/11 Q1013
                        TEMPO 8000 SHRA=
200901031700 METAR LMML NIL=
200901031645 METAR LMML 031645Z 28007KT 9999 FEW025 SCT060 14/10 Q1013
                        TEMPO 8000 SHRA=
200901031630 METAR LMML NIL=
200901031615 METAR LMML 031615Z 28007KT 250V310 9999 FEW020 14/10 Q1013
                        NOSIG=
200901031600 METAR LMML NIL=
200901031545 METAR LMML 031545Z 29010KT 260V320 9999 FEW020 14/10 Q1013
                        NOSIG=
200901031530 METAR LMML NIL=
200901031515 METAR LMML 031515Z 28010KT 250V310 9999 FEW020 14/10 Q1013
                        NOSIG=
200901031500 METAR LMML NIL=
200901031445 METAR LMML 031445Z 29010KT 250V320 9999 FEW022 15/11 Q1013
                        NOSIG=
200901031430 METAR LMML NIL=
200901031415 METAR LMML 031415Z 29013KT 260V320 9999 FEW019 15/11 Q1012
                        NOSIG=
200901031400 METAR LMML NIL=
200901031345 METAR LMML 031345Z 28012KT 250V310 9999 FEW019 15/11 Q1012
                        NOSIG=
200901031330 METAR LMML NIL=
200901031315 METAR LMML 031315Z 29012KT 9999 SCT018 16/12 Q1012 NOSIG=
200901031300 METAR LMML NIL=
200901031245 METAR LMML 031245Z 27011KT 230V300 9999 SCT018 16/12 Q1012
                        NOSIG=
200901031230 METAR LMML NIL=
200901031215 METAR LMML 031215Z 26011KT 220V290 9999 FEW019 17/12 Q1012
                        NOSIG=
200901031200 METAR LMML NIL=
200901031145 METAR LMML 031145Z 25011KT 200V280 9999 FEW020 17/12 Q1013
                        NOSIG=
200901031130 METAR LMML NIL=
200901031115 METAR LMML 031115Z 25011KT 210V300 9999 FEW020 17/13 Q1013
                        NOSIG=
200901031100 METAR LMML NIL=
200901031045 METAR LMML 031045Z 25008KT 200V290 9999 SCT015 17/13 Q1013
                        NOSIG=
200901031030 METAR LMML NIL=
200901031015 METAR LMML 031015Z 23011KT 200V270 9999 SCT017 SCT120 17/13
                        Q1013 NOSIG=
200901031000 METAR LMML NIL=
200901030945 METAR LMML 030945Z 23011KT 190V270 9999 FEW018 BKN120 17/13
                        Q1014 NOSIG=
200901030930 METAR LMML NIL=
200901030915 METAR LMML 030915Z 24007KT 200V290 9999 FEW020 BKN120 17/13
                        Q1014 NOSIG=
200901030900 METAR LMML NIL=
200901030845 METAR LMML 030845Z 23007KT 190V260 9999 FEW020 BKN120 17/12
                        Q1014 NOSIG=
200901030830 METAR LMML NIL=
200901030815 METAR LMML 030815Z 23007KT 190V270 9999 FEW020 BKN120 16/12
                        Q1014 NOSIG=
200901030800 METAR LMML NIL=
200901030745 METAR LMML 030745Z 22006KT 9999 FEW020 BKN120 BKN250 16/12
                        Q1014 NOSIG=
200901030730 METAR LMML NIL=
200901030715 METAR LMML 030715Z 22007KT 190V270 9999 FEW020 BKN120 BKN250
                        16/12 Q1014 NOSIG=
200901030700 METAR LMML NIL=
200901030645 METAR LMML 030645Z 23008KT 190V270 CAVOK 15/12 Q1014 NOSIG=
200901030630 METAR LMML NIL=
200901030615 METAR LMML 030615Z 22007KT 190V260 9999 FEW020 BKN120 BKN250
                        15/12 Q1014 NOSIG=
200901030600 METAR LMML NIL=
200901030545 METAR LMML 030545Z 22006KT 190V280 9999 FEW020 SCT120 BKN250
                        15/12 Q1014 NOSIG=
200901030530 METAR LMML NIL=
200901030515 METAR LMML 030515Z 22007KT 190V270 9999 FEW020 BKN120 BKN250
                        15/11 Q1014 NOSIG=
200901030500 METAR LMML NIL=
200901030445 METAR LMML 030445Z 22007KT 190V260 9999 FEW020 BKN100 BKN250
                        15/12 Q1014 NOSIG=
200901030430 LMML NIL=
200901030415 METAR LMML 030415Z 23008KT 200V270 9999 FEW020 BKN120 BKN250
                        15/11 Q1014 NOSIG=
200901030400 METAR LMML NIL=
200901030345 METAR LMML 030345Z 22006KT 200V260 9999 FEW020 SCT120 BKN250
                        15/12 Q1014 NOSIG=
200901030315 METAR LMML 030315Z 22007KT 190V260 9999 FEW020 BKN120 BKN250
                        15/10 Q1014 NOSIG=
200901030300 METAR LMML NIL=
200901030245 METAR LMML 030245Z 23008KT 9999 FEW020 SCT120 BKN250 15/10
                        Q1015 NOSIG=
200901030230 METAR LMML NIL=
200901030215 METAR LMML 030215Z 23009KT 200V260 9999 FEW020 SCT120 BKN250
                        15/10 Q1015 NOSIG=
200901030200 METAR LMML NIL=
200901030145 METAR LMML 030145Z 22008KT 180V270 9999 FEW020 SCT120 BKN250
                        15/10 Q1015 NOSIG=
200901030130 METAR LMML NIL=
200901030115 METAR LMML 030115Z 21008KT 180V260 9999 FEW020 SCT120 BKN250
                        15/11 Q1015 NOSIG=
200901030100 METAR LMML NIL=
200901030045 METAR LMML 030045Z 21007KT 170V240 9999 FEW016 BKN120 BKN250
                        15/12 Q1015 NOSIG=
200901030015 METAR LMML 030015Z 21006KT 170V240 9999 FEW016 BKN120 BKN250
                        15/12 Q1016 NOSIG=
200901030000 METAR LMML NIL=
200901022345 METAR LMML 022345Z 21005KT 180V260 9999 FEW016 BKN120 BKN250
                        15/12 Q1016 NOSIG=
200901022315 METAR LMML 022315Z 20004KT 170V250 9999 FEW020 BKN120 BKN250
                        15/12 Q1016 NOSIG=
200901022300 METAR LMML NIL=
200901022245 METAR LMML 022245Z 20004KT 160V240 9999 FEW020 BKN120 BKN250
                        15/12 Q1016 NOSIG=
200901022230 METAR LMML NIL=
200901022215 METAR LMML 022215Z 20005KT 170V240 9999 FEW021 BKN120 BKN250
                        15/12 Q1017 NOSIG=
200901022200 METAR LMML NIL=
200901022145 METAR LMML 022145Z 21005KT 170V240 9999 FEW021 BKN120 BKN250
                        15/12 Q1017 NOSIG=
200901022115 METAR LMML 022115Z 21006KT 180V250 9999 FEW022 SCT120 BKN250
                        15/11 Q1017 NOSIG=
200901022100 METAR LMML NIL=
200901022045 METAR LMML 022045Z 21006KT 180V260 9999 FEW022 SCT120 BKN250
                        15/11 Q1017 NOSIG=
200901022030 METAR LMML NIL=
200901022015 METAR LMML 022015Z 21005KT 180V250 9999 FEW022 BKN120 BKN250
                        15/12 Q1017 NOSIG=
200901022000 METAR LMML NIL=
200901021945 METAR LMML 021945Z 21005KT 180V250 9999 FEW022 BKN120 BKN250
                        15/12 Q1018 NOSIG=
200901021930 METAR LMML NIL=
200901021915 METAR LMML 021915Z 22005KT 190V250 9999 FEW022 BKN120 BKN250
                        15/11 Q1018 NOSIG=
200901021900 METAR LMML NIL=
200901021845 METAR LMML 021845Z 21005KT 9999 FEW022 SCT120 BKN250 15/11
                        Q1018 NOSIG=
200901021830 METAR LMML NIL=
200901021815 METAR LMML 021815Z 22005KT 190V260 9999 FEW022 SCT120 BKN250
                        15/11 Q1018 NOSIG=
200901021800 METAR LMML NIL=
200901021745 METAR LMML 021745Z 22004KT 9999 FEW020 SCT120 BKN250 15/11
                        Q1018 NOSIG=
200901021730 METAR LMML NIL=
200901021715 METAR LMML 021715Z 22005KT 9999 FEW020 SCT120 BKN250 15/11
                        Q1018 NOSIG=
200901021700 METAR LMML NIL=
200901021645 METAR LMML 021645Z 21004KT 190V260 9999 FEW020 SCT120 BKN250
                        15/12 Q1018 NOSIG=
200901021630 METAR LMML NIL=
200901021615 METAR LMML 021615Z 22004KT 200V260 9999 FEW020 SCT120 BKN250
                        15/12 Q1018 NOSIG=
200901021600 METAR LMML NIL=
200901021545 METAR LMML 021545Z VRB03KT 9999 FEW020 SCT120 BKN250 15/12
                        Q1018 NOSIG=
200901021530 METAR LMML NIL=
200901021515 METAR LMML 021515Z 22005KT 180V270 9999 FEW020 SCT120 BKN250
                        16/12 Q1018 NOSIG=
200901021500 METAR LMML NIL=
200901021445 METAR LMML 021445Z 22004KT 180V260 9999 FEW020 BKN250 16/12
                        Q1018 NOSIG=
200901021430 METAR LMML NIL=
200901021415 METAR LMML 021415Z 22006KT 180V280 9999 FEW021 BKN250 16/11
                        Q1018 NOSIG=
200901021400 METAR LMML NIL=
200901021345 METAR LMML 021345Z 23006KT 190V260 9999 FEW021 BKN250 17/12
                        Q1019 NOSIG=
200901021330 METAR LMML NIL=
200901021315 METAR LMML 021315Z 22008KT 190V270 9999 SCT021 BKN250 16/12
                        Q1019 NOSIG=
200901021300 METAR LMML NIL=
200901021245 METAR LMML 021245Z 23008KT 190V260 9999 FEW021 BKN250 16/12
                        Q1019 NOSIG=
200901021230 METAR LMML NIL=
200901021215 METAR LMML 021215Z 23008KT 190V270 9999 FEW021 BKN250 16/12
                        Q1019 NOSIG=
200901021200 METAR LMML NIL=
200901021145 METAR LMML 021145Z 23007KT 200V270 9999 SCT019 BKN250 16/12
                        Q1020 NOSIG=
200901021130 METAR LMML NIL=
200901021115 METAR LMML 021115Z 22007KT 190V280 9999 SCT020 BKN250 16/12
                        Q1020 NOSIG=
200901021100 METAR LMML NIL=
200901021045 METAR LMML 021045Z 23009KT 200V270 9999 FEW020 BKN250 16/12
                        Q1021 NOSIG=
200901021030 METAR LMML NIL=
200901021015 METAR LMML 021015Z 25008KT 200V290 9999 FEW020 BKN250 16/12
                        Q1021 NOSIG=
200901021000 METAR LMML NIL=
200901020945 METAR LMML 020945Z 24007KT 190V280 9999 SCT020 BKN250 16/12
                        Q1021 NOSIG=
200901020930 METAR LMML NIL=
200901020915 METAR LMML 020915Z 24007KT 210V270 9999 FEW022 BKN250 16/12
                        Q1021 NOSIG=
200901020900 METAR LMML NIL=
200901020845 METAR LMML 020845Z 24007KT 200V280 9999 FEW021 BKN250 15/11
                        Q1021 NOSIG=
200901020830 METAR LMML NIL=
200901020815 METAR LMML 020815Z 24007KT 210V280 9999 FEW020 BKN250 15/12
                        Q1021 NOSIG=
200901020800 METAR LMML NIL=
200901020745 METAR LMML 020745Z 24005KT 200V290 9999 SCT020 BKN250 15/12
                        Q1021 NOSIG=
200901020730 METAR LMML NIL=
200901020715 METAR LMML 020715Z 24004KT 200V280 9999 SCT019 BKN250 14/11
                        Q1021 NOSIG=
200901020700 METAR LMML NIL=
200901020645 METAR LMML 020645Z 25004KT 9999 FEW020 SCT120 BKN250 14/11
                        Q1021 NOSIG=
200901020630 METAR LMML NIL=
200901020615 METAR LMML 020615Z 24006KT 200V290 9999 FEW021 SCT120 BKN250
                        14/11 Q1021 NOSIG=
200901020600 METAR LMML NIL=
200901020545 METAR LMML 020545Z 24007KT 210V280 9999 FEW023 BKN120 14/11
                        Q1021 NOSIG=
200901020530 METAR LMML NIL=
200901020515 METAR LMML 020515Z 24007KT 200V270 9999 FEW023 14/11 Q1021
                        NOSIG=
200901020500 METAR LMML NIL=
200901020445 METAR LMML 020445Z 24007KT 200V280 9999 FEW022 14/10 Q1021
                        NOSIG=
200901020430 METAR LMML NIL=
200901020415 METAR LMML 020415Z 23008KT 200V270 9999 FEW021 14/11 Q1021
                        NOSIG=
200901020400 METAR LMML NIL=
200901020345 METAR LMML 020345Z 23008KT 200V280 9999 FEW021 14/11 Q1021
                        NOSIG=
200901020330 METAR LMML NIL=
200901020315 METAR LMML 020315Z 23008KT 190V270 9999 FEW020 14/11 Q1021
                        NOSIG=
200901020300 METAR LMML NIL=
200901020245 METAR LMML 020245Z 22008KT 190V250 9999 FEW021 14/11 Q1022
                        NOSIG=
200901020230 METAR LMML NIL=
200901020215 METAR LMML 020215Z 22008KT 200V270 9999 FEW020 14/11 Q1022
                        NOSIG=
200901020200 METAR LMML NIL=
200901020145 METAR LMML 020145Z 22010KT 190V270 9999 SCT024 14/11 Q1022
                        NOSIG=
200901020130 METAR LMML NIL=
200901020115 METAR LMML 020115Z 22010KT 180V280 9999 SCT024 15/11 Q1022
                        NOSIG=
200901020100 METAR LMML NIL=
200901020045 METAR LMML 020045Z 22010KT 190V270 9999 SCT023 15/11 Q1022
                        NOSIG=
200901020030 METAR LMML NIL=
200901020015 METAR LMML 020015Z 22008KT 190V270 9999 SCT024 15/11 Q1022
                        NOSIG=
200901020000 METAR LMML NIL=
200901012345 METAR LMML 012345Z 21009KT 170V250 9999 SCT023 15/11 Q1022
                        NOSIG=
200901012330 METAR LMML NIL=
200901012315 METAR LMML 012315Z 21010KT 170V260 9999 SCT023 15/11 Q1023
                        NOSIG=
200901012300 METAR LMML NIL=
200901012245 METAR LMML 012245Z 21009KT 170V250 9999 SCT023 15/11 Q1023
                        NOSIG=
200901012230 METAR LMML NIL=
200901012215 METAR LMML 012215Z 20009KT 160V240 9999 SCT023 15/11 Q1023
                        NOSIG=
200901012200 METAR LMML NIL=
200901012145 METAR LMML 012145Z 20009KT 170V240 9999 SCT024 15/11 Q1024
                        NOSIG=
200901012130 METAR LMML NIL=
200901012115 METAR LMML 012115Z 19008KT 160V230 9999 SCT024 15/10 Q1024
                        NOSIG=
200901012100 METAR LMML NIL=
200901012045 METAR LMML 012045Z 20008KT 160V240 9999 FEW025 15/10 Q1024
                        NOSIG=
200901012030 METAR LMML NIL=
200901012015 METAR LMML 012015Z 20007KT 150V270 9999 FEW023 15/11 Q1024
                        NOSIG=
200901012000 METAR LMML NIL=
200901011945 METAR LMML 011945Z 19007KT 160V230 9999 SCT023 15/11 Q1024
                        NOSIG=
200901011930 METAR LMML NIL=
200901011915 METAR LMML 011915Z 20006KT 160V230 9999 SCT024 15/11 Q1025
                        NOSIG=
200901011900 METAR LMML NIL=
200901011845 METAR LMML 011845Z 21006KT 180V250 9999 SCT022 14/11 Q1025
                        NOSIG=
200901011830 METAR LMML NIL=
200901011815 METAR LMML 011815Z 21006KT 170V240 9999 SCT021 14/11 Q1025
                        NOSIG=
200901011800 METAR LMML NIL=
200901011745 METAR LMML 011745Z 21007KT 170V260 9999 SCT021 15/11 Q1025
                        NOSIG=
200901011730 METAR LMML NIL=
200901011715 METAR LMML 011715Z 20006KT 160V250 9999 SCT021 14/11 Q1025
                        NOSIG=
200901011700 METAR LMML NIL=
200901011645 METAR LMML 011645Z 21006KT 150V250 9999 SCT022 15/11 Q1025
                        NOSIG=
200901011630 METAR LMML NIL=
200901011615 METAR LMML 011615Z 19006KT 150V240 9999 SCT023 15/11 Q1025
                        NOSIG=
200901011600 METAR LMML NIL=
200901011545 METAR LMML 011545Z 18005KT 140V210 9999 SCT023 15/11 Q1025
                        NOSIG=
200901011530 METAR LMML NIL=
200901011515 METAR LMML 011515Z 20005KT 150V240 9999 FEW027 15/10 Q1025
                        NOSIG=
200901011500 METAR LMML NIL=
200901011445 METAR LMML 011445Z 19006KT 150V220 9999 FEW028 16/10 Q1025
                        NOSIG=
200901011430 METAR LMML NIL=
200901011415 METAR LMML 011415Z 20007KT 160V260 9999 FEW030 16/10 Q1025
                        NOSIG=
200901011400 METAR LMML NIL=
200901011345 METAR LMML 011345Z 20007KT 150V250 9999 FEW031 16/09 Q1025
                        NOSIG=
200901011330 METAR LMML NIL=
200901011315 METAR LMML 011315Z 20008KT 160V240 9999 FEW031 17/09 Q1025
                        NOSIG=
200901011300 METAR LMML NIL=
200901011245 METAR LMML 011245Z 20008KT 160V240 9999 FEW031 17/10 Q1025
                        NOSIG=
200901011230 METAR LMML NIL=
200901011215 METAR LMML 011215Z 20008KT 170V240 9999 FEW031 17/10 Q1026
                        NOSIG=
200901011200 METAR LMML NIL=
200901011145 METAR LMML 011145Z 20007KT 160V230 9999 FEW032 16/10 Q1027
                        NOSIG=
200901011130 METAR LMML NIL=
200901011115 METAR LMML 011115Z 19006KT 110V230 9999 SCT033 16/10 Q1027
                        NOSIG=
200901011100 LMML NIL=
200901011045 LMML 011045Z 14007KT 100V180 9999 FEW036 SCT045 15/12 Q1027
                        NOSIG=
200901011030 METAR LMML NIL=
200901011015 METAR LMML 011015Z 13008KT 9999 FEW034 SCT050 15/12 Q1028
                        NOSIG=
200901011000 METAR LMML NIL=
200901010945 METAR LMML 010945Z 13008KT 9999 FEW034 SCT050 14/12 Q1028
                        NOSIG=
200901010930 METAR LMML NIL=
200901010915 METAR LMML 010915Z 13008KT 9999 FEW034 14/11 Q1028 NOSIG=
200901010900 METAR LMML NIL=
200901010845 METAR LMML 010845Z 13009KT 9999 FEW031 SCT060 13/11 Q1028
                        NOSIG=
200901010830 METAR LMML NIL=
200901010815 METAR LMML 010815Z 12009KT 9999 FEW025 14/11 Q1028 NOSIG=
200901010800 METAR LMML NIL=
200901010745 METAR LMML 010745Z 13006KT 9999 FEW029 SCT060 12/11 Q1028
                        NOSIG=
200901010715 METAR LMML 010715Z 12006KT 9999 SCT029 11/09 Q1028 NOSIG=
200901010700 METAR LMML NIL=
200901010645 METAR LMML 010645Z 12005KT 9999 FEW040 10/09 Q1028 NOSIG=
200901010630 METAR LMML NIL=
200901010615 METAR LMML 010615Z 13006KT 9999 FEW040 10/09 Q1028 NOSIG=
200901010600 METAR LMML NIL=
200901010545 METAR LMML 010545Z 14006KT 9999 FEW022 10/08 Q1028 NOSIG=
200901010515 METAR LMML 010515Z 14005KT 9999 FEW022 10/09 Q1028 NOSIG=
200901010500 METAR LMML NIL=
200901010445 METAR LMML 010445Z 13005KT 9999 FEW022 10/08 Q1028 NOSIG=
200901010430 LMML NIL=
200901010415 LMML 010415Z 14006KT 9999 FEW022 10/09 Q1028 NOSIG=
200901010400 METAR LMML NIL=
200901010345 METAR LMML 010345Z 13006KT 9999 FEW022 10/09 Q1028 NOSIG=
200901010330 METAR LMML NIL=
200901010315 METAR LMML 010315Z 13006KT 9999 SCT022 11/09 Q1028 NOSIG=
200901010300 METAR LMML NIL=
200901010245 METAR LMML 010245Z 13006KT 9999 SCT018 11/10 Q1029 NOSIG=
200901010230 METAR LMML NIL=
200901010215 METAR LMML 010215Z 12005KT 9999 SCT031 11/09 Q1029 NOSIG=
200901010200 METAR LMML NIL=
200901010145 METAR LMML 010145Z 13004KT 100V160 9999 BKN029 11/09 Q1029
                        NOSIG=
200901010130 METAR LMML NIL=
200901010115 METAR LMML 010115Z 11005KT 9999 FEW020 10/08 Q1029 NOSIG=
200901010100 METAR LMML NIL=
200901010045 METAR LMML 010045Z 11007KT 9999 FEW025 11/08 Q1029 NOSIG=
200901010030 METAR LMML NIL=
200901010015 METAR LMML 010015Z 11007KT 9999 SCT028 11/08 Q1029 NOSIG=
200901010000 METAR LMML NIL=

###################################
#  short TAF from LMML
###################################
200901312300 TAF LMML 312300Z 0100/0109 16015KT 9999 SCT018 BKN025
                      PROB30 TEMPO 0100/0109 SHRA BKN015=
200901312000 TAF LMML 312000Z 3121/0106 16004KT 9999 SCT030
                      PROB30 TEMPO 0100/0106 SHRA BKN015
                      BECMG 0103/0106 18015KT=
200901311700 TAF LMML 311700Z 3118/0103 18004KT 9999 SCT020 BKN030
                      PROB30 TEMPO 3118/0103 8000 SHRA BKN015
                      BECMG 3122/0101 18014KT=
200901311400 TAF LMML 311400Z 3115/3124 VRB03KT 9999 SCT020 BKN030
                      PROB30 TEMPO 3118/3124 8000 SHRA
                      BECMG 3120/3123 17010KT=
200901311100 TAF LMML 311100Z 3112/3121 VRB03KT 9999 SCT020 BKN035
                      PROB30 TEMPO 3116/3121 8000 SHRA
                      BECMG 3118/3121 17010KT=
200901310800 TAF LMML 310800Z 3109/3118 27005KT 9999 SCT026 BKN050
                      PROB40 TEMPO 3109/3114 BKN015
                      PROB30 TEMPO 3115/3118 8000 SHRA=
200901310500 TAF LMML 310500Z 3106/3115 30008KT 9999 FEW030=
200901310200 TAF LMML 310200Z 3103/3112 30010KT 9999 FEW030=
200901302300 TAF LMML 302300Z 3100/3109 29010KT 9999 FEW030=
200901302000 TAF LMML 302000Z 3021/3106 29010KT 9999 FEW030=
200901301700 TAF LMML 301700Z 3018/3103 28006KT 9999 FEW030=
200901301400 TAF LMML 301400Z 3015/3024 28010KT 9999 SCT025 SCT050
                      PROB30 TEMPO 3015/3024 8000 SHRA=
200901301100 TAF LMML 301100Z 3012/3021 30012KT 9999 SCT025 BKN060
                      PROB30 TEMPO 3018/3021 8000 SHRA=
200901300500 TAF LMML 300500Z 3006/3015 30010KT 9999 SCT022
                      PROB30 TEMPO 3006/3009 BKN015=
200901300200 TAF LMML 300200Z 3003/3012 31010KT 9999 SCT020
                      PROB30 TEMPO 3003/3006 BKN015=
200901292300 TAF LMML 292300Z 3000/3009 31010KT 9999 SCT030
                      PROB30 TEMPO 3000/3006 BKN015=
200901292000 TAF LMML 292000Z 2921/3006 31010KT 31010KT 9999 FEW030
                      PROB30 TEMPO 2921/3006 BKN015=
200901291700 TAF LMML 291700Z 2918/3003 31010KT 31010KT 9999 FEW030=
200901291400 TAF LMML 291400Z 2915/2924 29010KT 9999 SCT030
                      TEMPO 2915/2918 6000 SHRA=
200901291100 TAF LMML 291100Z 2912/2921 29015KT 9999 SCT028
                      TEMPO 2912/2918 6000 SHRA=
200901290800 TAF LMML 290800Z 2909/2918 29015KT 9999 SCT035
                      PROB30 TEMPO 2909/2918 6000 SHRA=
200901290500 TAF LMML 290500Z 2906/2915 28014KT 9999 SCT020 SCT050
                      TEMPO 2906/2915 6000 SHRA BKN015 BKN050
                      BECMG 2906/2909 29018G28KT=
200901290200 TAF LMML 290200Z 2903/2912 29015KT 9999 SCT025 SCT060
                      TEMPO 2903/2912 28015G25KT 7000 SHRA BKN015
                       BKN050=
200901282300 TAF LMML 282300Z 2900/2909 28015KT 9999 SCT030 SCT060
                      TEMPO 2900/2909 28015G25KT 7000 SHRA BKN015
                       BKN050=
200901282000 TAF LMML 282000Z 2821/2906 28015KT 9999 SCT030
                      TEMPO 2821/2906 7000 SHRA BKN015
                      PROB30 TEMPO 2821/2906 28018G28KT 3000 TSGR
                       BKN015CB=
200901281700 TAF LMML 281700Z 2818/2903 29018KT 9999 SCT020
                      TEMPO 2818/2903 5000 SHRA BKN020TCU
                      TEMPO 2818/2903 30020G30KT
                      PROB30 TEMPO 2818/2903 3000 TSGR BKN012CB=
200901281400 TAF LMML 281400Z 2815/2824 30018KT 9999 SCT020
                      TEMPO 2815/2824 5000 SHRA BKN020TCU
                      TEMPO 2815/2824 31020G30KT
                      PROB30 TEMPO 2815/2824 3000 TSGR BKN015CB=
200901281100 TAF LMML 281100Z 2812/2821 30018KT 9999 SCT020
                      TEMPO 2812/2821 5000 SHRA BKN018TCU
                      TEMPO 2812/2821 31020G30KT
                      PROB30 TEMPO 2812/2821 3000 TSGR BKN015CB=
200901280800 TAF LMML 280800Z 2809/2818 29018KT 9999 SCT020
                      TEMPO 2809/2818 5000 SHRA BKN018
                      PROB30 TEMPO 2809/2816 3000 TSGR BKN015CB
                       TEMPO 2809/2818 30020G30KT=
200901280500 TAF LMML 280500Z 2806/2815 29018KT 9999 SCT030
                      TEMPO 2806/2815 5000 SHGR BKN018 PRB30
                      TEMPO 2806/2812 5000 TSGR BKN018CB=
200901280200 TAF LMML 280200Z 2803/2812 29018KT
                      TEMPO 2803/02812 5000 SHGR BKN018
                      PROB40 TEMPO 2803/2812 3000 TSGR BKN015CB=
200901272300 TAF LMML 272300Z 2800/2809 28015KT 9999 SCT030
                      TEMPO 2800/2809 5000 SHGR BKN020
                      PROB30 TEMPO 2800/2809 3000 TSGR BKN018CB=
200901272000 TAF LMML 272000Z 2721/2806 25015KT 9999 SCT030 BKN050
                      TEMPO 2721/2806 5000 SHRA BKN020
                      PROB40 TEMPO 2721/2806 3000 TSGR BKN015CB=
200901271700 LMML 271700Z 2718/2803 24014KT 9999 SCT030
                      TEMPO 2718/2803 7000 SHRA BKN020
                      PROB30 TEMPO 2718/2803 3000 TSRA BKN015CB
                       BECMG 2721/2724 30014KT
                      BECMG 2800/2803 28015G25KT=
200901271400 LMML 271400Z 2715/2724 24014KT 9999 SCT030
                      TEMPO 2715/2724 7000 SHRA BKN025
                      PROB30 TEMPO 2715/2724 3000 TSRA BKN015CB
                       BECMG 2720/2723 28016G26KT=
200901271100 TAF LMML 271100Z 2712/2721 24014KT 9999 SCT030
                      TEMPO 2712/2721 8000 SHRA BKN025
                      PROB30 TEMPO 2718/2721 3000 TSRA BKN015CB=
200901270800 TAF LMML 270800Z 2709/2718 26014KT 9999 SCT030
                      PROB30 TEMPO 2715/2718 7000 SHRA BKN015=
200901270500 TAF LMML 270500Z 2706/2715 27013KT 9999 SCT025 BKN120
                      TEMPO 2706/2715 8000 SHRA=
200901270200 TAF LMML 270200Z 2703/2712 32015KT 9999 SCT020 BKN100
                      TEMPO 2703/2712 7000 SHRA BKN015
                      BECMG 2709/2712 25015KT=
200901262300 TAF LMML 262300Z 2700/2709 26015KT 9999 SCT015 BKN100
                      TEMPO 2700/2709 7000 SHRA BKN015=
200901262000 LMML 262000Z 2621/2706 20010KT 9999 SCT012 BKN100
                      TEMPO 2621/2706 SHRA BKN015 SCT100=
200901261700 TAF LMML 261700Z 2618/2703 23006KT 9999 FEW030 SCT100
                      PROB30 TEMPO 2700/2703 8000 SHRA BKN025=
200901261400 TAF LMML 261400Z 2615/2624 23010KT 9999 FEW030
                      PROB30 TEMPO 2618/2624 8000 SHRA BKN015 BKN035=
200901261100 TAF LMML 261100Z 2612/2621 23012KT 9999 FEW025
                      PROB30 TEMPO 2618/2621 8000 SHRA SCT015 BKN035=
200901260800 LMML 260800Z 2609/2618 23013KT 9999 FEW035=
200901260500 TAF LMML 260500Z 2606/2615 23013KT 9999 SCT025=
200901260200 LMML 260200Z 2603/2612 23008KT 9999 FEW030=
200901252300 TAF LMML 252300Z 2600/2609 25013KT 9999 FEW035=
200901252000 TAF LMML 252000Z 2521/2606 28020G30KT 9999 FEW030
                      BECMG 2521/2524 25013KT=
200901251700 TAF LMML 251700Z 2518/2603 27025KT 9999 FEW030
                      BECMG 2519/2521 25015KT=
200901251400 TAF LMML 251400Z 2515/2524 27025G37KT 9999 FEW030
                      BECMG 2518/2521 24015KT=
200901251100 TAF LMML 251100Z 2512/2521 27025G37KT 9999 FEW030
                      BECMG 2518/2521 24015KT=
200901250800 TAF LMML 250800Z 2509/2518 28023G35KT 9999 FEW030=
200901250500 TAF LMML 250500Z 2506/2515 28025G36KT 9999 SCT035
                      PROB30 TEMPO 2503/2512 8000 SHRA=
200901250200 TAF LMML 250200Z 2503/2512 28020G30KT 9999 SCT025 BKN070
                      TEMPO 2503/2512 8000 SHRA=
200901242300 TAF LMML 242300Z 2500/2509 28020G30KT 9999 SCT025
                      TEMPO 2500/2509 8000 SHRA=
200901242000 TAF LMML 242000Z 2421/2506 28018KT 9999 SCT025 BKN060
                      BECMG 2500/2503 28020G30KT=
200901241700 TAF LMML 241700Z 2418/2503 25013KT 9999 FEW020 SCT050
                      BECMG 2419/2422 28018G30KT=
200901241400 TAF LMML 241400Z 2415/2424 27018KT 9999 FEW020 SCT050
                      BECMG 2415/2418 28021G33KT=
200901241100 TAF LMML 241100Z 2412/2421 26013KT 9999 SCT020
                      BECMG 2412/2415 27018G28KT=
200901240800 TAF LMML 240800Z 2409/2418 27014KT 9999 SCT020
                      PROB30 TEMPO 2409/2415 8000 SHRA BKN015
                      BECMG 2409/2412 26018G28KT=
200901240500 TAF LMML 240500Z 2406/2415 27018KT 9999 FEW015 BKN018 BKN120=
200901240200 TAF LMML 240200Z 2403/2412 27018KT 9999 FEW008 SCT012 BKN020
                      PROB30 TEMPO 2403/2406 5000 RA BKN005 BKN012
                       BKN018=
200901232000 TAF LMML 232000Z 2321/2406 25013KT 9999 SCT012 BKN025
                      TEMPO 2321/2406 5000 RA SCT005 BKN012 BKN020=
200901231700 TAF LMML 231700Z 2318/2403 26017KT 9999 SCT012 BKN040
                      TEMPO 2318/2403 6000 RA BKN008 BKN012 BKN040=
200901231400 TAF LMML 231400Z 2315/2324 27020KT 9999 SCT015 BKN040
                      TEMPO 2315/2324 7000 SHRA BKN010 BKN015 BKN040=
200901231100 TAF LMML 231100Z 2312/2321 26020G30KT 9999 SCT020 BKN050
                      TEMPO 2312/2321 6000 SHRA BKN005 BKN020 BKN050=
200901230800 LMML 230800Z 2309/2318 27020G30KT 9999 SCT020
                      TEMPO 2309/2318 6000 SHRA BKN015 BKN020 OVC100=
200901230500 TAF LMML 230500Z 2306/2315 27018G28KT 9999 SCT025 SCT050
                      TEMPO 2306/2315 8000 SHRA=
200901230200 TAF LMML 230200Z 2303/2312 27027G40KT 9999 SCT020
                      TEMPO 2305/2312 8000 SHRA=
200901222300 TAF LMML 222300Z 2300/2309 29025G38KT 9999 FEW020
                      TEMPO 2305/2309 8000 SHRA=
200901222000 LMML 222000Z 2221/2306 300025G37KT 9999 SCT020=
200901221700 TAF LMML 221700Z 2218/2303 32018KT 9999 SCT025 BKN050
                      TEMPO 2218/2223 5000 RA BKN015 BKN040
                      BECMG 2221/2224 32028KT=
200901221400 TAF LMML 221400Z 2215/2224 30015KT 9999 FEW010 SCT018
                      TEMPO 2215/2221 5000 RA SCT008 BKN015
                      BECMG 2218/2221 31025KT=
200901221100 TAF LMML 221100Z 2212/2221 24013KT 9999 SCT010 SCT020
                      TEMPO 2212/2221 5000 RA SCT008 BKN015
                      BECMG 2213/2216 31020KT
                      PROB30 TEMPO 2212/2218 5000 TSRA SCT008 BKN015CB=
200901220800 TAF LMML 220800Z 2209/2218 09008KT 9999 FEW020
                      PROB40 TEMPO 2209/2218 5000 SHRA BKN015
                      PROB30 TEMPO 2209/2218 5000 TSRA BKN015CB
                       BECMG 2215/2218 30015KT=
200901220500 TAF LMML 220500Z 2206/2215 13010KT 9999 SCT015 SCT060
                      TEMPO 2206/2215 7000 SHRA BKN008 BKN013 BKN060
                       PROB30
                      TEMPO 2206/2215 3000 TSRA BKN005 BKN013CB
                       BKN060
                      BECMG 2208/2211 23013KT
                      BECMG 2213/2215 27016G26KT=
200901220200 TAF LMML 220200Z 2203/2212 14007KT 9999 SCT015 SCT050
                      TEMPO 2203/2212 7000 SHRA BKN008 BKN013 BKN050
                       PROB30
                      TEMPO 2203/2212 3000 TSRA BKN005 BKN013CB
                       BKN050
                      BECMG 2207/2210 23014KT=
200901212300 TAF LMML 212300Z 2200/2209 14006KT 9999 SCT015 SCT060
                      TEMPO 2200/2209 7000 SHRA BKN013 BKN060
                      PROB30 TEMPO 2200/2209 3000 TSRA BKN005 BKN013CB
                       BKN060
                      BECMG 2206/2209 21011KT=
200901212000 TAF LMML 212000Z 2121/2206 23005KT 9999 SCT015 SCT060
                      TEMPO 2121/2206 7000 SHRA BKN013 BKN060
                      PROB30 TEMPO 2121/2206 3000 TSRA BKN007 BKN013CB
                       BKN060
                      BECMG 2202/2205 13010KT=
200901211700 TAF LMML 211700Z 2118/2203 21005KT 9999 SCT015
                      TEMPO 2118/2203 6000 SHRA BKN015=
200901211400 TAF LMML 211400Z 2115/2124 21005KT 9999 SCT016
                      PROB30 TEMPO 2119/2124 9000 BKN015=
200901211100 TAF LMML 211100Z 2112/2121 21010KT 9999 SCT018=
200901210800 TAF LMML 210800Z 2109/2118 21006KT 9999 FEW020=
200901210500 TAF LMML 210500Z 2106/2115 22009KT 8000 SCT015 BKN040
                      TEMPO 2106/2115 SHRA BKN015
                      BECMG 2112/2115 9999=
200901210200 TAF LMML 210200Z 2103/2112 12008KT 6000 RA SCT005 SCT015 BKN100
                       PROB30
                      TEMPO 2103/2106 3000 TSRA BKN012CB
                      BECMG 2106/2109 21010KT 9999 SCT015=
200901202300 TAF LMML 202300Z 2100/2109 14009KT 9000 RA SCT015 BKN040
                      PROB30 T3MPO 2100/2106 3000 TSRA BKN006 BKN012CB=
200901202000 LMML 202000Z 2021/2106 12010KT 7000 RA SCT012 BKN040 BKN080
                      PROB30 TEMPO 2021/2106 4000 TSRA BKN010CB=
200901201700 TAF LMML 201700Z 2018/2103 15014KT 7000 RA BKN008 BKN030 BKN080
                       TEMPO 2018/2021 4000 RA BKN004 BKN025 BKN080
                       BECMG 2018/2021 9999 SCT012 SCT030 BKN080
                       TEMPO 2021/2103 8000 RA BKN010 SCT030 BKN080
                       PROB30
                      TEMPO 2021/2103 4000 TSRA BKN010 BKN030CB
                       BKN080=
200901201400 TAF LMML 201400Z 2015/2024 15010KT 7000 RA BKN008 BKN025 BKN080
                       TEMPO 2015/2018 3000 RA BKN001 BKN015 BKN080
                       PROB30
                      TEMPO 2015/2018 0800 FG BKN001 BKN015 BKN080
                       BECMG 2016/2019 09017KT 9999 SCT013 SCT025
                       BKN080
                      PROB30 TEMPO 2018/2024 8000 RA BKN008 BKN025
                       BKN080=
200901201245 LMML 201245Z 2012/2021 16009KT 9999 SCT020 BKN070
                      TEMPO 2012/2021 7000 RA BKN008 BKN015 BKN070
                       PROB40
                      TEMPO 2012/2018 4000 RA BKN001 BKN015 BKN070
                       BECMG 2014/2017 11017KT=
200901201100 TAF LMML 201100Z 2012/2021 16009KT 9999 SCT020 BKN070
                      TEMPO 2012/2021 7000 RA BKN008 BKN015 BKN070
                       PROB40
                      TEMPO 2012/2018 4000 RA BKN003 BKN015 BKN070
                       BECMG 2014/2017 11017KT=
200901200800 TAF LMML 200800Z 2009/2018 20008KT 9999 SCT020 BKN070
                      TEMPO 2009/2018 8000 RA BKN008 BKN015 BKN070
                       PROB40
                      TEMPO 2009/2018 5000 RA BKN005 BKN015 BKN070
                       BECMG 2013/2016 13015KT=
200901200500 TAF LMML 200500Z 2006/2015 21012KT 9999 FEW009 SCT025 SCT025 BKM045
                       TEMPO 2006/2015 RA SCT008 BKN020
                      BECMG 2012/2015 12018KT=
200901200200 TAF LMML 200200Z 2003/2012 20004KT 9999 SCT006 SCT030 BKN080
                      TEMPO 2006/2012 5000 RA BKN005 BKN030 BKN070=
200901192300 TAF LMML 192300Z 2000/2009 20004KT 9999 SCT009 SCT100
                      PROB40 TEMPO 2003/2009 8000 RA BKN006 SCT015
                       BKN080=
200901192000 TAF LMML 192000Z 1921/2006 22004KT 9999 FEW012 SCT040
                      PROB30 TEMPO 1921/2006 6000 RA SCT008 BKN080=
200901191700 TAF LMML 191700Z 1918/2003 24005KT 9999 FEW012 SCT040 BKN080 OVC200
                       PROB30
                      TEMPO 1920/2003 8000 BKN004=
200901191400 TAF LMML 191400Z 1915/1924 27007KT 9999 SCT015 BKN080 OVC200
                      PROB30 TEMPO 2024 8000 BKN007=
200901191100 TAF LMML 191100Z 1912/1921 28008KT 9999 SCT015 SCT050 BKN250=
200901190800 TAF LMML 190800Z 1909/1918 30008KT 9999 SCT014 SCT050 BKN250=
200901190500 TAF LMML 190500Z 1906/1915 30008KT 9999 FEW018=
200901190200 TAF LMML 190200Z 1903/1912 29005KT 9999 SCT013
                      PROB30 TEMPO 1903/1906 8000 BKN008=
200901182300 TAF LMML 182300Z 1900/1909 28005KT 9999 SCT013
                      TEMPO 1900/1906 8000 BKN008 SCT013
                      PROB30 TEMPO 1900/1906 5000 BR BKN005 SCT013=
200901182000 TAF LMML 182000Z 1821/1906 24005KT 9999 FEW015 SCT080
                      TEMPO 1821/1906 8000 BKN008 SCT015 SCT080
                       PROB30
                      TEMPO 1821/1906 5000 BR BKN005 FEW015 SCT080
                       BECMG 1902/1905 30010KT=
200901181700 TAF LMML 181700Z 1818/1903 20003KT 9999 FEW020 SCT080
                      PROB30 TEMPO 1822/1903 8000 BKN005=
200901181400 TAF LMML 181400Z 1815/1824 18004KT 9999 FEW025 SCT035=
200901181100 TAF LMML 181100Z 1812/1821 18006KT 9999 SCT025 SCT120=
200901180800 TAF LMML 180800Z 1809/1818 18006KT 9999 SCT025=
200901180500 TAF LMML 180500Z 1806/1815 18005KT CAVOK
                      BECMG 1806/1809 9999 SCT020 SCT050
                      PROB40 TEMPO 1809/1815 7000 BKN007 BKN040=
200901180200 TAF LMML 180200Z 1803/1812 18005KT CAVOK
                      TEMPO 1803/1812 9999 SCT022 SCT070
                      PROB40 TEMPO 1803/1812 7000 BKN007 BKN050
                       PROB30
                      TEMPO 1803/1809 5000 BR=
200901172300 TAF LMML 172300Z 1800/1809 18005KT CAVOK
                      TEMPO 1800/1809 9999 SCT022
                      PROB40 TEMPO 1800/1809 5000 BR
                      PROB30 TEMPO 1800/1806 2000 MIFG=
200901172000 TAF LMML 172000Z 1721/1806 18005KT CAVOK
                      TEMPO 1721/1806 9999 SCT022=
200901171700 TAF LMML 171700Z 1718/1803 14005KT 9999 FEW020=
200901171400 TAF LMML 171400Z 1715/1724 12006KT 9999 FEW025=
200901171100 TAF LMML 171100Z 1712/1721 21005KT 9999 FEW025=
200901170800 TAF LMML 170800Z 1709/1718 VRB04KT 9999 FEW020=
200901170500 TAF LMML 170500Z 1706/1715 30005KT 9999 FEW020=
200901170200 TAF LMML 170200Z 1703/1712 27004KT 9999 FEW020
                      TEMPO 1703/1706 5000 BR=
200901162300 TAF LMML 162300Z 1700/1709 28004KT FEW020
                      TEMPO 1700/1706 5000 BR=
200901162000 TAF LMML 162000Z 1621/1706 VRB03KT CAVOK
                      TEMPO 0006 5000 BR
                      PROB30 TEMPO 0206 2000 MIFG=
200901161700 TAF LMML 161700Z 1618/1703 VRB03KT 9999 FEW025
                      TEMPO 1618/1703 CAVOK=
200901161515 TAF LMML 161515Z 1615/1624 31010KT 9999 FEW025
                      TEMPO 1615/1624 CAVOK
                      BECMG 1621/1624 VRB03KT=
200901161100 TAF LMML 161100Z 1612/1621 31012KT 9999 FEW025
                      TEMPO 1612/1621 CAVOK=
200901160800 TAF LMML 160800Z 1609/1618 31012KT 9999 FEW020
                      TEMPO 1609/1618 CAVOK=
200901160500 TAF LMML 160500Z 1606/1615 31012KT 9999 FEW025 SCT070=
200901160200 TAF LMML 160200Z 1603/1612 31010KT 9999 FEW025 SCT045
                      PROB30 TEMPO 1603/1607 8000 SHRA BKN020=
200901152300 LMML 152300Z 1600/0609 31008KT 9999 FEW020 SCT045
                      PROB30 TEMPO 1600/1609 8000 SHRA BKN015=
200901152000 TAF LMML 152000Z 1521/1606 32006KT 9999 SCT025
                      PROB40 TEMPO 1521/1606 8000 SHRA FEW008 BKN018=
200901151700 LMML 151700Z 1518/1603 09005KT 9999 SCT020 BKN070
                      TEMPO 1518/1603 7000 SHRA BKN005 BKN015=
200901151400 LMML 151400Z 1515/1524 33005KT 9999 SCT020 BKN100
                      TEMPO 1515/1518 7000 RA BKN015 BKN100
                      PROB30 TENPO 1515/1518 4000 TSRA BKN015CB=
200901151100 LMML 151100Z 1512/1521 30008KT 9999 SCT020 BKN070
                      TEMPO 1512/1518 6000 SHRA BKN005 BKN015 BKN070
                       PROB30
                      TEMPO 1512/1515 4000 TSRA BKN015CB=
200901150800 LMML 150800Z 1509/1518 10005KT 9999 SCT020
                      TEMPO 1509/1518 7000 SHRA BKN015
                      PROB30 TEMPO 1509/1518 4000 TSRA BKN015CB=
200901150500 TAF LMML 150500Z 1506/1515 VRB03KT 9999 SCT023 SCT045
                      TEMPO 1506/1515 7000 SHRA
                      PROB30 TEMPO 1509/1515 5000 TSRA BKN015CB=
200901150200 TAF LMML 150200Z 1503/1512 VRB03KT 9999 SCT023 SCT045
                      TEMPO 1506/1512 7000 SHRA
                      PROB30 TEMPO 1506/1512 5000 TSRA BKN017CB=
200901142300 TAF LMML 142300Z 1500/1509 24004KT 9999 SCT023
                      PROB40 TEMPO 1506/1509 7000 SHRA=
200901142000 LMML 142000Z 1421/1506 27005KT 9999 SCT023=
200901141700 TAF LMML 141700Z 1418/1503 23005KT 9999 SCT018 SCT045
                      PROB30 TEMPO 1400/1503 8000 SHRA BKN015=
200901141400 TAF LMML 141400Z 1415/1424 28010KT 9999 FEW020=
200901141100 LMML 141100Z 142121 28012KT 9999 FEW022=
200901140800 TAF LMML 140800Z 140918 27014KT 9999 FEW020
                      PROB30 TEMPO 0913 8000 SHRA SCT018=
200901140500 TAF LMML 140500Z 1406/1415 27018KT 9999 SCT025=
200901140200 LMML 140200Z 1403/1412 27016KT 9999 SCT025
                      PROB40 TEMPO 1403/1409 7000 RA BKN015
                      PROB30 TEMPO 1403/1409 5000 TSRA BKN012CB=
200901132300 TAF LMML 132300Z 1400/1409 26016KT 9999 SCT020
                      PROB40 TEMPO 1400/1409 7000 RA BKN015
                      PROB30 TEMPO 1400/1409 5000 TSRA BKN012CB=
200901132000 TAF LMML 132000Z 1321/1406 20015KT 9999 SCT020
                      PROB40 TEMPO 1321/1406 7000 BKN015
                      PROB30 TEMPO 1403/1406 5000 SHRA BKN012TCU=
200901131700 TAF LMML 131700Z 1318/1403 20013KT 9999 SCT025=
200901131400 TAF LMML 131400Z 1315/1324 20015KT 9999 SCT018=
200901130800 TAF LMML 130800Z 1309/1318 07015KT 8000 FEW008 SCT013
                      TEMPO 1309/1313 5000 BKN006 BKN011
                      BECMG 1310/1313 9999 20015KT=
200901130500 TAF LMML 130500Z 1306/1315 10015KT 8000 SHRA SCT015 SCT090 PORB30
                       TEMPO 1306/1310 3000 TSRA BKN012CB
                      BECMG 1309/1312 9999 21015KT=
200901130200 TAF LMML 130200Z 1303/1312 15015G25KT 7000 RA SCT005 BKN015 BKN100
                       PROB30
                      TEMPO 1303/1309 2000 TSRA BKN004 BKN012CB
                       PROB30
                      TEMPO 1304/1309 15025G35KT
                      BECMG 1309/1312 9999 SCT015=
200901122300 LMML 122300Z 1300/1309 09020G30KT 7000 RA SCT007 BKN015 BKN100
                       PROB30 TEMPO1300/1308 3000 TSRA BKN005 BKN012CB
                       BECMG 1306/1309 13020G30KT=
200901122000 LMML 122000Z 1221/1306 09025G35KT 7000 RA SCT007 BKN015 BKN110
                       PROB30
                      TEMPO 1300/1306 3000 TSRA BKN005 BKN012CB=
200901121700 TAF LMML 121700Z 1218/1303 10028KT 4000 BKN015 BKN020
                      TEMPO 1218/1303 10030G40KT
                      TEMPO 1218/1303 3000 RA BKN006 BKN012
                      PROB30 TEMPO 1221/1303 1500 TSRA BKN003 BKN010CB=
200901121400 TAF LMML 121400Z 1215/1224 10030KT 5000 BKN015 BKN020
                      TEMPO 1215/1224 3000 BKN006 BKN012
                      TEMPO 1215/1224 10028G38KT
                      PROB40 TEMPO 1215/1224 RA
                      PROB30 TEMPO 1221/1224 1500 TSRA BKN003 BKN010CB=
200901121100 TAF LMML 121100Z 1212/1221 10030KT 9000 SCT012 BKN016
                      TEMPO 1212/1221 4000 BKN006 BKN012
                      PROB30 TEMPO 1212/1221 4000 RA
                      TEMPO 1212/1221 10028G38KT=
200901120800 TAF LMML 120800Z 1209/1218 10018G28KT 9999 SCT012 BKN016
                      TEMPO 1209/1218 4000 RA BKN006 BKN011
                      PROB30 TEMPO 1209/1218 2000 TSRA BKN005 BKN010CB
                       BECMG 1210/1213 10025G35KT=
200901120500 LMML 120500Z 1206/1215 12018KT SCT012 BKN015
                      TEMPO 1206/1212 8000 RA SCT008 BKN012 BKN080
                       BECMG 1209/1212 09025G35KT=
200901120200 TAF LMML 120200Z 1203/1212 13015KT 9999 FEW012 SCT015 BKN100
                      PROB30 TEMPO 1203/1212 8000 RA SCT008 BKN012
                       BKN080
                      BECMG 1209/1212 08025G35KT=
200901112300 LMML 112300Z 1200/1209 13015KT 9999 FEW010 SCT015 BKN120
                      PROB40 TEMPO 1200/1209 8000 RA SCT008 BKN012
                       BKN080=
200901112000 TAF LMML 112000Z 1121/1206 13008KT 8000 FEW007 BKN012 OVC120
                      PROB30 TEMPO 1200/1206 5000 RA SCT005 BKN012
                       BKN080
                      BECMG 1203/1206 11018KT=
200901111700 TAF LMML 111700Z 1118/1203 03012KT 8000 BKN003 BKN015 OVC110
                      TEMPO 1118/1203 4000 RA
                      BECMG 1200/1203 07020G30KT=
200901111400 TAF LMML 111400Z 1115/1124 02015G25KT 9999 SCT006 BKN012
                      TEMPO 1115/1124 BKN006
                      PROB30 TEMPO 1121/1124 8000 RA SCT006 BKN012
                       OVC100=
200901111100 TAF LMML 111100Z 1112/1121 03015G25KT 9999 SCT015 BKN250
                      TEMPO 1112/1121 BKN012 SCT100 BKN250=
200901110800 TAF LMML 110800Z 1109/1118 04010KT 9999 SCT015 BKN250=
200901110500 TAF LMML 110500Z 1106/1115 04010KT 9999 SCT028=
200901110200 TAF LMML 110200Z 1103/1112 33005KT 9999 FEW020=
200901102300 TAF LMML 102300Z 1100/1109 33005KT 9999 FEW020=
200901102000 LMML 102000Z 1021/1106 33005KT 9999 FEW020=
200901101700 TAF LMML 101700Z 1018/1103 33005KT 9999 FEW015=
200901101400 TAF LMML 101400Z 1015/1024 31010KT 9999 FEW020=
200901101100 TAF LMML 101100Z 1012/1021 31012KT 9999 FEW020=
200901100800 TAF LMML 100800Z 1009/1018 31012KT 9999 FEW020=
200901100500 LMML 100500Z 1006/1015 31003KT 6000 BKN010
                      PROB30 TEMPO 1006/1009 SCT005
                      BECMG 1006/1009 9999 SCT015
                      BECMG 1011/1014 31013KT=
200901092300 TAF LMML 092300Z 1000/1009 VRB03KT 5000 SCT003
                      TEMPO 1000/1009 3000 MIFG
                      PROB40 TEMPO 1000/1009 BR BKN007
                      PROB30 TEMPO 1000/1006 0500 BCFG=
200901092000 TAF LMML 092000Z 0921/1006 VRB03KT 6000 BKN003
                      TEMPO 0921/1006 3000 BR
                      PROB40 TEMPO 0921/1006 0500 BCFG=
200901091700 TAF LMML 091700Z 0918/1003 VRB03KT 9000 SCT006
                      TEMPO 0918/1003 5000 BR BKN005
                      PROB30 TEMPO 0921/1003 2000 BR BKN002=
200901091400 TAF LMML 091400Z 0915/0924 09008KT 7000 BKN007 BKN015
                      TEMPO 0915/0920 9000 SCT008 SCT015=
200901091100 TAF LMML 091100Z 0912/0921 07008KT 7000 BKN007 BKN015
                      TEMPO 0912/0921 9000 SCT008 SCT015=
200901090800 TAF LMML 090800Z 0909/0918 05008KT 6000 BKN007 BKN015
                      BECMG 0909/0912 9000 SCT008 SCT015
                      PROB30 TEMPO 0909/0911 5000 BKN005=
200901090500 TAF LMML 090500Z 0906/0915 02010KT 9000 BKN008 BKN015
                      BECMG 0906/0909 9999 SCT018
                      BECMG 0912/0915 08008KT=
200901090200 TAF LMML 090200Z 0903/0912 03006KT 9000 SCT013 SCT040
                      TEMPO 0903/0906 4000 BR BKN005 BKN012 SCT040
                       PROB30
                      TEMPO 0903/0906 0700 FG BKN002 BKN010 SCT040
                       BECMG 0906/0909 9999=
200901082300 TAF LMML 082300Z 0900/0909 02005KT 9000 SCT013
                      TEMPO 0900/0906 4000 BR BKN005 BKN011
                      PROB30 TEMPO 0900/0906 0700 FG BKN002 BKN010=
200901082000 TAF LMML 082000Z 0821/0906 03007KT 9000 SCT015
                      TEMPO 0821/0906 5000 BR BKN005 BKN015
                      PROB40 TEMPO 0821/0906 4000 SHRA BKN008 BKN013
                       PROB30
                      TEMPO 0821/0903 2000 TSRA BKN005 BKN013CB=
200901081700 TAF LMML 081700Z 0818/0903 05010KT 9999 SCT018
                      TEMPO 0818/0903 BKN012
                      PROB30 TEMPO 0818/0903 7000 SHRA BKN015TCU=
200901081400 TAF LMML 081400Z 0815/0824 06012KT 9999 SCT020
                      PROB30 TEMPO 0815/0821 8000 SHRA BKN015TCU=
200901081100 TAF LMML 081100Z 0812/0821 06012KT 9999 SCT020
                      PROB30 TEMPO 0812/0821 8000 SHRA BKN015TCU=
200901080800 TAF LMML 080800Z 0809/0818 08009KT 9999 SCT020
                      PROB30 TEMPO 0811/0818 8000 SHRA BKN015TCU=
200901080500 TAF LMML 080500Z 0806/0815 12008KT 9999 FEW030=
200901080200 TAF LMML 080200Z 0803/0812 09008KT 9999 FEW030=
200901072300 TAF LMML 072300Z 0800/0809 14005KT 9999 FEWO30=
200901072000 TAF LMML 072000Z 0721/0806 15005KT 9999 FEW030=
200901071700 TAF LMML 071700Z 0718/0803 19004KT 9999 FEW020
                      BECMG 0800/0803 12010KT=
200901071400 TAF LMML 071400Z 0715/0724 20007KT 9999 FEW025 SCT040=
200901071100 TAF LMML 071100Z 0712/0721 18008KT 9999 FEW020 SCT035
                      PROB30 TEMPO 0712/0715 8000 RA FEW020 BKN030=
200901070800 TAF LMML 070800Z 0709/0718 19008KT 9999 FEW020 SCT035
                      PROB40 TEMPO 0709/0712 8000 RA SCT015 BKN030=
200901070500 TAF LMML 070500Z 0706/0715 19010KT 9999 SCT030
                      PROB40 TEMPO 0706/0712 8000 SHRA=
200901070200 TAF LMML 070200Z 0703/0712 18010KT 9999 SCT030
                      PROB40 TEMPO 0706/0712 9000 SHRA=
200901062300 TAF LMML 062300Z 0700/0709 18006KT 9999 SCT030
                      PROB40 TEMPO 0706/0709 9000 SHRA=
200901062000 TAF LMML 062000Z 0621/0706 18006KT 9999 SCT028=
200901061700 TAF LMML 061700Z 0618/0703 28002KT 9999 FEW030=
200901060800 TAF LMML 060800Z 0609/0618 29008KT 9999 FEW035=
200901060500 TAF LMML 060500Z 0606/0615 29007KT 9999 SCT030
                      PROB30 TEMPO 0606/0610 8000 SHRA=
200901060200 TAF LMML 060200Z 0603/0612 30007KT 9999 FEW022
                      PROB40 TEMPO 0603/0609 BKN012
                      PROB40 TEMPO 0603/0609 8000 SHRA=
200901052300 TAF LMML 052300Z 0600/0609 32009KT 9999 SCT015 BKN020
                      PROB40 TEMPO 0600/0609 8000 SHRA BKN010=
200901052000 TAF LMML 052000Z 0521/0606 32014KT 9999 SCT015
                      TEMPO 0521/0603 BKN010
                      PROB40 TEMPO 0521/0606 8000 SHRA=
200901051700 TAF LMML 051700Z 0518/0603 36012KT 9999 SCT015
                      TEMPO 0515/0521 6000 SHRA BKN012=
200901051400 TAF LMML 051400Z 0515/0524 01015KT 9999 SCT015
                      TEMPO 0515/0521 6000 SHRA BKN015
                      PROB30 TEMPO 0515/0521 3000 SHRA BKN010=
200901051100 TAF LMML 051100Z 0512/0521 01015KT 9999 SCT012
                      TEMPO 0512/1521 7000 SHRA BKN011
                      PROB30 TEMPO 0512/0515 3000 TSRA BKN011CB=
200901050800 TAF LMML 050800Z 0509/0518 06010KT 9999 SCT012
                      TEMPO 0509/0518 7000 SHRA BKN013
                      PROB30 TEMPO 0509/0514 3000 TSRA BKN013CB
                       BECMG 0512/0515 36015KT=
200901050500 TAF LMML 050500Z 0506/0515 07010KT 9999 SCT015 BKN050
                      TEMPO 0506/0515 7000 SHRA BKN015 BKN050
                      TEMPO 0506/0515 3000 TSRA BKN008 BKN013CB
                       BKN050
                      BECMG 0508/0511 24008KT
                      BECMG 0513/0515 30015G25KT=
200901050200 TAF LMML 050200Z 0503/0512 13008KT 9999 SCT020 SCT050
                      TEMPO 0503/0512 7000 SHRA BKN015 BKN050
                      TEMPO 0503/0512 VRB15G25KT 2000 TSGR BKN005
                       BKN013CB BKN050
                      BECMG 0503/0506 23012KT=
200901042300 TAF LMML 042300Z 0500/0509 08006KT 9999 SCT020 SCT050 BKN080
                      TEMPO 0500/0509 7000 SHRA BKN015 BKN050 BKN070
                       PROB40
                      TEMPO 0500/0509 VRB15G25KT 2000 TSGR BKN005
                       BKN013CB BKN050 BKN070
                      BECMG 0500/0502 16010KT
                      BECMG 0503/0506 24012KT=
200901042000 TAF LMML 042000Z 0421/0506 17005KT 9999 SCT020 SCT050 BKN080
                      TEMPO 0421/0506 7000 SHRA BKN015 BKN050 BKN070
                       PROB40
                      TEMPO 0421/0506 VRB15G25KT 3000 TSRA BKN007
                       BKN015CB BKN050 BKN070
                      BECMG 0500/0503 24010KT=
200901041700 TAF LMML 041700Z 0418/0503 VRB03KT 9999 SCT025
                      TEMPO 0418/0503 8000 RA BKN015
                      PROB40 TEMPO 0418/0503 4000 TSRA BKN008 BKN012CB
                       BECMG 0423/0502 17010KT=
200901041400 TAF LMML 041400Z 0415/0424 27006KT 9999 SCT025
                      PROB40 TEMPO 0418/0424 8000 RA BKN012
                      PROB30 TEMPO 0418/0424 5000 TSRA BKN012CB=
200901041100 TAF LMML 041100Z 0412/0421 27007KT 9999 SCT025
                      PROB30 TEMPO 0415/0421 8000 RA BKN012
                      PROB30 TEMPO 0418/0421 5000 TSRA BKN012CB=
200901040800 TAF LMML 040800Z 0409/0418 27006KT SCT024=
200901040500 TAF LMML 040500Z 0406/0415 29010KT FEW030=
200901040200 TAF LMML 040200Z 0403/0412 29010KT 9999 SCT025=
200901032300 LMML 032300Z 0400/0409 9999 SCT022
                      PROB30 TEMPO 0400/0406 8000 SHRA BKN015=
200901032000 TAF LMML 032000Z 0321/0406 28010KT 9999 FEW020
                      PROB30 TEMPO 0321/0406 5000 SHRA BKN015=
200901031700 TAF LMML 031700Z 0318/0403 28010KT 9999 SCT020
                      TEMPO 0318/0403 28015G25KT 8000 SHRA BKN015=
200901031400 TAF LMML 031400Z 0315/0324 28013KT 9999 SCT018
                      TEMPO 0315/0324 29015G25KT 8000 SHRA BKN015
                       PROB30
                      TEMPO 0315/0321 3000 TSRA BKN015CB=
200901031100 TAF LMML 031100Z 0312/0321 23012KT 9999 SCT015
                      BECMG 0312/0315 29015G25KT
                      PROB30 TEMPO 0314/0321 8000 SHRA BKN013=
200901030800 TAF LMML 030800Z 0309/0318 23008KT 9999 FEW020 SCT120
                      BECMG 0312/0315 29012KT
                      PROB30 TEMPO 0315/0318 8000 SHRA BKN015 BKN100=
200901030500 TAF LMML 030500Z 0306/0315 24010KT 9999 FEW020
                      TEMPO 0612 CAVOK=
200901030200 TAF LMML 030200Z 0303/0312 24010KT 9999 FEW020=
200901022300 TAF LMML 022300Z 0300/0309 22010KT 9999 FEW020=
200901022000 TAF LMML 022000Z 0221/0306 21010KT 9999 FEW020=
200901021700 TAF LMML 021700Z 0218/0303 24006KT 9999 SCT020 BKN100
                      TEMPO 0218/0303 8000 RA=
200901021400 TAF LMML 021400Z 0215/0224 24008KT 9999 SCT020 SCT100 BKN200
                      PROB30 TEMPO 0218/0224 8000 SHRA BKN015=
200901021100 TAF LMML 021100Z 0212/0221 25009KT SCT020 SCT090 BKN200=
200901020800 TAF LMML 020800Z 0209/0218 25008KT 9999 SCT020 BKN250=
200901020500 TAF LMML 020500Z 0206/0215 25010KT 9999 SCT022=
200901020200 TAF LMML 020200Z 0203/0212 24010KT 9999 SCT022=
200901012300 TAF LMML 012300Z 0200/0209 23010KT 9999 SCT022=
200901012000 TAF LMML 012000Z 0121/0206 22010KT 9999 SCT022=
200901011700 TAF LMML 011700Z 0118/0203 21010KT 9999 SCT030=
200901011400 TAF LMML 011400Z 0115/0124 18010KT 9999 SCT030=
200901011100 TAF LMML 011100Z 0112/0121 15007KT 9999 SCT030=
200901010800 TAF LMML 010800Z 0109/0118 13007KT 9999 SCT030=
200901010500 TAF LMML 010500Z 0106/0115 14007KT 9999 SCT030=
200901010200 TAF LMML 010200Z 0103/0112 12006KT 9999 SCT030=

###################################
#  large TAF from LMML
###################################
200901312300 LMML NIL=
200901311700 LMML NIL=
200901311100 LMML NIL=
200901310500 LMML NIL=
200901302300 LMML NIL=
200901301700 LMML NIL=
200901301100 LMML NIL=
200901300500 LMML NIL=
200901292300 LMML NIL=
200901291700 LMML NIL=
200901291100 LMML NIL=
200901290500 LMML NIL=
200901282300 LMML NIL=
200901281700 LMML NIL=
200901281100 LMML NIL=
200901280500 LMML NIL=
200901272300 LMML NIL=
200901271700 LMML NIL=
200901271100 LMML NIL=
200901270500 LMML NIL=
200901262300 LMML NIL=
200901261700 LMML NIL=
200901261100 LMML NIL=
200901260500 LMML NIL=
200901252300 LMML NIL=
200901251700 LMML NIL=
200901251100 LMML NIL=
200901250500 LMML NIL=
200901242300 LMML NIL=
200901241700 LMML NIL=
200901241100 LMML NIL=
200901240500 LMML NIL=
200901232300 LMML NIL=
200901231700 LMML NIL=
200901231100 LMML NIL=
200901230500 LMML NIL=
200901222300 LMML NIL=
200901221700 LMML NIL=
200901221100 LMML NIL=
200901220500 LMML NIL=
200901212300 LMML NIL=
200901211700 LMML NIL=
200901211100 LMML NIL=
200901210500 LMML NIL=
200901202300 LMML NIL=
200901201700 LMML NIL=
200901201100 LMML NIL=
200901200500 LMML NIL=
200901192300 LMML NIL=
200901191700 LMML NIL=
200901191100 LMML NIL=
200901190500 LMML NIL=
200901182300 LMML NIL=
200901181700 LMML NIL=
200901181100 LMML NIL=
200901180500 LMML NIL=
200901172300 LMML NIL=
200901171700 LMML NIL=
200901171100 LMML NIL=
200901170500 LMML NIL=
200901162300 LMML NIL=
200901161700 LMML NIL=
200901161100 LMML NIL=
200901160500 LMML NIL=
200901152300 LMML NIL=
200901151700 LMML NIL=
200901151100 LMML NIL=
200901150500 LMML NIL=
200901142300 LMML NIL=
200901141700 LMML NIL=
200901141100 TAF LMML 141100Z 142121 28012KT 9999 FEW022=
200901140500 LMML NIL=
200901132300 LMML NIL=
200901131700 LMML NIL=
200901130500 LMML NIL=
200901122300 LMML NIL=
200901121700 LMML NIL=
200901121100 LMML NIL=
200901120500 LMML NIL=
200901112300 LMML NIL=
200901111700 LMML NIL=
200901111100 LMML NIL=
200901110500 LMML NIL=
200901102300 LMML NIL=
200901101700 LMML NIL=
200901101100 LMML NIL=
200901100500 LMML NIL=
200901092300 LMML NIL=
200901091700 LMML NIL=
200901091100 LMML NIL=
200901090500 LMML NIL=
200901082300 LMML NIL=
200901081700 LMML NIL=
200901081100 LMML NIL=
200901080500 LMML NIL=
200901072300 LMML NIL=
200901071700 LMML NIL=
200901071100 LMML NIL=
200901070500 LMML NIL=
200901062300 LMML NIL=
200901061700 LMML NIL=
200901061100 LMML NIL=
200901060500 LMML NIL=
200901052300 LMML NIL=
200901051700 LMML NIL=
200901051100 LMML NIL=
200901050500 LMML NIL=
200901042300 LMML NIL=
200901041700 LMML NIL=
200901041100 LMML NIL=
200901040500 LMML NIL=
200901032300 LMML NIL=
200901031700 LMML NIL=
200901031100 LMML NIL=
200901030500 LMML NIL=
200901022300 LMML NIL=
200901021700 LMML NIL=
200901021100 LMML NIL=
200901020500 LMML NIL=
200901012300 LMML NIL=
200901011700 LMML NIL=
200901011100 LMML NIL=
200901010500 LMML NIL=
