##########################################################
# Query made at 01/18/2013 16:54:50 UTC
# Time interval: from 01/01/2008 00:00  to 01/31/2008 23:59  UTC
##########################################################

##########################################################
# LMML, Luqa (Malta)
# WMO index: 16597
# Latitude 35-51N. Longitude 014-29E. Altitude 91 m.
##########################################################

###################################
#  METAR/SPECI from LMML
###################################
200801312345 METAR LMML 312345Z VRB03KT 9999 FEW030 11/09 Q1024 NOSIG=
200801312315 METAR LMML 312315Z 29005KT 9999 FEW030 12/09 Q1024 NOSIG=
200801312300 METAR LMML NIL=
200801312245 METAR LMML 312245Z 27004KT 9999 FEW031 12/10 Q1024 NOSIG=
200801312215 METAR LMML 312215Z 27004KT 9999 FEW031 13/10 Q1024 NOSIG=
200801312200 METAR LMML NIL=
200801312145 METAR LMML 312145Z 28004KT 250V310 9999 SCT029 12/10 Q1024
                        NOSIG=
200801312130 METAR LMML NIL=
200801312115 METAR LMML 312115Z 28004KT 9999 SCT021 12/10 Q1024 NOSIG=
200801312045 METAR LMML 312045Z 27004KT 230V300 9999 SCT023 12/10 Q1024
                        NOSIG=
200801312030 METAR LMML NIL=
200801312015 METAR LMML 312015Z 27005KT 9999 SCT023 12/10 Q1024 NOSIG=
200801312000 METAR LMML NIL=
200801311945 METAR LMML 311945Z 26005KT 9999 SCT022 12/10 Q1024 NOSIG=
200801311930 METAR LMML NIL=
200801311915 METAR LMML 311915Z 27005KT 9999 FEW022 13/10 Q1024 NOSIG=
200801311900 METAR LMML NIL=
200801311845 METAR LMML 311845Z 27004KT 9999 FEW022 13/10 Q1024 NOSIG=
200801311830 METAR LMML NIL=
200801311815 METAR LMML 311815Z 25004KT 230V290 9999 FEW022 13/10 Q1024
                        NOSIG=
200801311800 METAR LMML NIL=
200801311745 METAR LMML 311745Z 27004KT 230V290 9999 FEW022 13/10 Q1023
                        NOSIG=
200801311730 METAR LMML NIL=
200801311715 METAR LMML 311715Z 28004KT 9999 FEW022 14/11 Q1023 NOSIG=
200801311700 METAR LMML NIL=
200801311645 METAR LMML 311645Z 28005KT 9999 SCT022 14/10 Q1023 NOSIG=
200801311630 METAR LMML NIL=
200801311615 METAR LMML 311615Z 29006KT 9999 FEW021 14/10 Q1023 NOSIG=
200801311600 METAR LMML NIL=
200801311545 METAR LMML 311545Z 29006KT 9999 FEW021 15/11 Q1023 NOSIG=
200801311530 METAR LMML NIL=
200801311515 METAR LMML 311515Z 29008KT 260V320 9999 FEW021 16/11 Q1023
                        NOSIG=
200801311500 METAR LMML NIL=
200801311445 METAR LMML 311445Z 28007KT 250V310 9999 FEW021 16/11 Q1023
                        NOSIG=
200801311430 METAR LMML NIL=
200801311415 METAR LMML 311415Z 28009KT 240V310 9999 SCT021 16/11 Q1023
                        NOSIG=
200801311400 METAR LMML NIL=
200801311345 METAR LMML 311345Z 27009KT 230V300 9999 SCT021 SCT250 16/11
                        Q1023 NOSIG=
200801311330 METAR LMML NIL=
200801311315 METAR LMML 311315Z 26008KT 220V310 9999 SCT019 SCT250 16/11
                        Q1023 NOSIG=
200801311300 METAR LMML NIL=
200801311245 METAR LMML 311245Z 25009KT 210V290 9999 FEW019 SCT250 17/11
                        Q1023 NOSIG=
200801311230 METAR LMML NIL=
200801311215 METAR LMML 311215Z 26008KT 200V300 9999 FEW018 SCT250 17/12
                        Q1024 NOSIG=
200801311200 METAR LMML NIL=
200801311145 METAR LMML 311145Z 25008KT 210V300 9999 FEW018 SCT250 16/11
                        Q1024 NOSIG=
200801311130 METAR LMML NIL=
200801311115 METAR LMML 311115Z 26008KT 210V300 9999 FEW020 SCT250 17/12
                        Q1025 NOSIG=
200801311100 METAR LMML NIL=
200801311045 METAR LMML 311045Z 25009KT 200V280 9999 FEW015 SCT250 16/11
                        Q1025 NOSIG=
200801311030 METAR LMML NIL=
200801311015 METAR LMML 311015Z 24008KT 200V290 9999 FEW015 SCT250 16/12
                        Q1025 NOSIG=
200801311000 METAR LMML NIL=
200801310945 METAR LMML 310945Z 25007KT 200V280 9999 FEW018 SCT250 16/11
                        Q1026 NOSIG=
200801310930 METAR LMML NIL=
200801310915 METAR LMML 310915Z 25007KT 210V290 9999 FEW015 SCT250 16/12
                        Q1025 NOSIG=
200801310900 METAR LMML NIL=
200801310845 METAR LMML 310845Z 25007KT 210V280 9999 FEW020 SCT250 16/12
                        Q1025 NOSIG=
200801310830 METAR LMML NIL=
200801310815 METAR LMML 310815Z 25007KT 200V290 9999 FEW020 SCT250 15/12
                        Q1025 NOSIG=
200801310800 METAR LMML NIL=
200801310745 METAR LMML 310745Z 25006KT 190V300 9999 FEW020 SCT250 15/12
                        Q1025 NOSIG=
200801310730 METAR LMML NIL=
200801310715 METAR LMML 310715Z 26006KT 220V300 9999 FEW020 SCT250 14/11
                        Q1025 NOSIG=
200801310700 METAR LMML NIL=
200801310645 METAR LMML 310645Z 24004KT 220V280 9999 FEW019 SCT250 14/11
                        Q1025 NOSIG=
200801310630 METAR LMML NIL=
200801310615 METAR LMML 310615Z 25004KT 220V300 9999 FEW019 13/11 Q1025
                        NOSIG=
200801310600 METAR LMML NIL=
200801310545 METAR LMML 310545Z 25005KT 210V280 9999 SCT019 14/11 Q1025
                        NOSIG=
200801310530 METAR LMML NIL=
200801310515 METAR LMML 310515Z 24007KT 210V280 9999 SCT020 14/11 Q1025
                        NOSIG=
200801310500 METAR LMML NIL=
200801310445 METAR LMML 310445Z 24006KT 210V270 9999 SCT020 14/11 Q1025
                        NOSIG=
200801310415 METAR LMML 310415Z 24006KT 210V280 9999 SCT019 14/11 Q1025
                        NOSIG=
200801310400 METAR LMML NIL=
200801310345 METAR LMML 310345Z 24006KT 200V280 9999 FEW020 13/11 Q1025
                        NOSIG=
200801310330 METAR LMML NIL=
200801310315 METAR LMML 310315Z 24007KT 200V270 9999 FEW020 13/11 Q1025
                        NOSIG=
200801310300 METAR LMML NIL=
200801310245 METAR LMML 310245Z 24007KT 220V280 9999 FEW020 13/10 Q1025
                        NOSIG=
200801310230 METAR LMML NIL=
200801310215 METAR LMML 310215Z 24007KT 210V280 9999 SCT018 13/11 Q1025
                        NOSIG=
200801310200 METAR LMML NIL=
200801310145 METAR LMML 310145Z 24007KT 200V270 9999 SCT018 13/11 Q1026
                        NOSIG=
200801310115 METAR LMML 310115Z 24007KT 210V270 9999 SCT018 13/10 Q1026
                        NOSIG=
200801310100 METAR LMML NIL=
200801310045 METAR LMML 310045Z 24006KT 210V270 9999 SCT018 13/11 Q1026
                        NOSIG=
200801310030 METAR LMML NIL=
200801310015 METAR LMML 310015Z 23007KT 200V270 9999 SCT018 14/11 Q1026
                        NOSIG=
200801310000 METAR LMML NIL=
200801302345 METAR LMML 302345Z 23007KT 200V270 9999 SCT018 14/11 Q1026
                        NOSIG=
200801302330 METAR LMML NIL=
200801302315 METAR LMML 302315Z 23007KT 200V260 9999 SCT020 14/11 Q1027
                        NOSIG=
200801302300 METAR LMML NIL=
200801302245 METAR LMML 302245Z 23007KT 200V270 9999 SCT020 14/11 Q1027
                        NOSIG=
200801302230 METAR LMML NIL=
200801302215 METAR LMML 302215Z 23008KT 180V270 9999 SCT021 14/10 Q1027
                        NOSIG=
200801302200 METAR LMML NIL=
200801302145 METAR LMML 302145Z 23007KT 200V270 9999 SCT023 14/10 Q1027
                        NOSIG=
200801302130 METAR LMML NIL=
200801302115 METAR LMML 302115Z 23008KT 200V270 9999 SCT023 14/10 Q1027
                        NOSIG=
200801302100 METAR LMML NIL=
200801302045 METAR LMML 302045Z 23006KT 190V260 9999 SCT023 14/10 Q1027
                        NOSIG=
200801302030 METAR LMML NIL=
200801302015 METAR LMML 302015Z 23008KT 200V270 9999 FEW020 14/10 Q1027
                        NOSIG=
200801302000 METAR LMML NIL=
200801301945 METAR LMML 301945Z 23007KT 200V270 9999 SCT020 14/11 Q1027
                        NOSIG=
200801301930 METAR LMML NIL=
200801301915 METAR LMML 301915Z 22009KT 180V270 CAVOK 14/11 Q1027 NOSIG=
200801301900 METAR LMML NIL=
200801301845 METAR LMML 301845Z 23007KT 190V270 9999 SCT017 15/11 Q1027
                        NOSIG=
200801301830 METAR LMML NIL=
200801301815 METAR LMML 301815Z 23007KT 200V280 9999 SCT018 14/11 Q1027
                        NOSIG=
200801301800 METAR LMML NIL=
200801301745 METAR LMML 301745Z 23006KT 190V270 9999 SCT018 15/12 Q1027
                        NOSIG=
200801301730 METAR LMML NIL=
200801301715 METAR LMML 301715Z 23007KT 200V280 9999 SCT019 14/11 Q1028
                        NOSIG=
200801301700 METAR LMML NIL=
200801301645 METAR LMML 301645Z 23006KT 200V270 9999 SCT019 15/12 Q1027
                        NOSIG=
200801301630 METAR LMML NIL=
200801301615 METAR LMML 301615Z 23007KT 200V270 9999 FEW019 15/11 Q1027
                        NOSIG=
200801301600 METAR LMML NIL=
200801301545 METAR LMML 301545Z 23007KT 190V270 9999 SCT023 15/11 Q1027
                        NOSIG=
200801301530 METAR LMML NIL=
200801301515 METAR LMML 301515Z 22007KT 190V270 9999 SCT000 16/11 Q1027
                        NOSIG=
200801301500 METAR LMML NIL=
200801301445 METAR LMML 301445Z 23007KT 200V270 9999 SCT023 16/11 Q1027
                        NOSIG=
200801301430 METAR LMML NIL=
200801301415 METAR LMML 301415Z 23007KT 200V290 9999 SCT023 16/11 Q1027
                        NOSIG=
200801301400 METAR LMML NIL=
200801301345 METAR LMML 301345Z 24009KT 200V280 9999 SCT024 16/11 Q1028
                        NOSIG=
200801301330 METAR LMML NIL=
200801301315 METAR LMML 301315Z 26009KT 230V300 9999 SCT023 17/10 Q1028
                        NOSIG=
200801301300 METAR LMML NIL=
200801301245 METAR LMML 301245Z 26009KT 210V300 9999 SCT023 17/11 Q1028
                        NOSIG=
200801301230 METAR LMML NIL=
200801301215 METAR LMML 301215Z 26010KT 220V290 9999 SCT021 17/11 Q1029
                        NOSIG=
200801301200 METAR LMML NIL=
200801301145 METAR LMML 301145Z 26011KT 230V290 9999 SCT021 SCT027 16/11
                        Q1029 NOSIG=
200801301130 METAR LMML NIL=
200801301115 METAR LMML 301115Z 26010KT 210V310 9999 SCT019 16/11 Q1029
                        NOSIG=
200801301100 METAR LMML NIL=
200801301045 METAR LMML 301045Z 26009KT 210V290 9999 BKN021 16/11 Q1030
                        NOSIG=
200801301030 METAR LMML NIL=
200801301015 METAR LMML 301015Z 27010KT 240V300 9999 SCT020 16/11 Q1030
                        NOSIG=
200801301000 METAR LMML NIL=
200801300945 METAR LMML 300945Z 24008KT 190V280 9999 SCT020 16/12 Q1030
                        NOSIG=
200801300930 METAR LMML NIL=
200801300915 METAR LMML 300915Z 25009KT 210V300 9999 SCT020 16/12 Q1030
                        NOSIG=
200801300900 METAR LMML NIL=
200801300845 METAR LMML 300845Z 23008KT 200V270 9999 SCT020 16/12 Q1030
                        NOSIG=
200801300830 METAR LMML NIL=
200801300815 METAR LMML 300815Z 25008KT 220V290 9999 SCT019 15/11 Q1030
                        NOSIG=
200801300800 METAR LMML NIL=
200801300745 METAR LMML 300745Z 24005KT 210V280 9999 SCT018 15/12 Q1030
                        NOSIG=
200801300730 METAR LMML NIL=
200801300715 METAR LMML 300715Z 25006KT 210V290 9999 SCT022 14/12 Q1030
                        NOSIG=
200801300700 METAR LMML NIL=
200801300645 METAR LMML 300645Z 25005KT 210V280 9999 SCT017 14/12 Q1030
                        NOSIG=
200801300630 METAR LMML NIL=
200801300615 METAR LMML 300615Z 24005KT 210V270 9999 SCT016 13/11 Q1029
                        NOSIG=
200801300600 METAR LMML NIL=
200801300545 METAR LMML 300545Z 24007KT 210V280 9999 SCT017 13/11 Q1029
                        NOSIG=
200801300530 METAR LMML NIL=
200801300515 METAR LMML 300515Z 23006KT 9999 FEW018 13/11 Q1029 NOSIG=
200801300500 METAR LMML NIL=
200801300445 METAR LMML 300445Z 23005KT 9999 FEW019 13/11 Q1029 NOSIG=
200801300430 METAR LMML NIL=
200801300415 METAR LMML 300415Z 24005KT 200V260 9999 FEW020 13/11 Q1029
                        NOSIG=
200801300400 METAR LMML NIL=
200801300345 METAR LMML 300345Z 23005KT 9999 FEW020 13/11 Q1029 NOSIG=
200801300330 METAR LMML NIL=
200801300315 METAR LMML 300315Z 25005KT 9999 FEW020 13/11 Q1029 NOSIG=
200801300300 METAR LMML NIL=
200801300245 METAR LMML 300245Z 25004KT 9999 FEW020 13/11 Q1030 NOSIG=
200801300215 METAR LMML 300215Z 25005KT 9999 FEW021 13/11 Q1029 NOSIG=
200801300200 METAR LMML NIL=
200801300145 METAR LMML 300145Z 26005KT 220V290 9999 SCT021 13/11 Q1030
                        NOSIG=
200801300130 METAR LMML NIL=
200801300115 METAR LMML 300115Z 26005KT 9999 SCT023 13/11 Q1030 NOSIG=
200801300100 METAR LMML NIL=
200801300045 METAR LMML 300045Z 26006KT 9999 FEW024 13/11 Q1030 NOSIG=
200801300030 METAR LMML NIL=
200801300015 METAR LMML 300015Z 25006KT 210V270 9999 SCT025 13/11 Q1030
                        NOSIG=
200801300000 METAR LMML NIL=
200801292345 METAR LMML 292345Z 24006KT 9999 SCT020 13/11 Q1030 NOSIG=
200801292330 METAR LMML NIL=
200801292315 METAR LMML 292315Z 24006KT 9999 SCT021 13/11 Q1030 NOSIG=
200801292300 METAR LMML NIL=
200801292245 METAR LMML 292245Z 23005KT 9999 SCT023 13/10 Q1030 NOSIG=
200801292230 METAR LMML NIL=
200801292215 METAR LMML 292215Z 22006KT 9999 SCT036 13/10 Q1030 NOSIG=
200801292200 METAR LMML NIL=
200801292145 METAR LMML 292145Z 22005KT 9999 FEW036 13/10 Q1030 NOSIG=
200801292130 LMML NIL=
200801292115 METAR LMML 292115Z 22007KT 190V260 9999 FEW036 13/10 Q1030
                        NOSIG=
200801292100 METAR LMML NIL=
200801292045 METAR LMML 292045Z 22005KT 200V270 9999 FEW038 13/09 Q1030
                        NOSIG=
200801292030 METAR LMML NIL=
200801292015 METAR LMML 292015Z 22004KT 9999 BKN038 12/09 Q1030 NOSIG=
200801292000 METAR LMML NIL=
200801291945 METAR LMML 291945Z VRB02KT 9999 FEW042 12/09 Q1030 NOSIG=
200801291930 METAR LMML NIL=
200801291915 METAR LMML 291915Z VRB03KT 9999 FEW042 12/09 Q1030 NOSIG=
200801291900 METAR LMML NIL=
200801291845 METAR LMML 291845Z VRB03KT 9999 FEW042 13/09 Q1030 NOSIG=
200801291830 METAR LMML NIL=
200801291815 METAR LMML 291815Z VRB03KT 9999 SCT042 13/09 Q1030 NOSIG=
200801291800 METAR LMML NIL=
200801291745 METAR LMML 291745Z VRB03KT 9999 BKN044 13/09 Q1030 NOSIG=
200801291730 METAR LMML NIL=
200801291715 METAR LMML 291715Z VRB03KT 9999 BKN047 13/08 Q1030 NOSIG=
200801291700 METAR LMML NIL=
200801291645 METAR LMML 291645Z VRB03KT 9999 BKN047 13/08 Q1030 NOSIG=
200801291630 METAR LMML NIL=
200801291615 METAR LMML 291615Z VRB03KT 9999 FEW030 BKN045 13/08 Q1030
                        NOSIG=
200801291600 METAR LMML NIL=
200801291545 METAR LMML 291545Z VRB03KT 9999 BKN031 14/08 Q1030 NOSIG=
200801291530 METAR LMML NIL=
200801291515 METAR LMML 291515Z VRB03KT 9999 FEW029 BKN041 14/08 Q1030
                        NOSIG=
200801291500 METAR LMML NIL=
200801291445 METAR LMML 291445Z VRB03KT 9999 SCT029 BKN039 14/08 Q1030
                        NOSIG=
200801291430 METAR LMML NIL=
200801291415 METAR LMML 291415Z 13005KT 9999 FEW028 SCT040 15/08 Q1029
                        NOSIG=
200801291400 METAR LMML NIL=
200801291345 METAR LMML 291345Z 13004KT 090V180 9999 SCT029 BKN036 15/08
                        Q1029 NOSIG=
200801291330 METAR LMML NIL=
200801291315 METAR LMML 291315Z 12004KT 090V150 9999 SCT029 BKN044 15/08
                        Q1029 NOSIG=
200801291300 METAR LMML NIL=
200801291245 METAR LMML 291245Z 08005KT 030V110 9999 FEW030 BKN041 15/08
                        Q1029 NOSIG=
200801291230 METAR LMML NIL=
200801291215 METAR LMML 291215Z 11004KT 010V190 9999 SCT032 SCT100 15/08
                        Q1030 NOSIG=
200801291200 METAR LMML NIL=
200801291145 METAR LMML 291145Z 08005KT 020V130 9999 SCT031 16/08 Q1030
                        NOSIG=
200801291130 METAR LMML NIL=
200801291115 METAR LMML 291115Z 09006KT 060V130 9999 SCT032 15/08 Q1030
                        NOSIG=
200801291100 METAR LMML NIL=
200801291045 METAR LMML 291045Z 10005KT 9999 BKN030 16/09 Q1030 NOSIG=
200801291030 METAR LMML NIL=
200801291015 METAR LMML 291015Z 08005KT 040V130 9999 BKN035 15/09 Q1030
                        NOSIG=
200801290945 METAR LMML 290945Z 09006KT 040V120 9999 BKN032 15/08 Q1030
                        NOSIG=
200801290930 METAR LMML NIL=
200801290915 METAR LMML 290915Z 08007KT 9999 BKN029 14/09 Q1030 NOSIG=
200801290900 METAR LMML NIL=
200801290845 METAR LMML 290845Z 08007KT 050V120 9999 BKN030 15/09 Q1030
                        NOSIG=
200801290815 METAR LMML 290815Z 08005KT 9999 BKN032 14/10 Q1030 NOSIG=
200801290800 METAR LMML NIL=
200801290745 METAR LMML 290745Z 08004KT 050V110 9999 FEW030 14/10 Q1029
                        NOSIG=
200801290730 METAR LMML NIL=
200801290715 METAR LMML 290715Z 06004KT 9999 FEW030 12/08 Q1029 NOSIG=
200801290700 METAR LMML NIL=
200801290645 METAR LMML 290645Z 07004KT 040V100 9999 FEW031 12/08 Q1029
                        NOSIG=
200801290615 METAR LMML 290615Z VRB03KT 9999 SCT031 12/08 Q1029 NOSIG=
200801290600 METAR LMML NIL=
200801290545 METAR LMML 290545Z 06004KT 9999 FEW032 12/08 Q1028 NOSIG=
200801290530 METAR LMML NIL=
200801290515 METAR LMML 290515Z 07004KT 9999 FEW030 12/08 Q1028 NOSIG=
200801290500 METAR LMML NIL=
200801290445 METAR LMML 290445Z 07005KT 9999 SCT030 12/08 Q1028 NOSIG=
200801290430 METAR LMML NIL=
200801290415 METAR LMML 290415Z 08004KT 9999 SCT030 12/08 Q1027 NOSIG=
200801290400 METAR LMML NIL=
200801290345 METAR LMML 290345Z 08005KT 050V110 9999 BKN028 12/09 Q1027
                        NOSIG=
200801290330 METAR LMML NIL=
200801290315 METAR LMML 290315Z VRB03KT 9999 SCT026 12/09 Q1027 NOSIG=
200801290300 METAR LMML NIL=
200801290245 METAR LMML 290245Z 08005KT 9999 SCT026 12/10 Q1027 NOSIG=
200801290230 METAR LMML NIL=
200801290215 METAR LMML 290215Z VRB02KT 9999 BKN022 11/10 Q1027 NOSIG=
200801290200 METAR LMML NIL=
200801290145 METAR LMML 290145Z VRB03KT 9999 FEW019 11/10 Q1027 NOSIG=
200801290130 METAR LMML NIL=
200801290115 METAR LMML 290115Z VRB03KT 9999 FEW019 12/11 Q1027 NOSIG=
200801290100 METAR LMML NIL=
200801290045 METAR LMML 290045Z 09006KT 9999 FEW019 12/11 Q1027 NOSIG=
200801290030 METAR LMML NIL=
200801290015 METAR LMML 290015Z 08005KT 030V090 9999 FEW018 13/11 Q1027
                        NOSIG=
200801290000 METAR LMML NIL=
200801282345 METAR LMML 282345Z 06004KT 9999 FEW024 12/11 Q1027 NOSIG=
200801282330 METAR LMML NIL=
200801282315 METAR LMML 282315Z VRB02KT CAVOK 11/10 Q1027 NOSIG=
200801282300 METAR LMML NIL=
200801282245 METAR LMML 282245Z VRB01KT CAVOK 11/10 Q1027 NOSIG=
200801282230 METAR LMML NIL=
200801282215 METAR LMML 282215Z VRB01KT CAVOK 11/11 Q1027 NOSIG=
200801282200 METAR LMML NIL=
200801282145 METAR LMML 282145Z VRB01KT CAVOK 11/10 Q1026 NOSIG=
200801282130 METAR LMML NIL=
200801282115 METAR LMML 282115Z VRB01KT CAVOK 12/10 Q1026 NOSIG=
200801282100 METAR LMML NIL=
200801282045 METAR LMML 282045Z VRB01KT CAVOK 12/11 Q1026 NOSIG=
200801282030 METAR LMML NIL=
200801282015 METAR LMML 282015Z VRB02KT CAVOK 12/10 Q1026 NOSIG=
200801282000 METAR LMML NIL=
200801281930 METAR LMML NIL=
200801281900 METAR LMML NIL=
200801281845 METAR LMML 281845Z VRB01KT CAVOK 12/11 Q1025 NOSIG=
200801281830 METAR LMML NIL=
200801281815 METAR LMML 281815Z VRB02KT CAVOK 12/11 Q1025 NOSIG RMK SMOKE
                        TO SOUTH=
200801281800 METAR LMML NIL=
200801281745 METAR LMML 281745Z VRB02KT CAVOK 13/11 Q1024 NOSIG=
200801281730 METAR LMML NIL=
200801281715 METAR LMML 281715Z VRB02KT CAVOK 13/11 Q1024 NOSIG=
200801281700 METAR LMML NIL=
200801281645 METAR LMML 281645Z 33004KT 280V350 CAVOK 14/10 Q1024 NOSIG=
200801281630 METAR LMML NIL=
200801281615 METAR LMML 281615Z 33004KT CAVOK 14/11 Q1023 NOSIG=
200801281545 METAR LMML 281545Z 34006KT CAVOK 16/11 Q1023 NOSIG=
200801281530 METAR LMML NIL=
200801281515 METAR LMML 281515Z 33008KT 9999 FEW020 16/11 Q1023 NOSIG=
200801281500 METAR LMML NIL=
200801281445 METAR LMML 281445Z 33009KT 9999 FEW019 16/11 Q1023 NOSIG=
200801281430 METAR LMML NIL=
200801281415 METAR LMML 281415Z 32010KT 290V360 9999 FEW019 16/11 Q1023
                        NOSIG=
200801281400 METAR LMML NIL=
200801281345 METAR LMML 281345Z 32014KT 9999 FEW019 16/12 Q1023 NOSIG=
200801281330 METAR LMML NIL=
200801281315 METAR LMML 281315Z 33013KT CAVOK 16/11 Q1023 NOSIG=
200801281300 METAR LMML NIL=
200801281245 METAR LMML 281245Z 32013KT 9999 FEW019 16/11 Q1023 NOSIG=
200801281230 METAR LMML NIL=
200801281215 METAR LMML 281215Z 33015KT 9999 FEW019 16/12 Q1023 NOSIG=
200801281200 METAR LMML NIL=
200801281145 METAR LMML 281145Z 32013KT 9999 FEW019 17/11 Q1023 NOSIG=
200801281130 METAR LMML NIL=
200801281115 METAR LMML 281115Z 32013KT 9999 FEW019 16/12 Q1023 NOSIG=
200801281100 METAR LMML NIL=
200801281045 METAR LMML 281045Z 33017KT 9999 FEW018 16/12 Q1024 NOSIG=
200801281030 METAR LMML NIL=
200801281015 METAR LMML 281015Z 33017KT 300V360 9999 SCT019 16/12 Q1024
                        NOSIG=
200801281000 METAR LMML NIL=
200801280945 METAR LMML 280945Z 32017KT 9999 SCT019 16/12 Q1024 NOSIG=
200801280915 METAR LMML 280915Z 31017KT 9999 SCT018 16/11 Q1024 NOSIG=
200801280900 METAR LMML NIL=
200801280845 METAR LMML 280845Z 31015KT 9999 FEW018 15/11 Q1024 NOSIG=
200801280830 METAR LMML NIL=
200801280815 METAR LMML 280815Z 31017KT 9999 FEW017 15/11 Q1023 NOSIG=
200801280800 METAR LMML NIL=
200801280745 METAR LMML 280745Z 31021KT 9999 FEW017 14/11 Q1023 NOSIG=
200801280730 METAR LMML NIL=
200801280715 METAR LMML 280715Z 30018KT 9999 FEW017 14/11 Q1023 NOSIG=
200801280700 METAR LMML NIL=
200801280645 METAR LMML 280645Z 30016KT 9999 FEW017 13/11 Q1023 NOSIG=
200801280630 METAR LMML NIL=
200801280615 METAR LMML 280615Z 31017KT 280V340 9999 FEW017 13/11 Q1023
                        NOSIG=
200801280600 METAR LMML NIL=
200801280545 METAR LMML 280545Z 29011KT 250V330 9999 FEW017 13/11 Q1023
                        NOSIG=
200801280530 METAR LMML NIL=
200801280515 METAR LMML 280515Z 31018KT 9999 FEW017 SCT250 13/11 Q1023
                        NOSIG=
200801280500 METAR LMML NIL=
200801280445 METAR LMML 280445Z 31018KT 9999 FEW017 SCT250 13/10 Q1023
                        NOSIG=
200801280430 METAR LMML NIL=
200801280415 METAR LMML 280415Z 31019KT 9999 FEW017 SCT250 13/10 Q1023
                        NOSIG=
200801280400 METAR LMML NIL=
200801280345 METAR LMML 280345Z 30020KT 9999 FEW017 SCT250 13/11 Q1023
                        NOSIG=
200801280330 METAR LMML NIL=
200801280315 METAR LMML 280315Z 30019G29KT 9999 FEW017 SCT250 13/11 Q1023
                        NOSIG=
200801280300 METAR LMML NIL=
200801280245 METAR LMML 280245Z 30017KT 9999 FEW017 SCT250 13/11 Q1023
                        NOSIG=
200801280230 METAR LMML NIL=
200801280215 METAR LMML 280215Z 29018KT CAVOK 13/11 Q1023 NOSIG=
200801280200 METAR LMML NIL=
200801280145 METAR LMML 280145Z 29018KT 260V320 CAVOK 13/11 Q1023 NOSIG=
200801280130 METAR LMML NIL=
200801280115 METAR LMML 280115Z 29018KT CAVOK 13/11 Q1024 NOSIG=
200801280100 METAR LMML NIL=
200801280045 METAR LMML 280045Z 29018KT CAVOK 13/10 Q1024 NOSIG=
200801280030 METAR LMML NIL=
200801280015 METAR LMML 280015Z 29018KT CAVOK 13/10 Q1024 NOSIG=
200801280000 METAR LMML NIL=
200801272345 METAR LMML 272345Z 30019KT CAVOK 13/10 Q1025 NOSIG=
200801272330 METAR LMML NIL=
200801272315 METAR LMML 272315Z 30018KT CAVOK 13/10 Q1025 NOSIG=
200801272300 METAR LMML NIL=
200801272245 METAR LMML 272245Z 30020KT CAVOK 13/10 Q1025 NOSIG=
200801272230 METAR LMML NIL=
200801272215 METAR LMML 272215Z 30019KT CAVOK 13/10 Q1025 NOSIG=
200801272200 METAR LMML NIL=
200801272145 METAR LMML 272145Z 31017KT CAVOK 13/10 Q1026 NOSIG=
200801272130 METAR LMML NIL=
200801272115 METAR LMML 272115Z 30011KT 260V350 CAVOK 13/10 Q1026 NOSIG=
200801272100 METAR LMML NIL=
200801272045 METAR LMML 272045Z 29013KT 260V320 CAVOK 13/10 Q1026 NOSIG=
200801272030 METAR LMML NIL=
200801272015 METAR LMML 272015Z 29012KT CAVOK 13/10 Q1026 NOSIG=
200801272000 METAR LMML NIL=
200801271945 METAR LMML 271945Z 29010KT 260V330 CAVOK 13/10 Q1026 NOSIG=
200801271930 METAR LMML NIL=
200801271915 METAR LMML 271915Z 29013KT 250V320 CAVOK 14/09 Q1026 NOSIG=
200801271900 METAR LMML NIL=
200801271845 METAR LMML 271845Z 28007KT 240V320 CAVOK 13/10 Q1027 NOSIG=
200801271830 METAR LMML NIL=
200801271815 METAR LMML 271815Z 28008KT CAVOK 13/10 Q1027 NOSIG=
200801271800 METAR LMML NIL=
200801271745 METAR LMML 271745Z 28008KT 250V310 CAVOK 13/10 Q1027 NOSIG=
200801271730 METAR LMML NIL=
200801271715 METAR LMML 271715Z 28010KT CAVOK 13/10 Q1027 NOSIG=
200801271700 METAR LMML NIL=
200801271645 METAR LMML 271645Z 28009KT CAVOK 13/10 Q1027 NOSIG=
200801271630 METAR LMML NIL=
200801271615 METAR LMML 271615Z 29009KT CAVOK 14/09 Q1027 NOSIG=
200801271545 METAR LMML 271545Z 29010KT 260V320 CAVOK 15/10 Q1027 NOSIG=
200801271530 METAR LMML NIL=
200801271515 METAR LMML 271515Z 29011KT 9999 FEW020 SCT250 15/10 Q1027
                        NOSIG=
200801271500 METAR LMML NIL=
200801271445 METAR LMML 271445Z 29011KT 9999 FEW020 15/11 Q1027 NOSIG=
200801271430 METAR LMML NIL=
200801271415 METAR LMML 271415Z 29011KT 250V320 9999 SCT020 16/11 Q1027
                        NOSIG=
200801271400 METAR LMML NIL=
200801271345 METAR LMML 271345Z 28012KT 240V310 9999 SCT020 15/10 Q1027
                        NOSIG=
200801271330 METAR LMML NIL=
200801271315 METAR LMML 271315Z 30013KT 270V330 9999 SCT020 16/11 Q1028
                        NOSIG=
200801271300 METAR LMML NIL=
200801271245 METAR LMML 271245Z 30013KT 9999 FEW021 16/11 Q1028 NOSIG=
200801271215 METAR LMML 271215Z 29012KT 9999 FEW020 16/11 Q1028 NOSIG=
200801271200 METAR LMML NIL=
200801271145 METAR LMML 271145Z 27010KT 230V300 9999 FEW021 16/11 Q1029
                        NOSIG=
200801271115 METAR LMML 271115Z 28011KT 250V310 9999 FEW021 16/11 Q1030
                        NOSIG=
200801271045 METAR LMML 271045Z 27010KT 220V300 9999 FEW022 16/11 Q1030
                        NOSIG=
200801271015 METAR LMML 271015Z 27010KT 240V300 9999 FEW020 15/11 Q1030
                        NOSIG=
200801271000 METAR LMML NIL=
200801270945 METAR LMML 270945Z 26009KT 220V300 9999 FEW020 15/11 Q1030
                        NOSIG=
200801270930 METAR LMML NIL=
200801270915 METAR LMML 270915Z 26009KT 230V290 9999 FEW020 15/11 Q1030
                        NOSIG=
200801270900 METAR LMML NIL=
200801270845 METAR LMML 270845Z 28007KT 9999 FEW020 15/11 Q1030 NOSIG=
200801270830 METAR LMML NIL=
200801270815 METAR LMML 270815Z VRB03KT 9999 FEW020 14/12 Q1030 NOSIG=
200801270800 METAR LMML NIL=
200801270745 METAR LMML 270745Z VRB03KT 9999 FEW020 13/11 Q1030 NOSIG=
200801270730 METAR LMML NIL=
200801270715 METAR LMML 270715Z 27004KT 9999 FEW020 12/10 Q1030 NOSIG=
200801270700 METAR LMML NIL=
200801270645 METAR LMML 270645Z 26005KT 9999 FEW020 11/10 Q1030 NOSIG=
200801270630 METAR LMML NIL=
200801270615 METAR LMML 270615Z 26005KT 9000 FEW020 10/10 Q1030 NOSIG=
200801270600 METAR LMML NIL=
200801270545 METAR LMML 270545Z 27004KT 9000 FEW020 11/09 Q1030 NOSIG=
200801270530 METAR LMML NIL=
200801270515 METAR LMML 270515Z 26004KT 9000 FEW040 10/09 Q1030 TEMPO
                        7000=
200801270500 METAR LMML NIL=
200801270445 METAR LMML 270445Z 26004KT 9000 FEW040 10/10 Q1030 TEMPO
                        7000=
200801270430 METAR LMML NIL=
200801270415 METAR LMML 270415Z 28004KT 9000 FEW040 11/09 Q1030 TEMPO
                        7000=
200801270400 METAR LMML NIL=
200801270345 METAR LMML 270345Z 27005KT 9000 FEW040 11/10 Q1030 NOSIG=
200801270330 METAR LMML NIL=
200801270315 METAR LMML 270315Z 28005KT 9000 SKC 11/10 Q1030 NOSIG=
200801270300 METAR LMML NIL=
200801270245 METAR LMML 270245Z VRB03KT 9000 SKC 10/10 Q1030 NOSIG=
200801270230 METAR LMML NIL=
200801270215 METAR LMML 270215Z VRB03KT 9000 SKC 10/10 Q1030 NOSIG=
200801270200 METAR LMML NIL=
200801270145 METAR LMML 270145Z VRB03KT 9000 SKC 10/09 Q1031 NOSIG=
200801270130 METAR LMML NIL=
200801270115 METAR LMML 270115Z VRB03KT 9000 SKC 10/10 Q1031 NOSIG=
200801270100 METAR LMML NIL=
200801270045 METAR LMML 270045Z VRB03KT 9000 SKC 10/10 Q1031 NOSIG=
200801270030 METAR LMML NIL=
200801270015 METAR LMML 270015Z VRB02KT 9000 SKC 10/10 Q1031 NOSIG=
200801270000 METAR LMML NIL=
200801262345 METAR LMML 262345Z VRB01KT CAVOK 10/10 Q1031 NOSIG=
200801262330 METAR LMML NIL=
200801262315 METAR LMML 262315Z VRB02KT CAVOK 10/09 Q1031 NOSIG=
200801262300 METAR LMML NIL=
200801262245 METAR LMML 262245Z VRB03KT CAVOK 10/09 Q1031 NOSIG=
200801262230 METAR LMML NIL=
200801262215 METAR LMML 262215Z VRB02KT CAVOK 11/10 Q1031 NOSIG=
200801262200 METAR LMML NIL=
200801262145 METAR LMML 262145Z VRB03KT CAVOK 11/10 Q1031 NOSIG=
200801262130 METAR LMML NIL=
200801262115 METAR LMML 262115Z VRB02KT CAVOK 11/10 Q1031 NOSIG=
200801262100 METAR LMML NIL=
200801262045 METAR LMML 262045Z VRB02KT 9999 FEW025 11/10 Q1031 NOSIG=
200801262030 METAR LMML NIL=
200801262015 METAR LMML 262015Z VRB02KT CAVOK 11/10 Q1031 NOSIG=
200801262000 METAR LMML NIL=
200801261945 METAR LMML 261945Z VRB01KT 9999 FEW025 SCT250 11/10 Q1031
                        NOSIG=
200801261930 METAR LMML NIL=
200801261915 METAR LMML 261915Z VRB02KT CAVOK 11/10 Q1031 NOSIG=
200801261900 METAR LMML NIL=
200801261845 METAR LMML 261845Z VRB02KT CAVOK 11/10 Q1031 NOSIG=
200801261830 METAR LMML NIL=
200801261815 METAR LMML 261815Z VRB01KT 9999 FEW020 SCT250 12/10 Q1031
                        NOSIG=
200801261800 METAR LMML NIL=
200801261745 METAR LMML 261745Z VRB02KT 9999 FEW025 12/10 Q1031 NOSIG=
200801261730 METAR LMML NIL=
200801261715 METAR LMML 261715Z VRB01KT 9999 FEW025 12/09 Q1031 NOSIG=
200801261700 METAR LMML NIL=
200801261645 METAR LMML 261645Z VRB02KT 9999 SCT027 13/10 Q1030 NOSIG=
200801261630 METAR LMML NIL=
200801261615 METAR LMML 261615Z VRB03KT 9999 SCT027 14/10 Q1030 NOSIG=
200801261600 METAR LMML NIL=
200801261545 METAR LMML 261545Z VRB03KT 9999 SCT025 SCT250 14/10 Q1030
                        NOSIG=
200801261530 METAR LMML NIL=
200801261515 METAR LMML 261515Z VRB03KT 9999 SCT024 15/10 Q1030 NOSIG=
200801261500 METAR LMML NIL=
200801261445 METAR LMML 261445Z VRB02KT 9999 SCT024 15/10 Q1030 NOSIG=
200801261430 METAR LMML NIL=
200801261415 METAR LMML 261415Z VRB03KT 9999 SCT023 15/10 Q1030 NOSIG=
200801261345 METAR LMML 261345Z VRB02KT 9999 SCT022 15/11 Q1030 NOSIG=
200801261330 METAR LMML NIL=
200801261315 METAR LMML 261315Z VRB03KT 9999 SCT022 15/10 Q1030 NOSIG=
200801261300 METAR LMML NIL=
200801261245 METAR LMML 261245Z VRB03KT 9999 SCT022 15/10 Q1030 NOSIG=
200801261230 METAR LMML NIL=
200801261215 METAR LMML 261215Z VRB03KT 9999 SCT021 15/10 Q1030 NOSIG=
200801261200 METAR LMML NIL=
200801261145 METAR LMML 261145Z VRB03KT 9999 SCT024 16/10 Q1030 NOSIG=
200801261130 METAR LMML NIL=
200801261115 METAR LMML 261115Z VRB02KT 9999 SCT026 17/10 Q1031 NOSIG=
200801261100 METAR LMML NIL=
200801261045 METAR LMML 261045Z VRB02KT 9999 SCT025 15/09 Q1031 NOSIG=
200801261030 METAR LMML NIL=
200801261015 METAR LMML 261015Z VRB02KT 9999 SCT024 17/11 Q1031 NOSIG=
200801261000 METAR LMML NIL=
200801260945 METAR LMML 260945Z VRB03KT 9999 SCT024 17/11 Q1031 NOSIG=
200801260930 METAR LMML NIL=
200801260915 METAR LMML 260915Z VRB03KT 9999 SCT022 15/11 Q1031 NOSIG=
200801260900 METAR LMML NIL=
200801260845 METAR LMML 260845Z 08004KT 040V130 9999 FEW018 15/11 Q1031
                        NOSIG=
200801260830 METAR LMML NIL=
200801260815 METAR LMML 260815Z VRB02KT 9999 FEW018 15/11 Q1031 NOSIG=
200801260800 METAR LMML NIL=
200801260745 METAR LMML 260745Z VRB01KT 9999 FEW018 14/13 Q1031 NOSIG=
200801260730 METAR LMML NIL=
200801260715 METAR LMML 260715Z 00000KT 9999 FEW018 11/10 Q1030 NOSIG=
200801260700 METAR LMML NIL=
200801260645 METAR LMML 260645Z 00000KT 9999 FEW018 10/09 Q1030 NOSIG=
200801260630 METAR LMML NIL=
200801260615 METAR LMML 260615Z VRB01KT 9999 FEW035 09/08 Q1030 NOSIG=
200801260600 METAR LMML NIL=
200801260545 METAR LMML 260545Z 00000KT 9999 SCT034 10/09 Q1030 NOSIG=
200801260530 METAR LMML NIL=
200801260515 METAR LMML 260515Z VRB02KT 9999 SCT036 10/09 Q1030 NOSIG=
200801260500 METAR LMML NIL=
200801260445 METAR LMML 260445Z VRB01KT 9999 FEW036 09/09 Q1029 NOSIG=
200801260430 METAR LMML NIL=
200801260415 METAR LMML 260415Z VRB01KT 9999 SCT036 10/09 Q1029 NOSIG=
200801260400 METAR LMML NIL=
200801260345 METAR LMML 260345Z 00000KT 9999 SCT037 09/09 Q1029 NOSIG=
200801260315 METAR LMML 260315Z VRB01KT CAVOK 10/09 Q1029 NOSIG=
200801260245 METAR LMML 260245Z VRB01KT CAVOK 10/09 Q1029 NOSIG=
200801260230 METAR LMML NIL=
200801260215 METAR LMML 260215Z VRB01KT 9999 FEW044 09/08 Q1029 NOSIG=
200801260145 METAR LMML 260145Z VRB01KT 9999 FEW044 10/09 Q1029 NOSIG=
200801260130 METAR LMML NIL=
200801260115 METAR LMML 260115Z VRB01KT 9999 FEW044 10/09 Q1029 NOSIG=
200801260100 METAR LMML NIL=
200801260045 METAR LMML 260045Z VRB01KT 9999 FEW044 10/09 Q1029 NOSIG=
200801260030 METAR LMML NIL=
200801260015 METAR LMML 260015Z VRB01KT 9999 FEW045 10/09 Q1029 NOSIG=
200801260000 METAR LMML NIL=
200801252345 METAR LMML 252345Z VRB01KT 9999 BKN044 11/09 Q1029 NOSIG=
200801252330 METAR LMML NIL=
200801252315 METAR LMML 252315Z VRB01KT 9999 BKN044 10/09 Q1029 NOSIG=
200801252300 METAR LMML NIL=
200801252245 METAR LMML 252245Z VRB02KT 9999 FEW043 10/09 Q1030 NOSIG=
200801252230 METAR LMML NIL=
200801252215 METAR LMML 252215Z VRB01KT CAVOK 11/09 Q1030 NOSIG=
200801252200 METAR LMML NIL=
200801252145 METAR LMML 252145Z VRB02KT CAVOK 11/09 Q1030 NOSIG=
200801252130 METAR LMML NIL=
200801252115 METAR LMML 252115Z VRB02KT 9999 FEW043 11/09 Q1030 NOSIG=
200801252100 METAR LMML NIL=
200801252045 METAR LMML 252045Z 28004KT 9999 FEW043 11/09 Q1030 NOSIG=
200801252030 METAR LMML NIL=
200801252015 METAR LMML 252015Z VRB02KT 9999 SCT043 11/10 Q1029 NOSIG=
200801252000 METAR LMML NIL=
200801251945 METAR LMML 251945Z VRB03KT 9999 FEW030 11/09 Q1030 NOSIG=
200801251930 METAR LMML NIL=
200801251915 METAR LMML 251915Z VRB03KT 9999 FEW032 12/09 Q1029 NOSIG=
200801251900 METAR LMML NIL=
200801251845 METAR LMML 251845Z VRB02KT 9999 FEW032 12/09 Q1029 NOSIG=
200801251830 METAR LMML NIL=
200801251815 METAR LMML 251815Z VRB01KT 9999 FEW031 13/10 Q1029 NOSIG=
200801251800 METAR LMML NIL=
200801251745 METAR LMML 251745Z VRB02KT 9999 SCT031 13/10 Q1029 NOSIG=
200801251730 METAR LMML NIL=
200801251715 METAR LMML 251715Z VRB02KT 9999 SCT022 13/10 Q1029 NOSIG=
200801251700 METAR LMML NIL=
200801251645 METAR LMML 251645Z 30004KT 9999 SCT023 13/10 Q1029 NOSIG=
200801251630 METAR LMML NIL=
200801251615 METAR LMML 251615Z 31006KT 9999 SCT022 13/10 Q1028 NOSIG=
200801251600 METAR LMML NIL=
200801251545 METAR LMML 251545Z 30007KT 9999 FEW022 14/10 Q1028 NOSIG=
200801251530 METAR LMML NIL=
200801251515 METAR LMML 251515Z 31005KT 250V350 9999 SCT023 15/10 Q1028
                        NOSIG=
200801251500 METAR LMML NIL=
200801251445 METAR LMML 251445Z 32005KT 9999 SCT028 14/10 Q1028 NOSIG=
200801251430 METAR LMML NIL=
200801251415 METAR LMML 251415Z 33007KT 9999 SCT026 15/10 Q1028 NOSIG=
200801251400 METAR LMML NIL=
200801251345 METAR LMML 251345Z 32006KT 280V360 9999 SCT026 16/10 Q1028
                        NOSIG=
200801251315 METAR LMML 251315Z 34006KT 310V020 9999 SCT028 15/10 Q1028
                        NOSIG=
200801251300 METAR LMML NIL=
200801251245 METAR LMML 251245Z 01005KT 340V040 9999 BKN025 16/11 Q1028
                        NOSIG=
200801251230 METAR LMML NIL=
200801251215 METAR LMML 251215Z 01006KT 340V050 9999 BKN027 16/10 Q1029
                        NOSIG=
200801251200 METAR LMML NIL=
200801251145 METAR LMML 251145Z 02006KT 350V060 9999 SCT026 16/10 Q1029
                        NOSIG=
200801251130 METAR LMML NIL=
200801251115 METAR LMML 251115Z 03007KT 340V070 9999 SCT025 16/10 Q1029
                        NOSIG=
200801251100 METAR LMML NIL=
200801251045 METAR LMML 251045Z 02007KT 350V070 9999 SCT023 16/11 Q1029
                        NOSIG=
200801251030 METAR LMML NIL=
200801251015 METAR LMML 251015Z 02007KT 9999 SCT024 16/10 Q1029 NOSIG=
200801251000 METAR LMML NIL=
200801250945 METAR LMML 250945Z 03008KT 360V060 9999 SCT022 15/10 Q1029
                        NOSIG=
200801250930 METAR LMML NIL=
200801250915 METAR LMML 250915Z 04008KT 360V070 9999 SCT021 15/10 Q1029
                        NOSIG=
200801250900 METAR LMML NIL=
200801250845 METAR LMML 250845Z 03008KT 360V070 9999 FEW019 15/10 Q1029
                        NOSIG=
200801250830 METAR LMML NIL=
200801250815 METAR LMML 250815Z 03009KT 360V070 9999 FEW021 15/10 Q1029
                        NOSIG=
200801250800 METAR LMML NIL=
200801250745 METAR LMML 250745Z 03009KT 010V070 9999 FEW020 SCT100 14/10
                        Q1029 NOSIG=
200801250730 METAR LMML NIL=
200801250715 METAR LMML 250715Z 02008KT 350V070 9999 FEW018 SCT100 14/10
                        Q1029 NOSIG=
200801250700 METAR LMML NIL=
200801250645 METAR LMML 250645Z 03007KT 360V060 9999 FEW018 SCT060 13/10
                        Q1028 NOSIG=
200801250615 METAR LMML 250615Z 03010KT 360V060 9999 FEW019 BKN100 13/10
                        Q1028 NOSIG=
200801250600 METAR LMML NIL=
200801250545 METAR LMML 250545Z 04011KT 010V070 9999 SCT019 BKN110 13/10
                        Q1028 NOSIG=
200801250530 METAR LMML NIL=
200801250515 METAR LMML 250515Z 03011KT 010V070 9999 SCT020 BKN100 13/10
                        Q1028 NOSIG=
200801250500 METAR LMML NIL=
200801250445 METAR LMML 250445Z 03009KT 010V080 9999 BKN018 13/10 Q1027
                        NOSIG=
200801250430 METAR LMML NIL=
200801250415 METAR LMML 250415Z 04010KT 010V080 9999 BKN019 13/10 Q1027
                        NOSIG=
200801250400 METAR LMML NIL=
200801250345 METAR LMML 250345Z 04010KT 010V090 9999 BKN018 13/10 Q1027
                        NOSIG=
200801250330 METAR LMML NIL=
200801250315 METAR LMML 250315Z 04010KT 360V070 9999 BKN018 13/10 Q1027
                        NOSIG=
200801250245 METAR LMML 250245Z 03012KT 360V070 9999 BKN019 SCT110 13/10
                        Q1027 NOSIG=
200801250230 METAR LMML NIL=
200801250215 METAR LMML 250215Z 04015KT 020V080 9999 BKN017 13/10 Q1027
                        NOSIG=
200801250145 METAR LMML 250145Z 04011KT 010V080 9999 BKN017 SCT060 13/11
                        Q1027 NOSIG=
200801250130 METAR LMML NIL=
200801250115 METAR LMML 250115Z 04015KT 010V070 9999 BKN017 14/11 Q1027
                        NOSIG=
200801250100 METAR LMML NIL=
200801250045 METAR LMML 250045Z 04012KT 010V080 9999 BKN017 14/11 Q1027
                        NOSIG=
200801250030 METAR LMML NIL=
200801250015 METAR LMML 250015Z 03016KT 9999 BKN016 14/11 Q1026 NOSIG=
200801250000 METAR LMML NIL=
200801242345 METAR LMML 242345Z 04016KT 010V070 9999 BKN017 14/11 Q1026
                        NOSIG=
200801242330 METAR LMML NIL=
200801242315 METAR LMML 242315Z 04015G25KT 360V080 9999 BKN017 14/11 Q1026
                        NOSIG=
200801242300 METAR LMML NIL=
200801242245 METAR LMML 242245Z 04013KT 360V080 9999 SHRA BKN017 14/11
                        Q1026 NOSIG=
200801242230 METAR LMML NIL=
200801242215 METAR LMML 242215Z 03017G27KT 9999 BKN017 14/11 Q1026 NOSIG=
200801242200 METAR LMML NIL=
200801242145 METAR LMML 242145Z 03016KT 360V060 9999 BKN017 14/11 Q1026
                        NOSIG=
200801242130 METAR LMML NIL=
200801242115 METAR LMML 242115Z 04015KT 010V070 9999 BKN017 14/11 Q1026
                        NOSIG=
200801242100 METAR LMML NIL=
200801242045 METAR LMML 242045Z 04015G26KT 360V080 9999 -SHRA BKN017 14/11
                        Q1026 NOSIG=
200801242030 METAR LMML NIL=
200801242015 METAR LMML 242015Z 04018G31KT 360V070 9999 BKN017 14/11 Q1025
                        NOSIG=
200801241945 METAR LMML 241945Z 04017KT 360V070 9999 BKN017 14/11 Q1025
                        NOSIG=
200801241930 METAR LMML NIL=
200801241915 METAR LMML 241915Z 04017KT 010V070 9999 BKN017 14/11 Q1025
                        NOSIG=
200801241900 METAR LMML NIL=
200801241845 METAR LMML 241845Z 04018G30KT 340V070 9999 BKN016 13/11 Q1025
                        NOSIG=
200801241830 METAR LMML NIL=
200801241815 METAR LMML 241815Z 04016G27KT 010V080 9999 BKN016 14/11 Q1024
                        NOSIG=
200801241800 METAR LMML NIL=
200801241745 METAR LMML 241745Z 04018KT 010V080 9999 BKN016 13/11 Q1024
                        NOSIG=
200801241730 METAR LMML NIL=
200801241715 METAR LMML 241715Z 04019G35KT 010V070 9999 BKN014 13/11 Q1023
                        NOSIG=
200801241700 METAR LMML NIL=
200801241645 METAR LMML 241645Z 04021G32KT 010V080 9999 BKN013 13/11 Q1023
                        NOSIG=
200801241630 METAR LMML NIL=
200801241615 METAR LMML 241615Z 04019G32KT 010V080 9999 BKN013 SCT050
                        13/11 Q1022 NOSIG=
200801241600 METAR LMML NIL=
200801241545 METAR LMML 241545Z 04020G30KT 360V080 9999 BKN014 SCT050
                        13/11 Q1022 TEMPO 8000 SHRA=
200801241530 METAR LMML NIL=
200801241515 METAR LMML 241515Z 04022G33KT 010V080 9999 BKN013 SCT060
                        13/11 Q1021 TEMPO 8000 SHRA=
200801241500 METAR LMML NIL=
200801241445 METAR LMML 241445Z 04022G35KT 010V080 9000 BKN013 BKN018
                        13/11 Q1021 TEMPO 8000 SHRA=
200801241430 METAR LMML NIL=
200801241415 METAR LMML 241415Z 03020G34KT 010V070 7000 -SHRA BKN013 BKN018
                        13/11 Q1021 TEMPO 8000 SHRA=
200801241400 METAR LMML NIL=
200801241345 METAR LMML 241345Z 03024G34KT 360V070 7000 -SHRA BKN013 OVC034
                        13/11 Q1020 TEMPO 8000 SHRA=
200801241330 METAR LMML NIL=
200801241315 METAR LMML 241315Z 03022G34KT 360V070 6000 -SHRA BKN013 OVC023
                        13/11 Q1020 TEMPO 8000 SHRA=
200801241300 METAR LMML NIL=
200801241245 METAR LMML 241245Z 03023G37KT 7000 BKN011 OVC018 13/11 Q1020
                        TEMPO 8000 SHR A=
200801241230 METAR LMML NIL=
200801241215 METAR LMML 241215Z 03021G36KT 360V080 9999 BKN016 OVC021
                        13/11 Q1020 NOSIG=
200801241200 METAR LMML NIL=
200801241145 METAR LMML 241145Z 03020G32KT 360V080 9999 BKN018 OVC023
                        13/10 Q1020 NOSIG=
200801241130 METAR LMML NIL=
200801241115 METAR LMML 241115Z 03022G33KT 010V070 9999 SCT017 OVC024
                        13/10 Q1020 NOSIG=
200801241100 METAR LMML NIL=
200801241045 METAR LMML 241045Z 03022G33KT 9000 BKN019 OVC024 13/10 Q1020
                        TEMPO 8000 SHR A=
200801241030 METAR LMML NIL=
200801241015 METAR LMML 241015Z 03021G34KT 360V070 9000 SCT015 OVC018
                        13/10 Q1020 TEMPO 8000 SHRA=
200801241000 METAR LMML NIL=
200801240945 METAR LMML 240945Z 03024G37KT 360V070 9000 SCT011 OVC017
                        13/10 Q1019 NOSIG=
200801240930 METAR LMML NIL=
200801240915 METAR LMML 240915Z 03021G40KT 360V070 6000 -RA SCT011 BKN018
                        12/11 Q1020 NO SIG=
200801240900 METAR LMML NIL=
200801240845 METAR LMML 240845Z 02019G36KT 350V060 6000 -SHRA BKN012 OVC019
                        12/11 Q1019 NOSIG=
200801240830 METAR LMML NIL=
200801240815 METAR LMML 240815Z 03023G37KT 360V060 7000 -SHRA BKN013 BKN027
                        12/10 Q1019 NOSIG=
200801240800 METAR LMML NIL=
200801240745 METAR LMML 240745Z 03022G34KT 360V070 9000 FEW012 BKN017
                        BKN032 13/10 Q1018 NOSIG=
200801240730 METAR LMML NIL=
200801240715 METAR LMML 240715Z 03021G35KT 010V070 9999 BKN023 BKN050
                        13/09 Q1017 NOSIG=
200801240700 METAR LMML NIL=
200801240645 METAR LMML 240645Z 03024G38KT 350V070 9999 BKN023 BKN047
                        13/08 Q1017 NOSIG=
200801240630 METAR LMML NIL=
200801240615 METAR LMML 240615Z 03021G36KT 360V070 9999 BKN022 13/08 Q1017
                        NOSIG=
200801240600 METAR LMML NIL=
200801240545 METAR LMML 240545Z 02021G35KT 350V050 9999 SCT026 BKN035
                        13/08 Q1017 NOSIG=
200801240530 METAR LMML NIL=
200801240515 METAR LMML 240515Z 03020G36KT 360V060 9999 BKN028 BKN035
                        13/08 Q1017 NOSIG=
200801240500 METAR LMML NIL=
200801240445 METAR LMML 240445Z 01020G33KT 340V040 9999 SCT027 BKN030
                        13/08 Q1017 NOSIG=
200801240430 METAR LMML NIL=
200801240415 METAR LMML 240415Z 02019G34KT 340V040 9999 SCT026 BKN030
                        12/08 Q1016 NOSIG=
200801240400 METAR LMML NIL=
200801240345 METAR LMML 240345Z 02020G33KT 350V060 9999 BKN026 12/08 Q1016
                        NOSIG=
200801240330 METAR LMML NIL=
200801240315 METAR LMML 240315Z 02019G38KT 350V070 9999 BKN027 12/07 Q1016
                        NOSIG=
200801240300 METAR LMML NIL=
200801240245 METAR LMML 240245Z 01020G36KT 9999 BKN030 12/07 Q1016 NOSIG=
200801240230 METAR LMML NIL=
200801240215 METAR LMML 240215Z 01016G26KT 9999 BKN029 12/07 Q1016 NOSIG=
200801240145 METAR LMML 240145Z 01018G31KT 340V040 9999 BKN028 12/07 Q1016
                        NOSIG=
200801240130 METAR LMML NIL=
200801240115 METAR LMML 240115Z 02015G27KT 9999 BKN023 12/08 Q1016 NOSIG=
200801240100 METAR LMML NIL=
200801240045 METAR LMML 240045Z 01016KT 340V040 9999 FEW020 BKN034 12/07
                        Q1016 NOSIG=
200801240030 METAR LMML NIL=
200801240015 METAR LMML 240015Z 36018G28KT 9999 SCT024 BKN044 12/07 Q1016
                        NOSIG=
200801240000 METAR LMML NIL=
200801232345 METAR LMML 232345Z 01015G26KT 9999 SCT020 SCT049 12/08 Q1015
                        NOSIG=
200801232330 METAR LMML NIL=
200801232315 METAR LMML 232315Z 02014G24KT 350V050 9999 SCT020 SCT060
                        12/09 Q1015 NOSIG=
200801232300 METAR LMML NIL=
200801232245 METAR LMML 232245Z 03015G25KT 360V060 9999 -RA SCT016 BKN060
                        11/09 Q1015 NO SIG=
200801232230 METAR LMML NIL=
200801232215 METAR LMML 232215Z 03016KT 360V070 9999 -RA SCT018 BKN080
                        12/09 Q1015 NOSIG=
200801232200 METAR LMML NIL=
200801232145 METAR LMML 232145Z 03017G27KT 360V070 9999 SCT019 SCT049
                        12/09 Q1015 NOSIG=
200801232130 METAR LMML NIL=
200801232115 METAR LMML 232115Z 03018G28KT 9999 FEW018 SCT060 12/09 Q1015
                        NOSIG=
200801232100 METAR LMML NIL=
200801232045 METAR LMML 232045Z 03015KT 360V060 9999 FEW025 SCT070 12/09
                        Q1014 NOSIG=
200801232015 METAR LMML 232015Z 02014KT 350V050 9999 FEW024 BKN090 13/09
                        Q1014 NOSIG=
200801232000 METAR LMML NIL=
200801231945 METAR LMML 231945Z 04014KT 010V070 9999 FEW026 BKN090 13/10
                        Q1014 NOSIG=
200801231930 METAR LMML NIL=
200801231915 METAR LMML 231915Z 03013KT 340V060 9999 FEW022 SCT044 BKN090
                        13/09 Q1014 NO SIG=
200801231900 METAR LMML NIL=
200801231845 METAR LMML 231845Z 04014KT 360V070 9999 FEW018 BKN044 13/10
                        Q1013 NOSIG=
200801231830 METAR LMML NIL=
200801231815 METAR LMML 231815Z 04012G22KT 360V070 9999 FEW022 BKN049
                        13/10 Q1013 NOSIG=
200801231800 METAR LMML NIL=
200801231745 METAR LMML 231745Z 04008KT 010V080 9999 FEW021 BKN049 13/10
                        Q1013 NOSIG=
200801231730 METAR LMML NIL=
200801231715 METAR LMML 231715Z 03013KT 360V060 9999 FEW032 BKN050 13/08
                        Q1012 NOSIG=
200801231700 METAR LMML NIL=
200801231645 METAR LMML 231645Z 02012KT 360V070 9999 FEW032 BKN060 13/07
                        Q1012 NOSIG=
200801231630 METAR LMML NIL=
200801231615 METAR LMML 231615Z 02009KT 350V070 9999 SCT032 SCT050 13/08
                        Q1012 NOSIG=
200801231600 METAR LMML NIL=
200801231545 METAR LMML 231545Z 01007KT 9999 SCT031 BKN050 13/10 Q1011
                        TEMPO 8000 SHRA B KN018=
200801231530 METAR LMML NIL=
200801231515 METAR LMML 231515Z 02006KT 9999 SCT029 BKN090 13/11 Q1011
                        TEMPO 8000 SHRA B KN018=
200801231500 METAR LMML NIL=
200801231445 METAR LMML 231445Z 03009KT 010V070 8000 FEW019 SCT041 12/11
                        Q1011 RERA TEMP O 8000 SHRA BKN018=
200801231430 METAR LMML NIL=
200801231415 METAR LMML 231415Z 03008KT 360V070 8000 RA FEW011 BKN035
                        12/11 Q1011 TEMPO 8000 SHRA BKN018=
200801231400 METAR LMML NIL=
200801231345 METAR LMML 231345Z 35007KT 310V020 9999 FEW013 BKN037 12/11
                        Q1011 TEMPO 800 0 SHRA BKN018=
200801231330 METAR LMML NIL=
200801231315 METAR LMML 231315Z 36010KT 9999 SCT020 BKN050 12/11 Q1010
                        TEMPO 8000 SHRA B KN018=
200801231300 METAR LMML NIL=
200801231245 METAR LMML 231245Z 01012G22KT 9999 BKN025 13/10 Q1010 TEMPO
                        8000 SHRA BKN01 8=
200801231230 METAR LMML NIL=
200801231215 METAR LMML 231215Z 01018KT 9999 BKN025 14/11 Q1010 TEMPO
                        8000 SHRA BKN018=
200801231200 METAR LMML NIL=
200801231145 METAR LMML 231145Z 03016KT 9000 BKN025 BKN045 13/11 Q1010
                        TEMPO 8000 SHRA B KN018=
200801231130 METAR LMML NIL=
200801231115 METAR LMML 231115Z 01016G31KT 340V060 6000 SHRA BKN026 BKN040
                        13/11 Q1010 T EMPO 8000 SHRA BKN018=
200801231109 LMML 231109Z 01016G31KT 340V060 6000 BKN025 BKN040 13/11
                        Q1010 TEMPO 8000 SHRA BKN018=
200801231100 METAR LMML NIL=
200801231045 METAR LMML 231045Z 36018KT 9999 BKN026 BKN050 14/09 Q1010
                        TEMPO 8000 SHRA B KN018=
200801231030 METAR LMML NIL=
200801231015 METAR LMML 231015Z 35023G33KT 330V030 9999 BKN026 SCT050
                        14/09 Q1010 TEMPO 8000 SHRA BKN018=
200801230945 METAR LMML 230945Z 34021G32KT 320V020 9999 BKN029 SCT050
                        14/09 Q1010 TEMPO 8000 SHRA BKN018=
200801230930 METAR LMML NIL=
200801230915 METAR LMML 230915Z 33021KT 9999 BKN030 SCT050 14/09 Q1009
                        TEMPO 8000 SHRA B KN018=
200801230900 METAR LMML NIL=
200801230845 METAR LMML 230845Z 32020KT 9999 SCT031 BKN090 15/09 Q1009
                        NOSIG=
200801230830 METAR LMML NIL=
200801230815 METAR LMML 230815Z 32019KT 290V350 9999 SCT029 BKN090 15/09
                        Q1009 NOSIG=
200801230800 METAR LMML NIL=
200801230745 METAR LMML 230745Z 31018KT 9999 FEW029 BKN090 14/10 Q1008
                        TEMPO 8000 RA=
200801230730 METAR LMML NIL=
200801230715 METAR LMML 230715Z 31015KT 9999 FEW025 SCT060 BKN100 14/11
                        Q1008 TEMPO 8000 RA=
200801230700 METAR LMML NIL=
200801230645 METAR LMML 230645Z 31018KT 9999 FEW025 SCT060 BKN100 13/10
                        Q1008 TEMPO 8000 RA=
200801230630 METAR LMML NIL=
200801230615 METAR LMML 230615Z 30019KT 9999 FEW035 SCT060 BKN090 13/10
                        Q1008 TEMPO 6000 TSRA BKN020CB=
200801230600 METAR LMML NIL=
200801230545 METAR LMML 230545Z 30016KT 9999 -RA FEW025 BKN090 13/10 Q1008
                        TEMPO 6000 TS RA BKN020CB=
200801230530 METAR LMML NIL=
200801230515 METAR LMML 230515Z 29022G32KT 9999 TSRA SKC 12/09 Q1008 TEMPO
                        6000 TSRA BKN 015CB=
200801230500 METAR LMML NIL=
200801230445 METAR LMML 230445Z 29022G32KT 7000 -SHRA SCT025 SCT080 14/11
                        Q1008 TEMPO 80 00 SHRA BKN018=
200801230430 METAR LMML NIL=
200801230415 METAR LMML 230415Z 29020KT 9999 FEW025 14/10 Q1008 TEMPO
                        8000 SHRA BKN018=
200801230400 METAR LMML NIL=
200801230345 METAR LMML 230345Z 30022KT 9999 FEW025 14/10 Q1008 NOSIG=
200801230330 METAR LMML NIL=
200801230315 METAR LMML 230315Z 30019KT 9999 FEW026 14/10 Q1009 NOSIG=
200801230300 METAR LMML NIL=
200801230245 METAR LMML 230245Z 30022KT 9999 FEW023 14/10 Q1009 NOSIG=
200801230230 METAR LMML NIL=
200801230215 METAR LMML 230215Z 30018KT 270V330 9999 SCT023 14/10 Q1010
                        TEMPO 8000 SHRA BKN018=
200801230200 METAR LMML NIL=
200801230145 METAR LMML 230145Z 30019KT 9999 SCT023 14/10 Q1010 TEMPO
                        8000 SHRA BKN018=
200801230130 METAR LMML NIL=
200801230115 METAR LMML 230115Z 30018KT 260V330 9000 FEW024 SCT070 14/10
                        Q1010 TEMPO 800 0 SHRA BKN018=
200801230100 METAR LMML NIL=
200801230045 METAR LMML 230045Z 30018KT 9000 FEW023 BKN070 14/10 Q1010
                        TEMPO 8000 SHRA B KN018=
200801230030 METAR LMML NIL=
200801230015 METAR LMML 230015Z 30021KT 9000 FEW023 SCT070 15/11 Q1011
                        TEMPO 8000 SHRA B KN018=
200801230000 METAR LMML NIL=
200801222345 METAR LMML 222345Z 30021KT 9000 FEW021 SCT040 BKN120 15/11
                        Q1011 TEMPO 8000 SHRA BKN018=
200801222330 METAR LMML NIL=
200801222315 METAR LMML 222315Z 30020KT 9000 SCT020 BKN060 15/12 Q1012
                        TEMPO 8000 SHRA B KN018=
200801222300 METAR LMML NIL=
200801222245 METAR LMML 222245Z 30025G35KT 9000 SCT021 SCT120 15/11 Q1012
                        TEMPO 8000 SHR A BKN018=
200801222230 METAR LMML NIL=
200801222215 METAR LMML 222215Z 29023KT 9000 FEW024 SCT042 BKN120 15/11
                        Q1012 TEMPO 8000 SHRA BKN018=
200801222200 METAR LMML NIL=
200801222145 METAR LMML 222145Z 29019KT 260V320 9000 SCT024 BKN045 15/11
                        Q1012 TEMPO 800 0 SHRA BKN018=
200801222130 METAR LMML NIL=
200801222115 METAR LMML 222115Z 29020KT 240V310 9000 -RA FEW023 BKN045
                        15/12 Q1012 TEMPO 8000 RA BKN018=
200801222100 METAR LMML NIL=
200801222045 METAR LMML 222045Z 29016G28KT 260V320 9999 FEW021 BKN039
                        15/11 Q1012 NOSIG=
200801222030 METAR LMML NIL=
200801222015 METAR LMML 222015Z 29016KT 240V310 9999 FEW020 BKN039 15/12
                        Q1013 TEMPO RA SCT018=
200801222000 METAR LMML NIL=
200801221945 METAR LMML 221945Z 29019KT 9999 FEW019 BKN039 15/12 Q1013
                        TEMPO RA SCT018=
200801221930 METAR LMML NIL=
200801221915 METAR LMML 221915Z 29019KT 9999 -RA SCT020 BKN036 15/12 Q1013
                        NOSIG=
200801221900 METAR LMML NIL=
200801221845 METAR LMML 221845Z 28013KT 9999 FEW022 BKN036 15/12 Q1013
                        NOSIG=
200801221830 METAR LMML NIL=
200801221815 METAR LMML 221815Z 28015KT 250V310 9999 FEW016 SCT033 14/12
                        Q1014 NOSIG=
200801221800 METAR LMML NIL=
200801221745 METAR LMML 221745Z 28016KT 240V310 9999 FEW020 BKN039 15/12
                        Q1014 NOSIG=
200801221730 METAR LMML NIL=
200801221715 METAR LMML 221715Z 28016KT 240V300 9999 FEW020 BKN038 15/12
                        Q1014 NOSIG=
200801221700 METAR LMML NIL=
200801221645 METAR LMML 221645Z 28015KT 230V310 9999 FEW019 BKN034 15/11
                        Q1014 NOSIG=
200801221615 METAR LMML 221615Z 27016KT 240V300 9999 FEW019 BKN033 15/11
                        Q1014 NOSIG=
200801221600 METAR LMML NIL=
200801221545 METAR LMML 221545Z 28015KT 250V310 9999 FEW019 BKN036 15/11
                        Q1015 NOSIG=
200801221530 METAR LMML NIL=
200801221515 METAR LMML 221515Z 28014KT 250V310 9999 SCT020 BKN040 15/11
                        Q1015 NOSIG=
200801221500 METAR LMML NIL=
200801221445 METAR LMML 221445Z 28015KT 9999 FEW022 BKN040 15/11 Q1015
                        NOSIG=
200801221430 METAR LMML NIL=
200801221415 METAR LMML 221415Z 28014KT 240V310 9999 SCT021 BKN040 15/11
                        Q1016 NOSIG=
200801221400 METAR LMML NIL=
200801221345 METAR LMML 221345Z 28015KT 9999 SCT021 BKN040 15/11 Q1016
                        NOSIG=
200801221330 METAR LMML NIL=
200801221315 METAR LMML 221315Z 28017KT 9999 -RA SCT019 BKN040 15/11 Q1017
                        NOSIG=
200801221300 METAR LMML NIL=
200801221245 METAR LMML 221245Z 29017KT 9999 FEW025 BKN037 15/10 Q1017
                        NOSIG=
200801221230 METAR LMML NIL=
200801221215 METAR LMML 221215Z 29019KT 260V320 9999 FEW026 SCT039 16/10
                        Q1018 NOSIG=
200801221200 METAR LMML NIL=
200801221145 METAR LMML 221145Z 29016KT 9999 FEW026 BKN035 15/09 Q1018
                        NOSIG=
200801221130 METAR LMML NIL=
200801221115 METAR LMML 221115Z 29016KT 270V330 9999 SCT026 OVC033 15/10
                        Q1019 NOSIG=
200801221100 METAR LMML NIL=
200801221045 METAR LMML 221045Z 29017KT 9999 SCT026 BKN032 15/11 Q1019
                        NOSIG=
200801221030 METAR LMML NIL=
200801221015 METAR LMML 221015Z 29015KT 9999 SCT024 15/11 Q1020 NOSIG=
200801221000 METAR LMML NIL=
200801220930 METAR LMML NIL=
200801220915 METAR LMML 220915Z 29016KT 9999 SCT026 15/10 Q1020 NOSIG=
200801220900 METAR LMML NIL=
200801220845 METAR LMML 220845Z 29014KT 260V320 9999 BKN025 15/10 Q1020
                        NOSIG=
200801220830 METAR LMML NIL=
200801220815 METAR LMML 220815Z 28013KT 250V310 9999 BKN024 15/10 Q1021
                        NOSIG=
200801220800 METAR LMML NIL=
200801220745 METAR LMML 220745Z 28010KT 250V320 9999 BKN022 14/11 Q1021
                        NOSIG=
200801220730 METAR LMML NIL=
200801220715 METAR LMML 220715Z 29011KT 250V320 9999 BKN020 14/11 Q1021
                        NOSIG=
200801220700 METAR LMML NIL=
200801220645 METAR LMML 220645Z 28013KT 9999 BKN020 14/10 Q1021 NOSIG=
200801220630 METAR LMML NIL=
200801220615 METAR LMML 220615Z 29012KT 260V330 9999 BKN019 14/10 Q1021
                        NOSIG=
200801220600 METAR LMML NIL=
200801220545 METAR LMML 220545Z 30012KT 9999 BKN018 14/11 Q1021 NOSIG=
200801220530 METAR LMML NIL=
200801220515 METAR LMML 220515Z 28011KT 9999 BKN018 14/11 Q1021 NOSIG=
200801220445 METAR LMML 220445Z 29012KT 260V320 9999 BKN018 14/11 Q1021
                        NOSIG=
200801220430 METAR LMML NIL=
200801220415 METAR LMML 220415Z 28012KT 9999 BKN018 13/11 Q1021 NOSIG=
200801220400 METAR LMML NIL=
200801220345 METAR LMML 220345Z 29012KT 250V320 9999 BKN018 13/11 Q1021
                        NOSIG=
200801220330 METAR LMML NIL=
200801220315 METAR LMML 220315Z 28010KT 250V310 9999 BKN018 13/11 Q1022
                        NOSIG=
200801220300 METAR LMML NIL=
200801220245 METAR LMML 220245Z 29009KT 260V320 9999 BKN017 13/11 Q1022
                        NOSIG=
200801220230 METAR LMML NIL=
200801220215 METAR LMML 220215Z 28008KT 250V320 9999 BKN018 13/11 Q1022
                        NOSIG=
200801220200 METAR LMML NIL=
200801220145 METAR LMML 220145Z 28012KT 9999 BKN018 13/11 Q1022 NOSIG=
200801220130 METAR LMML NIL=
200801220115 METAR LMML 220115Z 28012KT 9999 BKN017 13/11 Q1023 NOSIG=
200801220100 METAR LMML NIL=
200801220045 METAR LMML 220045Z 29012KT 9999 SCT016 13/11 Q1023 NOSIG=
200801220015 METAR LMML 220015Z 28009KT 9999 SCT015 13/11 Q1023 NOSIG=
200801220000 METAR LMML NIL=
200801212345 METAR LMML 212345Z 28011KT 9999 FEW014 13/11 Q1023 NOSIG=
200801212330 METAR LMML NIL=
200801212315 METAR LMML 212315Z 29010KT 9999 SCT014 13/11 Q1024 NOSIG=
200801212245 METAR LMML 212245Z 28009KT 9999 SCT013 13/12 Q1024 NOSIG=
200801212215 METAR LMML 212215Z 28007KT 9999 FEW012 13/12 Q1024 NOSIG=
200801212200 METAR LMML NIL=
200801212145 METAR LMML 212145Z 28007KT 9999 FEW013 13/12 Q1024 NOSIG=
200801212115 METAR LMML 212115Z 27007KT 9999 FEW013 13/12 Q1025 NOSIG=
200801212100 METAR LMML NIL=
200801212045 METAR LMML 212045Z 27007KT 9999 FEW013 13/12 Q1025 NOSIG=
200801212015 METAR LMML 212015Z 27006KT 9999 FEW013 13/11 Q1025 NOSIG=
200801212000 METAR LMML NIL=
200801211945 METAR LMML 211945Z 28007KT 9999 FEW020 13/11 Q1025 NOSIG=
200801211915 METAR LMML 211915Z 28007KT 9999 FEW020 13/11 Q1025 NOSIG=
200801211900 METAR LMML NIL=
200801211845 METAR LMML 211845Z 29009KT 9999 FEW018 13/11 Q1025 NOSIG=
200801211830 METAR LMML NIL=
200801211815 METAR LMML 211815Z 29008KT 9999 FEW018 13/11 Q1025 NOSIG=
200801211800 METAR LMML NIL=
200801211745 METAR LMML 211745Z 29006KT 9999 FEW018 13/11 Q1025 NOSIG=
200801211730 METAR LMML NIL=
200801211715 METAR LMML 211715Z 29006KT 9999 FEW018 13/11 Q1025 NOSIG=
200801211700 METAR LMML NIL=
200801211645 METAR LMML 211645Z 29006KT 250V320 9999 FEW018 13/11 Q1025
                        NOSIG=
200801211630 METAR LMML NIL=
200801211615 METAR LMML 211615Z 30008KT 9999 FEW018 14/12 Q1025 NOSIG=
200801211545 METAR LMML 211545Z 30010KT 9999 FEW018 15/12 Q1025 NOSIG=
200801211530 METAR LMML NIL=
200801211515 METAR LMML 211515Z 29010KT 9999 FEW018 15/12 Q1025 NOSIG=
200801211445 METAR LMML 211445Z 30010KT 270V330 9999 FEW018 16/12 Q1025
                        NOSIG=
200801211430 METAR LMML NIL=
200801211415 METAR LMML 211415Z 30013KT 9999 FEW018 16/11 Q1025 NOSIG=
200801211400 METAR LMML NIL=
200801211345 METAR LMML 211345Z 29013KT 9999 FEW018 16/11 Q1026 NOSIG=
200801211330 METAR LMML NIL=
200801211315 METAR LMML 211315Z 28012KT 260V320 9999 FEW019 16/12 Q1026
                        NOSIG=
200801211300 METAR LMML NIL=
200801211245 METAR LMML 211245Z 30013KT 9999 FEW019 16/11 Q1026 NOSIG=
200801211230 METAR LMML NIL=
200801211215 METAR LMML 211215Z 30013KT 9999 FEW019 16/11 Q1026 NOSIG=
200801211200 METAR LMML NIL=
200801211145 METAR LMML 211145Z 29013KT 9999 FEW019 16/12 Q1027 NOSIG=
200801211130 METAR LMML NIL=
200801211115 METAR LMML 211115Z 29013KT 9999 FEW018 16/12 Q1027 NOSIG=
200801211100 METAR LMML NIL=
200801211045 METAR LMML 211045Z 29011KT 260V320 9999 FEW017 16/12 Q1028
                        NOSIG=
200801211030 METAR LMML NIL=
200801211015 METAR LMML 211015Z 29009KT 250V320 9999 FEW018 16/13 Q1028
                        NOSIG=
200801211000 METAR LMML NIL=
200801210945 METAR LMML 210945Z 29010KT 9999 FEW019 16/12 Q1028 NOSIG=
200801210930 METAR LMML NIL=
200801210915 METAR LMML 210915Z 29009KT 250V310 9999 FEW019 16/13 Q1028
                        NOSIG=
200801210900 METAR LMML NIL=
200801210845 METAR LMML 210845Z 28009KT 9999 FEW020 16/12 Q1028 NOSIG=
200801210830 METAR LMML NIL=
200801210815 METAR LMML 210815Z 27005KT 240V300 9999 FEW020 15/12 Q1028
                        NOSIG=
200801210800 METAR LMML NIL=
200801210745 METAR LMML 210745Z 25004KT 220V290 9999 FEW020 14/12 Q1028
                        NOSIG=
200801210730 METAR LMML NIL=
200801210715 METAR LMML 210715Z 27005KT 230V290 9999 FEW020 13/11 Q1028
                        NOSIG=
200801210700 METAR LMML NIL=
200801210645 METAR LMML 210645Z 26005KT 230V290 9999 FEW020 12/11 Q1028
                        NOSIG=
200801210630 METAR LMML NIL=
200801210615 METAR LMML 210615Z 25004KT 9999 FEW020 12/11 Q1028 NOSIG=
200801210600 METAR LMML NIL=
200801210545 METAR LMML 210545Z 24004KT 9999 FEW020 11/10 Q1028 NOSIG=
200801210530 METAR LMML NIL=
200801210515 METAR LMML 210515Z 25004KT CAVOK 12/10 Q1028 NOSIG=
200801210500 METAR LMML NIL=
200801210445 METAR LMML 210445Z 26005KT CAVOK 12/10 Q1028 NOSIG=
200801210430 METAR LMML NIL=
200801210415 METAR LMML 210415Z 26005KT CAVOK 11/10 Q1028 NOSIG=
200801210400 METAR LMML NIL=
200801210345 METAR LMML 210345Z 26004KT CAVOK 11/11 Q1028 NOSIG=
200801210330 METAR LMML NIL=
200801210315 METAR LMML 210315Z 27005KT CAVOK 11/11 Q1028 NOSIG=
200801210300 METAR LMML NIL=
200801210245 METAR LMML 210245Z 27004KT CAVOK 11/11 Q1028 NOSIG=
200801210230 METAR LMML NIL=
200801210215 METAR LMML 210215Z 28004KT CAVOK 11/11 Q1028 NOSIG=
200801210200 METAR LMML NIL=
200801210145 METAR LMML 210145Z 30004KT CAVOK 11/11 Q1028 NOSIG=
200801210130 METAR LMML NIL=
200801210115 METAR LMML 210115Z 30004KT CAVOK 12/11 Q1028 NOSIG=
200801210100 METAR LMML NIL=
200801210045 METAR LMML 210045Z 29004KT CAVOK 12/11 Q1028 NOSIG=
200801210030 METAR LMML NIL=
200801210015 METAR LMML 210015Z 28004KT CAVOK 12/11 Q1028 NOSIG=
200801210000 METAR LMML NIL=
200801202345 METAR LMML 202345Z 28004KT CAVOK 12/11 Q1028 NOSIG=
200801202330 METAR LMML NIL=
200801202315 METAR LMML 202315Z 28004KT CAVOK 12/11 Q1029 NOSIG=
200801202300 METAR LMML NIL=
200801202245 METAR LMML 202245Z 28004KT CAVOK 12/10 Q1029 NOSIG=
200801202230 METAR LMML NIL=
200801202215 METAR LMML 202215Z 29004KT CAVOK 12/10 Q1029 NOSIG=
200801202200 METAR LMML NIL=
200801202145 METAR LMML 202145Z VRB03KT CAVOK 12/10 Q1029 NOSIG=
200801202130 METAR LMML NIL=
200801202115 METAR LMML 202115Z 28004KT 9999 FEW015 12/10 Q1029 NOSIG=
200801202100 METAR LMML NIL=
200801202045 METAR LMML 202045Z VRB03KT 9999 FEW015 12/10 Q1029 NOSIG=
200801202030 METAR LMML NIL=
200801202015 METAR LMML 202015Z 30004KT 9999 FEW015 12/11 Q1029 NOSIG=
200801202000 METAR LMML NIL=
200801201945 METAR LMML 201945Z 28004KT 9999 FEW015 12/10 Q1029 NOSIG=
200801201930 METAR LMML NIL=
200801201915 METAR LMML 201915Z 29004KT 9999 FEW015 12/10 Q1029 NOSIG=
200801201900 METAR LMML NIL=
200801201845 METAR LMML 201845Z VRB03KT 9999 FEW015 12/10 Q1029 NOSIG=
200801201830 METAR LMML NIL=
200801201815 METAR LMML 201815Z VRB01KT 9999 FEW015 12/10 Q1029 NOSIG=
200801201800 METAR LMML NIL=
200801201745 METAR LMML 201745Z VRB02KT 9999 FEW015 12/10 Q1028 NOSIG=
200801201730 METAR LMML NIL=
200801201715 METAR LMML 201715Z VRB02KT 9999 FEW020 13/10 Q1028 NOSIG=
200801201700 METAR LMML NIL=
200801201645 METAR LMML 201645Z VRB03KT 9999 FEW020 13/10 Q1028 NOSIG=
200801201630 METAR LMML NIL=
200801201615 METAR LMML 201615Z VRB03KT 9999 FEW020 14/10 Q1028 NOSIG=
200801201600 METAR LMML NIL=
200801201545 METAR LMML 201545Z VRB03KT 9999 FEW023 15/10 Q1028 NOSIG=
200801201530 METAR LMML NIL=
200801201515 METAR LMML 201515Z VRB03KT 9999 FEW023 15/10 Q1028 NOSIG=
200801201500 METAR LMML NIL=
200801201445 METAR LMML 201445Z 35004KT 310V020 9999 FEW026 17/11 Q1028
                        NOSIG=
200801201430 METAR LMML NIL=
200801201415 METAR LMML 201415Z 02004KT 350V080 9999 FEW026 16/11 Q1028
                        NOSIG=
200801201400 METAR LMML NIL=
200801201345 METAR LMML 201345Z 01005KT 330V060 9999 FEW025 17/11 Q1028
                        NOSIG=
200801201330 METAR LMML NIL=
200801201315 METAR LMML 201315Z 02006KT 350V050 9999 FEW025 17/11 Q1028
                        NOSIG=
200801201300 METAR LMML NIL=
200801201245 METAR LMML 201245Z 03006KT 330V070 9999 FEW025 18/11 Q1028
                        NOSIG=
200801201230 METAR LMML NIL=
200801201215 METAR LMML 201215Z 03007KT 350V060 9999 FEW026 17/11 Q1028
                        NOSIG=
200801201200 METAR LMML NIL=
200801201145 METAR LMML 201145Z 04005KT 360V090 9999 SCT026 17/11 Q1028
                        NOSIG=
200801201130 METAR LMML NIL=
200801201115 METAR LMML 201115Z 03006KT 360V060 9999 SCT026 17/11 Q1029
                        NOSIG=
200801201100 METAR LMML NIL=
200801201045 METAR LMML 201045Z 04006KT 340V120 9999 SCT025 16/11 Q1029
                        NOSIG=
200801201030 METAR LMML NIL=
200801201015 METAR LMML 201015Z 04006KT 9999 SCT025 17/11 Q1029 NOSIG=
200801201000 METAR LMML NIL=
200801200945 METAR LMML 200945Z 01007KT 300V040 9999 FEW024 17/12 Q1029
                        NOSIG=
200801200930 METAR LMML NIL=
200801200915 METAR LMML 200915Z 02004KT 350V070 9999 FEW024 16/11 Q1029
                        NOSIG=
200801200900 METAR LMML NIL=
200801200845 METAR LMML 200845Z VRB03KT 9999 FEW025 15/12 Q1029 NOSIG=
200801200830 METAR LMML NIL=
200801200815 METAR LMML 200815Z VRB02KT 9999 FEW042 16/13 Q1028 NOSIG=
200801200745 METAR LMML 200745Z VRB02KT 9999 FEW021 13/12 Q1028 NOSIG=
200801200730 METAR LMML NIL=
200801200715 METAR LMML 200715Z VRB02KT 9999 FEW021 12/11 Q1028 NOSIG=
200801200700 METAR LMML NIL=
200801200645 METAR LMML 200645Z VRB03KT 9999 FEW021 11/11 Q1028 NOSIG=
200801200630 METAR LMML NIL=
200801200615 METAR LMML 200615Z VRB02KT 9999 FEW021 11/11 Q1028 NOSIG=
200801200600 METAR LMML NIL=
200801200545 METAR LMML 200545Z VRB01KT 9999 SCT020 SCT060 11/11 Q1027
                        TEMPO 8000 MIFG=
200801200530 METAR LMML NIL=
200801200515 METAR LMML 200515Z VRB02KT 9999 SCT018 BKN060 11/11 Q1027
                        TEMPO 8000 MIFG=
200801200500 METAR LMML NIL=
200801200445 METAR LMML 200445Z VRB02KT 9999 FEW020 SCT070 11/10 Q1027
                        TEMPO 8000 MIFG=
200801200430 METAR LMML NIL=
200801200415 METAR LMML 200415Z VRB01KT 9999 FEW020 SCT070 11/11 Q1027
                        TEMPO 8000 MIFG=
200801200400 METAR LMML NIL=
200801200345 METAR LMML 200345Z VRB02KT 9999 FEW020 SCT070 11/10 Q1027
                        NOSIG=
200801200330 METAR LMML NIL=
200801200315 METAR LMML 200315Z VRB01KT 9999 FEW020 SCT070 11/10 Q1027
                        NOSIG=
200801200300 METAR LMML NIL=
200801200245 METAR LMML 200245Z VRB01KT 9999 SCT020 BKN070 11/10 Q1027
                        NOSIG=
200801200230 METAR LMML NIL=
200801200215 METAR LMML 200215Z VRB02KT 9999 SCT020 BKN070 11/11 Q1027
                        NOSIG=
200801200200 METAR LMML NIL=
200801200145 METAR LMML 200145Z VRB01KT 9999 SCT020 BKN060 11/10 Q1027
                        NOSIG=
200801200130 METAR LMML NIL=
200801200115 METAR LMML 200115Z 00000KT 9999 SCT020 BKN060 12/11 Q1027
                        NOSIG=
200801200100 METAR LMML NIL=
200801200045 METAR LMML 200045Z 00000KT 9999 BKN020 SCT120 12/11 Q1027
                        NOSIG=
200801200030 METAR LMML NIL=
200801200015 METAR LMML 200015Z VRB01KT 9999 BKN020 SCT120 12/11 Q1027
                        NOSIG=
200801200000 METAR LMML NIL=
200801192345 METAR LMML 192345Z VRB01KT 9999 BKN020 SCT120 12/11 Q1027
                        NOSIG=
200801192330 METAR LMML NIL=
200801192315 METAR LMML 192315Z VRB01KT 9999 SCT020 BKN120 12/11 Q1027
                        NOSIG=
200801192300 METAR LMML NIL=
200801192245 METAR LMML 192245Z VRB01KT 9999 SCT020 SCT120 12/10 Q1027
                        NOSIG=
200801192215 METAR LMML 192215Z VRB01KT 9999 SCT020 BKN120 12/10 Q1027
                        NOSIG=
200801192200 METAR LMML NIL=
200801192145 METAR LMML 192145Z VRB01KT 9999 SCT020 SCT120 13/10 Q1027
                        NOSIG=
200801192130 METAR LMML NIL=
200801192115 METAR LMML 192115Z VRB02KT 9999 SCT020 SCT120 13/11 Q1027
                        NOSIG=
200801192100 METAR LMML NIL=
200801192045 METAR LMML 192045Z VRB03KT 9999 SCT020 SCT120 13/11 Q1027
                        NOSIG=
200801192030 METAR LMML NIL=
200801192015 METAR LMML 192015Z 04004KT 9999 SCT020 SCT120 13/11 Q1027
                        NOSIG=
200801192000 METAR LMML NIL=
200801191945 METAR LMML 191945Z VRB02KT 9999 SCT020 13/10 Q1027 NOSIG=
200801191930 METAR LMML NIL=
200801191915 METAR LMML 191915Z VRB03KT 9999 SCT020 13/11 Q1027 NOSIG=
200801191900 METAR LMML NIL=
200801191845 METAR LMML 191845Z VRB03KT 9999 SCT020 13/11 Q1027 NOSIG=
200801191830 METAR LMML NIL=
200801191815 METAR LMML 191815Z 04004KT 9999 SCT020 13/11 Q1027 NOSIG=
200801191800 METAR LMML NIL=
200801191745 METAR LMML 191745Z VRB03KT 9999 FEW020 13/11 Q1027 NOSIG=
200801191715 METAR LMML 191715Z VRB03KT 9999 SCT019 14/11 Q1027 NOSIG=
200801191700 METAR LMML NIL=
200801191645 METAR LMML 191645Z VRB03KT 9999 SCT019 14/11 Q1027 NOSIG=
200801191630 METAR LMML NIL=
200801191615 METAR LMML 191615Z 02004KT 9999 SCT019 14/11 Q1027 NOSIG=
200801191600 METAR LMML NIL=
200801191545 METAR LMML 191545Z 02004KT 9999 FEW020 14/11 Q1027 NOSIG=
200801191530 METAR LMML NIL=
200801191515 METAR LMML 191515Z 03006KT 360V070 9999 SCT020 15/11 Q1026
                        NOSIG=
200801191500 METAR LMML NIL=
200801191445 METAR LMML 191445Z 02007KT 9999 SCT019 15/11 Q1026 NOSIG=
200801191430 METAR LMML NIL=
200801191415 METAR LMML 191415Z 03007KT 360V070 9999 BKN018 15/12 Q1026
                        NOSIG=
200801191400 METAR LMML NIL=
200801191345 METAR LMML 191345Z 02007KT 360V060 9999 SCT017 15/12 Q1026
                        TEMPO BKN015=
200801191330 METAR LMML NIL=
200801191315 METAR LMML 191315Z 02006KT 340V050 9999 BKN017 15/12 Q1026
                        TEMPO BKN015=
200801191300 METAR LMML NIL=
200801191245 METAR LMML 191245Z 02008KT 340V050 9999 SCT017 16/12 Q1026
                        TEMPO BKN015=
200801191230 METAR LMML NIL=
200801191215 METAR LMML 191215Z 03010KT 9999 SCT018 17/12 Q1026 TEMPO
                        BKN015=
200801191200 METAR LMML NIL=
200801191145 METAR LMML 191145Z 02009KT 9999 BKN017 16/12 Q1026 TEMPO
                        BKN015=
200801191130 METAR LMML NIL=
200801191115 METAR LMML 191115Z 02007KT 340V050 9999 BKN017 15/12 Q1026
                        TEMPO BKN015=
200801191100 METAR LMML NIL=
200801191045 METAR LMML 191045Z 02008KT 350V060 9999 BKN016 16/12 Q1026
                        TEMPO BKN015=
200801191030 METAR LMML NIL=
200801191015 METAR LMML 191015Z 02007KT 340V060 9999 BKN016 15/12 Q1027
                        TEMPO BKN015=
200801190945 METAR LMML 190945Z 02009KT 350V060 9999 BKN017 16/12 Q1027
                        NOSIG=
200801190930 METAR LMML NIL=
200801190915 METAR LMML 190915Z 02009KT 360V060 9999 BKN018 15/12 Q1027
                        NOSIG=
200801190900 METAR LMML NIL=
200801190845 METAR LMML 190845Z 02009KT 360V060 9999 BKN016 15/12 Q1027
                        NOSIG=
200801190830 METAR LMML NIL=
200801190815 METAR LMML 190815Z 02009KT 9999 BKN016 15/12 Q1026 NOSIG=
200801190800 METAR LMML NIL=
200801190745 METAR LMML 190745Z 02007KT 350V060 9999 SCT016 15/12 Q1026
                        NOSIG=
200801190730 METAR LMML NIL=
200801190715 METAR LMML 190715Z 03008KT 360V070 9999 FEW016 15/11 Q1026
                        NOSIG=
200801190700 METAR LMML NIL=
200801190645 METAR LMML 190645Z 03008KT 350V060 9999 SCT017 14/12 Q1025
                        NOSIG=
200801190630 METAR LMML NIL=
200801190615 METAR LMML 190615Z 02007KT 9999 SCT015 14/12 Q1025 NOSIG=
200801190600 METAR LMML NIL=
200801190545 METAR LMML 190545Z 03007KT 360V060 9999 FEW017 14/11 Q1025
                        NOSIG=
200801190530 METAR LMML NIL=
200801190515 METAR LMML 190515Z 02007KT 350V070 9999 SCT017 14/12 Q1025
                        NOSIG=
200801190500 METAR LMML NIL=
200801190445 METAR LMML 190445Z 02006KT 9999 FEW015 13/12 Q1024 NOSIG=
200801190430 METAR LMML NIL=
200801190415 METAR LMML 190415Z 01005KT 9999 SCT015 14/12 Q1024 NOSIG=
200801190400 METAR LMML NIL=
200801190345 METAR LMML 190345Z 01008KT 9999 SCT016 14/12 Q1024 NOSIG=
200801190330 METAR LMML NIL=
200801190315 METAR LMML 190315Z 01006KT 9999 SCT017 14/12 Q1024 NOSIG=
200801190300 METAR LMML NIL=
200801190245 METAR LMML 190245Z 03006KT 9999 FEW020 14/11 Q1024 NOSIG=
200801190230 METAR LMML NIL=
200801190215 METAR LMML 190215Z 03005KT 010V090 9999 SCT022 13/10 Q1024
                        NOSIG=
200801190200 METAR LMML NIL=
200801190145 METAR LMML 190145Z 04005KT 010V070 9999 SCT023 14/10 Q1024
                        NOSIG=
200801190130 METAR LMML NIL=
200801190115 METAR LMML 190115Z 03006KT 9999 SCT023 14/10 Q1024 NOSIG=
200801190100 METAR LMML NIL=
200801190045 METAR LMML 190045Z 04005KT 010V080 9999 FEW022 14/10 Q1024
                        NOSIG=
200801190030 METAR LMML NIL=
200801190015 METAR LMML 190015Z 04005KT 010V070 9999 FEW020 SCT080 14/10
                        Q1024 NOSIG=
200801190000 METAR LMML NIL=
200801182345 METAR LMML 182345Z 04005KT 010V070 9999 FEW020 BKN070 14/11
                        Q1024 NOSIG=
200801182330 METAR LMML NIL=
200801182315 METAR LMML 182315Z 04006KT 300V100 9999 FEW020 BKN080 14/10
                        Q1024 NOSIG=
200801182300 METAR LMML NIL=
200801182245 METAR LMML 182245Z 04005KT 010V070 9999 SCT021 14/11 Q1024
                        NOSIG=
200801182230 METAR LMML NIL=
200801182215 METAR LMML 182215Z 05005KT 010V080 9999 SCT019 14/11 Q1024
                        NOSIG=
200801182200 METAR LMML NIL=
200801182145 METAR LMML 182145Z 04007KT 010V070 9999 SCT018 14/10 Q1024
                        NOSIG=
200801182115 METAR LMML 182115Z 04006KT 9999 SCT021 14/11 Q1024 NOSIG=
200801182100 METAR LMML NIL=
200801182045 METAR LMML 182045Z 03006KT 340V060 9999 FEW022 14/11 Q1024
                        NOSIG=
200801182030 METAR LMML NIL=
200801182015 METAR LMML 182015Z 04007KT 9999 FEW023 14/11 Q1023 NOSIG=
200801181945 METAR LMML 181945Z 02006KT 350V050 9999 SCT023 14/10 Q1023
                        NOSIG=
200801181930 METAR LMML NIL=
200801181915 METAR LMML 181915Z 02005KT 350V050 9999 SCT023 14/11 Q1023
                        NOSIG=
200801181900 METAR LMML NIL=
200801181845 METAR LMML 181845Z 01006KT 340V040 9999 SCT023 14/11 Q1023
                        NOSIG=
200801181830 METAR LMML NIL=
200801181815 METAR LMML 181815Z 03006KT 360V060 9999 FEW020 14/10 Q1022
                        NOSIG=
200801181800 METAR LMML NIL=
200801181745 METAR LMML 181745Z 02007KT 9999 SCT019 14/11 Q1022 NOSIG=
200801181730 METAR LMML NIL=
200801181715 METAR LMML 181715Z 03009KT 9999 SCT019 14/11 Q1022 NOSIG=
200801181700 METAR LMML NIL=
200801181645 METAR LMML 181645Z 01006KT 9999 SCT019 14/11 Q1021 NOSIG=
200801181630 METAR LMML NIL=
200801181615 METAR LMML 181615Z 02007KT 9999 SCT018 15/11 Q1021 NOSIG=
200801181600 METAR LMML NIL=
200801181545 METAR LMML 181545Z 02005KT 360V080 9999 SCT021 15/11 Q1021
                        NOSIG=
200801181530 LMML NIL=
200801181515 METAR LMML 181515Z 01006KT 9999 SCT021 15/12 Q1021 NOSIG=
200801181500 METAR LMML NIL=
200801181445 METAR LMML 181445Z 02007KT 350V050 9999 SCT021 16/11 Q1021
                        NOSIG=
200801181430 METAR LMML NIL=
200801181415 METAR LMML 181415Z 01008KT 320V060 9999 SCT021 15/12 Q1020
                        NOSIG=
200801181400 METAR LMML NIL=
200801181345 METAR LMML 181345Z 01007KT 340V050 9999 SCT020 16/12 Q1020
                        NOSIG=
200801181330 METAR LMML NIL=
200801181315 METAR LMML 181315Z 02007KT 350V060 9999 FEW028 17/11 Q1019
                        NOSIG=
200801181300 METAR LMML NIL=
200801181245 METAR LMML 181245Z 02008KT 360V080 9999 FEW028 17/10 Q1019
                        NOSIG=
200801181230 METAR LMML NIL=
200801181215 METAR LMML 181215Z 03010KT 360V080 9999 FEW028 17/10 Q1019
                        NOSIG=
200801181200 METAR LMML NIL=
200801181145 METAR LMML 181145Z 03009KT 010V080 9999 FEW028 17/11 Q1019
                        NOSIG=
200801181130 METAR LMML NIL=
200801181115 METAR LMML 181115Z 03008KT 350V080 9999 FEW028 17/11 Q1019
                        NOSIG=
200801181100 METAR LMML NIL=
200801181045 METAR LMML 181045Z 04007KT 360V090 9999 FEW028 17/11 Q1020
                        NOSIG=
200801181030 METAR LMML NIL=
200801181015 METAR LMML 181015Z 05009KT 010V080 9999 FEW028 17/11 Q1020
                        NOSIG=
200801181000 METAR LMML NIL=
200801180945 METAR LMML 180945Z 04008KT 010V080 9999 FEW028 17/10 Q1020
                        NOSIG=
200801180930 METAR LMML NIL=
200801180900 METAR LMML NIL=
200801180845 METAR LMML 180845Z 05008KT 020V090 9999 FEW029TCU 16/10 Q1019
                        NOSIG=
200801180830 METAR LMML NIL=
200801180815 METAR LMML 180815Z 05007KT 020V090 9999 SCT029TCU 16/11 Q1019
                        NOSIG=
200801180800 METAR LMML NIL=
200801180745 METAR LMML 180745Z 02004KT 330V060 9000 SCT029TCU 15/12 Q1019
                        NOSIG=
200801180730 METAR LMML NIL=
200801180715 METAR LMML 180715Z 05008KT 020V090 9999 BKN028TCU 13/09 Q1018
                        NOSIG=
200801180700 METAR LMML NIL=
200801180645 METAR LMML 180645Z 36004KT 290V070 9999 FEW023CB SCT025TCU
                        13/11 Q1018=
200801180630 METAR LMML NIL=
200801180615 METAR LMML 180615Z 02005KT 360V060 7000 SHRA SCT022CB SCT036TCU
                        13/10 Q1017 TEMPO 5000 TSRA SCT015CB
                        RMK LIGHTNING TO NW=
200801180600 METAR LMML NIL=
200801180545 METAR LMML 180545Z 04005KT 9999 BKN025TCU 13/10 Q1017 TEMPO
                        5000 TSRA BKN01 5CB=
200801180530 METAR LMML NIL=
200801180515 METAR LMML 180515Z 35004KT 320V040 9999 SCT025 12/11 Q1017
                        TEMPO 8000 SHRA=
200801180500 METAR LMML NIL=
200801180445 METAR LMML 180445Z 34006KT 9999 FEW025 12/11 Q1017 TEMPO
                        8000 SHRA=
200801180430 METAR LMML NIL=
200801180415 METAR LMML 180415Z 34007KT 9999 FEW025 SCT080 12/10 Q1016
                        TEMPO 5000 TSRA S CT015CB=
200801180400 METAR LMML NIL=
200801180345 METAR LMML 180345Z 34005KT 9999 FEW025 BKN070 12/11 Q1016
                        TEMPO 5000 TSRA S CT015CB=
200801180330 METAR LMML NIL=
200801180315 METAR LMML 180315Z 33005KT 9999 FEW025 SCT060 12/10 Q1016
                        TEMPO 5000 TSRA S CT015CB=
200801180245 METAR LMML 180245Z 33004KT 290V350 9999 FEW010 SCT024 12/11
                        Q1016 TEMPO 500 0 TSRA SCT015CB=
200801180215 METAR LMML 180215Z 35007KT 9999 -RA SCT023 BKN060 12/11 Q1016
                        TEMPO 5000 TS RA SCT015CB=
200801180200 METAR LMML NIL=
200801180145 METAR LMML 180145Z VRB02KT 9999 BKN023 BKN060 12/11 Q1016
                        RERA TEMPO 5000 T SRA SCT015CB=
200801180130 METAR LMML NIL=
200801180115 METAR LMML 180115Z VRB02KT 7000 -RA SCT022 BKN050 12/11 Q1016
                        RERA TEMPO 50 00 TSRA SCT015CB=
200801180100 METAR LMML NIL=
200801180045 METAR LMML 180045Z VRB01KT 7000 RA SCT014 BKN050 12/11 Q1016
                        TEMPO 5000 TSR A SCT015CB=
200801180015 METAR LMML 180015Z 35005KT 7000 RA FEW007 BKN050 12/11 Q1016
                        TEMPO 5000 TSR A SCT015CB=
200801180000 METAR LMML NIL=
200801172345 METAR LMML 172345Z 33007KT 7000 RA FEW007 BKN050 12/11 Q1016
                        TEMPO 5000 TSR A SCT015CB=
200801172330 METAR LMML NIL=
200801172315 METAR LMML 172315Z 36006KT 330V030 7000 RA FEW012 BKN050
                        12/11 Q1016 TEMPO 5000 TSRA SCT015CB=
200801172300 METAR LMML NIL=
200801172245 METAR LMML 172245Z 34005KT 310V010 7000 RA SCT012 BKN051
                        12/11 Q1016 TEMPO 6000 SHRA SCT020=
200801172230 METAR LMML NIL=
200801172215 METAR LMML 172215Z 33006KT 9999 -RA FEW013 BKN050 12/11 Q1016
                        TEMPO 6000 SH RA SCT020=
200801172200 METAR LMML NIL=
200801172145 METAR LMML 172145Z 36006KT 9999 -RA FEW016 BKN050 BKN250
                        13/11 Q1016 TEMPO 6000 SHRA SCT020=
200801172130 METAR LMML NIL=
200801172115 METAR LMML 172115Z 36005KT 9999 -SHRA SCT018 BKN050 BKN250
                        12/11 Q1016 TEMP O 6000 SHRA SCT020=
200801172100 METAR LMML NIL=
200801172045 METAR LMML 172045Z 33005KT 9999 FEW020 SCT050 12/11 Q1015
                        TEMPO 6000 SHRA S CT020=
200801172030 METAR LMML NIL=
200801172015 METAR LMML 172015Z 35005KT 9999 FEW020 SCT048 BKN250 13/11
                        Q1015 TEMPO 6000 SHRA SCT020=
200801172000 METAR LMML NIL=
200801171945 METAR LMML 171945Z 34004KT 9999 -RA FEW020 BKN050 BKN250
                        13/11 Q1015 TEMPO 6000 SHRA SCT020=
200801171930 METAR LMML NIL=
200801171915 METAR LMML 171915Z 35005KT 9999 FEW023 BKN060 BKN250 13/11
                        Q1015 TEMPO 6000 SHRA SCT020=
200801171900 METAR LMML NIL=
200801171845 METAR LMML 171845Z 34004KT 9999 FEW023 BKN060 BKN250 13/11
                        Q1015 TEMPO 6000 SHRA SCT020=
200801171830 METAR LMML NIL=
200801171815 METAR LMML 171815Z 35004KT 9999 FEW023 BKN060 BKN250 12/11
                        Q1015 TEMPO 6000 SHRA SCT020=
200801171800 METAR LMML NIL=
200801171745 METAR LMML 171745Z 35004KT 9999 FEW023 SCT050 BKN250 12/11
                        Q1014 TEMPO 6000 SHRA SCT020=
200801171730 METAR LMML NIL=
200801171715 METAR LMML 171715Z VRB03KT 9999 FEW021 SCT047 BKN250 12/11
                        Q1014 TEMPO 6000 SHRA SCT020=
200801171700 METAR LMML NIL=
200801171645 METAR LMML 171645Z 32005KT 9999 FEW020 BKN070 BKN250 12/11
                        Q1014 TEMPO 6000 SHRA SCT020=
200801171630 METAR LMML NIL=
200801171615 METAR LMML 171615Z 35004KT 320V020 9999 SCT022 SCT050 BKN250
                        13/11 Q1014 TE MPO 6000 SHRA SCT020=
200801171600 METAR LMML NIL=
200801171545 METAR LMML 171545Z 36005KT 9999 FEW022 BKN050 BKN250 13/11
                        Q1014 TEMPO 6000 SHRA SCT020=
200801171530 METAR LMML NIL=
200801171515 METAR LMML 171515Z VRB03KT 9999 FEW021 SCT050 BKN250 14/11
                        Q1013 TEMPO 6000 SHRA SCT020=
200801171500 METAR LMML NIL=
200801171445 METAR LMML 171445Z 34004KT 9999 SCT021 SCT050 BKN250 14/11
                        Q1013 TEMPO 6000 SHRA SCT020=
200801171430 METAR LMML NIL=
200801171415 METAR LMML 171415Z VRB03KT 9999 SCT020 BKN050 BKN250 15/11
                        Q1013 TEMPO 6000 SHRA SCT020=
200801171400 METAR LMML NIL=
200801171345 METAR LMML 171345Z 20004KT 160V260 9999 SCT019 SCT030 BKN250
                        14/11 Q1013 TE MPO 6000 SHRA SCT020=
200801171330 METAR LMML NIL=
200801171315 METAR LMML 171315Z 21004KT 170V240 9999 SCT020 SCT050 BKN250
                        14/11 Q1013 TE MPO 6000 SHRA SCT020=
200801171300 METAR LMML NIL=
200801171245 METAR LMML 171245Z 20006KT 150V240 9999 FEW020 SCT050 BKN250
                        14/11 Q1013 TE MPO 6000 SHRA SCT020=
200801171215 METAR LMML 171215Z 20007KT 170V250 9999 FEW020 SCT050 BKN250
                        14/11 Q1013 TE MPO 6000 SHRA SCT020=
200801171200 METAR LMML NIL=
200801171145 METAR LMML 171145Z 21005KT 170V240 9999 -RA FEW022 SCT060
                        BKN250 13/11 Q101 3 TEMPO 6000 SHRA
                        SCT020=
200801171132 LMML 171132Z 21007KT 180V260 9000 -SHRA SCT016 SCT050 BKN250
                        13/11 Q1 013 TEMPO 6000 SHRA SCT020=
200801171130 METAR LMML NIL=
200801171115 METAR LMML 171115Z 20010G20KT 160V250 5000 -SHRA SCT016 BKN046
                        BKN250 13/11 Q1013 TEMPO 6000 SHRA
                        SCT020=
200801171100 METAR LMML NIL=
200801171045 METAR LMML 171045Z 20007KT 160V250 9999 SCT024 SCT070 BKN250
                        14/12 Q1014 TE MPO 6000 SHRA SCT020=
200801171030 METAR LMML NIL=
200801171015 METAR LMML 171015Z 20005KT 180V240 9999 SCT026 SCT070 BKN250
                        13/11 Q1014 TE MPO 6000 SHRA SCT020=
200801170945 METAR LMML 170945Z 20004KT 150V270 5000 -SHRA FEW020CB SCT022
                        BKN130 14/12 Q1014 TEMPO 2000 SHRA
                        BKN020=
200801170930 METAR LMML NIL=
200801170900 METAR LMML NIL=
200801170845 METAR LMML 170845Z 20011G25KT 150V240 2500 SHRA SCT015 BKN130
                        14/11 Q1014 T EMPO 6000 SHRA=
200801170830 METAR LMML NIL=
200801170815 METAR LMML 170815Z 20006KT 160V240 9999 -RA FEW033 SCT060
                        BKN130 14/11 Q101 4 TEMPO 8000 SHRA=
200801170800 METAR LMML NIL=
200801170730 METAR LMML NIL=
200801170715 METAR LMML 170715Z 21009KT 160V280 9999 FEW027 SCT060 BKN100
                        14/09 Q1014 TE MPO 8000 SHRA=
200801170700 METAR LMML NIL=
200801170645 METAR LMML 170645Z 19013KT 150V240 9999 SCT043 BKN100 16/08
                        Q1013 TEMPO SHR A=
200801170630 METAR LMML NIL=
200801170615 METAR LMML 170615Z 20012KT 150V250 9999 FEW045 BKN100 16/08
                        Q1013 TEMPO SHR A=
200801170600 METAR LMML NIL=
200801170545 METAR LMML 170545Z 20010KT 160V260 9999 FEW045 BKN100 16/08
                        Q1014 TEMPO SHR A=
200801170530 METAR LMML NIL=
200801170515 METAR LMML 170515Z 20010KT 150V240 9999 FEW045 BKN100 16/09
                        Q1014 TEMPO SHR A=
200801170500 METAR LMML NIL=
200801170445 METAR LMML 170445Z 20011KT 170V250 9999 FEW045 BKN100 16/08
                        Q1014 TEMPO SHR A=
200801170430 METAR LMML NIL=
200801170415 METAR LMML 170415Z 20011KT 170V270 9999 FEW045 BKN090 16/08
                        Q1014 NOSIG=
200801170400 METAR LMML NIL=
200801170345 METAR LMML 170345Z 20010KT 150V260 9999 FEW046 BKN090 16/09
                        Q1014 NOSIG=
200801170330 METAR LMML NIL=
200801170315 METAR LMML 170315Z 20011KT 180V250 CAVOK 16/08 Q1015 NOSIG=
200801170300 METAR LMML NIL=
200801170245 METAR LMML 170245Z 21010KT 170V250 CAVOK 16/08 Q1015 NOSIG=
200801170230 METAR LMML NIL=
200801170215 METAR LMML 170215Z 20010KT 160V260 CAVOK 16/09 Q1015 NOSIG=
200801170200 METAR LMML NIL=
200801170145 METAR LMML 170145Z 20011KT 150V240 CAVOK 16/10 Q1016 NOSIG=
200801170130 METAR LMML NIL=
200801170115 METAR LMML 170115Z 20010KT 160V250 CAVOK 16/10 Q1016 NOSIG=
200801170100 METAR LMML NIL=
200801170045 METAR LMML 170045Z 19010KT 140V240 CAVOK 16/11 Q1016 NOSIG=
200801170030 METAR LMML NIL=
200801170015 METAR LMML 170015Z 19011KT 160V220 CAVOK 16/11 Q1016 NOSIG=
200801170000 METAR LMML NIL=
200801162345 METAR LMML 162345Z 19010KT 160V220 CAVOK 15/11 Q1016 NOSIG=
200801162330 METAR LMML NIL=
200801162315 METAR LMML 162315Z 19010KT 160V230 CAVOK 15/11 Q1016 NOSIG=
200801162300 METAR LMML NIL=
200801162245 METAR LMML 162245Z 19009KT 160V220 CAVOK 15/11 Q1017 NOSIG=
200801162230 METAR LMML NIL=
200801162215 METAR LMML 162215Z 19009KT 160V230 CAVOK 15/09 Q1017 NOSIG=
200801162200 METAR LMML NIL=
200801162145 METAR LMML 162145Z 19009KT 150V230 CAVOK 15/10 Q1017 NOSIG=
200801162115 METAR LMML 162115Z 19008KT 160V240 CAVOK 15/10 Q1017 NOSIG=
200801162100 METAR LMML NIL=
200801162045 METAR LMML 162045Z 20008KT 160V250 CAVOK 15/10 Q1018 NOSIG=
200801162030 METAR LMML NIL=
200801162015 METAR LMML 162015Z 20008KT 150V250 CAVOK 15/10 Q1018 NOSIG=
200801161945 METAR LMML 161945Z 20007KT 160V250 CAVOK 15/10 Q1018 NOSIG=
200801161930 METAR LMML NIL=
200801161915 METAR LMML 161915Z 20008KT 170V250 CAVOK 15/10 Q1018 NOSIG=
200801161900 METAR LMML NIL=
200801161845 METAR LMML 161845Z 19008KT 150V230 CAVOK 15/10 Q1018 NOSIG=
200801161830 METAR LMML NIL=
200801161815 METAR LMML 161815Z 19006KT 160V250 CAVOK 15/11 Q1018 NOSIG=
200801161800 METAR LMML NIL=
200801161745 METAR LMML 161745Z 20007KT 170V240 9999 FEW020 15/10 Q1018
                        NOSIG=
200801161730 METAR LMML NIL=
200801161715 METAR LMML 161715Z 20006KT 170V260 9999 FEW020 15/10 Q1018
                        NOSIG=
200801161700 METAR LMML NIL=
200801161645 METAR LMML 161645Z 20005KT 170V230 9999 FEW020 15/10 Q1018
                        NOSIG=
200801161630 METAR LMML NIL=
200801161615 METAR LMML 161615Z 21006KT 180V260 9999 FEW020 15/11 Q1018
                        NOSIG=
200801161600 METAR LMML NIL=
200801161545 METAR LMML 161545Z 22007KT 180V260 9999 FEW020 SCT120 16/12
                        Q1018 NOSIG=
200801161530 METAR LMML NIL=
200801161515 METAR LMML 161515Z 22007KT 170V270 9999 FEW025 SCT130 17/12
                        Q1018 NOSIG=
200801161500 METAR LMML NIL=
200801161445 METAR LMML 161445Z 22009KT 170V260 9999 FEW020 SCT120 17/12
                        Q1018 NOSIG=
200801161430 METAR LMML NIL=
200801161415 METAR LMML 161415Z 22008KT 190V270 9999 FEW025 SCT130 17/12
                        Q1018 NOSIG=
200801161400 METAR LMML NIL=
200801161345 METAR LMML 161345Z 22007KT 180V260 9999 FEW025 SCT120 17/12
                        Q1018 NOSIG=
200801161315 METAR LMML 161315Z 22008KT 200V270 9999 FEW020 SCT120 17/12
                        Q1018 NOSIG=
200801161300 METAR LMML NIL=
200801161245 METAR LMML 161245Z 23007KT 170V270 9999 FEW018 BKN250 17/13
                        Q1018 NOSIG=
200801161215 METAR LMML 161215Z 23009KT 210V270 9999 FEW018 BKN250 17/12
                        Q1019 NOSIG=
200801161200 METAR LMML NIL=
200801161145 METAR LMML 161145Z 22007KT 180V270 9999 FEW025 BKN130 18/12
                        Q1019 NOSIG=
200801161130 METAR LMML NIL=
200801161115 METAR LMML 161115Z 21007KT 170V260 9999 FEW025 BKN130 17/11
                        Q1019 NOSIG=
200801161100 METAR LMML NIL=
200801161045 LMML 161045Z 22006KT 170V260 9999 FEW025 BKN130 17/12 Q1020
                        NOSIG=
200801161015 METAR LMML 161015Z 21006KT 160V250 9999 FEW025 BKN130 17/12
                        Q1020 NOSIG=
200801161000 METAR LMML NIL=
200801160945 METAR LMML 160945Z 21007KT 190V250 CAVOK 17/12 Q1021 NOSIG=
200801160930 METAR LMML NIL=
200801160915 METAR LMML 160915Z 21008KT 160V240 CAVOK 17/11 Q1021 NOSIG=
200801160900 METAR LMML NIL=
200801160845 METAR LMML 160845Z 22006KT 180V260 CAVOK 17/11 Q1021 NOSIG=
200801160830 METAR LMML NIL=
200801160815 METAR LMML 160815Z 24004KT 200V280 CAVOK 17/11 Q1021 NOSIG=
200801160800 METAR LMML NIL=
200801160745 METAR LMML 160745Z 23004KT 200V270 9999 FEW020 16/11 Q1021
                        NOSIG=
200801160730 METAR LMML NIL=
200801160715 METAR LMML 160715Z 23005KT 190V270 9999 FEW020 15/11 Q1021
                        NOSIG=
200801160700 METAR LMML NIL=
200801160645 METAR LMML 160645Z 23005KT 9999 FEW020 14/11 Q1021 NOSIG=
200801160630 LMML NIL=
200801160615 METAR LMML 160615Z 23007KT 9999 FEW020 14/11 Q1020 NOSIG=
200801160545 METAR LMML 160545Z 24007KT 200V270 CAVOK 14/10 Q1020 NOSIG=
200801160515 METAR LMML 160515Z 23008KT 200V280 CAVOK 15/10 Q1020 NOSIG=
200801160500 METAR LMML NIL=
200801160445 METAR LMML 160445Z 23007KT 200V270 CAVOK 14/10 Q1020 NOSIG=
200801160430 METAR LMML NIL=
200801160415 METAR LMML 160415Z 24007KT 200V260 CAVOK 14/10 Q1020 NOSIG=
200801160400 METAR LMML NIL=
200801160345 METAR LMML 160345Z 23007KT CAVOK 15/10 Q1020 NOSIG=
200801160330 METAR LMML NIL=
200801160315 METAR LMML 160315Z 23007KT 210V270 CAVOK 15/11 Q1020 NOSIG=
200801160300 METAR LMML NIL=
200801160245 METAR LMML 160245Z 22007KT 190V260 CAVOK 15/11 Q1020 NOSIG=
200801160230 METAR LMML NIL=
200801160215 METAR LMML 160215Z 22006KT 200V260 CAVOK 15/11 Q1021 NOSIG=
200801160200 METAR LMML NIL=
200801160145 METAR LMML 160145Z 22006KT 190V260 CAVOK 15/12 Q1021 NOSIG=
200801160015 METAR LMML 160015Z 22006KT 190V260 CAVOK 15/11 Q1021 NOSIG=
200801152345 METAR LMML 152345Z 23006KT 200V260 CAVOK 15/12 Q1021 NOSIG=
200801152330 METAR LMML NIL=
200801152315 METAR LMML 152315Z 22009KT 190V250 CAVOK 15/12 Q1021 NOSIG=
200801152245 METAR LMML 152245Z 22009KT 190V250 CAVOK 15/12 Q1022 NOSIG=
200801152230 METAR LMML NIL=
200801152215 METAR LMML 152215Z 22008KT 190V260 CAVOK 15/12 Q1022 NOSIG=
200801152200 METAR LMML NIL=
200801152145 METAR LMML 152145Z 22007KT 190V260 CAVOK 15/11 Q1022 NOSIG=
200801152130 METAR LMML NIL=
200801152100 METAR LMML NIL=
200801152045 METAR LMML 152045Z 23006KT 190V270 CAVOK 15/11 Q1022 NOSIG=
200801152030 METAR LMML NIL=
200801152015 METAR LMML 152015Z 22009KT 190V270 9999 FEW025 15/11 Q1021
                        NOSIG=
200801152000 METAR LMML NIL=
200801151945 METAR LMML 151945Z 22009KT 180V250 9999 FEW025 15/11 Q1021
                        NOSIG=
200801151930 METAR LMML NIL=
200801151915 METAR LMML 151915Z 21008KT 180V250 9999 FEW025 SCT250 15/11
                        Q1021 NOSIG=
200801151900 METAR LMML NIL=
200801151845 METAR LMML 151845Z 21007KT 170V240 9999 FEW025 SCT250 15/11
                        Q1021 NOSIG=
200801151830 METAR LMML NIL=
200801151815 METAR LMML 151815Z 21007KT 120V240 9999 FEW025 SCT250 15/12
                        Q1021 NOSIG=
200801151800 METAR LMML NIL=
200801151745 METAR LMML 151745Z 21007KT 170V250 9999 FEW025 BKN250 15/12
                        Q1021 NOSIG=
200801151730 METAR LMML NIL=
200801151715 METAR LMML 151715Z 21007KT 170V240 CAVOK 16/12 Q1021 NOSIG=
200801151700 METAR LMML NIL=
200801151645 METAR LMML 151645Z 22007KT 190V270 CAVOK 16/11 Q1021 NOSIG=
200801151630 METAR LMML NIL=
200801151615 METAR LMML 151615Z 22008KT 190V260 CAVOK 16/11 Q1021 NOSIG=
200801151600 METAR LMML NIL=
200801151545 METAR LMML 151545Z 22008KT 190V280 CAVOK 16/11 Q1021 NOSIG=
200801151530 METAR LMML NIL=
200801151500 METAR LMML NIL=
200801151445 METAR LMML 151445Z 22010KT 180V260 CAVOK 17/11 Q1021 NOSIG=
200801151430 METAR LMML NIL=
200801151415 METAR LMML 151415Z 22010KT 170V260 CAVOK 18/11 Q1021 NOSIG=
200801151400 METAR LMML NIL=
200801151345 METAR LMML 151345Z 22011KT 180V260 CAVOK 18/11 Q1021 NOSIG=
200801151330 METAR LMML NIL=
200801151315 METAR LMML 151315Z 21008KT 170V270 CAVOK 18/12 Q1021 NOSIG=
200801151300 METAR LMML NIL=
200801151245 METAR LMML 151245Z 21009KT 160V260 CAVOK 18/12 Q1021 NOSIG=
200801151230 METAR LMML NIL=
200801151215 METAR LMML 151215Z 20010KT 170V250 CAVOK 18/13 Q1021 NOSIG=
200801151200 METAR LMML NIL=
200801151145 METAR LMML 151145Z 21010KT 150V260 CAVOK 18/13 Q1022 NOSIG=
200801151130 METAR LMML NIL=
200801151115 METAR LMML 151115Z 22011KT 180V260 CAVOK 18/12 Q1022 NOSIG=
200801151100 METAR LMML NIL=
200801151045 METAR LMML 151045Z 22009KT 190V260 CAVOK 18/12 Q1023 NOSIG=
200801151030 METAR LMML NIL=
200801151015 METAR LMML 151015Z 22009KT 190V270 CAVOK 18/12 Q1023 NOSIG=
200801151000 METAR LMML NIL=
200801150945 METAR LMML 150945Z 22009KT 190V260 CAVOK 18/12 Q1023 NOSIG=
200801150915 METAR LMML 150915Z 22009KT 170V270 CAVOK 17/11 Q1023 NOSIG=
200801150900 METAR LMML NIL=
200801150845 METAR LMML 150845Z 22007KT 190V280 CAVOK 17/12 Q1023 NOSIG=
200801150830 METAR LMML NIL=
200801150815 METAR LMML 150815Z 23006KT 200V280 CAVOK 17/12 Q1023 NOSIG=
200801150800 METAR LMML NIL=
200801150745 METAR LMML 150745Z 22005KT 190V250 CAVOK 16/12 Q1023 NOSIG=
200801150730 METAR LMML NIL=
200801150715 METAR LMML 150715Z 22005KT 190V260 CAVOK 16/12 Q1023 NOSIG=
200801150700 METAR LMML NIL=
200801150645 METAR LMML 150645Z 22005KT 190V260 CAVOK 15/12 Q1022 NOSIG=
200801150630 METAR LMML NIL=
200801150615 METAR LMML 150615Z 22005KT 190V250 CAVOK 14/12 Q1022 NOSIG=
200801150600 METAR LMML NIL=
200801150545 METAR LMML 150545Z 22005KT 190V250 CAVOK 15/12 Q1022 NOSIG=
200801150530 METAR LMML NIL=
200801150515 METAR LMML 150515Z 22006KT 190V250 9999 FEW016 14/12 Q1022
                        NOSIG=
200801150500 METAR LMML NIL=
200801150445 METAR LMML 150445Z 22006KT 200V260 9999 FEW016 15/12 Q1022
                        NOSIG=
200801150430 METAR LMML NIL=
200801150415 METAR LMML 150415Z 22005KT 9999 FEW016 14/12 Q1022 NOSIG=
200801150400 METAR LMML NIL=
200801150345 METAR LMML 150345Z VRB03KT 9999 FEW016 14/13 Q1022 NOSIG=
200801150330 METAR LMML NIL=
200801150315 METAR LMML 150315Z VRB03KT 9999 FEW016 14/13 Q1022 NOSIG=
200801150300 METAR LMML NIL=
200801150245 METAR LMML 150245Z 21004KT 180V250 9999 FEW017 14/12 Q1022
                        NOSIG=
200801150215 METAR LMML 150215Z 21005KT 180V240 9999 FEW019 14/12 Q1022
                        NOSIG=
200801150145 METAR LMML 150145Z 21005KT 180V240 9999 FEW021 14/11 Q1022
                        NOSIG=
200801150130 METAR LMML NIL=
200801150115 METAR LMML 150115Z 21006KT 190V250 9999 FEW023 14/11 Q1022
                        NOSIG=
200801150100 METAR LMML NIL=
200801150045 METAR LMML 150045Z 21004KT 170V240 9999 SCT024 14/11 Q1022
                        NOSIG=
200801150030 METAR LMML NIL=
200801150015 METAR LMML 150015Z 22004KT 190V260 9999 SCT025 14/10 Q1023
                        NOSIG=
200801150000 METAR LMML NIL=
200801142345 METAR LMML 142345Z 21006KT 180V250 9999 SCT027 14/10 Q1023
                        NOSIG=
200801142330 METAR LMML NIL=
200801142315 METAR LMML 142315Z 21004KT 180V240 9999 SCT027 14/10 Q1023
                        NOSIG=
200801142300 METAR LMML NIL=
200801142245 METAR LMML 142245Z 20004KT 170V250 9999 SCT028 14/10 Q1023
                        NOSIG=
200801142215 METAR LMML 142215Z 20005KT 180V250 9999 FEW028 13/09 Q1023
                        NOSIG=
200801142200 METAR LMML NIL=
200801142145 METAR LMML 142145Z 20004KT 9999 FEW025 13/09 Q1023 NOSIG=
200801142130 METAR LMML NIL=
200801142115 METAR LMML 142115Z 20004KT 170V230 CAVOK 13/09 Q1023 NOSIG=
200801142100 METAR LMML NIL=
200801142045 METAR LMML 142045Z 19004KT 160V220 9999 FEW024 13/08 Q1023
                        NOSIG=
200801142030 METAR LMML NIL=
200801142015 METAR LMML 142015Z 20004KT 160V230 9999 FEW024 13/08 Q1023
                        NOSIG=
200801142000 METAR LMML NIL=
200801141945 METAR LMML 141945Z 20004KT 170V230 9999 FEW024 14/10 Q1023
                        NOSIG=
200801141930 METAR LMML NIL=
200801141915 METAR LMML 141915Z 20004KT 9999 FEW024 14/10 Q1023 NOSIG=
200801141900 METAR LMML NIL=
200801141845 METAR LMML 141845Z VRB03KT 9999 SCT025 14/10 Q1023 NOSIG=
200801141830 METAR LMML NIL=
200801141815 METAR LMML 141815Z VRB03KT 9999 FEW025 14/10 Q1023 NOSIG=
200801141800 METAR LMML NIL=
200801141745 METAR LMML 141745Z VRB02KT 9999 SCT025 14/11 Q1023 NOSIG=
200801141730 METAR LMML NIL=
200801141715 METAR LMML 141715Z VRB01KT 9999 SCT024 14/11 Q1023 NOSIG=
200801141700 METAR LMML NIL=
200801141645 METAR LMML 141645Z VRB01KT 9999 FEW023 14/11 Q1022 NOSIG=
200801141630 METAR LMML NIL=
200801141615 METAR LMML 141615Z VRB03KT 9999 SCT023 15/11 Q1022 NOSIG=
200801141600 METAR LMML NIL=
200801141545 METAR LMML 141545Z VRB02KT 9999 SCT023 15/11 Q1022 NOSIG=
200801141530 METAR LMML NIL=
200801141515 METAR LMML 141515Z 22004KT 170V260 9999 SCT023 16/11 Q1022
                        NOSIG=
200801141500 METAR LMML NIL=
200801141445 METAR LMML 141445Z 22004KT 180V270 9999 FEW023 16/11 Q1022
                        NOSIG=
200801141430 METAR LMML NIL=
200801141415 METAR LMML 141415Z 21005KT 170V250 9999 FEW023 17/11 Q1022
                        NOSIG=
200801141400 METAR LMML NIL=
200801141345 METAR LMML 141345Z 25004KT 180V300 9999 SCT023 17/11 Q1022
                        NOSIG=
200801141330 METAR LMML NIL=
200801141315 METAR LMML 141315Z 23006KT 190V270 9999 SCT023 17/11 Q1022
                        NOSIG=
200801141300 METAR LMML NIL=
200801141245 METAR LMML 141245Z 22005KT 160V280 9999 SCT023 18/11 Q1022
                        NOSIG=
200801141230 METAR LMML NIL=
200801141215 METAR LMML 141215Z 24004KT 190V300 9999 FEW024 17/11 Q1022
                        NOSIG=
200801141200 METAR LMML NIL=
200801141145 METAR LMML 141145Z 23005KT 160V300 9999 SCT024 17/12 Q1022
                        NOSIG=
200801141130 METAR LMML NIL=
200801141115 METAR LMML 141115Z 20005KT 160V250 9999 SCT023 17/11 Q1023
                        NOSIG=
200801141100 METAR LMML NIL=
200801141045 METAR LMML 141045Z 22005KT 180V270 9999 SCT023 17/11 Q1023
                        NOSIG=
200801141030 METAR LMML NIL=
200801141015 METAR LMML 141015Z 23006KT 170V280 9999 SCT023 16/11 Q1023
                        NOSIG=
200801141000 METAR LMML NIL=
200801140945 METAR LMML 140945Z 24006KT 200V300 9999 FEW023 17/11 Q1023
                        NOSIG=
200801140930 METAR LMML NIL=
200801140915 METAR LMML 140915Z 24004KT 200V280 9999 FEW025 16/11 Q1023
                        NOSIG=
200801140900 METAR LMML NIL=
200801140845 METAR LMML 140845Z 23004KT 200V290 9999 FEW025 16/12 Q1023
                        NOSIG=
200801140830 METAR LMML NIL=
200801140815 METAR LMML 140815Z 22004KT 200V260 9999 FEW025 16/12 Q1023
                        NOSIG=
200801140800 METAR LMML NIL=
200801140745 METAR LMML 140745Z VRB02KT 9999 FEW025 15/11 Q1023 NOSIG=
200801140730 METAR LMML NIL=
200801140715 METAR LMML 140715Z 23004KT 9999 FEW025 13/11 Q1023 NOSIG=
200801140700 METAR LMML NIL=
200801140645 METAR LMML 140645Z VRB03KT 9999 FEW025 12/10 Q1023 NOSIG=
200801140630 METAR LMML NIL=
200801140615 METAR LMML 140615Z VRB01KT 9999 FEW025 10/09 Q1023 NOSIG=
200801140600 METAR LMML NIL=
200801140545 METAR LMML 140545Z VRB03KT 9999 FEW024 12/09 Q1022 NOSIG=
200801140530 METAR LMML NIL=
200801140515 METAR LMML 140515Z 23004KT 9999 FEW024 12/09 Q1022 NOSIG=
200801140500 METAR LMML NIL=
200801140445 METAR LMML 140445Z 23005KT 9999 FEW024 13/09 Q1022 NOSIG=
200801140430 METAR LMML NIL=
200801140415 METAR LMML 140415Z 22004KT 9999 FEW024 13/10 Q1022 NOSIG=
200801140400 METAR LMML NIL=
200801140345 METAR LMML 140345Z 23005KT 190V250 9999 FEW028 13/10 Q1022
                        NOSIG=
200801140315 METAR LMML 140315Z 23006KT 200V260 9999 FEW028 13/09 Q1022
                        NOSIG=
200801140300 METAR LMML NIL=
200801140245 METAR LMML 140245Z 23006KT 9999 FEW029 13/09 Q1022 NOSIG=
200801140230 METAR LMML NIL=
200801140215 METAR LMML 140215Z 23005KT 9999 FEW029 13/09 Q1022 NOSIG=
200801140200 METAR LMML NIL=
200801140145 METAR LMML 140145Z 23005KT 9999 FEW032 13/09 Q1022 NOSIG=
200801140130 METAR LMML NIL=
200801140115 METAR LMML 140115Z 23004KT 210V270 9999 FEW027 13/09 Q1022
                        NOSIG=
200801140100 METAR LMML NIL=
200801140045 METAR LMML 140045Z 23005KT 9999 FEW027 13/09 Q1022 NOSIG=
200801140030 METAR LMML NIL=
200801140015 METAR LMML 140015Z 23005KT 200V270 9999 FEW028 13/09 Q1022
                        NOSIG=
200801140000 METAR LMML NIL=
200801132345 METAR LMML 132345Z 23005KT 210V270 9999 FEW029 13/09 Q1022
                        NOSIG=
200801132330 METAR LMML NIL=
200801132315 METAR LMML 132315Z 23005KT 180V260 9999 FEW029 13/09 Q1022
                        NOSIG=
200801132300 METAR LMML NIL=
200801132245 METAR LMML 132245Z 23005KT 200V260 9999 FEW029 13/09 Q1022
                        NOSIG=
200801132230 METAR LMML NIL=
200801132215 METAR LMML 132215Z 23007KT 200V260 9999 FEW030 13/08 Q1022
                        NOSIG=
200801132200 METAR LMML NIL=
200801132145 METAR LMML 132145Z 23006KT 200V260 9999 FEW029 13/08 Q1022
                        NOSIG=
200801132130 METAR LMML NIL=
200801132115 METAR LMML 132115Z 23006KT 200V270 9999 FEW027 13/08 Q1022
                        NOSIG=
200801132100 METAR LMML NIL=
200801132045 METAR LMML 132045Z 23005KT 200V260 9999 FEW027 13/09 Q1022
                        NOSIG=
200801132030 METAR LMML NIL=
200801132015 METAR LMML 132015Z 23004KT 210V270 9999 FEW027 12/09 Q1022
                        NOSIG=
200801132000 METAR LMML NIL=
200801131945 METAR LMML 131945Z 25005KT 9999 FEW027 13/09 Q1023 NOSIG=
200801131930 METAR LMML NIL=
200801131915 METAR LMML 131915Z 24005KT 9999 FEW029 12/09 Q1023 NOSIG=
200801131900 METAR LMML NIL=
200801131845 METAR LMML 131845Z 24005KT 9999 FEW030 13/09 Q1022 NOSIG=
200801131830 METAR LMML NIL=
200801131815 METAR LMML 131815Z 24005KT 9999 FEW030 13/09 Q1022 NOSIG=
200801131800 METAR LMML NIL=
200801131745 METAR LMML 131745Z 24005KT 210V270 9999 FEW031 13/08 Q1022
                        NOSIG=
200801131730 METAR LMML NIL=
200801131715 METAR LMML 131715Z 25005KT 9999 FEW031 13/08 Q1022 NOSIG=
200801131700 METAR LMML NIL=
200801131645 METAR LMML 131645Z 25005KT 210V280 9999 FEW031 13/09 Q1022
                        NOSIG=
200801131630 METAR LMML NIL=
200801131615 METAR LMML 131615Z 26006KT 220V290 9999 FEW031 13/08 Q1022
                        NOSIG=
200801131600 METAR LMML NIL=
200801131545 METAR LMML 131545Z 25006KT 200V280 9999 FEW031 14/08 Q1022
                        NOSIG=
200801131515 METAR LMML 131515Z 26007KT 230V290 9999 FEW033 15/08 Q1022
                        NOSIG=
200801131500 METAR LMML NIL=
200801131445 METAR LMML 131445Z 25007KT 210V300 9999 FEW033 15/09 Q1022
                        NOSIG=
200801131415 METAR LMML 131415Z 25007KT 210V280 9999 FEW033 16/09 Q1021
                        NOSIG=
200801131400 METAR LMML NIL=
200801131345 METAR LMML 131345Z 28010KT 9999 FEW031 16/09 Q1021 NOSIG=
200801131330 METAR LMML NIL=
200801131315 METAR LMML 131315Z 27008KT 240V300 9999 FEW034 16/09 Q1021
                        NOSIG=
200801131300 METAR LMML NIL=
200801131245 METAR LMML 131245Z 27009KT 230V310 9999 FEW031 16/09 Q1021
                        NOSIG=
200801131230 METAR LMML NIL=
200801131215 METAR LMML 131215Z 27008KT 220V290 9999 SCT029 16/10 Q1022
                        NOSIG=
200801131200 METAR LMML NIL=
200801131145 METAR LMML 131145Z 26008KT 220V300 9999 SCT029 16/09 Q1022
                        NOSIG=
200801131130 METAR LMML NIL=
200801131115 METAR LMML 131115Z 26007KT 200V310 9999 SCT029 16/10 Q1022
                        NOSIG=
200801131100 METAR LMML NIL=
200801131045 METAR LMML 131045Z 26007KT 200V310 9999 SCT033 16/10 Q1022
                        NOSIG=
200801131030 METAR LMML NIL=
200801131015 METAR LMML 131015Z 26008KT 210V290 9999 SCT028 16/10 Q1023
                        NOSIG=
200801131000 METAR LMML NIL=
200801130945 METAR LMML 130945Z 26006KT 210V300 9999 SCT028 16/11 Q1023
                        NOSIG=
200801130915 METAR LMML 130915Z 26005KT 210V290 9999 SCT026 SCT070 15/10
                        Q1023 TEMPO SHR A BKN015=
200801130900 METAR LMML NIL=
200801130845 METAR LMML 130845Z VRB01KT 9999 FEW025 BKN070 16/11 Q1023
                        TEMPO SHRA BKN015=
200801130830 METAR LMML NIL=
200801130815 METAR LMML 130815Z VRB02KT 9999 FEW025 SCT070 15/11 Q1023
                        TEMPO SHRA BKN015=
200801130800 METAR LMML NIL=
200801130745 METAR LMML 130745Z VRB02KT 9999 FEW025 SCT100 14/12 Q1022
                        TEMPO SHRA BKN015=
200801130730 METAR LMML NIL=
200801130715 METAR LMML 130715Z VRB03KT 9999 FEW025 SCT050 13/11 Q1022
                        TEMPO SHRA BKN015=
200801130700 METAR LMML NIL=
200801130645 METAR LMML 130645Z VRB03KT 9999 FEW025 SCT050 13/11 Q1022
                        TEMPO SHRA BKN015=
200801130630 METAR LMML NIL=
200801130615 METAR LMML 130615Z VRB03KT 9999 FEW025 BKN050 13/11 Q1022
                        TEMPO SHRA BKN015=
200801130600 METAR LMML NIL=
200801130545 METAR LMML 130545Z VRB03KT 9999 FEW025 SCT050 BKN090 13/11
                        Q1021 TEMPO SHRA BKN015=
200801130530 METAR LMML NIL=
200801130515 METAR LMML 130515Z VRB03KT 9999 FEW025 BKN050 13/11 Q1021
                        TEMPO SHRA BKN015=
200801130500 METAR LMML NIL=
200801130445 METAR LMML 130445Z VRB03KT 9999 FEW025 BKN060 13/11 Q1021
                        TEMPO SHRA BKN015=
200801130430 METAR LMML NIL=
200801130415 METAR LMML 130415Z VRB02KT 9999 FEW025 BKN060 13/11 Q1020
                        TEMPO SHRA BKN015=
200801130400 METAR LMML NIL=
200801130345 METAR LMML 130345Z VRB02KT 9999 FEW025 BKN060 13/11 Q1020
                        TEMPO SHRA BKN015=
200801130330 METAR LMML NIL=
200801130315 METAR LMML 130315Z 31008KT 9999 FEW034 BKN070 13/11 Q1020
                        TEMPO SHRA BKN015=
200801130300 METAR LMML NIL=
200801130245 METAR LMML 130245Z 32004KT 9999 -RA FEW025 BKN050 13/11 Q1020
                        TEMPO SHRA BK N015=
200801130230 METAR LMML NIL=
200801130215 METAR LMML 130215Z 29005KT 9999 FEW037 BKN060 13/11 Q1021
                        TEMPO SHRA BKN015=
200801130145 METAR LMML 130145Z 33004KT 9999 FEW020 BKN050 13/12 Q1020
                        RESHRA TEMPO SHRA BKN015=
200801130130 METAR LMML NIL=
200801130115 METAR LMML 130115Z 32010KT 9999 SHRA SCT023 BKN060 13/12
                        Q1020 TEMPO SHRA B KN015=
200801130100 METAR LMML NIL=
200801130045 METAR LMML 130045Z VRB03KT 9999 FEW017 BKN042 13/12 Q1020
                        RERA TEMPO SHRA B KN015=
200801130030 METAR LMML NIL=
200801130015 METAR LMML 130015Z 27009KT 230V310 9999 RA SCT017 BKN045
                        14/13 Q1020 TEMPO SHRA BKN015=
200801130000 METAR LMML NIL=
200801122345 METAR LMML 122345Z 24007KT 200V280 9999 -SHRA SCT020 BKN050
                        14/12 Q1020 TEM PO SHRA BKN015=
200801122330 METAR LMML NIL=
200801122315 METAR LMML 122315Z 25007KT 200V280 9999 SCT018 SCT050 14/12
                        Q1020 TEMPO SHR A BKN015=
200801122300 METAR LMML NIL=
200801122245 METAR LMML 122245Z 23008KT 190V270 9999 SCT020 SCT046 15/12
                        Q1020 TEMPO SHR A BKN015=
200801122230 METAR LMML NIL=
200801122215 METAR LMML 122215Z 23007KT 190V280 9999 BKN019 15/12 Q1020
                        TEMPO SHRA BKN01 5=
200801122200 METAR LMML NIL=
200801122145 METAR LMML 122145Z 22007KT 190V280 9999 BKN020 15/12 Q1020
                        TEMPO SHRA BKN01 5=
200801122130 METAR LMML NIL=
200801122115 METAR LMML 122115Z 23006KT 190V270 9999 SCT021 15/12 Q1020
                        TEMPO SHRA BKN01 5=
200801122100 METAR LMML NIL=
200801122045 METAR LMML 122045Z 23009KT 190V270 9999 SCT016 15/12 Q1020
                        TEMPO SHRA BKN01 5=
200801122030 METAR LMML NIL=
200801122015 METAR LMML 122015Z 23007KT 200V280 9999 FEW015CB BKN021 15/13
                        Q1020 RETS TE MPO SHRA BKN015=
200801122000 METAR LMML NIL=
200801121945 METAR LMML 121945Z 21010KT 170V260 7000 TSRA BKN015CB 15/12
                        Q1020 TEMPO 500 0 TSRA BKN015CB=
200801121930 METAR LMML NIL=
200801121915 METAR LMML 121915Z 20007KT 160V260 9999 TS SCT019CB SCT025
                        15/12 Q1020 TEMP O 5000 TSRA BKN015CB=
200801121900 METAR LMML NIL=
200801121845 METAR LMML 121845Z 20007KT 170V240 9999 BKN016 15/13 Q1020
                        TEMPO 8000 SHRA BKN015=
200801121830 METAR LMML NIL=
200801121815 METAR LMML 121815Z 19007KT 160V250 9999 BKN016 15/13 Q1020
                        NOSIG=
200801121800 LMML NIL=
200801121745 LMML 121745Z 19008KT 160V240 9999 BKN016 15/13 Q1019 NOSIG=
200801121730 LMML NIL=
200801121715 LMML 121715Z 19007KT 150V240 9999 BKN014 15/13 Q1020 NOSIG=
200801121700 METAR LMML NIL=
200801121645 METAR LMML 121645Z 19007KT 140V230 9999 BKN015 15/13 Q1019
                        NOSIG=
200801121630 METAR LMML NIL=
200801121615 METAR LMML 121615Z 19009KT 150V230 9999 BKN016 15/13 Q1019
                        NOSIG=
200801121600 METAR LMML NIL=
200801121545 METAR LMML 121545Z 19009KT 160V230 9999 SCT017 16/12 Q1019
                        NOSIG=
200801121515 METAR LMML 121515Z 19009KT 160V240 9999 BKN014 16/13 Q1019
                        NOSIG=
200801121500 METAR LMML NIL=
200801121445 METAR LMML 121445Z 19010KT 160V220 9999 SCT015 16/13 Q1019
                        NOSIG=
200801121430 LMML NIL=
200801121415 METAR LMML 121415Z 20008KT 160V240 9999 SCT016 SCT000 16/13
                        Q1019 NOSIG=
200801121400 METAR LMML NIL=
200801121345 METAR LMML 121345Z 19009KT 160V240 9999 BKN018 16/13 Q1020
                        NOSIG=
200801121330 LMML NIL=
200801121315 METAR LMML 121315Z 18009KT 150V220 9999 SCT018 17/13 Q1020
                        NOSIG=
200801121300 METAR LMML NIL=
200801121245 METAR LMML 121245Z 17009KT 130V210 9999 SCT018 16/13 Q1020
                        NOSIG=
200801121230 METAR LMML NIL=
200801121215 METAR LMML 121215Z 17008KT 140V200 9999 BKN018 SCT100 17/13
                        Q1020 NOSIG=
200801121200 METAR LMML NIL=
200801121145 METAR LMML 121145Z 18008KT 150V240 9999 BKN018 SCT100 17/12
                        Q1021 NOSIG=
200801121130 METAR LMML NIL=
200801121115 METAR LMML 121115Z 18007KT 140V230 9999 BKN018 SCT100 16/12
                        Q1021 TEMPO 800 0 SHRA BKN015=
200801121045 METAR LMML 121045Z 17009KT 130V200 9999 BKN019 17/13 Q1021
                        TEMPO 8000 SHRA BKN015=
200801121030 METAR LMML NIL=
200801121015 METAR LMML 121015Z 15009KT 120V180 9999 SCT019 16/12 Q1022
                        TEMPO 8000 SHRA BKN015=
200801121000 METAR LMML NIL=
200801120945 METAR LMML 120945Z 16007KT 130V200 9999 SCT021 17/12 Q1022
                        NOSIG=
200801120915 METAR LMML 120915Z 15008KT 120V190 9999 SCT018 17/12 Q1022
                        NOSIG=
200801120845 METAR LMML 120845Z 16008KT 130V190 9999 SCT025 16/12 Q1022
                        NOSIG=
200801120830 METAR LMML NIL=
200801120815 METAR LMML 120815Z 15007KT 130V190 9999 FEW026 16/11 Q1022
                        NOSIG=
200801120800 METAR LMML NIL=
200801120745 METAR LMML 120745Z 16006KT 9999 FEW027 16/12 Q1022 NOSIG=
200801120730 METAR LMML NIL=
200801120715 METAR LMML 120715Z VRB03KT 9999 -RA FEW026 SCT060 15/12 Q1022
                        TEMPO 8000 SH RA=
200801120700 LMML NIL=
200801120645 LMML 120645Z 18006KT 9999 -RA FEW020 BKN060 14/11 Q1022 TEMPO
                        8000 SH RA=
200801120630 METAR LMML NIL=
200801120615 METAR LMML 120615Z 16004KT 140V200 9999 -RA SCT036 BKN065
                        13/11 Q1022 TEMPO 8000 SHRA=
200801120600 METAR LMML NIL=
200801120545 METAR LMML 120545Z VRB03KT 9999 SCT023 BKN050 13/12 Q1022
                        TEMPO 8000 SHRA=
200801120530 METAR LMML NIL=
200801120515 METAR LMML 120515Z 16008KT 130V190 9999 SCT030 SCT070 14/11
                        Q1022 TEMPO 800 0 SHRA=
200801120500 METAR LMML NIL=
200801120445 METAR LMML 120445Z 17005KT 9999 FEW025 14/11 Q1022 TEMPO
                        8000 SHRA=
200801120430 METAR LMML NIL=
200801120415 METAR LMML 120415Z 16005KT 9999 FEW025 14/10 Q1022 TEMPO
                        8000 SHRA=
200801120400 METAR LMML NIL=
200801120345 METAR LMML 120345Z 15004KT 120V180 9999 FEW025 14/11 Q1022
                        NOSIG=
200801120330 METAR LMML NIL=
200801120315 METAR LMML 120315Z 16005KT 9999 FEW026 14/10 Q1022 NOSIG=
200801120300 METAR LMML NIL=
200801120245 METAR LMML 120245Z 16005KT 9999 FEW027 14/10 Q1023 NOSIG=
200801120230 METAR LMML NIL=
200801120215 METAR LMML 120215Z 15004KT 9999 FEW028 14/10 Q1023 NOSIG=
200801120200 METAR LMML NIL=
200801120145 METAR LMML 120145Z 16004KT 140V200 9999 FEW026 14/10 Q1023
                        NOSIG=
200801120130 METAR LMML NIL=
200801120115 METAR LMML 120115Z 16006KT 9999 FEW025 14/11 Q1023 NOSIG=
200801120100 METAR LMML NIL=
200801120045 METAR LMML 120045Z 15006KT 9999 FEW026 14/11 Q1023 NOSIG=
200801120030 METAR LMML NIL=
200801120015 METAR LMML 120015Z 16005KT 9999 FEW026 14/10 Q1023 NOSIG=
200801120000 METAR LMML NIL=
200801112345 METAR LMML 112345Z 16005KT 9999 FEW024 14/10 Q1023 NOSIG=
200801112330 METAR LMML NIL=
200801112315 METAR LMML 112315Z 15005KT 120V180 9999 FEW024 14/11 Q1024
                        NOSIG=
200801112300 METAR LMML NIL=
200801112245 METAR LMML 112245Z 16006KT 9999 FEW024 14/11 Q1024 NOSIG=
200801112230 METAR LMML NIL=
200801112215 METAR LMML 112215Z 15005KT 9999 FEW025 14/11 Q1024 NOSIG=
200801112200 METAR LMML NIL=
200801112145 METAR LMML 112145Z 14004KT 9999 FEW026 13/11 Q1024 NOSIG=
200801112115 METAR LMML 112115Z 14005KT 9999 FEW026 13/11 Q1024 NOSIG=
200801112100 METAR LMML NIL=
200801112045 METAR LMML 112045Z 14005KT 9999 FEW026 13/11 Q1024 NOSIG=
200801112030 METAR LMML NIL=
200801112015 METAR LMML 112015Z VRB03KT 9999 FEW025 13/11 Q1024 NOSIG=
200801112000 METAR LMML NIL=
200801111945 METAR LMML 111945Z VRB03KT 9999 FEW024 13/11 Q1024 NOSIG=
200801111930 METAR LMML NIL=
200801111915 METAR LMML 111915Z VRB03KT 9999 FEW025 13/12 Q1024 NOSIG=
200801111900 METAR LMML NIL=
200801111845 METAR LMML 111845Z VRB01KT 9999 FEW020 12/11 Q1025 NOSIG=
200801111830 METAR LMML NIL=
200801111815 LMML 111815Z VRB01KT 9999 FEW020 13/11 Q1025 NOSIG=
200801111800 METAR LMML NIL=
200801111745 METAR LMML 111745Z VRB02KT 9999 FEW020 SCT250 13/11 Q1025
                        NOSIG=
200801111730 METAR LMML NIL=
200801111715 METAR LMML 111715Z VRB01KT 9999 FEW020 SCT250 13/11 Q1025
                        NOSIG=
200801111700 METAR LMML NIL=
200801111645 METAR LMML 111645Z VRB01KT 9999 FEW020 SCT250 14/11 Q1024
                        NOSIG=
200801111630 METAR LMML NIL=
200801111615 METAR LMML 111615Z VRB01KT 9999 FEW020 SCT250 14/11 Q1024
                        TEMPO 8000 SHRA B KN018=
200801111600 METAR LMML NIL=
200801111545 METAR LMML 111545Z VRB02KT 9999 FEW020 SCT250 15/11 Q1024
                        TEMPO 8000 SHRA B KN018=
200801111530 METAR LMML NIL=
200801111515 METAR LMML 111515Z VRB01KT 9999 FEW020 SCT250 16/11 Q1024
                        TEMPO 8000 SHRA B KN018=
200801111500 METAR LMML NIL=
200801111445 METAR LMML 111445Z VRB02KT 9999 FEW022 16/11 Q1024 TEMPO
                        8000 SHRA BKN018=
200801111430 METAR LMML NIL=
200801111415 METAR LMML 111415Z VRB03KT 9999 SCT022 15/11 Q1024 TEMPO
                        8000 SHRA BKN018=
200801111400 METAR LMML NIL=
200801111345 METAR LMML 111345Z 20005KT 170V250 9999 SCT022TCU 16/11 Q1024
                        TEMPO 8000 SH RA BKN018=
200801111330 METAR LMML NIL=
200801111315 METAR LMML 111315Z 19007KT 160V230 9999 SCT022 SCT100 17/11
                        Q1024 NOSIG=
200801111300 METAR LMML NIL=
200801111245 METAR LMML 111245Z 18009KT 150V210 9999 SCT022 SCT250 17/12
                        Q1024 NOSIG=
200801111230 METAR LMML NIL=
200801111215 METAR LMML 111215Z 17006KT 9999 SCT023 SCT250 16/12 Q1025
                        NOSIG=
200801111200 METAR LMML NIL=
200801111145 METAR LMML 111145Z 18006KT 150V210 9999 FEW020 SCT250 17/12
                        Q1025 NOSIG=
200801111130 METAR LMML NIL=
200801111115 METAR LMML 111115Z 15006KT 120V190 9999 FEW020 SCT250 17/12
                        Q1025 NOSIG=
200801111100 METAR LMML NIL=
200801111045 METAR LMML 111045Z 17006KT 150V210 9999 FEW020 SCT250 17/12
                        Q1026 NOSIG=
200801111030 METAR LMML NIL=
200801111015 METAR LMML 111015Z 18004KT 140V220 9999 FEW020 SCT250 17/12
                        Q1026 NOSIG=
200801111000 METAR LMML NIL=
200801110945 METAR LMML 110945Z VRB02KT 9999 FEW020 SCT050 17/10 Q1026
                        NOSIG=
200801110930 METAR LMML NIL=
200801110915 METAR LMML 110915Z VRB02KT 9999 FEW020 SCT050 16/11 Q1026
                        TEMPO 8000 SHRA B KN015=
200801110900 METAR LMML NIL=
200801110845 METAR LMML 110845Z VRB02KT 9999 FEW020 SCT043 14/12 Q1026
                        TEMPO 8000 SHRA B KN015=
200801110830 METAR LMML NIL=
200801110815 METAR LMML 110815Z VRB02KT 9999 FEW020 SCT046 14/13 Q1026
                        TEMPO 8000 SHRA B KN015=
200801110800 METAR LMML NIL=
200801110745 METAR LMML 110745Z 21004KT 9999 SCT020 14/12 Q1026 TEMPO
                        8000 SHRA BKN015=
200801110730 METAR LMML NIL=
200801110715 METAR LMML 110715Z VRB01KT 8000 BKN018 13/12 Q1026 TEMPO
                        8000 SHRA BKN015=
200801110700 METAR LMML NIL=
200801110645 METAR LMML 110645Z VRB02KT 8000 -SHRA BKN019 13/12 Q1026
                        TEMPO 8000 SHRA BK N015=
200801110630 METAR LMML NIL=
200801110615 METAR LMML 110615Z VRB01KT 9999 SCT020 SCT090 12/11 Q1026
                        TEMPO 8000 SHRA B KN015=
200801110600 METAR LMML NIL=
200801110545 METAR LMML 110545Z 00000KT 9999 FEW022 BKN250 12/11 Q1026
                        NOSIG=
200801110530 METAR LMML NIL=
200801110515 METAR LMML 110515Z VRB01KT 9999 FEW029 12/11 Q1025 NOSIG=
200801110500 METAR LMML NIL=
200801110445 METAR LMML 110445Z VRB01KT 9999 FEW025 SCT090 12/11 Q1025
                        NOSIG=
200801110430 METAR LMML NIL=
200801110415 METAR LMML 110415Z VRB02KT 9999 FEW025 BKN090 12/11 Q1025
                        NOSIG=
200801110400 METAR LMML NIL=
200801110345 METAR LMML 110345Z VRB02KT 9999 FEW025 BKN080 12/12 Q1025
                        NOSIG=
200801110330 METAR LMML NIL=
200801110315 METAR LMML 110315Z VRB02KT 9999 FEW025 BKN080 13/11 Q1025
                        NOSIG=
200801110300 METAR LMML NIL=
200801110245 METAR LMML 110245Z VRB01KT 9999 FEW025 BKN080 13/12 Q1026
                        NOSIG=
200801110230 METAR LMML NIL=
200801110215 METAR LMML 110215Z VRB03KT 9999 FEW025 BKN090 13/12 Q1026
                        NOSIG=
200801110200 METAR LMML NIL=
200801110145 METAR LMML 110145Z 25004KT 9999 FEW024 SCT046 BKN090 14/12
                        Q1026 NOSIG=
200801110130 METAR LMML NIL=
200801110115 METAR LMML 110115Z 25004KT 210V270 9999 FEW025 BKN090 14/12
                        Q1026 NOSIG=
200801110100 METAR LMML NIL=
200801110045 METAR LMML 110045Z VRB02KT 9999 FEW025 BKN090 13/12 Q1026
                        NOSIG=
200801110030 METAR LMML NIL=
200801110015 METAR LMML 110015Z 00000KT 9999 FEW020 BKN090 13/12 Q1026
                        NOSIG=
200801110000 METAR LMML NIL=
200801102345 METAR LMML 102345Z VRB02KT 9999 FEW019 BKN090 14/12 Q1026
                        NOSIG=
200801102330 METAR LMML NIL=
200801102315 METAR LMML 102315Z VRB01KT 9999 FEW020 BKN090 13/12 Q1026
                        NOSIG=
200801102300 METAR LMML NIL=
200801102245 METAR LMML 102245Z VRB02KT 9999 FEW020 BKN090 13/12 Q1027
                        NOSIG=
200801102230 METAR LMML NIL=
200801102215 METAR LMML 102215Z VRB01KT 9999 FEW020 BKN090 13/12 Q1027
                        NOSIG=
200801102200 METAR LMML NIL=
200801102145 METAR LMML 102145Z VRB02KT 9999 FEW022 BKN090 13/12 Q1027
                        NOSIG=
200801102130 METAR LMML NIL=
200801102115 METAR LMML 102115Z VRB03KT 9999 FEW023 BKN090 13/12 Q1027
                        NOSIG=
200801102100 METAR LMML NIL=
200801102045 METAR LMML 102045Z VRB02KT 9999 FEW022 SCT250 13/12 Q1027
                        NOSIG=
200801102030 METAR LMML NIL=
200801102015 METAR LMML 102015Z VRB01KT 9999 FEW022 SCT250 13/12 Q1027
                        NOSIG=
200801102000 METAR LMML NIL=
200801101945 METAR LMML 101945Z VRB01KT 9999 FEW021 SCT250 13/11 Q1027
                        NOSIG=
200801101915 METAR LMML 101915Z VRB01KT 9999 FEW021 SCT250 14/11 Q1027
                        NOSIG=
200801101900 METAR LMML NIL=
200801101845 METAR LMML 101845Z VRB02KT 9999 FEW021 SCT250 14/11 Q1027
                        NOSIG=
200801101830 METAR LMML NIL=
200801101815 METAR LMML 101815Z VRB03KT 9999 FEW021 SCT250 15/12 Q1027
                        NOSIG=
200801101800 METAR LMML NIL=
200801101745 METAR LMML 101745Z VRB03KT 9999 FEW021 SCT250 15/12 Q1027
                        NOSIG=
200801101730 METAR LMML NIL=
200801101715 METAR LMML 101715Z VRB03KT 9999 FEW021 SCT250 15/12 Q1027
                        NOSIG=
200801101700 METAR LMML NIL=
200801101645 METAR LMML 101645Z VRB02KT 9999 FEW021 SCT250 15/12 Q1026
                        NOSIG=
200801101630 METAR LMML NIL=
200801101615 METAR LMML 101615Z VRB03KT 9999 FEW023 SCT250 15/12 Q1026
                        NOSIG=
200801101600 METAR LMML NIL=
200801101545 METAR LMML 101545Z 16005KT 9999 FEW023 SCT250 16/12 Q1026
                        NOSIG=
200801101530 METAR LMML NIL=
200801101515 METAR LMML 101515Z 16006KT 130V190 9999 FEW023 SCT250 16/12
                        Q1026 NOSIG=
200801101500 METAR LMML NIL=
200801101445 METAR LMML 101445Z 15005KT 100V170 9999 FEW023 SCT250 16/12
                        Q1026 NOSIG=
200801101430 METAR LMML NIL=
200801101415 METAR LMML 101415Z 16005KT 120V200 9999 FEW023 SCT250 17/11
                        Q1026 NOSIG=
200801101400 METAR LMML NIL=
200801101345 METAR LMML 101345Z 16006KT 100V210 9999 SCT020 17/12 Q1025
                        NOSIG=
200801101330 METAR LMML NIL=
200801101315 METAR LMML 101315Z 15006KT 080V210 9999 SCT020 18/12 Q1025
                        NOSIG=
200801101245 METAR LMML 101245Z 15007KT 120V190 9999 SCT020 17/12 Q1025
                        NOSIG=
200801101230 METAR LMML NIL=
200801101215 METAR LMML 101215Z 16006KT 120V200 9999 SCT020 17/12 Q1026
                        NOSIG=
200801101200 METAR LMML NIL=
200801101145 METAR LMML 101145Z 14006KT 090V180 9999 SCT020 18/12 Q1026
                        NOSIG=
200801101130 METAR LMML NIL=
200801101115 METAR LMML 101115Z 15006KT 090V190 9999 SCT020 17/12 Q1026
                        NOSIG=
200801101100 METAR LMML NIL=
200801101045 METAR LMML 101045Z 13007KT 110V170 9999 SCT020 17/12 Q1026
                        NOSIG=
200801101030 METAR LMML NIL=
200801101015 METAR LMML 101015Z 14006KT 090V180 9999 SCT022 17/11 Q1027
                        NOSIG=
200801100945 METAR LMML 100945Z 12007KT 9999 FEW019 17/12 Q1027 NOSIG=
200801100930 METAR LMML NIL=
200801100915 METAR LMML 100915Z 10006KT 9999 SCT018 17/13 Q1027 NOSIG=
200801100900 METAR LMML NIL=
200801100845 METAR LMML 100845Z 13005KT 9999 SCT017 SCT100 16/13 Q1027
                        NOSIG=
200801100830 METAR LMML NIL=
200801100815 METAR LMML 100815Z 12006KT 9000 FEW019 SCT100 16/13 Q1026
                        BECMG 9999=
200801100800 METAR LMML NIL=
200801100745 METAR LMML 100745Z 12006KT 090V150 7000 FEW019 BKN100 16/14
                        Q1026 BECMG 999 9=
200801100730 METAR LMML NIL=
200801100715 METAR LMML 100715Z VRB01KT 7000 SCT018 BKN100 14/14 Q1026
                        NOSIG=
200801100700 METAR LMML NIL=
200801100645 METAR LMML 100645Z VRB01KT 9000 SCT020 BKN100 13/13 Q1025
                        TEMPO 7000 SHRA B KN007=
200801100630 METAR LMML NIL=
200801100615 METAR LMML 100615Z VRB03KT 9999 FEW018 BKN100 13/13 Q1025
                        TEMPO 7000 SHRA B KN007=
200801100600 METAR LMML NIL=
200801100545 METAR LMML 100545Z VRB03KT 9999 FEW016 SCT060 13/13 Q1025
                        TEMPO 7000 SHRA B KN007=
200801100530 METAR LMML NIL=
200801100515 METAR LMML 100515Z VRB03KT 9999 FEW016 SCT090 13/13 Q1025
                        TEMPO 7000 SHRA B KN007=
200801100500 METAR LMML NIL=
200801100445 METAR LMML 100445Z VRB02KT 9999 FEW014 SCT090 13/13 Q1024
                        TEMPO 7000 SHRA B KN007=
200801100415 METAR LMML 100415Z VRB01KT 9999 FEW015 13/13 Q1024 TEMPO
                        7000 SHRA BKN007=
200801100400 METAR LMML NIL=
200801100345 METAR LMML 100345Z 10004KT 9999 FEW013 SCT090 13/13 Q1024
                        TEMPO 7000 SHRA B KN007=
200801100330 METAR LMML NIL=
200801100315 METAR LMML 100315Z 09004KT 9999 SCT013 13/13 Q1024 TEMPO
                        7000 SHRA BKN007=
200801100300 LMML NIL=
200801100245 LMML 100245Z VRB02KT 9999 BKN013 SCT090 13/13 Q1024 TEMPO
                        7000 SHRA B KN007=
200801100230 METAR LMML NIL=
200801100215 METAR LMML 100215Z VRB02KT 9999 FEW011 SCT090 14/13 Q1024
                        TEMPO 7000 SHRA B KN007=
200801100200 METAR LMML NIL=
200801100145 METAR LMML 100145Z 09004KT 9999 SCT011 BKN093 14/13 Q1024
                        TEMPO 7000 SHRA B KN007=
200801100130 METAR LMML NIL=
200801100115 METAR LMML 100115Z VRB03KT 9999 FEW013 BKN090 14/14 Q1024
                        TEMPO 7000 SHRA B KN007=
200801100100 METAR LMML NIL=
200801100045 METAR LMML 100045Z VRB02KT 9999 FEW013 BKN093 14/13 Q1024
                        TEMPO 7000 BKN007=
200801100015 METAR LMML 100015Z VRB03KT 9999 FEW013 BKN090 14/14 Q1024
                        TEMPO 7000 BKN007=
200801100000 METAR LMML NIL=
200801092345 METAR LMML 092345Z VRB03KT 9999 FEW012 BKN090 14/14 Q1024
                        TEMPO 7000 BKN007=
200801092330 METAR LMML NIL=
200801092315 METAR LMML 092315Z VRB03KT 9999 FEW011 BKN090 14/14 Q1024
                        TEMPO 7000 BKN007=
200801092300 METAR LMML NIL=
200801092245 METAR LMML 092245Z 07004KT 9999 SCT011 BKN090 14/14 Q1024
                        TEMPO 7000 BKN007=
200801092230 METAR LMML NIL=
200801092215 METAR LMML 092215Z VRB03KT 9999 SCT011 BKN094 15/14 Q1024
                        TEMPO 7000 BKN007=
200801092200 METAR LMML NIL=
200801092145 METAR LMML 092145Z VRB03KT 9999 FEW010 BKN090 14/14 Q1024
                        NOSIG=
200801092130 METAR LMML NIL=
200801092115 METAR LMML 092115Z VRB03KT 9999 FEW009 BKN090 14/14 Q1024
                        NOSIG=
200801092100 METAR LMML NIL=
200801092045 METAR LMML 092045Z 07005KT 9999 FEW009 SCT090 15/14 Q1024
                        NOSIG=
200801092015 METAR LMML 092015Z 07005KT 030V100 9999 FEW008 SCT014 BKN090
                        15/14 Q1024 NO SIG=
200801092000 METAR LMML NIL=
200801091945 METAR LMML 091945Z 07006KT 9999 SCT009 BKN090 15/14 Q1024
                        NOSIG=
200801091930 METAR LMML NIL=
200801091915 METAR LMML 091915Z 07007KT 020V100 9999 FEW009 BKN090 15/14
                        Q1023 NOSIG=
200801091900 METAR LMML NIL=
200801091845 METAR LMML 091845Z 06008KT 030V090 9999 SCT008 BKN090 15/14
                        Q1023 NOSIG=
200801091830 METAR LMML NIL=
200801091815 METAR LMML 091815Z 06006KT 020V090 9999 BKN008 BKN090 15/14
                        Q1023 NOSIG=
200801091800 METAR LMML NIL=
200801091745 METAR LMML 091745Z 07007KT 030V090 9999 BKN009 BKN090 15/14
                        Q1023 NOSIG=
200801091730 METAR LMML NIL=
200801091715 METAR LMML 091715Z 06007KT 030V100 9999 BKN009 BKN090 15/14
                        Q1023 NOSIG=
200801091700 METAR LMML NIL=
200801091645 METAR LMML 091645Z 06008KT 030V090 9999 SCT008 BKN013 BKN090
                        15/14 Q1022 NO SIG=
200801091630 METAR LMML NIL=
200801091615 METAR LMML 091615Z 06008KT 020V090 9999 FEW009 SCT015 BKN090
                        15/14 Q1022 NO SIG=
200801091600 METAR LMML NIL=
200801091545 METAR LMML 091545Z 06007KT 020V100 9999 SCT011 BKN090 16/14
                        Q1022 NOSIG=
200801091530 METAR LMML NIL=
200801091515 METAR LMML 091515Z 06009KT 020V100 9999 SCT010 BKN100 16/14
                        Q1022 NOSIG=
200801091500 METAR LMML NIL=
200801091445 METAR LMML 091445Z 06007KT 030V100 9999 SCT011 BKN100 16/14
                        Q1021 NOSIG=
200801091430 METAR LMML NIL=
200801091415 METAR LMML 091415Z 05010KT 030V090 9999 SCT011 SCT250 16/14
                        Q1021 NOSIG=
200801091400 METAR LMML NIL=
200801091345 METAR LMML 091345Z 06010KT 030V090 9999 SCT011 SCT250 16/14
                        Q1021 NOSIG=
200801091330 LMML NIL=
200801091315 METAR LMML 091315Z 06010KT 020V090 9999 SCT010 SCT250 16/14
                        Q1021 NOSIG=
200801091300 METAR LMML NIL=
200801091245 METAR LMML 091245Z 05010KT 010V080 9999 SCT010 BKN250 17/15
                        Q1021 NOSIG=
200801091230 METAR LMML NIL=
200801091215 METAR LMML 091215Z 04009KT 010V080 9999 SCT011 BKN250 16/14
                        Q1021 NOSIG=
200801091200 METAR LMML NIL=
200801091145 METAR LMML 091145Z 05009KT 020V090 9999 SCT009 SCT062 17/14
                        Q1021 NOSIG=
200801091130 METAR LMML NIL=
200801091115 METAR LMML 091115Z 06009KT 020V090 9999 BKN010 BKN120 16/14
                        Q1022 TEMPO 800 0 SHRA SCT006=
200801091100 METAR LMML NIL=
200801091045 METAR LMML 091045Z 05008KT 010V090 9999 BKN008 BKN120 16/15
                        Q1022 TEMPO 800 0 SHRA SCT006=
200801091030 METAR LMML NIL=
200801091015 METAR LMML 091015Z 05008KT 9999 BKN008 SCT016 BKN250 16/15
                        Q1022 TEMPO 8000 SHRA SCT006=
200801090945 METAR LMML 090945Z 05007KT 020V080 9999 SCT007 SCT016 BKN250
                        16/15 Q1022 TE MPO 8000 SHRA SCT006=
200801090930 METAR LMML NIL=
200801090915 METAR LMML 090915Z 06006KT 9999 FEW009 SCT014 BKN250 16/14
                        Q1022 NOSIG=
200801090900 METAR LMML NIL=
200801090845 METAR LMML 090845Z 05004KT 020V090 9000 SCT013 BKN250 16/14
                        Q1022 NOSIG=
200801090830 METAR LMML NIL=
200801090815 METAR LMML 090815Z 04004KT 020V080 9000 SCT012 BKN250 15/14
                        Q1022 NOSIG=
200801090800 METAR LMML NIL=
200801090745 METAR LMML 090745Z 05004KT 020V090 9000 SCT012 BKN250 15/14
                        Q1022 NOSIG=
200801090730 METAR LMML NIL=
200801090715 METAR LMML 090715Z 05004KT 020V080 7000 SCT012 BKN250 15/14
                        Q1021 NOSIG=
200801090700 METAR LMML NIL=
200801090630 METAR LMML NIL=
200801090615 METAR LMML 090615Z VRB03KT 7000 FEW012 BKN250 13/13 Q1021
                        NOSIG=
200801090600 METAR LMML NIL=
200801090545 METAR LMML 090545Z VRB03KT 9000 FEW012 BKN250 14/13 Q1021
                        NOSIG=
200801090530 METAR LMML NIL=
200801090515 METAR LMML 090515Z VRB03KT 9000 FEW010 SCT060 BKN250 14/14
                        Q1021 NOSIG=
200801090500 METAR LMML NIL=
200801090445 METAR LMML 090445Z 07004KT 9000 FEW010 SCT060 BKN250 14/14
                        Q1021 NOSIG=
200801090430 METAR LMML NIL=
200801090415 METAR LMML 090415Z 07004KT 040V100 9000 FEW009 SCT060 BKN250
                        14/13 Q1020 NO SIG=
200801090400 METAR LMML NIL=
200801090345 METAR LMML 090345Z VRB03KT 9000 FEW010 BKN060 BKN250 14/14
                        Q1020 NOSIG=
200801090330 METAR LMML NIL=
200801090315 METAR LMML 090315Z 07005KT 9000 FEW010 BKN060 BKN250 15/14
                        Q1021 TEMPO BKN0 15=
200801090300 METAR LMML NIL=
200801090245 METAR LMML 090245Z 08005KT 9000 FEW012 BKN060 BKN250 14/14
                        Q1021 TEMPO BKN0 15=
200801090230 METAR LMML NIL=
200801090215 METAR LMML 090215Z 07004KT 9000 FEW011 SCT060 BKN250 14/13
                        Q1021 TEMPO BKN0 15=
200801090200 METAR LMML NIL=
200801090145 METAR LMML 090145Z 09005KT 9000 FEW012 SCT060 BKN250 14/13
                        Q1021 TEMPO BKN0 15=
200801090130 METAR LMML NIL=
200801090115 METAR LMML 090115Z 09005KT 9000 SCT013 BKN250 14/13 Q1021
                        TEMPO BKN015=
200801090100 METAR LMML NIL=
200801090045 METAR LMML 090045Z 08004KT 9000 FEW012 BKN250 14/13 Q1021
                        TEMPO BKN015=
200801090030 METAR LMML NIL=
200801090015 METAR LMML 090015Z 09005KT 9000 SCT012 SCT250 14/13 Q1021
                        TEMPO BKN015=
200801090000 METAR LMML NIL=
200801082345 METAR LMML 082345Z 09005KT 9000 FEW012 SCT035 BKN250 14/13
                        Q1021 TEMPO BKN0 15=
200801082330 METAR LMML NIL=
200801082315 METAR LMML 082315Z 08005KT 9000 SCT012 SCT038 BKN250 14/13
                        Q1021 TEMPO BKN0 15=
200801082300 METAR LMML NIL=
200801082245 METAR LMML 082245Z 06005KT 030V090 9000 SCT012 SCT034 BKN250
                        15/13 Q1021 TE MPO BKN015=
200801082230 METAR LMML NIL=
200801082215 METAR LMML 082215Z 07006KT 030V100 9000 BKN013 BKN250 15/13
                        Q1021 TEMPO BKN 015=
200801082145 METAR LMML 082145Z 04005KT 010V080 9000 SCT015 SCT250 15/13
                        Q1021 NOSIG=
200801082130 METAR LMML NIL=
200801082115 METAR LMML 082115Z 03005KT 9000 SCT015 SCT250 15/13 Q1021
                        NOSIG=
200801082100 METAR LMML NIL=
200801082045 METAR LMML 082045Z 03004KT 360V120 9000 SCT011 SCT250 15/14
                        Q1021 NOSIG=
200801082015 METAR LMML 082015Z 03005KT 9000 FEW008 BKN250 14/13 Q1021
                        NOSIG=
200801082000 METAR LMML NIL=
200801081945 METAR LMML 081945Z 02004KT 9000 FEW008 BKN250 14/13 Q1021
                        NOSIG=
200801081930 METAR LMML NIL=
200801081915 METAR LMML 081915Z 35007KT 9000 FEW010 BKN250 14/13 Q1021
                        NOSIG=
200801081900 METAR LMML NIL=
200801081845 METAR LMML 081845Z 36005KT 9000 FEW001 BKN200 13/13 Q1021
                        NOSIG=
200801081830 METAR LMML NIL=
200801081815 METAR LMML 081815Z 35004KT CAVOK 13/13 Q1021 NOSIG=
200801081800 METAR LMML NIL=
200801081745 METAR LMML 081745Z VRB03KT CAVOK 13/12 Q1021 NOSIG=
200801081730 METAR LMML NIL=
200801081715 METAR LMML 081715Z 34005KT 9999 FEW013 SCT250 14/13 Q1021
                        NOSIG=
200801081700 METAR LMML NIL=
200801081645 METAR LMML 081645Z 34004KT 9999 FEW013 BKN250 14/13 Q1021
                        NOSIG=
200801081630 METAR LMML NIL=
200801081615 METAR LMML 081615Z VRB03KT 9999 FEW012 BKN250 14/13 Q1020
                        NOSIG=
200801081600 METAR LMML NIL=
200801081545 METAR LMML 081545Z VRB02KT 9999 FEW013 BKN250 15/13 Q1020
                        NOSIG=
200801081530 METAR LMML NIL=
200801081515 METAR LMML 081515Z VRB02KT 9999 FEW013 BKN250 16/13 Q1021
                        NOSIG=
200801081445 METAR LMML 081445Z VRB02KT 9999 SCT014 BKN250 16/13 Q1021
                        NOSIG=
200801081430 METAR LMML NIL=
200801081415 METAR LMML 081415Z 05005KT 010V080 9999 SCT012 BKN250 16/13
                        Q1021 NOSIG=
200801081400 METAR LMML NIL=
200801081345 METAR LMML 081345Z 36006KT 9999 FEW011 BKN250 16/13 Q1020
                        NOSIG=
200801081330 METAR LMML NIL=
200801081315 METAR LMML 081315Z 36008KT 330V030 9999 FEW012 BKN250 16/14
                        Q1020 NOSIG=
200801081300 METAR LMML NIL=
200801081245 METAR LMML 081245Z 36011KT 9999 FEW012 BKN250 16/14 Q1020
                        NOSIG=
200801081230 METAR LMML NIL=
200801081215 METAR LMML 081215Z 35008KT 9999 FEW013 BKN250 16/13 Q1020
                        NOSIG=
200801081200 METAR LMML NIL=
200801081145 METAR LMML 081145Z 33007KT 9999 FEW013 BKN250 17/14 Q1021
                        TEMPO BKN015=
200801081130 METAR LMML NIL=
200801081115 METAR LMML 081115Z 34006KT 310V010 9999 FEW014 SCT250 17/13
                        Q1021 TEMPO BKN 015=
200801081100 METAR LMML NIL=
200801081045 METAR LMML 081045Z 34005KT 300V010 9999 SCT012 SCT250 17/13
                        Q1022 NOSIG=
200801081030 METAR LMML NIL=
200801081015 METAR LMML 081015Z 35004KT 310V030 9999 BKN011 16/13 Q1022
                        NOSIG=
200801081000 METAR LMML NIL=
200801080945 METAR LMML 080945Z 33008KT 310V010 9999 BKN011 16/14 Q1022
                        TEMPO BKN015=
200801080915 METAR LMML 080915Z 33008KT 9999 SCT012 16/14 Q1022 TEMPO
                        BKN015=
200801080900 METAR LMML NIL=
200801080845 METAR LMML 080845Z 30006KT 9999 BKN012 16/14 Q1023 TEMPO
                        BKN015=
200801080830 METAR LMML NIL=
200801080815 METAR LMML 080815Z VRB02KT 9999 BKN013 15/14 Q1023 TEMPO
                        BKN015=
200801080745 METAR LMML 080745Z 25004KT 9999 BKN013 15/14 Q1023 TEMPO
                        BKN015=
200801080730 METAR LMML NIL=
200801080715 METAR LMML 080715Z VRB03KT 9999 BKN013 14/13 Q1023 NOSIG=
200801080700 METAR LMML NIL=
200801080645 METAR LMML 080645Z VRB03KT 9999 BKN012 14/13 Q1022 NOSIG=
200801080630 METAR LMML NIL=
200801080615 LMML 080615Z 29004KT 9999 FEW012 BKN023 BKN250 14/13 Q1022
                        NOSIG=
200801080600 METAR LMML NIL=
200801080545 METAR LMML 080545Z VRB03KT 9999 SCT019 BKN025 14/13 Q1022
                        NOSIG=
200801080530 METAR LMML NIL=
200801080515 METAR LMML 080515Z VRB03KT 9999 FEW012 BKN020 14/13 Q1022
                        NOSIG=
200801080500 METAR LMML NIL=
200801080445 METAR LMML 080445Z 29004KT 9999 FEW012 BKN019 15/13 Q1022
                        NOSIG=
200801080430 METAR LMML NIL=
200801080415 METAR LMML 080415Z 30004KT 9999 FEW012 BKN027 15/14 Q1022
                        NOSIG=
200801080400 METAR LMML NIL=
200801080345 METAR LMML 080345Z 31004KT 9999 FEW014 BKN029 15/13 Q1021
                        TEMPO BKN015=
200801080330 METAR LMML NIL=
200801080315 METAR LMML 080315Z 29004KT 9999 FEW013 BKN025 15/12 Q1021
                        TEMPO BKN015=
200801080300 METAR LMML NIL=
200801080245 METAR LMML 080245Z VRB03KT 9999 FEW013 BKN030 15/12 Q1022
                        TEMPO BKN015=
200801080230 METAR LMML NIL=
200801080215 METAR LMML 080215Z 26005KT 230V290 9999 SCT013 BKN028 15/13
                        Q1022 TEMPO BKN 015=
200801080200 METAR LMML NIL=
200801080145 METAR LMML 080145Z 29005KT 220V320 9999 SCT013 BKN026 15/14
                        Q1022 TEMPO BKN 015=
200801080130 METAR LMML NIL=
200801080115 METAR LMML 080115Z VRB03KT 9999 SCT013 BKN026 15/14 Q1022
                        TEMPO BKN015=
200801080100 METAR LMML NIL=
200801080045 METAR LMML 080045Z VRB03KT 9999 SCT013 BKN021 15/13 Q1022
                        TEMPO BKN015=
200801080030 METAR LMML NIL=
200801080015 METAR LMML 080015Z 26004KT 9999 FEW019 BKN026 15/13 Q1022
                        TEMPO BKN015=
200801080000 METAR LMML NIL=
200801072345 METAR LMML 072345Z 27005KT 9999 FEW018 BKN026 15/13 Q1022
                        TEMPO BKN015=
200801072330 METAR LMML NIL=
200801072315 METAR LMML 072315Z 25004KT 220V290 9999 FEW018 BKN026 15/13
                        Q1023 TEMPO BKN 015=
200801072300 METAR LMML NIL=
200801072245 METAR LMML 072245Z 28004KT 9999 FEW016 BKN023 15/13 Q1023
                        TEMPO BKN015=
200801072230 METAR LMML NIL=
200801072215 METAR LMML 072215Z VRB03KT 9999 FEW016 BKN022 15/13 Q1023
                        TEMPO BKN015=
200801072200 METAR LMML NIL=
200801072145 METAR LMML 072145Z 27004KT 250V310 9999 FEW016 BKN021 15/13
                        Q1023 TEMPO BKN 015=
200801072130 METAR LMML NIL=
200801072115 METAR LMML 072115Z VRB03KT 9999 FEW016 BKN021 15/13 Q1023
                        TEMPO BKN015=
200801072100 METAR LMML NIL=
200801072045 METAR LMML 072045Z VRB03KT 9999 BKN019 15/13 Q1023 TEMPO
                        BKN015=
200801072015 METAR LMML 072015Z 27004KT 240V300 9999 BKN019 15/12 Q1023
                        TEMPO BKN015=
200801072000 METAR LMML NIL=
200801071945 METAR LMML 071945Z 27004KT 220V310 9999 BKN020 14/12 Q1023
                        TEMPO BKN015=
200801071930 METAR LMML NIL=
200801071915 METAR LMML 071915Z 26005KT 230V290 9999 BKN021 14/12 Q1023
                        TEMPO BKN015=
200801071900 METAR LMML NIL=
200801071845 METAR LMML 071845Z 28004KT 9999 SCT020 14/12 Q1023 TEMPO
                        BKN015=
200801071830 METAR LMML NIL=
200801071815 METAR LMML 071815Z 28006KT 9999 FEW018 14/12 Q1023 TEMPO
                        BKN015=
200801071800 METAR LMML NIL=
200801071745 METAR LMML 071745Z 28006KT 9999 FEW019 14/12 Q1023 TEMPO
                        BKN015=
200801071730 METAR LMML NIL=
200801071715 METAR LMML 071715Z 28005KT 9999 FEW017 14/12 Q1023 NOSIG=
200801071700 METAR LMML NIL=
200801071645 METAR LMML 071645Z 29004KT 9999 FEW020 14/12 Q1023 NOSIG=
200801071630 METAR LMML NIL=
200801071615 METAR LMML 071615Z 29004KT 9999 FEW024 14/12 Q1023 NOSIG=
200801071600 METAR LMML NIL=
200801071545 METAR LMML 071545Z 28006KT 9999 FEW024 15/12 Q1023 NOSIG=
200801071530 METAR LMML NIL=
200801071515 METAR LMML 071515Z 27006KT 240V310 9999 FEW024 16/11 Q1023
                        NOSIG=
200801071500 METAR LMML NIL=
200801071445 METAR LMML 071445Z 28008KT 9999 FEW024 16/12 Q1023 NOSIG=
200801071430 METAR LMML NIL=
200801071415 METAR LMML 071415Z 28008KT 240V300 9999 FEW024 17/11 Q1023
                        NOSIG=
200801071400 METAR LMML NIL=
200801071345 METAR LMML 071345Z 26006KT 220V290 9999 FEW024 17/11 Q1023
                        NOSIG=
200801071330 METAR LMML NIL=
200801071315 METAR LMML 071315Z 25007KT 220V300 9999 FEW024 17/11 Q1023
                        NOSIG=
200801071300 METAR LMML NIL=
200801071245 METAR LMML 071245Z 27007KT 230V310 9999 FEW023 17/12 Q1024
                        NOSIG=
200801071230 METAR LMML NIL=
200801071215 METAR LMML 071215Z 27007KT 240V300 9999 FEW022 17/12 Q1024
                        NOSIG=
200801071200 METAR LMML NIL=
200801071145 METAR LMML 071145Z 26006KT 220V320 9999 FEW020 17/12 Q1024
                        NOSIG=
200801071130 METAR LMML NIL=
200801071115 METAR LMML 071115Z 27006KT 240V310 9999 FEW021 17/12 Q1025
                        NOSIG=
200801071100 METAR LMML NIL=
200801071045 METAR LMML 071045Z 28007KT 250V310 9999 FEW020 17/12 Q1025
                        NOSIG=
200801071030 METAR LMML NIL=
200801071015 METAR LMML 071015Z 28007KT 240V300 9999 FEW019 17/12 Q1025
                        NOSIG=
200801071000 METAR LMML NIL=
200801070945 METAR LMML 070945Z 31007KT 9999 FEW018 17/13 Q1026 NOSIG=
200801070930 METAR LMML NIL=
200801070915 METAR LMML 070915Z 30007KT 9999 FEW020 16/13 Q1026 NOSIG=
200801070900 METAR LMML NIL=
200801070845 METAR LMML 070845Z 29004KT 9999 FEW020 16/14 Q1025 NOSIG=
200801070830 METAR LMML NIL=
200801070815 METAR LMML 070815Z VRB03KT 9999 FEW020 16/14 Q1025 NOSIG=
200801070800 METAR LMML NIL=
200801070745 METAR LMML 070745Z VRB03KT 9999 FEW020 15/13 Q1025 NOSIG=
200801070730 METAR LMML NIL=
200801070715 METAR LMML 070715Z 27004KT 9999 FEW020 14/13 Q1025 NOSIG=
200801070700 METAR LMML NIL=
200801070645 METAR LMML 070645Z 26004KT 9999 FEW020 13/13 Q1025 NOSIG=
200801070630 METAR LMML NIL=
200801070615 METAR LMML 070615Z 26004KT 9999 FEW020 12/12 Q1025 NOSIG=
200801070600 METAR LMML NIL=
200801070545 METAR LMML 070545Z VRB03KT 9999 FEW020 12/12 Q1025 NOSIG=
200801070530 METAR LMML NIL=
200801070515 METAR LMML 070515Z VRB03KT 9999 FEW020 13/13 Q1025 NOSIG=
200801070500 METAR LMML NIL=
200801070445 METAR LMML 070445Z 24004KT 9999 FEW020 13/12 Q1024 NOSIG=
200801070430 METAR LMML NIL=
200801070415 METAR LMML 070415Z VRB03KT 9999 FEW020 12/12 Q1024 NOSIG=
200801070400 METAR LMML NIL=
200801070345 METAR LMML 070345Z 27004KT CAVOK 13/12 Q1024 NOSIG=
200801070330 METAR LMML NIL=
200801070315 METAR LMML 070315Z VRB03KT CAVOK 13/12 Q1024 NOSIG=
200801070300 METAR LMML NIL=
200801070245 METAR LMML 070245Z VRB03KT CAVOK 13/13 Q1024 NOSIG=
200801070230 METAR LMML NIL=
200801070215 METAR LMML 070215Z VRB03KT CAVOK 13/12 Q1024 NOSIG=
200801070200 METAR LMML NIL=
200801070145 METAR LMML 070145Z 33004KT CAVOK 13/12 Q1025 NOSIG=
200801070130 METAR LMML NIL=
200801070115 METAR LMML 070115Z 30004KT CAVOK 12/12 Q1025 NOSIG=
200801070100 METAR LMML NIL=
200801070045 METAR LMML 070045Z VRB03KT 9999 FEW020 SCT120 12/12 Q1025
                        NOSIG=
200801070030 METAR LMML NIL=
200801070015 METAR LMML 070015Z VRB03KT 9999 FEW020 12/12 Q1025 NOSIG=
200801070000 METAR LMML NIL=
200801062345 METAR LMML 062345Z 31004KT 9999 FEW020 12/11 Q1026 NOSIG=
200801062330 METAR LMML NIL=
200801062315 METAR LMML 062315Z VRB02KT 9999 FEW020 12/12 Q1026 NOSIG=
200801062300 METAR LMML NIL=
200801062245 METAR LMML 062245Z VRB03KT 9999 FEW020 13/12 Q1026 NOSIG=
200801062230 METAR LMML NIL=
200801062215 METAR LMML 062215Z VRB02KT 9999 FEW020 13/12 Q1026 NOSIG=
200801062145 METAR LMML 062145Z VRB02KT 9999 FEW020 13/12 Q1026 NOSIG=
200801062130 METAR LMML NIL=
200801062115 METAR LMML 062115Z VRB01KT 9999 FEW020 13/12 Q1026 NOSIG=
200801062100 METAR LMML NIL=
200801062045 METAR LMML 062045Z VRB02KT 9999 FEW020 13/12 Q1026 NOSIG=
200801062015 METAR LMML 062015Z VRB02KT 9999 FEW020 13/12 Q1026 NOSIG=
200801062000 METAR LMML NIL=
200801061945 METAR LMML 061945Z VRB02KT 9999 FEW020 13/12 Q1026 NOSIG=
200801061930 METAR LMML NIL=
200801061915 METAR LMML 061915Z VRB02KT 9999 FEW020 14/13 Q1025 NOSIG=
200801061900 METAR LMML NIL=
200801061845 METAR LMML 061845Z VRB02KT 9999 FEW020 14/13 Q1025 NOSIG=
200801061830 METAR LMML NIL=
200801061815 METAR LMML 061815Z VRB02KT 9999 SCT023 14/12 Q1025 NOSIG=
200801061800 METAR LMML NIL=
200801061745 METAR LMML 061745Z VRB01KT 9999 FEW022 14/12 Q1025 NOSIG=
200801061730 METAR LMML NIL=
200801061715 METAR LMML 061715Z VRB01KT 9999 FEW026 15/12 Q1024 NOSIG=
200801061700 METAR LMML NIL=
200801061645 METAR LMML 061645Z VRB01KT 9999 FEW023 15/12 Q1024 NOSIG=
200801061630 METAR LMML NIL=
200801061615 METAR LMML 061615Z VRB03KT 9999 FEW023 16/12 Q1024 NOSIG=
200801061600 METAR LMML NIL=
200801061545 METAR LMML 061545Z 21004KT 180V240 9999 FEW023 17/12 Q1024
                        NOSIG=
200801061515 METAR LMML 061515Z 20004KT 160V260 9999 FEW023 17/12 Q1024
                        NOSIG=
200801061500 METAR LMML NIL=
200801061445 METAR LMML 061445Z 20005KT 160V240 9999 FEW028 18/13 Q1024
                        NOSIG=
200801061430 METAR LMML NIL=
200801061415 METAR LMML 061415Z 20006KT 160V240 9999 FEW028 18/12 Q1024
                        NOSIG=
200801061400 METAR LMML NIL=
200801061345 METAR LMML 061345Z 20005KT 160V250 9999 FEW028 18/13 Q1024
                        NOSIG=
200801061330 METAR LMML NIL=
200801061315 METAR LMML 061315Z 19004KT 150V230 9999 FEW028 19/12 Q1024
                        NOSIG=
200801061300 METAR LMML NIL=
200801061245 METAR LMML 061245Z VRB03KT 9999 FEW025 19/12 Q1024 NOSIG=
200801061230 METAR LMML NIL=
200801061215 METAR LMML 061215Z 18005KT 150V210 9999 FEW025 19/12 Q1025
                        NOSIG=
200801061200 METAR LMML NIL=
200801061145 METAR LMML 061145Z VRB03KT 9999 FEW024 19/12 Q1025 NOSIG=
200801061130 METAR LMML NIL=
200801061115 METAR LMML 061115Z 18005KT 140V240 9999 FEW025 19/12 Q1025
                        NOSIG=
200801061100 METAR LMML NIL=
200801061045 METAR LMML 061045Z 17006KT 130V210 9999 FEW025 18/12 Q1025
                        NOSIG=
200801061030 METAR LMML NIL=
200801061015 METAR LMML 061015Z 18005KT 140V220 9999 FEW025 18/12 Q1026
                        NOSIG=
200801061000 METAR LMML NIL=
200801060945 METAR LMML 060945Z 18006KT 140V210 9999 FEW025 18/12 Q1026
                        NOSIG=
200801060930 METAR LMML NIL=
200801060915 METAR LMML 060915Z 17006KT 140V210 9999 FEW025 18/12 Q1026
                        NOSIG=
200801060900 METAR LMML NIL=
200801060845 METAR LMML 060845Z 16006KT 110V200 9999 FEW025 18/13 Q1026
                        NOSIG=
200801060830 METAR LMML NIL=
200801060815 METAR LMML 060815Z 16005KT 120V190 9999 FEW025 17/12 Q1026
                        NOSIG=
200801060800 METAR LMML NIL=
200801060745 METAR LMML 060745Z 17004KT 9999 FEW025 17/12 Q1025 NOSIG=
200801060730 METAR LMML NIL=
200801060715 METAR LMML 060715Z VRB03KT 9999 FEW025 16/12 Q1025 NOSIG=
200801060700 METAR LMML NIL=
200801060645 METAR LMML 060645Z 16004KT 9999 FEW020 15/11 Q1025 NOSIG=
200801060630 METAR LMML NIL=
200801060615 METAR LMML 060615Z 16004KT 9999 FEW025 15/11 Q1025 NOSIG=
200801060600 METAR LMML NIL=
200801060545 METAR LMML 060545Z 16005KT 9999 FEW029 15/11 Q1025 NOSIG=
200801060530 METAR LMML NIL=
200801060515 METAR LMML 060515Z VRB03KT 9999 FEW027 14/11 Q1026 NOSIG=
200801060500 METAR LMML NIL=
200801060445 METAR LMML 060445Z VRB02KT 9999 FEW027 15/11 Q1025 NOSIG=
200801060415 METAR LMML 060415Z 16004KT 9999 SCT030 15/11 Q1025 NOSIG=
200801060345 METAR LMML 060345Z 17004KT 9999 FEW027 16/11 Q1025 NOSIG=
200801060330 METAR LMML NIL=
200801060315 METAR LMML 060315Z 16005KT 9999 SCT027 15/11 Q1025 NOSIG=
200801060300 METAR LMML NIL=
200801060245 METAR LMML 060245Z 16005KT 130V190 9999 SCT026 15/11 Q1025
                        NOSIG=
200801060230 METAR LMML NIL=
200801060215 METAR LMML 060215Z 15006KT 9999 SCT025 16/12 Q1025 NOSIG=
200801060200 METAR LMML NIL=
200801060145 METAR LMML 060145Z 16007KT 130V200 9999 FEW026 16/11 Q1025
                        NOSIG=
200801060130 METAR LMML NIL=
200801060115 METAR LMML 060115Z 16006KT 120V210 9999 FEW026 16/11 Q1025
                        NOSIG=
200801060100 METAR LMML NIL=
200801060045 METAR LMML 060045Z 16009KT 130V200 9999 FEW027 16/11 Q1025
                        NOSIG=
200801060030 METAR LMML NIL=
200801060015 METAR LMML 060015Z 16008KT 120V190 9999 FEW026 16/11 Q1025
                        NOSIG=
200801052345 METAR LMML 052345Z 16010KT 120V200 9999 FEW027 SCT250 16/11
                        Q1025 NOSIG=
200801052330 METAR LMML NIL=
200801052315 METAR LMML 052315Z 15012KT 9999 FEW035 SCT250 16/11 Q1025
                        NOSIG=
200801052300 METAR LMML NIL=
200801052245 METAR LMML 052245Z 16010KT 130V190 9999 FEW028 BKN250 16/11
                        Q1025 NOSIG=
200801052215 METAR LMML 052215Z 16011KT 120V190 9999 SCT028 SCT250 16/11
                        Q1025 NOSIG=
200801052200 LMML NIL=
200801052145 METAR LMML 052145Z 15012KT 9999 BKN026 BKN250 16/11 Q1025
                        NOSIG=
200801052115 METAR LMML 052115Z 14012KT 9999 FEW027 BKN250 16/11 Q1025
                        NOSIG=
200801052100 METAR LMML NIL=
200801052045 METAR LMML 052045Z 15011KT 9999 FEW027 BKN250 16/11 Q1024
                        NOSIG=
200801052030 METAR LMML NIL=
200801052015 METAR LMML 052015Z 15012KT 9999 FEW027 BKN250 16/11 Q1024
                        NOSIG=
200801052000 METAR LMML NIL=
200801051945 METAR LMML 051945Z 14011KT 9999 FEW027 BKN250 16/11 Q1024
                        NOSIG=
200801051930 METAR LMML NIL=
200801051915 METAR LMML 051915Z 14012KT 9999 FEW028 BKN250 16/11 Q1024
                        NOSIG=
200801051900 METAR LMML NIL=
200801051845 METAR LMML 051845Z 15013KT 9999 FEW029 BKN250 16/10 Q1024
                        NOSIG=
200801051815 METAR LMML 051815Z 15010KT 120V180 9999 FEW029 BKN250 16/11
                        Q1024 NOSIG=
200801051800 METAR LMML NIL=
200801051745 METAR LMML 051745Z 15012KT 9999 FEW027 BKN250 16/11 Q1023
                        NOSIG=
200801051730 METAR LMML NIL=
200801051715 METAR LMML 051715Z 16010KT 130V190 9999 FEW027 BKN250 16/10
                        Q1023 NOSIG=
200801051700 METAR LMML NIL=
200801051645 METAR LMML 051645Z 15011KT 9999 FEW027 BKN250 16/11 Q1023
                        NOSIG=
200801051630 METAR LMML NIL=
200801051615 METAR LMML 051615Z 15011KT 9999 FEW020 BKN250 16/11 Q1023
                        NOSIG=
200801051600 METAR LMML NIL=
200801051545 METAR LMML 051545Z 16012KT 130V190 CAVOK 16/11 Q1023 NOSIG=
200801051530 METAR LMML NIL=
200801051515 METAR LMML 051515Z 16011KT 120V190 CAVOK 17/12 Q1022 NOSIG=
200801051500 METAR LMML NIL=
200801051445 METAR LMML 051445Z 17009KT 120V210 9999 FEW020 BKN250 17/11
                        Q1022 NOSIG=
200801051430 METAR LMML NIL=
200801051415 METAR LMML 051415Z 16011KT 120V200 9999 FEW020 BKN250 17/12
                        Q1022 NOSIG=
200801051400 METAR LMML NIL=
200801051345 METAR LMML 051345Z 16012KT 130V190 9999 FEW020 BKN250 17/12
                        Q1022 NOSIG=
200801051330 METAR LMML NIL=
200801051315 METAR LMML 051315Z 15013KT 120V180 9999 FEW020 BKN250 17/13
                        Q1021 NOSIG=
200801051300 METAR LMML NIL=
200801051245 METAR LMML 051245Z 16013KT 9999 FEW018 BKN250 17/13 Q1021
                        NOSIG=
200801051215 METAR LMML 051215Z 15013KT 9999 FEW018 BKN250 17/14 Q1021
                        NOSIG=
200801051200 METAR LMML NIL=
200801051145 METAR LMML 051145Z 16012KT 130V190 9999 FEW018 BKN250 18/14
                        Q1022 NOSIG=
200801051130 METAR LMML NIL=
200801051115 METAR LMML 051115Z 16014KT 9999 SCT020 BKN250 18/13 Q1022
                        NOSIG=
200801051100 METAR LMML NIL=
200801051045 METAR LMML 051045Z 15012KT 130V190 9999 SCT018 BKN250 18/14
                        Q1022 NOSIG=
200801051030 METAR LMML NIL=
200801051015 METAR LMML 051015Z 15015KT 9999 FEW020 BKN250 18/13 Q1022
                        NOSIG=
200801051000 METAR LMML NIL=
200801050945 METAR LMML 050945Z 15014KT 120V190 9999 FEW020 BKN250 18/13
                        Q1022 NOSIG=
200801050915 METAR LMML 050915Z 15014KT 120V180 9999 FEW018 BKN250 18/14
                        Q1022 NOSIG=
200801050900 METAR LMML NIL=
200801050845 METAR LMML 050845Z 15013KT 9999 FEW018 BKN250 18/13 Q1022
                        NOSIG=
200801050830 METAR LMML NIL=
200801050815 METAR LMML 050815Z 15012KT 120V180 CAVOK 17/13 Q1022 NOSIG=
200801050745 METAR LMML 050745Z 15011KT 120V180 CAVOK 17/14 Q1021 NOSIG=
200801050730 METAR LMML NIL=
200801050715 METAR LMML 050715Z 15012KT CAVOK 17/13 Q1021 NOSIG=
200801050700 METAR LMML NIL=
200801050645 METAR LMML 050645Z 15011KT 120V180 CAVOK 17/14 Q1020 NOSIG=
200801050630 METAR LMML NIL=
200801050615 METAR LMML 050615Z 15013KT 120V190 CAVOK 17/13 Q1020 NOSIG=
200801050600 METAR LMML NIL=
200801050545 METAR LMML 050545Z 15013KT 120V180 CAVOK 17/14 Q1020 NOSIG=
200801050530 METAR LMML NIL=
200801050515 METAR LMML 050515Z 15012KT CAVOK 17/13 Q1019 NOSIG=
200801050500 METAR LMML NIL=
200801050445 METAR LMML 050445Z 15011KT 120V180 CAVOK 17/13 Q1019 NOSIG=
200801050430 METAR LMML NIL=
200801050415 METAR LMML 050415Z 15012KT 130V190 CAVOK 17/13 Q1019 NOSIG=
200801050400 METAR LMML NIL=
200801050345 METAR LMML 050345Z 16012KT CAVOK 17/13 Q1019 NOSIG=
200801050330 METAR LMML NIL=
200801050315 METAR LMML 050315Z 15012KT CAVOK 17/13 Q1019 NOSIG=
200801050300 METAR LMML NIL=
200801050245 METAR LMML 050245Z 16012KT 130V190 CAVOK 17/12 Q1019 NOSIG=
200801050230 METAR LMML NIL=
200801050215 METAR LMML 050215Z 16013KT 130V190 9999 FEW025 BKN250 17/12
                        Q1019 NOSIG=
200801050200 METAR LMML NIL=
200801050145 METAR LMML 050145Z 16013KT 130V200 9999 FEW025 BKN250 17/12
                        Q1019 NOSIG=
200801050130 METAR LMML NIL=
200801050115 METAR LMML 050115Z 16011KT 9999 FEW025 BKN250 17/13 Q1019
                        NOSIG=
200801050100 METAR LMML NIL=
200801050045 METAR LMML 050045Z 16009KT 130V190 9999 FEW025 BKN250 17/12
                        Q1019 NOSIG=
200801050030 METAR LMML NIL=
200801050015 METAR LMML 050015Z 16011KT 130V200 9999 FEW025 BKN250 17/12
                        Q1019 NOSIG=
200801050000 METAR LMML NIL=
200801042345 METAR LMML 042345Z 16012KT 9999 FEW025 BKN250 17/12 Q1019
                        NOSIG=
200801042330 METAR LMML NIL=
200801042315 METAR LMML 042315Z 16010KT 140V200 9999 FEW025 BKN250 17/12
                        Q1019 NOSIG=
200801042300 METAR LMML NIL=
200801042245 METAR LMML 042245Z 16012KT 110V200 9999 FEW024 BKN250 16/13
                        Q1019 NOSIG=
200801042230 METAR LMML NIL=
200801042215 METAR LMML 042215Z 16012KT 130V200 CAVOK 17/12 Q1019 NOSIG=
200801042200 METAR LMML NIL=
200801042145 METAR LMML 042145Z 16011KT 130V190 CAVOK 16/12 Q1019 NOSIG=
200801042130 METAR LMML NIL=
200801042115 METAR LMML 042115Z 16011KT 120V180 CAVOK 16/12 Q1018 NOSIG=
200801042100 METAR LMML NIL=
200801042045 METAR LMML 042045Z 16011KT CAVOK 16/12 Q1018 NOSIG=
200801042030 METAR LMML NIL=
200801042015 METAR LMML 042015Z 15011KT CAVOK 16/12 Q1018 NOSIG=
200801042000 METAR LMML NIL=
200801041945 METAR LMML 041945Z 15011KT CAVOK 16/13 Q1018 NOSIG=
200801041930 METAR LMML NIL=
200801041915 METAR LMML 041915Z 15011KT 120V180 CAVOK 16/13 Q1018 NOSIG=
200801041900 METAR LMML NIL=
200801041845 METAR LMML 041845Z 14010KT 120V180 CAVOK 16/13 Q1017 NOSIG=
200801041830 METAR LMML NIL=
200801041815 METAR LMML 041815Z 14009KT CAVOK 16/13 Q1017 NOSIG=
200801041800 METAR LMML NIL=
200801041745 METAR LMML 041745Z 14007KT 120V180 CAVOK 16/12 Q1017 NOSIG=
200801041730 METAR LMML NIL=
200801041715 METAR LMML 041715Z 15006KT 120V180 CAVOK 16/10 Q1017 NOSIG=
200801041700 LMML NIL=
200801041645 LMML 041645Z 15006KT CAVOK 16/11 Q1016 NOSIG=
200801041630 METAR LMML NIL=
200801041615 METAR LMML 041615Z 15009KT CAVOK 16/11 Q1016 NOSIG=
200801041600 METAR LMML NIL=
200801041545 METAR LMML 041545Z 15008KT CAVOK 16/11 Q1016 NOSIG=
200801041530 METAR LMML NIL=
200801041515 METAR LMML 041515Z 16009KT 9999 FEW025 SCT120 BKN250 16/12
                        Q1016 NOSIG=
200801041500 METAR LMML NIL=
200801041445 METAR LMML 041445Z 16008KT 120V180 9999 FEW025 BKN250 16/12
                        Q1016 NOSIG=
200801041430 METAR LMML NIL=
200801041415 METAR LMML 041415Z 16008KT 130V190 9999 FEW029 BKN250 17/11
                        Q1015 NOSIG=
200801041400 METAR LMML NIL=
200801041345 METAR LMML 041345Z 17008KT 130V200 9999 FEW029 BKN250 18/11
                        Q1016 NOSIG=
200801041330 METAR LMML NIL=
200801041315 METAR LMML 041315Z 16009KT 130V210 9999 FEW027 BKN250 17/12
                        Q1016 NOSIG=
200801041300 METAR LMML NIL=
200801041245 METAR LMML 041245Z 17009KT 140V210 9999 FEW025 BKN120 18/12
                        Q1016 NOSIG=
200801041230 METAR LMML NIL=
200801041215 METAR LMML 041215Z 16011KT 120V200 9999 FEW025 BKN250 18/11
                        Q1015 NOSIG=
200801041200 METAR LMML NIL=
200801041145 METAR LMML 041145Z 16010KT 130V200 CAVOK 18/12 Q1016 NOSIG=
200801041130 METAR LMML NIL=
200801041115 METAR LMML 041115Z 17008KT 120V200 CAVOK 18/11 Q1016 NOSIG=
200801041100 METAR LMML NIL=
200801041045 METAR LMML 041045Z 17008KT 140V210 CAVOK 18/10 Q1017 NOSIG=
200801041030 METAR LMML NIL=
200801041015 METAR LMML 041015Z 16007KT 130V200 CAVOK 17/11 Q1016 NOSIG=
200801041000 METAR LMML NIL=
200801040945 METAR LMML 040945Z 16006KT 130V190 CAVOK 17/11 Q1016 NOSIG=
200801040930 METAR LMML NIL=
200801040915 METAR LMML 040915Z 17005KT 120V200 CAVOK 16/12 Q1017 NOSIG=
200801040900 METAR LMML NIL=
200801040845 METAR LMML 040845Z 17004KT 100V210 CAVOK 16/11 Q1017 NOSIG=
200801040830 METAR LMML NIL=
200801040815 METAR LMML 040815Z 17005KT 140V220 CAVOK 16/11 Q1017 NOSIG=
200801040800 METAR LMML NIL=
200801040745 METAR LMML 040745Z 18004KT 140V220 CAVOK 16/11 Q1016 NOSIG=
200801040730 METAR LMML NIL=
200801040715 METAR LMML 040715Z 16004KT 9999 FEW040 SCT120 BKN250 15/10
                        Q1016 NOSIG=
200801040700 METAR LMML NIL=
200801040645 METAR LMML 040645Z VRB03KT CAVOK 15/10 Q1016 NOSIG=
200801040630 METAR LMML NIL=
200801040615 METAR LMML 040615Z 20004KT 170V230 9999 FEW027 BKN120 15/11
                        Q1016 NOSIG=
200801040545 METAR LMML 040545Z 20004KT 180V240 9999 FEW027 BKN120 15/11
                        Q1016 NOSIG=
200801040530 METAR LMML NIL=
200801040515 METAR LMML 040515Z VRB03KT 9999 FEW027 BKN120 15/11 Q1015
                        NOSIG=
200801040500 METAR LMML NIL=
200801040445 METAR LMML 040445Z 20004KT 9999 FEW027 BKN120 14/10 Q1015
                        NOSIG=
200801040430 METAR LMML NIL=
200801040415 METAR LMML 040415Z VRB03KT 9999 FEW027 BKN120 14/11 Q1014
                        NOSIG=
200801040400 METAR LMML NIL=
200801040345 METAR LMML 040345Z VRB03KT 9999 FEW027 BKN120 15/11 Q1015
                        NOSIG=
200801040330 METAR LMML NIL=
200801040315 METAR LMML 040315Z 21004KT 180V250 9999 FEW027 SCT090 BKN120
                        15/11 Q1014 NO SIG=
200801040300 METAR LMML NIL=
200801040245 METAR LMML 040245Z 20004KT 170V270 9999 FEW027 SCT090 BKN120
                        15/11 Q1014 NO SIG=
200801040230 METAR LMML NIL=
200801040215 METAR LMML 040215Z 20004KT 160V230 9999 FEW027 SCT090 BKN120
                        15/11 Q1015 NO SIG=
200801040200 METAR LMML NIL=
200801040145 METAR LMML 040145Z 20006KT 160V240 9999 FEW028 BKN110 15/10
                        Q1015 NOSIG=
200801040130 METAR LMML NIL=
200801040115 METAR LMML 040115Z 20005KT 160V240 9999 FEW027 BKN110 15/10
                        Q1015 NOSIG=
200801040100 METAR LMML NIL=
200801040045 METAR LMML 040045Z 20005KT 150V240 9999 FEW030 SCT100 15/10
                        Q1015 NOSIG=
200801040030 METAR LMML NIL=
200801040015 METAR LMML 040015Z 20006KT 170V240 9999 FEW030 BKN090 15/10
                        Q1015 NOSIG=
200801040000 METAR LMML NIL=
200801032345 METAR LMML 032345Z 20007KT 170V250 9999 FEW030 BKN090 15/10
                        Q1015 NOSIG=
200801032330 METAR LMML NIL=
200801032315 METAR LMML 032315Z 20007KT 160V240 9999 FEW030 BKN090 15/10
                        Q1015 NOSIG=
200801032300 METAR LMML NIL=
200801032245 METAR LMML 032245Z 19006KT 150V230 9999 FEW030 BKN090 15/10
                        Q1015 NOSIG=
200801032230 METAR LMML NIL=
200801032215 METAR LMML 032215Z 20006KT 170V240 9999 FEW030 BKN100 15/10
                        Q1015 NOSIG=
200801032200 METAR LMML NIL=
200801032145 METAR LMML 032145Z 20006KT 150V250 9999 -RA FEW029 BKN090
                        15/10 Q1015 NOSIG=
200801032130 METAR LMML NIL=
200801032115 METAR LMML 032115Z 21006KT 150V250 9999 FEW029 BKN100 15/10
                        Q1016 NOSIG=
200801032045 METAR LMML 032045Z 21005KT 170V260 9999 FEW029 BKN100 15/10
                        Q1016 NOSIG=
200801032030 METAR LMML NIL=
200801032015 METAR LMML 032015Z 21006KT 140V260 9999 FEW028 BKN100 15/09
                        Q1015 NOSIG=
200801032000 METAR LMML NIL=
200801031945 METAR LMML 031945Z 20006KT 160V280 9999 FEW028 BKN110 15/10
                        Q1015 NOSIG=
200801031930 METAR LMML NIL=
200801031915 METAR LMML 031915Z 21007KT 160V250 9999 FEW028 BKN100 15/10
                        Q1015 NOSIG=
200801031900 METAR LMML NIL=
200801031845 METAR LMML 031845Z 20006KT 170V240 9999 FEW027 BKN100 15/10
                        Q1015 NOSIG=
200801031830 METAR LMML NIL=
200801031815 METAR LMML 031815Z 20006KT 160V250 9999 FEW028 BKN090 14/10
                        Q1015 NOSIG=
200801031800 METAR LMML NIL=
200801031745 METAR LMML 031745Z 21006KT 170V260 9999 FEW027 BKN100 14/10
                        Q1015 NOSIG=
200801031730 METAR LMML NIL=
200801031715 METAR LMML 031715Z 20007KT 150V240 9999 FEW027 BKN100 15/10
                        Q1015 NOSIG=
200801031700 METAR LMML NIL=
200801031645 METAR LMML 031645Z 21006KT 170V260 9999 FEW027 BKN100 15/09
                        Q1015 NOSIG=
200801031630 METAR LMML NIL=
200801031615 METAR LMML 031615Z 20006KT 170V250 9999 FEW038 BKN110 15/09
                        Q1015 NOSIG=
200801031600 METAR LMML NIL=
200801031545 METAR LMML 031545Z 21007KT 170V270 9999 FEW030 BKN100 15/09
                        Q1014 NOSIG=
200801031530 METAR LMML NIL=
200801031515 METAR LMML 031515Z 21008KT 170V260 9999 FEW030 BKN100 15/09
                        Q1014 NOSIG=
200801031500 METAR LMML NIL=
200801031445 METAR LMML 031445Z 21009KT 160V250 9999 SCT031 BKN100 15/09
                        Q1015 NOSIG=
200801031430 METAR LMML NIL=
200801031415 METAR LMML 031415Z 21008KT 170V270 9999 SCT032 BKN110 15/09
                        Q1014 NOSIG=
200801031400 METAR LMML NIL=
200801031345 METAR LMML 031345Z 21010KT 160V270 9999 SCT030 SCT080 15/09
                        Q1014 NOSIG=
200801031330 METAR LMML NIL=
200801031315 METAR LMML 031315Z 20008KT 140V270 9999 SCT029 SCT080 BKN250
                        15/09 Q1014 NO SIG=
200801031300 METAR LMML NIL=
200801031245 METAR LMML 031245Z 20010KT 160V240 9999 SCT032 SCT120 BKN250
                        15/09 Q1015 NO SIG=
200801031230 METAR LMML NIL=
200801031215 METAR LMML 031215Z 19010KT 150V240 9999 SCT033 BKN120 15/09
                        Q1015 NOSIG=
200801031200 METAR LMML NIL=
200801031145 METAR LMML 031145Z 20009KT 170V260 9999 SCT032 BKN120 15/09
                        Q1015 NOSIG=
200801031130 METAR LMML NIL=
200801031115 METAR LMML 031115Z 20009KT 160V240 9999 FEW036 SCT120 BKN250
                        15/08 Q1016 NO SIG=
200801031100 METAR LMML NIL=
200801031045 METAR LMML 031045Z 20008KT 160V270 9999 FEW038 SCT120 BKN250
                        15/08 Q1016 NO SIG=
200801031030 METAR LMML NIL=
200801031015 METAR LMML 031015Z 20008KT 160V260 9999 SCT037 SCT120 BKN250
                        15/08 Q1016 NO SIG=
200801031000 METAR LMML NIL=
200801030945 METAR LMML 030945Z 20009KT 170V250 9999 SCT035 BKN250 15/07
                        Q1017 NOSIG=
200801030930 METAR LMML NIL=
200801030915 METAR LMML 030915Z 21009KT 170V250 9999 FEW035 BKN250 15/07
                        Q1017 NOSIG=
200801030900 METAR LMML NIL=
200801030845 METAR LMML 030845Z 21009KT 180V260 9999 FEW035 BKN250 15/07
                        Q1017 NOSIG=
200801030830 METAR LMML NIL=
200801030815 METAR LMML 030815Z 21011KT 170V260 9999 FEW036 BKN250 15/07
                        Q1017 NOSIG=
200801030800 LMML NIL=
200801030745 LMML 030745Z 21010KT 180V260 9999 FEW035 SCT250 14/07 Q1017
                        NOSIG=
200801030730 LMML NIL=
200801030715 METAR LMML 030715Z 21008KT 170V260 9999 FEW034 SCT250 14/07
                        Q1016 NOSIG=
200801030700 METAR LMML NIL=
200801030645 METAR LMML 030645Z 21007KT 180V240 9999 FEW035 SCT250 14/08
                        Q1016 NOSIG=
200801030630 METAR LMML NIL=
200801030615 METAR LMML 030615Z 22008KT 180V260 9999 SCT033 BKN060 14/08
                        Q1016 NOSIG=
200801030600 METAR LMML NIL=
200801030545 METAR LMML 030545Z 21008KT 180V260 9999 FEW034 BKN060 14/09
                        Q1016 NOSIG=
200801030515 METAR LMML 030515Z 21006KT 180V250 9999 FEW031 SCT050 BKN070
                        13/09 Q1016 NO SIG=
200801030500 METAR LMML NIL=
200801030445 METAR LMML 030445Z 20004KT 150V250 9999 SCT031 BKN060 12/09
                        Q1016 NOSIG=
200801030430 METAR LMML NIL=
200801030415 METAR LMML 030415Z VRB03KT 9999 SCT032 BKN070 12/10 Q1016
                        NOSIG=
200801030345 METAR LMML 030345Z VRB03KT 9999 FEW028 BKN070 11/10 Q1016
                        NOSIG=
200801030330 METAR LMML NIL=
200801030315 METAR LMML 030315Z 10004KT 9999 -RA SCT031 BKN060 10/09 Q1016
                        NOSIG=
200801030300 METAR LMML NIL=
200801030245 METAR LMML 030245Z 11005KT 9999 FEW030 SCT050 10/08 Q1017
                        NOSIG=
200801030215 METAR LMML 030215Z VRB03KT 9999 FEW031 10/09 Q1017 NOSIG=
200801030145 METAR LMML 030145Z VRB02KT 9999 FEW027 SCT040 BKN050 11/08
                        Q1017 NOSIG=
200801030115 METAR LMML 030115Z VRB02KT 9999 -RA FEW035 SCT050 BKN070
                        10/08 Q1018 NOSIG=
200801030100 METAR LMML NIL=
200801030045 METAR LMML 030045Z VRB02KT CAVOK 10/08 Q1018 NOSIG=
200801030030 METAR LMML NIL=
200801030015 METAR LMML 030015Z VRB01KT CAVOK 09/07 Q1018 NOSIG=
200801030000 METAR LMML NIL=
200801022345 METAR LMML 022345Z VRB02KT CAVOK 10/07 Q1018 NOSIG=
200801022330 METAR LMML NIL=
200801022315 METAR LMML 022315Z VRB01KT CAVOK 09/07 Q1018 NOSIG=
200801022300 METAR LMML NIL=
200801022245 METAR LMML 022245Z VRB02KT CAVOK 11/06 Q1018 NOSIG=
200801022230 METAR LMML NIL=
200801022215 METAR LMML 022215Z VRB03KT CAVOK 11/06 Q1019 NOSIG=
200801022200 METAR LMML NIL=
200801022145 METAR LMML 022145Z VRB03KT CAVOK 11/06 Q1019 NOSIG=
200801022130 METAR LMML NIL=
200801022115 METAR LMML 022115Z 26004KT CAVOK 10/06 Q1019 NOSIG=
200801022100 METAR LMML NIL=
200801022045 METAR LMML 022045Z 23004KT CAVOK 11/06 Q1019 NOSIG=
200801022030 METAR LMML NIL=
200801022015 METAR LMML 022015Z 25005KT 9999 FEW030 10/06 Q1019 NOSIG=
200801022000 METAR LMML NIL=
200801021945 METAR LMML 021945Z 24005KT 9999 FEW030 10/07 Q1019 NOSIG=
200801021915 METAR LMML 021915Z 28004KT 9999 FEW034 11/06 Q1019 NOSIG=
200801021900 METAR LMML NIL=
200801021845 METAR LMML 021845Z VRB03KT 9999 FEW030 10/07 Q1019 NOSIG=
200801021830 METAR LMML NIL=
200801021815 METAR LMML 021815Z 31004KT 9999 FEW030 10/06 Q1019 NOSIG=
200801021745 METAR LMML 021745Z VRB02KT 9999 FEW030 10/07 Q1019 NOSIG=
200801021730 METAR LMML NIL=
200801021715 METAR LMML 021715Z VRB02KT 9999 FEW030 11/07 Q1018 NOSIG=
200801021700 METAR LMML NIL=
200801021645 METAR LMML 021645Z 29004KT 9999 FEW030 11/07 Q1018 NOSIG=
200801021630 METAR LMML NIL=
200801021615 METAR LMML 021615Z 30004KT 9999 FEW030 12/07 Q1018 NOSIG=
200801021600 METAR LMML NIL=
200801021545 METAR LMML 021545Z 32006KT 9999 FEW031 12/07 Q1018 NOSIG=
200801021530 METAR LMML NIL=
200801021515 METAR LMML 021515Z 32007KT 9999 FEW031 13/07 Q1018 NOSIG=
200801021500 METAR LMML NIL=
200801021445 METAR LMML 021445Z 32009KT 9999 FEW034 14/07 Q1018 NOSIG=
200801021430 METAR LMML NIL=
200801021415 METAR LMML 021415Z 32005KT 9999 SCT036 SCT060 13/08 Q1018
                        NOSIG=
200801021400 METAR LMML NIL=
200801021345 METAR LMML 021345Z 33008KT 9999 SCT036 BKN060 14/07 Q1018
                        NOSIG=
200801021330 METAR LMML NIL=
200801021315 METAR LMML 021315Z 30009KT 9999 SCT036 BKN060 14/06 Q1018
                        NOSIG=
200801021300 METAR LMML NIL=
200801021245 METAR LMML 021245Z 30009KT 250V330 9999 SCT036 BKN060 14/07
                        Q1018 NOSIG=
200801021230 METAR LMML NIL=
200801021215 METAR LMML 021215Z 31006KT 280V350 9999 FEW035 BKN070 14/07
                        Q1018 NOSIG=
200801021200 METAR LMML NIL=
200801021145 METAR LMML 021145Z 29007KT 250V310 9999 FEW040 SCT070 14/06
                        Q1018 NOSIG=
200801021130 METAR LMML NIL=
200801021115 METAR LMML 021115Z 31008KT 270V340 9999 FEW025 BKN070 15/07
                        Q1019 NOSIG=
200801021100 METAR LMML NIL=
200801021045 METAR LMML 021045Z 29009KT 260V320 9999 FEW025 BKN070 15/06
                        Q1019 NOSIG=
200801021030 METAR LMML NIL=
200801021015 METAR LMML 021015Z 31008KT 9999 FEW025 15/06 Q1019 NOSIG=
200801021000 METAR LMML NIL=
200801020945 METAR LMML 020945Z 32008KT 280V350 9999 FEW025 14/06 Q1019
                        NOSIG=
200801020930 METAR LMML NIL=
200801020915 METAR LMML 020915Z 33007KT 9999 FEW020 14/06 Q1019 NOSIG=
200801020900 METAR LMML NIL=
200801020845 METAR LMML 020845Z 32007KT 290V350 9999 FEW020 14/07 Q1019
                        NOSIG=
200801020830 METAR LMML NIL=
200801020815 METAR LMML 020815Z 31006KT 9999 FEW020 13/08 Q1019 NOSIG=
200801020800 METAR LMML NIL=
200801020745 METAR LMML 020745Z 32007KT 9999 FEW020 12/07 Q1019 NOSIG=
200801020730 METAR LMML NIL=
200801020715 METAR LMML 020715Z 31007KT 9999 FEW020 11/06 Q1019 NOSIG=
200801020700 METAR LMML NIL=
200801020645 METAR LMML 020645Z 29008KT 9999 FEW020 11/05 Q1018 NOSIG=
200801020630 METAR LMML NIL=
200801020615 METAR LMML 020615Z 28008KT 9999 FEW020 10/05 Q1018 NOSIG=
200801020600 METAR LMML NIL=
200801020545 METAR LMML 020545Z 29007KT 9999 FEW020 10/06 Q1018 NOSIG=
200801020530 METAR LMML NIL=
200801020515 METAR LMML 020515Z 29008KT CAVOK 10/06 Q1018 NOSIG=
200801020500 METAR LMML NIL=
200801020445 METAR LMML 020445Z 29008KT CAVOK 10/06 Q1018 NOSIG=
200801020430 METAR LMML NIL=
200801020415 METAR LMML 020415Z 29007KT 9999 FEW034 10/06 Q1018 NOSIG=
200801020400 METAR LMML NIL=
200801020345 METAR LMML 020345Z 29007KT CAVOK 10/07 Q1018 NOSIG=
200801020330 METAR LMML NIL=
200801020315 METAR LMML 020315Z 28007KT 250V320 9999 FEW034 11/07 Q1018
                        NOSIG=
200801020300 METAR LMML NIL=
200801020245 METAR LMML 020245Z 29007KT 9999 FEW034 11/07 Q1018 NOSIG=
200801020230 METAR LMML NIL=
200801020215 METAR LMML 020215Z 28006KT 9999 FEW034 11/07 Q1018 NOSIG=
200801020200 METAR LMML NIL=
200801020145 METAR LMML 020145Z 29006KT 9999 FEW034 11/07 Q1018 NOSIG=
200801020130 METAR LMML NIL=
200801020115 METAR LMML 020115Z 29006KT 9999 FEW034 11/07 Q1018 NOSIG=
200801020100 METAR LMML NIL=
200801020045 METAR LMML 020045Z 30007KT 9999 FEW034 11/07 Q1018 NOSIG=
200801020030 METAR LMML NIL=
200801020015 METAR LMML 020015Z 30007KT 9999 FEW033 10/07 Q1018 NOSIG=
200801020000 METAR LMML NIL=
200801012345 METAR LMML 012345Z 31007KT 9999 FEW039 10/07 Q1018 NOSIG=
200801012330 METAR LMML NIL=
200801012315 METAR LMML 012315Z 31007KT 9999 FEW039 11/07 Q1018 NOSIG=
200801012300 METAR LMML NIL=
200801012245 METAR LMML 012245Z 30008KT 9999 FEW039 11/07 Q1018 NOSIG=
200801012230 METAR LMML NIL=
200801012215 METAR LMML 012215Z 31008KT 9999 FEW036 11/07 Q1018 NOSIG=
200801012200 METAR LMML NIL=
200801012145 METAR LMML 012145Z 30008KT 9999 FEW036 11/07 Q1018 NOSIG=
200801012130 METAR LMML NIL=
200801012115 METAR LMML 012115Z 30008KT 9999 FEW036 12/08 Q1018 NOSIG=
200801012100 METAR LMML NIL=
200801012045 METAR LMML 012045Z 29008KT 9999 FEW035 12/08 Q1018 NOSIG=
200801012030 METAR LMML NIL=
200801012015 METAR LMML 012015Z 30008KT 9999 FEW035 12/08 Q1018 NOSIG=
200801012000 METAR LMML NIL=
200801011945 METAR LMML 011945Z 29007KT 9999 FEW025 12/08 Q1018 NOSIG=
200801011915 METAR LMML 011915Z 29007KT 9999 FEW028 12/09 Q1018 NOSIG=
200801011900 METAR LMML NIL=
200801011845 METAR LMML 011845Z 30009KT 9999 FEW028 13/09 Q1018 NOSIG=
200801011830 METAR LMML NIL=
200801011815 METAR LMML 011815Z 29007KT 9999 FEW028 12/10 Q1018 NOSIG=
200801011800 METAR LMML NIL=
200801011745 METAR LMML 011745Z 29006KT 9999 FEW028 12/09 Q1017 NOSIG=
200801011730 METAR LMML NIL=
200801011715 METAR LMML 011715Z 29007KT 9999 FEW028 12/09 Q1017 NOSIG=
200801011700 METAR LMML NIL=
200801011645 METAR LMML 011645Z 29005KT 9999 FEW028 12/09 Q1017 NOSIG=
200801011630 METAR LMML NIL=
200801011615 METAR LMML 011615Z 29005KT 9999 FEW028 13/09 Q1017 NOSIG=
200801011545 METAR LMML 011545Z 30005KT 9999 FEW028 13/09 Q1017 NOSIG=
200801011515 METAR LMML 011515Z 32008KT 9999 FEW028 14/09 Q1017 NOSIG=
200801011500 METAR LMML NIL=
200801011445 METAR LMML 011445Z 32008KT 300V360 9999 FEW028 15/08 Q1016
                        NOSIG=
200801011430 METAR LMML NIL=
200801011415 METAR LMML 011415Z 33008KT 9999 FEW028 15/08 Q1016 NOSIG=
200801011400 METAR LMML NIL=
200801011345 METAR LMML 011345Z 33008KT 9999 FEW028 15/10 Q1016 NOSIG=
200801011330 METAR LMML NIL=
200801011315 METAR LMML 011315Z 33009KT 9999 FEW023 15/09 Q1016 NOSIG=
200801011245 METAR LMML 011245Z 34008KT 310V010 9999 FEW023 16/09 Q1016
                        NOSIG=
200801011215 METAR LMML 011215Z 34007KT 9999 FEW021 15/10 Q1016 NOSIG=
200801011200 METAR LMML NIL=
200801011145 METAR LMML 011145Z 35007KT 9999 FEW021 SCT070 15/11 Q1016
                        NOSIG=
200801011130 METAR LMML NIL=
200801011115 METAR LMML 011115Z 35007KT 9999 FEW019 BKN050 14/11 Q1017
                        NOSIG=
200801011100 METAR LMML NIL=
200801011045 METAR LMML 011045Z 01005KT 340V050 9999 FEW020 BKN060 14/11
                        Q1017 NOSIG=
200801011030 METAR LMML NIL=
200801011015 METAR LMML 011015Z 36006KT 320V040 9999 -RA SCT019 BKN050
                        14/11 Q1017 TEMPO SHRA BKN018=
200801010945 METAR LMML 010945Z 36010KT 9999 -RA SCT019 BKN043 14/11 Q1017
                        TEMPO SHRA BK N018=
200801010930 METAR LMML NIL=
200801010915 METAR LMML 010915Z 03010KT 9999 SCT021 SCT100 16/11 Q1017
                        TEMPO SHRA BKN018=
200801010845 METAR LMML 010845Z 04008KT 010V080 9999 SCT021 SCT080 15/11
                        Q1016 TEMPO SHR A BKN018=
200801010830 METAR LMML NIL=
200801010815 METAR LMML 010815Z 03009KT 360V070 9999 SCT019 BKN042 14/11
                        Q1016 TEMPO SHR A BKN018=
200801010800 METAR LMML NIL=
200801010730 METAR LMML NIL=
200801010715 METAR LMML 010715Z 03010KT 360V060 9999 -RA SCT021 BKN037
                        13/11 Q1015 TEMPO SHRA BKN018=
200801010700 METAR LMML NIL=
200801010645 METAR LMML 010645Z 03009KT 360V060 9999 -RA SCT018 BKN034
                        13/11 Q1015 TEMPO SHRA BKN018=
200801010630 METAR LMML NIL=
200801010615 METAR LMML 010615Z 02011KT 360V060 9999 -RA SCT018 BKN036
                        13/11 Q1015 TEMPO SHRA BKN018=
200801010600 METAR LMML NIL=
200801010545 METAR LMML 010545Z 02011G21KT 9999 SCT018 BKN033 13/10 Q1015
                        TEMPO SHRA BKN 018=
200801010530 METAR LMML NIL=
200801010515 METAR LMML 010515Z 02012KT 340V050 9999 SCT019 BKN032 13/10
                        Q1014 TEMPO SHR A FEW008 BKN015=
200801010500 METAR LMML NIL=
200801010445 METAR LMML 010445Z 02014KT 360V060 9999 SCT017 BKN029 13/11
                        Q1014 TEMPO SHR A FEW008 BKN015=
200801010430 METAR LMML NIL=
200801010415 METAR LMML 010415Z 02015KT 9999 SCT016 BKN021 13/11 Q1014
                        TEMPO SHRA FEW008 BKN015=
200801010400 METAR LMML NIL=
200801010345 METAR LMML 010345Z 02012G22KT 9999 SCT016 BKN024 13/11 Q1014
                        TEMPO SHRA FEW 008 BKN015=
200801010315 METAR LMML 010315Z 02014G26KT 9999 SCT016 BKN026 13/11 Q1014
                        TEMPO SHRA FEW 008 BKN015=
200801010300 METAR LMML NIL=
200801010245 METAR LMML 010245Z 02013G24KT 350V050 9999 SCT016 BKN030
                        13/11 Q1013 TEMPO SHRA FEW008 BKN015=
200801010230 METAR LMML NIL=
200801010215 METAR LMML 010215Z 02013G26KT 350V050 9999 SCT016 BKN045
                        14/11 Q1013 TEMPO SHRA FEW008 BKN015=
200801010200 METAR LMML NIL=
200801010145 METAR LMML 010145Z 02014G24KT 9999 SCT016 BKN045 13/11 Q1014
                        TEMPO SHRA FEW 008 BKN015=
200801010130 METAR LMML NIL=
200801010115 METAR LMML 010115Z 02014KT 350V050 9999 SCT016 BKN045 14/11
                        Q1013 TEMPO SHR A FEW008 BKN015=
200801010045 METAR LMML 010045Z 03014G27KT 360V060 9999 SCT016 BKN040
                        14/11 Q1013 TEMPO SHRA FEW008 BKN015=
200801010030 METAR LMML NIL=
200801010015 METAR LMML 010015Z 02015G28KT 9999 SCT015 SCT050 14/11 Q1013
                        TEMPO SHRA FEW 008 BKN015=
200801010000 METAR LMML NIL=

###################################
#  short TAF from LMML
###################################
200801312300 TAF LMML 312300Z 010009 29005KT 9999 FEW025=
200801312000 TAF LMML 312000Z 312106 29005KT 9999 FEW020=
200801311700 TAF LMML 311700Z 311803 30008KT 9999 SCT018
                      PROB40 TEMPO 1803 BKN015=
200801311400 TAF LMML 311400Z 311524 28008KT 9999 SCT018
                      PROB40 TEMPO 1524 BKN015=
200801311100 TAF LMML 311100Z 311221 26008KT 9999 FEW018=
200801310800 TAF LMML 310800Z 310918 26008KT 9999 FEW020=
200801310500 TAF LMML 310500Z 310615 27010KT 9999 SCT020=
200801310200 TAF LMML 310200Z 310312 27010KT 9999 SCT020=
200801302300 TAF LMML 302300Z 310009 27010KT 9999 SCT020=
200801302000 TAF LMML 302000Z 302106 25010KT 9999 SCT020=
200801301700 TAF LMML 301700Z 301803 24006KT 9999 SCT018
                      PROB30 TEMPO 1803 BKN015=
200801301400 TAF LMML 301400Z 301524 25012KT 9999 SCT020
                      PROB30 TEMPO 1824 BKN012=
200801301100 TAF LMML 301100Z 301221 25013KT 9999 SCT020
                      PROB30 TEMPO 1821 BKN012=
200801300800 TAF LMML 300800Z 300918 24010KT 9999 SCT020=
200801300500 TAF LMML 300500Z 300615 23008KT 9999 SCT020=
200801300200 TAF LMML 300200Z 300312 25006KT 9999 SCT025=
200801292300 TAF LMML 292300Z 300009 23005KT 9999 FEW020 SCT035=
200801292000 TAF LMML 292000Z 292106 22005KT 9999 FEW020 SCT040=
200801291700 TAF LMML 291700Z 291824 22005KT 9999 FEW023 SCT040=
200801291400 TAF LMML 291400Z 291524 13008KT 9999 SCT030=
200801291100 TAF LMML 291100Z 291221 10008KT 9999 SCT030=
200801290800 LMML 290800Z 290918 10008KT 9999 FEW030=
200801290500 TAF LMML 290500Z 290615 10008KT 9999 FEW025=
200801290200 TAF LMML 290200Z 290312 10005KT 9999 FEW018
                      PROB30 TEMPO 0306 8000 SCT015=
200801282300 TAF LMML 282300Z 290009 VRB03KT CAVOK
                      PROB3O TEMPO 0006 8000 SCT015=
200801282000 TAF LMML 282000Z 282106 VRB03KT CAVOK
                      PROB30 TEMPO 0006 8000 SCT015=
200801281700 TAF LMML 281700Z 281803 34005KT 9999 FEW015
                      BECMG 0003 04010KT=
200801281400 TAF LMML 281400Z 281524 32015KT 9999 FEW020
                      BECMG 1619 36005KT=
200801281100 LMML 281100Z 281221 33017KT 9999 FEW020
                      BECMG 1518 36005KT=
200801280800 TAF LMML 280800Z 280918 30018G30KT 9999 FEW020
                      BECMG 0811 32015KT=
200801280500 TAF LMML 280500Z 280615 32018G28KT CAVOK
                      BECMG 1215 36010KT=
200801280200 TAF LMML 280200Z 280312 31018G28KT CAVOK
                      PROB30 0306 FEW025
                      BECMG 1012 34 015KT=
200801272300 TAF LMML 272300Z 280009 30018G28KT CAVOK
                      PROB30 0006 FEW025=
200801272000 TAF LMML 272000Z 272106 30015G25KT CAVOK
                      PROB30 2306 FEW025=
200801271700 TAF LMML 271700Z 271803 30010KT CAVOK
                      BECMG 0003 30020KT=
200801271400 TAF LMML 271400Z 271524 30015KT 9999 FEW020=
200801271100 TAF LMML 271100Z 271221 29015KT 9999 FEW020=
200801270800 TAF LMML 270800Z 270918 29010KT 9999 FEW020
                      BECMG 1518 30018KT=
200801270500 TAF LMML 270500Z 270615 30008KT 9999 FEW020=
200801270200 TAF LMML 270200Z 270312 30005KT 9999 FEW020
                      PROB30 TEMPO 0306 5000 MIFG=
200801262300 TAF LMML 262300Z 270009 VRB03KT CAVOK
                      PROB30 TEMPO 0006 5000 MIFG FEW020=
200801262000 TAF LMML 262000Z 262106 VRB03KT 9999 FEW020
                      PROB30 TEMPO 0005 5000 MIFG=
200801261700 TAF LMML 261700Z 261803 VRB03KT 9999 SCT020=
200801261400 TAF LMML 261400Z 261524 VRB03KT 9999 SCT020=
200801260800 TAF LMML 260800Z 260918 VRB03KT 9999 FEW025=
200801260500 TAF LMML 260500Z 260615 32007KT 9999 SCT025=
200801260200 TAF LMML 260200Z 260312 32006KT 9999 SCT025
                      TEMPO 0306 8000
                      PROB30 TEMPO 0306 5000 BR=
200801252300 TAF LMML 252300Z 260009 VRB03KT 9999 SCT030
                      TEMPO 0006 8000
                      PROB30 TEMPO 0306 5000 BR=
200801252000 TAF LMML 252000Z 252106 28004KT 9999 SCT030
                      TEMPO 0006 8000
                      PROB30 TEMPO 0306 5000 BR=
200801251700 TAF LMML 251700Z 251803 30005KT 9999 FEW020=
200801251400 TAF LMML 251400Z 251524 01005KT 9999 SCT020=
200801251100 TAF LMML 251100Z 251221 03005KT 9999 SCT020=
200801250800 TAF LMML 250800Z 250918 03010KT 9999 FEW020=
200801250500 TAF LMML 250500Z 250615 03013KT 9999 BKN020
                      PROB30 TEMPO 0612 8000 SHRA B KN018=
200801250200 TAF LMML 250200Z 250312 03015KT 9999 BKN018
                      PROB30 TEMPO 0306 8000 SHRA B KN015=
200801242300 TAF LMML 242300Z 250009 04015KT 9999 BKN018
                      PROB30 TEMPO 0006 8000 SHRA B KN015=
200801242000 TAF LMML 242000Z 242106 04018KT 9999 BKN015
                      PROB30 TEMPO 8000 SHRA SCT012 BKN015=
200801241700 TAF LMML 241700Z 241803 03020KT 9999 BKN015
                      TEMPO 1803 7000 SHRA BKN008 B ECMG 2124 03015KT=
200801241400 TAF LMML 241400Z 241524 03022G33KT 9999 BKN020
                      TEMPO 1524 6000 SHRA BKN01 2
                      BECMG 2124 02018KT=
200801241100 TAF LMML 241100Z 241221 03025G35KT 9999 BKN020 BKN040
                      TEMPO 1221 7000 SHR A BKN013=
200801240800 TAF LMML 240800Z 240918 03025G35KT 9999 BKN020 BKN040
                      TEMPO 7000 SHRA=
200801240500 TAF LMML 240500Z 240615 04022G38KT 9999 SCT020 SCT040
                      TEMPO 0615 6000 SHR A=
200801240200 TAF LMML 240200Z 240312 04022G32KT 9999 SCT020
                      TEMPO 0312 8000 SHRA BKN01 5=
200801232300 TAF LMML 232300Z 240009 04020G30KT 9999 SCT020
                      TEMPO 0009 8000 RA BKN015=
200801232000 TAF LMML 232000Z 232106 04018G28KT 9999 SCT020 SCT050
                      PROB40 TEMPO 2106 B KN014=
200801231700 TAF LMML 231700Z 231803 03018G28KT 9999 SCT025=
200801231400 TAF LMML 231400Z 231524 02018G28KT 9999 SCT025
                      TEMPO 1524 8000 RA BKN018=
200801231100 TAF LMML 231100Z 231221 35020G30KT 9999 SCT030
                      TEMPO 1221 8000 SHRA BKN01 8
                      PROB30 TEMPO 1221 5000 TSRA BKN015CB=
200801230800 TAF LMML 230800Z 230918 33018G28KT 9999 SCT030
                      TEMPO 0918 8000 SHRA
                      PROB3 0
                      TEMPO 0918 5000 TSRA BKN015CB=
200801230500 TAF LMML 230500Z 230615 32020G30KT 9999 SCT020
                      TEMPO 0615 8000 SHRA BKN01 5
                      PROB30 TEMPO 0615 5000 TSRA BKN015CB
                      BECMG 1014 36018G28KT=
200801230200 TAF LMML 230200Z 230312 32020G30KT 9999 SCT020
                      TEMPO 0312 8000 SHRA BKN01 5
                      PROB30 TEMPO 0312 5000 TSRA BKN015CB
                      BECMG 1012 36018G28KT=
200801222300 TAF LMML 222300Z 230009 30020G30KT 9999 SCT020
                      TEMPO 0009 8000 SHRA BKN01 5
                      PROB30 TEMPO 0009 5000 TSRA BKN015CB=
200801222000 TAF LMML 222000Z 222106 30018G28KT 9999 SCT020 BKN035
                      TEMPO 2106 8000 SHR A BKN015
                      PROB30 TEMPO 0006 5000 TSRA BKN015CB=
200801221700 TAF LMML 221700Z 221803 28018G28KT 9999 SCT020 BKN040
                      TEMPO 2106 7000 SHR S BKN015=
200801221400 TAF LMML 221400Z 221524 29018G30KT 9999 BKN020=
200801221100 TAF LMML 221100Z 221221 29018G30KT 9999 BKN020=
200801220800 TAF LMML 220800Z 220918 29017G28KT 9999 BKN022=
200801220500 TAF LMML 220500Z 220615 29013KT 9999 SCT015
                      BECMG 0912 29015G25KT
                      PROB30 TEMPO 0615 BKN015=
200801220200 TAF LMML 220200Z 220312 28010KT 9999 SCT015
                      PROB30 TEMPO 0307 8000 BKN005
                      BECMG 0912 28015G25KT
                      PROB30 TEMPO 0712 BKN015=
200801212300 TAF LMML 212300Z 220009 29012KT 9999 FEW011
                      PROB30 TEMPO 0009 7000 BKN005=
200801212000 TAF LMML 212000Z 212106 28012KT 9999 SCT013
                      TEMPO 2106 7000 BKN005=
200801211700 TAF LMML 211700Z 211803 30012KT 9999 FEW018
                      BECMG 0003 SCT018
                      PROB30 0003 BKN008=
200801211400 TAF LMML 211400Z 211524 30012KT 9999 FEW018=
200801211100 TAF LMML 211100Z 211221 30012KT 9999 FEW018=
200801210800 TAF LMML 210800Z 210918 30010KT 9999 FEW025=
200801210500 TAF LMML 210500Z 210615 30010KT CAVOK
                      PROB30 TEMPO 0615 SCT015=
200801210200 TAF LMML 210200Z 210312 29005KT CAVOK
                      PROB30 TEMPO 0306 8000 SCT012=
200801202300 TAF LMML 202300Z 210009 29004KT CAVOK
                      PROB30 TEMPO 0006 5000 BR SCT012=
200801202000 TAF LMML 202000Z 202106 29004KT CAVOK
                      PROB30 TEMPO 0306 7000 FEW012=
200801201700 TAF LMML 201700Z 201803 01004KT 9999 FEW020=
200801201400 TAF LMML 201400Z 201524 02006KT 9999 SCT020=
200801201100 TAF LMML 201100Z 201221 04007KT 9999 SCT020=
200801200800 TAF LMML 200800Z 200918 33005KT 9999 SCT020=
200801200500 TAF LMML 200500Z 200615 03005KT 9999 SCT022=
200801200200 TAF LMML 200200Z 200312 04004KT 9999 FEW020 SCT060
                      TEMPO 0309 8000
                      PROB30 TEMPO 0507 5000 BR BKN018=
200801192300 TAF LMML 192300Z 200009 04004KT 9999 FEW020
                      PROB30 TEMPO 0309 6000=
200801192000 TAF LMML 192000Z 192106 04004KT 9999 SCT018 BKN100=
200801191700 TAF LMML 191700Z 191803 02004KT 9999 FEW018=
200801191400 TAF LMML 191400Z 191524 03008KT 9999 SCT018=
200801191100 TAF LMML 191100Z 191221 03012KT 9999 SCT018=
200801190800 TAF LMML 190800Z 190918 03010KT 9999 SCT018=
200801190200 TAF LMML 190200Z 190312 04010KT 9999 SCT020=
200801182300 TAF LMML 182300Z 190009 04010KT 9999 SCT020=
200801182000 TAF LMML 182000Z 182106 04010KT 9999 SCT022=
200801181700 TAF LMML 181700Z 181803 05012KT 9999 FEW025=
200801181400 TAF LMML 181400Z 181524 05012KT 9999 FEW028=
200801181100 TAF LMML 181100Z 181221 05012KT 9999 FEW028=
200801180800 TAF LMML 180800Z 180918 04012KT 9999 SCT025
                      PROB30 TEMPO 0915 8000 SHRA=
200801180500 TAF LMML 180500Z 180615 01008KT 9999 SCT020
                      TEMPO 0615 7000 SHRA BKN015=
200801180200 TAF LMML 180200Z 180312 03008KT 9999 SCT020 BKN060
                      TEMPO 0312 8000 SHRA P ROB30
                      TEMPO 0306 5000 TSRA BKN015CB=
200801172300 TAF LMML 172300Z 180009 35008KT 9999 SCT020 BKN060
                      TEMPO 0009 7000 SHRA B KN015
                      PROB30 TEMPO 0009 5000 TSRA BKN015CB=
200801172000 TAF LMML 172000Z 172106 35005KT 9999 SCT020 BKN060
                      TEMPO 2106 7000 SHRA B KN015=
200801171700 TAF LMML 171700Z 171803 32010KT 9999 FEW020 SCT050
                      TEMPO 1803 6000 SHRA B KN020 BKN040
                      PROB30 TEMPO 1800 TSRA BKN015CB
                      BECMG 1923 32015G25KT=
200801171400 TAF LMML 171400Z 171524 23010KT 9999 FEW020
                      TEMPO 1524 6000 SHRA BKN020 P ROB30
                      TEMPO 1524 TSRA SCT008 BKN015CB
                      BECMG 1517 32015G25KT=
200801171100 TAF LMML 171100Z 171221 23010KT 9999 FEW020
                      TEMPO 1221 6000 SHRA BKN020 P ROB30
                      TEMPO 1221 TSRA FEW008 BKN015CB
                      BECMG 1417 32015G25KT=
200801170800 TAF LMML 170800Z 170918 23015G25KT 9999 FEW020
                      TEMPO 0918 8000 SHRA BKN02 0
                      PROB30 TEMPO 0918 TSRA FEW008 BKN015CB
                      BECMG 1417 32015G25KT=
200801170500 TAF LMML 170500Z 170615 20018KT 9999 FEW030
                      TEMPO 0615 8000 SHRA BKN025 P ROB30
                      TEMPO 0615 TSRA FEW008 BKN015CB=
200801170200 TAF LMML 170200Z 170312 22015KT 9999 FEW030
                      PROB40 TEMPO 0612 8000 SHRA B KN035
                      PROB30 TEMPO 0912 TSRA FEW008 BKN015CB=
200801162300 TAF LMML 162300Z 170009 22015KT 9999 FEW030
                      PROB30 TEMPO 0309 8000 SHRA P ROB30
                      TEMPO 0609 5000 TSRA BKN018CB=
200801162000 TAF LMML 162000Z 162106 22015KT 9999 FEW030
                      PROB40 TEMPO 0306 8000 RA BKN 035=
200801161700 TAF LMML 161700Z 161803 20010KT 9999 FEW030 BKN150=
200801161400 TAF LMML 161400Z 161524 21011KT 9999 FEW025 BKN150=
200801161100 TAF LMML 161100Z 161221 21010KT 9999 SCT025 BKN150=
200801160800 TAF LMML 160800Z 160918 23010KT 9999 SCT025=
200801160500 TAF LMML 160500Z 160615 23012KT 9999 FEW030=
200801160200 TAF LMML 160200Z 160312 23010KT 9999 FEW030=
200801152300 TAF LMML 152300Z 160009 22012KT 9999 FEW025=
200801152000 TAF LMML 152000Z 152106 22015KT 9999 FEW025=
200801151700 TAF LMML 151700Z 151803 22008KT CAVOK=
200801151400 TAF LMML 151400Z 151524 24010KT CAVOK=
200801151100 TAF LMML 151100Z 151221 24013KT 9999 FEW030=
200801150800 TAF LMML 150800Z 150918 23013KT 9999 FEW030=
200801150500 TAF LMML 150500Z 150615 22012KT 9999 FEW025=
200801150200 TAF LMML 150200Z 150312 22010KT 9999 SCT020=
200801142300 TAF LMML 142300Z 150009 22010KT 9999 SCT020=
200801142000 TAF LMML 142000Z 142106 22006KT 9999 FEW022=
200801141700 TAF LMML 141700Z 141803 24006KT 9999 FEW025=
200801141400 TAF LMML 141400Z 141524 24008KT 9999 FEW025=
200801141100 TAF LMML 141100Z 141221 24008KT 9999 FEW025=
200801140800 TAF LMML 140800Z 140918 24008KT 9999 FEW025=
200801140500 TAF LMML 140500Z 140615 24010KT 9999 FEW030=
200801140200 TAF LMML 140200Z 140312 24008KT 9999 FEW030=
200801132300 TAF LMML 132300Z 140009 24008KT 9999 FEW030=
200801132000 TAF LMML 132000Z 132106 24005KT 9999 SCT030=
200801131700 TAF LMML 131700Z 131803 25008KT 9999 FEW030
                      PROB30 TEMPO 2203 8000 SHRA B KN015=
200801131400 TAF LMML 131400Z 131524 26010KT 9999 FEW030=
200801131100 TAF LMML 131100Z 131221 26010KT 9999 SCT020=
200801130800 TAF LMML 130800Z 130918 28010KT 9999 FEW020 SCT050
                      PROB30 TEMPO 0912 8000 SHRA BKN020 BKN050=
200801130500 TAF LMML 130500Z 130615 30010KT 9999 FEW020 SCT080
                      PROB40 TEMPO 0610 8000 SHRA BKN018 BKN080=
200801130200 TAF LMML 130200Z 130312 30010KT 9999 SCT020
                      PROB30 TEMPO 0309 8000 SHRA B KN015=
200801122300 TAF LMML 122300Z 130009 27006KT 9999 SCT020
                      TEMPO 0009 8000 SHRA BKN015 P ROB30
                      TEMPO 0009 TSRA BKN015CB=
200801122000 TAF LMML 122000Z 122106 21008KT 9999 SCT020
                      TEMPO 2106 8000 SHRA BKN015 P ROB40
                      TEMPO 2106 5000 TSRA BKN015CB
                      BECMG 0306 30010KT=
200801121700 TAF LMML 121700Z 121803 21010KT 9999 SCT020
                      PROB30 TEMPO 2003 8000 SHRA B KN015
                      BECMG 2303 29010KT=
200801121400 TAF LMML 121400Z 121524 19012KT 9999 SCT020
                      PROB30 TEMPO 1221 8000 SHRA B KN015=
200801121100 TAF LMML 121100Z 121221 18012KT 9999 SCT025
                      PROB30 TEMPO 1221 8000 SHRA S CT015=
200801120800 TAF LMML 120800Z 120918 18010KT 9999 FEW025
                      PROB30 TEMPO 0918 8000 SHRA S CT020
                      BECMG 1518 21010KT=
200801120500 TAF LMML 120500Z 120615 18010KT 9999 FEW025
                      PROB30 TEMPO 0615 7000 SHRA=
200801120200 TAF LMML 120200Z 120312 18010KT 9999 FEW025=
200801112300 TAF LMML 112300Z 120009 17010KT 9999 FEW025=
200801112000 TAF LMML 112000Z 112106 18005KT 9999 FEW025=
200801111700 TAF LMML 111700Z 111803 VRB03KT 9999 FEW020=
200801111400 TAF LMML 111400Z 111524 18006KT 9999 SCT020=
200801111100 TAF LMML 111100Z 111221 15005KT 9999 FEW020
                      PROB30 TEMPO 1221 8000 SHRA B KN020=
200801110800 TAF LMML 110800Z 110918 18006KT 9999 SCT020
                      PROB40 TEMPO 0918 8000 SHRA B KN018=
200801110500 TAF LMML 110500Z 110615 16008KT 9999 SCT020
                      PROB30 0615 8000 SHRA BKN010=
200801110200 TAF LMML 110200Z 110312 16006KT 9999 SCT020
                      PROB30 TEMPO 0306 8000 SHRA B KN008=
200801102300 TAF LMML 102300Z 110009 16006KT 9999 SCT020
                      PROB30 TEMPO 0006 8000 SHRA B KN008=
200801102000 TAF LMML 102000Z 102106 16006KT 9999 SCT020
                      PROB30 TEMPO 2106 8000 BKN008=
200801101700 TAF LMML 101700Z 101803 16006KT 9999 SCT020
                      PROB30 TEMPO 1803 BKN013=
200801101400 TAF LMML 101400Z 101524 15008KT 9999 SCT020
                      PROB30 TEMPO 1824 BKN013=
200801101100 TAF LMML 101100Z 101221 14008KT 9999 FEW020
                      PROB30 TEMPO 1821 BKN012=
200801100800 TAF LMML 100800Z 100918 12008KT 9999 FEW020
                      PROB30 TEMPO 0912 8000 SHRA B KN012=
200801100500 TAF LMML 100500Z 100615 10008KT 9999 SCT015
                      PROB30 TEMPO 0612 8000 SHRA B KN012=
200801100200 TAF LMML 100200Z 100312 08005KT 9999 SCT015
                      PROB30 TEMPO 0312 7000 SHRA B KN008=
200801092300 TAF LMML 092300Z 100009 07005KT 9999 FEW008 SCT012
                      PROB30 TEMPO 0009 7000 SHRA BKN006=
200801092000 TAF LMML 092000Z 092106 08008KT 9999 FEW008 SCT014
                      PROB30 TEMPO 2106 7000 SHRA BKN005=
200801091700 TAF LMML 091700Z 091803 08010KT 9999 SCT015
                      PROB30 TEMPO 1803 7000 SHRA S CT008 BKN015
                       BECMG 2303 12010KT=
200801091400 TAF LMML 091400Z 091524 07010KT 9999 SCT015
                      PROB30 TEMPO 1524 7000 SHRA S CT008 BKN015=
200801091100 TAF LMML 091100Z 091221 05010KT 9999 SCT015
                      PROB30 TEMPO 1221 7000 SHRA S CT008 BKN015=
200801090800 TAF LMML 090800Z 090918 05008KT 9999 SCT015
                      PROB30 TEMPO 0918 8000 SHRA S CT010 BKN015=
200801090500 TAF LMML 090500Z 090615 06012KT 9999 SCT015
                      PROB30 TEMPO 0912 SHRA BKN012 BKN030=
200801090200 TAF LMML 090200Z 090312 03005KT 9999 SCT015
                      PROB30 TEMPO 0512 SHRA SCT010 012 BKN015=
200801082300 TAF LMML 082300Z 090009 03005KT 9999 BKN015
                      PROB30 TEMPO 0306 8000 SHRA S CT010 BKN105=
200801082000 TAF LMML 082000Z 082106 36005KT 9000 FEW002
                      PROB30 TEMPO 2103 3000 BKN001
                      PROB40 TEMPO 0006 BKN005=
200801081700 TAF LMML 081700Z 081803 02005KT 9999 SCT012 BKN250
                      PROB30 TEMPO 1803 8000 BKN007=
200801081400 TAF LMML 081400Z 081524 02005KT 9999 SCT015 BKN250
                      PROB30 TEMPO 1724 BKN0 11=
200801081100 TAF LMML 081100Z 081221 03005KT 9999 SCT015 BKN250
                      PROB30 TEMPO 1221 BKN0 13=
200801080800 TAF LMML 080800Z 080918 28005KT 9999 SCT015
                      PROB30 TEMPO 0918 BKN015=
200801080500 TAF LMML 080500Z 080615 32010KT 9999 FEW012 SCT025
                      TEMPO 0609 BKN025 BECM G 1215 02010KT=
200801080200 TAF LMML 080200Z 080312 30006KT 9999 SCT014 BKN023
                      TEMPO 0309 BKN011
                      PROB 30
                      TEMPO 0307 8000=
200801072300 TAF LMML 072300Z 080009 30006KT 9999 SCT020
                      TEMPO 0009 BKN015
                      PROB30 TEMP O 0009 8000=
200801072000 TAF LMML 072000Z 072106 30006KT 9999 SCT020
                      PROB40 TEMPO 2106 8000 BKN015=
200801071700 TAF LMML 071700Z 071803 30008KT 9999 SCT015
                      TEMPO 1803 8000 BKN013=
200801071400 TAF LMML 071400Z 071524 30010KT 9999 FEW020
                      PROB40 TEMPO 1824 BKN015=
200801071100 TAF LMML 071100Z 071221 30010KT 9999 FEW020
                      PROB30 TEMPO 1821 BKN015=
200801070800 TAF LMML 070800Z 070918 30010KT 9999 FEW020=
200801070500 TAF LMML 070500Z 070615 30010KT 9999 FEW025=
200801070200 TAF LMML 070200Z 070312 30010KT 9999 SCT025=
200801062300 TAF LMML 062300Z 070009 30005KT 9999 FEW025
                      PROB30 0006 8000 SCT020=
200801062000 TAF LMML 062000Z 062106 VRB03KT 9999 FEW025
                      BECMG 0306 30010KT SCT020=
200801061700 TAF LMML 061700Z 061803 VRB03KT 9999 FEW025=
200801061400 TAF LMML 061400Z 061524 VRB03KT 9999 FEW025=
200801061100 TAF LMML 061100Z 061221 15004KT 9999 FEW027=
200801060800 TAF LMML 060800Z 060918 13008KT 9999 FEW027=
200801060500 TAF LMML 060500Z 060615 15005KT 9999 SCT020=
200801060200 TAF LMML 060200Z 060312 15010KT 9999 SCT018=
200801052300 TAF LMML 052300Z 060009 15005KT 9999 SCT018 BKN200=
200801052000 TAF LMML 052000Z 052106 14012KT 9999 FEW015 BKN200=
200801051700 TAF LMML 051700Z 051803 15015KT 9999 SCT020=
200801051400 TAF LMML 051400Z 051524 15015KT 9999 SCT020=
200801051100 TAF LMML 051100Z 051221 15015KT 9999 SCT020=
200801050800 TAF LMML 050800Z 050918 15015KT CAVOK
                      TEMPO 0918 FEW025=
200801050500 TAF LMML 050500Z 050615 15015KT CAVOK
                      TEMPO 0615 FEW025=
200801050200 TAF LMML 050200Z 050312 15010KT CAVOK
                      TEMPO 0312 FEW025=
200801042300 TAF LMML 042300Z 050009 15010KT CAVOK
                      TEMPO 0309 FEW030=
200801042000 TAF LMML 042000Z 042106 15008KT CAVOK
                      TEMPO 0306 FEW030=
200801041700 TAF LMML 041700Z 041803 15010KT 9999 FEW015 BKN140=
200801041400 TAF LMML 041400Z 041524 17010KT 9999 FEW020 BKN150=
200801041100 LMML 041100Z 041221 15010KT 9999 FEW025 BKN150=
200801040800 TAF LMML 040800Z 040918 15008KT 9999 FEW018 BKN150=
200801040500 TAF LMML 040500Z 040615 18012KT 9999 SCT025=
200801040200 TAF LMML 040200Z 040312 19012KT 9999 SCT025=
200801032300 TAF LMML 032300Z 040009 19012KT 9999 FEW025=
200801032000 TAF LMML 032000Z 032106 19012KT 9999 FEW025=
200801031700 TAF LMML 031700Z 031803 18006KT 9999 SCT025=
200801031400 TAF LMML 031400Z 031524 20012KT 9999 SCT030=
200801031100 TAF LMML 031100Z 031221 23015KT 9999 SCT035=
200801030800 TAF LMML 030800Z 030918 23015KT 9999 SCT025=
200801030500 TAF LMML 030500Z 030615 23012KT 9999 SCT025=
200801030200 TAF LMML 030200Z 030312 23012KT 9999 SCT025=
200801022300 TAF LMML 022300Z 030009 23010KT 9999 SCT025=
200801022000 LMML 022000Z 022106 23010KT 9999 SCT028=
200801021700 TAF LMML 021700Z 021803 27010KT 9999 FEW028=
200801021400 TAF LMML 021400Z 021524 30010KT 9999 FEW030=
200801021100 TAF LMML 021100Z 021221 30010KT 9999 FEW030=
200801020800 TAF LMML 020800Z 020918 30010KT 9999 FEW030=
200801020500 LMML NIL=
200801020200 TAF LMML 020200Z 020312 31010KT 9999 FEW030=
200801012300 TAF LMML 012300Z 020009 31010KT 9999 FEW030=
200801012000 TAF LMML 012000Z 012106 30010KT 9999 FEW025=
200801011700 TAF LMML 011700Z 011803 32010KT 9999 FEW025=
200801011400 TAF LMML 011400Z 011524 33010KT 9999 FEW025=
200801011100 TAF LMML 011100Z 011221 34012KT 9999 SCT020=
200801010800 TAF LMML 010800Z 010918 35012KT 9999 SCT020
                      PROB30 TEMPO 0912 SHRA BKN015=
200801010500 TAF LMML 010500Z 010615 03018G28KT 9999 SCT018
                      TEMPO 0612 SHRA BKN015 BEC MG 1215 31010KT=
200801010200 LMML 010200Z 010312 03015KT 9999 FEW018
                      TEMPO 0306 SHRA BKN015 BE CMG 0912 33010KT=

###################################
#  large TAF from LMML
###################################
200801312300 TAF LMML 312300Z 010606 30010KT 9999 SCT025=
200801311700 TAF LMML 311700Z 010024 30010KT 9999 SCT018
                      PROB30 TEMPO 0024 BKN015=
200801311100 TAF LMML 311100Z 311818 30010KT 9999 SCT018
                      PROB40 TEMPO 1818 BKN015=
200801310500 TAF LMML 310500Z 311212 28010KT 9999 SCT020=
200801302300 TAF LMML 302300Z 310606 27010KT 9999 SCT020=
200801301700 TAF LMML 301700Z 310024 24004KT 9999 FEW018
                      PROB30 TEMPO 0006 BKN015 0912 30010KT=
200801301100 TAF LMML 301100Z 301818 23010KT 9999 SCT020
                      PROB30 TEMPO 1806 BKN012 BECM G 0912 30012KT=
200801300500 TAF LMML 300500Z 301212 23010KT 9999 SCT020
                      TEMPO 1808 BKN015
                      BECMG 0912 29010KT=
200801292300 TAF LMML 292300Z 300606 22008KT 9999 FEW025
                      BECMG 0306 27010KT=
200801291700 TAF LMML 291700Z 300024 25010KT 9999 FEW023 SCT040=
200801291100 TAF LMML 291100Z 291818 17008KT 9999 SCT030=
200801290500 TAF LMML 290500Z 291212 15008KT 9999 FEW025
                      BECMG 1518 22010KT=
200801282300 TAF LMML 282300Z 290606 15006KT 9999 FEW020=
200801281700 TAF LMML 281700Z 290024 04010KT 9999 SCT015=
200801281100 TAF LMML 281100Z 281818 02005KT 9999 FEW015
                      BECMG 2124 08010KT
                      BECMG 0912 14010KT=
200801280500 TAF LMML 280500Z 281212 35010KT CAVOK
                      BECMG 2024 07008KT SCT025
                      BECMG 061 2 13006KT SCT030=
200801272300 TAF LMML 272300Z 280606 31018G28KT CAVOK
                      BECMG 1216 36010KT=
200801271700 TAF LMML 271700Z 280024 30020KT CAVOK
                      BECMG 1518 04005KT=
200801271100 TAF LMML 271100Z 271818 31018G28KT CAVOK=
200801270500 TAF LMML 270500Z 271212 30015KT 9999 FEW020=
200801262300 TAF LMML 262300Z 270606 30006KT 9999 FEW025
                      BECMG 1821 30016KT=
200801261700 TAF LMML 261700Z 270024 VRB03KT 9999 SCT020
                      BECMG 0812 30012KT
                      BECMG 1822 31022KT=
200801260500 TAF LMML 260500Z 261212 31006KT 9999 SCT025 SCT250
                      PROB30 TEMPO 0206 7000=
200801252300 TAF LMML 252300Z 260606 30007KT 9999 SCT025
                      PROB30 TEMPO 0006 5000 BR BKN 005=
200801251700 TAF LMML 251700Z 260024 VRB03KT 9999 FEW020=
200801251100 TAF LMML 251100Z 251818 VRB03KT 9999 SCT020=
200801250500 TAF LMML 250500Z 251212 02010KT 9999 SCT025
                      BECMG 2124 30003KT=
200801242300 TAF LMML 242300Z 250606 04015KT 9999 SCT020
                      BECMG 1518 03005KT=
200801241700 TAF LMML 241700Z 250024 03015KT 9999 BKN015
                      TEMPO 0015 8000 SHRA BKN011 B ECMG 0912 02010KT
                       SCT015=
200801241100 TAF LMML 241100Z 241818 03020G30KT 9999 BKN020
                      TEMPO 1806 7000 SHRA BKN01 0
                      BECMG 0912 01010KT=
200801240500 TAF LMML 240500Z 241212 04022G38KT 9999 SCT025 SCT040
                      TEMPO 1206 8000 SHR A
                      BECMG 0609 03012KT=
200801232300 TAF LMML 232300Z 240606 04023G35KT 9999 SCT020
                      TEMPO 0606 8000 SHRA
                      BECMG 0003 04013KT=
200801231700 TAF LMML 231700Z 240024 03018G28KT 9999 SCT020
                      PROB30 TEMPO 1521 8000 SHR A BKN018=
200801231100 TAF LMML 231100Z 231818 35018G28KT 9999 SCT030
                      PROB40 TEMPO 1806 8000 SHR A BKN018=
200801230500 TAF LMML 230500Z 231212 36018G28KT 9999 SCT020
                      TEMPO 1221 8000 SHRA BKN01 5
                      PROB30 TEMPO 1217 5000 TSRA BKN015CB
                      PROB30 TEMPO 2112 8000 SHRA BK N025
                      BECMG 0610 03025G30KT=
200801222300 TAF LMML 222300Z 230606 32020G30KT 9999 SCT025
                      TEMPO 0621 8000 SHRA BKN01 5
                      PROB30 TEMPO 0617 5000 TSRA BKN015CB
                      PROB30 TEMPO 2106 8000 SHRA BK N025
                      BECMG 1014 36018G28KT=
200801221700 TAF LMML 221700Z 230024 30020G30KT 9999 SCT020 BKN040
                      TEMPO 0021 8000 SHR A BKN015
                      PROB30 TEMPO 0015 TSRA BKN015CB
                      BECMG 0912 36017KT=
200801220500 TAF LMML 220500Z 221212 28017KT 9999 SCT015
                      PROB30 TEMPO 1212 BKN015 BECM G 1215 28018G30KT
                       TEMPO 0312 8000 SHRA=
200801212300 TAF LMML 212300Z 220606 29010KT 9999 FEW012
                      PROB30 TEMPO 0606 BKN012 BECM G 1518 28020G30KT
                       TEMPO 2106 8000 SHRA=
200801211700 TAF LMML 211700Z 220024 30012KT 9999 SCT018
                      PROB30 0006 BKN008
                      BECMG 0912 30022KT=
200801211100 TAF LMML 211100Z 211818 30012KT 9999 FEW018
                      PROB30 0006 8000 BKN008
                      BECMG 0912 30022KT SCT018=
200801210500 TAF LMML 210500Z 211212 30010KT CAVOK
                      PROB30 TEMPO 0006 BKN008
                      BECMG 0912 31020KT=
200801202300 TAF LMML 202300Z 210606 29008KT CAVOK
                      TEMPO 0606 SCT018=
200801201700 TAF LMML 201700Z 210024 31008KT 9999 FEW020
                      PROB30 TEMPO 0306 7000 BKN007=
200801201100 TAF LMML 201100Z 201818 02005KT 9999 SCT012
                      BECMG 1215 30010KT=
200801200500 TAF LMML 200500Z 201212 03005KT 9999 SCT020
                      BECMG 0508 29010KT
                      PROB30 TEM PO 0306 8000=
200801192300 TAF LMML 192300Z 200606 04006KT 9999 FEW020
                      PROB30 TEMPO 0206 7000 BKN015=
200801191700 TAF LMML 191700Z 200024 05005KT 9999 FEW020=
200801191100 TAF LMML 191100Z 191818 03005KT 9999 FEW018=
200801190500 TAF LMML 190500Z 191212 03008KT 9999 SCT020=
200801182300 TAF LMML 182300Z 190606 04012KT 9999 FEW020=
200801181700 TAF LMML 181700Z 190024 05010KT 9999 FEW025=
200801181100 TAF LMML 181100Z 181818 05015KT 9999 FEW028=
200801180500 TAF LMML 180500Z 181212 03012KT 9999 SCT020
                      PROB30 TEMPO 1218 8000 SHRA B KN015=
200801172300 TAF LMML 172300Z 180606 04012KT 9999 SCT020 BKN060
                      PROB30 TEMPO 0615 8000 SHRA=
200801171700 TAF LMML 171700Z 180024 33015G25KT 9999 FEW020 SCT050
                      TEMPO 0008 8000 SHR A BKN020 BKN050
                      BECMG 0406 03015KT=
200801171100 TAF LMML 171100Z 171818 32015G25KT 9999 SCT020
                      TEMPO 1808 6000 SHRA BKN02 0
                      PROB30 TEMPO 1800 TSRA SCT008 BKN015CB
                      BECMG 0406 03015KT=
200801170500 TAF LMML 170500Z 171212 24010KT 9999 FEW030 SCT080
                      TEMPO 1206 8000 SHRA B KN018
                      PROB30 TEMPO 1206 5000 TSRA FEW008 BKN015CB
                       BECMG 1518 30015KT=
200801162300 TAF LMML 162300Z 170606 22018KT 9999 FEW030
                      TEMPO 0606 8000 SHRA BKN030 P ROB30
                      TEMPO 0906 5000 TSRA SCT008 BKN015CB=
200801161700 TAF LMML 161700Z 170024 20012KT 9999 FEW025 BKN110
                      TEMPO 0414 8000 SHRA P ROB30
                      TEMPO 0615 5000 TSRA BKN015CB
                      BECMG 1013 30014KT
                      TEMPO 1824 700 SHRA BKN015=
200801161100 TAF LMML 161100Z 161818 20015KT 9999 SCT020 BKN120
                      TEMPO 0318 7000 SHRA B KN015
                      PROB30 TEMPO 0613 5000 TSRA BKN012CB
                      BECMG 1013 30015KT=
200801160500 TAF LMML 160500Z 161212 22015KT 9999 FEW030
                      TEMPO 0312 7000 SHRA BKN018 P ROB40
                      TEMPO 0312 4000 TSRA BKN012CB=
200801152300 TAF LMML 152300Z 160606 22012KT 9999 FEW030
                      TEMPO 0006 7000 SHRA BKN017 P ROB40
                      TEMPO 0006 4000 TSRA BKN012CB=
200801151700 TAF LMML 151700Z 160024 22006KT 9999 FEW030=
200801151100 TAF LMML 151100Z 151818 22008KT 9999 FEW030=
200801150500 TAF LMML 150500Z 151212 22012KT 9999 SCT025=
200801142300 TAF LMML 142300Z 150606 22012KT 9999 SCT020=
200801141700 LMML 141700Z 150024 24012KT 9999 SCT025=
200801141100 TAF LMML 141100Z 141818 24010KT 9999 FEW025=
200801140500 TAF LMML 140500Z 141212 24010KT 9999 FEW030=
200801132300 TAF LMML 132300Z 140606 24010KT 9999 FEW030=
200801131700 TAF LMML 131700Z 140024 24010KT 9999 FEW030
                      PROB30 TEMPO 0006 8000 SHRA B KN015=
200801131100 TAF LMML 131100Z 131818 25010KT 9999 SCT020
                      PROB30 TEMPO 0014 8000 SHRA B KN015=
200801130500 TAF LMML 130500Z 131212 24008KT 9999 FEW020 SCT070
                      PROB30 TEMPO 1806 8000 SHRA BKN018 BKN080=
200801122300 TAF LMML 122300Z 130606 27010KT CAVOK
                      PROB40 TEMPO 0606 8000 SHRA BKN015
                      PROB30 TEMPO 0606 5000 TSRA BKN015CB=
200801121700 TAF LMML 121700Z 130024 27012KT 9999 SCT020
                      PROB30 TEMPO 0006 8000 SHRA B KN015=
200801121100 TAF LMML 121100Z 121818 21012KT 9999 SCT020
                      PROB30 TEMPO 1808 8000 SHRA B KN015=
200801120500 TAF LMML 120500Z 121212 20010KT 9999 SCT025
                      PROB30 TEMPO 1212 7000 SHRA B ECMG 2302 30012KT=
200801112300 TAF LMML 112300Z 120606 18012KT 9999 FEW025
                      PROB30 TEMPO 1606 8000 SHRA B KN015=
200801111700 TAF LMML 111700Z 120024 VRB03KT 9999 FEW020
                      TEMPO 0024 SCT030 BKN080=
200801111100 TAF LMML 111100Z 111818 VRB03KT 9999 FEW018
                      BECMG 0912 18010KT=
200801110500 TAF LMML 110500Z 111212 16010KT 9999 SCT020
                      PROB30 1012 8000 SHRA BKN012=
200801102300 TAF LMML 102300Z 110606 16008KT 9999 SCT020=
200801101700 TAF LMML 101700Z 110024 16004KT 9999 SCT020
                      PROB30 TEMPO 0307 8000 BKN013=
200801101100 TAF LMML 101100Z 101818 15005KT 9999 FEW020
                      PROB30 TEMPO 1806 8000 BKN012=
200801100500 TAF LMML 100500Z 101212 10008KT 9999 SCT012 BKN250
                      PROB30 TEMPO 1212 BKN0 11=
200801092300 TAF LMML 092300Z 100606 08007KT 9999 SCT015 SCT200
                      PROB30 TEMPO 0612 8000 SHRA BKN011
                      BECMG 1215 13010KT=
200801091700 TAF LMML 091700Z 100024 12010KT 9999 SCT015
                      PROB30 TEMPO 0010 7000 SHRA S CT008 BKN015=
200801091100 TAF LMML 091100Z 091818 08010KT 9999 SCT015
                      PROB30 TEMPO 1810 7000 SHRA S CT008 BKN015
                       BECMG 0509 13010KT=
200801090500 TAF LMML 090500Z 091212 06012KT 9999 SCT015
                      PROB30 TEMPO 2106 8000 SHRA B KN015 BKN025=
200801082300 TAF LMML 082300Z 090606 04008KT 9999 SCT018
                      PROB30 TEMPO 0606 8000 SHRA B KN015=
200801081700 TAF LMML 081700Z 090024 05007KT 9999 SCT015 BKN200
                      PROB 30
                      TEMPO 0024 BKN 015
                      PROB30 TEMPO 0007 7000 BKN007=
200801081100 TAF LMML 081100Z 081818 04006KT 9999 SCT012 BKN200
                      TEMPO 1818 BKN013
                      PROB 30
                      TEMPO 2006 6000 BKN006=
200801080500 TAF LMML 080500Z 081212 04010KT 9999 SCT025
                      TEMPO 1812 FEW012 BKN018=
200801072300 TAF LMML 072300Z 080606 31008KT 9999 SCT025
                      BECMG 1215 06010KT
                      PROB30 TEM PO 1806 BKN015=
200801071700 TAF LMML 071700Z 080024 30010KT 9999 SCT015
                      TEMPO 0009 8000 BNK013=
200801071100 TAF LMML 071100Z 071818 30013KT 9999 SCT015
                      TEMPO 1808 BKN015
                      BECMG 1114 06010KT=
200801070500 TAF LMML 070500Z 071212 31010KT 9999 FEW025
                      BECMG 2024 SCT025=
200801062300 TAF LMML 062300Z 070606 30010KT 9999 SCT025=
200801061700 TAF LMML 061700Z 070024 30012KT 9999 FEW025=
200801061100 TAF LMML 061100Z 061818 30010KT 9999 FEW025=
200801060500 TAF LMML 060500Z 061212 15005KT 9999 SCT020
                      BECMG 0609 30010KT
                      PROB30 TEM PO 0306 BKN011=
200801052300 TAF LMML 052300Z 060606 15005KT 9999 SCT020
                      BECMG 0306 30010KT
                      PROB30 TEM PO 0006 BKN012=
200801051700 TAF LMML 051700Z 060024 15015KT 9999 SCT020
                      BECMG 0610 14005KT=
200801051100 TAF LMML 051100Z 051818 15015KT 9999 FEW020
                      BECMG 0610 14005KT=
200801050500 TAF LMML 050500Z 051212 15015G25KT CAVOK
                      PROB30 TEMPO 1812 SCT025=
200801042300 TAF LMML 042300Z 050606 15015KT 9999 FEW025=
200801041700 TAF LMML 041700Z 050024 13013KT 9999 FEW020 BKN150=
200801041100 LMML 041100Z 041818 15013KT 9999 FEW015 BKN150=
200801040500 TAF LMML 040500Z 041212 15015KT 9999 SCT025=
200801032300 TAF LMML 032300Z 040606 18016KT 9999 FEW025=
200801031700 TAF LMML 031700Z 040024 19015KT 9999 FEW025=
200801031100 TAF LMML 031100Z 031818 20008KT 9999 FEW030
                      BECMG 1215 14015KT=
200801030500 TAF LMML 030500Z 031212 23015KT 9999 SCT025=
200801022300 TAF LMML 022300Z 030606 23015KT 9999 SCT025=
200801021700 TAF LMML 021700Z 030024 24015KT 9999 SCT025=
200801021100 TAF LMML 021100Z 021818 26013KT 9999 SCT025=
200801020500 TAF LMML 020500Z 020500 30010KT 9999 FEW030=
200801012300 TAF LMML 012300Z 020606 31012KT 9999 FEW030
                      BECMG 1113 26012KT=
200801011700 TAF LMML 011700Z 020024 32012KT 9999 SCT025
                      BECMG 0812 29012KT=
200801011100 TAF LMML 011100Z 011818 33012KT 9999 SCT020
                      BECMG 0812 29012KT=
200801010500 TAF LMML 010500Z 011212 33010KT 9999 SCT018=
