##########################################################
# Query made at 01/18/2013 15:54:39 UTC
# Time interval: from 01/01/2010 00:00  to 01/31/2010 23:59  UTC
##########################################################

##########################################################
# LMML, Luqa (Malta)
# WMO index: 16597
# Latitude 35-51N. Longitude 014-29E. Altitude 91 m.
##########################################################

###################################
#  METAR/SPECI from LMML
###################################
201001312315 METAR LMML 312315Z 22009KT 190V260 CAVOK 13/09 Q1010 NOSIG=
201001312300 METAR LMML NIL=
201001312245 METAR LMML 312245Z 23010KT 190V270 CAVOK 13/09 Q1010 NOSIG=
201001312230 METAR LMML NIL=
201001312215 METAR LMML 312215Z 23009KT 200V270 9999 FEW025 13/08 Q1010
                        NOSIG=
201001312200 METAR LMML NIL=
201001312145 METAR LMML 312145Z 23008KT 190V270 9999 FEW025 13/08 Q1010
                        NOSIG=
201001312130 METAR LMML NIL=
201001312115 METAR LMML 312115Z 23008KT 180V270 9999 FEW025 13/08 Q1010
                        NOSIG=
201001312100 METAR LMML NIL=
201001312045 METAR LMML 312045Z 22008KT 190V270 9999 FEW026 13/08 Q1010
                        NOSIG=
201001312015 METAR LMML 312015Z 22008KT 200V270 9999 FEW028 13/08 Q1010
                        NOSIG=
201001312000 METAR LMML NIL=
201001311945 METAR LMML 311945Z 23008KT 190V290 9999 FEW030 13/07 Q1010
                        NOSIG=
201001311930 METAR LMML NIL=
201001311915 METAR LMML 311915Z 23010KT 190V270 9999 FEW033 13/07 Q1010
                        NOSIG=
201001311900 METAR LMML NIL=
201001311845 METAR LMML 311845Z 23009KT 170V270 9999 FEW032 13/08 Q1010
                        NOSIG=
201001311830 METAR LMML NIL=
201001311815 METAR LMML 311815Z 22008KT 180V270 9999 FEW034 13/07 Q1010
                        NOSIG=
201001311800 METAR LMML NIL=
201001311745 METAR LMML 311745Z 22008KT 190V270 9999 FEW035 13/07 Q1010
                        NOSIG=
201001311715 METAR LMML 311715Z 23011KT 190V290 9999 FEW034 13/06 Q1010
                        NOSIG=
201001311700 METAR LMML NIL=
201001311645 METAR LMML 311645Z 23011KT 200V270 9999 FEW034 13/06 Q1010
                        NOSIG=
201001311615 METAR LMML 311615Z 24009KT 190V280 9999 FEW034 13/07 Q1010
                        NOSIG=
201001311545 METAR LMML 311545Z 24010KT 200V280 9999 FEW033 14/06 Q1010
                        NOSIG=
201001311515 METAR LMML 311515Z 23011KT 190V280 9999 FEW033 14/06 Q1010
                        NOSIG=
201001311445 METAR LMML 311445Z 24011KT 190V290 9999 FEW033 14/06 Q1009
                        NOSIG=
201001311430 METAR LMML NIL=
201001311415 METAR LMML 311415Z 24012KT 210V290 9999 FEW033 14/06 Q1010
                        NOSIG=
201001311400 METAR LMML NIL=
201001311345 METAR LMML 311345Z 24012KT 200V280 9999 FEW033 15/07 Q1009
                        NOSIG=
201001311330 METAR LMML NIL=
201001311315 METAR LMML 311315Z 24011KT 190V290 9999 SCT035 15/07 Q1009
                        NOSIG=
201001311300 METAR LMML NIL=
201001311245 METAR LMML 311245Z 24012KT 200V280 9999 SCT033 14/07 Q1009
                        NOSIG=
201001311230 METAR LMML NIL=
201001311215 METAR LMML 311215Z 24012KT 200V280 9999 SCT035 15/07 Q1009
                        NOSIG=
201001311200 METAR LMML NIL=
201001311145 METAR LMML 311145Z 24013KT 190V290 9999 SCT034 14/06 Q1010
                        NOSIG=
201001311130 METAR LMML NIL=
201001311115 METAR LMML 311115Z 24012KT 200V280 9999 SCT034 15/07 Q1010
                        NOSIG=
201001311100 METAR LMML NIL=
201001311045 METAR LMML 311045Z 25010KT 220V290 9999 SCT038 14/06 Q1010
                        NOSIG=
201001311030 METAR LMML NIL=
201001311015 METAR LMML 311015Z 25012KT 210V280 9999 SCT036 14/06 Q1010
                        NOSIG=
201001311000 METAR LMML NIL=
201001310945 METAR LMML 310945Z 25012KT 200V300 9999 SCT036 14/06 Q1010
                        NOSIG=
201001310930 METAR LMML NIL=
201001310915 METAR LMML 310915Z 26011KT 220V280 9999 FEW036 13/05 Q1010
                        NOSIG=
201001310900 METAR LMML NIL=
201001310845 METAR LMML 310845Z 27011KT 240V310 9999 FEW036 13/05 Q1010
                        NOSIG=
201001310830 METAR LMML NIL=
201001310815 METAR LMML 310815Z 27009KT 230V310 9999 FEW035 13/06 Q1010
                        NOSIG=
201001310800 METAR LMML NIL=
201001310745 METAR LMML 310745Z 28008KT 240V320 9999 FEW034 13/06 Q1009
                        NOSIG=
201001310730 METAR LMML NIL=
201001310715 METAR LMML 310715Z 27008KT 240V300 9999 FEW034 12/05 Q1009
                        NOSIG=
201001310700 METAR LMML NIL=
201001310645 METAR LMML 310645Z 27009KT 240V300 9999 FEW034 11/05 Q1008
                        NOSIG=
201001310630 METAR LMML NIL=
201001310615 METAR LMML 310615Z 28009KT 240V310 9999 FEW034 11/05 Q1008
                        NOSIG=
201001310600 METAR LMML NIL=
201001310545 METAR LMML 310545Z 28009KT 250V310 9999 FEW035 11/05 Q1007
                        NOSIG=
201001310530 METAR LMML NIL=
201001310515 METAR LMML 310515Z 29011KT 270V330 9999 SCT033 11/05 Q1007
                        NOSIG=
201001310500 METAR LMML NIL=
201001310445 METAR LMML 310445Z 29012KT 260V320 9999 SCT036 11/04 Q1007
                        NOSIG=
201001310430 METAR LMML NIL=
201001310415 METAR LMML 310415Z 30014KT 9999 SCT039 11/04 Q1006 NOSIG=
201001310400 METAR LMML NIL=
201001310345 METAR LMML 310345Z 28016KT 250V320 9999 SCT039 11/05 Q1006
                        NOSIG=
201001310330 METAR LMML NIL=
201001310315 METAR LMML 310315Z 29016KT 260V330 9999 SCT031 11/05 Q1006
                        TEMPO 28025KT 8000 SHRA=
201001310300 METAR LMML NIL=
201001310245 METAR LMML 310245Z 29019KT 250V320 9999 BKN030 12/06 Q1005
                        TEMPO 28025KT 8000 SHRA=
201001310230 METAR LMML NIL=
201001310215 METAR LMML 310215Z 29018KT 260V320 9999 SCT026 11/07 Q1005
                        TEMPO 28025KT 8000 SHRA=
201001310145 METAR LMML 310145Z 29022KT 9999 SCT029 12/07 Q1005 TEMPO
                        28025KT 8000 SHRA=
201001310130 METAR LMML NIL=
201001310115 METAR LMML 310115Z 28020G30KT 250V310 9999 SCT027 12/07 Q1005
                        TEMPO 28025KT 8000 SHRA=
201001310100 METAR LMML NIL=
201001310045 METAR LMML 310045Z 28017KT 240V320 9999 SCT027 11/07 Q1005
                        TEMPO 28025KT 8000 SHRA=
201001310030 METAR LMML NIL=
201001310015 METAR LMML 310015Z 28015KT 240V330 9999 -SHRA BKN037 12/06
                        Q1004 TEMPO 28025KT 8000 SHRA=
201001310000 METAR LMML NIL=
201001302345 METAR LMML 302345Z 28014KT 250V320 9999 FEW032 12/06 Q1004
                        TEMPO 28025KT 8000 SHRA=
201001302330 METAR LMML NIL=
201001302315 METAR LMML 302315Z 28016KT 250V310 9999 FEW027 12/06 Q1004
                        TEMPO 28025KT 8000 SHRA=
201001302245 METAR LMML 302245Z 28018G28KT 240V310 9999 FEW029 12/07 Q1004
                        TEMPO 28025KT 8000 SHRA=
201001302230 METAR LMML NIL=
201001302215 METAR LMML 302215Z 27019KT 240V310 9999 FEW028 12/07 Q1004
                        TEMPO 28025KT 8000 SHRA=
201001302200 METAR LMML NIL=
201001302145 METAR LMML 302145Z 25012G22KT 210V290 9999 SCT019 12/08 Q1003
                        TEMPO 28025KT 8000 SHRA=
201001302115 METAR LMML 302115Z 25013KT 210V290 9999 SCT019 11/08 Q1003
                        RETS TEMPO 28025KT=
201001302100 METAR LMML NIL=
201001302045 METAR LMML 302045Z 24011KT 220V290 9999 FEW023CB SCT044 BKN120
                        11/07 Q1003 RETS TEMPO 28025KT=
201001302030 METAR LMML NIL=
201001302030 SPECI LMML 302030Z 26012KT 200V290 9999 FEW023CB SCT045 10/06
                        Q1003 RETS TEMPO 28025KT=
201001302015 METAR LMML 302015Z 28020KT 250V310 7000 TSRA SCT023CB SCT025TCU
                        11/08 Q1003 TEMPO 28025KT 5000 TSGR
                        SCT015CB=
201001302000 METAR LMML NIL=
201001301945 METAR LMML 301945Z 26009KT 230V300 9999 TS FEW020CB SCT250
                        11/08 Q1003 TEMPO 28025KT 5000 TSGR
                        SCT015CB=
201001301930 METAR LMML NIL=
201001301915 METAR LMML 301915Z 27006KT 220V300 9999 TSRA FEW020CB SCT031
                        11/08 Q1002 TEMPO 28025KT 5000 TSGR
                        SCT015CB=
201001301900 METAR LMML NIL=
201001301845 METAR LMML 301845Z 26006KT 220V290 9999 FEW020CB SCT025 11/08
                        Q1002 RETS TEMPO 28025KT 5000 TSGR
                        SCT015CB=
201001301830 METAR LMML NIL=
201001301815 METAR LMML 301815Z 26008KT 220V300 9999 TS FEW020CB BKN025
                        10/07 Q1002 TEMPO 5000 TSGR SCT015CB=
201001301800 METAR LMML NIL=
201001301745 METAR LMML 301745Z 25014G25KT 210V290 9999 TS SCT020CB SCT024
                        13/08 Q1002 TEMPO 6000 TSRA SCT015CB=
201001301733 SPECI LMML 301733Z 25012KT 210V280 9999 TS SCT020CB SCT025
                        13/08 Q1001 TEMPO 6000 TSRA SCT015CB=
201001301730 METAR LMML NIL=
201001301715 METAR LMML 301715Z 26013KT 210V290 9999 FEW020CB SCT025 13/07
                        Q1001 TEMPO 6000 TSRA SCT015CB RMK
                        LIGHTNING TO NORTHWEST=
201001301700 METAR LMML NIL=
201001301645 METAR LMML 301645Z 25011KT 190V290 9999 SCT024 BKN250 13/08
                        Q1001 TEMPO 7000 SHRA SCT015TCU=
201001301630 METAR LMML NIL=
201001301615 METAR LMML 301615Z 25011KT 210V290 9999 -SHRA SCT025 SCT080
                        13/08 Q1001 TEMPO 7000 SHRA SCT015TCU=
201001301600 METAR LMML NIL=
201001301545 METAR LMML 301545Z 25013KT 210V290 9999 FEW025 SCT250 14/07
                        Q1000 NOSIG=
201001301530 METAR LMML NIL=
201001301515 METAR LMML 301515Z 24013KT 200V280 9999 FEW025 14/08 Q1000
                        NOSIG=
201001301500 METAR LMML NIL=
201001301445 METAR LMML 301445Z 24012G22KT 200V290 9999 FEW027 SCT090
                        15/08 Q1000 NOSIG=
201001301430 METAR LMML NIL=
201001301415 METAR LMML 301415Z 23015KT 200V270 9999 FEW025 BKN090 15/08
                        Q1000 NOSIG=
201001301400 METAR LMML NIL=
201001301345 METAR LMML 301345Z 23014KT 200V280 9999 FEW025 BKN080 14/08
                        Q1000 NOSIG=
201001301330 METAR LMML NIL=
201001301315 METAR LMML 301315Z 23014KT 200V290 9999 FEW025 SCT080 15/09
                        Q1000 NOSIG=
201001301300 METAR LMML NIL=
201001301245 METAR LMML 301245Z 23012KT 190V280 9999 FEW025 BKN080 15/08
                        Q1000 NOSIG=
201001301230 METAR LMML NIL=
201001301215 METAR LMML 301215Z 24012KT 200V280 9999 FEW025 BKN080 14/09
                        Q1001 NOSIG=
201001301200 METAR LMML NIL=
201001301145 METAR LMML 301145Z 23012KT 200V280 9999 FEW025 BKN080 15/09
                        Q1001 NOSIG=
201001301130 METAR LMML NIL=
201001301115 METAR LMML 301115Z 24014KT 200V290 9999 FEW025 SCT080 15/09
                        Q1001 NOSIG=
201001301100 METAR LMML NIL=
201001301045 METAR LMML 301045Z 24012KT 190V300 9999 FEW025 15/09 Q1001
                        NOSIG=
201001301030 METAR LMML NIL=
201001301015 METAR LMML 301015Z 24011KT 200V280 9999 FEW025 15/08 Q1002
                        NOSIG=
201001301000 METAR LMML NIL=
201001300945 METAR LMML 300945Z 24013KT 210V280 9999 FEW025 15/07 Q1002
                        NOSIG=
201001300915 METAR LMML 300915Z 24012KT 200V270 9999 FEW026 14/07 Q1002
                        NOSIG=
201001300900 METAR LMML NIL=
201001300845 METAR LMML 300845Z 23010KT 200V280 9999 FEW026 13/07 Q1002
                        NOSIG=
201001300830 METAR LMML NIL=
201001300815 METAR LMML 300815Z 29011KT 9999 SCT026 SCT045 11/08 Q1002
                        TEMPO 7000 SHRA BKN020TCU=
201001300800 METAR LMML NIL=
201001300745 METAR LMML 300745Z 23009KT 200V280 9999 BKN026 14/08 Q1002
                        TEMPO 9000 SHRA=
201001300730 METAR LMML NIL=
201001300715 METAR LMML 300715Z 23011KT 190V270 9999 SCT026 14/08 Q1002
                        TEMPO 9000 SHRA=
201001300700 METAR LMML NIL=
201001300645 METAR LMML 300645Z 24008KT 200V290 9999 SCT023 SCT070 13/09
                        Q1002 TEMPO 9000 SHRA=
201001300630 METAR LMML NIL=
201001300615 METAR LMML 300615Z 23009KT 200V280 9999 SCT026 SCT070 13/08
                        Q1002 TEMPO 9000 SHRA=
201001300600 METAR LMML NIL=
201001300545 METAR LMML 300545Z 23010KT 200V270 9999 FEW026 BKN060 13/08
                        Q1002 TEMPO 9000 SHRA=
201001300515 METAR LMML 300515Z 23011KT 210V280 9999 SCT026 13/09 Q1002
                        NOSIG RMK RVR UNRELIABLE=
201001300500 METAR LMML NIL=
201001300445 METAR LMML 300445Z 24011KT 210V280 9999 SCT028 13/08 Q1002
                        NOSIG=
201001300430 METAR LMML NIL=
201001300415 METAR LMML 300415Z 24012KT 190V280 9999 SCT028 13/08 Q1002
                        NOSIG=
201001300400 METAR LMML NIL=
201001300345 METAR LMML 300345Z 24012KT 200V280 9999 SCT028 13/08 Q1002
                        NOSIG=
201001300330 METAR LMML NIL=
201001300315 METAR LMML 300315Z 24012KT 200V280 9999 SCT029 13/08 Q1002
                        NOSIG=
201001300300 METAR LMML NIL=
201001300245 METAR LMML 300245Z 24012KT 200V280 9999 SCT029 13/08 Q1002
                        NOSIG=
201001300230 METAR LMML NIL=
201001300215 METAR LMML 300215Z 24011KT 200V280 9999 BKN031 13/08 Q1003
                        NOSIG=
201001300200 METAR LMML NIL=
201001300145 METAR LMML 300145Z 23012KT 200V270 9999 SCT031 13/08 Q1003
                        NOSIG=
201001300130 METAR LMML NIL=
201001300115 METAR LMML 300115Z 24012KT 200V280 9999 SCT033 12/07 Q1003
                        NOSIG=
201001300100 METAR LMML NIL=
201001300045 METAR LMML 300045Z 24010KT 190V300 9999 FEW030 12/06 Q1004
                        NOSIG=
201001300015 METAR LMML 300015Z 24011KT 210V290 9999 FEW030 12/07 Q1004
                        NOSIG=
201001292345 METAR LMML 292345Z 24011KT 200V280 9999 FEW029 12/07 Q1004
                        NOSIG=
201001292330 METAR LMML NIL=
201001292315 METAR LMML 292315Z 24010KT 200V280 9999 FEW027 SCT050 12/07
                        Q1004 NOSIG=
201001292245 METAR LMML 292245Z 24010KT 210V280 9999 FEW028 SCT050 12/07
                        Q1004 TEMPO 9000 SHRA=
201001292230 METAR LMML NIL=
201001292215 METAR LMML 292215Z 25010KT 210V300 9999 FEW030 SCT050 12/07
                        Q1004 TEMPO 9000 SHRA=
201001292145 METAR LMML 292145Z 26006KT 9999 SCT025 SCT090 11/07 Q1004
                        TEMPO 9000 SHRA=
201001292115 METAR LMML 292115Z 27008KT 9999 SCT024 SCT090 11/06 Q1004
                        TEMPO 9000 SHRA RMK RVR UNRELIABLE=
201001292045 METAR LMML 292045Z 27009KT 240V320 9999 SCT031 11/07 Q1004
                        TEMPO 8000 SHRA=
201001292030 METAR LMML NIL=
201001292015 METAR LMML 292015Z 26006KT 230V290 9999 SCT029 11/07 Q1004
                        TEMPO 8000 SHRA RMK RVR UNRELIABLE=
201001292000 METAR LMML NIL=
201001291945 METAR LMML 291945Z 29009KT 9999 SCT029 11/07 Q1004 TEMPO
                        8000 SHRA=
201001291930 METAR LMML NIL=
201001291915 METAR LMML 291915Z 29007KT 9999 SCT029 SCT090 11/08 Q1004
                        NOSIG=
201001291900 METAR LMML NIL=
201001291845 METAR LMML 291845Z 29010KT 240V340 9999 SCT026 SCT090 11/07
                        Q1004 TEMPO 7000 SHRA=
201001291830 METAR LMML NIL=
201001291815 METAR LMML 291815Z 31010KT 9999 SCT026 SCT050 11/08 Q1004
                        TEMPO 7000 SHRA=
201001291800 METAR LMML NIL=
201001291745 METAR LMML 291745Z 28006KT 9999 BKN027 11/08 Q1003 TEMPO
                        7000 SHRA=
201001291715 METAR LMML 291715Z 28009KT 9999 BKN025 11/08 Q1003 TEMPO
                        7000 SHRA=
201001291645 METAR LMML 291645Z 31008KT 9999 SCT021 11/09 Q1003 TEMPO
                        7000 SHRA=
201001291630 METAR LMML NIL=
201001291615 METAR LMML 291615Z 31009KT 270V340 9999 BKN023 SCT056 11/08
                        Q1002 TEMPO 7000 SHRA=
201001291600 METAR LMML NIL=
201001291545 METAR LMML 291545Z 28006KT 250V310 9999 BKN025 BKN050 11/08
                        Q1002 TEMPO 7000 SHRA=
201001291530 METAR LMML NIL=
201001291515 METAR LMML 291515Z 30010KT 270V330 9999 BKN028 BKN060 11/08
                        Q1002 TEMPO 7000 SHRA=
201001291500 METAR LMML NIL=
201001291445 METAR LMML 291445Z 32011KT 9000 -SHRA BKN019 11/08 Q1002
                        TEMPO 7000 SHRA=
201001291430 METAR LMML NIL=
201001291415 METAR LMML 291415Z 31013KT 9999 SCT022 SCT060 12/09 Q1002
                        TEMPO 7000 SHRA=
201001291400 METAR LMML NIL=
201001291345 METAR LMML 291345Z 31015KT 270V330 6000 -SHRA BKN020 12/09
                        Q1002 BECMG 9999=
201001291330 METAR LMML NIL=
201001291315 METAR LMML 291315Z 28016KT 250V310 9999 SCT029 13/08 Q1002
                        TEMPO 7000 SHRA=
201001291300 METAR LMML NIL=
201001291245 METAR LMML 291245Z 29016KT 240V320 9999 FEW028 SCT049 13/08
                        Q1002 NOSIG=
201001291230 METAR LMML NIL=
201001291215 METAR LMML 291215Z 30019KT 9999 FEW028 BKN047 12/07 Q1002
                        NOSIG=
201001291200 METAR LMML NIL=
201001291145 METAR LMML 291145Z 29009KT 250V320 9999 -RA FEW028 BKN050
                        11/09 Q1003 NOSIG=
201001291134 SPECI LMML 291134Z 29009KT 250V320 9999 BKN019 11/09 Q1003
                        NOSIG=
201001291130 METAR LMML NIL=
201001291115 METAR LMML 291115Z 29015G28KT 230V330 9000 -SHRA BKN019 12/09
                        Q1004 BECMG 9999=
201001291100 METAR LMML NIL=
201001291045 METAR LMML 291045Z 28012KT 230V310 9999 -RA FEW023 SCT060
                        BKN080 13/09 Q1004 TEMPO 8000 SHRA=
201001291030 METAR LMML NIL=
201001291015 METAR LMML 291015Z 28012KT 250V310 9999 FEW029 BKN050 12/08
                        Q1004 RESHRA TEMPO SHRA=
201001291000 METAR LMML NIL=
201001291000 SPECI LMML 291000Z 29009KT 260V320 9999 BKN023 11/08 Q1004
                        RESHRA TEMPO SHRA=
201001290945 METAR LMML 290945Z 28018G31KT 250V320 6000 SHRA BKN023 13/09
                        Q1005 TEMPO SHRA=
201001290930 METAR LMML NIL=
201001290915 METAR LMML 290915Z 29015KT 9999 SCT024 13/07 Q1004 TEMPO
                        SHRA=
201001290900 METAR LMML NIL=
201001290845 METAR LMML 290845Z 30013KT 9999 SCT024 12/08 Q1004 TEMPO
                        SHRA=
201001290830 METAR LMML NIL=
201001290815 METAR LMML 290815Z 28016KT 9999 SCT024 13/07 Q1004 TEMPO
                        SHRA=
201001290800 METAR LMML NIL=
201001290745 METAR LMML 290745Z 29012KT 9999 FEW024 12/08 Q1004 TEMPO
                        SHRA=
201001290730 METAR LMML NIL=
201001290715 METAR LMML 290715Z 29011KT 9999 SCT025 12/08 Q1004 TEMPO
                        SHRA=
201001290700 METAR LMML NIL=
201001290645 METAR LMML 290645Z 28012KT 9999 -SHRA SCT025 12/07 Q1004
                        NOSIG=
201001290630 METAR LMML NIL=
201001290615 METAR LMML 290615Z 27008KT 240V300 9999 SCT029 11/07 Q1004
                        NOSIG=
201001290600 METAR LMML NIL=
201001290545 METAR LMML 290545Z 27008KT 240V300 9999 FEW027 11/07 Q1004
                        NOSIG=
201001290530 METAR LMML NIL=
201001290515 METAR LMML 290515Z 29012KT 260V320 9999 FEW037 11/07 Q1004
                        NOSIG=
201001290500 METAR LMML NIL=
201001290445 METAR LMML 290445Z 28014KT 9999 SCT024 BKN060 11/08 Q1004
                        NOSIG=
201001290430 METAR LMML NIL=
201001290415 METAR LMML 290415Z 29013KT 250V330 9999 -SHRA SCT027 BKN050
                        12/08 Q1004 NOSIG=
201001290400 METAR LMML NIL=
201001290345 METAR LMML 290345Z 28011KT 250V310 9999 FEW028 BKN050 12/07
                        Q1004 NOSIG=
201001290330 METAR LMML NIL=
201001290315 METAR LMML 290315Z 28012KT 250V310 9999 SCT027 12/07 Q1004
                        NOSIG=
201001290300 METAR LMML NIL=
201001290245 METAR LMML 290245Z 29012KT 260V320 9999 SCT030 12/06 Q1004
                        NOSIG=
201001290230 METAR LMML NIL=
201001290215 METAR LMML 290215Z 28012KT 250V310 9999 SCT035 12/06 Q1005
                        NOSIG=
201001290200 METAR LMML NIL=
201001290145 METAR LMML 290145Z 28012KT 9999 SCT030 11/06 Q1005 NOSIG=
201001290130 METAR LMML NIL=
201001290115 METAR LMML 290115Z 28011KT 250V310 9999 SCT030 12/07 Q1005
                        NOSIG=
201001290100 METAR LMML NIL=
201001290045 METAR LMML 290045Z 28012KT 250V320 9999 SCT029 12/07 Q1005
                        NOSIG=
201001290030 METAR LMML NIL=
201001290015 METAR LMML 290015Z 29011KT 9999 SCT029 12/06 Q1006 NOSIG=
201001290000 METAR LMML NIL=
201001282345 METAR LMML 282345Z 28013KT 250V310 9999 SCT030 11/06 Q1006
                        NOSIG=
201001282330 METAR LMML NIL=
201001282315 METAR LMML 282315Z 28009KT 250V310 9999 SCT035 12/06 Q1006
                        NOSIG=
201001282300 METAR LMML NIL=
201001282245 METAR LMML 282245Z 29014KT 9999 FEW028 SCT250 12/06 Q1007
                        NOSIG=
201001282230 METAR LMML NIL=
201001282215 METAR LMML 282215Z 29015KT 260V330 9999 SCT028 BKN250 12/07
                        Q1007 NOSIG=
201001282200 METAR LMML NIL=
201001282145 METAR LMML 282145Z 29015KT 260V320 9999 SCT022 BKN250 13/09
                        Q1007 NOSIG=
201001282130 METAR LMML NIL=
201001282115 METAR LMML 282115Z 28014KT 250V320 9999 SCT030 SCT060 BKN250
                        13/08 Q1007 NOSIG=
201001282100 METAR LMML NIL=
201001282045 METAR LMML 282045Z 28010KT 240V310 9999 FEW023 BKN250 12/10
                        Q1007 NOSIG=
201001282030 METAR LMML NIL=
201001282015 METAR LMML 282015Z 28012KT 250V310 9999 FEW018 BKN250 12/09
                        Q1007 NOSIG=
201001282000 METAR LMML NIL=
201001281945 METAR LMML 281945Z 28013KT 9999 SCT026 12/09 Q1007 TEMPO
                        9000 -SHRA=
201001281930 METAR LMML NIL=
201001281915 METAR LMML 281915Z 27009KT 240V300 9999 SCT019 12/10 Q1007
                        TEMPO 9000 -SHRA=
201001281900 METAR LMML NIL=
201001281845 METAR LMML 281845Z 28010KT 240V300 9999 -SHRA FEW022 SCT040
                        13/10 Q1007 TEMPO 9000 -SHRA=
201001281830 METAR LMML NIL=
201001281815 METAR LMML 281815Z 28009KT 240V300 9999 FEW020 12/09 Q1007
                        NOSIG=
201001281800 METAR LMML NIL=
201001281745 METAR LMML 281745Z 28011KT 240V300 9999 FEW022 BKN250 12/09
                        Q1007 NOSIG=
201001281730 METAR LMML NIL=
201001281715 METAR LMML 281715Z 28012KT 9999 FEW022 BKN250 12/08 Q1007
                        NOSIG=
201001281700 METAR LMML NIL=
201001281645 METAR LMML 281645Z 29012KT 250V310 9999 FEW022 BKN250 12/08
                        Q1007 NOSIG=
201001281630 METAR LMML NIL=
201001281615 METAR LMML 281615Z 29011KT 260V320 9999 FEW026 BKN250 13/09
                        Q1007 NOSIG=
201001281600 METAR LMML NIL=
201001281545 METAR LMML 281545Z 29013KT 260V320 9999 SCT022 BKN250 13/09
                        Q1007 NOSIG=
201001281530 METAR LMML NIL=
201001281515 METAR LMML 281515Z 29013KT 260V320 9999 SCT020 SCT250 13/09
                        Q1007 NOSIG=
201001281500 METAR LMML NIL=
201001281445 METAR LMML 281445Z 29013KT 9999 SCT033 SCT250 14/09 Q1007
                        NOSIG=
201001281430 METAR LMML NIL=
201001281415 METAR LMML 281415Z 30014KT 240V330 9999 SCT020 SCT250 14/10
                        Q1007 NOSIG=
201001281400 METAR LMML NIL=
201001281345 METAR LMML 281345Z 30015KT 270V330 9999 SCT021 SCT250 15/10
                        Q1008 NOSIG=
201001281330 METAR LMML NIL=
201001281315 METAR LMML 281315Z 29014KT 9999 SCT021 SCT250 15/10 Q1008
                        NOSIG=
201001281300 METAR LMML NIL=
201001281245 METAR LMML 281245Z 28013KT 250V310 9999 SCT019 SCT250 15/10
                        Q1008 NOSIG=
201001281230 METAR LMML NIL=
201001281215 METAR LMML 281215Z 30011KT 270V330 9999 SCT019 SCT250 15/11
                        Q1008 NOSIG=
201001281200 METAR LMML NIL=
201001281145 METAR LMML 281145Z 29012KT 260V320 9999 SCT021 SCT250 15/10
                        Q1008 NOSIG=
201001281130 METAR LMML NIL=
201001281115 METAR LMML 281115Z 28013KT 250V320 9999 SCT019 SCT250 16/11
                        Q1009 NOSIG=
201001281100 METAR LMML NIL=
201001281045 METAR LMML 281045Z 28012KT 260V320 9999 SCT021 SCT250 16/11
                        Q1009 NOSIG=
201001281030 METAR LMML NIL=
201001281015 METAR LMML 281015Z 30011KT 9999 SCT020 16/11 Q1010 NOSIG=
201001281000 METAR LMML NIL=
201001280945 METAR LMML 280945Z 30011KT 270V330 9999 SCT019 16/11 Q1010
                        NOSIG=
201001280930 METAR LMML NIL=
201001280915 METAR LMML 280915Z 31012KT 9999 FEW014 15/11 Q1010 NOSIG=
201001280900 METAR LMML NIL=
201001280845 METAR LMML 280845Z 32011KT 9999 FEW014 14/11 Q1009 NOSIG=
201001280830 METAR LMML NIL=
201001280815 METAR LMML 280815Z 32011KT 9999 FEW020 14/11 Q1009 NOSIG=
201001280800 METAR LMML NIL=
201001280745 METAR LMML 280745Z 32009KT 9999 FEW020 13/11 Q1009 NOSIG=
201001280730 METAR LMML NIL=
201001280715 METAR LMML 280715Z 31010KT 9999 FEW020 13/11 Q1009 NOSIG=
201001280700 METAR LMML NIL=
201001280645 METAR LMML 280645Z 29010KT 270V330 9999 FEW020 13/10 Q1009
                        NOSIG=
201001280630 METAR LMML NIL=
201001280615 METAR LMML 280615Z 29010KT 260V320 9999 FEW020 13/10 Q1009
                        NOSIG=
201001280600 METAR LMML NIL=
201001280545 METAR LMML 280545Z 28008KT 250V320 9999 FEW020 12/11 Q1009
                        NOSIG=
201001280530 METAR LMML NIL=
201001280515 METAR LMML 280515Z 28011KT 9000 FEW020 13/11 Q1008 NOSIG=
201001280500 METAR LMML NIL=
201001280445 METAR LMML 280445Z 28007KT 250V320 7000 FEW020 12/11 Q1008
                        NOSIG=
201001280430 METAR LMML NIL=
201001280415 METAR LMML 280415Z 27007KT 250V310 7000 FEW020 12/11 Q1008
                        NOSIG=
201001280400 METAR LMML NIL=
201001280345 METAR LMML 280345Z 27006KT 240V320 7000 NSC 12/11 Q1008 NOSIG=
201001280330 METAR LMML NIL=
201001280315 METAR LMML 280315Z 30007KT 7000 NSC 12/11 Q1008 NOSIG=
201001280300 METAR LMML NIL=
201001280245 METAR LMML 280245Z 29005KT 7000 NSC 12/11 Q1008 NOSIG=
201001280230 METAR LMML NIL=
201001280215 METAR LMML 280215Z 30006KT 7000 NSC 12/11 Q1008 NOSIG=
201001280200 METAR LMML NIL=
201001280145 METAR LMML 280145Z 28007KT 8000 FEW020 12/11 Q1009 NOSIG=
201001280115 METAR LMML 280115Z 29008KT 8000 FEW020 12/11 Q1009 NOSIG=
201001280100 METAR LMML NIL=
201001280045 METAR LMML 280045Z 30006KT 8000 FEW020 12/10 Q1009 NOSIG=
201001280030 METAR LMML NIL=
201001280015 METAR LMML 280015Z 28006KT 250V320 8000 FEW020 12/10 Q1009
                        NOSIG=
201001280000 METAR LMML NIL=
201001272345 METAR LMML 272345Z 28007KT 8000 FEW020 12/10 Q1009 NOSIG=
201001272330 METAR LMML NIL=
201001272315 METAR LMML 272315Z 28005KT 250V310 8000 FEW020 12/10 Q1009
                        NOSIG=
201001272300 METAR LMML NIL=
201001272245 METAR LMML 272245Z 27005KT 240V310 8000 FEW020 12/10 Q1009
                        NOSIG=
201001272215 METAR LMML 272215Z 27006KT 230V310 8000 FEW020 12/10 Q1009
                        NOSIG=
201001272200 METAR LMML NIL=
201001272145 METAR LMML 272145Z 26004KT 8000 FEW020 11/09 Q1009 NOSIG=
201001272130 METAR LMML NIL=
201001272115 METAR LMML 272115Z 26004KT 8000 FEW020 12/10 Q1009 NOSIG=
201001272100 METAR LMML NIL=
201001272045 METAR LMML 272045Z 27004KT 8000 FEW019 12/10 Q1009 NOSIG=
201001272030 METAR LMML NIL=
201001272015 METAR LMML 272015Z 26004KT 230V290 8000 FEW019 12/09 Q1009
                        NOSIG=
201001272000 METAR LMML NIL=
201001271945 METAR LMML 271945Z 27005KT 230V300 8000 FEW019 12/10 Q1009
                        NOSIG=
201001271930 METAR LMML NIL=
201001271915 METAR LMML 271915Z VRB03KT 8000 FEW019 12/10 Q1008 NOSIG=
201001271900 METAR LMML NIL=
201001271845 METAR LMML 271845Z VRB03KT 8000 FEW029 12/10 Q1008 NOSIG=
201001271830 METAR LMML NIL=
201001271815 METAR LMML 271815Z VRB03KT 8000 FEW022 12/09 Q1008 NOSIG=
201001271800 METAR LMML NIL=
201001271745 METAR LMML 271745Z 25004KT 220V290 8000 FEW015 13/10 Q1008
                        NOSIG=
201001271730 METAR LMML NIL=
201001271715 METAR LMML 271715Z 24006KT 210V280 8000 FEW018 13/09 Q1007
                        NOSIG=
201001271700 METAR LMML NIL=
201001271645 METAR LMML 271645Z 25004KT 8000 FEW020 13/10 Q1007 NOSIG=
201001271630 METAR LMML NIL=
201001271615 METAR LMML 271615Z 26006KT 230V290 8000 FEW020 14/10 Q1007
                        NOSIG=
201001271600 METAR LMML NIL=
201001271545 METAR LMML 271545Z 26009KT 220V290 8000 FEW020 15/10 Q1007
                        NOSIG=
201001271530 METAR LMML NIL=
201001271515 METAR LMML 271515Z 26010KT 220V300 8000 FEW020 15/11 Q1006
                        NOSIG=
201001271500 METAR LMML NIL=
201001271445 METAR LMML 271445Z 27010KT 230V310 8000 SCT023 16/11 Q1006
                        NOSIG=
201001271430 METAR LMML NIL=
201001271415 METAR LMML 271415Z 26012KT 220V290 8000 SCT020 16/11 Q1006
                        BECMG 9999=
201001271400 METAR LMML NIL=
201001271345 METAR LMML 271345Z 24011KT 180V280 8000 SCT021 16/12 Q1006
                        BECMG 9999=
201001271330 METAR LMML NIL=
201001271315 METAR LMML 271315Z 25010KT 200V300 8000 FEW024 17/11 Q1006
                        BECMG 9999=
201001271300 METAR LMML NIL=
201001271245 METAR LMML 271245Z 24011KT 200V300 8000 FEW027 17/10 Q1006
                        BECMG 9999=
201001271230 METAR LMML NIL=
201001271215 METAR LMML 271215Z 24009KT 190V310 8000 FEW020 17/11 Q1006
                        BECMG 9999=
201001271200 METAR LMML NIL=
201001271145 METAR LMML 271145Z 23010KT 190V280 8000 FEW020 17/11 Q1006
                        BECMG 9999=
201001271130 METAR LMML NIL=
201001271115 METAR LMML 271115Z 22010KT 180V260 6000 FEW020 17/12 Q1006
                        BECMG 9999=
201001271100 METAR LMML NIL=
201001271045 METAR LMML 271045Z 20007KT 150V250 3000 DU NSC 17/13 Q1006
                        BECMG 6000=
201001271030 METAR LMML NIL=
201001271015 METAR LMML 271015Z 19007KT 150V250 3000 DU NSC 17/13 Q1006
                        BECMG 6000=
201001271000 METAR LMML NIL=
201001270945 METAR LMML 270945Z 18008KT 160V220 3000 DU NSC 17/13 Q1006
                        BECMG 6000=
201001270915 METAR LMML 270915Z 18008KT 150V210 4000 DU NSC 16/13 Q1006
                        BECMG 7000=
201001270900 METAR LMML NIL=
201001270845 METAR LMML 270845Z 16010KT 140V200 4000 DU NSC 16/14 Q1006
                        BECMG 7000=
201001270830 METAR LMML NIL=
201001270815 METAR LMML 270815Z 16009KT 130V190 5000 DU NSC 16/13 Q1006
                        BECMG 7000=
201001270800 METAR LMML NIL=
201001270745 METAR LMML 270745Z 15011KT 130V190 5000 DU NSC 15/13 Q1006
                        BECMG 7000=
201001270730 METAR LMML NIL=
201001270715 METAR LMML 270715Z 15010KT 5000 DU NSC 15/13 Q1006 BECMG
                        7000=
201001270700 METAR LMML NIL=
201001270645 METAR LMML 270645Z 15010KT 5000 DU NSC 15/12 Q1006 NOSIG=
201001270630 METAR LMML NIL=
201001270615 METAR LMML 270615Z 15010KT 5000 DU NSC 15/12 Q1006 NOSIG=
201001270600 METAR LMML NIL=
201001270545 METAR LMML 270545Z 15010KT 120V180 7000 FEW026 15/12 Q1006
                        NOSIG=
201001270530 METAR LMML NIL=
201001270515 METAR LMML 270515Z 15011KT 7000 FEW026 15/12 Q1006 NOSIG=
201001270500 METAR LMML NIL=
201001270445 METAR LMML 270445Z 14011KT 7000 FEW026 15/12 Q1006 NOSIG=
201001270430 METAR LMML NIL=
201001270415 METAR LMML 270415Z 14012KT 7000 FEW026 15/12 Q1006 NOSIG=
201001270400 METAR LMML NIL=
201001270345 METAR LMML 270345Z 14013KT 7000 SCT027 15/12 Q1006 NOSIG=
201001270330 METAR LMML NIL=
201001270315 METAR LMML 270315Z 14015KT 7000 SCT025 15/12 Q1006 NOSIG=
201001270300 METAR LMML NIL=
201001270245 METAR LMML 270245Z 14013KT 110V170 7000 BKN025 15/12 Q1007
                        NOSIG=
201001270230 METAR LMML NIL=
201001270215 METAR LMML 270215Z 14015KT 120V180 6000 BKN025 BKN032 15/11
                        Q1007 NOSIG=
201001270200 METAR LMML NIL=
201001270145 METAR LMML 270145Z 15016KT 120V180 6000 BKN026 BKN032 15/11
                        Q1008 NOSIG=
201001270130 METAR LMML NIL=
201001270115 METAR LMML 270115Z 14017KT 5000 DU BKN027 BKN034 15/11 Q1008
                        NOSIG=
201001270100 METAR LMML NIL=
201001270045 METAR LMML 270045Z 15017KT 5000 DU BKN026 BKN031 15/11 Q1009
                        NOSIG=
201001270030 METAR LMML NIL=
201001270015 METAR LMML 270015Z 14015KT 110V180 5000 DU BKN024 BKN029
                        15/11 Q1009 NOSIG=
201001270000 METAR LMML NIL=
201001262345 METAR LMML 262345Z 14018KT 120V180 5000 DU BKN023 BKN033
                        15/11 Q1009 NOSIG=
201001262330 METAR LMML NIL=
201001262315 METAR LMML 262315Z 14015KT 110V170 5000 DU BKN021 BKN035
                        15/11 Q1010 NOSIG=
201001262300 METAR LMML NIL=
201001262245 METAR LMML 262245Z 14015KT 6000 BKN020 15/12 Q1010 NOSIG=
201001262215 METAR LMML 262215Z 14016KT 110V170 6000 BKN022 BKN034 15/11
                        Q1010 NOSIG=
201001262200 METAR LMML NIL=
201001262145 METAR LMML 262145Z 14021KT 110V170 6000 SCT022 BKN032 15/11
                        Q1011 NOSIG=
201001262130 METAR LMML NIL=
201001262115 METAR LMML 262115Z 13022KT 6000 SCT024 BKN039 15/11 Q1010
                        NOSIG=
201001262100 METAR LMML NIL=
201001262045 METAR LMML 262045Z 14021KT 7000 SCT024 BKN043 15/11 Q1011
                        NOSIG=
201001262030 METAR LMML NIL=
201001262015 METAR LMML 262015Z 13024KT 9999 SCT023 BKN047 14/10 Q1011
                        NOSIG=
201001262000 METAR LMML NIL=
201001261945 METAR LMML 261945Z 12023KT 9999 SCT023 BKN047 14/11 Q1010
                        NOSIG=
201001261930 METAR LMML NIL=
201001261915 METAR LMML 261915Z 13022KT 9999 BKN024 BKN035 14/10 Q1012
                        NOSIG=
201001261900 METAR LMML NIL=
201001261845 METAR LMML 261845Z 14022KT 110V170 9999 BKN027 OVC035 14/09
                        Q1012 NOSIG=
201001261830 METAR LMML NIL=
201001261815 METAR LMML 261815Z 13026KT 9999 BKN026 OVC037 14/09 Q1012
                        NOSIG=
201001261800 METAR LMML NIL=
201001261745 METAR LMML 261745Z 13026KT 9999 BKN024 BKN040 14/09 Q1012
                        NOSIG=
201001261730 METAR LMML NIL=
201001261715 METAR LMML 261715Z 13024KT 9999 BKN025 BKN040 14/10 Q1012
                        NOSIG=
201001261700 METAR LMML NIL=
201001261645 METAR LMML 261645Z 12024KT 9999 BKN025 BKN040 14/10 Q1012
                        NOSIG=
201001261630 METAR LMML NIL=
201001261615 METAR LMML 261615Z 13023KT 9999 BKN027 BKN040 14/09 Q1013
                        NOSIG=
201001261600 METAR LMML NIL=
201001261545 METAR LMML 261545Z 13023KT 9999 BKN025 BKN036 14/09 Q1013
                        NOSIG=
201001261530 METAR LMML NIL=
201001261515 METAR LMML 261515Z 13021KT 9999 SCT023 BKN040 14/10 Q1013
                        NOSIG=
201001261445 METAR LMML 261445Z 13024KT 9999 BKN027 OVC040 15/10 Q1013
                        NOSIG=
201001261430 METAR LMML NIL=
201001261415 METAR LMML 261415Z 12025KT 9999 BKN024 OVC040 14/10 Q1012
                        NOSIG=
201001261400 METAR LMML NIL=
201001261345 METAR LMML 261345Z 13021KT 110V170 9999 BKN023 OVC043 15/10
                        Q1014 NOSIG=
201001261330 METAR LMML NIL=
201001261315 METAR LMML 261315Z 13022KT 9999 SCT023 OVC040 15/10 Q1013
                        NOSIG=
201001261300 METAR LMML NIL=
201001261245 METAR LMML 261245Z 12023KT 9999 SCT024 OVC040 15/10 Q1014
                        NOSIG=
201001261230 METAR LMML NIL=
201001261215 METAR LMML 261215Z 13023KT 9999 SCT025 OVC040 15/10 Q1015
                        NOSIG=
201001261200 METAR LMML NIL=
201001261145 METAR LMML 261145Z 13019KT 9999 SCT028 BKN040 15/10 Q1016
                        NOSIG=
201001261115 METAR LMML 261115Z 13020KT 110V170 9999 FEW032 BKN250 16/10
                        Q1016 NOSIG=
201001261100 METAR LMML NIL=
201001261045 METAR LMML 261045Z 13022KT 9999 FEW027 BKN250 16/10 Q1017
                        NOSIG=
201001261030 METAR LMML NIL=
201001261015 METAR LMML 261015Z 13023KT 100V160 9999 FEW032 BKN250 16/10
                        Q1017 NOSIG=
201001261000 METAR LMML NIL=
201001260945 METAR LMML 260945Z 14019KT 110V170 9999 SCT027 BKN040 15/10
                        Q1018 NOSIG=
201001260930 METAR LMML NIL=
201001260915 METAR LMML 260915Z 14018KT 9999 SCT029 BKN040 15/10 Q1018
                        NOSIG=
201001260900 METAR LMML NIL=
201001260845 METAR LMML 260845Z 13019KT 110V170 9999 BKN032 15/10 Q1019
                        NOSIG=
201001260830 METAR LMML NIL=
201001260815 METAR LMML 260815Z 13019KT 9999 BKN028 14/09 Q1019 NOSIG=
201001260800 METAR LMML NIL=
201001260745 METAR LMML 260745Z 13019KT 9999 SCT036 SCT100 14/10 Q1019
                        NOSIG=
201001260715 METAR LMML 260715Z 14016KT 9999 SCT039 BKN100 14/10 Q1019
                        NOSIG=
201001260700 METAR LMML NIL=
201001260645 METAR LMML 260645Z 14014KT 9999 SCT038 BKN100 14/10 Q1019
                        NOSIG=
201001260630 METAR LMML NIL=
201001260615 METAR LMML 260615Z 14015KT 9999 BKN038 BKN100 14/10 Q1019
                        NOSIG=
201001260600 METAR LMML NIL=
201001260545 METAR LMML 260545Z 14015KT 9999 FEW023 BKN050 14/10 Q1019
                        NOSIG=
201001260530 METAR LMML NIL=
201001260515 METAR LMML 260515Z 14014KT 9999 SCT024 BKN039 14/10 Q1019
                        NOSIG=
201001260500 METAR LMML NIL=
201001260445 METAR LMML 260445Z 14012KT 9999 SCT023 BKN036 14/10 Q1019
                        NOSIG=
201001260430 METAR LMML NIL=
201001260415 METAR LMML 260415Z 11011KT 9999 SCT006 BKN034 13/12 Q1019
                        NOSIG=
201001260400 METAR LMML NIL=
201001260345 METAR LMML 260345Z 10013KT 9999 BKN005 BKN014 13/12 Q1019
                        NOSIG=
201001260330 METAR LMML NIL=
201001260315 METAR LMML 260315Z 11016KT 9999 BKN005 BKN012 12/12 Q1019
                        NOSIG=
201001260300 METAR LMML NIL=
201001260245 METAR LMML 260245Z 11016KT 070V130 9999 -RA SCT006 BKN012
                        12/11 Q1020 NOSIG=
201001260230 METAR LMML NIL=
201001260215 METAR LMML 260215Z 11018KT 9999 -RA BKN012 BKN050 13/11 Q1020
                        NOSIG=
201001260200 METAR LMML NIL=
201001260145 METAR LMML 260145Z 10014KT 9999 BKN016 13/10 Q1020 NOSIG=
201001260130 METAR LMML NIL=
201001260115 METAR LMML 260115Z 10014KT 070V130 9999 BKN017 SCT070 13/10
                        Q1021 NOSIG=
201001260100 METAR LMML NIL=
201001260045 METAR LMML 260045Z 11014KT 070V140 9999 FEW018 BKN070 13/10
                        Q1021 NOSIG=
201001260030 METAR LMML NIL=
201001260015 METAR LMML 260015Z 11014KT 9999 FEW017 BKN070 13/10 Q1022
                        NOSIG=
201001252345 METAR LMML 252345Z 10015KT 9999 FEW018 BKN070 13/10 Q1021
                        NOSIG=
201001252330 METAR LMML NIL=
201001252315 METAR LMML 252315Z 11014KT 9999 FEW018 BKN070 13/10 Q1022
                        NOSIG=
201001252245 METAR LMML 252245Z 11016KT 9999 FEW017 BKN070 13/10 Q1022
                        NOSIG=
201001252230 METAR LMML NIL=
201001252215 METAR LMML 252215Z 12015KT 9999 FEW019 BKN070 13/10 Q1022
                        NOSIG=
201001252145 METAR LMML 252145Z 12017KT 9999 FEW020 BKN070 13/10 Q1022
                        NOSIG=
201001252115 METAR LMML 252115Z 11016KT 9999 FEW021 BKN070 13/09 Q1022
                        NOSIG=
201001252100 METAR LMML NIL=
201001252045 METAR LMML 252045Z 11016KT 090V150 9999 FEW020 BKN073 13/09
                        Q1022 NOSIG=
201001252030 METAR LMML NIL=
201001252015 METAR LMML 252015Z 12016KT 9999 FEW021 BKN070 13/09 Q1022
                        NOSIG=
201001252000 METAR LMML NIL=
201001251945 METAR LMML 251945Z 12016KT 9999 FEW021 BKN070 13/09 Q1022
                        NOSIG=
201001251915 METAR LMML 251915Z 12018KT 9999 FEW019 BKN070 13/09 Q1022
                        NOSIG=
201001251845 METAR LMML 251845Z 12019KT 9999 FEW019 BKN070 13/09 Q1022
                        NOSIG=
201001251830 METAR LMML NIL=
201001251815 METAR LMML 251815Z 12018KT 9999 FEW020 BKN070 13/09 Q1022
                        NOSIG=
201001251800 METAR LMML NIL=
201001251745 METAR LMML 251745Z 12019KT 9999 FEW020 BKN070 13/09 Q1021
                        NOSIG=
201001251730 METAR LMML NIL=
201001251715 METAR LMML 251715Z 12017KT 9999 FEW020 SCT039 BKN070 13/09
                        Q1021 NOSIG=
201001251700 METAR LMML NIL=
201001251645 METAR LMML 251645Z 11017KT 9999 FEW021 SCT042 BKN067 13/09
                        Q1022 NOSIG=
201001251630 METAR LMML NIL=
201001251615 METAR LMML 251615Z 11016KT 9999 FEW020 BKN047 BKN060 13/09
                        Q1021 NOSIG=
201001251545 METAR LMML 251545Z 11013KT 080V140 9999 FEW025 SCT034 BKN060
                        13/09 Q1022 NOSIG=
201001251530 METAR LMML NIL=
201001251515 METAR LMML 251515Z 11015KT 9999 SCT021 BKN042 13/09 Q1022
                        NOSIG=
201001251500 METAR LMML NIL=
201001251445 METAR LMML 251445Z 11015KT 9999 FEW021 BKN035 BKN060 13/09
                        Q1022 NOSIG=
201001251430 METAR LMML NIL=
201001251415 METAR LMML 251415Z 11015KT 9999 FEW022 BKN040 BKN060 13/09
                        Q1021 NOSIG=
201001251400 METAR LMML NIL=
201001251345 METAR LMML 251345Z 12013KT 9999 SCT025 BKN033 BKN050 13/09
                        Q1022 NOSIG=
201001251330 METAR LMML NIL=
201001251315 METAR LMML 251315Z 13012KT 9999 BKN028 BKN034 13/08 Q1022
                        NOSIG=
201001251300 METAR LMML NIL=
201001251245 METAR LMML 251245Z 13016KT 9999 BKN028 BKN044 13/08 Q1022
                        NOSIG=
201001251230 METAR LMML NIL=
201001251215 METAR LMML 251215Z 13014KT 100V160 9999 BKN029 BKN035 13/08
                        Q1022 NOSIG=
201001251200 METAR LMML NIL=
201001251145 METAR LMML 251145Z 13013KT 9999 BKN028 BKN045 13/08 Q1023
                        NOSIG=
201001251115 METAR LMML 251115Z 13014KT 9999 SCT029 BKN044 13/08 Q1023
                        NOSIG=
201001251100 METAR LMML NIL=
201001251045 METAR LMML 251045Z 14013KT 9999 BKN029 BKN130 13/08 Q1024
                        NOSIG=
201001251030 METAR LMML NIL=
201001251015 METAR LMML 251015Z 14011KT 110V180 9999 BKN034 BKN130 14/07
                        Q1024 NOSIG=
201001251000 METAR LMML NIL=
201001250945 METAR LMML 250945Z 13013KT 9999 SCT032 BKN056 14/07 Q1024
                        NOSIG=
201001250930 METAR LMML NIL=
201001250915 METAR LMML 250915Z 13014KT 9999 FEW031 BKN050 13/07 Q1024
                        NOSIG=
201001250900 METAR LMML NIL=
201001250845 METAR LMML 250845Z 13013KT 9999 SCT031 BKN050 13/07 Q1024
                        NOSIG=
201001250830 METAR LMML NIL=
201001250815 METAR LMML 250815Z 14009KT 9999 FEW033 BKN045 13/07 Q1023
                        NOSIG=
201001250800 METAR LMML NIL=
201001250745 METAR LMML 250745Z 15008KT 9999 FEW034 SCT050 13/06 Q1023
                        NOSIG=
201001250730 METAR LMML NIL=
201001250715 METAR LMML 250715Z 15006KT 110V180 9999 FEW035 SCT250 13/06
                        Q1023 NOSIG=
201001250700 METAR LMML NIL=
201001250645 METAR LMML 250645Z 14006KT 120V180 9999 SCT034 SCT250 11/06
                        Q1023 NOSIG=
201001250630 METAR LMML NIL=
201001250615 METAR LMML 250615Z 14005KT 9999 FEW038 SCT250 10/05 Q1023
                        NOSIG=
201001250600 METAR LMML NIL=
201001250545 METAR LMML 250545Z 14006KT 9999 FEW036 SCT050 12/05 Q1023
                        NOSIG=
201001250530 METAR LMML NIL=
201001250515 METAR LMML 250515Z 11008KT 9999 SCT036 SCT050 12/07 Q1023
                        NOSIG=
201001250500 METAR LMML NIL=
201001250445 METAR LMML 250445Z 11009KT 070V130 9999 FEW033 BKN050 12/07
                        Q1023 NOSIG=
201001250415 METAR LMML 250415Z 11010KT 9999 FEW029 BKN036 12/07 Q1023
                        NOSIG=
201001250400 METAR LMML NIL=
201001250345 METAR LMML 250345Z 11011KT 9999 BKN033 11/07 Q1023 NOSIG=
201001250330 METAR LMML NIL=
201001250315 METAR LMML 250315Z 11009KT 080V150 9999 BKN032 11/06 Q1023
                        NOSIG=
201001250300 METAR LMML NIL=
201001250245 METAR LMML 250245Z 11008KT 9999 SCT034 SCT060 11/06 Q1023
                        NOSIG=
201001250230 METAR LMML NIL=
201001250215 METAR LMML 250215Z 11010KT 9999 SCT029 SCT060 11/06 Q1023
                        NOSIG=
201001250200 METAR LMML NIL=
201001250145 METAR LMML 250145Z 11009KT 9999 SCT028 SCT060 11/07 Q1024
                        NOSIG=
201001250130 METAR LMML NIL=
201001250115 METAR LMML 250115Z 11008KT 9999 SCT030 11/06 Q1024 NOSIG=
201001250100 METAR LMML NIL=
201001250045 METAR LMML 250045Z 12007KT 9999 SCT035 10/06 Q1024 NOSIG=
201001250030 METAR LMML NIL=
201001250015 METAR LMML 250015Z 12008KT 9999 SCT033 10/05 Q1024 NOSIG=
201001250000 METAR LMML NIL=
201001242345 METAR LMML 242345Z 12007KT 9999 SCT040 09/05 Q1024 NOSIG=
201001242330 METAR LMML NIL=
201001242315 METAR LMML 242315Z 13007KT 9999 SCT037 SCT120 10/05 Q1024
                        NOSIG=
201001242245 METAR LMML 242245Z 14008KT 9999 SCT037 SCT120 11/05 Q1024
                        NOSIG=
201001242230 METAR LMML NIL=
201001242215 METAR LMML 242215Z 12008KT 9999 SCT037 SCT120 11/05 Q1024
                        NOSIG=
201001242200 METAR LMML NIL=
201001242145 METAR LMML 242145Z 13005KT 9999 SCT036 SCT250 10/05 Q1024
                        NOSIG=
201001242130 METAR LMML NIL=
201001242115 METAR LMML 242115Z 11006KT 9999 SCT034 SCT250 10/05 Q1024
                        NOSIG=
201001242100 METAR LMML NIL=
201001242045 METAR LMML 242045Z 10006KT 9999 SCT037 SCT120 10/05 Q1024
                        NOSIG=
201001242030 METAR LMML NIL=
201001242015 METAR LMML 242015Z 11006KT 080V140 9999 FEW035 SCT049 10/05
                        Q1024 NOSIG=
201001242000 METAR LMML NIL=
201001241945 METAR LMML 241945Z 12006KT 090V150 9999 SCT035 SCT120 11/05
                        Q1024 NOSIG=
201001241930 METAR LMML NIL=
201001241915 METAR LMML 241915Z 12007KT 9999 SCT034 SCT120 11/05 Q1024
                        NOSIG=
201001241900 METAR LMML NIL=
201001241845 METAR LMML 241845Z 12007KT 9999 SCT034 SCT120 11/06 Q1024
                        NOSIG=
201001241830 METAR LMML NIL=
201001241815 METAR LMML 241815Z 12004KT 080V150 9999 SCT036 11/05 Q1024
                        NOSIG=
201001241800 METAR LMML NIL=
201001241745 METAR LMML 241745Z 14005KT 9999 FEW036 SCT049 11/04 Q1024
                        NOSIG=
201001241730 METAR LMML NIL=
201001241715 METAR LMML 241715Z 15004KT 120V180 9999 FEW039 SCT050 11/04
                        Q1024 NOSIG=
201001241700 METAR LMML NIL=
201001241645 METAR LMML 241645Z 16004KT 130V200 9999 FEW040 SCT050 11/03
                        Q1024 NOSIG=
201001241630 METAR LMML NIL=
201001241615 METAR LMML 241615Z 16005KT 130V190 9999 FEW040 11/04 Q1023
                        NOSIG=
201001241545 METAR LMML 241545Z 13008KT 9999 SCT042 12/04 Q1024 NOSIG=
201001241530 METAR LMML NIL=
201001241515 METAR LMML 241515Z 13007KT 9999 SCT043 12/05 Q1023 NOSIG=
201001241500 METAR LMML NIL=
201001241445 METAR LMML 241445Z 15005KT 110V180 9999 SCT038 12/04 Q1023
                        NOSIG=
201001241430 METAR LMML NIL=
201001241415 METAR LMML 241415Z 13007KT 9999 SCT037 12/04 Q1023 NOSIG=
201001241400 METAR LMML NIL=
201001241345 METAR LMML 241345Z 17006KT 130V230 9999 FEW039 13/05 Q1023
                        NOSIG=
201001241330 METAR LMML NIL=
201001241315 METAR LMML 241315Z 16006KT 120V200 9999 FEW038 13/04 Q1023
                        NOSIG=
201001241300 METAR LMML NIL=
201001241245 METAR LMML 241245Z 16007KT 130V190 9999 FEW041 13/04 Q1023
                        NOSIG=
201001241230 METAR LMML NIL=
201001241215 METAR LMML 241215Z 13007KT 090V160 9999 SCT040 13/04 Q1023
                        NOSIG=
201001241200 METAR LMML NIL=
201001241145 METAR LMML 241145Z 16005KT 120V230 9999 SCT042 13/04 Q1023
                        NOSIG=
201001241115 METAR LMML 241115Z 13006KT 090V170 9999 SCT042 13/05 Q1024
                        NOSIG=
201001241100 METAR LMML NIL=
201001241045 METAR LMML 241045Z 14007KT 080V190 9999 FEW042 13/04 Q1024
                        NOSIG=
201001241030 METAR LMML NIL=
201001241015 METAR LMML 241015Z 13007KT 090V170 9999 FEW042 13/03 Q1024
                        NOSIG=
201001241000 METAR LMML NIL=
201001240945 METAR LMML 240945Z 13006KT 080V150 9999 FEW041 13/03 Q1024
                        NOSIG=
201001240930 METAR LMML NIL=
201001240915 METAR LMML 240915Z 14006KT 120V180 9999 FEW042 12/03 Q1024
                        NOSIG=
201001240900 METAR LMML NIL=
201001240845 METAR LMML 240845Z 12007KT 9999 SCT042 SCT250 12/03 Q1024
                        NOSIG=
201001240830 METAR LMML NIL=
201001240815 METAR LMML 240815Z 11005KT 080V140 9999 SCT042 SCT250 12/04
                        Q1024 NOSIG=
201001240800 METAR LMML NIL=
201001240745 METAR LMML 240745Z 13005KT 100V160 9999 FEW043 11/04 Q1024
                        NOSIG=
201001240730 METAR LMML NIL=
201001240715 METAR LMML 240715Z VRB02KT 9999 SCT042 SCT250 10/04 Q1023
                        NOSIG=
201001240645 METAR LMML 240645Z VRB03KT 9999 SCT041 SCT250 09/03 Q1023
                        NOSIG=
201001240630 METAR LMML NIL=
201001240615 METAR LMML 240615Z VRB03KT 9999 SCT041 SCT250 09/02 Q1023
                        NOSIG=
201001240600 METAR LMML NIL=
201001240545 METAR LMML 240545Z VRB02KT 9999 BKN040 08/02 Q1023 NOSIG=
201001240530 METAR LMML NIL=
201001240515 METAR LMML 240515Z VRB03KT 9999 BKN043 09/02 Q1023 NOSIG=
201001240500 METAR LMML NIL=
201001240445 METAR LMML 240445Z VRB03KT 9999 BKN043 09/03 Q1023 NOSIG=
201001240430 METAR LMML NIL=
201001240415 METAR LMML 240415Z VRB01KT 9999 BKN043 08/03 Q1023 NOSIG=
201001240400 METAR LMML NIL=
201001240345 METAR LMML 240345Z VRB02KT 9999 BKN044 09/02 Q1023 NOSIG=
201001240330 METAR LMML NIL=
201001240315 METAR LMML 240315Z 07004KT 040V110 9999 BKN042 09/02 Q1022
                        NOSIG=
201001240300 METAR LMML NIL=
201001240245 METAR LMML 240245Z VRB02KT 9999 BKN042 09/01 Q1022 NOSIG=
201001240230 METAR LMML NIL=
201001240215 METAR LMML 240215Z VRB03KT 9999 BKN043 09/02 Q1023 NOSIG=
201001240200 METAR LMML NIL=
201001240145 METAR LMML 240145Z VRB03KT 9999 BKN044 09/02 Q1023 NOSIG=
201001240130 METAR LMML NIL=
201001240115 METAR LMML 240115Z 08004KT 9999 BKN044 09/02 Q1022 NOSIG=
201001240100 METAR LMML NIL=
201001240045 METAR LMML 240045Z VRB02KT 9999 BKN042 09/03 Q1022 NOSIG=
201001240030 METAR LMML NIL=
201001240015 METAR LMML 240015Z VRB02KT 9999 BKN041 09/03 Q1022 NOSIG=
201001232345 METAR LMML 232345Z VRB03KT 9999 BKN042 09/03 Q1022 NOSIG=
201001232330 METAR LMML NIL=
201001232315 METAR LMML 232315Z VRB03KT 9999 BKN040 08/03 Q1022 NOSIG=
201001232300 METAR LMML NIL=
201001232245 METAR LMML 232245Z 09004KT 9999 BKN040 09/03 Q1022 NOSIG=
201001232230 METAR LMML NIL=
201001232215 METAR LMML 232215Z 09004KT 9999 BKN038 08/03 Q1022 NOSIG=
201001232200 METAR LMML NIL=
201001232145 METAR LMML 232145Z VRB03KT 9999 SCT038 08/03 Q1022 NOSIG=
201001232130 METAR LMML NIL=
201001232115 METAR LMML 232115Z 09004KT 9999 SCT037 09/03 Q1022 NOSIG=
201001232100 METAR LMML NIL=
201001232045 METAR LMML 232045Z 08004KT 040V100 9999 FEW036 09/03 Q1022
                        NOSIG=
201001232030 METAR LMML NIL=
201001232015 METAR LMML 232015Z VRB03KT 9999 FEW038 09/04 Q1022 NOSIG=
201001232000 METAR LMML NIL=
201001231945 METAR LMML 231945Z 09004KT 9999 FEW041 09/04 Q1022 NOSIG=
201001231915 METAR LMML 231915Z 08005KT 9999 SCT036 09/04 Q1022 NOSIG=
201001231900 METAR LMML NIL=
201001231845 METAR LMML 231845Z 08004KT 050V220 9999 SCT033 09/04 Q1021
                        NOSIG=
201001231830 METAR LMML NIL=
201001231815 METAR LMML 231815Z 08004KT 9999 SCT034 09/04 Q1021 NOSIG=
201001231800 METAR LMML NIL=
201001231745 METAR LMML 231745Z 09004KT 040V150 9999 SCT036 09/05 Q1021
                        NOSIG=
201001231715 METAR LMML 231715Z 08005KT 9999 SCT032 09/05 Q1021 NOSIG=
201001231700 METAR LMML NIL=
201001231645 METAR LMML 231645Z 07006KT 040V110 9999 SCT028 10/05 Q1020
                        NOSIG=
201001231630 METAR LMML NIL=
201001231615 METAR LMML 231615Z 08007KT 9999 SCT032 10/06 Q1020 NOSIG=
201001231600 METAR LMML NIL=
201001231545 METAR LMML 231545Z 08008KT 020V120 9999 FEW026 11/06 Q1020
                        NOSIG=
201001231515 METAR LMML 231515Z 04006KT 360V080 9999 FEW026 13/07 Q1020
                        NOSIG=
201001231445 METAR LMML 231445Z 02005KT 350V080 9999 FEW036 14/05 Q1019
                        NOSIG=
201001231430 METAR LMML NIL=
201001231415 METAR LMML 231415Z 03005KT 350V080 9999 FEW042 14/04 Q1019
                        NOSIG=
201001231400 METAR LMML NIL=
201001231345 METAR LMML 231345Z 35005KT 320V050 9999 FEW042 13/04 Q1019
                        NOSIG=
201001231330 METAR LMML NIL=
201001231315 METAR LMML 231315Z 36007KT 290V060 9999 FEW043 14/04 Q1018
                        NOSIG=
201001231300 METAR LMML NIL=
201001231245 METAR LMML 231245Z 36007KT 310V040 9999 FEW041 14/04 Q1018
                        NOSIG=
201001231230 METAR LMML NIL=
201001231215 METAR COR LMML 231215Z 01008KT 9999 FEW042 14/04 Q1018 NOSIG=
201001231200 METAR LMML NIL=
201001231145 METAR LMML 231145Z 35008KT 320V020 9999 FEW042 13/04 Q1018
                        NOSIG=
201001231130 METAR LMML NIL=
201001231115 METAR LMML 231115Z 34010KT 9999 FEW036 13/04 Q1019 NOSIG=
201001231100 METAR LMML NIL=
201001231045 METAR LMML 231045Z 35010KT 9999 FEW035 13/05 Q1019 NOSIG=
201001231030 METAR LMML NIL=
201001231015 METAR LMML 231015Z 34010KT 320V020 9999 FEW033 13/06 Q1019
                        NOSIG=
201001230945 METAR LMML 230945Z 34010KT 9999 FEW033 13/06 Q1019 NOSIG=
201001230930 METAR LMML NIL=
201001230915 METAR LMML 230915Z 35010KT 9999 FEW030 13/06 Q1019 NOSIG=
201001230900 METAR LMML NIL=
201001230845 METAR LMML 230845Z 34008KT 9999 SCT028 13/07 Q1019 NOSIG=
201001230830 METAR LMML NIL=
201001230815 METAR LMML 230815Z 32005KT 280V350 9999 SCT031 12/08 Q1019
                        NOSIG=
201001230800 METAR LMML NIL=
201001230745 METAR LMML 230745Z 30007KT 270V330 9999 SCT030 11/07 Q1018
                        NOSIG=
201001230730 METAR LMML NIL=
201001230715 METAR LMML 230715Z 29008KT 9999 SCT031 11/06 Q1018 NOSIG=
201001230700 METAR LMML NIL=
201001230645 METAR LMML 230645Z 29006KT 9999 SCT035 10/05 Q1018 NOSIG=
201001230630 METAR LMML NIL=
201001230615 METAR LMML 230615Z 30007KT 9999 FEW036 09/05 Q1017 NOSIG=
201001230600 METAR LMML NIL=
201001230545 METAR LMML 230545Z 30006KT 9999 FEW031 09/06 Q1017 NOSIG=
201001230530 METAR LMML NIL=
201001230515 METAR LMML 230515Z 30007KT 9999 FEW034 10/06 Q1017 NOSIG=
201001230500 METAR LMML NIL=
201001230445 METAR LMML 230445Z 30008KT 9999 FEW034 09/06 Q1017 NOSIG=
201001230430 METAR LMML NIL=
201001230415 METAR LMML 230415Z 30007KT 9999 FEW034 SCT060 09/06 Q1017
                        NOSIG=
201001230400 METAR LMML NIL=
201001230345 METAR LMML 230345Z 30007KT 9999 FEW034 SCT060 10/06 Q1017
                        NOSIG=
201001230330 METAR LMML NIL=
201001230315 METAR LMML 230315Z 31007KT 9999 FEW034 BKN060 10/07 Q1017
                        NOSIG=
201001230300 METAR LMML NIL=
201001230245 METAR LMML 230245Z 30007KT 9999 FEW034 SCT060 10/07 Q1017
                        TEMPO 6000 SHRA=
201001230230 METAR LMML NIL=
201001230215 METAR LMML 230215Z 29004KT 250V330 9999 FEW034 SCT120 10/07
                        Q1017 TEMPO 6000 SHRA=
201001230200 METAR LMML NIL=
201001230145 METAR LMML 230145Z VRB02KT 9999 -SHRA SCT031 BKN120 09/07
                        Q1017 TEMPO 6000 SHRA=
201001230130 METAR LMML NIL=
201001230115 METAR LMML 230115Z 28004KT 250V320 9999 FEW031 BKN120 10/07
                        Q1017 TEMPO 6000 SHRA=
201001230100 METAR LMML NIL=
201001230045 METAR LMML 230045Z 28004KT 9999 FEW034 BKN120 09/07 Q1017
                        TEMPO 6000 SHRA=
201001230030 METAR LMML NIL=
201001230015 METAR LMML 230015Z 28005KT 240V310 9999 FEW035 BKN090 BKN120
                        09/07 Q1017 RERA TEMPO 6000 SHRA=
201001230000 METAR LMML NIL=
201001222345 METAR LMML 222345Z VRB03KT 9999 FEW043 BKN080 09/07 Q1017
                        RERA TEMPO 6000 SHRA=
201001222315 METAR LMML 222315Z 29016KT 7000 RA SCT035 BKN100 09/07 Q1018
                        TEMPO 6000 SHRA=
201001222245 METAR LMML 222245Z 26006KT 220V290 9999 FEW038 BKN090 11/05
                        Q1018 TEMPO 8000 SHRA=
201001222230 METAR LMML NIL=
201001222215 METAR LMML 222215Z 27007KT CAVOK 11/06 Q1018 TEMPO 8000 SHRA=
201001222200 METAR LMML NIL=
201001222145 METAR LMML 222145Z 28007KT 250V310 9999 FEW034 BKN060 11/05
                        Q1018 TEMPO 8000 SHRA=
201001222130 METAR LMML NIL=
201001222115 METAR LMML 222115Z 26006KT 220V290 9999 FEW034 BKN060 11/07
                        Q1018 TEMPO 8000 SHRA=
201001222100 METAR LMML NIL=
201001222045 METAR LMML 222045Z 26008KT 220V300 9999 FEW034 SCT060 11/08
                        Q1018 TEMPO 8000 SHRA=
201001222030 METAR LMML NIL=
201001222015 METAR LMML 222015Z 26005KT 230V290 9999 FEW039 SCT060 BKN080
                        11/06 Q1018 TEMPO 8000 SHRA=
201001222000 METAR LMML NIL=
201001221945 METAR LMML 221945Z 29004KT 250V310 9999 FEW035 BKN070 11/06
                        Q1018 NOSIG=
201001221930 METAR LMML NIL=
201001221915 METAR LMML 221915Z 27004KT 240V300 9999 FEW035 BKN070 11/06
                        Q1018 NOSIG=
201001221900 METAR LMML NIL=
201001221845 METAR LMML 221845Z 29006KT 9999 FEW035 BKN080 11/06 Q1018
                        NOSIG=
201001221830 METAR LMML NIL=
201001221815 METAR LMML 221815Z 29006KT 9999 FEW035 SCT080 BKN250 10/05
                        Q1018 NOSIG=
201001221800 METAR LMML NIL=
201001221745 METAR LMML 221745Z 31008KT 9999 FEW035 BKN250 10/05 Q1018
                        NOSIG=
201001221730 METAR LMML NIL=
201001221715 METAR LMML 221715Z 31007KT 9999 FEW035 SCT250 10/05 Q1018
                        NOSIG=
201001221700 METAR LMML NIL=
201001221645 METAR LMML 221645Z 32007KT 9999 FEW035 10/05 Q1018 NOSIG=
201001221630 METAR LMML NIL=
201001221615 METAR LMML 221615Z 32009KT 9999 FEW035 11/05 Q1018 NOSIG=
201001221600 METAR LMML NIL=
201001221545 METAR LMML 221545Z 31013KT 9999 FEW035 12/05 Q1018 NOSIG=
201001221530 METAR LMML NIL=
201001221515 METAR LMML 221515Z 31014KT 9999 FEW035 13/04 Q1018 NOSIG=
201001221500 METAR LMML NIL=
201001221445 METAR LMML 221445Z 31014KT 9999 FEW035 13/03 Q1017 NOSIG=
201001221430 METAR LMML NIL=
201001221415 METAR LMML 221415Z 31014KT 9999 FEW035 14/05 Q1017 NOSIG=
201001221400 METAR LMML NIL=
201001221345 METAR LMML 221345Z 32014KT 280V350 9999 FEW035 14/05 Q1017
                        NOSIG=
201001221330 METAR LMML NIL=
201001221315 METAR LMML 221315Z 31015KT 9999 FEW034 14/06 Q1017 NOSIG=
201001221300 METAR LMML NIL=
201001221245 METAR LMML 221245Z 30015KT 9999 SCT036 14/05 Q1017 NOSIG=
201001221230 METAR LMML NIL=
201001221215 METAR LMML 221215Z 30016KT 260V340 9999 SCT039 14/06 Q1017
                        NOSIG=
201001221200 METAR LMML NIL=
201001221145 METAR LMML 221145Z 31015KT 9999 SCT035 14/06 Q1017 NOSIG=
201001221130 METAR LMML NIL=
201001221115 METAR LMML 221115Z 31015KT 280V340 9999 SCT035 14/06 Q1018
                        NOSIG=
201001221100 METAR LMML NIL=
201001221045 METAR LMML 221045Z 30012KT 9999 SCT035 14/07 Q1018 NOSIG=
201001221030 METAR LMML NIL=
201001221015 METAR LMML 221015Z 31015KT 9999 SCT032 14/06 Q1018 NOSIG=
201001220945 METAR LMML 220945Z 30015KT 9999 SCT041 14/06 Q1018 NOSIG=
201001220930 METAR LMML NIL=
201001220915 METAR LMML 220915Z 31012KT 280V340 9999 FEW040 13/05 Q1018
                        NOSIG=
201001220900 METAR LMML NIL=
201001220845 METAR LMML 220845Z 32013KT 9999 FEW040 13/03 Q1018 NOSIG=
201001220830 METAR LMML NIL=
201001220815 METAR LMML 220815Z 33011KT 300V360 9999 FEW040 13/03 Q1018
                        NOSIG=
201001220800 METAR LMML NIL=
201001220745 METAR LMML 220745Z 33009KT 300V360 9999 FEW040 12/03 Q1018
                        NOSIG=
201001220730 METAR LMML NIL=
201001220715 METAR LMML 220715Z 34010KT 9999 FEW040 12/04 Q1017 NOSIG=
201001220700 METAR LMML NIL=
201001220645 METAR LMML 220645Z 33010KT 9999 FEW040 11/03 Q1017 NOSIG=
201001220630 METAR LMML NIL=
201001220615 METAR LMML 220615Z 33010KT 9999 FEW040 10/03 Q1017 NOSIG=
201001220600 METAR LMML NIL=
201001220545 METAR LMML 220545Z 32011KT 9999 FEW040 11/04 Q1017 NOSIG=
201001220530 METAR LMML NIL=
201001220515 METAR LMML 220515Z 33011KT 9999 FEW034 11/05 Q1016 NOSIG=
201001220445 METAR LMML 220445Z 32006KT 9999 FEW031 10/06 Q1016 NOSIG=
201001220430 METAR LMML NIL=
201001220415 METAR LMML 220415Z 31008KT 9999 SCT030 10/06 Q1016 NOSIG=
201001220400 METAR LMML NIL=
201001220345 METAR LMML 220345Z 33009KT 9999 SCT030 11/06 Q1016 NOSIG=
201001220330 METAR LMML NIL=
201001220315 METAR LMML 220315Z 33009KT 9999 SCT031 11/06 Q1015 NOSIG=
201001220300 METAR LMML NIL=
201001220245 METAR LMML 220245Z 33008KT 9999 SCT030 12/06 Q1015 NOSIG=
201001220230 METAR LMML NIL=
201001220215 METAR LMML 220215Z 33009KT 310V010 9999 SCT032 12/06 Q1015
                        NOSIG=
201001220200 METAR LMML NIL=
201001220145 METAR LMML 220145Z 32007KT 290V350 9999 SCT031 11/07 Q1015
                        NOSIG=
201001220130 METAR LMML NIL=
201001220115 METAR LMML 220115Z 32009KT 9999 FEW029 12/07 Q1015 NOSIG=
201001220100 METAR LMML NIL=
201001220045 METAR LMML 220045Z 33010KT 9999 FEW033 11/06 Q1015 NOSIG=
201001220015 METAR LMML 220015Z 32011KT 290V350 9999 FEW032 12/07 Q1014
                        NOSIG=
201001212345 METAR LMML 212345Z 31011KT 9999 FEW033 12/07 Q1014 NOSIG=
201001212315 METAR LMML 212315Z 32014KT 280V340 9999 FEW032 11/07 Q1014
                        NOSIG=
201001212245 METAR LMML 212245Z 31017KT 9999 FEW031 12/07 Q1014 NOSIG=
201001212230 METAR LMML NIL=
201001212215 METAR LMML 212215Z 32021KT 9999 FEW030 12/07 Q1013 NOSIG=
201001212200 METAR LMML NIL=
201001212145 METAR LMML 212145Z 31025KT 9999 SCT034 SCT110 12/07 Q1013
                        NOSIG=
201001212130 METAR LMML NIL=
201001212115 METAR LMML 212115Z 30024KT 270V330 9999 SCT024 12/07 Q1013
                        NOSIG=
201001212100 METAR LMML NIL=
201001212045 METAR LMML 212045Z 30019G29KT 9999 SCT029 12/07 Q1013 NOSIG=
201001212030 METAR LMML NIL=
201001212015 METAR LMML 212015Z 31021KT 280V340 9999 FEW030 12/05 Q1012
                        NOSIG=
201001212000 METAR LMML NIL=
201001211945 METAR LMML 211945Z 30023KT 270V330 9999 FEW030 11/06 Q1012
                        NOSIG RMK DISTANT LIGHTNING TO NE=
201001211930 METAR LMML NIL=
201001211915 METAR LMML 211915Z 30022KT 9999 SCT030 SCT060 12/07 Q1013
                        NOSIG=
201001211900 METAR LMML NIL=
201001211845 METAR LMML 211845Z 30020G32KT 270V330 9999 SCT032 12/07 Q1012
                        NOSIG=
201001211830 METAR LMML NIL=
201001211815 METAR LMML 211815Z 29018KT 260V330 9999 FEW038 12/06 Q1012
                        NOSIG=
201001211800 METAR LMML NIL=
201001211745 METAR LMML 211745Z 29019G29KT 260V320 9999 FEW034 12/06 Q1012
                        NOSIG=
201001211715 METAR LMML 211715Z 30017KT 9999 FEW033 12/06 Q1011 NOSIG=
201001211700 METAR LMML NIL=
201001211645 METAR LMML 211645Z 30020KT 9999 SCT032 13/07 Q1011 NOSIG=
201001211630 METAR LMML NIL=
201001211615 METAR LMML 211615Z 29018KT 260V320 9999 SCT032 13/06 Q1011
                        NOSIG=
201001211600 METAR LMML NIL=
201001211545 METAR LMML 211545Z 30023G34KT 9999 SCT031 13/07 Q1011 NOSIG=
201001211530 METAR LMML NIL=
201001211515 METAR LMML 211515Z 29021KT 260V320 9999 SCT026 13/07 Q1011
                        NOSIG=
201001211500 METAR LMML NIL=
201001211445 METAR LMML 211445Z 29018G31KT 9999 SCT028 14/08 Q1011 NOSIG=
201001211415 METAR LMML 211415Z 29019KT 250V320 9999 SCT025 14/08 Q1011
                        NOSIG=
201001211400 METAR LMML NIL=
201001211345 METAR LMML 211345Z 29020KT 9999 BKN025 14/09 Q1011 NOSIG=
201001211330 METAR LMML NIL=
201001211315 METAR LMML 211315Z 30019KT 9999 BKN027 14/09 Q1011 NOSIG=
201001211300 METAR LMML NIL=
201001211245 METAR LMML 211245Z 30021KT 260V320 9999 SCT028 SCT060 15/09
                        Q1011 NOSIG=
201001211230 METAR LMML NIL=
201001211215 METAR LMML 211215Z 29021KT 260V330 9999 SCT029 14/09 Q1011
                        NOSIG=
201001211200 METAR LMML NIL=
201001211145 METAR LMML 211145Z 29018KT 260V320 9999 BKN024 14/09 Q1011
                        NOSIG=
201001211130 METAR LMML NIL=
201001211115 METAR LMML 211115Z 28021KT 9999 -SHRA SCT023 BKN110 15/10
                        Q1012 NOSIG=
201001211100 METAR LMML NIL=
201001211045 METAR LMML 211045Z 28021KT 9999 BKN022 14/11 Q1012 NOSIG=
201001211030 METAR LMML NIL=
201001211015 METAR LMML 211015Z 29018KT 250V320 9999 SCT019 BKN110 15/11
                        Q1012 TEMPO 28025KT 5000 SHRA BKN015=
201001211000 METAR LMML NIL=
201001210945 METAR LMML 210945Z 29016KT 250V310 9999 SCT021 BKN120 14/10
                        Q1013 TEMPO 28025KT 5000 SHRA BKN015=
201001210930 METAR LMML NIL=
201001210915 METAR LMML 210915Z 29019G30KT 260V320 9999 SCT021TCU BKN120
                        12/10 Q1013 TEMPO 28025KT 5000 SHRA
                        BKN015=
201001210900 METAR LMML NIL=
201001210845 METAR LMML 210845Z 28014G27KT 240V330 9999 BKN020 14/10 Q1013
                        TEMPO 28025KT 5000 SHRA BKN015=
201001210830 METAR LMML NIL=
201001210815 METAR LMML 210815Z 27019KT 240V310 9999 BKN020 14/11 Q1012
                        TEMPO 28025KT 5000 SHRA BKN015=
201001210800 METAR LMML NIL=
201001210745 METAR LMML 210745Z 28016KT 240V310 9999 -SHRA SCT024 14/11
                        Q1012 TEMPO 28025KT SHRA=
201001210730 METAR LMML NIL=
201001210715 METAR LMML 210715Z 28014KT 240V310 9999 SCT020 14/10 Q1012
                        TEMPO 28025KT SHRA=
201001210700 METAR LMML NIL=
201001210645 METAR LMML 210645Z 27014KT 240V310 9999 BKN022 14/10 Q1012
                        TEMPO SHRA=
201001210630 METAR LMML NIL=
201001210615 METAR LMML 210615Z 27013KT 230V300 9999 SCT022 14/10 Q1012
                        NOSIG=
201001210600 METAR LMML NIL=
201001210545 METAR LMML 210545Z 28012KT 240V310 9999 -SHRA SCT019 13/10
                        Q1012 NOSIG=
201001210530 METAR LMML NIL=
201001210515 METAR LMML 210515Z 28013KT 240V310 9999 SCT020 BKN080 14/11
                        Q1012 NOSIG=
201001210500 METAR LMML NIL=
201001210445 METAR LMML 210445Z 28012KT 240V310 9999 FEW015 SCT026 BKN080
                        14/11 Q1012 NOSIG=
201001210430 METAR LMML NIL=
201001210415 METAR LMML 210415Z 28011KT 240V310 9999 FEW014 SCT022 BKN080
                        14/12 Q1012 NOSIG=
201001210400 METAR LMML NIL=
201001210345 METAR LMML 210345Z 27013KT 230V300 9999 FEW012 FEW021 BKN070
                        14/12 Q1012 NOSIG=
201001210330 METAR LMML NIL=
201001210315 METAR LMML 210315Z 24008KT 210V290 9000 -RA SCT013 BKN070
                        13/11 Q1012 NOSIG=
201001210300 METAR LMML NIL=
201001210245 METAR LMML 210245Z 25012KT 200V300 9999 -RA SCT016 BKN070
                        14/12 Q1012 NOSIG=
201001210215 METAR LMML 210215Z 24012KT 200V280 9999 -RA SCT017 BKN040
                        14/12 Q1012 NOSIG=
201001210200 METAR LMML NIL=
201001210145 METAR LMML 210145Z 24011KT 210V280 9999 -RA FEW009 BKN022
                        14/12 Q1013 NOSIG=
201001210130 METAR LMML NIL=
201001210115 METAR LMML 210115Z 24012KT 200V290 9999 FEW008 BKN020 14/12
                        Q1013 NOSIG=
201001210100 METAR LMML NIL=
201001210045 METAR LMML 210045Z 23012KT 190V280 9999 FEW008 BKN020 14/11
                        Q1013 NOSIG=
201001210030 METAR LMML NIL=
201001210015 METAR LMML 210015Z 21009KT 170V260 9999 SCT010 BKN022 13/12
                        Q1014 NOSIG=
201001210000 METAR LMML NIL=
201001202345 METAR LMML 202345Z 20009KT 170V240 9999 -RA SCT008 BKN025
                        13/12 Q1014 NOSIG=
201001202330 METAR LMML NIL=
201001202315 METAR LMML 202315Z 20008KT 160V260 9999 SCT005 BKN022 12/11
                        Q1015 RERA NOSIG=
201001202300 METAR LMML NIL=
201001202245 METAR LMML 202245Z 21008KT 180V240 9999 SCT004 BKN024 12/11
                        Q1015 RERA NOSIG=
201001202230 METAR LMML NIL=
201001202215 METAR LMML 202215Z 21010KT 180V270 4000 RA BKN017 13/10 Q1016
                        NOSIG=
201001202200 METAR LMML NIL=
201001202145 METAR LMML 202145Z 19006KT 160V230 9999 -RA BKN028 13/09
                        Q1016 TEMPO 8000 RA BKN015=
201001202130 METAR LMML NIL=
201001202115 METAR LMML 202115Z 19006KT 160V230 9999 SCT030 BKN060 13/08
                        Q1016 TEMPO 8000 RA BKN015=
201001202100 METAR LMML NIL=
201001202045 METAR LMML 202045Z 20006KT 160V240 9999 -RA FEW034 BKN050
                        13/08 Q1016 TEMPO 8000 RA BKN015=
201001202030 METAR LMML NIL=
201001202015 METAR LMML 202015Z 19005KT 160V230 9999 FEW030 BKN050 13/07
                        Q1016 TEMPO 9000 RA=
201001202000 METAR LMML NIL=
201001201945 METAR LMML 201945Z 19004KT 9999 FEW031 BKN050 13/07 Q1017
                        NOSIG=
201001201930 METAR LMML NIL=
201001201915 METAR LMML 201915Z 20004KT 170V240 9999 FEW032 BKN050 13/07
                        Q1017 NOSIG=
201001201900 METAR LMML NIL=
201001201845 METAR LMML 201845Z VRB03KT 9999 FEW032 BKN060 12/08 Q1017
                        NOSIG=
201001201830 METAR LMML NIL=
201001201815 METAR LMML 201815Z VRB03KT 9999 FEW030 BKN060 12/07 Q1017
                        NOSIG=
201001201800 METAR LMML NIL=
201001201745 METAR LMML 201745Z VRB03KT 9999 FEW035 BKN060 12/07 Q1017
                        NOSIG=
201001201730 METAR LMML NIL=
201001201715 METAR LMML 201715Z VRB02KT 9999 FEW034 BKN060 12/07 Q1017
                        NOSIG=
201001201700 METAR LMML NIL=
201001201645 METAR LMML 201645Z VRB02KT 9999 FEW031 SCT060 12/07 Q1017
                        NOSIG=
201001201630 METAR LMML NIL=
201001201615 METAR LMML 201615Z VRB03KT 9999 FEW025 12/07 Q1017 NOSIG=
201001201545 METAR LMML 201545Z VRB03KT 9999 FEW025 14/07 Q1016 NOSIG=
201001201530 METAR LMML NIL=
201001201515 METAR LMML 201515Z 25005KT 200V290 9999 FEW035 14/07 Q1016
                        NOSIG=
201001201500 METAR LMML NIL=
201001201445 METAR LMML 201445Z 26005KT 220V300 9999 FEW036 14/06 Q1016
                        NOSIG=
201001201430 METAR LMML NIL=
201001201415 METAR LMML 201415Z 26008KT 220V300 9999 FEW038 14/06 Q1016
                        NOSIG=
201001201400 METAR LMML NIL=
201001201345 METAR LMML 201345Z 28007KT 200V330 9999 SCT037 15/06 Q1017
                        NOSIG=
201001201330 METAR LMML NIL=
201001201315 METAR LMML 201315Z 27006KT 200V310 9999 SCT036 14/07 Q1017
                        NOSIG=
201001201300 METAR LMML NIL=
201001201245 METAR LMML 201245Z 26004KT 200V300 9999 SCT037 SCT110 15/07
                        Q1016 NOSIG=
201001201215 METAR LMML 201215Z 25005KT 210V320 9999 BKN034 14/06 Q1017
                        NOSIG=
201001201145 METAR LMML 201145Z 22004KT 190V280 9999 BKN038 14/06 Q1017
                        NOSIG=
201001201130 METAR LMML NIL=
201001201115 METAR LMML 201115Z 27004KT 200V330 9999 SCT036 SCT120 15/07
                        Q1018 NOSIG=
201001201100 METAR LMML NIL=
201001201045 METAR LMML 201045Z VRB02KT 9999 FEW036 BKN120 15/06 Q1018
                        NOSIG=
201001201030 METAR LMML NIL=
201001201015 METAR LMML 201015Z VRB02KT 9999 FEW030 BKN120 14/05 Q1019
                        NOSIG=
201001201000 METAR LMML NIL=
201001200945 METAR LMML 200945Z VRB01KT 9999 FEW030 BKN120 14/06 Q1019
                        NOSIG=
201001200930 METAR LMML NIL=
201001200915 METAR LMML 200915Z VRB01KT 9999 FEW030 BKN120 12/05 Q1019
                        NOSIG=
201001200900 METAR LMML NIL=
201001200845 METAR LMML 200845Z VRB01KT 9999 FEW040 BKN120 11/05 Q1019
                        NOSIG=
201001200815 METAR LMML 200815Z VRB01KT 9999 FEW043 BKN120 11/06 Q1019
                        NOSIG=
201001200800 METAR LMML NIL=
201001200745 METAR LMML 200745Z VRB01KT 9999 FEW020 BKN120 11/06 Q1019
                        NOSIG=
201001200730 METAR LMML NIL=
201001200715 METAR LMML 200715Z VRB02KT 9999 FEW020 BKN120 09/05 Q1019
                        NOSIG=
201001200645 METAR LMML 200645Z VRB02KT 9999 FEW020 BKN120 08/04 Q1018
                        NOSIG=
201001200630 METAR LMML NIL=
201001200615 METAR LMML 200615Z VRB03KT 9999 FEW020 BKN120 08/04 Q1018
                        NOSIG=
201001200545 METAR LMML 200545Z VRB03KT 9999 FEW020 BKN120 08/04 Q1018
                        NOSIG=
201001200530 METAR LMML NIL=
201001200515 METAR LMML 200515Z VRB03KT CAVOK 08/04 Q1018 NOSIG=
201001200500 METAR LMML NIL=
201001200445 METAR LMML 200445Z 30004KT CAVOK 09/03 Q1018 NOSIG=
201001200430 METAR LMML NIL=
201001200415 METAR LMML 200415Z VRB03KT CAVOK 08/03 Q1018 NOSIG=
201001200400 METAR LMML NIL=
201001200345 METAR LMML 200345Z VRB03KT CAVOK 07/03 Q1018 NOSIG=
201001200330 METAR LMML NIL=
201001200315 METAR LMML 200315Z VRB03KT CAVOK 08/03 Q1018 NOSIG=
201001200300 METAR LMML NIL=
201001200245 METAR LMML 200245Z VRB03KT CAVOK 08/03 Q1018 NOSIG=
201001200230 METAR LMML NIL=
201001200215 METAR LMML 200215Z 31004KT CAVOK 08/03 Q1018 NOSIG=
201001200200 METAR LMML NIL=
201001200145 METAR LMML 200145Z VRB03KT CAVOK 09/03 Q1018 NOSIG=
201001200130 METAR LMML NIL=
201001200115 METAR LMML 200115Z VRB03KT CAVOK 09/03 Q1018 NOSIG=
201001200100 METAR LMML NIL=
201001200045 METAR LMML 200045Z VRB03KT CAVOK 08/03 Q1018 NOSIG=
201001200030 METAR LMML NIL=
201001200015 METAR LMML 200015Z VRB03KT CAVOK 08/04 Q1018 NOSIG=
201001200000 METAR LMML NIL=
201001192345 METAR LMML 192345Z VRB02KT CAVOK 08/04 Q1018 NOSIG=
201001192330 METAR LMML NIL=
201001192315 METAR LMML 192315Z VRB03KT 9999 FEW025 09/03 Q1019 NOSIG=
201001192300 METAR LMML NIL=
201001192245 METAR LMML 192245Z VRB02KT 9999 FEW025 09/03 Q1019 NOSIG=
201001192230 METAR LMML NIL=
201001192215 METAR LMML 192215Z VRB01KT CAVOK 09/03 Q1019 NOSIG=
201001192200 METAR LMML NIL=
201001192145 METAR LMML 192145Z 33004KT CAVOK 10/03 Q1019 NOSIG=
201001192130 METAR LMML NIL=
201001192115 METAR LMML 192115Z VRB03KT CAVOK 10/03 Q1019 NOSIG=
201001192100 METAR LMML NIL=
201001192045 METAR LMML 192045Z 31006KT CAVOK 10/05 Q1019 NOSIG=
201001192030 METAR LMML NIL=
201001192015 METAR LMML 192015Z 30005KT 9999 FEW035 10/06 Q1019 NOSIG=
201001192000 METAR LMML NIL=
201001191945 METAR LMML 191945Z 27006KT 9999 FEW035 10/06 Q1019 NOSIG=
201001191930 METAR LMML NIL=
201001191915 METAR LMML 191915Z 27004KT 240V300 9999 BKN035 10/07 Q1019
                        NOSIG=
201001191900 METAR LMML NIL=
201001191845 METAR LMML 191845Z 28004KT 9999 FEW025 10/07 Q1019 NOSIG=
201001191830 METAR LMML NIL=
201001191815 METAR LMML 191815Z 28004KT 9999 FEW025 10/07 Q1019 NOSIG=
201001191800 METAR LMML NIL=
201001191745 METAR LMML 191745Z VRB03KT 9999 FEW025 10/08 Q1019 NOSIG=
201001191730 METAR LMML NIL=
201001191715 METAR LMML 191715Z VRB02KT 9999 FEW024 10/08 Q1018 NOSIG=
201001191700 METAR LMML NIL=
201001191645 METAR LMML 191645Z VRB03KT 9999 FEW025 11/08 Q1018 NOSIG=
201001191630 METAR LMML NIL=
201001191615 METAR LMML 191615Z 33004KT 9999 FEW025 12/08 Q1018 NOSIG=
201001191600 METAR LMML NIL=
201001191545 METAR LMML 191545Z 34006KT 9999 FEW025 13/08 Q1018 NOSIG=
201001191515 METAR LMML 191515Z 34006KT 9999 FEW025 13/08 Q1018 NOSIG=
201001191500 METAR LMML NIL=
201001191445 METAR LMML 191445Z 34006KT 320V020 9999 SCT025 14/09 Q1018
                        NOSIG=
201001191415 METAR LMML 191415Z 33006KT 310V020 9999 SCT025 14/08 Q1018
                        NOSIG=
201001191400 METAR LMML NIL=
201001191345 METAR LMML 191345Z 36005KT 310V070 9999 SCT023 15/09 Q1018
                        NOSIG=
201001191330 METAR LMML NIL=
201001191315 METAR LMML 191315Z 01004KT 340V040 9999 SCT023 14/09 Q1018
                        NOSIG=
201001191300 METAR LMML NIL=
201001191245 METAR LMML 191245Z 36005KT 330V030 9999 SCT023 14/09 Q1018
                        NOSIG=
201001191230 METAR LMML NIL=
201001191215 METAR LMML 191215Z 36006KT 310V040 9999 SCT025 SCT060 14/09
                        Q1018 NOSIG=
201001191200 METAR LMML NIL=
201001191145 METAR LMML 191145Z 01006KT 330V080 9999 SCT025 14/08 Q1018
                        NOSIG=
201001191130 METAR LMML NIL=
201001191115 METAR LMML 191115Z 35005KT 320V030 9999 BKN025 15/09 Q1018
                        NOSIG=
201001191100 METAR LMML NIL=
201001191045 METAR LMML 191045Z 01004KT 340V050 9999 BKN025 14/08 Q1019
                        NOSIG=
201001191015 METAR LMML 191015Z 36007KT 9999 SCT024 15/09 Q1019 NOSIG=
201001191000 METAR LMML NIL=
201001190945 METAR LMML 190945Z 02006KT 350V060 9999 FEW020 15/09 Q1019
                        NOSIG=
201001190930 METAR LMML NIL=
201001190915 METAR LMML 190915Z 36006KT 9999 FEW021 15/09 Q1019 NOSIG=
201001190900 METAR LMML NIL=
201001190845 METAR LMML 190845Z 36006KT 330V030 9999 FEW019 14/10 Q1019
                        NOSIG=
201001190830 METAR LMML NIL=
201001190815 METAR LMML 190815Z VRB03KT 9999 FEW019 13/10 Q1019 NOSIG=
201001190800 METAR LMML NIL=
201001190745 METAR LMML 190745Z VRB02KT 9999 FEW022 11/09 Q1019 NOSIG=
201001190730 METAR LMML NIL=
201001190715 METAR LMML 190715Z VRB03KT 9999 FEW022 11/08 Q1018 NOSIG=
201001190700 METAR LMML NIL=
201001190645 METAR LMML 190645Z 35005KT 9999 FEW022 09/07 Q1018 NOSIG=
201001190630 METAR LMML NIL=
201001190615 METAR LMML 190615Z 35005KT 9999 FEW026 09/07 Q1018 NOSIG=
201001190600 METAR LMML NIL=
201001190545 METAR LMML 190545Z 01004KT 9999 SCT020 09/08 Q1018 NOSIG=
201001190530 METAR LMML NIL=
201001190515 METAR LMML 190515Z 35004KT 9999 SCT019 10/08 Q1018 NOSIG=
201001190500 METAR LMML NIL=
201001190445 METAR LMML 190445Z 33004KT 9999 BKN019 SCT060 10/09 Q1017
                        NOSIG=
201001190430 METAR LMML NIL=
201001190415 METAR LMML 190415Z VRB03KT 9999 SCT017 SCT060 10/09 Q1017
                        NOSIG=
201001190400 METAR LMML NIL=
201001190345 METAR LMML 190345Z 28004KT 9999 FEW020 SCT060 10/08 Q1017
                        NOSIG=
201001190330 METAR LMML NIL=
201001190315 METAR LMML 190315Z VRB03KT CAVOK 09/08 Q1017 NOSIG=
201001190300 METAR LMML NIL=
201001190245 METAR LMML 190245Z VRB03KT CAVOK 09/08 Q1018 NOSIG=
201001190230 METAR LMML NIL=
201001190215 METAR LMML 190215Z 32004KT CAVOK 10/08 Q1018 NOSIG=
201001190200 METAR LMML NIL=
201001190145 METAR LMML 190145Z 30004KT CAVOK 09/08 Q1018 NOSIG=
201001190115 METAR LMML 190115Z 32004KT 9999 FEW019 09/08 Q1018 NOSIG=
201001190100 METAR LMML NIL=
201001190045 METAR LMML 190045Z 31005KT 9999 FEW019 09/08 Q1018 NOSIG=
201001190030 METAR LMML NIL=
201001190015 METAR LMML 190015Z 29005KT 9999 FEW026 10/08 Q1018 NOSIG=
201001190000 METAR LMML NIL=
201001182345 METAR LMML 182345Z 28004KT 9999 FEW026 09/08 Q1018 NOSIG=
201001182330 METAR LMML NIL=
201001182315 METAR LMML 182315Z VRB03KT CAVOK 10/09 Q1018 NOSIG=
201001182300 METAR LMML NIL=
201001182245 METAR LMML 182245Z VRB03KT CAVOK 09/09 Q1018 NOSIG=
201001182230 METAR LMML NIL=
201001182215 METAR LMML 182215Z VRB02KT 9999 FEW026 10/09 Q1018 TEMPO
                        SHRA=
201001182200 METAR LMML NIL=
201001182145 METAR LMML 182145Z VRB02KT 9999 FEW026 10/09 Q1019 TEMPO
                        SHRA=
201001182115 METAR LMML 182115Z VRB03KT 9999 FEW026 10/09 Q1019 NOSIG=
201001182100 METAR LMML NIL=
201001182045 METAR LMML 182045Z VRB03KT 9999 FEW005 SCT026 10/09 Q1019
                        NOSIG=
201001182030 METAR LMML NIL=
201001182015 METAR LMML 182015Z VRB03KT 9999 FEW005 SCT026 11/10 Q1019
                        NOSIG=
201001182000 METAR LMML NIL=
201001181945 METAR LMML 181945Z 35009KT 9999 -SHRA SCT018 SCT070 11/10
                        Q1019 NOSIG=
201001181930 METAR LMML NIL=
201001181915 METAR LMML 181915Z VRB01KT 9999 FEW018 SCT070 11/10 Q1018
                        TEMPO SHRA=
201001181900 METAR LMML NIL=
201001181845 METAR LMML 181845Z VRB01KT 9999 FEW016 SCT070 11/10 Q1018
                        TEMPO SHRA=
201001181830 METAR LMML NIL=
201001181815 METAR LMML 181815Z VRB02KT 9999 FEW016 12/10 Q1018 TEMPO
                        SHRA=
201001181800 METAR LMML NIL=
201001181745 METAR LMML 181745Z VRB01KT 9999 FEW016 SCT040 13/11 Q1018
                        NOSIG=
201001181730 METAR LMML NIL=
201001181715 METAR LMML 181715Z VRB02KT 9999 FEW016 SCT024 13/11 Q1018
                        NOSIG=
201001181700 METAR LMML NIL=
201001181645 METAR LMML 181645Z VRB03KT 9999 -RA SCT014 BKN040 13/11 Q1018
                        NOSIG=
201001181630 METAR LMML NIL=
201001181615 METAR LMML 181615Z VRB03KT 9999 SCT016 BKN040 14/11 Q1018
                        NOSIG=
201001181600 METAR LMML NIL=
201001181545 METAR LMML 181545Z 32004KT 9999 SCT019 14/11 Q1018 NOSIG=
201001181530 METAR LMML NIL=
201001181515 METAR LMML 181515Z 28004KT 230V310 9999 SCT020 15/11 Q1017
                        NOSIG=
201001181500 METAR LMML NIL=
201001181445 METAR LMML 181445Z 29005KT 260V320 9999 SCT021 15/10 Q1017
                        NOSIG=
201001181430 METAR LMML NIL=
201001181415 METAR LMML 181415Z 32004KT 280V350 9999 SCT020 14/11 Q1017
                        NOSIG=
201001181400 METAR LMML NIL=
201001181345 METAR LMML 181345Z 30005KT 250V340 9999 SCT019 15/11 Q1017
                        NOSIG=
201001181330 METAR LMML NIL=
201001181315 METAR LMML 181315Z 29005KT 260V320 9999 FEW020 SCT050 15/11
                        Q1017 NOSIG=
201001181245 METAR LMML 181245Z 29005KT 9999 FEW020 SCT050 BKN120 14/10
                        Q1017 NOSIG=
201001181215 METAR LMML 181215Z 31005KT 270V340 9999 FEW020 BKN120 15/11
                        Q1017 NOSIG=
201001181145 METAR LMML 181145Z 30006KT 9999 FEW019 SCT037 BKN100 14/10
                        Q1018 NOSIG=
201001181115 METAR LMML 181115Z 31006KT 9999 FEW019 SCT037 BKN100 14/11
                        Q1018 NOSIG=
201001181100 METAR LMML NIL=
201001181045 METAR LMML 181045Z 28005KT 230V320 9999 FEW020 SCT060 BKN100
                        14/10 Q1019 NOSIG=
201001181030 METAR LMML NIL=
201001181015 METAR LMML 181015Z 27004KT 230V320 9999 FEW020 SCT060 BKN100
                        14/10 Q1019 NOSIG=
201001181000 METAR LMML NIL=
201001180945 METAR LMML 180945Z VRB03KT 9999 FEW020 SCT060 BKN100 13/10
                        Q1019 NOSIG=
201001180930 METAR LMML NIL=
201001180915 METAR LMML 180915Z VRB03KT 9999 -RA NSC 13/11 Q1019 TEMPO
                        7000 RA BKN008=
201001180845 METAR LMML 180845Z VRB03KT 9000 FEW020 SCT034 OVC080 12/11
                        Q1020 NOSIG=
201001180830 METAR LMML NIL=
201001180815 METAR LMML 180815Z VRB02KT 7000 -RA FEW021 SCT034 OVC080
                        12/11 Q1019 NOSIG=
201001180800 METAR LMML NIL=
201001180745 METAR LMML 180745Z 30004KT 7000 -RA FEW021 BKN037 OVC090
                        12/10 Q1019 NOSIG=
201001180730 METAR LMML NIL=
201001180715 METAR LMML 180715Z 29005KT 7000 -RA FEW021 BKN035 OVC090
                        12/10 Q1019 NOSIG=
201001180700 METAR LMML NIL=
201001180645 METAR LMML 180645Z VRB03KT 9000 -RA FEW030 BKN050 OVC090
                        11/10 Q1019 NOSIG=
201001180630 METAR LMML NIL=
201001180615 METAR LMML 180615Z VRB02KT 9999 FEW033 BKN060 11/10 Q1019
                        NOSIG=
201001180600 METAR LMML NIL=
201001180545 METAR LMML 180545Z VRB02KT 9999 FEW039 BKN070 11/10 Q1019
                        NOSIG=
201001180515 METAR LMML 180515Z VRB02KT 9999 SCT034 SCT050 BKN120 11/10
                        Q1019 NOSIG=
201001180500 METAR LMML NIL=
201001180445 METAR LMML 180445Z VRB02KT 9999 FEW032 SCT060 BKN120 11/10
                        Q1019 NOSIG=
201001180430 METAR LMML NIL=
201001180415 METAR LMML 180415Z 31004KT 9999 SCT029 BKN060 11/10 Q1019
                        NOSIG=
201001180400 METAR LMML NIL=
201001180345 METAR LMML 180345Z 29005KT 260V330 9999 SCT027 BKN050 11/10
                        Q1019 NOSIG=
201001180315 METAR LMML 180315Z VRB03KT 9999 -RA SCT017 BKN030 11/10 Q1019
                        NOSIG=
201001180300 METAR LMML NIL=
201001180245 METAR LMML 180245Z VRB03KT 9999 -RA FEW012 SCT022 BKN050
                        11/10 Q1019 NOSIG=
201001180230 METAR LMML NIL=
201001180215 METAR LMML 180215Z VRB02KT 9999 -RA FEW009 SCT020 BKN050
                        11/10 Q1020 NOSIG=
201001180200 METAR LMML NIL=
201001180145 METAR LMML 180145Z 28006KT 240V310 9999 RA FEW018 BKN050
                        11/10 Q1020 NOSIG=
201001180130 METAR LMML NIL=
201001180115 METAR LMML 180115Z 27004KT 9999 FEW027 BKN050 11/08 Q1020
                        NOSIG=
201001180100 METAR LMML NIL=
201001180045 METAR LMML 180045Z VRB03KT 9999 FEW025 BKN048 11/09 Q1020
                        NOSIG=
201001180030 METAR LMML NIL=
201001180015 METAR LMML 180015Z 29005KT 9999 FEW020 BKN046 11/09 Q1021
                        NOSIG=
201001180000 METAR LMML NIL=
201001172345 METAR LMML 172345Z 28004KT 250V320 9999 FEW015 BKN047 11/10
                        Q1021 NOSIG=
201001172315 METAR LMML 172315Z 28004KT 250V310 9999 FEW014 BKN038 11/10
                        Q1021 NOSIG=
201001172245 METAR LMML 172245Z VRB03KT 9999 FEW028 BKN050 11/09 Q1021
                        NOSIG=
201001172230 METAR LMML NIL=
201001172215 METAR LMML 172215Z VRB02KT 9999 -RA FEW034 BKN060 11/09 Q1021
                        NOSIG=
201001172145 METAR LMML 172145Z VRB03KT 9999 FEW027 BKN068 12/09 Q1022
                        NOSIG=
201001172115 METAR LMML 172115Z VRB03KT 9999 FEW034 BKN070 12/08 Q1022
                        NOSIG=
201001172100 METAR LMML NIL=
201001172045 METAR LMML 172045Z 30004KT 9999 FEW030 BKN080 12/08 Q1022
                        NOSIG=
201001172030 METAR LMML NIL=
201001172015 METAR LMML 172015Z 29004KT 9999 FEW030 BKN080 12/07 Q1022
                        NOSIG=
201001172000 METAR LMML NIL=
201001171945 METAR LMML 171945Z 27004KT 230V300 9999 FEW030 BKN090 12/08
                        Q1022 NOSIG=
201001171930 METAR LMML NIL=
201001171915 METAR LMML 171915Z VRB03KT 9999 FEW030 BKN100 12/08 Q1022
                        NOSIG=
201001171900 METAR LMML NIL=
201001171845 METAR LMML 171845Z VRB03KT 9999 FEW030 BKN100 12/08 Q1022
                        NOSIG=
201001171830 METAR LMML NIL=
201001171815 METAR LMML 171815Z VRB03KT 9999 FEW033 BKN100 12/08 Q1022
                        NOSIG=
201001171800 METAR LMML NIL=
201001171745 METAR LMML 171745Z VRB03KT 9999 FEW025 BKN120 12/07 Q1022
                        NOSIG=
201001171730 METAR LMML NIL=
201001171715 METAR LMML 171715Z VRB03KT 9999 FEW025 BKN120 12/07 Q1022
                        NOSIG=
201001171700 METAR LMML NIL=
201001171645 METAR LMML 171645Z 28004KT 9999 FEW025 BKN120 12/07 Q1022
                        NOSIG=
201001171630 METAR LMML NIL=
201001171615 METAR LMML 171615Z 29004KT 9999 FEW025 BKN120 12/08 Q1022
                        NOSIG=
201001171600 METAR LMML NIL=
201001171545 METAR LMML 171545Z 29004KT 9999 FEW031 BKN120 13/08 Q1022
                        NOSIG=
201001171530 METAR LMML NIL=
201001171515 METAR LMML 171515Z 31005KT 9999 FEW031 BKN120 13/08 Q1022
                        NOSIG=
201001171500 METAR LMML NIL=
201001171445 METAR LMML 171445Z 29006KT 260V320 9999 FEW031 BKN120 13/08
                        Q1022 NOSIG=
201001171430 METAR LMML NIL=
201001171415 METAR LMML 171415Z 28007KT 250V320 9999 FEW031 BKN120 14/08
                        Q1022 NOSIG=
201001171400 METAR LMML NIL=
201001171345 METAR LMML 171345Z 28007KT 240V320 9999 FEW025 BKN120 14/08
                        Q1022 NOSIG=
201001171330 METAR LMML NIL=
201001171315 METAR LMML 171315Z 27007KT 220V310 9999 FEW026 BKN120 14/08
                        Q1022 NOSIG=
201001171300 METAR LMML NIL=
201001171245 METAR LMML 171245Z 23006KT 200V270 9999 SCT026 BKN120 14/09
                        Q1022 NOSIG=
201001171215 METAR LMML 171215Z 23005KT 180V300 9999 SCT026 15/09 Q1022
                        NOSIG=
201001171200 METAR LMML NIL=
201001171145 METAR LMML 171145Z 20004KT 150V280 9999 FEW027 SCT050 15/09
                        Q1022 NOSIG=
201001171130 METAR LMML NIL=
201001171115 METAR LMML 171115Z VRB02KT 9999 SCT030 14/08 Q1023 NOSIG=
201001171100 METAR LMML NIL=
201001171045 METAR LMML 171045Z VRB01KT 9999 SCT028 14/07 Q1023 NOSIG=
201001171030 METAR LMML NIL=
201001171015 METAR LMML 171015Z VRB01KT 9999 SCT029 15/08 Q1023 NOSIG=
201001171000 METAR LMML NIL=
201001170945 METAR LMML 170945Z VRB02KT 9999 SCT030 15/08 Q1023 NOSIG=
201001170930 METAR LMML NIL=
201001170915 METAR LMML 170915Z 08004KT 030V140 9999 SCT026 15/09 Q1023
                        NOSIG=
201001170845 METAR LMML 170845Z 06005KT 020V100 9999 FEW025 15/09 Q1023
                        NOSIG=
201001170830 METAR LMML NIL=
201001170815 METAR LMML 170815Z VRB03KT 9999 FEW025 14/09 Q1023 NOSIG=
201001170800 METAR LMML NIL=
201001170745 METAR LMML 170745Z VRB01KT 9999 FEW025 SCT044 13/09 Q1023
                        NOSIG=
201001170730 METAR LMML NIL=
201001170715 METAR LMML 170715Z VRB02KT 9999 FEW025 11/08 Q1023 NOSIG=
201001170700 METAR LMML NIL=
201001170645 METAR LMML 170645Z VRB01KT 9999 FEW024 09/07 Q1023 NOSIG=
201001170615 METAR LMML 170615Z 03004KT 9999 FEW024 10/08 Q1022 NOSIG=
201001170600 METAR LMML NIL=
201001170545 METAR LMML 170545Z 04004KT 9999 FEW026 10/07 Q1022 NOSIG=
201001170530 METAR LMML NIL=
201001170515 METAR LMML 170515Z VRB03KT 9999 FEW035 10/07 Q1022 NOSIG=
201001170500 METAR LMML NIL=
201001170445 METAR LMML 170445Z VRB02KT 9999 FEW035 11/07 Q1022 NOSIG=
201001170430 METAR LMML NIL=
201001170415 METAR LMML 170415Z 03005KT 9999 FEW026 SCT050 11/07 Q1022
                        NOSIG=
201001170345 METAR LMML 170345Z 03004KT 9999 FEW023 SCT050 11/08 Q1022
                        NOSIG=
201001170330 METAR LMML NIL=
201001170315 METAR LMML 170315Z 03004KT 9999 FEW023 SCT050 12/08 Q1021
                        NOSIG=
201001170300 METAR LMML NIL=
201001170245 METAR COR LMML 170245Z 03005KT 360V070 9999 FEW023 SCT050
                        11/08 Q1021 NOSIG=
201001170230 METAR LMML NIL=
201001170215 METAR LMML 170215Z 02004KT 9999 FEW022 SCT050 11/08 Q1021
                        NOSIG=
201001170200 METAR LMML NIL=
201001170145 METAR LMML 170145Z 01004KT 9999 FEW025 SCT050 11/08 Q1022
                        NOSIG=
201001170130 METAR LMML NIL=
201001170115 METAR LMML 170115Z 01005KT 330V040 9999 FEW025 SCT050 11/08
                        Q1022 NOSIG=
201001170100 METAR LMML NIL=
201001170045 METAR LMML 170045Z 04006KT 360V090 9999 FEW024 12/08 Q1021
                        NOSIG=
201001170030 METAR LMML NIL=
201001170015 METAR LMML 170015Z 02005KT 360V060 9999 FEW024 SCT045 11/08
                        Q1021 NOSIG=
201001170000 METAR LMML NIL=
201001162345 METAR LMML 162345Z 01005KT 9999 FEW025 SCT043 11/08 Q1021
                        NOSIG=
201001162330 METAR LMML NIL=
201001162315 METAR LMML 162315Z 36006KT 340V040 9999 FEW025 SCT037 11/08
                        Q1022 NOSIG=
201001162300 METAR LMML NIL=
201001162245 METAR LMML 162245Z 01006KT 9999 FEW024 11/08 Q1021 NOSIG=
201001162230 METAR LMML NIL=
201001162215 METAR LMML 162215Z 01007KT 9999 FEW024 SCT050 11/08 Q1021
                        NOSIG=
201001162200 METAR LMML NIL=
201001162145 METAR LMML 162145Z 01007KT 9999 FEW025 SCT050 11/08 Q1021
                        NOSIG=
201001162130 METAR LMML NIL=
201001162115 METAR LMML 162115Z 02006KT 350V050 9999 FEW025 SCT050 12/08
                        Q1020 NOSIG=
201001162100 METAR LMML NIL=
201001162045 METAR LMML 162045Z 01006KT 9999 FEW026 SCT050 12/08 Q1020
                        NOSIG=
201001162030 METAR LMML NIL=
201001162015 METAR LMML 162015Z 01007KT 340V040 9999 FEW027 SCT050 12/08
                        Q1020 NOSIG=
201001162000 METAR LMML NIL=
201001161945 METAR LMML 161945Z 01009KT 340V040 9999 SCT027 BKN060 12/08
                        Q1020 NOSIG=
201001161915 METAR LMML 161915Z 02008KT 9999 SCT027 BKN060 12/08 Q1019
                        NOSIG=
201001161845 METAR LMML 161845Z 01009KT 9999 SCT028 BKN050 13/08 Q1019
                        NOSIG=
201001161830 METAR LMML NIL=
201001161815 METAR LMML 161815Z 03009KT 360V070 9999 SCT025 BKN070 12/08
                        Q1019 NOSIG=
201001161800 METAR LMML NIL=
201001161745 METAR LMML 161745Z 03011KT 350V060 9999 SCT024 BKN080 12/08
                        Q1019 NOSIG=
201001161730 METAR LMML NIL=
201001161715 METAR LMML 161715Z 02011G22KT 9999 SCT024 BKN070 12/08 Q1018
                        NOSIG=
201001161700 METAR LMML NIL=
201001161645 METAR LMML 161645Z 02011G22KT 9999 BKN024 BKN060 12/08 Q1018
                        NOSIG=
201001161630 METAR LMML NIL=
201001161615 METAR LMML 161615Z 02014G24KT 9999 BKN023 BKN060 12/09 Q1018
                        NOSIG=
201001161545 METAR LMML 161545Z 02013G23KT 9999 BKN020 BKN050 12/09 Q1017
                        NOSIG=
201001161530 METAR LMML NIL=
201001161515 METAR LMML 161515Z 02014G27KT 360V060 9999 BKN013 BKN060
                        12/09 Q1016 NOSIG=
201001161500 METAR LMML NIL=
201001161445 METAR LMML 161445Z 02015G28KT 360V060 9999 BKN014 BKN026
                        12/10 Q1016 NOSIG=
201001161430 METAR LMML NIL=
201001161415 METAR LMML 161415Z 02018G30KT 350V050 9999 BKN014 BKN019
                        12/10 Q1015 NOSIG=
201001161400 METAR LMML NIL=
201001161345 METAR LMML 161345Z 01017G28KT 340V040 6000 SHRA BKN009 BKN013
                        12/11 Q1015 NOSIG=
201001161333 SPECI LMML 161333Z 01014G26KT 6000 BKN009 12/10 Q1015 NOSIG=
201001161330 METAR LMML NIL=
201001161315 METAR LMML 161315Z 01017G29KT 350V050 9999 BKN012 BKN050
                        12/10 Q1015 NOSIG=
201001161300 METAR LMML NIL=
201001161245 METAR LMML 161245Z 02016G34KT 350V060 9999 BKN012 BKN050
                        13/10 Q1014 NOSIG=
201001161230 METAR LMML NIL=
201001161215 METAR LMML 161215Z 02017G28KT 350V050 9999 BKN012 BKN050
                        13/10 Q1014 NOSIG=
201001161200 METAR LMML NIL=
201001161145 METAR LMML 161145Z 02016G29KT 340V050 9999 BKN012 BKN050
                        13/10 Q1014 NOSIG=
201001161130 METAR LMML NIL=
201001161115 METAR LMML 161115Z 02017G30KT 9999 BKN011 BKN050 13/11 Q1014
                        NOSIG=
201001161100 METAR LMML NIL=
201001161045 METAR LMML 161045Z 02017G29KT 9999 BKN012 BKN060 13/11 Q1014
                        NOSIG=
201001161030 METAR LMML NIL=
201001161015 METAR LMML 161015Z 02018G30KT 360V060 9999 BKN013 BKN060
                        13/11 Q1013 NOSIG=
201001161000 METAR LMML NIL=
201001160945 METAR LMML 160945Z 02017G32KT 9999 BKN012 BKN060 13/11 Q1013
                        NOSIG=
201001160930 METAR LMML NIL=
201001160915 METAR LMML 160915Z 01020G32KT 340V040 9999 BKN014 BKN060
                        12/11 Q1013 NOSIG=
201001160845 METAR LMML 160845Z 36023G35KT 330V030 9999 BKN013 BKN025
                        12/11 Q1013 NOSIG=
201001160830 METAR LMML NIL=
201001160815 METAR LMML 160815Z 36019KT 6000 SHRA BKN013 BKN023 12/11
                        Q1012 BECMG 9000=
201001160800 METAR LMML NIL=
201001160745 METAR LMML 160745Z 35016KT 6000 SHRA SCT015 BKN022 12/09
                        Q1012 TEMPO BKN015=
201001160739 SPECI LMML 160739Z 35016KT 6000 BKN019 BKN025 12/09 Q1012
                        8000 SHRA BKN015=
201001160730 METAR LMML NIL=
201001160715 METAR LMML 160715Z 35014KT 9999 BKN021 12/09 Q1011 NOSIG=
201001160700 METAR LMML NIL=
201001160645 METAR LMML 160645Z 01013KT 9999 BKN023 12/08 Q1011 NOSIG=
201001160630 METAR LMML NIL=
201001160615 METAR LMML 160615Z 35012KT 9999 FEW025 SCT047 11/08 Q1010
                        NOSIG=
201001160600 METAR LMML NIL=
201001160545 METAR LMML 160545Z 35010KT 320V020 9999 FEW023 SCT060 11/08
                        Q1010 TEMPO 8000 BKN011=
201001160530 METAR LMML NIL=
201001160515 METAR LMML 160515Z 01008KT 350V050 9999 FEW023 SCT070 12/08
                        Q1010 TEMPO 8000 BKN011=
201001160500 METAR LMML NIL=
201001160445 METAR LMML 160445Z 02008KT 9999 FEW018 BKN060 12/09 Q1009
                        TEMPO 7000 BKN006=
201001160430 METAR LMML NIL=
201001160415 METAR LMML 160415Z 04010KT 360V070 7000 FEW015 SCT023 12/10
                        Q1009 TEMPO 5000 SHRA BKN006=
201001160400 METAR LMML NIL=
201001160345 METAR LMML 160345Z 04010KT 010V080 6000 FEW015 SCT060 12/10
                        Q1008 TEMPO 5000 SHRA BKN006=
201001160330 METAR LMML NIL=
201001160315 METAR LMML 160315Z 05009KT 020V080 6000 SCT017 12/09 Q1008
                        TEMPO 5000 SHRA BKN006=
201001160300 METAR LMML NIL=
201001160245 METAR LMML 160245Z 02005KT 6000 BKN012 11/10 Q1008 TEMPO
                        5000 SHRA BKN006=
201001160230 METAR LMML NIL=
201001160215 METAR LMML 160215Z 32007KT 6000 BKN011 11/10 Q1008 TEMPO
                        5000 SHRA BKN006=
201001160200 METAR LMML NIL=
201001160145 METAR LMML 160145Z 32008KT 9999 SCT012 SCT040 BKN070 11/10
                        Q1008 TEMPO 8000 SHRA=
201001160130 METAR LMML NIL=
201001160115 METAR LMML 160115Z 32005KT 9999 SCT019 SCT040 BKN070 10/08
                        Q1008 TEMPO 8000 SHRA=
201001160100 METAR LMML NIL=
201001160045 METAR LMML 160045Z VRB03KT 9999 SCT037 BKN070 10/08 Q1007
                        TEMPO 8000 SHRA=
201001160030 METAR LMML NIL=
201001160015 METAR LMML 160015Z VRB03KT 9999 SCT036 BKN070 10/09 Q1007
                        TEMPO 8000 SHRA=
201001160000 METAR LMML NIL=
201001152345 METAR LMML 152345Z 08004KT 9999 FEW030 BKN070 10/10 Q1007
                        TEMPO 6000 SHRA BKN015=
201001152330 METAR LMML NIL=
201001152315 METAR LMML 152315Z VRB03KT 9999 FEW030 SCT070 10/09 Q1006
                        TEMPO 6000 SHRA BKN015=
201001152245 METAR LMML 152245Z VRB03KT 9999 SCT032 SCT070 10/09 Q1007
                        TEMPO 7000 SHRA BKN015=
201001152230 METAR LMML NIL=
201001152215 METAR LMML 152215Z 12004KT 9999 SCT032 SCT080 10/09 Q1006
                        TEMPO 7000 SHRA SBKN015=
201001152200 METAR LMML NIL=
201001152145 METAR LMML 152145Z VRB03KT 9999 FEW021 SCT080 09/08 Q1006
                        TEMPO 5000 TSRA BKN015CB=
201001152130 METAR LMML NIL=
201001152115 METAR LMML 152115Z 17005KT 9999 FEW030 SCT047 10/09 Q1006
                        TEMPO 5000 TSRA BKN015CB=
201001152045 METAR LMML 152045Z VRB02KT 9999 FEW026 SCT070 10/09 Q1006
                        TEMPO 5000 TSRA BKN015CB=
201001152030 METAR LMML NIL=
201001152015 METAR LMML 152015Z VRB01KT 9999 FEW021 BKN070 10/09 Q1006
                        TEMPO 5000 TSRA BKN015CB=
201001152000 METAR LMML NIL=
201001151945 METAR LMML 151945Z VRB02KT 9999 -RA SCT021 SCT080 11/09 Q1006
                        TEMPO 5000 TSRA BKN015CB=
201001151930 METAR LMML NIL=
201001151915 METAR LMML 151915Z 24004KT 190V280 6000 -SHRA SCT042 SCT060
                        11/09 Q1006 TEMPO 5000 TSRA BKN015CB=
201001151900 METAR LMML NIL=
201001151845 METAR LMML 151845Z VRB03KT 9999 SCT026 SCT120 11/09 Q1006
                        TEMPO 8000 SHRA BKN015=
201001151830 METAR LMML NIL=
201001151815 METAR LMML 151815Z 27004KT 240V310 9999 SCT020 SCT120 11/09
                        Q1005 TEMPO 8000 SHRA BKN015=
201001151800 METAR LMML NIL=
201001151745 METAR LMML 151745Z 29005KT 250V330 9999 SCT018 SCT120 11/09
                        Q1005 RESHRA TEMPO 8000 SHRA BKN015=
201001151715 METAR LMML 151715Z 28010KT 9999 SHRA BKN018 SCT120 11/09
                        Q1005 TEMPO 3000 TSRA BKN015CB=
201001151700 METAR LMML NIL=
201001151645 METAR LMML 151645Z 27005KT 240V300 9999 BKN024 SCT120 12/09
                        Q1005 RESHRA TEMPO 8000 SHRA=
201001151630 METAR LMML NIL=
201001151615 METAR LMML 151615Z 27008KT 220V320 9999 SHRA BKN024 SCT120
                        12/10 Q1005 TEMPO 8000 SHRA=
201001151600 METAR LMML NIL=
201001151545 METAR LMML 151545Z 28008KT 9999 BKN021 12/10 Q1005 TEMPO
                        8000 SHRA BKN015 RMK CB TOP TO NORTHEAST=
201001151515 METAR LMML 151515Z 27011KT 240V300 9999 SCT021 SCT250 13/10
                        Q1005 TEMPO 8000 SHRA BKN015=
201001151500 METAR LMML NIL=
201001151445 METAR LMML 151445Z 28008KT 9999 FEW017CB SCT020 12/09 Q1004
                        TEMPO 8000 SHRA BKN015=
201001151430 METAR LMML NIL=
201001151415 METAR LMML 151415Z 29012KT 260V320 9999 SCT017 SCT050 13/10
                        Q1004 TEMPO 8000 SHRA BKN015=
201001151400 METAR LMML NIL=
201001151345 METAR LMML 151345Z 28012KT 240V310 9999 SCT018 SCT050 12/09
                        Q1004 RESHRA TEMPO 8000 SHRA BKN015=
201001151330 METAR LMML NIL=
201001151330 SPECI LMML 151330Z 28016KT 5000 RA BKN019 SCT045 12/09 Q1004
                        TEMPO 8000 SHRA BKN015=
201001151315 METAR LMML 151315Z 28014KT 9999 BKN021 SCT050 14/10 Q1004
                        TEMPO 8000 SHRA BKN015=
201001151300 METAR LMML NIL=
201001151245 METAR LMML 151245Z 28014KT 240V310 9999 FEW019 SCT060 BKN250
                        14/10 Q1004 TEMPO 8000 SHRA BKN015=
201001151215 METAR LMML 151215Z 29014KT 9999 SCT021 SCT120 BKN250 14/10
                        Q1004 TEMPO 8000 SHRA BKN015=
201001151200 METAR LMML NIL=
201001151145 METAR LMML 151145Z 28014KT 250V310 9999 -SHRA SCT021 SCT039
                        BKN120 13/10 Q1004 TEMPO 8000 SHRA=
201001151130 METAR LMML NIL=
201001151115 METAR LMML 151115Z 28009KT 230V330 9999 SCT020 SCT035 BKN120
                        13/10 Q1004 RERA TEMPO 8000 RA=
201001151100 METAR LMML NIL=
201001151045 METAR LMML 151045Z 24004KT 190V300 9999 SCT020 BKN050 12/09
                        Q1005 RERA TEMPO 8000 RA=
201001151030 METAR LMML NIL=
201001151015 METAR LMML 151015Z 24011KT 180V280 5000 RA FEW018 BKN050
                        13/09 Q1005 TEMPO 8000=
201001151000 METAR LMML NIL=
201001150945 METAR LMML 150945Z 28012KT 240V320 9000 -RA FEW018 BKN036
                        12/10 Q1005 NOSIG=
201001150915 METAR LMML 150915Z 28018KT 250V330 9000 -RA SCT011 BKN035
                        13/10 Q1005 TEMPO 3000 TSRA BKN015CB=
201001150900 METAR LMML NIL=
201001150845 METAR LMML 150845Z 22008KT 190V270 9000 SCT014 BKN080 BKN250
                        15/12 Q1004 TEMPO 3000 TSRA BKN014CB=
201001150830 METAR LMML NIL=
201001150815 METAR LMML 150815Z 19010KT 160V230 9999 FEW010 SCT015 BKN250
                        15/13 Q1004 TEMPO 8000 SHRA BKN015=
201001150800 METAR LMML NIL=
201001150745 METAR LMML 150745Z 18011KT 150V220 9999 -RA SCT013 BKN030
                        BKN050 14/12 Q1004 TEMPO SHRA BKN015=
201001150730 METAR LMML NIL=
201001150715 METAR LMML 150715Z 17007KT 150V210 9999 SCT024 BKN040 14/12
                        Q1005 NOSIG=
201001150700 METAR LMML NIL=
201001150645 METAR LMML 150645Z 18005KT 150V210 9000 FEW009 SCT042 BKN060
                        14/12 Q1005 NOSIG=
201001150630 METAR LMML NIL=
201001150615 METAR LMML 150615Z 17008KT 9000 SCT008 SCT040 BKN060 14/13
                        Q1005 NOSIG=
201001150600 METAR LMML NIL=
201001150545 METAR LMML 150545Z 18008KT 150V210 6000 -RA FEW009 BKN035
                        OVC060 14/12 Q1005 BECMG 8000=
201001150530 METAR LMML NIL=
201001150515 METAR LMML 150515Z 18013KT 150V210 6000 -RA SCT006 BKN036
                        OVC054 14/12 Q1005 BECMG 8000=
201001150500 METAR LMML NIL=
201001150445 METAR LMML 150445Z 18013KT 6000 -RA FEW006 BKN023 OVC056
                        13/13 Q1005 TEMPO 5000 RA BKN006=
201001150430 METAR LMML NIL=
201001150415 METAR LMML 150415Z 18011KT 140V210 6000 -RA SCT008 BKN011
                        OVC026 14/13 Q1006 TEMPO 5000 RA
                        BKN010=
201001150400 METAR LMML NIL=
201001150345 METAR LMML 150345Z 15011KT 120V180 6000 -RA FEW009 BKN012
                        OVC018 14/13 Q1006 TEMPO 5000 RA
                        BKN010=
201001150330 METAR LMML NIL=
201001150315 METAR LMML 150315Z 15012KT 120V180 6000 -RA BKN017 BKN045
                        14/12 Q1007 NOSIG=
201001150300 METAR LMML NIL=
201001150245 METAR LMML 150245Z 14012KT 120V180 9999 -RA BKN021 BKN044
                        14/11 Q1007 NOSIG=
201001150230 METAR LMML NIL=
201001150215 METAR LMML 150215Z 14012KT 110V170 9999 FEW035 BKN048 BKN100
                        14/11 Q1007 NOSIG=
201001150200 METAR LMML NIL=
201001150145 METAR LMML 150145Z 15009KT 120V180 9999 SCT043 SCT100 BKN250
                        14/10 Q1008 NOSIG=
201001150130 METAR LMML NIL=
201001150115 METAR LMML 150115Z 15007KT 120V180 CAVOK 14/10 Q1009 NOSIG=
201001150100 METAR LMML NIL=
201001150045 METAR LMML 150045Z 16007KT 130V190 CAVOK 14/09 Q1009 NOSIG=
201001150030 METAR LMML NIL=
201001150015 METAR LMML 150015Z 16007KT CAVOK 13/09 Q1009 NOSIG=
201001150000 METAR LMML NIL=
201001142345 METAR LMML 142345Z 16007KT 130V190 CAVOK 13/09 Q1010 NOSIG=
201001142330 METAR LMML NIL=
201001142315 METAR LMML 142315Z 16007KT 130V190 9999 FEW025 BKN250 13/09
                        Q1010 NOSIG=
201001142300 METAR LMML NIL=
201001142245 METAR LMML 142245Z 17006KT 140V200 9999 FEW025 BKN250 13/09
                        Q1011 NOSIG=
201001142230 METAR LMML NIL=
201001142215 METAR LMML 142215Z 17006KT 130V200 9999 FEW025 SCT250 13/09
                        Q1010 NOSIG=
201001142200 METAR LMML NIL=
201001142145 METAR LMML 142145Z 17006KT 140V200 9999 FEW024 SCT250 13/09
                        Q1011 NOSIG=
201001142115 METAR LMML 142115Z 16004KT 140V200 9999 FEW024 SCT250 12/09
                        Q1011 NOSIG=
201001142100 METAR LMML NIL=
201001142045 METAR LMML 142045Z 17005KT 140V200 9999 FEW023 SCT250 12/09
                        Q1011 NOSIG=
201001142030 METAR LMML NIL=
201001142015 METAR LMML 142015Z 18004KT 9999 FEW024 SCT250 12/09 Q1011
                        NOSIG=
201001142000 METAR LMML NIL=
201001141945 METAR LMML 141945Z 17004KT 9999 FEW022 SCT250 12/09 Q1011
                        NOSIG=
201001141930 METAR LMML NIL=
201001141915 METAR LMML 141915Z VRB03KT 9999 FEW022 SCT250 11/09 Q1011
                        NOSIG=
201001141900 METAR LMML NIL=
201001141845 METAR LMML 141845Z VRB03KT 9999 FEW023 SCT250 12/09 Q1011
                        NOSIG=
201001141830 METAR LMML NIL=
201001141815 METAR LMML 141815Z VRB02KT 9999 FEW023 SCT250 11/09 Q1011
                        NOSIG=
201001141800 METAR LMML NIL=
201001141745 METAR LMML 141745Z VRB01KT 9999 FEW023 SCT250 12/09 Q1011
                        NOSIG=
201001141730 METAR LMML NIL=
201001141715 METAR LMML 141715Z VRB03KT 9999 FEW021 SCT250 12/09 Q1011
                        NOSIG=
201001141700 METAR LMML NIL=
201001141645 METAR LMML 141645Z 24004KT 9999 FEW021 SCT250 12/09 Q1011
                        NOSIG=
201001141630 METAR LMML NIL=
201001141615 METAR LMML 141615Z VRB03KT 9999 FEW021 13/09 Q1011 NOSIG=
201001141600 METAR LMML NIL=
201001141545 METAR LMML 141545Z 24006KT 210V280 9999 FEW022 14/10 Q1011
                        NOSIG=
201001141530 METAR LMML NIL=
201001141515 METAR LMML 141515Z 26004KT 220V300 9999 FEW021 14/10 Q1011
                        NOSIG=
201001141500 METAR LMML NIL=
201001141445 METAR LMML 141445Z 26004KT 220V290 9999 FEW025 SCT250 14/09
                        Q1011 NOSIG=
201001141430 METAR LMML NIL=
201001141415 METAR LMML 141415Z 27005KT 230V300 9999 FEW027 SCT250 15/09
                        Q1010 NOSIG=
201001141345 METAR LMML 141345Z 26007KT 200V310 9999 FEW027 SCT250 15/08
                        Q1011 NOSIG=
201001141330 METAR LMML NIL=
201001141315 METAR LMML 141315Z 25007KT 210V290 9999 FEW025 BKN250 16/09
                        Q1011 NOSIG=
201001141300 METAR LMML NIL=
201001141245 METAR LMML 141245Z 27007KT 220V310 999 FEW025 BKN250 15/10
                        Q1011 NOSIG=
201001141230 METAR LMML NIL=
201001141215 METAR LMML 141215Z 27008KT 240V310 9999 FEW025 SCT250 15/09
                        Q1011 NOSIG=
201001141200 METAR LMML NIL=
201001141145 METAR LMML 141145Z 28006KT 250V310 9999 FEW023 BKN120 15/10
                        Q1011 NOSIG=
201001141115 METAR LMML 141115Z 28005KT 240V300 9999 SCT027 SCT120 16/10
                        Q1012 NOSIG=
201001141100 METAR LMML NIL=
201001141045 METAR LMML 141045Z 32004KT 280V350 9999 FEW027 BKN120 15/09
                        Q1012 NOSIG=
201001141015 METAR LMML 141015Z 33005KT 310V010 9999 FEW026 SCT120 15/09
                        Q1011 NOSIG=
201001140945 METAR LMML 140945Z 34007KT 310V020 9999 FEW024 BKN250 15/10
                        Q1012 NOSIG=
201001140930 METAR LMML NIL=
201001140915 METAR LMML 140915Z 34008KT 9999 FEW021 BKN250 14/10 Q1011
                        NOSIG=
201001140900 METAR LMML NIL=
201001140845 METAR LMML 140845Z 33008KT 290V360 9999 SCT019 SCT250 14/11
                        Q1011 NOSIG=
201001140830 METAR LMML NIL=
201001140815 METAR LMML 140815Z 33009KT 290V360 9999 FEW019 14/10 Q1011
                        NOSIG=
201001140800 METAR LMML NIL=
201001140745 METAR LMML 140745Z 32010KT 280V340 9999 FEW019 13/10 Q1010
                        NOSIG=
201001140715 METAR LMML 140715Z 32014KT 9999 FEW020 SCT250 13/10 Q1010
                        NOSIG=
201001140700 METAR LMML NIL=
201001140645 METAR LMML 140645Z 32013KT 280V340 9999 FEW021 12/10 Q1010
                        NOSIG=
201001140630 METAR LMML NIL=
201001140615 METAR LMML 140615Z 31013KT 9999 SCT023 12/09 Q1009 NOSIG=
201001140545 METAR LMML 140545Z 32015KT 9999 FEW021 12/10 Q1009 NOSIG=
201001140515 METAR LMML 140515Z 30014KT 9999 FEW021 SCT063 12/10 Q1009
                        NOSIG=
201001140500 METAR LMML NIL=
201001140445 METAR LMML 140445Z 31014KT 9999 SCT021 BKN070 12/10 Q1008
                        NOSIG=
201001140430 METAR LMML NIL=
201001140415 METAR LMML 140415Z 32009KT 9999 FEW020 BKN070 12/09 Q1008
                        NOSIG=
201001140400 METAR LMML NIL=
201001140345 METAR LMML 140345Z 30008KT 9999 FEW020 11/09 Q1007 NOSIG=
201001140330 METAR LMML NIL=
201001140315 METAR LMML 140315Z 31011KT 9999 FEW017 11/09 Q1007 NOSIG=
201001140245 METAR LMML 140245Z 32013KT 9999 FEW017 11/09 Q1007 NOSIG=
201001140230 METAR LMML NIL=
201001140215 METAR LMML 140215Z 32014KT 9999 FEW015 12/09 Q1006 NOSIG=
201001140145 METAR LMML 140145Z 32016KT 9999 FEW015 12/10 Q1005 NOSIG=
201001140115 METAR LMML 140115Z 32018G28KT 290V350 9999 FEW015 SCT034
                        12/10 Q1005 NOSIG=
201001140100 METAR LMML NIL=
201001140045 METAR LMML 140045Z 29025G36KT 260V320 9999 FEW016 BKN034
                        13/11 Q1004 NOSIG=
201001140015 METAR LMML 140015Z 29025G35KT 250V310 9999 FEW015 BKN034
                        13/11 Q1003 NOSIG=
201001140000 METAR LMML NIL=
201001132345 METAR LMML 132345Z 28026G39KT 240V320 9999 SHRA FEW018 BKN036
                        13/11 Q1003 NOSIG=
201001132330 METAR LMML NIL=
201001132315 METAR LMML 132315Z 28025G35KT 250V320 9999 FEW016 BKN029
                        13/10 Q1003 NOSIG=
201001132245 METAR LMML 132245Z 27026G37KT 240V300 9999 SHRA FEW012 BKN027
                        13/11 Q1003 NOSIG=
201001132215 METAR LMML 132215Z 27025G36KT 240V310 9999 SHRA FEW014 BKN025
                        12/10 Q1003 TEMPO 8000 SHRA=
201001132200 METAR LMML NIL=
201001132145 METAR LMML 132145Z 27028G40KT 230V300 9999 SHRA FEW015 BKN035
                        12/10 Q1004 TEMPO 8000 SHRA=
201001132130 METAR LMML NIL=
201001132115 METAR LMML 132115Z 27026G36KT 230V300 9999 BKN026 SCT050
                        13/09 Q1004 TEMPO 8000 SHRA=
201001132100 METAR LMML NIL=
201001132045 METAR LMML 132045Z 27030G42KT 230V310 9999 BKN034TCU SCT050
                        14/09 Q1004 TEMPO 8000 SHRA=
201001132030 METAR LMML NIL=
201001132015 METAR LMML 132015Z 27027G39KT 9999 BKN037TCU SCT050 14/07
                        Q1004 TEMPO 8000 SHRA=
201001132000 METAR LMML NIL=
201001131945 METAR LMML 131945Z 27027G40KT 240V300 9999 BKN038TCU SCT060
                        13/07 Q1005 TEMPO 8000 SHRA=
201001131930 METAR LMML NIL=
201001131915 METAR LMML 131915Z 26019G32KT 220V300 9999 BKN040 SCT060
                        14/08 Q1004 TEMPO 8000 SHRA=
201001131900 METAR LMML NIL=
201001131845 METAR LMML 131845Z 26018KT 210V280 9999 BKN030 SCT090 12/09
                        Q1005 TEMPO 8000 SHRA=
201001131815 METAR LMML 131815Z 27016G42KT 230V310 9999 BKN040 13/08 Q1005
                        TEMPO 8000 SHRA=
201001131800 METAR LMML NIL=
201001131745 METAR LMML 131745Z 29024KT 9999 -SHRA BKN035TCU 13/08 Q1005
                        TEMPO 8000 SHRA=
201001131715 METAR LMML 131715Z 28020KT 250V310 9999 BKN033TCU 13/08 Q1005
                        TEMPO 8000 SHRA=
201001131700 METAR LMML NIL=
201001131645 METAR LMML 131645Z 29023G34KT 260V320 9999 BKN035TCU 13/07
                        Q1005 TEMPO 8000 SHRA=
201001131630 METAR LMML NIL=
201001131615 METAR LMML 131615Z 28026G36KT 240V310 9999 FEW034TCU 13/07
                        Q1005 RETS TEMPO 8000 SHRA=
201001131600 METAR LMML NIL=
201001131545 METAR LMML 131545Z 27015KT 240V300 9999 FEW026CB SCT120 BKN250
                        12/08 Q1004 TEMPO 8000 SHRA=
201001131538 SPECI LMML 131538Z 27015KT 240V300 9999 FEW026CB SCT090 BKN250
                        12/08 Q1004 TEMPO 8000 SHRA=
201001131530 METAR LMML NIL=
201001131515 METAR COR LMML 131515Z 27021G38KT 240V310 5000 -TSRA BKN026CB
                        12/08 Q1006 TEMPO 5000 TSRA BKN015CB=
201001131500 METAR LMML NIL=
201001131445 METAR LMML 131445Z 27017KT 230V300 9999 SCT029 15/09 Q1004
                        TEMPO 6000 SHRA BKN015TCU=
201001131430 METAR LMML NIL=
201001131415 METAR LMML 131415Z 25017KT 190V290 9999 SCT027 15/10 Q1004
                        NOSIG=
201001131345 METAR LMML 131345Z 25016KT 210V290 9999 SCT021 15/11 Q1004
                        NOSIG=
201001131330 METAR LMML NIL=
201001131315 METAR LMML 131315Z 24014KT 200V290 9999 -RA BKN019 BKN100
                        14/11 Q1004 NOSIG=
201001131300 METAR LMML NIL=
201001131245 METAR LMML 131245Z 24015KT 210V280 9999 SCT018 SCT050 BKN100
                        14/11 Q1005 NOSIG=
201001131230 METAR LMML NIL=
201001131215 METAR LMML 131215Z 23012KT 200V280 9999 -RA FEW014 SCT021
                        OVC100 13/12 Q1005 TEMPO 8000 RA=
201001131200 METAR LMML NIL=
201001131145 METAR LMML 131145Z 22014KT 190V270 6000 -RA FEW011 SCT018
                        OVC100 13/11 Q1006 NOSIG=
201001131115 METAR LMML 131115Z 21012G22KT 150V260 6000 RA BKN019 OVC047
                        13/10 Q1006 NOSIG=
201001131045 METAR LMML 131045Z 21009KT 170V270 9000 -RA FEW017 OVC100
                        13/11 Q1008 TEMPO 24023G33KT 6000
                        RA=
201001131030 METAR LMML NIL=
201001131015 METAR LMML 131015Z 21018G29KT 170V260 9999 -RA SCT026 BKN110
                        14/09 Q1008 NOSIG=
201001131000 METAR LMML NIL=
201001130945 METAR LMML 130945Z 21013KT 170V250 9999 SCT027 BKN100 15/09
                        Q1009 NOSIG=
201001130930 METAR LMML NIL=
201001130915 METAR LMML 130915Z 21012KT 170V260 9999 SCT025 BKN100 14/09
                        Q1009 NOSIG=
201001130900 METAR LMML NIL=
201001130845 METAR LMML 130845Z 21011KT 170V270 9999 FEW021 SCT032 BKN110
                        14/09 Q1010 NOSIG=
201001130830 METAR LMML NIL=
201001130815 METAR LMML 130815Z 21007KT 170V260 9999 -RA SCT023 SCT060
                        OVC120 14/09 Q1010 NOSIG=
201001130800 METAR LMML NIL=
201001130745 METAR LMML 130745Z 21007KT 170V270 9999 SCT023 SCT060 OVC120
                        13/09 Q1011 NOSIG=
201001130730 METAR LMML NIL=
201001130715 METAR LMML 130715Z 21006KT 170V260 9999 BKN024 OVC120 13/08
                        Q1011 NOSIG=
201001130700 METAR LMML NIL=
201001130645 METAR LMML 130645Z 21006KT 180V250 9999 BKN030 OVC120 13/08
                        Q1011 NOSIG=
201001130630 METAR LMML NIL=
201001130615 METAR LMML 130615Z 21006KT 160V260 9999 -RA SCT029 OVC060
                        12/07 Q1011 NOSIG=
201001130600 METAR LMML NIL=
201001130545 METAR LMML 130545Z 22006KT 200V260 9999 FEW030 SCT060 BKN100
                        12/07 Q1011 NOSIG=
201001130530 METAR LMML NIL=
201001130515 METAR LMML 130515Z 22004KT 190V270 9999 SCT030 SCT060 BKN110
                        12/07 Q1011 NOSIG=
201001130500 METAR LMML NIL=
201001130445 METAR LMML 130445Z 25004KT 210V280 9999 SCT030 BKN060 12/07
                        Q1012 NOSIG=
201001130430 METAR LMML NIL=
201001130415 METAR LMML 130415Z 25007KT 200V280 9999 SCT032 BKN050 12/06
                        Q1012 NOSIG=
201001130400 METAR LMML NIL=
201001130345 METAR LMML 130345Z 25005KT 210V290 9999 FEW032 SCT050 11/06
                        Q1013 NOSIG=
201001130330 METAR LMML NIL=
201001130315 METAR LMML 130315Z 25006KT 210V280 9999 FEW033 11/05 Q1013
                        NOSIG=
201001130245 METAR LMML 130245Z 24005KT 9999 FEW035 SCT250 10/06 Q1013
                        NOSIG=
201001130230 METAR LMML NIL=
201001130215 METAR LMML 130215Z 24005KT 210V270 9999 FEW035 SCT250 10/06
                        Q1013 NOSIG=
201001130200 METAR LMML NIL=
201001130145 METAR LMML 130145Z 25005KT 9999 FEW032 09/06 Q1014 NOSIG=
201001130130 METAR LMML NIL=
201001130115 METAR LMML 130115Z 26005KT CAVOK 09/06 Q1014 NOSIG=
201001130045 METAR LMML 130045Z 25004KT 9999 FEW030 09/06 Q1014 NOSIG=
201001130030 METAR LMML NIL=
201001130015 METAR LMML 130015Z 27006KT 240V300 9999 FEW030 09/06 Q1014
                        NOSIG=
201001130000 METAR LMML NIL=
201001122345 METAR LMML 122345Z 26004KT 9999 FEW030 09/06 Q1015 NOSIG=
201001122330 METAR LMML NIL=
201001122315 METAR LMML 122315Z 27004KT 240V310 9999 FEW030 10/06 Q1015
                        NOSIG=
201001122300 METAR LMML NIL=
201001122245 METAR LMML 122245Z 29005KT 250V320 9999 FEW030 10/06 Q1015
                        NOSIG=
201001122230 METAR LMML NIL=
201001122215 METAR LMML 122215Z 29007KT 9999 FEW030 10/06 Q1015 NOSIG=
201001122200 METAR LMML NIL=
201001122145 METAR LMML 122145Z 29008KT 250V310 9999 FEW030 11/06 Q1015
                        NOSIG=
201001122130 METAR LMML NIL=
201001122115 METAR LMML 122115Z 30009KT 9999 FEW030 10/06 Q1015 NOSIG=
201001122100 METAR LMML NIL=
201001122045 METAR LMML 122045Z 31009KT 9999 FEW030 10/07 Q1015 NOSIG=
201001122030 METAR LMML NIL=
201001122015 METAR LMML 122015Z 30010KT 9999 FEW030 11/06 Q1015 NOSIG=
201001122000 METAR LMML NIL=
201001121945 METAR LMML 121945Z 31012KT 9999 FEW030 11/07 Q1015 NOSIG=
201001121930 METAR LMML NIL=
201001121915 METAR LMML 121915Z 31014KT 9999 FEW030 11/06 Q1015 NOSIG=
201001121900 METAR LMML NIL=
201001121845 METAR LMML 121845Z 31011KT 9999 FEW030 11/06 Q1015 NOSIG=
201001121830 METAR LMML NIL=
201001121815 METAR LMML 121815Z 31011KT 280V340 9999 FEW030 11/06 Q1015
                        NOSIG=
201001121800 METAR LMML NIL=
201001121745 METAR LMML 121745Z 31012KT 9999 FEW030 11/07 Q1015 NOSIG=
201001121715 METAR LMML 121715Z 31013KT 9999 FEW033 11/07 Q1014 NOSIG=
201001121700 METAR LMML NIL=
201001121645 METAR LMML 121645Z 31013KT 9999 SCT032 11/06 Q1014 NOSIG=
201001121630 METAR LMML NIL=
201001121615 METAR LMML 121615Z 31015KT 9999 SCT030 12/06 Q1014 NOSIG=
201001121600 METAR LMML NIL=
201001121545 METAR LMML 121545Z 31015KT 9999 SCT030 12/07 Q1014 NOSIG=
201001121530 METAR LMML NIL=
201001121515 METAR LMML 121515Z 31012KT 9999 SCT030 13/07 Q1013 NOSIG=
201001121500 METAR LMML NIL=
201001121445 METAR LMML 121445Z 31016KT 9999 SCT032 13/07 Q1013 NOSIG=
201001121430 METAR LMML NIL=
201001121415 METAR LMML 121415Z 32014KT 9999 SCT026 13/07 Q1013 NOSIG=
201001121345 METAR LMML 121345Z 30011KT 260V330 9999 SCT026 13/08 Q1013
                        NOSIG=
201001121330 METAR LMML NIL=
201001121315 METAR LMML 121315Z 30014KT 9999 SCT026 13/08 Q1013 NOSIG=
201001121300 METAR LMML NIL=
201001121245 METAR LMML 121245Z 30015KT 9999 SCT026 14/09 Q1013 NOSIG=
201001121230 METAR LMML NIL=
201001121215 METAR LMML 121215Z 30018KT 270V330 9999 SCT047 14/07 Q1013
                        NOSIG=
201001121200 METAR LMML NIL=
201001121145 METAR LMML 121145Z 30017KT 9999 SCT027 13/08 Q1013 NOSIG=
201001121130 METAR LMML NIL=
201001121115 METAR LMML 121115Z 30018KT 270V330 9999 SCT026 FEW120 14/09
                        Q1013 NOSIG=
201001121100 METAR LMML NIL=
201001121045 METAR LMML 121045Z 30014KT 9999 SCT028 14/09 Q1014 NOSIG=
201001121030 METAR LMML NIL=
201001121015 METAR LMML 121015Z 29020KT 260V320 9999 SCT028 12/08 Q1014
                        NOSIG=
201001121000 METAR LMML NIL=
201001120945 METAR LMML 120945Z 30018G28KT 270V330 9999 SCT032 14/08 Q1014
                        NOSIG=
201001120930 METAR LMML NIL=
201001120915 METAR LMML 120915Z 30016KT 9999 SCT032 FEW120 13/08 Q1014
                        NOSIG=
201001120900 METAR LMML NIL=
201001120845 METAR LMML 120845Z 28011KT 250V310 9999 FEW030 12/08 Q1014
                        NOSIG=
201001120830 METAR LMML NIL=
201001120815 METAR LMML 120815Z 29013KT 260V320 4000 SHRA BKN028 13/07
                        Q1014 BECMG 9999=
201001120800 METAR LMML NIL=
201001120745 METAR LMML 120745Z 29016KT 9999 SCT027 13/08 Q1014 NOSIG=
201001120730 METAR LMML NIL=
201001120715 METAR LMML 120715Z 28015KT 9999 FEW027 12/07 Q1014 NOSIG=
201001120700 METAR LMML NIL=
201001120645 METAR LMML 120645Z 29011KT 260V320 9999 SCT027 11/07 Q1014
                        NOSIG=
201001120630 METAR LMML NIL=
201001120615 METAR LMML 120615Z 30012KT 9999 SCT028 11/09 Q1013 NOSIG=
201001120600 METAR LMML NIL=
201001120545 METAR LMML 120545Z 29008KT 9999 FEW015CB 10/08 Q1013 TEMPO
                        8000 SHRA SCT015TCU=
201001120530 METAR LMML NIL=
201001120515 METAR LMML 120515Z 24006KT 220V290 9999 SCT016CB BKN090 11/09
                        Q1013 TEMPO 5000 TSRA BKN015CB RMK
                        LIGHTNING NNW=
201001120500 METAR LMML NIL=
201001120445 METAR LMML 120445Z VRB03KT 9999 FEW036 FEW060 BKN090 12/08
                        Q1013 TEMPO 5000 TSRA BKN015CB=
201001120430 METAR LMML NIL=
201001120415 METAR LMML 120415Z VRB03KT 9999 -SHRA SCT036 BKN130 13/07
                        Q1013 TEMPO 8000 SHRA SCT030TCU=
201001120400 METAR LMML NIL=
201001120345 METAR LMML 120345Z 25004KT 190V280 CAVOK 13/07 Q1013 NOSIG=
201001120330 METAR LMML NIL=
201001120315 METAR LMML 120315Z VRB03KT CAVOK 13/07 Q1013 NOSIG=
201001120300 METAR LMML NIL=
201001120245 METAR LMML 120245Z 26005KT 220V280 9999 FEW035 BKN080 13/07
                        Q1014 NOSIG=
201001120230 METAR LMML NIL=
201001120215 METAR LMML 120215Z 23004KT 210V270 9999 FEW035 BKN080 12/07
                        Q1014 NOSIG=
201001120200 METAR LMML NIL=
201001120145 METAR LMML 120145Z 23005KT 9999 FEW035 SCT090 12/07 Q1014
                        NOSIG=
201001120130 METAR LMML NIL=
201001120115 METAR LMML 120115Z 25004KT 9999 FEW035 12/06 Q1014 NOSIG=
201001120100 METAR LMML NIL=
201001120045 METAR LMML 120045Z 24004KT 9999 FEW034 11/07 Q1014 NOSIG=
201001120030 METAR LMML NIL=
201001120015 METAR LMML 120015Z 23005KT 9999 FEW030 12/07 Q1014 NOSIG=
201001120000 METAR LMML NIL=
201001112345 METAR LMML 112345Z 24005KT 9999 FEW030 12/07 Q1015 NOSIG=
201001112330 METAR LMML NIL=
201001112315 METAR LMML 112315Z 24005KT 9999 FEW031 11/07 Q1015 NOSIG=
201001112300 METAR LMML NIL=
201001112245 METAR LMML 112245Z 25006KT CAVOK 12/07 Q1015 NOSIG=
201001112230 METAR LMML NIL=
201001112215 METAR LMML 112215Z 24006KT CAVOK 11/07 Q1015 NOSIG=
201001112200 METAR LMML NIL=
201001112145 METAR LMML 112145Z 24005KT CAVOK 11/07 Q1015 NOSIG=
201001112130 METAR LMML NIL=
201001112115 METAR LMML 112115Z VRB03KT CAVOK 11/07 Q1015 NOSIG=
201001112100 METAR LMML NIL=
201001112045 METAR LMML 112045Z 25005KT 220V280 CAVOK 11/07 Q1015 NOSIG=
201001112030 METAR LMML NIL=
201001112015 METAR LMML 112015Z 24004KT CAVOK 11/07 Q1015 NOSIG=
201001112000 METAR LMML NIL=
201001111945 METAR LMML 111945Z 26006KT 230V290 CAVOK 12/07 Q1015 NOSIG=
201001111930 METAR LMML NIL=
201001111915 METAR LMML 111915Z 26006KT 230V300 9999 FEW035 SCT120 12/07
                        Q1015 NOSIG=
201001111900 METAR LMML NIL=
201001111845 METAR LMML 111845Z 26007KT 220V300 9999 FEW035 BKN120 12/06
                        Q1015 NOSIG=
201001111830 METAR LMML NIL=
201001111815 METAR LMML 111815Z 26007KT 230V300 9999 FEW035 BKN120 12/06
                        Q1015 NOSIG=
201001111800 METAR LMML NIL=
201001111745 METAR LMML 111745Z 25008KT 210V280 9999 SCT035 BKN120 12/06
                        Q1015 NOSIG=
201001111730 METAR LMML NIL=
201001111715 METAR LMML 111715Z 25009KT 210V280 9999 SCT035 12/05 Q1015
                        NOSIG=
201001111700 METAR LMML NIL=
201001111645 METAR LMML 111645Z 25010KT 220V290 9999 SCT037 12/05 Q1015
                        NOSIG=
201001111630 METAR LMML NIL=
201001111615 METAR LMML 111615Z 24011KT 200V290 9999 SCT035 13/05 Q1015
                        NOSIG=
201001111600 METAR LMML NIL=
201001111545 METAR LMML 111545Z 24009KT 200V280 9999 SCT036 13/06 Q1015
                        NOSIG=
201001111530 METAR LMML NIL=
201001111515 METAR LMML 111515Z 24011KT 200V290 9999 SCT038 13/05 Q1015
                        NOSIG=
201001111500 METAR LMML NIL=
201001111445 METAR LMML 111445Z 24012KT 200V280 9999 SCT037 14/06 Q1015
                        NOSIG=
201001111430 METAR LMML NIL=
201001111415 METAR LMML 111415Z 25012KT 210V300 9999 SCT037 14/05 Q1015
                        NOSIG=
201001111400 METAR LMML NIL=
201001111345 METAR LMML 111345Z 23011KT 190V280 9999 SCT037 14/05 Q1015
                        NOSIG=
201001111330 METAR LMML NIL=
201001111315 METAR LMML 111315Z 23011KT 190V280 9999 SCT034 SCT050 13/05
                        Q1015 NOSIG=
201001111300 METAR LMML NIL=
201001111245 METAR LMML 111245Z 24011KT 190V290 9999 BKN032 BKN120 13/06
                        Q1016 NOSIG=
201001111215 METAR LMML 111215Z 22013KT 180V280 9999 BKN032 BKN120 13/06
                        Q1016 NOSIG=
201001111200 METAR LMML NIL=
201001111145 METAR LMML 111145Z 24013KT 200V280 9999 SCT042 BKN120 13/05
                        Q1016 NOSIG=
201001111130 METAR LMML NIL=
201001111115 METAR LMML 111115Z 23013KT 190V290 9999 SCT034 BKN120 13/04
                        Q1017 NOSIG=
201001111045 METAR LMML 111045Z 21010KT 170V260 9999 SCT032 14/06 Q1017
                        NOSIG=
201001111030 METAR LMML NIL=
201001111015 METAR LMML 111015Z 20010KT 160V250 9999 SCT036 13/05 Q1017
                        NOSIG=
201001111000 METAR LMML NIL=
201001110945 METAR LMML 110945Z 22011KT 170V270 9999 SCT034 13/06 Q1018
                        NOSIG=
201001110915 METAR LMML 110915Z 21010KT 170V260 9999 BKN034 13/05 Q1018
                        NOSIG=
201001110900 METAR LMML NIL=
201001110845 METAR LMML 110845Z 22011KT 190V270 9999 BKN032 13/06 Q1019
                        NOSIG=
201001110830 METAR LMML NIL=
201001110815 METAR LMML 110815Z 22008KT 170V280 9999 BKN038 SCT120 12/05
                        Q1019 NOSIG=
201001110800 METAR LMML NIL=
201001110745 METAR LMML 110745Z 21006KT 170V240 9999 FEW041 BKN054 BKN120
                        12/04 Q1019 NOSIG=
201001110730 METAR LMML NIL=
201001110715 METAR LMML 110715Z 21006KT 180V260 9999 FEW041 SCT058 BKN120
                        12/04 Q1019 NOSIG=
201001110700 METAR LMML NIL=
201001110645 METAR LMML 110645Z 21006KT 160V260 9999 SCT046 BKN110 12/04
                        Q1019 NOSIG=
201001110630 METAR LMML NIL=
201001110615 METAR LMML 110615Z 21005KT 170V250 9999 SCT044 BKN110 11/03
                        Q1019 NOSIG=
201001110600 METAR LMML NIL=
201001110545 METAR LMML 110545Z 21006KT 170V250 9999 FEW041 BKN110 11/03
                        Q1019 NOSIG=
201001110530 METAR LMML NIL=
201001110515 METAR LMML 110515Z 21005KT 180V270 9999 FEW040 BKN110 BKN250
                        11/04 Q1019 NOSIG=
201001110500 METAR LMML NIL=
201001110445 METAR LMML 110445Z 22006KT 180V270 9999 FEW039 BKN120 11/04
                        Q1019 NOSIG=
201001110430 METAR LMML NIL=
201001110415 METAR LMML 110415Z 22006KT 190V250 9999 FEW039 SCT120 BKN250
                        11/04 Q1019 NOSIG=
201001110400 METAR LMML NIL=
201001110345 METAR LMML 110345Z 21004KT 190V260 9999 FEW035 SCT050 10/05
                        Q1019 NOSIG=
201001110330 METAR LMML NIL=
201001110315 METAR LMML 110315Z VRB02KT 9999 SCT035 SCT120 09/05 Q1019
                        NOSIG=
201001110300 METAR LMML NIL=
201001110245 METAR LMML 110245Z 25004KT 9999 FEW035 SCT120 09/05 Q1019
                        NOSIG=
201001110215 METAR LMML 110215Z VRB03KT 9999 FEW037 BKN120 09/05 Q1019
                        NOSIG=
201001110200 METAR LMML NIL=
201001110145 METAR LMML 110145Z VRB03KT 9999 FEW040 09/05 Q1019 NOSIG=
201001110130 METAR LMML NIL=
201001110115 METAR LMML 110115Z 26004KT 9999 SCT034 09/04 Q1019 NOSIG=
201001110100 METAR LMML NIL=
201001110045 METAR LMML 110045Z 25004KT 230V290 9999 FEW034 09/04 Q1019
                        NOSIG=
201001110030 METAR LMML NIL=
201001110015 METAR LMML 110015Z 25004KT 220V280 9999 FEW034 09/05 Q1019
                        TEMPO SHRA=
201001110000 METAR LMML NIL=
201001102345 METAR LMML 102345Z 26005KT 220V290 9999 FEW034 09/05 Q1019
                        TEMPO SHRA=
201001102315 METAR LMML 102315Z 28009KT 9999 FEW034 10/04 Q1020 TEMPO
                        SHRA=
201001102300 METAR LMML NIL=
201001102245 METAR LMML 102245Z 28008KT 240V310 9999 SCT034 10/04 Q1020
                        TEMPO SHRA=
201001102215 METAR LMML 102215Z 28006KT 9999 FEW035 09/04 Q1020 TEMPO
                        SHRA=
201001102200 METAR LMML NIL=
201001102145 METAR LMML 102145Z 28005KT 9999 FEW036 09/05 Q1020 TEMPO
                        SHRA=
201001102130 METAR LMML NIL=
201001102115 METAR LMML 102115Z 29006KT 9999 SCT038 09/05 Q1020 TEMPO
                        SHRA=
201001102100 METAR LMML NIL=
201001102045 METAR LMML 102045Z 26008KT 230V290 9999 FEW034 10/06 Q1020
                        TEMPO SHRA=
201001102030 METAR LMML NIL=
201001102015 METAR LMML 102015Z 28007KT 9999 SCT034 10/05 Q1019 TEMPO
                        SHRA=
201001102000 METAR LMML NIL=
201001101945 METAR LMML 101945Z 27006KT 240V320 9999 FEW037 09/05 Q1019
                        TEMPO SHRA=
201001101930 METAR LMML NIL=
201001101915 METAR LMML 101915Z 29008KT 9999 SCT037 10/05 Q1019 TEMPO
                        SHRA=
201001101900 METAR LMML NIL=
201001101845 METAR LMML 101845Z 29009KT 9999 SCT030 10/05 Q1019 TEMPO
                        SHRA=
201001101830 METAR LMML NIL=
201001101815 METAR LMML 101815Z 29008KT 250V320 9999 BKN028 09/06 Q1019
                        NOSIG=
201001101800 METAR LMML NIL=
201001101745 METAR LMML 101745Z 30010KT 270V330 9000 -SHRA BKN030 09/06
                        Q1019 NOSIG=
201001101730 METAR LMML NIL=
201001101715 METAR LMML 101715Z 29012KT 260V320 9999 FEW033 10/04 Q1018
                        NOSIG=
201001101700 METAR LMML NIL=
201001101645 METAR LMML 101645Z 29014KT 9999 SCT037 10/04 Q1018 NOSIG=
201001101630 METAR LMML NIL=
201001101615 METAR LMML 101615Z 28012KT 250V310 9999 SCT030 09/04 Q1017
                        NOSIG=
201001101600 METAR LMML NIL=
201001101545 METAR LMML 101545Z 29015KT 7000 -SHRA BKN032 09/05 Q1017
                        NOSIG=
201001101530 METAR LMML NIL=
201001101515 METAR LMML 101515Z 30013G26KT 270V330 6000 -SHRA SCT023 BKN029
                        10/06 Q1017 NOSIG=
201001101500 METAR LMML NIL=
201001101445 METAR LMML 101445Z 27014KT 240V300 7000 SCT025 BKN035 09/04
                        Q1016 NOSIG=
201001101430 METAR LMML NIL=
201001101415 METAR LMML 101415Z 28021KT 250V310 6000 -SHRA SCT026 SCT035
                        10/06 Q1017 NOSIG=
201001101400 METAR LMML NIL=
201001101345 METAR LMML 101345Z 27019KT 230V300 9999 SCT037 12/03 Q1016
                        NOSIG=
201001101330 METAR LMML NIL=
201001101315 METAR LMML 101315Z 27017KT 230V300 9999 -SHRA BKN037 11/03
                        Q1016 NOSIG=
201001101300 METAR LMML NIL=
201001101245 METAR LMML 101245Z 27016KT 220V310 9999 BKN038 11/04 Q1016
                        NOSIG=
201001101230 METAR LMML NIL=
201001101215 METAR LMML 101215Z 27017KT 230V320 9999 BKN041 11/02 Q1016
                        NOSIG=
201001101200 METAR LMML NIL=
201001101145 METAR LMML 101145Z 27019KT 230V300 9999 BKN043 12/01 Q1016
                        NOSIG=
201001101130 METAR LMML NIL=
201001101115 METAR LMML 101115Z 27018KT 220V310 9999 BKN044 11/01 Q1016
                        NOSIG=
201001101045 METAR LMML 101045Z 28019KT 240V310 9999 SCT044 12/01 Q1016
                        NOSIG=
201001101030 METAR LMML NIL=
201001101015 METAR LMML 101015Z 27015G26KT 240V310 9999 SCT046 11/01 Q1016
                        NOSIG=
201001101000 METAR LMML NIL=
201001100945 METAR LMML 100945Z 26018KT 220V310 9999 SCT045 12/M01 Q1016
                        NOSIG=
201001100930 METAR LMML NIL=
201001100915 METAR LMML 100915Z 27020G30KT 240V310 9999 SCT045 12/M02
                        Q1015 NOSIG=
201001100900 METAR LMML NIL=
201001100845 METAR LMML 100845Z 27014KT 220V310 9999 SCT030 SCT060 10/M01
                        Q1015 NOSIG=
201001100830 METAR LMML NIL=
201001100815 METAR LMML 100815Z 24011KT 200V280 9999 SCT028 BKN060 09/02
                        Q1015 NOSIG=
201001100800 METAR LMML NIL=
201001100745 METAR LMML 100745Z 25014KT 210V290 9999 -SHRA BKN025 SCT050
                        10/00 Q1014 NOSIG=
201001100730 METAR LMML NIL=
201001100715 METAR LMML 100715Z 27020G37KT 220V300 9999 BKN029 SCT050
                        09/02 Q1014 NOSIG=
201001100700 METAR LMML NIL=
201001100645 METAR LMML 100645Z 23017G28KT 200V270 9999 BKN028 SCT050
                        09/01 Q1014 NOSIG=
201001100630 METAR LMML NIL=
201001100615 METAR LMML 100615Z 26017KT 220V300 9999 SCT038 SCT050 BKN090
                        11/M01 Q1013 NOSIG=
201001100600 METAR LMML NIL=
201001100545 METAR LMML 100545Z 26018KT 230V300 9999 -SHRA NSC 11/00 Q1014
                        NOSIG=
201001100530 METAR LMML NIL=
201001100515 METAR LMML 100515Z 27015KT 230V320 CAVOK 11/M01 Q1013 NOSIG=
201001100500 METAR LMML NIL=
201001100445 METAR LMML 100445Z 26016KT 230V300 9999 -RA NSC 11/M02 Q1013
                        NOSIG=
201001100430 METAR LMML NIL=
201001100415 METAR LMML 100415Z 26017KT 220V290 CAVOK 11/M02 Q1013 NOSIG=
201001100400 METAR LMML NIL=
201001100345 METAR LMML 100345Z 26016KT 210V310 CAVOK 11/M04 Q1013 NOSIG=
201001100330 METAR LMML NIL=
201001100315 METAR LMML 100315Z 26016KT 220V300 CAVOK 11/M03 Q1013 NOSIG=
201001100300 METAR LMML NIL=
201001100245 METAR LMML 100245Z 26014KT 210V290 CAVOK 11/M01 Q1013 NOSIG=
201001100230 METAR LMML NIL=
201001100215 METAR LMML 100215Z 25015KT 220V300 CAVOK 11/M01 Q1013 NOSIG=
201001100200 METAR LMML NIL=
201001100145 METAR LMML 100145Z 26015KT 220V290 9999 SCT045 SCT060 11/M01
                        Q1014 NOSIG=
201001100130 METAR LMML NIL=
201001100115 METAR LMML 100115Z 24015KT 200V280 9999 SCT045 SCT060 11/01
                        Q1013 NOSIG=
201001100045 METAR LMML 100045Z 24016KT 210V280 9999 SCT044 SCT060 11/01
                        Q1013 NOSIG=
201001100015 METAR LMML 100015Z 25016KT 200V290 9999 SCT043 11/02 Q1013
                        NOSIG=
201001092345 METAR LMML 092345Z 25014KT 210V290 9999 SCT045 11/01 Q1013
                        NOSIG=
201001092330 METAR LMML NIL=
201001092315 METAR LMML 092315Z 24016KT 210V280 9999 FEW045 11/02 Q1014
                        NOSIG=
201001092300 METAR LMML NIL=
201001092245 METAR LMML 092245Z 24015G26KT 200V280 9999 FEW047 11/01 Q1014
                        NOSIG=
201001092215 METAR LMML 092215Z 24016KT 200V280 9999 FEW047 11/01 Q1014
                        NOSIG=
201001092200 METAR LMML NIL=
201001092145 METAR LMML 092145Z 24017KT 200V280 9999 FEW049 11/00 Q1014
                        NOSIG=
201001092115 METAR LMML 092115Z 25017KT 200V280 CAVOK 11/M00 Q1014 NOSIG=
201001092100 METAR LMML NIL=
201001092045 METAR LMML 092045Z 24018KT 190V280 9999 SCT048 11/00 Q1014
                        NOSIG=
201001092030 METAR LMML NIL=
201001092015 METAR LMML 092015Z 24019KT 200V300 9999 SCT048 12/01 Q1013
                        NOSIG=
201001092000 METAR LMML NIL=
201001091945 METAR LMML 091945Z 24016G26KT 200V280 9999 SCT046 12/00 Q1013
                        NOSIG=
201001091930 METAR LMML NIL=
201001091915 METAR LMML 091915Z 23019KT 190V280 9999 SCT048 12/01 Q1013
                        NOSIG=
201001091845 METAR LMML 091845Z 24016G26KT 200V270 9999 SCT048 12/01 Q1013
                        NOSIG=
201001091830 METAR LMML NIL=
201001091815 METAR LMML 091815Z 23018G29KT 210V280 9999 SCT046 12/02 Q1013
                        NOSIG=
201001091745 METAR LMML 091745Z 24017G28KT 200V280 9999 SCT043 12/01 Q1012
                        NOSIG=
201001091730 METAR LMML NIL=
201001091715 METAR LMML 091715Z 24018KT 200V280 9999 SCT039 11/02 Q1012
                        NOSIG=
201001091700 METAR LMML NIL=
201001091645 METAR COR LMML 091645Z 24016G26KT 200V280 9999 BKN039 11/03
                        Q1011 NOSIG=
201001091630 METAR LMML NIL=
201001091615 METAR LMML 091615Z 24018KT 200V270 9999 SCT042 11/02 Q1011
                        NOSIG=
201001091600 METAR LMML NIL=
201001091545 METAR LMML 091545Z 24016KT 200V280 9999 BKN045 11/02 Q1011
                        NOSIG=
201001091530 METAR LMML NIL=
201001091515 METAR LMML 091515Z 23018G28KT 190V280 9999 SCT042 12/01 Q1011
                        NOSIG=
201001091500 METAR LMML NIL=
201001091445 METAR LMML 091445Z 23017KT 200V270 9999 BKN041 SCT250 12/03
                        Q1011 NOSIG=
201001091430 METAR LMML NIL=
201001091415 METAR LMML 091415Z 24016KT 200V290 9999 BKN044 13/03 Q1011
                        NOSIG=
201001091345 METAR LMML 091345Z 24015KT 200V280 9999 SCT046 SCT250 12/03
                        Q1011 NOSIG=
201001091330 METAR LMML NIL=
201001091315 METAR LMML 091315Z 24017KT 200V280 9999 SCT047 SCT250 13/02
                        Q1010 NOSIG=
201001091300 METAR LMML NIL=
201001091245 METAR LMML 091245Z 24019G29KT 200V290 9999 FEW047 SCT250
                        13/01 Q1010 NOSIG=
201001091215 METAR LMML 091215Z 23019KT 190V290 9999 FEW049 SCT250 13/01
                        Q1010 NOSIG=
201001091200 METAR LMML NIL=
201001091145 METAR LMML 091145Z 24022KT 210V290 9999 FEW047 SCT250 13/01
                        Q1010 NOSIG=
201001091130 METAR LMML NIL=
201001091115 METAR LMML 091115Z 24021G33KT 200V280 9999 SCT049 13/02 Q1010
                        NOSIG=
201001091100 METAR LMML NIL=
201001091045 METAR LMML 091045Z 24021G31KT 200V280 9999 SCT041 13/03 Q1010
                        NOSIG=
201001091030 METAR LMML NIL=
201001091015 METAR LMML 091015Z 25019KT 210V290 9999 SCT039 14/05 Q1010
                        NOSIG=
201001091000 METAR LMML NIL=
201001090945 METAR LMML 090945Z 24018G30KT 200V280 CAVOK 15/05 Q1010 NOSIG=
201001090930 METAR LMML NIL=
201001090915 METAR LMML 090915Z 23021G34KT 200V280 CAVOK 14/00 Q1010 NOSIG=
201001090900 METAR LMML NIL=
201001090845 METAR LMML 090845Z 23021G34KT 190V280 9999 FEW048 14/01 Q1009
                        NOSIG=
201001090830 METAR LMML NIL=
201001090815 METAR LMML 090815Z 23019G31KT 190V270 9999 FEW048 14/M00
                        Q1009 NOSIG=
201001090800 METAR LMML NIL=
201001090745 METAR LMML 090745Z 23018KT 190V270 9999 FEW048 14/M00 Q1009
                        NOSIG=
201001090730 METAR LMML NIL=
201001090715 METAR LMML 090715Z 23018KT 200V270 9999 FEW048 13/01 Q1008
                        NOSIG=
201001090700 METAR LMML NIL=
201001090645 METAR LMML 090645Z 23018G29KT 190V280 9999 FEW048 13/01 Q1008
                        NOSIG=
201001090630 METAR LMML NIL=
201001090615 METAR LMML 090615Z 23017KT 200V280 9999 FEW048 13/02 Q1008
                        NOSIG=
201001090600 METAR LMML NIL=
201001090545 METAR LMML 090545Z 23016KT 190V270 9999 SCT045 14/04 Q1007
                        TEMPO 8000 SHRA SCT015=
201001090530 METAR LMML NIL=
201001090515 METAR LMML 090515Z 23018KT 190V270 9999 FEW034 SCT250 14/04
                        Q1007 TEMPO 8000 SHRA SCT015=
201001090445 METAR LMML 090445Z 23013KT 190V270 9999 FEW033 SCT250 14/07
                        Q1007 TEMPO 8000 SHRA SCT015=
201001090430 METAR LMML NIL=
201001090415 METAR LMML 090415Z 24014KT 210V280 9999 FEW035 SCT100 14/07
                        Q1007 TEMPO 8000 SHRA SCT015=
201001090400 METAR LMML NIL=
201001090345 METAR LMML 090345Z 24016KT 200V280 9999 FEW036 SCT100 14/07
                        Q1007 TEMPO 8000 SHRA SCT015=
201001090330 METAR LMML NIL=
201001090315 METAR LMML 090315Z 24013KT 210V280 9999 FEW025 SCT100 14/08
                        Q1007 TEMPO 8000 SHRA SCT015=
201001090300 METAR LMML NIL=
201001090245 METAR LMML 090245Z 24013KT 190V280 9999 SCT025 SCT090 15/08
                        Q1006 TEMPO 8000 SHRA SCT015=
201001090230 METAR LMML NIL=
201001090215 METAR LMML 090215Z 24013KT 210V280 9999 SCT025 SCT090 15/09
                        Q1006 TEMPO 8000 SHRA SCT015=
201001090200 METAR LMML NIL=
201001090145 METAR LMML 090145Z 24012KT 210V290 9999 FEW020 SCT090 15/10
                        Q1006 TEMPO 8000 SHRA SCT015=
201001090130 METAR LMML NIL=
201001090115 METAR LMML 090115Z 24013KT 210V280 9999 SCT020 SCT080 16/12
                        Q1006 TEMPO 8000 SHRA SCT015=
201001090100 METAR LMML NIL=
201001090045 METAR LMML 090045Z 24012KT 200V270 9999 FEW020 SCT080 16/13
                        Q1005 TEMPO 8000 SHRA SCT015=
201001090030 METAR LMML NIL=
201001090015 METAR LMML 090015Z 22010KT 190V270 9999 FEW020 SCT070 17/12
                        Q1005 TEMPO 8000 SHRA SCT015=
201001090000 METAR LMML NIL=
201001082345 METAR LMML 082345Z 22009KT 170V270 9999 FEW020 SCT070 17/12
                        Q1005 TEMPO 8000 SHRA SCT015=
201001082330 METAR LMML NIL=
201001082315 METAR LMML 082315Z 21008KT 180V260 9999 FEW020 SCT070 17/11
                        Q1005 TEMPO 8000 SHRA SCT015=
201001082300 METAR LMML NIL=
201001082245 METAR LMML 082245Z 22009KT 180V270 9999 FEW020 SCT070 17/11
                        Q1006 TEMPO 8000 SHRA SCT015=
201001082230 METAR LMML NIL=
201001082215 METAR LMML 082215Z 23012KT 200V270 9999 FEW020 SCT070 17/12
                        Q1006 TEMPO 5000 TSRA SCT015CB=
201001082200 METAR LMML NIL=
201001082145 METAR LMML 082145Z 24015G31KT 190V290 9999 FEW020 SCT080
                        17/12 Q1006 TEMPO 8000 SHRA SCT015=
201001082130 METAR LMML NIL=
201001082115 METAR LMML 082115Z 17010KT 130V210 9999 FEW020 BKN250 17/14
                        Q1005 TEMPO 8000 SHRA SCT015=
201001082100 METAR LMML NIL=
201001082045 METAR LMML 082045Z 16011KT 130V190 CAVOK 17/14 Q1005 NOSIG=
201001082030 METAR LMML NIL=
201001082015 METAR LMML 082015Z 16008KT 140V200 CAVOK 17/12 Q1005 NOSIG=
201001082000 METAR LMML NIL=
201001081945 METAR LMML 081945Z 20005KT 170V250 CAVOK 18/11 Q1005 NOSIG=
201001081930 METAR LMML NIL=
201001081915 METAR LMML 081915Z 20005KT 170V230 CAVOK 17/11 Q1005 NOSIG=
201001081900 METAR LMML NIL=
201001081845 METAR LMML 081845Z 20004KT 160V240 CAVOK 17/12 Q1005 NOSIG=
201001081830 METAR LMML NIL=
201001081815 METAR LMML 081815Z 20004KT 160V240 CAVOK 17/13 Q1005 NOSIG=
201001081800 METAR LMML NIL=
201001081745 METAR LMML 081745Z 21007KT 170V250 CAVOK 17/11 Q1005 NOSIG=
201001081730 METAR LMML NIL=
201001081715 METAR LMML 081715Z 21008KT 170V260 CAVOK 17/12 Q1005 NOSIG=
201001081700 METAR LMML NIL=
201001081645 METAR LMML 081645Z 22008KT 180V270 9000 NSC 17/12 Q1005 NOSIG=
201001081630 METAR LMML NIL=
201001081615 METAR LMML 081615Z 22008KT 190V290 9000 NSC 17/12 Q1004 NOSIG=
201001081600 METAR LMML NIL=
201001081545 METAR LMML 081545Z 22007KT 180V270 9000 NSC 17/12 Q1004 NOSIG=
201001081530 METAR LMML NIL=
201001081515 METAR LMML 081515Z 22010KT 170V290 9000 NSC 18/12 Q1004 NOSIG=
201001081500 METAR LMML NIL=
201001081445 METAR LMML 081445Z 22011KT 200V260 CAVOK 18/11 Q1004 NOSIG=
201001081430 METAR LMML NIL=
201001081415 METAR LMML 081415Z 23008KT 200V280 CAVOK 18/12 Q1004 NOSIG=
201001081400 METAR LMML NIL=
201001081345 METAR LMML 081345Z 23011KT 200V270 CAVOK 19/12 Q1004 NOSIG=
201001081330 METAR LMML NIL=
201001081315 METAR LMML 081315Z 21008KT 170V260 CAVOK 19/12 Q1003 NOSIG=
201001081300 METAR LMML NIL=
201001081245 METAR LMML 081245Z 21010KT 160V260 CAVOK 19/13 Q1003 NOSIG=
201001081230 METAR LMML NIL=
201001081215 METAR LMML 081215Z 22011KT 180V260 CAVOK 19/13 Q1004 NOSIG=
201001081200 METAR LMML NIL=
201001081145 METAR LMML 081145Z 22012KT 180V280 CAVOK 19/13 Q1004 NOSIG=
201001081130 METAR LMML NIL=
201001081115 METAR LMML 081115Z 22013KT 170V270 CAVOK 20/13 Q1004 NOSIG=
201001081100 METAR LMML NIL=
201001081045 METAR LMML 081045Z 22014KT 180V260 CAVOK 20/12 Q1005 NOSIG=
201001081030 METAR LMML NIL=
201001081015 METAR LMML 081015Z 21009KT 170V250 CAVOK 19/13 Q1005 NOSIG=
201001081000 METAR LMML NIL=
201001080945 METAR LMML 080945Z 20009KT 170V260 CAVOK 19/12 Q1005 NOSIG=
201001080930 METAR LMML NIL=
201001080915 METAR LMML 080915Z 21008KT 170V270 CAVOK 19/13 Q1005 NOSIG=
201001080900 METAR LMML NIL=
201001080845 METAR LMML 080845Z 20009KT 160V240 CAVOK 19/13 Q1005 NOSIG=
201001080830 METAR LMML NIL=
201001080815 METAR LMML 080815Z 19011KT 150V230 CAVOK 18/13 Q1005 NOSIG=
201001080800 METAR LMML NIL=
201001080745 METAR LMML 080745Z 19009KT 160V230 CAVOK 18/12 Q1004 NOSIG=
201001080730 METAR LMML NIL=
201001080715 METAR LMML 080715Z 18010KT 160V230 CAVOK 18/13 Q1004 NOSIG=
201001080700 METAR LMML NIL=
201001080645 METAR LMML 080645Z 18011KT 150V210 CAVOK 18/12 Q1004 NOSIG=
201001080615 METAR LMML 080615Z 18011KT 140V210 CAVOK 18/12 Q1004 NOSIG=
201001080600 METAR LMML NIL=
201001080545 METAR LMML 080545Z 17010KT 140V220 CAVOK 18/13 Q1004 NOSIG=
201001080515 METAR LMML 080515Z 17009KT 140V210 CAVOK 17/13 Q1004 NOSIG=
201001080500 METAR LMML NIL=
201001080445 METAR LMML 080445Z 17009KT 140V220 CAVOK 17/13 Q1004 NOSIG=
201001080430 METAR LMML NIL=
201001080415 METAR LMML 080415Z 18009KT 150V220 CAVOK 17/13 Q1004 NOSIG=
201001080400 METAR LMML NIL=
201001080345 METAR LMML 080345Z 18010KT 150V220 CAVOK 18/13 Q1004 NOSIG=
201001080330 METAR LMML NIL=
201001080315 METAR LMML 080315Z 18011KT 150V220 CAVOK 18/13 Q1004 NOSIG=
201001080300 METAR LMML NIL=
201001080245 METAR LMML 080245Z 18010KT 120V210 CAVOK 18/13 Q1004 NOSIG=
201001080230 METAR LMML NIL=
201001080215 METAR LMML 080215Z 18012KT 140V210 CAVOK 18/13 Q1005 NOSIG=
201001080200 METAR LMML NIL=
201001080145 METAR LMML 080145Z 17012KT 140V200 CAVOK 18/13 Q1005 NOSIG=
201001080130 METAR LMML NIL=
201001080115 METAR LMML 080115Z 17011KT 140V220 CAVOK 18/14 Q1005 NOSIG=
201001080100 METAR LMML NIL=
201001080045 METAR LMML 080045Z 17011KT 140V200 CAVOK 18/14 Q1005 NOSIG=
201001080030 METAR LMML NIL=
201001080015 METAR LMML 080015Z 17012KT 130V210 CAVOK 18/13 Q1005 NOSIG=
201001080000 METAR LMML NIL=
201001072345 METAR LMML 072345Z 17013KT 140V200 CAVOK 18/13 Q1005 NOSIG=
201001072330 METAR LMML NIL=
201001072315 METAR LMML 072315Z 16010KT 130V190 CAVOK 17/13 Q1006 NOSIG=
201001072300 METAR LMML NIL=
201001072245 METAR LMML 072245Z 16010KT 130V200 CAVOK 17/13 Q1006 NOSIG=
201001072230 METAR LMML NIL=
201001072215 METAR LMML 072215Z 16011KT CAVOK 17/13 Q1006 NOSIG=
201001072145 METAR LMML 072145Z 15011KT CAVOK 17/12 Q1006 NOSIG=
201001072130 METAR LMML NIL=
201001072115 METAR LMML 072115Z 16008KT CAVOK 16/12 Q1007 NOSIG=
201001072100 METAR LMML NIL=
201001072045 METAR LMML 072045Z 17008KT 140V200 CAVOK 16/13 Q1008 NOSIG=
201001072030 METAR LMML NIL=
201001072015 METAR LMML 072015Z 17005KT 150V220 9000 NSC 16/14 Q1008 NOSIG=
201001072000 METAR LMML NIL=
201001071945 METAR LMML 071945Z 18005KT 140V210 9000 FEW002 BKN150 16/15
                        Q1008 NOSIG=
201001071930 METAR LMML NIL=
201001071915 METAR LMML 071915Z 16006KT 9000 FEW002 BKN120 16/15 Q1008
                        NOSIG=
201001071900 METAR LMML NIL=
201001071845 METAR LMML 071845Z 15005KT 120V180 7000 BKN002 16/16 Q1008
                        NOSIG=
201001071815 METAR LMML 071815Z 12007KT 9000 BKN002 15/15 Q1007 NOSIG=
201001071800 METAR LMML NIL=
201001071745 METAR LMML 071745Z 11006KT 9999 BKN004 SCT120 BKN250 15/15
                        Q1007 TEMPO 8000 BKN004=
201001071730 METAR LMML NIL=
201001071715 METAR LMML 071715Z 10006KT 9999 FEW006 SCT120 BKN250 15/14
                        Q1007 NOSIG=
201001071700 METAR LMML NIL=
201001071645 METAR LMML 071645Z 11006KT CAVOK 15/14 Q1007 NOSIG=
201001071630 METAR LMML NIL=
201001071615 METAR LMML 071615Z 11008KT CAVOK 16/13 Q1008 NOSIG=
201001071600 METAR LMML NIL=
201001071545 METAR LMML 071545Z 11009KT 070V140 CAVOK 16/13 Q1008 NOSIG=
201001071530 METAR LMML NIL=
201001071515 METAR LMML 071515Z 11011KT CAVOK 16/12 Q1008 NOSIG=
201001071500 METAR LMML NIL=
201001071445 METAR LMML 071445Z 11010KT CAVOK 17/11 Q1008 NOSIG=
201001071430 METAR LMML NIL=
201001071415 METAR LMML 071415Z 11010KT 080V140 CAVOK 18/10 Q1008 NOSIG=
201001071400 METAR LMML NIL=
201001071345 METAR LMML 071345Z 11011KT CAVOK 19/10 Q1008 NOSIG=
201001071330 METAR LMML NIL=
201001071315 METAR LMML 071315Z 11011KT CAVOK 20/09 Q1009 NOSIG=
201001071300 METAR LMML NIL=
201001071245 METAR LMML 071245Z 11010KT CAVOK 20/09 Q1009 NOSIG=
201001071230 METAR LMML NIL=
201001071215 METAR LMML 071215Z 12010KT CAVOK 20/10 Q1009 NOSIG=
201001071200 METAR LMML NIL=
201001071145 METAR LMML 071145Z 12009KT CAVOK 20/11 Q1010 NOSIG=
201001071130 METAR LMML NIL=
201001071115 METAR LMML 071115Z 12009KT CAVOK 19/13 Q1010 NOSIG=
201001071100 METAR LMML NIL=
201001071045 METAR LMML 071045Z 12008KT CAVOK 19/13 Q1011 NOSIG=
201001071030 METAR LMML NIL=
201001071015 METAR LMML 071015Z 13008KT 110V170 CAVOK 19/14 Q1012 NOSIG=
201001071000 METAR LMML NIL=
201001070945 METAR LMML 070945Z 13007KT CAVOK 18/15 Q1012 NOSIG=
201001070930 METAR LMML NIL=
201001070915 METAR LMML 070915Z 14005KT 100V180 CAVOK 17/15 Q1012 NOSIG=
201001070900 METAR LMML NIL=
201001070845 METAR LMML 070845Z VRB03KT CAVOK 16/15 Q1012 NOSIG=
201001070815 METAR LMML 070815Z 15004KT 080V190 CAVOK 16/15 Q1012 NOSIG=
201001070800 METAR LMML NIL=
201001070745 METAR LMML 070745Z VRB03KT CAVOK 15/15 Q1011 NOSIG=
201001070730 METAR LMML NIL=
201001070715 METAR LMML 070715Z VRB02KT 9000 NSC 13/13 Q1011 NOSIG=
201001070700 METAR LMML NIL=
201001070645 METAR LMML 070645Z 13004KT 8000 MIFG NSC 13/13 Q1011 BECMG
                        9999 FEW005=
201001070630 METAR LMML NIL=
201001070615 METAR LMML 070615Z VRB01KT 0800 R13/0597V0957D FG FEW001
                        BKN250 12/12 Q1011 BECMG 5000 BR=
201001070600 METAR LMML NIL=
201001070545 METAR LMML 070545Z VRB03KT 9000 MIFG FEW015 BKN250 12/12
                        Q1011 NOSIG=
201001070530 METAR LMML NIL=
201001070515 METAR LMML 070515Z 15004KT 9999 FEW015 BKN250 13/13 Q1011
                        NOSIG=
201001070500 METAR LMML NIL=
201001070445 METAR LMML 070445Z 15004KT CAVOK 14/13 Q1010 NOSIG=
201001070430 METAR LMML NIL=
201001070415 METAR LMML 070415Z 16004KT CAVOK 13/13 Q1010 NOSIG=
201001070400 METAR LMML NIL=
201001070345 METAR LMML 070345Z 15004KT CAVOK 13/13 Q1010 NOSIG=
201001070330 METAR LMML NIL=
201001070315 METAR LMML 070315Z 17005KT CAVOK 13/13 Q1010 NOSIG=
201001070300 METAR LMML NIL=
201001070245 METAR LMML 070245Z 17004KT CAVOK 12/12 Q1010 NOSIG=
201001070215 METAR LMML 070215Z VRB03KT 9000 NSC 12/12 Q1010 NOSIG=
201001070200 METAR LMML NIL=
201001070145 METAR LMML 070145Z VRB03KT CAVOK 12/11 Q1010 NOSIG=
201001070130 METAR LMML NIL=
201001070115 METAR LMML 070115Z VRB02KT CAVOK 12/12 Q1010 NOSIG=
201001070100 METAR LMML NIL=
201001070045 METAR LMML 070045Z VRB03KT CAVOK 13/13 Q1011 NOSIG=
201001070015 METAR LMML 070015Z VRB03KT CAVOK 12/12 Q1011 TEMPO 8000=
201001070000 METAR LMML NIL=
201001062345 METAR LMML 062345Z 17004KT 4000 BCFG NSC 13/12 Q1011 TEMPO
                        0800 BCFG=
201001062315 METAR LMML 062315Z VRB01KT 9999 R13/0897VP1500 MIFG NSC 12/11
                        Q1011 NOSIG=
201001062300 METAR LMML NIL=
201001062245 METAR LMML 062245Z VRB02KT CAVOK 12/11 Q1011 NOSIG=
201001062230 METAR LMML NIL=
201001062215 METAR LMML 062215Z VRB01KT CAVOK 13/12 Q1011 NOSIG=
201001062145 METAR LMML 062145Z VRB02KT CAVOK 14/12 Q1011 NOSIG=
201001062130 METAR LMML NIL=
201001062115 METAR LMML 062115Z VRB03KT CAVOK 14/13 Q1011 NOSIG=
201001062100 METAR LMML NIL=
201001062045 METAR LMML 062045Z VRB03KT CAVOK 13/12 Q1011 NOSIG=
201001062030 METAR LMML NIL=
201001062015 METAR LMML 062015Z 27004KT CAVOK 14/12 Q1011 NOSIG=
201001062000 METAR LMML NIL=
201001061945 METAR LMML 061945Z 26004KT CAVOK 14/12 Q1011 NOSIG=
201001061930 METAR LMML NIL=
201001061915 METAR LMML 061915Z 24004KT CAVOK 14/12 Q1011 NOSIG=
201001061900 METAR LMML NIL=
201001061845 METAR LMML 061845Z VRB03KT CAVOK 14/12 Q1010 NOSIG=
201001061830 METAR LMML NIL=
201001061815 METAR LMML 061815Z VRB03KT CAVOK 14/12 Q1010 NOSIG=
201001061800 METAR LMML NIL=
201001061745 METAR LMML 061745Z VRB03KT CAVOK 14/12 Q1010 NOSIG=
201001061730 METAR LMML NIL=
201001061715 METAR LMML 061715Z VRB03KT CAVOK 15/13 Q1009 NOSIG=
201001061700 METAR LMML NIL=
201001061645 METAR LMML 061645Z 25004KT 210V280 CAVOK 15/13 Q1009 NOSIG=
201001061630 METAR LMML NIL=
201001061615 METAR LMML 061615Z 25005KT 200V290 CAVOK 15/13 Q1009 NOSIG=
201001061600 METAR LMML NIL=
201001061545 METAR LMML 061545Z 25006KT 190V290 CAVOK 16/13 Q1008 NOSIG=
201001061530 METAR LMML NIL=
201001061515 METAR LMML 061515Z 24008KT 200V290 9999 FEW025 SCT250 17/13
                        Q1008 NOSIG=
201001061500 METAR LMML NIL=
201001061445 METAR LMML 061445Z 24009KT 210V280 CAVOK 17/13 Q1008 NOSIG=
201001061430 METAR LMML NIL=
201001061415 METAR LMML 061415Z 24008KT 200V280 CAVOK 18/13 Q1008 NOSIG=
201001061400 METAR LMML NIL=
201001061345 METAR LMML 061345Z 24010KT 200V280 CAVOK 18/13 Q1008 NOSIG=
201001061330 METAR LMML NIL=
201001061315 METAR LMML 061315Z 23009KT 190V270 9999 FEW025 18/13 Q1007
                        NOSIG=
201001061300 METAR LMML NIL=
201001061245 METAR LMML 061245Z 23009KT 190V280 CAVOK 18/13 Q1008 NOSIG=
201001061230 METAR LMML NIL=
201001061215 METAR LMML 061215Z 24010KT 200V270 CAVOK 18/13 Q1008 NOSIG=
201001061200 METAR LMML NIL=
201001061145 METAR LMML 061145Z 25008KT 200V290 CAVOK 18/12 Q1008 NOSIG=
201001061130 METAR LMML NIL=
201001061115 METAR LMML 061115Z 24011KT 210V270 CAVOK 18/13 Q1008 NOSIG=
201001061100 METAR LMML NIL=
201001061045 METAR LMML 061045Z 25008KT 180V290 CAVOK 18/13 Q1008 NOSIG=
201001061030 METAR LMML NIL=
201001061015 METAR LMML 061015Z 25010KT 210V290 CAVOK 18/12 Q1008 NOSIG=
201001061000 METAR LMML NIL=
201001060945 METAR LMML 060945Z 26010KT 200V290 CAVOK 18/12 Q1008 NOSIG=
201001060930 METAR LMML NIL=
201001060915 METAR LMML 060915Z 25010KT 210V300 CAVOK 18/12 Q1008 NOSIG=
201001060900 METAR LMML NIL=
201001060845 METAR LMML 060845Z 25012KT 210V300 CAVOK 18/12 Q1008 NOSIG=
201001060830 METAR LMML NIL=
201001060815 METAR LMML 060815Z 23010KT 200V280 CAVOK 17/13 Q1007 NOSIG=
201001060800 METAR LMML NIL=
201001060745 METAR LMML 060745Z 23010KT 190V270 CAVOK 16/12 Q1007 NOSIG=
201001060730 METAR LMML NIL=
201001060715 METAR LMML 060715Z 23009KT 200V280 CAVOK 16/12 Q1006 NOSIG=
201001060700 METAR LMML NIL=
201001060645 METAR LMML 060645Z 23009KT 210V280 CAVOK 16/11 Q1006 NOSIG=
201001060630 METAR LMML NIL=
201001060615 METAR LMML 060615Z 24009KT 210V280 CAVOK 15/11 Q1006 NOSIG=
201001060600 METAR LMML NIL=
201001060545 METAR LMML 060545Z 24009KT 200V280 CAVOK 15/12 Q1006 NOSIG=
201001060530 METAR LMML NIL=
201001060515 METAR LMML 060515Z 24010KT 200V280 CAVOK 15/11 Q1005 NOSIG=
201001060500 METAR LMML NIL=
201001060445 METAR LMML 060445Z 24011KT 200V280 CAVOK 16/11 Q1005 NOSIG=
201001060430 METAR LMML NIL=
201001060415 METAR LMML 060415Z 24011KT 200V280 CAVOK 16/11 Q1005 NOSIG=
201001060400 METAR LMML NIL=
201001060345 METAR LMML 060345Z 24011KT 210V300 CAVOK 16/11 Q1005 NOSIG=
201001060330 METAR LMML NIL=
201001060315 METAR LMML 060315Z 23011KT 200V270 CAVOK 16/11 Q1004 NOSIG=
201001060245 METAR LMML 060245Z 24012KT 200V270 CAVOK 16/11 Q1004 NOSIG=
201001060230 METAR LMML NIL=
201001060215 METAR LMML 060215Z 23012KT 200V280 CAVOK 16/10 Q1005 NOSIG=
201001060200 METAR LMML NIL=
201001060145 METAR LMML 060145Z 23012KT 200V260 CAVOK 16/11 Q1004 NOSIG=
201001060130 METAR LMML NIL=
201001060115 METAR LMML 060115Z 23013KT 200V270 CAVOK 17/11 Q1004 NOSIG=
201001060100 METAR LMML NIL=
201001060045 METAR LMML 060045Z 23010KT 200V270 CAVOK 17/11 Q1004 NOSIG=
201001060030 METAR LMML NIL=
201001060015 METAR LMML 060015Z 23010KT 200V290 CAVOK 17/11 Q1004 NOSIG=
201001060000 METAR LMML NIL=
201001052345 METAR LMML 052345Z 23009KT 200V260 CAVOK 17/11 Q1004 NOSIG=
201001052330 METAR LMML NIL=
201001052315 METAR LMML 052315Z 22011KT 180V260 CAVOK 18/11 Q1004 NOSIG=
201001052300 METAR LMML NIL=
201001052245 METAR LMML 052245Z 21010KT 150V240 CAVOK 17/11 Q1004 NOSIG=
201001052230 METAR LMML NIL=
201001052215 METAR LMML 052215Z 20008KT 150V250 CAVOK 17/12 Q1004 NOSIG=
201001052200 METAR LMML NIL=
201001052145 METAR LMML 052145Z 19010KT 160V240 CAVOK 17/12 Q1004 NOSIG=
201001052130 METAR LMML NIL=
201001052115 METAR COR LMML 052115Z 19012KT 160V220 CAVOK 17/12 Q1004=
201001052100 METAR LMML NIL=
201001052045 METAR LMML 052045Z 19011KT 160V230 CAVOK 17/12 Q1005 NOSIG=
201001052030 METAR LMML NIL=
201001052015 METAR LMML 052015Z 18010KT 160V220 CAVOK 16/12 Q1005 NOSIG=
201001052000 METAR LMML NIL=
201001051945 METAR LMML 051945Z 19009KT 150V230 CAVOK 16/12 Q1005 NOSIG=
201001051930 METAR LMML NIL=
201001051915 METAR LMML 051915Z 20008KT 160V240 CAVOK 16/12 Q1005 NOSIG=
201001051900 METAR LMML NIL=
201001051845 METAR LMML 051845Z 20009KT 170V240 CAVOK 16/13 Q1005 NOSIG=
201001051815 METAR LMML 051815Z 20010KT 170V240 CAVOK 16/13 Q1005 NOSIG=
201001051800 METAR LMML NIL=
201001051745 METAR LMML 051745Z 20010KT 160V240 CAVOK 16/13 Q1005 NOSIG=
201001051715 METAR LMML 051715Z 21008KT 160V240 CAVOK 16/13 Q1005 NOSIG=
201001051700 METAR LMML NIL=
201001051645 METAR LMML 051645Z 20009KT 170V240 CAVOK 16/13 Q1005 NOSIG=
201001051630 METAR LMML NIL=
201001051615 METAR LMML 051615Z 20010KT 160V240 CAVOK 16/13 Q1004 NOSIG=
201001051600 METAR LMML NIL=
201001051545 METAR LMML 051545Z 19010KT 160V230 CAVOK 16/13 Q1004 NOSIG=
201001051530 METAR LMML NIL=
201001051515 METAR LMML 051515Z 19010KT 160V240 CAVOK 17/13 Q1004 NOSIG=
201001051500 METAR LMML NIL=
201001051445 METAR LMML 051445Z 19011KT 160V240 CAVOK 17/13 Q1005 NOSIG=
201001051430 METAR LMML NIL=
201001051415 METAR LMML 051415Z 20012KT 160V230 CAVOK 18/13 Q1005 NOSIG=
201001051400 METAR LMML NIL=
201001051345 METAR LMML 051345Z 19011KT 160V240 CAVOK 18/13 Q1005 NOSIG=
201001051330 METAR LMML NIL=
201001051315 METAR LMML 051315Z 20011KT 160V240 CAVOK 17/13 Q1005 NOSIG=
201001051300 METAR LMML NIL=
201001051245 METAR LMML 051245Z 20011KT 160V240 CAVOK 17/13 Q1006 NOSIG=
201001051230 METAR LMML NIL=
201001051215 METAR LMML 051215Z 19010KT 150V230 CAVOK 17/13 Q1006 NOSIG=
201001051200 METAR LMML NIL=
201001051145 METAR LMML 051145Z 19010KT 160V230 CAVOK 17/12 Q1007 NOSIG=
201001051130 METAR LMML NIL=
201001051115 METAR LMML 051115Z 19008KT 150V230 CAVOK 17/13 Q1007 NOSIG=
201001051100 METAR LMML NIL=
201001051045 METAR LMML 051045Z 19007KT 160V240 CAVOK 18/13 Q1008 NOSIG=
201001051030 METAR LMML NIL=
201001051015 METAR LMML 051015Z 19008KT 150V240 CAVOK 19/13 Q1008 NOSIG=
201001051000 METAR LMML NIL=
201001050945 METAR LMML 050945Z 20008KT 160V270 CAVOK 18/14 Q1009 NOSIG=
201001050930 METAR LMML NIL=
201001050915 METAR LMML 050915Z 20010KT 170V240 CAVOK 18/14 Q1009 NOSIG=
201001050900 METAR LMML NIL=
201001050845 METAR LMML 050845Z 19010KT 150V230 CAVOK 17/14 Q1009 NOSIG=
201001050830 METAR LMML NIL=
201001050815 METAR LMML 050815Z 18008KT 150V210 CAVOK 17/14 Q1009 NOSIG=
201001050800 METAR LMML NIL=
201001050745 METAR LMML 050745Z 18008KT CAVOK 16/14 Q1009 NOSIG=
201001050730 METAR LMML NIL=
201001050715 METAR LMML 050715Z 18006KT 150V210 CAVOK 16/14 Q1009 NOSIG=
201001050700 METAR LMML NIL=
201001050645 METAR LMML 050645Z 18005KT 150V210 CAVOK 15/14 Q1009 NOSIG=
201001050630 METAR LMML NIL=
201001050615 METAR LMML 050615Z 19006KT 160V220 CAVOK 15/14 Q1010 NOSIG=
201001050600 METAR LMML NIL=
201001050545 METAR LMML 050545Z 18009KT 150V220 CAVOK 16/14 Q1009 NOSIG=
201001050530 METAR LMML NIL=
201001050515 METAR LMML 050515Z 18009KT 150V210 CAVOK 15/14 Q1009 NOSIG=
201001050500 METAR LMML NIL=
201001050445 METAR LMML 050445Z 19009KT 160V220 CAVOK 15/14 Q1010 NOSIG=
201001050430 METAR LMML NIL=
201001050415 METAR LMML 050415Z 18009KT 150V210 CAVOK 15/14 Q1010 NOSIG=
201001050400 METAR LMML NIL=
201001050345 METAR LMML 050345Z 18010KT 150V210 CAVOK 16/14 Q1010 NOSIG=
201001050330 METAR LMML NIL=
201001050315 METAR LMML 050315Z 18010KT 140V220 CAVOK 16/13 Q1011 NOSIG=
201001050300 METAR LMML NIL=
201001050245 METAR LMML 050245Z 18007KT CAVOK 15/12 Q1011 NOSIG=
201001050230 METAR LMML NIL=
201001050215 METAR LMML 050215Z 19006KT 160V220 CAVOK 15/12 Q1011 NOSIG=
201001050200 METAR LMML NIL=
201001050145 METAR LMML 050145Z 19007KT 160V220 CAVOK 15/13 Q1012 NOSIG=
201001050130 METAR LMML NIL=
201001050115 METAR LMML 050115Z 19007KT 160V220 CAVOK 15/13 Q1012 NOSIG=
201001050100 METAR LMML NIL=
201001050045 METAR LMML 050045Z 19007KT 160V220 CAVOK 15/13 Q1012 NOSIG=
201001050030 METAR LMML NIL=
201001050015 METAR LMML 050015Z 19007KT 150V230 CAVOK 15/12 Q1012 NOSIG=
201001050000 METAR LMML NIL=
201001042345 METAR LMML 042345Z 19007KT 160V230 CAVOK 15/12 Q1012 NOSIG=
201001042330 METAR LMML NIL=
201001042315 METAR LMML 042315Z 19007KT 140V240 CAVOK 15/12 Q1012 NOSIG=
201001042300 METAR LMML NIL=
201001042245 METAR LMML 042245Z 20009KT 160V240 CAVOK 15/13 Q1013 NOSIG=
201001042230 METAR LMML NIL=
201001042215 METAR LMML 042215Z 20010KT 160V270 CAVOK 15/13 Q1013 NOSIG=
201001042200 METAR LMML NIL=
201001042145 METAR LMML 042145Z 20010KT 150V240 CAVOK 15/13 Q1013 NOSIG=
201001042130 METAR LMML NIL=
201001042115 METAR LMML 042115Z 20009KT 150V240 CAVOK 15/13 Q1013 NOSIG=
201001042100 METAR LMML NIL=
201001042045 METAR LMML 042045Z 21005KT 160V270 CAVOK 15/13 Q1013 NOSIG=
201001042030 METAR LMML NIL=
201001042015 METAR LMML 042015Z 20006KT 160V250 CAVOK 15/12 Q1013 NOSIG=
201001042000 METAR LMML NIL=
201001041945 METAR LMML 041945Z 20006KT 150V270 CAVOK 15/12 Q1013 NOSIG=
201001041930 METAR LMML NIL=
201001041915 METAR LMML 041915Z 19008KT 150V240 CAVOK 15/12 Q1013 NOSIG=
201001041900 METAR LMML NIL=
201001041845 METAR LMML 041845Z 20007KT 150V270 CAVOK 15/12 Q1013 NOSIG=
201001041830 METAR LMML NIL=
201001041815 METAR LMML 041815Z 19008KT 160V230 CAVOK 16/12 Q1013 NOSIG=
201001041800 METAR LMML NIL=
201001041745 METAR LMML 041745Z 20005KT 140V240 CAVOK 15/12 Q1014 NOSIG=
201001041730 METAR LMML NIL=
201001041715 METAR LMML 041715Z 20006KT 150V250 CAVOK 16/12 Q1013 NOSIG=
201001041700 METAR LMML NIL=
201001041645 METAR LMML 041645Z 19006KT 160V220 CAVOK 16/11 Q1014 NOSIG=
201001041630 METAR LMML NIL=
201001041615 METAR LMML 041615Z 19006KT 150V240 CAVOK 16/12 Q1014 NOSIG=
201001041600 METAR LMML NIL=
201001041545 METAR LMML 041545Z 20007KT 170V240 CAVOK 16/12 Q1014 NOSIG=
201001041530 METAR LMML NIL=
201001041515 METAR LMML 041515Z 20007KT 160V240 CAVOK 16/11 Q1014 NOSIG=
201001041500 METAR LMML NIL=
201001041445 METAR LMML 041445Z 20007KT 160V250 CAVOK 17/12 Q1014 NOSIG=
201001041430 METAR LMML NIL=
201001041415 METAR LMML 041415Z 20009KT 160V230 9999 FEW022 BKN250 17/13
                        Q1014 NOSIG=
201001041345 METAR LMML 041345Z 20010KT 150V240 9999 FEW022 BKN250 17/13
                        Q1014 NOSIG=
201001041330 METAR LMML NIL=
201001041315 METAR LMML 041315Z 20010KT 160V240 9999 FEW022 BKN250 17/13
                        Q1014 NOSIG=
201001041300 METAR LMML NIL=
201001041245 METAR LMML 041245Z 20009KT 150V250 9999 FEW022 SCT250 18/13
                        Q1015 NOSIG=
201001041230 METAR LMML NIL=
201001041215 METAR LMML 041215Z 19010KT 150V230 9999 FEW022 SCT250 18/13
                        Q1015 NOSIG=
201001041200 METAR LMML NIL=
201001041145 METAR LMML 041145Z 18010KT 150V230 9999 FEW022 SCT250 18/13
                        Q1016 NOSIG=
201001041130 METAR LMML NIL=
201001041115 METAR LMML 041115Z 18010KT 140V210 9999 FEW021 BKN250 18/13
                        Q1016 NOSIG=
201001041045 METAR LMML 041045Z 18010KT 150V210 9999 FEW021 BKN250 17/12
                        Q1017 NOSIG=
201001041030 METAR LMML NIL=
201001041015 METAR LMML 041015Z 18008KT 150V220 9999 FEW021 BKN250 17/12
                        Q1017 NOSIG=
201001041000 METAR LMML NIL=
201001040930 METAR LMML NIL=
201001040915 METAR LMML 040915Z 17008KT 140V210 9999 SCT024 SCT250 17/12
                        Q1018 NOSIG=
201001040900 METAR LMML NIL=
201001040845 METAR LMML 040845Z 17008KT 140V200 9999 BKN026 16/12 Q1018
                        NOSIG=
201001040830 METAR LMML NIL=
201001040815 METAR LMML 040815Z 14007KT 9999 BKN026 15/12 Q1018 NOSIG=
201001040800 METAR LMML NIL=
201001040745 METAR LMML 040745Z 14006KT 9999 BKN021 14/12 Q1018 NOSIG=
201001040730 METAR LMML NIL=
201001040715 METAR LMML 040715Z 13007KT 9999 SCT021 12/11 Q1018 NOSIG=
201001040700 METAR LMML NIL=
201001040645 METAR LMML 040645Z 14008KT 9999 SCT024 SCT250 12/10 Q1018
                        NOSIG=
201001040630 METAR LMML NIL=
201001040615 METAR LMML 040615Z 14005KT 9999 SCT022 10/09 Q1018 NOSIG=
201001040600 METAR LMML NIL=
201001040545 METAR LMML 040545Z 15005KT 9999 FEW023 09/08 Q1018 NOSIG=
201001040530 METAR LMML NIL=
201001040515 METAR LMML 040515Z VRB03KT 9999 SCT022 10/08 Q1018 NOSIG=
201001040500 METAR LMML NIL=
201001040445 METAR LMML 040445Z VRB03KT 9999 FEW025 10/08 Q1018 NOSIG=
201001040430 METAR LMML NIL=
201001040415 METAR LMML 040415Z VRB03KT CAVOK 08/07 Q1018 NOSIG=
201001040400 METAR LMML NIL=
201001040345 METAR LMML 040345Z VRB01KT 9999 FEW022 08/07 Q1019 NOSIG=
201001040315 METAR LMML 040315Z VRB01KT CAVOK 09/07 Q1019 NOSIG=
201001040300 METAR LMML NIL=
201001040245 METAR LMML 040245Z VRB01KT 9999 FEW022 09/08 Q1019 NOSIG=
201001040230 METAR LMML NIL=
201001040215 METAR LMML 040215Z VRB01KT 9999 FEW022 09/07 Q1019 NOSIG=
201001040200 METAR LMML NIL=
201001040145 METAR LMML 040145Z 00000KT 9999 FEW022 09/07 Q1019 NOSIG=
201001040130 METAR LMML NIL=
201001040115 METAR LMML 040115Z VRB01KT 9999 FEW020 09/07 Q1019 NOSIG=
201001040100 METAR LMML NIL=
201001040045 METAR LMML 040045Z VRB01KT 9999 FEW025 09/07 Q1019 NOSIG=
201001040030 METAR LMML NIL=
201001040015 METAR LMML 040015Z VRB02KT 9999 FEW025 09/07 Q1020 NOSIG=
201001040000 METAR LMML NIL=
201001032345 METAR LMML 032345Z VRB01KT CAVOK 09/07 Q1020 NOSIG=
201001032330 METAR LMML NIL=
201001032315 METAR LMML 032315Z 27004KT CAVOK 10/07 Q1020 NOSIG=
201001032300 METAR LMML NIL=
201001032245 METAR LMML 032245Z 27004KT CAVOK 11/07 Q1021 NOSIG=
201001032230 METAR LMML NIL=
201001032215 METAR LMML 032215Z 27004KT CAVOK 10/07 Q1021 NOSIG=
201001032145 METAR LMML 032145Z VRB03KT CAVOK 11/07 Q1021 NOSIG=
201001032130 METAR LMML NIL=
201001032115 METAR LMML 032115Z 26004KT CAVOK 11/07 Q1021 NOSIG=
201001032100 METAR LMML NIL=
201001032045 METAR LMML 032045Z 27005KT 220V300 CAVOK 12/07 Q1021 NOSIG=
201001032030 METAR LMML NIL=
201001032015 METAR LMML 032015Z 26004KT 230V290 CAVOK 11/07 Q1021 NOSIG=
201001032000 METAR LMML NIL=
201001031945 METAR LMML 031945Z 27004KT 240V300 CAVOK 11/07 Q1021 NOSIG=
201001031930 METAR LMML NIL=
201001031915 METAR LMML 031915Z VRB02KT CAVOK 11/07 Q1020 NOSIG=
201001031900 METAR LMML NIL=
201001031845 METAR LMML 031845Z 27004KT 230V310 CAVOK 12/07 Q1020 NOSIG=
201001031830 METAR LMML NIL=
201001031815 METAR LMML 031815Z 29007KT CAVOK 12/07 Q1020 NOSIG=
201001031800 METAR LMML NIL=
201001031745 METAR LMML 031745Z 29009KT 9999 FEW025 12/07 Q1020 NOSIG=
201001031730 METAR LMML NIL=
201001031715 METAR LMML 031715Z 29010KT 9999 FEW030 12/07 Q1020 NOSIG=
201001031645 METAR LMML 031645Z 29009KT 260V320 9999 FEW030 13/07 Q1020
                        NOSIG=
201001031630 METAR LMML NIL=
201001031615 METAR LMML 031615Z 29009KT 9999 FEW030 13/07 Q1020 NOSIG=
201001031600 METAR LMML NIL=
201001031545 METAR LMML 031545Z 29008KT 260V320 9999 FEW030 14/07 Q1020
                        NOSIG=
201001031530 METAR LMML NIL=
201001031515 METAR LMML 031515Z 29010KT 250V330 9999 FEW030 SCT250 14/07
                        Q1020 NOSIG=
201001031500 METAR LMML NIL=
201001031445 METAR LMML 031445Z 29013KT 250V320 9999 FEW030 SCT250 15/07
                        Q1020 NOSIG=
201001031430 METAR LMML NIL=
201001031415 METAR LMML 031415Z 30013KT 9999 FEW030 SCT250 15/08 Q1020
                        NOSIG=
201001031400 METAR LMML NIL=
201001031345 METAR LMML 031345Z 30015KT 270V330 9999 FEW031 SCT250 15/07
                        Q1019 NOSIG=
201001031315 METAR LMML 031315Z 30017KT 9999 SCT031 15/07 Q1019 NOSIG=
201001031245 METAR LMML 031245Z 29016KT 260V320 9999 SCT030 16/08 Q1019
                        NOSIG=
201001031230 METAR LMML NIL=
201001031215 METAR LMML 031215Z 31019KT 9999 FEW031 16/08 Q1020 NOSIG=
201001031200 METAR LMML NIL=
201001031145 METAR LMML 031145Z 30016KT 270V330 9999 FEW031 16/07 Q1020
                        NOSIG=
201001031130 METAR LMML NIL=
201001031115 METAR LMML 031115Z 30019KT 9999 FEW031 16/07 Q1020 NOSIG=
201001031100 METAR LMML NIL=
201001031045 METAR LMML 031045Z 29019KT 260V320 9999 FEW031 16/07 Q1020
                        NOSIG=
201001031030 METAR LMML NIL=
201001031015 METAR LMML 031015Z 30019KT 9999 FEW031 16/07 Q1021 NOSIG=
201001031000 METAR LMML NIL=
201001030945 METAR LMML 030945Z 29017KT 260V320 9999 FEW031 16/08 Q1021
                        NOSIG=
201001030930 METAR LMML NIL=
201001030915 METAR LMML 030915Z 29017KT 9999 FEW031 15/08 Q1021 NOSIG=
201001030900 METAR LMML NIL=
201001030845 METAR LMML 030845Z 30021G31KT 9999 FEW031 15/07 Q1021 NOSIG=
201001030830 METAR LMML NIL=
201001030815 METAR LMML 030815Z 30018KT 270V330 9999 FEW032 SCT250 15/08
                        Q1020 NOSIG=
201001030800 METAR LMML NIL=
201001030745 METAR LMML 030745Z 29015KT 260V320 9999 FEW032 SCT250 15/08
                        Q1020 NOSIG=
201001030730 METAR LMML NIL=
201001030715 METAR LMML 030715Z 29016KT 9999 FEW032 SCT250 14/08 Q1019
                        NOSIG=
201001030700 METAR LMML NIL=
201001030645 METAR LMML 030645Z 29015KT 260V320 9999 FEW032 SCT250 14/08
                        Q1020 NOSIG=
201001030630 METAR LMML NIL=
201001030615 METAR LMML 030615Z 29012KT 9999 FEW032 13/08 Q1019 NOSIG=
201001030600 METAR LMML NIL=
201001030545 METAR LMML 030545Z 29014KT 9999 FEW029 14/07 Q1019 NOSIG=
201001030530 METAR LMML NIL=
201001030515 METAR LMML 030515Z 30015KT 9999 FEW024 14/08 Q1019 NOSIG=
201001030500 METAR LMML NIL=
201001030445 METAR LMML 030445Z 29014KT 260V330 9999 FEW024 14/08 Q1019
                        NOSIG=
201001030430 METAR LMML NIL=
201001030415 METAR LMML 030415Z 30014KT 9999 FEW043 14/08 Q1019 NOSIG=
201001030400 METAR LMML NIL=
201001030345 METAR LMML 030345Z 29017KT 9999 FEW026 14/08 Q1019 NOSIG=
201001030315 METAR LMML 030315Z 28015KT 9999 FEW026 14/09 Q1018 NOSIG=
201001030300 METAR LMML NIL=
201001030245 METAR LMML 030245Z 28013KT 260V320 9999 FEW026 SCT250 14/09
                        Q1018 NOSIG=
201001030230 METAR LMML NIL=
201001030215 METAR LMML 030215Z 28014KT 9999 FEW026 14/09 Q1019 NOSIG=
201001030200 METAR LMML NIL=
201001030145 METAR LMML 030145Z 30012KT CAVOK 14/09 Q1018 NOSIG=
201001030130 METAR LMML NIL=
201001030115 METAR LMML 030115Z 29015KT 9999 FEW022 14/10 Q1018 NOSIG=
201001030100 METAR LMML NIL=
201001030045 METAR LMML 030045Z 27010KT 230V300 9999 FEW022 14/09 Q1018
                        NOSIG=
201001030030 METAR LMML NIL=
201001030015 METAR LMML 030015Z 29013KT 260V330 9999 FEW024 14/09 Q1018
                        NOSIG=
201001030000 METAR LMML NIL=
201001022345 METAR LMML 022345Z 29015KT 250V320 9999 FEW026 14/09 Q1018
                        NOSIG=
201001022315 METAR LMML 022315Z 29013KT 250V320 9999 FEW026 14/09 Q1018
                        NOSIG=
201001022300 METAR LMML NIL=
201001022245 METAR LMML 022245Z 29015KT 260V320 9999 SCT026 14/09 Q1019
                        NOSIG=
201001022230 METAR LMML NIL=
201001022215 METAR LMML 022215Z 29012KT 9999 SCT023 14/10 Q1019 NOSIG=
201001022200 METAR LMML NIL=
201001022145 METAR LMML 022145Z 29015KT 260V320 9999 FEW026 14/09 Q1019
                        NOSIG=
201001022130 METAR LMML NIL=
201001022115 METAR LMML 022115Z 29017KT 250V320 9999 FEW026 14/09 Q1019
                        NOSIG=
201001022100 METAR LMML NIL=
201001022045 METAR LMML 022045Z 29013KT 260V320 9999 FEW025 14/09 Q1019
                        NOSIG=
201001022030 METAR LMML NIL=
201001022015 METAR LMML 022015Z 29010KT 260V330 9999 SCT024 14/10 Q1018
                        NOSIG=
201001022000 METAR LMML NIL=
201001021945 METAR LMML 021945Z 29015KT 9999 SCT028 14/09 Q1018 NOSIG=
201001021930 METAR LMML NIL=
201001021915 METAR LMML 021915Z 28011KT 260V320 9999 SCT025 14/09 Q1018
                        NOSIG=
201001021900 METAR LMML NIL=
201001021845 METAR LMML 021845Z 29013KT 260V330 9999 FEW030 14/08 Q1018
                        NOSIG=
201001021830 METAR LMML NIL=
201001021815 METAR LMML 021815Z 30016KT 9999 FEW030 SCT250 14/08 Q1018
                        NOSIG=
201001021800 METAR LMML NIL=
201001021745 METAR LMML 021745Z 30017KT 9999 FEW030 14/07 Q1017 NOSIG=
201001021730 METAR LMML NIL=
201001021715 METAR LMML 021715Z 30018KT 270V330 9999 FEW033 14/07 Q1017
                        NOSIG=
201001021700 METAR LMML NIL=
201001021645 METAR LMML 021645Z 30018KT 9999 FEW033 SCT250 14/08 Q1017
                        NOSIG=
201001021630 METAR LMML NIL=
201001021615 METAR LMML 021615Z 28016KT 250V310 9999 FEW034 SCT250 15/08
                        Q1017 NOSIG=
201001021600 METAR LMML NIL=
201001021545 METAR LMML 021545Z 28016KT 250V320 9999 FEW033 15/08 Q1017
                        NOSIG=
201001021530 METAR LMML NIL=
201001021515 METAR LMML 021515Z 29019KT 9999 FEW032 15/07 Q1016 NOSIG=
201001021500 METAR LMML NIL=
201001021445 METAR LMML 021445Z 29019KT 260V320 9999 FEW031 15/08 Q1016
                        NOSIG=
201001021430 METAR LMML NIL=
201001021415 METAR LMML 021415Z 28019KT 250V310 9999 SCT033 16/09 Q1016
                        NOSIG=
201001021400 METAR LMML NIL=
201001021345 METAR LMML 021345Z 28021KT 250V320 9999 SCT032 16/08 Q1016
                        NOSIG=
201001021330 METAR LMML NIL=
201001021315 METAR LMML 021315Z 27021KT 240V300 9999 FEW033 16/08 Q1015
                        NOSIG=
201001021300 METAR LMML NIL=
201001021245 METAR LMML 021245Z 28023G33KT 250V310 9999 FEW035 16/09 Q1015
                        NOSIG=
201001021230 METAR LMML NIL=
201001021215 METAR LMML 021215Z 28021G31KT 240V320 9999 FEW032 17/09 Q1015
                        NOSIG=
201001021145 METAR LMML 021145Z 28021KT 250V310 9999 FEW030 17/09 Q1015
                        NOSIG=
201001021130 METAR LMML NIL=
201001021115 METAR LMML 021115Z 28023KT 240V310 9999 FEW029 16/09 Q1015
                        NOSIG=
201001021100 METAR LMML NIL=
201001021045 METAR LMML 021045Z 28024KT 240V300 9999 FEW029 16/09 Q1015
                        NOSIG=
201001021030 METAR LMML NIL=
201001021015 METAR LMML 021015Z 28023KT 9999 SCT026 SCT250 16/09 Q1016
                        NOSIG=
201001021000 METAR LMML NIL=
201001020945 METAR LMML 020945Z 28021KT 240V310 9999 FEW029 SCT250 16/09
                        Q1015 NOSIG=
201001020930 METAR LMML NIL=
201001020915 METAR LMML 020915Z 27018KT 240V310 9999 SCT032 SCT250 16/08
                        Q1015 NOSIG=
201001020900 METAR LMML NIL=
201001020845 METAR LMML 020845Z 27020KT 230V300 9999 FEW034 BKN250 16/08
                        Q1015 NOSIG=
201001020830 METAR LMML NIL=
201001020815 METAR LMML 020815Z 28017G28KT 230V320 9999 FEW030 BKN250
                        15/09 Q1015 NOSIG=
201001020800 METAR LMML NIL=
201001020745 METAR LMML 020745Z 28017KT 250V310 9999 FEW028 SCT250 15/09
                        Q1015 NOSIG=
201001020730 METAR LMML NIL=
201001020715 METAR LMML 020715Z 28019KT 9999 FEW034 SCT250 15/08 Q1014
                        NOSIG=
201001020700 METAR LMML NIL=
201001020645 METAR LMML 020645Z 28016KT 220V300 9999 FEW034 BKN250 15/07
                        Q1014 NOSIG=
201001020630 METAR LMML NIL=
201001020615 METAR LMML 020615Z 28016KT 240V300 9999 FEW034 BKN250 14/07
                        Q1014 NOSIG=
201001020600 METAR LMML NIL=
201001020545 METAR LMML 020545Z 29018KT 260V320 9999 FEW036 14/07 Q1013
                        NOSIG=
201001020530 METAR LMML NIL=
201001020515 METAR LMML 020515Z 28019KT 9999 FEW036 14/07 Q1013 NOSIG=
201001020500 METAR LMML NIL=
201001020445 METAR LMML 020445Z 28018KT 240V320 9999 FEW033 14/07 Q1013
                        NOSIG=
201001020430 METAR LMML NIL=
201001020415 METAR LMML 020415Z 28018G28KT 250V310 9999 FEW043 14/07 Q1012
                        NOSIG=
201001020400 METAR LMML NIL=
201001020345 METAR LMML 020345Z 28021KT 240V310 9999 FEW040 14/06 Q1012
                        NOSIG=
201001020315 METAR LMML 020315Z 28020KT 9999 FEW039 14/07 Q1012 NOSIG=
201001020300 METAR LMML NIL=
201001020245 METAR LMML 020245Z 29021KT 250V320 9999 FEW025 14/06 Q1012
                        NOSIG=
201001020230 METAR LMML NIL=
201001020215 METAR LMML 020215Z 29022KT 9999 FEW025 15/06 Q1012 NOSIG=
201001020200 METAR LMML NIL=
201001020145 METAR LMML 020145Z 29020KT CAVOK 15/06 Q1012 NOSIG=
201001020130 METAR LMML NIL=
201001020115 METAR LMML 020115Z 29021KT 260V320 CAVOK 15/05 Q1012 NOSIG=
201001020100 METAR LMML NIL=
201001020045 METAR LMML 020045Z 29017KT CAVOK 15/06 Q1012 NOSIG=
201001020030 METAR LMML NIL=
201001020015 METAR LMML 020015Z 28017KT CAVOK 15/06 Q1012 NOSIG=
201001020000 METAR LMML NIL=
201001012345 METAR LMML 012345Z 29019KT 250V320 CAVOK 15/06 Q1012 NOSIG=
201001012330 METAR LMML NIL=
201001012315 METAR LMML 012315Z 29015KT CAVOK 15/07 Q1012 NOSIG=
201001012245 METAR LMML 012245Z 29013KT CAVOK 15/06 Q1011 NOSIG=
201001012230 METAR LMML NIL=
201001012215 METAR LMML 012215Z 29017KT CAVOK 15/05 Q1012 NOSIG=
201001012200 METAR LMML NIL=
201001012145 METAR LMML 012145Z 29010KT 250V310 CAVOK 15/06 Q1011 NOSIG=
201001012130 METAR LMML NIL=
201001012115 METAR LMML 012115Z 28009KT 250V310 CAVOK 15/08 Q1011 NOSIG=
201001012100 METAR LMML NIL=
201001012045 METAR LMML 012045Z 27007KT 250V310 CAVOK 15/07 Q1011 NOSIG=
201001012030 METAR LMML NIL=
201001012015 METAR LMML 012015Z 28007KT 250V310 CAVOK 15/08 Q1011 NOSIG=
201001011945 METAR LMML 011945Z 27006KT CAVOK 14/08 Q1011 NOSIG=
201001011930 METAR LMML NIL=
201001011915 METAR LMML 011915Z 27006KT 240V310 CAVOK 14/08 Q1011 NOSIG=
201001011900 METAR LMML NIL=
201001011845 METAR LMML 011845Z 28007KT 250V310 CAVOK 15/08 Q1011 NOSIG=
201001011830 METAR LMML NIL=
201001011815 METAR LMML 011815Z 30009KT CAVOK 15/10 Q1010 NOSIG=
201001011800 METAR LMML NIL=
201001011745 METAR LMML 011745Z 29010KT CAVOK 16/08 Q1010 NOSIG=
201001011730 METAR LMML NIL=
201001011715 METAR LMML 011715Z 28010KT CAVOK 16/07 Q1010 NOSIG=
201001011645 METAR LMML 011645Z 28010KT 240V320 CAVOK 16/08 Q1009 NOSIG=
201001011630 METAR LMML NIL=
201001011615 METAR LMML 011615Z 27009KT 240V300 CAVOK 16/10 Q1009 NOSIG=
201001011600 METAR LMML NIL=
201001011545 METAR LMML 011545Z 26009KT 220V310 CAVOK 17/11 Q1009 NOSIG=
201001011530 METAR LMML NIL=
201001011515 METAR LMML 011515Z 28011KT 240V310 9999 FEW040 17/09 Q1009
                        NOSIG=
201001011500 METAR LMML NIL=
201001011445 METAR LMML 011445Z 29014KT 9999 FEW025 18/08 Q1009 NOSIG=
201001011430 METAR LMML NIL=
201001011415 METAR LMML 011415Z 28014KT 250V310 9999 FEW025 18/08 Q1009
                        NOSIG=
201001011345 METAR LMML 011345Z 26015KT 230V300 9999 FEW025 18/10 Q1009
                        NOSIG=
201001011315 METAR LMML 011315Z 25013KT 220V290 9999 FEW025 18/11 Q1009
                        NOSIG=
201001011300 METAR LMML NIL=
201001011245 METAR LMML 011245Z 25013KT 210V300 9999 FEW025 19/12 Q1008
                        NOSIG=
201001011230 METAR LMML NIL=
201001011215 METAR LMML 011215Z 26013KT 220V300 9999 FEW025 19/11 Q1009
                        NOSIG=
201001011200 METAR LMML NIL=
201001011145 METAR LMML 011145Z 25013KT 220V290 9999 FEW025 19/12 Q1009
                        NOSIG=
201001011130 METAR LMML NIL=
201001011115 METAR LMML 011115Z 26013KT 220V290 CAVOK 19/12 Q1009 NOSIG=
201001011100 METAR LMML NIL=
201001011045 METAR LMML 011045Z 26015KT 230V290 CAVOK 19/10 Q1009 NOSIG=
201001011030 METAR LMML NIL=
201001011015 METAR LMML 011015Z 25012KT 210V290 CAVOK 19/09 Q1009 NOSIG=
201001011000 METAR LMML NIL=
201001010945 METAR LMML 010945Z 25011KT 200V290 CAVOK 18/11 Q1009 NOSIG=
201001010930 METAR LMML NIL=
201001010915 METAR LMML 010915Z 24010KT 190V280 CAVOK 18/13 Q1009 NOSIG=
201001010900 METAR LMML NIL=
201001010845 METAR LMML 010845Z 22011KT 180V260 CAVOK 17/13 Q1009 NOSIG=
201001010830 METAR LMML NIL=
201001010815 METAR LMML 010815Z 22010KT 190V250 CAVOK 17/14 Q1009 NOSIG=
201001010745 METAR LMML 010745Z 22008KT 190V260 CAVOK 16/14 Q1009 NOSIG=
201001010730 METAR LMML NIL=
201001010715 METAR LMML 010715Z 23007KT 200V280 CAVOK 16/13 Q1008 NOSIG=
201001010645 METAR LMML 010645Z 25006KT 200V280 CAVOK 15/12 Q1008 NOSIG=
201001010615 METAR LMML 010615Z 24006KT 200V280 CAVOK 15/13 Q1008 NOSIG=
201001010545 METAR LMML 010545Z 25005KT 220V280 CAVOK 15/13 Q1008 NOSIG=
201001010530 METAR LMML NIL=
201001010515 METAR LMML 010515Z 25006KT 200V280 CAVOK 15/12 Q1007 NOSIG=
201001010445 METAR LMML 010445Z 26007KT 220V280 CAVOK 14/12 Q1007 NOSIG=
201001010430 METAR LMML NIL=
201001010415 METAR LMML 010415Z 28006KT 250V310 CAVOK 15/11 Q1007 NOSIG=
201001010400 METAR LMML NIL=
201001010345 METAR LMML 010345Z 30010KT CAVOK 15/11 Q1007 NOSIG=
201001010330 METAR LMML NIL=
201001010315 METAR LMML 010315Z 30013KT 270V340 CAVOK 16/11 Q1007 NOSIG=
201001010300 METAR LMML NIL=
201001010245 METAR LMML 010245Z 29013KT CAVOK 16/11 Q1007 NOSIG=
201001010230 METAR LMML NIL=
201001010215 METAR LMML 010215Z 29015KT CAVOK 16/11 Q1007 NOSIG=
201001010200 METAR LMML NIL=
201001010145 METAR LMML 010145Z 28017KT CAVOK 17/11 Q1006 NOSIG=
201001010130 METAR LMML NIL=
201001010115 METAR LMML 010115Z 27015KT 240V310 CAVOK 17/11 Q1006 NOSIG=
201001010100 METAR LMML NIL=
201001010045 METAR LMML 010045Z 26018KT 230V290 CAVOK 17/10 Q1006 NOSIG=
201001010030 METAR LMML NIL=
201001010015 METAR LMML 010015Z 25019G30KT 200V280 CAVOK 17/10 Q1006 NOSIG=

###################################
#  short TAF from LMML
###################################
201001312300 TAF LMML 312300Z 0100/0109 22010KT 9999 FEW025
                      BECMG 0106/0109 34010KT=
201001312000 TAF LMML 312000Z 3121/0106 23011KT 9999 FEW030
                      PROB30 TEMPO 3121/0106 9000 NSC=
201001311700 TAF LMML 311700Z 3118/0103 23012KT 9999 FEW025
                      PROB30 TEMPO 3121/0103 9000 NSC=
201001311400 TAF LMML 311400Z 3115/3124 24014KT 9999 SCT035=
201001311100 TAF LMML 311100Z 3112/3121 24014KT 9999 SCT035=
201001310800 TAF LMML 310800Z 3109/3118 25015KT 9999 SCT035=
201001310500 TAF LMML 310500Z 3106/3115 29015KT 9999 SCT030
                      BECMG 3109/3112 23018KT=
201001310200 TAF LMML 310200Z 3103/3112 29015KT 9999 SCT025
                      PROB30 TEMPO 3103/3105 29025KT SHRA
                      BECMG 3109/3112 23018KT=
201001302300 TAF LMML 302300Z 3100/3109 28018KT 9999 SCT025
                      PROB30 TEMPO 3100/3105 28025KT 7000 SHRA
                       BKN015=
201001302000 TAF LMML 302000Z 3021/3106 28018KT 9999 SCT025
                      PROB40 TEMPO 3021/3103 28025KT 7000 SHRA
                       BKN015
                      PROB30 TEMPO 3021/3100 28025KT 5000 TSGR
                       BKN015CB=
201001301757 TAF AMD LMML 301757Z 3018/3103 29018KT 9999 SCT025 BKN080
                      BECMG 3021/3024 29022G33KT
                      TEMPO 3018/3103 7000 SHGR BKN015
                      PROB30 TEMPO 3018/3103 4000 TSGR BKN012CB=
201001301700 TAF LMML 301700Z 3018/3103 24015KT 9999 SCT025 BKN080
                      BECMG 3021/3024 29020G30KT
                      TEMPO 3018/3103 7000 SHRA BKN015
                      PROB30 TEMPO 3021/3103 5000 TSRA BKN012CB=
201001301400 TAF LMML 301400Z 3015/3024 24015KT 9999 SCT025 BKN070
                      TEMPO 3015/3024 8000 SHRA
                      PROB30 TEMPO 3020/3024 5000 TSRA BKN015CB=
201001301100 TAF LMML 301100Z 3012/3021 24015KT 9999 SCT026 BKN050
                      TEMPO 3016/3021 8000 SHRA
                      PROB30 TEMPO 3018/3021 5000 TSRA BKN015CB=
201001300800 TAF LMML 300800Z 3009/3018 23010KT 9999 SCT026
                      BECMG 3009/3012 23020KT
                      PROB30 TEMPO 3015/3018 8000 SHRA BKN015=
201001300500 TAF LMML 300500Z 3006/3015 25017KT 9999 SCT025
                      PROB30 TEMPO 3006/3015 8000 RA=
201001300200 TAF LMML 300200Z 3003/3012 25015KT 9999 FEW025
                      PROB40 TEMPO 3003/3012 8000 RA=
201001292300 TAF LMML 292300Z 3000/3009 25014KT 9999 FEW025
                      TEMPO 3000/3009 8000 SHRA=
201001292000 TAF LMML 292000Z 2921/3006 26012KT 9999 FEW025
                      TEMPO 2921/3006 8000 SHRA=
201001291700 TAF LMML 291700Z 2918/3003 28012KT 9999 SCT025
                      PROB30 TEMPO 2918/3003 5000 SHRA BKN015=
201001291400 TAF LMML 291400Z 2915/2924 28015KT 9999 SCT025
                      PROB40 TEMPO 2915/2918 7000 SHRA=
201001291100 TAF LMML 291100Z 2912/2921 28018KT 9999 SCT025
                      PROB40 TEMPO 2912/2921 SHRA BKN018=
201001290800 TAF LMML 290800Z 2909/2918 28018KT 9999 SCT025
                      PROB30 TEMPO 2909/2918 SHRA BKN018=
201001290500 TAF LMML 290500Z 2906/2915 28015KT 9999 SCT025 SCT050
                      TEMPO 2906/2915 8000 SHRA BKN015 BKN040=
201001290200 TAF LMML 290200Z 2903/2912 28015KT 9999 SCT025 SCT060
                      PROB30 TEMPO 2903/2912 8000 SHRA BKN015 BKN050=
201001282300 TAF LMML 282300Z 2900/2909 28015KT 9999 SCT025
                      PROB30 TEMPO 2900/2909 8000 SHRA BKN015=
201001282000 TAF LMML 282000Z 2821/2906 28015KT 9999 SCT020
                      PROB30 TEMPO 2821/2906 8000 SHRA BKN015=
201001281700 TAF LMML 281700Z 2818/2903 29015KT 9999 SCT020=
201001281400 TAF LMML 281400Z 2815/2824 29016KT 9999 SCT020=
201001281100 TAF LMML 281100Z 2812/2821 29014KT 9999 SCT020=
201001280800 TAF LMML 280800Z 2809/2818 29013KT 9999 SCT020=
201001280500 TAF LMML 280500Z 2806/2815 28006KT 9000 FEW015
                      TEMPO 2810/2815 BKN015
                      BECMG 2809/2812 29016KT=
201001280200 TAF LMML 280200Z 2803/2812 28006KT 9999 FEW015
                      PROB30 TEMPO 2803/2809 BKN015
                      BECMG 2806/2809 29016KT=
201001272300 TAF LMML 272300Z 2800/2809 27005KT 9999 FEW015
                      TEMPO 2800/2809 BKN015
                      BECMG 2806/2809 28015KT=
201001272000 TAF LMML 272000Z 2721/2806 27007KT 9999 FEW015
                      PROB30 TEMPO 2721/2806 9000 BKN015=
201001271700 TAF LMML 271700Z 2718/2803 26008KT 8000 SCT020
                      BECMG 2718/2721 9999
                      PROB30 TEMPO 2718/2803 9000 BKN015=
201001271400 TAF LMML 271400Z 2715/2724 26011KT 9000 FEW020
                      BECMG 2715/2718 9999=
201001271100 TAF LMML 271100Z 2712/2721 20009KT 3000 DU NSC
                      BECMG 2712/2715 26010KT 9999 FEW025=
201001270800 TAF LMML 270800Z 2709/2718 17011KT 5000 DU NSC
                      BECMG 2709/2712 24010KT 9999 FEW020=
201001270500 TAF LMML 270500Z 2706/2715 17012KT 9999 FEW025
                      PROB40 TEMPO 2706/2709 8000
                      BECMG 2708/2711 24010KT=
201001270200 TAF LMML 270200Z 2703/2712 15017KT 9999 SCT025
                      TEMPO 2703/2709 6000 DU
                      BECMG 2707/2710 25012KT=
201001262300 TAF LMML 262300Z 2700/2709 15017KT 9999 SCT025
                      TEMPO 2700/2709 6000 DU=
201001262000 TAF LMML 262000Z 2621/2706 15023KT 9999 FEW025=
201001261700 TAF LMML 261700Z 2618/2703 12024KT 9999 FEW025 BKN040 OVC200=
201001261400 TAF LMML 261400Z 2615/2624 13020KT 9999 SCT025 BKN040 OVC200
                      TEMPO 2615/2620 12023/33KT=
201001261100 TAF LMML 261100Z 2612/2621 13022KT 9999 SCT025 SCT040
                      TEMPO 2612/2621 13024G35KT=
201001260800 TAF LMML 260800Z 2609/2618 12020KT 9999 SCT025 SCT040
                      TEMPO 2611/2618 12022G33KT=
201001260500 TAF LMML 260500Z 2606/2615 14018KT 9999 SCT022
                      BECMG 2608/2611 14020G30KT=
201001260200 TAF LMML 260200Z 2603/2612 14018G28KT 9999 FEW017
                      PROB30 TEMPO 2603/2609 9000 RA BKN015=
201001252300 TAF LMML 252300Z 2600/2609 13018KT 9999 SCT017
                      PROB30 TEMPO 2600/2609 9000 RA BKN015
                      TEMPO 2603/2609 14018G28KT=
201001252000 TAF LMML 252000Z 2521/2606 13018KT 9999 SCT017
                      PROB30 TEMPO 2521/2606 9000 RA BKN015=
201001251700 TAF LMML 251700Z 2518/2603 11012KT 9999 SCT018 SCT035=
201001251400 TAF LMML 251400Z 2515/2524 14013KT 9999 SCT025 SCT035=
201001251100 TAF LMML 251100Z 2512/2521 14013KT 9999 SCT030 SCT040
                      PROB30 TEMPO 2512/2521 15020G30KT=
201001250800 TAF LMML 250800Z 2509/2518 15015KT 9999 SCT030 SCT050=
201001250500 TAF LMML 250500Z 2506/2515 12013KT 9999 SCT030 SCT050
                      PROB30 TEMPO 2506/2515 8000 SHRA BKN015 BKN040=
201001250200 TAF LMML 250200Z 2503/2512 12012KT 9999 SCT030 SCT050
                      PROB30 TEMPO 2506/2512 8000 SHRA=
201001242300 TAF LMML 242300Z 2500/2509 12010KT 9999 SCT030 SCT050=
201001242000 TAF LMML 242000Z 2421/2506 12009KT 9999 SCT030 SCT050=
201001241700 TAF LMML 241700Z 2418/2503 15008KT 9999 SCT045=
201001241400 TAF LMML 241400Z 2415/2424 15008KT 9999 SCT040
                      PROB30 TEMPO 2421/2424 9000 SHRA=
201001241100 TAF LMML 241100Z 2412/2421 12007KT 9999 SCT040=
201001240800 TAF LMML 240800Z 2409/2418 12005KT 9999 SCT040=
201001240500 TAF LMML 240500Z 2406/2415 12005KT 9999 BKN040=
201001240200 TAF LMML 240200Z 2403/2412 12005KT 9999 BKN040=
201001232300 TAF LMML 232300Z 2400/2409 10005KT 9999 BKN032=
201001232000 TAF LMML 232000Z 2321/2406 10005KT 9999 SCT025=
201001231700 TAF LMML 231700Z 2318/2403 07007KT 9999 SCT025=
201001231400 TAF LMML 231400Z 2315/2324 04008KT 9999 SCT035=
201001231100 TAF LMML 231100Z 2312/2321 35011KT 9999 FEW030
                      BECMG 2312/2315 05008KT=
201001230800 TAF LMML 230800Z 2309/2318 31011KT 9999 SCT030
                      BECMG 2312/2315 04008KT=
201001230500 TAF LMML 230500Z 2306/2315 32010KT 9999 FEW025 SCT060
                      BECMG 2312/2315 02008KT=
201001230200 TAF LMML 230200Z 2303/2312 27008KT 9999 SCT030 BKN060
                      PROB30 TEMPO 2303/2309 8000 SHRA
                      BECMG 2306/2309 33012KT=
201001222300 TAF LMML 222300Z 2300/2309 27008KT 9999 SCT030 BKN060
                      TEMPO 2300/2309 8000 SHRA
                      BECMG 2306/2309 33012KT=
201001222000 TAF LMML 222000Z 2221/2306 29005KT 9999 SCT030 BKN060
                      TEMPO 2221/2306 8000 SHRA=
201001221700 TAF LMML 221700Z 2218/2303 32008KT 9999 FEW025
                      TEMPO 2221/2303 8000 SHRA BKN015=
201001221400 TAF LMML 221400Z 2215/2224 32013KT 9999 SCT025=
201001221100 TAF LMML 221100Z 2212/2221 32013KT 9999 FEW030=
201001220800 TAF LMML 220800Z 2209/2218 33013KT 9999 FEW040=
201001220500 TAF LMML 220500Z 2206/2215 33013KT 9999 FEW025=
201001220200 TAF LMML 220200Z 2203/2212 32016KT 9999 FEW025=
201001212300 TAF LMML 212300Z 2200/2209 32017KT 9999 FEW025=
201001212000 TAF LMML 212000Z 2121/2206 31020KT 9999 SCT025
                      BECMG 2124/2203 32010KT=
201001211700 TAF LMML 211700Z 2118/2203 30025KT 9999 SCT025
                      BECMG 2121/2200 31015KT=
201001211400 TAF LMML 211400Z 2115/2124 30025G35KT 9999 SCT025
                      PROB30 TEMPO 2115/2124 SHRA
                      BECMG 2121/2124 33015KT=
201001211100 TAF LMML 211100Z 2112/2121 30020G30KT 9999 SCT020
                      PROB30 TEMPO 2112/2121 30025G35KT SHRA BKN018=
201001210800 TAF LMML 210800Z 2109/2118 30020G30KT 9999 SCT025
                      TEMPO 2109/2118 30025G35KT 8000 SHRA BKN018=
201001210500 TAF LMML 210500Z 2106/2115 30017G27KT 9999 FEW018 BKN035
                      TEMPO 2106/2115 8000 SHRA BKN015TCU
                      PROB30 TEMPO 2106/2115 5000 TSRA BKN013CB=
201001210200 TAF LMML 210200Z 2103/2112 28015KT 9999 SCT016 BKN040
                      BECMG 2103/2106 30017G27KT
                      TEMPO 2103/2112 6000 RA BKN008 OVC025
                      PROB30 TEMPO 2103/2112 4000 TSRA BKN013CB=
201001202300 TAF LMML 202300Z 2100/2109 26015KT 9999 SCT015 BKN040
                      TEMPO 2100/2109 6000 RA BKN005 OVC025
                      PROB30 TEMPO 2100/2109 4000 TSRA BKN013CB
                       BECMG 2103/2106 29017G27KT=
201001202000 TAF LMML 202000Z 2021/2106 23008KT 9999 SCT020 BKN050
                      TEMPO 2021/2106 8000 RA BKN015 OVC035
                      PROB30 TEMPO 2021/2106 5000 TSRA BKN009 BKN013CB
                       BECMG 2100/2103 29015KT=
201001201700 TAF LMML 201700Z 2018/2103 25010KT 9999 SCT025 SCT050
                      TEMPO 2021/2103 8000 RA BKN015
                      PROB30 TEMPO 2022/2103 5000 TSRA BNK015CB=
201001201400 TAF LMML 201400Z 2015/2024 25005KT 9999 SCT025
                      PROB40 TEMPO 2018/2024 8000 RA BKN015=
201001201100 TAF LMML 201100Z 2012/2021 25005KT 9999 FEW020
                      PROB30 TEMPO 2018/2021 9000 RA BKN015=
201001200800 TAF LMML 200800Z 2009/2018 27005KT 9999 FEW020=
201001200500 TAF LMML 200500Z 2006/2015 29005KT 9999 SCT030 BKN120=
201001200200 TAF LMML 200200Z 2003/2012 VRB04KT CAVOK
                      TEMPO 2009/2012 9999 FEW025=
201001192300 TAF LMML 192300Z 2000/2009 VRB03KT CAVOK=
201001192000 TAF LMML 192000Z 1921/2006 VRB03KT 9999 FEW025
                      PROB30 TEMPO 1921/2006 CAVOK=
201001191700 TAF LMML 191700Z 1918/2003 VRB03KT 9999 FEW025=
201001191400 TAF LMML 191400Z 1915/1924 36005KT 9999 FEW025=
201001191100 TAF LMML 191100Z 1921/1921 36005KT 9999 FEW025=
201001190800 TAF LMML 190800Z 1909/1918 35005KT 9999 FEW025=
201001190500 TAF LMML 190500Z 1906/1915 35005KT 9999 SCT030=
201001190200 TAF LMML 190200Z 1903/1912 30006KT 9999 FEW025=
201001182300 TAF LMML 182300Z 1900/1909 30004KT 9999 FEW025
                      PROB30 TEMPO 1900/1904 8000 RA BKN015=
201001182000 TAF LMML 182000Z 1821/1906 VRB03KT 9999 FEW018 SCT040
                      PROB30 TEMPO 1821/1904 8000 RA=
201001181700 TAF LMML 181700Z 1818/1903 04005KT 9999 FEW020 BKN040
                      PROB30 TEMPO 1818/1903 9000 RA=
201001181400 TAF LMML 181400Z 1815/1824 34006KT 9999 SCT020
                      PROB30 TEMPO 1818/1824 8000 SHRA BKN015=
201001181100 TAF LMML 181100Z 1812/1821 27008KT 9999 SCT020 BKN040
                      TEMPO 1812/1821 8000 SHRA BKN015=
201001180800 TAF LMML 180800Z 1809/1818 30008KT 9999 SCT015 BKN040 BKN100
                      TEMPO 1809/1815 8000 RA SCT007 BKN015 BKN040=
201001180500 TAF LMML 180500Z 1806/1815 31006KT 9999 SCT025 BKN060=
201001180200 TAF LMML 180200Z 1803/1812 30006KT 9999 SCT025 BKN050
                      PROB40 TEMPO 1800/1809 8000 RA BKN015=
201001172300 TAF LMML 172300Z 1800/1809 28006KT 9999 SCT025 BKN050
                      PROB40 TEMPO 1800/1809 8000 RA BKN015=
201001172000 TAF LMML 172000Z 1721/1806 28006KT 9999 FEW020=
201001171700 TAF LMML 171700Z 1718/1803 VRB03KT 9999 FEW025
                      PROB30 TEMPO 1721/1803 8000 RA SCT025 BKN070=
201001171400 TAF LMML 171400Z 1715/1724 28007KT 9999 SCT025=
201001171100 TAF LMML 171100Z 1712/1721 30010KT 9999 SCT030=
201001170800 TAF LMML 170800Z 1709/1718 32006KT 9999 FEW035=
201001170500 TAF LMML 170500Z 1706/1715 34007KT 9999 SCT025=
201001170200 TAF LMML 170200Z 1703/1712 01010KT 9999 FEW025 SCT050
                      BECMG 1706/1709 31008KT=
201001162300 TAF LMML 162300Z 1700/1709 01010KT 9999 SCT020
                      BECMG 1706/1709 31008KT=
201001162000 TAF LMML 162000Z 1621/1706 01011KT 9999 SCT025 SCT060
                      PROB30 TEMPO 1621/1703 8000 SHRA BKN015 BKN050=
201001161700 TAF LMML 161700Z 1618/1703 02015KT 9999 BKN025=
201001161400 TAF LMML 161400Z 1615/1624 02020G30KT 9999 BKN012
                      PROB30 TEMPO 1615/1621 8000 RA BKN007
                      BECMG 1618/1621 02017KT SCT017=
201001161100 TAF LMML 161100Z 1612/1621 02020G30KT 9999 BKN012
                      PROB40 TEMPO 1609/1621 8000 RA BKN007=
201001160800 TAF LMML 160800Z 1609/1618 02018KT 9999 SCT015
                      TEMPO 1609/1618 5000 RA BKN011
                      PROB30 TEMPO 1609/1615 BKN007=
201001160500 TAF LMML 160500Z 1606/1615 02015KT 9999 SCT015 BKN110
                      TEMPO 1606/1615 7000 SHRA BKN008 BKN013TCU
                       PROB30
                      TEMPO 1606/1615 5000 TSRA BKN011CB=
201001160200 TAF LMML 160200Z 1603/1612 03014KT 9999 SCT020
                      TEMPO 1603/1612 7000 SHRA BKN015TCU
                      PROB30 TEMPO 1603/1612 4000 TSRA BKN013CB=
201001152300 TAF LMML 152300Z 1600/1609 VRB05KT 9999 SCT020
                      TEMPO 1600/1609 7000 RA BKN015
                      PROB30 TEMPO 1600/1609 4000 TSRA BKN015CB
                       BECMG 1603/1606 02012KT=
201001152000 TAF LMML 152000Z 1521/1606 VRB05KT 9999 SCT020
                      TEMPO 1521/1606 8000 SHRA BKN015
                      PROB30 TEMPO 1521/1606 5000 TSRA BKN015CB
                       BECMG 1601/1604 02010KT=
201001151700 TAF LMML 151700Z 1518/1603 27014KT 9999 SCT020
                      TEMPO 1518/1603 8000 SHRA BKN015
                      PROB30 TEMPO 1518/1603 3000 TSRA BKN015CB
                       BECMG 1600/1603 02013KT=
201001151400 TAF LMML 151400Z 1515/1524 28015KT 9999 SCT020 SCT050
                      TEMPO 1515/1524 8000 SHRA BKN015 BKN040
                      PROB30 TEMPO 1515/1524 30018G28KT 3000 TSRA
                       BKN015CB BKN040
                      BECMG 1521/1524 34010KT=
201001151100 TAF LMML 151100Z 1512/1521 27015KT 9999 SCT015 SCT050
                      TEMPO 1512/1521 28018G28KT 8000 SHRA BKN015
                       BKN040
                      PROB30 TEMPO 1512/1521 3000 TSRA BKN015CB
                       BKN040=
201001150800 TAF LMML 150800Z 1509/1518 19014KT 9999 FEW008 SCT015 BKN050
                      TEMPO 1509/1512 7000 RA SCT007 BKN012 BKN040
                       PROB30
                      TEMPO 1509/1518 3000 TSRA BKN006 BKN015CB
                       BKN030
                      BECMG 1509/1512 26018KT
                      TEMPO 1511/1518 27020G30KT=
201001150500 TAF LMML 150500Z 1506/1515 16015KT 7000 RA FEW007 BKN015
                      TEMPO 1506/1515 5000 RA BKN005
                      PROB30 TEMPO 1506/1512 4000 TSRA BKN015CB
                       BECMG 1508/1511 27018KT
                      BECMG 1510/1514 9999 SCT018=
201001150200 TAF LMML 150200Z 1503/1512 16015KT 9999 SCT025
                      TEMPO 1503/1512 7000 SHRA BKN015
                      PROB40 TEMPO 1503/1512 5000 TSRA BKN015CB
                       BECMG 1508/1511 27018KT=
201001142300 TAF LMML 142300Z 1500/1509 16013KT 9999 SCT020
                      TEMPO 1502/1509 7000 SHRA BKN015
                      PROB40 TEMPO 1503/1509 5000 TSRA BKN015CB=
201001142000 TAF LMML 142000Z 1421/1506 16010KT 9999 FEW020
                      TEMPO 1502/1506 7000 SHRA BKN015
                      PROB40 TEMPO 1503/1506 5000 TSRA BKN015CB=
201001141700 TAF LMML 141700Z 1418/1503 24005KT 9999 SCT015
                      BECMG 1420/1423 18010KT
                      PROB40 TEMPO 1500/1503 7000 RA BKN010=
201001141400 TAF LMML 141400Z 1415/1424 24005KT 9999 SCT020
                      BECMG 1420/1423 18010KT
                      PROB40 TEMPO 1421/1424 7000 RA=
201001141100 TAF LMML 141100Z 1412/1421 27005KT 9999 SCT025
                      BECMG 1418/1421 18010KT=
201001140800 TAF LMML 140800Z 1409/1418 32010KT 9999 FEW025
                      BECMG 1411/1414 25005KT=
201001140500 TAF LMML 140500Z 1406/1415 31010KT 9999 FEW025
                      BECMG 1412/1415 24006KT=
201001140200 TAF LMML 140200Z 1403/1412 30020KT 9999 SCT025
                      BECMG 1407/1411 31010KT=
201001132300 TAF LMML 132300Z 1400/1409 27025G38KT 9999 SCT025
                      PROB40 TEMPO 1400/1404 6000 SHRA BKN015TCU
                       BECMG 1401/1404 30020KT=
201001132000 TAF LMML 132000Z 1321/1406 29025G38KT 9999 SCT025
                      PROB40 TEMPO 1321/1406 6000 SHRA BKN015TCU=
201001131700 TAF LMML 131700Z 1318/1403 27025G35KT 9999 SCT020 BKN050
                      TEMPO 1318/1403 7000 SHRA BKN015TCU OVC050
                       PROB40
                      TEMPO 1318/1403 29033G43KT 4000 TSRAGS BKN013CB
                       BECMG 1400/1403 31021KT=
201001131400 TAF LMML 131400Z 1315/1324 27023G33KT 9999 SCT020 BKN050
                      TEMPO 1315/1324 7000 SHRA BKN015 OVC050
                      PROB30 TEMPO 1315/1324 28033G43KT 5000 TSRAGS
                       BKN013CB=
201001131100 TAF LMML 131100Z 1312/1321 26023G33KT 9999 SCT020 BKN050
                      TEMPO 1312/1321 7000 RA BKN015 OVC050
                      PROB30 TEMPO 1314/1321 5000 TSRAGS BKN015CB
                       PROB40
                      TEMPO 1315/1321 28033G43KT=
201001130800 TAF LMML 130800Z 1309/1318 24018KT 9999 SCT025 BKN050
                      TEMPO 1309/1318 8000 RA BKN015
                      BECMG 1310/1313 27023G33KT
                      PROB30 TEMPO 1314/1318 5000 TSRA BKN015CB=
201001130500 TAF LMML 130500Z 1306/1315 24010KT 9999 SCT025 BKN060 BKN100
                      BECMG 1309/1312 28020G30KT
                      TEMPO 1309/1315 8000 RA=
201001130200 TAF LMML 130200Z 1303/1312 24005KT 9999 FEW025 BKN050 OVC200
                      BECMG 1306/1309 21015KT
                      BECMG 1309/1312 21025KT
                      TEMPO 1303/1312 8000 RA=
201001122300 TAF LMML 122300Z 1300/1309 27005KT 9999 SCT030 BKN050
                      BECMG 1306/1309 21015KT=
201001122000 TAF LMML 122000Z 1221/1306 31010KT 9999 SCT030
                      TEMPO 1221/1306 8000 RA
                      BECMG 1303/1306 23012KT=
201001121700 TAF LMML 121700Z 1218/1303 30014KT 9999 SCT025=
201001121400 TAF LMML 121400Z 1215/1224 30015KT 9999 SCT025=
201001121100 TAF LMML 121100Z 1212/1221 30017KT 9999 SCT025
                      TEMPO 1212/1215 6000 SHRA=
201001120800 TAF LMML 120800Z 1209/1218 29017KT 9999 SCT025
                      TEMPO 8000 SHRA BKN015TCU=
201001120500 TAF LMML 120500Z 1206/1215 27006KT 9999 FEW030
                      BECMG 1206/1209 31016KT
                      TEMPO 1206/1215 8000 SHRA BKN020TCU
                      PROB30 TEMPO 1206/1215 4000 TSRA BKN015CB=
201001120200 TAF LMML 120200Z 1203/1212 27006KT 9999 FEW025
                      TEMPO 1203/1212 8000 RA BKN015
                      PROB30 TEMPO 1203/1212 4000 TSRA BKN015CB
                       BECMG 1205/1208 30016KT=
201001112300 TAF LMML 112300Z 1200/1209 27006KT 9999 FEW025
                      PROB40 TEMPO 1201/1209 8000 SHRA SCT015TCU
                       PROB30
                      TEMPO 1203/1209 5000 TSRA BKN015CB
                      BECMG 1205/1208 30016KT=
201001112000 TAF LMML 112000Z 1121/1206 26010KT 9999 FEW030
                      PROB40 TEMPO 1201/1206 8000 SHRA SCT015TCU
                       PROB30
                      TEMPO 1203/1206 5000 TSRA BKN015CB=
201001111700 TAF LMML 111700Z 1118/1203 25009KT 9999 FEW030 SCT060
                      TEMPO 1200/1203 8000 SHRA BKN015=
201001111400 TAF LMML 111400Z 1115/1124 24012KT 9999 SCT030
                      PROB30 TEMPO 1121/1124 8000 SHRA BKN015=
201001111100 TAF LMML 111100Z 1112/1121 22013KT 9999 SCT035 BKN060
                      TEMPO 1112/1118 23014G24KT=
201001110800 TAF LMML 110800Z 1109/1118 22013KT 9999 SCT035 BKN050
                      TEMPO 1112/1118 23014G24KT=
201001110500 TAF LMML 110500Z 1106/1115 23008KT 9999 SCT035
                      TEMPO 1110/1115 24018KT=
201001110200 TAF LMML 110200Z 1103/1112 22006KT 9999 FEW035=
201001102300 TAF LMML 102300Z 1100/1109 25006KT 9999 SCT035=
201001102000 TAF LMML 102000Z 1021/1006 25008KT 9999 SCT035=
201001101700 TAF LMML 101700Z 1018/1103 29015KT 9999 SCT032
                      BECMG 1100/1103 23006KT=
201001101400 TAF LMML 101400Z 1015/1024 27016KT 9999 SCT035=
201001101100 TAF LMML 101100Z 1012/1021 27018G28KT 9999 FEW040
                      PROB30 TEMPO 1012/1021 CAVOK
                      BECMG 1014/1017 27016KT=
201001100800 TAF LMML 100800Z 1009/1018 27020G30KT 9999 FEW035
                      PROB30 TEMPO 1009/1015 9000 SHRA
                      BECMG 1014/1017 27016KT=
201001100500 TAF LMML 100500Z 1006/1015 27018G28KT CAVOK
                      TEMPO 1006/1015 SCT045=
201001100200 TAF LMML 100200Z 1003/1012 25018G28KT 9999 FEW045=
201001092300 TAF LMML 092300Z 1000/1009 24015G25KT 9999 FEW047=
201001092000 TAF LMML 092000Z 0921/1006 24018G28KT 9999 FEW040=
201001091700 TAF LMML 091700Z 0918/1003 23015G25KT 9999 SCT035
                      PROB30 TEMPO 0918/1003 SHRA=
201001091400 TAF LMML 091400Z 0915/0924 24015KT 9999 SCT035
                      TEMPO 0915/0918 24025KT=
201001091100 TAF LMML 091100Z 0912/0921 24020KT 9999 SCT040
                      PROB30 TEMPO 0912/0918 24030KT=
201001090800 TAF LMML 090800Z 0909/0918 24020KT 9999 FEW035
                      PROB40 TEMPO 0910/0915 24030G40KT=
201001090500 TAF LMML 090500Z 0906/0915 24018KT 9999 SCT030 SCT100
                      BECMG 0906/0909 24025G35KT=
201001090200 TAF LMML 090200Z 0903/0912 24018KT 9999 SCT035
                      BECMG 0907/0910 24022G35KT=
201001082300 TAF LMML 082300Z 0900/0909 21015KT 9999 FEW020 SCT100
                      TEMPO 0900/0909 7000 SHRA BKN015
                      BECMG 0903/0906 23020G30KT=
201001082000 TAF LMML 082000Z 0821/0906 18012KT 9999 FEW015
                      PROB30 TEMPO 0821/0906 8000 SHRA BKN015
                      BECMG 0900/0903 19015G25KT=
201001081700 TAF LMML 081700Z 0818/0903 19007KT CAVOK
                      TEMPO 0818/0903 8000 DU
                      BECMG 0823/0902 23017G27KT=
201001081400 TAF LMML 081400Z 0815/0824 22016KT CAVOK=
201001081100 TAF LMML 081100Z 0812/0821 21013KT CAVOK=
201001080800 TAF LMML 080800Z 0809/0818 19013KT CAVOK=
201001080500 TAF LMML 080500Z 0806/0815 17014KT CAVOK
                      BECMG 0807/0810 23017KT=
201001080200 TAF LMML 080200Z 0803/0812 18012KT CAVOK
                      BECMG 0807/0810 24016KT=
201001072300 TAF LMML 072300Z 0800/0809 17012KT CAVOK
                      BECMG 0806/0809 23015KT=
201001072000 TAF LMML 072000Z 0721/0806 17010KT CAVOK
                      PROB30 TEMPO 0718/0806 9000 FEW003=
201001071735 TAF LMML 071735Z 0718/0803 11007KT CAVOK
                      PROB30 TEMPO 0718/0803 5000 BKN003=
201001071700 TAF LMML 071700Z 0718/0803 11010KT CAVOK
                      PROB30 TEMPO 0722/0803 8000 FEW003=
201001071400 TAF LMML 071400Z 0715/0724 11010KT CAVOK
                      BECMG 0718/0721 9999 SCT005=
201001071100 TAF LMML 071100Z 0712/0721 12009KT CAVOK=
201001070800 TAF LMML 070800Z 0709/0718 15008KT CAVOK=
201001070500 TAF LMML 070500Z 0706/0715 15008KT CAVOK=
201001070200 TAF LMML 070200Z 0703/0712 15005KT CAVOK
                      PROB30 TEMPO 0703/0707 5000 BR NSC=
201001062347 TAF LMML 062347Z 0700/0709 VRB03KT 0800 BCFG NSC
                      BECMG 0707/0709 CAVOK=
201001062300 TAF LMML 062300Z 0700/0709 VRB03KT CAVOK
                      PROB40 TEMPO 0703/0706 7000 NSC=
201001062000 TAF LMML 062000Z 0621/0706 VRB03KT CAVOK
                      PROB40 TEMPO 0703/0706 7000 NSC=
201001061700 TAF LMML 061700Z 0618/0703 24005KT CAVOK
                      PROB30 TEMPO 0620/0703 9000 NSC=
201001061400 TAF LMML 061400Z 0615/0624 24008KT CAVOK
                      TEMPO 0615/0624 9999 FEW018=
201001061100 TAF LMML 061100Z 0612/0621 26010KT CAVOK=
201001060800 TAF LMML 060800Z 0609/0618 25012KT CAVOK=
201001060500 TAF LMML 060500Z 0606/0615 24012KT CAVOK=
201001060200 TAF LMML 060200Z 0603/0612 22012KT CAVOK=
201001052300 TAF LMML 052300Z 0600/0609 22012KT CAVOK=
201001052000 TAF LMML 052000Z 0521/0606 20012KT CAVOK=
201001051700 TAF LMML 051700Z 0518/0603 21008KT CAVOK=
201001051400 TAF LMML 051400Z 0515/0524 20010KT CAVOK=
201001051100 TAF LMML 051100Z 0512/0521 20013KT CAVOK
                      PROB30 TEMPO 0512/0521 FEW015=
201001050800 TAF LMML 050800Z 0509/0518 20013KT CAVOK
                      TEMPO 0509/0518 FEW015=
201001050500 TAF LMML 050500Z 0506/0515 19013KT CAVOK
                      PROB30 TEMPO 0506/0515 9999 FEW015=
201001050200 TAF LMML 050200Z 0503/0512 19011KT CAVOK=
201001042300 TAF LMML 042300Z 0500/0509 20013KT CAVOK=
201001042000 TAF LMML 042000Z 0421/0506 20010KT CAVOK=
201001041700 TAF LMML 041700Z 0118/0503 21012KT CAVOK=
201001041400 TAF LMML 041400Z 0415/0424 21012KT 9999 FEW018=
201001041100 TAF LMML 041100Z 0412/0421 20010KT 9999 FEW018=
201001040800 TAF LMML 040800Z 0409/0418 18010KT 9999 SCT018=
201001040500 TAF LMML 040500Z 0406/0415 17005KT 9999 FEW020 SCT250
                      BECMG 0409/0412 20015KT=
201001040200 TAF LMML 040200Z 0403/0412 VRB03KT 9999 FEW018
                      PROB30 TEMPO 0403/0409 BKN015
                      BECMG 0405/0408 18010KT=
201001032300 TAF LMML 032300Z 0400/0409 VRB04KT CAVOK
                      TEMPO 0400/0409 9999 FEW020
                      BECMG 0405/0408 18010KT=
201001032000 TAF LMML 032000Z 0321/0406 VRB04KT CAVOK
                      TEMPO 0321/0406 9999 FEW020=
201001031700 TAF LMML 031700Z 0318/0403 29010KT 9999 FEW025
                      TEMPO 0318/0403 CAVOK
                      BECMG 0400/0403 23005KT=
201001031400 TAF LMML 031400Z 0315/0324 29015KT 9999 SCT030
                      TEMPO 0317/0322 CAVOK
                      BECMG 0318/0321 28005KT=
201001031100 TAF LMML 031100Z 0312/0321 29018KT 9999 SCT030
                      PROB30 TEMPO 0312/0315 28020G30KT
                      BECMG 0318/0321 27008KT=
201001030800 TAF LMML 030800Z 0309/0318 29017KT 9999 SCT025
                      PROB30 TEMPO 0309/0312 28018G28KT=
201001030500 TAF LMML 030500Z 0306/0315 30015KT 9999 FEW025=
201001030200 TAF LMML 030200Z 0303/0312 30015KT 9999 SCT025=
201001022300 TAF LMML 022300Z 0300/0309 29014KT 9999 SCT025=
201001022000 TAF LMML 022000Z 0221/0306 29012KT 9999 FEW025=
201001021700 TAF LMML 021700Z 0218/0303 29018KT 9999 FEW025
                      PROB30 TEMPO 0218/0303 29016G26KT=
201001021400 TAF LMML 021400Z 0215/0224 28020G30KT 9999 FEW030
                      BECMG 0216/0219 29020KT=
201001021100 TAF LMML 021100Z 0212/0221 28025G35KT 9999 FEW025
                      BECMG 0216/0219 29020KT=
201001020800 TAF LMML 020800Z 0209/0218 28020G30KT 9999 FEW030=
201001020500 TAF LMML 020500Z 0206/0215 29020G32KT 9999 FEW040=
201001020200 TAF LMML 020200Z 0203/0212 29023G35KT 9999 FEW040=
201001012300 TAF LMML 012300Z 0200/0209 29023G35KT CAVOK
                      PROB40 TEMPO 0200/0209 9999 FEW040=
201001012000 TAF LMML 012000Z 0121/0206 28023G35KT 9999 FEW030=
201001011700 TAF LMML 011700Z 0118/0203 28008KT CAVOK
                      TEMPO 0122/0203 29018G28KT=
201001011400 TAF LMML 011400Z 0115/0124 28016KT 9999 FEW025
                      PROB30 TEMPO 0121/0124 SHRA=
201001011100 TAF LMML 011100Z 0112/0121 24018KT CAVOK
                      PROB30 TEMPO 0115/0121 FEW030=
201001010800 TAF LMML 010800Z 0109/0118 27015KT CAVOK
                      PROB30 TEMPO 0112/0118 FEW030=
201001010500 TAF LMML 010500Z 0106/0115 25007KT CAVOK
                      PROB30 TEMPO 0106/0115 9999 FEW015
                      BECMG 0109/0112 26017KT=
201001010200 TAF LMML 010200Z 0103/0112 28016KT CAVOK
                      PROB30 TEMPO 0103/0109 9999 FEW015=

###################################
#  large TAF from LMML
###################################
201001312300 TAF LMML NIL=
201001311700 TAF LMML NIL=
201001311100 TAF LMML NIL=
201001310500 TAF LMML NIL=
201001302300 TAF LMML NIL=
201001301700 TAF LMML NIL=
201001301100 TAF LMML NIL=
201001300500 TAF LMML NIL=
201001292300 TAF LMML NIL=
201001291700 TAF LMML NIL=
201001291100 TAF LMML NIL=
201001290500 TAF LMML NIL=
201001282300 TAF LMML NIL=
201001281700 TAF LMML NIL=
201001281100 TAF LMML NIL=
201001280500 TAF LMML NIL=
201001272300 TAF LMML NIL=
201001271700 TAF LMML NIL=
201001271100 TAF LMML NIL=
201001270500 TAF LMML NIL=
201001262300 TAF LMML NIL=
201001261700 TAF LMML NIL=
201001261100 TAF LMML NIL=
201001260500 TAF LMML NIL=
201001252300 TAF LMML NIL=
201001251700 TAF LMML NIL=
201001251100 TAF LMML NIL=
201001250500 TAF LMML NIL=
201001242300 TAF LMML NIL=
201001241700 TAF LMML NIL=
201001241100 TAF LMML NIL=
201001240500 TAF LMML NIL=
201001232300 TAF LMML NIL=
201001231700 TAF LMML NIL=
201001231100 TAF LMML NIL=
201001230500 TAF LMML NIL=
201001222300 TAF LMML NIL=
201001221700 TAF LMML NIL=
201001221100 TAF LMML NIL=
201001220500 TAF LMML NIL=
201001212300 TAF LMML NIL=
201001211700 TAF LMML NIL=
201001211100 TAF LMML NIL=
201001210500 TAF LMML NIL=
201001202300 TAF LMML NIL=
201001201700 TAF LMML NIL=
201001201100 TAF LMML NIL=
201001200500 TAF LMML NIL=
201001192300 TAF LMML NIL=
201001191700 TAF LMML NIL=
201001191100 TAF LMML NIL=
201001190500 TAF LMML NIL=
201001182300 TAF LMML NIL=
201001181700 TAF LMML NIL=
201001181100 TAF LMML NIL=
201001180500 TAF LMML NIL=
201001172300 TAF LMML NIL=
201001171700 TAF LMML NIL=
201001171100 TAF LMML NIL=
201001170500 TAF LMML NIL=
201001162300 TAF LMML NIL=
201001161700 TAF LMML NIL=
201001161100 TAF LMML NIL=
201001160500 TAF LMML NIL=
201001152300 TAF LMML NIL=
201001151700 TAF LMML NIL=
201001151100 TAF LMML NIL=
201001150500 TAF LMML NIL=
201001142300 TAF LMML NIL=
201001141700 TAF LMML NIL=
201001141100 TAF LMML NIL=
201001140500 TAF LMML NIL=
201001132300 TAF LMML NIL=
201001131700 TAF LMML NIL=
201001131100 TAF LMML NIL=
201001130500 TAF LMML NIL=
201001122300 TAF LMML NIL=
201001121700 TAF LMML NIL=
201001121100 TAF LMML NIL=
201001120500 TAF LMML NIL=
201001112300 TAF LMML NIL=
201001111700 TAF LMML NIL=
201001111100 TAF LMML NIL=
201001110500 TAF LMML NIL=
201001102300 TAF LMML NIL=
201001101700 TAF LMML NIL=
201001101100 TAF LMML NIL=
201001100500 TAF LMML NIL=
201001092300 TAF LMML NIL=
201001091700 TAF LMML NIL=
201001091100 TAF LMML NIL=
201001090500 TAF LMML NIL=
201001082300 TAF LMML NIL=
201001081700 TAF LMML NIL=
201001081100 TAF LMML NIL=
201001080500 TAF LMML NIL=
201001072300 TAF LMML NIL=
201001071700 TAF LMML NIL=
201001071100 TAF LMML NIL=
201001070500 TAF LMML NIL=
201001062300 TAF LMML NIL=
201001061700 TAF LMML NIL=
201001061100 TAF LMML NIL=
201001060500 TAF LMML NIL=
201001052300 TAF LMML NIL=
201001051700 TAF LMML NIL=
201001051100 TAF LMML NIL=
201001050500 TAF LMML NIL=
201001042300 TAF LMML NIL=
201001041700 TAF LMML NIL=
201001041100 TAF LMML NIL=
201001040500 TAF LMML NIL=
201001032300 TAF LMML NIL=
201001031100 TAF LMML NIL=
201001022300 TAF LMML NIL=
201001021700 TAF LMML NIL=
201001021100 TAF LMML NIL=
201001020500 TAF LMML NIL=
201001012300 TAF LMML NIL=
201001011700 TAF LMML NIL=
201001011100 TAF LMML NIL=
