##########################################################
# Query made at 01/18/2013 15:38:31 UTC
# Time interval: from 07/01/2011 00:00  to 07/31/2011 23:59  UTC
##########################################################

##########################################################
# LMML, Luqa (Malta)
# WMO index: 16597
# Latitude 35-51N. Longitude 014-29E. Altitude 91 m.
##########################################################

###################################
#  METAR/SPECI from LMML
###################################
201107312345 METAR LMML 312345Z 32008KT CAVOK 22/17 Q1012 NOSIG=
201107312330 METAR LMML NIL=
201107312315 METAR LMML 312315Z 31008KT CAVOK 22/17 Q1012 NOSIG=
201107312300 METAR LMML NIL=
201107312245 METAR LMML 312245Z 29006KT 260V340 CAVOK 22/17 Q1012 NOSIG=
201107312230 METAR LMML NIL=
201107312215 METAR LMML 312215Z 31005KT CAVOK 22/17 Q1012 NOSIG=
201107312200 METAR LMML NIL=
201107312145 METAR LMML 312145Z 29004KT 250V320 CAVOK 23/17 Q1012 NOSIG=
201107312130 METAR LMML NIL=
201107312115 METAR LMML 312115Z 31004KT CAVOK 22/17 Q1012 NOSIG=
201107312100 METAR LMML NIL=
201107312045 METAR LMML 312045Z 29004KT 250V310 CAVOK 23/17 Q1012 NOSIG=
201107312030 METAR LMML NIL=
201107312015 METAR LMML 312015Z 30003KT CAVOK 23/17 Q1012 NOSIG=
201107312000 METAR LMML NIL=
201107311945 METAR LMML 311945Z 30005KT 9999 FEW020 23/17 Q1012 NOSIG=
201107311930 METAR LMML NIL=
201107311915 METAR LMML 311915Z 31004KT 270V340 9999 FEW020 23/18 Q1012
                        NOSIG=
201107311900 METAR LMML NIL=
201107311845 METAR LMML 311845Z 28005KT 240V320 9999 FEW020 24/18 Q1012
                        NOSIG=
201107311830 METAR LMML NIL=
201107311815 METAR LMML 311815Z 30006KT 9999 FEW020 24/18 Q1011 NOSIG=
201107311800 METAR LMML NIL=
201107311745 METAR LMML 311745Z 30008KT 9999 FEW020 25/19 Q1011 NOSIG=
201107311730 METAR LMML NIL=
201107311715 METAR LMML 311715Z 30009KT CAVOK 26/19 Q1011 NOSIG=
201107311700 METAR LMML NIL=
201107311645 METAR LMML 311645Z 30008KT 250V330 CAVOK 27/18 Q1011 NOSIG=
201107311630 METAR LMML NIL=
201107311615 METAR LMML 311615Z 32007KT 280V010 CAVOK 28/17 Q1011 NOSIG=
201107311545 METAR LMML 311545Z 31009KT CAVOK 27/17 Q1011 NOSIG=
201107311530 METAR LMML NIL=
201107311515 METAR LMML 311515Z 30009KT 270V330 CAVOK 28/16 Q1011 NOSIG=
201107311500 METAR LMML NIL=
201107311445 METAR LMML 311445Z 33007KT 280V020 9999 FEW020 28/15 Q1012
                        NOSIG=
201107311430 METAR LMML NIL=
201107311415 METAR LMML 311415Z 31008KT 250V010 9999 FEW020 29/15 Q1012
                        NOSIG=
201107311400 METAR LMML NIL=
201107311345 METAR LMML 311345Z 30008KT 250V340 9999 FEW020 28/13 Q1012
                        NOSIG=
201107311330 METAR LMML NIL=
201107311315 METAR LMML 311315Z 30008KT 270V340 9999 FEW020 SCT120 29/13
                        Q1012 NOSIG=
201107311300 METAR LMML NIL=
201107311245 METAR LMML 311245Z 29008KT 250V320 9999 FEW020 SCT120 29/13
                        Q1012 NOSIG=
201107311230 METAR LMML NIL=
201107311215 METAR LMML 311215Z 30010KT 9999 FEW020 SCT120 29/15 Q1012
                        NOSIG=
201107311200 METAR LMML NIL=
201107311145 METAR LMML 311145Z 28007KT 210V320 9999 FEW020 SCT120 29/14
                        Q1013 NOSIG=
201107311130 METAR LMML NIL=
201107311115 METAR LMML 311115Z 29009KT 240V330 9999 FEW020 SCT120 29/14
                        Q1013 NOSIG=
201107311100 METAR LMML NIL=
201107311045 METAR LMML 311045Z 27007KT 230V310 9999 FEW020 SCT120 28/16
                        Q1013 NOSIG=
201107311030 METAR LMML NIL=
201107311015 METAR LMML 311015Z 30007KT 260V360 9999 FEW020 SCT110 28/15
                        Q1013 NOSIG=
201107311000 METAR LMML NIL=
201107310945 METAR LMML 310945Z 29006KT 190V350 9999 FEW020 28/16 Q1013
                        NOSIG=
201107310930 METAR LMML NIL=
201107310915 METAR LMML 310915Z 31008KT 280V350 9999 FEW020 28/15 Q1013
                        NOSIG=
201107310900 METAR LMML NIL=
201107310845 METAR LMML 310845Z 30007KT 240V350 9999 FEW020 28/14 Q1013
                        NOSIG=
201107310830 METAR LMML NIL=
201107310815 METAR LMML 310815Z 29007KT 240V340 9999 FEW020 27/16 Q1013
                        NOSIG=
201107310800 METAR LMML NIL=
201107310745 METAR LMML 310745Z 31009KT 270V340 9999 FEW020 26/18 Q1013
                        NOSIG=
201107310730 METAR LMML NIL=
201107310715 METAR LMML 310715Z 32010KT 280V340 9999 FEW020 26/17 Q1013
                        NOSIG=
201107310700 METAR LMML NIL=
201107310645 METAR LMML 310645Z 30006KT 250V330 9999 FEW020 25/17 Q1013
                        NOSIG=
201107310630 METAR LMML NIL=
201107310615 METAR LMML 310615Z 28006KT 240V320 9999 FEW020 24/18 Q1013
                        NOSIG=
201107310600 METAR LMML NIL=
201107310545 METAR LMML 310545Z 29003KT 9999 FEW018 23/18 Q1012 NOSIG=
201107310530 METAR LMML NIL=
201107310515 METAR LMML 310515Z 28003KT CAVOK 22/19 Q1012 NOSIG=
201107310500 METAR LMML NIL=
201107310445 METAR LMML 310445Z 27003KT CAVOK 21/18 Q1012 NOSIG=
201107310415 METAR LMML 310415Z VRB02KT CAVOK 21/18 Q1012 NOSIG=
201107310400 METAR LMML NIL=
201107310345 METAR LMML 310345Z VRB02KT 9999 FEW020 21/18 Q1012 NOSIG=
201107310330 METAR LMML NIL=
201107310315 METAR LMML 310315Z VRB01KT CAVOK 21/19 Q1012 NOSIG=
201107310300 METAR LMML NIL=
201107310245 METAR LMML 310245Z 28005KT CAVOK 21/19 Q1013 NOSIG=
201107310230 METAR LMML NIL=
201107310215 METAR LMML 310215Z 27004KT CAVOK 21/19 Q1012 NOSIG=
201107310200 METAR LMML NIL=
201107310145 METAR LMML 310145Z 27003KT CAVOK 21/18 Q1013 NOSIG=
201107310130 METAR LMML NIL=
201107310115 METAR LMML 310115Z VRB02KT CAVOK 21/19 Q1012 NOSIG=
201107310100 METAR LMML NIL=
201107310045 METAR LMML 310045Z VRB01KT CAVOK 22/19 Q1012 NOSIG=
201107310030 METAR LMML NIL=
201107310015 METAR LMML 310015Z 00000KT CAVOK 22/19 Q1012 NOSIG=
201107310000 METAR LMML NIL=
201107302345 METAR LMML 302345Z 30004KT CAVOK 22/19 Q1013 NOSIG=
201107302330 METAR LMML NIL=
201107302315 METAR LMML 302315Z 32006KT CAVOK 22/19 Q1013 NOSIG=
201107302300 METAR LMML NIL=
201107302245 METAR LMML 302245Z 33003KT CAVOK 22/19 Q1014 NOSIG=
201107302230 METAR LMML NIL=
201107302215 METAR LMML 302215Z VRB01KT CAVOK 23/19 Q1014 NOSIG=
201107302200 METAR LMML NIL=
201107302145 METAR LMML 302145Z VRB02KT CAVOK 23/19 Q1014 NOSIG=
201107302130 METAR LMML NIL=
201107302115 METAR LMML 302115Z 27004KT 240V310 CAVOK 23/18 Q1014 NOSIG=
201107302100 METAR LMML NIL=
201107302045 METAR LMML 302045Z 27003KT CAVOK 23/18 Q1014 NOSIG=
201107302030 METAR LMML NIL=
201107302015 METAR LMML 302015Z 28005KT 240V320 CAVOK 23/19 Q1014 NOSIG=
201107302000 METAR LMML NIL=
201107301945 METAR LMML 301945Z 28006KT 250V320 CAVOK 23/19 Q1013 NOSIG=
201107301930 METAR LMML NIL=
201107301915 METAR LMML 301915Z 27005KT 220V300 CAVOK 23/18 Q1013 NOSIG=
201107301900 METAR LMML NIL=
201107301845 METAR LMML 301845Z 29005KT CAVOK 24/17 Q1013 NOSIG=
201107301830 METAR LMML NIL=
201107301815 METAR LMML 301815Z 27006KT 240V300 CAVOK 24/16 Q1013 NOSIG=
201107301800 METAR LMML NIL=
201107301745 METAR LMML 301745Z 28005KT 240V300 CAVOK 25/16 Q1013 NOSIG=
201107301730 METAR LMML NIL=
201107301715 METAR LMML 301715Z 27005KT 210V310 CAVOK 26/16 Q1013 NOSIG=
201107301700 METAR LMML NIL=
201107301645 METAR LMML 301645Z 28006KT 190V320 CAVOK 27/15 Q1013 NOSIG=
201107301630 METAR LMML NIL=
201107301615 METAR LMML 301615Z 27006KT 210V320 CAVOK 27/15 Q1013 NOSIG=
201107301600 METAR LMML NIL=
201107301545 METAR LMML 301545Z 30006KT 240V330 CAVOK 28/14 Q1013 NOSIG=
201107301530 METAR LMML NIL=
201107301515 METAR LMML 301515Z 30006KT 260V360 CAVOK 28/13 Q1013 NOSIG=
201107301500 METAR LMML NIL=
201107301445 METAR LMML 301445Z 29008KT 260V330 CAVOK 28/13 Q1014 NOSIG=
201107301430 METAR LMML NIL=
201107301415 METAR LMML 301415Z 28010KT 250V320 CAVOK 29/12 Q1014 NOSIG=
201107301400 METAR LMML NIL=
201107301345 METAR LMML 301345Z 29008KT 240V330 CAVOK 29/12 Q1014 NOSIG=
201107301330 METAR LMML NIL=
201107301315 METAR LMML 301315Z 30008KT 260V340 CAVOK 29/11 Q1015 NOSIG=
201107301245 METAR LMML 301245Z 28008KT 220V330 CAVOK 29/11 Q1014 NOSIG=
201107301215 METAR LMML 301215Z 31008KT 270V350 CAVOK 29/11 Q1015 NOSIG=
201107301145 METAR LMML 301145Z 34006KT 300V030 CAVOK 29/14 Q1015 NOSIG=
201107301115 METAR LMML 301115Z 34008KT CAVOK 29/15 Q1015 NOSIG=
201107301045 METAR LMML 301045Z 35007KT 300V040 9999 FEW025 28/15 Q1015
                        NOSIG=
201107301030 METAR LMML NIL=
201107301015 METAR LMML 301015Z 35009KT 310V020 CAVOK 28/14 Q1015 NOSIG=
201107301000 METAR LMML NIL=
201107300945 METAR LMML 300945Z 33008KT 280V030 CAVOK 29/13 Q1015 NOSIG=
201107300930 METAR LMML NIL=
201107300915 METAR LMML 300915Z 35009KT 310V020 CAVOK 28/12 Q1015 NOSIG=
201107300900 METAR LMML NIL=
201107300845 METAR LMML 300845Z 34010KT CAVOK 28/11 Q1015 NOSIG=
201107300830 METAR LMML NIL=
201107300815 METAR LMML 300815Z 35010KT 300V020 CAVOK 27/12 Q1015 NOSIG=
201107300800 METAR LMML NIL=
201107300745 METAR LMML 300745Z 34008KT 300V010 CAVOK 27/13 Q1015 NOSIG=
201107300730 METAR LMML NIL=
201107300715 METAR LMML 300715Z 31009KT CAVOK 26/14 Q1014 NOSIG=
201107300700 METAR LMML NIL=
201107300645 METAR LMML 300645Z 32007KT CAVOK 25/15 Q1014 NOSIG=
201107300630 METAR LMML NIL=
201107300615 METAR LMML 300615Z 31005KT 280V340 CAVOK 24/16 Q1014 NOSIG=
201107300600 METAR LMML NIL=
201107300545 METAR LMML 300545Z 30005KT 280V340 CAVOK 23/17 Q1014 NOSIG=
201107300530 METAR LMML NIL=
201107300515 METAR LMML 300515Z 32004KT 290V350 CAVOK 22/17 Q1014 NOSIG=
201107300500 METAR LMML NIL=
201107300445 METAR LMML 300445Z 29003KT 9999 FEW020 21/17 Q1014 NOSIG=
201107300415 METAR LMML 300415Z 31004KT 9999 FEW020 20/17 Q1014 NOSIG=
201107300400 METAR LMML NIL=
201107300345 METAR LMML 300345Z 30003KT 9999 FEW020 20/17 Q1014 NOSIG=
201107300330 METAR LMML NIL=
201107300315 METAR LMML 300315Z 30004KT 9999 FEW016 21/17 Q1014 NOSIG=
201107300300 METAR LMML NIL=
201107300245 METAR LMML 300245Z 32005KT 9999 FEW016 21/18 Q1014 NOSIG=
201107300230 METAR LMML NIL=
201107300215 METAR LMML 300215Z 32004KT 9999 FEW016 22/19 Q1014 NOSIG=
201107300200 METAR LMML NIL=
201107300145 METAR LMML 300145Z 33005KT 9999 FEW016 22/19 Q1014 NOSIG=
201107300130 METAR LMML NIL=
201107300115 METAR LMML 300115Z 34007KT 280V020 9999 FEW012 22/20 Q1014
                        NOSIG=
201107300100 METAR LMML NIL=
201107300045 METAR LMML 300045Z 34006KT 9999 FEW012 22/20 Q1014 NOSIG=
201107300030 METAR LMML NIL=
201107300015 METAR LMML 300015Z 34006KT CAVOK 23/19 Q1014 NOSIG=
201107300000 METAR LMML NIL=
201107292345 METAR LMML 292345Z 35010KT CAVOK 23/19 Q1014 NOSIG=
201107292330 METAR LMML NIL=
201107292315 METAR LMML 292315Z 32009KT CAVOK 23/19 Q1014 NOSIG=
201107292245 METAR LMML 292245Z 32011KT CAVOK 23/18 Q1014 NOSIG=
201107292230 METAR LMML NIL=
201107292215 METAR LMML 292215Z 32010KT 290V350 CAVOK 23/17 Q1014 NOSIG=
201107292200 METAR LMML NIL=
201107292145 METAR LMML 292145Z 32010KT CAVOK 23/17 Q1014 NOSIG=
201107292115 METAR LMML 292115Z 32009KT 290V350 CAVOK 23/17 Q1014 NOSIG=
201107292100 METAR LMML NIL=
201107292045 METAR LMML 292045Z 32007KT CAVOK 23/17 Q1014 NOSIG=
201107292030 METAR LMML NIL=
201107292015 METAR LMML 292015Z 32007KT 280V360 CAVOK 23/18 Q1014 NOSIG=
201107292000 METAR LMML NIL=
201107291945 METAR LMML 291945Z 31007KT 280V340 CAVOK 23/18 Q1014 NOSIG=
201107291930 METAR LMML NIL=
201107291915 METAR LMML 291915Z 31010KT CAVOK 23/17 Q1014 NOSIG=
201107291900 METAR LMML NIL=
201107291845 METAR LMML 291845Z 30010KT 260V340 9999 FEW020 23/17 Q1013
                        NOSIG=
201107291830 METAR LMML NIL=
201107291815 METAR LMML 291815Z 30011KT 9999 FEW020 24/17 Q1013 NOSIG=
201107291800 METAR LMML NIL=
201107291745 METAR LMML 291745Z 30012KT 9999 FEW020 24/17 Q1013 NOSIG=
201107291730 METAR LMML NIL=
201107291715 METAR LMML 291715Z 30014KT 250V320 CAVOK 25/17 Q1013 NOSIG=
201107291700 METAR LMML NIL=
201107291645 METAR LMML 291645Z 30021KT 9999 FEW020 25/17 Q1013 NOSIG=
201107291630 METAR LMML NIL=
201107291615 METAR LMML 291615Z 30017KT 9999 FEW020 26/16 Q1013 NOSIG=
201107291600 METAR LMML NIL=
201107291545 METAR LMML 291545Z 30016KT 260V330 9999 FEW020 27/16 Q1013
                        NOSIG=
201107291530 METAR LMML NIL=
201107291515 METAR LMML 291515Z 29014KT 260V320 9999 FEW020 27/17 Q1013
                        NOSIG=
201107291500 METAR LMML NIL=
201107291445 METAR LMML 291445Z 30018KT 9999 FEW020 28/17 Q1014 NOSIG=
201107291430 METAR LMML NIL=
201107291415 METAR LMML 291415Z 30016KT 270V330 9999 FEW020 29/16 Q1014
                        NOSIG=
201107291345 METAR LMML 291345Z 30015KT 250V320 9999 FEW020 29/16 Q1014
                        NOSIG=
201107291330 METAR LMML NIL=
201107291315 METAR LMML 291315Z 30014KT 260V330 9999 FEW020 29/16 Q1014
                        NOSIG=
201107291300 METAR LMML NIL=
201107291245 METAR LMML 291245Z 30014KT 270V330 CAVOK 29/17 Q1014 NOSIG=
201107291230 METAR LMML NIL=
201107291215 METAR LMML 291215Z 29014KT 260V320 9999 FEW020 29/17 Q1014
                        NOSIG=
201107291200 METAR LMML NIL=
201107291145 METAR LMML 291145Z 30012KT 260V330 9999 FEW020 30/17 Q1014
                        NOSIG=
201107291115 METAR LMML 291115Z 33013KT 300V360 9999 FEW020 30/16 Q1014
                        NOSIG=
201107291045 METAR LMML 291045Z 32013KT 290V360 9999 FEW020 30/14 Q1014
                        NOSIG=
201107291030 METAR LMML NIL=
201107291015 METAR LMML 291015Z 33014KT 9999 FEW020 29/17 Q1014 NOSIG=
201107291000 METAR LMML NIL=
201107290945 METAR LMML 290945Z 33014G25KT 310V010 9999 FEW020 29/16 Q1014
                        NOSIG=
201107290930 METAR LMML NIL=
201107290915 METAR LMML 290915Z 33014KT 9999 FEW020 29/16 Q1014 TEMPO
                        CAVOK=
201107290900 METAR LMML NIL=
201107290845 METAR LMML 290845Z 33015KT 9999 FEW020 29/15 Q1014 TEMPO
                        CAVOK=
201107290830 METAR LMML NIL=
201107290815 METAR LMML 290815Z 33013KT CAVOK 28/16 Q1014 NOSIG=
201107290800 METAR LMML NIL=
201107290745 METAR LMML 290745Z 33013KT 300V360 9999 FEW012 28/17 Q1014
                        BECMG CAVOK=
201107290730 METAR LMML NIL=
201107290715 METAR LMML 290715Z 32014KT 9999 FEW012 27/18 Q1014 NOSIG=
201107290700 METAR LMML NIL=
201107290645 METAR LMML 290645Z 31014KT 9999 FEW012 25/19 Q1014 NOSIG=
201107290630 METAR LMML NIL=
201107290615 METAR LMML 290615Z 30014KT 9999 FEW012 24/20 Q1014 NOSIG=
201107290600 METAR LMML NIL=
201107290545 METAR LMML 290545Z 30015KT 9999 FEW012 24/20 Q1013 NOSIG=
201107290530 METAR LMML NIL=
201107290515 METAR LMML 290515Z 30011KT 9999 FEW012 23/20 Q1013 NOSIG=
201107290500 METAR LMML NIL=
201107290445 METAR LMML 290445Z 30011KT 9999 FEW011 23/21 Q1013 NOSIG=
201107290430 METAR LMML NIL=
201107290415 METAR LMML 290415Z 30012KT 9999 FEW011 23/21 Q1013 NOSIG=
201107290400 METAR LMML NIL=
201107290345 METAR LMML 290345Z 29007KT 260V320 9999 FEW011 23/21 Q1013
                        NOSIG=
201107290330 METAR LMML NIL=
201107290315 METAR LMML 290315Z 27005KT 210V320 9999 FEW011 23/21 Q1013
                        NOSIG=
201107290300 METAR LMML NIL=
201107290245 METAR LMML 290245Z 29006KT 260V320 9999 FEW011 23/21 Q1013
                        NOSIG=
201107290230 METAR LMML NIL=
201107290215 METAR LMML 290215Z 30004KT 260V330 9999 FEW011 23/21 Q1013
                        TEMPO 8000 BKN008=
201107290200 METAR LMML NIL=
201107290145 METAR LMML 290145Z 29004KT 260V320 9999 FEW011 23/20 Q1013
                        TEMPO 8000 BKN008=
201107290130 METAR LMML NIL=
201107290115 METAR LMML 290115Z 31007KT 280V340 9999 FEW011 23/20 Q1014
                        TEMPO 8000 BKN008=
201107290100 METAR LMML NIL=
201107290045 METAR LMML 290045Z 31007KT 9999 FEW011 23/20 Q1014 TEMPO
                        8000 BKN008=
201107290030 METAR LMML NIL=
201107290015 METAR LMML 290015Z 32004KT 280V340 9999 FEW012 23/20 Q1014
                        TEMPO 8000 BKN008=
201107290000 METAR LMML NIL=
201107282345 METAR LMML 282345Z 32007KT 9999 SCT010 23/21 Q1014 TEMPO
                        8000 BKN008=
201107282330 METAR LMML NIL=
201107282315 METAR LMML 282315Z 32006KT 9999 FEW015 23/21 Q1014 NOSIG=
201107282300 METAR LMML NIL=
201107282245 METAR LMML 282245Z 30004KT 260V340 9999 FEW018 23/21 Q1015
                        NOSIG=
201107282230 METAR LMML NIL=
201107282215 METAR LMML 282215Z 30003KT 9999 FEW020 23/21 Q1015 NOSIG=
201107282200 METAR LMML NIL=
201107282145 METAR LMML 282145Z 29005KT 260V330 9999 FEW020 23/21 Q1015
                        NOSIG=
201107282130 METAR LMML NIL=
201107282115 METAR LMML 282115Z 28004KT 9999 FEW020 23/20 Q1015 NOSIG=
201107282100 METAR LMML NIL=
201107282045 METAR LMML 282045Z 24003KT 9999 FEW020 23/20 Q1015 NOSIG=
201107282030 METAR LMML NIL=
201107282015 METAR LMML 282015Z VRB01KT 9999 FEW015 23/21 Q1015 NOSIG=
201107282000 METAR LMML NIL=
201107281945 METAR LMML 281945Z VRB01KT 9999 FEW020 24/21 Q1015 NOSIG=
201107281930 METAR LMML NIL=
201107281915 METAR LMML 281915Z VRB02KT 9999 FEW020 24/21 Q1014 NOSIG=
201107281900 METAR LMML NIL=
201107281845 METAR LMML 281845Z 31003KT 9999 FEW020 24/21 Q1014 NOSIG=
201107281830 METAR LMML NIL=
201107281815 METAR LMML 281815Z 33005KT 9999 FEW020 24/21 Q1014 NOSIG=
201107281800 METAR LMML NIL=
201107281745 METAR LMML 281745Z 34007KT 9999 SCT020 25/21 Q1014 NOSIG=
201107281730 METAR LMML NIL=
201107281715 METAR LMML 281715Z 32006KT 280V340 9999 SCT020 26/21 Q1014
                        NOSIG=
201107281700 METAR LMML NIL=
201107281645 METAR LMML 281645Z 33006KT 9999 FEW020 27/21 Q1014 NOSIG=
201107281630 METAR LMML NIL=
201107281615 METAR LMML 281615Z 33007KT 290V360 9999 FEW020 27/21 Q1014
                        NOSIG=
201107281600 METAR LMML NIL=
201107281545 METAR LMML 281545Z 29008KT 210V040 CAVOK 29/16 Q1014 NOSIG=
201107281530 METAR LMML NIL=
201107281515 METAR LMML 281515Z 23004KT 160V030 CAVOK 29/17 Q1014 NOSIG=
201107281445 METAR LMML 281445Z 20004KT 120V250 CAVOK 29/14 Q1014 NOSIG=
201107281430 METAR LMML NIL=
201107281415 METAR LMML 281415Z 19004KT 130V240 CAVOK 30/12 Q1014 NOSIG=
201107281400 METAR LMML NIL=
201107281345 METAR LMML 281345Z 16006KT 070V220 CAVOK 29/18 Q1014 NOSIG=
201107281330 METAR LMML NIL=
201107281315 METAR LMML 281315Z 16006KT 100V220 CAVOK 29/16 Q1014 NOSIG=
201107281300 METAR LMML NIL=
201107281245 METAR LMML 281245Z 13007KT 100V180 CAVOK 29/18 Q1014 NOSIG=
201107281230 METAR LMML NIL=
201107281215 METAR LMML 281215Z 14006KT 100V190 CAVOK 28/18 Q1015 NOSIG=
201107281200 METAR LMML NIL=
201107281145 METAR LMML 281145Z 16006KT 110V230 CAVOK 28/19 Q1015 NOSIG=
201107281130 METAR LMML NIL=
201107281115 METAR LMML 281115Z 12009KT 080V140 9999 FEW015 27/20 Q1015
                        NOSIG=
201107281100 METAR LMML NIL=
201107281045 METAR LMML 281045Z 11008KT 080V150 CAVOK 28/20 Q1016 NOSIG=
201107281015 METAR LMML 281015Z 12007KT 090V160 9999 FEW015 28/20 Q1016
                        NOSIG=
201107281000 METAR LMML NIL=
201107280945 METAR LMML 280945Z 04003KT 9999 FEW015 29/19 Q1016 NOSIG=
201107280930 METAR LMML NIL=
201107280915 METAR LMML 280915Z 09004KT 030V170 9999 FEW015 28/20 Q1016
                        NOSIG=
201107280900 METAR LMML NIL=
201107280845 METAR LMML 280845Z 03003KT 9999 FEW015 28/20 Q1016 NOSIG=
201107280830 METAR LMML NIL=
201107280815 METAR LMML 280815Z VRB02KT 9999 FEW015 27/20 Q1016 NOSIG=
201107280800 METAR LMML NIL=
201107280745 METAR LMML 280745Z 06004KT 360V110 9999 FEW015 27/20 Q1016
                        NOSIG=
201107280730 METAR LMML NIL=
201107280715 METAR LMML 280715Z 06005KT 360V110 9999 FEW013 26/20 Q1016
                        NOSIG=
201107280700 METAR LMML NIL=
201107280645 METAR LMML 280645Z 04004KT 360V110 9999 FEW012 26/20 Q1016
                        NOSIG=
201107280630 METAR LMML NIL=
201107280615 METAR LMML 280615Z 05005KT 360V080 9999 FEW010 25/21 Q1016
                        NOSIG=
201107280600 METAR LMML NIL=
201107280545 METAR LMML 280545Z 05006KT 020V080 9999 SCT009 24/21 Q1015
                        NOSIG=
201107280530 METAR LMML NIL=
201107280515 METAR LMML 280515Z 07005KT 040V100 9999 SCT009 23/21 Q1015
                        NOSIG=
201107280445 METAR LMML 280445Z 07004KT 9999 FEW009 22/21 Q1015 NOSIG=
201107280430 METAR LMML NIL=
201107280415 METAR LMML 280415Z 07003KT 9999 FEW011 22/20 Q1015 NOSIG=
201107280400 METAR LMML NIL=
201107280345 METAR LMML 280345Z 06003KT 9999 FEW011 22/20 Q1015 NOSIG=
201107280315 METAR LMML 280315Z 09003KT 9999 FEW011 22/20 Q1015 NOSIG=
201107280300 METAR LMML NIL=
201107280245 METAR LMML 280245Z 09003KT 9999 FEW011 22/20 Q1016 NOSIG=
201107280230 METAR LMML NIL=
201107280215 METAR LMML 280215Z 09003KT 9999 FEW011 22/20 Q1016 NOSIG=
201107280200 METAR LMML NIL=
201107280145 METAR LMML 280145Z 10004KT 9999 FEW011 22/20 Q1016 NOSIG=
201107280130 METAR LMML NIL=
201107280115 METAR LMML 280115Z 10004KT 9999 FEW011 22/20 Q1016 NOSIG=
201107280100 METAR LMML NIL=
201107280045 METAR LMML 280045Z 09004KT 9999 FEW012 23/20 Q1016 NOSIG=
201107280015 METAR LMML 280015Z 10005KT 9999 FEW012 23/20 Q1016 NOSIG=
201107280000 METAR LMML NIL=
201107272345 METAR LMML 272345Z 10005KT 060V120 9999 FEW012 23/20 Q1016
                        NOSIG=
201107272330 METAR LMML NIL=
201107272315 METAR LMML 272315Z 10006KT 9999 FEW013 23/20 Q1017 NOSIG=
201107272245 METAR LMML 272245Z 10005KT 9999 SCT012 23/20 Q1017 NOSIG=
201107272230 METAR LMML NIL=
201107272215 METAR LMML 272215Z 09006KT 9999 SCT013 23/20 Q1017 NOSIG=
201107272200 METAR LMML NIL=
201107272145 METAR LMML 272145Z 08006KT 9999 FEW014 23/20 Q1017 NOSIG=
201107272130 METAR LMML NIL=
201107272115 METAR LMML 272115Z 09006KT 9999 FEW014 23/20 Q1017 NOSIG=
201107272100 METAR LMML NIL=
201107272045 METAR LMML 272045Z 09006KT 050V120 9999 FEW014 23/20 Q1017
                        NOSIG=
201107272030 METAR LMML NIL=
201107272015 METAR LMML 272015Z 09007KT 060V120 9999 FEW014 24/20 Q1017
                        NOSIG=
201107272000 METAR LMML NIL=
201107271945 METAR LMML 271945Z 09008KT 050V110 9999 FEW014 24/20 Q1017
                        NOSIG=
201107271930 METAR LMML NIL=
201107271915 METAR LMML 271915Z 09007KT 060V130 9999 FEW014 24/20 Q1017
                        TEMPO BKN010=
201107271845 METAR LMML 271845Z 08007KT 9999 FEW014 24/20 Q1017 TEMPO
                        BKN008=
201107271830 METAR LMML NIL=
201107271815 METAR LMML 271815Z 08008KT 030V110 9999 FEW014 24/20 Q1016
                        TEMPO BKN008=
201107271800 METAR LMML NIL=
201107271745 METAR LMML 271745Z 07008KT 040V110 9999 FEW020 25/19 Q1016
                        TEMPO BKN008=
201107271730 METAR LMML NIL=
201107271715 METAR LMML 271715Z 08007KT 020V110 9999 FEW020 25/18 Q1016
                        NOSIG=
201107271700 METAR LMML NIL=
201107271645 METAR LMML 271645Z 08008KT 030V120 9999 FEW020 26/18 Q1016
                        NOSIG=
201107271630 METAR LMML NIL=
201107271615 METAR LMML 271615Z 08008KT 040V110 9999 FEW020 27/17 Q1017
                        NOSIG=
201107271600 METAR LMML NIL=
201107271545 METAR LMML 271545Z 07008KT 020V150 9999 FEW020 27/18 Q1017
                        NOSIG=
201107271530 METAR LMML NIL=
201107271515 METAR LMML 271515Z 07007KT 030V110 9999 FEW020 28/16 Q1017
                        NOSIG=
201107271445 METAR LMML 271445Z 09008KT 040V150 9999 FEW020 28/15 Q1017
                        NOSIG=
201107271430 METAR LMML NIL=
201107271415 METAR LMML 271415Z 07007KT 030V130 9999 FEW020 28/16 Q1017
                        NOSIG=
201107271400 METAR LMML NIL=
201107271345 METAR LMML 271345Z 10008KT 060V140 9999 FEW020 28/16 Q1017
                        NOSIG=
201107271330 METAR LMML NIL=
201107271315 METAR LMML 271315Z 07008KT 020V140 9999 FEW020 28/18 Q1017
                        NOSIG=
201107271300 METAR LMML NIL=
201107271245 METAR LMML 271245Z 10006KT 050V150 CAVOK 27/17 Q1017 NOSIG=
201107271230 METAR LMML NIL=
201107271215 METAR LMML 271215Z 13008KT 080V180 9999 FEW018 28/18 Q1017
                        NOSIG=
201107271200 METAR LMML NIL=
201107271145 METAR LMML 271145Z 12008KT 070V180 9999 FEW020 27/17 Q1017
                        NOSIG=
201107271130 METAR LMML NIL=
201107271115 METAR LMML 271115Z 14007KT 100V200 9999 FEW020 27/17 Q1018
                        NOSIG=
201107271100 METAR LMML NIL=
201107271045 METAR LMML 271045Z 10007KT 060V140 9999 FEW020 27/17 Q1018
                        NOSIG=
201107271030 METAR LMML NIL=
201107271015 METAR LMML 271015Z 11007KT 040V160 9999 FEW020 27/15 Q1018
                        NOSIG=
201107271000 METAR LMML NIL=
201107270945 METAR LMML 270945Z 12008KT 090V160 9999 FEW020 27/14 Q1018
                        NOSIG=
201107270930 METAR LMML NIL=
201107270915 METAR LMML 270915Z 11007KT 020V170 9999 FEW020 27/18 Q1018
                        NOSIG=
201107270900 METAR LMML NIL=
201107270845 METAR LMML 270845Z 11006KT 050V160 9999 FEW018 26/18 Q1018
                        NOSIG=
201107270830 METAR LMML NIL=
201107270815 METAR LMML 270815Z 11006KT 050V220 9999 FEW018 26/18 Q1018
                        NOSIG=
201107270800 METAR LMML NIL=
201107270745 METAR LMML 270745Z 10005KT 9999 FEW018 26/18 Q1017 NOSIG=
201107270730 METAR LMML NIL=
201107270715 METAR LMML 270715Z 06005KT 350V090 CAVOK 26/18 Q1017 NOSIG=
201107270700 METAR LMML NIL=
201107270645 METAR LMML 270645Z 10005KT 050V130 CAVOK 25/18 Q1018 NOSIG=
201107270630 METAR LMML NIL=
201107270615 METAR LMML 270615Z 09004KT 040V140 CAVOK 24/18 Q1017 NOSIG=
201107270600 METAR LMML NIL=
201107270545 METAR LMML 270545Z 05003KT CAVOK 24/18 Q1017 NOSIG=
201107270530 METAR LMML NIL=
201107270515 METAR LMML 270515Z VRB02KT CAVOK 23/18 Q1017 NOSIG=
201107270500 METAR LMML NIL=
201107270445 METAR LMML 270445Z VRB01KT CAVOK 21/17 Q1017 NOSIG=
201107270430 METAR LMML NIL=
201107270415 METAR LMML 270415Z VRB02KT CAVOK 20/16 Q1016 NOSIG=
201107270400 METAR LMML NIL=
201107270345 METAR LMML 270345Z 08003KT CAVOK 20/16 Q1016 NOSIG=
201107270330 METAR LMML NIL=
201107270315 METAR LMML 270315Z 13004KT CAVOK 20/16 Q1016 NOSIG=
201107270300 METAR LMML NIL=
201107270245 METAR LMML 270245Z VRB01KT CAVOK 20/16 Q1016 NOSIG=
201107270230 METAR LMML NIL=
201107270215 METAR LMML 270215Z VRB02KT CAVOK 20/16 Q1016 NOSIG=
201107270200 METAR LMML NIL=
201107270145 METAR LMML 270145Z VRB01KT CAVOK 20/17 Q1016 NOSIG=
201107270130 METAR LMML NIL=
201107270115 METAR LMML 270115Z 28003KT CAVOK 21/18 Q1016 NOSIG=
201107270100 METAR LMML NIL=
201107270045 METAR LMML 270045Z VRB02KT CAVOK 21/17 Q1016 NOSIG=
201107270030 METAR LMML NIL=
201107270015 METAR LMML 270015Z 21003KT CAVOK 21/17 Q1017 NOSIG=
201107270000 METAR LMML NIL=
201107262345 METAR LMML 262345Z 22003KT CAVOK 21/17 Q1017 NOSIG=
201107262330 METAR LMML NIL=
201107262315 METAR LMML 262315Z VRB02KT CAVOK 21/17 Q1017 NOSIG=
201107262300 METAR LMML NIL=
201107262245 METAR LMML 262245Z VRB02KT CAVOK 21/17 Q1017 NOSIG=
201107262230 METAR LMML NIL=
201107262215 METAR LMML 262215Z VRB02KT CAVOK 21/17 Q1017 NOSIG=
201107262200 METAR LMML NIL=
201107262145 METAR LMML 262145Z 31003KT CAVOK 21/17 Q1017 NOSIG=
201107262130 METAR LMML NIL=
201107262115 METAR LMML 262115Z 31003KT CAVOK 22/17 Q1017 NOSIG=
201107262100 METAR LMML NIL=
201107262045 METAR LMML 262045Z 31007KT CAVOK 22/17 Q1017 NOSIG=
201107262030 METAR LMML NIL=
201107262015 METAR LMML 262015Z 29004KT CAVOK 22/17 Q1017 NOSIG=
201107262000 METAR LMML NIL=
201107261945 METAR LMML 261945Z 29005KT 250V310 CAVOK 22/17 Q1017 NOSIG=
201107261930 METAR LMML NIL=
201107261915 METAR LMML 261915Z 28004KT 240V300 9999 FEW025 22/17 Q1016
                        BECMG CAVOK=
201107261900 METAR LMML NIL=
201107261845 METAR LMML 261845Z 29004KT 260V320 9999 FEW030 23/17 Q1016
                        BECMG CAVOK=
201107261830 METAR LMML NIL=
201107261815 METAR LMML 261815Z 31005KT 270V330 9999 FEW030 23/17 Q1016
                        BECMG CAVOK=
201107261800 METAR LMML NIL=
201107261745 METAR LMML 261745Z 31006KT 9999 FEW036 24/17 Q1015 BECMG
                        CAVOK=
201107261730 METAR LMML NIL=
201107261715 METAR LMML 261715Z 31005KT 260V340 9999 FEW036 25/15 Q1015
                        NOSIG=
201107261700 METAR LMML NIL=
201107261645 METAR LMML 261645Z 29007KT 250V330 9999 FEW036 25/16 Q1015
                        NOSIG=
201107261630 METAR LMML NIL=
201107261615 METAR LMML 261615Z 30009KT 270V330 9999 FEW036 26/16 Q1015
                        NOSIG=
201107261600 METAR LMML NIL=
201107261545 METAR LMML 261545Z 30007KT 220V350 9999 FEW036 26/15 Q1015
                        NOSIG=
201107261530 METAR LMML NIL=
201107261515 METAR LMML 261515Z 28007KT 220V320 9999 FEW036 27/15 Q1015
                        NOSIG=
201107261500 METAR LMML NIL=
201107261445 METAR LMML 261445Z 29008KT 250V320 9999 FEW036 27/14 Q1015
                        NOSIG=
201107261430 METAR LMML NIL=
201107261415 METAR LMML 261415Z 31008KT 270V350 9999 FEW036 27/13 Q1015
                        NOSIG=
201107261400 METAR LMML NIL=
201107261345 METAR LMML 261345Z 30008KT 250V340 9999 FEW036 27/15 Q1015
                        NOSIG=
201107261330 METAR LMML NIL=
201107261315 METAR LMML 261315Z 31010KT 270V340 9999 FEW036 27/15 Q1016
                        NOSIG=
201107261300 METAR LMML NIL=
201107261245 METAR LMML 261245Z 29011KT 260V320 9999 FEW037 27/15 Q1016
                        NOSIG=
201107261230 METAR LMML NIL=
201107261215 METAR LMML 261215Z 27009KT 230V310 9999 FEW025 27/15 Q1015
                        NOSIG=
201107261200 METAR LMML NIL=
201107261145 METAR LMML 261145Z 29009KT 240V330 9999 FEW025 28/15 Q1015
                        NOSIG=
201107261130 METAR LMML NIL=
201107261115 METAR LMML 261115Z 28009KT 240V320 9999 FEW025 27/14 Q1015
                        NOSIG=
201107261100 METAR LMML NIL=
201107261045 METAR LMML 261045Z 30011KT 270V330 9999 FEW025 27/14 Q1015
                        NOSIG=
201107261030 METAR LMML NIL=
201107261015 METAR LMML 261015Z 28009KT 240V020 CAVOK 27/14 Q1015 NOSIG=
201107261000 METAR LMML NIL=
201107260945 METAR LMML 260945Z 31010KT 250V340 9999 FEW025 27/12 Q1015
                        NOSIG=
201107260930 METAR LMML NIL=
201107260915 METAR LMML 260915Z 28009KT 250V310 9999 FEW025 26/09 Q1015
                        NOSIG=
201107260900 METAR LMML NIL=
201107260845 METAR LMML 260845Z 31009KT 9999 FEW020 27/11 Q1015 NOSIG=
201107260830 METAR LMML NIL=
201107260815 METAR LMML 260815Z 29009KT 240V330 9999 FEW020 26/13 Q1014
                        NOSIG=
201107260745 METAR LMML 260745Z 30007KT 260V340 9999 FEW020 26/14 Q1014
                        NOSIG=
201107260730 METAR LMML NIL=
201107260715 METAR LMML 260715Z 32009KT CAVOK 25/14 Q1014 NOSIG=
201107260700 METAR LMML NIL=
201107260645 METAR LMML 260645Z 31010KT 9999 FEW025 24/15 Q1014 NOSIG=
201107260630 METAR LMML NIL=
201107260615 METAR LMML 260615Z 30008KT 250V330 9999 FEW020 23/16 Q1013
                        NOSIG=
201107260600 METAR LMML NIL=
201107260545 METAR LMML 260545Z 31007KT 9999 FEW020 22/16 Q1013 NOSIG=
201107260530 METAR LMML NIL=
201107260515 METAR LMML 260515Z 28004KT 240V310 9999 FEW020 21/15 Q1012
                        NOSIG=
201107260500 METAR LMML NIL=
201107260445 METAR LMML 260445Z 28004KT 230V310 9999 FEW015 20/15 Q1012
                        NOSIG=
201107260430 METAR LMML NIL=
201107260415 METAR LMML 260415Z 30005KT 9999 FEW020 19/15 Q1012 NOSIG=
201107260400 METAR LMML NIL=
201107260345 METAR LMML 260345Z 32007KT 9999 FEW020 19/15 Q1012 NOSIG=
201107260330 METAR LMML NIL=
201107260315 METAR LMML 260315Z 32007KT 9999 FEW020 20/15 Q1012 NOSIG=
201107260300 METAR LMML NIL=
201107260245 METAR LMML 260245Z 31004KT CAVOK 20/14 Q1012 NOSIG=
201107260230 METAR LMML NIL=
201107260215 METAR LMML 260215Z 31004KT CAVOK 20/14 Q1012 NOSIG=
201107260200 METAR LMML NIL=
201107260145 METAR LMML 260145Z 30007KT CAVOK 21/14 Q1012 NOSIG=
201107260130 METAR LMML NIL=
201107260115 METAR LMML 260115Z 30008KT 270V330 CAVOK 21/15 Q1012 NOSIG=
201107260100 METAR LMML NIL=
201107260045 METAR LMML 260045Z 29012KT CAVOK 21/15 Q1012 NOSIG=
201107260030 METAR LMML NIL=
201107260015 METAR LMML 260015Z 29010KT CAVOK 21/15 Q1012 NOSIG=
201107260000 METAR LMML NIL=
201107252345 METAR LMML 252345Z 28011KT 250V310 CAVOK 21/15 Q1012 NOSIG=
201107252330 METAR LMML NIL=
201107252315 METAR LMML 252315Z 29009KT 260V320 9999 FEW023 21/15 Q1012
                        NOSIG=
201107252300 METAR LMML NIL=
201107252245 METAR LMML 252245Z 30009KT 9999 FEW023 21/16 Q1012 NOSIG=
201107252230 METAR LMML NIL=
201107252215 METAR LMML 252215Z 29007KT 9999 FEW018 21/16 Q1012 NOSIG=
201107252200 METAR LMML NIL=
201107252145 METAR LMML 252145Z 29010KT 9999 FEW018 21/16 Q1012 NOSIG=
201107252130 METAR LMML NIL=
201107252115 METAR LMML 252115Z 30010KT CAVOK 21/15 Q1012 NOSIG=
201107252100 METAR LMML NIL=
201107252045 METAR LMML 252045Z 29007KT 260V320 CAVOK 21/16 Q1012 NOSIG=
201107252030 METAR LMML NIL=
201107252015 METAR LMML 252015Z 28007KT 250V320 9999 FEW012 22/15 Q1012
                        NOSIG=
201107252000 METAR LMML NIL=
201107251945 METAR LMML 251945Z 29009KT CAVOK 22/15 Q1012 NOSIG=
201107251930 METAR LMML NIL=
201107251915 METAR LMML 251915Z 29011KT CAVOK 22/15 Q1012 NOSIG=
201107251900 METAR LMML NIL=
201107251845 METAR LMML 251845Z 30012KT 270V330 9999 FEW025 22/15 Q1011
                        NOSIG=
201107251830 METAR LMML NIL=
201107251815 METAR LMML 251815Z 30011KT 9999 FEW025 22/16 Q1011 NOSIG=
201107251800 METAR LMML NIL=
201107251745 METAR LMML 251745Z 30014KT 270V330 9999 FEW025 23/16 Q1011
                        NOSIG=
201107251730 METAR LMML NIL=
201107251715 METAR LMML 251715Z 31018KT 9999 FEW025 SCT100 23/16 Q1011
                        NOSIG=
201107251700 METAR LMML NIL=
201107251645 METAR LMML 251645Z 30016KT 270V330 9999 FEW025 24/16 Q1011
                        NOSIG=
201107251630 METAR LMML NIL=
201107251615 METAR LMML 251615Z 30017KT 9999 FEW025 SCT110 24/16 Q1010
                        NOSIG=
201107251600 METAR LMML NIL=
201107251545 METAR LMML 251545Z 31017KT 280V340 9999 FEW025 SCT090 25/16
                        Q1010 NOSIG=
201107251530 METAR LMML NIL=
201107251515 METAR LMML 251515Z 30018KT 9999 FEW025 BKN090 25/16 Q1010
                        NOSIG=
201107251500 METAR LMML NIL=
201107251445 METAR LMML 251445Z 30017KT 270V330 9999 FEW026 BKN090 24/17
                        Q1011 NOSIG=
201107251430 METAR LMML NIL=
201107251415 METAR LMML 251415Z 31018KT 9999 FEW025 BKN090 25/16 Q1011
                        NOSIG=
201107251400 METAR LMML NIL=
201107251345 METAR LMML 251345Z 29015KT 260V320 9999 FEW025 BKN090 25/16
                        Q1011 NOSIG=
201107251330 METAR LMML NIL=
201107251315 METAR LMML 251315Z 30015KT 260V330 CAVOK 25/17 Q1011 NOSIG=
201107251300 METAR LMML NIL=
201107251245 METAR LMML 251245Z 31013KT 9999 FEW025 BKN110 24/16 Q1011
                        NOSIG=
201107251230 METAR LMML NIL=
201107251215 METAR LMML 251215Z 32010KT 9999 FEW025 BKN110 23/18 Q1011
                        NOSIG=
201107251200 METAR LMML NIL=
201107251145 METAR LMML 251145Z 34010KT 310V010 9999 -RA FEW025 BKN110
                        BKN250 22/18 Q1011 NOSIG=
201107251130 METAR LMML NIL=
201107251115 METAR LMML 251115Z 30005KT 260V340 9999 -SHRA FEW025 BKN110
                        BKN250 22/18 Q1011 NOSIG=
201107251100 METAR LMML NIL=
201107251045 METAR LMML 251045Z 29012KT 250V320 9999 -SHRA FEW025 BKN090
                        BKN250 23/15 Q1012 NOSIG=
201107251030 METAR LMML NIL=
201107251015 METAR LMML 251015Z 28013KT 230V310 9999 -SHRA FEW023 SCT080
                        BKN250 24/17 Q1012 NOSIG=
201107251000 METAR LMML NIL=
201107250945 METAR LMML 250945Z 28014KT 250V310 9999 SCT026 BKN090 BKN250
                        24/17 Q1011 NOSIG=
201107250930 METAR LMML NIL=
201107250915 METAR LMML 250915Z 29012KT 230V330 9999 SCT025 BKN250 26/17
                        Q1011 NOSIG=
201107250900 METAR LMML NIL=
201107250845 METAR LMML 250845Z 29012KT 250V320 9999 FEW024 BKN250 25/18
                        Q1011 NOSIG=
201107250830 METAR LMML NIL=
201107250815 METAR LMML 250815Z 28012KT 9999 FEW028 25/17 Q1011 NOSIG=
201107250800 METAR LMML NIL=
201107250745 METAR LMML 250745Z 27010KT 210V310 9999 FEW025 25/17 Q1010
                        NOSIG=
201107250730 METAR LMML NIL=
201107250715 METAR LMML 250715Z 29010KT 260V330 9999 FEW024 25/17 Q1010
                        NOSIG=
201107250700 METAR LMML NIL=
201107250645 METAR LMML 250645Z 30009KT 260V340 9999 FEW025 25/17 Q1010
                        NOSIG=
201107250630 METAR LMML NIL=
201107250615 METAR LMML 250615Z 31009KT 270V330 9999 FEW020 24/17 Q1010
                        NOSIG=
201107250600 METAR LMML NIL=
201107250545 METAR LMML 250545Z 32009KT 280V350 CAVOK 23/17 Q1010 NOSIG=
201107250530 METAR LMML NIL=
201107250515 METAR LMML 250515Z 31007KT CAVOK 22/17 Q1009 NOSIG=
201107250500 METAR LMML NIL=
201107250445 METAR LMML 250445Z 33008KT 290V350 CAVOK 22/16 Q1009 NOSIG=
201107250430 METAR LMML NIL=
201107250415 METAR LMML 250415Z 32008KT CAVOK 21/15 Q1009 NOSIG=
201107250400 METAR LMML NIL=
201107250345 METAR LMML 250345Z 32010KT CAVOK 21/15 Q1009 NOSIG=
201107250330 METAR LMML NIL=
201107250315 METAR LMML 250315Z 29008KT CAVOK 22/14 Q1009 NOSIG=
201107250300 METAR LMML NIL=
201107250245 METAR LMML 250245Z 31009KT 270V330 CAVOK 22/13 Q1009 NOSIG=
201107250230 METAR LMML NIL=
201107250215 METAR LMML 250215Z 32006KT CAVOK 22/14 Q1009 NOSIG=
201107250200 METAR LMML NIL=
201107250145 METAR LMML 250145Z 32008KT CAVOK 22/15 Q1009 NOSIG=
201107250130 METAR LMML NIL=
201107250115 METAR LMML 250115Z 31010KT CAVOK 22/15 Q1009 NOSIG=
201107250100 METAR LMML NIL=
201107250045 METAR LMML 250045Z 31010KT CAVOK 22/16 Q1009 NOSIG=
201107250030 METAR LMML NIL=
201107250015 METAR LMML 250015Z 31011KT CAVOK 22/16 Q1010 NOSIG=
201107250000 METAR LMML NIL=
201107242345 METAR LMML 242345Z 31011KT CAVOK 22/17 Q1010 NOSIG=
201107242330 METAR LMML NIL=
201107242315 METAR LMML 242315Z 32008KT 290V360 CAVOK 22/17 Q1010 NOSIG=
201107242300 METAR LMML NIL=
201107242245 METAR LMML 242245Z 30008KT CAVOK 22/16 Q1010 NOSIG=
201107242230 METAR LMML NIL=
201107242215 METAR LMML 242215Z 32009KT CAVOK 22/16 Q1010 NOSIG=
201107242200 METAR LMML NIL=
201107242145 METAR LMML 242145Z 30013KT CAVOK 22/17 Q1010 NOSIG=
201107242130 METAR LMML NIL=
201107242115 METAR LMML 242115Z 29012KT 250V320 CAVOK 22/17 Q1010 NOSIG=
201107242100 METAR LMML NIL=
201107242045 METAR LMML 242045Z 29011KT 260V320 CAVOK 22/16 Q1010 NOSIG=
201107242030 METAR LMML NIL=
201107242015 METAR LMML 242015Z 29014KT 260V320 CAVOK 23/16 Q1010 NOSIG=
201107242000 METAR LMML NIL=
201107241945 METAR LMML 241945Z 30016KT CAVOK 23/16 Q1010 NOSIG=
201107241930 METAR LMML NIL=
201107241915 METAR LMML 241915Z 30017KT CAVOK 23/16 Q1009 NOSIG=
201107241900 METAR LMML NIL=
201107241845 METAR LMML 241845Z 29016KT 260V320 CAVOK 23/15 Q1009 NOSIG=
201107241830 METAR LMML NIL=
201107241815 METAR LMML 241815Z 30019KT CAVOK 23/16 Q1009 NOSIG=
201107241800 METAR LMML NIL=
201107241745 METAR LMML 241745Z 30018KT 270V330 CAVOK 24/16 Q1009 NOSIG=
201107241730 METAR LMML NIL=
201107241715 METAR LMML 241715Z 30018KT CAVOK 24/16 Q1009 NOSIG=
201107241700 METAR LMML NIL=
201107241645 METAR LMML 241645Z 30020KT CAVOK 25/16 Q1010 NOSIG=
201107241630 METAR LMML NIL=
201107241615 METAR LMML 241615Z 30019KT CAVOK 26/16 Q1010 NOSIG=
201107241600 METAR LMML NIL=
201107241545 METAR LMML 241545Z 30016KT 280V340 CAVOK 27/16 Q1010 NOSIG=
201107241530 METAR LMML NIL=
201107241515 METAR LMML 241515Z 30017KT CAVOK 27/17 Q1010 NOSIG=
201107241500 METAR LMML NIL=
201107241445 METAR LMML 241445Z 30019KT CAVOK 27/15 Q1010 NOSIG=
201107241430 METAR LMML NIL=
201107241415 METAR LMML 241415Z 30016KT 270V330 9999 FEW020 28/16 Q1010
                        NOSIG=
201107241400 METAR LMML NIL=
201107241345 METAR LMML 241345Z 30016KT 270V330 9999 FEW020 28/17 Q1010
                        NOSIG=
201107241330 METAR LMML NIL=
201107241315 METAR LMML 241315Z 30015KT 260V330 9999 FEW020 28/16 Q1010
                        NOSIG=
201107241300 METAR LMML NIL=
201107241245 METAR LMML 241245Z 29015KT 260V330 9999 FEW020 28/17 Q1010
                        NOSIG=
201107241230 METAR LMML NIL=
201107241215 METAR LMML 241215Z 30016KT 270V330 9999 FEW025 28/18 Q1010
                        NOSIG=
201107241200 METAR LMML NIL=
201107241145 METAR LMML 241145Z 29015KT 260V340 9999 FEW025 28/19 Q1010
                        NOSIG=
201107241130 METAR LMML NIL=
201107241115 METAR LMML 241115Z 29014KT 260V330 9999 FEW025 28/19 Q1010
                        NOSIG=
201107241100 METAR LMML NIL=
201107241045 METAR LMML 241045Z 30015KT CAVOK 29/18 Q1010 NOSIG=
201107241030 METAR LMML NIL=
201107241015 METAR LMML 241015Z 32013KT 280V350 CAVOK 29/18 Q1010 NOSIG=
201107241000 METAR LMML NIL=
201107240945 METAR LMML 240945Z 30013KT 270V340 CAVOK 29/18 Q1010 NOSIG=
201107240930 METAR LMML NIL=
201107240915 METAR LMML 240915Z 30011KT 260V340 CAVOK 28/18 Q1011 NOSIG=
201107240900 METAR LMML NIL=
201107240845 METAR LMML 240845Z 30011KT 270V350 CAVOK 28/18 Q1011 NOSIG=
201107240830 METAR LMML NIL=
201107240815 METAR LMML 240815Z 32013KT 290V360 9999 FEW020 28/17 Q1011
                        NOSIG=
201107240800 METAR LMML NIL=
201107240745 METAR LMML 240745Z 33011KT 290V350 9999 FEW020 27/19 Q1011
                        NOSIG=
201107240730 METAR LMML NIL=
201107240715 METAR LMML 240715Z 32012KT 9999 FEW020 27/19 Q1011 NOSIG=
201107240700 METAR LMML NIL=
201107240645 METAR LMML 240645Z 30010KT 9999 FEW020 26/19 Q1010 NOSIG=
201107240630 METAR LMML NIL=
201107240615 METAR LMML 240615Z 32010KT 9999 FEW020 26/18 Q1010 NOSIG=
201107240600 METAR LMML NIL=
201107240545 METAR LMML 240545Z 30007KT CAVOK 24/18 Q1010 NOSIG=
201107240530 METAR LMML NIL=
201107240515 METAR LMML 240515Z 31007KT CAVOK 24/19 Q1010 NOSIG=
201107240500 METAR LMML NIL=
201107240445 METAR LMML 240445Z VRB02KT CAVOK 23/19 Q1009 NOSIG=
201107240430 METAR LMML NIL=
201107240415 METAR LMML 240415Z 30003KT 9999 FEW006 23/21 Q1009 NOSIG=
201107240400 METAR LMML NIL=
201107240345 METAR LMML 240345Z 32006KT 9999 FEW006 23/22 Q1009 NOSIG=
201107240330 METAR LMML NIL=
201107240315 METAR LMML 240315Z 32006KT 9999 FEW005 23/22 Q1009 NOSIG=
201107240300 METAR LMML NIL=
201107240245 METAR LMML 240245Z 31004KT 9999 FEW012 23/21 Q1009 NOSIG=
201107240230 METAR LMML NIL=
201107240215 METAR LMML 240215Z VRB02KT CAVOK 23/19 Q1009 NOSIG=
201107240145 METAR LMML 240145Z VRB02KT CAVOK 23/19 Q1009 NOSIG=
201107240130 METAR LMML NIL=
201107240115 METAR LMML 240115Z VRB02KT CAVOK 23/20 Q1009 NOSIG=
201107240100 METAR LMML NIL=
201107240045 METAR LMML 240045Z VRB02KT CAVOK 23/20 Q1009 NOSIG=
201107240030 METAR LMML NIL=
201107240015 METAR LMML 240015Z 30003KT CAVOK 24/21 Q1009 NOSIG=
201107240000 METAR LMML NIL=
201107232345 METAR LMML 232345Z 32004KT CAVOK 24/20 Q1009 NOSIG=
201107232330 METAR LMML NIL=
201107232315 METAR LMML 232315Z 31004KT CAVOK 24/20 Q1009 NOSIG=
201107232245 METAR LMML 232245Z 31004KT CAVOK 24/21 Q1009 NOSIG=
201107232230 METAR LMML NIL=
201107232215 METAR LMML 232215Z 28003KT CAVOK 24/21 Q1009 NOSIG=
201107232200 METAR LMML NIL=
201107232145 METAR LMML 232145Z VRB02KT CAVOK 24/21 Q1009 NOSIG=
201107232115 METAR LMML 232115Z 31004KT CAVOK 24/21 Q1009 NOSIG=
201107232100 METAR LMML NIL=
201107232045 METAR LMML 232045Z 32008KT 9999 FEW035 25/21 Q1009 NOSIG=
201107232030 METAR LMML NIL=
201107232015 METAR LMML 232015Z 30007KT 270V330 9999 FEW035 25/21 Q1009
                        NOSIG=
201107231945 METAR LMML 231945Z 30005KT 250V330 9999 FEW035 25/20 Q1009
                        NOSIG=
201107231930 METAR LMML NIL=
201107231915 METAR LMML 231915Z 29008KT 250V330 9999 FEW035 25/20 Q1009
                        NOSIG=
201107231900 METAR LMML NIL=
201107231845 METAR LMML 231845Z 33006KT 9999 SCT036 26/21 Q1008 NOSIG=
201107231830 METAR LMML NIL=
201107231815 METAR LMML 231815Z 32007KT 9999 FEW020 BKN036 26/21 Q1008
                        NOSIG=
201107231800 METAR LMML NIL=
201107231745 METAR LMML 231745Z 33011KT 9999 FEW025 BKN034 26/21 Q1008
                        TEMPO BKN012=
201107231730 METAR LMML NIL=
201107231715 METAR LMML 231715Z 33013KT 9999 FEW012 SCT020 BKN027 26/22
                        Q1008 TEMPO BKN012=
201107231700 METAR LMML NIL=
201107231645 METAR LMML 231645Z 34010KT 310V010 9000 SCT019 SCT028 28/22
                        Q1007 TEMPO BKN012=
201107231630 METAR LMML NIL=
201107231615 METAR LMML 231615Z 34011KT 310V010 9999 SCT020 28/22 Q1006
                        NOSIG=
201107231600 METAR LMML NIL=
201107231545 METAR LMML 231545Z 36009KT 310V020 9999 SCT014 28/22 Q1006
                        NOSIG=
201107231530 METAR LMML NIL=
201107231515 METAR LMML 231515Z 02008KT 350V050 9999 SCT015 28/23 Q1006
                        NOSIG=
201107231500 METAR LMML NIL=
201107231445 METAR LMML 231445Z 01008KT 330V050 9999 SCT015 29/23 Q1006
                        NOSIG=
201107231430 METAR LMML NIL=
201107231415 METAR LMML 231415Z 01008KT 330V050 9999 BKN013 29/23 Q1006
                        NOSIG=
201107231400 METAR LMML NIL=
201107231345 METAR LMML 231345Z 36009KT 9999 BKN016 30/23 Q1006 NOSIG=
201107231330 METAR LMML NIL=
201107231315 METAR LMML 231315Z 01008KT 340V040 9999 FEW017 31/23 Q1005
                        NOSIG=
201107231300 METAR LMML NIL=
201107231245 METAR LMML 231245Z 01007G17KT 340V050 9999 FEW016 31/23 Q1005
                        NOSIG=
201107231230 METAR LMML NIL=
201107231215 METAR LMML 231215Z 01008KT 320V040 9999 FEW017 32/24 Q1005
                        NOSIG=
201107231200 METAR LMML NIL=
201107231145 METAR LMML 231145Z 35006KT 310V040 9999 FEW014 31/24 Q1005
                        NOSIG=
201107231130 METAR LMML NIL=
201107231115 METAR LMML 231115Z 02010KT 350V050 CAVOK 31/24 Q1004 NOSIG=
201107231100 METAR LMML NIL=
201107231045 METAR LMML 231045Z 35005KT 260V060 9999 FEW023 32/24 Q1004
                        NOSIG=
201107231030 METAR LMML NIL=
201107231015 METAR LMML 231015Z 17003KT 9999 FEW017 31/23 Q1005 NOSIG=
201107231000 METAR LMML NIL=
201107230945 METAR LMML 230945Z 11008KT 070V150 9999 FEW015 30/23 Q1004
                        NOSIG=
201107230915 METAR LMML 230915Z 12010KT 090V160 9999 FEW013 29/23 Q1004
                        NOSIG=
201107230900 METAR LMML NIL=
201107230845 METAR LMML 230845Z 12016KT 090V150 CAVOK 29/23 Q1004 NOSIG=
201107230830 METAR LMML NIL=
201107230815 METAR LMML 230815Z 12016KT 080V170 9999 FEW014 29/23 Q1004
                        NOSIG=
201107230800 METAR LMML NIL=
201107230745 METAR LMML 230745Z 11015KT 080V140 9999 FEW013 28/23 Q1004
                        NOSIG=
201107230730 METAR LMML NIL=
201107230715 METAR LMML 230715Z 10012KT 050V130 9999 FEW013 28/23 Q1005
                        NOSIG=
201107230700 METAR LMML NIL=
201107230645 METAR LMML 230645Z 11012KT 060V140 9999 FEW014 27/23 Q1006
                        NOSIG=
201107230630 METAR LMML NIL=
201107230615 METAR LMML 230615Z 09011KT 020V140 9999 FEW015 26/23 Q1005
                        NOSIG=
201107230600 METAR LMML NIL=
201107230545 METAR LMML 230545Z 12015KT 9999 FEW015 26/23 Q1005 NOSIG=
201107230530 METAR LMML NIL=
201107230515 METAR LMML 230515Z 10012KT CAVOK 25/23 Q1005 NOSIG=
201107230445 METAR LMML 230445Z 09009KT 050V120 9000 FEW005 SCT130 25/24
                        Q1006 NOSIG=
201107230430 METAR LMML NIL=
201107230415 METAR LMML 230415Z 05008KT 010V070 9999 FEW005 SCT130 25/23
                        Q1006 NOSIG=
201107230400 METAR LMML NIL=
201107230345 METAR LMML 230345Z 07007KT 030V100 9999 FEW005 SCT130 25/23
                        Q1006 NOSIG=
201107230330 METAR LMML NIL=
201107230315 METAR LMML 230315Z 07005KT 020V120 9999 FEW005 BKN130 25/23
                        Q1007 NOSIG=
201107230300 METAR LMML NIL=
201107230245 METAR LMML 230245Z 12014KT 9999 FEW005 25/23 Q1006 NOSIG=
201107230230 METAR LMML NIL=
201107230215 METAR LMML 230215Z 11009KT 9999 FEW005 SCT130 25/23 Q1007
                        NOSIG=
201107230200 METAR LMML NIL=
201107230145 METAR LMML 230145Z 13011KT 9999 FEW005 25/23 Q1007 NOSIG=
201107230130 METAR LMML NIL=
201107230115 METAR LMML 230115Z 12012KT 9999 FEW005 SCT130 25/23 Q1007
                        NOSIG=
201107230100 METAR LMML NIL=
201107230045 METAR LMML 230045Z 12011KT 9999 FEW005 25/23 Q1008 NOSIG=
201107230030 METAR LMML NIL=
201107230015 METAR LMML 230015Z 12010KT 9999 FEW005 25/24 Q1008 NOSIG=
201107230000 METAR LMML NIL=
201107222345 METAR LMML 222345Z 11010KT 080V150 9999 FEW006 25/23 Q1008
                        NOSIG=
201107222330 METAR LMML NIL=
201107222315 METAR LMML 222315Z 13010KT 9999 FEW008 25/23 Q1009 NOSIG=
201107222300 METAR LMML NIL=
201107222245 METAR LMML 222245Z 12011KT 9999 FEW012 25/23 Q1009 NOSIG=
201107222230 METAR LMML NIL=
201107222215 METAR LMML 222215Z 11011KT 9999 FEW012 25/23 Q1009 NOSIG=
201107222200 METAR LMML NIL=
201107222145 METAR LMML 222145Z 11010KT 9999 FEW012 25/23 Q1010 NOSIG=
201107222130 METAR LMML NIL=
201107222115 METAR LMML 222115Z 11010KT 080V140 CAVOK 25/23 Q1010 NOSIG=
201107222100 METAR LMML NIL=
201107222045 METAR LMML 222045Z 11009KT CAVOK 25/23 Q1010 NOSIG=
201107222030 METAR LMML NIL=
201107222015 METAR LMML 222015Z 11009KT CAVOK 25/22 Q1010 NOSIG=
201107222000 METAR LMML NIL=
201107221945 METAR LMML 221945Z 11009KT 080V160 CAVOK 25/22 Q1010 NOSIG=
201107221930 METAR LMML NIL=
201107221915 METAR LMML 221915Z 12008KT 080V150 CAVOK 25/21 Q1010 NOSIG=
201107221900 METAR LMML NIL=
201107221845 METAR LMML 221845Z 12008KT CAVOK 25/21 Q1010 NOSIG=
201107221830 METAR LMML NIL=
201107221815 METAR LMML 221815Z 13008KT CAVOK 26/21 Q1010 NOSIG=
201107221800 METAR LMML NIL=
201107221745 METAR LMML 221745Z 14008KT 100V180 CAVOK 26/22 Q1010 NOSIG=
201107221730 METAR LMML NIL=
201107221715 METAR LMML 221715Z 14009KT 110V180 CAVOK 26/21 Q1010 NOSIG=
201107221700 METAR LMML NIL=
201107221645 METAR LMML 221645Z 13009KT CAVOK 27/21 Q1010 NOSIG=
201107221630 METAR LMML NIL=
201107221615 METAR LMML 221615Z 13011KT CAVOK 27/20 Q1010 NOSIG=
201107221600 METAR LMML NIL=
201107221545 METAR LMML 221545Z 11010KT CAVOK 28/19 Q1010 NOSIG=
201107221530 METAR LMML NIL=
201107221515 METAR LMML 221515Z 13009KT CAVOK 28/18 Q1010 NOSIG=
201107221500 METAR LMML NIL=
201107221445 METAR LMML 221445Z 12009KT 080V150 CAVOK 29/18 Q1011 NOSIG=
201107221430 METAR LMML NIL=
201107221415 METAR LMML 221415Z 11009KT CAVOK 29/13 Q1011 NOSIG=
201107221345 METAR LMML 221345Z 13009KT 090V180 CAVOK 29/17 Q1011 NOSIG=
201107221330 METAR LMML NIL=
201107221315 METAR LMML 221315Z 08008KT 040V100 CAVOK 31/14 Q1011 NOSIG=
201107221300 METAR LMML NIL=
201107221245 METAR LMML 221245Z 05007KT 010V100 CAVOK 32/12 Q1011 NOSIG=
201107221230 METAR LMML NIL=
201107221215 METAR LMML 221215Z 06007KT 010V110 CAVOK 31/14 Q1011 NOSIG=
201107221200 METAR LMML NIL=
201107221145 METAR LMML 221145Z 07007KT 030V120 CAVOK 30/13 Q1011 NOSIG=
201107221130 METAR LMML NIL=
201107221115 METAR LMML 221115Z 07007KT 020V110 CAVOK 31/15 Q1011 NOSIG=
201107221100 METAR LMML NIL=
201107221045 METAR LMML 221045Z 12006KT 070V150 CAVOK 30/17 Q1011 NOSIG=
201107221030 METAR LMML NIL=
201107221015 METAR LMML 221015Z 12006KT 360V160 CAVOK 30/17 Q1011 NOSIG=
201107221000 METAR LMML NIL=
201107220945 METAR LMML 220945Z 11004KT 050V220 CAVOK 29/15 Q1011 NOSIG=
201107220930 METAR LMML NIL=
201107220915 METAR LMML 220915Z 15004KT 060V200 CAVOK 29/17 Q1011 NOSIG=
201107220900 METAR LMML NIL=
201107220845 METAR LMML 220845Z 14004KT 090V210 CAVOK 28/16 Q1012 NOSIG=
201107220815 METAR LMML 220815Z 17004KT 140V240 CAVOK 28/16 Q1012 NOSIG=
201107220800 METAR LMML NIL=
201107220745 METAR LMML 220745Z 16003KT CAVOK 28/15 Q1011 NOSIG=
201107220730 METAR LMML NIL=
201107220715 METAR LMML 220715Z 17004KT 130V210 CAVOK 27/16 Q1011 NOSIG=
201107220700 METAR LMML NIL=
201107220645 METAR LMML 220645Z 18003KT CAVOK 26/17 Q1011 NOSIG=
201107220630 METAR LMML NIL=
201107220615 METAR LMML 220615Z VRB02KT CAVOK 25/17 Q1011 NOSIG=
201107220600 METAR LMML NIL=
201107220545 METAR LMML 220545Z VRB02KT CAVOK 24/16 Q1010 NOSIG=
201107220530 METAR LMML NIL=
201107220515 METAR LMML 220515Z VRB02KT CAVOK 23/16 Q1010 NOSIG=
201107220500 METAR LMML NIL=
201107220445 METAR LMML 220445Z VRB02KT CAVOK 21/15 Q1011 NOSIG=
201107220430 METAR LMML NIL=
201107220415 METAR LMML 220415Z VRB02KT CAVOK 21/16 Q1011 NOSIG=
201107220345 METAR LMML 220345Z VRB02KT CAVOK 21/16 Q1010 NOSIG=
201107220330 METAR LMML NIL=
201107220315 METAR LMML 220315Z VRB01KT CAVOK 21/16 Q1010 NOSIG=
201107220300 METAR LMML NIL=
201107220245 METAR LMML 220245Z VRB02KT CAVOK 21/16 Q1010 NOSIG=
201107220230 METAR LMML NIL=
201107220215 METAR LMML 220215Z VRB01KT CAVOK 22/17 Q1010 NOSIG=
201107220200 METAR LMML NIL=
201107220145 METAR LMML 220145Z VRB01KT CAVOK 22/17 Q1010 NOSIG=
201107220130 METAR LMML NIL=
201107220115 METAR LMML 220115Z VRB01KT CAVOK 22/17 Q1010 NOSIG=
201107220100 METAR LMML NIL=
201107220045 METAR LMML 220045Z VRB02KT CAVOK 22/17 Q1010 NOSIG=
201107220030 METAR LMML NIL=
201107220015 METAR LMML 220015Z VRB02KT CAVOK 22/18 Q1010 NOSIG=
201107220000 METAR LMML NIL=
201107212345 METAR LMML 212345Z 30003KT CAVOK 22/18 Q1011 NOSIG=
201107212330 METAR LMML NIL=
201107212315 METAR LMML 212315Z 30004KT CAVOK 22/18 Q1012 NOSIG=
201107212300 METAR LMML NIL=
201107212245 METAR LMML 212245Z 29006KT 250V320 CAVOK 23/17 Q1012 NOSIG=
201107212230 METAR LMML NIL=
201107212215 METAR LMML 212215Z 30004KT CAVOK 23/17 Q1012 NOSIG=
201107212200 METAR LMML NIL=
201107212145 METAR LMML 212145Z 30004KT 270V330 CAVOK 23/16 Q1012 NOSIG=
201107212130 METAR LMML NIL=
201107212115 METAR LMML 212115Z 30004KT CAVOK 23/16 Q1012 NOSIG=
201107212100 METAR LMML NIL=
201107212045 METAR LMML 212045Z 33003KT CAVOK 23/16 Q1012 NOSIG=
201107212030 METAR LMML NIL=
201107212015 METAR LMML 212015Z VRB02KT CAVOK 23/15 Q1012 NOSIG=
201107212000 METAR LMML NIL=
201107211945 METAR LMML 211945Z 28006KT 250V310 CAVOK 23/17 Q1012 NOSIG=
201107211930 METAR LMML NIL=
201107211915 METAR LMML 211915Z 27005KT 240V300 CAVOK 23/17 Q1012 NOSIG=
201107211900 METAR LMML NIL=
201107211845 METAR LMML 211845Z 28006KT 240V320 CAVOK 24/16 Q1011 NOSIG=
201107211815 METAR LMML 211815Z 30008KT CAVOK 24/16 Q1011 NOSIG=
201107211800 METAR LMML NIL=
201107211745 METAR LMML 211745Z 33006KT CAVOK 25/16 Q1011 NOSIG=
201107211730 METAR LMML NIL=
201107211715 METAR LMML 211715Z 31010KT 280V340 CAVOK 25/16 Q1011 NOSIG=
201107211700 METAR LMML NIL=
201107211645 METAR LMML 211645Z 31011KT 270V330 CAVOK 26/15 Q1011 NOSIG=
201107211630 METAR LMML NIL=
201107211615 METAR LMML 211615Z 28011KT 250V310 CAVOK 26/15 Q1012 NOSIG=
201107211600 METAR LMML NIL=
201107211545 METAR LMML 211545Z 29012KT 260V320 CAVOK 27/16 Q1011 NOSIG=
201107211530 METAR LMML NIL=
201107211515 METAR LMML 211515Z 30013KT 270V330 CAVOK 27/15 Q1012 NOSIG=
201107211500 METAR LMML NIL=
201107211445 METAR LMML 211445Z 28013KT 250V320 CAVOK 27/16 Q1012 NOSIG=
201107211430 METAR LMML NIL=
201107211415 METAR LMML 211415Z 31015KT 9999 FEW025 28/16 Q1012 NOSIG=
201107211400 METAR LMML NIL=
201107211345 METAR LMML 211345Z 29016KT 9999 FEW025 27/16 Q1012 NOSIG=
201107211330 METAR LMML NIL=
201107211315 METAR LMML 211315Z 30014KT 260V330 9999 FEW025 28/16 Q1012
                        NOSIG=
201107211300 METAR LMML NIL=
201107211245 METAR LMML 211245Z 28014KT 240V310 9999 FEW025 27/16 Q1013
                        NOSIG=
201107211230 METAR LMML NIL=
201107211215 METAR LMML 211215Z 27014KT 200V320 9999 FEW025 27/17 Q1013
                        NOSIG=
201107211200 METAR LMML NIL=
201107211145 METAR LMML 211145Z 26013KT 220V300 9999 FEW025 26/16 Q1013
                        NOSIG=
201107211115 METAR LMML 211115Z 28013KT 220V310 CAVOK 27/16 Q1013 NOSIG=
201107211100 METAR LMML NIL=
201107211045 METAR LMML 211045Z 28012KT 190V350 9999 FEW025 27/16 Q1013
                        NOSIG=
201107211030 METAR LMML NIL=
201107211015 METAR COR LMML 211015Z 30015KT 250V330 9999 FEW025 27/14
                        Q1013 NOSIG=
201107211000 METAR LMML NIL=
201107210945 METAR LMML 210945Z 29014KT 260V320 CAVOK 27/14 Q1013 NOSIG=
201107210930 METAR LMML NIL=
201107210915 METAR LMML 210915Z 28013KT 250V320 CAVOK 27/16 Q1013 NOSIG=
201107210900 METAR LMML NIL=
201107210845 METAR LMML 210845Z 30011KT 9999 FEW020 27/15 Q1013 NOSIG=
201107210830 METAR LMML NIL=
201107210815 METAR LMML 210815Z 30010KT 250V340 CAVOK 27/14 Q1013 NOSIG=
201107210800 METAR LMML NIL=
201107210745 METAR LMML 210745Z 28006KT 250V330 9999 FEW020 26/15 Q1012
                        NOSIG=
201107210730 METAR LMML NIL=
201107210715 METAR LMML 210715Z 31008KT 280V340 9999 FEW020 26/15 Q1012
                        NOSIG=
201107210700 METAR LMML NIL=
201107210645 METAR LMML 210645Z 32008KT 9999 FEW021 25/16 Q1012 NOSIG=
201107210630 METAR LMML NIL=
201107210615 METAR LMML 210615Z 31011KT 9999 FEW021 24/16 Q1012 NOSIG=
201107210600 METAR LMML NIL=
201107210545 METAR LMML 210545Z 30009KT 9999 FEW021 23/16 Q1012 NOSIG=
201107210530 METAR LMML NIL=
201107210515 METAR LMML 210515Z 31009KT 9999 FEW030 23/16 Q1012 NOSIG=
201107210500 METAR LMML NIL=
201107210445 METAR LMML 210445Z 30007KT 9999 FEW030 22/16 Q1011 NOSIG=
201107210430 METAR LMML NIL=
201107210415 METAR LMML 210415Z 30008KT 9999 FEW030 22/16 Q1011 NOSIG=
201107210400 METAR LMML NIL=
201107210345 METAR LMML 210345Z 29006KT CAVOK 22/17 Q1011 NOSIG=
201107210330 METAR LMML NIL=
201107210315 METAR LMML 210315Z 30007KT CAVOK 21/17 Q1011 NOSIG=
201107210300 METAR LMML NIL=
201107210245 METAR LMML 210245Z 30006KT CAVOK 22/17 Q1011 NOSIG=
201107210230 METAR LMML NIL=
201107210215 METAR LMML 210215Z 31008KT CAVOK 22/17 Q1011 NOSIG=
201107210200 METAR LMML NIL=
201107210145 METAR LMML 210145Z 31007KT CAVOK 22/17 Q1011 NOSIG=
201107210130 METAR LMML NIL=
201107210115 METAR LMML 210115Z 32007KT CAVOK 22/17 Q1011 NOSIG=
201107210100 METAR LMML NIL=
201107210045 METAR LMML 210045Z 31008KT CAVOK 22/17 Q1011 NOSIG=
201107210030 METAR LMML NIL=
201107210015 METAR LMML 210015Z 31011KT CAVOK 22/17 Q1011 NOSIG=
201107210000 METAR LMML NIL=
201107202345 METAR LMML 202345Z 31010KT CAVOK 22/17 Q1012 NOSIG=
201107202330 METAR LMML NIL=
201107202315 METAR LMML 202315Z 32011KT CAVOK 22/17 Q1012 NOSIG=
201107202300 METAR LMML NIL=
201107202245 METAR LMML 202245Z 32013KT CAVOK 22/17 Q1012 NOSIG=
201107202230 METAR LMML NIL=
201107202215 METAR LMML 202215Z 32013KT CAVOK 22/17 Q1012 NOSIG=
201107202200 METAR LMML NIL=
201107202145 METAR LMML 202145Z 32013KT 290V350 CAVOK 23/17 Q1012 NOSIG=
201107202130 METAR LMML NIL=
201107202115 METAR LMML 202115Z 31017KT CAVOK 22/17 Q1012 NOSIG=
201107202100 METAR LMML NIL=
201107202045 METAR LMML 202045Z 31016KT CAVOK 23/16 Q1012 NOSIG=
201107202030 METAR LMML NIL=
201107202015 METAR LMML 202015Z 31018KT CAVOK 23/16 Q1012 NOSIG=
201107202000 METAR LMML NIL=
201107201945 METAR LMML 201945Z 31014KT CAVOK 23/16 Q1012 NOSIG=
201107201930 METAR LMML NIL=
201107201915 METAR LMML 201915Z 31018KT CAVOK 23/16 Q1011 NOSIG=
201107201900 METAR LMML NIL=
201107201845 METAR LMML 201845Z 30017KT CAVOK 23/16 Q1011 NOSIG=
201107201830 METAR LMML NIL=
201107201815 METAR LMML 201815Z 30021KT CAVOK 24/16 Q1011 NOSIG=
201107201800 METAR LMML NIL=
201107201745 METAR LMML 201745Z 30023KT CAVOK 24/16 Q1011 NOSIG=
201107201730 METAR LMML NIL=
201107201715 METAR LMML 201715Z 30022KT CAVOK 25/16 Q1010 NOSIG=
201107201700 METAR LMML NIL=
201107201645 METAR LMML 201645Z 30023G33KT CAVOK 25/15 Q1011 NOSIG=
201107201630 METAR LMML NIL=
201107201615 METAR LMML 201615Z 30022KT CAVOK 26/15 Q1010 NOSIG=
201107201600 METAR LMML NIL=
201107201545 METAR LMML 201545Z 30020KT CAVOK 27/14 Q1010 NOSIG=
201107201530 METAR LMML NIL=
201107201515 METAR LMML 201515Z 30021KT CAVOK 27/13 Q1011 NOSIG=
201107201500 METAR LMML NIL=
201107201445 METAR LMML 201445Z 30021KT CAVOK 27/15 Q1011 NOSIG=
201107201430 METAR LMML NIL=
201107201415 METAR LMML 201415Z 30021KT CAVOK 28/14 Q1011 NOSIG=
201107201400 METAR LMML NIL=
201107201345 METAR LMML 201345Z 30020KT CAVOK 29/13 Q1011 NOSIG=
201107201330 METAR LMML NIL=
201107201315 METAR LMML 201315Z 30021KT CAVOK 28/13 Q1011 NOSIG=
201107201300 METAR LMML NIL=
201107201245 METAR LMML 201245Z 30021KT CAVOK 29/14 Q1011 NOSIG=
201107201230 METAR LMML NIL=
201107201215 METAR LMML 201215Z 31024KT CAVOK 29/13 Q1011 NOSIG=
201107201200 METAR LMML NIL=
201107201145 METAR LMML 201145Z 31022KT CAVOK 29/14 Q1011 NOSIG=
201107201130 METAR LMML NIL=
201107201115 METAR LMML 201115Z 30021KT CAVOK 30/12 Q1011 NOSIG=
201107201100 METAR LMML NIL=
201107201045 METAR LMML 201045Z 31021KT CAVOK 31/13 Q1011 NOSIG=
201107201030 METAR LMML NIL=
201107201015 METAR LMML 201015Z 32020KT CAVOK 30/16 Q1011 NOSIG=
201107201000 METAR LMML NIL=
201107200945 METAR LMML 200945Z 32021KT CAVOK 30/18 Q1011 NOSIG=
201107200930 METAR LMML NIL=
201107200915 METAR LMML 200915Z 31020KT 280V340 CAVOK 30/19 Q1010 NOSIG=
201107200900 METAR LMML NIL=
201107200845 METAR LMML 200845Z 32018KT CAVOK 29/18 Q1010 NOSIG=
201107200830 METAR LMML NIL=
201107200815 METAR LMML 200815Z 31017KT CAVOK 29/19 Q1010 NOSIG=
201107200800 METAR LMML NIL=
201107200745 METAR LMML 200745Z 32019KT CAVOK 28/19 Q1010 NOSIG=
201107200730 METAR LMML NIL=
201107200715 METAR LMML 200715Z 32018KT 280V340 CAVOK 28/19 Q1010 NOSIG=
201107200700 METAR LMML NIL=
201107200645 METAR LMML 200645Z 32016KT CAVOK 27/19 Q1010 NOSIG=
201107200630 METAR LMML NIL=
201107200615 METAR LMML 200615Z 32014KT CAVOK 27/19 Q1010 NOSIG=
201107200600 METAR LMML NIL=
201107200545 METAR LMML 200545Z 32014KT CAVOK 26/19 Q1010 NOSIG=
201107200530 METAR LMML NIL=
201107200515 METAR LMML 200515Z 32011KT 280V350 CAVOK 25/19 Q1010 NOSIG=
201107200445 METAR LMML 200445Z 31013KT CAVOK 25/18 Q1009 NOSIG=
201107200430 METAR LMML NIL=
201107200415 METAR LMML 200415Z 31013KT CAVOK 25/18 Q1009 NOSIG=
201107200400 METAR LMML NIL=
201107200345 METAR LMML 200345Z 32013KT CAVOK 26/18 Q1009 NOSIG=
201107200330 METAR LMML NIL=
201107200315 METAR LMML 200315Z 32006KT CAVOK 25/17 Q1008 NOSIG=
201107200300 METAR LMML NIL=
201107200245 METAR LMML 200245Z 33008KT CAVOK 26/17 Q1008 NOSIG=
201107200230 METAR LMML NIL=
201107200215 METAR LMML 200215Z 33012KT CAVOK 26/16 Q1009 NOSIG=
201107200200 METAR LMML NIL=
201107200145 METAR LMML 200145Z 32009KT CAVOK 26/18 Q1009 NOSIG=
201107200130 METAR LMML NIL=
201107200115 METAR LMML 200115Z 31009G19KT CAVOK 26/21 Q1009 NOSIG=
201107200100 METAR LMML NIL=
201107200045 METAR LMML 200045Z 30005KT CAVOK 26/20 Q1009 NOSIG=
201107200030 METAR LMML NIL=
201107200015 METAR LMML 200015Z 24005KT 210V290 CAVOK 26/21 Q1008 NOSIG=
201107200000 METAR LMML NIL=
201107192345 METAR LMML 192345Z 31004KT 280V340 CAVOK 26/21 Q1008 NOSIG=
201107192330 METAR LMML NIL=
201107192315 METAR LMML 192315Z VRB02KT CAVOK 27/21 Q1008 NOSIG=
201107192245 METAR LMML 192245Z 13003KT CAVOK 27/21 Q1008 NOSIG=
201107192230 METAR LMML NIL=
201107192215 METAR LMML 192215Z 34003KT CAVOK 27/22 Q1009 NOSIG=
201107192200 METAR LMML NIL=
201107192145 METAR LMML 192145Z 33008KT CAVOK 27/22 Q1009 NOSIG=
201107192130 METAR LMML NIL=
201107192115 METAR LMML 192115Z 31003KT CAVOK 27/22 Q1009 NOSIG=
201107192100 METAR LMML NIL=
201107192045 METAR LMML 192045Z 00000KT CAVOK 27/23 Q1009 NOSIG=
201107192015 METAR LMML 192015Z VRB02KT CAVOK 27/23 Q1009 NOSIG=
201107192000 METAR LMML NIL=
201107191945 METAR LMML 191945Z 13003KT CAVOK 27/23 Q1008 NOSIG=
201107191930 METAR LMML NIL=
201107191915 METAR LMML 191915Z 13004KT CAVOK 28/23 Q1008 NOSIG=
201107191845 METAR LMML 191845Z 13003KT CAVOK 29/21 Q1008 NOSIG=
201107191815 METAR LMML 191815Z 13003KT CAVOK 29/21 Q1008 NOSIG=
201107191800 METAR LMML NIL=
201107191745 METAR LMML 191745Z 17003KT CAVOK 30/19 Q1008 NOSIG=
201107191730 METAR LMML NIL=
201107191715 METAR LMML 191715Z 20003KT CAVOK 30/19 Q1008 NOSIG=
201107191700 METAR LMML NIL=
201107191645 METAR LMML 191645Z 19005KT 160V230 CAVOK 31/19 Q1008 NOSIG=
201107191630 METAR LMML NIL=
201107191615 METAR LMML 191615Z 20005KT 170V250 CAVOK 31/19 Q1008 NOSIG=
201107191600 METAR LMML NIL=
201107191545 METAR LMML 191545Z 20005KT 150V240 CAVOK 31/19 Q1008 NOSIG=
201107191530 METAR LMML NIL=
201107191515 METAR LMML 191515Z 19007KT 150V230 CAVOK 32/19 Q1008 NOSIG=
201107191500 METAR LMML NIL=
201107191445 METAR LMML 191445Z 18006KT 150V240 CAVOK 33/14 Q1008 NOSIG=
201107191430 METAR LMML NIL=
201107191415 METAR LMML 191415Z 19006KT 160V230 CAVOK 33/15 Q1008 NOSIG=
201107191400 METAR LMML NIL=
201107191345 METAR LMML 191345Z 19006KT 140V260 CAVOK 34/16 Q1009 NOSIG=
201107191330 METAR LMML NIL=
201107191315 METAR LMML 191315Z 18006KT 140V220 CAVOK 34/11 Q1008 NOSIG=
201107191300 METAR LMML NIL=
201107191245 METAR LMML 191245Z 17007KT 120V220 CAVOK 34/10 Q1008 NOSIG=
201107191230 METAR LMML NIL=
201107191215 METAR LMML 191215Z 16006KT 130V190 CAVOK 35/11 Q1009 NOSIG=
201107191200 METAR LMML NIL=
201107191145 METAR LMML 191145Z 18004KT 140V220 CAVOK 35/13 Q1009 NOSIG=
201107191130 METAR LMML NIL=
201107191115 METAR LMML 191115Z 12006KT 080V160 CAVOK 34/15 Q1009 NOSIG=
201107191100 METAR LMML NIL=
201107191045 METAR LMML 191045Z 13004KT 050V180 CAVOK 34/14 Q1009 NOSIG=
201107191030 METAR LMML NIL=
201107191015 METAR LMML 191015Z 11006KT 060V190 CAVOK 34/15 Q1009 NOSIG=
201107191000 METAR LMML NIL=
201107190945 METAR LMML 190945Z 19003KT CAVOK 34/14 Q1009 NOSIG=
201107190930 METAR LMML NIL=
201107190915 METAR LMML 190915Z 19003KT CAVOK 34/14 Q1009 NOSIG=
201107190900 METAR LMML NIL=
201107190845 METAR LMML 190845Z VRB02KT CAVOK 34/14 Q1009 NOSIG=
201107190815 METAR LMML 190815Z 02004KT 340V060 CAVOK 34/14 Q1009 NOSIG=
201107190800 METAR LMML NIL=
201107190745 METAR LMML 190745Z VRB02KT CAVOK 32/13 Q1009 NOSIG=
201107190730 METAR LMML NIL=
201107190715 METAR LMML 190715Z VRB02KT CAVOK 31/15 Q1009 NOSIG=
201107190700 METAR LMML NIL=
201107190645 METAR LMML 190645Z 22003KT CAVOK 30/16 Q1009 NOSIG=
201107190630 METAR LMML NIL=
201107190615 METAR LMML 190615Z 21003KT CAVOK 29/18 Q1009 NOSIG=
201107190600 METAR LMML NIL=
201107190545 METAR LMML 190545Z 21003KT CAVOK 28/15 Q1009 NOSIG=
201107190530 METAR LMML NIL=
201107190515 METAR LMML 190515Z VRB02KT CAVOK 27/15 Q1009 NOSIG=
201107190500 METAR LMML NIL=
201107190445 METAR LMML 190445Z VRB02KT CAVOK 25/15 Q1008 NOSIG=
201107190430 METAR LMML NIL=
201107190415 METAR LMML 190415Z VRB02KT CAVOK 25/14 Q1008 NOSIG=
201107190400 METAR LMML NIL=
201107190345 METAR LMML 190345Z VRB02KT CAVOK 25/14 Q1008 NOSIG=
201107190330 METAR LMML NIL=
201107190315 METAR LMML 190315Z 30003KT CAVOK 26/14 Q1008 NOSIG=
201107190300 METAR LMML NIL=
201107190245 METAR LMML 190245Z 30003KT CAVOK 26/14 Q1008 NOSIG=
201107190230 METAR LMML NIL=
201107190215 METAR LMML 190215Z 27004KT CAVOK 26/14 Q1008 NOSIG=
201107190200 METAR LMML NIL=
201107190145 METAR LMML 190145Z 26003KT CAVOK 25/17 Q1008 NOSIG=
201107190130 METAR LMML NIL=
201107190115 METAR LMML 190115Z VRB02KT CAVOK 26/18 Q1008 NOSIG=
201107190100 METAR LMML NIL=
201107190045 METAR LMML 190045Z VRB01KT CAVOK 26/20 Q1008 NOSIG=
201107190030 METAR LMML NIL=
201107190015 METAR LMML 190015Z 30003KT CAVOK 26/20 Q1008 NOSIG=
201107190000 METAR LMML NIL=
201107182345 METAR LMML 182345Z 29004KT CAVOK 26/21 Q1008 NOSIG=
201107182330 METAR LMML NIL=
201107182315 METAR LMML 182315Z 32004KT CAVOK 26/20 Q1008 NOSIG=
201107182300 METAR LMML NIL=
201107182245 METAR LMML 182245Z 33003KT CAVOK 26/20 Q1009 NOSIG=
201107182230 METAR LMML NIL=
201107182215 METAR LMML 182215Z 33004KT CAVOK 26/21 Q1009 NOSIG=
201107182145 METAR LMML 182145Z 33004KT 290V020 CAVOK 26/21 Q1009 NOSIG=
201107182130 METAR LMML NIL=
201107182115 METAR LMML 182115Z 34005KT 290V010 CAVOK 27/20 Q1009 NOSIG=
201107182100 METAR LMML NIL=
201107182045 METAR LMML 182045Z 33006KT CAVOK 27/21 Q1009 NOSIG=
201107182030 METAR LMML NIL=
201107182015 METAR LMML 182015Z 33007KT CAVOK 27/21 Q1009 NOSIG=
201107181945 METAR LMML 181945Z 34006KT CAVOK 27/22 Q1009 NOSIG=
201107181930 METAR LMML NIL=
201107181915 METAR LMML 181915Z 36004KT 320V030 CAVOK 28/23 Q1008 NOSIG=
201107181900 METAR LMML NIL=
201107181845 METAR LMML 181845Z 02003KT CAVOK 29/23 Q1008 NOSIG=
201107181830 METAR LMML NIL=
201107181815 METAR LMML 181815Z 31004KT CAVOK 30/19 Q1008 NOSIG=
201107181800 METAR LMML NIL=
201107181745 METAR LMML 181745Z 31006KT CAVOK 31/17 Q1008 NOSIG=
201107181730 METAR LMML NIL=
201107181715 METAR LMML 181715Z 33007KT CAVOK 32/18 Q1008 NOSIG=
201107181700 METAR LMML NIL=
201107181645 METAR LMML 181645Z 08004KT CAVOK 33/21 Q1008 NOSIG=
201107181630 METAR LMML NIL=
201107181615 METAR LMML 181615Z 21004KT 160V260 CAVOK 33/21 Q1008 NOSIG=
201107181600 METAR LMML NIL=
201107181545 METAR LMML 181545Z 21005KT 170V280 CAVOK 33/22 Q1008 NOSIG=
201107181530 METAR LMML NIL=
201107181515 METAR LMML 181515Z 20004KT 160V260 CAVOK 34/22 Q1008 NOSIG=
201107181500 METAR LMML NIL=
201107181445 METAR LMML 181445Z 19004KT 160V230 CAVOK 34/22 Q1008 NOSIG=
201107181430 METAR LMML NIL=
201107181415 METAR LMML 181415Z 19004KT 150V230 CAVOK 34/22 Q1008 NOSIG=
201107181400 METAR LMML NIL=
201107181345 METAR LMML 181345Z 21004KT 180V270 CAVOK 34/23 Q1008 NOSIG=
201107181330 METAR LMML NIL=
201107181315 METAR LMML 181315Z 07006KT 020V170 CAVOK 36/18 Q1008 NOSIG=
201107181300 METAR LMML NIL=
201107181245 METAR LMML 181245Z VRB02KT CAVOK 35/22 Q1008 NOSIG=
201107181230 METAR LMML NIL=
201107181215 METAR LMML 181215Z 22005KT 160V290 CAVOK 33/22 Q1008 NOSIG=
201107181200 METAR LMML NIL=
201107181145 METAR LMML 181145Z 20006KT 160V270 CAVOK 33/22 Q1008 NOSIG=
201107181130 METAR LMML NIL=
201107181115 METAR LMML 181115Z 20005KT 160V280 CAVOK 33/20 Q1008 NOSIG=
201107181100 METAR LMML NIL=
201107181045 METAR LMML 181045Z 19006KT 130V250 CAVOK 33/20 Q1008 NOSIG=
201107181030 METAR LMML NIL=
201107181015 METAR LMML 181015Z 10005KT CAVOK 34/20 Q1008 NOSIG=
201107181000 METAR LMML NIL=
201107180945 METAR LMML 180945Z 09008KT 050V150 CAVOK 35/20 Q1008 NOSIG=
201107180930 METAR LMML NIL=
201107180915 METAR LMML 180915Z 36005KT 230V090 CAVOK 37/19 Q1008 NOSIG=
201107180900 METAR LMML NIL=
201107180845 METAR LMML 180845Z 19004KT CAVOK 36/13 Q1008 NOSIG=
201107180830 METAR LMML NIL=
201107180815 METAR LMML 180815Z 24007KT 200V280 CAVOK 35/14 Q1008 NOSIG=
201107180800 METAR LMML NIL=
201107180745 METAR LMML 180745Z 28005KT 210V320 CAVOK 35/13 Q1008 NOSIG=
201107180730 METAR LMML NIL=
201107180715 METAR LMML 180715Z 26008KT 220V310 CAVOK 34/15 Q1008 NOSIG=
201107180700 METAR LMML NIL=
201107180645 METAR LMML 180645Z 24007KT 210V290 CAVOK 32/17 Q1008 NOSIG=
201107180630 METAR LMML NIL=
201107180615 METAR LMML 180615Z 24006KT 200V280 CAVOK 30/19 Q1008 NOSIG=
201107180600 METAR LMML NIL=
201107180545 METAR LMML 180545Z 22007KT 180V280 CAVOK 30/19 Q1008 NOSIG=
201107180530 METAR LMML NIL=
201107180515 METAR LMML 180515Z 22007KT 190V260 CAVOK 29/19 Q1008 NOSIG=
201107180500 METAR LMML NIL=
201107180445 METAR LMML 180445Z 23005KT 170V290 CAVOK 28/18 Q1008=
201107180430 METAR LMML NIL=
201107180415 METAR LMML 180415Z 23005KT 190V290 CAVOK 27/19 Q1008 NOSIG=
201107180400 METAR LMML NIL=
201107180345 METAR LMML 180345Z 22007KT 180V260 CAVOK 27/21 Q1008 NOSIG=
201107180330 METAR LMML NIL=
201107180315 METAR LMML 180315Z 21005KT 160V260 CAVOK 26/23 Q1008 NOSIG=
201107180300 METAR LMML NIL=
201107180245 METAR LMML 180245Z 21005KT 160V270 CAVOK 26/22 Q1008 NOSIG=
201107180230 METAR LMML NIL=
201107180215 METAR LMML 180215Z 21006KT 160V250 CAVOK 26/22 Q1008 NOSIG=
201107180200 METAR LMML NIL=
201107180145 METAR LMML 180145Z 20006KT 170V250 CAVOK 26/22 Q1008 NOSIG=
201107180130 METAR LMML NIL=
201107180115 METAR LMML 180115Z 20006KT 170V230 CAVOK 26/22 Q1008 NOSIG=
201107180100 METAR LMML NIL=
201107180045 METAR LMML 180045Z 20005KT 160V280 CAVOK 26/23 Q1008 NOSIG=
201107180030 METAR LMML NIL=
201107180015 METAR LMML 180015Z 20006KT 160V240 CAVOK 26/23 Q1009 NOSIG=
201107180000 METAR LMML NIL=
201107172345 METAR LMML 172345Z 20005KT 170V260 CAVOK 26/23 Q1009 NOSIG=
201107172330 METAR LMML NIL=
201107172315 METAR LMML 172315Z 19007KT CAVOK 26/22 Q1009 NOSIG=
201107172300 METAR LMML NIL=
201107172245 METAR LMML 172245Z 20005KT CAVOK 26/23 Q1009 NOSIG=
201107172230 METAR LMML NIL=
201107172215 METAR LMML 172215Z 21004KT 170V270 CAVOK 26/23 Q1010 NOSIG=
201107172145 METAR LMML 172145Z 20004KT 170V260 CAVOK 26/23 Q1010 NOSIG=
201107172130 METAR LMML NIL=
201107172115 METAR LMML 172115Z 21005KT 180V260 CAVOK 26/23 Q1010 NOSIG=
201107172100 METAR LMML NIL=
201107172045 METAR LMML 172045Z 20005KT 160V240 CAVOK 26/23 Q1010 NOSIG=
201107172030 METAR LMML NIL=
201107172015 METAR LMML 172015Z 20005KT 170V240 CAVOK 26/22 Q1010 NOSIG=
201107172000 METAR LMML NIL=
201107171945 METAR LMML 171945Z 20005KT 170V240 CAVOK 26/22 Q1010 NOSIG=
201107171930 METAR LMML NIL=
201107171915 METAR LMML 171915Z 20005KT 170V250 CAVOK 26/21 Q1010 NOSIG=
201107171900 METAR LMML NIL=
201107171845 METAR LMML 171845Z 20005KT 160V250 CAVOK 27/21 Q1009 NOSIG=
201107171830 METAR LMML NIL=
201107171815 METAR LMML 171815Z 20005KT 170V240 CAVOK 27/20 Q1009 NOSIG=
201107171800 METAR LMML NIL=
201107171745 METAR LMML 171745Z 20006KT 170V230 CAVOK 28/19 Q1009 NOSIG=
201107171730 METAR LMML NIL=
201107171715 METAR LMML 171715Z 20006KT 170V230 CAVOK 28/18 Q1009 NOSIG=
201107171700 METAR LMML NIL=
201107171645 METAR LMML 171645Z 20007KT 160V240 CAVOK 29/18 Q1010 NOSIG=
201107171630 METAR LMML NIL=
201107171615 METAR LMML 171615Z 21006KT 170V260 CAVOK 29/18 Q1010 NOSIG=
201107171600 METAR LMML NIL=
201107171545 METAR LMML 171545Z 22006KT 160V280 CAVOK 30/18 Q1010 NOSIG=
201107171530 METAR LMML NIL=
201107171515 METAR LMML 171515Z 22007KT 160V270 CAVOK 30/17 Q1010 NOSIG=
201107171500 METAR LMML NIL=
201107171445 METAR LMML 171445Z 23008KT 180V270 CAVOK 31/16 Q1010 NOSIG=
201107171430 METAR LMML NIL=
201107171415 METAR LMML 171415Z 23008KT 210V280 CAVOK 31/17 Q1011 NOSIG=
201107171345 METAR LMML 171345Z 22009KT 200V260 CAVOK 30/18 Q1011 NOSIG=
201107171330 METAR LMML NIL=
201107171315 METAR LMML 171315Z 22009KT 190V280 CAVOK 31/17 Q1011 NOSIG=
201107171300 METAR LMML NIL=
201107171245 METAR LMML 171245Z 22009KT 180V260 CAVOK 30/19 Q1011 NOSIG=
201107171230 METAR LMML NIL=
201107171215 METAR LMML 171215Z 22009KT 190V260 CAVOK 30/19 Q1012 NOSIG=
201107171200 METAR LMML NIL=
201107171145 METAR LMML 171145Z 22010KT 200V260 CAVOK 30/20 Q1012 NOSIG=
201107171130 METAR LMML NIL=
201107171115 METAR LMML 171115Z 22008KT CAVOK 31/18 Q1012 NOSIG=
201107171100 METAR LMML NIL=
201107171045 METAR LMML 171045Z 23006KT 190V280 CAVOK 33/17 Q1012 NOSIG=
201107171030 METAR LMML NIL=
201107171015 METAR LMML 171015Z 22007KT 200V260 CAVOK 32/16 Q1012 NOSIG=
201107171000 METAR LMML NIL=
201107170945 METAR LMML 170945Z 22005KT 170V270 CAVOK 33/15 Q1012 NOSIG=
201107170930 METAR LMML NIL=
201107170915 METAR LMML 170915Z 22006KT 190V270 CAVOK 32/15 Q1012 NOSIG=
201107170900 METAR LMML NIL=
201107170845 METAR LMML 170845Z 25004KT 180V340 CAVOK 33/15 Q1012 NOSIG=
201107170830 METAR LMML NIL=
201107170815 METAR LMML 170815Z 25005KT 210V300 CAVOK 32/15 Q1012 NOSIG=
201107170800 METAR LMML NIL=
201107170745 METAR LMML 170745Z 27007KT 210V310 CAVOK 31/15 Q1012 NOSIG=
201107170730 METAR LMML NIL=
201107170715 METAR LMML 170715Z 30005KT 270V350 CAVOK 30/16 Q1012 NOSIG=
201107170700 METAR LMML NIL=
201107170645 METAR LMML 170645Z 31003KT CAVOK 29/17 Q1012 NOSIG=
201107170630 METAR LMML NIL=
201107170615 METAR LMML 170615Z 31004KT 240V350 CAVOK 29/16 Q1012 NOSIG=
201107170600 METAR LMML NIL=
201107170545 METAR LMML 170545Z 31004KT CAVOK 27/17 Q1012 NOSIG=
201107170530 METAR LMML NIL=
201107170515 METAR LMML 170515Z 29006KT 270V340 CAVOK 27/15 Q1012 NOSIG=
201107170500 METAR LMML NIL=
201107170445 METAR LMML 170445Z 29004KT 250V320 CAVOK 26/15 Q1012 NOSIG=
201107170430 METAR LMML NIL=
201107170415 METAR LMML 170415Z 29004KT 260V330 CAVOK 25/15 Q1012 NOSIG=
201107170400 METAR LMML NIL=
201107170345 METAR LMML 170345Z 31003KT CAVOK 25/16 Q1012 NOSIG=
201107170330 METAR LMML NIL=
201107170315 METAR LMML 170315Z 29003KT CAVOK 25/16 Q1012 NOSIG=
201107170300 METAR LMML NIL=
201107170245 METAR LMML 170245Z 29004KT 260V320 CAVOK 26/15 Q1012 NOSIG=
201107170230 METAR LMML NIL=
201107170215 METAR LMML 170215Z 26003KT CAVOK 25/15 Q1012 NOSIG=
201107170200 METAR LMML NIL=
201107170145 METAR LMML 170145Z 27004KT 230V310 CAVOK 25/15 Q1012 NOSIG=
201107170130 METAR LMML NIL=
201107170115 METAR LMML 170115Z 27003KT CAVOK 26/14 Q1013 NOSIG=
201107170100 METAR LMML NIL=
201107170045 METAR LMML 170045Z VRB02KT CAVOK 26/14 Q1013 NOSIG=
201107170030 METAR LMML NIL=
201107170015 METAR LMML 170015Z VRB01KT CAVOK 26/14 Q1013 NOSIG=
201107170000 METAR LMML NIL=
201107162345 METAR LMML 162345Z 30003KT CAVOK 26/14 Q1013 NOSIG=
201107162330 METAR LMML NIL=
201107162315 METAR LMML 162315Z VRB02KT CAVOK 26/14 Q1013 NOSIG=
201107162300 METAR LMML NIL=
201107162245 METAR LMML 162245Z 31005KT CAVOK 26/12 Q1013 NOSIG=
201107162230 METAR LMML NIL=
201107162215 METAR LMML 162215Z 31003KT CAVOK 26/12 Q1013 NOSIG=
201107162200 METAR LMML NIL=
201107162145 METAR LMML 162145Z 32003KT CAVOK 26/14 Q1013 NOSIG=
201107162130 METAR LMML NIL=
201107162115 METAR LMML 162115Z 31005KT 280V340 CAVOK 25/16 Q1014 NOSIG=
201107162100 METAR LMML NIL=
201107162045 METAR LMML 162045Z 31006KT CAVOK 26/18 Q1014 NOSIG=
201107162030 METAR LMML NIL=
201107162015 METAR LMML 162015Z 31008KT CAVOK 26/18 Q1014 NOSIG=
201107162000 METAR LMML NIL=
201107161945 METAR LMML 161945Z 30005KT CAVOK 26/18 Q1014 NOSIG=
201107161930 METAR LMML NIL=
201107161915 METAR LMML 161915Z 31008KT CAVOK 26/19 Q1014 NOSIG=
201107161900 METAR LMML NIL=
201107161845 METAR LMML 161845Z 32007KT CAVOK 27/16 Q1014 NOSIG=
201107161830 METAR LMML NIL=
201107161815 METAR LMML 161815Z 31006KT CAVOK 28/15 Q1013 NOSIG=
201107161800 METAR LMML NIL=
201107161745 METAR LMML 161745Z 31005KT CAVOK 30/11 Q1013 NOSIG=
201107161730 METAR LMML NIL=
201107161715 METAR LMML 161715Z 31005KT 280V350 CAVOK 31/12 Q1013 NOSIG=
201107161700 METAR LMML NIL=
201107161645 METAR LMML 161645Z VRB02KT CAVOK 32/22 Q1013 NOSIG=
201107161630 METAR LMML NIL=
201107161615 METAR LMML 161615Z 32005KT 270V350 CAVOK 33/14 Q1013 NOSIG=
201107161600 METAR LMML NIL=
201107161545 METAR LMML 161545Z 35005KT 280V030 CAVOK 33/17 Q1013 NOSIG=
201107161530 METAR LMML NIL=
201107161515 METAR LMML 161515Z 04003KT CAVOK 33/21 Q1014 NOSIG=
201107161500 METAR LMML NIL=
201107161445 METAR LMML 161445Z 04006KT 360V080 CAVOK 33/21 Q1014 NOSIG=
201107161430 METAR LMML NIL=
201107161415 METAR LMML 161415Z 02005KT 340V060 CAVOK 34/22 Q1014 NOSIG=
201107161400 METAR LMML NIL=
201107161345 METAR LMML 161345Z 05005KT 350V110 CAVOK 34/22 Q1014 NOSIG=
201107161330 METAR LMML NIL=
201107161315 METAR LMML 161315Z 04004KT 340V100 CAVOK 34/22 Q1015 NOSIG=
201107161300 METAR LMML NIL=
201107161245 METAR LMML 161245Z 26003KT CAVOK 34/22 Q1015 NOSIG=
201107161230 METAR LMML NIL=
201107161215 METAR LMML 161215Z 23007KT 200V280 CAVOK 33/16 Q1015 NOSIG=
201107161200 METAR LMML NIL=
201107161145 METAR LMML 161145Z 34003KT CAVOK 32/23 Q1015 NOSIG=
201107161130 METAR LMML NIL=
201107161115 METAR LMML 161115Z 01005KT 330V050 CAVOK 33/23 Q1016 NOSIG=
201107161045 METAR LMML 161045Z 24005KT 180V320 9999 FEW020 32/19 Q1016
                        NOSIG=
201107161030 METAR LMML NIL=
201107161015 METAR LMML 161015Z 22006KT 150V300 9999 FEW020 31/21 Q1016
                        NOSIG=
201107161000 METAR LMML NIL=
201107160945 METAR LMML 160945Z 22006KT 180V270 9999 FEW020 29/21 Q1016
                        NOSIG=
201107160930 METAR LMML NIL=
201107160915 METAR LMML 160915Z 21006KT 170V270 9999 FEW020 29/22 Q1016
                        NOSIG=
201107160845 METAR LMML 160845Z 19006KT 150V240 CAVOK 29/22 Q1016 NOSIG=
201107160830 METAR LMML NIL=
201107160815 METAR LMML 160815Z 19004KT 130V330 CAVOK 30/22 Q1016 NOSIG=
201107160800 METAR LMML NIL=
201107160745 METAR LMML 160745Z 18003KT CAVOK 29/21 Q1015 NOSIG=
201107160730 METAR LMML NIL=
201107160715 METAR LMML 160715Z 16003KT CAVOK 28/21 Q1015 NOSIG=
201107160700 METAR LMML NIL=
201107160645 METAR LMML 160645Z 19003KT CAVOK 28/22 Q1016 NOSIG=
201107160630 METAR LMML NIL=
201107160615 METAR LMML 160615Z VRB02KT CAVOK 27/21 Q1015 NOSIG=
201107160600 METAR LMML NIL=
201107160545 METAR LMML 160545Z VRB02KT CAVOK 27/21 Q1015 NOSIG=
201107160530 METAR LMML NIL=
201107160515 METAR LMML 160515Z VRB02KT CAVOK 26/21 Q1015 NOSIG=
201107160500 METAR LMML NIL=
201107160445 METAR LMML 160445Z 15003KT CAVOK 25/20 Q1014 NOSIG=
201107160430 METAR LMML NIL=
201107160415 METAR LMML 160415Z 13003KT CAVOK 25/20 Q1014 NOSIG=
201107160400 METAR LMML NIL=
201107160345 METAR LMML 160345Z VRB01KT CAVOK 24/19 Q1014 NOSIG=
201107160330 METAR LMML NIL=
201107160315 METAR LMML 160315Z VRB01KT CAVOK 25/19 Q1014 NOSIG=
201107160300 METAR LMML NIL=
201107160245 METAR LMML 160245Z 00000KT CAVOK 24/19 Q1015 NOSIG=
201107160230 METAR LMML NIL=
201107160215 METAR LMML 160215Z VRB01KT CAVOK 24/19 Q1015 NOSIG=
201107160200 METAR LMML NIL=
201107160145 METAR LMML 160145Z VRB01KT CAVOK 25/19 Q1015 NOSIG=
201107160130 METAR LMML NIL=
201107160115 METAR LMML 160115Z VRB01KT CAVOK 25/18 Q1015 NOSIG=
201107160100 METAR LMML NIL=
201107160045 METAR LMML 160045Z VRB01KT CAVOK 25/18 Q1015 NOSIG=
201107160030 METAR LMML NIL=
201107160015 METAR LMML 160015Z VRB02KT CAVOK 26/19 Q1015 NOSIG=
201107160000 METAR LMML NIL=
201107152345 METAR LMML 152345Z VRB02KT CAVOK 26/19 Q1015 NOSIG=
201107152315 METAR LMML 152315Z VRB02KT CAVOK 25/19 Q1016 NOSIG=
201107152245 METAR LMML 152245Z VRB01KT CAVOK 26/18 Q1016 NOSIG=
201107152215 METAR LMML 152215Z VRB01KT CAVOK 26/18 Q1016 NOSIG=
201107152200 METAR LMML NIL=
201107152145 METAR LMML 152145Z VRB02KT CAVOK 26/18 Q1016 NOSIG=
201107152115 METAR LMML 152115Z VRB01KT CAVOK 26/19 Q1016 NOSIG=
201107152045 METAR LMML 152045Z VRB02KT CAVOK 26/20 Q1016 NOSIG=
201107152030 METAR LMML NIL=
201107152015 METAR LMML 152015Z 01003KT CAVOK 27/19 Q1016 NOSIG=
201107152000 METAR LMML NIL=
201107151945 METAR LMML 151945Z VRB02KT CAVOK 27/18 Q1015 NOSIG=
201107151930 METAR LMML NIL=
201107151915 METAR LMML 151915Z 31003KT CAVOK 27/18 Q1015 NOSIG=
201107151900 METAR LMML NIL=
201107151845 METAR LMML 151845Z 32004KT CAVOK 27/18 Q1015 NOSIG=
201107151830 METAR LMML NIL=
201107151815 METAR LMML 151815Z 31006KT CAVOK 27/19 Q1015 NOSIG=
201107151800 METAR LMML NIL=
201107151745 METAR LMML 151745Z 33006KT 280V010 CAVOK 28/19 Q1015 NOSIG=
201107151730 METAR LMML NIL=
201107151715 METAR LMML 151715Z 34007KT 300V010 CAVOK 28/21 Q1015 NOSIG=
201107151645 METAR LMML 151645Z 33007KT 300V360 CAVOK 29/21 Q1015 NOSIG=
201107151630 METAR LMML NIL=
201107151615 METAR LMML 151615Z 30008KT CAVOK 30/21 Q1015 NOSIG=
201107151600 METAR LMML NIL=
201107151545 METAR LMML 151545Z 31007KT 280V340 CAVOK 31/21 Q1015 NOSIG=
201107151530 METAR LMML NIL=
201107151515 METAR LMML 151515Z 35004KT 290V100 CAVOK 32/22 Q1015 NOSIG=
201107151500 METAR LMML NIL=
201107151445 METAR LMML 151445Z 03005KT 360V070 9999 FEW025 32/22 Q1015
                        NOSIG=
201107151430 METAR LMML NIL=
201107151415 METAR LMML 151415Z 05005KT 340V130 9999 FEW025 32/22 Q1015
                        NOSIG=
201107151345 METAR LMML 151345Z 02003KT 9999 FEW025 32/22 Q1015 NOSIG=
201107151330 METAR LMML NIL=
201107151315 METAR LMML 151315Z 02005KT 320V070 9999 FEW025 33/22 Q1015
                        NOSIG=
201107151245 METAR LMML 151245Z 01004KT 9999 FEW025 32/22 Q1015 NOSIG=
201107151230 METAR LMML NIL=
201107151215 METAR LMML 151215Z 09003KT 9999 FEW025 31/23 Q1016 NOSIG=
201107151145 METAR LMML 151145Z 03005KT 340V080 9999 FEW025 33/23 Q1016
                        NOSIG=
201107151115 METAR LMML 151115Z 06006KT 020V120 9999 FEW027 31/23 Q1016
                        NOSIG=
201107151100 METAR LMML NIL=
201107151045 METAR LMML 151045Z 10004KT 040V160 9999 FEW019 30/23 Q1016
                        NOSIG=
201107151030 METAR LMML NIL=
201107151015 METAR LMML 151015Z 06004KT 360V120 9999 FEW017 30/23 Q1016
                        NOSIG=
201107151000 METAR LMML NIL=
201107150945 METAR LMML 150945Z 05004KT 340V160 9999 FEW016 31/23 Q1016
                        NOSIG=
201107150930 METAR LMML NIL=
201107150915 METAR LMML 150915Z 11004KT 040V160 9999 FEW014 29/23 Q1016
                        NOSIG=
201107150900 METAR LMML NIL=
201107150845 METAR LMML 150845Z 09006KT 040V130 9999 FEW015 30/23 Q1016
                        NOSIG=
201107150830 METAR LMML NIL=
201107150815 METAR LMML 150815Z VRB01KT 9999 FEW014 29/22 Q1016 NOSIG=
201107150800 METAR LMML NIL=
201107150745 METAR LMML 150745Z VRB02KT 9999 FEW014 29/22 Q1016 NOSIG=
201107150730 METAR LMML NIL=
201107150715 METAR LMML 150715Z 33003KT 8000 SCT010 28/22 Q1015 TEMPO
                        BKN008=
201107150700 METAR LMML NIL=
201107150645 METAR LMML 150645Z VRB02KT 8000 SCT009 27/22 Q1015 TEMPO
                        BKN008=
201107150630 METAR LMML NIL=
201107150615 METAR LMML 150615Z VRB02KT 7000 BKN008 26/22 Q1015 NOSIG=
201107150600 METAR LMML NIL=
201107150545 METAR LMML 150545Z VRB02KT 6000 BKN007 25/23 Q1015 NOSIG=
201107150530 METAR LMML NIL=
201107150515 METAR LMML 150515Z 32003KT 6000 BKN006 24/23 Q1015 NOSIG=
201107150500 METAR LMML NIL=
201107150445 METAR LMML 150445Z VRB01KT 6000 SCT006 23/22 Q1014 BECMG
                        9999=
201107150430 METAR LMML NIL=
201107150415 METAR LMML 150415Z VRB02KT 6000 FEW006 23/22 Q1014 BECMG
                        9999=
201107150400 METAR LMML NIL=
201107150345 METAR LMML 150345Z VRB01KT 9000 FEW006 23/22 Q1014 NOSIG=
201107150330 METAR LMML NIL=
201107150315 METAR LMML 150315Z 26003KT 9999 FEW006 23/22 Q1014 TEMPO
                        8000=
201107150300 METAR LMML NIL=
201107150245 METAR LMML 150245Z 30004KT 9999 FEW006 24/22 Q1014 TEMPO
                        8000=
201107150230 METAR LMML NIL=
201107150215 METAR LMML 150215Z 31004KT 260V330 CAVOK 23/22 Q1014 TEMPO
                        8000 FEW005=
201107150145 METAR LMML 150145Z 30004KT CAVOK 24/22 Q1014 TEMPO 8000 FEW005=
201107150130 METAR LMML NIL=
201107150115 METAR LMML 150115Z 31005KT CAVOK 24/22 Q1014 TEMPO 8000 FEW005=
201107150100 METAR LMML NIL=
201107150045 METAR LMML 150045Z 29003KT CAVOK 24/22 Q1014 TEMPO 8000 FEW005=
201107150030 METAR LMML NIL=
201107150015 METAR LMML 150015Z 29004KT 260V320 9999 FEW012 24/22 Q1014
                        TEMPO 8000 FEW005=
201107150000 METAR LMML NIL=
201107142345 METAR LMML 142345Z 28005KT 250V310 9999 FEW012 24/22 Q1015
                        TEMPO 8000 FEW005=
201107142330 METAR LMML NIL=
201107142315 METAR LMML 142315Z 28003KT 9999 FEW012 24/22 Q1015 TEMPO
                        8000 FEW005=
201107142245 METAR LMML 142245Z 28004KT 250V310 9999 FEW012 24/22 Q1015
                        NOSIG=
201107142230 METAR LMML NIL=
201107142215 METAR LMML 142215Z 29005KT 260V320 9999 FEW012 24/22 Q1015
                        NOSIG=
201107142200 METAR LMML NIL=
201107142145 METAR LMML 142145Z 30005KT CAVOK 24/22 Q1015 NOSIG=
201107142130 METAR LMML NIL=
201107142115 METAR LMML 142115Z 30004KT 270V330 9999 FEW012 24/22 Q1015
                        NOSIG=
201107142100 METAR LMML NIL=
201107142045 METAR LMML 142045Z 30005KT 270V330 CAVOK 25/22 Q1015 NOSIG=
201107142030 METAR LMML NIL=
201107142015 METAR LMML 142015Z 31004KT CAVOK 25/22 Q1015 NOSIG=
201107142000 METAR LMML NIL=
201107141945 METAR LMML 141945Z 29005KT 270V330 CAVOK 25/22 Q1015 NOSIG=
201107141930 METAR LMML NIL=
201107141915 METAR LMML 141915Z 30005KT 270V330 CAVOK 25/22 Q1014 NOSIG=
201107141900 METAR LMML NIL=
201107141845 METAR LMML 141845Z 29006KT CAVOK 26/21 Q1014 NOSIG=
201107141830 METAR LMML NIL=
201107141815 METAR LMML 141815Z 31006KT CAVOK 27/21 Q1014 NOSIG=
201107141800 METAR LMML NIL=
201107141745 METAR LMML 141745Z 31008KT CAVOK 28/20 Q1014 NOSIG=
201107141730 METAR LMML NIL=
201107141715 METAR LMML 141715Z 30007KT 270V330 CAVOK 29/19 Q1014 NOSIG=
201107141700 METAR LMML NIL=
201107141645 METAR LMML 141645Z 30008KT 260V320 CAVOK 30/17 Q1014 NOSIG=
201107141630 METAR LMML NIL=
201107141615 METAR LMML 141615Z 31008KT CAVOK 31/15 Q1013 NOSIG=
201107141545 METAR LMML 141545Z 31009KT CAVOK 32/14 Q1014 NOSIG=
201107141530 METAR LMML NIL=
201107141515 METAR LMML 141515Z 30008KT 240V340 CAVOK 32/16 Q1014 NOSIG=
201107141500 METAR LMML NIL=
201107141445 METAR LMML 141445Z 31009KT 270V330 CAVOK 32/17 Q1014 NOSIG=
201107141430 METAR LMML NIL=
201107141415 METAR LMML 141415Z 31008KT 280V350 CAVOK 33/14 Q1014 NOSIG=
201107141400 METAR LMML NIL=
201107141345 METAR LMML 141345Z 30009KT 260V350 9999 FEW015 33/15 Q1014
                        NOSIG=
201107141330 METAR LMML NIL=
201107141315 METAR LMML 141315Z 31008KT 270V350 9999 FEW015 32/19 Q1014
                        NOSIG=
201107141300 METAR LMML NIL=
201107141245 METAR LMML 141245Z 30009KT 260V340 9999 FEW015 33/16 Q1014
                        NOSIG=
201107141230 METAR LMML NIL=
201107141215 METAR LMML 141215Z 32006KT 250V030 9999 FEW015 34/14 Q1014
                        NOSIG=
201107141200 METAR LMML NIL=
201107141145 METAR LMML 141145Z 05007KT 010V090 CAVOK 33/19 Q1014 NOSIG=
201107141130 METAR LMML NIL=
201107141115 METAR LMML 141115Z 05007KT 010V090 CAVOK 33/20 Q1014 NOSIG=
201107141100 METAR LMML NIL=
201107141045 METAR LMML 141045Z 18004KT 110V240 CAVOK 33/16 Q1014 NOSIG=
201107141030 METAR LMML NIL=
201107141015 METAR LMML 141015Z 21005KT 140V260 CAVOK 32/16 Q1014 NOSIG=
201107141000 METAR LMML NIL=
201107140945 METAR LMML 140945Z 19005KT 150V250 CAVOK 32/15 Q1014 NOSIG=
201107140930 METAR LMML NIL=
201107140915 METAR LMML 140915Z 17005KT 120V220 CAVOK 32/17 Q1014 NOSIG=
201107140900 METAR LMML NIL=
201107140845 METAR LMML 140845Z VRB02KT CAVOK 32/17 Q1013 NOSIG=
201107140830 METAR LMML NIL=
201107140815 METAR LMML 140815Z 31003KT CAVOK 31/19 Q1013 NOSIG=
201107140800 METAR LMML NIL=
201107140745 METAR LMML 140745Z VRB02KT CAVOK 30/20 Q1013 NOSIG=
201107140730 METAR LMML NIL=
201107140715 METAR LMML 140715Z 34003KT CAVOK 29/20 Q1013 NOSIG=
201107140700 METAR LMML NIL=
201107140645 METAR LMML 140645Z 33005KT 280V360 CAVOK 28/20 Q1013 NOSIG=
201107140630 METAR LMML NIL=
201107140615 METAR LMML 140615Z 32006KT CAVOK 28/20 Q1013 BECMG 9999 FEW015=
201107140600 METAR LMML NIL=
201107140545 METAR LMML 140545Z 31003KT CAVOK 26/16 Q1013 BECMG 9999 FEW015=
201107140530 METAR LMML NIL=
201107140515 METAR LMML 140515Z 31003KT CAVOK 24/17 Q1013 BECMG 9999 FEW015=
201107140500 METAR LMML NIL=
201107140445 METAR LMML 140445Z VRB01KT CAVOK 24/18 Q1012 NOSIG=
201107140430 METAR LMML NIL=
201107140415 METAR LMML 140415Z VRB02KT CAVOK 23/15 Q1012 NOSIG=
201107140400 METAR LMML NIL=
201107140345 METAR LMML 140345Z VRB02KT CAVOK 23/18 Q1012 NOSIG=
201107140330 METAR LMML NIL=
201107140315 METAR LMML 140315Z 27003KT CAVOK 23/20 Q1012 NOSIG=
201107140300 METAR LMML NIL=
201107140245 METAR LMML 140245Z VRB02KT CAVOK 23/19 Q1012 NOSIG=
201107140230 METAR LMML NIL=
201107140215 METAR LMML 140215Z 19003KT CAVOK 23/20 Q1012 NOSIG=
201107140200 METAR LMML NIL=
201107140145 METAR LMML 140145Z VRB01KT CAVOK 23/20 Q1012 NOSIG=
201107140130 METAR LMML NIL=
201107140115 METAR LMML 140115Z VRB01KT CAVOK 23/20 Q1012 NOSIG=
201107140100 METAR LMML NIL=
201107140045 METAR LMML 140045Z VRB01KT CAVOK 24/20 Q1012 NOSIG=
201107140030 METAR LMML NIL=
201107140015 METAR LMML 140015Z VRB01KT CAVOK 24/20 Q1012 NOSIG=
201107140000 METAR LMML NIL=
201107132345 METAR LMML 132345Z VRB02KT CAVOK 24/20 Q1012 NOSIG=
201107132330 METAR LMML NIL=
201107132315 METAR LMML 132315Z VRB01KT CAVOK 24/21 Q1012 NOSIG=
201107132245 METAR LMML 132245Z VRB01KT CAVOK 25/21 Q1013 NOSIG=
201107132230 METAR LMML NIL=
201107132215 METAR LMML 132215Z 13003KT CAVOK 25/21 Q1013 NOSIG=
201107132200 METAR LMML NIL=
201107132145 METAR LMML 132145Z 13003KT CAVOK 25/21 Q1013 NOSIG=
201107132130 METAR LMML NIL=
201107132115 METAR LMML 132115Z VRB01KT CAVOK 25/19 Q1013 NOSIG=
201107132100 METAR LMML NIL=
201107132045 METAR LMML 132045Z VRB01KT CAVOK 25/19 Q1013 NOSIG=
201107132030 METAR LMML NIL=
201107132015 METAR LMML 132015Z VRB01KT CAVOK 26/19 Q1013 NOSIG=
201107131945 METAR LMML 131945Z VRB02KT CAVOK 26/18 Q1012 NOSIG=
201107131930 METAR LMML NIL=
201107131915 METAR LMML 131915Z VRB02KT CAVOK 27/17 Q1012 NOSIG=
201107131900 METAR LMML NIL=
201107131845 METAR LMML 131845Z 18003KT CAVOK 27/19 Q1011 NOSIG=
201107131830 METAR LMML NIL=
201107131815 METAR LMML 131815Z 17004KT 140V210 CAVOK 28/19 Q1011 NOSIG=
201107131800 METAR LMML NIL=
201107131745 METAR LMML 131745Z 13004KT CAVOK 29/17 Q1011 NOSIG=
201107131730 METAR LMML NIL=
201107131715 METAR LMML 131715Z 13005KT CAVOK 30/17 Q1011 NOSIG=
201107131700 METAR LMML NIL=
201107131645 METAR LMML 131645Z 17003KT CAVOK 31/15 Q1011 NOSIG=
201107131630 METAR LMML NIL=
201107131615 METAR LMML 131615Z 20004KT 140V250 CAVOK 31/17 Q1011 NOSIG=
201107131600 METAR LMML NIL=
201107131545 METAR LMML 131545Z 19004KT 150V220 CAVOK 32/16 Q1011 NOSIG=
201107131530 METAR LMML NIL=
201107131515 METAR LMML 131515Z 20005KT 160V250 CAVOK 32/15 Q1011 NOSIG=
201107131500 METAR LMML NIL=
201107131445 METAR LMML 131445Z 19005KT 150V230 CAVOK 33/15 Q1011 NOSIG=
201107131430 METAR LMML NIL=
201107131415 METAR LMML 131415Z 21005KT 180V250 CAVOK 33/16 Q1011 NOSIG=
201107131400 METAR LMML NIL=
201107131345 METAR LMML 131345Z 22004KT 170V290 CAVOK 33/14 Q1011 NOSIG=
201107131330 METAR LMML NIL=
201107131315 METAR LMML 131315Z 21004KT 140V290 CAVOK 33/15 Q1012 NOSIG=
201107131300 METAR LMML NIL=
201107131245 METAR LMML 131245Z 16005KT 130V210 CAVOK 33/15 Q1012 NOSIG=
201107131230 METAR LMML NIL=
201107131215 METAR LMML 131215Z 17005KT 100V210 CAVOK 33/11 Q1011 NOSIG=
201107131200 METAR LMML NIL=
201107131145 METAR LMML 131145Z 15005KT 070V220 CAVOK 33/18 Q1012 NOSIG=
201107131130 METAR LMML NIL=
201107131115 METAR LMML 131115Z 17006KT 130V210 CAVOK 33/13 Q1012 NOSIG=
201107131100 METAR LMML NIL=
201107131045 METAR LMML 131045Z 11007KT 070V150 CAVOK 32/15 Q1012 NOSIG=
201107131030 METAR LMML NIL=
201107131015 METAR LMML 131015Z 14006KT 100V180 CAVOK 32/14 Q1012 NOSIG=
201107131000 METAR LMML NIL=
201107130945 METAR LMML 130945Z 10007KT 060V140 CAVOK 32/11 Q1012 NOSIG=
201107130930 METAR LMML NIL=
201107130915 METAR LMML 130915Z 09008KT 060V120 CAVOK 32/11 Q1012 NOSIG=
201107130900 METAR LMML NIL=
201107130845 METAR LMML 130845Z 13006KT 080V170 9999 FEW015 32/13 Q1012
                        NOSIG=
201107130830 METAR LMML NIL=
201107130815 METAR LMML 130815Z 10005KT 050V120 9999 FEW015 31/14 Q1012
                        NOSIG=
201107130800 METAR LMML NIL=
201107130745 METAR LMML 130745Z 09005KT 030V140 9999 FEW015 30/16 Q1012
                        NOSIG=
201107130730 METAR LMML NIL=
201107130715 METAR LMML 130715Z 27003KT 9999 FEW012 30/18 Q1012 NOSIG=
201107130700 METAR LMML NIL=
201107130645 METAR LMML 130645Z 05003KT CAVOK 29/17 Q1012 NOSIG=
201107130630 METAR LMML NIL=
201107130615 METAR LMML 130615Z VRB01KT CAVOK 29/18 Q1012 NOSIG=
201107130600 METAR LMML NIL=
201107130545 METAR LMML 130545Z VRB01KT CAVOK 26/18 Q1011 NOSIG=
201107130530 METAR LMML NIL=
201107130515 METAR LMML 130515Z VRB02KT CAVOK 25/18 Q1011 NOSIG=
201107130500 METAR LMML NIL=
201107130445 METAR LMML 130445Z VRB02KT CAVOK 24/18 Q1011 NOSIG=
201107130430 METAR LMML NIL=
201107130415 METAR LMML 130415Z 28003KT CAVOK 23/16 Q1011 NOSIG=
201107130400 METAR LMML NIL=
201107130345 METAR LMML 130345Z 27003KT CAVOK 23/14 Q1011 NOSIG=
201107130330 METAR LMML NIL=
201107130315 METAR LMML 130315Z VRB02KT CAVOK 23/12 Q1011 NOSIG=
201107130300 METAR LMML NIL=
201107130245 METAR LMML 130245Z VRB02KT CAVOK 23/12 Q1011 NOSIG=
201107130230 METAR LMML NIL=
201107130215 METAR LMML 130215Z VRB01KT CAVOK 23/11 Q1011 NOSIG=
201107130200 METAR LMML NIL=
201107130145 METAR LMML 130145Z VRB01KT CAVOK 24/11 Q1011 NOSIG=
201107130130 METAR LMML NIL=
201107130115 METAR LMML 130115Z VRB02KT CAVOK 24/11 Q1012 NOSIG=
201107130100 METAR LMML NIL=
201107130045 METAR LMML 130045Z VRB01KT CAVOK 24/11 Q1012 NOSIG=
201107130030 METAR LMML NIL=
201107130015 METAR LMML 130015Z VRB01KT CAVOK 25/12 Q1012 NOSIG=
201107130000 METAR LMML NIL=
201107122345 METAR LMML 122345Z VRB01KT CAVOK 24/12 Q1012 NOSIG=
201107122315 METAR LMML 122315Z VRB01KT CAVOK 25/12 Q1012 NOSIG=
201107122300 METAR LMML NIL=
201107122245 METAR LMML 122245Z VRB01KT CAVOK 25/12 Q1012 NOSIG=
201107122230 METAR LMML NIL=
201107122215 METAR LMML 122215Z VRB01KT CAVOK 25/13 Q1012 NOSIG=
201107122200 METAR LMML NIL=
201107122145 METAR LMML 122145Z VRB02KT CAVOK 26/12 Q1012 NOSIG=
201107122130 METAR LMML NIL=
201107122115 METAR LMML 122115Z VRB01KT CAVOK 26/14 Q1013 NOSIG=
201107122045 METAR LMML 122045Z 31003KT CAVOK 27/15 Q1013 NOSIG=
201107122015 METAR LMML 122015Z 31005KT CAVOK 27/14 Q1013 NOSIG=
201107122000 METAR LMML NIL=
201107121945 METAR LMML 121945Z 31004KT CAVOK 28/12 Q1012 NOSIG=
201107121930 METAR LMML NIL=
201107121915 METAR LMML 121915Z 31003KT CAVOK 29/10 Q1012 NOSIG=
201107121900 METAR LMML NIL=
201107121845 METAR LMML 121845Z 31003KT CAVOK 29/09 Q1012 NOSIG=
201107121830 METAR LMML NIL=
201107121815 METAR LMML 121815Z 28004KT CAVOK 29/09 Q1012 NOSIG=
201107121745 METAR LMML 121745Z 31006KT CAVOK 30/10 Q1012 NOSIG=
201107121730 METAR LMML NIL=
201107121715 METAR LMML 121715Z 33005KT 280V350 CAVOK 31/10 Q1012 NOSIG=
201107121700 METAR LMML NIL=
201107121645 METAR LMML 121645Z 31007KT 280V340 CAVOK 32/11 Q1012 NOSIG=
201107121630 METAR LMML NIL=
201107121615 METAR LMML 121615Z 30008KT 270V330 CAVOK 32/11 Q1012 NOSIG=
201107121600 METAR LMML NIL=
201107121545 METAR LMML 121545Z 27008KT 240V310 CAVOK 33/11 Q1012 NOSIG=
201107121530 METAR LMML NIL=
201107121515 METAR LMML 121515Z 27006KT 210V310 CAVOK 34/12 Q1012 NOSIG=
201107121500 METAR LMML NIL=
201107121445 METAR LMML 121445Z 29007KT 220V340 CAVOK 34/12 Q1012 NOSIG=
201107121430 METAR LMML NIL=
201107121415 METAR LMML 121415Z 29008KT 240V320 CAVOK 34/13 Q1012 NOSIG=
201107121345 METAR LMML 121345Z 28008KT 210V320 CAVOK 34/13 Q1012 NOSIG=
201107121330 METAR LMML NIL=
201107121315 METAR LMML 121315Z 29007KT 240V330 CAVOK 34/12 Q1013 NOSIG=
201107121245 METAR LMML 121245Z VRB02KT CAVOK 35/14 Q1013 NOSIG=
201107121230 METAR LMML NIL=
201107121215 METAR LMML 121215Z 04006KT 360V100 CAVOK 34/15 Q1013 NOSIG=
201107121200 METAR LMML NIL=
201107121145 METAR LMML 121145Z 03007KT 360V070 CAVOK 34/14 Q1013 NOSIG=
201107121115 METAR LMML 121115Z 07005KT 360V200 CAVOK 35/15 Q1013 NOSIG=
201107121100 METAR LMML NIL=
201107121045 METAR LMML 121045Z 20003KT CAVOK 34/16 Q1013 NOSIG=
201107121030 METAR LMML NIL=
201107121015 METAR LMML 121015Z 12007KT 090V160 CAVOK 34/14 Q1013 NOSIG=
201107120945 METAR LMML 120945Z 14006KT 100V200 CAVOK 34/13 Q1013 NOSIG=
201107120930 METAR LMML NIL=
201107120915 METAR LMML 120915Z 33004KT 290V130 CAVOK 35/07 Q1013 NOSIG=
201107120900 METAR LMML NIL=
201107120845 METAR LMML 120845Z 36004KT 320V050 CAVOK 35/08 Q1013 NOSIG=
201107120830 METAR LMML NIL=
201107120815 METAR LMML 120815Z 32003KT CAVOK 34/08 Q1013 NOSIG=
201107120800 METAR LMML NIL=
201107120745 METAR LMML 120745Z 33004KT 280V040 CAVOK 33/07 Q1013 NOSIG=
201107120730 METAR LMML NIL=
201107120715 METAR LMML 120715Z 34006KT 250V360 CAVOK 32/08 Q1013 NOSIG=
201107120700 METAR LMML NIL=
201107120645 METAR LMML 120645Z 31006KT CAVOK 31/05 Q1013 NOSIG=
201107120630 METAR LMML NIL=
201107120615 METAR LMML 120615Z 30004KT 260V330 CAVOK 30/05 Q1013 NOSIG=
201107120600 METAR LMML NIL=
201107120545 METAR LMML 120545Z 31006KT CAVOK 29/08 Q1013 NOSIG=
201107120530 METAR LMML NIL=
201107120515 METAR LMML 120515Z 30003KT CAVOK 26/12 Q1013 NOSIG=
201107120445 METAR LMML 120445Z VRB02KT CAVOK 25/13 Q1013 NOSIG=
201107120430 METAR LMML NIL=
201107120415 METAR LMML 120415Z 28004KT CAVOK 24/13 Q1013 NOSIG=
201107120400 METAR LMML NIL=
201107120345 METAR LMML 120345Z 29004KT CAVOK 24/14 Q1013 NOSIG=
201107120330 METAR LMML NIL=
201107120315 METAR LMML 120315Z 29004KT CAVOK 24/11 Q1013 NOSIG=
201107120300 METAR LMML NIL=
201107120245 METAR LMML 120245Z 27003KT CAVOK 24/08 Q1013 NOSIG=
201107120230 METAR LMML NIL=
201107120215 METAR LMML 120215Z VRB02KT CAVOK 24/09 Q1013 NOSIG=
201107120200 METAR LMML NIL=
201107120145 METAR LMML 120145Z 26003KT CAVOK 24/10 Q1013 NOSIG=
201107120130 METAR LMML NIL=
201107120115 METAR LMML 120115Z VRB01KT CAVOK 24/11 Q1013 NOSIG=
201107120100 METAR LMML NIL=
201107120045 METAR LMML 120045Z VRB01KT CAVOK 24/11 Q1013 NOSIG=
201107120030 METAR LMML NIL=
201107120015 METAR LMML 120015Z VRB01KT CAVOK 24/07 Q1014 NOSIG=
201107120000 METAR LMML NIL=
201107112345 METAR LMML 112345Z VRB01KT CAVOK 25/06 Q1014 NOSIG=
201107112330 METAR LMML NIL=
201107112315 METAR LMML 112315Z VRB01KT CAVOK 25/08 Q1014 NOSIG=
201107112300 METAR LMML NIL=
201107112245 METAR LMML 112245Z VRB02KT CAVOK 26/06 Q1014 NOSIG=
201107112230 METAR LMML NIL=
201107112215 METAR LMML 112215Z VRB02KT CAVOK 26/08 Q1014 NOSIG=
201107112200 METAR LMML NIL=
201107112145 METAR LMML 112145Z 30003KT CAVOK 26/09 Q1014 NOSIG=
201107112130 METAR LMML NIL=
201107112115 METAR LMML 112115Z 31004KT CAVOK 26/13 Q1015 NOSIG=
201107112045 METAR LMML 112045Z 32005KT CAVOK 26/15 Q1015 NOSIG=
201107112030 METAR LMML NIL=
201107112015 METAR LMML 112015Z 32004KT CAVOK 26/14 Q1014 NOSIG=
201107112000 METAR LMML NIL=
201107111945 METAR LMML 111945Z 31004KT CAVOK 27/15 Q1014 NOSIG=
201107111915 METAR LMML 111915Z 30003KT CAVOK 27/16 Q1014 NOSIG=
201107111900 METAR LMML NIL=
201107111845 METAR LMML 111845Z 33004KT CAVOK 27/16 Q1014 NOSIG=
201107111830 METAR LMML NIL=
201107111815 METAR LMML 111815Z 33005KT CAVOK 28/14 Q1014 NOSIG=
201107111745 METAR LMML 111745Z 32007KT CAVOK 29/11 Q1014 NOSIG=
201107111730 METAR LMML NIL=
201107111715 METAR LMML 111715Z 31008KT CAVOK 31/07 Q1014 NOSIG=
201107111645 METAR LMML 111645Z 11003KT CAVOK 31/16 Q1014 NOSIG=
201107111630 METAR LMML NIL=
201107111615 METAR LMML 111615Z 13005KT 100V160 CAVOK 31/15 Q1013 NOSIG=
201107111600 METAR LMML NIL=
201107111545 METAR LMML 111545Z 11006KT 080V140 CAVOK 32/15 Q1014 NOSIG=
201107111530 METAR LMML NIL=
201107111515 METAR LMML 111515Z 04003KT CAVOK 34/15 Q1014 NOSIG=
201107111500 METAR LMML NIL=
201107111445 METAR LMML 111445Z 33004KT 200V030 CAVOK 34/12 Q1014 NOSIG=
201107111430 METAR LMML NIL=
201107111415 METAR LMML 111415Z 34006KT 290V020 CAVOK 35/14 Q1014 NOSIG=
201107111400 METAR LMML NIL=
201107111345 METAR LMML 111345Z 01004KT 280V080 CAVOK 35/11 Q1014 NOSIG=
201107111330 METAR LMML NIL=
201107111315 METAR LMML 111315Z 01005KT 320V060 CAVOK 35/11 Q1014 NOSIG=
201107111300 METAR LMML NIL=
201107111245 METAR LMML 111245Z 32006KT 280V020 CAVOK 34/11 Q1015 NOSIG=
201107111230 METAR LMML NIL=
201107111215 METAR LMML 111215Z 34008KT 310V020 CAVOK 34/11 Q1015 NOSIG=
201107111200 METAR LMML NIL=
201107111145 METAR LMML 111145Z 33008KT 280V010 CAVOK 33/15 Q1015 NOSIG=
201107111130 METAR LMML NIL=
201107111115 METAR LMML 111115Z 35007KT 290V040 CAVOK 33/15 Q1015 NOSIG=
201107111100 METAR LMML NIL=
201107111045 METAR LMML 111045Z 35006KT 290V050 CAVOK 33/09 Q1015 NOSIG=
201107111030 METAR LMML NIL=
201107111015 METAR LMML 111015Z 31007KT 260V350 CAVOK 33/07 Q1015 NOSIG=
201107111000 METAR LMML NIL=
201107110945 METAR LMML 110945Z 32007KT 270V350 CAVOK 33/07 Q1015 NOSIG=
201107110930 METAR LMML NIL=
201107110915 METAR LMML 110915Z 31007KT 280V360 CAVOK 33/04 Q1015 NOSIG=
201107110900 METAR LMML NIL=
201107110845 METAR LMML 110845Z 33008KT 290V360 CAVOK 32/03 Q1015 NOSIG=
201107110830 METAR LMML NIL=
201107110815 METAR LMML 110815Z 33007KT 280V360 CAVOK 32/06 Q1015 NOSIG=
201107110800 METAR LMML NIL=
201107110745 METAR LMML 110745Z 32007KT CAVOK 31/06 Q1015 NOSIG=
201107110730 METAR LMML NIL=
201107110715 METAR LMML 110715Z 31008KT CAVOK 31/07 Q1015 NOSIG=
201107110700 METAR LMML NIL=
201107110645 METAR LMML 110645Z 31007KT 280V340 CAVOK 30/07 Q1015 NOSIG=
201107110615 METAR LMML 110615Z 30004KT 270V340 CAVOK 29/05 Q1015 NOSIG=
201107110600 METAR LMML NIL=
201107110545 METAR LMML 110545Z 29004KT 250V330 CAVOK 28/06 Q1014 NOSIG=
201107110530 METAR LMML NIL=
201107110515 METAR LMML 110515Z 29004KT CAVOK 27/06 Q1014 NOSIG=
201107110500 METAR LMML NIL=
201107110445 METAR LMML 110445Z 30004KT CAVOK 24/08 Q1014 NOSIG=
201107110430 METAR LMML NIL=
201107110415 METAR LMML 110415Z VRB02KT CAVOK 24/08 Q1014 NOSIG=
201107110345 METAR LMML 110345Z 30004KT CAVOK 24/08 Q1014 NOSIG=
201107110330 METAR LMML NIL=
201107110315 METAR LMML 110315Z 28003KT CAVOK 24/08 Q1014 NOSIG=
201107110245 METAR LMML 110245Z 30004KT CAVOK 24/09 Q1014 NOSIG=
201107110230 METAR LMML NIL=
201107110215 METAR LMML 110215Z 31005KT CAVOK 24/10 Q1014 NOSIG=
201107110145 METAR LMML 110145Z 30005KT CAVOK 24/11 Q1014 NOSIG=
201107110130 METAR LMML NIL=
201107110115 METAR LMML 110115Z 29004KT CAVOK 24/11 Q1015 NOSIG=
201107110045 METAR LMML 110045Z 29003KT CAVOK 24/12 Q1015 NOSIG=
201107110030 METAR LMML NIL=
201107110015 METAR LMML 110015Z 31005KT CAVOK 24/14 Q1015 NOSIG=
201107110000 METAR LMML NIL=
201107102345 METAR LMML 102345Z 31005KT CAVOK 24/15 Q1015 NOSIG=
201107102330 METAR LMML NIL=
201107102315 METAR LMML 102315Z 31006KT CAVOK 24/14 Q1016 NOSIG=
201107102300 METAR LMML NIL=
201107102245 METAR LMML 102245Z 31005KT CAVOK 24/13 Q1016 NOSIG=
201107102230 METAR LMML NIL=
201107102215 METAR LMML 102215Z 31005KT CAVOK 24/13 Q1016 NOSIG=
201107102200 METAR LMML NIL=
201107102145 METAR LMML 102145Z 31004KT CAVOK 24/14 Q1016 NOSIG=
201107102130 METAR LMML NIL=
201107102115 METAR LMML 102115Z VRB02KT CAVOK 25/14 Q1016 NOSIG=
201107102100 METAR LMML NIL=
201107102045 METAR LMML 102045Z 32004KT CAVOK 25/15 Q1016 NOSIG=
201107102030 METAR LMML NIL=
201107102015 METAR LMML 102015Z 32005KT CAVOK 25/17 Q1016 NOSIG=
201107102000 METAR LMML NIL=
201107101945 METAR LMML 101945Z 31005KT CAVOK 25/17 Q1016 NOSIG=
201107101930 METAR LMML NIL=
201107101915 METAR LMML 101915Z 32004KT CAVOK 25/18 Q1016 NOSIG=
201107101900 METAR LMML NIL=
201107101845 METAR LMML 101845Z 31003KT CAVOK 26/16 Q1016 NOSIG=
201107101830 METAR LMML NIL=
201107101815 METAR LMML 101815Z 27003KT CAVOK 28/11 Q1016 NOSIG=
201107101800 METAR LMML NIL=
201107101745 METAR LMML 101745Z VRB02KT CAVOK 28/19 Q1016 NOSIG=
201107101730 METAR LMML NIL=
201107101715 METAR LMML 101715Z VRB02KT CAVOK 31/14 Q1016 NOSIG=
201107101700 METAR LMML NIL=
201107101645 METAR LMML 101645Z 31005KT 270V340 CAVOK 31/15 Q1016 NOSIG=
201107101630 METAR LMML NIL=
201107101615 METAR LMML 101615Z 28005KT 220V320 9999 FEW025 31/14 Q1015
                        NOSIG=
201107101600 METAR LMML NIL=
201107101545 METAR LMML 101545Z 29006KT 230V340 9999 FEW025 31/17 Q1016
                        NOSIG=
201107101530 METAR LMML NIL=
201107101515 METAR LMML 101515Z 26008KT 220V310 9999 FEW025 31/17 Q1016
                        NOSIG=
201107101445 METAR LMML 101445Z 25009KT 210V280 9999 FEW030 32/16 Q1016
                        NOSIG=
201107101430 METAR LMML NIL=
201107101415 METAR LMML 101415Z 29007KT 150V040 9999 FEW030 33/18 Q1016
                        NOSIG=
201107101345 METAR LMML 101345Z 28006KT 200V340 CAVOK 32/16 Q1016 NOSIG=
201107101330 METAR LMML NIL=
201107101315 METAR LMML 101315Z 31006KT 250V010 CAVOK 33/16 Q1016 NOSIG=
201107101245 METAR LMML 101245Z 31004KT 180V030 CAVOK 33/16 Q1017 NOSIG=
201107101230 METAR LMML NIL=
201107101215 METAR LMML 101215Z 20007KT 160V240 CAVOK 32/17 Q1017 NOSIG=
201107101145 METAR LMML 101145Z 21006KT 160V280 CAVOK 32/18 Q1017 NOSIG=
201107101130 METAR LMML NIL=
201107101115 METAR LMML 101115Z 20006KT 160V260 CAVOK 31/17 Q1017 NOSIG=
201107101100 METAR LMML NIL=
201107101045 METAR LMML 101045Z 19005KT 150V270 CAVOK 32/16 Q1017 NOSIG=
201107101030 METAR LMML NIL=
201107101015 METAR LMML 101015Z 06004KT 350V110 CAVOK 33/13 Q1017 NOSIG=
201107101000 METAR LMML NIL=
201107100945 METAR LMML 100945Z 06005KT 360V110 CAVOK 34/13 Q1017 NOSIG=
201107100930 METAR LMML NIL=
201107100915 METAR LMML 100915Z 03005KT 320V110 CAVOK 33/10 Q1017 NOSIG=
201107100900 METAR LMML NIL=
201107100845 METAR LMML 100845Z 33004KT CAVOK 33/11 Q1017 NOSIG=
201107100830 METAR LMML NIL=
201107100815 METAR LMML 100815Z 36003KT CAVOK 33/08 Q1017 NOSIG=
201107100800 METAR LMML NIL=
201107100745 METAR LMML 100745Z 36003KT CAVOK 32/09 Q1017 NOSIG=
201107100730 METAR LMML NIL=
201107100715 METAR LMML 100715Z 34003KT CAVOK 31/10 Q1017 NOSIG=
201107100700 METAR LMML NIL=
201107100645 METAR LMML 100645Z VRB01KT CAVOK 30/11 Q1017 NOSIG=
201107100630 METAR LMML NIL=
201107100615 METAR LMML 100615Z VRB02KT CAVOK 28/10 Q1017 NOSIG=
201107100600 METAR LMML NIL=
201107100545 METAR LMML 100545Z VRB02KT CAVOK 27/12 Q1017 NOSIG=
201107100530 METAR LMML NIL=
201107100515 METAR LMML 100515Z VRB02KT CAVOK 25/13 Q1017 NOSIG=
201107100500 METAR LMML NIL=
201107100445 METAR LMML 100445Z 29003KT CAVOK 24/13 Q1017 NOSIG=
201107100430 METAR LMML NIL=
201107100415 METAR LMML 100415Z 30005KT CAVOK 23/15 Q1017 NOSIG=
201107100400 METAR LMML NIL=
201107100345 METAR LMML 100345Z 30005KT CAVOK 22/17 Q1017 NOSIG=
201107100330 METAR LMML NIL=
201107100315 METAR LMML 100315Z 29003KT CAVOK 23/18 Q1017 NOSIG=
201107100300 METAR LMML NIL=
201107100245 METAR LMML 100245Z 31005KT CAVOK 23/19 Q1017 NOSIG=
201107100230 METAR LMML NIL=
201107100215 METAR LMML 100215Z 31004KT 9000 NSC 22/20 Q1017 NOSIG=
201107100200 METAR LMML NIL=
201107100145 METAR LMML 100145Z 31004KT 9000 NSC 23/21 Q1017 NOSIG=
201107100130 METAR LMML NIL=
201107100115 METAR LMML 100115Z 30003KT 9000 NSC 23/21 Q1017 NOSIG=
201107100100 METAR LMML NIL=
201107100045 METAR LMML 100045Z 31004KT 9000 NSC 23/21 Q1017 NOSIG=
201107100030 METAR LMML NIL=
201107100015 METAR LMML 100015Z 33004KT CAVOK 23/21 Q1017 NOSIG=
201107100000 METAR LMML NIL=
201107092345 METAR LMML 092345Z 33006KT CAVOK 23/21 Q1018 NOSIG=
201107092330 METAR LMML NIL=
201107092315 METAR LMML 092315Z 33004KT 280V020 CAVOK 23/21 Q1018 NOSIG=
201107092300 METAR LMML NIL=
201107092245 METAR LMML 092245Z 32004KT 300V360 CAVOK 23/21 Q1018 NOSIG=
201107092230 METAR LMML NIL=
201107092215 METAR LMML 092215Z 33003KT CAVOK 24/21 Q1018 NOSIG=
201107092200 METAR LMML NIL=
201107092145 METAR LMML 092145Z 32005KT CAVOK 24/21 Q1018 NOSIG=
201107092130 METAR LMML NIL=
201107092115 METAR LMML 092115Z 33005KT CAVOK 24/20 Q1018 NOSIG=
201107092100 METAR LMML NIL=
201107092045 METAR LMML 092045Z 33006KT CAVOK 25/20 Q1018 NOSIG=
201107092030 METAR LMML NIL=
201107092015 METAR LMML 092015Z 33004KT CAVOK 25/19 Q1018 NOSIG=
201107092000 METAR LMML NIL=
201107091945 METAR LMML 091945Z 33006KT CAVOK 25/19 Q1018 NOSIG=
201107091930 METAR LMML NIL=
201107091915 METAR LMML 091915Z 01003KT CAVOK 25/20 Q1018 NOSIG=
201107091900 METAR LMML NIL=
201107091845 METAR LMML 091845Z 01003KT CAVOK 26/19 Q1017 NOSIG=
201107091830 METAR LMML NIL=
201107091815 METAR LMML 091815Z 02003KT CAVOK 27/19 Q1017 NOSIG=
201107091745 METAR LMML 091745Z VRB02KT CAVOK 28/17 Q1017 NOSIG=
201107091730 METAR LMML NIL=
201107091715 METAR LMML 091715Z 19003KT CAVOK 28/17 Q1017 NOSIG=
201107091700 METAR LMML NIL=
201107091645 METAR LMML 091645Z 21004KT 160V250 CAVOK 28/17 Q1017 NOSIG=
201107091630 METAR LMML NIL=
201107091615 METAR LMML 091615Z 20004KT 160V240 CAVOK 29/17 Q1017 NOSIG=
201107091600 METAR LMML NIL=
201107091545 METAR LMML 091545Z 19005KT 170V230 CAVOK 30/17 Q1017 NOSIG=
201107091530 METAR LMML NIL=
201107091515 METAR LMML 091515Z 19006KT 160V250 CAVOK 29/17 Q1017 NOSIG=
201107091500 METAR LMML NIL=
201107091445 METAR LMML 091445Z 20004KT 140V270 CAVOK 30/16 Q1017 NOSIG=
201107091430 METAR LMML NIL=
201107091415 METAR LMML 091415Z 24004KT 150V320 CAVOK 30/18 Q1018 NOSIG=
201107091400 METAR LMML NIL=
201107091345 METAR LMML 091345Z 15003KT CAVOK 32/17 Q1018 NOSIG=
201107091330 METAR LMML NIL=
201107091315 METAR LMML 091315Z 21006KT 150V270 CAVOK 30/17 Q1018 NOSIG=
201107091300 METAR LMML NIL=
201107091245 METAR LMML 091245Z 07003KT CAVOK 32/16 Q1018 NOSIG=
201107091230 METAR LMML NIL=
201107091215 METAR LMML 091215Z 23007KT 190V290 CAVOK 29/18 Q1019 NOSIG=
201107091200 METAR LMML NIL=
201107091145 METAR LMML 091145Z 20005KT 150V290 CAVOK 29/18 Q1019 NOSIG=
201107091130 METAR LMML NIL=
201107091115 METAR LMML 091115Z 19005KT 140V230 CAVOK 29/17 Q1019 NOSIG=
201107091045 METAR LMML 091045Z 19004KT 140V230 CAVOK 30/17 Q1019 NOSIG=
201107091030 METAR LMML NIL=
201107091015 METAR LMML 091015Z 05004KT 340V120 CAVOK 31/16 Q1019 NOSIG=
201107091000 METAR LMML NIL=
201107090945 METAR LMML 090945Z 07005KT 020V150 CAVOK 30/17 Q1019 NOSIG=
201107090930 METAR LMML NIL=
201107090915 METAR LMML 090915Z 05006KT 360V120 CAVOK 31/18 Q1019 NOSIG=
201107090900 METAR LMML NIL=
201107090845 METAR LMML 090845Z 06005KT 350V170 CAVOK 30/19 Q1019 NOSIG=
201107090830 METAR LMML NIL=
201107090815 METAR LMML 090815Z 03003KT CAVOK 31/15 Q1019 NOSIG=
201107090800 METAR LMML NIL=
201107090745 METAR LMML 090745Z VRB02KT CAVOK 30/15 Q1019 NOSIG=
201107090730 METAR LMML NIL=
201107090715 METAR LMML 090715Z VRB02KT CAVOK 29/16 Q1019 NOSIG=
201107090700 METAR LMML NIL=
201107090645 METAR LMML 090645Z VRB01KT CAVOK 27/17 Q1019 NOSIG=
201107090630 METAR LMML NIL=
201107090615 METAR LMML 090615Z 23003KT CAVOK 25/19 Q1018 NOSIG=
201107090600 METAR LMML NIL=
201107090545 METAR LMML 090545Z VRB01KT CAVOK 24/19 Q1018 NOSIG=
201107090530 METAR LMML NIL=
201107090515 METAR LMML 090515Z VRB02KT CAVOK 23/19 Q1018 NOSIG=
201107090500 METAR LMML NIL=
201107090445 METAR LMML 090445Z VRB02KT 9000 NSC 21/18 Q1018 NOSIG=
201107090430 METAR LMML NIL=
201107090415 METAR LMML 090415Z VRB01KT 9000 NSC 21/18 Q1018 NOSIG=
201107090400 METAR LMML NIL=
201107090345 METAR LMML 090345Z VRB01KT CAVOK 20/18 Q1018 NOSIG=
201107090315 METAR LMML 090315Z VRB02KT CAVOK 20/18 Q1017 NOSIG=
201107090300 METAR LMML NIL=
201107090245 METAR LMML 090245Z VRB02KT CAVOK 20/18 Q1017 NOSIG=
201107090230 METAR LMML NIL=
201107090215 METAR LMML 090215Z VRB02KT CAVOK 21/18 Q1017 NOSIG=
201107090200 METAR LMML NIL=
201107090145 METAR LMML 090145Z VRB02KT CAVOK 21/18 Q1017 NOSIG=
201107090130 METAR LMML NIL=
201107090115 METAR LMML 090115Z VRB02KT CAVOK 21/18 Q1017 NOSIG=
201107090100 METAR LMML NIL=
201107090045 METAR LMML 090045Z VRB02KT CAVOK 21/18 Q1017 NOSIG=
201107090030 METAR LMML NIL=
201107090015 METAR LMML 090015Z VRB01KT CAVOK 22/19 Q1017 NOSIG=
201107090000 METAR LMML NIL=
201107082345 METAR LMML 082345Z 00000KT CAVOK 22/19 Q1017 NOSIG=
201107082330 METAR LMML NIL=
201107082315 METAR LMML 082315Z VRB01KT CAVOK 22/18 Q1017 NOSIG=
201107082300 METAR LMML NIL=
201107082245 METAR LMML 082245Z VRB01KT CAVOK 22/19 Q1017 NOSIG=
201107082230 METAR LMML NIL=
201107082215 METAR LMML 082215Z VRB02KT CAVOK 23/19 Q1018 NOSIG=
201107082200 METAR LMML NIL=
201107082145 METAR LMML 082145Z 09003KT CAVOK 24/19 Q1018 NOSIG=
201107082115 METAR LMML 082115Z VRB02KT CAVOK 24/19 Q1018 NOSIG=
201107082100 METAR LMML NIL=
201107082045 METAR LMML 082045Z 06003KT CAVOK 24/20 Q1018 NOSIG=
201107082030 METAR LMML NIL=
201107082015 METAR LMML 082015Z 08004KT CAVOK 25/20 Q1017 NOSIG RMK SMOKE
                        TO SW OF AIRFIELD=
201107082000 METAR LMML NIL=
201107081945 METAR LMML 081945Z VRB02KT CAVOK 25/19 Q1017 NOSIG=
201107081930 METAR LMML NIL=
201107081915 METAR LMML 081915Z 07003KT CAVOK 25/20 Q1017 NOSIG=
201107081900 METAR LMML NIL=
201107081845 METAR LMML 081845Z VRB02KT CAVOK 25/20 Q1017 NOSIG=
201107081830 METAR LMML NIL=
201107081815 METAR LMML 081815Z VRB02KT CAVOK 26/20 Q1017 NOSIG=
201107081800 METAR LMML NIL=
201107081745 METAR LMML 081745Z 02003KT CAVOK 27/20 Q1017 NOSIG=
201107081730 METAR LMML NIL=
201107081715 METAR LMML 081715Z 05003KT CAVOK 28/20 Q1016 NOSIG=
201107081700 METAR LMML NIL=
201107081645 METAR LMML 081645Z 03004KT 340V070 CAVOK 28/20 Q1016 NOSIG=
201107081630 METAR LMML NIL=
201107081615 METAR LMML 081615Z 04004KT 350V080 CAVOK 29/20 Q1016 NOSIG=
201107081600 METAR LMML NIL=
201107081545 METAR LMML 081545Z 04005KT 340V090 CAVOK 29/20 Q1016 NOSIG=
201107081530 METAR LMML NIL=
201107081515 METAR LMML 081515Z 02006KT 350V060 9999 FEW030 30/20 Q1016
                        NOSIG=
201107081445 METAR LMML 081445Z 02007KT 9999 FEW030 30/20 Q1016 NOSIG=
201107081430 METAR LMML NIL=
201107081415 METAR LMML 081415Z 03006KT 350V060 9999 FEW030 31/20 Q1016
                        NOSIG=
201107081400 METAR LMML NIL=
201107081345 METAR LMML 081345Z 03007KT 330V060 9999 FEW030 31/19 Q1016
                        NOSIG=
201107081330 METAR LMML NIL=
201107081315 METAR LMML 081315Z 03005KT 340V100 9999 FEW030 32/18 Q1016
                        NOSIG=
201107081300 METAR LMML NIL=
201107081245 METAR LMML 081245Z 17004KT 120V230 CAVOK 30/17 Q1017 NOSIG=
201107081230 METAR LMML NIL=
201107081215 METAR LMML 081215Z 19006KT 160V230 9999 FEW030 30/18 Q1017
                        NOSIG=
201107081200 METAR LMML NIL=
201107081145 METAR LMML 081145Z 19004KT 140V240 9999 FEW030 29/18 Q1017
                        NOSIG=
201107081130 METAR LMML NIL=
201107081115 METAR LMML 081115Z 16004KT 030V270 CAVOK 30/18 Q1017 NOSIG=
201107081100 METAR LMML NIL=
201107081045 METAR LMML 081045Z 19004KT 100V330 CAVOK 30/18 Q1017 NOSIG=
201107081030 METAR LMML NIL=
201107081015 METAR LMML 081015Z 07005KT 010V150 CAVOK 30/17 Q1017 NOSIG=
201107081000 METAR LMML NIL=
201107080945 METAR LMML 080945Z 05005KT 340V120 CAVOK 31/15 Q1017 NOSIG=
201107080930 METAR LMML NIL=
201107080915 METAR LMML 080915Z 04005KT 360V090 CAVOK 31/14 Q1017 NOSIG=
201107080900 METAR LMML NIL=
201107080845 METAR LMML 080845Z 02004KT 290V080 CAVOK 31/14 Q1017 NOSIG=
201107080830 METAR LMML NIL=
201107080815 METAR LMML 080815Z 02005KT 330V090 CAVOK 30/14 Q1016 NOSIG=
201107080800 METAR LMML NIL=
201107080745 METAR LMML 080745Z 36004KT 310V090 CAVOK 29/14 Q1016 NOSIG=
201107080730 METAR LMML NIL=
201107080715 METAR LMML 080715Z 33004KT 290V020 CAVOK 28/17 Q1016 NOSIG=
201107080700 METAR LMML NIL=
201107080645 METAR LMML 080645Z 34004KT 290V360 CAVOK 27/16 Q1016 NOSIG=
201107080630 METAR LMML NIL=
201107080615 METAR LMML 080615Z 19004KT CAVOK 25/18 Q1016 NOSIG=
201107080600 METAR LMML NIL=
201107080545 METAR LMML 080545Z 31003KT CAVOK 24/20 Q1015 NOSIG=
201107080530 METAR LMML NIL=
201107080515 METAR LMML 080515Z VRB02KT CAVOK 23/20 Q1015 NOSIG=
201107080445 METAR LMML 080445Z 31003KT CAVOK 22/19 Q1015 NOSIG=
201107080430 METAR LMML NIL=
201107080415 METAR LMML 080415Z 32003KT CAVOK 21/19 Q1015 NOSIG=
201107080400 METAR LMML NIL=
201107080345 METAR LMML 080345Z 31004KT 9000 NSC 21/20 Q1015 NOSIG=
201107080330 METAR LMML NIL=
201107080315 METAR LMML 080315Z 30003KT 9000 NSC 21/20 Q1014 NOSIG=
201107080300 METAR LMML NIL=
201107080245 METAR LMML 080245Z VRB02KT 9000 NSC 21/20 Q1015 NOSIG=
201107080230 METAR LMML NIL=
201107080215 METAR LMML 080215Z 30003KT CAVOK 21/20 Q1014 NOSIG=
201107080200 METAR LMML NIL=
201107080145 METAR LMML 080145Z 32004KT CAVOK 21/20 Q1014 NOSIG=
201107080130 METAR LMML NIL=
201107080115 METAR LMML 080115Z 31005KT CAVOK 22/20 Q1015 NOSIG=
201107080100 METAR LMML NIL=
201107080045 METAR LMML 080045Z 32004KT CAVOK 22/19 Q1015 NOSIG=
201107080030 METAR LMML NIL=
201107080015 METAR LMML 080015Z 30003KT CAVOK 22/19 Q1015 NOSIG=
201107080000 METAR LMML NIL=
201107072345 METAR LMML 072345Z 32003KT CAVOK 22/19 Q1015 NOSIG=
201107072330 METAR LMML NIL=
201107072315 METAR LMML 072315Z 33003KT CAVOK 22/19 Q1015 NOSIG=
201107072245 METAR LMML 072245Z VRB02KT CAVOK 22/19 Q1015 NOSIG=
201107072215 METAR LMML 072215Z VRB02KT CAVOK 23/19 Q1015 NOSIG=
201107072145 METAR LMML 072145Z VRB02KT CAVOK 23/19 Q1015 NOSIG=
201107072130 METAR LMML NIL=
201107072115 METAR LMML 072115Z VRB02KT CAVOK 24/19 Q1016 NOSIG=
201107072100 METAR LMML NIL=
201107072045 METAR LMML 072045Z VRB02KT CAVOK 24/19 Q1015 NOSIG=
201107072030 METAR LMML NIL=
201107072015 METAR LMML 072015Z VRB01KT CAVOK 24/20 Q1015 NOSIG=
201107072000 METAR LMML NIL=
201107071945 METAR LMML 071945Z VRB01KT CAVOK 24/20 Q1015 NOSIG=
201107071930 METAR LMML NIL=
201107071915 METAR LMML 071915Z VRB02KT CAVOK 25/18 Q1015 NOSIG=
201107071900 METAR LMML NIL=
201107071845 METAR LMML 071845Z VRB02KT 9999 FEW025 25/18 Q1015 NOSIG=
201107071830 METAR LMML NIL=
201107071815 METAR LMML 071815Z VRB02KT 9999 FEW025 26/18 Q1014 NOSIG=
201107071800 METAR LMML NIL=
201107071745 METAR LMML 071745Z VRB02KT 9999 FEW025 27/18 Q1014 NOSIG=
201107071730 METAR LMML NIL=
201107071715 METAR LMML 071715Z 04003KT 9999 FEW020 28/17 Q1014 NOSIG=
201107071645 METAR LMML 071645Z 04005KT 020V100 9999 FEW024 29/15 Q1014
                        NOSIG=
201107071630 METAR LMML NIL=
201107071615 METAR LMML 071615Z 02004KT 350V080 9999 FEW024 30/15 Q1014
                        NOSIG=
201107071600 METAR LMML NIL=
201107071545 METAR LMML 071545Z 03004KT 310V090 9999 FEW024 29/15 Q1014
                        NOSIG=
201107071530 METAR LMML NIL=
201107071515 METAR LMML 071515Z 16003KT 9999 FEW024 28/19 Q1014 NOSIG=
201107071500 METAR LMML NIL=
201107071445 METAR LMML 071445Z 15003KT 9999 FEW024 27/19 Q1014 NOSIG=
201107071430 METAR LMML NIL=
201107071415 METAR LMML 071415Z 18004KT 140V230 9999 FEW022 27/20 Q1015
                        NOSIG=
201107071400 METAR LMML NIL=
201107071345 METAR LMML 071345Z 03003KT 9999 FEW026 29/18 Q1015 NOSIG=
201107071330 METAR LMML NIL=
201107071315 METAR LMML 071315Z 26004KT 190V320 9999 FEW024 27/20 Q1015
                        NOSIG=
201107071300 METAR LMML NIL=
201107071245 METAR LMML 071245Z 03006KT 350V070 9999 FEW024 30/17 Q1015
                        NOSIG=
201107071230 METAR LMML NIL=
201107071215 METAR LMML 071215Z 12005KT 9999 FEW024 30/16 Q1015 NOSIG=
201107071200 METAR LMML NIL=
201107071145 METAR LMML 071145Z 01006KT 340V060 9999 FEW024 30/18 Q1015
                        NOSIG=
201107071130 METAR LMML NIL=
201107071115 METAR LMML 071115Z 06007KT 350V100 9999 FEW024 29/18 Q1015
                        NOSIG=
201107071100 METAR LMML NIL=
201107071045 METAR LMML 071045Z 04005KT 310V140 CAVOK 29/20 Q1015 NOSIG=
201107071030 METAR LMML NIL=
201107071015 METAR LMML 071015Z 02006KT 350V080 9999 FEW020 29/20 Q1015
                        NOSIG=
201107071000 METAR LMML NIL=
201107070945 METAR LMML 070945Z 03007KT 340V090 9999 FEW020 29/20 Q1015
                        NOSIG=
201107070930 METAR LMML NIL=
201107070915 METAR LMML 070915Z 05006KT 340V100 9999 FEW020 29/19 Q1015
                        NOSIG=
201107070900 METAR LMML NIL=
201107070845 METAR LMML 070845Z 07008KT 020V100 9999 FEW020 28/18 Q1015
                        NOSIG=
201107070830 METAR LMML NIL=
201107070815 METAR LMML 070815Z 05006KT 010V120 CAVOK 28/19 Q1015 NOSIG=
201107070800 METAR LMML NIL=
201107070745 METAR LMML 070745Z 04007KT 020V090 CAVOK 27/19 Q1014 NOSIG=
201107070730 METAR LMML NIL=
201107070715 METAR LMML 070715Z 05007KT 020V080 CAVOK 27/19 Q1014 NOSIG=
201107070700 METAR LMML NIL=
201107070645 METAR LMML 070645Z 06007G18KT 020V090 CAVOK 26/19 Q1014 NOSIG=
201107070630 METAR LMML NIL=
201107070615 METAR LMML 070615Z 04005KT 010V090 CAVOK 26/19 Q1014 NOSIG=
201107070600 METAR LMML NIL=
201107070545 METAR LMML 070545Z 06005KT 020V090 CAVOK 24/20 Q1014 NOSIG=
201107070530 METAR LMML NIL=
201107070515 METAR LMML 070515Z 03004KT 360V090 CAVOK 24/20 Q1014 NOSIG=
201107070500 METAR LMML NIL=
201107070445 METAR LMML 070445Z 01003KT CAVOK 23/21 Q1014 NOSIG=
201107070430 METAR LMML NIL=
201107070415 METAR LMML 070415Z 01004KT 350V050 9999 FEW015 22/21 Q1013
                        NOSIG=
201107070400 METAR LMML NIL=
201107070345 METAR LMML 070345Z 36005KT 9999 FEW005 22/21 Q1013 BECMG
                        8000=
201107070330 METAR LMML NIL=
201107070315 METAR LMML 070315Z 01004KT 9999 FEW005 22/21 Q1013 BECMG
                        8000=
201107070300 METAR LMML NIL=
201107070245 METAR LMML 070245Z 02003KT 9999 FEW005 22/21 Q1013 BECMG
                        8000=
201107070230 METAR LMML NIL=
201107070215 METAR LMML 070215Z 02004KT 9999 FEW005 22/21 Q1013 BECMG
                        8000=
201107070200 METAR LMML NIL=
201107070145 METAR LMML 070145Z 02005KT 9999 FEW005 22/21 Q1013 BECMG
                        8000=
201107070130 METAR LMML NIL=
201107070115 METAR LMML 070115Z 02005KT 9999 FEW005 22/21 Q1013 BECMG
                        8000=
201107070100 METAR LMML NIL=
201107070045 METAR LMML 070045Z 02004KT 9999 FEW006 22/21 Q1013 BECMG
                        8000=
201107070015 METAR LMML 070015Z 02005KT 9999 FEW006 22/21 Q1013 BECMG
                        8000=
201107070000 METAR LMML NIL=
201107062345 METAR LMML 062345Z 02004KT 350V050 9999 FEW007 23/21 Q1013
                        BECMG 8000=
201107062330 METAR LMML NIL=
201107062315 METAR LMML 062315Z 03005KT 360V080 9999 SCT007 23/21 Q1013
                        BECMG 8000=
201107062300 METAR LMML NIL=
201107062245 METAR LMML 062245Z 03004KT 340V070 9999 BKN008 23/21 Q1013
                        NOSIG=
201107062230 METAR LMML NIL=
201107062215 METAR LMML 062215Z 03005KT 360V060 9999 BKN007 23/21 Q1013
                        NOSIG=
201107062200 METAR LMML NIL=
201107062145 METAR LMML 062145Z 03006KT 9999 BKN006 23/21 Q1013 NOSIG=
201107062115 METAR LMML 062115Z 01004KT 330V050 9999 FEW010 23/21 Q1013
                        NOSIG=
201107062100 METAR LMML NIL=
201107062045 METAR LMML 062045Z 01005KT CAVOK 23/20 Q1013 NOSIG=
201107062030 METAR LMML NIL=
201107062015 METAR LMML 062015Z 01006KT 9999 FEW015 23/20 Q1013 NOSIG=
201107062000 METAR LMML NIL=
201107061945 METAR LMML 061945Z 01006KT 340V040 9999 FEW015 23/20 Q1013
                        NOSIG=
201107061930 METAR LMML NIL=
201107061915 METAR LMML 061915Z 01005KT 9999 FEW015 23/20 Q1012 NOSIG=
201107061900 METAR LMML NIL=
201107061845 METAR LMML 061845Z 01006KT 9999 FEW015 24/20 Q1012 NOSIG=
201107061830 METAR LMML NIL=
201107061815 METAR LMML 061815Z 01006KT 9999 FEW015 24/19 Q1012 NOSIG=
201107061800 METAR LMML NIL=
201107061745 METAR LMML 061745Z 01006KT 9999 FEW015 25/19 Q1012 NOSIG=
201107061730 METAR LMML NIL=
201107061715 METAR LMML 061715Z 35008KT 330V040 9999 FEW020 26/18 Q1012
                        NOSIG=
201107061700 METAR LMML NIL=
201107061645 METAR LMML 061645Z 01010KT 9999 FEW015 27/18 Q1012 NOSIG=
201107061630 METAR LMML NIL=
201107061615 METAR LMML 061615Z 01011KT 340V040 9999 FEW015 27/18 Q1012
                        NOSIG=
201107061600 METAR LMML NIL=
201107061545 METAR LMML 061545Z 01009KT 320V040 CAVOK 28/16 Q1011 NOSIG=
201107061515 METAR LMML 061515Z 35012KT 320V020 CAVOK 28/16 Q1011 NOSIG=
201107061500 METAR LMML NIL=
201107061445 METAR LMML 061445Z 01010G21KT 340V050 CAVOK 29/17 Q1011 NOSIG=
201107061430 METAR LMML NIL=
201107061415 METAR LMML 061415Z 02013KT 350V060 CAVOK 29/17 Q1011 NOSIG=
201107061400 METAR LMML NIL=
201107061345 METAR LMML 061345Z 02011KT 340V050 CAVOK 29/17 Q1011 NOSIG=
201107061330 METAR LMML NIL=
201107061315 METAR LMML 061315Z 02011KT 260V060 CAVOK 29/18 Q1011 NOSIG=
201107061245 METAR LMML 061245Z 02010KT CAVOK 29/18 Q1011 NOSIG=
201107061230 METAR LMML NIL=
201107061215 METAR LMML 061215Z 01011KT 340V050 CAVOK 29/18 Q1011 NOSIG=
201107061200 METAR LMML NIL=
201107061145 METAR LMML 061145Z 03012KT 360V080 CAVOK 28/17 Q1011 NOSIG=
201107061130 METAR LMML NIL=
201107061115 METAR LMML 061115Z 02009G19KT 340V060 CAVOK 29/17 Q1011 NOSIG=
201107061045 METAR LMML 061045Z 04008KT 360V080 CAVOK 29/17 Q1011 NOSIG=
201107061030 METAR LMML NIL=
201107061015 METAR LMML 061015Z 03009KT 360V070 CAVOK 29/16 Q1011 NOSIG=
201107061000 METAR LMML NIL=
201107060945 METAR LMML 060945Z 04008KT 010V090 CAVOK 29/14 Q1011 NOSIG=
201107060930 METAR LMML NIL=
201107060915 METAR LMML 060915Z 01007KT 330V050 CAVOK 29/12 Q1010 NOSIG=
201107060900 METAR LMML NIL=
201107060845 METAR LMML 060845Z 34006KT 300V020 CAVOK 28/16 Q1010 NOSIG=
201107060830 METAR LMML NIL=
201107060815 METAR LMML 060815Z 34009KT CAVOK 26/17 Q1010 NOSIG=
201107060800 METAR LMML NIL=
201107060745 METAR LMML 060745Z 35008KT 310V020 9999 FEW015 26/18 Q1010
                        NOSIG=
201107060730 METAR LMML NIL=
201107060715 METAR LMML 060715Z 34008KT 300V020 9999 FEW015 25/19 Q1011
                        NOSIG=
201107060700 METAR LMML NIL=
201107060645 METAR LMML 060645Z 34008KT 300V360 9999 FEW015 24/19 Q1010
                        NOSIG=
201107060615 METAR LMML 060615Z 32009KT 9999 FEW008 24/19 Q1010 NOSIG=
201107060545 METAR LMML 060545Z 32005KT 280V360 9999 FEW008 23/20 Q1010
                        NOSIG=
201107060530 METAR LMML NIL=
201107060515 METAR LMML 060515Z 34010KT 7000 FEW008 22/20 Q1010 BECMG
                        9999=
201107060500 METAR LMML NIL=
201107060445 METAR LMML 060445Z 33008KT 7000 FEW008 21/19 Q1010 NOSIG=
201107060430 METAR LMML NIL=
201107060415 METAR LMML 060415Z 33010KT 7000 FEW009 21/19 Q1010 NOSIG=
201107060400 METAR LMML NIL=
201107060345 METAR LMML 060345Z 33009KT 7000 BKN008 21/19 Q1010 NOSIG=
201107060330 METAR LMML NIL=
201107060315 METAR LMML 060315Z 34006KT 310V020 8000 SCT007 21/20 Q1010
                        NOSIG=
201107060300 METAR LMML NIL=
201107060245 METAR LMML 060245Z 34006KT 8000 FEW009 21/20 Q1010 NOSIG=
201107060215 METAR LMML 060215Z 33006KT 9999 FEW009 21/20 Q1010 TEMPO
                        9000 FEW006=
201107060200 METAR LMML NIL=
201107060145 METAR LMML 060145Z 33004KT CAVOK 21/19 Q1010 TEMPO 9000 FEW006=
201107060130 METAR LMML NIL=
201107060115 METAR LMML 060115Z 32005KT CAVOK 21/20 Q1011 TEMPO 9000 FEW006=
201107060100 METAR LMML NIL=
201107060045 METAR LMML 060045Z 30004KT 270V330 CAVOK 22/20 Q1011 TEMPO
                        9000 FEW006=
201107060030 METAR LMML NIL=
201107060015 METAR LMML 060015Z 29006KT CAVOK 22/20 Q1011 TEMPO 9000 FEW006=
201107060000 METAR LMML NIL=
201107052345 METAR LMML 052345Z 27006KT 240V300 CAVOK 22/20 Q1011 NOSIG=
201107052330 METAR LMML NIL=
201107052315 METAR LMML 052315Z VRB02KT CAVOK 21/20 Q1012 NOSIG=
201107052300 METAR LMML NIL=
201107052245 METAR LMML 052245Z 24003KT CAVOK 21/19 Q1012 NOSIG=
201107052230 METAR LMML NIL=
201107052215 METAR LMML 052215Z VRB02KT 9999 FEW015 22/20 Q1012 NOSIG=
201107052200 METAR LMML NIL=
201107052145 METAR LMML 052145Z VRB01KT 9999 FEW015 22/20 Q1012 NOSIG=
201107052130 METAR LMML NIL=
201107052115 METAR LMML 052115Z VRB01KT 9999 FEW015 22/20 Q1012 NOSIG=
201107052100 METAR LMML NIL=
201107052045 METAR LMML 052045Z 30004KT 9999 FEW015 23/19 Q1012 NOSIG=
201107052030 METAR LMML NIL=
201107052015 METAR LMML 052015Z 27005KT 230V300 9999 FEW015 24/18 Q1012
                        NOSIG=
201107052000 METAR LMML NIL=
201107051945 METAR LMML 051945Z VRB01KT CAVOK 23/21 Q1012 NOSIG=
201107051930 METAR LMML NIL=
201107051915 METAR LMML 051915Z VRB02KT CAVOK 24/20 Q1011 NOSIG=
201107051900 METAR LMML NIL=
201107051845 METAR LMML 051845Z 06003KT CAVOK 24/20 Q1011 NOSIG=
201107051830 METAR LMML NIL=
201107051815 METAR LMML 051815Z 12007KT CAVOK 24/21 Q1011 NOSIG=
201107051800 METAR LMML NIL=
201107051745 METAR LMML 051745Z 12008KT CAVOK 25/20 Q1011 NOSIG=
201107051730 METAR LMML NIL=
201107051715 METAR LMML 051715Z 13007KT 090V160 CAVOK 27/19 Q1011 NOSIG=
201107051700 METAR LMML NIL=
201107051645 METAR LMML 051645Z 13006KT CAVOK 28/16 Q1011 NOSIG=
201107051630 METAR LMML NIL=
201107051615 METAR LMML 051615Z 16005KT 110V190 CAVOK 29/12 Q1012 NOSIG=
201107051600 METAR LMML NIL=
201107051545 METAR LMML 051545Z 16004KT 070V210 CAVOK 29/11 Q1012 NOSIG=
201107051530 METAR LMML NIL=
201107051515 METAR LMML 051515Z 16006KT 120V230 CAVOK 28/16 Q1012 NOSIG=
201107051500 METAR LMML NIL=
201107051445 METAR LMML 051445Z 19005KT 140V230 CAVOK 29/10 Q1013 NOSIG=
201107051430 METAR LMML NIL=
201107051415 METAR LMML 051415Z 21004KT 150V280 CAVOK 31/11 Q1014 NOSIG=
201107051400 METAR LMML NIL=
201107051345 METAR LMML 051345Z 23005KT 180V290 CAVOK 30/12 Q1014 NOSIG=
201107051330 METAR LMML NIL=
201107051315 METAR LMML 051315Z 18004KT 070V270 CAVOK 29/15 Q1014 NOSIG=
201107051300 METAR LMML NIL=
201107051245 METAR LMML 051245Z 20006KT 150V270 9999 FEW030 SCT140 28/19
                        Q1014 NOSIG=
201107051230 METAR LMML NIL=
201107051215 METAR LMML 051215Z 18006KT 150V240 CAVOK 27/20 Q1014 NOSIG=
201107051200 METAR LMML NIL=
201107051145 METAR LMML 051145Z 15008KT 110V180 CAVOK 26/21 Q1014 NOSIG=
201107051130 METAR LMML NIL=
201107051115 METAR LMML 051115Z 16010KT CAVOK 25/21 Q1014 NOSIG=
201107051100 METAR LMML NIL=
201107051045 METAR LMML 051045Z 16008KT 130V210 CAVOK 26/19 Q1015 NOSIG=
201107051030 METAR LMML NIL=
201107051015 METAR LMML 051015Z 16008KT 110V200 CAVOK 27/20 Q1015 NOSIG=
201107051000 METAR LMML NIL=
201107050945 METAR LMML 050945Z 16008KT 120V190 9999 FEW018 BKN250 26/18
                        Q1015 NOSIG=
201107050930 METAR LMML NIL=
201107050915 METAR LMML 050915Z 13007KT 090V190 CAVOK 27/18 Q1014 NOSIG=
201107050900 METAR LMML NIL=
201107050845 METAR LMML 050845Z 13007KT 100V160 CAVOK 26/18 Q1015 NOSIG=
201107050830 METAR LMML NIL=
201107050815 METAR LMML 050815Z 11006KT 070V160 CAVOK 27/18 Q1015 NOSIG=
201107050800 METAR LMML NIL=
201107050745 METAR LMML 050745Z 12006KT 080V140 CAVOK 26/19 Q1015 NOSIG=
201107050730 METAR LMML NIL=
201107050715 METAR LMML 050715Z 05006KT 010V090 CAVOK 25/20 Q1016 NOSIG=
201107050700 METAR LMML NIL=
201107050645 METAR LMML 050645Z 36004KT 9999 FEW015 BKN120 25/20 Q1016
                        NOSIG=
201107050630 METAR LMML NIL=
201107050615 METAR LMML 050615Z 01007KT 9999 FEW012 SCT120 26/20 Q1016
                        NOSIG=
201107050600 METAR LMML NIL=
201107050545 METAR LMML 050545Z VRB01KT 9999 FEW012 25/13 Q1016 NOSIG=
201107050530 METAR LMML NIL=
201107050515 METAR LMML 050515Z VRB01KT CAVOK 24/14 Q1016 NOSIG=
201107050500 METAR LMML NIL=
201107050445 METAR LMML 050445Z VRB02KT CAVOK 23/15 Q1015 NOSIG=
201107050415 METAR LMML 050415Z 22003KT CAVOK 22/15 Q1015 NOSIG=
201107050400 METAR LMML NIL=
201107050345 METAR LMML 050345Z 21004KT 180V240 CAVOK 23/14 Q1015 NOSIG=
201107050330 METAR LMML NIL=
201107050315 METAR LMML 050315Z 22003KT CAVOK 22/15 Q1016 NOSIG=
201107050300 METAR LMML NIL=
201107050245 METAR LMML 050245Z 22004KT 9000 NSC 21/19 Q1016 NOSIG=
201107050230 METAR LMML NIL=
201107050215 METAR LMML 050215Z 27003KT 9000 NSC 21/20 Q1016 NOSIG=
201107050200 METAR LMML NIL=
201107050145 METAR LMML 050145Z VRB02KT 9000 NSC 22/20 Q1016 NOSIG=
201107050130 METAR LMML NIL=
201107050115 METAR LMML 050115Z VRB02KT 9000 NSC 22/21 Q1016 NOSIG=
201107050100 METAR LMML NIL=
201107050045 METAR LMML 050045Z 16004KT 9000 NSC 22/21 Q1016 NOSIG=
201107050030 METAR LMML NIL=
201107050015 METAR LMML 050015Z VRB01KT 9000 NSC 22/21 Q1016 NOSIG=
201107050000 METAR LMML NIL=
201107042345 METAR LMML 042345Z 13003KT CAVOK 22/21 Q1016 NOSIG=
201107042330 METAR LMML NIL=
201107042315 METAR LMML 042315Z 12003KT CAVOK 22/21 Q1016 NOSIG=
201107042300 METAR LMML NIL=
201107042245 METAR LMML 042245Z 12003KT CAVOK 22/21 Q1017 NOSIG=
201107042230 METAR LMML NIL=
201107042215 METAR LMML 042215Z VRB01KT CAVOK 23/21 Q1017 NOSIG=
201107042200 METAR LMML NIL=
201107042145 METAR LMML 042145Z VRB02KT CAVOK 23/21 Q1017 NOSIG=
201107042130 METAR LMML NIL=
201107042115 METAR LMML 042115Z 24003KT CAVOK 23/21 Q1018 NOSIG=
201107042100 METAR LMML NIL=
201107042045 METAR LMML 042045Z 22003KT CAVOK 23/21 Q1017 NOSIG=
201107042030 METAR LMML NIL=
201107042015 METAR LMML 042015Z 16005KT 130V190 CAVOK 24/21 Q1016 NOSIG=
201107042000 METAR LMML NIL=
201107041945 METAR LMML 041945Z 15005KT 120V200 CAVOK 24/20 Q1016 NOSIG=
201107041930 METAR LMML NIL=
201107041915 METAR LMML 041915Z 13007KT CAVOK 24/20 Q1016 NOSIG=
201107041900 METAR LMML NIL=
201107041845 METAR LMML 041845Z 14006KT CAVOK 24/20 Q1016 NOSIG=
201107041830 METAR LMML NIL=
201107041815 METAR LMML 041815Z 14003KT CAVOK 25/20 Q1016 NOSIG=
201107041800 METAR LMML NIL=
201107041745 METAR LMML 041745Z 20004KT 170V250 CAVOK 26/20 Q1016 NOSIG=
201107041730 METAR LMML NIL=
201107041715 METAR LMML 041715Z 21005KT 150V280 CAVOK 26/20 Q1016 NOSIG=
201107041700 METAR LMML NIL=
201107041645 METAR LMML 041645Z 21005KT 170V250 CAVOK 27/19 Q1016 NOSIG=
201107041615 METAR LMML 041615Z 18005KT 150V230 CAVOK 28/20 Q1016 NOSIG=
201107041545 METAR LMML 041545Z 16005KT 130V210 CAVOK 28/19 Q1016 NOSIG=
201107041530 METAR LMML NIL=
201107041515 METAR LMML 041515Z 13005KT 040V170 CAVOK 28/19 Q1016 NOSIG=
201107041500 METAR LMML NIL=
201107041445 METAR LMML 041445Z 13006KT 090V170 CAVOK 29/19 Q1016 NOSIG=
201107041430 METAR LMML NIL=
201107041415 METAR LMML 041415Z 15004KT 080V320 CAVOK 30/19 Q1016 NOSIG=
201107041400 METAR LMML NIL=
201107041345 METAR LMML 041345Z 19003KT CAVOK 30/19 Q1016 NOSIG=
201107041330 METAR LMML NIL=
201107041315 METAR LMML 041315Z 02004KT CAVOK 31/18 Q1016 NOSIG=
201107041300 METAR LMML NIL=
201107041245 METAR LMML 041245Z 09003KT CAVOK 31/18 Q1016 NOSIG=
201107041230 METAR LMML NIL=
201107041215 METAR LMML 041215Z 11004KT CAVOK 31/18 Q1016 NOSIG=
201107041200 METAR LMML NIL=
201107041145 METAR LMML 041145Z 03004KT 340V100 CAVOK 30/18 Q1016 NOSIG=
201107041130 METAR LMML NIL=
201107041115 METAR LMML 041115Z 05005KT 310V160 CAVOK 30/17 Q1016 NOSIG=
201107041100 METAR LMML NIL=
201107041045 METAR LMML 041045Z 01004KT CAVOK 29/18 Q1016 NOSIG=
201107041030 METAR LMML NIL=
201107041015 METAR LMML 041015Z 21005KT 140V280 CAVOK 28/19 Q1016 NOSIG=
201107041000 METAR LMML NIL=
201107040945 METAR LMML 040945Z VRB02KT CAVOK 29/17 Q1016 NOSIG=
201107040930 METAR LMML NIL=
201107040915 METAR LMML 040915Z 03004KT 360V140 CAVOK 29/18 Q1016 NOSIG=
201107040900 METAR LMML NIL=
201107040845 METAR LMML 040845Z 06003KT CAVOK 29/18 Q1015 NOSIG=
201107040830 METAR LMML NIL=
201107040815 METAR LMML 040815Z 04004KT 330V100 CAVOK 28/18 Q1015 NOSIG=
201107040745 METAR LMML 040745Z 04003KT CAVOK 28/17 Q1015 NOSIG=
201107040730 METAR LMML NIL=
201107040715 METAR LMML 040715Z VRB02KT CAVOK 26/16 Q1015 NOSIG=
201107040700 METAR LMML NIL=
201107040645 METAR LMML 040645Z VRB01KT CAVOK 26/16 Q1015 NOSIG=
201107040630 METAR LMML NIL=
201107040615 METAR LMML 040615Z VRB01KT CAVOK 25/17 Q1015 NOSIG=
201107040600 METAR LMML NIL=
201107040545 METAR LMML 040545Z VRB01KT CAVOK 24/17 Q1014 NOSIG=
201107040530 METAR LMML NIL=
201107040515 METAR LMML 040515Z VRB01KT CAVOK 22/17 Q1014 NOSIG=
201107040500 METAR LMML NIL=
201107040445 METAR LMML 040445Z 23003KT CAVOK 20/17 Q1014 NOSIG=
201107040430 METAR LMML NIL=
201107040415 METAR LMML 040415Z 29004KT CAVOK 20/17 Q1014 NOSIG=
201107040400 METAR LMML NIL=
201107040345 METAR LMML 040345Z VRB01KT CAVOK 19/16 Q1013 NOSIG=
201107040330 METAR LMML NIL=
201107040315 METAR LMML 040315Z VRB01KT CAVOK 20/16 Q1013 NOSIG=
201107040300 METAR LMML NIL=
201107040245 METAR LMML 040245Z 21003KT CAVOK 20/16 Q1013 NOSIG=
201107040215 METAR LMML 040215Z 31004KT CAVOK 20/17 Q1013 NOSIG=
201107040200 METAR LMML NIL=
201107040145 METAR LMML 040145Z 30003KT CAVOK 20/16 Q1013 NOSIG=
201107040130 METAR LMML NIL=
201107040115 METAR LMML 040115Z 30005KT CAVOK 20/16 Q1013 NOSIG=
201107040100 METAR LMML NIL=
201107040045 METAR LMML 040045Z 32006KT CAVOK 21/16 Q1013 NOSIG=
201107040030 METAR LMML NIL=
201107040015 METAR LMML 040015Z VRB02KT CAVOK 21/15 Q1014 NOSIG=
201107040000 METAR LMML NIL=
201107032345 METAR LMML 032345Z 31003KT CAVOK 21/15 Q1014 NOSIG=
201107032330 METAR LMML NIL=
201107032315 METAR LMML 032315Z 30003KT CAVOK 22/15 Q1014 NOSIG=
201107032245 METAR LMML 032245Z 29004KT CAVOK 22/15 Q1014 NOSIG=
201107032230 METAR LMML NIL=
201107032215 METAR LMML 032215Z 28005KT 250V310 CAVOK 22/15 Q1014 NOSIG=
201107032200 METAR LMML NIL=
201107032145 METAR LMML 032145Z 29005KT 250V320 CAVOK 22/15 Q1014 NOSIG=
201107032115 METAR LMML 032115Z 30006KT CAVOK 23/15 Q1013 NOSIG=
201107032045 METAR LMML 032045Z 31004KT 280V340 CAVOK 23/14 Q1013 NOSIG=
201107032030 METAR LMML NIL=
201107032015 METAR LMML 032015Z 28006KT 250V310 CAVOK 23/14 Q1013 NOSIG=
201107032000 METAR LMML NIL=
201107031945 METAR LMML 031945Z 31006KT CAVOK 24/13 Q1013 NOSIG=
201107031930 METAR LMML NIL=
201107031915 METAR LMML 031915Z 28009KT CAVOK 24/13 Q1012 NOSIG=
201107031900 METAR LMML NIL=
201107031845 METAR LMML 031845Z 28010KT 250V310 CAVOK 25/11 Q1012 NOSIG=
201107031830 METAR LMML NIL=
201107031815 METAR LMML 031815Z 28008KT 250V320 CAVOK 26/11 Q1012 NOSIG=
201107031800 METAR LMML NIL=
201107031745 METAR LMML 031745Z 27009KT CAVOK 27/10 Q1012 NOSIG=
201107031715 METAR LMML 031715Z 28010KT 240V300 CAVOK 27/09 Q1012 NOSIG=
201107031700 METAR LMML NIL=
201107031645 METAR LMML 031645Z 28009KT 250V320 CAVOK 28/10 Q1012 NOSIG=
201107031630 METAR LMML NIL=
201107031615 METAR LMML 031615Z 30011KT CAVOK 29/11 Q1012 NOSIG=
201107031600 METAR LMML NIL=
201107031545 METAR LMML 031545Z 28011KT 250V320 CAVOK 30/11 Q1012 NOSIG=
201107031530 METAR LMML NIL=
201107031515 METAR LMML 031515Z 29010KT 260V330 CAVOK 30/10 Q1012 NOSIG=
201107031500 METAR LMML NIL=
201107031445 METAR LMML 031445Z 28009KT 240V300 CAVOK 29/13 Q1012 NOSIG=
201107031430 METAR LMML NIL=
201107031415 METAR LMML 031415Z 27008KT 190V310 CAVOK 30/13 Q1013 NOSIG=
201107031400 METAR LMML NIL=
201107031345 METAR LMML 031345Z 28010KT 250V310 CAVOK 30/13 Q1013 NOSIG=
201107031330 METAR LMML NIL=
201107031315 METAR LMML 031315Z 29009KT 240V330 CAVOK 29/15 Q1013 NOSIG=
201107031300 METAR LMML NIL=
201107031245 METAR LMML 031245Z 28011KT CAVOK 29/14 Q1013 NOSIG=
201107031230 METAR LMML NIL=
201107031215 METAR LMML 031215Z 29011KT 250V320 CAVOK 29/14 Q1013 NOSIG=
201107031200 METAR LMML NIL=
201107031145 METAR LMML 031145Z 28009KT 200V310 CAVOK 29/12 Q1013 NOSIG=
201107031130 METAR LMML NIL=
201107031115 METAR LMML 031115Z 32008KT 220V360 CAVOK 30/12 Q1013 NOSIG=
201107031045 METAR LMML 031045Z 31009KT 280V340 CAVOK 30/12 Q1013 NOSIG=
201107031030 METAR LMML NIL=
201107031015 METAR LMML 031015Z 31010KT 280V350 CAVOK 29/11 Q1013 NOSIG=
201107031000 METAR LMML NIL=
201107030945 METAR LMML 030945Z 33010KT CAVOK 29/11 Q1013 NOSIG=
201107030930 METAR LMML NIL=
201107030915 METAR LMML 030915Z 31010KT 280V340 CAVOK 28/12 Q1013 NOSIG=
201107030845 METAR LMML 030845Z 31009KT 280V350 CAVOK 28/13 Q1013 NOSIG=
201107030830 METAR LMML NIL=
201107030815 METAR LMML 030815Z 31007KT 230V350 CAVOK 26/16 Q1012 NOSIG=
201107030800 METAR LMML NIL=
201107030745 METAR LMML 030745Z 31007KT 280V340 CAVOK 26/16 Q1012 NOSIG=
201107030730 METAR LMML NIL=
201107030715 METAR LMML 030715Z 32007KT 270V010 CAVOK 25/17 Q1012 NOSIG=
201107030700 METAR LMML NIL=
201107030645 METAR LMML 030645Z 28010KT 250V310 CAVOK 25/15 Q1012 NOSIG=
201107030630 METAR LMML NIL=
201107030615 METAR LMML 030615Z 29008KT 250V320 CAVOK 24/16 Q1012 NOSIG=
201107030600 METAR LMML NIL=
201107030545 METAR LMML 030545Z 27005KT 220V320 CAVOK 23/17 Q1012 NOSIG=
201107030530 METAR LMML NIL=
201107030515 METAR LMML 030515Z VRB02KT CAVOK 22/17 Q1011 NOSIG=
201107030500 METAR LMML NIL=
201107030445 METAR LMML 030445Z VRB02KT CAVOK 21/16 Q1011 NOSIG=
201107030430 METAR LMML NIL=
201107030415 METAR LMML 030415Z VRB02KT CAVOK 21/17 Q1011 NOSIG=
201107030400 METAR LMML NIL=
201107030345 METAR LMML 030345Z 27004KT 200V310 CAVOK 21/16 Q1011 NOSIG=
201107030330 METAR LMML NIL=
201107030315 METAR LMML 030315Z VRB02KT CAVOK 20/16 Q1011 NOSIG=
201107030300 METAR LMML NIL=
201107030245 METAR LMML 030245Z 28003KT CAVOK 20/17 Q1011 NOSIG=
201107030230 METAR LMML NIL=
201107030215 METAR LMML 030215Z VRB02KT CAVOK 21/16 Q1011 NOSIG=
201107030200 METAR LMML NIL=
201107030145 METAR LMML 030145Z 22003KT CAVOK 21/15 Q1011 NOSIG=
201107030130 METAR LMML NIL=
201107030115 METAR LMML 030115Z 28011KT 240V310 CAVOK 21/16 Q1011 NOSIG=
201107030100 METAR LMML NIL=
201107030045 METAR LMML 030045Z 28010KT CAVOK 21/16 Q1011 NOSIG=
201107030030 METAR LMML NIL=
201107030015 METAR LMML 030015Z 29009KT 260V330 CAVOK 22/15 Q1011 NOSIG=
201107030000 METAR LMML NIL=
201107022345 METAR LMML 022345Z 29012KT 260V320 CAVOK 23/12 Q1011 NOSIG=
201107022330 METAR LMML NIL=
201107022315 METAR LMML 022315Z 29008KT 240V320 CAVOK 22/13 Q1011 NOSIG=
201107022245 METAR LMML 022245Z 29009KT CAVOK 22/15 Q1011 NOSIG=
201107022230 METAR LMML NIL=
201107022215 METAR LMML 022215Z 29011KT CAVOK 22/15 Q1012 NOSIG=
201107022200 METAR LMML NIL=
201107022145 METAR LMML 022145Z 27008KT 230V310 CAVOK 22/15 Q1012 NOSIG=
201107022130 METAR LMML NIL=
201107022115 METAR LMML 022115Z 27008KT 220V310 CAVOK 22/15 Q1012 NOSIG=
201107022045 METAR LMML 022045Z 26004KT 210V310 CAVOK 21/14 Q1012 NOSIG=
201107022030 METAR LMML NIL=
201107022015 METAR LMML 022015Z 28005KT 230V320 CAVOK 21/13 Q1012 NOSIG=
201107022000 METAR LMML NIL=
201107021945 METAR LMML 021945Z 31004KT 250V010 CAVOK 22/13 Q1012 NOSIG=
201107021930 METAR LMML NIL=
201107021915 METAR LMML 021915Z 30008KT 260V320 CAVOK 22/13 Q1011 NOSIG=
201107021900 METAR LMML NIL=
201107021845 METAR LMML 021845Z 30005KT 260V340 CAVOK 23/12 Q1011 NOSIG=
201107021830 METAR LMML NIL=
201107021815 METAR LMML 021815Z 29009KT CAVOK 23/13 Q1011 NOSIG=
201107021800 METAR LMML NIL=
201107021745 METAR LMML 021745Z 30011KT CAVOK 24/13 Q1011 NOSIG=
201107021715 METAR LMML 021715Z 30011KT 270V330 CAVOK 24/14 Q1011 NOSIG=
201107021700 METAR LMML NIL=
201107021645 METAR LMML 021645Z 29012KT 250V330 CAVOK 25/12 Q1011 NOSIG=
201107021630 METAR LMML NIL=
201107021615 METAR LMML 021615Z 29014KT CAVOK 26/12 Q1011 NOSIG=
201107021600 METAR LMML NIL=
201107021545 METAR LMML 021545Z 29014KT 260V320 CAVOK 26/15 Q1011 NOSIG=
201107021530 METAR LMML NIL=
201107021515 METAR LMML 021515Z 29017KT 260V320 CAVOK 26/14 Q1011 NOSIG=
201107021500 METAR LMML NIL=
201107021445 METAR LMML 021445Z 29017KT 260V320 CAVOK 26/13 Q1011 NOSIG=
201107021430 METAR LMML NIL=
201107021415 METAR LMML 021415Z 28015KT 250V310 CAVOK 26/14 Q1012 NOSIG=
201107021400 METAR LMML NIL=
201107021345 METAR LMML 021345Z 30014KT 270V330 CAVOK 27/13 Q1012 NOSIG=
201107021330 METAR LMML NIL=
201107021315 METAR LMML 021315Z 29012KT 240V330 9999 FEW015 27/16 Q1012
                        NOSIG=
201107021300 METAR LMML NIL=
201107021245 METAR LMML 021245Z 28015KT 260V320 9999 FEW015 26/16 Q1013
                        NOSIG=
201107021230 METAR LMML NIL=
201107021215 METAR LMML 021215Z 28014KT 240V310 9999 FEW015 26/15 Q1012
                        NOSIG=
201107021200 METAR LMML NIL=
201107021145 METAR LMML 021145Z 28014KT 230V310 9999 FEW015 26/15 Q1013
                        NOSIG=
201107021130 METAR LMML NIL=
201107021115 METAR LMML 021115Z 28014KT 240V310 9999 FEW015 26/15 Q1013
                        NOSIG=
201107021100 METAR LMML NIL=
201107021045 METAR LMML 021045Z 28013KT 250V310 9999 FEW012 26/15 Q1013
                        NOSIG=
201107021030 METAR LMML NIL=
201107021015 METAR LMML 021015Z 28012KT 250V310 9999 FEW012 26/14 Q1013
                        BECMG CAVOK=
201107020945 METAR LMML 020945Z 29011KT 250V320 9999 FEW012 27/10 Q1012
                        BECMG CAVOK=
201107020930 METAR LMML NIL=
201107020915 METAR LMML 020915Z 29011KT 250V330 9999 FEW015 27/09 Q1013
                        BECMG CAVOK=
201107020900 METAR LMML NIL=
201107020845 METAR LMML 020845Z 30012KT 250V320 9999 FEW015 26/11 Q1013
                        BECMG CAVOK=
201107020830 METAR LMML NIL=
201107020815 METAR LMML 020815Z 30012KT 270V330 9999 FEW015 25/15 Q1013
                        NOSIG=
201107020800 METAR LMML NIL=
201107020745 METAR LMML 020745Z 31011KT 280V340 9999 FEW015 25/16 Q1012
                        NOSIG=
201107020730 METAR LMML NIL=
201107020715 METAR LMML 020715Z 30014KT 9999 FEW015 24/17 Q1012 NOSIG=
201107020645 METAR LMML 020645Z 30013KT 9999 FEW015 23/18 Q1012 NOSIG=
201107020630 METAR LMML NIL=
201107020615 METAR LMML 020615Z 31010KT 9999 FEW015 23/18 Q1012 NOSIG=
201107020545 METAR LMML 020545Z 32008KT 280V340 9999 FEW012 22/18 Q1012
                        NOSIG=
201107020530 METAR LMML NIL=
201107020515 METAR LMML 020515Z 31008KT 9999 FEW012 21/18 Q1012 NOSIG=
201107020500 METAR LMML NIL=
201107020445 METAR LMML 020445Z 32006KT 280V340 9000 FEW012 20/18 Q1012
                        BECMG 9999=
201107020430 METAR LMML NIL=
201107020415 METAR LMML 020415Z 31008KT 7000 FEW012 20/18 Q1012 BECMG
                        9999=
201107020345 METAR LMML 020345Z 32008KT 7000 FEW015 20/18 Q1012 BECMG
                        9999=
201107020330 METAR LMML NIL=
201107020315 METAR LMML 020315Z 32007KT 9000 FEW015 20/18 Q1012 NOSIG=
201107020300 METAR LMML NIL=
201107020245 METAR LMML 020245Z 31006KT 280V340 9000 FEW015 20/18 Q1012
                        NOSIG=
201107020230 METAR LMML NIL=
201107020215 METAR LMML 020215Z 30010KT 9000 NSC 20/18 Q1012 NOSIG=
201107020200 METAR LMML NIL=
201107020145 METAR LMML 020145Z 31012KT CAVOK 20/18 Q1012 NOSIG=
201107020130 METAR LMML NIL=
201107020115 METAR LMML 020115Z 32011KT CAVOK 20/18 Q1012 NOSIG=
201107020100 METAR LMML NIL=
201107020045 METAR LMML 020045Z 32011KT CAVOK 20/18 Q1012 NOSIG=
201107020030 METAR LMML NIL=
201107020015 METAR LMML 020015Z 32012KT CAVOK 21/18 Q1012 NOSIG=
201107020000 METAR LMML NIL=
201107012345 METAR LMML 012345Z 31013KT CAVOK 21/17 Q1012 NOSIG=
201107012330 METAR LMML NIL=
201107012315 METAR LMML 012315Z 31011KT CAVOK 21/17 Q1012 NOSIG=
201107012300 METAR LMML NIL=
201107012245 METAR LMML 012245Z 31012KT CAVOK 21/17 Q1013 NOSIG=
201107012230 METAR LMML NIL=
201107012215 METAR LMML 012215Z 31011KT CAVOK 21/17 Q1013 NOSIG=
201107012200 METAR LMML NIL=
201107012145 METAR LMML 012145Z 30010KT CAVOK 21/17 Q1013 NOSIG=
201107012130 METAR LMML NIL=
201107012115 METAR LMML 012115Z 31012KT CAVOK 21/17 Q1013 NOSIG=
201107012100 METAR LMML NIL=
201107012045 METAR LMML 012045Z 33010KT 300V360 CAVOK 21/17 Q1013 NOSIG=
201107012030 METAR LMML NIL=
201107012015 METAR LMML 012015Z 33011KT 300V360 CAVOK 21/17 Q1013 NOSIG=
201107012000 METAR LMML NIL=
201107011945 METAR LMML 011945Z 33008KT 290V360 CAVOK 22/17 Q1013 NOSIG=
201107011930 METAR LMML NIL=
201107011915 METAR LMML 011915Z 33007KT 280V020 CAVOK 22/17 Q1013 NOSIG=
201107011900 METAR LMML NIL=
201107011845 METAR LMML 011845Z 34007KT 300V030 CAVOK 22/17 Q1012 NOSIG=
201107011830 METAR LMML NIL=
201107011815 METAR LMML 011815Z 30014KT 270V330 CAVOK 23/16 Q1012 NOSIG=
201107011800 METAR LMML NIL=
201107011745 METAR LMML 011745Z 30015KT CAVOK 23/16 Q1012 NOSIG=
201107011730 METAR LMML NIL=
201107011715 METAR LMML 011715Z 29017KT CAVOK 24/16 Q1012 NOSIG=
201107011700 METAR LMML NIL=
201107011645 METAR LMML 011645Z 29018KT 250V320 CAVOK 25/15 Q1012 NOSIG=
201107011630 METAR LMML NIL=
201107011615 METAR LMML 011615Z 29018KT 250V330 CAVOK 25/15 Q1012 NOSIG=
201107011600 METAR LMML NIL=
201107011545 METAR LMML 011545Z 29018KT 260V320 CAVOK 26/16 Q1012 NOSIG=
201107011530 METAR LMML NIL=
201107011515 METAR LMML 011515Z 29018KT 260V320 CAVOK 26/17 Q1012 NOSIG=
201107011500 METAR LMML NIL=
201107011445 METAR LMML 011445Z 29020KT 9999 FEW020 26/16 Q1013 NOSIG=
201107011430 METAR LMML NIL=
201107011415 METAR LMML 011415Z 30019KT 9999 FEW020 26/15 Q1013 NOSIG=
201107011400 METAR LMML NIL=
201107011345 METAR LMML 011345Z 29020KT 9999 FEW020 26/16 Q1014 NOSIG=
201107011330 METAR LMML NIL=
201107011315 METAR LMML 011315Z 30019KT 260V320 9999 FEW020 27/16 Q1014
                        NOSIG=
201107011300 METAR LMML NIL=
201107011245 METAR LMML 011245Z 30019KT 270V330 9999 FEW020 27/17 Q1014
                        NOSIG=
201107011230 METAR LMML NIL=
201107011215 METAR LMML 011215Z 29018KT 260V320 9999 FEW020 27/16 Q1014
                        NOSIG=
201107011200 METAR LMML NIL=
201107011145 METAR LMML 011145Z 30021KT 9999 FEW020 27/16 Q1014 NOSIG=
201107011130 METAR LMML NIL=
201107011115 METAR LMML 011115Z 30018KT 9999 FEW020 27/17 Q1014 NOSIG=
201107011100 METAR LMML NIL=
201107011045 METAR LMML 011045Z 30018KT 9999 FEW020 27/17 Q1014 NOSIG=
201107011030 METAR LMML NIL=
201107011015 METAR LMML 011015Z 30016KT 9999 FEW020 27/19 Q1014 NOSIG=
201107011000 METAR LMML NIL=
201107010945 METAR LMML 010945Z 30013KT 270V340 9999 FEW020 27/19 Q1014
                        NOSIG=
201107010930 METAR LMML NIL=
201107010915 METAR LMML 010915Z 31014KT 9999 FEW015 27/19 Q1014 NOSIG=
201107010900 METAR LMML NIL=
201107010845 METAR LMML 010845Z 31015KT 9999 FEW015 26/19 Q1014 NOSIG=
201107010830 METAR LMML NIL=
201107010815 METAR LMML 010815Z 31014KT 9999 FEW015 26/19 Q1014 NOSIG=
201107010800 METAR LMML NIL=
201107010745 METAR LMML 010745Z 32013KT 280V340 9999 FEW015 26/19 Q1014
                        NOSIG=
201107010730 METAR LMML NIL=
201107010715 METAR LMML 010715Z 33013KT 9999 FEW015 25/19 Q1014 NOSIG=
201107010645 METAR LMML 010645Z 31014KT 290V350 9999 FEW015 24/19 Q1014
                        NOSIG=
201107010630 METAR LMML NIL=
201107010615 METAR LMML 010615Z 31015KT 9999 FEW015 23/19 Q1014 NOSIG=
201107010600 METAR LMML NIL=
201107010545 METAR LMML 010545Z 31014KT 280V340 7000 FEW015 23/19 Q1014
                        BECMG 9999=
201107010530 METAR LMML NIL=
201107010515 METAR LMML 010515Z 32011KT 290V350 7000 FEW015 22/20 Q1013
                        BECMG 9999=
201107010500 METAR LMML NIL=
201107010445 METAR LMML 010445Z 31012KT 7000 FEW015 22/20 Q1013 NOSIG=
201107010430 METAR LMML NIL=
201107010415 METAR LMML 010415Z 31009KT 8000 FEW015 21/19 Q1013 NOSIG=
201107010400 METAR LMML NIL=
201107010345 METAR LMML 010345Z 30011KT 9999 FEW015 21/19 Q1013 NOSIG=
201107010330 METAR LMML NIL=
201107010315 METAR LMML 010315Z 30012KT 9999 FEW015 21/19 Q1013 NOSIG=
201107010245 METAR LMML 010245Z 30011KT CAVOK 21/19 Q1013 NOSIG=
201107010230 METAR LMML NIL=
201107010215 METAR LMML 010215Z 30010KT CAVOK 21/19 Q1013 NOSIG=
201107010200 METAR LMML NIL=
201107010145 METAR LMML 010145Z 29009KT 260V330 CAVOK 21/19 Q1013 NOSIG=
201107010130 METAR LMML NIL=
201107010115 METAR LMML 010115Z 31013KT CAVOK 22/19 Q1013 NOSIG=
201107010100 METAR LMML NIL=
201107010045 METAR LMML 010045Z 30015KT 270V330 CAVOK 22/19 Q1013 NOSIG=
201107010030 METAR LMML NIL=
201107010015 METAR LMML 010015Z 29013KT CAVOK 22/19 Q1013 NOSIG=
201107010000 METAR LMML NIL=

###################################
#  short TAF from LMML
###################################
201107312300 TAF LMML 312300Z 0100/0109 33005KT CAVOK
                      PROB40 TEMPO 0100/0109 9999 FEW015=
201107312000 TAF LMML 312000Z 3121/0106 32005KT CAVOK
                      PROB30 TEMPO 3121/0106 9999 FEW015=
201107311700 TAF LMML 311700Z 3118/0103 32010KT CAVOK
                      PROB30 TEMPO 3118/0103 9999 FEW015=
201107311400 TAF LMML 311400Z 3115/3124 32010KT 9999 FEW020
                      TEMPO 3115/3124 CAVOK=
201107311100 TAF LMML 311100Z 3112/3121 32010KT 9999 FEW025 SCT120=
201107310800 TAF LMML 310800Z 3109/3118 30011KT 9999 FEW020 SCT100=
201107310500 TAF LMML 310500Z 3106/3115 30008KT CAVOK
                      TEMPO 3106/3115 9999 FEW015 BKN100=
201107310200 TAF LMML 310200Z 3103/3112 28005KT CAVOK
                      PROB30 TEMPO 3103/3112 9999 FEW015 BKN100=
201107302300 TAF LMML 302300Z 3100/3109 28005KT CAVOK
                      PROB30 TEMPO 3100/3109 9999 FEW012 BKN100=
201107302000 TAF LMML 302000Z 3021/3106 28005KT CAVOK
                      PROB30 TEMPO 3102/3106 9999 FEW012 BKN100=
201107301700 TAF LMML 301700Z 3018/3103 28010KT CAVOK
                      PROB30 TEMPO 3018/3103 9999 FEW020=
201107301400 TAF LMML 301400Z 3015/3024 28012KT CAVOK
                      PROB30 TEMPO 3015/3024 9999 FEW020=
201107301100 TAF LMML 301100Z 3012/3021 30012KT CAVOK
                      PROB30 TEMPO 3012/3021 9999 FEW020=
201107300800 TAF LMML 300800Z 3009/3018 30012KT CAVOK
                      PROB30 TEMPO 3009/3018 9999 FEW020=
201107300500 TAF LMML 300500Z 3006/3015 30008KT CAVOK
                      PROB30 TEMPO 3006/3015 9999 FEW020=
201107300200 TAF LMML 300200Z 3003/3012 32010KT CAVOK
                      TEMPO 3003/3012 9999 FEW015=
201107292300 TAF LMML 292300Z 3000/3009 34010KT CAVOK=
201107292000 TAF LMML 292000Z 2921/3006 33008KT CAVOK
                      PROB30 TEMPO 2921/3006 9999 FEW020=
201107291700 TAF LMML 291700Z 2918/3003 30015KT 9999 FEW020
                      TEMPO 2918/3003 CAVOK
                      PROB30 TEMPO 2918/2921 30015G25KT
                      BECMG 3000/3003 33005KT=
201107291400 TAF LMML 291400Z 2915/2924 31015KT 9999 FEW025
                      TEMPO 2915/2924 CAVOK
                      PROB30 TEMPO 2915/2921 30015G25KT=
201107291100 TAF LMML 291100Z 2912/2921 32015KT 9999 FEW020
                      TEMPO 2912/2921 30015G25KT CAVOK=
201107290800 TAF LMML 290800Z 2909/2918 31015KT 9999 FEW020
                      TEMPO 2909/2918 29015G25KT CAVOK=
201107290500 TAF LMML 290500Z 2906/2915 30012KT 9999 FEW013=
201107290200 TAF LMML 290200Z 2903/2912 30008KT 9999 FEW010
                      TEMPO 2903/2905 5000 BKN005=
201107282300 TAF LMML 282300Z 2900/2909 30006KT 9999 FEW012
                      PROB30 TEMPO 2900/2906 7000 BKN008=
201107282000 TAF LMML 282000Z 2821/2906 30006KT 9999 FEW011
                      TEMPO 2821/2906 6000 BKN007=
201107281700 TAF LMML 281700Z 2818/2903 29008KT CAVOK
                      TEMPO 2818/2903 9999 FEW012
                      PROB30 TEMPO 2822/2903 9000 BKN005=
201107281400 TAF LMML 281400Z 2815/2824 VRB06KT CAVOK
                      TEMPO 2815/2824 9999 FEW012=
201107281100 TAF LMML 281100Z 2812/2821 VRB06KT 9999 FEW015
                      PROB30 TEMPO 2818/2821 CAVOK=
201107280800 TAF LMML 280800Z 2809/2818 VRB06KT 9999 FEW015=
201107280500 TAF LMML 280500Z 2806/2815 11005KT 9999 FEW015=
201107280200 TAF LMML 280200Z 2803/2812 10005KT 9999 FEW015
                      PROB30 TEMPO 2803/2806 8000 BKN010=
201107272300 TAF LMML 272300Z 2800/2809 10005KT 9999 FEW013
                      PROB30 TEMPO 2800/2806 8000 BKN010=
201107272000 TAF LMML 272000Z 2721/2806 10005KT 9999 FEW015
                      PROB30 TEMPO 2721/2806 8000 BKN010=
201107271700 TAF LMML 271700Z 2718/2803 08006KT CAVOK
                      TEMPO 2721/2803 8000 SCT008=
201107271400 TAF LMML 271400Z 2715/2724 10007KT 9999 FEW020
                      BECMG 2715/2718 CAVOK
                      TEMPO 2721/2724 9999 FEW008=
201107271100 TAF LMML 271100Z 2712/2721 10007KT 9999 FEW020=
201107270800 TAF LMML 270800Z 2709/2718 09008KT CAVOK
                      TEMPO 2709/2715 9999 FEW015=
201107270500 TAF LMML 270500Z 2706/2715 10006KT CAVOK
                      TEMPO 2706/2715 9999 FEW020=
201107270200 TAF LMML 270200Z 2703/2712 VRB05KT CAVOK
                      TEMPO 2703/2712 9999 FEW015
                      PROB30 TEMPO 2703/2706 9000 FEW010=
201107262300 TAF LMML 262300Z 2700/2709 VRB04KT CAVOK
                      TEMPO 2700/2709 9999 FEW015
                      PROB30 TEMPO 2700/2706 9000 FEW010=
201107262000 TAF LMML 262000Z 2621/2706 28005KT 9999 FEW020
                      BECMG 2621/2624 CAVOK
                      PROB30 TEMPO 2700/2706 9000 FEW010=
201107261700 TAF LMML 261700Z 2618/2703 28005KT 9999 FEW020
                      TEMPO 2618/2703 CAVOK=
201107261400 TAF LMML 261400Z 2615/2624 29008KT 9999 FEW020
                      TEMPO 2615/2624 CAVOK=
201107261100 TAF LMML 261100Z 2612/2621 29008KT 9999 FEW020
                      TEMPO 2612/2621 CAVOK=
201107260800 TAF LMML 260800Z 2609/2618 30008KT 9999 FEW020
                      TEMPO 2609/2618 CAVOK=
201107260500 TAF LMML 260500Z 2606/2615 29010KT 9999 FEW030=
201107260200 TAF LMML 260200Z 2603/2612 28010KT 9999 FEW030=
201107252300 TAF LMML 252300Z 2600/2609 28010KT 9999 FEW030=
201107252000 TAF LMML 252000Z 2521/2606 29010KT CAVOK
                      TEMPO 2521/2606 9999 FEW030=
201107251700 TAF LMML 251700Z 2518/2603 30016KT 9999 FEW020
                      PROB30 TEMPO 2518/2520 30016G26KT
                      BECMG 2600/2603 29006KT=
201107251400 TAF LMML 251400Z 2515/2524 29015KT 9999 FEW025 SCT090
                      PROB30 TEMPO 2515/2518 29015G25KT=
201107251100 TAF LMML 251100Z 2512/2521 29014KT 9999 SCT025 BKN090
                      PROB30 TEMPO 2512/2515 30015G25KT 9000 TSRA
                       BKN015 BKN060CB=
201107250800 TAF LMML 250800Z 2509/2518 29014KT 9999 SCT025 SCT100
                      PROB30 TEMPO 2509/2515 30015G25KT 9000 TSRA
                       BKN015 BKN060CB=
201107250500 TAF LMML 250500Z 2506/2515 31015KT 9999 FEW025
                      TEMPO 2506/2515 CAVOK
                      PROB30 TEMPO 2509/2515 BKN025=
201107250200 TAF LMML 250200Z 2503/2512 30012KT CAVOK
                      PROB30 TEMPO 2503/2512 31015G25KT 9999 FEW012=
201107242300 TAF LMML 242300Z 2500/2509 30013KT CAVOK
                      PROB40 TEMPO 2500/2506 31015G25KT 9999 SCT012=
201107242000 TAF LMML 242000Z 2421/2506 30015KT CAVOK
                      PROB40 TEMPO 2421/2506 31015G25KT 9999 SCT012=
201107241700 TAF LMML 241700Z 2418/2503 30017KT CAVOK
                      PROB30 TEMPO 2418/2421 31015G25KT
                      PROB40 TEMPO 2500/2503 9999 FEW015=
201107241400 TAF LMML 241400Z 2415/2424 29017KT CAVOK
                      TEMPO 2415/2424 9999 FEW015
                      PROB30 TEMPO 2415/2421 30015G25KT=
201107241100 TAF LMML 241100Z 2412/2421 29017KT CAVOK
                      PROB30 TEMPO 2412/2421 30015G25KT
                      PROB30 TEMPO 2418/2421 9999 FEW015=
201107240800 TAF LMML 240800Z 2409/2418 29018KT 9999 FEW020
                      TEMPO 2409/2418 CAVOK
                      PROB30 TEMPO 2412/2418 30015G25KT=
201107240500 TAF LMML 240500Z 2406/2415 31015KT 9999 FEW020
                      TEMPO 2406/2415 CAVOK
                      TEMPO 2412/2415 31015G25KT=
201107240200 TAF LMML 240200Z 2403/2412 31015KT 9999 FEW020=
201107232300 TAF LMML 232300Z 2400/2409 31013KT 9999 FEW020=
201107232000 TAF LMML 232000Z 2321/2406 33013KT 9999 FEW020=
201107231700 TAF LMML 231700Z 2318/2403 33010KT 9999 SCT015
                      TEMPO 2318/2403 8000 BKN010=
201107231400 TAF LMML 231400Z 2315/2324 33010KT 9999 SCT015=
201107231100 TAF LMML 231100Z 2312/2321 35010KT 9999 SCT015
                      PROB30 TEMPO 2315/2320 BKN015=
201107230800 TAF LMML 230800Z 2309/2318 07012KT 9999 SCT013
                      BECMG 2312/2315 32015KT=
201107230500 TAF LMML 230500Z 2306/2315 11014KT 9999 FEW012
                      TEMPO 2306/2315 CAVOK
                      BECMG 2308/2311 23009KT
                      BECMG 2313/2315 29013KT=
201107230200 TAF LMML 230200Z 2303/2312 12014KT 9999 FEW012
                      TEMPO 2303/2306 9000
                      PROB30 TEMPO 2303/2306 5000 BR BKN005
                      BECMG 2309/2312 25010KT=
201107222300 TAF LMML 222300Z 2300/2309 10013KT 9999 FEW012
                      TEMPO 2300/2306 9000
                      PROB30 TEMPO 2300/2306 5000 BR BKN005=
201107222000 TAF LMML 222000Z 2221/2306 10012KT CAVOK
                      TEMPO 2221/2306 9999 FEW010
                      PROB30 TEMPO 2300/2306 9000 SCT008=
201107221700 TAF LMML 221700Z 2218/2303 11010KT CAVOK=
201107221400 TAF LMML 221400Z 2215/2224 10009KT CAVOK=
201107221100 TAF LMML 221100Z 2212/2221 12007KT CAVOK=
201107220800 TAF LMML 220800Z 2209/2218 12004KT CAVOK
                      BECMG 2215/2218 13015KT=
201107220500 TAF LMML 220500Z 2206/2215 VRB05KT CAVOK=
201107220200 TAF LMML 220200Z 2203/2212 VRB05KT CAVOK
                      PROB30 TEMPO 2203/2212 9999 FEW020=
201107212300 TAF LMML 212300Z 2200/2209 VRB05KT CAVOK
                      PROB30 TEMPO 2200/2209 9999 FEW015=
201107212000 TAF LMML 212000Z 2121/2206 VRB05KT CAVOK
                      PROB30 TEMPO 2200/2206 9999 FEW012=
201107211700 TAF LMML 211700Z 2118/2203 29012KT CAVOK=
201107211400 TAF LMML 211400Z 2115/2124 30015KT 9999 FEW025
                      BECMG 2115/2118 CAVOK
                      BECMG 2121/2124 29005KT=
201107211100 TAF LMML 211100Z 2112/2121 30014KT 9999 FEW025
                      PROB30 TEMPO 2112/2117 30015G25KT CAVOK=
201107210800 TAF LMML 210800Z 2109/2118 29013KT 9999 FEW025
                      PROB30 TEMPO 2109/2118 30015G25KT CAVOK=
201107210500 TAF LMML 210500Z 2106/2115 31006KT 9999 FEW030
                      TEMPO 2109/2115 31015KT CAVOK=
201107210200 TAF LMML 210200Z 2103/2112 31005KT CAVOK
                      PROB30 TEMPO 2103/2106 9999 FEW018
                      BECMG 2106/2109 31015KT=
201107202300 TAF LMML 202300Z 2100/2109 31010KT CAVOK
                      PROB30 TEMPO 2103/2106 9999 FEW018=
201107202000 TAF LMML 202000Z 2021/2106 31010KT CAVOK
                      PROB30 TEMPO 2103/2106 9999 FEW015=
201107201700 TAF LMML 201700Z 2018/2103 29021KT CAVOK
                      PROB40 TEMPO 2018/2022 30018G28KT
                      BECMG 2022/2101 35014KT
                      PROB40 TEMPO 2100/2103 9999 FEW015=
201107201400 TAF LMML 201400Z 2015/2024 31021KT CAVOK
                      PROB40 TEMPO 2015/2022 30018G28KT
                      PROB30 TEMPO 2021/2024 9999 FEW015=
201107201100 TAF LMML 201100Z 2012/2021 31022KT CAVOK
                      PROB40 TEMPO 2012/2021 31018G28KT=
201107200800 TAF LMML 200800Z 2009/2018 31020KT CAVOK
                      PROB40 TEMPO 2009/2018 31017G27KT
                      PROB30 TEMPO 2009/2018 9999 FEW015=
201107200500 TAF LMML 200500Z 2006/2015 30017KT CAVOK
                      TEMPO 2006/2015 9999 FEW015=
201107200200 TAF LMML 200200Z 2003/2012 30016KT CAVOK
                      PROB40 TEMPO 2003/2012 9999 FEW015=
201107192300 TAF LMML 192300Z 2000/2009 30012KT CAVOK
                      PROB40 TEMPO 2000/2009 FEW007=
201107192000 TAF LMML 192000Z 1921/2006 21005KT CAVOK
                      BECMG 2000/2003 30010KT
                      PROB40 TEMPO 2000/2006 9000 FEW007=
201107191700 TAF LMML 191700Z 1918/2003 22005KT CAVOK
                      PROB30 TEMPO 1920/2003 30005KT 9000 SCT008=
201107191400 TAF LMML 191400Z 1915/1924 VRB05KT CAVOK
                      PROB30 TEMPO 1918/1924 30005KT 9000 FEW008=
201107191100 TAF LMML 191100Z 1912/1921 VRB05KT CAVOK=
201107190800 TAF LMML 190800Z 1909/1918 VRB05KT CAVOK=
201107190500 TAF LMML 190500Z 1906/1915 VRB05KT CAVOK=
201107190200 TAF LMML 190200Z 1903/1912 VRB05KT CAVOK
                      PROB30 TEMPO 1903/1906 9000 FEW010=
201107182300 TAF LMML 182300Z 1900/1909 34004KT CAVOK
                      PROB30 TEMPO 1900/1906 9000 FEW010=
201107182000 TAF LMML 182000Z 1821/1906 35005KT CAVOK
                      TEMPO 1821/1906 9000 FEW010
                      PROB30 TEMPO 1900/1906 5000 BR SCT005=
201107181700 TAF LMML 181700Z 1818/1903 VRB05KT CAVOK
                      PROB40 TEMPO 1900/1903 9000 FEW010=
201107181400 TAF LMML 181400Z 1815/1824 30005KT CAVOK=
201107181100 TAF LMML 181100Z 1812/1821 VRB05KT CAVOK=
201107180800 TAF LMML 180800Z 1809/1818 25005KT CAVOK=
201107180500 TAF LMML 180500Z 1806/1815 VRB08KT CAVOK=
201107180200 TAF LMML 180200Z 1803/1812 19006KT CAVOK
                      PROB30 TEMPO 1803/1806 9000 FEW010=
201107172300 TAF LMML 172300Z 1800/1809 19005KT CAVOK
                      PROB30 TEMPO 1800/1806 9000 FEW010=
201107172000 TAF LMML 172000Z 1721/1806 19005KT CAVOK
                      PROB30 TEMPO 1722/1806 9999 TS FEW080CB
                      PROB30 TEMPO 1800/1806 9000 FEW010=
201107171700 TAF LMML 171700Z 1718/1803 19006KT CAVOK
                      PROB30 TEMPO 1720/1803 9000 FEW010=
201107171400 TAF LMML 171400Z 1715/1724 22008KT CAVOK
                      PROB30 TEMPO 1720/1724 9000 FEW010=
201107171100 TAF LMML 171100Z 1712/1721 23008KT CAVOK=
201107170800 TAF LMML 170800Z 1709/1718 25008KT CAVOK
                      PROB30 TEMPO 1709/1715 9999 FEW025=
201107170500 TAF LMML 170500Z 1706/1715 27006KT CAVOK
                      TEMPO 1712/1715 19006KT=
201107170200 TAF LMML 170200Z 1703/1712 30005KT CAVOK=
201107162300 TAF LMML 162300Z 1700/1709 30005KT CAVOK
                      PROB30 TEMPO 1701/1706 9000 FEW012=
201107162000 TAF LMML 162000Z 1621/1706 VRB03KT CAVOK
                      PROB30 TEMPO 1701/1706 9000 FEW012=
201107161700 TAF LMML 161700Z 1618/1703 VRB03KT CAVOK=
201107161400 TAF LMML 161400Z 1615/1624 VRB04KT CAVOK=
201107161100 TAF LMML 161100Z 1612/1621 29005KT CAVOK
                      PROB40 TEMPO 1612/1618 9999 FEW020=
201107160800 TAF LMML 160800Z 1609/1618 VRB05KT CAVOK=
201107160500 TAF LMML 160500Z 1606/1615 VRB05KT CAVOK=
201107160200 TAF LMML 160200Z 1603/1612 VRB03KT CAVOK
                      PROB30 TEMPO 1603/1606 9000 FEW015=
201107152300 TAF LMML 152300Z 1600/1609 34004KT CAVOK
                      PROB30 TEMPO 1600/1605 9000 FEW015=
201107152000 TAF LMML 152000Z 1521/1606 34004KT CAVOK
                      PROB3O TEMPO 1600/1605 9000 FEW015=
201107151700 TAF LMML 151700Z 1518/1603 VRB03KT CAVOK
                      PROB30 TEMPO 1523/1603 9999 FEW015=
201107151400 TAF LMML 151400Z 1515/1524 VRB05KT 9999 FEW025
                      TEMPO 1516/1524 CAVOK=
201107151100 TAF LMML 151100Z 1512/1521 29005KT 9999 FEW018=
201107150800 TAF LMML 150800Z 1509/1518 29005KT 9999 FEW015=
201107150500 TAF LMML 150500Z 1506/1515 30007KT 9999 FEW015=
201107150200 TAF LMML 150200Z 1503/1512 30006KT CAVOK
                      TEMPO 1503/1506 7000 SCT005
                      BECMG 1506/1509 9999 FEW015=
201107142300 TAF LMML 142300Z 1500/1509 30005KT CAVOK
                      TEMPO 1500/1506 8000 SCT006
                      BECMG 1506/1509 9999 FEW012=
201107142000 TAF LMML 142000Z 1421/1506 30005KT CAVOK
                      TEMPO 1421/1506 9999 SCT011=
201107141700 TAF LMML 141700Z 1418/1503 31008KT 9999 FEW015
                      TEMPO 1418/1503 CAVOK=
201107141400 TAF LMML 141400Z 1415/1424 31008KT 9999 FEW015
                      PROB40 CAVOK=
201107141100 TAF LMML 141100Z 1412/1421 31008KT CAVOK
                      PROB40 TEMPO 1412/1421 9999 FEW015=
201107140800 TAF LMML 140800Z 1409/1418 31008KT CAVOK
                      PROB30 TEMPO 1409/1418 9999 FEW015=
201107140500 TAF LMML 140500Z 1406/1415 29008KT CAVOK=
201107140200 TAF LMML 140200Z 1403/1412 27006KT CAVOK
                      PROB30 TEMPO 1403/1406 9000 NSC=
201107132300 TAF LMML 132300Z 1400/1409 VRB03KT CAVOK
                      PROB30 TEMPO 1400/1406 9000 NSC=
201107132000 TAF LMML 132000Z 1321/1406 VRB03KT CAVOK
                      PROB30 TEMPO 1402/1406 9000 FEW003=
201107131700 TAF LMML 131700Z 1318/1403 VRB03KT CAVOK
                      PROB30 TEMPO 1400/1403 8000 FEW004=
201107131400 TAF LMML 131400Z 1315/1324 VRB05KT CAVOK=
201107131100 TAF LMML 131100Z 1312/1324 12006KT CAVOK=
201107130800 TAF LMML 130800Z 1309/1318 VRB05KT CAVOK=
201107130500 TAF LMML 130500Z 1306/1315 15005KT CAVOK=
201107130200 TAF LMML 130200Z 1303/1312 15005KT CAVOK
                      PROB30 TEMPO 1303/1305 9000 NSC=
201107122300 TAF LMML 122300Z 1300/1309 VRB05KT CAVOK
                      PROB30 TEMPO 1302/1305 9000 NSC=
201107122000 TAF LMML 122000Z 1221/1306 VRB03KT CAVOK
                      PROB30 TEMPO 1302/1306 9000 NSC=
201107121700 TAF LMML 121700Z 1218/1303 VRB03KT CAVOK=
201107121400 TAF LMML 121400Z 1215/1224 VRB04KT CAVOK=
201107121220 TAF COR LMML 121220Z 1212/1221 VRB05KT CAVOK=
201107121200 TAF COR LMML 121200Z 1212/1221 VRB05KT CAVOK=
201107121100 TAF LMML NIL=
201107120800 TAF LMML 120800Z 1209/1218 25006KT CAVOK=
201107120500 TAF LMML 120500Z 1206/1215 26005KT CAVOK=
201107120200 TAF LMML 120200Z 1203/1212 VRB03KT CAVOK=
201107112300 TAF LMML 112300Z 1200/1209 VRB03KT CAVOK=
201107112000 TAF LMML 112000Z 1121/1206 31004KT CAVOK=
201107111700 TAF LMML 111700Z 1118/1203 VRB03KT CAVOK=
201107111400 TAF LMML 111400Z 1115/1124 VRB05KT CAVOK=
201107111100 TAF LMML 111100Z 1112/1121 30008KT CAVOK=
201107110800 TAF LMML 110800Z 1109/1118 30008KT CAVOK=
201107110500 TAF LMML 110500Z 1106/1115 30005KT CAVOK=
201107110200 TAF LMML 110200Z 1103/1112 29005KT CAVOK=
201107102300 TAF LMML 102300Z 1100/1109 30005KT CAVOK=
201107102000 TAF LMML 102000Z 1021/1106 30005KT CAVOK
                      PROB30 TEMPO 1100/1106 9000 NSC=
201107101700 TAF LMML 101700Z 1015/1103 29005KT CAVOK=
201107101400 TAF LMML 101400Z 1015/1024 VRB03KT CAVOK=
201107101100 TAF LMML 101100Z 1012/1021 VRB03KT CAVOK=
201107100800 TAF LMML 100800Z 1009/1018 30005KT CAVOK=
201107100500 TAF LMML 100500Z 1006/1015 30005KT CAVOK=
201107100200 TAF LMML 100200Z 1003/1012 30005KT CAVOK
                      PROB30 TEMPO 1003/1005 9000 FEW005=
201107092300 TAF LMML 092300Z 1000/1009 30005KT CAVOK
                      PROB30 TEMPO 1000/1005 9000 FEW005=
201107092000 TAF LMML 092000Z 0921/1006 30005KT CAVOK
                      PROB30 TEMPO 1000/1005 9000 FEW005=
201107091700 TAF LMML 091700Z 0918/1003 26005KT CAVOK
                      PROB30 TEMPO 1000/1003 9000 NSC=
201107091400 TAF LMML 091400Z 0915/0924 26005KT CAVOK=
201107091100 TAF LMML 091100Z 0912/0921 VRB06KT CAVOK
                      PROB30 TEMPO 0912/0916 9999 FEW030=
201107090800 TAF LMML 090800Z 0909/0918 VRB05KT CAVOK
                      PROB30 TEMPO 0909/0918 9999 FEW025=
201107090500 TAF LMML 090500Z 0906/0915 24005KT CAVOK=
201107090200 TAF LMML 090200Z 0903/0912 23004KT CAVOK
                      PROB30 TEMPO 0903/0905 9000 NSC=
201107082300 TAF LMML 082300Z 0900/0909 VRB03KT CAVOK
                      PROB30 TEMPO 0902/0905 9000 NSC=
201107082000 TAF LMML 082000Z 0821/0906 VRB03KT CAVOK=
201107081700 TAF LMML 081700Z 0818/0903 VRB03KT CAVOK
                      PROB30 TEMPO 0900/0903 8000 FEW004=
201107081400 TAF LMML 081400Z 0815/0824 VRB05KT 9999 FEW030
                      BECMG 0815/0818 CAVOK=
201107081100 TAF LMML 081100Z 0812/0821 VRB05KT CAVOK=
201107080800 TAF LMML 080800Z 0809/0818 VRB05KT CAVOK=
201107080500 TAF LMML 080500Z 0806/0815 VRB05KT CAVOK=
201107080200 TAF LMML 080200Z 0803/0812 VRB05KT CAVOK
                      PROB30 TEMPO 0808/0812 9999 FEW025=
201107072300 TAF LMML 072300Z 0800/0809 VRB03KT CAVOK=
201107072000 TAF LMML 072000Z 0721/0806 VRB03KT CAVOK=
201107071700 TAF LMML 071700Z 0718/0803 VRB03KT 9999 FEW025
                      TEMPO 0718/0803 CAVOK=
201107071400 TAF LMML 071400Z 0715/0724 VRB03KT 9999 FEW025
                      TEMPO 0715/0724 CAVOK=
201107071100 TAF LMML 071100Z 0712/0721 08006KT CAVOK
                      TEMPO 0712/0719 9999 FEW025=
201107070800 TAF LMML 070800Z 0709/0718 07008KT CAVOK
                      PROB30 TEMPO 0709/0718 9999 FEW025=
201107070500 TAF LMML 070500Z 0706/0715 08006KT 9999 FEW015
                      TEMPO 0706/0715 CAVOK=
201107070200 TAF LMML 070200Z 0703/0712 09008KT 9999 FEW015
                      TEMPO 0703/0706 7000 BKN008=
201107062300 TAF LMML 062300Z 0700/0709 08007KT 9999 SCT009
                      TEMPO 0700/0706 7000 BKN006=
201107062000 TAF LMML 062000Z 0621/0706 08007KT 9999 FEW012
                      TEMPO 0621/0624 CAVOK
                      PROB40 TEMPO 0700/0706 8000 BKN008=
201107061700 TAF LMML 061700Z 0618/0703 02009KT 9999 FEW015
                      TEMPO 0618/0624 CAVOK
                      PROB30 TEMPO 0700/0703 8000 BKN008=
201107061400 TAF LMML 061400Z 0615/0624 01012KT CAVOK
                      PROB30 TEMPO 0615/0618 02015G25KT 9999 FEW020=
201107061100 TAF LMML 061100Z 0612/0621 01009KT CAVOK
                      TEMPO 0612/0621 9999 FEW020=
201107060800 TAF LMML 060800Z 0609/0618 35009KT 9999 FEW018
                      TEMPO 0609/0618 CAVOK=
201107060500 TAF LMML 060500Z 0606/0615 33010KT 9999 SCT015=
201107060200 TAF LMML 060200Z 0603/0612 32005KT 9999 SCT018=
201107052300 TAF LMML 052300Z 0600/0609 VRB03KT 9999 FEW012
                      BECMG 0606/0609 33010KT=
201107052000 TAF LMML 052000Z 0521/0606 VRB03KT CAVOK
                      TEMPO 0600/0606 8000 SCT004
                      BECMG 0603/0606 33010KT=
201107051700 TAF LMML 051700Z 0518/0603 VRB05KT CAVOK
                      PROB40 TEMPO 0523/0603 8000 SCT003
                      BECMG 0600/0603 33010KT=
201107051400 TAF LMML 051400Z 0515/0524 VRB05KT CAVOK
                      BECMG 0521/0524 30010KT
                      PROB30 TEMPO 0521/0524 9000 FEW005=
201107051100 TAF LMML 051100Z 0512/0521 VRB06KT CAVOK=
201107050800 TAF LMML 050800Z 0509/0518 VRB08KT CAVOK=
201107050500 TAF LMML 050500Z 0506/0515 18005KT CAVOK=
201107050200 TAF LMML 050200Z 0503/0512 12005KT CAVOK
                      TEMPO 0503/0506 8000 FEW005=
201107042300 TAF LMML 042300Z 0500/0509 VRB03KT CAVOK
                      PROB30 TEMPO 0503/0506 9000 FEW005=
201107042000 TAF LMML 042000Z 0421/0506 15004KT CAVOK
                      PROB30 TEMPO 0503/0506 9999 FEW005=
201107041700 TAF LMML 041700Z 0418/0503 18004KT CAVOK
                      PROB30 TEMPO 0423/0503 9999 FEW005=
201107041400 TAF LMML 041400Z 0415/0424 17005KT CAVOK
                      TEMPO 0421/0424 8000 SCT006=
201107041100 TAF LMML 041100Z 0412/0421 17006KT CAVOK=
201107040800 TAF LMML 040800Z 0409/0418 08008KT CAVOK=
201107040500 TAF LMML 040500Z 0406/0415 VRB03KT CAVOK=
201107040200 TAF LMML 040200Z 0403/0412 VRB05KT CAVOK
                      PROB30 TEMPO 0403/0406 9000 FEW010=
201107032300 TAF LMML 032300Z 0400/0409 30005KT CAVOK
                      PROB30 TEMPO 0402/0406 9000 FEW010=
201107032000 TAF LMML 032000Z 0321/0406 30005KT CAVOK
                      PROB30 TEMPO 0402/0406 9000 FEW010=
201107031700 TAF LMML 031700Z 0318/0403 30005KT CAVOK=
201107031401 TAF LMML 031401Z 0315/0324 30007KT CAVOK=
201107031400 TAF LMML 031400Z 0312/0324 30007KT CAVOK=
201107031100 TAF LMML 031100Z 0312/0321 30010KT CAVOK=
201107030800 TAF LMML 030800Z 0309/0318 30010KT CAVOK=
201107030500 TAF LMML 030500Z 0306/0315 29010KT CAVOK=
201107030200 TAF LMML 030200Z 0303/0312 29010KT CAVOK
                      PROB40 TEMPO 0303/0312 9999 FEW015=
201107022300 TAF LMML 022300Z 0300/0309 29010KT CAVOK
                      PROB40 TEMPO 0302/0309 9999 FEW012=
201107022000 TAF LMML 022000Z 0221/0306 29010KT CAVOK
                      PROB40 TEMPO 0302/0306 9000 FEW012=
201107021700 TAF LMML 021700Z 0218/0303 29015KT CAVOK=
201107021400 TAF LMML 021400Z 0215/0224 29015KT CAVOK
                      TEMPO 0215/0221 9999 FEW015=
201107021100 TAF LMML 021100Z 0212/0221 29013KT 9999 FEW015
                      PROB40 TEMPO 0212/0221 CAVOK=
201107020800 TAF LMML 020800Z 0209/0218 29013KT 9999 FEW015
                      PROB40 TEMPO 0209/0218 CAVOK=
201107020500 TAF LMML 020500Z 0206/0215 32011KT 9999 FEW015=
201107020200 TAF LMML 020200Z 0203/0212 32010KT CAVOK
                      TEMPO 0203/0212 9999 FEW012=
201107012300 TAF LMML 012300Z 0200/0209 32010KT CAVOK
                      TEMPO 0200/0209 9999 FEW012=
201107012000 TAF LMML 012000Z 0121/0206 32010KT CAVOK
                      TEMPO 0121/0206 9000 FEW008=
201107011700 TAF LMML 011700Z 0118/0203 32015KT CAVOK
                      PROB40 TEMPO 0200/0203 8000 NSC
                      PROB30 TEMPO 0200/0203 9999 FEW005=
201107011400 TAF LMML 011400Z 0115/0124 30018KT 9999 FEW012
                      TEMPO 0115/0124 CAVOK
                      PROB30 TEMPO 0115/0118 29015G25KT=
201107011100 TAF LMML 011100Z 0112/0121 29016KT 9999 FEW015
                      TEMPO 0112/0121 CAVOK
                      PROB30 TEMPO 0112/0118 29015G25KT=
201107010800 TAF LMML 010800Z 0109/0118 29018KT 9999 FEW015
                      TEMPO 0109/0118 CAVOK
                      PROB30 TEMPO 0109/0118 29015G25KT=
201107010500 TAF LMML 010500Z 0106/0115 31015G25KT CAVOK
                      TEMPO 0106/0115 9999 FEW015=
201107010200 TAF LMML 010200Z 0103/0112 30015G25KT CAVOK
                      PROB30 TEMPO 0103/0106 8000 FEW005=

###################################
#  large TAF from LMML
###################################
201107312300 TAF LMML NIL=
201107311100 TAF LMML NIL=
201107310500 TAF LMML NIL=
201107302300 TAF LMML NIL=
201107301700 TAF LMML NIL=
201107301100 TAF LMML NIL=
201107300500 TAF LMML NIL=
201107292300 TAF LMML NIL=
201107291700 TAF LMML NIL=
201107291100 TAF LMML NIL=
201107290500 TAF LMML NIL=
201107282300 TAF LMML NIL=
201107281700 TAF LMML NIL=
201107281100 TAF LMML NIL=
201107280500 TAF LMML NIL=
201107272300 TAF LMML NIL=
201107271700 TAF LMML NIL=
201107271100 TAF LMML NIL=
201107270500 TAF LMML NIL=
201107262300 TAF LMML NIL=
201107261700 TAF LMML NIL=
201107261100 TAF LMML NIL=
201107260500 TAF LMML NIL=
201107252300 TAF LMML NIL=
201107251700 TAF LMML NIL=
201107251100 TAF LMML NIL=
201107250500 TAF LMML NIL=
201107242300 TAF LMML NIL=
201107241700 TAF LMML NIL=
201107241100 TAF LMML NIL=
201107240500 TAF LMML NIL=
201107232300 TAF LMML NIL=
201107231700 TAF LMML NIL=
201107231100 TAF LMML NIL=
201107230500 TAF LMML NIL=
201107222300 TAF LMML NIL=
201107221700 TAF LMML NIL=
201107221100 TAF LMML NIL=
201107220500 TAF LMML NIL=
201107212300 TAF LMML NIL=
201107211700 TAF LMML NIL=
201107211100 TAF LMML NIL=
201107210500 TAF LMML NIL=
201107202300 TAF LMML NIL=
201107201700 TAF LMML NIL=
201107201100 TAF LMML NIL=
201107200500 TAF LMML NIL=
201107192300 TAF LMML NIL=
201107191700 TAF LMML NIL=
201107191100 TAF LMML NIL=
201107190500 TAF LMML NIL=
201107182300 TAF LMML NIL=
201107181700 TAF LMML NIL=
201107181100 TAF LMML NIL=
201107180500 TAF LMML NIL=
201107172300 TAF LMML NIL=
201107171700 TAF LMML NIL=
201107171100 TAF LMML NIL=
201107170500 TAF LMML NIL=
201107162300 TAF LMML NIL=
201107161700 TAF LMML NIL=
201107161100 TAF LMML NIL=
201107160500 TAF LMML NIL=
201107152300 TAF LMML NIL=
201107151700 TAF LMML NIL=
201107151100 TAF LMML NIL=
201107150500 TAF LMML NIL=
201107142300 TAF LMML NIL=
201107141700 TAF LMML NIL=
201107141100 TAF LMML NIL=
201107140500 TAF LMML NIL=
201107132300 TAF LMML NIL=
201107131700 TAF LMML NIL=
201107131100 TAF LMML 131100Z 1312/1324 12006KT CAVOK=
201107130500 TAF LMML NIL=
201107122300 TAF LMML NIL=
201107121700 TAF LMML NIL=
201107121100 TAF LMML NIL=
201107112300 TAF LMML NIL=
201107111700 TAF LMML NIL=
201107111100 TAF LMML NIL=
201107110500 TAF LMML NIL=
201107102300 TAF LMML NIL=
201107101700 TAF LMML 101700Z 1015/1103 29005KT CAVOK=
201107101100 TAF LMML NIL=
201107100500 TAF LMML NIL=
201107092300 TAF LMML NIL=
201107091700 TAF LMML NIL=
201107090500 TAF LMML NIL=
201107082300 TAF LMML NIL=
201107081700 TAF LMML NIL=
201107081100 TAF LMML NIL=
201107080500 TAF LMML NIL=
201107072300 TAF LMML NIL=
201107071700 TAF LMML NIL=
201107071100 TAF LMML NIL=
201107070500 TAF LMML NIL=
201107062300 TAF LMML NIL=
201107061700 TAF LMML NIL=
201107061100 TAF LMML NIL=
201107060500 TAF LMML NIL=
201107052300 TAF LMML NIL=
201107051700 TAF LMML NIL=
201107051100 TAF LMML NIL=
201107050500 TAF LMML NIL=
201107042300 TAF LMML NIL=
201107041700 TAF LMML NIL=
201107041100 TAF LMML NIL=
201107040500 TAF LMML NIL=
201107032300 TAF LMML NIL=
201107031700 TAF LMML NIL=
201107031400 TAF LMML 031400Z 0312/0324 30007KT CAVOK=
201107031100 TAF LMML NIL=
201107030500 TAF LMML NIL=
201107022300 TAF LMML NIL=
201107021700 TAF LMML NIL=
201107021100 TAF LMML NIL=
201107020500 TAF LMML NIL=
201107012300 TAF LMML NIL=
201107011700 TAF LMML NIL=
201107011100 TAF LMML NIL=
201107010500 TAF LMML NIL=
