##########################################################
# Query made at 12/28/2012 16:26:53 UTC
# Time interval: from 07/01/2012 00:00  to 07/31/2012 23:59  UTC
##########################################################

##########################################################
# LMML, Luqa (Malta)
# WMO index: 16597
# Latitude 35-51N. Longitude 014-29E. Altitude 91 m.
##########################################################

###################################
#  METAR/SPECI from LMML
###################################
201207312345 METAR LMML 312345Z 36006KT 320V070 CAVOK 25/22 Q1011 NOSIG=
201207312330 METAR LMML NIL=
201207312315 METAR LMML 312315Z 31004KT CAVOK 25/20 Q1011 NOSIG=
201207312300 METAR LMML NIL=
201207312245 METAR LMML 312245Z 29004KT CAVOK 25/20 Q1012 NOSIG=
201207312230 METAR LMML NIL=
201207312215 METAR LMML 312215Z 28004KT 250V340 CAVOK 26/20 Q1012 NOSIG=
201207312200 METAR LMML NIL=
201207312145 METAR LMML 312145Z 28005KT CAVOK 26/20 Q1012 NOSIG=
201207312130 METAR LMML NIL=
201207312115 METAR LMML 312115Z 26004KT 230V300 CAVOK 26/20 Q1012 NOSIG=
201207312100 METAR LMML NIL=
201207312045 METAR LMML 312045Z 27006KT 230V300 CAVOK 27/19 Q1012 NOSIG=
201207312030 METAR LMML NIL=
201207312015 METAR LMML 312015Z 29006KT 260V320 CAVOK 27/18 Q1012 NOSIG=
201207312000 METAR LMML NIL=
201207311945 METAR LMML 311945Z 28007KT CAVOK 27/19 Q1012 NOSIG=
201207311930 METAR LMML NIL=
201207311915 METAR LMML 311915Z 29007KT CAVOK 27/18 Q1012 NOSIG=
201207311900 METAR LMML NIL=
201207311845 METAR LMML 311845Z 30008KT CAVOK 27/18 Q1012 NOSIG=
201207311830 METAR LMML NIL=
201207311815 METAR LMML 311815Z 30009KT CAVOK 28/19 Q1012 NOSIG=
201207311800 METAR LMML NIL=
201207311745 METAR LMML 311745Z 31009KT CAVOK 28/20 Q1012 NOSIG=
201207311730 METAR LMML NIL=
201207311715 METAR LMML 311715Z 31010KT CAVOK 29/19 Q1012 NOSIG=
201207311700 METAR LMML NIL=
201207311645 METAR LMML 311645Z 30010KT 270V330 CAVOK 31/19 Q1012 NOSIG=
201207311630 METAR LMML NIL=
201207311615 METAR LMML 311615Z 31009KT CAVOK 33/13 Q1012 NOSIG=
201207311600 METAR LMML NIL=
201207311545 METAR LMML 311545Z 31010KT 270V350 CAVOK 34/14 Q1012 NOSIG=
201207311530 METAR LMML NIL=
201207311515 METAR LMML 311515Z 32009KT 280V360 CAVOK 35/09 Q1012 NOSIG=
201207311500 METAR LMML NIL=
201207311445 METAR LMML 311445Z 30009KT 270V360 CAVOK 35/12 Q1013 NOSIG=
201207311430 METAR LMML NIL=
201207311415 METAR LMML 311415Z 34006KT 300V040 CAVOK 35/11 Q1013 NOSIG=
201207311400 METAR LMML NIL=
201207311345 METAR LMML 311345Z 32006KT 280V020 CAVOK 35/12 Q1013 NOSIG=
201207311330 METAR LMML NIL=
201207311315 METAR LMML 311315Z 36007KT 300V060 CAVOK 36/11 Q1013 NOSIG=
201207311300 METAR LMML NIL=
201207311245 METAR LMML 311245Z 03005KT 300V110 CAVOK 36/11 Q1013 NOSIG=
201207311230 METAR LMML NIL=
201207311215 METAR LMML 311215Z 01005KT 310V060 CAVOK 36/11 Q1013 NOSIG=
201207311200 METAR LMML NIL=
201207311145 METAR LMML 311145Z 34004KT 280V030 CAVOK 35/13 Q1013 NOSIG=
201207311130 METAR LMML NIL=
201207311115 METAR LMML 311115Z 32006KT 270V030 CAVOK 34/13 Q1014 NOSIG=
201207311100 METAR LMML NIL=
201207311045 METAR LMML 311045Z 32005KT 280V030 CAVOK 33/13 Q1014 NOSIG=
201207311030 METAR LMML NIL=
201207311015 METAR LMML 311015Z 34006KT 290V040 CAVOK 33/15 Q1014 NOSIG=
201207311000 METAR LMML NIL=
201207310945 METAR LMML 310945Z 32007KT 290V360 CAVOK 32/15 Q1014 NOSIG=
201207310930 METAR LMML NIL=
201207310915 METAR LMML 310915Z 34008KT 300V010 CAVOK 32/14 Q1014 NOSIG=
201207310900 METAR LMML NIL=
201207310845 METAR LMML 310845Z 33007KT 300V010 CAVOK 31/15 Q1014 NOSIG=
201207310830 METAR LMML NIL=
201207310815 METAR LMML 310815Z 33007KT 290V360 CAVOK 29/16 Q1014 NOSIG=
201207310800 METAR LMML NIL=
201207310745 METAR LMML 310745Z 32008KT 300V360 CAVOK 31/17 Q1014 NOSIG=
201207310730 METAR LMML NIL=
201207310715 METAR LMML 310715Z 32008KT CAVOK 29/17 Q1014 NOSIG=
201207310700 METAR LMML NIL=
201207310645 METAR LMML 310645Z 32009KT CAVOK 28/18 Q1014 NOSIG=
201207310630 METAR LMML NIL=
201207310615 METAR LMML 310615Z 33008KT CAVOK 27/18 Q1014 NOSIG=
201207310600 METAR LMML NIL=
201207310545 METAR LMML 310545Z 32008KT CAVOK 26/19 Q1013 NOSIG=
201207310530 METAR LMML NIL=
201207310515 METAR LMML 310515Z 32006KT CAVOK 25/19 Q1013 NOSIG=
201207310500 METAR LMML NIL=
201207310445 METAR LMML 310445Z 32006KT CAVOK 24/19 Q1013 NOSIG=
201207310430 METAR LMML NIL=
201207310415 METAR LMML 310415Z 30007KT CAVOK 24/19 Q1013 NOSIG=
201207310400 METAR LMML NIL=
201207310345 METAR LMML 310345Z 33007KT CAVOK 24/18 Q1013 NOSIG=
201207310330 METAR LMML NIL=
201207310315 METAR LMML 310315Z 32004KT CAVOK 24/17 Q1013 NOSIG=
201207310300 METAR LMML NIL=
201207310245 METAR LMML 310245Z 33003KT CAVOK 24/18 Q1013 NOSIG=
201207310230 METAR LMML NIL=
201207310215 METAR LMML 310215Z VRB02KT CAVOK 25/18 Q1013 NOSIG=
201207310200 METAR LMML NIL=
201207310145 METAR LMML 310145Z 32004KT CAVOK 25/20 Q1013 NOSIG=
201207310130 METAR LMML NIL=
201207310115 METAR LMML 310115Z 32005KT CAVOK 25/21 Q1013 NOSIG=
201207310100 METAR LMML NIL=
201207310045 METAR LMML 310045Z 33007KT CAVOK 25/21 Q1013 NOSIG=
201207310030 METAR LMML NIL=
201207310015 METAR LMML 310015Z 34007KT CAVOK 25/21 Q1013 NOSIG=
201207310000 METAR LMML NIL=
201207302345 METAR LMML 302345Z 33005KT CAVOK 26/21 Q1013 NOSIG=
201207302330 METAR LMML NIL=
201207302315 METAR LMML 302315Z 33005KT CAVOK 26/21 Q1013 NOSIG=
201207302300 METAR LMML NIL=
201207302245 METAR LMML 302245Z 34007KT CAVOK 26/21 Q1013 NOSIG=
201207302230 METAR LMML NIL=
201207302215 METAR LMML 302215Z 35008KT CAVOK 27/20 Q1013 NOSIG=
201207302200 METAR LMML NIL=
201207302145 METAR LMML 302145Z 34006KT 310V060 CAVOK 27/20 Q1013 NOSIG=
201207302130 METAR LMML NIL=
201207302115 METAR LMML 302115Z 32007KT CAVOK 27/19 Q1013 NOSIG=
201207302100 METAR LMML NIL=
201207302045 METAR LMML 302045Z 32005KT 280V360 CAVOK 28/19 Q1013 NOSIG=
201207302030 METAR LMML NIL=
201207302015 METAR LMML 302015Z VRB01KT CAVOK 27/20 Q1013 NOSIG=
201207302000 METAR LMML NIL=
201207301945 METAR LMML 301945Z 20004KT 170V240 CAVOK 27/21 Q1013 NOSIG=
201207301930 METAR LMML NIL=
201207301915 METAR LMML 301915Z 20004KT 160V240 CAVOK 28/21 Q1013 NOSIG=
201207301900 METAR LMML NIL=
201207301845 METAR LMML 301845Z VRB02KT CAVOK 29/20 Q1013 NOSIG=
201207301830 METAR LMML NIL=
201207301815 METAR LMML 301815Z 02003KT CAVOK 29/19 Q1013 NOSIG=
201207301800 METAR LMML NIL=
201207301745 METAR LMML 301745Z 03003KT CAVOK 31/21 Q1013 NOSIG=
201207301730 METAR LMML NIL=
201207301715 METAR LMML 301715Z 07005KT 020V110 CAVOK 31/21 Q1013 NOSIG=
201207301700 METAR LMML NIL=
201207301645 METAR LMML 301645Z 30008KT 270V330 CAVOK 33/15 Q1013 NOSIG=
201207301630 METAR LMML NIL=
201207301615 METAR LMML 301615Z 28005KT 250V330 CAVOK 35/13 Q1013 NOSIG=
201207301600 METAR LMML NIL=
201207301545 METAR LMML 301545Z 29005KT 230V330 CAVOK 35/14 Q1013 NOSIG=
201207301530 METAR LMML NIL=
201207301515 METAR LMML 301515Z 30007KT 260V350 CAVOK 36/14 Q1013 NOSIG=
201207301500 METAR LMML NIL=
201207301445 METAR LMML 301445Z 31008KT CAVOK 36/11 Q1013 NOSIG=
201207301430 METAR LMML NIL=
201207301415 METAR LMML 301415Z 34006KT 320V020 CAVOK 37/13 Q1013 NOSIG=
201207301400 METAR LMML NIL=
201207301345 METAR LMML 301345Z 34005KT 300V020 CAVOK 37/16 Q1013 NOSIG=
201207301330 METAR LMML NIL=
201207301315 METAR LMML 301315Z 02003KT CAVOK 36/20 Q1013 NOSIG=
201207301300 METAR LMML NIL=
201207301245 METAR LMML 301245Z 04004KT 350V120 CAVOK 37/20 Q1013 NOSIG=
201207301230 METAR LMML NIL=
201207301215 METAR LMML 301215Z 04005KT 330V110 CAVOK 37/18 Q1013 NOSIG=
201207301200 METAR LMML NIL=
201207301145 METAR LMML 301145Z 10005KT 030V170 CAVOK 35/19 Q1013 NOSIG=
201207301130 METAR LMML NIL=
201207301115 METAR LMML 301115Z 02004KT 340V080 CAVOK 36/17 Q1013 NOSIG=
201207301100 METAR LMML NIL=
201207301045 METAR LMML 301045Z 06003KT CAVOK 36/17 Q1014 NOSIG=
201207301030 METAR LMML NIL=
201207301015 METAR LMML 301015Z 36004KT 310V070 CAVOK 35/16 Q1014 NOSIG=
201207301000 METAR LMML NIL=
201207300945 METAR LMML 300945Z 02007KT 340V050 CAVOK 34/17 Q1014 NOSIG=
201207300930 METAR LMML NIL=
201207300915 METAR LMML 300915Z 36008KT 330V040 CAVOK 33/18 Q1014 NOSIG=
201207300900 METAR LMML NIL=
201207300845 METAR LMML 300845Z 35008KT 300V020 CAVOK 33/20 Q1014 NOSIG=
201207300830 METAR LMML NIL=
201207300815 METAR LMML 300815Z 33008KT 290V010 9999 FEW011 32/20 Q1014
                        NOSIG=
201207300800 METAR LMML NIL=
201207300745 METAR LMML 300745Z 32007KT 9999 FEW011 29/21 Q1014 NOSIG=
201207300730 METAR LMML NIL=
201207300715 METAR LMML 300715Z 31009KT 9999 FEW011 29/22 Q1014 NOSIG=
201207300700 METAR LMML NIL=
201207300645 METAR LMML 300645Z 31009KT 9999 FEW011 28/23 Q1014 NOSIG=
201207300630 METAR LMML NIL=
201207300615 METAR LMML 300615Z 31008KT 9000 FEW011 27/23 Q1014 BECMG
                        CAVOK=
201207300600 METAR LMML NIL=
201207300545 METAR LMML 300545Z 31006KT 9000 FEW011 27/22 Q1013 BECMG
                        CAVOK=
201207300530 METAR LMML NIL=
201207300515 METAR LMML 300515Z 30007KT 270V340 8000 FEW011 26/23 Q1013
                        BECMG CAVOK=
201207300500 METAR LMML NIL=
201207300445 METAR LMML 300445Z 30009KT 8000 FEW009 26/22 Q1013 BECMG
                        CAVOK=
201207300430 METAR LMML NIL=
201207300415 METAR LMML 300415Z 33003KT 9999 FEW009 27/21 Q1013 BECMG
                        CAVOK=
201207300400 METAR LMML NIL=
201207300345 METAR LMML 300345Z 31006KT 270V360 CAVOK 27/20 Q1012 NOSIG=
201207300330 METAR LMML NIL=
201207300315 METAR LMML 300315Z 31007KT CAVOK 28/18 Q1012 NOSIG=
201207300300 METAR LMML NIL=
201207300245 METAR LMML 300245Z 29006KT 260V320 CAVOK 27/19 Q1012 NOSIG=
201207300230 METAR LMML NIL=
201207300215 METAR LMML 300215Z 30007KT CAVOK 27/20 Q1012 NOSIG=
201207300200 METAR LMML NIL=
201207300145 METAR LMML 300145Z 32006KT CAVOK 26/21 Q1013 NOSIG=
201207300130 METAR LMML NIL=
201207300115 METAR LMML 300115Z 31009KT CAVOK 26/21 Q1013 NOSIG=
201207300100 METAR LMML NIL=
201207300045 METAR LMML 300045Z 33005KT 290V020 CAVOK 27/20 Q1013 NOSIG=
201207300030 METAR LMML NIL=
201207300015 METAR LMML 300015Z 30008KT CAVOK 27/19 Q1013 NOSIG=
201207300000 METAR LMML NIL=
201207292345 METAR LMML 292345Z 30012KT CAVOK 27/20 Q1014 NOSIG=
201207292315 METAR LMML 292315Z 30011KT CAVOK 27/20 Q1014 NOSIG=
201207292245 METAR LMML 292245Z 30007KT 270V350 CAVOK 27/19 Q1015 NOSIG=
201207292230 METAR LMML NIL=
201207292215 METAR LMML 292215Z 27003KT CAVOK 27/19 Q1014 NOSIG=
201207292200 METAR LMML NIL=
201207292145 METAR LMML 292145Z 28004KT 200V310 CAVOK 27/21 Q1014 NOSIG=
201207292130 METAR LMML NIL=
201207292115 METAR LMML 292115Z 28004KT 250V310 CAVOK 28/19 Q1015 NOSIG=
201207292045 METAR LMML 292045Z 29008KT CAVOK 28/20 Q1015 NOSIG=
201207292030 METAR LMML NIL=
201207292015 METAR LMML 292015Z 29008KT CAVOK 28/18 Q1015 NOSIG=
201207292000 METAR LMML NIL=
201207291945 METAR LMML 291945Z 29008KT CAVOK 29/17 Q1014 NOSIG=
201207291930 METAR LMML NIL=
201207291915 METAR LMML 291915Z 30009KT CAVOK 29/14 Q1014 NOSIG=
201207291900 METAR LMML NIL=
201207291845 METAR LMML 291845Z 29005KT 250V340 CAVOK 30/14 Q1014 NOSIG=
201207291830 METAR LMML NIL=
201207291815 METAR LMML 291815Z 31007KT 270V340 CAVOK 30/11 Q1014 NOSIG=
201207291800 METAR LMML NIL=
201207291745 METAR LMML 291745Z 28004KT 240V350 CAVOK 31/10 Q1014 NOSIG
                        RMK SMOKE TO WEST OF AIRFIELD=
201207291730 METAR LMML NIL=
201207291715 METAR LMML 291715Z 29010KT CAVOK 32/12 Q1014 NOSIG=
201207291700 METAR LMML NIL=
201207291645 METAR LMML 291645Z 28008KT 260V320 CAVOK 33/11 Q1013 NOSIG=
201207291630 METAR LMML NIL=
201207291615 METAR LMML 291615Z 29011KT 260V320 CAVOK 33/11 Q1013 NOSIG=
201207291600 METAR LMML NIL=
201207291545 METAR LMML 291545Z 30014KT CAVOK 34/10 Q1014 NOSIG=
201207291530 METAR LMML NIL=
201207291515 METAR LMML 291515Z 29015KT CAVOK 34/10 Q1014 NOSIG=
201207291500 METAR LMML NIL=
201207291445 METAR LMML 291445Z 29012KT CAVOK 35/10 Q1014 NOSIG=
201207291430 METAR LMML NIL=
201207291415 METAR LMML 291415Z 29011KT 250V320 CAVOK 35/11 Q1014 NOSIG=
201207291400 METAR LMML NIL=
201207291345 METAR LMML 291345Z 30010KT 270V330 CAVOK 35/12 Q1014 NOSIG=
201207291330 METAR LMML NIL=
201207291315 METAR LMML 291315Z 31010KT 280V340 CAVOK 35/13 Q1014 NOSIG=
201207291300 METAR LMML NIL=
201207291245 METAR LMML 291245Z 30011KT 270V340 CAVOK 35/11 Q1014 NOSIG=
201207291230 METAR LMML NIL=
201207291215 METAR LMML 291215Z 30013KT 270V330 CAVOK 35/12 Q1014 NOSIG=
201207291145 METAR LMML 291145Z 31012KT 260V340 CAVOK 36/12 Q1014 NOSIG=
201207291115 METAR LMML 291115Z 32010KT 280V350 CAVOK 37/12 Q1014 NOSIG=
201207291100 METAR LMML NIL=
201207291045 METAR LMML 291045Z 32009KT 290V020 CAVOK 37/12 Q1014 NOSIG=
201207291030 METAR LMML NIL=
201207291015 METAR LMML 291015Z 32009KT 290V360 CAVOK 37/14 Q1014 NOSIG=
201207291000 METAR LMML NIL=
201207290945 METAR LMML 290945Z 36005KT 320V050 CAVOK 37/13 Q1014 NOSIG=
201207290930 METAR LMML NIL=
201207290915 METAR LMML 290915Z 34005KT 270V030 CAVOK 36/13 Q1014 NOSIG=
201207290900 METAR LMML NIL=
201207290845 METAR LMML 290845Z 32007KT 290V360 CAVOK 35/12 Q1014 NOSIG=
201207290830 METAR LMML NIL=
201207290815 METAR LMML 290815Z 32010KT CAVOK 34/13 Q1014 NOSIG=
201207290800 METAR LMML NIL=
201207290745 METAR LMML 290745Z 32010KT CAVOK 32/16 Q1014 NOSIG=
201207290730 METAR LMML NIL=
201207290715 METAR LMML 290715Z 32012KT CAVOK 31/16 Q1014 NOSIG=
201207290700 METAR LMML NIL=
201207290645 METAR LMML 290645Z 31010KT CAVOK 31/18 Q1014 NOSIG=
201207290630 METAR LMML NIL=
201207290615 METAR LMML 290615Z 31009KT 280V340 CAVOK 29/15 Q1014 NOSIG=
201207290600 METAR LMML NIL=
201207290545 METAR LMML 290545Z 31005KT 280V340 CAVOK 28/16 Q1013 NOSIG=
201207290530 METAR LMML NIL=
201207290515 METAR LMML 290515Z 31004KT CAVOK 27/15 Q1013 NOSIG=
201207290500 METAR LMML NIL=
201207290445 METAR LMML 290445Z 32005KT CAVOK 26/15 Q1013 NOSIG=
201207290430 METAR LMML NIL=
201207290415 METAR LMML 290415Z 31004KT CAVOK 26/14 Q1013 NOSIG=
201207290400 METAR LMML NIL=
201207290345 METAR LMML 290345Z 32005KT CAVOK 26/14 Q1013 NOSIG=
201207290330 METAR LMML NIL=
201207290315 METAR LMML 290315Z 31003KT CAVOK 26/14 Q1013 NOSIG=
201207290300 METAR LMML NIL=
201207290245 METAR LMML 290245Z 30004KT CAVOK 27/14 Q1013 NOSIG=
201207290230 METAR LMML NIL=
201207290215 METAR LMML 290215Z 30003KT CAVOK 26/16 Q1013 NOSIG=
201207290200 METAR LMML NIL=
201207290145 METAR LMML 290145Z 32004KT CAVOK 25/17 Q1013 NOSIG=
201207290130 METAR LMML NIL=
201207290115 METAR LMML 290115Z 31004KT CAVOK 25/17 Q1013 NOSIG=
201207290100 METAR LMML NIL=
201207290045 METAR LMML 290045Z 30004KT CAVOK 26/17 Q1013 NOSIG=
201207290030 METAR LMML NIL=
201207290015 METAR LMML 290015Z 31005KT CAVOK 25/17 Q1013 NOSIG=
201207290000 METAR LMML NIL=
201207282345 METAR LMML 282345Z 31005KT CAVOK 26/18 Q1013 NOSIG=
201207282330 METAR LMML NIL=
201207282315 METAR LMML 282315Z 32005KT CAVOK 26/18 Q1014 NOSIG=
201207282300 METAR LMML NIL=
201207282245 METAR LMML 282245Z 30006KT CAVOK 27/14 Q1014 NOSIG=
201207282230 METAR LMML NIL=
201207282215 METAR LMML 282215Z 29005KT CAVOK 27/13 Q1014 NOSIG=
201207282200 METAR LMML NIL=
201207282145 METAR LMML 282145Z 29005KT CAVOK 27/13 Q1014 NOSIG=
201207282130 METAR LMML NIL=
201207282115 METAR LMML 282115Z 29005KT CAVOK 28/13 Q1014 NOSIG=
201207282100 METAR LMML NIL=
201207282045 METAR LMML 282045Z 28005KT CAVOK 28/14 Q1014 NOSIG=
201207282030 METAR LMML NIL=
201207282015 METAR LMML 282015Z 30004KT CAVOK 28/14 Q1014 NOSIG=
201207282000 METAR LMML NIL=
201207281945 METAR LMML 281945Z 28003KT CAVOK 28/14 Q1014 NOSIG=
201207281930 METAR LMML NIL=
201207281915 METAR LMML 281915Z 29005KT CAVOK 28/14 Q1013 NOSIG=
201207281900 METAR LMML NIL=
201207281845 METAR LMML 281845Z 29005KT 260V320 CAVOK 29/14 Q1013 NOSIG=
201207281830 METAR LMML NIL=
201207281815 METAR LMML 281815Z 29005KT 260V320 CAVOK 30/15 Q1013 NOSIG=
201207281800 METAR LMML NIL=
201207281745 METAR LMML 281745Z 29007KT CAVOK 30/14 Q1013 NOSIG=
201207281730 METAR LMML NIL=
201207281715 METAR LMML 281715Z 30007KT CAVOK 32/14 Q1013 NOSIG=
201207281700 METAR LMML NIL=
201207281645 METAR LMML 281645Z 36005KT 300V060 CAVOK 33/14 Q1013 NOSIG=
201207281630 METAR LMML NIL=
201207281615 METAR LMML 281615Z 04004KT 360V070 CAVOK 33/17 Q1012 NOSIG=
201207281600 METAR LMML NIL=
201207281545 METAR LMML 281545Z 06004KT 010V170 CAVOK 33/17 Q1012 NOSIG=
201207281530 METAR LMML NIL=
201207281515 METAR LMML 281515Z 23006KT 170V250 CAVOK 32/16 Q1013 NOSIG=
201207281500 METAR LMML NIL=
201207281445 METAR LMML 281445Z 22007KT 170V270 CAVOK 33/18 Q1012 NOSIG=
201207281430 METAR LMML NIL=
201207281415 METAR LMML 281415Z 33003KT CAVOK 34/17 Q1013 NOSIG=
201207281400 METAR LMML NIL=
201207281345 METAR LMML 281345Z 07004KT 010V120 CAVOK 34/16 Q1013 NOSIG=
201207281330 METAR LMML NIL=
201207281315 METAR LMML 281315Z 01004KT 290V080 CAVOK 35/15 Q1013 NOSIG=
201207281300 METAR LMML NIL=
201207281245 METAR LMML 281245Z 05005KT 350V100 CAVOK 34/15 Q1013 NOSIG=
201207281230 METAR LMML NIL=
201207281215 METAR LMML 281215Z 35004KT 230V100 CAVOK 34/16 Q1013 NOSIG=
201207281200 METAR LMML NIL=
201207281145 METAR LMML 281145Z 05003KT CAVOK 34/15 Q1013 NOSIG=
201207281130 METAR LMML NIL=
201207281115 METAR LMML 281115Z 05003KT CAVOK 34/15 Q1013 NOSIG=
201207281100 METAR LMML NIL=
201207281045 METAR LMML 281045Z 36005KT 260V080 CAVOK 34/14 Q1014 NOSIG=
201207281015 METAR LMML 281015Z 02005KT 320V080 CAVOK 34/15 Q1013 NOSIG=
201207280945 METAR LMML 280945Z 02005KT 310V100 CAVOK 34/14 Q1014 NOSIG=
201207280915 METAR LMML 280915Z 36006KT 330V040 CAVOK 33/15 Q1014 NOSIG=
201207280900 METAR LMML NIL=
201207280845 METAR LMML 280845Z VRB02KT CAVOK 32/15 Q1014 NOSIG=
201207280830 METAR LMML NIL=
201207280815 METAR LMML 280815Z 10003KT CAVOK 31/16 Q1013 NOSIG=
201207280800 METAR LMML NIL=
201207280745 METAR LMML 280745Z 11003KT CAVOK 30/17 Q1013 NOSIG=
201207280730 METAR LMML NIL=
201207280715 METAR LMML 280715Z 11003KT CAVOK 30/19 Q1013 NOSIG=
201207280700 METAR LMML NIL=
201207280645 METAR LMML 280645Z 09003KT CAVOK 28/19 Q1013 NOSIG=
201207280630 METAR LMML NIL=
201207280615 METAR LMML 280615Z VRB02KT CAVOK 27/21 Q1013 NOSIG=
201207280600 METAR LMML NIL=
201207280545 METAR LMML 280545Z 08004G15KT 020V240 8000 NSC 25/21 Q1013
                        BECMG CAVOK=
201207280530 METAR LMML NIL=
201207280515 METAR LMML 280515Z VRB02KT 6000 NSC 25/23 Q1013 BECMG CAVOK=
201207280500 METAR LMML NIL=
201207280445 METAR LMML 280445Z 01003KT 7000 NSC 23/22 Q1013 BECMG CAVOK=
201207280430 METAR LMML NIL=
201207280415 METAR LMML 280415Z 02003KT 7000 NSC 23/22 Q1012 BECMG CAVOK=
201207280400 METAR LMML NIL=
201207280345 METAR LMML 280345Z 03003KT 7000 NSC 24/22 Q1012 NOSIG=
201207280330 METAR LMML NIL=
201207280315 METAR LMML 280315Z VRB02KT 7000 NSC 23/21 Q1012 NOSIG=
201207280300 METAR LMML NIL=
201207280245 METAR LMML 280245Z 08004KT CAVOK 23/21 Q1012 NOSIG=
201207280230 METAR LMML NIL=
201207280215 METAR LMML 280215Z 07004KT CAVOK 23/21 Q1012 NOSIG=
201207280200 METAR LMML NIL=
201207280145 METAR LMML 280145Z VRB02KT CAVOK 24/21 Q1012 NOSIG=
201207280130 METAR LMML NIL=
201207280115 METAR LMML 280115Z VRB02KT CAVOK 24/21 Q1012 NOSIG=
201207280100 METAR LMML NIL=
201207280045 METAR LMML 280045Z VRB02KT CAVOK 24/21 Q1012 NOSIG=
201207280030 METAR LMML NIL=
201207280015 METAR LMML 280015Z VRB02KT CAVOK 24/21 Q1012 NOSIG=
201207280000 METAR LMML NIL=
201207272345 METAR LMML 272345Z VRB01KT CAVOK 24/21 Q1012 NOSIG=
201207272330 METAR LMML NIL=
201207272315 METAR LMML 272315Z VRB02KT CAVOK 24/21 Q1012 NOSIG=
201207272300 METAR LMML NIL=
201207272245 METAR LMML 272245Z 26004KT 230V290 CAVOK 25/21 Q1012 NOSIG=
201207272230 METAR LMML NIL=
201207272215 METAR LMML 272215Z 27005KT 230V310 CAVOK 24/22 Q1013 NOSIG=
201207272200 METAR LMML NIL=
201207272145 METAR LMML 272145Z 21006KT 160V260 CAVOK 25/22 Q1013 NOSIG=
201207272130 METAR LMML NIL=
201207272115 METAR LMML 272115Z 21005KT 170V240 CAVOK 25/20 Q1013 NOSIG=
201207272100 METAR LMML NIL=
201207272045 METAR LMML 272045Z 20003KT CAVOK 25/20 Q1013 NOSIG=
201207272030 METAR LMML NIL=
201207272015 METAR LMML 272015Z 22004KT 190V250 CAVOK 25/19 Q1013 NOSIG=
201207272000 METAR LMML NIL=
201207271945 METAR LMML 271945Z 17004KT CAVOK 26/14 Q1013 NOSIG=
201207271930 METAR LMML NIL=
201207271915 METAR LMML 271915Z VRB02KT CAVOK 27/14 Q1013 NOSIG=
201207271900 METAR LMML NIL=
201207271845 METAR LMML 271845Z VRB02KT CAVOK 27/14 Q1013 NOSIG=
201207271830 METAR LMML NIL=
201207271815 METAR LMML 271815Z 28005KT 250V320 CAVOK 27/17 Q1013 NOSIG=
201207271800 METAR LMML NIL=
201207271745 METAR LMML 271745Z 27005KT CAVOK 28/18 Q1013 NOSIG=
201207271730 METAR LMML NIL=
201207271715 METAR LMML 271715Z 28007KT CAVOK 29/18 Q1013 NOSIG=
201207271700 METAR LMML NIL=
201207271645 METAR LMML 271645Z 28009KT CAVOK 29/17 Q1013 NOSIG=
201207271630 METAR LMML NIL=
201207271615 METAR LMML 271615Z 28009KT CAVOK 31/18 Q1013 NOSIG=
201207271600 METAR LMML NIL=
201207271545 METAR LMML 271545Z 22009KT CAVOK 29/16 Q1013 NOSIG=
201207271530 METAR LMML NIL=
201207271515 METAR LMML 271515Z 24007KT 200V270 CAVOK 31/17 Q1013 NOSIG=
201207271500 METAR LMML NIL=
201207271445 METAR LMML 271445Z 21008KT 160V270 CAVOK 31/13 Q1013 NOSIG=
201207271430 METAR LMML NIL=
201207271415 METAR LMML 271415Z 22006KT 160V260 9999 FEW030 30/17 Q1013
                        NOSIG=
201207271400 METAR LMML NIL=
201207271345 METAR LMML 271345Z 21007KT 140V260 9999 FEW030 30/17 Q1014
                        NOSIG=
201207271330 METAR LMML NIL=
201207271315 METAR LMML 271315Z 20007KT 160V260 CAVOK 30/19 Q1014=
201207271300 METAR LMML NIL=
201207271245 METAR LMML 271245Z 18006KT 140V250 9999 FEW030 30/19 Q1014
                        NOSIG=
201207271230 METAR LMML NIL=
201207271215 METAR LMML 271215Z 20008KT 140V250 CAVOK 31/20 Q1014 NOSIG=
201207271200 METAR LMML NIL=
201207271145 METAR LMML 271145Z 17005KT 010V290 CAVOK 31/21 Q1014 NOSIG=
201207271130 METAR LMML NIL=
201207271115 METAR LMML 271115Z 05005KT 260V160 CAVOK 32/12 Q1015 NOSIG=
201207271100 METAR LMML NIL=
201207271045 METAR LMML 271045Z 02005KT 310V090 CAVOK 32/18 Q1015 NOSIG=
201207271030 METAR LMML NIL=
201207271015 METAR LMML 271015Z 05005KT 360V090 CAVOK 31/20 Q1015 NOSIG=
201207271000 METAR LMML NIL=
201207270945 METAR LMML 270945Z 36006KT 290V050 CAVOK 30/19 Q1015 NOSIG=
201207270930 METAR LMML NIL=
201207270915 METAR LMML 270915Z 36005KT 320V060 9000 FEW015 30/20 Q1015
                        BECMG 9999=
201207270900 METAR LMML NIL=
201207270845 METAR LMML 270845Z 36007KT 330V040 9000 FEW011 28/20 Q1015
                        BECMG 9999=
201207270830 METAR LMML NIL=
201207270815 METAR LMML 270815Z 35007KT 320V020 8000 FEW011 28/21 Q1015
                        NOSIG=
201207270800 METAR LMML NIL=
201207270745 METAR LMML 270745Z 34006KT 8000 FEW011 27/22 Q1015 NOSIG=
201207270730 METAR LMML NIL=
201207270715 METAR LMML 270715Z 01007KT 320V050 8000 FEW013 28/22 Q1015
                        NOSIG=
201207270700 METAR LMML NIL=
201207270645 METAR LMML 270645Z 35004KT 320V020 8000 FEW015 27/21 Q1015
                        BECMG CAVOK=
201207270630 METAR LMML NIL=
201207270615 METAR LMML 270615Z VRB01KT 8000 NSC 26/21 Q1014 BECMG CAVOK=
201207270600 METAR LMML NIL=
201207270545 METAR LMML 270545Z VRB01KT 7000 NSC 25/22 Q1014 BECMG CAVOK=
201207270530 METAR LMML NIL=
201207270515 METAR LMML 270515Z VRB02KT 7000 FEW007 24/23 Q1014 BECMG
                        9999=
201207270500 METAR LMML NIL=
201207270445 METAR LMML 270445Z VRB02KT 6000 FEW007 23/22 Q1014 TEMPO
                        8000 BKN006=
201207270430 METAR LMML NIL=
201207270415 METAR LMML 270415Z VRB02KT 6000 FEW007 23/22 Q1014 TEMPO
                        8000 BKN006=
201207270400 METAR LMML NIL=
201207270345 METAR LMML 270345Z VRB02KT CAVOK 23/22 Q1014 TEMPO 8000 BKN006=
201207270330 METAR LMML NIL=
201207270315 METAR LMML 270315Z 36003KT 9999 SCT006 23/22 Q1014 TEMPO
                        BKN006=
201207270300 METAR LMML NIL=
201207270245 METAR LMML 270245Z 25004KT 220V290 9999 FEW012 23/22 Q1014
                        NOSIG=
201207270230 METAR LMML NIL=
201207270215 METAR LMML 270215Z 25004KT 210V280 9999 FEW012 23/22 Q1014
                        NOSIG=
201207270200 METAR LMML NIL=
201207270145 METAR LMML 270145Z 24005KT 210V290 CAVOK 23/22 Q1014 NOSIG=
201207270130 METAR LMML NIL=
201207270115 METAR LMML 270115Z 22007KT 170V240 CAVOK 23/22 Q1014 NOSIG=
201207270100 METAR LMML NIL=
201207270045 METAR LMML 270045Z 23005KT CAVOK 23/22 Q1014 NOSIG=
201207270030 METAR LMML NIL=
201207270015 METAR LMML 270015Z 24005KT 210V270 CAVOK 23/22 Q1015 NOSIG=
201207270000 METAR LMML NIL=
201207262345 METAR LMML 262345Z 20004KT CAVOK 23/21 Q1015 NOSIG=
201207262330 METAR LMML NIL=
201207262315 METAR LMML 262315Z VRB01KT CAVOK 23/20 Q1015 NOSIG=
201207262300 METAR LMML NIL=
201207262245 METAR LMML 262245Z 26003KT CAVOK 23/20 Q1015 NOSIG=
201207262230 METAR LMML NIL=
201207262215 METAR LMML 262215Z 23003KT CAVOK 23/20 Q1015 NOSIG=
201207262200 METAR LMML NIL=
201207262145 METAR LMML 262145Z VRB02KT CAVOK 23/20 Q1015 NOSIG=
201207262130 METAR LMML NIL=
201207262115 METAR LMML 262115Z VRB02KT CAVOK 24/20 Q1016 NOSIG=
201207262100 METAR LMML NIL=
201207262045 METAR LMML 262045Z 31004KT CAVOK 24/21 Q1016 NOSIG=
201207262030 METAR LMML NIL=
201207262015 METAR LMML 262015Z 30004KT CAVOK 24/21 Q1016 NOSIG=
201207262000 METAR LMML NIL=
201207261945 METAR LMML 261945Z 30004KT CAVOK 24/21 Q1015 NOSIG=
201207261930 METAR LMML NIL=
201207261915 METAR LMML 261915Z 31005KT CAVOK 24/20 Q1015 NOSIG=
201207261900 METAR LMML NIL=
201207261845 METAR LMML 261845Z 33007KT CAVOK 25/20 Q1015 NOSIG=
201207261830 METAR LMML NIL=
201207261815 METAR LMML 261815Z 33008KT CAVOK 25/20 Q1015 NOSIG=
201207261800 METAR LMML NIL=
201207261745 METAR LMML 261745Z 33007KT 9999 FEW015 26/21 Q1015 NOSIG=
201207261715 METAR LMML 261715Z 30007KT 9999 FEW015 27/21 Q1015 NOSIG=
201207261700 METAR LMML NIL=
201207261645 METAR LMML 261645Z 30008KT 9999 FEW015 27/19 Q1015 NOSIG=
201207261630 METAR LMML NIL=
201207261615 METAR LMML 261615Z 31008KT 270V340 9999 FEW015 28/19 Q1015
                        NOSIG=
201207261600 METAR LMML NIL=
201207261545 METAR LMML 261545Z 29008KT 220V330 9999 FEW015 28/19 Q1015
                        NOSIG=
201207261530 METAR LMML NIL=
201207261515 METAR LMML 261515Z 31008KT 270V330 9999 FEW020 29/20 Q1015
                        NOSIG=
201207261500 METAR LMML NIL=
201207261445 METAR LMML 261445Z 31008KT 280V350 9999 FEW020 30/20 Q1015
                        NOSIG=
201207261430 METAR LMML NIL=
201207261415 METAR LMML 261415Z 31007KT 250V020 9999 FEW034 31/19 Q1016
                        NOSIG=
201207261400 METAR LMML NIL=
201207261345 METAR LMML 261345Z 01006KT 310V090 9999 FEW035 31/20 Q1016
                        NOSIG=
201207261330 METAR LMML NIL=
201207261315 METAR LMML 261315Z 36005KT 300V140 9999 FEW025 31/19 Q1016
                        NOSIG=
201207261300 METAR LMML NIL=
201207261245 METAR LMML 261245Z 32006KT 260V020 9999 FEW025 31/19 Q1016
                        NOSIG=
201207261230 METAR LMML NIL=
201207261215 METAR LMML 261215Z 04003KT 9999 FEW032 31/20 Q1016 NOSIG=
201207261200 METAR LMML NIL=
201207261145 METAR LMML 261145Z 33005KT 9999 FEW027 31/21 Q1016 NOSIG=
201207261130 METAR LMML NIL=
201207261115 METAR LMML 261115Z 32006KT 280V010 9999 FEW025 31/21 Q1016
                        NOSIG=
201207261100 METAR LMML NIL=
201207261045 METAR LMML 261045Z 32007KT 270V040 9999 FEW025 29/20 Q1017
                        NOSIG=
201207261030 METAR LMML NIL=
201207261015 METAR LMML 261015Z 29005KT 220V010 9999 FEW025 29/18 Q1017
                        NOSIG=
201207261000 METAR LMML NIL=
201207260945 METAR LMML 260945Z 31007KT 270V360 9999 FEW025 28/17 Q1017
                        NOSIG=
201207260930 METAR LMML NIL=
201207260915 METAR LMML 260915Z 28006KT 220V330 9999 FEW025 28/16 Q1017
                        NOSIG=
201207260900 METAR LMML NIL=
201207260845 METAR LMML 260845Z 33007KT 260V030 9999 FEW020 28/20 Q1017
                        NOSIG=
201207260830 METAR LMML NIL=
201207260815 METAR LMML 260815Z 34007KT 310V010 9999 FEW015 27/18 Q1017
                        NOSIG=
201207260800 METAR LMML NIL=
201207260745 METAR LMML 260745Z 34008KT 310V010 9999 FEW015 27/19 Q1017
                        NOSIG=
201207260730 METAR LMML NIL=
201207260715 METAR LMML 260715Z 33009KT 9999 FEW015 26/20 Q1017 NOSIG=
201207260700 METAR LMML NIL=
201207260645 METAR LMML 260645Z 32010KT 9000 FEW015 25/20 Q1017 BECMG
                        9999=
201207260630 METAR LMML NIL=
201207260615 METAR LMML 260615Z 33009KT 310V010 9000 FEW011 25/20 Q1017
                        BECMG 9999=
201207260600 METAR LMML NIL=
201207260545 METAR LMML 260545Z 32007KT 9000 FEW011 24/21 Q1016 BECMG
                        9999=
201207260530 METAR LMML NIL=
201207260515 METAR LMML 260515Z 31005KT 8000 FEW011 23/21 Q1016 BECMG
                        9999=
201207260500 METAR LMML NIL=
201207260445 METAR LMML 260445Z 30007KT 8000 FEW010 23/21 Q1016 NOSIG=
201207260430 METAR LMML NIL=
201207260415 METAR LMML 260415Z 30007KT 8000 FEW010 22/21 Q1016 NOSIG=
201207260400 METAR LMML NIL=
201207260345 METAR LMML 260345Z 28009KT 9999 FEW015 22/20 Q1015 NOSIG=
201207260330 METAR LMML NIL=
201207260315 METAR LMML 260315Z 28007KT CAVOK 22/20 Q1015 NOSIG=
201207260300 METAR LMML NIL=
201207260245 METAR LMML 260245Z 28008KT 250V310 CAVOK 22/20 Q1015 NOSIG=
201207260215 METAR LMML 260215Z 29007KT 260V320 CAVOK 22/20 Q1015 NOSIG=
201207260200 METAR LMML NIL=
201207260145 METAR LMML 260145Z 28006KT CAVOK 22/20 Q1016 NOSIG=
201207260130 METAR LMML NIL=
201207260115 METAR LMML 260115Z 28008KT CAVOK 23/20 Q1016 NOSIG=
201207260100 METAR LMML NIL=
201207260045 METAR LMML 260045Z 29009KT CAVOK 23/20 Q1016 NOSIG=
201207260030 METAR LMML NIL=
201207260015 METAR LMML 260015Z 29006KT CAVOK 22/20 Q1016 NOSIG=
201207260000 METAR LMML NIL=
201207252345 METAR LMML 252345Z 27003KT CAVOK 22/19 Q1016 NOSIG=
201207252330 METAR LMML NIL=
201207252315 METAR LMML 252315Z 28004KT CAVOK 22/19 Q1016 NOSIG=
201207252300 METAR LMML NIL=
201207252245 METAR LMML 252245Z 29005KT CAVOK 22/19 Q1016 NOSIG=
201207252230 METAR LMML NIL=
201207252215 METAR LMML 252215Z 31006KT CAVOK 23/19 Q1016 NOSIG=
201207252145 METAR LMML 252145Z 32004KT CAVOK 22/19 Q1016 NOSIG=
201207252130 METAR LMML NIL=
201207252115 METAR LMML 252115Z 31003KT CAVOK 23/20 Q1017 NOSIG=
201207252100 METAR LMML NIL=
201207252045 METAR LMML 252045Z 30007KT CAVOK 23/20 Q1016 NOSIG=
201207252015 METAR LMML 252015Z 30006KT 270V340 CAVOK 23/19 Q1017 NOSIG=
201207252000 METAR LMML NIL=
201207251945 METAR LMML 251945Z 28007KT CAVOK 23/19 Q1016 NOSIG=
201207251930 METAR LMML NIL=
201207251915 METAR LMML 251915Z 28006KT CAVOK 23/19 Q1016 NOSIG=
201207251900 METAR LMML NIL=
201207251845 METAR LMML 251845Z 28007KT CAVOK 24/19 Q1016 NOSIG=
201207251830 METAR LMML NIL=
201207251815 METAR LMML 251815Z 29008KT 260V320 CAVOK 24/18 Q1016 NOSIG=
201207251800 METAR LMML NIL=
201207251745 METAR LMML 251745Z 28009KT CAVOK 25/18 Q1015 NOSIG=
201207251730 METAR LMML NIL=
201207251715 METAR LMML 251715Z 30009KT 260V320 CAVOK 27/17 Q1015 NOSIG=
201207251700 METAR LMML NIL=
201207251645 METAR LMML 251645Z 29008KT 260V330 CAVOK 27/17 Q1015 NOSIG=
201207251630 METAR LMML NIL=
201207251615 METAR LMML 251615Z 31010KT CAVOK 28/17 Q1015 NOSIG=
201207251600 METAR LMML NIL=
201207251545 METAR LMML 251545Z 30011KT CAVOK 28/16 Q1016 NOSIG=
201207251530 METAR LMML NIL=
201207251515 METAR LMML 251515Z 28010KT CAVOK 28/17 Q1016 NOSIG=
201207251500 METAR LMML NIL=
201207251445 METAR LMML 251445Z 30010KT 260V330 CAVOK 28/15 Q1016 NOSIG=
201207251430 METAR LMML NIL=
201207251415 METAR LMML 251415Z 30010KT 260V330 CAVOK 29/15 Q1016 NOSIG=
201207251400 METAR LMML NIL=
201207251345 METAR LMML 251345Z 30010KT 260V340 CAVOK 30/16 Q1016 NOSIG=
201207251330 METAR LMML NIL=
201207251315 METAR LMML 251315Z 28010KT 230V330 9999 FEW033 28/16 Q1016
                        NOSIG=
201207251300 METAR LMML NIL=
201207251245 METAR LMML 251245Z 34009KT 290V020 9999 FEW032 28/18 Q1016
                        NOSIG=
201207251230 METAR LMML NIL=
201207251215 METAR LMML 251215Z 33010KT 280V010 9999 FEW029 28/19 Q1016
                        NOSIG=
201207251200 METAR LMML NIL=
201207251145 METAR LMML 251145Z 32009KT 270V010 9999 FEW028 29/19 Q1016
                        NOSIG=
201207251130 METAR LMML NIL=
201207251115 METAR LMML 251115Z 32010KT 270V360 9999 FEW028 28/19 Q1017
                        NOSIG=
201207251100 METAR LMML NIL=
201207251045 METAR LMML 251045Z 30012KT 280V340 9999 FEW027 29/19 Q1017
                        NOSIG=
201207251030 METAR LMML NIL=
201207251015 METAR LMML 251015Z 31010KT 270V340 9999 FEW027 28/19 Q1016
                        NOSIG=
201207251000 METAR LMML NIL=
201207250945 METAR LMML 250945Z 30011KT 260V330 9999 FEW026 28/19 Q1016
                        NOSIG=
201207250930 METAR LMML NIL=
201207250915 METAR LMML 250915Z 29010KT 250V320 9999 FEW024 27/20 Q1016
                        NOSIG=
201207250900 METAR LMML NIL=
201207250845 METAR LMML 250845Z 30011KT 270V340 9999 FEW024 27/18 Q1017
                        NOSIG=
201207250830 METAR LMML NIL=
201207250815 METAR LMML 250815Z 29010KT 260V320 9999 FEW024 27/17 Q1016
                        NOSIG=
201207250800 METAR LMML NIL=
201207250745 METAR LMML 250745Z 30009KT 270V330 9999 FEW024 26/18 Q1016
                        NOSIG=
201207250730 METAR LMML NIL=
201207250715 METAR LMML 250715Z 31010KT 280V350 9999 SCT023 26/18 Q1016
                        NOSIG=
201207250700 METAR LMML NIL=
201207250645 METAR LMML 250645Z 29008KT 9999 SCT023 25/19 Q1016 NOSIG=
201207250630 METAR LMML NIL=
201207250615 METAR LMML 250615Z 30006KT 280V340 9999 FEW022 25/19 Q1016
                        NOSIG=
201207250600 METAR LMML NIL=
201207250545 METAR LMML 250545Z 31007KT 280V340 9999 FEW016 24/19 Q1016
                        NOSIG=
201207250530 METAR LMML NIL=
201207250515 METAR LMML 250515Z 30005KT 9999 FEW016 23/18 Q1016 NOSIG=
201207250500 METAR LMML NIL=
201207250445 METAR LMML 250445Z 30003KT 9999 FEW016 22/19 Q1016 NOSIG=
201207250430 METAR LMML NIL=
201207250415 METAR LMML 250415Z 29004KT 260V330 9999 FEW020 22/19 Q1015
                        NOSIG=
201207250400 METAR LMML NIL=
201207250345 METAR LMML 250345Z 30005KT 240V330 9999 FEW020 22/18 Q1015
                        NOSIG=
201207250330 METAR LMML NIL=
201207250315 METAR LMML 250315Z 30004KT 270V330 CAVOK 22/18 Q1015 NOSIG=
201207250300 METAR LMML NIL=
201207250245 METAR LMML 250245Z 29006KT CAVOK 22/18 Q1015 NOSIG=
201207250230 METAR LMML NIL=
201207250215 METAR LMML 250215Z 30004KT 260V320 CAVOK 22/18 Q1015 NOSIG=
201207250200 METAR LMML NIL=
201207250145 METAR LMML 250145Z 27004KT 230V300 CAVOK 22/18 Q1015 NOSIG=
201207250130 METAR LMML NIL=
201207250115 METAR LMML 250115Z 25003KT CAVOK 22/19 Q1015 NOSIG=
201207250100 METAR LMML NIL=
201207250045 METAR LMML 250045Z 24004KT CAVOK 22/18 Q1015 NOSIG=
201207250030 METAR LMML NIL=
201207250015 METAR LMML 250015Z 25003KT CAVOK 22/18 Q1015 NOSIG=
201207250000 METAR LMML NIL=
201207242345 METAR LMML 242345Z 25004KT CAVOK 22/18 Q1015 NOSIG=
201207242330 METAR LMML NIL=
201207242315 METAR LMML 242315Z 25004KT 210V280 CAVOK 23/18 Q1015 NOSIG=
201207242300 METAR LMML NIL=
201207242245 METAR LMML 242245Z 24005KT CAVOK 22/18 Q1015 NOSIG=
201207242230 METAR LMML NIL=
201207242215 METAR LMML 242215Z 25004KT 220V280 CAVOK 23/18 Q1015 NOSIG=
201207242200 METAR LMML NIL=
201207242145 METAR LMML 242145Z 24004KT 210V270 CAVOK 23/18 Q1015 NOSIG=
201207242130 METAR LMML NIL=
201207242115 METAR LMML 242115Z 26003KT CAVOK 23/18 Q1015 NOSIG=
201207242100 METAR LMML NIL=
201207242045 METAR LMML 242045Z 28004KT CAVOK 23/18 Q1015 NOSIG=
201207242030 METAR LMML NIL=
201207242015 METAR LMML 242015Z 26003KT CAVOK 23/18 Q1015 NOSIG=
201207242000 METAR LMML NIL=
201207241945 METAR LMML 241945Z 26003KT CAVOK 23/18 Q1015 NOSIG=
201207241930 METAR LMML NIL=
201207241915 METAR LMML 241915Z 27004KT 240V300 CAVOK 23/18 Q1015 NOSIG=
201207241900 METAR LMML NIL=
201207241845 METAR LMML 241845Z 28005KT 240V310 CAVOK 23/18 Q1015 NOSIG=
201207241830 METAR LMML NIL=
201207241815 METAR LMML 241815Z 28007KT 9999 FEW030 24/17 Q1014 BECMG
                        CAVOK=
201207241800 METAR LMML NIL=
201207241745 METAR LMML 241745Z 28007KT 220V300 9999 FEW034 25/17 Q1014
                        NOSIG=
201207241730 METAR LMML NIL=
201207241715 METAR LMML 241715Z 27006KT 230V300 9999 FEW034 25/16 Q1014
                        NOSIG=
201207241700 METAR LMML NIL=
201207241645 METAR LMML 241645Z 29008KT 260V320 9999 FEW034 26/17 Q1014
                        NOSIG=
201207241630 METAR LMML NIL=
201207241615 METAR LMML 241615Z 29010KT 260V320 9999 FEW035 26/17 Q1014
                        NOSIG=
201207241600 METAR LMML NIL=
201207241545 METAR LMML 241545Z 29010KT 240V330 CAVOK 27/16 Q1014 NOSIG=
201207241530 METAR LMML NIL=
201207241515 METAR LMML 241515Z 31011KT 240V340 CAVOK 27/15 Q1014 NOSIG=
201207241500 METAR LMML NIL=
201207241445 METAR LMML 241445Z 28011KT 250V310 9999 FEW035 27/15 Q1014
                        NOSIG=
201207241430 METAR LMML NIL=
201207241415 METAR LMML 241415Z 27011KT 230V300 9999 FEW035 27/15 Q1014
                        NOSIG=
201207241400 METAR LMML NIL=
201207241345 METAR LMML 241345Z 27011KT 230V300 9999 FEW035 28/16 Q1014
                        NOSIG=
201207241330 METAR LMML NIL=
201207241315 METAR LMML 241315Z 27011KT 230V300 9999 FEW030 27/15 Q1013
                        NOSIG=
201207241300 METAR LMML NIL=
201207241245 METAR LMML 241245Z 29011KT 250V320 9999 FEW030 28/17 Q1013
                        NOSIG=
201207241230 METAR LMML NIL=
201207241215 METAR LMML 241215Z 28012KT 230V330 9999 FEW030 28/15 Q1013
                        NOSIG=
201207241200 METAR LMML NIL=
201207241145 METAR LMML 241145Z 28012KT 230V310 CAVOK 27/16 Q1013 NOSIG=
201207241130 METAR LMML NIL=
201207241115 METAR LMML 241115Z 27012KT 230V310 9999 FEW030 27/17 Q1013
                        NOSIG=
201207241100 METAR LMML NIL=
201207241045 METAR LMML 241045Z 26010KT 190V300 9999 FEW030 27/16 Q1013
                        NOSIG=
201207241030 METAR LMML NIL=
201207241015 METAR LMML 241015Z 26012KT 230V300 9999 VV/// 27/16 Q1013
                        NOSIG=
201207241000 METAR LMML NIL=
201207240945 METAR LMML 240945Z 27012KT 230V320 9999 FEW030 27/15 Q1013
                        NOSIG=
201207240930 METAR LMML NIL=
201207240915 METAR LMML 240915Z 29011KT 250V320 9999 FEW030 27/16 Q1013
                        NOSIG=
201207240900 METAR LMML NIL=
201207240845 METAR LMML 240845Z 28012KT 240V310 9999 FEW027 27/16 Q1013
                        NOSIG=
201207240830 METAR LMML NIL=
201207240815 METAR LMML 240815Z 29013KT 250V320 9999 FEW027 26/16 Q1013
                        NOSIG=
201207240800 METAR LMML NIL=
201207240745 METAR LMML 240745Z 30012KT 270V330 9999 FEW027 26/15 Q1013
                        NOSIG=
201207240730 METAR LMML NIL=
201207240715 METAR LMML 240715Z 29010KT 250V320 9999 FEW027 25/15 Q1013
                        NOSIG=
201207240700 METAR LMML NIL=
201207240645 METAR LMML 240645Z 27009KT 240V300 9999 FEW027 24/15 Q1013
                        NOSIG=
201207240630 METAR LMML NIL=
201207240615 METAR LMML 240615Z 27008KT 230V300 9999 FEW027 24/16 Q1013
                        NOSIG=
201207240600 METAR LMML NIL=
201207240545 METAR LMML 240545Z 27006KT 230V310 9999 FEW025 24/17 Q1013
                        NOSIG=
201207240530 METAR LMML NIL=
201207240515 METAR LMML 240515Z 27005KT 240V300 9999 FEW020 23/17 Q1012
                        NOSIG=
201207240500 METAR LMML NIL=
201207240445 METAR LMML 240445Z 26003KT 9999 FEW020 21/17 Q1012 NOSIG=
201207240430 METAR LMML NIL=
201207240415 METAR LMML 240415Z 27006KT 9999 FEW020 21/17 Q1012 NOSIG=
201207240400 METAR LMML NIL=
201207240345 METAR LMML 240345Z 27006KT 9999 FEW020 21/17 Q1012 NOSIG=
201207240330 METAR LMML NIL=
201207240315 METAR LMML 240315Z 28008KT CAVOK 21/17 Q1011 NOSIG=
201207240300 METAR LMML NIL=
201207240245 METAR LMML 240245Z 28009KT 250V310 CAVOK 21/17 Q1011 NOSIG=
201207240230 METAR LMML NIL=
201207240215 METAR LMML 240215Z 28008KT CAVOK 21/18 Q1011 NOSIG=
201207240200 METAR LMML NIL=
201207240145 METAR LMML 240145Z 28007KT CAVOK 21/17 Q1011 NOSIG=
201207240130 METAR LMML NIL=
201207240115 METAR LMML 240115Z 27008KT CAVOK 21/17 Q1011 NOSIG=
201207240100 METAR LMML NIL=
201207240045 METAR LMML 240045Z 28008KT CAVOK 22/17 Q1011 NOSIG=
201207240030 METAR LMML NIL=
201207240015 METAR LMML 240015Z 28008KT CAVOK 22/17 Q1011 NOSIG=
201207240000 METAR LMML NIL=
201207232345 METAR LMML 232345Z 29006KT 260V320 CAVOK 22/17 Q1011 NOSIG=
201207232330 METAR LMML NIL=
201207232315 METAR LMML 232315Z 29005KT CAVOK 22/17 Q1011 NOSIG=
201207232300 METAR LMML NIL=
201207232245 METAR LMML 232245Z 29004KT 260V320 CAVOK 22/17 Q1012 NOSIG=
201207232230 METAR LMML NIL=
201207232215 METAR LMML 232215Z 30006KT 9999 FEW020 22/18 Q1012 NOSIG=
201207232200 METAR LMML NIL=
201207232145 METAR LMML 232145Z 28003KT 9999 FEW020 22/18 Q1012 NOSIG=
201207232130 METAR LMML NIL=
201207232115 METAR LMML 232115Z 29003KT 9999 FEW020 23/18 Q1011 NOSIG=
201207232100 METAR LMML NIL=
201207232045 METAR LMML 232045Z 30003KT 9999 FEW025 23/17 Q1011 NOSIG=
201207232030 METAR LMML NIL=
201207232015 METAR LMML 232015Z 29004KT 9999 FEW025 23/17 Q1011 NOSIG=
201207232000 METAR LMML NIL=
201207231945 METAR LMML 231945Z 32005KT 9999 FEW025 23/17 Q1011 NOSIG=
201207231930 METAR LMML NIL=
201207231915 METAR LMML 231915Z 32005KT 300V360 9999 FEW030 23/17 Q1011
                        NOSIG=
201207231900 METAR LMML NIL=
201207231845 METAR LMML 231845Z 33007KT 300V360 9999 FEW030 23/17 Q1010
                        NOSIG=
201207231830 METAR LMML NIL=
201207231815 METAR LMML 231815Z 33008KT 9999 FEW030 24/17 Q1010 NOSIG=
201207231745 METAR LMML 231745Z 34009KT 9999 FEW030 25/16 Q1010 NOSIG=
201207231730 METAR LMML NIL=
201207231715 METAR LMML 231715Z 33009KT 300V010 9999 FEW031 25/16 Q1010
                        NOSIG=
201207231700 METAR LMML NIL=
201207231645 METAR LMML 231645Z 30012KT 9999 FEW031 26/17 Q1009 NOSIG=
201207231630 METAR LMML NIL=
201207231615 METAR LMML 231615Z 29012KT 250V320 9999 FEW030 26/17 Q1009
                        NOSIG=
201207231600 METAR LMML NIL=
201207231545 METAR LMML 231545Z 29012KT 230V320 9999 FEW030 27/15 Q1009
                        NOSIG=
201207231530 METAR LMML NIL=
201207231515 METAR LMML 231515Z 29014KT 260V320 9999 FEW030 27/17 Q1009
                        NOSIG=
201207231500 METAR LMML NIL=
201207231445 METAR LMML 231445Z 31016KT 9999 FEW030 SCT100 27/18 Q1009
                        NOSIG=
201207231430 METAR LMML NIL=
201207231415 METAR LMML 231415Z 30014KT 250V320 9999 FEW030 SCT100 27/18
                        Q1009 NOSIG=
201207231400 METAR LMML NIL=
201207231345 METAR LMML 231345Z 29015KT 250V320 CAVOK 28/17 Q1009 NOSIG=
201207231330 METAR LMML NIL=
201207231315 METAR LMML 231315Z 28013KT 250V320 CAVOK 28/18 Q1009 NOSIG=
201207231300 METAR LMML NIL=
201207231245 METAR LMML 231245Z 29012KT 260V320 CAVOK 28/18 Q1009=
201207231230 METAR LMML NIL=
201207231215 METAR LMML 231215Z 30010KT 250V330 9999 FEW030 29/18 Q1009
                        NOSIG=
201207231200 METAR LMML NIL=
201207231145 METAR LMML 231145Z 31009KT 270V360 9999 FEW035 29/16 Q1009
                        NOSIG=
201207231130 METAR LMML NIL=
201207231115 METAR LMML 231115Z 33010KT 290V360 9999 FEW035 28/17 Q1009
                        NOSIG=
201207231100 METAR LMML NIL=
201207231045 METAR LMML 231045Z 33011KT 9999 FEW030 SCT100 28/18 Q1009
                        NOSIG=
201207231030 METAR LMML NIL=
201207231015 METAR LMML 231015Z 32009KT 290V360 9999 FEW035 SCT120 28/18
                        Q1009 NOSIG=
201207231000 METAR LMML NIL=
201207230945 METAR LMML 230945Z 33008KT 310V020 9999 FEW035 BKN090 26/18
                        Q1009 NOSIG=
201207230930 METAR LMML NIL=
201207230915 METAR LMML 230915Z 33009KT 300V010 9999 FEW035 SCT090 27/18
                        Q1010 NOSIG=
201207230900 METAR LMML NIL=
201207230845 METAR LMML 230845Z 33010KT 290V010 9999 FEW030 SCT090 27/18
                        Q1009 NOSIG=
201207230830 METAR LMML NIL=
201207230815 METAR LMML 230815Z 34010KT 310V010 9999 FEW030 SCT090 25/18
                        Q1009 NOSIG=
201207230800 METAR LMML NIL=
201207230745 METAR LMML 230745Z 33011KT 9999 FEW030 SCT080 26/17 Q1009
                        NOSIG=
201207230730 METAR LMML NIL=
201207230715 METAR LMML 230715Z 32005KT 280V360 9999 FEW020 BKN130 24/17
                        Q1009 NOSIG=
201207230700 METAR LMML NIL=
201207230645 METAR LMML 230645Z 33013KT 300V360 9999 FEW020 BKN130 23/18
                        Q1009 NOSIG=
201207230630 METAR LMML NIL=
201207230615 METAR LMML 230615Z 34010KT 320V020 9999 -RA FEW017 BKN130
                        23/18 Q1009 NOSIG=
201207230600 METAR LMML NIL=
201207230545 METAR LMML 230545Z 34012KT 9999 FEW017 BKN130 23/18 Q1009
                        NOSIG=
201207230530 METAR LMML NIL=
201207230515 METAR LMML 230515Z 33012KT 9999 FEW017 SCT120 BKN180 23/18
                        Q1009 NOSIG=
201207230445 METAR LMML 230445Z 31013KT 9999 FEW017 SCT120 BKN180 23/19
                        Q1009 NOSIG=
201207230430 METAR LMML NIL=
201207230415 METAR LMML 230415Z 33013KT CAVOK 23/19 Q1008 NOSIG=
201207230400 METAR LMML NIL=
201207230345 METAR LMML 230345Z 33013KT CAVOK 23/18 Q1008 NOSIG=
201207230330 METAR LMML NIL=
201207230315 METAR LMML 230315Z 33013KT 300V360 CAVOK 23/18 Q1008 NOSIG=
201207230300 METAR LMML NIL=
201207230245 METAR LMML 230245Z 32013KT 280V360 CAVOK 24/18 Q1008 NOSIG=
201207230230 METAR LMML NIL=
201207230215 METAR LMML 230215Z 33013KT CAVOK 23/18 Q1009 NOSIG=
201207230200 METAR LMML NIL=
201207230145 METAR LMML 230145Z 33014KT CAVOK 23/17 Q1008 NOSIG=
201207230130 METAR LMML NIL=
201207230115 METAR LMML 230115Z 33015KT 300V360 CAVOK 24/17 Q1008 NOSIG=
201207230100 METAR LMML NIL=
201207230045 METAR LMML 230045Z 34010KT 310V030 CAVOK 24/17 Q1008 NOSIG=
201207230030 METAR LMML NIL=
201207230015 METAR LMML 230015Z 32010KT CAVOK 24/18 Q1009 NOSIG=
201207230000 METAR LMML NIL=
201207222345 METAR LMML 222345Z 32015KT CAVOK 24/19 Q1009 NOSIG=
201207222330 METAR LMML NIL=
201207222315 METAR LMML 222315Z 32012KT CAVOK 24/18 Q1009 NOSIG=
201207222300 METAR LMML NIL=
201207222245 METAR LMML 222245Z 32014KT CAVOK 24/19 Q1009 NOSIG=
201207222230 METAR LMML NIL=
201207222215 METAR LMML 222215Z 31013KT CAVOK 24/20 Q1009 NOSIG=
201207222200 METAR LMML NIL=
201207222145 METAR LMML 222145Z 31013KT CAVOK 24/20 Q1010 NOSIG=
201207222130 METAR LMML NIL=
201207222115 METAR LMML 222115Z 30016KT CAVOK 24/20 Q1009 NOSIG=
201207222100 METAR LMML NIL=
201207222045 METAR LMML 222045Z 30014KT CAVOK 25/21 Q1010 NOSIG=
201207222030 METAR LMML NIL=
201207222015 METAR LMML 222015Z 30007KT CAVOK 25/19 Q1010 NOSIG=
201207222000 METAR LMML NIL=
201207221945 METAR LMML 221945Z 31007KT 270V340 CAVOK 25/19 Q1010 NOSIG=
201207221930 METAR LMML NIL=
201207221915 METAR LMML 221915Z 31008KT CAVOK 25/19 Q1010 NOSIG=
201207221900 METAR LMML NIL=
201207221845 METAR LMML 221845Z 30009KT CAVOK 24/20 Q1010 NOSIG=
201207221830 METAR LMML NIL=
201207221815 METAR LMML 221815Z 31011KT CAVOK 25/20 Q1010 NOSIG=
201207221800 METAR LMML NIL=
201207221745 METAR LMML 221745Z 30011KT 270V330 CAVOK 25/20 Q1010 NOSIG=
201207221730 METAR LMML NIL=
201207221715 METAR LMML 221715Z 30015KT CAVOK 26/20 Q1010 NOSIG=
201207221700 METAR LMML NIL=
201207221645 METAR LMML 221645Z 30011KT CAVOK 28/19 Q1010 NOSIG=
201207221630 METAR LMML NIL=
201207221615 METAR LMML 221615Z 32012KT CAVOK 28/19 Q1010 NOSIG=
201207221600 METAR LMML NIL=
201207221545 METAR LMML 221545Z 31013KT CAVOK 28/18 Q1010 NOSIG=
201207221530 METAR LMML NIL=
201207221515 METAR LMML 221515Z 29010KT 250V360 CAVOK 28/19 Q1010 NOSIG=
201207221500 METAR LMML NIL=
201207221445 METAR LMML 221445Z 28010KT 240V310 CAVOK 30/21 Q1010 NOSIG=
201207221430 METAR LMML NIL=
201207221415 METAR LMML 221415Z 31007KT 270V020 CAVOK 31/19 Q1010 NOSIG=
201207221400 METAR LMML NIL=
201207221345 METAR LMML 221345Z 30009KT 260V330 CAVOK 30/20 Q1011 NOSIG=
201207221330 METAR LMML NIL=
201207221315 METAR LMML 221315Z 31009KT 290V350 CAVOK 28/20 Q1011 NOSIG=
201207221245 METAR LMML 221245Z 28007KT 230V320 CAVOK 29/20 Q1011 NOSIG=
201207221230 METAR LMML NIL=
201207221215 METAR LMML 221215Z 30009KT 260V330 9999 FEW011 BKN130 29/20
                        Q1011 NOSIG=
201207221200 METAR LMML NIL=
201207221145 METAR LMML 221145Z 32012KT 280V350 9999 FEW011 SCT130 31/21
                        Q1011 NOSIG=
201207221130 METAR LMML NIL=
201207221115 METAR LMML 221115Z 30013KT 270V330 9999 FEW011 29/21 Q1011
                        NOSIG=
201207221100 METAR LMML NIL=
201207221045 METAR LMML 221045Z 29012KT 260V320 9999 FEW011 30/19 Q1012
                        NOSIG=
201207221030 METAR LMML NIL=
201207221015 METAR LMML 221015Z 30014KT 9999 FEW011 29/19 Q1012 NOSIG=
201207220945 METAR LMML 220945Z 31013KT 280V350 9999 FEW011 30/21 Q1012
                        NOSIG=
201207220930 METAR LMML NIL=
201207220915 METAR LMML 220915Z 31012KT 280V340 9999 FEW011 31/21 Q1012
                        NOSIG=
201207220900 METAR LMML NIL=
201207220845 METAR LMML 220845Z 29012KT 9999 FEW011 30/19 Q1012 NOSIG=
201207220830 METAR LMML NIL=
201207220815 METAR LMML 220815Z 29010KT 9999 FEW011 29/20 Q1012 NOSIG=
201207220800 METAR LMML NIL=
201207220745 METAR LMML 220745Z 30010KT 9999 FEW011 28/21 Q1012 NOSIG=
201207220730 METAR LMML NIL=
201207220715 METAR LMML 220715Z 29010KT 260V320 9999 FEW008 27/22 Q1012
                        NOSIG=
201207220700 METAR LMML NIL=
201207220645 METAR LMML 220645Z 28011KT 8000 FEW011 26/22 Q1012 NOSIG=
201207220630 METAR LMML NIL=
201207220615 METAR LMML 220615Z 29011KT 8000 SCT011 SCT120 26/23 Q1012
                        NOSIG=
201207220600 METAR LMML NIL=
201207220545 METAR LMML 220545Z 28007KT 250V310 7000 FEW008 SCT120 26/23
                        Q1012 NOSIG=
201207220530 METAR LMML NIL=
201207220515 METAR LMML 220515Z 27003KT 7000 FEW008 BKN120 25/23 Q1012
                        NOSIG=
201207220500 METAR LMML NIL=
201207220445 METAR LMML 220445Z VRB02KT 6000 FEW010 BKN120 25/23 Q1012
                        NOSIG=
201207220430 METAR LMML NIL=
201207220415 METAR LMML 220415Z VRB01KT 6000 FEW010 BKN120 25/23 Q1012
                        BECMG 9999=
201207220400 METAR LMML NIL=
201207220345 METAR LMML 220345Z VRB02KT 9999 FEW010 BKN120 25/22 Q1012
                        NOSIG=
201207220330 METAR LMML NIL=
201207220315 METAR LMML 220315Z 26003KT 9999 FEW010 BKN120 25/23 Q1012
                        NOSIG=
201207220300 METAR LMML NIL=
201207220245 METAR LMML 220245Z 28005KT 9999 SCT010 SCT120 25/23 Q1012
                        NOSIG=
201207220230 METAR LMML NIL=
201207220215 METAR LMML 220215Z 29007KT 260V320 9999 SCT010 BKN120 25/23
                        Q1012 NOSIG=
201207220200 METAR LMML NIL=
201207220145 METAR LMML 220145Z 28006KT 250V310 9999 SCT010 BKN120 25/23
                        Q1012 NOSIG=
201207220130 METAR LMML NIL=
201207220115 METAR LMML 220115Z 29007KT 240V320 9999 SCT010 BKN120 25/23
                        Q1012 NOSIG=
201207220100 METAR LMML NIL=
201207220045 METAR LMML 220045Z 28007KT CAVOK 26/23 Q1012 NOSIG=
201207220030 METAR LMML NIL=
201207220015 METAR LMML 220015Z 26006KT 220V300 CAVOK 25/23 Q1013 NOSIG=
201207212345 METAR LMML 212345Z 26003KT CAVOK 25/21 Q1013 NOSIG=
201207212315 METAR LMML 212315Z VRB02KT CAVOK 25/23 Q1013 NOSIG=
201207212300 METAR LMML NIL=
201207212245 METAR LMML 212245Z 25004KT 210V290 CAVOK 25/23 Q1014 NOSIG=
201207212230 METAR LMML NIL=
201207212215 METAR LMML 212215Z 25004KT 220V290 CAVOK 25/23 Q1014 NOSIG=
201207212145 METAR LMML 212145Z 26006KT CAVOK 26/19 Q1014 NOSIG=
201207212130 METAR LMML NIL=
201207212115 METAR LMML 212115Z 26003KT CAVOK 26/13 Q1014 NOSIG=
201207212100 METAR LMML NIL=
201207212045 METAR LMML 212045Z 31004KT 270V350 CAVOK 27/07 Q1014 NOSIG=
201207212030 METAR LMML NIL=
201207212015 METAR LMML 212015Z VRB02KT CAVOK 27/06 Q1014 NOSIG=
201207212000 METAR LMML NIL=
201207211945 METAR LMML 211945Z 25003KT CAVOK 26/18 Q1013 NOSIG=
201207211930 METAR LMML NIL=
201207211915 METAR LMML 211915Z 24004KT 220V280 CAVOK 26/22 Q1013 NOSIG=
201207211900 METAR LMML NIL=
201207211845 METAR LMML 211845Z 23004KT 180V300 CAVOK 26/20 Q1013 NOSIG=
201207211830 METAR LMML NIL=
201207211815 METAR LMML 211815Z 25004KT 220V280 CAVOK 27/19 Q1013 NOSIG
                        RMK SMOKE TO SOUTH OF AIRFIELD=
201207211800 METAR LMML NIL=
201207211745 METAR LMML 211745Z 27008KT 240V310 CAVOK 28/18 Q1013 NOSIG=
201207211730 METAR LMML NIL=
201207211715 METAR LMML 211715Z 25006KT 220V290 CAVOK 29/18 Q1013 NOSIG=
201207211700 METAR LMML NIL=
201207211645 METAR LMML 211645Z 25008KT 220V280 CAVOK 29/19 Q1013 NOSIG=
201207211630 METAR LMML NIL=
201207211615 METAR LMML 211615Z 24008KT 220V280 CAVOK 30/19 Q1013 NOSIG=
201207211600 METAR LMML NIL=
201207211545 METAR LMML 211545Z 23008KT 180V290 CAVOK 30/19 Q1013 NOSIG=
201207211530 METAR LMML NIL=
201207211515 METAR LMML 211515Z 23010KT 200V270 CAVOK 31/19 Q1014 NOSIG=
201207211500 METAR LMML NIL=
201207211445 METAR LMML 211445Z 25007KT 200V290 CAVOK 30/15 Q1014 NOSIG=
201207211430 METAR LMML NIL=
201207211415 METAR LMML 211415Z 25009KT 210V280 CAVOK 31/19 Q1014 NOSIG=
201207211400 METAR LMML NIL=
201207211345 METAR LMML 211345Z 25008KT 170V290 CAVOK 30/19 Q1014 NOSIG=
201207211330 METAR LMML NIL=
201207211315 METAR LMML 211315Z 24009KT 170V290 CAVOK 31/17 Q1014 NOSIG=
201207211300 METAR LMML NIL=
201207211245 METAR LMML 211245Z 23008KT 180V270 CAVOK 31/17 Q1014 NOSIG=
201207211230 METAR LMML NIL=
201207211215 METAR LMML 211215Z 23010KT 200V260 CAVOK 31/16 Q1014 NOSIG=
201207211200 METAR LMML NIL=
201207211145 METAR LMML 211145Z 23007KT 180V270 CAVOK 31/18 Q1014 NOSIG=
201207211130 METAR LMML NIL=
201207211115 METAR LMML 211115Z 24007KT 200V310 CAVOK 31/15 Q1015 NOSIG=
201207211100 METAR LMML NIL=
201207211045 METAR LMML 211045Z 23008KT 190V280 CAVOK 31/15 Q1015 NOSIG=
201207211030 METAR LMML NIL=
201207211015 METAR LMML 211015Z 23007KT 190V290 CAVOK 30/18 Q1015 NOSIG=
201207211000 METAR LMML NIL=
201207210945 METAR LMML 210945Z 24008KT 200V280 CAVOK 31/20 Q1015 NOSIG=
201207210930 METAR LMML NIL=
201207210915 METAR LMML 210915Z 22008KT 170V260 CAVOK 30/17 Q1015 NOSIG=
201207210900 METAR LMML NIL=
201207210845 METAR LMML 210845Z 23008KT 200V260 CAVOK 30/18 Q1015 NOSIG=
201207210830 METAR LMML NIL=
201207210815 METAR LMML 210815Z 23008KT 200V270 CAVOK 29/18 Q1015 NOSIG=
201207210800 METAR LMML NIL=
201207210745 METAR LMML 210745Z 24007KT 200V280 CAVOK 28/19 Q1015 NOSIG=
201207210730 METAR LMML NIL=
201207210715 METAR LMML 210715Z 24008KT CAVOK 28/20 Q1015 NOSIG=
201207210700 METAR LMML NIL=
201207210645 METAR LMML 210645Z 26005KT 220V320 CAVOK 28/18 Q1015 NOSIG=
201207210630 METAR LMML NIL=
201207210615 METAR LMML 210615Z 28006KT 250V310 CAVOK 27/17 Q1015 NOSIG=
201207210600 METAR LMML NIL=
201207210545 METAR LMML 210545Z 26005KT 220V290 CAVOK 26/18 Q1014 NOSIG=
201207210530 METAR LMML NIL=
201207210515 METAR LMML 210515Z 26005KT 230V290 CAVOK 25/17 Q1014 NOSIG=
201207210500 METAR LMML NIL=
201207210445 METAR LMML 210445Z 25005KT CAVOK 24/14 Q1014 NOSIG=
201207210430 METAR LMML NIL=
201207210415 METAR LMML 210415Z 25006KT CAVOK 24/15 Q1014 NOSIG=
201207210400 METAR LMML NIL=
201207210345 METAR LMML 210345Z 25005KT CAVOK 24/15 Q1014 NOSIG=
201207210330 METAR LMML NIL=
201207210315 METAR LMML 210315Z 26005KT CAVOK 24/19 Q1014 NOSIG=
201207210300 METAR LMML NIL=
201207210245 METAR LMML 210245Z 27006KT CAVOK 23/19 Q1014 NOSIG=
201207210230 METAR LMML NIL=
201207210215 METAR LMML 210215Z 27004KT CAVOK 24/18 Q1014 NOSIG=
201207210200 METAR LMML NIL=
201207210145 METAR LMML 210145Z 26005KT 240V300 CAVOK 24/16 Q1014 NOSIG=
201207210130 METAR LMML NIL=
201207210115 METAR LMML 210115Z 26003KT CAVOK 24/18 Q1014 NOSIG=
201207210100 METAR LMML NIL=
201207210045 METAR LMML 210045Z 25004KT CAVOK 24/19 Q1014 NOSIG=
201207210030 METAR LMML NIL=
201207210015 METAR LMML 210015Z 26004KT CAVOK 24/19 Q1014 NOSIG=
201207210000 METAR LMML NIL=
201207202345 METAR LMML 202345Z 25005KT CAVOK 24/20 Q1014 NOSIG=
201207202330 METAR LMML NIL=
201207202315 METAR LMML 202315Z 25005KT 220V280 CAVOK 24/21 Q1015 NOSIG=
201207202245 METAR LMML 202245Z 25005KT CAVOK 24/21 Q1015 NOSIG=
201207202230 METAR LMML NIL=
201207202215 METAR LMML 202215Z 25004KT 200V290 CAVOK 24/21 Q1015 NOSIG=
201207202200 METAR LMML NIL=
201207202145 METAR LMML 202145Z 24005KT CAVOK 24/21 Q1015 NOSIG=
201207202130 METAR LMML NIL=
201207202115 METAR LMML 202115Z 25004KT 220V280 CAVOK 24/21 Q1015 NOSIG=
201207202100 METAR LMML NIL=
201207202045 METAR LMML 202045Z 25004KT CAVOK 25/13 Q1015 NOSIG=
201207202030 METAR LMML NIL=
201207202015 METAR LMML 202015Z 26003KT CAVOK 25/14 Q1015 NOSIG=
201207202000 METAR LMML NIL=
201207201945 METAR LMML 201945Z 26004KT CAVOK 25/17 Q1015 NOSIG=
201207201930 METAR LMML NIL=
201207201915 METAR LMML 201915Z 25003KT CAVOK 25/19 Q1015 NOSIG=
201207201900 METAR LMML NIL=
201207201845 METAR LMML 201845Z 25005KT 210V290 CAVOK 25/20 Q1015 NOSIG=
201207201830 METAR LMML NIL=
201207201815 METAR LMML 201815Z 24007KT CAVOK 26/20 Q1015 NOSIG=
201207201800 METAR LMML NIL=
201207201745 METAR LMML 201745Z 23006KT CAVOK 28/18 Q1014 NOSIG=
201207201730 METAR LMML NIL=
201207201715 METAR LMML 201715Z 26005KT 180V320 CAVOK 29/13 Q1014 NOSIG=
201207201700 METAR LMML NIL=
201207201645 METAR LMML 201645Z 26005KT 220V300 CAVOK 30/13 Q1014 NOSIG=
201207201630 METAR LMML NIL=
201207201615 METAR LMML 201615Z 25007KT 220V290 CAVOK 31/15 Q1014 NOSIG=
201207201600 METAR LMML NIL=
201207201545 METAR LMML 201545Z 25008KT 210V290 CAVOK 30/13 Q1015 NOSIG=
201207201530 METAR LMML NIL=
201207201515 METAR LMML 201515Z 26008KT 220V300 CAVOK 29/13 Q1015 NOSIG=
201207201500 METAR LMML NIL=
201207201445 METAR LMML 201445Z 24009KT 200V300 CAVOK 31/15 Q1015 NOSIG=
201207201430 METAR LMML NIL=
201207201415 METAR LMML 201415Z 24008KT 210V280 CAVOK 30/13 Q1015 NOSIG=
201207201400 METAR LMML NIL=
201207201345 METAR LMML 201345Z 25008KT 200V300 CAVOK 31/15 Q1015 NOSIG=
201207201330 METAR LMML NIL=
201207201315 METAR LMML 201315Z 25008KT 190V300 CAVOK 31/15 Q1015 NOSIG=
201207201300 METAR LMML NIL=
201207201245 METAR LMML 201245Z 28008KT 230V350 CAVOK 32/12 Q1016 NOSIG=
201207201230 METAR LMML NIL=
201207201215 METAR LMML 201215Z 28008KT 240V330 CAVOK 32/13 Q1016 NOSIG=
201207201200 METAR LMML NIL=
201207201145 METAR LMML 201145Z 29008KT 230V340 CAVOK 32/12 Q1016 NOSIG=
201207201130 METAR LMML NIL=
201207201115 METAR LMML 201115Z 30009KT 250V340 CAVOK 32/08 Q1016 NOSIG=
201207201045 METAR LMML 201045Z 31009KT 280V350 CAVOK 32/06 Q1016 NOSIG=
201207201030 METAR LMML NIL=
201207201015 METAR LMML 201015Z 29009KT 250V320 CAVOK 32/09 Q1016 NOSIG=
201207200945 METAR LMML 200945Z 28008KT 250V310 CAVOK 31/09 Q1016 NOSIG=
201207200930 METAR LMML NIL=
201207200915 METAR LMML 200915Z 32008KT 290V350 9999 FEW020 31/13 Q1016
                        NOSIG=
201207200900 METAR LMML NIL=
201207200845 METAR LMML 200845Z 32008KT 280V350 9999 FEW020 30/15 Q1016
                        NOSIG=
201207200830 METAR LMML NIL=
201207200815 METAR LMML 200815Z 30006KT 260V350 9999 FEW020 29/16 Q1016
                        NOSIG=
201207200800 METAR LMML NIL=
201207200745 METAR LMML 200745Z 30007KT 260V330 9999 FEW020 28/16 Q1016
                        NOSIG=
201207200730 METAR LMML NIL=
201207200715 METAR LMML 200715Z 31007KT 9999 FEW020 28/15 Q1016 NOSIG=
201207200700 METAR LMML NIL=
201207200645 METAR LMML 200645Z 30006KT 270V330 CAVOK 27/17 Q1016 NOSIG=
201207200630 METAR LMML NIL=
201207200615 METAR LMML 200615Z 28006KT CAVOK 25/20 Q1016 NOSIG=
201207200600 METAR LMML NIL=
201207200545 METAR LMML 200545Z 29004KT 250V340 CAVOK 24/21 Q1016 NOSIG=
201207200530 METAR LMML NIL=
201207200515 METAR LMML 200515Z 27003KT CAVOK 23/21 Q1015 NOSIG=
201207200500 METAR LMML NIL=
201207200445 METAR LMML 200445Z 27003KT CAVOK 23/21 Q1015 NOSIG=
201207200430 METAR LMML NIL=
201207200415 METAR LMML 200415Z 27004KT CAVOK 22/21 Q1015 NOSIG=
201207200400 METAR LMML NIL=
201207200345 METAR LMML 200345Z 27003KT CAVOK 22/19 Q1015 NOSIG=
201207200330 METAR LMML NIL=
201207200315 METAR LMML 200315Z 26004KT CAVOK 22/19 Q1014 NOSIG=
201207200300 METAR LMML NIL=
201207200245 METAR LMML 200245Z 26003KT CAVOK 22/17 Q1014 NOSIG=
201207200230 METAR LMML NIL=
201207200215 METAR LMML 200215Z 27003KT CAVOK 23/15 Q1014 NOSIG=
201207200200 METAR LMML NIL=
201207200145 METAR LMML 200145Z 25003KT CAVOK 22/17 Q1014 NOSIG=
201207200130 METAR LMML NIL=
201207200115 METAR LMML 200115Z 28004KT 240V300 CAVOK 22/18 Q1015 NOSIG=
201207200100 METAR LMML NIL=
201207200045 METAR LMML 200045Z VRB02KT CAVOK 22/19 Q1015 NOSIG=
201207200030 METAR LMML NIL=
201207200015 METAR LMML 200015Z VRB02KT CAVOK 22/19 Q1015 NOSIG=
201207200000 METAR LMML NIL=
201207192345 METAR LMML 192345Z VRB02KT CAVOK 22/20 Q1015 NOSIG=
201207192330 METAR LMML NIL=
201207192315 METAR LMML 192315Z VRB02KT CAVOK 23/20 Q1015 NOSIG=
201207192300 METAR LMML NIL=
201207192245 METAR LMML 192245Z VRB02KT CAVOK 23/20 Q1015 NOSIG=
201207192230 METAR LMML NIL=
201207192215 METAR LMML 192215Z VRB01KT CAVOK 23/20 Q1016 NOSIG=
201207192200 METAR LMML NIL=
201207192145 METAR LMML 192145Z VRB02KT CAVOK 24/20 Q1016 NOSIG=
201207192130 METAR LMML NIL=
201207192115 METAR LMML 192115Z 28003KT CAVOK 24/21 Q1016 NOSIG=
201207192100 METAR LMML NIL=
201207192045 METAR LMML 192045Z 30004KT CAVOK 24/21 Q1016 NOSIG=
201207192030 METAR LMML NIL=
201207192015 METAR LMML 192015Z 30004KT CAVOK 24/20 Q1016 NOSIG=
201207192000 METAR LMML NIL=
201207191945 METAR LMML 191945Z 31006KT CAVOK 25/20 Q1015 NOSIG=
201207191930 METAR LMML NIL=
201207191915 METAR LMML 191915Z 29004KT CAVOK 26/15 Q1015 NOSIG=
201207191900 METAR LMML NIL=
201207191845 METAR LMML 191845Z 25003KT CAVOK 26/15 Q1015 NOSIG=
201207191830 METAR LMML NIL=
201207191815 METAR LMML 191815Z 25005KT 210V280 CAVOK 26/17 Q1015 NOSIG=
201207191800 METAR LMML NIL=
201207191745 METAR LMML 191745Z 24006KT 200V290 CAVOK 27/18 Q1015 NOSIG=
201207191730 METAR LMML NIL=
201207191715 METAR LMML 191715Z 24007KT 190V260 CAVOK 28/19 Q1015 NOSIG=
201207191700 METAR LMML NIL=
201207191645 METAR LMML 191645Z 24008KT 210V270 CAVOK 29/18 Q1015 NOSIG=
201207191630 METAR LMML NIL=
201207191615 METAR LMML 191615Z 24008KT 200V290 CAVOK 30/17 Q1015 NOSIG=
201207191600 METAR LMML NIL=
201207191545 METAR LMML 191545Z 25008KT 220V290 CAVOK 31/16 Q1015 NOSIG=
201207191530 METAR LMML NIL=
201207191515 METAR LMML 191515Z 25008KT 210V280 CAVOK 31/14 Q1015 NOSIG=
201207191500 METAR LMML NIL=
201207191445 METAR LMML 191445Z 25009KT 220V290 CAVOK 30/13 Q1016 NOSIG=
201207191430 METAR LMML NIL=
201207191415 METAR LMML 191415Z 23010KT 190V260 CAVOK 31/13 Q1016 NOSIG=
201207191400 METAR LMML NIL=
201207191345 METAR LMML 191345Z 21009KT 160V260 CAVOK 31/14 Q1016 NOSIG=
201207191330 METAR LMML NIL=
201207191315 METAR LMML 191315Z 22009KT 160V260 CAVOK 31/13 Q1016 NOSIG=
201207191300 METAR LMML NIL=
201207191245 METAR LMML 191245Z 22009KT 160V260 CAVOK 31/16 Q1016 NOSIG=
201207191230 METAR LMML NIL=
201207191215 METAR LMML 191215Z 22008KT 160V260 CAVOK 31/14 Q1016 NOSIG=
201207191200 METAR LMML NIL=
201207191145 METAR LMML 191145Z 20008KT 100V260 CAVOK 31/14 Q1016 NOSIG=
201207191130 METAR LMML NIL=
201207191115 METAR LMML 191115Z 19007KT 130V240 CAVOK 31/14 Q1016 NOSIG=
201207191100 METAR LMML NIL=
201207191045 METAR LMML 191045Z 23005KT 160V290 CAVOK 31/15 Q1017 NOSIG=
201207191030 METAR LMML NIL=
201207191015 METAR LMML 191015Z 22006KT 150V250 CAVOK 31/15 Q1017 NOSIG=
201207191000 METAR LMML NIL=
201207190945 METAR LMML 190945Z 20006KT 110V260 CAVOK 30/14 Q1017 NOSIG=
201207190930 METAR LMML NIL=
201207190915 METAR LMML 190915Z 20006KT 150V270 CAVOK 31/16 Q1017 NOSIG=
201207190900 METAR LMML NIL=
201207190845 METAR LMML 190845Z 06005KT 360V100 CAVOK 32/13 Q1017 NOSIG=
201207190830 METAR LMML NIL=
201207190815 METAR LMML 190815Z 03003KT CAVOK 31/13 Q1017 NOSIG=
201207190800 METAR LMML NIL=
201207190745 METAR LMML 190745Z 03003KT CAVOK 31/12 Q1017 NOSIG=
201207190730 METAR LMML NIL=
201207190715 METAR LMML 190715Z VRB01KT CAVOK 31/13 Q1017 NOSIG=
201207190700 METAR LMML NIL=
201207190645 METAR LMML 190645Z 23003KT CAVOK 31/12 Q1016 NOSIG=
201207190630 METAR LMML NIL=
201207190615 METAR LMML 190615Z VRB02KT CAVOK 28/18 Q1016 NOSIG=
201207190600 METAR LMML NIL=
201207190545 METAR LMML 190545Z VRB02KT CAVOK 27/18 Q1016 NOSIG=
201207190530 METAR LMML NIL=
201207190515 METAR LMML 190515Z VRB01KT CAVOK 25/16 Q1016 NOSIG=
201207190500 METAR LMML NIL=
201207190445 METAR LMML 190445Z VRB01KT CAVOK 23/15 Q1016 NOSIG=
201207190430 METAR LMML NIL=
201207190415 METAR LMML 190415Z VRB01KT CAVOK 22/15 Q1016 NOSIG=
201207190400 METAR LMML NIL=
201207190345 METAR LMML 190345Z VRB02KT CAVOK 22/16 Q1016 NOSIG=
201207190330 METAR LMML NIL=
201207190315 METAR LMML 190315Z VRB01KT CAVOK 22/16 Q1016 NOSIG=
201207190300 METAR LMML NIL=
201207190245 METAR LMML 190245Z VRB01KT CAVOK 22/15 Q1015 NOSIG=
201207190230 METAR LMML NIL=
201207190215 METAR LMML 190215Z VRB02KT CAVOK 22/17 Q1015 NOSIG=
201207190200 METAR LMML NIL=
201207190145 METAR LMML 190145Z 30003KT CAVOK 23/17 Q1016 NOSIG=
201207190130 METAR LMML NIL=
201207190115 METAR LMML 190115Z VRB02KT CAVOK 22/14 Q1016 NOSIG=
201207190100 METAR LMML NIL=
201207190045 METAR LMML 190045Z VRB01KT CAVOK 22/13 Q1016 NOSIG=
201207190030 METAR LMML NIL=
201207190015 METAR LMML 190015Z VRB01KT CAVOK 23/14 Q1016 NOSIG=
201207190000 METAR LMML NIL=
201207182345 METAR LMML 182345Z VRB02KT 9999 FEW012 23/12 Q1016 NOSIG=
201207182315 METAR LMML 182315Z VRB02KT CAVOK 23/13 Q1016 NOSIG=
201207182300 METAR LMML NIL=
201207182245 METAR LMML 182245Z VRB01KT CAVOK 23/15 Q1017 NOSIG=
201207182230 METAR LMML NIL=
201207182215 METAR LMML 182215Z VRB01KT CAVOK 24/15 Q1017 NOSIG=
201207182200 METAR LMML NIL=
201207182145 METAR LMML 182145Z VRB02KT CAVOK 24/15 Q1017 NOSIG=
201207182130 METAR LMML NIL=
201207182115 METAR LMML 182115Z VRB02KT CAVOK 24/16 Q1017 NOSIG=
201207182100 METAR LMML NIL=
201207182045 METAR LMML 182045Z VRB02KT CAVOK 24/16 Q1017 NOSIG=
201207182030 METAR LMML NIL=
201207182015 METAR LMML 182015Z 29003KT CAVOK 25/16 Q1016 NOSIG=
201207182000 METAR LMML NIL=
201207181945 METAR LMML 181945Z 30003KT CAVOK 25/15 Q1016 NOSIG=
201207181930 METAR LMML NIL=
201207181915 METAR LMML 181915Z 31004KT CAVOK 25/16 Q1016 NOSIG=
201207181900 METAR LMML NIL=
201207181845 METAR LMML 181845Z 32004KT 290V350 CAVOK 25/17 Q1016 NOSIG=
201207181830 METAR LMML NIL=
201207181815 METAR LMML 181815Z 34007KT CAVOK 26/17 Q1016 NOSIG=
201207181800 METAR LMML NIL=
201207181745 METAR LMML 181745Z 35006KT CAVOK 27/17 Q1016 NOSIG=
201207181730 METAR LMML NIL=
201207181715 METAR LMML 181715Z 35007KT 310V020 CAVOK 28/17 Q1016 NOSIG=
201207181700 METAR LMML NIL=
201207181645 METAR LMML 181645Z 36007KT 320V040 CAVOK 29/16 Q1015 NOSIG=
201207181630 METAR LMML NIL=
201207181615 METAR LMML 181615Z 35007KT 330V040 CAVOK 31/15 Q1015 NOSIG=
201207181600 METAR LMML NIL=
201207181545 METAR LMML 181545Z 07005KT 020V120 CAVOK 31/13 Q1015 NOSIG=
201207181530 METAR LMML NIL=
201207181515 METAR LMML 181515Z 03005KT 360V080 CAVOK 32/11 Q1015 NOSIG=
201207181500 METAR LMML NIL=
201207181445 METAR LMML 181445Z 05006KT 010V090 9999 FEW025 32/15 Q1016
                        NOSIG=
201207181430 METAR LMML NIL=
201207181415 METAR LMML 181415Z 03006KT 330V180 9999 FEW025 32/14 Q1016
                        NOSIG=
201207181400 METAR LMML NIL=
201207181345 METAR LMML 181345Z 07004KT 350V180 9999 FEW025 32/15 Q1016
                        NOSIG=
201207181330 METAR LMML NIL=
201207181315 METAR LMML 181315Z 13004KT CAVOK 31/19 Q1016 NOSIG=
201207181300 METAR LMML NIL=
201207181245 METAR LMML 181245Z 13003KT 9999 FEW020 31/19 Q1016 NOSIG=
201207181230 METAR LMML NIL=
201207181215 METAR LMML 181215Z 33003KT 9999 FEW020 31/15 Q1016 NOSIG=
201207181200 METAR LMML NIL=
201207181145 METAR LMML 181145Z 01007KT 320V050 9999 FEW020 31/15 Q1016
                        NOSIG=
201207181130 METAR LMML NIL=
201207181115 METAR LMML 181115Z 03007KT 340V100 9999 FEW020 31/15 Q1016
                        NOSIG=
201207181100 METAR LMML NIL=
201207181045 METAR LMML 181045Z 04005KT 360V100 9999 FEW020 31/16 Q1017
                        NOSIG=
201207181030 METAR LMML NIL=
201207181015 METAR LMML 181015Z 03006KT 360V070 9999 FEW020 31/16 Q1017
                        NOSIG=
201207180945 METAR LMML 180945Z 02009KT 340V070 9999 FEW020 30/18 Q1017
                        NOSIG=
201207180930 METAR LMML NIL=
201207180915 METAR LMML 180915Z 35008KT 300V040 CAVOK 29/17 Q1017 NOSIG=
201207180900 METAR LMML NIL=
201207180845 METAR LMML 180845Z 36007KT 320V030 CAVOK 29/19 Q1017 NOSIG=
201207180830 METAR LMML NIL=
201207180815 METAR LMML 180815Z 36007KT 310V050 9999 FEW020 29/18 Q1017
                        NOSIG=
201207180800 METAR LMML NIL=
201207180745 METAR LMML 180745Z 33007KT 290V360 9999 FEW020 28/16 Q1017
                        NOSIG=
201207180730 METAR LMML NIL=
201207180715 METAR LMML 180715Z 32007KT 290V350 CAVOK 27/17 Q1017 NOSIG=
201207180700 METAR LMML NIL=
201207180645 METAR LMML 180645Z 34006KT 9999 FEW016 27/19 Q1017 NOSIG=
201207180630 METAR LMML NIL=
201207180615 METAR LMML 180615Z 32006KT 290V010 9999 FEW016 26/20 Q1017
                        NOSIG=
201207180600 METAR LMML NIL=
201207180545 METAR LMML 180545Z 33006KT 280V010 9999 FEW016 25/21 Q1016
                        NOSIG=
201207180530 METAR LMML NIL=
201207180515 METAR LMML 180515Z 31004KT 9000 FEW011 24/23 Q1016 NOSIG=
201207180500 METAR LMML NIL=
201207180445 METAR LMML 180445Z 31004KT 9000 FEW008 23/22 Q1016 NOSIG=
201207180430 METAR LMML NIL=
201207180415 METAR LMML 180415Z 31004KT 7000 FEW008 23/22 Q1016 BECMG
                        9999=
201207180400 METAR LMML NIL=
201207180345 METAR LMML 180345Z 31004KT 7000 FEW008 23/21 Q1016 BECMG
                        9999=
201207180330 METAR LMML NIL=
201207180315 METAR LMML 180315Z VRB02KT CAVOK 23/21 Q1016 NOSIG=
201207180300 METAR LMML NIL=
201207180245 METAR LMML 180245Z VRB02KT CAVOK 24/21 Q1015 NOSIG=
201207180230 METAR LMML NIL=
201207180215 METAR LMML 180215Z 02003KT CAVOK 23/21 Q1015 NOSIG=
201207180200 METAR LMML NIL=
201207180145 METAR LMML 180145Z 07003KT CAVOK 23/21 Q1015 NOSIG=
201207180130 METAR LMML NIL=
201207180115 METAR LMML 180115Z VRB02KT CAVOK 23/21 Q1015 NOSIG=
201207180100 METAR LMML NIL=
201207180045 METAR LMML 180045Z VRB02KT CAVOK 24/21 Q1015 NOSIG=
201207180030 METAR LMML NIL=
201207180015 METAR LMML 180015Z 10003KT CAVOK 24/21 Q1016 NOSIG=
201207180000 METAR LMML NIL=
201207172345 METAR LMML 172345Z 11003KT CAVOK 23/20 Q1016 NOSIG=
201207172330 METAR LMML NIL=
201207172315 METAR LMML 172315Z 12003KT CAVOK 23/20 Q1016 NOSIG=
201207172300 METAR LMML NIL=
201207172245 METAR LMML 172245Z VRB01KT CAVOK 24/20 Q1016 NOSIG=
201207172230 METAR LMML NIL=
201207172215 METAR LMML 172215Z VRB01KT CAVOK 24/20 Q1016 NOSIG=
201207172200 METAR LMML NIL=
201207172145 METAR LMML 172145Z VRB02KT CAVOK 24/20 Q1016 NOSIG=
201207172130 METAR LMML NIL=
201207172115 METAR LMML 172115Z VRB01KT CAVOK 24/20 Q1016 NOSIG=
201207172100 METAR LMML NIL=
201207172045 METAR LMML 172045Z VRB02KT CAVOK 24/21 Q1016 NOSIG=
201207172030 METAR LMML NIL=
201207172015 METAR LMML 172015Z 29003KT CAVOK 24/20 Q1016 NOSIG=
201207172000 METAR LMML NIL=
201207171945 METAR LMML 171945Z 30006KT CAVOK 25/20 Q1016 NOSIG=
201207171930 METAR LMML NIL=
201207171915 METAR LMML 171915Z 30005KT CAVOK 25/20 Q1016 NOSIG=
201207171900 METAR LMML NIL=
201207171845 METAR LMML 171845Z 29007KT 260V320 CAVOK 25/20 Q1016 NOSIG=
201207171830 METAR LMML NIL=
201207171815 METAR LMML 171815Z 31009KT CAVOK 26/20 Q1016 NOSIG=
201207171800 METAR LMML NIL=
201207171745 METAR LMML 171745Z 30009KT CAVOK 27/20 Q1016 NOSIG=
201207171730 METAR LMML NIL=
201207171715 METAR LMML 171715Z 29009KT CAVOK 28/18 Q1016 NOSIG=
201207171700 METAR LMML NIL=
201207171645 METAR LMML 171645Z 29007KT 9999 FEW030 28/18 Q1016 NOSIG=
201207171630 METAR LMML NIL=
201207171615 METAR LMML 171615Z 29007KT 230V330 9999 FEW030 29/17 Q1016
                        NOSIG=
201207171600 METAR LMML NIL=
201207171545 METAR LMML 171545Z 29008KT 250V330 9999 FEW030 30/18 Q1016
                        NOSIG=
201207171530 METAR LMML NIL=
201207171515 METAR LMML 171515Z 29005KT 240V330 9999 FEW045 30/17 Q1016
                        NOSIG=
201207171500 METAR LMML NIL=
201207171445 METAR LMML 171445Z 28003KT 9999 FEW047 29/16 Q1016 NOSIG=
201207171430 METAR LMML NIL=
201207171415 METAR LMML 171415Z 26005KT 200V320 9999 FEW047 30/16 Q1017
                        NOSIG=
201207171400 METAR LMML NIL=
201207171345 METAR LMML 171345Z 21005KT 9999 SCT044 28/16 Q1017 NOSIG=
201207171330 METAR LMML NIL=
201207171315 METAR LMML 171315Z 36006KT 310V060 9999 SCT044 29/18 Q1017
                        NOSIG=
201207171300 METAR LMML NIL=
201207171245 METAR LMML 171245Z 16006KT 9999 FEW040 30/19 Q1017 NOSIG=
201207171230 METAR LMML NIL=
201207171215 METAR LMML 171215Z 07005KT 300V130 9999 FEW040 29/18 Q1017
                        NOSIG=
201207171200 METAR LMML NIL=
201207171145 METAR LMML 171145Z 03006KT 350V090 9999 FEW039 29/18 Q1018
                        NOSIG=
201207171130 METAR LMML NIL=
201207171115 METAR LMML 171115Z 01004KT 290V110 9999 SCT038 29/19 Q1018
                        NOSIG=
201207171100 METAR LMML NIL=
201207171045 METAR LMML 171045Z 01005KT 230V100 9999 SCT037 29/18 Q1018
                        NOSIG=
201207171030 METAR LMML NIL=
201207171015 METAR LMML 171015Z 02005KT 220V140 9999 FEW040 29/19 Q1018
                        NOSIG RMK SMOKE TO NNW=
201207171000 METAR LMML NIL=
201207170945 METAR LMML 170945Z 25005KT 9999 FEW040 31/19 Q1018 NOSIG=
201207170930 METAR LMML NIL=
201207170915 METAR LMML 170915Z 03004KT 310V180 9999 FEW025 31/18 Q1018
                        NOSIG=
201207170900 METAR LMML NIL=
201207170845 METAR LMML 170845Z 33005KT 290V030 9999 FEW020 29/19 Q1018
                        NOSIG=
201207170815 METAR LMML 170815Z 32005KT 270V350 9999 FEW020 28/19 Q1018
                        NOSIG=
201207170800 METAR LMML NIL=
201207170745 METAR LMML 170745Z 34006KT 300V020 CAVOK 28/19 Q1018 NOSIG=
201207170730 METAR LMML NIL=
201207170715 METAR LMML 170715Z 34007KT 300V010 CAVOK 27/19 Q1018 NOSIG=
201207170700 METAR LMML NIL=
201207170645 METAR LMML 170645Z 34007KT 300V010 CAVOK 27/19 Q1018 NOSIG=
201207170630 METAR LMML NIL=
201207170615 METAR LMML 170615Z 33007KT CAVOK 26/19 Q1018 NOSIG=
201207170600 METAR LMML NIL=
201207170545 METAR LMML 170545Z 31007KT CAVOK 25/19 Q1017 NOSIG=
201207170530 METAR LMML NIL=
201207170515 METAR LMML 170515Z 32004KT CAVOK 24/19 Q1017 NOSIG=
201207170500 METAR LMML NIL=
201207170445 METAR LMML 170445Z 30004KT 9999 FEW018 23/19 Q1017 NOSIG=
201207170430 METAR LMML NIL=
201207170415 METAR LMML 170415Z 30005KT 9999 FEW018 23/19 Q1017 NOSIG=
201207170400 METAR LMML NIL=
201207170345 METAR LMML 170345Z 30005KT 9999 FEW018 23/19 Q1017 NOSIG=
201207170330 METAR LMML NIL=
201207170315 METAR LMML 170315Z 30005KT 9999 SCT017 23/19 Q1017 NOSIG=
201207170300 METAR LMML NIL=
201207170245 METAR LMML 170245Z 30004KT 9999 FEW014 23/19 Q1017 NOSIG=
201207170230 METAR LMML NIL=
201207170215 METAR LMML 170215Z 30004KT 9999 SCT015 23/20 Q1017 NOSIG=
201207170200 METAR LMML NIL=
201207170145 METAR LMML 170145Z 32005KT 9999 SCT014 24/20 Q1017 NOSIG=
201207170130 METAR LMML NIL=
201207170115 METAR LMML 170115Z 33006KT 9999 FEW015 24/21 Q1017 NOSIG=
201207170100 METAR LMML NIL=
201207170045 METAR LMML 170045Z 33005KT CAVOK 24/22 Q1017 NOSIG=
201207170030 METAR LMML NIL=
201207170015 METAR LMML 170015Z 33006KT CAVOK 24/21 Q1017 NOSIG=
201207170000 METAR LMML NIL=
201207162345 METAR LMML 162345Z 33007KT CAVOK 25/21 Q1017 NOSIG=
201207162330 METAR LMML NIL=
201207162315 METAR LMML 162315Z 33009KT CAVOK 25/20 Q1018 NOSIG=
201207162300 METAR LMML NIL=
201207162245 METAR LMML 162245Z 32010KT CAVOK 25/20 Q1018 NOSIG=
201207162230 METAR LMML NIL=
201207162215 METAR LMML 162215Z 32010KT CAVOK 25/19 Q1018 NOSIG=
201207162200 METAR LMML NIL=
201207162145 METAR LMML 162145Z 32010KT 290V350 CAVOK 25/19 Q1018 NOSIG=
201207162130 METAR LMML NIL=
201207162115 METAR LMML 162115Z 32010KT CAVOK 25/19 Q1018 NOSIG=
201207162100 METAR LMML NIL=
201207162045 METAR LMML 162045Z 31012KT CAVOK 25/19 Q1018 NOSIG=
201207162030 METAR LMML NIL=
201207162015 METAR LMML 162015Z 32012KT CAVOK 25/19 Q1018 NOSIG=
201207162000 METAR LMML NIL=
201207161945 METAR LMML 161945Z 32011KT 290V350 CAVOK 26/19 Q1017 NOSIG=
201207161930 METAR LMML NIL=
201207161915 METAR LMML 161915Z 32010KT CAVOK 26/19 Q1017 NOSIG=
201207161900 METAR LMML NIL=
201207161845 METAR LMML 161845Z 32012KT CAVOK 26/19 Q1017 NOSIG=
201207161830 METAR LMML NIL=
201207161815 METAR LMML 161815Z 32013KT CAVOK 27/19 Q1017 NOSIG=
201207161800 METAR LMML NIL=
201207161745 METAR LMML 161745Z 31015KT 280V340 CAVOK 27/19 Q1016 NOSIG=
201207161730 METAR LMML NIL=
201207161715 METAR LMML 161715Z 30016KT CAVOK 28/20 Q1016 NOSIG=
201207161700 METAR LMML NIL=
201207161645 METAR LMML 161645Z 30016KT CAVOK 30/21 Q1016 NOSIG=
201207161630 METAR LMML NIL=
201207161615 METAR LMML 161615Z 30015KT CAVOK 31/23 Q1016 NOSIG=
201207161600 METAR LMML NIL=
201207161545 METAR LMML 161545Z 30017KT CAVOK 31/21 Q1016 NOSIG=
201207161530 METAR LMML NIL=
201207161515 METAR LMML 161515Z 30015KT CAVOK 33/20 Q1016 NOSIG=
201207161500 METAR LMML NIL=
201207161445 METAR LMML 161445Z 31016KT CAVOK 33/18 Q1016 NOSIG=
201207161430 METAR LMML NIL=
201207161415 METAR LMML 161415Z 30015KT CAVOK 33/18 Q1016 NOSIG=
201207161400 METAR LMML NIL=
201207161345 METAR LMML 161345Z 30014KT CAVOK 33/19 Q1016 NOSIG=
201207161330 METAR LMML NIL=
201207161315 METAR LMML 161315Z 30014KT 270V330 CAVOK 33/18 Q1017 NOSIG=
201207161300 METAR LMML NIL=
201207161245 METAR LMML 161245Z 30013KT CAVOK 33/19 Q1017 NOSIG=
201207161215 METAR LMML 161215Z 30013KT CAVOK 33/18 Q1017 NOSIG=
201207161200 METAR LMML NIL=
201207161145 METAR LMML 161145Z 30012KT 250V340 CAVOK 34/17 Q1017 NOSIG=
201207161130 METAR LMML NIL=
201207161115 METAR LMML 161115Z 33009KT 300V010 CAVOK 34/15 Q1017 NOSIG=
201207161100 METAR LMML NIL=
201207161045 METAR LMML 161045Z 33012KT CAVOK 34/11 Q1017 NOSIG=
201207161015 METAR LMML 161015Z 33009KT 310V010 CAVOK 34/14 Q1017 NOSIG=
201207161000 METAR LMML NIL=
201207160945 METAR LMML 160945Z 32010KT 290V010 CAVOK 34/14 Q1017 NOSIG=
201207160930 METAR LMML NIL=
201207160915 METAR LMML 160915Z 35009KT 320V020 CAVOK 34/12 Q1017 NOSIG=
201207160845 METAR LMML 160845Z 33005KT 260V020 CAVOK 33/17 Q1017 NOSIG=
201207160830 METAR LMML NIL=
201207160815 METAR LMML 160815Z 32005KT 260V020 CAVOK 32/17 Q1016 NOSIG=
201207160800 METAR LMML NIL=
201207160745 METAR LMML 160745Z 31006KT 270V360 CAVOK 32/14 Q1016 NOSIG=
201207160730 METAR LMML NIL=
201207160715 METAR LMML 160715Z 31005KT 270V340 CAVOK 31/14 Q1016 NOSIG=
201207160700 METAR LMML NIL=
201207160645 METAR LMML 160645Z 31003KT CAVOK 29/14 Q1016 NOSIG=
201207160630 METAR LMML NIL=
201207160615 METAR LMML 160615Z 32005KT CAVOK 29/16 Q1016 NOSIG=
201207160545 METAR LMML 160545Z 30004KT CAVOK 27/19 Q1015 NOSIG=
201207160530 METAR LMML NIL=
201207160515 METAR LMML 160515Z 27003KT CAVOK 26/22 Q1015 NOSIG=
201207160500 METAR LMML NIL=
201207160445 METAR LMML 160445Z 27003KT CAVOK 25/24 Q1015 NOSIG=
201207160430 METAR LMML NIL=
201207160415 METAR LMML 160415Z 31003KT 8000 NSC 25/24 Q1015 NOSIG=
201207160400 METAR LMML NIL=
201207160345 METAR LMML 160345Z 32004KT CAVOK 25/23 Q1015 TEMPO 8000 FEW004=
201207160330 METAR LMML NIL=
201207160315 METAR LMML 160315Z VRB02KT CAVOK 25/22 Q1014 TEMPO 8000 FEW004=
201207160300 METAR LMML NIL=
201207160245 METAR LMML 160245Z VRB01KT CAVOK 26/22 Q1014 TEMPO 8000 FEW004=
201207160230 METAR LMML NIL=
201207160215 METAR LMML 160215Z VRB01KT CAVOK 26/23 Q1014 TEMPO 8000 FEW004=
201207160200 METAR LMML NIL=
201207160145 METAR LMML 160145Z VRB02KT CAVOK 26/23 Q1014 TEMPO 8000 FEW004=
201207160130 METAR LMML NIL=
201207160115 METAR LMML 160115Z VRB01KT CAVOK 25/24 Q1014 TEMPO 8000 FEW004=
201207160100 METAR LMML NIL=
201207160045 METAR LMML 160045Z VRB02KT CAVOK 25/25 Q1014 TEMPO 8000 FEW004=
201207160030 METAR LMML NIL=
201207160015 METAR LMML 160015Z 33003KT CAVOK 26/25 Q1014 TEMPO 8000 FEW004=
201207160000 METAR LMML NIL=
201207152345 METAR LMML 152345Z 31004KT CAVOK 26/25 Q1014 TEMPO 8000 NSC=
201207152330 METAR LMML NIL=
201207152315 METAR LMML 152315Z 30003KT CAVOK 26/25 Q1014 TEMPO 8000 NSC=
201207152300 METAR LMML NIL=
201207152245 METAR LMML 152245Z 33003KT CAVOK 26/25 Q1014 NOSIG=
201207152230 METAR LMML NIL=
201207152215 METAR LMML 152215Z VRB01KT CAVOK 26/24 Q1014 NOSIG=
201207152200 METAR LMML NIL=
201207152145 METAR LMML 152145Z 30003KT CAVOK 26/24 Q1014 NOSIG=
201207152130 METAR LMML NIL=
201207152115 METAR LMML 152115Z 32004KT 260V010 CAVOK 26/24 Q1014 NOSIG=
201207152100 METAR LMML NIL=
201207152045 METAR LMML 152045Z VRB02KT CAVOK 26/23 Q1014 NOSIG=
201207152030 METAR LMML NIL=
201207152015 METAR LMML 152015Z VRB02KT CAVOK 26/24 Q1014 NOSIG=
201207152000 METAR LMML NIL=
201207151945 METAR LMML 151945Z 31006KT CAVOK 27/24 Q1014 NOSIG=
201207151930 METAR LMML NIL=
201207151915 METAR LMML 151915Z 29005KT 260V320 9999 FEW012 27/24 Q1014
                        NOSIG=
201207151900 METAR LMML NIL=
201207151845 METAR LMML 151845Z 27007KT 9999 FEW012 27/23 Q1013 NOSIG=
201207151830 METAR LMML NIL=
201207151815 METAR LMML 151815Z 27006KT CAVOK 28/23 Q1013 NOSIG=
201207151800 METAR LMML NIL=
201207151745 METAR LMML 151745Z 28006KT 250V310 CAVOK 29/22 Q1013 NOSIG=
201207151730 METAR LMML NIL=
201207151715 METAR LMML 151715Z 28008KT CAVOK 29/22 Q1013 NOSIG=
201207151700 METAR LMML NIL=
201207151645 METAR LMML 151645Z 28008KT 240V310 CAVOK 31/21 Q1013 NOSIG=
201207151630 METAR LMML NIL=
201207151615 METAR LMML 151615Z 28009KT CAVOK 31/18 Q1013 NOSIG=
201207151600 METAR LMML NIL=
201207151545 METAR LMML 151545Z 27009KT CAVOK 32/16 Q1013 NOSIG=
201207151530 METAR LMML NIL=
201207151515 METAR LMML 151515Z 28011KT 250V320 CAVOK 33/21 Q1014 NOSIG=
201207151500 METAR LMML NIL=
201207151445 METAR LMML 151445Z 28011KT 240V310 CAVOK 33/18 Q1014 NOSIG=
201207151430 METAR LMML NIL=
201207151415 METAR LMML 151415Z 26008KT CAVOK 33/17 Q1014 NOSIG=
201207151400 METAR LMML NIL=
201207151345 METAR LMML 151345Z 24008KT 190V320 CAVOK 33/18 Q1014 NOSIG=
201207151330 METAR LMML NIL=
201207151315 METAR LMML 151315Z 24008KT 210V280 CAVOK 33/17 Q1014 NOSIG=
201207151300 METAR LMML NIL=
201207151245 METAR LMML 151245Z 22008KT 110V280 CAVOK 33/17 Q1014 NOSIG=
201207151230 METAR LMML NIL=
201207151215 METAR LMML 151215Z 22008KT 170V250 CAVOK 33/17 Q1014 NOSIG=
201207151200 METAR LMML NIL=
201207151145 METAR LMML 151145Z 24009KT 190V280 CAVOK 33/18 Q1014 NOSIG=
201207151130 METAR LMML NIL=
201207151115 METAR LMML 151115Z 25007KT 210V280 CAVOK 33/20 Q1014 NOSIG=
201207151100 METAR LMML NIL=
201207151045 METAR LMML 151045Z 22008KT 140V260 CAVOK 32/20 Q1014 NOSIG=
201207151030 METAR LMML NIL=
201207151015 METAR LMML 151015Z 21007KT 130V260 CAVOK 33/16 Q1014 NOSIG=
201207151000 METAR LMML NIL=
201207150945 METAR LMML 150945Z 17004KT 100V240 CAVOK 33/16 Q1014 NOSIG=
201207150930 METAR LMML NIL=
201207150915 METAR LMML 150915Z 15006KT 110V190 CAVOK 33/15 Q1014 NOSIG=
201207150900 METAR LMML NIL=
201207150845 METAR LMML 150845Z 12006KT 080V180 CAVOK 33/15 Q1014 NOSIG=
201207150830 METAR LMML NIL=
201207150815 METAR LMML 150815Z 10004KT 030V160 CAVOK 33/18 Q1014 NOSIG=
201207150800 METAR LMML NIL=
201207150745 METAR LMML 150745Z 07003KT CAVOK 33/15 Q1014 NOSIG=
201207150730 METAR LMML NIL=
201207150715 METAR LMML 150715Z VRB02KT CAVOK 33/15 Q1014 NOSIG=
201207150700 METAR LMML NIL=
201207150645 METAR LMML 150645Z VRB01KT CAVOK 31/15 Q1013 NOSIG=
201207150630 METAR LMML NIL=
201207150615 METAR LMML 150615Z VRB02KT CAVOK 29/18 Q1013 NOSIG=
201207150600 METAR LMML NIL=
201207150545 METAR LMML 150545Z VRB01KT CAVOK 27/19 Q1013 NOSIG=
201207150530 METAR LMML NIL=
201207150515 METAR LMML 150515Z VRB01KT CAVOK 25/20 Q1013 NOSIG=
201207150500 METAR LMML NIL=
201207150445 METAR LMML 150445Z VRB01KT CAVOK 24/21 Q1013 NOSIG=
201207150430 METAR LMML NIL=
201207150415 METAR LMML 150415Z VRB02KT CAVOK 23/21 Q1013 NOSIG=
201207150400 METAR LMML NIL=
201207150345 METAR LMML 150345Z 32003KT CAVOK 23/22 Q1013 NOSIG=
201207150330 METAR LMML NIL=
201207150315 METAR LMML 150315Z 31003KT CAVOK 24/22 Q1013 NOSIG=
201207150300 METAR LMML NIL=
201207150245 METAR LMML 150245Z 32003KT CAVOK 24/23 Q1012 NOSIG=
201207150230 METAR LMML NIL=
201207150215 METAR LMML 150215Z 31004KT CAVOK 24/23 Q1012 NOSIG=
201207150200 METAR LMML NIL=
201207150145 METAR LMML 150145Z 32004KT CAVOK 24/21 Q1013 NOSIG=
201207150130 METAR LMML NIL=
201207150115 METAR LMML 150115Z 32004KT CAVOK 24/20 Q1013 NOSIG=
201207150100 METAR LMML NIL=
201207150045 METAR LMML 150045Z 31003KT CAVOK 24/20 Q1013 NOSIG=
201207150030 METAR LMML NIL=
201207150015 METAR LMML 150015Z 26004KT CAVOK 25/21 Q1013 NOSIG RMK SMOKE
                        LAYER TO SE=
201207150000 METAR LMML NIL=
201207142345 METAR LMML 142345Z 25004KT 220V280 CAVOK 24/21 Q1013 NOSIG
                        RMK SMOKE LAYER TO SE=
201207142330 METAR LMML NIL=
201207142315 METAR LMML 142315Z VRB01KT CAVOK 25/21 Q1013 NOSIG RMK SMOKE
                        LAYER TO SE=
201207142300 METAR LMML NIL=
201207142245 METAR LMML 142245Z VRB02KT CAVOK 25/21 Q1013 NOSIG=
201207142230 METAR LMML NIL=
201207142215 METAR LMML 142215Z VRB02KT CAVOK 25/21 Q1014 NOSIG=
201207142200 METAR LMML NIL=
201207142145 METAR LMML 142145Z VRB01KT CAVOK 25/22 Q1014 NOSIG RMK FIREWORKS
                        SMOKE LAYER TO NNW=
201207142130 METAR LMML NIL=
201207142115 METAR LMML 142115Z VRB01KT CAVOK 25/22 Q1014 NOSIG=
201207142100 METAR LMML NIL=
201207142045 METAR LMML 142045Z VRB02KT CAVOK 26/22 Q1014 NOSIG=
201207142030 METAR LMML NIL=
201207142015 METAR LMML 142015Z VRB02KT CAVOK 26/21 Q1014 NOSIG=
201207142000 METAR LMML NIL=
201207141945 METAR LMML 141945Z 33003KT CAVOK 26/21 Q1014 NOSIG=
201207141930 METAR LMML NIL=
201207141915 METAR LMML 141915Z 34004KT CAVOK 27/21 Q1013 NOSIG=
201207141900 METAR LMML NIL=
201207141845 METAR LMML 141845Z 35005KT 330V030 CAVOK 27/21 Q1013 NOSIG=
201207141830 METAR LMML NIL=
201207141815 METAR LMML 141815Z 34005KT 310V010 CAVOK 28/21 Q1013 NOSIG=
201207141800 METAR LMML NIL=
201207141745 METAR LMML 141745Z 34005KT 310V010 CAVOK 29/20 Q1013 NOSIG=
201207141730 METAR LMML NIL=
201207141715 METAR LMML 141715Z 01004KT 340V040 CAVOK 31/21 Q1013 NOSIG=
201207141700 METAR LMML NIL=
201207141645 METAR LMML 141645Z 02003KT CAVOK 32/21 Q1013 NOSIG=
201207141630 METAR LMML NIL=
201207141615 METAR LMML 141615Z 03005KT 330V080 CAVOK 32/21 Q1013 NOSIG=
201207141600 METAR LMML NIL=
201207141545 METAR LMML 141545Z 02006KT 330V070 CAVOK 32/22 Q1013 NOSIG=
201207141515 METAR LMML 141515Z 33004KT 260V070 CAVOK 32/22 Q1013 NOSIG=
201207141500 METAR LMML NIL=
201207141445 METAR LMML 141445Z 21004KT CAVOK 32/19 Q1013 NOSIG=
201207141430 METAR LMML NIL=
201207141415 METAR LMML 141415Z 22007KT 180V250 CAVOK 32/17 Q1013 NOSIG=
201207141400 METAR LMML NIL=
201207141345 METAR LMML 141345Z 21007KT 150V260 CAVOK 33/18 Q1013 NOSIG=
201207141330 METAR LMML NIL=
201207141315 METAR LMML 141315Z 19003KT CAVOK 33/18 Q1013 NOSIG=
201207141300 METAR LMML NIL=
201207141245 METAR COR LMML 141245Z 03006KT 350V080 9999 FEW025 33/22
                        Q1013 WS RWY23 NOSIG=
201207141230 METAR LMML NIL=
201207141215 METAR LMML 141215Z 22006KT 100V260 9999 FEW025 32/19 Q1013
                        NOSIG=
201207141200 METAR LMML NIL=
201207141145 METAR LMML 141145Z 23008KT 190V260 9999 FEW025 31/18 Q1013
                        NOSIG=
201207141130 METAR LMML NIL=
201207141115 METAR LMML 141115Z 22008KT 180V260 9999 FEW025 31/20 Q1014
                        NOSIG=
201207141100 METAR LMML NIL=
201207141045 METAR LMML 141045Z 22008KT 180V260 9999 FEW025 31/22 Q1014
                        NOSIG=
201207141030 METAR LMML NIL=
201207141015 METAR LMML 141015Z 23006KT 170V290 9999 FEW025 31/23 Q1014
                        NOSIG=
201207141000 METAR LMML NIL=
201207140945 METAR LMML 140945Z 20006KT 130V270 9999 FEW020 31/23 Q1014
                        NOSIG=
201207140930 METAR LMML NIL=
201207140915 METAR LMML 140915Z 22006KT 200V280 CAVOK 29/22 Q1014 NOSIG=
201207140900 METAR LMML NIL=
201207140845 METAR LMML 140845Z 20005KT 080V320 CAVOK 31/23 Q1014 NOSIG=
201207140830 METAR LMML NIL=
201207140815 METAR LMML 140815Z 07004KT 310V140 CAVOK 31/20 Q1014 NOSIG=
201207140800 METAR LMML NIL=
201207140745 METAR LMML 140745Z 09003KT CAVOK 31/21 Q1013 NOSIG=
201207140730 METAR LMML NIL=
201207140715 METAR LMML 140715Z 05003KT CAVOK 31/22 Q1014 NOSIG=
201207140700 METAR LMML NIL=
201207140645 METAR LMML 140645Z VRB02KT CAVOK 29/22 Q1014 NOSIG=
201207140630 METAR LMML NIL=
201207140615 METAR LMML 140615Z 35003KT 9999 FEW014 28/22 Q1013 NOSIG=
201207140600 METAR LMML NIL=
201207140545 METAR LMML 140545Z 01005KT 340V040 9999 FEW014 27/23 Q1013
                        NOSIG=
201207140530 METAR LMML NIL=
201207140515 METAR LMML 140515Z 01004KT 350V050 9999 FEW014 27/23 Q1013
                        NOSIG=
201207140500 METAR LMML NIL=
201207140445 METAR LMML 140445Z 36004KT 9999 FEW014 25/23 Q1013 NOSIG=
201207140430 METAR LMML NIL=
201207140415 METAR LMML 140415Z 01005KT 9999 FEW014 25/23 Q1013 NOSIG=
201207140400 METAR LMML NIL=
201207140345 METAR LMML 140345Z 01005KT 9999 FEW014 25/22 Q1013 NOSIG=
201207140330 METAR LMML NIL=
201207140315 METAR LMML 140315Z 02006KT CAVOK 25/22 Q1012 NOSIG=
201207140245 METAR LMML 140245Z 01007KT CAVOK 25/22 Q1012 NOSIG=
201207140215 METAR LMML 140215Z 36009KT CAVOK 26/21 Q1012 NOSIG=
201207140145 METAR LMML 140145Z 35009KT CAVOK 26/22 Q1012 NOSIG=
201207140130 METAR LMML NIL=
201207140115 METAR LMML 140115Z 34007KT CAVOK 25/22 Q1012 NOSIG=
201207140100 METAR LMML NIL=
201207140045 METAR LMML 140045Z 35007KT CAVOK 26/21 Q1012 NOSIG=
201207140030 METAR LMML NIL=
201207140015 METAR LMML 140015Z 33008KT CAVOK 25/22 Q1012 NOSIG=
201207140000 METAR LMML NIL=
201207132345 METAR LMML 132345Z 32011KT CAVOK 26/22 Q1012 NOSIG=
201207132330 METAR LMML NIL=
201207132315 METAR LMML 132315Z 32009KT CAVOK 26/21 Q1012 NOSIG=
201207132245 METAR LMML 132245Z 31010KT 280V340 CAVOK 26/22 Q1013 NOSIG=
201207132230 METAR LMML NIL=
201207132215 METAR LMML 132215Z 28013KT 250V310 CAVOK 26/21 Q1013 NOSIG=
201207132200 METAR LMML NIL=
201207132145 METAR LMML 132145Z 28010KT CAVOK 26/21 Q1013 NOSIG=
201207132130 METAR LMML NIL=
201207132115 METAR LMML 132115Z 28008KT 240V310 CAVOK 26/20 Q1013 NOSIG=
201207132100 METAR LMML NIL=
201207132045 METAR LMML 132045Z 28008KT CAVOK 25/20 Q1013 NOSIG=
201207132030 METAR LMML NIL=
201207132015 METAR LMML 132015Z 27007KT 250V310 CAVOK 25/20 Q1013 NOSIG=
201207131945 METAR LMML 131945Z 28006KT 250V310 CAVOK 25/20 Q1013 NOSIG=
201207131915 METAR LMML 131915Z 30007KT CAVOK 26/21 Q1013 NOSIG=
201207131900 METAR LMML NIL=
201207131845 METAR LMML 131845Z 30010KT CAVOK 26/21 Q1013 NOSIG=
201207131830 METAR LMML NIL=
201207131815 METAR LMML 131815Z 30010KT 280V340 CAVOK 27/21 Q1013 NOSIG=
201207131800 METAR LMML NIL=
201207131745 METAR LMML 131745Z 30011KT CAVOK 28/20 Q1013 NOSIG=
201207131730 METAR LMML NIL=
201207131715 METAR LMML 131715Z 30011KT CAVOK 28/20 Q1013 NOSIG=
201207131700 METAR LMML NIL=
201207131645 METAR LMML 131645Z 30010KT 280V340 CAVOK 31/21 Q1012 NOSIG=
201207131630 METAR LMML NIL=
201207131615 METAR LMML 131615Z 31010KT CAVOK 31/20 Q1012 NOSIG=
201207131545 METAR LMML 131545Z 31010KT 280V340 CAVOK 32/20 Q1012 NOSIG=
201207131515 METAR LMML 131515Z 33007KT 300V010 CAVOK 33/20 Q1012 NOSIG=
201207131500 METAR LMML NIL=
201207131445 METAR LMML 131445Z 34008KT 300V020 CAVOK 32/19 Q1013 NOSIG=
201207131430 METAR LMML NIL=
201207131415 METAR LMML 131415Z 35010KT 320V020 CAVOK 33/19 Q1013 NOSIG=
201207131400 METAR LMML NIL=
201207131345 METAR LMML 131345Z 34008KT 280V020 CAVOK 34/20 Q1013 NOSIG=
201207131330 METAR LMML NIL=
201207131315 METAR LMML 131315Z 34007KT 280V040 CAVOK 34/21 Q1013 NOSIG=
201207131300 METAR LMML NIL=
201207131245 METAR LMML 131245Z 31007KT 280V010 CAVOK 35/16 Q1013 NOSIG=
201207131230 METAR LMML NIL=
201207131215 METAR LMML 131215Z 30006KT 230V360 CAVOK 35/20 Q1013 NOSIG=
201207131145 METAR LMML 131145Z 34003KT CAVOK 33/21 Q1013 NOSIG=
201207131115 METAR LMML 131115Z 02007KT 330V070 CAVOK 33/22 Q1014 NOSIG=
201207131045 METAR LMML 131045Z 05005KT 330V120 CAVOK 33/22 Q1014 NOSIG=
201207131015 METAR LMML 131015Z 04006KT 310V100 CAVOK 34/22 Q1014 NOSIG=
201207130945 METAR LMML 130945Z 35005KT 320V050 CAVOK 34/20 Q1014 NOSIG=
201207130930 METAR LMML NIL=
201207130915 METAR LMML 130915Z 03006KT 330V080 CAVOK 34/21 Q1014 NOSIG=
201207130900 METAR LMML NIL=
201207130845 METAR LMML 130845Z 32006KT 290V360 CAVOK 33/16 Q1014 NOSIG=
201207130830 METAR LMML NIL=
201207130815 METAR LMML 130815Z 33005KT 290V010 CAVOK 32/18 Q1014 NOSIG=
201207130800 METAR LMML NIL=
201207130745 METAR LMML 130745Z 34004KT 290V040 CAVOK 32/19 Q1014 NOSIG=
201207130730 METAR LMML NIL=
201207130715 METAR LMML 130715Z 33006KT CAVOK 31/19 Q1014 NOSIG=
201207130700 METAR LMML NIL=
201207130645 METAR LMML 130645Z 33006KT 300V360 CAVOK 31/20 Q1014 NOSIG=
201207130630 METAR LMML NIL=
201207130615 METAR LMML 130615Z 33006KT 300V010 CAVOK 29/20 Q1014 NOSIG=
201207130600 METAR LMML NIL=
201207130545 METAR LMML 130545Z 34006KT CAVOK 28/21 Q1013 NOSIG=
201207130530 METAR LMML NIL=
201207130515 METAR LMML 130515Z 33006KT 310V010 CAVOK 27/22 Q1013 NOSIG=
201207130500 METAR LMML NIL=
201207130445 METAR LMML 130445Z 32004KT CAVOK 25/23 Q1013 NOSIG=
201207130430 METAR LMML NIL=
201207130415 METAR LMML 130415Z 32005KT CAVOK 25/23 Q1013 NOSIG=
201207130400 METAR LMML NIL=
201207130345 METAR LMML 130345Z 33006KT CAVOK 25/23 Q1013 NOSIG=
201207130330 METAR LMML NIL=
201207130315 METAR LMML 130315Z 31008KT CAVOK 26/23 Q1012 NOSIG=
201207130300 METAR LMML NIL=
201207130245 METAR LMML 130245Z 31008KT CAVOK 26/23 Q1012 NOSIG=
201207130230 METAR LMML NIL=
201207130215 METAR LMML 130215Z 31010KT CAVOK 26/23 Q1012 NOSIG=
201207130200 METAR LMML NIL=
201207130145 METAR LMML 130145Z 32009KT CAVOK 27/22 Q1012 NOSIG=
201207130130 METAR LMML NIL=
201207130115 METAR LMML 130115Z 32009KT CAVOK 27/22 Q1012 NOSIG=
201207130100 METAR LMML NIL=
201207130045 METAR LMML 130045Z 32010KT CAVOK 27/23 Q1012 NOSIG=
201207130030 METAR LMML NIL=
201207130015 METAR LMML 130015Z 31011KT CAVOK 27/22 Q1013 NOSIG=
201207130000 METAR LMML NIL=
201207122345 METAR LMML 122345Z 30012KT CAVOK 28/23 Q1013 NOSIG=
201207122330 METAR LMML NIL=
201207122315 METAR LMML 122315Z 31012KT CAVOK 28/23 Q1013 NOSIG=
201207122300 METAR LMML NIL=
201207122245 METAR LMML 122245Z 30010KT CAVOK 28/22 Q1013 NOSIG=
201207122230 METAR LMML NIL=
201207122215 METAR LMML 122215Z 31007KT 280V350 CAVOK 28/21 Q1014 NOSIG=
201207122200 METAR LMML NIL=
201207122145 METAR LMML 122145Z 30009KT CAVOK 29/21 Q1014 NOSIG=
201207122130 METAR LMML NIL=
201207122115 METAR LMML 122115Z 31008KT CAVOK 28/20 Q1014 NOSIG=
201207122100 METAR LMML NIL=
201207122045 METAR LMML 122045Z 31006KT CAVOK 28/21 Q1014 NOSIG=
201207122030 METAR LMML NIL=
201207122015 METAR LMML 122015Z 31005KT 280V340 CAVOK 29/21 Q1013 NOSIG=
201207122000 METAR LMML NIL=
201207121945 METAR LMML 121945Z 31006KT 280V340 CAVOK 30/21 Q1013 NOSIG=
201207121930 METAR LMML NIL=
201207121915 METAR LMML 121915Z 32007KT 280V340 CAVOK 29/19 Q1013 NOSIG=
201207121900 METAR LMML NIL=
201207121845 METAR LMML 121845Z 32007KT CAVOK 29/20 Q1013 NOSIG=
201207121830 METAR LMML NIL=
201207121815 METAR LMML 121815Z 31009KT CAVOK 29/20 Q1013 NOSIG=
201207121800 METAR LMML NIL=
201207121745 METAR LMML 121745Z 31008KT CAVOK 32/20 Q1013 NOSIG=
201207121730 METAR LMML NIL=
201207121715 METAR LMML 121715Z 32009KT CAVOK 32/20 Q1013 NOSIG=
201207121700 METAR LMML NIL=
201207121645 METAR LMML 121645Z 32010KT 290V350 CAVOK 32/23 Q1013 NOSIG=
201207121630 METAR LMML NIL=
201207121615 METAR LMML 121615Z 31014KT 280V340 9999 FEW014 31/23 Q1013
                        NOSIG=
201207121600 METAR LMML NIL=
201207121545 METAR LMML 121545Z 29013KT 260V320 9999 FEW014 33/24 Q1013
                        NOSIG=
201207121530 METAR LMML NIL=
201207121515 METAR LMML 121515Z 27013KT 240V300 CAVOK 34/22 Q1013 NOSIG=
201207121445 METAR LMML 121445Z 25010KT 210V320 CAVOK 36/15 Q1013 NOSIG=
201207121430 METAR LMML NIL=
201207121415 METAR LMML 121415Z 24010KT 190V280 CAVOK 36/17 Q1013 NOSIG=
201207121400 METAR LMML NIL=
201207121345 METAR LMML 121345Z 23009KT 150V270 CAVOK 35/20 Q1014 NOSIG=
201207121330 METAR LMML NIL=
201207121315 METAR LMML 121315Z 21010KT 170V250 CAVOK 35/20 Q1013 NOSIG=
201207121300 METAR LMML NIL=
201207121245 METAR LMML 121245Z 21009KT 150V260 CAVOK 35/22 Q1014 NOSIG=
201207121230 METAR LMML NIL=
201207121215 METAR LMML 121215Z 23010KT 170V260 CAVOK 34/21 Q1014 NOSIG=
201207121200 METAR LMML NIL=
201207121145 METAR LMML 121145Z 22010KT 160V250 CAVOK 35/22 Q1014 NOSIG=
201207121130 METAR LMML NIL=
201207121115 METAR LMML 121115Z 22009KT 180V250 CAVOK 36/23 Q1014 NOSIG=
201207121100 METAR LMML NIL=
201207121045 METAR LMML 121045Z 22005KT 170V260 CAVOK 37/22 Q1014 NOSIG=
201207121030 METAR LMML NIL=
201207121015 METAR LMML 121015Z 14003KT CAVOK 38/22 Q1014 NOSIG=
201207121000 METAR LMML NIL=
201207120945 METAR LMML 120945Z 32005KT 280V010 CAVOK 37/18 Q1015 NOSIG=
201207120930 METAR LMML NIL=
201207120915 METAR LMML 120915Z 33005KT 250V030 CAVOK 35/19 Q1015 NOSIG=
201207120900 METAR LMML NIL=
201207120845 METAR LMML 120845Z 30008KT 270V330 CAVOK 35/19 Q1015 NOSIG=
201207120830 METAR LMML NIL=
201207120815 METAR LMML 120815Z 30012KT CAVOK 35/17 Q1016 NOSIG=
201207120800 METAR LMML NIL=
201207120745 METAR LMML 120745Z 26009KT 230V290 CAVOK 37/10 Q1015 NOSIG=
201207120730 METAR LMML NIL=
201207120715 METAR LMML 120715Z 26010KT 230V290 CAVOK 36/07 Q1015 NOSIG=
201207120645 METAR LMML 120645Z 26009KT 230V300 CAVOK 35/07 Q1015 NOSIG=
201207120630 METAR LMML NIL=
201207120615 METAR LMML 120615Z 26008KT CAVOK 34/06 Q1015 NOSIG=
201207120600 METAR LMML NIL=
201207120545 METAR LMML 120545Z 24007KT 220V280 CAVOK 33/06 Q1015 NOSIG=
201207120515 METAR LMML 120515Z 25006KT CAVOK 31/06 Q1015 NOSIG=
201207120500 METAR LMML NIL=
201207120445 METAR LMML 120445Z 30004KT CAVOK 28/07 Q1015 NOSIG=
201207120430 METAR LMML NIL=
201207120415 METAR LMML 120415Z 29004KT CAVOK 28/06 Q1015 NOSIG=
201207120400 METAR LMML NIL=
201207120345 METAR LMML 120345Z 26003KT CAVOK 28/08 Q1014 NOSIG=
201207120330 METAR LMML NIL=
201207120315 METAR LMML 120315Z VRB02KT CAVOK 27/09 Q1014 NOSIG=
201207120300 METAR LMML NIL=
201207120245 METAR LMML 120245Z VRB01KT CAVOK 27/10 Q1014 NOSIG=
201207120230 METAR LMML NIL=
201207120215 METAR LMML 120215Z 27003KT CAVOK 29/08 Q1014 NOSIG=
201207120200 METAR LMML NIL=
201207120145 METAR LMML 120145Z 26005KT CAVOK 29/07 Q1014 NOSIG=
201207120130 METAR LMML NIL=
201207120115 METAR LMML 120115Z 26004KT CAVOK 27/09 Q1014 NOSIG=
201207120100 METAR LMML NIL=
201207120045 METAR LMML 120045Z VRB01KT CAVOK 27/13 Q1015 NOSIG=
201207120030 METAR LMML NIL=
201207120015 METAR LMML 120015Z VRB02KT CAVOK 27/13 Q1015 NOSIG=
201207120000 METAR LMML NIL=
201207112345 METAR LMML 112345Z VRB01KT CAVOK 28/13 Q1015 NOSIG=
201207112315 METAR LMML 112315Z VRB02KT CAVOK 28/11 Q1016 NOSIG=
201207112300 METAR LMML NIL=
201207112245 METAR LMML 112245Z 02003KT CAVOK 29/09 Q1016 NOSIG=
201207112230 METAR LMML NIL=
201207112215 METAR LMML 112215Z 28003KT CAVOK 28/11 Q1016 NOSIG=
201207112200 METAR LMML NIL=
201207112145 METAR LMML 112145Z 25007KT 220V280 CAVOK 31/11 Q1016 NOSIG=
201207112130 METAR LMML NIL=
201207112115 METAR LMML 112115Z 24006KT 210V270 CAVOK 31/10 Q1016 NOSIG=
201207112100 METAR LMML NIL=
201207112045 METAR LMML 112045Z 24007KT CAVOK 31/11 Q1016 NOSIG=
201207112015 METAR LMML 112015Z 23007KT 200V260 CAVOK 32/11 Q1016 NOSIG=
201207112000 METAR LMML NIL=
201207111945 METAR LMML 111945Z 24005KT 210V270 CAVOK 31/10 Q1015 NOSIG=
201207111930 METAR LMML NIL=
201207111915 METAR LMML 111915Z 24007KT CAVOK 30/09 Q1015 NOSIG=
201207111900 METAR LMML NIL=
201207111845 METAR LMML 111845Z 24008KT CAVOK 31/09 Q1015 NOSIG=
201207111830 METAR LMML NIL=
201207111815 METAR LMML 111815Z 24007KT CAVOK 32/09 Q1015 NOSIG=
201207111745 METAR LMML 111745Z 23006KT CAVOK 33/10 Q1015 NOSIG=
201207111715 METAR LMML 111715Z 23006KT 200V270 CAVOK 34/13 Q1015 NOSIG=
201207111700 METAR LMML NIL=
201207111645 METAR LMML 111645Z 22008KT 190V250 CAVOK 35/11 Q1015 NOSIG=
201207111630 METAR LMML NIL=
201207111615 METAR LMML 111615Z 27004KT 210V310 CAVOK 39/12 Q1015 NOSIG=
201207111600 METAR LMML NIL=
201207111545 METAR LMML 111545Z 29005KT 250V330 CAVOK 40/07 Q1015 NOSIG=
201207111530 METAR LMML NIL=
201207111515 METAR LMML 111515Z 35006KT 310V030 CAVOK 40/11 Q1015 NOSIG=
201207111500 METAR LMML NIL=
201207111445 METAR LMML 111445Z 21004KT 150V290 CAVOK 38/19 Q1015 NOSIG=
201207111430 METAR LMML NIL=
201207111415 METAR LMML 111415Z 19005KT 150V240 CAVOK 37/24 Q1015 NOSIG=
201207111400 METAR LMML NIL=
201207111345 METAR LMML 111345Z 22005KT 140V260 CAVOK 37/24 Q1016 NOSIG=
201207111330 METAR LMML NIL=
201207111315 METAR LMML 111315Z 22004KT 170V270 CAVOK 36/23 Q1016 NOSIG=
201207111300 METAR LMML NIL=
201207111245 METAR LMML 111245Z 23005KT 180V270 CAVOK 35/24 Q1016 NOSIG=
201207111230 METAR LMML NIL=
201207111215 METAR LMML 111215Z 19007KT 140V250 CAVOK 36/25 Q1016 NOSIG=
201207111200 METAR LMML NIL=
201207111145 METAR LMML 111145Z 19005KT 130V250 CAVOK 36/24 Q1016 NOSIG=
201207111130 METAR LMML NIL=
201207111115 METAR LMML 111115Z 22005KT 170V260 CAVOK 35/23 Q1016 NOSIG=
201207111100 METAR LMML NIL=
201207111045 METAR LMML 111045Z 20006KT 100V250 CAVOK 33/24 Q1016 NOSIG=
201207111030 METAR LMML NIL=
201207111015 METAR LMML 111015Z 20008KT 130V250 CAVOK 33/25 Q1016 NOSIG=
201207111000 METAR LMML NIL=
201207110945 METAR LMML 110945Z 20010KT 150V240 CAVOK 38/27 Q1016 NOSIG=
201207110930 METAR LMML NIL=
201207110915 METAR LMML 110915Z 32006KT 270V360 CAVOK 40/06 Q1016 NOSIG=
201207110900 METAR LMML NIL=
201207110845 METAR LMML 110845Z 34006KT 300V010 CAVOK 38/09 Q1016 NOSIG=
201207110830 METAR LMML NIL=
201207110815 METAR LMML 110815Z 32009KT CAVOK 37/10 Q1016 NOSIG=
201207110800 METAR LMML NIL=
201207110745 METAR LMML 110745Z 33008KT CAVOK 36/11 Q1016 NOSIG=
201207110730 METAR LMML NIL=
201207110715 METAR LMML 110715Z 33006KT CAVOK 34/15 Q1016 NOSIG=
201207110700 METAR LMML NIL=
201207110645 METAR LMML 110645Z 34004KT 300V020 9999 FEW012 33/18 Q1015
                        NOSIG=
201207110630 METAR LMML NIL=
201207110615 METAR LMML 110615Z 32004KT 300V360 9999 FEW012 31/21 Q1015
                        NOSIG=
201207110600 METAR LMML NIL=
201207110545 METAR LMML 110545Z 32003KT 9999 FEW012 28/21 Q1015 NOSIG=
201207110530 METAR LMML NIL=
201207110515 METAR LMML 110515Z 33003KT 9999 FEW012 27/21 Q1015 NOSIG=
201207110500 METAR LMML NIL=
201207110445 METAR LMML 110445Z 33005KT 9999 FEW012 26/21 Q1015 NOSIG=
201207110430 METAR LMML NIL=
201207110415 METAR LMML 110415Z 32007KT 9999 FEW012 26/20 Q1015 NOSIG=
201207110400 METAR LMML NIL=
201207110345 METAR LMML 110345Z 33007KT 9999 FEW012 26/17 Q1014 NOSIG=
201207110330 METAR LMML NIL=
201207110315 METAR LMML 110315Z 32007KT CAVOK 26/12 Q1014 NOSIG=
201207110300 METAR LMML NIL=
201207110245 METAR LMML 110245Z 31003KT CAVOK 27/11 Q1014 NOSIG=
201207110230 METAR LMML NIL=
201207110215 METAR LMML 110215Z VRB01KT CAVOK 26/12 Q1014 NOSIG=
201207110200 METAR LMML NIL=
201207110145 METAR LMML 110145Z VRB02KT CAVOK 27/12 Q1014 NOSIG=
201207110130 METAR LMML NIL=
201207110115 METAR LMML 110115Z VRB01KT CAVOK 27/15 Q1014 NOSIG=
201207110100 METAR LMML NIL=
201207110045 METAR LMML 110045Z 26003KT CAVOK 27/16 Q1014 NOSIG=
201207110030 METAR LMML NIL=
201207110015 METAR LMML 110015Z 25004KT CAVOK 27/18 Q1014 NOSIG=
201207110000 METAR LMML NIL=
201207102345 METAR LMML 102345Z 28003KT CAVOK 27/19 Q1014 NOSIG=
201207102330 METAR LMML NIL=
201207102315 METAR LMML 102315Z 28003KT CAVOK 26/20 Q1014 NOSIG=
201207102300 METAR LMML NIL=
201207102245 METAR LMML 102245Z VRB02KT CAVOK 26/22 Q1015 NOSIG=
201207102230 METAR LMML NIL=
201207102215 METAR LMML 102215Z 30004KT 270V330 CAVOK 26/24 Q1015 NOSIG=
201207102200 METAR LMML NIL=
201207102145 METAR LMML 102145Z 31006KT CAVOK 26/24 Q1015 NOSIG=
201207102130 METAR LMML NIL=
201207102115 METAR LMML 102115Z 31006KT CAVOK 26/24 Q1015 NOSIG=
201207102100 METAR LMML NIL=
201207102045 METAR LMML 102045Z 33005KT CAVOK 27/23 Q1015 NOSIG=
201207102030 METAR LMML NIL=
201207102015 METAR LMML 102015Z 33008KT CAVOK 28/22 Q1015 NOSIG=
201207102000 METAR LMML NIL=
201207101945 METAR LMML 101945Z 31004KT CAVOK 28/23 Q1014 NOSIG=
201207101930 METAR LMML NIL=
201207101915 METAR LMML 101915Z 31004KT CAVOK 28/24 Q1014 NOSIG=
201207101845 METAR LMML 101845Z 32004KT CAVOK 28/24 Q1014 NOSIG=
201207101830 METAR LMML NIL=
201207101815 METAR LMML 101815Z 32006KT 300V010 CAVOK 28/25 Q1014 NOSIG=
201207101800 METAR LMML NIL=
201207101745 METAR LMML 101745Z 32006KT 290V360 CAVOK 30/25 Q1014 NOSIG=
201207101730 METAR LMML NIL=
201207101715 METAR LMML 101715Z 33006KT 300V360 CAVOK 31/24 Q1014 NOSIG=
201207101700 METAR LMML NIL=
201207101645 METAR LMML 101645Z 34006KT 210V030 CAVOK 32/23 Q1013 NOSIG=
201207101630 METAR LMML NIL=
201207101615 METAR LMML 101615Z 36006KT 320V060 CAVOK 34/24 Q1013 NOSIG=
201207101600 METAR LMML NIL=
201207101545 METAR LMML 101545Z 02006KT 350V060 CAVOK 36/17 Q1013 NOSIG=
201207101530 METAR LMML NIL=
201207101515 METAR LMML 101515Z 03004KT 330V090 CAVOK 37/16 Q1013 NOSIG=
201207101500 METAR LMML NIL=
201207101445 METAR LMML 101445Z 33003KT CAVOK 36/15 Q1013 NOSIG=
201207101430 METAR LMML NIL=
201207101415 METAR LMML 101415Z 04005KT 360V090 CAVOK 36/16 Q1013 NOSIG=
201207101400 METAR LMML NIL=
201207101345 METAR LMML 101345Z 03007KT 340V090 CAVOK 37/15 Q1014 NOSIG=
201207101330 METAR LMML NIL=
201207101315 METAR LMML 101315Z 02006KT 340V050 CAVOK 37/16 Q1014 NOSIG=
201207101300 METAR LMML NIL=
201207101245 METAR LMML 101245Z 03006KT 330V100 CAVOK 36/15 Q1013 NOSIG=
201207101230 METAR LMML NIL=
201207101215 METAR LMML 101215Z 06005KT 350V130 CAVOK 36/16 Q1014 NOSIG=
201207101145 METAR LMML 101145Z 05005KT 320V160 CAVOK 36/16 Q1014 NOSIG=
201207101130 METAR LMML NIL=
201207101115 METAR LMML 101115Z 03007KT 340V080 9999 FEW015 36/16 Q1014
                        NOSIG=
201207101100 METAR LMML NIL=
201207101045 METAR LMML 101045Z 03006KT 320V110 CAVOK 34/17 Q1014 NOSIG=
201207101030 METAR LMML NIL=
201207101015 METAR LMML 101015Z 32007KT 270V030 9999 FEW015 32/24 Q1014
                        NOSIG=
201207101000 METAR LMML NIL=
201207100945 METAR LMML 100945Z 32007KT 280V360 9999 FEW012 32/23 Q1014
                        NOSIG=
201207100930 METAR LMML NIL=
201207100915 METAR LMML 100915Z 31006KT 240V030 9999 FEW012 32/23 Q1014
                        NOSIG=
201207100900 METAR LMML NIL=
201207100845 METAR LMML 100845Z 29007KT 250V340 9999 FEW012 31/23 Q1014
                        NOSIG=
201207100815 METAR LMML 100815Z 28007KT 230V320 9999 FEW012 32/23 Q1013
                        NOSIG=
201207100800 METAR LMML NIL=
201207100745 METAR LMML 100745Z 31006KT 280V350 9999 FEW012 32/22 Q1013
                        NOSIG=
201207100730 METAR LMML NIL=
201207100715 METAR LMML 100715Z 29006KT 250V360 9999 FEW012 31/22 Q1013
                        NOSIG=
201207100645 METAR LMML 100645Z 27004KT 230V320 9999 FEW008 29/21 Q1012
                        NOSIG=
201207100630 METAR LMML NIL=
201207100615 METAR LMML 100615Z 28006KT 240V300 9999 FEW008 29/24 Q1012
                        NOSIG=
201207100600 METAR LMML NIL=
201207100545 METAR LMML 100545Z 27005KT 240V300 9999 FEW008 28/24 Q1012
                        NOSIG=
201207100530 METAR LMML NIL=
201207100515 METAR LMML 100515Z 25003KT 9999 FEW008 27/22 Q1012 NOSIG=
201207100500 METAR LMML NIL=
201207100445 METAR LMML 100445Z VRB02KT CAVOK 26/23 Q1012 NOSIG=
201207100430 METAR LMML NIL=
201207100415 METAR LMML 100415Z 28004KT 240V320 CAVOK 26/24 Q1012 NOSIG=
201207100400 METAR LMML NIL=
201207100345 METAR LMML 100345Z 33006KT CAVOK 26/23 Q1012 NOSIG=
201207100330 METAR LMML NIL=
201207100315 METAR LMML 100315Z 34006KT CAVOK 26/23 Q1012 NOSIG=
201207100300 METAR LMML NIL=
201207100245 METAR LMML 100245Z 35004KT CAVOK 26/22 Q1012 NOSIG=
201207100230 METAR LMML NIL=
201207100215 METAR LMML 100215Z 35004KT CAVOK 26/23 Q1012 NOSIG=
201207100200 METAR LMML NIL=
201207100145 METAR LMML 100145Z 34005KT 300V010 CAVOK 26/24 Q1012 NOSIG=
201207100130 METAR LMML NIL=
201207100115 METAR LMML 100115Z 32006KT CAVOK 26/24 Q1012 NOSIG=
201207100100 METAR LMML NIL=
201207100045 METAR LMML 100045Z 30005KT 270V330 CAVOK 27/22 Q1013 NOSIG=
201207100030 METAR LMML NIL=
201207100015 METAR LMML 100015Z 26006KT 230V310 CAVOK 26/24 Q1013 NOSIG=
201207100000 METAR LMML NIL=
201207092345 METAR LMML 092345Z 27008KT 240V300 CAVOK 27/23 Q1013 NOSIG=
201207092330 METAR LMML NIL=
201207092315 METAR LMML 092315Z 27009KT 240V300 CAVOK 27/23 Q1014 NOSIG=
201207092245 METAR LMML 092245Z VRB01KT CAVOK 27/23 Q1014 NOSIG=
201207092230 METAR LMML NIL=
201207092215 METAR LMML 092215Z 30005KT CAVOK 27/24 Q1014 NOSIG=
201207092200 METAR LMML NIL=
201207092145 METAR LMML 092145Z 28006KT 250V310 CAVOK 27/24 Q1014 NOSIG=
201207092130 METAR LMML NIL=
201207092115 METAR LMML 092115Z 28008KT CAVOK 27/24 Q1014 NOSIG=
201207092100 METAR LMML NIL=
201207092045 METAR LMML 092045Z 27004KT CAVOK 27/24 Q1014 NOSIG=
201207092030 METAR LMML NIL=
201207092015 METAR LMML 092015Z 26004KT CAVOK 27/24 Q1013 NOSIG=
201207092000 METAR LMML NIL=
201207091945 METAR LMML 091945Z 26005KT CAVOK 27/24 Q1013 NOSIG=
201207091915 METAR LMML 091915Z 25004KT 220V280 CAVOK 27/24 Q1013 NOSIG=
201207091900 METAR LMML NIL=
201207091845 METAR LMML 091845Z 24006KT CAVOK 28/24 Q1012 NOSIG=
201207091830 METAR LMML NIL=
201207091815 METAR LMML 091815Z 24004KT 200V290 CAVOK 29/23 Q1012 NOSIG=
201207091800 METAR LMML NIL=
201207091745 METAR LMML 091745Z 25004KT 220V280 CAVOK 31/21 Q1012 NOSIG=
201207091730 METAR LMML NIL=
201207091715 METAR LMML 091715Z VRB01KT CAVOK 34/11 Q1012 NOSIG=
201207091700 METAR LMML NIL=
201207091645 METAR LMML 091645Z 32005KT 300V360 CAVOK 34/11 Q1012 NOSIG=
201207091630 METAR LMML NIL=
201207091615 METAR LMML 091615Z 30007KT 240V360 CAVOK 35/12 Q1012 NOSIG=
201207091600 METAR LMML NIL=
201207091545 METAR LMML 091545Z 22005KT 170V270 CAVOK 34/20 Q1012 NOSIG=
201207091530 METAR LMML NIL=
201207091515 METAR LMML 091515Z 26005KT 220V310 CAVOK 35/09 Q1013 NOSIG=
201207091500 METAR LMML NIL=
201207091445 METAR LMML 091445Z 28005KT 220V320 CAVOK 35/14 Q1013 NOSIG=
201207091430 METAR LMML NIL=
201207091415 METAR LMML 091415Z 27006KT 230V300 CAVOK 35/13 Q1013 NOSIG=
201207091400 METAR LMML NIL=
201207091345 METAR LMML 091345Z 29007KT 250V350 CAVOK 35/12 Q1013 NOSIG=
201207091330 METAR LMML NIL=
201207091315 METAR LMML 091315Z 28007KT 240V330 CAVOK 35/14 Q1014 NOSIG=
201207091300 METAR LMML NIL=
201207091245 METAR LMML 091245Z 28008KT 250V310 CAVOK 34/16 Q1014 NOSIG=
201207091230 METAR LMML NIL=
201207091215 METAR LMML 091215Z 28011KT 250V310 CAVOK 35/15 Q1014 NOSIG=
201207091200 METAR LMML NIL=
201207091145 METAR LMML 091145Z 26009KT 220V300 CAVOK 34/15 Q1014 NOSIG=
201207091130 METAR LMML NIL=
201207091115 METAR LMML 091115Z 27008KT 210V300 CAVOK 34/14 Q1014 NOSIG=
201207091100 METAR LMML NIL=
201207091045 METAR LMML 091045Z 27008KT 230V310 CAVOK 35/08 Q1014 NOSIG=
201207091030 METAR LMML NIL=
201207091015 METAR LMML 091015Z 24007KT 190V290 CAVOK 34/11 Q1014 NOSIG=
201207091000 METAR LMML NIL=
201207090945 METAR LMML 090945Z 24008KT CAVOK 33/11 Q1014 NOSIG=
201207090915 METAR LMML 090915Z 23007KT 180V270 CAVOK 33/13 Q1014 NOSIG=
201207090845 METAR LMML 090845Z 22006KT 150V260 CAVOK 33/13 Q1014 NOSIG=
201207090830 METAR LMML NIL=
201207090815 METAR LMML 090815Z 19004KT 130V250 CAVOK 32/14 Q1014 NOSIG=
201207090800 METAR LMML NIL=
201207090745 METAR LMML 090745Z 23004KT 170V290 CAVOK 31/15 Q1013 NOSIG=
201207090730 METAR LMML NIL=
201207090715 METAR LMML 090715Z 28005KT 240V300 CAVOK 31/14 Q1013 NOSIG=
201207090700 METAR LMML NIL=
201207090645 METAR LMML 090645Z 24005KT 200V280 CAVOK 29/18 Q1013 NOSIG=
201207090630 METAR LMML NIL=
201207090615 METAR LMML 090615Z 24005KT 200V290 CAVOK 28/21 Q1013 NOSIG=
201207090600 METAR LMML NIL=
201207090545 METAR LMML 090545Z 24003KT CAVOK 27/23 Q1014 NOSIG=
201207090530 METAR LMML NIL=
201207090515 METAR LMML 090515Z VRB01KT 9000 NSC 25/23 Q1013 BECMG CAVOK=
201207090500 METAR LMML NIL=
201207090445 METAR LMML 090445Z VRB02KT 9000 NSC 24/24 Q1013 BECMG CAVOK=
201207090430 METAR LMML NIL=
201207090415 METAR LMML 090415Z 18004KT 170V230 7000 NSC 24/24 Q1013 BECMG
                        CAVOK=
201207090400 METAR LMML NIL=
201207090345 METAR LMML 090345Z VRB01KT 7000 NSC 23/23 Q1013 NOSIG=
201207090330 METAR LMML NIL=
201207090315 METAR LMML 090315Z VRB01KT CAVOK 23/22 Q1013 NOSIG=
201207090300 METAR LMML NIL=
201207090245 METAR LMML 090245Z 13003KT CAVOK 23/22 Q1012 NOSIG=
201207090230 METAR LMML NIL=
201207090215 METAR LMML 090215Z 14003KT CAVOK 24/22 Q1012 NOSIG=
201207090200 METAR LMML NIL=
201207090145 METAR LMML 090145Z VRB01KT CAVOK 24/22 Q1012 NOSIG=
201207090130 METAR LMML NIL=
201207090115 METAR LMML 090115Z VRB01KT CAVOK 24/22 Q1013 NOSIG=
201207090100 METAR LMML NIL=
201207090045 METAR LMML 090045Z VRB02KT CAVOK 25/22 Q1013 NOSIG=
201207090030 METAR LMML NIL=
201207090015 METAR LMML 090015Z VRB02KT CAVOK 25/22 Q1014 NOSIG=
201207090000 METAR LMML NIL=
201207082345 METAR LMML 082345Z VRB02KT CAVOK 25/22 Q1014 NOSIG=
201207082330 METAR LMML NIL=
201207082315 METAR LMML 082315Z 27003KT CAVOK 25/22 Q1014 NOSIG=
201207082300 METAR LMML NIL=
201207082245 METAR LMML 082245Z 26003KT CAVOK 25/20 Q1014 NOSIG=
201207082230 METAR LMML NIL=
201207082215 METAR LMML 082215Z 26003KT CAVOK 26/19 Q1014 NOSIG=
201207082200 METAR LMML NIL=
201207082145 METAR LMML 082145Z 28003KT CAVOK 26/20 Q1014 NOSIG=
201207082130 METAR LMML NIL=
201207082115 METAR LMML 082115Z 30003KT CAVOK 26/19 Q1014 NOSIG=
201207082100 METAR LMML NIL=
201207082045 METAR LMML 082045Z VRB02KT CAVOK 26/19 Q1014 NOSIG=
201207082030 METAR LMML NIL=
201207082015 METAR LMML 082015Z VRB01KT CAVOK 26/19 Q1014 NOSIG=
201207082000 METAR LMML NIL=
201207081945 METAR LMML 081945Z VRB02KT CAVOK 27/18 Q1013 NOSIG=
201207081930 METAR LMML NIL=
201207081915 METAR LMML 081915Z VRB01KT CAVOK 27/18 Q1013 NOSIG=
201207081900 METAR LMML NIL=
201207081845 METAR LMML 081845Z VRB02KT CAVOK 28/19 Q1013 NOSIG=
201207081830 METAR LMML NIL=
201207081815 METAR LMML 081815Z VRB02KT CAVOK 28/18 Q1013 NOSIG=
201207081800 METAR LMML NIL=
201207081745 METAR LMML 081745Z 21003KT CAVOK 29/18 Q1013 NOSIG=
201207081730 METAR LMML NIL=
201207081715 METAR LMML 081715Z 22004KT 170V270 CAVOK 30/18 Q1013 NOSIG=
201207081700 METAR LMML NIL=
201207081645 METAR LMML 081645Z 22003KT CAVOK 31/18 Q1013 NOSIG=
201207081630 METAR LMML NIL=
201207081615 METAR LMML 081615Z 20003KT CAVOK 32/16 Q1013 NOSIG=
201207081600 METAR LMML NIL=
201207081545 METAR LMML 081545Z 20005KT 130V270 CAVOK 32/15 Q1013 NOSIG=
201207081530 METAR LMML NIL=
201207081515 METAR LMML 081515Z 20004KT 140V270 CAVOK 33/15 Q1013 NOSIG=
201207081500 METAR LMML NIL=
201207081445 METAR LMML 081445Z 19005KT 110V250 CAVOK 32/18 Q1013 NOSIG=
201207081430 METAR LMML NIL=
201207081415 METAR LMML 081415Z 18004KT 140V240 CAVOK 32/18 Q1013 NOSIG=
201207081345 METAR LMML 081345Z 17004KT 070V290 CAVOK 32/19 Q1014 NOSIG=
201207081330 METAR LMML NIL=
201207081315 METAR LMML 081315Z 15006KT 080V280 CAVOK 32/20 Q1014 NOSIG=
201207081300 METAR LMML NIL=
201207081245 METAR LMML 081245Z 16006KT 090V210 CAVOK 32/21 Q1014 NOSIG=
201207081230 METAR LMML NIL=
201207081215 METAR LMML 081215Z 11005KT 040V170 CAVOK 33/17 Q1014 NOSIG=
201207081200 METAR LMML NIL=
201207081145 METAR LMML 081145Z 11007KT 080V170 CAVOK 33/16 Q1014 NOSIG=
201207081130 METAR LMML NIL=
201207081115 METAR LMML 081115Z 11006KT 070V150 CAVOK 32/14 Q1014 NOSIG=
201207081100 METAR LMML NIL=
201207081045 METAR LMML 081045Z 12006KT 060V160 CAVOK 32/15 Q1014 NOSIG=
201207081030 METAR LMML NIL=
201207081015 METAR LMML 081015Z 12007KT 090V170 CAVOK 32/14 Q1014 NOSIG=
201207081000 METAR LMML NIL=
201207080945 METAR LMML 080945Z 13007KT 080V170 CAVOK 31/17 Q1014 NOSIG=
201207080930 METAR LMML NIL=
201207080915 METAR LMML 080915Z 11006KT 060V150 CAVOK 31/20 Q1014 NOSIG=
201207080845 METAR LMML 080845Z 11006KT CAVOK 31/19 Q1014 NOSIG=
201207080815 METAR LMML 080815Z 07005KT 020V140 CAVOK 31/21 Q1014 NOSIG=
201207080800 METAR LMML NIL=
201207080745 METAR LMML 080745Z 06006KT 030V100 CAVOK 30/21 Q1014 NOSIG=
201207080730 METAR LMML NIL=
201207080715 METAR LMML 080715Z 09006KT 050V120 CAVOK 28/21 Q1013 NOSIG=
201207080645 METAR LMML 080645Z 08005KT 030V110 CAVOK 28/21 Q1013 NOSIG=
201207080630 METAR LMML NIL=
201207080615 METAR LMML 080615Z 08005KT CAVOK 27/22 Q1013 NOSIG=
201207080600 METAR LMML NIL=
201207080545 METAR LMML 080545Z 07007KT 040V100 CAVOK 27/23 Q1013 NOSIG=
201207080530 METAR LMML NIL=
201207080515 METAR LMML 080515Z 06006KT 020V160 CAVOK 26/22 Q1012 NOSIG=
201207080500 METAR LMML NIL=
201207080445 METAR LMML 080445Z VRB02KT CAVOK 25/22 Q1013 NOSIG=
201207080430 METAR LMML NIL=
201207080415 METAR LMML 080415Z 04003KT 9000 NSC 24/21 Q1012 BECMG CAVOK=
201207080400 METAR LMML NIL=
201207080345 METAR LMML 080345Z 04003KT 9000 NSC 23/21 Q1013 BECMG CAVOK=
201207080330 METAR LMML NIL=
201207080315 METAR LMML 080315Z VRB01KT 9000 NSC 23/21 Q1013 NOSIG=
201207080300 METAR LMML NIL=
201207080245 METAR LMML 080245Z VRB02KT 9000 NSC 23/21 Q1013 NOSIG=
201207080230 METAR LMML NIL=
201207080215 METAR LMML 080215Z VRB01KT CAVOK 23/21 Q1013 NOSIG=
201207080200 METAR LMML NIL=
201207080145 METAR LMML 080145Z VRB01KT CAVOK 24/21 Q1013 NOSIG=
201207080130 METAR LMML NIL=
201207080115 METAR LMML 080115Z VRB02KT CAVOK 24/21 Q1013 NOSIG=
201207080100 METAR LMML NIL=
201207080045 METAR LMML 080045Z VRB01KT CAVOK 24/21 Q1013 NOSIG=
201207080030 METAR LMML NIL=
201207080015 METAR LMML 080015Z VRB02KT CAVOK 24/21 Q1013 NOSIG=
201207072345 METAR LMML 072345Z VRB01KT CAVOK 24/22 Q1013 NOSIG=
201207072330 METAR LMML NIL=
201207072315 METAR LMML 072315Z VRB01KT CAVOK 25/22 Q1013 NOSIG=
201207072300 METAR LMML NIL=
201207072245 METAR LMML 072245Z VRB02KT CAVOK 25/21 Q1013 NOSIG=
201207072230 METAR LMML NIL=
201207072215 METAR LMML 072215Z 24003KT CAVOK 25/22 Q1013 NOSIG RMK FIREWORKS
                        SMOKE TO WEST OF AIRFIELD=
201207072200 METAR LMML NIL=
201207072145 METAR LMML 072145Z 23004KT CAVOK 26/22 Q1014 NOSIG=
201207072130 METAR LMML NIL=
201207072115 METAR LMML 072115Z 22005KT CAVOK 26/23 Q1014 NOSIG RMK FIREWORKS
                        SMOKE OVER AIRFIELD=
201207072100 METAR LMML NIL=
201207072045 METAR LMML 072045Z 21005KT 170V240 CAVOK 26/23 Q1013 NOSIG
                        RMK FIREWORKS SMOKE LAYER OVER AIRFIELD=
201207072030 METAR LMML NIL=
201207072015 METAR LMML 072015Z 20003KT CAVOK 26/23 Q1014 NOSIG RMK FIREWORKS
                        SMOKE LAYER TO WEST OF AIRFIELD=
201207072000 METAR LMML NIL=
201207071945 METAR LMML 071945Z VRB01KT CAVOK 27/22 Q1013 NOSIG=
201207071930 METAR LMML NIL=
201207071915 METAR LMML 071915Z VRB02KT CAVOK 27/22 Q1013 NOSIG=
201207071900 METAR LMML NIL=
201207071845 METAR LMML 071845Z 01003KT CAVOK 27/22 Q1013 NOSIG=
201207071830 METAR LMML NIL=
201207071815 METAR LMML 071815Z 34004KT 320V050 CAVOK 28/22 Q1013 NOSIG=
201207071800 METAR LMML NIL=
201207071745 METAR LMML 071745Z 34005KT 290V100 CAVOK 29/21 Q1013 NOSIG=
201207071730 METAR LMML NIL=
201207071715 METAR LMML 071715Z VRB02KT CAVOK 31/23 Q1012 NOSIG=
201207071700 METAR LMML NIL=
201207071645 METAR LMML 071645Z 17005KT 140V200 CAVOK 29/22 Q1012 NOSIG=
201207071630 METAR LMML NIL=
201207071615 METAR LMML 071615Z 18004KT 100V250 CAVOK 31/22 Q1012 NOSIG=
201207071600 METAR LMML NIL=
201207071545 METAR LMML 071545Z 33004KT 230V020 CAVOK 34/10 Q1013 NOSIG=
201207071530 METAR LMML NIL=
201207071515 METAR LMML 071515Z 29004KT 180V350 CAVOK 34/13 Q1013 NOSIG=
201207071500 METAR LMML NIL=
201207071445 METAR LMML 071445Z 30006KT 270V350 CAVOK 34/11 Q1013 NOSIG=
201207071430 METAR LMML NIL=
201207071415 METAR LMML 071415Z 28007KT 240V320 CAVOK 34/16 Q1013 NOSIG=
201207071400 METAR LMML NIL=
201207071345 METAR LMML 071345Z 28007KT 260V320 CAVOK 34/13 Q1013 NOSIG=
201207071330 METAR LMML NIL=
201207071315 METAR LMML 071315Z 28006KT 220V340 CAVOK 34/15 Q1013 NOSIG=
201207071300 METAR LMML NIL=
201207071245 METAR LMML 071245Z 30004KT 210V020 CAVOK 34/15 Q1013 NOSIG=
201207071230 METAR LMML NIL=
201207071215 METAR LMML 071215Z 27008KT 230V310 9999 FEW015 34/18 Q1014
                        NOSIG=
201207071200 METAR LMML NIL=
201207071145 METAR LMML 071145Z 27006KT 190V330 9999 FEW015 34/20 Q1014
                        NOSIG=
201207071130 METAR LMML NIL=
201207071115 METAR LMML 071115Z 07005KT 350V130 9999 FEW015 33/24 Q1014
                        NOSIG=
201207071100 METAR LMML NIL=
201207071045 METAR LMML 071045Z 23003KT 9999 FEW015 34/18 Q1013 NOSIG=
201207071030 METAR LMML NIL=
201207071015 METAR LMML 071015Z 10004KT CAVOK 34/24 Q1013 NOSIG=
201207071000 METAR LMML NIL=
201207070945 METAR LMML 070945Z 24003KT 9999 FEW015 33/20 Q1014 NOSIG=
201207070930 METAR LMML NIL=
201207070915 METAR LMML 070915Z 36003KT 9999 FEW015 33/19 Q1014 NOSIG=
201207070900 METAR LMML NIL=
201207070845 METAR LMML 070845Z 32005KT 250V360 9999 FEW015 32/19 Q1014
                        NOSIG=
201207070830 METAR LMML NIL=
201207070815 METAR LMML 070815Z 33005KT 280V030 9999 FEW015 31/22 Q1014
                        NOSIG=
201207070800 METAR LMML NIL=
201207070745 METAR LMML 070745Z 32004KT 230V010 9999 FEW015 29/21 Q1014
                        NOSIG=
201207070730 METAR LMML NIL=
201207070715 METAR LMML 070715Z 31005KT 270V360 9999 FEW015 29/23 Q1014
                        NOSIG=
201207070700 METAR LMML NIL=
201207070645 METAR LMML 070645Z 32004KT 250V360 9999 FEW015 28/23 Q1014
                        NOSIG=
201207070630 METAR LMML NIL=
201207070615 METAR LMML 070615Z 31004KT 280V360 9999 FEW012 27/23 Q1014
                        NOSIG=
201207070600 METAR LMML NIL=
201207070545 METAR LMML 070545Z 28003KT 9999 FEW012 26/23 Q1014 NOSIG=
201207070530 METAR LMML NIL=
201207070515 METAR LMML 070515Z VRB02KT CAVOK 25/24 Q1013 NOSIG=
201207070500 METAR LMML NIL=
201207070445 METAR LMML 070445Z VRB01KT 9999 FEW012 24/23 Q1013 NOSIG=
201207070430 METAR LMML NIL=
201207070415 METAR LMML 070415Z VRB02KT 9999 FEW009 24/23 Q1013 NOSIG=
201207070400 METAR LMML NIL=
201207070345 METAR LMML 070345Z VRB01KT 9999 FEW009 23/23 Q1013 NOSIG=
201207070330 METAR LMML NIL=
201207070315 METAR LMML 070315Z VRB02KT 9999 FEW009 24/23 Q1013 TEMPO
                        6000 BKN004=
201207070300 METAR LMML NIL=
201207070245 METAR LMML 070245Z 25003KT 9999 FEW008 24/23 Q1013 TEMPO
                        6000 BKN004=
201207070230 METAR LMML NIL=
201207070215 METAR LMML 070215Z 25003KT 9999 BKN008 24/23 Q1013 TEMPO
                        6000 BKN004=
201207070200 METAR LMML NIL=
201207070145 METAR LMML 070145Z VRB02KT 9999 FEW009 23/23 Q1013 TEMPO
                        6000 BKN004=
201207070130 METAR LMML NIL=
201207070115 METAR LMML 070115Z VRB01KT 9999 FEW009 24/23 Q1013 TEMPO
                        6000 BKN004=
201207070100 METAR LMML NIL=
201207070045 METAR LMML 070045Z VRB02KT 9999 SCT008 24/23 Q1013 TEMPO
                        6000 BKN004=
201207070030 METAR LMML NIL=
201207070015 METAR LMML 070015Z 27003KT 9999 BKN007 24/23 Q1014 TEMPO
                        6000 BKN004=
201207070000 METAR LMML NIL=
201207062345 METAR LMML 062345Z VRB02KT 9999 FEW007 24/23 Q1014 NOSIG=
201207062330 METAR LMML NIL=
201207062315 METAR LMML 062315Z VRB01KT 9999 SCT007 25/23 Q1014 NOSIG=
201207062300 METAR LMML NIL=
201207062245 METAR LMML 062245Z 20003KT 9999 FEW008 25/23 Q1014 NOSIG=
201207062230 METAR LMML NIL=
201207062215 METAR LMML 062215Z 21003KT 9999 SCT008 25/23 Q1014 NOSIG=
201207062145 METAR LMML 062145Z VRB02KT 9999 FEW012 25/24 Q1014 NOSIG=
201207062130 METAR LMML NIL=
201207062115 METAR LMML 062115Z VRB01KT 9999 FEW012 25/23 Q1014 NOSIG=
201207062100 METAR LMML NIL=
201207062045 METAR LMML 062045Z 22003KT CAVOK 25/23 Q1013 NOSIG RMK SMOKE
                        LAYER TO NE=
201207062030 METAR LMML NIL=
201207062015 METAR LMML 062015Z VRB02KT CAVOK 25/23 Q1013 NOSIG=
201207062000 METAR LMML NIL=
201207061945 METAR LMML 061945Z 19003KT CAVOK 26/23 Q1013 NOSIG=
201207061930 METAR LMML NIL=
201207061915 METAR LMML 061915Z 19004KT 160V240 CAVOK 26/23 Q1013 NOSIG=
201207061900 METAR LMML NIL=
201207061845 METAR LMML 061845Z 20005KT 130V250 9999 FEW012 26/23 Q1013
                        NOSIG=
201207061830 METAR LMML NIL=
201207061815 METAR LMML 061815Z 21006KT 160V250 CAVOK 26/23 Q1012 NOSIG=
201207061800 METAR LMML NIL=
201207061745 METAR LMML 061745Z 20005KT 160V250 CAVOK 27/23 Q1012 NOSIG=
201207061730 METAR LMML NIL=
201207061715 METAR LMML 061715Z 20006KT 170V250 CAVOK 28/23 Q1012 NOSIG=
201207061700 METAR LMML NIL=
201207061645 METAR LMML 061645Z 20006KT 160V260 CAVOK 28/22 Q1013 NOSIG=
201207061630 METAR LMML NIL=
201207061615 METAR LMML 061615Z 20006KT 150V240 CAVOK 29/23 Q1012 NOSIG=
201207061600 METAR LMML NIL=
201207061545 METAR LMML 061545Z 18006KT 140V240 CAVOK 29/22 Q1012 NOSIG=
201207061530 METAR LMML NIL=
201207061515 METAR LMML 061515Z 17006KT 120V220 CAVOK 30/23 Q1012 NOSIG=
201207061500 METAR LMML NIL=
201207061445 METAR LMML 061445Z 18005KT 130V240 CAVOK 31/23 Q1013 NOSIG=
201207061430 METAR LMML NIL=
201207061415 METAR LMML 061415Z 17006KT 110V230 CAVOK 31/22 Q1013 NOSIG=
201207061400 METAR LMML NIL=
201207061345 METAR LMML 061345Z 16006KT 110V230 CAVOK 31/23 Q1013 NOSIG=
201207061330 METAR LMML NIL=
201207061315 METAR LMML 061315Z 17007KT 130V220 CAVOK 30/22 Q1013 NOSIG=
201207061300 METAR LMML NIL=
201207061245 METAR LMML 061245Z 16008KT 120V220 CAVOK 31/22 Q1012 NOSIG=
201207061230 METAR LMML NIL=
201207061215 METAR LMML 061215Z 17008KT 130V250 CAVOK 31/21 Q1012 NOSIG=
201207061200 METAR LMML NIL=
201207061145 METAR LMML 061145Z 16007KT 120V220 CAVOK 30/20 Q1012 NOSIG=
201207061130 METAR LMML NIL=
201207061115 METAR LMML 061115Z 17007KT 110V250 CAVOK 31/21 Q1013 NOSIG=
201207061100 METAR LMML NIL=
201207061045 METAR LMML 061045Z 18008KT 150V240 CAVOK 29/21 Q1013 NOSIG=
201207061030 METAR LMML NIL=
201207061015 METAR LMML 061015Z 16007KT 100V210 9999 FEW020 29/20 Q1013
                        NOSIG=
201207061000 METAR LMML NIL=
201207060945 METAR LMML 060945Z 16007KT 110V230 CAVOK 31/21 Q1013 NOSIG=
201207060930 METAR LMML NIL=
201207060915 METAR LMML 060915Z 14008KT 100V200 CAVOK 29/21 Q1012 NOSIG=
201207060900 METAR LMML NIL=
201207060845 METAR LMML 060845Z 15007KT 110V200 CAVOK 30/22 Q1012 NOSIG=
201207060830 METAR LMML NIL=
201207060815 METAR LMML 060815Z 16007KT 120V240 9999 FEW018 29/22 Q1012
                        NOSIG=
201207060800 METAR LMML NIL=
201207060745 METAR LMML 060745Z 16007KT 130V220 CAVOK 28/22 Q1012 NOSIG=
201207060730 METAR LMML NIL=
201207060715 METAR LMML 060715Z 16008KT 130V190 CAVOK 28/22 Q1012 NOSIG=
201207060700 METAR LMML NIL=
201207060645 METAR LMML 060645Z 16007KT 100V210 CAVOK 28/23 Q1012 NOSIG=
201207060615 METAR LMML 060615Z 14009KT CAVOK 27/22 Q1011 NOSIG=
201207060600 METAR LMML NIL=
201207060545 METAR LMML 060545Z 13007KT 110V170 CAVOK 26/23 Q1011 NOSIG=
201207060530 METAR LMML NIL=
201207060515 METAR LMML 060515Z 13008KT CAVOK 25/23 Q1011 NOSIG=
201207060500 METAR LMML NIL=
201207060445 METAR LMML 060445Z 12007KT CAVOK 24/23 Q1011 NOSIG=
201207060430 METAR LMML NIL=
201207060415 METAR LMML 060415Z 16005KT 130V200 CAVOK 24/23 Q1011 NOSIG=
201207060400 METAR LMML NIL=
201207060345 METAR LMML 060345Z 15006KT 120V180 CAVOK 24/23 Q1011 NOSIG=
201207060330 METAR LMML NIL=
201207060315 METAR LMML 060315Z 16004KT 140V210 CAVOK 24/23 Q1011 NOSIG=
201207060300 METAR LMML NIL=
201207060245 METAR LMML 060245Z 15004KT CAVOK 24/23 Q1011 NOSIG=
201207060230 METAR LMML NIL=
201207060215 METAR LMML 060215Z 16005KT CAVOK 25/23 Q1011 NOSIG=
201207060200 METAR LMML NIL=
201207060145 METAR LMML 060145Z 16005KT 140V200 9999 FEW012 25/23 Q1011
                        NOSIG=
201207060130 METAR LMML NIL=
201207060115 METAR LMML 060115Z 15005KT 120V190 9999 FEW012 25/23 Q1011
                        NOSIG=
201207060100 METAR LMML NIL=
201207060045 METAR LMML 060045Z 14005KT 110V170 9999 FEW012 25/23 Q1011
                        NOSIG=
201207060030 METAR LMML NIL=
201207060015 METAR LMML 060015Z 15003KT 9999 FEW012 25/23 Q1011 NOSIG=
201207060000 METAR LMML NIL=
201207052345 METAR LMML 052345Z 14007KT 9999 FEW012 25/23 Q1011 NOSIG=
201207052330 METAR LMML NIL=
201207052315 METAR LMML 052315Z 14007KT 9999 FEW012 25/23 Q1012 NOSIG=
201207052300 METAR LMML NIL=
201207052245 METAR LMML 052245Z 14006KT 9999 FEW012 25/23 Q1012 NOSIG=
201207052230 METAR LMML NIL=
201207052215 METAR LMML 052215Z 14006KT 9999 FEW012 25/22 Q1012 NOSIG=
201207052200 METAR LMML NIL=
201207052145 METAR LMML 052145Z 14006KT 9999 FEW012 25/22 Q1012 NOSIG=
201207052130 METAR LMML NIL=
201207052115 METAR LMML 052115Z 14006KT 110V170 9999 FEW012 25/23 Q1012
                        NOSIG=
201207052100 METAR LMML NIL=
201207052045 METAR LMML 052045Z 14005KT 9999 FEW012 26/23 Q1012 NOSIG=
201207052015 METAR LMML 052015Z 14006KT 110V170 9999 FEW012 26/22 Q1012
                        NOSIG=
201207052000 METAR LMML NIL=
201207051945 METAR LMML 051945Z 14007KT 9999 FEW012 26/22 Q1012 NOSIG=
201207051915 METAR LMML 051915Z 14007KT 9999 FEW012 26/22 Q1011 NOSIG=
201207051900 METAR LMML NIL=
201207051845 METAR LMML 051845Z 13008KT 9999 FEW012 26/22 Q1011 NOSIG=
201207051830 METAR LMML NIL=
201207051815 METAR LMML 051815Z 13009KT 9999 FEW012 26/22 Q1011 NOSIG=
201207051800 METAR LMML NIL=
201207051745 METAR LMML 051745Z 13010KT 9999 FEW015 27/23 Q1011 NOSIG=
201207051730 METAR LMML NIL=
201207051715 METAR LMML 051715Z 13010KT 9999 FEW015 27/23 Q1010 NOSIG=
201207051700 METAR LMML NIL=
201207051645 METAR LMML 051645Z 13011KT 9999 FEW015 28/22 Q1010 NOSIG=
201207051630 METAR LMML NIL=
201207051615 METAR LMML 051615Z 14009KT 120V180 9999 FEW015 28/23 Q1010
                        NOSIG=
201207051600 METAR LMML NIL=
201207051545 METAR LMML 051545Z 14009KT 110V180 9999 FEW015 29/23 Q1010
                        NOSIG=
201207051530 METAR LMML NIL=
201207051515 METAR LMML 051515Z 13011KT 100V170 9999 FEW015 28/22 Q1010
                        NOSIG=
201207051500 METAR LMML NIL=
201207051445 METAR LMML 051445Z 14009KT 100V170 9999 FEW015 29/21 Q1011
                        NOSIG=
201207051430 METAR LMML NIL=
201207051415 METAR LMML 051415Z 15009KT 110V180 9999 FEW015 31/23 Q1011
                        NOSIG=
201207051400 METAR LMML NIL=
201207051345 METAR LMML 051345Z 15010KT 9999 FEW015 30/21 Q1011 NOSIG=
201207051330 METAR LMML NIL=
201207051315 METAR LMML 051315Z 14009KT 100V180 9999 FEW015 31/23 Q1011
                        NOSIG=
201207051300 METAR LMML NIL=
201207051245 METAR LMML 051245Z 14009KT 100V180 CAVOK 30/21 Q1011 NOSIG=
201207051230 METAR LMML NIL=
201207051215 METAR LMML 051215Z 14009KT 110V180 9999 FEW015 30/21 Q1011
                        NOSIG=
201207051200 METAR LMML NIL=
201207051145 METAR LMML 051145Z 15009KT 110V230 9999 FEW015 29/21 Q1011
                        NOSIG=
201207051130 METAR LMML NIL=
201207051115 METAR LMML 051115Z 16009KT 110V200 9999 FEW015 30/22 Q1012
                        NOSIG=
201207051100 METAR LMML NIL=
201207051045 METAR LMML 051045Z 15010KT 120V180 9999 FEW015 30/23 Q1012
                        NOSIG=
201207051030 METAR LMML NIL=
201207051015 METAR LMML 051015Z 16011KT 140V210 9999 FEW015 30/22 Q1012
                        NOSIG=
201207051000 METAR LMML NIL=
201207050945 METAR LMML 050945Z 16009KT 130V210 9999 FEW014 28/21 Q1012
                        NOSIG=
201207050930 METAR LMML NIL=
201207050915 METAR LMML 050915Z 15010KT 120V190 9999 FEW014 28/22 Q1012
                        NOSIG=
201207050900 METAR LMML NIL=
201207050845 METAR LMML 050845Z 16010KT 100V200 9999 FEW015 29/23 Q1012
                        NOSIG=
201207050830 METAR LMML NIL=
201207050815 METAR LMML 050815Z 16008KT 120V200 9999 FEW015 29/22 Q1012
                        NOSIG=
201207050745 METAR LMML 050745Z 15006KT 120V210 9999 FEW015 30/23 Q1011
                        NOSIG=
201207050730 METAR LMML NIL=
201207050715 METAR LMML 050715Z 15008KT 120V180 9999 FEW012 28/22 Q1012
                        NOSIG=
201207050700 METAR LMML NIL=
201207050645 METAR LMML 050645Z 15007KT 110V190 9999 FEW012 28/22 Q1012
                        NOSIG=
201207050630 METAR LMML NIL=
201207050615 METAR LMML 050615Z 14007KT 100V170 9999 FEW012 27/22 Q1011
                        BECMG CAVOK=
201207050600 METAR LMML NIL=
201207050545 METAR LMML 050545Z 13006KT 090V150 9999 FEW012 26/23 Q1011
                        BECMG CAVOK=
201207050530 METAR LMML NIL=
201207050515 METAR LMML 050515Z 13003KT 9999 FEW012 25/23 Q1011 BECMG
                        CAVOK=
201207050500 METAR LMML NIL=
201207050445 METAR LMML 050445Z 12004KT 9999 FEW009 24/23 Q1011 BECMG
                        CAVOK=
201207050430 METAR LMML NIL=
201207050415 METAR LMML 050415Z 12003KT 9999 FEW009 23/23 Q1011 BECMG
                        CAVOK=
201207050400 METAR LMML NIL=
201207050345 METAR LMML 050345Z 13004KT 9999 FEW009 24/23 Q1011 NOSIG=
201207050330 METAR LMML NIL=
201207050315 METAR LMML 050315Z 12003KT 9999 FEW009 24/23 Q1011 NOSIG=
201207050300 METAR LMML NIL=
201207050245 METAR LMML 050245Z VRB02KT 9999 FEW009 24/23 Q1011 NOSIG=
201207050230 METAR LMML NIL=
201207050215 METAR LMML 050215Z VRB02KT 9999 FEW009 24/23 Q1011 TEMPO
                        9000 BKN008=
201207050200 METAR LMML NIL=
201207050145 METAR LMML 050145Z VRB02KT 9999 SCT009 25/23 Q1011 TEMPO
                        9000 BKN008=
201207050130 METAR LMML NIL=
201207050115 METAR LMML 050115Z 19004KT 160V240 9999 SCT009 25/23 Q1012
                        NOSIG=
201207050100 METAR LMML NIL=
201207050045 METAR LMML 050045Z 19003KT 9999 SCT008 25/23 Q1012 NOSIG=
201207050030 METAR LMML NIL=
201207050015 METAR LMML 050015Z 18003KT 9999 FEW008 25/23 Q1012 NOSIG=
201207050000 METAR LMML NIL=
201207042345 METAR LMML 042345Z 18004KT 140V220 9999 FEW009 25/23 Q1012
                        NOSIG=
201207042330 METAR LMML NIL=
201207042315 METAR LMML 042315Z 19004KT 150V240 9999 FEW011 25/23 Q1012
                        NOSIG=
201207042300 METAR LMML NIL=
201207042245 METAR LMML 042245Z 18005KT 150V250 9999 FEW011 25/23 Q1012
                        NOSIG=
201207042230 METAR LMML NIL=
201207042215 METAR LMML 042215Z 17005KT 140V200 9999 FEW011 25/23 Q1012
                        NOSIG=
201207042200 METAR LMML NIL=
201207042145 METAR LMML 042145Z 18005KT 150V230 9999 FEW011 25/23 Q1012
                        NOSIG=
201207042130 METAR LMML NIL=
201207042115 METAR LMML 042115Z 18005KT 150V220 9999 FEW011 25/23 Q1012
                        NOSIG=
201207042100 METAR LMML NIL=
201207042045 METAR LMML 042045Z 16004KT 110V210 9999 FEW011 25/23 Q1012
                        NOSIG=
201207042030 METAR LMML NIL=
201207042015 METAR LMML 042015Z 15004KT 120V180 9999 FEW011 25/23 Q1012
                        NOSIG=
201207042000 METAR LMML NIL=
201207041945 METAR LMML 041945Z 13005KT 110V170 9999 FEW015 25/23 Q1012
                        NOSIG=
201207041930 METAR LMML NIL=
201207041915 METAR LMML 041915Z 26004KT 9999 FEW015 26/22 Q1011 NOSIG=
201207041900 METAR LMML NIL=
201207041845 METAR LMML 041845Z 14003KT 9999 FEW015 26/22 Q1011 NOSIG=
201207041830 METAR LMML NIL=
201207041815 METAR LMML 041815Z VRB02KT 9999 FEW015 26/23 Q1011 NOSIG=
201207041800 METAR LMML NIL=
201207041745 METAR LMML 041745Z 19003KT 9999 FEW016 27/23 Q1011 NOSIG=
201207041730 METAR LMML NIL=
201207041715 METAR LMML 041715Z 21004KT 150V260 9000 SCT017 27/23 Q1011
                        NOSIG=
201207041700 METAR LMML NIL=
201207041645 METAR LMML 041645Z 19005KT 150V250 9000 SCT019 28/23 Q1011
                        NOSIG=
201207041630 METAR LMML NIL=
201207041615 METAR LMML 041615Z 19005KT 130V260 9000 SCT020 28/22 Q1012
                        NOSIG=
201207041600 METAR LMML NIL=
201207041545 METAR LMML 041545Z 20006KT 160V260 9000 SCT020 28/23 Q1012
                        NOSIG=
201207041530 METAR LMML NIL=
201207041515 METAR LMML 041515Z 21006KT 150V270 9000 SCT020 30/24 Q1012
                        NOSIG=
201207041500 METAR LMML NIL=
201207041445 METAR LMML 041445Z 20006KT 160V250 9000 SCT014 28/22 Q1012
                        NOSIG=
201207041430 METAR LMML NIL=
201207041415 METAR LMML 041415Z 22007KT 160V270 9000 SCT014 30/23 Q1012
                        NOSIG=
201207041400 METAR LMML NIL=
201207041345 METAR LMML 041345Z 20007KT 130V260 9000 SCT014 30/23 Q1012
                        NOSIG=
201207041330 METAR LMML NIL=
201207041315 METAR LMML 041315Z 21007KT 160V250 9000 SCT014 30/23 Q1012
                        NOSIG=
201207041245 METAR LMML 041245Z 20007KT 140V260 9000 SCT015 29/23 Q1013
                        NOSIG=
201207041230 METAR LMML NIL=
201207041215 METAR LMML 041215Z 22007KT 150V260 9000 SCT014 30/23 Q1013
                        NOSIG=
201207041200 METAR LMML NIL=
201207041145 METAR LMML 041145Z 23007KT 160V280 9000 SCT013 29/22 Q1013
                        NOSIG=
201207041115 METAR LMML 041115Z 21008KT 150V250 9000 FEW020 30/24 Q1013
                        NOSIG=
201207041100 METAR LMML NIL=
201207041045 METAR LMML 041045Z 21008KT 160V260 9999 FEW015 29/23 Q1013
                        NOSIG=
201207041030 METAR LMML NIL=
201207041015 METAR LMML 041015Z 20008KT 160V250 9999 FEW015 28/22 Q1013
                        NOSIG=
201207041000 METAR LMML NIL=
201207040945 METAR LMML 040945Z 18008KT 150V240 CAVOK 28/22 Q1013 NOSIG=
201207040930 METAR LMML NIL=
201207040915 METAR LMML 040915Z 18006KT 130V260 9999 FEW015 28/22 Q1013
                        NOSIG=
201207040900 METAR LMML NIL=
201207040845 METAR LMML 040845Z 19005KT 140V250 9999 FEW015 28/22 Q1013
                        NOSIG=
201207040830 METAR LMML NIL=
201207040815 METAR LMML 040815Z 18005KT 110V270 9999 SCT015 28/22 Q1013
                        NOSIG=
201207040745 METAR LMML 040745Z 16004KT 120V230 9999 BKN013 28/22 Q1013
                        NOSIG=
201207040730 METAR LMML NIL=
201207040715 METAR LMML 040715Z 19004KT 150V250 9999 SCT014 27/22 Q1013
                        NOSIG=
201207040700 METAR LMML NIL=
201207040645 METAR LMML 040645Z 21003KT 9000 SCT011 27/22 Q1013 NOSIG=
201207040630 METAR LMML NIL=
201207040615 METAR LMML 040615Z 20003KT 7000 SCT008 26/22 Q1013 BECMG
                        9999=
201207040600 METAR LMML NIL=
201207040545 METAR LMML 040545Z VRB01KT 5000 BR SCT008 26/23 Q1013 BECMG
                        8000=
201207040530 METAR LMML NIL=
201207040515 METAR LMML 040515Z VRB01KT 4000 BR SCT008 25/23 Q1013 BECMG
                        6000=
201207040445 METAR LMML 040445Z VRB02KT 3000 BR SCT008 24/23 Q1013 TEMPO
                        BKN008=
201207040430 METAR LMML NIL=
201207040415 METAR LMML 040415Z VRB01KT 2000 BR SCT008 24/23 Q1013 TEMPO
                        1000 BCFG BKN005=
201207040400 METAR LMML NIL=
201207040345 METAR LMML 040345Z 25004KT 2000 BR BKN007 24/23 Q1013 TEMPO
                        1000 BCFG BKN005=
201207040330 METAR LMML NIL=
201207040315 METAR LMML 040315Z VRB02KT 3000 BR FEW005 24/23 Q1012 TEMPO
                        1000 BCFG BKN002=
201207040300 METAR LMML NIL=
201207040245 METAR LMML 040245Z 00000KT 3000 BR FEW005 24/23 Q1012 TEMPO
                        1000 BCFG BKN002=
201207040230 METAR LMML NIL=
201207040215 METAR LMML 040215Z 00000KT 3500 BR SCT005 25/24 Q1013 TEMPO
                        1000 BCFG BKN002=
201207040200 METAR LMML NIL=
201207040145 METAR LMML 040145Z VRB02KT 3500 BR BKN005 25/24 Q1013 TEMPO
                        2000=
201207040130 METAR LMML NIL=
201207040115 METAR LMML 040115Z VRB02KT 3500 BR BKN005 24/24 Q1013 NOSIG=
201207040100 METAR LMML NIL=
201207040045 METAR LMML 040045Z 00000KT 4000 BR SCT005 24/23 Q1013 NOSIG=
201207040015 METAR LMML 040015Z VRB01KT 6000 FEW009 24/23 Q1013 TEMPO
                        5000 BR BKN008 RMK BR=
201207040000 METAR LMML NIL=
201207032345 METAR LMML 032345Z VRB01KT 6000 FEW009 25/23 Q1013 TEMPO
                        5000 BR BKN008=
201207032330 METAR LMML NIL=
201207032315 METAR LMML 032315Z VRB02KT 6000 FEW009 25/23 Q1014 TEMPO
                        5000 BR BKN008=
201207032300 METAR LMML NIL=
201207032245 METAR LMML 032245Z 32003KT 6000 FEW009 25/23 Q1014 TEMPO
                        5000 BR BKN008=
201207032230 METAR LMML NIL=
201207032215 METAR LMML 032215Z 32003KT 6000 FEW009 25/23 Q1014 TEMPO
                        5000 BR BKN008=
201207032200 METAR LMML NIL=
201207032145 METAR LMML 032145Z 33003KT 8000 FEW009 25/23 Q1014 TEMPO
                        5000 BR BKN008=
201207032130 METAR LMML NIL=
201207032115 METAR LMML 032115Z 30004KT 8000 FEW009 25/23 Q1014 TEMPO
                        5000 BR BKN008=
201207032100 METAR LMML NIL=
201207032045 METAR LMML 032045Z 33004KT 8000 FEW010 25/23 Q1014 TEMPO
                        5000 BR BKN008=
201207032030 METAR LMML NIL=
201207032015 METAR LMML 032015Z 34005KT 8000 FEW010 26/23 Q1014 TEMPO
                        5000 BR BKN008=
201207032000 METAR LMML NIL=
201207031945 METAR LMML 031945Z 33005KT 300V360 8000 FEW010 26/24 Q1014
                        NOSIG=
201207031930 METAR LMML NIL=
201207031915 METAR LMML 031915Z 32005KT 8000 FEW011 26/24 Q1014 NOSIG=
201207031900 METAR LMML NIL=
201207031845 METAR LMML 031845Z 32004KT 290V360 8000 FEW011 26/23 Q1014
                        NOSIG RMK HZ=
201207031830 METAR LMML NIL=
201207031815 METAR LMML 031815Z VRB02KT 8000 FEW011 27/23 Q1013 NOSIG=
201207031800 METAR LMML NIL=
201207031745 METAR LMML 031745Z 22005KT 9000 FEW011 27/23 Q1013 NOSIG=
201207031730 METAR LMML NIL=
201207031715 METAR LMML 031715Z 21005KT 160V250 9000 FEW011 28/23 Q1013
                        NOSIG=
201207031700 METAR LMML NIL=
201207031645 METAR LMML 031645Z 21004KT 150V270 9999 FEW015 29/23 Q1013
                        NOSIG=
201207031630 METAR LMML NIL=
201207031615 METAR LMML 031615Z 22005KT 180V260 9999 FEW015 29/23 Q1014
                        NOSIG=
201207031600 METAR LMML NIL=
201207031545 METAR LMML 031545Z 21007KT 160V260 9999 FEW015 28/23 Q1014
                        NOSIG=
201207031530 METAR LMML NIL=
201207031515 METAR LMML 031515Z 22008KT 170V250 CAVOK 29/23 Q1014 NOSIG=
201207031500 METAR LMML NIL=
201207031445 METAR LMML 031445Z 21007KT 160V260 CAVOK 28/22 Q1014 NOSIG=
201207031430 METAR LMML NIL=
201207031415 METAR LMML 031415Z 20006KT 150V250 CAVOK 29/21 Q1014 NOSIG=
201207031400 METAR LMML NIL=
201207031345 METAR LMML 031345Z 18006KT 140V250 CAVOK 31/23 Q1014 NOSIG=
201207031330 METAR LMML NIL=
201207031315 METAR LMML 031315Z 19005KT 140V260 CAVOK 30/22 Q1014 NOSIG=
201207031300 METAR LMML NIL=
201207031245 METAR LMML 031245Z 19004KT 070V310 CAVOK 31/22 Q1015 NOSIG=
201207031230 METAR LMML NIL=
201207031215 METAR LMML 031215Z 15005KT 030V230 CAVOK 29/21 Q1015 NOSIG=
201207031200 METAR LMML NIL=
201207031145 METAR LMML 031145Z 18006KT 120V250 CAVOK 31/23 Q1015 NOSIG=
201207031130 METAR LMML NIL=
201207031115 METAR LMML 031115Z 15006KT 090V220 CAVOK 30/23 Q1015 NOSIG=
201207031100 METAR LMML NIL=
201207031045 METAR LMML 031045Z 15006KT 100V240 CAVOK 29/22 Q1015 NOSIG=
201207031030 METAR LMML NIL=
201207031015 METAR LMML 031015Z 13006KT 080V180 CAVOK 30/22 Q1015 NOSIG=
201207031000 METAR LMML NIL=
201207030945 METAR LMML 030945Z 11004KT 070V160 CAVOK 29/20 Q1016 NOSIG=
201207030930 METAR LMML NIL=
201207030915 METAR LMML 030915Z 12005KT 070V180 CAVOK 29/20 Q1016 NOSIG=
201207030845 METAR LMML 030845Z 12006KT 080V150 CAVOK 29/22 Q1016 NOSIG=
201207030830 METAR LMML NIL=
201207030815 METAR LMML 030815Z 10006KT 070V140 CAVOK 29/20 Q1016 NOSIG=
201207030800 METAR LMML NIL=
201207030745 METAR LMML 030745Z 10004KT 030V160 CAVOK 31/22 Q1016 NOSIG=
201207030730 METAR LMML NIL=
201207030715 METAR LMML 030715Z VRB02KT CAVOK 30/21 Q1016 NOSIG=
201207030700 METAR LMML NIL=
201207030645 METAR LMML 030645Z VRB01KT CAVOK 28/21 Q1016 NOSIG=
201207030630 METAR LMML NIL=
201207030615 METAR LMML 030615Z VRB01KT CAVOK 27/22 Q1016 NOSIG=
201207030600 METAR LMML NIL=
201207030545 METAR LMML 030545Z VRB01KT 7000 NSC 26/22 Q1015 BECMG CAVOK=
201207030530 METAR LMML NIL=
201207030515 METAR LMML 030515Z VRB02KT 7000 NSC 25/22 Q1015 BECMG CAVOK=
201207030500 METAR LMML NIL=
201207030445 METAR LMML 030445Z VRB01KT 7000 NSC 24/22 Q1015 BECMG CAVOK=
201207030430 METAR LMML NIL=
201207030415 METAR LMML 030415Z VRB02KT 7000 NSC 23/21 Q1015 TEMPO 5000
                        BR=
201207030400 METAR LMML NIL=
201207030345 METAR LMML 030345Z VRB01KT 7000 NSC 23/21 Q1015 TEMPO 5000
                        BR=
201207030330 METAR LMML NIL=
201207030315 METAR LMML 030315Z VRB01KT CAVOK 23/21 Q1015 TEMPO 6000=
201207030300 METAR LMML NIL=
201207030245 METAR LMML 030245Z VRB01KT CAVOK 24/21 Q1015 NOSIG=
201207030230 METAR LMML NIL=
201207030215 METAR LMML 030215Z 31003KT CAVOK 24/21 Q1015 NOSIG=
201207030200 METAR LMML NIL=
201207030145 METAR LMML 030145Z 26003KT CAVOK 24/21 Q1015 NOSIG=
201207030130 METAR LMML NIL=
201207030115 METAR LMML 030115Z VRB02KT CAVOK 24/20 Q1015 NOSIG=
201207030100 METAR LMML NIL=
201207030045 METAR LMML 030045Z 23003KT CAVOK 24/20 Q1015 NOSIG=
201207030030 METAR LMML NIL=
201207030015 METAR LMML 030015Z 25003KT CAVOK 24/20 Q1015 NOSIG=
201207030000 METAR LMML NIL=
201207022345 METAR LMML 022345Z VRB02KT CAVOK 24/19 Q1015 NOSIG=
201207022330 METAR LMML NIL=
201207022315 METAR LMML 022315Z VRB01KT CAVOK 25/19 Q1016 NOSIG=
201207022300 METAR LMML NIL=
201207022245 METAR LMML 022245Z 21003KT CAVOK 25/20 Q1016 NOSIG=
201207022230 METAR LMML NIL=
201207022215 METAR LMML 022215Z VRB02KT CAVOK 25/18 Q1016 NOSIG=
201207022200 METAR LMML NIL=
201207022145 METAR LMML 022145Z VRB01KT CAVOK 25/19 Q1016 NOSIG=
201207022130 METAR LMML NIL=
201207022115 METAR LMML 022115Z 29004KT CAVOK 26/19 Q1016 NOSIG=
201207022100 METAR LMML NIL=
201207022045 METAR LMML 022045Z 33004KT CAVOK 26/19 Q1016 NOSIG=
201207022030 METAR LMML NIL=
201207022015 METAR LMML 022015Z 32005KT CAVOK 26/20 Q1016 NOSIG=
201207022000 METAR LMML NIL=
201207021945 METAR LMML 021945Z 34004KT 310V010 CAVOK 26/20 Q1016 NOSIG=
201207021930 METAR LMML NIL=
201207021915 METAR LMML 021915Z 35004KT 290V030 CAVOK 26/20 Q1016 NOSIG=
201207021900 METAR LMML NIL=
201207021845 METAR LMML 021845Z 33009KT CAVOK 26/20 Q1016 NOSIG=
201207021830 METAR LMML NIL=
201207021815 METAR LMML 021815Z 33008KT CAVOK 27/20 Q1015 NOSIG=
201207021800 METAR LMML NIL=
201207021745 METAR LMML 021745Z 34009KT 310V010 CAVOK 27/21 Q1015 NOSIG=
201207021730 METAR LMML NIL=
201207021715 METAR LMML 021715Z 36008KT CAVOK 29/22 Q1015 NOSIG=
201207021700 METAR LMML NIL=
201207021645 METAR LMML 021645Z 34008KT 300V020 CAVOK 31/22 Q1015 NOSIG=
201207021630 METAR LMML NIL=
201207021615 METAR LMML 021615Z 32010KT CAVOK 31/21 Q1015 NOSIG=
201207021600 METAR LMML NIL=
201207021545 METAR LMML 021545Z 32009KT CAVOK 31/21 Q1015 NOSIG=
201207021530 METAR LMML NIL=
201207021515 METAR LMML 021515Z 32010KT 300V360 CAVOK 32/21 Q1015 NOSIG=
201207021500 METAR LMML NIL=
201207021445 METAR LMML 021445Z 30010KT 280V340 CAVOK 32/21 Q1015 NOSIG=
201207021430 METAR LMML NIL=
201207021415 METAR LMML 021415Z 31010KT 280V350 CAVOK 32/21 Q1015 NOSIG=
201207021400 METAR LMML NIL=
201207021345 METAR LMML 021345Z 31011KT 280V340 CAVOK 33/20 Q1015 NOSIG=
201207021330 METAR LMML NIL=
201207021315 METAR LMML 021315Z 30013KT CAVOK 34/17 Q1015 NOSIG=
201207021300 METAR LMML NIL=
201207021245 METAR LMML 021245Z 31012KT CAVOK 34/17 Q1015 NOSIG=
201207021230 METAR LMML NIL=
201207021215 METAR LMML 021215Z 30012KT CAVOK 34/16 Q1015 NOSIG=
201207021200 METAR LMML NIL=
201207021145 METAR LMML 021145Z 34011KT 310V010 CAVOK 34/15 Q1015 NOSIG=
201207021130 METAR LMML NIL=
201207021115 METAR LMML 021115Z 34012KT CAVOK 34/16 Q1016 NOSIG=
201207021100 METAR LMML NIL=
201207021045 METAR LMML 021045Z 34011KT 310V010 CAVOK 33/16 Q1016 NOSIG=
201207021030 METAR LMML NIL=
201207021015 METAR LMML 021015Z 32011KT 280V010 CAVOK 34/16 Q1016 NOSIG=
201207021000 METAR LMML NIL=
201207020945 METAR LMML 020945Z 33013KT CAVOK 33/14 Q1016 NOSIG=
201207020930 METAR LMML NIL=
201207020915 METAR LMML 020915Z 33013KT CAVOK 33/15 Q1016 NOSIG=
201207020900 METAR LMML NIL=
201207020845 METAR LMML 020845Z 32012KT 300V360 CAVOK 32/16 Q1016 NOSIG=
201207020830 METAR LMML NIL=
201207020815 METAR LMML 020815Z 31011KT 280V340 CAVOK 32/16 Q1016 NOSIG=
201207020800 METAR LMML NIL=
201207020745 METAR LMML 020745Z 30010KT 280V340 CAVOK 31/16 Q1016 NOSIG=
201207020730 METAR LMML NIL=
201207020715 METAR LMML 020715Z 32008KT 270V340 CAVOK 31/16 Q1016 NOSIG=
201207020645 METAR LMML 020645Z 31010KT CAVOK 31/16 Q1015 NOSIG=
201207020630 METAR LMML NIL=
201207020615 METAR LMML 020615Z 32009KT CAVOK 29/16 Q1015 NOSIG=
201207020600 METAR LMML NIL=
201207020545 METAR LMML 020545Z 31007KT CAVOK 28/16 Q1015 NOSIG=
201207020530 METAR LMML NIL=
201207020515 METAR LMML 020515Z 31004KT CAVOK 26/18 Q1015 NOSIG=
201207020445 METAR LMML 020445Z 30004KT CAVOK 25/19 Q1015 NOSIG=
201207020430 METAR LMML NIL=
201207020415 METAR LMML 020415Z 30004KT 250V330 CAVOK 25/18 Q1015 NOSIG=
201207020400 METAR LMML NIL=
201207020345 METAR LMML 020345Z 30004KT CAVOK 25/16 Q1014 NOSIG=
201207020330 METAR LMML NIL=
201207020315 METAR LMML 020315Z 30006KT CAVOK 25/16 Q1014 NOSIG=
201207020300 METAR LMML NIL=
201207020245 METAR LMML 020245Z 31003KT CAVOK 24/18 Q1014 NOSIG=
201207020230 METAR LMML NIL=
201207020215 METAR LMML 020215Z 27004KT CAVOK 24/18 Q1014 NOSIG=
201207020200 METAR LMML NIL=
201207020145 METAR LMML 020145Z 28003KT CAVOK 24/18 Q1014 NOSIG=
201207020130 METAR LMML NIL=
201207020115 METAR LMML 020115Z 28003KT CAVOK 25/17 Q1015 NOSIG=
201207020100 METAR LMML NIL=
201207020045 METAR LMML 020045Z 27004KT CAVOK 24/18 Q1015 NOSIG=
201207020030 METAR LMML NIL=
201207020015 METAR LMML 020015Z VRB02KT CAVOK 24/19 Q1014 NOSIG=
201207020000 METAR LMML NIL=
201207012345 METAR LMML 012345Z VRB02KT CAVOK 25/20 Q1015 NOSIG=
201207012315 METAR LMML 012315Z 31003KT CAVOK 25/20 Q1015 NOSIG=
201207012300 METAR LMML NIL=
201207012245 METAR LMML 012245Z 30004KT CAVOK 25/21 Q1015 NOSIG=
201207012230 METAR LMML NIL=
201207012215 METAR LMML 012215Z 30006KT CAVOK 25/21 Q1015 NOSIG=
201207012200 METAR LMML NIL=
201207012145 METAR LMML 012145Z 31005KT CAVOK 25/22 Q1015 NOSIG=
201207012130 METAR LMML NIL=
201207012115 METAR LMML 012115Z 30006KT 270V330 CAVOK 25/21 Q1015 NOSIG=
201207012100 METAR LMML NIL=
201207012045 METAR LMML 012045Z 28005KT CAVOK 25/22 Q1015 NOSIG=
201207012030 METAR LMML NIL=
201207012015 METAR LMML 012015Z 29004KT 260V320 CAVOK 26/22 Q1015 NOSIG=
201207012000 METAR LMML NIL=
201207011945 METAR LMML 011945Z 31004KT 290V360 CAVOK 26/22 Q1015 NOSIG=
201207011930 METAR LMML NIL=
201207011915 METAR LMML 011915Z 30003KT CAVOK 27/20 Q1014 NOSIG=
201207011900 METAR LMML NIL=
201207011845 METAR LMML 011845Z VRB02KT CAVOK 28/18 Q1014 NOSIG=
201207011830 METAR LMML NIL=
201207011815 METAR LMML 011815Z 07003KT CAVOK 29/19 Q1014 NOSIG=
201207011800 METAR LMML NIL=
201207011745 METAR LMML 011745Z 04003KT CAVOK 29/18 Q1014 NOSIG=
201207011730 METAR LMML NIL=
201207011715 METAR LMML 011715Z 03004KT CAVOK 31/19 Q1014 NOSIG=
201207011700 METAR LMML NIL=
201207011645 METAR LMML 011645Z 02004KT 330V060 CAVOK 31/19 Q1013 NOSIG=
201207011630 METAR LMML NIL=
201207011615 METAR LMML 011615Z 26004KT 160V030 CAVOK 31/19 Q1013 NOSIG=
201207011600 METAR LMML NIL=
201207011545 METAR LMML 011545Z 22004KT 140V280 CAVOK 31/19 Q1014 NOSIG=
201207011530 METAR LMML NIL=
201207011515 METAR LMML 011515Z 20004KT 140V270 CAVOK 32/19 Q1014 NOSIG=
201207011500 METAR LMML NIL=
201207011445 METAR LMML 011445Z 19005KT 060V270 CAVOK 32/18 Q1014 NOSIG=
201207011430 METAR LMML NIL=
201207011415 METAR LMML 011415Z 22006KT 150V020 CAVOK 33/18 Q1014 NOSIG=
201207011400 METAR LMML NIL=
201207011345 METAR LMML 011345Z 24003KT CAVOK 32/17 Q1015 NOSIG=
201207011330 METAR LMML NIL=
201207011315 METAR LMML 011315Z VRB02KT CAVOK 33/17 Q1015 NOSIG=
201207011300 METAR LMML NIL=
201207011245 METAR LMML 011245Z 18006KT 140V250 CAVOK 32/17 Q1015 NOSIG=
201207011230 METAR LMML NIL=
201207011215 METAR LMML 011215Z 18007KT 030V250 CAVOK 32/17 Q1015 NOSIG=
201207011200 METAR LMML NIL=
201207011145 METAR LMML 011145Z 13003KT CAVOK 33/18 Q1015 NOSIG=
201207011130 METAR LMML NIL=
201207011115 METAR LMML 011115Z 06004KT 350V140 CAVOK 34/14 Q1015 NOSIG=
201207011100 METAR LMML NIL=
201207011045 METAR LMML 011045Z 35006KT 310V120 CAVOK 33/14 Q1015 NOSIG=
201207011030 METAR LMML NIL=
201207011015 METAR LMML 011015Z 03006KT 330V120 CAVOK 33/12 Q1015 NOSIG=
201207011000 METAR LMML NIL=
201207010945 METAR LMML 010945Z 03006KT 320V080 CAVOK 33/13 Q1015 NOSIG=
201207010930 METAR LMML NIL=
201207010915 METAR LMML 010915Z 04005KT 340V070 CAVOK 33/13 Q1015 NOSIG=
201207010900 METAR LMML NIL=
201207010845 METAR LMML 010845Z 01004KT 310V090 CAVOK 33/13 Q1015 NOSIG=
201207010830 METAR LMML NIL=
201207010815 METAR LMML 010815Z 03005KT 340V080 CAVOK 33/13 Q1015 NOSIG=
201207010800 METAR LMML NIL=
201207010745 METAR LMML 010745Z 34004KT 290V050 CAVOK 31/13 Q1015 NOSIG=
201207010730 METAR LMML NIL=
201207010715 METAR LMML 010715Z 35005KT 310V030 CAVOK 31/14 Q1015 NOSIG=
201207010700 METAR LMML NIL=
201207010645 METAR LMML 010645Z 34004KT 290V010 CAVOK 29/14 Q1015 NOSIG=
201207010630 METAR LMML NIL=
201207010615 METAR LMML 010615Z 33003KT CAVOK 28/14 Q1015 NOSIG=
201207010600 METAR LMML NIL=
201207010545 METAR LMML 010545Z VRB02KT CAVOK 25/18 Q1015 NOSIG=
201207010530 METAR LMML NIL=
201207010515 METAR LMML 010515Z VRB02KT CAVOK 24/21 Q1015 NOSIG=
201207010500 METAR LMML NIL=
201207010445 METAR LMML 010445Z VRB02KT 9000 NSC 22/18 Q1015 BECMG CAVOK=
201207010430 METAR LMML NIL=
201207010415 METAR LMML 010415Z VRB01KT 9000 NSC 22/18 Q1015 NOSIG=
201207010400 METAR LMML NIL=
201207010345 METAR LMML 010345Z VRB01KT CAVOK 21/19 Q1015 NOSIG=
201207010330 METAR LMML NIL=
201207010315 METAR LMML 010315Z VRB01KT CAVOK 22/20 Q1015 NOSIG=
201207010300 METAR LMML NIL=
201207010245 METAR LMML 010245Z VRB02KT CAVOK 22/20 Q1014 NOSIG=
201207010230 METAR LMML NIL=
201207010215 METAR LMML 010215Z VRB02KT CAVOK 22/20 Q1014 NOSIG=
201207010200 METAR LMML NIL=
201207010145 METAR LMML 010145Z VRB01KT CAVOK 22/21 Q1014 NOSIG=
201207010130 METAR LMML NIL=
201207010115 METAR LMML 010115Z 00000KT CAVOK 23/21 Q1015 NOSIG=
201207010100 METAR LMML NIL=
201207010045 METAR LMML 010045Z VRB02KT CAVOK 24/22 Q1015 NOSIG=
201207010030 METAR LMML NIL=
201207010015 METAR LMML 010015Z VRB02KT CAVOK 24/22 Q1015 NOSIG=
201207010000 METAR LMML NIL=
